14840KMKG MKG20030701000009207/01/03 00:00:32  5-MIN KMKG 010500Z 00000KT 10SM CLR 17/14 A3015 420 86 800 000/00 RMK AO2
14840KMKG MKG20030701000509207/01/03 00:05:31  5-MIN KMKG 010505Z 00000KT 10SM CLR 16/14 A3015 420 90 700 000/00 RMK AO2
14840KMKG MKG20030701001009207/01/03 00:10:31  5-MIN KMKG 010510Z 00000KT 10SM CLR 16/14 A3015 420 90 700 000/00 RMK AO2
14840KMKG MKG20030701001509207/01/03 00:15:31  5-MIN KMKG 010515Z 00000KT 10SM CLR 16/14 A3015 420 90 700 000/00 RMK AO2
14840KMKG MKG20030701002009207/01/03 00:20:31  5-MIN KMKG 010520Z 00000KT 10SM CLR 16/14 A3015 420 90 700 000/00 RMK AO2
14840KMKG MKG20030701002509207/01/03 00:25:31  5-MIN KMKG 010525Z 00000KT 10SM CLR 16/14 A3015 420 90 700 000/00 RMK AO2
14840KMKG MKG20030701003009207/01/03 00:30:31  5-MIN KMKG 010530Z 00000KT 10SM CLR 16/14 A3015 420 93 600 000/00 RMK AO2
14840KMKG MKG20030701003509207/01/03 00:35:31  5-MIN KMKG 010535Z 00000KT 10SM CLR 16/14 A3015 420 93 600 000/00 RMK AO2
14840KMKG MKG20030701004009207/01/03 00:40:31  5-MIN KMKG 010540Z 00000KT 10SM CLR 16/14 A3015 420 93 600 000/00 RMK AO2
14840KMKG MKG20030701004509207/01/03 00:45:31  5-MIN KMKG 010545Z 00000KT 10SM CLR 16/14 A3015 420 93 600 000/00 RMK AO2
14840KMKG MKG20030701005012707/01/03 00:50:31  5-MIN KMKG 010550Z 00000KT 10SM CLR 16/14 A3015 420 93 600 000/00 RMK AO2 SLP207 T01560144 10239 20156 53005
14840KMKG MKG20030701005512707/01/03 00:55:31  5-MIN KMKG 010555Z 00000KT 10SM CLR 16/14 A3015 420 93 600 000/00 RMK AO2 SLP207 T01560144 10239 20156 55000
14840KMKG MKG20030701010009207/01/03 01:00:31  5-MIN KMKG 010600Z 00000KT 10SM CLR 16/14 A3015 420 93 600 000/00 RMK AO2
14840KMKG MKG20030701010509207/01/03 01:05:31  5-MIN KMKG 010605Z 00000KT 10SM CLR 16/14 A3014 420 93 600 000/00 RMK AO2
14840KMKG MKG20030701011009207/01/03 01:10:31  5-MIN KMKG 010610Z 00000KT 10SM CLR 15/14 A3014 430 96 600 000/00 RMK AO2
14840KMKG MKG20030701011509207/01/03 01:15:31  5-MIN KMKG 010615Z 00000KT 10SM CLR 15/14 A3014 430 96 600 000/00 RMK AO2
14840KMKG MKG20030701012009207/01/03 01:20:31  5-MIN KMKG 010620Z 00000KT 10SM CLR 15/14 A3014 430 96 600 000/00 RMK AO2
14840KMKG MKG20030701012509307/01/03 01:25:31  5-MIN KMKG 010625Z 00000KT 10SM CLR 14/14 A3014 430 100 500 000/00 RMK AO2
14840KMKG MKG20030701013009207/01/03 01:30:31  5-MIN KMKG 010630Z 00000KT 10SM CLR 16/14 A3014 430 90 600 000/00 RMK AO2
14840KMKG MKG20030701013509207/01/03 01:35:31  5-MIN KMKG 010635Z 00000KT 10SM CLR 15/14 A3014 430 93 600 000/00 RMK AO2
14840KMKG MKG20030701014009207/01/03 01:40:31  5-MIN KMKG 010640Z 00000KT 10SM CLR 16/14 A3014 430 90 600 000/00 RMK AO2
14840KMKG MKG20030701014509207/01/03 01:45:31  5-MIN KMKG 010645Z 00000KT 10SM CLR 16/14 A3014 430 90 600 000/00 RMK AO2
14840KMKG MKG20030701015010907/01/03 01:50:31  5-MIN KMKG 010650Z 00000KT 10SM CLR 16/14 A3014 430 90 600 000/00 RMK AO2 SLP204 T01560139
14840KMKG MKG20030701015510907/01/03 01:55:31  5-MIN KMKG 010655Z 00000KT 10SM CLR 16/14 A3014 430 90 600 000/00 RMK AO2 SLP203 T01560139
14840KMKG MKG20030701020009207/01/03 02:00:31  5-MIN KMKG 010700Z 00000KT 10SM CLR 16/14 A3014 430 93 600 000/00 RMK AO2
14840KMKG MKG20030701020509207/01/03 02:05:31  5-MIN KMKG 010705Z 00000KT 10SM CLR 16/14 A3013 430 93 600 000/00 RMK AO2
14840KMKG MKG20030701021009207/01/03 02:10:31  5-MIN KMKG 010710Z 00000KT 10SM CLR 15/14 A3013 440 93 600 000/00 RMK AO2
14840KMKG MKG20030701021509207/01/03 02:15:31  5-MIN KMKG 010715Z 00000KT 10SM CLR 15/14 A3013 440 93 600 000/00 RMK AO2
14840KMKG MKG20030701022009207/01/03 02:20:31  5-MIN KMKG 010720Z 00000KT 10SM CLR 15/14 A3013 440 93 600 000/00 RMK AO2
14840KMKG MKG20030701022509207/01/03 02:25:31  5-MIN KMKG 010725Z 00000KT 10SM CLR 15/14 A3013 440 93 600 000/00 RMK AO2
14840KMKG MKG20030701023009207/01/03 02:30:31  5-MIN KMKG 010730Z 00000KT 10SM CLR 15/14 A3013 440 93 600 000/00 RMK AO2
14840KMKG MKG20030701023509207/01/03 02:35:31  5-MIN KMKG 010735Z 00000KT 10SM CLR 16/14 A3013 440 90 600 000/00 RMK AO2
14840KMKG MKG20030701024009207/01/03 02:40:31  5-MIN KMKG 010740Z 00000KT 10SM CLR 15/14 A3013 440 93 600 000/00 RMK AO2
14840KMKG MKG20030701024509207/01/03 02:45:31  5-MIN KMKG 010745Z 00000KT 10SM CLR 14/13 A3013 440 93 500 000/00 RMK AO2
14840KMKG MKG20030701025010907/01/03 02:50:31  5-MIN KMKG 010750Z 00000KT 10SM CLR 14/13 A3013 440 96 500 000/00 RMK AO2 SLP199 T01390133
14840KMKG MKG20030701025510907/01/03 02:55:31  5-MIN KMKG 010755Z 11003KT 10SM CLR 14/13 A3013 440 96 500 120/03 RMK AO2 SLP200 T01390133
14840KMKG MKG20030701030009207/01/03 03:00:31  5-MIN KMKG 010800Z 00000KT 10SM CLR 14/14 A3013 440 96 500 000/00 RMK AO2
14840KMKG MKG20030701030509207/01/03 03:05:31  5-MIN KMKG 010805Z 00000KT 10SM CLR 14/14 A3013 440 96 500 000/00 RMK AO2
14840KMKG MKG20030701031009207/01/03 03:10:31  5-MIN KMKG 010810Z 00000KT 10SM CLR 14/14 A3012 440 96 500 000/00 RMK AO2
14840KMKG MKG20030701031509207/01/03 03:15:31  5-MIN KMKG 010815Z 00000KT 10SM CLR 14/14 A3012 440 96 500 000/00 RMK AO2
14840KMKG MKG20030701032009207/01/03 03:20:31  5-MIN KMKG 010820Z 00000KT 10SM CLR 15/14 A3012 440 93 600 000/00 RMK AO2
14840KMKG MKG20030701032509207/01/03 03:25:31  5-MIN KMKG 010825Z 00000KT 10SM CLR 15/14 A3012 440 93 600 000/00 RMK AO2
14840KMKG MKG20030701033009207/01/03 03:30:31  5-MIN KMKG 010830Z 00000KT 10SM CLR 15/14 A3012 440 93 600 000/00 RMK AO2
14840KMKG MKG20030701033509207/01/03 03:35:31  5-MIN KMKG 010835Z 00000KT 10SM CLR 14/13 A3012 450 93 500 000/00 RMK AO2
14840KMKG MKG20030701034009207/01/03 03:40:31  5-MIN KMKG 010840Z 00000KT 10SM CLR 14/13 A3012 450 93 500 000/00 RMK AO2
14840KMKG MKG20030701034509207/01/03 03:45:31  5-MIN KMKG 010845Z 00000KT 10SM CLR 14/13 A3012 440 96 500 000/00 RMK AO2
14840KMKG MKG20030701035011507/01/03 03:50:31  5-MIN KMKG 010850Z 00000KT 10SM CLR 14/13 A3012 440 96 500 000/00 RMK AO2 SLP198 T01390133 55000
14840KMKG MKG20030701035511507/01/03 03:55:31  5-MIN KMKG 010855Z 00000KT 10SM CLR 14/13 A3012 440 93 500 000/00 RMK AO2 SLP199 T01440133 56008
14840KMKG MKG20030701040009207/01/03 04:00:31  5-MIN KMKG 010900Z 15003KT 10SM CLR 14/13 A3013 440 93 500 160/03 RMK AO2
14840KMKG MKG20030701040509207/01/03 04:05:31  5-MIN KMKG 010905Z 20006KT 10SM CLR 14/13 A3013 440 90 500 210/06 RMK AO2
14840KMKG MKG20030701041009207/01/03 04:10:31  5-MIN KMKG 010910Z 18005KT 10SM CLR 13/12 A3013 440 93 400 180/05 RMK AO2
14840KMKG MKG20030701041509207/01/03 04:15:31  5-MIN KMKG 010915Z 00000KT 10SM CLR 14/13 A3013 430 93 400 000/00 RMK AO2
14840KMKG MKG20030701042009207/01/03 04:20:31  5-MIN KMKG 010920Z 00000KT 10SM CLR 14/13 A3013 440 96 400 000/00 RMK AO2
14840KMKG MKG20030701042509207/01/03 04:25:31  5-MIN KMKG 010925Z 00000KT 10SM CLR 14/13 A3013 440 96 400 000/00 RMK AO2
14840KMKG MKG20030701043009207/01/03 04:30:31  5-MIN KMKG 010930Z 10003KT 10SM CLR 14/13 A3013 440 93 500 110/03 RMK AO2
14840KMKG MKG20030701043509207/01/03 04:35:31  5-MIN KMKG 010935Z 12003KT 10SM CLR 14/13 A3013 430 93 500 130/03 RMK AO2
14840KMKG MKG20030701044009207/01/03 04:40:31  5-MIN KMKG 010940Z 12003KT 10SM CLR 14/13 A3013 430 93 500 120/03 RMK AO2
14840KMKG MKG20030701044509207/01/03 04:45:31  5-MIN KMKG 010945Z 13003KT 10SM CLR 14/13 A3013 430 93 500 130/03 RMK AO2
14840KMKG MKG20030701045010907/01/03 04:50:31  5-MIN KMKG 010950Z 11004KT 10SM CLR 14/13 A3013 430 93 500 110/04 RMK AO2 SLP202 T01440133
14840KMKG MKG20030701045510907/01/03 04:55:31  5-MIN KMKG 010955Z 00000KT 10SM CLR 14/13 A3013 440 96 400 000/00 RMK AO2 SLP201 T01390133
14840KMKG MKG20030701050009207/01/03 05:00:31  5-MIN KMKG 011000Z 00000KT 10SM CLR 14/13 A3013 430 93 400 000/00 RMK AO2
14840KMKG MKG20030701050509207/01/03 05:05:31  5-MIN KMKG 011005Z 00000KT 10SM CLR 14/13 A3013 430 93 400 000/00 RMK AO2
14840KMKG MKG20030701051009207/01/03 05:10:31  5-MIN KMKG 011010Z 12003KT 10SM CLR 14/13 A3013 430 96 400 130/03 RMK AO2
14840KMKG MKG20030701051509207/01/03 05:15:31  5-MIN KMKG 011015Z 12003KT 10SM CLR 14/13 A3013 430 96 400 130/03 RMK AO2
14840KMKG MKG20030701052009107/01/03 05:20:31  5-MIN KMKG 011020Z 12003KT 9SM CLR 14/13 A3013 430 96 400 120/03 RMK AO2
14840KMKG MKG20030701052509107/01/03 05:25:31  5-MIN KMKG 011025Z 12003KT 9SM CLR 14/13 A3014 430 96 400 130/03 RMK AO2
14840KMKG MKG20030701053009107/01/03 05:30:31  5-MIN KMKG 011030Z 11004KT 9SM CLR 14/13 A3014 430 96 400 110/04 RMK AO2
14840KMKG MKG20030701053509107/01/03 05:35:31  5-MIN KMKG 011035Z 10004KT 9SM CLR 14/13 A3013 430 93 500 110/04 RMK AO2
14840KMKG MKG20030701054009107/01/03 05:40:31  5-MIN KMKG 011040Z 11004KT 9SM CLR 14/13 A3013 430 96 400 110/04 RMK AO2
14840KMKG MKG20030701054509207/01/03 05:45:31  5-MIN KMKG 011045Z 00000KT 10SM CLR 14/13 A3013 440 93 500 000/00 RMK AO2
14840KMKG MKG20030701055010907/01/03 05:50:31  5-MIN KMKG 011050Z 00000KT 10SM CLR 14/13 A3013 440 93 500 000/00 RMK AO2 SLP201 T01440133
14840KMKG MKG20030701055510907/01/03 05:55:31  5-MIN KMKG 011055Z 00000KT 10SM CLR 15/13 A3013 430 90 600 000/00 RMK AO2 SLP202 T01500133
14840KMKG MKG20030701060009207/01/03 06:00:31  5-MIN KMKG 011100Z 00000KT 10SM CLR 15/13 A3013 440 90 600 000/00 RMK AO2
14840KMKG MKG20030701060509207/01/03 06:05:31  5-MIN KMKG 011105Z 00000KT 10SM CLR 16/14 A3013 440 90 600 000/00 RMK AO2
14840KMKG MKG20030701061009207/01/03 06:10:31  5-MIN KMKG 011110Z 00000KT 10SM CLR 16/14 A3013 430 90 600 000/00 RMK AO2
14840KMKG MKG20030701061509207/01/03 06:15:31  5-MIN KMKG 011115Z 00000KT 10SM CLR 16/14 A3014 430 90 600 000/00 RMK AO2
14840KMKG MKG20030701062009207/01/03 06:20:31  5-MIN KMKG 011120Z 00000KT 10SM CLR 16/14 A3014 430 86 700 000/00 RMK AO2
14840KMKG MKG20030701062509207/01/03 06:25:31  5-MIN KMKG 011125Z 13003KT 10SM CLR 16/14 A3014 430 90 700 130/03 RMK AO2
14840KMKG MKG20030701063009207/01/03 06:30:31  5-MIN KMKG 011130Z 00000KT 10SM CLR 17/14 A3014 430 86 800 000/00 RMK AO2
14840KMKG MKG20030701063509207/01/03 06:35:31  5-MIN KMKG 011135Z 00000KT 10SM CLR 17/14 A3014 430 86 800 000/00 RMK AO2
14840KMKG MKG20030701064009207/01/03 06:40:31  5-MIN KMKG 011140Z 11003KT 10SM CLR 17/14 A3014 430 86 800 110/03 RMK AO2
14840KMKG MKG20030701064509207/01/03 06:45:31  5-MIN KMKG 011145Z 00000KT 10SM CLR 17/14 A3014 430 86 800 000/00 RMK AO2
14840KMKG MKG20030701065012707/01/03 06:50:31  5-MIN KMKG 011150Z 12004KT 10SM CLR 17/15 A3014 430 87 800 120/04 RMK AO2 SLP204 T01720150 10172 20133 56008
14840KMKG MKG20030701065512707/01/03 06:55:31  5-MIN KMKG 011155Z 00000KT 10SM CLR 18/15 A3014 430 83 900 000/00 RMK AO2 SLP205 T01780150 10178 20133 53006
14840KMKG MKG20030701070009207/01/03 07:00:31  5-MIN KMKG 011200Z 00000KT 10SM CLR 18/15 A3014 430 83 900 000/00 RMK AO2
14840KMKG MKG20030701070509307/01/03 07:05:31  5-MIN KMKG 011205Z 00000KT 10SM CLR 18/15 A3014 430 81 1000 000/00 RMK AO2
14840KMKG MKG20030701071009307/01/03 07:10:31  5-MIN KMKG 011210Z 11003KT 10SM CLR 19/15 A3014 430 78 1000 120/03 RMK AO2
14840KMKG MKG20030701071509307/01/03 07:15:31  5-MIN KMKG 011215Z 12003KT 10SM CLR 19/15 A3014 430 75 1100 120/03 RMK AO2
14840KMKG MKG20030701072009307/01/03 07:20:31  5-MIN KMKG 011220Z 12003KT 10SM CLR 19/15 A3014 430 75 1100 120/03 RMK AO2
14840KMKG MKG20030701072509307/01/03 07:25:31  5-MIN KMKG 011225Z 11003KT 10SM CLR 20/14 A3014 430 70 1200 120/03 RMK AO2
14840KMKG MKG20030701073009307/01/03 07:30:31  5-MIN KMKG 011230Z VRB04KT 10SM CLR 21/15 A3014 430 70 1200 VRB/04 RMK AO2
14840KMKG MKG20030701073509307/01/03 07:35:31  5-MIN KMKG 011235Z 12004KT 10SM CLR 21/14 A3014 430 67 1200 130/04 RMK AO2
14840KMKG MKG20030701074009307/01/03 07:40:31  5-MIN KMKG 011240Z 13003KT 10SM CLR 21/14 A3014 430 65 1300 130/03 RMK AO2
14840KMKG MKG20030701074509307/01/03 07:45:31  5-MIN KMKG 011245Z 13004KT 10SM CLR 22/15 A3014 430 65 1300 140/04 RMK AO2
14840KMKG MKG20030701075011007/01/03 07:50:31  5-MIN KMKG 011250Z 13004KT 10SM CLR 22/14 A3014 430 63 1300 130/04 RMK AO2 SLP203 T02170144
14840KMKG MKG20030701075511007/01/03 07:55:31  5-MIN KMKG 011255Z 13003KT 10SM CLR 22/14 A3014 430 63 1300 140/03 RMK AO2 SLP203 T02170144
14840KMKG MKG20030701080009307/01/03 08:00:31  5-MIN KMKG 011300Z 15003KT 10SM CLR 22/14 A3014 430 61 1400 160/03 RMK AO2
14840KMKG MKG20030701080509307/01/03 08:05:31  5-MIN KMKG 011305Z 15003KT 10SM CLR 23/14 A3014 430 59 1500 150/03 RMK AO2
14840KMKG MKG20030701081009307/01/03 08:10:31  5-MIN KMKG 011310Z 13004KT 10SM CLR 23/14 A3014 430 59 1500 140/04 RMK AO2
14840KMKG MKG20030701081509307/01/03 08:15:31  5-MIN KMKG 011315Z 14004KT 10SM CLR 23/14 A3014 430 57 1500 140/04 RMK AO2
14840KMKG MKG20030701082009307/01/03 08:20:31  5-MIN KMKG 011320Z 14004KT 10SM CLR 24/14 A3014 430 55 1600 140/04 RMK AO2
14840KMKG MKG20030701082509307/01/03 08:25:31  5-MIN KMKG 011325Z 15004KT 10SM CLR 24/14 A3014 430 55 1600 160/04 RMK AO2
14840KMKG MKG20030701083009307/01/03 08:30:31  5-MIN KMKG 011330Z 19004KT 10SM CLR 24/14 A3014 430 55 1600 190/04 RMK AO2
14840KMKG MKG20030701083509307/01/03 08:35:31  5-MIN KMKG 011335Z 16003KT 10SM CLR 24/14 A3014 430 53 1700 160/03 RMK AO2
14840KMKG MKG20030701084009307/01/03 08:40:31  5-MIN KMKG 011340Z 15003KT 10SM CLR 24/14 A3014 430 53 1700 150/03 RMK AO2
14840KMKG MKG20030701084509307/01/03 08:45:31  5-MIN KMKG 011345Z 16003KT 10SM CLR 24/14 A3014 430 53 1700 170/03 RMK AO2
14840KMKG MKG20030701085011007/01/03 08:50:31  5-MIN KMKG 011350Z VRB03KT 10SM CLR 25/14 A3014 430 51 1700 VRB/03 RMK AO2 SLP203 T02500144
14840KMKG MKG20030701085511007/01/03 08:55:31  5-MIN KMKG 011355Z 21004KT 10SM CLR 25/14 A3014 430 49 1700 210/04 RMK AO2 SLP202 T02500139
14840KMKG MKG20030701090009307/01/03 09:00:31  5-MIN KMKG 011400Z 19004KT 10SM CLR 25/13 A3014 430 48 1700 200/04 RMK AO2
14840KMKG MKG20030701090509307/01/03 09:05:31  5-MIN KMKG 011405Z 19005KT 10SM CLR 26/14 A3014 430 48 1800 200/05 RMK AO2
14840KMKG MKG20030701091009307/01/03 09:10:31  5-MIN KMKG 011410Z 18005KT 10SM CLR 26/13 A3013 430 46 1800 180/05 RMK AO2
14840KMKG MKG20030701091509307/01/03 09:15:31  5-MIN KMKG 011415Z 21005KT 10SM CLR 26/13 A3013 440 44 1900 220/05 RMK AO2
14840KMKG MKG20030701092009307/01/03 09:20:31  5-MIN KMKG 011420Z 19005KT 10SM CLR 26/13 A3013 440 44 1900 200/05 RMK AO2
14840KMKG MKG20030701092509307/01/03 09:25:31  5-MIN KMKG 011425Z VRB04KT 10SM CLR 26/14 A3013 440 46 1900 VRB/04 RMK AO2
14840KMKG MKG20030701093009307/01/03 09:30:31  5-MIN KMKG 011430Z 18004KT 10SM CLR 26/14 A3013 440 46 1900 180/04 RMK AO2
14840KMKG MKG20030701093509307/01/03 09:35:31  5-MIN KMKG 011435Z VRB03KT 10SM CLR 26/14 A3013 440 46 1900 VRB/03 RMK AO2
14840KMKG MKG20030701094009307/01/03 09:40:31  5-MIN KMKG 011440Z VRB04KT 10SM CLR 27/13 A3013 440 43 1900 VRB/04 RMK AO2
14840KMKG MKG20030701094509307/01/03 09:45:31  5-MIN KMKG 011445Z 00000KT 10SM CLR 27/13 A3012 440 41 1900 000/00 RMK AO2
14840KMKG MKG20030701095011607/01/03 09:50:31  5-MIN KMKG 011450Z VRB06KT 10SM CLR 27/13 A3012 440 40 2000 VRB/06 RMK AO2 SLP197 T02720128 53006
14840KMKG MKG20030701095511607/01/03 09:55:31  5-MIN KMKG 011455Z VRB05KT 10SM CLR 27/12 A3012 440 39 2000 VRB/05 RMK AO2 SLP197 T02720122 58007
14840KMKG MKG20030701100009307/01/03 10:00:31  5-MIN KMKG 011500Z 22006KT 10SM CLR 28/12 A3012 450 36 2100 220/06 RMK AO2
14840KMKG MKG20030701100509307/01/03 10:05:31  5-MIN KMKG 011505Z 23005KT 10SM CLR 28/11 A3012 450 35 2100 230/05 RMK AO2
14840KMKG MKG20030701101009307/01/03 10:10:31  5-MIN KMKG 011510Z VRB03KT 10SM CLR 27/11 A3012 450 36 2000 VRB/03 RMK AO2
14840KMKG MKG20030701101509307/01/03 10:15:31  5-MIN KMKG 011515Z VRB05KT 10SM CLR 28/11 A3012 450 35 2100 VRB/05 RMK AO2
14840KMKG MKG20030701102009307/01/03 10:20:31  5-MIN KMKG 011520Z 23008KT 10SM CLR 28/11 A3012 450 33 2100 240/08 RMK AO2
14840KMKG MKG20030701102509307/01/03 10:25:31  5-MIN KMKG 011525Z 23009KT 10SM CLR 28/10 A3012 450 32 2100 230/09 RMK AO2
14840KMKG MKG20030701103009307/01/03 10:30:31  5-MIN KMKG 011530Z 22008KT 10SM CLR 28/09 A3012 450 31 2100 230/08 RMK AO2
14840KMKG MKG20030701103509307/01/03 10:35:31  5-MIN KMKG 011535Z 23009KT 10SM CLR 28/11 A3012 450 32 2100 240/09 RMK AO2
14840KMKG MKG20030701104009307/01/03 10:40:31  5-MIN KMKG 011540Z 22008KT 10SM CLR 28/09 A3011 450 31 2100 220/08 RMK AO2
14840KMKG MKG20030701104509307/01/03 10:45:31  5-MIN KMKG 011545Z 22009KT 10SM CLR 28/10 A3011 450 32 2100 220/09 RMK AO2
14840KMKG MKG20030701105011307/01/03 10:50:31  5-MIN KMKG 011550Z 22009KT 10SM FEW050 27/11 A3012 450 34 2000 230/09 RMK AO2 SLP195 T02720106
14840KMKG MKG20030701105511307/01/03 10:55:31  5-MIN KMKG 011555Z 22007KT 10SM FEW050 28/11 A3012 450 35 2100 230/07 RMK AO2 SLP195 T02780111
14840KMKG MKG20030701110009307/01/03 11:00:31  5-MIN KMKG 011600Z 24008KT 10SM CLR 28/11 A3011 450 33 2100 250/08 RMK AO2
14840KMKG MKG20030701110509307/01/03 11:05:31  5-MIN KMKG 011605Z 25008KT 10SM CLR 28/11 A3012 450 35 2100 250/08 RMK AO2
14840KMKG MKG20030701111009307/01/03 11:10:31  5-MIN KMKG 011610Z 26007KT 10SM CLR 28/12 A3011 450 36 2100 260/07 RMK AO2
14840KMKG MKG20030701111509307/01/03 11:15:31  5-MIN KMKG 011615Z 24007KT 10SM CLR 28/11 A3011 450 35 2100 250/07 RMK AO2
14840KMKG MKG20030701112009307/01/03 11:20:31  5-MIN KMKG 011620Z 23008KT 10SM CLR 28/12 A3011 450 36 2100 240/08 RMK AO2
14840KMKG MKG20030701112509307/01/03 11:25:31  5-MIN KMKG 011625Z 24007KT 10SM CLR 28/11 A3011 450 33 2100 240/07 RMK AO2
14840KMKG MKG20030701113009307/01/03 11:30:31  5-MIN KMKG 011630Z 24008KT 10SM CLR 28/12 A3011 450 36 2100 250/08 RMK AO2
14840KMKG MKG20030701113509307/01/03 11:35:31  5-MIN KMKG 011635Z 24008KT 10SM CLR 28/11 A3011 450 35 2100 240/08 RMK AO2
14840KMKG MKG20030701114009607/01/03 11:40:31  5-MIN KMKG 011640Z 24008KT 10SM SCT045 28/10 A3011 450 32 2100 250/08 RMK AO2
14840KMKG MKG20030701114509607/01/03 11:45:31  5-MIN KMKG 011645Z 23008KT 10SM SCT045 28/11 A3011 450 33 2100 240/08 RMK AO2
14840KMKG MKG20030701115011307/01/03 11:50:31  5-MIN KMKG 011650Z 23008KT 10SM SCT045 28/11 A3011 460 35 2100 240/08 RMK AO2 SLP192 T02780111
14840KMKG MKG20030701115511307/01/03 11:55:31  5-MIN KMKG 011655Z 23009KT 10SM SCT045 28/12 A3011 460 36 2100 230/09 RMK AO2 SLP192 T02780117
14840KMKG MKG20030701120009307/01/03 12:00:31  5-MIN KMKG 011700Z 23009KT 10SM CLR 27/13 A3011 460 40 2000 240/09 RMK AO2
14840KMKG MKG20030701120509307/01/03 12:05:31  5-MIN KMKG 011705Z 23010KT 10SM CLR 27/13 A3011 460 42 2000 230/10 RMK AO2
14840KMKG MKG20030701121009307/01/03 12:10:31  5-MIN KMKG 011710Z 21009KT 10SM CLR 27/13 A3011 460 42 2000 220/09 RMK AO2
14840KMKG MKG20030701121509307/01/03 12:15:31  5-MIN KMKG 011715Z 24009KT 10SM CLR 27/14 A3010 460 43 2000 250/09 RMK AO2
14840KMKG MKG20030701122009307/01/03 12:20:31  5-MIN KMKG 011720Z 22009KT 10SM CLR 27/14 A3010 460 43 2000 230/09 RMK AO2
14840KMKG MKG20030701122509307/01/03 12:25:31  5-MIN KMKG 011725Z 24007KT 10SM CLR 27/14 A3010 470 43 2000 240/07 RMK AO2
14840KMKG MKG20030701123009307/01/03 12:30:31  5-MIN KMKG 011730Z 22008KT 10SM CLR 28/14 A3009 470 42 2100 220/08 RMK AO2
14840KMKG MKG20030701123509307/01/03 12:35:31  5-MIN KMKG 011735Z 22008KT 10SM CLR 28/13 A3009 470 39 2200 220/08 RMK AO2
14840KMKG MKG20030701124009307/01/03 12:40:31  5-MIN KMKG 011740Z 22008KT 10SM CLR 28/13 A3009 470 40 2100 230/08 RMK AO2
14840KMKG MKG20030701124509607/01/03 12:45:31  5-MIN KMKG 011745Z 23009KT 10SM SCT045 28/12 A3009 470 36 2100 230/09 RMK AO2
14840KMKG MKG20030701125013107/01/03 12:50:31  5-MIN KMKG 011750Z 22008KT 10SM SCT045 28/13 A3009 470 40 2100 220/08 RMK AO2 SLP186 T02780133 10283 20178 58007
14840KMKG MKG20030701125513107/01/03 12:55:31  5-MIN KMKG 011755Z 24008KT 10SM SCT045 28/13 A3009 480 39 2100 250/08 RMK AO2 SLP185 T02780128 10283 20178 58011
14840KMKG MKG20030701130009307/01/03 13:00:31  5-MIN KMKG 011800Z 25010KT 10SM CLR 28/13 A3009 480 39 2100 260/10 RMK AO2
14840KMKG MKG20030701130509307/01/03 13:05:31  5-MIN KMKG 011805Z 24008KT 10SM CLR 28/12 A3008 480 36 2100 240/08 RMK AO2
14840KMKG MKG20030701131009307/01/03 13:10:31  5-MIN KMKG 011810Z 22010KT 10SM CLR 28/12 A3008 480 35 2200 230/10 RMK AO2
14840KMKG MKG20030701131509307/01/03 13:15:31  5-MIN KMKG 011815Z 24009KT 10SM CLR 28/11 A3008 480 33 2200 240/09 RMK AO2
14840KMKG MKG20030701132009307/01/03 13:20:31  5-MIN KMKG 011820Z 26009KT 10SM CLR 29/12 A3008 490 35 2200 260/09 RMK AO2
14840KMKG MKG20030701132509307/01/03 13:25:31  5-MIN KMKG 011825Z 24009KT 10SM CLR 28/12 A3008 490 35 2200 250/09 RMK AO2
14840KMKG MKG20030701133009307/01/03 13:30:31  5-MIN KMKG 011830Z 23009KT 10SM CLR 28/12 A3007 490 35 2200 240/09 RMK AO2
14840KMKG MKG20030701133509307/01/03 13:35:31  5-MIN KMKG 011835Z 22009KT 10SM CLR 28/12 A3008 490 36 2200 230/09 RMK AO2
14840KMKG MKG20030701134009307/01/03 13:40:31  5-MIN KMKG 011840Z 22009KT 10SM CLR 28/12 A3007 490 36 2200 230/09 RMK AO2
14840KMKG MKG20030701134509307/01/03 13:45:31  5-MIN KMKG 011845Z 24009KT 10SM CLR 28/12 A3007 490 36 2200 250/09 RMK AO2
14840KMKG MKG20030701135011307/01/03 13:50:31  5-MIN KMKG 011850Z 25008KT 10SM SCT045 28/12 A3007 490 36 2200 260/08 RMK AO2 SLP179 T02830122
14840KMKG MKG20030701135511307/01/03 13:55:31  5-MIN KMKG 011855Z 23009KT 10SM SCT045 29/12 A3007 500 35 2200 240/09 RMK AO2 SLP178 T02890122
14840KMKG MKG20030701140009607/01/03 14:00:31  5-MIN KMKG 011900Z 26009KT 10SM FEW045 29/13 A3007 500 36 2200 270/09 RMK AO2
14840KMKG MKG20030701140509607/01/03 14:05:31  5-MIN KMKG 011905Z 23009KT 10SM FEW045 29/12 A3007 500 35 2200 240/09 RMK AO2
14840KMKG MKG20030701141009607/01/03 14:10:31  5-MIN KMKG 011910Z 24008KT 10SM FEW045 28/12 A3006 500 35 2200 250/08 RMK AO2
14840KMKG MKG20030701141509607/01/03 14:15:31  5-MIN KMKG 011915Z 23009KT 10SM FEW045 29/12 A3006 500 35 2200 230/09 RMK AO2
14840KMKG MKG20030701142009607/01/03 14:20:31  5-MIN KMKG 011920Z 22008KT 10SM FEW045 28/12 A3006 500 36 2200 230/08 RMK AO2
14840KMKG MKG20030701142511207/01/03 14:25:31  5-MIN KMKG 011925Z 24008KT 220V280 10SM FEW045 29/13 A3006 500 36 2200 240/08 220V280 RMK AO2
14840KMKG MKG20030701143009607/01/03 14:30:31  5-MIN KMKG 011930Z 26009KT 10SM FEW045 29/13 A3006 500 36 2200 260/09 RMK AO2
14840KMKG MKG20030701143509607/01/03 14:35:31  5-MIN KMKG 011935Z 24007KT 10SM FEW045 28/12 A3006 500 37 2100 250/07 RMK AO2
14840KMKG MKG20030701144009607/01/03 14:40:31  5-MIN KMKG 011940Z 28008KT 10SM FEW045 28/13 A3006 500 37 2200 280/08 RMK AO2
14840KMKG MKG20030701144509607/01/03 14:45:31  5-MIN KMKG 011945Z 24007KT 10SM FEW045 28/13 A3006 500 39 2100 240/07 RMK AO2
14840KMKG MKG20030701145011307/01/03 14:50:31  5-MIN KMKG 011950Z 25007KT 10SM FEW045 28/13 A3006 500 37 2200 250/07 RMK AO2 SLP176 T02830128
14840KMKG MKG20030701145511307/01/03 14:55:31  5-MIN KMKG 011955Z 24007KT 10SM FEW045 28/13 A3006 500 37 2200 250/07 RMK AO2 SLP176 T02830128
14840KMKG MKG20030701150009607/01/03 15:00:31  5-MIN KMKG 012000Z 26009KT 10SM FEW045 28/13 A3006 500 37 2200 260/09 RMK AO2
14840KMKG MKG20030701150509607/01/03 15:05:31  5-MIN KMKG 012005Z 24009KT 10SM FEW045 28/13 A3006 500 40 2100 240/09 RMK AO2
14840KMKG MKG20030701151009607/01/03 15:10:31  5-MIN KMKG 012010Z 26008KT 10SM FEW045 28/13 A3006 500 39 2200 260/08 RMK AO2
14840KMKG MKG20030701151509607/01/03 15:15:31  5-MIN KMKG 012015Z 26010KT 10SM FEW045 28/13 A3006 500 39 2200 270/10 RMK AO2
14840KMKG MKG20030701152009607/01/03 15:20:31  5-MIN KMKG 012020Z 26009KT 10SM FEW045 28/13 A3006 510 39 2100 270/09 RMK AO2
14840KMKG MKG20030701152509607/01/03 15:25:31  5-MIN KMKG 012025Z 28009KT 10SM FEW045 28/13 A3005 510 37 2200 280/09 RMK AO2
14840KMKG MKG20030701153009607/01/03 15:30:31  5-MIN KMKG 012030Z 27008KT 10SM FEW045 28/13 A3005 510 37 2200 270/08 RMK AO2
14840KMKG MKG20030701153511207/01/03 15:35:31  5-MIN KMKG 012035Z 26008KT 230V290 10SM FEW045 28/13 A3005 510 37 2200 260/08 230V290 RMK AO2
14840KMKG MKG20030701154009607/01/03 15:40:31  5-MIN KMKG 012040Z 26009KT 10SM FEW045 28/13 A3005 510 37 2200 260/09 RMK AO2
14840KMKG MKG20030701154509607/01/03 15:45:31  5-MIN KMKG 012045Z 28008KT 10SM FEW045 28/13 A3005 510 37 2200 290/08 RMK AO2
14840KMKG MKG20030701155011907/01/03 15:50:31  5-MIN KMKG 012050Z 27009KT 10SM FEW045 28/13 A3004 520 37 2200 270/09 RMK AO2 SLP172 T02830128 58011
14840KMKG MKG20030701155511907/01/03 15:55:31  5-MIN KMKG 012055Z 26009KT 10SM FEW045 28/12 A3004 520 37 2100 260/09 RMK AO2 SLP172 T02780122 56015
14840KMKG MKG20030701160009607/01/03 16:00:31  5-MIN KMKG 012100Z 26009KT 10SM FEW045 28/12 A3004 520 36 2200 270/09 RMK AO2
14840KMKG MKG20030701160509607/01/03 16:05:31  5-MIN KMKG 012105Z 29008KT 10SM FEW045 28/12 A3004 520 36 2200 300/08 RMK AO2
14840KMKG MKG20030701161009607/01/03 16:10:31  5-MIN KMKG 012110Z 29008KT 10SM FEW045 28/12 A3004 520 36 2200 300/08 RMK AO2
14840KMKG MKG20030701161509607/01/03 16:15:31  5-MIN KMKG 012115Z 28008KT 10SM FEW045 28/12 A3004 520 36 2200 290/08 RMK AO2
14840KMKG MKG20030701162009607/01/03 16:20:31  5-MIN KMKG 012120Z 28009KT 10SM FEW045 28/12 A3004 520 37 2100 290/09 RMK AO2
14840KMKG MKG20030701162509607/01/03 16:25:31  5-MIN KMKG 012125Z 28009KT 10SM FEW045 28/12 A3004 520 37 2100 290/09 RMK AO2
14840KMKG MKG20030701163009607/01/03 16:30:31  5-MIN KMKG 012130Z 28009KT 10SM FEW045 28/12 A3004 520 37 2100 290/09 RMK AO2
14840KMKG MKG20030701163509607/01/03 16:35:31  5-MIN KMKG 012135Z 28008KT 10SM FEW045 28/12 A3004 520 37 2200 290/08 RMK AO2
14840KMKG MKG20030701164009607/01/03 16:40:31  5-MIN KMKG 012140Z 27008KT 10SM FEW045 28/12 A3003 530 37 2200 280/08 RMK AO2
14840KMKG MKG20030701164509607/01/03 16:45:31  5-MIN KMKG 012145Z 27007KT 10SM FEW045 28/12 A3003 530 37 2200 280/07 RMK AO2
14840KMKG MKG20030701165011307/01/03 16:50:31  5-MIN KMKG 012150Z 26007KT 10SM FEW045 28/12 A3003 530 37 2200 260/07 RMK AO2 SLP168 T02780122
14840KMKG MKG20030701165511307/01/03 16:55:31  5-MIN KMKG 012155Z 27008KT 10SM FEW045 28/12 A3003 530 36 2200 280/08 RMK AO2 SLP168 T02830122
14840KMKG MKG20030701170009307/01/03 17:00:31  5-MIN KMKG 012200Z 28008KT 10SM CLR 28/12 A3003 530 37 2200 290/08 RMK AO2
14840KMKG MKG20030701170509307/01/03 17:05:31  5-MIN KMKG 012205Z 28007KT 10SM CLR 28/12 A3003 530 36 2200 280/07 RMK AO2
14840KMKG MKG20030701171009307/01/03 17:10:31  5-MIN KMKG 012210Z 27008KT 10SM CLR 28/12 A3003 530 36 2200 280/08 RMK AO2
14840KMKG MKG20030701171509307/01/03 17:15:31  5-MIN KMKG 012215Z 29008KT 10SM CLR 28/11 A3003 530 35 2200 290/08 RMK AO2
14840KMKG MKG20030701172009307/01/03 17:20:31  5-MIN KMKG 012220Z 29008KT 10SM CLR 28/11 A3003 530 35 2200 290/08 RMK AO2
14840KMKG MKG20030701172509307/01/03 17:25:31  5-MIN KMKG 012225Z 29006KT 10SM CLR 27/11 A3003 530 36 2100 300/06 RMK AO2
14840KMKG MKG20030701173009307/01/03 17:30:31  5-MIN KMKG 012230Z 30006KT 10SM CLR 28/12 A3003 530 36 2200 300/06 RMK AO2
14840KMKG MKG20030701173509307/01/03 17:35:31  5-MIN KMKG 012235Z VRB05KT 10SM CLR 28/12 A3003 530 37 2200 VRB/05 RMK AO2
14840KMKG MKG20030701174009307/01/03 17:40:31  5-MIN KMKG 012240Z VRB06KT 10SM CLR 27/12 A3002 530 39 2100 VRB/06 RMK AO2
14840KMKG MKG20030701174509307/01/03 17:45:31  5-MIN KMKG 012245Z 28006KT 10SM CLR 27/12 A3002 530 39 2100 280/06 RMK AO2
14840KMKG MKG20030701175011007/01/03 17:50:31  5-MIN KMKG 012250Z 30005KT 10SM CLR 27/12 A3002 530 39 2100 300/05 RMK AO2 SLP165 T02720122
14840KMKG MKG20030701175511007/01/03 17:55:31  5-MIN KMKG 012255Z VRB05KT 10SM CLR 27/12 A3002 530 39 2100 VRB/05 RMK AO2 SLP165 T02720122
14840KMKG MKG20030701180009307/01/03 18:00:31  5-MIN KMKG 012300Z 30005KT 10SM CLR 27/12 A3002 540 39 2100 310/05 RMK AO2
14840KMKG MKG20030701180509307/01/03 18:05:31  5-MIN KMKG 012305Z 26005KT 10SM CLR 27/12 A3002 540 39 2100 270/05 RMK AO2
14840KMKG MKG20030701181009307/01/03 18:10:31  5-MIN KMKG 012310Z 26006KT 10SM CLR 27/12 A3002 540 38 2000 260/06 RMK AO2
14840KMKG MKG20030701181509307/01/03 18:15:31  5-MIN KMKG 012315Z 27006KT 10SM CLR 27/12 A3001 540 40 2100 270/06 RMK AO2
14840KMKG MKG20030701182009307/01/03 18:20:31  5-MIN KMKG 012320Z 26006KT 10SM CLR 27/12 A3001 540 38 2100 260/06 RMK AO2
14840KMKG MKG20030701182509307/01/03 18:25:31  5-MIN KMKG 012325Z 27006KT 10SM CLR 27/12 A3001 540 38 2100 270/06 RMK AO2
14840KMKG MKG20030701183009307/01/03 18:30:31  5-MIN KMKG 012330Z 28006KT 10SM CLR 27/12 A3001 540 38 2100 280/06 RMK AO2
14840KMKG MKG20030701183509307/01/03 18:35:31  5-MIN KMKG 012335Z 29006KT 10SM CLR 27/12 A3002 540 38 2100 290/06 RMK AO2
14840KMKG MKG20030701184009307/01/03 18:40:31  5-MIN KMKG 012340Z 29005KT 10SM CLR 27/11 A3001 550 37 2100 290/05 RMK AO2
14840KMKG MKG20030701184509307/01/03 18:45:31  5-MIN KMKG 012345Z 26006KT 10SM CLR 26/11 A3001 550 38 2000 270/06 RMK AO2
14840KMKG MKG20030701185012807/01/03 18:50:31  5-MIN KMKG 012350Z 28006KT 10SM CLR 26/11 A3001 550 38 2000 290/06 RMK AO2 SLP159 T02610111 10289 20261 56015
14840KMKG MKG20030701185512807/01/03 18:55:31  5-MIN KMKG 012355Z 27005KT 10SM CLR 26/11 A3001 550 38 2000 280/05 RMK AO2 SLP158 T02610111 10289 20261 58012
14840KMKG MKG20030701190009307/01/03 19:00:31  5-MIN KMKG 020000Z 26005KT 10SM CLR 26/11 A3001 550 38 2000 270/05 RMK AO2
14840KMKG MKG20030701190509307/01/03 19:05:31  5-MIN KMKG 020005Z 27004KT 10SM CLR 26/11 A3001 550 37 2000 270/04 RMK AO2
14840KMKG MKG20030701191009307/01/03 19:10:31  5-MIN KMKG 020010Z 28004KT 10SM CLR 26/11 A3001 550 40 1900 280/04 RMK AO2
14840KMKG MKG20030701191509307/01/03 19:15:31  5-MIN KMKG 020015Z 29003KT 10SM CLR 26/12 A3001 550 40 2000 300/03 RMK AO2
14840KMKG MKG20030701192009307/01/03 19:20:31  5-MIN KMKG 020020Z 30004KT 10SM CLR 26/12 A3001 550 40 2000 300/04 RMK AO2
14840KMKG MKG20030701192509307/01/03 19:25:31  5-MIN KMKG 020025Z 30004KT 10SM CLR 26/11 A3001 550 40 1900 300/04 RMK AO2
14840KMKG MKG20030701193009307/01/03 19:30:31  5-MIN KMKG 020030Z 30004KT 10SM CLR 26/11 A3000 550 40 1900 300/04 RMK AO2
14840KMKG MKG20030701193509307/01/03 19:35:31  5-MIN KMKG 020035Z 30004KT 10SM CLR 26/11 A3000 550 40 1900 300/04 RMK AO2
14840KMKG MKG20030701194009307/01/03 19:40:31  5-MIN KMKG 020040Z 29004KT 10SM CLR 25/11 A3000 550 41 1900 300/04 RMK AO2
14840KMKG MKG20030701194509307/01/03 19:45:31  5-MIN KMKG 020045Z 29004KT 10SM CLR 25/11 A3000 560 41 1900 300/04 RMK AO2
14840KMKG MKG20030701195011007/01/03 19:50:31  5-MIN KMKG 020050Z 29004KT 10SM CLR 24/11 A3000 560 42 1800 290/04 RMK AO2 SLP155 T02440111
14840KMKG MKG20030701195511007/01/03 19:55:31  5-MIN KMKG 020055Z 29003KT 10SM CLR 24/11 A3000 560 42 1800 290/03 RMK AO2 SLP155 T02440111
14840KMKG MKG20030701200009307/01/03 20:00:31  5-MIN KMKG 020100Z 30004KT 10SM CLR 24/11 A3000 560 42 1800 310/04 RMK AO2
14840KMKG MKG20030701200509307/01/03 20:05:31  5-MIN KMKG 020105Z 29004KT 10SM CLR 24/11 A3000 560 44 1800 290/04 RMK AO2
14840KMKG MKG20030701201009307/01/03 20:10:31  5-MIN KMKG 020110Z 29004KT 10SM CLR 23/11 A2999 560 45 1700 300/04 RMK AO2
14840KMKG MKG20030701201509307/01/03 20:15:31  5-MIN KMKG 020115Z 31003KT 10SM CLR 23/11 A2999 560 45 1700 320/03 RMK AO2
14840KMKG MKG20030701202009307/01/03 20:20:31  5-MIN KMKG 020120Z 00000KT 10SM CLR 22/12 A2999 560 51 1600 000/00 RMK AO2
14840KMKG MKG20030701202509307/01/03 20:25:31  5-MIN KMKG 020125Z 00000KT 10SM CLR 23/11 A2999 570 47 1600 000/00 RMK AO2
14840KMKG MKG20030701203009307/01/03 20:30:31  5-MIN KMKG 020130Z 00000KT 10SM CLR 23/11 A2999 570 47 1600 000/00 RMK AO2
14840KMKG MKG20030701203509207/01/03 20:35:31  5-MIN KMKG 020135Z 00000KT 9SM CLR 23/11 A2998 570 47 1600 000/00 RMK AO2
14840KMKG MKG20030701204009507/01/03 20:40:31  5-MIN KMKG 020140Z 00000KT 5SM HZ CLR 23/12 A2998 570 49 1600 000/00 RMK AO2
14840KMKG MKG20030701204509307/01/03 20:45:31  5-MIN KMKG 020145Z 00000KT 10SM CLR 22/12 A2998 570 51 1600 000/00 RMK AO2
14840KMKG MKG20030701205011007/01/03 20:50:31  5-MIN KMKG 020150Z 00000KT 10SM CLR 22/11 A2998 570 50 1500 000/00 RMK AO2 SLP150 T02170111
14840KMKG MKG20030701205511007/01/03 20:55:31  5-MIN KMKG 020155Z 00000KT 10SM CLR 22/11 A2998 570 50 1500 000/00 RMK AO2 SLP150 T02170111
14840KMKG MKG20030701210009307/01/03 21:00:31  5-MIN KMKG 020200Z 00000KT 10SM CLR 21/11 A2999 570 52 1500 000/00 RMK AO2
14840KMKG MKG20030701210509307/01/03 21:05:31  5-MIN KMKG 020205Z 00000KT 10SM CLR 21/11 A2999 570 52 1500 000/00 RMK AO2
14840KMKG MKG20030701211009307/01/03 21:10:31  5-MIN KMKG 020210Z 00000KT 10SM CLR 22/12 A2999 570 52 1500 000/00 RMK AO2
14840KMKG MKG20030701211509307/01/03 21:15:31  5-MIN KMKG 020215Z 00000KT 10SM CLR 21/12 A2999 570 58 1400 000/00 RMK AO2
14840KMKG MKG20030701212009307/01/03 21:20:31  5-MIN KMKG 020220Z 00000KT 10SM CLR 20/12 A2999 570 58 1300 000/00 RMK AO2
14840KMKG MKG20030701212509307/01/03 21:25:31  5-MIN KMKG 020225Z 00000KT 10SM CLR 21/12 A2999 570 56 1400 000/00 RMK AO2
14840KMKG MKG20030701213009307/01/03 21:30:31  5-MIN KMKG 020230Z 00000KT 10SM CLR 21/12 A2999 570 54 1500 000/00 RMK AO2
14840KMKG MKG20030701213509307/01/03 21:35:31  5-MIN KMKG 020235Z 00000KT 10SM CLR 21/12 A2999 570 58 1400 000/00 RMK AO2
14840KMKG MKG20030701214009307/01/03 21:40:31  5-MIN KMKG 020240Z 00000KT 10SM CLR 19/13 A2999 570 65 1300 000/00 RMK AO2
14840KMKG MKG20030701214509307/01/03 21:45:31  5-MIN KMKG 020245Z 00000KT 10SM CLR 19/12 A2999 570 62 1300 000/00 RMK AO2
14840KMKG MKG20030701215011607/01/03 21:50:31  5-MIN KMKG 020250Z 00000KT 10SM CLR 19/12 A2999 570 65 1200 000/00 RMK AO2 SLP152 T01890122 58012
14840KMKG MKG20030701215511607/01/03 21:55:31  5-MIN KMKG 020255Z 00000KT 10SM CLR 19/12 A2999 570 65 1200 000/00 RMK AO2 SLP152 T01890122 55006
14840KMKG MKG20030701220009307/01/03 22:00:31  5-MIN KMKG 020300Z 00000KT 10SM CLR 19/13 A2999 560 65 1300 000/00 RMK AO2
14840KMKG MKG20030701220509307/01/03 22:05:31  5-MIN KMKG 020305Z 00000KT 10SM CLR 19/13 A2999 560 67 1200 000/00 RMK AO2
14840KMKG MKG20030701221009307/01/03 22:10:31  5-MIN KMKG 020310Z 00000KT 10SM CLR 19/13 A2999 560 67 1200 000/00 RMK AO2
14840KMKG MKG20030701221509307/01/03 22:15:31  5-MIN KMKG 020315Z 00000KT 10SM CLR 19/13 A2999 560 67 1200 000/00 RMK AO2
14840KMKG MKG20030701222009307/01/03 22:20:31  5-MIN KMKG 020320Z 00000KT 10SM CLR 19/13 A2999 560 67 1200 000/00 RMK AO2
14840KMKG MKG20030701222509307/01/03 22:25:31  5-MIN KMKG 020325Z 00000KT 10SM CLR 19/13 A2999 560 65 1300 000/00 RMK AO2
14840KMKG MKG20030701223009307/01/03 22:30:31  5-MIN KMKG 020330Z 00000KT 10SM CLR 19/13 A2999 560 65 1300 000/00 RMK AO2
14840KMKG MKG20030701223509307/01/03 22:35:31  5-MIN KMKG 020335Z 00000KT 10SM CLR 19/13 A2999 560 65 1300 000/00 RMK AO2
14840KMKG MKG20030701224009307/01/03 22:40:31  5-MIN KMKG 020340Z 00000KT 10SM CLR 19/13 A3000 560 67 1200 000/00 RMK AO2
14840KMKG MKG20030701224509307/01/03 22:45:31  5-MIN KMKG 020345Z 00000KT 10SM CLR 19/13 A3000 560 67 1200 000/00 RMK AO2
14840KMKG MKG20030701225011007/01/03 22:50:31  5-MIN KMKG 020350Z 00000KT 10SM CLR 19/13 A2999 560 70 1200 000/00 RMK AO2 SLP153 T01890133
14840KMKG MKG20030701225511007/01/03 22:55:31  5-MIN KMKG 020355Z 00000KT 10SM CLR 19/13 A2999 560 70 1200 000/00 RMK AO2 SLP153 T01890133
14840KMKG MKG20030701230009307/01/03 23:00:31  5-MIN KMKG 020400Z 00000KT 10SM CLR 19/13 A2999 570 70 1200 000/00 RMK AO2
14840KMKG MKG20030701230509307/01/03 23:05:31  5-MIN KMKG 020405Z 00000KT 10SM CLR 18/13 A2999 570 72 1100 000/00 RMK AO2
14840KMKG MKG20030701231009307/01/03 23:10:31  5-MIN KMKG 020410Z 00000KT 10SM CLR 18/13 A2999 570 72 1100 000/00 RMK AO2
14840KMKG MKG20030701231509307/01/03 23:15:31  5-MIN KMKG 020415Z 00000KT 10SM CLR 18/13 A2999 570 75 1100 000/00 RMK AO2
14840KMKG MKG20030701232009307/01/03 23:20:31  5-MIN KMKG 020420Z 00000KT 10SM CLR 17/13 A2999 570 78 1000 000/00 RMK AO2
14840KMKG MKG20030701232509307/01/03 23:25:31  5-MIN KMKG 020425Z 00000KT 10SM CLR 17/13 A2999 570 78 1000 000/00 RMK AO2
14840KMKG MKG20030701233009307/01/03 23:30:31  5-MIN KMKG 020430Z 00000KT 10SM CLR 17/13 A2999 570 78 1000 000/00 RMK AO2
14840KMKG MKG20030701233509307/01/03 23:35:31  5-MIN KMKG 020435Z 12003KT 10SM CLR 17/13 A2999 570 78 1000 130/03 RMK AO2
14840KMKG MKG20030701234009307/01/03 23:40:31  5-MIN KMKG 020440Z 14003KT 10SM CLR 17/13 A2999 570 78 1000 150/03 RMK AO2
14840KMKG MKG20030701234509307/01/03 23:45:31  5-MIN KMKG 020445Z 00000KT 10SM CLR 17/13 A2998 570 78 1000 000/00 RMK AO2
14840KMKG MKG20030701235012007/01/03 23:50:31  5-MIN KMKG 020450Z 00000KT 10SM CLR 17/13 A2998 570 78 1000 000/00 RMK AO2 SLP150 T01720133 402890133
14840KMKG MKG20030701235512007/01/03 23:55:31  5-MIN KMKG 020455Z 00000KT 10SM CLR 17/13 A2998 570 78 1000 000/00 RMK AO2 SLP150 T01720133 402890133
14840KMKG MKG20030702000009307/02/03 00:00:31  5-MIN KMKG 020500Z 00000KT 10SM CLR 17/13 A2998 570 78 1000 000/00 RMK AO2
14840KMKG MKG20030702000509307/02/03 00:05:31  5-MIN KMKG 020505Z 00000KT 10SM CLR 17/13 A2998 570 78 1000 000/00 RMK AO2
14840KMKG MKG20030702001009307/02/03 00:10:31  5-MIN KMKG 020510Z 00000KT 10SM CLR 17/13 A2998 570 78 1000 000/00 RMK AO2
14840KMKG MKG20030702001509307/02/03 00:15:31  5-MIN KMKG 020515Z 00000KT 10SM CLR 17/13 A2998 570 78 1000 000/00 RMK AO2
14840KMKG MKG20030702002009207/02/03 00:20:31  5-MIN KMKG 020520Z 00000KT 10SM CLR 17/13 A2998 570 80 900 000/00 RMK AO2
14840KMKG MKG20030702002509207/02/03 00:25:31  5-MIN KMKG 020525Z 00000KT 10SM CLR 17/13 A2998 570 80 900 000/00 RMK AO2
14840KMKG MKG20030702003009207/02/03 00:30:31  5-MIN KMKG 020530Z 00000KT 10SM CLR 16/13 A2998 580 83 900 000/00 RMK AO2
14840KMKG MKG20030702003509207/02/03 00:35:31  5-MIN KMKG 020535Z 36003KT 10SM CLR 17/13 A2998 570 80 900 360/03 RMK AO2
14840KMKG MKG20030702004009207/02/03 00:40:31  5-MIN KMKG 020540Z 03003KT 10SM CLR 17/13 A2998 570 80 900 030/03 RMK AO2
14840KMKG MKG20030702004509207/02/03 00:45:31  5-MIN KMKG 020545Z 00000KT 10SM CLR 17/13 A2998 570 80 900 000/00 RMK AO2
14840KMKG MKG20030702005012707/02/03 00:50:31  5-MIN KMKG 020550Z 00000KT 10SM CLR 17/13 A2998 570 80 900 000/00 RMK AO2 SLP149 T01670133 10261 20161 55006
14840KMKG MKG20030702005512707/02/03 00:55:31  5-MIN KMKG 020555Z 00000KT 10SM CLR 17/13 A2998 580 80 900 000/00 RMK AO2 SLP149 T01670133 10261 20161 58004
14840KMKG MKG20030702010009307/02/03 01:00:31  5-MIN KMKG 020600Z 00000KT 10SM CLR 17/13 A2998 580 78 1000 000/00 RMK AO2
14840KMKG MKG20030702010509207/02/03 01:05:31  5-MIN KMKG 020605Z 00000KT 10SM CLR 17/13 A2998 580 80 900 000/00 RMK AO2
14840KMKG MKG20030702011009207/02/03 01:10:31  5-MIN KMKG 020610Z 00000KT 10SM CLR 17/13 A2998 580 80 900 000/00 RMK AO2
14840KMKG MKG20030702011509207/02/03 01:15:31  5-MIN KMKG 020615Z 00000KT 10SM CLR 16/13 A2998 580 83 900 000/00 RMK AO2
14840KMKG MKG20030702012009207/02/03 01:20:31  5-MIN KMKG 020620Z 00000KT 10SM CLR 17/14 A2998 580 83 900 000/00 RMK AO2
14840KMKG MKG20030702012509207/02/03 01:25:31  5-MIN KMKG 020625Z 00000KT 10SM CLR 16/14 A2998 580 86 900 000/00 RMK AO2
14840KMKG MKG20030702013009207/02/03 01:30:31  5-MIN KMKG 020630Z 00000KT 10SM CLR 16/13 A2998 580 83 900 000/00 RMK AO2
14840KMKG MKG20030702013509207/02/03 01:35:31  5-MIN KMKG 020635Z 00000KT 10SM CLR 16/13 A2997 580 83 900 000/00 RMK AO2
14840KMKG MKG20030702014009207/02/03 01:40:31  5-MIN KMKG 020640Z 00000KT 10SM CLR 16/13 A2998 580 83 900 000/00 RMK AO2
14840KMKG MKG20030702014509207/02/03 01:45:31  5-MIN KMKG 020645Z 00000KT 10SM CLR 16/13 A2997 580 83 900 000/00 RMK AO2
14840KMKG MKG20030702015010907/02/03 01:50:31  5-MIN KMKG 020650Z 00000KT 10SM CLR 16/13 A2997 580 83 900 000/00 RMK AO2 SLP146 T01610133
14840KMKG MKG20030702015510907/02/03 01:55:31  5-MIN KMKG 020655Z 00000KT 10SM CLR 16/13 A2997 580 83 900 000/00 RMK AO2 SLP146 T01610133
14840KMKG MKG20030702020009207/02/03 02:00:31  5-MIN KMKG 020700Z 00000KT 10SM CLR 16/13 A2997 580 86 800 000/00 RMK AO2
14840KMKG MKG20030702020509207/02/03 02:05:31  5-MIN KMKG 020705Z 00000KT 10SM CLR 15/13 A2997 580 86 800 000/00 RMK AO2
14840KMKG MKG20030702021009207/02/03 02:10:31  5-MIN KMKG 020710Z 00000KT 10SM CLR 15/13 A2997 580 86 800 000/00 RMK AO2
14840KMKG MKG20030702021509207/02/03 02:15:31  5-MIN KMKG 020715Z 00000KT 10SM CLR 14/13 A2997 590 90 700 000/00 RMK AO2
14840KMKG MKG20030702022009207/02/03 02:20:31  5-MIN KMKG 020720Z 00000KT 10SM CLR 14/13 A2997 590 90 700 000/00 RMK AO2
14840KMKG MKG20030702022509207/02/03 02:25:31  5-MIN KMKG 020725Z 00000KT 10SM CLR 14/13 A2996 590 90 700 000/00 RMK AO2
14840KMKG MKG20030702023009207/02/03 02:30:31  5-MIN KMKG 020730Z 00000KT 10SM CLR 15/13 A2996 590 86 800 000/00 RMK AO2
14840KMKG MKG20030702023509207/02/03 02:35:31  5-MIN KMKG 020735Z 00000KT 10SM CLR 16/13 A2996 590 86 800 000/00 RMK AO2
14840KMKG MKG20030702024009207/02/03 02:40:31  5-MIN KMKG 020740Z 00000KT 10SM CLR 15/13 A2996 590 90 800 000/00 RMK AO2
14840KMKG MKG20030702024509207/02/03 02:45:31  5-MIN KMKG 020745Z 00000KT 10SM CLR 15/13 A2996 600 86 800 000/00 RMK AO2
14840KMKG MKG20030702025010907/02/03 02:50:31  5-MIN KMKG 020750Z 00000KT 10SM CLR 16/13 A2996 590 86 800 000/00 RMK AO2 SLP142 T01560133
14840KMKG MKG20030702025510907/02/03 02:55:31  5-MIN KMKG 020755Z 00000KT 10SM CLR 15/13 A2996 590 90 800 000/00 RMK AO2 SLP142 T01500133
14840KMKG MKG20030702030009207/02/03 03:00:31  5-MIN KMKG 020800Z 00000KT 10SM CLR 15/13 A2996 600 90 800 000/00 RMK AO2
14840KMKG MKG20030702030509207/02/03 03:05:31  5-MIN KMKG 020805Z 00000KT 10SM CLR 14/13 A2996 600 90 700 000/00 RMK AO2
14840KMKG MKG20030702031009207/02/03 03:10:31  5-MIN KMKG 020810Z 00000KT 10SM CLR 14/13 A2996 590 93 700 000/00 RMK AO2
14840KMKG MKG20030702031509207/02/03 03:15:31  5-MIN KMKG 020815Z 00000KT 10SM CLR 14/13 A2996 590 93 700 000/00 RMK AO2
14840KMKG MKG20030702032009207/02/03 03:20:31  5-MIN KMKG 020820Z 00000KT 10SM CLR 14/13 A2996 590 90 700 000/00 RMK AO2
14840KMKG MKG20030702032509207/02/03 03:25:31  5-MIN KMKG 020825Z 00000KT 10SM CLR 15/13 A2996 600 90 800 000/00 RMK AO2
14840KMKG MKG20030702033009207/02/03 03:30:31  5-MIN KMKG 020830Z 00000KT 10SM CLR 14/13 A2996 600 93 700 000/00 RMK AO2
14840KMKG MKG20030702033509207/02/03 03:35:31  5-MIN KMKG 020835Z 00000KT 10SM CLR 14/13 A2995 600 93 700 000/00 RMK AO2
14840KMKG MKG20030702034009207/02/03 03:40:31  5-MIN KMKG 020840Z 00000KT 10SM CLR 14/13 A2996 600 93 700 000/00 RMK AO2
14840KMKG MKG20030702034509207/02/03 03:45:31  5-MIN KMKG 020845Z 00000KT 10SM CLR 14/13 A2996 600 93 700 000/00 RMK AO2
14840KMKG MKG20030702035011507/02/03 03:50:31  5-MIN KMKG 020850Z 00000KT 10SM CLR 14/13 A2995 600 93 700 000/00 RMK AO2 SLP140 T01440133 58004
14840KMKG MKG20030702035511507/02/03 03:55:31  5-MIN KMKG 020855Z 00000KT 10SM CLR 14/13 A2995 600 93 700 000/00 RMK AO2 SLP141 T01440133 56009
14840KMKG MKG20030702040009207/02/03 04:00:31  5-MIN KMKG 020900Z 00000KT 10SM CLR 15/13 A2995 600 90 800 000/00 RMK AO2
14840KMKG MKG20030702040510907/02/03 04:05:31  5-MIN KMKG 020905Z 00000KT 10SM CLR 14/13 A2995 600 93 700 000/00 RMK AO2 VIS 2 1/2 RWY 14
14840KMKG MKG20030702041010807/02/03 04:10:31  5-MIN KMKG 020910Z 00000KT 9SM CLR 15/13 A2995 600 90 800 000/00 RMK AO2 VIS 2 1/2 RWY 14
14840KMKG MKG20030702041510807/02/03 04:15:31  5-MIN KMKG 020915Z 14006KT 9SM CLR 14/13 A2996 600 93 700 140/06 RMK AO2 VIS 2 1/2 RWY 14
14840KMKG MKG20030702042010807/02/03 04:20:31  5-MIN KMKG 020920Z 00000KT 9SM CLR 14/13 A2996 600 93 600 000/00 RMK AO2 VIS 2 1/2 RWY 14
14840KMKG MKG20030702042509107/02/03 04:25:31  5-MIN KMKG 020925Z 00000KT 9SM CLR 14/13 A2995 600 93 600 000/00 RMK AO2
14840KMKG MKG20030702043009107/02/03 04:30:31  5-MIN KMKG 020930Z 11003KT 9SM CLR 14/13 A2995 600 93 700 120/03 RMK AO2
14840KMKG MKG20030702043509107/02/03 04:35:31  5-MIN KMKG 020935Z 00000KT 9SM CLR 14/13 A2995 600 93 700 000/00 RMK AO2
14840KMKG MKG20030702044009107/02/03 04:40:31  5-MIN KMKG 020940Z 00000KT 9SM CLR 14/13 A2995 600 93 700 000/00 RMK AO2
14840KMKG MKG20030702044509107/02/03 04:45:31  5-MIN KMKG 020945Z 00000KT 8SM CLR 14/13 A2995 600 96 700 000/00 RMK AO2
14840KMKG MKG20030702045010807/02/03 04:50:31  5-MIN KMKG 020950Z 00000KT 8SM CLR 15/13 A2995 600 90 800 000/00 RMK AO2 SLP138 T01500133
14840KMKG MKG20030702045510807/02/03 04:55:31  5-MIN KMKG 020955Z 00000KT 9SM CLR 14/13 A2995 610 93 700 000/00 RMK AO2 SLP138 T01440133
14840KMKG MKG20030702050009107/02/03 05:00:31  5-MIN KMKG 021000Z 00000KT 9SM CLR 14/13 A2995 610 93 700 000/00 RMK AO2
14840KMKG MKG20030702050510807/02/03 05:05:31  5-MIN KMKG 021005Z 00000KT 7SM CLR 14/14 A2995 600 96 700 000/00 RMK AO2 VIS 2 1/2 RWY 14
14840KMKG MKG20030702051010707/02/03 05:10:31  5-MIN KMKG 021010Z 00000KT 6SM BR CLR 14/13 A2995 600 96 700 000/00 RMK AO2 VIS 2 RWY 14
14840KMKG MKG20030702051510707/02/03 05:15:31  5-MIN KMKG 021015Z 00000KT 6SM BR CLR 14/13 A2995 610 93 700 000/00 RMK AO2 VIS 2 RWY 14
14840KMKG MKG20030702052011107/02/03 05:20:31  5-MIN KMKG 021020Z 00000KT 6SM BR CLR 14/13 A2995 610 96 700 000/00 RMK AO2 VIS 1 1/2 RWY 14
14840KMKG MKG20030702052511107/02/03 05:25:31  5-MIN KMKG 021025Z 00000KT 6SM BR CLR 14/13 A2994 610 93 700 000/00 RMK AO2 VIS 1 3/4 RWY 14
14840KMKG MKG20030702053010407/02/03 05:30:31  5-MIN KMKG 021030Z 00000KT 7SM CLR 14/13 A2995 610 93 700 000/00 RMK AO2 VIS 2 RWY 14
14840KMKG MKG20030702053510807/02/03 05:35:31  5-MIN KMKG 021035Z 07003KT 7SM CLR 15/14 A2995 610 93 800 080/03 RMK AO2 VIS 1 3/4 RWY 14
14840KMKG MKG20030702054010807/02/03 05:40:31  5-MIN KMKG 021040Z 00000KT 7SM CLR 15/14 A2995 610 93 800 000/00 RMK AO2 VIS 1 3/4 RWY 14
14840KMKG MKG20030702054511107/02/03 05:45:31  5-MIN KMKG 021045Z 07003KT 6SM BR CLR 15/14 A2994 610 93 800 080/03 RMK AO2 VIS 2 1/2 RWY 14
14840KMKG MKG20030702055011107/02/03 05:50:31  5-MIN KMKG 021050Z 08003KT 6SM BR CLR 14/13 A2994 610 93 700 090/03 RMK AO2 SLP138 T01440133
14840KMKG MKG20030702055511107/02/03 05:55:31  5-MIN KMKG 021055Z 00000KT 6SM BR CLR 15/14 A2995 610 93 800 000/00 RMK AO2 SLP138 T01500139
14840KMKG MKG20030702060009407/02/03 06:00:31  5-MIN KMKG 021100Z 08003KT 6SM BR CLR 16/14 A2995 610 90 900 090/03 RMK AO2
14840KMKG MKG20030702060509107/02/03 06:05:31  5-MIN KMKG 021105Z 08003KT 7SM CLR 16/14 A2995 610 93 900 080/03 RMK AO2
14840KMKG MKG20030702061009107/02/03 06:10:31  5-MIN KMKG 021110Z 07003KT 7SM CLR 16/14 A2995 610 90 900 070/03 RMK AO2
14840KMKG MKG20030702061509207/02/03 06:15:31  5-MIN KMKG 021115Z 00000KT 7SM CLR 17/15 A2995 600 90 1000 000/00 RMK AO2
14840KMKG MKG20030702062009207/02/03 06:20:31  5-MIN KMKG 021120Z 00000KT 7SM CLR 17/15 A2995 600 90 1000 000/00 RMK AO2
14840KMKG MKG20030702062509207/02/03 06:25:31  5-MIN KMKG 021125Z 00000KT 8SM CLR 17/15 A2995 600 87 1000 000/00 RMK AO2
14840KMKG MKG20030702063009207/02/03 06:30:31  5-MIN KMKG 021130Z 00000KT 8SM CLR 18/15 A2995 600 83 1100 000/00 RMK AO2
14840KMKG MKG20030702063509207/02/03 06:35:31  5-MIN KMKG 021135Z 00000KT 8SM CLR 18/15 A2995 600 83 1100 000/00 RMK AO2
14840KMKG MKG20030702064009207/02/03 06:40:31  5-MIN KMKG 021140Z 00000KT 8SM CLR 18/15 A2995 600 81 1200 000/00 RMK AO2
14840KMKG MKG20030702064509207/02/03 06:45:31  5-MIN KMKG 021145Z 00000KT 9SM CLR 18/15 A2995 600 81 1200 000/00 RMK AO2
14840KMKG MKG20030702065012707/02/03 06:50:31  5-MIN KMKG 021150Z 00000KT 9SM CLR 19/15 A2995 600 78 1200 000/00 RMK AO2 SLP139 T01890150 10189 20139 56009
14840KMKG MKG20030702065512707/02/03 06:55:31  5-MIN KMKG 021155Z 00000KT 9SM CLR 19/16 A2995 600 81 1200 000/00 RMK AO2 SLP138 T01890156 10189 20139 55001
14840KMKG MKG20030702070009207/02/03 07:00:31  5-MIN KMKG 021200Z 10003KT 9SM CLR 19/15 A2995 600 75 1300 100/03 RMK AO2
14840KMKG MKG20030702070509207/02/03 07:05:31  5-MIN KMKG 021205Z 00000KT 9SM CLR 19/15 A2995 600 75 1300 000/00 RMK AO2
14840KMKG MKG20030702071009307/02/03 07:10:31  5-MIN KMKG 021210Z 09003KT 10SM CLR 20/15 A2995 610 72 1400 090/03 RMK AO2
14840KMKG MKG20030702071509307/02/03 07:15:31  5-MIN KMKG 021215Z 00000KT 10SM CLR 20/15 A2995 610 72 1400 000/00 RMK AO2
14840KMKG MKG20030702072009307/02/03 07:20:31  5-MIN KMKG 021220Z 00000KT 10SM CLR 21/15 A2995 610 70 1400 000/00 RMK AO2
14840KMKG MKG20030702072509307/02/03 07:25:31  5-MIN KMKG 021225Z VRB03KT 10SM CLR 21/15 A2995 600 68 1500 VRB/03 RMK AO2
14840KMKG MKG20030702073009307/02/03 07:30:31  5-MIN KMKG 021230Z 00000KT 10SM CLR 22/15 A2995 600 65 1600 000/00 RMK AO2
14840KMKG MKG20030702073509307/02/03 07:35:31  5-MIN KMKG 021235Z 00000KT 10SM CLR 22/15 A2995 600 65 1600 000/00 RMK AO2
14840KMKG MKG20030702074009307/02/03 07:40:31  5-MIN KMKG 021240Z 00000KT 10SM CLR 22/15 A2995 600 63 1600 000/00 RMK AO2
14840KMKG MKG20030702074509307/02/03 07:45:31  5-MIN KMKG 021245Z 00000KT 10SM CLR 22/15 A2995 600 63 1600 000/00 RMK AO2
14840KMKG MKG20030702075011007/02/03 07:50:31  5-MIN KMKG 021250Z VRB03KT 10SM CLR 23/16 A2995 600 63 1700 VRB/03 RMK AO2 SLP138 T02280156
14840KMKG MKG20030702075511307/02/03 07:55:31  5-MIN KMKG 021255Z 00000KT 10SM FEW040 23/15 A2995 600 61 1700 000/00 RMK AO2 SLP138 T02280150
14840KMKG MKG20030702080009307/02/03 08:00:31  5-MIN KMKG 021300Z 11003KT 10SM CLR 23/15 A2995 600 59 1700 110/03 RMK AO2
14840KMKG MKG20030702080509307/02/03 08:05:31  5-MIN KMKG 021305Z 13003KT 10SM CLR 23/15 A2995 600 59 1700 130/03 RMK AO2
14840KMKG MKG20030702081009307/02/03 08:10:31  5-MIN KMKG 021310Z 12004KT 10SM CLR 24/16 A2995 600 59 1800 130/04 RMK AO2
14840KMKG MKG20030702081509307/02/03 08:15:31  5-MIN KMKG 021315Z 13003KT 10SM CLR 24/16 A2995 610 57 1900 130/03 RMK AO2
14840KMKG MKG20030702082009307/02/03 08:20:31  5-MIN KMKG 021320Z 00000KT 10SM CLR 24/16 A2995 600 57 1900 000/00 RMK AO2
14840KMKG MKG20030702082509307/02/03 08:25:31  5-MIN KMKG 021325Z 00000KT 10SM CLR 25/16 A2995 600 55 1900 000/00 RMK AO2
14840KMKG MKG20030702083009307/02/03 08:30:31  5-MIN KMKG 021330Z 00000KT 10SM CLR 25/15 A2995 600 53 1900 000/00 RMK AO2
14840KMKG MKG20030702083509307/02/03 08:35:31  5-MIN KMKG 021335Z 00000KT 10SM CLR 25/16 A2995 600 55 1900 000/00 RMK AO2
14840KMKG MKG20030702084009307/02/03 08:40:31  5-MIN KMKG 021340Z 00000KT 10SM CLR 26/16 A2995 600 51 2100 000/00 RMK AO2
14840KMKG MKG20030702084509307/02/03 08:45:31  5-MIN KMKG 021345Z 00000KT 10SM CLR 27/16 A2995 600 50 2100 000/00 RMK AO2
14840KMKG MKG20030702085011007/02/03 08:50:31  5-MIN KMKG 021350Z 00000KT 10SM CLR 26/16 A2995 600 51 2100 000/00 RMK AO2 SLP140 T02610156
14840KMKG MKG20030702085511007/02/03 08:55:31  5-MIN KMKG 021355Z 33004KT 10SM CLR 27/17 A2995 600 53 2100 340/04 RMK AO2 SLP139 T02670167
14840KMKG MKG20030702090009307/02/03 09:00:31  5-MIN KMKG 021400Z 32005KT 10SM CLR 27/17 A2995 600 53 2100 320/05 RMK AO2
14840KMKG MKG20030702090509307/02/03 09:05:31  5-MIN KMKG 021405Z 29005KT 10SM CLR 26/17 A2995 600 55 2100 290/05 RMK AO2
14840KMKG MKG20030702091009307/02/03 09:10:31  5-MIN KMKG 021410Z 31005KT 10SM CLR 27/17 A2995 600 53 2100 310/05 RMK AO2
14840KMKG MKG20030702091509307/02/03 09:15:31  5-MIN KMKG 021415Z 33004KT 10SM CLR 27/16 A2995 600 52 2100 330/04 RMK AO2
14840KMKG MKG20030702092009307/02/03 09:20:31  5-MIN KMKG 021420Z VRB05KT 10SM CLR 27/15 A2995 600 46 2200 VRB/05 RMK AO2
14840KMKG MKG20030702092509307/02/03 09:25:31  5-MIN KMKG 021425Z 32006KT 10SM CLR 27/14 A2995 600 43 2200 320/06 RMK AO2
14840KMKG MKG20030702093009307/02/03 09:30:31  5-MIN KMKG 021430Z 30006KT 10SM CLR 27/13 A2995 600 42 2200 310/06 RMK AO2
14840KMKG MKG20030702093509307/02/03 09:35:31  5-MIN KMKG 021435Z 29006KT 10SM CLR 27/14 A2995 600 45 2200 290/06 RMK AO2
14840KMKG MKG20030702094009307/02/03 09:40:31  5-MIN KMKG 021440Z 27006KT 10SM CLR 27/14 A2995 600 45 2200 280/06 RMK AO2
14840KMKG MKG20030702094509307/02/03 09:45:31  5-MIN KMKG 021445Z 31007KT 10SM CLR 28/14 A2995 600 43 2200 310/07 RMK AO2
14840KMKG MKG20030702095011607/02/03 09:50:31  5-MIN KMKG 021450Z 30007KT 10SM CLR 27/14 A2995 600 45 2200 310/07 RMK AO2 SLP140 T02720144 55001
14840KMKG MKG20030702095511607/02/03 09:55:31  5-MIN KMKG 021455Z 29007KT 10SM CLR 27/14 A2995 600 45 2200 300/07 RMK AO2 SLP140 T02720144 50001
14840KMKG MKG20030702100009307/02/03 10:00:31  5-MIN KMKG 021500Z 28007KT 10SM CLR 27/13 A2995 600 42 2200 290/07 RMK AO2
14840KMKG MKG20030702100509307/02/03 10:05:31  5-MIN KMKG 021505Z 30006KT 10SM CLR 27/13 A2995 600 42 2200 300/06 RMK AO2
14840KMKG MKG20030702101009307/02/03 10:10:31  5-MIN KMKG 021510Z 29007KT 10SM CLR 28/13 A2995 600 40 2200 290/07 RMK AO2
14840KMKG MKG20030702101509307/02/03 10:15:31  5-MIN KMKG 021515Z 30006KT 10SM CLR 28/13 A2995 600 40 2200 300/06 RMK AO2
14840KMKG MKG20030702102009307/02/03 10:20:31  5-MIN KMKG 021520Z 30006KT 10SM CLR 28/12 A2995 610 37 2300 310/06 RMK AO2
14840KMKG MKG20030702102509307/02/03 10:25:31  5-MIN KMKG 021525Z 30006KT 10SM CLR 28/12 A2995 610 37 2300 300/06 RMK AO2
14840KMKG MKG20030702103010907/02/03 10:30:31  5-MIN KMKG 021530Z 29007KT 250V330 10SM CLR 28/12 A2995 610 37 2300 290/07 250V330 RMK AO2
14840KMKG MKG20030702103509307/02/03 10:35:31  5-MIN KMKG 021535Z 27006KT 10SM CLR 28/12 A2995 610 36 2300 280/06 RMK AO2
14840KMKG MKG20030702104009307/02/03 10:40:31  5-MIN KMKG 021540Z VRB06KT 10SM CLR 28/13 A2995 610 37 2300 VRB/06 RMK AO2
14840KMKG MKG20030702104509307/02/03 10:45:31  5-MIN KMKG 021545Z 29006KT 10SM CLR 28/12 A2995 610 36 2300 290/06 RMK AO2
14840KMKG MKG20030702105011007/02/03 10:50:31  5-MIN KMKG 021550Z 29007KT 10SM CLR 28/12 A2995 610 35 2300 300/07 RMK AO2 SLP137 T02830117
14840KMKG MKG20030702105511007/02/03 10:55:31  5-MIN KMKG 021555Z 26007KT 10SM CLR 29/11 A2995 610 32 2400 270/07 RMK AO2 SLP137 T02890111
14840KMKG MKG20030702110009307/02/03 11:00:31  5-MIN KMKG 021600Z 26007KT 10SM CLR 29/11 A2994 610 31 2400 270/07 RMK AO2
14840KMKG MKG20030702110509307/02/03 11:05:31  5-MIN KMKG 021605Z 31007KT 10SM CLR 29/11 A2994 610 31 2400 310/07 RMK AO2
14840KMKG MKG20030702111009307/02/03 11:10:31  5-MIN KMKG 021610Z 26007KT 10SM CLR 29/11 A2994 610 31 2400 260/07 RMK AO2
14840KMKG MKG20030702111509307/02/03 11:15:31  5-MIN KMKG 021615Z 28008KT 10SM CLR 29/10 A2994 610 30 2400 290/08 RMK AO2
14840KMKG MKG20030702112009307/02/03 11:20:31  5-MIN KMKG 021620Z VRB06KT 10SM CLR 29/10 A2994 610 30 2400 VRB/06 RMK AO2
14840KMKG MKG20030702112510907/02/03 11:25:31  5-MIN KMKG 021625Z 31007KT 280V340 10SM CLR 29/11 A2994 610 31 2400 320/07 280V340 RMK AO2
14840KMKG MKG20030702113009507/02/03 11:30:31  5-MIN KMKG 021630Z 30008KT 10SM CLR 29/11 A2994 610 31 2400 300/08 RMK AO2 $
14840KMKG MKG20030702113509507/02/03 11:35:31  5-MIN KMKG 021635Z 29006KT 10SM CLR 29/11 A2994 610 32 2400 300/06 RMK AO2 $
14840KMKG MKG20030702114009507/02/03 11:40:31  5-MIN KMKG 021640Z 31008KT 10SM CLR 29/11 A2995 610 30 2400 310/08 RMK AO2 $
14840KMKG MKG20030702114509807/02/03 11:45:31  5-MIN KMKG 021645Z 30008KT 10SM FEW050 29/10 A2995 610 29 2400 300/08 RMK AO2 $
14840KMKG MKG20030702115011507/02/03 11:50:31  5-MIN KMKG 021650Z 29008KT 10SM FEW050 29/10 A2995 610 29 2400 290/08 RMK AO2 SLP138 T02940100 $
14840KMKG MKG20030702115511507/02/03 11:55:31  5-MIN KMKG 021655Z 31007KT 10SM FEW050 29/11 A2995 610 30 2400 310/07 RMK AO2 SLP137 T02940106 $
14840KMKG MKG20030702120009807/02/03 12:00:31  5-MIN KMKG 021700Z 28008KT 10SM FEW050 29/10 A2994 610 29 2400 280/08 RMK AO2 $
14840KMKG MKG20030702120509807/02/03 12:05:31  5-MIN KMKG 021705Z 30008KT 10SM FEW050 29/11 A2994 610 31 2400 300/08 RMK AO2 $
14840KMKG MKG20030702121009807/02/03 12:10:31  5-MIN KMKG 021710Z 29010KT 10SM FEW050 29/11 A2994 610 30 2400 290/10 RMK AO2 $
14840KMKG MKG20030702121509807/02/03 12:15:31  5-MIN KMKG 021715Z 28009KT 10SM FEW050 29/11 A2994 610 31 2400 290/09 RMK AO2 $
14840KMKG MKG20030702122009807/02/03 12:20:31  5-MIN KMKG 021720Z 28011KT 10SM FEW050 29/11 A2994 610 30 2400 280/11 RMK AO2 $
14840KMKG MKG20030702122509807/02/03 12:25:31  5-MIN KMKG 021725Z 29009KT 10SM FEW050 29/11 A2994 610 30 2400 290/09 RMK AO2 $
14840KMKG MKG20030702123009807/02/03 12:30:31  5-MIN KMKG 021730Z 27010KT 10SM FEW050 29/11 A2994 610 30 2400 270/10 RMK AO2 $
14840KMKG MKG20030702123509807/02/03 12:35:31  5-MIN KMKG 021735Z 29009KT 10SM FEW050 29/11 A2994 610 31 2400 300/09 RMK AO2 $
14840KMKG MKG20030702124009807/02/03 12:40:31  5-MIN KMKG 021740Z 30009KT 10SM FEW050 29/11 A2994 610 31 2400 300/09 RMK AO2 $
14840KMKG MKG20030702124509807/02/03 12:45:31  5-MIN KMKG 021745Z 31009KT 10SM SCT050 29/12 A2994 610 33 2400 310/09 RMK AO2 $
14840KMKG MKG20030702125014907/02/03 12:50:31  5-MIN KMKG 021750Z 28007KT 260V330 10SM SCT050 30/12 A2994 620 33 2500 290/07 260V330 RMK AO2 SLP134 T03000122 10300 20189 50001 $
14840KMKG MKG20030702125513307/02/03 12:55:31  5-MIN KMKG 021755Z 28008KT 10SM SCT050 29/12 A2994 620 34 2500 290/08 RMK AO2 SLP134 T02940122 10300 20189 58006 $
14840KMKG MKG20030702130011407/02/03 13:00:31  5-MIN KMKG 021800Z 28008KT 240V310 10SM SCT050 30/12 A2994 620 33 2500 280/08 240V310 RMK AO2 $
14840KMKG MKG20030702130509807/02/03 13:05:31  5-MIN KMKG 021805Z 28009KT 10SM SCT050 29/12 A2993 620 35 2400 290/09 RMK AO2 $
14840KMKG MKG20030702131009807/02/03 13:10:31  5-MIN KMKG 021810Z 28007KT 10SM SCT050 29/12 A2993 620 35 2400 290/07 RMK AO2 $
14840KMKG MKG20030702131509807/02/03 13:15:31  5-MIN KMKG 021815Z 29007KT 10SM SCT050 30/13 A2993 620 34 2500 290/07 RMK AO2 $
14840KMKG MKG20030702132009807/02/03 13:20:31  5-MIN KMKG 021820Z 29008KT 10SM SCT050 29/13 A2993 620 35 2500 300/08 RMK AO2 $
14840KMKG MKG20030702132511407/02/03 13:25:31  5-MIN KMKG 021825Z 28009KT 240V310 10SM SCT050 29/13 A2993 620 35 2500 290/09 240V310 RMK AO2 $
14840KMKG MKG20030702133009807/02/03 13:30:31  5-MIN KMKG 021830Z 27009KT 10SM SCT050 29/13 A2993 620 35 2500 270/09 RMK AO2 $
14840KMKG MKG20030702133509807/02/03 13:35:31  5-MIN KMKG 021835Z 27009KT 10SM SCT050 29/13 A2993 620 35 2500 280/09 RMK AO2 $
14840KMKG MKG20030702134009807/02/03 13:40:31  5-MIN KMKG 021840Z 27009KT 10SM SCT050 29/13 A2993 620 35 2500 280/09 RMK AO2 $
14840KMKG MKG20030702134509807/02/03 13:45:31  5-MIN KMKG 021845Z 29010KT 10SM SCT050 29/13 A2993 620 36 2400 290/10 RMK AO2 $
14840KMKG MKG20030702135011507/02/03 13:50:31  5-MIN KMKG 021850Z 28009KT 10SM SCT050 29/13 A2993 630 35 2500 280/09 RMK AO2 SLP130 T02940128 $
14840KMKG MKG20030702135511507/02/03 13:55:31  5-MIN KMKG 021855Z 27010KT 10SM SCT050 29/13 A2992 630 35 2500 270/10 RMK AO2 SLP130 T02940128 $
14840KMKG MKG20030702140009807/02/03 14:00:31  5-MIN KMKG 021900Z 29009KT 10SM SCT050 29/13 A2992 630 36 2400 290/09 RMK AO2 $
14840KMKG MKG20030702140509807/02/03 14:05:31  5-MIN KMKG 021905Z 28009KT 10SM SCT050 29/13 A2992 630 35 2500 280/09 RMK AO2 $
14840KMKG MKG20030702141009807/02/03 14:10:31  5-MIN KMKG 021910Z 28008KT 10SM SCT050 29/13 A2992 630 35 2500 290/08 RMK AO2 $
14840KMKG MKG20030702141509807/02/03 14:15:31  5-MIN KMKG 021915Z 27009KT 10SM SCT050 29/13 A2992 630 35 2500 280/09 RMK AO2 $
14840KMKG MKG20030702142011407/02/03 14:20:31  5-MIN KMKG 021920Z 29007KT 270V330 10SM SCT050 30/13 A2992 630 35 2500 300/07 270V330 RMK AO2 $
14840KMKG MKG20030702142509807/02/03 14:25:31  5-MIN KMKG 021925Z 30009KT 10SM SCT050 29/13 A2992 630 36 2500 310/09 RMK AO2 $
14840KMKG MKG20030702143009807/02/03 14:30:31  5-MIN KMKG 021930Z 28009KT 10SM SCT050 29/13 A2991 640 35 2500 290/09 RMK AO2 $
14840KMKG MKG20030702143509807/02/03 14:35:31  5-MIN KMKG 021935Z 27008KT 10SM SCT050 29/13 A2991 640 38 2400 280/08 RMK AO2 $
14840KMKG MKG20030702144009807/02/03 14:40:31  5-MIN KMKG 021940Z 29009KT 10SM SCT050 29/13 A2991 640 36 2400 290/09 RMK AO2 $
14840KMKG MKG20030702144509807/02/03 14:45:31  5-MIN KMKG 021945Z 27010KT 10SM SCT050 29/13 A2991 640 36 2500 270/10 RMK AO2 $
14840KMKG MKG20030702145011507/02/03 14:50:31  5-MIN KMKG 021950Z 27009KT 10SM SCT050 29/13 A2991 640 35 2500 280/09 RMK AO2 SLP124 T02940128 $
14840KMKG MKG20030702145511507/02/03 14:55:31  5-MIN KMKG 021955Z 27009KT 10SM SCT050 29/13 A2990 650 35 2500 270/09 RMK AO2 SLP122 T02940128 $
14840KMKG MKG20030702150009807/02/03 15:00:31  5-MIN KMKG 022000Z 27007KT 10SM FEW050 29/13 A2990 650 36 2500 270/07 RMK AO2 $
14840KMKG MKG20030702150509807/02/03 15:05:31  5-MIN KMKG 022005Z 26009KT 10SM FEW050 29/13 A2990 650 36 2500 260/09 RMK AO2 $
14840KMKG MKG20030702151009807/02/03 15:10:31  5-MIN KMKG 022010Z 28009KT 10SM FEW050 29/13 A2989 660 38 2400 280/09 RMK AO2 $
14840KMKG MKG20030702151509807/02/03 15:15:31  5-MIN KMKG 022015Z 27007KT 10SM FEW050 29/13 A2989 660 38 2400 270/07 RMK AO2 $
14840KMKG MKG20030702152009807/02/03 15:20:31  5-MIN KMKG 022020Z 24010KT 10SM FEW050 29/13 A2988 670 36 2500 240/10 RMK AO2 $
14840KMKG MKG20030702152509807/02/03 15:25:31  5-MIN KMKG 022025Z 26010KT 10SM FEW050 29/13 A2988 670 36 2500 260/10 RMK AO2 $
14840KMKG MKG20030702153009807/02/03 15:30:31  5-MIN KMKG 022030Z 27009KT 10SM FEW050 28/13 A2988 670 37 2400 270/09 RMK AO2 $
14840KMKG MKG20030702153509807/02/03 15:35:31  5-MIN KMKG 022035Z 27007KT 10SM FEW050 28/13 A2987 670 39 2400 270/07 RMK AO2 $
14840KMKG MKG20030702154009807/02/03 15:40:31  5-MIN KMKG 022040Z 24008KT 10SM FEW050 29/13 A2987 670 38 2500 240/08 RMK AO2 $
14840KMKG MKG20030702154509807/02/03 15:45:31  5-MIN KMKG 022045Z 25008KT 10SM FEW050 28/13 A2987 680 39 2400 260/08 RMK AO2 $
14840KMKG MKG20030702155012107/02/03 15:50:31  5-MIN KMKG 022050Z 26008KT 10SM FEW050 28/14 A2987 680 40 2400 260/08 RMK AO2 SLP112 T02830139 58006 $
14840KMKG MKG20030702155512107/02/03 15:55:31  5-MIN KMKG 022055Z 23007KT 10SM FEW050 28/13 A2987 680 39 2400 230/07 RMK AO2 SLP111 T02830133 58022 $
14840KMKG MKG20030702160009507/02/03 16:00:31  5-MIN KMKG 022100Z 24009KT 10SM CLR 28/13 A2987 680 39 2400 240/09 RMK AO2 $
14840KMKG MKG20030702160509507/02/03 16:05:31  5-MIN KMKG 022105Z 24007KT 10SM CLR 28/13 A2987 680 40 2300 250/07 RMK AO2 $
14840KMKG MKG20030702161009507/02/03 16:10:31  5-MIN KMKG 022110Z 27007KT 10SM CLR 28/13 A2987 680 40 2300 270/07 RMK AO2 $
14840KMKG MKG20030702161509507/02/03 16:15:31  5-MIN KMKG 022115Z 23008KT 10SM CLR 28/14 A2986 690 40 2400 230/08 RMK AO2 $
14840KMKG MKG20030702162009507/02/03 16:20:31  5-MIN KMKG 022120Z 23008KT 10SM CLR 28/14 A2985 690 42 2400 240/08 RMK AO2 $
14840KMKG MKG20030702162509507/02/03 16:25:31  5-MIN KMKG 022125Z 25008KT 10SM CLR 28/14 A2985 690 42 2400 250/08 RMK AO2 $
14840KMKG MKG20030702163009507/02/03 16:30:31  5-MIN KMKG 022130Z 23008KT 10SM CLR 28/13 A2985 700 40 2400 240/08 RMK AO2 $
14840KMKG MKG20030702163509507/02/03 16:35:31  5-MIN KMKG 022135Z 25007KT 10SM CLR 28/14 A2985 690 42 2400 250/07 RMK AO2 $
14840KMKG MKG20030702164009507/02/03 16:40:31  5-MIN KMKG 022140Z 24008KT 10SM CLR 28/14 A2985 700 42 2400 250/08 RMK AO2 $
14840KMKG MKG20030702164509507/02/03 16:45:31  5-MIN KMKG 022145Z 24009KT 10SM CLR 28/14 A2985 700 40 2400 250/09 RMK AO2 $
14840KMKG MKG20030702165011207/02/03 16:50:31  5-MIN KMKG 022150Z 22009KT 10SM CLR 28/14 A2985 700 40 2400 220/09 RMK AO2 SLP104 T02830139 $
14840KMKG MKG20030702165511207/02/03 16:55:31  5-MIN KMKG 022155Z 23009KT 10SM CLR 28/13 A2984 700 39 2400 230/09 RMK AO2 SLP103 T02830133 $
14840KMKG MKG20030702170009507/02/03 17:00:31  5-MIN KMKG 022200Z 23009KT 10SM CLR 28/13 A2984 700 40 2400 240/09 RMK AO2 $
14840KMKG MKG20030702170509507/02/03 17:05:31  5-MIN KMKG 022205Z 22011KT 10SM CLR 28/12 A2984 700 37 2400 230/11 RMK AO2 $
14840KMKG MKG20030702171009507/02/03 17:10:31  5-MIN KMKG 022210Z 22010KT 10SM CLR 27/13 A2984 700 42 2300 230/10 RMK AO2 $
14840KMKG MKG20030702171509507/02/03 17:15:31  5-MIN KMKG 022215Z 24010KT 10SM CLR 27/13 A2984 700 40 2300 240/10 RMK AO2 $
14840KMKG MKG20030702172009507/02/03 17:20:31  5-MIN KMKG 022220Z 24008KT 10SM CLR 27/13 A2984 700 40 2300 250/08 RMK AO2 $
14840KMKG MKG20030702172509507/02/03 17:25:31  5-MIN KMKG 022225Z 23009KT 10SM CLR 27/13 A2984 700 40 2300 230/09 RMK AO2 $
14840KMKG MKG20030702173009507/02/03 17:30:31  5-MIN KMKG 022230Z 22011KT 10SM CLR 28/12 A2984 710 37 2400 230/11 RMK AO2 $
14840KMKG MKG20030702173509507/02/03 17:35:31  5-MIN KMKG 022235Z 23011KT 10SM CLR 27/12 A2983 710 39 2300 240/11 RMK AO2 $
14840KMKG MKG20030702174009507/02/03 17:40:31  5-MIN KMKG 022240Z 23010KT 10SM CLR 28/12 A2984 710 37 2400 230/10 RMK AO2 $
14840KMKG MKG20030702174509507/02/03 17:45:31  5-MIN KMKG 022245Z 24008KT 10SM CLR 27/12 A2984 700 39 2300 240/08 RMK AO2 $
14840KMKG MKG20030702175011207/02/03 17:50:31  5-MIN KMKG 022250Z 26007KT 10SM CLR 27/13 A2985 700 40 2300 260/07 RMK AO2 SLP105 T02720128 $
14840KMKG MKG20030702175511207/02/03 17:55:31  5-MIN KMKG 022255Z 25006KT 10SM CLR 27/13 A2985 700 42 2300 250/06 RMK AO2 SLP105 T02720133 $
14840KMKG MKG20030702180009507/02/03 18:00:31  5-MIN KMKG 022300Z 24008KT 10SM CLR 27/13 A2985 700 42 2300 250/08 RMK AO2 $
14840KMKG MKG20030702180509507/02/03 18:05:31  5-MIN KMKG 022305Z 23006KT 10SM CLR 27/13 A2985 700 42 2300 230/06 RMK AO2 $
14840KMKG MKG20030702181009507/02/03 18:10:31  5-MIN KMKG 022310Z 22006KT 10SM CLR 27/14 A2985 700 43 2300 230/06 RMK AO2 $
14840KMKG MKG20030702181509507/02/03 18:15:31  5-MIN KMKG 022315Z 23007KT 10SM CLR 27/14 A2985 700 45 2200 230/07 RMK AO2 $
14840KMKG MKG20030702182009507/02/03 18:20:31  5-MIN KMKG 022320Z 24007KT 10SM CLR 27/13 A2984 700 43 2200 250/07 RMK AO2 $
14840KMKG MKG20030702182509507/02/03 18:25:31  5-MIN KMKG 022325Z 24006KT 10SM CLR 27/14 A2985 700 45 2200 240/06 RMK AO2 $
14840KMKG MKG20030702183009507/02/03 18:30:31  5-MIN KMKG 022330Z 23006KT 10SM CLR 27/14 A2985 700 45 2200 230/06 RMK AO2 $
14840KMKG MKG20030702183509507/02/03 18:35:31  5-MIN KMKG 022335Z 23004KT 10SM CLR 27/14 A2984 700 45 2200 230/04 RMK AO2 $
14840KMKG MKG20030702184009507/02/03 18:40:31  5-MIN KMKG 022340Z 22006KT 10SM CLR 27/13 A2984 700 43 2200 230/06 RMK AO2 $
14840KMKG MKG20030702184509507/02/03 18:45:31  5-MIN KMKG 022345Z 23005KT 10SM CLR 27/13 A2984 700 43 2200 240/05 RMK AO2 $
14840KMKG MKG20030702185013007/02/03 18:50:31  5-MIN KMKG 022350Z 23006KT 10SM CLR 27/13 A2984 700 43 2200 230/06 RMK AO2 SLP102 T02670133 10300 20267 58022 $
14840KMKG MKG20030702185513007/02/03 18:55:31  5-MIN KMKG 022355Z 22006KT 10SM CLR 27/13 A2984 700 43 2200 230/06 RMK AO2 SLP103 T02670133 10300 20267 56008 $
14840KMKG MKG20030702190009507/02/03 19:00:31  5-MIN KMKG 030000Z 22006KT 10SM CLR 27/13 A2984 700 43 2200 230/06 RMK AO2 $
14840KMKG MKG20030702190509507/02/03 19:05:31  5-MIN KMKG 030005Z 21006KT 10SM CLR 27/14 A2984 700 45 2200 220/06 RMK AO2 $
14840KMKG MKG20030702191009507/02/03 19:10:31  5-MIN KMKG 030010Z 22006KT 10SM CLR 27/13 A2984 700 43 2200 220/06 RMK AO2 $
14840KMKG MKG20030702191509507/02/03 19:15:31  5-MIN KMKG 030015Z 23005KT 10SM CLR 26/13 A2984 700 44 2200 230/05 RMK AO2 $
14840KMKG MKG20030702192009507/02/03 19:20:31  5-MIN KMKG 030020Z 23004KT 10SM CLR 26/14 A2984 700 46 2200 230/04 RMK AO2 $
14840KMKG MKG20030702192509507/02/03 19:25:31  5-MIN KMKG 030025Z 23004KT 10SM CLR 26/14 A2984 700 46 2200 230/04 RMK AO2 $
14840KMKG MKG20030702193009507/02/03 19:30:31  5-MIN KMKG 030030Z 25003KT 10SM CLR 26/14 A2984 700 48 2100 260/03 RMK AO2 $
14840KMKG MKG20030702193509507/02/03 19:35:31  5-MIN KMKG 030035Z 24004KT 10SM CLR 26/13 A2984 700 46 2100 240/04 RMK AO2 $
14840KMKG MKG20030702194009507/02/03 19:40:31  5-MIN KMKG 030040Z 23003KT 10SM CLR 25/14 A2985 700 49 2100 230/03 RMK AO2 $
14840KMKG MKG20030702194509507/02/03 19:45:31  5-MIN KMKG 030045Z 22004KT 10SM CLR 25/14 A2984 700 49 2100 230/04 RMK AO2 $
14840KMKG MKG20030702195011207/02/03 19:50:31  5-MIN KMKG 030050Z 23004KT 10SM CLR 25/14 A2984 700 49 2100 230/04 RMK AO2 SLP102 T02500139 $
14840KMKG MKG20030702195511207/02/03 19:55:31  5-MIN KMKG 030055Z 23004KT 10SM CLR 24/14 A2984 700 51 2000 230/04 RMK AO2 SLP102 T02440139 $
14840KMKG MKG20030702200009507/02/03 20:00:31  5-MIN KMKG 030100Z 22005KT 10SM CLR 24/14 A2984 700 51 2000 220/05 RMK AO2 $
14840KMKG MKG20030702200509507/02/03 20:05:31  5-MIN KMKG 030105Z 22005KT 10SM CLR 24/14 A2984 710 55 1900 230/05 RMK AO2 $
14840KMKG MKG20030702201009507/02/03 20:10:31  5-MIN KMKG 030110Z 21006KT 10SM CLR 24/14 A2983 710 55 1900 210/06 RMK AO2 $
14840KMKG MKG20030702201509507/02/03 20:15:31  5-MIN KMKG 030115Z 21005KT 10SM CLR 23/15 A2984 710 59 1900 210/05 RMK AO2 $
14840KMKG MKG20030702202009507/02/03 20:20:31  5-MIN KMKG 030120Z 20004KT 10SM CLR 23/15 A2984 710 59 1900 200/04 RMK AO2 $
14840KMKG MKG20030702202509507/02/03 20:25:31  5-MIN KMKG 030125Z 20004KT 10SM CLR 23/15 A2984 710 59 1900 210/04 RMK AO2 $
14840KMKG MKG20030702203009507/02/03 20:30:31  5-MIN KMKG 030130Z 20005KT 10SM CLR 23/15 A2983 710 59 1900 210/05 RMK AO2 $
14840KMKG MKG20030702203509507/02/03 20:35:31  5-MIN KMKG 030135Z 20005KT 10SM CLR 23/15 A2983 710 61 1800 200/05 RMK AO2 $
14840KMKG MKG20030702204009507/02/03 20:40:31  5-MIN KMKG 030140Z 20005KT 10SM CLR 23/15 A2983 710 61 1800 200/05 RMK AO2 $
14840KMKG MKG20030702204509507/02/03 20:45:31  5-MIN KMKG 030145Z 21004KT 10SM CLR 22/15 A2984 710 63 1800 220/04 RMK AO2 $
14840KMKG MKG20030702205011207/02/03 20:50:31  5-MIN KMKG 030150Z 21004KT 10SM CLR 22/16 A2984 710 65 1700 210/04 RMK AO2 SLP099 T02220156 $
14840KMKG MKG20030702205511207/02/03 20:55:31  5-MIN KMKG 030155Z 21004KT 10SM CLR 22/16 A2984 710 68 1700 210/04 RMK AO2 SLP100 T02170156 $
14840KMKG MKG20030702210009407/02/03 21:00:31  5-MIN KMKG 030200Z 20004KT 9SM CLR 22/16 A2984 700 68 1700 210/04 RMK AO2 $
14840KMKG MKG20030702210509507/02/03 21:05:31  5-MIN KMKG 030205Z 20005KT 10SM CLR 22/16 A2984 700 70 1700 200/05 RMK AO2 $
14840KMKG MKG20030702211009507/02/03 21:10:31  5-MIN KMKG 030210Z 19003KT 10SM CLR 22/17 A2984 700 73 1700 190/03 RMK AO2 $
14840KMKG MKG20030702211509507/02/03 21:15:31  5-MIN KMKG 030215Z 00000KT 10SM CLR 22/17 A2985 700 73 1700 000/00 RMK AO2 $
14840KMKG MKG20030702212009507/02/03 21:20:31  5-MIN KMKG 030220Z 00000KT 10SM CLR 22/17 A2985 700 73 1700 000/00 RMK AO2 $
14840KMKG MKG20030702212509507/02/03 21:25:31  5-MIN KMKG 030225Z 00000KT 10SM CLR 22/17 A2985 690 73 1700 000/00 RMK AO2 $
14840KMKG MKG20030702213009507/02/03 21:30:31  5-MIN KMKG 030230Z 00000KT 10SM CLR 21/17 A2986 690 75 1600 000/00 RMK AO2 $
14840KMKG MKG20030702213509507/02/03 21:35:31  5-MIN KMKG 030235Z 00000KT 10SM CLR 22/16 A2986 680 70 1700 000/00 RMK AO2 $
14840KMKG MKG20030702214009507/02/03 21:40:31  5-MIN KMKG 030240Z 00000KT 10SM CLR 21/16 A2986 680 73 1600 000/00 RMK AO2 $
14840KMKG MKG20030702214509507/02/03 21:45:31  5-MIN KMKG 030245Z 00000KT 10SM CLR 21/16 A2986 680 73 1600 000/00 RMK AO2 $
14840KMKG MKG20030702215011807/02/03 21:50:31  5-MIN KMKG 030250Z 00000KT 10SM CLR 21/16 A2987 680 73 1600 000/00 RMK AO2 SLP109 T02110161 56008 $
14840KMKG MKG20030702215511807/02/03 21:55:31  5-MIN KMKG 030255Z 00000KT 10SM CLR 21/16 A2986 680 73 1600 000/00 RMK AO2 SLP108 T02110161 53006 $
14840KMKG MKG20030702220009507/02/03 22:00:31  5-MIN KMKG 030300Z 00000KT 10SM CLR 20/16 A2987 680 78 1500 000/00 RMK AO2 $
14840KMKG MKG20030702220509507/02/03 22:05:31  5-MIN KMKG 030305Z 00000KT 10SM CLR 20/16 A2987 680 78 1500 000/00 RMK AO2 $
14840KMKG MKG20030702221009507/02/03 22:10:31  5-MIN KMKG 030310Z 00000KT 10SM CLR 21/17 A2986 680 78 1500 000/00 RMK AO2 $
14840KMKG MKG20030702221509507/02/03 22:15:31  5-MIN KMKG 030315Z 00000KT 10SM CLR 20/16 A2986 680 78 1500 000/00 RMK AO2 $
14840KMKG MKG20030702222009507/02/03 22:20:31  5-MIN KMKG 030320Z 00000KT 10SM CLR 20/16 A2987 680 78 1500 000/00 RMK AO2 $
14840KMKG MKG20030702222509507/02/03 22:25:31  5-MIN KMKG 030325Z 00000KT 10SM CLR 20/17 A2986 680 81 1500 000/00 RMK AO2 $
14840KMKG MKG20030702223009507/02/03 22:30:31  5-MIN KMKG 030330Z 00000KT 10SM CLR 20/17 A2986 680 81 1500 000/00 RMK AO2 $
14840KMKG MKG20030702223509507/02/03 22:35:31  5-MIN KMKG 030335Z 00000KT 10SM CLR 20/17 A2986 680 81 1500 000/00 RMK AO2 $
14840KMKG MKG20030702224009507/02/03 22:40:31  5-MIN KMKG 030340Z 00000KT 10SM CLR 20/17 A2986 690 81 1500 000/00 RMK AO2 $
14840KMKG MKG20030702224509507/02/03 22:45:31  5-MIN KMKG 030345Z 00000KT 10SM CLR 19/16 A2986 690 81 1400 000/00 RMK AO2 $
14840KMKG MKG20030702225011207/02/03 22:50:31  5-MIN KMKG 030350Z 00000KT 10SM CLR 19/16 A2986 680 81 1400 000/00 RMK AO2 SLP109 T01940161 $
14840KMKG MKG20030702225511207/02/03 22:55:31  5-MIN KMKG 030355Z 00000KT 10SM CLR 19/16 A2986 690 81 1400 000/00 RMK AO2 SLP107 T01940161 $
14840KMKG MKG20030702230009507/02/03 23:00:31  5-MIN KMKG 030400Z 00000KT 10SM CLR 19/16 A2986 690 81 1400 000/00 RMK AO2 $
14840KMKG MKG20030702230509507/02/03 23:05:31  5-MIN KMKG 030405Z 14003KT 10SM CLR 20/17 A2986 690 81 1500 140/03 RMK AO2 $
14840KMKG MKG20030702231009507/02/03 23:10:31  5-MIN KMKG 030410Z 00000KT 10SM CLR 20/17 A2986 690 81 1500 000/00 RMK AO2 $
14840KMKG MKG20030702231509507/02/03 23:15:31  5-MIN KMKG 030415Z 00000KT 10SM CLR 20/17 A2986 690 81 1500 000/00 RMK AO2 $
14840KMKG MKG20030702232009507/02/03 23:20:31  5-MIN KMKG 030420Z 00000KT 10SM CLR 19/17 A2986 690 84 1400 000/00 RMK AO2 $
14840KMKG MKG20030702232509507/02/03 23:25:31  5-MIN KMKG 030425Z 00000KT 10SM CLR 19/17 A2986 690 84 1400 000/00 RMK AO2 $
14840KMKG MKG20030702233009507/02/03 23:30:31  5-MIN KMKG 030430Z 00000KT 10SM CLR 19/17 A2986 690 84 1400 000/00 RMK AO2 $
14840KMKG MKG20030702233509507/02/03 23:35:31  5-MIN KMKG 030435Z 00000KT 10SM CLR 19/17 A2985 690 84 1400 000/00 RMK AO2 $
14840KMKG MKG20030702234009507/02/03 23:40:31  5-MIN KMKG 030440Z 14003KT 10SM CLR 19/17 A2985 690 87 1300 140/03 RMK AO2 $
14840KMKG MKG20030702234509507/02/03 23:45:31  5-MIN KMKG 030445Z 00000KT 10SM CLR 20/17 A2986 690 81 1500 000/00 RMK AO2 $
14840KMKG MKG20030702235012207/02/03 23:50:31  5-MIN KMKG 030450Z 00000KT 10SM CLR 20/17 A2986 690 84 1500 000/00 RMK AO2 SLP105 T02000172 403000139 $
14840KMKG MKG20030702235512207/02/03 23:55:31  5-MIN KMKG 030455Z 00000KT 10SM CLR 20/17 A2986 690 84 1500 000/00 RMK AO2 SLP106 T02000172 403000139 $
14840KMKG MKG20030703000009507/03/03 00:00:31  5-MIN KMKG 030500Z 00000KT 10SM CLR 20/17 A2986 690 81 1500 000/00 RMK AO2 $
14840KMKG MKG20030703000509507/03/03 00:05:31  5-MIN KMKG 030505Z 12003KT 10SM CLR 20/17 A2985 690 81 1500 120/03 RMK AO2 $
14840KMKG MKG20030703001009507/03/03 00:10:31  5-MIN KMKG 030510Z 11003KT 10SM CLR 20/17 A2985 690 81 1500 120/03 RMK AO2 $
14840KMKG MKG20030703001509507/03/03 00:15:31  5-MIN KMKG 030515Z 13003KT 10SM CLR 19/17 A2986 690 84 1400 130/03 RMK AO2 $
14840KMKG MKG20030703002009507/03/03 00:20:31  5-MIN KMKG 030520Z 00000KT 10SM CLR 19/17 A2986 690 84 1400 000/00 RMK AO2 $
14840KMKG MKG20030703002509507/03/03 00:25:31  5-MIN KMKG 030525Z 00000KT 10SM CLR 19/17 A2986 690 84 1400 000/00 RMK AO2 $
14840KMKG MKG20030703003009507/03/03 00:30:31  5-MIN KMKG 030530Z 00000KT 10SM CLR 19/17 A2986 690 84 1400 000/00 RMK AO2 $
14840KMKG MKG20030703003509507/03/03 00:35:31  5-MIN KMKG 030535Z 00000KT 10SM CLR 19/17 A2986 690 84 1400 000/00 RMK AO2 $
14840KMKG MKG20030703004009507/03/03 00:40:31  5-MIN KMKG 030540Z 00000KT 10SM CLR 18/17 A2986 690 90 1300 000/00 RMK AO2 $
14840KMKG MKG20030703004509507/03/03 00:45:31  5-MIN KMKG 030545Z 00000KT 10SM CLR 19/17 A2986 690 87 1300 000/00 RMK AO2 $
14840KMKG MKG20030703005013007/03/03 00:50:31  5-MIN KMKG 030550Z 00000KT 10SM CLR 18/16 A2986 690 87 1300 000/00 RMK AO2 SLP106 T01830161 10267 20183 53006 $
14840KMKG MKG20030703005513007/03/03 00:55:31  5-MIN KMKG 030555Z 00000KT 10SM CLR 19/17 A2986 690 87 1300 000/00 RMK AO2 SLP106 T01890167 10267 20183 55001 $
14840KMKG MKG20030703010009507/03/03 01:00:31  5-MIN KMKG 030600Z 00000KT 10SM CLR 18/16 A2986 690 87 1300 000/00 RMK AO2 $
14840KMKG MKG20030703010509507/03/03 01:05:31  5-MIN KMKG 030605Z 00000KT 10SM CLR 18/16 A2986 690 87 1300 000/00 RMK AO2 $
14840KMKG MKG20030703011009507/03/03 01:10:31  5-MIN KMKG 030610Z 00000KT 10SM CLR 18/16 A2986 690 87 1300 000/00 RMK AO2 $
14840KMKG MKG20030703011509507/03/03 01:15:31  5-MIN KMKG 030615Z 00000KT 10SM CLR 18/17 A2986 690 90 1300 000/00 RMK AO2 $
14840KMKG MKG20030703012009507/03/03 01:20:31  5-MIN KMKG 030620Z 00000KT 10SM CLR 18/16 A2986 690 87 1300 000/00 RMK AO2 $
14840KMKG MKG20030703012509507/03/03 01:25:31  5-MIN KMKG 030625Z 00000KT 10SM CLR 19/16 A2986 690 81 1400 000/00 RMK AO2 $
14840KMKG MKG20030703013009507/03/03 01:30:31  5-MIN KMKG 030630Z 00000KT 10SM CLR 18/17 A2985 690 93 1200 000/00 RMK AO2 $
14840KMKG MKG20030703013509507/03/03 01:35:31  5-MIN KMKG 030635Z 00000KT 10SM CLR 17/16 A2985 690 93 1200 000/00 RMK AO2 $
14840KMKG MKG20030703014009507/03/03 01:40:31  5-MIN KMKG 030640Z 00000KT 10SM CLR 17/16 A2986 690 93 1200 000/00 RMK AO2 $
14840KMKG MKG20030703014509507/03/03 01:45:31  5-MIN KMKG 030645Z 00000KT 10SM CLR 17/16 A2985 690 93 1200 000/00 RMK AO2 $
14840KMKG MKG20030703015011207/03/03 01:50:31  5-MIN KMKG 030650Z 00000KT 10SM CLR 17/16 A2985 690 93 1200 000/00 RMK AO2 SLP106 T01720161 $
14840KMKG MKG20030703015511207/03/03 01:55:31  5-MIN KMKG 030655Z 00000KT 10SM CLR 18/16 A2985 690 90 1200 000/00 RMK AO2 SLP105 T01780161 $
14840KMKG MKG20030703020009507/03/03 02:00:31  5-MIN KMKG 030700Z 00000KT 10SM CLR 18/16 A2985 690 90 1200 000/00 RMK AO2 $
14840KMKG MKG20030703020509507/03/03 02:05:31  5-MIN KMKG 030705Z 00000KT 10SM CLR 18/16 A2985 690 90 1200 000/00 RMK AO2 $
14840KMKG MKG20030703021009507/03/03 02:10:31  5-MIN KMKG 030710Z 00000KT 10SM CLR 18/16 A2985 690 90 1200 000/00 RMK AO2 $
14840KMKG MKG20030703021509507/03/03 02:15:31  5-MIN KMKG 030715Z 00000KT 10SM CLR 18/16 A2985 700 90 1200 000/00 RMK AO2 $
14840KMKG MKG20030703022009507/03/03 02:20:31  5-MIN KMKG 030720Z 00000KT 10SM CLR 17/16 A2985 700 90 1200 000/00 RMK AO2 $
14840KMKG MKG20030703022509507/03/03 02:25:31  5-MIN KMKG 030725Z 00000KT 10SM CLR 18/16 A2985 700 90 1200 000/00 RMK AO2 $
14840KMKG MKG20030703023009507/03/03 02:30:31  5-MIN KMKG 030730Z 13003KT 10SM CLR 18/16 A2985 700 90 1200 140/03 RMK AO2 $
14840KMKG MKG20030703023509507/03/03 02:35:31  5-MIN KMKG 030735Z 13003KT 10SM CLR 18/16 A2984 700 90 1200 130/03 RMK AO2 $
14840KMKG MKG20030703024009507/03/03 02:40:31  5-MIN KMKG 030740Z 14003KT 10SM CLR 18/16 A2984 700 90 1200 140/03 RMK AO2 $
14840KMKG MKG20030703024509507/03/03 02:45:31  5-MIN KMKG 030745Z 00000KT 10SM CLR 18/16 A2984 700 90 1200 000/00 RMK AO2 $
14840KMKG MKG20030703025011207/03/03 02:50:31  5-MIN KMKG 030750Z 00000KT 10SM CLR 18/16 A2984 700 90 1200 000/00 RMK AO2 SLP101 T01780161 $
14840KMKG MKG20030703025511207/03/03 02:55:31  5-MIN KMKG 030755Z 13003KT 10SM CLR 18/16 A2984 710 90 1200 140/03 RMK AO2 SLP101 T01780161 $
14840KMKG MKG20030703030009507/03/03 03:00:31  5-MIN KMKG 030800Z 12003KT 10SM CLR 18/16 A2984 710 90 1200 130/03 RMK AO2 $
14840KMKG MKG20030703030509507/03/03 03:05:31  5-MIN KMKG 030805Z 13003KT 10SM CLR 18/16 A2984 710 90 1200 130/03 RMK AO2 $
14840KMKG MKG20030703031009507/03/03 03:10:31  5-MIN KMKG 030810Z 00000KT 10SM CLR 18/16 A2984 700 90 1200 000/00 RMK AO2 $
14840KMKG MKG20030703031509507/03/03 03:15:31  5-MIN KMKG 030815Z 13003KT 10SM CLR 18/16 A2984 710 90 1200 140/03 RMK AO2 $
14840KMKG MKG20030703032009507/03/03 03:20:31  5-MIN KMKG 030820Z 00000KT 10SM CLR 18/16 A2984 710 90 1200 000/00 RMK AO2 $
14840KMKG MKG20030703032509507/03/03 03:25:31  5-MIN KMKG 030825Z 00000KT 10SM CLR 18/16 A2984 700 90 1200 000/00 RMK AO2 $
14840KMKG MKG20030703033009507/03/03 03:30:31  5-MIN KMKG 030830Z 00000KT 10SM CLR 18/16 A2984 700 90 1200 000/00 RMK AO2 $
14840KMKG MKG20030703033509507/03/03 03:35:31  5-MIN KMKG 030835Z 00000KT 10SM CLR 18/16 A2985 700 90 1200 000/00 RMK AO2 $
14840KMKG MKG20030703034009507/03/03 03:40:31  5-MIN KMKG 030840Z 00000KT 10SM CLR 18/16 A2984 700 90 1200 000/00 RMK AO2 $
14840KMKG MKG20030703034509507/03/03 03:45:31  5-MIN KMKG 030845Z 00000KT 10SM CLR 17/16 A2984 700 90 1200 000/00 RMK AO2 $
14840KMKG MKG20030703035011807/03/03 03:50:31  5-MIN KMKG 030850Z 00000KT 10SM CLR 18/16 A2984 710 90 1200 000/00 RMK AO2 SLP101 T01780161 55001 $
14840KMKG MKG20030703035511807/03/03 03:55:31  5-MIN KMKG 030855Z 00000KT 10SM CLR 17/16 A2984 710 93 1200 000/00 RMK AO2 SLP100 T01720161 56007 $
14840KMKG MKG20030703040009507/03/03 04:00:31  5-MIN KMKG 030900Z 00000KT 10SM CLR 18/16 A2984 710 90 1200 000/00 RMK AO2 $
14840KMKG MKG20030703040509507/03/03 04:05:31  5-MIN KMKG 030905Z 20003KT 10SM CLR 18/16 A2984 710 87 1200 200/03 RMK AO2 $
14840KMKG MKG20030703041009507/03/03 04:10:31  5-MIN KMKG 030910Z 00000KT 10SM CLR 18/16 A2984 710 87 1200 000/00 RMK AO2 $
14840KMKG MKG20030703041509507/03/03 04:15:31  5-MIN KMKG 030915Z 00000KT 10SM CLR 18/16 A2984 710 84 1300 000/00 RMK AO2 $
14840KMKG MKG20030703042009507/03/03 04:20:31  5-MIN KMKG 030920Z 00000KT 10SM CLR 18/16 A2984 700 84 1300 000/00 RMK AO2 $
14840KMKG MKG20030703042509507/03/03 04:25:31  5-MIN KMKG 030925Z 00000KT 10SM CLR 18/16 A2984 700 84 1300 000/00 RMK AO2 $
14840KMKG MKG20030703043009507/03/03 04:30:31  5-MIN KMKG 030930Z 00000KT 10SM CLR 18/16 A2984 700 84 1300 000/00 RMK AO2 $
14840KMKG MKG20030703043509507/03/03 04:35:31  5-MIN KMKG 030935Z 00000KT 10SM CLR 18/16 A2984 700 84 1300 000/00 RMK AO2 $
14840KMKG MKG20030703044009507/03/03 04:40:31  5-MIN KMKG 030940Z 00000KT 10SM CLR 19/16 A2984 700 81 1400 000/00 RMK AO2 $
14840KMKG MKG20030703044509507/03/03 04:45:31  5-MIN KMKG 030945Z 00000KT 10SM CLR 18/16 A2984 700 84 1300 000/00 RMK AO2 $
14840KMKG MKG20030703045011207/03/03 04:50:31  5-MIN KMKG 030950Z 00000KT 10SM CLR 18/16 A2984 710 84 1300 000/00 RMK AO2 SLP101 T01830156 $
14840KMKG MKG20030703045511207/03/03 04:55:31  5-MIN KMKG 030955Z 00000KT 10SM CLR 18/16 A2984 700 84 1300 000/00 RMK AO2 SLP101 T01830156 $
14840KMKG MKG20030703050009507/03/03 05:00:31  5-MIN KMKG 031000Z 00000KT 10SM CLR 18/16 A2984 700 84 1300 000/00 RMK AO2 $
14840KMKG MKG20030703050509507/03/03 05:05:31  5-MIN KMKG 031005Z 19003KT 10SM CLR 19/16 A2984 700 81 1400 190/03 RMK AO2 $
14840KMKG MKG20030703051009507/03/03 05:10:31  5-MIN KMKG 031010Z 18003KT 10SM CLR 19/16 A2984 700 81 1400 180/03 RMK AO2 $
14840KMKG MKG20030703051509507/03/03 05:15:31  5-MIN KMKG 031015Z 16003KT 10SM CLR 19/16 A2984 710 81 1400 170/03 RMK AO2 $
14840KMKG MKG20030703052009507/03/03 05:20:31  5-MIN KMKG 031020Z 17003KT 10SM CLR 18/16 A2983 710 84 1300 180/03 RMK AO2 $
14840KMKG MKG20030703052509507/03/03 05:25:31  5-MIN KMKG 031025Z 18004KT 10SM CLR 18/16 A2984 710 84 1300 190/04 RMK AO2 $
14840KMKG MKG20030703053009507/03/03 05:30:31  5-MIN KMKG 031030Z 19003KT 10SM CLR 18/16 A2984 710 84 1300 190/03 RMK AO2 $
14840KMKG MKG20030703053509507/03/03 05:35:31  5-MIN KMKG 031035Z 19005KT 10SM CLR 19/16 A2984 710 81 1400 200/05 RMK AO2 $
14840KMKG MKG20030703054009507/03/03 05:40:31  5-MIN KMKG 031040Z 19005KT 10SM CLR 20/16 A2984 700 78 1500 200/05 RMK AO2 $
14840KMKG MKG20030703054509507/03/03 05:45:31  5-MIN KMKG 031045Z 20006KT 10SM CLR 20/16 A2984 710 78 1500 200/06 RMK AO2 $
14840KMKG MKG20030703055011207/03/03 05:50:31  5-MIN KMKG 031050Z 20006KT 10SM CLR 21/17 A2984 710 78 1600 200/06 RMK AO2 SLP100 T02060167 $
14840KMKG MKG20030703055511207/03/03 05:55:31  5-MIN KMKG 031055Z 20007KT 10SM CLR 21/17 A2983 710 75 1600 200/07 RMK AO2 SLP098 T02110167 $
14840KMKG MKG20030703060009507/03/03 06:00:31  5-MIN KMKG 031100Z 20006KT 10SM CLR 21/17 A2983 710 75 1600 200/06 RMK AO2 $
14840KMKG MKG20030703060509507/03/03 06:05:31  5-MIN KMKG 031105Z 20006KT 10SM CLR 21/17 A2983 710 75 1600 200/06 RMK AO2 $
14840KMKG MKG20030703061009507/03/03 06:10:31  5-MIN KMKG 031110Z 20006KT 10SM CLR 22/17 A2983 710 75 1700 200/06 RMK AO2 $
14840KMKG MKG20030703061509507/03/03 06:15:31  5-MIN KMKG 031115Z 21005KT 10SM CLR 22/17 A2983 710 75 1700 210/05 RMK AO2 $
14840KMKG MKG20030703062009507/03/03 06:20:31  5-MIN KMKG 031120Z 21006KT 10SM CLR 22/17 A2984 710 75 1700 210/06 RMK AO2 $
14840KMKG MKG20030703062509507/03/03 06:25:31  5-MIN KMKG 031125Z 21007KT 10SM CLR 22/17 A2984 710 73 1800 210/07 RMK AO2 $
14840KMKG MKG20030703063009507/03/03 06:30:31  5-MIN KMKG 031130Z 20006KT 10SM CLR 22/17 A2984 710 73 1800 200/06 RMK AO2 $
14840KMKG MKG20030703063509507/03/03 06:35:31  5-MIN KMKG 031135Z 20006KT 10SM CLR 22/17 A2984 710 73 1800 200/06 RMK AO2 $
14840KMKG MKG20030703064009507/03/03 06:40:31  5-MIN KMKG 031140Z 20007KT 10SM CLR 22/17 A2984 710 73 1700 200/07 RMK AO2 $
14840KMKG MKG20030703064509507/03/03 06:45:31  5-MIN KMKG 031145Z 21007KT 10SM CLR 23/17 A2984 710 70 1800 210/07 RMK AO2 $
14840KMKG MKG20030703065013007/03/03 06:50:31  5-MIN KMKG 031150Z 20006KT 10SM CLR 23/17 A2984 710 70 1800 210/06 RMK AO2 SLP099 T02280172 10228 20172 56007 $
14840KMKG MKG20030703065513007/03/03 06:55:31  5-MIN KMKG 031155Z 20006KT 10SM CLR 23/17 A2984 710 70 1800 200/06 RMK AO2 SLP100 T02280172 10228 20172 52000 $
14840KMKG MKG20030703070009507/03/03 07:00:31  5-MIN KMKG 031200Z 20006KT 10SM CLR 23/17 A2984 710 70 1800 200/06 RMK AO2 $
14840KMKG MKG20030703070509507/03/03 07:05:31  5-MIN KMKG 031205Z 20007KT 10SM CLR 23/17 A2984 700 68 1900 210/07 RMK AO2 $
14840KMKG MKG20030703071009507/03/03 07:10:31  5-MIN KMKG 031210Z 21007KT 10SM CLR 23/17 A2984 700 68 1900 220/07 RMK AO2 $
14840KMKG MKG20030703071509507/03/03 07:15:31  5-MIN KMKG 031215Z 22008KT 10SM CLR 23/17 A2984 700 68 1900 220/08 RMK AO2 $
14840KMKG MKG20030703072009507/03/03 07:20:31  5-MIN KMKG 031220Z 21009KT 10SM CLR 24/17 A2985 700 63 1900 210/09 RMK AO2 $
14840KMKG MKG20030703072509507/03/03 07:25:31  5-MIN KMKG 031225Z 20008KT 10SM CLR 24/17 A2985 700 66 1900 200/08 RMK AO2 $
14840KMKG MKG20030703073009507/03/03 07:30:31  5-MIN KMKG 031230Z 20007KT 10SM CLR 24/17 A2984 700 63 2000 200/07 RMK AO2 $
14840KMKG MKG20030703073509507/03/03 07:35:31  5-MIN KMKG 031235Z 21009KT 10SM CLR 24/17 A2984 700 63 2000 210/09 RMK AO2 $
14840KMKG MKG20030703074009507/03/03 07:40:31  5-MIN KMKG 031240Z 20009KT 10SM CLR 24/17 A2985 700 63 2000 210/09 RMK AO2 $
14840KMKG MKG20030703074509507/03/03 07:45:31  5-MIN KMKG 031245Z 21009KT 10SM CLR 24/17 A2985 700 63 2000 210/09 RMK AO2 $
14840KMKG MKG20030703075011207/03/03 07:50:31  5-MIN KMKG 031250Z 22009KT 10SM CLR 24/17 A2985 700 63 2000 220/09 RMK AO2 SLP104 T02440172 $
14840KMKG MKG20030703075511007/03/03 07:55:31  5-MIN KMKG 031255Z 22007KT 10SM CLR 24/17 A2986 690 63 1900 220/07 RMK AO2 SLP106 T02390167
14840KMKG MKG20030703080009307/03/03 08:00:31  5-MIN KMKG 031300Z 21010KT 10SM CLR 24/17 A2986 690 66 1900 220/10 RMK AO2
14840KMKG MKG20030703080509307/03/03 08:05:31  5-MIN KMKG 031305Z 22009KT 10SM CLR 24/17 A2986 690 66 1900 230/09 RMK AO2
14840KMKG MKG20030703081009307/03/03 08:10:31  5-MIN KMKG 031310Z 22010KT 10SM CLR 24/17 A2986 680 66 1900 230/10 RMK AO2
14840KMKG MKG20030703081509307/03/03 08:15:31  5-MIN KMKG 031315Z 23009KT 10SM CLR 25/17 A2986 680 61 2000 230/09 RMK AO2
14840KMKG MKG20030703082009307/03/03 08:20:31  5-MIN KMKG 031320Z 24011KT 10SM CLR 25/18 A2986 680 64 2000 240/11 RMK AO2
14840KMKG MKG20030703082509307/03/03 08:25:31  5-MIN KMKG 031325Z 23012KT 10SM CLR 25/18 A2986 680 64 2000 240/12 RMK AO2
14840KMKG MKG20030703083009307/03/03 08:30:31  5-MIN KMKG 031330Z 23012KT 10SM CLR 26/18 A2986 680 61 2100 230/12 RMK AO2
14840KMKG MKG20030703083509307/03/03 08:35:31  5-MIN KMKG 031335Z 23009KT 10SM CLR 26/18 A2986 680 61 2100 230/09 RMK AO2
14840KMKG MKG20030703084009307/03/03 08:40:31  5-MIN KMKG 031340Z 24012KT 10SM CLR 26/18 A2986 690 59 2200 240/12 RMK AO2
14840KMKG MKG20030703084509307/03/03 08:45:31  5-MIN KMKG 031345Z 24010KT 10SM CLR 26/18 A2986 680 61 2100 240/10 RMK AO2
14840KMKG MKG20030703085011007/03/03 08:50:31  5-MIN KMKG 031350Z 23009KT 10SM CLR 25/18 A2986 680 64 2000 230/09 RMK AO2 SLP110 T02500178
14840KMKG MKG20030703085511007/03/03 08:55:31  5-MIN KMKG 031355Z 24011KT 10SM CLR 26/18 A2986 680 64 2100 240/11 RMK AO2 SLP109 T02560183
14840KMKG MKG20030703101509507/03/03 10:15:31  5-MIN KMKG 031515Z 21010KT 10SM CLR 26/19 A2982 720 64 2200 220/10 RMK AO2 $
14840KMKG MKG20030703102010207/03/03 10:20:31  5-MIN KMKG 031520Z 20011KT 10SM CLR 27/19 A2981 730 62 2300 210/11 RMK AO2 PRESFR $
14840KMKG MKG20030703102510207/03/03 10:25:31  5-MIN KMKG 031525Z 20011KT 10SM CLR 27/19 A2980 740 62 2300 200/11 RMK AO2 PRESFR $
14840KMKG MKG20030703103009507/03/03 10:30:31  5-MIN KMKG 031530Z 20011KT 10SM CLR 27/19 A2980 740 62 2400 200/11 RMK AO2 $
14840KMKG MKG20030703103509507/03/03 10:35:31  5-MIN KMKG 031535Z 21010KT 10SM CLR 28/19 A2980 740 60 2400 210/10 RMK AO2 $
14840KMKG MKG20030703104009507/03/03 10:40:31  5-MIN KMKG 031540Z 20011KT 10SM CLR 28/20 A2979 750 60 2500 200/11 RMK AO2 $
14840KMKG MKG20030703104509307/03/03 10:45:31  5-MIN KMKG 031545Z 18010KT 10SM CLR 28/20 A2978 760 62 2400 190/10 RMK AO2
14840KMKG MKG20030703105011607/03/03 10:50:31  5-MIN KMKG 031550Z 18014KT 9SM CLR 28/20 A2978 760 60 2500 180/14 RMK AO2 PRESFR SLP080 T02830200
14840KMKG MKG20030703105510907/03/03 10:55:31  5-MIN KMKG 031555Z 19013KT 9SM CLR 28/20 A2978 760 60 2500 190/13 RMK AO2 SLP080 T02830200
14840KMKG MKG20030703110009207/03/03 11:00:31  5-MIN KMKG 031600Z 18013KT 9SM CLR 28/20 A2977 770 60 2500 180/13 RMK AO2
14840KMKG MKG20030703110509207/03/03 11:05:31  5-MIN KMKG 031605Z 18015KT 9SM CLR 28/20 A2977 770 60 2500 180/15 RMK AO2
14840KMKG MKG20030703111009207/03/03 11:10:31  5-MIN KMKG 031610Z 18013KT 9SM CLR 29/20 A2977 770 58 2600 190/13 RMK AO2
14840KMKG MKG20030703111509207/03/03 11:15:31  5-MIN KMKG 031615Z 20015KT 9SM CLR 29/20 A2977 770 58 2600 200/15 RMK AO2
14840KMKG MKG20030703112009207/03/03 11:20:31  5-MIN KMKG 031620Z 20014KT 9SM CLR 29/20 A2978 760 58 2600 210/14 RMK AO2
14840KMKG MKG20030703112509207/03/03 11:25:31  5-MIN KMKG 031625Z 20011KT 9SM CLR 29/20 A2979 750 58 2600 200/11 RMK AO2
14840KMKG MKG20030703113009907/03/03 11:30:31  5-MIN KMKG 031630Z 21014KT 9SM CLR 29/20 A2980 740 56 2600 220/14 RMK AO2 PRESRR
14840KMKG MKG20030703113510007/03/03 11:35:31  5-MIN KMKG 031635Z 22012KT 10SM CLR 29/20 A2980 740 58 2500 220/12 RMK AO2 PRESRR
14840KMKG MKG20030703114009307/03/03 11:40:31  5-MIN KMKG 031640Z 21013KT 10SM CLR 29/20 A2981 730 58 2500 210/13 RMK AO2
14840KMKG MKG20030703114509307/03/03 11:45:31  5-MIN KMKG 031645Z 21016KT 10SM CLR 29/19 A2981 740 56 2500 210/16 RMK AO2
14840KMKG MKG20030703115011007/03/03 11:50:31  5-MIN KMKG 031650Z 20016KT 10SM CLR 28/19 A2980 740 58 2500 210/16 RMK AO2 SLP088 T02830194
14840KMKG MKG20030703115511007/03/03 11:55:31  5-MIN KMKG 031655Z 21015KT 10SM CLR 28/19 A2981 730 58 2500 210/15 RMK AO2 SLP089 T02830194
14840KMKG MKG20030703120009307/03/03 12:00:31  5-MIN KMKG 031700Z 21013KT 10SM CLR 28/19 A2981 730 58 2400 220/13 RMK AO2
14840KMKG MKG20030703120509307/03/03 12:05:31  5-MIN KMKG 031705Z 20015KT 10SM CLR 29/19 A2981 730 56 2500 200/15 RMK AO2
14840KMKG MKG20030703121009907/03/03 12:10:31  5-MIN KMKG 031710Z 21016G21KT 10SM CLR 29/19 A2981 730 56 2500 210/16G21 RMK AO2
14840KMKG MKG20030703121509807/03/03 12:15:31  5-MIN KMKG 031715Z 20016G21KT 9SM CLR 29/19 A2982 730 54 2600 210/16G21 RMK AO2
14840KMKG MKG20030703122009807/03/03 12:20:31  5-MIN KMKG 031720Z 20013G20KT 9SM CLR 28/19 A2982 720 58 2500 210/13G20 RMK AO2
14840KMKG MKG20030703122509207/03/03 12:25:31  5-MIN KMKG 031725Z 21012KT 9SM CLR 28/19 A2982 720 60 2400 210/12 RMK AO2
14840KMKG MKG20030703123009307/03/03 12:30:31  5-MIN KMKG 031730Z 21015KT 10SM CLR 28/19 A2982 720 60 2400 220/15 RMK AO2
14840KMKG MKG20030703123509207/03/03 12:35:31  5-MIN KMKG 031735Z 21013KT 9SM CLR 27/19 A2982 720 62 2300 210/13 RMK AO2
14840KMKG MKG20030703124009307/03/03 12:40:31  5-MIN KMKG 031740Z 20014KT 10SM CLR 28/19 A2982 720 58 2400 210/14 RMK AO2
14840KMKG MKG20030703124509307/03/03 12:45:31  5-MIN KMKG 031745Z 21012KT 10SM CLR 27/19 A2982 720 60 2300 210/12 RMK AO2
14840KMKG MKG20030703125012807/03/03 12:50:31  5-MIN KMKG 031750Z 20012KT 10SM CLR 27/19 A2982 720 60 2300 200/12 RMK AO2 SLP094 T02720189 10294 20228 58001
14840KMKG MKG20030703125512807/03/03 12:55:31  5-MIN KMKG 031755Z 20013KT 10SM CLR 29/19 A2982 730 56 2500 210/13 RMK AO2 SLP094 T02890194 10294 20228 55006
14840KMKG MKG20030703130009907/03/03 13:00:31  5-MIN KMKG 031800Z 20014G19KT 10SM CLR 28/19 A2982 730 58 2500 200/14G19 RMK AO2
14840KMKG MKG20030703130509307/03/03 13:05:31  5-MIN KMKG 031805Z 20013KT 10SM CLR 28/19 A2981 730 58 2500 200/13 RMK AO2
14840KMKG MKG20030703131009207/03/03 13:10:31  5-MIN KMKG 031810Z 20013KT 9SM CLR 28/19 A2981 730 60 2400 210/13 RMK AO2
14840KMKG MKG20030703131509207/03/03 13:15:31  5-MIN KMKG 031815Z 21012KT 9SM CLR 28/19 A2981 730 60 2400 210/12 RMK AO2
14840KMKG MKG20030703132009207/03/03 13:20:31  5-MIN KMKG 031820Z 20013KT 9SM CLR 28/19 A2981 730 60 2400 200/13 RMK AO2
14840KMKG MKG20030703132509207/03/03 13:25:31  5-MIN KMKG 031825Z 20011KT 9SM CLR 29/19 A2981 730 56 2500 200/11 RMK AO2
14840KMKG MKG20030703133009207/03/03 13:30:31  5-MIN KMKG 031830Z 20014KT 9SM CLR 29/19 A2981 730 56 2500 210/14 RMK AO2
14840KMKG MKG20030703133509507/03/03 13:35:31  5-MIN KMKG 031835Z 21013KT 9SM FEW100 28/19 A2981 730 58 2500 210/13 RMK AO2
14840KMKG MKG20030703134010407/03/03 13:40:31  5-MIN KMKG 031840Z 20014G19KT 3SM HZ FEW100 29/19 A2981 730 56 2500 210/14G19 RMK AO2
14840KMKG MKG20030703134509807/03/03 13:45:31  5-MIN KMKG 031845Z 20013KT 3SM HZ FEW100 29/19 A2981 730 54 2600 210/13 RMK AO2
14840KMKG MKG20030703135011207/03/03 13:50:31  5-MIN KMKG 031850Z 21014KT 8SM FEW100 29/19 A2982 730 54 2600 210/14 RMK AO2 SLP093 T02940194
14840KMKG MKG20030703135511207/03/03 13:55:31  5-MIN KMKG 031855Z 21015KT 8SM FEW100 29/19 A2982 730 56 2500 210/15 RMK AO2 SLP093 T02890194
14840KMKG MKG20030703140009507/03/03 14:00:31  5-MIN KMKG 031900Z 20012KT 8SM FEW100 28/19 A2981 730 58 2500 210/12 RMK AO2
14840KMKG MKG20030703140509507/03/03 14:05:31  5-MIN KMKG 031905Z 20012KT 8SM FEW100 29/19 A2981 730 56 2500 210/12 RMK AO2
14840KMKG MKG20030703141009507/03/03 14:10:31  5-MIN KMKG 031910Z 20012KT 7SM FEW100 29/20 A2981 730 58 2500 210/12 RMK AO2
14840KMKG MKG20030703141510107/03/03 14:15:31  5-MIN KMKG 031915Z 21014G19KT 7SM FEW100 29/20 A2980 740 58 2500 210/14G19 RMK AO2
14840KMKG MKG20030703142010107/03/03 14:20:31  5-MIN KMKG 031920Z 21013G19KT 7SM FEW100 29/20 A2980 740 56 2600 210/13G19 RMK AO2
14840KMKG MKG20030703142509207/03/03 14:25:31  5-MIN KMKG 031925Z 21012KT 7SM CLR 30/20 A2980 740 54 2700 220/12 RMK AO2
14840KMKG MKG20030703143009207/03/03 14:30:31  5-MIN KMKG 031930Z 21014KT 7SM CLR 29/20 A2980 740 56 2600 210/14 RMK AO2
14840KMKG MKG20030703143509507/03/03 14:35:31  5-MIN KMKG 031935Z 20015KT 7SM FEW100 31/20 A2980 740 52 2700 200/15 RMK AO2
14840KMKG MKG20030703144009807/03/03 14:40:31  5-MIN KMKG 031940Z 20013KT 6SM HZ FEW100 31/20 A2980 740 52 2700 200/13 RMK AO2
14840KMKG MKG20030703144509807/03/03 14:45:31  5-MIN KMKG 031945Z 19014KT 6SM HZ FEW100 30/20 A2980 740 54 2700 200/14 RMK AO2
14840KMKG MKG20030703145011207/03/03 14:50:31  5-MIN KMKG 031950Z 21012KT 7SM FEW100 29/20 A2980 740 56 2600 210/12 RMK AO2 SLP089 T02940200
14840KMKG MKG20030703145511207/03/03 14:55:31  5-MIN KMKG 031955Z 20013KT 7SM FEW100 30/21 A2980 740 56 2700 200/13 RMK AO2 SLP088 T03000206
14840KMKG MKG20030703150009507/03/03 15:00:31  5-MIN KMKG 032000Z 20014KT 7SM FEW095 31/21 A2980 740 54 2700 200/14 RMK AO2
14840KMKG MKG20030703150510107/03/03 15:05:31  5-MIN KMKG 032005Z 21015G21KT 7SM FEW095 31/20 A2980 740 52 2700 210/15G21 RMK AO2
14840KMKG MKG20030703151010107/03/03 15:10:31  5-MIN KMKG 032010Z 20012G21KT 7SM FEW095 31/20 A2979 750 52 2700 210/12G21 RMK AO2
14840KMKG MKG20030703151509507/03/03 15:15:31  5-MIN KMKG 032015Z 21013KT 7SM FEW095 31/21 A2979 750 54 2700 210/13 RMK AO2
14840KMKG MKG20030703152009807/03/03 15:20:31  5-MIN KMKG 032020Z 20016KT 6SM HZ FEW100 30/20 A2979 750 54 2700 210/16 RMK AO2
14840KMKG MKG20030703152509507/03/03 15:25:31  5-MIN KMKG 032025Z 20014KT 6SM HZ CLR 31/20 A2980 750 52 2700 210/14 RMK AO2
14840KMKG MKG20030703153009507/03/03 15:30:31  5-MIN KMKG 032030Z 20014KT 7SM FEW100 31/21 A2979 750 53 2800 210/14 RMK AO2
14840KMKG MKG20030703153509507/03/03 15:35:31  5-MIN KMKG 032035Z 20013KT 7SM FEW100 31/20 A2980 740 51 2800 200/13 RMK AO2
14840KMKG MKG20030703154010507/03/03 15:40:31  5-MIN KMKG 032040Z AUTO 21015KT 7SM FEW100 30/20 A2980 750 54 2700 210/15 RMK AO2 TSNO
14840KMKG MKG20030703154510407/03/03 15:45:31  5-MIN KMKG 032045Z 21014G20KT 6SM HZ FEW100 31/20 A2979 750 52 2700 210/14G20 RMK AO2
14840KMKG MKG20030703155012707/03/03 15:50:31  5-MIN KMKG 032050Z 21014G20KT 6SM HZ FEW100 31/20 A2979 750 52 2700 210/14G20 RMK AO2 SLP084 T03060200 55006
14840KMKG MKG20030703155512107/03/03 15:55:31  5-MIN KMKG 032055Z 21016KT 6SM HZ FEW100 31/20 A2979 750 52 2700 210/16 RMK AO2 SLP084 T03060200 58010
14840KMKG MKG20030703160009507/03/03 16:00:31  5-MIN KMKG 032100Z 21015KT 7SM FEW100 31/20 A2978 760 51 2800 210/15 RMK AO2
14840KMKG MKG20030703160509507/03/03 16:05:31  5-MIN KMKG 032105Z 20012KT 7SM FEW100 31/20 A2978 760 52 2700 200/12 RMK AO2
14840KMKG MKG20030703161009507/03/03 16:10:31  5-MIN KMKG 032110Z 22014KT 8SM FEW100 30/20 A2979 750 54 2700 220/14 RMK AO2
14840KMKG MKG20030703161510107/03/03 16:15:31  5-MIN KMKG 032115Z 21013G19KT 8SM SCT080 29/20 A2979 750 56 2600 220/13G19 RMK AO2
14840KMKG MKG20030703162010107/03/03 16:20:31  5-MIN KMKG 032120Z 20014G19KT 8SM BKN085 29/20 A2979 750 56 2600 210/14G19 RMK AO2
14840KMKG MKG20030703162509507/03/03 16:25:31  5-MIN KMKG 032125Z 21014KT 8SM BKN085 29/20 A2979 750 56 2600 210/14 RMK AO2
14840KMKG MKG20030703163009507/03/03 16:30:31  5-MIN KMKG 032130Z 21013KT 8SM BKN085 29/20 A2979 750 58 2600 210/13 RMK AO2
14840KMKG MKG20030703163509507/03/03 16:35:31  5-MIN KMKG 032135Z 20010KT 7SM BKN085 29/20 A2979 750 58 2600 210/10 RMK AO2
14840KMKG MKG20030703164009507/03/03 16:40:31  5-MIN KMKG 032140Z 21012KT 7SM BKN085 29/20 A2979 750 58 2600 220/12 RMK AO2
14840KMKG MKG20030703164509507/03/03 16:45:31  5-MIN KMKG 032145Z 20012KT 8SM BKN090 29/20 A2979 750 58 2600 210/12 RMK AO2
14840KMKG MKG20030703165011207/03/03 16:50:31  5-MIN KMKG 032150Z 20013KT 8SM BKN090 28/20 A2979 750 60 2500 200/13 RMK AO2 SLP084 T02830200
14840KMKG MKG20030703165511207/03/03 16:55:31  5-MIN KMKG 032155Z 21012KT 8SM BKN090 28/20 A2979 750 60 2500 210/12 RMK AO2 SLP084 T02830200
14840KMKG MKG20030703170009507/03/03 17:00:31  5-MIN KMKG 032200Z 21015KT 8SM BKN090 28/20 A2979 750 60 2500 220/15 RMK AO2
14840KMKG MKG20030703170509507/03/03 17:05:31  5-MIN KMKG 032205Z 21012KT 8SM BKN090 28/20 A2979 750 60 2500 220/12 RMK AO2
14840KMKG MKG20030703171009507/03/03 17:10:31  5-MIN KMKG 032210Z 22013KT 7SM SCT090 28/20 A2979 750 60 2500 220/13 RMK AO2
14840KMKG MKG20030703171509507/03/03 17:15:31  5-MIN KMKG 032215Z 21011KT 7SM BKN090 29/20 A2978 760 58 2600 210/11 RMK AO2
14840KMKG MKG20030703172009507/03/03 17:20:31  5-MIN KMKG 032220Z 22013KT 7SM SCT090 29/20 A2978 760 58 2600 230/13 RMK AO2
14840KMKG MKG20030703172509507/03/03 17:25:31  5-MIN KMKG 032225Z 21011KT 7SM SCT090 28/20 A2978 760 60 2500 210/11 RMK AO2
14840KMKG MKG20030703173009507/03/03 17:30:31  5-MIN KMKG 032230Z 21012KT 7SM FEW085 28/20 A2978 760 62 2400 210/12 RMK AO2
14840KMKG MKG20030703173509507/03/03 17:35:31  5-MIN KMKG 032235Z 21010KT 7SM SCT090 27/20 A2978 760 64 2400 220/10 RMK AO2
14840KMKG MKG20030703174009507/03/03 17:40:31  5-MIN KMKG 032240Z 21008KT 7SM BKN090 28/20 A2978 760 62 2400 220/08 RMK AO2
14840KMKG MKG20030703174509507/03/03 17:45:31  5-MIN KMKG 032245Z 22007KT 7SM BKN090 28/20 A2978 760 62 2400 220/07 RMK AO2
14840KMKG MKG20030703175011207/03/03 17:50:31  5-MIN KMKG 032250Z 21008KT 7SM BKN090 28/20 A2978 760 62 2400 220/08 RMK AO2 SLP079 T02780200
14840KMKG MKG20030703175511207/03/03 17:55:31  5-MIN KMKG 032255Z 21009KT 7SM BKN090 28/20 A2978 760 62 2400 210/09 RMK AO2 SLP079 T02780200
14840KMKG MKG20030703180009807/03/03 18:00:31  5-MIN KMKG 032300Z 22009KT 6SM HZ BKN090 28/20 A2977 770 60 2500 220/09 RMK AO2
14840KMKG MKG20030703180509807/03/03 18:05:31  5-MIN KMKG 032305Z 22008KT 6SM HZ BKN090 28/20 A2978 760 60 2500 220/08 RMK AO2
14840KMKG MKG20030703181009807/03/03 18:10:31  5-MIN KMKG 032310Z 20008KT 6SM HZ BKN090 28/20 A2977 770 60 2500 210/08 RMK AO2
14840KMKG MKG20030703181510507/03/03 18:15:31  5-MIN KMKG 032315Z 20008KT 6SM HZ FEW075 BKN095 28/19 A2977 770 58 2500 210/08 RMK AO2
14840KMKG MKG20030703182010507/03/03 18:20:31  5-MIN KMKG 032320Z 20008KT 6SM HZ FEW075 BKN090 28/19 A2977 770 60 2400 200/08 RMK AO2
14840KMKG MKG20030703182509807/03/03 18:25:31  5-MIN KMKG 032325Z 20007KT 6SM HZ BKN090 28/19 A2977 770 60 2400 200/07 RMK AO2
14840KMKG MKG20030703183009507/03/03 18:30:31  5-MIN KMKG 032330Z 20008KT 7SM BKN085 28/19 A2977 770 60 2400 200/08 RMK AO2
14840KMKG MKG20030703183509507/03/03 18:35:31  5-MIN KMKG 032335Z 20008KT 7SM BKN085 28/19 A2977 770 60 2500 210/08 RMK AO2
14840KMKG MKG20030703184009507/03/03 18:40:31  5-MIN KMKG 032340Z 20008KT 7SM OVC080 28/19 A2977 770 60 2500 200/08 RMK AO2
14840KMKG MKG20030703184509507/03/03 18:45:31  5-MIN KMKG 032345Z 20008KT 7SM OVC080 28/19 A2977 770 60 2400 200/08 RMK AO2
14840KMKG MKG20030703185013007/03/03 18:50:31  5-MIN KMKG 032350Z 20009KT 7SM OVC080 28/19 A2977 770 60 2400 210/09 RMK AO2 SLP077 T02780194 10311 20272 58010
14840KMKG MKG20030703185513007/03/03 18:55:31  5-MIN KMKG 032355Z 20007KT 7SM OVC080 28/19 A2977 770 60 2500 210/07 RMK AO2 SLP077 T02780194 10311 20272 58005
14840KMKG MKG20030703190009507/03/03 19:00:31  5-MIN KMKG 040000Z 20008KT 7SM OVC075 28/19 A2977 770 60 2400 210/08 RMK AO2
14840KMKG MKG20030703190509507/03/03 19:05:31  5-MIN KMKG 040005Z 21008KT 7SM OVC075 28/19 A2977 770 60 2400 210/08 RMK AO2
14840KMKG MKG20030703191009507/03/03 19:10:31  5-MIN KMKG 040010Z 20009KT 7SM OVC075 27/19 A2978 760 62 2400 200/09 RMK AO2
14840KMKG MKG20030703191509507/03/03 19:15:31  5-MIN KMKG 040015Z 20007KT 7SM OVC070 27/19 A2977 770 62 2400 210/07 RMK AO2
14840KMKG MKG20030703192009507/03/03 19:20:31  5-MIN KMKG 040020Z 19007KT 7SM OVC070 28/19 A2977 770 60 2400 200/07 RMK AO2
14840KMKG MKG20030703192509507/03/03 19:25:31  5-MIN KMKG 040025Z 19007KT 7SM OVC070 28/19 A2977 770 60 2500 200/07 RMK AO2
14840KMKG MKG20030703193009507/03/03 19:30:31  5-MIN KMKG 040030Z 19007KT 7SM OVC065 28/19 A2977 770 60 2500 200/07 RMK AO2
14840KMKG MKG20030703193509507/03/03 19:35:31  5-MIN KMKG 040035Z 19008KT 7SM BKN065 28/19 A2977 770 60 2500 200/08 RMK AO2
14840KMKG MKG20030703194009507/03/03 19:40:31  5-MIN KMKG 040040Z 20010KT 7SM BKN060 28/19 A2977 770 60 2500 210/10 RMK AO2
14840KMKG MKG20030703194509507/03/03 19:45:31  5-MIN KMKG 040045Z 21009KT 7SM BKN060 27/19 A2977 770 62 2400 210/09 RMK AO2
14840KMKG MKG20030703195011207/03/03 19:50:31  5-MIN KMKG 040050Z 21010KT 7SM OVC060 27/19 A2977 770 62 2400 210/10 RMK AO2 SLP076 T02720194
14840KMKG MKG20030703195511207/03/03 19:55:31  5-MIN KMKG 040055Z 20009KT 8SM BKN060 27/19 A2977 770 62 2400 210/09 RMK AO2 SLP076 T02720194
14840KMKG MKG20030703200009507/03/03 20:00:31  5-MIN KMKG 040100Z 21007KT 8SM BKN060 27/19 A2977 770 64 2300 210/07 RMK AO2
14840KMKG MKG20030703200509507/03/03 20:05:31  5-MIN KMKG 040105Z 21009KT 8SM BKN060 27/19 A2977 770 64 2300 210/09 RMK AO2
14840KMKG MKG20030703201009507/03/03 20:10:31  5-MIN KMKG 040110Z 21010KT 8SM BKN060 27/19 A2977 770 64 2300 210/10 RMK AO2
14840KMKG MKG20030703201509507/03/03 20:15:31  5-MIN KMKG 040115Z 21010KT 7SM BKN060 26/19 A2977 770 66 2300 210/10 RMK AO2
14840KMKG MKG20030703202009507/03/03 20:20:31  5-MIN KMKG 040120Z 21009KT 7SM BKN060 26/19 A2977 770 66 2300 210/09 RMK AO2
14840KMKG MKG20030703202509507/03/03 20:25:31  5-MIN KMKG 040125Z 21009KT 7SM BKN060 26/19 A2977 770 66 2300 210/09 RMK AO2
14840KMKG MKG20030703203009507/03/03 20:30:31  5-MIN KMKG 040130Z 21009KT 7SM BKN060 26/19 A2977 770 66 2300 210/09 RMK AO2
14840KMKG MKG20030703203509507/03/03 20:35:31  5-MIN KMKG 040135Z 21008KT 7SM BKN060 26/19 A2977 770 66 2300 210/08 RMK AO2
14840KMKG MKG20030703204009807/03/03 20:40:31  5-MIN KMKG 040140Z 21008KT 6SM HZ BKN060 26/19 A2977 770 68 2200 210/08 RMK AO2
14840KMKG MKG20030703204509807/03/03 20:45:31  5-MIN KMKG 040145Z 21007KT 6SM HZ BKN065 26/19 A2977 770 68 2200 210/07 RMK AO2
14840KMKG MKG20030703205011207/03/03 20:50:31  5-MIN KMKG 040150Z 20008KT 7SM OVC065 26/19 A2977 770 68 2200 210/08 RMK AO2 SLP078 T02560194
14840KMKG MKG20030703205511207/03/03 20:55:31  5-MIN KMKG 040155Z 21009KT 9SM OVC070 26/19 A2977 770 68 2200 210/09 RMK AO2 SLP078 T02560194
14840KMKG MKG20030703210009507/03/03 21:00:31  5-MIN KMKG 040200Z 20009KT 9SM OVC070 26/19 A2977 770 68 2200 210/09 RMK AO2
14840KMKG MKG20030703210509507/03/03 21:05:31  5-MIN KMKG 040205Z 20008KT 9SM OVC070 25/19 A2977 770 71 2100 210/08 RMK AO2
14840KMKG MKG20030703211009507/03/03 21:10:31  5-MIN KMKG 040210Z 20006KT 9SM OVC070 25/19 A2978 760 71 2100 210/06 RMK AO2
14840KMKG MKG20030703211509507/03/03 21:15:31  5-MIN KMKG 040215Z 21007KT 9SM BKN070 25/19 A2978 760 71 2100 210/07 RMK AO2
14840KMKG MKG20030703212009507/03/03 21:20:31  5-MIN KMKG 040220Z 20006KT 9SM BKN070 25/19 A2978 760 71 2100 210/06 RMK AO2
14840KMKG MKG20030703212509507/03/03 21:25:31  5-MIN KMKG 040225Z 19005KT 9SM BKN070 26/19 A2978 760 68 2200 200/05 RMK AO2
14840KMKG MKG20030703213009507/03/03 21:30:31  5-MIN KMKG 040230Z 18004KT 9SM OVC070 26/19 A2978 760 68 2200 190/04 RMK AO2
14840KMKG MKG20030703213509507/03/03 21:35:31  5-MIN KMKG 040235Z 19003KT 9SM OVC070 26/19 A2978 760 68 2200 200/03 RMK AO2
14840KMKG MKG20030703214010307/03/03 21:40:31  5-MIN KMKG 040240Z 19003KT 10SM BKN065 OVC080 26/19 A2978 760 68 2200 190/03 RMK AO2
14840KMKG MKG20030703214510307/03/03 21:45:31  5-MIN KMKG 040245Z 17003KT 10SM BKN060 OVC080 26/19 A2978 760 68 2200 180/03 RMK AO2
14840KMKG MKG20030703215012607/03/03 21:50:31  5-MIN KMKG 040250Z 17004KT 10SM BKN060 OVC080 26/19 A2978 760 68 2200 170/04 RMK AO2 SLP081 T02560194 58005
14840KMKG MKG20030703215511907/03/03 21:55:31  5-MIN KMKG 040255Z 18004KT 10SM BKN060 26/19 A2978 760 68 2200 180/04 RMK AO2 SLP081 T02560194 53003
14840KMKG MKG20030703220010307/03/03 22:00:31  5-MIN KMKG 040300Z 19004KT 10SM BKN060 BKN085 26/19 A2978 760 68 2200 200/04 RMK AO2
14840KMKG MKG20030703220510307/03/03 22:05:31  5-MIN KMKG 040305Z 20005KT 10SM BKN060 BKN080 26/19 A2978 760 68 2200 210/05 RMK AO2
14840KMKG MKG20030703221012007/03/03 22:10:31  5-MIN KMKG 040310Z 20006KT 10SM SCT060 BKN080 26/19 A2978 760 66 2300 210/06 RMK AO2 VIS 2 1/2 RWY 14
14840KMKG MKG20030709125013407/09/03 12:50:31  5-MIN KMKG 091750Z 05008G14KT 10SM CLR 25/13 A3001 540 46 1900 060/08G14 RMK AO2 SLP160 T02500128 10256 20172 50003
14840KMKG MKG20030709125514707/09/03 12:55:31  5-MIN KMKG 091755Z 04007KT 020V080 10SM FEW090 25/12 A3001 550 44 1900 050/07 020V080 RMK AO2 SLP158 T02500122 10256 20172 58009
14840KMKG MKG20030709130009907/09/03 13:00:31  5-MIN KMKG 091800Z 05009G14KT 10SM CLR 26/12 A3001 550 43 1900 050/09G14 RMK AO2
14840KMKG MKG20030709130511507/09/03 13:05:31  5-MIN KMKG 091805Z 04009G14KT 350V070 10SM CLR 26/12 A3000 560 41 1900 040/09G14 350V070 RMK AO2
14840KMKG MKG20030709131009907/09/03 13:10:31  5-MIN KMKG 091810Z 04010G14KT 10SM CLR 26/12 A3000 560 41 1900 040/10G14 RMK AO2
14840KMKG MKG20030709131509307/09/03 13:15:31  5-MIN KMKG 091815Z 05008KT 10SM CLR 26/12 A3000 560 41 1900 050/08 RMK AO2
14840KMKG MKG20030709132009307/09/03 13:20:31  5-MIN KMKG 091820Z 07010KT 10SM CLR 26/12 A3000 560 41 1900 070/10 RMK AO2
14840KMKG MKG20030709132509307/09/03 13:25:31  5-MIN KMKG 091825Z 04010KT 10SM CLR 26/12 A3000 560 40 2000 050/10 RMK AO2
14840KMKG MKG20030709133009907/09/03 13:30:31  5-MIN KMKG 091830Z 05009G16KT 10SM CLR 26/12 A2999 560 41 2000 050/09G16 RMK AO2
14840KMKG MKG20030709133509907/09/03 13:35:31  5-MIN KMKG 091835Z VRB05G16KT 10SM CLR 26/12 A3000 560 41 1900 VRB/05G16 RMK AO2
14840KMKG MKG20030709134009307/09/03 13:40:31  5-MIN KMKG 091840Z 02007KT 10SM CLR 26/12 A3000 550 41 1900 020/07 RMK AO2
14840KMKG MKG20030709134509307/09/03 13:45:31  5-MIN KMKG 091845Z 03006KT 10SM CLR 26/12 A3000 560 41 2000 040/06 RMK AO2
14840KMKG MKG20030709135011007/09/03 13:50:31  5-MIN KMKG 091850Z 04006KT 10SM CLR 26/12 A2999 560 41 2000 040/06 RMK AO2 SLP153 T02610122
14840KMKG MKG20030709135511007/09/03 13:55:31  5-MIN KMKG 091855Z 10006KT 10SM CLR 26/12 A3000 560 40 2000 110/06 RMK AO2 SLP154 T02610117
14840KMKG MKG20030709140009307/09/03 14:00:31  5-MIN KMKG 091900Z 09008KT 10SM CLR 26/12 A3000 560 41 1900 090/08 RMK AO2
14840KMKG MKG20030709140509307/09/03 14:05:31  5-MIN KMKG 091905Z 13007KT 10SM CLR 26/12 A3001 550 41 1900 140/07 RMK AO2
14840KMKG MKG20030709141009307/09/03 14:10:31  5-MIN KMKG 091910Z VRB03KT 10SM CLR 25/11 A3001 550 41 1900 VRB/03 RMK AO2
14840KMKG MKG20030709141509307/09/03 14:15:31  5-MIN KMKG 091915Z 18004KT 10SM CLR 25/11 A3002 540 41 1900 190/04 RMK AO2
14840KMKG MKG20030709142009307/09/03 14:20:31  5-MIN KMKG 091920Z 18005KT 10SM CLR 26/12 A3002 540 41 1900 190/05 RMK AO2
14840KMKG MKG20030709142509307/09/03 14:25:31  5-MIN KMKG 091925Z 00000KT 10SM CLR 25/11 A3001 540 41 1900 000/00 RMK AO2
14840KMKG MKG20030709143009307/09/03 14:30:31  5-MIN KMKG 091930Z 17008KT 10SM CLR 26/12 A3001 550 41 1900 170/08 RMK AO2
14840KMKG MKG20030709143509307/09/03 14:35:31  5-MIN KMKG 091935Z 18006KT 10SM CLR 26/11 A3000 550 40 1900 190/06 RMK AO2
14840KMKG MKG20030709144009307/09/03 14:40:31  5-MIN KMKG 091940Z VRB03KT 10SM CLR 26/11 A3000 560 40 1900 VRB/03 RMK AO2
14840KMKG MKG20030709144509307/09/03 14:45:31  5-MIN KMKG 091945Z VRB05KT 10SM CLR 26/12 A2999 560 41 2000 VRB/05 RMK AO2
14840KMKG MKG20030709145011007/09/03 14:50:31  5-MIN KMKG 091950Z VRB04KT 10SM CLR 26/11 A2999 560 40 2000 VRB/04 RMK AO2 SLP154 T02560111
14840KMKG MKG20030709145511007/09/03 14:55:31  5-MIN KMKG 091955Z VRB03KT 10SM CLR 26/12 A2999 570 41 2000 VRB/03 RMK AO2 SLP152 T02560117
14840KMKG MKG20030709150010007/09/03 15:00:31  5-MIN KMKG 092000Z VRB04KT 10SM CLR 26/13 A2998 580 44 2000 VRB/04 RMK AO2 PRESFR
14840KMKG MKG20030709150509307/09/03 15:05:31  5-MIN KMKG 092005Z 00000KT 10SM CLR 24/16 A2997 580 59 1800 000/00 RMK AO2
14840KMKG MKG20030709151009307/09/03 15:10:31  5-MIN KMKG 092010Z VRB03KT 10SM CLR 24/16 A2997 580 59 1800 VRB/03 RMK AO2
14840KMKG MKG20030709151509307/09/03 15:15:31  5-MIN KMKG 092015Z 00000KT 10SM CLR 24/16 A2997 590 59 1800 000/00 RMK AO2
14840KMKG MKG20030709152009307/09/03 15:20:31  5-MIN KMKG 092020Z VRB06KT 10SM CLR 26/14 A2996 590 49 2000 VRB/06 RMK AO2
14840KMKG MKG20030709152509307/09/03 15:25:31  5-MIN KMKG 092025Z 10009KT 10SM CLR 26/12 A2995 600 41 2100 110/09 RMK AO2
14840KMKG MKG20030709153010007/09/03 15:30:31  5-MIN KMKG 092030Z 09010KT 10SM CLR 27/12 A2994 610 40 2100 100/10 RMK AO2 PRESFR
14840KMKG MKG20030709153509307/09/03 15:35:31  5-MIN KMKG 092035Z 09013KT 10SM CLR 27/12 A2994 610 40 2100 100/13 RMK AO2
14840KMKG MKG20030709154009307/09/03 15:40:31  5-MIN KMKG 092040Z 09012KT 10SM CLR 27/12 A2994 620 40 2100 100/12 RMK AO2
14840KMKG MKG20030709154509307/09/03 15:45:31  5-MIN KMKG 092045Z 09011KT 10SM CLR 26/12 A2993 620 41 2000 090/11 RMK AO2
14840KMKG MKG20030709155011907/09/03 15:50:31  5-MIN KMKG 092050Z 08011KT 10SM FEW090 26/12 A2993 630 41 2000 080/11 RMK AO2 SLP131 T02560117 58009
14840KMKG MKG20030709155511907/09/03 15:55:31  5-MIN KMKG 092055Z 08014KT 10SM FEW090 26/12 A2992 630 41 2100 090/14 RMK AO2 SLP130 T02610122 58029
14840KMKG MKG20030709160010007/09/03 16:00:31  5-MIN KMKG 092100Z 08014KT 10SM CLR 26/12 A2991 640 41 2000 080/14 RMK AO2 PRESFR
14840KMKG MKG20030709160510307/09/03 16:05:31  5-MIN KMKG 092105Z 09013KT 10SM SCT090 25/12 A2991 640 43 2000 090/13 RMK AO2 PRESFR
14840KMKG MKG20030709161010307/09/03 16:10:31  5-MIN KMKG 092110Z 08014KT 10SM SCT090 25/12 A2990 650 43 2000 090/14 RMK AO2 PRESFR
14840KMKG MKG20030709161510307/09/03 16:15:31  5-MIN KMKG 092115Z 08016KT 10SM SCT090 25/12 A2988 670 43 2000 090/16 RMK AO2 PRESFR
14840KMKG MKG20030709162009607/09/03 16:20:31  5-MIN KMKG 092120Z 08017KT 10SM SCT090 25/11 A2988 670 41 2000 090/17 RMK AO2
14840KMKG MKG20030709162509607/09/03 16:25:31  5-MIN KMKG 092125Z 09015KT 10SM SCT090 25/11 A2988 670 41 2000 090/15 RMK AO2
14840KMKG MKG20030709163010207/09/03 16:30:31  5-MIN KMKG 092130Z 11010G20KT 10SM SCT090 25/12 A2989 660 43 2000 110/10G20 RMK AO2
14840KMKG MKG20030709163510907/09/03 16:35:31  5-MIN KMKG 092135Z 13010G16KT 10SM SCT090 25/12 A2991 640 43 2000 140/10G16 RMK AO2 PRESRR
14840KMKG MKG20030709164010307/09/03 16:40:31  5-MIN KMKG 092140Z 12008KT 10SM SCT090 25/12 A2992 630 43 2000 120/08 RMK AO2 PRESRR
14840KMKG MKG20030709164510307/09/03 16:45:31  5-MIN KMKG 092145Z 14007KT 10SM SCT090 25/12 A2992 630 43 2000 150/07 RMK AO2 PRESRR
14840KMKG MKG20030709165011307/09/03 16:50:31  5-MIN KMKG 092150Z 12007KT 10SM SCT090 25/12 A2992 630 43 2000 130/07 RMK AO2 SLP130 T02500117
14840KMKG MKG20030709165511307/09/03 16:55:31  5-MIN KMKG 092155Z 09007KT 10SM SCT090 25/12 A2992 630 43 2000 090/07 RMK AO2 SLP130 T02500117
14840KMKG MKG20030709170010307/09/03 17:00:31  5-MIN KMKG 092200Z 10005KT 10SM FEW060 BKN090 25/12 A2993 620 44 2000 100/05 RMK AO2
14840KMKG MKG20030709170510307/09/03 17:05:31  5-MIN KMKG 092205Z 09005KT 10SM FEW060 BKN090 25/12 A2993 620 44 2000 100/05 RMK AO2
14840KMKG MKG20030709171010307/09/03 17:10:31  5-MIN KMKG 092210Z 09007KT 10SM FEW060 BKN090 25/12 A2993 620 44 2000 090/07 RMK AO2
14840KMKG MKG20030709171510307/09/03 17:15:31  5-MIN KMKG 092215Z 09006KT 10SM FEW060 BKN090 24/12 A2993 620 46 1900 090/06 RMK AO2
14840KMKG MKG20030709172010307/09/03 17:20:31  5-MIN KMKG 092220Z 10006KT 10SM FEW060 BKN090 24/12 A2993 620 46 1900 100/06 RMK AO2
14840KMKG MKG20030709172510307/09/03 17:25:31  5-MIN KMKG 092225Z 07006KT 10SM FEW060 BKN090 24/12 A2993 620 46 1900 080/06 RMK AO2
14840KMKG MKG20030709173010307/09/03 17:30:31  5-MIN KMKG 092230Z 10004KT 10SM FEW060 BKN090 24/12 A2994 620 46 1900 100/04 RMK AO2
14840KMKG MKG20030709173510307/09/03 17:35:31  5-MIN KMKG 092235Z 08004KT 10SM FEW060 BKN090 25/12 A2994 610 44 2000 080/04 RMK AO2
14840KMKG MKG20030709174010307/09/03 17:40:31  5-MIN KMKG 092240Z 10006KT 10SM FEW060 BKN090 25/12 A2994 610 44 2000 110/06 RMK AO2
14840KMKG MKG20030709174510307/09/03 17:45:31  5-MIN KMKG 092245Z 09004KT 10SM FEW060 BKN090 25/12 A2994 610 44 1900 100/04 RMK AO2
14840KMKG MKG20030709175012007/09/03 17:50:31  5-MIN KMKG 092250Z 09004KT 10SM FEW060 BKN090 25/12 A2994 610 44 1900 090/04 RMK AO2 SLP137 T02500122
14840KMKG MKG20030709175512007/09/03 17:55:31  5-MIN KMKG 092255Z 11004KT 10SM FEW060 BKN090 25/12 A2995 610 44 1900 110/04 RMK AO2 SLP138 T02500122
14840KMKG MKG20030709180009607/09/03 18:00:31  5-MIN KMKG 092300Z 10005KT 10SM BKN080 25/13 A2995 610 46 1900 100/05 RMK AO2
14840KMKG MKG20030709180509607/09/03 18:05:31  5-MIN KMKG 092305Z 08006KT 10SM BKN080 24/12 A2994 610 46 1900 090/06 RMK AO2
14840KMKG MKG20030709181009607/09/03 18:10:31  5-MIN KMKG 092310Z 09005KT 10SM OVC080 24/13 A2994 610 47 1900 090/05 RMK AO2
14840KMKG MKG20030709181509607/09/03 18:15:31  5-MIN KMKG 092315Z 11004KT 10SM OVC080 24/13 A2995 600 47 1900 120/04 RMK AO2
14840KMKG MKG20030709182009607/09/03 18:20:31  5-MIN KMKG 092320Z 13005KT 10SM OVC080 24/13 A2995 600 47 1900 130/05 RMK AO2
14840KMKG MKG20030709182509607/09/03 18:25:31  5-MIN KMKG 092325Z 13007KT 10SM OVC080 24/13 A2995 600 47 1900 130/07 RMK AO2
14840KMKG MKG20030709183009607/09/03 18:30:31  5-MIN KMKG 092330Z 13006KT 10SM OVC080 24/13 A2996 600 47 1900 140/06 RMK AO2
14840KMKG MKG20030709183509607/09/03 18:35:31  5-MIN KMKG 092335Z 10006KT 10SM OVC080 24/13 A2995 600 47 1900 110/06 RMK AO2
14840KMKG MKG20030709184009607/09/03 18:40:31  5-MIN KMKG 092340Z 11007KT 10SM OVC085 24/12 A2995 600 46 1900 110/07 RMK AO2
14840KMKG MKG20030709184509607/09/03 18:45:31  5-MIN KMKG 092345Z 11005KT 10SM OVC085 24/13 A2995 600 47 1900 110/05 RMK AO2
14840KMKG MKG20030709185013107/09/03 18:50:31  5-MIN KMKG 092350Z 10004KT 10SM OVC085 24/13 A2995 600 47 1900 110/04 RMK AO2 SLP141 T02440128 10267 20239 58029
14840KMKG MKG20030709185513107/09/03 18:55:31  5-MIN KMKG 092355Z 09005KT 10SM OVC085 24/13 A2995 600 49 1800 100/05 RMK AO2 SLP140 T02390128 10267 20239 53010
14840KMKG MKG20030709190009607/09/03 19:00:31  5-MIN KMKG 100000Z 10005KT 10SM OVC085 24/13 A2995 600 49 1800 100/05 RMK AO2
14840KMKG MKG20030709190509607/09/03 19:05:31  5-MIN KMKG 100005Z 09005KT 10SM OVC085 24/13 A2994 610 49 1800 100/05 RMK AO2
14840KMKG MKG20030709191009607/09/03 19:10:31  5-MIN KMKG 100010Z 09006KT 10SM OVC085 24/13 A2994 610 49 1800 100/06 RMK AO2
14840KMKG MKG20030709191509607/09/03 19:15:31  5-MIN KMKG 100015Z 08006KT 10SM OVC080 24/13 A2993 620 51 1800 080/06 RMK AO2
14840KMKG MKG20030709192009607/09/03 19:20:31  5-MIN KMKG 100020Z 07007KT 10SM OVC080 24/13 A2993 620 51 1800 070/07 RMK AO2
14840KMKG MKG20030709192509607/09/03 19:25:31  5-MIN KMKG 100025Z 08006KT 10SM OVC080 24/13 A2993 620 51 1800 080/06 RMK AO2
14840KMKG MKG20030709193009607/09/03 19:30:31  5-MIN KMKG 100030Z 08006KT 10SM OVC080 24/13 A2993 620 51 1800 080/06 RMK AO2
14840KMKG MKG20030709193509607/09/03 19:35:31  5-MIN KMKG 100035Z 07007KT 10SM OVC080 24/13 A2993 620 49 1800 080/07 RMK AO2
14840KMKG MKG20030709194009607/09/03 19:40:31  5-MIN KMKG 100040Z 06005KT 10SM OVC080 23/13 A2993 620 53 1800 070/05 RMK AO2
14840KMKG MKG20030709194509607/09/03 19:45:31  5-MIN KMKG 100045Z 07006KT 10SM OVC080 23/13 A2993 620 53 1800 080/06 RMK AO2
14840KMKG MKG20030709195011307/09/03 19:50:31  5-MIN KMKG 100050Z 08005KT 10SM OVC075 23/13 A2993 620 53 1800 080/05 RMK AO2 SLP132 T02330133
14840KMKG MKG20030709195511307/09/03 19:55:31  5-MIN KMKG 100055Z 08007KT 10SM OVC080 23/13 A2992 630 53 1800 080/07 RMK AO2 SLP131 T02330133
14840KMKG MKG20030709200009607/09/03 20:00:31  5-MIN KMKG 100100Z 09007KT 10SM OVC080 23/13 A2992 630 51 1800 090/07 RMK AO2
14840KMKG MKG20030709200509607/09/03 20:05:31  5-MIN KMKG 100105Z 09007KT 10SM OVC075 23/13 A2992 630 51 1800 090/07 RMK AO2
14840KMKG MKG20030709201009607/09/03 20:10:31  5-MIN KMKG 100110Z 09007KT 10SM OVC075 23/13 A2992 630 51 1800 090/07 RMK AO2
14840KMKG MKG20030709201509607/09/03 20:15:31  5-MIN KMKG 100115Z 09007KT 10SM OVC070 23/13 A2992 630 51 1800 090/07 RMK AO2
14840KMKG MKG20030709202009607/09/03 20:20:31  5-MIN KMKG 100120Z 09008KT 10SM OVC070 23/13 A2992 640 51 1800 090/08 RMK AO2
14840KMKG MKG20030709202509607/09/03 20:25:31  5-MIN KMKG 100125Z 09008KT 10SM OVC070 23/13 A2991 640 51 1800 090/08 RMK AO2
14840KMKG MKG20030709203009607/09/03 20:30:31  5-MIN KMKG 100130Z 09008KT 10SM OVC070 23/12 A2991 640 49 1800 090/08 RMK AO2
14840KMKG MKG20030709203509607/09/03 20:35:31  5-MIN KMKG 100135Z 09009KT 10SM OVC070 23/12 A2991 640 49 1800 090/09 RMK AO2
14840KMKG MKG20030709204009607/09/03 20:40:31  5-MIN KMKG 100140Z 09007KT 10SM OVC070 23/13 A2991 640 53 1700 090/07 RMK AO2
14840KMKG MKG20030709204509607/09/03 20:45:31  5-MIN KMKG 100145Z 09008KT 10SM OVC070 23/12 A2991 640 51 1700 090/08 RMK AO2
14840KMKG MKG20030709205011307/09/03 20:50:31  5-MIN KMKG 100150Z 09008KT 10SM OVC070 23/12 A2990 650 51 1700 090/08 RMK AO2 SLP123 T02280122
14840KMKG MKG20030709205511307/09/03 20:55:31  5-MIN KMKG 100155Z 09008KT 10SM OVC065 23/12 A2990 650 51 1700 090/08 RMK AO2 SLP121 T02280122
14840KMKG MKG20030709210009607/09/03 21:00:31  5-MIN KMKG 100200Z 09009KT 10SM OVC060 23/12 A2990 650 51 1700 100/09 RMK AO2
14840KMKG MKG20030709210511007/09/03 21:05:31  5-MIN KMKG 100205Z 10008KT 10SM FEW049 BKN060 OVC070 23/12 A2990 650 51 1700 100/08 RMK AO2
14840KMKG MKG20030709211010307/09/03 21:10:31  5-MIN KMKG 100210Z 09010KT 10SM FEW049 OVC060 23/13 A2990 650 53 1700 090/10 RMK AO2
14840KMKG MKG20030709211510307/09/03 21:15:31  5-MIN KMKG 100215Z 09012KT 10SM BKN055 OVC070 23/13 A2990 650 53 1700 090/12 RMK AO2
14840KMKG MKG20030709212009607/09/03 21:20:31  5-MIN KMKG 100220Z 09010KT 10SM OVC055 22/13 A2990 650 54 1700 100/10 RMK AO2
14840KMKG MKG20030709212510307/09/03 21:25:31  5-MIN KMKG 100225Z 09012KT 10SM BKN055 OVC075 22/13 A2990 650 56 1700 090/12 RMK AO2
14840KMKG MKG20030709213010307/09/03 21:30:31  5-MIN KMKG 100230Z 09012KT 10SM SCT049 OVC070 22/13 A2990 650 56 1700 100/12 RMK AO2
14840KMKG MKG20030709213510307/09/03 21:35:31  5-MIN KMKG 100235Z 10013KT 10SM BKN065 OVC075 22/13 A2990 650 56 1700 100/13 RMK AO2
14840KMKG MKG20030709214010307/09/03 21:40:31  5-MIN KMKG 100240Z 09012KT 10SM SCT060 OVC075 22/13 A2990 650 56 1700 090/12 RMK AO2
14840KMKG MKG20030709214510307/09/03 21:45:31  5-MIN KMKG 100245Z 09011KT 10SM SCT060 OVC075 22/13 A2990 650 58 1600 100/11 RMK AO2
14840KMKG MKG20030709215012607/09/03 21:50:31  5-MIN KMKG 100250Z 09009KT 10SM BKN070 BKN100 22/13 A2989 660 58 1600 100/09 RMK AO2 SLP119 T02170133 53010
14840KMKG MKG20030709215512607/09/03 21:55:31  5-MIN KMKG 100255Z 10009KT 10SM BKN070 BKN100 22/13 A2989 660 58 1600 100/09 RMK AO2 SLP118 T02170133 56020
14840KMKG MKG20030709220011007/09/03 22:00:31  5-MIN KMKG 100300Z 09011KT 10SM FEW055 SCT075 BKN100 22/13 A2990 650 58 1600 100/11 RMK AO2
14840KMKG MKG20030709220511007/09/03 22:05:31  5-MIN KMKG 100305Z 09009KT 10SM SCT055 BKN075 BKN100 22/13 A2990 650 58 1600 100/09 RMK AO2
14840KMKG MKG20030709221011007/09/03 22:10:31  5-MIN KMKG 100310Z 09008KT 10SM BKN055 BKN075 BKN100 22/13 A2990 650 58 1600 090/08 RMK AO2
14840KMKG MKG20030709221511007/09/03 22:15:31  5-MIN KMKG 100315Z 09009KT 10SM FEW045 BKN060 BKN100 21/13 A2990 650 61 1600 090/09 RMK AO2
14840KMKG MKG20030709222010307/09/03 22:20:31  5-MIN KMKG 100320Z 10011KT 10SM FEW045 BKN055 21/13 A2990 650 61 1600 100/11 RMK AO2
14840KMKG MKG20030709222510307/09/03 22:25:31  5-MIN KMKG 100325Z 10009KT 10SM SCT047 OVC060 21/13 A2990 650 61 1600 100/09 RMK AO2
14840KMKG MKG20030709223010307/09/03 22:30:31  5-MIN KMKG 100330Z 09008KT 10SM BKN050 OVC060 21/13 A2989 660 61 1600 090/08 RMK AO2
14840KMKG MKG20030709223511007/09/03 22:35:31  5-MIN KMKG 100335Z 09009KT 10SM FEW045 BKN055 OVC100 21/13 A2989 660 61 1600 090/09 RMK AO2
14840KMKG MKG20030709224011007/09/03 22:40:31  5-MIN KMKG 100340Z 10009KT 10SM FEW045 BKN055 OVC100 21/13 A2989 660 61 1600 100/09 RMK AO2
14840KMKG MKG20030709224510307/09/03 22:45:31  5-MIN KMKG 100345Z 10009KT 10SM FEW045 OVC055 21/13 A2989 660 61 1600 100/09 RMK AO2
14840KMKG MKG20030709225011307/09/03 22:50:31  5-MIN KMKG 100350Z 10008KT 10SM OVC055 21/14 A2989 660 63 1600 100/08 RMK AO2 SLP117 T02110139
14840KMKG MKG20030709225511307/09/03 22:55:31  5-MIN KMKG 100355Z 09010KT 10SM OVC055 21/14 A2988 660 63 1600 090/10 RMK AO2 SLP116 T02110139
14840KMKG MKG20030709230009607/09/03 23:00:31  5-MIN KMKG 100400Z 10011KT 10SM OVC055 21/14 A2988 670 63 1600 100/11 RMK AO2
14840KMKG MKG20030709230509607/09/03 23:05:31  5-MIN KMKG 100405Z 10010KT 10SM OVC055 21/14 A2988 670 67 1500 100/10 RMK AO2
14840KMKG MKG20030709231009607/09/03 23:10:31  5-MIN KMKG 100410Z 10009KT 10SM OVC060 21/14 A2988 660 67 1500 100/09 RMK AO2
14840KMKG MKG20030709231509607/09/03 23:15:31  5-MIN KMKG 100415Z 10008KT 10SM OVC055 21/14 A2988 670 67 1500 100/08 RMK AO2
14840KMKG MKG20030709232009607/09/03 23:20:31  5-MIN KMKG 100420Z 10009KT 10SM OVC055 21/14 A2988 670 67 1500 110/09 RMK AO2
14840KMKG MKG20030709232510307/09/03 23:25:31  5-MIN KMKG 100425Z 10009KT 10SM FEW046 OVC055 21/14 A2988 660 67 1500 110/09 RMK AO2
14840KMKG MKG20030709233010307/09/03 23:30:31  5-MIN KMKG 100430Z 10007KT 10SM FEW036 OVC055 21/15 A2989 660 70 1500 110/07 RMK AO2
14840KMKG MKG20030709233511007/09/03 23:35:31  5-MIN KMKG 100435Z 10009KT 10SM FEW036 SCT046 OVC055 21/15 A2989 660 70 1500 100/09 RMK AO2
14840KMKG MKG20030709234011007/09/03 23:40:31  5-MIN KMKG 100440Z 10009KT 10SM SCT036 BKN046 OVC055 21/15 A2989 660 70 1500 110/09 RMK AO2
14840KMKG MKG20030709234511007/09/03 23:45:31  5-MIN KMKG 100445Z 10009KT 10SM SCT038 BKN046 OVC055 21/15 A2989 660 70 1500 100/09 RMK AO2
14840KMKG MKG20030709235013707/09/03 23:50:31  5-MIN KMKG 100450Z 10009KT 10SM SCT038 BKN046 OVC055 21/15 A2988 670 70 1500 100/09 RMK AO2 SLP115 T02060150 402670150
14840KMKG MKG20030709235515207/09/03 23:55:31  5-MIN KMKG 100455Z 10009KT 10SM SCT038 BKN046 OVC055 21/15 A2988 670 70 1500 110/09 RMK AO2 CIG 039 RWY 14 SLP114 T02060150 402670150
14840KMKG MKG20030710000010307/10/03 00:00:31  5-MIN KMKG 100500Z 10008KT 10SM BKN041 OVC048 21/16 A2988 670 73 1500 100/08 RMK AO2
14840KMKG MKG20030710000510307/10/03 00:05:31  5-MIN KMKG 100505Z 10009KT 10SM BKN038 OVC048 21/16 A2987 670 73 1500 110/09 RMK AO2
14840KMKG MKG20030710001010307/10/03 00:10:31  5-MIN KMKG 100510Z 10010KT 10SM BKN038 OVC048 21/16 A2987 680 73 1500 100/10 RMK AO2
14840KMKG MKG20030710001511007/10/03 00:15:31  5-MIN KMKG 100515Z 10009KT 10SM SCT040 BKN048 OVC060 21/16 A2987 680 73 1500 100/09 RMK AO2
14840KMKG MKG20030710002011007/10/03 00:20:31  5-MIN KMKG 100520Z 10010KT 10SM SCT038 BKN048 OVC070 21/16 A2987 680 73 1500 100/10 RMK AO2
14840KMKG MKG20030710002511007/10/03 00:25:31  5-MIN KMKG 100525Z 10010KT 10SM FEW038 BKN060 OVC070 21/16 A2987 680 73 1500 110/10 RMK AO2
14840KMKG MKG20030710003011007/10/03 00:30:31  5-MIN KMKG 100530Z 10009KT 10SM FEW038 SCT060 OVC070 20/16 A2987 680 75 1500 100/09 RMK AO2
14840KMKG MKG20030710003511007/10/03 00:35:31  5-MIN KMKG 100535Z 10011KT 10SM FEW043 SCT060 OVC075 20/16 A2987 680 75 1500 100/11 RMK AO2
14840KMKG MKG20030710004010307/10/03 00:40:31  5-MIN KMKG 100540Z 10010KT 10SM FEW055 BKN075 20/16 A2987 680 75 1500 110/10 RMK AO2
14840KMKG MKG20030710004509607/10/03 00:45:31  5-MIN KMKG 100545Z 11009KT 10SM BKN075 20/16 A2987 680 75 1500 110/09 RMK AO2
14840KMKG MKG20030710005013107/10/03 00:50:31  5-MIN KMKG 100550Z 10010KT 10SM SCT070 20/16 A2986 680 75 1500 110/10 RMK AO2 SLP109 T02000156 10239 20200 56020
14840KMKG MKG20030710005513107/10/03 00:55:31  5-MIN KMKG 100555Z 10009KT 10SM FEW075 20/16 A2986 690 75 1500 110/09 RMK AO2 SLP107 T02000156 10239 20200 58011
14840KMKG MKG20030710010009607/10/03 01:00:31  5-MIN KMKG 100600Z 11012KT 10SM FEW075 20/16 A2986 690 75 1500 110/12 RMK AO2
14840KMKG MKG20030710010509607/10/03 01:05:31  5-MIN KMKG 100605Z 11010KT 10SM FEW090 20/15 A2985 690 72 1500 120/10 RMK AO2
14840KMKG MKG20030710011010307/10/03 01:10:31  5-MIN KMKG 100610Z 11012KT 10SM FEW038 SCT090 20/16 A2985 700 75 1500 110/12 RMK AO2
14840KMKG MKG20030710011510307/10/03 01:15:31  5-MIN KMKG 100615Z 11010KT 10SM SCT038 BKN090 20/16 A2985 700 78 1500 110/10 RMK AO2
14840KMKG MKG20030710012010307/10/03 01:20:31  5-MIN KMKG 100620Z 11012KT 10SM SCT038 BKN090 20/17 A2984 700 81 1500 110/12 RMK AO2
14840KMKG MKG20030710012510307/10/03 01:25:31  5-MIN KMKG 100625Z 11011KT 10SM SCT038 BKN090 20/17 A2984 710 81 1500 110/11 RMK AO2
14840KMKG MKG20030710013010307/10/03 01:30:31  5-MIN KMKG 100630Z 10010KT 10SM SCT038 OVC085 20/15 A2983 710 72 1500 100/10 RMK AO2
14840KMKG MKG20030710013511007/10/03 01:35:31  5-MIN KMKG 100635Z 11010KT 10SM FEW030 SCT038 OVC085 20/15 A2983 710 72 1500 110/10 RMK AO2
14840KMKG MKG20030710014010307/10/03 01:40:31  5-MIN KMKG 100640Z 11011KT 10SM BKN035 OVC090 20/15 A2984 710 72 1500 110/11 RMK AO2
14840KMKG MKG20030710014510307/10/03 01:45:31  5-MIN KMKG 100645Z 11010KT 10SM BKN033 OVC090 20/16 A2983 710 75 1500 110/10 RMK AO2
14840KMKG MKG20030710015012707/10/03 01:50:31  5-MIN KMKG 100650Z 11010KT 10SM SCT027 BKN033 OVC085 20/16 A2983 710 75 1500 110/10 RMK AO2 SLP099 T02000156
14840KMKG MKG20030710015514207/10/03 01:55:31  5-MIN KMKG 100655Z 11010KT 10SM SCT027 BKN033 OVC085 20/16 A2983 710 75 1500 110/10 RMK AO2 CIG 027 RWY 14 SLP098 T02000156
14840KMKG MKG20030710020009607/10/03 02:00:31  5-MIN KMKG 100700Z 11011KT 10SM OVC031 20/16 A2983 710 75 1500 110/11 RMK AO2
14840KMKG MKG20030710020511807/10/03 02:05:31  5-MIN KMKG 100705Z 11008KT 10SM SCT026 OVC033 20/16 A2983 710 75 1500 120/08 RMK AO2 CIG 027 RWY 14
14840KMKG MKG20030710021014107/10/03 02:10:31  5-MIN KMKG 100710Z 12008KT 10SM -RA SCT022 BKN028 OVC034 20/16 A2983 710 75 1500 130/08 RMK AO2 RAB07 CIG 023 RWY 14 P0000
14840KMKG MKG20030710021512507/10/03 02:15:31  5-MIN KMKG 100715Z 12011KT 5SM +RA BKN022 BKN028 OVC034 19/16 A2983 720 81 1400 120/11 RMK AO2 RAB07 P0003
14840KMKG MKG20030710022012707/10/03 02:20:31  5-MIN KMKG 100720Z 11009KT 4SM RA BR BKN022 BKN029 OVC034 19/17 A2982 720 87 1400 110/09 RMK AO2 RAB07 P0004
14840KMKG MKG20030710022512807/10/03 02:25:31  5-MIN KMKG 100725Z 12009KT 6SM -RA BR BKN020 BKN025 OVC029 18/17 A2983 720 90 1300 120/09 RMK AO2 RAB07 P0005
14840KMKG MKG20030710023011807/10/03 02:30:31  5-MIN KMKG 100730Z 12008KT 8SM -RA BKN020 OVC026 18/17 A2982 720 90 1300 120/08 RMK AO2 RAB07 P0005
14840KMKG MKG20030710023511807/10/03 02:35:31  5-MIN KMKG 100735Z 10008KT 9SM -RA BKN020 OVC025 18/17 A2982 730 90 1300 110/08 RMK AO2 RAB07 P0005
14840KMKG MKG20030710024011907/10/03 02:40:31  5-MIN KMKG 100740Z 11008KT 10SM -RA BKN020 OVC025 18/17 A2981 730 93 1300 110/08 RMK AO2 RAB07 P0005
14840KMKG MKG20030710024511207/10/03 02:45:31  5-MIN KMKG 100745Z 09008KT 10SM -RA OVC020 18/17 A2981 730 93 1300 100/08 RMK AO2 RAB07 P0005
14840KMKG MKG20030710025012907/10/03 02:50:31  5-MIN KMKG 100750Z 10007KT 10SM -RA OVC020 18/17 A2981 730 96 1300 100/07 RMK AO2 RAB07 SLP091 P0005 T01780172
14840KMKG MKG20030710025512807/10/03 02:55:31  5-MIN KMKG 100755Z 09006KT 10SM OVC020 18/17 A2981 730 96 1300 100/06 RMK AO2 RAB07E52 SLP091 P0005 T01780172
14840KMKG MKG20030710030009607/10/03 03:00:31  5-MIN KMKG 100800Z 10007KT 10SM OVC020 18/17 A2981 730 96 1300 110/07 RMK AO2
14840KMKG MKG20030710030510307/10/03 03:05:31  5-MIN KMKG 100805Z 09005KT 10SM BKN020 OVC050 18/17 A2981 730 96 1300 100/05 RMK AO2
14840KMKG MKG20030710031011007/10/03 03:10:31  5-MIN KMKG 100810Z 10006KT 10SM BKN020 BKN050 OVC090 18/17 A2981 730 96 1300 100/06 RMK AO2
14840KMKG MKG20030710031511007/10/03 03:15:31  5-MIN KMKG 100815Z 10005KT 10SM BKN020 BKN047 OVC090 18/17 A2981 730 96 1300 100/05 RMK AO2
14840KMKG MKG20030710032011007/10/03 03:20:31  5-MIN KMKG 100820Z 10005KT 10SM BKN020 BKN049 OVC060 18/17 A2981 740 96 1300 100/05 RMK AO2
14840KMKG MKG20030710032511007/10/03 03:25:31  5-MIN KMKG 100825Z 12006KT 10SM BKN020 BKN049 OVC060 18/17 A2981 740 96 1300 120/06 RMK AO2
14840KMKG MKG20030710033011007/10/03 03:30:31  5-MIN KMKG 100830Z 12006KT 10SM BKN020 BKN060 OVC090 18/17 A2981 740 96 1300 120/06 RMK AO2
14840KMKG MKG20030710033510307/10/03 03:35:31  5-MIN KMKG 100835Z 11007KT 10SM BKN020 OVC060 18/17 A2980 740 96 1300 110/07 RMK AO2
14840KMKG MKG20030710034011807/10/03 03:40:31  5-MIN KMKG 100840Z 11006KT 10SM SCT022 OVC055 18/17 A2980 740 96 1300 120/06 RMK AO2 CIG 021 RWY 14
14840KMKG MKG20030710034511807/10/03 03:45:31  5-MIN KMKG 100845Z 12007KT 10SM SCT022 OVC055 18/17 A2979 750 96 1300 130/07 RMK AO2 CIG 023 RWY 14
14840KMKG MKG20030710035015407/10/03 03:50:31  5-MIN KMKG 100850Z 12007KT 10SM SCT022 BKN028 OVC060 18/17 A2979 750 96 1300 120/07 RMK AO2 CIG 023 RWY 14 SLP086 60005 T01780172 58011
14840KMKG MKG20030710035515407/10/03 03:55:31  5-MIN KMKG 100855Z 12007KT 10SM SCT022 BKN028 OVC055 18/17 A2979 750 96 1300 120/07 RMK AO2 CIG 023 RWY 14 SLP084 60005 T01780172 56023
14840KMKG MKG20030710040011007/10/03 04:00:31  5-MIN KMKG 100900Z 11006KT 10SM BKN022 BKN028 OVC055 18/17 A2979 750 96 1300 120/06 RMK AO2
14840KMKG MKG20030710040511007/10/03 04:05:31  5-MIN KMKG 100905Z 13007KT 10SM SCT018 BKN024 OVC055 18/17 A2979 750 96 1300 130/07 RMK AO2
14840KMKG MKG20030710041011007/10/03 04:10:31  5-MIN KMKG 100910Z VRB05KT 10SM SCT018 BKN023 OVC027 18/17 A2979 760 96 1300 VRB/05 RMK AO2
14840KMKG MKG20030710041510307/10/03 04:15:31  5-MIN KMKG 100915Z 13006KT 10SM BKN020 OVC026 18/17 A2978 760 96 1300 130/06 RMK AO2
14840KMKG MKG20030710042011807/10/03 04:20:31  5-MIN KMKG 100920Z 13007KT 10SM SCT020 OVC026 18/17 A2978 760 96 1300 130/07 RMK AO2 CIG 020 RWY 14
14840KMKG MKG20030710042509607/10/03 04:25:31  5-MIN KMKG 100925Z 13008KT 10SM OVC023 18/17 A2978 760 93 1400 130/08 RMK AO2
14840KMKG MKG20030710043010307/10/03 04:30:31  5-MIN KMKG 100930Z 14007KT 10SM FEW019 OVC025 18/17 A2978 760 96 1300 140/07 RMK AO2
14840KMKG MKG20030710043510307/10/03 04:35:31  5-MIN KMKG 100935Z 14007KT 10SM FEW019 OVC025 18/17 A2978 760 93 1400 140/07 RMK AO2
14840KMKG MKG20030710044010307/10/03 04:40:31  5-MIN KMKG 100940Z 13007KT 10SM FEW016 OVC025 18/17 A2978 760 93 1400 130/07 RMK AO2
14840KMKG MKG20030710044510307/10/03 04:45:31  5-MIN KMKG 100945Z 14006KT 10SM FEW016 OVC025 18/17 A2978 760 93 1400 150/06 RMK AO2
14840KMKG MKG20030710045012007/10/03 04:50:31  5-MIN KMKG 100950Z 12007KT 10SM FEW016 OVC025 18/17 A2978 760 93 1400 130/07 RMK AO2 SLP080 T01830172
14840KMKG MKG20030710045512707/10/03 04:55:31  5-MIN KMKG 100955Z 12007KT 10SM FEW016 BKN025 OVC031 18/17 A2977 770 93 1400 130/07 RMK AO2 SLP079 T01830172
14840KMKG MKG20030710050012507/10/03 05:00:31  5-MIN KMKG 101000Z 14006KT 9SM -RA FEW016 BKN025 OVC031 18/17 A2977 770 93 1400 140/06 RMK AO2 RAB00 P0000
14840KMKG MKG20030710050514307/10/03 05:05:31  5-MIN KMKG 101005Z 14006KT 6SM -RA BR SCT016 BKN023 OVC029 18/17 A2977 770 93 1400 140/06 RMK AO2 RAB00 CIG 017 RWY 14 P0001
14840KMKG MKG20030710051014307/10/03 05:10:31  5-MIN KMKG 101010Z 14003KT 5SM -RA BR SCT014 BKN023 OVC027 18/18 A2977 770 96 1400 150/03 RMK AO2 RAB00 CIG 015 RWY 14 P0001
14840KMKG MKG20030710051512907/10/03 05:15:31  5-MIN KMKG 101015Z 13004KT 3SM +RA BR BKN014 BKN023 OVC030 18/18 A2977 770 100 1300 140/04 RMK AO2 RAB00 P0004
14840KMKG MKG20030710052014207/10/03 05:20:31  5-MIN KMKG 101020Z 13004KT 3SM -RA BR SCT012 BKN017 OVC027 18/18 A2977 770 100 1300 130/04 RMK AO2 VIS 2 RWY 14 RAB00 P0004
14840KMKG MKG20030710052514607/10/03 05:25:31  5-MIN KMKG 101025Z 13004KT 3SM -RA BR SCT012 BKN017 OVC024 18/18 A2977 770 100 1300 130/04 RMK AO2 VIS 2 1/2 RWY 14 RAB00 P0005
14840KMKG MKG20030710053012207/10/03 05:30:31  5-MIN KMKG 101030Z 12005KT 3SM -RA BR BKN015 OVC024 18/18 A2977 770 100 1300 130/05 RMK AO2 RAB00 P0005
14840KMKG MKG20030710053512207/10/03 05:35:31  5-MIN KMKG 101035Z 12005KT 3SM -RA BR BKN014 OVC019 18/18 A2977 770 100 1300 130/05 RMK AO2 RAB00 P0006
14840KMKG MKG20030710054012507/10/03 05:40:31  5-MIN KMKG 101040Z 12005KT 2 1/2SM -RA BR BKN012 OVC017 18/18 A2977 770 96 1400 120/05 RMK AO2 RAB00 P0006
14840KMKG MKG20030710054513707/10/03 05:45:31  5-MIN KMKG 101045Z 12003KT 3SM -RA BR FEW009 OVC014 18/18 A2977 770 100 1400 120/03 RMK AO2 RAB00 CIG 010 RWY 14 P0006
14840KMKG MKG20030710055016007/10/03 05:50:31  5-MIN KMKG 101050Z 13003KT 4SM -RA BR FEW004 SCT009 OVC014 18/18 A2976 780 96 1400 130/03 RMK AO2 RAB00 CIG 005 RWY 14 SLP075 P0006 T01830178
14840KMKG MKG20030710055517007/10/03 05:55:31  5-MIN KMKG 101055Z 11004KT 2SM BR SCT004 BKN009 OVC014 18/18 A2976 780 100 1400 110/04 RMK AO2 SFC VIS 4 RAB00E51 CIG 005 RWY 14 SLP075 P0006 T01830183
14840KMKG MKG20030710060013507/10/03 06:00:31  5-MIN KMKG 101100Z 12005KT 2SM BR BKN004 BKN009 OVC014 18/18 A2976 780 100 1400 120/05 RMK AO2 SFC VIS 3 CIG 003V007
14840KMKG MKG20030710060512307/10/03 06:05:31  5-MIN KMKG 101105Z 11005KT 2SM BR BKN004 BKN009 OVC012 18/18 A2976 780 100 1400 110/05 RMK AO2 SFC VIS 3
14840KMKG MKG20030710061011807/10/03 06:10:31  5-MIN KMKG 101110Z 11005KT 3SM BR BKN006 OVC011 18/18 A2976 780 100 1400 110/05 RMK AO2 CIG 003V008
14840KMKG MKG20030710061511807/10/03 06:15:31  5-MIN KMKG 101115Z 11005KT 3SM BR BKN004 OVC009 18/18 A2976 780 100 1400 110/05 RMK AO2 CIG 003V007
14840KMKG MKG20030710062013807/10/03 06:20:31  5-MIN KMKG 101120Z 11005KT 3SM BR BKN004 BKN009 OVC012 18/18 A2976 780 100 1400 110/05 RMK AO2 VIS 2 RWY 14 CIG 003V007
14840KMKG MKG20030710062513807/10/03 06:25:31  5-MIN KMKG 101125Z 11005KT 3SM BR BKN004 BKN009 OVC012 18/18 A2976 780 100 1400 120/05 RMK AO2 VIS 2 RWY 14 CIG 003V007
14840KMKG MKG20030710063011207/10/03 06:30:31  5-MIN KMKG 101130Z 12006KT 2SM BR BKN004 BKN008 OVC012 19/18 A2976 780 97 1500 120/06 RMK AO2
14840KMKG MKG20030710063512007/10/03 06:35:31  5-MIN KMKG 101135Z 12004KT 2SM BR SCT004 OVC012 19/18 A2976 780 97 1500 130/04 RMK AO2 CIG 008 RWY 14
14840KMKG MKG20030710064010607/10/03 06:40:31  5-MIN KMKG 101140Z 13004KT 3SM BR SCT004 OVC012 19/19 A2976 780 100 1500 130/04 RMK AO2
14840KMKG MKG20030710064510607/10/03 06:45:31  5-MIN KMKG 101145Z 13004KT 3SM BR FEW004 OVC012 19/19 A2976 780 100 1500 130/04 RMK AO2
14840KMKG MKG20030710065015307/10/03 06:50:31  5-MIN KMKG 101150Z 14004KT 3SM BR FEW004 OVC014 19/19 A2976 780 100 1500 150/04 RMK AO2 SLP073 60011 70011 T01890189 10200 20178 56023
14840KMKG MKG20030710065514507/10/03 06:55:31  5-MIN KMKG 101155Z 16004KT 4SM BR OVC014 19/19 A2976 780 97 1500 160/04 RMK AO2 SLP073 60011 70011 T01940189 10200 20178 56011
14840KMKG MKG20030710070009807/10/03 07:00:31  5-MIN KMKG 101200Z 15005KT 4SM BR OVC014 19/19 A2976 780 97 1500 150/05 RMK AO2
14840KMKG MKG20030710070509807/10/03 07:05:31  5-MIN KMKG 101205Z 16005KT 4SM BR OVC014 19/19 A2976 780 97 1500 160/05 RMK AO2
14840KMKG MKG20030710071009907/10/03 07:10:31  5-MIN KMKG 101210Z 14006KT 4SM BR OVC014 19/19 A2976 780 100 1500 150/06 RMK AO2
14840KMKG MKG20030710071509907/10/03 07:15:31  5-MIN KMKG 101215Z 14005KT 4SM BR OVC014 19/19 A2975 780 100 1500 150/05 RMK AO2
14840KMKG MKG20030710072009907/10/03 07:20:31  5-MIN KMKG 101220Z 16005KT 4SM BR OVC014 19/19 A2975 780 100 1500 160/05 RMK AO2
14840KMKG MKG20030710072510607/10/03 07:25:31  5-MIN KMKG 101225Z 17005KT 4SM BR FEW009 OVC016 19/19 A2976 780 100 1500 170/05 RMK AO2
14840KMKG MKG20030710073010507/10/03 07:30:31  5-MIN KMKG 101230Z 15005KT 4SM BR FEW009 OVC016 20/19 A2975 790 97 1600 160/05 RMK AO2
14840KMKG MKG20030710073509807/10/03 07:35:31  5-MIN KMKG 101235Z 15004KT 4SM BR OVC016 20/19 A2975 790 97 1600 160/04 RMK AO2
14840KMKG MKG20030710074009907/10/03 07:40:31  5-MIN KMKG 101240Z 15005KT 4SM BR OVC016 20/20 A2975 790 100 1600 160/05 RMK AO2
14840KMKG MKG20030710074509907/10/03 07:45:31  5-MIN KMKG 101245Z 16005KT 4SM BR BKN016 20/20 A2975 790 100 1600 170/05 RMK AO2
14840KMKG MKG20030710075013007/10/03 07:50:31  5-MIN KMKG 101250Z 16005KT 4SM BR FEW009 BKN016 OVC028 20/20 A2975 790 100 1600 160/05 RMK AO2 SLP069 T02000200
14840KMKG MKG20030710075512907/10/03 07:55:31  5-MIN KMKG 101255Z 17006KT 4SM BR FEW009 BKN016 OVC028 21/20 A2974 790 97 1700 170/06 RMK AO2 SLP069 T02060200
14840KMKG MKG20030710080011207/10/03 08:00:31  5-MIN KMKG 101300Z 17006KT 5SM BR FEW009 SCT016 OVC028 21/20 A2974 790 97 1700 180/06 RMK AO2
14840KMKG MKG20030710080511307/10/03 08:05:31  5-MIN KMKG 101305Z 18010KT 6SM BR FEW009 SCT016 OVC028 21/21 A2974 800 100 1700 180/10 RMK AO2
14840KMKG MKG20030710081010207/10/03 08:10:31  5-MIN KMKG 101310Z 18009KT 8SM FEW009 OVC028 21/21 A2974 800 97 1700 180/09 RMK AO2
14840KMKG MKG20030710081510207/10/03 08:15:31  5-MIN KMKG 101315Z 18008KT 9SM FEW009 OVC028 21/21 A2974 800 97 1700 190/08 RMK AO2
14840KMKG MKG20030710082010207/10/03 08:20:31  5-MIN KMKG 101320Z 18009KT 9SM FEW009 OVC028 21/21 A2974 800 97 1700 180/09 RMK AO2
14840KMKG MKG20030710082510207/10/03 08:25:31  5-MIN KMKG 101325Z 18009KT 9SM FEW009 OVC026 21/21 A2974 800 97 1700 180/09 RMK AO2
14840KMKG MKG20030710083010307/10/03 08:30:31  5-MIN KMKG 101330Z 18010KT 10SM FEW009 OVC026 21/21 A2974 800 97 1700 190/10 RMK AO2
14840KMKG MKG20030710083510307/10/03 08:35:31  5-MIN KMKG 101335Z 19010KT 10SM FEW009 OVC026 21/20 A2974 800 93 1700 190/10 RMK AO2
14840KMKG MKG20030710084010307/10/03 08:40:31  5-MIN KMKG 101340Z 18011KT 10SM FEW009 OVC026 21/20 A2973 800 93 1700 190/11 RMK AO2
14840KMKG MKG20030710084510307/10/03 08:45:31  5-MIN KMKG 101345Z 18010KT 10SM FEW009 OVC026 21/20 A2973 810 93 1700 190/10 RMK AO2
14840KMKG MKG20030710085012807/10/03 08:50:31  5-MIN KMKG 101350Z 18010KT 8SM -RA OVC024 21/20 A2973 810 93 1700 190/10 RMK AO2 RAB48 SLP064 P0000 T02110200
14840KMKG MKG20030710085513807/10/03 08:55:31  5-MIN KMKG 101355Z 18010KT 5SM -RA BR FEW010 OVC024 21/20 A2973 810 97 1700 180/10 RMK AO2 RAB48 SLP064 P0001 T02060200
14840KMKG MKG20030710090011507/10/03 09:00:31  5-MIN KMKG 101400Z 18011KT 4SM -RA BR FEW010 OVC024 21/20 A2973 810 97 1700 180/11 RMK AO2 P0000
14840KMKG MKG20030710090512207/10/03 09:05:31  5-MIN KMKG 101405Z 18012KT 5SM -RA BR FEW011 BKN024 OVC029 21/20 A2973 810 97 1700 180/12 RMK AO2 P0000
14840KMKG MKG20030710091013207/10/03 09:10:31  5-MIN KMKG 101410Z 19011KT 2SM -RA BR FEW009 SCT013 OVC022 21/20 A2973 810 97 1700 190/11 RMK AO2 SFC VIS 5 P0001
14840KMKG MKG20030710091513507/10/03 09:15:31  5-MIN KMKG 101415Z 19010KT 1 1/2SM RA BR BKN009 BKN022 OVC029 21/20 A2972 810 97 1700 190/10 RMK AO2 TWR VIS 2 P0003
14840KMKG MKG20030710092012207/10/03 09:20:31  5-MIN KMKG 101420Z 18011KT 4SM -RA BR SCT009 BKN015 OVC022 21/20 A2972 820 97 1700 190/11 RMK AO2 P0004
14840KMKG MKG20030710092512107/10/03 09:25:31  5-MIN KMKG 101425Z 18012KT 2SM RA BR SCT009 BKN015 OVC023 21/20 A2972 820 97 1700 180/12 RMK AO2 P0006
14840KMKG MKG20030710093014307/10/03 09:30:31  5-MIN KMKG 101430Z 18012KT 2SM RA BR BKN009 BKN020 OVC025 21/20 A2972 820 97 1700 180/12 RMK AO2 SFC VIS 3 CIG 006V013 P0007
14840KMKG MKG20030710093513107/10/03 09:35:31  5-MIN KMKG 101435Z 19019G22KT 1SM +RA BR BKN009 OVC020 21/20 A2972 810 97 1700 200/19G22 RMK AO2 TWR VIS 2 P0013
14840KMKG MKG20030710094014207/10/03 09:40:31  5-MIN KMKG 101440Z 20015G22KT 1 1/2SM +RA BR BKN007 BKN011 OVC018 20/19 A2972 810 97 1600 200/15G22 RMK AO2 TWR VIS 2 P0018
14840KMKG MKG20030710094517107/10/03 09:45:31  5-MIN KMKG 101445Z 19013KT 1SM +TSRA BR SCT005 BKN009 OVC024 20/19 A2972 820 97 1600 190/13 RMK AO2 TWR VIS 2 TSB41 OCNL LTGCG OHD TS OHD MOV NE P0029 $
14840KMKG MKG20030710095020107/10/03 09:50:31  5-MIN KMKG 101450Z 19012KT 2SM -TSRA BR SCT005 BKN009 OVC028 19/19 A2972 820 100 1600 200/12 RMK AO2 SFC VIS 4 TSB41 SLP060 OCNL LTGCG NE TS N-SE MOV NE P0029 60030 T01940194 56011 $
14840KMKG MKG20030710095522407/10/03 09:55:31  5-MIN KMKG 101455Z 19012KT 2SM -TSRA BR SCT005 BKN011 OVC028 19/19 A2972 820 100 1600 190/12 RMK AO2 SFC VIS 4 TSB41 CIG 007 RWY 14 SLP060 OCNL LTGCG NE TSB41 TS N-SE MOV NE S P0030 60031 T01940194 57013 $
14840KMKG MKG20030710100015507/10/03 10:00:31  5-MIN KMKG 101500Z 20010KT 2SM -RA BR SCT005 BKN011 OVC028 20/19 A2972 820 97 1600 210/10 RMK AO2 SFC VIS 5 TSE00 CIG 007 RWY 14 P0000 $
14840KMKG MKG20030710100513407/10/03 10:05:31  5-MIN KMKG 101505Z 21010KT 2SM -RA BR BKN007 OVC019 19/19 A2971 820 100 1600 210/10 RMK AO2 SFC VIS 6 TSE00 P0001 $
14840KMKG MKG20030710101013907/10/03 10:10:31  5-MIN KMKG 101510Z 20011KT 2SM -RA BKN007 BKN019 OVC027 19/19 A2971 820 100 1600 210/11 RMK AO2 SFC VIS 10 TSE00 P0001 $
14840KMKG MKG20030710101514607/10/03 10:15:31  5-MIN KMKG 101515Z 18012KT 2SM -RA BR BKN007 OVC019 19/19 A2971 820 100 1600 190/12 RMK AO2 SFC VIS 5 TSE00 CIG 006V012 P0001 $
14840KMKG MKG20030710102014107/10/03 10:20:31  5-MIN KMKG 101520Z 18013KT 1SM +RA BR FEW003 BKN009 OVC019 19/19 A2971 820 100 1600 180/13 RMK AO2 TWR VIS 2 TSE00 P0015 $
14840KMKG MKG20030710102513707/10/03 10:25:31  5-MIN KMKG 101525Z 19011G18KT 2SM -RA BR SCT005 BKN009 OVC019 19/19 A2971 820 100 1600 190/11G18 RMK AO2 TSE00 P0022 $
14840KMKG MKG20030710103013707/10/03 10:30:31  5-MIN KMKG 101530Z 19010KT 2SM -RA FEW003 BKN009 OVC019 20/19 A2971 820 97 1600 200/10 RMK AO2 SFC VIS 8 TSE00 P0022 $
14840KMKG MKG20030710103513707/10/03 10:35:31  5-MIN KMKG 101535Z 19014KT 2SM -RA FEW003 BKN009 OVC019 20/19 A2971 820 97 1600 190/14 RMK AO2 SFC VIS 8 TSE00 P0022 $
14840KMKG MKG20030710104013807/10/03 10:40:31  5-MIN KMKG 101540Z 19011KT 2SM -RA FEW003 BKN009 OVC019 20/19 A2971 830 97 1600 200/11 RMK AO2 SFC VIS 10 TSE00 P0023 $
14840KMKG MKG20030710104514207/10/03 10:45:31  5-MIN KMKG 101545Z 19011KT 7SM -RA FEW003 SCT009 OVC019 20/19 A2971 830 97 1600 190/11 RMK AO2 TSE00 CIG 007 RWY 14 P0023 $
14840KMKG MKG20030710105014207/10/03 10:50:31  5-MIN KMKG 101550Z 18011KT 8SM -RA SCT009 BKN012 OVC019 20/19 A2970 830 97 1600 190/11 RMK AO2 TSE00 SLP056 P0023 T02000194
14840KMKG MKG20030710105514907/10/03 10:55:31  5-MIN KMKG 101555Z 19013KT 10SM BKN009 OVC019 20/19 A2970 830 97 1600 190/13 RMK AO2 TSE00RAE51 CIG 006V013 SLP056 P0023 T02000194
14840KMKG MKG20030710110012507/10/03 11:00:31  5-MIN KMKG 101600Z 18011KT 10SM SCT007 BKN013 OVC019 20/19 A2970 830 97 1600 190/11 RMK AO2 CIG 009 RWY 14
14840KMKG MKG20030710110510907/10/03 11:05:31  5-MIN KMKG 101605Z 19009G19KT 10SM SCT007 OVC019 20/19 A2970 830 97 1600 190/09G19 RMK AO2
14840KMKG MKG20030710111011607/10/03 11:10:31  5-MIN KMKG 101610Z 19011G19KT 10SM BKN007 BKN011 OVC019 20/19 A2970 830 97 1600 190/11G19 RMK AO2
14840KMKG MKG20030710111512107/10/03 11:15:31  5-MIN KMKG 101615Z 19014G18KT 10SM BKN009 OVC019 20/19 A2970 830 97 1600 190/14G18 RMK AO2 CIG 006V013
14840KMKG MKG20030710112010907/10/03 11:20:31  5-MIN KMKG 101620Z 18012G18KT 10SM SCT009 OVC019 20/19 A2970 830 97 1600 190/12G18 RMK AO2
14840KMKG MKG20030710112510307/10/03 11:25:31  5-MIN KMKG 101625Z 19012KT 10SM SCT009 OVC017 20/19 A2970 830 97 1600 190/12 RMK AO2
14840KMKG MKG20030710113010307/10/03 11:30:31  5-MIN KMKG 101630Z 18009KT 10SM SCT009 OVC017 21/19 A2970 830 93 1700 180/09 RMK AO2
14840KMKG MKG20030710113510307/10/03 11:35:31  5-MIN KMKG 101635Z 18011KT 10SM FEW009 OVC017 21/19 A2970 830 93 1700 190/11 RMK AO2
14840KMKG MKG20030710114010307/10/03 11:40:31  5-MIN KMKG 101640Z 18014KT 10SM SCT009 OVC017 21/19 A2970 830 93 1700 180/14 RMK AO2
14840KMKG MKG20030710114510907/10/03 11:45:31  5-MIN KMKG 101645Z 18012G18KT 10SM FEW009 OVC017 21/19 A2970 830 93 1700 180/12G18 RMK AO2
14840KMKG MKG20030710115012607/10/03 11:50:31  5-MIN KMKG 101650Z 19011G18KT 10SM FEW009 OVC017 21/19 A2970 840 93 1700 190/11G18 RMK AO2 SLP054 T02060194
14840KMKG MKG20030710115512007/10/03 11:55:31  5-MIN KMKG 101655Z 18011KT 10SM FEW009 OVC017 21/19 A2970 840 93 1700 190/11 RMK AO2 SLP054 T02060194
14840KMKG MKG20030710120010307/10/03 12:00:31  5-MIN KMKG 101700Z 18012KT 10SM FEW009 OVC017 21/19 A2970 840 93 1700 190/12 RMK AO2
14840KMKG MKG20030710120511807/10/03 12:05:31  5-MIN KMKG 101705Z 18011KT 9SM -RA FEW009 OVC017 21/19 A2970 840 93 1700 180/11 RMK AO2 RAB01 P0000
14840KMKG MKG20030710121011107/10/03 12:10:31  5-MIN KMKG 101710Z 18010KT 9SM -RA OVC017 21/19 A2970 840 93 1700 180/10 RMK AO2 RAB01 P0000
14840KMKG MKG20030710121511207/10/03 12:15:31  5-MIN KMKG 101715Z 18012KT 10SM -RA OVC017 21/19 A2969 840 93 1700 190/12 RMK AO2 RAB01 P0000
14840KMKG MKG20030710122011107/10/03 12:20:31  5-MIN KMKG 101720Z 17011KT 10SM OVC017 21/19 A2969 840 93 1700 180/11 RMK AO2 RAB01E17 P0000
14840KMKG MKG20030710122511107/10/03 12:25:31  5-MIN KMKG 101725Z 18010KT 10SM OVC017 21/20 A2969 840 97 1700 180/10 RMK AO2 RAB01E17 P0000
14840KMKG MKG20030710123011107/10/03 12:30:31  5-MIN KMKG 101730Z 18012KT 10SM OVC017 21/20 A2969 850 97 1700 180/12 RMK AO2 RAB01E17 P0000
14840KMKG MKG20030710123511107/10/03 12:35:31  5-MIN KMKG 101735Z 18009KT 10SM OVC017 21/20 A2969 850 93 1800 190/09 RMK AO2 RAB01E17 P0000
14840KMKG MKG20030710124011107/10/03 12:40:31  5-MIN KMKG 101740Z 19012KT 10SM OVC017 21/20 A2968 850 93 1800 190/12 RMK AO2 RAB01E17 P0000
14840KMKG MKG20030710124511107/10/03 12:45:31  5-MIN KMKG 101745Z 19009KT 10SM OVC017 21/20 A2968 850 93 1800 190/09 RMK AO2 RAB01E17 P0000
14840KMKG MKG20030710125015807/10/03 12:50:31  5-MIN KMKG 101750Z 19014G18KT 10SM OVC017 21/20 A2968 850 93 1800 200/14G18 RMK AO2 RAB01E17 SLP049 P0000 60054 T02110200 10211 20194 57013
14840KMKG MKG20030710125515807/10/03 12:55:31  5-MIN KMKG 101755Z 20011G18KT 10SM OVC017 21/19 A2968 850 90 1800 200/11G18 RMK AO2 RAB01E17 SLP048 P0000 60054 T02110194 10211 20194 58012
14840KMKG MKG20030710130009607/10/03 13:00:31  5-MIN KMKG 101800Z 19013KT 10SM OVC017 21/20 A2968 850 93 1800 190/13 RMK AO2
14840KMKG MKG20030710130509607/10/03 13:05:31  5-MIN KMKG 101805Z 19012KT 10SM OVC017 21/20 A2968 850 93 1800 200/12 RMK AO2
14840KMKG MKG20030710131009607/10/03 13:10:31  5-MIN KMKG 101810Z 19012KT 10SM OVC017 21/20 A2968 850 93 1800 200/12 RMK AO2
14840KMKG MKG20030710131509607/10/03 13:15:31  5-MIN KMKG 101815Z 19012KT 10SM OVC017 21/19 A2968 860 90 1800 190/12 RMK AO2
14840KMKG MKG20030710132009607/10/03 13:20:31  5-MIN KMKG 101820Z 19011KT 10SM OVC017 21/19 A2968 860 90 1800 190/11 RMK AO2
14840KMKG MKG20030710132509607/10/03 13:25:31  5-MIN KMKG 101825Z 19013KT 10SM OVC017 21/20 A2968 860 93 1800 200/13 RMK AO2
14840KMKG MKG20030710133009607/10/03 13:30:31  5-MIN KMKG 101830Z 20012KT 10SM OVC017 21/19 A2967 860 90 1800 200/12 RMK AO2
14840KMKG MKG20030710133509607/10/03 13:35:31  5-MIN KMKG 101835Z 19012KT 10SM OVC017 21/19 A2967 860 90 1800 190/12 RMK AO2
14840KMKG MKG20030710134009607/10/03 13:40:31  5-MIN KMKG 101840Z 20013KT 10SM OVC017 21/19 A2967 860 90 1800 200/13 RMK AO2
14840KMKG MKG20030710134509607/10/03 13:45:31  5-MIN KMKG 101845Z 19011KT 10SM OVC017 21/19 A2967 870 90 1800 200/11 RMK AO2
14840KMKG MKG20030710135011307/10/03 13:50:31  5-MIN KMKG 101850Z 19011KT 10SM OVC017 22/19 A2967 870 87 1900 200/11 RMK AO2 SLP043 T02170194
14840KMKG MKG20030710135511307/10/03 13:55:31  5-MIN KMKG 101855Z 20010KT 10SM OVC017 22/20 A2966 870 90 1900 200/10 RMK AO2 SLP042 T02170200
14840KMKG MKG20030710140009607/10/03 14:00:31  5-MIN KMKG 101900Z 19012KT 10SM OVC017 22/19 A2966 870 87 1900 190/12 RMK AO2
14840KMKG MKG20030710140509607/10/03 14:05:31  5-MIN KMKG 101905Z 19012KT 10SM OVC017 22/19 A2966 870 87 1900 190/12 RMK AO2
14840KMKG MKG20030710141009607/10/03 14:10:31  5-MIN KMKG 101910Z 19014KT 10SM OVC017 22/20 A2966 870 90 1900 200/14 RMK AO2
14840KMKG MKG20030710141509607/10/03 14:15:31  5-MIN KMKG 101915Z 19012KT 10SM OVC017 22/19 A2966 870 87 1900 200/12 RMK AO2
14840KMKG MKG20030710142009607/10/03 14:20:31  5-MIN KMKG 101920Z 20011KT 10SM OVC017 22/19 A2966 870 87 1900 210/11 RMK AO2
14840KMKG MKG20030710142509607/10/03 14:25:31  5-MIN KMKG 101925Z 21012KT 10SM OVC017 22/20 A2965 880 90 1900 210/12 RMK AO2
14840KMKG MKG20030710143009607/10/03 14:30:31  5-MIN KMKG 101930Z 20013KT 10SM OVC017 22/20 A2965 880 90 1900 200/13 RMK AO2
14840KMKG MKG20030710143509607/10/03 14:35:31  5-MIN KMKG 101935Z 20011KT 10SM OVC019 22/20 A2965 880 90 1900 210/11 RMK AO2
14840KMKG MKG20030710144010207/10/03 14:40:31  5-MIN KMKG 101940Z 21014G19KT 10SM OVC019 22/19 A2965 880 87 1900 210/14G19 RMK AO2
14840KMKG MKG20030710144510207/10/03 14:45:31  5-MIN KMKG 101945Z 21012G19KT 10SM OVC019 22/19 A2965 880 87 1900 210/12G19 RMK AO2
14840KMKG MKG20030710145011307/10/03 14:50:31  5-MIN KMKG 101950Z 20013KT 10SM OVC019 22/19 A2965 880 87 1900 210/13 RMK AO2 SLP038 T02170194
14840KMKG MKG20030710145511307/10/03 14:55:31  5-MIN KMKG 101955Z 21011KT 10SM OVC019 22/19 A2965 880 87 1900 210/11 RMK AO2 SLP038 T02170194
14840KMKG MKG20030710150010207/10/03 15:00:31  5-MIN KMKG 102000Z 21011G17KT 10SM OVC019 22/19 A2965 880 87 1900 210/11G17 RMK AO2
14840KMKG MKG20030710150509607/10/03 15:05:31  5-MIN KMKG 102005Z 21013KT 10SM OVC019 22/20 A2965 880 87 2000 210/13 RMK AO2
14840KMKG MKG20030710151009607/10/03 15:10:31  5-MIN KMKG 102010Z 22012KT 10SM OVC021 22/20 A2965 880 87 2000 220/12 RMK AO2
14840KMKG MKG20030710151509607/10/03 15:15:31  5-MIN KMKG 102015Z 22011KT 10SM OVC021 22/20 A2965 880 87 2000 220/11 RMK AO2
14840KMKG MKG20030710152010307/10/03 15:20:31  5-MIN KMKG 102020Z 22010KT 10SM BKN021 OVC028 22/20 A2965 880 87 2000 220/10 RMK AO2
14840KMKG MKG20030710152509607/10/03 15:25:31  5-MIN KMKG 102025Z 22008KT 10SM OVC023 22/20 A2965 890 87 2000 220/08 RMK AO2
14840KMKG MKG20030710153009607/10/03 15:30:31  5-MIN KMKG 102030Z 22012KT 10SM OVC023 23/20 A2964 890 84 2000 220/12 RMK AO2
14840KMKG MKG20030710153509607/10/03 15:35:31  5-MIN KMKG 102035Z 21011KT 10SM OVC023 23/20 A2964 890 84 2000 220/11 RMK AO2
14840KMKG MKG20030710154010307/10/03 15:40:31  5-MIN KMKG 102040Z 22012KT 10SM BKN023 OVC035 23/20 A2964 890 84 2000 220/12 RMK AO2
14840KMKG MKG20030710154510307/10/03 15:45:31  5-MIN KMKG 102045Z 22013KT 10SM BKN023 OVC035 23/20 A2964 890 84 2000 220/13 RMK AO2
14840KMKG MKG20030710155012607/10/03 15:50:31  5-MIN KMKG 102050Z 22011KT 10SM BKN023 OVC035 23/20 A2964 890 81 2100 220/11 RMK AO2 SLP034 T02330200 58012
14840KMKG MKG20030710155512607/10/03 15:55:31  5-MIN KMKG 102055Z 22011KT 10SM BKN023 OVC035 23/20 A2964 900 81 2100 220/11 RMK AO2 SLP033 T02330200 56015
14840KMKG MKG20030710160010307/10/03 16:00:31  5-MIN KMKG 102100Z 23009KT 10SM BKN023 OVC035 23/20 A2964 890 84 2000 240/09 RMK AO2
14840KMKG MKG20030710160510307/10/03 16:05:31  5-MIN KMKG 102105Z 23011KT 10SM BKN023 OVC032 23/20 A2964 890 84 2000 230/11 RMK AO2
14840KMKG MKG20030710161010307/10/03 16:10:31  5-MIN KMKG 102110Z 23010KT 10SM BKN023 OVC032 23/20 A2964 890 84 2000 240/10 RMK AO2
14840KMKG MKG20030710161511007/10/03 16:15:31  5-MIN KMKG 102115Z 24008KT 10SM SCT023 BKN032 OVC075 23/20 A2964 890 84 2000 250/08 RMK AO2
14840KMKG MKG20030710162011007/10/03 16:20:31  5-MIN KMKG 102120Z 24009KT 10SM SCT023 BKN032 OVC075 22/20 A2964 890 87 2000 240/09 RMK AO2
14840KMKG MKG20030710162511007/10/03 16:25:31  5-MIN KMKG 102125Z 23010KT 10SM BKN023 BKN032 BKN060 22/19 A2964 890 84 2000 230/10 RMK AO2
14840KMKG MKG20030710163011007/10/03 16:30:31  5-MIN KMKG 102130Z 24008KT 10SM BKN021 BKN032 OVC055 22/19 A2964 890 87 1900 250/08 RMK AO2
14840KMKG MKG20030710163511007/10/03 16:35:31  5-MIN KMKG 102135Z 24008KT 10SM BKN021 BKN032 OVC055 21/19 A2964 890 90 1800 240/08 RMK AO2
14840KMKG MKG20030710164010307/10/03 16:40:31  5-MIN KMKG 102140Z 23009KT 10SM SCT015 BKN019 21/19 A2964 890 90 1800 240/09 RMK AO2
14840KMKG MKG20030710164511907/10/03 16:45:31  5-MIN KMKG 102145Z 23008KT 10SM -RA BKN015 OVC019 21/19 A2964 890 93 1800 240/08 RMK AO2 RAB44 P0000
14840KMKG MKG20030710165014207/10/03 16:50:31  5-MIN KMKG 102150Z 23010KT 9SM -RA BKN015 BKN019 OVC026 21/19 A2964 890 93 1800 230/10 RMK AO2 RAB44 SLP034 P0000 T02060194
14840KMKG MKG20030710165514207/10/03 16:55:31  5-MIN KMKG 102155Z 24009KT 8SM -RA SCT013 BKN019 OVC038 21/19 A2964 890 93 1800 240/09 RMK AO2 RAB44 SLP034 P0000 T02060194
14840KMKG MKG20030710170012207/10/03 17:00:31  5-MIN KMKG 102200Z 23008KT 6SM -RA BR SCT015 BKN027 OVC036 21/19 A2964 890 93 1800 230/08 RMK AO2 P0001
14840KMKG MKG20030710170511507/10/03 17:05:31  5-MIN KMKG 102205Z 23007KT 5SM -RA BR SCT015 OVC034 21/19 A2964 890 93 1800 230/07 RMK AO2 P0001
14840KMKG MKG20030710171011507/10/03 17:10:31  5-MIN KMKG 102210Z 23008KT 4SM -RA BR FEW013 OVC032 20/19 A2964 890 97 1700 230/08 RMK AO2 P0001
14840KMKG MKG20030710171511607/10/03 17:15:31  5-MIN KMKG 102215Z 24006KT 3SM -RA BR FEW013 OVC032 20/20 A2964 890 100 1700 240/06 RMK AO2 P0002
14840KMKG MKG20030710172011607/10/03 17:20:31  5-MIN KMKG 102220Z 25006KT 3SM -RA BR FEW005 OVC032 20/20 A2964 890 100 1700 250/06 RMK AO2 P0002
14840KMKG MKG20030710172513807/10/03 17:25:31  5-MIN KMKG 102225Z 26007KT 6SM -RA BR SCT005 SCT020 OVC032 20/20 A2964 890 100 1700 270/07 RMK AO2 CIG 020 RWY 14 P0002
14840KMKG MKG20030710173011807/10/03 17:30:31  5-MIN KMKG 102230Z 25007KT 6SM BR BKN005 OVC030 20/20 A2964 890 100 1700 250/07 RMK AO2 RAE29 P0002
14840KMKG MKG20030710173511807/10/03 17:35:31  5-MIN KMKG 102235Z 26006KT 6SM BR BKN005 OVC030 20/20 A2963 900 100 1700 260/06 RMK AO2 RAE29 P0002
14840KMKG MKG20030710174012507/10/03 17:40:31  5-MIN KMKG 102240Z 26007KT 5SM BR BKN005 BKN028 OVC060 20/20 A2963 900 100 1700 260/07 RMK AO2 RAE29 P0002
14840KMKG MKG20030710174511807/10/03 17:45:31  5-MIN KMKG 102245Z 26006KT 5SM BR BKN005 OVC065 20/20 A2963 900 100 1700 260/06 RMK AO2 RAE29 P0002
14840KMKG MKG20030710175014107/10/03 17:50:31  5-MIN KMKG 102250Z 27008KT 6SM BR BKN005 BKN012 OVC065 21/20 A2964 900 97 1800 280/08 RMK AO2 RAE29 SLP033 P0002 T02060200
14840KMKG MKG20030710175513407/10/03 17:55:31  5-MIN KMKG 102255Z 29008KT 6SM BR BKN005 OVC065 20/19 A2963 900 97 1700 290/08 RMK AO2 RAE29 SLP032 P0002 T02000194
14840KMKG MKG20030710180010507/10/03 18:00:31  5-MIN KMKG 102300Z 29006KT 6SM BR BKN005 OVC065 20/19 A2964 890 97 1700 290/06 RMK AO2
14840KMKG MKG20030710180510507/10/03 18:05:31  5-MIN KMKG 102305Z 30009KT 6SM BR BKN005 OVC065 20/19 A2964 890 97 1700 300/09 RMK AO2
14840KMKG MKG20030710181009807/10/03 18:10:31  5-MIN KMKG 102310Z 29008KT 5SM BR OVC005 19/19 A2964 890 97 1700 300/08 RMK AO2
14840KMKG MKG20030710181509807/10/03 18:15:31  5-MIN KMKG 102315Z 30007KT 4SM BR OVC005 19/19 A2964 890 97 1700 300/07 RMK AO2
14840KMKG MKG20030710182009807/10/03 18:20:31  5-MIN KMKG 102320Z 31008KT 5SM BR OVC005 19/19 A2964 890 97 1700 310/08 RMK AO2
14840KMKG MKG20030710182511707/10/03 18:25:31  5-MIN KMKG 102325Z 31007KT 5SM BR BKN005 OVC017 19/19 A2964 890 97 1700 320/07 RMK AO2 CIG 005V010
14840KMKG MKG20030710183010507/10/03 18:30:31  5-MIN KMKG 102330Z 31009KT 6SM BR BKN005 OVC017 19/18 A2964 890 93 1700 320/09 RMK AO2
14840KMKG MKG20030710183510507/10/03 18:35:31  5-MIN KMKG 102335Z 30007KT 6SM BR SCT005 OVC019 19/18 A2965 880 93 1600 300/07 RMK AO2
14840KMKG MKG20030710184011207/10/03 18:40:31  5-MIN KMKG 102340Z 31007KT 6SM BR FEW005 SCT011 OVC018 19/18 A2965 880 93 1600 310/07 RMK AO2
14840KMKG MKG20030710184511207/10/03 18:45:31  5-MIN KMKG 102345Z 29006KT 6SM BR FEW008 BKN015 OVC020 19/18 A2965 880 93 1600 300/06 RMK AO2
14840KMKG MKG20030710185014607/10/03 18:50:31  5-MIN KMKG 102350Z 33007KT 6SM BR BKN012 OVC020 19/18 A2965 880 93 1600 330/07 RMK AO2 SLP037 60002 T01940183 10233 20194 56015
14840KMKG MKG20030710185514307/10/03 18:55:31  5-MIN KMKG 102355Z 31008KT 8SM BKN012 OVC020 19/18 A2965 880 90 1600 310/08 RMK AO2 SLP037 60002 T01940178 10233 20194 53004
14840KMKG MKG20030710190009507/10/03 19:00:31  5-MIN KMKG 110000Z 30006KT 9SM OVC012 19/18 A2965 880 90 1600 310/06 RMK AO2
14840KMKG MKG20030710190509507/10/03 19:05:31  5-MIN KMKG 110005Z 31005KT 9SM OVC012 19/18 A2965 890 90 1600 320/05 RMK AO2
14840KMKG MKG20030710191010207/10/03 19:10:31  5-MIN KMKG 110010Z 31009KT 9SM BKN012 OVC018 19/18 A2965 880 93 1600 310/09 RMK AO2
14840KMKG MKG20030710191510207/10/03 19:15:31  5-MIN KMKG 110015Z 31006KT 9SM BKN010 OVC016 19/18 A2965 880 93 1600 310/06 RMK AO2
14840KMKG MKG20030710192010207/10/03 19:20:31  5-MIN KMKG 110020Z 30006KT 8SM BKN010 OVC016 19/18 A2965 880 93 1600 310/06 RMK AO2
14840KMKG MKG20030710192510707/10/03 19:25:31  5-MIN KMKG 110025Z 29007KT 8SM OVC010 19/18 A2965 880 93 1600 290/07 RMK AO2 CIG 008V013
14840KMKG MKG20030710193011707/10/03 19:30:31  5-MIN KMKG 110030Z 29006KT 6SM BR BKN010 OVC017 19/18 A2965 880 93 1600 290/06 RMK AO2 CIG 008V013
14840KMKG MKG20030710193512607/10/03 19:35:31  5-MIN KMKG 110035Z 29008KT 4SM -RA BR OVC010 18/18 A2965 880 96 1500 290/08 RMK AO2 RAB31 CIG 008V013 P0000
14840KMKG MKG20030710194012607/10/03 19:40:31  5-MIN KMKG 110040Z 29005KT 3SM -RA BR OVC010 18/18 A2965 880 96 1500 290/05 RMK AO2 RAB31 CIG 007V013 P0000
14840KMKG MKG20030710194514307/10/03 19:45:31  5-MIN KMKG 110045Z 29006KT 3SM -RA BR OVC010 18/18 A2965 880 96 1500 290/06 RMK AO2 VIS 2 1/2 RWY 14 RAB31 CIG 006V013 P0000
14840KMKG MKG20030710195014307/10/03 19:50:31  5-MIN KMKG 110050Z 28006KT 3SM -RA BR OVC010 18/18 A2965 880 96 1500 280/06 RMK AO2 RAB31 CIG 006V013 SLP039 P0000 T01830178
14840KMKG MKG20030710195514707/10/03 19:55:31  5-MIN KMKG 110055Z 28006KT 2 1/2SM -RA BR OVC010 18/18 A2965 880 96 1500 280/06 RMK AO2 RAB31 CIG 006V013 SLP039 P0000 T01830178
14840KMKG MKG20030710200013107/10/03 20:00:31  5-MIN KMKG 110100Z 29007KT 2 1/2SM -RA BR BKN008 OVC012 18/18 A2965 880 96 1500 290/07 RMK AO2 CIG 006V010 P0001
14840KMKG MKG20030710200513307/10/03 20:05:31  5-MIN KMKG 110105Z 29006KT 3SM -RA BR OVC008 18/18 A2965 880 96 1500 300/06 RMK AO2 VIS 2 RWY 14 CIG 005V010 P0001
14840KMKG MKG20030710201013907/10/03 20:10:31  5-MIN KMKG 110110Z 29007KT 3SM BR OVC008 18/18 A2965 880 96 1500 290/07 RMK AO2 VIS 2 1/2 RWY 14 RAE07 CIG 005V011 P0001
14840KMKG MKG20030710201512907/10/03 20:15:31  5-MIN KMKG 110115Z 29007KT 4SM BR BKN008 OVC012 18/18 A2965 880 96 1500 290/07 RMK AO2 RAE07 CIG 005V009 P0001
14840KMKG MKG20030710202012907/10/03 20:20:31  5-MIN KMKG 110120Z 28009KT 5SM BR BKN008 OVC011 18/18 A2965 880 96 1500 290/09 RMK AO2 RAE07 CIG 005V009 P0001
14840KMKG MKG20030710202512907/10/03 20:25:31  5-MIN KMKG 110125Z 29008KT 5SM -RA BR OVC008 18/17 A2965 880 93 1500 300/08 RMK AO2 RAE07B24 CIG 005V013 P0001
14840KMKG MKG20030710203012907/10/03 20:30:31  5-MIN KMKG 110130Z 28008KT 5SM -RA BR OVC008 18/17 A2966 880 93 1500 290/08 RMK AO2 RAE07B24 CIG 005V011 P0001
14840KMKG MKG20030710203513507/10/03 20:35:31  5-MIN KMKG 110135Z 28006KT 4SM BR BKN008 OVC015 18/17 A2966 880 93 1500 290/06 RMK AO2 RAE07B24E33 CIG 005V012 P0001
14840KMKG MKG20030710204013007/10/03 20:40:31  5-MIN KMKG 110140Z 28009KT 4SM BR SCT008 BKN011 OVC018 18/17 A2966 880 96 1400 290/09 RMK AO2 RAE07B24E33 P0001
14840KMKG MKG20030710204513007/10/03 20:45:31  5-MIN KMKG 110145Z 28010KT 5SM BR FEW008 BKN012 OVC019 18/17 A2966 880 96 1400 290/10 RMK AO2 RAE07B24E33 P0001
14840KMKG MKG20030710205015207/10/03 20:50:31  5-MIN KMKG 110150Z 30006KT 5SM BR BKN008 OVC014 18/17 A2966 880 96 1400 300/06 RMK AO2 RAE07B24E33 CIG 006V012 SLP040 P0001 T01780172
14840KMKG MKG20030710205515207/10/03 20:55:31  5-MIN KMKG 110155Z 28005KT 5SM BR BKN008 OVC014 18/17 A2965 880 96 1400 280/05 RMK AO2 RAE07B24E33 CIG 006V011 SLP039 P0001 T01780172
14840KMKG MKG20030710210011707/10/03 21:00:31  5-MIN KMKG 110200Z 29005KT 5SM BR BKN008 OVC014 18/17 A2966 880 96 1400 300/05 RMK AO2 CIG 006V011
14840KMKG MKG20030710210511707/10/03 21:05:31  5-MIN KMKG 110205Z 29006KT 5SM BR BKN008 OVC014 18/17 A2966 870 96 1400 290/06 RMK AO2 CIG 006V010
14840KMKG MKG20030710211011007/10/03 21:10:31  5-MIN KMKG 110210Z 29006KT 4SM BR OVC008 18/17 A2966 870 96 1400 290/06 RMK AO2 CIG 006V012
14840KMKG MKG20030710211511007/10/03 21:15:31  5-MIN KMKG 110215Z 28005KT 4SM BR OVC008 18/17 A2966 870 96 1400 290/05 RMK AO2 CIG 006V010
14840KMKG MKG20030710212011007/10/03 21:20:31  5-MIN KMKG 110220Z 27006KT 4SM BR OVC008 18/17 A2966 870 96 1400 270/06 RMK AO2 CIG 006V010
14840KMKG MKG20030710212511007/10/03 21:25:31  5-MIN KMKG 110225Z 27005KT 4SM BR OVC008 18/17 A2966 870 96 1400 270/05 RMK AO2 CIG 006V010
14840KMKG MKG20030710213009807/10/03 21:30:31  5-MIN KMKG 110230Z 27006KT 4SM BR OVC008 18/17 A2966 870 96 1400 280/06 RMK AO2
14840KMKG MKG20030710213511007/10/03 21:35:31  5-MIN KMKG 110235Z 26006KT 3SM BR OVC008 18/17 A2966 870 96 1400 270/06 RMK AO2 CIG 006V009
14840KMKG MKG20030710214013307/10/03 21:40:31  5-MIN KMKG 110240Z 28005KT 3SM -RA BR BKN008 OVC011 18/17 A2966 870 96 1400 280/05 RMK AO2 RAB36 CIG 006V009 P0000
14840KMKG MKG20030710214513307/10/03 21:45:31  5-MIN KMKG 110245Z 26007KT 3SM -RA BR BKN008 OVC011 18/17 A2966 870 96 1400 270/07 RMK AO2 RAB36 CIG 006V009 P0000
14840KMKG MKG20030710215016207/10/03 21:50:31  5-MIN KMKG 110250Z 27007KT 3SM -RA BR BKN008 OVC011 18/17 A2966 870 96 1400 280/07 RMK AO2 RAB36 CIG 006V009 SLP043 P0000 60001 T01780172 53004
14840KMKG MKG20030710215516207/10/03 21:55:31  5-MIN KMKG 110255Z 27006KT 4SM -RA BR BKN008 OVC011 18/17 A2966 870 96 1400 280/06 RMK AO2 RAB36 CIG 006V010 SLP042 P0000 60001 T01780172 53005
14840KMKG MKG20030710220012707/10/03 22:00:31  5-MIN KMKG 110300Z 28005KT 4SM -RA BR BKN008 OVC013 18/17 A2966 870 96 1400 280/05 RMK AO2 CIG 006V011 P0000
14840KMKG MKG20030710220512707/10/03 22:05:31  5-MIN KMKG 110305Z 28005KT 5SM -RA BR BKN008 OVC013 18/17 A2966 870 96 1400 280/05 RMK AO2 CIG 006V011 P0000
14840KMKG MKG20030710221012907/10/03 22:10:31  5-MIN KMKG 110310Z 27005KT 4SM BR BKN010 OVC013 18/17 A2966 870 96 1400 270/05 RMK AO2 RAE07 CIG 006V013 P0000
14840KMKG MKG20030710221512907/10/03 22:15:31  5-MIN KMKG 110315Z 26006KT 4SM BR BKN010 OVC013 18/17 A2966 880 96 1400 260/06 RMK AO2 RAE07 CIG 006V012 P0000
14840KMKG MKG20030710222012707/10/03 22:20:31  5-MIN KMKG 110320Z 27007KT 3SM -RA BR BKN010 OVC013 18/17 A2965 880 96 1400 270/07 RMK AO2 CIG 006V013 P0000
14840KMKG MKG20030710222512007/10/03 22:25:31  5-MIN KMKG 110325Z 25005KT 4SM -RA BR OVC010 18/17 A2965 880 96 1400 260/05 RMK AO2 CIG 005V013 P0000
14840KMKG MKG20030710223012207/10/03 22:30:31  5-MIN KMKG 110330Z 26006KT 4SM BR OVC010 18/17 A2965 880 96 1500 260/06 RMK AO2 RAE28 CIG 005V012 P0000
14840KMKG MKG20030710223512207/10/03 22:35:31  5-MIN KMKG 110335Z 25005KT 4SM BR OVC008 18/17 A2965 880 96 1500 250/05 RMK AO2 RAE28 CIG 005V012 P0000
14840KMKG MKG20030710224012207/10/03 22:40:31  5-MIN KMKG 110340Z 26005KT 4SM BR OVC008 18/17 A2964 890 96 1500 260/05 RMK AO2 RAE28 CIG 005V010 P0000
14840KMKG MKG20030710224512907/10/03 22:45:31  5-MIN KMKG 110345Z 25006KT 3SM -RA BR OVC008 18/17 A2964 890 96 1500 260/06 RMK AO2 RAE28B44 CIG 005V012 P0000
14840KMKG MKG20030710225015007/10/03 22:50:31  5-MIN KMKG 110350Z 25005KT 2 1/2SM -RA BR OVC008 18/17 A2964 890 96 1500 250/05 RMK AO2 RAE28B44 CIG 005V011 SLP035 P0000 T01780172
14840KMKG MKG20030710225515707/10/03 22:55:31  5-MIN KMKG 110355Z 25005KT 2 1/2SM -RA BR BKN006 OVC010 18/17 A2964 890 96 1500 250/05 RMK AO2 RAE28B44 CIG 003V008 SLP034 P0001 T01780172
14840KMKG MKG20030710230013207/10/03 23:00:31  5-MIN KMKG 110400Z 25006KT 2 1/2SM -RA BR BKN006 OVC010 18/18 A2964 890 100 1500 250/06 RMK AO2 CIG 003V009 P0000
14840KMKG MKG20030710230512807/10/03 23:05:31  5-MIN KMKG 110405Z 25006KT 3SM -RA BR BKN006 OVC010 18/18 A2964 890 100 1500 250/06 RMK AO2 CIG 003V008 P0000
14840KMKG MKG20030710231012107/10/03 23:10:31  5-MIN KMKG 110410Z 25005KT 3SM -RA BR OVC006 18/18 A2963 900 100 1500 250/05 RMK AO2 CIG 003V008 P0000
14840KMKG MKG20030710231512107/10/03 23:15:31  5-MIN KMKG 110415Z 25006KT 2SM -RA BR OVC006 18/18 A2963 900 100 1500 260/06 RMK AO2 CIG 003V008 P0001
14840KMKG MKG20030710232012107/10/03 23:20:31  5-MIN KMKG 110420Z 25008KT 2SM -RA BR OVC006 18/18 A2963 900 100 1500 260/08 RMK AO2 CIG 003V009 P0001
14840KMKG MKG20030710232514807/10/03 23:25:31  5-MIN KMKG 110425Z 26012G16KT 2 1/2SM -RA BR OVC006 18/18 A2963 900 100 1500 270/12G16 RMK AO2 VIS 1 3/4 RWY 14 CIG 002V009 P0001
14840KMKG MKG20030710233013107/10/03 23:30:31  5-MIN KMKG 110430Z 27016G21KT 2 1/2SM -RA BR OVC004 18/18 A2962 910 100 1500 280/16G21 RMK AO2 CIG 002V009 P0002
14840KMKG MKG20030710233512707/10/03 23:35:31  5-MIN KMKG 110435Z 27013G21KT 3SM -RA BR OVC004 18/18 A2962 910 100 1500 270/13G21 RMK AO2 CIG 002V009 P0002
14840KMKG MKG20030710234013307/10/03 23:40:31  5-MIN KMKG 110440Z 27012G19KT 3SM -RA BR BKN004 OVC024 18/17 A2962 910 96 1500 270/12G19 RMK AO2 CIG 002V009 P0002
14840KMKG MKG20030710234513307/10/03 23:45:31  5-MIN KMKG 110445Z 27012G19KT 4SM -RA BR BKN004 OVC024 18/17 A2962 910 96 1500 280/12G19 RMK AO2 CIG 002V009 P0002
14840KMKG MKG20030710235015107/10/03 23:50:31  5-MIN KMKG 110450Z 27014G21KT 7SM -RA OVC006 17/17 A2962 910 100 1400 280/14G21 RMK AO2 CIG 002V009 SLP029 P0002 T01720172 402330172
14840KMKG MKG20030710235515207/10/03 23:55:31  5-MIN KMKG 110455Z 28014G21KT 10SM -RA OVC006 17/17 A2962 910 100 1400 280/14G21 RMK AO2 CIG 004V010 SLP030 P0002 T01720172 402330172
14840KMKG MKG20030711000011907/11/03 00:00:31  5-MIN KMKG 110500Z 28011KT 10SM -RA OVC006 17/17 A2962 910 100 1400 280/11 RMK AO2 CIG 004V010 P0000
14840KMKG MKG20030711000512607/11/03 00:05:31  5-MIN KMKG 110505Z 28010KT 10SM -RA BKN006 OVC013 17/17 A2962 910 100 1400 290/10 RMK AO2 CIG 005V010 P0000
14840KMKG MKG20030711001012107/11/03 00:10:31  5-MIN KMKG 110510Z 27009KT 10SM OVC006 17/17 A2962 910 100 1400 280/09 RMK AO2 RAE07 CIG 005V012 P0000
14840KMKG MKG20030711001512807/11/03 00:15:31  5-MIN KMKG 110515Z 27011KT 10SM BKN006 OVC015 17/17 A2962 910 100 1400 270/11 RMK AO2 RAE07 CIG 005V012 P0000
14840KMKG MKG20030711002013007/11/03 00:20:31  5-MIN KMKG 110520Z 26015G23KT 8SM RA BKN008 OVC013 17/17 A2962 910 100 1400 270/15G23 RMK AO2 CIG 005V011 P0001
14840KMKG MKG20030711002512907/11/03 00:25:31  5-MIN KMKG 110525Z 26015G23KT 7SM RA BKN008 OVC013 18/17 A2962 910 96 1500 270/15G23 RMK AO2 CIG 005V009 P0001
14840KMKG MKG20030711003013007/11/03 00:30:31  5-MIN KMKG 110530Z 26013G20KT 8SM -RA BKN008 OVC013 18/17 A2961 910 96 1500 270/13G20 RMK AO2 CIG 005V010 P0001
14840KMKG MKG20030711003513107/11/03 00:35:31  5-MIN KMKG 110535Z 26013G20KT 10SM -RA BKN008 OVC013 18/17 A2961 920 96 1500 270/13G20 RMK AO2 CIG 005V009 P0001
14840KMKG MKG20030711004013307/11/03 00:40:31  5-MIN KMKG 110540Z 26014G21KT 10SM BKN008 OVC013 18/17 A2961 920 96 1500 260/14G21 RMK AO2 RAE36 CIG 005V010 P0001
14840KMKG MKG20030711004512107/11/03 00:45:31  5-MIN KMKG 110545Z 26014G21KT 10SM BKN008 OVC013 18/17 A2961 920 93 1500 270/14G21 RMK AO2 RAE36 P0001
14840KMKG MKG20030711005018407/11/03 00:50:31  5-MIN KMKG 110550Z 26015G19KT 10SM SCT008 BKN013 OVC019 18/17 A2961 920 93 1500 260/15G19 RMK AO2 RAE36 CIG 009 RWY 14 SLP025 P0001 60005 T01780167 10194 20172 53005
14840KMKG MKG20030711005518407/11/03 00:55:31  5-MIN KMKG 110555Z 27016G21KT 10SM FEW008 BKN013 OVC019 17/17 A2961 920 96 1400 270/16G21 RMK AO2 RAE36 CIG 009 RWY 14 SLP025 P0001 60005 T01720167 10194 20172 56016
14840KMKG MKG20030711010011607/11/03 01:00:31  5-MIN KMKG 110600Z 27015G21KT 10SM FEW008 BKN013 OVC019 17/17 A2961 920 96 1400 270/15G21 RMK AO2
14840KMKG MKG20030711010511607/11/03 01:05:31  5-MIN KMKG 110605Z 27014G21KT 10SM FEW008 BKN013 OVC019 17/16 A2961 920 93 1400 270/14G21 RMK AO2
14840KMKG MKG20030711011010907/11/03 01:10:31  5-MIN KMKG 110610Z 27015G21KT 10SM FEW008 OVC016 17/16 A2961 920 93 1400 270/15G21 RMK AO2
14840KMKG MKG20030711011510907/11/03 01:15:31  5-MIN KMKG 110615Z 27015G21KT 10SM BKN013 OVC019 17/16 A2960 920 93 1400 270/15G21 RMK AO2
14840KMKG MKG20030711012010907/11/03 01:20:31  5-MIN KMKG 110620Z 27017G21KT 10SM BKN014 OVC019 17/16 A2960 920 93 1400 280/17G21 RMK AO2
14840KMKG MKG20030711012510207/11/03 01:25:31  5-MIN KMKG 110625Z 27016G23KT 10SM OVC014 17/15 A2961 920 87 1400 270/16G23 RMK AO2
14840KMKG MKG20030711013010207/11/03 01:30:31  5-MIN KMKG 110630Z 27014G23KT 10SM OVC014 17/16 A2961 920 90 1400 270/14G23 RMK AO2
14840KMKG MKG20030711013510907/11/03 01:35:31  5-MIN KMKG 110635Z 27014G22KT 10SM BKN014 OVC020 17/16 A2960 920 93 1400 280/14G22 RMK AO2
14840KMKG MKG20030711014010907/11/03 01:40:31  5-MIN KMKG 110640Z 28016G24KT 10SM BKN014 OVC020 17/16 A2960 930 93 1400 280/16G24 RMK AO2
14840KMKG MKG20030711014510907/11/03 01:45:31  5-MIN KMKG 110645Z 28014G24KT 10SM BKN014 OVC020 17/16 A2960 920 93 1400 280/14G24 RMK AO2
14840KMKG MKG20030711015012607/11/03 01:50:31  5-MIN KMKG 110650Z 27013G21KT 10SM BKN014 OVC020 17/16 A2960 930 93 1400 280/13G21 RMK AO2 SLP021 T01720161
14840KMKG MKG20030711015512607/11/03 01:55:31  5-MIN KMKG 110655Z 28014G23KT 10SM BKN014 OVC020 17/16 A2960 930 93 1400 280/14G23 RMK AO2 SLP021 T01720161
14840KMKG MKG20030711020010207/11/03 02:00:31  5-MIN KMKG 110700Z 28016G23KT 10SM OVC014 17/16 A2960 930 93 1400 280/16G23 RMK AO2
14840KMKG MKG20030711020510207/11/03 02:05:31  5-MIN KMKG 110705Z 28017G23KT 10SM OVC014 17/16 A2960 930 90 1400 280/17G23 RMK AO2
14840KMKG MKG20030711021010207/11/03 02:10:31  5-MIN KMKG 110710Z 27017G22KT 10SM OVC014 17/16 A2960 930 90 1400 280/17G22 RMK AO2
14840KMKG MKG20030711021510207/11/03 02:15:31  5-MIN KMKG 110715Z 28018G24KT 10SM OVC014 17/16 A2960 930 90 1400 280/18G24 RMK AO2
14840KMKG MKG20030711022010207/11/03 02:20:31  5-MIN KMKG 110720Z 27017G24KT 10SM OVC013 17/16 A2960 930 90 1400 280/17G24 RMK AO2
14840KMKG MKG20030711022510207/11/03 02:25:31  5-MIN KMKG 110725Z 28017G23KT 10SM OVC013 17/16 A2960 930 93 1400 280/17G23 RMK AO2
14840KMKG MKG20030711023010207/11/03 02:30:31  5-MIN KMKG 110730Z 29014G23KT 10SM OVC013 17/16 A2960 930 93 1400 290/14G23 RMK AO2
14840KMKG MKG20030711023511807/11/03 02:35:31  5-MIN KMKG 110735Z 28016G23KT 10SM -RA OVC013 17/16 A2959 930 93 1500 280/16G23 RMK AO2 RAB31 P0000
14840KMKG MKG20030711024011807/11/03 02:40:31  5-MIN KMKG 110740Z 28017G24KT 10SM -RA OVC011 17/16 A2959 930 93 1500 280/17G24 RMK AO2 RAB31 P0000
14840KMKG MKG20030711024511707/11/03 02:45:31  5-MIN KMKG 110745Z 29016G24KT 10SM OVC011 17/16 A2959 930 93 1500 290/16G24 RMK AO2 RAB31E43 P0000
14840KMKG MKG20030711025013407/11/03 02:50:31  5-MIN KMKG 110750Z 29017G23KT 10SM OVC011 17/16 A2959 940 93 1500 290/17G23 RMK AO2 RAB31E43 SLP017 P0000 T01720161
14840KMKG MKG20030711025514107/11/03 02:55:31  5-MIN KMKG 110755Z 28015G23KT 10SM BKN011 OVC029 17/16 A2960 930 93 1400 290/15G23 RMK AO2 RAB31E43 SLP020 P0000 T01720161
14840KMKG MKG20030711030010207/11/03 03:00:31  5-MIN KMKG 110800Z 28017G23KT 10SM OVC011 17/16 A2959 930 93 1500 280/17G23 RMK AO2
14840KMKG MKG20030711030512707/11/03 03:05:31  5-MIN KMKG 110805Z 29014G27KT 10SM BKN011 OVC016 17/16 A2959 930 93 1500 290/14G27 RMK AO2 PK WND 30027/0805
14840KMKG MKG20030711031012707/11/03 03:10:31  5-MIN KMKG 110810Z 30014G27KT 10SM BKN011 OVC030 17/16 A2959 940 90 1500 300/14G27 RMK AO2 PK WND 30027/0805
14840KMKG MKG20030711031513407/11/03 03:15:31  5-MIN KMKG 110815Z 30013G25KT 10SM BKN011 BKN016 OVC030 17/16 A2960 930 90 1400 300/13G25 RMK AO2 PK WND 30027/0805
14840KMKG MKG20030711032013407/11/03 03:20:31  5-MIN KMKG 110820Z 30014G20KT 10SM SCT011 BKN014 OVC022 17/16 A2959 940 90 1500 300/14G20 RMK AO2 PK WND 30027/0805
14840KMKG MKG20030711032514907/11/03 03:25:31  5-MIN KMKG 110825Z 29013G20KT 10SM SCT011 BKN019 OVC029 17/16 A2960 930 90 1400 300/13G20 RMK AO2 PK WND 30027/0805 CIG 014 RWY 14
14840KMKG MKG20030711033013407/11/03 03:30:31  5-MIN KMKG 110830Z 30012G22KT 10SM BKN013 BKN022 OVC029 17/16 A2959 930 90 1500 300/12G22 RMK AO2 PK WND 30027/0805
14840KMKG MKG20030711033514907/11/03 03:35:31  5-MIN KMKG 110835Z 29014G22KT 10SM SCT013 BKN020 OVC029 17/15 A2960 930 87 1400 300/14G22 RMK AO2 PK WND 30027/0805 CIG 015 RWY 14
14840KMKG MKG20030711034012707/11/03 03:40:31  5-MIN KMKG 110840Z 29017G22KT 10SM BKN013 OVC024 17/15 A2960 930 87 1400 300/17G22 RMK AO2 PK WND 30027/0805
14840KMKG MKG20030711034513407/11/03 03:45:31  5-MIN KMKG 110845Z 29019G24KT 10SM SCT013 BKN024 OVC060 17/15 A2960 930 87 1400 300/19G24 RMK AO2 PK WND 30027/0805
14840KMKG MKG20030711035016307/11/03 03:50:31  5-MIN KMKG 110850Z 30015G24KT 10SM SCT015 BKN024 OVC065 17/14 A2960 930 83 1400 300/15G24 RMK AO2 PK WND 30027/0805 SLP020 60000 T01720144 56016
14840KMKG MKG20030711035516307/11/03 03:55:31  5-MIN KMKG 110855Z 30015G24KT 10SM BKN015 BKN027 OVC070 17/14 A2959 930 86 1400 300/15G24 RMK AO2 PK WND 30027/0805 SLP019 60000 T01670144 56006
14840KMKG MKG20030711040011607/11/03 04:00:31  5-MIN KMKG 110900Z 30018G21KT 10SM BKN017 BKN026 OVC065 17/14 A2960 930 86 1400 300/18G21 RMK AO2
14840KMKG MKG20030711040511607/11/03 04:05:31  5-MIN KMKG 110905Z 30014G21KT 10SM BKN017 BKN026 OVC065 17/14 A2960 930 86 1400 300/14G21 RMK AO2
14840KMKG MKG20030711041010907/11/03 04:10:31  5-MIN KMKG 110910Z 30015G21KT 10SM BKN017 OVC065 17/14 A2960 930 86 1400 300/15G21 RMK AO2
14840KMKG MKG20030711041511607/11/03 04:15:31  5-MIN KMKG 110915Z 29015G22KT 10SM BKN017 BKN023 OVC070 17/14 A2960 930 86 1400 300/15G22 RMK AO2
14840KMKG MKG20030711042010907/11/03 04:20:31  5-MIN KMKG 110920Z 30016G23KT 10SM BKN017 OVC023 17/14 A2960 930 86 1400 300/16G23 RMK AO2
14840KMKG MKG20030711042510907/11/03 04:25:31  5-MIN KMKG 110925Z 29017G24KT 10SM BKN015 OVC021 17/14 A2960 930 86 1400 300/17G24 RMK AO2
14840KMKG MKG20030711043010907/11/03 04:30:31  5-MIN KMKG 110930Z 29018G24KT 10SM BKN017 OVC021 17/14 A2961 920 83 1400 300/18G24 RMK AO2
14840KMKG MKG20030711043510907/11/03 04:35:31  5-MIN KMKG 110935Z 29015G24KT 10SM BKN017 OVC021 17/14 A2961 920 83 1400 300/15G24 RMK AO2
14840KMKG MKG20030711044010907/11/03 04:40:31  5-MIN KMKG 110940Z 29014G20KT 10SM BKN017 OVC021 17/14 A2961 920 83 1400 290/14G20 RMK AO2
14840KMKG MKG20030711044510907/11/03 04:45:31  5-MIN KMKG 110945Z 28013G20KT 10SM BKN017 OVC021 17/14 A2961 920 83 1400 280/13G20 RMK AO2
14840KMKG MKG20030711045012607/11/03 04:50:31  5-MIN KMKG 110950Z 28016G23KT 10SM BKN017 OVC023 16/14 A2961 920 90 1300 290/16G23 RMK AO2 SLP023 T01610144
14840KMKG MKG20030711045512607/11/03 04:55:31  5-MIN KMKG 110955Z 28016G24KT 10SM BKN017 BKN023 16/14 A2961 920 90 1300 290/16G24 RMK AO2 SLP024 T01610144
14840KMKG MKG20030711050010207/11/03 05:00:31  5-MIN KMKG 111000Z 28015G24KT 10SM OVC017 16/14 A2961 920 86 1300 280/15G24 RMK AO2
14840KMKG MKG20030711050510207/11/03 05:05:31  5-MIN KMKG 111005Z 28015G22KT 10SM OVC017 16/14 A2961 920 86 1300 280/15G22 RMK AO2
14840KMKG MKG20030711051010207/11/03 05:10:31  5-MIN KMKG 111010Z 27016G22KT 10SM OVC015 16/14 A2961 910 86 1300 280/16G22 RMK AO2
14840KMKG MKG20030711051510207/11/03 05:15:31  5-MIN KMKG 111015Z 28017G22KT 10SM OVC015 16/14 A2961 920 86 1300 280/17G22 RMK AO2
14840KMKG MKG20030711052010207/11/03 05:20:31  5-MIN KMKG 111020Z 27017G22KT 10SM OVC015 16/14 A2962 910 86 1300 280/17G22 RMK AO2
14840KMKG MKG20030711052510907/11/03 05:25:31  5-MIN KMKG 111025Z 27016G22KT 10SM BKN015 OVC042 16/14 A2961 910 86 1300 280/16G22 RMK AO2
14840KMKG MKG20030711053012707/11/03 05:30:31  5-MIN KMKG 111030Z 28014G26KT 10SM BKN015 OVC042 16/14 A2961 920 86 1300 280/14G26 RMK AO2 PK WND 28026/1026
14840KMKG MKG20030711053512707/11/03 05:35:31  5-MIN KMKG 111035Z 27018G26KT 10SM BKN015 OVC042 16/14 A2962 910 86 1300 270/18G26 RMK AO2 PK WND 28026/1026
14840KMKG MKG20030711054012707/11/03 05:40:31  5-MIN KMKG 111040Z 27018G24KT 10SM BKN015 OVC040 16/14 A2962 910 86 1300 280/18G24 RMK AO2 PK WND 28026/1026
14840KMKG MKG20030711054512707/11/03 05:45:31  5-MIN KMKG 111045Z 26017G27KT 10SM SCT015 BKN040 16/14 A2963 900 86 1300 270/17G27 RMK AO2 PK WND 29027/1043
14840KMKG MKG20030711055014407/11/03 05:50:31  5-MIN KMKG 111050Z 27020G27KT 10SM SCT015 BKN040 16/13 A2963 900 83 1300 280/20G27 RMK AO2 PK WND 27027/1047 SLP031 T01610133
14840KMKG MKG20030711055514407/11/03 05:55:31  5-MIN KMKG 111055Z 27014G27KT 10SM FEW015 BKN040 16/13 A2963 900 83 1300 270/14G27 RMK AO2 PK WND 27027/1047 SLP031 T01610133
14840KMKG MKG20030711060013107/11/03 06:00:31  5-MIN KMKG 111100Z 27019G26KT 10SM FEW017 SCT027 OVC038 16/13 A2963 900 83 1300 280/19G26 RMK AO2 CIG 028 RWY 14
14840KMKG MKG20030711060511607/11/03 06:05:31  5-MIN KMKG 111105Z 27016G25KT 10SM FEW017 BKN027 OVC038 16/13 A2963 900 83 1300 270/16G25 RMK AO2
14840KMKG MKG20030711061011607/11/03 06:10:31  5-MIN KMKG 111110Z 27019G25KT 10SM FEW017 BKN027 BKN038 16/13 A2963 900 83 1300 270/19G25 RMK AO2
14840KMKG MKG20030711061511607/11/03 06:15:31  5-MIN KMKG 111115Z 27017G25KT 10SM FEW019 BKN027 OVC041 16/13 A2964 890 83 1300 270/17G25 RMK AO2
14840KMKG MKG20030711062010907/11/03 06:20:31  5-MIN KMKG 111120Z 27016G23KT 10SM FEW019 OVC027 16/13 A2964 890 83 1300 270/16G23 RMK AO2
14840KMKG MKG20030711062512407/11/03 06:25:31  5-MIN KMKG 111125Z 27019G24KT 10SM SCT020 OVC026 16/13 A2963 900 83 1300 270/19G24 RMK AO2 CIG 021 RWY 14
14840KMKG MKG20030711063010207/11/03 06:30:31  5-MIN KMKG 111130Z 27017G24KT 10SM OVC024 16/13 A2963 900 83 1300 270/17G24 RMK AO2
14840KMKG MKG20030711063510907/11/03 06:35:31  5-MIN KMKG 111135Z 27018G23KT 10SM BKN021 OVC026 16/13 A2964 900 83 1300 270/18G23 RMK AO2
14840KMKG MKG20030711064010907/11/03 06:40:31  5-MIN KMKG 111140Z 27014G23KT 10SM BKN021 OVC026 16/13 A2964 900 83 1300 270/14G23 RMK AO2
14840KMKG MKG20030711064512007/11/03 06:45:31  5-MIN KMKG 111145Z 27020G28KT 10SM OVC021 16/13 A2964 890 83 1300 270/20G28 RMK AO2 PK WND 27028/1145
14840KMKG MKG20030711065016707/11/03 06:50:31  5-MIN KMKG 111150Z 27018G28KT 10SM OVC021 16/13 A2964 890 83 1300 280/18G28 RMK AO2 PK WND 27028/1145 SLP034 60000 70061 T01610133 10172 20161 56006
14840KMKG MKG20030711065516707/11/03 06:55:31  5-MIN KMKG 111155Z 28021G27KT 10SM OVC021 16/13 A2964 890 83 1300 280/21G27 RMK AO2 PK WND 27028/1145 SLP034 60000 70061 T01610133 10172 20161 51014
14840KMKG MKG20030711070012007/11/03 07:00:31  5-MIN KMKG 111200Z 28018G27KT 10SM OVC021 16/13 A2964 890 83 1300 280/18G27 RMK AO2 PK WND 27026/1158
14840KMKG MKG20030711070512007/11/03 07:05:31  5-MIN KMKG 111205Z 28019G27KT 10SM OVC021 16/13 A2964 890 83 1300 280/19G27 RMK AO2 PK WND 27027/1204
14840KMKG MKG20030711071012707/11/03 07:10:31  5-MIN KMKG 111210Z 27017G27KT 10SM BKN019 OVC024 16/13 A2964 890 83 1300 280/17G27 RMK AO2 PK WND 27027/1204
14840KMKG MKG20030711071512007/11/03 07:15:31  5-MIN KMKG 111215Z 28014G23KT 10SM OVC022 16/13 A2964 890 83 1300 280/14G23 RMK AO2 PK WND 27027/1204
14840KMKG MKG20030711072012707/11/03 07:20:31  5-MIN KMKG 111220Z 28017G23KT 10SM FEW018 OVC022 16/13 A2964 890 83 1300 280/17G23 RMK AO2 PK WND 27027/1204
14840KMKG MKG20030711072512707/11/03 07:25:31  5-MIN KMKG 111225Z 27016G24KT 10SM FEW018 OVC022 16/13 A2964 890 83 1300 280/16G24 RMK AO2 PK WND 27027/1204
14840KMKG MKG20030711073012007/11/03 07:30:31  5-MIN KMKG 111230Z 28014G24KT 10SM OVC022 16/13 A2965 880 83 1300 280/14G24 RMK AO2 PK WND 27027/1204
14840KMKG MKG20030711073512007/11/03 07:35:31  5-MIN KMKG 111235Z 27015G23KT 10SM OVC022 16/13 A2965 880 83 1300 280/15G23 RMK AO2 PK WND 27027/1204
14840KMKG MKG20030711074012007/11/03 07:40:31  5-MIN KMKG 111240Z 29018G23KT 10SM OVC022 16/13 A2965 880 83 1300 290/18G23 RMK AO2 PK WND 27027/1204
14840KMKG MKG20030711074514207/11/03 07:45:31  5-MIN KMKG 111245Z 28018G26KT 7SM -RA SCT018 OVC023 16/13 A2966 880 83 1300 280/18G26 RMK AO2 PK WND 27027/1204 RAB45 P0000
14840KMKG MKG20030711075015507/11/03 07:50:31  5-MIN KMKG 111250Z 28018G26KT 4SM -RA BR OVC018 16/13 A2966 870 86 1200 280/18G26 RMK AO2 PK WND 27027/1204 RAB45 SLP042 P0000 T01560133
14840KMKG MKG20030711075515507/11/03 07:55:31  5-MIN KMKG 111255Z 28017G29KT 4SM -RA BR OVC018 16/13 A2966 870 86 1200 290/17G29 RMK AO2 PK WND 26029/1251 RAB45 SLP043 P0000 T01560133
14840KMKG MKG20030711080011107/11/03 08:00:31  5-MIN KMKG 111300Z 29018G29KT 8SM -RA OVC018 16/13 A2966 870 86 1200 290/18G29 RMK AO2 P0000
14840KMKG MKG20030711080513907/11/03 08:05:31  5-MIN KMKG 111305Z 29018G26KT 10SM BKN018 OVC023 16/13 A2966 870 86 1200 290/18G26 RMK AO2 PK WND 28026/1303 RAE05 P0000
14840KMKG MKG20030711081013907/11/03 08:10:31  5-MIN KMKG 111310Z 28017G26KT 10SM BKN018 OVC023 16/13 A2966 870 86 1200 290/17G26 RMK AO2 PK WND 28026/1303 RAE05 P0000
14840KMKG MKG20030711081513807/11/03 08:15:31  5-MIN KMKG 111315Z 28020G27KT 9SM BKN018 OVC022 16/13 A2967 870 86 1200 290/20G27 RMK AO2 PK WND 28027/1313 RAE05 P0000
14840KMKG MKG20030711082013107/11/03 08:20:31  5-MIN KMKG 111320Z 28017G28KT 9SM OVC018 16/13 A2967 860 86 1200 290/17G28 RMK AO2 PK WND 29028/1316 RAE05 P0000
14840KMKG MKG20030711082513207/11/03 08:25:31  5-MIN KMKG 111325Z 28014G28KT 10SM OVC018 16/13 A2967 860 86 1200 290/14G28 RMK AO2 PK WND 29028/1316 RAE05 P0000
14840KMKG MKG20030711083013207/11/03 08:30:31  5-MIN KMKG 111330Z 28016G24KT 10SM OVC018 16/13 A2967 860 86 1200 290/16G24 RMK AO2 PK WND 29028/1316 RAE05 P0000
14840KMKG MKG20030711083513207/11/03 08:35:31  5-MIN KMKG 111335Z 29020G25KT 10SM OVC018 16/13 A2968 850 86 1200 290/20G25 RMK AO2 PK WND 29028/1316 RAE05 P0000
14840KMKG MKG20030711084013807/11/03 08:40:31  5-MIN KMKG 111340Z 29019G25KT 8SM -RA OVC018 16/13 A2968 860 86 1200 300/19G25 RMK AO2 PK WND 29028/1316 RAE05B39 P0000
14840KMKG MKG20030711084513807/11/03 08:45:31  5-MIN KMKG 111345Z 29018G25KT 9SM -RA OVC018 16/13 A2968 860 86 1200 290/18G25 RMK AO2 PK WND 29028/1316 RAE05B39 P0000
14840KMKG MKG20030711085015507/11/03 08:50:31  5-MIN KMKG 111350Z 29017G31KT 10SM OVC018 16/13 A2968 850 86 1200 300/17G31 RMK AO2 PK WND 29031/1348 RAE05B39E50 SLP049 P0001 T01560133
14840KMKG MKG20030711085515507/11/03 08:55:31  5-MIN KMKG 111355Z 29020G31KT 10SM OVC018 16/13 A2968 850 86 1200 300/20G31 RMK AO2 PK WND 29031/1348 RAE05B39E50 SLP050 P0001 T01560133
14840KMKG MKG20030711090010207/11/03 09:00:31  5-MIN KMKG 111400Z 30018G29KT 10SM OVC018 16/13 A2968 850 80 1200 300/18G29 RMK AO2
14840KMKG MKG20030711090512007/11/03 09:05:31  5-MIN KMKG 111405Z 29022G29KT 10SM OVC018 16/13 A2968 860 80 1200 290/22G29 RMK AO2 PK WND 29029/1405
14840KMKG MKG20030711091012007/11/03 09:10:31  5-MIN KMKG 111410Z 29020G29KT 10SM OVC018 16/13 A2968 850 80 1200 290/20G29 RMK AO2 PK WND 29029/1405
14840KMKG MKG20030711091512007/11/03 09:15:31  5-MIN KMKG 111415Z 29020G30KT 10SM OVC018 16/13 A2969 850 80 1200 300/20G30 RMK AO2 PK WND 30030/1415
14840KMKG MKG20030711092012007/11/03 09:20:31  5-MIN KMKG 111420Z 29019G30KT 10SM OVC018 16/13 A2969 850 80 1200 300/19G30 RMK AO2 PK WND 30030/1415
14840KMKG MKG20030711092512007/11/03 09:25:31  5-MIN KMKG 111425Z 29020G28KT 10SM OVC018 16/13 A2969 850 80 1200 290/20G28 RMK AO2 PK WND 30030/1415
14840KMKG MKG20030711093012007/11/03 09:30:31  5-MIN KMKG 111430Z 29016G27KT 10SM OVC018 16/13 A2969 840 80 1200 290/16G27 RMK AO2 PK WND 30030/1415
14840KMKG MKG20030711093512007/11/03 09:35:31  5-MIN KMKG 111435Z 29021G28KT 10SM OVC018 16/13 A2970 840 80 1200 300/21G28 RMK AO2 PK WND 30030/1415
14840KMKG MKG20030711094012007/11/03 09:40:31  5-MIN KMKG 111440Z 29022G29KT 10SM OVC018 16/13 A2969 840 80 1200 290/22G29 RMK AO2 PK WND 30030/1415
14840KMKG MKG20030711094512007/11/03 09:45:31  5-MIN KMKG 111445Z 29018G29KT 10SM OVC018 16/13 A2969 840 80 1200 290/18G29 RMK AO2 PK WND 30030/1415
14840KMKG MKG20030711095014907/11/03 09:50:31  5-MIN KMKG 111450Z 29020G28KT 10SM OVC018 16/13 A2970 840 80 1200 300/20G28 RMK AO2 PK WND 30030/1415 SLP055 60001 T01610128 51014
14840KMKG MKG20030711095514907/11/03 09:55:31  5-MIN KMKG 111455Z 29016G25KT 10SM OVC018 16/13 A2970 830 83 1200 300/16G25 RMK AO2 PK WND 30030/1415 SLP056 60001 T01610133 51021
14840KMKG MKG20030711100012007/11/03 10:00:31  5-MIN KMKG 111500Z 29018G29KT 10SM OVC018 16/13 A2970 830 80 1200 300/18G29 RMK AO2 PK WND 29029/1456
14840KMKG MKG20030711100512007/11/03 10:05:31  5-MIN KMKG 111505Z 30018G29KT 10SM OVC018 16/13 A2971 830 83 1200 300/18G29 RMK AO2 PK WND 29029/1456
14840KMKG MKG20030711101012007/11/03 10:10:31  5-MIN KMKG 111510Z 30014G26KT 10SM OVC018 16/13 A2971 830 83 1200 300/14G26 RMK AO2 PK WND 29029/1456
14840KMKG MKG20030711101512007/11/03 10:15:31  5-MIN KMKG 111515Z 29015G23KT 10SM OVC018 16/13 A2971 820 83 1200 290/15G23 RMK AO2 PK WND 29029/1456
14840KMKG MKG20030711102012007/11/03 10:20:31  5-MIN KMKG 111520Z 29015G23KT 10SM OVC016 16/13 A2971 820 83 1200 300/15G23 RMK AO2 PK WND 29029/1456
14840KMKG MKG20030711102512007/11/03 10:25:31  5-MIN KMKG 111525Z 30016G21KT 10SM OVC016 16/13 A2971 820 83 1200 300/16G21 RMK AO2 PK WND 29029/1456
14840KMKG MKG20030711103012007/11/03 10:30:31  5-MIN KMKG 111530Z 30016G26KT 10SM OVC016 16/13 A2972 820 83 1200 300/16G26 RMK AO2 PK WND 29029/1456
14840KMKG MKG20030711103512007/11/03 10:35:31  5-MIN KMKG 111535Z 30013G26KT 10SM OVC016 17/13 A2972 820 80 1200 310/13G26 RMK AO2 PK WND 29029/1456
14840KMKG MKG20030711104012007/11/03 10:40:31  5-MIN KMKG 111540Z 30015G22KT 10SM OVC018 17/13 A2973 810 80 1200 310/15G22 RMK AO2 PK WND 29029/1456
14840KMKG MKG20030711104512707/11/03 10:45:31  5-MIN KMKG 111545Z 30018G24KT 10SM BKN018 OVC022 17/13 A2973 810 80 1200 300/18G24 RMK AO2 PK WND 29029/1456
14840KMKG MKG20030711105014407/11/03 10:50:31  5-MIN KMKG 111550Z 29020G27KT 10SM BKN018 OVC023 17/13 A2973 810 80 1200 290/20G27 RMK AO2 PK WND 29029/1456 SLP065 T01670133
14840KMKG MKG20030711105514407/11/03 10:55:31  5-MIN KMKG 111555Z 29016G27KT 10SM BKN018 OVC025 17/13 A2973 810 78 1300 300/16G27 RMK AO2 PK WND 29029/1456 SLP066 T01720133
14840KMKG MKG20030711110012707/11/03 11:00:31  5-MIN KMKG 111600Z 30020G26KT 10SM BKN018 OVC025 17/13 A2973 800 78 1300 300/20G26 RMK AO2 PK WND 30026/1559
14840KMKG MKG20030711110512707/11/03 11:05:31  5-MIN KMKG 111605Z 29016G26KT 10SM BKN018 OVC025 17/13 A2973 800 80 1200 300/16G26 RMK AO2 PK WND 30026/1559
14840KMKG MKG20030711111012707/11/03 11:10:31  5-MIN KMKG 111610Z 29017G25KT 10SM BKN018 OVC025 17/13 A2974 800 80 1200 290/17G25 RMK AO2 PK WND 30026/1559
14840KMKG MKG20030711111514907/11/03 11:15:31  5-MIN KMKG 111615Z 30014G25KT 10SM SCT018 BKN023 OVC065 17/13 A2974 800 78 1300 300/14G25 RMK AO2 PK WND 30026/1559 CIG 017 RWY 14
14840KMKG MKG20030711112014907/11/03 11:20:31  5-MIN KMKG 111620Z 30019G24KT 10SM SCT018 BKN026 OVC065 18/13 A2974 800 75 1400 300/19G24 RMK AO2 PK WND 30026/1559 CIG 017 RWY 14
14840KMKG MKG20030711112514907/11/03 11:25:31  5-MIN KMKG 111625Z 30015G24KT 10SM SCT018 BKN026 BKN065 18/13 A2973 800 72 1400 300/15G24 RMK AO2 PK WND 30026/1559 CIG 017 RWY 14
14840KMKG MKG20030711113014907/11/03 11:30:31  5-MIN KMKG 111630Z 29018G23KT 10SM SCT018 BKN026 BKN065 18/13 A2975 790 75 1300 300/18G23 RMK AO2 PK WND 30026/1559 CIG 019 RWY 14
14840KMKG MKG20030711113514907/11/03 11:35:31  5-MIN KMKG 111635Z 29015G23KT 10SM SCT018 BKN026 OVC065 18/13 A2974 790 75 1300 290/15G23 RMK AO2 PK WND 30026/1559 CIG 019 RWY 14
14840KMKG MKG20030711114014907/11/03 11:40:31  5-MIN KMKG 111640Z 29018G25KT 10SM SCT018 BKN026 OVC065 18/14 A2975 790 78 1300 290/18G25 RMK AO2 PK WND 30026/1559 CIG 019 RWY 14
14840KMKG MKG20030711114512707/11/03 11:45:31  5-MIN KMKG 111645Z 29017G26KT 10SM SCT018 OVC028 18/13 A2975 790 75 1300 300/17G26 RMK AO2 PK WND 29026/1642
14840KMKG MKG20030711115014407/11/03 11:50:31  5-MIN KMKG 111650Z 29016G26KT 10SM SCT018 OVC028 18/13 A2974 800 75 1300 290/16G26 RMK AO2 PK WND 29026/1642 SLP069 T01780133
14840KMKG MKG20030711115514407/11/03 11:55:31  5-MIN KMKG 111655Z 29020G25KT 10SM SCT018 OVC028 18/13 A2975 790 75 1300 300/20G25 RMK AO2 PK WND 29026/1642 SLP072 T01780133
14840KMKG MKG20030711120010907/11/03 12:00:31  5-MIN KMKG 111700Z 29018G25KT 10SM SCT018 OVC028 17/13 A2975 790 78 1300 300/18G25 RMK AO2
14840KMKG MKG20030711120510907/11/03 12:05:31  5-MIN KMKG 111705Z 29016G25KT 10SM FEW018 OVC028 17/13 A2975 790 78 1300 300/16G25 RMK AO2
14840KMKG MKG20030711121010907/11/03 12:10:31  5-MIN KMKG 111710Z 29014G25KT 10SM FEW018 OVC027 17/13 A2976 780 78 1300 300/14G25 RMK AO2
14840KMKG MKG20030711121510907/11/03 12:15:31  5-MIN KMKG 111715Z 29016G24KT 10SM BKN024 OVC030 17/13 A2976 780 80 1200 290/16G24 RMK AO2
14840KMKG MKG20030711122010207/11/03 12:20:31  5-MIN KMKG 111720Z 29014G23KT 10SM OVC024 17/13 A2976 780 78 1300 290/14G23 RMK AO2
14840KMKG MKG20030711122510207/11/03 12:25:31  5-MIN KMKG 111725Z 29017G23KT 10SM OVC024 17/13 A2976 780 78 1300 290/17G23 RMK AO2
14840KMKG MKG20030711123010207/11/03 12:30:31  5-MIN KMKG 111730Z 29013G21KT 10SM OVC024 17/13 A2976 780 78 1300 290/13G21 RMK AO2
14840KMKG MKG20030711123509607/11/03 12:35:31  5-MIN KMKG 111735Z 29013KT 10SM OVC026 18/13 A2976 770 75 1300 290/13 RMK AO2
14840KMKG MKG20030711124009607/11/03 12:40:31  5-MIN KMKG 111740Z 28016KT 10SM OVC026 18/13 A2977 770 75 1300 290/16 RMK AO2
14840KMKG MKG20030711124510907/11/03 12:45:31  5-MIN KMKG 111745Z 30017G24KT 10SM BKN026 OVC050 18/13 A2977 770 75 1300 300/17G24 RMK AO2
14840KMKG MKG20030711125015007/11/03 12:50:31  5-MIN KMKG 111750Z 30013G24KT 10SM BKN026 OVC050 18/13 A2977 770 75 1300 300/13G24 RMK AO2 SLP079 60001 T01780133 10183 20156 51021
14840KMKG MKG20030711125516507/11/03 12:55:31  5-MIN KMKG 111755Z 29015G20KT 10SM SCT026 OVC050 17/13 A2977 770 78 1200 300/15G20 RMK AO2 CIG 025 RWY 14 SLP079 60001 T01720133 10183 20156 51023
14840KMKG MKG20030711130011607/11/03 13:00:31  5-MIN KMKG 111800Z 29015G21KT 10SM SCT026 SCT038 OVC050 17/13 A2977 770 78 1200 300/15G21 RMK AO2
14840KMKG MKG20030711130510907/11/03 13:05:31  5-MIN KMKG 111805Z 29017G21KT 10SM FEW026 OVC050 18/13 A2977 770 75 1300 290/17G21 RMK AO2
14840KMKG MKG20030711131010907/11/03 13:10:31  5-MIN KMKG 111810Z 30015G21KT 10SM FEW026 OVC050 18/13 A2977 770 75 1300 300/15G21 RMK AO2
14840KMKG MKG20030711131510907/11/03 13:15:31  5-MIN KMKG 111815Z 30014G21KT 10SM FEW040 OVC050 17/13 A2977 770 78 1200 300/14G21 RMK AO2
14840KMKG MKG20030711132011607/11/03 13:20:31  5-MIN KMKG 111820Z 30015G19KT 10SM FEW042 BKN050 OVC065 17/13 A2977 770 78 1200 300/15G19 RMK AO2
14840KMKG MKG20030711132511607/11/03 13:25:31  5-MIN KMKG 111825Z 29011G20KT 10SM FEW039 BKN050 OVC065 17/14 A2977 770 80 1200 290/11G20 RMK AO2
14840KMKG MKG20030711133011007/11/03 13:30:31  5-MIN KMKG 111830Z 29018KT 10SM FEW042 BKN050 OVC065 18/13 A2977 770 75 1300 300/18 RMK AO2
14840KMKG MKG20030711133510907/11/03 13:35:31  5-MIN KMKG 111835Z 29015G22KT 10SM SCT048 OVC070 18/13 A2978 760 75 1300 290/15G22 RMK AO2
14840KMKG MKG20030711134010907/11/03 13:40:31  5-MIN KMKG 111840Z 29015G22KT 10SM FEW043 OVC070 18/14 A2978 760 78 1300 290/15G22 RMK AO2
14840KMKG MKG20030711134510907/11/03 13:45:31  5-MIN KMKG 111845Z 29012G19KT 10SM FEW050 OVC070 18/13 A2978 760 75 1300 290/12G19 RMK AO2
14840KMKG MKG20030711135011307/11/03 13:50:31  5-MIN KMKG 111850Z 29014KT 10SM OVC070 18/13 A2978 760 72 1400 290/14 RMK AO2 SLP083 T01830133
14840KMKG MKG20030711135511307/11/03 13:55:31  5-MIN KMKG 111855Z 29011KT 10SM OVC075 18/13 A2978 760 72 1400 300/11 RMK AO2 SLP083 T01830133
14840KMKG MKG20030711140010207/11/03 14:00:31  5-MIN KMKG 111900Z 29014G19KT 10SM OVC075 18/13 A2978 760 72 1400 290/14G19 RMK AO2
14840KMKG MKG20030711140510207/11/03 14:05:31  5-MIN KMKG 111905Z 29013G19KT 10SM OVC075 18/13 A2978 760 72 1400 290/13G19 RMK AO2
14840KMKG MKG20030711141010207/11/03 14:10:31  5-MIN KMKG 111910Z 30013G19KT 10SM OVC075 18/13 A2978 760 72 1400 300/13G19 RMK AO2
14840KMKG MKG20030711141510207/11/03 14:15:31  5-MIN KMKG 111915Z 29012G19KT 10SM OVC075 18/13 A2978 760 72 1400 290/12G19 RMK AO2
14840KMKG MKG20030711142010307/11/03 14:20:31  5-MIN KMKG 111920Z 28014KT 10SM SCT020 OVC075 18/13 A2978 760 72 1400 290/14 RMK AO2
14840KMKG MKG20030711142510907/11/03 14:25:31  5-MIN KMKG 111925Z 29014G20KT 10SM SCT020 OVC075 18/13 A2978 760 72 1400 300/14G20 RMK AO2
14840KMKG MKG20030711143010907/11/03 14:30:31  5-MIN KMKG 111930Z 30013G20KT 10SM SCT020 OVC075 18/13 A2978 760 72 1400 300/13G20 RMK AO2
14840KMKG MKG20030711143510907/11/03 14:35:31  5-MIN KMKG 111935Z 30011G18KT 10SM SCT020 OVC075 18/13 A2978 760 72 1400 300/11G18 RMK AO2
14840KMKG MKG20030711144010307/11/03 14:40:31  5-MIN KMKG 111940Z 29012KT 10SM SCT020 OVC075 18/13 A2978 760 72 1400 300/12 RMK AO2
14840KMKG MKG20030711144510307/11/03 14:45:31  5-MIN KMKG 111945Z 30012KT 10SM SCT020 OVC080 18/13 A2978 760 72 1400 310/12 RMK AO2
14840KMKG MKG20030711145012007/11/03 14:50:31  5-MIN KMKG 111950Z 30013KT 10SM SCT020 OVC080 18/13 A2979 750 72 1400 300/13 RMK AO2 SLP085 T01830133
14840KMKG MKG20030711145512607/11/03 14:55:31  5-MIN KMKG 111955Z 30010G18KT 10SM SCT020 OVC080 18/13 A2979 750 72 1400 310/10G18 RMK AO2 SLP086 T01830133
14840KMKG MKG20030711150010907/11/03 15:00:31  5-MIN KMKG 112000Z 31011G18KT 10SM FEW020 BKN075 18/13 A2979 750 72 1400 310/11G18 RMK AO2
14840KMKG MKG20030711150510907/11/03 15:05:31  5-MIN KMKG 112005Z 31011G18KT 10SM FEW020 BKN075 18/13 A2979 750 72 1400 320/11G18 RMK AO2
14840KMKG MKG20030711151010307/11/03 15:10:31  5-MIN KMKG 112010Z 30010KT 10SM FEW020 BKN075 19/13 A2979 750 70 1400 310/10 RMK AO2
14840KMKG MKG20030711151510907/11/03 15:15:31  5-MIN KMKG 112015Z 31012G19KT 10SM FEW020 BKN075 19/13 A2979 750 70 1400 320/12G19 RMK AO2
14840KMKG MKG20030711152010907/11/03 15:20:31  5-MIN KMKG 112020Z 30010G19KT 10SM FEW020 BKN075 19/13 A2979 760 70 1400 300/10G19 RMK AO2
14840KMKG MKG20030711152510307/11/03 15:25:31  5-MIN KMKG 112025Z 30009KT 10SM FEW020 BKN075 19/13 A2979 750 70 1400 300/09 RMK AO2
14840KMKG MKG20030711153011907/11/03 15:30:31  5-MIN KMKG 112030Z 30010KT 270V330 10SM FEW020 BKN070 19/13 A2979 750 70 1400 310/10 270V330 RMK AO2
14840KMKG MKG20030711153510307/11/03 15:35:31  5-MIN KMKG 112035Z 30010KT 10SM FEW020 BKN070 19/13 A2979 750 70 1400 300/10 RMK AO2
14840KMKG MKG20030711154010307/11/03 15:40:31  5-MIN KMKG 112040Z 30010KT 10SM FEW020 BKN070 18/13 A2979 750 72 1400 300/10 RMK AO2
14840KMKG MKG20030711154510307/11/03 15:45:31  5-MIN KMKG 112045Z 31008KT 10SM FEW020 BKN070 19/13 A2979 750 70 1400 310/08 RMK AO2
14840KMKG MKG20030711155012607/11/03 15:50:31  5-MIN KMKG 112050Z 31010KT 10SM FEW020 BKN065 19/13 A2979 750 70 1400 310/10 RMK AO2 SLP087 T01890133 51023
14840KMKG MKG20030711155512607/11/03 15:55:31  5-MIN KMKG 112055Z 31009KT 10SM FEW020 BKN065 19/13 A2979 750 70 1400 310/09 RMK AO2 SLP087 T01890133 51007
14840KMKG MKG20030711160010307/11/03 16:00:31  5-MIN KMKG 112100Z 30008KT 10SM FEW020 BKN060 18/14 A2979 750 75 1400 310/08 RMK AO2
14840KMKG MKG20030711160510307/11/03 16:05:31  5-MIN KMKG 112105Z 31009KT 10SM FEW020 BKN060 18/13 A2979 750 72 1400 320/09 RMK AO2
14840KMKG MKG20030711161010307/11/03 16:10:31  5-MIN KMKG 112110Z 30008KT 10SM FEW020 BKN060 18/13 A2980 750 72 1300 300/08 RMK AO2
14840KMKG MKG20030711161510307/11/03 16:15:31  5-MIN KMKG 112115Z 29009KT 10SM FEW020 BKN060 18/13 A2980 740 72 1300 300/09 RMK AO2
14840KMKG MKG20030711162010307/11/03 16:20:31  5-MIN KMKG 112120Z 29009KT 10SM FEW020 BKN065 18/13 A2980 740 72 1300 290/09 RMK AO2
14840KMKG MKG20030711162510307/11/03 16:25:31  5-MIN KMKG 112125Z 30008KT 10SM FEW020 BKN065 19/13 A2980 750 70 1400 300/08 RMK AO2
14840KMKG MKG20030711163010307/11/03 16:30:31  5-MIN KMKG 112130Z 29008KT 10SM FEW020 BKN065 19/13 A2980 750 70 1400 290/08 RMK AO2
14840KMKG MKG20030711163511907/11/03 16:35:31  5-MIN KMKG 112135Z 30007KT 250V320 10SM FEW020 BKN065 19/13 A2980 750 70 1400 300/07 250V320 RMK AO2
14840KMKG MKG20030711164009607/11/03 16:40:31  5-MIN KMKG 112140Z 31010KT 10SM BKN070 19/13 A2979 750 65 1500 320/10 RMK AO2
14840KMKG MKG20030711164509607/11/03 16:45:31  5-MIN KMKG 112145Z 31009KT 10SM BKN070 19/13 A2980 750 67 1400 320/09 RMK AO2
14840KMKG MKG20030711165011307/11/03 16:50:31  5-MIN KMKG 112150Z 30008KT 10SM BKN070 19/13 A2980 740 67 1400 310/08 RMK AO2 SLP089 T01890128
14840KMKG MKG20030711165511307/11/03 16:55:31  5-MIN KMKG 112155Z 30006KT 10SM BKN075 19/13 A2980 740 70 1400 300/06 RMK AO2 SLP089 T01890133
14840KMKG MKG20030711170009607/11/03 17:00:31  5-MIN KMKG 112200Z 28006KT 10SM BKN070 19/13 A2980 740 70 1400 280/06 RMK AO2
14840KMKG MKG20030711170509607/11/03 17:05:31  5-MIN KMKG 112205Z 28008KT 10SM BKN070 19/13 A2980 740 70 1400 290/08 RMK AO2
14840KMKG MKG20030711171009607/11/03 17:10:31  5-MIN KMKG 112210Z 28009KT 10SM BKN070 19/14 A2980 740 72 1400 290/09 RMK AO2
14840KMKG MKG20030711171509607/11/03 17:15:31  5-MIN KMKG 112215Z 28008KT 10SM BKN070 19/14 A2980 740 72 1400 290/08 RMK AO2
14840KMKG MKG20030711172009607/11/03 17:20:31  5-MIN KMKG 112220Z 27008KT 10SM BKN070 18/14 A2980 740 75 1300 280/08 RMK AO2
14840KMKG MKG20030711172509607/11/03 17:25:31  5-MIN KMKG 112225Z 28006KT 10SM BKN070 19/14 A2980 740 72 1400 280/06 RMK AO2
14840KMKG MKG20030711173010307/11/03 17:30:31  5-MIN KMKG 112230Z 29006KT 10SM FEW049 BKN065 19/14 A2980 740 72 1400 290/06 RMK AO2
14840KMKG MKG20030711173510307/11/03 17:35:31  5-MIN KMKG 112235Z 26007KT 10SM FEW049 BKN060 19/14 A2980 740 75 1400 270/07 RMK AO2
14840KMKG MKG20030711174010307/11/03 17:40:31  5-MIN KMKG 112240Z 27007KT 10SM FEW049 BKN060 18/14 A2980 740 78 1300 280/07 RMK AO2
14840KMKG MKG20030711174510307/11/03 17:45:31  5-MIN KMKG 112245Z 27008KT 10SM FEW049 BKN060 18/14 A2980 740 78 1300 270/08 RMK AO2
14840KMKG MKG20030711175012007/11/03 17:50:31  5-MIN KMKG 112250Z 26008KT 10SM FEW049 BKN060 18/14 A2980 740 78 1300 270/08 RMK AO2 SLP090 T01830144
14840KMKG MKG20030711175512007/11/03 17:55:31  5-MIN KMKG 112255Z 25007KT 10SM FEW049 BKN060 18/14 A2980 740 75 1300 250/07 RMK AO2 SLP090 T01830139
14840KMKG MKG20030711180010307/11/03 18:00:31  5-MIN KMKG 112300Z 27007KT 10SM FEW049 BKN060 18/14 A2980 740 78 1300 280/07 RMK AO2
14840KMKG MKG20030711180510307/11/03 18:05:31  5-MIN KMKG 112305Z 25008KT 10SM FEW049 BKN060 18/14 A2980 740 78 1300 250/08 RMK AO2
14840KMKG MKG20030711181010307/11/03 18:10:31  5-MIN KMKG 112310Z 26007KT 10SM FEW049 BKN060 18/14 A2980 740 78 1300 260/07 RMK AO2
14840KMKG MKG20030711181510307/11/03 18:15:31  5-MIN KMKG 112315Z 26006KT 10SM FEW049 BKN060 18/14 A2980 740 78 1300 260/06 RMK AO2
14840KMKG MKG20030711182010307/11/03 18:20:31  5-MIN KMKG 112320Z 26007KT 10SM BKN060 BKN075 18/14 A2981 740 78 1300 270/07 RMK AO2
14840KMKG MKG20030711182511007/11/03 18:25:31  5-MIN KMKG 112325Z 26007KT 10SM FEW050 SCT060 BKN075 18/14 A2981 740 81 1300 260/07 RMK AO2
14840KMKG MKG20030711183011007/11/03 18:30:31  5-MIN KMKG 112330Z 26008KT 10SM FEW049 SCT060 BKN075 18/14 A2981 740 75 1300 270/08 RMK AO2
14840KMKG MKG20030711183511007/11/03 18:35:31  5-MIN KMKG 112335Z 27007KT 10SM FEW049 SCT060 BKN075 18/14 A2981 740 78 1300 270/07 RMK AO2
14840KMKG MKG20030711184011007/11/03 18:40:31  5-MIN KMKG 112340Z 28006KT 10SM FEW049 SCT060 SCT080 18/14 A2981 740 78 1300 280/06 RMK AO2
14840KMKG MKG20030711184510307/11/03 18:45:31  5-MIN KMKG 112345Z 28005KT 10SM FEW049 BKN080 18/14 A2981 740 78 1300 280/05 RMK AO2
14840KMKG MKG20030711185013807/11/03 18:50:31  5-MIN KMKG 112350Z 28006KT 10SM SCT049 BKN080 18/14 A2981 730 78 1300 290/06 RMK AO2 SLP093 T01780139 10194 20172 51007
14840KMKG MKG20030711185513807/11/03 18:55:31  5-MIN KMKG 112355Z 28004KT 10SM SCT049 BKN080 18/14 A2981 730 78 1300 280/04 RMK AO2 SLP093 T01780139 10194 20172 53006
14840KMKG MKG20030711190010307/11/03 19:00:31  5-MIN KMKG 120000Z 27004KT 10SM FEW047 BKN085 18/14 A2981 730 78 1300 280/04 RMK AO2
14840KMKG MKG20030711190510307/11/03 19:05:31  5-MIN KMKG 120005Z 28005KT 10SM FEW047 BKN085 18/14 A2981 730 78 1300 280/05 RMK AO2
14840KMKG MKG20030711191010307/11/03 19:10:31  5-MIN KMKG 120010Z 28004KT 10SM FEW047 BKN085 18/13 A2981 730 75 1300 280/04 RMK AO2
14840KMKG MKG20030711191510307/11/03 19:15:31  5-MIN KMKG 120015Z 29004KT 10SM FEW047 BKN085 18/14 A2981 730 78 1300 290/04 RMK AO2
14840KMKG MKG20030711192010307/11/03 19:20:31  5-MIN KMKG 120020Z 26003KT 10SM FEW047 BKN085 18/14 A2981 730 78 1300 270/03 RMK AO2
14840KMKG MKG20030711192510307/11/03 19:25:31  5-MIN KMKG 120025Z 26005KT 10SM BKN045 BKN085 18/14 A2982 730 78 1300 270/05 RMK AO2
14840KMKG MKG20030711193010307/11/03 19:30:31  5-MIN KMKG 120030Z 26006KT 10SM BKN045 BKN085 18/14 A2982 730 78 1300 270/06 RMK AO2
14840KMKG MKG20030711193510307/11/03 19:35:31  5-MIN KMKG 120035Z 26004KT 10SM BKN045 BKN085 17/14 A2981 730 80 1200 260/04 RMK AO2
14840KMKG MKG20030711194011007/11/03 19:40:31  5-MIN KMKG 120040Z 27005KT 10SM SCT043 BKN055 BKN095 17/14 A2982 730 80 1200 280/05 RMK AO2
14840KMKG MKG20030711194511007/11/03 19:45:31  5-MIN KMKG 120045Z 27004KT 10SM SCT043 BKN055 BKN095 18/14 A2981 730 78 1300 280/04 RMK AO2
14840KMKG MKG20030711195012707/11/03 19:50:31  5-MIN KMKG 120050Z 28004KT 10SM SCT045 SCT055 BKN090 17/14 A2982 730 80 1200 280/04 RMK AO2 SLP096 T01720139
14840KMKG MKG20030711195512707/11/03 19:55:31  5-MIN KMKG 120055Z 27004KT 10SM SCT045 SCT055 BKN090 17/14 A2982 730 80 1200 270/04 RMK AO2 SLP097 T01720139
14840KMKG MKG20030711200010307/11/03 20:00:31  5-MIN KMKG 120100Z 27004KT 10SM FEW048 BKN090 17/14 A2982 720 80 1200 270/04 RMK AO2
14840KMKG MKG20030711200510307/11/03 20:05:31  5-MIN KMKG 120105Z 25003KT 10SM FEW048 BKN090 17/14 A2982 720 80 1200 250/03 RMK AO2
14840KMKG MKG20030711201010307/11/03 20:10:31  5-MIN KMKG 120110Z 00000KT 10SM FEW048 SCT090 17/14 A2982 730 80 1200 000/00 RMK AO2
14840KMKG MKG20030711201510307/11/03 20:15:31  5-MIN KMKG 120115Z 00000KT 10SM FEW045 SCT090 17/14 A2982 720 83 1200 000/00 RMK AO2
14840KMKG MKG20030711202010307/11/03 20:20:31  5-MIN KMKG 120120Z 00000KT 10SM FEW050 SCT090 17/14 A2982 720 83 1200 000/00 RMK AO2
14840KMKG MKG20030711202510307/11/03 20:25:31  5-MIN KMKG 120125Z 00000KT 10SM FEW050 SCT090 17/14 A2982 720 83 1200 000/00 RMK AO2
14840KMKG MKG20030711203010307/11/03 20:30:31  5-MIN KMKG 120130Z 00000KT 10SM FEW050 SCT090 17/14 A2982 720 83 1200 000/00 RMK AO2
14840KMKG MKG20030711203510307/11/03 20:35:31  5-MIN KMKG 120135Z 00000KT 10SM FEW050 SCT090 17/14 A2982 730 86 1100 000/00 RMK AO2
14840KMKG MKG20030711211009607/11/03 21:10:31  5-MIN KMKG 120210Z 00000KT 10SM FEW095 16/14 A2983 710 93 1000 000/00 RMK AO2
14840KMKG MKG20030711211509607/11/03 21:15:31  5-MIN KMKG 120215Z 21003KT 10SM FEW095 16/14 A2984 710 93 1000 220/03 RMK AO2
14840KMKG MKG20030711212009507/11/03 21:20:31  5-MIN KMKG 120220Z 21003KT 10SM FEW095 15/14 A2984 700 96 900 210/03 RMK AO2
14840KMKG MKG20030711212509507/11/03 21:25:31  5-MIN KMKG 120225Z 21004KT 10SM FEW095 14/14 A2985 700 96 800 220/04 RMK AO2
14840KMKG MKG20030711213009507/11/03 21:30:31  5-MIN KMKG 120230Z 22005KT 10SM FEW095 14/14 A2985 700 96 800 220/05 RMK AO2
14840KMKG MKG20030711213509607/11/03 21:35:31  5-MIN KMKG 120235Z 22004KT 10SM BKN055 14/14 A2985 700 100 800 230/04 RMK AO2
14840KMKG MKG20030711214009507/11/03 21:40:31  5-MIN KMKG 120240Z 22003KT 10SM BKN050 15/14 A2985 700 96 900 230/03 RMK AO2
14840KMKG MKG20030711214510207/11/03 21:45:31  5-MIN KMKG 120245Z 00000KT 10SM BKN055 BKN090 15/14 A2985 700 96 900 000/00 RMK AO2
14840KMKG MKG20030711215012507/11/03 21:50:31  5-MIN KMKG 120250Z 00000KT 10SM BKN055 BKN090 15/14 A2985 690 96 900 000/00 RMK AO2 SLP108 T01500144 53006
14840KMKG MKG20030711215512507/11/03 21:55:31  5-MIN KMKG 120255Z 00000KT 10SM BKN055 BKN090 15/14 A2985 690 96 900 000/00 RMK AO2 SLP108 T01500144 53014
14840KMKG MKG20030711220010307/11/03 22:00:31  5-MIN KMKG 120300Z 00000KT 10SM BKN050 BKN060 16/14 A2985 690 93 1000 000/00 RMK AO2
14840KMKG MKG20030711220510307/11/03 22:05:31  5-MIN KMKG 120305Z 33004KT 10SM BKN050 BKN060 16/14 A2985 690 90 1000 330/04 RMK AO2
14840KMKG MKG20030711221010307/11/03 22:10:31  5-MIN KMKG 120310Z 32005KT 10SM BKN050 BKN060 16/14 A2986 690 90 1000 330/05 RMK AO2
14840KMKG MKG20030711221510307/11/03 22:15:31  5-MIN KMKG 120315Z 36005KT 10SM BKN050 BKN060 17/15 A2986 690 90 1100 010/05 RMK AO2
14840KMKG MKG20030711222010307/11/03 22:20:31  5-MIN KMKG 120320Z 36004KT 10SM BKN050 BKN060 17/15 A2986 680 90 1100 360/04 RMK AO2
14840KMKG MKG20030711222510307/11/03 22:25:31  5-MIN KMKG 120325Z 35004KT 10SM BKN050 BKN060 17/15 A2986 680 90 1100 360/04 RMK AO2
14840KMKG MKG20030711223010307/11/03 22:30:31  5-MIN KMKG 120330Z 00000KT 10SM BKN050 BKN060 17/15 A2986 680 90 1100 000/00 RMK AO2
14840KMKG MKG20030711223510307/11/03 22:35:31  5-MIN KMKG 120335Z 25003KT 10SM BKN050 BKN060 17/15 A2986 690 90 1100 260/03 RMK AO2
14840KMKG MKG20030711224010307/11/03 22:40:31  5-MIN KMKG 120340Z 26003KT 10SM BKN050 BKN060 17/15 A2986 690 90 1100 260/03 RMK AO2
14840KMKG MKG20030711224510307/11/03 22:45:31  5-MIN KMKG 120345Z 25004KT 10SM BKN050 BKN060 16/15 A2986 690 93 1000 250/04 RMK AO2
14840KMKG MKG20030711225012007/11/03 22:50:31  5-MIN KMKG 120350Z 27004KT 10SM BKN050 BKN060 16/15 A2986 690 93 1000 270/04 RMK AO2 SLP111 T01610150
14840KMKG MKG20030711225512007/11/03 22:55:31  5-MIN KMKG 120355Z 28003KT 10SM BKN050 BKN060 16/14 A2986 690 90 1000 280/03 RMK AO2 SLP111 T01610144
14840KMKG MKG20030711230009607/11/03 23:00:31  5-MIN KMKG 120400Z 28003KT 10SM SCT055 16/14 A2986 690 90 1000 280/03 RMK AO2
14840KMKG MKG20030711230510307/11/03 23:05:31  5-MIN KMKG 120405Z 29003KT 10SM FEW047 SCT055 16/14 A2986 680 90 1000 290/03 RMK AO2
14840KMKG MKG20030711231009607/11/03 23:10:31  5-MIN KMKG 120410Z 30003KT 10SM BKN049 16/14 A2986 680 90 1000 300/03 RMK AO2
14840KMKG MKG20030711231509607/11/03 23:15:31  5-MIN KMKG 120415Z 30003KT 10SM BKN049 17/15 A2986 680 90 1100 300/03 RMK AO2
14840KMKG MKG20030711232009607/11/03 23:20:31  5-MIN KMKG 120420Z 30005KT 10SM BKN047 17/15 A2986 680 90 1100 300/05 RMK AO2
14840KMKG MKG20030711232509607/11/03 23:25:31  5-MIN KMKG 120425Z 29004KT 10SM BKN047 17/15 A2986 680 90 1100 300/04 RMK AO2
14840KMKG MKG20030711233009607/11/03 23:30:31  5-MIN KMKG 120430Z 27004KT 10SM OVC047 17/15 A2986 680 90 1100 280/04 RMK AO2
14840KMKG MKG20030711233509607/11/03 23:35:31  5-MIN KMKG 120435Z 27004KT 10SM OVC049 17/14 A2986 680 86 1100 280/04 RMK AO2
14840KMKG MKG20030711234009607/11/03 23:40:31  5-MIN KMKG 120440Z 27005KT 10SM BKN049 16/14 A2986 680 90 1000 270/05 RMK AO2
14840KMKG MKG20030711234509607/11/03 23:45:31  5-MIN KMKG 120445Z 28005KT 10SM BKN049 16/14 A2986 680 90 1000 290/05 RMK AO2
14840KMKG MKG20030711235012307/11/03 23:50:31  5-MIN KMKG 120450Z 30007KT 10SM SCT049 17/14 A2986 680 86 1100 300/07 RMK AO2 SLP112 T01670144 401940144
14840KMKG MKG20030711235512307/11/03 23:55:31  5-MIN KMKG 120455Z 28007KT 10SM SCT049 17/14 A2987 680 83 1100 290/07 RMK AO2 SLP112 T01670139 401940144
14840KMKG MKG20030712000009607/12/03 00:00:31  5-MIN KMKG 120500Z 28006KT 10SM FEW049 16/14 A2987 680 86 1000 280/06 RMK AO2
14840KMKG MKG20030712000509307/12/03 00:05:31  5-MIN KMKG 120505Z 29009KT 10SM CLR 16/14 A2987 680 86 1000 290/09 RMK AO2
14840KMKG MKG20030712001009307/12/03 00:10:31  5-MIN KMKG 120510Z 30008KT 10SM CLR 17/13 A2987 680 80 1100 300/08 RMK AO2
14840KMKG MKG20030712001509307/12/03 00:15:31  5-MIN KMKG 120515Z 29006KT 10SM CLR 17/13 A2987 680 77 1100 290/06 RMK AO2
14840KMKG MKG20030712002009307/12/03 00:20:31  5-MIN KMKG 120520Z 29006KT 10SM CLR 17/13 A2987 680 77 1100 300/06 RMK AO2
14840KMKG MKG20030712002509307/12/03 00:25:31  5-MIN KMKG 120525Z 31006KT 10SM CLR 17/13 A2987 680 77 1100 310/06 RMK AO2
14840KMKG MKG20030712003009307/12/03 00:30:31  5-MIN KMKG 120530Z 31007KT 10SM CLR 17/13 A2987 680 77 1100 310/07 RMK AO2
14840KMKG MKG20030712003509307/12/03 00:35:31  5-MIN KMKG 120535Z 29005KT 10SM CLR 17/13 A2987 680 77 1100 290/05 RMK AO2
14840KMKG MKG20030712004009307/12/03 00:40:31  5-MIN KMKG 120540Z 28005KT 10SM CLR 16/13 A2987 680 80 1000 290/05 RMK AO2
14840KMKG MKG20030712004509307/12/03 00:45:31  5-MIN KMKG 120545Z 29005KT 10SM CLR 16/12 A2987 680 77 1000 300/05 RMK AO2
14840KMKG MKG20030712005012807/12/03 00:50:31  5-MIN KMKG 120550Z 30005KT 10SM CLR 16/12 A2987 680 77 1000 300/05 RMK AO2 SLP112 T01610122 10178 20144 53014
14840KMKG MKG20030712005512807/12/03 00:55:31  5-MIN KMKG 120555Z 30004KT 10SM CLR 16/12 A2987 680 77 1000 310/04 RMK AO2 SLP113 T01610122 10178 20144 51004
14840KMKG MKG20030712010009307/12/03 01:00:31  5-MIN KMKG 120600Z 30004KT 10SM CLR 17/12 A2987 680 75 1100 310/04 RMK AO2
14840KMKG MKG20030712010509307/12/03 01:05:31  5-MIN KMKG 120605Z 31004KT 10SM CLR 17/12 A2987 680 75 1100 310/04 RMK AO2
14840KMKG MKG20030712011009307/12/03 01:10:31  5-MIN KMKG 120610Z 27004KT 10SM CLR 16/12 A2987 680 77 1000 280/04 RMK AO2
14840KMKG MKG20030712011509207/12/03 01:15:31  5-MIN KMKG 120615Z 26005KT 10SM CLR 16/12 A2987 680 80 900 270/05 RMK AO2
14840KMKG MKG20030712012009207/12/03 01:20:31  5-MIN KMKG 120620Z 27004KT 10SM CLR 16/12 A2987 680 80 900 270/04 RMK AO2
14840KMKG MKG20030712012509207/12/03 01:25:31  5-MIN KMKG 120625Z 27004KT 10SM CLR 16/12 A2987 680 77 900 280/04 RMK AO2
14840KMKG MKG20030712013009207/12/03 01:30:31  5-MIN KMKG 120630Z 28005KT 10SM CLR 16/12 A2987 680 80 900 280/05 RMK AO2
14840KMKG MKG20030712013509207/12/03 01:35:31  5-MIN KMKG 120635Z 28004KT 10SM CLR 16/12 A2987 680 80 900 290/04 RMK AO2
14840KMKG MKG20030712014009207/12/03 01:40:31  5-MIN KMKG 120640Z 28004KT 10SM CLR 16/12 A2987 680 80 900 280/04 RMK AO2
14840KMKG MKG20030712014509207/12/03 01:45:31  5-MIN KMKG 120645Z 28005KT 10SM CLR 16/12 A2987 680 80 900 290/05 RMK AO2
14840KMKG MKG20030712015010907/12/03 01:50:31  5-MIN KMKG 120650Z 28004KT 10SM CLR 16/12 A2987 680 80 900 290/04 RMK AO2 SLP113 T01560122
14840KMKG MKG20030712015510907/12/03 01:55:31  5-MIN KMKG 120655Z 29004KT 10SM CLR 16/12 A2987 680 80 900 290/04 RMK AO2 SLP113 T01560122
14840KMKG MKG20030712020009507/12/03 02:00:31  5-MIN KMKG 120700Z 27004KT 10SM FEW110 16/12 A2987 680 80 900 270/04 RMK AO2
14840KMKG MKG20030712020509507/12/03 02:05:31  5-MIN KMKG 120705Z 27004KT 10SM SCT110 16/12 A2987 680 80 900 280/04 RMK AO2
14840KMKG MKG20030712021009507/12/03 02:10:31  5-MIN KMKG 120710Z 28004KT 10SM FEW110 16/12 A2987 680 80 900 280/04 RMK AO2
14840KMKG MKG20030712021509507/12/03 02:15:31  5-MIN KMKG 120715Z 27004KT 10SM FEW110 16/12 A2987 670 80 900 270/04 RMK AO2
14840KMKG MKG20030712022009507/12/03 02:20:31  5-MIN KMKG 120720Z 27004KT 10SM FEW110 16/12 A2988 670 80 900 270/04 RMK AO2
14840KMKG MKG20030712022509507/12/03 02:25:31  5-MIN KMKG 120725Z 26004KT 10SM FEW110 15/12 A2988 670 83 900 270/04 RMK AO2
14840KMKG MKG20030712023009507/12/03 02:30:31  5-MIN KMKG 120730Z 27004KT 10SM FEW110 16/12 A2988 670 80 900 270/04 RMK AO2
14840KMKG MKG20030712023509207/12/03 02:35:31  5-MIN KMKG 120735Z 27004KT 10SM CLR 16/12 A2987 670 80 900 270/04 RMK AO2
14840KMKG MKG20030712024009207/12/03 02:40:31  5-MIN KMKG 120740Z 27004KT 10SM CLR 15/12 A2987 670 83 900 270/04 RMK AO2
14840KMKG MKG20030712024509207/12/03 02:45:31  5-MIN KMKG 120745Z 27004KT 10SM CLR 15/12 A2987 680 83 900 270/04 RMK AO2
14840KMKG MKG20030712025010907/12/03 02:50:31  5-MIN KMKG 120750Z 27005KT 10SM CLR 16/12 A2987 680 80 900 270/05 RMK AO2 SLP113 T01560122
14840KMKG MKG20030712025510907/12/03 02:55:31  5-MIN KMKG 120755Z 26005KT 10SM CLR 16/13 A2987 680 83 900 260/05 RMK AO2 SLP114 T01560128
14840KMKG MKG20030712030009207/12/03 03:00:31  5-MIN KMKG 120800Z 26004KT 10SM CLR 16/13 A2987 680 83 900 270/04 RMK AO2
14840KMKG MKG20030712030509207/12/03 03:05:31  5-MIN KMKG 120805Z 26005KT 10SM CLR 16/13 A2987 680 83 900 270/05 RMK AO2
14840KMKG MKG20030712031009207/12/03 03:10:31  5-MIN KMKG 120810Z 27005KT 10SM CLR 16/13 A2987 680 83 900 270/05 RMK AO2
14840KMKG MKG20030712031509207/12/03 03:15:31  5-MIN KMKG 120815Z 28004KT 10SM CLR 16/13 A2987 670 83 900 290/04 RMK AO2
14840KMKG MKG20030712032009207/12/03 03:20:31  5-MIN KMKG 120820Z 28004KT 10SM CLR 16/13 A2987 670 83 900 280/04 RMK AO2
14840KMKG MKG20030712032509207/12/03 03:25:31  5-MIN KMKG 120825Z 27004KT 10SM CLR 16/13 A2987 670 83 900 280/04 RMK AO2
14840KMKG MKG20030712033009507/12/03 03:30:31  5-MIN KMKG 120830Z 28003KT 10SM FEW110 16/13 A2987 670 83 900 290/03 RMK AO2
14840KMKG MKG20030712033509507/12/03 03:35:31  5-MIN KMKG 120835Z 29004KT 10SM SCT110 16/13 A2987 670 83 900 290/04 RMK AO2
14840KMKG MKG20030712034009607/12/03 03:40:31  5-MIN KMKG 120840Z 29003KT 10SM FEW120 16/13 A2987 670 80 1000 290/03 RMK AO2
14840KMKG MKG20030712034509607/12/03 03:45:31  5-MIN KMKG 120845Z 29003KT 10SM FEW110 16/13 A2987 670 80 1000 290/03 RMK AO2
14840KMKG MKG20030712035011807/12/03 03:50:31  5-MIN KMKG 120850Z 00000KT 10SM FEW110 16/13 A2988 670 83 900 000/00 RMK AO2 SLP115 T01560128 51004
14840KMKG MKG20030712035511807/12/03 03:55:31  5-MIN KMKG 120855Z 27003KT 10SM FEW120 16/13 A2988 670 83 900 270/03 RMK AO2 SLP116 T01560128 53004
14840KMKG MKG20030712040009207/12/03 04:00:31  5-MIN KMKG 120900Z 26003KT 10SM CLR 16/13 A2988 670 83 900 270/03 RMK AO2
14840KMKG MKG20030712040509207/12/03 04:05:31  5-MIN KMKG 120905Z 27003KT 10SM CLR 16/12 A2988 670 80 900 280/03 RMK AO2
14840KMKG MKG20030712041009207/12/03 04:10:31  5-MIN KMKG 120910Z 28004KT 10SM CLR 16/12 A2988 670 80 900 290/04 RMK AO2
14840KMKG MKG20030712041509307/12/03 04:15:31  5-MIN KMKG 120915Z 29004KT 10SM CLR 16/13 A2988 670 80 1000 290/04 RMK AO2
14840KMKG MKG20030712042009307/12/03 04:20:31  5-MIN KMKG 120920Z 28006KT 10SM CLR 16/13 A2988 670 80 1000 290/06 RMK AO2
14840KMKG MKG20030712042509307/12/03 04:25:31  5-MIN KMKG 120925Z 28006KT 10SM CLR 17/13 A2988 670 77 1100 280/06 RMK AO2
14840KMKG MKG20030712043009607/12/03 04:30:31  5-MIN KMKG 120930Z 28007KT 10SM FEW120 17/13 A2988 670 77 1100 280/07 RMK AO2
14840KMKG MKG20030712043509607/12/03 04:35:31  5-MIN KMKG 120935Z 28006KT 10SM FEW120 17/13 A2988 660 77 1100 290/06 RMK AO2
14840KMKG MKG20030712044009607/12/03 04:40:31  5-MIN KMKG 120940Z 29006KT 10SM SCT120 17/13 A2988 660 77 1100 290/06 RMK AO2
14840KMKG MKG20030712044509607/12/03 04:45:31  5-MIN KMKG 120945Z 28007KT 10SM SCT120 17/13 A2988 660 77 1100 290/07 RMK AO2
14840KMKG MKG20030712045011307/12/03 04:50:31  5-MIN KMKG 120950Z 27006KT 10SM FEW120 17/13 A2989 660 77 1100 280/06 RMK AO2 SLP118 T01670128
14840KMKG MKG20030712045511307/12/03 04:55:31  5-MIN KMKG 120955Z 27006KT 10SM FEW120 16/13 A2989 660 80 1000 270/06 RMK AO2 SLP119 T01610128
14840KMKG MKG20030712050009607/12/03 05:00:31  5-MIN KMKG 121000Z 27006KT 10SM FEW110 17/13 A2989 660 77 1000 270/06 RMK AO2
14840KMKG MKG20030712050509607/12/03 05:05:31  5-MIN KMKG 121005Z 27006KT 10SM FEW110 17/13 A2989 660 80 1000 270/06 RMK AO2
14840KMKG MKG20030712051009307/12/03 05:10:31  5-MIN KMKG 121010Z 28007KT 10SM CLR 16/13 A2989 660 83 1000 280/07 RMK AO2
14840KMKG MKG20030712051509607/12/03 05:15:31  5-MIN KMKG 121015Z 28007KT 10SM FEW110 17/13 A2989 650 80 1000 280/07 RMK AO2
14840KMKG MKG20030712052009607/12/03 05:20:31  5-MIN KMKG 121020Z 28008KT 10SM SCT110 17/13 A2990 650 80 1000 290/08 RMK AO2
14840KMKG MKG20030712052509607/12/03 05:25:31  5-MIN KMKG 121025Z 29007KT 10SM BKN110 17/13 A2990 650 80 1000 290/07 RMK AO2
14840KMKG MKG20030712053009607/12/03 05:30:31  5-MIN KMKG 121030Z 29006KT 10SM BKN110 17/13 A2990 650 80 1000 290/06 RMK AO2
14840KMKG MKG20030712053509607/12/03 05:35:31  5-MIN KMKG 121035Z 29007KT 10SM BKN110 17/13 A2990 650 80 1000 290/07 RMK AO2
14840KMKG MKG20030712054009607/12/03 05:40:31  5-MIN KMKG 121040Z 29006KT 10SM OVC110 17/13 A2990 650 80 1000 290/06 RMK AO2
14840KMKG MKG20030712054509607/12/03 05:45:31  5-MIN KMKG 121045Z 28007KT 10SM OVC110 17/13 A2990 650 80 1000 290/07 RMK AO2
14840KMKG MKG20030712055011307/12/03 05:50:31  5-MIN KMKG 121050Z 29006KT 10SM OVC110 17/13 A2990 650 78 1100 300/06 RMK AO2 SLP124 T01720133
14840KMKG MKG20030712055511307/12/03 05:55:31  5-MIN KMKG 121055Z 31007KT 10SM BKN110 17/13 A2990 650 78 1100 310/07 RMK AO2 SLP125 T01720133
14840KMKG MKG20030712060009607/12/03 06:00:31  5-MIN KMKG 121100Z 30006KT 10SM BKN120 17/13 A2990 650 78 1100 300/06 RMK AO2
14840KMKG MKG20030712060511207/12/03 06:05:31  5-MIN KMKG 121105Z 30007KT 280V340 10SM BKN120 17/13 A2990 650 78 1100 310/07 280V340 RMK AO2
14840KMKG MKG20030712061009607/12/03 06:10:31  5-MIN KMKG 121110Z 30006KT 10SM BKN120 17/13 A2990 650 78 1100 310/06 RMK AO2
14840KMKG MKG20030712061509607/12/03 06:15:31  5-MIN KMKG 121115Z 30006KT 10SM SCT120 17/13 A2991 640 78 1100 310/06 RMK AO2
14840KMKG MKG20030712062009607/12/03 06:20:31  5-MIN KMKG 121120Z 29007KT 10SM SCT120 17/13 A2991 640 78 1100 300/07 RMK AO2
14840KMKG MKG20030712062509607/12/03 06:25:31  5-MIN KMKG 121125Z 29007KT 10SM SCT120 17/13 A2991 640 78 1100 290/07 RMK AO2
14840KMKG MKG20030712063009607/12/03 06:30:31  5-MIN KMKG 121130Z 29008KT 10SM SCT120 17/13 A2991 640 78 1100 290/08 RMK AO2
14840KMKG MKG20030712063509607/12/03 06:35:31  5-MIN KMKG 121135Z 29007KT 10SM SCT120 18/14 A2991 640 78 1200 290/07 RMK AO2
14840KMKG MKG20030712064009607/12/03 06:40:31  5-MIN KMKG 121140Z 30006KT 10SM SCT120 18/13 A2991 640 75 1200 300/06 RMK AO2
14840KMKG MKG20030712064509607/12/03 06:45:31  5-MIN KMKG 121145Z 29007KT 10SM SCT120 17/14 A2991 640 80 1100 290/07 RMK AO2
14840KMKG MKG20030712065013707/12/03 06:50:31  5-MIN KMKG 121150Z 29007KT 10SM SCT120 17/14 A2991 640 80 1100 290/07 RMK AO2 SLP127 70001 T01720139 10178 20150 53004
14840KMKG MKG20030712065513707/12/03 06:55:31  5-MIN KMKG 121155Z 28006KT 10SM SCT120 17/14 A2991 640 80 1100 280/06 RMK AO2 SLP128 70001 T01720139 10178 20150 52012
14840KMKG MKG20030712070009607/12/03 07:00:31  5-MIN KMKG 121200Z 29005KT 10SM FEW120 18/14 A2992 630 78 1100 290/05 RMK AO2
14840KMKG MKG20030712070509607/12/03 07:05:31  5-MIN KMKG 121205Z 30006KT 10SM BKN120 17/14 A2992 630 80 1100 310/06 RMK AO2
14840KMKG MKG20030712071009607/12/03 07:10:31  5-MIN KMKG 121210Z 29008KT 10SM BKN120 18/14 A2992 630 78 1100 290/08 RMK AO2
14840KMKG MKG20030712071509607/12/03 07:15:31  5-MIN KMKG 121215Z 29008KT 10SM BKN120 18/14 A2992 630 78 1100 300/08 RMK AO2
14840KMKG MKG20030712072009607/12/03 07:20:31  5-MIN KMKG 121220Z 29010KT 10SM BKN120 18/14 A2992 630 78 1100 290/10 RMK AO2
14840KMKG MKG20030712072509607/12/03 07:25:31  5-MIN KMKG 121225Z 29008KT 10SM BKN120 18/14 A2993 630 78 1100 300/08 RMK AO2
14840KMKG MKG20030712073009607/12/03 07:30:31  5-MIN KMKG 121230Z 29010KT 10SM SCT120 18/14 A2992 630 78 1100 290/10 RMK AO2
14840KMKG MKG20030712073509607/12/03 07:35:31  5-MIN KMKG 121235Z 29008KT 10SM SCT120 18/14 A2993 620 78 1100 290/08 RMK AO2
14840KMKG MKG20030712074009607/12/03 07:40:31  5-MIN KMKG 121240Z 29008KT 10SM SCT120 18/14 A2993 620 78 1100 290/08 RMK AO2
14840KMKG MKG20030712074509607/12/03 07:45:31  5-MIN KMKG 121245Z 31006KT 10SM SCT120 18/14 A2993 620 78 1100 310/06 RMK AO2
14840KMKG MKG20030712075011307/12/03 07:50:31  5-MIN KMKG 121250Z 31007KT 10SM SCT120 18/14 A2993 620 75 1200 320/07 RMK AO2 SLP134 T01830139
14840KMKG MKG20030712075511307/12/03 07:55:31  5-MIN KMKG 121255Z 31006KT 10SM SCT120 18/14 A2994 620 75 1200 310/06 RMK AO2 SLP136 T01830139
14840KMKG MKG20030712080009307/12/03 08:00:31  5-MIN KMKG 121300Z 29007KT 10SM CLR 18/14 A2994 610 75 1200 290/07 RMK AO2
14840KMKG MKG20030712080509607/12/03 08:05:31  5-MIN KMKG 121305Z 29006KT 10SM FEW120 18/14 A2994 610 75 1200 300/06 RMK AO2
14840KMKG MKG20030712081009607/12/03 08:10:31  5-MIN KMKG 121310Z 29007KT 10SM FEW120 18/14 A2994 610 75 1200 300/07 RMK AO2
14840KMKG MKG20030712081509607/12/03 08:15:31  5-MIN KMKG 121315Z 29006KT 10SM FEW120 18/14 A2994 610 75 1200 290/06 RMK AO2
14840KMKG MKG20030712082009607/12/03 08:20:31  5-MIN KMKG 121320Z 29008KT 10SM FEW120 18/14 A2994 610 75 1200 300/08 RMK AO2
14840KMKG MKG20030712082509607/12/03 08:25:31  5-MIN KMKG 121325Z 30006KT 10SM FEW120 18/14 A2995 610 75 1200 310/06 RMK AO2
14840KMKG MKG20030712083009607/12/03 08:30:31  5-MIN KMKG 121330Z 30007KT 10SM FEW120 19/14 A2995 610 72 1200 310/07 RMK AO2
14840KMKG MKG20030712083509607/12/03 08:35:31  5-MIN KMKG 121335Z 29007KT 10SM FEW120 19/14 A2995 610 72 1200 300/07 RMK AO2
14840KMKG MKG20030712084009607/12/03 08:40:31  5-MIN KMKG 121340Z 28007KT 10SM FEW120 18/14 A2995 610 75 1200 290/07 RMK AO2
14840KMKG MKG20030712084509607/12/03 08:45:31  5-MIN KMKG 121345Z 30007KT 10SM FEW120 19/14 A2995 610 72 1200 310/07 RMK AO2
14840KMKG MKG20030712085011307/12/03 08:50:31  5-MIN KMKG 121350Z 31009KT 10SM FEW120 19/14 A2995 600 72 1200 310/09 RMK AO2 SLP140 T01890139
14840KMKG MKG20030712085511307/12/03 08:55:31  5-MIN KMKG 121355Z 30007KT 10SM FEW120 19/14 A2995 600 70 1300 310/07 RMK AO2 SLP140 T01940139
14840KMKG MKG20030712090009307/12/03 09:00:31  5-MIN KMKG 121400Z 30007KT 10SM CLR 19/14 A2995 600 70 1300 300/07 RMK AO2
14840KMKG MKG20030712090509307/12/03 09:05:31  5-MIN KMKG 121405Z 31008KT 10SM CLR 19/14 A2995 600 70 1300 320/08 RMK AO2
14840KMKG MKG20030712091009307/12/03 09:10:31  5-MIN KMKG 121410Z 31008KT 10SM CLR 19/14 A2996 600 70 1300 320/08 RMK AO2
14840KMKG MKG20030712091509307/12/03 09:15:31  5-MIN KMKG 121415Z 30008KT 10SM CLR 20/14 A2996 600 67 1400 300/08 RMK AO2
14840KMKG MKG20030712092009307/12/03 09:20:31  5-MIN KMKG 121420Z 30007KT 10SM CLR 20/14 A2996 600 67 1400 310/07 RMK AO2
14840KMKG MKG20030712092509307/12/03 09:25:31  5-MIN KMKG 121425Z 30006KT 10SM CLR 20/14 A2995 600 67 1400 310/06 RMK AO2
14840KMKG MKG20030712093009307/12/03 09:30:31  5-MIN KMKG 121430Z 32006KT 10SM CLR 21/14 A2996 600 65 1400 320/06 RMK AO2
14840KMKG MKG20030712093509307/12/03 09:35:31  5-MIN KMKG 121435Z 30007KT 10SM CLR 21/14 A2996 600 65 1400 300/07 RMK AO2
14840KMKG MKG20030712094009307/12/03 09:40:31  5-MIN KMKG 121440Z 30007KT 10SM CLR 21/14 A2996 590 65 1400 300/07 RMK AO2
14840KMKG MKG20030712094509307/12/03 09:45:31  5-MIN KMKG 121445Z 29007KT 10SM CLR 21/14 A2996 590 65 1400 290/07 RMK AO2
14840KMKG MKG20030712095011607/12/03 09:50:31  5-MIN KMKG 121450Z 29005KT 10SM CLR 21/14 A2996 590 65 1400 300/05 RMK AO2 SLP145 T02060139 52012
14840KMKG MKG20030712095511607/12/03 09:55:31  5-MIN KMKG 121455Z 26006KT 10SM CLR 21/14 A2997 590 67 1400 260/06 RMK AO2 SLP146 T02060144 51017
14840KMKG MKG20030712100009307/12/03 10:00:31  5-MIN KMKG 121500Z 25007KT 10SM CLR 20/14 A2997 590 70 1300 250/07 RMK AO2
14840KMKG MKG20030712100509307/12/03 10:05:31  5-MIN KMKG 121505Z 27007KT 10SM CLR 20/14 A2997 590 70 1300 280/07 RMK AO2
14840KMKG MKG20030712101009307/12/03 10:10:31  5-MIN KMKG 121510Z 26006KT 10SM CLR 20/14 A2997 590 70 1300 270/06 RMK AO2
14840KMKG MKG20030712101509307/12/03 10:15:31  5-MIN KMKG 121515Z 25006KT 10SM CLR 19/14 A2997 590 72 1300 260/06 RMK AO2
14840KMKG MKG20030712102009307/12/03 10:20:31  5-MIN KMKG 121520Z VRB05KT 10SM CLR 20/14 A2997 580 70 1300 VRB/05 RMK AO2
14840KMKG MKG20030712102509307/12/03 10:25:31  5-MIN KMKG 121525Z 24007KT 10SM CLR 20/14 A2997 580 70 1300 250/07 RMK AO2
14840KMKG MKG20030712103009307/12/03 10:30:31  5-MIN KMKG 121530Z 26005KT 10SM CLR 20/14 A2997 580 70 1300 260/05 RMK AO2
14840KMKG MKG20030712103509307/12/03 10:35:31  5-MIN KMKG 121535Z VRB06KT 10SM CLR 20/14 A2998 580 70 1300 VRB/06 RMK AO2
14840KMKG MKG20030712104009307/12/03 10:40:31  5-MIN KMKG 121540Z 28005KT 10SM CLR 20/14 A2998 580 70 1300 280/05 RMK AO2
14840KMKG MKG20030712104509307/12/03 10:45:31  5-MIN KMKG 121545Z 26005KT 10SM CLR 20/14 A2998 580 70 1300 260/05 RMK AO2
14840KMKG MKG20030712105011007/12/03 10:50:31  5-MIN KMKG 121550Z 27006KT 10SM CLR 20/14 A2998 580 70 1300 270/06 RMK AO2 SLP150 T02000144
14840KMKG MKG20030712105511007/12/03 10:55:31  5-MIN KMKG 121555Z 23005KT 10SM CLR 20/14 A2998 570 70 1300 240/05 RMK AO2 SLP151 T02000144
14840KMKG MKG20030712110009307/12/03 11:00:31  5-MIN KMKG 121600Z 27006KT 10SM CLR 21/14 A2999 570 67 1400 270/06 RMK AO2
14840KMKG MKG20030712110509307/12/03 11:05:31  5-MIN KMKG 121605Z 27005KT 10SM CLR 20/14 A2999 570 70 1300 270/05 RMK AO2
14840KMKG MKG20030712111009307/12/03 11:10:31  5-MIN KMKG 121610Z 27007KT 10SM CLR 21/15 A2999 570 70 1400 270/07 RMK AO2
14840KMKG MKG20030712111509307/12/03 11:15:31  5-MIN KMKG 121615Z VRB06KT 10SM CLR 21/15 A2999 570 70 1400 VRB/06 RMK AO2
14840KMKG MKG20030712112009307/12/03 11:20:31  5-MIN KMKG 121620Z 24007KT 10SM CLR 20/14 A2999 570 70 1300 250/07 RMK AO2
14840KMKG MKG20030712112509307/12/03 11:25:31  5-MIN KMKG 121625Z 28007KT 10SM CLR 21/15 A2999 570 68 1400 280/07 RMK AO2
14840KMKG MKG20030712113009307/12/03 11:30:31  5-MIN KMKG 121630Z 25008KT 10SM CLR 21/15 A2999 560 68 1400 260/08 RMK AO2
14840KMKG MKG20030712113509307/12/03 11:35:31  5-MIN KMKG 121635Z 27005KT 10SM CLR 21/14 A2999 560 65 1400 270/05 RMK AO2
14840KMKG MKG20030712114009307/12/03 11:40:31  5-MIN KMKG 121640Z 26006KT 10SM CLR 21/14 A2999 560 63 1400 270/06 RMK AO2
14840KMKG MKG20030712114509307/12/03 11:45:31  5-MIN KMKG 121645Z VRB04KT 10SM CLR 21/14 A2999 570 65 1400 VRB/04 RMK AO2
14840KMKG MKG20030712115011007/12/03 11:50:31  5-MIN KMKG 121650Z VRB05KT 10SM CLR 22/14 A2999 570 61 1500 VRB/05 RMK AO2 SLP153 T02170139
14840KMKG MKG20030712115511007/12/03 11:55:31  5-MIN KMKG 121655Z 24005KT 10SM CLR 22/14 A2999 570 63 1500 250/05 RMK AO2 SLP153 T02170144
14840KMKG MKG20030712120009307/12/03 12:00:31  5-MIN KMKG 121700Z VRB04KT 10SM CLR 22/14 A2999 570 59 1600 VRB/04 RMK AO2
14840KMKG MKG20030712120509607/12/03 12:05:31  5-MIN KMKG 121705Z 30005KT 10SM FEW035 22/13 A2999 570 58 1500 300/05 RMK AO2
14840KMKG MKG20030712121009607/12/03 12:10:31  5-MIN KMKG 121710Z 28006KT 10SM FEW035 22/14 A2999 570 59 1600 290/06 RMK AO2
14840KMKG MKG20030712121509607/12/03 12:15:31  5-MIN KMKG 121715Z 28006KT 10SM FEW035 22/14 A2999 570 59 1600 290/06 RMK AO2
14840KMKG MKG20030712122009607/12/03 12:20:31  5-MIN KMKG 121720Z 25006KT 10SM FEW035 22/14 A2999 570 59 1600 250/06 RMK AO2
14840KMKG MKG20030712122509607/12/03 12:25:31  5-MIN KMKG 121725Z 26009KT 10SM FEW035 22/14 A2999 570 59 1600 260/09 RMK AO2
14840KMKG MKG20030712123009607/12/03 12:30:31  5-MIN KMKG 121730Z 25009KT 10SM FEW035 22/13 A2999 570 56 1600 260/09 RMK AO2
14840KMKG MKG20030712123509607/12/03 12:35:31  5-MIN KMKG 121735Z 29009KT 10SM FEW035 22/13 A2999 570 54 1600 290/09 RMK AO2
14840KMKG MKG20030712124009607/12/03 12:40:31  5-MIN KMKG 121740Z 29007KT 10SM FEW035 22/13 A2999 570 56 1600 290/07 RMK AO2
14840KMKG MKG20030712124509607/12/03 12:45:31  5-MIN KMKG 121745Z 26008KT 10SM FEW035 22/14 A2999 560 59 1600 260/08 RMK AO2
14840KMKG MKG20030712125013107/12/03 12:50:31  5-MIN KMKG 121750Z 28009KT 10SM FEW035 22/14 A2999 560 59 1600 290/09 RMK AO2 SLP155 T02220139 10228 20172 51017
14840KMKG MKG20030712125513107/12/03 12:55:31  5-MIN KMKG 121755Z 27008KT 10SM FEW035 22/14 A3000 560 61 1500 280/08 RMK AO2 SLP156 T02170139 10228 20172 51010
14840KMKG MKG20030712130009607/12/03 13:00:31  5-MIN KMKG 121800Z 28008KT 10SM FEW030 22/13 A3000 560 56 1600 290/08 RMK AO2
14840KMKG MKG20030712130509607/12/03 13:05:31  5-MIN KMKG 121805Z 27007KT 10SM FEW030 22/13 A3000 560 58 1500 270/07 RMK AO2
14840KMKG MKG20030712131009607/12/03 13:10:31  5-MIN KMKG 121810Z 27006KT 10SM FEW030 22/13 A3000 560 58 1500 280/06 RMK AO2
14840KMKG MKG20030712131509607/12/03 13:15:31  5-MIN KMKG 121815Z 31006KT 10SM FEW030 22/13 A3000 560 58 1500 320/06 RMK AO2
14840KMKG MKG20030712132009607/12/03 13:20:31  5-MIN KMKG 121820Z VRB06KT 10SM FEW030 23/14 A3000 560 57 1600 VRB/06 RMK AO2
14840KMKG MKG20030712132509607/12/03 13:25:31  5-MIN KMKG 121825Z 31008KT 10SM FEW030 22/13 A3000 560 56 1600 310/08 RMK AO2
14840KMKG MKG20030712133009607/12/03 13:30:31  5-MIN KMKG 121830Z 30009KT 10SM FEW030 22/13 A3000 560 56 1600 300/09 RMK AO2
14840KMKG MKG20030712133509607/12/03 13:35:31  5-MIN KMKG 121835Z 29008KT 10SM FEW030 22/13 A3000 560 56 1600 300/08 RMK AO2
14840KMKG MKG20030712134009607/12/03 13:40:31  5-MIN KMKG 121840Z 30009KT 10SM FEW030 22/13 A3000 560 54 1600 300/09 RMK AO2
14840KMKG MKG20030712134509607/12/03 13:45:31  5-MIN KMKG 121845Z 28011KT 10SM FEW030 22/12 A3000 550 52 1600 290/11 RMK AO2
14840KMKG MKG20030712135011307/12/03 13:50:31  5-MIN KMKG 121850Z 27010KT 10SM FEW030 23/12 A3000 550 51 1600 270/10 RMK AO2 SLP158 T02280122
14840KMKG MKG20030712135511307/12/03 13:55:31  5-MIN KMKG 121855Z 27012KT 10SM FEW030 22/12 A3000 550 52 1600 280/12 RMK AO2 SLP159 T02220122
14840KMKG MKG20030712140009607/12/03 14:00:31  5-MIN KMKG 121900Z 28011KT 10SM FEW030 22/12 A3000 550 52 1600 290/11 RMK AO2
14840KMKG MKG20030712140509607/12/03 14:05:31  5-MIN KMKG 121905Z 30011KT 10SM FEW030 22/12 A3001 550 52 1600 310/11 RMK AO2
14840KMKG MKG20030712141009607/12/03 14:10:31  5-MIN KMKG 121910Z 30010KT 10SM FEW030 22/12 A3001 550 52 1600 300/10 RMK AO2
14840KMKG MKG20030712141509607/12/03 14:15:31  5-MIN KMKG 121915Z 27008KT 10SM FEW030 22/12 A3001 550 52 1600 280/08 RMK AO2
14840KMKG MKG20030712142009607/12/03 14:20:31  5-MIN KMKG 121920Z 28008KT 10SM FEW030 22/13 A3001 550 54 1600 280/08 RMK AO2
14840KMKG MKG20030712142511207/12/03 14:25:31  5-MIN KMKG 121925Z 29008KT 260V330 10SM FEW030 22/12 A3001 550 52 1600 290/08 260V330 RMK AO2
14840KMKG MKG20030712143009607/12/03 14:30:31  5-MIN KMKG 121930Z 28007KT 10SM FEW030 23/13 A3001 550 55 1600 290/07 RMK AO2
14840KMKG MKG20030712143509607/12/03 14:35:31  5-MIN KMKG 121935Z 26011KT 10SM FEW030 23/13 A3001 550 53 1600 260/11 RMK AO2
14840KMKG MKG20030712144009607/12/03 14:40:31  5-MIN KMKG 121940Z 27011KT 10SM FEW030 22/12 A3001 550 52 1600 270/11 RMK AO2
14840KMKG MKG20030712144509607/12/03 14:45:31  5-MIN KMKG 121945Z 27010KT 10SM FEW035 22/12 A3001 550 52 1600 270/10 RMK AO2
14840KMKG MKG20030712145011307/12/03 14:50:31  5-MIN KMKG 121950Z 27009KT 10SM FEW035 22/13 A3001 550 54 1600 270/09 RMK AO2 SLP161 T02220128
14840KMKG MKG20030712145511307/12/03 14:55:31  5-MIN KMKG 121955Z 27009KT 10SM FEW035 22/13 A3001 550 54 1600 270/09 RMK AO2 SLP161 T02220128
14840KMKG MKG20030712150009307/12/03 15:00:31  5-MIN KMKG 122000Z 28010KT 10SM CLR 22/13 A3001 550 56 1600 280/10 RMK AO2
14840KMKG MKG20030712150509307/12/03 15:05:31  5-MIN KMKG 122005Z 27009KT 10SM CLR 22/13 A3001 550 54 1600 280/09 RMK AO2
14840KMKG MKG20030712151009307/12/03 15:10:31  5-MIN KMKG 122010Z 29007KT 10SM CLR 22/13 A3001 550 56 1600 290/07 RMK AO2
14840KMKG MKG20030712151509607/12/03 15:15:31  5-MIN KMKG 122015Z 28009KT 10SM FEW035 23/14 A3001 550 57 1600 280/09 RMK AO2
14840KMKG MKG20030712152011207/12/03 15:20:31  5-MIN KMKG 122020Z 28007KT 240V310 10SM FEW035 22/14 A3001 550 59 1600 280/07 240V310 RMK AO2
14840KMKG MKG20030712152509607/12/03 15:25:31  5-MIN KMKG 122025Z 26009KT 10SM FEW035 22/13 A3001 550 58 1500 270/09 RMK AO2
14840KMKG MKG20030712153009607/12/03 15:30:31  5-MIN KMKG 122030Z 28009KT 10SM FEW040 22/13 A3001 550 58 1500 290/09 RMK AO2
14840KMKG MKG20030712153509607/12/03 15:35:31  5-MIN KMKG 122035Z 27009KT 10SM FEW040 22/14 A3001 550 59 1600 270/09 RMK AO2
14840KMKG MKG20030712154009607/12/03 15:40:31  5-MIN KMKG 122040Z 27010KT 10SM FEW040 22/14 A3001 540 61 1500 270/10 RMK AO2
14840KMKG MKG20030712154509607/12/03 15:45:31  5-MIN KMKG 122045Z 28008KT 10SM FEW040 22/13 A3001 540 58 1500 280/08 RMK AO2
14840KMKG MKG20030712155011907/12/03 15:50:31  5-MIN KMKG 122050Z 27007KT 10SM FEW040 22/13 A3001 540 58 1500 280/07 RMK AO2 SLP162 T02170133 51010
14840KMKG MKG20030712155511907/12/03 15:55:31  5-MIN KMKG 122055Z 27008KT 10SM FEW040 22/13 A3001 540 56 1500 280/08 RMK AO2 SLP162 T02220133 51006
14840KMKG MKG20030712160009607/12/03 16:00:31  5-MIN KMKG 122100Z 26009KT 10SM FEW040 22/13 A3002 540 58 1500 260/09 RMK AO2
14840KMKG MKG20030712160509607/12/03 16:05:31  5-MIN KMKG 122105Z 27008KT 10SM FEW040 22/13 A3002 540 58 1500 280/08 RMK AO2
14840KMKG MKG20030712161009607/12/03 16:10:31  5-MIN KMKG 122110Z 28008KT 10SM FEW040 22/13 A3001 540 56 1500 280/08 RMK AO2
14840KMKG MKG20030712161509607/12/03 16:15:31  5-MIN KMKG 122115Z 26008KT 10SM FEW040 22/13 A3001 540 58 1500 260/08 RMK AO2
14840KMKG MKG20030712162009607/12/03 16:20:31  5-MIN KMKG 122120Z 27007KT 10SM FEW040 22/13 A3001 540 58 1500 280/07 RMK AO2
14840KMKG MKG20030712162509607/12/03 16:25:31  5-MIN KMKG 122125Z 25009KT 10SM FEW040 22/13 A3001 550 58 1500 260/09 RMK AO2
14840KMKG MKG20030712163009607/12/03 16:30:31  5-MIN KMKG 122130Z 25009KT 10SM FEW040 21/13 A3001 550 58 1400 260/09 RMK AO2
14840KMKG MKG20030712163509607/12/03 16:35:31  5-MIN KMKG 122135Z 25009KT 10SM FEW040 21/13 A3001 550 58 1400 250/09 RMK AO2
14840KMKG MKG20030712164009607/12/03 16:40:31  5-MIN KMKG 122140Z 28008KT 10SM FEW040 22/13 A3001 550 58 1500 280/08 RMK AO2
14840KMKG MKG20030712164509607/12/03 16:45:31  5-MIN KMKG 122145Z VRB06KT 10SM FEW040 22/13 A3001 550 58 1500 VRB/06 RMK AO2
14840KMKG MKG20030712165011307/12/03 16:50:31  5-MIN KMKG 122150Z 25007KT 10SM FEW040 21/13 A3001 550 61 1400 250/07 RMK AO2 SLP161 T02110133
14840KMKG MKG20030712165511307/12/03 16:55:31  5-MIN KMKG 122155Z 27006KT 10SM FEW040 22/13 A3001 550 58 1500 270/06 RMK AO2 SLP161 T02170133
14840KMKG MKG20030712170009307/12/03 17:00:31  5-MIN KMKG 122200Z 26007KT 10SM CLR 21/13 A3001 550 61 1400 260/07 RMK AO2
14840KMKG MKG20030712170509307/12/03 17:05:31  5-MIN KMKG 122205Z 26007KT 10SM CLR 22/13 A3001 550 58 1500 270/07 RMK AO2
14840KMKG MKG20030712171009307/12/03 17:10:31  5-MIN KMKG 122210Z 29008KT 10SM CLR 22/13 A3001 550 58 1500 290/08 RMK AO2
14840KMKG MKG20030712171509307/12/03 17:15:31  5-MIN KMKG 122215Z 28008KT 10SM CLR 22/13 A3001 550 58 1500 280/08 RMK AO2
14840KMKG MKG20030712172009607/12/03 17:20:31  5-MIN KMKG 122220Z 26009KT 10SM FEW040 22/13 A3001 550 58 1500 270/09 RMK AO2
14840KMKG MKG20030712172509307/12/03 17:25:31  5-MIN KMKG 122225Z 27007KT 10SM CLR 21/13 A3001 550 58 1400 270/07 RMK AO2
14840KMKG MKG20030712173009307/12/03 17:30:31  5-MIN KMKG 122230Z 28008KT 10SM CLR 22/13 A3000 550 56 1500 280/08 RMK AO2
14840KMKG MKG20030712173509307/12/03 17:35:31  5-MIN KMKG 122235Z 28009KT 10SM CLR 21/13 A3001 550 61 1400 280/09 RMK AO2
14840KMKG MKG20030712174009307/12/03 17:40:31  5-MIN KMKG 122240Z 27007KT 10SM CLR 21/13 A3001 550 61 1400 270/07 RMK AO2
14840KMKG MKG20030712174509307/12/03 17:45:31  5-MIN KMKG 122245Z 27008KT 10SM CLR 21/13 A3001 550 61 1400 270/08 RMK AO2
14840KMKG MKG20030712175011007/12/03 17:50:31  5-MIN KMKG 122250Z 28008KT 10SM CLR 22/13 A3001 550 58 1500 280/08 RMK AO2 SLP159 T02170133
14840KMKG MKG20030712175511007/12/03 17:55:31  5-MIN KMKG 122255Z 28009KT 10SM CLR 21/13 A3001 550 61 1400 280/09 RMK AO2 SLP159 T02110133
14840KMKG MKG20030712180009307/12/03 18:00:31  5-MIN KMKG 122300Z 28007KT 10SM CLR 21/13 A3001 550 61 1400 290/07 RMK AO2
14840KMKG MKG20030712180509307/12/03 18:05:31  5-MIN KMKG 122305Z 28007KT 10SM CLR 21/13 A3001 550 63 1400 290/07 RMK AO2
14840KMKG MKG20030712181009307/12/03 18:10:31  5-MIN KMKG 122310Z 29007KT 10SM CLR 21/13 A3001 550 61 1400 290/07 RMK AO2
14840KMKG MKG20030712181509307/12/03 18:15:31  5-MIN KMKG 122315Z 28006KT 10SM CLR 21/14 A3001 550 65 1400 280/06 RMK AO2
14840KMKG MKG20030712182009307/12/03 18:20:31  5-MIN KMKG 122320Z 29006KT 10SM CLR 21/13 A3001 550 63 1400 290/06 RMK AO2
14840KMKG MKG20030712182509307/12/03 18:25:31  5-MIN KMKG 122325Z 29006KT 10SM CLR 21/13 A3001 550 63 1400 300/06 RMK AO2
14840KMKG MKG20030712183009307/12/03 18:30:31  5-MIN KMKG 122330Z 27007KT 10SM CLR 21/13 A3001 540 63 1400 270/07 RMK AO2
14840KMKG MKG20030712183509307/12/03 18:35:31  5-MIN KMKG 122335Z 27007KT 10SM CLR 21/13 A3001 540 63 1400 270/07 RMK AO2
14840KMKG MKG20030712184009307/12/03 18:40:31  5-MIN KMKG 122340Z 27007KT 10SM CLR 21/13 A3001 540 63 1400 280/07 RMK AO2
14840KMKG MKG20030712184509307/12/03 18:45:31  5-MIN KMKG 122345Z 29006KT 10SM CLR 21/13 A3001 540 63 1400 290/06 RMK AO2
14840KMKG MKG20030712185012807/12/03 18:50:31  5-MIN KMKG 122350Z 26004KT 10SM CLR 20/14 A3001 540 67 1300 270/04 RMK AO2 SLP163 T02000139 10228 20200 51006
14840KMKG MKG20030712185512807/12/03 18:55:31  5-MIN KMKG 122355Z 27005KT 10SM CLR 20/14 A3001 540 67 1300 280/05 RMK AO2 SLP162 T02000139 10228 20200 55000
14840KMKG MKG20030712190009307/12/03 19:00:31  5-MIN KMKG 130000Z 27004KT 10SM CLR 20/13 A3001 550 65 1300 280/04 RMK AO2
14840KMKG MKG20030712190509307/12/03 19:05:31  5-MIN KMKG 130005Z 28005KT 10SM CLR 20/13 A3001 550 65 1300 280/05 RMK AO2
14840KMKG MKG20030712191009307/12/03 19:10:31  5-MIN KMKG 130010Z 29005KT 10SM CLR 20/13 A3001 540 65 1300 290/05 RMK AO2
14840KMKG MKG20030712191509307/12/03 19:15:31  5-MIN KMKG 130015Z 28006KT 10SM CLR 20/13 A3001 540 65 1300 290/06 RMK AO2
14840KMKG MKG20030712192009307/12/03 19:20:31  5-MIN KMKG 130020Z 28005KT 10SM CLR 20/13 A3002 540 65 1300 290/05 RMK AO2
14840KMKG MKG20030712192509307/12/03 19:25:31  5-MIN KMKG 130025Z 26006KT 10SM CLR 19/13 A3002 540 67 1200 270/06 RMK AO2
14840KMKG MKG20030712193009307/12/03 19:30:31  5-MIN KMKG 130030Z 27006KT 10SM CLR 19/14 A3002 540 70 1200 270/06 RMK AO2
14840KMKG MKG20030712193509307/12/03 19:35:31  5-MIN KMKG 130035Z 26005KT 10SM CLR 19/13 A3002 540 67 1200 260/05 RMK AO2
14840KMKG MKG20030712194009307/12/03 19:40:31  5-MIN KMKG 130040Z 26005KT 10SM CLR 19/13 A3002 540 70 1200 270/05 RMK AO2
14840KMKG MKG20030712194509307/12/03 19:45:31  5-MIN KMKG 130045Z 27005KT 10SM CLR 19/13 A3002 540 70 1200 270/05 RMK AO2
14840KMKG MKG20030712195011007/12/03 19:50:31  5-MIN KMKG 130050Z 27004KT 10SM CLR 18/13 A3002 540 72 1100 270/04 RMK AO2 SLP165 T01830133
14840KMKG MKG20030712195511007/12/03 19:55:31  5-MIN KMKG 130055Z 28005KT 10SM CLR 18/13 A3002 540 72 1100 290/05 RMK AO2 SLP165 T01830133
14840KMKG MKG20030712200009307/12/03 20:00:31  5-MIN KMKG 130100Z 27005KT 10SM CLR 18/13 A3002 540 72 1100 270/05 RMK AO2
14840KMKG MKG20030712200509307/12/03 20:05:31  5-MIN KMKG 130105Z 27005KT 10SM CLR 18/14 A3002 530 78 1000 270/05 RMK AO2
14840KMKG MKG20030712201009307/12/03 20:10:31  5-MIN KMKG 130110Z 28005KT 10SM CLR 18/14 A3003 530 78 1000 280/05 RMK AO2
14840KMKG MKG20030712201509307/12/03 20:15:31  5-MIN KMKG 130115Z 28005KT 10SM CLR 18/14 A3003 530 78 1000 280/05 RMK AO2
14840KMKG MKG20030712202009307/12/03 20:20:31  5-MIN KMKG 130120Z 28005KT 10SM CLR 17/14 A3003 530 83 1000 280/05 RMK AO2
14840KMKG MKG20030712202509307/12/03 20:25:31  5-MIN KMKG 130125Z 30003KT 10SM CLR 17/14 A3003 530 83 1000 300/03 RMK AO2
14840KMKG MKG20030712203009307/12/03 20:30:31  5-MIN KMKG 130130Z 30004KT 10SM CLR 17/14 A3003 530 83 1000 300/04 RMK AO2
14840KMKG MKG20030712203509307/12/03 20:35:31  5-MIN KMKG 130135Z 30003KT 10SM CLR 17/14 A3003 530 83 1000 310/03 RMK AO2
14840KMKG MKG20030712204009307/12/03 20:40:31  5-MIN KMKG 130140Z 28003KT 10SM CLR 17/14 A3003 530 83 1000 290/03 RMK AO2
14840KMKG MKG20030712204509207/12/03 20:45:31  5-MIN KMKG 130145Z 00000KT 10SM CLR 17/14 A3003 530 86 900 000/00 RMK AO2
14840KMKG MKG20030712205010907/12/03 20:50:31  5-MIN KMKG 130150Z 00000KT 10SM CLR 17/14 A3003 520 86 900 000/00 RMK AO2 SLP169 T01670144
14840KMKG MKG20030712205510907/12/03 20:55:31  5-MIN KMKG 130155Z 00000KT 10SM CLR 17/14 A3004 520 86 900 000/00 RMK AO2 SLP170 T01670144
14840KMKG MKG20030712210009207/12/03 21:00:31  5-MIN KMKG 130200Z 00000KT 10SM CLR 17/14 A3004 520 86 900 000/00 RMK AO2
14840KMKG MKG20030712210509207/12/03 21:05:31  5-MIN KMKG 130205Z 00000KT 10SM CLR 17/14 A3004 520 86 900 000/00 RMK AO2
14840KMKG MKG20030712211009207/12/03 21:10:31  5-MIN KMKG 130210Z 00000KT 10SM CLR 17/14 A3004 520 86 900 000/00 RMK AO2
14840KMKG MKG20030712211509207/12/03 21:15:31  5-MIN KMKG 130215Z 00000KT 10SM CLR 17/15 A3004 520 90 900 000/00 RMK AO2
14840KMKG MKG20030712212009207/12/03 21:20:31  5-MIN KMKG 130220Z 00000KT 10SM CLR 17/15 A3004 520 90 900 000/00 RMK AO2
14840KMKG MKG20030712212509207/12/03 21:25:31  5-MIN KMKG 130225Z 00000KT 10SM CLR 16/15 A3005 510 93 800 000/00 RMK AO2
14840KMKG MKG20030712213009207/12/03 21:30:31  5-MIN KMKG 130230Z 00000KT 10SM CLR 16/14 A3005 510 90 700 000/00 RMK AO2
14840KMKG MKG20030712213509207/12/03 21:35:31  5-MIN KMKG 130235Z 00000KT 10SM CLR 16/14 A3005 510 93 700 000/00 RMK AO2
14840KMKG MKG20030712214009207/12/03 21:40:31  5-MIN KMKG 130240Z 00000KT 10SM CLR 16/14 A3005 510 93 700 000/00 RMK AO2
14840KMKG MKG20030712214509207/12/03 21:45:31  5-MIN KMKG 130245Z 00000KT 10SM CLR 16/14 A3005 510 93 700 000/00 RMK AO2
14840KMKG MKG20030712215011507/12/03 21:50:31  5-MIN KMKG 130250Z 00000KT 10SM CLR 16/14 A3005 510 90 800 000/00 RMK AO2 SLP176 T01610144 55000
14840KMKG MKG20030712215511507/12/03 21:55:31  5-MIN KMKG 130255Z 00000KT 10SM CLR 16/14 A3005 510 93 700 000/00 RMK AO2 SLP176 T01560144 53013
14840KMKG MKG20030712220009207/12/03 22:00:31  5-MIN KMKG 130300Z 00000KT 10SM CLR 16/14 A3005 510 93 700 000/00 RMK AO2
14840KMKG MKG20030712220509207/12/03 22:05:31  5-MIN KMKG 130305Z 00000KT 10SM CLR 15/14 A3006 500 96 700 000/00 RMK AO2
14840KMKG MKG20030712221009207/12/03 22:10:31  5-MIN KMKG 130310Z 00000KT 10SM CLR 15/14 A3006 500 93 700 000/00 RMK AO2
14840KMKG MKG20030712221509207/12/03 22:15:31  5-MIN KMKG 130315Z 00000KT 10SM CLR 15/14 A3006 500 93 700 000/00 RMK AO2
14840KMKG MKG20030712222009207/12/03 22:20:31  5-MIN KMKG 130320Z 00000KT 10SM CLR 15/14 A3006 500 93 700 000/00 RMK AO2
14840KMKG MKG20030712222509207/12/03 22:25:31  5-MIN KMKG 130325Z 00000KT 10SM CLR 15/14 A3006 500 93 700 000/00 RMK AO2
14840KMKG MKG20030712223009207/12/03 22:30:31  5-MIN KMKG 130330Z 00000KT 10SM CLR 14/14 A3006 500 96 600 000/00 RMK AO2
14840KMKG MKG20030712223509207/12/03 22:35:31  5-MIN KMKG 130335Z 00000KT 10SM CLR 14/14 A3006 500 96 600 000/00 RMK AO2
14840KMKG MKG20030712224009207/12/03 22:40:31  5-MIN KMKG 130340Z 00000KT 10SM CLR 14/14 A3006 500 96 600 000/00 RMK AO2
14840KMKG MKG20030712224509207/12/03 22:45:31  5-MIN KMKG 130345Z 00000KT 10SM CLR 15/14 A3006 500 93 700 000/00 RMK AO2
14840KMKG MKG20030712225010907/12/03 22:50:31  5-MIN KMKG 130350Z 00000KT 10SM CLR 15/14 A3006 500 93 700 000/00 RMK AO2 SLP178 T01500139
14840KMKG MKG20030712225510907/12/03 22:55:31  5-MIN KMKG 130355Z 00000KT 10SM CLR 14/14 A3006 500 96 600 000/00 RMK AO2 SLP179 T01440139
14840KMKG MKG20030712230009207/12/03 23:00:31  5-MIN KMKG 130400Z 00000KT 10SM CLR 14/14 A3006 500 96 600 000/00 RMK AO2
14840KMKG MKG20030712230509207/12/03 23:05:31  5-MIN KMKG 130405Z 00000KT 10SM CLR 14/14 A3006 500 96 600 000/00 RMK AO2
14840KMKG MKG20030712231009207/12/03 23:10:31  5-MIN KMKG 130410Z 00000KT 10SM CLR 14/13 A3007 500 96 500 000/00 RMK AO2
14840KMKG MKG20030712231509207/12/03 23:15:31  5-MIN KMKG 130415Z 00000KT 10SM CLR 14/13 A3007 500 96 500 000/00 RMK AO2
14840KMKG MKG20030712232009207/12/03 23:20:31  5-MIN KMKG 130420Z 00000KT 10SM CLR 13/13 A3007 490 96 500 000/00 RMK AO2
14840KMKG MKG20030712232509207/12/03 23:25:31  5-MIN KMKG 130425Z 00000KT 10SM CLR 13/13 A3007 490 96 500 000/00 RMK AO2
14840KMKG MKG20030712233009207/12/03 23:30:31  5-MIN KMKG 130430Z 00000KT 10SM CLR 14/13 A3007 500 93 500 000/00 RMK AO2
14840KMKG MKG20030712233509207/12/03 23:35:31  5-MIN KMKG 130435Z 00000KT 10SM CLR 14/13 A3007 500 93 600 000/00 RMK AO2
14840KMKG MKG20030712234009207/12/03 23:40:31  5-MIN KMKG 130440Z 00000KT 10SM CLR 14/13 A3007 490 96 500 000/00 RMK AO2
14840KMKG MKG20030712234509207/12/03 23:45:31  5-MIN KMKG 130445Z 00000KT 10SM CLR 14/13 A3007 490 96 500 000/00 RMK AO2
14840KMKG MKG20030712235011907/12/03 23:50:31  5-MIN KMKG 130450Z 00000KT 10SM CLR 14/13 A3007 490 96 500 000/00 RMK AO2 SLP181 T01390133 402280133
14840KMKG MKG20030712235511807/12/03 23:55:31  5-MIN KMKG 130455Z 00000KT 9SM CLR 14/13 A3007 490 96 500 000/00 RMK AO2 SLP181 T01390133 402280133
14840KMKG MKG20030713000009107/13/03 00:00:31  5-MIN KMKG 130500Z 00000KT 9SM CLR 14/13 A3007 490 96 500 000/00 RMK AO2
14840KMKG MKG20030713000509207/13/03 00:05:31  5-MIN KMKG 130505Z 00000KT 10SM CLR 14/13 A3007 490 96 500 000/00 RMK AO2
14840KMKG MKG20030713001009207/13/03 00:10:31  5-MIN KMKG 130510Z 00000KT 10SM CLR 13/13 A3007 490 96 400 000/00 RMK AO2
14840KMKG MKG20030713001509207/13/03 00:15:31  5-MIN KMKG 130515Z 00000KT 10SM CLR 13/12 A3007 490 93 400 000/00 RMK AO2
14840KMKG MKG20030713002009207/13/03 00:20:31  5-MIN KMKG 130520Z 00000KT 10SM CLR 13/12 A3007 490 93 400 000/00 RMK AO2
14840KMKG MKG20030713002509207/13/03 00:25:31  5-MIN KMKG 130525Z 00000KT 10SM CLR 14/13 A3007 490 93 500 000/00 RMK AO2
14840KMKG MKG20030713003009207/13/03 00:30:31  5-MIN KMKG 130530Z 00000KT 10SM CLR 13/12 A3007 490 93 400 000/00 RMK AO2
14840KMKG MKG20030713003509207/13/03 00:35:31  5-MIN KMKG 130535Z 00000KT 10SM CLR 13/12 A3007 490 93 400 000/00 RMK AO2
14840KMKG MKG20030713004009207/13/03 00:40:31  5-MIN KMKG 130540Z 00000KT 10SM CLR 13/12 A3007 490 93 400 000/00 RMK AO2
14840KMKG MKG20030713004509107/13/03 00:45:31  5-MIN KMKG 130545Z 00000KT 9SM CLR 14/13 A3007 490 93 500 000/00 RMK AO2
14840KMKG MKG20030713005012607/13/03 00:50:31  5-MIN KMKG 130550Z 00000KT 8SM CLR 13/13 A3007 490 96 400 000/00 RMK AO2 SLP182 T01330128 10200 20133 53013
14840KMKG MKG20030713005512607/13/03 00:55:31  5-MIN KMKG 130555Z 00000KT 9SM CLR 13/13 A3007 490 96 400 000/00 RMK AO2 SLP183 T01330128 10200 20133 51007
14840KMKG MKG20030713010009107/13/03 01:00:31  5-MIN KMKG 130600Z 00000KT 9SM CLR 13/13 A3008 490 96 400 000/00 RMK AO2
14840KMKG MKG20030713010509107/13/03 01:05:31  5-MIN KMKG 130605Z 00000KT 9SM CLR 13/13 A3008 490 96 400 000/00 RMK AO2
14840KMKG MKG20030713011009107/13/03 01:10:31  5-MIN KMKG 130610Z 00000KT 9SM CLR 14/13 A3008 490 93 500 000/00 RMK AO2
14840KMKG MKG20030713011509207/13/03 01:15:31  5-MIN KMKG 130615Z 00000KT 10SM CLR 14/13 A3007 490 93 500 000/00 RMK AO2
14840KMKG MKG20030713012009207/13/03 01:20:31  5-MIN KMKG 130620Z 00000KT 10SM CLR 14/13 A3007 490 93 500 000/00 RMK AO2
14840KMKG MKG20030713012509207/13/03 01:25:31  5-MIN KMKG 130625Z 00000KT 10SM CLR 14/12 A3007 490 86 500 000/00 RMK AO2
14840KMKG MKG20030713013009207/13/03 01:30:31  5-MIN KMKG 130630Z 00000KT 10SM CLR 14/13 A3007 490 93 500 000/00 RMK AO2
14840KMKG MKG20030713013509207/13/03 01:35:31  5-MIN KMKG 130635Z 00000KT 10SM CLR 13/13 A3007 490 96 400 000/00 RMK AO2
14840KMKG MKG20030713014009207/13/03 01:40:31  5-MIN KMKG 130640Z 00000KT 10SM CLR 13/12 A3007 490 93 400 000/00 RMK AO2
14840KMKG MKG20030713014509207/13/03 01:45:31  5-MIN KMKG 130645Z 00000KT 10SM CLR 13/13 A3008 490 96 400 000/00 RMK AO2
14840KMKG MKG20030713015010907/13/03 01:50:31  5-MIN KMKG 130650Z 00000KT 10SM CLR 13/13 A3008 490 96 400 000/00 RMK AO2 SLP183 T01330128
14840KMKG MKG20030713015510907/13/03 01:55:31  5-MIN KMKG 130655Z 00000KT 10SM CLR 13/13 A3008 490 96 400 000/00 RMK AO2 SLP183 T01330128
14840KMKG MKG20030713020009207/13/03 02:00:31  5-MIN KMKG 130700Z 00000KT 10SM CLR 13/13 A3007 490 96 400 000/00 RMK AO2
14840KMKG MKG20030713020509207/13/03 02:05:31  5-MIN KMKG 130705Z 00000KT 10SM CLR 13/12 A3007 490 93 400 000/00 RMK AO2
14840KMKG MKG20030713021009207/13/03 02:10:31  5-MIN KMKG 130710Z 00000KT 10SM CLR 13/13 A3007 490 96 400 000/00 RMK AO2
14840KMKG MKG20030713021509207/13/03 02:15:31  5-MIN KMKG 130715Z 00000KT 10SM CLR 13/12 A3007 490 93 400 000/00 RMK AO2
14840KMKG MKG20030713022009207/13/03 02:20:31  5-MIN KMKG 130720Z 00000KT 10SM CLR 13/12 A3007 490 96 400 000/00 RMK AO2
14840KMKG MKG20030713022509207/13/03 02:25:31  5-MIN KMKG 130725Z 00000KT 10SM CLR 12/12 A3008 490 96 300 000/00 RMK AO2
14840KMKG MKG20030713023009207/13/03 02:30:31  5-MIN KMKG 130730Z 00000KT 10SM CLR 13/13 A3008 490 96 400 000/00 RMK AO2
14840KMKG MKG20030713023509207/13/03 02:35:31  5-MIN KMKG 130735Z 00000KT 10SM CLR 13/13 A3008 490 96 400 000/00 RMK AO2
14840KMKG MKG20030713024009207/13/03 02:40:31  5-MIN KMKG 130740Z 12003KT 10SM CLR 13/12 A3008 490 93 400 120/03 RMK AO2
14840KMKG MKG20030713024509207/13/03 02:45:31  5-MIN KMKG 130745Z 12003KT 10SM CLR 13/12 A3008 490 96 400 130/03 RMK AO2
14840KMKG MKG20030713025010907/13/03 02:50:31  5-MIN KMKG 130750Z 13003KT 10SM CLR 13/12 A3008 490 96 400 130/03 RMK AO2 SLP184 T01280122
14840KMKG MKG20030713025511207/13/03 02:55:31  5-MIN KMKG 130755Z 13003KT 10SM FEW070 13/12 A3008 490 96 400 130/03 RMK AO2 SLP184 T01280122
14840KMKG MKG20030713030009507/13/03 03:00:31  5-MIN KMKG 130800Z 00000KT 10SM SCT070 13/12 A3008 490 96 400 000/00 RMK AO2
14840KMKG MKG20030713030509507/13/03 03:05:31  5-MIN KMKG 130805Z 00000KT 10SM BKN075 13/12 A3008 480 96 400 000/00 RMK AO2
14840KMKG MKG20030713031009507/13/03 03:10:31  5-MIN KMKG 130810Z 00000KT 10SM BKN075 13/12 A3008 480 96 400 000/00 RMK AO2
14840KMKG MKG20030713031509507/13/03 03:15:31  5-MIN KMKG 130815Z 00000KT 10SM BKN075 13/12 A3008 490 96 400 000/00 RMK AO2
14840KMKG MKG20030713032009507/13/03 03:20:31  5-MIN KMKG 130820Z 00000KT 10SM BKN075 13/12 A3008 490 96 400 000/00 RMK AO2
14840KMKG MKG20030713032509507/13/03 03:25:31  5-MIN KMKG 130825Z 00000KT 10SM SCT075 12/12 A3008 490 96 300 000/00 RMK AO2
14840KMKG MKG20030713033009607/13/03 03:30:31  5-MIN KMKG 130830Z 13003KT 10SM SCT075 12/12 A3008 490 100 300 140/03 RMK AO2
14840KMKG MKG20030713033509607/13/03 03:35:31  5-MIN KMKG 130835Z 12003KT 10SM FEW075 12/12 A3008 490 100 300 130/03 RMK AO2
14840KMKG MKG20030713034009407/13/03 03:40:31  5-MIN KMKG 130840Z 13003KT 9SM FEW080 13/12 A3008 490 96 400 130/03 RMK AO2
14840KMKG MKG20030713034509107/13/03 03:45:31  5-MIN KMKG 130845Z 00000KT 8SM CLR 13/12 A3008 480 96 400 000/00 RMK AO2
14840KMKG MKG20030713035011407/13/03 03:50:31  5-MIN KMKG 130850Z 00000KT 8SM CLR 13/12 A3008 490 96 400 000/00 RMK AO2 SLP184 T01280122 51007
14840KMKG MKG20030713035511407/13/03 03:55:31  5-MIN KMKG 130855Z 00000KT 8SM CLR 13/12 A3008 480 96 400 000/00 RMK AO2 SLP184 T01280122 52001
14840KMKG MKG20030713040009107/13/03 04:00:31  5-MIN KMKG 130900Z 00000KT 8SM CLR 13/12 A3008 480 96 400 000/00 RMK AO2
14840KMKG MKG20030713040509107/13/03 04:05:31  5-MIN KMKG 130905Z 00000KT 8SM CLR 13/12 A3008 480 96 400 000/00 RMK AO2
14840KMKG MKG20030713041010807/13/03 04:10:31  5-MIN KMKG 130910Z 00000KT 8SM CLR 13/12 A3008 480 96 400 000/00 RMK AO2 VIS 2 1/2 RWY 14
14840KMKG MKG20030713041510407/13/03 04:15:31  5-MIN KMKG 130915Z 00000KT 8SM CLR 13/12 A3008 480 96 400 000/00 RMK AO2 VIS 2 RWY 14
14840KMKG MKG20030713042010807/13/03 04:20:31  5-MIN KMKG 130920Z 00000KT 9SM CLR 13/12 A3008 480 96 400 000/00 RMK AO2 VIS 2 1/2 RWY 14
14840KMKG MKG20030713042510807/13/03 04:25:31  5-MIN KMKG 130925Z 00000KT 9SM CLR 13/12 A3008 480 96 400 000/00 RMK AO2 VIS 2 1/2 RWY 14
14840KMKG MKG20030713043011107/13/03 04:30:31  5-MIN KMKG 130930Z 00000KT 9SM FEW075 13/12 A3008 480 96 400 000/00 RMK AO2 VIS 2 1/2 RWY 14
14840KMKG MKG20030713043509407/13/03 04:35:31  5-MIN KMKG 130935Z 00000KT 9SM FEW070 13/12 A3008 480 96 400 000/00 RMK AO2
14840KMKG MKG20030713044009407/13/03 04:40:31  5-MIN KMKG 130940Z 00000KT 8SM SCT070 13/12 A3008 480 96 400 000/00 RMK AO2
14840KMKG MKG20030713044509407/13/03 04:45:31  5-MIN KMKG 130945Z 00000KT 8SM FEW075 13/12 A3008 480 96 400 000/00 RMK AO2
14840KMKG MKG20030713045011107/13/03 04:50:31  5-MIN KMKG 130950Z 00000KT 8SM FEW070 13/12 A3009 480 96 400 000/00 RMK AO2 SLP187 T01280122
14840KMKG MKG20030713045511107/13/03 04:55:31  5-MIN KMKG 130955Z 00000KT 9SM SCT070 13/12 A3009 480 96 400 000/00 RMK AO2 SLP187 T01280122
14840KMKG MKG20030713050009407/13/03 05:00:31  5-MIN KMKG 131000Z 00000KT 9SM SCT075 13/12 A3009 480 96 400 000/00 RMK AO2
14840KMKG MKG20030713050509407/13/03 05:05:31  5-MIN KMKG 131005Z 00000KT 9SM FEW075 13/12 A3009 480 96 400 000/00 RMK AO2
14840KMKG MKG20030713051009407/13/03 05:10:31  5-MIN KMKG 131010Z 00000KT 9SM FEW075 13/12 A3009 470 96 400 000/00 RMK AO2
14840KMKG MKG20030713051509407/13/03 05:15:31  5-MIN KMKG 131015Z 00000KT 9SM FEW075 13/12 A3009 470 96 400 000/00 RMK AO2
14840KMKG MKG20030713052009407/13/03 05:20:31  5-MIN KMKG 131020Z 00000KT 9SM FEW075 13/12 A3009 470 96 400 000/00 RMK AO2
14840KMKG MKG20030713052509407/13/03 05:25:31  5-MIN KMKG 131025Z 00000KT 9SM FEW080 13/12 A3009 470 93 400 000/00 RMK AO2
14840KMKG MKG20030713053009207/13/03 05:30:31  5-MIN KMKG 131030Z 00000KT 10SM CLR 13/12 A3009 470 96 400 000/00 RMK AO2
14840KMKG MKG20030713053509107/13/03 05:35:31  5-MIN KMKG 131035Z 00000KT 9SM CLR 13/12 A3009 470 96 400 000/00 RMK AO2
14840KMKG MKG20030713054009207/13/03 05:40:31  5-MIN KMKG 131040Z 11003KT 10SM CLR 13/12 A3009 470 93 400 120/03 RMK AO2
14840KMKG MKG20030713054510807/13/03 05:45:31  5-MIN KMKG 131045Z 12003KT 9SM CLR 12/12 A3009 470 96 300 120/03 RMK AO2 VIS 2 1/2 RWY 14
14840KMKG MKG20030713055010807/13/03 05:50:31  5-MIN KMKG 131050Z 12004KT 8SM CLR 12/12 A3009 470 96 300 120/04 RMK AO2 SLP189 T01220117
14840KMKG MKG20030713055510807/13/03 05:55:31  5-MIN KMKG 131055Z 12005KT 7SM CLR 13/12 A3009 470 96 400 130/05 RMK AO2 SLP189 T01280122
14840KMKG MKG20030713072009207/13/03 07:20:31  5-MIN KMKG 131220Z 12003KT 10SM CLR 17/16 A3010 460 90 900 130/03 RMK AO2
14840KMKG MKG20030713072509207/13/03 07:25:31  5-MIN KMKG 131225Z 13004KT 10SM CLR 17/16 A3010 460 90 900 130/04 RMK AO2
14840KMKG MKG20030713073009307/13/03 07:30:31  5-MIN KMKG 131230Z 14004KT 10SM CLR 18/16 A3010 460 84 1000 140/04 RMK AO2
14840KMKG MKG20030713073509307/13/03 07:35:31  5-MIN KMKG 131235Z 14004KT 10SM CLR 18/16 A3010 460 87 1000 140/04 RMK AO2
14840KMKG MKG20030713074009307/13/03 07:40:31  5-MIN KMKG 131240Z 13004KT 10SM CLR 19/16 A3010 460 84 1100 130/04 RMK AO2
14840KMKG MKG20030713074509307/13/03 07:45:31  5-MIN KMKG 131245Z 12004KT 10SM CLR 19/16 A3010 460 84 1100 130/04 RMK AO2
14840KMKG MKG20030713075011007/13/03 07:50:31  5-MIN KMKG 131250Z 13003KT 10SM CLR 19/16 A3011 460 81 1100 130/03 RMK AO2 SLP193 T01940161
14840KMKG MKG20030713075511007/13/03 07:55:31  5-MIN KMKG 131255Z 13003KT 10SM CLR 20/17 A3011 460 81 1200 130/03 RMK AO2 SLP193 T02000167
14840KMKG MKG20030713080009307/13/03 08:00:31  5-MIN KMKG 131300Z 12003KT 10SM CLR 20/17 A3011 460 81 1200 130/03 RMK AO2
14840KMKG MKG20030713080509307/13/03 08:05:31  5-MIN KMKG 131305Z 17004KT 10SM CLR 21/16 A3011 460 75 1300 180/04 RMK AO2
14840KMKG MKG20030713081009307/13/03 08:10:31  5-MIN KMKG 131310Z 18004KT 10SM CLR 21/16 A3011 450 75 1200 180/04 RMK AO2
14840KMKG MKG20030713081509307/13/03 08:15:31  5-MIN KMKG 131315Z 16005KT 10SM CLR 21/16 A3011 450 75 1200 160/05 RMK AO2
14840KMKG MKG20030713082009307/13/03 08:20:31  5-MIN KMKG 131320Z 18005KT 10SM CLR 21/16 A3011 450 73 1300 180/05 RMK AO2
14840KMKG MKG20030713082509607/13/03 08:25:31  5-MIN KMKG 131325Z 18005KT 10SM FEW090 21/16 A3011 450 73 1300 190/05 RMK AO2
14840KMKG MKG20030713083009607/13/03 08:30:31  5-MIN KMKG 131330Z VRB05KT 10SM FEW090 22/17 A3011 450 73 1400 VRB/05 RMK AO2
14840KMKG MKG20030713083509607/13/03 08:35:31  5-MIN KMKG 131335Z 19006KT 10SM FEW090 22/16 A3011 450 68 1400 190/06 RMK AO2
14840KMKG MKG20030713084009307/13/03 08:40:31  5-MIN KMKG 131340Z 19005KT 10SM CLR 22/16 A3011 450 70 1400 200/05 RMK AO2
14840KMKG MKG20030713084509307/13/03 08:45:31  5-MIN KMKG 131345Z 19006KT 10SM CLR 22/16 A3011 450 68 1400 190/06 RMK AO2
14840KMKG MKG20030713085011007/13/03 08:50:31  5-MIN KMKG 131350Z 22006KT 10SM CLR 23/16 A3011 450 65 1500 220/06 RMK AO2 SLP195 T02280161
14840KMKG MKG20030713085511007/13/03 08:55:31  5-MIN KMKG 131355Z 21006KT 10SM CLR 23/16 A3012 450 61 1600 220/06 RMK AO2 SLP196 T02330156
14840KMKG MKG20030713090009307/13/03 09:00:31  5-MIN KMKG 131400Z 23007KT 10SM CLR 23/14 A3012 450 59 1500 230/07 RMK AO2
14840KMKG MKG20030713090509307/13/03 09:05:31  5-MIN KMKG 131405Z 22008KT 10SM CLR 23/15 A3012 450 61 1500 230/08 RMK AO2
14840KMKG MKG20030713091009307/13/03 09:10:31  5-MIN KMKG 131410Z 23008KT 10SM CLR 23/15 A3011 450 61 1500 230/08 RMK AO2
14840KMKG MKG20030713091509307/13/03 09:15:31  5-MIN KMKG 131415Z 21008KT 10SM CLR 23/16 A3011 450 61 1600 220/08 RMK AO2
14840KMKG MKG20030713092009307/13/03 09:20:31  5-MIN KMKG 131420Z 21008KT 10SM CLR 23/16 A3011 450 61 1600 210/08 RMK AO2
14840KMKG MKG20030713092509307/13/03 09:25:31  5-MIN KMKG 131425Z 20009KT 10SM CLR 23/16 A3011 450 65 1500 210/09 RMK AO2
14840KMKG MKG20030713093009307/13/03 09:30:31  5-MIN KMKG 131430Z 21008KT 10SM CLR 23/16 A3012 450 63 1600 220/08 RMK AO2
14840KMKG MKG20030713093509307/13/03 09:35:31  5-MIN KMKG 131435Z 22008KT 10SM CLR 23/16 A3012 450 63 1600 230/08 RMK AO2
14840KMKG MKG20030713094009307/13/03 09:40:31  5-MIN KMKG 131440Z 20009KT 10SM CLR 23/16 A3012 450 63 1600 210/09 RMK AO2
14840KMKG MKG20030713094509307/13/03 09:45:31  5-MIN KMKG 131445Z 21008KT 10SM CLR 24/17 A3012 450 63 1600 210/08 RMK AO2
14840KMKG MKG20030713095011607/13/03 09:50:31  5-MIN KMKG 131450Z 22006KT 10SM CLR 24/17 A3012 450 63 1600 220/06 RMK AO2 SLP196 T02390167 52008
14840KMKG MKG20030713095511607/13/03 09:55:31  5-MIN KMKG 131455Z 23007KT 10SM CLR 24/17 A3012 450 63 1600 230/07 RMK AO2 SLP196 T02390167 51004
14840KMKG MKG20030713100009307/13/03 10:00:31  5-MIN KMKG 131500Z 22007KT 10SM CLR 23/16 A3012 450 63 1600 220/07 RMK AO2
14840KMKG MKG20030713100509307/13/03 10:05:31  5-MIN KMKG 131505Z 21007KT 10SM CLR 24/17 A3012 450 63 1600 220/07 RMK AO2
14840KMKG MKG20030713101009307/13/03 10:10:31  5-MIN KMKG 131510Z 21007KT 10SM CLR 23/16 A3012 450 61 1600 210/07 RMK AO2
14840KMKG MKG20030713101509307/13/03 10:15:31  5-MIN KMKG 131515Z 20006KT 10SM CLR 24/16 A3012 450 59 1600 200/06 RMK AO2
14840KMKG MKG20030713102009307/13/03 10:20:31  5-MIN KMKG 131520Z 22006KT 10SM CLR 24/16 A3012 450 59 1600 220/06 RMK AO2
14840KMKG MKG20030713102509307/13/03 10:25:31  5-MIN KMKG 131525Z 21007KT 10SM CLR 24/16 A3012 450 59 1600 210/07 RMK AO2
14840KMKG MKG20030713103009307/13/03 10:30:31  5-MIN KMKG 131530Z 20005KT 10SM CLR 24/16 A3012 440 59 1600 200/05 RMK AO2
14840KMKG MKG20030713103509307/13/03 10:35:31  5-MIN KMKG 131535Z 21007KT 10SM CLR 24/16 A3012 440 59 1600 210/07 RMK AO2
14840KMKG MKG20030713104009307/13/03 10:40:31  5-MIN KMKG 131540Z 20006KT 10SM CLR 24/15 A3013 440 57 1600 200/06 RMK AO2
14840KMKG MKG20030713104509307/13/03 10:45:31  5-MIN KMKG 131545Z VRB06KT 10SM CLR 24/16 A3013 440 57 1700 VRB/06 RMK AO2
14840KMKG MKG20030713105011007/13/03 10:50:31  5-MIN KMKG 131550Z 24007KT 10SM CLR 24/16 A3013 440 57 1700 250/07 RMK AO2 SLP199 T02440156
14840KMKG MKG20030713105511007/13/03 10:55:31  5-MIN KMKG 131555Z 23007KT 10SM CLR 24/15 A3013 440 57 1600 230/07 RMK AO2 SLP199 T02390150
14840KMKG MKG20030713110010907/13/03 11:00:31  5-MIN KMKG 131600Z 22007KT 180V250 10SM CLR 24/15 A3012 440 57 1600 230/07 180V250 RMK AO2
14840KMKG MKG20030713110509307/13/03 11:05:31  5-MIN KMKG 131605Z 23006KT 10SM CLR 24/16 A3012 440 57 1700 230/06 RMK AO2
14840KMKG MKG20030713111009307/13/03 11:10:31  5-MIN KMKG 131610Z 23008KT 10SM CLR 24/15 A3012 440 57 1600 230/08 RMK AO2
14840KMKG MKG20030713111509307/13/03 11:15:31  5-MIN KMKG 131615Z 23007KT 10SM CLR 24/16 A3012 440 57 1700 230/07 RMK AO2
14840KMKG MKG20030713112009307/13/03 11:20:31  5-MIN KMKG 131620Z 23007KT 10SM CLR 24/15 A3012 450 55 1700 240/07 RMK AO2
14840KMKG MKG20030713112509307/13/03 11:25:31  5-MIN KMKG 131625Z 24008KT 10SM CLR 24/15 A3012 450 55 1700 250/08 RMK AO2
14840KMKG MKG20030713113009307/13/03 11:30:31  5-MIN KMKG 131630Z 23009KT 10SM CLR 24/16 A3012 450 57 1700 230/09 RMK AO2
14840KMKG MKG20030713113509307/13/03 11:35:31  5-MIN KMKG 131635Z 22009KT 10SM CLR 25/16 A3012 450 57 1700 230/09 RMK AO2
14840KMKG MKG20030713114009307/13/03 11:40:31  5-MIN KMKG 131640Z 23009KT 10SM CLR 25/16 A3012 450 55 1700 240/09 RMK AO2
14840KMKG MKG20030713114509307/13/03 11:45:31  5-MIN KMKG 131645Z 23010KT 10SM CLR 24/15 A3012 450 55 1700 230/10 RMK AO2
14840KMKG MKG20030713115011307/13/03 11:50:31  5-MIN KMKG 131650Z 24009KT 10SM FEW042 24/15 A3012 440 55 1700 240/09 RMK AO2 SLP198 T02440150
14840KMKG MKG20030713115511307/13/03 11:55:31  5-MIN KMKG 131655Z 23009KT 10SM FEW042 24/16 A3012 450 57 1700 240/09 RMK AO2 SLP198 T02440156
14840KMKG MKG20030713120009307/13/03 12:00:31  5-MIN KMKG 131700Z 22010KT 10SM CLR 24/16 A3012 450 57 1700 230/10 RMK AO2
14840KMKG MKG20030713120509307/13/03 12:05:31  5-MIN KMKG 131705Z 23008KT 10SM CLR 24/16 A3012 450 57 1700 230/08 RMK AO2
14840KMKG MKG20030713121009307/13/03 12:10:31  5-MIN KMKG 131710Z 23008KT 10SM CLR 25/16 A3012 450 55 1700 230/08 RMK AO2
14840KMKG MKG20030713121509307/13/03 12:15:31  5-MIN KMKG 131715Z 23008KT 10SM CLR 25/16 A3012 450 55 1700 230/08 RMK AO2
14840KMKG MKG20030713122009307/13/03 12:20:31  5-MIN KMKG 131720Z 22008KT 10SM CLR 25/16 A3012 450 57 1700 220/08 RMK AO2
14840KMKG MKG20030713122509307/13/03 12:25:31  5-MIN KMKG 131725Z 21008KT 10SM CLR 25/16 A3012 450 55 1700 220/08 RMK AO2
14840KMKG MKG20030713123009307/13/03 12:30:31  5-MIN KMKG 131730Z 24008KT 10SM CLR 25/15 A3012 450 53 1700 240/08 RMK AO2
14840KMKG MKG20030713123509307/13/03 12:35:31  5-MIN KMKG 131735Z 23009KT 10SM CLR 25/15 A3012 450 53 1800 240/09 RMK AO2
14840KMKG MKG20030713124009307/13/03 12:40:31  5-MIN KMKG 131740Z 24009KT 10SM CLR 25/15 A3012 450 53 1800 240/09 RMK AO2
14840KMKG MKG20030713124509307/13/03 12:45:31  5-MIN KMKG 131745Z 23008KT 10SM CLR 25/15 A3012 450 53 1700 230/08 RMK AO2
14840KMKG MKG20030713125012807/13/03 12:50:31  5-MIN KMKG 131750Z 22009KT 10SM CLR 25/15 A3012 450 53 1800 230/09 RMK AO2 SLP196 T02500150 10250 20156 51004
14840KMKG MKG20030713125513107/13/03 12:55:31  5-MIN KMKG 131755Z 22009KT 10SM FEW042 25/15 A3011 450 53 1800 230/09 RMK AO2 SLP195 T02500150 10250 20156 58001
14840KMKG MKG20030713130009307/13/03 13:00:31  5-MIN KMKG 131800Z 22009KT 10SM CLR 25/15 A3012 450 53 1800 220/09 RMK AO2
14840KMKG MKG20030713130509307/13/03 13:05:31  5-MIN KMKG 131805Z 24009KT 10SM CLR 24/15 A3012 450 55 1700 240/09 RMK AO2
14840KMKG MKG20030713131009307/13/03 13:10:31  5-MIN KMKG 131810Z 24008KT 10SM CLR 25/16 A3012 450 55 1700 240/08 RMK AO2
14840KMKG MKG20030713131509307/13/03 13:15:31  5-MIN KMKG 131815Z 23009KT 10SM CLR 25/16 A3012 450 55 1800 240/09 RMK AO2
14840KMKG MKG20030713132009307/13/03 13:20:31  5-MIN KMKG 131820Z 21008KT 10SM CLR 24/15 A3011 450 55 1700 220/08 RMK AO2
14840KMKG MKG20030713132509307/13/03 13:25:31  5-MIN KMKG 131825Z 22008KT 10SM CLR 25/15 A3012 450 53 1800 220/08 RMK AO2
14840KMKG MKG20030713133009307/13/03 13:30:31  5-MIN KMKG 131830Z 21008KT 10SM CLR 25/15 A3012 450 53 1800 220/08 RMK AO2
14840KMKG MKG20030713133509307/13/03 13:35:31  5-MIN KMKG 131835Z 21008KT 10SM CLR 25/15 A3011 450 53 1800 220/08 RMK AO2
14840KMKG MKG20030713134010907/13/03 13:40:31  5-MIN KMKG 131840Z 23007KT 200V260 10SM CLR 26/15 A3011 450 51 1800 230/07 200V260 RMK AO2
14840KMKG MKG20030713134509607/13/03 13:45:31  5-MIN KMKG 131845Z 21008KT 10SM FEW050 26/15 A3011 450 51 1800 210/08 RMK AO2
14840KMKG MKG20030713135011307/13/03 13:50:31  5-MIN KMKG 131850Z 24007KT 10SM FEW050 26/16 A3011 450 53 1800 250/07 RMK AO2 SLP195 T02560156
14840KMKG MKG20030713135511307/13/03 13:55:31  5-MIN KMKG 131855Z 21008KT 10SM FEW050 26/16 A3011 450 53 1800 210/08 RMK AO2 SLP194 T02560156
14840KMKG MKG20030713140009307/13/03 14:00:31  5-MIN KMKG 131900Z 24008KT 10SM CLR 25/16 A3011 460 55 1800 240/08 RMK AO2
14840KMKG MKG20030713140509307/13/03 14:05:31  5-MIN KMKG 131905Z 22009KT 10SM CLR 26/16 A3011 460 53 1800 220/09 RMK AO2
14840KMKG MKG20030713141009307/13/03 14:10:31  5-MIN KMKG 131910Z 23009KT 10SM CLR 26/16 A3010 460 53 1800 240/09 RMK AO2
14840KMKG MKG20030713141509307/13/03 14:15:31  5-MIN KMKG 131915Z 23009KT 10SM CLR 26/15 A3010 460 51 1800 240/09 RMK AO2
14840KMKG MKG20030713142009307/13/03 14:20:31  5-MIN KMKG 131920Z 24009KT 10SM CLR 26/14 A3010 460 49 1800 240/09 RMK AO2
14840KMKG MKG20030713142509307/13/03 14:25:31  5-MIN KMKG 131925Z 24008KT 10SM CLR 26/14 A3010 460 49 1800 250/08 RMK AO2
14840KMKG MKG20030713143009307/13/03 14:30:31  5-MIN KMKG 131930Z 24009KT 10SM CLR 26/14 A3010 460 49 1800 250/09 RMK AO2
14840KMKG MKG20030713143509607/13/03 14:35:31  5-MIN KMKG 131935Z 22009KT 10SM FEW055 26/14 A3011 460 48 1900 230/09 RMK AO2
14840KMKG MKG20030713144009607/13/03 14:40:31  5-MIN KMKG 131940Z 24009KT 10SM FEW055 26/14 A3011 460 49 1800 240/09 RMK AO2
14840KMKG MKG20030713144509607/13/03 14:45:31  5-MIN KMKG 131945Z 22010KT 10SM FEW055 26/14 A3011 460 49 1800 220/10 RMK AO2
14840KMKG MKG20030713145011307/13/03 14:50:31  5-MIN KMKG 131950Z 22009KT 10SM FEW055 26/14 A3010 460 48 1800 220/09 RMK AO2 SLP192 T02560139
14840KMKG MKG20030713145511307/13/03 14:55:31  5-MIN KMKG 131955Z 24010KT 10SM FEW055 26/14 A3010 460 49 1800 250/10 RMK AO2 SLP191 T02560144
14840KMKG MKG20030713150009307/13/03 15:00:31  5-MIN KMKG 132000Z 23009KT 10SM CLR 26/14 A3010 460 49 1800 240/09 RMK AO2
14840KMKG MKG20030713150509307/13/03 15:05:31  5-MIN KMKG 132005Z 22010KT 10SM CLR 26/14 A3010 460 48 1800 220/10 RMK AO2
14840KMKG MKG20030713151009307/13/03 15:10:31  5-MIN KMKG 132010Z 22009KT 10SM CLR 26/14 A3010 460 48 1800 220/09 RMK AO2
14840KMKG MKG20030713151509307/13/03 15:15:31  5-MIN KMKG 132015Z 22009KT 10SM CLR 26/14 A3010 460 48 1800 220/09 RMK AO2
14840KMKG MKG20030713152009307/13/03 15:20:31  5-MIN KMKG 132020Z 23010KT 10SM CLR 26/14 A3010 460 48 1800 230/10 RMK AO2
14840KMKG MKG20030713152509307/13/03 15:25:31  5-MIN KMKG 132025Z 23009KT 10SM CLR 25/14 A3010 460 49 1800 230/09 RMK AO2
14840KMKG MKG20030713153009307/13/03 15:30:31  5-MIN KMKG 132030Z 24009KT 10SM CLR 26/14 A3010 460 48 1800 250/09 RMK AO2
14840KMKG MKG20030713153509307/13/03 15:35:31  5-MIN KMKG 132035Z 22008KT 10SM CLR 26/14 A3010 460 48 1800 220/08 RMK AO2
14840KMKG MKG20030713154009307/13/03 15:40:31  5-MIN KMKG 132040Z 23008KT 10SM CLR 26/14 A3010 460 48 1800 230/08 RMK AO2
14840KMKG MKG20030713154509307/13/03 15:45:31  5-MIN KMKG 132045Z 23008KT 10SM CLR 26/13 A3010 460 46 1800 230/08 RMK AO2
14840KMKG MKG20030713155011907/13/03 15:50:31  5-MIN KMKG 132050Z 22009KT 10SM FEW055 26/13 A3010 460 46 1800 220/09 RMK AO2 SLP191 T02560133 58001
14840KMKG MKG20030713155511907/13/03 15:55:31  5-MIN KMKG 132055Z 22009KT 10SM FEW055 26/13 A3010 460 46 1800 230/09 RMK AO2 SLP191 T02560133 56004
14840KMKG MKG20030713160009307/13/03 16:00:31  5-MIN KMKG 132100Z 23009KT 10SM CLR 25/13 A3010 460 48 1800 230/09 RMK AO2
14840KMKG MKG20030713160509307/13/03 16:05:31  5-MIN KMKG 132105Z 23008KT 10SM CLR 25/14 A3010 460 49 1800 230/08 RMK AO2
14840KMKG MKG20030713161009307/13/03 16:10:31  5-MIN KMKG 132110Z 21008KT 10SM CLR 26/14 A3010 460 48 1800 220/08 RMK AO2
14840KMKG MKG20030713161509307/13/03 16:15:31  5-MIN KMKG 132115Z 20008KT 10SM CLR 26/14 A3010 460 48 1800 210/08 RMK AO2
14840KMKG MKG20030713162009307/13/03 16:20:31  5-MIN KMKG 132120Z 24008KT 10SM CLR 26/13 A3010 460 46 1800 250/08 RMK AO2
14840KMKG MKG20030713162509607/13/03 16:25:31  5-MIN KMKG 132125Z 21008KT 10SM FEW055 26/14 A3010 460 48 1800 210/08 RMK AO2
14840KMKG MKG20030713163009607/13/03 16:30:31  5-MIN KMKG 132130Z 23008KT 10SM FEW055 25/13 A3010 470 48 1800 230/08 RMK AO2
14840KMKG MKG20030713163509607/13/03 16:35:31  5-MIN KMKG 132135Z 23007KT 10SM FEW055 26/13 A3010 470 46 1800 230/07 RMK AO2
14840KMKG MKG20030713164009607/13/03 16:40:31  5-MIN KMKG 132140Z 23007KT 10SM FEW055 26/13 A3010 470 46 1800 230/07 RMK AO2
14840KMKG MKG20030713164509607/13/03 16:45:31  5-MIN KMKG 132145Z 23007KT 10SM FEW055 25/13 A3010 470 48 1800 240/07 RMK AO2
14840KMKG MKG20030713165011307/13/03 16:50:31  5-MIN KMKG 132150Z 25007KT 10SM FEW055 26/13 A3010 470 46 1800 250/07 RMK AO2 SLP190 T02560133
14840KMKG MKG20030713165511307/13/03 16:55:31  5-MIN KMKG 132155Z 25007KT 10SM FEW055 25/13 A3010 470 48 1800 250/07 RMK AO2 SLP190 T02500133
14840KMKG MKG20030713170009607/13/03 17:00:31  5-MIN KMKG 132200Z 22008KT 10SM FEW055 25/14 A3009 470 49 1800 230/08 RMK AO2
14840KMKG MKG20030713170509607/13/03 17:05:31  5-MIN KMKG 132205Z 22008KT 10SM FEW055 25/13 A3009 470 48 1800 230/08 RMK AO2
14840KMKG MKG20030713171009607/13/03 17:10:31  5-MIN KMKG 132210Z 22007KT 10SM FEW055 25/13 A3010 470 48 1800 220/07 RMK AO2
14840KMKG MKG20030713171509607/13/03 17:15:31  5-MIN KMKG 132215Z 23007KT 10SM FEW055 25/14 A3009 470 49 1800 240/07 RMK AO2
14840KMKG MKG20030713172009607/13/03 17:20:31  5-MIN KMKG 132220Z 25007KT 10SM FEW055 25/13 A3009 470 48 1800 250/07 RMK AO2
14840KMKG MKG20030713172509607/13/03 17:25:31  5-MIN KMKG 132225Z 22006KT 10SM FEW055 25/13 A3009 470 48 1800 220/06 RMK AO2
14840KMKG MKG20030713173009607/13/03 17:30:31  5-MIN KMKG 132230Z VRB06KT 10SM FEW055 25/14 A3009 470 49 1800 VRB/06 RMK AO2
14840KMKG MKG20030713173509607/13/03 17:35:31  5-MIN KMKG 132235Z 24006KT 10SM FEW055 25/14 A3009 470 49 1800 240/06 RMK AO2
14840KMKG MKG20030713174009607/13/03 17:40:31  5-MIN KMKG 132240Z 23007KT 10SM FEW055 24/13 A3009 470 49 1700 240/07 RMK AO2
14840KMKG MKG20030713174509607/13/03 17:45:31  5-MIN KMKG 132245Z 24006KT 10SM FEW055 24/13 A3009 470 49 1700 240/06 RMK AO2
14840KMKG MKG20030713175011307/13/03 17:50:31  5-MIN KMKG 132250Z 24004KT 10SM FEW055 24/13 A3009 480 49 1700 240/04 RMK AO2 SLP187 T02440133
14840KMKG MKG20030713175511307/13/03 17:55:31  5-MIN KMKG 132255Z 24005KT 10SM FEW055 24/13 A3009 480 49 1700 240/05 RMK AO2 SLP187 T02440133
14840KMKG MKG20030713180009307/13/03 18:00:31  5-MIN KMKG 132300Z 24005KT 10SM CLR 24/13 A3009 480 49 1700 250/05 RMK AO2
14840KMKG MKG20030713180509607/13/03 18:05:31  5-MIN KMKG 132305Z 21004KT 10SM FEW055 24/13 A3009 480 49 1700 220/04 RMK AO2
14840KMKG MKG20030713181009607/13/03 18:10:31  5-MIN KMKG 132310Z 24005KT 10SM FEW055 24/13 A3009 480 49 1700 250/05 RMK AO2
14840KMKG MKG20030713181509607/13/03 18:15:31  5-MIN KMKG 132315Z 24006KT 10SM FEW055 25/13 A3008 480 48 1800 240/06 RMK AO2
14840KMKG MKG20030713182009607/13/03 18:20:31  5-MIN KMKG 132320Z 23005KT 10SM FEW055 24/13 A3008 480 47 1700 240/05 RMK AO2
14840KMKG MKG20030713182509607/13/03 18:25:31  5-MIN KMKG 132325Z 24005KT 10SM FEW055 24/13 A3008 480 49 1700 240/05 RMK AO2
14840KMKG MKG20030713183009607/13/03 18:30:31  5-MIN KMKG 132330Z 24004KT 10SM FEW055 24/13 A3008 480 49 1700 240/04 RMK AO2
14840KMKG MKG20030713183509607/13/03 18:35:31  5-MIN KMKG 132335Z 20004KT 10SM FEW055 24/13 A3008 480 49 1700 210/04 RMK AO2
14840KMKG MKG20030713184009607/13/03 18:40:31  5-MIN KMKG 132340Z 21004KT 10SM FEW055 24/13 A3008 480 47 1700 220/04 RMK AO2
14840KMKG MKG20030713184509607/13/03 18:45:31  5-MIN KMKG 132345Z 21004KT 10SM FEW055 24/13 A3008 480 47 1700 210/04 RMK AO2
14840KMKG MKG20030713185013107/13/03 18:50:31  5-MIN KMKG 132350Z 21004KT 10SM FEW055 24/13 A3008 480 47 1700 220/04 RMK AO2 SLP185 T02440128 10261 20244 56004
14840KMKG MKG20030713185513107/13/03 18:55:31  5-MIN KMKG 132355Z 21004KT 10SM FEW055 24/13 A3008 480 47 1700 220/04 RMK AO2 SLP184 T02440128 10261 20244 56007
14840KMKG MKG20030713190009307/13/03 19:00:31  5-MIN KMKG 140000Z 21004KT 10SM CLR 24/13 A3008 480 49 1700 220/04 RMK AO2
14840KMKG MKG20030713190509307/13/03 19:05:31  5-MIN KMKG 140005Z 22004KT 10SM CLR 24/12 A3008 480 47 1700 220/04 RMK AO2
14840KMKG MKG20030713191009307/13/03 19:10:31  5-MIN KMKG 140010Z 22003KT 10SM CLR 24/13 A3008 480 49 1700 220/03 RMK AO2
14840KMKG MKG20030713191509307/13/03 19:15:31  5-MIN KMKG 140015Z 16003KT 10SM CLR 24/13 A3008 480 49 1700 170/03 RMK AO2
14840KMKG MKG20030713192009307/13/03 19:20:31  5-MIN KMKG 140020Z 00000KT 10SM CLR 24/12 A3008 480 47 1700 000/00 RMK AO2
14840KMKG MKG20030713192509307/13/03 19:25:31  5-MIN KMKG 140025Z 00000KT 10SM CLR 24/12 A3008 480 47 1700 000/00 RMK AO2
14840KMKG MKG20030713193009307/13/03 19:30:31  5-MIN KMKG 140030Z 17003KT 10SM CLR 24/14 A3008 480 53 1700 180/03 RMK AO2
14840KMKG MKG20030713193509307/13/03 19:35:31  5-MIN KMKG 140035Z 00000KT 10SM CLR 23/13 A3008 480 51 1600 000/00 RMK AO2
14840KMKG MKG20030713194009307/13/03 19:40:31  5-MIN KMKG 140040Z 00000KT 10SM CLR 23/13 A3008 480 51 1600 000/00 RMK AO2
14840KMKG MKG20030713194509307/13/03 19:45:31  5-MIN KMKG 140045Z 00000KT 10SM CLR 23/13 A3009 480 55 1500 000/00 RMK AO2
14840KMKG MKG20030713195011007/13/03 19:50:31  5-MIN KMKG 140050Z 00000KT 10SM CLR 23/13 A3009 480 55 1500 000/00 RMK AO2 SLP185 T02280133
14840KMKG MKG20030713195511007/13/03 19:55:31  5-MIN KMKG 140055Z 00000KT 10SM CLR 23/14 A3008 480 57 1500 000/00 RMK AO2 SLP184 T02280139
14840KMKG MKG20030713200009307/13/03 20:00:31  5-MIN KMKG 140100Z 00000KT 10SM CLR 22/14 A3008 480 59 1500 000/00 RMK AO2
14840KMKG MKG20030713200509307/13/03 20:05:31  5-MIN KMKG 140105Z 20003KT 10SM CLR 22/14 A3008 480 63 1400 210/03 RMK AO2
14840KMKG MKG20030713201009307/13/03 20:10:31  5-MIN KMKG 140110Z 00000KT 10SM CLR 22/14 A3008 480 61 1400 000/00 RMK AO2
14840KMKG MKG20030713201509307/13/03 20:15:31  5-MIN KMKG 140115Z 00000KT 10SM CLR 21/14 A3009 480 65 1300 000/00 RMK AO2
14840KMKG MKG20030713202009307/13/03 20:20:31  5-MIN KMKG 140120Z 21003KT 10SM CLR 21/14 A3009 480 65 1300 210/03 RMK AO2
14840KMKG MKG20030713202509307/13/03 20:25:31  5-MIN KMKG 140125Z 21003KT 10SM CLR 21/14 A3009 480 67 1300 220/03 RMK AO2
14840KMKG MKG20030713203009307/13/03 20:30:31  5-MIN KMKG 140130Z 20003KT 10SM CLR 19/15 A3009 480 75 1100 210/03 RMK AO2
14840KMKG MKG20030713203509307/13/03 20:35:31  5-MIN KMKG 140135Z 18003KT 10SM CLR 21/15 A3009 480 70 1300 180/03 RMK AO2
14840KMKG MKG20030713204009307/13/03 20:40:31  5-MIN KMKG 140140Z 00000KT 10SM CLR 20/15 A3009 480 72 1200 000/00 RMK AO2
14840KMKG MKG20030713204509307/13/03 20:45:31  5-MIN KMKG 140145Z 00000KT 10SM CLR 20/15 A3009 480 72 1200 000/00 RMK AO2
14840KMKG MKG20030713205011007/13/03 20:50:31  5-MIN KMKG 140150Z 00000KT 10SM CLR 19/15 A3009 480 75 1100 000/00 RMK AO2 SLP186 T01940150
14840KMKG MKG20030713205511007/13/03 20:55:31  5-MIN KMKG 140155Z 00000KT 10SM CLR 19/15 A3009 480 78 1100 000/00 RMK AO2 SLP187 T01890150
14840KMKG MKG20030713210009307/13/03 21:00:31  5-MIN KMKG 140200Z 00000KT 10SM CLR 18/15 A3009 470 81 1000 000/00 RMK AO2
14840KMKG MKG20030713210509307/13/03 21:05:31  5-MIN KMKG 140205Z 00000KT 10SM CLR 18/15 A3009 470 81 1000 000/00 RMK AO2
14840KMKG MKG20030713211009307/13/03 21:10:31  5-MIN KMKG 140210Z 00000KT 10SM CLR 18/15 A3009 470 81 1000 000/00 RMK AO2
14840KMKG MKG20030713211509307/13/03 21:15:31  5-MIN KMKG 140215Z 00000KT 10SM CLR 18/15 A3009 470 81 1000 000/00 RMK AO2
14840KMKG MKG20030713212009307/13/03 21:20:31  5-MIN KMKG 140220Z 00000KT 10SM CLR 18/15 A3009 470 81 1000 000/00 RMK AO2
14840KMKG MKG20030713212509307/13/03 21:25:31  5-MIN KMKG 140225Z 00000KT 10SM CLR 18/15 A3009 470 81 1000 000/00 RMK AO2
14840KMKG MKG20030713213009307/13/03 21:30:31  5-MIN KMKG 140230Z 00000KT 10SM CLR 18/15 A3009 470 81 1000 000/00 RMK AO2
14840KMKG MKG20030713213509207/13/03 21:35:31  5-MIN KMKG 140235Z 00000KT 10SM CLR 18/15 A3009 470 83 900 000/00 RMK AO2
14840KMKG MKG20030713214009307/13/03 21:40:31  5-MIN KMKG 140240Z 00000KT 10SM CLR 18/15 A3009 470 81 1000 000/00 RMK AO2
14840KMKG MKG20030713214509307/13/03 21:45:31  5-MIN KMKG 140245Z 00000KT 10SM CLR 18/15 A3009 470 81 1000 000/00 RMK AO2
14840KMKG MKG20030713215011607/13/03 21:50:31  5-MIN KMKG 140250Z 00000KT 10SM CLR 18/15 A3009 470 81 1000 000/00 RMK AO2 SLP188 T01830150 56007
14840KMKG MKG20030713215511507/13/03 21:55:31  5-MIN KMKG 140255Z 00000KT 10SM CLR 18/15 A3009 470 83 900 000/00 RMK AO2 SLP188 T01780150 53004
14840KMKG MKG20030713220009207/13/03 22:00:31  5-MIN KMKG 140300Z 00000KT 10SM CLR 18/15 A3009 470 83 900 000/00 RMK AO2
14840KMKG MKG20030713220509207/13/03 22:05:31  5-MIN KMKG 140305Z 00000KT 10SM CLR 18/15 A3009 470 83 900 000/00 RMK AO2
14840KMKG MKG20030713221009207/13/03 22:10:31  5-MIN KMKG 140310Z 00000KT 10SM CLR 18/15 A3009 470 83 900 000/00 RMK AO2
14840KMKG MKG20030713221509207/13/03 22:15:31  5-MIN KMKG 140315Z 00000KT 10SM CLR 17/15 A3009 470 87 900 000/00 RMK AO2
14840KMKG MKG20030713222009207/13/03 22:20:31  5-MIN KMKG 140320Z 00000KT 10SM CLR 17/14 A3009 470 83 900 000/00 RMK AO2
14840KMKG MKG20030713222509207/13/03 22:25:31  5-MIN KMKG 140325Z 00000KT 10SM CLR 17/14 A3009 470 83 900 000/00 RMK AO2
14840KMKG MKG20030713223009207/13/03 22:30:31  5-MIN KMKG 140330Z 00000KT 10SM CLR 17/14 A3009 470 86 800 000/00 RMK AO2
14840KMKG MKG20030713223509207/13/03 22:35:31  5-MIN KMKG 140335Z 00000KT 10SM CLR 17/14 A3009 470 86 800 000/00 RMK AO2
14840KMKG MKG20030713224009207/13/03 22:40:31  5-MIN KMKG 140340Z 12003KT 10SM CLR 17/14 A3009 470 86 800 120/03 RMK AO2
14840KMKG MKG20030713224509207/13/03 22:45:31  5-MIN KMKG 140345Z 13003KT 10SM CLR 17/14 A3009 470 86 800 140/03 RMK AO2
14840KMKG MKG20030713225010907/13/03 22:50:31  5-MIN KMKG 140350Z 00000KT 10SM CLR 17/15 A3009 470 87 900 000/00 RMK AO2 SLP188 T01720150
14840KMKG MKG20030713225510907/13/03 22:55:31  5-MIN KMKG 140355Z 00000KT 10SM CLR 17/15 A3009 470 87 900 000/00 RMK AO2 SLP187 T01720150
14840KMKG MKG20030713230009207/13/03 23:00:31  5-MIN KMKG 140400Z 00000KT 10SM CLR 17/14 A3009 480 83 900 000/00 RMK AO2
14840KMKG MKG20030713230509207/13/03 23:05:31  5-MIN KMKG 140405Z 00000KT 10SM CLR 17/14 A3009 480 86 800 000/00 RMK AO2
14840KMKG MKG20030713231009207/13/03 23:10:31  5-MIN KMKG 140410Z 00000KT 10SM CLR 17/14 A3009 480 86 800 000/00 RMK AO2
14840KMKG MKG20030713231509207/13/03 23:15:31  5-MIN KMKG 140415Z 00000KT 10SM CLR 16/14 A3009 480 90 800 000/00 RMK AO2
14840KMKG MKG20030713232009207/13/03 23:20:31  5-MIN KMKG 140420Z 00000KT 10SM CLR 16/14 A3009 480 90 800 000/00 RMK AO2
14840KMKG MKG20030713232509207/13/03 23:25:31  5-MIN KMKG 140425Z 00000KT 10SM CLR 17/14 A3009 480 86 800 000/00 RMK AO2
14840KMKG MKG20030713233009207/13/03 23:30:31  5-MIN KMKG 140430Z 13003KT 10SM CLR 17/14 A3009 470 86 800 130/03 RMK AO2
14840KMKG MKG20030713233509207/13/03 23:35:31  5-MIN KMKG 140435Z 12005KT 10SM CLR 16/14 A3009 470 90 700 130/05 RMK AO2
14840KMKG MKG20030713234009207/13/03 23:40:31  5-MIN KMKG 140440Z 13005KT 10SM CLR 16/14 A3009 470 93 700 130/05 RMK AO2
14840KMKG MKG20030713234509207/13/03 23:45:31  5-MIN KMKG 140445Z 13004KT 10SM CLR 16/14 A3009 470 93 700 140/04 RMK AO2
14840KMKG MKG20030713235011907/13/03 23:50:31  5-MIN KMKG 140450Z 12005KT 10SM CLR 16/14 A3009 470 90 800 130/05 RMK AO2 SLP188 T01610144 402610122
14840KMKG MKG20030713235511907/13/03 23:55:31  5-MIN KMKG 140455Z 13005KT 10SM CLR 16/14 A3010 470 86 700 130/05 RMK AO2 SLP189 T01610139 402610122
14840KMKG MKG20030714000009207/14/03 00:00:31  5-MIN KMKG 140500Z 14003KT 10SM CLR 16/14 A3009 470 90 700 140/03 RMK AO2
14840KMKG MKG20030714000509207/14/03 00:05:31  5-MIN KMKG 140505Z 00000KT 10SM CLR 16/14 A3009 470 86 800 000/00 RMK AO2
14840KMKG MKG20030714001009207/14/03 00:10:31  5-MIN KMKG 140510Z 00000KT 10SM CLR 17/14 A3009 470 83 800 000/00 RMK AO2
14840KMKG MKG20030714001509207/14/03 00:15:31  5-MIN KMKG 140515Z 13003KT 10SM CLR 17/14 A3009 470 83 800 130/03 RMK AO2
14840KMKG MKG20030714002009207/14/03 00:20:31  5-MIN KMKG 140520Z 00000KT 10SM CLR 16/13 A3009 480 83 800 000/00 RMK AO2
14840KMKG MKG20030714002509207/14/03 00:25:31  5-MIN KMKG 140525Z 00000KT 10SM CLR 16/14 A3009 480 86 800 000/00 RMK AO2
14840KMKG MKG20030714003009207/14/03 00:30:31  5-MIN KMKG 140530Z 00000KT 10SM CLR 16/14 A3008 480 86 800 000/00 RMK AO2
14840KMKG MKG20030714003509207/14/03 00:35:31  5-MIN KMKG 140535Z 13003KT 10SM CLR 16/14 A3008 480 86 800 130/03 RMK AO2
14840KMKG MKG20030714004009207/14/03 00:40:31  5-MIN KMKG 140540Z 13003KT 10SM CLR 16/13 A3008 480 86 700 140/03 RMK AO2
14840KMKG MKG20030714004509207/14/03 00:45:31  5-MIN KMKG 140545Z 00000KT 10SM CLR 16/14 A3008 480 86 800 000/00 RMK AO2
14840KMKG MKG20030714005012707/14/03 00:50:31  5-MIN KMKG 140550Z 00000KT 10SM CLR 16/14 A3008 480 86 800 000/00 RMK AO2 SLP184 T01610139 10244 20156 53004
14840KMKG MKG20030714005512707/14/03 00:55:31  5-MIN KMKG 140555Z 00000KT 10SM CLR 16/14 A3008 480 86 800 000/00 RMK AO2 SLP184 T01610139 10244 20156 58004
14840KMKG MKG20030714010009207/14/03 01:00:31  5-MIN KMKG 140600Z 00000KT 10SM CLR 16/14 A3008 480 86 800 000/00 RMK AO2
14840KMKG MKG20030714010509207/14/03 01:05:31  5-MIN KMKG 140605Z 00000KT 10SM CLR 17/14 A3008 480 83 800 000/00 RMK AO2
14840KMKG MKG20030714011009207/14/03 01:10:31  5-MIN KMKG 140610Z 00000KT 10SM CLR 16/13 A3008 480 86 700 000/00 RMK AO2
14840KMKG MKG20030714011509207/14/03 01:15:31  5-MIN KMKG 140615Z 00000KT 10SM CLR 16/14 A3008 480 86 800 000/00 RMK AO2
14840KMKG MKG20030714012009207/14/03 01:20:31  5-MIN KMKG 140620Z 11003KT 10SM CLR 17/14 A3009 480 80 900 110/03 RMK AO2
14840KMKG MKG20030714012509207/14/03 01:25:31  5-MIN KMKG 140625Z 12003KT 10SM CLR 16/13 A3009 470 80 800 120/03 RMK AO2
14840KMKG MKG20030714013009207/14/03 01:30:31  5-MIN KMKG 140630Z 13003KT 10SM CLR 16/13 A3009 470 86 700 130/03 RMK AO2
14840KMKG MKG20030714013509207/14/03 01:35:31  5-MIN KMKG 140635Z 14003KT 10SM CLR 15/13 A3009 470 90 600 150/03 RMK AO2
14840KMKG MKG20030714014009207/14/03 01:40:31  5-MIN KMKG 140640Z 14004KT 10SM CLR 15/13 A3009 470 90 600 140/04 RMK AO2
14840KMKG MKG20030714014509207/14/03 01:45:31  5-MIN KMKG 140645Z 15005KT 10SM CLR 15/13 A3009 480 90 600 150/05 RMK AO2
14840KMKG MKG20030714015010907/14/03 01:50:31  5-MIN KMKG 140650Z 16004KT 10SM CLR 16/14 A3009 480 90 700 160/04 RMK AO2 SLP186 T01560139
14840KMKG MKG20030714015510907/14/03 01:55:31  5-MIN KMKG 140655Z 15003KT 10SM CLR 15/13 A3009 470 90 600 150/03 RMK AO2 SLP187 T01500133
14840KMKG MKG20030714020009207/14/03 02:00:31  5-MIN KMKG 140700Z 00000KT 10SM CLR 15/13 A3009 470 90 600 000/00 RMK AO2
14840KMKG MKG20030714020509207/14/03 02:05:31  5-MIN KMKG 140705Z 15003KT 10SM CLR 15/13 A3009 470 90 600 150/03 RMK AO2
14840KMKG MKG20030714021009207/14/03 02:10:31  5-MIN KMKG 140710Z 00000KT 10SM CLR 16/14 A3009 470 90 700 000/00 RMK AO2
14840KMKG MKG20030714021509207/14/03 02:15:31  5-MIN KMKG 140715Z 00000KT 10SM CLR 16/13 A3009 470 86 700 000/00 RMK AO2
14840KMKG MKG20030714022009207/14/03 02:20:31  5-MIN KMKG 140720Z 12003KT 10SM CLR 16/14 A3009 470 90 700 120/03 RMK AO2
14840KMKG MKG20030714022509207/14/03 02:25:31  5-MIN KMKG 140725Z 11003KT 10SM CLR 16/14 A3009 470 90 700 120/03 RMK AO2
14840KMKG MKG20030714023009207/14/03 02:30:31  5-MIN KMKG 140730Z 11003KT 10SM CLR 16/14 A3009 470 90 700 110/03 RMK AO2
14840KMKG MKG20030714023509207/14/03 02:35:31  5-MIN KMKG 140735Z 00000KT 10SM CLR 16/14 A3009 470 90 700 000/00 RMK AO2
14840KMKG MKG20030714024009207/14/03 02:40:31  5-MIN KMKG 140740Z 00000KT 10SM CLR 16/14 A3009 470 90 700 000/00 RMK AO2
14840KMKG MKG20030714024509207/14/03 02:45:31  5-MIN KMKG 140745Z 00000KT 10SM CLR 16/14 A3009 470 90 700 000/00 RMK AO2
14840KMKG MKG20030714025010907/14/03 02:50:31  5-MIN KMKG 140750Z 00000KT 10SM CLR 16/14 A3010 470 86 700 000/00 RMK AO2 SLP189 T01610139
14840KMKG MKG20030714025510907/14/03 02:55:31  5-MIN KMKG 140755Z 00000KT 10SM CLR 16/14 A3010 460 86 700 000/00 RMK AO2 SLP191 T01610139
14840KMKG MKG20030714030009207/14/03 03:00:31  5-MIN KMKG 140800Z 12003KT 10SM CLR 16/14 A3010 460 86 700 120/03 RMK AO2
14840KMKG MKG20030714030509207/14/03 03:05:31  5-MIN KMKG 140805Z 13003KT 10SM CLR 16/14 A3010 460 86 700 130/03 RMK AO2
14840KMKG MKG20030714031009207/14/03 03:10:31  5-MIN KMKG 140810Z 00000KT 10SM CLR 16/14 A3010 460 86 700 000/00 RMK AO2
14840KMKG MKG20030714031509207/14/03 03:15:31  5-MIN KMKG 140815Z 00000KT 10SM CLR 16/14 A3010 460 90 700 000/00 RMK AO2
14840KMKG MKG20030714032009207/14/03 03:20:31  5-MIN KMKG 140820Z 00000KT 10SM CLR 16/14 A3010 460 90 700 000/00 RMK AO2
14840KMKG MKG20030714032509207/14/03 03:25:31  5-MIN KMKG 140825Z 00000KT 10SM CLR 15/13 A3011 460 90 600 000/00 RMK AO2
14840KMKG MKG20030714033009207/14/03 03:30:31  5-MIN KMKG 140830Z 00000KT 10SM CLR 15/14 A3011 460 93 600 000/00 RMK AO2
14840KMKG MKG20030714033509207/14/03 03:35:31  5-MIN KMKG 140835Z 00000KT 10SM CLR 15/13 A3011 460 90 600 000/00 RMK AO2
14840KMKG MKG20030714034009207/14/03 03:40:31  5-MIN KMKG 140840Z 00000KT 10SM CLR 15/14 A3011 450 93 600 000/00 RMK AO2
14840KMKG MKG20030714034509207/14/03 03:45:31  5-MIN KMKG 140845Z 00000KT 10SM CLR 15/14 A3011 450 93 600 000/00 RMK AO2
14840KMKG MKG20030714035011507/14/03 03:50:31  5-MIN KMKG 140850Z 00000KT 10SM CLR 15/14 A3011 460 93 600 000/00 RMK AO2 SLP194 T01500139 58004
14840KMKG MKG20030714035511507/14/03 03:55:31  5-MIN KMKG 140855Z 00000KT 10SM CLR 14/13 A3011 450 93 500 000/00 RMK AO2 SLP194 T01440133 51010
14840KMKG MKG20030714040009207/14/03 04:00:31  5-MIN KMKG 140900Z 11003KT 10SM CLR 14/13 A3011 450 93 500 110/03 RMK AO2
14840KMKG MKG20030714040509207/14/03 04:05:31  5-MIN KMKG 140905Z 12004KT 10SM CLR 14/13 A3012 450 93 500 120/04 RMK AO2
14840KMKG MKG20030714041009207/14/03 04:10:31  5-MIN KMKG 140910Z 12003KT 10SM CLR 14/13 A3012 450 96 500 120/03 RMK AO2
14840KMKG MKG20030714041509207/14/03 04:15:31  5-MIN KMKG 140915Z 00000KT 10SM CLR 14/13 A3012 450 93 500 000/00 RMK AO2
14840KMKG MKG20030714042009207/14/03 04:20:31  5-MIN KMKG 140920Z 12003KT 10SM CLR 15/13 A3011 450 90 600 120/03 RMK AO2
14840KMKG MKG20030714042509207/14/03 04:25:31  5-MIN KMKG 140925Z 12003KT 10SM CLR 15/13 A3011 450 90 600 120/03 RMK AO2
14840KMKG MKG20030714043009207/14/03 04:30:31  5-MIN KMKG 140930Z 12003KT 10SM CLR 15/13 A3011 450 90 600 130/03 RMK AO2
14840KMKG MKG20030714043509207/14/03 04:35:31  5-MIN KMKG 140935Z 12003KT 10SM CLR 15/13 A3012 450 90 600 130/03 RMK AO2
14840KMKG MKG20030714044009207/14/03 04:40:31  5-MIN KMKG 140940Z 12003KT 10SM CLR 15/13 A3012 450 90 600 130/03 RMK AO2
14840KMKG MKG20030714044509207/14/03 04:45:31  5-MIN KMKG 140945Z 12004KT 10SM CLR 14/13 A3011 450 93 500 130/04 RMK AO2
14840KMKG MKG20030714045010907/14/03 04:50:31  5-MIN KMKG 140950Z 12005KT 10SM CLR 14/13 A3011 460 93 500 130/05 RMK AO2 SLP194 T01440133
14840KMKG MKG20030714045510907/14/03 04:55:31  5-MIN KMKG 140955Z 12005KT 10SM CLR 14/13 A3011 450 93 500 120/05 RMK AO2 SLP194 T01440133
14840KMKG MKG20030714050009107/14/03 05:00:31  5-MIN KMKG 141000Z 11004KT 9SM CLR 14/13 A3011 450 93 500 120/04 RMK AO2
14840KMKG MKG20030714050509107/14/03 05:05:31  5-MIN KMKG 141005Z 11003KT 9SM CLR 14/13 A3011 450 93 500 110/03 RMK AO2
14840KMKG MKG20030714051009107/14/03 05:10:31  5-MIN KMKG 141010Z 00000KT 8SM CLR 14/13 A3012 450 93 500 000/00 RMK AO2
14840KMKG MKG20030714051509107/14/03 05:15:31  5-MIN KMKG 141015Z 11003KT 8SM CLR 15/13 A3012 450 90 600 110/03 RMK AO2
14840KMKG MKG20030714052009107/14/03 05:20:31  5-MIN KMKG 141020Z 11003KT 8SM CLR 14/13 A3012 450 93 500 110/03 RMK AO2
14840KMKG MKG20030714052509107/14/03 05:25:31  5-MIN KMKG 141025Z 12004KT 8SM CLR 14/13 A3012 450 93 500 120/04 RMK AO2
14840KMKG MKG20030714053009407/14/03 05:30:31  5-MIN KMKG 141030Z 00000KT 8SM FEW065 14/13 A3012 450 93 500 000/00 RMK AO2
14840KMKG MKG20030714053509407/14/03 05:35:31  5-MIN KMKG 141035Z 12004KT 8SM SCT065 14/13 A3012 450 93 500 120/04 RMK AO2
14840KMKG MKG20030714054009407/14/03 05:40:31  5-MIN KMKG 141040Z 11004KT 8SM BKN065 14/13 A3012 450 93 500 120/04 RMK AO2
14840KMKG MKG20030714054509407/14/03 05:45:31  5-MIN KMKG 141045Z 10003KT 8SM BKN065 15/14 A3012 450 93 600 100/03 RMK AO2
14840KMKG MKG20030714055011107/14/03 05:50:31  5-MIN KMKG 141050Z 10003KT 8SM BKN065 15/14 A3012 440 93 600 110/03 RMK AO2 SLP198 T01500139
14840KMKG MKG20030714055511107/14/03 05:55:31  5-MIN KMKG 141055Z 11004KT 8SM OVC065 15/14 A3012 440 93 600 110/04 RMK AO2 SLP198 T01500139
14840KMKG MKG20030714060007907/14/03 06:00:31  5-MIN KMKG 141100Z 8SM 15/14 A3012 440 93 600 M /M RMK AO2 $
14840KMKG MKG20030714060508907/14/03 06:05:31  5-MIN KMKG 141105Z 10003KT 8SM 16/14 A3012 440 90 700 110/03 RMK AO2 $
14840KMKG MKG20030714061008907/14/03 06:10:31  5-MIN KMKG 141110Z 10003KT 8SM 16/14 A3012 440 90 700 110/03 RMK AO2 $
14840KMKG MKG20030714061508907/14/03 06:15:31  5-MIN KMKG 141115Z 11003KT 8SM 16/14 A3012 440 90 700 110/03 RMK AO2 $
14840KMKG MKG20030714062008907/14/03 06:20:31  5-MIN KMKG 141120Z 10003KT 8SM 16/14 A3012 440 90 700 110/03 RMK AO2 $
14840KMKG MKG20030714062509607/14/03 06:25:31  5-MIN KMKG 141125Z 11004KT 9SM OVC065 16/14 A3012 440 90 700 110/04 RMK AO2 $
14840KMKG MKG20030714063009607/14/03 06:30:31  5-MIN KMKG 141130Z 11004KT 9SM OVC065 16/14 A3012 440 90 700 110/04 RMK AO2 $
14840KMKG MKG20030714063509607/14/03 06:35:31  5-MIN KMKG 141135Z 11004KT 9SM FEW065 16/14 A3012 440 90 700 110/04 RMK AO2 $
14840KMKG MKG20030714064009307/14/03 06:40:31  5-MIN KMKG 141140Z 11004KT 9SM CLR 16/14 A3012 440 90 700 110/04 RMK AO2 $
14840KMKG MKG20030714064509307/14/03 06:45:31  5-MIN KMKG 141145Z 00000KT 9SM CLR 17/15 A3012 440 87 800 000/00 RMK AO2 $
14840KMKG MKG20030714065014107/14/03 06:50:31  5-MIN KMKG 141150Z 00000KT 10SM CLR 18/15 A3012 440 83 900 000/00 RMK AO2 SLP199 6//// 7//// T01780150 10178 20139 51010 $
14840KMKG MKG20030714065514107/14/03 06:55:31  5-MIN KMKG 141155Z 00000KT 10SM CLR 18/15 A3012 440 83 900 000/00 RMK AO2 SLP199 6//// 7//// T01780150 10178 20139 53004 $
14840KMKG MKG20030714070009507/14/03 07:00:31  5-MIN KMKG 141200Z 00000KT 10SM CLR 18/15 A3013 440 81 1000 000/00 RMK AO2 $
14840KMKG MKG20030714070509507/14/03 07:05:31  5-MIN KMKG 141205Z 00000KT 10SM CLR 19/16 A3013 440 81 1000 000/00 RMK AO2 $
14840KMKG MKG20030714071009507/14/03 07:10:31  5-MIN KMKG 141210Z 00000KT 10SM CLR 19/16 A3013 440 81 1000 000/00 RMK AO2 $
14840KMKG MKG20030714071509507/14/03 07:15:31  5-MIN KMKG 141215Z 00000KT 10SM CLR 19/15 A3013 440 78 1000 000/00 RMK AO2 $
14840KMKG MKG20030714072009507/14/03 07:20:31  5-MIN KMKG 141220Z 18004KT 10SM CLR 19/15 A3013 430 75 1100 180/04 RMK AO2 $
14840KMKG MKG20030714072509507/14/03 07:25:31  5-MIN KMKG 141225Z 15004KT 10SM CLR 19/15 A3013 440 75 1100 150/04 RMK AO2 $
14840KMKG MKG20030714073009307/14/03 07:30:31  5-MIN KMKG 141230Z 15003KT 10SM CLR 20/15 A3013 440 72 1200 160/03 RMK AO2
14840KMKG MKG20030714073509307/14/03 07:35:31  5-MIN KMKG 141235Z 16003KT 10SM CLR 21/15 A3013 440 70 1200 160/03 RMK AO2
14840KMKG MKG20030714074009307/14/03 07:40:31  5-MIN KMKG 141240Z 15004KT 10SM CLR 21/15 A3013 440 70 1200 160/04 RMK AO2
14840KMKG MKG20030714074509307/14/03 07:45:31  5-MIN KMKG 141245Z 18004KT 10SM CLR 21/15 A3013 440 68 1300 180/04 RMK AO2
14840KMKG MKG20030714075011007/14/03 07:50:31  5-MIN KMKG 141250Z 17005KT 10SM CLR 21/15 A3012 440 68 1300 170/05 RMK AO2 SLP197 T02110150
14840KMKG MKG20030714075511007/14/03 07:55:31  5-MIN KMKG 141255Z 16004KT 10SM CLR 22/15 A3012 440 65 1400 170/04 RMK AO2 SLP197 T02170150
14840KMKG MKG20030714080009307/14/03 08:00:31  5-MIN KMKG 141300Z 18004KT 10SM CLR 22/15 A3012 440 65 1400 180/04 RMK AO2
14840KMKG MKG20030714080509307/14/03 08:05:31  5-MIN KMKG 141305Z VRB04KT 10SM CLR 22/16 A3012 450 65 1400 VRB/04 RMK AO2
14840KMKG MKG20030714081009307/14/03 08:10:31  5-MIN KMKG 141310Z 17004KT 10SM CLR 22/15 A3012 440 63 1400 180/04 RMK AO2
14840KMKG MKG20030714081509307/14/03 08:15:31  5-MIN KMKG 141315Z 17005KT 10SM CLR 22/15 A3012 440 63 1400 180/05 RMK AO2
14840KMKG MKG20030714082009307/14/03 08:20:31  5-MIN KMKG 141320Z 19004KT 10SM CLR 23/16 A3012 450 63 1500 190/04 RMK AO2
14840KMKG MKG20030714082509307/14/03 08:25:31  5-MIN KMKG 141325Z 19004KT 10SM CLR 23/15 A3012 450 61 1500 190/04 RMK AO2
14840KMKG MKG20030714083009307/14/03 08:30:31  5-MIN KMKG 141330Z VRB03KT 10SM CLR 23/15 A3012 440 61 1500 VRB/03 RMK AO2
14840KMKG MKG20030714083509307/14/03 08:35:31  5-MIN KMKG 141335Z 19005KT 10SM CLR 23/15 A3012 450 59 1600 200/05 RMK AO2
14840KMKG MKG20030714084009307/14/03 08:40:31  5-MIN KMKG 141340Z 19006KT 10SM CLR 24/15 A3012 450 57 1600 200/06 RMK AO2
14840KMKG MKG20030714084509307/14/03 08:45:31  5-MIN KMKG 141345Z 18006KT 10SM CLR 24/15 A3012 440 57 1600 190/06 RMK AO2
14840KMKG MKG20030714085011007/14/03 08:50:31  5-MIN KMKG 141350Z 18005KT 10SM CLR 24/15 A3012 440 55 1700 180/05 RMK AO2 SLP198 T02440150
14840KMKG MKG20030714085511007/14/03 08:55:31  5-MIN KMKG 141355Z 17006KT 10SM CLR 24/15 A3012 440 55 1700 180/06 RMK AO2 SLP197 T02440150
14840KMKG MKG20030714090009307/14/03 09:00:31  5-MIN KMKG 141400Z 20009KT 10SM CLR 25/14 A3012 440 51 1700 200/09 RMK AO2
14840KMKG MKG20030714090509307/14/03 09:05:31  5-MIN KMKG 141405Z 19008KT 10SM CLR 25/13 A3012 440 46 1700 200/08 RMK AO2
14840KMKG MKG20030714091009307/14/03 09:10:31  5-MIN KMKG 141410Z 20007KT 10SM CLR 25/13 A3012 440 46 1700 200/07 RMK AO2
14840KMKG MKG20030714091509307/14/03 09:15:31  5-MIN KMKG 141415Z 21007KT 10SM CLR 25/13 A3012 440 46 1700 220/07 RMK AO2
14840KMKG MKG20030714092009307/14/03 09:20:31  5-MIN KMKG 141420Z 21007KT 10SM CLR 25/13 A3012 440 46 1700 220/07 RMK AO2
14840KMKG MKG20030714092509307/14/03 09:25:31  5-MIN KMKG 141425Z 20006KT 10SM CLR 26/13 A3012 440 44 1800 210/06 RMK AO2
14840KMKG MKG20030714093009307/14/03 09:30:31  5-MIN KMKG 141430Z 23008KT 10SM CLR 26/13 A3012 440 44 1800 230/08 RMK AO2
14840KMKG MKG20030714093509307/14/03 09:35:31  5-MIN KMKG 141435Z 22008KT 10SM CLR 26/13 A3012 450 44 1800 230/08 RMK AO2
14840KMKG MKG20030714094009307/14/03 09:40:31  5-MIN KMKG 141440Z 21008KT 10SM CLR 26/13 A3012 450 44 1800 220/08 RMK AO2
14840KMKG MKG20030714094509307/14/03 09:45:31  5-MIN KMKG 141445Z 21008KT 10SM CLR 26/13 A3012 450 44 1800 220/08 RMK AO2
14840KMKG MKG20030714095011607/14/03 09:50:31  5-MIN KMKG 141450Z 22008KT 10SM CLR 26/12 A3012 450 43 1800 220/08 RMK AO2 SLP195 T02560122 53004
14840KMKG MKG20030714095511607/14/03 09:55:31  5-MIN KMKG 141455Z 20008KT 10SM CLR 26/13 A3011 450 44 1800 200/08 RMK AO2 SLP194 T02560128 58003
14840KMKG MKG20030714100009307/14/03 10:00:31  5-MIN KMKG 141500Z 20009KT 10SM CLR 26/12 A3011 450 43 1800 210/09 RMK AO2
14840KMKG MKG20030714100509307/14/03 10:05:31  5-MIN KMKG 141505Z 20008KT 10SM CLR 26/12 A3011 460 41 1900 200/08 RMK AO2
14840KMKG MKG20030714101009307/14/03 10:10:31  5-MIN KMKG 141510Z 19009KT 10SM CLR 26/13 A3011 460 43 1900 190/09 RMK AO2
14840KMKG MKG20030714101509307/14/03 10:15:31  5-MIN KMKG 141515Z 21008KT 10SM CLR 26/13 A3011 460 44 1800 210/08 RMK AO2
14840KMKG MKG20030714102009307/14/03 10:20:31  5-MIN KMKG 141520Z 17009KT 10SM CLR 26/13 A3011 460 43 1900 180/09 RMK AO2
14840KMKG MKG20030714102509307/14/03 10:25:31  5-MIN KMKG 141525Z 18009KT 10SM CLR 26/12 A3011 460 41 1900 180/09 RMK AO2
14840KMKG MKG20030714103009307/14/03 10:30:31  5-MIN KMKG 141530Z 20009KT 10SM CLR 27/12 A3010 460 40 2000 200/09 RMK AO2
14840KMKG MKG20030714103509307/14/03 10:35:31  5-MIN KMKG 141535Z 17009KT 10SM CLR 27/12 A3010 460 40 2000 170/09 RMK AO2
14840KMKG MKG20030714104009307/14/03 10:40:31  5-MIN KMKG 141540Z 17008KT 10SM CLR 27/12 A3010 460 38 2000 180/08 RMK AO2
14840KMKG MKG20030714104509307/14/03 10:45:31  5-MIN KMKG 141545Z 18009KT 10SM CLR 27/12 A3010 470 40 2000 180/09 RMK AO2
14840KMKG MKG20030714105012607/14/03 10:50:31  5-MIN KMKG 141550Z 18007KT 150V210 10SM CLR 27/12 A3010 470 40 2000 180/07 150V210 RMK AO2 SLP188 T02670122
14840KMKG MKG20030714105511007/14/03 10:55:31  5-MIN KMKG 141555Z 18010KT 10SM CLR 27/12 A3009 470 39 2000 190/10 RMK AO2 SLP187 T02720122
14840KMKG MKG20030714110009307/14/03 11:00:31  5-MIN KMKG 141600Z 18008KT 10SM CLR 27/12 A3009 470 38 2000 190/08 RMK AO2
14840KMKG MKG20030714110509307/14/03 11:05:31  5-MIN KMKG 141605Z 18009KT 10SM CLR 27/12 A3009 470 37 2000 190/09 RMK AO2
14840KMKG MKG20030714111009307/14/03 11:10:31  5-MIN KMKG 141610Z 17007KT 10SM CLR 27/12 A3009 470 37 2000 170/07 RMK AO2
14840KMKG MKG20030714111510907/14/03 11:15:31  5-MIN KMKG 141615Z 18007KT 150V210 10SM CLR 27/12 A3008 480 37 2000 190/07 150V210 RMK AO2
14840KMKG MKG20030714112009307/14/03 11:20:31  5-MIN KMKG 141620Z 17010KT 10SM CLR 28/12 A3008 480 36 2100 170/10 RMK AO2
14840KMKG MKG20030714112509307/14/03 11:25:31  5-MIN KMKG 141625Z 18009KT 10SM CLR 28/12 A3008 490 36 2100 190/09 RMK AO2
14840KMKG MKG20030714113009307/14/03 11:30:31  5-MIN KMKG 141630Z 19010KT 10SM CLR 28/12 A3007 490 37 2100 200/10 RMK AO2
14840KMKG MKG20030714113509307/14/03 11:35:31  5-MIN KMKG 141635Z 21011KT 10SM CLR 27/12 A3008 490 37 2000 210/11 RMK AO2
14840KMKG MKG20030714114009307/14/03 11:40:31  5-MIN KMKG 141640Z 20011KT 10SM CLR 28/12 A3008 480 36 2100 200/11 RMK AO2
14840KMKG MKG20030714114509307/14/03 11:45:31  5-MIN KMKG 141645Z 20010KT 10SM CLR 28/12 A3008 480 37 2100 210/10 RMK AO2
14840KMKG MKG20030714115011007/14/03 11:50:31  5-MIN KMKG 141650Z 21012KT 10SM CLR 28/12 A3008 480 36 2200 210/12 RMK AO2 SLP184 T02830122
14840KMKG MKG20030714115511007/14/03 11:55:31  5-MIN KMKG 141655Z 23011KT 10SM CLR 28/12 A3009 470 36 2200 230/11 RMK AO2 SLP186 T02830122
14840KMKG MKG20030714120009307/14/03 12:00:31  5-MIN KMKG 141700Z 20011KT 10SM CLR 28/12 A3009 470 36 2100 210/11 RMK AO2
14840KMKG MKG20030714120509307/14/03 12:05:31  5-MIN KMKG 141705Z 21012KT 10SM CLR 28/12 A3009 470 37 2100 220/12 RMK AO2
14840KMKG MKG20030714121009307/14/03 12:10:31  5-MIN KMKG 141710Z 24010KT 10SM CLR 28/12 A3009 470 36 2200 240/10 RMK AO2
14840KMKG MKG20030714121509307/14/03 12:15:31  5-MIN KMKG 141715Z 22013KT 10SM CLR 28/12 A3010 470 36 2100 220/13 RMK AO2
14840KMKG MKG20030714122009307/14/03 12:20:31  5-MIN KMKG 141720Z 23010KT 10SM CLR 28/12 A3010 460 36 2100 240/10 RMK AO2
14840KMKG MKG20030714122509307/14/03 12:25:31  5-MIN KMKG 141725Z 23013KT 10SM CLR 28/12 A3011 460 36 2100 240/13 RMK AO2
14840KMKG MKG20030714123009307/14/03 12:30:31  5-MIN KMKG 141730Z 23011KT 10SM CLR 28/12 A3010 460 37 2100 240/11 RMK AO2
14840KMKG MKG20030714123509307/14/03 12:35:31  5-MIN KMKG 141735Z 24011KT 10SM CLR 27/12 A3010 460 39 2000 240/11 RMK AO2
14840KMKG MKG20030714124009307/14/03 12:40:31  5-MIN KMKG 141740Z 23012KT 10SM CLR 27/12 A3010 460 39 2000 240/12 RMK AO2
14840KMKG MKG20030714124509307/14/03 12:45:31  5-MIN KMKG 141745Z 24011KT 10SM CLR 27/12 A3010 470 40 2000 250/11 RMK AO2
14840KMKG MKG20030714125013107/14/03 12:50:31  5-MIN KMKG 141750Z 24011KT 10SM FEW070 27/12 A3009 470 39 2000 250/11 RMK AO2 SLP188 T02720122 10283 20178 58003
14840KMKG MKG20030714125513107/14/03 12:55:31  5-MIN KMKG 141755Z 22012KT 10SM FEW070 28/13 A3009 470 39 2100 220/12 RMK AO2 SLP186 T02780128 10283 20178 56008
14840KMKG MKG20030714130009307/14/03 13:00:31  5-MIN KMKG 141800Z 23011KT 10SM CLR 28/13 A3009 480 39 2100 230/11 RMK AO2
14840KMKG MKG20030714130509307/14/03 13:05:31  5-MIN KMKG 141805Z 23010KT 10SM CLR 28/13 A3008 480 39 2100 230/10 RMK AO2
14840KMKG MKG20030714131009307/14/03 13:10:31  5-MIN KMKG 141810Z 23011KT 10SM CLR 28/13 A3008 480 40 2100 240/11 RMK AO2
14840KMKG MKG20030714131509307/14/03 13:15:31  5-MIN KMKG 141815Z 22011KT 10SM CLR 28/13 A3009 480 39 2200 230/11 RMK AO2
14840KMKG MKG20030714132009307/14/03 13:20:31  5-MIN KMKG 141820Z 22011KT 10SM CLR 28/13 A3009 480 39 2200 220/11 RMK AO2
14840KMKG MKG20030714132509307/14/03 13:25:31  5-MIN KMKG 141825Z 23011KT 10SM CLR 28/13 A3009 470 39 2200 230/11 RMK AO2
14840KMKG MKG20030714133009307/14/03 13:30:31  5-MIN KMKG 141830Z 23010KT 10SM CLR 28/13 A3009 470 40 2100 230/10 RMK AO2
14840KMKG MKG20030714133509307/14/03 13:35:31  5-MIN KMKG 141835Z 22011KT 10SM CLR 28/14 A3009 470 40 2200 220/11 RMK AO2
14840KMKG MKG20030714134009307/14/03 13:40:31  5-MIN KMKG 141840Z 22010KT 10SM CLR 28/14 A3009 470 42 2100 220/10 RMK AO2
14840KMKG MKG20030714134509307/14/03 13:45:31  5-MIN KMKG 141845Z 22012KT 10SM CLR 28/14 A3009 470 42 2200 220/12 RMK AO2
14840KMKG MKG20030714135011307/14/03 13:50:31  5-MIN KMKG 141850Z 23010KT 10SM SCT060 28/14 A3009 470 43 2100 230/10 RMK AO2 SLP187 T02780144
14840KMKG MKG20030714135511307/14/03 13:55:31  5-MIN KMKG 141855Z 23011KT 10SM SCT060 28/15 A3009 470 45 2100 230/11 RMK AO2 SLP187 T02780150
14840KMKG MKG20030714140009307/14/03 14:00:31  5-MIN KMKG 141900Z 23012KT 10SM CLR 28/15 A3009 470 45 2100 230/12 RMK AO2
14840KMKG MKG20030714140509307/14/03 14:05:31  5-MIN KMKG 141905Z 22012KT 10SM CLR 28/14 A3009 470 43 2100 220/12 RMK AO2
14840KMKG MKG20030714141009307/14/03 14:10:31  5-MIN KMKG 141910Z 21012KT 10SM CLR 28/14 A3009 470 43 2100 220/12 RMK AO2
14840KMKG MKG20030714141509307/14/03 14:15:31  5-MIN KMKG 141915Z 22011KT 10SM CLR 28/14 A3010 470 43 2100 220/11 RMK AO2
14840KMKG MKG20030714142009307/14/03 14:20:31  5-MIN KMKG 141920Z 21013KT 10SM CLR 28/15 A3010 470 45 2100 220/13 RMK AO2
14840KMKG MKG20030714142509307/14/03 14:25:31  5-MIN KMKG 141925Z 22012KT 10SM CLR 28/15 A3010 470 45 2100 220/12 RMK AO2
14840KMKG MKG20030714143009307/14/03 14:30:31  5-MIN KMKG 141930Z 24012KT 10SM CLR 28/15 A3010 470 45 2100 240/12 RMK AO2
14840KMKG MKG20030714143509307/14/03 14:35:31  5-MIN KMKG 141935Z 24011KT 10SM CLR 27/15 A3010 470 46 2000 250/11 RMK AO2
14840KMKG MKG20030714144009307/14/03 14:40:31  5-MIN KMKG 141940Z 23012KT 10SM CLR 27/15 A3010 470 46 2000 240/12 RMK AO2
14840KMKG MKG20030714144509307/14/03 14:45:31  5-MIN KMKG 141945Z 22010KT 10SM CLR 27/15 A3010 470 46 2000 220/10 RMK AO2
14840KMKG MKG20030714145011007/14/03 14:50:31  5-MIN KMKG 141950Z 22009KT 10SM CLR 28/16 A3010 470 46 2100 230/09 RMK AO2 SLP189 T02780156
14840KMKG MKG20030714145511007/14/03 14:55:31  5-MIN KMKG 141955Z 23010KT 10SM CLR 28/16 A3010 470 46 2100 230/10 RMK AO2 SLP189 T02780156
14840KMKG MKG20030714150009307/14/03 15:00:31  5-MIN KMKG 142000Z 22011KT 10SM CLR 28/16 A3010 470 46 2100 220/11 RMK AO2
14840KMKG MKG20030714150509307/14/03 15:05:31  5-MIN KMKG 142005Z 22010KT 10SM CLR 28/16 A3010 470 46 2100 230/10 RMK AO2
14840KMKG MKG20030714151009307/14/03 15:10:31  5-MIN KMKG 142010Z 23010KT 10SM CLR 28/15 A3009 470 45 2100 230/10 RMK AO2
14840KMKG MKG20030714151509307/14/03 15:15:31  5-MIN KMKG 142015Z 24010KT 10SM CLR 27/15 A3009 470 48 2000 240/10 RMK AO2
14840KMKG MKG20030714152009307/14/03 15:20:31  5-MIN KMKG 142020Z 22007KT 10SM CLR 27/15 A3009 470 46 2000 220/07 RMK AO2
14840KMKG MKG20030714152509307/14/03 15:25:31  5-MIN KMKG 142025Z 20010KT 10SM CLR 27/15 A3009 480 46 2000 210/10 RMK AO2
14840KMKG MKG20030714153009307/14/03 15:30:31  5-MIN KMKG 142030Z 22010KT 10SM CLR 27/15 A3009 480 46 2000 220/10 RMK AO2
14840KMKG MKG20030714153509307/14/03 15:35:31  5-MIN KMKG 142035Z 23008KT 10SM CLR 27/15 A3009 480 46 2000 230/08 RMK AO2
14840KMKG MKG20030714154009307/14/03 15:40:31  5-MIN KMKG 142040Z 24009KT 10SM CLR 27/15 A3008 480 46 2000 240/09 RMK AO2
14840KMKG MKG20030714154509307/14/03 15:45:31  5-MIN KMKG 142045Z 23007KT 10SM CLR 28/16 A3008 480 46 2100 230/07 RMK AO2
14840KMKG MKG20030714155011607/14/03 15:50:31  5-MIN KMKG 142050Z 24009KT 10SM CLR 27/16 A3008 490 48 2000 240/09 RMK AO2 SLP182 T02720156 56008
14840KMKG MKG20030714155513207/14/03 15:55:31  5-MIN KMKG 142055Z 22008KT 200V270 10SM CLR 27/16 A3007 490 50 2000 220/08 200V270 RMK AO2 SLP180 T02670156 58007
14840KMKG MKG20030714160009307/14/03 16:00:31  5-MIN KMKG 142100Z 22010KT 10SM CLR 27/16 A3007 490 50 2000 230/10 RMK AO2
14840KMKG MKG20030714160509307/14/03 16:05:31  5-MIN KMKG 142105Z 22010KT 10SM CLR 27/16 A3007 490 50 2000 230/10 RMK AO2
14840KMKG MKG20030714161009307/14/03 16:10:31  5-MIN KMKG 142110Z 21008KT 10SM CLR 27/16 A3007 490 50 2000 220/08 RMK AO2
14840KMKG MKG20030714161509307/14/03 16:15:31  5-MIN KMKG 142115Z 22009KT 10SM CLR 27/16 A3006 500 50 2100 230/09 RMK AO2
14840KMKG MKG20030714162009307/14/03 16:20:31  5-MIN KMKG 142120Z 22008KT 10SM CLR 27/16 A3006 500 48 2100 220/08 RMK AO2
14840KMKG MKG20030714162509307/14/03 16:25:31  5-MIN KMKG 142125Z 22007KT 10SM CLR 27/16 A3006 500 50 2000 220/07 RMK AO2
14840KMKG MKG20030714163009307/14/03 16:30:31  5-MIN KMKG 142130Z 21008KT 10SM CLR 27/16 A3006 500 50 2000 210/08 RMK AO2
14840KMKG MKG20030714163509307/14/03 16:35:31  5-MIN KMKG 142135Z 21008KT 10SM CLR 27/16 A3006 500 50 2100 210/08 RMK AO2
14840KMKG MKG20030714164009307/14/03 16:40:31  5-MIN KMKG 142140Z 22010KT 10SM CLR 27/16 A3005 510 48 2100 220/10 RMK AO2
14840KMKG MKG20030714164509307/14/03 16:45:31  5-MIN KMKG 142145Z 24008KT 10SM CLR 28/16 A3005 510 48 2100 240/08 RMK AO2
14840KMKG MKG20030714165011007/14/03 16:50:31  5-MIN KMKG 142150Z 21009KT 10SM CLR 28/16 A3006 510 48 2100 220/09 RMK AO2 SLP175 T02780161
14840KMKG MKG20030714165511007/14/03 16:55:31  5-MIN KMKG 142155Z 21010KT 10SM CLR 27/16 A3005 510 48 2100 210/10 RMK AO2 SLP175 T02720156
14840KMKG MKG20030714170009307/14/03 17:00:31  5-MIN KMKG 142200Z 23009KT 10SM CLR 27/16 A3005 510 50 2100 230/09 RMK AO2
14840KMKG MKG20030714170509307/14/03 17:05:31  5-MIN KMKG 142205Z 22009KT 10SM CLR 27/16 A3005 510 50 2100 230/09 RMK AO2
14840KMKG MKG20030714171009307/14/03 17:10:31  5-MIN KMKG 142210Z 20009KT 10SM CLR 28/16 A3005 510 48 2100 200/09 RMK AO2
14840KMKG MKG20030714171509307/14/03 17:15:31  5-MIN KMKG 142215Z 21010KT 10SM CLR 27/16 A3005 510 48 2100 220/10 RMK AO2
14840KMKG MKG20030714172009307/14/03 17:20:31  5-MIN KMKG 142220Z 22011KT 10SM CLR 27/16 A3005 510 48 2100 230/11 RMK AO2
14840KMKG MKG20030714172509307/14/03 17:25:31  5-MIN KMKG 142225Z 20010KT 10SM CLR 27/16 A3004 520 48 2100 210/10 RMK AO2
14840KMKG MKG20030714173009307/14/03 17:30:31  5-MIN KMKG 142230Z 20009KT 10SM CLR 27/16 A3004 520 50 2000 200/09 RMK AO2
14840KMKG MKG20030714173509307/14/03 17:35:31  5-MIN KMKG 142235Z 20008KT 10SM CLR 27/16 A3004 520 50 2000 200/08 RMK AO2
14840KMKG MKG20030714174009307/14/03 17:40:31  5-MIN KMKG 142240Z 20008KT 10SM CLR 27/16 A3004 520 50 2000 210/08 RMK AO2
14840KMKG MKG20030714174509307/14/03 17:45:31  5-MIN KMKG 142245Z 19008KT 10SM CLR 27/16 A3004 520 50 2000 190/08 RMK AO2
14840KMKG MKG20030714175011007/14/03 17:50:31  5-MIN KMKG 142250Z 21008KT 10SM CLR 27/16 A3003 530 50 2000 210/08 RMK AO2 SLP167 T02670156
14840KMKG MKG20030714175511007/14/03 17:55:31  5-MIN KMKG 142255Z 19008KT 10SM CLR 26/16 A3003 530 51 2000 190/08 RMK AO2 SLP167 T02610156
14840KMKG MKG20030714180009307/14/03 18:00:31  5-MIN KMKG 142300Z 20007KT 10SM CLR 26/16 A3003 530 51 2000 210/07 RMK AO2
14840KMKG MKG20030714180509307/14/03 18:05:31  5-MIN KMKG 142305Z 19007KT 10SM CLR 26/16 A3003 530 51 2000 200/07 RMK AO2
14840KMKG MKG20030714181009307/14/03 18:10:31  5-MIN KMKG 142310Z 18006KT 10SM CLR 26/16 A3003 530 53 2000 180/06 RMK AO2
14840KMKG MKG20030714181509307/14/03 18:15:31  5-MIN KMKG 142315Z 19006KT 10SM CLR 26/16 A3003 530 51 2000 190/06 RMK AO2
14840KMKG MKG20030714182009307/14/03 18:20:31  5-MIN KMKG 142320Z 20006KT 10SM CLR 26/16 A3003 530 53 2000 200/06 RMK AO2
14840KMKG MKG20030714182509307/14/03 18:25:31  5-MIN KMKG 142325Z 19006KT 10SM CLR 26/16 A3003 530 53 2000 200/06 RMK AO2
14840KMKG MKG20030714183009307/14/03 18:30:31  5-MIN KMKG 142330Z 19006KT 10SM CLR 26/16 A3003 530 53 2000 190/06 RMK AO2
14840KMKG MKG20030714183509307/14/03 18:35:31  5-MIN KMKG 142335Z 20006KT 10SM CLR 26/16 A3003 530 53 2000 200/06 RMK AO2
14840KMKG MKG20030714184009307/14/03 18:40:31  5-MIN KMKG 142340Z 18006KT 10SM CLR 26/16 A3003 530 55 1900 190/06 RMK AO2
14840KMKG MKG20030714184509307/14/03 18:45:31  5-MIN KMKG 142345Z 18007KT 10SM CLR 26/16 A3003 530 53 2000 190/07 RMK AO2
14840KMKG MKG20030714185012807/14/03 18:50:31  5-MIN KMKG 142350Z 18006KT 10SM CLR 26/16 A3003 530 53 2000 180/06 RMK AO2 SLP165 T02610161 10283 20256 58007
14840KMKG MKG20030714185512807/14/03 18:55:31  5-MIN KMKG 142355Z 18005KT 10SM CLR 26/16 A3003 530 55 1900 180/05 RMK AO2 SLP164 T02560161 10283 20256 56014
14840KMKG MKG20030714190009307/14/03 19:00:31  5-MIN KMKG 150000Z 18005KT 10SM CLR 26/16 A3002 540 55 1900 180/05 RMK AO2
14840KMKG MKG20030714190509307/14/03 19:05:31  5-MIN KMKG 150005Z 18005KT 10SM CLR 26/16 A3002 540 55 1900 190/05 RMK AO2
14840KMKG MKG20030714191009307/14/03 19:10:31  5-MIN KMKG 150010Z 19005KT 10SM CLR 26/16 A3002 540 55 1900 200/05 RMK AO2
14840KMKG MKG20030714191509307/14/03 19:15:31  5-MIN KMKG 150015Z 19005KT 10SM CLR 25/16 A3002 540 57 1900 190/05 RMK AO2
14840KMKG MKG20030714192009307/14/03 19:20:31  5-MIN KMKG 150020Z 19004KT 10SM CLR 25/16 A3002 540 57 1900 190/04 RMK AO2
14840KMKG MKG20030714192509307/14/03 19:25:31  5-MIN KMKG 150025Z 17005KT 10SM CLR 25/16 A3002 540 57 1900 180/05 RMK AO2
14840KMKG MKG20030714193009307/14/03 19:30:31  5-MIN KMKG 150030Z 17007KT 10SM CLR 25/16 A3002 540 57 1900 180/07 RMK AO2
14840KMKG MKG20030714193509307/14/03 19:35:31  5-MIN KMKG 150035Z 17007KT 10SM CLR 25/16 A3001 550 57 1900 180/07 RMK AO2
14840KMKG MKG20030714194009307/14/03 19:40:31  5-MIN KMKG 150040Z 17007KT 10SM CLR 25/16 A3001 550 57 1900 170/07 RMK AO2
14840KMKG MKG20030714194509307/14/03 19:45:31  5-MIN KMKG 150045Z 17006KT 10SM CLR 25/16 A3001 550 55 1900 170/06 RMK AO2
14840KMKG MKG20030714195011007/14/03 19:50:31  5-MIN KMKG 150050Z 16006KT 10SM CLR 25/16 A3000 550 55 1900 170/06 RMK AO2 SLP156 T02500156
14840KMKG MKG20030714195511007/14/03 19:55:31  5-MIN KMKG 150055Z 16006KT 10SM CLR 24/16 A3000 560 57 1800 160/06 RMK AO2 SLP155 T02440156
14840KMKG MKG20030714200009307/14/03 20:00:31  5-MIN KMKG 150100Z 16006KT 10SM CLR 24/16 A3000 560 57 1800 160/06 RMK AO2
14840KMKG MKG20030714200509307/14/03 20:05:31  5-MIN KMKG 150105Z 16006KT 10SM CLR 24/16 A3000 560 57 1800 160/06 RMK AO2
14840KMKG MKG20030714201009307/14/03 20:10:31  5-MIN KMKG 150110Z 16006KT 10SM CLR 24/16 A3000 560 57 1800 160/06 RMK AO2
14840KMKG MKG20030714201509307/14/03 20:15:31  5-MIN KMKG 150115Z 17007KT 10SM CLR 24/16 A3000 560 57 1800 170/07 RMK AO2
14840KMKG MKG20030714202009307/14/03 20:20:31  5-MIN KMKG 150120Z 17006KT 10SM CLR 24/16 A3000 560 59 1800 180/06 RMK AO2
14840KMKG MKG20030714202509307/14/03 20:25:31  5-MIN KMKG 150125Z 17005KT 10SM CLR 24/16 A3000 560 59 1800 170/05 RMK AO2
14840KMKG MKG20030714203009307/14/03 20:30:31  5-MIN KMKG 150130Z 16006KT 10SM CLR 23/16 A3000 560 61 1700 170/06 RMK AO2
14840KMKG MKG20030714203509307/14/03 20:35:31  5-MIN KMKG 150135Z 16006KT 10SM CLR 24/16 A3000 560 59 1800 160/06 RMK AO2
14840KMKG MKG20030714204009307/14/03 20:40:31  5-MIN KMKG 150140Z 16006KT 10SM CLR 24/16 A3000 560 59 1800 160/06 RMK AO2
14840KMKG MKG20030714204509307/14/03 20:45:31  5-MIN KMKG 150145Z 15006KT 10SM CLR 24/16 A2999 560 59 1800 160/06 RMK AO2
14840KMKG MKG20030714205011007/14/03 20:50:31  5-MIN KMKG 150150Z 14006KT 10SM CLR 23/16 A2999 570 61 1700 140/06 RMK AO2 SLP152 T02330156
14840KMKG MKG20030714205511007/14/03 20:55:31  5-MIN KMKG 150155Z 15006KT 10SM CLR 23/16 A2999 560 63 1600 150/06 RMK AO2 SLP153 T02280156
14840KMKG MKG20030714210009307/14/03 21:00:31  5-MIN KMKG 150200Z 14005KT 10SM CLR 22/16 A2999 560 65 1600 150/05 RMK AO2
14840KMKG MKG20030714210509307/14/03 21:05:31  5-MIN KMKG 150205Z 15006KT 10SM CLR 22/16 A2999 560 68 1600 150/06 RMK AO2
14840KMKG MKG20030714211009307/14/03 21:10:31  5-MIN KMKG 150210Z 14005KT 10SM CLR 23/16 A2999 560 65 1600 150/05 RMK AO2
14840KMKG MKG20030714211509307/14/03 21:15:31  5-MIN KMKG 150215Z 15005KT 10SM CLR 23/16 A3000 560 63 1600 150/05 RMK AO2
14840KMKG MKG20030714212009307/14/03 21:20:31  5-MIN KMKG 150220Z 15005KT 10SM CLR 23/16 A3000 560 63 1600 160/05 RMK AO2
14840KMKG MKG20030714212509307/14/03 21:25:31  5-MIN KMKG 150225Z 15006KT 10SM CLR 23/16 A3000 560 63 1600 160/06 RMK AO2
14840KMKG MKG20030714213009307/14/03 21:30:31  5-MIN KMKG 150230Z 16006KT 10SM CLR 23/16 A2999 560 65 1600 160/06 RMK AO2
14840KMKG MKG20030714213509307/14/03 21:35:31  5-MIN KMKG 150235Z 16007KT 10SM CLR 23/16 A2999 560 65 1600 160/07 RMK AO2
14840KMKG MKG20030714214009307/14/03 21:40:31  5-MIN KMKG 150240Z 16006KT 10SM CLR 23/16 A3000 560 65 1600 170/06 RMK AO2
14840KMKG MKG20030714214509307/14/03 21:45:31  5-MIN KMKG 150245Z 16007KT 10SM CLR 23/16 A2999 570 65 1600 160/07 RMK AO2
14840KMKG MKG20030714215011607/14/03 21:50:31  5-MIN KMKG 150250Z 16006KT 10SM CLR 23/16 A2999 570 65 1600 160/06 RMK AO2 SLP151 T02280161 56014
14840KMKG MKG20030714215511607/14/03 21:55:31  5-MIN KMKG 150255Z 15006KT 10SM CLR 23/16 A2999 570 65 1600 160/06 RMK AO2 SLP150 T02280161 56013
14840KMKG MKG20030714220009307/14/03 22:00:31  5-MIN KMKG 150300Z 16006KT 10SM CLR 23/16 A2998 570 65 1600 160/06 RMK AO2
14840KMKG MKG20030714220509307/14/03 22:05:31  5-MIN KMKG 150305Z 15006KT 10SM CLR 22/16 A2998 580 68 1600 160/06 RMK AO2
14840KMKG MKG20030714221009307/14/03 22:10:31  5-MIN KMKG 150310Z 15007KT 10SM CLR 22/16 A2998 580 68 1600 150/07 RMK AO2
14840KMKG MKG20030714221509307/14/03 22:15:31  5-MIN KMKG 150315Z 15006KT 10SM CLR 23/16 A2998 580 65 1700 150/06 RMK AO2
14840KMKG MKG20030714222009307/14/03 22:20:31  5-MIN KMKG 150320Z 15007KT 10SM CLR 23/16 A2997 590 65 1700 160/07 RMK AO2
14840KMKG MKG20030714222509307/14/03 22:25:31  5-MIN KMKG 150325Z 16005KT 10SM CLR 22/16 A2997 580 68 1600 170/05 RMK AO2
14840KMKG MKG20030714223009307/14/03 22:30:31  5-MIN KMKG 150330Z 17005KT 10SM CLR 22/16 A2998 580 68 1600 170/05 RMK AO2
14840KMKG MKG20030714223509307/14/03 22:35:31  5-MIN KMKG 150335Z 16005KT 10SM CLR 22/16 A2998 580 68 1600 160/05 RMK AO2
14840KMKG MKG20030714224009307/14/03 22:40:31  5-MIN KMKG 150340Z 15006KT 10SM CLR 22/16 A2997 580 68 1600 150/06 RMK AO2
14840KMKG MKG20030714224509307/14/03 22:45:31  5-MIN KMKG 150345Z 14007KT 10SM CLR 22/16 A2997 590 68 1600 150/07 RMK AO2
14840KMKG MKG20030714225011007/14/03 22:50:31  5-MIN KMKG 150350Z 15007KT 10SM CLR 22/16 A2997 590 68 1600 150/07 RMK AO2 SLP144 T02220161
14840KMKG MKG20030714225511007/14/03 22:55:31  5-MIN KMKG 150355Z 15007KT 10SM CLR 22/16 A2997 590 68 1600 150/07 RMK AO2 SLP144 T02220161
14840KMKG MKG20030714230009307/14/03 23:00:31  5-MIN KMKG 150400Z 14007KT 10SM CLR 22/16 A2997 590 68 1600 150/07 RMK AO2
14840KMKG MKG20030714230509307/14/03 23:05:31  5-MIN KMKG 150405Z 15008KT 10SM CLR 22/16 A2997 590 68 1600 160/08 RMK AO2
14840KMKG MKG20030714231009307/14/03 23:10:31  5-MIN KMKG 150410Z 16008KT 10SM CLR 23/16 A2998 580 65 1700 160/08 RMK AO2
14840KMKG MKG20030714231509307/14/03 23:15:31  5-MIN KMKG 150415Z 16008KT 10SM CLR 23/16 A2997 580 65 1700 160/08 RMK AO2
14840KMKG MKG20030714232009307/14/03 23:20:31  5-MIN KMKG 150420Z 15008KT 10SM CLR 22/16 A2997 580 68 1600 160/08 RMK AO2
14840KMKG MKG20030714232509307/14/03 23:25:31  5-MIN KMKG 150425Z 16008KT 10SM CLR 23/16 A2998 580 65 1700 160/08 RMK AO2
14840KMKG MKG20030714233009307/14/03 23:30:31  5-MIN KMKG 150430Z 16008KT 10SM CLR 22/16 A2998 580 68 1600 160/08 RMK AO2
14840KMKG MKG20030714233509307/14/03 23:35:31  5-MIN KMKG 150435Z 16007KT 10SM CLR 23/16 A2998 570 65 1600 170/07 RMK AO2
14840KMKG MKG20030714234009307/14/03 23:40:31  5-MIN KMKG 150440Z 17007KT 10SM CLR 22/16 A2999 570 68 1600 170/07 RMK AO2
14840KMKG MKG20030714234509307/14/03 23:45:31  5-MIN KMKG 150445Z 16007KT 10SM CLR 23/16 A2998 570 65 1600 170/07 RMK AO2
14840KMKG MKG20030714235012007/14/03 23:50:31  5-MIN KMKG 150450Z 15008KT 10SM CLR 23/16 A2997 580 65 1700 160/08 RMK AO2 SLP145 T02280161 402830139
14840KMKG MKG20030714235512007/14/03 23:55:31  5-MIN KMKG 150455Z 15009KT 10SM CLR 23/16 A2997 590 65 1700 160/09 RMK AO2 SLP144 T02280161 402830139
14840KMKG MKG20030715000009307/15/03 00:00:31  5-MIN KMKG 150500Z 15008KT 10SM CLR 23/16 A2996 590 65 1700 160/08 RMK AO2
14840KMKG MKG20030715000509307/15/03 00:05:31  5-MIN KMKG 150505Z 15008KT 10SM CLR 23/16 A2996 590 65 1700 160/08 RMK AO2
14840KMKG MKG20030715001009307/15/03 00:10:31  5-MIN KMKG 150510Z 15009KT 10SM CLR 23/16 A2996 600 63 1700 150/09 RMK AO2
14840KMKG MKG20030715001509307/15/03 00:15:31  5-MIN KMKG 150515Z 15009KT 10SM CLR 23/16 A2995 600 65 1700 150/09 RMK AO2
14840KMKG MKG20030715002009307/15/03 00:20:31  5-MIN KMKG 150520Z 15008KT 10SM CLR 23/16 A2995 600 65 1700 160/08 RMK AO2
14840KMKG MKG20030715002509307/15/03 00:25:31  5-MIN KMKG 150525Z 15008KT 10SM CLR 23/16 A2995 600 65 1700 160/08 RMK AO2
14840KMKG MKG20030715003009307/15/03 00:30:31  5-MIN KMKG 150530Z 16008KT 10SM CLR 23/16 A2995 600 65 1700 160/08 RMK AO2
14840KMKG MKG20030715003509307/15/03 00:35:31  5-MIN KMKG 150535Z 16008KT 10SM CLR 23/16 A2995 600 65 1700 160/08 RMK AO2
14840KMKG MKG20030715004009307/15/03 00:40:31  5-MIN KMKG 150540Z 17008KT 10SM CLR 23/16 A2996 590 63 1700 170/08 RMK AO2
14840KMKG MKG20030715004509307/15/03 00:45:31  5-MIN KMKG 150545Z 17008KT 10SM CLR 23/16 A2996 590 63 1700 170/08 RMK AO2
14840KMKG MKG20030715005012807/15/03 00:50:31  5-MIN KMKG 150550Z 16008KT 10SM CLR 23/16 A2996 600 63 1700 170/08 RMK AO2 SLP140 T02280156 10256 20222 56013
14840KMKG MKG20030715005512807/15/03 00:55:31  5-MIN KMKG 150555Z 16008KT 10SM CLR 23/16 A2995 600 61 1800 160/08 RMK AO2 SLP137 T02330156 10256 20222 58013
14840KMKG MKG20030715010009307/15/03 01:00:31  5-MIN KMKG 150600Z 16010KT 10SM CLR 23/16 A2994 610 61 1800 160/10 RMK AO2
14840KMKG MKG20030715010509307/15/03 01:05:31  5-MIN KMKG 150605Z 16010KT 10SM CLR 23/16 A2994 610 61 1800 160/10 RMK AO2
14840KMKG MKG20030715011009307/15/03 01:10:31  5-MIN KMKG 150610Z 16010KT 10SM CLR 23/16 A2994 620 63 1800 160/10 RMK AO2
14840KMKG MKG20030715011509307/15/03 01:15:31  5-MIN KMKG 150615Z 15009KT 10SM CLR 23/17 A2994 620 66 1800 150/09 RMK AO2
14840KMKG MKG20030715012009307/15/03 01:20:31  5-MIN KMKG 150620Z 15006KT 10SM CLR 23/17 A2994 610 68 1700 160/06 RMK AO2
14840KMKG MKG20030715012509307/15/03 01:25:31  5-MIN KMKG 150625Z 15007KT 10SM CLR 23/16 A2994 610 63 1700 150/07 RMK AO2
14840KMKG MKG20030715013009307/15/03 01:30:31  5-MIN KMKG 150630Z 16007KT 10SM CLR 23/16 A2995 600 65 1700 170/07 RMK AO2
14840KMKG MKG20030715013509307/15/03 01:35:31  5-MIN KMKG 150635Z 16007KT 10SM CLR 23/16 A2995 600 65 1700 160/07 RMK AO2
14840KMKG MKG20030715014009307/15/03 01:40:31  5-MIN KMKG 150640Z 15006KT 10SM CLR 23/16 A2994 610 63 1800 160/06 RMK AO2
14840KMKG MKG20030715014509307/15/03 01:45:31  5-MIN KMKG 150645Z 16007KT 10SM CLR 23/16 A2995 610 65 1700 170/07 RMK AO2
14840KMKG MKG20030715015011007/15/03 01:50:31  5-MIN KMKG 150650Z 17006KT 10SM CLR 23/16 A2995 600 63 1700 180/06 RMK AO2 SLP137 T02330161
14840KMKG MKG20030715015511007/15/03 01:55:31  5-MIN KMKG 150655Z 16008KT 10SM CLR 23/16 A2994 620 63 1800 160/08 RMK AO2 SLP133 T02330161
14840KMKG MKG20030715020009307/15/03 02:00:31  5-MIN KMKG 150700Z 17008KT 10SM CLR 23/17 A2994 610 66 1800 170/08 RMK AO2
14840KMKG MKG20030715020509307/15/03 02:05:31  5-MIN KMKG 150705Z 16008KT 10SM CLR 23/17 A2994 610 66 1800 160/08 RMK AO2
14840KMKG MKG20030715021009307/15/03 02:10:31  5-MIN KMKG 150710Z 15006KT 10SM CLR 23/17 A2994 610 66 1800 160/06 RMK AO2
14840KMKG MKG20030715021509307/15/03 02:15:31  5-MIN KMKG 150715Z 18007KT 10SM CLR 23/17 A2995 610 66 1800 180/07 RMK AO2
14840KMKG MKG20030715022010907/15/03 02:20:31  5-MIN KMKG 150720Z 18007KT 150V220 10SM CLR 23/17 A2995 610 66 1800 180/07 150V220 RMK AO2
14840KMKG MKG20030715022509307/15/03 02:25:31  5-MIN KMKG 150725Z 17008KT 10SM CLR 23/17 A2994 620 66 1800 180/08 RMK AO2
14840KMKG MKG20030715023009307/15/03 02:30:31  5-MIN KMKG 150730Z 16008KT 10SM CLR 23/17 A2993 620 66 1800 170/08 RMK AO2
14840KMKG MKG20030715023510007/15/03 02:35:31  5-MIN KMKG 150735Z 16007KT 10SM CLR 23/17 A2992 630 66 1800 160/07 RMK AO2 PRESFR
14840KMKG MKG20030715024010007/15/03 02:40:31  5-MIN KMKG 150740Z 15008KT 10SM CLR 23/17 A2991 640 66 1800 150/08 RMK AO2 PRESFR
14840KMKG MKG20030715024509307/15/03 02:45:31  5-MIN KMKG 150745Z 14007KT 10SM CLR 23/17 A2991 640 68 1700 140/07 RMK AO2
14840KMKG MKG20030715025011007/15/03 02:50:31  5-MIN KMKG 150750Z 15007KT 10SM CLR 23/17 A2992 630 68 1700 160/07 RMK AO2 SLP126 T02280167
14840KMKG MKG20030715025511007/15/03 02:55:31  5-MIN KMKG 150755Z 15008KT 10SM CLR 23/17 A2992 630 68 1700 160/08 RMK AO2 SLP127 T02280167
14840KMKG MKG20030715030009307/15/03 03:00:31  5-MIN KMKG 150800Z 16008KT 10SM CLR 23/17 A2992 630 68 1700 160/08 RMK AO2
14840KMKG MKG20030715030509307/15/03 03:05:31  5-MIN KMKG 150805Z 17009KT 10SM CLR 22/17 A2993 620 70 1600 180/09 RMK AO2
14840KMKG MKG20030715031009307/15/03 03:10:31  5-MIN KMKG 150810Z 17009KT 10SM CLR 22/17 A2993 630 70 1600 170/09 RMK AO2
14840KMKG MKG20030715031509607/15/03 03:15:31  5-MIN KMKG 150815Z 16009KT 10SM FEW080 22/17 A2992 630 70 1700 170/09 RMK AO2
14840KMKG MKG20030715032011907/15/03 03:20:31  5-MIN KMKG 150820Z 17009KT 10SM -RA FEW080 SCT120 23/17 A2992 630 68 1700 170/09 RMK AO2 RAB20 P0000
14840KMKG MKG20030715032512607/15/03 03:25:31  5-MIN KMKG 150825Z 17009KT 10SM -RA SCT085 SCT120 22/17 A2991 640 70 1700 170/09 RMK AO2 RAB20 PRESFR P0000
14840KMKG MKG20030715033012607/15/03 03:30:31  5-MIN KMKG 150830Z 18010KT 10SM -RA SCT085 SCT110 23/17 A2990 650 70 1700 180/10 RMK AO2 RAB20 PRESFR P0000
14840KMKG MKG20030715033512607/15/03 03:35:31  5-MIN KMKG 150835Z 16012KT 10SM -RA SCT070 BKN120 23/17 A2988 670 70 1800 170/12 RMK AO2 RAB20 PRESFR P0000
14840KMKG MKG20030715034012607/15/03 03:40:31  5-MIN KMKG 150840Z 16011KT 10SM -RA SCT070 BKN120 23/17 A2987 680 70 1800 170/11 RMK AO2 RAB20 PRESFR P0000
14840KMKG MKG20030715034511807/15/03 03:45:31  5-MIN KMKG 150845Z 16011KT 9SM -RA BKN060 BKN110 23/17 A2987 680 70 1800 170/11 RMK AO2 RAB20 P0000
14840KMKG MKG20030715035014707/15/03 03:50:31  5-MIN KMKG 150850Z 15015KT 8SM -RA BKN047 22/18 A2983 710 75 1800 160/15 RMK AO2 RAB20 PRESFR SLP098 P0001 60001 T02220178 58013
14840KMKG MKG20030715035514007/15/03 03:55:31  5-MIN KMKG 150855Z 17013KT 8SM -RA BKN049 22/18 A2985 700 78 1700 170/13 RMK AO2 RAB20 SLP103 P0001 60001 T02170178 58034
14840KMKG MKG20030715040010507/15/03 04:00:31  5-MIN KMKG 150900Z 16012KT 7SM -RA BKN045 21/18 A2984 710 81 1600 170/12 RMK AO2 P0000
14840KMKG MKG20030715040510507/15/03 04:05:31  5-MIN KMKG 150905Z 16013KT 7SM -RA BKN039 21/18 A2982 720 81 1600 160/13 RMK AO2 P0000
14840KMKG MKG20030715041011207/15/03 04:10:31  5-MIN KMKG 150910Z 15013KT 8SM -RA BKN037 22/18 A2980 750 78 1700 150/13 RMK AO2 PRESFR P0000
14840KMKG MKG20030715041511107/15/03 04:15:31  5-MIN KMKG 150915Z 16011G20KT 8SM -RA BKN039 22/18 A2980 740 78 1700 160/11G20 RMK AO2 P0000
14840KMKG MKG20030715042011107/15/03 04:20:31  5-MIN KMKG 150920Z 19009G20KT 8SM -RA BKN037 22/18 A2982 720 78 1700 200/09G20 RMK AO2 P0001
14840KMKG MKG20030715042511107/15/03 04:25:31  5-MIN KMKG 150925Z 18006G14KT 8SM -RA SCT028 22/18 A2984 710 78 1700 180/06G14 RMK AO2 P0001
14840KMKG MKG20030715043011807/15/03 04:30:31  5-MIN KMKG 150930Z 20011G15KT 9SM -RA FEW032 22/18 A2985 690 78 1700 200/11G15 RMK AO2 PRESRR P0001
14840KMKG MKG20030715043511207/15/03 04:35:31  5-MIN KMKG 150935Z 20017G22KT 10SM -RA FEW036 22/18 A2986 690 75 1700 200/17G22 RMK AO2 P0001
14840KMKG MKG20030715044011407/15/03 04:40:31  5-MIN KMKG 150940Z 18019G24KT 10SM FEW036 23/18 A2984 710 73 1800 190/19G24 RMK AO2 RAE37 P0001
14840KMKG MKG20030715044511107/15/03 04:45:31  5-MIN KMKG 150945Z 19018G24KT 10SM CLR 23/18 A2984 700 73 1800 190/18G24 RMK AO2 RAE37 P0001
14840KMKG MKG20030715045012807/15/03 04:50:31  5-MIN KMKG 150950Z 19018G23KT 10SM CLR 23/18 A2984 710 73 1800 190/18G23 RMK AO2 RAE37 SLP099 P0001 T02280178
14840KMKG MKG20030715045512807/15/03 04:55:31  5-MIN KMKG 150955Z 18019G23KT 10SM CLR 23/18 A2984 700 73 1800 190/19G23 RMK AO2 RAE37 SLP101 P0001 T02280178
14840KMKG MKG20030715050010207/15/03 05:00:31  5-MIN KMKG 151000Z 19018G23KT 10SM FEW120 23/18 A2985 690 73 1800 190/18G23 RMK AO2
14840KMKG MKG20030715050512407/15/03 05:05:31  5-MIN KMKG 151005Z 19018G24KT 9SM -RA FEW100 SCT120 23/18 A2985 690 73 1800 190/18G24 RMK AO2 RAB03 P0000
14840KMKG MKG20030715051012507/15/03 05:10:31  5-MIN KMKG 151010Z 18013G24KT 10SM -RA SCT100 BKN120 22/18 A2985 690 75 1700 190/13G24 RMK AO2 RAB03 P0000
14840KMKG MKG20030715051512507/15/03 05:15:31  5-MIN KMKG 151015Z 19015G22KT 10SM -RA FEW100 BKN120 23/18 A2985 700 73 1800 200/15G22 RMK AO2 RAB03 P0000
14840KMKG MKG20030715052012407/15/03 05:20:31  5-MIN KMKG 151020Z 19014G22KT 10SM FEW100 BKN120 23/18 A2985 700 73 1800 200/14G22 RMK AO2 RAB03E16 P0000
14840KMKG MKG20030715052511707/15/03 05:25:31  5-MIN KMKG 151025Z 19015KT 9SM FEW100 BKN120 23/18 A2984 710 73 1800 190/15 RMK AO2 RAB03E16 P0000
14840KMKG MKG20030715053012307/15/03 05:30:31  5-MIN KMKG 151030Z 19015G21KT 9SM FEW100 SCT120 23/18 A2984 710 73 1800 200/15G21 RMK AO2 RAB03E16 P0000
14840KMKG MKG20030715053512307/15/03 05:35:31  5-MIN KMKG 151035Z 19016G24KT 9SM FEW095 SCT120 23/18 A2983 710 73 1800 190/16G24 RMK AO2 RAB03E16 P0000
14840KMKG MKG20030715054013007/15/03 05:40:31  5-MIN KMKG 151040Z 19015G24KT 9SM -RA FEW050 SCT120 22/18 A2983 720 78 1800 190/15G24 RMK AO2 RAB03E16B40 P0000
14840KMKG MKG20030715054513007/15/03 05:45:31  5-MIN KMKG 151045Z 19014G19KT 8SM -RA SCT045 BKN120 22/18 A2983 710 78 1800 190/14G19 RMK AO2 RAB03E16B40 P0000
14840KMKG MKG20030715055014007/15/03 05:50:31  5-MIN KMKG 151050Z 18014G22KT 8SM -RA BKN047 22/18 A2982 730 78 1800 190/14G22 RMK AO2 RAB03E16B40 SLP092 P0000 T02220183
14840KMKG MKG20030715055514007/15/03 05:55:31  5-MIN KMKG 151055Z 18015G22KT 8SM -RA BKN065 22/19 A2981 730 81 1800 190/15G22 RMK AO2 RAB03E16B40 SLP092 P0000 T02220189
14840KMKG MKG20030715060011807/15/03 06:00:31  5-MIN KMKG 151100Z 18013G22KT 9SM -RA BKN070 22/19 A2980 740 81 1800 190/13G22 RMK AO2 PRESFR P0000
14840KMKG MKG20030715060512007/15/03 06:05:31  5-MIN KMKG 151105Z 18014G21KT 8SM BKN065 22/18 A2979 750 78 1800 190/14G21 RMK AO2 RAE01 PRESFR P0000
14840KMKG MKG20030715061010707/15/03 06:10:31  5-MIN KMKG 151110Z 19015KT 7SM SCT070 22/18 A2980 750 78 1800 190/15 RMK AO2 RAE01 P0000
14840KMKG MKG20030715061510707/15/03 06:15:31  5-MIN KMKG 151115Z 19013KT 7SM FEW085 23/18 A2979 750 76 1900 190/13 RMK AO2 RAE01 P0000
14840KMKG MKG20030715062010707/15/03 06:20:31  5-MIN KMKG 151120Z 19012KT 7SM FEW100 23/18 A2980 750 76 1900 200/12 RMK AO2 RAE01 P0000
14840KMKG MKG20030715062511407/15/03 06:25:31  5-MIN KMKG 151125Z 20010KT 7SM FEW100 SCT120 23/18 A2979 750 76 1900 200/10 RMK AO2 RAE01 P0000
14840KMKG MKG20030715063011407/15/03 06:30:31  5-MIN KMKG 151130Z 20012KT 7SM SCT090 SCT120 23/18 A2978 760 76 1900 200/12 RMK AO2 RAE01 P0000
14840KMKG MKG20030715063512107/15/03 06:35:31  5-MIN KMKG 151135Z 19013KT 7SM -RA SCT085 BKN110 22/18 A2978 760 78 1800 190/13 RMK AO2 RAE01B34 P0000
14840KMKG MKG20030715064013407/15/03 06:40:31  5-MIN KMKG 151140Z 19012G20KT 7SM -RA FEW085 BKN110 22/18 A2977 770 78 1800 190/12G20 RMK AO2 RAE01B34 PRESFR P0000
14840KMKG MKG20030715064512607/15/03 06:45:31  5-MIN KMKG 151145Z 19014G20KT 8SM BKN100 BKN120 22/18 A2978 760 78 1800 200/14G20 RMK AO2 RAE01B34E45 P0000
14840KMKG MKG20030715065017307/15/03 06:50:31  5-MIN KMKG 151150Z 19016G22KT 7SM FEW090 BKN110 22/18 A2978 760 78 1800 200/16G22 RMK AO2 RAE01B34E45 SLP079 P0000 60002 70002 T02220183 10233 20211 58034
14840KMKG MKG20030715065517307/15/03 06:55:31  5-MIN KMKG 151155Z 19012G22KT 7SM BKN100 BKN110 22/18 A2978 760 78 1800 190/12G22 RMK AO2 RAE01B34E45 SLP081 P0000 60002 70002 T02220183 10233 20211 58022
14840KMKG MKG20030715070010107/15/03 07:00:31  5-MIN KMKG 151200Z 19015G20KT 7SM BKN100 23/18 A2978 760 76 1900 200/15G20 RMK AO2
14840KMKG MKG20030715070510807/15/03 07:05:31  5-MIN KMKG 151205Z 20015G21KT 7SM FEW030 BKN100 22/18 A2979 760 78 1800 200/15G21 RMK AO2
14840KMKG MKG20030715071010807/15/03 07:10:31  5-MIN KMKG 151210Z 19015G21KT 7SM FEW030 BKN100 22/18 A2978 760 78 1800 200/15G21 RMK AO2
14840KMKG MKG20030715071511507/15/03 07:15:31  5-MIN KMKG 151215Z 20014G21KT 7SM FEW030 SCT080 BKN100 22/18 A2979 750 78 1800 210/14G21 RMK AO2
14840KMKG MKG20030715072011507/15/03 07:20:31  5-MIN KMKG 151220Z 20017G24KT 7SM FEW030 BKN080 BKN100 22/18 A2979 750 78 1800 200/17G24 RMK AO2
14840KMKG MKG20030715072511507/15/03 07:25:31  5-MIN KMKG 151225Z 20015G24KT 7SM FEW030 BKN080 OVC100 22/18 A2978 760 78 1800 200/15G24 RMK AO2
14840KMKG MKG20030715073011507/15/03 07:30:31  5-MIN KMKG 151230Z 19018G21KT 7SM FEW045 BKN080 BKN100 22/18 A2979 750 78 1800 200/18G21 RMK AO2
14840KMKG MKG20030715073510807/15/03 07:35:31  5-MIN KMKG 151235Z 20016G21KT 7SM FEW039 OVC080 22/18 A2979 750 78 1800 200/16G21 RMK AO2
14840KMKG MKG20030715074010207/15/03 07:40:31  5-MIN KMKG 151240Z 20019KT 7SM FEW048 OVC080 22/18 A2979 750 78 1800 200/19 RMK AO2
14840KMKG MKG20030715074510807/15/03 07:45:31  5-MIN KMKG 151245Z 21014G24KT 7SM FEW045 OVC080 22/18 A2979 750 81 1700 210/14G24 RMK AO2
14840KMKG MKG20030715075013207/15/03 07:50:31  5-MIN KMKG 151250Z 20018G24KT 7SM SCT049 SCT060 OVC080 22/18 A2979 750 81 1700 200/18G24 RMK AO2 SLP085 T02170183
14840KMKG MKG20030715075512507/15/03 07:55:31  5-MIN KMKG 151255Z 21017G23KT 8SM BKN050 BKN080 22/18 A2979 750 81 1700 220/17G23 RMK AO2 SLP083 T02170183
14840KMKG MKG20030715080011507/15/03 08:00:31  5-MIN KMKG 151300Z 22014G22KT 8SM FEW040 SCT050 BKN085 21/18 A2979 750 84 1700 220/14G22 RMK AO2
14840KMKG MKG20030715080510907/15/03 08:05:31  5-MIN KMKG 151305Z 22013KT 9SM SCT040 BKN050 BKN085 21/18 A2979 750 84 1700 220/13 RMK AO2
14840KMKG MKG20030715081010907/15/03 08:10:31  5-MIN KMKG 151310Z 21015G20KT 10SM BKN040 BKN050 21/18 A2980 750 84 1700 210/15G20 RMK AO2
14840KMKG MKG20030715081510907/15/03 08:15:31  5-MIN KMKG 151315Z 21016G22KT 10SM BKN040 OVC050 21/18 A2980 740 84 1700 220/16G22 RMK AO2
14840KMKG MKG20030715082010907/15/03 08:20:31  5-MIN KMKG 151320Z 22015G22KT 10SM BKN040 OVC050 21/18 A2980 740 84 1700 220/15G22 RMK AO2
14840KMKG MKG20030715082510107/15/03 08:25:31  5-MIN KMKG 151325Z 22017G23KT 9SM OVC038 21/18 A2980 750 84 1700 220/17G23 RMK AO2
14840KMKG MKG20030715083010107/15/03 08:30:31  5-MIN KMKG 151330Z 23014G24KT 8SM OVC038 22/19 A2980 740 84 1700 240/14G24 RMK AO2
14840KMKG MKG20030715083510107/15/03 08:35:31  5-MIN KMKG 151335Z 22016G24KT 7SM OVC038 22/19 A2980 740 84 1700 230/16G24 RMK AO2
14840KMKG MKG20030715084011107/15/03 08:40:31  5-MIN KMKG 151340Z 22017G23KT 6SM HZ SCT028 OVC036 22/19 A2980 740 84 1700 230/17G23 RMK AO2
14840KMKG MKG20030715084511107/15/03 08:45:31  5-MIN KMKG 151345Z 22017G23KT 6SM BR SCT028 OVC036 21/19 A2980 740 87 1700 220/17G23 RMK AO2
14840KMKG MKG20030715085012907/15/03 08:50:31  5-MIN KMKG 151350Z 22016KT 6SM BR SCT028 BKN036 OVC047 21/19 A2980 740 87 1700 220/16 RMK AO2 SLP088 T02110189
14840KMKG MKG20030715085513507/15/03 08:55:31  5-MIN KMKG 151355Z 23016G22KT 5SM BR SCT028 BKN036 OVC047 21/19 A2980 740 87 1700 230/16G22 RMK AO2 SLP087 T02110189
14840KMKG MKG20030715090011807/15/03 09:00:31  5-MIN KMKG 151400Z 22017G22KT 5SM BR BKN028 BKN034 OVC047 21/18 A2980 740 87 1600 220/17G22 RMK AO2
14840KMKG MKG20030715090511107/15/03 09:05:31  5-MIN KMKG 151405Z 23019G22KT 5SM BR BKN028 OVC047 21/18 A2980 740 87 1600 230/19G22 RMK AO2
14840KMKG MKG20030715091011807/15/03 09:10:31  5-MIN KMKG 151410Z 22016G22KT 5SM BR FEW010 BKN026 OVC047 21/18 A2980 740 87 1600 220/16G22 RMK AO2
14840KMKG MKG20030715091511807/15/03 09:15:31  5-MIN KMKG 151415Z 22019G25KT 5SM BR FEW010 BKN026 OVC047 21/18 A2980 740 87 1600 220/19G25 RMK AO2
14840KMKG MKG20030715092011807/15/03 09:20:31  5-MIN KMKG 151420Z 22016G25KT 5SM BR FEW010 BKN028 OVC036 21/19 A2980 740 90 1600 230/16G25 RMK AO2
14840KMKG MKG20030715092511807/15/03 09:25:31  5-MIN KMKG 151425Z 23017G25KT 5SM BR FEW010 BKN026 OVC036 21/19 A2979 750 90 1600 230/17G25 RMK AO2
14840KMKG MKG20030715093013607/15/03 09:30:31  5-MIN KMKG 151430Z 23016G27KT 5SM BR FEW010 BKN028 OVC055 21/19 A2979 750 90 1600 240/16G27 RMK AO2 PK WND 23027/1428
14840KMKG MKG20030715093515107/15/03 09:35:31  5-MIN KMKG 151435Z 23017G27KT 5SM BR FEW010 BKN038 OVC055 21/19 A2980 750 90 1600 230/17G27 RMK AO2 PK WND 23027/1428 CIG 026 RWY 14
14840KMKG MKG20030715094015107/15/03 09:40:31  5-MIN KMKG 151440Z 23015G23KT 5SM BR FEW010 BKN037 OVC055 21/19 A2980 740 90 1600 230/15G23 RMK AO2 PK WND 23027/1428 CIG 026 RWY 14
14840KMKG MKG20030715094513607/15/03 09:45:31  5-MIN KMKG 151445Z 23014G20KT 5SM BR SCT008 BKN024 OVC050 21/19 A2980 740 90 1600 240/14G20 RMK AO2 PK WND 23027/1428
14840KMKG MKG20030715095015907/15/03 09:50:31  5-MIN KMKG 151450Z 23014G20KT 5SM BR BKN008 BKN024 OVC055 21/19 A2980 740 90 1600 240/14G20 RMK AO2 PK WND 23027/1428 SLP089 T02060189 58022
14840KMKG MKG20030715095515907/15/03 09:55:31  5-MIN KMKG 151455Z 24011G20KT 5SM BR BKN008 BKN030 OVC055 21/19 A2980 740 90 1600 250/11G20 RMK AO2 PK WND 23027/1428 SLP089 T02060189 51008
14840KMKG MKG20030715100011107/15/03 10:00:31  5-MIN KMKG 151500Z 24013G19KT 5SM BR BKN008 OVC050 21/19 A2981 740 93 1600 240/13G19 RMK AO2
14840KMKG MKG20030715100510407/15/03 10:05:31  5-MIN KMKG 151505Z 24014G19KT 5SM BR OVC008 21/19 A2980 740 93 1600 240/14G19 RMK AO2
14840KMKG MKG20030715101010407/15/03 10:10:31  5-MIN KMKG 151510Z 24014G19KT 5SM BR OVC006 21/19 A2980 740 90 1700 240/14G19 RMK AO2
14840KMKG MKG20030715101510407/15/03 10:15:31  5-MIN KMKG 151515Z 25013G18KT 6SM BR OVC006 21/19 A2980 740 90 1700 260/13G18 RMK AO2
14840KMKG MKG20030715102010407/15/03 10:20:31  5-MIN KMKG 151520Z 25014G20KT 6SM BR OVC006 21/19 A2980 740 90 1700 250/14G20 RMK AO2
14840KMKG MKG20030715102511107/15/03 10:25:31  5-MIN KMKG 151525Z 24011G20KT 6SM BR BKN006 OVC031 21/19 A2980 740 90 1700 250/11G20 RMK AO2
14840KMKG MKG20030715103011107/15/03 10:30:31  5-MIN KMKG 151530Z 25011G18KT 6SM BR BKN006 OVC031 22/19 A2980 740 87 1700 250/11G18 RMK AO2
14840KMKG MKG20030715103510807/15/03 10:35:31  5-MIN KMKG 151535Z 25014G19KT 7SM BKN006 OVC031 22/19 A2980 740 87 1700 250/14G19 RMK AO2
14840KMKG MKG20030715104011707/15/03 10:40:31  5-MIN KMKG 151540Z 26013KT 7SM SCT006 OVC031 22/19 A2980 740 87 1700 260/13 RMK AO2 CIG 007 RWY 14
14840KMKG MKG20030715104511707/15/03 10:45:31  5-MIN KMKG 151545Z 25013KT 7SM SCT006 BKN033 22/19 A2980 740 84 1800 260/13 RMK AO2 CIG 007 RWY 14
14840KMKG MKG20030715105012507/15/03 10:50:31  5-MIN KMKG 151550Z 27015G19KT 8SM FEW006 BKN033 23/20 A2980 740 84 1800 270/15G19 RMK AO2 SLP089 T02280200
14840KMKG MKG20030715105512507/15/03 10:55:31  5-MIN KMKG 151555Z 26015G19KT 9SM FEW008 SCT033 23/19 A2981 740 81 1800 260/15G19 RMK AO2 SLP090 T02280194
14840KMKG MKG20030715110010207/15/03 11:00:31  5-MIN KMKG 151600Z 26013KT 8SM FEW008 SCT033 23/20 A2981 740 84 1800 270/13 RMK AO2
14840KMKG MKG20030715110510807/15/03 11:05:31  5-MIN KMKG 151605Z 26012G17KT 8SM FEW010 SCT033 23/20 A2981 730 81 1900 260/12G17 RMK AO2
14840KMKG MKG20030715111010107/15/03 11:10:31  5-MIN KMKG 151610Z 26013G17KT 8SM FEW010 23/20 A2981 730 81 1900 260/13G17 RMK AO2
14840KMKG MKG20030715111510107/15/03 11:15:31  5-MIN KMKG 151615Z 25012G17KT 8SM FEW010 23/20 A2982 730 81 1900 260/12G17 RMK AO2
14840KMKG MKG20030715112010107/15/03 11:20:31  5-MIN KMKG 151620Z 26012G17KT 9SM FEW010 23/20 A2982 730 81 1900 260/12G17 RMK AO2
14840KMKG MKG20030715112509507/15/03 11:25:31  5-MIN KMKG 151625Z 25010KT 8SM FEW010 23/20 A2982 720 81 1900 250/10 RMK AO2
14840KMKG MKG20030715113009507/15/03 11:30:31  5-MIN KMKG 151630Z 26011KT 8SM SCT010 23/20 A2982 720 81 1900 270/11 RMK AO2
14840KMKG MKG20030715113510107/15/03 11:35:31  5-MIN KMKG 151635Z 26010G16KT 8SM SCT010 23/20 A2982 720 81 1900 270/10G16 RMK AO2
14840KMKG MKG20030715114011707/15/03 11:40:31  5-MIN KMKG 151640Z 27010G16KT 230V300 8SM SCT010 23/19 A2982 720 81 1800 280/10G16 230V300 RMK AO2
14840KMKG MKG20030715114509507/15/03 11:45:31  5-MIN KMKG 151645Z 28011KT 8SM SCT012 23/20 A2983 720 81 1900 280/11 RMK AO2
14840KMKG MKG20030715115011807/15/03 11:50:31  5-MIN KMKG 151650Z 27007G15KT 8SM BKN012 23/19 A2983 710 81 1800 270/07G15 RMK AO2 SLP098 T02280194
14840KMKG MKG20030715115511807/15/03 11:55:31  5-MIN KMKG 151655Z 25010G15KT 8SM BKN012 22/19 A2983 710 84 1800 260/10G15 RMK AO2 SLP098 T02220194
14840KMKG MKG20030715120009507/15/03 12:00:31  5-MIN KMKG 151700Z 26009KT 8SM BKN012 23/19 A2983 720 81 1800 270/09 RMK AO2
14840KMKG MKG20030715120509507/15/03 12:05:31  5-MIN KMKG 151705Z 26007KT 8SM BKN012 23/19 A2983 710 81 1800 260/07 RMK AO2
14840KMKG MKG20030715121011107/15/03 12:10:31  5-MIN KMKG 151710Z 27008KT 240V310 8SM BKN012 24/20 A2983 710 78 1900 270/08 240V310 RMK AO2
14840KMKG MKG20030715121510107/15/03 12:15:31  5-MIN KMKG 151715Z 27010G16KT 9SM BKN012 23/20 A2983 710 81 1900 270/10G16 RMK AO2
14840KMKG MKG20030715122010807/15/03 12:20:31  5-MIN KMKG 151720Z 28008G16KT 9SM SCT012 SCT022 23/19 A2983 710 78 1900 280/08G16 RMK AO2
14840KMKG MKG20030715122510807/15/03 12:25:31  5-MIN KMKG 151725Z 28010G15KT 8SM SCT012 BKN022 23/19 A2983 710 78 1900 290/10G15 RMK AO2
14840KMKG MKG20030715123012407/15/03 12:30:31  5-MIN KMKG 151730Z 28009G15KT 250V310 8SM FEW012 BKN024 24/19 A2983 710 76 1900 290/09G15 250V310 RMK AO2
14840KMKG MKG20030715123510207/15/03 12:35:31  5-MIN KMKG 151735Z 26010KT 8SM FEW014 BKN024 23/19 A2983 710 81 1800 260/10 RMK AO2
14840KMKG MKG20030715124011807/15/03 12:40:31  5-MIN KMKG 151740Z 28008KT 250V310 9SM FEW014 BKN024 24/19 A2983 720 76 1900 290/08 250V310 RMK AO2
14840KMKG MKG20030715124510807/15/03 12:45:31  5-MIN KMKG 151745Z 28010G15KT 9SM FEW014 BKN024 24/19 A2983 720 76 1900 280/10G15 RMK AO2
14840KMKG MKG20030715125013707/15/03 12:50:31  5-MIN KMKG 151750Z 28011KT 9SM FEW014 BKN024 24/20 A2983 710 76 2000 280/11 RMK AO2 SLP098 T02440200 10244 20206 51008
14840KMKG MKG20030715125513707/15/03 12:55:31  5-MIN KMKG 151755Z 26010KT 9SM FEW014 SCT024 24/20 A2983 720 76 2000 270/10 RMK AO2 SLP097 T02440200 10244 20206 50007
14840KMKG MKG20030715130009507/15/03 13:00:31  5-MIN KMKG 151800Z 28010KT 9SM SCT024 24/19 A2983 720 73 2000 290/10 RMK AO2
14840KMKG MKG20030715130509507/15/03 13:05:31  5-MIN KMKG 151805Z 28009KT 9SM FEW024 24/19 A2983 710 76 1900 280/09 RMK AO2
14840KMKG MKG20030715131009507/15/03 13:10:31  5-MIN KMKG 151810Z 28010KT 9SM FEW024 24/19 A2983 710 76 1900 280/10 RMK AO2
14840KMKG MKG20030715131509507/15/03 13:15:31  5-MIN KMKG 151815Z 27008KT 9SM FEW024 24/20 A2983 710 76 2000 270/08 RMK AO2
14840KMKG MKG20030715132009507/15/03 13:20:31  5-MIN KMKG 151820Z 27008KT 9SM FEW026 24/19 A2983 710 73 2000 270/08 RMK AO2
14840KMKG MKG20030715132509507/15/03 13:25:31  5-MIN KMKG 151825Z 29009KT 9SM FEW026 24/20 A2983 710 76 2000 290/09 RMK AO2
14840KMKG MKG20030715133009507/15/03 13:30:31  5-MIN KMKG 151830Z 27009KT 9SM FEW028 24/20 A2983 710 76 2000 270/09 RMK AO2
14840KMKG MKG20030715133509507/15/03 13:35:31  5-MIN KMKG 151835Z 28009KT 9SM FEW028 25/20 A2983 710 73 2100 280/09 RMK AO2
14840KMKG MKG20030715134009507/15/03 13:40:31  5-MIN KMKG 151840Z 29009KT 9SM FEW028 24/19 A2983 710 73 2000 290/09 RMK AO2
14840KMKG MKG20030715134509507/15/03 13:45:31  5-MIN KMKG 151845Z 29012KT 9SM SCT028 24/19 A2983 710 76 1900 290/12 RMK AO2
14840KMKG MKG20030715135011207/15/03 13:50:31  5-MIN KMKG 151850Z 28011KT 9SM SCT028 24/20 A2983 710 76 2000 280/11 RMK AO2 SLP099 T02440200
14840KMKG MKG20030715135511207/15/03 13:55:31  5-MIN KMKG 151855Z 29011KT 9SM FEW028 25/20 A2983 710 73 2100 290/11 RMK AO2 SLP098 T02500200
14840KMKG MKG20030715140009507/15/03 14:00:31  5-MIN KMKG 151900Z 28012KT 9SM FEW028 24/19 A2983 710 73 2000 280/12 RMK AO2
14840KMKG MKG20030715140509507/15/03 14:05:31  5-MIN KMKG 151905Z 27012KT 9SM FEW028 24/19 A2984 710 73 2000 280/12 RMK AO2
14840KMKG MKG20030715141009507/15/03 14:10:31  5-MIN KMKG 151910Z 27012KT 9SM FEW028 24/19 A2984 710 73 2000 280/12 RMK AO2
14840KMKG MKG20030715141509307/15/03 14:15:31  5-MIN KMKG 151915Z 28013KT 10SM CLR 25/19 A2984 710 71 2100 280/13 RMK AO2
14840KMKG MKG20030715142009307/15/03 14:20:31  5-MIN KMKG 151920Z 28009KT 10SM CLR 25/19 A2984 700 71 2100 290/09 RMK AO2
14840KMKG MKG20030715142509307/15/03 14:25:31  5-MIN KMKG 151925Z 28010KT 10SM CLR 26/19 A2984 710 68 2100 280/10 RMK AO2
14840KMKG MKG20030715143009607/15/03 14:30:31  5-MIN KMKG 151930Z 28012KT 10SM FEW028 25/19 A2984 700 71 2100 280/12 RMK AO2
14840KMKG MKG20030715143509607/15/03 14:35:31  5-MIN KMKG 151935Z 30009KT 10SM FEW028 25/19 A2984 700 71 2100 300/09 RMK AO2
14840KMKG MKG20030715144009607/15/03 14:40:31  5-MIN KMKG 151940Z 29009KT 10SM FEW028 25/19 A2984 700 71 2100 300/09 RMK AO2
14840KMKG MKG20030715144509607/15/03 14:45:31  5-MIN KMKG 151945Z 29010KT 10SM FEW028 26/19 A2984 700 68 2100 300/10 RMK AO2
14840KMKG MKG20030715145011307/15/03 14:50:31  5-MIN KMKG 151950Z 28009KT 10SM FEW028 26/19 A2984 700 68 2100 280/09 RMK AO2 SLP101 T02560194
14840KMKG MKG20030715145511307/15/03 14:55:31  5-MIN KMKG 151955Z 30010KT 10SM FEW028 26/19 A2984 700 68 2100 300/10 RMK AO2 SLP102 T02560194
14840KMKG MKG20030715150009607/15/03 15:00:31  5-MIN KMKG 152000Z 29012KT 10SM FEW028 26/19 A2984 700 66 2100 300/12 RMK AO2
14840KMKG MKG20030715150509607/15/03 15:05:31  5-MIN KMKG 152005Z 28011KT 10SM FEW028 26/19 A2985 700 66 2100 290/11 RMK AO2
14840KMKG MKG20030715151009607/15/03 15:10:31  5-MIN KMKG 152010Z 29010KT 10SM FEW028 26/19 A2985 700 66 2200 290/10 RMK AO2
14840KMKG MKG20030715151509607/15/03 15:15:31  5-MIN KMKG 152015Z 29011KT 10SM FEW028 26/19 A2985 700 66 2100 290/11 RMK AO2
14840KMKG MKG20030715152009607/15/03 15:20:31  5-MIN KMKG 152020Z 28009KT 10SM FEW028 26/19 A2985 700 66 2100 290/09 RMK AO2
14840KMKG MKG20030715152509607/15/03 15:25:31  5-MIN KMKG 152025Z 29010KT 10SM FEW028 26/19 A2985 700 66 2100 300/10 RMK AO2
14840KMKG MKG20030715153009607/15/03 15:30:31  5-MIN KMKG 152030Z 29009KT 10SM FEW028 26/19 A2985 700 66 2100 300/09 RMK AO2
14840KMKG MKG20030715153509607/15/03 15:35:31  5-MIN KMKG 152035Z 29010KT 10SM FEW028 26/19 A2984 700 64 2200 290/10 RMK AO2
14840KMKG MKG20030715154009607/15/03 15:40:31  5-MIN KMKG 152040Z 29010KT 10SM FEW028 26/19 A2984 700 64 2200 300/10 RMK AO2
14840KMKG MKG20030715154509607/15/03 15:45:31  5-MIN KMKG 152045Z 29009KT 10SM FEW028 26/19 A2984 700 64 2200 290/09 RMK AO2
14840KMKG MKG20030715155011907/15/03 15:50:31  5-MIN KMKG 152050Z 29009KT 10SM FEW028 27/19 A2985 700 62 2200 300/09 RMK AO2 SLP102 T02670189 50007
14840KMKG MKG20030715155511907/15/03 15:55:31  5-MIN KMKG 152055Z 30010KT 10SM FEW028 26/19 A2985 700 64 2200 300/10 RMK AO2 SLP103 T02610189 51006
14840KMKG MKG20030715160009307/15/03 16:00:31  5-MIN KMKG 152100Z 28011KT 10SM CLR 26/18 A2985 700 62 2200 280/11 RMK AO2
14840KMKG MKG20030715160509307/15/03 16:05:31  5-MIN KMKG 152105Z 29010KT 10SM CLR 26/18 A2985 700 62 2200 290/10 RMK AO2
14840KMKG MKG20030715161009307/15/03 16:10:31  5-MIN KMKG 152110Z 30010KT 10SM CLR 26/18 A2985 700 62 2200 300/10 RMK AO2
14840KMKG MKG20030715161509307/15/03 16:15:31  5-MIN KMKG 152115Z 29009KT 10SM CLR 26/19 A2985 700 64 2200 290/09 RMK AO2
14840KMKG MKG20030715162009307/15/03 16:20:31  5-MIN KMKG 152120Z 28011KT 10SM CLR 26/19 A2985 700 64 2200 290/11 RMK AO2
14840KMKG MKG20030715162509307/15/03 16:25:31  5-MIN KMKG 152125Z 28011KT 10SM CLR 26/18 A2985 700 64 2100 280/11 RMK AO2
14840KMKG MKG20030715163009307/15/03 16:30:31  5-MIN KMKG 152130Z 30010KT 10SM CLR 26/18 A2985 690 64 2100 300/10 RMK AO2
14840KMKG MKG20030715163509307/15/03 16:35:31  5-MIN KMKG 152135Z 28010KT 10SM CLR 26/19 A2985 690 64 2200 280/10 RMK AO2
14840KMKG MKG20030715164009307/15/03 16:40:31  5-MIN KMKG 152140Z 28010KT 10SM CLR 26/19 A2985 690 66 2100 280/10 RMK AO2
14840KMKG MKG20030715164509307/15/03 16:45:31  5-MIN KMKG 152145Z 27010KT 10SM CLR 26/19 A2985 690 64 2200 270/10 RMK AO2
14840KMKG MKG20030715165011307/15/03 16:50:31  5-MIN KMKG 152150Z 28008KT 10SM FEW040 26/19 A2985 690 66 2100 290/08 RMK AO2 SLP105 T02560189
14840KMKG MKG20030715165511307/15/03 16:55:31  5-MIN KMKG 152155Z 28010KT 10SM FEW040 26/19 A2986 690 66 2100 290/10 RMK AO2 SLP106 T02560189
14840KMKG MKG20030715170009607/15/03 17:00:31  5-MIN KMKG 152200Z 28010KT 10SM FEW075 26/18 A2985 690 64 2100 280/10 RMK AO2
14840KMKG MKG20030715170509307/15/03 17:05:31  5-MIN KMKG 152205Z 28009KT 10SM CLR 26/18 A2986 690 64 2100 290/09 RMK AO2
14840KMKG MKG20030715171009307/15/03 17:10:31  5-MIN KMKG 152210Z 29007KT 10SM CLR 26/18 A2986 690 64 2100 300/07 RMK AO2
14840KMKG MKG20030715171509307/15/03 17:15:31  5-MIN KMKG 152215Z 28009KT 10SM CLR 26/18 A2986 690 64 2100 280/09 RMK AO2
14840KMKG MKG20030715172009307/15/03 17:20:31  5-MIN KMKG 152220Z 28008KT 10SM CLR 26/18 A2986 690 64 2100 290/08 RMK AO2
14840KMKG MKG20030715172509307/15/03 17:25:31  5-MIN KMKG 152225Z 29009KT 10SM CLR 26/18 A2986 690 64 2100 290/09 RMK AO2
14840KMKG MKG20030715173009307/15/03 17:30:31  5-MIN KMKG 152230Z 30008KT 10SM CLR 26/18 A2986 690 61 2100 310/08 RMK AO2
14840KMKG MKG20030715173509907/15/03 17:35:31  5-MIN KMKG 152235Z 29007G14KT 10SM CLR 26/18 A2986 690 61 2100 300/07G14 RMK AO2
14840KMKG MKG20030715174010207/15/03 17:40:31  5-MIN KMKG 152240Z 28008G14KT 10SM FEW085 25/18 A2986 690 64 2000 290/08G14 RMK AO2
14840KMKG MKG20030715174509607/15/03 17:45:31  5-MIN KMKG 152245Z 31009KT 10SM SCT080 26/18 A2986 690 59 2200 310/09 RMK AO2
14840KMKG MKG20030715175013607/15/03 17:50:31  5-MIN KMKG 152250Z 30008KT 260V340 10SM SCT070 BKN080 26/18 A2986 690 61 2100 310/08 260V340 RMK AO2 SLP108 T02560178
14840KMKG MKG20030715175512007/15/03 17:55:31  5-MIN KMKG 152255Z 29006KT 10SM BKN065 BKN080 24/17 A2986 690 63 2000 290/06 RMK AO2 SLP108 T02440172
14840KMKG MKG20030715180010307/15/03 18:00:31  5-MIN KMKG 152300Z 29008KT 10SM BKN065 BKN080 25/17 A2986 690 61 2000 290/08 RMK AO2
14840KMKG MKG20030715180510307/15/03 18:05:31  5-MIN KMKG 152305Z 30007KT 10SM BKN065 BKN080 25/18 A2986 690 64 2000 310/07 RMK AO2
14840KMKG MKG20030715181010307/15/03 18:10:31  5-MIN KMKG 152310Z 29010KT 10SM BKN065 BKN080 25/17 A2986 680 61 2000 290/10 RMK AO2
14840KMKG MKG20030715181509607/15/03 18:15:31  5-MIN KMKG 152315Z 30009KT 10SM SCT065 25/17 A2986 680 61 2000 300/09 RMK AO2
14840KMKG MKG20030715182009607/15/03 18:20:31  5-MIN KMKG 152320Z 28007KT 10SM FEW065 24/17 A2986 680 63 2000 290/07 RMK AO2
14840KMKG MKG20030715182511207/15/03 18:25:31  5-MIN KMKG 152325Z 32010KT 290V350 10SM FEW065 24/17 A2987 680 63 2000 320/10 290V350 RMK AO2
14840KMKG MKG20030715183009307/15/03 18:30:31  5-MIN KMKG 152330Z 32009KT 10SM CLR 25/17 A2986 680 61 2000 320/09 RMK AO2
14840KMKG MKG20030715183509307/15/03 18:35:31  5-MIN KMKG 152335Z 31010KT 10SM CLR 24/17 A2986 680 61 2000 310/10 RMK AO2
14840KMKG MKG20030715184009307/15/03 18:40:31  5-MIN KMKG 152340Z 31009KT 10SM CLR 24/17 A2987 680 61 2000 320/09 RMK AO2
14840KMKG MKG20030715184509307/15/03 18:45:31  5-MIN KMKG 152345Z 32011KT 10SM CLR 24/17 A2987 680 61 2000 330/11 RMK AO2
14840KMKG MKG20030715185013107/15/03 18:50:31  5-MIN KMKG 152350Z 30008KT 10SM FEW080 24/17 A2987 680 61 2000 310/08 RMK AO2 SLP111 T02440167 10267 20239 51006
14840KMKG MKG20030715185513107/15/03 18:55:31  5-MIN KMKG 152355Z 30008KT 10SM FEW080 24/17 A2987 680 61 2000 310/08 RMK AO2 SLP111 T02440167 10267 20239 52008
14840KMKG MKG20030715190009307/15/03 19:00:31  5-MIN KMKG 160000Z 30011KT 10SM CLR 24/17 A2987 680 63 1900 300/11 RMK AO2
14840KMKG MKG20030715190509907/15/03 19:05:31  5-MIN KMKG 160005Z 30014G20KT 10SM CLR 23/16 A2988 670 63 1800 310/14G20 RMK AO2
14840KMKG MKG20030715191009907/15/03 19:10:31  5-MIN KMKG 160010Z 30012G20KT 10SM CLR 23/16 A2988 670 65 1800 310/12G20 RMK AO2
14840KMKG MKG20030715191509907/15/03 19:15:31  5-MIN KMKG 160015Z 31012G20KT 10SM CLR 23/16 A2988 670 65 1800 320/12G20 RMK AO2
14840KMKG MKG20030715192009907/15/03 19:20:31  5-MIN KMKG 160020Z 32013G19KT 10SM CLR 22/17 A2988 660 70 1700 320/13G19 RMK AO2
14840KMKG MKG20030715192509607/15/03 19:25:31  5-MIN KMKG 160025Z 33013KT 10SM FEW080 22/17 A2989 660 70 1700 330/13 RMK AO2
14840KMKG MKG20030715193010307/15/03 19:30:31  5-MIN KMKG 160030Z 33010KT 10SM SCT070 SCT085 22/17 A2989 660 70 1700 330/10 RMK AO2
14840KMKG MKG20030715193510307/15/03 19:35:31  5-MIN KMKG 160035Z 34012KT 10SM FEW075 BKN090 22/17 A2989 660 70 1700 340/12 RMK AO2
14840KMKG MKG20030715194011007/15/03 19:40:31  5-MIN KMKG 160040Z 34011KT 10SM FEW060 SCT075 BKN090 23/16 A2989 650 65 1700 350/11 RMK AO2
14840KMKG MKG20030715194510307/15/03 19:45:31  5-MIN KMKG 160045Z 34012KT 10SM SCT065 BKN085 23/16 A2989 660 65 1700 350/12 RMK AO2
14840KMKG MKG20030715195012007/15/03 19:50:31  5-MIN KMKG 160050Z 34012KT 10SM SCT065 BKN085 23/16 A2990 650 65 1700 340/12 RMK AO2 SLP120 T02280161
14840KMKG MKG20030715195512007/15/03 19:55:31  5-MIN KMKG 160055Z 34011KT 10SM SCT065 BKN085 23/16 A2990 650 65 1700 340/11 RMK AO2 SLP121 T02280161
14840KMKG MKG20030715200011007/15/03 20:00:31  5-MIN KMKG 160100Z 34012KT 10SM FEW060 SCT075 BKN090 22/16 A2990 650 68 1700 350/12 RMK AO2
14840KMKG MKG20030715200511007/15/03 20:05:31  5-MIN KMKG 160105Z 34013KT 10SM FEW060 BKN075 BKN090 22/16 A2990 640 65 1700 340/13 RMK AO2
14840KMKG MKG20030715201010307/15/03 20:10:31  5-MIN KMKG 160110Z 35009KT 10SM FEW060 BKN075 22/16 A2990 650 65 1700 350/09 RMK AO2
14840KMKG MKG20030715201509607/15/03 20:15:31  5-MIN KMKG 160115Z 34010KT 10SM SCT075 22/16 A2990 650 65 1700 350/10 RMK AO2
14840KMKG MKG20030715202009607/15/03 20:20:31  5-MIN KMKG 160120Z 35013KT 10SM FEW075 22/16 A2990 650 65 1700 360/13 RMK AO2
14840KMKG MKG20030715202509607/15/03 20:25:31  5-MIN KMKG 160125Z 34010KT 10SM FEW075 22/16 A2991 640 65 1700 350/10 RMK AO2
14840KMKG MKG20030715203009607/15/03 20:30:31  5-MIN KMKG 160130Z 35009KT 10SM FEW075 22/16 A2991 640 68 1600 360/09 RMK AO2
14840KMKG MKG20030715203509907/15/03 20:35:31  5-MIN KMKG 160135Z 35013G19KT 10SM CLR 22/15 A2991 640 65 1600 350/13G19 RMK AO2
14840KMKG MKG20030715204009907/15/03 20:40:31  5-MIN KMKG 160140Z 35012G19KT 10SM CLR 22/15 A2991 640 65 1600 350/12G19 RMK AO2
14840KMKG MKG20030715204509307/15/03 20:45:31  5-MIN KMKG 160145Z 35009KT 10SM CLR 22/15 A2992 630 65 1600 350/09 RMK AO2
14840KMKG MKG20030715205011007/15/03 20:50:31  5-MIN KMKG 160150Z 35011KT 10SM CLR 22/15 A2992 630 65 1600 360/11 RMK AO2 SLP130 T02170150
14840KMKG MKG20030715205511007/15/03 20:55:31  5-MIN KMKG 160155Z 35012KT 10SM CLR 22/15 A2993 620 65 1600 360/12 RMK AO2 SLP131 T02170150
14840KMKG MKG20030715210009307/15/03 21:00:31  5-MIN KMKG 160200Z 35009KT 10SM CLR 21/15 A2993 620 68 1500 360/09 RMK AO2
14840KMKG MKG20030715210509307/15/03 21:05:31  5-MIN KMKG 160205Z 35009KT 10SM CLR 21/15 A2994 610 68 1500 360/09 RMK AO2
14840KMKG MKG20030715211010007/15/03 21:10:31  5-MIN KMKG 160210Z 36012KT 10SM CLR 21/15 A2995 610 68 1500 360/12 RMK AO2 PRESRR
14840KMKG MKG20030715211509307/15/03 21:15:31  5-MIN KMKG 160215Z 36014KT 10SM CLR 21/14 A2995 600 67 1400 010/14 RMK AO2
14840KMKG MKG20030715212009307/15/03 21:20:31  5-MIN KMKG 160220Z 01011KT 10SM CLR 21/14 A2995 600 65 1400 010/11 RMK AO2
14840KMKG MKG20030715212509307/15/03 21:25:31  5-MIN KMKG 160225Z 35011KT 10SM CLR 21/14 A2995 600 65 1400 360/11 RMK AO2
14840KMKG MKG20030715213009307/15/03 21:30:31  5-MIN KMKG 160230Z 36012KT 10SM CLR 21/13 A2995 600 63 1400 360/12 RMK AO2
14840KMKG MKG20030715213509307/15/03 21:35:31  5-MIN KMKG 160235Z 35012KT 10SM CLR 20/13 A2996 600 65 1400 360/12 RMK AO2
14840KMKG MKG20030715214009307/15/03 21:40:31  5-MIN KMKG 160240Z 35010KT 10SM CLR 20/13 A2996 600 65 1400 360/10 RMK AO2
14840KMKG MKG20030715214509907/15/03 21:45:31  5-MIN KMKG 160245Z 36013G17KT 10SM CLR 20/13 A2996 600 65 1400 010/13G17 RMK AO2
14840KMKG MKG20030715215012207/15/03 21:50:31  5-MIN KMKG 160250Z 36011G17KT 10SM CLR 20/13 A2996 600 65 1400 360/11G17 RMK AO2 SLP142 T02000133 52008
14840KMKG MKG20030715215511607/15/03 21:55:31  5-MIN KMKG 160255Z 36011KT 10SM CLR 20/13 A2996 590 65 1400 360/11 RMK AO2 SLP143 T02000133 53030
14840KMKG MKG20030715220009307/15/03 22:00:31  5-MIN KMKG 160300Z 36010KT 10SM CLR 20/13 A2996 590 63 1400 010/10 RMK AO2
14840KMKG MKG20030715220509307/15/03 22:05:31  5-MIN KMKG 160305Z 36012KT 10SM CLR 19/13 A2996 590 65 1300 360/12 RMK AO2
14840KMKG MKG20030715221009307/15/03 22:10:31  5-MIN KMKG 160310Z 01011KT 10SM CLR 19/13 A2996 590 65 1300 010/11 RMK AO2
14840KMKG MKG20030715221509307/15/03 22:15:31  5-MIN KMKG 160315Z 01011KT 10SM CLR 19/13 A2996 590 65 1300 010/11 RMK AO2
14840KMKG MKG20030715222009307/15/03 22:20:31  5-MIN KMKG 160320Z 01009KT 10SM CLR 19/13 A2996 590 65 1300 010/09 RMK AO2
14840KMKG MKG20030715222509307/15/03 22:25:31  5-MIN KMKG 160325Z 01010KT 10SM CLR 19/13 A2996 590 65 1300 010/10 RMK AO2
14840KMKG MKG20030715223009307/15/03 22:30:31  5-MIN KMKG 160330Z 01009KT 10SM CLR 19/12 A2997 590 62 1300 010/09 RMK AO2
14840KMKG MKG20030715223509907/15/03 22:35:31  5-MIN KMKG 160335Z 01010G15KT 10SM CLR 19/12 A2997 590 65 1200 010/10G15 RMK AO2
14840KMKG MKG20030715224009907/15/03 22:40:31  5-MIN KMKG 160340Z 36010G15KT 10SM CLR 19/12 A2997 590 65 1200 360/10G15 RMK AO2
14840KMKG MKG20030715224509307/15/03 22:45:31  5-MIN KMKG 160345Z 36009KT 10SM CLR 19/12 A2997 590 65 1200 360/09 RMK AO2
14840KMKG MKG20030715225011007/15/03 22:50:31  5-MIN KMKG 160350Z 36008KT 10SM CLR 19/12 A2997 580 65 1200 360/08 RMK AO2 SLP147 T01890122
14840KMKG MKG20030715225511007/15/03 22:55:31  5-MIN KMKG 160355Z 36007KT 10SM CLR 19/12 A2997 580 65 1200 360/07 RMK AO2 SLP148 T01890122
14840KMKG MKG20030715230009307/15/03 23:00:31  5-MIN KMKG 160400Z 35008KT 10SM CLR 18/12 A2998 580 67 1100 360/08 RMK AO2
14840KMKG MKG20030715230509307/15/03 23:05:31  5-MIN KMKG 160405Z 36008KT 10SM CLR 18/12 A2997 580 67 1100 360/08 RMK AO2
14840KMKG MKG20030715231009307/15/03 23:10:31  5-MIN KMKG 160410Z 36008KT 10SM CLR 18/12 A2998 580 67 1100 360/08 RMK AO2
14840KMKG MKG20030715231509307/15/03 23:15:31  5-MIN KMKG 160415Z 36008KT 10SM CLR 18/12 A2998 580 67 1100 010/08 RMK AO2
14840KMKG MKG20030715232009307/15/03 23:20:31  5-MIN KMKG 160420Z 36007KT 10SM CLR 18/12 A2998 580 65 1100 360/07 RMK AO2
14840KMKG MKG20030715232509307/15/03 23:25:31  5-MIN KMKG 160425Z 36006KT 10SM CLR 18/12 A2998 570 65 1100 010/06 RMK AO2
14840KMKG MKG20030715233009307/15/03 23:30:31  5-MIN KMKG 160430Z 01005KT 10SM CLR 18/12 A2998 570 65 1100 020/05 RMK AO2
14840KMKG MKG20030715233509307/15/03 23:35:31  5-MIN KMKG 160435Z 01005KT 10SM CLR 18/12 A2998 570 67 1100 020/05 RMK AO2
14840KMKG MKG20030715234009307/15/03 23:40:31  5-MIN KMKG 160440Z 01005KT 10SM CLR 18/12 A2999 570 67 1100 020/05 RMK AO2
14840KMKG MKG20030715234509307/15/03 23:45:31  5-MIN KMKG 160445Z 01005KT 10SM CLR 18/12 A2999 570 67 1100 020/05 RMK AO2
14840KMKG MKG20030715235012007/15/03 23:50:31  5-MIN KMKG 160450Z 01005KT 10SM CLR 18/12 A2999 570 67 1100 010/05 RMK AO2 SLP152 T01780117 402670178
14840KMKG MKG20030715235512007/15/03 23:55:31  5-MIN KMKG 160455Z 36005KT 10SM CLR 17/12 A2998 570 69 1000 010/05 RMK AO2 SLP151 T01720117 402670172
14840KMKG MKG20030716000009307/16/03 00:00:31  5-MIN KMKG 160500Z 01005KT 10SM CLR 17/12 A2999 570 69 1000 020/05 RMK AO2
14840KMKG MKG20030716000509307/16/03 00:05:31  5-MIN KMKG 160505Z 01005KT 10SM CLR 17/12 A2999 570 69 1000 010/05 RMK AO2
14840KMKG MKG20030716001009307/16/03 00:10:31  5-MIN KMKG 160510Z 36003KT 10SM CLR 18/12 A2999 570 67 1100 360/03 RMK AO2
14840KMKG MKG20030716001509307/16/03 00:15:31  5-MIN KMKG 160515Z 01003KT 10SM CLR 17/12 A2999 570 69 1000 010/03 RMK AO2
14840KMKG MKG20030716002009307/16/03 00:20:31  5-MIN KMKG 160520Z 34003KT 10SM CLR 17/12 A2999 570 69 1000 350/03 RMK AO2
14840KMKG MKG20030716002509307/16/03 00:25:31  5-MIN KMKG 160525Z 35003KT 10SM CLR 17/12 A2999 570 69 1000 350/03 RMK AO2
14840KMKG MKG20030716003009307/16/03 00:30:31  5-MIN KMKG 160530Z 36005KT 10SM CLR 17/12 A2999 570 69 1000 360/05 RMK AO2
14840KMKG MKG20030716003509207/16/03 00:35:31  5-MIN KMKG 160535Z 36003KT 10SM CLR 17/12 A2999 570 72 900 360/03 RMK AO2
14840KMKG MKG20030716004009207/16/03 00:40:31  5-MIN KMKG 160540Z 36003KT 10SM CLR 16/12 A2999 570 75 900 010/03 RMK AO2
14840KMKG MKG20030716004509207/16/03 00:45:31  5-MIN KMKG 160545Z 36004KT 10SM CLR 17/12 A2999 570 72 900 360/04 RMK AO2
14840KMKG MKG20030716005012707/16/03 00:50:31  5-MIN KMKG 160550Z 36003KT 10SM CLR 17/12 A2999 570 72 900 010/03 RMK AO2 SLP153 T01670117 10244 20161 53030
14840KMKG MKG20030716005512707/16/03 00:55:31  5-MIN KMKG 160555Z 00000KT 10SM CLR 16/12 A2999 560 77 800 000/00 RMK AO2 SLP154 T01560117 10244 20156 51010
14840KMKG MKG20030716010009207/16/03 01:00:31  5-MIN KMKG 160600Z 00000KT 10SM CLR 14/12 A2999 560 83 700 000/00 RMK AO2
14840KMKG MKG20030716010509207/16/03 01:05:31  5-MIN KMKG 160605Z 00000KT 10SM CLR 14/12 A2999 560 83 700 000/00 RMK AO2
14840KMKG MKG20030716011009207/16/03 01:10:31  5-MIN KMKG 160610Z 00000KT 10SM CLR 14/12 A2999 560 83 700 000/00 RMK AO2
14840KMKG MKG20030716011509207/16/03 01:15:31  5-MIN KMKG 160615Z 00000KT 10SM CLR 14/12 A2999 560 86 700 000/00 RMK AO2
14840KMKG MKG20030716012009207/16/03 01:20:31  5-MIN KMKG 160620Z 00000KT 10SM CLR 14/12 A2999 560 90 600 000/00 RMK AO2
14840KMKG MKG20030716012509207/16/03 01:25:31  5-MIN KMKG 160625Z 00000KT 10SM CLR 14/11 A2999 560 83 600 000/00 RMK AO2
14840KMKG MKG20030716013009207/16/03 01:30:31  5-MIN KMKG 160630Z 00000KT 10SM CLR 13/11 A3000 560 86 500 000/00 RMK AO2
14840KMKG MKG20030716013509207/16/03 01:35:31  5-MIN KMKG 160635Z 00000KT 10SM CLR 14/12 A3000 560 86 600 000/00 RMK AO2
14840KMKG MKG20030716014009207/16/03 01:40:31  5-MIN KMKG 160640Z 00000KT 10SM CLR 14/12 A3000 550 83 700 000/00 RMK AO2
14840KMKG MKG20030716014509207/16/03 01:45:31  5-MIN KMKG 160645Z 00000KT 10SM CLR 14/12 A3000 550 86 600 000/00 RMK AO2
14840KMKG MKG20030716015010907/16/03 01:50:31  5-MIN KMKG 160650Z 00000KT 10SM CLR 14/12 A3000 550 83 700 000/00 RMK AO2 SLP157 T01440117
14840KMKG MKG20030716015510907/16/03 01:55:31  5-MIN KMKG 160655Z 00000KT 10SM CLR 14/12 A3000 550 83 700 000/00 RMK AO2 SLP157 T01440117
14840KMKG MKG20030716020009207/16/03 02:00:31  5-MIN KMKG 160700Z 00000KT 10SM CLR 14/12 A3001 550 86 600 000/00 RMK AO2
14840KMKG MKG20030716020509207/16/03 02:05:31  5-MIN KMKG 160705Z 00000KT 10SM CLR 14/12 A3001 550 86 700 000/00 RMK AO2
14840KMKG MKG20030716021009207/16/03 02:10:31  5-MIN KMKG 160710Z 00000KT 10SM CLR 14/12 A3001 550 90 600 000/00 RMK AO2
14840KMKG MKG20030716021509207/16/03 02:15:31  5-MIN KMKG 160715Z 00000KT 10SM CLR 13/12 A3001 550 93 500 000/00 RMK AO2
14840KMKG MKG20030716022009207/16/03 02:20:31  5-MIN KMKG 160720Z 00000KT 10SM CLR 13/12 A3001 550 89 500 000/00 RMK AO2
14840KMKG MKG20030716022509207/16/03 02:25:31  5-MIN KMKG 160725Z 00000KT 10SM CLR 13/12 A3001 550 89 500 000/00 RMK AO2
14840KMKG MKG20030716023009207/16/03 02:30:31  5-MIN KMKG 160730Z 00000KT 10SM CLR 13/12 A3001 540 89 500 000/00 RMK AO2
14840KMKG MKG20030716023509207/16/03 02:35:31  5-MIN KMKG 160735Z 00000KT 10SM CLR 13/12 A3002 540 89 500 000/00 RMK AO2
14840KMKG MKG20030716024009207/16/03 02:40:31  5-MIN KMKG 160740Z 00000KT 10SM CLR 13/12 A3002 540 89 500 000/00 RMK AO2
14840KMKG MKG20030716024509207/16/03 02:45:31  5-MIN KMKG 160745Z 33003KT 10SM CLR 14/12 A3002 540 90 600 330/03 RMK AO2
14840KMKG MKG20030716025010907/16/03 02:50:31  5-MIN KMKG 160750Z 00000KT 10SM CLR 14/12 A3002 540 86 600 000/00 RMK AO2 SLP163 T01440122
14840KMKG MKG20030716025510907/16/03 02:55:31  5-MIN KMKG 160755Z 00000KT 10SM CLR 14/12 A3002 540 90 600 000/00 RMK AO2 SLP164 T01390122
14840KMKG MKG20030716030009207/16/03 03:00:31  5-MIN KMKG 160800Z 30003KT 10SM CLR 13/12 A3002 530 93 400 300/03 RMK AO2
14840KMKG MKG20030716030509207/16/03 03:05:31  5-MIN KMKG 160805Z 32004KT 10SM CLR 13/11 A3002 530 89 400 320/04 RMK AO2
14840KMKG MKG20030716031009207/16/03 03:10:31  5-MIN KMKG 160810Z 33004KT 10SM CLR 13/11 A3002 530 89 400 330/04 RMK AO2
14840KMKG MKG20030716031509207/16/03 03:15:31  5-MIN KMKG 160815Z 32005KT 10SM CLR 14/12 A3003 530 86 600 330/05 RMK AO2
14840KMKG MKG20030716032009207/16/03 03:20:31  5-MIN KMKG 160820Z 32006KT 10SM CLR 15/13 A3003 530 86 700 320/06 RMK AO2
14840KMKG MKG20030716032509207/16/03 03:25:31  5-MIN KMKG 160825Z 32005KT 10SM CLR 16/12 A3003 530 80 800 320/05 RMK AO2
14840KMKG MKG20030716033009207/16/03 03:30:31  5-MIN KMKG 160830Z 32005KT 10SM CLR 16/12 A3003 530 80 800 320/05 RMK AO2
14840KMKG MKG20030716033509207/16/03 03:35:31  5-MIN KMKG 160835Z 30004KT 10SM CLR 16/12 A3003 530 80 800 310/04 RMK AO2
14840KMKG MKG20030716034009207/16/03 03:40:31  5-MIN KMKG 160840Z 30005KT 10SM CLR 16/13 A3004 520 83 700 300/05 RMK AO2
14840KMKG MKG20030716034509207/16/03 03:45:31  5-MIN KMKG 160845Z 30005KT 10SM CLR 16/13 A3004 520 83 700 300/05 RMK AO2
14840KMKG MKG20030716035011507/16/03 03:50:31  5-MIN KMKG 160850Z 29004KT 10SM CLR 16/13 A3004 520 83 700 290/04 RMK AO2 SLP170 T01560128 51010
14840KMKG MKG20030716035511507/16/03 03:55:31  5-MIN KMKG 160855Z 29005KT 10SM CLR 16/13 A3004 520 83 700 300/05 RMK AO2 SLP171 T01560128 53017
14840KMKG MKG20030716040009207/16/03 04:00:31  5-MIN KMKG 160900Z 30005KT 10SM CLR 16/13 A3004 520 83 700 300/05 RMK AO2
14840KMKG MKG20030716040509207/16/03 04:05:31  5-MIN KMKG 160905Z 29005KT 10SM CLR 16/13 A3004 520 83 700 300/05 RMK AO2
14840KMKG MKG20030716041009207/16/03 04:10:31  5-MIN KMKG 160910Z 31005KT 10SM CLR 15/12 A3004 520 83 700 310/05 RMK AO2
14840KMKG MKG20030716041509207/16/03 04:15:31  5-MIN KMKG 160915Z 32006KT 10SM CLR 16/13 A3004 520 83 700 320/06 RMK AO2
14840KMKG MKG20030716042009207/16/03 04:20:31  5-MIN KMKG 160920Z 33007KT 10SM CLR 16/13 A3005 510 83 700 330/07 RMK AO2
14840KMKG MKG20030716042509207/16/03 04:25:31  5-MIN KMKG 160925Z 32005KT 10SM CLR 16/13 A3005 510 83 700 320/05 RMK AO2
14840KMKG MKG20030716043009207/16/03 04:30:31  5-MIN KMKG 160930Z 32006KT 10SM CLR 16/13 A3005 510 83 700 320/06 RMK AO2
14840KMKG MKG20030716043509207/16/03 04:35:31  5-MIN KMKG 160935Z 32006KT 10SM CLR 16/13 A3005 510 83 700 330/06 RMK AO2
14840KMKG MKG20030716044009207/16/03 04:40:31  5-MIN KMKG 160940Z 33006KT 10SM CLR 16/13 A3005 510 83 700 330/06 RMK AO2
14840KMKG MKG20030716044509207/16/03 04:45:31  5-MIN KMKG 160945Z 33005KT 10SM CLR 16/13 A3005 510 83 700 330/05 RMK AO2
14840KMKG MKG20030716045010907/16/03 04:50:31  5-MIN KMKG 160950Z 32006KT 10SM CLR 15/13 A3006 500 86 700 320/06 RMK AO2 SLP176 T01500128
14840KMKG MKG20030716045510907/16/03 04:55:31  5-MIN KMKG 160955Z 32007KT 10SM CLR 16/13 A3006 500 83 700 330/07 RMK AO2 SLP176 T01560128
14840KMKG MKG20030716050009207/16/03 05:00:31  5-MIN KMKG 161000Z 32005KT 10SM CLR 16/13 A3006 500 83 700 320/05 RMK AO2
14840KMKG MKG20030716050509207/16/03 05:05:31  5-MIN KMKG 161005Z 32003KT 10SM CLR 15/13 A3006 500 86 700 330/03 RMK AO2
14840KMKG MKG20030716051009207/16/03 05:10:31  5-MIN KMKG 161010Z 34005KT 10SM CLR 15/12 A3006 500 83 700 340/05 RMK AO2
14840KMKG MKG20030716051509207/16/03 05:15:31  5-MIN KMKG 161015Z 32003KT 10SM CLR 15/13 A3006 500 86 700 330/03 RMK AO2
14840KMKG MKG20030716052009207/16/03 05:20:31  5-MIN KMKG 161020Z 31003KT 10SM CLR 16/13 A3006 500 83 700 320/03 RMK AO2
14840KMKG MKG20030716052509207/16/03 05:25:31  5-MIN KMKG 161025Z 31003KT 10SM CLR 16/13 A3006 500 83 700 320/03 RMK AO2
14840KMKG MKG20030716053009207/16/03 05:30:31  5-MIN KMKG 161030Z 31003KT 10SM CLR 15/13 A3007 490 86 600 310/03 RMK AO2
14840KMKG MKG20030716053509207/16/03 05:35:31  5-MIN KMKG 161035Z 30003KT 10SM CLR 15/13 A3007 490 86 600 310/03 RMK AO2
14840KMKG MKG20030716054009207/16/03 05:40:31  5-MIN KMKG 161040Z 00000KT 10SM CLR 15/13 A3008 490 86 600 000/00 RMK AO2
14840KMKG MKG20030716054509207/16/03 05:45:31  5-MIN KMKG 161045Z 00000KT 10SM CLR 14/12 A3008 480 90 500 000/00 RMK AO2
14840KMKG MKG20030716055010907/16/03 05:50:31  5-MIN KMKG 161050Z 00000KT 10SM CLR 14/13 A3008 480 93 500 000/00 RMK AO2 SLP185 T01390128
14840KMKG MKG20030716055510907/16/03 05:55:31  5-MIN KMKG 161055Z 00000KT 10SM CLR 13/12 A3008 480 96 400 000/00 RMK AO2 SLP186 T01280122
14840KMKG MKG20030716060009207/16/03 06:00:31  5-MIN KMKG 161100Z 00000KT 10SM CLR 13/12 A3009 480 96 400 000/00 RMK AO2
14840KMKG MKG20030716060509207/16/03 06:05:31  5-MIN KMKG 161105Z 00000KT 10SM CLR 13/13 A3009 480 96 400 000/00 RMK AO2
14840KMKG MKG20030716061009207/16/03 06:10:31  5-MIN KMKG 161110Z 00000KT 10SM CLR 14/13 A3009 480 96 500 000/00 RMK AO2
14840KMKG MKG20030716061509207/16/03 06:15:31  5-MIN KMKG 161115Z 00000KT 10SM CLR 14/13 A3009 470 93 600 000/00 RMK AO2
14840KMKG MKG20030716062009207/16/03 06:20:31  5-MIN KMKG 161120Z 00000KT 10SM CLR 15/14 A3009 470 93 600 000/00 RMK AO2
14840KMKG MKG20030716062509207/16/03 06:25:31  5-MIN KMKG 161125Z 00000KT 10SM CLR 16/14 A3009 470 90 700 000/00 RMK AO2
14840KMKG MKG20030716063009207/16/03 06:30:31  5-MIN KMKG 161130Z 00000KT 10SM CLR 16/14 A3010 470 90 700 000/00 RMK AO2
14840KMKG MKG20030716063509207/16/03 06:35:31  5-MIN KMKG 161135Z 00000KT 10SM CLR 16/14 A3010 470 86 700 000/00 RMK AO2
14840KMKG MKG20030716064009207/16/03 06:40:31  5-MIN KMKG 161140Z 00000KT 10SM CLR 17/14 A3010 470 86 800 000/00 RMK AO2
14840KMKG MKG20030716064509207/16/03 06:45:31  5-MIN KMKG 161145Z 00000KT 10SM CLR 17/14 A3010 460 86 800 000/00 RMK AO2
14840KMKG MKG20030716065012707/16/03 06:50:31  5-MIN KMKG 161150Z 33003KT 10SM CLR 17/14 A3010 460 83 900 330/03 RMK AO2 SLP192 T01720144 10172 20122 53017
14840KMKG MKG20030716065512707/16/03 06:55:31  5-MIN KMKG 161155Z 33003KT 10SM CLR 18/14 A3010 460 81 900 340/03 RMK AO2 SLP192 T01780144 10178 20122 53021
14840KMKG MKG20030716070009207/16/03 07:00:31  5-MIN KMKG 161200Z 31005KT 10SM CLR 18/14 A3011 460 78 900 320/05 RMK AO2
14840KMKG MKG20030716070509307/16/03 07:05:31  5-MIN KMKG 161205Z 32004KT 10SM CLR 18/14 A3011 460 75 1000 320/04 RMK AO2
14840KMKG MKG20030716071009307/16/03 07:10:31  5-MIN KMKG 161210Z 31004KT 10SM CLR 18/14 A3011 460 78 1000 310/04 RMK AO2
14840KMKG MKG20030716071509307/16/03 07:15:31  5-MIN KMKG 161215Z 29004KT 10SM CLR 18/14 A3011 450 78 1000 300/04 RMK AO2
14840KMKG MKG20030716072009307/16/03 07:20:31  5-MIN KMKG 161220Z 30005KT 10SM CLR 19/14 A3011 450 75 1100 300/05 RMK AO2
14840KMKG MKG20030716072509307/16/03 07:25:31  5-MIN KMKG 161225Z 28004KT 10SM CLR 18/14 A3012 450 78 1000 290/04 RMK AO2
14840KMKG MKG20030716073009307/16/03 07:30:31  5-MIN KMKG 161230Z VRB04KT 10SM CLR 19/15 A3012 450 78 1000 VRB/04 RMK AO2
14840KMKG MKG20030716073509307/16/03 07:35:31  5-MIN KMKG 161235Z 32005KT 10SM CLR 19/15 A3012 450 75 1100 320/05 RMK AO2
14840KMKG MKG20030716074009307/16/03 07:40:31  5-MIN KMKG 161240Z 31005KT 10SM CLR 19/14 A3012 450 72 1100 310/05 RMK AO2
14840KMKG MKG20030716074509307/16/03 07:45:31  5-MIN KMKG 161245Z VRB05KT 10SM CLR 19/14 A3012 450 72 1100 VRB/05 RMK AO2
14840KMKG MKG20030716075011007/16/03 07:50:31  5-MIN KMKG 161250Z VRB04KT 10SM CLR 19/14 A3012 450 72 1100 VRB/04 RMK AO2 SLP196 T01940144
14840KMKG MKG20030716075511007/16/03 07:55:31  5-MIN KMKG 161255Z 31005KT 10SM CLR 19/14 A3012 450 72 1100 310/05 RMK AO2 SLP196 T01940144
14840KMKG MKG20030716080009307/16/03 08:00:31  5-MIN KMKG 161300Z 31004KT 10SM CLR 19/14 A3012 450 70 1100 310/04 RMK AO2
14840KMKG MKG20030716080509307/16/03 08:05:31  5-MIN KMKG 161305Z 31006KT 10SM CLR 20/14 A3012 450 67 1200 310/06 RMK AO2
14840KMKG MKG20030716081009307/16/03 08:10:31  5-MIN KMKG 161310Z 30004KT 10SM CLR 20/14 A3011 450 67 1200 310/04 RMK AO2
14840KMKG MKG20030716081509307/16/03 08:15:31  5-MIN KMKG 161315Z 34004KT 10SM CLR 20/14 A3011 450 67 1200 340/04 RMK AO2
14840KMKG MKG20030716082009307/16/03 08:20:31  5-MIN KMKG 161320Z 33005KT 10SM CLR 21/13 A3011 450 63 1200 330/05 RMK AO2
14840KMKG MKG20030716082509307/16/03 08:25:31  5-MIN KMKG 161325Z VRB06KT 10SM CLR 21/14 A3012 450 65 1200 VRB/06 RMK AO2
14840KMKG MKG20030716083009307/16/03 08:30:31  5-MIN KMKG 161330Z VRB03KT 10SM CLR 20/14 A3012 450 70 1200 VRB/03 RMK AO2
14840KMKG MKG20030716083509307/16/03 08:35:31  5-MIN KMKG 161335Z 33006KT 10SM CLR 21/13 A3012 450 63 1200 340/06 RMK AO2
14840KMKG MKG20030716084009307/16/03 08:40:31  5-MIN KMKG 161340Z 33005KT 10SM CLR 21/13 A3012 450 63 1200 330/05 RMK AO2
14840KMKG MKG20030716084509307/16/03 08:45:31  5-MIN KMKG 161345Z 32005KT 10SM CLR 21/14 A3012 450 65 1300 320/05 RMK AO2
14840KMKG MKG20030716085011007/16/03 08:50:31  5-MIN KMKG 161350Z 35004KT 10SM CLR 21/14 A3012 450 65 1300 350/04 RMK AO2 SLP196 T02110144
14840KMKG MKG20030716085511007/16/03 08:55:31  5-MIN KMKG 161355Z 30005KT 10SM CLR 21/14 A3012 440 63 1300 310/05 RMK AO2 SLP197 T02110139
14840KMKG MKG20030716090009307/16/03 09:00:31  5-MIN KMKG 161400Z 34004KT 10SM CLR 21/14 A3012 450 63 1300 350/04 RMK AO2
14840KMKG MKG20030716090509307/16/03 09:05:31  5-MIN KMKG 161405Z 31005KT 10SM CLR 21/14 A3012 450 63 1300 310/05 RMK AO2
14840KMKG MKG20030716091009307/16/03 09:10:31  5-MIN KMKG 161410Z VRB03KT 10SM CLR 21/13 A3011 450 61 1300 VRB/03 RMK AO2
14840KMKG MKG20030716091509307/16/03 09:15:31  5-MIN KMKG 161415Z VRB03KT 10SM CLR 21/14 A3011 450 63 1300 VRB/03 RMK AO2
14840KMKG MKG20030716092009307/16/03 09:20:31  5-MIN KMKG 161420Z 30004KT 10SM CLR 22/14 A3011 460 61 1400 300/04 RMK AO2
14840KMKG MKG20030716092509307/16/03 09:25:31  5-MIN KMKG 161425Z 26003KT 10SM CLR 21/14 A3011 460 63 1300 260/03 RMK AO2
14840KMKG MKG20030716093009307/16/03 09:30:31  5-MIN KMKG 161430Z 28007KT 10SM CLR 22/14 A3011 450 61 1400 280/07 RMK AO2
14840KMKG MKG20030716093509307/16/03 09:35:31  5-MIN KMKG 161435Z VRB04KT 10SM CLR 22/13 A3011 460 58 1400 VRB/04 RMK AO2
14840KMKG MKG20030716094009307/16/03 09:40:31  5-MIN KMKG 161440Z VRB05KT 10SM CLR 22/13 A3011 450 56 1400 VRB/05 RMK AO2
14840KMKG MKG20030716094509307/16/03 09:45:31  5-MIN KMKG 161445Z 28006KT 10SM CLR 22/13 A3011 460 56 1400 280/06 RMK AO2
14840KMKG MKG20030716095011607/16/03 09:50:31  5-MIN KMKG 161450Z VRB06KT 10SM CLR 22/13 A3011 460 56 1400 VRB/06 RMK AO2 SLP194 T02170128 53021
14840KMKG MKG20030716095511607/16/03 09:55:31  5-MIN KMKG 161455Z 27006KT 10SM CLR 22/13 A3011 460 54 1400 270/06 RMK AO2 SLP194 T02220128 50002
14840KMKG MKG20030716100009307/16/03 10:00:31  5-MIN KMKG 161500Z 26006KT 10SM CLR 22/12 A3011 450 52 1400 270/06 RMK AO2
14840KMKG MKG20030716100509307/16/03 10:05:31  5-MIN KMKG 161505Z 27008KT 10SM CLR 22/13 A3012 450 54 1400 270/08 RMK AO2
14840KMKG MKG20030716101009307/16/03 10:10:31  5-MIN KMKG 161510Z 27008KT 10SM CLR 22/12 A3012 450 52 1400 270/08 RMK AO2
14840KMKG MKG20030716101509307/16/03 10:15:31  5-MIN KMKG 161515Z 26008KT 10SM CLR 22/12 A3012 440 54 1400 270/08 RMK AO2
14840KMKG MKG20030716102009307/16/03 10:20:31  5-MIN KMKG 161520Z 26009KT 10SM CLR 22/12 A3013 440 52 1400 260/09 RMK AO2
14840KMKG MKG20030716102509307/16/03 10:25:31  5-MIN KMKG 161525Z 28008KT 10SM CLR 22/12 A3013 440 52 1400 290/08 RMK AO2
14840KMKG MKG20030716103009307/16/03 10:30:31  5-MIN KMKG 161530Z 30008KT 10SM CLR 22/12 A3013 440 52 1400 300/08 RMK AO2
14840KMKG MKG20030716103509307/16/03 10:35:31  5-MIN KMKG 161535Z 30009KT 10SM CLR 22/12 A3013 440 52 1400 310/09 RMK AO2
14840KMKG MKG20030716104009307/16/03 10:40:31  5-MIN KMKG 161540Z 28007KT 10SM CLR 22/12 A3013 440 52 1400 290/07 RMK AO2
14840KMKG MKG20030716104509307/16/03 10:45:31  5-MIN KMKG 161545Z 29006KT 10SM CLR 22/12 A3013 440 54 1400 300/06 RMK AO2
14840KMKG MKG20030716105011007/16/03 10:50:31  5-MIN KMKG 161550Z 29007KT 10SM CLR 22/12 A3013 440 52 1400 290/07 RMK AO2 SLP201 T02220122
14840KMKG MKG20030716105511007/16/03 10:55:31  5-MIN KMKG 161555Z 29007KT 10SM CLR 22/12 A3013 440 52 1400 290/07 RMK AO2 SLP201 T02220122
14840KMKG MKG20030716110009307/16/03 11:00:31  5-MIN KMKG 161600Z 27007KT 10SM CLR 23/13 A3013 430 53 1500 270/07 RMK AO2
14840KMKG MKG20030716110509307/16/03 11:05:31  5-MIN KMKG 161605Z 30007KT 10SM CLR 22/13 A3014 430 54 1400 300/07 RMK AO2
14840KMKG MKG20030716111009307/16/03 11:10:31  5-MIN KMKG 161610Z 24008KT 10SM CLR 23/13 A3014 430 53 1500 250/08 RMK AO2
14840KMKG MKG20030716111509307/16/03 11:15:31  5-MIN KMKG 161615Z 24008KT 10SM CLR 23/13 A3014 430 53 1500 250/08 RMK AO2
14840KMKG MKG20030716112009307/16/03 11:20:31  5-MIN KMKG 161620Z 26009KT 10SM CLR 23/13 A3014 430 53 1500 270/09 RMK AO2
14840KMKG MKG20030716112509307/16/03 11:25:31  5-MIN KMKG 161625Z 27008KT 10SM CLR 22/13 A3014 430 54 1400 280/08 RMK AO2
14840KMKG MKG20030716113009307/16/03 11:30:31  5-MIN KMKG 161630Z 27009KT 10SM CLR 22/13 A3014 430 54 1400 280/09 RMK AO2
14840KMKG MKG20030716113509307/16/03 11:35:31  5-MIN KMKG 161635Z 25009KT 10SM CLR 23/13 A3014 430 55 1500 260/09 RMK AO2
14840KMKG MKG20030716114009607/16/03 11:40:31  5-MIN KMKG 161640Z 26008KT 10SM FEW035 23/13 A3014 430 55 1500 260/08 RMK AO2
14840KMKG MKG20030716114509607/16/03 11:45:31  5-MIN KMKG 161645Z 26009KT 10SM FEW035 23/13 A3014 430 55 1500 260/09 RMK AO2
14840KMKG MKG20030716115011307/16/03 11:50:31  5-MIN KMKG 161650Z 24008KT 10SM FEW035 23/13 A3014 430 55 1500 250/08 RMK AO2 SLP204 T02280133
14840KMKG MKG20030716115511307/16/03 11:55:31  5-MIN KMKG 161655Z 25009KT 10SM FEW035 23/13 A3014 430 55 1500 260/09 RMK AO2 SLP204 T02280133
14840KMKG MKG20030716120009607/16/03 12:00:31  5-MIN KMKG 161700Z 28008KT 10SM FEW035 23/13 A3014 430 55 1500 280/08 RMK AO2
14840KMKG MKG20030716120509607/16/03 12:05:31  5-MIN KMKG 161705Z 26008KT 10SM FEW035 22/13 A3014 430 56 1400 260/08 RMK AO2
14840KMKG MKG20030716121009607/16/03 12:10:31  5-MIN KMKG 161710Z 26007KT 10SM FEW035 23/13 A3014 430 55 1500 270/07 RMK AO2
14840KMKG MKG20030716121509607/16/03 12:15:31  5-MIN KMKG 161715Z 25009KT 10SM FEW035 23/13 A3014 430 55 1500 250/09 RMK AO2
14840KMKG MKG20030716122009607/16/03 12:20:31  5-MIN KMKG 161720Z 28007KT 10SM FEW035 23/13 A3014 430 55 1500 280/07 RMK AO2
14840KMKG MKG20030716122509607/16/03 12:25:31  5-MIN KMKG 161725Z 26008KT 10SM FEW035 23/13 A3014 430 55 1500 270/08 RMK AO2
14840KMKG MKG20030716123011207/16/03 12:30:31  5-MIN KMKG 161730Z 25008KT 220V280 10SM FEW035 23/13 A3014 430 55 1500 250/08 220V280 RMK AO2
14840KMKG MKG20030716123509607/16/03 12:35:31  5-MIN KMKG 161735Z 28008KT 10SM FEW035 23/14 A3014 430 55 1500 290/08 RMK AO2
14840KMKG MKG20030716124009607/16/03 12:40:31  5-MIN KMKG 161740Z 27008KT 10SM FEW035 23/14 A3014 430 55 1500 270/08 RMK AO2
14840KMKG MKG20030716124511207/16/03 12:45:31  5-MIN KMKG 161745Z 26008KT 210V290 10SM FEW035 23/13 A3013 430 55 1500 260/08 210V290 RMK AO2
14840KMKG MKG20030716125014707/16/03 12:50:31  5-MIN KMKG 161750Z 26007KT 230V300 10SM FEW035 23/13 A3014 430 53 1500 270/07 230V300 RMK AO2 SLP204 T02280128 10233 20178 50002
14840KMKG MKG20030716125513107/16/03 12:55:31  5-MIN KMKG 161755Z 27006KT 10SM FEW035 23/13 A3014 430 55 1500 280/06 RMK AO2 SLP205 T02280133 10233 20178 51010
14840KMKG MKG20030716130009607/16/03 13:00:31  5-MIN KMKG 161800Z 24008KT 10SM FEW035 23/13 A3014 430 53 1500 250/08 RMK AO2
14840KMKG MKG20030716130509607/16/03 13:05:31  5-MIN KMKG 161805Z 26007KT 10SM FEW035 23/13 A3013 430 55 1500 270/07 RMK AO2
14840KMKG MKG20030716131009607/16/03 13:10:31  5-MIN KMKG 161810Z 24008KT 10SM FEW035 23/13 A3014 430 55 1500 240/08 RMK AO2
14840KMKG MKG20030716131509607/16/03 13:15:31  5-MIN KMKG 161815Z 24009KT 10SM FEW035 23/13 A3014 430 53 1500 240/09 RMK AO2
14840KMKG MKG20030716132009607/16/03 13:20:31  5-MIN KMKG 161820Z 27006KT 10SM FEW035 23/13 A3014 430 53 1500 270/06 RMK AO2
14840KMKG MKG20030716132509607/16/03 13:25:31  5-MIN KMKG 161825Z 27008KT 10SM FEW035 23/13 A3013 430 55 1500 270/08 RMK AO2
14840KMKG MKG20030716133009607/16/03 13:30:31  5-MIN KMKG 161830Z 24008KT 10SM FEW035 24/13 A3013 430 51 1600 250/08 RMK AO2
14840KMKG MKG20030716133509607/16/03 13:35:31  5-MIN KMKG 161835Z 27007KT 10SM FEW035 23/13 A3014 430 53 1500 270/07 RMK AO2
14840KMKG MKG20030716134009607/16/03 13:40:31  5-MIN KMKG 161840Z 25008KT 10SM FEW035 23/13 A3013 430 53 1500 250/08 RMK AO2
14840KMKG MKG20030716134511207/16/03 13:45:31  5-MIN KMKG 161845Z 27007KT 230V300 10SM FEW035 23/13 A3013 430 53 1500 270/07 230V300 RMK AO2
14840KMKG MKG20030716135011307/16/03 13:50:31  5-MIN KMKG 161850Z 26006KT 10SM FEW035 23/13 A3014 430 53 1500 260/06 RMK AO2 SLP205 T02330133
14840KMKG MKG20030716135511307/16/03 13:55:31  5-MIN KMKG 161855Z 25008KT 10SM FEW035 23/13 A3013 430 53 1500 250/08 RMK AO2 SLP203 T02330133
14840KMKG MKG20030716140009607/16/03 14:00:31  5-MIN KMKG 161900Z 25009KT 10SM FEW035 23/13 A3014 430 53 1500 260/09 RMK AO2
14840KMKG MKG20030716140509607/16/03 14:05:31  5-MIN KMKG 161905Z 27009KT 10SM FEW035 24/14 A3014 430 53 1600 270/09 RMK AO2
14840KMKG MKG20030716141009607/16/03 14:10:31  5-MIN KMKG 161910Z 24010KT 10SM FEW035 23/14 A3014 430 55 1500 250/10 RMK AO2
14840KMKG MKG20030716141509607/16/03 14:15:31  5-MIN KMKG 161915Z 25009KT 10SM FEW035 23/14 A3014 430 55 1500 260/09 RMK AO2
14840KMKG MKG20030716142009607/16/03 14:20:31  5-MIN KMKG 161920Z 26010KT 10SM FEW035 23/14 A3014 430 55 1500 270/10 RMK AO2
14840KMKG MKG20030716142509607/16/03 14:25:31  5-MIN KMKG 161925Z 26009KT 10SM FEW035 23/14 A3014 430 55 1500 260/09 RMK AO2
14840KMKG MKG20030716143011207/16/03 14:30:31  5-MIN KMKG 161930Z 26008KT 230V290 10SM FEW035 23/14 A3014 430 57 1500 270/08 230V290 RMK AO2
14840KMKG MKG20030716143509607/16/03 14:35:31  5-MIN KMKG 161935Z 25008KT 10SM FEW035 23/14 A3013 430 55 1500 260/08 RMK AO2
14840KMKG MKG20030716144009607/16/03 14:40:31  5-MIN KMKG 161940Z 27007KT 10SM FEW035 23/14 A3013 430 57 1500 270/07 RMK AO2
14840KMKG MKG20030716144509607/16/03 14:45:31  5-MIN KMKG 161945Z 23008KT 10SM FEW035 24/14 A3013 430 55 1600 240/08 RMK AO2
14840KMKG MKG20030716145011307/16/03 14:50:31  5-MIN KMKG 161950Z 26009KT 10SM FEW035 23/14 A3013 440 55 1500 260/09 RMK AO2 SLP201 T02330139
14840KMKG MKG20030716145511307/16/03 14:55:31  5-MIN KMKG 161955Z 27006KT 10SM FEW035 23/13 A3013 440 53 1500 280/06 RMK AO2 SLP201 T02330133
14840KMKG MKG20030716150009607/16/03 15:00:31  5-MIN KMKG 162000Z 27007KT 10SM FEW035 23/14 A3013 440 55 1500 270/07 RMK AO2
14840KMKG MKG20030716150509607/16/03 15:05:31  5-MIN KMKG 162005Z VRB06KT 10SM FEW035 24/14 A3012 440 51 1700 VRB/06 RMK AO2
14840KMKG MKG20030716151009607/16/03 15:10:31  5-MIN KMKG 162010Z 25007KT 10SM FEW035 24/14 A3012 450 55 1600 260/07 RMK AO2
14840KMKG MKG20030716151509607/16/03 15:15:31  5-MIN KMKG 162015Z 25008KT 10SM FEW035 23/13 A3012 450 53 1600 250/08 RMK AO2
14840KMKG MKG20030716152009607/16/03 15:20:31  5-MIN KMKG 162020Z 26009KT 10SM FEW035 24/14 A3012 450 51 1700 270/09 RMK AO2
14840KMKG MKG20030716152509607/16/03 15:25:31  5-MIN KMKG 162025Z 26009KT 10SM FEW035 24/13 A3012 450 51 1600 270/09 RMK AO2
14840KMKG MKG20030716153009607/16/03 15:30:31  5-MIN KMKG 162030Z 26009KT 10SM FEW035 24/13 A3012 450 49 1700 260/09 RMK AO2
14840KMKG MKG20030716153509607/16/03 15:35:31  5-MIN KMKG 162035Z 25009KT 10SM FEW035 24/13 A3012 450 51 1600 250/09 RMK AO2
14840KMKG MKG20030716154009607/16/03 15:40:31  5-MIN KMKG 162040Z 24008KT 10SM FEW035 24/13 A3012 450 49 1700 250/08 RMK AO2
14840KMKG MKG20030716154509607/16/03 15:45:31  5-MIN KMKG 162045Z 23009KT 10SM FEW035 24/13 A3011 450 51 1600 240/09 RMK AO2
14840KMKG MKG20030716155011907/16/03 15:50:31  5-MIN KMKG 162050Z 25008KT 10SM FEW035 24/13 A3012 450 49 1700 250/08 RMK AO2 SLP197 T02440133 51010
14840KMKG MKG20030716155511907/16/03 15:55:31  5-MIN KMKG 162055Z 25010KT 10SM FEW035 24/13 A3012 450 51 1600 260/10 RMK AO2 SLP196 T02390133 58008
14840KMKG MKG20030716160009307/16/03 16:00:31  5-MIN KMKG 162100Z 25009KT 10SM CLR 24/13 A3011 450 49 1700 250/09 RMK AO2
14840KMKG MKG20030716160509307/16/03 16:05:31  5-MIN KMKG 162105Z 22010KT 10SM CLR 24/14 A3011 450 51 1700 230/10 RMK AO2
14840KMKG MKG20030716161009307/16/03 16:10:31  5-MIN KMKG 162110Z 24010KT 10SM CLR 24/14 A3012 450 51 1700 240/10 RMK AO2
14840KMKG MKG20030716161509307/16/03 16:15:31  5-MIN KMKG 162115Z 23010KT 10SM CLR 24/14 A3012 450 51 1700 230/10 RMK AO2
14840KMKG MKG20030716162009307/16/03 16:20:31  5-MIN KMKG 162120Z 22009KT 10SM CLR 24/14 A3012 450 55 1600 230/09 RMK AO2
14840KMKG MKG20030716162509307/16/03 16:25:31  5-MIN KMKG 162125Z 23009KT 10SM CLR 24/14 A3012 450 55 1600 230/09 RMK AO2
14840KMKG MKG20030716163009307/16/03 16:30:31  5-MIN KMKG 162130Z 23009KT 10SM CLR 24/14 A3012 450 53 1700 230/09 RMK AO2
14840KMKG MKG20030716163509307/16/03 16:35:31  5-MIN KMKG 162135Z 25008KT 10SM CLR 24/15 A3012 450 55 1700 250/08 RMK AO2
14840KMKG MKG20030716164009307/16/03 16:40:31  5-MIN KMKG 162140Z 23009KT 10SM CLR 24/15 A3012 450 57 1600 240/09 RMK AO2
14840KMKG MKG20030716164509307/16/03 16:45:31  5-MIN KMKG 162145Z 25009KT 10SM CLR 24/15 A3012 450 57 1600 260/09 RMK AO2
14840KMKG MKG20030716165011007/16/03 16:50:31  5-MIN KMKG 162150Z 23008KT 10SM CLR 24/15 A3012 450 55 1700 230/08 RMK AO2 SLP197 T02440150
14840KMKG MKG20030716165511007/16/03 16:55:31  5-MIN KMKG 162155Z 25009KT 10SM CLR 24/15 A3012 450 57 1600 250/09 RMK AO2 SLP197 T02390150
14840KMKG MKG20030716170009307/16/03 17:00:31  5-MIN KMKG 162200Z 23008KT 10SM CLR 24/14 A3012 450 55 1600 240/08 RMK AO2
14840KMKG MKG20030716170509307/16/03 17:05:31  5-MIN KMKG 162205Z 23009KT 10SM CLR 24/15 A3012 440 55 1700 240/09 RMK AO2
14840KMKG MKG20030716171009307/16/03 17:10:31  5-MIN KMKG 162210Z 23009KT 10SM CLR 24/15 A3012 440 57 1600 240/09 RMK AO2
14840KMKG MKG20030716171509307/16/03 17:15:31  5-MIN KMKG 162215Z 22010KT 10SM CLR 23/15 A3012 440 59 1600 230/10 RMK AO2
14840KMKG MKG20030716172009307/16/03 17:20:31  5-MIN KMKG 162220Z 23011KT 10SM CLR 23/14 A3012 440 59 1500 240/11 RMK AO2
14840KMKG MKG20030716172509307/16/03 17:25:31  5-MIN KMKG 162225Z 24009KT 10SM CLR 23/15 A3012 440 61 1500 240/09 RMK AO2
14840KMKG MKG20030716173009307/16/03 17:30:31  5-MIN KMKG 162230Z 23011KT 10SM CLR 23/15 A3012 440 61 1500 230/11 RMK AO2
14840KMKG MKG20030716173509307/16/03 17:35:31  5-MIN KMKG 162235Z 23011KT 10SM CLR 23/15 A3012 440 61 1500 230/11 RMK AO2
14840KMKG MKG20030716174009307/16/03 17:40:31  5-MIN KMKG 162240Z 23010KT 10SM CLR 23/15 A3012 440 61 1500 240/10 RMK AO2
14840KMKG MKG20030716174509307/16/03 17:45:31  5-MIN KMKG 162245Z 22010KT 10SM CLR 23/15 A3013 440 61 1500 230/10 RMK AO2
14840KMKG MKG20030716175011007/16/03 17:50:31  5-MIN KMKG 162250Z 22009KT 10SM CLR 23/15 A3013 440 61 1500 220/09 RMK AO2 SLP200 T02280150
14840KMKG MKG20030716175511007/16/03 17:55:31  5-MIN KMKG 162255Z 23009KT 10SM CLR 23/16 A3012 440 63 1500 230/09 RMK AO2 SLP200 T02280156
14840KMKG MKG20030716180009307/16/03 18:00:31  5-MIN KMKG 162300Z 23009KT 10SM CLR 23/16 A3013 440 61 1500 240/09 RMK AO2
14840KMKG MKG20030716180509307/16/03 18:05:31  5-MIN KMKG 162305Z 23009KT 10SM CLR 23/16 A3013 440 61 1500 230/09 RMK AO2
14840KMKG MKG20030716181009307/16/03 18:10:31  5-MIN KMKG 162310Z 23009KT 10SM CLR 23/15 A3013 440 59 1500 230/09 RMK AO2
14840KMKG MKG20030716181509307/16/03 18:15:31  5-MIN KMKG 162315Z 23010KT 10SM CLR 23/16 A3013 440 61 1500 230/10 RMK AO2
14840KMKG MKG20030716182009307/16/03 18:20:31  5-MIN KMKG 162320Z 23008KT 10SM CLR 23/16 A3013 440 63 1500 230/08 RMK AO2
14840KMKG MKG20030716182509307/16/03 18:25:31  5-MIN KMKG 162325Z 22010KT 10SM CLR 23/16 A3013 440 63 1500 230/10 RMK AO2
14840KMKG MKG20030716183009307/16/03 18:30:31  5-MIN KMKG 162330Z 23008KT 10SM CLR 23/16 A3013 440 63 1500 240/08 RMK AO2
14840KMKG MKG20030716183509307/16/03 18:35:31  5-MIN KMKG 162335Z 24009KT 10SM CLR 23/16 A3013 440 63 1500 250/09 RMK AO2
14840KMKG MKG20030716184009307/16/03 18:40:31  5-MIN KMKG 162340Z 23007KT 10SM CLR 23/16 A3013 440 63 1500 240/07 RMK AO2
14840KMKG MKG20030716184509307/16/03 18:45:31  5-MIN KMKG 162345Z 24009KT 10SM CLR 23/16 A3013 440 63 1500 240/09 RMK AO2
14840KMKG MKG20030716185012807/16/03 18:50:31  5-MIN KMKG 162350Z 24008KT 10SM CLR 23/16 A3013 440 63 1500 250/08 RMK AO2 SLP199 T02280156 10244 20222 58008
14840KMKG MKG20030716185512807/16/03 18:55:31  5-MIN KMKG 162355Z 22008KT 10SM CLR 22/16 A3012 440 65 1400 220/08 RMK AO2 SLP199 T02220156 10244 20222 51003
14840KMKG MKG20030716190009307/16/03 19:00:31  5-MIN KMKG 170000Z 21008KT 10SM CLR 22/16 A3012 440 65 1400 220/08 RMK AO2
14840KMKG MKG20030716190509307/16/03 19:05:31  5-MIN KMKG 170005Z 23006KT 10SM CLR 22/16 A3013 440 65 1400 230/06 RMK AO2
14840KMKG MKG20030716191009307/16/03 19:10:31  5-MIN KMKG 170010Z 23006KT 10SM CLR 22/16 A3013 440 65 1400 230/06 RMK AO2
14840KMKG MKG20030716191509307/16/03 19:15:31  5-MIN KMKG 170015Z 22007KT 10SM CLR 22/16 A3012 440 65 1400 230/07 RMK AO2
14840KMKG MKG20030716192009307/16/03 19:20:31  5-MIN KMKG 170020Z 23007KT 10SM CLR 22/16 A3012 440 65 1400 230/07 RMK AO2
14840KMKG MKG20030716192509307/16/03 19:25:31  5-MIN KMKG 170025Z 23007KT 10SM CLR 22/15 A3013 440 65 1400 230/07 RMK AO2
14840KMKG MKG20030716193009307/16/03 19:30:31  5-MIN KMKG 170030Z 22007KT 10SM CLR 22/16 A3013 440 68 1400 230/07 RMK AO2
14840KMKG MKG20030716193509307/16/03 19:35:31  5-MIN KMKG 170035Z 22006KT 10SM CLR 22/15 A3012 440 65 1400 220/06 RMK AO2
14840KMKG MKG20030716194009307/16/03 19:40:31  5-MIN KMKG 170040Z 21005KT 10SM CLR 22/15 A3012 440 65 1400 210/05 RMK AO2
14840KMKG MKG20030716194509307/16/03 19:45:31  5-MIN KMKG 170045Z 20005KT 10SM CLR 22/15 A3012 440 65 1400 210/05 RMK AO2
14840KMKG MKG20030716195011007/16/03 19:50:31  5-MIN KMKG 170050Z 21005KT 10SM CLR 21/15 A3012 440 68 1300 210/05 RMK AO2 SLP199 T02110150
14840KMKG MKG20030716195511007/16/03 19:55:31  5-MIN KMKG 170055Z 21005KT 10SM CLR 21/16 A3013 440 70 1300 210/05 RMK AO2 SLP199 T02110156
14840KMKG MKG20030716200009307/16/03 20:00:31  5-MIN KMKG 170100Z 21005KT 10SM CLR 21/16 A3013 440 70 1300 210/05 RMK AO2
14840KMKG MKG20030716200509307/16/03 20:05:31  5-MIN KMKG 170105Z 22004KT 10SM CLR 21/16 A3013 440 73 1200 220/04 RMK AO2
14840KMKG MKG20030716201009307/16/03 20:10:31  5-MIN KMKG 170110Z 22004KT 10SM CLR 20/16 A3013 440 75 1200 230/04 RMK AO2
14840KMKG MKG20030716201509307/16/03 20:15:31  5-MIN KMKG 170115Z 23003KT 10SM CLR 20/16 A3014 430 75 1200 230/03 RMK AO2
14840KMKG MKG20030716202009307/16/03 20:20:31  5-MIN KMKG 170120Z 23003KT 10SM CLR 21/16 A3014 430 73 1200 240/03 RMK AO2
14840KMKG MKG20030716202509307/16/03 20:25:31  5-MIN KMKG 170125Z 00000KT 10SM CLR 20/16 A3014 430 75 1200 000/00 RMK AO2
14840KMKG MKG20030716203009307/16/03 20:30:31  5-MIN KMKG 170130Z 23003KT 10SM CLR 20/16 A3014 430 75 1100 240/03 RMK AO2
14840KMKG MKG20030716203509307/16/03 20:35:31  5-MIN KMKG 170135Z 24003KT 10SM CLR 20/16 A3014 420 75 1100 240/03 RMK AO2
14840KMKG MKG20030716204009307/16/03 20:40:31  5-MIN KMKG 170140Z 00000KT 10SM CLR 20/16 A3014 430 75 1100 000/00 RMK AO2
14840KMKG MKG20030716204509307/16/03 20:45:31  5-MIN KMKG 170145Z 00000KT 10SM CLR 19/16 A3014 430 78 1100 000/00 RMK AO2
14840KMKG MKG20030716205011007/16/03 20:50:31  5-MIN KMKG 170150Z 20003KT 10SM CLR 20/16 A3014 430 75 1100 210/03 RMK AO2 SLP205 T02000156
14840KMKG MKG20030716205511007/16/03 20:55:31  5-MIN KMKG 170155Z 19004KT 10SM CLR 19/16 A3014 430 78 1100 190/04 RMK AO2 SLP205 T01940156
14840KMKG MKG20030716210009307/16/03 21:00:31  5-MIN KMKG 170200Z 19004KT 10SM CLR 19/16 A3014 430 78 1100 200/04 RMK AO2
14840KMKG MKG20030716210509307/16/03 21:05:31  5-MIN KMKG 170205Z 20004KT 10SM CLR 19/16 A3014 430 81 1000 200/04 RMK AO2
14840KMKG MKG20030716211009307/16/03 21:10:31  5-MIN KMKG 170210Z 22003KT 10SM CLR 19/16 A3015 420 81 1000 220/03 RMK AO2
14840KMKG MKG20030716211509207/16/03 21:15:31  5-MIN KMKG 170215Z 22003KT 10SM CLR 18/16 A3015 420 84 900 230/03 RMK AO2
14840KMKG MKG20030716212009307/16/03 21:20:31  5-MIN KMKG 170220Z 23003KT 10SM CLR 19/16 A3015 420 81 1000 240/03 RMK AO2
14840KMKG MKG20030716212509307/16/03 21:25:31  5-MIN KMKG 170225Z 23003KT 10SM CLR 19/16 A3015 410 81 1000 240/03 RMK AO2
14840KMKG MKG20030716213009307/16/03 21:30:31  5-MIN KMKG 170230Z 22003KT 10SM CLR 19/16 A3015 420 81 1000 220/03 RMK AO2
14840KMKG MKG20030716213509207/16/03 21:35:31  5-MIN KMKG 170235Z 21003KT 10SM CLR 18/16 A3016 410 84 900 220/03 RMK AO2
14840KMKG MKG20030716214009307/16/03 21:40:31  5-MIN KMKG 170240Z 23003KT 10SM CLR 19/16 A3016 410 84 1000 230/03 RMK AO2
14840KMKG MKG20030716214509307/16/03 21:45:31  5-MIN KMKG 170245Z 22003KT 10SM CLR 19/16 A3016 410 84 1000 230/03 RMK AO2
14840KMKG MKG20030716215011607/16/03 21:50:31  5-MIN KMKG 170250Z 20003KT 10SM CLR 19/16 A3016 410 81 1000 210/03 RMK AO2 SLP210 T01890156 51003
14840KMKG MKG20030716215511507/16/03 21:55:31  5-MIN KMKG 170255Z 19004KT 10SM CLR 18/16 A3015 410 84 900 190/04 RMK AO2 SLP209 T01830156 53010
14840KMKG MKG20030716220009307/16/03 22:00:31  5-MIN KMKG 170300Z 20005KT 10SM CLR 19/16 A3015 420 81 1000 200/05 RMK AO2
14840KMKG MKG20030716220509207/16/03 22:05:31  5-MIN KMKG 170305Z 20004KT 10SM CLR 18/16 A3015 420 84 900 200/04 RMK AO2
14840KMKG MKG20030716221009207/16/03 22:10:31  5-MIN KMKG 170310Z 20004KT 10SM CLR 18/16 A3015 420 84 900 200/04 RMK AO2
14840KMKG MKG20030716221509207/16/03 22:15:31  5-MIN KMKG 170315Z 20004KT 10SM CLR 18/16 A3015 420 84 900 200/04 RMK AO2
14840KMKG MKG20030716222009307/16/03 22:20:31  5-MIN KMKG 170320Z 19004KT 10SM CLR 19/16 A3015 420 81 1000 200/04 RMK AO2
14840KMKG MKG20030716222509307/16/03 22:25:31  5-MIN KMKG 170325Z 00000KT 10SM CLR 19/16 A3015 420 81 1000 000/00 RMK AO2
14840KMKG MKG20030716223009307/16/03 22:30:31  5-MIN KMKG 170330Z 00000KT 10SM CLR 19/16 A3015 420 81 1000 000/00 RMK AO2
14840KMKG MKG20030716223509207/16/03 22:35:31  5-MIN KMKG 170335Z 00000KT 10SM CLR 18/15 A3015 420 81 900 000/00 RMK AO2
14840KMKG MKG20030716224009207/16/03 22:40:31  5-MIN KMKG 170340Z 00000KT 10SM CLR 18/16 A3015 420 84 900 000/00 RMK AO2
14840KMKG MKG20030716224509307/16/03 22:45:31  5-MIN KMKG 170345Z 18003KT 10SM CLR 18/16 A3014 430 84 1000 190/03 RMK AO2
14840KMKG MKG20030716225011007/16/03 22:50:31  5-MIN KMKG 170350Z 19004KT 10SM CLR 18/16 A3014 430 84 1000 190/04 RMK AO2 SLP204 T01830156
14840KMKG MKG20030716225511007/16/03 22:55:31  5-MIN KMKG 170355Z 18005KT 10SM CLR 18/15 A3014 430 81 1000 190/05 RMK AO2 SLP202 T01830150
14840KMKG MKG20030716230009307/16/03 23:00:31  5-MIN KMKG 170400Z 18006KT 10SM CLR 18/15 A3013 440 81 1000 190/06 RMK AO2
14840KMKG MKG20030716230509307/16/03 23:05:31  5-MIN KMKG 170405Z 20006KT 10SM CLR 19/15 A3013 430 78 1000 200/06 RMK AO2
14840KMKG MKG20030716231009307/16/03 23:10:31  5-MIN KMKG 170410Z 21004KT 10SM CLR 18/15 A3014 430 81 1000 220/04 RMK AO2
14840KMKG MKG20030716231509307/16/03 23:15:31  5-MIN KMKG 170415Z 22004KT 10SM CLR 18/15 A3014 430 81 1000 220/04 RMK AO2
14840KMKG MKG20030716232009307/16/03 23:20:31  5-MIN KMKG 170420Z 23003KT 10SM CLR 18/15 A3015 420 81 1000 240/03 RMK AO2
14840KMKG MKG20030716232509307/16/03 23:25:31  5-MIN KMKG 170425Z 23003KT 10SM CLR 19/15 A3015 420 78 1000 230/03 RMK AO2
14840KMKG MKG20030716233009307/16/03 23:30:31  5-MIN KMKG 170430Z 00000KT 10SM CLR 19/15 A3015 420 75 1100 000/00 RMK AO2
14840KMKG MKG20030716233509307/16/03 23:35:31  5-MIN KMKG 170435Z 00000KT 10SM CLR 19/15 A3016 410 75 1100 000/00 RMK AO2
14840KMKG MKG20030716234009307/16/03 23:40:31  5-MIN KMKG 170440Z 00000KT 10SM CLR 19/15 A3015 410 75 1100 000/00 RMK AO2
14840KMKG MKG20030716234509307/16/03 23:45:31  5-MIN KMKG 170445Z 22004KT 10SM CLR 19/15 A3015 420 75 1100 230/04 RMK AO2
14840KMKG MKG20030716235012007/16/03 23:50:31  5-MIN KMKG 170450Z 24006KT 10SM CLR 19/15 A3015 420 75 1100 240/06 RMK AO2 SLP209 T01940150 402440122
14840KMKG MKG20030716235512007/16/03 23:55:31  5-MIN KMKG 170455Z 25005KT 10SM CLR 20/15 A3015 420 72 1100 250/05 RMK AO2 SLP208 T02000150 402440122
14840KMKG MKG20030717000009607/17/03 00:00:31  5-MIN KMKG 170500Z 23006KT 10SM FEW120 21/15 A3015 420 70 1200 240/06 RMK AO2
14840KMKG MKG20030717000509607/17/03 00:05:31  5-MIN KMKG 170505Z 24006KT 10SM FEW120 21/14 A3015 420 65 1300 240/06 RMK AO2
14840KMKG MKG20030717001009607/17/03 00:10:31  5-MIN KMKG 170510Z 24005KT 10SM FEW120 21/15 A3015 420 70 1200 250/05 RMK AO2
14840KMKG MKG20030717001509607/17/03 00:15:31  5-MIN KMKG 170515Z 24004KT 10SM FEW120 21/15 A3015 420 70 1200 250/04 RMK AO2
14840KMKG MKG20030717002009607/17/03 00:20:31  5-MIN KMKG 170520Z 23006KT 10SM FEW120 21/15 A3015 420 70 1200 230/06 RMK AO2
14840KMKG MKG20030717002509607/17/03 00:25:31  5-MIN KMKG 170525Z 23007KT 10SM FEW120 21/15 A3015 420 70 1200 230/07 RMK AO2
14840KMKG MKG20030717003009307/17/03 00:30:31  5-MIN KMKG 170530Z 23006KT 10SM CLR 20/15 A3015 420 72 1100 240/06 RMK AO2
14840KMKG MKG20030717003509307/17/03 00:35:31  5-MIN KMKG 170535Z 25007KT 10SM CLR 20/15 A3015 420 72 1100 250/07 RMK AO2
14840KMKG MKG20030717004009307/17/03 00:40:31  5-MIN KMKG 170540Z 24006KT 10SM CLR 21/15 A3015 420 70 1200 250/06 RMK AO2
14840KMKG MKG20030717004509307/17/03 00:45:31  5-MIN KMKG 170545Z 24006KT 10SM CLR 21/15 A3015 420 70 1200 240/06 RMK AO2
14840KMKG MKG20030717005012807/17/03 00:50:31  5-MIN KMKG 170550Z 23006KT 10SM CLR 21/15 A3014 420 70 1200 230/06 RMK AO2 SLP205 T02060150 10222 20183 53010
14840KMKG MKG20030717005512807/17/03 00:55:31  5-MIN KMKG 170555Z 23006KT 10SM CLR 21/15 A3014 420 70 1200 240/06 RMK AO2 SLP204 T02060150 10222 20183 56004
14840KMKG MKG20030717010009607/17/03 01:00:31  5-MIN KMKG 170600Z 23007KT 10SM FEW110 21/15 A3014 430 70 1200 240/07 RMK AO2
14840KMKG MKG20030717010509607/17/03 01:05:31  5-MIN KMKG 170605Z 25006KT 10SM SCT095 21/15 A3015 420 70 1200 260/06 RMK AO2
14840KMKG MKG20030717011010307/17/03 01:10:31  5-MIN KMKG 170610Z 24006KT 10SM FEW090 SCT110 21/15 A3014 430 70 1200 240/06 RMK AO2
14840KMKG MKG20030717011509607/17/03 01:15:31  5-MIN KMKG 170615Z 25005KT 10SM FEW095 21/15 A3014 420 70 1200 250/05 RMK AO2
14840KMKG MKG20030717012009607/17/03 01:20:31  5-MIN KMKG 170620Z 24005KT 10SM FEW095 21/15 A3014 430 70 1200 240/05 RMK AO2
14840KMKG MKG20030717012509607/17/03 01:25:31  5-MIN KMKG 170625Z 23006KT 10SM FEW095 21/14 A3014 430 67 1200 240/06 RMK AO2
14840KMKG MKG20030717013009607/17/03 01:30:31  5-MIN KMKG 170630Z 24007KT 10SM FEW085 21/15 A3014 430 70 1200 240/07 RMK AO2
14840KMKG MKG20030717013509307/17/03 01:35:31  5-MIN KMKG 170635Z 24008KT 10SM CLR 21/15 A3014 430 70 1200 250/08 RMK AO2
14840KMKG MKG20030717014009307/17/03 01:40:31  5-MIN KMKG 170640Z 23007KT 10SM CLR 20/15 A3013 440 72 1200 240/07 RMK AO2
14840KMKG MKG20030717014509307/17/03 01:45:31  5-MIN KMKG 170645Z 24008KT 10SM CLR 20/15 A3013 440 72 1200 250/08 RMK AO2
14840KMKG MKG20030717015011007/17/03 01:50:31  5-MIN KMKG 170650Z 24007KT 10SM CLR 20/15 A3013 440 72 1200 240/07 RMK AO2 SLP200 T02000150
14840KMKG MKG20030717015511007/17/03 01:55:31  5-MIN KMKG 170655Z 24008KT 10SM CLR 21/15 A3013 440 70 1200 240/08 RMK AO2 SLP200 T02060150
14840KMKG MKG20030717020009307/17/03 02:00:31  5-MIN KMKG 170700Z 24008KT 10SM CLR 21/15 A3013 440 70 1200 240/08 RMK AO2
14840KMKG MKG20030717020509307/17/03 02:05:31  5-MIN KMKG 170705Z 24008KT 10SM CLR 20/15 A3013 440 72 1200 240/08 RMK AO2
14840KMKG MKG20030717021009307/17/03 02:10:31  5-MIN KMKG 170710Z 23008KT 10SM CLR 21/15 A3013 440 70 1200 230/08 RMK AO2
14840KMKG MKG20030717021509307/17/03 02:15:31  5-MIN KMKG 170715Z 23008KT 10SM CLR 20/15 A3012 440 72 1200 230/08 RMK AO2
14840KMKG MKG20030717022009307/17/03 02:20:31  5-MIN KMKG 170720Z 23007KT 10SM CLR 20/15 A3012 440 72 1200 230/07 RMK AO2
14840KMKG MKG20030717022509307/17/03 02:25:31  5-MIN KMKG 170725Z 23008KT 10SM CLR 20/14 A3012 450 70 1200 240/08 RMK AO2
14840KMKG MKG20030717023009307/17/03 02:30:31  5-MIN KMKG 170730Z 24008KT 10SM CLR 21/14 A3012 450 67 1200 250/08 RMK AO2
14840KMKG MKG20030717023509307/17/03 02:35:31  5-MIN KMKG 170735Z 24010KT 10SM CLR 21/14 A3012 450 65 1200 240/10 RMK AO2
14840KMKG MKG20030717024009307/17/03 02:40:31  5-MIN KMKG 170740Z 24007KT 10SM CLR 21/14 A3012 440 65 1200 240/07 RMK AO2
14840KMKG MKG20030717024509307/17/03 02:45:31  5-MIN KMKG 170745Z 23007KT 10SM CLR 21/14 A3012 440 65 1200 240/07 RMK AO2
14840KMKG MKG20030717025011007/17/03 02:50:31  5-MIN KMKG 170750Z 23007KT 10SM CLR 21/14 A3012 440 65 1200 230/07 RMK AO2 SLP197 T02060139
14840KMKG MKG20030717025511007/17/03 02:55:31  5-MIN KMKG 170755Z 23006KT 10SM CLR 20/14 A3012 440 67 1200 240/06 RMK AO2 SLP197 T02000139
14840KMKG MKG20030717030009307/17/03 03:00:31  5-MIN KMKG 170800Z 22007KT 10SM CLR 20/14 A3012 450 70 1200 230/07 RMK AO2
14840KMKG MKG20030717030509307/17/03 03:05:31  5-MIN KMKG 170805Z 22008KT 10SM CLR 19/14 A3011 450 72 1100 230/08 RMK AO2
14840KMKG MKG20030717031009307/17/03 03:10:31  5-MIN KMKG 170810Z 23010KT 10SM CLR 19/14 A3011 450 72 1100 230/10 RMK AO2
14840KMKG MKG20030717031509307/17/03 03:15:31  5-MIN KMKG 170815Z 23010KT 10SM CLR 20/14 A3011 460 70 1200 230/10 RMK AO2
14840KMKG MKG20030717032009307/17/03 03:20:31  5-MIN KMKG 170820Z 22011KT 10SM CLR 20/14 A3011 460 70 1200 230/11 RMK AO2
14840KMKG MKG20030717032509307/17/03 03:25:31  5-MIN KMKG 170825Z 23010KT 10SM CLR 20/14 A3010 460 70 1200 230/10 RMK AO2
14840KMKG MKG20030717033009307/17/03 03:30:31  5-MIN KMKG 170830Z 23009KT 10SM CLR 20/14 A3011 460 70 1200 230/09 RMK AO2
14840KMKG MKG20030717033509307/17/03 03:35:31  5-MIN KMKG 170835Z 23009KT 10SM CLR 20/14 A3011 460 70 1200 230/09 RMK AO2
14840KMKG MKG20030717034009307/17/03 03:40:31  5-MIN KMKG 170840Z 23007KT 10SM CLR 20/14 A3011 460 70 1200 230/07 RMK AO2
14840KMKG MKG20030717034509307/17/03 03:45:31  5-MIN KMKG 170845Z 22006KT 10SM CLR 20/14 A3011 460 70 1200 220/06 RMK AO2
14840KMKG MKG20030717035011607/17/03 03:50:31  5-MIN KMKG 170850Z 22006KT 10SM CLR 20/14 A3011 460 70 1200 220/06 RMK AO2 SLP192 T02000144 56004
14840KMKG MKG20030717035511607/17/03 03:55:31  5-MIN KMKG 170855Z 21006KT 10SM CLR 20/14 A3010 460 70 1200 220/06 RMK AO2 SLP191 T02000144 58013
14840KMKG MKG20030717040009307/17/03 04:00:31  5-MIN KMKG 170900Z 22007KT 10SM CLR 19/14 A3010 460 72 1100 220/07 RMK AO2
14840KMKG MKG20030717040509307/17/03 04:05:31  5-MIN KMKG 170905Z 22007KT 10SM CLR 20/14 A3010 470 70 1200 220/07 RMK AO2
14840KMKG MKG20030717041009307/17/03 04:10:31  5-MIN KMKG 170910Z 21008KT 10SM CLR 19/14 A3009 470 72 1100 220/08 RMK AO2
14840KMKG MKG20030717041509307/17/03 04:15:31  5-MIN KMKG 170915Z 22007KT 10SM CLR 20/14 A3009 470 70 1200 220/07 RMK AO2
14840KMKG MKG20030717042009307/17/03 04:20:31  5-MIN KMKG 170920Z 22006KT 10SM CLR 20/14 A3010 470 70 1200 230/06 RMK AO2
14840KMKG MKG20030717042509307/17/03 04:25:31  5-MIN KMKG 170925Z 23007KT 10SM CLR 20/14 A3010 460 70 1200 240/07 RMK AO2
14840KMKG MKG20030717043009307/17/03 04:30:31  5-MIN KMKG 170930Z 22007KT 10SM CLR 20/14 A3010 460 70 1200 220/07 RMK AO2
14840KMKG MKG20030717043509307/17/03 04:35:31  5-MIN KMKG 170935Z 21007KT 10SM CLR 20/15 A3010 460 72 1200 210/07 RMK AO2
14840KMKG MKG20030717044009607/17/03 04:40:31  5-MIN KMKG 170940Z 21008KT 10SM FEW120 20/15 A3010 470 72 1200 210/08 RMK AO2
14840KMKG MKG20030717044509607/17/03 04:45:31  5-MIN KMKG 170945Z 21009KT 10SM FEW120 21/15 A3010 470 70 1300 210/09 RMK AO2
14840KMKG MKG20030717045011307/17/03 04:50:31  5-MIN KMKG 170950Z 21008KT 10SM SCT120 21/15 A3009 470 70 1300 220/08 RMK AO2 SLP188 T02060150
14840KMKG MKG20030717045511307/17/03 04:55:31  5-MIN KMKG 170955Z 22009KT 10SM BKN120 21/15 A3010 470 68 1300 230/09 RMK AO2 SLP188 T02110150
14840KMKG MKG20030717050009607/17/03 05:00:31  5-MIN KMKG 171000Z 23010KT 10SM BKN120 21/15 A3010 470 68 1300 230/10 RMK AO2
14840KMKG MKG20030717050509607/17/03 05:05:31  5-MIN KMKG 171005Z 22010KT 10SM BKN120 21/15 A3010 460 68 1300 230/10 RMK AO2
14840KMKG MKG20030717051009607/17/03 05:10:31  5-MIN KMKG 171010Z 23010KT 10SM BKN120 21/15 A3011 460 68 1300 230/10 RMK AO2
14840KMKG MKG20030717051509607/17/03 05:15:31  5-MIN KMKG 171015Z 23008KT 10SM BKN120 21/15 A3011 460 68 1300 230/08 RMK AO2
14840KMKG MKG20030717052009607/17/03 05:20:31  5-MIN KMKG 171020Z 23007KT 10SM OVC120 21/15 A3012 450 68 1300 230/07 RMK AO2
14840KMKG MKG20030717052510307/17/03 05:25:31  5-MIN KMKG 171025Z 23007KT 10SM OVC120 21/15 A3012 440 68 1300 240/07 RMK AO2 PRESRR
14840KMKG MKG20030717053010307/17/03 05:30:31  5-MIN KMKG 171030Z 25009KT 10SM OVC120 21/15 A3013 440 68 1300 250/09 RMK AO2 PRESRR
14840KMKG MKG20030717053510307/17/03 05:35:31  5-MIN KMKG 171035Z 25004KT 10SM OVC120 22/15 A3014 430 65 1300 250/04 RMK AO2 PRESRR
14840KMKG MKG20030717054009607/17/03 05:40:31  5-MIN KMKG 171040Z 24006KT 10SM OVC120 21/15 A3014 430 68 1300 240/06 RMK AO2
14840KMKG MKG20030717054509607/17/03 05:45:31  5-MIN KMKG 171045Z VRB05KT 10SM BKN120 21/15 A3014 430 68 1300 VRB/05 RMK AO2
14840KMKG MKG20030717055011307/17/03 05:50:31  5-MIN KMKG 171050Z 24006KT 10SM BKN120 21/15 A3014 430 68 1300 240/06 RMK AO2 SLP203 T02110150
14840KMKG MKG20030717055511307/17/03 05:55:31  5-MIN KMKG 171055Z 25005KT 10SM SCT120 21/16 A3015 420 70 1300 250/05 RMK AO2 SLP205 T02110156
14840KMKG MKG20030717060009607/17/03 06:00:31  5-MIN KMKG 171100Z VRB05KT 10SM FEW120 21/16 A3015 420 70 1300 VRB/05 RMK AO2
14840KMKG MKG20030717060509607/17/03 06:05:31  5-MIN KMKG 171105Z 25006KT 10SM FEW120 21/16 A3015 420 73 1200 250/06 RMK AO2
14840KMKG MKG20030717061009307/17/03 06:10:31  5-MIN KMKG 171110Z 23006KT 10SM CLR 21/16 A3015 420 75 1200 240/06 RMK AO2
14840KMKG MKG20030717061509307/17/03 06:15:31  5-MIN KMKG 171115Z 23006KT 10SM CLR 21/16 A3014 420 75 1200 240/06 RMK AO2
14840KMKG MKG20030717062009307/17/03 06:20:31  5-MIN KMKG 171120Z 25006KT 10SM CLR 21/16 A3015 420 75 1200 260/06 RMK AO2
14840KMKG MKG20030717062509307/17/03 06:25:31  5-MIN KMKG 171125Z 25005KT 10SM CLR 21/16 A3015 420 75 1200 250/05 RMK AO2
14840KMKG MKG20030717063009307/17/03 06:30:31  5-MIN KMKG 171130Z 25006KT 10SM CLR 21/16 A3015 420 73 1300 260/06 RMK AO2
14840KMKG MKG20030717063509307/17/03 06:35:31  5-MIN KMKG 171135Z 24007KT 10SM CLR 21/16 A3014 420 73 1300 240/07 RMK AO2
14840KMKG MKG20030717064009307/17/03 06:40:31  5-MIN KMKG 171140Z 24008KT 10SM CLR 21/16 A3014 420 73 1300 240/08 RMK AO2
14840KMKG MKG20030717064509307/17/03 06:45:31  5-MIN KMKG 171145Z 25007KT 10SM CLR 21/17 A3014 430 75 1300 260/07 RMK AO2
14840KMKG MKG20030717065012807/17/03 06:50:31  5-MIN KMKG 171150Z 25008KT 10SM CLR 21/16 A3014 430 73 1300 250/08 RMK AO2 SLP203 T02110161 10217 20194 58013
14840KMKG MKG20030717065512807/17/03 06:55:31  5-MIN KMKG 171155Z 24006KT 10SM CLR 21/17 A3014 430 75 1300 240/06 RMK AO2 SLP203 T02110167 10217 20194 53012
14840KMKG MKG20030717070009307/17/03 07:00:31  5-MIN KMKG 171200Z 25005KT 10SM CLR 22/17 A3014 430 73 1300 250/05 RMK AO2
14840KMKG MKG20030717070509307/17/03 07:05:31  5-MIN KMKG 171205Z VRB04KT 10SM CLR 22/17 A3014 430 73 1300 VRB/04 RMK AO2
14840KMKG MKG20030717071009307/17/03 07:10:31  5-MIN KMKG 171210Z VRB06KT 10SM CLR 22/17 A3014 430 73 1300 VRB/06 RMK AO2
14840KMKG MKG20030717071509307/17/03 07:15:31  5-MIN KMKG 171215Z 25005KT 10SM CLR 22/17 A3015 420 70 1400 250/05 RMK AO2
14840KMKG MKG20030717072009307/17/03 07:20:31  5-MIN KMKG 171220Z 27007KT 10SM CLR 22/17 A3015 410 70 1400 270/07 RMK AO2
14840KMKG MKG20030717072509307/17/03 07:25:31  5-MIN KMKG 171225Z 28008KT 10SM CLR 22/17 A3016 410 73 1400 280/08 RMK AO2
14840KMKG MKG20030717073010907/17/03 07:30:31  5-MIN KMKG 171230Z 26008KT 240V300 10SM CLR 22/17 A3015 420 73 1400 260/08 240V300 RMK AO2
14840KMKG MKG20030717073509607/17/03 07:35:31  5-MIN KMKG 171235Z 25007KT 10SM FEW120 23/17 A3015 410 70 1500 250/07 RMK AO2
14840KMKG MKG20030717074009607/17/03 07:40:31  5-MIN KMKG 171240Z 24008KT 10SM SCT110 22/17 A3015 420 73 1400 240/08 RMK AO2
14840KMKG MKG20030717074509607/17/03 07:45:31  5-MIN KMKG 171245Z 25007KT 10SM BKN110 22/17 A3015 420 70 1400 250/07 RMK AO2
14840KMKG MKG20030717075011307/17/03 07:50:31  5-MIN KMKG 171250Z 24006KT 10SM BKN110 22/17 A3014 420 73 1300 240/06 RMK AO2 SLP204 T02170167
14840KMKG MKG20030717075511307/17/03 07:55:31  5-MIN KMKG 171255Z 25008KT 10SM BKN110 22/17 A3015 420 73 1300 250/08 RMK AO2 SLP206 T02170167
14840KMKG MKG20030717080009607/17/03 08:00:31  5-MIN KMKG 171300Z 24006KT 10SM BKN110 22/17 A3015 420 73 1400 250/06 RMK AO2
14840KMKG MKG20030717080509607/17/03 08:05:31  5-MIN KMKG 171305Z 25008KT 10SM BKN110 22/17 A3015 420 73 1400 250/08 RMK AO2
14840KMKG MKG20030717081009607/17/03 08:10:31  5-MIN KMKG 171310Z 24007KT 10SM BKN120 22/17 A3015 420 73 1400 250/07 RMK AO2
14840KMKG MKG20030717081509607/17/03 08:15:31  5-MIN KMKG 171315Z 25008KT 10SM SCT120 22/17 A3016 410 70 1400 260/08 RMK AO2
14840KMKG MKG20030717082009607/17/03 08:20:31  5-MIN KMKG 171320Z 26006KT 10SM SCT120 22/17 A3016 410 70 1400 270/06 RMK AO2
14840KMKG MKG20030717082509607/17/03 08:25:31  5-MIN KMKG 171325Z 26007KT 10SM SCT120 22/17 A3016 410 70 1400 260/07 RMK AO2
14840KMKG MKG20030717083009607/17/03 08:30:31  5-MIN KMKG 171330Z 26006KT 10SM BKN120 22/17 A3016 410 70 1400 260/06 RMK AO2
14840KMKG MKG20030717083509607/17/03 08:35:31  5-MIN KMKG 171335Z 25006KT 10SM SCT120 22/17 A3016 410 73 1400 250/06 RMK AO2
14840KMKG MKG20030717190509607/17/03 19:05:31  5-MIN KMKG 180005Z 00000KT 10SM OVC060 24/19 A3008 490 76 1700 000/00 RMK AO2
14840KMKG MKG20030717191009607/17/03 19:10:31  5-MIN KMKG 180010Z 00000KT 10SM OVC065 24/19 A3008 490 76 1700 000/00 RMK AO2
14840KMKG MKG20030717191509607/17/03 19:15:31  5-MIN KMKG 180015Z 00000KT 10SM OVC065 24/19 A3007 490 73 1700 000/00 RMK AO2
14840KMKG MKG20030717192010307/17/03 19:20:31  5-MIN KMKG 180020Z 00000KT 10SM BKN065 OVC085 24/19 A3007 490 73 1700 000/00 RMK AO2
14840KMKG MKG20030717192510307/17/03 19:25:31  5-MIN KMKG 180025Z 00000KT 10SM BKN065 BKN085 24/19 A3007 490 73 1700 000/00 RMK AO2
14840KMKG MKG20030717193010307/17/03 19:30:31  5-MIN KMKG 180030Z 00000KT 10SM BKN065 BKN090 24/19 A3007 490 73 1700 000/00 RMK AO2
14840KMKG MKG20030717193510307/17/03 19:35:31  5-MIN KMKG 180035Z 00000KT 10SM BKN065 BKN090 24/19 A3007 490 73 1700 000/00 RMK AO2
14840KMKG MKG20030717194010307/17/03 19:40:31  5-MIN KMKG 180040Z 00000KT 10SM SCT065 BKN100 24/20 A3007 490 78 1700 000/00 RMK AO2
14840KMKG MKG20030717194510307/17/03 19:45:31  5-MIN KMKG 180045Z 00000KT 10SM SCT065 BKN100 24/20 A3007 500 78 1700 000/00 RMK AO2
14840KMKG MKG20030717195011907/17/03 19:50:31  5-MIN KMKG 180050Z 00000KT 10SM SCT060 SCT100 24/21 A3007 490 81 1700 000/00 RMK AO2 SLPNO T02390206
14840KMKG MKG20030717195511907/17/03 19:55:31  5-MIN KMKG 180055Z 00000KT 10SM SCT060 SCT100 23/21 A3008 490 84 1600 000/00 RMK AO2 SLPNO T02330206
14840KMKG MKG20030717200009607/17/03 20:00:31  5-MIN KMKG 180100Z 02003KT 10SM FEW060 24/20 A3008 480 78 1700 030/03 RMK AO2
14840KMKG MKG20030717200511007/17/03 20:05:31  5-MIN KMKG 180105Z 00000KT 10SM FEW050 SCT060 SCT100 24/19 A3007 490 76 1700 000/00 RMK AO2
14840KMKG MKG20030717201010307/17/03 20:10:31  5-MIN KMKG 180110Z 00000KT 10SM SCT050 BKN060 23/20 A3008 490 81 1600 000/00 RMK AO2
14840KMKG MKG20030717201510307/17/03 20:15:31  5-MIN KMKG 180115Z 00000KT 10SM BKN050 BKN060 23/21 A3007 490 84 1600 000/00 RMK AO2
14840KMKG MKG20030717202009607/17/03 20:20:31  5-MIN KMKG 180120Z 17004KT 10SM BKN050 23/21 A3007 500 87 1600 180/04 RMK AO2
14840KMKG MKG20030717202509607/17/03 20:25:31  5-MIN KMKG 180125Z 16004KT 10SM SCT050 23/21 A3007 500 87 1600 170/04 RMK AO2
14840KMKG MKG20030717203010307/17/03 20:30:31  5-MIN KMKG 180130Z 00000KT 10SM SCT050 BKN060 23/20 A3007 490 81 1600 000/00 RMK AO2
14840KMKG MKG20030717203511007/17/03 20:35:31  5-MIN KMKG 180135Z 15003KT 10SM FEW038 BKN050 BKN060 23/19 A3007 490 78 1600 150/03 RMK AO2
14840KMKG MKG20030717204011007/17/03 20:40:31  5-MIN KMKG 180140Z 00000KT 10SM BKN036 BKN050 BKN060 23/19 A3007 490 78 1600 000/00 RMK AO2
14840KMKG MKG20030717204511007/17/03 20:45:31  5-MIN KMKG 180145Z 00000KT 10SM BKN036 BKN048 BKN060 23/20 A3007 490 84 1500 000/00 RMK AO2
14840KMKG MKG20030717205011907/17/03 20:50:31  5-MIN KMKG 180150Z 19003KT 10SM BKN036 BKN065 23/20 A3007 500 84 1600 200/03 RMK AO2 SLPNO T02280200
14840KMKG MKG20030717205513507/17/03 20:55:31  5-MIN KMKG 180155Z 18004KT 10SM -RA BKN036 OVC060 23/20 A3006 500 84 1600 180/04 RMK AO2 RAB53 SLPNO P0000 T02280200
14840KMKG MKG20030717210012007/17/03 21:00:31  5-MIN KMKG 180200Z 00000KT 10SM -RA BKN036 BKN046 OVC050 23/19 A3007 500 81 1600 000/00 RMK AO2 P0000
14840KMKG MKG20030717210512007/17/03 21:05:31  5-MIN KMKG 180205Z 00000KT 10SM -RA BKN036 BKN044 OVC055 23/19 A3007 500 81 1600 000/00 RMK AO2 P0000
14840KMKG MKG20030717211011307/17/03 21:10:31  5-MIN KMKG 180210Z 31003KT 10SM -RA BKN036 OVC055 23/20 A3007 490 84 1500 310/03 RMK AO2 P0000
14840KMKG MKG20030717211511307/17/03 21:15:31  5-MIN KMKG 180215Z 32006KT 10SM -RA BKN036 OVC055 23/20 A3008 490 84 1500 330/06 RMK AO2 P0000
14840KMKG MKG20030717212011307/17/03 21:20:31  5-MIN KMKG 180220Z 36006KT 10SM -RA BKN036 OVC048 23/20 A3008 480 84 1500 360/06 RMK AO2 P0000
14840KMKG MKG20030717212510807/17/03 21:25:31  5-MIN KMKG 180225Z 04009KT 10SM OVC036 23/20 A3007 490 81 1600 040/09 RMK AO2 RAE25 P0000
14840KMKG MKG20030717213012207/17/03 21:30:31  5-MIN KMKG 180230Z 03010KT 10SM BKN036 BKN060 OVC070 23/19 A3007 490 81 1600 040/10 RMK AO2 RAE25 P0000
14840KMKG MKG20030717213512207/17/03 21:35:31  5-MIN KMKG 180235Z 04011KT 10SM BKN036 BKN065 OVC080 23/19 A3007 490 81 1600 040/11 RMK AO2 RAE25 P0000
14840KMKG MKG20030717214012207/17/03 21:40:31  5-MIN KMKG 180240Z 03010KT 10SM SCT036 BKN065 BKN080 23/19 A3007 490 81 1600 030/10 RMK AO2 RAE25 P0000
14840KMKG MKG20030717214512207/17/03 21:45:31  5-MIN KMKG 180245Z 04010KT 10SM FEW036 BKN065 BKN085 22/19 A3007 490 84 1500 040/10 RMK AO2 RAE25 P0000
14840KMKG MKG20030717215015007/17/03 21:50:31  5-MIN KMKG 180250Z 04009KT 10SM FEW036 BKN065 BKN085 22/19 A3007 490 81 1500 040/09 RMK AO2 RAE25 SLPNO P0000 60000 T02220189 56005
14840KMKG MKG20030717215515007/17/03 21:55:31  5-MIN KMKG 180255Z 03009KT 10SM FEW050 BKN060 OVC085 22/19 A3007 490 81 1500 030/09 RMK AO2 RAE25 SLPNO P0000 60000 T02220189 55002
14840KMKG MKG20030717220010307/17/03 22:00:31  5-MIN KMKG 180300Z 02009KT 10SM BKN060 OVC085 22/19 A3007 490 84 1400 030/09 RMK AO2
14840KMKG MKG20030717220512507/17/03 22:05:31  5-MIN KMKG 180305Z 01009KT 10SM FEW045 BKN055 OVC085 22/19 A3007 490 84 1400 020/09 RMK AO2 CIG 045 RWY 14
14840KMKG MKG20030717221010307/17/03 22:10:31  5-MIN KMKG 180310Z 03009KT 10SM BKN045 OVC060 22/18 A3007 490 81 1400 040/09 RMK AO2
14840KMKG MKG20030717221510307/17/03 22:15:31  5-MIN KMKG 180315Z 03010KT 10SM BKN045 OVC060 22/18 A3007 490 81 1400 030/10 RMK AO2
14840KMKG MKG20030717222010307/17/03 22:20:31  5-MIN KMKG 180320Z 02011KT 10SM BKN045 OVC060 22/18 A3007 490 81 1400 020/11 RMK AO2
14840KMKG MKG20030717222510307/17/03 22:25:31  5-MIN KMKG 180325Z 03010KT 10SM BKN045 OVC060 21/18 A3007 490 81 1400 040/10 RMK AO2
14840KMKG MKG20030717223010307/17/03 22:30:31  5-MIN KMKG 180330Z 03010KT 10SM BKN045 BKN065 21/18 A3007 500 81 1400 040/10 RMK AO2
14840KMKG MKG20030717223510307/17/03 22:35:31  5-MIN KMKG 180335Z 04011KT 10SM SCT045 BKN060 21/18 A3007 500 81 1400 040/11 RMK AO2
14840KMKG MKG20030717224010307/17/03 22:40:31  5-MIN KMKG 180340Z 03009KT 10SM SCT045 BKN060 21/18 A3007 490 84 1300 030/09 RMK AO2
14840KMKG MKG20030717224510307/17/03 22:45:31  5-MIN KMKG 180345Z 03010KT 10SM BKN042 BKN060 21/18 A3007 490 84 1300 040/10 RMK AO2
14840KMKG MKG20030717225011907/17/03 22:50:31  5-MIN KMKG 180350Z 03010KT 10SM BKN042 BKN065 21/18 A3007 490 84 1300 030/10 RMK AO2 SLPNO T02060178
14840KMKG MKG20030717225511207/17/03 22:55:31  5-MIN KMKG 180355Z 05010KT 10SM BKN042 21/17 A3007 490 81 1300 050/10 RMK AO2 SLPNO T02060172
14840KMKG MKG20030717230009607/17/03 23:00:31  5-MIN KMKG 180400Z 03010KT 10SM BKN042 21/17 A3007 490 81 1300 030/10 RMK AO2
14840KMKG MKG20030717230509607/17/03 23:05:31  5-MIN KMKG 180405Z 03009KT 10SM BKN042 21/17 A3007 490 78 1300 030/09 RMK AO2
14840KMKG MKG20030717231009607/17/03 23:10:31  5-MIN KMKG 180410Z 03011KT 10SM BKN042 20/16 A3007 500 78 1200 030/11 RMK AO2
14840KMKG MKG20030717231509607/17/03 23:15:31  5-MIN KMKG 180415Z 03011KT 10SM SCT042 20/15 A3007 500 72 1200 040/11 RMK AO2
14840KMKG MKG20030717232009607/17/03 23:20:31  5-MIN KMKG 180420Z 04009KT 10SM FEW042 20/14 A3006 500 70 1200 040/09 RMK AO2
14840KMKG MKG20030717232509607/17/03 23:25:31  5-MIN KMKG 180425Z 03011KT 10SM FEW040 19/14 A3007 500 70 1200 030/11 RMK AO2
14840KMKG MKG20030717233009307/17/03 23:30:31  5-MIN KMKG 180430Z 03011KT 10SM CLR 19/13 A3007 500 67 1200 030/11 RMK AO2
14840KMKG MKG20030717233509307/17/03 23:35:31  5-MIN KMKG 180435Z 03010KT 10SM CLR 19/13 A3007 500 67 1200 040/10 RMK AO2
14840KMKG MKG20030717234009307/17/03 23:40:31  5-MIN KMKG 180440Z 03011KT 10SM CLR 19/13 A3007 490 67 1200 040/11 RMK AO2
14840KMKG MKG20030717234509307/17/03 23:45:31  5-MIN KMKG 180445Z 04008KT 10SM CLR 19/12 A3007 490 62 1200 040/08 RMK AO2
14840KMKG MKG20030717235011907/17/03 23:50:31  5-MIN KMKG 180450Z 04008KT 10SM CLR 19/13 A3007 490 65 1200 050/08 RMK AO2 SLPNO T01940128 402670194
14840KMKG MKG20030717235512207/17/03 23:55:31  5-MIN KMKG 180455Z 04008KT 10SM FEW039 19/12 A3007 490 65 1100 050/08 RMK AO2 SLPNO T01890122 402670189
14840KMKG MKG20030718000009607/18/03 00:00:32  5-MIN KMKG 180500Z 04009KT 10SM SCT039 19/12 A3007 490 65 1100 040/09 RMK AO2
14840KMKG MKG20030718000509607/18/03 00:05:31  5-MIN KMKG 180505Z 04009KT 10SM BKN039 19/12 A3007 490 65 1100 040/09 RMK AO2
14840KMKG MKG20030718001009607/18/03 00:10:31  5-MIN KMKG 180510Z 04009KT 10SM BKN039 19/12 A3008 490 65 1100 040/09 RMK AO2
14840KMKG MKG20030718001509607/18/03 00:15:31  5-MIN KMKG 180515Z 04008KT 10SM BKN039 19/12 A3008 490 65 1100 050/08 RMK AO2
14840KMKG MKG20030718002009607/18/03 00:20:31  5-MIN KMKG 180520Z 04006KT 10SM OVC039 19/12 A3008 480 65 1100 040/06 RMK AO2
14840KMKG MKG20030718002509607/18/03 00:25:31  5-MIN KMKG 180525Z 04008KT 10SM OVC039 19/12 A3008 480 65 1100 050/08 RMK AO2
14840KMKG MKG20030718003009607/18/03 00:30:31  5-MIN KMKG 180530Z 03008KT 10SM OVC039 19/12 A3008 480 62 1100 040/08 RMK AO2
14840KMKG MKG20030718003509607/18/03 00:35:31  5-MIN KMKG 180535Z 03007KT 10SM OVC041 19/12 A3008 480 62 1100 040/07 RMK AO2
14840KMKG MKG20030718004009607/18/03 00:40:31  5-MIN KMKG 180540Z 03007KT 10SM OVC043 19/12 A3008 480 65 1100 030/07 RMK AO2
14840KMKG MKG20030718004509607/18/03 00:45:31  5-MIN KMKG 180545Z 03009KT 10SM OVC043 19/12 A3008 480 62 1100 030/09 RMK AO2
14840KMKG MKG20030718005013707/18/03 00:50:31  5-MIN KMKG 180550Z 03008KT 10SM OVC043 19/12 A3008 480 62 1100 030/08 RMK AO2 SLP183 60000 T01890117 10244 20189 55002
14840KMKG MKG20030718005513707/18/03 00:55:31  5-MIN KMKG 180555Z 04009KT 10SM OVC043 19/12 A3008 480 65 1100 040/09 RMK AO2 SLP184 60000 T01890122 10244 20189 53005
14840KMKG MKG20030718010009607/18/03 01:00:31  5-MIN KMKG 180600Z 04007KT 10SM OVC043 19/12 A3008 480 62 1100 040/07 RMK AO2
14840KMKG MKG20030718010509607/18/03 01:05:31  5-MIN KMKG 180605Z 05009KT 10SM OVC043 19/12 A3008 480 62 1100 050/09 RMK AO2
14840KMKG MKG20030718011010307/18/03 01:10:31  5-MIN KMKG 180610Z 04007KT 10SM SCT036 OVC045 19/12 A3009 480 62 1100 050/07 RMK AO2
14840KMKG MKG20030718011510307/18/03 01:15:31  5-MIN KMKG 180615Z 05006KT 10SM BKN036 OVC045 19/12 A3009 480 62 1100 050/06 RMK AO2
14840KMKG MKG20030718012011007/18/03 01:20:31  5-MIN KMKG 180620Z 04008KT 10SM FEW028 BKN036 OVC045 19/12 A3009 480 62 1100 040/08 RMK AO2
14840KMKG MKG20030718012511007/18/03 01:25:31  5-MIN KMKG 180625Z 04009KT 10SM SCT028 BKN036 OVC045 19/11 A3009 480 60 1100 050/09 RMK AO2
14840KMKG MKG20030718013010307/18/03 01:30:31  5-MIN KMKG 180630Z 04008KT 10SM BKN028 OVC036 19/11 A3009 480 60 1100 040/08 RMK AO2
14840KMKG MKG20030718013510307/18/03 01:35:31  5-MIN KMKG 180635Z 04009KT 10SM BKN028 OVC036 19/11 A3009 480 60 1100 040/09 RMK AO2
14840KMKG MKG20030718014010307/18/03 01:40:31  5-MIN KMKG 180640Z 03008KT 10SM BKN030 OVC036 19/11 A3009 480 60 1100 030/08 RMK AO2
14840KMKG MKG20030718014509607/18/03 01:45:31  5-MIN KMKG 180645Z 04010KT 10SM OVC030 18/11 A3009 480 62 1000 040/10 RMK AO2
14840KMKG MKG20030718015012007/18/03 01:50:31  5-MIN KMKG 180650Z 03008KT 10SM SCT029 BKN034 18/11 A3009 480 62 1000 040/08 RMK AO2 SLP185 T01830111
14840KMKG MKG20030718015512007/18/03 01:55:31  5-MIN KMKG 180655Z 03008KT 10SM SCT029 BKN034 18/11 A3008 480 60 1000 030/08 RMK AO2 SLP184 T01830106
14840KMKG MKG20030718020010307/18/03 02:00:31  5-MIN KMKG 180700Z 03008KT 10SM SCT029 BKN034 18/11 A3008 480 60 1000 040/08 RMK AO2
14840KMKG MKG20030718020510307/18/03 02:05:31  5-MIN KMKG 180705Z 04006KT 10SM SCT027 BKN034 18/11 A3008 480 60 1000 050/06 RMK AO2
14840KMKG MKG20030718021010307/18/03 02:10:31  5-MIN KMKG 180710Z 04007KT 10SM BKN027 BKN034 18/11 A3008 480 60 1000 040/07 RMK AO2
14840KMKG MKG20030718021510307/18/03 02:15:31  5-MIN KMKG 180715Z 03007KT 10SM BKN027 BKN034 18/10 A3009 480 58 1000 040/07 RMK AO2
14840KMKG MKG20030718022009607/18/03 02:20:31  5-MIN KMKG 180720Z 04006KT 10SM BKN027 18/10 A3008 480 58 1000 040/06 RMK AO2
14840KMKG MKG20030718022509607/18/03 02:25:31  5-MIN KMKG 180725Z 04007KT 10SM OVC027 18/10 A3009 480 58 1000 040/07 RMK AO2
14840KMKG MKG20030718023009607/18/03 02:30:31  5-MIN KMKG 180730Z 04008KT 10SM OVC027 18/10 A3009 470 58 1000 040/08 RMK AO2
14840KMKG MKG20030718023509607/18/03 02:35:31  5-MIN KMKG 180735Z 02008KT 10SM OVC027 18/10 A3009 470 58 1000 020/08 RMK AO2
14840KMKG MKG20030718024010307/18/03 02:40:31  5-MIN KMKG 180740Z 04007KT 10SM BKN027 OVC034 18/09 A3009 470 56 1000 040/07 RMK AO2
14840KMKG MKG20030718024510307/18/03 02:45:31  5-MIN KMKG 180745Z 03008KT 10SM BKN029 OVC036 18/10 A3009 470 58 1000 040/08 RMK AO2
14840KMKG MKG20030718025012007/18/03 02:50:31  5-MIN KMKG 180750Z 03009KT 10SM BKN029 OVC042 18/09 A3009 470 56 1000 030/09 RMK AO2 SLP187 T01830094
14840KMKG MKG20030718025511307/18/03 02:55:31  5-MIN KMKG 180755Z 02008KT 10SM OVC029 18/09 A3009 470 56 1000 030/08 RMK AO2 SLP188 T01830094
14840KMKG MKG20030718030009607/18/03 03:00:31  5-MIN KMKG 180800Z 04007KT 10SM OVC029 18/10 A3009 470 58 1000 040/07 RMK AO2
14840KMKG MKG20030718030509507/18/03 03:05:31  5-MIN KMKG 180805Z 05008KT 10SM OVC029 18/10 A3009 470 60 900 050/08 RMK AO2
14840KMKG MKG20030718031009507/18/03 03:10:31  5-MIN KMKG 180810Z 04006KT 10SM OVC029 18/10 A3009 470 60 900 040/06 RMK AO2
14840KMKG MKG20030718031509507/18/03 03:15:31  5-MIN KMKG 180815Z 05008KT 10SM OVC029 18/10 A3009 470 60 900 050/08 RMK AO2
14840KMKG MKG20030718032009507/18/03 03:20:31  5-MIN KMKG 180820Z 04006KT 10SM OVC029 18/10 A3010 470 60 900 050/06 RMK AO2
14840KMKG MKG20030718032509507/18/03 03:25:31  5-MIN KMKG 180825Z 04007KT 10SM OVC029 18/10 A3009 470 60 900 040/07 RMK AO2
14840KMKG MKG20030718033009507/18/03 03:30:31  5-MIN KMKG 180830Z 03008KT 10SM OVC029 18/10 A3009 470 60 900 040/08 RMK AO2
14840KMKG MKG20030718033509507/18/03 03:35:31  5-MIN KMKG 180835Z 03010KT 10SM OVC029 18/10 A3009 470 60 900 040/10 RMK AO2
14840KMKG MKG20030718034009507/18/03 03:40:31  5-MIN KMKG 180840Z 03008KT 10SM OVC029 18/10 A3009 470 60 900 030/08 RMK AO2
14840KMKG MKG20030718034509507/18/03 03:45:31  5-MIN KMKG 180845Z 02009KT 10SM OVC029 18/10 A3009 470 60 900 030/09 RMK AO2
14840KMKG MKG20030718035011807/18/03 03:50:31  5-MIN KMKG 180850Z 03009KT 10SM OVC031 17/10 A3009 470 62 900 040/09 RMK AO2 SLP188 T01720100 53005
14840KMKG MKG20030718035511807/18/03 03:55:31  5-MIN KMKG 180855Z 03008KT 10SM BKN031 17/09 A3009 470 60 900 030/08 RMK AO2 SLP187 T01720094 50003
14840KMKG MKG20030718040009507/18/03 04:00:31  5-MIN KMKG 180900Z 04007KT 10SM BKN031 17/09 A3009 470 60 900 040/07 RMK AO2
14840KMKG MKG20030718040509507/18/03 04:05:31  5-MIN KMKG 180905Z 04007KT 10SM SCT031 17/09 A3009 470 60 900 040/07 RMK AO2
14840KMKG MKG20030718041009507/18/03 04:10:31  5-MIN KMKG 180910Z 04007KT 10SM SCT031 17/09 A3009 470 62 800 050/07 RMK AO2
14840KMKG MKG20030718041509507/18/03 04:15:31  5-MIN KMKG 180915Z 04008KT 10SM FEW033 17/09 A3010 470 62 800 040/08 RMK AO2
14840KMKG MKG20030718042009507/18/03 04:20:31  5-MIN KMKG 180920Z 04006KT 10SM FEW031 17/09 A3010 470 62 800 050/06 RMK AO2
14840KMKG MKG20030718042510207/18/03 04:25:31  5-MIN KMKG 180925Z 03008KT 10SM FEW031 SCT045 17/09 A3010 470 62 800 040/08 RMK AO2
14840KMKG MKG20030718043010207/18/03 04:30:31  5-MIN KMKG 180930Z 03008KT 10SM FEW033 SCT045 17/09 A3010 460 62 800 030/08 RMK AO2
14840KMKG MKG20030718043510207/18/03 04:35:31  5-MIN KMKG 180935Z 02009KT 10SM SCT033 BKN045 17/09 A3011 460 62 800 030/09 RMK AO2
14840KMKG MKG20030718044011707/18/03 04:40:31  5-MIN KMKG 180940Z 02010KT 10SM SCT033 BKN045 17/09 A3010 460 62 800 030/10 RMK AO2 CIG 033 RWY 14
14840KMKG MKG20030718044511707/18/03 04:45:31  5-MIN KMKG 180945Z 03010KT 10SM FEW033 BKN045 17/09 A3010 460 62 800 030/10 RMK AO2 CIG 033 RWY 14
14840KMKG MKG20030718045011907/18/03 04:50:31  5-MIN KMKG 180950Z 03007KT 10SM FEW033 OVC045 17/09 A3010 460 62 800 030/07 RMK AO2 SLP192 T01670094
14840KMKG MKG20030718045511907/18/03 04:55:31  5-MIN KMKG 180955Z 03010KT 10SM FEW033 OVC045 17/09 A3010 460 62 800 040/10 RMK AO2 SLP192 T01670094
14840KMKG MKG20030718050010207/18/03 05:00:31  5-MIN KMKG 181000Z 03009KT 10SM FEW033 OVC045 17/09 A3010 470 62 800 040/09 RMK AO2
14840KMKG MKG20030718050509507/18/03 05:05:31  5-MIN KMKG 181005Z 05009KT 10SM BKN045 16/09 A3010 470 64 700 050/09 RMK AO2
14840KMKG MKG20030718051009507/18/03 05:10:31  5-MIN KMKG 181010Z 04009KT 10SM BKN045 16/09 A3010 470 64 700 040/09 RMK AO2
14840KMKG MKG20030718051509507/18/03 05:15:31  5-MIN KMKG 181015Z 04010KT 10SM BKN045 16/09 A3010 470 64 700 040/10 RMK AO2
14840KMKG MKG20030718052009507/18/03 05:20:31  5-MIN KMKG 181020Z 04008KT 10SM SCT045 16/09 A3010 460 64 700 050/08 RMK AO2
14840KMKG MKG20030718052509507/18/03 05:25:31  5-MIN KMKG 181025Z 04008KT 10SM FEW045 16/09 A3010 460 67 700 050/08 RMK AO2
14840KMKG MKG20030718053009507/18/03 05:30:31  5-MIN KMKG 181030Z 03007KT 10SM FEW045 16/09 A3010 460 67 700 040/07 RMK AO2
14840KMKG MKG20030718053509207/18/03 05:35:31  5-MIN KMKG 181035Z 04007KT 10SM CLR 16/09 A3011 460 67 700 050/07 RMK AO2
14840KMKG MKG20030718054009207/18/03 05:40:31  5-MIN KMKG 181040Z 04007KT 10SM CLR 16/09 A3011 460 67 700 050/07 RMK AO2
14840KMKG MKG20030718054509207/18/03 05:45:31  5-MIN KMKG 181045Z 04007KT 10SM CLR 16/09 A3011 450 67 700 040/07 RMK AO2
14840KMKG MKG20030718055010907/18/03 05:50:31  5-MIN KMKG 181050Z 03008KT 10SM CLR 16/09 A3011 450 67 700 040/08 RMK AO2 SLP195 T01560094
14840KMKG MKG20030718055510907/18/03 05:55:31  5-MIN KMKG 181055Z 03008KT 10SM CLR 16/09 A3011 460 67 700 040/08 RMK AO2 SLP194 T01560094
14840KMKG MKG20030718060009407/18/03 06:00:31  5-MIN KMKG 181100Z 04008KT 10SM CLR 16/09 A3011 460 67 700 040/08 RMK AO2 $
14840KMKG MKG20030718060509407/18/03 06:05:31  5-MIN KMKG 181105Z 04007KT 10SM CLR 16/09 A3011 460 67 700 040/07 RMK AO2 $
14840KMKG MKG20030718061009407/18/03 06:10:31  5-MIN KMKG 181110Z 04008KT 10SM CLR 16/09 A3011 460 67 700 040/08 RMK AO2 $
14840KMKG MKG20030718061509407/18/03 06:15:31  5-MIN KMKG 181115Z 04008KT 10SM CLR 16/09 A3011 460 67 700 040/08 RMK AO2 $
14840KMKG MKG20030718062009407/18/03 06:20:31  5-MIN KMKG 181120Z 04007KT 10SM CLR 16/09 A3011 460 67 700 040/07 RMK AO2 $
14840KMKG MKG20030718062509407/18/03 06:25:31  5-MIN KMKG 181125Z 04007KT 10SM CLR 16/09 A3011 460 64 700 040/07 RMK AO2 $
14840KMKG MKG20030718063009407/18/03 06:30:31  5-MIN KMKG 181130Z 04008KT 10SM CLR 16/09 A3011 460 64 700 040/08 RMK AO2 $
14840KMKG MKG20030718063509407/18/03 06:35:31  5-MIN KMKG 181135Z 04008KT 10SM CLR 16/09 A3011 460 64 700 050/08 RMK AO2 $
14840KMKG MKG20030718064009407/18/03 06:40:31  5-MIN KMKG 181140Z 04008KT 10SM CLR 16/09 A3011 460 64 700 050/08 RMK AO2 $
14840KMKG MKG20030718064509407/18/03 06:45:31  5-MIN KMKG 181145Z 05008KT 10SM CLR 16/09 A3011 460 64 700 050/08 RMK AO2 $
14840KMKG MKG20030718065013507/18/03 06:50:31  5-MIN KMKG 181150Z 05008KT 10SM CLR 17/09 A3011 450 62 800 050/08 RMK AO2 SLP194 7//// T01670094 10189 20156 50003 $
14840KMKG MKG20030718065513507/18/03 06:55:31  5-MIN KMKG 181155Z 05009KT 10SM CLR 17/09 A3011 450 62 800 050/09 RMK AO2 SLP194 7//// T01670094 10189 20156 51006 $
14840KMKG MKG20030718070009407/18/03 07:00:31  5-MIN KMKG 181200Z 05010KT 10SM CLR 17/09 A3011 450 62 800 060/10 RMK AO2 $
14840KMKG MKG20030718070509407/18/03 07:05:31  5-MIN KMKG 181205Z 05009KT 10SM CLR 17/09 A3011 450 60 900 050/09 RMK AO2 $
14840KMKG MKG20030718071009407/18/03 07:10:31  5-MIN KMKG 181210Z 05008KT 10SM CLR 17/09 A3011 460 60 900 060/08 RMK AO2 $
14840KMKG MKG20030718071509407/18/03 07:15:31  5-MIN KMKG 181215Z 05010KT 10SM CLR 17/09 A3011 450 57 900 060/10 RMK AO2 $
14840KMKG MKG20030718072009407/18/03 07:20:31  5-MIN KMKG 181220Z 06009KT 10SM CLR 17/09 A3011 450 57 900 060/09 RMK AO2 $
14840KMKG MKG20030718072509407/18/03 07:25:31  5-MIN KMKG 181225Z 05011KT 10SM CLR 18/09 A3011 450 58 900 060/11 RMK AO2 $
14840KMKG MKG20030718073009407/18/03 07:30:31  5-MIN KMKG 181230Z 05011KT 10SM CLR 18/09 A3012 450 55 900 050/11 RMK AO2 $
14840KMKG MKG20030718073509407/18/03 07:35:31  5-MIN KMKG 181235Z 07009KT 10SM CLR 18/09 A3012 450 55 900 070/09 RMK AO2 $
14840KMKG MKG20030718074009407/18/03 07:40:31  5-MIN KMKG 181240Z 05011KT 10SM CLR 18/09 A3012 450 58 900 060/11 RMK AO2 $
14840KMKG MKG20030718074509507/18/03 07:45:31  5-MIN KMKG 181245Z 05011KT 10SM CLR 18/09 A3012 450 54 1000 050/11 RMK AO2 $
14840KMKG MKG20030718075011207/18/03 07:50:31  5-MIN KMKG 181250Z 05012KT 10SM CLR 18/09 A3012 450 54 1000 060/12 RMK AO2 SLP198 T01830089 $
14840KMKG MKG20030718075511207/18/03 07:55:31  5-MIN KMKG 181255Z 06011KT 10SM CLR 18/09 A3012 450 56 1000 060/11 RMK AO2 SLP197 T01830094 $
14840KMKG MKG20030718080009507/18/03 08:00:31  5-MIN KMKG 181300Z 06010KT 10SM CLR 18/09 A3012 450 54 1000 070/10 RMK AO2 $
14840KMKG MKG20030718080509507/18/03 08:05:31  5-MIN KMKG 181305Z 07011KT 10SM CLR 19/09 A3012 450 52 1000 080/11 RMK AO2 $
14840KMKG MKG20030718081009507/18/03 08:10:31  5-MIN KMKG 181310Z 07009KT 10SM CLR 19/09 A3012 450 52 1000 080/09 RMK AO2 $
14840KMKG MKG20030718081509507/18/03 08:15:31  5-MIN KMKG 181315Z 07009KT 10SM CLR 19/09 A3012 440 54 1000 070/09 RMK AO2 $
14840KMKG MKG20030718082009507/18/03 08:20:31  5-MIN KMKG 181320Z 06008KT 10SM CLR 19/09 A3013 440 52 1100 060/08 RMK AO2 $
14840KMKG MKG20030718082509507/18/03 08:25:31  5-MIN KMKG 181325Z 06007KT 10SM CLR 20/09 A3013 440 50 1200 060/07 RMK AO2 $
14840KMKG MKG20030718083009507/18/03 08:30:31  5-MIN KMKG 181330Z 08011KT 10SM CLR 20/09 A3013 440 48 1200 090/11 RMK AO2 $
14840KMKG MKG20030718083509507/18/03 08:35:31  5-MIN KMKG 181335Z 08009KT 10SM CLR 20/09 A3012 440 48 1200 080/09 RMK AO2 $
14840KMKG MKG20030718084009507/18/03 08:40:31  5-MIN KMKG 181340Z 07009KT 10SM CLR 20/09 A3012 450 48 1200 070/09 RMK AO2 $
14840KMKG MKG20030718084509507/18/03 08:45:31  5-MIN KMKG 181345Z 08009KT 10SM CLR 21/09 A3012 450 46 1200 090/09 RMK AO2 $
14840KMKG MKG20030718085011207/18/03 08:50:31  5-MIN KMKG 181350Z 08007KT 10SM CLR 20/09 A3012 440 48 1200 090/07 RMK AO2 SLP197 T02000089 $
14840KMKG MKG20030718085511207/18/03 08:55:31  5-MIN KMKG 181355Z 09007KT 10SM CLR 21/09 A3012 440 46 1200 090/07 RMK AO2 SLP197 T02060089 $
14840KMKG MKG20030718090009507/18/03 09:00:31  5-MIN KMKG 181400Z 09011KT 10SM CLR 21/09 A3012 440 46 1200 090/11 RMK AO2 $
14840KMKG MKG20030718090509507/18/03 09:05:31  5-MIN KMKG 181405Z 08011KT 10SM CLR 21/08 A3012 440 45 1200 080/11 RMK AO2 $
14840KMKG MKG20030718091009507/18/03 09:10:31  5-MIN KMKG 181410Z 08009KT 10SM CLR 21/09 A3012 450 46 1200 090/09 RMK AO2 $
14840KMKG MKG20030718091509507/18/03 09:15:31  5-MIN KMKG 181415Z 08010KT 10SM CLR 21/09 A3012 440 45 1300 080/10 RMK AO2 $
14840KMKG MKG20030718092009507/18/03 09:20:31  5-MIN KMKG 181420Z 07009KT 10SM CLR 21/08 A3013 440 43 1300 080/09 RMK AO2 $
14840KMKG MKG20030718092509507/18/03 09:25:31  5-MIN KMKG 181425Z 07010KT 10SM CLR 21/09 A3013 440 45 1300 080/10 RMK AO2 $
14840KMKG MKG20030718093009507/18/03 09:30:31  5-MIN KMKG 181430Z 06010KT 10SM CLR 21/09 A3013 440 45 1300 060/10 RMK AO2 $
14840KMKG MKG20030718093509507/18/03 09:35:31  5-MIN KMKG 181435Z 04010KT 10SM CLR 21/09 A3013 440 45 1300 050/10 RMK AO2 $
14840KMKG MKG20030718094009507/18/03 09:40:31  5-MIN KMKG 181440Z 04009KT 10SM CLR 22/09 A3013 440 43 1400 040/09 RMK AO2 $
14840KMKG MKG20030718094509507/18/03 09:45:31  5-MIN KMKG 181445Z 06009KT 10SM CLR 22/09 A3013 440 43 1400 060/09 RMK AO2 $
14840KMKG MKG20030718095011807/18/03 09:50:31  5-MIN KMKG 181450Z 04012KT 10SM CLR 22/09 A3013 440 43 1400 050/12 RMK AO2 SLP199 T02220094 51006 $
14840KMKG MKG20030718095511807/18/03 09:55:31  5-MIN KMKG 181455Z 05009KT 10SM CLR 22/09 A3013 440 42 1400 050/09 RMK AO2 SLP198 T02220089 51005 $
14840KMKG MKG20030718100010107/18/03 10:00:31  5-MIN KMKG 181500Z 07013G16KT 10SM CLR 22/09 A3012 440 42 1400 080/13G16 RMK AO2 $
14840KMKG MKG20030718100510107/18/03 10:05:31  5-MIN KMKG 181505Z 06007G16KT 10SM CLR 22/09 A3012 440 42 1400 060/07G16 RMK AO2 $
14840KMKG MKG20030718101009507/18/03 10:10:31  5-MIN KMKG 181510Z 08010KT 10SM CLR 22/09 A3012 440 42 1400 090/10 RMK AO2 $
14840KMKG MKG20030718101509507/18/03 10:15:31  5-MIN KMKG 181515Z 07009KT 10SM CLR 22/09 A3013 440 42 1400 070/09 RMK AO2 $
14840KMKG MKG20030718102009507/18/03 10:20:31  5-MIN KMKG 181520Z 07007KT 10SM CLR 22/09 A3013 440 42 1400 070/07 RMK AO2 $
14840KMKG MKG20030718102509507/18/03 10:25:31  5-MIN KMKG 181525Z 05009KT 10SM CLR 23/09 A3013 440 40 1500 060/09 RMK AO2 $
14840KMKG MKG20030718103009507/18/03 10:30:31  5-MIN KMKG 181530Z 04011KT 10SM CLR 23/09 A3013 440 40 1500 050/11 RMK AO2 $
14840KMKG MKG20030718103509507/18/03 10:35:31  5-MIN KMKG 181535Z 04011KT 10SM CLR 23/08 A3013 440 39 1500 040/11 RMK AO2 $
14840KMKG MKG20030718104009507/18/03 10:40:31  5-MIN KMKG 181540Z 05008KT 10SM CLR 23/08 A3013 440 39 1500 050/08 RMK AO2 $
14840KMKG MKG20030718104509507/18/03 10:45:31  5-MIN KMKG 181545Z 07010KT 10SM CLR 23/09 A3013 440 39 1500 070/10 RMK AO2 $
14840KMKG MKG20030718105011207/18/03 10:50:31  5-MIN KMKG 181550Z 03010KT 10SM CLR 23/09 A3013 440 40 1500 030/10 RMK AO2 SLP200 T02280089 $
14840KMKG MKG20030718105512807/18/03 10:55:31  5-MIN KMKG 181555Z 05007KT 020V090 10SM CLR 23/09 A3013 430 39 1500 060/07 020V090 RMK AO2 SLP201 T02330089 $
14840KMKG MKG20030718110009507/18/03 11:00:31  5-MIN KMKG 181600Z 06010KT 10SM CLR 23/09 A3014 430 39 1500 060/10 RMK AO2 $
14840KMKG MKG20030718110509507/18/03 11:05:31  5-MIN KMKG 181605Z 07012KT 10SM CLR 24/08 A3013 430 36 1600 070/12 RMK AO2 $
14840KMKG MKG20030718111010107/18/03 11:10:31  5-MIN KMKG 181610Z 07010G18KT 10SM CLR 23/08 A3013 430 38 1500 070/10G18 RMK AO2 $
14840KMKG MKG20030718111510107/18/03 11:15:31  5-MIN KMKG 181615Z 07012G18KT 10SM CLR 24/08 A3013 430 36 1600 070/12G18 RMK AO2 $
14840KMKG MKG20030718112010107/18/03 11:20:31  5-MIN KMKG 181620Z 06009G16KT 10SM CLR 24/08 A3013 430 36 1600 060/09G16 RMK AO2 $
14840KMKG MKG20030718112509507/18/03 11:25:31  5-MIN KMKG 181625Z 08012KT 10SM CLR 24/09 A3013 430 36 1700 080/12 RMK AO2 $
14840KMKG MKG20030718113009507/18/03 11:30:31  5-MIN KMKG 181630Z 06010KT 10SM CLR 24/09 A3013 430 36 1700 070/10 RMK AO2 $
14840KMKG MKG20030718113510107/18/03 11:35:31  5-MIN KMKG 181635Z 07008G15KT 10SM CLR 24/09 A3013 440 38 1600 080/08G15 RMK AO2 $
14840KMKG MKG20030718114009507/18/03 11:40:31  5-MIN KMKG 181640Z 08011KT 10SM CLR 24/09 A3013 440 38 1600 080/11 RMK AO2 $
14840KMKG MKG20030718114509507/18/03 11:45:31  5-MIN KMKG 181645Z 06007KT 10SM CLR 24/09 A3013 440 38 1600 060/07 RMK AO2 $
14840KMKG MKG20030718115011207/18/03 11:50:31  5-MIN KMKG 181650Z 07008KT 10SM CLR 24/09 A3013 440 38 1600 080/08 RMK AO2 SLP198 T02390089 $
14840KMKG MKG20030718115513407/18/03 11:55:31  5-MIN KMKG 181655Z 06011G15KT 020V090 10SM CLR 24/09 A3012 440 38 1700 060/11G15 020V090 RMK AO2 SLP198 T02440094 $
14840KMKG MKG20030718120009507/18/03 12:00:31  5-MIN KMKG 181700Z 01011KT 10SM CLR 24/09 A3012 450 36 1700 020/11 RMK AO2 $
14840KMKG MKG20030718120509507/18/03 12:05:31  5-MIN KMKG 181705Z 03008KT 10SM CLR 25/09 A3012 440 35 1700 030/08 RMK AO2 $
14840KMKG MKG20030718121010107/18/03 12:10:31  5-MIN KMKG 181710Z 03011G14KT 10SM CLR 25/09 A3012 440 35 1700 030/11G14 RMK AO2 $
14840KMKG MKG20030718121509507/18/03 12:15:31  5-MIN KMKG 181715Z 04008KT 10SM CLR 25/09 A3013 440 35 1700 050/08 RMK AO2 $
14840KMKG MKG20030718122011107/18/03 12:20:31  5-MIN KMKG 181720Z 36008KT 320V030 10SM CLR 24/08 A3012 440 35 1700 360/08 320V030 RMK AO2 $
14840KMKG MKG20030718122511107/18/03 12:25:31  5-MIN KMKG 181725Z 02007KT 340V120 10SM CLR 25/09 A3013 440 35 1700 020/07 340V120 RMK AO2 $
14840KMKG MKG20030718123009507/18/03 12:30:31  5-MIN KMKG 181730Z 04009KT 10SM CLR 25/09 A3012 440 35 1700 040/09 RMK AO2 $
14840KMKG MKG20030718123509507/18/03 12:35:31  5-MIN KMKG 181735Z 03007KT 10SM CLR 25/09 A3012 440 35 1700 030/07 RMK AO2 $
14840KMKG MKG20030718124009507/18/03 12:40:31  5-MIN KMKG 181740Z 01008KT 10SM CLR 26/08 A3012 450 33 1800 020/08 RMK AO2 $
14840KMKG MKG20030718124509507/18/03 12:45:31  5-MIN KMKG 181745Z 02009KT 10SM CLR 26/08 A3012 450 33 1800 020/09 RMK AO2 $
14840KMKG MKG20030718125013007/18/03 12:50:31  5-MIN KMKG 181750Z 04008KT 10SM CLR 25/08 A3011 450 34 1800 040/08 RMK AO2 SLP194 T02500083 10256 20167 51005 $
14840KMKG MKG20030718125513007/18/03 12:55:31  5-MIN KMKG 181755Z 07006KT 10SM CLR 25/09 A3011 460 35 1800 070/06 RMK AO2 SLP193 T02500089 10256 20167 58005 $
14840KMKG MKG20030718130011107/18/03 13:00:31  5-MIN KMKG 181800Z 05008KT 360V090 10SM CLR 25/09 A3011 460 35 1800 060/08 360V090 RMK AO2 $
14840KMKG MKG20030718130510107/18/03 13:05:31  5-MIN KMKG 181805Z 03011G15KT 10SM CLR 26/08 A3011 460 32 1900 030/11G15 RMK AO2 $
14840KMKG MKG20030718131010107/18/03 13:10:31  5-MIN KMKG 181810Z 02008G15KT 10SM CLR 26/08 A3011 460 33 1800 020/08G15 RMK AO2 $
14840KMKG MKG20030718131509507/18/03 13:15:31  5-MIN KMKG 181815Z 36009KT 10SM CLR 26/08 A3011 460 32 1800 010/09 RMK AO2 $
14840KMKG MKG20030718132009507/18/03 13:20:31  5-MIN KMKG 181820Z 00000KT 10SM CLR 26/08 A3011 460 32 1800 000/00 RMK AO2 $
14840KMKG MKG20030718132511107/18/03 13:25:31  5-MIN KMKG 181825Z 02008KT 330V050 10SM CLR 26/08 A3011 460 32 1800 020/08 330V050 RMK AO2 $
14840KMKG MKG20030718133009507/18/03 13:30:31  5-MIN KMKG 181830Z 08008KT 10SM CLR 26/08 A3011 460 32 1800 080/08 RMK AO2 $
14840KMKG MKG20030718133510107/18/03 13:35:31  5-MIN KMKG 181835Z 04009G14KT 10SM CLR 26/08 A3011 460 32 1900 040/09G14 RMK AO2 $
14840KMKG MKG20030718134010107/18/03 13:40:31  5-MIN KMKG 181840Z VRB05G14KT 10SM CLR 26/08 A3011 460 32 1800 VRB/05G14 RMK AO2 $
14840KMKG MKG20030718134511107/18/03 13:45:31  5-MIN KMKG 181845Z 04008KT 010V080 10SM CLR 26/08 A3010 460 32 1800 040/08 010V080 RMK AO2 $
14840KMKG MKG20030718135011207/18/03 13:50:31  5-MIN KMKG 181850Z 02007KT 10SM CLR 26/08 A3011 460 32 1800 030/07 RMK AO2 SLP192 T02560078 $
14840KMKG MKG20030718135511807/18/03 13:55:31  5-MIN KMKG 181855Z 03010G14KT 10SM CLR 26/08 A3011 460 32 1800 040/10G14 RMK AO2 SLP192 T02560078 $
14840KMKG MKG20030718140010107/18/03 14:00:31  5-MIN KMKG 181900Z VRB06G14KT 10SM CLR 26/08 A3010 460 32 1900 VRB/06G14 RMK AO2 $
14840KMKG MKG20030718140509507/18/03 14:05:31  5-MIN KMKG 181905Z 08007KT 10SM CLR 26/08 A3010 460 33 1800 080/07 RMK AO2 $
14840KMKG MKG20030718141009507/18/03 14:10:31  5-MIN KMKG 181910Z 00000KT 10SM CLR 26/08 A3010 460 32 1800 000/00 RMK AO2 $
14840KMKG MKG20030718141509507/18/03 14:15:31  5-MIN KMKG 181915Z VRB03KT 10SM CLR 26/08 A3010 470 32 1800 VRB/03 RMK AO2 $
14840KMKG MKG20030718142009507/18/03 14:20:31  5-MIN KMKG 181920Z 03009KT 10SM CLR 26/08 A3010 470 32 1900 030/09 RMK AO2 $
14840KMKG MKG20030718142511107/18/03 14:25:31  5-MIN KMKG 181925Z 32009KT 290V010 10SM CLR 27/09 A3009 470 33 2000 320/09 290V010 RMK AO2 $
14840KMKG MKG20030718143009507/18/03 14:30:31  5-MIN KMKG 181930Z 30009KT 10SM CLR 25/13 A3009 470 48 1800 300/09 RMK AO2 $
14840KMKG MKG20030718143509507/18/03 14:35:31  5-MIN KMKG 181935Z 29008KT 10SM CLR 25/13 A3009 470 46 1800 290/08 RMK AO2 $
14840KMKG MKG20030718144009507/18/03 14:40:31  5-MIN KMKG 181940Z 27009KT 10SM CLR 26/13 A3009 480 46 1800 270/09 RMK AO2 $
14840KMKG MKG20030718144509507/18/03 14:45:31  5-MIN KMKG 181945Z 27013KT 10SM CLR 26/13 A3009 480 44 1800 270/13 RMK AO2 $
14840KMKG MKG20030718145011207/18/03 14:50:31  5-MIN KMKG 181950Z 26012KT 10SM CLR 26/13 A3008 480 44 1800 260/12 RMK AO2 SLP184 T02560128 $
14840KMKG MKG20030718145511207/18/03 14:55:31  5-MIN KMKG 181955Z 28010KT 10SM CLR 26/13 A3008 480 44 1900 280/10 RMK AO2 SLP184 T02560128 $
14840KMKG MKG20030718150009507/18/03 15:00:31  5-MIN KMKG 182000Z 28010KT 10SM CLR 26/13 A3008 480 44 1900 280/10 RMK AO2 $
14840KMKG MKG20030718150509507/18/03 15:05:31  5-MIN KMKG 182005Z 28010KT 10SM CLR 26/13 A3008 480 44 1900 280/10 RMK AO2 $
14840KMKG MKG20030718151009507/18/03 15:10:31  5-MIN KMKG 182010Z 28010KT 10SM CLR 26/13 A3008 480 44 1900 280/10 RMK AO2 $
14840KMKG MKG20030718151509507/18/03 15:15:31  5-MIN KMKG 182015Z 28010KT 10SM CLR 26/13 A3008 480 44 1900 280/10 RMK AO2 $
14840KMKG MKG20030718152009507/18/03 15:20:31  5-MIN KMKG 182020Z 28010KT 10SM CLR 26/13 A3008 480 44 1900 280/10 RMK AO2 $
14840KMKG MKG20030718152509507/18/03 15:25:31  5-MIN KMKG 182025Z 28010KT 10SM CLR 26/13 A3008 480 44 1900 280/10 RMK AO2 $
14840KMKG MKG20030718153009507/18/03 15:30:31  5-MIN KMKG 182030Z 28010KT 10SM CLR 26/13 A3008 480 44 1900 280/10 RMK AO2 $
14840KMKG MKG20030718153509507/18/03 15:35:31  5-MIN KMKG 182035Z 28010KT 10SM CLR 26/13 A3008 480 44 1800 280/10 RMK AO2 $
14840KMKG MKG20030718154009507/18/03 15:40:31  5-MIN KMKG 182040Z 28010KT 10SM CLR 26/13 A3008 480 44 1900 280/10 RMK AO2 $
14840KMKG MKG20030718154509507/18/03 15:45:31  5-MIN KMKG 182045Z 28010KT 10SM CLR 26/13 A3008 480 44 1900 280/10 RMK AO2 $
14840KMKG MKG20030718155011807/18/03 15:50:31  5-MIN KMKG 182050Z 28010KT 10SM CLR 28/14 A3008 480 40 2100 280/10 RMK AO2 SLP183 T02780136 58005 $
14840KMKG MKG20030718155511807/18/03 15:55:31  5-MIN KMKG 182055Z 28011KT 10SM CLR 28/14 A3008 480 40 2100 280/11 RMK AO2 SLP183 T02780136 56009 $
14840KMKG MKG20030718160009507/18/03 16:00:31  5-MIN KMKG 182100Z 28011KT 10SM CLR 28/13 A3008 490 39 2100 280/11 RMK AO2 $
14840KMKG MKG20030718160509507/18/03 16:05:31  5-MIN KMKG 182105Z 28011KT 10SM CLR 28/13 A3007 490 39 2100 280/11 RMK AO2 $
14840KMKG MKG20030718161009507/18/03 16:10:31  5-MIN KMKG 182110Z 28011KT 10SM CLR 28/13 A3007 490 39 2100 280/11 RMK AO2 $
14840KMKG MKG20030718161509507/18/03 16:15:31  5-MIN KMKG 182115Z 28011KT 10SM CLR 28/13 A3007 490 39 2100 280/11 RMK AO2 $
14840KMKG MKG20030718162009507/18/03 16:20:31  5-MIN KMKG 182120Z 28011KT 10SM CLR 28/13 A3007 490 39 2100 280/11 RMK AO2 $
14840KMKG MKG20030718162509507/18/03 16:25:31  5-MIN KMKG 182125Z 28011KT 10SM CLR 28/13 A3007 490 39 2100 280/11 RMK AO2 $
14840KMKG MKG20030718163009507/18/03 16:30:31  5-MIN KMKG 182130Z 28011KT 10SM CLR 28/13 A3008 490 39 2100 280/11 RMK AO2 $
14840KMKG MKG20030718163509507/18/03 16:35:31  5-MIN KMKG 182135Z 28011KT 10SM CLR 28/13 A3008 490 39 2100 280/11 RMK AO2 $
14840KMKG MKG20030718164009507/18/03 16:40:31  5-MIN KMKG 182140Z 28011KT 10SM CLR 28/13 A3007 490 39 2100 280/11 RMK AO2 $
14840KMKG MKG20030718164509507/18/03 16:45:31  5-MIN KMKG 182145Z 28011KT 10SM CLR 28/13 A3007 490 39 2100 280/11 RMK AO2 $
14840KMKG MKG20030718165011207/18/03 16:50:31  5-MIN KMKG 182150Z 28011KT 10SM CLR 28/11 A3007 490 33 2100 280/11 RMK AO2 SLP179 T02780106 $
14840KMKG MKG20030718165511207/18/03 16:55:31  5-MIN KMKG 182155Z 05009KT 10SM CLR 28/11 A3007 490 33 2100 050/09 RMK AO2 SLP179 T02780106 $
14840KMKG MKG20030718170009507/18/03 17:00:31  5-MIN KMKG 182200Z 05009KT 10SM CLR 28/11 A3007 490 33 2100 050/09 RMK AO2 $
14840KMKG MKG20030718170509507/18/03 17:05:31  5-MIN KMKG 182205Z 05009KT 10SM CLR 28/11 A3006 500 33 2100 050/09 RMK AO2 $
14840KMKG MKG20030718171009507/18/03 17:10:31  5-MIN KMKG 182210Z 05009KT 10SM CLR 28/11 A3006 500 33 2100 050/09 RMK AO2 $
14840KMKG MKG20030718171509507/18/03 17:15:31  5-MIN KMKG 182215Z 05009KT 10SM CLR 28/11 A3007 500 33 2100 050/09 RMK AO2 $
14840KMKG MKG20030718172009507/18/03 17:20:31  5-MIN KMKG 182220Z 05009KT 10SM CLR 28/11 A3006 500 33 2100 050/09 RMK AO2 $
14840KMKG MKG20030718172509507/18/03 17:25:31  5-MIN KMKG 182225Z 05009KT 10SM CLR 28/11 A3006 500 33 2100 050/09 RMK AO2 $
14840KMKG MKG20030718173009507/18/03 17:30:31  5-MIN KMKG 182230Z 05009KT 10SM CLR 28/11 A3006 500 33 2100 050/09 RMK AO2 $
14840KMKG MKG20030718173509507/18/03 17:35:31  5-MIN KMKG 182235Z 05009KT 10SM CLR 28/11 A3006 500 33 2100 050/09 RMK AO2 $
14840KMKG MKG20030718174009507/18/03 17:40:31  5-MIN KMKG 182240Z 05009KT 10SM CLR 28/11 A3006 500 33 2100 050/09 RMK AO2 $
14840KMKG MKG20030718174509507/18/03 17:45:31  5-MIN KMKG 182245Z 05009KT 10SM CLR 28/11 A3006 500 33 2100 050/09 RMK AO2 $
14840KMKG MKG20030718175011207/18/03 17:50:31  5-MIN KMKG 182250Z 03008KT 10SM CLR 27/10 A3006 500 32 2100 030/08 RMK AO2 SLP177 T02720097 $
14840KMKG MKG20030718175511207/18/03 17:55:31  5-MIN KMKG 182255Z 03008KT 10SM CLR 27/10 A3007 500 32 2100 030/08 RMK AO2 SLP178 T02720097 $
14840KMKG MKG20030718180009507/18/03 18:00:31  5-MIN KMKG 182300Z 03008KT 10SM CLR 27/10 A3006 500 32 2100 030/08 RMK AO2 $
14840KMKG MKG20030718180509507/18/03 18:05:31  5-MIN KMKG 182305Z 03008KT 10SM CLR 27/10 A3006 500 32 2100 030/08 RMK AO2 $
14840KMKG MKG20030718181009507/18/03 18:10:31  5-MIN KMKG 182310Z 03008KT 10SM CLR 27/10 A3006 500 32 2100 030/08 RMK AO2 $
14840KMKG MKG20030718181509507/18/03 18:15:31  5-MIN KMKG 182315Z 03008KT 10SM CLR 27/10 A3007 500 32 2100 030/08 RMK AO2 $
14840KMKG MKG20030718182009507/18/03 18:20:31  5-MIN KMKG 182320Z 03008KT 10SM CLR 27/10 A3007 500 32 2100 030/08 RMK AO2 $
14840KMKG MKG20030718182509507/18/03 18:25:31  5-MIN KMKG 182325Z 03008KT 10SM CLR 27/10 A3007 490 32 2100 030/08 RMK AO2 $
14840KMKG MKG20030718183009507/18/03 18:30:31  5-MIN KMKG 182330Z 03008KT 10SM CLR 27/10 A3007 490 32 2100 030/08 RMK AO2 $
14840KMKG MKG20030718183509507/18/03 18:35:31  5-MIN KMKG 182335Z 03008KT 10SM CLR 27/10 A3008 490 32 2000 030/08 RMK AO2 $
14840KMKG MKG20030718184009507/18/03 18:40:31  5-MIN KMKG 182340Z 03008KT 10SM CLR 27/10 A3007 490 32 2000 030/08 RMK AO2 $
14840KMKG MKG20030718184509307/18/03 18:45:31  5-MIN KMKG 182345Z 03008KT 10SM CLR 27/10 A3007 490 32 2000 030/08 RMK AO2
14840KMKG MKG20030718185013407/18/03 18:50:31  5-MIN KMKG 182350Z 36013KT 10SM CLR 24/09 A3007 490 38 1700 010/13 RMK AO2 SLP182 6//// T02440094 10278 20244 56009
14840KMKG MKG20030718185512807/18/03 18:55:31  5-MIN KMKG 182355Z 36013KT 10SM CLR 24/09 A3008 490 38 1700 010/13 RMK AO2 SLP183 T02440094 10278 20244 55001
14840KMKG MKG20030718190009307/18/03 19:00:31  5-MIN KMKG 190000Z 02010KT 10SM CLR 24/09 A3008 480 38 1700 020/10 RMK AO2
14840KMKG MKG20030718190509307/18/03 19:05:31  5-MIN KMKG 190005Z 36013KT 10SM CLR 24/08 A3008 480 36 1700 360/13 RMK AO2
14840KMKG MKG20030718191009307/18/03 19:10:31  5-MIN KMKG 190010Z 36012KT 10SM CLR 23/08 A3008 480 38 1600 360/12 RMK AO2
14840KMKG MKG20030718191509307/18/03 19:15:31  5-MIN KMKG 190015Z 35012KT 10SM CLR 23/08 A3008 480 36 1600 360/12 RMK AO2
14840KMKG MKG20030718192009307/18/03 19:20:31  5-MIN KMKG 190020Z 36008KT 10SM CLR 23/08 A3008 480 36 1600 010/08 RMK AO2
14840KMKG MKG20030718192509307/18/03 19:25:31  5-MIN KMKG 190025Z 01009KT 10SM CLR 23/08 A3009 480 37 1500 010/09 RMK AO2
14840KMKG MKG20030718193009307/18/03 19:30:31  5-MIN KMKG 190030Z 01012KT 10SM CLR 23/07 A3009 480 36 1500 010/12 RMK AO2
14840KMKG MKG20030718193509307/18/03 19:35:31  5-MIN KMKG 190035Z 36011KT 10SM CLR 23/07 A3009 480 36 1500 010/11 RMK AO2
14840KMKG MKG20030718194009307/18/03 19:40:31  5-MIN KMKG 190040Z 01011KT 10SM CLR 23/07 A3009 480 36 1500 020/11 RMK AO2
14840KMKG MKG20030718194509307/18/03 19:45:31  5-MIN KMKG 190045Z 01010KT 10SM CLR 22/07 A3009 470 37 1500 010/10 RMK AO2
14840KMKG MKG20030718195011007/18/03 19:50:31  5-MIN KMKG 190050Z 36009KT 10SM CLR 22/07 A3009 470 37 1500 360/09 RMK AO2 SLP188 T02220072
14840KMKG MKG20030718195511007/18/03 19:55:31  5-MIN KMKG 190055Z 36009KT 10SM CLR 22/07 A3009 470 37 1500 010/09 RMK AO2 SLP188 T02220072
14840KMKG MKG20030718200009307/18/03 20:00:31  5-MIN KMKG 190100Z 36011KT 10SM CLR 22/07 A3009 470 36 1500 010/11 RMK AO2
14840KMKG MKG20030718200509907/18/03 20:05:31  5-MIN KMKG 190105Z 01010G18KT 10SM CLR 22/06 A3009 470 35 1500 010/10G18 RMK AO2
14840KMKG MKG20030718201009907/18/03 20:10:31  5-MIN KMKG 190110Z 36011G18KT 10SM CLR 22/06 A3009 470 36 1400 010/11G18 RMK AO2
14840KMKG MKG20030718201509307/18/03 20:15:31  5-MIN KMKG 190115Z 36009KT 10SM CLR 22/06 A3010 470 36 1400 360/09 RMK AO2
14840KMKG MKG20030718202009307/18/03 20:20:31  5-MIN KMKG 190120Z 01008KT 10SM CLR 21/06 A3010 470 37 1300 010/08 RMK AO2
14840KMKG MKG20030718202509307/18/03 20:25:31  5-MIN KMKG 190125Z 01007KT 10SM CLR 21/06 A3009 470 37 1300 010/07 RMK AO2
14840KMKG MKG20030718203009307/18/03 20:30:31  5-MIN KMKG 190130Z 01007KT 10SM CLR 21/06 A3009 470 37 1300 020/07 RMK AO2
14840KMKG MKG20030718203509307/18/03 20:35:31  5-MIN KMKG 190135Z 01008KT 10SM CLR 21/06 A3009 470 38 1300 010/08 RMK AO2
14840KMKG MKG20030718204008107/18/03 20:40:31  5-MIN KMKG 190140Z 10SM 21/06 A3009 470 38 1300 M /M RMK AO2 $
14840KMKG MKG20030718204509507/18/03 20:45:31  5-MIN KMKG 190145Z 35012KT 10SM CLR 21/06 A3010 470 38 1300 350/12 RMK AO2 $
14840KMKG MKG20030718205011207/18/03 20:50:31  5-MIN KMKG 190150Z 02006KT 10SM CLR 20/06 A3010 470 40 1200 020/06 RMK AO2 SLP190 T02000061 $
14840KMKG MKG20030718205511207/18/03 20:55:31  5-MIN KMKG 190155Z 01005KT 10SM CLR 19/06 A3010 470 41 1100 020/05 RMK AO2 SLP190 T01940061 $
14840KMKG MKG20030718210009507/18/03 21:00:31  5-MIN KMKG 190200Z 01006KT 10SM CLR 20/06 A3010 470 40 1200 010/06 RMK AO2 $
14840KMKG MKG20030718210509507/18/03 21:05:31  5-MIN KMKG 190205Z 02005KT 10SM CLR 20/06 A3010 470 40 1200 020/05 RMK AO2 $
14840KMKG MKG20030718211009507/18/03 21:10:31  5-MIN KMKG 190210Z 01004KT 10SM CLR 20/06 A3010 470 40 1200 020/04 RMK AO2 $
14840KMKG MKG20030718211509507/18/03 21:15:31  5-MIN KMKG 190215Z 01004KT 10SM CLR 20/06 A3010 460 40 1200 010/04 RMK AO2 $
14840KMKG MKG20030718212009507/18/03 21:20:31  5-MIN KMKG 190220Z 01004KT 10SM CLR 19/06 A3010 460 41 1100 020/04 RMK AO2 $
14840KMKG MKG20030718212509507/18/03 21:25:31  5-MIN KMKG 190225Z 01004KT 10SM CLR 19/07 A3010 460 43 1100 010/04 RMK AO2 $
14840KMKG MKG20030718213009507/18/03 21:30:31  5-MIN KMKG 190230Z 01004KT 10SM CLR 19/07 A3011 460 43 1100 020/04 RMK AO2 $
14840KMKG MKG20030718213509507/18/03 21:35:31  5-MIN KMKG 190235Z 01005KT 10SM CLR 19/07 A3011 460 44 1100 010/05 RMK AO2 $
14840KMKG MKG20030718214009507/18/03 21:40:31  5-MIN KMKG 190240Z 36005KT 10SM CLR 19/07 A3011 460 44 1100 010/05 RMK AO2 $
14840KMKG MKG20030718214509507/18/03 21:45:31  5-MIN KMKG 190245Z 01005KT 10SM CLR 19/07 A3011 460 44 1100 010/05 RMK AO2 $
14840KMKG MKG20030718215011807/18/03 21:50:31  5-MIN KMKG 190250Z 36006KT 10SM CLR 19/07 A3011 460 44 1100 010/06 RMK AO2 SLP193 T01890067 55001 $
14840KMKG MKG20030718215511807/18/03 21:55:31  5-MIN KMKG 190255Z 01005KT 10SM CLR 19/07 A3011 460 44 1100 010/05 RMK AO2 SLP193 T01890067 51010 $
14840KMKG MKG20030718220009507/18/03 22:00:31  5-MIN KMKG 190300Z 01006KT 10SM CLR 18/07 A3011 460 46 1000 020/06 RMK AO2 $
14840KMKG MKG20030718220509507/18/03 22:05:31  5-MIN KMKG 190305Z 01006KT 10SM CLR 19/07 A3011 460 44 1100 020/06 RMK AO2 $
14840KMKG MKG20030718221009507/18/03 22:10:31  5-MIN KMKG 190310Z 01005KT 10SM CLR 18/07 A3011 460 46 1000 020/05 RMK AO2 $
14840KMKG MKG20030718221509507/18/03 22:15:31  5-MIN KMKG 190315Z 01005KT 10SM CLR 18/07 A3011 460 46 1000 020/05 RMK AO2 $
14840KMKG MKG20030718222009507/18/03 22:20:31  5-MIN KMKG 190320Z 01006KT 10SM CLR 18/07 A3011 460 46 1000 020/06 RMK AO2 $
14840KMKG MKG20030718222509507/18/03 22:25:31  5-MIN KMKG 190325Z 03004KT 10SM CLR 18/07 A3011 460 48 1000 030/04 RMK AO2 $
14840KMKG MKG20030718223009407/18/03 22:30:31  5-MIN KMKG 190330Z 03006KT 10SM CLR 18/07 A3011 460 49 900 030/06 RMK AO2 $
14840KMKG MKG20030718223509407/18/03 22:35:31  5-MIN KMKG 190335Z 02004KT 10SM CLR 18/07 A3011 460 49 900 020/04 RMK AO2 $
14840KMKG MKG20030718224009407/18/03 22:40:31  5-MIN KMKG 190340Z 02005KT 10SM CLR 18/07 A3011 460 49 900 020/05 RMK AO2 $
14840KMKG MKG20030718224509407/18/03 22:45:31  5-MIN KMKG 190345Z 02004KT 10SM CLR 18/07 A3011 450 49 900 020/04 RMK AO2 $
14840KMKG MKG20030718225011107/18/03 22:50:31  5-MIN KMKG 190350Z 02004KT 10SM CLR 18/07 A3011 460 49 900 020/04 RMK AO2 SLP194 T01780072 $
14840KMKG MKG20030718225511107/18/03 22:55:31  5-MIN KMKG 190355Z 03003KT 10SM CLR 18/07 A3011 460 49 900 030/03 RMK AO2 SLP194 T01780072 $
14840KMKG MKG20030718230009407/18/03 23:00:31  5-MIN KMKG 190400Z 03004KT 10SM CLR 18/08 A3011 460 51 900 040/04 RMK AO2 $
14840KMKG MKG20030718230509407/18/03 23:05:31  5-MIN KMKG 190405Z 03004KT 10SM CLR 17/07 A3011 460 51 900 030/04 RMK AO2 $
14840KMKG MKG20030718231009407/18/03 23:10:31  5-MIN KMKG 190410Z 03005KT 10SM CLR 17/08 A3011 460 53 900 030/05 RMK AO2 $
14840KMKG MKG20030718231509407/18/03 23:15:31  5-MIN KMKG 190415Z 02005KT 10SM CLR 17/08 A3011 460 55 800 030/05 RMK AO2 $
14840KMKG MKG20030718232009407/18/03 23:20:31  5-MIN KMKG 190420Z 01007KT 10SM CLR 17/08 A3011 450 55 800 010/07 RMK AO2 $
14840KMKG MKG20030718232509407/18/03 23:25:31  5-MIN KMKG 190425Z 36007KT 10SM CLR 16/08 A3011 450 57 700 010/07 RMK AO2 $
14840KMKG MKG20030718233009407/18/03 23:30:31  5-MIN KMKG 190430Z 36008KT 10SM CLR 16/08 A3012 450 59 700 010/08 RMK AO2 $
14840KMKG MKG20030718233509407/18/03 23:35:31  5-MIN KMKG 190435Z 36008KT 10SM CLR 17/08 A3012 450 53 900 010/08 RMK AO2 $
14840KMKG MKG20030718234009407/18/03 23:40:31  5-MIN KMKG 190440Z 36007KT 10SM CLR 17/08 A3012 450 55 800 360/07 RMK AO2 $
14840KMKG MKG20030718234509407/18/03 23:45:31  5-MIN KMKG 190445Z 35006KT 10SM CLR 17/08 A3012 450 55 800 360/06 RMK AO2 $
14840KMKG MKG20030718235012107/18/03 23:50:31  5-MIN KMKG 190450Z 35007KT 10SM CLR 16/08 A3012 440 57 700 350/07 RMK AO2 SLP198 T01610078 402780156 $
14840KMKG MKG20030718235512107/18/03 23:55:31  5-MIN KMKG 190455Z 36008KT 10SM CLR 17/08 A3012 440 55 800 360/08 RMK AO2 SLP198 T01670078 402780156 $
14840KMKG MKG20030719000009407/19/03 00:00:32  5-MIN KMKG 190500Z 36006KT 10SM CLR 17/08 A3012 450 55 800 360/06 RMK AO2 $
14840KMKG MKG20030719000509407/19/03 00:05:31  5-MIN KMKG 190505Z 36006KT 10SM CLR 16/08 A3012 450 57 700 010/06 RMK AO2 $
14840KMKG MKG20030719001009407/19/03 00:10:31  5-MIN KMKG 190510Z 36007KT 10SM CLR 16/08 A3012 450 59 700 010/07 RMK AO2 $
14840KMKG MKG20030719001509407/19/03 00:15:31  5-MIN KMKG 190515Z 01006KT 10SM CLR 16/08 A3012 450 59 700 010/06 RMK AO2 $
14840KMKG MKG20030719002009407/19/03 00:20:31  5-MIN KMKG 190520Z 01006KT 10SM CLR 16/08 A3012 450 62 700 010/06 RMK AO2 $
14840KMKG MKG20030719002509407/19/03 00:25:31  5-MIN KMKG 190525Z 02005KT 10SM CLR 16/08 A3012 450 62 700 020/05 RMK AO2 $
14840KMKG MKG20030719003009407/19/03 00:30:31  5-MIN KMKG 190530Z 03005KT 10SM CLR 16/08 A3012 450 62 700 030/05 RMK AO2 $
14840KMKG MKG20030719003509407/19/03 00:35:31  5-MIN KMKG 190535Z 02005KT 10SM CLR 16/08 A3011 450 62 700 030/05 RMK AO2 $
14840KMKG MKG20030719004009407/19/03 00:40:31  5-MIN KMKG 190540Z 02005KT 10SM CLR 16/08 A3011 450 62 700 020/05 RMK AO2 $
14840KMKG MKG20030719004509407/19/03 00:45:31  5-MIN KMKG 190545Z 03005KT 10SM CLR 16/08 A3011 450 62 700 030/05 RMK AO2 $
14840KMKG MKG20030719005013507/19/03 00:50:31  5-MIN KMKG 190550Z 03004KT 10SM CLR 16/08 A3011 450 62 700 030/04 RMK AO2 SLP195 6//// T01560083 10239 20156 51010 $
14840KMKG MKG20030719005513507/19/03 00:55:31  5-MIN KMKG 190555Z 03004KT 10SM CLR 14/08 A3011 450 69 500 030/04 RMK AO2 SLP194 6//// T01390083 10239 20139 50001 $
14840KMKG MKG20030719010009407/19/03 01:00:31  5-MIN KMKG 190600Z 03004KT 10SM CLR 14/08 A3011 450 69 500 030/04 RMK AO2 $
14840KMKG MKG20030719010509407/19/03 01:05:31  5-MIN KMKG 190605Z 03004KT 10SM CLR 14/08 A3011 450 69 500 030/04 RMK AO2 $
14840KMKG MKG20030719011009407/19/03 01:10:31  5-MIN KMKG 190610Z 00000KT 10SM CLR 14/08 A3011 450 69 500 000/00 RMK AO2 $
14840KMKG MKG20030719011509407/19/03 01:15:31  5-MIN KMKG 190615Z 00000KT 10SM CLR 14/08 A3011 450 69 500 000/00 RMK AO2 $
14840KMKG MKG20030719012009407/19/03 01:20:31  5-MIN KMKG 190620Z 00000KT 10SM CLR 14/08 A3011 450 69 500 000/00 RMK AO2 $
14840KMKG MKG20030719012509407/19/03 01:25:31  5-MIN KMKG 190625Z 00000KT 10SM CLR 14/08 A3011 450 69 500 000/00 RMK AO2 $
14840KMKG MKG20030719013009407/19/03 01:30:31  5-MIN KMKG 190630Z 00000KT 10SM CLR 14/08 A3012 450 69 500 000/00 RMK AO2 $
14840KMKG MKG20030719013509407/19/03 01:35:31  5-MIN KMKG 190635Z 00000KT 10SM CLR 14/08 A3012 450 69 500 000/00 RMK AO2 $
14840KMKG MKG20030719014009407/19/03 01:40:31  5-MIN KMKG 190640Z 00000KT 10SM CLR 14/08 A3012 450 69 500 000/00 RMK AO2 $
14840KMKG MKG20030719014509407/19/03 01:45:31  5-MIN KMKG 190645Z 00000KT 10SM CLR 14/08 A3012 450 69 500 000/00 RMK AO2 $
14840KMKG MKG20030719015011107/19/03 01:50:31  5-MIN KMKG 190650Z 00000KT 10SM CLR 14/08 A3012 450 69 500 000/00 RMK AO2 SLP198 T01390083 $
14840KMKG MKG20030719015511107/19/03 01:55:31  5-MIN KMKG 190655Z 00000KT 10SM CLR 14/08 A3012 440 69 500 000/00 RMK AO2 SLP198 T01390083 $
14840KMKG MKG20030719020009407/19/03 02:00:31  5-MIN KMKG 190700Z 00000KT 10SM CLR 14/08 A3012 450 69 500 000/00 RMK AO2 $
14840KMKG MKG20030719020509407/19/03 02:05:31  5-MIN KMKG 190705Z 00000KT 10SM CLR 15/08 A3012 450 64 600 000/00 RMK AO2 $
14840KMKG MKG20030719021009407/19/03 02:10:31  5-MIN KMKG 190710Z 00000KT 10SM CLR 15/08 A3012 440 64 600 000/00 RMK AO2 $
14840KMKG MKG20030719021509407/19/03 02:15:31  5-MIN KMKG 190715Z 00000KT 10SM CLR 14/08 A3012 440 66 500 000/00 RMK AO2 $
14840KMKG MKG20030719022009407/19/03 02:20:31  5-MIN KMKG 190720Z 00000KT 10SM CLR 14/08 A3012 450 69 500 000/00 RMK AO2 $
14840KMKG MKG20030719022509407/19/03 02:25:31  5-MIN KMKG 190725Z 00000KT 10SM CLR 13/08 A3012 450 71 400 000/00 RMK AO2 $
14840KMKG MKG20030719023009407/19/03 02:30:31  5-MIN KMKG 190730Z 00000KT 10SM CLR 12/08 A3012 450 77 300 000/00 RMK AO2 $
14840KMKG MKG20030719023509407/19/03 02:35:31  5-MIN KMKG 190735Z 00000KT 10SM CLR 12/08 A3011 450 80 200 000/00 RMK AO2 $
14840KMKG MKG20030719024009407/19/03 02:40:31  5-MIN KMKG 190740Z 00000KT 10SM CLR 12/08 A3011 450 80 200 000/00 RMK AO2 $
14840KMKG MKG20030719024509407/19/03 02:45:31  5-MIN KMKG 190745Z 00000KT 10SM CLR 12/08 A3011 450 77 300 000/00 RMK AO2 $
14840KMKG MKG20030719025011107/19/03 02:50:31  5-MIN KMKG 190750Z 06003KT 10SM CLR 12/08 A3011 460 77 300 070/03 RMK AO2 SLP195 T01220083 $
14840KMKG MKG20030719025511107/19/03 02:55:31  5-MIN KMKG 190755Z 00000KT 10SM CLR 13/08 A3011 460 71 400 000/00 RMK AO2 SLP194 T01330083 $
14840KMKG MKG20030719030009407/19/03 03:00:31  5-MIN KMKG 190800Z 00000KT 10SM CLR 13/08 A3011 460 74 300 000/00 RMK AO2 $
14840KMKG MKG20030719030509407/19/03 03:05:31  5-MIN KMKG 190805Z 00000KT 10SM CLR 12/08 A3011 460 77 300 000/00 RMK AO2 $
14840KMKG MKG20030719031009407/19/03 03:10:31  5-MIN KMKG 190810Z 00000KT 10SM CLR 12/08 A3011 460 77 300 000/00 RMK AO2 $
14840KMKG MKG20030719031509407/19/03 03:15:31  5-MIN KMKG 190815Z 00000KT 10SM CLR 12/08 A3011 460 77 300 000/00 RMK AO2 $
14840KMKG MKG20030719032009407/19/03 03:20:31  5-MIN KMKG 190820Z 00000KT 10SM CLR 12/08 A3011 460 80 200 000/00 RMK AO2 $
14840KMKG MKG20030719032509407/19/03 03:25:31  5-MIN KMKG 190825Z 00000KT 10SM CLR 12/08 A3011 460 80 200 000/00 RMK AO2 $
14840KMKG MKG20030719033009407/19/03 03:30:31  5-MIN KMKG 190830Z 00000KT 10SM CLR 12/08 A3011 450 77 300 000/00 RMK AO2 $
14840KMKG MKG20030719033509407/19/03 03:35:31  5-MIN KMKG 190835Z 00000KT 10SM CLR 12/08 A3011 450 77 300 000/00 RMK AO2 $
14840KMKG MKG20030719034009407/19/03 03:40:31  5-MIN KMKG 190840Z 00000KT 10SM CLR 12/08 A3011 450 80 200 000/00 RMK AO2 $
14840KMKG MKG20030719034509407/19/03 03:45:31  5-MIN KMKG 190845Z 00000KT 10SM CLR 12/08 A3011 450 77 300 000/00 RMK AO2 $
14840KMKG MKG20030719035011707/19/03 03:50:31  5-MIN KMKG 190850Z 00000KT 10SM CLR 12/08 A3011 450 77 300 000/00 RMK AO2 SLP195 T01220083 50001 $
14840KMKG MKG20030719035511707/19/03 03:55:31  5-MIN KMKG 190855Z 00000KT 10SM CLR 12/08 A3011 450 77 300 000/00 RMK AO2 SLP195 T01220083 51000 $
14840KMKG MKG20030719040009407/19/03 04:00:31  5-MIN KMKG 190900Z 00000KT 10SM CLR 11/08 A3011 450 83 100 000/00 RMK AO2 $
14840KMKG MKG20030719040509407/19/03 04:05:31  5-MIN KMKG 190905Z 00000KT 10SM CLR 11/08 A3011 450 86 100 000/00 RMK AO2 $
14840KMKG MKG20030719041009407/19/03 04:10:31  5-MIN KMKG 190910Z 00000KT 10SM CLR 11/08 A3012 450 86 100 000/00 RMK AO2 $
14840KMKG MKG20030719041509407/19/03 04:15:31  5-MIN KMKG 190915Z 00000KT 10SM CLR 11/08 A3012 450 86 100 000/00 RMK AO2 $
14840KMKG MKG20030719042009407/19/03 04:20:31  5-MIN KMKG 190920Z 00000KT 10SM CLR 11/08 A3012 450 86 100 000/00 RMK AO2 $
14840KMKG MKG20030719042509407/19/03 04:25:31  5-MIN KMKG 190925Z 00000KT 10SM CLR 11/08 A3012 450 83 100 000/00 RMK AO2 $
14840KMKG MKG20030719043009407/19/03 04:30:31  5-MIN KMKG 190930Z 00000KT 10SM CLR 11/08 A3012 450 83 100 000/00 RMK AO2 $
14840KMKG MKG20030719043509407/19/03 04:35:31  5-MIN KMKG 190935Z 00000KT 10SM CLR 11/08 A3011 450 83 100 000/00 RMK AO2 $
14840KMKG MKG20030719044009407/19/03 04:40:31  5-MIN KMKG 190940Z 00000KT 10SM CLR 11/09 A3011 450 86 100 000/00 RMK AO2 $
14840KMKG MKG20030719044509407/19/03 04:45:31  5-MIN KMKG 190945Z 00000KT 10SM CLR 11/09 A3011 450 86 100 000/00 RMK AO2 $
14840KMKG MKG20030719045011107/19/03 04:50:31  5-MIN KMKG 190950Z 00000KT 10SM CLR 11/08 A3011 450 83 100 000/00 RMK AO2 SLP195 T01110083 $
14840KMKG MKG20030719045511107/19/03 04:55:31  5-MIN KMKG 190955Z 00000KT 10SM CLR 11/08 A3012 450 83 100 000/00 RMK AO2 SLP196 T01110083 $
14840KMKG MKG20030719050009407/19/03 05:00:31  5-MIN KMKG 191000Z 00000KT 10SM CLR 11/08 A3012 450 83 100 000/00 RMK AO2 $
14840KMKG MKG20030719050509407/19/03 05:05:31  5-MIN KMKG 191005Z 00000KT 10SM CLR 11/08 A3012 450 86 100 000/00 RMK AO2 $
14840KMKG MKG20030719051009407/19/03 05:10:31  5-MIN KMKG 191010Z 00000KT 10SM CLR 11/08 A3012 450 86 100 000/00 RMK AO2 $
14840KMKG MKG20030719051509407/19/03 05:15:31  5-MIN KMKG 191015Z 00000KT 10SM CLR 11/08 A3012 450 86 100 000/00 RMK AO2 $
14840KMKG MKG20030719052009407/19/03 05:20:31  5-MIN KMKG 191020Z 00000KT 10SM CLR 11/08 A3012 440 86 100 000/00 RMK AO2 $
14840KMKG MKG20030719052509407/19/03 05:25:31  5-MIN KMKG 191025Z 00000KT 10SM CLR 11/08 A3012 440 86 100 000/00 RMK AO2 $
14840KMKG MKG20030719053009407/19/03 05:30:31  5-MIN KMKG 191030Z 00000KT 10SM CLR 11/08 A3012 440 86 100 000/00 RMK AO2 $
14840KMKG MKG20030719053509407/19/03 05:35:31  5-MIN KMKG 191035Z 00000KT 10SM CLR 11/09 A3013 440 89 100 000/00 RMK AO2 $
14840KMKG MKG20030719054009407/19/03 05:40:31  5-MIN KMKG 191040Z 00000KT 10SM CLR 11/08 A3013 440 86 100 000/00 RMK AO2 $
14840KMKG MKG20030719054509207/19/03 05:45:31  5-MIN KMKG 191045Z 00000KT 10SM CLR 10/08 A3013 440 89 0 000/00 RMK AO2 $
14840KMKG MKG20030719055011107/19/03 05:50:31  5-MIN KMKG 191050Z 00000KT 10SM CLR 11/08 A3013 440 86 100 000/00 RMK AO2 SLP200 T01060083 $
14840KMKG MKG20030719055511107/19/03 05:55:31  5-MIN KMKG 191055Z 00000KT 10SM CLR 11/08 A3012 440 83 100 000/00 RMK AO2 SLP199 T01110083 $
14840KMKG MKG20030719060009407/19/03 06:00:31  5-MIN KMKG 191100Z 00000KT 10SM CLR 11/09 A3013 440 86 100 000/00 RMK AO2 $
14840KMKG MKG20030719060509407/19/03 06:05:31  5-MIN KMKG 191105Z 00000KT 10SM CLR 11/09 A3013 440 86 100 000/00 RMK AO2 $
14840KMKG MKG20030719061009407/19/03 06:10:31  5-MIN KMKG 191110Z 00000KT 10SM CLR 11/09 A3013 440 86 100 000/00 RMK AO2 $
14840KMKG MKG20030719061509407/19/03 06:15:31  5-MIN KMKG 191115Z 00000KT 10SM CLR 11/09 A3013 440 89 100 000/00 RMK AO2 $
14840KMKG MKG20030719062009407/19/03 06:20:31  5-MIN KMKG 191120Z 00000KT 10SM CLR 12/10 A3013 430 86 200 000/00 RMK AO2 $
14840KMKG MKG20030719062509407/19/03 06:25:31  5-MIN KMKG 191125Z 00000KT 10SM CLR 12/10 A3013 440 89 200 000/00 RMK AO2 $
14840KMKG MKG20030719063009407/19/03 06:30:31  5-MIN KMKG 191130Z 00000KT 10SM CLR 13/08 A3013 440 74 300 000/00 RMK AO2 $
14840KMKG MKG20030719063509407/19/03 06:35:31  5-MIN KMKG 191135Z 13003KT 10SM CLR 13/09 A3013 440 77 300 140/03 RMK AO2 $
14840KMKG MKG20030719064009407/19/03 06:40:31  5-MIN KMKG 191140Z 12003KT 10SM CLR 13/09 A3013 440 74 400 120/03 RMK AO2 $
14840KMKG MKG20030719064509407/19/03 06:45:31  5-MIN KMKG 191145Z 00000KT 10SM CLR 13/09 A3013 440 74 400 000/00 RMK AO2 $
14840KMKG MKG20030719065012907/19/03 06:50:31  5-MIN KMKG 191150Z 00000KT 10SM CLR 14/09 A3013 440 71 400 000/00 RMK AO2 SLP201 T01390089 10150 20100 51000 $
14840KMKG MKG20030719065512907/19/03 06:55:31  5-MIN KMKG 191155Z 00000KT 10SM CLR 14/09 A3013 440 69 500 000/00 RMK AO2 SLP201 T01440089 10150 20100 53006 $
14840KMKG MKG20030719070009407/19/03 07:00:31  5-MIN KMKG 191200Z 00000KT 10SM CLR 15/09 A3013 440 66 600 000/00 RMK AO2 $
14840KMKG MKG20030719070509407/19/03 07:05:31  5-MIN KMKG 191205Z 00000KT 10SM CLR 15/09 A3013 430 66 600 000/00 RMK AO2 $
14840KMKG MKG20030719071009407/19/03 07:10:31  5-MIN KMKG 191210Z 00000KT 10SM CLR 16/09 A3013 430 67 600 000/00 RMK AO2 $
14840KMKG MKG20030719071509407/19/03 07:15:31  5-MIN KMKG 191215Z 00000KT 10SM CLR 16/09 A3014 430 64 700 000/00 RMK AO2 $
14840KMKG MKG20030719072009407/19/03 07:20:31  5-MIN KMKG 191220Z 00000KT 10SM CLR 17/09 A3013 430 62 800 000/00 RMK AO2 $
14840KMKG MKG20030719072509407/19/03 07:25:31  5-MIN KMKG 191225Z 00000KT 10SM CLR 17/09 A3014 430 62 800 000/00 RMK AO2 $
14840KMKG MKG20030719073009407/19/03 07:30:31  5-MIN KMKG 191230Z 00000KT 10SM CLR 17/09 A3014 430 60 800 000/00 RMK AO2 $
14840KMKG MKG20030719073509407/19/03 07:35:31  5-MIN KMKG 191235Z 00000KT 10SM CLR 18/09 A3014 430 58 900 000/00 RMK AO2 $
14840KMKG MKG20030719074009407/19/03 07:40:31  5-MIN KMKG 191240Z VRB03KT 10SM CLR 18/09 A3014 430 58 900 VRB/03 RMK AO2 $
14840KMKG MKG20030719074509507/19/03 07:45:31  5-MIN KMKG 191245Z 00000KT 10SM CLR 18/09 A3014 430 56 1000 000/00 RMK AO2 $
14840KMKG MKG20030719075011207/19/03 07:50:31  5-MIN KMKG 191250Z 10003KT 10SM CLR 18/09 A3013 430 54 1000 100/03 RMK AO2 SLP202 T01830089 $
14840KMKG MKG20030719075511207/19/03 07:55:31  5-MIN KMKG 191255Z 00000KT 10SM CLR 19/09 A3014 430 52 1000 000/00 RMK AO2 SLP203 T01890089 $
14840KMKG MKG20030719080009507/19/03 08:00:31  5-MIN KMKG 191300Z 00000KT 10SM CLR 19/09 A3014 430 52 1100 000/00 RMK AO2 $
14840KMKG MKG20030719080509507/19/03 08:05:31  5-MIN KMKG 191305Z 00000KT 10SM CLR 19/09 A3014 430 50 1100 000/00 RMK AO2 $
14840KMKG MKG20030719081009507/19/03 08:10:31  5-MIN KMKG 191310Z 13003KT 10SM CLR 20/09 A3014 430 48 1200 140/03 RMK AO2 $
14840KMKG MKG20030719081509507/19/03 08:15:31  5-MIN KMKG 191315Z 00000KT 10SM CLR 20/09 A3014 430 48 1200 000/00 RMK AO2 $
14840KMKG MKG20030719082009507/19/03 08:20:31  5-MIN KMKG 191320Z 00000KT 10SM CLR 21/09 A3014 430 47 1300 000/00 RMK AO2 $
14840KMKG MKG20030719082509507/19/03 08:25:31  5-MIN KMKG 191325Z 00000KT 10SM CLR 21/08 A3014 430 45 1200 000/00 RMK AO2 $
14840KMKG MKG20030719083009507/19/03 08:30:31  5-MIN KMKG 191330Z 00000KT 10SM CLR 21/09 A3014 430 45 1300 000/00 RMK AO2 $
14840KMKG MKG20030719083509507/19/03 08:35:31  5-MIN KMKG 191335Z 00000KT 10SM CLR 22/09 A3014 430 43 1300 000/00 RMK AO2 $
14840KMKG MKG20030719084009507/19/03 08:40:31  5-MIN KMKG 191340Z 00000KT 10SM CLR 22/08 A3014 430 40 1300 000/00 RMK AO2 $
14840KMKG MKG20030719084509507/19/03 08:45:31  5-MIN KMKG 191345Z 00000KT 10SM CLR 22/08 A3014 430 40 1300 000/00 RMK AO2 $
14840KMKG MKG20030719085011207/19/03 08:50:31  5-MIN KMKG 191350Z 00000KT 10SM CLR 22/08 A3013 430 40 1300 000/00 RMK AO2 SLP202 T02170078 $
14840KMKG MKG20030719085511207/19/03 08:55:31  5-MIN KMKG 191355Z 22003KT 10SM CLR 22/07 A3014 430 36 1400 220/03 RMK AO2 SLP203 T02220067 $
14840KMKG MKG20030719090009507/19/03 09:00:31  5-MIN KMKG 191400Z VRB03KT 10SM CLR 22/07 A3013 430 37 1400 VRB/03 RMK AO2 $
14840KMKG MKG20030719090509507/19/03 09:05:31  5-MIN KMKG 191405Z 21004KT 10SM CLR 22/07 A3013 430 36 1400 210/04 RMK AO2 $
14840KMKG MKG20030719091009507/19/03 09:10:31  5-MIN KMKG 191410Z VRB03KT 10SM CLR 22/08 A3013 430 39 1400 VRB/03 RMK AO2 $
14840KMKG MKG20030719091509507/19/03 09:15:31  5-MIN KMKG 191415Z 20004KT 10SM CLR 23/06 A3013 430 33 1500 200/04 RMK AO2 $
14840KMKG MKG20030719092009507/19/03 09:20:31  5-MIN KMKG 191420Z VRB03KT 10SM CLR 22/07 A3013 430 36 1400 VRB/03 RMK AO2 $
14840KMKG MKG20030719092509507/19/03 09:25:31  5-MIN KMKG 191425Z 27005KT 10SM CLR 23/08 A3013 440 37 1500 270/05 RMK AO2 $
14840KMKG MKG20030719093009507/19/03 09:30:31  5-MIN KMKG 191430Z VRB04KT 10SM CLR 24/09 A3013 440 38 1600 VRB/04 RMK AO2 $
14840KMKG MKG20030719093509507/19/03 09:35:31  5-MIN KMKG 191435Z 31006KT 10SM CLR 23/09 A3013 440 39 1500 310/06 RMK AO2 $
14840KMKG MKG20030719094009507/19/03 09:40:31  5-MIN KMKG 191440Z 24006KT 10SM CLR 23/07 A3013 440 35 1500 240/06 RMK AO2 $
14840KMKG MKG20030719094509507/19/03 09:45:31  5-MIN KMKG 191445Z 25006KT 10SM CLR 23/07 A3013 440 35 1500 250/06 RMK AO2 $
14840KMKG MKG20030719095011807/19/03 09:50:31  5-MIN KMKG 191450Z 28005KT 10SM CLR 23/07 A3013 440 35 1500 280/05 RMK AO2 SLP200 T02330072 53006 $
14840KMKG MKG20030719095511807/19/03 09:55:31  5-MIN KMKG 191455Z 23006KT 10SM CLR 23/07 A3013 440 33 1500 230/06 RMK AO2 SLP200 T02330067 58001 $
14840KMKG MKG20030719100009507/19/03 10:00:31  5-MIN KMKG 191500Z 23006KT 10SM CLR 23/07 A3013 440 33 1500 240/06 RMK AO2 $
14840KMKG MKG20030719100511107/19/03 10:05:31  5-MIN KMKG 191505Z 24007KT 230V290 10SM CLR 24/08 A3013 440 36 1600 250/07 230V290 RMK AO2 $
14840KMKG MKG20030719101009507/19/03 10:10:31  5-MIN KMKG 191510Z 27008KT 10SM CLR 23/09 A3012 440 39 1600 270/08 RMK AO2 $
14840KMKG MKG20030719101509507/19/03 10:15:31  5-MIN KMKG 191515Z 26008KT 10SM CLR 23/10 A3012 440 44 1500 260/08 RMK AO2 $
14840KMKG MKG20030719102009507/19/03 10:20:31  5-MIN KMKG 191520Z 26007KT 10SM CLR 23/10 A3012 440 44 1500 270/07 RMK AO2 $
14840KMKG MKG20030719102509507/19/03 10:25:31  5-MIN KMKG 191525Z 25008KT 10SM CLR 23/10 A3013 440 44 1500 250/08 RMK AO2 $
14840KMKG MKG20030719103009507/19/03 10:30:31  5-MIN KMKG 191530Z VRB06KT 10SM CLR 22/10 A3013 440 45 1400 VRB/06 RMK AO2 $
14840KMKG MKG20030719103509507/19/03 10:35:31  5-MIN KMKG 191535Z 27008KT 10SM CLR 23/11 A3013 440 45 1500 270/08 RMK AO2 $
14840KMKG MKG20030719104009507/19/03 10:40:31  5-MIN KMKG 191540Z 25007KT 10SM CLR 22/12 A3013 440 52 1400 250/07 RMK AO2 $
14840KMKG MKG20030719104509507/19/03 10:45:31  5-MIN KMKG 191545Z 27008KT 10SM CLR 22/13 A3013 440 56 1400 270/08 RMK AO2 $
14840KMKG MKG20030719105011207/19/03 10:50:31  5-MIN KMKG 191550Z 25007KT 10SM CLR 23/13 A3013 440 53 1500 250/07 RMK AO2 SLP200 T02280128 $
14840KMKG MKG20030719105511207/19/03 10:55:31  5-MIN KMKG 191555Z 23008KT 10SM CLR 22/12 A3013 440 51 1400 240/08 RMK AO2 SLP199 T02220117 $
14840KMKG MKG20030719110009507/19/03 11:00:31  5-MIN KMKG 191600Z 24008KT 10SM CLR 22/12 A3012 440 51 1400 240/08 RMK AO2 $
14840KMKG MKG20030719110509507/19/03 11:05:31  5-MIN KMKG 191605Z 24008KT 10SM CLR 22/12 A3013 440 52 1400 240/08 RMK AO2 $
14840KMKG MKG20030719111009507/19/03 11:10:31  5-MIN KMKG 191610Z VRB06KT 10SM CLR 23/13 A3013 440 53 1500 VRB/06 RMK AO2 $
14840KMKG MKG20030719111511107/19/03 11:15:31  5-MIN KMKG 191615Z 24008KT 210V290 10SM CLR 23/13 A3012 440 53 1500 240/08 210V290 RMK AO2 $
14840KMKG MKG20030719112011107/19/03 11:20:31  5-MIN KMKG 191620Z 24007KT 220V280 10SM CLR 23/12 A3012 440 47 1600 240/07 220V280 RMK AO2 $
14840KMKG MKG20030719112509507/19/03 11:25:31  5-MIN KMKG 191625Z VRB06KT 10SM CLR 23/12 A3012 450 49 1600 VRB/06 RMK AO2 $
14840KMKG MKG20030719113009507/19/03 11:30:31  5-MIN KMKG 191630Z 24007KT 10SM CLR 23/11 A3012 450 45 1600 250/07 RMK AO2 $
14840KMKG MKG20030719113509507/19/03 11:35:31  5-MIN KMKG 191635Z 24005KT 10SM CLR 23/12 A3012 450 49 1600 240/05 RMK AO2 $
14840KMKG MKG20030719114009507/19/03 11:40:31  5-MIN KMKG 191640Z VRB06KT 10SM CLR 24/12 A3012 450 46 1600 VRB/06 RMK AO2 $
14840KMKG MKG20030719114511107/19/03 11:45:31  5-MIN KMKG 191645Z 25007KT 220V280 10SM CLR 23/11 A3012 450 44 1600 260/07 220V280 RMK AO2 $
14840KMKG MKG20030719115011207/19/03 11:50:31  5-MIN KMKG 191650Z 27006KT 10SM CLR 24/09 A3012 450 38 1600 270/06 RMK AO2 SLP196 T02390089 $
14840KMKG MKG20030719115511207/19/03 11:55:31  5-MIN KMKG 191655Z 27006KT 10SM CLR 24/09 A3012 450 39 1600 280/06 RMK AO2 SLP196 T02390094 $
14840KMKG MKG20030719120011107/19/03 12:00:31  5-MIN KMKG 191700Z 26007KT 220V300 10SM CLR 24/09 A3011 450 39 1600 260/07 220V300 RMK AO2 $
14840KMKG MKG20030719120509507/19/03 12:05:31  5-MIN KMKG 191705Z 26007KT 10SM CLR 24/09 A3011 450 39 1600 260/07 RMK AO2 $
14840KMKG MKG20030719121009507/19/03 12:10:31  5-MIN KMKG 191710Z 28008KT 10SM CLR 24/09 A3011 450 38 1600 280/08 RMK AO2 $
14840KMKG MKG20030719121509507/19/03 12:15:31  5-MIN KMKG 191715Z 27008KT 10SM CLR 24/10 A3011 450 39 1700 270/08 RMK AO2 $
14840KMKG MKG20030719122009507/19/03 12:20:31  5-MIN KMKG 191720Z 27008KT 10SM CLR 24/09 A3011 450 36 1700 270/08 RMK AO2 $
14840KMKG MKG20030719122509507/19/03 12:25:31  5-MIN KMKG 191725Z 28007KT 10SM CLR 24/09 A3011 450 36 1700 280/07 RMK AO2 $
14840KMKG MKG20030719123009507/19/03 12:30:31  5-MIN KMKG 191730Z 24009KT 10SM CLR 24/09 A3011 460 36 1700 250/09 RMK AO2 $
14840KMKG MKG20030719123509507/19/03 12:35:31  5-MIN KMKG 191735Z 25010KT 10SM CLR 24/08 A3011 460 36 1600 250/10 RMK AO2 $
14840KMKG MKG20030719124009507/19/03 12:40:31  5-MIN KMKG 191740Z 24009KT 10SM CLR 24/09 A3011 450 38 1600 240/09 RMK AO2 $
14840KMKG MKG20030719124509507/19/03 12:45:31  5-MIN KMKG 191745Z 25010KT 10SM CLR 24/09 A3011 460 38 1700 260/10 RMK AO2 $
14840KMKG MKG20030719125013007/19/03 12:50:31  5-MIN KMKG 191750Z 26010KT 10SM CLR 24/09 A3011 450 36 1700 260/10 RMK AO2 SLP195 T02440089 10244 20144 58001 $
14840KMKG MKG20030719125513007/19/03 12:55:31  5-MIN KMKG 191755Z 26010KT 10SM CLR 24/08 A3011 460 35 1600 270/10 RMK AO2 SLP195 T02390078 10244 20144 58006 $
14840KMKG MKG20030719130009507/19/03 13:00:31  5-MIN KMKG 191800Z 24009KT 10SM CLR 24/08 A3011 460 34 1700 250/09 RMK AO2 $
14840KMKG MKG20030719130509507/19/03 13:05:31  5-MIN KMKG 191805Z 24009KT 10SM CLR 24/08 A3011 460 36 1600 240/09 RMK AO2 $
14840KMKG MKG20030719131009507/19/03 13:10:31  5-MIN KMKG 191810Z 23011KT 10SM CLR 24/08 A3011 460 36 1600 230/11 RMK AO2 $
14840KMKG MKG20030719131509507/19/03 13:15:31  5-MIN KMKG 191815Z 24010KT 10SM CLR 24/08 A3011 460 34 1700 240/10 RMK AO2 $
14840KMKG MKG20030719132009507/19/03 13:20:31  5-MIN KMKG 191820Z 22008KT 10SM CLR 24/09 A3010 460 38 1600 230/08 RMK AO2 $
14840KMKG MKG20030719132509507/19/03 13:25:31  5-MIN KMKG 191825Z 24009KT 10SM CLR 24/09 A3010 460 38 1600 250/09 RMK AO2 $
14840KMKG MKG20030719133009507/19/03 13:30:31  5-MIN KMKG 191830Z 22008KT 10SM CLR 24/08 A3010 460 34 1700 230/08 RMK AO2 $
14840KMKG MKG20030719133509507/19/03 13:35:31  5-MIN KMKG 191835Z 26009KT 10SM CLR 24/08 A3010 460 36 1600 260/09 RMK AO2 $
14840KMKG MKG20030719134009507/19/03 13:40:31  5-MIN KMKG 191840Z 24009KT 10SM CLR 24/07 A3010 460 34 1600 250/09 RMK AO2 $
14840KMKG MKG20030719134509507/19/03 13:45:31  5-MIN KMKG 191845Z 26010KT 10SM CLR 24/07 A3010 460 34 1600 270/10 RMK AO2 $
14840KMKG MKG20030719135011207/19/03 13:50:31  5-MIN KMKG 191850Z 27009KT 10SM CLR 24/08 A3010 460 35 1700 280/09 RMK AO2 SLP192 T02440083 $
14840KMKG MKG20030719135511207/19/03 13:55:31  5-MIN KMKG 191855Z 26009KT 10SM CLR 24/07 A3010 460 33 1700 270/09 RMK AO2 SLP192 T02440072 $
14840KMKG MKG20030719140009507/19/03 14:00:31  5-MIN KMKG 191900Z 27008KT 10SM CLR 24/07 A3010 460 33 1700 270/08 RMK AO2 $
14840KMKG MKG20030719140509507/19/03 14:05:31  5-MIN KMKG 191905Z 25009KT 10SM CLR 24/08 A3010 460 36 1600 260/09 RMK AO2 $
14840KMKG MKG20030719141009507/19/03 14:10:31  5-MIN KMKG 191910Z 24009KT 10SM CLR 24/08 A3010 460 34 1700 240/09 RMK AO2 $
14840KMKG MKG20030719141509507/19/03 14:15:31  5-MIN KMKG 191915Z 24009KT 10SM CLR 24/08 A3010 460 34 1700 240/09 RMK AO2 $
14840KMKG MKG20030719142009507/19/03 14:20:31  5-MIN KMKG 191920Z 24008KT 10SM CLR 24/07 A3010 470 34 1600 250/08 RMK AO2 $
14840KMKG MKG20030719142509507/19/03 14:25:31  5-MIN KMKG 191925Z 24010KT 10SM CLR 24/06 A3010 470 30 1700 240/10 RMK AO2 $
14840KMKG MKG20030719143009507/19/03 14:30:31  5-MIN KMKG 191930Z 25010KT 10SM CLR 24/06 A3009 470 30 1700 260/10 RMK AO2 $
14840KMKG MKG20030719143509507/19/03 14:35:31  5-MIN KMKG 191935Z 24009KT 10SM CLR 24/07 A3009 470 33 1700 240/09 RMK AO2 $
14840KMKG MKG20030719144009507/19/03 14:40:31  5-MIN KMKG 191940Z 25011KT 10SM CLR 24/07 A3009 470 31 1700 260/11 RMK AO2 $
14840KMKG MKG20030719144509507/19/03 14:45:31  5-MIN KMKG 191945Z 26009KT 10SM CLR 24/07 A3009 470 32 1700 260/09 RMK AO2 $
14840KMKG MKG20030719145011207/19/03 14:50:31  5-MIN KMKG 191950Z 24010KT 10SM CLR 24/08 A3009 470 34 1700 250/10 RMK AO2 SLP188 T02440078 $
14840KMKG MKG20030719145511207/19/03 14:55:31  5-MIN KMKG 191955Z 23009KT 10SM CLR 24/07 A3009 470 33 1700 240/09 RMK AO2 SLP188 T02440072 $
14840KMKG MKG20030719150009507/19/03 15:00:31  5-MIN KMKG 192000Z 24008KT 10SM CLR 24/08 A3009 480 35 1700 250/08 RMK AO2 $
14840KMKG MKG20030719150509507/19/03 15:05:31  5-MIN KMKG 192005Z 27008KT 10SM CLR 24/08 A3008 480 34 1700 280/08 RMK AO2 $
14840KMKG MKG20030719151011107/19/03 15:10:31  5-MIN KMKG 192010Z 27008KT 220V300 10SM CLR 24/08 A3008 480 34 1700 270/08 220V300 RMK AO2 $
14840KMKG MKG20030719151509507/19/03 15:15:31  5-MIN KMKG 192015Z 27008KT 10SM CLR 24/08 A3008 480 35 1700 280/08 RMK AO2 $
14840KMKG MKG20030719152009507/19/03 15:20:31  5-MIN KMKG 192020Z 26009KT 10SM CLR 24/08 A3008 480 34 1700 270/09 RMK AO2 $
14840KMKG MKG20030719152509507/19/03 15:25:31  5-MIN KMKG 192025Z 25008KT 10SM CLR 24/07 A3008 480 34 1700 250/08 RMK AO2 $
14840KMKG MKG20030719153011107/19/03 15:30:31  5-MIN KMKG 192030Z 27007KT 240V310 10SM CLR 24/07 A3008 480 31 1700 270/07 240V310 RMK AO2 $
14840KMKG MKG20030719153509507/19/03 15:35:31  5-MIN KMKG 192035Z 25009KT 10SM CLR 24/07 A3008 480 33 1700 250/09 RMK AO2 $
14840KMKG MKG20030719154009507/19/03 15:40:31  5-MIN KMKG 192040Z 25008KT 10SM CLR 24/07 A3008 480 32 1700 260/08 RMK AO2 $
14840KMKG MKG20030719154509507/19/03 15:45:31  5-MIN KMKG 192045Z 25008KT 10SM CLR 25/07 A3008 490 31 1800 260/08 RMK AO2 $
14840KMKG MKG20030719155011807/19/03 15:50:31  5-MIN KMKG 192050Z 26008KT 10SM CLR 24/07 A3007 490 33 1700 270/08 RMK AO2 SLP182 T02440072 58006 $
14840KMKG MKG20030719155511807/19/03 15:55:31  5-MIN KMKG 192055Z 26007KT 10SM CLR 24/07 A3007 490 33 1700 260/07 RMK AO2 SLP181 T02440072 58013 $
14840KMKG MKG20030719160009507/19/03 16:00:31  5-MIN KMKG 192100Z 26007KT 10SM CLR 25/08 A3007 490 33 1800 260/07 RMK AO2 $
14840KMKG MKG20030719160509507/19/03 16:05:31  5-MIN KMKG 192105Z 24009KT 10SM CLR 25/08 A3007 490 33 1800 240/09 RMK AO2 $
14840KMKG MKG20030719161009507/19/03 16:10:31  5-MIN KMKG 192110Z 26008KT 10SM CLR 24/08 A3007 500 34 1700 260/08 RMK AO2 $
14840KMKG MKG20030719161509507/19/03 16:15:31  5-MIN KMKG 192115Z 24008KT 10SM CLR 25/08 A3007 490 34 1800 240/08 RMK AO2 $
14840KMKG MKG20030719162009507/19/03 16:20:31  5-MIN KMKG 192120Z 23008KT 10SM CLR 25/08 A3007 490 34 1800 230/08 RMK AO2 $
14840KMKG MKG20030719162509507/19/03 16:25:31  5-MIN KMKG 192125Z 23010KT 10SM CLR 25/07 A3007 500 31 1800 240/10 RMK AO2 $
14840KMKG MKG20030719163009507/19/03 16:30:31  5-MIN KMKG 192130Z 25006KT 10SM CLR 24/08 A3006 500 35 1700 250/06 RMK AO2 $
14840KMKG MKG20030719163509507/19/03 16:35:31  5-MIN KMKG 192135Z 24010KT 10SM CLR 25/08 A3006 500 34 1800 240/10 RMK AO2 $
14840KMKG MKG20030719164009507/19/03 16:40:31  5-MIN KMKG 192140Z 23009KT 10SM CLR 24/08 A3006 500 34 1700 240/09 RMK AO2 $
14840KMKG MKG20030719164509507/19/03 16:45:31  5-MIN KMKG 192145Z 22008KT 10SM CLR 24/08 A3006 500 35 1700 230/08 RMK AO2 $
14840KMKG MKG20030719165011207/19/03 16:50:31  5-MIN KMKG 192150Z 23009KT 10SM CLR 24/09 A3006 500 36 1700 230/09 RMK AO2 SLP179 T02440089 $
14840KMKG MKG20030719165511207/19/03 16:55:31  5-MIN KMKG 192155Z 23009KT 10SM CLR 25/09 A3006 500 35 1800 230/09 RMK AO2 SLP178 T02500089 $
14840KMKG MKG20030719170009507/19/03 17:00:31  5-MIN KMKG 192200Z 23009KT 10SM CLR 24/08 A3006 500 35 1800 230/09 RMK AO2 $
14840KMKG MKG20030719170509507/19/03 17:05:31  5-MIN KMKG 192205Z 24009KT 10SM CLR 24/08 A3006 500 35 1800 240/09 RMK AO2 $
14840KMKG MKG20030719171009507/19/03 17:10:31  5-MIN KMKG 192210Z 23010KT 10SM CLR 24/09 A3006 500 36 1800 230/10 RMK AO2 $
14840KMKG MKG20030719171509507/19/03 17:15:31  5-MIN KMKG 192215Z 24009KT 10SM CLR 24/08 A3006 500 35 1700 240/09 RMK AO2 $
14840KMKG MKG20030719172009507/19/03 17:20:31  5-MIN KMKG 192220Z 23008KT 10SM CLR 24/09 A3006 500 38 1700 240/08 RMK AO2 $
14840KMKG MKG20030719172509507/19/03 17:25:31  5-MIN KMKG 192225Z 22008KT 10SM CLR 23/10 A3006 500 42 1600 230/08 RMK AO2 $
14840KMKG MKG20030719173009507/19/03 17:30:31  5-MIN KMKG 192230Z 22009KT 10SM CLR 23/10 A3006 500 42 1600 220/09 RMK AO2 $
14840KMKG MKG20030719173509507/19/03 17:35:31  5-MIN KMKG 192235Z 23008KT 10SM CLR 24/10 A3006 510 39 1800 230/08 RMK AO2 $
14840KMKG MKG20030719174009507/19/03 17:40:31  5-MIN KMKG 192240Z 23009KT 10SM CLR 24/09 A3005 510 39 1700 230/09 RMK AO2 $
14840KMKG MKG20030719174509507/19/03 17:45:31  5-MIN KMKG 192245Z 23009KT 10SM CLR 24/10 A3005 510 41 1700 230/09 RMK AO2 $
14840KMKG MKG20030719175011207/19/03 17:50:31  5-MIN KMKG 192250Z 23010KT 10SM CLR 24/09 A3005 510 39 1700 230/10 RMK AO2 SLP174 T02390094 $
14840KMKG MKG20030719175511207/19/03 17:55:31  5-MIN KMKG 192255Z 23008KT 10SM CLR 24/09 A3005 510 39 1700 240/08 RMK AO2 SLP173 T02390094 $
14840KMKG MKG20030719180009507/19/03 18:00:31  5-MIN KMKG 192300Z 21008KT 10SM CLR 23/10 A3005 520 42 1600 220/08 RMK AO2 $
14840KMKG MKG20030719180509507/19/03 18:05:31  5-MIN KMKG 192305Z 21009KT 10SM CLR 24/11 A3004 520 42 1700 220/09 RMK AO2 $
14840KMKG MKG20030719181009507/19/03 18:10:31  5-MIN KMKG 192310Z 22009KT 10SM CLR 23/10 A3004 520 42 1600 220/09 RMK AO2 $
14840KMKG MKG20030719181509507/19/03 18:15:31  5-MIN KMKG 192315Z 21008KT 10SM CLR 23/10 A3004 520 42 1700 220/08 RMK AO2 $
14840KMKG MKG20030719182009507/19/03 18:20:31  5-MIN KMKG 192320Z 21007KT 10SM CLR 23/10 A3004 520 42 1700 210/07 RMK AO2 $
14840KMKG MKG20030719182509507/19/03 18:25:31  5-MIN KMKG 192325Z 21008KT 10SM CLR 23/10 A3003 520 42 1700 210/08 RMK AO2 $
14840KMKG MKG20030719183009507/19/03 18:30:31  5-MIN KMKG 192330Z 21007KT 10SM CLR 23/10 A3003 530 42 1700 210/07 RMK AO2 $
14840KMKG MKG20030719183509507/19/03 18:35:31  5-MIN KMKG 192335Z 20008KT 10SM CLR 23/11 A3003 530 45 1600 200/08 RMK AO2 $
14840KMKG MKG20030719184009507/19/03 18:40:31  5-MIN KMKG 192340Z 20009KT 10SM CLR 23/11 A3003 530 44 1700 200/09 RMK AO2 $
14840KMKG MKG20030719184509507/19/03 18:45:31  5-MIN KMKG 192345Z 21008KT 10SM CLR 23/11 A3003 530 45 1600 220/08 RMK AO2 $
14840KMKG MKG20030719185013007/19/03 18:50:31  5-MIN KMKG 192350Z 19008KT 10SM CLR 23/11 A3003 530 47 1600 190/08 RMK AO2 SLP168 T02280111 10250 20228 58013 $
14840KMKG MKG20030719185513007/19/03 18:55:31  5-MIN KMKG 192355Z 20007KT 10SM CLR 23/11 A3003 530 45 1600 210/07 RMK AO2 SLP167 T02280106 10250 20228 58013 $
14840KMKG MKG20030719190009507/19/03 19:00:31  5-MIN KMKG 200000Z 20007KT 10SM CLR 23/11 A3003 530 47 1600 210/07 RMK AO2 $
14840KMKG MKG20030719190509507/19/03 19:05:31  5-MIN KMKG 200005Z 19007KT 10SM CLR 23/11 A3003 530 47 1600 190/07 RMK AO2 $
14840KMKG MKG20030719191009507/19/03 19:10:31  5-MIN KMKG 200010Z 20005KT 10SM CLR 22/11 A3002 530 49 1500 200/05 RMK AO2 $
14840KMKG MKG20030719191509507/19/03 19:15:31  5-MIN KMKG 200015Z 19006KT 10SM CLR 22/11 A3003 530 49 1500 200/06 RMK AO2 $
14840KMKG MKG20030719192009507/19/03 19:20:31  5-MIN KMKG 200020Z 18006KT 10SM CLR 22/11 A3002 540 49 1500 190/06 RMK AO2 $
14840KMKG MKG20030719192509507/19/03 19:25:31  5-MIN KMKG 200025Z 18006KT 10SM CLR 22/11 A3002 540 49 1500 190/06 RMK AO2 $
14840KMKG MKG20030719193009507/19/03 19:30:31  5-MIN KMKG 200030Z 19006KT 10SM CLR 22/11 A3003 530 50 1500 200/06 RMK AO2 $
14840KMKG MKG20030719193509807/19/03 19:35:31  5-MIN KMKG 200035Z 20005KT 10SM FEW120 22/12 A3003 530 52 1500 200/05 RMK AO2 $
14840KMKG MKG20030719194009807/19/03 19:40:31  5-MIN KMKG 200040Z 19005KT 10SM FEW120 22/12 A3003 530 52 1500 200/05 RMK AO2 $
14840KMKG MKG20030719194509807/19/03 19:45:31  5-MIN KMKG 200045Z 19005KT 10SM SCT120 22/12 A3003 530 52 1500 200/05 RMK AO2 $
14840KMKG MKG20030719195011507/19/03 19:50:31  5-MIN KMKG 200050Z 19005KT 10SM SCT120 22/12 A3003 530 52 1500 200/05 RMK AO2 SLP166 T02170117 $
14840KMKG MKG20030719195511507/19/03 19:55:31  5-MIN KMKG 200055Z 20005KT 10SM SCT120 21/12 A3003 530 56 1400 200/05 RMK AO2 SLP166 T02110122 $
14840KMKG MKG20030719200009807/19/03 20:00:31  5-MIN KMKG 200100Z 20004KT 10SM FEW120 21/12 A3003 530 56 1400 200/04 RMK AO2 $
14840KMKG MKG20030719200509807/19/03 20:05:31  5-MIN KMKG 200105Z 19005KT 10SM SCT120 21/12 A3003 530 56 1400 190/05 RMK AO2 $
14840KMKG MKG20030719201009807/19/03 20:10:31  5-MIN KMKG 200110Z 16004KT 10SM SCT120 21/13 A3002 540 60 1300 170/04 RMK AO2 $
14840KMKG MKG20030719201509807/19/03 20:15:31  5-MIN KMKG 200115Z 17004KT 10SM FEW120 21/13 A3002 540 58 1400 170/04 RMK AO2 $
14840KMKG MKG20030719202009807/19/03 20:20:31  5-MIN KMKG 200120Z 17005KT 10SM FEW120 21/13 A3002 540 60 1400 170/05 RMK AO2 $
14840KMKG MKG20030719202509807/19/03 20:25:31  5-MIN KMKG 200125Z 16004KT 10SM FEW120 21/13 A3002 540 60 1400 170/04 RMK AO2 $
14840KMKG MKG20030719203009807/19/03 20:30:31  5-MIN KMKG 200130Z 17004KT 10SM FEW120 21/13 A3002 540 60 1400 170/04 RMK AO2 $
14840KMKG MKG20030719203509507/19/03 20:35:31  5-MIN KMKG 200135Z 19004KT 10SM CLR 21/13 A3002 540 60 1400 190/04 RMK AO2 $
14840KMKG MKG20030719204009507/19/03 20:40:31  5-MIN KMKG 200140Z 21003KT 10SM CLR 19/13 A3002 540 65 1200 210/03 RMK AO2 $
14840KMKG MKG20030719204509507/19/03 20:45:31  5-MIN KMKG 200145Z 18003KT 10SM CLR 20/13 A3002 540 63 1300 180/03 RMK AO2 $
14840KMKG MKG20030719205011207/19/03 20:50:31  5-MIN KMKG 200150Z 17004KT 10SM CLR 19/13 A3002 540 65 1200 170/04 RMK AO2 SLP162 T01940128 $
14840KMKG MKG20030719205511207/19/03 20:55:31  5-MIN KMKG 200155Z 19003KT 10SM CLR 20/13 A3002 540 63 1300 190/03 RMK AO2 SLP163 T02000128 $
14840KMKG MKG20030719210009507/19/03 21:00:31  5-MIN KMKG 200200Z 21003KT 10SM CLR 19/13 A3002 540 65 1200 220/03 RMK AO2 $
14840KMKG MKG20030719210509507/19/03 21:05:31  5-MIN KMKG 200205Z 19003KT 10SM CLR 19/13 A3002 540 67 1200 200/03 RMK AO2 $
14840KMKG MKG20030719211009507/19/03 21:10:31  5-MIN KMKG 200210Z 18003KT 10SM CLR 19/13 A3002 540 67 1200 190/03 RMK AO2 $
14840KMKG MKG20030719211509507/19/03 21:15:31  5-MIN KMKG 200215Z 18004KT 10SM CLR 19/13 A3002 540 67 1200 180/04 RMK AO2 $
14840KMKG MKG20030719212009507/19/03 21:20:31  5-MIN KMKG 200220Z 19004KT 10SM CLR 19/13 A3001 540 70 1200 190/04 RMK AO2 $
14840KMKG MKG20030719212509507/19/03 21:25:31  5-MIN KMKG 200225Z 18003KT 10SM CLR 18/13 A3001 550 72 1100 190/03 RMK AO2 $
14840KMKG MKG20030719213009507/19/03 21:30:31  5-MIN KMKG 200230Z 19003KT 10SM CLR 19/13 A3002 540 67 1200 190/03 RMK AO2 $
14840KMKG MKG20030719213509507/19/03 21:35:31  5-MIN KMKG 200235Z 21003KT 10SM CLR 18/13 A3002 540 72 1100 220/03 RMK AO2 $
14840KMKG MKG20030719214009507/19/03 21:40:31  5-MIN KMKG 200240Z 20003KT 10SM CLR 19/13 A3002 540 70 1200 200/03 RMK AO2 $
14840KMKG MKG20030719214509507/19/03 21:45:31  5-MIN KMKG 200245Z 21004KT 10SM CLR 19/13 A3002 540 70 1200 210/04 RMK AO2 $
14840KMKG MKG20030719215011807/19/03 21:50:31  5-MIN KMKG 200250Z 21004KT 10SM CLR 18/13 A3002 540 72 1100 220/04 RMK AO2 SLP163 T01830133 58013 $
14840KMKG MKG20030719215511807/19/03 21:55:31  5-MIN KMKG 200255Z 19004KT 10SM CLR 18/14 A3001 540 75 1100 190/04 RMK AO2 SLP161 T01830139 58005 $
14840KMKG MKG20030719220009807/19/03 22:00:31  5-MIN KMKG 200300Z 19004KT 10SM FEW100 18/14 A3001 550 75 1100 200/04 RMK AO2 $
14840KMKG MKG20030719220509807/19/03 22:05:31  5-MIN KMKG 200305Z 20006KT 10SM SCT100 20/14 A3001 540 70 1300 210/06 RMK AO2 $
14840KMKG MKG20030719221009807/19/03 22:10:31  5-MIN KMKG 200310Z 25003KT 10SM BKN100 19/14 A3002 540 72 1200 250/03 RMK AO2 $
14840KMKG MKG20030719221509807/19/03 22:15:31  5-MIN KMKG 200315Z 24004KT 10SM BKN100 19/14 A3002 530 72 1200 250/04 RMK AO2 $
14840KMKG MKG20030719222009807/19/03 22:20:31  5-MIN KMKG 200320Z 00000KT 10SM BKN100 20/14 A3003 530 70 1300 000/00 RMK AO2 $
14840KMKG MKG20030719222509807/19/03 22:25:31  5-MIN KMKG 200325Z 00000KT 10SM BKN100 20/14 A3003 530 70 1300 000/00 RMK AO2 $
14840KMKG MKG20030719223009807/19/03 22:30:31  5-MIN KMKG 200330Z 20003KT 10SM BKN110 20/14 A3002 530 70 1300 200/03 RMK AO2 $
14840KMKG MKG20030719223509807/19/03 22:35:31  5-MIN KMKG 200335Z 20004KT 10SM SCT110 20/15 A3002 540 72 1300 200/04 RMK AO2 $
14840KMKG MKG20030719224009807/19/03 22:40:31  5-MIN KMKG 200340Z 19004KT 10SM FEW110 20/15 A3002 540 72 1300 200/04 RMK AO2 $
14840KMKG MKG20030719224509807/19/03 22:45:31  5-MIN KMKG 200345Z 20005KT 10SM FEW120 20/14 A3002 540 70 1300 210/05 RMK AO2 $
14840KMKG MKG20030719225011507/19/03 22:50:31  5-MIN KMKG 200350Z 23004KT 10SM SCT110 20/14 A3002 540 70 1300 230/04 RMK AO2 SLP163 T02000144 $
14840KMKG MKG20030719225512207/19/03 22:55:31  5-MIN KMKG 200355Z 22005KT 10SM SCT090 BKN120 20/14 A3002 540 70 1300 220/05 RMK AO2 SLP164 T02000144 $
14840KMKG MKG20030719230011607/19/03 23:00:31  5-MIN KMKG 200400Z 22005KT 10SM -RA SCT080 20/15 A3002 540 72 1300 220/05 RMK AO2 RAB0356 P0000 $
14840KMKG MKG20030719230512307/19/03 23:05:31  5-MIN KMKG 200405Z 21006KT 10SM -RA SCT080 SCT120 19/16 A3002 540 78 1200 220/06 RMK AO2 RAB0356 P0000 $
14840KMKG MKG20030719231012207/19/03 23:10:31  5-MIN KMKG 200410Z 22006KT 10SM SCT085 BKN120 19/16 A3002 540 78 1200 230/06 RMK AO2 RAB0356E08 P0000 $
14840KMKG MKG20030719231512307/19/03 23:15:31  5-MIN KMKG 200415Z 21006KT 10SM -RA SCT075 BKN120 19/16 A3002 540 81 1200 220/06 RMK AO2 RAB0356 P0000 $
14840KMKG MKG20030719232012307/19/03 23:20:31  5-MIN KMKG 200420Z 19006KT 10SM -RA BKN060 BKN120 19/16 A3001 550 81 1200 200/06 RMK AO2 RAB0356 P0000 $
14840KMKG MKG20030719232512307/19/03 23:25:31  5-MIN KMKG 200425Z 18008KT 10SM -RA BKN050 BKN120 20/16 A3000 560 78 1300 190/08 RMK AO2 RAB0356 P0000 $
14840KMKG MKG20030719233013007/19/03 23:30:31  5-MIN KMKG 200430Z 16010KT 10SM -RA BKN048 BKN120 20/17 A2998 580 81 1300 160/10 RMK AO2 RAB0356 PRESFR P0000 $
14840KMKG MKG20030719233512307/19/03 23:35:31  5-MIN KMKG 200435Z 16009KT 10SM -RA BKN048 OVC120 20/17 A2998 580 81 1300 160/09 RMK AO2 RAB0356 P0000 $
14840KMKG MKG20030719234012307/19/03 23:40:31  5-MIN KMKG 200440Z 16007KT 10SM -RA SCT048 OVC120 20/17 A2998 570 81 1300 160/07 RMK AO2 RAB0356 P0000 $
14840KMKG MKG20030719234512307/19/03 23:45:31  5-MIN KMKG 200445Z 14006KT 10SM -RA SCT046 OVC120 20/17 A2999 570 81 1300 150/06 RMK AO2 RAB0356 P0000 $
14840KMKG MKG20030719235014907/19/03 23:50:31  5-MIN KMKG 200450Z 15004KT 10SM FEW043 BKN110 20/17 A2999 560 81 1300 160/04 RMK AO2 RAB0356E46 SLP153 P0000 T02000167 402500100 $
14840KMKG MKG20030719235514907/19/03 23:55:31  5-MIN KMKG 200455Z 15004KT 10SM FEW038 BKN110 20/16 A2999 570 78 1300 160/04 RMK AO2 RAB0356E46 SLP151 P0000 T02000161 402500100 $
14840KMKG MKG20030720000009807/20/03 00:00:32  5-MIN KMKG 200500Z 14005KT 10SM SCT110 20/16 A2998 570 78 1300 150/05 RMK AO2 $
14840KMKG MKG20030720000511007/20/03 00:05:31  5-MIN KMKG 200505Z 15005KT 10SM SCT110 20/16 A2998 580 78 1300 160/05 RMK AO2 LTG DSNT NE $
14840KMKG MKG20030720001011007/20/03 00:10:31  5-MIN KMKG 200510Z 15004KT 10SM FEW110 20/16 A2998 580 78 1300 160/04 RMK AO2 LTG DSNT NE $
14840KMKG MKG20030720001509807/20/03 00:15:31  5-MIN KMKG 200515Z 17003KT 10SM FEW120 20/16 A2998 570 78 1300 170/03 RMK AO2 $
14840KMKG MKG20030720002009807/20/03 00:20:31  5-MIN KMKG 200520Z 00000KT 10SM SCT120 20/16 A2999 570 78 1300 000/00 RMK AO2 $
14840KMKG MKG20030720002509807/20/03 00:25:31  5-MIN KMKG 200525Z 00000KT 10SM BKN110 20/16 A2999 570 78 1300 000/00 RMK AO2 $
14840KMKG MKG20030720003009807/20/03 00:30:31  5-MIN KMKG 200530Z 00000KT 10SM SCT110 20/16 A2999 570 78 1300 000/00 RMK AO2 $
14840KMKG MKG20030720003509807/20/03 00:35:31  5-MIN KMKG 200535Z 00000KT 10SM SCT120 20/16 A2999 570 78 1300 000/00 RMK AO2 $
14840KMKG MKG20030720004009807/20/03 00:40:31  5-MIN KMKG 200540Z 00000KT 10SM SCT120 20/16 A2999 570 78 1300 000/00 RMK AO2 $
14840KMKG MKG20030720004509807/20/03 00:45:31  5-MIN KMKG 200545Z 00000KT 10SM SCT110 20/16 A2999 570 75 1300 000/00 RMK AO2 $
14840KMKG MKG20030720005013907/20/03 00:50:31  5-MIN KMKG 200550Z 16003KT 10SM SCT110 20/16 A2998 570 75 1300 160/03 RMK AO2 SLP150 60000 T02000156 10228 20183 58005 $
14840KMKG MKG20030720005513907/20/03 00:55:31  5-MIN KMKG 200555Z 00000KT 10SM FEW110 19/16 A2999 570 81 1200 000/00 RMK AO2 SLP151 60000 T01890156 10228 20183 58009 $
14840KMKG MKG20030720010009807/20/03 01:00:31  5-MIN KMKG 200600Z 12003KT 10SM FEW110 19/15 A2999 570 78 1200 130/03 RMK AO2 $
14840KMKG MKG20030720010509807/20/03 01:05:31  5-MIN KMKG 200605Z 14003KT 10SM FEW110 18/15 A2998 570 83 1100 150/03 RMK AO2 $
14840KMKG MKG20030720011009807/20/03 01:10:31  5-MIN KMKG 200610Z 00000KT 10SM FEW110 18/16 A2998 580 87 1100 000/00 RMK AO2 $
14840KMKG MKG20030720011509807/20/03 01:15:31  5-MIN KMKG 200615Z 20003KT 10SM FEW110 18/15 A2998 580 81 1100 200/03 RMK AO2 $
14840KMKG MKG20030720012009507/20/03 01:20:31  5-MIN KMKG 200620Z 21003KT 10SM CLR 18/16 A2998 580 87 1100 210/03 RMK AO2 $
14840KMKG MKG20030720012509507/20/03 01:25:31  5-MIN KMKG 200625Z 21003KT 10SM CLR 18/16 A2998 580 87 1100 210/03 RMK AO2 $
14840KMKG MKG20030720013009507/20/03 01:30:31  5-MIN KMKG 200630Z 20003KT 10SM CLR 17/16 A2998 580 93 1000 200/03 RMK AO2 $
14840KMKG MKG20030720013509507/20/03 01:35:31  5-MIN KMKG 200635Z 20003KT 10SM CLR 17/16 A2998 580 93 1000 200/03 RMK AO2 $
14840KMKG MKG20030720014009507/20/03 01:40:31  5-MIN KMKG 200640Z 19003KT 10SM CLR 17/16 A2997 580 93 1000 190/03 RMK AO2 $
14840KMKG MKG20030720014509507/20/03 01:45:31  5-MIN KMKG 200645Z 00000KT 10SM CLR 17/16 A2997 580 96 1000 000/00 RMK AO2 $
14840KMKG MKG20030720015011207/20/03 01:50:31  5-MIN KMKG 200650Z 18004KT 10SM CLR 17/16 A2997 590 93 1000 180/04 RMK AO2 SLP146 T01720161 $
14840KMKG MKG20030720015511207/20/03 01:55:31  5-MIN KMKG 200655Z 19004KT 10SM CLR 17/16 A2997 580 90 1000 190/04 RMK AO2 SLP146 T01720156 $
14840KMKG MKG20030720020009507/20/03 02:00:31  5-MIN KMKG 200700Z 20005KT 10SM CLR 17/16 A2997 580 90 1000 200/05 RMK AO2 $
14840KMKG MKG20030720020509507/20/03 02:05:31  5-MIN KMKG 200705Z 19005KT 10SM CLR 17/16 A2997 580 90 1000 200/05 RMK AO2 $
14840KMKG MKG20030720021009507/20/03 02:10:31  5-MIN KMKG 200710Z 19004KT 10SM CLR 17/16 A2997 590 90 1000 200/04 RMK AO2 $
14840KMKG MKG20030720021509807/20/03 02:15:31  5-MIN KMKG 200715Z 20004KT 10SM FEW120 17/16 A2997 590 90 1000 200/04 RMK AO2 $
14840KMKG MKG20030720022009807/20/03 02:20:31  5-MIN KMKG 200720Z 21004KT 10SM FEW120 18/16 A2997 590 90 1100 210/04 RMK AO2 $
14840KMKG MKG20030720022509807/20/03 02:25:31  5-MIN KMKG 200725Z 21004KT 10SM FEW120 17/16 A2997 580 90 1000 210/04 RMK AO2 $
14840KMKG MKG20030720023009807/20/03 02:30:31  5-MIN KMKG 200730Z 20005KT 10SM FEW120 17/16 A2997 580 90 1000 200/05 RMK AO2 $
14840KMKG MKG20030720023509807/20/03 02:35:31  5-MIN KMKG 200735Z 20005KT 10SM SCT120 17/16 A2997 590 93 1000 200/05 RMK AO2 $
14840KMKG MKG20030720024009807/20/03 02:40:31  5-MIN KMKG 200740Z 19005KT 10SM SCT120 17/16 A2997 590 93 1000 200/05 RMK AO2 $
14840KMKG MKG20030720024509807/20/03 02:45:31  5-MIN KMKG 200745Z 19004KT 10SM FEW120 17/16 A2997 590 93 1000 190/04 RMK AO2 $
14840KMKG MKG20030720025011507/20/03 02:50:31  5-MIN KMKG 200750Z 18005KT 10SM FEW120 18/16 A2996 590 90 1100 180/05 RMK AO2 SLP144 T01780161 $
14840KMKG MKG20030720025511507/20/03 02:55:31  5-MIN KMKG 200755Z 18006KT 10SM FEW120 18/17 A2996 590 90 1200 180/06 RMK AO2 SLP142 T01830167 $
14840KMKG MKG20030720030009807/20/03 03:00:31  5-MIN KMKG 200800Z 18006KT 10SM FEW120 18/17 A2996 590 90 1200 190/06 RMK AO2 $
14840KMKG MKG20030720030509507/20/03 03:05:31  5-MIN KMKG 200805Z 19006KT 10SM CLR 18/17 A2996 590 90 1200 190/06 RMK AO2 $
14840KMKG MKG20030720031009507/20/03 03:10:31  5-MIN KMKG 200810Z 19005KT 10SM CLR 18/17 A2996 590 90 1200 200/05 RMK AO2 $
14840KMKG MKG20030720031509507/20/03 03:15:31  5-MIN KMKG 200815Z 18006KT 10SM CLR 18/16 A2996 590 87 1200 180/06 RMK AO2 $
14840KMKG MKG20030720032009507/20/03 03:20:31  5-MIN KMKG 200820Z 20005KT 10SM CLR 18/16 A2996 600 87 1200 200/05 RMK AO2 $
14840KMKG MKG20030720032509507/20/03 03:25:31  5-MIN KMKG 200825Z 20006KT 10SM CLR 19/16 A2996 600 84 1200 200/06 RMK AO2 $
14840KMKG MKG20030720033009507/20/03 03:30:31  5-MIN KMKG 200830Z 19007KT 10SM CLR 19/16 A2995 600 81 1300 190/07 RMK AO2 $
14840KMKG MKG20030720033509507/20/03 03:35:31  5-MIN KMKG 200835Z 20005KT 10SM CLR 19/16 A2995 600 84 1200 200/05 RMK AO2 $
14840KMKG MKG20030720034009507/20/03 03:40:31  5-MIN KMKG 200840Z 20007KT 10SM CLR 19/16 A2995 600 84 1200 210/07 RMK AO2 $
14840KMKG MKG20030720034509507/20/03 03:45:31  5-MIN KMKG 200845Z 21008KT 10SM CLR 19/17 A2995 600 84 1300 210/08 RMK AO2 $
14840KMKG MKG20030720035011807/20/03 03:50:31  5-MIN KMKG 200850Z 21007KT 10SM CLR 19/17 A2995 600 84 1300 220/07 RMK AO2 SLP139 T01940167 58009 $
14840KMKG MKG20030720035511807/20/03 03:55:31  5-MIN KMKG 200855Z 22007KT 10SM CLR 19/17 A2995 600 84 1300 220/07 RMK AO2 SLP140 T01940167 56011 $
14840KMKG MKG20030720040009507/20/03 04:00:31  5-MIN KMKG 200900Z 20006KT 10SM CLR 19/17 A2995 600 84 1300 210/06 RMK AO2 $
14840KMKG MKG20030720040509807/20/03 04:05:31  5-MIN KMKG 200905Z 21007KT 10SM FEW120 19/17 A2995 600 84 1300 210/07 RMK AO2 $
14840KMKG MKG20030720041009807/20/03 04:10:31  5-MIN KMKG 200910Z 21006KT 10SM FEW120 19/17 A2995 610 84 1300 210/06 RMK AO2 $
14840KMKG MKG20030720041509807/20/03 04:15:31  5-MIN KMKG 200915Z 21007KT 10SM FEW120 19/17 A2995 600 84 1300 210/07 RMK AO2 $
14840KMKG MKG20030720042009807/20/03 04:20:31  5-MIN KMKG 200920Z 21008KT 10SM FEW120 19/17 A2995 600 84 1300 220/08 RMK AO2 $
14840KMKG MKG20030720042509807/20/03 04:25:31  5-MIN KMKG 200925Z 21007KT 10SM FEW120 19/17 A2995 600 84 1300 210/07 RMK AO2 $
14840KMKG MKG20030720043009807/20/03 04:30:31  5-MIN KMKG 200930Z 21007KT 10SM FEW120 19/17 A2995 600 87 1300 210/07 RMK AO2 $
14840KMKG MKG20030720043509807/20/03 04:35:31  5-MIN KMKG 200935Z 21007KT 10SM FEW120 19/17 A2995 600 87 1300 220/07 RMK AO2 $
14840KMKG MKG20030720044009807/20/03 04:40:31  5-MIN KMKG 200940Z 22007KT 10SM FEW120 19/17 A2995 610 87 1300 220/07 RMK AO2 $
14840KMKG MKG20030720044509807/20/03 04:45:31  5-MIN KMKG 200945Z 21007KT 10SM FEW120 19/17 A2994 610 87 1300 210/07 RMK AO2 $
14840KMKG MKG20030720045011507/20/03 04:50:31  5-MIN KMKG 200950Z 21008KT 10SM FEW120 19/17 A2995 610 84 1300 210/08 RMK AO2 SLP137 T01940167 $
14840KMKG MKG20030720045511507/20/03 04:55:31  5-MIN KMKG 200955Z 21008KT 10SM FEW120 19/17 A2994 610 84 1300 220/08 RMK AO2 SLP137 T01940167 $
14840KMKG MKG20030720050009507/20/03 05:00:31  5-MIN KMKG 201000Z 21009KT 10SM CLR 19/17 A2994 610 84 1300 220/09 RMK AO2 $
14840KMKG MKG20030720050509507/20/03 05:05:31  5-MIN KMKG 201005Z 22009KT 10SM CLR 19/17 A2994 610 84 1300 220/09 RMK AO2 $
14840KMKG MKG20030720051009507/20/03 05:10:31  5-MIN KMKG 201010Z 22009KT 10SM CLR 19/17 A2994 610 84 1300 220/09 RMK AO2 $
14840KMKG MKG20030720051509507/20/03 05:15:31  5-MIN KMKG 201015Z 22008KT 10SM CLR 19/17 A2994 610 84 1300 220/08 RMK AO2 $
14840KMKG MKG20030720052009507/20/03 05:20:31  5-MIN KMKG 201020Z 22009KT 10SM CLR 19/17 A2994 610 84 1300 220/09 RMK AO2 $
14840KMKG MKG20030720052509507/20/03 05:25:31  5-MIN KMKG 201025Z 22009KT 10SM CLR 19/17 A2994 620 84 1300 220/09 RMK AO2 $
14840KMKG MKG20030720053009507/20/03 05:30:31  5-MIN KMKG 201030Z 22008KT 10SM CLR 19/17 A2994 610 84 1300 220/08 RMK AO2 $
14840KMKG MKG20030720053509507/20/03 05:35:31  5-MIN KMKG 201035Z 22010KT 10SM CLR 19/17 A2993 620 84 1300 220/10 RMK AO2 $
14840KMKG MKG20030720054009507/20/03 05:40:31  5-MIN KMKG 201040Z 21009KT 10SM CLR 19/17 A2993 620 84 1300 220/09 RMK AO2 $
14840KMKG MKG20030720054509507/20/03 05:45:31  5-MIN KMKG 201045Z 22010KT 10SM CLR 20/17 A2993 620 81 1400 220/10 RMK AO2 $
14840KMKG MKG20030720055011507/20/03 05:50:31  5-MIN KMKG 201050Z 22009KT 10SM FEW110 20/17 A2993 620 81 1400 220/09 RMK AO2 SLP131 T02000167 $
14840KMKG MKG20030720055511507/20/03 05:55:31  5-MIN KMKG 201055Z 22010KT 10SM FEW110 20/16 A2993 630 78 1400 220/10 RMK AO2 SLP130 T02000161 $
14840KMKG MKG20030720060009807/20/03 06:00:31  5-MIN KMKG 201100Z 21009KT 10SM FEW120 20/16 A2992 630 78 1400 220/09 RMK AO2 $
14840KMKG MKG20030720060509807/20/03 06:05:31  5-MIN KMKG 201105Z 21010KT 10SM FEW120 20/16 A2992 630 78 1400 220/10 RMK AO2 $
14840KMKG MKG20030720061009807/20/03 06:10:31  5-MIN KMKG 201110Z 21010KT 10SM FEW120 20/16 A2992 630 78 1400 220/10 RMK AO2 $
14840KMKG MKG20030720061509807/20/03 06:15:31  5-MIN KMKG 201115Z 21010KT 10SM FEW120 20/17 A2991 640 81 1400 210/10 RMK AO2 $
14840KMKG MKG20030720062009807/20/03 06:20:31  5-MIN KMKG 201120Z 22011KT 10SM FEW120 21/17 A2991 640 81 1500 220/11 RMK AO2 $
14840KMKG MKG20030720062509807/20/03 06:25:31  5-MIN KMKG 201125Z 21010KT 10SM FEW120 21/17 A2991 640 78 1500 220/10 RMK AO2 $
14840KMKG MKG20030720063009807/20/03 06:30:31  5-MIN KMKG 201130Z 21010KT 10SM FEW120 20/16 A2991 640 75 1400 220/10 RMK AO2 $
14840KMKG MKG20030720063509807/20/03 06:35:31  5-MIN KMKG 201135Z 21012KT 10SM FEW120 20/16 A2990 640 78 1400 210/12 RMK AO2 $
14840KMKG MKG20030720064009807/20/03 06:40:31  5-MIN KMKG 201140Z 21010KT 10SM FEW120 21/16 A2990 650 75 1500 210/10 RMK AO2 $
14840KMKG MKG20030720064509807/20/03 06:45:31  5-MIN KMKG 201145Z 20010KT 10SM FEW120 21/16 A2990 650 75 1500 210/10 RMK AO2 $
14840KMKG MKG20030720065013307/20/03 06:50:31  5-MIN KMKG 201150Z 21011KT 10SM FEW120 21/16 A2989 650 75 1500 210/11 RMK AO2 SLP120 T02060161 10217 20167 56011 $
14840KMKG MKG20030720065513307/20/03 06:55:31  5-MIN KMKG 201155Z 21010KT 10SM FEW120 21/16 A2989 660 73 1600 210/10 RMK AO2 SLP119 T02110161 10217 20167 58020 $
14840KMKG MKG20030720070009807/20/03 07:00:31  5-MIN KMKG 201200Z 21011KT 10SM FEW120 21/16 A2990 650 73 1600 210/11 RMK AO2 $
14840KMKG MKG20030720070509807/20/03 07:05:31  5-MIN KMKG 201205Z 21011KT 10SM FEW120 21/17 A2990 650 75 1600 210/11 RMK AO2 $
14840KMKG MKG20030720071009807/20/03 07:10:31  5-MIN KMKG 201210Z 21011KT 10SM FEW120 22/17 A2990 650 73 1600 210/11 RMK AO2 $
14840KMKG MKG20030720071509807/20/03 07:15:31  5-MIN KMKG 201215Z 21011KT 10SM FEW120 21/16 A2989 660 73 1600 210/11 RMK AO2 $
14840KMKG MKG20030720072009807/20/03 07:20:31  5-MIN KMKG 201220Z 21012KT 10SM FEW120 22/17 A2989 660 73 1600 210/12 RMK AO2 $
14840KMKG MKG20030720072509807/20/03 07:25:31  5-MIN KMKG 201225Z 21012KT 10SM FEW120 22/17 A2989 660 73 1600 210/12 RMK AO2 $
14840KMKG MKG20030720073010407/20/03 07:30:31  5-MIN KMKG 201230Z 21015G19KT 10SM FEW120 22/16 A2989 660 68 1700 210/15G19 RMK AO2 $
14840KMKG MKG20030720073510407/20/03 07:35:31  5-MIN KMKG 201235Z 21014G19KT 10SM FEW090 22/16 A2989 660 68 1700 210/14G19 RMK AO2 $
14840KMKG MKG20030720074010107/20/03 07:40:31  5-MIN KMKG 201240Z 21015G20KT 10SM CLR 22/17 A2990 650 70 1700 210/15G20 RMK AO2 $
14840KMKG MKG20030720074510107/20/03 07:45:31  5-MIN KMKG 201245Z 21015G20KT 10SM CLR 22/16 A2990 650 68 1700 210/15G20 RMK AO2 $
14840KMKG MKG20030720075011807/20/03 07:50:31  5-MIN KMKG 201250Z 21014G20KT 10SM CLR 22/17 A2990 650 70 1700 210/14G20 RMK AO2 SLP122 T02220167 $
14840KMKG MKG20030720075511207/20/03 07:55:31  5-MIN KMKG 201255Z 21014KT 10SM CLR 22/17 A2989 660 70 1700 210/14 RMK AO2 SLP119 T02220167 $
14840KMKG MKG20030720080009507/20/03 08:00:31  5-MIN KMKG 201300Z 21014KT 10SM CLR 22/17 A2989 660 70 1700 210/14 RMK AO2 $
14840KMKG MKG20030720080509507/20/03 08:05:31  5-MIN KMKG 201305Z 21013KT 10SM CLR 23/17 A2989 660 68 1800 220/13 RMK AO2 $
14840KMKG MKG20030720081010107/20/03 08:10:31  5-MIN KMKG 201310Z 21016G22KT 10SM CLR 23/17 A2989 660 68 1800 220/16G22 RMK AO2 $
14840KMKG MKG20030720081510407/20/03 08:15:31  5-MIN KMKG 201315Z 22015G22KT 10SM FEW090 23/17 A2989 660 68 1800 220/15G22 RMK AO2 $
14840KMKG MKG20030720082009807/20/03 08:20:31  5-MIN KMKG 201320Z 21015KT 10SM FEW090 23/17 A2989 660 68 1800 210/15 RMK AO2 $
14840KMKG MKG20030720082509807/20/03 08:25:31  5-MIN KMKG 201325Z 21014KT 10SM FEW090 23/17 A2989 660 68 1800 210/14 RMK AO2 $
14840KMKG MKG20030720083009807/20/03 08:30:31  5-MIN KMKG 201330Z 22015KT 10SM FEW090 23/17 A2989 650 70 1700 220/15 RMK AO2 $
14840KMKG MKG20030720083509807/20/03 08:35:31  5-MIN KMKG 201335Z 21015KT 10SM FEW090 22/17 A2989 660 73 1700 220/15 RMK AO2 $
14840KMKG MKG20030720084010407/20/03 08:40:31  5-MIN KMKG 201340Z 21017G22KT 10SM SCT055 23/17 A2990 650 68 1700 220/17G22 RMK AO2 $
14840KMKG MKG20030720084510407/20/03 08:45:31  5-MIN KMKG 201345Z 22016G22KT 10SM SCT055 23/17 A2990 650 70 1700 220/16G22 RMK AO2 $
14840KMKG MKG20030720085011507/20/03 08:50:31  5-MIN KMKG 201350Z 22016KT 10SM SCT055 23/17 A2990 650 68 1800 220/16 RMK AO2 SLP121 T02330172 $
14840KMKG MKG20030720085511507/20/03 08:55:31  5-MIN KMKG 201355Z 21014KT 10SM BKN055 23/17 A2989 660 68 1800 220/14 RMK AO2 SLP119 T02330172 $
14840KMKG MKG20030720090009807/20/03 09:00:31  5-MIN KMKG 201400Z 22015KT 10SM BKN055 23/17 A2989 660 66 1800 220/15 RMK AO2 $
14840KMKG MKG20030720090509807/20/03 09:05:31  5-MIN KMKG 201405Z 21014KT 10SM SCT055 23/17 A2989 660 68 1800 220/14 RMK AO2 $
14840KMKG MKG20030720091009807/20/03 09:10:31  5-MIN KMKG 201410Z 21014KT 10SM FEW055 23/17 A2988 670 68 1800 220/14 RMK AO2 $
14840KMKG MKG20030720091509807/20/03 09:15:31  5-MIN KMKG 201415Z 21013KT 10SM SCT055 23/17 A2988 660 68 1800 210/13 RMK AO2 $
14840KMKG MKG20030720092009807/20/03 09:20:31  5-MIN KMKG 201420Z 21013KT 10SM SCT055 23/17 A2988 670 68 1800 220/13 RMK AO2 $
14840KMKG MKG20030720092509807/20/03 09:25:31  5-MIN KMKG 201425Z 23013KT 10SM SCT055 24/17 A2988 670 66 1900 230/13 RMK AO2 $
14840KMKG MKG20030720093009807/20/03 09:30:31  5-MIN KMKG 201430Z 22016KT 10SM SCT055 24/17 A2988 670 66 1900 220/16 RMK AO2 $
14840KMKG MKG20030720093511807/20/03 09:35:31  5-MIN KMKG 201435Z 22016G21KT 10SM FEW041 BKN049 BKN070 23/17 A2988 670 68 1800 220/16G21 RMK AO2 $
14840KMKG MKG20030720094011807/20/03 09:40:31  5-MIN KMKG 201440Z 22014G21KT 10SM FEW041 BKN049 BKN070 23/17 A2988 670 68 1800 230/14G21 RMK AO2 $
14840KMKG MKG20030720094511207/20/03 09:45:31  5-MIN KMKG 201445Z 21014KT 10SM SCT039 BKN049 BKN070 23/17 A2988 670 70 1800 220/14 RMK AO2 $
14840KMKG MKG20030720095013507/20/03 09:50:31  5-MIN KMKG 201450Z 21013KT 10SM SCT039 BKN050 OVC065 22/17 A2988 670 73 1700 220/13 RMK AO2 SLP115 T02220172 58020 $
14840KMKG MKG20030720095513507/20/03 09:55:31  5-MIN KMKG 201455Z 21012KT 10SM SCT039 BKN048 BKN055 22/17 A2987 670 75 1600 210/12 RMK AO2 SLP114 T02170172 58006 $
14840KMKG MKG20030720100010507/20/03 10:00:31  5-MIN KMKG 201500Z 20012KT 10SM BKN039 BKN048 22/17 A2987 680 75 1700 210/12 RMK AO2 $
14840KMKG MKG20030720100511207/20/03 10:05:31  5-MIN KMKG 201505Z 21012KT 10SM BKN041 BKN050 OVC065 22/17 A2987 680 75 1600 210/12 RMK AO2 $
14840KMKG MKG20030720101012807/20/03 10:10:31  5-MIN KMKG 201510Z 20013KT 10SM -RA FEW039 BKN047 OVC065 22/17 A2986 680 75 1700 210/13 RMK AO2 RAB10 P0000 $
14840KMKG MKG20030720101517107/20/03 10:15:31  5-MIN KMKG 201515Z 21013KT 10SM -TSRA FEW039 BKN047 OVC065 21/17 A2986 690 78 1600 210/13 RMK AO2 TSB15RAB10 OCNL LTGICCC RAB10TSB15 SW-NW MOV E P0000 $
14840KMKG MKG20030720102016307/20/03 10:20:31  5-MIN KMKG 201520Z 23013KT 10SM -TSRA FEW039 SCT047 OVC070 21/17 A2987 670 78 1600 230/13 RMK AO2 OCNL LTGICCC RAB10TSB15 TS W-NW MOV SE P0000 $
14840KMKG MKG20030720102516207/20/03 10:25:31  5-MIN KMKG 201525Z 20010KT 9SM -TSRA FEW039 BKN047 OVC065 21/17 A2986 680 78 1600 210/10 RMK AO2 OCNL LTGICCC RAB10TSB15 TS W-NW MOV SE P0000 $
14840KMKG MKG20030720103018607/20/03 10:30:31  5-MIN KMKG 201530Z 21010KT 6SM TSRA FEW022 BKN047 OVC065 21/18 A2987 680 84 1500 220/10 RMK AO2 VIS 2 1/2 RWY 14 OCNL LTGICCC RAB10TSB15 TS W-NW AND OHD MOV SE P0001 $
14840KMKG MKG20030720103519207/20/03 10:35:31  5-MIN KMKG 201535Z 22009G16KT 4SM -TSRA BR SCT033 BKN040 OVC065 20/18 A2988 670 90 1400 230/09G16 RMK AO2 VIS 2 RWY 14 OCNL LTGICCC RAB10TSB15 TS W-NW AND OHD MOV SE P0002 $
14840KMKG MKG20030720104021207/20/03 10:40:31  5-MIN KMKG 201540Z 19009G16KT 3SM +TSRA BR FEW020 BKN030 OVC065 20/18 A2986 680 90 1500 200/09G16 RMK AO2 VIS 1 1/4 RWY 14 CIG 023 RWY 14 OCNL LTGICCC RAB10TSB15 TS SW-NW AND OHD MOV SE P0004 $
14840KMKG MKG20030720104518707/20/03 10:45:31  5-MIN KMKG 201545Z VRB05KT 3SM -TSRA BR SCT018 BKN028 OVC047 20/18 A2987 670 90 1500 VRB/05 RMK AO2 VIS 1 RWY 14 OCNL LTGICCC RAB10TSB15 TS SW-NW AND OHD MOV SE P0005 $
14840KMKG MKG20030720105021907/20/03 10:50:31  5-MIN KMKG 201550Z VRB03KT 3SM -TSRA BR FEW010 BKN030 OVC042 19/18 A2987 670 93 1400 VRB/03 RMK AO2 VIS 2 RWY 14 CIG 023 RWY 14 SLP114 OCNL LTGICCC RAB10TSB15 TS SW-NW AND OHD MOV SE P0006 T01940183 $
14840KMKG MKG20030720105518707/20/03 10:55:31  5-MIN KMKG 201555Z 20005KT 3SM -TSRA BR SCT012 BKN023 OVC030 19/19 A2987 680 97 1400 200/05 RMK AO2 SLP113 OCNL LTGICCC RAB10TSB15 TS OHD AND E MOV SE P0006 T01940189 $
14840KMKG MKG20030720110015607/20/03 11:00:31  5-MIN KMKG 201600Z 18003KT 7SM -TSRA FEW010 BKN023 OVC032 19/19 A2987 680 97 1400 190/03 RMK AO2 OCNL LTGICCC TS OHD AND E MOV SE P0000 $
14840KMKG MKG20030720110515907/20/03 11:05:31  5-MIN KMKG 201605Z 17008KT 7SM TS FEW010 SCT017 OVC023 20/19 A2987 680 93 1500 170/08 RMK AO2 RAE01 OCNL LTGICCC TS OHD AND E MOV SE P0000 $
14840KMKG MKG20030720111015207/20/03 11:10:31  5-MIN KMKG 201610Z 20006KT 8SM TS FEW010 OVC023 20/19 A2987 680 93 1500 200/06 RMK AO2 RAE01 OCNL LTGICCC TS OHD AND E MOV SE P0000 $
14840KMKG MKG20030720111512107/20/03 11:15:31  5-MIN KMKG 201615Z 19008KT 9SM FEW010 OVC023 20/19 A2987 680 93 1500 190/08 RMK AO2 RAE01TSE14 P0000 $
14840KMKG MKG20030720112012107/20/03 11:20:31  5-MIN KMKG 201620Z VRB06KT 9SM FEW016 OVC021 20/19 A2986 680 93 1500 VRB/06 RMK AO2 RAE01TSE14 P0000 $
14840KMKG MKG20030720112511407/20/03 11:25:31  5-MIN KMKG 201625Z 18007KT 9SM OVC021 20/19 A2986 680 93 1500 180/07 RMK AO2 RAE01TSE14 P0000 $
14840KMKG MKG20030720113011407/20/03 11:30:31  5-MIN KMKG 201630Z 19007KT 8SM OVC021 20/19 A2986 680 93 1500 200/07 RMK AO2 RAE01TSE14 P0000 $
14840KMKG MKG20030720113511407/20/03 11:35:31  5-MIN KMKG 201635Z 21010KT 8SM OVC021 21/19 A2986 680 93 1500 220/10 RMK AO2 RAE01TSE14 P0000 $
14840KMKG MKG20030720114011407/20/03 11:40:31  5-MIN KMKG 201640Z 21009KT 8SM OVC021 21/19 A2986 680 90 1500 210/09 RMK AO2 RAE01TSE14 P0000 $
14840KMKG MKG20030720114511407/20/03 11:45:31  5-MIN KMKG 201645Z 21009KT 8SM OVC021 21/19 A2986 680 90 1500 210/09 RMK AO2 RAE01TSE14 P0000 $
14840KMKG MKG20030720115013107/20/03 11:50:31  5-MIN KMKG 201650Z 21007KT 8SM OVC021 21/19 A2987 680 93 1500 220/07 RMK AO2 SLP111 RAE01TSE14 P0000 T02060194 $
14840KMKG MKG20030720115513107/20/03 11:55:31  5-MIN KMKG 201655Z 22009KT 8SM OVC021 21/19 A2986 680 93 1500 220/09 RMK AO2 SLP110 RAE01TSE14 P0000 T02060194 $
14840KMKG MKG20030720120009707/20/03 12:00:31  5-MIN KMKG 201700Z 22007KT 8SM OVC021 21/19 A2986 690 93 1500 220/07 RMK AO2 $
14840KMKG MKG20030720120509707/20/03 12:05:31  5-MIN KMKG 201705Z 22009KT 8SM OVC021 21/19 A2986 690 93 1500 230/09 RMK AO2 $
14840KMKG MKG20030720121009707/20/03 12:10:31  5-MIN KMKG 201710Z 24009KT 8SM OVC019 21/19 A2986 690 90 1600 250/09 RMK AO2 $
14840KMKG MKG20030720121509707/20/03 12:15:31  5-MIN KMKG 201715Z 24009KT 7SM OVC019 21/19 A2986 690 93 1500 250/09 RMK AO2 $
14840KMKG MKG20030720122009707/20/03 12:20:31  5-MIN KMKG 201720Z 25009KT 7SM OVC019 21/19 A2985 690 90 1600 250/09 RMK AO2 $
14840KMKG MKG20030720122509707/20/03 12:25:31  5-MIN KMKG 201725Z 24008KT 8SM OVC019 21/19 A2985 690 90 1600 250/08 RMK AO2 $
14840KMKG MKG20030720123009707/20/03 12:30:31  5-MIN KMKG 201730Z 24010KT 8SM OVC019 22/19 A2985 700 87 1700 250/10 RMK AO2 $
14840KMKG MKG20030720123509707/20/03 12:35:31  5-MIN KMKG 201735Z 23009KT 8SM OVC019 22/20 A2985 700 87 1700 240/09 RMK AO2 $
14840KMKG MKG20030720124010307/20/03 12:40:31  5-MIN KMKG 201740Z 24011G16KT 8SM OVC021 22/20 A2985 700 87 1700 240/11G16 RMK AO2 $
14840KMKG MKG20030720124510307/20/03 12:45:31  5-MIN KMKG 201745Z 23011G17KT 9SM OVC021 23/20 A2985 700 84 1800 230/11G17 RMK AO2 $
14840KMKG MKG20030720125013807/20/03 12:50:31  5-MIN KMKG 201750Z 24012KT 9SM BKN021 23/21 A2985 700 84 1900 240/12 RMK AO2 SLP104 60006 T02330206 10239 20194 58006 $
14840KMKG MKG20030720125513807/20/03 12:55:31  5-MIN KMKG 201755Z 24011KT 9SM BKN021 23/21 A2985 700 87 1800 240/11 RMK AO2 SLP105 60006 T02280206 10239 20194 58008 $
14840KMKG MKG20030720130009707/20/03 13:00:31  5-MIN KMKG 201800Z 24010KT 9SM SCT021 23/21 A2985 700 84 1900 240/10 RMK AO2 $
14840KMKG MKG20030720130509707/20/03 13:05:31  5-MIN KMKG 201805Z 24011KT 9SM FEW021 23/21 A2985 700 87 1800 250/11 RMK AO2 $
14840KMKG MKG20030720131009707/20/03 13:10:31  5-MIN KMKG 201810Z 24009KT 9SM FEW021 24/21 A2985 700 81 1900 250/09 RMK AO2 $
14840KMKG MKG20030720131510407/20/03 13:15:31  5-MIN KMKG 201815Z 26011KT 9SM FEW022 SCT041 23/20 A2985 690 81 1900 270/11 RMK AO2 $
14840KMKG MKG20030720132010407/20/03 13:20:31  5-MIN KMKG 201820Z 26010KT 9SM SCT020 BKN041 23/20 A2985 690 84 1800 260/10 RMK AO2 $
14840KMKG MKG20030720132510407/20/03 13:25:31  5-MIN KMKG 201825Z 25010KT 8SM BKN020 BKN041 22/20 A2985 690 87 1700 250/10 RMK AO2 $
14840KMKG MKG20030720133010407/20/03 13:30:31  5-MIN KMKG 201830Z 24009KT 8SM BKN020 BKN041 22/20 A2985 690 87 1700 250/09 RMK AO2 $
14840KMKG MKG20030720133510407/20/03 13:35:31  5-MIN KMKG 201835Z 24008KT 8SM BKN020 OVC041 23/20 A2985 700 84 1800 250/08 RMK AO2 $
14840KMKG MKG20030720134009707/20/03 13:40:31  5-MIN KMKG 201840Z 25007KT 8SM OVC022 23/20 A2985 700 84 1800 250/07 RMK AO2 $
14840KMKG MKG20030720134509707/20/03 13:45:31  5-MIN KMKG 201845Z 23008KT 8SM BKN022 23/21 A2985 700 84 1900 240/08 RMK AO2 $
14840KMKG MKG20030720135011407/20/03 13:50:31  5-MIN KMKG 201850Z 24008KT 8SM BKN022 23/21 A2985 700 84 1900 250/08 RMK AO2 SLP104 T02330206 $
14840KMKG MKG20030720135511407/20/03 13:55:31  5-MIN KMKG 201855Z 24009KT 9SM SCT022 24/21 A2984 700 81 1900 240/09 RMK AO2 SLP104 T02390206 $
14840KMKG MKG20030720140009707/20/03 14:00:31  5-MIN KMKG 201900Z 25009KT 9SM SCT022 24/21 A2984 700 78 2000 250/09 RMK AO2 $
14840KMKG MKG20030720140509707/20/03 14:05:31  5-MIN KMKG 201905Z 25008KT 9SM FEW022 24/21 A2984 700 81 1900 250/08 RMK AO2 $
14840KMKG MKG20030720141009407/20/03 14:10:31  5-MIN KMKG 201910Z 25009KT 9SM CLR 24/21 A2984 700 78 2000 260/09 RMK AO2 $
14840KMKG MKG20030720141509407/20/03 14:15:31  5-MIN KMKG 201915Z 24010KT 9SM CLR 24/21 A2984 710 81 1900 240/10 RMK AO2 $
14840KMKG MKG20030720142009407/20/03 14:20:31  5-MIN KMKG 201920Z 26008KT 9SM CLR 24/21 A2984 710 81 1900 260/08 RMK AO2 $
14840KMKG MKG20030720142509407/20/03 14:25:31  5-MIN KMKG 201925Z 25008KT 9SM CLR 24/21 A2983 710 78 2000 250/08 RMK AO2 $
14840KMKG MKG20030720143009707/20/03 14:30:31  5-MIN KMKG 201930Z 24008KT 9SM FEW027 24/21 A2983 710 78 2000 240/08 RMK AO2 $
14840KMKG MKG20030720143509707/20/03 14:35:31  5-MIN KMKG 201935Z 26007KT 9SM FEW027 24/21 A2983 710 78 2000 260/07 RMK AO2 $
14840KMKG MKG20030720144009707/20/03 14:40:31  5-MIN KMKG 201940Z 25006KT 9SM FEW027 25/21 A2983 710 76 2100 260/06 RMK AO2 $
14840KMKG MKG20030720144509707/20/03 14:45:31  5-MIN KMKG 201945Z 25007KT 9SM SCT027 26/21 A2983 710 76 2100 250/07 RMK AO2 $
14840KMKG MKG20030720145011507/20/03 14:50:31  5-MIN KMKG 201950Z 26006KT 10SM SCT027 25/21 A2983 710 76 2100 270/06 RMK AO2 SLP099 T02500206 $
14840KMKG MKG20030720145511507/20/03 14:55:31  5-MIN KMKG 201955Z 26006KT 10SM BKN027 25/21 A2983 710 76 2100 270/06 RMK AO2 SLP099 T02500206 $
14840KMKG MKG20030720150009807/20/03 15:00:31  5-MIN KMKG 202000Z 25007KT 10SM BKN027 26/21 A2983 710 73 2100 260/07 RMK AO2 $
14840KMKG MKG20030720150509807/20/03 15:05:31  5-MIN KMKG 202005Z 25008KT 10SM BKN027 26/21 A2983 710 73 2100 260/08 RMK AO2 $
14840KMKG MKG20030720151009807/20/03 15:10:31  5-MIN KMKG 202010Z 26008KT 10SM BKN027 25/21 A2983 710 76 2100 270/08 RMK AO2 $
14840KMKG MKG20030720151509807/20/03 15:15:31  5-MIN KMKG 202015Z 24007KT 10SM BKN027 26/21 A2983 710 73 2100 240/07 RMK AO2 $
14840KMKG MKG20030720152009807/20/03 15:20:31  5-MIN KMKG 202020Z 26009KT 10SM BKN027 25/21 A2983 710 76 2100 260/09 RMK AO2 $
14840KMKG MKG20030720152509707/20/03 15:25:31  5-MIN KMKG 202025Z 24009KT 9SM BKN027 25/21 A2984 710 76 2100 250/09 RMK AO2 $
14840KMKG MKG20030720153009707/20/03 15:30:31  5-MIN KMKG 202030Z 25009KT 9SM SCT027 24/21 A2984 710 78 2000 250/09 RMK AO2 $
14840KMKG MKG20030720153509707/20/03 15:35:31  5-MIN KMKG 202035Z 25010KT 9SM FEW027 24/21 A2984 710 78 2000 260/10 RMK AO2 $
14840KMKG MKG20030720154009707/20/03 15:40:31  5-MIN KMKG 202040Z 27010KT 9SM FEW027 24/21 A2984 700 78 2000 270/10 RMK AO2 $
14840KMKG MKG20030720154509407/20/03 15:45:31  5-MIN KMKG 202045Z 27008KT 9SM CLR 24/21 A2984 700 78 2000 270/08 RMK AO2 $
14840KMKG MKG20030720155011707/20/03 15:50:31  5-MIN KMKG 202050Z 24009KT 9SM CLR 24/21 A2984 700 78 2000 250/09 RMK AO2 SLP102 T02440206 58008 $
14840KMKG MKG20030720155512007/20/03 15:55:31  5-MIN KMKG 202055Z 25008KT 9SM SCT027 24/21 A2984 710 78 2000 250/08 RMK AO2 SLP100 T02440206 55003 $
14840KMKG MKG20030720160009407/20/03 16:00:31  5-MIN KMKG 202100Z 24007KT 9SM CLR 24/21 A2984 710 78 2000 250/07 RMK AO2 $
14840KMKG MKG20030720160509407/20/03 16:05:31  5-MIN KMKG 202105Z 26006KT 9SM CLR 24/21 A2984 710 81 1900 270/06 RMK AO2 $
14840KMKG MKG20030720161009407/20/03 16:10:31  5-MIN KMKG 202110Z 25008KT 8SM CLR 24/21 A2984 710 81 1900 260/08 RMK AO2 $
14840KMKG MKG20030720161509407/20/03 16:15:31  5-MIN KMKG 202115Z 26007KT 8SM CLR 24/21 A2984 710 81 1900 270/07 RMK AO2 $
14840KMKG MKG20030720162009407/20/03 16:20:31  5-MIN KMKG 202120Z 26008KT 8SM CLR 23/20 A2984 710 81 1900 260/08 RMK AO2 $
14840KMKG MKG20030720162509407/20/03 16:25:31  5-MIN KMKG 202125Z 26008KT 8SM CLR 23/20 A2984 710 81 1900 260/08 RMK AO2 $
14840KMKG MKG20030720163009407/20/03 16:30:31  5-MIN KMKG 202130Z 25006KT 8SM CLR 23/20 A2983 710 81 1900 260/06 RMK AO2 $
14840KMKG MKG20030720163509407/20/03 16:35:31  5-MIN KMKG 202135Z 25006KT 8SM CLR 23/20 A2983 710 81 1900 260/06 RMK AO2 $
14840KMKG MKG20030720164009407/20/03 16:40:31  5-MIN KMKG 202140Z 25006KT 8SM CLR 24/21 A2983 720 81 1900 250/06 RMK AO2 $
14840KMKG MKG20030720164509707/20/03 16:45:31  5-MIN KMKG 202145Z 24006KT 8SM BKN080 24/21 A2983 720 81 1900 240/06 RMK AO2 $
14840KMKG MKG20030720165011407/20/03 16:50:31  5-MIN KMKG 202150Z 26006KT 8SM BKN080 24/21 A2983 720 81 1900 260/06 RMK AO2 SLP097 T02390206 $
14840KMKG MKG20030720165511407/20/03 16:55:31  5-MIN KMKG 202155Z 25005KT 8SM BKN080 24/20 A2983 710 78 1900 250/05 RMK AO2 SLP098 T02390200 $
14840KMKG MKG20030720170009407/20/03 17:00:31  5-MIN KMKG 202200Z 25007KT 9SM CLR 24/21 A2983 710 81 1900 260/07 RMK AO2 $
14840KMKG MKG20030720170509407/20/03 17:05:31  5-MIN KMKG 202205Z 24006KT 8SM CLR 24/21 A2982 720 81 2000 240/06 RMK AO2 $
14840KMKG MKG20030720171009407/20/03 17:10:31  5-MIN KMKG 202210Z 24006KT 8SM CLR 24/21 A2982 720 81 2000 240/06 RMK AO2 $
14840KMKG MKG20030720171509407/20/03 17:15:31  5-MIN KMKG 202215Z 21006KT 8SM CLR 23/21 A2982 720 84 1900 210/06 RMK AO2 $
14840KMKG MKG20030720172009407/20/03 17:20:31  5-MIN KMKG 202220Z 22007KT 8SM CLR 23/21 A2982 720 84 1900 220/07 RMK AO2 $
14840KMKG MKG20030720172509407/20/03 17:25:31  5-MIN KMKG 202225Z 21006KT 8SM CLR 23/21 A2982 720 84 1900 220/06 RMK AO2 $
14840KMKG MKG20030720173009407/20/03 17:30:31  5-MIN KMKG 202230Z 20007KT 8SM CLR 23/21 A2982 730 84 1900 200/07 RMK AO2 $
14840KMKG MKG20030720173509407/20/03 17:35:31  5-MIN KMKG 202235Z 21008KT 8SM CLR 23/21 A2982 720 84 1900 210/08 RMK AO2 $
14840KMKG MKG20030720174009707/20/03 17:40:31  5-MIN KMKG 202240Z 22006KT 8SM SCT080 23/21 A2982 720 84 1900 220/06 RMK AO2 $
14840KMKG MKG20030720174509707/20/03 17:45:31  5-MIN KMKG 202245Z 23005KT 8SM SCT080 23/21 A2982 720 87 1800 230/05 RMK AO2 $
14840KMKG MKG20030720175011407/20/03 17:50:31  5-MIN KMKG 202250Z 23004KT 7SM SCT080 23/21 A2983 720 87 1800 240/04 RMK AO2 SLP096 T02280206 $
14840KMKG MKG20030720175513007/20/03 17:55:31  5-MIN KMKG 202255Z 22003KT 7SM -RA SCT080 23/21 A2982 720 87 1800 220/03 RMK AO2 RAB53 SLP095 P0000 T02280206 $
14840KMKG MKG20030720180010707/20/03 18:00:31  5-MIN KMKG 202300Z 21005KT 7SM -RA OVC050 23/20 A2982 730 84 1800 210/05 RMK AO2 P0000 $
14840KMKG MKG20030720180511607/20/03 18:05:31  5-MIN KMKG 202305Z 18005KT 7SM SCT050 OVC090 23/20 A2981 730 84 1800 190/05 RMK AO2 RAE02 P0000 $
14840KMKG MKG20030720181011607/20/03 18:10:31  5-MIN KMKG 202310Z 00000KT 7SM SCT050 OVC090 23/20 A2981 730 84 1800 000/00 RMK AO2 RAE02 P0000 $
14840KMKG MKG20030720181511607/20/03 18:15:31  5-MIN KMKG 202315Z 18003KT 7SM SCT050 OVC090 23/20 A2980 740 84 1900 180/03 RMK AO2 RAE02 P0000 $
14840KMKG MKG20030720182011607/20/03 18:20:31  5-MIN KMKG 202320Z 17003KT 7SM SCT050 OVC090 23/20 A2980 740 84 1900 180/03 RMK AO2 RAE02 P0000 $
14840KMKG MKG20030720182511607/20/03 18:25:31  5-MIN KMKG 202325Z 21005KT 7SM SCT050 OVC090 23/20 A2981 730 84 1800 220/05 RMK AO2 RAE02 P0000 $
14840KMKG MKG20030720183011607/20/03 18:30:31  5-MIN KMKG 202330Z 21006KT 7SM SCT050 OVC090 23/21 A2981 730 87 1800 220/06 RMK AO2 RAE02 P0000 $
14840KMKG MKG20030720183511607/20/03 18:35:31  5-MIN KMKG 202335Z 22007KT 7SM SCT050 OVC090 23/21 A2982 730 87 1800 220/07 RMK AO2 RAE02 P0000 $
14840KMKG MKG20030720184011907/20/03 18:40:31  5-MIN KMKG 202340Z 22008KT 6SM BR SCT050 OVC090 22/21 A2982 730 90 1800 220/08 RMK AO2 RAE02 P0000 $
14840KMKG MKG20030720184512607/20/03 18:45:31  5-MIN KMKG 202345Z 22007KT 6SM -RA BR SCT050 OVC090 22/21 A2982 720 90 1800 220/07 RMK AO2 RAE02B41 P0000 $
14840KMKG MKG20030720185016707/20/03 18:50:31  5-MIN KMKG 202350Z 21008KT 6SM -RA BR SCT050 OVC090 22/21 A2982 720 90 1800 210/08 RMK AO2 RAE02B41 SLP095 P0001 60001 T02220206 10256 20222 55003 $
14840KMKG MKG20030720185516707/20/03 18:55:31  5-MIN KMKG 202355Z 21006KT 6SM -RA BR SCT050 OVC090 22/21 A2982 720 93 1700 210/06 RMK AO2 RAE02B41 SLP094 P0001 60001 T02170206 10256 20217 56006 $
14840KMKG MKG20030720190011007/20/03 19:00:31  5-MIN KMKG 210000Z 22005KT 5SM -RA BR FEW042 22/21 A2982 720 93 1700 220/05 RMK AO2 P0000 $
14840KMKG MKG20030720190511007/20/03 19:05:31  5-MIN KMKG 210005Z 22003KT 5SM -RA BR FEW044 22/21 A2982 720 93 1700 230/03 RMK AO2 P0000 $
14840KMKG MKG20030720191011007/20/03 19:10:31  5-MIN KMKG 210010Z 00000KT 4SM -RA BR FEW045 22/21 A2982 720 93 1700 000/00 RMK AO2 P0000 $
14840KMKG MKG20030720191511707/20/03 19:15:31  5-MIN KMKG 210015Z 00000KT 4SM -RA BR BKN040 OVC080 22/21 A2982 730 93 1700 000/00 RMK AO2 P0000 $
14840KMKG MKG20030720192011707/20/03 19:20:31  5-MIN KMKG 210020Z 00000KT 4SM -RA BR BKN040 OVC080 22/21 A2982 730 90 1800 000/00 RMK AO2 P0001 $
14840KMKG MKG20030720192511707/20/03 19:25:31  5-MIN KMKG 210025Z 17004KT 4SM -RA BR BKN040 OVC080 22/21 A2981 730 93 1700 180/04 RMK AO2 P0001 $
14840KMKG MKG20030720193011707/20/03 19:30:31  5-MIN KMKG 210030Z 18004KT 4SM -RA BR BKN040 OVC080 22/21 A2981 730 93 1700 180/04 RMK AO2 P0001 $
14840KMKG MKG20030720193511707/20/03 19:35:31  5-MIN KMKG 210035Z 17003KT 4SM -RA BR BKN040 OVC080 22/21 A2980 740 93 1700 180/03 RMK AO2 P0002 $
14840KMKG MKG20030720194011707/20/03 19:40:31  5-MIN KMKG 210040Z 19003KT 4SM -RA BR BKN040 OVC080 22/21 A2981 730 93 1700 200/03 RMK AO2 P0002 $
14840KMKG MKG20030720194511707/20/03 19:45:31  5-MIN KMKG 210045Z 00000KT 4SM -RA BR BKN040 OVC080 22/21 A2980 740 93 1700 000/00 RMK AO2 P0002 $
14840KMKG MKG20030720195015307/20/03 19:50:31  5-MIN KMKG 210050Z 12003KT 4SM BR BKN040 OVC080 22/21 A2980 740 97 1700 120/03 RMK AO2 VIS 2 1/2 RWY 14 RAE48 SLP087 P0002 T02170211 $
14840KMKG MKG20030720195514907/20/03 19:55:31  5-MIN KMKG 210055Z 11003KT 4SM BR BKN040 OVC080 22/21 A2979 750 97 1700 120/03 RMK AO2 VIS 2 RWY 14 RAE48 SLP085 P0002 T02170211 $
14840KMKG MKG20030720200012007/20/03 20:00:31  5-MIN KMKG 210100Z 11003KT 3SM BR FEW031 OVC100 22/21 A2979 750 97 1700 110/03 RMK AO2 VIS 2 RWY 14 $
14840KMKG MKG20030720200510007/20/03 20:05:31  5-MIN KMKG 210105Z 15003KT 3SM BR OVC100 22/21 A2978 760 97 1700 150/03 RMK AO2 $
14840KMKG MKG20030720201010007/20/03 20:10:31  5-MIN KMKG 210110Z 00000KT 3SM BR OVC100 22/21 A2979 750 97 1700 000/00 RMK AO2 $
14840KMKG MKG20030720201510007/20/03 20:15:31  5-MIN KMKG 210115Z 26003KT 3SM BR OVC100 22/21 A2979 750 97 1700 260/03 RMK AO2 $
14840KMKG MKG20030720202010107/20/03 20:20:31  5-MIN KMKG 210120Z 26003KT 4SM BR OVC100 21/21 A2979 750 100 1700 260/03 RMK AO2 $
14840KMKG MKG20030720202510107/20/03 20:25:31  5-MIN KMKG 210125Z 00000KT 4SM BR OVC100 21/21 A2979 750 100 1700 000/00 RMK AO2 $
14840KMKG MKG20030720203010007/20/03 20:30:31  5-MIN KMKG 210130Z 00000KT 4SM BR OVC100 22/21 A2980 750 97 1700 000/00 RMK AO2 $
14840KMKG MKG20030720203510107/20/03 20:35:31  5-MIN KMKG 210135Z 22005KT 4SM BR OVC100 21/21 A2980 740 100 1700 230/05 RMK AO2 $
14840KMKG MKG20030720204010107/20/03 20:40:31  5-MIN KMKG 210140Z 22004KT 3SM BR OVC100 21/21 A2980 740 100 1700 230/04 RMK AO2 $
14840KMKG MKG20030720204510107/20/03 20:45:31  5-MIN KMKG 210145Z 22004KT 3SM BR OVC100 21/21 A2980 740 100 1700 230/04 RMK AO2 $
14840KMKG MKG20030720205011807/20/03 20:50:31  5-MIN KMKG 210150Z 00000KT 3SM BR OVC100 21/21 A2980 740 100 1700 000/00 RMK AO2 SLP087 T02110211 $
14840KMKG MKG20030720205511807/20/03 20:55:31  5-MIN KMKG 210155Z 20003KT 3SM BR OVC100 21/21 A2980 740 100 1700 200/03 RMK AO2 SLP088 T02110211 $
14840KMKG MKG20030720210011907/20/03 21:00:31  5-MIN KMKG 210200Z 19003KT 3SM -RA BR OVC100 21/21 A2980 740 100 1700 190/03 RMK AO2 RAB0159 P0000 $
14840KMKG MKG20030720210512607/20/03 21:05:31  5-MIN KMKG 210205Z 16003KT 3SM -RA BR FEW028 OVC100 21/21 A2980 740 100 1700 160/03 RMK AO2 RAB0159 P0001 $
14840KMKG MKG20030720211012507/20/03 21:10:31  5-MIN KMKG 210210Z 14003KT 4SM RA BR FEW024 OVC100 21/21 A2980 740 100 1700 140/03 RMK AO2 RAB0159 P0001 $
14840KMKG MKG20030720211512607/20/03 21:15:31  5-MIN KMKG 210215Z 13003KT 4SM -RA BR FEW024 OVC100 21/21 A2980 740 100 1700 130/03 RMK AO2 RAB0159 P0001 $
14840KMKG MKG20030720212012507/20/03 21:20:31  5-MIN KMKG 210220Z 16004KT 4SM BR FEW026 OVC100 21/21 A2980 740 100 1700 170/04 RMK AO2 RAB0159E19 P0001 $
14840KMKG MKG20030720212512507/20/03 21:25:31  5-MIN KMKG 210225Z 17004KT 4SM BR FEW026 OVC100 21/21 A2980 740 100 1700 170/04 RMK AO2 RAB0159E19 P0001 $
14840KMKG MKG20030720213012507/20/03 21:30:31  5-MIN KMKG 210230Z 18004KT 4SM BR FEW022 OVC100 21/21 A2980 740 100 1700 180/04 RMK AO2 RAB0159E19 P0001 $
14840KMKG MKG20030720213511807/20/03 21:35:31  5-MIN KMKG 210235Z 16003KT 4SM BR BKN100 21/21 A2980 740 100 1700 160/03 RMK AO2 RAB0159E19 P0001 $
14840KMKG MKG20030720214011807/20/03 21:40:31  5-MIN KMKG 210240Z 14004KT 4SM BR BKN100 21/21 A2980 740 100 1700 140/04 RMK AO2 RAB0159E19 P0001 $
14840KMKG MKG20030720214511807/20/03 21:45:31  5-MIN KMKG 210245Z 11004KT 4SM BR BKN100 21/21 A2980 740 100 1700 120/04 RMK AO2 RAB0159E19 P0001 $
14840KMKG MKG20030720215014707/20/03 21:50:31  5-MIN KMKG 210250Z 10003KT 3SM BR BKN110 21/21 A2981 740 100 1700 100/03 RMK AO2 RAB0159E19 SLP089 P0001 60003 T02110211 56006 $
14840KMKG MKG20030720215514707/20/03 21:55:31  5-MIN KMKG 210255Z 13004KT 3SM BR BKN110 21/21 A2980 740 100 1700 130/04 RMK AO2 RAB0159E19 SLP089 P0001 60003 T02110211 55005 $
14840KMKG MKG20030720220010007/20/03 22:00:31  5-MIN KMKG 210300Z 13004KT 3SM BR BKN110 22/21 A2981 740 97 1700 140/04 RMK AO2 $
14840KMKG MKG20030720220510007/20/03 22:05:31  5-MIN KMKG 210305Z 13004KT 3SM BR BKN110 22/21 A2981 730 97 1700 140/04 RMK AO2 $
14840KMKG MKG20030720221011407/20/03 22:10:31  5-MIN KMKG 210310Z 14004KT 3SM BR FEW033 SCT070 OVC110 22/21 A2981 730 97 1700 140/04 RMK AO2 $
14840KMKG MKG20030720221513107/20/03 22:15:31  5-MIN KMKG 210315Z 13004KT 3SM BR FEW033 SCT070 OVC110 22/21 A2981 740 97 1700 130/04 RMK AO2 VIS 2 1/2 RWY 14 $
14840KMKG MKG20030720222012707/20/03 22:20:31  5-MIN KMKG 210320Z 13003KT 3SM BR FEW033 SCT070 OVC110 22/21 A2981 740 97 1700 130/03 RMK AO2 VIS 2 RWY 14 $
14840KMKG MKG20030720222512707/20/03 22:25:31  5-MIN KMKG 210325Z 16003KT 3SM BR SCT033 BKN070 OVC110 22/21 A2980 740 97 1700 170/03 RMK AO2 VIS 2 RWY 14 $
14840KMKG MKG20030720223013107/20/03 22:30:31  5-MIN KMKG 210330Z 00000KT 4SM BR SCT033 BKN070 BKN120 22/21 A2980 750 97 1700 000/00 RMK AO2 VIS 2 1/2 RWY 14 $
14840KMKG MKG20030720223513107/20/03 22:35:31  5-MIN KMKG 210335Z 01006KT 4SM BR SCT033 BKN070 BKN120 22/21 A2980 740 97 1700 010/06 RMK AO2 VIS 2 1/2 RWY 14 $
14840KMKG MKG20030720224013207/20/03 22:40:31  5-MIN KMKG 210340Z 02009KT 4SM BR FEW006 BKN070 OVC120 21/21 A2980 740 100 1700 020/09 RMK AO2 VIS 2 1/2 RWY 14 $
14840KMKG MKG20030720224511407/20/03 22:45:31  5-MIN KMKG 210345Z 00000KT 4SM BR SCT006 BKN031 BKN070 22/21 A2980 750 97 1700 000/00 RMK AO2 $
14840KMKG MKG20030720225013107/20/03 22:50:31  5-MIN KMKG 210350Z 03010KT 5SM BR SCT008 BKN031 OVC070 22/21 A2980 740 97 1700 030/10 RMK AO2 SLP088 T02170211 $
14840KMKG MKG20030720225514607/20/03 22:55:31  5-MIN KMKG 210355Z 06004KT 5SM BR SCT010 BKN031 OVC070 22/21 A2980 750 93 1700 070/04 RMK AO2 CIG 012 RWY 14 SLP087 T02170206 $
14840KMKG MKG20030720230011407/20/03 23:00:31  5-MIN KMKG 210400Z 02006KT 6SM BR SCT008 BKN031 OVC070 22/21 A2980 740 93 1700 020/06 RMK AO2 $
14840KMKG MKG20030720230511407/20/03 23:05:31  5-MIN KMKG 210405Z 02008KT 5SM BR SCT008 BKN013 OVC038 22/21 A2980 740 93 1700 020/08 RMK AO2 $
14840KMKG MKG20030720231012907/20/03 23:10:31  5-MIN KMKG 210410Z 03008KT 5SM BR SCT010 BKN025 OVC040 21/21 A2979 750 97 1700 030/08 RMK AO2 CIG 012 RWY 14 $
14840KMKG MKG20030720231512907/20/03 23:15:31  5-MIN KMKG 210415Z 05007KT 6SM BR SCT012 BKN027 OVC075 21/21 A2978 760 97 1700 060/07 RMK AO2 CIG 012 RWY 14 $
14840KMKG MKG20030720232013007/20/03 23:20:31  5-MIN KMKG 210420Z 06006KT 6SM -RA BR SCT012 BKN025 OVC055 21/20 A2978 760 93 1700 060/06 RMK AO2 RAB16 P0000 $
14840KMKG MKG20030720232513007/20/03 23:25:31  5-MIN KMKG 210425Z 09006KT 4SM +RA BR FEW012 SCT025 OVC036 21/20 A2977 770 93 1700 100/06 RMK AO2 RAB16 P0004 $
14840KMKG MKG20030720233012907/20/03 23:30:31  5-MIN KMKG 210430Z 10006KT 3SM RA BR FEW012 BKN028 OVC085 21/20 A2977 770 97 1600 110/06 RMK AO2 RAB16 P0005 $
14840KMKG MKG20030720233513007/20/03 23:35:31  5-MIN KMKG 210435Z 05008KT 4SM -RA BR FEW012 BKN035 OVC090 21/20 A2978 760 97 1600 060/08 RMK AO2 RAB16 P0006 $
14840KMKG MKG20030720234018807/20/03 23:40:31  5-MIN KMKG 210440Z 04009KT 4SM TSRA BR BKN033 OVC090 21/20 A2979 760 97 1600 050/09 RMK AO2 VIS 1 1/2 RWY 14 CIG 027 RWY 14 OCNL LTGICCA RAB16TSB35 TS OHD MOV SE P0008 $
14840KMKG MKG20030720234517707/20/03 23:45:31  5-MIN KMKG 210445Z 05008KT 4SM -TSRA BR BKN023 BKN080 OVC095 20/19 A2978 760 97 1600 060/08 RMK AO2 VIS 1 RWY 14 OCNL LTGICCA RAB16TSB35 TS OHD MOV SE P0009 $
14840KMKG MKG20030720235022007/20/03 23:50:31  5-MIN KMKG 210450Z 07010KT 7SM -TSRA SCT019 BKN047 OVC080 20/19 A2978 760 93 1600 070/10 RMK AO2 VIS 1 3/4 RWY 14 CIG 022 RWY 14 SLP082 OCNL LTGICCA RAB16TSB35 TS OHD MOV SE P0009 T02000189 402560167 $
14840KMKG MKG20030720235519107/20/03 23:55:31  5-MIN KMKG 210455Z VRB04KT 10SM -TSRA SCT019 BKN045 OVC095 20/18 A2979 750 90 1500 VRB/04 RMK AO2 SLP086 OCNL LTGICCA RAB16TSB35 TS OHD-E MOV SE P0009 T02000183 402560167 $
14840KMKG MKG20030721000015807/21/03 00:00:32  5-MIN KMKG 210500Z 11005KT 10SM TS SCT021 BKN040 OVC090 20/18 A2978 760 90 1600 120/05 RMK AO2 RAE0458 OCNL LTCICCA TS OHD-E MOV SE P0000 $
14840KMKG MKG20030721000515807/21/03 00:05:31  5-MIN KMKG 210505Z 10007KT 10SM TS FEW019 BKN040 OVC080 19/18 A2978 760 90 1500 100/07 RMK AO2 RAE0458 OCNL LTCICCA TS OHD-E MOV SE P0000 $
14840KMKG MKG20030721001015807/21/03 00:10:31  5-MIN KMKG 210510Z 09007KT 10SM TS FEW019 SCT042 BKN055 19/18 A2977 770 90 1500 090/07 RMK AO2 RAE0458 OCNL LTCICCA TS OHD-E MOV SE P0000 $
14840KMKG MKG20030721001515807/21/03 00:15:31  5-MIN KMKG 210515Z 09004KT 10SM TS FEW019 SCT042 BKN055 19/18 A2977 770 90 1500 100/04 RMK AO2 RAE0458 OCNL LTCICCA TS OHD-E MOV SE P0000 $
14840KMKG MKG20030721002012407/21/03 00:20:31  5-MIN KMKG 210520Z 06005KT 10SM FEW021 SCT055 19/18 A2976 780 93 1400 070/05 RMK AO2 TSE20RAE0458 P0000 $
14840KMKG MKG20030721002512407/21/03 00:25:31  5-MIN KMKG 210525Z 10005KT 10SM FEW036 SCT055 19/18 A2976 780 93 1500 100/05 RMK AO2 TSE20RAE0458 P0000 $
14840KMKG MKG20030721003012407/21/03 00:30:31  5-MIN KMKG 210530Z 09005KT 10SM FEW039 SCT055 19/18 A2976 780 97 1500 090/05 RMK AO2 TSE20RAE0458 P0000 $
14840KMKG MKG20030721003514607/21/03 00:35:31  5-MIN KMKG 210535Z 08004KT 10SM FEW039 SCT055 BKN075 19/18 A2975 780 97 1500 080/04 RMK AO2 TSE20RAE0458 CIG 050 RWY 14 P0000 $
14840KMKG MKG20030721004013107/21/03 00:40:31  5-MIN KMKG 210540Z 09005KT 10SM FEW039 SCT055 SCT080 19/18 A2975 780 93 1500 090/05 RMK AO2 TSE20RAE0458 P0000 $
14840KMKG MKG20030721004512407/21/03 00:45:31  5-MIN KMKG 210545Z 11005KT 10SM FEW039 SCT060 19/18 A2976 780 93 1500 110/05 RMK AO2 TSE20RAE0458 P0000 $
14840KMKG MKG20030721005017207/21/03 00:50:31  5-MIN KMKG 210550Z 10007KT 10SM FEW039 SCT050 BKN060 19/18 A2975 790 93 1500 110/07 RMK AO2 TSE20RAE0458 SLP073 P0000 60012 T01890178 10222 20189 55005 $
14840KMKG MKG20030721005517207/21/03 00:55:31  5-MIN KMKG 210555Z 10006KT 10SM FEW039 SCT050 BKN060 19/18 A2975 790 93 1500 100/06 RMK AO2 TSE20RAE0458 SLP071 P0000 60012 T01890178 10222 20189 58019 $
14840KMKG MKG20030721010010507/21/03 01:00:31  5-MIN KMKG 210600Z 12006KT 10SM FEW050 SCT060 19/17 A2975 790 90 1500 120/06 RMK AO2 $
14840KMKG MKG20030721010510507/21/03 01:05:31  5-MIN KMKG 210605Z 12006KT 10SM FEW049 SCT060 18/17 A2974 790 93 1400 120/06 RMK AO2 $
14840KMKG MKG20030721011010507/21/03 01:10:31  5-MIN KMKG 210610Z 12006KT 10SM FEW049 SCT060 18/17 A2974 800 93 1400 130/06 RMK AO2 $
14840KMKG MKG20030721011509807/21/03 01:15:31  5-MIN KMKG 210615Z 12007KT 10SM SCT049 18/17 A2973 810 93 1400 130/07 RMK AO2 $
14840KMKG MKG20030721012009807/21/03 01:20:31  5-MIN KMKG 210620Z 13006KT 10SM SCT049 18/17 A2973 810 93 1400 130/06 RMK AO2 $
14840KMKG MKG20030721012509807/21/03 01:25:31  5-MIN KMKG 210625Z 12005KT 10SM FEW049 18/18 A2972 810 96 1400 120/05 RMK AO2 $
14840KMKG MKG20030721013009807/21/03 01:30:31  5-MIN KMKG 210630Z 11005KT 10SM FEW049 18/17 A2973 810 93 1400 110/05 RMK AO2 $
14840KMKG MKG20030721013509807/21/03 01:35:31  5-MIN KMKG 210635Z 11005KT 10SM FEW049 18/17 A2973 810 93 1400 110/05 RMK AO2 $
14840KMKG MKG20030721014009807/21/03 01:40:31  5-MIN KMKG 210640Z 10006KT 10SM FEW049 18/17 A2972 810 93 1400 110/06 RMK AO2 $
14840KMKG MKG20030721014509507/21/03 01:45:31  5-MIN KMKG 210645Z 11005KT 10SM CLR 18/17 A2972 820 93 1400 110/05 RMK AO2 $
14840KMKG MKG20030721015011207/21/03 01:50:31  5-MIN KMKG 210650Z 12005KT 10SM CLR 18/17 A2972 820 93 1400 120/05 RMK AO2 SLP061 T01830172 $
14840KMKG MKG20030721015511207/21/03 01:55:31  5-MIN KMKG 210655Z 12006KT 10SM CLR 18/17 A2971 820 93 1400 130/06 RMK AO2 SLP060 T01830172 $
14840KMKG MKG20030721020009507/21/03 02:00:31  5-MIN KMKG 210700Z 11004KT 10SM CLR 18/17 A2972 820 93 1400 110/04 RMK AO2 $
14840KMKG MKG20030721020509507/21/03 02:05:31  5-MIN KMKG 210705Z 11004KT 10SM CLR 18/17 A2971 820 96 1400 110/04 RMK AO2 $
14840KMKG MKG20030721021009507/21/03 02:10:31  5-MIN KMKG 210710Z 12004KT 10SM CLR 18/17 A2972 820 96 1400 130/04 RMK AO2 $
14840KMKG MKG20030721021509507/21/03 02:15:31  5-MIN KMKG 210715Z 12004KT 10SM CLR 18/17 A2972 820 96 1400 120/04 RMK AO2 $
14840KMKG MKG20030721022009507/21/03 02:20:31  5-MIN KMKG 210720Z 11004KT 10SM CLR 18/17 A2971 820 96 1400 120/04 RMK AO2 $
14840KMKG MKG20030721022509507/21/03 02:25:31  5-MIN KMKG 210725Z 13005KT 10SM CLR 18/17 A2971 820 96 1400 140/05 RMK AO2 $
14840KMKG MKG20030721023009507/21/03 02:30:31  5-MIN KMKG 210730Z 14006KT 10SM CLR 18/17 A2971 830 96 1400 140/06 RMK AO2 $
14840KMKG MKG20030721023509507/21/03 02:35:31  5-MIN KMKG 210735Z 13007KT 10SM CLR 18/17 A2971 830 93 1500 130/07 RMK AO2 $
14840KMKG MKG20030721024009507/21/03 02:40:31  5-MIN KMKG 210740Z 12007KT 10SM CLR 18/17 A2971 830 93 1400 120/07 RMK AO2 $
14840KMKG MKG20030721024509507/21/03 02:45:31  5-MIN KMKG 210745Z 13007KT 10SM CLR 18/17 A2972 820 93 1400 130/07 RMK AO2 $
14840KMKG MKG20030721025011207/21/03 02:50:31  5-MIN KMKG 210750Z 13006KT 10SM CLR 18/18 A2971 830 96 1400 130/06 RMK AO2 SLP057 T01830178 $
14840KMKG MKG20030721025511207/21/03 02:55:31  5-MIN KMKG 210755Z 13006KT 10SM CLR 18/18 A2971 820 96 1400 140/06 RMK AO2 SLP057 T01830178 $
14840KMKG MKG20030721030009507/21/03 03:00:31  5-MIN KMKG 210800Z 15006KT 10SM CLR 18/17 A2971 820 93 1400 150/06 RMK AO2 $
14840KMKG MKG20030721030509507/21/03 03:05:31  5-MIN KMKG 210805Z 14005KT 10SM CLR 18/17 A2971 830 93 1500 150/05 RMK AO2 $
14840KMKG MKG20030721031009507/21/03 03:10:31  5-MIN KMKG 210810Z 14006KT 10SM CLR 18/17 A2970 830 93 1500 140/06 RMK AO2 $
14840KMKG MKG20030721031509507/21/03 03:15:31  5-MIN KMKG 210815Z 13007KT 10SM CLR 19/17 A2969 840 90 1500 130/07 RMK AO2 $
14840KMKG MKG20030721032009507/21/03 03:20:31  5-MIN KMKG 210820Z 13007KT 10SM CLR 18/18 A2970 840 96 1500 130/07 RMK AO2 $
14840KMKG MKG20030721032509507/21/03 03:25:31  5-MIN KMKG 210825Z 12005KT 10SM CLR 18/18 A2969 840 96 1500 130/05 RMK AO2 $
14840KMKG MKG20030721033009507/21/03 03:30:31  5-MIN KMKG 210830Z 12005KT 10SM CLR 18/18 A2969 850 96 1500 120/05 RMK AO2 $
14840KMKG MKG20030721033509507/21/03 03:35:31  5-MIN KMKG 210835Z 13005KT 10SM CLR 18/18 A2968 850 96 1500 140/05 RMK AO2 $
14840KMKG MKG20030721034009507/21/03 03:40:31  5-MIN KMKG 210840Z 13004KT 10SM CLR 19/18 A2968 850 93 1500 130/04 RMK AO2 $
14840KMKG MKG20030721034509507/21/03 03:45:31  5-MIN KMKG 210845Z 14004KT 10SM CLR 19/18 A2968 850 93 1500 140/04 RMK AO2 $
14840KMKG MKG20030721035011807/21/03 03:50:31  5-MIN KMKG 210850Z 13004KT 10SM CLR 19/18 A2967 860 93 1600 130/04 RMK AO2 SLP045 T01890178 58019 $
14840KMKG MKG20030721035511807/21/03 03:55:31  5-MIN KMKG 210855Z 12004KT 10SM CLR 19/18 A2967 860 93 1600 120/04 RMK AO2 SLP044 T01890178 58025 $
14840KMKG MKG20030721040009507/21/03 04:00:31  5-MIN KMKG 210900Z 10003KT 10SM CLR 19/18 A2967 860 97 1600 100/03 RMK AO2 $
14840KMKG MKG20030721040509507/21/03 04:05:31  5-MIN KMKG 210905Z 12005KT 10SM CLR 19/18 A2967 860 93 1600 120/05 RMK AO2 $
14840KMKG MKG20030721041009507/21/03 04:10:31  5-MIN KMKG 210910Z 12005KT 10SM CLR 19/18 A2967 860 97 1600 120/05 RMK AO2 $
14840KMKG MKG20030721041509507/21/03 04:15:31  5-MIN KMKG 210915Z 12004KT 10SM CLR 19/18 A2967 860 97 1600 130/04 RMK AO2 $
14840KMKG MKG20030721042009507/21/03 04:20:31  5-MIN KMKG 210920Z 12003KT 10SM CLR 19/18 A2967 860 97 1600 130/03 RMK AO2 $
14840KMKG MKG20030721042509507/21/03 04:25:31  5-MIN KMKG 210925Z 00000KT 10SM CLR 19/18 A2967 860 97 1600 000/00 RMK AO2 $
14840KMKG MKG20030721043009507/21/03 04:30:31  5-MIN KMKG 210930Z 11003KT 10SM CLR 19/18 A2967 860 97 1600 110/03 RMK AO2 $
14840KMKG MKG20030721043509607/21/03 04:35:31  5-MIN KMKG 210935Z 11005KT 10SM CLR 18/18 A2967 860 100 1500 120/05 RMK AO2 $
14840KMKG MKG20030721044009507/21/03 04:40:31  5-MIN KMKG 210940Z 12005KT 10SM CLR 19/18 A2967 870 97 1600 120/05 RMK AO2 $
14840KMKG MKG20030721044509507/21/03 04:45:31  5-MIN KMKG 210945Z 13005KT 9SM CLR 18/18 A2967 860 100 1500 130/05 RMK AO2 $
14840KMKG MKG20030721045011207/21/03 04:50:31  5-MIN KMKG 210950Z 14006KT 9SM CLR 18/18 A2967 860 100 1500 140/06 RMK AO2 SLP045 T01830183 $
14840KMKG MKG20030721045511107/21/03 04:55:31  5-MIN KMKG 210955Z 14005KT 9SM CLR 19/18 A2967 860 97 1600 140/05 RMK AO2 SLP044 T01890183 $
14840KMKG MKG20030721050009507/21/03 05:00:31  5-MIN KMKG 211000Z 16003KT 10SM CLR 19/18 A2968 850 97 1500 160/03 RMK AO2 $
14840KMKG MKG20030721050509507/21/03 05:05:31  5-MIN KMKG 211005Z 18003KT 10SM CLR 19/18 A2968 850 93 1600 190/03 RMK AO2 $
14840KMKG MKG20030721051009507/21/03 05:10:31  5-MIN KMKG 211010Z 17004KT 10SM CLR 19/18 A2968 850 97 1500 170/04 RMK AO2 $
14840KMKG MKG20030721051509507/21/03 05:15:31  5-MIN KMKG 211015Z 15004KT 10SM CLR 19/18 A2968 850 97 1500 150/04 RMK AO2 $
14840KMKG MKG20030721052009507/21/03 05:20:31  5-MIN KMKG 211020Z 17003KT 10SM CLR 19/18 A2967 860 93 1600 170/03 RMK AO2 $
14840KMKG MKG20030721052510807/21/03 05:25:31  5-MIN KMKG 211025Z 16004KT 9SM CLR 19/18 A2967 860 93 1600 170/04 RMK AO2 LTG DSNT W-NW $
14840KMKG MKG20030721053010807/21/03 05:30:31  5-MIN KMKG 211030Z 16006KT 9SM CLR 19/19 A2967 860 97 1600 160/06 RMK AO2 LTG DSNT W-NW $
14840KMKG MKG20030721053510807/21/03 05:35:31  5-MIN KMKG 211035Z VRB03KT 9SM CLR 19/19 A2967 860 97 1600 VRB/03 RMK AO2 LTG DSNT W-NW $
14840KMKG MKG20030721054010807/21/03 05:40:31  5-MIN KMKG 211040Z 15003KT 8SM CLR 19/19 A2967 860 97 1600 150/03 RMK AO2 LTG DSNT W-NW $
14840KMKG MKG20030721054510807/21/03 05:45:31  5-MIN KMKG 211045Z 14004KT 8SM CLR 19/19 A2967 860 97 1600 140/04 RMK AO2 LTG DSNT W-NW $
14840KMKG MKG20030721055012807/21/03 05:50:31  5-MIN KMKG 211050Z 14004KT 7SM FEW055 19/19 A2967 860 97 1600 140/04 RMK AO2 SLP044 LTG DSNT W-NW T01940189 $
14840KMKG MKG20030721055513107/21/03 05:55:31  5-MIN KMKG 211055Z 15005KT 6SM BR SCT055 19/19 A2966 870 97 1600 150/05 RMK AO2 SLP042 LTG DSNT W-NW T01940189 $
14840KMKG MKG20030721060010007/21/03 06:00:31  5-MIN KMKG 211100Z 16005KT 5SM BR SCT055 19/19 A2966 870 97 1600 160/05 RMK AO2 $
14840KMKG MKG20030721060510007/21/03 06:05:31  5-MIN KMKG 211105Z 16005KT 6SM BR FEW055 19/19 A2966 870 97 1600 170/05 RMK AO2 $
14840KMKG MKG20030721061010007/21/03 06:10:31  5-MIN KMKG 211110Z 16005KT 6SM BR FEW055 19/19 A2966 870 97 1600 170/05 RMK AO2 $
14840KMKG MKG20030721061510007/21/03 06:15:31  5-MIN KMKG 211115Z 16004KT 6SM BR FEW055 20/19 A2966 870 93 1700 160/04 RMK AO2 $
14840KMKG MKG20030721062010007/21/03 06:20:31  5-MIN KMKG 211120Z 01008KT 5SM BR FEW055 20/19 A2968 860 93 1700 010/08 RMK AO2 $
14840KMKG MKG20030721062510707/21/03 06:25:31  5-MIN KMKG 211125Z 02011KT 5SM BR FEW006 SCT060 21/19 A2967 860 90 1700 020/11 RMK AO2 $
14840KMKG MKG20030721063011407/21/03 06:30:31  5-MIN KMKG 211130Z 04005KT 4SM BR SCT006 SCT016 BKN060 19/18 A2967 860 90 1600 050/05 RMK AO2 $
14840KMKG MKG20030721063513707/21/03 06:35:31  5-MIN KMKG 211135Z 02011G14KT 4SM BR FEW006 BKN014 BKN120 19/18 A2968 860 93 1600 020/11G14 RMK AO2 VIS 2 1/2 RWY 14 $
14840KMKG MKG20030721064013007/21/03 06:40:31  5-MIN KMKG 211140Z 03009G14KT 5SM BR FEW006 BKN014 19/18 A2967 860 97 1600 040/09G14 RMK AO2 VIS 2 1/2 RWY 14 $
14840KMKG MKG20030721064510707/21/03 06:45:31  5-MIN KMKG 211145Z 03009KT 5SM BR FEW008 BKN012 19/18 A2968 850 97 1500 030/09 RMK AO2 $
14840KMKG MKG20030721065018207/21/03 06:50:31  5-MIN KMKG 211150Z 03009KT 6SM TS BR FEW008 OVC012 19/18 A2968 850 97 1500 030/09 RMK AO2 SLP048 OCNL LTGIC TSB47 TS W-NW MOV E 70019 T01890183 10206 20178 58025 $
14840KMKG MKG20030721065519007/21/03 06:55:31  5-MIN KMKG 211155Z 03008KT 6SM -TSRA BR OVC010 19/18 A2968 850 97 1500 030/08 RMK AO2 SLP049 OCNL LTGIC TSB47 TS W-NW MOV E P0000 60000 70019 T01890183 10206 20178 53004 $
14840KMKG MKG20030721070014207/21/03 07:00:31  5-MIN KMKG 211200Z 05009KT 7SM -TSRA OVC010 19/18 A2967 860 97 1600 050/09 RMK AO2 OCNL LTGIC TS W-NW AND OHD MOV E P0000 $
14840KMKG MKG20030721070514207/21/03 07:05:31  5-MIN KMKG 211205Z 06009KT 8SM -TSRA OVC012 19/18 A2967 860 97 1600 060/09 RMK AO2 OCNL LTGIC TS W-NW AND OHD MOV E P0000 $
14840KMKG MKG20030721071014507/21/03 07:10:31  5-MIN KMKG 211210Z 07008KT 9SM -TSRA OVC012 19/18 A2967 870 93 1600 080/08 RMK AO2 OCNL LTGICCC TS W-NW AND OHD MOV SE P0000 $
14840KMKG MKG20030721071514207/21/03 07:15:31  5-MIN KMKG 211215Z 09010KT 9SM -TSRA OVC012 19/18 A2966 870 93 1600 090/10 RMK AO2 OCNL LTGICCC TS W AND OHD MOV SE P0000 $
14840KMKG MKG20030721072014207/21/03 07:20:31  5-MIN KMKG 211220Z 10007KT 9SM -TSRA OVC012 19/18 A2966 870 93 1600 110/07 RMK AO2 OCNL LTGICCC TS W AND OHD MOV SE P0000 $
14840KMKG MKG20030721072514007/21/03 07:25:31  5-MIN KMKG 211225Z VRB03KT 8SM -TSRA OVC012 19/18 A2967 870 93 1600 VRB/03 RMK AO2 OCNL LTGICCC TS W AND OHD MOV SE P0000
14840KMKG MKG20030721073014307/21/03 07:30:31  5-MIN KMKG 211230Z 00000KT 6SM -TSRA BR OVC012 19/18 A2967 870 93 1600 000/00 RMK AO2 OCNL LTGICCC TS W AND OHD MOV SE P0001
14840KMKG MKG20030721073514307/21/03 07:35:31  5-MIN KMKG 211235Z 08005KT 6SM -TSRA BR OVC012 19/18 A2966 870 93 1600 090/05 RMK AO2 OCNL LTGICCC TS W AND OHD MOV SE P0001
14840KMKG MKG20030721074014307/21/03 07:40:31  5-MIN KMKG 211240Z 10003KT 5SM -TSRA BR OVC012 19/18 A2966 870 97 1600 110/03 RMK AO2 OCNL LTGICCC TS W AND OHD MOV SE P0001
14840KMKG MKG20030721074514507/21/03 07:45:31  5-MIN KMKG 211245Z 00000KT 6SM -TSRA BR OVC012 19/18 A2966 870 97 1600 000/00 RMK AO2 OCNL LTGICCC TS S-W AND OHD MOV SE P0001
14840KMKG MKG20030721075016207/21/03 07:50:31  5-MIN KMKG 211250Z 00000KT 6SM -TSRA BR OVC012 19/18 A2966 870 97 1600 000/00 RMK AO2 SLP041 OCNL LTGICCC TS S-W AND OHD MOV SE P0002 T01890183
14840KMKG MKG20030721075515207/21/03 07:55:31  5-MIN KMKG 211255Z 00000KT 7SM -TSRA OVC012 19/18 A2966 870 97 1600 000/00 RMK AO2 SLP042 OCNL LTGICCC TS SE-W MOV SE P0002 T01890183
14840KMKG MKG20030721080013507/21/03 08:00:31  5-MIN KMKG 211300Z 16003KT 8SM -TSRA OVC012 19/18 A2966 870 97 1600 160/03 RMK AO2 OCNL LTGICCC TS SE-W MOV SE P0000
14840KMKG MKG20030721080513507/21/03 08:05:31  5-MIN KMKG 211305Z 14004KT 9SM -TSRA OVC012 19/18 A2966 870 93 1600 150/04 RMK AO2 OCNL LTGICCC TS SE-W MOV SE P0000
14840KMKG MKG20030721081013907/21/03 08:10:31  5-MIN KMKG 211310Z 15004KT 8SM TS OVC012 19/19 A2966 870 97 1600 150/04 RMK AO2 RAE07 OCNL LTGICCC TS SE-SW MOV SE P0000
14840KMKG MKG20030721081513907/21/03 08:15:31  5-MIN KMKG 211315Z 13004KT 8SM TS OVC012 19/19 A2966 870 97 1600 130/04 RMK AO2 RAE07 OCNL LTGICCC TS SE-SW MOV SE P0000
14840KMKG MKG20030721082013907/21/03 08:20:31  5-MIN KMKG 211320Z 12006KT 8SM TS OVC012 19/19 A2966 870 97 1600 120/06 RMK AO2 RAE07 OCNL LTGICCC TS SE-SW MOV SE P0000
14840KMKG MKG20030721082512207/21/03 08:25:31  5-MIN KMKG 211325Z 12005KT 8SM OVC012 19/19 A2966 870 97 1600 130/05 RMK AO2 TSE24RAE07 TS MOV SE P0000
14840KMKG MKG20030721083011407/21/03 08:30:31  5-MIN KMKG 211330Z 12005KT 8SM OVC012 19/19 A2966 880 97 1600 120/05 RMK AO2 RAE07TSE24 P0000 $
14840KMKG MKG20030721083511407/21/03 08:35:31  5-MIN KMKG 211335Z 12006KT 8SM OVC012 19/19 A2966 870 97 1600 120/06 RMK AO2 RAE07TSE24 P0000 $
14840KMKG MKG20030721084011407/21/03 08:40:31  5-MIN KMKG 211340Z 13007KT 8SM OVC012 19/19 A2966 870 97 1600 140/07 RMK AO2 RAE07TSE24 P0000 $
14840KMKG MKG20030721084511407/21/03 08:45:31  5-MIN KMKG 211345Z 13007KT 8SM OVC012 20/19 A2965 880 93 1700 140/07 RMK AO2 RAE07TSE24 P0000 $
14840KMKG MKG20030721085013107/21/03 08:50:31  5-MIN KMKG 211350Z 13007KT 8SM OVC010 20/19 A2965 890 97 1700 140/07 RMK AO2 SLP036 RAE07TSE24 P0000 T02000194 $
14840KMKG MKG20030721085513107/21/03 08:55:31  5-MIN KMKG 211355Z 12007KT 7SM BKN010 21/20 A2964 890 93 1800 120/07 RMK AO2 SLP035 RAE07TSE24 P0000 T02110200 $
14840KMKG MKG20030721090009507/21/03 09:00:31  5-MIN KMKG 211400Z 11006KT 8SM BKN010 21/19 A2964 890 93 1800 120/06 RMK AO2
14840KMKG MKG20030721090509507/21/03 09:05:31  5-MIN KMKG 211405Z 11006KT 8SM SCT010 21/19 A2964 890 90 1800 120/06 RMK AO2
14840KMKG MKG20030721091009507/21/03 09:10:31  5-MIN KMKG 211410Z 10006KT 8SM SCT010 21/19 A2964 890 90 1800 100/06 RMK AO2
14840KMKG MKG20030721091509507/21/03 09:15:31  5-MIN KMKG 211415Z 12006KT 8SM BKN010 21/19 A2964 900 90 1900 120/06 RMK AO2
14840KMKG MKG20030721092009507/21/03 09:20:31  5-MIN KMKG 211420Z 11006KT 7SM SCT010 22/20 A2964 890 90 1900 110/06 RMK AO2
14840KMKG MKG20030721092509507/21/03 09:25:31  5-MIN KMKG 211425Z 11005KT 7SM FEW010 22/19 A2963 900 87 1900 110/05 RMK AO2
14840KMKG MKG20030721093009507/21/03 09:30:31  5-MIN KMKG 211430Z 11005KT 8SM SCT010 22/20 A2963 900 87 2000 110/05 RMK AO2
14840KMKG MKG20030721093509507/21/03 09:35:31  5-MIN KMKG 211435Z VRB05KT 8SM SCT010 22/19 A2963 900 87 1900 VRB/05 RMK AO2
14840KMKG MKG20030721094009507/21/03 09:40:31  5-MIN KMKG 211440Z VRB04KT 9SM SCT010 22/20 A2963 900 87 2000 VRB/04 RMK AO2
14840KMKG MKG20030721094509507/21/03 09:45:31  5-MIN KMKG 211445Z 14006KT 9SM SCT010 22/20 A2963 900 87 2000 150/06 RMK AO2
14840KMKG MKG20030721095012407/21/03 09:50:31  5-MIN KMKG 211450Z VRB05KT 9SM SCT010 22/20 A2963 900 87 2000 VRB/05 RMK AO2 SLP031 60002 T02220200 53004
14840KMKG MKG20030721095513107/21/03 09:55:31  5-MIN KMKG 211455Z 16006KT 9SM SCT010 BKN014 23/20 A2963 900 84 2000 170/06 RMK AO2 SLP031 60002 T02280200 56017
14840KMKG MKG20030721100009607/21/03 10:00:31  5-MIN KMKG 211500Z 16007KT 10SM BKN012 22/19 A2965 890 84 2000 170/07 RMK AO2
14840KMKG MKG20030721100513507/21/03 10:05:31  5-MIN KMKG 211505Z 17007KT 10SM TS BKN012 BKN018 23/20 A2964 890 84 2000 170/07 RMK AO2 OCNL LTGIC TSB02 TS W MOV SE
14840KMKG MKG20030721101013507/21/03 10:10:31  5-MIN KMKG 211510Z 17006KT 10SM TS BKN012 BKN018 22/20 A2964 890 87 2000 180/06 RMK AO2 OCNL LTGIC TSB02 TS W MOV SE
14840KMKG MKG20030721101512707/21/03 10:15:31  5-MIN KMKG 211515Z 17010KT 8SM TS BKN014 23/20 A2964 890 84 2000 180/10 RMK AO2 OCNL LTGIC TSB02 TS W MOV SE
14840KMKG MKG20030721102013107/21/03 10:20:31  5-MIN KMKG 211520Z 18010KT 7SM TS OVC014 23/20 A2964 890 84 2000 190/10 RMK AO2 OCNL LTGIC TSB02 TS SW-NW MOV SE
14840KMKG MKG20030721102513107/21/03 10:25:31  5-MIN KMKG 211525Z 20010KT 8SM TS OVC014 23/20 A2965 880 84 2000 200/10 RMK AO2 OCNL LTGIC TSB02 TS SW-NW MOV SE
14840KMKG MKG20030721103013107/21/03 10:30:31  5-MIN KMKG 211530Z 21009KT 9SM TS OVC014 22/21 A2965 880 90 2000 210/09 RMK AO2 OCNL LTGIC TSB02 TS SW-NW MOV SE
14840KMKG MKG20030721103513907/21/03 10:35:31  5-MIN KMKG 211535Z 19011KT 10SM TS FEW009 OVC014 22/20 A2965 890 90 1900 200/11 RMK AO2 OCNL LTGIC TSB02 TS SW-NW MOV SE
14840KMKG MKG20030721104013907/21/03 10:40:31  5-MIN KMKG 211540Z 20008KT 10SM TS BKN009 OVC014 22/20 A2964 890 87 2000 200/08 RMK AO2 OCNL LTGIC TSB02 TS SW-NW MOV SE
14840KMKG MKG20030721104513907/21/03 10:45:31  5-MIN KMKG 211545Z 19011KT 10SM TS BKN009 OVC014 22/20 A2964 890 90 1900 190/11 RMK AO2 OCNL LTGIC TSB02 TS SW-NW MOV SE
14840KMKG MKG20030721105016807/21/03 10:50:31  5-MIN KMKG 211550Z 20008KT 10SM TS BKN009 OVC014 22/20 A2965 880 90 1900 210/08 RMK AO2 CIG 007V011 SLP036 OCNL LTGIC TSB02 TS SW-NW MOV SE T02170200
14840KMKG MKG20030721105515907/21/03 10:55:31  5-MIN KMKG 211555Z 19008KT 10SM TS OVC009 22/20 A2965 880 90 1900 190/08 RMK AO2 CIG 007V012 SLP036 OCNL LTGIC TSB02 TS W-N MOV SE T02170200
14840KMKG MKG20030721110013607/21/03 11:00:31  5-MIN KMKG 211600Z 19007KT 10SM TS OVC009 22/20 A2965 880 90 1900 190/07 RMK AO2 CIG 007V012 OCNL LTGIC TS W-N MOV SE
14840KMKG MKG20030721110513607/21/03 11:05:31  5-MIN KMKG 211605Z 18005KT 10SM TS OVC009 22/20 A2965 880 90 1900 190/05 RMK AO2 CIG 007V013 OCNL LTGIC TS W-N MOV SE
14840KMKG MKG20030721111013007/21/03 11:10:31  5-MIN KMKG 211610Z VRB06KT 10SM TS OVC009 22/20 A2966 870 90 1900 VRB/06 RMK AO2 OCNL LTGICCCCACG TS W-N MOV SE
14840KMKG MKG20030721111514207/21/03 11:15:31  5-MIN KMKG 211615Z 25003KT 10SM TS OVC009 21/20 A2966 870 93 1800 260/03 RMK AO2 CIG 007V012 OCNL LTGICCCCACG TS W-N MOV SE
14840KMKG MKG20030721112015507/21/03 11:20:31  5-MIN KMKG 211620Z 32009KT TS OVC009 21/19 A2967 860 90 1800 330/09 RMK AO2 CIG 007V012 PRESRR OCNL LTGICCCCACG TS W-NE AND OHD MOV SE $
14840KMKG MKG20030721112517507/21/03 11:25:31  5-MIN KMKG 211625Z 01020G25KT 1 1/4SM +TSRA BR OVC009 19/18 A2970 840 93 1600 010/20G25 RMK AO2 RAB24 PRESRR OCNL LTGICCCCACG TS W-NE AND OHD MOV SE P0005 $
14840KMKG MKG20030721113019107/21/03 11:30:31  5-MIN KMKG 211630Z 01019G26KT 1/2SM +TSRA FG FEW002 OVC009 18/18 A2968 860 96 1500 020/19G26 RMK AO2 PK WND 36026/1627 OCNL LTGICCCCACG RAB24 TS W-NE AND OHD MOV SE P0052 $
14840KMKG MKG20030721113520007/21/03 11:35:31  5-MIN KMKG 211635Z 02011G26KT 1/4SM +TSRA FG FEW002 BKN009 OVC040 18/18 A2969 850 96 1500 020/11G26 RMK AO2 PK WND 36026/1627 WSHFT 1621 OCNL LTGICCCCACG RAB24 TS OHD MOV SE P0054 $
14840KMKG MKG20030721114021007/21/03 11:40:31  5-MIN KMKG 211640Z 02008KT 1 1/4SM TSRA BR FEW002 BKN009 OVC040 18/18 A2969 850 96 1500 020/08 RMK AO2 PK WND 36026/1627 WSHFT 1621 VIS 1/2 RWY 14 OCNL LTGICCCCACG RAB24 TS OHD MOV SE P0058 $
14840KMKG MKG20030721114520807/21/03 11:45:31  5-MIN KMKG 211645Z 36007KT 2 1/2SM TSRA BR FEW002 BKN009 OVC040 18/17 A2969 850 93 1500 010/07 RMK AO2 PK WND 36026/1627 WSHFT 1621 VIS 1 RWY 14 OCNL LTGICCCCACG RAB24 TS OHD MOV SE P0059 $
14840KMKG MKG20030721115022207/21/03 11:50:31  5-MIN KMKG 211650Z 36005KT 5SM -TSRA BR FEW002 BKN029 OVC040 18/17 A2968 850 93 1500 360/05 RMK AO2 PK WND 36026/1627 WSHFT 1621 VIS 2 RWY 14 SLP049 OCNL LTGICCCCACG RAB24 TS OHD MOV SE P0059 T01830172 $
14840KMKG MKG20030721115520907/21/03 11:55:31  5-MIN KMKG 211655Z VRB05KT 10SM -TSRA FEW002 BKN029 OVC036 18/17 A2968 850 93 1500 VRB/05 RMK AO2 PK WND 36026/1627 WSHFT 1621 SLP048 OCNL LTGICCCCACG RAB24 TS NE-SW MOV SE P0059 T01830172 $
14840KMKG MKG20030721120015407/21/03 12:00:31  5-MIN KMKG 211700Z 02004KT 10SM TS FEW006 SCT027 OVC035 19/18 A2968 860 93 1500 020/04 RMK AO2 OCNL LTGICCCCACG RAE56 TS NE-SW MOV SE $
14840KMKG MKG20030721120514707/21/03 12:05:31  5-MIN KMKG 211705Z 01004KT 10SM TS FEW006 OVC032 19/18 A2967 860 90 1600 020/04 RMK AO2 OCNL LTGICCCCACG RAE56 TS NE-SW MOV SE $
14840KMKG MKG20030721121014607/21/03 12:10:31  5-MIN KMKG 211710Z 01006KT 10SM TS SCT029 BKN035 21/18 A2967 860 87 1700 020/06 RMK AO2 OCNL LTGICCCCACG RAE56 TS NE-S MOV SE $
14840KMKG MKG20030721121514607/21/03 12:15:31  5-MIN KMKG 211715Z 36005KT 10SM TS SCT032 BKN039 21/18 A2968 860 87 1700 360/05 RMK AO2 OCNL LTGICCCCACG RAE56 TS NE-S MOV SE $
14840KMKG MKG20030721122010907/21/03 12:20:31  5-MIN KMKG 211720Z 00000KT 10SM BKN034 21/18 A2968 850 87 1700 000/00 RMK AO2 RAE56TSE20 $
14840KMKG MKG20030721122511607/21/03 12:25:31  5-MIN KMKG 211725Z 08004KT 10SM SCT036 BKN044 21/18 A2968 850 87 1700 080/04 RMK AO2 RAE56TSE20 $
14840KMKG MKG20030721123011607/21/03 12:30:31  5-MIN KMKG 211730Z 07004KT 10SM FEW036 SCT044 21/19 A2967 860 87 1800 080/04 RMK AO2 RAE56TSE20 $
14840KMKG MKG20030721123510907/21/03 12:35:31  5-MIN KMKG 211735Z 00000KT 10SM FEW041 21/18 A2967 860 84 1800 000/00 RMK AO2 RAE56TSE20 $
14840KMKG MKG20030721124010907/21/03 12:40:31  5-MIN KMKG 211740Z 00000KT 10SM SCT041 22/19 A2967 860 84 1900 000/00 RMK AO2 RAE56TSE20 $
14840KMKG MKG20030721124510907/21/03 12:45:31  5-MIN KMKG 211745Z 04006KT 10SM SCT041 22/19 A2968 850 84 1900 040/06 RMK AO2 RAE56TSE20 $
14840KMKG MKG20030721125015007/21/03 12:50:31  5-MIN KMKG 211750Z 03005KT 10SM SCT041 22/18 A2968 850 81 1900 030/05 RMK AO2 SLP048 RAE56TSE20 60061 T02170183 10228 20178 56017 $
14840KMKG MKG20030721125515007/21/03 12:55:31  5-MIN KMKG 211755Z 34006KT 10SM SCT041 22/19 A2968 850 84 1900 350/06 RMK AO2 SLP048 RAE56TSE20 60061 T02170189 10228 20178 51016 $
14840KMKG MKG20030721130012707/21/03 13:00:31  5-MIN KMKG 211800Z 36008KT 10SM SCT014 BKN041 OVC050 22/19 A2968 850 84 1900 010/08 RMK AO2 CIG 016 RWY 14 $
14840KMKG MKG20030721130511207/21/03 13:05:31  5-MIN KMKG 211805Z 01008KT 10SM BKN014 BKN041 OVC050 22/19 A2968 850 84 1900 010/08 RMK AO2 $
14840KMKG MKG20030721131011207/21/03 13:10:31  5-MIN KMKG 211810Z 03007KT 10SM BKN014 BKN041 BKN050 22/18 A2968 850 81 1900 030/07 RMK AO2 $
14840KMKG MKG20030721131511207/21/03 13:15:31  5-MIN KMKG 211815Z 03009KT 10SM SCT014 BKN041 BKN050 22/18 A2968 850 78 1900 030/09 RMK AO2 $
14840KMKG MKG20030721132010507/21/03 13:20:31  5-MIN KMKG 211820Z 36008KT 10SM SCT014 SCT050 22/19 A2968 850 81 1900 360/08 RMK AO2 $
14840KMKG MKG20030721132510307/21/03 13:25:31  5-MIN KMKG 211825Z 02008KT 10SM FEW017 SCT050 23/19 A2968 850 78 2000 020/08 RMK AO2
14840KMKG MKG20030721133009607/21/03 13:30:31  5-MIN KMKG 211830Z 01006KT 10SM FEW017 23/19 A2968 850 78 2000 010/06 RMK AO2
14840KMKG MKG20030721133510307/21/03 13:35:31  5-MIN KMKG 211835Z 02006KT 10SM SCT015 BKN050 23/19 A2969 850 78 2000 020/06 RMK AO2
14840KMKG MKG20030721134010307/21/03 13:40:31  5-MIN KMKG 211840Z 05008KT 10SM SCT015 BKN050 22/19 A2968 850 81 1900 050/08 RMK AO2
14840KMKG MKG20030721134510307/21/03 13:45:31  5-MIN KMKG 211845Z 04006KT 10SM SCT015 BKN050 23/19 A2968 850 81 2000 040/06 RMK AO2
14840KMKG MKG20030721135014207/21/03 13:50:31  5-MIN KMKG 211850Z 05007KT 10SM FEW017 SCT022 BKN050 22/19 A2968 850 81 1900 060/07 RMK AO2 CIG 025 RWY 14 SLP048 T02220189
14840KMKG MKG20030721135514207/21/03 13:55:31  5-MIN KMKG 211855Z 03008KT 10SM FEW017 SCT024 BKN029 23/19 A2968 850 81 2000 040/08 RMK AO2 CIG 022 RWY 14 SLP048 T02280194
14840KMKG MKG20030721140012507/21/03 14:00:31  5-MIN KMKG 211900Z 04010KT 10SM FEW015 SCT022 BKN029 23/19 A2968 860 78 2100 050/10 RMK AO2 CIG 024 RWY 14
14840KMKG MKG20030721140511007/21/03 14:05:31  5-MIN KMKG 211905Z 06009KT 10SM FEW015 BKN025 BKN050 23/19 A2968 860 78 2100 070/09 RMK AO2
14840KMKG MKG20030721141011007/21/03 14:10:31  5-MIN KMKG 211910Z 03008KT 10SM FEW015 BKN025 BKN031 23/19 A2968 860 78 2100 040/08 RMK AO2
14840KMKG MKG20030721141512507/21/03 14:15:31  5-MIN KMKG 211915Z 04008KT 10SM FEW015 SCT025 BKN031 23/19 A2968 860 78 2100 050/08 RMK AO2 CIG 026 RWY 14
14840KMKG MKG20030721142012607/21/03 14:20:31  5-MIN KMKG 211920Z 04009KT 010V070 10SM FEW015 SCT026 SCT031 24/19 A2967 860 76 2100 040/09 010V070 RMK AO2
14840KMKG MKG20030721142510307/21/03 14:25:31  5-MIN KMKG 211925Z 03008KT 10SM FEW015 SCT031 24/20 A2967 860 76 2200 040/08 RMK AO2
14840KMKG MKG20030721143010307/21/03 14:30:31  5-MIN KMKG 211930Z 03008KT 10SM FEW015 SCT031 24/19 A2967 860 76 2100 030/08 RMK AO2
14840KMKG MKG20030721143510307/21/03 14:35:31  5-MIN KMKG 211935Z 03006KT 10SM FEW015 SCT031 24/19 A2967 860 73 2100 030/06 RMK AO2
14840KMKG MKG20030721144010307/21/03 14:40:31  5-MIN KMKG 211940Z 04009KT 10SM FEW015 SCT031 24/19 A2968 860 71 2200 040/09 RMK AO2
14840KMKG MKG20030721144510307/21/03 14:45:31  5-MIN KMKG 211945Z 03006KT 10SM FEW015 SCT031 24/19 A2968 850 71 2200 030/06 RMK AO2
14840KMKG MKG20030721145012007/21/03 14:50:31  5-MIN KMKG 211950Z 05009KT 10SM FEW015 SCT031 24/19 A2968 850 73 2100 060/09 RMK AO2 SLP048 T02390189
14840KMKG MKG20030721145512007/21/03 14:55:31  5-MIN KMKG 211955Z 05005KT 10SM FEW015 SCT031 23/18 A2968 850 73 2100 060/05 RMK AO2 SLP049 T02330183
14840KMKG MKG20030721150010307/21/03 15:00:31  5-MIN KMKG 212000Z 03005KT 10SM SCT022 BKN033 24/19 A2968 850 73 2100 030/05 RMK AO2
14840KMKG MKG20030721150511007/21/03 15:05:31  5-MIN KMKG 212005Z 36006KT 10SM FEW022 BKN030 OVC037 24/18 A2969 850 71 2100 360/06 RMK AO2
14840KMKG MKG20030721151011007/21/03 15:10:31  5-MIN KMKG 212010Z 36009KT 10SM SCT022 BKN030 BKN037 24/19 A2969 850 71 2200 360/09 RMK AO2
14840KMKG MKG20030721151511007/21/03 15:15:31  5-MIN KMKG 212015Z 01008KT 10SM SCT022 BKN030 BKN037 24/18 A2969 850 71 2100 020/08 RMK AO2
14840KMKG MKG20030721152011007/21/03 15:20:31  5-MIN KMKG 212020Z 36007KT 10SM FEW022 SCT030 BKN039 24/18 A2968 850 68 2200 010/07 RMK AO2
14840KMKG MKG20030721152511007/21/03 15:25:31  5-MIN KMKG 212025Z 35005KT 10SM FEW022 SCT030 BKN039 24/18 A2969 850 68 2200 350/05 RMK AO2
14840KMKG MKG20030721153011007/21/03 15:30:31  5-MIN KMKG 212030Z 01004KT 10SM FEW022 SCT030 BKN039 24/18 A2969 850 66 2200 010/04 RMK AO2
14840KMKG MKG20030721153510307/21/03 15:35:31  5-MIN KMKG 212035Z 00000KT 10SM SCT030 BKN045 24/18 A2969 850 68 2100 000/00 RMK AO2
14840KMKG MKG20030721154010307/21/03 15:40:31  5-MIN KMKG 212040Z 27007KT 10SM SCT030 BKN045 24/19 A2969 850 73 2100 280/07 RMK AO2
14840KMKG MKG20030721154510307/21/03 15:45:31  5-MIN KMKG 212045Z VRB06KT 10SM SCT030 BKN045 23/19 A2969 850 78 2000 VRB/06 RMK AO2
14840KMKG MKG20030721155012607/21/03 15:50:31  5-MIN KMKG 212050Z 28007KT 10SM SCT030 BKN045 23/19 A2969 850 81 2000 280/07 RMK AO2 SLP050 T02280194 51016
14840KMKG MKG20030721155513307/21/03 15:55:31  5-MIN KMKG 212055Z 29005KT 10SM SCT025 BKN045 BKN065 23/19 A2969 850 81 2000 300/05 RMK AO2 SLP051 T02280194 53002
14840KMKG MKG20030721160011007/21/03 16:00:31  5-MIN KMKG 212100Z 30007KT 10SM SCT025 BKN045 BKN065 24/19 A2969 850 76 2100 300/07 RMK AO2
14840KMKG MKG20030721160511007/21/03 16:05:31  5-MIN KMKG 212105Z 30008KT 10SM SCT025 BKN045 BKN065 24/19 A2968 850 76 2100 310/08 RMK AO2
14840KMKG MKG20030721161010307/21/03 16:10:31  5-MIN KMKG 212110Z 28009KT 10SM SCT025 SCT065 24/19 A2968 850 73 2200 280/09 RMK AO2
14840KMKG MKG20030721161509607/21/03 16:15:31  5-MIN KMKG 212115Z 29007KT 10SM FEW025 24/19 A2968 850 73 2200 300/07 RMK AO2
14840KMKG MKG20030721162009607/21/03 16:20:31  5-MIN KMKG 212120Z 30005KT 10SM FEW025 24/19 A2968 850 73 2200 310/05 RMK AO2
14840KMKG MKG20030721162510307/21/03 16:25:31  5-MIN KMKG 212125Z 30007KT 10SM FEW025 SCT045 24/19 A2968 850 71 2200 310/07 RMK AO2
14840KMKG MKG20030721163010307/21/03 16:30:31  5-MIN KMKG 212130Z 29006KT 10SM FEW025 SCT045 25/19 A2968 850 71 2200 300/06 RMK AO2
14840KMKG MKG20030721163510307/21/03 16:35:31  5-MIN KMKG 212135Z 30006KT 10SM FEW025 SCT045 24/19 A2968 850 71 2200 310/06 RMK AO2
14840KMKG MKG20030721164009607/21/03 16:40:31  5-MIN KMKG 212140Z 30007KT 10SM SCT025 25/19 A2968 850 71 2200 310/07 RMK AO2
14840KMKG MKG20030721164509607/21/03 16:45:31  5-MIN KMKG 212145Z 31007KT 10SM SCT025 25/19 A2968 850 71 2200 310/07 RMK AO2
14840KMKG MKG20030721165011307/21/03 16:50:31  5-MIN KMKG 212150Z 30007KT 10SM SCT025 24/19 A2968 850 71 2200 300/07 RMK AO2 SLP047 T02440189
14840KMKG MKG20030721165511307/21/03 16:55:31  5-MIN KMKG 212155Z 31009KT 10SM SCT025 24/19 A2969 850 71 2200 310/09 RMK AO2 SLP049 T02440189
14840KMKG MKG20030721170010307/21/03 17:00:31  5-MIN KMKG 212200Z 28010KT 10SM FEW032 SCT043 24/19 A2969 850 71 2200 280/10 RMK AO2
14840KMKG MKG20030721170509607/21/03 17:05:31  5-MIN KMKG 212205Z 29009KT 10SM FEW032 24/19 A2969 850 71 2200 300/09 RMK AO2
14840KMKG MKG20030721171009607/21/03 17:10:31  5-MIN KMKG 212210Z 30010KT 10SM FEW032 24/18 A2969 850 68 2200 300/10 RMK AO2
14840KMKG MKG20030721171509607/21/03 17:15:31  5-MIN KMKG 212215Z 30009KT 10SM FEW043 23/18 A2969 840 73 2000 300/09 RMK AO2
14840KMKG MKG20030721172010307/21/03 17:20:31  5-MIN KMKG 212220Z 31011KT 10SM FEW043 SCT090 23/18 A2969 840 73 2000 310/11 RMK AO2
14840KMKG MKG20030721172509607/21/03 17:25:31  5-MIN KMKG 212225Z 30009KT 10SM SCT090 23/18 A2969 840 76 2000 300/09 RMK AO2
14840KMKG MKG20030721173010307/21/03 17:30:31  5-MIN KMKG 212230Z 29011KT 10SM FEW030 SCT090 22/18 A2969 840 78 1900 290/11 RMK AO2
14840KMKG MKG20030721173510307/21/03 17:35:31  5-MIN KMKG 212235Z 29010KT 10SM FEW035 SCT090 22/18 A2970 840 78 1900 290/10 RMK AO2
14840KMKG MKG20030721174011007/21/03 17:40:31  5-MIN KMKG 212240Z 29009KT 10SM FEW041 SCT080 BKN090 22/18 A2970 840 78 1900 300/09 RMK AO2
14840KMKG MKG20030721174510307/21/03 17:45:31  5-MIN KMKG 212245Z 29008KT 10SM FEW041 BKN090 23/19 A2970 840 78 2000 290/08 RMK AO2
14840KMKG MKG20030721175012007/21/03 17:50:31  5-MIN KMKG 212250Z 29008KT 10SM FEW041 BKN090 22/18 A2970 840 78 1900 300/08 RMK AO2 SLP054 T02220183
14840KMKG MKG20030721175512707/21/03 17:55:31  5-MIN KMKG 212255Z 29009KT 10SM FEW035 SCT042 BKN090 23/19 A2970 840 78 2000 300/09 RMK AO2 SLP054 T02280189
14840KMKG MKG20030721180010307/21/03 18:00:31  5-MIN KMKG 212300Z 31007KT 10SM SCT042 BKN090 23/19 A2970 830 76 2000 310/07 RMK AO2
14840KMKG MKG20030721180510307/21/03 18:05:31  5-MIN KMKG 212305Z 30007KT 10SM FEW042 BKN090 23/19 A2970 830 76 2000 310/07 RMK AO2
14840KMKG MKG20030721181010307/21/03 18:10:31  5-MIN KMKG 212310Z 31010KT 10SM FEW040 BKN090 24/19 A2970 830 73 2100 310/10 RMK AO2
14840KMKG MKG20030721181510307/21/03 18:15:31  5-MIN KMKG 212315Z 32010KT 10SM SCT042 BKN090 23/19 A2970 830 76 2000 330/10 RMK AO2
14840KMKG MKG20030721182010307/21/03 18:20:31  5-MIN KMKG 212320Z 32010KT 10SM FEW042 SCT090 23/19 A2970 830 76 2000 320/10 RMK AO2
14840KMKG MKG20030721182510307/21/03 18:25:31  5-MIN KMKG 212325Z 31011KT 10SM FEW045 SCT090 23/19 A2970 830 76 2000 320/11 RMK AO2
14840KMKG MKG20030721183010307/21/03 18:30:31  5-MIN KMKG 212330Z 32012KT 10SM FEW045 BKN090 23/19 A2970 830 76 2000 320/12 RMK AO2
14840KMKG MKG20030721183510307/21/03 18:35:31  5-MIN KMKG 212335Z 32010KT 10SM FEW045 BKN090 24/19 A2970 830 73 2100 330/10 RMK AO2
14840KMKG MKG20030721184009607/21/03 18:40:31  5-MIN KMKG 212340Z 33010KT 10SM SCT090 23/18 A2971 830 73 2000 340/10 RMK AO2
14840KMKG MKG20030721184510307/21/03 18:45:31  5-MIN KMKG 212345Z 34010KT 10SM FEW045 SCT095 23/18 A2971 820 76 2000 350/10 RMK AO2
14840KMKG MKG20030721185013807/21/03 18:50:31  5-MIN KMKG 212350Z 34014KT 10SM FEW045 SCT095 23/18 A2971 820 76 2000 350/14 RMK AO2 SLP059 T02280183 10250 20217 53002
14840KMKG MKG20030721185513807/21/03 18:55:31  5-MIN KMKG 212355Z 33013KT 10SM FEW045 SCT095 23/18 A2972 820 73 1900 340/13 RMK AO2 SLP060 T02280178 10250 20217 53009
14840KMKG MKG20030721190010307/21/03 19:00:31  5-MIN KMKG 220000Z 34014KT 10SM FEW045 SCT095 23/18 A2972 810 73 1900 340/14 RMK AO2
14840KMKG MKG20030721190510307/21/03 19:05:31  5-MIN KMKG 220005Z 33014KT 10SM FEW045 SCT095 23/17 A2972 810 70 1900 340/14 RMK AO2
14840KMKG MKG20030721191010307/21/03 19:10:31  5-MIN KMKG 220010Z 33013KT 10SM FEW045 SCT095 22/17 A2973 810 73 1900 340/13 RMK AO2
14840KMKG MKG20030721191510307/21/03 19:15:31  5-MIN KMKG 220015Z 33011KT 10SM FEW045 SCT095 22/17 A2973 810 73 1900 340/11 RMK AO2
14840KMKG MKG20030721192009607/21/03 19:20:31  5-MIN KMKG 220020Z 34010KT 10SM SCT060 22/17 A2973 800 73 1900 340/10 RMK AO2
14840KMKG MKG20030721192509607/21/03 19:25:31  5-MIN KMKG 220025Z 34012KT 10SM SCT060 22/17 A2973 800 70 1900 340/12 RMK AO2
14840KMKG MKG20030721193009607/21/03 19:30:31  5-MIN KMKG 220030Z 34013KT 10SM SCT060 22/17 A2973 800 70 1900 340/13 RMK AO2
14840KMKG MKG20030721193509607/21/03 19:35:31  5-MIN KMKG 220035Z 34013KT 10SM SCT060 22/17 A2974 800 70 1900 340/13 RMK AO2
14840KMKG MKG20030721194009607/21/03 19:40:31  5-MIN KMKG 220040Z 34011KT 10SM SCT060 22/17 A2974 800 73 1800 340/11 RMK AO2
14840KMKG MKG20030721194509607/21/03 19:45:31  5-MIN KMKG 220045Z 34010KT 10SM SCT060 22/17 A2974 790 73 1800 340/10 RMK AO2
14840KMKG MKG20030721195011307/21/03 19:50:31  5-MIN KMKG 220050Z 35011KT 10SM SCT060 22/17 A2975 790 73 1800 350/11 RMK AO2 SLP070 T02170167
14840KMKG MKG20030721195511307/21/03 19:55:31  5-MIN KMKG 220055Z 34010KT 10SM SCT060 22/17 A2974 790 73 1800 340/10 RMK AO2 SLP069 T02170167
14840KMKG MKG20030721200009607/21/03 20:00:31  5-MIN KMKG 220100Z 35008KT 10SM SCT060 21/17 A2974 790 75 1700 350/08 RMK AO2
14840KMKG MKG20030721200509607/21/03 20:05:31  5-MIN KMKG 220105Z 34010KT 10SM FEW060 21/17 A2974 790 75 1700 350/10 RMK AO2
14840KMKG MKG20030721201009607/21/03 20:10:31  5-MIN KMKG 220110Z 34008KT 10SM FEW100 21/17 A2975 790 75 1700 350/08 RMK AO2
14840KMKG MKG20030721201509607/21/03 20:15:31  5-MIN KMKG 220115Z 36009KT 10SM FEW100 21/17 A2975 790 75 1700 360/09 RMK AO2
14840KMKG MKG20030721202009607/21/03 20:20:31  5-MIN KMKG 220120Z 35008KT 10SM FEW100 21/17 A2975 790 75 1700 350/08 RMK AO2
14840KMKG MKG20030721202509607/21/03 20:25:31  5-MIN KMKG 220125Z 35007KT 10SM FEW100 21/17 A2975 790 75 1700 350/07 RMK AO2
14840KMKG MKG20030721203009607/21/03 20:30:31  5-MIN KMKG 220130Z 35008KT 10SM FEW100 21/17 A2975 790 75 1700 350/08 RMK AO2
14840KMKG MKG20030721203509607/21/03 20:35:31  5-MIN KMKG 220135Z 34008KT 10SM FEW100 21/17 A2975 780 75 1700 340/08 RMK AO2
14840KMKG MKG20030721204009607/21/03 20:40:31  5-MIN KMKG 220140Z 35009KT 10SM FEW100 21/16 A2975 790 73 1700 350/09 RMK AO2
14840KMKG MKG20030721204509607/21/03 20:45:31  5-MIN KMKG 220145Z 36011KT 10SM FEW100 21/16 A2975 780 73 1700 360/11 RMK AO2
14840KMKG MKG20030721205011307/21/03 20:50:31  5-MIN KMKG 220150Z 35010KT 10SM FEW110 21/16 A2976 780 75 1600 360/10 RMK AO2 SLP074 T02060161
14840KMKG MKG20030721205511307/21/03 20:55:31  5-MIN KMKG 220155Z 35009KT 10SM FEW110 21/16 A2976 780 75 1600 350/09 RMK AO2 SLP074 T02060161
14840KMKG MKG20030721210009607/21/03 21:00:31  5-MIN KMKG 220200Z 35009KT 10SM FEW110 21/16 A2976 780 75 1700 350/09 RMK AO2
14840KMKG MKG20030721210509607/21/03 21:05:31  5-MIN KMKG 220205Z 35010KT 10SM FEW120 21/16 A2976 780 73 1700 350/10 RMK AO2
14840KMKG MKG20030721211009607/21/03 21:10:31  5-MIN KMKG 220210Z 35009KT 10SM FEW012 20/16 A2976 780 75 1600 360/09 RMK AO2
14840KMKG MKG20030721211509607/21/03 21:15:31  5-MIN KMKG 220215Z 36008KT 10SM FEW012 20/16 A2976 780 75 1600 360/08 RMK AO2
14840KMKG MKG20030721212009607/21/03 21:20:31  5-MIN KMKG 220220Z 36009KT 10SM FEW120 20/16 A2976 780 75 1600 360/09 RMK AO2
14840KMKG MKG20030721212509607/21/03 21:25:31  5-MIN KMKG 220225Z 01009KT 10SM FEW120 20/16 A2977 770 75 1600 010/09 RMK AO2
14840KMKG MKG20030721213009607/21/03 21:30:31  5-MIN KMKG 220230Z 01009KT 10SM FEW120 20/16 A2977 770 75 1600 010/09 RMK AO2
14840KMKG MKG20030721213509607/21/03 21:35:31  5-MIN KMKG 220235Z 01010KT 10SM FEW120 20/16 A2977 770 75 1600 010/10 RMK AO2
14840KMKG MKG20030721214009307/21/03 21:40:31  5-MIN KMKG 220240Z 01008KT 10SM CLR 20/16 A2978 760 75 1600 010/08 RMK AO2
14840KMKG MKG20030721214509307/21/03 21:45:31  5-MIN KMKG 220245Z 01009KT 10SM CLR 19/16 A2977 770 78 1500 010/09 RMK AO2
14840KMKG MKG20030721215011607/21/03 21:50:31  5-MIN KMKG 220250Z 02009KT 10SM CLR 19/16 A2977 770 78 1500 020/09 RMK AO2 SLP080 T01940156 53009
14840KMKG MKG20030721215511607/21/03 21:55:31  5-MIN KMKG 220255Z 01007KT 10SM CLR 19/16 A2978 760 78 1500 010/07 RMK AO2 SLP081 T01940156 51021
14840KMKG MKG20030721220009307/21/03 22:00:31  5-MIN KMKG 220300Z 02008KT 10SM CLR 19/16 A2978 760 78 1500 020/08 RMK AO2
14840KMKG MKG20030721220509307/21/03 22:05:31  5-MIN KMKG 220305Z 01007KT 10SM CLR 19/16 A2978 760 78 1500 020/07 RMK AO2
14840KMKG MKG20030721221009307/21/03 22:10:31  5-MIN KMKG 220310Z 01007KT 10SM CLR 19/16 A2978 760 78 1500 010/07 RMK AO2
14840KMKG MKG20030721221509307/21/03 22:15:31  5-MIN KMKG 220315Z 02005KT 10SM CLR 19/16 A2978 760 81 1400 020/05 RMK AO2
14840KMKG MKG20030721222009307/21/03 22:20:31  5-MIN KMKG 220320Z 02006KT 10SM CLR 19/16 A2978 760 84 1400 020/06 RMK AO2
14840KMKG MKG20030721222509307/21/03 22:25:31  5-MIN KMKG 220325Z 03006KT 10SM CLR 19/16 A2978 760 84 1400 030/06 RMK AO2
14840KMKG MKG20030721223009307/21/03 22:30:31  5-MIN KMKG 220330Z 04006KT 10SM CLR 19/16 A2978 760 84 1400 040/06 RMK AO2
14840KMKG MKG20030721223509307/21/03 22:35:31  5-MIN KMKG 220335Z 03006KT 10SM CLR 19/16 A2978 760 84 1400 040/06 RMK AO2
14840KMKG MKG20030721224009307/21/03 22:40:31  5-MIN KMKG 220340Z 03007KT 10SM CLR 19/16 A2978 760 84 1400 030/07 RMK AO2
14840KMKG MKG20030721224509307/21/03 22:45:31  5-MIN KMKG 220345Z 03006KT 10SM CLR 19/16 A2978 760 84 1400 040/06 RMK AO2
14840KMKG MKG20030721225011007/21/03 22:50:31  5-MIN KMKG 220350Z 03007KT 10SM CLR 19/17 A2979 750 87 1400 030/07 RMK AO2 SLP084 T01890167
14840KMKG MKG20030721225511007/21/03 22:55:31  5-MIN KMKG 220355Z 04007KT 10SM CLR 19/17 A2979 750 87 1400 040/07 RMK AO2 SLP084 T01890167
14840KMKG MKG20030721230009307/21/03 23:00:31  5-MIN KMKG 220400Z 05009KT 10SM CLR 19/17 A2979 750 87 1400 050/09 RMK AO2
14840KMKG MKG20030721230509307/21/03 23:05:31  5-MIN KMKG 220405Z 04008KT 10SM CLR 18/17 A2979 750 90 1400 050/08 RMK AO2
14840KMKG MKG20030721231009307/21/03 23:10:31  5-MIN KMKG 220410Z 05008KT 10SM CLR 18/17 A2978 760 93 1400 060/08 RMK AO2
14840KMKG MKG20030721231509307/21/03 23:15:31  5-MIN KMKG 220415Z 06007KT 10SM CLR 18/17 A2979 760 96 1300 060/07 RMK AO2
14840KMKG MKG20030721232009307/21/03 23:20:31  5-MIN KMKG 220420Z 06006KT 10SM CLR 18/17 A2979 750 90 1400 070/06 RMK AO2
14840KMKG MKG20030721232509307/21/03 23:25:31  5-MIN KMKG 220425Z 07005KT 10SM CLR 18/17 A2978 760 90 1400 070/05 RMK AO2
14840KMKG MKG20030721233009307/21/03 23:30:31  5-MIN KMKG 220430Z 06006KT 10SM CLR 18/17 A2978 760 90 1400 070/06 RMK AO2
14840KMKG MKG20030721233509307/21/03 23:35:31  5-MIN KMKG 220435Z 05006KT 10SM CLR 18/17 A2978 760 93 1300 060/06 RMK AO2
14840KMKG MKG20030721234009307/21/03 23:40:31  5-MIN KMKG 220440Z 04006KT 10SM CLR 18/17 A2978 760 93 1300 040/06 RMK AO2
14840KMKG MKG20030721234509307/21/03 23:45:31  5-MIN KMKG 220445Z 04006KT 10SM CLR 18/17 A2978 760 90 1400 040/06 RMK AO2
14840KMKG MKG20030721235012007/21/03 23:50:31  5-MIN KMKG 220450Z 04007KT 10SM CLR 18/17 A2979 760 90 1400 040/07 RMK AO2 SLP085 T01830167 402500178
14840KMKG MKG20030721235512007/21/03 23:55:31  5-MIN KMKG 220455Z 02006KT 10SM CLR 18/17 A2979 750 93 1300 020/06 RMK AO2 SLP085 T01780167 402500178
14840KMKG MKG20030722000009307/22/03 00:00:32  5-MIN KMKG 220500Z 03007KT 10SM CLR 18/17 A2979 750 93 1300 030/07 RMK AO2
14840KMKG MKG20030722000509307/22/03 00:05:31  5-MIN KMKG 220505Z 02007KT 10SM CLR 18/17 A2979 750 93 1300 030/07 RMK AO2
14840KMKG MKG20030722001009307/22/03 00:10:31  5-MIN KMKG 220510Z 03006KT 10SM CLR 18/17 A2979 750 93 1300 030/06 RMK AO2
14840KMKG MKG20030722001509307/22/03 00:15:31  5-MIN KMKG 220515Z 03005KT 10SM CLR 18/17 A2979 760 93 1300 040/05 RMK AO2
14840KMKG MKG20030722002009307/22/03 00:20:31  5-MIN KMKG 220520Z 04005KT 10SM CLR 18/17 A2979 750 93 1300 050/05 RMK AO2
14840KMKG MKG20030722002509307/22/03 00:25:31  5-MIN KMKG 220525Z 05005KT 10SM CLR 18/17 A2979 750 93 1300 050/05 RMK AO2
14840KMKG MKG20030722003009307/22/03 00:30:31  5-MIN KMKG 220530Z 03006KT 10SM CLR 18/17 A2979 750 93 1300 040/06 RMK AO2
14840KMKG MKG20030722003509307/22/03 00:35:31  5-MIN KMKG 220535Z 04006KT 10SM CLR 17/17 A2979 750 96 1200 040/06 RMK AO2
14840KMKG MKG20030722004009307/22/03 00:40:31  5-MIN KMKG 220540Z 02006KT 10SM CLR 18/17 A2979 750 93 1300 020/06 RMK AO2
14840KMKG MKG20030722004509307/22/03 00:45:31  5-MIN KMKG 220545Z 02007KT 10SM CLR 17/17 A2980 740 96 1200 030/07 RMK AO2
14840KMKG MKG20030722005012807/22/03 00:50:31  5-MIN KMKG 220550Z 03006KT 10SM CLR 17/17 A2980 740 96 1200 030/06 RMK AO2 SLP088 T01720167 10228 20172 51021
14840KMKG MKG20030722005512807/22/03 00:55:31  5-MIN KMKG 220555Z 02006KT 10SM CLR 17/17 A2980 740 96 1200 030/06 RMK AO2 SLP089 T01720167 10228 20172 53007
14840KMKG MKG20030722010009307/22/03 01:00:31  5-MIN KMKG 220600Z 02006KT 10SM CLR 17/17 A2980 740 96 1200 020/06 RMK AO2
14840KMKG MKG20030722010509307/22/03 01:05:31  5-MIN KMKG 220605Z 02004KT 10SM CLR 17/17 A2980 740 96 1200 020/04 RMK AO2
14840KMKG MKG20030722011009307/22/03 01:10:31  5-MIN KMKG 220610Z 01004KT 10SM CLR 17/17 A2980 740 96 1200 020/04 RMK AO2
14840KMKG MKG20030722011509607/22/03 01:15:31  5-MIN KMKG 220615Z 01005KT 10SM SCT110 17/17 A2981 740 96 1200 020/05 RMK AO2
14840KMKG MKG20030722012009607/22/03 01:20:31  5-MIN KMKG 220620Z 01006KT 10SM SCT110 17/17 A2981 740 96 1200 010/06 RMK AO2
14840KMKG MKG20030722012509607/22/03 01:25:31  5-MIN KMKG 220625Z 36007KT 10SM BKN110 17/17 A2981 740 96 1200 010/07 RMK AO2
14840KMKG MKG20030722013009607/22/03 01:30:31  5-MIN KMKG 220630Z 36007KT 10SM BKN110 17/17 A2981 730 96 1200 360/07 RMK AO2
14840KMKG MKG20030722013509607/22/03 01:35:31  5-MIN KMKG 220635Z 35005KT 10SM BKN110 17/17 A2981 730 96 1200 360/05 RMK AO2
14840KMKG MKG20030722014009607/22/03 01:40:31  5-MIN KMKG 220640Z 35004KT 10SM SCT110 17/16 A2981 730 93 1200 350/04 RMK AO2
14840KMKG MKG20030722014509607/22/03 01:45:31  5-MIN KMKG 220645Z 35005KT 10SM FEW110 17/16 A2981 730 93 1200 350/05 RMK AO2
14840KMKG MKG20030722015011307/22/03 01:50:31  5-MIN KMKG 220650Z 35006KT 10SM FEW110 17/17 A2981 730 96 1200 360/06 RMK AO2 SLP093 T01720167
14840KMKG MKG20030722015512007/22/03 01:55:31  5-MIN KMKG 220655Z 35007KT 10SM FEW011 SCT100 17/17 A2981 730 96 1200 360/07 RMK AO2 SLP093 T01720167
14840KMKG MKG20030722020009607/22/03 02:00:31  5-MIN KMKG 220700Z 36007KT 10SM SCT011 17/17 A2981 730 96 1200 360/07 RMK AO2
14840KMKG MKG20030722020509607/22/03 02:05:31  5-MIN KMKG 220705Z 36006KT 10SM BKN011 17/16 A2981 730 93 1200 360/06 RMK AO2
14840KMKG MKG20030722021009607/22/03 02:10:31  5-MIN KMKG 220710Z 35007KT 10SM SCT013 17/16 A2981 730 93 1200 350/07 RMK AO2
14840KMKG MKG20030722021509607/22/03 02:15:31  5-MIN KMKG 220715Z 35007KT 10SM SCT013 17/17 A2981 730 96 1200 350/07 RMK AO2
14840KMKG MKG20030722022009607/22/03 02:20:31  5-MIN KMKG 220720Z 35009KT 10SM SCT013 17/17 A2981 730 96 1200 360/09 RMK AO2
14840KMKG MKG20030722022509607/22/03 02:25:31  5-MIN KMKG 220725Z 35009KT 10SM FEW013 17/16 A2981 730 93 1200 360/09 RMK AO2
14840KMKG MKG20030722023009607/22/03 02:30:31  5-MIN KMKG 220730Z 36008KT 10SM FEW013 17/16 A2981 730 93 1200 360/08 RMK AO2
14840KMKG MKG20030722023509307/22/03 02:35:31  5-MIN KMKG 220735Z 36008KT 10SM CLR 17/16 A2981 730 96 1100 360/08 RMK AO2
14840KMKG MKG20030722024009307/22/03 02:40:31  5-MIN KMKG 220740Z 36009KT 10SM CLR 17/16 A2981 730 96 1100 010/09 RMK AO2
14840KMKG MKG20030722024509307/22/03 02:45:31  5-MIN KMKG 220745Z 36007KT 10SM CLR 17/16 A2981 730 96 1100 360/07 RMK AO2
14840KMKG MKG20030722025011007/22/03 02:50:31  5-MIN KMKG 220750Z 01008KT 10SM CLR 17/16 A2981 730 96 1100 010/08 RMK AO2 SLP093 T01670161
14840KMKG MKG20030722025511007/22/03 02:55:31  5-MIN KMKG 220755Z 36007KT 10SM CLR 17/16 A2981 730 96 1100 010/07 RMK AO2 SLP093 T01670161
14840KMKG MKG20030722030009307/22/03 03:00:31  5-MIN KMKG 220800Z 01006KT 10SM CLR 17/16 A2982 730 96 1100 010/06 RMK AO2
14840KMKG MKG20030722030509307/22/03 03:05:31  5-MIN KMKG 220805Z 36007KT 10SM CLR 17/16 A2982 720 96 1100 010/07 RMK AO2
14840KMKG MKG20030722031009307/22/03 03:10:31  5-MIN KMKG 220810Z 36006KT 10SM CLR 17/16 A2982 720 93 1100 360/06 RMK AO2
14840KMKG MKG20030722031509307/22/03 03:15:31  5-MIN KMKG 220815Z 01007KT 10SM CLR 17/16 A2982 720 93 1100 010/07 RMK AO2
14840KMKG MKG20030722032009307/22/03 03:20:31  5-MIN KMKG 220820Z 36007KT 10SM CLR 17/16 A2982 720 93 1100 010/07 RMK AO2
14840KMKG MKG20030722032509307/22/03 03:25:31  5-MIN KMKG 220825Z 01006KT 10SM CLR 17/16 A2982 720 93 1100 010/06 RMK AO2
14840KMKG MKG20030722033009307/22/03 03:30:31  5-MIN KMKG 220830Z 36007KT 10SM CLR 16/16 A2982 720 96 1100 010/07 RMK AO2
14840KMKG MKG20030722033509307/22/03 03:35:31  5-MIN KMKG 220835Z 36006KT 10SM CLR 16/16 A2982 720 96 1100 010/06 RMK AO2
14840KMKG MKG20030722034009307/22/03 03:40:31  5-MIN KMKG 220840Z 01006KT 10SM CLR 16/16 A2983 720 96 1100 010/06 RMK AO2
14840KMKG MKG20030722034509307/22/03 03:45:31  5-MIN KMKG 220845Z 01006KT 10SM CLR 16/16 A2983 720 96 1100 010/06 RMK AO2
14840KMKG MKG20030722035011607/22/03 03:50:31  5-MIN KMKG 220850Z 01005KT 10SM CLR 16/16 A2983 710 96 1100 010/05 RMK AO2 SLP098 T01610156 53007
14840KMKG MKG20030722035511607/22/03 03:55:31  5-MIN KMKG 220855Z 36005KT 10SM CLR 16/15 A2983 710 93 1100 010/05 RMK AO2 SLP098 T01610150 53009
14840KMKG MKG20030722040009307/22/03 04:00:31  5-MIN KMKG 220900Z 36005KT 10SM CLR 16/15 A2983 710 93 1100 010/05 RMK AO2
14840KMKG MKG20030722040509307/22/03 04:05:31  5-MIN KMKG 220905Z 36005KT 10SM CLR 16/15 A2983 720 93 1100 010/05 RMK AO2
14840KMKG MKG20030722041009307/22/03 04:10:31  5-MIN KMKG 220910Z 36007KT 10SM CLR 16/15 A2983 720 93 1100 360/07 RMK AO2
14840KMKG MKG20030722041509307/22/03 04:15:31  5-MIN KMKG 220915Z 36005KT 10SM CLR 16/15 A2983 720 93 1100 010/05 RMK AO2
14840KMKG MKG20030722042009307/22/03 04:20:31  5-MIN KMKG 220920Z 01006KT 10SM CLR 16/15 A2983 710 93 1100 010/06 RMK AO2
14840KMKG MKG20030722042509307/22/03 04:25:31  5-MIN KMKG 220925Z 01006KT 10SM CLR 16/15 A2983 710 93 1100 010/06 RMK AO2
14840KMKG MKG20030722043009307/22/03 04:30:31  5-MIN KMKG 220930Z 36008KT 10SM CLR 16/15 A2983 710 93 1000 010/08 RMK AO2
14840KMKG MKG20030722043509307/22/03 04:35:31  5-MIN KMKG 220935Z 01006KT 10SM CLR 16/15 A2983 710 93 1000 010/06 RMK AO2
14840KMKG MKG20030722044009307/22/03 04:40:31  5-MIN KMKG 220940Z 01006KT 10SM CLR 16/15 A2983 710 96 1000 010/06 RMK AO2
14840KMKG MKG20030722044509307/22/03 04:45:31  5-MIN KMKG 220945Z 01005KT 10SM CLR 16/15 A2983 710 96 1000 010/05 RMK AO2
14840KMKG MKG20030722045011007/22/03 04:50:31  5-MIN KMKG 220950Z 01006KT 10SM CLR 16/15 A2983 710 96 1000 020/06 RMK AO2 SLP100 T01560150
14840KMKG MKG20030722045511007/22/03 04:55:31  5-MIN KMKG 220955Z 36005KT 10SM CLR 16/15 A2984 710 96 1000 010/05 RMK AO2 SLP100 T01560150
14840KMKG MKG20030722050009207/22/03 05:00:31  5-MIN KMKG 221000Z 01006KT 9SM CLR 16/15 A2984 710 96 1000 010/06 RMK AO2
14840KMKG MKG20030722050509207/22/03 05:05:31  5-MIN KMKG 221005Z 36005KT 9SM CLR 16/15 A2984 710 96 1000 010/05 RMK AO2
14840KMKG MKG20030722051009207/22/03 05:10:31  5-MIN KMKG 221010Z 36004KT 9SM CLR 16/15 A2984 710 96 1000 360/04 RMK AO2
14840KMKG MKG20030722051509207/22/03 05:15:31  5-MIN KMKG 221015Z 36004KT 9SM CLR 16/15 A2984 700 96 1000 010/04 RMK AO2
14840KMKG MKG20030722052009807/22/03 05:20:31  5-MIN KMKG 221020Z 01005KT 9SM CLR 16/15 A2984 700 96 1000 010/05 RMK AO2 P0001
14840KMKG MKG20030722052509807/22/03 05:25:31  5-MIN KMKG 221025Z 01007KT 9SM CLR 16/15 A2984 700 96 1000 010/07 RMK AO2 P0001
14840KMKG MKG20030722053009807/22/03 05:30:31  5-MIN KMKG 221030Z 01008KT 9SM CLR 16/15 A2985 700 96 1000 010/08 RMK AO2 P0001
14840KMKG MKG20030722053509807/22/03 05:35:31  5-MIN KMKG 221035Z 01007KT 9SM CLR 16/15 A2985 700 96 1000 020/07 RMK AO2 P0001
14840KMKG MKG20030722054009807/22/03 05:40:31  5-MIN KMKG 221040Z 01007KT 9SM CLR 16/15 A2985 700 96 1000 010/07 RMK AO2 P0001
14840KMKG MKG20030722054509807/22/03 05:45:31  5-MIN KMKG 221045Z 01007KT 8SM CLR 16/15 A2985 690 96 1000 010/07 RMK AO2 P0001
14840KMKG MKG20030722055011507/22/03 05:50:31  5-MIN KMKG 221050Z 01007KT 7SM CLR 16/15 A2985 690 96 1000 010/07 RMK AO2 SLP108 P0001 T01560150
14840KMKG MKG20030722055511507/22/03 05:55:31  5-MIN KMKG 221055Z 01007KT 7SM CLR 16/15 A2985 690 96 1000 020/07 RMK AO2 SLP107 P0001 T01560150
14840KMKG MKG20030722060009207/22/03 06:00:31  5-MIN KMKG 221100Z 01006KT 7SM CLR 16/15 A2985 690 96 1000 020/06 RMK AO2
14840KMKG MKG20030722060509507/22/03 06:05:31  5-MIN KMKG 221105Z 01006KT 6SM BR CLR 16/15 A2986 690 96 1000 010/06 RMK AO2
14840KMKG MKG20030722061009507/22/03 06:10:31  5-MIN KMKG 221110Z 02007KT 6SM BR CLR 16/15 A2986 690 96 1000 020/07 RMK AO2
14840KMKG MKG20030722061509507/22/03 06:15:31  5-MIN KMKG 221115Z 02007KT 6SM BR CLR 16/15 A2986 690 96 1000 020/07 RMK AO2
14840KMKG MKG20030722062009807/22/03 06:20:31  5-MIN KMKG 221120Z 02008KT 6SM BR FEW035 16/15 A2986 690 96 1000 020/08 RMK AO2
14840KMKG MKG20030722062509807/22/03 06:25:31  5-MIN KMKG 221125Z 02008KT 6SM BR FEW045 16/15 A2986 690 96 1000 020/08 RMK AO2
14840KMKG MKG20030722063009807/22/03 06:30:31  5-MIN KMKG 221130Z 02007KT 6SM BR FEW045 16/15 A2986 690 96 1000 020/07 RMK AO2
14840KMKG MKG20030722063509707/22/03 06:35:31  5-MIN KMKG 221135Z 02008KT 6SM BR FEW045 16/15 A2986 680 96 900 020/08 RMK AO2
14840KMKG MKG20030722064009807/22/03 06:40:31  5-MIN KMKG 221140Z 36007KT 6SM BR FEW045 16/15 A2987 680 93 1000 360/07 RMK AO2
14840KMKG MKG20030722064509807/22/03 06:45:31  5-MIN KMKG 221145Z 01008KT 6SM BR FEW045 16/15 A2987 680 93 1000 010/08 RMK AO2
14840KMKG MKG20030722065012707/22/03 06:50:31  5-MIN KMKG 221150Z 01007KT 7SM CLR 16/15 A2987 680 93 1000 010/07 RMK AO2 SLP111 T01610150 10172 20156 53009
14840KMKG MKG20030722065513607/22/03 06:55:31  5-MIN KMKG 221155Z 01008KT 8SM FEW005 16/16 A2987 680 96 1000 010/08 RMK AO2 SLP111 70061 T01610156 10172 20156 53013
14840KMKG MKG20030722070009507/22/03 07:00:31  5-MIN KMKG 221200Z 36008KT 9SM FEW005 16/16 A2987 680 96 1000 010/08 RMK AO2
14840KMKG MKG20030722070509507/22/03 07:05:31  5-MIN KMKG 221205Z 01008KT 9SM FEW005 16/16 A2987 680 96 1000 010/08 RMK AO2
14840KMKG MKG20030722071009507/22/03 07:10:31  5-MIN KMKG 221210Z 01008KT 9SM FEW005 17/16 A2987 680 93 1100 010/08 RMK AO2
14840KMKG MKG20030722071509507/22/03 07:15:31  5-MIN KMKG 221215Z 01009KT 9SM FEW005 17/16 A2987 680 93 1100 020/09 RMK AO2
14840KMKG MKG20030722072009607/22/03 07:20:31  5-MIN KMKG 221220Z 01008KT 10SM FEW005 17/16 A2987 670 93 1100 010/08 RMK AO2
14840KMKG MKG20030722072509607/22/03 07:25:31  5-MIN KMKG 221225Z 01010KT 10SM FEW005 17/16 A2988 670 93 1100 010/10 RMK AO2
14840KMKG MKG20030722073009607/22/03 07:30:31  5-MIN KMKG 221230Z 02008KT 10SM FEW005 17/16 A2988 670 90 1100 020/08 RMK AO2
14840KMKG MKG20030722073509607/22/03 07:35:31  5-MIN KMKG 221235Z 01008KT 10SM FEW008 17/16 A2988 670 93 1100 010/08 RMK AO2
14840KMKG MKG20030722074009607/22/03 07:40:31  5-MIN KMKG 221240Z 01008KT 10SM FEW008 18/16 A2988 670 90 1200 010/08 RMK AO2
14840KMKG MKG20030722074509607/22/03 07:45:31  5-MIN KMKG 221245Z 01010KT 10SM FEW008 18/16 A2988 670 90 1200 020/10 RMK AO2
14840KMKG MKG20030722075011307/22/03 07:50:31  5-MIN KMKG 221250Z 36010KT 10SM FEW008 18/16 A2988 670 90 1200 010/10 RMK AO2 SLP115 T01780161
14840KMKG MKG20030722075511307/22/03 07:55:31  5-MIN KMKG 221255Z 01009KT 10SM SCT010 18/16 A2988 670 90 1200 010/09 RMK AO2 SLP116 T01780161
14840KMKG MKG20030722080009607/22/03 08:00:31  5-MIN KMKG 221300Z 01012KT 10SM SCT010 18/16 A2988 670 90 1200 010/12 RMK AO2
14840KMKG MKG20030722080509607/22/03 08:05:31  5-MIN KMKG 221305Z 01007KT 10SM SCT010 18/16 A2988 660 87 1200 020/07 RMK AO2
14840KMKG MKG20030722081009607/22/03 08:10:31  5-MIN KMKG 221310Z 02009KT 10SM FEW010 19/16 A2988 670 84 1300 030/09 RMK AO2
14840KMKG MKG20030722081509607/22/03 08:15:31  5-MIN KMKG 221315Z 03008KT 10SM FEW010 19/16 A2988 670 84 1300 040/08 RMK AO2
14840KMKG MKG20030722082009607/22/03 08:20:31  5-MIN KMKG 221320Z 04007KT 10SM FEW010 19/16 A2988 670 84 1300 040/07 RMK AO2
14840KMKG MKG20030722082509607/22/03 08:25:31  5-MIN KMKG 221325Z 02006KT 10SM FEW010 19/16 A2988 670 81 1400 020/06 RMK AO2
14840KMKG MKG20030722083009607/22/03 08:30:31  5-MIN KMKG 221330Z 02006KT 10SM FEW010 19/16 A2988 660 81 1400 020/06 RMK AO2
14840KMKG MKG20030722083509307/22/03 08:35:31  5-MIN KMKG 221335Z 02006KT 10SM CLR 20/17 A2989 660 81 1400 020/06 RMK AO2
14840KMKG MKG20030722084009307/22/03 08:40:31  5-MIN KMKG 221340Z 02006KT 10SM CLR 20/16 A2989 660 78 1400 030/06 RMK AO2
14840KMKG MKG20030722084509607/22/03 08:45:31  5-MIN KMKG 221345Z 01005KT 10SM FEW110 20/16 A2989 660 78 1400 020/05 RMK AO2
14840KMKG MKG20030722085011307/22/03 08:50:31  5-MIN KMKG 221350Z 05006KT 10SM SCT110 20/16 A2989 660 78 1400 050/06 RMK AO2 SLP118 T02000161
14840KMKG MKG20030722085511307/22/03 08:55:31  5-MIN KMKG 221355Z 02004KT 10SM BKN110 20/16 A2989 660 78 1400 020/04 RMK AO2 SLP118 T02000161
14840KMKG MKG20030722090009607/22/03 09:00:31  5-MIN KMKG 221400Z VRB04KT 10SM BKN110 21/16 A2989 660 75 1500 VRB/04 RMK AO2
14840KMKG MKG20030722090509607/22/03 09:05:31  5-MIN KMKG 221405Z 06006KT 10SM BKN110 21/16 A2989 660 75 1500 070/06 RMK AO2
14840KMKG MKG20030722091009607/22/03 09:10:31  5-MIN KMKG 221410Z 06006KT 10SM OVC110 21/16 A2989 660 73 1600 060/06 RMK AO2
14840KMKG MKG20030722091509607/22/03 09:15:31  5-MIN KMKG 221415Z 04004KT 10SM OVC110 21/16 A2989 660 75 1500 050/04 RMK AO2
14840KMKG MKG20030722092009607/22/03 09:20:31  5-MIN KMKG 221420Z VRB05KT 10SM OVC110 21/16 A2989 660 73 1600 VRB/05 RMK AO2
14840KMKG MKG20030722092509607/22/03 09:25:31  5-MIN KMKG 221425Z 05005KT 10SM OVC110 22/16 A2989 660 70 1600 060/05 RMK AO2
14840KMKG MKG20030722093009607/22/03 09:30:31  5-MIN KMKG 221430Z 04005KT 10SM OVC110 22/16 A2989 660 70 1600 040/05 RMK AO2
14840KMKG MKG20030722093509607/22/03 09:35:31  5-MIN KMKG 221435Z 07006KT 10SM BKN110 22/16 A2989 660 70 1600 070/06 RMK AO2
14840KMKG MKG20030722094009607/22/03 09:40:31  5-MIN KMKG 221440Z 05004KT 10SM BKN110 21/16 A2989 650 73 1600 050/04 RMK AO2
14840KMKG MKG20030722094509607/22/03 09:45:31  5-MIN KMKG 221445Z 05005KT 10SM BKN110 22/16 A2990 650 70 1600 060/05 RMK AO2
14840KMKG MKG20030722095012607/22/03 09:50:31  5-MIN KMKG 221450Z VRB03KT 10SM SCT021 BKN110 22/16 A2990 650 70 1600 VRB/03 RMK AO2 SLP121 T02170161 53013
14840KMKG MKG20030722095512607/22/03 09:55:31  5-MIN KMKG 221455Z 03006KT 10SM SCT021 BKN110 22/16 A2990 650 70 1600 040/06 RMK AO2 SLP121 T02170161 51010
14840KMKG MKG20030722100011007/22/03 10:00:31  5-MIN KMKG 221500Z 02004KT 10SM FEW025 SCT032 BKN110 22/16 A2990 650 70 1600 020/04 RMK AO2
14840KMKG MKG20030722100511007/22/03 10:05:31  5-MIN KMKG 221505Z 00000KT 10SM FEW025 SCT032 BKN110 22/16 A2990 650 70 1600 000/00 RMK AO2
14840KMKG MKG20030722101011007/22/03 10:10:31  5-MIN KMKG 221510Z 01005KT 10SM FEW025 SCT032 BKN110 22/16 A2990 650 68 1700 010/05 RMK AO2
14840KMKG MKG20030722101511007/22/03 10:15:31  5-MIN KMKG 221515Z 34007KT 10SM SCT025 BKN032 BKN110 22/17 A2990 650 70 1700 350/07 RMK AO2
14840KMKG MKG20030722102011007/22/03 10:20:31  5-MIN KMKG 221520Z 34006KT 10SM FEW025 SCT032 BKN110 22/17 A2989 660 70 1700 350/06 RMK AO2
14840KMKG MKG20030722102511007/22/03 10:25:31  5-MIN KMKG 221525Z 01007KT 10SM FEW025 SCT034 BKN065 22/17 A2990 650 73 1600 010/07 RMK AO2
14840KMKG MKG20030722103011007/22/03 10:30:31  5-MIN KMKG 221530Z 34007KT 10SM FEW027 SCT065 BKN080 22/17 A2990 650 70 1700 350/07 RMK AO2
14840KMKG MKG20030722103511007/22/03 10:35:31  5-MIN KMKG 221535Z 35006KT 10SM FEW027 SCT080 BKN110 22/17 A2990 650 70 1700 350/06 RMK AO2
14840KMKG MKG20030722104010307/22/03 10:40:31  5-MIN KMKG 221540Z 34007KT 10SM FEW025 BKN110 23/17 A2990 650 68 1700 350/07 RMK AO2
14840KMKG MKG20030722104510307/22/03 10:45:31  5-MIN KMKG 221545Z 35007KT 10SM FEW065 SCT110 23/17 A2990 650 68 1700 350/07 RMK AO2
14840KMKG MKG20030722105012007/22/03 10:50:31  5-MIN KMKG 221550Z 35007KT 10SM FEW065 SCT110 23/17 A2990 650 68 1700 350/07 RMK AO2 SLP121 T02280167
14840KMKG MKG20030722105511307/22/03 10:55:31  5-MIN KMKG 221555Z 33006KT 10SM FEW110 23/17 A2990 650 68 1700 330/06 RMK AO2 SLP121 T02280167
14840KMKG MKG20030722110009607/22/03 11:00:31  5-MIN KMKG 221600Z 34009KT 10SM FEW110 23/17 A2990 650 68 1700 340/09 RMK AO2
14840KMKG MKG20030722110509607/22/03 11:05:31  5-MIN KMKG 221605Z 36006KT 10SM FEW110 23/16 A2990 650 65 1700 360/06 RMK AO2
14840KMKG MKG20030722111010307/22/03 11:10:31  5-MIN KMKG 221610Z 05007KT 10SM FEW026 SCT120 23/16 A2990 650 63 1800 050/07 RMK AO2
14840KMKG MKG20030722111511007/22/03 11:15:31  5-MIN KMKG 221615Z VRB04KT 10SM FEW026 SCT035 BKN120 23/16 A2990 650 63 1800 VRB/04 RMK AO2
14840KMKG MKG20030722112011007/22/03 11:20:31  5-MIN KMKG 221620Z VRB04KT 10SM FEW028 SCT032 BKN045 23/16 A2990 650 65 1700 VRB/04 RMK AO2
14840KMKG MKG20030722112511007/22/03 11:25:31  5-MIN KMKG 221625Z 36006KT 10SM FEW028 SCT045 BKN060 23/16 A2990 650 63 1800 010/06 RMK AO2
14840KMKG MKG20030722113011007/22/03 11:30:31  5-MIN KMKG 221630Z 36005KT 10SM FEW028 SCT043 BKN050 23/16 A2990 650 61 1800 360/05 RMK AO2
14840KMKG MKG20030722113511007/22/03 11:35:31  5-MIN KMKG 221635Z 34004KT 10SM FEW028 BKN050 OVC075 23/16 A2990 650 63 1800 340/04 RMK AO2
14840KMKG MKG20030722114011007/22/03 11:40:31  5-MIN KMKG 221640Z 27007KT 10SM FEW030 BKN043 BKN060 23/17 A2990 650 66 1800 280/07 RMK AO2
14840KMKG MKG20030722114511007/22/03 11:45:31  5-MIN KMKG 221645Z 30007KT 10SM FEW032 SCT050 BKN070 23/17 A2990 650 66 1800 310/07 RMK AO2
14840KMKG MKG20030722115012707/22/03 11:50:31  5-MIN KMKG 221650Z 27008KT 10SM FEW045 SCT055 SCT070 23/17 A2990 650 68 1800 270/08 RMK AO2 SLP122 T02330172
14840KMKG MKG20030722115512007/22/03 11:55:31  5-MIN KMKG 221655Z 29011KT 10SM FEW041 BKN050 23/17 A2990 650 70 1700 290/11 RMK AO2 SLP122 T02280172
14840KMKG MKG20030722120011007/22/03 12:00:31  5-MIN KMKG 221700Z 28010KT 10SM FEW036 SCT044 SCT055 22/17 A2990 650 73 1700 290/10 RMK AO2
14840KMKG MKG20030722120511807/22/03 12:05:31  5-MIN KMKG 221705Z 27009KT 10SM SCT037 BKN048 22/17 A2990 650 75 1600 270/09 RMK AO2 CIG 036 RWY 14
14840KMKG MKG20030722121010307/22/03 12:10:31  5-MIN KMKG 221710Z 29008KT 10SM SCT035 BKN042 22/17 A2990 650 75 1600 290/08 RMK AO2
14840KMKG MKG20030722121512607/22/03 12:15:31  5-MIN KMKG 221715Z 28007KT 10SM -RA BKN035 BKN047 BKN070 22/17 A2990 650 75 1600 290/07 RMK AO2 RAB14 P0000
14840KMKG MKG20030722122012607/22/03 12:20:31  5-MIN KMKG 221720Z 29006KT 10SM -RA SCT034 BKN045 BKN065 21/18 A2990 650 81 1600 290/06 RMK AO2 RAB14 P0000
14840KMKG MKG20030722122512507/22/03 12:25:31  5-MIN KMKG 221725Z 29010KT 10SM FEW033 SCT040 BKN048 22/18 A2990 650 75 1700 290/10 RMK AO2 RAB14E25 P0000
14840KMKG MKG20030722123012507/22/03 12:30:31  5-MIN KMKG 221730Z 30011KT 10SM FEW033 SCT043 BKN110 23/18 A2990 650 73 1700 300/11 RMK AO2 RAB14E25 P0000
14840KMKG MKG20030722123511807/22/03 12:35:31  5-MIN KMKG 221735Z 29008KT 10SM FEW033 SCT110 23/18 A2989 650 73 1700 300/08 RMK AO2 RAB14E25 P0000
14840KMKG MKG20030722124011107/22/03 12:40:31  5-MIN KMKG 221740Z 30009KT 10SM FEW046 24/18 A2989 660 71 1900 310/09 RMK AO2 RAB14E25 P0000
14840KMKG MKG20030722124511107/22/03 12:45:31  5-MIN KMKG 221745Z 32010KT 10SM FEW055 24/18 A2989 660 71 1900 320/10 RMK AO2 RAB14E25 P0000
14840KMKG MKG20030722125015907/22/03 12:50:31  5-MIN KMKG 221750Z 30009KT 10SM SCT040 SCT055 24/18 A2989 660 68 1900 300/09 RMK AO2 RAB14E25 SLP119 P0000 60000 T02390178 10244 20161 51010
14840KMKG MKG20030722125515907/22/03 12:55:31  5-MIN KMKG 221755Z 30009KT 10SM SCT040 SCT055 24/18 A2989 660 68 1900 300/09 RMK AO2 RAB14E25 SLP118 P0000 60000 T02390178 10244 20161 58003
14840KMKG MKG20030722130009607/22/03 13:00:31  5-MIN KMKG 221800Z 30010KT 10SM FEW055 24/18 A2989 660 68 1900 300/10 RMK AO2
14840KMKG MKG20030722130511007/22/03 13:05:31  5-MIN KMKG 221805Z 29010KT 10SM FEW040 SCT055 SCT080 22/17 A2988 660 73 1700 290/10 RMK AO2
14840KMKG MKG20030722131009607/22/03 13:10:31  5-MIN KMKG 221810Z 30009KT 10SM FEW055 22/17 A2989 660 73 1700 310/09 RMK AO2
14840KMKG MKG20030722131509607/22/03 13:15:31  5-MIN KMKG 221815Z 30011KT 10SM FEW055 23/18 A2989 660 73 1800 300/11 RMK AO2
14840KMKG MKG20030722132010307/22/03 13:20:31  5-MIN KMKG 221820Z 31010KT 10SM FEW039 SCT075 23/17 A2989 660 70 1800 310/10 RMK AO2
14840KMKG MKG20030722132511907/22/03 13:25:31  5-MIN KMKG 221825Z 32011KT 10SM -RA FEW041 BKN070 22/18 A2989 660 75 1700 320/11 RMK AO2 RAB21 P0000
14840KMKG MKG20030722133012607/22/03 13:30:31  5-MIN KMKG 221830Z 32011KT 10SM -RA FEW041 SCT070 BKN085 22/17 A2989 660 75 1600 320/11 RMK AO2 RAB21 P0000
14840KMKG MKG20030722133511207/22/03 13:35:31  5-MIN KMKG 221835Z 29011KT 10SM -RA FEW070 22/17 A2989 660 75 1600 290/11 RMK AO2 RAB21 P0000
14840KMKG MKG20030722134011107/22/03 13:40:31  5-MIN KMKG 221840Z 29010KT 10SM FEW070 23/18 A2989 660 73 1800 300/10 RMK AO2 RAB21E36 P0000
14840KMKG MKG20030722134511107/22/03 13:45:31  5-MIN KMKG 221845Z 29010KT 10SM FEW070 23/18 A2988 670 70 1800 290/10 RMK AO2 RAB21E36 P0000
14840KMKG MKG20030722135014107/22/03 13:50:31  5-MIN KMKG 221850Z 30009G15KT 10SM SCT055 SCT070 23/18 A2989 650 70 1800 310/09G15 RMK AO2 RAB21E36 SLP121 P0000 T02330178
14840KMKG MKG20030722135516507/22/03 13:55:31  5-MIN KMKG 221855Z 02017KT 4SM -RA SCT055 SCT070 22/17 A2992 630 73 1600 030/17 RMK AO2 VIS 1 1/2 RWY 14 RAB21E36B54 PRESRR SLP128 P0006 T02170167
14840KMKG MKG20030722140015307/22/03 14:00:31  5-MIN KMKG 221900Z 00000KT +TSRA FEW009 SCT025 BKN034 18/16 A2993 630 87 1200 000/00 RMK AO2 OCNL LTGICCG TSB00 N MOV S PRESRR P0034 $
14840KMKG MKG20030722140515907/22/03 14:05:31  5-MIN KMKG 221905Z 00000KT 1SM +TSRA BR SCT002 BKN025 BKN040 17/16 A2992 630 90 1100 000/00 RMK AO2 FRQ LTGICCG TSB00 N MOV S PRESRR P0055 $
14840KMKG MKG20030722141014907/22/03 14:10:31  5-MIN KMKG 221910Z 03012KT 1SM +TSRA BKN006 BKN025 BKN040 18/15 A2991 640 83 1200 030/12 RMK AO2 FRQ LTGICCG TSB00 N MOV S P0063 $
14840KMKG MKG20030722141514907/22/03 14:15:31  5-MIN KMKG 221915Z 03012KT 1SM +TSRA BKN008 BKN025 OVC040 18/15 A2991 640 83 1200 030/12 RMK AO2 FRQ LTGICCG TSB00 N MOV S P0067 $
14840KMKG MKG20030722142014907/22/03 14:20:31  5-MIN KMKG 221920Z 03012KT 1 1/2SM +TSRA BR BKN010 OVC025 17/16 A2992 630 90 1100 030/12 RMK AO2 FRQ LTGICCG TSB00 N MOV S P0071 $
14840KMKG MKG20030722142514307/22/03 14:25:31  5-MIN KMKG 221925Z 03012KT 1 1/2SM +TSRA BR OVC012 17/16 A2991 640 93 1100 030/12 RMK AO2 OCNL LTGICCG TSB00 N MOV S P0074 $
14840KMKG MKG20030722143014907/22/03 14:30:31  5-MIN KMKG 221930Z 31012KT 2SM TSRA BR OVC014 17/16 A2991 640 93 1100 310/12 RMK AO2 WSHFT 1913 OCNL LTGICCG TSB00 N MOV S P0075 $
14840KMKG MKG20030722143514907/22/03 14:35:31  5-MIN KMKG 221935Z 31012KT 2SM TSRA BR OVC018 17/16 A2991 640 93 1100 310/12 RMK AO2 WSHFT 1913 OCNL LTGICCG TSB00 N MOV S P0076 $
14840KMKG MKG20030722144015007/22/03 14:40:31  5-MIN KMKG 221940Z 31012KT 2SM -TSRA BR OVC018 18/16 A2991 640 90 1200 310/12 RMK AO2 WSHFT 1913 OCNL LTGICCG TSB00 N MOV S P0077 $
14840KMKG MKG20030722144515707/22/03 14:45:31  5-MIN KMKG 221945Z 31012KT 4SM -TSRA BR BKN018 OVC080 18/16 A2991 640 90 1100 310/12 RMK AO2 WSHFT 1913 OCNL LTGICCG TSB00 N MOV S P0077 $
14840KMKG MKG20030722145017407/22/03 14:50:31  5-MIN KMKG 221950Z 31012KT 4SM -TSRA BR BKN027 OVC080 18/17 A2991 640 93 1200 310/12 RMK AO2 WSHFT 1913 SLP127 OCNL LTGICCG TSB00 N MOV S P0077 T01780167 $
14840KMKG MKG20030722145517407/22/03 14:55:31  5-MIN KMKG 221955Z 31012KT 4SM -TSRA BR SCT031 BKN080 18/17 A2991 640 90 1200 310/12 RMK AO2 WSHFT 1913 SLP127 OCNL LTGICCG TSB00 N MOV S P0077 T01830167 $
14840KMKG MKG20030722150014007/22/03 15:00:31  5-MIN KMKG 222000Z 28008KT 7SM -TSRA SCT028 BKN080 19/17 A2991 640 90 1300 280/08 RMK AO2 OCNL LTGICCG TS N MOV S P0000 $
14840KMKG MKG20030722150514007/22/03 15:05:31  5-MIN KMKG 222005Z 28008KT 7SM -TSRA FEW035 SCT080 19/18 A2991 640 90 1300 280/08 RMK AO2 OCNL LTGICCG TS N MOV S P0000 $
14840KMKG MKG20030722151013607/22/03 15:10:31  5-MIN KMKG 222010Z 28008KT 7SM TS FEW060 20/18 A2991 640 87 1400 280/08 RMK AO2 RAE08 OCNL LTGICCG TS N MOV S P0000 $
14840KMKG MKG20030722151513307/22/03 15:15:31  5-MIN KMKG 222015Z 28008KT 7SM -TSRA FEW060 19/18 A2991 640 90 1300 280/08 RMK AO2 OCNL LTGICCG TS N MOV S P0000 $
14840KMKG MKG20030722152011007/22/03 15:20:31  5-MIN KMKG 222020Z 28008KT 7SM -RA CLR 19/17 A2991 640 87 1300 280/08 RMK AO2 TSE19 P0000 $
14840KMKG MKG20030722152511107/22/03 15:25:31  5-MIN KMKG 222025Z 28008KT 7SM -RA FEW020 19/17 A2991 640 87 1300 280/08 RMK AO2 TSE19 P0000
14840KMKG MKG20030722153011107/22/03 15:30:31  5-MIN KMKG 222030Z 28008KT 7SM -RA FEW020 19/17 A2992 630 87 1300 280/08 RMK AO2 TSE19 P0000
14840KMKG MKG20030722153511107/22/03 15:35:31  5-MIN KMKG 222035Z 28008KT 7SM -RA FEW020 20/17 A2993 630 84 1400 280/08 RMK AO2 TSE19 P0000
14840KMKG MKG20030722154011207/22/03 15:40:31  5-MIN KMKG 222040Z 28008KT 7SM FEW031 20/17 A2993 630 84 1400 280/08 RMK AO2 TSE19RAE39 P0000
14840KMKG MKG20030722154512007/22/03 15:45:31  5-MIN KMKG 222045Z 28008KT 7SM -RA FEW044 SCT080 19/17 A2993 620 87 1300 280/08 RMK AO2 TSE19 P0000 $
14840KMKG MKG20030722155014907/22/03 15:50:31  5-MIN KMKG 222050Z 28008KT 7SM +RA SCT026 BKN075 18/17 A2992 630 90 1200 280/08 RMK AO2 TSE19 SLP132 P0002 60085 T01830167 58003 $
14840KMKG MKG20030722155517007/22/03 15:55:31  5-MIN KMKG 222055Z 28008KT 7SM RA SCT021 BKN065 BKN080 18/17 A2992 630 93 1100 280/08 RMK AO2 TSE19 CIG 021 RWY 14 SLP131 P0003 60086 T01780167 51011 $
14840KMKG MKG20030722160010707/22/03 16:00:31  5-MIN KMKG 222100Z 6SM -RA BR BKN021 BKN080 18/17 A2992 630 93 1100 M /M RMK AO2 P0001 $
14840KMKG MKG20030722160511507/22/03 16:05:31  5-MIN KMKG 222105Z 29010KT 10SM -RA BKN021 BKN080 18/17 A2992 630 93 1100 290/10 RMK AO2 P0001 $
14840KMKG MKG20030722161011507/22/03 16:10:31  5-MIN KMKG 222110Z 29010KT 10SM -RA BKN021 BKN080 18/16 A2992 640 90 1100 290/10 RMK AO2 P0001 $
14840KMKG MKG20030722161510807/22/03 16:15:31  5-MIN KMKG 222115Z 29010KT 10SM -RA SCT019 18/17 A2991 640 90 1200 290/10 RMK AO2 P0001 $
14840KMKG MKG20030722162011007/22/03 16:20:31  5-MIN KMKG 222120Z 30005KT 10SM SCT019 19/17 A2991 640 87 1300 300/05 RMK AO2 RAE19 P0001 $
14840KMKG MKG20030722162511007/22/03 16:25:31  5-MIN KMKG 222125Z 30005KT 10SM FEW019 20/17 A2991 640 84 1400 300/05 RMK AO2 RAE19 P0001 $
14840KMKG MKG20030722163011007/22/03 16:30:31  5-MIN KMKG 222130Z 30005KT 10SM FEW022 21/17 A2990 650 78 1500 300/05 RMK AO2 RAE19 P0001 $
14840KMKG MKG20030722163510707/22/03 16:35:31  5-MIN KMKG 222135Z 30005KT 10SM CLR 21/17 A2991 640 81 1500 300/05 RMK AO2 RAE19 P0001 $
14840KMKG MKG20030722164010707/22/03 16:40:31  5-MIN KMKG 222140Z 30005KT 10SM CLR 22/17 A2991 640 75 1600 300/05 RMK AO2 RAE19 P0001 $
14840KMKG MKG20030722164510707/22/03 16:45:31  5-MIN KMKG 222145Z 30005KT 10SM CLR 22/18 A2991 640 75 1700 300/05 RMK AO2 RAE19 P0001 $
14840KMKG MKG20030722165012407/22/03 16:50:31  5-MIN KMKG 222150Z 30005KT 10SM CLR 22/18 A2991 640 75 1700 300/05 RMK AO2 RAE19 SLP128 P0001 T02220178 $
14840KMKG MKG20030722165512707/22/03 16:55:31  5-MIN KMKG 222155Z 30005KT 10SM SCT040 22/18 A2991 640 78 1600 300/05 RMK AO2 RAE19 SLP129 P0001 T02170178 $
14840KMKG MKG20030722170009507/22/03 17:00:31  5-MIN KMKG 222200Z 30008KT 10SM CLR 22/18 A2992 630 81 1600 300/08 RMK AO2 $
14840KMKG MKG20030722170509507/22/03 17:05:31  5-MIN KMKG 222205Z 30008KT 10SM CLR 22/18 A2992 630 78 1600 300/08 RMK AO2 $
14840KMKG MKG20030722171009507/22/03 17:10:31  5-MIN KMKG 222210Z 30008KT 10SM CLR 22/18 A2992 630 78 1700 300/08 RMK AO2 $
14840KMKG MKG20030722171509807/22/03 17:15:31  5-MIN KMKG 222215Z 30008KT 10SM FEW090 22/16 A2992 630 68 1700 300/08 RMK AO2 $
14840KMKG MKG20030722172009807/22/03 17:20:31  5-MIN KMKG 222220Z 30008KT 10SM SCT095 22/16 A2992 630 70 1600 300/08 RMK AO2 $
14840KMKG MKG20030722172509807/22/03 17:25:31  5-MIN KMKG 222225Z 30008KT 10SM SCT095 22/16 A2991 640 70 1600 300/08 RMK AO2 $
14840KMKG MKG20030722173009807/22/03 17:30:31  5-MIN KMKG 222230Z 30008KT 10SM SCT095 22/16 A2991 640 70 1600 300/08 RMK AO2 $
14840KMKG MKG20030722173509807/22/03 17:35:31  5-MIN KMKG 222235Z 30008KT 10SM SCT095 22/17 A2991 640 70 1700 300/08 RMK AO2 $
14840KMKG MKG20030722174010507/22/03 17:40:31  5-MIN KMKG 222240Z 30008KT 10SM FEW080 SCT095 23/17 A2991 640 68 1700 300/08 RMK AO2 $
14840KMKG MKG20030722174510507/22/03 17:45:31  5-MIN KMKG 222245Z 30008KT 10SM SCT080 BKN095 22/17 A2991 640 70 1700 300/08 RMK AO2 $
14840KMKG MKG20030722175011507/22/03 17:50:31  5-MIN KMKG 222250Z 30008KT 10SM BKN080 22/17 A2991 640 73 1700 300/08 RMK AO2 SLP128 T02220172 $
14840KMKG MKG20030722175511507/22/03 17:55:31  5-MIN KMKG 222255Z 30008KT 10SM BKN080 22/17 A2991 640 70 1700 300/08 RMK AO2 SLP128 T02220167 $
14840KMKG MKG20030722180009807/22/03 18:00:31  5-MIN KMKG 222300Z 00000KT 10SM BKN080 22/17 A2991 640 70 1700 000/00 RMK AO2 $
14840KMKG MKG20030722180509807/22/03 18:05:31  5-MIN KMKG 222305Z 00000KT 10SM BKN080 22/17 A2992 630 70 1700 000/00 RMK AO2 $
14840KMKG MKG20030722181010507/22/03 18:10:31  5-MIN KMKG 222310Z 00000KT 10SM SCT080 SCT100 23/17 A2991 640 68 1700 000/00 RMK AO2 $
14840KMKG MKG20030722181510507/22/03 18:15:31  5-MIN KMKG 222315Z 00000KT 10SM SCT080 BKN100 23/17 A2991 640 68 1700 000/00 RMK AO2 $
14840KMKG MKG20030722182010507/22/03 18:20:31  5-MIN KMKG 222320Z 00000KT 10SM FEW080 SCT100 22/17 A2992 630 73 1600 000/00 RMK AO2 $
14840KMKG MKG20030722182509807/22/03 18:25:31  5-MIN KMKG 222325Z 33010KT 10SM FEW085 22/17 A2992 630 73 1600 330/10 RMK AO2 $
14840KMKG MKG20030722183009807/22/03 18:30:31  5-MIN KMKG 222330Z 33010KT 10SM FEW100 21/16 A2991 640 70 1500 330/10 RMK AO2 $
14840KMKG MKG20030722183510507/22/03 18:35:31  5-MIN KMKG 222335Z 33010KT 10SM SCT080 SCT100 21/15 A2991 640 68 1500 330/10 RMK AO2 $
14840KMKG MKG20030722184009807/22/03 18:40:31  5-MIN KMKG 222340Z 33010KT 10SM BKN080 21/15 A2991 640 70 1500 330/10 RMK AO2 $
14840KMKG MKG20030722184509807/22/03 18:45:31  5-MIN KMKG 222345Z 33010KT 10SM BKN080 21/15 A2991 640 68 1500 330/10 RMK AO2 $
14840KMKG MKG20030722185013907/22/03 18:50:31  5-MIN KMKG 222350Z 33010KT 10SM BKN080 22/16 A2991 640 68 1600 330/10 RMK AO2 SLP127 60087 T02170156 10239 20172 51011 $
14840KMKG MKG20030722185515007/22/03 18:55:31  5-MIN KMKG 222355Z 33010KT 10SM OVC080 22/16 A2991 640 65 1700 330/10 RMK AO2 WSHFT 2339 SLP126 60087 T02220156 10239 20172 56004 $
14840KMKG MKG20030722190009807/22/03 19:00:31  5-MIN KMKG 230000Z 00000KT 10SM OVC080 22/16 A2991 640 65 1700 000/00 RMK AO2 $
14840KMKG MKG20030722190510507/22/03 19:05:31  5-MIN KMKG 230005Z 00000KT 10SM FEW048 OVC080 22/16 A2992 630 70 1600 000/00 RMK AO2 $
14840KMKG MKG20030722191010507/22/03 19:10:31  5-MIN KMKG 230010Z 00000KT 10SM FEW048 BKN080 22/16 A2992 640 70 1600 000/00 RMK AO2 $
14840KMKG MKG20030722191510507/22/03 19:15:31  5-MIN KMKG 230015Z 00000KT 10SM SCT048 BKN080 21/16 A2992 640 73 1500 000/00 RMK AO2 $
14840KMKG MKG20030722192010507/22/03 19:20:31  5-MIN KMKG 230020Z 00000KT 10SM SCT048 BKN080 21/16 A2992 630 73 1500 000/00 RMK AO2 $
14840KMKG MKG20030722192510507/22/03 19:25:31  5-MIN KMKG 230025Z 03008KT 10SM SCT050 BKN085 21/17 A2992 630 75 1500 030/08 RMK AO2 $
14840KMKG MKG20030722193010507/22/03 19:30:31  5-MIN KMKG 230030Z 03008KT 10SM SCT050 SCT085 21/17 A2992 630 78 1500 030/08 RMK AO2 $
14840KMKG MKG20030722193509807/22/03 19:35:31  5-MIN KMKG 230035Z 03008KT 10SM FEW050 21/16 A2992 630 75 1500 030/08 RMK AO2 $
14840KMKG MKG20030722194009807/22/03 19:40:31  5-MIN KMKG 230040Z 03008KT 10SM FEW050 21/16 A2992 630 75 1500 030/08 RMK AO2 $
14840KMKG MKG20030722194509507/22/03 19:45:31  5-MIN KMKG 230045Z 03008KT 10SM CLR 20/16 A2992 630 78 1400 030/08 RMK AO2 $
14840KMKG MKG20030722195011507/22/03 19:50:31  5-MIN KMKG 230050Z 03008KT 10SM FEW050 20/16 A2992 630 78 1400 030/08 RMK AO2 SLP130 T02000161 $
14840KMKG MKG20030722195511507/22/03 19:55:31  5-MIN KMKG 230055Z 03008KT 10SM FEW050 20/16 A2992 630 75 1400 030/08 RMK AO2 SLP131 T02000156 $
14840KMKG MKG20030722200009807/22/03 20:00:31  5-MIN KMKG 230100Z 00000KT 10SM SCT040 20/16 A2992 630 75 1400 000/00 RMK AO2 $
14840KMKG MKG20030722200509807/22/03 20:05:31  5-MIN KMKG 230105Z 00000KT 10SM SCT040 19/16 A2993 620 81 1300 000/00 RMK AO2 $
14840KMKG MKG20030722201009807/22/03 20:10:31  5-MIN KMKG 230110Z 00000KT 10SM SCT040 19/16 A2993 620 81 1300 000/00 RMK AO2 $
14840KMKG MKG20030722201509807/22/03 20:15:31  5-MIN KMKG 230115Z 00000KT 10SM SCT046 19/16 A2993 620 81 1300 000/00 RMK AO2 $
14840KMKG MKG20030722202009807/22/03 20:20:31  5-MIN KMKG 230120Z 00000KT 10SM SCT046 19/16 A2993 620 81 1300 000/00 RMK AO2 $
14840KMKG MKG20030722202509807/22/03 20:25:31  5-MIN KMKG 230125Z 00000KT 10SM SCT046 19/16 A2993 620 78 1300 000/00 RMK AO2 $
14840KMKG MKG20030722203009807/22/03 20:30:31  5-MIN KMKG 230130Z 00000KT 10SM SCT046 19/16 A2993 620 81 1300 000/00 RMK AO2 $
14840KMKG MKG20030722203509807/22/03 20:35:31  5-MIN KMKG 230135Z 00000KT 10SM SCT046 19/16 A2993 620 81 1300 000/00 RMK AO2 $
14840KMKG MKG20030722204009807/22/03 20:40:31  5-MIN KMKG 230140Z 00000KT 10SM SCT046 19/16 A2993 620 81 1300 000/00 RMK AO2 $
14840KMKG MKG20030722204509807/22/03 20:45:31  5-MIN KMKG 230145Z 00000KT 10SM SCT046 18/16 A2994 610 84 1200 000/00 RMK AO2 $
14840KMKG MKG20030722205011507/22/03 20:50:31  5-MIN KMKG 230150Z 00000KT 10SM SCT046 18/16 A2994 610 84 1200 000/00 RMK AO2 SLP136 T01830156 $
14840KMKG MKG20030722205511507/22/03 20:55:31  5-MIN KMKG 230155Z 00000KT 10SM SCT046 18/16 A2994 610 84 1200 000/00 RMK AO2 SLP138 T01830156 $
14840KMKG MKG20030722210009807/22/03 21:00:31  5-MIN KMKG 230200Z 00000KT 10SM SCT042 18/16 A2995 610 84 1200 000/00 RMK AO2 $
14840KMKG MKG20030722210509807/22/03 21:05:31  5-MIN KMKG 230205Z 00000KT 10SM SCT042 18/16 A2995 600 84 1200 000/00 RMK AO2 $
14840KMKG MKG20030722211009807/22/03 21:10:31  5-MIN KMKG 230210Z 00000KT 10SM SCT042 18/16 A2995 600 90 1100 000/00 RMK AO2 $
14840KMKG MKG20030722211509807/22/03 21:15:31  5-MIN KMKG 230215Z 00000KT 10SM SCT042 18/16 A2995 600 84 1200 000/00 RMK AO2 $
14840KMKG MKG20030722212009807/22/03 21:20:31  5-MIN KMKG 230220Z 00000KT 10SM SCT042 18/16 A2995 600 84 1200 000/00 RMK AO2 $
14840KMKG MKG20030722212509807/22/03 21:25:31  5-MIN KMKG 230225Z 00000KT 10SM SCT042 18/16 A2995 600 84 1200 000/00 RMK AO2 $
14840KMKG MKG20030722213009807/22/03 21:30:31  5-MIN KMKG 230230Z 00000KT 10SM SCT042 18/16 A2995 600 84 1200 000/00 RMK AO2 $
14840KMKG MKG20030722213509807/22/03 21:35:31  5-MIN KMKG 230235Z 00000KT 10SM SCT042 18/16 A2995 600 87 1100 000/00 RMK AO2 $
14840KMKG MKG20030722214009807/22/03 21:40:31  5-MIN KMKG 230240Z 00000KT 10SM SCT042 18/16 A2995 600 87 1100 000/00 RMK AO2 $
14840KMKG MKG20030722214509807/22/03 21:45:31  5-MIN KMKG 230245Z 00000KT 10SM SCT042 18/16 A2996 600 87 1100 000/00 RMK AO2 $
14840KMKG MKG20030722215012107/22/03 21:50:31  5-MIN KMKG 230250Z 00000KT 10SM SCT042 18/16 A2996 600 87 1100 000/00 RMK AO2 SLP141 T01780156 56004 $
14840KMKG MKG20030722215512107/22/03 21:55:31  5-MIN KMKG 230255Z 00000KT 10SM SCT042 18/16 A2995 600 87 1100 000/00 RMK AO2 SLP141 T01780156 51015 $
14840KMKG MKG20030722220009507/22/03 22:00:31  5-MIN KMKG 230300Z 00000KT 10SM CLR 18/16 A2996 600 87 1100 000/00 RMK AO2 $
14840KMKG MKG20030722220509507/22/03 22:05:31  5-MIN KMKG 230305Z 00000KT 10SM CLR 18/16 A2996 590 87 1100 000/00 RMK AO2 $
14840KMKG MKG20030722221009507/22/03 22:10:31  5-MIN KMKG 230310Z 00000KT 10SM CLR 18/16 A2996 590 87 1100 000/00 RMK AO2 $
14840KMKG MKG20030722221509507/22/03 22:15:31  5-MIN KMKG 230315Z 00000KT 10SM CLR 18/16 A2996 600 87 1100 000/00 RMK AO2 $
14840KMKG MKG20030722222009507/22/03 22:20:31  5-MIN KMKG 230320Z 00000KT 10SM CLR 17/16 A2996 590 90 1000 000/00 RMK AO2 $
14840KMKG MKG20030722222509507/22/03 22:25:31  5-MIN KMKG 230325Z 00000KT 10SM CLR 17/16 A2996 590 90 1000 000/00 RMK AO2 $
14840KMKG MKG20030722223009507/22/03 22:30:31  5-MIN KMKG 230330Z 00000KT 10SM CLR 17/16 A2996 590 90 1000 000/00 RMK AO2 $
14840KMKG MKG20030722223509507/22/03 22:35:31  5-MIN KMKG 230335Z 00000KT 10SM CLR 17/16 A2996 590 90 1000 000/00 RMK AO2 $
14840KMKG MKG20030722224009507/22/03 22:40:31  5-MIN KMKG 230340Z 00000KT 10SM CLR 17/16 A2996 590 90 1000 000/00 RMK AO2 $
14840KMKG MKG20030722224509507/22/03 22:45:31  5-MIN KMKG 230345Z 00000KT 10SM CLR 17/16 A2996 590 90 1000 000/00 RMK AO2 $
14840KMKG MKG20030722225011207/22/03 22:50:31  5-MIN KMKG 230350Z 00000KT 10SM CLR 17/16 A2996 590 90 1000 000/00 RMK AO2 SLP143 T01720156 $
14840KMKG MKG20030722225511207/22/03 22:55:31  5-MIN KMKG 230355Z 00000KT 10SM CLR 17/16 A2996 590 90 1000 000/00 RMK AO2 SLP143 T01720156 $
14840KMKG MKG20030722230009507/22/03 23:00:31  5-MIN KMKG 230400Z 00000KT 10SM CLR 17/16 A2996 590 90 1000 000/00 RMK AO2 $
14840KMKG MKG20030722230509507/22/03 23:05:31  5-MIN KMKG 230405Z 00000KT 10SM CLR 17/16 A2996 590 90 1000 000/00 RMK AO2 $
14840KMKG MKG20030722231009507/22/03 23:10:31  5-MIN KMKG 230410Z 00000KT 10SM CLR 17/16 A2996 590 90 1000 000/00 RMK AO2 $
14840KMKG MKG20030722231509507/22/03 23:15:31  5-MIN KMKG 230415Z 00000KT 10SM CLR 17/16 A2997 590 90 1000 000/00 RMK AO2 $
14840KMKG MKG20030722232009507/22/03 23:20:31  5-MIN KMKG 230420Z 00000KT 10SM CLR 18/14 A2996 590 81 1100 000/00 RMK AO2 $
14840KMKG MKG20030722232509507/22/03 23:25:31  5-MIN KMKG 230425Z 00000KT 10SM CLR 18/15 A2996 590 83 1100 000/00 RMK AO2 $
14840KMKG MKG20030722233009507/22/03 23:30:31  5-MIN KMKG 230430Z 00000KT 10SM CLR 18/15 A2997 590 83 1100 000/00 RMK AO2 $
14840KMKG MKG20030722233509507/22/03 23:35:31  5-MIN KMKG 230435Z 00000KT 10SM CLR 17/15 A2997 590 87 1000 000/00 RMK AO2 $
14840KMKG MKG20030722234009507/22/03 23:40:31  5-MIN KMKG 230440Z 00000KT 10SM CLR 17/15 A2996 590 87 1000 000/00 RMK AO2 $
14840KMKG MKG20030722234509507/22/03 23:45:31  5-MIN KMKG 230445Z 00000KT 10SM CLR 17/16 A2996 590 90 1000 000/00 RMK AO2 $
14840KMKG MKG20030722235012207/22/03 23:50:31  5-MIN KMKG 230450Z 00000KT 10SM CLR 17/16 A2996 590 90 1000 000/00 RMK AO2 SLP144 T01720156 402440156 $
14840KMKG MKG20030722235512207/22/03 23:55:31  5-MIN KMKG 230455Z 34005KT 10SM CLR 18/15 A2996 590 83 1100 340/05 RMK AO2 SLP144 T01780150 402440156 $
14840KMKG MKG20030723000009507/23/03 00:00:32  5-MIN KMKG 230500Z 00000KT 10SM CLR 18/14 A2996 590 81 1100 000/00 RMK AO2 $
14840KMKG MKG20030723000509507/23/03 00:05:31  5-MIN KMKG 230505Z 35004KT 10SM CLR 17/14 A2996 590 83 1000 350/04 RMK AO2 $
14840KMKG MKG20030723001009507/23/03 00:10:31  5-MIN KMKG 230510Z 35004KT 10SM CLR 17/14 A2997 590 83 1000 350/04 RMK AO2 $
14840KMKG MKG20030723001509507/23/03 00:15:31  5-MIN KMKG 230515Z 35004KT 10SM CLR 17/14 A2997 590 83 1000 350/04 RMK AO2 $
14840KMKG MKG20030723002009507/23/03 00:20:31  5-MIN KMKG 230520Z 35004KT 10SM CLR 17/14 A2997 590 83 1000 350/04 RMK AO2 $
14840KMKG MKG20030723002509507/23/03 00:25:31  5-MIN KMKG 230525Z 35004KT 10SM CLR 17/14 A2997 590 83 1000 350/04 RMK AO2 $
14840KMKG MKG20030723003009507/23/03 00:30:31  5-MIN KMKG 230530Z 35004KT 10SM CLR 17/14 A2997 590 83 1000 350/04 RMK AO2 $
14840KMKG MKG20030723003509507/23/03 00:35:31  5-MIN KMKG 230535Z 35004KT 10SM CLR 17/14 A2997 590 83 1000 350/04 RMK AO2 $
14840KMKG MKG20030723004009507/23/03 00:40:31  5-MIN KMKG 230540Z 35004KT 10SM CLR 17/14 A2997 590 83 1000 350/04 RMK AO2 $
14840KMKG MKG20030723004509507/23/03 00:45:31  5-MIN KMKG 230545Z 35004KT 10SM CLR 17/14 A2997 590 83 1000 350/04 RMK AO2 $
14840KMKG MKG20030723005013007/23/03 00:50:31  5-MIN KMKG 230550Z 35004KT 10SM CLR 17/14 A2997 590 83 1000 350/04 RMK AO2 SLP145 T01670139 10222 20167 51015 $
14840KMKG MKG20030723005513007/23/03 00:55:31  5-MIN KMKG 230555Z 35004KT 10SM CLR 17/14 A2997 590 83 1000 350/04 RMK AO2 SLP145 T01670139 10222 20167 51004 $
14840KMKG MKG20030723010009507/23/03 01:00:31  5-MIN KMKG 230600Z 00000KT 10SM CLR 17/14 A2996 590 83 1000 000/00 RMK AO2 $
14840KMKG MKG20030723010509507/23/03 01:05:31  5-MIN KMKG 230605Z 00000KT 10SM CLR 17/14 A2996 590 83 1000 000/00 RMK AO2 $
14840KMKG MKG20030723011009507/23/03 01:10:31  5-MIN KMKG 230610Z 00000KT 10SM CLR 17/14 A2996 590 83 1000 000/00 RMK AO2 $
14840KMKG MKG20030723011509407/23/03 01:15:31  5-MIN KMKG 230615Z 00000KT 10SM CLR 16/14 A2996 590 86 900 000/00 RMK AO2 $
14840KMKG MKG20030723012009407/23/03 01:20:31  5-MIN KMKG 230620Z 00000KT 10SM CLR 16/14 A2996 590 86 900 000/00 RMK AO2 $
14840KMKG MKG20030723012509407/23/03 01:25:31  5-MIN KMKG 230625Z 00000KT 10SM CLR 16/14 A2996 590 86 900 000/00 RMK AO2 $
14840KMKG MKG20030723013009407/23/03 01:30:31  5-MIN KMKG 230630Z 00000KT 10SM CLR 16/14 A2996 590 86 900 000/00 RMK AO2 $
14840KMKG MKG20030723013509407/23/03 01:35:31  5-MIN KMKG 230635Z 00000KT 10SM CLR 16/14 A2997 590 86 900 000/00 RMK AO2 $
14840KMKG MKG20030723014009407/23/03 01:40:31  5-MIN KMKG 230640Z 00000KT 10SM CLR 16/14 A2997 590 86 900 000/00 RMK AO2 $
14840KMKG MKG20030723014509407/23/03 01:45:31  5-MIN KMKG 230645Z 00000KT 10SM CLR 16/14 A2997 590 86 900 000/00 RMK AO2 $
14840KMKG MKG20030723015011107/23/03 01:50:31  5-MIN KMKG 230650Z 00000KT 10SM CLR 16/14 A2997 590 86 900 000/00 RMK AO2 SLP145 T01610139 $
14840KMKG MKG20030723015511107/23/03 01:55:31  5-MIN KMKG 230655Z 00000KT 10SM CLR 16/14 A2997 590 86 900 000/00 RMK AO2 SLP147 T01610139 $
14840KMKG MKG20030723020009407/23/03 02:00:31  5-MIN KMKG 230700Z 00000KT 10SM CLR 16/14 A2997 590 86 900 000/00 RMK AO2 $
14840KMKG MKG20030723020509407/23/03 02:05:31  5-MIN KMKG 230705Z 00000KT 10SM CLR 16/14 A2997 590 90 800 000/00 RMK AO2 $
14840KMKG MKG20030723021009407/23/03 02:10:31  5-MIN KMKG 230710Z 00000KT 10SM CLR 16/14 A2997 580 90 800 000/00 RMK AO2 $
14840KMKG MKG20030723021509407/23/03 02:15:31  5-MIN KMKG 230715Z 00000KT 10SM CLR 16/14 A2997 580 90 800 000/00 RMK AO2 $
14840KMKG MKG20030723022009407/23/03 02:20:31  5-MIN KMKG 230720Z 00000KT 10SM CLR 16/14 A2998 580 90 800 000/00 RMK AO2 $
14840KMKG MKG20030723022509407/23/03 02:25:31  5-MIN KMKG 230725Z 00000KT 10SM CLR 16/14 A2997 580 90 800 000/00 RMK AO2 $
14840KMKG MKG20030723023009407/23/03 02:30:31  5-MIN KMKG 230730Z 00000KT 10SM CLR 16/14 A2997 580 90 800 000/00 RMK AO2 $
14840KMKG MKG20030723023509407/23/03 02:35:31  5-MIN KMKG 230735Z 00000KT 10SM CLR 16/14 A2997 580 90 800 000/00 RMK AO2 $
14840KMKG MKG20030723024009407/23/03 02:40:31  5-MIN KMKG 230740Z 00000KT 10SM CLR 16/13 A2997 580 86 800 000/00 RMK AO2 $
14840KMKG MKG20030723024509407/23/03 02:45:31  5-MIN KMKG 230745Z 00000KT 10SM CLR 16/14 A2997 580 90 800 000/00 RMK AO2 $
14840KMKG MKG20030723025011107/23/03 02:50:31  5-MIN KMKG 230750Z 00000KT 10SM CLR 16/14 A2998 580 90 800 000/00 RMK AO2 SLP151 T01560139 $
14840KMKG MKG20030723025511107/23/03 02:55:31  5-MIN KMKG 230755Z 00000KT 10SM CLR 15/13 A2998 580 90 800 000/00 RMK AO2 SLP151 T01500133 $
14840KMKG MKG20030723030009407/23/03 03:00:31  5-MIN KMKG 230800Z 00000KT 10SM CLR 15/13 A2998 580 90 700 000/00 RMK AO2 $
14840KMKG MKG20030723030509407/23/03 03:05:31  5-MIN KMKG 230805Z 00000KT 10SM CLR 15/13 A2998 570 90 700 000/00 RMK AO2 $
14840KMKG MKG20030723031009407/23/03 03:10:31  5-MIN KMKG 230810Z 00000KT 10SM CLR 15/13 A2998 570 90 700 000/00 RMK AO2 $
14840KMKG MKG20030723031509407/23/03 03:15:31  5-MIN KMKG 230815Z 00000KT 10SM CLR 15/13 A2998 570 90 700 000/00 RMK AO2 $
14840KMKG MKG20030723032009407/23/03 03:20:31  5-MIN KMKG 230820Z 00000KT 10SM CLR 15/13 A2998 570 90 700 000/00 RMK AO2 $
14840KMKG MKG20030723032509407/23/03 03:25:31  5-MIN KMKG 230825Z 00000KT 10SM CLR 15/13 A2998 570 90 700 000/00 RMK AO2 $
14840KMKG MKG20030723033009407/23/03 03:30:31  5-MIN KMKG 230830Z 00000KT 10SM CLR 15/13 A2998 570 90 700 000/00 RMK AO2 $
14840KMKG MKG20030723033509407/23/03 03:35:31  5-MIN KMKG 230835Z 00000KT 10SM CLR 15/13 A2998 570 90 700 000/00 RMK AO2 $
14840KMKG MKG20030723034009407/23/03 03:40:31  5-MIN KMKG 230840Z 00000KT 10SM CLR 15/13 A2998 570 90 700 000/00 RMK AO2 $
14840KMKG MKG20030723034509407/23/03 03:45:31  5-MIN KMKG 230845Z 00000KT 10SM CLR 14/13 A2998 570 93 700 000/00 RMK AO2 $
14840KMKG MKG20030723035011707/23/03 03:50:31  5-MIN KMKG 230850Z 00000KT 10SM CLR 14/13 A2998 570 93 700 000/00 RMK AO2 SLP152 T01440133 51004 $
14840KMKG MKG20030723035511707/23/03 03:55:31  5-MIN KMKG 230855Z 00000KT 10SM CLR 15/13 A2998 570 90 700 000/00 RMK AO2 SLP152 T01500133 51005 $
14840KMKG MKG20030723040009407/23/03 04:00:31  5-MIN KMKG 230900Z 00000KT 10SM CLR 15/13 A2998 570 90 700 000/00 RMK AO2 $
14840KMKG MKG20030723040509407/23/03 04:05:31  5-MIN KMKG 230905Z 00000KT 10SM CLR 14/13 A2998 570 93 700 000/00 RMK AO2 $
14840KMKG MKG20030723041009407/23/03 04:10:31  5-MIN KMKG 230910Z 00000KT 10SM CLR 14/13 A2999 570 93 700 000/00 RMK AO2 $
14840KMKG MKG20030723041509407/23/03 04:15:31  5-MIN KMKG 230915Z 00000KT 10SM CLR 14/13 A2999 570 93 700 000/00 RMK AO2 $
14840KMKG MKG20030723042009407/23/03 04:20:31  5-MIN KMKG 230920Z 00000KT 10SM CLR 14/13 A2999 570 93 700 000/00 RMK AO2 $
14840KMKG MKG20030723042509407/23/03 04:25:31  5-MIN KMKG 230925Z 00000KT 10SM CLR 14/13 A2999 570 93 700 000/00 RMK AO2 $
14840KMKG MKG20030723043009407/23/03 04:30:31  5-MIN KMKG 230930Z 35009KT 10SM CLR 14/13 A2999 570 93 700 350/09 RMK AO2 $
14840KMKG MKG20030723043509407/23/03 04:35:31  5-MIN KMKG 230935Z 01009KT 10SM CLR 14/13 A2999 570 93 700 010/09 RMK AO2 $
14840KMKG MKG20030723044009407/23/03 04:40:31  5-MIN KMKG 230940Z 01009KT 10SM CLR 14/13 A2999 560 93 700 010/09 RMK AO2 $
14840KMKG MKG20030723044509407/23/03 04:45:31  5-MIN KMKG 230945Z 01009KT 10SM CLR 14/13 A2999 560 93 700 010/09 RMK AO2 $
14840KMKG MKG20030723045011107/23/03 04:50:31  5-MIN KMKG 230950Z 01009KT 10SM CLR 14/13 A2999 560 93 700 010/09 RMK AO2 SLP155 T01440133 $
14840KMKG MKG20030723045511107/23/03 04:55:31  5-MIN KMKG 230955Z 01009KT 10SM CLR 14/13 A2999 560 93 700 010/09 RMK AO2 SLP155 T01440133 $
14840KMKG MKG20030723050009407/23/03 05:00:31  5-MIN KMKG 231000Z 00000KT 10SM CLR 14/13 A3000 560 93 700 000/00 RMK AO2 $
14840KMKG MKG20030723050509407/23/03 05:05:31  5-MIN KMKG 231005Z 00000KT 10SM CLR 14/13 A3000 560 96 600 000/00 RMK AO2 $
14840KMKG MKG20030723051009407/23/03 05:10:31  5-MIN KMKG 231010Z 00000KT 10SM CLR 14/13 A3000 560 93 700 000/00 RMK AO2 $
14840KMKG MKG20030723051509407/23/03 05:15:31  5-MIN KMKG 231015Z 00000KT 10SM CLR 14/13 A3000 560 96 600 000/00 RMK AO2 $
14840KMKG MKG20030723052009407/23/03 05:20:31  5-MIN KMKG 231020Z 00000KT 10SM CLR 14/13 A3000 550 96 600 000/00 RMK AO2 $
14840KMKG MKG20030723052509407/23/03 05:25:31  5-MIN KMKG 231025Z 02007KT 10SM CLR 14/13 A3001 550 96 600 020/07 RMK AO2 $
14840KMKG MKG20030723053009407/23/03 05:30:31  5-MIN KMKG 231030Z 02007KT 10SM CLR 14/13 A3001 550 96 600 020/07 RMK AO2 $
14840KMKG MKG20030723053509407/23/03 05:35:31  5-MIN KMKG 231035Z 02007KT 10SM CLR 14/13 A3001 540 96 600 020/07 RMK AO2 $
14840KMKG MKG20030723054009407/23/03 05:40:31  5-MIN KMKG 231040Z 02007KT 10SM CLR 14/13 A3001 540 96 600 020/07 RMK AO2 $
14840KMKG MKG20030723054509407/23/03 05:45:31  5-MIN KMKG 231045Z 02007KT 10SM CLR 14/13 A3002 540 96 600 020/07 RMK AO2 $
14840KMKG MKG20030723055011107/23/03 05:50:31  5-MIN KMKG 231050Z 02007KT 10SM CLR 14/13 A3002 540 93 600 020/07 RMK AO2 SLP164 T01440133 $
14840KMKG MKG20030723055511107/23/03 05:55:31  5-MIN KMKG 231055Z 02007KT 10SM CLR 14/13 A3002 540 93 600 020/07 RMK AO2 SLP165 T01440133 $
14840KMKG MKG20030723060009407/23/03 06:00:31  5-MIN KMKG 231100Z 35007KT 10SM CLR 14/13 A3002 540 93 600 350/07 RMK AO2 $
14840KMKG MKG20030723060509407/23/03 06:05:31  5-MIN KMKG 231105Z 35007KT 10SM CLR 14/13 A3002 540 93 600 350/07 RMK AO2 $
14840KMKG MKG20030723061009407/23/03 06:10:31  5-MIN KMKG 231110Z 35007KT 10SM CLR 14/13 A3002 540 93 600 350/07 RMK AO2 $
14840KMKG MKG20030723061509407/23/03 06:15:31  5-MIN KMKG 231115Z 35007KT 10SM CLR 14/13 A3002 530 93 600 350/07 RMK AO2 $
14840KMKG MKG20030723062009407/23/03 06:20:31  5-MIN KMKG 231120Z 35007KT 10SM CLR 15/13 A3003 530 90 700 350/07 RMK AO2 $
14840KMKG MKG20030723062509407/23/03 06:25:31  5-MIN KMKG 231125Z 35007KT 10SM CLR 15/13 A3003 530 90 700 350/07 RMK AO2 $
14840KMKG MKG20030723063009407/23/03 06:30:31  5-MIN KMKG 231130Z 35007KT 10SM CLR 15/13 A3003 530 90 700 350/07 RMK AO2 $
14840KMKG MKG20030723063509407/23/03 06:35:31  5-MIN KMKG 231135Z 35007KT 10SM CLR 15/13 A3003 530 90 700 350/07 RMK AO2 $
14840KMKG MKG20030723064009407/23/03 06:40:31  5-MIN KMKG 231140Z 35007KT 10SM CLR 15/13 A3003 530 90 700 350/07 RMK AO2 $
14840KMKG MKG20030723064509407/23/03 06:45:31  5-MIN KMKG 231145Z 35007KT 10SM CLR 16/14 A3003 530 90 800 350/07 RMK AO2 $
14840KMKG MKG20030723065013507/23/03 06:50:31  5-MIN KMKG 231150Z 35007KT 10SM CLR 16/14 A3003 530 90 800 350/07 RMK AO2 SLP169 70087 T01560139 10167 20139 51005 $
14840KMKG MKG20030723065513507/23/03 06:55:31  5-MIN KMKG 231155Z 35007KT 10SM CLR 16/14 A3003 530 90 800 350/07 RMK AO2 SLP169 70087 T01560139 10167 20139 51018 $
14840KMKG MKG20030723070009407/23/03 07:00:31  5-MIN KMKG 231200Z 35012KT 10SM CLR 16/14 A3003 520 86 800 350/12 RMK AO2 $
14840KMKG MKG20030723070509407/23/03 07:05:31  5-MIN KMKG 231205Z 35012KT 10SM CLR 16/14 A3003 530 86 800 350/12 RMK AO2 $
14840KMKG MKG20030723071009407/23/03 07:10:31  5-MIN KMKG 231210Z 35012KT 10SM CLR 16/14 A3003 520 86 800 350/12 RMK AO2 $
14840KMKG MKG20030723071509407/23/03 07:15:31  5-MIN KMKG 231215Z 35012KT 10SM CLR 17/14 A3003 520 83 900 350/12 RMK AO2 $
14840KMKG MKG20030723072009407/23/03 07:20:31  5-MIN KMKG 231220Z 35012KT 10SM CLR 17/14 A3004 520 83 900 350/12 RMK AO2 $
14840KMKG MKG20030723072509407/23/03 07:25:31  5-MIN KMKG 231225Z 35012KT 10SM CLR 17/14 A3004 520 83 900 350/12 RMK AO2 $
14840KMKG MKG20030723073009407/23/03 07:30:31  5-MIN KMKG 231230Z 35012KT 10SM CLR 17/14 A3004 520 83 900 350/12 RMK AO2 $
14840KMKG MKG20030723073509407/23/03 07:35:31  5-MIN KMKG 231235Z 35012KT 10SM CLR 17/14 A3004 520 80 900 350/12 RMK AO2 $
14840KMKG MKG20030723074009407/23/03 07:40:31  5-MIN KMKG 231240Z 35012KT 10SM CLR 17/14 A3004 520 80 900 350/12 RMK AO2 $
14840KMKG MKG20030723074509407/23/03 07:45:31  5-MIN KMKG 231245Z 35012KT 10SM CLR 17/14 A3004 520 80 900 350/12 RMK AO2 $
14840KMKG MKG20030723075011107/23/03 07:50:31  5-MIN KMKG 231250Z 35005KT 10SM CLR 17/14 A3004 520 80 900 350/05 RMK AO2 SLP170 T01720139 $
14840KMKG MKG20030723075511107/23/03 07:55:31  5-MIN KMKG 231255Z 01005KT 10SM CLR 17/13 A3004 520 78 900 010/05 RMK AO2 SLP170 T01720133 $
14840KMKG MKG20030723080009507/23/03 08:00:31  5-MIN KMKG 231300Z 01005KT 10SM CLR 18/14 A3004 520 78 1000 010/05 RMK AO2 $
14840KMKG MKG20030723080509507/23/03 08:05:31  5-MIN KMKG 231305Z 01005KT 10SM CLR 18/14 A3004 520 78 1000 010/05 RMK AO2 $
14840KMKG MKG20030723081009507/23/03 08:10:31  5-MIN KMKG 231310Z 01005KT 10SM CLR 18/14 A3004 520 75 1100 010/05 RMK AO2 $
14840KMKG MKG20030723081509507/23/03 08:15:31  5-MIN KMKG 231315Z 01005KT 10SM CLR 18/14 A3004 520 75 1100 010/05 RMK AO2 $
14840KMKG MKG20030723082009507/23/03 08:20:31  5-MIN KMKG 231320Z 04005KT 10SM CLR 18/14 A3004 520 75 1100 040/05 RMK AO2 $
14840KMKG MKG20030723082509807/23/03 08:25:31  5-MIN KMKG 231325Z 04005KT 10SM FEW027 18/14 A3004 520 75 1100 040/05 RMK AO2 $
14840KMKG MKG20030723083009807/23/03 08:30:31  5-MIN KMKG 231330Z 04005KT 10SM FEW027 19/14 A3004 520 72 1100 040/05 RMK AO2 $
14840KMKG MKG20030723083509807/23/03 08:35:31  5-MIN KMKG 231335Z 04005KT 10SM FEW027 19/14 A3004 520 72 1100 040/05 RMK AO2 $
14840KMKG MKG20030723084009807/23/03 08:40:31  5-MIN KMKG 231340Z 04005KT 10SM FEW027 19/14 A3004 520 72 1100 040/05 RMK AO2 $
14840KMKG MKG20030723084509807/23/03 08:45:31  5-MIN KMKG 231345Z 04005KT 10SM FEW027 19/14 A3004 520 72 1100 040/05 RMK AO2 $
14840KMKG MKG20030723085011207/23/03 08:50:31  5-MIN KMKG 231350Z 04005KT 10SM CLR 19/14 A3004 520 70 1200 040/05 RMK AO2 SLP172 T01940139 $
14840KMKG MKG20030723085511207/23/03 08:55:31  5-MIN KMKG 231355Z 04005KT 10SM CLR 19/14 A3004 520 72 1200 040/05 RMK AO2 SLP172 T01940144 $
14840KMKG MKG20030723090009507/23/03 09:00:31  5-MIN KMKG 231400Z 03005KT 10SM CLR 19/14 A3004 520 72 1200 030/05 RMK AO2 $
14840KMKG MKG20030723090509507/23/03 09:05:31  5-MIN KMKG 231405Z 03005KT 10SM CLR 20/15 A3004 520 72 1300 030/05 RMK AO2 $
14840KMKG MKG20030723091009507/23/03 09:10:31  5-MIN KMKG 231410Z 03005KT 10SM CLR 20/14 A3004 520 70 1300 030/05 RMK AO2 $
14840KMKG MKG20030723091509507/23/03 09:15:31  5-MIN KMKG 231415Z 03005KT 10SM CLR 20/14 A3004 520 70 1300 030/05 RMK AO2 $
14840KMKG MKG20030723092009507/23/03 09:20:31  5-MIN KMKG 231420Z 03005KT 10SM CLR 21/14 A3004 520 67 1300 030/05 RMK AO2 $
14840KMKG MKG20030723092509507/23/03 09:25:31  5-MIN KMKG 231425Z 03005KT 10SM CLR 21/14 A3004 520 67 1300 030/05 RMK AO2 $
14840KMKG MKG20030723093009507/23/03 09:30:31  5-MIN KMKG 231430Z 03005KT 10SM CLR 21/14 A3004 520 67 1300 030/05 RMK AO2 $
14840KMKG MKG20030723093509507/23/03 09:35:31  5-MIN KMKG 231435Z 03005KT 10SM CLR 21/14 A3004 520 67 1300 030/05 RMK AO2 $
14840KMKG MKG20030723094009507/23/03 09:40:31  5-MIN KMKG 231440Z 03005KT 10SM CLR 21/14 A3004 520 67 1300 030/05 RMK AO2 $
14840KMKG MKG20030723094509507/23/03 09:45:31  5-MIN KMKG 231445Z 03005KT 10SM CLR 21/15 A3004 520 68 1400 030/05 RMK AO2 $
14840KMKG MKG20030723095011807/23/03 09:50:31  5-MIN KMKG 231450Z 03005KT 10SM CLR 22/15 A3004 520 65 1500 030/05 RMK AO2 SLP172 T02170150 51018 $
14840KMKG MKG20030723095511807/23/03 09:55:31  5-MIN KMKG 231455Z 03005KT 10SM CLR 21/14 A3005 520 65 1400 030/05 RMK AO2 SLP172 T02110144 52004 $
14840KMKG MKG20030723100009507/23/03 10:00:31  5-MIN KMKG 231500Z 01005KT 10SM CLR 22/14 A3005 510 63 1400 010/05 RMK AO2 $
14840KMKG MKG20030723100509507/23/03 10:05:31  5-MIN KMKG 231505Z 01005KT 10SM CLR 22/15 A3005 510 65 1400 010/05 RMK AO2 $
14840KMKG MKG20030723101009507/23/03 10:10:31  5-MIN KMKG 231510Z VRB05KT 10SM CLR 22/15 A3005 510 65 1400 VRB/05 RMK AO2 $
14840KMKG MKG20030723101509507/23/03 10:15:31  5-MIN KMKG 231515Z VRB05KT 10SM CLR 22/15 A3005 510 65 1400 VRB/05 RMK AO2 $
14840KMKG MKG20030723102009507/23/03 10:20:31  5-MIN KMKG 231520Z 02007KT 10SM CLR 22/15 A3005 510 63 1500 030/07 RMK AO2 $
14840KMKG MKG20030723102509507/23/03 10:25:31  5-MIN KMKG 231525Z 36006KT 10SM CLR 22/14 A3004 520 61 1500 360/06 RMK AO2 $
14840KMKG MKG20030723103009507/23/03 10:30:31  5-MIN KMKG 231530Z 01006KT 10SM CLR 22/15 A3004 520 63 1500 010/06 RMK AO2 $
14840KMKG MKG20030723103509507/23/03 10:35:31  5-MIN KMKG 231535Z 36009KT 10SM CLR 23/15 A3004 520 61 1600 360/09 RMK AO2 $
14840KMKG MKG20030723104009507/23/03 10:40:31  5-MIN KMKG 231540Z 04010KT 10SM CLR 22/14 A3004 520 61 1500 040/10 RMK AO2 $
14840KMKG MKG20030723104511107/23/03 10:45:31  5-MIN KMKG 231545Z 04007KT 350V050 10SM CLR 22/15 A3004 520 63 1500 040/07 350V050 RMK AO2 $
14840KMKG MKG20030723105011307/23/03 10:50:31  5-MIN KMKG 231550Z 34009KT 10SM FEW032 23/15 A3004 520 61 1600 350/09 RMK AO2 SLP170 T02280150
14840KMKG MKG20030723105511307/23/03 10:55:31  5-MIN KMKG 231555Z 01008KT 10SM FEW032 23/15 A3004 520 59 1600 020/08 RMK AO2 SLP170 T02330150
14840KMKG MKG20030723110009307/23/03 11:00:31  5-MIN KMKG 231600Z 01007KT 10SM CLR 23/15 A3004 520 59 1600 010/07 RMK AO2
14840KMKG MKG20030723110509307/23/03 11:05:31  5-MIN KMKG 231605Z 02005KT 10SM CLR 23/14 A3004 520 57 1600 020/05 RMK AO2
14840KMKG MKG20030723111009307/23/03 11:10:31  5-MIN KMKG 231610Z 36009KT 10SM CLR 23/14 A3004 520 57 1600 360/09 RMK AO2
14840KMKG MKG20030723111510907/23/03 11:15:31  5-MIN KMKG 231615Z 03008KT 340V050 10SM CLR 23/14 A3004 520 57 1600 030/08 340V050 RMK AO2
14840KMKG MKG20030723112009307/23/03 11:20:31  5-MIN KMKG 231620Z 35008KT 10SM CLR 24/14 A3004 520 55 1700 360/08 RMK AO2
14840KMKG MKG20030723112509307/23/03 11:25:31  5-MIN KMKG 231625Z 34008KT 10SM CLR 23/14 A3004 520 55 1600 350/08 RMK AO2
14840KMKG MKG20030723113009307/23/03 11:30:31  5-MIN KMKG 231630Z 02008KT 10SM CLR 24/14 A3004 520 53 1700 030/08 RMK AO2
14840KMKG MKG20030723113509307/23/03 11:35:31  5-MIN KMKG 231635Z 35009KT 10SM CLR 24/14 A3004 520 53 1700 360/09 RMK AO2
14840KMKG MKG20030723114009607/23/03 11:40:31  5-MIN KMKG 231640Z 35008KT 10SM FEW044 24/14 A3004 520 53 1700 350/08 RMK AO2
14840KMKG MKG20030723114509607/23/03 11:45:31  5-MIN KMKG 231645Z 33006KT 10SM FEW044 24/14 A3004 520 53 1700 340/06 RMK AO2
14840KMKG MKG20030723115011307/23/03 11:50:31  5-MIN KMKG 231650Z 36006KT 10SM FEW044 24/14 A3004 520 51 1800 360/06 RMK AO2 SLP171 T02440139
14840KMKG MKG20030723115511307/23/03 11:55:31  5-MIN KMKG 231655Z 02007KT 10SM FEW044 24/14 A3004 520 51 1800 030/07 RMK AO2 SLP171 T02440139
14840KMKG MKG20030723120009607/23/03 12:00:31  5-MIN KMKG 231700Z 34007KT 10SM SCT044 24/14 A3004 520 51 1800 350/07 RMK AO2
14840KMKG MKG20030723120510907/23/03 12:05:31  5-MIN KMKG 231705Z 35010G15KT 10SM SCT046 SCT055 25/14 A3004 520 49 1800 360/10G15 RMK AO2
14840KMKG MKG20030723121010307/23/03 12:10:31  5-MIN KMKG 231710Z 35009KT 10SM SCT046 BKN055 24/13 A3004 520 51 1700 350/09 RMK AO2
14840KMKG MKG20030723121510307/23/03 12:15:31  5-MIN KMKG 231715Z 35009KT 10SM SCT049 BKN060 24/13 A3004 520 49 1800 350/09 RMK AO2
14840KMKG MKG20030723122010307/23/03 12:20:31  5-MIN KMKG 231720Z 36006KT 10SM SCT047 SCT055 25/13 A3004 520 48 1800 010/06 RMK AO2
14840KMKG MKG20030723122509607/23/03 12:25:31  5-MIN KMKG 231725Z VRB06KT 10SM SCT049 25/13 A3004 520 48 1800 VRB/06 RMK AO2
14840KMKG MKG20030723123009607/23/03 12:30:31  5-MIN KMKG 231730Z 27007KT 10SM FEW049 24/15 A3004 520 55 1800 280/07 RMK AO2
14840KMKG MKG20030723123509607/23/03 12:35:31  5-MIN KMKG 231735Z 30009KT 10SM SCT049 23/15 A3004 520 59 1700 300/09 RMK AO2
14840KMKG MKG20030723124009607/23/03 12:40:31  5-MIN KMKG 231740Z 28010KT 10SM SCT049 24/15 A3004 520 57 1700 290/10 RMK AO2
14840KMKG MKG20030723124509607/23/03 12:45:31  5-MIN KMKG 231745Z 29009KT 10SM FEW049 23/15 A3004 520 59 1700 290/09 RMK AO2
14840KMKG MKG20030723125013107/23/03 12:50:31  5-MIN KMKG 231750Z 29009KT 10SM FEW049 24/15 A3004 520 57 1700 290/09 RMK AO2 SLP169 T02390150 10256 20156 52004
14840KMKG MKG20030723125513107/23/03 12:55:31  5-MIN KMKG 231755Z 28009KT 10SM SCT055 24/15 A3004 520 55 1800 290/09 RMK AO2 SLP169 T02440150 10256 20156 56002
14840KMKG MKG20030723130010307/23/03 13:00:31  5-MIN KMKG 231800Z 30009KT 10SM FEW050 SCT060 24/16 A3003 520 59 1700 300/09 RMK AO2
14840KMKG MKG20030723130511807/23/03 13:05:31  5-MIN KMKG 231805Z 28011KT 10SM SCT055 BKN070 23/15 A3003 530 59 1700 280/11 RMK AO2 CIG 050 RWY 14
14840KMKG MKG20030723131010307/23/03 13:10:31  5-MIN KMKG 231810Z 27008KT 10SM BKN050 BKN065 22/14 A3004 520 61 1500 270/08 RMK AO2
14840KMKG MKG20030723131511807/23/03 13:15:31  5-MIN KMKG 231815Z 27006KT 10SM SCT050 BKN065 22/15 A3004 520 63 1500 280/06 RMK AO2 CIG 050 RWY 14
14840KMKG MKG20030723132011007/23/03 13:20:31  5-MIN KMKG 231820Z 31010KT 10SM SCT050 BKN070 BKN080 23/15 A3003 520 59 1700 310/10 RMK AO2
14840KMKG MKG20030723132511007/23/03 13:25:31  5-MIN KMKG 231825Z 29013KT 10SM SCT050 BKN070 BKN085 23/15 A3003 530 59 1700 290/13 RMK AO2
14840KMKG MKG20030723133010307/23/03 13:30:31  5-MIN KMKG 231830Z 30009KT 10SM SCT050 SCT070 23/15 A3003 530 59 1700 300/09 RMK AO2
14840KMKG MKG20030723133510307/23/03 13:35:31  5-MIN KMKG 231835Z 29010KT 10SM FEW050 BKN065 23/15 A3003 530 59 1700 290/10 RMK AO2
14840KMKG MKG20030723134009607/23/03 13:40:31  5-MIN KMKG 231840Z 30011KT 10SM SCT065 23/15 A3003 530 59 1700 300/11 RMK AO2
14840KMKG MKG20030723134509607/23/03 13:45:31  5-MIN KMKG 231845Z 29012KT 10SM FEW065 23/15 A3003 530 59 1700 300/12 RMK AO2
14840KMKG MKG20030723135011307/23/03 13:50:31  5-MIN KMKG 231850Z 29010KT 10SM SCT065 23/15 A3003 530 59 1700 290/10 RMK AO2 SLP165 T02330150
14840KMKG MKG20030723135511307/23/03 13:55:31  5-MIN KMKG 231855Z 29010KT 10SM SCT065 24/15 A3002 530 57 1700 300/10 RMK AO2 SLP165 T02390150
14840KMKG MKG20030723140009607/23/03 14:00:31  5-MIN KMKG 231900Z 30009KT 10SM SCT060 24/15 A3002 530 57 1700 300/09 RMK AO2
14840KMKG MKG20030723140509607/23/03 14:05:31  5-MIN KMKG 231905Z 30010KT 10SM FEW055 24/15 A3002 540 55 1800 300/10 RMK AO2
14840KMKG MKG20030723141009607/23/03 14:10:31  5-MIN KMKG 231910Z 30012KT 10SM FEW060 24/15 A3002 540 55 1800 300/12 RMK AO2
14840KMKG MKG20030723141510307/23/03 14:15:31  5-MIN KMKG 231915Z 30009KT 10SM SCT060 SCT080 24/14 A3002 540 53 1800 300/09 RMK AO2
14840KMKG MKG20030723142010307/23/03 14:20:31  5-MIN KMKG 231920Z 29012KT 10SM FEW060 SCT080 24/15 A3002 540 55 1800 300/12 RMK AO2
14840KMKG MKG20030723142509607/23/03 14:25:31  5-MIN KMKG 231925Z 30009KT 10SM FEW055 24/15 A3002 540 55 1800 300/09 RMK AO2
14840KMKG MKG20030723143009607/23/03 14:30:31  5-MIN KMKG 231930Z 29010KT 10SM FEW070 24/15 A3002 540 55 1800 300/10 RMK AO2
14840KMKG MKG20030723143510507/23/03 14:35:31  5-MIN KMKG 231935Z 28011KT 10SM SCT060 24/15 A3002 540 55 1800 290/11 RMK AO2 TCU NW-S
14840KMKG MKG20030723144010507/23/03 14:40:31  5-MIN KMKG 231940Z 28011KT 10SM SCT060 24/15 A3002 540 55 1800 290/11 RMK AO2 TCU NW-S
14840KMKG MKG20030723144510507/23/03 14:45:31  5-MIN KMKG 231945Z 28011KT 10SM SCT060 24/15 A3002 540 55 1800 280/11 RMK AO2 TCU NW-S
14840KMKG MKG20030723145012207/23/03 14:50:31  5-MIN KMKG 231950Z 28011KT 10SM SCT060 25/16 A3002 540 55 1900 290/11 RMK AO2 SLP162 TCU NW-S T02500156
14840KMKG MKG20030723145512207/23/03 14:55:31  5-MIN KMKG 231955Z 29012KT 10SM SCT060 24/16 A3001 540 57 1800 300/12 RMK AO2 SLP161 TCU NW-S T02440156
14840KMKG MKG20030723150009607/23/03 15:00:31  5-MIN KMKG 232000Z 30012KT 10SM SCT055 24/16 A3001 540 59 1700 300/12 RMK AO2
14840KMKG MKG20030723150510507/23/03 15:05:31  5-MIN KMKG 232005Z 29012KT 10SM SCT055 24/16 A3001 540 59 1700 290/12 RMK AO2 TCU N-SE
14840KMKG MKG20030723151011007/23/03 15:10:31  5-MIN KMKG 232010Z 29012KT 10SM SCT055 24/16 A3002 540 59 1700 300/12 RMK AO2 CB SE TCU OHD
14840KMKG MKG20030723151511007/23/03 15:15:31  5-MIN KMKG 232015Z 30010KT 10SM SCT055 24/16 A3001 540 59 1800 310/10 RMK AO2 CB SE TCU OHD
14840KMKG MKG20030723152011007/23/03 15:20:31  5-MIN KMKG 232020Z 30012KT 10SM SCT055 25/16 A3001 550 57 1900 300/12 RMK AO2 CB SE TCU OHD
14840KMKG MKG20030723152511007/23/03 15:25:31  5-MIN KMKG 232025Z 29011KT 10SM SCT055 24/16 A3001 550 57 1800 290/11 RMK AO2 CB SE TCU OHD
14840KMKG MKG20030723153011107/23/03 15:30:31  5-MIN KMKG 232030Z 29014G18KT 10SM SCT055 24/16 A3001 550 57 1800 300/14G18 RMK AO2 TCU N-SE
14840KMKG MKG20030723153510507/23/03 15:35:31  5-MIN KMKG 232035Z 30012KT 10SM SCT055 24/15 A3001 550 57 1700 300/12 RMK AO2 TCU N-SE
14840KMKG MKG20030723154010507/23/03 15:40:31  5-MIN KMKG 232040Z 30011KT 10SM SCT055 24/16 A3001 540 59 1700 300/11 RMK AO2 TCU N-SE
14840KMKG MKG20030723154510507/23/03 15:45:31  5-MIN KMKG 232045Z 29011KT 10SM SCT055 24/16 A3001 550 59 1700 300/11 RMK AO2 TCU N-SE
14840KMKG MKG20030723155012807/23/03 15:50:31  5-MIN KMKG 232050Z 29009KT 10SM SCT055 24/16 A3001 540 59 1700 290/09 RMK AO2 SLP161 TCU N-SE T02390156 56002
14840KMKG MKG20030723155512807/23/03 15:55:31  5-MIN KMKG 232055Z 28009KT 10SM SCT055 24/16 A3001 550 59 1700 290/09 RMK AO2 SLP160 TCU N-SE T02390156 56009
14840KMKG MKG20030723160009307/23/03 16:00:31  5-MIN KMKG 232100Z 29009KT 10SM CLR 24/16 A3001 550 59 1800 300/09 RMK AO2
14840KMKG MKG20030723160509607/23/03 16:05:31  5-MIN KMKG 232105Z 31012KT 10SM FEW060 24/16 A3001 550 57 1800 310/12 RMK AO2
14840KMKG MKG20030723161010307/23/03 16:10:31  5-MIN KMKG 232110Z 30011KT 10SM SCT060 SCT100 25/16 A3001 550 57 1900 310/11 RMK AO2
14840KMKG MKG20030723161510307/23/03 16:15:31  5-MIN KMKG 232115Z 31011KT 10SM FEW060 SCT110 24/16 A3001 550 57 1800 310/11 RMK AO2
14840KMKG MKG20030723162009607/23/03 16:20:31  5-MIN KMKG 232120Z 32008KT 10SM FEW060 26/16 A3001 550 55 1900 320/08 RMK AO2
14840KMKG MKG20030723162509607/23/03 16:25:31  5-MIN KMKG 232125Z 30009KT 10SM FEW060 26/16 A3001 550 53 1900 300/09 RMK AO2
14840KMKG MKG20030723163009607/23/03 16:30:31  5-MIN KMKG 232130Z 32010KT 10SM FEW060 25/16 A3001 550 57 1900 330/10 RMK AO2
14840KMKG MKG20030723163509607/23/03 16:35:31  5-MIN KMKG 232135Z 31010KT 10SM FEW110 24/16 A3001 550 59 1700 310/10 RMK AO2
14840KMKG MKG20030723164009307/23/03 16:40:31  5-MIN KMKG 232140Z 30008KT 10SM CLR 24/16 A3001 550 59 1700 300/08 RMK AO2
14840KMKG MKG20030723164509307/23/03 16:45:31  5-MIN KMKG 232145Z 31011KT 10SM CLR 25/16 A3001 550 55 1900 320/11 RMK AO2
14840KMKG MKG20030723165011007/23/03 16:50:31  5-MIN KMKG 232150Z 30010KT 10SM CLR 26/15 A3001 550 51 1900 300/10 RMK AO2 SLP159 T02560150
14840KMKG MKG20030723165511307/23/03 16:55:31  5-MIN KMKG 232155Z 29011KT 10SM FEW049 25/15 A3001 550 53 1900 290/11 RMK AO2 SLP158 T02500150
14840KMKG MKG20030723170009607/23/03 17:00:31  5-MIN KMKG 232200Z 29012KT 10SM FEW049 24/15 A3000 550 55 1800 300/12 RMK AO2
14840KMKG MKG20030723170509607/23/03 17:05:31  5-MIN KMKG 232205Z 30009KT 10SM FEW049 25/15 A3000 550 53 1900 300/09 RMK AO2
14840KMKG MKG20030723171009607/23/03 17:10:31  5-MIN KMKG 232210Z 31008KT 10SM FEW049 25/15 A3000 550 53 1900 310/08 RMK AO2
14840KMKG MKG20030723171511207/23/03 17:15:31  5-MIN KMKG 232215Z 32010KT 290V350 10SM FEW049 25/16 A3000 550 55 1900 320/10 290V350 RMK AO2
14840KMKG MKG20030723172009307/23/03 17:20:31  5-MIN KMKG 232220Z 33011KT 10SM CLR 26/15 A3001 550 51 1900 340/11 RMK AO2
14840KMKG MKG20030723172509307/23/03 17:25:31  5-MIN KMKG 232225Z 34014KT 10SM CLR 26/15 A3001 550 51 1900 340/14 RMK AO2
14840KMKG MKG20030723173009907/23/03 17:30:31  5-MIN KMKG 232230Z 32013G18KT 10SM CLR 25/14 A3000 550 49 1900 320/13G18 RMK AO2
14840KMKG MKG20030723173509907/23/03 17:35:31  5-MIN KMKG 232235Z 34015G18KT 10SM CLR 25/14 A3001 550 51 1900 350/15G18 RMK AO2
14840KMKG MKG20030723174009307/23/03 17:40:31  5-MIN KMKG 232240Z 34014KT 10SM CLR 25/14 A3001 550 51 1900 340/14 RMK AO2
14840KMKG MKG20030723174509607/23/03 17:45:31  5-MIN KMKG 232245Z 34014KT 10SM SCT045 25/14 A3000 550 51 1900 350/14 RMK AO2
14840KMKG MKG20030723175011307/23/03 17:50:31  5-MIN KMKG 232250Z 34011KT 10SM FEW045 25/14 A3001 550 51 1900 340/11 RMK AO2 SLP159 T02500144
14840KMKG MKG20030723175511307/23/03 17:55:31  5-MIN KMKG 232255Z 34013KT 10SM FEW045 25/14 A3000 550 51 1900 340/13 RMK AO2 SLP158 T02500144
14840KMKG MKG20030723180009607/23/03 18:00:31  5-MIN KMKG 232300Z 32012KT 10SM FEW055 25/14 A3000 560 51 1900 330/12 RMK AO2
14840KMKG MKG20030723180509607/23/03 18:05:31  5-MIN KMKG 232305Z 33013KT 10SM FEW055 25/14 A3000 550 51 1900 340/13 RMK AO2
14840KMKG MKG20030723181009607/23/03 18:10:31  5-MIN KMKG 232310Z 33011KT 10SM FEW055 25/14 A3001 550 51 1900 340/11 RMK AO2
14840KMKG MKG20030723181509607/23/03 18:15:31  5-MIN KMKG 232315Z 34012KT 10SM FEW055 24/14 A3001 550 53 1800 340/12 RMK AO2
14840KMKG MKG20030723182009607/23/03 18:20:31  5-MIN KMKG 232320Z 34011KT 10SM FEW060 24/14 A3000 550 51 1800 340/11 RMK AO2
14840KMKG MKG20030723182509307/23/03 18:25:31  5-MIN KMKG 232325Z 33012KT 10SM CLR 24/14 A3000 550 51 1800 330/12 RMK AO2
14840KMKG MKG20030723183009307/23/03 18:30:31  5-MIN KMKG 232330Z 33011KT 10SM CLR 24/14 A3000 550 51 1800 340/11 RMK AO2
14840KMKG MKG20030723183509607/23/03 18:35:31  5-MIN KMKG 232335Z 34010KT 10SM FEW050 24/14 A3001 550 51 1800 340/10 RMK AO2
14840KMKG MKG20030723184009607/23/03 18:40:31  5-MIN KMKG 232340Z 34011KT 10SM FEW050 24/14 A3001 550 51 1800 340/11 RMK AO2
14840KMKG MKG20030723184509607/23/03 18:45:31  5-MIN KMKG 232345Z 34009KT 10SM FEW050 24/14 A3000 550 51 1800 340/09 RMK AO2
14840KMKG MKG20030723185013107/23/03 18:50:31  5-MIN KMKG 232350Z 34009KT 10SM FEW050 24/14 A3001 550 53 1700 340/09 RMK AO2 SLP159 T02390139 10256 20217 56009
14840KMKG MKG20030723185513107/23/03 18:55:31  5-MIN KMKG 232355Z 33012KT 10SM FEW050 24/14 A3001 550 53 1700 340/12 RMK AO2 SLP159 T02390139 10256 20217 55001
14840KMKG MKG20030723190009307/23/03 19:00:31  5-MIN KMKG 240000Z 33010KT 10SM CLR 24/14 A3001 550 53 1700 340/10 RMK AO2
14840KMKG MKG20030723190509307/23/03 19:05:31  5-MIN KMKG 240005Z 34009KT 10SM CLR 24/14 A3001 550 53 1700 350/09 RMK AO2
14840KMKG MKG20030723191009307/23/03 19:10:31  5-MIN KMKG 240010Z 34008KT 10SM CLR 24/14 A3001 550 53 1700 340/08 RMK AO2
14840KMKG MKG20030723191509607/23/03 19:15:31  5-MIN KMKG 240015Z 34010KT 10SM FEW055 23/14 A3001 550 55 1700 340/10 RMK AO2
14840KMKG MKG20030723192009607/23/03 19:20:31  5-MIN KMKG 240020Z 33009KT 10SM FEW055 23/14 A3001 550 55 1700 340/09 RMK AO2
14840KMKG MKG20030723192509607/23/03 19:25:31  5-MIN KMKG 240025Z 34008KT 10SM FEW055 23/14 A3001 540 55 1700 340/08 RMK AO2
14840KMKG MKG20030723193009607/23/03 19:30:31  5-MIN KMKG 240030Z 33009KT 10SM FEW055 23/14 A3001 540 55 1700 340/09 RMK AO2
14840KMKG MKG20030723193509607/23/03 19:35:31  5-MIN KMKG 240035Z 34010KT 10SM FEW055 23/13 A3001 540 55 1600 340/10 RMK AO2
14840KMKG MKG20030723194009607/23/03 19:40:31  5-MIN KMKG 240040Z 34010KT 10SM FEW055 23/13 A3002 540 55 1600 350/10 RMK AO2
14840KMKG MKG20030723194509607/23/03 19:45:31  5-MIN KMKG 240045Z 34007KT 10SM FEW055 23/14 A3002 540 57 1600 340/07 RMK AO2
14840KMKG MKG20030723195011307/23/03 19:50:31  5-MIN KMKG 240050Z 33009KT 10SM FEW055 22/14 A3002 540 59 1500 340/09 RMK AO2 SLP163 T02220139
14840KMKG MKG20030723195511307/23/03 19:55:31  5-MIN KMKG 240055Z 34009KT 10SM FEW055 22/13 A3002 540 56 1500 340/09 RMK AO2 SLP163 T02220133
14840KMKG MKG20030723200009307/23/03 20:00:31  5-MIN KMKG 240100Z 35007KT 10SM CLR 22/14 A3002 540 61 1500 350/07 RMK AO2
14840KMKG MKG20030723200509307/23/03 20:05:31  5-MIN KMKG 240105Z 34008KT 10SM CLR 22/14 A3002 540 61 1500 340/08 RMK AO2
14840KMKG MKG20030723201009307/23/03 20:10:31  5-MIN KMKG 240110Z 34008KT 10SM CLR 22/13 A3002 530 58 1500 340/08 RMK AO2
14840KMKG MKG20030723201509307/23/03 20:15:31  5-MIN KMKG 240115Z 34006KT 10SM CLR 22/14 A3003 530 61 1500 350/06 RMK AO2
14840KMKG MKG20030723202009307/23/03 20:20:31  5-MIN KMKG 240120Z 34008KT 10SM CLR 21/14 A3003 530 63 1400 350/08 RMK AO2
14840KMKG MKG20030723202509307/23/03 20:25:31  5-MIN KMKG 240125Z 35007KT 10SM CLR 21/14 A3003 530 63 1400 350/07 RMK AO2
14840KMKG MKG20030723203009307/23/03 20:30:31  5-MIN KMKG 240130Z 36007KT 10SM CLR 21/13 A3003 530 61 1400 360/07 RMK AO2
14840KMKG MKG20030723203509307/23/03 20:35:31  5-MIN KMKG 240135Z 01010KT 10SM CLR 21/13 A3003 530 61 1400 010/10 RMK AO2
14840KMKG MKG20030723204009307/23/03 20:40:31  5-MIN KMKG 240140Z 35008KT 10SM CLR 21/13 A3003 530 58 1400 360/08 RMK AO2
14840KMKG MKG20030723204509307/23/03 20:45:31  5-MIN KMKG 240145Z 34006KT 10SM CLR 21/13 A3004 520 63 1300 350/06 RMK AO2
14840KMKG MKG20030723205011007/23/03 20:50:31  5-MIN KMKG 240150Z 36006KT 10SM CLR 20/14 A3004 520 67 1300 010/06 RMK AO2 SLP169 T02000139
14840KMKG MKG20030723205511007/23/03 20:55:31  5-MIN KMKG 240155Z 36009KT 10SM CLR 21/13 A3004 520 60 1300 010/09 RMK AO2 SLP170 T02060128
14840KMKG MKG20030723210009307/23/03 21:00:31  5-MIN KMKG 240200Z 01008KT 10SM CLR 21/13 A3004 520 60 1300 010/08 RMK AO2
14840KMKG MKG20030723210509307/23/03 21:05:31  5-MIN KMKG 240205Z 36008KT 10SM CLR 21/12 A3004 520 58 1300 010/08 RMK AO2
14840KMKG MKG20030723211009307/23/03 21:10:31  5-MIN KMKG 240210Z 36007KT 10SM CLR 21/12 A3004 520 58 1300 360/07 RMK AO2
14840KMKG MKG20030723211509307/23/03 21:15:31  5-MIN KMKG 240215Z 36008KT 10SM CLR 20/12 A3004 520 60 1300 360/08 RMK AO2
14840KMKG MKG20030723212009307/23/03 21:20:31  5-MIN KMKG 240220Z 36009KT 10SM CLR 20/12 A3004 520 60 1300 010/09 RMK AO2
14840KMKG MKG20030723212509307/23/03 21:25:31  5-MIN KMKG 240225Z 36007KT 10SM CLR 20/12 A3004 520 60 1300 010/07 RMK AO2
14840KMKG MKG20030723213009307/23/03 21:30:31  5-MIN KMKG 240230Z 36007KT 10SM CLR 19/12 A3004 520 62 1200 360/07 RMK AO2
14840KMKG MKG20030723213509307/23/03 21:35:31  5-MIN KMKG 240235Z 36008KT 10SM CLR 19/12 A3004 520 62 1200 010/08 RMK AO2
14840KMKG MKG20030723214009307/23/03 21:40:31  5-MIN KMKG 240240Z 36008KT 10SM CLR 19/12 A3004 520 62 1200 360/08 RMK AO2
14840KMKG MKG20030723214509307/23/03 21:45:31  5-MIN KMKG 240245Z 36007KT 10SM CLR 19/12 A3005 510 62 1200 360/07 RMK AO2
14840KMKG MKG20030723215011607/23/03 21:50:31  5-MIN KMKG 240250Z 36008KT 10SM CLR 19/12 A3005 510 62 1200 010/08 RMK AO2 SLP172 T01940122 55001
14840KMKG MKG20030723215511607/23/03 21:55:31  5-MIN KMKG 240255Z 01007KT 10SM CLR 19/12 A3005 510 62 1200 010/07 RMK AO2 SLP172 T01940122 51013
14840KMKG MKG20030723220009307/23/03 22:00:31  5-MIN KMKG 240300Z 36007KT 10SM CLR 19/12 A3005 520 62 1200 010/07 RMK AO2
14840KMKG MKG20030723220509307/23/03 22:05:31  5-MIN KMKG 240305Z 01007KT 10SM CLR 19/12 A3004 520 65 1100 010/07 RMK AO2
14840KMKG MKG20030723221009307/23/03 22:10:31  5-MIN KMKG 240310Z 01007KT 10SM CLR 19/12 A3004 520 65 1100 010/07 RMK AO2
14840KMKG MKG20030723221509307/23/03 22:15:31  5-MIN KMKG 240315Z 01006KT 10SM CLR 19/12 A3004 520 65 1100 020/06 RMK AO2
14840KMKG MKG20030723222009307/23/03 22:20:31  5-MIN KMKG 240320Z 01007KT 10SM CLR 19/12 A3005 510 65 1100 010/07 RMK AO2
14840KMKG MKG20030723222509307/23/03 22:25:31  5-MIN KMKG 240325Z 01006KT 10SM CLR 19/12 A3005 510 65 1100 010/06 RMK AO2
14840KMKG MKG20030723223009307/23/03 22:30:31  5-MIN KMKG 240330Z 36005KT 10SM CLR 18/12 A3005 510 67 1100 010/05 RMK AO2
14840KMKG MKG20030723223509307/23/03 22:35:31  5-MIN KMKG 240335Z 36006KT 10SM CLR 18/12 A3005 510 67 1100 010/06 RMK AO2
14840KMKG MKG20030723224009307/23/03 22:40:31  5-MIN KMKG 240340Z 01005KT 10SM CLR 18/12 A3005 510 67 1100 010/05 RMK AO2
14840KMKG MKG20030723224509307/23/03 22:45:31  5-MIN KMKG 240345Z 01005KT 10SM CLR 18/12 A3005 510 67 1100 010/05 RMK AO2
14840KMKG MKG20030723225011007/23/03 22:50:31  5-MIN KMKG 240350Z 01004KT 10SM CLR 18/12 A3005 510 67 1100 010/04 RMK AO2 SLP175 T01830122
14840KMKG MKG20030723225511007/23/03 22:55:31  5-MIN KMKG 240355Z 36006KT 10SM CLR 18/12 A3005 510 67 1100 010/06 RMK AO2 SLP175 T01830122
14840KMKG MKG20030723230009307/23/03 23:00:31  5-MIN KMKG 240400Z 36007KT 10SM CLR 18/12 A3005 510 67 1100 010/07 RMK AO2
14840KMKG MKG20030723230509307/23/03 23:05:31  5-MIN KMKG 240405Z 01006KT 10SM CLR 18/12 A3005 510 67 1100 010/06 RMK AO2
14840KMKG MKG20030723231009307/23/03 23:10:31  5-MIN KMKG 240410Z 36005KT 10SM CLR 18/12 A3006 510 69 1000 010/05 RMK AO2
14840KMKG MKG20030723231509307/23/03 23:15:31  5-MIN KMKG 240415Z 01005KT 10SM CLR 19/12 A3006 500 65 1100 010/05 RMK AO2
14840KMKG MKG20030723232009307/23/03 23:20:31  5-MIN KMKG 240420Z 01005KT 10SM CLR 18/12 A3006 500 67 1000 010/05 RMK AO2
14840KMKG MKG20030723232509307/23/03 23:25:31  5-MIN KMKG 240425Z 01005KT 10SM CLR 18/12 A3006 500 67 1000 010/05 RMK AO2
14840KMKG MKG20030723233009307/23/03 23:30:31  5-MIN KMKG 240430Z 01005KT 10SM CLR 18/12 A3006 500 69 1000 020/05 RMK AO2
14840KMKG MKG20030723233509307/23/03 23:35:31  5-MIN KMKG 240435Z 02005KT 10SM CLR 18/12 A3006 500 69 1000 020/05 RMK AO2
14840KMKG MKG20030723234009307/23/03 23:40:31  5-MIN KMKG 240440Z 01006KT 10SM CLR 18/12 A3006 510 69 1000 020/06 RMK AO2
14840KMKG MKG20030723234509207/23/03 23:45:31  5-MIN KMKG 240445Z 01005KT 10SM CLR 17/12 A3006 510 72 900 010/05 RMK AO2
14840KMKG MKG20030723235011907/23/03 23:50:31  5-MIN KMKG 240450Z 36006KT 10SM CLR 17/12 A3006 510 72 900 010/06 RMK AO2 SLP175 T01720122 402560139
14840KMKG MKG20030723235511907/23/03 23:55:31  5-MIN KMKG 240455Z 01005KT 10SM CLR 17/12 A3005 510 72 900 010/05 RMK AO2 SLP175 T01720122 402560139
14840KMKG MKG20030724000009207/24/03 00:00:32  5-MIN KMKG 240500Z 36005KT 10SM CLR 17/12 A3006 510 72 900 360/05 RMK AO2
14840KMKG MKG20030724000509207/24/03 00:05:31  5-MIN KMKG 240505Z 01004KT 10SM CLR 17/12 A3006 510 72 900 010/04 RMK AO2
14840KMKG MKG20030724001009207/24/03 00:10:31  5-MIN KMKG 240510Z 36005KT 10SM CLR 17/12 A3006 500 72 900 010/05 RMK AO2
14840KMKG MKG20030724001509207/24/03 00:15:31  5-MIN KMKG 240515Z 01004KT 10SM CLR 17/12 A3006 500 72 900 010/04 RMK AO2
14840KMKG MKG20030724002009207/24/03 00:20:31  5-MIN KMKG 240520Z 36003KT 10SM CLR 17/12 A3006 500 72 900 010/03 RMK AO2
14840KMKG MKG20030724002509207/24/03 00:25:31  5-MIN KMKG 240525Z 35004KT 10SM CLR 17/12 A3006 500 75 900 360/04 RMK AO2
14840KMKG MKG20030724003009207/24/03 00:30:31  5-MIN KMKG 240530Z 36005KT 10SM CLR 17/12 A3006 500 75 900 360/05 RMK AO2
14840KMKG MKG20030724003509207/24/03 00:35:31  5-MIN KMKG 240535Z 01005KT 10SM CLR 17/12 A3006 500 75 900 010/05 RMK AO2
14840KMKG MKG20030724004009207/24/03 00:40:31  5-MIN KMKG 240540Z 01005KT 10SM CLR 17/12 A3006 500 75 900 010/05 RMK AO2
14840KMKG MKG20030724004509207/24/03 00:45:31  5-MIN KMKG 240545Z 01005KT 10SM CLR 17/12 A3006 500 75 900 020/05 RMK AO2
14840KMKG MKG20030724005012707/24/03 00:50:31  5-MIN KMKG 240550Z 01005KT 10SM CLR 17/12 A3006 500 75 900 010/05 RMK AO2 SLP176 T01670122 10239 20167 51013
14840KMKG MKG20030724005512707/24/03 00:55:31  5-MIN KMKG 240555Z 01004KT 10SM CLR 17/12 A3006 500 72 900 010/04 RMK AO2 SLP176 T01670117 10239 20167 51004
14840KMKG MKG20030724010009207/24/03 01:00:31  5-MIN KMKG 240600Z 01004KT 10SM CLR 17/12 A3006 500 72 900 010/04 RMK AO2
14840KMKG MKG20030724010509207/24/03 01:05:31  5-MIN KMKG 240605Z 36006KT 10SM CLR 17/12 A3006 500 72 900 010/06 RMK AO2
14840KMKG MKG20030724011009207/24/03 01:10:31  5-MIN KMKG 240610Z 36006KT 10SM CLR 17/12 A3006 500 72 900 010/06 RMK AO2
14840KMKG MKG20030724011509207/24/03 01:15:31  5-MIN KMKG 240615Z 36006KT 10SM CLR 17/12 A3006 500 72 900 360/06 RMK AO2
14840KMKG MKG20030724012009207/24/03 01:20:31  5-MIN KMKG 240620Z 36006KT 10SM CLR 17/12 A3006 500 72 900 360/06 RMK AO2
14840KMKG MKG20030724012509207/24/03 01:25:31  5-MIN KMKG 240625Z 01006KT 10SM CLR 17/12 A3006 500 72 900 010/06 RMK AO2
14840KMKG MKG20030724013009207/24/03 01:30:31  5-MIN KMKG 240630Z 01005KT 10SM CLR 17/12 A3006 500 72 900 010/05 RMK AO2
14840KMKG MKG20030724013509207/24/03 01:35:31  5-MIN KMKG 240635Z 01006KT 10SM CLR 17/12 A3006 500 72 900 010/06 RMK AO2
14840KMKG MKG20030724014009207/24/03 01:40:31  5-MIN KMKG 240640Z 01006KT 10SM CLR 17/12 A3006 500 72 900 010/06 RMK AO2
14840KMKG MKG20030724014509207/24/03 01:45:31  5-MIN KMKG 240645Z 36006KT 10SM CLR 16/12 A3006 500 75 800 010/06 RMK AO2
14840KMKG MKG20030724015010907/24/03 01:50:31  5-MIN KMKG 240650Z 36005KT 10SM CLR 16/12 A3006 500 75 800 360/05 RMK AO2 SLP177 T01610117
14840KMKG MKG20030724015510907/24/03 01:55:31  5-MIN KMKG 240655Z 35005KT 10SM CLR 16/12 A3006 500 80 700 360/05 RMK AO2 SLP177 T01560122
14840KMKG MKG20030724020009207/24/03 02:00:31  5-MIN KMKG 240700Z 36005KT 10SM CLR 16/12 A3006 500 80 700 360/05 RMK AO2
14840KMKG MKG20030724020509207/24/03 02:05:31  5-MIN KMKG 240705Z 36007KT 10SM CLR 16/12 A3006 500 80 700 360/07 RMK AO2
14840KMKG MKG20030724021009207/24/03 02:10:31  5-MIN KMKG 240710Z 35006KT 10SM CLR 16/12 A3006 500 80 700 350/06 RMK AO2
14840KMKG MKG20030724021509207/24/03 02:15:31  5-MIN KMKG 240715Z 35006KT 10SM CLR 16/12 A3006 500 80 700 350/06 RMK AO2
14840KMKG MKG20030724022009207/24/03 02:20:31  5-MIN KMKG 240720Z 35007KT 10SM CLR 16/12 A3006 500 80 700 360/07 RMK AO2
14840KMKG MKG20030724022509207/24/03 02:25:31  5-MIN KMKG 240725Z 36006KT 10SM CLR 16/12 A3006 500 80 700 360/06 RMK AO2
14840KMKG MKG20030724023009207/24/03 02:30:31  5-MIN KMKG 240730Z 36006KT 10SM CLR 15/12 A3006 500 83 700 360/06 RMK AO2
14840KMKG MKG20030724023509207/24/03 02:35:31  5-MIN KMKG 240735Z 36006KT 10SM CLR 15/12 A3006 500 80 700 360/06 RMK AO2
14840KMKG MKG20030724024009207/24/03 02:40:31  5-MIN KMKG 240740Z 36004KT 10SM CLR 15/12 A3006 500 83 700 360/04 RMK AO2
14840KMKG MKG20030724024509207/24/03 02:45:31  5-MIN KMKG 240745Z 36005KT 10SM CLR 15/12 A3006 500 80 700 010/05 RMK AO2
14840KMKG MKG20030724025010907/24/03 02:50:31  5-MIN KMKG 240750Z 01004KT 10SM CLR 15/12 A3006 500 80 700 010/04 RMK AO2 SLP176 T01500117
14840KMKG MKG20030724025510907/24/03 02:55:31  5-MIN KMKG 240755Z 01004KT 10SM CLR 15/12 A3006 500 80 700 010/04 RMK AO2 SLP177 T01500117
14840KMKG MKG20030724030009207/24/03 03:00:31  5-MIN KMKG 240800Z 36003KT 10SM CLR 15/12 A3006 500 80 700 010/03 RMK AO2
14840KMKG MKG20030724030509207/24/03 03:05:31  5-MIN KMKG 240805Z 35003KT 10SM CLR 14/12 A3006 500 83 600 350/03 RMK AO2
14840KMKG MKG20030724031009207/24/03 03:10:31  5-MIN KMKG 240810Z 35004KT 10SM CLR 14/12 A3006 500 83 600 350/04 RMK AO2
14840KMKG MKG20030724031509207/24/03 03:15:31  5-MIN KMKG 240815Z 35003KT 10SM CLR 15/12 A3006 500 83 700 350/03 RMK AO2
14840KMKG MKG20030724032009207/24/03 03:20:31  5-MIN KMKG 240820Z 35005KT 10SM CLR 14/12 A3006 500 83 600 350/05 RMK AO2
14840KMKG MKG20030724032509207/24/03 03:25:31  5-MIN KMKG 240825Z 35005KT 10SM CLR 14/12 A3006 500 86 600 350/05 RMK AO2
14840KMKG MKG20030724033009207/24/03 03:30:31  5-MIN KMKG 240830Z 36005KT 10SM CLR 14/12 A3006 500 83 600 360/05 RMK AO2
14840KMKG MKG20030724033509207/24/03 03:35:31  5-MIN KMKG 240835Z 36005KT 10SM CLR 14/12 A3006 500 83 600 360/05 RMK AO2
14840KMKG MKG20030724034009207/24/03 03:40:31  5-MIN KMKG 240840Z 35003KT 10SM CLR 14/12 A3006 500 83 600 360/03 RMK AO2
14840KMKG MKG20030724034509207/24/03 03:45:31  5-MIN KMKG 240845Z 35003KT 10SM CLR 14/12 A3006 500 83 600 350/03 RMK AO2
14840KMKG MKG20030724035011507/24/03 03:50:31  5-MIN KMKG 240850Z 00000KT 10SM CLR 14/12 A3006 500 83 600 000/00 RMK AO2 SLP178 T01440117 51004
14840KMKG MKG20030724035511507/24/03 03:55:31  5-MIN KMKG 240855Z 00000KT 10SM CLR 14/12 A3006 500 83 600 000/00 RMK AO2 SLP177 T01440117 53001
14840KMKG MKG20030724040009207/24/03 04:00:31  5-MIN KMKG 240900Z 34003KT 10SM CLR 14/12 A3006 500 83 600 340/03 RMK AO2
14840KMKG MKG20030724040509207/24/03 04:05:31  5-MIN KMKG 240905Z 00000KT 10SM CLR 14/12 A3006 500 83 600 000/00 RMK AO2
14840KMKG MKG20030724041009207/24/03 04:10:31  5-MIN KMKG 240910Z 00000KT 10SM CLR 14/12 A3006 500 83 600 000/00 RMK AO2
14840KMKG MKG20030724041509207/24/03 04:15:31  5-MIN KMKG 240915Z 00000KT 10SM CLR 15/12 A3006 500 80 700 000/00 RMK AO2
14840KMKG MKG20030724042009207/24/03 04:20:31  5-MIN KMKG 240920Z 00000KT 10SM CLR 14/12 A3006 500 83 600 000/00 RMK AO2
14840KMKG MKG20030724042509207/24/03 04:25:31  5-MIN KMKG 240925Z 36003KT 10SM CLR 14/12 A3006 500 83 600 360/03 RMK AO2
14840KMKG MKG20030724043009207/24/03 04:30:31  5-MIN KMKG 240930Z 35004KT 10SM CLR 14/12 A3007 500 83 600 360/04 RMK AO2
14840KMKG MKG20030724043509207/24/03 04:35:31  5-MIN KMKG 240935Z 35005KT 10SM CLR 14/12 A3007 490 83 600 360/05 RMK AO2
14840KMKG MKG20030724044009207/24/03 04:40:31  5-MIN KMKG 240940Z 36005KT 10SM CLR 14/12 A3007 490 83 600 360/05 RMK AO2
14840KMKG MKG20030724044509207/24/03 04:45:31  5-MIN KMKG 240945Z 36004KT 10SM CLR 14/12 A3007 490 83 600 360/04 RMK AO2
14840KMKG MKG20030724045010907/24/03 04:50:31  5-MIN KMKG 240950Z 36003KT 10SM CLR 14/12 A3007 490 83 600 360/03 RMK AO2 SLP180 T01440117
14840KMKG MKG20030724045510907/24/03 04:55:31  5-MIN KMKG 240955Z 35004KT 10SM CLR 14/12 A3007 490 83 600 360/04 RMK AO2 SLP181 T01440117
14840KMKG MKG20030724050009207/24/03 05:00:31  5-MIN KMKG 241000Z 36004KT 10SM CLR 14/12 A3007 490 83 600 010/04 RMK AO2
14840KMKG MKG20030724050509207/24/03 05:05:31  5-MIN KMKG 241005Z 36004KT 10SM CLR 14/12 A3008 490 83 600 010/04 RMK AO2
14840KMKG MKG20030724051009207/24/03 05:10:31  5-MIN KMKG 241010Z 36004KT 10SM CLR 14/11 A3008 490 80 600 360/04 RMK AO2
14840KMKG MKG20030724051509207/24/03 05:15:31  5-MIN KMKG 241015Z 36004KT 10SM CLR 14/11 A3008 480 83 500 360/04 RMK AO2
14840KMKG MKG20030724052009207/24/03 05:20:31  5-MIN KMKG 241020Z 35005KT 10SM CLR 14/12 A3008 480 86 500 360/05 RMK AO2
14840KMKG MKG20030724052509207/24/03 05:25:31  5-MIN KMKG 241025Z 35005KT 10SM CLR 14/12 A3008 480 86 500 350/05 RMK AO2
14840KMKG MKG20030724053009207/24/03 05:30:31  5-MIN KMKG 241030Z 36004KT 10SM CLR 14/12 A3009 480 86 500 360/04 RMK AO2
14840KMKG MKG20030724053509207/24/03 05:35:31  5-MIN KMKG 241035Z 35004KT 10SM CLR 14/12 A3009 480 86 500 360/04 RMK AO2
14840KMKG MKG20030724054009207/24/03 05:40:31  5-MIN KMKG 241040Z 35004KT 10SM CLR 14/12 A3009 470 86 500 350/04 RMK AO2
14840KMKG MKG20030724054509207/24/03 05:45:31  5-MIN KMKG 241045Z 35004KT 10SM CLR 14/12 A3009 470 86 500 360/04 RMK AO2
14840KMKG MKG20030724055010907/24/03 05:50:31  5-MIN KMKG 241050Z 36004KT 10SM CLR 14/12 A3009 470 86 500 010/04 RMK AO2 SLP188 T01390117
14840KMKG MKG20030724055510907/24/03 05:55:31  5-MIN KMKG 241055Z 36004KT 10SM CLR 14/12 A3009 470 83 600 010/04 RMK AO2 SLP188 T01440117
14840KMKG MKG20030724060009207/24/03 06:00:31  5-MIN KMKG 241100Z 36003KT 10SM CLR 14/12 A3009 470 83 600 360/03 RMK AO2
14840KMKG MKG20030724060509207/24/03 06:05:31  5-MIN KMKG 241105Z 00000KT 10SM CLR 14/12 A3009 470 83 600 000/00 RMK AO2
14840KMKG MKG20030724061009207/24/03 06:10:31  5-MIN KMKG 241110Z 00000KT 10SM CLR 15/12 A3009 470 80 600 000/00 RMK AO2
14840KMKG MKG20030724061509207/24/03 06:15:31  5-MIN KMKG 241115Z 00000KT 10SM CLR 15/12 A3010 470 80 600 000/00 RMK AO2
14840KMKG MKG20030724062009207/24/03 06:20:31  5-MIN KMKG 241120Z 35003KT 10SM CLR 15/12 A3010 460 83 600 350/03 RMK AO2
14840KMKG MKG20030724062509207/24/03 06:25:31  5-MIN KMKG 241125Z 35005KT 10SM CLR 16/12 A3010 460 80 700 360/05 RMK AO2
14840KMKG MKG20030724063009207/24/03 06:30:31  5-MIN KMKG 241130Z 34003KT 10SM CLR 16/12 A3010 460 80 700 350/03 RMK AO2
14840KMKG MKG20030724063509207/24/03 06:35:31  5-MIN KMKG 241135Z 34003KT 10SM CLR 16/12 A3010 460 80 700 340/03 RMK AO2
14840KMKG MKG20030724064009207/24/03 06:40:31  5-MIN KMKG 241140Z 35004KT 10SM CLR 16/12 A3010 460 80 700 350/04 RMK AO2
14840KMKG MKG20030724064509207/24/03 06:45:31  5-MIN KMKG 241145Z 36004KT 10SM CLR 16/12 A3010 460 77 700 360/04 RMK AO2
14840KMKG MKG20030724065012707/24/03 06:50:31  5-MIN KMKG 241150Z 35003KT 10SM CLR 16/12 A3011 460 77 700 360/03 RMK AO2 SLP193 T01610122 10167 20139 53001
14840KMKG MKG20030724065512707/24/03 06:55:31  5-MIN KMKG 241155Z 33004KT 10SM CLR 17/12 A3011 460 75 800 330/04 RMK AO2 SLP193 T01670122 10167 20139 53015
14840KMKG MKG20030724070009207/24/03 07:00:31  5-MIN KMKG 241200Z 35004KT 10SM CLR 17/12 A3011 460 75 800 350/04 RMK AO2
14840KMKG MKG20030724070509207/24/03 07:05:31  5-MIN KMKG 241205Z 35003KT 10SM CLR 17/12 A3011 460 75 800 350/03 RMK AO2
14840KMKG MKG20030724071009207/24/03 07:10:31  5-MIN KMKG 241210Z 01003KT 10SM CLR 17/12 A3011 460 75 800 010/03 RMK AO2
14840KMKG MKG20030724071509207/24/03 07:15:31  5-MIN KMKG 241215Z 00000KT 10SM CLR 17/12 A3011 450 75 800 000/00 RMK AO2
14840KMKG MKG20030724072009207/24/03 07:20:31  5-MIN KMKG 241220Z 36003KT 10SM CLR 17/12 A3011 450 72 900 360/03 RMK AO2
14840KMKG MKG20030724072509207/24/03 07:25:31  5-MIN KMKG 241225Z 35003KT 10SM CLR 17/12 A3011 450 72 900 360/03 RMK AO2
14840KMKG MKG20030724073009207/24/03 07:30:31  5-MIN KMKG 241230Z 33003KT 10SM CLR 17/12 A3012 450 72 900 340/03 RMK AO2
14840KMKG MKG20030724073509207/24/03 07:35:31  5-MIN KMKG 241235Z 00000KT 10SM CLR 18/13 A3012 450 72 900 000/00 RMK AO2
14840KMKG MKG20030724074009207/24/03 07:40:31  5-MIN KMKG 241240Z 00000KT 10SM CLR 18/13 A3012 450 72 900 000/00 RMK AO2
14840KMKG MKG20030724074509307/24/03 07:45:31  5-MIN KMKG 241245Z 00000KT 10SM CLR 18/13 A3011 450 70 1000 000/00 RMK AO2
14840KMKG MKG20030724075010907/24/03 07:50:31  5-MIN KMKG 241250Z 00000KT 10SM CLR 18/12 A3011 450 69 900 000/00 RMK AO2 SLP195 T01780122
14840KMKG MKG20030724075511007/24/03 07:55:31  5-MIN KMKG 241255Z 34003KT 10SM CLR 18/13 A3012 450 70 1000 340/03 RMK AO2 SLP196 T01830128
14840KMKG MKG20030724080009307/24/03 08:00:31  5-MIN KMKG 241300Z 00000KT 10SM CLR 18/12 A3012 450 67 1000 000/00 RMK AO2
14840KMKG MKG20030724080509307/24/03 08:05:31  5-MIN KMKG 241305Z 00000KT 10SM CLR 19/13 A3012 450 67 1000 000/00 RMK AO2
14840KMKG MKG20030724081009307/24/03 08:10:31  5-MIN KMKG 241310Z 00000KT 10SM CLR 19/13 A3012 450 67 1000 000/00 RMK AO2
14840KMKG MKG20030724081509307/24/03 08:15:31  5-MIN KMKG 241315Z 36003KT 10SM CLR 19/13 A3012 450 65 1100 360/03 RMK AO2
14840KMKG MKG20030724082009307/24/03 08:20:31  5-MIN KMKG 241320Z 00000KT 10SM CLR 19/13 A3012 450 65 1100 000/00 RMK AO2
14840KMKG MKG20030724082509307/24/03 08:25:31  5-MIN KMKG 241325Z 00000KT 10SM CLR 19/13 A3012 450 65 1100 000/00 RMK AO2
14840KMKG MKG20030724083009307/24/03 08:30:31  5-MIN KMKG 241330Z 00000KT 10SM CLR 20/13 A3012 450 63 1200 000/00 RMK AO2
14840KMKG MKG20030724083509307/24/03 08:35:31  5-MIN KMKG 241335Z 00000KT 10SM CLR 20/13 A3012 450 63 1200 000/00 RMK AO2
14840KMKG MKG20030724084009307/24/03 08:40:31  5-MIN KMKG 241340Z 00000KT 10SM CLR 21/13 A3012 450 60 1200 000/00 RMK AO2
14840KMKG MKG20030724084509307/24/03 08:45:31  5-MIN KMKG 241345Z 00000KT 10SM CLR 21/13 A3012 450 60 1200 000/00 RMK AO2
14840KMKG MKG20030724085011007/24/03 08:50:31  5-MIN KMKG 241350Z 32003KT 10SM CLR 21/13 A3012 440 58 1300 320/03 RMK AO2 SLP198 T02110128
14840KMKG MKG20030724085511007/24/03 08:55:31  5-MIN KMKG 241355Z VRB03KT 10SM CLR 21/13 A3012 440 63 1200 VRB/03 RMK AO2 SLP198 T02060133
14840KMKG MKG20030724090009307/24/03 09:00:31  5-MIN KMKG 241400Z 34004KT 10SM CLR 21/13 A3012 440 61 1300 350/04 RMK AO2
14840KMKG MKG20030724090509307/24/03 09:05:31  5-MIN KMKG 241405Z 34004KT 10SM CLR 22/13 A3012 440 58 1400 340/04 RMK AO2
14840KMKG MKG20030724091009307/24/03 09:10:31  5-MIN KMKG 241410Z VRB03KT 10SM CLR 22/13 A3012 440 56 1400 VRB/03 RMK AO2
14840KMKG MKG20030724091509307/24/03 09:15:31  5-MIN KMKG 241415Z 30005KT 10SM CLR 22/13 A3013 440 56 1400 300/05 RMK AO2
14840KMKG MKG20030724092009307/24/03 09:20:31  5-MIN KMKG 241420Z 32004KT 10SM CLR 22/13 A3013 440 56 1400 320/04 RMK AO2
14840KMKG MKG20030724092509307/24/03 09:25:31  5-MIN KMKG 241425Z VRB05KT 10SM CLR 22/12 A3013 440 52 1400 VRB/05 RMK AO2
14840KMKG MKG20030724093009307/24/03 09:30:31  5-MIN KMKG 241430Z VRB05KT 10SM CLR 23/12 A3013 440 51 1500 VRB/05 RMK AO2
14840KMKG MKG20030724093509307/24/03 09:35:31  5-MIN KMKG 241435Z 32008KT 10SM CLR 22/11 A3013 440 49 1400 330/08 RMK AO2
14840KMKG MKG20030724094009307/24/03 09:40:31  5-MIN KMKG 241440Z 30008KT 10SM CLR 23/11 A3013 440 47 1500 310/08 RMK AO2
14840KMKG MKG20030724094509307/24/03 09:45:31  5-MIN KMKG 241445Z 33009KT 10SM CLR 23/12 A3013 440 47 1500 330/09 RMK AO2
14840KMKG MKG20030724095011607/24/03 09:50:31  5-MIN KMKG 241450Z 33007KT 10SM CLR 23/12 A3013 440 49 1500 330/07 RMK AO2 SLP201 T02280117 53015
14840KMKG MKG20030724095511607/24/03 09:55:31  5-MIN KMKG 241455Z 33008KT 10SM CLR 23/12 A3013 430 49 1500 330/08 RMK AO2 SLP201 T02330122 53008
14840KMKG MKG20030724100009307/24/03 10:00:31  5-MIN KMKG 241500Z 32007KT 10SM CLR 23/12 A3013 440 51 1500 320/07 RMK AO2
14840KMKG MKG20030724100509307/24/03 10:05:31  5-MIN KMKG 241505Z 34006KT 10SM CLR 23/13 A3013 440 53 1500 350/06 RMK AO2
14840KMKG MKG20030724101009307/24/03 10:10:31  5-MIN KMKG 241510Z VRB05KT 10SM CLR 23/12 A3013 440 51 1500 VRB/05 RMK AO2
14840KMKG MKG20030724101509307/24/03 10:15:31  5-MIN KMKG 241515Z 29006KT 10SM CLR 23/12 A3013 440 51 1500 290/06 RMK AO2
14840KMKG MKG20030724102009307/24/03 10:20:31  5-MIN KMKG 241520Z VRB05KT 10SM CLR 23/13 A3013 440 51 1500 VRB/05 RMK AO2
14840KMKG MKG20030724102509307/24/03 10:25:31  5-MIN KMKG 241525Z VRB06KT 10SM CLR 23/12 A3013 440 49 1500 VRB/06 RMK AO2
14840KMKG MKG20030724103010907/24/03 10:30:31  5-MIN KMKG 241530Z 34007KT 280V350 10SM CLR 23/12 A3013 440 49 1500 340/07 280V350 RMK AO2
14840KMKG MKG20030724103509307/24/03 10:35:31  5-MIN KMKG 241535Z 33005KT 10SM CLR 24/12 A3013 440 47 1600 330/05 RMK AO2
14840KMKG MKG20030724104009307/24/03 10:40:31  5-MIN KMKG 241540Z 32008KT 10SM CLR 24/12 A3013 440 46 1600 330/08 RMK AO2
14840KMKG MKG20030724104509307/24/03 10:45:31  5-MIN KMKG 241545Z 34007KT 10SM CLR 23/12 A3013 440 47 1500 340/07 RMK AO2
14840KMKG MKG20030724105011007/24/03 10:50:31  5-MIN KMKG 241550Z 31005KT 10SM CLR 23/12 A3013 440 49 1500 320/05 RMK AO2 SLP199 T02330122
14840KMKG MKG20030724105511007/24/03 10:55:31  5-MIN KMKG 241555Z 29007KT 10SM CLR 23/12 A3012 440 49 1600 290/07 RMK AO2 SLP199 T02330122
14840KMKG MKG20030724110009307/24/03 11:00:31  5-MIN KMKG 241600Z 32007KT 10SM CLR 24/13 A3013 440 49 1600 320/07 RMK AO2
14840KMKG MKG20030724110509307/24/03 11:05:31  5-MIN KMKG 241605Z 29006KT 10SM CLR 24/12 A3013 440 46 1600 290/06 RMK AO2
14840KMKG MKG20030724111009307/24/03 11:10:31  5-MIN KMKG 241610Z 30006KT 10SM CLR 24/12 A3012 440 46 1600 310/06 RMK AO2
14840KMKG MKG20030724111509307/24/03 11:15:31  5-MIN KMKG 241615Z 29006KT 10SM CLR 24/12 A3012 440 46 1600 300/06 RMK AO2
14840KMKG MKG20030724112009307/24/03 11:20:31  5-MIN KMKG 241620Z 28007KT 10SM CLR 24/12 A3012 440 46 1600 280/07 RMK AO2
14840KMKG MKG20030724112509307/24/03 11:25:31  5-MIN KMKG 241625Z 28009KT 10SM CLR 24/12 A3012 440 46 1600 280/09 RMK AO2
14840KMKG MKG20030724113010907/24/03 11:30:31  5-MIN KMKG 241630Z 28008KT 250V310 10SM CLR 24/12 A3012 440 44 1700 280/08 250V310 RMK AO2
14840KMKG MKG20030724113509307/24/03 11:35:31  5-MIN KMKG 241635Z 26009KT 10SM CLR 24/12 A3013 440 44 1700 260/09 RMK AO2
14840KMKG MKG20030724114009307/24/03 11:40:31  5-MIN KMKG 241640Z 27007KT 10SM CLR 24/12 A3013 440 44 1700 280/07 RMK AO2
14840KMKG MKG20030724114509307/24/03 11:45:31  5-MIN KMKG 241645Z 27007KT 10SM CLR 24/12 A3012 440 44 1700 270/07 RMK AO2
14840KMKG MKG20030724115011007/24/03 11:50:31  5-MIN KMKG 241650Z 25007KT 10SM CLR 24/11 A3012 440 44 1600 260/07 RMK AO2 SLP199 T02390111
14840KMKG MKG20030724115511007/24/03 11:55:31  5-MIN KMKG 241655Z 31006KT 10SM CLR 24/12 A3012 440 44 1700 310/06 RMK AO2 SLP198 T02440117
14840KMKG MKG20030724120009307/24/03 12:00:31  5-MIN KMKG 241700Z 27007KT 10SM CLR 24/12 A3012 450 44 1700 280/07 RMK AO2
14840KMKG MKG20030724120509307/24/03 12:05:31  5-MIN KMKG 241705Z 27007KT 10SM CLR 24/12 A3012 450 46 1600 270/07 RMK AO2
14840KMKG MKG20030724121009307/24/03 12:10:31  5-MIN KMKG 241710Z 26006KT 10SM CLR 24/11 A3012 450 44 1600 260/06 RMK AO2
14840KMKG MKG20030724121509307/24/03 12:15:31  5-MIN KMKG 241715Z VRB06KT 10SM CLR 24/12 A3012 450 44 1700 VRB/06 RMK AO2
14840KMKG MKG20030724122009307/24/03 12:20:31  5-MIN KMKG 241720Z 25008KT 10SM CLR 24/12 A3012 450 44 1700 260/08 RMK AO2
14840KMKG MKG20030724122509307/24/03 12:25:31  5-MIN KMKG 241725Z 25009KT 10SM CLR 24/12 A3011 450 46 1600 260/09 RMK AO2
14840KMKG MKG20030724123009307/24/03 12:30:31  5-MIN KMKG 241730Z 27010KT 10SM CLR 24/12 A3011 450 46 1600 270/10 RMK AO2
14840KMKG MKG20030724123509307/24/03 12:35:31  5-MIN KMKG 241735Z 27009KT 10SM CLR 24/11 A3012 450 44 1600 280/09 RMK AO2
14840KMKG MKG20030724124009307/24/03 12:40:31  5-MIN KMKG 241740Z 28010KT 10SM CLR 24/11 A3012 450 44 1600 280/10 RMK AO2
14840KMKG MKG20030724124509307/24/03 12:45:31  5-MIN KMKG 241745Z 26010KT 10SM CLR 24/11 A3012 450 44 1600 260/10 RMK AO2
14840KMKG MKG20030724125012807/24/03 12:50:31  5-MIN KMKG 241750Z 27010KT 10SM CLR 24/12 A3012 450 46 1600 280/10 RMK AO2 SLP196 T02390117 10250 20167 53008
14840KMKG MKG20030724125512807/24/03 12:55:31  5-MIN KMKG 241755Z 27011KT 10SM CLR 24/12 A3012 450 46 1600 270/11 RMK AO2 SLP196 T02390117 10250 20167 56005
14840KMKG MKG20030724130009307/24/03 13:00:31  5-MIN KMKG 241800Z 26010KT 10SM CLR 24/12 A3012 450 46 1600 270/10 RMK AO2
14840KMKG MKG20030724130509307/24/03 13:05:31  5-MIN KMKG 241805Z 26010KT 10SM CLR 24/12 A3012 450 46 1600 270/10 RMK AO2
14840KMKG MKG20030724131009307/24/03 13:10:31  5-MIN KMKG 241810Z 27010KT 10SM CLR 24/12 A3011 450 47 1600 280/10 RMK AO2
14840KMKG MKG20030724131509307/24/03 13:15:31  5-MIN KMKG 241815Z 27010KT 10SM CLR 24/12 A3011 450 47 1600 270/10 RMK AO2
14840KMKG MKG20030724132009307/24/03 13:20:31  5-MIN KMKG 241820Z 27010KT 10SM CLR 24/12 A3011 450 47 1600 270/10 RMK AO2
14840KMKG MKG20030724132509307/24/03 13:25:31  5-MIN KMKG 241825Z 28010KT 10SM CLR 24/12 A3011 450 47 1600 290/10 RMK AO2
14840KMKG MKG20030724133009307/24/03 13:30:31  5-MIN KMKG 241830Z 27009KT 10SM CLR 24/12 A3011 460 47 1600 280/09 RMK AO2
14840KMKG MKG20030724133509307/24/03 13:35:31  5-MIN KMKG 241835Z 28010KT 10SM CLR 23/12 A3011 460 49 1600 290/10 RMK AO2
14840KMKG MKG20030724134009307/24/03 13:40:31  5-MIN KMKG 241840Z 28010KT 10SM CLR 24/12 A3011 450 46 1600 280/10 RMK AO2
14840KMKG MKG20030724134509607/24/03 13:45:31  5-MIN KMKG 241845Z 29012KT 10SM FEW060 24/12 A3011 450 46 1600 290/12 RMK AO2
14840KMKG MKG20030724135011307/24/03 13:50:31  5-MIN KMKG 241850Z 29010KT 10SM FEW060 23/12 A3011 450 47 1600 300/10 RMK AO2 SLP194 T02330117
14840KMKG MKG20030724135511307/24/03 13:55:31  5-MIN KMKG 241855Z 28011KT 10SM FEW060 24/12 A3011 460 46 1600 280/11 RMK AO2 SLP194 T02390117
14840KMKG MKG20030724140009307/24/03 14:00:31  5-MIN KMKG 241900Z 27012KT 10SM CLR 24/12 A3011 460 46 1600 270/12 RMK AO2
14840KMKG MKG20030724140509307/24/03 14:05:31  5-MIN KMKG 241905Z 27011KT 10SM CLR 24/12 A3011 460 46 1600 270/11 RMK AO2
14840KMKG MKG20030724141009307/24/03 14:10:31  5-MIN KMKG 241910Z 28010KT 10SM CLR 24/12 A3011 460 46 1700 280/10 RMK AO2
14840KMKG MKG20030724141509307/24/03 14:15:31  5-MIN KMKG 241915Z 27011KT 10SM CLR 24/12 A3011 460 46 1700 280/11 RMK AO2
14840KMKG MKG20030724142009307/24/03 14:20:31  5-MIN KMKG 241920Z 29010KT 10SM CLR 24/11 A3011 460 44 1600 300/10 RMK AO2
14840KMKG MKG20030724142509307/24/03 14:25:31  5-MIN KMKG 241925Z 27009KT 10SM CLR 24/11 A3011 460 42 1700 280/09 RMK AO2
14840KMKG MKG20030724143009307/24/03 14:30:31  5-MIN KMKG 241930Z 28010KT 10SM CLR 24/11 A3011 460 42 1700 290/10 RMK AO2
14840KMKG MKG20030724143509307/24/03 14:35:31  5-MIN KMKG 241935Z 29010KT 10SM CLR 24/11 A3011 460 42 1700 290/10 RMK AO2
14840KMKG MKG20030724144009607/24/03 14:40:31  5-MIN KMKG 241940Z 29009KT 10SM FEW060 24/11 A3011 460 42 1700 290/09 RMK AO2
14840KMKG MKG20030724144509607/24/03 14:45:31  5-MIN KMKG 241945Z 30010KT 10SM FEW060 24/12 A3011 460 44 1700 300/10 RMK AO2
14840KMKG MKG20030724145011307/24/03 14:50:31  5-MIN KMKG 241950Z 27010KT 10SM FEW060 24/12 A3010 460 44 1700 280/10 RMK AO2 SLP192 T02440117
14840KMKG MKG20030724145511307/24/03 14:55:31  5-MIN KMKG 241955Z 29011KT 10SM FEW060 24/12 A3011 460 46 1700 290/11 RMK AO2 SLP193 T02440122
14840KMKG MKG20030724150009607/24/03 15:00:31  5-MIN KMKG 242000Z 28008KT 10SM FEW055 24/12 A3011 460 44 1700 280/08 RMK AO2
14840KMKG MKG20030724150509607/24/03 15:05:31  5-MIN KMKG 242005Z 28009KT 10SM FEW055 25/13 A3011 460 46 1800 290/09 RMK AO2
14840KMKG MKG20030724151009607/24/03 15:10:31  5-MIN KMKG 242010Z 27009KT 10SM FEW055 24/12 A3010 460 44 1700 270/09 RMK AO2
14840KMKG MKG20030724151509607/24/03 15:15:31  5-MIN KMKG 242015Z 27010KT 10SM FEW055 24/12 A3010 460 44 1700 270/10 RMK AO2
14840KMKG MKG20030724152009607/24/03 15:20:31  5-MIN KMKG 242020Z 27009KT 10SM FEW055 24/12 A3010 460 46 1700 280/09 RMK AO2
14840KMKG MKG20030724152509607/24/03 15:25:31  5-MIN KMKG 242025Z 28008KT 10SM FEW055 24/12 A3011 460 46 1600 280/08 RMK AO2
14840KMKG MKG20030724153009607/24/03 15:30:31  5-MIN KMKG 242030Z 27009KT 10SM FEW055 24/12 A3011 460 46 1700 280/09 RMK AO2
14840KMKG MKG20030724153509607/24/03 15:35:31  5-MIN KMKG 242035Z 28009KT 10SM FEW055 24/12 A3011 460 46 1600 290/09 RMK AO2
14840KMKG MKG20030724154009607/24/03 15:40:31  5-MIN KMKG 242040Z 28009KT 10SM FEW055 24/12 A3011 460 46 1700 280/09 RMK AO2
14840KMKG MKG20030724154509607/24/03 15:45:31  5-MIN KMKG 242045Z 28010KT 10SM FEW055 24/12 A3011 460 46 1600 280/10 RMK AO2
14840KMKG MKG20030724155011907/24/03 15:50:31  5-MIN KMKG 242050Z 29008KT 10SM FEW055 24/12 A3011 460 44 1700 290/08 RMK AO2 SLP193 T02440117 56005
14840KMKG MKG20030724155511907/24/03 15:55:31  5-MIN KMKG 242055Z 27009KT 10SM FEW055 24/12 A3011 460 46 1700 280/09 RMK AO2 SLP194 T02440122 55003
14840KMKG MKG20030724160009307/24/03 16:00:31  5-MIN KMKG 242100Z 26010KT 10SM CLR 24/12 A3011 460 47 1600 270/10 RMK AO2
14840KMKG MKG20030724160509307/24/03 16:05:31  5-MIN KMKG 242105Z 26009KT 10SM CLR 23/12 A3011 460 47 1600 270/09 RMK AO2
14840KMKG MKG20030724161009307/24/03 16:10:31  5-MIN KMKG 242110Z 26010KT 10SM CLR 23/12 A3010 460 47 1600 270/10 RMK AO2
14840KMKG MKG20030724161509307/24/03 16:15:31  5-MIN KMKG 242115Z 27010KT 10SM CLR 24/12 A3010 460 46 1600 270/10 RMK AO2
14840KMKG MKG20030724162009307/24/03 16:20:31  5-MIN KMKG 242120Z 27009KT 10SM CLR 24/12 A3010 460 46 1600 280/09 RMK AO2
14840KMKG MKG20030724162509607/24/03 16:25:31  5-MIN KMKG 242125Z 28008KT 10SM FEW050 24/12 A3010 460 46 1600 280/08 RMK AO2
14840KMKG MKG20030724163009607/24/03 16:30:31  5-MIN KMKG 242130Z 28007KT 10SM FEW050 24/12 A3010 460 47 1600 280/07 RMK AO2
14840KMKG MKG20030724163509607/24/03 16:35:31  5-MIN KMKG 242135Z 28008KT 10SM FEW050 24/12 A3010 460 46 1600 290/08 RMK AO2
14840KMKG MKG20030724164009607/24/03 16:40:31  5-MIN KMKG 242140Z 28008KT 10SM FEW050 24/12 A3010 460 47 1600 280/08 RMK AO2
14840KMKG MKG20030724164509607/24/03 16:45:31  5-MIN KMKG 242145Z 26006KT 10SM FEW050 24/12 A3010 470 47 1600 260/06 RMK AO2
14840KMKG MKG20030724165011307/24/03 16:50:31  5-MIN KMKG 242150Z 27007KT 10SM FEW050 24/13 A3010 470 49 1600 270/07 RMK AO2 SLP190 T02390128
14840KMKG MKG20030724165511307/24/03 16:55:31  5-MIN KMKG 242155Z 26008KT 10SM FEW050 24/13 A3010 470 49 1600 260/08 RMK AO2 SLP190 T02390128
14840KMKG MKG20030724170009307/24/03 17:00:31  5-MIN KMKG 242200Z 27008KT 10SM CLR 23/13 A3010 470 51 1600 280/08 RMK AO2
14840KMKG MKG20030724170509307/24/03 17:05:31  5-MIN KMKG 242205Z 26009KT 10SM CLR 23/13 A3010 460 53 1500 260/09 RMK AO2
14840KMKG MKG20030724171009307/24/03 17:10:31  5-MIN KMKG 242210Z 25007KT 10SM CLR 23/13 A3010 470 53 1500 260/07 RMK AO2
14840KMKG MKG20030724171509307/24/03 17:15:31  5-MIN KMKG 242215Z 27007KT 10SM CLR 23/13 A3010 470 55 1500 270/07 RMK AO2
14840KMKG MKG20030724172009307/24/03 17:20:31  5-MIN KMKG 242220Z 25008KT 10SM CLR 23/13 A3010 470 55 1500 260/08 RMK AO2
14840KMKG MKG20030724172509307/24/03 17:25:31  5-MIN KMKG 242225Z 27007KT 10SM CLR 23/13 A3010 470 55 1500 270/07 RMK AO2
14840KMKG MKG20030724173009307/24/03 17:30:31  5-MIN KMKG 242230Z 27008KT 10SM CLR 23/13 A3010 470 53 1500 270/08 RMK AO2
14840KMKG MKG20030724173509307/24/03 17:35:31  5-MIN KMKG 242235Z 28006KT 10SM CLR 23/13 A3010 470 55 1500 290/06 RMK AO2
14840KMKG MKG20030724174009307/24/03 17:40:31  5-MIN KMKG 242240Z 28006KT 10SM CLR 23/13 A3010 470 53 1600 280/06 RMK AO2
14840KMKG MKG20030724174509607/24/03 17:45:31  5-MIN KMKG 242245Z 25008KT 10SM FEW045 23/13 A3010 470 55 1500 250/08 RMK AO2
14840KMKG MKG20030724175011307/24/03 17:50:31  5-MIN KMKG 242250Z 28007KT 10SM FEW045 23/12 A3009 470 51 1500 280/07 RMK AO2 SLP190 T02280122
14840KMKG MKG20030724175511307/24/03 17:55:31  5-MIN KMKG 242255Z 24006KT 10SM FEW045 23/12 A3009 470 51 1500 250/06 RMK AO2 SLP190 T02280122
14840KMKG MKG20030724180009307/24/03 18:00:31  5-MIN KMKG 242300Z 26007KT 10SM CLR 23/13 A3009 470 53 1500 260/07 RMK AO2
14840KMKG MKG20030724180509307/24/03 18:05:31  5-MIN KMKG 242305Z 26005KT 10SM CLR 23/13 A3009 470 53 1500 260/05 RMK AO2
14840KMKG MKG20030724181009307/24/03 18:10:31  5-MIN KMKG 242310Z 25006KT 10SM CLR 23/13 A3010 470 53 1500 250/06 RMK AO2
14840KMKG MKG20030724181509307/24/03 18:15:31  5-MIN KMKG 242315Z 24007KT 10SM CLR 23/13 A3009 470 53 1500 240/07 RMK AO2
14840KMKG MKG20030724182009307/24/03 18:20:31  5-MIN KMKG 242320Z 25006KT 10SM CLR 23/13 A3009 470 55 1500 260/06 RMK AO2
14840KMKG MKG20030724182509307/24/03 18:25:31  5-MIN KMKG 242325Z 27006KT 10SM CLR 23/13 A3009 470 55 1500 270/06 RMK AO2
14840KMKG MKG20030724183009307/24/03 18:30:31  5-MIN KMKG 242330Z 22008KT 10SM CLR 22/13 A3009 470 56 1500 230/08 RMK AO2
14840KMKG MKG20030724183509307/24/03 18:35:31  5-MIN KMKG 242335Z 22008KT 10SM CLR 22/13 A3009 470 56 1500 230/08 RMK AO2
14840KMKG MKG20030724184009307/24/03 18:40:31  5-MIN KMKG 242340Z 23007KT 10SM CLR 22/13 A3009 470 58 1400 240/07 RMK AO2
14840KMKG MKG20030724184509307/24/03 18:45:31  5-MIN KMKG 242345Z 23006KT 10SM CLR 22/13 A3009 470 58 1400 240/06 RMK AO2
14840KMKG MKG20030724185012807/24/03 18:50:31  5-MIN KMKG 242350Z 24006KT 10SM CLR 22/13 A3009 470 56 1400 240/06 RMK AO2 SLP189 T02170128 10250 20217 55003
14840KMKG MKG20030724185512807/24/03 18:55:31  5-MIN KMKG 242355Z 24004KT 10SM CLR 22/13 A3009 470 56 1400 240/04 RMK AO2 SLP188 T02170128 10250 20217 56006
14840KMKG MKG20030724190009307/24/03 19:00:31  5-MIN KMKG 250000Z 22006KT 10SM CLR 22/13 A3009 470 56 1400 230/06 RMK AO2
14840KMKG MKG20030724190509307/24/03 19:05:31  5-MIN KMKG 250005Z 23005KT 10SM CLR 21/13 A3009 470 58 1300 230/05 RMK AO2
14840KMKG MKG20030724191009307/24/03 19:10:31  5-MIN KMKG 250010Z 23005KT 10SM CLR 21/13 A3009 470 58 1300 240/05 RMK AO2
14840KMKG MKG20030724191509307/24/03 19:15:31  5-MIN KMKG 250015Z 24005KT 10SM CLR 21/13 A3009 470 58 1300 240/05 RMK AO2
14840KMKG MKG20030724192009307/24/03 19:20:31  5-MIN KMKG 250020Z 24006KT 10SM CLR 21/13 A3010 470 58 1300 250/06 RMK AO2
14840KMKG MKG20030724192509307/24/03 19:25:31  5-MIN KMKG 250025Z 24005KT 10SM CLR 21/13 A3010 470 58 1300 240/05 RMK AO2
14840KMKG MKG20030724193009307/24/03 19:30:31  5-MIN KMKG 250030Z 23005KT 10SM CLR 21/13 A3010 470 60 1300 230/05 RMK AO2
14840KMKG MKG20030724193509307/24/03 19:35:31  5-MIN KMKG 250035Z 23004KT 10SM CLR 21/13 A3009 470 60 1300 240/04 RMK AO2
14840KMKG MKG20030724194009307/24/03 19:40:31  5-MIN KMKG 250040Z 24005KT 10SM CLR 21/13 A3010 470 63 1300 240/05 RMK AO2
14840KMKG MKG20030724194509307/24/03 19:45:31  5-MIN KMKG 250045Z 24004KT 10SM CLR 20/13 A3010 470 65 1200 240/04 RMK AO2
14840KMKG MKG20030724195011007/24/03 19:50:31  5-MIN KMKG 250050Z 25004KT 10SM CLR 20/14 A3010 470 67 1200 250/04 RMK AO2 SLP191 T02000139
14840KMKG MKG20030724195511007/24/03 19:55:31  5-MIN KMKG 250055Z 25005KT 10SM CLR 19/14 A3010 470 70 1100 250/05 RMK AO2 SLP191 T01940139
14840KMKG MKG20030724200009307/24/03 20:00:31  5-MIN KMKG 250100Z 24004KT 10SM CLR 19/14 A3010 460 72 1100 250/04 RMK AO2
14840KMKG MKG20030724200509307/24/03 20:05:31  5-MIN KMKG 250105Z 24003KT 10SM CLR 19/14 A3010 460 72 1100 240/03 RMK AO2
14840KMKG MKG20030724201009307/24/03 20:10:31  5-MIN KMKG 250110Z 22003KT 10SM CLR 19/14 A3010 460 72 1100 220/03 RMK AO2
14840KMKG MKG20030724201509307/24/03 20:15:31  5-MIN KMKG 250115Z 22003KT 10SM CLR 19/14 A3010 460 75 1100 220/03 RMK AO2
14840KMKG MKG20030724202009307/24/03 20:20:31  5-MIN KMKG 250120Z 22003KT 10SM CLR 19/14 A3010 460 75 1100 220/03 RMK AO2
14840KMKG MKG20030724202509207/24/03 20:25:31  5-MIN KMKG 250125Z 21003KT 10SM CLR 18/14 A3010 460 81 900 220/03 RMK AO2
14840KMKG MKG20030724203009307/24/03 20:30:31  5-MIN KMKG 250130Z 21003KT 10SM CLR 18/15 A3010 460 81 1000 220/03 RMK AO2
14840KMKG MKG20030724203509307/24/03 20:35:31  5-MIN KMKG 250135Z 20003KT 10SM CLR 18/15 A3011 460 81 1000 210/03 RMK AO2
14840KMKG MKG20030724204009307/24/03 20:40:31  5-MIN KMKG 250140Z 00000KT 10SM CLR 18/15 A3011 460 81 1000 000/00 RMK AO2
14840KMKG MKG20030724204509207/24/03 20:45:31  5-MIN KMKG 250145Z 00000KT 10SM CLR 18/15 A3011 460 83 900 000/00 RMK AO2
14840KMKG MKG20030724205010907/24/03 20:50:31  5-MIN KMKG 250150Z 20003KT 10SM CLR 18/15 A3011 460 83 900 210/03 RMK AO2 SLP193 T01780150
14840KMKG MKG20030724205510907/24/03 20:55:31  5-MIN KMKG 250155Z 21003KT 10SM CLR 18/15 A3011 450 83 900 220/03 RMK AO2 SLP194 T01780150
14840KMKG MKG20030724210009207/24/03 21:00:31  5-MIN KMKG 250200Z 00000KT 10SM CLR 18/15 A3011 450 83 900 000/00 RMK AO2
14840KMKG MKG20030724210509207/24/03 21:05:31  5-MIN KMKG 250205Z 00000KT 10SM CLR 18/15 A3011 450 83 900 000/00 RMK AO2
14840KMKG MKG20030724211009207/24/03 21:10:31  5-MIN KMKG 250210Z 20003KT 10SM CLR 18/15 A3011 450 83 900 210/03 RMK AO2
14840KMKG MKG20030724211509207/24/03 21:15:31  5-MIN KMKG 250215Z 20003KT 10SM CLR 18/15 A3011 450 83 900 200/03 RMK AO2
14840KMKG MKG20030724212009207/24/03 21:20:31  5-MIN KMKG 250220Z 20003KT 10SM CLR 17/15 A3011 450 90 800 210/03 RMK AO2
14840KMKG MKG20030724212509207/24/03 21:25:31  5-MIN KMKG 250225Z 19003KT 10SM CLR 17/15 A3011 450 90 800 200/03 RMK AO2
14840KMKG MKG20030724213009207/24/03 21:30:31  5-MIN KMKG 250230Z 19003KT 10SM CLR 17/15 A3012 450 90 800 200/03 RMK AO2
14840KMKG MKG20030724213509207/24/03 21:35:31  5-MIN KMKG 250235Z 00000KT 10SM CLR 17/15 A3012 450 90 800 000/00 RMK AO2
14840KMKG MKG20030724214009207/24/03 21:40:31  5-MIN KMKG 250240Z 00000KT 10SM CLR 17/15 A3012 450 90 800 000/00 RMK AO2
14840KMKG MKG20030724214509207/24/03 21:45:31  5-MIN KMKG 250245Z 00000KT 10SM CLR 16/14 A3012 450 90 700 000/00 RMK AO2
14840KMKG MKG20030724215011507/24/03 21:50:31  5-MIN KMKG 250250Z 00000KT 10SM CLR 17/15 A3012 450 90 800 000/00 RMK AO2 SLP197 T01670150 56006
14840KMKG MKG20030724215511507/24/03 21:55:31  5-MIN KMKG 250255Z 00000KT 10SM CLR 17/15 A3012 450 90 800 000/00 RMK AO2 SLP197 T01670150 53009
14840KMKG MKG20030724220009207/24/03 22:00:31  5-MIN KMKG 250300Z 00000KT 10SM CLR 17/15 A3012 440 90 800 000/00 RMK AO2
14840KMKG MKG20030724220509207/24/03 22:05:31  5-MIN KMKG 250305Z 00000KT 10SM CLR 17/15 A3012 450 90 800 000/00 RMK AO2
14840KMKG MKG20030724221009207/24/03 22:10:31  5-MIN KMKG 250310Z 00000KT 10SM CLR 17/15 A3012 450 90 800 000/00 RMK AO2
14840KMKG MKG20030724221509207/24/03 22:15:31  5-MIN KMKG 250315Z 00000KT 10SM CLR 17/15 A3012 450 90 800 000/00 RMK AO2
14840KMKG MKG20030724222009207/24/03 22:20:31  5-MIN KMKG 250320Z 00000KT 10SM CLR 16/15 A3012 450 93 700 000/00 RMK AO2
14840KMKG MKG20030724222509207/24/03 22:25:31  5-MIN KMKG 250325Z 00000KT 10SM CLR 16/15 A3012 450 93 700 000/00 RMK AO2
14840KMKG MKG20030724223009207/24/03 22:30:31  5-MIN KMKG 250330Z 00000KT 10SM CLR 16/15 A3012 450 93 700 000/00 RMK AO2
14840KMKG MKG20030724223509207/24/03 22:35:31  5-MIN KMKG 250335Z 00000KT 10SM CLR 16/15 A3012 450 93 700 000/00 RMK AO2
14840KMKG MKG20030724224009207/24/03 22:40:31  5-MIN KMKG 250340Z 00000KT 10SM CLR 16/15 A3012 440 93 700 000/00 RMK AO2
14840KMKG MKG20030724224509207/24/03 22:45:31  5-MIN KMKG 250345Z 13003KT 10SM CLR 16/15 A3012 440 93 700 140/03 RMK AO2
14840KMKG MKG20030724225010907/24/03 22:50:31  5-MIN KMKG 250350Z 00000KT 10SM CLR 16/15 A3012 440 93 700 000/00 RMK AO2 SLP199 T01610150
14840KMKG MKG20030724225510907/24/03 22:55:31  5-MIN KMKG 250355Z 00000KT 10SM CLR 16/14 A3013 440 93 600 000/00 RMK AO2 SLP199 T01560144
14840KMKG MKG20030724230009207/24/03 23:00:31  5-MIN KMKG 250400Z 00000KT 10SM CLR 16/14 A3013 440 93 600 000/00 RMK AO2
14840KMKG MKG20030724230509207/24/03 23:05:31  5-MIN KMKG 250405Z 00000KT 10SM CLR 16/15 A3013 440 96 600 000/00 RMK AO2
14840KMKG MKG20030724231009207/24/03 23:10:31  5-MIN KMKG 250410Z 00000KT 10SM CLR 16/15 A3013 440 93 700 000/00 RMK AO2
14840KMKG MKG20030724231509207/24/03 23:15:31  5-MIN KMKG 250415Z 00000KT 10SM CLR 17/15 A3013 440 87 800 000/00 RMK AO2
14840KMKG MKG20030724232009207/24/03 23:20:31  5-MIN KMKG 250420Z 00000KT 10SM CLR 16/14 A3013 440 90 700 000/00 RMK AO2
14840KMKG MKG20030724232509207/24/03 23:25:31  5-MIN KMKG 250425Z 00000KT 10SM CLR 16/14 A3013 440 93 600 000/00 RMK AO2
14840KMKG MKG20030724233009207/24/03 23:30:31  5-MIN KMKG 250430Z 00000KT 10SM CLR 16/14 A3013 440 93 600 000/00 RMK AO2
14840KMKG MKG20030724233509207/24/03 23:35:31  5-MIN KMKG 250435Z 00000KT 10SM CLR 16/14 A3013 440 93 600 000/00 RMK AO2
14840KMKG MKG20030724234009207/24/03 23:40:31  5-MIN KMKG 250440Z 00000KT 10SM CLR 16/14 A3013 440 93 600 000/00 RMK AO2
14840KMKG MKG20030724234509207/24/03 23:45:31  5-MIN KMKG 250445Z 00000KT 10SM CLR 16/14 A3013 440 93 600 000/00 RMK AO2
14840KMKG MKG20030724235011907/24/03 23:50:31  5-MIN KMKG 250450Z 00000KT 10SM CLR 16/14 A3013 440 93 600 000/00 RMK AO2 SLP200 T01560144 402500139
14840KMKG MKG20030724235511907/24/03 23:55:31  5-MIN KMKG 250455Z 00000KT 10SM CLR 16/15 A3012 440 96 600 000/00 RMK AO2 SLP199 T01560150 402500139
14840KMKG MKG20030725000009207/25/03 00:00:32  5-MIN KMKG 250500Z 00000KT 10SM CLR 16/14 A3012 440 93 700 000/00 RMK AO2
14840KMKG MKG20030725000509207/25/03 00:05:31  5-MIN KMKG 250505Z 00000KT 10SM CLR 15/14 A3013 440 96 600 000/00 RMK AO2
14840KMKG MKG20030725001009207/25/03 00:10:31  5-MIN KMKG 250510Z 00000KT 10SM CLR 15/14 A3013 440 93 600 000/00 RMK AO2
14840KMKG MKG20030725001509207/25/03 00:15:31  5-MIN KMKG 250515Z 00000KT 10SM CLR 15/14 A3012 440 93 600 000/00 RMK AO2
14840KMKG MKG20030725002009207/25/03 00:20:31  5-MIN KMKG 250520Z 00000KT 10SM CLR 16/14 A3012 440 93 700 000/00 RMK AO2
14840KMKG MKG20030725002509207/25/03 00:25:31  5-MIN KMKG 250525Z 00000KT 10SM CLR 16/15 A3012 440 96 700 000/00 RMK AO2
14840KMKG MKG20030725003009207/25/03 00:30:31  5-MIN KMKG 250530Z 00000KT 10SM CLR 16/15 A3013 440 96 600 000/00 RMK AO2
14840KMKG MKG20030725003509207/25/03 00:35:31  5-MIN KMKG 250535Z 00000KT 10SM CLR 15/14 A3013 440 96 600 000/00 RMK AO2
14840KMKG MKG20030725004009207/25/03 00:40:31  5-MIN KMKG 250540Z 00000KT 10SM CLR 16/15 A3013 440 96 600 000/00 RMK AO2
14840KMKG MKG20030725004509207/25/03 00:45:31  5-MIN KMKG 250545Z 00000KT 10SM CLR 15/14 A3013 440 96 600 000/00 RMK AO2
14840KMKG MKG20030725005012707/25/03 00:50:31  5-MIN KMKG 250550Z 00000KT 10SM CLR 14/14 A3013 440 96 500 000/00 RMK AO2 SLP199 T01440139 10217 20144 53009
14840KMKG MKG20030725005512707/25/03 00:55:31  5-MIN KMKG 250555Z 00000KT 10SM CLR 15/14 A3012 440 93 600 000/00 RMK AO2 SLP199 T01500139 10217 20144 50001
14840KMKG MKG20030725010009207/25/03 01:00:31  5-MIN KMKG 250600Z 00000KT 10SM CLR 15/14 A3012 440 93 600 000/00 RMK AO2
14840KMKG MKG20030725010509207/25/03 01:05:31  5-MIN KMKG 250605Z 00000KT 10SM CLR 15/14 A3012 440 96 600 000/00 RMK AO2
14840KMKG MKG20030725011009207/25/03 01:10:31  5-MIN KMKG 250610Z 00000KT 10SM CLR 16/14 A3013 440 93 600 000/00 RMK AO2
14840KMKG MKG20030725011509207/25/03 01:15:31  5-MIN KMKG 250615Z 00000KT 10SM CLR 16/14 A3012 440 93 700 000/00 RMK AO2
14840KMKG MKG20030725012009207/25/03 01:20:31  5-MIN KMKG 250620Z 00000KT 10SM CLR 16/14 A3012 440 93 700 000/00 RMK AO2
14840KMKG MKG20030725012509207/25/03 01:25:31  5-MIN KMKG 250625Z 00000KT 10SM CLR 16/14 A3012 440 93 700 000/00 RMK AO2
14840KMKG MKG20030725013009207/25/03 01:30:31  5-MIN KMKG 250630Z 00000KT 10SM CLR 16/14 A3012 440 93 700 000/00 RMK AO2
14840KMKG MKG20030725013509207/25/03 01:35:31  5-MIN KMKG 250635Z 00000KT 10SM CLR 15/14 A3013 440 96 600 000/00 RMK AO2
14840KMKG MKG20030725014009207/25/03 01:40:31  5-MIN KMKG 250640Z 00000KT 10SM CLR 16/15 A3012 440 96 700 000/00 RMK AO2
14840KMKG MKG20030725014509207/25/03 01:45:31  5-MIN KMKG 250645Z 00000KT 10SM CLR 15/14 A3012 440 96 600 000/00 RMK AO2
14840KMKG MKG20030725015010907/25/03 01:50:31  5-MIN KMKG 250650Z 00000KT 10SM CLR 15/14 A3012 440 93 600 000/00 RMK AO2 SLP198 T01500139
14840KMKG MKG20030725015510907/25/03 01:55:31  5-MIN KMKG 250655Z 00000KT 10SM CLR 14/14 A3012 440 96 500 000/00 RMK AO2 SLP198 T01440139
14840KMKG MKG20030725020009207/25/03 02:00:31  5-MIN KMKG 250700Z 00000KT 10SM CLR 14/14 A3012 440 96 500 000/00 RMK AO2
14840KMKG MKG20030725020509207/25/03 02:05:31  5-MIN KMKG 250705Z 00000KT 10SM CLR 14/14 A3012 440 96 500 000/00 RMK AO2
14840KMKG MKG20030725021009207/25/03 02:10:31  5-MIN KMKG 250710Z 00000KT 10SM CLR 14/14 A3012 440 96 500 000/00 RMK AO2
14840KMKG MKG20030725021509207/25/03 02:15:31  5-MIN KMKG 250715Z 00000KT 10SM CLR 14/14 A3012 440 96 500 000/00 RMK AO2
14840KMKG MKG20030725022009307/25/03 02:20:31  5-MIN KMKG 250720Z 00000KT 10SM CLR 14/14 A3013 440 100 500 000/00 RMK AO2
14840KMKG MKG20030725022509207/25/03 02:25:31  5-MIN KMKG 250725Z 00000KT 10SM CLR 14/14 A3013 440 96 500 000/00 RMK AO2
14840KMKG MKG20030725023009207/25/03 02:30:31  5-MIN KMKG 250730Z 00000KT 10SM CLR 14/14 A3013 440 96 500 000/00 RMK AO2
14840KMKG MKG20030725023509207/25/03 02:35:31  5-MIN KMKG 250735Z 00000KT 10SM CLR 14/14 A3013 440 96 500 000/00 RMK AO2
14840KMKG MKG20030725024009207/25/03 02:40:31  5-MIN KMKG 250740Z 00000KT 10SM CLR 15/14 A3013 440 96 600 000/00 RMK AO2
14840KMKG MKG20030725024509207/25/03 02:45:31  5-MIN KMKG 250745Z 00000KT 10SM CLR 15/14 A3013 440 96 600 000/00 RMK AO2
14840KMKG MKG20030725025010907/25/03 02:50:31  5-MIN KMKG 250750Z 00000KT 10SM CLR 15/14 A3013 440 96 600 000/00 RMK AO2 SLP200 T01500144
14840KMKG MKG20030725025510907/25/03 02:55:31  5-MIN KMKG 250755Z 13003KT 10SM CLR 14/13 A3013 440 96 500 130/03 RMK AO2 SLP199 T01390133
14840KMKG MKG20030725030009307/25/03 03:00:31  5-MIN KMKG 250800Z 00000KT 10SM CLR 14/14 A3013 440 100 500 000/00 RMK AO2
14840KMKG MKG20030725030509207/25/03 03:05:31  5-MIN KMKG 250805Z 00000KT 10SM CLR 14/14 A3013 440 96 500 000/00 RMK AO2
14840KMKG MKG20030725031009207/25/03 03:10:31  5-MIN KMKG 250810Z 00000KT 10SM CLR 14/14 A3012 440 96 500 000/00 RMK AO2
14840KMKG MKG20030725031509307/25/03 03:15:31  5-MIN KMKG 250815Z 11003KT 10SM CLR 14/14 A3012 440 100 500 120/03 RMK AO2
14840KMKG MKG20030725032009207/25/03 03:20:31  5-MIN KMKG 250820Z 11003KT 10SM CLR 14/14 A3012 440 96 500 120/03 RMK AO2
14840KMKG MKG20030725032509207/25/03 03:25:31  5-MIN KMKG 250825Z 11004KT 10SM CLR 14/13 A3012 440 96 500 120/04 RMK AO2
14840KMKG MKG20030725033009207/25/03 03:30:31  5-MIN KMKG 250830Z 13004KT 10SM CLR 14/13 A3012 450 96 500 130/04 RMK AO2
14840KMKG MKG20030725033509407/25/03 03:35:31  5-MIN KMKG 250835Z 13004KT 10SM CLR 14/13 A3012 450 96 500 140/04 RMK AO2 $
14840KMKG MKG20030725034009407/25/03 03:40:31  5-MIN KMKG 250840Z 14003KT 10SM CLR 14/13 A3012 450 96 500 140/03 RMK AO2 $
14840KMKG MKG20030725034509507/25/03 03:45:31  5-MIN KMKG 250845Z 14003KT 10SM CLR 13/13 A3012 450 100 400 140/03 RMK AO2 $
14840KMKG MKG20030725035011707/25/03 03:50:31  5-MIN KMKG 250850Z 13005KT 10SM CLR 14/13 A3012 450 96 500 130/05 RMK AO2 SLP197 T01390133 50001 $
14840KMKG MKG20030725035511707/25/03 03:55:31  5-MIN KMKG 250855Z 13004KT 10SM CLR 14/13 A3012 450 96 500 130/04 RMK AO2 SLP197 T01390133 58002 $
14840KMKG MKG20030725040009507/25/03 04:00:31  5-MIN KMKG 250900Z 13004KT 10SM CLR 14/14 A3012 450 100 500 130/04 RMK AO2 $
14840KMKG MKG20030725040509407/25/03 04:05:31  5-MIN KMKG 250905Z 14003KT 10SM CLR 14/13 A3012 450 96 500 140/03 RMK AO2 $
14840KMKG MKG20030725041009407/25/03 04:10:31  5-MIN KMKG 250910Z 14003KT 10SM CLR 14/13 A3012 450 96 500 140/03 RMK AO2 $
14840KMKG MKG20030725041509407/25/03 04:15:31  5-MIN KMKG 250915Z 14003KT 10SM CLR 14/13 A3012 450 96 500 140/03 RMK AO2 $
14840KMKG MKG20030725042009407/25/03 04:20:31  5-MIN KMKG 250920Z 13003KT 10SM CLR 14/13 A3012 450 96 500 140/03 RMK AO2 $
14840KMKG MKG20030725042509407/25/03 04:25:31  5-MIN KMKG 250925Z 13004KT 10SM CLR 14/13 A3012 450 96 500 140/04 RMK AO2 $
14840KMKG MKG20030725043009407/25/03 04:30:31  5-MIN KMKG 250930Z 13003KT 10SM CLR 14/13 A3012 440 96 500 130/03 RMK AO2 $
14840KMKG MKG20030725043509507/25/03 04:35:31  5-MIN KMKG 250935Z 13004KT 10SM CLR 14/14 A3012 440 100 500 140/04 RMK AO2 $
14840KMKG MKG20030725044009507/25/03 04:40:31  5-MIN KMKG 250940Z 14003KT 10SM CLR 14/14 A3013 440 100 400 140/03 RMK AO2 $
14840KMKG MKG20030725044509407/25/03 04:45:31  5-MIN KMKG 250945Z 14004KT 10SM CLR 14/13 A3013 440 96 400 150/04 RMK AO2 $
14840KMKG MKG20030725045011107/25/03 04:50:31  5-MIN KMKG 250950Z 14003KT 10SM CLR 14/13 A3013 440 96 400 140/03 RMK AO2 SLP202 T01390133 $
14840KMKG MKG20030725045511107/25/03 04:55:31  5-MIN KMKG 250955Z 13003KT 10SM CLR 14/13 A3013 440 96 400 140/03 RMK AO2 SLP202 T01390133 $
14840KMKG MKG20030725050009407/25/03 05:00:31  5-MIN KMKG 251000Z 13004KT 10SM CLR 14/13 A3013 430 96 400 130/04 RMK AO2 $
14840KMKG MKG20030725050509407/25/03 05:05:31  5-MIN KMKG 251005Z 14004KT 10SM CLR 14/13 A3014 430 96 400 140/04 RMK AO2 $
14840KMKG MKG20030725051009407/25/03 05:10:31  5-MIN KMKG 251010Z 13004KT 10SM CLR 14/13 A3014 430 96 400 130/04 RMK AO2 $
14840KMKG MKG20030725051509507/25/03 05:15:31  5-MIN KMKG 251015Z 13003KT 10SM CLR 13/13 A3014 430 100 400 130/03 RMK AO2 $
14840KMKG MKG20030725052009507/25/03 05:20:31  5-MIN KMKG 251020Z 13003KT 10SM CLR 13/13 A3014 420 100 400 130/03 RMK AO2 $
14840KMKG MKG20030725052509407/25/03 05:25:31  5-MIN KMKG 251025Z 13003KT 10SM CLR 13/13 A3015 420 96 400 130/03 RMK AO2 $
14840KMKG MKG20030725053009507/25/03 05:30:31  5-MIN KMKG 251030Z 13004KT 10SM CLR 13/13 A3015 420 100 400 130/04 RMK AO2 $
14840KMKG MKG20030725053509407/25/03 05:35:31  5-MIN KMKG 251035Z 14004KT 10SM CLR 13/13 A3015 420 96 400 140/04 RMK AO2 $
14840KMKG MKG20030725054009507/25/03 05:40:31  5-MIN KMKG 251040Z 14003KT 10SM CLR 13/13 A3015 420 100 400 150/03 RMK AO2 $
14840KMKG MKG20030725054509407/25/03 05:45:31  5-MIN KMKG 251045Z 00000KT 10SM CLR 14/13 A3015 420 96 400 000/00 RMK AO2 $
14840KMKG MKG20030725055011107/25/03 05:50:31  5-MIN KMKG 251050Z 00000KT 10SM CLR 14/13 A3015 420 96 400 000/00 RMK AO2 SLP209 T01390133 $
14840KMKG MKG20030725055511107/25/03 05:55:31  5-MIN KMKG 251055Z 12003KT 10SM CLR 14/13 A3015 420 96 400 120/03 RMK AO2 SLP208 T01390133 $
14840KMKG MKG20030725060009407/25/03 06:00:31  5-MIN KMKG 251100Z 10003KT 10SM CLR 14/13 A3015 420 96 400 110/03 RMK AO2 $
14840KMKG MKG20030725060509507/25/03 06:05:31  5-MIN KMKG 251105Z 11003KT 10SM CLR 14/14 A3015 420 100 400 110/03 RMK AO2 $
14840KMKG MKG20030725061009507/25/03 06:10:31  5-MIN KMKG 251110Z 11003KT 10SM CLR 14/14 A3015 420 100 400 120/03 RMK AO2 $
14840KMKG MKG20030725061509407/25/03 06:15:31  5-MIN KMKG 251115Z 13003KT 10SM CLR 14/14 A3015 410 96 500 130/03 RMK AO2 $
14840KMKG MKG20030725062009407/25/03 06:20:31  5-MIN KMKG 251120Z 00000KT 10SM CLR 14/14 A3016 410 96 500 000/00 RMK AO2 $
14840KMKG MKG20030725062509507/25/03 06:25:31  5-MIN KMKG 251125Z 12003KT 10SM CLR 14/14 A3016 410 100 500 130/03 RMK AO2 $
14840KMKG MKG20030725063009507/25/03 06:30:31  5-MIN KMKG 251130Z 12003KT 10SM CLR 14/14 A3016 410 100 500 120/03 RMK AO2 $
14840KMKG MKG20030725063509407/25/03 06:35:31  5-MIN KMKG 251135Z 12003KT 10SM CLR 15/14 A3016 410 96 500 120/03 RMK AO2 $
14840KMKG MKG20030725064009407/25/03 06:40:31  5-MIN KMKG 251140Z 12003KT 10SM CLR 15/14 A3016 410 96 500 120/03 RMK AO2 $
14840KMKG MKG20030725064509407/25/03 06:45:31  5-MIN KMKG 251145Z 00000KT 10SM CLR 15/14 A3016 410 96 500 000/00 RMK AO2 $
14840KMKG MKG20030725065012907/25/03 06:50:31  5-MIN KMKG 251150Z 00000KT 10SM CLR 16/15 A3016 410 96 600 000/00 RMK AO2 SLP212 T01560150 10156 20133 58002 $
14840KMKG MKG20030725065512907/25/03 06:55:31  5-MIN KMKG 251155Z 00000KT 10SM CLR 16/16 A3016 410 96 700 000/00 RMK AO2 SLP212 T01610156 10161 20133 51014 $
14840KMKG MKG20030725070009407/25/03 07:00:31  5-MIN KMKG 251200Z 15003KT 10SM CLR 16/16 A3016 410 96 700 160/03 RMK AO2 $
14840KMKG MKG20030725070509407/25/03 07:05:31  5-MIN KMKG 251205Z 17003KT 10SM CLR 17/16 A3016 410 93 700 180/03 RMK AO2 $
14840KMKG MKG20030725071009407/25/03 07:10:31  5-MIN KMKG 251210Z 17004KT 10SM CLR 17/16 A3016 410 93 700 170/04 RMK AO2 $
14840KMKG MKG20030725071509207/25/03 07:15:31  5-MIN KMKG 251215Z 17004KT 10SM CLR 17/16 A3017 400 93 700 180/04 RMK AO2
14840KMKG MKG20030725072009207/25/03 07:20:31  5-MIN KMKG 251220Z 17004KT 10SM CLR 17/16 A3016 400 90 800 170/04 RMK AO2
14840KMKG MKG20030725072509207/25/03 07:25:31  5-MIN KMKG 251225Z 17004KT 10SM CLR 17/16 A3016 410 90 800 170/04 RMK AO2
14840KMKG MKG20030725073009207/25/03 07:30:31  5-MIN KMKG 251230Z 18004KT 10SM CLR 18/16 A3016 410 90 900 180/04 RMK AO2
14840KMKG MKG20030725073509207/25/03 07:35:31  5-MIN KMKG 251235Z 18003KT 10SM CLR 18/16 A3016 410 90 900 180/03 RMK AO2
14840KMKG MKG20030725074009207/25/03 07:40:31  5-MIN KMKG 251240Z 19004KT 10SM CLR 18/16 A3016 410 87 900 200/04 RMK AO2
14840KMKG MKG20030725074509307/25/03 07:45:31  5-MIN KMKG 251245Z 17005KT 10SM CLR 19/17 A3017 400 87 1000 180/05 RMK AO2
14840KMKG MKG20030725075011007/25/03 07:50:31  5-MIN KMKG 251250Z 18005KT 10SM CLR 19/17 A3017 400 87 1000 190/05 RMK AO2 SLP213 T01890167
14840KMKG MKG20030725075511007/25/03 07:55:31  5-MIN KMKG 251255Z 18006KT 10SM CLR 19/17 A3017 400 84 1100 190/06 RMK AO2 SLP214 T01940167
14840KMKG MKG20030725080009307/25/03 08:00:31  5-MIN KMKG 251300Z 19006KT 10SM CLR 19/17 A3017 400 84 1100 190/06 RMK AO2
14840KMKG MKG20030725080509307/25/03 08:05:31  5-MIN KMKG 251305Z 18006KT 10SM CLR 20/17 A3017 400 84 1100 180/06 RMK AO2
14840KMKG MKG20030725081009307/25/03 08:10:31  5-MIN KMKG 251310Z 18006KT 10SM CLR 21/17 A3017 400 81 1200 180/06 RMK AO2
14840KMKG MKG20030725081509307/25/03 08:15:31  5-MIN KMKG 251315Z 19005KT 10SM CLR 21/17 A3017 400 81 1200 200/05 RMK AO2
14840KMKG MKG20030725082009307/25/03 08:20:31  5-MIN KMKG 251320Z 20007KT 10SM CLR 21/17 A3017 400 78 1200 200/07 RMK AO2
14840KMKG MKG20030725082509307/25/03 08:25:31  5-MIN KMKG 251325Z 19009KT 10SM CLR 21/17 A3017 400 78 1200 190/09 RMK AO2
14840KMKG MKG20030725083009307/25/03 08:30:31  5-MIN KMKG 251330Z 19008KT 10SM CLR 22/17 A3017 400 75 1300 200/08 RMK AO2
14840KMKG MKG20030725083509307/25/03 08:35:31  5-MIN KMKG 251335Z 18009KT 10SM CLR 22/17 A3018 400 75 1300 190/09 RMK AO2
14840KMKG MKG20030725084010907/25/03 08:40:31  5-MIN KMKG 251340Z 20008KT 170V240 10SM CLR 22/17 A3018 390 73 1300 200/08 170V240 RMK AO2
14840KMKG MKG20030725084509307/25/03 08:45:31  5-MIN KMKG 251345Z 20010KT 10SM CLR 22/17 A3018 390 73 1400 210/10 RMK AO2
14840KMKG MKG20030725085011007/25/03 08:50:31  5-MIN KMKG 251350Z 19009KT 10SM CLR 22/17 A3018 390 70 1400 200/09 RMK AO2 SLP217 T02220167
14840KMKG MKG20030725085511007/25/03 08:55:31  5-MIN KMKG 251355Z 20009KT 10SM CLR 22/17 A3018 390 70 1400 210/09 RMK AO2 SLP217 T02220167
14840KMKG MKG20030725090009307/25/03 09:00:31  5-MIN KMKG 251400Z 20010KT 10SM CLR 23/17 A3018 390 68 1400 200/10 RMK AO2
14840KMKG MKG20030725090509307/25/03 09:05:31  5-MIN KMKG 251405Z 20012KT 10SM CLR 23/16 A3018 390 65 1400 210/12 RMK AO2
14840KMKG MKG20030725091009307/25/03 09:10:31  5-MIN KMKG 251410Z 21011KT 10SM CLR 23/17 A3018 390 68 1400 210/11 RMK AO2
14840KMKG MKG20030725091509307/25/03 09:15:31  5-MIN KMKG 251415Z 20010KT 10SM CLR 23/17 A3018 390 66 1500 200/10 RMK AO2
14840KMKG MKG20030725092009907/25/03 09:20:31  5-MIN KMKG 251420Z 21011G16KT 10SM CLR 23/17 A3018 390 66 1500 210/11G16 RMK AO2
14840KMKG MKG20030725092509307/25/03 09:25:31  5-MIN KMKG 251425Z 20013KT 10SM CLR 23/16 A3018 390 63 1500 200/13 RMK AO2
14840KMKG MKG20030725093009307/25/03 09:30:31  5-MIN KMKG 251430Z 20012KT 10SM CLR 23/16 A3018 390 63 1500 200/12 RMK AO2
14840KMKG MKG20030725093509307/25/03 09:35:31  5-MIN KMKG 251435Z 20013KT 10SM CLR 23/16 A3018 390 63 1500 210/13 RMK AO2
14840KMKG MKG20030725094009307/25/03 09:40:31  5-MIN KMKG 251440Z 21014KT 10SM CLR 23/16 A3019 380 63 1500 210/14 RMK AO2
14840KMKG MKG20030725094509907/25/03 09:45:31  5-MIN KMKG 251445Z 21012G17KT 10SM CLR 23/16 A3019 380 63 1500 210/12G17 RMK AO2
14840KMKG MKG20030725095012207/25/03 09:50:31  5-MIN KMKG 251450Z 21013G19KT 10SM CLR 23/16 A3019 380 61 1500 210/13G19 RMK AO2 SLP221 T02330156 51014
14840KMKG MKG20030725095512207/25/03 09:55:31  5-MIN KMKG 251455Z 21013G19KT 10SM CLR 24/16 A3019 380 61 1500 210/13G19 RMK AO2 SLP221 T02390161 53010
14840KMKG MKG20030725100009307/25/03 10:00:31  5-MIN KMKG 251500Z 21014KT 10SM CLR 24/16 A3019 380 61 1500 220/14 RMK AO2
14840KMKG MKG20030725100509307/25/03 10:05:31  5-MIN KMKG 251505Z 21011KT 10SM CLR 24/16 A3019 380 61 1500 210/11 RMK AO2
14840KMKG MKG20030725101009307/25/03 10:10:31  5-MIN KMKG 251510Z 20013KT 10SM CLR 24/17 A3019 380 63 1500 200/13 RMK AO2
14840KMKG MKG20030725101509307/25/03 10:15:31  5-MIN KMKG 251515Z 20014KT 10SM CLR 24/16 A3019 380 61 1500 210/14 RMK AO2
14840KMKG MKG20030725102009907/25/03 10:20:31  5-MIN KMKG 251520Z 20012G18KT 10SM CLR 24/16 A3019 380 59 1600 210/12G18 RMK AO2
14840KMKG MKG20030725102509307/25/03 10:25:31  5-MIN KMKG 251525Z 21013KT 10SM CLR 24/16 A3019 380 61 1500 210/13 RMK AO2
14840KMKG MKG20030725103009307/25/03 10:30:31  5-MIN KMKG 251530Z 21012KT 10SM CLR 24/16 A3019 380 59 1600 210/12 RMK AO2
14840KMKG MKG20030725103509307/25/03 10:35:31  5-MIN KMKG 251535Z 21011KT 10SM CLR 25/16 A3019 380 57 1700 210/11 RMK AO2
14840KMKG MKG20030725104009907/25/03 10:40:31  5-MIN KMKG 251540Z 21013G20KT 10SM CLR 24/16 A3019 380 57 1600 210/13G20 RMK AO2
14840KMKG MKG20030725104510207/25/03 10:45:31  5-MIN KMKG 251545Z 20014G20KT 10SM FEW042 24/16 A3019 380 57 1600 200/14G20 RMK AO2
14840KMKG MKG20030725105011307/25/03 10:50:31  5-MIN KMKG 251550Z 20015KT 10SM FEW042 24/16 A3019 380 57 1600 200/15 RMK AO2 SLP221 T02440156
14840KMKG MKG20030725105511307/25/03 10:55:31  5-MIN KMKG 251555Z 21014KT 10SM FEW042 24/16 A3019 380 59 1600 210/14 RMK AO2 SLP221 T02440161
14840KMKG MKG20030725110009307/25/03 11:00:31  5-MIN KMKG 251600Z 21015KT 10SM CLR 24/16 A3019 380 59 1600 210/15 RMK AO2
14840KMKG MKG20030725110509307/25/03 11:05:31  5-MIN KMKG 251605Z 21016KT 10SM CLR 24/16 A3019 380 57 1600 210/16 RMK AO2
14840KMKG MKG20030725111009307/25/03 11:10:31  5-MIN KMKG 251610Z 21013KT 10SM CLR 24/16 A3019 380 59 1600 220/13 RMK AO2
14840KMKG MKG20030725111509307/25/03 11:15:31  5-MIN KMKG 251615Z 20015KT 10SM CLR 24/16 A3019 390 59 1600 210/15 RMK AO2
14840KMKG MKG20030725112009307/25/03 11:20:31  5-MIN KMKG 251620Z 20015KT 10SM CLR 24/16 A3018 390 59 1600 200/15 RMK AO2
14840KMKG MKG20030725112509307/25/03 11:25:31  5-MIN KMKG 251625Z 20015KT 10SM CLR 24/16 A3019 390 57 1600 210/15 RMK AO2
14840KMKG MKG20030725113009307/25/03 11:30:31  5-MIN KMKG 251630Z 21015KT 10SM CLR 25/16 A3019 390 55 1700 210/15 RMK AO2
14840KMKG MKG20030725113509907/25/03 11:35:31  5-MIN KMKG 251635Z 20017G21KT 10SM CLR 25/16 A3019 390 55 1700 210/17G21 RMK AO2
14840KMKG MKG20030725114009907/25/03 11:40:31  5-MIN KMKG 251640Z 20014G21KT 10SM CLR 25/16 A3019 390 57 1700 200/14G21 RMK AO2
14840KMKG MKG20030725114509907/25/03 11:45:31  5-MIN KMKG 251645Z 20015G20KT 10SM CLR 25/16 A3019 380 55 1700 210/15G20 RMK AO2
14840KMKG MKG20030725115011307/25/03 11:50:31  5-MIN KMKG 251650Z 21013KT 10SM FEW042 26/16 A3019 390 55 1700 210/13 RMK AO2 SLP220 T02560161
14840KMKG MKG20030725115511307/25/03 11:55:31  5-MIN KMKG 251655Z 20016KT 10SM FEW042 25/16 A3018 390 57 1700 200/16 RMK AO2 SLP219 T02500161
14840KMKG MKG20030725120009307/25/03 12:00:31  5-MIN KMKG 251700Z 21014KT 10SM CLR 26/16 A3018 390 55 1700 210/14 RMK AO2
14840KMKG MKG20030725120509307/25/03 12:05:31  5-MIN KMKG 251705Z 21014KT 10SM CLR 25/16 A3018 390 55 1700 210/14 RMK AO2
14840KMKG MKG20030725121009907/25/03 12:10:31  5-MIN KMKG 251710Z 21016G21KT 10SM CLR 25/16 A3018 390 55 1700 210/16G21 RMK AO2
14840KMKG MKG20030725121509907/25/03 12:15:31  5-MIN KMKG 251715Z 20014G21KT 10SM CLR 26/16 A3018 390 53 1700 200/14G21 RMK AO2
14840KMKG MKG20030725122009307/25/03 12:20:31  5-MIN KMKG 251720Z 21015KT 10SM CLR 26/16 A3018 390 55 1700 210/15 RMK AO2
14840KMKG MKG20030725122509307/25/03 12:25:31  5-MIN KMKG 251725Z 21014KT 10SM CLR 26/16 A3018 390 53 1700 210/14 RMK AO2
14840KMKG MKG20030725123009307/25/03 12:30:31  5-MIN KMKG 251730Z 20014KT 10SM CLR 26/16 A3018 390 53 1700 200/14 RMK AO2
14840KMKG MKG20030725123509907/25/03 12:35:31  5-MIN KMKG 251735Z 20013G21KT 10SM CLR 26/16 A3018 390 53 1700 200/13G21 RMK AO2
14840KMKG MKG20030725124009907/25/03 12:40:31  5-MIN KMKG 251740Z 21015G21KT 10SM CLR 26/16 A3018 390 53 1700 210/15G21 RMK AO2
14840KMKG MKG20030725124509907/25/03 12:45:31  5-MIN KMKG 251745Z 20014G20KT 10SM CLR 26/16 A3018 390 53 1700 210/14G20 RMK AO2
14840KMKG MKG20030725125013107/25/03 12:50:31  5-MIN KMKG 251750Z 21015KT 10SM FEW043 25/15 A3018 390 53 1700 210/15 RMK AO2 SLP217 T02500150 10256 20161 53010
14840KMKG MKG20030725125513707/25/03 12:55:31  5-MIN KMKG 251755Z 21015G22KT 10SM FEW043 26/16 A3018 400 53 1700 210/15G22 RMK AO2 SLP216 T02560156 10256 20161 58005
14840KMKG MKG20030725130009907/25/03 13:00:31  5-MIN KMKG 251800Z 21015G22KT 10SM CLR 26/16 A3017 400 53 1700 210/15G22 RMK AO2
14840KMKG MKG20030725130509907/25/03 13:05:31  5-MIN KMKG 251805Z 20016G21KT 10SM CLR 26/16 A3017 400 53 1700 200/16G21 RMK AO2
14840KMKG MKG20030725131009907/25/03 13:10:31  5-MIN KMKG 251810Z 20016G22KT 10SM CLR 26/16 A3017 400 53 1700 200/16G22 RMK AO2
14840KMKG MKG20030725131509907/25/03 13:15:31  5-MIN KMKG 251815Z 22015G22KT 10SM CLR 26/16 A3017 400 53 1700 220/15G22 RMK AO2
14840KMKG MKG20030725132009307/25/03 13:20:31  5-MIN KMKG 251820Z 21016KT 10SM CLR 26/16 A3017 400 53 1800 210/16 RMK AO2
14840KMKG MKG20030725132509907/25/03 13:25:31  5-MIN KMKG 251825Z 20016G23KT 10SM CLR 26/15 A3017 400 51 1800 200/16G23 RMK AO2
14840KMKG MKG20030725133009907/25/03 13:30:31  5-MIN KMKG 251830Z 20018G23KT 10SM CLR 26/15 A3017 400 51 1800 200/18G23 RMK AO2
14840KMKG MKG20030725133509907/25/03 13:35:31  5-MIN KMKG 251835Z 20015G23KT 10SM CLR 26/15 A3017 400 50 1800 210/15G23 RMK AO2
14840KMKG MKG20030725134009907/25/03 13:40:31  5-MIN KMKG 251840Z 20017G21KT 10SM CLR 26/15 A3017 400 51 1800 210/17G21 RMK AO2
14840KMKG MKG20030725134509307/25/03 13:45:31  5-MIN KMKG 251845Z 20019KT 10SM CLR 26/15 A3017 400 51 1800 210/19 RMK AO2
14840KMKG MKG20030725135011007/25/03 13:50:31  5-MIN KMKG 251850Z 21017KT 10SM CLR 26/15 A3017 400 51 1800 210/17 RMK AO2 SLP213 T02560150
14840KMKG MKG20030725135511907/25/03 13:55:31  5-MIN KMKG 251855Z 20018G23KT 10SM FEW043 26/15 A3016 410 51 1800 210/18G23 RMK AO2 SLP213 T02560150
14840KMKG MKG20030725140009907/25/03 14:00:31  5-MIN KMKG 251900Z 20017G23KT 10SM CLR 26/15 A3017 400 51 1800 200/17G23 RMK AO2
14840KMKG MKG20030725140509907/25/03 14:05:31  5-MIN KMKG 251905Z 20017G22KT 10SM CLR 26/15 A3017 400 50 1800 200/17G22 RMK AO2
14840KMKG MKG20030725141009907/25/03 14:10:31  5-MIN KMKG 251910Z 20017G21KT 10SM CLR 26/15 A3017 400 50 1800 200/17G21 RMK AO2
14840KMKG MKG20030725141509907/25/03 14:15:31  5-MIN KMKG 251915Z 20017G23KT 10SM CLR 26/15 A3016 410 51 1800 210/17G23 RMK AO2
14840KMKG MKG20030725142009907/25/03 14:20:31  5-MIN KMKG 251920Z 19015G23KT 10SM CLR 26/15 A3016 410 51 1800 200/15G23 RMK AO2
14840KMKG MKG20030725142509907/25/03 14:25:31  5-MIN KMKG 251925Z 21017G21KT 10SM CLR 26/15 A3016 410 50 1800 210/17G21 RMK AO2
14840KMKG MKG20030725143009907/25/03 14:30:31  5-MIN KMKG 251930Z 20015G20KT 10SM CLR 26/15 A3016 410 50 1800 210/15G20 RMK AO2
14840KMKG MKG20030725143509907/25/03 14:35:31  5-MIN KMKG 251935Z 20015G22KT 10SM CLR 26/15 A3016 410 50 1800 210/15G22 RMK AO2
14840KMKG MKG20030725144009907/25/03 14:40:31  5-MIN KMKG 251940Z 19012G22KT 10SM CLR 26/16 A3016 410 51 1800 190/12G22 RMK AO2
14840KMKG MKG20030725144510407/25/03 14:45:31  5-MIN KMKG 251945Z AUTO 19015G22KT 10SM CLR 26/16 A3016 410 51 1800 200/15G22 RMK AO2
14840KMKG MKG20030725145011607/25/03 14:50:31  5-MIN KMKG 251950Z 19016G22KT 10SM CLR 26/15 A3015 420 50 1800 200/16G22 RMK AO2 SLP209 T02610150
14840KMKG MKG20030725145511607/25/03 14:55:31  5-MIN KMKG 251955Z 20017G22KT 10SM CLR 26/15 A3015 420 50 1800 200/17G22 RMK AO2 SLP207 T02610150
14840KMKG MKG20030725150009907/25/03 15:00:31  5-MIN KMKG 252000Z 20018G23KT 10SM CLR 26/14 A3015 420 48 1800 200/18G23 RMK AO2
14840KMKG MKG20030725150509907/25/03 15:05:31  5-MIN KMKG 252005Z 20016G23KT 10SM CLR 26/14 A3014 420 48 1800 210/16G23 RMK AO2
14840KMKG MKG20030725151010207/25/03 15:10:31  5-MIN KMKG 252010Z 19016G21KT 10SM FEW110 26/15 A3014 430 50 1800 200/16G21 RMK AO2
14840KMKG MKG20030725151510207/25/03 15:15:31  5-MIN KMKG 252015Z 19015G23KT 10SM FEW110 26/14 A3013 430 49 1800 200/15G23 RMK AO2
14840KMKG MKG20030725152010207/25/03 15:20:31  5-MIN KMKG 252020Z 19015G23KT 10SM FEW110 26/15 A3013 440 50 1900 200/15G23 RMK AO2
14840KMKG MKG20030725152510207/25/03 15:25:31  5-MIN KMKG 252025Z 19016G23KT 10SM FEW110 26/15 A3013 440 50 1900 200/16G23 RMK AO2
14840KMKG MKG20030725153010207/25/03 15:30:31  5-MIN KMKG 252030Z 19015G23KT 10SM FEW110 26/15 A3013 440 50 1900 200/15G23 RMK AO2
14840KMKG MKG20030725153510207/25/03 15:35:31  5-MIN KMKG 252035Z 19016G23KT 10SM FEW110 26/15 A3013 440 51 1800 190/16G23 RMK AO2
14840KMKG MKG20030725154010207/25/03 15:40:31  5-MIN KMKG 252040Z 19016G21KT 10SM FEW110 25/14 A3013 440 51 1700 200/16G21 RMK AO2
14840KMKG MKG20030725154509607/25/03 15:45:31  5-MIN KMKG 252045Z 19016KT 10SM FEW110 26/14 A3012 440 49 1800 190/16 RMK AO2
14840KMKG MKG20030725155012507/25/03 15:50:31  5-MIN KMKG 252050Z 19015G22KT 10SM FEW110 26/15 A3012 450 50 1900 190/15G22 RMK AO2 SLP197 T02610150 58005
14840KMKG MKG20030725155512507/25/03 15:55:31  5-MIN KMKG 252055Z 19018G23KT 10SM FEW110 26/14 A3012 450 49 1800 200/18G23 RMK AO2 SLP197 T02560144 58019
14840KMKG MKG20030725160009907/25/03 16:00:31  5-MIN KMKG 252100Z 19015G23KT 10SM CLR 26/14 A3012 450 49 1800 190/15G23 RMK AO2
14840KMKG MKG20030725160509307/25/03 16:05:31  5-MIN KMKG 252105Z 18015KT 10SM CLR 26/14 A3011 450 49 1800 190/15 RMK AO2
14840KMKG MKG20030725161009907/25/03 16:10:31  5-MIN KMKG 252110Z 20013G22KT 10SM CLR 25/14 A3012 450 51 1800 200/13G22 RMK AO2
14840KMKG MKG20030725161510207/25/03 16:15:31  5-MIN KMKG 252115Z 19018G22KT 10SM FEW120 26/14 A3012 450 49 1800 200/18G22 RMK AO2
14840KMKG MKG20030725162010207/25/03 16:20:31  5-MIN KMKG 252120Z 19015G21KT 10SM FEW120 26/14 A3012 450 49 1800 200/15G21 RMK AO2
14840KMKG MKG20030725162509607/25/03 16:25:31  5-MIN KMKG 252125Z 20014KT 10SM FEW120 26/15 A3012 450 51 1800 200/14 RMK AO2
14840KMKG MKG20030725163010407/25/03 16:30:31  5-MIN KMKG 252130Z 19014G20KT 10SM FEW120 26/14 A3012 450 49 1800 200/14G20 RMK AO2 $
14840KMKG MKG20030725163510407/25/03 16:35:31  5-MIN KMKG 252135Z 18016G20KT 10SM FEW120 26/14 A3012 450 49 1800 190/16G20 RMK AO2 $
14840KMKG MKG20030725164009807/25/03 16:40:31  5-MIN KMKG 252140Z 19014KT 10SM FEW120 26/14 A3012 450 49 1800 200/14 RMK AO2 $
14840KMKG MKG20030725164509807/25/03 16:45:31  5-MIN KMKG 252145Z 19016KT 10SM FEW120 26/14 A3011 450 48 1900 190/16 RMK AO2 $
14840KMKG MKG20030725165012107/25/03 16:50:31  5-MIN KMKG 252150Z 19016G20KT 10SM FEW120 26/14 A3011 450 49 1800 190/16G20 RMK AO2 SLP194 T02560144 $
14840KMKG MKG20030725165512107/25/03 16:55:31  5-MIN KMKG 252155Z 19014G20KT 10SM FEW120 26/14 A3011 450 48 1900 190/14G20 RMK AO2 SLP194 T02610144 $
14840KMKG MKG20030725170009507/25/03 17:00:31  5-MIN KMKG 252200Z 19015KT 10SM CLR 26/14 A3011 450 48 1900 190/15 RMK AO2 $
14840KMKG MKG20030725170510107/25/03 17:05:31  5-MIN KMKG 252205Z 19014G20KT 10SM CLR 26/14 A3011 450 48 1900 200/14G20 RMK AO2 $
14840KMKG MKG20030725171010407/25/03 17:10:31  5-MIN KMKG 252210Z 19014G21KT 10SM FEW110 26/14 A3012 450 48 1900 200/14G21 RMK AO2 $
14840KMKG MKG20030725171510407/25/03 17:15:31  5-MIN KMKG 252215Z 20014G21KT 10SM FEW110 26/15 A3012 450 50 1900 200/14G21 RMK AO2 $
14840KMKG MKG20030725172009807/25/03 17:20:31  5-MIN KMKG 252220Z 20013KT 10SM FEW110 26/15 A3012 450 50 1900 200/13 RMK AO2 $
14840KMKG MKG20030725172510107/25/03 17:25:31  5-MIN KMKG 252225Z 19015G20KT 10SM CLR 26/14 A3011 450 48 1900 190/15G20 RMK AO2 $
14840KMKG MKG20030725173010107/25/03 17:30:31  5-MIN KMKG 252230Z 19015G20KT 10SM CLR 26/14 A3012 450 48 1900 190/15G20 RMK AO2 $
14840KMKG MKG20030725173509507/25/03 17:35:31  5-MIN KMKG 252235Z 19016KT 10SM CLR 26/14 A3011 450 48 1900 200/16 RMK AO2 $
14840KMKG MKG20030725174009507/25/03 17:40:31  5-MIN KMKG 252240Z 20014KT 10SM CLR 26/15 A3011 450 50 1900 200/14 RMK AO2 $
14840KMKG MKG20030725174510107/25/03 17:45:31  5-MIN KMKG 252245Z 20016G20KT 10SM CLR 26/15 A3011 450 50 1900 200/16G20 RMK AO2 $
14840KMKG MKG20030725175011807/25/03 17:50:31  5-MIN KMKG 252250Z 20014G20KT 10SM CLR 26/15 A3011 460 51 1800 200/14G20 RMK AO2 SLP193 T02560150 $
14840KMKG MKG20030725175511207/25/03 17:55:31  5-MIN KMKG 252255Z 20014KT 10SM CLR 26/15 A3011 460 51 1800 210/14 RMK AO2 SLP193 T02560150 $
14840KMKG MKG20030725180010107/25/03 18:00:31  5-MIN KMKG 252300Z 19016G20KT 10SM CLR 26/15 A3010 460 51 1800 190/16G20 RMK AO2 $
14840KMKG MKG20030725180510107/25/03 18:05:31  5-MIN KMKG 252305Z 19013G20KT 10SM CLR 25/15 A3010 460 53 1800 200/13G20 RMK AO2 $
14840KMKG MKG20030725181009507/25/03 18:10:31  5-MIN KMKG 252310Z 19014KT 10SM CLR 25/15 A3011 460 53 1800 200/14 RMK AO2 $
14840KMKG MKG20030725181510107/25/03 18:15:31  5-MIN KMKG 252315Z 19012G19KT 10SM CLR 25/14 A3011 460 51 1800 200/12G19 RMK AO2 $
14840KMKG MKG20030725182009507/25/03 18:20:31  5-MIN KMKG 252320Z 19013KT 10SM CLR 24/15 A3010 460 55 1700 190/13 RMK AO2 $
14840KMKG MKG20030725182509507/25/03 18:25:31  5-MIN KMKG 252325Z 19014KT 10SM CLR 24/15 A3010 460 55 1700 190/14 RMK AO2 $
14840KMKG MKG20030725183010107/25/03 18:30:31  5-MIN KMKG 252330Z 19013G19KT 10SM CLR 24/15 A3010 470 55 1700 190/13G19 RMK AO2 $
14840KMKG MKG20030725183509507/25/03 18:35:31  5-MIN KMKG 252335Z 19013KT 10SM CLR 24/15 A3010 470 55 1700 190/13 RMK AO2 $
14840KMKG MKG20030725184009507/25/03 18:40:31  5-MIN KMKG 252340Z 19012KT 10SM CLR 24/15 A3010 460 55 1700 200/12 RMK AO2 $
14840KMKG MKG20030725184509507/25/03 18:45:31  5-MIN KMKG 252345Z 19012KT 10SM CLR 24/15 A3010 470 55 1700 190/12 RMK AO2 $
14840KMKG MKG20030725185013007/25/03 18:50:31  5-MIN KMKG 252350Z 19012KT 10SM CLR 24/15 A3010 470 57 1600 190/12 RMK AO2 SLP190 T02390150 10267 20239 58019 $
14840KMKG MKG20030725185513007/25/03 18:55:31  5-MIN KMKG 252355Z 19013KT 10SM CLR 24/15 A3010 470 55 1700 190/13 RMK AO2 SLP189 T02440150 10267 20239 58008 $
14840KMKG MKG20030725190009507/25/03 19:00:31  5-MIN KMKG 260000Z 18012KT 10SM CLR 24/15 A3009 470 55 1700 190/12 RMK AO2 $
14840KMKG MKG20030725190509507/25/03 19:05:31  5-MIN KMKG 260005Z 19012KT 10SM CLR 24/15 A3009 470 57 1700 190/12 RMK AO2 $
14840KMKG MKG20030725191009507/25/03 19:10:31  5-MIN KMKG 260010Z 19013KT 10SM CLR 24/15 A3009 470 55 1700 190/13 RMK AO2 $
14840KMKG MKG20030725191509507/25/03 19:15:31  5-MIN KMKG 260015Z 19012KT 10SM CLR 24/15 A3009 470 57 1700 190/12 RMK AO2 $
14840KMKG MKG20030725192009507/25/03 19:20:31  5-MIN KMKG 260020Z 19013KT 10SM CLR 24/15 A3009 470 55 1700 200/13 RMK AO2 $
14840KMKG MKG20030725192509507/25/03 19:25:31  5-MIN KMKG 260025Z 19013KT 10SM CLR 24/14 A3009 470 55 1700 190/13 RMK AO2 $
14840KMKG MKG20030725193009507/25/03 19:30:31  5-MIN KMKG 260030Z 20013KT 10SM CLR 24/14 A3009 470 55 1600 200/13 RMK AO2 $
14840KMKG MKG20030725193509507/25/03 19:35:31  5-MIN KMKG 260035Z 19012KT 10SM CLR 24/15 A3010 470 57 1600 200/12 RMK AO2 $
14840KMKG MKG20030725194009507/25/03 19:40:31  5-MIN KMKG 260040Z 19012KT 10SM CLR 24/15 A3010 470 57 1600 200/12 RMK AO2 $
14840KMKG MKG20030725194509507/25/03 19:45:31  5-MIN KMKG 260045Z 19013KT 10SM CLR 24/15 A3010 460 57 1600 190/13 RMK AO2 $
14840KMKG MKG20030725195011807/25/03 19:50:31  5-MIN KMKG 260050Z 19014G20KT 10SM CLR 24/15 A3010 460 57 1600 190/14G20 RMK AO2 SLP190 T02390150 $
14840KMKG MKG20030725195511807/25/03 19:55:31  5-MIN KMKG 260055Z 19012G20KT 10SM CLR 24/15 A3010 460 57 1600 200/12G20 RMK AO2 SLP190 T02390150 $
14840KMKG MKG20030725200009507/25/03 20:00:31  5-MIN KMKG 260100Z 19013KT 10SM CLR 24/15 A3010 460 57 1600 190/13 RMK AO2 $
14840KMKG MKG20030725200509507/25/03 20:05:31  5-MIN KMKG 260105Z 19013KT 10SM CLR 24/15 A3010 470 57 1600 200/13 RMK AO2 $
14840KMKG MKG20030725201009507/25/03 20:10:31  5-MIN KMKG 260110Z 19013KT 10SM CLR 24/15 A3010 460 57 1600 200/13 RMK AO2 $
14840KMKG MKG20030725201509507/25/03 20:15:31  5-MIN KMKG 260115Z 19013KT 10SM CLR 24/16 A3010 460 59 1600 200/13 RMK AO2 $
14840KMKG MKG20030725202010107/25/03 20:20:31  5-MIN KMKG 260120Z 19013G18KT 10SM CLR 23/16 A3010 460 61 1600 200/13G18 RMK AO2 $
14840KMKG MKG20030725202510107/25/03 20:25:31  5-MIN KMKG 260125Z 19015G18KT 10SM CLR 23/16 A3010 460 61 1600 200/15G18 RMK AO2 $
14840KMKG MKG20030725203009507/25/03 20:30:31  5-MIN KMKG 260130Z 19011KT 10SM CLR 23/16 A3010 460 61 1600 200/11 RMK AO2 $
14840KMKG MKG20030725203509507/25/03 20:35:31  5-MIN KMKG 260135Z 19012KT 10SM CLR 23/16 A3011 460 61 1600 190/12 RMK AO2 $
14840KMKG MKG20030725204009507/25/03 20:40:31  5-MIN KMKG 260140Z 19012KT 10SM CLR 23/16 A3011 450 63 1600 200/12 RMK AO2 $
14840KMKG MKG20030725204509507/25/03 20:45:31  5-MIN KMKG 260145Z 19013KT 10SM CLR 23/16 A3011 450 63 1600 200/13 RMK AO2 $
14840KMKG MKG20030725205011207/25/03 20:50:31  5-MIN KMKG 260150Z 19012KT 10SM CLR 23/16 A3011 450 63 1600 200/12 RMK AO2 SLP194 T02330161 $
14840KMKG MKG20030725205511207/25/03 20:55:31  5-MIN KMKG 260155Z 19012KT 10SM CLR 23/16 A3012 450 63 1600 200/12 RMK AO2 SLP195 T02330161 $
14840KMKG MKG20030725210009507/25/03 21:00:31  5-MIN KMKG 260200Z 19012KT 10SM CLR 23/16 A3012 450 63 1600 200/12 RMK AO2 $
14840KMKG MKG20030725210509507/25/03 21:05:31  5-MIN KMKG 260205Z 19012KT 10SM CLR 23/16 A3012 450 63 1600 200/12 RMK AO2 $
14840KMKG MKG20030725211009507/25/03 21:10:31  5-MIN KMKG 260210Z 19013KT 10SM CLR 23/16 A3012 450 65 1500 200/13 RMK AO2 $
14840KMKG MKG20030725211509507/25/03 21:15:31  5-MIN KMKG 260215Z 19010KT 10SM CLR 23/16 A3012 450 65 1500 190/10 RMK AO2 $
14840KMKG MKG20030725212009507/25/03 21:20:31  5-MIN KMKG 260220Z 19012KT 10SM CLR 23/17 A3012 450 68 1500 200/12 RMK AO2 $
14840KMKG MKG20030725212509507/25/03 21:25:31  5-MIN KMKG 260225Z 19011KT 10SM CLR 23/17 A3013 440 68 1500 200/11 RMK AO2 $
14840KMKG MKG20030725213009507/25/03 21:30:31  5-MIN KMKG 260230Z 20012KT 10SM CLR 23/17 A3013 440 68 1500 200/12 RMK AO2 $
14840KMKG MKG20030725213509507/25/03 21:35:31  5-MIN KMKG 260235Z 20013KT 10SM CLR 23/17 A3013 440 68 1500 200/13 RMK AO2 $
14840KMKG MKG20030725214009507/25/03 21:40:31  5-MIN KMKG 260240Z 19011KT 10SM CLR 23/17 A3013 440 68 1500 200/11 RMK AO2 $
14840KMKG MKG20030725214509507/25/03 21:45:31  5-MIN KMKG 260245Z 20011KT 10SM CLR 23/17 A3013 430 66 1500 200/11 RMK AO2 $
14840KMKG MKG20030725215011807/25/03 21:50:31  5-MIN KMKG 260250Z 20012KT 10SM CLR 23/17 A3013 430 66 1500 200/12 RMK AO2 SLP201 T02330167 58008 $
14840KMKG MKG20030725215511807/25/03 21:55:31  5-MIN KMKG 260255Z 20013KT 10SM CLR 23/17 A3013 430 66 1500 200/13 RMK AO2 SLP201 T02330167 53012 $
14840KMKG MKG20030725220009507/25/03 22:00:31  5-MIN KMKG 260300Z 20012KT 10SM CLR 23/17 A3013 430 68 1500 200/12 RMK AO2 $
14840KMKG MKG20030725220509507/25/03 22:05:31  5-MIN KMKG 260305Z 20011KT 10SM CLR 23/17 A3013 430 68 1500 200/11 RMK AO2 $
14840KMKG MKG20030725221009507/25/03 22:10:31  5-MIN KMKG 260310Z 19012KT 10SM CLR 23/17 A3013 430 68 1500 190/12 RMK AO2 $
14840KMKG MKG20030725221509507/25/03 22:15:31  5-MIN KMKG 260315Z 19011KT 10SM CLR 23/17 A3014 430 68 1500 200/11 RMK AO2 $
14840KMKG MKG20030725222009507/25/03 22:20:31  5-MIN KMKG 260320Z 19012KT 10SM CLR 23/17 A3014 430 70 1500 200/12 RMK AO2 $
14840KMKG MKG20030725222510107/25/03 22:25:31  5-MIN KMKG 260325Z 19012G18KT 10SM CLR 23/17 A3014 430 70 1500 200/12G18 RMK AO2 $
14840KMKG MKG20030725223009507/25/03 22:30:31  5-MIN KMKG 260330Z 20013KT 10SM CLR 23/17 A3014 430 70 1500 200/13 RMK AO2 $
14840KMKG MKG20030725223509507/25/03 22:35:31  5-MIN KMKG 260335Z 20011KT 10SM CLR 23/17 A3013 430 70 1500 200/11 RMK AO2 $
14840KMKG MKG20030725224009507/25/03 22:40:31  5-MIN KMKG 260340Z 19012KT 10SM CLR 23/17 A3013 430 70 1500 200/12 RMK AO2 $
14840KMKG MKG20030725224509507/25/03 22:45:31  5-MIN KMKG 260345Z 19011KT 10SM CLR 23/17 A3013 440 70 1500 200/11 RMK AO2 $
14840KMKG MKG20030725225011207/25/03 22:50:31  5-MIN KMKG 260350Z 19013KT 10SM CLR 23/17 A3013 440 70 1500 200/13 RMK AO2 SLP200 T02280172 $
14840KMKG MKG20030725225511207/25/03 22:55:31  5-MIN KMKG 260355Z 20013KT 10SM CLR 23/17 A3013 440 70 1500 200/13 RMK AO2 SLP199 T02280172 $
14840KMKG MKG20030725230009507/25/03 23:00:31  5-MIN KMKG 260400Z 19013KT 10SM CLR 23/17 A3012 440 68 1600 190/13 RMK AO2 $
14840KMKG MKG20030725230509507/25/03 23:05:31  5-MIN KMKG 260405Z 19013KT 10SM CLR 23/17 A3012 440 68 1600 190/13 RMK AO2 $
14840KMKG MKG20030725231009507/25/03 23:10:31  5-MIN KMKG 260410Z 19011KT 10SM CLR 23/17 A3013 440 68 1600 190/11 RMK AO2 $
14840KMKG MKG20030725231509507/25/03 23:15:31  5-MIN KMKG 260415Z 19012KT 10SM CLR 23/17 A3013 440 68 1500 200/12 RMK AO2 $
14840KMKG MKG20030725232010107/25/03 23:20:31  5-MIN KMKG 260420Z 18013G18KT 10SM CLR 23/17 A3013 440 66 1500 180/13G18 RMK AO2 $
14840KMKG MKG20030725232510107/25/03 23:25:31  5-MIN KMKG 260425Z 19012G18KT 10SM CLR 23/17 A3013 440 68 1500 190/12G18 RMK AO2 $
14840KMKG MKG20030725233009507/25/03 23:30:31  5-MIN KMKG 260430Z 19013KT 10SM CLR 23/17 A3013 440 68 1500 200/13 RMK AO2 $
14840KMKG MKG20030725233509507/25/03 23:35:31  5-MIN KMKG 260435Z 18013KT 10SM CLR 23/17 A3013 440 68 1600 180/13 RMK AO2 $
14840KMKG MKG20030725234009507/25/03 23:40:31  5-MIN KMKG 260440Z 19011KT 10SM CLR 23/17 A3012 440 68 1600 190/11 RMK AO2 $
14840KMKG MKG20030725234510107/25/03 23:45:31  5-MIN KMKG 260445Z 19014G19KT 10SM CLR 23/17 A3012 440 68 1600 190/14G19 RMK AO2 $
14840KMKG MKG20030725235012807/25/03 23:50:31  5-MIN KMKG 260450Z 19014G19KT 10SM CLR 23/17 A3013 440 68 1600 200/14G19 RMK AO2 SLP197 T02330172 402670133 $
14840KMKG MKG20030725235512807/25/03 23:55:31  5-MIN KMKG 260455Z 19012G19KT 10SM CLR 23/17 A3013 440 68 1500 200/12G19 RMK AO2 SLP198 T02330172 402670133 $
14840KMKG MKG20030726000009507/26/03 00:00:32  5-MIN KMKG 260500Z 19015KT 10SM CLR 23/17 A3013 440 68 1500 200/15 RMK AO2 $
14840KMKG MKG20030726000509507/26/03 00:05:31  5-MIN KMKG 260505Z 19014KT 10SM CLR 23/17 A3013 440 70 1500 190/14 RMK AO2 $
14840KMKG MKG20030726001009507/26/03 00:10:31  5-MIN KMKG 260510Z 19013KT 10SM CLR 23/17 A3013 440 70 1500 200/13 RMK AO2 $
14840KMKG MKG20030726001509507/26/03 00:15:31  5-MIN KMKG 260515Z 20014KT 10SM CLR 23/17 A3013 440 70 1500 200/14 RMK AO2 $
14840KMKG MKG20030726002009507/26/03 00:20:31  5-MIN KMKG 260520Z 19010KT 10SM CLR 23/18 A3013 440 73 1500 200/10 RMK AO2 $
14840KMKG MKG20030726002510107/26/03 00:25:31  5-MIN KMKG 260525Z 19012G18KT 10SM CLR 23/18 A3012 440 73 1500 200/12G18 RMK AO2 $
14840KMKG MKG20030726003009507/26/03 00:30:31  5-MIN KMKG 260530Z 19014KT 10SM CLR 23/18 A3012 450 73 1500 190/14 RMK AO2 $
14840KMKG MKG20030726003509507/26/03 00:35:31  5-MIN KMKG 260535Z 19011KT 10SM CLR 23/18 A3012 450 73 1500 190/11 RMK AO2 $
14840KMKG MKG20030726004009507/26/03 00:40:31  5-MIN KMKG 260540Z 19012KT 10SM CLR 23/18 A3012 450 73 1500 190/12 RMK AO2 $
14840KMKG MKG20030726004509807/26/03 00:45:31  5-MIN KMKG 260545Z 19012KT 10SM FEW100 23/18 A3012 450 73 1500 190/12 RMK AO2 $
14840KMKG MKG20030726005014007/26/03 00:50:31  5-MIN KMKG 260550Z 19011KT 10SM SCT085 SCT100 23/18 A3012 450 73 1500 200/11 RMK AO2 SLP195 T02280178 10244 20228 53012 $
14840KMKG MKG20030726005514007/26/03 00:55:31  5-MIN KMKG 260555Z 19013KT 10SM SCT080 BKN100 23/18 A3011 450 73 1500 190/13 RMK AO2 SLP193 T02280178 10244 20228 58006 $
14840KMKG MKG20030726010012307/26/03 01:00:31  5-MIN KMKG 260600Z 20013KT 10SM -RA BKN070 BKN100 22/18 A3011 450 75 1400 200/13 RMK AO2 RAB0558 P0000 $
14840KMKG MKG20030726010512307/26/03 01:05:31  5-MIN KMKG 260605Z 19015KT 10SM -RA BKN060 BKN100 22/18 A3010 460 75 1400 190/15 RMK AO2 RAB0558 P0000 $
14840KMKG MKG20030726011012307/26/03 01:10:31  5-MIN KMKG 260610Z 20014KT 10SM -RA BKN060 OVC100 22/18 A3012 450 81 1400 200/14 RMK AO2 RAB0558 P0000 $
14840KMKG MKG20030726011511607/26/03 01:15:31  5-MIN KMKG 260615Z 19012KT 10SM -RA OVC065 22/18 A3011 450 81 1400 190/12 RMK AO2 RAB0558 P0000 $
14840KMKG MKG20030726012012307/26/03 01:20:31  5-MIN KMKG 260620Z 19012KT 10SM -RA BKN065 OVC085 22/18 A3011 460 81 1400 190/12 RMK AO2 RAB0558 P0000 $
14840KMKG MKG20030726012511607/26/03 01:25:31  5-MIN KMKG 260625Z 18014KT 10SM -RA BKN055 22/18 A3011 460 81 1400 190/14 RMK AO2 RAB0558 P0000 $
14840KMKG MKG20030726013011607/26/03 01:30:31  5-MIN KMKG 260630Z 19012KT 10SM -RA BKN065 22/18 A3011 460 81 1400 190/12 RMK AO2 RAB0558 P0000 $
14840KMKG MKG20030726013511507/26/03 01:35:31  5-MIN KMKG 260635Z 19011KT 10SM BKN075 22/18 A3011 460 81 1400 190/11 RMK AO2 RAB0558E35 P0000 $
14840KMKG MKG20030726014011507/26/03 01:40:31  5-MIN KMKG 260640Z 19010KT 10SM BKN075 22/18 A3011 460 81 1400 190/10 RMK AO2 RAB0558E35 P0000 $
14840KMKG MKG20030726014511507/26/03 01:45:31  5-MIN KMKG 260645Z 19011KT 10SM SCT075 22/18 A3010 460 81 1400 190/11 RMK AO2 RAB0558E35 P0000 $
14840KMKG MKG20030726015013207/26/03 01:50:31  5-MIN KMKG 260650Z 19012KT 10SM FEW075 22/18 A3010 460 81 1400 190/12 RMK AO2 RAB0558E35 SLP191 P0000 T02170183 $
14840KMKG MKG20030726015513207/26/03 01:55:31  5-MIN KMKG 260655Z 19014KT 10SM FEW095 22/18 A3010 460 81 1400 190/14 RMK AO2 RAB0558E35 SLP190 P0000 T02170183 $
14840KMKG MKG20030726020009807/26/03 02:00:31  5-MIN KMKG 260700Z 19011KT 10SM FEW085 22/18 A3011 460 81 1400 200/11 RMK AO2 $
14840KMKG MKG20030726020509507/26/03 02:05:31  5-MIN KMKG 260705Z 19011KT 10SM CLR 22/18 A3010 460 81 1400 190/11 RMK AO2 $
14840KMKG MKG20030726021010107/26/03 02:10:31  5-MIN KMKG 260710Z 20013G18KT 10SM CLR 22/18 A3011 460 81 1400 200/13G18 RMK AO2 $
14840KMKG MKG20030726021510107/26/03 02:15:31  5-MIN KMKG 260715Z 19011G18KT 10SM CLR 22/18 A3010 460 78 1400 190/11G18 RMK AO2 $
14840KMKG MKG20030726022009507/26/03 02:20:31  5-MIN KMKG 260720Z 19012KT 10SM CLR 22/18 A3010 460 78 1400 190/12 RMK AO2 $
14840KMKG MKG20030726022509507/26/03 02:25:31  5-MIN KMKG 260725Z 19014KT 10SM CLR 22/18 A3010 460 78 1500 190/14 RMK AO2 $
14840KMKG MKG20030726023009507/26/03 02:30:31  5-MIN KMKG 260730Z 19011KT 10SM CLR 22/18 A3010 460 75 1500 190/11 RMK AO2 $
14840KMKG MKG20030726023509507/26/03 02:35:31  5-MIN KMKG 260735Z 20014KT 10SM CLR 22/18 A3010 470 75 1500 200/14 RMK AO2 $
14840KMKG MKG20030726024009507/26/03 02:40:31  5-MIN KMKG 260740Z 19012KT 10SM CLR 22/18 A3010 470 75 1500 190/12 RMK AO2 $
14840KMKG MKG20030726024509407/26/03 02:45:31  5-MIN KMKG 260745Z 19012KT 9SM CLR 22/18 A3010 470 78 1500 200/12 RMK AO2 $
14840KMKG MKG20030726025011707/26/03 02:50:31  5-MIN KMKG 260750Z 20012G18KT 9SM CLR 22/18 A3010 470 75 1500 200/12G18 RMK AO2 SLP188 T02220178 $
14840KMKG MKG20030726025511707/26/03 02:55:31  5-MIN KMKG 260755Z 20013G19KT 9SM CLR 22/18 A3010 470 75 1500 200/13G19 RMK AO2 SLP188 T02220178 $
14840KMKG MKG20030726030010007/26/03 03:00:31  5-MIN KMKG 260800Z 20011G19KT 9SM CLR 22/18 A3010 460 75 1500 200/11G19 RMK AO2 $
14840KMKG MKG20030726030509407/26/03 03:05:31  5-MIN KMKG 260805Z 19011KT 9SM CLR 22/18 A3010 460 75 1500 190/11 RMK AO2 $
14840KMKG MKG20030726031009407/26/03 03:10:31  5-MIN KMKG 260810Z 19011KT 9SM CLR 22/18 A3010 460 75 1400 190/11 RMK AO2 $
14840KMKG MKG20030726031509407/26/03 03:15:31  5-MIN KMKG 260815Z 19010KT 9SM CLR 22/18 A3010 460 75 1400 190/10 RMK AO2 $
14840KMKG MKG20030726032009407/26/03 03:20:31  5-MIN KMKG 260820Z 19009KT 9SM CLR 22/18 A3010 460 78 1400 190/09 RMK AO2 $
14840KMKG MKG20030726032509407/26/03 03:25:31  5-MIN KMKG 260825Z 19010KT 8SM CLR 22/18 A3010 460 75 1400 190/10 RMK AO2 $
14840KMKG MKG20030726033009407/26/03 03:30:31  5-MIN KMKG 260830Z 19011KT 9SM CLR 22/18 A3010 460 78 1400 190/11 RMK AO2 $
14840KMKG MKG20030726033509407/26/03 03:35:31  5-MIN KMKG 260835Z 19011KT 9SM CLR 22/18 A3010 460 78 1400 190/11 RMK AO2 $
14840KMKG MKG20030726034009407/26/03 03:40:31  5-MIN KMKG 260840Z 19011KT 9SM CLR 22/18 A3010 460 78 1400 190/11 RMK AO2 $
14840KMKG MKG20030726034509407/26/03 03:45:31  5-MIN KMKG 260845Z 19011KT 9SM CLR 22/18 A3010 460 78 1500 200/11 RMK AO2 $
14840KMKG MKG20030726035012307/26/03 03:50:31  5-MIN KMKG 260850Z 19012KT 9SM CLR 22/18 A3010 470 78 1500 200/12 RMK AO2 SLP188 60000 T02220183 58006 $
14840KMKG MKG20030726035512307/26/03 03:55:31  5-MIN KMKG 260855Z 20015KT 9SM CLR 22/18 A3010 470 78 1500 200/15 RMK AO2 SLP189 60000 T02220183 55005 $
14840KMKG MKG20030726040009407/26/03 04:00:31  5-MIN KMKG 260900Z 19012KT 9SM CLR 22/18 A3009 470 78 1500 200/12 RMK AO2 $
14840KMKG MKG20030726040509407/26/03 04:05:31  5-MIN KMKG 260905Z 19012KT 9SM CLR 22/18 A3009 470 78 1500 200/12 RMK AO2 $
14840KMKG MKG20030726041009407/26/03 04:10:31  5-MIN KMKG 260910Z 19012KT 8SM CLR 22/18 A3010 470 78 1500 200/12 RMK AO2 $
14840KMKG MKG20030726041509407/26/03 04:15:31  5-MIN KMKG 260915Z 20013KT 8SM CLR 22/18 A3010 470 78 1500 200/13 RMK AO2 $
14840KMKG MKG20030726042009407/26/03 04:20:31  5-MIN KMKG 260920Z 19010KT 8SM CLR 22/18 A3010 470 78 1500 200/10 RMK AO2 $
14840KMKG MKG20030726042509407/26/03 04:25:31  5-MIN KMKG 260925Z 20012KT 8SM CLR 22/18 A3010 470 78 1500 200/12 RMK AO2 $
14840KMKG MKG20030726043009407/26/03 04:30:31  5-MIN KMKG 260930Z 20015KT 8SM CLR 22/18 A3009 470 78 1500 200/15 RMK AO2 $
14840KMKG MKG20030726043509407/26/03 04:35:31  5-MIN KMKG 260935Z 20014KT 8SM CLR 22/18 A3009 470 78 1500 200/14 RMK AO2 $
14840KMKG MKG20030726044009407/26/03 04:40:31  5-MIN KMKG 260940Z 20014KT 8SM CLR 22/18 A3009 480 78 1500 200/14 RMK AO2 $
14840KMKG MKG20030726044509407/26/03 04:45:31  5-MIN KMKG 260945Z 19014KT 8SM CLR 22/18 A3009 480 78 1500 200/14 RMK AO2 $
14840KMKG MKG20030726045011107/26/03 04:50:31  5-MIN KMKG 260950Z 20015KT 8SM CLR 22/18 A3009 480 78 1500 200/15 RMK AO2 SLP186 T02220183 $
14840KMKG MKG20030726045511707/26/03 04:55:31  5-MIN KMKG 260955Z 19014G20KT 8SM CLR 22/18 A3009 470 78 1500 200/14G20 RMK AO2 SLP186 T02220183 $
14840KMKG MKG20030726050010007/26/03 05:00:31  5-MIN KMKG 261000Z 19012G20KT 8SM CLR 22/18 A3009 470 81 1400 200/12G20 RMK AO2 $
14840KMKG MKG20030726050509407/26/03 05:05:31  5-MIN KMKG 261005Z 20013KT 8SM CLR 22/18 A3009 470 81 1400 200/13 RMK AO2 $
14840KMKG MKG20030726051010007/26/03 05:10:31  5-MIN KMKG 261010Z 19011G17KT 8SM CLR 22/18 A3010 470 81 1400 200/11G17 RMK AO2 $
14840KMKG MKG20030726051510007/26/03 05:15:31  5-MIN KMKG 261015Z 19012G19KT 8SM CLR 22/18 A3010 470 81 1400 190/12G19 RMK AO2 $
14840KMKG MKG20030726052010007/26/03 05:20:31  5-MIN KMKG 261020Z 19011G19KT 8SM CLR 22/18 A3010 460 81 1400 190/11G19 RMK AO2 $
14840KMKG MKG20030726052509407/26/03 05:25:31  5-MIN KMKG 261025Z 19012KT 8SM CLR 22/18 A3010 460 81 1400 190/12 RMK AO2 $
14840KMKG MKG20030726053009407/26/03 05:30:31  5-MIN KMKG 261030Z 19010KT 8SM CLR 22/18 A3010 460 81 1400 200/10 RMK AO2 $
14840KMKG MKG20030726053509407/26/03 05:35:31  5-MIN KMKG 261035Z 19013KT 7SM CLR 22/18 A3010 460 81 1400 190/13 RMK AO2 $
14840KMKG MKG20030726054009407/26/03 05:40:31  5-MIN KMKG 261040Z 19012KT 7SM CLR 22/18 A3010 460 81 1400 190/12 RMK AO2 $
14840KMKG MKG20030726054509707/26/03 05:45:31  5-MIN KMKG 261045Z 19011KT 6SM HZ CLR 22/18 A3010 470 81 1400 190/11 RMK AO2 $
14840KMKG MKG20030726055011407/26/03 05:50:31  5-MIN KMKG 261050Z 19010KT 6SM HZ CLR 22/18 A3010 470 81 1400 190/10 RMK AO2 SLP188 T02170183 $
14840KMKG MKG20030726055511707/26/03 05:55:31  5-MIN KMKG 261055Z 19013KT 6SM HZ SCT010 22/18 A3009 470 81 1400 190/13 RMK AO2 SLP188 T02170183 $
14840KMKG MKG20030726060009707/26/03 06:00:31  5-MIN KMKG 261100Z 19011KT 6SM HZ CLR 22/18 A3009 470 81 1400 200/11 RMK AO2 $
14840KMKG MKG20030726060509707/26/03 06:05:31  5-MIN KMKG 261105Z 19011KT 6SM HZ CLR 22/18 A3009 470 81 1400 190/11 RMK AO2 $
14840KMKG MKG20030726061009707/26/03 06:10:31  5-MIN KMKG 261110Z 19010KT 6SM HZ CLR 22/18 A3009 480 81 1400 190/10 RMK AO2 $
14840KMKG MKG20030726061509707/26/03 06:15:31  5-MIN KMKG 261115Z 19011KT 6SM HZ CLR 22/18 A3009 480 81 1400 190/11 RMK AO2 $
14840KMKG MKG20030726062009707/26/03 06:20:31  5-MIN KMKG 261120Z 19011KT 6SM HZ CLR 22/18 A3008 480 81 1400 190/11 RMK AO2 $
14840KMKG MKG20030726062509707/26/03 06:25:31  5-MIN KMKG 261125Z 19012KT 6SM HZ CLR 22/18 A3008 480 81 1400 190/12 RMK AO2 $
14840KMKG MKG20030726063009707/26/03 06:30:31  5-MIN KMKG 261130Z 19011KT 6SM HZ CLR 22/18 A3008 480 78 1500 190/11 RMK AO2 $
14840KMKG MKG20030726063509707/26/03 06:35:31  5-MIN KMKG 261135Z 19013KT 6SM HZ CLR 22/18 A3008 480 78 1500 190/13 RMK AO2 $
14840KMKG MKG20030726064009707/26/03 06:40:31  5-MIN KMKG 261140Z 19012KT 6SM HZ CLR 22/18 A3007 490 78 1500 190/12 RMK AO2 $
14840KMKG MKG20030726064509707/26/03 06:45:31  5-MIN KMKG 261145Z 19012KT 6SM HZ CLR 22/18 A3007 490 78 1500 190/12 RMK AO2 $
14840KMKG MKG20030726065013807/26/03 06:50:31  5-MIN KMKG 261150Z 19012KT 6SM HZ CLR 22/18 A3007 490 78 1500 190/12 RMK AO2 SLP180 60000 T02220183 10228 20217 55005 $
14840KMKG MKG20030726065514107/26/03 06:55:31  5-MIN KMKG 261155Z 19014G18KT 7SM CLR 22/18 A3007 490 78 1500 190/14G18 RMK AO2 SLP180 60000 T02220183 10228 20217 58009 $
14840KMKG MKG20030726070010007/26/03 07:00:31  5-MIN KMKG 261200Z 18014G18KT 7SM CLR 22/18 A3007 490 78 1500 190/14G18 RMK AO2 $
14840KMKG MKG20030726070509407/26/03 07:05:31  5-MIN KMKG 261205Z 19016KT 7SM CLR 22/18 A3007 490 78 1500 190/16 RMK AO2 $
14840KMKG MKG20030726071010007/26/03 07:10:31  5-MIN KMKG 261210Z 19012G19KT 7SM CLR 22/18 A3007 500 78 1500 190/12G19 RMK AO2 $
14840KMKG MKG20030726071509407/26/03 07:15:31  5-MIN KMKG 261215Z 19015KT 7SM CLR 22/18 A3007 490 78 1500 190/15 RMK AO2 $
14840KMKG MKG20030726072009407/26/03 07:20:31  5-MIN KMKG 261220Z 20015KT 7SM CLR 22/18 A3007 490 78 1500 200/15 RMK AO2 $
14840KMKG MKG20030726072510007/26/03 07:25:31  5-MIN KMKG 261225Z 20015G20KT 7SM CLR 23/18 A3007 490 76 1500 200/15G20 RMK AO2 $
14840KMKG MKG20030726073010007/26/03 07:30:31  5-MIN KMKG 261230Z 20013G20KT 7SM CLR 23/18 A3007 490 76 1500 200/13G20 RMK AO2 $
14840KMKG MKG20030726073510007/26/03 07:35:31  5-MIN KMKG 261235Z 19016G21KT 7SM CLR 23/18 A3007 490 76 1500 200/16G21 RMK AO2 $
14840KMKG MKG20030726074010007/26/03 07:40:31  5-MIN KMKG 261240Z 19015G21KT 7SM CLR 23/18 A3006 500 73 1600 200/15G21 RMK AO2 $
14840KMKG MKG20030726074510007/26/03 07:45:31  5-MIN KMKG 261245Z 19016G21KT 7SM CLR 23/18 A3005 510 76 1600 190/16G21 RMK AO2 $
14840KMKG MKG20030726075011707/26/03 07:50:31  5-MIN KMKG 261250Z 19017G21KT 8SM CLR 23/18 A3006 500 76 1600 190/17G21 RMK AO2 SLP176 T02280183 $
14840KMKG MKG20030726075511707/26/03 07:55:31  5-MIN KMKG 261255Z 20018G22KT 8SM CLR 23/18 A3006 500 76 1600 200/18G22 RMK AO2 SLP176 T02280183 $
14840KMKG MKG20030726080009407/26/03 08:00:31  5-MIN KMKG 261300Z 20017KT 8SM CLR 23/18 A3005 510 76 1600 200/17 RMK AO2 $
14840KMKG MKG20030726080510007/26/03 08:05:31  5-MIN KMKG 261305Z 20018G22KT 7SM CLR 23/18 A3006 500 76 1600 200/18G22 RMK AO2 $
14840KMKG MKG20030726081010007/26/03 08:10:31  5-MIN KMKG 261310Z 20017G24KT 8SM CLR 23/18 A3007 490 76 1500 200/17G24 RMK AO2 $
14840KMKG MKG20030726081510007/26/03 08:15:31  5-MIN KMKG 261315Z 20013G24KT 8SM CLR 23/18 A3008 480 76 1500 210/13G24 RMK AO2 $
14840KMKG MKG20030726082010007/26/03 08:20:31  5-MIN KMKG 261320Z 20017G20KT 8SM CLR 23/18 A3008 480 76 1500 210/17G20 RMK AO2 $
14840KMKG MKG20030726082510107/26/03 08:25:31  5-MIN KMKG 261325Z 20015KT 8SM CLR 23/18 A3009 470 73 1500 210/15 RMK AO2 PRESRR $
14840KMKG MKG20030726083010007/26/03 08:30:31  5-MIN KMKG 261330Z 21017G21KT 8SM CLR 23/18 A3009 470 73 1500 210/17G21 RMK AO2 $
14840KMKG MKG20030726083510007/26/03 08:35:31  5-MIN KMKG 261335Z 21018G23KT 8SM CLR 23/18 A3009 480 73 1500 210/18G23 RMK AO2 $
14840KMKG MKG20030726084010007/26/03 08:40:31  5-MIN KMKG 261340Z 20017G23KT 8SM CLR 22/18 A3009 480 75 1500 200/17G23 RMK AO2 $
14840KMKG MKG20030726084510007/26/03 08:45:31  5-MIN KMKG 261345Z 20017G22KT 8SM CLR 22/18 A3008 490 75 1500 200/17G22 RMK AO2 $
14840KMKG MKG20030726085011807/26/03 08:50:31  5-MIN KMKG 261350Z 20016KT 8SM CLR 22/18 A3007 490 75 1500 210/16 RMK AO2 PRESFR SLP179 T02220178 $
14840KMKG MKG20030726085511707/26/03 08:55:31  5-MIN KMKG 261355Z 20018G24KT 8SM CLR 22/18 A3007 500 75 1500 200/18G24 RMK AO2 SLP178 T02220178 $
14840KMKG MKG20030726090010007/26/03 09:00:31  5-MIN KMKG 261400Z 20016G24KT 8SM CLR 22/18 A3007 490 75 1500 200/16G24 RMK AO2 $
14840KMKG MKG20030726090510007/26/03 09:05:31  5-MIN KMKG 261405Z 20018G25KT 8SM CLR 22/18 A3008 480 75 1500 200/18G25 RMK AO2 $
14840KMKG MKG20030726091010007/26/03 09:10:31  5-MIN KMKG 261410Z 21017G25KT 8SM CLR 22/18 A3008 480 78 1400 210/17G25 RMK AO2 $
14840KMKG MKG20030726091510007/26/03 09:15:31  5-MIN KMKG 261415Z 21014G21KT 8SM CLR 22/18 A3009 470 78 1400 210/14G21 RMK AO2 $
14840KMKG MKG20030726092009407/26/03 09:20:31  5-MIN KMKG 261420Z 21016KT 8SM CLR 22/18 A3009 470 78 1400 210/16 RMK AO2 $
14840KMKG MKG20030726092510007/26/03 09:25:31  5-MIN KMKG 261425Z 20016G22KT 8SM CLR 22/18 A3009 480 78 1400 210/16G22 RMK AO2 $
14840KMKG MKG20030726093010007/26/03 09:30:31  5-MIN KMKG 261430Z 20016G24KT 8SM CLR 22/18 A3008 480 78 1400 200/16G24 RMK AO2 $
14840KMKG MKG20030726093510007/26/03 09:35:31  5-MIN KMKG 261435Z 20017G24KT 8SM CLR 22/18 A3008 490 78 1400 200/17G24 RMK AO2 $
14840KMKG MKG20030726094010007/26/03 09:40:31  5-MIN KMKG 261440Z 20016G21KT 8SM CLR 22/18 A3007 490 78 1400 200/16G21 RMK AO2 $
14840KMKG MKG20030726094510007/26/03 09:45:31  5-MIN KMKG 261445Z 20016G21KT 8SM CLR 22/18 A3007 490 78 1400 200/16G21 RMK AO2 $
14840KMKG MKG20030726095012307/26/03 09:50:31  5-MIN KMKG 261450Z 20017G21KT 8SM CLR 22/18 A3007 490 78 1400 200/17G21 RMK AO2 SLP181 T02170178 58009 $
14840KMKG MKG20030726095511707/26/03 09:55:31  5-MIN KMKG 261455Z 20016KT 8SM CLR 22/18 A3008 490 78 1400 200/16 RMK AO2 SLP181 T02170178 53001 $
14840KMKG MKG20030726100009407/26/03 10:00:31  5-MIN KMKG 261500Z 20015KT 8SM CLR 22/18 A3008 480 78 1400 200/15 RMK AO2 $
14840KMKG MKG20030726100510007/26/03 10:05:31  5-MIN KMKG 261505Z 20016G21KT 8SM CLR 22/18 A3009 470 78 1400 200/16G21 RMK AO2 $
14840KMKG MKG20030726101010007/26/03 10:10:31  5-MIN KMKG 261510Z 19015G21KT 8SM CLR 22/18 A3008 480 78 1400 200/15G21 RMK AO2 $
14840KMKG MKG20030726101509407/26/03 10:15:31  5-MIN KMKG 261515Z 19014KT 8SM CLR 22/18 A3008 480 78 1400 190/14 RMK AO2 $
14840KMKG MKG20030726102010007/26/03 10:20:31  5-MIN KMKG 261520Z 19013G19KT 8SM CLR 22/18 A3009 480 78 1400 200/13G19 RMK AO2 $
14840KMKG MKG20030726102509407/26/03 10:25:31  5-MIN KMKG 261525Z 19013KT 8SM CLR 22/18 A3009 470 78 1400 200/13 RMK AO2 $
14840KMKG MKG20030726103010007/26/03 10:30:31  5-MIN KMKG 261530Z 18015G19KT 7SM CLR 22/18 A3009 480 78 1400 190/15G19 RMK AO2 $
14840KMKG MKG20030726103510007/26/03 10:35:31  5-MIN KMKG 261535Z 18013G19KT 8SM CLR 22/18 A3008 480 78 1400 190/13G19 RMK AO2 $
14840KMKG MKG20030726104009407/26/03 10:40:31  5-MIN KMKG 261540Z 19013KT 8SM CLR 22/18 A3008 480 78 1400 190/13 RMK AO2 $
14840KMKG MKG20030726104509407/26/03 10:45:31  5-MIN KMKG 261545Z 19012KT 8SM CLR 22/18 A3010 470 78 1400 190/12 RMK AO2 $
14840KMKG MKG20030726105015607/26/03 10:50:31  5-MIN KMKG 261550Z 20014KT 8SM TS CLR 22/18 A3011 460 78 1400 200/14 RMK AO2 TSB50 PRESRR SLP192 OCNL LTGICCA TSB49 NW MOV SE T02170178 $
14840KMKG MKG20030726105514607/26/03 10:55:31  5-MIN KMKG 261555Z 20011KT 7SM TS OVC100 22/18 A3012 450 78 1400 210/11 RMK AO2 OCNL LTGICCA TSB50 NW MOV SE SLP193 T02170178 $
14840KMKG MKG20030726110013307/26/03 11:00:31  5-MIN KMKG 261600Z 21010KT 7SM TS OVC120 22/18 A3012 440 78 1400 210/10 RMK AO2 PRESRR OCNL LTGICCA TS NW MOV SE $
14840KMKG MKG20030726110512607/26/03 11:05:31  5-MIN KMKG 261605Z 21008KT 7SM TS OVC120 22/18 A3013 440 78 1400 210/08 RMK AO2 OCNL LTGICCA TS NW MOV SE $
14840KMKG MKG20030726111014107/26/03 11:10:31  5-MIN KMKG 261610Z 22005KT 7SM -TSRA OVC100 22/18 A3013 430 81 1300 220/05 RMK AO2 OCNL LTGICCA RAB07 TS NW MOV SE P0000 $
14840KMKG MKG20030726111514107/26/03 11:15:31  5-MIN KMKG 261615Z VRB05KT 7SM -TSRA OVC100 22/18 A3014 430 81 1300 VRB/05 RMK AO2 OCNL LTGICCA RAB07 TS NW MOV SE P0000 $
14840KMKG MKG20030726112014107/26/03 11:20:31  5-MIN KMKG 261620Z 23003KT 7SM -TSRA OVC100 22/18 A3014 430 81 1300 240/03 RMK AO2 OCNL LTGICCA RAB07 TS NW MOV SE P0000 $
14840KMKG MKG20030726112514107/26/03 11:25:31  5-MIN KMKG 261625Z 18006KT 7SM -TSRA OVC100 21/18 A3012 440 84 1300 180/06 RMK AO2 OCNL LTGICCA RAB07 TS NW MOV SE P0000 $
14840KMKG MKG20030726113013807/26/03 11:30:31  5-MIN KMKG 261630Z 17007KT 7SM TS OVC100 21/18 A3012 450 84 1300 170/07 RMK AO2 OCNL LTGICCA RAB07 TS NW MOV SE P0000 $
14840KMKG MKG20030726113514107/26/03 11:35:31  5-MIN KMKG 261635Z 17009KT 7SM TS OVC100 21/18 A3010 460 84 1300 170/09 RMK AO2 OCNL LTGICCA RAB07E28 TS NW MOV SE P0000 $
14840KMKG MKG20030726114011807/26/03 11:40:31  5-MIN KMKG 261640Z 17010KT 7SM OVC120 22/18 A3009 470 81 1400 170/10 RMK AO2 RAB07E28 TSE37 P0000 $
14840KMKG MKG20030726114511807/26/03 11:45:31  5-MIN KMKG 261645Z 18011KT 7SM OVC120 22/18 A3009 470 81 1400 180/11 RMK AO2 RAB07E28 TSE37 P0000 $
14840KMKG MKG20030726115012807/26/03 11:50:31  5-MIN KMKG 261650Z 18009KT 7SM OVC120 22/18 A3008 480 81 1400 190/09 RMK AO2 RAB07E28 TSE37 P0000 T02170183 $
14840KMKG MKG20030726115512807/26/03 11:55:31  5-MIN KMKG 261655Z 19010KT 7SM OVC120 22/18 A3009 480 81 1400 190/10 RMK AO2 RAB07E28 TSE37 P0000 T02170183 $
14840KMKG MKG20030726120009707/26/03 12:00:31  5-MIN KMKG 261700Z 19010KT 7SM OVC120 22/18 A3009 480 81 1400 190/10 RMK AO2 $
14840KMKG MKG20030726120509707/26/03 12:05:31  5-MIN KMKG 261705Z 19009KT 7SM OVC120 22/18 A3009 470 78 1500 190/09 RMK AO2 $
14840KMKG MKG20030726121009707/26/03 12:10:31  5-MIN KMKG 261710Z 19011KT 7SM OVC120 22/18 A3009 470 78 1500 190/11 RMK AO2 $
14840KMKG MKG20030726121509707/26/03 12:15:31  5-MIN KMKG 261715Z 20011KT 8SM OVC120 22/18 A3010 470 78 1500 200/11 RMK AO2 $
14840KMKG MKG20030726122009707/26/03 12:20:31  5-MIN KMKG 261720Z 19012KT 8SM OVC120 23/18 A3009 470 76 1500 190/12 RMK AO2 $
14840KMKG MKG20030726122509707/26/03 12:25:31  5-MIN KMKG 261725Z 19011KT 8SM OVC120 23/18 A3009 470 76 1500 190/11 RMK AO2 $
14840KMKG MKG20030726123009707/26/03 12:30:31  5-MIN KMKG 261730Z 19011KT 8SM OVC120 23/18 A3009 470 76 1500 190/11 RMK AO2 $
14840KMKG MKG20030726123509707/26/03 12:35:31  5-MIN KMKG 261735Z 18012KT 8SM OVC120 23/18 A3008 480 76 1500 190/12 RMK AO2 $
14840KMKG MKG20030726130510007/26/03 13:05:31  5-MIN KMKG 261805Z 19012G20KT 9SM CLR 24/18 A3006 500 71 1700 190/12G20 RMK AO2 $
14840KMKG MKG20030726131009707/26/03 13:10:31  5-MIN KMKG 261810Z 19012KT 9SM FEW090 24/18 A3007 500 71 1700 190/12 RMK AO2 $
14840KMKG MKG20030726131510307/26/03 13:15:31  5-MIN KMKG 261815Z 19016G20KT 9SM SCT090 24/18 A3006 500 71 1700 200/16G20 RMK AO2 $
14840KMKG MKG20030726132010307/26/03 13:20:31  5-MIN KMKG 261820Z 18015G20KT 9SM BKN085 24/18 A3006 500 68 1800 190/15G20 RMK AO2 $
14840KMKG MKG20030726132509807/26/03 13:25:31  5-MIN KMKG 261825Z 18014KT 10SM BKN085 24/18 A3005 510 68 1800 190/14 RMK AO2 $
14840KMKG MKG20030726133010407/26/03 13:30:31  5-MIN KMKG 261830Z 19014G22KT 10SM BKN080 24/18 A3005 510 68 1800 190/14G22 RMK AO2 $
14840KMKG MKG20030726133510407/26/03 13:35:31  5-MIN KMKG 261835Z 19016G22KT 10SM BKN080 24/18 A3005 510 68 1800 190/16G22 RMK AO2 $
14840KMKG MKG20030726134010407/26/03 13:40:31  5-MIN KMKG 261840Z 19014G21KT 10SM BKN080 24/18 A3005 510 68 1800 190/14G21 RMK AO2 $
14840KMKG MKG20030726134510407/26/03 13:45:31  5-MIN KMKG 261845Z 18016G22KT 10SM BKN080 24/18 A3004 520 68 1700 190/16G22 RMK AO2 $
14840KMKG MKG20030726135012107/26/03 13:50:31  5-MIN KMKG 261850Z 19017G22KT 10SM BKN075 24/18 A3004 520 66 1800 190/17G22 RMK AO2 SLP169 T02440178 $
14840KMKG MKG20030726135512107/26/03 13:55:31  5-MIN KMKG 261855Z 18020G24KT 10SM OVC075 24/18 A3003 530 66 1800 190/20G24 RMK AO2 SLP166 T02440178 $
14840KMKG MKG20030726140010407/26/03 14:00:31  5-MIN KMKG 261900Z 19016G24KT 10SM OVC075 24/18 A3003 530 68 1800 200/16G24 RMK AO2 $
14840KMKG MKG20030726140510407/26/03 14:05:31  5-MIN KMKG 261905Z 19019G25KT 10SM OVC070 24/18 A3003 530 66 1800 190/19G25 RMK AO2 $
14840KMKG MKG20030726141010407/26/03 14:10:31  5-MIN KMKG 261910Z 19018G25KT 10SM OVC070 24/18 A3003 530 66 1800 190/18G25 RMK AO2 $
14840KMKG MKG20030726141510407/26/03 14:15:31  5-MIN KMKG 261915Z 19018G22KT 10SM OVC070 24/18 A3003 530 66 1800 200/18G22 RMK AO2 $
14840KMKG MKG20030726142010407/26/03 14:20:31  5-MIN KMKG 261920Z 20018G24KT 10SM OVC070 24/18 A3003 530 68 1800 200/18G24 RMK AO2 $
14840KMKG MKG20030726142510407/26/03 14:25:31  5-MIN KMKG 261925Z 19018G24KT 10SM OVC070 25/18 A3003 530 66 1800 190/18G24 RMK AO2 $
14840KMKG MKG20030726143010407/26/03 14:30:31  5-MIN KMKG 261930Z 19015G22KT 10SM OVC070 25/18 A3003 530 66 1800 200/15G22 RMK AO2 $
14840KMKG MKG20030726143512207/26/03 14:35:31  5-MIN KMKG 261935Z 19018G26KT 10SM OVC070 25/18 A3003 530 66 1900 200/18G26 RMK AO2 PK WND 20026/1932 $
14840KMKG MKG20030726144012207/26/03 14:40:31  5-MIN KMKG 261940Z 19018G26KT 10SM OVC070 25/18 A3002 540 66 1900 200/18G26 RMK AO2 PK WND 20026/1932 $
14840KMKG MKG20030726144512207/26/03 14:45:31  5-MIN KMKG 261945Z 19018G24KT 10SM OVC070 25/18 A3002 540 66 1900 200/18G24 RMK AO2 PK WND 20026/1932 $
14840KMKG MKG20030726145013907/26/03 14:50:31  5-MIN KMKG 261950Z 19019G25KT 10SM OVC070 25/18 A3002 540 66 1900 200/19G25 RMK AO2 PK WND 20026/1932 SLP162 T02500183 $
14840KMKG MKG20030726145513907/26/03 14:55:31  5-MIN KMKG 261955Z 19018G25KT 10SM OVC070 24/18 A3002 540 68 1800 200/18G25 RMK AO2 PK WND 20026/1932 SLP162 T02440183 $
14840KMKG MKG20030726150010407/26/03 15:00:31  5-MIN KMKG 262000Z 19015G23KT 10SM OVC070 24/18 A3001 550 68 1800 190/15G23 RMK AO2 $
14840KMKG MKG20030726150510407/26/03 15:05:31  5-MIN KMKG 262005Z 20020G25KT 10SM BKN070 25/18 A3001 540 66 1900 200/20G25 RMK AO2 $
14840KMKG MKG20030726151010407/26/03 15:10:31  5-MIN KMKG 262010Z 19018G25KT 10SM BKN070 24/18 A3001 550 68 1800 200/18G25 RMK AO2 $
14840KMKG MKG20030726151512207/26/03 15:15:31  5-MIN KMKG 262015Z 19020G26KT 10SM BKN065 25/18 A3000 550 66 1900 200/20G26 RMK AO2 PK WND 18026/2014 $
14840KMKG MKG20030726152012207/26/03 15:20:31  5-MIN KMKG 262020Z 19021G28KT 10SM SCT070 25/18 A3000 560 66 1900 200/21G28 RMK AO2 PK WND 19028/2020 $
14840KMKG MKG20030726152512207/26/03 15:25:31  5-MIN KMKG 262025Z 19021G28KT 10SM SCT065 25/18 A2999 560 66 1900 190/21G28 RMK AO2 PK WND 19028/2020 $
14840KMKG MKG20030726153012207/26/03 15:30:31  5-MIN KMKG 262030Z 19020G27KT 10SM SCT065 25/18 A3000 560 66 1900 200/20G27 RMK AO2 PK WND 19028/2020 $
14840KMKG MKG20030726153512207/26/03 15:35:31  5-MIN KMKG 262035Z 20019G26KT 10SM SCT065 25/18 A2999 560 66 1900 200/19G26 RMK AO2 PK WND 19028/2020 $
14840KMKG MKG20030726154012207/26/03 15:40:31  5-MIN KMKG 262040Z 20022G28KT 10SM SCT065 26/18 A2999 560 64 1900 200/22G28 RMK AO2 PK WND 20028/2039 $
14840KMKG MKG20030726154512207/26/03 15:45:31  5-MIN KMKG 262045Z 19019G30KT 10SM SCT065 26/18 A2999 570 64 2000 200/19G30 RMK AO2 PK WND 21030/2041 $
14840KMKG MKG20030726155014507/26/03 15:50:31  5-MIN KMKG 262050Z 19022G30KT 10SM SCT065 26/18 A2998 570 64 2000 200/22G30 RMK AO2 PK WND 21030/2041 SLP150 T02560183 58002 $
14840KMKG MKG20030726155514507/26/03 15:55:31  5-MIN KMKG 262055Z 20025G30KT 10SM SCT065 26/18 A2998 580 64 2000 200/25G30 RMK AO2 PK WND 19030/2054 SLP147 T02560183 58030 $
14840KMKG MKG20030726160012207/26/03 16:00:31  5-MIN KMKG 262100Z 20022G30KT 10SM SCT090 25/18 A2999 570 66 1900 210/22G30 RMK AO2 PK WND 20028/2100 $
14840KMKG MKG20030726160512207/26/03 16:05:31  5-MIN KMKG 262105Z 19022G28KT 10SM SCT090 25/18 A2997 580 66 1900 200/22G28 RMK AO2 PK WND 21028/2102 $
14840KMKG MKG20030726161012207/26/03 16:10:31  5-MIN KMKG 262110Z 19023G28KT 10SM FEW100 25/18 A2997 590 66 1900 200/23G28 RMK AO2 PK WND 18028/2109 $
14840KMKG MKG20030726161512207/26/03 16:15:31  5-MIN KMKG 262115Z 20021G28KT 10SM FEW100 25/18 A2998 580 66 1900 200/21G28 RMK AO2 PK WND 18028/2109 $
14840KMKG MKG20030726162013807/26/03 16:20:31  5-MIN KMKG 262120Z 20020G25KT 10SM -RA FEW100 24/18 A2997 580 68 1900 200/20G25 RMK AO2 PK WND 18028/2109 RAB20 P0000 $
14840KMKG MKG20030726162513807/26/03 16:25:31  5-MIN KMKG 262125Z 19020G28KT 10SM -RA FEW100 24/18 A2997 590 68 1900 200/20G28 RMK AO2 PK WND 21028/2124 RAB20 P0000 $
14840KMKG MKG20030726163013807/26/03 16:30:31  5-MIN KMKG 262130Z 19023G32KT 10SM -RA SCT019 24/18 A2996 600 71 1800 200/23G32 RMK AO2 PK WND 18032/2128 RAB20 P0000 $
14840KMKG MKG20030726163513807/26/03 16:35:31  5-MIN KMKG 262135Z 20021G32KT 10SM -RA SCT023 23/19 A2996 590 76 1700 200/21G32 RMK AO2 PK WND 18032/2128 RAB20 P0000 $
14840KMKG MKG20030726164013807/26/03 16:40:31  5-MIN KMKG 262140Z 20018G26KT 10SM -RA SCT032 23/19 A2997 590 76 1700 200/18G26 RMK AO2 PK WND 18032/2128 RAB20 P0000 $
14840KMKG MKG20030726164513807/26/03 16:45:31  5-MIN KMKG 262145Z 21020G26KT 10SM -RA SCT037 24/19 A2998 570 73 1800 210/20G26 RMK AO2 PK WND 18032/2128 RAB20 P0000 $
14840KMKG MKG20030726165015507/26/03 16:50:31  5-MIN KMKG 262150Z 20021G30KT 10SM -RA SCT035 24/19 A2997 580 73 1800 200/21G30 RMK AO2 PK WND 18032/2128 RAB20 SLP146 P0000 T02390189 $
14840KMKG MKG20030726165515507/26/03 16:55:31  5-MIN KMKG 262155Z 20021G30KT 10SM -RA SCT034 24/19 A2997 590 71 1900 200/21G30 RMK AO2 PK WND 18032/2128 RAB20 SLP144 P0000 T02440189 $
14840KMKG MKG20030726170011607/26/03 17:00:31  5-MIN KMKG 262200Z 20019G27KT 10SM FEW041 24/19 A2997 590 71 1900 200/19G27 RMK AO2 RAE00 P0000 $
14840KMKG MKG20030726170511607/26/03 17:05:31  5-MIN KMKG 262205Z 20017G25KT 10SM FEW060 24/19 A2997 590 71 1900 200/17G25 RMK AO2 RAE00 P0000 $
14840KMKG MKG20030726171013107/26/03 17:10:31  5-MIN KMKG 262210Z 20020G26KT 10SM CLR 24/19 A2997 590 71 1900 200/20G26 RMK AO2 PK WND 20026/2209 RAE00 P0000 $
14840KMKG MKG20030726171513107/26/03 17:15:31  5-MIN KMKG 262215Z 20019G26KT 10SM CLR 24/19 A2996 590 71 1900 200/19G26 RMK AO2 PK WND 20026/2209 RAE00 P0000 $
14840KMKG MKG20030726172013107/26/03 17:20:31  5-MIN KMKG 262220Z 20019G27KT 10SM CLR 24/19 A2996 590 71 1900 200/19G27 RMK AO2 PK WND 20027/2217 RAE00 P0000 $
14840KMKG MKG20030726172514107/26/03 17:25:31  5-MIN KMKG 262225Z 20018G27KT 10SM -RA FEW070 24/19 A2996 590 71 1900 210/18G27 RMK AO2 PK WND 20027/2217 RAE00B22 P0000 $
14840KMKG MKG20030726173014107/26/03 17:30:31  5-MIN KMKG 262230Z 20019G26KT 10SM -RA FEW060 24/19 A2996 590 71 1900 210/19G26 RMK AO2 PK WND 20027/2217 RAE00B22 P0000 $
14840KMKG MKG20030726173514007/26/03 17:35:31  5-MIN KMKG 262235Z 20021G28KT 10SM FEW110 24/19 A2996 590 71 1900 200/21G28 RMK AO2 PK WND 20028/2234 RAE00B22E35 P0000 $
14840KMKG MKG20030726174014007/26/03 17:40:31  5-MIN KMKG 262240Z 20021G28KT 10SM FEW110 24/19 A2995 600 71 1900 200/21G28 RMK AO2 PK WND 20028/2234 RAE00B22E35 P0000 $
14840KMKG MKG20030726174514007/26/03 17:45:31  5-MIN KMKG 262245Z 20020G26KT 10SM FEW110 24/19 A2995 600 71 1900 200/20G26 RMK AO2 PK WND 20028/2234 RAE00B22E35 P0000 $
14840KMKG MKG20030726175015707/26/03 17:50:31  5-MIN KMKG 262250Z 20019G26KT 10SM FEW110 24/19 A2995 610 71 1900 200/19G26 RMK AO2 PK WND 20028/2234 RAE00B22E35 SLP137 P0000 T02440189 $
14840KMKG MKG20030726175515707/26/03 17:55:31  5-MIN KMKG 262255Z 20020G26KT 10SM FEW110 24/19 A2995 600 71 1900 210/20G26 RMK AO2 PK WND 20028/2234 RAE00B22E35 SLP138 P0000 T02440189 $
14840KMKG MKG20030726180011907/26/03 18:00:31  5-MIN KMKG 262300Z 20021G27KT 10SM CLR 24/19 A2995 610 71 1900 200/21G27 RMK AO2 PK WND 21027/2256 $
14840KMKG MKG20030726180511907/26/03 18:05:31  5-MIN KMKG 262305Z 20021G27KT 10SM CLR 24/19 A2995 610 71 1900 200/21G27 RMK AO2 PK WND 21027/2256 $
14840KMKG MKG20030726181011907/26/03 18:10:31  5-MIN KMKG 262310Z 20020G27KT 10SM CLR 24/19 A2995 610 71 1900 210/20G27 RMK AO2 PK WND 20027/2308 $
14840KMKG MKG20030726181511907/26/03 18:15:31  5-MIN KMKG 262315Z 20021G27KT 10SM CLR 24/19 A2995 600 71 1900 210/21G27 RMK AO2 PK WND 19027/2312 $
14840KMKG MKG20030726182011907/26/03 18:20:31  5-MIN KMKG 262320Z 20017G27KT 10SM CLR 24/19 A2995 600 71 1900 210/17G27 RMK AO2 PK WND 19027/2312 $
14840KMKG MKG20030726182512207/26/03 18:25:31  5-MIN KMKG 262325Z 20015G26KT 10SM FEW090 24/19 A2996 600 73 1900 200/15G26 RMK AO2 PK WND 19027/2312 $
14840KMKG MKG20030726183012207/26/03 18:30:31  5-MIN KMKG 262330Z 20016G22KT 10SM FEW090 24/19 A2995 600 73 1900 210/16G22 RMK AO2 PK WND 19027/2312 $
14840KMKG MKG20030726183512207/26/03 18:35:31  5-MIN KMKG 262335Z 21016G24KT 10SM FEW090 24/19 A2996 600 73 1900 210/16G24 RMK AO2 PK WND 19027/2312 $
14840KMKG MKG20030726184012207/26/03 18:40:31  5-MIN KMKG 262340Z 20017G24KT 10SM FEW100 24/19 A2995 600 76 1800 210/17G24 RMK AO2 PK WND 19027/2312 $
14840KMKG MKG20030726184512207/26/03 18:45:31  5-MIN KMKG 262345Z 20015G23KT 10SM FEW100 24/19 A2994 610 76 1800 200/15G23 RMK AO2 PK WND 19027/2312 $
14840KMKG MKG20030726185016307/26/03 18:50:31  5-MIN KMKG 262350Z 21015G21KT 10SM FEW100 24/19 A2995 610 76 1800 210/15G21 RMK AO2 PK WND 19027/2312 SLP137 60000 T02390194 10256 20233 58030 $
14840KMKG MKG20030726185516307/26/03 18:55:31  5-MIN KMKG 262355Z 21016G24KT 10SM FEW100 24/19 A2995 610 76 1800 210/16G24 RMK AO2 PK WND 19027/2312 SLP137 60000 T02390194 10256 20233 56010 $
14840KMKG MKG20030726190010407/26/03 19:00:31  5-MIN KMKG 270000Z 20014G24KT 10SM FEW100 23/19 A2994 610 78 1800 210/14G24 RMK AO2 $
14840KMKG MKG20030726190510407/26/03 19:05:31  5-MIN KMKG 270005Z 20014G19KT 10SM FEW100 24/19 A2994 610 76 1800 210/14G19 RMK AO2 $
14840KMKG MKG20030726191009807/26/03 19:10:31  5-MIN KMKG 270010Z 20015KT 10SM FEW100 23/19 A2994 610 78 1800 210/15 RMK AO2 $
14840KMKG MKG20030726191509807/26/03 19:15:31  5-MIN KMKG 270015Z 21013KT 10SM FEW100 23/19 A2995 600 78 1800 210/13 RMK AO2 $
14840KMKG MKG20030726192009807/26/03 19:20:31  5-MIN KMKG 270020Z 21012KT 10SM SCT110 23/19 A2995 610 78 1800 210/12 RMK AO2 $
14840KMKG MKG20030726192509807/26/03 19:25:31  5-MIN KMKG 270025Z 21013KT 10SM SCT110 23/19 A2995 600 78 1800 210/13 RMK AO2 $
14840KMKG MKG20030726193009807/26/03 19:30:31  5-MIN KMKG 270030Z 21014KT 10SM SCT110 23/19 A2994 610 78 1800 220/14 RMK AO2 $
14840KMKG MKG20030726193509807/26/03 19:35:31  5-MIN KMKG 270035Z 21014KT 10SM SCT110 23/19 A2995 610 78 1800 210/14 RMK AO2 $
14840KMKG MKG20030726194009807/26/03 19:40:31  5-MIN KMKG 270040Z 21013KT 10SM SCT110 23/19 A2995 610 78 1800 220/13 RMK AO2 $
14840KMKG MKG20030726194510407/26/03 19:45:31  5-MIN KMKG 270045Z 20016G21KT 10SM SCT110 23/19 A2994 610 78 1800 210/16G21 RMK AO2 $
14840KMKG MKG20030726195012107/26/03 19:50:31  5-MIN KMKG 270050Z 21016G21KT 10SM SCT100 24/19 A2995 610 76 1800 220/16G21 RMK AO2 SLP138 T02390194 $
14840KMKG MKG20030726195512107/26/03 19:55:31  5-MIN KMKG 270055Z 22013G20KT 10SM SCT100 23/19 A2995 600 78 1700 220/13G20 RMK AO2 SLP140 T02330194 $
14840KMKG MKG20030726200011507/26/03 20:00:31  5-MIN KMKG 270100Z 22013KT 9SM -RA FEW100 23/19 A2996 600 78 1700 230/13 RMK AO2 RAB0059 P0000 $
14840KMKG MKG20030726200512107/26/03 20:05:31  5-MIN KMKG 270105Z 21014G19KT 9SM -RA FEW100 23/19 A2996 600 78 1700 220/14G19 RMK AO2 RAB0059 P0000 $
14840KMKG MKG20030726201012007/26/03 20:10:31  5-MIN KMKG 270110Z 22015G19KT 9SM FEW100 23/19 A2996 600 78 1700 220/15G19 RMK AO2 RAB0059E08 P0000 $
14840KMKG MKG20030726201511507/26/03 20:15:31  5-MIN KMKG 270115Z 21013KT 9SM -RA FEW100 23/19 A2996 600 81 1700 220/13 RMK AO2 RAB0059 P0000 $
14840KMKG MKG20030726202011507/26/03 20:20:31  5-MIN KMKG 270120Z 22014KT 8SM -RA SCT027 23/20 A2996 590 84 1700 220/14 RMK AO2 RAB0059 P0000 $
14840KMKG MKG20030726202512607/26/03 20:25:31  5-MIN KMKG 270125Z 22015KT 9SM -RA SCT033 23/20 A2996 590 84 1700 220/15 RMK AO2 RAB0059 LTG DSNT S P0000 $
14840KMKG MKG20030726203012707/26/03 20:30:31  5-MIN KMKG 270130Z 21015KT 10SM -RA SCT033 23/20 A2996 600 84 1700 210/15 RMK AO2 RAB0059 LTG DSNT S P0000 $
14840KMKG MKG20030726203512707/26/03 20:35:31  5-MIN KMKG 270135Z 21015KT 10SM -RA FEW031 23/19 A2996 590 81 1700 220/15 RMK AO2 RAB0059 LTG DSNT S P0000 $
14840KMKG MKG20030726204012707/26/03 20:40:31  5-MIN KMKG 270140Z 22015KT 10SM FEW031 23/19 A2996 600 81 1700 220/15 RMK AO2 RAB0059E39 LTG DSNT SW P0000 $
14840KMKG MKG20030726204512707/26/03 20:45:31  5-MIN KMKG 270145Z 21016KT 10SM FEW036 23/19 A2996 590 81 1700 220/16 RMK AO2 RAB0059E39 LTG DSNT SW P0000 $
14840KMKG MKG20030726205015107/26/03 20:50:31  5-MIN KMKG 270150Z 22017KT 10SM FEW040 SCT048 23/19 A2996 590 81 1700 220/17 RMK AO2 RAB0059E39 SLP143 LTG DSNT SW P0000 T02280194 $
14840KMKG MKG20030726205514407/26/03 20:55:31  5-MIN KMKG 270155Z 21018KT 10SM BKN048 23/19 A2996 590 81 1700 220/18 RMK AO2 RAB0059E39 SLP143 LTG DSNT SW P0000 T02280194 $
14840KMKG MKG20030726210012207/26/03 21:00:31  5-MIN KMKG 270200Z 21019G26KT 10SM BKN048 23/19 A2996 590 78 1700 210/19G26 RMK AO2 PK WND 21026/0200 $
14840KMKG MKG20030726210513807/26/03 21:05:31  5-MIN KMKG 270205Z 22017G26KT 10SM -RA BKN048 23/19 A2996 590 78 1700 220/17G26 RMK AO2 PK WND 21026/0200 RAB03 P0000 $
14840KMKG MKG20030726211013107/26/03 21:10:31  5-MIN KMKG 270210Z 22017KT 10SM OVC048 23/19 A2997 590 78 1700 220/17 RMK AO2 PK WND 21026/0200 RAB03E10 P0000 $
14840KMKG MKG20030726211513707/26/03 21:15:31  5-MIN KMKG 270215Z 21018G24KT 10SM BKN046 23/19 A2997 590 78 1700 220/18G24 RMK AO2 PK WND 21026/0200 RAB03E10 P0000 $
14840KMKG MKG20030726212013707/26/03 21:20:31  5-MIN KMKG 270220Z 21020G24KT 10SM BKN046 23/19 A2997 590 78 1700 210/20G24 RMK AO2 PK WND 21026/0200 RAB03E10 P0000 $
14840KMKG MKG20030726212513707/26/03 21:25:31  5-MIN KMKG 270225Z 21018G24KT 10SM BKN046 23/19 A2997 580 78 1700 210/18G24 RMK AO2 PK WND 21026/0200 RAB03E10 P0000 $
14840KMKG MKG20030726213013107/26/03 21:30:31  5-MIN KMKG 270230Z 21018KT 10SM BKN046 23/19 A2997 580 78 1700 210/18 RMK AO2 PK WND 21026/0200 RAB03E10 P0000 $
14840KMKG MKG20030726213513707/26/03 21:35:31  5-MIN KMKG 270235Z 21017G23KT 10SM BKN046 23/19 A2997 580 78 1700 210/17G23 RMK AO2 PK WND 21026/0200 RAB03E10 P0000 $
14840KMKG MKG20030726214013707/26/03 21:40:31  5-MIN KMKG 270240Z 21018G23KT 10SM BKN046 23/19 A2997 580 78 1700 210/18G23 RMK AO2 PK WND 21026/0200 RAB03E10 P0000 $
14840KMKG MKG20030726214513707/26/03 21:45:31  5-MIN KMKG 270245Z 21016G24KT 10SM BKN046 23/19 A2997 590 78 1700 210/16G24 RMK AO2 PK WND 21026/0200 RAB03E10 P0000 $
14840KMKG MKG20030726215016607/26/03 21:50:31  5-MIN KMKG 270250Z 21018G24KT 10SM BKN048 23/19 A2997 590 78 1700 210/18G24 RMK AO2 PK WND 21026/0200 RAB03E10 SLP145 P0000 60000 T02330194 56010 $
14840KMKG MKG20030726215516007/26/03 21:55:31  5-MIN KMKG 270255Z 21016KT 10SM BKN048 23/19 A2997 580 78 1700 210/16 RMK AO2 PK WND 21026/0200 RAB03E10 SLP146 P0000 60000 T02330194 53008 $
14840KMKG MKG20030726220011107/26/03 22:00:31  5-MIN KMKG 270300Z 20018G22KT 10SM BKN043 OVC050 23/19 A2997 580 78 1700 210/18G22 RMK AO2 $
14840KMKG MKG20030726220511107/26/03 22:05:31  5-MIN KMKG 270305Z 21017G22KT 10SM BKN043 OVC050 23/19 A2997 580 78 1700 210/17G22 RMK AO2 $
14840KMKG MKG20030726221010407/26/03 22:10:31  5-MIN KMKG 270310Z 21016G20KT 10SM OVC043 23/19 A2997 590 78 1700 210/16G20 RMK AO2 $
14840KMKG MKG20030726221509807/26/03 22:15:31  5-MIN KMKG 270315Z 21016KT 10SM OVC043 23/19 A2997 590 78 1700 210/16 RMK AO2 $
14840KMKG MKG20030726222010407/26/03 22:20:31  5-MIN KMKG 270320Z 21018G21KT 10SM OVC041 23/19 A2996 590 78 1700 210/18G21 RMK AO2 $
14840KMKG MKG20030726222509807/26/03 22:25:31  5-MIN KMKG 270325Z 20016KT 10SM OVC041 23/19 A2996 590 78 1700 210/16 RMK AO2 $
14840KMKG MKG20030726223011107/26/03 22:30:31  5-MIN KMKG 270330Z 21016G22KT 10SM BKN039 OVC060 23/19 A2996 600 78 1700 210/16G22 RMK AO2 $
14840KMKG MKG20030726223511807/26/03 22:35:31  5-MIN KMKG 270335Z 21016G22KT 10SM BKN039 BKN045 OVC060 23/19 A2996 600 78 1700 210/16G22 RMK AO2 $
14840KMKG MKG20030726224011807/26/03 22:40:31  5-MIN KMKG 270340Z 20016G22KT 10SM BKN039 BKN047 OVC060 23/19 A2995 600 78 1700 210/16G22 RMK AO2 $
14840KMKG MKG20030726224511207/26/03 22:45:31  5-MIN KMKG 270345Z 21017KT 10SM BKN037 BKN045 OVC060 23/19 A2995 600 78 1700 210/17 RMK AO2 $
14840KMKG MKG20030726225012807/26/03 22:50:31  5-MIN KMKG 270350Z 21018G22KT 10SM BKN037 OVC060 23/19 A2995 600 78 1700 210/18G22 RMK AO2 SLP138 T02330194 $
14840KMKG MKG20030726225513507/26/03 22:55:31  5-MIN KMKG 270355Z 20015G22KT 10SM SCT037 BKN045 OVC060 23/19 A2995 600 78 1700 210/15G22 RMK AO2 SLP138 T02330194 $
14840KMKG MKG20030726230011107/26/03 23:00:31  5-MIN KMKG 270400Z 21013G21KT 10SM SCT037 OVC060 23/19 A2995 610 78 1800 210/13G21 RMK AO2 $
14840KMKG MKG20030726230511807/26/03 23:05:31  5-MIN KMKG 270405Z 20015G21KT 10SM SCT039 BKN050 OVC060 23/19 A2995 600 78 1800 210/15G21 RMK AO2 $
14840KMKG MKG20030726231011207/26/03 23:10:31  5-MIN KMKG 270410Z 21015KT 10SM BKN037 BKN044 OVC060 23/19 A2995 600 78 1700 210/15 RMK AO2 $
14840KMKG MKG20030726231511207/26/03 23:15:31  5-MIN KMKG 270415Z 21017KT 10SM BKN037 BKN044 OVC060 23/19 A2995 600 78 1700 210/17 RMK AO2 $
14840KMKG MKG20030726232011207/26/03 23:20:31  5-MIN KMKG 270420Z 21015KT 10SM BKN037 BKN048 OVC060 23/19 A2995 610 76 1800 210/15 RMK AO2 $
14840KMKG MKG20030726232511207/26/03 23:25:31  5-MIN KMKG 270425Z 21014KT 10SM BKN037 BKN046 OVC060 23/19 A2994 610 78 1800 220/14 RMK AO2 $
14840KMKG MKG20030726233010507/26/03 23:30:31  5-MIN KMKG 270430Z 21014KT 10SM BKN037 OVC046 23/19 A2995 610 78 1800 220/14 RMK AO2 $
14840KMKG MKG20030726233510507/26/03 23:35:31  5-MIN KMKG 270435Z 21014KT 10SM BKN035 OVC060 23/19 A2994 610 78 1800 210/14 RMK AO2 $
14840KMKG MKG20030726234011107/26/03 23:40:31  5-MIN KMKG 270440Z 21015G20KT 10SM BKN035 OVC060 23/19 A2994 610 78 1800 210/15G20 RMK AO2 $
14840KMKG MKG20030726234510507/26/03 23:45:31  5-MIN KMKG 270445Z 21016KT 10SM BKN035 OVC060 23/19 A2994 610 78 1800 220/16 RMK AO2 $
14840KMKG MKG20030726235013907/26/03 23:50:31  5-MIN KMKG 270450Z 21016KT 10SM BKN035 BKN041 OVC060 23/19 A2994 610 78 1800 220/16 RMK AO2 SLP136 T02330194 402560211 $
14840KMKG MKG20030726235514507/26/03 23:55:31  5-MIN KMKG 270455Z 21016G23KT 10SM SCT035 BKN042 OVC060 23/19 A2994 610 78 1800 220/16G23 RMK AO2 SLP136 T02330194 402560211 $
14840KMKG MKG20030727000011107/27/03 00:00:32  5-MIN KMKG 270500Z 21017G23KT 10SM BKN035 OVC060 23/19 A2994 610 78 1800 220/17G23 RMK AO2 $
14840KMKG MKG20030727000513607/27/03 00:05:31  5-MIN KMKG 270505Z 21018G27KT 10SM BKN035 BKN044 OVC060 23/19 A2994 610 78 1800 220/18G27 RMK AO2 PK WND 21027/0504 $
14840KMKG MKG20030727001012907/27/03 00:10:31  5-MIN KMKG 270510Z 21015G27KT 10SM BKN035 OVC060 24/19 A2994 610 76 1800 220/15G27 RMK AO2 PK WND 21027/0504 $
14840KMKG MKG20030727001513007/27/03 00:15:31  5-MIN KMKG 270515Z 22014KT 10SM BKN035 BKN042 OVC060 23/19 A2994 620 78 1800 220/14 RMK AO2 PK WND 21027/0504 $
14840KMKG MKG20030727002012307/27/03 00:20:31  5-MIN KMKG 270520Z 22015KT 10SM SCT035 OVC060 23/19 A2993 620 78 1800 220/15 RMK AO2 PK WND 21027/0504 $
14840KMKG MKG20030727002513007/27/03 00:25:31  5-MIN KMKG 270525Z 22015KT 10SM SCT035 BKN050 OVC065 23/19 A2993 620 78 1800 220/15 RMK AO2 PK WND 21027/0504 $
14840KMKG MKG20030727003013007/27/03 00:30:31  5-MIN KMKG 270530Z 21014KT 10SM BKN035 BKN050 OVC065 23/19 A2993 620 78 1800 220/14 RMK AO2 PK WND 21027/0504 $
14840KMKG MKG20030727003512907/27/03 00:35:31  5-MIN KMKG 270535Z 22017G22KT 10SM BKN035 OVC065 23/19 A2993 620 78 1800 220/17G22 RMK AO2 PK WND 21027/0504 $
14840KMKG MKG20030727004012907/27/03 00:40:31  5-MIN KMKG 270540Z 21015G22KT 10SM BKN035 OVC065 23/19 A2993 620 78 1800 220/15G22 RMK AO2 PK WND 21027/0504 $
14840KMKG MKG20030727004513607/27/03 00:45:31  5-MIN KMKG 270545Z 22014G20KT 10SM BKN035 BKN050 OVC065 23/19 A2993 620 78 1800 220/14G20 RMK AO2 PK WND 21027/0504 $
14840KMKG MKG20030727005017707/27/03 00:50:31  5-MIN KMKG 270550Z 21015G20KT 10SM BKN035 BKN055 OVC070 23/19 A2993 620 78 1800 220/15G20 RMK AO2 PK WND 21027/0504 SLP131 60000 T02330194 10239 20228 53008 $
14840KMKG MKG20030727005517007/27/03 00:55:31  5-MIN KMKG 270555Z 21016G21KT 10SM BKN035 OVC070 23/19 A2993 630 78 1800 210/16G21 RMK AO2 PK WND 21027/0504 SLP130 60000 T02330194 10239 20228 56015 $
14840KMKG MKG20030727010010507/27/03 01:00:31  5-MIN KMKG 270600Z 21015KT 10SM BKN035 OVC070 23/19 A2993 620 78 1800 220/15 RMK AO2 $
14840KMKG MKG20030727222009507/27/03 22:20:31  5-MIN KMKG 280320Z 03004KT 10SM CLR 19/15 A3005 510 75 1200 030/04 RMK AO2 $
14840KMKG MKG20030727222509507/27/03 22:25:31  5-MIN KMKG 280325Z 02005KT 10SM CLR 19/15 A3005 510 75 1200 020/05 RMK AO2 $
14840KMKG MKG20030727223009507/27/03 22:30:31  5-MIN KMKG 280330Z 04005KT 10SM CLR 19/15 A3006 510 75 1200 040/05 RMK AO2 $
14840KMKG MKG20030727223509507/27/03 22:35:31  5-MIN KMKG 280335Z 05005KT 10SM CLR 19/15 A3005 510 75 1200 050/05 RMK AO2 $
14840KMKG MKG20030727224009507/27/03 22:40:31  5-MIN KMKG 280340Z 05007KT 10SM CLR 19/15 A3005 510 78 1100 050/07 RMK AO2 $
14840KMKG MKG20030727224509507/27/03 22:45:31  5-MIN KMKG 280345Z 05006KT 10SM CLR 19/14 A3005 510 72 1200 050/06 RMK AO2 $
14840KMKG MKG20030727225011207/27/03 22:50:31  5-MIN KMKG 280350Z 05006KT 10SM CLR 19/14 A3005 510 75 1100 050/06 RMK AO2 SLP172 T01890144 $
14840KMKG MKG20030727225511207/27/03 22:55:31  5-MIN KMKG 280355Z 03007KT 10SM CLR 19/14 A3005 510 75 1100 040/07 RMK AO2 SLP172 T01890144 $
14840KMKG MKG20030727230009507/27/03 23:00:31  5-MIN KMKG 280400Z 02005KT 10SM CLR 19/14 A3005 510 75 1100 030/05 RMK AO2 $
14840KMKG MKG20030727230509507/27/03 23:05:31  5-MIN KMKG 280405Z 02005KT 10SM CLR 19/16 A3005 510 81 1100 020/05 RMK AO2 $
14840KMKG MKG20030727231009507/27/03 23:10:31  5-MIN KMKG 280410Z 03006KT 10SM CLR 19/16 A3005 510 81 1100 030/06 RMK AO2 $
14840KMKG MKG20030727231509507/27/03 23:15:31  5-MIN KMKG 280415Z 04007KT 10SM CLR 19/16 A3005 510 81 1100 050/07 RMK AO2 $
14840KMKG MKG20030727232009507/27/03 23:20:31  5-MIN KMKG 280420Z 04005KT 10SM CLR 18/14 A3005 510 78 1100 050/05 RMK AO2 $
14840KMKG MKG20030727232509507/27/03 23:25:31  5-MIN KMKG 280425Z 04005KT 10SM CLR 18/14 A3005 510 78 1100 040/05 RMK AO2 $
14840KMKG MKG20030727233009507/27/03 23:30:31  5-MIN KMKG 280430Z 03005KT 10SM CLR 19/14 A3005 510 75 1100 040/05 RMK AO2 $
14840KMKG MKG20030727233509507/27/03 23:35:31  5-MIN KMKG 280435Z 02005KT 10SM CLR 18/14 A3006 510 78 1100 030/05 RMK AO2 $
14840KMKG MKG20030727234009507/27/03 23:40:31  5-MIN KMKG 280440Z 03004KT 10SM CLR 18/14 A3006 500 78 1100 030/04 RMK AO2 $
14840KMKG MKG20030727234509507/27/03 23:45:31  5-MIN KMKG 280445Z 03005KT 10SM CLR 18/14 A3006 510 78 1100 030/05 RMK AO2 $
14840KMKG MKG20030727235012207/27/03 23:50:31  5-MIN KMKG 280450Z 03006KT 10SM CLR 18/14 A3005 510 78 1100 040/06 RMK AO2 SLP174 T01830144 403000183 $
14840KMKG MKG20030727235512207/27/03 23:55:31  5-MIN KMKG 280455Z 03007KT 10SM CLR 18/14 A3005 510 75 1100 030/07 RMK AO2 SLP174 T01830139 403000183 $
14840KMKG MKG20030728000009507/28/03 00:00:32  5-MIN KMKG 280500Z 03006KT 10SM CLR 18/14 A3006 500 75 1000 030/06 RMK AO2 $
14840KMKG MKG20030728000509507/28/03 00:05:31  5-MIN KMKG 280505Z 01008KT 10SM CLR 18/14 A3006 500 75 1100 010/08 RMK AO2 $
14840KMKG MKG20030728001009507/28/03 00:10:31  5-MIN KMKG 280510Z 02006KT 10SM CLR 18/14 A3006 500 75 1000 020/06 RMK AO2 $
14840KMKG MKG20030728001509507/28/03 00:15:31  5-MIN KMKG 280515Z 01006KT 10SM CLR 18/14 A3006 500 75 1000 020/06 RMK AO2 $
14840KMKG MKG20030728002009507/28/03 00:20:31  5-MIN KMKG 280520Z 02006KT 10SM CLR 18/14 A3006 500 78 1000 020/06 RMK AO2 $
14840KMKG MKG20030728002509507/28/03 00:25:31  5-MIN KMKG 280525Z 02007KT 10SM CLR 18/13 A3006 500 75 1000 020/07 RMK AO2 $
14840KMKG MKG20030728003009507/28/03 00:30:31  5-MIN KMKG 280530Z 02006KT 10SM CLR 18/13 A3006 500 75 1000 020/06 RMK AO2 $
14840KMKG MKG20030728003509507/28/03 00:35:31  5-MIN KMKG 280535Z 01006KT 10SM CLR 18/13 A3006 500 75 1000 010/06 RMK AO2 $
14840KMKG MKG20030728004009507/28/03 00:40:31  5-MIN KMKG 280540Z 36007KT 10SM CLR 18/14 A3006 500 78 1000 360/07 RMK AO2 $
14840KMKG MKG20030728004509507/28/03 00:45:31  5-MIN KMKG 280545Z 02007KT 10SM CLR 18/13 A3006 500 75 1000 020/07 RMK AO2 $
14840KMKG MKG20030728005013007/28/03 00:50:31  5-MIN KMKG 280550Z 01007KT 10SM CLR 18/13 A3006 500 75 1000 010/07 RMK AO2 SLP176 T01780133 10244 20178 53030 $
14840KMKG MKG20030728005512907/28/03 00:55:31  5-MIN KMKG 280555Z 01007KT 10SM CLR 17/13 A3006 500 78 900 010/07 RMK AO2 SLP175 T01720133 10244 20172 53004 $
14840KMKG MKG20030728010009507/28/03 01:00:31  5-MIN KMKG 280600Z 01006KT 10SM CLR 18/13 A3006 500 75 1000 010/06 RMK AO2 $
14840KMKG MKG20030728010509407/28/03 01:05:31  5-MIN KMKG 280605Z 01005KT 10SM CLR 17/13 A3006 500 78 900 010/05 RMK AO2 $
14840KMKG MKG20030728011009407/28/03 01:10:31  5-MIN KMKG 280610Z 01007KT 10SM CLR 17/13 A3006 510 78 900 020/07 RMK AO2 $
14840KMKG MKG20030728011509407/28/03 01:15:31  5-MIN KMKG 280615Z 01006KT 10SM CLR 17/13 A3005 510 78 900 010/06 RMK AO2 $
14840KMKG MKG20030728012009407/28/03 01:20:31  5-MIN KMKG 280620Z 02006KT 10SM CLR 17/13 A3005 510 78 900 030/06 RMK AO2 $
14840KMKG MKG20030728012509407/28/03 01:25:31  5-MIN KMKG 280625Z 03006KT 10SM CLR 17/13 A3005 510 78 900 030/06 RMK AO2 $
14840KMKG MKG20030728013009407/28/03 01:30:31  5-MIN KMKG 280630Z 03005KT 10SM CLR 17/13 A3005 510 77 900 030/05 RMK AO2 $
14840KMKG MKG20030728013509407/28/03 01:35:31  5-MIN KMKG 280635Z 03006KT 10SM CLR 17/13 A3005 510 77 900 030/06 RMK AO2 $
14840KMKG MKG20030728014009407/28/03 01:40:31  5-MIN KMKG 280640Z 02003KT 10SM CLR 17/13 A3005 510 77 900 030/03 RMK AO2 $
14840KMKG MKG20030728014509407/28/03 01:45:31  5-MIN KMKG 280645Z 02003KT 10SM CLR 17/13 A3005 510 77 900 020/03 RMK AO2 $
14840KMKG MKG20030728015011107/28/03 01:50:31  5-MIN KMKG 280650Z 02004KT 10SM CLR 17/13 A3005 510 77 900 030/04 RMK AO2 SLP173 T01670128 $
14840KMKG MKG20030728015511107/28/03 01:55:31  5-MIN KMKG 280655Z 01003KT 10SM CLR 17/13 A3005 510 77 900 020/03 RMK AO2 SLP172 T01670128 $
14840KMKG MKG20030728020009407/28/03 02:00:31  5-MIN KMKG 280700Z 01006KT 10SM CLR 16/13 A3005 510 83 700 010/06 RMK AO2 $
14840KMKG MKG20030728020509407/28/03 02:05:31  5-MIN KMKG 280705Z 01004KT 10SM CLR 16/13 A3005 510 80 800 010/04 RMK AO2 $
14840KMKG MKG20030728021009407/28/03 02:10:31  5-MIN KMKG 280710Z 01006KT 10SM CLR 16/13 A3005 510 83 700 010/06 RMK AO2 $
14840KMKG MKG20030728021509407/28/03 02:15:31  5-MIN KMKG 280715Z 01006KT 10SM CLR 16/13 A3005 510 83 700 010/06 RMK AO2 $
14840KMKG MKG20030728022009407/28/03 02:20:31  5-MIN KMKG 280720Z 36005KT 10SM CLR 16/13 A3005 510 80 800 360/05 RMK AO2 $
14840KMKG MKG20030728022509407/28/03 02:25:31  5-MIN KMKG 280725Z 36006KT 10SM CLR 16/13 A3005 510 80 800 010/06 RMK AO2 $
14840KMKG MKG20030728023009407/28/03 02:30:31  5-MIN KMKG 280730Z 01006KT 10SM CLR 16/13 A3005 510 83 700 010/06 RMK AO2 $
14840KMKG MKG20030728023509407/28/03 02:35:31  5-MIN KMKG 280735Z 02005KT 10SM CLR 16/13 A3004 520 80 800 020/05 RMK AO2 $
14840KMKG MKG20030728024009407/28/03 02:40:31  5-MIN KMKG 280740Z 02005KT 10SM CLR 16/13 A3004 520 80 800 020/05 RMK AO2 $
14840KMKG MKG20030728024509407/28/03 02:45:31  5-MIN KMKG 280745Z 02005KT 10SM CLR 16/13 A3005 510 83 700 020/05 RMK AO2 $
14840KMKG MKG20030728025011107/28/03 02:50:31  5-MIN KMKG 280750Z 02004KT 10SM CLR 16/13 A3004 520 83 700 020/04 RMK AO2 SLP171 T01560128 $
14840KMKG MKG20030728025511107/28/03 02:55:31  5-MIN KMKG 280755Z 02004KT 10SM CLR 16/13 A3004 520 83 700 030/04 RMK AO2 SLP170 T01560128 $
14840KMKG MKG20030728030009407/28/03 03:00:31  5-MIN KMKG 280800Z 02003KT 10SM CLR 16/13 A3004 520 83 700 020/03 RMK AO2 $
14840KMKG MKG20030728030509407/28/03 03:05:31  5-MIN KMKG 280805Z 02004KT 10SM CLR 16/13 A3004 520 83 700 020/04 RMK AO2 $
14840KMKG MKG20030728031009407/28/03 03:10:31  5-MIN KMKG 280810Z 03003KT 10SM CLR 16/13 A3004 520 83 800 030/03 RMK AO2 $
14840KMKG MKG20030728031509407/28/03 03:15:31  5-MIN KMKG 280815Z 03004KT 10SM CLR 16/13 A3003 520 83 800 040/04 RMK AO2 $
14840KMKG MKG20030728032009407/28/03 03:20:31  5-MIN KMKG 280820Z 03004KT 10SM CLR 16/13 A3003 530 83 800 040/04 RMK AO2 $
14840KMKG MKG20030728032509407/28/03 03:25:31  5-MIN KMKG 280825Z 03004KT 10SM CLR 16/13 A3003 530 83 800 030/04 RMK AO2 $
14840KMKG MKG20030728033009407/28/03 03:30:31  5-MIN KMKG 280830Z 02004KT 10SM CLR 16/13 A3004 520 83 800 030/04 RMK AO2 $
14840KMKG MKG20030728033509407/28/03 03:35:31  5-MIN KMKG 280835Z 03004KT 10SM CLR 16/13 A3004 520 83 800 040/04 RMK AO2 $
14840KMKG MKG20030728034009407/28/03 03:40:31  5-MIN KMKG 280840Z 05006KT 10SM CLR 16/13 A3003 530 83 800 050/06 RMK AO2 $
14840KMKG MKG20030728034509407/28/03 03:45:31  5-MIN KMKG 280845Z 04006KT 10SM CLR 16/13 A3002 540 83 800 050/06 RMK AO2 $
14840KMKG MKG20030728035011707/28/03 03:50:31  5-MIN KMKG 280850Z 05007KT 10SM CLR 16/13 A3002 540 83 800 050/07 RMK AO2 SLP162 T01560128 53004 $
14840KMKG MKG20030728035511707/28/03 03:55:31  5-MIN KMKG 280855Z 05007KT 10SM CLR 16/13 A3002 540 83 800 050/07 RMK AO2 SLP162 T01560128 58014 $
14840KMKG MKG20030728040009407/28/03 04:00:31  5-MIN KMKG 280900Z 05007KT 10SM CLR 16/13 A3002 540 83 800 060/07 RMK AO2 $
14840KMKG MKG20030728040509407/28/03 04:05:31  5-MIN KMKG 280905Z 04006KT 10SM CLR 16/13 A3002 540 83 800 050/06 RMK AO2 $
14840KMKG MKG20030728041009407/28/03 04:10:31  5-MIN KMKG 280910Z 04007KT 10SM CLR 16/13 A3002 540 83 800 040/07 RMK AO2 $
14840KMKG MKG20030728041509407/28/03 04:15:31  5-MIN KMKG 280915Z 04007KT 10SM CLR 16/13 A3002 540 83 800 040/07 RMK AO2 $
14840KMKG MKG20030728042009407/28/03 04:20:31  5-MIN KMKG 280920Z 04008KT 10SM CLR 16/13 A3002 540 83 800 050/08 RMK AO2 $
14840KMKG MKG20030728042509407/28/03 04:25:31  5-MIN KMKG 280925Z 04007KT 10SM CLR 16/13 A3001 540 83 800 050/07 RMK AO2 $
14840KMKG MKG20030728043009407/28/03 04:30:31  5-MIN KMKG 280930Z 04007KT 10SM CLR 16/13 A3001 540 83 800 050/07 RMK AO2 $
14840KMKG MKG20030728043509407/28/03 04:35:31  5-MIN KMKG 280935Z 04007KT 10SM CLR 16/13 A3001 550 83 800 040/07 RMK AO2 $
14840KMKG MKG20030728044009407/28/03 04:40:31  5-MIN KMKG 280940Z 04007KT 10SM CLR 16/13 A3001 550 83 800 040/07 RMK AO2 $
14840KMKG MKG20030728044509407/28/03 04:45:31  5-MIN KMKG 280945Z 04007KT 10SM CLR 16/13 A3001 550 83 800 050/07 RMK AO2 $
14840KMKG MKG20030728045011107/28/03 04:50:31  5-MIN KMKG 280950Z 04008KT 10SM CLR 16/13 A3001 550 83 800 040/08 RMK AO2 SLP160 T01560128 $
14840KMKG MKG20030728045511107/28/03 04:55:31  5-MIN KMKG 280955Z 04007KT 10SM CLR 16/13 A3001 540 83 800 040/07 RMK AO2 SLP161 T01560128 $
14840KMKG MKG20030728050009407/28/03 05:00:31  5-MIN KMKG 281000Z 04007KT 10SM CLR 16/13 A3001 540 83 800 050/07 RMK AO2 $
14840KMKG MKG20030728050509407/28/03 05:05:31  5-MIN KMKG 281005Z 04007KT 10SM CLR 16/13 A3001 540 83 800 050/07 RMK AO2 $
14840KMKG MKG20030728051009407/28/03 05:10:31  5-MIN KMKG 281010Z 04006KT 10SM CLR 16/13 A3002 540 83 800 050/06 RMK AO2 $
14840KMKG MKG20030728051509407/28/03 05:15:31  5-MIN KMKG 281015Z 03005KT 10SM CLR 16/13 A3002 540 83 800 030/05 RMK AO2 $
14840KMKG MKG20030728052009407/28/03 05:20:31  5-MIN KMKG 281020Z 04007KT 10SM CLR 16/13 A3002 540 83 800 040/07 RMK AO2 $
14840KMKG MKG20030728052509407/28/03 05:25:31  5-MIN KMKG 281025Z 04006KT 10SM CLR 16/13 A3002 540 83 800 040/06 RMK AO2 $
14840KMKG MKG20030728053009407/28/03 05:30:31  5-MIN KMKG 281030Z 03007KT 10SM CLR 16/13 A3002 540 83 800 030/07 RMK AO2 $
14840KMKG MKG20030728053509407/28/03 05:35:31  5-MIN KMKG 281035Z 03008KT 10SM CLR 16/13 A3002 540 83 800 040/08 RMK AO2 $
14840KMKG MKG20030728054009407/28/03 05:40:31  5-MIN KMKG 281040Z 03006KT 10SM CLR 16/13 A3002 540 83 800 030/06 RMK AO2 $
14840KMKG MKG20030728054509407/28/03 05:45:31  5-MIN KMKG 281045Z 02005KT 10SM CLR 16/13 A3003 530 83 800 030/05 RMK AO2 $
14840KMKG MKG20030728055011107/28/03 05:50:31  5-MIN KMKG 281050Z 04005KT 10SM CLR 16/13 A3003 530 83 800 050/05 RMK AO2 SLP166 T01560128 $
14840KMKG MKG20030728055511107/28/03 05:55:31  5-MIN KMKG 281055Z 05003KT 10SM CLR 15/13 A3003 530 86 700 050/03 RMK AO2 SLP166 T01500128 $
14840KMKG MKG20030728060009407/28/03 06:00:31  5-MIN KMKG 281100Z 05003KT 10SM CLR 16/13 A3003 530 83 800 050/03 RMK AO2 $
14840KMKG MKG20030728060509407/28/03 06:05:31  5-MIN KMKG 281105Z VRB04KT 10SM CLR 15/13 A3002 530 86 700 VRB/04 RMK AO2 $
14840KMKG MKG20030728061009407/28/03 06:10:31  5-MIN KMKG 281110Z 04005KT 10SM CLR 15/13 A3003 530 86 700 050/05 RMK AO2 $
14840KMKG MKG20030728061509407/28/03 06:15:31  5-MIN KMKG 281115Z 05004KT 10SM CLR 15/13 A3002 530 86 700 050/04 RMK AO2 $
14840KMKG MKG20030728062009407/28/03 06:20:31  5-MIN KMKG 281120Z 05006KT 10SM CLR 15/13 A3002 540 86 700 050/06 RMK AO2 $
14840KMKG MKG20030728062509407/28/03 06:25:31  5-MIN KMKG 281125Z 03006KT 10SM CLR 15/13 A3002 540 86 700 040/06 RMK AO2 $
14840KMKG MKG20030728063009407/28/03 06:30:31  5-MIN KMKG 281130Z 04008KT 10SM CLR 15/13 A3002 540 86 700 040/08 RMK AO2 $
14840KMKG MKG20030728063509407/28/03 06:35:31  5-MIN KMKG 281135Z 04005KT 10SM CLR 15/13 A3002 540 86 700 050/05 RMK AO2 $
14840KMKG MKG20030728064009407/28/03 06:40:31  5-MIN KMKG 281140Z 03005KT 10SM CLR 15/13 A3002 530 86 700 040/05 RMK AO2 $
14840KMKG MKG20030728064509407/28/03 06:45:31  5-MIN KMKG 281145Z 04004KT 10SM CLR 15/13 A3003 530 86 700 040/04 RMK AO2 $
14840KMKG MKG20030728065012907/28/03 06:50:31  5-MIN KMKG 281150Z 05003KT 10SM CLR 15/13 A3003 530 86 700 060/03 RMK AO2 SLP168 T01500128 10178 20150 58014 $
14840KMKG MKG20030728065512907/28/03 06:55:31  5-MIN KMKG 281155Z 06004KT 10SM CLR 15/13 A3003 530 90 700 070/04 RMK AO2 SLP167 T01500133 10178 20150 53004 $
14840KMKG MKG20030728070009407/28/03 07:00:31  5-MIN KMKG 281200Z 07004KT 10SM CLR 15/13 A3003 530 86 700 080/04 RMK AO2 $
14840KMKG MKG20030728070509407/28/03 07:05:31  5-MIN KMKG 281205Z 06005KT 10SM CLR 15/13 A3003 530 90 700 070/05 RMK AO2 $
14840KMKG MKG20030728071009407/28/03 07:10:31  5-MIN KMKG 281210Z 06004KT 10SM CLR 15/13 A3003 530 90 700 060/04 RMK AO2 $
14840KMKG MKG20030728071509407/28/03 07:15:31  5-MIN KMKG 281215Z 06004KT 10SM CLR 16/13 A3003 530 86 800 070/04 RMK AO2 $
14840KMKG MKG20030728072009407/28/03 07:20:31  5-MIN KMKG 281220Z 09004KT 10SM CLR 16/13 A3003 530 86 800 090/04 RMK AO2 $
14840KMKG MKG20030728072509407/28/03 07:25:31  5-MIN KMKG 281225Z 10004KT 10SM CLR 16/13 A3003 530 86 800 110/04 RMK AO2 $
14840KMKG MKG20030728073009407/28/03 07:30:31  5-MIN KMKG 281230Z 09005KT 10SM CLR 16/13 A3003 530 86 800 090/05 RMK AO2 $
14840KMKG MKG20030728073509407/28/03 07:35:31  5-MIN KMKG 281235Z 08005KT 10SM CLR 16/13 A3003 530 86 800 090/05 RMK AO2 $
14840KMKG MKG20030728074009407/28/03 07:40:31  5-MIN KMKG 281240Z 10006KT 10SM CLR 16/14 A3003 530 86 800 100/06 RMK AO2 $
14840KMKG MKG20030728074509407/28/03 07:45:31  5-MIN KMKG 281245Z 07006KT 10SM CLR 16/14 A3004 520 86 800 080/06 RMK AO2 $
14840KMKG MKG20030728075011107/28/03 07:50:31  5-MIN KMKG 281250Z 07006KT 10SM CLR 16/13 A3004 520 83 800 070/06 RMK AO2 SLP171 T01610133 $
14840KMKG MKG20030728075511807/28/03 07:55:31  5-MIN KMKG 281255Z 02008KT 10SM CLR 17/14 A3005 510 83 900 020/08 RMK AO2 PRESRR SLP174 T01670139 $
14840KMKG MKG20030728080009407/28/03 08:00:31  5-MIN KMKG 281300Z 03006KT 10SM CLR 17/14 A3005 510 83 900 030/06 RMK AO2 $
14840KMKG MKG20030728080509407/28/03 08:05:31  5-MIN KMKG 281305Z 04006KT 10SM CLR 17/14 A3005 510 83 900 050/06 RMK AO2 $
14840KMKG MKG20030728081009407/28/03 08:10:31  5-MIN KMKG 281310Z 09006KT 10SM CLR 17/14 A3005 510 80 900 090/06 RMK AO2 $
14840KMKG MKG20030728081509407/28/03 08:15:31  5-MIN KMKG 281315Z 06005KT 10SM CLR 17/14 A3005 510 80 900 060/05 RMK AO2 $
14840KMKG MKG20030728082009407/28/03 08:20:31  5-MIN KMKG 281320Z 06005KT 10SM CLR 17/14 A3006 500 80 900 060/05 RMK AO2 $
14840KMKG MKG20030728082509507/28/03 08:25:31  5-MIN KMKG 281325Z 06005KT 10SM CLR 18/14 A3006 510 75 1100 070/05 RMK AO2 $
14840KMKG MKG20030728083009507/28/03 08:30:31  5-MIN KMKG 281330Z 06006KT 10SM CLR 18/14 A3006 510 78 1000 070/06 RMK AO2 $
14840KMKG MKG20030728083509507/28/03 08:35:31  5-MIN KMKG 281335Z 07006KT 10SM CLR 18/14 A3005 510 75 1100 070/06 RMK AO2 $
14840KMKG MKG20030728084009507/28/03 08:40:31  5-MIN KMKG 281340Z 06006KT 10SM CLR 18/13 A3006 500 75 1000 060/06 RMK AO2 $
14840KMKG MKG20030728084509507/28/03 08:45:31  5-MIN KMKG 281345Z VRB04KT 10SM CLR 18/13 A3006 500 72 1000 VRB/04 RMK AO2 $
14840KMKG MKG20030728085011507/28/03 08:50:31  5-MIN KMKG 281350Z 09005KT 10SM FEW032 18/14 A3006 500 75 1000 090/05 RMK AO2 SLP177 T01830139 $
14840KMKG MKG20030728085511507/28/03 08:55:31  5-MIN KMKG 281355Z 12007KT 10SM FEW032 18/14 A3005 510 75 1100 130/07 RMK AO2 SLP175 T01830139 $
14840KMKG MKG20030728090009807/28/03 09:00:31  5-MIN KMKG 281400Z 11003KT 10SM FEW030 18/13 A3006 500 75 1000 110/03 RMK AO2 $
14840KMKG MKG20030728090509807/28/03 09:05:31  5-MIN KMKG 281405Z 10004KT 10SM FEW030 18/14 A3006 500 75 1000 110/04 RMK AO2 $
14840KMKG MKG20030728091009807/28/03 09:10:31  5-MIN KMKG 281410Z VRB04KT 10SM FEW030 18/14 A3006 500 75 1000 VRB/04 RMK AO2 $
14840KMKG MKG20030728091509507/28/03 09:15:31  5-MIN KMKG 281415Z VRB03KT 10SM CLR 18/14 A3006 500 75 1000 VRB/03 RMK AO2 $
14840KMKG MKG20030728092009507/28/03 09:20:31  5-MIN KMKG 281420Z VRB03KT 10SM CLR 18/14 A3006 500 75 1000 VRB/03 RMK AO2 $
14840KMKG MKG20030728092509507/28/03 09:25:31  5-MIN KMKG 281425Z VRB03KT 10SM CLR 19/14 A3006 500 72 1100 VRB/03 RMK AO2 $
14840KMKG MKG20030728093009507/28/03 09:30:31  5-MIN KMKG 281430Z 10005KT 10SM CLR 19/14 A3005 510 72 1200 110/05 RMK AO2 $
14840KMKG MKG20030728093509507/28/03 09:35:31  5-MIN KMKG 281435Z 09004KT 10SM CLR 19/14 A3005 510 70 1200 090/04 RMK AO2 $
14840KMKG MKG20030728094009507/28/03 09:40:31  5-MIN KMKG 281440Z VRB03KT 10SM CLR 19/14 A3005 510 72 1200 VRB/03 RMK AO2 $
14840KMKG MKG20030728094509507/28/03 09:45:31  5-MIN KMKG 281445Z VRB03KT 10SM CLR 20/14 A3006 500 70 1200 VRB/03 RMK AO2 $
14840KMKG MKG20030728095012107/28/03 09:50:31  5-MIN KMKG 281450Z 03005KT 10SM FEW032 20/15 A3006 500 72 1200 030/05 RMK AO2 SLP177 T02000150 53004 $
14840KMKG MKG20030728095512107/28/03 09:55:31  5-MIN KMKG 281455Z 08006KT 10SM FEW032 20/14 A3005 510 70 1200 080/06 RMK AO2 SLP175 T02000144 51008 $
14840KMKG MKG20030728100009507/28/03 10:00:31  5-MIN KMKG 281500Z 12003KT 10SM CLR 20/14 A3005 510 70 1200 130/03 RMK AO2 $
14840KMKG MKG20030728100509507/28/03 10:05:31  5-MIN KMKG 281505Z 10005KT 10SM CLR 21/15 A3006 500 68 1400 100/05 RMK AO2 $
14840KMKG MKG20030728101009507/28/03 10:10:31  5-MIN KMKG 281510Z VRB03KT 10SM CLR 21/15 A3005 510 70 1300 VRB/03 RMK AO2 $
14840KMKG MKG20030728101509507/28/03 10:15:31  5-MIN KMKG 281515Z VRB03KT 10SM CLR 21/15 A3006 500 70 1300 VRB/03 RMK AO2 $
14840KMKG MKG20030728102009507/28/03 10:20:31  5-MIN KMKG 281520Z 07004KT 10SM CLR 21/15 A3005 510 68 1400 070/04 RMK AO2 $
14840KMKG MKG20030728102509507/28/03 10:25:31  5-MIN KMKG 281525Z 00000KT 10SM CLR 21/15 A3005 510 68 1400 000/00 RMK AO2 $
14840KMKG MKG20030728103009507/28/03 10:30:31  5-MIN KMKG 281530Z VRB04KT 10SM CLR 21/15 A3006 510 68 1400 VRB/04 RMK AO2 $
14840KMKG MKG20030728103509507/28/03 10:35:31  5-MIN KMKG 281535Z 00000KT 10SM CLR 21/14 A3006 500 67 1300 000/00 RMK AO2 $
14840KMKG MKG20030728104009807/28/03 10:40:31  5-MIN KMKG 281540Z 12004KT 10SM FEW032 21/15 A3006 500 70 1300 120/04 RMK AO2 $
14840KMKG MKG20030728104509807/28/03 10:45:31  5-MIN KMKG 281545Z 00000KT 10SM BKN032 21/15 A3006 510 70 1300 000/00 RMK AO2 $
14840KMKG MKG20030728105011507/28/03 10:50:31  5-MIN KMKG 281550Z 00000KT 10SM BKN032 21/15 A3006 500 68 1400 000/00 RMK AO2 SLP176 T02110150 $
14840KMKG MKG20030728105512207/28/03 10:55:31  5-MIN KMKG 281555Z 03004KT 10SM FEW026 BKN032 23/16 A3006 500 65 1600 030/04 RMK AO2 SLP176 T02280161 $
14840KMKG MKG20030728110010507/28/03 11:00:31  5-MIN KMKG 281600Z 34006KT 10SM SCT026 BKN032 23/16 A3006 500 63 1600 350/06 RMK AO2 $
14840KMKG MKG20030728110510507/28/03 11:05:31  5-MIN KMKG 281605Z 35005KT 10SM FEW026 BKN032 23/16 A3006 500 63 1600 350/05 RMK AO2 $
14840KMKG MKG20030728111010507/28/03 11:10:31  5-MIN KMKG 281610Z VRB04KT 10SM FEW026 SCT032 22/16 A3006 510 65 1500 VRB/04 RMK AO2 $
14840KMKG MKG20030728111510507/28/03 11:15:31  5-MIN KMKG 281615Z VRB03KT 10SM FEW026 SCT032 22/16 A3005 510 65 1500 VRB/03 RMK AO2 $
14840KMKG MKG20030728112009807/28/03 11:20:31  5-MIN KMKG 281620Z VRB03KT 10SM FEW026 22/16 A3005 510 65 1500 VRB/03 RMK AO2 $
14840KMKG MKG20030728112509807/28/03 11:25:31  5-MIN KMKG 281625Z 07004KT 10SM FEW026 23/16 A3005 510 63 1600 070/04 RMK AO2 $
14840KMKG MKG20030728113009507/28/03 11:30:31  5-MIN KMKG 281630Z VRB04KT 10SM CLR 23/16 A3005 510 63 1600 VRB/04 RMK AO2 $
14840KMKG MKG20030728113509507/28/03 11:35:31  5-MIN KMKG 281635Z 36004KT 10SM CLR 23/16 A3005 510 63 1600 010/04 RMK AO2 $
14840KMKG MKG20030728114009807/28/03 11:40:31  5-MIN KMKG 281640Z 34006KT 10SM FEW033 23/16 A3005 520 63 1600 340/06 RMK AO2 $
14840KMKG MKG20030728114509807/28/03 11:45:31  5-MIN KMKG 281645Z 34006KT 10SM FEW033 23/16 A3004 520 61 1600 340/06 RMK AO2 $
14840KMKG MKG20030728115011207/28/03 11:50:31  5-MIN KMKG 281650Z 33006KT 10SM CLR 23/16 A3004 520 61 1600 340/06 RMK AO2 SLP171 T02330156 $
14840KMKG MKG20030728115511507/28/03 11:55:31  5-MIN KMKG 281655Z 32007KT 10SM SCT032 23/16 A3004 520 61 1600 330/07 RMK AO2 SLP171 T02330156 $
14840KMKG MKG20030728120009807/28/03 12:00:31  5-MIN KMKG 281700Z 34007KT 10SM FEW038 23/15 A3004 520 61 1600 350/07 RMK AO2 $
14840KMKG MKG20030728120509807/28/03 12:05:31  5-MIN KMKG 281705Z 35006KT 10SM FEW038 24/15 A3004 520 57 1700 350/06 RMK AO2 $
14840KMKG MKG20030728121009807/28/03 12:10:31  5-MIN KMKG 281710Z 34005KT 10SM FEW038 24/14 A3004 520 53 1700 350/05 RMK AO2 $
14840KMKG MKG20030728121509807/28/03 12:15:31  5-MIN KMKG 281715Z VRB03KT 10SM FEW038 23/14 A3004 520 55 1600 VRB/03 RMK AO2 $
14840KMKG MKG20030728122009807/28/03 12:20:31  5-MIN KMKG 281720Z VRB05KT 10SM FEW038 24/14 A3004 520 53 1700 VRB/05 RMK AO2 $
14840KMKG MKG20030728122509807/28/03 12:25:31  5-MIN KMKG 281725Z 31008KT 10SM SCT040 24/15 A3004 520 57 1700 310/08 RMK AO2 $
14840KMKG MKG20030728123009807/28/03 12:30:31  5-MIN KMKG 281730Z 32008KT 10SM SCT038 23/16 A3004 520 63 1600 330/08 RMK AO2 $
14840KMKG MKG20030728123509807/28/03 12:35:31  5-MIN KMKG 281735Z 31006KT 10SM BKN038 23/16 A3004 520 63 1600 320/06 RMK AO2 $
14840KMKG MKG20030728124009807/28/03 12:40:31  5-MIN KMKG 281740Z 30007KT 10SM SCT038 22/15 A3003 520 63 1500 300/07 RMK AO2 $
14840KMKG MKG20030728124509807/28/03 12:45:31  5-MIN KMKG 281745Z VRB04KT 10SM SCT038 23/16 A3003 520 63 1600 VRB/04 RMK AO2 $
14840KMKG MKG20030728125013307/28/03 12:50:31  5-MIN KMKG 281750Z VRB06KT 10SM SCT038 24/16 A3003 530 59 1700 VRB/06 RMK AO2 SLP168 T02390156 10239 20150 51008 $
14840KMKG MKG20030728125513307/28/03 12:55:31  5-MIN KMKG 281755Z VRB05KT 10SM FEW038 24/16 A3003 530 59 1700 VRB/05 RMK AO2 SLP167 T02390156 10244 20150 58007 $
14840KMKG MKG20030728130009807/28/03 13:00:31  5-MIN KMKG 281800Z 29010KT 10SM FEW038 24/16 A3003 530 57 1800 290/10 RMK AO2 $
14840KMKG MKG20030728130509807/28/03 13:05:31  5-MIN KMKG 281805Z 26010KT 10SM FEW050 24/16 A3003 530 59 1700 260/10 RMK AO2 $
14840KMKG MKG20030728131009807/28/03 13:10:31  5-MIN KMKG 281810Z 27010KT 10SM FEW050 24/16 A3003 530 61 1700 270/10 RMK AO2 $
14840KMKG MKG20030728131510507/28/03 13:15:31  5-MIN KMKG 281815Z 28009KT 10SM FEW039 SCT050 24/16 A3003 530 59 1700 290/09 RMK AO2 $
14840KMKG MKG20030728132009807/28/03 13:20:31  5-MIN KMKG 281820Z 29007KT 10SM FEW041 24/16 A3003 530 59 1700 300/07 RMK AO2 $
14840KMKG MKG20030728132509807/28/03 13:25:31  5-MIN KMKG 281825Z 31007KT 10SM FEW041 24/16 A3002 530 59 1700 310/07 RMK AO2 $
14840KMKG MKG20030728133009807/28/03 13:30:31  5-MIN KMKG 281830Z 31008KT 10SM FEW041 24/16 A3002 540 59 1700 320/08 RMK AO2 $
14840KMKG MKG20030728133509807/28/03 13:35:31  5-MIN KMKG 281835Z 27011KT 10SM FEW041 24/16 A3002 540 59 1700 280/11 RMK AO2 $
14840KMKG MKG20030728134009507/28/03 13:40:31  5-MIN KMKG 281840Z 26009KT 10SM CLR 24/16 A3002 540 59 1700 270/09 RMK AO2 $
14840KMKG MKG20030728134509507/28/03 13:45:31  5-MIN KMKG 281845Z 27009KT 10SM CLR 23/16 A3002 540 61 1700 280/09 RMK AO2 $
14840KMKG MKG20030728135011507/28/03 13:50:31  5-MIN KMKG 281850Z 30008KT 10SM FEW038 24/16 A3002 540 59 1700 310/08 RMK AO2 SLP162 T02390156 $
14840KMKG MKG20030728135511507/28/03 13:55:31  5-MIN KMKG 281855Z 30009KT 10SM FEW042 23/16 A3002 540 61 1700 300/09 RMK AO2 SLP162 T02330156 $
14840KMKG MKG20030728140009507/28/03 14:00:31  5-MIN KMKG 281900Z 30008KT 10SM CLR 23/15 A3001 550 59 1700 300/08 RMK AO2 $
14840KMKG MKG20030728140509507/28/03 14:05:31  5-MIN KMKG 281905Z 28009KT 10SM CLR 23/16 A3001 550 61 1700 290/09 RMK AO2 $
14840KMKG MKG20030728141009507/28/03 14:10:31  5-MIN KMKG 281910Z 27009KT 10SM CLR 23/15 A3001 550 59 1700 270/09 RMK AO2 $
14840KMKG MKG20030728141509507/28/03 14:15:31  5-MIN KMKG 281915Z 27010KT 10SM CLR 23/16 A3001 550 61 1700 270/10 RMK AO2 $
14840KMKG MKG20030728142009507/28/03 14:20:31  5-MIN KMKG 281920Z 30008KT 10SM CLR 24/16 A3001 550 59 1700 310/08 RMK AO2 $
14840KMKG MKG20030728142509807/28/03 14:25:31  5-MIN KMKG 281925Z 28008KT 10SM FEW042 23/16 A3001 550 61 1700 290/08 RMK AO2 $
14840KMKG MKG20030728143009807/28/03 14:30:31  5-MIN KMKG 281930Z 28010KT 10SM FEW042 23/16 A3001 550 61 1700 280/10 RMK AO2 $
14840KMKG MKG20030728143509807/28/03 14:35:31  5-MIN KMKG 281935Z 27011KT 10SM FEW042 24/16 A3000 550 59 1700 280/11 RMK AO2 $
14840KMKG MKG20030728144009807/28/03 14:40:31  5-MIN KMKG 281940Z 26012KT 10SM FEW042 23/16 A3000 550 61 1700 270/12 RMK AO2 $
14840KMKG MKG20030728144509807/28/03 14:45:31  5-MIN KMKG 281945Z 28010KT 10SM FEW042 23/16 A3000 550 61 1700 290/10 RMK AO2 $
14840KMKG MKG20030728145011507/28/03 14:50:31  5-MIN KMKG 281950Z 29010KT 10SM FEW042 23/15 A3000 550 59 1700 300/10 RMK AO2 SLP157 T02330150 $
14840KMKG MKG20030728145511507/28/03 14:55:31  5-MIN KMKG 281955Z 29010KT 10SM FEW042 23/15 A3000 560 59 1700 300/10 RMK AO2 SLP157 T02330150 $
14840KMKG MKG20030728150009507/28/03 15:00:31  5-MIN KMKG 282000Z 29008KT 10SM CLR 23/15 A3000 560 59 1700 290/08 RMK AO2 $
14840KMKG MKG20030728150509507/28/03 15:05:31  5-MIN KMKG 282005Z 29010KT 10SM CLR 23/15 A3000 560 61 1600 290/10 RMK AO2 $
14840KMKG MKG20030728151009507/28/03 15:10:31  5-MIN KMKG 282010Z 29010KT 10SM CLR 23/15 A3000 560 61 1600 300/10 RMK AO2 $
14840KMKG MKG20030728151509507/28/03 15:15:31  5-MIN KMKG 282015Z 29009KT 10SM CLR 23/15 A3000 560 61 1600 290/09 RMK AO2 $
14840KMKG MKG20030728152009507/28/03 15:20:31  5-MIN KMKG 282020Z 29011KT 10SM CLR 23/15 A3000 560 61 1600 290/11 RMK AO2 $
14840KMKG MKG20030728152509507/28/03 15:25:31  5-MIN KMKG 282025Z 29011KT 10SM CLR 22/14 A3000 560 61 1600 290/11 RMK AO2 $
14840KMKG MKG20030728153009507/28/03 15:30:31  5-MIN KMKG 282030Z 29010KT 10SM CLR 23/15 A3000 560 61 1600 300/10 RMK AO2 $
14840KMKG MKG20030728153509807/28/03 15:35:31  5-MIN KMKG 282035Z 29009KT 10SM FEW045 23/15 A3000 560 61 1600 290/09 RMK AO2 $
14840KMKG MKG20030728154009807/28/03 15:40:31  5-MIN KMKG 282040Z 28011KT 10SM FEW045 23/15 A3000 560 61 1600 290/11 RMK AO2 $
14840KMKG MKG20030728154509807/28/03 15:45:31  5-MIN KMKG 282045Z 28009KT 10SM FEW045 23/15 A3000 560 61 1600 280/09 RMK AO2 $
14840KMKG MKG20030728155012107/28/03 15:50:31  5-MIN KMKG 282050Z 29009KT 10SM FEW045 23/15 A2999 560 59 1700 290/09 RMK AO2 SLP155 T02330150 58007 $
14840KMKG MKG20030728155512107/28/03 15:55:31  5-MIN KMKG 282055Z 30010KT 10SM FEW045 23/15 A3000 560 61 1600 300/10 RMK AO2 SLP155 T02280150 56012 $
14840KMKG MKG20030728160009507/28/03 16:00:31  5-MIN KMKG 282100Z 29009KT 10SM CLR 23/14 A2999 560 59 1600 290/09 RMK AO2 $
14840KMKG MKG20030728160509507/28/03 16:05:31  5-MIN KMKG 282105Z 31009KT 10SM CLR 23/14 A2999 560 55 1700 310/09 RMK AO2 $
14840KMKG MKG20030728161009507/28/03 16:10:31  5-MIN KMKG 282110Z 31010KT 10SM CLR 23/14 A2999 560 57 1600 310/10 RMK AO2 $
14840KMKG MKG20030728161509507/28/03 16:15:31  5-MIN KMKG 282115Z 30009KT 10SM CLR 23/14 A2999 560 55 1700 300/09 RMK AO2 $
14840KMKG MKG20030728162009507/28/03 16:20:31  5-MIN KMKG 282120Z 30011KT 10SM CLR 23/14 A2999 560 57 1600 300/11 RMK AO2 $
14840KMKG MKG20030728162509507/28/03 16:25:31  5-MIN KMKG 282125Z 29009KT 10SM CLR 23/14 A2999 570 57 1600 290/09 RMK AO2 $
14840KMKG MKG20030728163009507/28/03 16:30:31  5-MIN KMKG 282130Z 30009KT 10SM CLR 23/14 A2999 570 55 1700 300/09 RMK AO2 $
14840KMKG MKG20030728163509507/28/03 16:35:31  5-MIN KMKG 282135Z 31009KT 10SM CLR 23/14 A2999 570 55 1700 310/09 RMK AO2 $
14840KMKG MKG20030728164009507/28/03 16:40:31  5-MIN KMKG 282140Z 29009KT 10SM CLR 23/14 A2999 570 55 1700 300/09 RMK AO2 $
14840KMKG MKG20030728164509507/28/03 16:45:31  5-MIN KMKG 282145Z 30010KT 10SM CLR 23/14 A2998 570 55 1700 300/10 RMK AO2 $
14840KMKG MKG20030728165011207/28/03 16:50:31  5-MIN KMKG 282150Z 30011KT 10SM CLR 23/13 A2998 570 53 1700 300/11 RMK AO2 SLP151 T02330133 $
14840KMKG MKG20030728165511207/28/03 16:55:31  5-MIN KMKG 282155Z 29008KT 10SM CLR 23/13 A2998 570 53 1700 300/08 RMK AO2 SLP151 T02330133 $
14840KMKG MKG20030728170009507/28/03 17:00:31  5-MIN KMKG 282200Z 31010KT 10SM CLR 23/13 A2998 570 55 1600 310/10 RMK AO2 $
14840KMKG MKG20030728170509507/28/03 17:05:31  5-MIN KMKG 282205Z 30009KT 10SM CLR 23/13 A2998 570 55 1600 300/09 RMK AO2 $
14840KMKG MKG20030728171009507/28/03 17:10:31  5-MIN KMKG 282210Z 30011KT 10SM CLR 23/13 A2998 570 55 1600 300/11 RMK AO2 $
14840KMKG MKG20030728171509507/28/03 17:15:31  5-MIN KMKG 282215Z 29010KT 10SM CLR 23/13 A2998 570 55 1600 300/10 RMK AO2 $
14840KMKG MKG20030728172009507/28/03 17:20:31  5-MIN KMKG 282220Z 30010KT 10SM CLR 23/13 A2998 570 55 1600 300/10 RMK AO2 $
14840KMKG MKG20030728172509507/28/03 17:25:31  5-MIN KMKG 282225Z 30009KT 10SM CLR 23/14 A2998 570 57 1600 300/09 RMK AO2 $
14840KMKG MKG20030728173009507/28/03 17:30:31  5-MIN KMKG 282230Z 30008KT 10SM CLR 23/14 A2998 570 57 1600 300/08 RMK AO2 $
14840KMKG MKG20030728173509507/28/03 17:35:31  5-MIN KMKG 282235Z 29008KT 10SM CLR 23/14 A2998 570 57 1600 300/08 RMK AO2 $
14840KMKG MKG20030728174009507/28/03 17:40:31  5-MIN KMKG 282240Z 31009KT 10SM CLR 23/14 A2998 570 57 1600 320/09 RMK AO2 $
14840KMKG MKG20030728174509507/28/03 17:45:31  5-MIN KMKG 282245Z 29009KT 10SM CLR 23/13 A2998 570 55 1600 300/09 RMK AO2 $
14840KMKG MKG20030728175011207/28/03 17:50:31  5-MIN KMKG 282250Z 31008KT 10SM CLR 23/14 A2998 570 57 1600 320/08 RMK AO2 SLP151 T02280139 $
14840KMKG MKG20030728175511207/28/03 17:55:31  5-MIN KMKG 282255Z 30008KT 10SM CLR 23/13 A2998 570 55 1600 300/08 RMK AO2 SLP152 T02280133 $
14840KMKG MKG20030728180009507/28/03 18:00:31  5-MIN KMKG 282300Z 30008KT 10SM CLR 23/13 A2998 570 55 1600 310/08 RMK AO2 $
14840KMKG MKG20030728180509507/28/03 18:05:31  5-MIN KMKG 282305Z 31006KT 10SM CLR 22/13 A2998 570 56 1600 310/06 RMK AO2 $
14840KMKG MKG20030728181009507/28/03 18:10:31  5-MIN KMKG 282310Z 30008KT 10SM CLR 22/13 A2998 570 56 1600 310/08 RMK AO2 $
14840KMKG MKG20030728181509507/28/03 18:15:31  5-MIN KMKG 282315Z 29008KT 10SM CLR 23/13 A2998 570 55 1600 300/08 RMK AO2 $
14840KMKG MKG20030728182009507/28/03 18:20:31  5-MIN KMKG 282320Z 31006KT 10SM CLR 22/13 A2998 570 56 1600 310/06 RMK AO2 $
14840KMKG MKG20030728182509507/28/03 18:25:31  5-MIN KMKG 282325Z 29007KT 10SM CLR 22/13 A2998 570 54 1600 290/07 RMK AO2 $
14840KMKG MKG20030728183009507/28/03 18:30:31  5-MIN KMKG 282330Z 30006KT 10SM CLR 22/13 A2998 570 54 1600 300/06 RMK AO2 $
14840KMKG MKG20030728183509507/28/03 18:35:31  5-MIN KMKG 282335Z 29007KT 10SM CLR 22/13 A2998 570 54 1600 300/07 RMK AO2 $
14840KMKG MKG20030728184009507/28/03 18:40:31  5-MIN KMKG 282340Z 30006KT 10SM CLR 22/13 A2998 570 54 1600 310/06 RMK AO2 $
14840KMKG MKG20030728184509507/28/03 18:45:31  5-MIN KMKG 282345Z 31008KT 10SM CLR 22/13 A2998 570 56 1600 320/08 RMK AO2 $
14840KMKG MKG20030728185013007/28/03 18:50:31  5-MIN KMKG 282350Z 32007KT 10SM CLR 22/13 A2998 570 54 1600 330/07 RMK AO2 SLP152 T02220128 10244 20222 56012 $
14840KMKG MKG20030728185513007/28/03 18:55:31  5-MIN KMKG 282355Z 33010KT 10SM CLR 22/13 A2999 570 54 1600 330/10 RMK AO2 SLP154 T02220128 10244 20222 55002 $
14840KMKG MKG20030728190009507/28/03 19:00:31  5-MIN KMKG 290000Z 33009KT 10SM CLR 22/12 A2999 570 52 1600 330/09 RMK AO2 $
14840KMKG MKG20030728190509507/28/03 19:05:31  5-MIN KMKG 290005Z 33008KT 10SM CLR 22/12 A2999 570 54 1500 340/08 RMK AO2 $
14840KMKG MKG20030728191009507/28/03 19:10:31  5-MIN KMKG 290010Z 32009KT 10SM CLR 22/13 A2999 570 56 1500 320/09 RMK AO2 $
14840KMKG MKG20030728191509507/28/03 19:15:31  5-MIN KMKG 290015Z 32008KT 10SM CLR 22/13 A2999 560 56 1500 320/08 RMK AO2 $
14840KMKG MKG20030728192009507/28/03 19:20:31  5-MIN KMKG 290020Z 32008KT 10SM CLR 22/13 A2999 560 58 1500 320/08 RMK AO2 $
14840KMKG MKG20030728192509507/28/03 19:25:31  5-MIN KMKG 290025Z 32007KT 10SM CLR 21/13 A2999 560 61 1400 330/07 RMK AO2 $
14840KMKG MKG20030728193009507/28/03 19:30:31  5-MIN KMKG 290030Z 33006KT 10SM CLR 21/13 A3000 560 61 1400 330/06 RMK AO2 $
14840KMKG MKG20030728193509507/28/03 19:35:31  5-MIN KMKG 290035Z 33008KT 10SM CLR 21/14 A3000 560 63 1400 340/08 RMK AO2 $
14840KMKG MKG20030728194009507/28/03 19:40:31  5-MIN KMKG 290040Z 32006KT 10SM CLR 21/14 A3000 560 63 1400 330/06 RMK AO2 $
14840KMKG MKG20030728194509507/28/03 19:45:31  5-MIN KMKG 290045Z 33007KT 10SM CLR 21/14 A3000 560 63 1400 340/07 RMK AO2 $
14840KMKG MKG20030728195011207/28/03 19:50:31  5-MIN KMKG 290050Z 34007KT 10SM CLR 21/13 A3000 560 61 1400 340/07 RMK AO2 SLP157 T02110133 $
14840KMKG MKG20030728195511207/28/03 19:55:31  5-MIN KMKG 290055Z 34007KT 10SM CLR 21/14 A3000 560 65 1400 350/07 RMK AO2 SLP156 T02060139 $
14840KMKG MKG20030728200009507/28/03 20:00:31  5-MIN KMKG 290100Z 35008KT 10SM CLR 21/13 A3000 560 63 1400 350/08 RMK AO2 $
14840KMKG MKG20030728200509507/28/03 20:05:31  5-MIN KMKG 290105Z 34006KT 10SM CLR 21/13 A3000 560 63 1400 350/06 RMK AO2 $
14840KMKG MKG20030728201009507/28/03 20:10:31  5-MIN KMKG 290110Z 36007KT 10SM CLR 21/13 A3000 560 63 1400 360/07 RMK AO2 $
14840KMKG MKG20030728201509507/28/03 20:15:31  5-MIN KMKG 290115Z 34007KT 10SM CLR 21/13 A3000 560 63 1400 350/07 RMK AO2 $
14840KMKG MKG20030728202009507/28/03 20:20:31  5-MIN KMKG 290120Z 35006KT 10SM CLR 21/13 A2999 560 63 1400 350/06 RMK AO2 $
14840KMKG MKG20030728202509507/28/03 20:25:31  5-MIN KMKG 290125Z 35007KT 10SM CLR 20/13 A2999 560 65 1300 350/07 RMK AO2 $
14840KMKG MKG20030728203009507/28/03 20:30:31  5-MIN KMKG 290130Z 36006KT 10SM CLR 20/13 A2999 560 65 1300 360/06 RMK AO2 $
14840KMKG MKG20030728203509507/28/03 20:35:31  5-MIN KMKG 290135Z 34005KT 10SM CLR 20/13 A2999 560 65 1300 350/05 RMK AO2 $
14840KMKG MKG20030728204009507/28/03 20:40:31  5-MIN KMKG 290140Z 35005KT 10SM CLR 19/13 A3000 560 67 1200 350/05 RMK AO2 $
14840KMKG MKG20030728204509507/28/03 20:45:31  5-MIN KMKG 290145Z 35006KT 10SM CLR 19/13 A3000 560 67 1200 350/06 RMK AO2 $
14840KMKG MKG20030728205011207/28/03 20:50:31  5-MIN KMKG 290150Z 34006KT 10SM CLR 19/13 A3000 560 65 1200 350/06 RMK AO2 SLP158 T01940128 $
14840KMKG MKG20030728205511207/28/03 20:55:31  5-MIN KMKG 290155Z 36005KT 10SM CLR 19/13 A3000 560 65 1200 360/05 RMK AO2 SLP158 T01940128 $
14840KMKG MKG20030728210009507/28/03 21:00:31  5-MIN KMKG 290200Z 36008KT 10SM CLR 19/13 A3000 550 65 1200 360/08 RMK AO2 $
14840KMKG MKG20030729071009407/29/03 07:10:31  5-MIN KMKG 291210Z 00000KT 10SM CLR 16/13 A3003 530 83 800 000/00 RMK AO2 $
14840KMKG MKG20030729071509407/29/03 07:15:31  5-MIN KMKG 291215Z 00000KT 10SM CLR 17/13 A3003 530 80 900 000/00 RMK AO2 $
14840KMKG MKG20030729072009407/29/03 07:20:31  5-MIN KMKG 291220Z 00000KT 10SM CLR 17/14 A3003 530 83 900 000/00 RMK AO2 $
14840KMKG MKG20030729072509507/29/03 07:25:31  5-MIN KMKG 291225Z 00000KT 10SM CLR 17/14 A3003 530 80 1000 000/00 RMK AO2 $
14840KMKG MKG20030729073009507/29/03 07:30:31  5-MIN KMKG 291230Z 00000KT 10SM CLR 17/14 A3003 530 80 1000 000/00 RMK AO2 $
14840KMKG MKG20030729073509507/29/03 07:35:31  5-MIN KMKG 291235Z 00000KT 10SM CLR 17/13 A3003 530 78 1000 000/00 RMK AO2 $
14840KMKG MKG20030729074009507/29/03 07:40:31  5-MIN KMKG 291240Z 00000KT 10SM CLR 18/13 A3003 530 75 1000 000/00 RMK AO2 $
14840KMKG MKG20030729074509507/29/03 07:45:31  5-MIN KMKG 291245Z 00000KT 10SM CLR 18/14 A3003 530 75 1100 000/00 RMK AO2 $
14840KMKG MKG20030729075011207/29/03 07:50:31  5-MIN KMKG 291250Z 00000KT 10SM CLR 18/14 A3003 530 75 1100 000/00 RMK AO2 SLP166 T01830139 $
14840KMKG MKG20030729075511207/29/03 07:55:31  5-MIN KMKG 291255Z 00000KT 10SM CLR 18/14 A3003 530 75 1100 000/00 RMK AO2 SLP166 T01830139 $
14840KMKG MKG20030729080009507/29/03 08:00:31  5-MIN KMKG 291300Z 00000KT 10SM CLR 19/14 A3003 530 72 1100 000/00 RMK AO2 $
14840KMKG MKG20030729080509507/29/03 08:05:31  5-MIN KMKG 291305Z 00000KT 10SM CLR 19/14 A3004 520 72 1100 000/00 RMK AO2 $
14840KMKG MKG20030729081009507/29/03 08:10:31  5-MIN KMKG 291310Z 00000KT 10SM CLR 19/14 A3003 520 70 1200 000/00 RMK AO2 $
14840KMKG MKG20030729081509507/29/03 08:15:31  5-MIN KMKG 291315Z 00000KT 10SM CLR 19/14 A3004 520 70 1200 000/00 RMK AO2 $
14840KMKG MKG20030729082009507/29/03 08:20:31  5-MIN KMKG 291320Z 00000KT 10SM CLR 20/14 A3004 520 67 1300 000/00 RMK AO2 $
14840KMKG MKG20030729082509507/29/03 08:25:31  5-MIN KMKG 291325Z 00000KT 10SM CLR 21/14 A3004 520 67 1300 000/00 RMK AO2 $
14840KMKG MKG20030729083009507/29/03 08:30:31  5-MIN KMKG 291330Z 00000KT 10SM CLR 21/14 A3004 520 65 1300 000/00 RMK AO2 $
14840KMKG MKG20030729083509507/29/03 08:35:31  5-MIN KMKG 291335Z 00000KT 10SM CLR 21/14 A3004 520 65 1300 000/00 RMK AO2 $
14840KMKG MKG20030729084009507/29/03 08:40:31  5-MIN KMKG 291340Z VRB03KT 10SM CLR 21/14 A3004 520 63 1400 VRB/03 RMK AO2 $
14840KMKG MKG20030729084509507/29/03 08:45:31  5-MIN KMKG 291345Z 21003KT 10SM CLR 21/14 A3004 520 63 1400 210/03 RMK AO2 $
14840KMKG MKG20030729085011207/29/03 08:50:31  5-MIN KMKG 291350Z 00000KT 10SM CLR 21/14 A3004 520 63 1400 000/00 RMK AO2 SLP170 T02110139 $
14840KMKG MKG20030729085511207/29/03 08:55:31  5-MIN KMKG 291355Z 00000KT 10SM CLR 21/14 A3004 520 63 1400 000/00 RMK AO2 SLP170 T02110139 $
14840KMKG MKG20030729090009507/29/03 09:00:31  5-MIN KMKG 291400Z VRB04KT 10SM CLR 22/15 A3004 520 63 1500 VRB/04 RMK AO2 $
14840KMKG MKG20030729090509507/29/03 09:05:31  5-MIN KMKG 291405Z 36003KT 10SM CLR 22/15 A3004 520 63 1500 010/03 RMK AO2 $
14840KMKG MKG20030729091009507/29/03 09:10:31  5-MIN KMKG 291410Z VRB03KT 10SM CLR 22/14 A3004 520 61 1500 VRB/03 RMK AO2 $
14840KMKG MKG20030729091509507/29/03 09:15:31  5-MIN KMKG 291415Z 32003KT 10SM CLR 22/15 A3004 520 63 1500 320/03 RMK AO2 $
14840KMKG MKG20030729092009507/29/03 09:20:31  5-MIN KMKG 291420Z VRB04KT 10SM CLR 23/15 A3004 520 61 1600 VRB/04 RMK AO2 $
14840KMKG MKG20030729092509507/29/03 09:25:31  5-MIN KMKG 291425Z 00000KT 10SM CLR 22/14 A3004 520 61 1500 000/00 RMK AO2 $
14840KMKG MKG20030729093009507/29/03 09:30:31  5-MIN KMKG 291430Z VRB03KT 10SM CLR 23/15 A3004 520 61 1600 VRB/03 RMK AO2 $
14840KMKG MKG20030729093509507/29/03 09:35:31  5-MIN KMKG 291435Z VRB03KT 10SM CLR 23/15 A3004 520 59 1600 VRB/03 RMK AO2 $
14840KMKG MKG20030729094009507/29/03 09:40:31  5-MIN KMKG 291440Z 36004KT 10SM CLR 23/15 A3004 520 59 1700 010/04 RMK AO2 $
14840KMKG MKG20030729094509507/29/03 09:45:31  5-MIN KMKG 291445Z 35004KT 10SM CLR 23/14 A3004 520 57 1700 360/04 RMK AO2 $
14840KMKG MKG20030729095011807/29/03 09:50:31  5-MIN KMKG 291450Z 00000KT 10SM CLR 23/14 A3004 520 57 1600 000/00 RMK AO2 SLP170 T02330144 53005 $
14840KMKG MKG20030729095511807/29/03 09:55:31  5-MIN KMKG 291455Z VRB03KT 10SM CLR 23/14 A3004 520 57 1600 VRB/03 RMK AO2 SLP170 T02330144 51005 $
14840KMKG MKG20030729100009507/29/03 10:00:31  5-MIN KMKG 291500Z 29004KT 10SM CLR 24/14 A3004 520 55 1700 300/04 RMK AO2 $
14840KMKG MKG20030729100509507/29/03 10:05:31  5-MIN KMKG 291505Z 00000KT 10SM CLR 24/14 A3004 520 55 1700 000/00 RMK AO2 $
14840KMKG MKG20030729101009507/29/03 10:10:31  5-MIN KMKG 291510Z VRB05KT 10SM CLR 24/15 A3004 520 57 1700 VRB/05 RMK AO2 $
14840KMKG MKG20030729101509507/29/03 10:15:31  5-MIN KMKG 291515Z 33006KT 10SM CLR 24/14 A3005 510 53 1800 330/06 RMK AO2 $
14840KMKG MKG20030729102010007/29/03 10:20:31  5-MIN KMKG 291520Z AUTO 27008KT 10SM CLR 24/14 A3005 510 51 1800 280/08 RMK AO2 $
14840KMKG MKG20030729103011707/29/03 10:30:31  5-MIN KMKG 291530Z AUTO 29006KT A3005 M M M 300/06 RMK AO2 FZRANO TSNO CHINO RWY 14 VISNO RWY 14 $
14840KMKG MKG20030729103512007/29/03 10:35:31  5-MIN KMKG 291535Z AUTO 26007KT 24/13 A3005 510 49 1800 260/07 RMK AO2 TSNO CHINO RWY 14 VISNO RWY 14
14840KMKG MKG20030729104011207/29/03 10:40:31  5-MIN KMKG 291540Z AUTO 26006KT 10SM 24/13 A3006 510 51 1700 260/06 RMK AO2 TSNO CHINO RWY 14
14840KMKG MKG20030729104509307/29/03 10:45:31  5-MIN KMKG 291545Z 23007KT 10SM CLR 24/13 A3006 500 49 1800 230/07 RMK AO2
14840KMKG MKG20030729105011007/29/03 10:50:31  5-MIN KMKG 291550Z 25005KT 10SM CLR 24/12 A3005 510 46 1800 250/05 RMK AO2 SLP175 T02440122
14840KMKG MKG20030729105511007/29/03 10:55:31  5-MIN KMKG 291555Z VRB05KT 10SM CLR 24/13 A3005 510 47 1800 VRB/05 RMK AO2 SLP175 T02440128
14840KMKG MKG20030729110009307/29/03 11:00:31  5-MIN KMKG 291600Z VRB06KT 10SM CLR 25/14 A3006 510 51 1800 VRB/06 RMK AO2
14840KMKG MKG20030729110509307/29/03 11:05:31  5-MIN KMKG 291605Z VRB06KT 10SM CLR 25/14 A3006 510 51 1800 VRB/06 RMK AO2
14840KMKG MKG20030729111009307/29/03 11:10:31  5-MIN KMKG 291610Z 27006KT 10SM CLR 24/13 A3006 510 49 1800 280/06 RMK AO2
14840KMKG MKG20030729111509307/29/03 11:15:31  5-MIN KMKG 291615Z VRB05KT 10SM CLR 25/14 A3005 510 49 1800 VRB/05 RMK AO2
14840KMKG MKG20030729112009307/29/03 11:20:31  5-MIN KMKG 291620Z 29007KT 10SM CLR 24/13 A3005 510 49 1800 290/07 RMK AO2
14840KMKG MKG20030729112509307/29/03 11:25:31  5-MIN KMKG 291625Z VRB06KT 10SM CLR 24/13 A3005 510 49 1800 VRB/06 RMK AO2
14840KMKG MKG20030729113009307/29/03 11:30:31  5-MIN KMKG 291630Z VRB06KT 10SM CLR 25/14 A3005 510 49 1800 VRB/06 RMK AO2
14840KMKG MKG20030729113509307/29/03 11:35:31  5-MIN KMKG 291635Z VRB05KT 10SM CLR 25/13 A3005 510 48 1800 VRB/05 RMK AO2
14840KMKG MKG20030729114009307/29/03 11:40:31  5-MIN KMKG 291640Z 23007KT 10SM CLR 24/13 A3005 510 47 1800 240/07 RMK AO2
14840KMKG MKG20030729114509307/29/03 11:45:31  5-MIN KMKG 291645Z 22007KT 10SM CLR 25/13 A3005 510 46 1800 230/07 RMK AO2
14840KMKG MKG20030729115011307/29/03 11:50:31  5-MIN KMKG 291650Z 27006KT 10SM FEW055 24/13 A3005 510 47 1800 270/06 RMK AO2 SLP175 T02440128
14840KMKG MKG20030729115511307/29/03 11:55:31  5-MIN KMKG 291655Z 23005KT 10SM FEW055 25/13 A3005 510 48 1800 230/05 RMK AO2 SLP174 T02500133
14840KMKG MKG20030729120009307/29/03 12:00:31  5-MIN KMKG 291700Z 25007KT 10SM CLR 25/13 A3005 510 48 1800 250/07 RMK AO2
14840KMKG MKG20030729120509307/29/03 12:05:31  5-MIN KMKG 291705Z VRB05KT 10SM CLR 25/13 A3005 510 46 1800 VRB/05 RMK AO2
14840KMKG MKG20030729121009307/29/03 12:10:31  5-MIN KMKG 291710Z 22008KT 10SM CLR 26/13 A3005 510 46 1900 230/08 RMK AO2
14840KMKG MKG20030729121509307/29/03 12:15:31  5-MIN KMKG 291715Z 23008KT 10SM CLR 25/13 A3005 510 46 1800 240/08 RMK AO2
14840KMKG MKG20030729122009307/29/03 12:20:31  5-MIN KMKG 291720Z 25007KT 10SM CLR 24/13 A3005 510 47 1800 260/07 RMK AO2
14840KMKG MKG20030729122510907/29/03 12:25:31  5-MIN KMKG 291725Z 22007KT 190V260 10SM CLR 25/13 A3005 510 48 1800 220/07 190V260 RMK AO2
14840KMKG MKG20030729123009307/29/03 12:30:31  5-MIN KMKG 291730Z 26008KT 10SM CLR 25/13 A3005 510 48 1800 260/08 RMK AO2
14840KMKG MKG20030729123509307/29/03 12:35:31  5-MIN KMKG 291735Z 24009KT 10SM CLR 25/13 A3005 510 46 1800 240/09 RMK AO2
14840KMKG MKG20030729124009307/29/03 12:40:31  5-MIN KMKG 291740Z 23009KT 10SM CLR 26/13 A3004 520 46 1900 240/09 RMK AO2
14840KMKG MKG20030729124509307/29/03 12:45:31  5-MIN KMKG 291745Z 22008KT 10SM CLR 25/13 A3004 520 48 1800 220/08 RMK AO2
14840KMKG MKG20030729125012807/29/03 12:50:31  5-MIN KMKG 291750Z 23007KT 10SM CLR 26/13 A3004 520 46 1900 240/07 RMK AO2 SLP170 6//// T02560133 10256 20156
14840KMKG MKG20030729125512507/29/03 12:55:31  5-MIN KMKG 291755Z 23008KT 10SM FEW055 26/13 A3004 520 44 1900 240/08 RMK AO2 SLP170 T02560128 10256 20156
14840KMKG MKG20030729130009307/29/03 13:00:31  5-MIN KMKG 291800Z 24007KT 10SM CLR 25/13 A3004 520 46 1800 250/07 RMK AO2
14840KMKG MKG20030729130509307/29/03 13:05:31  5-MIN KMKG 291805Z 27007KT 10SM CLR 25/13 A3004 520 48 1800 270/07 RMK AO2
14840KMKG MKG20030729131010907/29/03 13:10:31  5-MIN KMKG 291810Z 26008KT 220V310 10SM CLR 26/14 A3004 520 48 1900 270/08 220V310 RMK AO2
14840KMKG MKG20030729131509307/29/03 13:15:31  5-MIN KMKG 291815Z 26007KT 10SM CLR 26/14 A3004 520 48 1900 270/07 RMK AO2
14840KMKG MKG20030729132009307/29/03 13:20:31  5-MIN KMKG 291820Z 26009KT 10SM CLR 26/14 A3004 520 46 2000 260/09 RMK AO2
14840KMKG MKG20030729132509307/29/03 13:25:31  5-MIN KMKG 291825Z 26008KT 10SM CLR 26/14 A3004 520 46 2000 260/08 RMK AO2
14840KMKG MKG20030729133009307/29/03 13:30:31  5-MIN KMKG 291830Z 26007KT 10SM CLR 26/13 A3004 520 44 2000 270/07 RMK AO2
14840KMKG MKG20030729133509307/29/03 13:35:31  5-MIN KMKG 291835Z 26007KT 10SM CLR 26/13 A3004 520 46 1900 270/07 RMK AO2
14840KMKG MKG20030729134009307/29/03 13:40:31  5-MIN KMKG 291840Z 25008KT 10SM CLR 26/13 A3004 520 46 1900 250/08 RMK AO2
14840KMKG MKG20030729134509307/29/03 13:45:31  5-MIN KMKG 291845Z 24007KT 10SM CLR 26/13 A3004 520 46 1900 250/07 RMK AO2
14840KMKG MKG20030729135011307/29/03 13:50:31  5-MIN KMKG 291850Z 27010KT 10SM FEW055 26/14 A3004 520 48 1900 270/10 RMK AO2 SLP171 T02560139
14840KMKG MKG20030729135511307/29/03 13:55:31  5-MIN KMKG 291855Z 24009KT 10SM FEW055 26/13 A3004 520 46 1900 250/09 RMK AO2 SLP171 T02560133
14840KMKG MKG20030729140010907/29/03 14:00:31  5-MIN KMKG 291900Z 25008KT 230V290 10SM CLR 26/13 A3004 520 46 1900 250/08 230V290 RMK AO2
14840KMKG MKG20030729140509307/29/03 14:05:31  5-MIN KMKG 291905Z 25010KT 10SM CLR 26/13 A3004 520 46 1900 250/10 RMK AO2
14840KMKG MKG20030729141009307/29/03 14:10:31  5-MIN KMKG 291910Z 26009KT 10SM CLR 26/13 A3005 510 46 1900 260/09 RMK AO2
14840KMKG MKG20030729141509307/29/03 14:15:31  5-MIN KMKG 291915Z 26008KT 10SM CLR 26/14 A3005 510 48 1900 260/08 RMK AO2
14840KMKG MKG20030729142009307/29/03 14:20:31  5-MIN KMKG 291920Z 28009KT 10SM CLR 26/13 A3004 520 46 1900 280/09 RMK AO2
14840KMKG MKG20030729142509607/29/03 14:25:31  5-MIN KMKG 291925Z 27008KT 10SM FEW060 26/13 A3004 520 46 1900 270/08 RMK AO2
14840KMKG MKG20030729143009607/29/03 14:30:31  5-MIN KMKG 291930Z VRB05KT 10SM FEW060 25/13 A3004 520 48 1800 VRB/05 RMK AO2
14840KMKG MKG20030729143511207/29/03 14:35:31  5-MIN KMKG 291935Z 26008KT 220V280 10SM FEW060 26/13 A3004 520 46 1900 260/08 220V280 RMK AO2
14840KMKG MKG20030729144009607/29/03 14:40:31  5-MIN KMKG 291940Z 27009KT 10SM FEW060 26/13 A3004 520 44 1900 270/09 RMK AO2
14840KMKG MKG20030729144509607/29/03 14:45:31  5-MIN KMKG 291945Z 26008KT 10SM FEW060 26/13 A3004 520 44 1900 260/08 RMK AO2
14840KMKG MKG20030729145011307/29/03 14:50:31  5-MIN KMKG 291950Z 26009KT 10SM FEW060 26/13 A3004 520 44 1900 270/09 RMK AO2 SLP169 T02560128
14840KMKG MKG20030729145511307/29/03 14:55:31  5-MIN KMKG 291955Z 26009KT 10SM FEW060 25/13 A3004 520 46 1800 260/09 RMK AO2 SLP169 T02500128
14840KMKG MKG20030729150009307/29/03 15:00:31  5-MIN KMKG 292000Z 26008KT 10SM CLR 25/13 A3004 520 46 1800 260/08 RMK AO2
14840KMKG MKG20030729150509307/29/03 15:05:31  5-MIN KMKG 292005Z 26010KT 10SM CLR 26/13 A3004 520 44 1900 270/10 RMK AO2
14840KMKG MKG20030729151009307/29/03 15:10:31  5-MIN KMKG 292010Z 26008KT 10SM CLR 26/13 A3003 520 44 1900 260/08 RMK AO2
14840KMKG MKG20030729151509307/29/03 15:15:31  5-MIN KMKG 292015Z 26009KT 10SM CLR 25/13 A3003 530 46 1800 260/09 RMK AO2
14840KMKG MKG20030729152009307/29/03 15:20:31  5-MIN KMKG 292020Z 26009KT 10SM CLR 26/13 A3003 530 44 1900 260/09 RMK AO2
14840KMKG MKG20030729152509307/29/03 15:25:31  5-MIN KMKG 292025Z 25008KT 10SM CLR 26/13 A3003 530 44 1900 260/08 RMK AO2
14840KMKG MKG20030729153009307/29/03 15:30:31  5-MIN KMKG 292030Z 25009KT 10SM CLR 25/13 A3003 530 46 1800 260/09 RMK AO2
14840KMKG MKG20030729153509307/29/03 15:35:31  5-MIN KMKG 292035Z 26009KT 10SM CLR 26/13 A3003 530 44 1900 260/09 RMK AO2
14840KMKG MKG20030729154009307/29/03 15:40:31  5-MIN KMKG 292040Z 26010KT 10SM CLR 26/13 A3003 530 44 1900 260/10 RMK AO2
14840KMKG MKG20030729154509307/29/03 15:45:31  5-MIN KMKG 292045Z 27010KT 10SM CLR 25/13 A3003 530 46 1800 270/10 RMK AO2
14840KMKG MKG20030729155011007/29/03 15:50:31  5-MIN KMKG 292050Z 26009KT 10SM CLR 26/13 A3003 530 46 1900 270/09 RMK AO2 SLP166 T02560133
14840KMKG MKG20030729155511607/29/03 15:55:31  5-MIN KMKG 292055Z 24007KT 10SM CLR 25/13 A3003 530 46 1900 250/07 RMK AO2 SLP167 T02500128 58004
14840KMKG MKG20030729160010907/29/03 16:00:31  5-MIN KMKG 292100Z 27007KT 230V290 10SM CLR 26/13 A3003 530 46 1900 270/07 230V290 RMK AO2
14840KMKG MKG20030729160509307/29/03 16:05:31  5-MIN KMKG 292105Z 27007KT 10SM CLR 25/13 A3003 530 48 1900 270/07 RMK AO2
14840KMKG MKG20030729161009307/29/03 16:10:31  5-MIN KMKG 292110Z 26008KT 10SM CLR 25/13 A3003 530 48 1900 260/08 RMK AO2
14840KMKG MKG20030729161509307/29/03 16:15:31  5-MIN KMKG 292115Z 29006KT 10SM CLR 25/13 A3002 530 48 1900 290/06 RMK AO2
14840KMKG MKG20030729162009307/29/03 16:20:31  5-MIN KMKG 292120Z 27007KT 10SM CLR 26/14 A3003 530 49 1900 270/07 RMK AO2
14840KMKG MKG20030729162509307/29/03 16:25:31  5-MIN KMKG 292125Z 28009KT 10SM CLR 25/14 A3002 530 49 1900 280/09 RMK AO2
14840KMKG MKG20030729163009307/29/03 16:30:31  5-MIN KMKG 292130Z 28008KT 10SM CLR 26/14 A3002 530 48 1900 290/08 RMK AO2
14840KMKG MKG20030729163509307/29/03 16:35:31  5-MIN KMKG 292135Z 30009KT 10SM CLR 25/13 A3002 530 48 1900 300/09 RMK AO2
14840KMKG MKG20030729164009307/29/03 16:40:31  5-MIN KMKG 292140Z 29008KT 10SM CLR 25/14 A3002 530 49 1900 290/08 RMK AO2
14840KMKG MKG20030729164509307/29/03 16:45:31  5-MIN KMKG 292145Z 27007KT 10SM CLR 25/14 A3003 530 49 1900 270/07 RMK AO2
14840KMKG MKG20030729165011007/29/03 16:50:31  5-MIN KMKG 292150Z 27008KT 10SM CLR 25/14 A3002 530 49 1900 280/08 RMK AO2 SLP166 T02500139
14840KMKG MKG20030729165511007/29/03 16:55:31  5-MIN KMKG 292155Z 28006KT 10SM CLR 25/14 A3002 530 51 1900 280/06 RMK AO2 SLP166 T02500144
14840KMKG MKG20030729170009307/29/03 17:00:31  5-MIN KMKG 292200Z VRB05KT 10SM CLR 26/14 A3002 540 49 1900 VRB/05 RMK AO2
14840KMKG MKG20030729170509307/29/03 17:05:31  5-MIN KMKG 292205Z 28007KT 10SM CLR 25/14 A3002 540 51 1900 290/07 RMK AO2
14840KMKG MKG20030729171009307/29/03 17:10:31  5-MIN KMKG 292210Z 25006KT 10SM CLR 24/14 A3002 540 51 1800 260/06 RMK AO2
14840KMKG MKG20030729171509307/29/03 17:15:31  5-MIN KMKG 292215Z 27006KT 10SM CLR 24/14 A3002 540 53 1800 270/06 RMK AO2
14840KMKG MKG20030729172009307/29/03 17:20:31  5-MIN KMKG 292220Z 24007KT 10SM CLR 24/14 A3002 540 51 1800 250/07 RMK AO2
14840KMKG MKG20030729172509307/29/03 17:25:31  5-MIN KMKG 292225Z 24009KT 10SM CLR 24/14 A3002 540 51 1800 250/09 RMK AO2
14840KMKG MKG20030729173009307/29/03 17:30:31  5-MIN KMKG 292230Z 24008KT 10SM CLR 24/14 A3002 540 51 1800 250/08 RMK AO2
14840KMKG MKG20030729173509307/29/03 17:35:31  5-MIN KMKG 292235Z 26007KT 10SM CLR 24/14 A3001 540 53 1700 270/07 RMK AO2
14840KMKG MKG20030729174009307/29/03 17:40:31  5-MIN KMKG 292240Z 26006KT 10SM CLR 24/14 A3001 540 51 1800 260/06 RMK AO2
14840KMKG MKG20030729174509307/29/03 17:45:31  5-MIN KMKG 292245Z 25006KT 10SM CLR 24/14 A3001 540 51 1800 250/06 RMK AO2
14840KMKG MKG20030729175011007/29/03 17:50:31  5-MIN KMKG 292250Z 26008KT 10SM CLR 24/14 A3001 540 53 1700 260/08 RMK AO2 SLP162 T02390139
14840KMKG MKG20030729175511007/29/03 17:55:31  5-MIN KMKG 292255Z 26006KT 10SM CLR 24/14 A3001 540 53 1800 270/06 RMK AO2 SLP163 T02440144
14840KMKG MKG20030729180009307/29/03 18:00:31  5-MIN KMKG 292300Z 29008KT 10SM CLR 24/14 A3001 540 51 1800 290/08 RMK AO2
14840KMKG MKG20030729180509307/29/03 18:05:31  5-MIN KMKG 292305Z 29008KT 10SM CLR 24/14 A3001 550 53 1700 290/08 RMK AO2
14840KMKG MKG20030729181009307/29/03 18:10:31  5-MIN KMKG 292310Z 28007KT 10SM CLR 24/14 A3001 550 53 1700 280/07 RMK AO2
14840KMKG MKG20030729181509307/29/03 18:15:31  5-MIN KMKG 292315Z 28007KT 10SM CLR 24/14 A3001 550 53 1700 280/07 RMK AO2
14840KMKG MKG20030729182009307/29/03 18:20:31  5-MIN KMKG 292320Z 28007KT 10SM CLR 24/14 A3001 550 53 1700 280/07 RMK AO2
14840KMKG MKG20030729182509307/29/03 18:25:31  5-MIN KMKG 292325Z 27006KT 10SM CLR 24/14 A3001 550 53 1700 270/06 RMK AO2
14840KMKG MKG20030729183009307/29/03 18:30:31  5-MIN KMKG 292330Z 28006KT 10SM CLR 24/14 A3001 550 55 1700 280/06 RMK AO2
14840KMKG MKG20030729183509307/29/03 18:35:31  5-MIN KMKG 292335Z 29005KT 10SM CLR 24/14 A3001 550 55 1700 300/05 RMK AO2
14840KMKG MKG20030729184009307/29/03 18:40:31  5-MIN KMKG 292340Z 29005KT 10SM CLR 23/14 A3001 550 55 1700 290/05 RMK AO2
14840KMKG MKG20030729184509307/29/03 18:45:31  5-MIN KMKG 292345Z 29006KT 10SM CLR 23/14 A3001 550 55 1700 290/06 RMK AO2
14840KMKG MKG20030729185012807/29/03 18:50:31  5-MIN KMKG 292350Z 29006KT 10SM CLR 23/14 A3001 550 57 1600 300/06 RMK AO2 SLP160 T02280139 10261 20228 58004
14840KMKG MKG20030729185512807/29/03 18:55:31  5-MIN KMKG 292355Z 30005KT 10SM CLR 23/14 A3001 550 57 1600 300/05 RMK AO2 SLP160 T02280139 10261 20228 58005
14840KMKG MKG20030729190009307/29/03 19:00:31  5-MIN KMKG 300000Z 31004KT 10SM CLR 23/14 A3001 550 59 1600 310/04 RMK AO2
14840KMKG MKG20030729190508507/29/03 19:05:31  5-MIN KMKG 300005Z 10SM CLR 23/14 A3001 550 59 1600 M /M RMK AO2 $
14840KMKG MKG20030729191008607/29/03 19:10:31  5-MIN KMKG 300010Z 26004KT 23/14 A3001 550 59 1600 260/04 RMK AO2 $
14840KMKG MKG20030729191511307/29/03 19:15:31  5-MIN KMKG 300015Z 25004G256KT 23/14 A3001 550 59 1600 250/04G256 RMK AO2 PK WND 260256/0012 $
14840KMKG MKG20030729192011307/29/03 19:20:31  5-MIN KMKG 300020Z 24004G256KT 22/14 A3001 550 61 1600 250/04G256 RMK AO2 PK WND 260256/0012 $
14840KMKG MKG20030729192511007/29/03 19:25:31  5-MIN KMKG 300025Z 26003KT 10SM 22/14 A3001 550 59 1600 270/03 RMK AO2 PK WND 260256/0012 $
14840KMKG MKG20030729193011007/29/03 19:30:31  5-MIN KMKG 300030Z 28003KT 10SM 22/14 A3001 550 63 1500 280/03 RMK AO2 PK WND 260256/0012 $
14840KMKG MKG20030729193511007/29/03 19:35:31  5-MIN KMKG 300035Z 28003KT 10SM 22/14 A3001 550 63 1500 280/03 RMK AO2 PK WND 260256/0012 $
14840KMKG MKG20030729194011407/29/03 19:40:31  5-MIN KMKG 300040Z 00000KT 10SM CLR 22/14 A3001 550 63 1500 000/00 RMK AO2 PK WND 260256/0012 $
14840KMKG MKG20030729194511407/29/03 19:45:31  5-MIN KMKG 300045Z 00000KT 10SM CLR 22/14 A3001 550 63 1500 000/00 RMK AO2 PK WND 260256/0012 $
14840KMKG MKG20030729195013107/29/03 19:50:31  5-MIN KMKG 300050Z 00000KT 10SM CLR 22/14 A3001 550 63 1500 000/00 RMK AO2 PK WND 260256/0012 SLP159 T02170144 $
14840KMKG MKG20030729195513107/29/03 19:55:31  5-MIN KMKG 300055Z 00000KT 10SM CLR 22/14 A3001 550 63 1500 000/00 RMK AO2 PK WND 260256/0012 SLP159 T02170144 $
14840KMKG MKG20030729200009507/29/03 20:00:31  5-MIN KMKG 300100Z 21004KT 10SM CLR 21/14 A3001 550 65 1400 210/04 RMK AO2 $
14840KMKG MKG20030729200509507/29/03 20:05:31  5-MIN KMKG 300105Z 22003KT 10SM CLR 21/15 A3001 550 70 1400 230/03 RMK AO2 $
14840KMKG MKG20030729201009507/29/03 20:10:31  5-MIN KMKG 300110Z 22003KT 10SM CLR 21/15 A3001 550 70 1400 220/03 RMK AO2 $
14840KMKG MKG20030729201509507/29/03 20:15:31  5-MIN KMKG 300115Z 21003KT 10SM CLR 21/15 A3001 550 70 1400 210/03 RMK AO2 $
14840KMKG MKG20030729202009507/29/03 20:20:31  5-MIN KMKG 300120Z 19003KT 10SM CLR 21/15 A3001 550 70 1400 200/03 RMK AO2 $
14840KMKG MKG20030729202509507/29/03 20:25:31  5-MIN KMKG 300125Z 00000KT 10SM CLR 21/15 A3001 550 70 1400 000/00 RMK AO2 $
14840KMKG MKG20030729203009507/29/03 20:30:31  5-MIN KMKG 300130Z 19003KT 10SM CLR 21/16 A3001 550 73 1400 190/03 RMK AO2 $
14840KMKG MKG20030729203509507/29/03 20:35:31  5-MIN KMKG 300135Z 00000KT 10SM CLR 20/15 A3001 550 72 1300 000/00 RMK AO2 $
14840KMKG MKG20030729204009507/29/03 20:40:31  5-MIN KMKG 300140Z 00000KT 10SM CLR 19/15 A3001 550 75 1200 000/00 RMK AO2 $
14840KMKG MKG20030729204509507/29/03 20:45:31  5-MIN KMKG 300145Z 00000KT 10SM CLR 19/15 A3001 550 75 1200 000/00 RMK AO2 $
14840KMKG MKG20030729205011207/29/03 20:50:31  5-MIN KMKG 300150Z 00000KT 10SM CLR 19/16 A3001 550 78 1200 000/00 RMK AO2 SLP160 T01940156 $
14840KMKG MKG20030729205511207/29/03 20:55:31  5-MIN KMKG 300155Z 00000KT 10SM CLR 18/15 A3001 550 81 1100 000/00 RMK AO2 SLP161 T01830150 $
14840KMKG MKG20030729210009507/29/03 21:00:31  5-MIN KMKG 300200Z 00000KT 10SM CLR 18/15 A3001 550 83 1000 000/00 RMK AO2 $
14840KMKG MKG20030729210509507/29/03 21:05:31  5-MIN KMKG 300205Z 00000KT 10SM CLR 18/15 A3001 550 83 1000 000/00 RMK AO2 $
14840KMKG MKG20030729211009507/29/03 21:10:31  5-MIN KMKG 300210Z 00000KT 10SM CLR 19/15 A3001 550 78 1200 000/00 RMK AO2 $
14840KMKG MKG20030729211509507/29/03 21:15:31  5-MIN KMKG 300215Z 00000KT 10SM CLR 19/15 A3001 550 78 1200 000/00 RMK AO2 $
14840KMKG MKG20030729212009507/29/03 21:20:31  5-MIN KMKG 300220Z 00000KT 10SM CLR 18/15 A3001 550 81 1100 000/00 RMK AO2 $
14840KMKG MKG20030729212509507/29/03 21:25:31  5-MIN KMKG 300225Z 00000KT 10SM CLR 18/15 A3001 540 83 1000 000/00 RMK AO2 $
14840KMKG MKG20030729213009507/29/03 21:30:31  5-MIN KMKG 300230Z 00000KT 10SM CLR 17/15 A3002 540 87 1000 000/00 RMK AO2 $
14840KMKG MKG20030729213509507/29/03 21:35:31  5-MIN KMKG 300235Z 00000KT 10SM CLR 17/15 A3002 540 87 1000 000/00 RMK AO2 $
14840KMKG MKG20030729214009507/29/03 21:40:31  5-MIN KMKG 300240Z 00000KT 10SM CLR 18/16 A3002 540 87 1000 000/00 RMK AO2 $
14840KMKG MKG20030729214509507/29/03 21:45:31  5-MIN KMKG 300245Z 00000KT 10SM CLR 17/15 A3002 540 87 1000 000/00 RMK AO2 $
14840KMKG MKG20030729215012307/29/03 21:50:31  5-MIN KMKG 300250Z 00000KT 10SM CLR 16/14 A3002 540 90 800 000/00 RMK AO2 SLP163 6//// T01610144 58005 $
14840KMKG MKG20030729215511707/29/03 21:55:31  5-MIN KMKG 300255Z 00000KT 10SM CLR 17/15 A3002 540 90 900 000/00 RMK AO2 SLP164 T01670150 53004 $
14840KMKG MKG20030729220009507/29/03 22:00:31  5-MIN KMKG 300300Z 00000KT 10SM CLR 17/15 A3002 540 87 1000 000/00 RMK AO2 $
14840KMKG MKG20030729220509507/29/03 22:05:31  5-MIN KMKG 300305Z 00000KT 10SM CLR 17/16 A3002 540 90 1000 000/00 RMK AO2 $
14840KMKG MKG20030729221009507/29/03 22:10:31  5-MIN KMKG 300310Z 00000KT 10SM CLR 17/15 A3002 540 87 1000 000/00 RMK AO2 $
14840KMKG MKG20030729221509507/29/03 22:15:31  5-MIN KMKG 300315Z 00000KT 10SM CLR 17/15 A3002 540 87 1000 000/00 RMK AO2 $
14840KMKG MKG20030729222009407/29/03 22:20:31  5-MIN KMKG 300320Z 00000KT 10SM CLR 17/14 A3003 530 86 900 000/00 RMK AO2 $
14840KMKG MKG20030729222509407/29/03 22:25:31  5-MIN KMKG 300325Z VRB03KT 10SM CLR 17/15 A3003 530 90 900 VRB/03 RMK AO2 $
14840KMKG MKG20030729223009407/29/03 22:30:31  5-MIN KMKG 300330Z 00000KT 10SM CLR 16/14 A3002 530 90 800 000/00 RMK AO2 $
14840KMKG MKG20030729223509407/29/03 22:35:31  5-MIN KMKG 300335Z 00000KT 10SM CLR 16/14 A3002 530 90 800 000/00 RMK AO2 $
14840KMKG MKG20030729224009407/29/03 22:40:31  5-MIN KMKG 300340Z 00000KT 10SM CLR 17/15 A3003 530 90 900 000/00 RMK AO2 $
14840KMKG MKG20030729224509407/29/03 22:45:31  5-MIN KMKG 300345Z 00000KT 10SM CLR 17/14 A3003 530 86 900 000/00 RMK AO2 $
14840KMKG MKG20030729225011107/29/03 22:50:31  5-MIN KMKG 300350Z 00000KT 10SM CLR 16/14 A3003 530 90 800 000/00 RMK AO2 SLP165 T01610144 $
14840KMKG MKG20030729225511107/29/03 22:55:31  5-MIN KMKG 300355Z 00000KT 10SM CLR 16/14 A3003 530 90 800 000/00 RMK AO2 SLP166 T01560139 $
14840KMKG MKG20030729230009407/29/03 23:00:31  5-MIN KMKG 300400Z 17003KT 10SM CLR 16/14 A3003 530 90 800 170/03 RMK AO2 $
14840KMKG MKG20030729230509507/29/03 23:05:31  5-MIN KMKG 300405Z 16003KT 10SM CLR 17/15 A3003 530 87 1000 170/03 RMK AO2 $
14840KMKG MKG20030729231009507/29/03 23:10:31  5-MIN KMKG 300410Z 17003KT 10SM CLR 17/15 A3002 530 87 1000 170/03 RMK AO2 $
14840KMKG MKG20030729231509507/29/03 23:15:31  5-MIN KMKG 300415Z 00000KT 10SM CLR 17/14 A3002 540 80 1000 000/00 RMK AO2 $
14840KMKG MKG20030729232009407/29/03 23:20:31  5-MIN KMKG 300420Z 00000KT 10SM CLR 17/14 A3002 530 86 900 000/00 RMK AO2 $
14840KMKG MKG20030729232509407/29/03 23:25:31  5-MIN KMKG 300425Z 00000KT 10SM CLR 16/14 A3003 530 90 800 000/00 RMK AO2 $
14840KMKG MKG20030729233009407/29/03 23:30:31  5-MIN KMKG 300430Z 00000KT 10SM CLR 17/14 A3003 530 86 900 000/00 RMK AO2 $
14840KMKG MKG20030729233509407/29/03 23:35:31  5-MIN KMKG 300435Z 00000KT 10SM CLR 16/14 A3003 530 90 800 000/00 RMK AO2 $
14840KMKG MKG20030729234009407/29/03 23:40:31  5-MIN KMKG 300440Z 00000KT 10SM CLR 17/15 A3003 530 90 900 000/00 RMK AO2 $
14840KMKG MKG20030729234509407/29/03 23:45:31  5-MIN KMKG 300445Z 00000KT 10SM CLR 17/16 A3003 530 93 900 000/00 RMK AO2 $
14840KMKG MKG20030729235012007/29/03 23:50:31  5-MIN KMKG 300450Z 00000KT 9SM CLR 16/16 A3003 530 96 800 000/00 RMK AO2 SLP168 T01610156 402610111 $
14840KMKG MKG20030729235512007/29/03 23:55:31  5-MIN KMKG 300455Z 00000KT 9SM CLR 17/16 A3004 520 93 900 000/00 RMK AO2 SLP169 T01670156 402610111 $
14840KMKG MKG20030730000009407/30/03 00:00:32  5-MIN KMKG 300500Z 00000KT 10SM CLR 17/16 A3004 520 93 900 000/00 RMK AO2 $
14840KMKG MKG20030730000509407/30/03 00:05:31  5-MIN KMKG 300505Z 00000KT 10SM CLR 17/16 A3004 520 93 900 000/00 RMK AO2 $
14840KMKG MKG20030730001009407/30/03 00:10:31  5-MIN KMKG 300510Z 00000KT 10SM CLR 17/16 A3004 520 93 900 000/00 RMK AO2 $
14840KMKG MKG20030730001509407/30/03 00:15:31  5-MIN KMKG 300515Z 12003KT 10SM CLR 17/16 A3004 520 93 900 130/03 RMK AO2 $
14840KMKG MKG20030730002009407/30/03 00:20:31  5-MIN KMKG 300520Z VRB03KT 10SM CLR 16/15 A3004 520 93 800 VRB/03 RMK AO2 $
14840KMKG MKG20030730002509307/30/03 00:25:31  5-MIN KMKG 300525Z 14003KT 9SM CLR 16/14 A3004 520 93 700 150/03 RMK AO2 $
14840KMKG MKG20030730003009307/30/03 00:30:31  5-MIN KMKG 300530Z 15003KT 8SM CLR 16/14 A3004 520 93 700 150/03 RMK AO2 $
14840KMKG MKG20030730003509307/30/03 00:35:31  5-MIN KMKG 300535Z 00000KT 9SM CLR 16/14 A3004 520 93 700 000/00 RMK AO2 $
14840KMKG MKG20030730004009307/30/03 00:40:31  5-MIN KMKG 300540Z 13003KT 9SM CLR 16/14 A3004 520 90 800 130/03 RMK AO2 $
14840KMKG MKG20030730004509407/30/03 00:45:31  5-MIN KMKG 300545Z 13004KT 10SM CLR 16/15 A3004 520 93 800 130/04 RMK AO2 $
14840KMKG MKG20030730005013507/30/03 00:50:31  5-MIN KMKG 300550Z 00000KT 10SM CLR 16/14 A3004 520 90 800 000/00 RMK AO2 SLP171 6//// T01610144 10228 20150 53004 $
14840KMKG MKG20030730005513507/30/03 00:55:31  5-MIN KMKG 300555Z 00000KT 10SM CLR 16/14 A3004 520 93 700 000/00 RMK AO2 SLP172 6//// T01560144 10228 20150 53007 $
14840KMKG MKG20030730010009307/30/03 01:00:31  5-MIN KMKG 300600Z 00000KT 9SM CLR 15/14 A3005 510 96 700 000/00 RMK AO2 $
14840KMKG MKG20030730010509307/30/03 01:05:31  5-MIN KMKG 300605Z 00000KT 9SM CLR 16/14 A3005 510 90 800 000/00 RMK AO2 $
14840KMKG MKG20030730011009407/30/03 01:10:31  5-MIN KMKG 300610Z 00000KT 10SM CLR 16/15 A3005 510 93 800 000/00 RMK AO2 $
14840KMKG MKG20030730011509407/30/03 01:15:31  5-MIN KMKG 300615Z 00000KT 10SM CLR 16/15 A3005 510 93 800 000/00 RMK AO2 $
14840KMKG MKG20030730012009407/30/03 01:20:31  5-MIN KMKG 300620Z 00000KT 10SM CLR 16/15 A3004 520 93 800 000/00 RMK AO2 $
14840KMKG MKG20030730012509407/30/03 01:25:31  5-MIN KMKG 300625Z 00000KT 10SM CLR 16/14 A3004 520 90 800 000/00 RMK AO2 $
14840KMKG MKG20030730013009407/30/03 01:30:31  5-MIN KMKG 300630Z 00000KT 10SM CLR 16/14 A3004 520 90 700 000/00 RMK AO2 $
14840KMKG MKG20030730013509407/30/03 01:35:31  5-MIN KMKG 300635Z 00000KT 10SM CLR 16/14 A3004 520 90 700 000/00 RMK AO2 $
14840KMKG MKG20030730014009407/30/03 01:40:31  5-MIN KMKG 300640Z 12003KT 10SM CLR 15/14 A3004 520 93 700 130/03 RMK AO2 $
14840KMKG MKG20030730014509307/30/03 01:45:31  5-MIN KMKG 300645Z 00000KT 9SM CLR 15/14 A3005 510 93 700 000/00 RMK AO2 $
14840KMKG MKG20030730015011007/30/03 01:50:31  5-MIN KMKG 300650Z 12003KT 9SM CLR 15/14 A3004 520 93 700 130/03 RMK AO2 SLP171 T01500139 $
14840KMKG MKG20030730015511007/30/03 01:55:31  5-MIN KMKG 300655Z 00000KT 9SM CLR 15/14 A3004 520 96 700 000/00 RMK AO2 SLP171 T01500144 $
14840KMKG MKG20030730020009407/30/03 02:00:31  5-MIN KMKG 300700Z 14003KT 10SM CLR 15/14 A3004 520 96 700 140/03 RMK AO2 $
14840KMKG MKG20030730020509407/30/03 02:05:31  5-MIN KMKG 300705Z 16003KT 10SM CLR 16/14 A3004 520 93 700 170/03 RMK AO2 $
14840KMKG MKG20030730021009407/30/03 02:10:31  5-MIN KMKG 300710Z 00000KT 10SM CLR 16/14 A3005 510 93 700 000/00 RMK AO2 $
14840KMKG MKG20030730021509407/30/03 02:15:31  5-MIN KMKG 300715Z 00000KT 10SM CLR 16/14 A3005 510 93 700 000/00 RMK AO2 $
14840KMKG MKG20030730022009407/30/03 02:20:31  5-MIN KMKG 300720Z 00000KT 10SM CLR 15/14 A3004 520 93 700 000/00 RMK AO2 $
14840KMKG MKG20030730022509307/30/03 02:25:31  5-MIN KMKG 300725Z 00000KT 9SM CLR 15/14 A3005 510 96 700 000/00 RMK AO2 $
14840KMKG MKG20030730023009307/30/03 02:30:31  5-MIN KMKG 300730Z 00000KT 9SM CLR 15/14 A3004 520 93 700 000/00 RMK AO2 $
14840KMKG MKG20030730023509307/30/03 02:35:31  5-MIN KMKG 300735Z 12003KT 9SM CLR 15/14 A3004 520 93 700 120/03 RMK AO2 $
14840KMKG MKG20030730024009307/30/03 02:40:31  5-MIN KMKG 300740Z 11003KT 9SM CLR 14/14 A3005 510 96 600 120/03 RMK AO2 $
14840KMKG MKG20030730024509307/30/03 02:45:31  5-MIN KMKG 300745Z 12003KT 9SM CLR 15/14 A3005 520 93 700 120/03 RMK AO2 $
14840KMKG MKG20030730025011007/30/03 02:50:31  5-MIN KMKG 300750Z 12003KT 9SM CLR 14/14 A3004 520 96 600 120/03 RMK AO2 SLP172 T01440139 $
14840KMKG MKG20030730025511007/30/03 02:55:31  5-MIN KMKG 300755Z 12004KT 9SM CLR 14/14 A3004 520 96 600 120/04 RMK AO2 SLP171 T01440139 $
14840KMKG MKG20030730030009307/30/03 03:00:31  5-MIN KMKG 300800Z 12004KT 9SM CLR 14/14 A3004 520 96 600 130/04 RMK AO2 $
14840KMKG MKG20030730030509307/30/03 03:05:31  5-MIN KMKG 300805Z 12003KT 8SM CLR 14/14 A3004 520 96 600 130/03 RMK AO2 $
14840KMKG MKG20030730031009307/30/03 03:10:31  5-MIN KMKG 300810Z 13003KT 8SM CLR 14/14 A3004 520 96 600 130/03 RMK AO2 $
14840KMKG MKG20030730031509307/30/03 03:15:31  5-MIN KMKG 300815Z 14004KT 8SM CLR 14/13 A3004 520 96 600 140/04 RMK AO2 $
14840KMKG MKG20030730032009307/30/03 03:20:31  5-MIN KMKG 300820Z 14003KT 9SM CLR 14/13 A3004 520 93 600 150/03 RMK AO2 $
14840KMKG MKG20030730032509307/30/03 03:25:31  5-MIN KMKG 300825Z 14003KT 8SM CLR 14/13 A3004 520 93 600 150/03 RMK AO2 $
14840KMKG MKG20030730033009307/30/03 03:30:31  5-MIN KMKG 300830Z 14003KT 8SM CLR 14/13 A3004 520 93 600 140/03 RMK AO2 $
14840KMKG MKG20030730033509307/30/03 03:35:31  5-MIN KMKG 300835Z 00000KT 8SM CLR 14/14 A3004 520 96 600 000/00 RMK AO2 $
14840KMKG MKG20030730034009307/30/03 03:40:31  5-MIN KMKG 300840Z 00000KT 8SM CLR 15/14 A3004 520 93 700 000/00 RMK AO2 $
14840KMKG MKG20030730034509307/30/03 03:45:31  5-MIN KMKG 300845Z 00000KT 8SM CLR 15/14 A3004 520 93 700 000/00 RMK AO2 $
14840KMKG MKG20030730035011607/30/03 03:50:31  5-MIN KMKG 300850Z 00000KT 8SM CLR 15/14 A3004 520 93 700 000/00 RMK AO2 SLP171 T01500139 53007 $
14840KMKG MKG20030730035511607/30/03 03:55:31  5-MIN KMKG 300855Z 13003KT 8SM CLR 15/14 A3004 520 93 700 130/03 RMK AO2 SLP172 T01500139 55000 $
14840KMKG MKG20030730040009307/30/03 04:00:31  5-MIN KMKG 300900Z 12003KT 8SM CLR 14/14 A3004 520 96 600 120/03 RMK AO2 $
14840KMKG MKG20030730040509307/30/03 04:05:31  5-MIN KMKG 300905Z 00000KT 8SM CLR 15/14 A3005 520 93 700 000/00 RMK AO2 $
14840KMKG MKG20030730041009307/30/03 04:10:31  5-MIN KMKG 300910Z 00000KT 7SM CLR 14/14 A3005 510 96 600 000/00 RMK AO2 $
14840KMKG MKG20030730041509607/30/03 04:15:31  5-MIN KMKG 300915Z 00000KT 6SM BR CLR 14/14 A3005 510 96 600 000/00 RMK AO2 $
14840KMKG MKG20030730042009607/30/03 04:20:31  5-MIN KMKG 300920Z 00000KT 6SM BR CLR 14/14 A3005 510 96 600 000/00 RMK AO2 $
14840KMKG MKG20030730042509607/30/03 04:25:31  5-MIN KMKG 300925Z 00000KT 6SM BR CLR 14/14 A3005 510 96 600 000/00 RMK AO2 $
14840KMKG MKG20030730043009307/30/03 04:30:31  5-MIN KMKG 300930Z 00000KT 7SM CLR 14/14 A3005 510 96 600 000/00 RMK AO2 $
14840KMKG MKG20030730043509607/30/03 04:35:31  5-MIN KMKG 300935Z 00000KT 6SM BR CLR 14/13 A3005 510 96 500 000/00 RMK AO2 $
14840KMKG MKG20030730044009307/30/03 04:40:31  5-MIN KMKG 300940Z 00000KT 7SM CLR 14/13 A3005 510 96 500 000/00 RMK AO2 $
14840KMKG MKG20030730044509307/30/03 04:45:31  5-MIN KMKG 300945Z 00000KT 7SM CLR 14/13 A3005 510 93 600 000/00 RMK AO2 $
14840KMKG MKG20030730045011007/30/03 04:50:31  5-MIN KMKG 300950Z 00000KT 7SM CLR 14/13 A3005 510 93 600 000/00 RMK AO2 SLP173 T01440133 $
14840KMKG MKG20030730045511007/30/03 04:55:31  5-MIN KMKG 300955Z 13003KT 7SM CLR 14/13 A3005 510 93 600 130/03 RMK AO2 SLP173 T01440133 $
14840KMKG MKG20030730050009307/30/03 05:00:31  5-MIN KMKG 301000Z 13004KT 7SM CLR 14/13 A3005 510 93 600 140/04 RMK AO2 $
14840KMKG MKG20030730050509607/30/03 05:05:31  5-MIN KMKG 301005Z 13004KT 6SM BR CLR 14/13 A3005 510 96 500 140/04 RMK AO2 $
14840KMKG MKG20030730051009607/30/03 05:10:31  5-MIN KMKG 301010Z 13005KT 6SM BR CLR 13/13 A3005 510 96 500 130/05 RMK AO2 $
14840KMKG MKG20030730051509707/30/03 05:15:31  5-MIN KMKG 301015Z 13005KT 6SM BR CLR 13/13 A3005 510 100 500 130/05 RMK AO2 $
14840KMKG MKG20030730052009607/30/03 05:20:31  5-MIN KMKG 301020Z 13005KT 5SM BR CLR 13/13 A3005 510 96 500 130/05 RMK AO2 $
14840KMKG MKG20030730052509607/30/03 05:25:31  5-MIN KMKG 301025Z 15003KT 5SM BR CLR 14/13 A3005 510 96 500 150/03 RMK AO2 $
14840KMKG MKG20030730053009607/30/03 05:30:31  5-MIN KMKG 301030Z 00000KT 5SM BR CLR 14/13 A3005 510 96 500 000/00 RMK AO2 $
14840KMKG MKG20030730053509607/30/03 05:35:31  5-MIN KMKG 301035Z 00000KT 5SM BR CLR 14/13 A3005 510 93 500 000/00 RMK AO2 $
14840KMKG MKG20030730054009607/30/03 05:40:31  5-MIN KMKG 301040Z 00000KT 5SM BR CLR 14/13 A3006 510 93 500 000/00 RMK AO2 $
14840KMKG MKG20030730054509607/30/03 05:45:31  5-MIN KMKG 301045Z 13003KT 5SM BR CLR 13/13 A3006 500 96 500 130/03 RMK AO2 $
14840KMKG MKG20030730055011307/30/03 05:50:31  5-MIN KMKG 301050Z 13003KT 4SM BR CLR 13/13 A3006 500 96 500 130/03 RMK AO2 SLP178 T01330128 $
14840KMKG MKG20030730055511307/30/03 05:55:31  5-MIN KMKG 301055Z 13004KT 4SM BR CLR 14/13 A3006 500 96 500 130/04 RMK AO2 SLP176 T01390133 $
14840KMKG MKG20030730060009607/30/03 06:00:31  5-MIN KMKG 301100Z 11003KT 5SM BR CLR 14/13 A3006 500 93 600 110/03 RMK AO2 $
14840KMKG MKG20030730060509607/30/03 06:05:31  5-MIN KMKG 301105Z 00000KT 5SM BR CLR 14/13 A3006 500 93 600 000/00 RMK AO2 $
14840KMKG MKG20030730061009607/30/03 06:10:31  5-MIN KMKG 301110Z 00000KT 5SM BR CLR 14/14 A3006 500 96 600 000/00 RMK AO2 $
14840KMKG MKG20030730061509607/30/03 06:15:31  5-MIN KMKG 301115Z 00000KT 4SM BR CLR 14/14 A3006 500 96 600 000/00 RMK AO2 $
14840KMKG MKG20030730062009607/30/03 06:20:31  5-MIN KMKG 301120Z 00000KT 4SM BR CLR 15/14 A3006 500 93 700 000/00 RMK AO2 $
14840KMKG MKG20030730062509607/30/03 06:25:31  5-MIN KMKG 301125Z 12003KT 5SM BR CLR 15/14 A3007 490 93 700 130/03 RMK AO2 $
14840KMKG MKG20030730063009607/30/03 06:30:31  5-MIN KMKG 301130Z 12003KT 5SM BR CLR 15/14 A3007 500 93 700 120/03 RMK AO2 $
14840KMKG MKG20030730063509607/30/03 06:35:31  5-MIN KMKG 301135Z 13003KT 5SM BR CLR 15/14 A3007 490 93 600 140/03 RMK AO2 $
14840KMKG MKG20030730064009607/30/03 06:40:31  5-MIN KMKG 301140Z 12003KT 5SM BR CLR 16/14 A3007 490 93 700 130/03 RMK AO2 $
14840KMKG MKG20030730064509607/30/03 06:45:31  5-MIN KMKG 301145Z 11003KT 5SM BR CLR 16/14 A3007 500 93 700 120/03 RMK AO2 $
14840KMKG MKG20030730065013707/30/03 06:50:31  5-MIN KMKG 301150Z 12003KT 5SM BR CLR 16/14 A3007 490 93 700 120/03 RMK AO2 SLP180 7//// T01560144 10161 20133 55000 $
14840KMKG MKG20030730065513107/30/03 06:55:31  5-MIN KMKG 301155Z 12004KT 5SM BR CLR 16/14 A3007 490 90 800 120/04 RMK AO2 SLP180 T01610144 10161 20133 53008 $
14840KMKG MKG20030730070009607/30/03 07:00:31  5-MIN KMKG 301200Z 12004KT 5SM BR CLR 16/14 A3006 500 90 800 120/04 RMK AO2 $
14840KMKG MKG20030730070509607/30/03 07:05:31  5-MIN KMKG 301205Z 12003KT 5SM BR CLR 16/15 A3006 500 93 800 130/03 RMK AO2 $
14840KMKG MKG20030730071009607/30/03 07:10:31  5-MIN KMKG 301210Z 12004KT 5SM BR CLR 17/15 A3006 500 90 900 130/04 RMK AO2 $
14840KMKG MKG20030730071509607/30/03 07:15:31  5-MIN KMKG 301215Z 12004KT 5SM BR CLR 17/16 A3006 500 93 900 120/04 RMK AO2 $
14840KMKG MKG20030730072009607/30/03 07:20:31  5-MIN KMKG 301220Z 12004KT 5SM BR CLR 17/16 A3006 500 93 900 120/04 RMK AO2 $
14840KMKG MKG20030730072509607/30/03 07:25:31  5-MIN KMKG 301225Z 11004KT 5SM BR CLR 17/16 A3006 500 90 900 110/04 RMK AO2 $
14840KMKG MKG20030730073009507/30/03 07:30:31  5-MIN KMKG 301230Z 12004KT 6SM BR CLR 18/16 A3006 500 90 1000 120/04 RMK AO2
14840KMKG MKG20030730073509507/30/03 07:35:31  5-MIN KMKG 301235Z 12005KT 6SM BR CLR 18/16 A3006 500 87 1000 130/05 RMK AO2
14840KMKG MKG20030730074009507/30/03 07:40:31  5-MIN KMKG 301240Z 13004KT 6SM BR CLR 18/16 A3006 500 87 1000 130/04 RMK AO2
14840KMKG MKG20030730074509207/30/03 07:45:31  5-MIN KMKG 301245Z 13003KT 7SM CLR 19/17 A3006 500 87 1100 130/03 RMK AO2
14840KMKG MKG20030730075010907/30/03 07:50:31  5-MIN KMKG 301250Z 16004KT 7SM CLR 19/17 A3006 500 84 1200 160/04 RMK AO2 SLP178 T01940167
14840KMKG MKG20030730075510907/30/03 07:55:31  5-MIN KMKG 301255Z VRB03KT 8SM CLR 20/17 A3006 500 84 1200 VRB/03 RMK AO2 SLP177 T02000172
14840KMKG MKG20030730080009207/30/03 08:00:31  5-MIN KMKG 301300Z 17004KT 8SM CLR 20/17 A3006 500 84 1200 170/04 RMK AO2
14840KMKG MKG20030730080509207/30/03 08:05:31  5-MIN KMKG 301305Z 17005KT 9SM CLR 20/17 A3006 500 84 1200 170/05 RMK AO2
14840KMKG MKG20030730081009207/30/03 08:10:31  5-MIN KMKG 301310Z 18005KT 9SM CLR 21/18 A3006 500 81 1400 190/05 RMK AO2
14840KMKG MKG20030730081509307/30/03 08:15:31  5-MIN KMKG 301315Z 18005KT 10SM CLR 21/18 A3006 500 81 1400 190/05 RMK AO2
14840KMKG MKG20030730082009307/30/03 08:20:31  5-MIN KMKG 301320Z 18008KT 10SM CLR 22/18 A3006 500 78 1400 180/08 RMK AO2
14840KMKG MKG20030730082509307/30/03 08:25:31  5-MIN KMKG 301325Z 17005KT 10SM CLR 22/18 A3006 500 81 1400 180/05 RMK AO2
14840KMKG MKG20030730083009307/30/03 08:30:31  5-MIN KMKG 301330Z 18007KT 10SM CLR 22/18 A3006 500 78 1500 180/07 RMK AO2
14840KMKG MKG20030730083509307/30/03 08:35:31  5-MIN KMKG 301335Z 18008KT 10SM CLR 22/18 A3006 500 78 1500 180/08 RMK AO2
14840KMKG MKG20030730084009307/30/03 08:40:31  5-MIN KMKG 301340Z 19008KT 10SM CLR 22/18 A3006 500 78 1500 200/08 RMK AO2
14840KMKG MKG20030730084509307/30/03 08:45:31  5-MIN KMKG 301345Z 18007KT 10SM CLR 23/18 A3006 510 76 1600 190/07 RMK AO2
14840KMKG MKG20030730085011007/30/03 08:50:31  5-MIN KMKG 301350Z 18007KT 10SM CLR 23/18 A3006 510 73 1600 180/07 RMK AO2 SLP174 T02330183
14840KMKG MKG20030730085511007/30/03 08:55:31  5-MIN KMKG 301355Z 19009KT 10SM CLR 23/18 A3005 510 70 1600 200/09 RMK AO2 SLP175 T02330178
14840KMKG MKG20030730090009307/30/03 09:00:31  5-MIN KMKG 301400Z 20008KT 10SM CLR 23/18 A3006 500 70 1600 210/08 RMK AO2
14840KMKG MKG20030730090509307/30/03 09:05:31  5-MIN KMKG 301405Z 20010KT 10SM CLR 24/18 A3006 510 68 1700 210/10 RMK AO2
14840KMKG MKG20030730091009307/30/03 09:10:31  5-MIN KMKG 301410Z 21012KT 10SM CLR 24/17 A3006 500 66 1700 210/12 RMK AO2
14840KMKG MKG20030730091509307/30/03 09:15:31  5-MIN KMKG 301415Z 20009KT 10SM CLR 24/17 A3006 500 66 1700 210/09 RMK AO2
14840KMKG MKG20030730092009307/30/03 09:20:31  5-MIN KMKG 301420Z 21010KT 10SM CLR 24/17 A3006 500 66 1700 210/10 RMK AO2
14840KMKG MKG20030730092509307/30/03 09:25:31  5-MIN KMKG 301425Z 19008KT 10SM CLR 24/17 A3006 500 63 1800 200/08 RMK AO2
14840KMKG MKG20030730093009307/30/03 09:30:31  5-MIN KMKG 301430Z 19010KT 10SM CLR 24/17 A3006 500 63 1800 200/10 RMK AO2
14840KMKG MKG20030730093509307/30/03 09:35:31  5-MIN KMKG 301435Z 19009KT 10SM CLR 24/17 A3006 500 61 1800 200/09 RMK AO2
14840KMKG MKG20030730094009307/30/03 09:40:31  5-MIN KMKG 301440Z 19010KT 10SM CLR 24/17 A3006 500 63 1800 200/10 RMK AO2
14840KMKG MKG20030730094509307/30/03 09:45:31  5-MIN KMKG 301445Z 19011KT 10SM CLR 24/17 A3006 500 63 1700 200/11 RMK AO2
14840KMKG MKG20030730095011607/30/03 09:50:31  5-MIN KMKG 301450Z 19012KT 10SM CLR 24/17 A3006 500 63 1700 200/12 RMK AO2 SLP178 T02440172 53008
14840KMKG MKG20030730095511607/30/03 09:55:31  5-MIN KMKG 301455Z 19011KT 10SM CLR 24/17 A3007 500 63 1700 200/11 RMK AO2 SLP179 T02440172 55001
14840KMKG MKG20030730100009307/30/03 10:00:31  5-MIN KMKG 301500Z 21012KT 10SM CLR 25/17 A3007 490 61 1800 210/12 RMK AO2
14840KMKG MKG20030730100509307/30/03 10:05:31  5-MIN KMKG 301505Z 20013KT 10SM CLR 25/17 A3007 490 61 1800 210/13 RMK AO2
14840KMKG MKG20030730101009307/30/03 10:10:31  5-MIN KMKG 301510Z 20012KT 10SM CLR 25/17 A3007 490 61 1800 200/12 RMK AO2
14840KMKG MKG20030730101509307/30/03 10:15:31  5-MIN KMKG 301515Z 20011KT 10SM CLR 25/17 A3007 490 61 1800 210/11 RMK AO2
14840KMKG MKG20030730102009307/30/03 10:20:31  5-MIN KMKG 301520Z 21012KT 10SM CLR 25/17 A3007 490 61 1800 220/12 RMK AO2
14840KMKG MKG20030730102509307/30/03 10:25:31  5-MIN KMKG 301525Z 19012KT 10SM CLR 25/17 A3007 490 61 1800 200/12 RMK AO2
14840KMKG MKG20030730103009307/30/03 10:30:31  5-MIN KMKG 301530Z 21014KT 10SM CLR 25/17 A3007 490 59 1800 210/14 RMK AO2
14840KMKG MKG20030730103509307/30/03 10:35:31  5-MIN KMKG 301535Z 20013KT 10SM CLR 25/17 A3007 490 59 1800 210/13 RMK AO2
14840KMKG MKG20030730104009307/30/03 10:40:31  5-MIN KMKG 301540Z 21013KT 10SM CLR 25/17 A3008 490 59 1800 220/13 RMK AO2
14840KMKG MKG20030730104509307/30/03 10:45:31  5-MIN KMKG 301545Z 21012KT 10SM CLR 25/17 A3007 490 59 1800 210/12 RMK AO2
14840KMKG MKG20030730105011307/30/03 10:50:31  5-MIN KMKG 301550Z 20012KT 10SM FEW045 25/17 A3007 490 59 1800 200/12 RMK AO2 SLP182 T02500167
14840KMKG MKG20030730105511307/30/03 10:55:31  5-MIN KMKG 301555Z 19012KT 10SM FEW045 25/17 A3007 490 59 1800 190/12 RMK AO2 SLP182 T02500167
14840KMKG MKG20030730110009307/30/03 11:00:31  5-MIN KMKG 301600Z 19011KT 10SM CLR 26/17 A3008 490 57 1900 200/11 RMK AO2
14840KMKG MKG20030730110509307/30/03 11:05:31  5-MIN KMKG 301605Z 20011KT 10SM CLR 25/16 A3008 490 57 1800 200/11 RMK AO2
14840KMKG MKG20030730111009307/30/03 11:10:31  5-MIN KMKG 301610Z 21011KT 10SM CLR 26/17 A3008 480 57 1900 220/11 RMK AO2
14840KMKG MKG20030730111509307/30/03 11:15:31  5-MIN KMKG 301615Z 22012KT 10SM CLR 26/16 A3008 480 53 1900 220/12 RMK AO2
14840KMKG MKG20030730112009307/30/03 11:20:31  5-MIN KMKG 301620Z 22012KT 10SM CLR 26/16 A3008 480 53 1900 220/12 RMK AO2
14840KMKG MKG20030730112509307/30/03 11:25:31  5-MIN KMKG 301625Z 21014KT 10SM CLR 26/16 A3008 480 55 1900 210/14 RMK AO2
14840KMKG MKG20030730113009307/30/03 11:30:31  5-MIN KMKG 301630Z 22012KT 10SM CLR 26/16 A3008 480 53 1900 220/12 RMK AO2
14840KMKG MKG20030730113509307/30/03 11:35:31  5-MIN KMKG 301635Z 21011KT 10SM CLR 26/16 A3008 490 53 1900 210/11 RMK AO2
14840KMKG MKG20030730114009307/30/03 11:40:31  5-MIN KMKG 301640Z 21012KT 10SM CLR 26/16 A3007 490 53 1900 210/12 RMK AO2
14840KMKG MKG20030730114510207/30/03 11:45:31  5-MIN KMKG 301645Z 21010G17KT 10SM FEW045 26/16 A3007 490 53 1900 210/10G17 RMK AO2
14840KMKG MKG20030730115011307/30/03 11:50:31  5-MIN KMKG 301650Z 19012KT 10SM FEW045 26/16 A3007 490 53 1900 200/12 RMK AO2 SLP180 T02610161
14840KMKG MKG20030730115511307/30/03 11:55:31  5-MIN KMKG 301655Z 22013KT 10SM FEW045 27/16 A3007 490 52 2000 220/13 RMK AO2 SLP179 T02670161
14840KMKG MKG20030730120009307/30/03 12:00:31  5-MIN KMKG 301700Z 21013KT 10SM CLR 26/16 A3007 490 53 1900 210/13 RMK AO2
14840KMKG MKG20030730120509307/30/03 12:05:31  5-MIN KMKG 301705Z 20012KT 10SM CLR 26/17 A3007 490 55 1900 210/12 RMK AO2
14840KMKG MKG20030730121009307/30/03 12:10:31  5-MIN KMKG 301710Z 20012KT 10SM CLR 26/16 A3007 490 55 1900 200/12 RMK AO2
14840KMKG MKG20030730121509307/30/03 12:15:31  5-MIN KMKG 301715Z 22012KT 10SM CLR 26/17 A3007 490 57 1900 220/12 RMK AO2
14840KMKG MKG20030730122009307/30/03 12:20:31  5-MIN KMKG 301720Z 20009KT 10SM CLR 26/17 A3007 490 57 1900 200/09 RMK AO2
14840KMKG MKG20030730122509307/30/03 12:25:31  5-MIN KMKG 301725Z 20010KT 10SM CLR 26/17 A3007 490 57 1900 200/10 RMK AO2
14840KMKG MKG20030730123009307/30/03 12:30:31  5-MIN KMKG 301730Z 19011KT 10SM CLR 26/17 A3007 490 57 1900 200/11 RMK AO2
14840KMKG MKG20030730123509307/30/03 12:35:31  5-MIN KMKG 301735Z 21012KT 10SM CLR 26/17 A3007 490 59 1900 220/12 RMK AO2
14840KMKG MKG20030730124009607/30/03 12:40:31  5-MIN KMKG 301740Z 22011KT 10SM FEW045 26/17 A3007 500 57 1900 220/11 RMK AO2
14840KMKG MKG20030730124509607/30/03 12:45:31  5-MIN KMKG 301745Z 20011KT 10SM FEW045 26/17 A3007 500 57 1900 200/11 RMK AO2
14840KMKG MKG20030730125013107/30/03 12:50:31  5-MIN KMKG 301750Z 22012KT 10SM FEW045 26/17 A3007 500 57 1900 230/12 RMK AO2 SLP179 T02610172 10267 20161 55001
14840KMKG MKG20030730125513107/30/03 12:55:31  5-MIN KMKG 301755Z 21012KT 10SM FEW045 27/17 A3007 500 55 2000 210/12 RMK AO2 SLP179 T02670172 10267 20161 50000
14840KMKG MKG20030730130009307/30/03 13:00:31  5-MIN KMKG 301800Z 22012KT 10SM CLR 26/17 A3007 490 57 1900 220/12 RMK AO2
14840KMKG MKG20030730130509307/30/03 13:05:31  5-MIN KMKG 301805Z 21009KT 10SM CLR 27/17 A3007 500 55 2000 210/09 RMK AO2
14840KMKG MKG20030730131009307/30/03 13:10:31  5-MIN KMKG 301810Z 20012KT 10SM CLR 26/17 A3007 500 59 1900 200/12 RMK AO2
14840KMKG MKG20030730131509307/30/03 13:15:31  5-MIN KMKG 301815Z 21009KT 10SM CLR 26/17 A3007 500 57 1900 220/09 RMK AO2
14840KMKG MKG20030730132009307/30/03 13:20:31  5-MIN KMKG 301820Z 21011KT 10SM CLR 26/17 A3007 500 57 1900 220/11 RMK AO2
14840KMKG MKG20030730132509307/30/03 13:25:31  5-MIN KMKG 301825Z 22011KT 10SM CLR 26/17 A3006 500 59 1900 220/11 RMK AO2
14840KMKG MKG20030730133009307/30/03 13:30:31  5-MIN KMKG 301830Z 20012KT 10SM CLR 26/17 A3006 500 59 1900 210/12 RMK AO2
14840KMKG MKG20030730133509307/30/03 13:35:31  5-MIN KMKG 301835Z 23011KT 10SM CLR 26/17 A3006 500 59 1900 240/11 RMK AO2
14840KMKG MKG20030730134009607/30/03 13:40:31  5-MIN KMKG 301840Z 23011KT 10SM FEW045 26/17 A3006 500 59 1900 230/11 RMK AO2
14840KMKG MKG20030730134509607/30/03 13:45:31  5-MIN KMKG 301845Z 23011KT 10SM FEW045 26/17 A3007 500 59 1900 230/11 RMK AO2
14840KMKG MKG20030730135011307/30/03 13:50:31  5-MIN KMKG 301850Z 22009KT 10SM FEW045 25/17 A3007 500 61 1800 230/09 RMK AO2 SLP179 T02500172
14840KMKG MKG20030730135511307/30/03 13:55:31  5-MIN KMKG 301855Z 22009KT 10SM FEW045 26/18 A3007 500 61 1900 220/09 RMK AO2 SLP179 T02560178
14840KMKG MKG20030730140009307/30/03 14:00:31  5-MIN KMKG 301900Z 20009KT 10SM CLR 26/18 A3006 500 59 1900 200/09 RMK AO2
14840KMKG MKG20030730140509307/30/03 14:05:31  5-MIN KMKG 301905Z 20007KT 10SM CLR 26/17 A3006 500 57 1900 200/07 RMK AO2
14840KMKG MKG20030730141009307/30/03 14:10:31  5-MIN KMKG 301910Z 19010KT 10SM CLR 26/17 A3006 500 57 1900 200/10 RMK AO2
14840KMKG MKG20030730141509307/30/03 14:15:31  5-MIN KMKG 301915Z 21010KT 10SM CLR 26/17 A3006 500 57 1900 220/10 RMK AO2
14840KMKG MKG20030730142009307/30/03 14:20:31  5-MIN KMKG 301920Z 21010KT 10SM CLR 26/17 A3006 500 57 1900 210/10 RMK AO2
14840KMKG MKG20030730142509307/30/03 14:25:31  5-MIN KMKG 301925Z 21010KT 10SM CLR 27/17 A3006 500 53 2000 210/10 RMK AO2
14840KMKG MKG20030730143009307/30/03 14:30:31  5-MIN KMKG 301930Z 20010KT 10SM CLR 27/17 A3006 500 53 2000 210/10 RMK AO2
14840KMKG MKG20030730143509307/30/03 14:35:31  5-MIN KMKG 301935Z 19009KT 10SM CLR 27/17 A3006 500 52 2100 190/09 RMK AO2
14840KMKG MKG20030730144009307/30/03 14:40:31  5-MIN KMKG 301940Z 19009KT 10SM CLR 27/16 A3006 510 52 2000 200/09 RMK AO2
14840KMKG MKG20030730144509607/30/03 14:45:31  5-MIN KMKG 301945Z 18012KT 10SM FEW045 27/16 A3005 510 52 2000 190/12 RMK AO2
14840KMKG MKG20030730145011307/30/03 14:50:31  5-MIN KMKG 301950Z 19012KT 10SM FEW045 27/16 A3005 510 50 2100 200/12 RMK AO2 SLP174 T02720161
14840KMKG MKG20030730145511307/30/03 14:55:31  5-MIN KMKG 301955Z 21013KT 10SM FEW045 27/16 A3005 510 52 2000 220/13 RMK AO2 SLP173 T02670161
14840KMKG MKG20030730150009307/30/03 15:00:31  5-MIN KMKG 302000Z 21011KT 10SM CLR 27/16 A3004 520 52 2000 220/11 RMK AO2
14840KMKG MKG20030730150509307/30/03 15:05:31  5-MIN KMKG 302005Z 22011KT 10SM CLR 27/16 A3004 520 52 2000 220/11 RMK AO2
14840KMKG MKG20030730151009307/30/03 15:10:31  5-MIN KMKG 302010Z 21012KT 10SM CLR 27/16 A3004 520 52 2000 220/12 RMK AO2
14840KMKG MKG20030730151509307/30/03 15:15:31  5-MIN KMKG 302015Z 22011KT 10SM CLR 27/16 A3004 520 50 2000 230/11 RMK AO2
14840KMKG MKG20030730152009307/30/03 15:20:31  5-MIN KMKG 302020Z 21010KT 10SM CLR 26/16 A3004 520 51 2000 210/10 RMK AO2
14840KMKG MKG20030730152509307/30/03 15:25:31  5-MIN KMKG 302025Z 22012KT 10SM CLR 27/16 A3004 520 52 2000 230/12 RMK AO2
14840KMKG MKG20030730153009307/30/03 15:30:31  5-MIN KMKG 302030Z 21010KT 10SM CLR 27/16 A3004 520 50 2000 210/10 RMK AO2
14840KMKG MKG20030730153509307/30/03 15:35:31  5-MIN KMKG 302035Z 22011KT 10SM CLR 27/16 A3004 520 50 2000 220/11 RMK AO2
14840KMKG MKG20030730154009307/30/03 15:40:31  5-MIN KMKG 302040Z 23014KT 10SM CLR 27/16 A3004 520 50 2000 230/14 RMK AO2
14840KMKG MKG20030730154509607/30/03 15:45:31  5-MIN KMKG 302045Z 23013KT 10SM FEW050 26/16 A3004 520 51 2000 230/13 RMK AO2
14840KMKG MKG20030730155011907/30/03 15:50:31  5-MIN KMKG 302050Z 23011KT 10SM FEW050 27/16 A3003 530 50 2000 230/11 RMK AO2 SLP168 T02670156 50000
14840KMKG MKG20030730155511907/30/03 15:55:31  5-MIN KMKG 302055Z 23012KT 10SM FEW050 27/16 A3003 530 50 2000 240/12 RMK AO2 SLP167 T02670156 58012
14840KMKG MKG20030730160009307/30/03 16:00:31  5-MIN KMKG 302100Z 22014KT 10SM CLR 26/16 A3003 530 51 2000 220/14 RMK AO2
14840KMKG MKG20030730160509307/30/03 16:05:31  5-MIN KMKG 302105Z 23012KT 10SM CLR 27/16 A3003 530 50 2000 230/12 RMK AO2
14840KMKG MKG20030730161009307/30/03 16:10:31  5-MIN KMKG 302110Z 22012KT 10SM CLR 27/16 A3003 530 50 2000 220/12 RMK AO2
14840KMKG MKG20030730161509307/30/03 16:15:31  5-MIN KMKG 302115Z 22012KT 10SM CLR 26/16 A3003 530 51 2000 230/12 RMK AO2
14840KMKG MKG20030730162009307/30/03 16:20:31  5-MIN KMKG 302120Z 22011KT 10SM CLR 26/16 A3003 530 51 2000 220/11 RMK AO2
14840KMKG MKG20030730162509307/30/03 16:25:31  5-MIN KMKG 302125Z 22010KT 10SM CLR 26/16 A3003 530 53 1900 220/10 RMK AO2
14840KMKG MKG20030730163009307/30/03 16:30:31  5-MIN KMKG 302130Z 21009KT 10SM CLR 26/16 A3003 530 53 2000 210/09 RMK AO2
14840KMKG MKG20030730163509307/30/03 16:35:31  5-MIN KMKG 302135Z 20010KT 10SM CLR 26/16 A3003 530 53 1900 200/10 RMK AO2
14840KMKG MKG20030730164009607/30/03 16:40:31  5-MIN KMKG 302140Z 22010KT 10SM FEW050 26/16 A3003 530 53 1900 220/10 RMK AO2
14840KMKG MKG20030730164509607/30/03 16:45:31  5-MIN KMKG 302145Z 21009KT 10SM FEW050 26/16 A3003 530 55 1900 210/09 RMK AO2
14840KMKG MKG20030730165011307/30/03 16:50:31  5-MIN KMKG 302150Z 20008KT 10SM FEW050 26/16 A3003 530 55 1900 210/08 RMK AO2 SLP167 T02560161
14840KMKG MKG20030730165511307/30/03 16:55:31  5-MIN KMKG 302155Z 20009KT 10SM FEW050 26/16 A3003 530 55 1900 200/09 RMK AO2 SLP166 T02560161
14840KMKG MKG20030730170009307/30/03 17:00:31  5-MIN KMKG 302200Z 21009KT 10SM CLR 26/16 A3003 530 55 1900 210/09 RMK AO2
14840KMKG MKG20030730170509307/30/03 17:05:31  5-MIN KMKG 302205Z 23009KT 10SM CLR 26/16 A3002 540 55 1900 230/09 RMK AO2
14840KMKG MKG20030730171009307/30/03 17:10:31  5-MIN KMKG 302210Z 21009KT 10SM CLR 26/16 A3002 540 55 1900 210/09 RMK AO2
14840KMKG MKG20030730171509307/30/03 17:15:31  5-MIN KMKG 302215Z 22009KT 10SM CLR 26/16 A3002 540 55 1900 220/09 RMK AO2
14840KMKG MKG20030730172009307/30/03 17:20:31  5-MIN KMKG 302220Z 21010KT 10SM CLR 26/16 A3002 530 55 1900 210/10 RMK AO2
14840KMKG MKG20030730172509307/30/03 17:25:31  5-MIN KMKG 302225Z 20009KT 10SM CLR 26/16 A3003 530 53 1900 210/09 RMK AO2
14840KMKG MKG20030730173009307/30/03 17:30:31  5-MIN KMKG 302230Z 20010KT 10SM CLR 25/16 A3002 540 55 1900 200/10 RMK AO2
14840KMKG MKG20030730173509307/30/03 17:35:31  5-MIN KMKG 302235Z 22009KT 10SM CLR 25/16 A3002 530 55 1900 220/09 RMK AO2
14840KMKG MKG20030730174009307/30/03 17:40:31  5-MIN KMKG 302240Z 20007KT 10SM CLR 25/16 A3002 540 57 1900 200/07 RMK AO2
14840KMKG MKG20030730174509307/30/03 17:45:31  5-MIN KMKG 302245Z 21008KT 10SM CLR 25/16 A3002 540 57 1900 210/08 RMK AO2
14840KMKG MKG20030730175011007/30/03 17:50:31  5-MIN KMKG 302250Z 21008KT 10SM CLR 25/16 A3002 530 57 1900 210/08 RMK AO2 SLP165 T02500161
14840KMKG MKG20030730175511007/30/03 17:55:31  5-MIN KMKG 302255Z 19008KT 10SM CLR 24/16 A3002 540 59 1800 200/08 RMK AO2 SLP164 T02440161
14840KMKG MKG20030730180009307/30/03 18:00:31  5-MIN KMKG 302300Z 19007KT 10SM CLR 24/17 A3002 540 61 1800 190/07 RMK AO2
14840KMKG MKG20030730180509307/30/03 18:05:31  5-MIN KMKG 302305Z 20007KT 10SM CLR 24/16 A3002 530 59 1800 210/07 RMK AO2
14840KMKG MKG20030730181009307/30/03 18:10:31  5-MIN KMKG 302310Z 21008KT 10SM CLR 24/17 A3002 530 61 1800 210/08 RMK AO2
14840KMKG MKG20030730181509307/30/03 18:15:31  5-MIN KMKG 302315Z 22007KT 10SM CLR 24/16 A3002 530 59 1800 230/07 RMK AO2
14840KMKG MKG20030730182009307/30/03 18:20:31  5-MIN KMKG 302320Z 22006KT 10SM CLR 25/17 A3002 540 59 1900 220/06 RMK AO2
14840KMKG MKG20030730182509307/30/03 18:25:31  5-MIN KMKG 302325Z 21007KT 10SM CLR 25/17 A3002 540 59 1900 220/07 RMK AO2
14840KMKG MKG20030730183009307/30/03 18:30:31  5-MIN KMKG 302330Z 21008KT 10SM CLR 25/17 A3002 540 59 1900 220/08 RMK AO2
14840KMKG MKG20030730183509307/30/03 18:35:31  5-MIN KMKG 302335Z 20009KT 10SM CLR 25/16 A3002 540 57 1900 200/09 RMK AO2
14840KMKG MKG20030730184009307/30/03 18:40:31  5-MIN KMKG 302340Z 20009KT 10SM CLR 24/16 A3002 540 59 1800 200/09 RMK AO2
14840KMKG MKG20030730184509307/30/03 18:45:31  5-MIN KMKG 302345Z 21006KT 10SM CLR 24/16 A3002 540 59 1800 210/06 RMK AO2
14840KMKG MKG20030730185012807/30/03 18:50:31  5-MIN KMKG 302350Z 21006KT 10SM CLR 24/16 A3002 540 59 1800 210/06 RMK AO2 SLP164 T02440161 10272 20244 58012
14840KMKG MKG20030730185512807/30/03 18:55:31  5-MIN KMKG 302355Z 20005KT 10SM CLR 24/16 A3002 540 61 1700 210/05 RMK AO2 SLP164 T02390161 10272 20239 56004
14840KMKG MKG20030730190009307/30/03 19:00:31  5-MIN KMKG 310000Z 19005KT 10SM CLR 24/16 A3002 540 61 1700 200/05 RMK AO2
14840KMKG MKG20030730190509307/30/03 19:05:31  5-MIN KMKG 310005Z 19006KT 10SM CLR 24/16 A3002 540 61 1700 190/06 RMK AO2
14840KMKG MKG20030730191009307/30/03 19:10:31  5-MIN KMKG 310010Z 19006KT 10SM CLR 24/17 A3002 540 63 1700 200/06 RMK AO2
14840KMKG MKG20030730191509307/30/03 19:15:31  5-MIN KMKG 310015Z 19005KT 10SM CLR 24/17 A3002 540 63 1700 190/05 RMK AO2
14840KMKG MKG20030730192009307/30/03 19:20:31  5-MIN KMKG 310020Z 19004KT 10SM CLR 24/17 A3002 530 63 1700 200/04 RMK AO2
14840KMKG MKG20030730192509307/30/03 19:25:31  5-MIN KMKG 310025Z 20004KT 10SM CLR 23/17 A3002 530 66 1700 200/04 RMK AO2
14840KMKG MKG20030730193009307/30/03 19:30:31  5-MIN KMKG 310030Z 19004KT 10SM CLR 23/17 A3002 530 66 1700 190/04 RMK AO2
14840KMKG MKG20030730193509307/30/03 19:35:31  5-MIN KMKG 310035Z 19004KT 10SM CLR 23/17 A3002 530 66 1700 190/04 RMK AO2
14840KMKG MKG20030730194009307/30/03 19:40:31  5-MIN KMKG 310040Z 17004KT 10SM CLR 23/17 A3002 540 68 1600 180/04 RMK AO2
14840KMKG MKG20030730194509307/30/03 19:45:31  5-MIN KMKG 310045Z 17005KT 10SM CLR 23/17 A3002 540 68 1600 180/05 RMK AO2
14840KMKG MKG20030730195011007/30/03 19:50:31  5-MIN KMKG 310050Z 17004KT 10SM CLR 23/17 A3002 540 68 1600 170/04 RMK AO2 SLP164 T02280167
14840KMKG MKG20030730195511007/30/03 19:55:31  5-MIN KMKG 310055Z 16005KT 10SM CLR 23/17 A3002 540 68 1600 170/05 RMK AO2 SLP162 T02280167
14840KMKG MKG20030730200009307/30/03 20:00:31  5-MIN KMKG 310100Z 15003KT 10SM CLR 23/17 A3002 540 68 1600 160/03 RMK AO2
14840KMKG MKG20030730200509307/30/03 20:05:31  5-MIN KMKG 310105Z 16003KT 10SM CLR 22/17 A3002 540 70 1500 170/03 RMK AO2
14840KMKG MKG20030730201009307/30/03 20:10:31  5-MIN KMKG 310110Z 16003KT 10SM CLR 22/17 A3002 540 70 1500 160/03 RMK AO2
14840KMKG MKG20030730201509307/30/03 20:15:31  5-MIN KMKG 310115Z 16003KT 10SM CLR 22/17 A3002 540 70 1500 160/03 RMK AO2
14840KMKG MKG20030730202009307/30/03 20:20:31  5-MIN KMKG 310120Z 16004KT 10SM CLR 22/17 A3002 540 73 1500 160/04 RMK AO2
14840KMKG MKG20030730202509307/30/03 20:25:31  5-MIN KMKG 310125Z 15006KT 10SM CLR 22/17 A3002 540 73 1500 150/06 RMK AO2
14840KMKG MKG20030730203009307/30/03 20:30:31  5-MIN KMKG 310130Z 15005KT 10SM CLR 22/17 A3002 540 73 1500 160/05 RMK AO2
14840KMKG MKG20030730203509307/30/03 20:35:31  5-MIN KMKG 310135Z 15005KT 10SM CLR 22/17 A3002 540 73 1500 160/05 RMK AO2
14840KMKG MKG20030730204009307/30/03 20:40:31  5-MIN KMKG 310140Z 15005KT 10SM CLR 22/17 A3002 540 73 1500 160/05 RMK AO2
14840KMKG MKG20030730204509307/30/03 20:45:31  5-MIN KMKG 310145Z 16005KT 10SM CLR 22/17 A3002 540 73 1500 160/05 RMK AO2
14840KMKG MKG20030730205011007/30/03 20:50:31  5-MIN KMKG 310150Z 16004KT 10SM CLR 22/17 A3002 540 73 1500 160/04 RMK AO2 SLP161 T02170167
14840KMKG MKG20030730205511007/30/03 20:55:31  5-MIN KMKG 310155Z 00000KT 10SM CLR 22/17 A3002 540 73 1500 000/00 RMK AO2 SLP161 T02170167
14840KMKG MKG20030730210009307/30/03 21:00:31  5-MIN KMKG 310200Z 00000KT 10SM CLR 21/17 A3002 540 75 1400 000/00 RMK AO2
14840KMKG MKG20030730210509307/30/03 21:05:31  5-MIN KMKG 310205Z 00000KT 10SM CLR 21/17 A3002 540 75 1400 000/00 RMK AO2
14840KMKG MKG20030730211009307/30/03 21:10:31  5-MIN KMKG 310210Z 15003KT 10SM CLR 21/17 A3002 540 75 1400 150/03 RMK AO2
14840KMKG MKG20030730211509307/30/03 21:15:31  5-MIN KMKG 310215Z 14004KT 10SM CLR 21/17 A3002 540 75 1400 140/04 RMK AO2
14840KMKG MKG20030730212009307/30/03 21:20:31  5-MIN KMKG 310220Z 13004KT 10SM CLR 20/16 A3002 540 78 1300 140/04 RMK AO2
14840KMKG MKG20030730212509207/30/03 21:25:31  5-MIN KMKG 310225Z 14004KT 9SM CLR 19/16 A3002 530 81 1200 140/04 RMK AO2
14840KMKG MKG20030730213009207/30/03 21:30:31  5-MIN KMKG 310230Z 14004KT 9SM CLR 19/16 A3002 530 84 1200 150/04 RMK AO2
14840KMKG MKG20030730213509207/30/03 21:35:31  5-MIN KMKG 310235Z 13006KT 9SM CLR 19/16 A3002 530 81 1200 140/06 RMK AO2
14840KMKG MKG20030730214009207/30/03 21:40:31  5-MIN KMKG 310240Z 14005KT 9SM CLR 21/17 A3002 530 78 1300 140/05 RMK AO2
14840KMKG MKG20030730214509307/30/03 21:45:31  5-MIN KMKG 310245Z 13004KT 10SM CLR 20/17 A3003 530 81 1300 140/04 RMK AO2
14840KMKG MKG20030730215011607/30/03 21:50:31  5-MIN KMKG 310250Z 14004KT 10SM CLR 20/17 A3003 530 81 1300 140/04 RMK AO2 SLP165 T02000167 56004
14840KMKG MKG20030730215511607/30/03 21:55:31  5-MIN KMKG 310255Z 14005KT 10SM CLR 20/16 A3003 530 78 1300 150/05 RMK AO2 SLP165 T02000161 53003
14840KMKG MKG20030730220009207/30/03 22:00:31  5-MIN KMKG 310300Z 16003KT 9SM CLR 19/16 A3003 530 81 1200 170/03 RMK AO2
14840KMKG MKG20030730220509207/30/03 22:05:31  5-MIN KMKG 310305Z 00000KT 9SM CLR 19/17 A3003 530 84 1200 000/00 RMK AO2
14840KMKG MKG20030730221009207/30/03 22:10:31  5-MIN KMKG 310310Z 17003KT 9SM CLR 20/17 A3003 530 81 1300 170/03 RMK AO2
14840KMKG MKG20030730221509207/30/03 22:15:31  5-MIN KMKG 310315Z 00000KT 9SM CLR 19/17 A3003 530 84 1200 000/00 RMK AO2
14840KMKG MKG20030730222009207/30/03 22:20:31  5-MIN KMKG 310320Z 00000KT 9SM CLR 19/17 A3003 530 84 1200 000/00 RMK AO2
14840KMKG MKG20030730222509207/30/03 22:25:31  5-MIN KMKG 310325Z 00000KT 9SM CLR 19/17 A3003 530 84 1200 000/00 RMK AO2
14840KMKG MKG20030730223009207/30/03 22:30:31  5-MIN KMKG 310330Z 00000KT 9SM CLR 19/17 A3003 530 84 1200 000/00 RMK AO2
14840KMKG MKG20030730223509207/30/03 22:35:31  5-MIN KMKG 310335Z 00000KT 9SM CLR 19/17 A3003 530 84 1200 000/00 RMK AO2
14840KMKG MKG20030730224009207/30/03 22:40:31  5-MIN KMKG 310340Z 10003KT 9SM CLR 19/16 A3003 530 81 1200 110/03 RMK AO2
14840KMKG MKG20030730224509207/30/03 22:45:31  5-MIN KMKG 310345Z 11003KT 9SM CLR 19/17 A3003 530 84 1200 120/03 RMK AO2
14840KMKG MKG20030730225010907/30/03 22:50:31  5-MIN KMKG 310350Z 11004KT 9SM CLR 19/17 A3003 520 84 1200 120/04 RMK AO2 SLP167 T01940167
14840KMKG MKG20030730225510907/30/03 22:55:31  5-MIN KMKG 310355Z 12004KT 8SM CLR 19/16 A3004 520 84 1100 130/04 RMK AO2 SLP168 T01890161
14840KMKG MKG20030730230009207/30/03 23:00:31  5-MIN KMKG 310400Z 14004KT 8SM CLR 18/16 A3003 520 87 1100 140/04 RMK AO2
14840KMKG MKG20030730230509207/30/03 23:05:31  5-MIN KMKG 310405Z 13005KT 7SM CLR 18/17 A3003 530 93 1000 140/05 RMK AO2
14840KMKG MKG20030730231009207/30/03 23:10:31  5-MIN KMKG 310410Z 13006KT 8SM CLR 18/17 A3003 530 90 1100 130/06 RMK AO2
14840KMKG MKG20030730231509207/30/03 23:15:31  5-MIN KMKG 310415Z 13007KT 8SM CLR 18/15 A3003 530 81 1100 130/07 RMK AO2
14840KMKG MKG20030730232009207/30/03 23:20:31  5-MIN KMKG 310420Z 13007KT 7SM CLR 18/16 A3003 530 87 1100 140/07 RMK AO2
14840KMKG MKG20030730232509207/30/03 23:25:31  5-MIN KMKG 310425Z 14007KT 8SM CLR 19/16 A3003 530 84 1100 140/07 RMK AO2
14840KMKG MKG20030730233009207/30/03 23:30:31  5-MIN KMKG 310430Z 16006KT 8SM CLR 19/16 A3003 530 84 1100 160/06 RMK AO2
14840KMKG MKG20030730233509207/30/03 23:35:31  5-MIN KMKG 310435Z 16007KT 8SM CLR 20/17 A3003 530 81 1300 160/07 RMK AO2
14840KMKG MKG20030730234009207/30/03 23:40:31  5-MIN KMKG 310440Z 15007KT 8SM CLR 20/17 A3002 540 81 1300 150/07 RMK AO2
14840KMKG MKG20030730234509207/30/03 23:45:31  5-MIN KMKG 310445Z 15007KT 8SM CLR 20/17 A3002 540 81 1300 150/07 RMK AO2
14840KMKG MKG20030730235011907/30/03 23:50:31  5-MIN KMKG 310450Z 15007KT 8SM CLR 19/17 A3002 540 84 1200 150/07 RMK AO2 SLP162 T01940167 402720133
14840KMKG MKG20030730235511907/30/03 23:55:31  5-MIN KMKG 310455Z 14008KT 8SM CLR 19/17 A3002 540 84 1200 150/08 RMK AO2 SLP162 T01940167 402720133
14840KMKG MKG20030731000009207/31/03 00:00:32  5-MIN KMKG 310500Z 15007KT 8SM CLR 19/17 A3002 540 84 1200 150/07 RMK AO2
14840KMKG MKG20030731000509207/31/03 00:05:31  5-MIN KMKG 310505Z 16008KT 8SM CLR 20/17 A3002 540 81 1300 160/08 RMK AO2
14840KMKG MKG20030731001009207/31/03 00:10:31  5-MIN KMKG 310510Z 16008KT 8SM CLR 20/17 A3002 540 81 1300 160/08 RMK AO2
14840KMKG MKG20030731001509207/31/03 00:15:31  5-MIN KMKG 310515Z 16006KT 8SM CLR 20/17 A3002 540 81 1300 170/06 RMK AO2
14840KMKG MKG20030731002009207/31/03 00:20:31  5-MIN KMKG 310520Z 17006KT 8SM CLR 19/17 A3002 540 84 1200 170/06 RMK AO2
14840KMKG MKG20030731002509207/31/03 00:25:31  5-MIN KMKG 310525Z 17006KT 8SM CLR 19/17 A3002 540 84 1200 170/06 RMK AO2
14840KMKG MKG20030731003009207/31/03 00:30:31  5-MIN KMKG 310530Z 16005KT 8SM CLR 19/17 A3002 540 84 1200 160/05 RMK AO2
14840KMKG MKG20030731003509207/31/03 00:35:31  5-MIN KMKG 310535Z 15005KT 8SM CLR 19/17 A3002 540 84 1200 160/05 RMK AO2
14840KMKG MKG20030731004009207/31/03 00:40:31  5-MIN KMKG 310540Z 15004KT 7SM CLR 19/16 A3002 530 84 1200 150/04 RMK AO2
14840KMKG MKG20030731004509207/31/03 00:45:31  5-MIN KMKG 310545Z 14004KT 7SM CLR 18/16 A3002 530 87 1100 150/04 RMK AO2
14840KMKG MKG20030731005012707/31/03 00:50:31  5-MIN KMKG 310550Z 14005KT 7SM CLR 18/16 A3003 530 87 1100 140/05 RMK AO2 SLP164 T01830161 10239 20178 53003
14840KMKG MKG20030731005512707/31/03 00:55:31  5-MIN KMKG 310555Z 16004KT 7SM CLR 18/16 A3003 530 87 1100 160/04 RMK AO2 SLP164 T01830161 10239 20178 57001
14840KMKG MKG20030731010009207/31/03 01:00:31  5-MIN KMKG 310600Z 16005KT 7SM CLR 19/16 A3003 530 84 1200 170/05 RMK AO2
14840KMKG MKG20030731010509207/31/03 01:05:31  5-MIN KMKG 310605Z 16005KT 8SM CLR 19/17 A3002 530 84 1200 160/05 RMK AO2
14840KMKG MKG20030731011009207/31/03 01:10:31  5-MIN KMKG 310610Z 15005KT 8SM CLR 19/17 A3002 540 84 1200 150/05 RMK AO2
14840KMKG MKG20030731011509207/31/03 01:15:31  5-MIN KMKG 310615Z 16005KT 8SM CLR 19/17 A3002 540 84 1200 160/05 RMK AO2
14840KMKG MKG20030731012009207/31/03 01:20:31  5-MIN KMKG 310620Z 16006KT 8SM CLR 19/17 A3002 530 84 1200 160/06 RMK AO2
14840KMKG MKG20030731012509207/31/03 01:25:31  5-MIN KMKG 310625Z 15006KT 8SM CLR 19/17 A3002 540 84 1200 160/06 RMK AO2
14840KMKG MKG20030731013009207/31/03 01:30:31  5-MIN KMKG 310630Z 15007KT 8SM CLR 19/17 A3002 540 84 1200 160/07 RMK AO2
14840KMKG MKG20030731013509207/31/03 01:35:31  5-MIN KMKG 310635Z 16007KT 8SM CLR 20/17 A3002 540 81 1300 160/07 RMK AO2
14840KMKG MKG20030731014009207/31/03 01:40:31  5-MIN KMKG 310640Z 16006KT 8SM CLR 20/17 A3002 540 81 1300 160/06 RMK AO2
14840KMKG MKG20030731014509207/31/03 01:45:31  5-MIN KMKG 310645Z 15005KT 8SM CLR 20/17 A3002 540 81 1300 160/05 RMK AO2
14840KMKG MKG20030731015010907/31/03 01:50:31  5-MIN KMKG 310650Z 16005KT 8SM CLR 19/17 A3002 540 84 1200 170/05 RMK AO2 SLP162 T01940167
14840KMKG MKG20030731015510907/31/03 01:55:31  5-MIN KMKG 310655Z 17003KT 8SM CLR 19/17 A3002 540 84 1200 180/03 RMK AO2 SLP162 T01940167
14840KMKG MKG20030731020009207/31/03 02:00:31  5-MIN KMKG 310700Z 00000KT 8SM CLR 19/16 A3002 540 81 1200 000/00 RMK AO2
14840KMKG MKG20030731020509207/31/03 02:05:31  5-MIN KMKG 310705Z 00000KT 8SM CLR 19/17 A3002 530 84 1200 000/00 RMK AO2
14840KMKG MKG20030731021009207/31/03 02:10:31  5-MIN KMKG 310710Z 00000KT 7SM CLR 19/16 A3003 530 84 1200 000/00 RMK AO2
14840KMKG MKG20030731021509207/31/03 02:15:31  5-MIN KMKG 310715Z 00000KT 7SM CLR 19/17 A3003 530 87 1200 000/00 RMK AO2
14840KMKG MKG20030731022009507/31/03 02:20:31  5-MIN KMKG 310720Z 00000KT 7SM SCT090 19/17 A3003 530 87 1200 000/00 RMK AO2
14840KMKG MKG20030731022509507/31/03 02:25:31  5-MIN KMKG 310725Z 00000KT 7SM BKN090 19/17 A3003 530 84 1200 000/00 RMK AO2
14840KMKG MKG20030731023009507/31/03 02:30:31  5-MIN KMKG 310730Z 00000KT 7SM BKN090 19/17 A3003 530 84 1200 000/00 RMK AO2
14840KMKG MKG20030731023509507/31/03 02:35:31  5-MIN KMKG 310735Z 00000KT 7SM SCT090 19/17 A3003 530 84 1200 000/00 RMK AO2
14840KMKG MKG20030731024009507/31/03 02:40:31  5-MIN KMKG 310740Z 00000KT 7SM BKN090 19/17 A3003 530 84 1200 000/00 RMK AO2
14840KMKG MKG20030731024509507/31/03 02:45:31  5-MIN KMKG 310745Z 00000KT 7SM BKN090 19/17 A3003 530 84 1200 000/00 RMK AO2
14840KMKG MKG20030731025011907/31/03 02:50:31  5-MIN KMKG 310750Z 00000KT 7SM FEW042 BKN090 19/17 A3003 530 84 1200 000/00 RMK AO2 SLP166 T01940167
14840KMKG MKG20030731025512607/31/03 02:55:31  5-MIN KMKG 310755Z 32007KT 7SM SCT042 SCT060 BKN090 19/17 A3004 520 84 1200 320/07 RMK AO2 SLP169 T01940167
14840KMKG MKG20030731030010907/31/03 03:00:31  5-MIN KMKG 310800Z 29004KT 8SM FEW025 BKN044 BKN090 21/17 A3004 520 81 1300 290/04 RMK AO2
14840KMKG MKG20030731030512307/31/03 03:05:31  5-MIN KMKG 310805Z 31007KT 9SM SCT044 BKN070 OVC095 21/18 A3004 520 81 1400 310/07 RMK AO2 LTG DSNT W-NW
14840KMKG MKG20030731031012407/31/03 03:10:31  5-MIN KMKG 310810Z 32006KT 10SM SCT044 BKN070 OVC095 21/18 A3004 520 81 1400 320/06 RMK AO2 LTG DSNT W-NW
14840KMKG MKG20030731031512407/31/03 03:15:31  5-MIN KMKG 310815Z 32007KT 10SM SCT044 BKN075 OVC095 21/18 A3004 520 81 1400 330/07 RMK AO2 LTG DSNT W-NW
14840KMKG MKG20030731032013907/31/03 03:20:31  5-MIN KMKG 310820Z 31006KT 10SM FEW044 SCT070 BKN095 21/18 A3004 520 81 1400 320/06 RMK AO2 CIG 070 RWY 14 LTG DSNT W-NW
14840KMKG MKG20030731032512407/31/03 03:25:31  5-MIN KMKG 310825Z 32004KT 10SM FEW046 SCT070 BKN095 21/18 A3003 530 81 1400 320/04 RMK AO2 LTG DSNT W-NW
14840KMKG MKG20030731033011707/31/03 03:30:31  5-MIN KMKG 310830Z 32005KT 10SM FEW070 BKN095 21/17 A3003 530 78 1400 330/05 RMK AO2 LTG DSNT W-NW
14840KMKG MKG20030731033511707/31/03 03:35:31  5-MIN KMKG 310835Z 33004KT 10SM FEW070 BKN095 21/17 A3003 530 81 1300 330/04 RMK AO2 LTG DSNT W-NW
14840KMKG MKG20030731034011707/31/03 03:40:31  5-MIN KMKG 310840Z 34004KT 10SM FEW070 BKN095 21/18 A3003 530 81 1400 340/04 RMK AO2 LTG DSNT W-NW
14840KMKG MKG20030731034511707/31/03 03:45:31  5-MIN KMKG 310845Z 33005KT 10SM FEW070 BKN095 21/17 A3004 520 78 1400 330/05 RMK AO2 LTG DSNT W-NW
14840KMKG MKG20030731035017207/31/03 03:50:31  5-MIN KMKG 310850Z 31004KT 10SM TS FEW070 BKN095 21/17 A3004 520 81 1300 320/04 RMK AO2 TSB49 SLP168 OCNL LTGICCCCGCA TSB49 TS W-NW MOV E T02060172 57001
14840KMKG MKG20030731035517307/31/03 03:55:31  5-MIN KMKG 310855Z 33008KT 10SM TS FEW048 SCT065 BKN095 21/17 A3004 520 78 1400 330/08 RMK AO2 SLP168 OCNL LTGICCCCGCA TSB49 TS W-NW MOV E T02110172 53003
14840KMKG MKG20030731040011307/31/03 04:00:31  5-MIN KMKG 310900Z 32006KT 10SM TS FEW048 BKN070 BKN090 21/17 A3004 520 78 1400 320/06 RMK AO2
14840KMKG MKG20030731040511307/31/03 04:05:31  5-MIN KMKG 310905Z 31005KT 10SM TS FEW048 BKN065 BKN090 21/17 A3004 520 78 1400 310/05 RMK AO2
14840KMKG MKG20030731041011307/31/03 04:10:31  5-MIN KMKG 310910Z 31004KT 10SM TS BKN048 BKN070 OVC095 21/17 A3004 520 78 1400 310/04 RMK AO2
14840KMKG MKG20030731041514407/31/03 04:15:31  5-MIN KMKG 310915Z 33004KT 10SM TS BKN048 BKN060 OVC070 21/17 A3004 520 78 1400 330/04 RMK AO2 OCNL LTGCCICCACG TS W-NW MOV E
14840KMKG MKG20030731042013707/31/03 04:20:31  5-MIN KMKG 310920Z 27004KT 10SM TS BKN050 OVC070 21/17 A3004 520 75 1400 280/04 RMK AO2 OCNL LTGCCICCACG TS W-NW MOV E
14840KMKG MKG20030731042513707/31/03 04:25:31  5-MIN KMKG 310925Z 30006KT 10SM TS BKN050 OVC070 21/17 A3004 520 78 1300 300/06 RMK AO2 OCNL LTGCCICCACG TS W-NW MOV E
14840KMKG MKG20030731043014507/31/03 04:30:31  5-MIN KMKG 310930Z 30006KT 10SM -TSRA OVC055 21/17 A3004 520 78 1300 300/06 RMK AO2 RAB29 OCNL LTGCCICCACG TS W-NW MOV E P0000
14840KMKG MKG20030731043515207/31/03 04:35:31  5-MIN KMKG 310935Z 32010KT 10SM -TSRA BKN055 OVC065 21/17 A3003 530 78 1300 320/10 RMK AO2 RAB29 OCNL LTGCCICCACG TS W-NW MOV E P0000
14840KMKG MKG20030731044015907/31/03 04:40:31  5-MIN KMKG 310940Z 31007KT 10SM -TSRA BKN055 BKN070 OVC095 21/17 A3003 530 78 1300 310/07 RMK AO2 RAB29 OCNL LTGCCICCACG TS W-NW MOV E P0000
14840KMKG MKG20030731044515907/31/03 04:45:31  5-MIN KMKG 310945Z 30007KT 10SM -TSRA SCT055 BKN065 OVC090 20/17 A3003 530 81 1300 300/07 RMK AO2 RAB29 OCNL LTGCCICCACG TS W-NW MOV E P0000
14840KMKG MKG20030731045014807/31/03 04:50:31  5-MIN KMKG 310950Z 32006KT 10SM -RA SCT055 SCT065 OVC095 19/17 A3003 530 84 1200 320/06 RMK AO2 TSE50RAB29 SLP165 P0000 T01940167
14840KMKG MKG20030731045514107/31/03 04:55:31  5-MIN KMKG 310955Z 32006KT 10SM -RA FEW060 OVC095 19/17 A3002 530 84 1200 330/06 RMK AO2 TSE50RAB29 SLP164 P0000 T01940167
14840KMKG MKG20030731050011207/31/03 05:00:31  5-MIN KMKG 311000Z 31005KT 9SM -RA FEW060 OVC090 19/17 A3002 540 87 1200 310/05 RMK AO2 P0000
14840KMKG MKG20030731050513307/31/03 05:05:31  5-MIN KMKG 311005Z 32003KT 7SM RA FEW031 BKN090 OVC110 19/17 A3002 540 90 1200 330/03 RMK AO2 CIG 039 RWY 14 P0001
14840KMKG MKG20030731051013707/31/03 05:10:31  5-MIN KMKG 311010Z 00000KT 6SM -RA BR SCT037 BKN090 OVC110 19/17 A3002 540 90 1200 000/00 RMK AO2 CIG 043 RWY 14 P0002
14840KMKG MKG20030731051511507/31/03 05:15:31  5-MIN KMKG 311015Z 24003KT 6SM -RA BR BKN041 OVC090 19/17 A3002 540 90 1200 240/03 RMK AO2 P0002
14840KMKG MKG20030731052012207/31/03 05:20:31  5-MIN KMKG 311020Z 00000KT 6SM -RA BR BKN036 BKN090 OVC110 18/17 A3002 540 93 1100 000/00 RMK AO2 P0003
14840KMKG MKG20030731052513407/31/03 05:25:31  5-MIN KMKG 311025Z 00000KT 7SM -RA SCT034 SCT085 OVC110 18/17 A3001 540 93 1100 000/00 RMK AO2 CIG 041 RWY 14 P0003
14840KMKG MKG20030731053011307/31/03 05:30:31  5-MIN KMKG 311030Z 00000KT 10SM -RA SCT034 OVC110 18/17 A3001 550 93 1100 000/00 RMK AO2 P0003
14840KMKG MKG20030731053511507/31/03 05:35:31  5-MIN KMKG 311035Z 21003KT 10SM FEW041 OVC110 18/17 A3002 540 93 1100 220/03 RMK AO2 RAE33 P0003
14840KMKG MKG20030731054011307/31/03 05:40:31  5-MIN KMKG 311040Z 19003KT 10SM -RA FEW045 OVC110 18/17 A3002 540 93 1100 190/03 RMK AO2 P0003
14840KMKG MKG20030731054511207/31/03 05:45:31  5-MIN KMKG 311045Z 17005KT 9SM -RA SCT050 OVC110 18/18 A3002 540 96 1100 180/05 RMK AO2 P0003
14840KMKG MKG20030731055013207/31/03 05:50:31  5-MIN KMKG 311050Z 15004KT 5SM -RA BR BKN046 OVC110 18/17 A3001 550 93 1100 150/04 RMK AO2 SLP160 P0003 T01830172
14840KMKG MKG20030731055513907/31/03 05:55:31  5-MIN KMKG 311055Z 00000KT 4SM -RA BR BKN042 BKN075 OVC100 18/18 A3001 550 96 1100 000/00 RMK AO2 SLP160 P0004 T01830178
14840KMKG MKG20030731060013907/31/03 06:00:31  5-MIN KMKG 311100Z 05005KT 4SM -RA BR SCT042 SCT075 OVC100 18/18 A3001 540 96 1100 060/05 RMK AO2 VIS 2 1/2 RWY 14 P0000
14840KMKG MKG20030731060511507/31/03 06:05:31  5-MIN KMKG 311105Z 09003KT 5SM -RA BR SCT044 OVC095 18/17 A3002 540 93 1100 090/03 RMK AO2 P0000
14840KMKG MKG20030731061011207/31/03 06:10:31  5-MIN KMKG 311110Z 00000KT 8SM -RA SCT044 OVC095 18/17 A3002 540 93 1100 000/00 RMK AO2 P0000
14840KMKG MKG20030731061511407/31/03 06:15:31  5-MIN KMKG 311115Z 00000KT 8SM FEW036 OVC095 19/17 A3002 540 90 1200 000/00 RMK AO2 RAE12 P0000
14840KMKG MKG20030731062010707/31/03 06:20:31  5-MIN KMKG 311120Z 18006KT 7SM OVC090 18/17 A3002 540 93 1100 190/06 RMK AO2 RAE12 P0000
14840KMKG MKG20030731062510707/31/03 06:25:31  5-MIN KMKG 311125Z 15005KT 7SM OVC090 18/18 A3001 550 96 1100 150/05 RMK AO2 RAE12 P0000
14840KMKG MKG20030731063010707/31/03 06:30:31  5-MIN KMKG 311130Z 11005KT 7SM BKN090 18/18 A3000 550 96 1100 120/05 RMK AO2 RAE12 P0000
14840KMKG MKG20030731063511007/31/03 06:35:31  5-MIN KMKG 311135Z 11004KT 5SM BR BKN090 18/18 A3001 550 96 1100 110/04 RMK AO2 RAE12 P0000
14840KMKG MKG20030731064011707/31/03 06:40:31  5-MIN KMKG 311140Z 13006KT 4SM BR SCT080 SCT100 18/18 A3000 550 96 1100 130/06 RMK AO2 RAE12 P0000
14840KMKG MKG20030731064511707/31/03 06:45:31  5-MIN KMKG 311145Z 13007KT 4SM BR SCT080 SCT100 18/18 A3000 560 96 1100 140/07 RMK AO2 RAE12 P0000
14840KMKG MKG20030731065015707/31/03 06:50:31  5-MIN KMKG 311150Z 13004KT 5SM BR FEW075 18/17 A3000 550 93 1100 130/04 RMK AO2 RAE12 SLP157 P0000 60004 70004 T01830172 10211 20183 53003
14840KMKG MKG20030731065515707/31/03 06:55:31  5-MIN KMKG 311155Z 11006KT 5SM BR FEW070 18/18 A3000 560 96 1100 120/06 RMK AO2 RAE12 SLP157 P0000 60004 70004 T01830178 10211 20183 58012
14840KMKG MKG20030731070009807/31/03 07:00:31  5-MIN KMKG 311200Z 11006KT 5SM BR FEW070 18/18 A3000 560 96 1100 120/06 RMK AO2
14840KMKG MKG20030731070509807/31/03 07:05:31  5-MIN KMKG 311205Z 11006KT 5SM BR FEW070 19/18 A3000 560 93 1200 120/06 RMK AO2
14840KMKG MKG20030731071009507/31/03 07:10:31  5-MIN KMKG 311210Z 11005KT 5SM BR CLR 19/18 A3000 560 97 1200 120/05 RMK AO2
14840KMKG MKG20030731071509507/31/03 07:15:31  5-MIN KMKG 311215Z 12004KT 6SM BR CLR 19/18 A3000 550 93 1200 120/04 RMK AO2
14840KMKG MKG20030731072009207/31/03 07:20:31  5-MIN KMKG 311220Z 13004KT 7SM CLR 19/18 A3001 550 93 1200 130/04 RMK AO2
14840KMKG MKG20030731072509207/31/03 07:25:31  5-MIN KMKG 311225Z 15004KT 7SM CLR 20/18 A3001 550 90 1300 150/04 RMK AO2
14840KMKG MKG20030731073009207/31/03 07:30:31  5-MIN KMKG 311230Z 16004KT 8SM CLR 20/18 A3001 550 87 1300 170/04 RMK AO2
14840KMKG MKG20030731073509207/31/03 07:35:31  5-MIN KMKG 311235Z 14005KT 8SM CLR 20/18 A3001 550 90 1300 150/05 RMK AO2
14840KMKG MKG20030731074009207/31/03 07:40:31  5-MIN KMKG 311240Z 13004KT 8SM CLR 21/18 A3001 550 87 1400 140/04 RMK AO2
14840KMKG MKG20030731074509507/31/03 07:45:31  5-MIN KMKG 311245Z 15004KT 8SM FEW060 21/18 A3000 550 87 1400 160/04 RMK AO2
14840KMKG MKG20030731075011207/31/03 07:50:31  5-MIN KMKG 311250Z 15003KT 8SM FEW060 21/18 A3001 550 87 1400 160/03 RMK AO2 SLP157 T02060183
14840KMKG MKG20030731075511207/31/03 07:55:31  5-MIN KMKG 311255Z VRB03KT 9SM FEW060 21/19 A3001 550 87 1400 VRB/03 RMK AO2 SLP158 T02110189
14840KMKG MKG20030731080009507/31/03 08:00:31  5-MIN KMKG 311300Z 15005KT 9SM FEW060 21/19 A3000 550 87 1400 150/05 RMK AO2
14840KMKG MKG20030731080509607/31/03 08:05:31  5-MIN KMKG 311305Z 16005KT 10SM FEW060 22/19 A3000 550 84 1500 170/05 RMK AO2
14840KMKG MKG20030731081009607/31/03 08:10:31  5-MIN KMKG 311310Z 16005KT 10SM FEW060 22/19 A3000 560 87 1500 160/05 RMK AO2
14840KMKG MKG20030731081509307/31/03 08:15:31  5-MIN KMKG 311315Z 17005KT 10SM CLR 22/19 A3000 550 81 1600 180/05 RMK AO2
14840KMKG MKG20030731082009307/31/03 08:20:31  5-MIN KMKG 311320Z 17006KT 10SM CLR 22/19 A3000 550 81 1600 170/06 RMK AO2
14840KMKG MKG20030731082509307/31/03 08:25:31  5-MIN KMKG 311325Z 17005KT 10SM CLR 23/19 A3001 550 78 1600 180/05 RMK AO2
14840KMKG MKG20030731083009307/31/03 08:30:31  5-MIN KMKG 311330Z 18006KT 10SM CLR 23/19 A3001 550 76 1700 190/06 RMK AO2
14840KMKG MKG20030731083509307/31/03 08:35:31  5-MIN KMKG 311335Z 18007KT 10SM CLR 23/18 A3001 550 73 1700 190/07 RMK AO2
14840KMKG MKG20030731084009307/31/03 08:40:31  5-MIN KMKG 311340Z 19007KT 10SM CLR 23/19 A3001 540 76 1700 190/07 RMK AO2
14840KMKG MKG20030731084509307/31/03 08:45:31  5-MIN KMKG 311345Z 18007KT 10SM CLR 23/18 A3002 540 73 1700 190/07 RMK AO2
14840KMKG MKG20030731085011007/31/03 08:50:31  5-MIN KMKG 311350Z 18006KT 10SM CLR 24/18 A3002 540 71 1700 180/06 RMK AO2 SLP162 T02390183
14840KMKG MKG20030731085511307/31/03 08:55:31  5-MIN KMKG 311355Z 19006KT 10SM SCT049 24/19 A3002 540 73 1700 190/06 RMK AO2 SLP163 T02390189
14840KMKG MKG20030731090009607/31/03 09:00:31  5-MIN KMKG 311400Z 20008KT 10SM BKN049 24/19 A3002 540 73 1700 200/08 RMK AO2
14840KMKG MKG20030731090509607/31/03 09:05:31  5-MIN KMKG 311405Z 20009KT 10SM BKN047 24/18 A3002 530 68 1700 200/09 RMK AO2
14840KMKG MKG20030731091009607/31/03 09:10:31  5-MIN KMKG 311410Z 18009KT 10SM BKN047 23/18 A3002 540 70 1700 190/09 RMK AO2
14840KMKG MKG20030731091509607/31/03 09:15:31  5-MIN KMKG 311415Z 19009KT 10SM BKN049 24/18 A3002 540 68 1700 200/09 RMK AO2
14840KMKG MKG20030731092009607/31/03 09:20:31  5-MIN KMKG 311420Z 19009KT 10SM OVC049 23/18 A3002 540 70 1700 190/09 RMK AO2
14840KMKG MKG20030731092510307/31/03 09:25:31  5-MIN KMKG 311425Z 19008KT 10SM BKN049 OVC070 23/18 A3002 540 70 1700 200/08 RMK AO2
14840KMKG MKG20030731093011007/31/03 09:30:31  5-MIN KMKG 311430Z 19010KT 10SM BKN049 BKN055 BKN070 23/18 A3002 540 70 1700 190/10 RMK AO2
14840KMKG MKG20030731093511007/31/03 09:35:31  5-MIN KMKG 311435Z 19009KT 10SM SCT049 SCT055 BKN070 23/18 A3002 540 73 1700 190/09 RMK AO2
14840KMKG MKG20030731094010307/31/03 09:40:31  5-MIN KMKG 311440Z 19009KT 10SM SCT049 BKN070 23/18 A3002 540 70 1700 200/09 RMK AO2
14840KMKG MKG20030731094510307/31/03 09:45:31  5-MIN KMKG 311445Z 19008KT 10SM FEW049 SCT070 24/18 A3002 540 71 1700 190/08 RMK AO2
14840KMKG MKG20030731095012607/31/03 09:50:31  5-MIN KMKG 311450Z 20009KT 10SM FEW047 SCT070 24/18 A3002 540 71 1700 200/09 RMK AO2 SLP164 T02390183 58012
14840KMKG MKG20030731095512607/31/03 09:55:31  5-MIN KMKG 311455Z 19010KT 10SM FEW047 SCT070 24/18 A3002 530 71 1700 200/10 RMK AO2 SLP164 T02390183 51008
14840KMKG MKG20030731100010307/31/03 10:00:31  5-MIN KMKG 311500Z 20010KT 10SM FEW047 SCT070 24/18 A3003 530 68 1700 200/10 RMK AO2
14840KMKG MKG20030731100510307/31/03 10:05:31  5-MIN KMKG 311505Z 20008KT 10SM FEW047 SCT070 24/18 A3003 530 68 1700 210/08 RMK AO2
14840KMKG MKG20030731101010307/31/03 10:10:31  5-MIN KMKG 311510Z 20010KT 10SM FEW047 SCT075 24/18 A3003 530 68 1700 200/10 RMK AO2
14840KMKG MKG20030731101510307/31/03 10:15:31  5-MIN KMKG 311515Z 20010KT 10SM FEW047 BKN075 24/18 A3003 530 71 1700 200/10 RMK AO2
14840KMKG MKG20030731102010307/31/03 10:20:31  5-MIN KMKG 311520Z 20010KT 10SM FEW047 BKN075 24/18 A3003 530 68 1700 210/10 RMK AO2
14840KMKG MKG20030731102510307/31/03 10:25:31  5-MIN KMKG 311525Z 19009KT 10SM FEW047 BKN075 24/18 A3003 530 68 1800 200/09 RMK AO2
14840KMKG MKG20030731103010307/31/03 10:30:31  5-MIN KMKG 311530Z 19011KT 10SM FEW047 SCT075 25/18 A3002 530 66 1900 190/11 RMK AO2
14840KMKG MKG20030731103509607/31/03 10:35:31  5-MIN KMKG 311535Z 19010KT 10SM SCT080 25/18 A3003 530 66 1900 190/10 RMK AO2
14840KMKG MKG20030731104009607/31/03 10:40:31  5-MIN KMKG 311540Z 19012KT 10SM FEW080 25/18 A3002 530 66 1900 190/12 RMK AO2
14840KMKG MKG20030731104509607/31/03 10:45:31  5-MIN KMKG 311545Z 19010KT 10SM FEW080 26/18 A3002 540 64 1900 190/10 RMK AO2
14840KMKG MKG20030731105011307/31/03 10:50:31  5-MIN KMKG 311550Z 19010KT 10SM FEW075 26/18 A3002 540 64 1900 200/10 RMK AO2 SLP162 T02560183
14840KMKG MKG20030731105511307/31/03 10:55:31  5-MIN KMKG 311555Z 19011KT 10SM FEW075 26/19 A3002 540 66 1900 200/11 RMK AO2 SLP162 T02560189
14840KMKG MKG20030731110010307/31/03 11:00:31  5-MIN KMKG 311600Z 19011KT 10SM SCT075 SCT095 25/18 A3002 540 64 1900 190/11 RMK AO2
14840KMKG MKG20030731110509607/31/03 11:05:31  5-MIN KMKG 311605Z 20011KT 10SM SCT070 24/18 A3002 540 68 1800 200/11 RMK AO2
14840KMKG MKG20030731111009607/31/03 11:10:31  5-MIN KMKG 311610Z 20013KT 10SM SCT075 25/18 A3002 540 66 1900 200/13 RMK AO2
14840KMKG MKG20030731111510307/31/03 11:15:31  5-MIN KMKG 311615Z 20010KT 10SM SCT075 SCT090 25/18 A3002 540 64 1900 200/10 RMK AO2
14840KMKG MKG20030731112010307/31/03 11:20:31  5-MIN KMKG 311620Z 19009KT 10SM FEW070 SCT085 26/19 A3001 540 64 2000 190/09 RMK AO2
14840KMKG MKG20030731112510307/31/03 11:25:31  5-MIN KMKG 311625Z 20009KT 10SM FEW070 SCT085 26/18 A3002 540 64 1900 200/09 RMK AO2
14840KMKG MKG20030731113009607/31/03 11:30:31  5-MIN KMKG 311630Z 19009KT 10SM FEW070 26/18 A3001 540 62 2000 190/09 RMK AO2
14840KMKG MKG20030731113509607/31/03 11:35:31  5-MIN KMKG 311635Z 20008KT 10SM FEW090 26/18 A3002 540 62 2000 200/08 RMK AO2
14840KMKG MKG20030731114009607/31/03 11:40:31  5-MIN KMKG 311640Z 21011KT 10SM FEW090 26/18 A3002 540 62 2000 210/11 RMK AO2
14840KMKG MKG20030731114509307/31/03 11:45:31  5-MIN KMKG 311645Z 21010KT 10SM CLR 26/18 A3002 540 62 2000 210/10 RMK AO2
14840KMKG MKG20030731115011307/31/03 11:50:31  5-MIN KMKG 311650Z 20009KT 10SM FEW090 26/18 A3001 540 62 2000 200/09 RMK AO2 SLP161 T02610183
14840KMKG MKG20030731115511307/31/03 11:55:31  5-MIN KMKG 311655Z 21011KT 10SM FEW090 26/18 A3001 540 62 2000 210/11 RMK AO2 SLP160 T02610183
14840KMKG MKG20030731120009307/31/03 12:00:31  5-MIN KMKG 311700Z 22011KT 10SM CLR 27/19 A3001 540 62 2100 230/11 RMK AO2
14840KMKG MKG20030731120509307/31/03 12:05:31  5-MIN KMKG 311705Z 22010KT 10SM CLR 27/18 A3001 550 60 2100 220/10 RMK AO2
14840KMKG MKG20030731121009307/31/03 12:10:31  5-MIN KMKG 311710Z 20011KT 10SM CLR 27/18 A3001 550 60 2100 200/11 RMK AO2
14840KMKG MKG20030731121509307/31/03 12:15:31  5-MIN KMKG 311715Z 20011KT 10SM CLR 27/18 A3001 550 60 2100 210/11 RMK AO2
14840KMKG MKG20030731122009307/31/03 12:20:31  5-MIN KMKG 311720Z 21011KT 10SM CLR 27/18 A3001 550 57 2100 210/11 RMK AO2
14840KMKG MKG20030731122509307/31/03 12:25:31  5-MIN KMKG 311725Z 21011KT 10SM CLR 26/18 A3001 550 62 2000 210/11 RMK AO2
14840KMKG MKG20030731123009307/31/03 12:30:31  5-MIN KMKG 311730Z 22010KT 10SM CLR 26/18 A3001 550 62 2000 220/10 RMK AO2
14840KMKG MKG20030731123509307/31/03 12:35:31  5-MIN KMKG 311735Z 21010KT 10SM CLR 26/18 A3001 550 62 2000 210/10 RMK AO2
14840KMKG MKG20030731124009307/31/03 12:40:31  5-MIN KMKG 311740Z 21012KT 10SM CLR 26/18 A3001 550 62 2000 210/12 RMK AO2
14840KMKG MKG20030731124509307/31/03 12:45:31  5-MIN KMKG 311745Z 22010KT 10SM CLR 26/18 A3001 550 62 2000 220/10 RMK AO2
14840KMKG MKG20030731125012807/31/03 12:50:31  5-MIN KMKG 311750Z 21011KT 10SM CLR 27/18 A3001 550 60 2100 210/11 RMK AO2 SLP158 T02670183 10267 20183 51008
14840KMKG MKG20030731125512807/31/03 12:55:31  5-MIN KMKG 311755Z 21010KT 10SM CLR 27/18 A3001 550 60 2100 210/10 RMK AO2 SLP158 T02670183 10267 20183 58006
14840KMKG MKG20030731130009307/31/03 13:00:31  5-MIN KMKG 311800Z 21009KT 10SM CLR 27/18 A3001 550 60 2100 210/09 RMK AO2
14840KMKG MKG20030731130509307/31/03 13:05:31  5-MIN KMKG 311805Z 22010KT 10SM CLR 27/18 A3001 550 60 2100 230/10 RMK AO2
14840KMKG MKG20030731131009307/31/03 13:10:31  5-MIN KMKG 311810Z 22010KT 10SM CLR 27/18 A3001 550 60 2100 220/10 RMK AO2
14840KMKG MKG20030731131509607/31/03 13:15:31  5-MIN KMKG 311815Z 21010KT 10SM FEW080 27/18 A3000 550 60 2100 210/10 RMK AO2
14840KMKG MKG20030731132009607/31/03 13:20:31  5-MIN KMKG 311820Z 22010KT 10SM FEW080 27/18 A3000 550 60 2100 230/10 RMK AO2
14840KMKG MKG20030731132509607/31/03 13:25:31  5-MIN KMKG 311825Z 24009KT 10SM FEW080 27/18 A3000 560 60 2100 240/09 RMK AO2
14840KMKG MKG20030731133009607/31/03 13:30:31  5-MIN KMKG 311830Z 20011KT 10SM FEW080 27/19 A3000 560 60 2100 210/11 RMK AO2
14840KMKG MKG20030731133509607/31/03 13:35:31  5-MIN KMKG 311835Z 23009KT 10SM FEW080 27/18 A3000 560 60 2100 230/09 RMK AO2
14840KMKG MKG20030731134009607/31/03 13:40:31  5-MIN KMKG 311840Z 24009KT 10SM FEW080 27/18 A3000 560 60 2100 250/09 RMK AO2
14840KMKG MKG20030731134509307/31/03 13:45:31  5-MIN KMKG 311845Z 23010KT 10SM CLR 27/18 A3000 560 60 2100 230/10 RMK AO2
14840KMKG MKG20030731135011307/31/03 13:50:31  5-MIN KMKG 311850Z 23010KT 10SM FEW080 27/18 A3000 560 60 2100 240/10 RMK AO2 SLP155 T02670183
14840KMKG MKG20030731135511307/31/03 13:55:31  5-MIN KMKG 311855Z 22010KT 10SM FEW080 27/18 A3000 560 60 2100 220/10 RMK AO2 SLP155 T02670183
14840KMKG MKG20030731140009307/31/03 14:00:31  5-MIN KMKG 311900Z 23010KT 10SM CLR 27/18 A3000 560 60 2100 230/10 RMK AO2
14840KMKG MKG20030731140509307/31/03 14:05:31  5-MIN KMKG 311905Z 21010KT 10SM CLR 27/18 A3000 560 60 2100 210/10 RMK AO2
14840KMKG MKG20030731141009307/31/03 14:10:31  5-MIN KMKG 311910Z 22011KT 10SM CLR 27/18 A3000 560 58 2100 230/11 RMK AO2
14840KMKG MKG20030731141509307/31/03 14:15:31  5-MIN KMKG 311915Z 21010KT 10SM CLR 27/18 A3000 550 58 2100 220/10 RMK AO2
14840KMKG MKG20030731142009307/31/03 14:20:31  5-MIN KMKG 311920Z 23011KT 10SM CLR 27/18 A3000 550 60 2100 230/11 RMK AO2
14840KMKG MKG20030731142509307/31/03 14:25:31  5-MIN KMKG 311925Z 22011KT 10SM CLR 27/18 A3000 550 60 2100 220/11 RMK AO2
14840KMKG MKG20030731143009307/31/03 14:30:31  5-MIN KMKG 311930Z 22010KT 10SM CLR 27/18 A3000 550 60 2100 220/10 RMK AO2
14840KMKG MKG20030731143509607/31/03 14:35:31  5-MIN KMKG 311935Z 23009KT 10SM FEW085 27/18 A3001 550 60 2100 230/09 RMK AO2
14840KMKG MKG20030731144009607/31/03 14:40:31  5-MIN KMKG 311940Z 23012KT 10SM FEW085 27/18 A3000 550 60 2100 240/12 RMK AO2
14840KMKG MKG20030731144509607/31/03 14:45:31  5-MIN KMKG 311945Z 23012KT 10SM FEW085 27/18 A3000 550 58 2100 230/12 RMK AO2
14840KMKG MKG20030731145011307/31/03 14:50:31  5-MIN KMKG 311950Z 22012KT 10SM FEW085 27/18 A3000 550 58 2100 220/12 RMK AO2 SLP157 T02720183
14840KMKG MKG20030731145511307/31/03 14:55:31  5-MIN KMKG 311955Z 22010KT 10SM FEW085 27/18 A3000 550 58 2100 220/10 RMK AO2 SLP157 T02720183
14840KMKG MKG20030731150009607/31/03 15:00:31  5-MIN KMKG 312000Z 22012KT 10SM FEW085 27/18 A3000 550 60 2100 220/12 RMK AO2
14840KMKG MKG20030731150509307/31/03 15:05:31  5-MIN KMKG 312005Z 22013KT 10SM CLR 27/18 A3000 550 60 2100 220/13 RMK AO2
14840KMKG MKG20030731151009307/31/03 15:10:31  5-MIN KMKG 312010Z 22011KT 10SM CLR 27/18 A3000 550 57 2100 230/11 RMK AO2
14840KMKG MKG20030731151509307/31/03 15:15:31  5-MIN KMKG 312015Z 22012KT 10SM CLR 27/18 A3000 560 58 2100 230/12 RMK AO2
14840KMKG MKG20030731152009307/31/03 15:20:31  5-MIN KMKG 312020Z 22011KT 10SM CLR 27/18 A3000 560 57 2100 230/11 RMK AO2
14840KMKG MKG20030731152509307/31/03 15:25:31  5-MIN KMKG 312025Z 20012KT 10SM CLR 27/18 A3000 560 57 2100 210/12 RMK AO2
14840KMKG MKG20030731153009307/31/03 15:30:31  5-MIN KMKG 312030Z 20012KT 10SM CLR 26/18 A3000 560 59 2000 200/12 RMK AO2
14840KMKG MKG20030731153509307/31/03 15:35:31  5-MIN KMKG 312035Z 20011KT 10SM CLR 26/18 A3000 560 59 2000 210/11 RMK AO2
14840KMKG MKG20030731154009307/31/03 15:40:31  5-MIN KMKG 312040Z 21008KT 10SM CLR 27/18 A3000 560 57 2100 210/08 RMK AO2
14840KMKG MKG20030731154509307/31/03 15:45:31  5-MIN KMKG 312045Z 21009KT 10SM CLR 27/18 A2999 560 56 2100 210/09 RMK AO2
14840KMKG MKG20030731155011607/31/03 15:50:31  5-MIN KMKG 312050Z 21011KT 10SM CLR 27/18 A2999 570 56 2100 220/11 RMK AO2 SLP152 T02720178 58006
14840KMKG MKG20030731155511907/31/03 15:55:31  5-MIN KMKG 312055Z 21008KT 10SM FEW080 27/18 A2999 570 56 2100 220/08 RMK AO2 SLP151 T02720178 58006
14840KMKG MKG20030731160009307/31/03 16:00:31  5-MIN KMKG 312100Z 20011KT 10SM CLR 27/18 A2999 570 56 2100 200/11 RMK AO2
14840KMKG MKG20030731160509307/31/03 16:05:31  5-MIN KMKG 312105Z 22010KT 10SM CLR 27/18 A2999 570 56 2100 230/10 RMK AO2
14840KMKG MKG20030731161009307/31/03 16:10:31  5-MIN KMKG 312110Z 21009KT 10SM CLR 27/18 A2998 570 56 2100 210/09 RMK AO2
14840KMKG MKG20030731161509307/31/03 16:15:31  5-MIN KMKG 312115Z 20009KT 10SM CLR 27/18 A2998 570 56 2100 210/09 RMK AO2
14840KMKG MKG20030731162009307/31/03 16:20:31  5-MIN KMKG 312120Z 21011KT 10SM CLR 27/18 A2998 570 56 2100 210/11 RMK AO2
14840KMKG MKG20030731162509307/31/03 16:25:31  5-MIN KMKG 312125Z 22010KT 10SM CLR 27/17 A2998 570 54 2100 220/10 RMK AO2
14840KMKG MKG20030731163009307/31/03 16:30:31  5-MIN KMKG 312130Z 22011KT 10SM CLR 27/17 A2998 580 54 2200 230/11 RMK AO2
14840KMKG MKG20030731163509307/31/03 16:35:31  5-MIN KMKG 312135Z 22010KT 10SM CLR 27/17 A2998 580 55 2100 220/10 RMK AO2
14840KMKG MKG20030731164009307/31/03 16:40:31  5-MIN KMKG 312140Z 20010KT 10SM CLR 27/17 A2998 580 55 2100 200/10 RMK AO2
14840KMKG MKG20030731164509307/31/03 16:45:31  5-MIN KMKG 312145Z 21009KT 10SM CLR 27/17 A2998 580 54 2200 220/09 RMK AO2
14840KMKG MKG20030731165011307/31/03 16:50:31  5-MIN KMKG 312150Z 20010KT 10SM FEW080 27/17 A2997 580 55 2100 200/10 RMK AO2 SLP147 T02670172
14840KMKG MKG20030731165511307/31/03 16:55:31  5-MIN KMKG 312155Z 20010KT 10SM FEW080 27/17 A2997 580 55 2100 200/10 RMK AO2 SLP146 T02670172
14840KMKG MKG20030731170009307/31/03 17:00:31  5-MIN KMKG 312200Z 20009KT 10SM CLR 27/17 A2997 580 55 2100 200/09 RMK AO2
14840KMKG MKG20030731170509307/31/03 17:05:31  5-MIN KMKG 312205Z 22011KT 10SM CLR 27/17 A2997 580 55 2100 220/11 RMK AO2
14840KMKG MKG20030731171009307/31/03 17:10:31  5-MIN KMKG 312210Z 20010KT 10SM CLR 27/17 A2997 580 55 2100 210/10 RMK AO2
14840KMKG MKG20030731171509307/31/03 17:15:31  5-MIN KMKG 312215Z 19010KT 10SM CLR 27/17 A2997 590 55 2100 200/10 RMK AO2
14840KMKG MKG20030731172009307/31/03 17:20:31  5-MIN KMKG 312220Z 20011KT 10SM CLR 27/17 A2997 590 55 2100 200/11 RMK AO2
14840KMKG MKG20030731172509307/31/03 17:25:31  5-MIN KMKG 312225Z 21008KT 10SM CLR 27/17 A2997 590 55 2100 210/08 RMK AO2
14840KMKG MKG20030731173009307/31/03 17:30:31  5-MIN KMKG 312230Z 22011KT 10SM CLR 27/17 A2997 580 54 2200 230/11 RMK AO2
14840KMKG MKG20030731173509307/31/03 17:35:31  5-MIN KMKG 312235Z 20010KT 10SM CLR 27/17 A2997 580 53 2100 200/10 RMK AO2
14840KMKG MKG20030731174009307/31/03 17:40:31  5-MIN KMKG 312240Z 22010KT 10SM CLR 27/17 A2998 580 53 2100 220/10 RMK AO2
14840KMKG MKG20030731174509307/31/03 17:45:31  5-MIN KMKG 312245Z 22010KT 10SM CLR 27/17 A2998 580 53 2100 220/10 RMK AO2
14840KMKG MKG20030731175011007/31/03 17:50:31  5-MIN KMKG 312250Z 23010KT 10SM CLR 27/17 A2997 580 53 2100 230/10 RMK AO2 SLP146 T02670167
14840KMKG MKG20030731175511307/31/03 17:55:31  5-MIN KMKG 312255Z 23009KT 10SM FEW080 27/17 A2997 590 55 2100 240/09 RMK AO2 SLP145 T02670172
14840KMKG MKG20030731180009307/31/03 18:00:31  5-MIN KMKG 312300Z 24007KT 10SM CLR 27/17 A2997 580 55 2100 240/07 RMK AO2
14840KMKG MKG20030731180509307/31/03 18:05:31  5-MIN KMKG 312305Z 23007KT 10SM CLR 26/17 A2997 580 57 2000 240/07 RMK AO2
14840KMKG MKG20030731181009307/31/03 18:10:31  5-MIN KMKG 312310Z 23009KT 10SM CLR 26/17 A2997 590 55 2000 230/09 RMK AO2
14840KMKG MKG20030731181509307/31/03 18:15:31  5-MIN KMKG 312315Z 22011KT 10SM CLR 26/17 A2997 590 57 2000 230/11 RMK AO2
14840KMKG MKG20030731182009307/31/03 18:20:31  5-MIN KMKG 312320Z 22010KT 10SM CLR 26/17 A2996 590 59 2000 230/10 RMK AO2
14840KMKG MKG20030731182509307/31/03 18:25:31  5-MIN KMKG 312325Z 23007KT 10SM CLR 26/17 A2996 590 59 2000 230/07 RMK AO2
14840KMKG MKG20030731183009307/31/03 18:30:31  5-MIN KMKG 312330Z 23007KT 10SM CLR 26/17 A2997 590 59 2000 230/07 RMK AO2
14840KMKG MKG20030731183509307/31/03 18:35:31  5-MIN KMKG 312335Z 22007KT 10SM CLR 25/17 A2997 590 61 1900 230/07 RMK AO2
14840KMKG MKG20030731184009307/31/03 18:40:31  5-MIN KMKG 312340Z 21008KT 10SM CLR 25/17 A2997 590 61 1900 220/08 RMK AO2
14840KMKG MKG20030731184509307/31/03 18:45:31  5-MIN KMKG 312345Z 21006KT 10SM CLR 25/17 A2997 590 61 1900 220/06 RMK AO2
14840KMKG MKG20030731185013107/31/03 18:50:31  5-MIN KMKG 312350Z 21006KT 10SM FEW080 24/17 A2997 590 63 1900 210/06 RMK AO2 SLP144 T02440172 10278 20244 58006
14840KMKG MKG20030731185513107/31/03 18:55:31  5-MIN KMKG 312355Z 21007KT 10SM FEW080 24/17 A2997 590 63 1900 210/07 RMK AO2 SLP144 T02440172 10278 20244 56007
14840KMKG MKG20030731190009307/31/03 19:00:31  5-MIN KMKG 010000Z 22007KT 10SM CLR 24/17 A2997 590 63 1900 220/07 RMK AO2
14840KMKG MKG20030731190509307/31/03 19:05:31  5-MIN KMKG 010005Z 22005KT 10SM CLR 24/17 A2997 590 63 1900 230/05 RMK AO2
14840KMKG MKG20030731191009307/31/03 19:10:31  5-MIN KMKG 010010Z 22005KT 10SM CLR 24/18 A2997 590 68 1800 230/05 RMK AO2
14840KMKG MKG20030731191509307/31/03 19:15:31  5-MIN KMKG 010015Z 22006KT 10SM CLR 24/18 A2997 590 68 1800 230/06 RMK AO2
14840KMKG MKG20030731192009307/31/03 19:20:31  5-MIN KMKG 010020Z 22005KT 10SM CLR 24/18 A2997 590 68 1800 230/05 RMK AO2
14840KMKG MKG20030731192509307/31/03 19:25:31  5-MIN KMKG 010025Z 22006KT 10SM CLR 24/18 A2997 590 68 1800 230/06 RMK AO2
14840KMKG MKG20030731193009207/31/03 19:30:31  5-MIN KMKG 010030Z 21004KT 9SM CLR 24/18 A2997 590 68 1800 220/04 RMK AO2
14840KMKG MKG20030731193509307/31/03 19:35:31  5-MIN KMKG 010035Z 21005KT 10SM CLR 24/18 A2997 590 68 1800 210/05 RMK AO2
14840KMKG MKG20030731194009307/31/03 19:40:31  5-MIN KMKG 010040Z 21006KT 10SM CLR 24/18 A2996 590 68 1800 210/06 RMK AO2
14840KMKG MKG20030731194509307/31/03 19:45:31  5-MIN KMKG 010045Z 20005KT 10SM CLR 23/18 A2996 590 70 1700 200/05 RMK AO2
14840KMKG MKG20030731195011007/31/03 19:50:31  5-MIN KMKG 010050Z 19005KT 10SM CLR 23/18 A2996 590 70 1700 190/05 RMK AO2 SLP142 T02330178
14840KMKG MKG20030731195511007/31/03 19:55:31  5-MIN KMKG 010055Z 18005KT 10SM CLR 23/18 A2996 600 70 1700 190/05 RMK AO2 SLP141 T02330178
14840KMKG MKG20030731200009307/31/03 20:00:31  5-MIN KMKG 010100Z 17004KT 10SM CLR 23/18 A2996 600 70 1700 170/04 RMK AO2
14840KMKG MKG20030731200509307/31/03 20:05:31  5-MIN KMKG 010105Z 15004KT 10SM CLR 23/18 A2995 600 70 1700 150/04 RMK AO2
14840KMKG MKG20030731201009307/31/03 20:10:31  5-MIN KMKG 010110Z 15005KT 10SM CLR 23/18 A2995 600 73 1700 150/05 RMK AO2
14840KMKG MKG20030731201509307/31/03 20:15:31  5-MIN KMKG 010115Z 14005KT 10SM CLR 23/18 A2994 610 73 1700 140/05 RMK AO2
14840KMKG MKG20030731202009307/31/03 20:20:31  5-MIN KMKG 010120Z 15004KT 10SM CLR 23/18 A2994 610 73 1700 150/04 RMK AO2
14840KMKG MKG20030731202509307/31/03 20:25:31  5-MIN KMKG 010125Z 13004KT 10SM CLR 23/18 A2994 610 73 1700 130/04 RMK AO2
14840KMKG MKG20030731203009207/31/03 20:30:31  5-MIN KMKG 010130Z 13005KT 9SM CLR 22/18 A2994 610 78 1600 130/05 RMK AO2
14840KMKG MKG20030731203509207/31/03 20:35:31  5-MIN KMKG 010135Z 14004KT 9SM CLR 22/18 A2994 610 78 1600 150/04 RMK AO2
14840KMKG MKG20030731204009207/31/03 20:40:31  5-MIN KMKG 010140Z 15005KT 9SM CLR 22/18 A2994 610 75 1600 150/05 RMK AO2
14840KMKG MKG20030731204509207/31/03 20:45:31  5-MIN KMKG 010145Z 15006KT 9SM CLR 22/18 A2994 620 75 1600 150/06 RMK AO2
14840KMKG MKG20030731205010907/31/03 20:50:31  5-MIN KMKG 010150Z 14006KT 9SM CLR 23/18 A2993 620 73 1700 140/06 RMK AO2 SLP133 T02280178
14840KMKG MKG20030731205510907/31/03 20:55:31  5-MIN KMKG 010155Z 15005KT 9SM CLR 22/18 A2994 610 75 1600 150/05 RMK AO2 SLP134 T02220178
14840KMKG MKG20030731210009207/31/03 21:00:31  5-MIN KMKG 010200Z 17005KT 8SM CLR 22/18 A2994 610 75 1600 170/05 RMK AO2
14840KMKG MKG20030731210509207/31/03 21:05:31  5-MIN KMKG 010205Z 15005KT 9SM CLR 23/18 A2994 610 73 1700 150/05 RMK AO2
14840KMKG MKG20030731211009207/31/03 21:10:31  5-MIN KMKG 010210Z 13005KT 9SM CLR 22/17 A2994 610 73 1600 140/05 RMK AO2
14840KMKG MKG20030731211509207/31/03 21:15:31  5-MIN KMKG 010215Z 13005KT 8SM CLR 22/17 A2994 610 73 1600 130/05 RMK AO2
14840KMKG MKG20030731212009207/31/03 21:20:31  5-MIN KMKG 010220Z 13005KT 8SM CLR 22/17 A2994 610 75 1600 130/05 RMK AO2
14840KMKG MKG20030731212509207/31/03 21:25:31  5-MIN KMKG 010225Z 14004KT 9SM CLR 22/17 A2995 610 75 1600 150/04 RMK AO2
14840KMKG MKG20030731213009207/31/03 21:30:31  5-MIN KMKG 010230Z 17003KT 9SM CLR 22/17 A2995 600 75 1600 180/03 RMK AO2
14840KMKG MKG20030731213510207/31/03 21:35:31  5-MIN KMKG 010235Z AUTO 20003KT 9SM CLR 22/18 A2995 600 78 1600 210/03 RMK AO2 TSNO
14840KMKG MKG20030731214009207/31/03 21:40:31  5-MIN KMKG 010240Z 20003KT 9SM CLR 21/17 A2996 600 78 1500 210/03 RMK AO2
14840KMKG MKG20030731214509207/31/03 21:45:31  5-MIN KMKG 010245Z 17003KT 9SM CLR 21/17 A2995 600 78 1500 170/03 RMK AO2
14840KMKG MKG20030731215011507/31/03 21:50:31  5-MIN KMKG 010250Z 15004KT 9SM CLR 22/18 A2995 600 78 1600 160/04 RMK AO2 SLP140 T02170178 56007
14840KMKG MKG20030731215511507/31/03 21:55:31  5-MIN KMKG 010255Z 15004KT 9SM CLR 22/18 A2995 600 75 1600 160/04 RMK AO2 SLP140 T02220178 55004
14840KMKG MKG20030731220009207/31/03 22:00:31  5-MIN KMKG 010300Z 14005KT 9SM CLR 22/18 A2996 600 78 1600 150/05 RMK AO2
14840KMKG MKG20030731220509207/31/03 22:05:31  5-MIN KMKG 010305Z 13004KT 8SM CLR 21/18 A2996 600 81 1500 130/04 RMK AO2
14840KMKG MKG20030731221009207/31/03 22:10:31  5-MIN KMKG 010310Z 14004KT 8SM CLR 22/18 A2996 590 78 1500 140/04 RMK AO2
14840KMKG MKG20030731221509207/31/03 22:15:31  5-MIN KMKG 010315Z 13004KT 8SM CLR 21/18 A2996 600 81 1500 130/04 RMK AO2
14840KMKG MKG20030731222009207/31/03 22:20:31  5-MIN KMKG 010320Z 12005KT 8SM CLR 21/18 A2996 590 81 1500 130/05 RMK AO2
14840KMKG MKG20030731222509207/31/03 22:25:31  5-MIN KMKG 010325Z 13004KT 8SM CLR 21/18 A2996 590 81 1500 130/04 RMK AO2
14840KMKG MKG20030731223009207/31/03 22:30:31  5-MIN KMKG 010330Z 13005KT 8SM CLR 21/18 A2996 590 81 1500 130/05 RMK AO2
14840KMKG MKG20030731223509207/31/03 22:35:31  5-MIN KMKG 010335Z 13004KT 8SM CLR 21/18 A2996 590 81 1500 140/04 RMK AO2
14840KMKG MKG20030731224009207/31/03 22:40:31  5-MIN KMKG 010340Z 13005KT 8SM CLR 21/18 A2996 590 81 1500 140/05 RMK AO2
14840KMKG MKG20030731224509207/31/03 22:45:31  5-MIN KMKG 010345Z 14005KT 8SM CLR 21/18 A2996 590 81 1500 140/05 RMK AO2
14840KMKG MKG20030731225010907/31/03 22:50:31  5-MIN KMKG 010350Z 15005KT 8SM CLR 22/18 A2996 590 78 1500 150/05 RMK AO2 SLP143 T02170178
14840KMKG MKG20030731225510907/31/03 22:55:31  5-MIN KMKG 010355Z 14005KT 8SM CLR 22/18 A2996 590 78 1500 140/05 RMK AO2 SLP142 T02170178
14840KMKG MKG20030731230009207/31/03 23:00:31  5-MIN KMKG 010400Z 12007KT 8SM CLR 22/18 A2996 600 78 1500 130/07 RMK AO2
14840KMKG MKG20030731230509207/31/03 23:05:31  5-MIN KMKG 010405Z 12006KT 8SM CLR 22/18 A2996 600 78 1500 120/06 RMK AO2
14840KMKG MKG20030731231009207/31/03 23:10:31  5-MIN KMKG 010410Z 13006KT 8SM CLR 21/18 A2996 590 81 1500 130/06 RMK AO2
14840KMKG MKG20030731231509207/31/03 23:15:31  5-MIN KMKG 010415Z 12006KT 7SM CLR 21/16 A2996 590 73 1500 130/06 RMK AO2
14840KMKG MKG20030731232009207/31/03 23:20:31  5-MIN KMKG 010420Z 12006KT 7SM CLR 21/17 A2996 590 78 1500 130/06 RMK AO2
14840KMKG MKG20030731232509207/31/03 23:25:31  5-MIN KMKG 010425Z 13006KT 7SM CLR 21/17 A2996 590 81 1400 130/06 RMK AO2
14840KMKG MKG20030731233009207/31/03 23:30:31  5-MIN KMKG 010430Z 13006KT 7SM CLR 21/18 A2996 590 81 1500 130/06 RMK AO2
14840KMKG MKG20030731233509207/31/03 23:35:31  5-MIN KMKG 010435Z 13006KT 7SM CLR 21/18 A2996 590 81 1500 140/06 RMK AO2
14840KMKG MKG20030731234009207/31/03 23:40:31  5-MIN KMKG 010440Z 13006KT 7SM CLR 21/18 A2996 590 81 1500 140/06 RMK AO2
14840KMKG MKG20030731234509207/31/03 23:45:31  5-MIN KMKG 010445Z 13006KT 7SM CLR 21/18 A2996 600 81 1500 140/06 RMK AO2
14840KMKG MKG20030731235012207/31/03 23:50:31  5-MIN KMKG 010450Z 13006KT 7SM FEW055 21/18 A2996 600 81 1500 140/06 RMK AO2 SLP141 T02110178 402780183
14840KMKG MKG20030731235512207/31/03 23:55:31  5-MIN KMKG 010455Z 13006KT 7SM FEW055 21/18 A2996 600 81 1500 130/06 RMK AO2 SLP141 T02110178 402780183
