14840KMKG MKG20060601000009206/01/06 00:00:35  5-MIN KMKG 010500Z 01005KT 10SM CLR 17/14 A3013 440 83 800 010/05 RMK AO2
14840KMKG MKG20060601000509206/01/06 00:05:31  5-MIN KMKG 010505Z 01005KT 10SM CLR 17/14 A3013 440 83 800 010/05 RMK AO2
14840KMKG MKG20060601001009206/01/06 00:10:31  5-MIN KMKG 010510Z 36005KT 10SM CLR 17/14 A3013 440 83 800 360/05 RMK AO2
14840KMKG MKG20060601001509206/01/06 00:15:31  5-MIN KMKG 010515Z 36006KT 10SM CLR 17/14 A3013 440 83 800 010/06 RMK AO2
14840KMKG MKG20060601002009206/01/06 00:20:31  5-MIN KMKG 010520Z 01005KT 10SM CLR 17/14 A3012 440 83 800 010/05 RMK AO2
14840KMKG MKG20060601002509206/01/06 00:25:31  5-MIN KMKG 010525Z 36005KT 10SM CLR 17/14 A3012 440 83 800 010/05 RMK AO2
14840KMKG MKG20060601003009206/01/06 00:30:31  5-MIN KMKG 010530Z 01005KT 10SM CLR 17/14 A3012 440 83 800 010/05 RMK AO2
14840KMKG MKG20060601003509206/01/06 00:35:31  5-MIN KMKG 010535Z 01004KT 10SM CLR 17/14 A3012 440 83 800 010/04 RMK AO2
14840KMKG MKG20060601004009206/01/06 00:40:31  5-MIN KMKG 010540Z 01004KT 10SM CLR 17/14 A3012 440 83 800 010/04 RMK AO2
14840KMKG MKG20060601004509206/01/06 00:45:31  5-MIN KMKG 010545Z 01004KT 10SM CLR 17/14 A3012 440 83 800 020/04 RMK AO2
14840KMKG MKG20060601005012706/01/06 00:50:31  5-MIN KMKG 010550Z 01004KT 10SM CLR 16/13 A3012 440 83 700 010/04 RMK AO2 SLP199 T01610133 10206 20161 53007
14840KMKG MKG20060601005512706/01/06 00:55:31  5-MIN KMKG 010555Z 02005KT 10SM CLR 16/13 A3012 440 83 700 020/05 RMK AO2 SLP199 T01610133 10206 20161 50002
14840KMKG MKG20060601010009206/01/06 01:00:31  5-MIN KMKG 010600Z 02004KT 10SM CLR 16/13 A3012 440 83 700 020/04 RMK AO2
14840KMKG MKG20060601010509206/01/06 01:05:31  5-MIN KMKG 010605Z 03003KT 10SM CLR 16/13 A3012 450 83 700 040/03 RMK AO2
14840KMKG MKG20060601011009206/01/06 01:10:31  5-MIN KMKG 010610Z 04003KT 10SM CLR 16/14 A3012 450 86 700 040/03 RMK AO2
14840KMKG MKG20060601011509206/01/06 01:15:31  5-MIN KMKG 010615Z 02005KT 10SM CLR 16/14 A3012 450 86 700 020/05 RMK AO2
14840KMKG MKG20060601012009206/01/06 01:20:31  5-MIN KMKG 010620Z 03004KT 10SM CLR 16/13 A3012 450 86 700 040/04 RMK AO2
14840KMKG MKG20060601012509206/01/06 01:25:31  5-MIN KMKG 010625Z 05004KT 10SM CLR 16/14 A3012 450 86 700 050/04 RMK AO2
14840KMKG MKG20060601013009206/01/06 01:30:31  5-MIN KMKG 010630Z 05004KT 10SM CLR 16/14 A3011 450 86 700 050/04 RMK AO2
14840KMKG MKG20060601013509206/01/06 01:35:31  5-MIN KMKG 010635Z 04004KT 10SM CLR 16/14 A3011 450 90 700 040/04 RMK AO2
14840KMKG MKG20060601014009206/01/06 01:40:31  5-MIN KMKG 010640Z 05004KT 10SM CLR 16/14 A3011 460 90 700 050/04 RMK AO2
14840KMKG MKG20060601014509206/01/06 01:45:31  5-MIN KMKG 010645Z 08003KT 10SM CLR 16/13 A3011 460 86 700 080/03 RMK AO2
14840KMKG MKG20060601015010906/01/06 01:50:31  5-MIN KMKG 010650Z 11004KT 10SM CLR 15/13 A3011 460 90 600 110/04 RMK AO2 SLP194 T01500133
14840KMKG MKG20060601015510906/01/06 01:55:31  5-MIN KMKG 010655Z 09004KT 10SM CLR 16/13 A3011 460 86 700 100/04 RMK AO2 SLP194 T01560133
14840KMKG MKG20060601020009206/01/06 02:00:31  5-MIN KMKG 010700Z 09004KT 10SM CLR 16/13 A3011 460 86 700 100/04 RMK AO2
14840KMKG MKG20060601020509206/01/06 02:05:31  5-MIN KMKG 010705Z 00000KT 10SM CLR 15/13 A3010 460 90 600 000/00 RMK AO2
14840KMKG MKG20060601021009206/01/06 02:10:31  5-MIN KMKG 010710Z 00000KT 10SM CLR 15/13 A3011 460 90 600 000/00 RMK AO2
14840KMKG MKG20060601021509206/01/06 02:15:31  5-MIN KMKG 010715Z 00000KT 10SM CLR 15/13 A3011 460 90 600 000/00 RMK AO2
14840KMKG MKG20060601022009206/01/06 02:20:31  5-MIN KMKG 010720Z 34006KT 10SM CLR 15/13 A3011 450 90 600 340/06 RMK AO2
14840KMKG MKG20060601022509206/01/06 02:25:31  5-MIN KMKG 010725Z 34006KT 10SM CLR 16/14 A3012 450 90 700 340/06 RMK AO2
14840KMKG MKG20060601023009206/01/06 02:30:31  5-MIN KMKG 010730Z 35005KT 10SM CLR 16/14 A3012 450 86 700 350/05 RMK AO2
14840KMKG MKG20060601023509206/01/06 02:35:31  5-MIN KMKG 010735Z 35008KT 10SM CLR 16/14 A3012 450 90 700 350/08 RMK AO2
14840KMKG MKG20060601024009206/01/06 02:40:31  5-MIN KMKG 010740Z 36007KT 10SM CLR 16/13 A3012 450 86 700 360/07 RMK AO2
14840KMKG MKG20060601024509206/01/06 02:45:31  5-MIN KMKG 010745Z 01007KT 10SM CLR 16/13 A3012 450 86 700 010/07 RMK AO2
14840KMKG MKG20060601025010906/01/06 02:50:31  5-MIN KMKG 010750Z 01006KT 10SM CLR 16/13 A3011 450 86 700 020/06 RMK AO2 SLP197 T01560133
14840KMKG MKG20060601025510906/01/06 02:55:31  5-MIN KMKG 010755Z 02007KT 10SM CLR 16/13 A3011 450 86 700 020/07 RMK AO2 SLP197 T01560133
14840KMKG MKG20060601030009206/01/06 03:00:31  5-MIN KMKG 010800Z 02007KT 10SM CLR 16/13 A3011 460 83 700 020/07 RMK AO2
14840KMKG MKG20060601030509206/01/06 03:05:31  5-MIN KMKG 010805Z 02006KT 10SM CLR 16/13 A3011 460 83 700 030/06 RMK AO2
14840KMKG MKG20060601031009206/01/06 03:10:31  5-MIN KMKG 010810Z 01007KT 10SM CLR 16/13 A3011 460 83 700 010/07 RMK AO2
14840KMKG MKG20060601031509206/01/06 03:15:31  5-MIN KMKG 010815Z 01007KT 10SM CLR 16/13 A3011 460 83 700 010/07 RMK AO2
14840KMKG MKG20060601032009206/01/06 03:20:31  5-MIN KMKG 010820Z 02005KT 10SM CLR 16/13 A3011 460 83 700 020/05 RMK AO2
14840KMKG MKG20060601032509206/01/06 03:25:31  5-MIN KMKG 010825Z 02006KT 10SM CLR 15/13 A3011 460 86 600 020/06 RMK AO2
14840KMKG MKG20060601033009206/01/06 03:30:31  5-MIN KMKG 010830Z 01007KT 10SM CLR 16/13 A3011 460 83 700 010/07 RMK AO2
14840KMKG MKG20060601033509206/01/06 03:35:31  5-MIN KMKG 010835Z 01007KT 10SM CLR 16/13 A3010 460 83 700 020/07 RMK AO2
14840KMKG MKG20060601034009206/01/06 03:40:31  5-MIN KMKG 010840Z 01007KT 10SM CLR 16/13 A3011 460 83 700 010/07 RMK AO2
14840KMKG MKG20060601034509206/01/06 03:45:31  5-MIN KMKG 010845Z 01007KT 10SM CLR 16/13 A3011 460 83 700 010/07 RMK AO2
14840KMKG MKG20060601035011506/01/06 03:50:31  5-MIN KMKG 010850Z 02007KT 10SM CLR 16/13 A3010 460 83 700 020/07 RMK AO2 SLP193 T01560128 50002
14840KMKG MKG20060601035511506/01/06 03:55:31  5-MIN KMKG 010855Z 02007KT 10SM CLR 16/13 A3010 460 83 700 020/07 RMK AO2 SLP193 T01560128 56006
14840KMKG MKG20060601040009206/01/06 04:00:31  5-MIN KMKG 010900Z 01007KT 10SM CLR 15/13 A3010 460 86 600 010/07 RMK AO2
14840KMKG MKG20060601040509206/01/06 04:05:31  5-MIN KMKG 010905Z 01006KT 10SM CLR 15/13 A3011 460 86 600 010/06 RMK AO2
14840KMKG MKG20060601041009206/01/06 04:10:31  5-MIN KMKG 010910Z 36006KT 10SM CLR 15/13 A3011 460 86 600 010/06 RMK AO2
14840KMKG MKG20060601041509206/01/06 04:15:31  5-MIN KMKG 010915Z 01006KT 10SM CLR 15/13 A3011 460 86 600 010/06 RMK AO2
14840KMKG MKG20060601042009206/01/06 04:20:31  5-MIN KMKG 010920Z 01006KT 10SM CLR 15/13 A3010 460 86 600 010/06 RMK AO2
14840KMKG MKG20060601042509206/01/06 04:25:31  5-MIN KMKG 010925Z 01008KT 10SM CLR 15/13 A3011 460 86 600 020/08 RMK AO2
14840KMKG MKG20060601043009206/01/06 04:30:31  5-MIN KMKG 010930Z 01006KT 10SM CLR 15/13 A3011 460 86 600 020/06 RMK AO2
14840KMKG MKG20060601043509206/01/06 04:35:31  5-MIN KMKG 010935Z 01006KT 10SM CLR 15/13 A3011 460 86 600 010/06 RMK AO2
14840KMKG MKG20060601044009206/01/06 04:40:31  5-MIN KMKG 010940Z 01008KT 10SM CLR 15/13 A3010 460 86 600 010/08 RMK AO2
14840KMKG MKG20060601044509206/01/06 04:45:31  5-MIN KMKG 010945Z 01007KT 10SM CLR 15/13 A3010 460 86 600 020/07 RMK AO2
14840KMKG MKG20060601045010906/01/06 04:50:31  5-MIN KMKG 010950Z 02007KT 10SM CLR 15/13 A3010 460 86 600 020/07 RMK AO2 SLP193 T01500128
14840KMKG MKG20060601045510906/01/06 04:55:31  5-MIN KMKG 010955Z 01007KT 10SM CLR 14/13 A3011 460 90 500 020/07 RMK AO2 SLP194 T01440128
14840KMKG MKG20060601050009206/01/06 05:00:31  5-MIN KMKG 011000Z 01008KT 10SM CLR 15/13 A3011 460 86 600 010/08 RMK AO2
14840KMKG MKG20060601050509206/01/06 05:05:31  5-MIN KMKG 011005Z 01007KT 10SM CLR 14/13 A3011 460 90 500 020/07 RMK AO2
14840KMKG MKG20060601051009206/01/06 05:10:31  5-MIN KMKG 011010Z 02006KT 10SM CLR 14/13 A3011 450 90 500 020/06 RMK AO2
14840KMKG MKG20060601051509206/01/06 05:15:31  5-MIN KMKG 011015Z 03006KT 10SM CLR 14/13 A3011 460 90 500 030/06 RMK AO2
14840KMKG MKG20060601052009206/01/06 05:20:31  5-MIN KMKG 011020Z 01006KT 10SM CLR 14/13 A3011 450 90 500 020/06 RMK AO2
14840KMKG MKG20060601052509206/01/06 05:25:31  5-MIN KMKG 011025Z 01007KT 10SM CLR 14/13 A3012 450 90 500 010/07 RMK AO2
14840KMKG MKG20060601053009206/01/06 05:30:31  5-MIN KMKG 011030Z 01007KT 10SM CLR 14/13 A3012 450 90 500 020/07 RMK AO2
14840KMKG MKG20060601053509206/01/06 05:35:31  5-MIN KMKG 011035Z 02006KT 10SM CLR 14/13 A3011 450 90 500 030/06 RMK AO2
14840KMKG MKG20060601054009206/01/06 05:40:31  5-MIN KMKG 011040Z 04006KT 10SM CLR 14/13 A3011 450 90 500 040/06 RMK AO2
14840KMKG MKG20060601054509206/01/06 05:45:31  5-MIN KMKG 011045Z 03006KT 10SM CLR 15/13 A3011 450 86 600 040/06 RMK AO2
14840KMKG MKG20060601055010906/01/06 05:50:31  5-MIN KMKG 011050Z 02006KT 10SM CLR 15/13 A3011 450 86 600 030/06 RMK AO2 SLP196 T01500128
14840KMKG MKG20060601055510906/01/06 05:55:31  5-MIN KMKG 011055Z 02006KT 10SM CLR 15/12 A3012 450 83 600 020/06 RMK AO2 SLP198 T01500122
14840KMKG MKG20060601060009206/01/06 06:00:31  5-MIN KMKG 011100Z 03005KT 10SM CLR 15/13 A3012 450 86 600 030/05 RMK AO2
14840KMKG MKG20060601060509206/01/06 06:05:31  5-MIN KMKG 011105Z 03005KT 10SM CLR 15/12 A3012 450 83 600 030/05 RMK AO2
14840KMKG MKG20060601061009206/01/06 06:10:31  5-MIN KMKG 011110Z 01005KT 10SM CLR 15/13 A3012 450 86 600 020/05 RMK AO2
14840KMKG MKG20060601061509206/01/06 06:15:31  5-MIN KMKG 011115Z 03006KT 10SM CLR 16/13 A3012 450 83 700 030/06 RMK AO2
14840KMKG MKG20060601062009206/01/06 06:20:31  5-MIN KMKG 011120Z 03005KT 10SM CLR 16/13 A3012 450 83 700 030/05 RMK AO2
14840KMKG MKG20060601062509206/01/06 06:25:31  5-MIN KMKG 011125Z 03006KT 10SM CLR 16/13 A3012 450 80 700 040/06 RMK AO2
14840KMKG MKG20060601063009206/01/06 06:30:31  5-MIN KMKG 011130Z 02006KT 10SM CLR 16/13 A3012 450 80 700 030/06 RMK AO2
14840KMKG MKG20060601063509206/01/06 06:35:31  5-MIN KMKG 011135Z 02006KT 10SM CLR 16/12 A3012 440 77 700 030/06 RMK AO2
14840KMKG MKG20060601064009206/01/06 06:40:31  5-MIN KMKG 011140Z 03006KT 10SM CLR 17/12 A3012 440 75 800 030/06 RMK AO2
14840KMKG MKG20060601064509206/01/06 06:45:31  5-MIN KMKG 011145Z 02005KT 10SM CLR 17/12 A3012 440 75 800 020/05 RMK AO2
14840KMKG MKG20060601065012706/01/06 06:50:31  5-MIN KMKG 011150Z 03004KT 10SM CLR 17/13 A3012 440 75 800 040/04 RMK AO2 SLP199 T01720128 10172 20144 56006
14840KMKG MKG20060601065512706/01/06 06:55:31  5-MIN KMKG 011155Z 04005KT 10SM CLR 17/12 A3012 440 72 800 040/05 RMK AO2 SLP199 T01720122 10172 20144 52006
14840KMKG MKG20060601070009206/01/06 07:00:31  5-MIN KMKG 011200Z 03005KT 10SM CLR 17/12 A3012 440 72 800 030/05 RMK AO2
14840KMKG MKG20060601070509206/01/06 07:05:31  5-MIN KMKG 011205Z 03006KT 10SM CLR 18/12 A3012 440 69 900 030/06 RMK AO2
14840KMKG MKG20060601071009206/01/06 07:10:31  5-MIN KMKG 011210Z 04005KT 10SM CLR 18/12 A3012 440 69 900 040/05 RMK AO2
14840KMKG MKG20060601071509206/01/06 07:15:31  5-MIN KMKG 011215Z 04005KT 10SM CLR 18/12 A3012 450 69 900 050/05 RMK AO2
14840KMKG MKG20060601072009306/01/06 07:20:31  5-MIN KMKG 011220Z 04006KT 10SM CLR 18/12 A3012 450 67 1000 040/06 RMK AO2
14840KMKG MKG20060601072509306/01/06 07:25:31  5-MIN KMKG 011225Z 06005KT 10SM CLR 18/12 A3012 450 67 1000 060/05 RMK AO2
14840KMKG MKG20060601073009306/01/06 07:30:31  5-MIN KMKG 011230Z 06005KT 10SM CLR 18/12 A3012 450 67 1000 060/05 RMK AO2
14840KMKG MKG20060601073509306/01/06 07:35:31  5-MIN KMKG 011235Z VRB03KT 10SM CLR 19/12 A3012 450 65 1000 VRB/03 RMK AO2
14840KMKG MKG20060601074009306/01/06 07:40:31  5-MIN KMKG 011240Z 04005KT 10SM CLR 19/12 A3012 440 62 1100 040/05 RMK AO2
14840KMKG MKG20060601074509306/01/06 07:45:31  5-MIN KMKG 011245Z 05005KT 10SM CLR 19/12 A3012 440 65 1000 050/05 RMK AO2
14840KMKG MKG20060601075011006/01/06 07:50:31  5-MIN KMKG 011250Z 06004KT 10SM CLR 19/12 A3012 440 65 1000 060/04 RMK AO2 SLP199 T01890122
14840KMKG MKG20060601075511006/01/06 07:55:31  5-MIN KMKG 011255Z 08004KT 10SM CLR 19/12 A3012 440 65 1000 080/04 RMK AO2 SLP199 T01890122
14840KMKG MKG20060601080009306/01/06 08:00:31  5-MIN KMKG 011300Z 06003KT 10SM CLR 19/12 A3013 440 65 1000 070/03 RMK AO2
14840KMKG MKG20060601080509306/01/06 08:05:31  5-MIN KMKG 011305Z 06003KT 10SM CLR 19/12 A3013 440 65 1000 060/03 RMK AO2
14840KMKG MKG20060601081009306/01/06 08:10:31  5-MIN KMKG 011310Z 04003KT 10SM CLR 19/13 A3013 440 65 1100 050/03 RMK AO2
14840KMKG MKG20060601081509306/01/06 08:15:31  5-MIN KMKG 011315Z 06003KT 10SM CLR 19/13 A3013 440 65 1100 060/03 RMK AO2
14840KMKG MKG20060601082009306/01/06 08:20:31  5-MIN KMKG 011320Z 06004KT 10SM CLR 20/12 A3013 440 60 1200 060/04 RMK AO2
14840KMKG MKG20060601082509306/01/06 08:25:31  5-MIN KMKG 011325Z 07004KT 10SM CLR 20/12 A3013 440 60 1200 070/04 RMK AO2
14840KMKG MKG20060601083009306/01/06 08:30:31  5-MIN KMKG 011330Z 05004KT 10SM CLR 21/12 A3013 440 58 1200 060/04 RMK AO2
14840KMKG MKG20060601083509306/01/06 08:35:31  5-MIN KMKG 011335Z 07004KT 10SM CLR 21/12 A3013 440 58 1200 070/04 RMK AO2
14840KMKG MKG20060601084009306/01/06 08:40:31  5-MIN KMKG 011340Z 00000KT 10SM CLR 21/12 A3012 440 58 1200 000/00 RMK AO2
14840KMKG MKG20060601084509306/01/06 08:45:31  5-MIN KMKG 011345Z 03003KT 10SM CLR 21/12 A3012 440 58 1200 030/03 RMK AO2
14840KMKG MKG20060601085011006/01/06 08:50:31  5-MIN KMKG 011350Z 02005KT 10SM CLR 21/12 A3012 440 54 1300 030/05 RMK AO2 SLP199 T02110117
14840KMKG MKG20060601085511006/01/06 08:55:31  5-MIN KMKG 011355Z 05006KT 10SM CLR 21/12 A3012 440 54 1300 050/06 RMK AO2 SLP199 T02110117
14840KMKG MKG20060601090009306/01/06 09:00:31  5-MIN KMKG 011400Z 05006KT 10SM CLR 22/12 A3012 440 52 1400 050/06 RMK AO2
14840KMKG MKG20060601090509306/01/06 09:05:31  5-MIN KMKG 011405Z 05005KT 10SM CLR 22/11 A3012 440 50 1400 050/05 RMK AO2
14840KMKG MKG20060601091009306/01/06 09:10:31  5-MIN KMKG 011410Z 36005KT 10SM CLR 22/11 A3012 440 50 1400 360/05 RMK AO2
14840KMKG MKG20060601091509306/01/06 09:15:31  5-MIN KMKG 011415Z 36005KT 10SM CLR 22/11 A3012 450 49 1400 010/05 RMK AO2
14840KMKG MKG20060601092009306/01/06 09:20:31  5-MIN KMKG 011420Z 03005KT 10SM CLR 22/11 A3012 440 49 1400 040/05 RMK AO2
14840KMKG MKG20060601092509306/01/06 09:25:31  5-MIN KMKG 011425Z 36006KT 10SM CLR 23/11 A3012 450 45 1500 360/06 RMK AO2
14840KMKG MKG20060601093009306/01/06 09:30:31  5-MIN KMKG 011430Z 02007KT 10SM CLR 23/10 A3012 450 44 1500 020/07 RMK AO2
14840KMKG MKG20060601093509306/01/06 09:35:31  5-MIN KMKG 011435Z 01007KT 10SM CLR 23/09 A3012 450 42 1500 010/07 RMK AO2
14840KMKG MKG20060601094009306/01/06 09:40:31  5-MIN KMKG 011440Z 04006KT 10SM CLR 23/09 A3012 450 39 1600 050/06 RMK AO2
14840KMKG MKG20060601094510906/01/06 09:45:31  5-MIN KMKG 011445Z 03007KT 360V060 10SM CLR 23/09 A3012 450 41 1600 030/07 360V060 RMK AO2
14840KMKG MKG20060601095011606/01/06 09:50:31  5-MIN KMKG 011450Z 04007KT 10SM CLR 23/09 A3012 450 39 1600 040/07 RMK AO2 SLP196 T02330089 52006
14840KMKG MKG20060601095511606/01/06 09:55:31  5-MIN KMKG 011455Z 06006KT 10SM CLR 23/09 A3012 450 39 1600 060/06 RMK AO2 SLP196 T02330089 58002
14840KMKG MKG20060601100009306/01/06 10:00:31  5-MIN KMKG 011500Z 07006KT 10SM CLR 23/09 A3012 450 39 1600 070/06 RMK AO2
14840KMKG MKG20060601100509306/01/06 10:05:31  5-MIN KMKG 011505Z VRB06KT 10SM CLR 24/09 A3011 450 38 1600 VRB/06 RMK AO2
14840KMKG MKG20060601101009306/01/06 10:10:31  5-MIN KMKG 011510Z 01005KT 10SM CLR 24/09 A3011 450 36 1700 020/05 RMK AO2
14840KMKG MKG20060601101509306/01/06 10:15:31  5-MIN KMKG 011515Z 01006KT 10SM CLR 24/08 A3012 450 35 1700 020/06 RMK AO2
14840KMKG MKG20060601102010906/01/06 10:20:31  5-MIN KMKG 011520Z 04007KT 350V050 10SM CLR 24/08 A3012 450 34 1700 040/07 350V050 RMK AO2
14840KMKG MKG20060601102509306/01/06 10:25:31  5-MIN KMKG 011525Z VRB06KT 10SM CLR 24/07 A3012 450 33 1700 VRB/06 RMK AO2
14840KMKG MKG20060601103009306/01/06 10:30:31  5-MIN KMKG 011530Z 03006KT 10SM CLR 24/08 A3012 450 34 1700 030/06 RMK AO2
14840KMKG MKG20060601103509306/01/06 10:35:31  5-MIN KMKG 011535Z 35008KT 10SM CLR 24/08 A3011 450 34 1700 360/08 RMK AO2
14840KMKG MKG20060601104009306/01/06 10:40:31  5-MIN KMKG 011540Z 01009KT 10SM CLR 24/08 A3011 450 34 1700 010/09 RMK AO2
14840KMKG MKG20060601104509306/01/06 10:45:31  5-MIN KMKG 011545Z 36008KT 10SM CLR 25/08 A3012 450 33 1800 360/08 RMK AO2
14840KMKG MKG20060601105011006/01/06 10:50:31  5-MIN KMKG 011550Z 04010KT 10SM CLR 25/08 A3012 450 34 1800 040/10 RMK AO2 SLP195 T02500083
14840KMKG MKG20060601105511006/01/06 10:55:31  5-MIN KMKG 011555Z 05007KT 10SM CLR 25/08 A3011 450 34 1800 050/07 RMK AO2 SLP195 T02500083
14840KMKG MKG20060601110009306/01/06 11:00:31  5-MIN KMKG 011600Z 01009KT 10SM CLR 25/09 A3011 460 35 1800 020/09 RMK AO2
14840KMKG MKG20060601110509306/01/06 11:05:31  5-MIN KMKG 011605Z 01007KT 10SM CLR 26/09 A3011 460 34 1800 020/07 RMK AO2
14840KMKG MKG20060601111009906/01/06 11:10:31  5-MIN KMKG 011610Z 01011G15KT 10SM CLR 26/08 A3011 450 33 1800 010/11G15 RMK AO2
14840KMKG MKG20060601111511506/01/06 11:15:31  5-MIN KMKG 011615Z 01007G15KT 330V040 10SM CLR 26/08 A3011 460 33 1800 010/07G15 330V040 RMK AO2
14840KMKG MKG20060601112009306/01/06 11:20:31  5-MIN KMKG 011620Z 35012KT 10SM CLR 26/08 A3011 460 32 1900 360/12 RMK AO2
14840KMKG MKG20060601112509306/01/06 11:25:31  5-MIN KMKG 011625Z 36008KT 10SM CLR 26/08 A3011 460 32 1900 010/08 RMK AO2
14840KMKG MKG20060601113009306/01/06 11:30:31  5-MIN KMKG 011630Z 02008KT 10SM CLR 26/09 A3011 460 33 1900 020/08 RMK AO2
14840KMKG MKG20060601113509306/01/06 11:35:31  5-MIN KMKG 011635Z 30007KT 10SM CLR 26/11 A3011 460 38 1800 310/07 RMK AO2
14840KMKG MKG20060601114009306/01/06 11:40:31  5-MIN KMKG 011640Z 28008KT 10SM CLR 24/12 A3011 460 44 1700 290/08 RMK AO2
14840KMKG MKG20060601114509306/01/06 11:45:31  5-MIN KMKG 011645Z 28008KT 10SM CLR 23/12 A3010 460 47 1600 280/08 RMK AO2
14840KMKG MKG20060601115011006/01/06 11:50:31  5-MIN KMKG 011650Z 26008KT 10SM CLR 23/12 A3010 460 49 1600 260/08 RMK AO2 SLP192 T02330122
14840KMKG MKG20060601115511006/01/06 11:55:31  5-MIN KMKG 011655Z 27008KT 10SM CLR 23/12 A3011 460 51 1500 280/08 RMK AO2 SLP192 T02280122
14840KMKG MKG20060601120009306/01/06 12:00:31  5-MIN KMKG 011700Z 28010KT 10SM CLR 22/12 A3011 460 51 1400 280/10 RMK AO2
14840KMKG MKG20060601120509306/01/06 12:05:31  5-MIN KMKG 011705Z 28010KT 10SM CLR 22/11 A3010 460 50 1400 280/10 RMK AO2
14840KMKG MKG20060601121009306/01/06 12:10:31  5-MIN KMKG 011710Z 28009KT 10SM CLR 22/11 A3010 460 50 1400 290/09 RMK AO2
14840KMKG MKG20060601121509306/01/06 12:15:31  5-MIN KMKG 011715Z 28008KT 10SM CLR 22/12 A3010 460 52 1400 290/08 RMK AO2
14840KMKG MKG20060601122009306/01/06 12:20:31  5-MIN KMKG 011720Z 28007KT 10SM CLR 22/12 A3010 460 52 1400 290/07 RMK AO2
14840KMKG MKG20060601122509306/01/06 12:25:31  5-MIN KMKG 011725Z 27007KT 10SM CLR 22/12 A3010 470 52 1400 280/07 RMK AO2
14840KMKG MKG20060601123009306/01/06 12:30:31  5-MIN KMKG 011730Z 30007KT 10SM CLR 22/12 A3010 470 52 1400 300/07 RMK AO2
14840KMKG MKG20060601123509306/01/06 12:35:31  5-MIN KMKG 011735Z 29006KT 10SM CLR 22/12 A3009 470 51 1500 290/06 RMK AO2
14840KMKG MKG20060601124009306/01/06 12:40:31  5-MIN KMKG 011740Z 30007KT 10SM CLR 22/11 A3009 470 49 1500 300/07 RMK AO2
14840KMKG MKG20060601124509306/01/06 12:45:31  5-MIN KMKG 011745Z 30008KT 10SM CLR 23/11 A3009 470 45 1500 300/08 RMK AO2
14840KMKG MKG20060601125012806/01/06 12:50:31  5-MIN KMKG 011750Z 28006KT 10SM CLR 22/11 A3009 470 47 1500 290/06 RMK AO2 SLP187 T02220106 10267 20172 58002
14840KMKG MKG20060601125513106/01/06 12:55:31  5-MIN KMKG 011755Z 29006KT 10SM FEW120 22/11 A3009 480 47 1500 290/06 RMK AO2 SLP187 T02220106 10267 20172 58009
14840KMKG MKG20060601130009306/01/06 13:00:31  5-MIN KMKG 011800Z 29006KT 10SM CLR 23/11 A3009 480 45 1500 290/06 RMK AO2
14840KMKG MKG20060601130509306/01/06 13:05:31  5-MIN KMKG 011805Z 29006KT 10SM CLR 23/09 A3009 480 42 1500 300/06 RMK AO2
14840KMKG MKG20060601131009306/01/06 13:10:31  5-MIN KMKG 011810Z 28005KT 10SM CLR 23/10 A3009 480 44 1500 280/05 RMK AO2
14840KMKG MKG20060601131509306/01/06 13:15:31  5-MIN KMKG 011815Z 26005KT 10SM CLR 23/11 A3009 480 45 1500 260/05 RMK AO2
14840KMKG MKG20060601132009306/01/06 13:20:31  5-MIN KMKG 011820Z 26006KT 10SM CLR 23/11 A3008 480 45 1500 260/06 RMK AO2
14840KMKG MKG20060601132509306/01/06 13:25:31  5-MIN KMKG 011825Z 28005KT 10SM CLR 23/10 A3008 480 44 1500 280/05 RMK AO2
14840KMKG MKG20060601133009306/01/06 13:30:31  5-MIN KMKG 011830Z 25005KT 10SM CLR 23/11 A3008 480 44 1600 250/05 RMK AO2
14840KMKG MKG20060601133509306/01/06 13:35:31  5-MIN KMKG 011835Z 26006KT 10SM CLR 23/10 A3008 480 42 1600 260/06 RMK AO2
14840KMKG MKG20060601134009606/01/06 13:40:31  5-MIN KMKG 011840Z 26006KT 10SM FEW120 24/11 A3008 480 42 1700 270/06 RMK AO2
14840KMKG MKG20060601134509606/01/06 13:45:31  5-MIN KMKG 011845Z 28006KT 10SM FEW120 24/11 A3008 480 41 1700 280/06 RMK AO2
14840KMKG MKG20060601135011306/01/06 13:50:31  5-MIN KMKG 011850Z 29007KT 10SM FEW120 24/11 A3008 490 42 1700 290/07 RMK AO2 SLP183 T02440111
14840KMKG MKG20060601135511306/01/06 13:55:31  5-MIN KMKG 011855Z 30006KT 10SM FEW120 24/11 A3007 490 41 1700 310/06 RMK AO2 SLP181 T02440106
14840KMKG MKG20060601140009306/01/06 14:00:31  5-MIN KMKG 011900Z 27006KT 10SM CLR 25/11 A3007 490 39 1800 270/06 RMK AO2
14840KMKG MKG20060601140509306/01/06 14:05:31  5-MIN KMKG 011905Z 28007KT 10SM CLR 25/11 A3007 490 39 1800 290/07 RMK AO2
14840KMKG MKG20060601141009306/01/06 14:10:31  5-MIN KMKG 011910Z 28006KT 10SM CLR 25/11 A3006 500 39 1800 280/06 RMK AO2
14840KMKG MKG20060601141509306/01/06 14:15:31  5-MIN KMKG 011915Z 28006KT 10SM CLR 25/11 A3006 500 39 1800 290/06 RMK AO2
14840KMKG MKG20060601142009306/01/06 14:20:31  5-MIN KMKG 011920Z VRB05KT 10SM CLR 24/11 A3006 500 42 1700 VRB/05 RMK AO2
14840KMKG MKG20060601142509306/01/06 14:25:31  5-MIN KMKG 011925Z 28006KT 10SM CLR 24/11 A3006 500 44 1700 290/06 RMK AO2
14840KMKG MKG20060601143009306/01/06 14:30:31  5-MIN KMKG 011930Z 28006KT 10SM CLR 24/11 A3006 500 42 1800 280/06 RMK AO2
14840KMKG MKG20060601143509306/01/06 14:35:31  5-MIN KMKG 011935Z 27005KT 10SM CLR 24/11 A3006 500 42 1800 280/05 RMK AO2
14840KMKG MKG20060601144009306/01/06 14:40:31  5-MIN KMKG 011940Z 26007KT 10SM CLR 25/12 A3006 500 43 1800 260/07 RMK AO2
14840KMKG MKG20060601144509306/01/06 14:45:31  5-MIN KMKG 011945Z 26005KT 10SM CLR 25/11 A3005 510 41 1800 260/05 RMK AO2
14840KMKG MKG20060601145011306/01/06 14:50:31  5-MIN KMKG 011950Z 26006KT 10SM FEW120 26/11 A3005 510 40 1900 260/06 RMK AO2 SLP175 T02560111
14840KMKG MKG20060601145511306/01/06 14:55:31  5-MIN KMKG 011955Z 25006KT 10SM FEW120 25/11 A3005 510 39 1800 260/06 RMK AO2 SLP175 T02500106
14840KMKG MKG20060601150009306/01/06 15:00:31  5-MIN KMKG 012000Z 27006KT 10SM CLR 25/11 A3005 510 41 1800 280/06 RMK AO2
14840KMKG MKG20060601150509306/01/06 15:05:31  5-MIN KMKG 012005Z 26007KT 10SM CLR 25/11 A3005 510 39 1800 260/07 RMK AO2
14840KMKG MKG20060601151009306/01/06 15:10:31  5-MIN KMKG 012010Z 27007KT 10SM CLR 25/11 A3005 510 41 1800 270/07 RMK AO2
14840KMKG MKG20060601151509306/01/06 15:15:31  5-MIN KMKG 012015Z 27008KT 10SM CLR 25/11 A3004 520 39 1800 270/08 RMK AO2
14840KMKG MKG20060601152009306/01/06 15:20:31  5-MIN KMKG 012020Z 26008KT 10SM CLR 24/11 A3004 520 41 1800 270/08 RMK AO2
14840KMKG MKG20060601152509306/01/06 15:25:31  5-MIN KMKG 012025Z 28008KT 10SM CLR 25/11 A3004 520 39 1800 290/08 RMK AO2
14840KMKG MKG20060601153009306/01/06 15:30:31  5-MIN KMKG 012030Z 27006KT 10SM CLR 24/10 A3004 520 39 1800 270/06 RMK AO2
14840KMKG MKG20060601153509306/01/06 15:35:31  5-MIN KMKG 012035Z 28007KT 10SM CLR 24/10 A3004 520 39 1800 290/07 RMK AO2
14840KMKG MKG20060601232509206/01/06 23:25:31  5-MIN KMKG 020425Z 13003KT 10SM CLR 17/12 A3002 540 72 900 140/03 RMK AO2
14840KMKG MKG20060601233009206/01/06 23:30:31  5-MIN KMKG 020430Z 00000KT 10SM CLR 17/12 A3002 540 72 900 000/00 RMK AO2
14840KMKG MKG20060601233509206/01/06 23:35:31  5-MIN KMKG 020435Z 00000KT 10SM CLR 17/12 A3002 540 72 900 000/00 RMK AO2
14840KMKG MKG20060601234009206/01/06 23:40:31  5-MIN KMKG 020440Z 00000KT 10SM CLR 17/12 A3002 530 72 900 000/00 RMK AO2
14840KMKG MKG20060601234509206/01/06 23:45:31  5-MIN KMKG 020445Z 00000KT 10SM CLR 17/12 A3002 530 72 900 000/00 RMK AO2
14840KMKG MKG20060601235012006/01/06 23:50:31  5-MIN KMKG 020450Z 00000KT 10SM CLR 17/11 A3003 530 67 1000 000/00 RMK AO2 SLP166 T01720111 402670144
14840KMKG MKG20060601235512006/01/06 23:55:31  5-MIN KMKG 020455Z 00000KT 10SM CLR 18/11 A3003 530 62 1000 000/00 RMK AO2 SLP166 T01780106 402670144
14840KMKG MKG20060602000009306/02/06 00:00:32  5-MIN KMKG 020500Z 00000KT 10SM CLR 18/11 A3003 530 62 1000 000/00 RMK AO2
14840KMKG MKG20060602000509206/02/06 00:05:31  5-MIN KMKG 020505Z 00000KT 10SM CLR 17/11 A3003 530 69 900 000/00 RMK AO2
14840KMKG MKG20060602001009206/02/06 00:10:31  5-MIN KMKG 020510Z 00000KT 10SM CLR 17/11 A3003 530 69 900 000/00 RMK AO2
14840KMKG MKG20060602001509306/02/06 00:15:31  5-MIN KMKG 020515Z 00000KT 10SM CLR 17/11 A3003 530 67 1000 000/00 RMK AO2
14840KMKG MKG20060602002009206/02/06 00:20:31  5-MIN KMKG 020520Z 00000KT 10SM CLR 17/12 A3003 530 72 900 000/00 RMK AO2
14840KMKG MKG20060602002509206/02/06 00:25:31  5-MIN KMKG 020525Z 32003KT 10SM CLR 16/12 A3003 530 75 800 330/03 RMK AO2
14840KMKG MKG20060602003009206/02/06 00:30:31  5-MIN KMKG 020530Z 33003KT 10SM CLR 17/12 A3003 530 75 900 340/03 RMK AO2
14840KMKG MKG20060602003509306/02/06 00:35:31  5-MIN KMKG 020535Z 34003KT 10SM CLR 17/12 A3003 530 72 1000 350/03 RMK AO2
14840KMKG MKG20060602004009206/02/06 00:40:31  5-MIN KMKG 020540Z 35004KT 10SM CLR 17/12 A3003 530 75 900 350/04 RMK AO2
14840KMKG MKG20060602004509206/02/06 00:45:31  5-MIN KMKG 020545Z 36004KT 10SM CLR 17/12 A3003 530 75 900 360/04 RMK AO2
14840KMKG MKG20060602005012706/02/06 00:50:31  5-MIN KMKG 020550Z 00000KT 10SM CLR 16/12 A3003 530 77 800 000/00 RMK AO2 SLP166 T01610122 10228 20161 50000
14840KMKG MKG20060602005512706/02/06 00:55:31  5-MIN KMKG 020555Z 00000KT 10SM CLR 17/12 A3003 530 75 900 000/00 RMK AO2 SLP166 T01670122 10228 20161 51003
14840KMKG MKG20060602010009306/02/06 01:00:31  5-MIN KMKG 020600Z 00000KT 10SM CLR 17/12 A3003 530 69 1000 000/00 RMK AO2
14840KMKG MKG20060602010509306/02/06 01:05:31  5-MIN KMKG 020605Z 00000KT 10SM CLR 17/12 A3003 530 69 1000 000/00 RMK AO2
14840KMKG MKG20060602011009306/02/06 01:10:31  5-MIN KMKG 020610Z 36004KT 10SM CLR 17/12 A3003 530 69 1000 360/04 RMK AO2
14840KMKG MKG20060602011509206/02/06 01:15:31  5-MIN KMKG 020615Z 36005KT 10SM CLR 17/12 A3003 530 72 900 010/05 RMK AO2
14840KMKG MKG20060602012009206/02/06 01:20:31  5-MIN KMKG 020620Z 00000KT 10SM CLR 16/12 A3003 530 77 800 000/00 RMK AO2
14840KMKG MKG20060602012509206/02/06 01:25:31  5-MIN KMKG 020625Z 00000KT 10SM CLR 16/12 A3003 530 75 800 000/00 RMK AO2
14840KMKG MKG20060602013009206/02/06 01:30:31  5-MIN KMKG 020630Z 00000KT 10SM CLR 17/11 A3003 530 69 900 000/00 RMK AO2
14840KMKG MKG20060602013509306/02/06 01:35:31  5-MIN KMKG 020635Z 00000KT 10SM CLR 17/11 A3002 530 67 1000 000/00 RMK AO2
14840KMKG MKG20060602014009206/02/06 01:40:31  5-MIN KMKG 020640Z 00000KT 10SM CLR 17/11 A3002 530 69 900 000/00 RMK AO2
14840KMKG MKG20060602014509206/02/06 01:45:31  5-MIN KMKG 020645Z 35003KT 10SM CLR 17/11 A3002 530 69 900 360/03 RMK AO2
14840KMKG MKG20060602015010906/02/06 01:50:31  5-MIN KMKG 020650Z 36003KT 10SM CLR 16/11 A3003 530 72 800 360/03 RMK AO2 SLP165 T01610111
14840KMKG MKG20060602015510906/02/06 01:55:31  5-MIN KMKG 020655Z 36004KT 10SM CLR 16/11 A3003 530 72 800 360/04 RMK AO2 SLP166 T01610111
14840KMKG MKG20060602020009206/02/06 02:00:31  5-MIN KMKG 020700Z 36005KT 10SM CLR 15/11 A3003 530 77 700 360/05 RMK AO2
14840KMKG MKG20060602020509206/02/06 02:05:31  5-MIN KMKG 020705Z 01003KT 10SM CLR 15/11 A3003 530 77 700 010/03 RMK AO2
14840KMKG MKG20060602021009206/02/06 02:10:31  5-MIN KMKG 020710Z 00000KT 10SM CLR 16/11 A3002 540 74 800 000/00 RMK AO2
14840KMKG MKG20060602021509206/02/06 02:15:31  5-MIN KMKG 020715Z 00000KT 10SM CLR 16/11 A3002 530 72 800 000/00 RMK AO2
14840KMKG MKG20060602022009206/02/06 02:20:31  5-MIN KMKG 020720Z 00000KT 10SM CLR 16/11 A3002 540 72 800 000/00 RMK AO2
14840KMKG MKG20060602022509206/02/06 02:25:31  5-MIN KMKG 020725Z 00000KT 10SM CLR 16/11 A3002 540 72 800 000/00 RMK AO2
14840KMKG MKG20060602023009206/02/06 02:30:31  5-MIN KMKG 020730Z 00000KT 10SM CLR 16/11 A3002 540 72 800 000/00 RMK AO2
14840KMKG MKG20060602023509206/02/06 02:35:31  5-MIN KMKG 020735Z 00000KT 10SM CLR 15/11 A3002 540 77 700 000/00 RMK AO2
14840KMKG MKG20060602024009206/02/06 02:40:31  5-MIN KMKG 020740Z 00000KT 10SM CLR 14/11 A3002 540 80 600 000/00 RMK AO2
14840KMKG MKG20060602024509206/02/06 02:45:31  5-MIN KMKG 020745Z 00000KT 10SM CLR 16/11 A3002 540 74 800 000/00 RMK AO2
14840KMKG MKG20060602025010906/02/06 02:50:31  5-MIN KMKG 020750Z 34003KT 10SM CLR 16/11 A3002 540 74 800 340/03 RMK AO2 SLP164 T01560111
14840KMKG MKG20060602025510906/02/06 02:55:31  5-MIN KMKG 020755Z 00000KT 10SM CLR 15/11 A3002 540 77 700 000/00 RMK AO2 SLP163 T01500111
14840KMKG MKG20060602030009206/02/06 03:00:31  5-MIN KMKG 020800Z 00000KT 10SM CLR 15/11 A3002 540 77 700 000/00 RMK AO2
14840KMKG MKG20060602030509206/02/06 03:05:31  5-MIN KMKG 020805Z 00000KT 10SM CLR 15/11 A3001 540 77 700 000/00 RMK AO2
14840KMKG MKG20060602031009206/02/06 03:10:31  5-MIN KMKG 020810Z 00000KT 10SM CLR 15/11 A3001 540 77 700 000/00 RMK AO2
14840KMKG MKG20060602031509206/02/06 03:15:31  5-MIN KMKG 020815Z 34003KT 10SM CLR 15/11 A3001 540 77 700 350/03 RMK AO2
14840KMKG MKG20060602032009206/02/06 03:20:31  5-MIN KMKG 020820Z 35004KT 10SM CLR 14/11 A3001 540 80 600 350/04 RMK AO2
14840KMKG MKG20060602032509206/02/06 03:25:31  5-MIN KMKG 020825Z 34005KT 10SM CLR 14/11 A3001 540 80 600 340/05 RMK AO2
14840KMKG MKG20060602033009206/02/06 03:30:31  5-MIN KMKG 020830Z 35005KT 10SM CLR 14/11 A3001 540 80 600 350/05 RMK AO2
14840KMKG MKG20060602033509206/02/06 03:35:31  5-MIN KMKG 020835Z 34005KT 10SM CLR 14/11 A3001 540 80 600 350/05 RMK AO2
14840KMKG MKG20060602034009206/02/06 03:40:31  5-MIN KMKG 020840Z 35006KT 10SM CLR 14/11 A3002 540 80 600 350/06 RMK AO2
14840KMKG MKG20060602034509206/02/06 03:45:31  5-MIN KMKG 020845Z 36004KT 10SM CLR 15/11 A3001 550 77 700 360/04 RMK AO2
14840KMKG MKG20060602035011506/02/06 03:50:31  5-MIN KMKG 020850Z 35005KT 10SM CLR 15/11 A3001 540 77 700 350/05 RMK AO2 SLP161 T01500111 51003
14840KMKG MKG20060602035511506/02/06 03:55:31  5-MIN KMKG 020855Z 35005KT 10SM CLR 15/11 A3001 550 77 700 360/05 RMK AO2 SLP161 T01500111 58005
14840KMKG MKG20060602040009206/02/06 04:00:31  5-MIN KMKG 020900Z 36004KT 10SM CLR 15/11 A3001 550 77 700 360/04 RMK AO2
14840KMKG MKG20060602040509206/02/06 04:05:31  5-MIN KMKG 020905Z 01004KT 10SM CLR 14/11 A3001 550 80 600 010/04 RMK AO2
14840KMKG MKG20060602041009206/02/06 04:10:31  5-MIN KMKG 020910Z 01003KT 10SM CLR 14/11 A3001 550 80 700 020/03 RMK AO2
14840KMKG MKG20060602041509206/02/06 04:15:31  5-MIN KMKG 020915Z 00000KT 10SM CLR 16/11 A3001 550 72 800 000/00 RMK AO2
14840KMKG MKG20060602042009206/02/06 04:20:31  5-MIN KMKG 020920Z 01005KT 10SM CLR 15/11 A3001 550 74 700 020/05 RMK AO2
14840KMKG MKG20060602042509206/02/06 04:25:31  5-MIN KMKG 020925Z 01005KT 10SM CLR 15/10 A3001 550 72 700 010/05 RMK AO2
14840KMKG MKG20060602043009206/02/06 04:30:31  5-MIN KMKG 020930Z 01005KT 10SM CLR 16/10 A3001 550 69 800 010/05 RMK AO2
14840KMKG MKG20060602043509206/02/06 04:35:31  5-MIN KMKG 020935Z 36006KT 10SM CLR 15/10 A3001 550 72 700 360/06 RMK AO2
14840KMKG MKG20060602044009206/02/06 04:40:31  5-MIN KMKG 020940Z 36008KT 10SM CLR 15/11 A3001 550 74 700 010/08 RMK AO2
14840KMKG MKG20060602044509206/02/06 04:45:31  5-MIN KMKG 020945Z 36007KT 10SM CLR 16/10 A3001 550 69 800 010/07 RMK AO2
14840KMKG MKG20060602045010906/02/06 04:50:31  5-MIN KMKG 020950Z 36006KT 10SM CLR 15/10 A3001 550 72 700 010/06 RMK AO2 SLP159 T01500100
14840KMKG MKG20060602045510906/02/06 04:55:31  5-MIN KMKG 020955Z 01005KT 10SM CLR 15/10 A3001 550 72 700 010/05 RMK AO2 SLP160 T01500100
14840KMKG MKG20060602050009206/02/06 05:00:31  5-MIN KMKG 021000Z 36004KT 10SM CLR 15/10 A3001 550 72 700 360/04 RMK AO2
14840KMKG MKG20060602050509206/02/06 05:05:31  5-MIN KMKG 021005Z 36005KT 10SM CLR 15/10 A3001 540 72 700 010/05 RMK AO2
14840KMKG MKG20060602051009206/02/06 05:10:31  5-MIN KMKG 021010Z 00000KT 10SM CLR 14/10 A3001 550 74 600 000/00 RMK AO2
14840KMKG MKG20060602051509206/02/06 05:15:31  5-MIN KMKG 021015Z 01003KT 10SM CLR 14/10 A3001 550 74 600 020/03 RMK AO2
14840KMKG MKG20060602052009206/02/06 05:20:31  5-MIN KMKG 021020Z 00000KT 10SM CLR 14/10 A3001 550 74 600 000/00 RMK AO2
14840KMKG MKG20060602052509206/02/06 05:25:31  5-MIN KMKG 021025Z 34004KT 10SM CLR 14/10 A3001 540 74 600 350/04 RMK AO2
14840KMKG MKG20060602053009206/02/06 05:30:31  5-MIN KMKG 021030Z 35005KT 10SM CLR 14/10 A3002 540 74 600 350/05 RMK AO2
14840KMKG MKG20060602053509206/02/06 05:35:31  5-MIN KMKG 021035Z 35005KT 10SM CLR 14/11 A3002 540 77 600 360/05 RMK AO2
14840KMKG MKG20060602054009206/02/06 05:40:31  5-MIN KMKG 021040Z 35006KT 10SM CLR 15/11 A3002 540 74 700 360/06 RMK AO2
14840KMKG MKG20060602054509206/02/06 05:45:31  5-MIN KMKG 021045Z 35005KT 10SM CLR 15/11 A3002 540 74 700 360/05 RMK AO2
14840KMKG MKG20060602055010906/02/06 05:50:31  5-MIN KMKG 021050Z 01004KT 10SM CLR 15/11 A3002 540 74 700 020/04 RMK AO2 SLP164 T01500106
14840KMKG MKG20060602055510906/02/06 05:55:31  5-MIN KMKG 021055Z 04004KT 10SM CLR 15/10 A3002 540 72 700 040/04 RMK AO2 SLP164 T01500100
14840KMKG MKG20060602060009206/02/06 06:00:31  5-MIN KMKG 021100Z 00000KT 10SM CLR 15/10 A3002 540 72 700 000/00 RMK AO2
14840KMKG MKG20060602060509206/02/06 06:05:31  5-MIN KMKG 021105Z 04003KT 10SM CLR 16/10 A3002 540 69 800 040/03 RMK AO2
14840KMKG MKG20060602061009506/02/06 06:10:31  5-MIN KMKG 021110Z 00000KT 10SM FEW085 16/10 A3001 540 69 800 000/00 RMK AO2
14840KMKG MKG20060602061509206/02/06 06:15:31  5-MIN KMKG 021115Z 09003KT 10SM CLR 15/11 A3001 550 74 700 090/03 RMK AO2
14840KMKG MKG20060602062009206/02/06 06:20:31  5-MIN KMKG 021120Z 07003KT 10SM CLR 15/11 A3001 550 74 700 080/03 RMK AO2
14840KMKG MKG20060602062509206/02/06 06:25:31  5-MIN KMKG 021125Z 00000KT 10SM CLR 15/11 A3001 540 74 700 000/00 RMK AO2
14840KMKG MKG20060602063009206/02/06 06:30:31  5-MIN KMKG 021130Z 00000KT 10SM CLR 15/11 A3001 540 74 700 000/00 RMK AO2
14840KMKG MKG20060602063509206/02/06 06:35:31  5-MIN KMKG 021135Z 00000KT 10SM CLR 16/11 A3001 540 72 800 000/00 RMK AO2
14840KMKG MKG20060602064009506/02/06 06:40:31  5-MIN KMKG 021140Z 00000KT 10SM FEW085 16/11 A3001 540 69 800 000/00 RMK AO2
14840KMKG MKG20060602064509206/02/06 06:45:31  5-MIN KMKG 021145Z 00000KT 10SM CLR 16/11 A3001 550 69 800 000/00 RMK AO2
14840KMKG MKG20060602065012706/02/06 06:50:31  5-MIN KMKG 021150Z 00000KT 10SM CLR 16/11 A3001 550 69 800 000/00 RMK AO2 SLP160 T01610106 10172 20144 58005
14840KMKG MKG20060602065513006/02/06 06:55:31  5-MIN KMKG 021155Z 01004KT 10SM FEW085 17/11 A3001 540 67 900 020/04 RMK AO2 SLP161 T01670106 10172 20144 50001
14840KMKG MKG20060602070009306/02/06 07:00:31  5-MIN KMKG 021200Z 36005KT 10SM CLR 17/11 A3001 540 64 1000 010/05 RMK AO2
14840KMKG MKG20060602070509206/02/06 07:05:31  5-MIN KMKG 021205Z 01005KT 10SM CLR 17/11 A3002 540 67 900 020/05 RMK AO2
14840KMKG MKG20060602071009306/02/06 07:10:31  5-MIN KMKG 021210Z 04004KT 10SM CLR 17/11 A3001 540 64 1000 050/04 RMK AO2
14840KMKG MKG20060602071509306/02/06 07:15:31  5-MIN KMKG 021215Z 04005KT 10SM CLR 18/11 A3001 540 62 1000 040/05 RMK AO2
14840KMKG MKG20060602072009306/02/06 07:20:31  5-MIN KMKG 021220Z 04006KT 10SM CLR 18/11 A3002 540 62 1000 040/06 RMK AO2
14840KMKG MKG20060602072509306/02/06 07:25:31  5-MIN KMKG 021225Z 06005KT 10SM CLR 18/11 A3002 540 62 1000 060/05 RMK AO2
14840KMKG MKG20060602073009306/02/06 07:30:31  5-MIN KMKG 021230Z 07004KT 10SM CLR 18/11 A3002 540 62 1000 070/04 RMK AO2
14840KMKG MKG20060602073509306/02/06 07:35:31  5-MIN KMKG 021235Z 06006KT 10SM CLR 18/11 A3002 540 62 1000 060/06 RMK AO2
14840KMKG MKG20060602074009306/02/06 07:40:31  5-MIN KMKG 021240Z 07005KT 10SM CLR 18/11 A3002 540 64 1000 070/05 RMK AO2
14840KMKG MKG20060602074509306/02/06 07:45:31  5-MIN KMKG 021245Z 06006KT 10SM CLR 18/11 A3002 540 62 1100 060/06 RMK AO2
14840KMKG MKG20060602075011006/02/06 07:50:31  5-MIN KMKG 021250Z 07005KT 10SM CLR 18/11 A3001 540 62 1100 070/05 RMK AO2 SLP161 T01830111
14840KMKG MKG20060602075511006/02/06 07:55:31  5-MIN KMKG 021255Z 06005KT 10SM CLR 18/12 A3001 540 65 1100 070/05 RMK AO2 SLP161 T01830117
14840KMKG MKG20060602080009306/02/06 08:00:31  5-MIN KMKG 021300Z 07004KT 10SM CLR 18/12 A3001 540 65 1100 070/04 RMK AO2
14840KMKG MKG20060602080509306/02/06 08:05:31  5-MIN KMKG 021305Z 07005KT 10SM CLR 19/12 A3002 540 62 1200 070/05 RMK AO2
14840KMKG MKG20060602081009306/02/06 08:10:31  5-MIN KMKG 021310Z 06006KT 10SM CLR 19/12 A3001 540 62 1200 060/06 RMK AO2
14840KMKG MKG20060602081509306/02/06 08:15:31  5-MIN KMKG 021315Z 05004KT 10SM CLR 19/12 A3002 540 62 1200 050/04 RMK AO2
14840KMKG MKG20060602082009306/02/06 08:20:31  5-MIN KMKG 021320Z 04004KT 10SM CLR 19/12 A3002 540 62 1200 040/04 RMK AO2
14840KMKG MKG20060602082509306/02/06 08:25:31  5-MIN KMKG 021325Z 04004KT 10SM CLR 20/12 A3002 540 60 1300 050/04 RMK AO2
14840KMKG MKG20060602083009306/02/06 08:30:31  5-MIN KMKG 021330Z 05005KT 10SM CLR 20/12 A3002 540 60 1300 050/05 RMK AO2
14840KMKG MKG20060602083509306/02/06 08:35:31  5-MIN KMKG 021335Z 05006KT 10SM CLR 20/12 A3002 540 60 1300 060/06 RMK AO2
14840KMKG MKG20060602084009306/02/06 08:40:31  5-MIN KMKG 021340Z 05005KT 10SM CLR 20/12 A3002 540 60 1300 060/05 RMK AO2
14840KMKG MKG20060602084509306/02/06 08:45:31  5-MIN KMKG 021345Z 05005KT 10SM CLR 21/13 A3002 540 60 1400 050/05 RMK AO2
14840KMKG MKG20060602085011006/02/06 08:50:31  5-MIN KMKG 021350Z 04004KT 10SM CLR 21/13 A3002 540 60 1400 050/04 RMK AO2 SLP163 T02060128
14840KMKG MKG20060602085511006/02/06 08:55:31  5-MIN KMKG 021355Z 08005KT 10SM CLR 21/13 A3002 540 60 1400 080/05 RMK AO2 SLP164 T02060128
14840KMKG MKG20060602090009306/02/06 09:00:31  5-MIN KMKG 021400Z 07005KT 10SM CLR 21/13 A3002 540 60 1400 080/05 RMK AO2
14840KMKG MKG20060602090509306/02/06 09:05:31  5-MIN KMKG 021405Z 08006KT 10SM CLR 21/13 A3002 540 58 1400 080/06 RMK AO2
14840KMKG MKG20060602091009306/02/06 09:10:31  5-MIN KMKG 021410Z 09006KT 10SM CLR 21/13 A3002 540 58 1400 090/06 RMK AO2
14840KMKG MKG20060602091509306/02/06 09:15:31  5-MIN KMKG 021415Z 09005KT 10SM CLR 22/13 A3002 540 58 1500 090/05 RMK AO2
14840KMKG MKG20060602092009306/02/06 09:20:31  5-MIN KMKG 021420Z 08006KT 10SM CLR 21/13 A3002 540 58 1400 090/06 RMK AO2
14840KMKG MKG20060602092509306/02/06 09:25:31  5-MIN KMKG 021425Z 09006KT 10SM CLR 22/13 A3002 540 56 1500 090/06 RMK AO2
14840KMKG MKG20060602093009306/02/06 09:30:31  5-MIN KMKG 021430Z 08005KT 10SM CLR 22/13 A3002 540 56 1500 080/05 RMK AO2
14840KMKG MKG20060602093509306/02/06 09:35:31  5-MIN KMKG 021435Z 06005KT 10SM CLR 22/13 A3002 540 54 1500 060/05 RMK AO2
14840KMKG MKG20060602094009306/02/06 09:40:31  5-MIN KMKG 021440Z VRB06KT 10SM CLR 22/13 A3002 540 56 1500 VRB/06 RMK AO2
14840KMKG MKG20060602094509306/02/06 09:45:31  5-MIN KMKG 021445Z VRB03KT 10SM CLR 22/13 A3002 540 56 1500 VRB/03 RMK AO2
14840KMKG MKG20060602095011606/02/06 09:50:31  5-MIN KMKG 021450Z 09005KT 10SM CLR 22/13 A3002 540 54 1500 090/05 RMK AO2 SLP163 T02220128 50001
14840KMKG MKG20060602095512606/02/06 09:55:31  5-MIN KMKG 021455Z 08006KT 10SM FEW080 SCT120 22/13 A3002 540 54 1500 080/06 RMK AO2 SLP163 T02220128 50002
14840KMKG MKG20060602100009306/02/06 10:00:31  5-MIN KMKG 021500Z 08004KT 10SM CLR 22/13 A3002 540 54 1500 080/04 RMK AO2
14840KMKG MKG20060602100509306/02/06 10:05:31  5-MIN KMKG 021505Z 05005KT 10SM CLR 23/13 A3002 540 55 1600 060/05 RMK AO2
14840KMKG MKG20060602101009306/02/06 10:10:31  5-MIN KMKG 021510Z VRB04KT 10SM CLR 23/13 A3002 540 53 1600 VRB/04 RMK AO2
14840KMKG MKG20060602101509306/02/06 10:15:31  5-MIN KMKG 021515Z 05005KT 10SM CLR 23/13 A3002 540 53 1700 050/05 RMK AO2
14840KMKG MKG20060602102009306/02/06 10:20:31  5-MIN KMKG 021520Z 05004KT 10SM CLR 23/13 A3002 540 51 1700 050/04 RMK AO2
14840KMKG MKG20060602102509306/02/06 10:25:31  5-MIN KMKG 021525Z 08003KT 10SM CLR 23/12 A3002 540 49 1700 090/03 RMK AO2
14840KMKG MKG20060602103009606/02/06 10:30:31  5-MIN KMKG 021530Z VRB03KT 10SM FEW100 23/13 A3001 540 51 1700 VRB/03 RMK AO2
14840KMKG MKG20060602103509606/02/06 10:35:31  5-MIN KMKG 021535Z 09004KT 10SM FEW100 24/13 A3001 540 49 1700 100/04 RMK AO2
14840KMKG MKG20060602104009606/02/06 10:40:31  5-MIN KMKG 021540Z 36004KT 10SM FEW100 23/13 A3001 540 51 1700 360/04 RMK AO2
14840KMKG MKG20060602104509606/02/06 10:45:31  5-MIN KMKG 021545Z VRB03KT 10SM FEW100 24/13 A3001 540 51 1700 VRB/03 RMK AO2
14840KMKG MKG20060602105011306/02/06 10:50:31  5-MIN KMKG 021550Z 02003KT 10SM SCT100 24/13 A3001 550 47 1800 020/03 RMK AO2 SLP160 T02440128
14840KMKG MKG20060602105511306/02/06 10:55:31  5-MIN KMKG 021555Z 00000KT 10SM SCT100 24/13 A3001 550 47 1800 000/00 RMK AO2 SLP160 T02440128
14840KMKG MKG20060602110009606/02/06 11:00:31  5-MIN KMKG 021600Z 00000KT 10SM FEW100 24/13 A3001 550 47 1800 000/00 RMK AO2
14840KMKG MKG20060602110509306/02/06 11:05:31  5-MIN KMKG 021605Z 00000KT 10SM CLR 24/13 A3001 550 47 1800 000/00 RMK AO2
14840KMKG MKG20060602111009306/02/06 11:10:31  5-MIN KMKG 021610Z VRB03KT 10SM CLR 25/13 A3001 550 46 1900 VRB/03 RMK AO2
14840KMKG MKG20060602111509306/02/06 11:15:31  5-MIN KMKG 021615Z 33006KT 10SM CLR 25/12 A3001 550 44 1900 330/06 RMK AO2
14840KMKG MKG20060602112009306/02/06 11:20:31  5-MIN KMKG 021620Z 34007KT 10SM CLR 26/12 A3001 550 43 1900 350/07 RMK AO2
14840KMKG MKG20060602112509306/02/06 11:25:31  5-MIN KMKG 021625Z 34005KT 10SM CLR 26/12 A3001 550 43 1900 350/05 RMK AO2
14840KMKG MKG20060602113010306/02/06 11:30:31  5-MIN KMKG 021630Z VRB03KT 10SM FEW080 SCT110 24/11 A3001 550 42 1800 VRB/03 RMK AO2
14840KMKG MKG20060602113510306/02/06 11:35:31  5-MIN KMKG 021635Z VRB06KT 10SM FEW080 SCT110 26/12 A3001 550 43 1900 VRB/06 RMK AO2
14840KMKG MKG20060602114010306/02/06 11:40:31  5-MIN KMKG 021640Z VRB05KT 10SM FEW080 SCT110 26/12 A3001 550 41 1900 VRB/05 RMK AO2
14840KMKG MKG20060602114510306/02/06 11:45:31  5-MIN KMKG 021645Z 02006KT 10SM FEW080 SCT110 26/11 A3001 550 37 2000 020/06 RMK AO2
14840KMKG MKG20060602115012006/02/06 11:50:31  5-MIN KMKG 021650Z VRB04KT 10SM FEW060 SCT100 26/10 A3001 550 36 2000 VRB/04 RMK AO2 SLP158 T02610100
14840KMKG MKG20060602115512006/02/06 11:55:31  5-MIN KMKG 021655Z 01008KT 10SM FEW070 SCT100 27/11 A3001 550 36 2100 010/08 RMK AO2 SLP159 T02670106
14840KMKG MKG20060602120010306/02/06 12:00:31  5-MIN KMKG 021700Z VRB05KT 10SM FEW070 SCT100 26/11 A3001 550 37 2000 VRB/05 RMK AO2
14840KMKG MKG20060602120510306/02/06 12:05:31  5-MIN KMKG 021705Z 35007KT 10SM FEW070 SCT100 26/11 A3001 550 38 1900 350/07 RMK AO2
14840KMKG MKG20060602121010306/02/06 12:10:31  5-MIN KMKG 021710Z 04007KT 10SM FEW070 SCT100 26/10 A3001 550 36 2000 040/07 RMK AO2
14840KMKG MKG20060602121510306/02/06 12:15:31  5-MIN KMKG 021715Z 04007KT 10SM FEW065 SCT100 26/09 A3001 550 34 2000 040/07 RMK AO2
14840KMKG MKG20060602122010306/02/06 12:20:31  5-MIN KMKG 021720Z 05007KT 10SM FEW065 SCT090 27/09 A3001 550 33 2100 060/07 RMK AO2
14840KMKG MKG20060602122511906/02/06 12:25:31  5-MIN KMKG 021725Z 34007KT 310V010 10SM FEW065 SCT090 26/09 A3000 550 34 2000 340/07 310V010 RMK AO2
14840KMKG MKG20060602123010306/02/06 12:30:31  5-MIN KMKG 021730Z 29008KT 10SM FEW060 SCT080 26/13 A3000 560 44 1900 300/08 RMK AO2
14840KMKG MKG20060602123510306/02/06 12:35:31  5-MIN KMKG 021735Z 29008KT 10SM FEW060 SCT080 26/13 A3000 560 44 1900 290/08 RMK AO2
14840KMKG MKG20060602124010306/02/06 12:40:31  5-MIN KMKG 021740Z 28009KT 10SM FEW060 SCT080 26/13 A3000 560 46 1900 280/09 RMK AO2
14840KMKG MKG20060602124509606/02/06 12:45:31  5-MIN KMKG 021745Z 28010KT 10SM BKN070 24/13 A3000 560 47 1800 290/10 RMK AO2
14840KMKG MKG20060602125013106/02/06 12:50:31  5-MIN KMKG 021750Z 28008KT 10SM BKN070 24/12 A3000 560 47 1800 280/08 RMK AO2 SLP156 T02390122 10267 20167 50002
14840KMKG MKG20060602125513106/02/06 12:55:31  5-MIN KMKG 021755Z 28009KT 10SM SCT065 25/13 A2999 560 48 1900 280/09 RMK AO2 SLP155 T02500133 10267 20167 58008
14840KMKG MKG20060602130009606/02/06 13:00:31  5-MIN KMKG 021800Z 27009KT 10SM FEW065 25/13 A2999 560 46 1900 270/09 RMK AO2
14840KMKG MKG20060602130509606/02/06 13:05:31  5-MIN KMKG 021805Z 29012KT 10SM SCT065 25/13 A2999 560 46 1900 290/12 RMK AO2
14840KMKG MKG20060602131009606/02/06 13:10:31  5-MIN KMKG 021810Z 28011KT 10SM SCT065 25/13 A2999 570 46 1900 290/11 RMK AO2
14840KMKG MKG20060602131509606/02/06 13:15:31  5-MIN KMKG 021815Z 28010KT 10SM SCT065 25/13 A2999 570 46 1900 290/10 RMK AO2
14840KMKG MKG20060602132009606/02/06 13:20:31  5-MIN KMKG 021820Z 29011KT 10SM SCT065 24/13 A2999 570 47 1800 300/11 RMK AO2
14840KMKG MKG20060602132509606/02/06 13:25:31  5-MIN KMKG 021825Z 28009KT 10SM SCT065 24/12 A2999 570 46 1800 290/09 RMK AO2
14840KMKG MKG20060602133009606/02/06 13:30:31  5-MIN KMKG 021830Z 28011KT 10SM SCT065 24/12 A2999 570 47 1800 280/11 RMK AO2
14840KMKG MKG20060602133509606/02/06 13:35:31  5-MIN KMKG 021835Z 30011KT 10SM SCT065 24/12 A2999 570 46 1800 310/11 RMK AO2
14840KMKG MKG20060602134009606/02/06 13:40:31  5-MIN KMKG 021840Z 29010KT 10SM SCT065 23/12 A2998 570 47 1700 300/10 RMK AO2
14840KMKG MKG20060602134509606/02/06 13:45:31  5-MIN KMKG 021845Z 29010KT 10SM SCT065 23/12 A2998 570 49 1700 290/10 RMK AO2
14840KMKG MKG20060602135011306/02/06 13:50:31  5-MIN KMKG 021850Z 28010KT 10SM SCT065 23/12 A2998 570 47 1700 290/10 RMK AO2 SLP151 T02330117
14840KMKG MKG20060602135511306/02/06 13:55:31  5-MIN KMKG 021855Z 28009KT 10SM SCT065 23/12 A2998 570 49 1700 290/09 RMK AO2 SLP151 T02330122
14840KMKG MKG20060602140009606/02/06 14:00:31  5-MIN KMKG 021900Z 28008KT 10SM SCT065 24/12 A2998 570 47 1800 290/08 RMK AO2
14840KMKG MKG20060602140509606/02/06 14:05:31  5-MIN KMKG 021905Z 30010KT 10SM SCT065 24/12 A2998 570 44 1800 300/10 RMK AO2
14840KMKG MKG20060602141009606/02/06 14:10:31  5-MIN KMKG 021910Z 31009KT 10SM SCT065 24/12 A2998 570 44 1800 310/09 RMK AO2
14840KMKG MKG20060602141509606/02/06 14:15:31  5-MIN KMKG 021915Z 30010KT 10SM SCT065 24/11 A2998 570 42 1800 300/10 RMK AO2
14840KMKG MKG20060602142009606/02/06 14:20:31  5-MIN KMKG 021920Z 30012KT 10SM SCT065 25/11 A2998 570 39 1900 300/12 RMK AO2
14840KMKG MKG20060602142509606/02/06 14:25:31  5-MIN KMKG 021925Z 30011KT 10SM SCT065 25/11 A2998 580 39 1900 300/11 RMK AO2
14840KMKG MKG20060602143009606/02/06 14:30:31  5-MIN KMKG 021930Z 30012KT 10SM SCT065 26/10 A2998 580 37 2000 310/12 RMK AO2
14840KMKG MKG20060602143509606/02/06 14:35:31  5-MIN KMKG 021935Z 30010KT 10SM SCT065 26/11 A2998 580 37 2000 310/10 RMK AO2
14840KMKG MKG20060602144009606/02/06 14:40:31  5-MIN KMKG 021940Z 31008KT 10SM SCT065 26/11 A2998 580 38 2000 310/08 RMK AO2
14840KMKG MKG20060602144509606/02/06 14:45:31  5-MIN KMKG 021945Z 30012KT 10SM SCT065 26/11 A2997 580 38 2000 300/12 RMK AO2
14840KMKG MKG20060602145011306/02/06 14:50:31  5-MIN KMKG 021950Z 30010KT 10SM SCT065 25/11 A2997 580 39 1900 300/10 RMK AO2 SLP148 T02500106
14840KMKG MKG20060602145511306/02/06 14:55:31  5-MIN KMKG 021955Z 29011KT 10SM SCT065 26/11 A2997 580 40 2000 290/11 RMK AO2 SLP148 T02560111
14840KMKG MKG20060602150009606/02/06 15:00:31  5-MIN KMKG 022000Z 30013KT 10SM SCT065 25/11 A2997 580 39 1900 310/13 RMK AO2
14840KMKG MKG20060602150509606/02/06 15:05:31  5-MIN KMKG 022005Z 29011KT 10SM SCT065 25/11 A2997 580 39 1900 290/11 RMK AO2
14840KMKG MKG20060602151009606/02/06 15:10:31  5-MIN KMKG 022010Z 29011KT 10SM SCT065 25/11 A2997 590 41 1900 300/11 RMK AO2
14840KMKG MKG20060602151509606/02/06 15:15:31  5-MIN KMKG 022015Z 30010KT 10SM SCT065 25/11 A2997 590 41 1900 300/10 RMK AO2
14840KMKG MKG20060602152009606/02/06 15:20:31  5-MIN KMKG 022020Z 31009KT 10SM SCT065 26/12 A2997 590 41 2000 310/09 RMK AO2
14840KMKG MKG20060602152511206/02/06 15:25:31  5-MIN KMKG 022025Z 32011KT 290V350 10SM SCT065 26/11 A2997 590 38 2000 320/11 290V350 RMK AO2
14840KMKG MKG20060602153010206/02/06 15:30:31  5-MIN KMKG 022030Z 32012G17KT 10SM SCT065 26/11 A2996 590 38 2000 330/12G17 RMK AO2
14840KMKG MKG20060602153510206/02/06 15:35:31  5-MIN KMKG 022035Z 32010G17KT 10SM SCT065 26/10 A2996 590 37 2000 320/10G17 RMK AO2
14840KMKG MKG20060602154009606/02/06 15:40:31  5-MIN KMKG 022040Z 29010KT 10SM SCT065 26/10 A2996 590 37 2000 300/10 RMK AO2
14840KMKG MKG20060602154510206/02/06 15:45:31  5-MIN KMKG 022045Z 31009G16KT 10SM SCT065 26/10 A2996 590 36 2000 310/09G16 RMK AO2
14840KMKG MKG20060602155011906/02/06 15:50:31  5-MIN KMKG 022050Z 30011KT 10SM SCT065 26/10 A2996 590 37 2000 310/11 RMK AO2 SLP144 T02560100 58008
14840KMKG MKG20060602155511906/02/06 15:55:31  5-MIN KMKG 022055Z 30010KT 10SM SCT065 26/10 A2996 590 37 2000 300/10 RMK AO2 SLP144 T02560100 58010
14840KMKG MKG20060602160011206/02/06 16:00:31  5-MIN KMKG 022100Z 31010KT 280V340 10SM SCT065 26/11 A2996 590 38 2000 310/10 280V340 RMK AO2
14840KMKG MKG20060602160509606/02/06 16:05:31  5-MIN KMKG 022105Z 29008KT 10SM SCT065 26/11 A2997 590 38 2000 300/08 RMK AO2
14840KMKG MKG20060602161009606/02/06 16:10:31  5-MIN KMKG 022110Z 29010KT 10SM SCT065 25/11 A2997 590 39 1900 300/10 RMK AO2
14840KMKG MKG20060602161509606/02/06 16:15:31  5-MIN KMKG 022115Z 31008KT 10SM SCT065 25/11 A2997 590 39 1900 320/08 RMK AO2
14840KMKG MKG20060602162009606/02/06 16:20:31  5-MIN KMKG 022120Z 32008KT 10SM SCT065 26/11 A2997 590 40 2000 320/08 RMK AO2
14840KMKG MKG20060602162509606/02/06 16:25:31  5-MIN KMKG 022125Z 33007KT 10SM SCT065 26/12 A2997 590 41 2000 340/07 RMK AO2
14840KMKG MKG20060602163009606/02/06 16:30:31  5-MIN KMKG 022130Z 34007KT 10SM SCT065 25/11 A2997 580 41 1900 340/07 RMK AO2
14840KMKG MKG20060602163509606/02/06 16:35:31  5-MIN KMKG 022135Z 31008KT 10SM SCT065 26/12 A2997 590 41 2000 320/08 RMK AO2
14840KMKG MKG20060602164009606/02/06 16:40:31  5-MIN KMKG 022140Z 30007KT 10SM SCT065 25/11 A2997 590 39 1900 300/07 RMK AO2
14840KMKG MKG20060602164509606/02/06 16:45:31  5-MIN KMKG 022145Z VRB05KT 10SM SCT065 26/11 A2998 580 40 2000 VRB/05 RMK AO2
14840KMKG MKG20060602165011306/02/06 16:50:31  5-MIN KMKG 022150Z VRB05KT 10SM SCT065 26/11 A2997 580 38 2000 VRB/05 RMK AO2 SLP148 T02560106
14840KMKG MKG20060602165512006/02/06 16:55:31  5-MIN KMKG 022155Z 13009KT 10SM SCT063 SCT090 23/11 A2997 580 45 1700 130/09 RMK AO2 SLP148 T02330111
14840KMKG MKG20060602170010306/02/06 17:00:31  5-MIN KMKG 022200Z 13009KT 10SM SCT063 SCT090 23/11 A2997 580 44 1700 130/09 RMK AO2
14840KMKG MKG20060602170510306/02/06 17:05:31  5-MIN KMKG 022205Z 13007KT 10SM SCT063 SCT090 23/11 A2997 580 44 1700 130/07 RMK AO2
14840KMKG MKG20060602171010306/02/06 17:10:31  5-MIN KMKG 022210Z 14009KT 10SM SCT063 SCT090 23/11 A2997 580 44 1700 150/09 RMK AO2
14840KMKG MKG20060602171510306/02/06 17:15:31  5-MIN KMKG 022215Z 13007KT 10SM SCT063 SCT090 23/11 A2997 580 45 1700 130/07 RMK AO2
14840KMKG MKG20060602172010306/02/06 17:20:31  5-MIN KMKG 022220Z 13009KT 10SM SCT063 SCT090 24/12 A2997 580 46 1800 130/09 RMK AO2
14840KMKG MKG20060602172510306/02/06 17:25:31  5-MIN KMKG 022225Z 11007KT 10SM SCT063 SCT090 24/12 A2997 580 46 1800 110/07 RMK AO2
14840KMKG MKG20060602173010306/02/06 17:30:31  5-MIN KMKG 022230Z 13008KT 10SM SCT063 SCT090 23/12 A2997 580 47 1700 130/08 RMK AO2
14840KMKG MKG20060602173510306/02/06 17:35:31  5-MIN KMKG 022235Z 12008KT 10SM SCT063 SCT090 23/11 A2997 580 45 1700 120/08 RMK AO2
14840KMKG MKG20060602174010306/02/06 17:40:31  5-MIN KMKG 022240Z 11009KT 10SM FEW063 SCT090 23/12 A2997 580 47 1700 110/09 RMK AO2
14840KMKG MKG20060602174510306/02/06 17:45:31  5-MIN KMKG 022245Z 10008KT 10SM FEW063 SCT090 23/12 A2997 580 49 1700 110/08 RMK AO2
14840KMKG MKG20060602175012006/02/06 17:50:31  5-MIN KMKG 022250Z 11008KT 10SM FEW063 SCT068 23/12 A2997 580 49 1700 120/08 RMK AO2 SLP148 T02280117
14840KMKG MKG20060602175512006/02/06 17:55:31  5-MIN KMKG 022255Z 10008KT 10SM FEW063 SCT068 23/12 A2997 580 49 1700 100/08 RMK AO2 SLP148 T02280117
14840KMKG MKG20060602180009606/02/06 18:00:31  5-MIN KMKG 022300Z 11008KT 10SM FEW063 23/12 A2997 580 49 1700 120/08 RMK AO2
14840KMKG MKG20060602180509606/02/06 18:05:31  5-MIN KMKG 022305Z 10009KT 10SM FEW063 23/12 A2997 580 49 1700 100/09 RMK AO2
14840KMKG MKG20060602181009606/02/06 18:10:31  5-MIN KMKG 022310Z 12007KT 10SM FEW063 22/11 A2998 580 49 1600 120/07 RMK AO2
14840KMKG MKG20060602181509606/02/06 18:15:31  5-MIN KMKG 022315Z 11008KT 10SM FEW060 22/11 A2997 580 47 1600 110/08 RMK AO2
14840KMKG MKG20060602182009606/02/06 18:20:31  5-MIN KMKG 022320Z 13010KT 10SM FEW060 22/11 A2997 580 47 1600 130/10 RMK AO2
14840KMKG MKG20060602182509606/02/06 18:25:31  5-MIN KMKG 022325Z 12010KT 10SM FEW060 22/11 A2997 580 47 1600 130/10 RMK AO2
14840KMKG MKG20060602183009606/02/06 18:30:31  5-MIN KMKG 022330Z 12007KT 10SM FEW060 22/10 A2997 580 45 1600 120/07 RMK AO2
14840KMKG MKG20060602183509606/02/06 18:35:31  5-MIN KMKG 022335Z 12009KT 10SM FEW060 22/10 A2998 580 45 1600 130/09 RMK AO2
14840KMKG MKG20060602184009606/02/06 18:40:31  5-MIN KMKG 022340Z 12008KT 10SM FEW060 22/10 A2998 580 47 1500 120/08 RMK AO2
14840KMKG MKG20060602184509606/02/06 18:45:31  5-MIN KMKG 022345Z 13007KT 10SM FEW060 22/10 A2998 580 45 1600 140/07 RMK AO2
14840KMKG MKG20060602185013106/02/06 18:50:31  5-MIN KMKG 022350Z 12006KT 10SM FEW060 22/11 A2998 580 47 1600 130/06 RMK AO2 SLP149 T02220106 10261 20217 58010
14840KMKG MKG20060602185513106/02/06 18:55:31  5-MIN KMKG 022355Z 11006KT 10SM FEW060 22/10 A2998 580 45 1600 110/06 RMK AO2 SLP149 T02220100 10261 20217 51005
14840KMKG MKG20060602190009606/02/06 19:00:31  5-MIN KMKG 030000Z 10006KT 10SM FEW060 22/10 A2998 580 47 1500 110/06 RMK AO2
14840KMKG MKG20060602190509606/02/06 19:05:31  5-MIN KMKG 030005Z 11005KT 10SM FEW060 22/10 A2998 580 47 1500 120/05 RMK AO2
14840KMKG MKG20060602191009606/02/06 19:10:31  5-MIN KMKG 030010Z 11004KT 10SM FEW060 22/10 A2998 580 47 1500 110/04 RMK AO2
14840KMKG MKG20060602191509606/02/06 19:15:31  5-MIN KMKG 030015Z 11005KT 10SM FEW060 22/10 A2998 580 47 1500 110/05 RMK AO2
14840KMKG MKG20060602192009606/02/06 19:20:31  5-MIN KMKG 030020Z 12004KT 10SM FEW060 22/11 A2998 580 49 1500 120/04 RMK AO2
14840KMKG MKG20060602192509606/02/06 19:25:31  5-MIN KMKG 030025Z 13003KT 10SM FEW060 21/11 A2998 580 50 1500 130/03 RMK AO2
14840KMKG MKG20060602193009606/02/06 19:30:31  5-MIN KMKG 030030Z 13004KT 10SM FEW060 21/11 A2998 580 50 1500 130/04 RMK AO2
14840KMKG MKG20060602193509606/02/06 19:35:31  5-MIN KMKG 030035Z 14004KT 10SM FEW060 21/11 A2998 580 50 1500 140/04 RMK AO2
14840KMKG MKG20060602194009606/02/06 19:40:31  5-MIN KMKG 030040Z 13004KT 10SM FEW060 21/11 A2998 580 50 1500 130/04 RMK AO2
14840KMKG MKG20060602194509606/02/06 19:45:31  5-MIN KMKG 030045Z 14004KT 10SM FEW060 21/11 A2998 580 52 1400 140/04 RMK AO2
14840KMKG MKG20060602195011306/02/06 19:50:31  5-MIN KMKG 030050Z 16004KT 10SM FEW060 21/11 A2998 580 52 1400 160/04 RMK AO2 SLP149 T02060106
14840KMKG MKG20060602195511306/02/06 19:55:31  5-MIN KMKG 030055Z 17003KT 10SM FEW060 21/10 A2998 580 50 1400 180/03 RMK AO2 SLP148 T02060100
14840KMKG MKG20060602200009606/02/06 20:00:31  5-MIN KMKG 030100Z 19003KT 10SM FEW060 21/09 A2998 580 48 1400 190/03 RMK AO2
14840KMKG MKG20060602200509606/02/06 20:05:31  5-MIN KMKG 030105Z 24004KT 10SM FEW060 20/10 A2998 580 52 1300 250/04 RMK AO2
14840KMKG MKG20060602201009606/02/06 20:10:31  5-MIN KMKG 030110Z 25004KT 10SM FEW060 19/11 A2998 580 58 1300 250/04 RMK AO2
14840KMKG MKG20060602201509606/02/06 20:15:31  5-MIN KMKG 030115Z 24003KT 10SM FEW060 19/11 A2997 580 60 1200 240/03 RMK AO2
14840KMKG MKG20060602202009606/02/06 20:20:31  5-MIN KMKG 030120Z 25004KT 10SM FEW060 19/11 A2998 580 60 1200 250/04 RMK AO2
14840KMKG MKG20060602202509606/02/06 20:25:31  5-MIN KMKG 030125Z 00000KT 10SM FEW060 18/12 A2998 580 65 1100 000/00 RMK AO2
14840KMKG MKG20060602203009606/02/06 20:30:31  5-MIN KMKG 030130Z 00000KT 10SM FEW075 19/11 A2998 580 60 1200 000/00 RMK AO2
14840KMKG MKG20060602203509606/02/06 20:35:31  5-MIN KMKG 030135Z 00000KT 10SM FEW075 19/12 A2998 580 62 1200 000/00 RMK AO2
14840KMKG MKG20060602204009606/02/06 20:40:31  5-MIN KMKG 030140Z 30005KT 10SM FEW075 18/11 A2998 580 62 1100 300/05 RMK AO2
14840KMKG MKG20060602204509606/02/06 20:45:31  5-MIN KMKG 030145Z 30004KT 10SM FEW075 18/11 A2998 570 62 1100 300/04 RMK AO2
14840KMKG MKG20060602205011306/02/06 20:50:31  5-MIN KMKG 030150Z 31005KT 10SM FEW075 19/11 A2998 570 60 1200 310/05 RMK AO2 SLP151 T01890111
14840KMKG MKG20060602205511306/02/06 20:55:31  5-MIN KMKG 030155Z 30004KT 10SM FEW075 18/11 A2998 570 62 1100 310/04 RMK AO2 SLP151 T01830111
14840KMKG MKG20060602210009306/02/06 21:00:31  5-MIN KMKG 030200Z 30004KT 10SM CLR 19/11 A2998 570 60 1200 300/04 RMK AO2
14840KMKG MKG20060602210509306/02/06 21:05:31  5-MIN KMKG 030205Z 30004KT 10SM CLR 19/11 A2998 570 60 1200 310/04 RMK AO2
14840KMKG MKG20060602211009306/02/06 21:10:31  5-MIN KMKG 030210Z 31005KT 10SM CLR 19/11 A2998 570 58 1200 320/05 RMK AO2
14840KMKG MKG20060602211509306/02/06 21:15:31  5-MIN KMKG 030215Z 33005KT 10SM CLR 19/11 A2998 570 58 1200 330/05 RMK AO2
14840KMKG MKG20060602212009306/02/06 21:20:31  5-MIN KMKG 030220Z 34003KT 10SM CLR 19/11 A2998 570 58 1200 350/03 RMK AO2
14840KMKG MKG20060602212509306/02/06 21:25:31  5-MIN KMKG 030225Z 35003KT 10SM CLR 19/11 A2998 570 60 1200 350/03 RMK AO2
14840KMKG MKG20060602213009306/02/06 21:30:31  5-MIN KMKG 030230Z 36003KT 10SM CLR 19/12 A2998 570 62 1200 360/03 RMK AO2
14840KMKG MKG20060602213509306/02/06 21:35:31  5-MIN KMKG 030235Z 35003KT 10SM CLR 19/11 A2998 570 60 1200 350/03 RMK AO2
14840KMKG MKG20060602214009306/02/06 21:40:31  5-MIN KMKG 030240Z 35003KT 10SM CLR 19/11 A2999 570 60 1200 350/03 RMK AO2
14840KMKG MKG20060602214509306/02/06 21:45:31  5-MIN KMKG 030245Z 34004KT 10SM CLR 19/11 A2999 570 60 1200 340/04 RMK AO2
14840KMKG MKG20060602215011906/02/06 21:50:31  5-MIN KMKG 030250Z 34004KT 10SM FEW090 19/11 A2999 570 60 1200 340/04 RMK AO2 SLP152 T01890111 51005
14840KMKG MKG20060602215511906/02/06 21:55:31  5-MIN KMKG 030255Z 34003KT 10SM FEW090 18/11 A2998 570 62 1100 340/03 RMK AO2 SLP151 T01830111 53002
14840KMKG MKG20060602220009306/02/06 22:00:31  5-MIN KMKG 030300Z 33003KT 10SM CLR 18/11 A2998 570 64 1100 340/03 RMK AO2
14840KMKG MKG20060602220509206/02/06 22:05:31  5-MIN KMKG 030305Z 00000KT 10SM CLR 17/11 A2998 570 69 900 000/00 RMK AO2
14840KMKG MKG20060602221009206/02/06 22:10:31  5-MIN KMKG 030310Z 35003KT 10SM CLR 17/12 A2998 570 72 900 360/03 RMK AO2
14840KMKG MKG20060602221509206/02/06 22:15:31  5-MIN KMKG 030315Z 35003KT 10SM CLR 17/11 A2998 570 69 900 350/03 RMK AO2
14840KMKG MKG20060602222009306/02/06 22:20:31  5-MIN KMKG 030320Z 00000KT 10SM CLR 17/11 A2998 570 67 1000 000/00 RMK AO2
14840KMKG MKG20060602222509206/02/06 22:25:31  5-MIN KMKG 030325Z 00000KT 10SM CLR 16/11 A2998 570 72 900 000/00 RMK AO2
14840KMKG MKG20060602223009206/02/06 22:30:31  5-MIN KMKG 030330Z 00000KT 10SM CLR 16/12 A2998 570 77 800 000/00 RMK AO2
14840KMKG MKG20060602223509206/02/06 22:35:31  5-MIN KMKG 030335Z 00000KT 10SM CLR 15/12 A2999 570 80 700 000/00 RMK AO2
14840KMKG MKG20060602224009206/02/06 22:40:31  5-MIN KMKG 030340Z 00000KT 10SM CLR 16/11 A2999 570 74 800 000/00 RMK AO2
14840KMKG MKG20060602224509206/02/06 22:45:31  5-MIN KMKG 030345Z 36007KT 10SM CLR 16/11 A2999 570 69 900 010/07 RMK AO2
14840KMKG MKG20060602225011006/02/06 22:50:31  5-MIN KMKG 030350Z 01006KT 10SM CLR 17/10 A2999 570 62 1000 020/06 RMK AO2 SLP153 T01720100
14840KMKG MKG20060602225511006/02/06 22:55:31  5-MIN KMKG 030355Z 01005KT 10SM CLR 18/10 A2999 570 60 1100 020/05 RMK AO2 SLP152 T01780100
14840KMKG MKG20060602230009306/02/06 23:00:31  5-MIN KMKG 030400Z 01005KT 10SM CLR 17/09 A2998 570 60 1000 020/05 RMK AO2
14840KMKG MKG20060602230509306/02/06 23:05:31  5-MIN KMKG 030405Z 01004KT 10SM CLR 17/09 A2998 570 60 1000 020/04 RMK AO2
14840KMKG MKG20060602231009306/02/06 23:10:31  5-MIN KMKG 030410Z 01005KT 10SM CLR 17/09 A2999 570 60 1000 010/05 RMK AO2
14840KMKG MKG20060602231509306/02/06 23:15:31  5-MIN KMKG 030415Z 02005KT 10SM CLR 17/09 A2999 570 60 1000 020/05 RMK AO2
14840KMKG MKG20060602232009306/02/06 23:20:31  5-MIN KMKG 030420Z 02004KT 10SM CLR 17/09 A2999 570 60 1000 020/04 RMK AO2
14840KMKG MKG20060602232509306/02/06 23:25:31  5-MIN KMKG 030425Z 02005KT 10SM CLR 17/09 A2999 570 60 1000 020/05 RMK AO2
14840KMKG MKG20060602233009206/02/06 23:30:31  5-MIN KMKG 030430Z 01004KT 10SM CLR 17/09 A2999 570 62 900 020/04 RMK AO2
14840KMKG MKG20060602233509206/02/06 23:35:31  5-MIN KMKG 030435Z 36004KT 10SM CLR 17/10 A2999 570 64 900 010/04 RMK AO2
14840KMKG MKG20060602234009306/02/06 23:40:31  5-MIN KMKG 030440Z 02006KT 10SM CLR 17/10 A2999 570 62 1000 020/06 RMK AO2
14840KMKG MKG20060602234509206/02/06 23:45:31  5-MIN KMKG 030445Z 02006KT 10SM CLR 17/10 A2999 570 64 900 020/06 RMK AO2
14840KMKG MKG20060602235011906/02/06 23:50:31  5-MIN KMKG 030450Z 01008KT 10SM CLR 17/10 A2999 570 64 900 020/08 RMK AO2 SLP151 T01670100 402670144
14840KMKG MKG20060602235511906/02/06 23:55:31  5-MIN KMKG 030455Z 01007KT 10SM CLR 17/10 A2999 570 64 900 010/07 RMK AO2 SLP151 T01670100 402670144
14840KMKG MKG20060603000009206/03/06 00:00:32  5-MIN KMKG 030500Z 01005KT 10SM CLR 17/10 A2999 570 64 900 020/05 RMK AO2
14840KMKG MKG20060603000509206/03/06 00:05:31  5-MIN KMKG 030505Z 01005KT 10SM CLR 16/10 A2999 570 67 900 020/05 RMK AO2
14840KMKG MKG20060603001009206/03/06 00:10:31  5-MIN KMKG 030510Z 36006KT 10SM CLR 17/10 A2999 570 64 900 360/06 RMK AO2
14840KMKG MKG20060603001509206/03/06 00:15:31  5-MIN KMKG 030515Z 36008KT 10SM CLR 17/10 A2999 570 64 900 360/08 RMK AO2
14840KMKG MKG20060603002009206/03/06 00:20:31  5-MIN KMKG 030520Z 01007KT 10SM CLR 16/10 A2999 570 67 900 010/07 RMK AO2
14840KMKG MKG20060603002509206/03/06 00:25:31  5-MIN KMKG 030525Z 01007KT 10SM CLR 16/10 A2999 570 67 900 010/07 RMK AO2
14840KMKG MKG20060603003009206/03/06 00:30:31  5-MIN KMKG 030530Z 01007KT 10SM CLR 16/11 A2999 570 69 900 020/07 RMK AO2
14840KMKG MKG20060603003509206/03/06 00:35:31  5-MIN KMKG 030535Z 01007KT 10SM CLR 16/10 A2998 570 67 900 020/07 RMK AO2
14840KMKG MKG20060603004009206/03/06 00:40:31  5-MIN KMKG 030540Z 01006KT 10SM CLR 16/10 A2998 570 67 900 010/06 RMK AO2
14840KMKG MKG20060603004509206/03/06 00:45:31  5-MIN KMKG 030545Z 01006KT 10SM CLR 16/10 A2998 570 69 800 010/06 RMK AO2
14840KMKG MKG20060603005012706/03/06 00:50:31  5-MIN KMKG 030550Z 02007KT 10SM CLR 16/10 A2998 570 69 800 020/07 RMK AO2 SLP151 T01560100 10222 20150 53002
14840KMKG MKG20060603005512706/03/06 00:55:31  5-MIN KMKG 030555Z 02006KT 10SM CLR 16/11 A2998 570 72 800 020/06 RMK AO2 SLP151 T01560106 10222 20150 58001
14840KMKG MKG20060603010009206/03/06 01:00:31  5-MIN KMKG 030600Z 03005KT 10SM CLR 16/11 A2998 580 72 800 030/05 RMK AO2
14840KMKG MKG20060603010509206/03/06 01:05:31  5-MIN KMKG 030605Z 03005KT 10SM CLR 16/11 A2998 580 72 800 040/05 RMK AO2
14840KMKG MKG20060603011009206/03/06 01:10:31  5-MIN KMKG 030610Z 04006KT 10SM CLR 16/11 A2997 580 72 800 050/06 RMK AO2
14840KMKG MKG20060603011509206/03/06 01:15:31  5-MIN KMKG 030615Z 02005KT 10SM CLR 16/11 A2997 580 72 800 030/05 RMK AO2
14840KMKG MKG20060603012009206/03/06 01:20:31  5-MIN KMKG 030620Z 03004KT 10SM CLR 16/11 A2997 580 72 800 030/04 RMK AO2
14840KMKG MKG20060603012509206/03/06 01:25:31  5-MIN KMKG 030625Z 05004KT 10SM CLR 15/11 A2997 580 74 800 050/04 RMK AO2
14840KMKG MKG20060603013009206/03/06 01:30:31  5-MIN KMKG 030630Z 01004KT 10SM CLR 16/11 A2997 580 72 800 010/04 RMK AO2
14840KMKG MKG20060603013509206/03/06 01:35:31  5-MIN KMKG 030635Z 36004KT 10SM CLR 15/11 A2997 580 74 800 360/04 RMK AO2
14840KMKG MKG20060603014009206/03/06 01:40:31  5-MIN KMKG 030640Z 35004KT 10SM CLR 14/11 A2997 580 77 700 360/04 RMK AO2
14840KMKG MKG20060603014509206/03/06 01:45:31  5-MIN KMKG 030645Z 36005KT 10SM CLR 15/11 A2997 580 74 800 360/05 RMK AO2
14840KMKG MKG20060603015010906/03/06 01:50:31  5-MIN KMKG 030650Z 36005KT 10SM CLR 15/11 A2997 580 74 800 360/05 RMK AO2 SLP147 T01500106
14840KMKG MKG20060603015510906/03/06 01:55:31  5-MIN KMKG 030655Z 34004KT 10SM CLR 14/11 A2997 580 77 700 340/04 RMK AO2 SLP148 T01440106
14840KMKG MKG20060603020009206/03/06 02:00:31  5-MIN KMKG 030700Z 34005KT 10SM CLR 14/11 A2997 580 77 700 350/05 RMK AO2
14840KMKG MKG20060603020509206/03/06 02:05:31  5-MIN KMKG 030705Z 34005KT 10SM CLR 14/11 A2997 580 77 700 350/05 RMK AO2
14840KMKG MKG20060603021009206/03/06 02:10:31  5-MIN KMKG 030710Z 33005KT 10SM CLR 14/11 A2997 580 77 700 340/05 RMK AO2
14840KMKG MKG20060603021509206/03/06 02:15:31  5-MIN KMKG 030715Z 34007KT 10SM CLR 14/11 A2997 580 77 700 340/07 RMK AO2
14840KMKG MKG20060603022009206/03/06 02:20:31  5-MIN KMKG 030720Z 34007KT 10SM CLR 15/11 A2997 580 77 800 340/07 RMK AO2
14840KMKG MKG20060603022509206/03/06 02:25:31  5-MIN KMKG 030725Z 34006KT 10SM CLR 15/11 A2997 590 77 800 350/06 RMK AO2
14840KMKG MKG20060603023009206/03/06 02:30:31  5-MIN KMKG 030730Z 35005KT 10SM CLR 14/11 A2997 590 80 700 360/05 RMK AO2
14840KMKG MKG20060603023509206/03/06 02:35:31  5-MIN KMKG 030735Z 01005KT 10SM CLR 15/11 A2997 590 74 800 010/05 RMK AO2
14840KMKG MKG20060603024009206/03/06 02:40:31  5-MIN KMKG 030740Z 34006KT 10SM CLR 14/11 A2997 590 80 700 340/06 RMK AO2
14840KMKG MKG20060603024509206/03/06 02:45:31  5-MIN KMKG 030745Z 35006KT 10SM CLR 15/11 A2997 590 77 800 350/06 RMK AO2
14840KMKG MKG20060603025010906/03/06 02:50:31  5-MIN KMKG 030750Z 35005KT 10SM CLR 14/11 A2997 590 80 700 350/05 RMK AO2 SLP146 T01440111
14840KMKG MKG20060603025510906/03/06 02:55:31  5-MIN KMKG 030755Z 33005KT 10SM CLR 14/11 A2997 580 80 700 330/05 RMK AO2 SLP146 T01440111
14840KMKG MKG20060603030009206/03/06 03:00:31  5-MIN KMKG 030800Z 34005KT 10SM CLR 14/11 A2997 590 80 700 340/05 RMK AO2
14840KMKG MKG20060603030509206/03/06 03:05:31  5-MIN KMKG 030805Z 36005KT 10SM CLR 14/11 A2997 580 80 700 360/05 RMK AO2
14840KMKG MKG20060603031009206/03/06 03:10:31  5-MIN KMKG 030810Z 35005KT 10SM CLR 14/11 A2997 580 80 700 350/05 RMK AO2
14840KMKG MKG20060603031509206/03/06 03:15:31  5-MIN KMKG 030815Z 35004KT 10SM CLR 14/11 A2997 590 83 600 350/04 RMK AO2
14840KMKG MKG20060603032009206/03/06 03:20:31  5-MIN KMKG 030820Z 35005KT 10SM CLR 14/11 A2997 590 83 600 350/05 RMK AO2
14840KMKG MKG20060603032509206/03/06 03:25:31  5-MIN KMKG 030825Z 35004KT 10SM CLR 14/11 A2997 580 83 600 360/04 RMK AO2
14840KMKG MKG20060603033009206/03/06 03:30:31  5-MIN KMKG 030830Z 36006KT 10SM CLR 14/11 A2997 580 80 700 010/06 RMK AO2
14840KMKG MKG20060603033509206/03/06 03:35:31  5-MIN KMKG 030835Z 36007KT 10SM CLR 14/11 A2997 580 80 700 360/07 RMK AO2
14840KMKG MKG20060603034009206/03/06 03:40:31  5-MIN KMKG 030840Z 36006KT 10SM CLR 14/11 A2997 580 80 700 010/06 RMK AO2
14840KMKG MKG20060603034509206/03/06 03:45:31  5-MIN KMKG 030845Z 36005KT 10SM CLR 14/11 A2997 580 80 700 010/05 RMK AO2
14840KMKG MKG20060603035011506/03/06 03:50:31  5-MIN KMKG 030850Z 36006KT 10SM CLR 14/11 A2997 580 77 700 010/06 RMK AO2 SLP147 T01440106 58001
14840KMKG MKG20060603035511506/03/06 03:55:31  5-MIN KMKG 030855Z 01005KT 10SM CLR 14/11 A2997 580 77 700 010/05 RMK AO2 SLP147 T01440106 55004
14840KMKG MKG20060603040009206/03/06 04:00:31  5-MIN KMKG 030900Z 01005KT 10SM CLR 14/11 A2997 580 77 700 010/05 RMK AO2
14840KMKG MKG20060603040509206/03/06 04:05:31  5-MIN KMKG 030905Z 01005KT 10SM CLR 14/11 A2998 580 77 700 020/05 RMK AO2
14840KMKG MKG20060603041009206/03/06 04:10:31  5-MIN KMKG 030910Z 02005KT 10SM CLR 14/11 A2998 580 80 600 020/05 RMK AO2
14840KMKG MKG20060603041509206/03/06 04:15:31  5-MIN KMKG 030915Z 02005KT 10SM CLR 14/11 A2998 580 80 600 030/05 RMK AO2
14840KMKG MKG20060603042009206/03/06 04:20:31  5-MIN KMKG 030920Z 02005KT 10SM CLR 14/11 A2997 580 80 600 030/05 RMK AO2
14840KMKG MKG20060603042509206/03/06 04:25:31  5-MIN KMKG 030925Z 02005KT 10SM CLR 14/11 A2998 580 80 600 020/05 RMK AO2
14840KMKG MKG20060603043009206/03/06 04:30:31  5-MIN KMKG 030930Z 02007KT 10SM CLR 14/11 A2998 580 80 600 020/07 RMK AO2
14840KMKG MKG20060603043509206/03/06 04:35:31  5-MIN KMKG 030935Z 02005KT 10SM CLR 14/11 A2998 580 80 600 030/05 RMK AO2
14840KMKG MKG20060603044009206/03/06 04:40:31  5-MIN KMKG 030940Z 01005KT 10SM CLR 13/11 A2998 580 83 600 020/05 RMK AO2
14840KMKG MKG20060603044509206/03/06 04:45:31  5-MIN KMKG 030945Z 01006KT 10SM CLR 13/11 A2998 570 83 600 010/06 RMK AO2
14840KMKG MKG20060603045010906/03/06 04:50:31  5-MIN KMKG 030950Z 01005KT 10SM CLR 13/11 A2998 570 83 500 010/05 RMK AO2 SLP150 T01330106
14840KMKG MKG20060603045510906/03/06 04:55:31  5-MIN KMKG 030955Z 01004KT 10SM CLR 13/11 A2998 570 83 500 020/04 RMK AO2 SLP152 T01330106
14840KMKG MKG20060603050009206/03/06 05:00:31  5-MIN KMKG 031000Z 01005KT 10SM CLR 13/11 A2998 570 83 500 010/05 RMK AO2
14840KMKG MKG20060603050509206/03/06 05:05:31  5-MIN KMKG 031005Z 36004KT 10SM CLR 13/11 A2999 570 83 500 010/04 RMK AO2
14840KMKG MKG20060603051009206/03/06 05:10:31  5-MIN KMKG 031010Z 01004KT 10SM CLR 13/11 A2999 570 86 500 010/04 RMK AO2
14840KMKG MKG20060603051509206/03/06 05:15:31  5-MIN KMKG 031015Z 01005KT 10SM CLR 13/11 A2999 570 86 500 020/05 RMK AO2
14840KMKG MKG20060603052009206/03/06 05:20:31  5-MIN KMKG 031020Z 02004KT 10SM CLR 13/11 A2999 570 86 500 020/04 RMK AO2
14840KMKG MKG20060603052509206/03/06 05:25:31  5-MIN KMKG 031025Z 01006KT 10SM CLR 13/11 A2999 560 86 500 010/06 RMK AO2
14840KMKG MKG20060603053009206/03/06 05:30:31  5-MIN KMKG 031030Z 36005KT 10SM CLR 13/11 A2999 560 86 500 010/05 RMK AO2
14840KMKG MKG20060603053509206/03/06 05:35:31  5-MIN KMKG 031035Z 36005KT 10SM CLR 13/11 A3000 560 86 500 010/05 RMK AO2
14840KMKG MKG20060603054009206/03/06 05:40:31  5-MIN KMKG 031040Z 36003KT 10SM CLR 13/11 A3000 560 89 500 010/03 RMK AO2
14840KMKG MKG20060603054509206/03/06 05:45:31  5-MIN KMKG 031045Z 01005KT 10SM CLR 13/11 A3000 560 89 500 010/05 RMK AO2
14840KMKG MKG20060603055010906/03/06 05:50:31  5-MIN KMKG 031050Z 02006KT 10SM CLR 13/11 A3000 560 86 500 020/06 RMK AO2 SLP158 T01330111
14840KMKG MKG20060603055510906/03/06 05:55:31  5-MIN KMKG 031055Z 36006KT 10SM CLR 13/11 A3000 550 86 500 010/06 RMK AO2 SLP159 T01330111
14840KMKG MKG20060603060009206/03/06 06:00:31  5-MIN KMKG 031100Z 01006KT 10SM CLR 13/11 A3000 550 86 500 010/06 RMK AO2
14840KMKG MKG20060603060509206/03/06 06:05:31  5-MIN KMKG 031105Z 01006KT 10SM CLR 13/11 A3000 550 86 500 020/06 RMK AO2
14840KMKG MKG20060603061009206/03/06 06:10:31  5-MIN KMKG 031110Z 36005KT 10SM CLR 14/11 A3000 550 83 600 010/05 RMK AO2
14840KMKG MKG20060603061509206/03/06 06:15:31  5-MIN KMKG 031115Z 01006KT 10SM CLR 14/11 A3001 550 83 600 010/06 RMK AO2
14840KMKG MKG20060603062009206/03/06 06:20:31  5-MIN KMKG 031120Z 01006KT 10SM CLR 14/11 A3001 550 83 600 010/06 RMK AO2
14840KMKG MKG20060603062509206/03/06 06:25:31  5-MIN KMKG 031125Z 01006KT 10SM CLR 14/11 A3001 550 83 600 020/06 RMK AO2
14840KMKG MKG20060603063009206/03/06 06:30:31  5-MIN KMKG 031130Z 02006KT 10SM CLR 14/11 A3001 550 83 600 030/06 RMK AO2
14840KMKG MKG20060603063509206/03/06 06:35:31  5-MIN KMKG 031135Z 02006KT 10SM CLR 14/12 A3001 550 83 600 020/06 RMK AO2
14840KMKG MKG20060603064009206/03/06 06:40:31  5-MIN KMKG 031140Z 01005KT 10SM CLR 15/12 A3001 550 80 700 020/05 RMK AO2
14840KMKG MKG20060603064509206/03/06 06:45:31  5-MIN KMKG 031145Z 01006KT 10SM CLR 15/12 A3001 550 80 700 020/06 RMK AO2
14840KMKG MKG20060603065012706/03/06 06:50:31  5-MIN KMKG 031150Z 01005KT 10SM CLR 16/12 A3001 540 77 800 010/05 RMK AO2 SLP162 T01560117 10156 20128 55004
14840KMKG MKG20060603065512706/03/06 06:55:31  5-MIN KMKG 031155Z 01007KT 10SM CLR 16/12 A3002 540 77 800 010/07 RMK AO2 SLP163 T01560117 10156 20128 52015
14840KMKG MKG20060603070009206/03/06 07:00:31  5-MIN KMKG 031200Z 03005KT 10SM CLR 16/12 A3002 540 77 800 040/05 RMK AO2
14840KMKG MKG20060603070509206/03/06 07:05:31  5-MIN KMKG 031205Z 01004KT 10SM CLR 16/12 A3002 540 75 800 020/04 RMK AO2
14840KMKG MKG20060603071009206/03/06 07:10:31  5-MIN KMKG 031210Z 03004KT 10SM CLR 16/12 A3002 540 75 800 030/04 RMK AO2
14840KMKG MKG20060603071509206/03/06 07:15:31  5-MIN KMKG 031215Z 03005KT 10SM CLR 16/12 A3002 540 75 800 030/05 RMK AO2
14840KMKG MKG20060603072009206/03/06 07:20:31  5-MIN KMKG 031220Z 03004KT 10SM CLR 17/12 A3002 540 72 900 040/04 RMK AO2
14840KMKG MKG20060603072509206/03/06 07:25:31  5-MIN KMKG 031225Z 04003KT 10SM CLR 17/12 A3002 530 72 900 040/03 RMK AO2
14840KMKG MKG20060603073009306/03/06 07:30:31  5-MIN KMKG 031230Z 05003KT 10SM CLR 17/12 A3002 540 69 1000 050/03 RMK AO2
14840KMKG MKG20060603073509306/03/06 07:35:31  5-MIN KMKG 031235Z 01005KT 10SM CLR 17/12 A3002 540 69 1000 020/05 RMK AO2
14840KMKG MKG20060603074009306/03/06 07:40:31  5-MIN KMKG 031240Z 03005KT 10SM CLR 17/12 A3002 540 69 1000 030/05 RMK AO2
14840KMKG MKG20060603074509306/03/06 07:45:31  5-MIN KMKG 031245Z VRB04KT 10SM CLR 18/12 A3002 530 69 1000 VRB/04 RMK AO2
14840KMKG MKG20060603075011006/03/06 07:50:31  5-MIN KMKG 031250Z 02006KT 10SM CLR 18/12 A3002 530 69 1000 020/06 RMK AO2 SLP165 T01780122
14840KMKG MKG20060603075511006/03/06 07:55:31  5-MIN KMKG 031255Z 05006KT 10SM CLR 18/12 A3003 530 67 1100 060/06 RMK AO2 SLP165 T01830122
14840KMKG MKG20060603080009306/03/06 08:00:31  5-MIN KMKG 031300Z 05006KT 10SM CLR 18/12 A3003 530 69 1000 060/06 RMK AO2
14840KMKG MKG20060603080509306/03/06 08:05:31  5-MIN KMKG 031305Z 05006KT 10SM CLR 19/12 A3003 530 65 1200 050/06 RMK AO2
14840KMKG MKG20060603081009306/03/06 08:10:31  5-MIN KMKG 031310Z 04006KT 10SM CLR 18/12 A3003 530 65 1100 050/06 RMK AO2
14840KMKG MKG20060603081509306/03/06 08:15:31  5-MIN KMKG 031315Z 03006KT 10SM CLR 19/12 A3003 530 62 1200 030/06 RMK AO2
14840KMKG MKG20060603082009306/03/06 08:20:31  5-MIN KMKG 031320Z 05006KT 10SM CLR 19/12 A3003 530 62 1200 050/06 RMK AO2
14840KMKG MKG20060603082509306/03/06 08:25:31  5-MIN KMKG 031325Z 01005KT 10SM CLR 19/12 A3003 530 60 1200 020/05 RMK AO2
14840KMKG MKG20060603083009306/03/06 08:30:31  5-MIN KMKG 031330Z 02006KT 10SM CLR 20/12 A3003 530 60 1300 020/06 RMK AO2
14840KMKG MKG20060603083509306/03/06 08:35:31  5-MIN KMKG 031335Z 01007KT 10SM CLR 20/12 A3003 530 60 1300 010/07 RMK AO2
14840KMKG MKG20060603084009306/03/06 08:40:31  5-MIN KMKG 031340Z 36005KT 10SM CLR 19/12 A3003 530 60 1200 010/05 RMK AO2
14840KMKG MKG20060603084509306/03/06 08:45:31  5-MIN KMKG 031345Z 01008KT 10SM CLR 20/12 A3003 530 58 1300 020/08 RMK AO2
14840KMKG MKG20060603085011006/03/06 08:50:31  5-MIN KMKG 031350Z 36007KT 10SM CLR 20/12 A3003 530 58 1300 010/07 RMK AO2 SLP166 T02000117
14840KMKG MKG20060603085511006/03/06 08:55:31  5-MIN KMKG 031355Z 01008KT 10SM CLR 20/12 A3003 530 58 1300 010/08 RMK AO2 SLP166 T02000117
14840KMKG MKG20060603090009306/03/06 09:00:31  5-MIN KMKG 031400Z 03008KT 10SM CLR 20/12 A3003 530 58 1300 030/08 RMK AO2
14840KMKG MKG20060603090509306/03/06 09:05:31  5-MIN KMKG 031405Z VRB06KT 10SM CLR 21/12 A3003 530 56 1300 VRB/06 RMK AO2
14840KMKG MKG20060603091010906/03/06 09:10:31  5-MIN KMKG 031410Z 36007KT 330V030 10SM CLR 21/12 A3003 530 56 1400 010/07 330V030 RMK AO2
14840KMKG MKG20060603091509306/03/06 09:15:31  5-MIN KMKG 031415Z 35009KT 10SM CLR 21/12 A3003 530 54 1400 360/09 RMK AO2
14840KMKG MKG20060603092009306/03/06 09:20:31  5-MIN KMKG 031420Z 01008KT 10SM CLR 21/12 A3003 530 56 1300 010/08 RMK AO2
14840KMKG MKG20060603092509606/03/06 09:25:31  5-MIN KMKG 031425Z 02006KT 10SM FEW085 21/11 A3003 530 52 1400 020/06 RMK AO2
14840KMKG MKG20060603093009306/03/06 09:30:31  5-MIN KMKG 031430Z 36009KT 10SM CLR 21/12 A3003 530 54 1400 360/09 RMK AO2
14840KMKG MKG20060603093509606/03/06 09:35:31  5-MIN KMKG 031435Z 01006KT 10SM FEW090 21/12 A3003 530 54 1400 020/06 RMK AO2
14840KMKG MKG20060603094009606/03/06 09:40:31  5-MIN KMKG 031440Z 34008KT 10SM FEW090 21/12 A3003 530 54 1400 350/08 RMK AO2
14840KMKG MKG20060603094509606/03/06 09:45:31  5-MIN KMKG 031445Z 02008KT 10SM FEW085 21/11 A3003 530 52 1400 020/08 RMK AO2
14840KMKG MKG20060603095011906/03/06 09:50:31  5-MIN KMKG 031450Z 01008KT 10SM FEW085 22/11 A3003 530 50 1500 020/08 RMK AO2 SLP165 T02170111 52015
14840KMKG MKG20060603095511906/03/06 09:55:31  5-MIN KMKG 031455Z 03008KT 10SM FEW050 22/11 A3003 530 49 1500 030/08 RMK AO2 SLP165 T02170106 50003
14840KMKG MKG20060603100009606/03/06 10:00:31  5-MIN KMKG 031500Z 03007KT 10SM FEW050 22/11 A3002 540 50 1500 030/07 RMK AO2
14840KMKG MKG20060603100511206/03/06 10:05:31  5-MIN KMKG 031505Z 01007KT 330V040 10SM FEW040 22/11 A3002 540 50 1500 010/07 330V040 RMK AO2
14840KMKG MKG20060603101009606/03/06 10:10:31  5-MIN KMKG 031510Z VRB05KT 10SM FEW040 23/12 A3002 540 49 1600 VRB/05 RMK AO2
14840KMKG MKG20060603101509606/03/06 10:15:31  5-MIN KMKG 031515Z 33010KT 10SM SCT042 22/11 A3002 540 49 1500 330/10 RMK AO2
14840KMKG MKG20060603102009606/03/06 10:20:31  5-MIN KMKG 031520Z 33008KT 10SM SCT042 22/11 A3002 540 50 1500 340/08 RMK AO2
14840KMKG MKG20060603102509606/03/06 10:25:31  5-MIN KMKG 031525Z 28009KT 10SM SCT044 21/12 A3002 540 54 1400 280/09 RMK AO2
14840KMKG MKG20060603103009606/03/06 10:30:31  5-MIN KMKG 031530Z 27009KT 10SM SCT044 20/12 A3001 540 58 1300 280/09 RMK AO2
14840KMKG MKG20060603103510306/03/06 10:35:31  5-MIN KMKG 031535Z 28011KT 10SM SCT044 SCT085 21/12 A3001 550 56 1400 290/11 RMK AO2
14840KMKG MKG20060603104009606/03/06 10:40:31  5-MIN KMKG 031540Z 29010KT 10SM SCT044 21/12 A3001 550 54 1400 290/10 RMK AO2
14840KMKG MKG20060603104509606/03/06 10:45:31  5-MIN KMKG 031545Z 29008KT 10SM FEW044 21/12 A3001 540 54 1400 290/08 RMK AO2
14840KMKG MKG20060603105011306/03/06 10:50:31  5-MIN KMKG 031550Z 29010KT 10SM SCT044 20/11 A3001 550 56 1300 300/10 RMK AO2 SLP162 T02000111
14840KMKG MKG20060603105511306/03/06 10:55:31  5-MIN KMKG 031555Z 27010KT 10SM SCT044 20/11 A3001 550 56 1300 280/10 RMK AO2 SLP161 T02000111
14840KMKG MKG20060603110009606/03/06 11:00:31  5-MIN KMKG 031600Z 29010KT 10SM SCT044 21/12 A3001 550 54 1400 290/10 RMK AO2
14840KMKG MKG20060603110509606/03/06 11:05:31  5-MIN KMKG 031605Z 28009KT 10SM SCT047 21/11 A3001 550 54 1400 280/09 RMK AO2
14840KMKG MKG20060603111009606/03/06 11:10:31  5-MIN KMKG 031610Z 28009KT 10SM SCT047 19/11 A3001 550 56 1200 290/09 RMK AO2
14840KMKG MKG20060603111509606/03/06 11:15:31  5-MIN KMKG 031615Z 28010KT 10SM SCT049 21/12 A3001 550 54 1400 290/10 RMK AO2
14840KMKG MKG20060603112009606/03/06 11:20:31  5-MIN KMKG 031620Z 28008KT 10SM SCT049 21/11 A3001 550 54 1400 290/08 RMK AO2
14840KMKG MKG20060603112509606/03/06 11:25:31  5-MIN KMKG 031625Z 28008KT 10SM SCT049 21/12 A3000 550 56 1400 280/08 RMK AO2
14840KMKG MKG20060603113009606/03/06 11:30:31  5-MIN KMKG 031630Z 29010KT 10SM SCT049 21/12 A3000 550 54 1400 290/10 RMK AO2
14840KMKG MKG20060603113509606/03/06 11:35:31  5-MIN KMKG 031635Z 31009KT 10SM SCT049 21/11 A3000 550 54 1400 310/09 RMK AO2
14840KMKG MKG20060603114009606/03/06 11:40:31  5-MIN KMKG 031640Z 30011KT 10SM SCT049 21/11 A3000 550 52 1400 300/11 RMK AO2
14840KMKG MKG20060603114509606/03/06 11:45:31  5-MIN KMKG 031645Z 30010KT 10SM SCT049 22/11 A3000 560 50 1500 300/10 RMK AO2
14840KMKG MKG20060603115011306/03/06 11:50:31  5-MIN KMKG 031650Z 29010KT 10SM SCT049 21/11 A3000 560 50 1400 290/10 RMK AO2 SLP158 T02110106
14840KMKG MKG20060603115511306/03/06 11:55:31  5-MIN KMKG 031655Z 29009KT 10SM SCT049 22/11 A3000 560 50 1500 300/09 RMK AO2 SLP156 T02170111
14840KMKG MKG20060603120009606/03/06 12:00:31  5-MIN KMKG 031700Z 30010KT 10SM SCT070 21/11 A3000 560 52 1400 300/10 RMK AO2
14840KMKG MKG20060603120509606/03/06 12:05:31  5-MIN KMKG 031705Z 30011KT 10SM SCT060 22/11 A2999 560 50 1500 300/11 RMK AO2
14840KMKG MKG20060603121009606/03/06 12:10:31  5-MIN KMKG 031710Z 30011KT 10SM SCT055 22/11 A2999 560 50 1500 300/11 RMK AO2
14840KMKG MKG20060603121509606/03/06 12:15:31  5-MIN KMKG 031715Z 30012KT 10SM SCT055 21/11 A2999 560 52 1400 300/12 RMK AO2
14840KMKG MKG20060603122009606/03/06 12:20:31  5-MIN KMKG 031720Z 30011KT 10SM SCT055 21/11 A2999 570 52 1400 300/11 RMK AO2
14840KMKG MKG20060603122509606/03/06 12:25:31  5-MIN KMKG 031725Z 29011KT 10SM SCT055 22/11 A2999 570 49 1600 300/11 RMK AO2
14840KMKG MKG20060603123009606/03/06 12:30:31  5-MIN KMKG 031730Z 29011KT 10SM SCT055 21/11 A2998 570 52 1500 290/11 RMK AO2
14840KMKG MKG20060603123512506/03/06 12:35:31  5-MIN KMKG 031735Z 30010KT 10SM SCT055 BKN075 BKN085 21/11 A2998 570 52 1500 300/10 RMK AO2 CIG 055 RWY 14
14840KMKG MKG20060603124011806/03/06 12:40:31  5-MIN KMKG 031740Z 30008KT 10SM SCT055 BKN070 22/12 A2998 580 51 1600 300/08 RMK AO2 CIG 055 RWY 14
14840KMKG MKG20060603124511006/03/06 12:45:31  5-MIN KMKG 031745Z 30010KT 10SM SCT060 SCT070 BKN085 22/11 A2998 580 50 1500 300/10 RMK AO2
14840KMKG MKG20060603125015306/03/06 12:50:31  5-MIN KMKG 031750Z 30011KT 10SM SCT060 BKN080 21/11 A2997 580 50 1500 300/11 RMK AO2 CIG 060 RWY 14 SLP149 T02110106 10228 20156 50003
14840KMKG MKG20060603125514506/03/06 12:55:31  5-MIN KMKG 031755Z 30011KT 10SM SCT055 SCT070 SCT085 22/11 A2997 580 49 1600 310/11 RMK AO2 SLP148 T02220111 10228 20156 58018
14840KMKG MKG20060603130010306/03/06 13:00:31  5-MIN KMKG 031800Z 30012KT 10SM SCT060 BKN080 21/11 A2997 580 50 1500 300/12 RMK AO2
14840KMKG MKG20060603130510306/03/06 13:05:31  5-MIN KMKG 031805Z 30012KT 10SM SCT060 SCT080 22/11 A2997 580 50 1500 300/12 RMK AO2
14840KMKG MKG20060603131009606/03/06 13:10:31  5-MIN KMKG 031810Z 29014KT 10SM FEW060 22/11 A2997 590 49 1600 300/14 RMK AO2
14840KMKG MKG20060603131509606/03/06 13:15:31  5-MIN KMKG 031815Z 30014KT 10SM FEW055 22/11 A2997 590 47 1600 300/14 RMK AO2
14840KMKG MKG20060603132009606/03/06 13:20:31  5-MIN KMKG 031820Z 30014KT 10SM SCT055 22/11 A2996 590 49 1500 300/14 RMK AO2
14840KMKG MKG20060603132510206/03/06 13:25:31  5-MIN KMKG 031825Z 30011G19KT 10SM SCT055 22/11 A2996 590 49 1600 310/11G19 RMK AO2
14840KMKG MKG20060603133009606/03/06 13:30:31  5-MIN KMKG 031830Z 30012KT 10SM SCT055 22/11 A2996 590 47 1600 310/12 RMK AO2
14840KMKG MKG20060603133510206/03/06 13:35:31  5-MIN KMKG 031835Z 30010G17KT 10SM SCT055 22/11 A2997 590 49 1600 300/10G17 RMK AO2
14840KMKG MKG20060603134009606/03/06 13:40:31  5-MIN KMKG 031840Z 30011KT 10SM SCT055 22/11 A2996 590 49 1500 300/11 RMK AO2
14840KMKG MKG20060603134509606/03/06 13:45:31  5-MIN KMKG 031845Z 30011KT 10SM SCT055 22/11 A2996 590 50 1500 310/11 RMK AO2
14840KMKG MKG20060603135011306/03/06 13:50:31  5-MIN KMKG 031850Z 30013KT 10SM SCT055 22/11 A2996 590 49 1600 300/13 RMK AO2 SLP145 T02220111
14840KMKG MKG20060603135512006/03/06 13:55:31  5-MIN KMKG 031855Z 29012KT 10SM SCT055 SCT080 22/11 A2996 590 49 1600 300/12 RMK AO2 SLP144 T02220111
14840KMKG MKG20060603140010306/03/06 14:00:31  5-MIN KMKG 031900Z 30009KT 10SM SCT055 SCT080 23/11 A2996 590 47 1700 310/09 RMK AO2
14840KMKG MKG20060603140510306/03/06 14:05:31  5-MIN KMKG 031905Z 32011KT 10SM SCT055 SCT080 23/11 A2996 590 45 1700 320/11 RMK AO2
14840KMKG MKG20060603141010306/03/06 14:10:31  5-MIN KMKG 031910Z 29011KT 10SM SCT055 SCT080 23/11 A2995 600 45 1700 300/11 RMK AO2
14840KMKG MKG20060603141510306/03/06 14:15:31  5-MIN KMKG 031915Z 30013KT 10SM SCT055 SCT080 23/11 A2995 600 44 1700 300/13 RMK AO2
14840KMKG MKG20060603142011906/03/06 14:20:31  5-MIN KMKG 031920Z 31009KT 270V350 10SM SCT055 SCT080 23/11 A2996 600 45 1700 320/09 270V350 RMK AO2
14840KMKG MKG20060603142514906/03/06 14:25:31  5-MIN KMKG 031925Z 33012KT 10SM -TSRA SCT060 SCT080 22/11 A2997 590 49 1600 340/12 RMK AO2 OCNL LTGIC RAB23 TSB23 N-NE MOV S P0000
14840KMKG MKG20060603143017506/03/06 14:30:31  5-MIN KMKG 031930Z 03011KT 350V050 10SM -TSRA BKN060 21/11 A2998 580 50 1500 030/11 350V050 RMK AO2 PRESRR OCNL LTGICCA RAB23 TSB23 N-NE AND OHD MOV S P0000
14840KMKG MKG20060603143515906/03/06 14:35:31  5-MIN KMKG 031935Z 08008KT 10SM -TSRA BKN060 BKN070 20/12 A2997 580 60 1300 080/08 RMK AO2 OCNL LTGICCA RAB23 TSB23 N-NE AND OHD MOV S P0000
14840KMKG MKG20060603144015406/03/06 14:40:31  5-MIN KMKG 031940Z 00000KT 10SM -TSRA BKN055 BKN070 20/12 A2997 590 58 1300 000/00 RMK AO2 OCNL LTGICCA RAB23 TSB23 N-OHD-S MOV S P0000
14840KMKG MKG20060603144514406/03/06 14:45:31  5-MIN KMKG 031945Z VRB03KT 10SM TS OVC055 21/11 A2997 590 50 1500 VRB/03 RMK AO2 OCNL LTGICCA RAB23 TSB23 N-OHD-S MOV S P0000
14840KMKG MKG20060603145016406/03/06 14:50:31  5-MIN KMKG 031950Z 33005KT 10SM -TSRA OVC055 21/12 A2998 580 56 1400 330/05 RMK AO2 SLP149 OCNL LTGICCA RAB23 TSB23 N-OHD-S MOV S P0000 T02060117
14840KMKG MKG20060603145522606/03/06 14:55:31  5-MIN KMKG 031955Z 05023G30KT 020V080 2 1/2SM -TSRA OVC050 19/11 A3002 540 58 1200 050/23G30 020V080 RMK AO2 PK WND 04030/1954 VIS 1 RWY 14 SLP164 FRQ LTGICCACGCC RAB23 TSB23 NW-N-E AND MOV S P0000 T01940111
14840KMKG MKG20060603150019206/03/06 15:00:31  5-MIN KMKG 032000Z 15009G30KT 1 1/2SM TSRA SQ FEW002 SCT015 OVC050 17/09 A2998 580 60 900 150/09G30 RMK AO2 VIS 3/4 RWY 14 FRQLTGICCCCACG GSB56E58 TS NW-E AND OH MOV S P0016
14840KMKG MKG20060603150519606/03/06 15:05:31  5-MIN KMKG 032005Z VRB05KT 2SM TSRA FEW002 SCT015 OVC050 18/10 A2998 580 60 1100 VRB/05 RMK AO2 TWR VIS 4 VIS 1 1/4 RWY 14 FRQ LTGICCCCACG GSB56E58 TS NW-E AND OHD MOV S P0016 $
14840KMKG MKG20060603151015606/03/06 15:10:31  5-MIN KMKG 032010Z 23006KT 8SM TSRA FEW002 SCT015 BKN050 18/12 A2997 580 67 1100 240/06 RMK AO2 OCNL LTGIC GSB56E58 TS N-SE MOV S P0017 $
14840KMKG MKG20060603151515706/03/06 15:15:31  5-MIN KMKG 032015Z 23006KT 10SM TSRA FEW002 SCT017 BKN050 18/13 A2997 580 72 1100 230/06 RMK AO2 OCNL LTGIC GSB56E58 TS N-SE MOV S P0017 $
14840KMKG MKG20060603152015706/03/06 15:20:31  5-MIN KMKG 032020Z 24006KT 10SM TSRA FEW002 SCT015 SCT050 19/14 A2997 580 72 1200 240/06 RMK AO2 OCNL LTGIC GSB56E58 TS N-SE MOV S P0017 $
14840KMKG MKG20060603152514406/03/06 15:25:31  5-MIN KMKG 032025Z 24006KT 10SM -TSRA FEW016 19/14 A2997 590 75 1200 240/06 RMK AO2 OCNL LTGIC GSB56E58 TS N-SE MOV S P0017 $
14840KMKG MKG20060603153015106/03/06 15:30:31  5-MIN KMKG 032030Z 27007KT 10SM TS FEW016 19/14 A2997 590 75 1200 270/07 RMK AO2 OCNL LTGIC RAE26 GSB1956E1958 TS N-SE MOV S P0017 $
14840KMKG MKG20060603153513606/03/06 15:35:31  5-MIN KMKG 032035Z 28007KT 10SM FEW016 SCT035 19/15 A2997 590 78 1200 280/07 RMK AO2 RAE26 TSE31 GSB1956E1958 P0017 $
14840KMKG MKG20060603154013606/03/06 15:40:31  5-MIN KMKG 032040Z 28007KT 10SM FEW016 SCT035 18/14 A2996 590 75 1200 280/07 RMK AO2 RAE26 TSE31 GSB1956E1958 P0017 $
14840KMKG MKG20060603154513606/03/06 15:45:31  5-MIN KMKG 032045Z 27007KT 10SM FEW016 SCT035 19/14 A2996 600 72 1300 280/07 RMK AO2 RAE26 TSE31 GSB1956E1958 P0017 $
14840KMKG MKG20060603155016506/03/06 15:50:31  5-MIN KMKG 032050Z 27006KT 10SM FEW016 SCT035 20/14 A2996 600 67 1400 270/06 RMK AO2 SLP143 RAE26 TSE31 GSB1956E1958 P0017 60017 T02000139 58018 $
14840KMKG MKG20060603155516506/03/06 15:55:31  5-MIN KMKG 032055Z 27007KT 10SM FEW016 SCT035 20/14 A2995 600 67 1400 280/07 RMK AO2 SLP142 RAE26 TSE31 GSB1956E1958 P0017 60017 T02000139 58006 $
14840KMKG MKG20060603160010506/03/06 16:00:31  5-MIN KMKG 032100Z 27006KT 10SM FEW016 SCT035 20/13 A2995 600 65 1400 270/06 RMK AO2 $
14840KMKG MKG20060603160510506/03/06 16:05:31  5-MIN KMKG 032105Z 27007KT 10SM FEW016 SCT035 20/13 A2995 600 65 1400 280/07 RMK AO2 $
14840KMKG MKG20060603161010506/03/06 16:10:31  5-MIN KMKG 032110Z 29007KT 10SM FEW016 SCT035 21/13 A2995 600 60 1400 290/07 RMK AO2 $
14840KMKG MKG20060603161510506/03/06 16:15:31  5-MIN KMKG 032115Z 30007KT 10SM FEW016 SCT035 21/12 A2995 600 58 1400 310/07 RMK AO2 $
14840KMKG MKG20060603162010506/03/06 16:20:31  5-MIN KMKG 032120Z 29007KT 10SM FEW016 SCT035 21/12 A2995 610 58 1400 300/07 RMK AO2 $
14840KMKG MKG20060603162510506/03/06 16:25:31  5-MIN KMKG 032125Z 31008KT 10SM FEW016 SCT035 21/12 A2995 610 54 1500 310/08 RMK AO2 $
14840KMKG MKG20060603163010506/03/06 16:30:31  5-MIN KMKG 032130Z 31010KT 10SM FEW035 SCT085 22/12 A2995 600 52 1600 320/10 RMK AO2 $
14840KMKG MKG20060603163511706/03/06 16:35:31  5-MIN KMKG 032135Z 32008KT 10SM FEW035 SCT085 22/12 A2995 600 52 1600 320/08 RMK AO2 LTG DSNT NE $
14840KMKG MKG20060603164011706/03/06 16:40:31  5-MIN KMKG 032140Z 33010KT 10SM FEW035 SCT085 22/12 A2995 600 52 1600 330/10 RMK AO2 LTG DSNT NE $
14840KMKG MKG20060603164511706/03/06 16:45:31  5-MIN KMKG 032145Z 32009KT 10SM FEW035 SCT085 22/11 A2995 600 49 1600 320/09 RMK AO2 LTG DSNT NE $
14840KMKG MKG20060603165013406/03/06 16:50:31  5-MIN KMKG 032150Z 31009KT 10SM FEW035 SCT085 22/11 A2995 600 49 1600 310/09 RMK AO2 SLP141 LTG DSNT NE T02220111 $
14840KMKG MKG20060603165513406/03/06 16:55:31  5-MIN KMKG 032155Z 33007KT 10SM FEW035 SCT085 22/11 A2995 600 47 1600 330/07 RMK AO2 SLP140 LTG DSNT NE T02220106 $
14840KMKG MKG20060603170011706/03/06 17:00:31  5-MIN KMKG 032200Z 32008KT 10SM FEW035 SCT080 22/11 A2995 600 47 1600 320/08 RMK AO2 LTG DSNT NE $
14840KMKG MKG20060603170511706/03/06 17:05:31  5-MIN KMKG 032205Z 32007KT 10SM FEW035 SCT080 23/11 A2995 600 45 1700 320/07 RMK AO2 LTG DSNT NE $
14840KMKG MKG20060603171011706/03/06 17:10:31  5-MIN KMKG 032210Z 32010KT 10SM FEW035 SCT080 23/11 A2996 600 45 1700 320/10 RMK AO2 LTG DSNT NE $
14840KMKG MKG20060603171511106/03/06 17:15:31  5-MIN KMKG 032215Z 35013G17KT 10SM FEW035 SCT080 23/10 A2996 600 42 1700 350/13G17 RMK AO2 $
14840KMKG MKG20060603172010506/03/06 17:20:31  5-MIN KMKG 032220Z 34014KT 10SM FEW035 SCT080 23/09 A2996 600 42 1700 350/14 RMK AO2 $
14840KMKG MKG20060603172511606/03/06 17:25:31  5-MIN KMKG 032225Z 34012KT 10SM FEW035 SCT080 23/09 A2996 600 42 1700 350/12 RMK AO2 LTG DSNT N $
14840KMKG MKG20060603173011606/03/06 17:30:31  5-MIN KMKG 032230Z 04011KT 10SM FEW035 SCT080 23/10 A2996 600 44 1700 040/11 RMK AO2 LTG DSNT N $
14840KMKG MKG20060603173511606/03/06 17:35:31  5-MIN KMKG 032235Z 04011KT 10SM SCT075 BKN085 23/09 A2996 590 42 1700 040/11 RMK AO2 LTG DSNT N $
14840KMKG MKG20060603174012006/03/06 17:40:31  5-MIN KMKG 032240Z 04010KT 10SM BKN080 22/09 A2996 590 43 1600 050/10 RMK AO2 WSHFT 2222 LTG DSNT N $
14840KMKG MKG20060603174512706/03/06 17:45:31  5-MIN KMKG 032245Z 05009KT 10SM FEW070 SCT085 22/08 A2996 590 40 1600 050/09 RMK AO2 WSHFT 2222 LTG DSNT N $
14840KMKG MKG20060603175014706/03/06 17:50:31  5-MIN KMKG 032250Z 04008KT 10SM FEW070 SCT085 22/09 A2996 600 42 1600 040/08 RMK AO2 WSHFT 2222 SLP143 LTG DSNT N-NE T02220089 $
14840KMKG MKG20060603175514706/03/06 17:55:31  5-MIN KMKG 032255Z 03006KT 10SM FEW070 SCT080 23/09 A2996 600 40 1700 040/06 RMK AO2 WSHFT 2222 SLP142 LTG DSNT N-NE T02280089 $
14840KMKG MKG20060603180009806/03/06 18:00:31  5-MIN KMKG 032300Z 02007KT 10SM SCT080 23/09 A2996 590 40 1700 020/07 RMK AO2 $
14840KMKG MKG20060603180509806/03/06 18:05:31  5-MIN KMKG 032305Z 02009KT 10SM SCT080 23/09 A2996 590 41 1700 030/09 RMK AO2 $
14840KMKG MKG20060603181009806/03/06 18:10:31  5-MIN KMKG 032310Z 03010KT 10SM SCT080 23/09 A2996 590 41 1700 040/10 RMK AO2 $
14840KMKG MKG20060603181510406/03/06 18:15:31  5-MIN KMKG 032315Z 03015G18KT 10SM SCT080 22/09 A2997 580 42 1600 030/15G18 RMK AO2 $
14840KMKG MKG20060603182010406/03/06 18:20:31  5-MIN KMKG 032320Z 04012G19KT 10SM SCT080 22/09 A2997 590 43 1500 040/12G19 RMK AO2 $
14840KMKG MKG20060603182510406/03/06 18:25:31  5-MIN KMKG 032325Z 05012G19KT 10SM SCT080 21/09 A2996 590 46 1400 050/12G19 RMK AO2 $
14840KMKG MKG20060603183009806/03/06 18:30:31  5-MIN KMKG 032330Z 04009KT 10SM SCT080 20/09 A2996 590 48 1300 050/09 RMK AO2 $
14840KMKG MKG20060603183509806/03/06 18:35:31  5-MIN KMKG 032335Z 04007KT 10SM SCT080 20/09 A2996 590 50 1400 040/07 RMK AO2 $
14840KMKG MKG20060603184009806/03/06 18:40:31  5-MIN KMKG 032340Z VRB05KT 10SM SCT080 20/10 A2996 590 52 1400 VRB/05 RMK AO2 $
14840KMKG MKG20060603184509806/03/06 18:45:31  5-MIN KMKG 032345Z 01003KT 10SM SCT080 21/10 A2996 600 50 1400 010/03 RMK AO2 $
14840KMKG MKG20060603185014606/03/06 18:50:31  5-MIN KMKG 032350Z 35004KT 10SM SCT080 SCT100 21/10 A2996 600 48 1500 350/04 RMK AO2 SLP143 60017 T02110100 10233 20167 58006 $
14840KMKG MKG20060603185514606/03/06 18:55:31  5-MIN KMKG 032355Z 36005KT 10SM SCT080 SCT100 21/10 A2996 590 48 1500 360/05 RMK AO2 SLP145 60017 T02110100 10233 20167 53002 $
14840KMKG MKG20060603190009506/03/06 19:00:31  5-MIN KMKG 040000Z 02007KT 10SM CLR 21/10 A2997 590 50 1400 020/07 RMK AO2 $
14840KMKG MKG20060603190509506/03/06 19:05:31  5-MIN KMKG 040005Z 02006KT 10SM CLR 20/09 A2997 580 50 1300 030/06 RMK AO2 $
14840KMKG MKG20060603191009506/03/06 19:10:31  5-MIN KMKG 040010Z 03005KT 10SM CLR 20/09 A2997 580 50 1300 040/05 RMK AO2 $
14840KMKG MKG20060603191509506/03/06 19:15:31  5-MIN KMKG 040015Z 04007KT 10SM CLR 20/09 A2997 580 50 1300 040/07 RMK AO2 $
14840KMKG MKG20060603192009506/03/06 19:20:31  5-MIN KMKG 040020Z 04009KT 10SM CLR 20/10 A2998 580 52 1300 040/09 RMK AO2 $
14840KMKG MKG20060603192509506/03/06 19:25:31  5-MIN KMKG 040025Z 04009KT 10SM CLR 19/11 A2998 580 56 1300 050/09 RMK AO2 $
14840KMKG MKG20060603193009506/03/06 19:30:31  5-MIN KMKG 040030Z 04007KT 10SM CLR 19/11 A2998 580 58 1300 050/07 RMK AO2 $
14840KMKG MKG20060603193510506/03/06 19:35:31  5-MIN KMKG 040035Z 05006KT 10SM FEW045 SCT090 19/11 A2998 580 58 1300 060/06 RMK AO2 $
14840KMKG MKG20060603194010506/03/06 19:40:31  5-MIN KMKG 040040Z 06007KT 10SM FEW045 SCT090 19/12 A2998 580 62 1200 070/07 RMK AO2 $
14840KMKG MKG20060603194510506/03/06 19:45:31  5-MIN KMKG 040045Z 09009KT 10SM FEW045 SCT090 18/12 A2998 580 67 1100 100/09 RMK AO2 $
14840KMKG MKG20060603195012206/03/06 19:50:31  5-MIN KMKG 040050Z 09006KT 10SM FEW045 SCT090 18/12 A2998 570 67 1100 090/06 RMK AO2 SLP151 T01830122 $
14840KMKG MKG20060603195512206/03/06 19:55:31  5-MIN KMKG 040055Z 07007KT 10SM FEW045 SCT090 18/12 A2999 570 69 1100 070/07 RMK AO2 SLP153 T01780122 $
14840KMKG MKG20060603200009506/03/06 20:00:31  5-MIN KMKG 040100Z 09006KT 10SM CLR 18/12 A2999 570 69 1100 090/06 RMK AO2 $
14840KMKG MKG20060603200509806/03/06 20:05:31  5-MIN KMKG 040105Z 11006KT 10SM FEW080 17/13 A2999 570 75 1000 110/06 RMK AO2 $
14840KMKG MKG20060603201009806/03/06 20:10:31  5-MIN KMKG 040110Z 12007KT 10SM FEW080 17/13 A2999 570 75 1000 120/07 RMK AO2 $
14840KMKG MKG20060603201509806/03/06 20:15:31  5-MIN KMKG 040115Z 11004KT 10SM FEW080 17/13 A2999 570 75 1000 110/04 RMK AO2 $
14840KMKG MKG20060603202009706/03/06 20:20:31  5-MIN KMKG 040120Z 12006KT 10SM FEW080 17/13 A2999 570 77 900 130/06 RMK AO2 $
14840KMKG MKG20060603202509706/03/06 20:25:31  5-MIN KMKG 040125Z 12005KT 10SM FEW080 17/13 A2999 570 77 900 130/05 RMK AO2 $
14840KMKG MKG20060603203009706/03/06 20:30:31  5-MIN KMKG 040130Z 12004KT 10SM FEW080 17/13 A2999 570 77 900 120/04 RMK AO2 $
14840KMKG MKG20060603203509706/03/06 20:35:31  5-MIN KMKG 040135Z 09004KT 10SM FEW080 17/13 A2999 570 77 900 100/04 RMK AO2 $
14840KMKG MKG20060603204009706/03/06 20:40:31  5-MIN KMKG 040140Z 09004KT 10SM FEW080 17/12 A2999 570 75 900 090/04 RMK AO2 $
14840KMKG MKG20060603204509706/03/06 20:45:31  5-MIN KMKG 040145Z 06003KT 10SM FEW080 16/12 A2999 570 77 900 070/03 RMK AO2 $
14840KMKG MKG20060603205011406/03/06 20:50:31  5-MIN KMKG 040150Z 04003KT 10SM FEW080 17/12 A2999 560 75 900 050/03 RMK AO2 SLP155 T01670122 $
14840KMKG MKG20060603205511406/03/06 20:55:31  5-MIN KMKG 040155Z 06003KT 10SM FEW090 16/12 A2999 560 77 900 060/03 RMK AO2 SLP156 T01610122 $
14840KMKG MKG20060603210009406/03/06 21:00:31  5-MIN KMKG 040200Z 06004KT 10SM CLR 17/12 A3000 560 75 900 060/04 RMK AO2 $
14840KMKG MKG20060603210509406/03/06 21:05:31  5-MIN KMKG 040205Z 06004KT 10SM CLR 16/12 A3000 560 77 900 070/04 RMK AO2 $
14840KMKG MKG20060603211009406/03/06 21:10:31  5-MIN KMKG 040210Z 06004KT 10SM CLR 16/12 A3000 560 77 900 060/04 RMK AO2 $
14840KMKG MKG20060603211509406/03/06 21:15:31  5-MIN KMKG 040215Z 06004KT 10SM CLR 16/12 A3000 560 77 900 070/04 RMK AO2 $
14840KMKG MKG20060603212009406/03/06 21:20:31  5-MIN KMKG 040220Z 07005KT 10SM CLR 16/12 A3000 550 80 800 070/05 RMK AO2 $
14840KMKG MKG20060603212509406/03/06 21:25:31  5-MIN KMKG 040225Z 06005KT 10SM CLR 16/12 A3000 550 80 800 060/05 RMK AO2 $
14840KMKG MKG20060603213009406/03/06 21:30:31  5-MIN KMKG 040230Z 06004KT 10SM CLR 16/12 A3001 550 80 800 060/04 RMK AO2 $
14840KMKG MKG20060603213509406/03/06 21:35:31  5-MIN KMKG 040235Z 05005KT 10SM CLR 16/12 A3001 550 80 800 060/05 RMK AO2 $
14840KMKG MKG20060603214009406/03/06 21:40:31  5-MIN KMKG 040240Z 06005KT 10SM CLR 16/12 A3001 550 77 800 060/05 RMK AO2 $
14840KMKG MKG20060603214509406/03/06 21:45:31  5-MIN KMKG 040245Z 05004KT 10SM CLR 16/12 A3001 550 80 800 050/04 RMK AO2 $
14840KMKG MKG20060603215012006/03/06 21:50:31  5-MIN KMKG 040250Z 05003KT 10SM FEW090 16/12 A3001 550 80 800 050/03 RMK AO2 SLP160 T01560122 53002 $
14840KMKG MKG20060603215512006/03/06 21:55:31  5-MIN KMKG 040255Z 06004KT 10SM FEW090 16/12 A3001 550 80 800 060/04 RMK AO2 SLP161 T01560122 51016 $
14840KMKG MKG20060603220009406/03/06 22:00:31  5-MIN KMKG 040300Z 06005KT 10SM CLR 15/12 A3001 550 83 700 060/05 RMK AO2 $
14840KMKG MKG20060603220509406/03/06 22:05:31  5-MIN KMKG 040305Z 06004KT 10SM CLR 14/12 A3001 550 86 700 060/04 RMK AO2 $
14840KMKG MKG20060603221009406/03/06 22:10:31  5-MIN KMKG 040310Z 06004KT 10SM CLR 14/12 A3001 550 86 700 060/04 RMK AO2 $
14840KMKG MKG20060603221509406/03/06 22:15:31  5-MIN KMKG 040315Z 05004KT 10SM CLR 14/12 A3001 550 86 600 050/04 RMK AO2 $
14840KMKG MKG20060603222009406/03/06 22:20:31  5-MIN KMKG 040320Z 00000KT 10SM CLR 14/12 A3001 550 86 700 000/00 RMK AO2 $
14840KMKG MKG20060603222509406/03/06 22:25:31  5-MIN KMKG 040325Z 00000KT 10SM CLR 15/12 A3001 550 83 700 000/00 RMK AO2 $
14840KMKG MKG20060603223009406/03/06 22:30:31  5-MIN KMKG 040330Z 00000KT 10SM CLR 15/12 A3001 550 83 700 000/00 RMK AO2 $
14840KMKG MKG20060603223509406/03/06 22:35:31  5-MIN KMKG 040335Z 00000KT 10SM CLR 15/12 A3001 550 83 700 000/00 RMK AO2 $
14840KMKG MKG20060603224009406/03/06 22:40:31  5-MIN KMKG 040340Z 00000KT 10SM CLR 15/12 A3001 550 83 700 000/00 RMK AO2 $
14840KMKG MKG20060603224509406/03/06 22:45:31  5-MIN KMKG 040345Z 00000KT 10SM CLR 14/12 A3001 550 86 600 000/00 RMK AO2 $
14840KMKG MKG20060603225011106/03/06 22:50:31  5-MIN KMKG 040350Z 00000KT 10SM CLR 14/12 A3001 550 86 600 000/00 RMK AO2 SLP161 T01440122 $
14840KMKG MKG20060603225511106/03/06 22:55:31  5-MIN KMKG 040355Z 00000KT 10SM CLR 15/12 A3001 550 83 700 000/00 RMK AO2 SLP161 T01500122 $
14840KMKG MKG20060603230009406/03/06 23:00:31  5-MIN KMKG 040400Z 00000KT 10SM CLR 14/12 A3001 550 86 600 000/00 RMK AO2 $
14840KMKG MKG20060603230509406/03/06 23:05:31  5-MIN KMKG 040405Z 00000KT 10SM CLR 14/12 A3001 550 86 600 000/00 RMK AO2 $
14840KMKG MKG20060603231009406/03/06 23:10:31  5-MIN KMKG 040410Z 00000KT 10SM CLR 14/12 A3001 550 86 600 000/00 RMK AO2 $
14840KMKG MKG20060603231509406/03/06 23:15:31  5-MIN KMKG 040415Z 00000KT 10SM CLR 14/12 A3001 550 86 600 000/00 RMK AO2 $
14840KMKG MKG20060603232009406/03/06 23:20:31  5-MIN KMKG 040420Z 00000KT 10SM CLR 14/12 A3001 550 86 700 000/00 RMK AO2 $
14840KMKG MKG20060603232509406/03/06 23:25:31  5-MIN KMKG 040425Z 00000KT 10SM CLR 14/12 A3001 550 86 700 000/00 RMK AO2 $
14840KMKG MKG20060603233009406/03/06 23:30:31  5-MIN KMKG 040430Z 00000KT 10SM CLR 14/12 A3001 550 86 700 000/00 RMK AO2 $
14840KMKG MKG20060603233509406/03/06 23:35:31  5-MIN KMKG 040435Z 00000KT 10SM CLR 14/12 A3001 550 90 600 000/00 RMK AO2 $
14840KMKG MKG20060603234009406/03/06 23:40:31  5-MIN KMKG 040440Z 00000KT 10SM CLR 14/12 A3001 550 90 600 000/00 RMK AO2 $
14840KMKG MKG20060603234509406/03/06 23:45:31  5-MIN KMKG 040445Z 00000KT 10SM CLR 14/12 A3001 550 90 600 000/00 RMK AO2 $
14840KMKG MKG20060603235012106/03/06 23:50:31  5-MIN KMKG 040450Z 00000KT 10SM CLR 13/12 A3001 550 93 500 000/00 RMK AO2 SLP159 T01330122 402330128 $
14840KMKG MKG20060603235512106/03/06 23:55:31  5-MIN KMKG 040455Z 00000KT 10SM CLR 13/12 A3000 550 89 500 000/00 RMK AO2 SLP159 T01330117 402330128 $
14840KMKG MKG20060604000009406/04/06 00:00:32  5-MIN KMKG 040500Z 00000KT 10SM CLR 13/12 A3000 550 89 500 000/00 RMK AO2 $
14840KMKG MKG20060604000509406/04/06 00:05:31  5-MIN KMKG 040505Z 00000KT 10SM CLR 13/12 A3000 550 93 500 000/00 RMK AO2 $
14840KMKG MKG20060604001009406/04/06 00:10:31  5-MIN KMKG 040510Z 00000KT 10SM CLR 13/12 A3000 550 93 500 000/00 RMK AO2 $
14840KMKG MKG20060604001509406/04/06 00:15:31  5-MIN KMKG 040515Z 00000KT 10SM CLR 13/12 A3000 550 93 500 000/00 RMK AO2 $
14840KMKG MKG20060604002009406/04/06 00:20:31  5-MIN KMKG 040520Z 00000KT 10SM CLR 13/12 A3000 550 89 500 000/00 RMK AO2 $
14840KMKG MKG20060604002509406/04/06 00:25:31  5-MIN KMKG 040525Z 00000KT 10SM CLR 13/12 A3000 550 89 500 000/00 RMK AO2 $
14840KMKG MKG20060604003009406/04/06 00:30:31  5-MIN KMKG 040530Z 00000KT 10SM CLR 13/12 A3000 550 93 500 000/00 RMK AO2 $
14840KMKG MKG20060604003509406/04/06 00:35:31  5-MIN KMKG 040535Z 00000KT 10SM CLR 14/12 A3000 550 90 600 000/00 RMK AO2 $
14840KMKG MKG20060604004009406/04/06 00:40:31  5-MIN KMKG 040540Z 00000KT 10SM CLR 13/12 A3000 550 93 500 000/00 RMK AO2 $
14840KMKG MKG20060604004509406/04/06 00:45:31  5-MIN KMKG 040545Z 00000KT 10SM CLR 13/12 A3000 550 93 500 000/00 RMK AO2 $
14840KMKG MKG20060604005012906/04/06 00:50:31  5-MIN KMKG 040550Z 00000KT 10SM CLR 13/12 A3001 550 93 500 000/00 RMK AO2 SLP160 T01280117 10211 20128 51016 $
14840KMKG MKG20060604005512906/04/06 00:55:31  5-MIN KMKG 040555Z 00000KT 10SM CLR 13/12 A3001 550 93 500 000/00 RMK AO2 SLP160 T01280117 10211 20128 57001 $
14840KMKG MKG20060604010009406/04/06 01:00:31  5-MIN KMKG 040600Z 00000KT 10SM CLR 13/12 A3000 550 93 500 000/00 RMK AO2 $
14840KMKG MKG20060604010509406/04/06 01:05:31  5-MIN KMKG 040605Z 00000KT 10SM CLR 13/12 A3000 550 93 500 000/00 RMK AO2 $
14840KMKG MKG20060604011009406/04/06 01:10:31  5-MIN KMKG 040610Z 00000KT 10SM CLR 13/12 A3000 550 93 500 000/00 RMK AO2 $
14840KMKG MKG20060604011509406/04/06 01:15:31  5-MIN KMKG 040615Z 00000KT 10SM CLR 13/12 A3000 550 93 500 000/00 RMK AO2 $
14840KMKG MKG20060604012009406/04/06 01:20:31  5-MIN KMKG 040620Z 00000KT 10SM CLR 13/11 A3000 550 89 500 000/00 RMK AO2 $
14840KMKG MKG20060604012509406/04/06 01:25:31  5-MIN KMKG 040625Z 00000KT 10SM CLR 13/11 A3000 550 89 500 000/00 RMK AO2 $
14840KMKG MKG20060604013009406/04/06 01:30:31  5-MIN KMKG 040630Z 00000KT 10SM CLR 13/12 A3000 550 93 500 000/00 RMK AO2 $
14840KMKG MKG20060604013509406/04/06 01:35:31  5-MIN KMKG 040635Z 00000KT 10SM CLR 13/12 A3000 550 93 500 000/00 RMK AO2 $
14840KMKG MKG20060604014009406/04/06 01:40:31  5-MIN KMKG 040640Z 00000KT 10SM CLR 13/12 A3000 560 93 500 000/00 RMK AO2 $
14840KMKG MKG20060604014509406/04/06 01:45:31  5-MIN KMKG 040645Z 00000KT 10SM CLR 12/12 A3000 560 96 400 000/00 RMK AO2 $
14840KMKG MKG20060604015011006/04/06 01:50:31  5-MIN KMKG 040650Z 00000KT 9SM CLR 12/12 A3000 560 96 400 000/00 RMK AO2 SLP158 T01220117 $
14840KMKG MKG20060604015511006/04/06 01:55:31  5-MIN KMKG 040655Z 00000KT 8SM CLR 13/12 A3000 550 93 500 000/00 RMK AO2 SLP159 T01280117 $
14840KMKG MKG20060604020009306/04/06 02:00:31  5-MIN KMKG 040700Z 36003KT 7SM CLR 13/12 A3000 550 93 500 360/03 RMK AO2 $
14840KMKG MKG20060604020509306/04/06 02:05:31  5-MIN KMKG 040705Z 36003KT 7SM CLR 12/12 A3001 550 96 400 010/03 RMK AO2 $
14840KMKG MKG20060604021009306/04/06 02:10:31  5-MIN KMKG 040710Z 36003KT 9SM CLR 13/12 A3001 550 93 500 010/03 RMK AO2 $
14840KMKG MKG20060604021509406/04/06 02:15:31  5-MIN KMKG 040715Z 36004KT 10SM CLR 13/12 A3001 550 93 500 360/04 RMK AO2 $
14840KMKG MKG20060604022009406/04/06 02:20:31  5-MIN KMKG 040720Z 36004KT 10SM CLR 13/12 A3001 550 89 500 360/04 RMK AO2 $
14840KMKG MKG20060604022509406/04/06 02:25:31  5-MIN KMKG 040725Z 01004KT 10SM CLR 13/12 A3001 550 89 500 010/04 RMK AO2 $
14840KMKG MKG20060604023009406/04/06 02:30:31  5-MIN KMKG 040730Z 01004KT 10SM CLR 13/12 A3001 550 89 500 010/04 RMK AO2 $
14840KMKG MKG20060604023509406/04/06 02:35:31  5-MIN KMKG 040735Z 36003KT 10SM CLR 13/12 A3001 550 89 500 010/03 RMK AO2 $
14840KMKG MKG20060604024009406/04/06 02:40:31  5-MIN KMKG 040740Z 35003KT 10SM CLR 13/12 A3001 550 89 500 360/03 RMK AO2 $
14840KMKG MKG20060604024509406/04/06 02:45:31  5-MIN KMKG 040745Z 36003KT 10SM CLR 13/12 A3001 550 89 500 010/03 RMK AO2 $
14840KMKG MKG20060604025011106/04/06 02:50:31  5-MIN KMKG 040750Z 01003KT 10SM CLR 13/11 A3001 550 86 500 010/03 RMK AO2 SLP160 T01330111 $
14840KMKG MKG20060604025511106/04/06 02:55:31  5-MIN KMKG 040755Z 01003KT 10SM CLR 13/11 A3001 550 86 500 020/03 RMK AO2 SLP161 T01330111 $
14840KMKG MKG20060604030009406/04/06 03:00:31  5-MIN KMKG 040800Z 00000KT 10SM CLR 13/11 A3000 550 86 500 000/00 RMK AO2 $
14840KMKG MKG20060604030509406/04/06 03:05:31  5-MIN KMKG 040805Z 01003KT 10SM CLR 13/11 A3000 550 86 500 010/03 RMK AO2 $
14840KMKG MKG20060604031009406/04/06 03:10:31  5-MIN KMKG 040810Z 35003KT 10SM CLR 13/11 A3001 550 86 500 360/03 RMK AO2 $
14840KMKG MKG20060604031509406/04/06 03:15:31  5-MIN KMKG 040815Z 35003KT 10SM CLR 13/11 A3001 550 86 500 350/03 RMK AO2 $
14840KMKG MKG20060604032009406/04/06 03:20:31  5-MIN KMKG 040820Z 36004KT 10SM CLR 12/11 A3001 550 93 400 010/04 RMK AO2 $
14840KMKG MKG20060604032509406/04/06 03:25:31  5-MIN KMKG 040825Z 01004KT 10SM CLR 13/11 A3001 550 89 500 010/04 RMK AO2 $
14840KMKG MKG20060604033009406/04/06 03:30:31  5-MIN KMKG 040830Z 01004KT 10SM CLR 13/11 A3001 550 89 500 010/04 RMK AO2 $
14840KMKG MKG20060604033509406/04/06 03:35:31  5-MIN KMKG 040835Z 36003KT 10SM CLR 13/11 A3001 550 89 500 010/03 RMK AO2 $
14840KMKG MKG20060604034009406/04/06 03:40:31  5-MIN KMKG 040840Z 35003KT 10SM CLR 12/11 A3001 550 89 400 360/03 RMK AO2 $
14840KMKG MKG20060604034509406/04/06 03:45:31  5-MIN KMKG 040845Z 35004KT 10SM CLR 12/10 A3001 550 89 300 360/04 RMK AO2 $
14840KMKG MKG20060604035011706/04/06 03:50:31  5-MIN KMKG 040850Z 35003KT 10SM CLR 12/10 A3001 550 86 400 360/03 RMK AO2 SLP161 T01220100 57001 $
14840KMKG MKG20060604035511706/04/06 03:55:31  5-MIN KMKG 040855Z 36005KT 10SM CLR 12/11 A3001 550 89 400 360/05 RMK AO2 SLP162 T01220106 53001 $
14840KMKG MKG20060604040009406/04/06 04:00:31  5-MIN KMKG 040900Z 35004KT 10SM CLR 12/10 A3001 550 89 300 350/04 RMK AO2 $
14840KMKG MKG20060604040509406/04/06 04:05:31  5-MIN KMKG 040905Z 36004KT 10SM CLR 11/10 A3001 550 93 200 360/04 RMK AO2 $
14840KMKG MKG20060604041009406/04/06 04:10:31  5-MIN KMKG 040910Z 36004KT 10SM CLR 11/10 A3001 540 93 200 360/04 RMK AO2 $
14840KMKG MKG20060604041509406/04/06 04:15:31  5-MIN KMKG 040915Z 36005KT 10SM CLR 11/10 A3001 540 93 200 360/05 RMK AO2 $
14840KMKG MKG20060604042009406/04/06 04:20:31  5-MIN KMKG 040920Z 35005KT 10SM CLR 12/10 A3001 540 86 400 350/05 RMK AO2 $
14840KMKG MKG20060604042509406/04/06 04:25:31  5-MIN KMKG 040925Z 34005KT 10SM CLR 12/11 A3001 540 93 300 350/05 RMK AO2 $
14840KMKG MKG20060604043009406/04/06 04:30:31  5-MIN KMKG 040930Z 35005KT 10SM CLR 12/11 A3001 540 89 400 350/05 RMK AO2 $
14840KMKG MKG20060604043509406/04/06 04:35:31  5-MIN KMKG 040935Z 36005KT 10SM CLR 12/11 A3002 540 89 400 360/05 RMK AO2 $
14840KMKG MKG20060604044009406/04/06 04:40:31  5-MIN KMKG 040940Z 35005KT 10SM CLR 12/11 A3002 540 89 400 360/05 RMK AO2 $
14840KMKG MKG20060604044509406/04/06 04:45:31  5-MIN KMKG 040945Z 36005KT 10SM CLR 12/11 A3002 540 89 400 360/05 RMK AO2 $
14840KMKG MKG20060604045011106/04/06 04:50:31  5-MIN KMKG 040950Z 35005KT 10SM CLR 12/10 A3002 540 86 400 360/05 RMK AO2 SLP164 T01220100 $
14840KMKG MKG20060604045511106/04/06 04:55:31  5-MIN KMKG 040955Z 35005KT 10SM CLR 12/10 A3002 540 86 400 360/05 RMK AO2 SLP164 T01220100 $
14840KMKG MKG20060604050009406/04/06 05:00:31  5-MIN KMKG 041000Z 36005KT 10SM CLR 12/10 A3002 540 86 400 360/05 RMK AO2 $
14840KMKG MKG20060604050509406/04/06 05:05:31  5-MIN KMKG 041005Z 36004KT 10SM CLR 12/10 A3002 540 89 300 360/04 RMK AO2 $
14840KMKG MKG20060604051009406/04/06 05:10:31  5-MIN KMKG 041010Z 36004KT 10SM CLR 12/10 A3002 540 89 300 010/04 RMK AO2 $
14840KMKG MKG20060604051509406/04/06 05:15:31  5-MIN KMKG 041015Z 01004KT 10SM CLR 12/10 A3002 540 89 300 010/04 RMK AO2 $
14840KMKG MKG20060604052009406/04/06 05:20:31  5-MIN KMKG 041020Z 01005KT 10SM CLR 12/10 A3002 540 89 300 010/05 RMK AO2 $
14840KMKG MKG20060604052509406/04/06 05:25:31  5-MIN KMKG 041025Z 35004KT 10SM CLR 12/10 A3002 540 89 300 360/04 RMK AO2 $
14840KMKG MKG20060604053009406/04/06 05:30:31  5-MIN KMKG 041030Z 35004KT 10SM CLR 12/10 A3002 540 89 300 360/04 RMK AO2 $
14840KMKG MKG20060604053509406/04/06 05:35:31  5-MIN KMKG 041035Z 36004KT 10SM CLR 12/10 A3002 530 89 300 360/04 RMK AO2 $
14840KMKG MKG20060604054009406/04/06 05:40:31  5-MIN KMKG 041040Z 36004KT 10SM CLR 12/10 A3003 530 86 400 360/04 RMK AO2 $
14840KMKG MKG20060604054509406/04/06 05:45:31  5-MIN KMKG 041045Z 01004KT 10SM CLR 12/10 A3003 530 86 400 010/04 RMK AO2 $
14840KMKG MKG20060604055011106/04/06 05:50:31  5-MIN KMKG 041050Z 02003KT 10SM CLR 12/11 A3003 530 89 400 020/03 RMK AO2 SLP168 T01220106 $
14840KMKG MKG20060604055511106/04/06 05:55:31  5-MIN KMKG 041055Z 00000KT 10SM CLR 12/11 A3003 530 89 400 000/00 RMK AO2 SLP169 T01220106 $
14840KMKG MKG20060604060009406/04/06 06:00:31  5-MIN KMKG 041100Z 00000KT 10SM CLR 12/11 A3004 520 89 400 000/00 RMK AO2 $
14840KMKG MKG20060604060509406/04/06 06:05:31  5-MIN KMKG 041105Z 00000KT 10SM CLR 12/11 A3004 520 89 400 000/00 RMK AO2 $
14840KMKG MKG20060604061009406/04/06 06:10:31  5-MIN KMKG 041110Z 00000KT 10SM CLR 13/11 A3004 520 86 400 000/00 RMK AO2 $
14840KMKG MKG20060604061509406/04/06 06:15:31  5-MIN KMKG 041115Z 00000KT 10SM CLR 13/11 A3004 520 83 500 000/00 RMK AO2 $
14840KMKG MKG20060604062009406/04/06 06:20:31  5-MIN KMKG 041120Z 00000KT 10SM CLR 13/11 A3004 520 83 500 000/00 RMK AO2 $
14840KMKG MKG20060604062509406/04/06 06:25:31  5-MIN KMKG 041125Z 01003KT 10SM CLR 13/11 A3004 520 83 500 010/03 RMK AO2 $
14840KMKG MKG20060604063009406/04/06 06:30:31  5-MIN KMKG 041130Z 01003KT 10SM CLR 14/11 A3004 520 80 500 020/03 RMK AO2 $
14840KMKG MKG20060604063509406/04/06 06:35:31  5-MIN KMKG 041135Z 03003KT 10SM CLR 14/11 A3004 520 80 500 030/03 RMK AO2 $
14840KMKG MKG20060604064009406/04/06 06:40:31  5-MIN KMKG 041140Z 00000KT 10SM CLR 14/11 A3004 520 77 600 000/00 RMK AO2 $
14840KMKG MKG20060604064509406/04/06 06:45:31  5-MIN KMKG 041145Z 00000KT 10SM CLR 14/11 A3004 520 80 600 000/00 RMK AO2 $
14840KMKG MKG20060604065013506/04/06 06:50:31  5-MIN KMKG 041150Z 00000KT 10SM CLR 15/11 A3005 510 74 700 000/00 RMK AO2 SLP173 70017 T01500106 10150 20111 53001 $
14840KMKG MKG20060604065513506/04/06 06:55:31  5-MIN KMKG 041155Z 00000KT 10SM CLR 15/11 A3005 510 74 700 000/00 RMK AO2 SLP173 70017 T01500106 10150 20111 53012 $
14840KMKG MKG20060604070009406/04/06 07:00:31  5-MIN KMKG 041200Z 07003KT 10SM CLR 15/11 A3005 510 74 700 070/03 RMK AO2 $
14840KMKG MKG20060604070509406/04/06 07:05:31  5-MIN KMKG 041205Z 06004KT 10SM CLR 15/10 A3005 510 72 700 060/04 RMK AO2 $
14840KMKG MKG20060604071009406/04/06 07:10:31  5-MIN KMKG 041210Z 07004KT 10SM CLR 15/10 A3005 510 72 700 070/04 RMK AO2 $
14840KMKG MKG20060604071509406/04/06 07:15:31  5-MIN KMKG 041215Z 07003KT 10SM CLR 16/11 A3005 510 72 700 070/03 RMK AO2 $
14840KMKG MKG20060604072009406/04/06 07:20:31  5-MIN KMKG 041220Z 05003KT 10SM CLR 16/11 A3005 510 69 800 060/03 RMK AO2 $
14840KMKG MKG20060604072509406/04/06 07:25:31  5-MIN KMKG 041225Z 07004KT 10SM CLR 16/10 A3005 510 67 800 070/04 RMK AO2 $
14840KMKG MKG20060604073009406/04/06 07:30:31  5-MIN KMKG 041230Z 07005KT 10SM CLR 16/10 A3005 510 67 800 070/05 RMK AO2 $
14840KMKG MKG20060604073509406/04/06 07:35:31  5-MIN KMKG 041235Z 06005KT 10SM CLR 17/10 A3005 510 64 900 070/05 RMK AO2 $
14840KMKG MKG20060604074009406/04/06 07:40:31  5-MIN KMKG 041240Z 07004KT 10SM CLR 17/10 A3005 510 64 900 070/04 RMK AO2 $
14840KMKG MKG20060604074509406/04/06 07:45:31  5-MIN KMKG 041245Z 07004KT 10SM CLR 17/11 A3005 510 64 900 070/04 RMK AO2 $
14840KMKG MKG20060604075011106/04/06 07:50:31  5-MIN KMKG 041250Z 06004KT 10SM CLR 17/11 A3005 510 64 900 070/04 RMK AO2 SLP175 T01720106 $
14840KMKG MKG20060604075511206/04/06 07:55:31  5-MIN KMKG 041255Z 07004KT 10SM CLR 18/11 A3005 510 62 1000 070/04 RMK AO2 SLP175 T01780106 $
14840KMKG MKG20060604080009506/04/06 08:00:31  5-MIN KMKG 041300Z 07004KT 10SM CLR 18/11 A3005 510 62 1000 070/04 RMK AO2 $
14840KMKG MKG20060604080509506/04/06 08:05:31  5-MIN KMKG 041305Z 06004KT 10SM CLR 18/11 A3005 510 62 1100 070/04 RMK AO2 $
14840KMKG MKG20060604081009506/04/06 08:10:31  5-MIN KMKG 041310Z 06004KT 10SM CLR 18/11 A3005 510 60 1100 070/04 RMK AO2 $
14840KMKG MKG20060604081509506/04/06 08:15:31  5-MIN KMKG 041315Z VRB04KT 10SM CLR 19/11 A3005 510 58 1100 VRB/04 RMK AO2 $
14840KMKG MKG20060604082009506/04/06 08:20:31  5-MIN KMKG 041320Z 05004KT 10SM CLR 19/11 A3005 510 58 1100 060/04 RMK AO2 $
14840KMKG MKG20060604082509506/04/06 08:25:31  5-MIN KMKG 041325Z VRB03KT 10SM CLR 19/11 A3006 510 56 1200 VRB/03 RMK AO2 $
14840KMKG MKG20060604083009506/04/06 08:30:31  5-MIN KMKG 041330Z 07005KT 10SM CLR 19/11 A3006 500 56 1200 070/05 RMK AO2 $
14840KMKG MKG20060604083509506/04/06 08:35:31  5-MIN KMKG 041335Z 08006KT 10SM CLR 19/10 A3006 510 54 1200 090/06 RMK AO2 $
14840KMKG MKG20060604084009506/04/06 08:40:31  5-MIN KMKG 041340Z 09005KT 10SM CLR 19/09 A3005 510 52 1200 090/05 RMK AO2 $
14840KMKG MKG20060604084509506/04/06 08:45:31  5-MIN KMKG 041345Z 10005KT 10SM CLR 20/10 A3005 510 52 1200 100/05 RMK AO2 $
14840KMKG MKG20060604085011206/04/06 08:50:31  5-MIN KMKG 041350Z 09004KT 10SM CLR 20/10 A3005 510 52 1200 090/04 RMK AO2 SLP176 T02000100 $
14840KMKG MKG20060604085511206/04/06 08:55:31  5-MIN KMKG 041355Z 09004KT 10SM CLR 20/10 A3005 510 52 1300 100/04 RMK AO2 SLP175 T02000100 $
14840KMKG MKG20060604090009506/04/06 09:00:31  5-MIN KMKG 041400Z VRB03KT 10SM CLR 21/10 A3005 510 50 1300 VRB/03 RMK AO2 $
14840KMKG MKG20060604090509506/04/06 09:05:31  5-MIN KMKG 041405Z 03004KT 10SM CLR 21/09 A3005 510 47 1400 040/04 RMK AO2 $
14840KMKG MKG20060604091009506/04/06 09:10:31  5-MIN KMKG 041410Z 07004KT 10SM CLR 21/09 A3005 510 47 1400 070/04 RMK AO2 $
14840KMKG MKG20060604091509506/04/06 09:15:31  5-MIN KMKG 041415Z VRB04KT 10SM CLR 21/10 A3005 510 48 1400 VRB/04 RMK AO2 $
14840KMKG MKG20060604092009506/04/06 09:20:31  5-MIN KMKG 041420Z 02005KT 10SM CLR 22/09 A3005 510 45 1400 030/05 RMK AO2 $
14840KMKG MKG20060604092509506/04/06 09:25:31  5-MIN KMKG 041425Z 05004KT 10SM CLR 22/10 A3005 510 47 1400 050/04 RMK AO2 $
14840KMKG MKG20060604093009506/04/06 09:30:31  5-MIN KMKG 041430Z VRB04KT 10SM CLR 22/09 A3005 510 45 1400 VRB/04 RMK AO2 $
14840KMKG MKG20060604093509506/04/06 09:35:31  5-MIN KMKG 041435Z VRB04KT 10SM CLR 22/10 A3005 510 45 1500 VRB/04 RMK AO2 $
14840KMKG MKG20060604094009506/04/06 09:40:31  5-MIN KMKG 041440Z 03005KT 10SM CLR 22/09 A3005 510 42 1500 030/05 RMK AO2 $
14840KMKG MKG20060604094509506/04/06 09:45:31  5-MIN KMKG 041445Z 01005KT 10SM CLR 22/09 A3005 510 43 1500 010/05 RMK AO2 $
14840KMKG MKG20060604095011806/04/06 09:50:31  5-MIN KMKG 041450Z 03005KT 10SM CLR 22/08 A3004 520 40 1500 030/05 RMK AO2 SLP173 T02220083 53012 $
14840KMKG MKG20060604095511806/04/06 09:55:31  5-MIN KMKG 041455Z 03007KT 10SM CLR 23/08 A3004 520 39 1600 030/07 RMK AO2 SLP172 T02280083 58001 $
14840KMKG MKG20060604100009506/04/06 10:00:31  5-MIN KMKG 041500Z 02006KT 10SM CLR 23/07 A3005 520 36 1600 020/06 RMK AO2 $
14840KMKG MKG20060604100509506/04/06 10:05:31  5-MIN KMKG 041505Z 01006KT 10SM CLR 23/07 A3004 520 36 1600 010/06 RMK AO2 $
14840KMKG MKG20060604101009506/04/06 10:10:31  5-MIN KMKG 041510Z 03007KT 10SM CLR 23/07 A3004 520 36 1600 030/07 RMK AO2 $
14840KMKG MKG20060604101509506/04/06 10:15:31  5-MIN KMKG 041515Z VRB06KT 10SM CLR 23/08 A3005 520 36 1600 VRB/06 RMK AO2 $
14840KMKG MKG20060604102009506/04/06 10:20:31  5-MIN KMKG 041520Z 03006KT 10SM CLR 23/07 A3005 510 35 1600 030/06 RMK AO2 $
14840KMKG MKG20060604102509806/04/06 10:25:31  5-MIN KMKG 041525Z 03008KT 10SM FEW085 24/08 A3005 510 35 1700 030/08 RMK AO2 $
14840KMKG MKG20060604103009806/04/06 10:30:31  5-MIN KMKG 041530Z 03010KT 10SM FEW085 23/07 A3005 510 35 1600 030/10 RMK AO2 $
14840KMKG MKG20060604103509506/04/06 10:35:31  5-MIN KMKG 041535Z 36007KT 10SM CLR 23/07 A3004 520 35 1600 010/07 RMK AO2 $
14840KMKG MKG20060604104009806/04/06 10:40:31  5-MIN KMKG 041540Z 03009KT 10SM FEW080 23/07 A3005 510 35 1600 030/09 RMK AO2 $
14840KMKG MKG20060604104509806/04/06 10:45:31  5-MIN KMKG 041545Z 03007KT 10SM FEW060 23/07 A3004 520 33 1600 040/07 RMK AO2 $
14840KMKG MKG20060604105011506/04/06 10:50:31  5-MIN KMKG 041550Z VRB04KT 10SM FEW060 24/08 A3004 520 34 1800 VRB/04 RMK AO2 SLP170 T02440078 $
14840KMKG MKG20060604105511506/04/06 10:55:31  5-MIN KMKG 041555Z 02009KT 10SM FEW060 24/07 A3004 520 33 1800 020/09 RMK AO2 SLP170 T02440072 $
14840KMKG MKG20060604110009806/04/06 11:00:31  5-MIN KMKG 041600Z 36008KT 10SM FEW085 24/07 A3004 520 32 1700 010/08 RMK AO2 $
14840KMKG MKG20060604110509806/04/06 11:05:31  5-MIN KMKG 041605Z 36009KT 10SM FEW085 24/07 A3004 520 32 1700 010/09 RMK AO2 $
14840KMKG MKG20060604111011406/04/06 11:10:31  5-MIN KMKG 041610Z 34008KT 310V030 10SM FEW085 24/07 A3004 520 32 1700 340/08 310V030 RMK AO2 $
14840KMKG MKG20060604111509506/04/06 11:15:31  5-MIN KMKG 041615Z 26008KT 10SM CLR 23/11 A3004 520 45 1600 270/08 RMK AO2 $
14840KMKG MKG20060604112009506/04/06 11:20:31  5-MIN KMKG 041620Z 28008KT 10SM CLR 23/11 A3004 520 45 1600 290/08 RMK AO2 $
14840KMKG MKG20060604112509506/04/06 11:25:31  5-MIN KMKG 041625Z 29010KT 10SM CLR 23/11 A3004 520 45 1600 290/10 RMK AO2 $
14840KMKG MKG20060604113009506/04/06 11:30:31  5-MIN KMKG 041630Z 26009KT 10SM CLR 22/11 A3004 520 47 1500 260/09 RMK AO2 $
14840KMKG MKG20060604113509506/04/06 11:35:31  5-MIN KMKG 041635Z 26010KT 10SM CLR 22/11 A3004 520 49 1500 270/10 RMK AO2 $
14840KMKG MKG20060604114009506/04/06 11:40:31  5-MIN KMKG 041640Z 30009KT 10SM CLR 22/11 A3004 520 49 1500 300/09 RMK AO2 $
14840KMKG MKG20060604114509506/04/06 11:45:31  5-MIN KMKG 041645Z 30010KT 10SM CLR 21/11 A3004 520 50 1400 310/10 RMK AO2 $
14840KMKG MKG20060604115011206/04/06 11:50:31  5-MIN KMKG 041650Z 30011KT 10SM CLR 21/11 A3004 520 50 1400 300/11 RMK AO2 SLP172 T02110106 $
14840KMKG MKG20060604115511506/04/06 11:55:31  5-MIN KMKG 041655Z 29011KT 10SM FEW060 20/09 A3004 520 50 1300 290/11 RMK AO2 SLP173 T02000094 $
14840KMKG MKG20060604120009506/04/06 12:00:31  5-MIN KMKG 041700Z 28010KT 10SM CLR 20/10 A3004 520 52 1300 290/10 RMK AO2 $
14840KMKG MKG20060604120509506/04/06 12:05:31  5-MIN KMKG 041705Z 31011KT 10SM CLR 21/09 A3004 520 48 1300 310/11 RMK AO2 $
14840KMKG MKG20060604121009506/04/06 12:10:31  5-MIN KMKG 041710Z 30012KT 10SM CLR 21/09 A3004 520 46 1300 310/12 RMK AO2 $
14840KMKG MKG20060604121509506/04/06 12:15:31  5-MIN KMKG 041715Z 30011KT 10SM CLR 21/09 A3004 520 46 1300 300/11 RMK AO2 $
14840KMKG MKG20060604122009506/04/06 12:20:31  5-MIN KMKG 041720Z 30009KT 10SM CLR 22/09 A3004 520 43 1500 300/09 RMK AO2 $
14840KMKG MKG20060604122509506/04/06 12:25:31  5-MIN KMKG 041725Z 30010KT 10SM CLR 22/09 A3004 520 43 1500 300/10 RMK AO2 $
14840KMKG MKG20060604123009506/04/06 12:30:31  5-MIN KMKG 041730Z 30011KT 10SM CLR 22/08 A3003 530 42 1500 310/11 RMK AO2 $
14840KMKG MKG20060604123509806/04/06 12:35:31  5-MIN KMKG 041735Z 30011KT 10SM FEW090 22/08 A3003 530 40 1500 300/11 RMK AO2 $
14840KMKG MKG20060604124009806/04/06 12:40:31  5-MIN KMKG 041740Z 29010KT 10SM FEW090 22/08 A3003 530 39 1500 300/10 RMK AO2 $
14840KMKG MKG20060604124509806/04/06 12:45:31  5-MIN KMKG 041745Z 29012KT 10SM FEW085 22/08 A3003 530 40 1500 300/12 RMK AO2 $
14840KMKG MKG20060604125013306/04/06 12:50:31  5-MIN KMKG 041750Z 29013KT 10SM FEW085 22/08 A3003 530 39 1500 300/13 RMK AO2 SLP168 T02220078 10244 20150 58001 $
14840KMKG MKG20060604125513306/04/06 12:55:31  5-MIN KMKG 041755Z 30015KT 10SM FEW070 22/07 A3003 530 39 1500 300/15 RMK AO2 SLP168 T02170072 10244 20150 58005 $
14840KMKG MKG20060604130009806/04/06 13:00:31  5-MIN KMKG 041800Z 29012KT 10SM FEW085 22/07 A3003 530 37 1500 290/12 RMK AO2 $
14840KMKG MKG20060604130509506/04/06 13:05:31  5-MIN KMKG 041805Z 30012KT 10SM CLR 22/07 A3003 530 37 1500 300/12 RMK AO2 $
14840KMKG MKG20060604131009506/04/06 13:10:31  5-MIN KMKG 041810Z 30013KT 10SM CLR 21/06 A3003 530 37 1400 300/13 RMK AO2 $
14840KMKG MKG20060604131509506/04/06 13:15:31  5-MIN KMKG 041815Z 29014KT 10SM CLR 21/06 A3003 530 36 1400 300/14 RMK AO2 $
14840KMKG MKG20060604132009506/04/06 13:20:31  5-MIN KMKG 041820Z 29011KT 10SM CLR 21/06 A3003 530 37 1400 290/11 RMK AO2 $
14840KMKG MKG20060604132509506/04/06 13:25:31  5-MIN KMKG 041825Z 30012KT 10SM CLR 21/07 A3003 530 38 1400 300/12 RMK AO2 $
14840KMKG MKG20060604133009506/04/06 13:30:31  5-MIN KMKG 041830Z 30012KT 10SM CLR 21/06 A3003 530 37 1400 300/12 RMK AO2 $
14840KMKG MKG20060604133509506/04/06 13:35:31  5-MIN KMKG 041835Z 29009KT 10SM CLR 21/06 A3002 540 38 1300 290/09 RMK AO2 $
14840KMKG MKG20060604134009506/04/06 13:40:31  5-MIN KMKG 041840Z 28012KT 10SM CLR 21/06 A3002 540 37 1400 290/12 RMK AO2 $
14840KMKG MKG20060604134509506/04/06 13:45:31  5-MIN KMKG 041845Z 29009KT 10SM CLR 21/06 A3002 540 37 1300 290/09 RMK AO2 $
14840KMKG MKG20060604135011506/04/06 13:50:31  5-MIN KMKG 041850Z 30010KT 10SM FEW070 21/06 A3002 540 37 1400 300/10 RMK AO2 SLP165 T02060056 $
14840KMKG MKG20060604135511506/04/06 13:55:31  5-MIN KMKG 041855Z 30010KT 10SM FEW070 21/06 A3002 540 37 1400 310/10 RMK AO2 SLP164 T02060056 $
14840KMKG MKG20060604140009806/04/06 14:00:31  5-MIN KMKG 041900Z 29010KT 10SM FEW085 21/06 A3002 540 37 1400 300/10 RMK AO2 $
14840KMKG MKG20060604140509506/04/06 14:05:31  5-MIN KMKG 041905Z 30011KT 10SM CLR 22/06 A3002 540 34 1500 300/11 RMK AO2 $
14840KMKG MKG20060604141009806/04/06 14:10:31  5-MIN KMKG 041910Z 30012KT 10SM FEW085 22/06 A3001 540 34 1500 300/12 RMK AO2 $
14840KMKG MKG20060604141509806/04/06 14:15:31  5-MIN KMKG 041915Z 30011KT 10SM FEW085 22/06 A3001 550 34 1500 310/11 RMK AO2 $
14840KMKG MKG20060604142009506/04/06 14:20:31  5-MIN KMKG 041920Z 30012KT 10SM CLR 22/06 A3001 550 33 1600 310/12 RMK AO2 $
14840KMKG MKG20060604142509806/04/06 14:25:31  5-MIN KMKG 041925Z 31010KT 10SM FEW070 22/05 A3001 550 33 1500 310/10 RMK AO2 $
14840KMKG MKG20060604143009806/04/06 14:30:31  5-MIN KMKG 041930Z 31011KT 10SM FEW070 22/06 A3001 550 33 1600 310/11 RMK AO2 $
14840KMKG MKG20060604143510406/04/06 14:35:31  5-MIN KMKG 041935Z 30014G17KT 10SM FEW070 22/05 A3000 550 33 1500 300/14G17 RMK AO2 $
14840KMKG MKG20060604144009806/04/06 14:40:31  5-MIN KMKG 041940Z 30013KT 10SM FEW070 21/05 A3000 550 34 1400 310/13 RMK AO2 $
14840KMKG MKG20060604144509806/04/06 14:45:31  5-MIN KMKG 041945Z 30014KT 10SM FEW070 22/05 A3000 550 33 1500 300/14 RMK AO2 $
14840KMKG MKG20060604145011506/04/06 14:50:31  5-MIN KMKG 041950Z 31013KT 10SM FEW070 22/05 A3000 560 33 1500 310/13 RMK AO2 SLP158 T02170050 $
14840KMKG MKG20060604145511506/04/06 14:55:31  5-MIN KMKG 041955Z 30013KT 10SM FEW070 22/06 A3000 560 34 1500 300/13 RMK AO2 SLP158 T02170056 $
14840KMKG MKG20060604150009506/04/06 15:00:31  5-MIN KMKG 042000Z 30011KT 10SM CLR 22/06 A3000 560 36 1500 300/11 RMK AO2 $
14840KMKG MKG20060604150509506/04/06 15:05:31  5-MIN KMKG 042005Z 31010KT 10SM CLR 22/06 A3000 560 36 1500 310/10 RMK AO2 $
14840KMKG MKG20060604151009806/04/06 15:10:31  5-MIN KMKG 042010Z 30012KT 10SM FEW070 22/07 A3000 560 37 1500 300/12 RMK AO2 $
14840KMKG MKG20060604151509806/04/06 15:15:31  5-MIN KMKG 042015Z 30011KT 10SM FEW070 21/06 A3000 560 37 1400 310/11 RMK AO2 $
14840KMKG MKG20060604152009806/04/06 15:20:31  5-MIN KMKG 042020Z 31013KT 10SM FEW070 21/06 A2999 560 37 1400 310/13 RMK AO2 $
14840KMKG MKG20060604152509806/04/06 15:25:31  5-MIN KMKG 042025Z 30013KT 10SM FEW070 21/06 A2999 570 37 1400 300/13 RMK AO2 $
14840KMKG MKG20060604153009806/04/06 15:30:31  5-MIN KMKG 042030Z 30012KT 10SM FEW070 21/06 A2999 570 37 1400 310/12 RMK AO2 $
14840KMKG MKG20060604153509806/04/06 15:35:31  5-MIN KMKG 042035Z 30010KT 10SM FEW070 22/07 A2999 570 37 1500 310/10 RMK AO2 $
14840KMKG MKG20060604154009806/04/06 15:40:31  5-MIN KMKG 042040Z 30011KT 10SM FEW070 22/06 A2999 570 36 1500 300/11 RMK AO2 $
14840KMKG MKG20060604154509806/04/06 15:45:31  5-MIN KMKG 042045Z 30010KT 10SM FEW070 22/07 A2999 570 36 1600 300/10 RMK AO2 $
14840KMKG MKG20060604155012106/04/06 15:50:31  5-MIN KMKG 042050Z 29011KT 10SM FEW070 23/07 A2999 570 35 1600 300/11 RMK AO2 SLP153 T02280067 58005 $
14840KMKG MKG20060604155512106/04/06 15:55:31  5-MIN KMKG 042055Z 29009KT 10SM FEW070 23/07 A2999 570 35 1600 290/09 RMK AO2 SLP153 T02280067 57014 $
14840KMKG MKG20060604160009806/04/06 16:00:31  5-MIN KMKG 042100Z 29010KT 10SM FEW070 23/07 A2999 570 35 1600 290/10 RMK AO2 $
14840KMKG MKG20060604160509806/04/06 16:05:31  5-MIN KMKG 042105Z 29011KT 10SM FEW070 23/07 A2998 570 35 1600 300/11 RMK AO2 $
14840KMKG MKG20060604161009806/04/06 16:10:31  5-MIN KMKG 042110Z 28009KT 10SM FEW070 23/07 A2998 570 35 1600 280/09 RMK AO2 $
14840KMKG MKG20060604161509806/04/06 16:15:31  5-MIN KMKG 042115Z 29010KT 10SM FEW070 23/07 A2998 570 35 1600 290/10 RMK AO2 $
14840KMKG MKG20060604162009806/04/06 16:20:31  5-MIN KMKG 042120Z 30008KT 10SM FEW070 22/07 A2998 570 37 1600 300/08 RMK AO2 $
14840KMKG MKG20060604162509806/04/06 16:25:31  5-MIN KMKG 042125Z 29009KT 10SM FEW070 22/07 A2998 570 36 1600 300/09 RMK AO2 $
14840KMKG MKG20060604163009806/04/06 16:30:31  5-MIN KMKG 042130Z 30009KT 10SM FEW070 22/07 A2998 570 37 1600 300/09 RMK AO2 $
14840KMKG MKG20060604163509806/04/06 16:35:31  5-MIN KMKG 042135Z 30008KT 10SM FEW070 22/07 A2998 570 37 1600 300/08 RMK AO2 $
14840KMKG MKG20060604164009806/04/06 16:40:31  5-MIN KMKG 042140Z 29009KT 10SM FEW070 22/07 A2998 570 37 1500 290/09 RMK AO2 $
14840KMKG MKG20060604164509806/04/06 16:45:31  5-MIN KMKG 042145Z 30010KT 10SM FEW070 22/07 A2998 570 37 1500 300/10 RMK AO2 $
14840KMKG MKG20060604165011506/04/06 16:50:31  5-MIN KMKG 042150Z 30010KT 10SM FEW070 22/07 A2998 570 39 1500 300/10 RMK AO2 SLP151 T02170072 $
14840KMKG MKG20060604165511506/04/06 16:55:31  5-MIN KMKG 042155Z 29010KT 10SM FEW070 21/07 A2998 580 38 1500 300/10 RMK AO2 SLP152 T02110067 $
14840KMKG MKG20060604170009506/04/06 17:00:31  5-MIN KMKG 042200Z 30009KT 10SM CLR 21/07 A2998 580 38 1500 300/09 RMK AO2 $
14840KMKG MKG20060604170509506/04/06 17:05:31  5-MIN KMKG 042205Z 30008KT 10SM CLR 22/07 A2998 580 37 1500 300/08 RMK AO2 $
14840KMKG MKG20060604171009506/04/06 17:10:31  5-MIN KMKG 042210Z 30008KT 10SM CLR 22/06 A2998 580 36 1500 310/08 RMK AO2 $
14840KMKG MKG20060604171509506/04/06 17:15:31  5-MIN KMKG 042215Z 30008KT 10SM CLR 22/07 A2998 580 37 1500 310/08 RMK AO2 $
14840KMKG MKG20060604172009506/04/06 17:20:31  5-MIN KMKG 042220Z 30009KT 10SM CLR 22/07 A2998 580 37 1500 300/09 RMK AO2 $
14840KMKG MKG20060604172509506/04/06 17:25:31  5-MIN KMKG 042225Z 30009KT 10SM CLR 22/07 A2998 580 37 1500 300/09 RMK AO2 $
14840KMKG MKG20060604173009506/04/06 17:30:31  5-MIN KMKG 042230Z 30009KT 10SM CLR 22/07 A2998 580 37 1500 300/09 RMK AO2 $
14840KMKG MKG20060604173509506/04/06 17:35:31  5-MIN KMKG 042235Z 30008KT 10SM CLR 22/07 A2998 580 37 1500 300/08 RMK AO2 $
14840KMKG MKG20060604174009506/04/06 17:40:31  5-MIN KMKG 042240Z 30007KT 10SM CLR 22/07 A2997 580 37 1600 300/07 RMK AO2 $
14840KMKG MKG20060604174509506/04/06 17:45:31  5-MIN KMKG 042245Z 30007KT 10SM CLR 22/07 A2997 580 37 1600 310/07 RMK AO2 $
14840KMKG MKG20060604175011206/04/06 17:50:31  5-MIN KMKG 042250Z VRB06KT 10SM CLR 23/07 A2997 580 36 1700 VRB/06 RMK AO2 SLP148 T02280072 $
14840KMKG MKG20060604175511206/04/06 17:55:31  5-MIN KMKG 042255Z 32008KT 10SM CLR 23/07 A2997 580 35 1700 320/08 RMK AO2 SLP148 T02330072 $
14840KMKG MKG20060604180009506/04/06 18:00:31  5-MIN KMKG 042300Z 33008KT 10SM CLR 24/06 A2997 580 31 1800 340/08 RMK AO2 $
14840KMKG MKG20060604180511106/04/06 18:05:31  5-MIN KMKG 042305Z 34012KT 290V360 10SM CLR 23/06 A2997 580 31 1700 340/12 290V360 RMK AO2 $
14840KMKG MKG20060604181009506/04/06 18:10:31  5-MIN KMKG 042310Z 30007KT 10SM CLR 23/04 A2998 580 29 1700 310/07 RMK AO2 $
14840KMKG MKG20060604181511706/04/06 18:15:31  5-MIN KMKG 042315Z 32009G16KT 270V350 10SM CLR 23/07 A2998 580 35 1700 330/09G16 270V350 RMK AO2 $
14840KMKG MKG20060604182010106/04/06 18:20:31  5-MIN KMKG 042320Z 33012G16KT 10SM CLR 23/05 A2998 580 30 1700 330/12G16 RMK AO2 $
14840KMKG MKG20060604182509506/04/06 18:25:31  5-MIN KMKG 042325Z 33011KT 10SM CLR 23/04 A2998 580 28 1700 330/11 RMK AO2 $
14840KMKG MKG20060604183009506/04/06 18:30:31  5-MIN KMKG 042330Z 33013KT 10SM CLR 23/04 A2998 580 28 1700 330/13 RMK AO2 $
14840KMKG MKG20060604183509506/04/06 18:35:31  5-MIN KMKG 042335Z 33009KT 10SM CLR 23/04 A2998 570 29 1600 330/09 RMK AO2 $
14840KMKG MKG20060604184009506/04/06 18:40:31  5-MIN KMKG 042340Z 34009KT 10SM CLR 23/04 A2998 570 29 1700 340/09 RMK AO2 $
14840KMKG MKG20060604184509506/04/06 18:45:31  5-MIN KMKG 042345Z 33010KT 10SM CLR 23/04 A2998 570 30 1600 330/10 RMK AO2 $
14840KMKG MKG20060604185013006/04/06 18:50:31  5-MIN KMKG 042350Z 33007KT 10SM CLR 23/04 A2998 570 29 1600 330/07 RMK AO2 SLP152 T02280039 10239 20206 57014 $
14840KMKG MKG20060604185513006/04/06 18:55:31  5-MIN KMKG 042355Z 34011KT 10SM CLR 23/04 A2999 570 29 1600 340/11 RMK AO2 SLP153 T02280039 10239 20206 55000 $
14840KMKG MKG20060604190009506/04/06 19:00:31  5-MIN KMKG 050000Z 34011KT 10SM CLR 23/03 A2999 570 27 1600 340/11 RMK AO2 $
14840KMKG MKG20060604190509506/04/06 19:05:31  5-MIN KMKG 050005Z 34011KT 10SM CLR 23/03 A2999 570 27 1600 340/11 RMK AO2 $
14840KMKG MKG20060604191009506/04/06 19:10:31  5-MIN KMKG 050010Z 34011KT 10SM CLR 23/03 A2999 570 27 1600 350/11 RMK AO2 $
14840KMKG MKG20060604191509506/04/06 19:15:31  5-MIN KMKG 050015Z 35009KT 10SM CLR 22/03 A2999 570 27 1600 350/09 RMK AO2 $
14840KMKG MKG20060604192009506/04/06 19:20:31  5-MIN KMKG 050020Z 34010KT 10SM CLR 22/03 A2999 570 28 1600 350/10 RMK AO2 $
14840KMKG MKG20060604192509506/04/06 19:25:31  5-MIN KMKG 050025Z 34012KT 10SM CLR 22/03 A2999 570 27 1600 340/12 RMK AO2 $
14840KMKG MKG20060604193009506/04/06 19:30:31  5-MIN KMKG 050030Z 34011KT 10SM CLR 22/03 A2999 570 27 1600 340/11 RMK AO2 $
14840KMKG MKG20060604193509506/04/06 19:35:31  5-MIN KMKG 050035Z 34010KT 10SM CLR 22/03 A2999 570 29 1500 340/10 RMK AO2 $
14840KMKG MKG20060604194009506/04/06 19:40:31  5-MIN KMKG 050040Z 35011KT 10SM CLR 22/03 A2999 570 29 1500 350/11 RMK AO2 $
14840KMKG MKG20060604194509506/04/06 19:45:31  5-MIN KMKG 050045Z 35009KT 10SM CLR 22/03 A2999 570 29 1500 360/09 RMK AO2 $
14840KMKG MKG20060604195011206/04/06 19:50:31  5-MIN KMKG 050050Z 35009KT 10SM CLR 21/04 A2999 570 32 1500 350/09 RMK AO2 SLP152 T02110039 $
14840KMKG MKG20060604195511206/04/06 19:55:31  5-MIN KMKG 050055Z 34009KT 10SM CLR 21/04 A2999 570 32 1500 340/09 RMK AO2 SLP152 T02110039 $
14840KMKG MKG20060604200009506/04/06 20:00:31  5-MIN KMKG 050100Z VRB05KT 10SM CLR 21/04 A2999 570 34 1400 VRB/05 RMK AO2 $
14840KMKG MKG20060604200509506/04/06 20:05:31  5-MIN KMKG 050105Z 33005KT 10SM CLR 21/05 A2999 570 35 1400 340/05 RMK AO2 $
14840KMKG MKG20060604201009506/04/06 20:10:31  5-MIN KMKG 050110Z VRB03KT 10SM CLR 18/07 A2999 570 46 1100 VRB/03 RMK AO2 $
14840KMKG MKG20060604201509506/04/06 20:15:31  5-MIN KMKG 050115Z 31004KT 10SM CLR 17/07 A2999 570 49 1000 320/04 RMK AO2 $
14840KMKG MKG20060604202009506/04/06 20:20:31  5-MIN KMKG 050120Z 34005KT 10SM CLR 19/05 A2999 570 39 1200 350/05 RMK AO2 $
14840KMKG MKG20060604202509506/04/06 20:25:31  5-MIN KMKG 050125Z 34006KT 10SM CLR 19/05 A2999 570 38 1300 340/06 RMK AO2 $
14840KMKG MKG20060604203009506/04/06 20:30:31  5-MIN KMKG 050130Z 33005KT 10SM CLR 19/05 A2999 570 39 1200 330/05 RMK AO2 $
14840KMKG MKG20060604203509506/04/06 20:35:31  5-MIN KMKG 050135Z 32004KT 10SM CLR 19/05 A2999 570 39 1200 330/04 RMK AO2 $
14840KMKG MKG20060604204009406/04/06 20:40:31  5-MIN KMKG 050140Z 31004KT 10SM CLR 17/07 A2999 570 51 900 310/04 RMK AO2 $
14840KMKG MKG20060604204509406/04/06 20:45:31  5-MIN KMKG 050145Z VRB04KT 10SM CLR 16/07 A2999 560 55 900 VRB/04 RMK AO2 $
14840KMKG MKG20060604205011106/04/06 20:50:31  5-MIN KMKG 050150Z 32003KT 10SM CLR 15/08 A2999 560 62 700 320/03 RMK AO2 SLP155 T01500078 $
14840KMKG MKG20060604205511106/04/06 20:55:31  5-MIN KMKG 050155Z 33003KT 10SM CLR 16/08 A2999 560 59 800 340/03 RMK AO2 SLP155 T01560078 $
14840KMKG MKG20060604210009506/04/06 21:00:31  5-MIN KMKG 050200Z 34005KT 10SM CLR 17/07 A3000 560 49 1000 340/05 RMK AO2 $
14840KMKG MKG20060604210509506/04/06 21:05:31  5-MIN KMKG 050205Z 32003KT 10SM CLR 18/06 A3000 560 44 1100 330/03 RMK AO2 $
14840KMKG MKG20060604211009406/04/06 21:10:31  5-MIN KMKG 050210Z 34004KT 10SM CLR 16/06 A3000 560 51 900 340/04 RMK AO2 $
14840KMKG MKG20060604211509406/04/06 21:15:31  5-MIN KMKG 050215Z 34004KT 10SM CLR 16/07 A3000 560 53 900 340/04 RMK AO2 $
14840KMKG MKG20060604212009406/04/06 21:20:31  5-MIN KMKG 050220Z 34004KT 10SM CLR 16/07 A3000 560 53 900 340/04 RMK AO2 $
14840KMKG MKG20060604212509506/04/06 21:25:31  5-MIN KMKG 050225Z 35006KT 10SM CLR 17/06 A3000 550 46 1000 350/06 RMK AO2 $
14840KMKG MKG20060604213009506/04/06 21:30:31  5-MIN KMKG 050230Z 34007KT 10SM CLR 18/06 A3001 550 44 1000 350/07 RMK AO2 $
14840KMKG MKG20060604213509506/04/06 21:35:31  5-MIN KMKG 050235Z 35006KT 10SM CLR 18/05 A3001 550 42 1000 350/06 RMK AO2 $
14840KMKG MKG20060604214009506/04/06 21:40:31  5-MIN KMKG 050240Z 34007KT 10SM CLR 18/05 A3001 550 41 1100 350/07 RMK AO2 $
14840KMKG MKG20060604214509506/04/06 21:45:31  5-MIN KMKG 050245Z 34008KT 10SM CLR 18/05 A3001 550 41 1100 340/08 RMK AO2 $
14840KMKG MKG20060604215011806/04/06 21:50:31  5-MIN KMKG 050250Z 34007KT 10SM CLR 18/05 A3001 550 42 1000 340/07 RMK AO2 SLP159 T01780050 55000 $
14840KMKG MKG20060604215511806/04/06 21:55:31  5-MIN KMKG 050255Z 34007KT 10SM CLR 18/05 A3001 550 41 1100 350/07 RMK AO2 SLP159 T01830050 53007 $
14840KMKG MKG20060604220009506/04/06 22:00:31  5-MIN KMKG 050300Z 35006KT 10SM CLR 18/04 A3001 550 39 1100 350/06 RMK AO2 $
14840KMKG MKG20060604220509506/04/06 22:05:31  5-MIN KMKG 050305Z 35006KT 10SM CLR 18/04 A3001 550 41 1000 360/06 RMK AO2 $
14840KMKG MKG20060604221009506/04/06 22:10:31  5-MIN KMKG 050310Z 35005KT 10SM CLR 18/05 A3001 550 42 1000 350/05 RMK AO2 $
14840KMKG MKG20060604221509506/04/06 22:15:31  5-MIN KMKG 050315Z 34006KT 10SM CLR 18/05 A3001 550 42 1000 350/06 RMK AO2 $
14840KMKG MKG20060604222009506/04/06 22:20:31  5-MIN KMKG 050320Z 34007KT 10SM CLR 18/04 A3001 550 41 1000 340/07 RMK AO2 $
14840KMKG MKG20060604222509506/04/06 22:25:31  5-MIN KMKG 050325Z 34007KT 10SM CLR 18/04 A3001 550 41 1000 340/07 RMK AO2 $
14840KMKG MKG20060604223009506/04/06 22:30:31  5-MIN KMKG 050330Z 34007KT 10SM CLR 18/04 A3001 550 39 1100 340/07 RMK AO2 $
14840KMKG MKG20060604223509506/04/06 22:35:31  5-MIN KMKG 050335Z 34007KT 10SM CLR 18/04 A3001 540 39 1100 350/07 RMK AO2 $
14840KMKG MKG20060604224009506/04/06 22:40:31  5-MIN KMKG 050340Z 35007KT 10SM CLR 18/04 A3001 550 38 1100 350/07 RMK AO2 $
14840KMKG MKG20060604224509506/04/06 22:45:31  5-MIN KMKG 050345Z 01007KT 10SM CLR 18/04 A3001 540 38 1100 010/07 RMK AO2 $
14840KMKG MKG20060604225011206/04/06 22:50:31  5-MIN KMKG 050350Z 01007KT 10SM CLR 18/03 A3002 540 36 1100 010/07 RMK AO2 SLP161 T01830033 $
14840KMKG MKG20060604225511206/04/06 22:55:31  5-MIN KMKG 050355Z 01007KT 10SM CLR 18/03 A3002 540 36 1100 010/07 RMK AO2 SLP161 T01830033 $
14840KMKG MKG20060604230009506/04/06 23:00:31  5-MIN KMKG 050400Z 01006KT 10SM CLR 18/03 A3002 540 36 1100 010/06 RMK AO2 $
14840KMKG MKG20060604230509506/04/06 23:05:31  5-MIN KMKG 050405Z 01006KT 10SM CLR 18/03 A3002 540 38 1000 010/06 RMK AO2 $
14840KMKG MKG20060604231009506/04/06 23:10:31  5-MIN KMKG 050410Z 36006KT 10SM CLR 18/03 A3002 540 38 1000 360/06 RMK AO2 $
14840KMKG MKG20060604231509506/04/06 23:15:31  5-MIN KMKG 050415Z 01006KT 10SM CLR 18/03 A3002 540 38 1000 010/06 RMK AO2 $
14840KMKG MKG20060604232009506/04/06 23:20:31  5-MIN KMKG 050420Z 01006KT 10SM CLR 18/03 A3002 540 38 1000 010/06 RMK AO2 $
14840KMKG MKG20060604232509506/04/06 23:25:31  5-MIN KMKG 050425Z 36006KT 10SM CLR 18/03 A3002 540 36 1100 010/06 RMK AO2 $
14840KMKG MKG20060604233009506/04/06 23:30:31  5-MIN KMKG 050430Z 01006KT 10SM CLR 18/03 A3002 540 38 1000 010/06 RMK AO2 $
14840KMKG MKG20060604233509506/04/06 23:35:31  5-MIN KMKG 050435Z 01005KT 10SM CLR 18/03 A3002 540 38 1000 020/05 RMK AO2 $
14840KMKG MKG20060604234009506/04/06 23:40:31  5-MIN KMKG 050440Z 01007KT 10SM CLR 18/03 A3002 540 38 1000 020/07 RMK AO2 $
14840KMKG MKG20060604234509506/04/06 23:45:31  5-MIN KMKG 050445Z 02006KT 10SM CLR 17/03 A3002 540 39 1000 020/06 RMK AO2 $
14840KMKG MKG20060604235012206/04/06 23:50:31  5-MIN KMKG 050450Z 02005KT 10SM CLR 17/03 A3002 540 39 1000 030/05 RMK AO2 SLP163 T01720033 402440111 $
14840KMKG MKG20060604235512106/04/06 23:55:31  5-MIN KMKG 050455Z 02005KT 10SM CLR 17/03 A3002 540 40 900 030/05 RMK AO2 SLP165 T01670033 402440111 $
14840KMKG MKG20060605000009506/05/06 00:00:32  5-MIN KMKG 050500Z 03005KT 10SM CLR 17/03 A3002 540 39 1000 040/05 RMK AO2 $
14840KMKG MKG20060605000509506/05/06 00:05:31  5-MIN KMKG 050505Z 03005KT 10SM CLR 17/04 A3002 540 41 1000 030/05 RMK AO2 $
14840KMKG MKG20060605001009406/05/06 00:10:31  5-MIN KMKG 050510Z 01005KT 10SM CLR 17/04 A3002 540 42 900 020/05 RMK AO2 $
14840KMKG MKG20060605001509406/05/06 00:15:31  5-MIN KMKG 050515Z 02004KT 10SM CLR 17/04 A3002 540 42 900 020/04 RMK AO2 $
14840KMKG MKG20060605002009406/05/06 00:20:31  5-MIN KMKG 050520Z 01005KT 10SM CLR 16/04 A3002 540 44 800 020/05 RMK AO2 $
14840KMKG MKG20060605002509406/05/06 00:25:31  5-MIN KMKG 050525Z 01006KT 10SM CLR 17/04 A3002 540 42 900 010/06 RMK AO2 $
14840KMKG MKG20060605003009406/05/06 00:30:31  5-MIN KMKG 050530Z 02006KT 10SM CLR 16/04 A3002 540 45 800 020/06 RMK AO2 $
14840KMKG MKG20060605003509406/05/06 00:35:31  5-MIN KMKG 050535Z 01005KT 10SM CLR 16/04 A3002 540 45 800 010/05 RMK AO2 $
14840KMKG MKG20060605004009406/05/06 00:40:31  5-MIN KMKG 050540Z 36006KT 10SM CLR 16/04 A3002 540 47 800 010/06 RMK AO2 $
14840KMKG MKG20060605004509406/05/06 00:45:31  5-MIN KMKG 050545Z 36006KT 10SM CLR 16/05 A3002 540 49 800 010/06 RMK AO2 $
14840KMKG MKG20060605005012906/05/06 00:50:31  5-MIN KMKG 050550Z 01006KT 10SM CLR 15/05 A3002 530 51 700 010/06 RMK AO2 SLP166 T01500050 10228 20150 53007 $
14840KMKG MKG20060605005512906/05/06 00:55:31  5-MIN KMKG 050555Z 36005KT 10SM CLR 15/05 A3003 530 51 700 010/05 RMK AO2 SLP166 T01500050 10228 20150 51006 $
14840KMKG MKG20060605010009406/05/06 01:00:31  5-MIN KMKG 050600Z 03006KT 10SM CLR 16/05 A3002 540 49 800 030/06 RMK AO2 $
14840KMKG MKG20060605010509406/05/06 01:05:31  5-MIN KMKG 050605Z 02005KT 10SM CLR 16/05 A3002 540 49 800 030/05 RMK AO2 $
14840KMKG MKG20060605011009406/05/06 01:10:31  5-MIN KMKG 050610Z 02006KT 10SM CLR 15/05 A3002 530 51 700 020/06 RMK AO2 $
14840KMKG MKG20060605011509406/05/06 01:15:31  5-MIN KMKG 050615Z 01006KT 10SM CLR 14/06 A3002 530 55 600 010/06 RMK AO2 $
14840KMKG MKG20060605012009406/05/06 01:20:31  5-MIN KMKG 050620Z 01005KT 10SM CLR 14/06 A3002 540 55 600 020/05 RMK AO2 $
14840KMKG MKG20060605012509406/05/06 01:25:31  5-MIN KMKG 050625Z 01004KT 10SM CLR 14/06 A3002 530 57 600 020/04 RMK AO2 $
14840KMKG MKG20060605013009406/05/06 01:30:31  5-MIN KMKG 050630Z 01003KT 10SM CLR 14/06 A3002 540 57 600 010/03 RMK AO2 $
14840KMKG MKG20060605013509406/05/06 01:35:31  5-MIN KMKG 050635Z 00000KT 10SM CLR 14/06 A3002 540 57 600 000/00 RMK AO2 $
14840KMKG MKG20060605014009406/05/06 01:40:31  5-MIN KMKG 050640Z 00000KT 10SM CLR 14/06 A3002 540 57 600 000/00 RMK AO2 $
14840KMKG MKG20060605014509406/05/06 01:45:31  5-MIN KMKG 050645Z 00000KT 10SM CLR 14/06 A3002 540 55 600 000/00 RMK AO2 $
14840KMKG MKG20060605015011106/05/06 01:50:31  5-MIN KMKG 050650Z 00000KT 10SM CLR 14/06 A3002 540 55 600 000/00 RMK AO2 SLP164 T01440056 $
14840KMKG MKG20060605015511106/05/06 01:55:31  5-MIN KMKG 050655Z 36003KT 10SM CLR 14/06 A3002 540 55 600 360/03 RMK AO2 SLP164 T01440056 $
14840KMKG MKG20060605020009406/05/06 02:00:31  5-MIN KMKG 050700Z 01003KT 10SM CLR 14/06 A3002 540 59 600 020/03 RMK AO2 $
14840KMKG MKG20060605020509406/05/06 02:05:31  5-MIN KMKG 050705Z 01003KT 10SM CLR 14/06 A3002 540 57 600 010/03 RMK AO2 $
14840KMKG MKG20060605021009406/05/06 02:10:31  5-MIN KMKG 050710Z 02003KT 10SM CLR 14/06 A3002 540 59 600 020/03 RMK AO2 $
14840KMKG MKG20060605021509406/05/06 02:15:31  5-MIN KMKG 050715Z 00000KT 10SM CLR 14/06 A3002 540 59 600 000/00 RMK AO2 $
14840KMKG MKG20060605022009406/05/06 02:20:31  5-MIN KMKG 050720Z 00000KT 10SM CLR 13/06 A3002 540 61 500 000/00 RMK AO2 $
14840KMKG MKG20060605022509406/05/06 02:25:31  5-MIN KMKG 050725Z 00000KT 10SM CLR 13/06 A3002 540 61 500 000/00 RMK AO2 $
14840KMKG MKG20060605023009406/05/06 02:30:31  5-MIN KMKG 050730Z 00000KT 10SM CLR 13/06 A3002 540 61 500 000/00 RMK AO2 $
14840KMKG MKG20060605023509406/05/06 02:35:31  5-MIN KMKG 050735Z 02003KT 10SM CLR 13/06 A3002 540 61 500 020/03 RMK AO2 $
14840KMKG MKG20060605024009406/05/06 02:40:31  5-MIN KMKG 050740Z VRB03KT 10SM CLR 14/06 A3002 540 59 600 VRB/03 RMK AO2 $
14840KMKG MKG20060605024509406/05/06 02:45:31  5-MIN KMKG 050745Z 03003KT 10SM CLR 13/06 A3002 540 61 500 030/03 RMK AO2 $
14840KMKG MKG20060605025011106/05/06 02:50:31  5-MIN KMKG 050750Z VRB03KT 10SM CLR 14/06 A3002 530 59 600 VRB/03 RMK AO2 SLP166 T01390061 $
14840KMKG MKG20060605025511106/05/06 02:55:31  5-MIN KMKG 050755Z 01004KT 10SM CLR 14/06 A3002 530 57 600 010/04 RMK AO2 SLP166 T01440061 $
14840KMKG MKG20060605030009406/05/06 03:00:31  5-MIN KMKG 050800Z 00000KT 10SM CLR 14/06 A3003 530 57 600 000/00 RMK AO2 $
14840KMKG MKG20060605030509406/05/06 03:05:31  5-MIN KMKG 050805Z 02003KT 10SM CLR 14/07 A3003 530 61 600 020/03 RMK AO2 $
14840KMKG MKG20060605031009406/05/06 03:10:31  5-MIN KMKG 050810Z 00000KT 10SM CLR 13/07 A3003 530 64 500 000/00 RMK AO2 $
14840KMKG MKG20060605031509406/05/06 03:15:31  5-MIN KMKG 050815Z 00000KT 10SM CLR 14/07 A3003 530 64 600 000/00 RMK AO2 $
14840KMKG MKG20060605032009406/05/06 03:20:31  5-MIN KMKG 050820Z 00000KT 10SM CLR 13/07 A3003 530 69 400 000/00 RMK AO2 $
14840KMKG MKG20060605032509406/05/06 03:25:31  5-MIN KMKG 050825Z 00000KT 10SM CLR 11/07 A3003 530 74 200 000/00 RMK AO2 $
14840KMKG MKG20060605033009406/05/06 03:30:31  5-MIN KMKG 050830Z 00000KT 10SM CLR 11/07 A3003 530 80 200 000/00 RMK AO2 $
14840KMKG MKG20060605033509406/05/06 03:35:31  5-MIN KMKG 050835Z 00000KT 10SM CLR 11/07 A3003 530 77 200 000/00 RMK AO2 $
14840KMKG MKG20060605034009406/05/06 03:40:31  5-MIN KMKG 050840Z 00000KT 10SM CLR 12/07 A3003 530 74 300 000/00 RMK AO2 $
14840KMKG MKG20060605034509406/05/06 03:45:31  5-MIN KMKG 050845Z 00000KT 10SM CLR 12/07 A3003 530 74 300 000/00 RMK AO2 $
14840KMKG MKG20060605035011706/05/06 03:50:31  5-MIN KMKG 050850Z 00000KT 10SM CLR 12/07 A3003 530 74 300 000/00 RMK AO2 SLP168 T01170072 51006 $
14840KMKG MKG20060605035511706/05/06 03:55:31  5-MIN KMKG 050855Z 00000KT 10SM CLR 11/07 A3003 530 77 200 000/00 RMK AO2 SLP169 T01110072 53003 $
14840KMKG MKG20060605040009406/05/06 04:00:31  5-MIN KMKG 050900Z 00000KT 10SM CLR 12/07 A3003 530 74 300 000/00 RMK AO2 $
14840KMKG MKG20060605040509406/05/06 04:05:31  5-MIN KMKG 050905Z 00000KT 10SM CLR 12/07 A3003 520 74 300 000/00 RMK AO2 $
14840KMKG MKG20060605041009406/05/06 04:10:31  5-MIN KMKG 050910Z 00000KT 10SM CLR 11/07 A3003 520 77 200 000/00 RMK AO2 $
14840KMKG MKG20060605041509406/05/06 04:15:31  5-MIN KMKG 050915Z 00000KT 10SM CLR 11/07 A3004 520 77 200 000/00 RMK AO2 $
14840KMKG MKG20060605042009406/05/06 04:20:31  5-MIN KMKG 050920Z 00000KT 10SM CLR 11/07 A3003 520 77 200 000/00 RMK AO2 $
14840KMKG MKG20060605042509406/05/06 04:25:31  5-MIN KMKG 050925Z 00000KT 10SM CLR 11/07 A3003 520 77 200 000/00 RMK AO2 $
14840KMKG MKG20060605043009406/05/06 04:30:31  5-MIN KMKG 050930Z 00000KT 10SM CLR 11/07 A3004 520 77 200 000/00 RMK AO2 $
14840KMKG MKG20060605043509406/05/06 04:35:31  5-MIN KMKG 050935Z 00000KT 10SM CLR 10/07 A3004 520 83 100 000/00 RMK AO2 $
14840KMKG MKG20060605044009406/05/06 04:40:31  5-MIN KMKG 050940Z 00000KT 10SM CLR 11/07 A3004 520 80 200 000/00 RMK AO2 $
14840KMKG MKG20060605044509406/05/06 04:45:31  5-MIN KMKG 050945Z 00000KT 10SM CLR 10/07 A3004 520 83 100 000/00 RMK AO2 $
14840KMKG MKG20060605045010906/05/06 04:50:31  5-MIN KMKG 050950Z 00000KT 10SM CLR 09/07 A3004 520 86 0 000/00 RMK AO2 SLP174 T00890067 $
14840KMKG MKG20060605045510906/05/06 04:55:31  5-MIN KMKG 050955Z 00000KT 10SM CLR 09/07 A3005 510 86 0 000/00 RMK AO2 SLP175 T00890067 $
14840KMKG MKG20060605050009206/05/06 05:00:31  5-MIN KMKG 051000Z 00000KT 10SM CLR 09/07 A3005 510 86 0 000/00 RMK AO2 $
14840KMKG MKG20060605050509406/05/06 05:05:31  5-MIN KMKG 051005Z 00000KT 10SM CLR 10/07 A3005 510 83 100 000/00 RMK AO2 $
14840KMKG MKG20060605051009406/05/06 05:10:31  5-MIN KMKG 051010Z 00000KT 10SM CLR 10/07 A3005 510 83 100 000/00 RMK AO2 $
14840KMKG MKG20060605051509406/05/06 05:15:31  5-MIN KMKG 051015Z 00000KT 10SM CLR 10/07 A3005 510 83 100 000/00 RMK AO2 $
14840KMKG MKG20060605052009406/05/06 05:20:31  5-MIN KMKG 051020Z 00000KT 10SM CLR 10/07 A3005 510 83 100 000/00 RMK AO2 $
14840KMKG MKG20060605052509406/05/06 05:25:31  5-MIN KMKG 051025Z 00000KT 10SM CLR 10/07 A3005 510 83 100 000/00 RMK AO2 $
14840KMKG MKG20060605053009406/05/06 05:30:31  5-MIN KMKG 051030Z 00000KT 10SM CLR 10/07 A3005 510 83 100 000/00 RMK AO2 $
14840KMKG MKG20060605053509206/05/06 05:35:31  5-MIN KMKG 051035Z 00000KT 10SM CLR 09/07 A3005 510 83 0 000/00 RMK AO2 $
14840KMKG MKG20060605054009406/05/06 05:40:31  5-MIN KMKG 051040Z 00000KT 10SM CLR 10/07 A3005 510 83 100 000/00 RMK AO2 $
14840KMKG MKG20060605054509406/05/06 05:45:31  5-MIN KMKG 051045Z 00000KT 10SM CLR 11/07 A3005 510 80 100 000/00 RMK AO2 $
14840KMKG MKG20060605055011106/05/06 05:50:31  5-MIN KMKG 051050Z 00000KT 10SM CLR 10/08 A3005 510 86 100 000/00 RMK AO2 SLP177 T01000078 $
14840KMKG MKG20060605055510906/05/06 05:55:31  5-MIN KMKG 051055Z 00000KT 10SM CLR 09/07 A3005 510 86 0 000/00 RMK AO2 SLP177 T00940072 $
14840KMKG MKG20060605060009206/05/06 06:00:31  5-MIN KMKG 051100Z 00000KT 10SM CLR 09/08 A3005 510 89 0 000/00 RMK AO2 $
14840KMKG MKG20060605060509406/05/06 06:05:31  5-MIN KMKG 051105Z 00000KT 10SM CLR 10/08 A3005 510 89 100 000/00 RMK AO2 $
14840KMKG MKG20060605061009406/05/06 06:10:31  5-MIN KMKG 051110Z 00000KT 10SM CLR 11/08 A3005 510 86 100 000/00 RMK AO2 $
14840KMKG MKG20060605061509406/05/06 06:15:31  5-MIN KMKG 051115Z 00000KT 10SM CLR 11/08 A3006 510 83 200 000/00 RMK AO2 $
14840KMKG MKG20060605062009406/05/06 06:20:31  5-MIN KMKG 051120Z 00000KT 10SM CLR 11/08 A3005 510 83 200 000/00 RMK AO2 $
14840KMKG MKG20060605062509406/05/06 06:25:31  5-MIN KMKG 051125Z 00000KT 10SM CLR 12/08 A3006 510 80 300 000/00 RMK AO2 $
14840KMKG MKG20060605063009406/05/06 06:30:31  5-MIN KMKG 051130Z 00000KT 10SM CLR 12/09 A3006 510 80 300 000/00 RMK AO2 $
14840KMKG MKG20060605063509406/05/06 06:35:31  5-MIN KMKG 051135Z 00000KT 10SM CLR 13/09 A3006 500 80 400 000/00 RMK AO2 $
14840KMKG MKG20060605064009406/05/06 06:40:31  5-MIN KMKG 051140Z 00000KT 10SM CLR 13/09 A3006 500 77 500 000/00 RMK AO2 $
14840KMKG MKG20060605064509406/05/06 06:45:31  5-MIN KMKG 051145Z 00000KT 10SM CLR 14/09 A3006 500 74 500 000/00 RMK AO2 $
14840KMKG MKG20060605065012906/05/06 06:50:31  5-MIN KMKG 051150Z 00000KT 10SM CLR 14/10 A3006 500 74 600 000/00 RMK AO2 SLP177 T01440100 10156 20089 53003 $
14840KMKG MKG20060605065512906/05/06 06:55:31  5-MIN KMKG 051155Z 00000KT 10SM CLR 15/11 A3006 500 74 700 000/00 RMK AO2 SLP178 T01500106 10156 20089 51009 $
14840KMKG MKG20060605070009406/05/06 07:00:31  5-MIN KMKG 051200Z 00000KT 10SM CLR 16/11 A3006 500 72 700 000/00 RMK AO2 $
14840KMKG MKG20060605070509406/05/06 07:05:31  5-MIN KMKG 051205Z 00000KT 10SM CLR 16/11 A3006 500 72 700 000/00 RMK AO2 $
14840KMKG MKG20060605071009406/05/06 07:10:31  5-MIN KMKG 051210Z 29005KT 10SM CLR 16/11 A3006 500 72 700 290/05 RMK AO2 $
14840KMKG MKG20060605071509406/05/06 07:15:31  5-MIN KMKG 051215Z 30004KT 10SM CLR 16/11 A3006 500 69 800 310/04 RMK AO2 $
14840KMKG MKG20060605072009406/05/06 07:20:31  5-MIN KMKG 051220Z 33005KT 10SM CLR 17/09 A3006 500 62 900 330/05 RMK AO2 $
14840KMKG MKG20060605072509406/05/06 07:25:31  5-MIN KMKG 051225Z 34006KT 10SM CLR 17/09 A3006 500 57 900 340/06 RMK AO2 $
14840KMKG MKG20060605073009406/05/06 07:30:31  5-MIN KMKG 051230Z 34006KT 10SM CLR 17/08 A3007 490 55 900 340/06 RMK AO2 $
14840KMKG MKG20060605073509506/05/06 07:35:31  5-MIN KMKG 051235Z 33006KT 10SM CLR 18/08 A3007 490 51 1000 340/06 RMK AO2 $
14840KMKG MKG20060605074009506/05/06 07:40:31  5-MIN KMKG 051240Z 33006KT 10SM CLR 18/07 A3007 490 49 1000 330/06 RMK AO2 $
14840KMKG MKG20060605074509506/05/06 07:45:31  5-MIN KMKG 051245Z 33006KT 10SM CLR 18/07 A3007 490 49 1000 340/06 RMK AO2 $
14840KMKG MKG20060605075011206/05/06 07:50:31  5-MIN KMKG 051250Z 33007KT 10SM CLR 18/07 A3007 490 46 1000 330/07 RMK AO2 SLP181 T01830067 $
14840KMKG MKG20060605075511206/05/06 07:55:31  5-MIN KMKG 051255Z 33008KT 10SM CLR 18/07 A3007 490 46 1000 330/08 RMK AO2 SLP180 T01830067 $
14840KMKG MKG20060605080009506/05/06 08:00:31  5-MIN KMKG 051300Z 33006KT 10SM CLR 19/07 A3007 490 44 1100 340/06 RMK AO2 $
14840KMKG MKG20060605080509506/05/06 08:05:31  5-MIN KMKG 051305Z 33006KT 10SM CLR 19/07 A3007 490 46 1100 340/06 RMK AO2 $
14840KMKG MKG20060605081009506/05/06 08:10:31  5-MIN KMKG 051310Z 34007KT 10SM CLR 19/07 A3007 490 43 1200 340/07 RMK AO2 $
14840KMKG MKG20060605081509306/05/06 08:15:31  5-MIN KMKG 051315Z 33006KT 10SM CLR 19/07 A3007 490 44 1200 330/06 RMK AO2
14840KMKG MKG20060605082009306/05/06 08:20:31  5-MIN KMKG 051320Z 34005KT 10SM CLR 20/07 A3007 490 43 1200 350/05 RMK AO2
14840KMKG MKG20060605082509306/05/06 08:25:31  5-MIN KMKG 051325Z 32005KT 10SM CLR 20/07 A3007 490 43 1200 320/05 RMK AO2
14840KMKG MKG20060605083009306/05/06 08:30:31  5-MIN KMKG 051330Z 33005KT 10SM CLR 20/07 A3007 490 43 1200 340/05 RMK AO2
14840KMKG MKG20060605083509306/05/06 08:35:31  5-MIN KMKG 051335Z 32004KT 10SM CLR 21/07 A3007 490 41 1300 320/04 RMK AO2
14840KMKG MKG20060605084009306/05/06 08:40:31  5-MIN KMKG 051340Z 34004KT 10SM CLR 21/07 A3007 490 41 1300 340/04 RMK AO2
14840KMKG MKG20060605084509306/05/06 08:45:31  5-MIN KMKG 051345Z 28005KT 10SM CLR 21/07 A3007 490 41 1300 290/05 RMK AO2
14840KMKG MKG20060605085011006/05/06 08:50:31  5-MIN KMKG 051350Z VRB04KT 10SM CLR 21/08 A3007 490 42 1400 VRB/04 RMK AO2 SLP183 T02110078
14840KMKG MKG20060605085511006/05/06 08:55:31  5-MIN KMKG 051355Z 30005KT 10SM CLR 21/07 A3007 490 40 1400 310/05 RMK AO2 SLP183 T02110072
14840KMKG MKG20060605090009306/05/06 09:00:31  5-MIN KMKG 051400Z VRB05KT 10SM CLR 22/08 A3007 490 40 1400 VRB/05 RMK AO2
14840KMKG MKG20060605090509306/05/06 09:05:31  5-MIN KMKG 051405Z 33004KT 10SM CLR 22/07 A3007 490 39 1400 340/04 RMK AO2
14840KMKG MKG20060605091009306/05/06 09:10:31  5-MIN KMKG 051410Z 33003KT 10SM CLR 22/07 A3007 490 37 1500 330/03 RMK AO2
14840KMKG MKG20060605091509306/05/06 09:15:31  5-MIN KMKG 051415Z 32005KT 10SM CLR 22/07 A3007 490 36 1500 320/05 RMK AO2
14840KMKG MKG20060605092009306/05/06 09:20:31  5-MIN KMKG 051420Z 33005KT 10SM CLR 23/07 A3007 490 35 1600 340/05 RMK AO2
14840KMKG MKG20060605092509306/05/06 09:25:31  5-MIN KMKG 051425Z VRB06KT 10SM CLR 22/06 A3007 500 35 1500 VRB/06 RMK AO2
14840KMKG MKG20060605093009306/05/06 09:30:31  5-MIN KMKG 051430Z 31007KT 10SM CLR 23/06 A3006 500 31 1600 320/07 RMK AO2
14840KMKG MKG20060605093509306/05/06 09:35:31  5-MIN KMKG 051435Z 32006KT 10SM CLR 23/06 A3006 500 31 1600 320/06 RMK AO2
14840KMKG MKG20060605094009306/05/06 09:40:31  5-MIN KMKG 051440Z 32007KT 10SM CLR 23/05 A3006 500 30 1600 330/07 RMK AO2
14840KMKG MKG20060605094509306/05/06 09:45:31  5-MIN KMKG 051445Z 31006KT 10SM CLR 23/05 A3006 500 30 1600 320/06 RMK AO2
14840KMKG MKG20060605095011606/05/06 09:50:31  5-MIN KMKG 051450Z 30005KT 10SM CLR 23/04 A3006 500 29 1600 300/05 RMK AO2 SLP178 T02330044 51009
14840KMKG MKG20060605095511606/05/06 09:55:31  5-MIN KMKG 051455Z 29007KT 10SM CLR 23/04 A3006 500 29 1600 290/07 RMK AO2 SLP178 T02330044 50001
14840KMKG MKG20060605100009306/05/06 10:00:31  5-MIN KMKG 051500Z 30008KT 10SM CLR 23/04 A3006 500 29 1600 300/08 RMK AO2
14840KMKG MKG20060605100509306/05/06 10:05:31  5-MIN KMKG 051505Z 31005KT 10SM CLR 23/04 A3006 500 28 1600 310/05 RMK AO2
14840KMKG MKG20060605101009606/05/06 10:10:31  5-MIN KMKG 051510Z 30007KT 10SM FEW080 24/04 A3006 500 28 1700 310/07 RMK AO2
14840KMKG MKG20060605101509606/05/06 10:15:31  5-MIN KMKG 051515Z 30007KT 10SM FEW085 24/04 A3006 500 27 1700 310/07 RMK AO2
14840KMKG MKG20060605102009606/05/06 10:20:31  5-MIN KMKG 051520Z 30007KT 10SM FEW085 23/03 A3006 500 26 1600 300/07 RMK AO2
14840KMKG MKG20060605102509606/05/06 10:25:31  5-MIN KMKG 051525Z 28008KT 10SM FEW080 24/03 A3006 500 26 1700 280/08 RMK AO2
14840KMKG MKG20060605103009606/05/06 10:30:31  5-MIN KMKG 051530Z 30007KT 10SM FEW080 24/03 A3006 500 26 1700 300/07 RMK AO2
14840KMKG MKG20060605103509606/05/06 10:35:31  5-MIN KMKG 051535Z 29008KT 10SM FEW085 24/03 A3006 500 26 1700 300/08 RMK AO2
14840KMKG MKG20060605104009306/05/06 10:40:31  5-MIN KMKG 051540Z 29008KT 10SM CLR 24/03 A3007 500 26 1700 290/08 RMK AO2
14840KMKG MKG20060605104509606/05/06 10:45:31  5-MIN KMKG 051545Z 30007KT 10SM FEW085 24/04 A3006 500 27 1700 300/07 RMK AO2
14840KMKG MKG20060605105011006/05/06 10:50:31  5-MIN KMKG 051550Z 29008KT 10SM CLR 24/04 A3006 500 27 1700 290/08 RMK AO2 SLP179 T02390039
14840KMKG MKG20060605105511006/05/06 10:55:31  5-MIN KMKG 051555Z 30007KT 10SM CLR 24/04 A3006 500 27 1700 300/07 RMK AO2 SLP177 T02440044
14840KMKG MKG20060605110009306/05/06 11:00:31  5-MIN KMKG 051600Z 29006KT 10SM CLR 24/05 A3006 500 28 1700 290/06 RMK AO2
14840KMKG MKG20060605110509306/05/06 11:05:31  5-MIN KMKG 051605Z 29008KT 10SM CLR 24/05 A3006 500 28 1700 290/08 RMK AO2
14840KMKG MKG20060605111009606/05/06 11:10:31  5-MIN KMKG 051610Z 31007KT 10SM FEW085 24/04 A3006 500 27 1700 310/07 RMK AO2
14840KMKG MKG20060605111509306/05/06 11:15:31  5-MIN KMKG 051615Z 27006KT 10SM CLR 24/04 A3006 500 27 1700 280/06 RMK AO2
14840KMKG MKG20060605112009306/05/06 11:20:31  5-MIN KMKG 051620Z 30009KT 10SM CLR 25/05 A3006 500 27 1800 300/09 RMK AO2
14840KMKG MKG20060605112509306/05/06 11:25:31  5-MIN KMKG 051625Z 29006KT 10SM CLR 25/05 A3006 500 27 1800 300/06 RMK AO2
14840KMKG MKG20060605113009606/05/06 11:30:31  5-MIN KMKG 051630Z 27008KT 10SM FEW085 25/06 A3006 500 28 1800 280/08 RMK AO2
14840KMKG MKG20060605113509606/05/06 11:35:31  5-MIN KMKG 051635Z 28008KT 10SM FEW090 24/04 A3006 500 26 1700 280/08 RMK AO2
14840KMKG MKG20060605114009306/05/06 11:40:31  5-MIN KMKG 051640Z 29010KT 10SM CLR 24/04 A3006 500 27 1700 300/10 RMK AO2
14840KMKG MKG20060605114509606/05/06 11:45:31  5-MIN KMKG 051645Z 28009KT 10SM FEW085 25/04 A3006 500 26 1800 280/09 RMK AO2
14840KMKG MKG20060605115011306/05/06 11:50:31  5-MIN KMKG 051650Z 31009KT 10SM FEW085 25/04 A3006 500 26 1800 310/09 RMK AO2 SLP178 T02500044
14840KMKG MKG20060605115511006/05/06 11:55:31  5-MIN KMKG 051655Z 31009KT 10SM CLR 24/04 A3006 500 27 1700 310/09 RMK AO2 SLP178 T02440044
14840KMKG MKG20060605120009306/05/06 12:00:31  5-MIN KMKG 051700Z 27011KT 10SM CLR 24/04 A3006 500 26 1700 270/11 RMK AO2
14840KMKG MKG20060605120509306/05/06 12:05:31  5-MIN KMKG 051705Z 28009KT 10SM CLR 24/03 A3006 500 25 1700 280/09 RMK AO2
14840KMKG MKG20060605121009306/05/06 12:10:31  5-MIN KMKG 051710Z 30007KT 10SM CLR 24/04 A3006 500 26 1700 300/07 RMK AO2
14840KMKG MKG20060605121509306/05/06 12:15:31  5-MIN KMKG 051715Z 30009KT 10SM CLR 24/04 A3006 500 26 1700 310/09 RMK AO2
14840KMKG MKG20060605122009306/05/06 12:20:31  5-MIN KMKG 051720Z 31008KT 10SM CLR 24/04 A3006 500 26 1700 310/08 RMK AO2
14840KMKG MKG20060605122509306/05/06 12:25:31  5-MIN KMKG 051725Z 29008KT 10SM CLR 25/04 A3006 500 26 1800 300/08 RMK AO2
14840KMKG MKG20060605123009306/05/06 12:30:31  5-MIN KMKG 051730Z 29007KT 10SM CLR 25/04 A3006 500 26 1800 290/07 RMK AO2
14840KMKG MKG20060605123509306/05/06 12:35:31  5-MIN KMKG 051735Z 29008KT 10SM CLR 24/04 A3006 500 26 1800 290/08 RMK AO2
14840KMKG MKG20060605124010906/05/06 12:40:31  5-MIN KMKG 051740Z 29009KT 260V320 10SM CLR 25/04 A3006 500 25 1800 290/09 260V320 RMK AO2
14840KMKG MKG20060605124509306/05/06 12:45:31  5-MIN KMKG 051745Z 29010KT 10SM CLR 25/04 A3006 510 25 1800 290/10 RMK AO2
14840KMKG MKG20060605125012806/05/06 12:50:31  5-MIN KMKG 051750Z 28011KT 10SM CLR 24/03 A3006 500 25 1800 280/11 RMK AO2 SLP176 T02440033 10250 20150 50001
14840KMKG MKG20060605125512806/05/06 12:55:31  5-MIN KMKG 051755Z 28010KT 10SM CLR 24/04 A3005 510 26 1800 280/10 RMK AO2 SLP175 T02440039 10250 20150 58003
14840KMKG MKG20060605130009306/05/06 13:00:31  5-MIN KMKG 051800Z 27009KT 10SM CLR 24/04 A3005 510 26 1800 270/09 RMK AO2
14840KMKG MKG20060605130509306/05/06 13:05:31  5-MIN KMKG 051805Z 27009KT 10SM CLR 24/04 A3005 510 26 1800 280/09 RMK AO2
14840KMKG MKG20060605131009306/05/06 13:10:31  5-MIN KMKG 051810Z 30009KT 10SM CLR 24/03 A3005 510 25 1800 310/09 RMK AO2
14840KMKG MKG20060605131509306/05/06 13:15:31  5-MIN KMKG 051815Z 32008KT 10SM CLR 25/03 A3005 510 24 1800 320/08 RMK AO2
14840KMKG MKG20060605132009306/05/06 13:20:31  5-MIN KMKG 051820Z 31006KT 10SM CLR 25/04 A3005 510 25 1800 320/06 RMK AO2
14840KMKG MKG20060605132509306/05/06 13:25:31  5-MIN KMKG 051825Z 27008KT 10SM CLR 25/04 A3005 510 25 1800 280/08 RMK AO2
14840KMKG MKG20060605133009306/05/06 13:30:31  5-MIN KMKG 051830Z 28011KT 10SM CLR 24/04 A3005 510 26 1800 280/11 RMK AO2
14840KMKG MKG20060605133509306/05/06 13:35:31  5-MIN KMKG 051835Z 28011KT 10SM CLR 25/03 A3005 510 24 1800 280/11 RMK AO2
14840KMKG MKG20060605134009306/05/06 13:40:31  5-MIN KMKG 051840Z 27010KT 10SM CLR 24/03 A3004 520 25 1800 270/10 RMK AO2
14840KMKG MKG20060605134509306/05/06 13:45:31  5-MIN KMKG 051845Z 28010KT 10SM CLR 25/04 A3004 520 26 1800 280/10 RMK AO2
14840KMKG MKG20060605135011006/05/06 13:50:31  5-MIN KMKG 051850Z 28010KT 10SM CLR 24/03 A3004 520 25 1800 280/10 RMK AO2 SLP171 T02440033
14840KMKG MKG20060605135511006/05/06 13:55:31  5-MIN KMKG 051855Z 29009KT 10SM CLR 24/04 A3004 520 26 1800 290/09 RMK AO2 SLP171 T02440039
14840KMKG MKG20060605140009306/05/06 14:00:31  5-MIN KMKG 051900Z 29008KT 10SM CLR 24/03 A3004 520 25 1800 290/08 RMK AO2
14840KMKG MKG20060605140509306/05/06 14:05:31  5-MIN KMKG 051905Z 28009KT 10SM CLR 25/03 A3004 520 24 1800 280/09 RMK AO2
14840KMKG MKG20060605141009306/05/06 14:10:31  5-MIN KMKG 051910Z 29011KT 10SM CLR 24/03 A3004 520 25 1800 290/11 RMK AO2
14840KMKG MKG20060605141509306/05/06 14:15:31  5-MIN KMKG 051915Z 26010KT 10SM CLR 24/03 A3004 520 25 1800 270/10 RMK AO2
14840KMKG MKG20060605142009306/05/06 14:20:31  5-MIN KMKG 051920Z 28010KT 10SM CLR 24/03 A3004 520 25 1700 280/10 RMK AO2
14840KMKG MKG20060605142509306/05/06 14:25:31  5-MIN KMKG 051925Z 28010KT 10SM CLR 24/03 A3004 520 26 1700 280/10 RMK AO2
14840KMKG MKG20060605143009306/05/06 14:30:31  5-MIN KMKG 051930Z 28009KT 10SM CLR 24/04 A3004 520 26 1800 280/09 RMK AO2
14840KMKG MKG20060605143509306/05/06 14:35:31  5-MIN KMKG 051935Z 26009KT 10SM CLR 24/04 A3003 520 27 1700 270/09 RMK AO2
14840KMKG MKG20060605144009306/05/06 14:40:31  5-MIN KMKG 051940Z 27009KT 10SM CLR 24/03 A3003 530 25 1800 270/09 RMK AO2
14840KMKG MKG20060605144509306/05/06 14:45:31  5-MIN KMKG 051945Z 28007KT 10SM CLR 24/03 A3003 530 26 1700 290/07 RMK AO2
14840KMKG MKG20060605145011006/05/06 14:50:31  5-MIN KMKG 051950Z 29008KT 10SM CLR 24/03 A3003 530 25 1800 290/08 RMK AO2 SLP167 T02440033
14840KMKG MKG20060605145511006/05/06 14:55:31  5-MIN KMKG 051955Z 30008KT 10SM CLR 24/03 A3003 530 25 1800 300/08 RMK AO2 SLP166 T02440033
14840KMKG MKG20060605150009306/05/06 15:00:31  5-MIN KMKG 052000Z 26008KT 10SM CLR 24/03 A3003 530 25 1800 270/08 RMK AO2
14840KMKG MKG20060605150509306/05/06 15:05:31  5-MIN KMKG 052005Z 28007KT 10SM CLR 24/03 A3003 530 25 1800 280/07 RMK AO2
14840KMKG MKG20060605151009306/05/06 15:10:31  5-MIN KMKG 052010Z 29007KT 10SM CLR 24/04 A3002 540 26 1800 290/07 RMK AO2
14840KMKG MKG20060605151509306/05/06 15:15:31  5-MIN KMKG 052015Z 24007KT 10SM CLR 24/03 A3002 540 25 1800 240/07 RMK AO2
14840KMKG MKG20060605152010906/05/06 15:20:31  5-MIN KMKG 052020Z 27007KT 230V290 10SM CLR 24/04 A3002 540 26 1800 270/07 230V290 RMK AO2
14840KMKG MKG20060605152509306/05/06 15:25:31  5-MIN KMKG 052025Z 24007KT 10SM CLR 24/03 A3002 540 25 1800 250/07 RMK AO2
14840KMKG MKG20060605153009306/05/06 15:30:31  5-MIN KMKG 052030Z 25008KT 10SM CLR 24/04 A3002 540 26 1800 250/08 RMK AO2
14840KMKG MKG20060605153509306/05/06 15:35:31  5-MIN KMKG 052035Z 26007KT 10SM CLR 24/04 A3002 540 26 1800 260/07 RMK AO2
14840KMKG MKG20060605154009306/05/06 15:40:31  5-MIN KMKG 052040Z 25008KT 10SM CLR 24/03 A3002 540 25 1800 260/08 RMK AO2
14840KMKG MKG20060605154509306/05/06 15:45:31  5-MIN KMKG 052045Z 27009KT 10SM CLR 24/03 A3002 540 25 1800 270/09 RMK AO2
14840KMKG MKG20060605155011606/05/06 15:50:31  5-MIN KMKG 052050Z 27009KT 10SM CLR 24/04 A3002 540 26 1800 280/09 RMK AO2 SLP164 T02440039 58003
14840KMKG MKG20060605155511606/05/06 15:55:31  5-MIN KMKG 052055Z 26010KT 10SM CLR 24/03 A3002 540 25 1800 260/10 RMK AO2 SLP164 T02440033 56012
14840KMKG MKG20060605160009306/05/06 16:00:31  5-MIN KMKG 052100Z 26008KT 10SM CLR 24/03 A3002 540 24 1800 260/08 RMK AO2
14840KMKG MKG20060605160509306/05/06 16:05:31  5-MIN KMKG 052105Z 26008KT 10SM CLR 24/03 A3002 540 26 1700 260/08 RMK AO2
14840KMKG MKG20060605161009306/05/06 16:10:31  5-MIN KMKG 052110Z 25008KT 10SM CLR 24/03 A3002 540 26 1700 250/08 RMK AO2
14840KMKG MKG20060605161509306/05/06 16:15:31  5-MIN KMKG 052115Z 26008KT 10SM CLR 24/03 A3001 540 26 1700 270/08 RMK AO2
14840KMKG MKG20060605162009306/05/06 16:20:31  5-MIN KMKG 052120Z 25007KT 10SM CLR 24/03 A3001 550 26 1700 250/07 RMK AO2
14840KMKG MKG20060605162509306/05/06 16:25:31  5-MIN KMKG 052125Z 27007KT 10SM CLR 24/04 A3001 550 26 1800 270/07 RMK AO2
14840KMKG MKG20060605163009306/05/06 16:30:31  5-MIN KMKG 052130Z 27009KT 10SM CLR 24/03 A3001 550 25 1800 280/09 RMK AO2
14840KMKG MKG20060605163509306/05/06 16:35:31  5-MIN KMKG 052135Z 27009KT 10SM CLR 24/03 A3001 550 25 1700 270/09 RMK AO2
14840KMKG MKG20060605164009306/05/06 16:40:31  5-MIN KMKG 052140Z 27010KT 10SM CLR 23/03 A3001 550 25 1700 270/10 RMK AO2
14840KMKG MKG20060605164509306/05/06 16:45:31  5-MIN KMKG 052145Z 26008KT 10SM CLR 24/03 A3001 550 25 1700 260/08 RMK AO2
14840KMKG MKG20060605165011006/05/06 16:50:31  5-MIN KMKG 052150Z 26008KT 10SM CLR 23/03 A3001 550 25 1700 270/08 RMK AO2 SLP161 T02330028
14840KMKG MKG20060605165511006/05/06 16:55:31  5-MIN KMKG 052155Z 26008KT 10SM CLR 23/03 A3001 550 25 1700 270/08 RMK AO2 SLP161 T02330028
14840KMKG MKG20060605170009306/05/06 17:00:31  5-MIN KMKG 052200Z 26007KT 10SM CLR 23/03 A3001 550 25 1700 270/07 RMK AO2
14840KMKG MKG20060605170509306/05/06 17:05:31  5-MIN KMKG 052205Z 27008KT 10SM CLR 23/03 A3000 550 26 1700 270/08 RMK AO2
14840KMKG MKG20060605171009306/05/06 17:10:31  5-MIN KMKG 052210Z 27008KT 10SM CLR 24/03 A3000 550 26 1700 280/08 RMK AO2
14840KMKG MKG20060605171509306/05/06 17:15:31  5-MIN KMKG 052215Z 27008KT 10SM CLR 23/03 A3000 550 25 1700 270/08 RMK AO2
14840KMKG MKG20060605172009306/05/06 17:20:31  5-MIN KMKG 052220Z 27006KT 10SM CLR 23/03 A3000 560 25 1700 270/06 RMK AO2
14840KMKG MKG20060605172509306/05/06 17:25:31  5-MIN KMKG 052225Z 26006KT 10SM CLR 23/03 A3000 560 26 1700 270/06 RMK AO2
14840KMKG MKG20060605173009306/05/06 17:30:31  5-MIN KMKG 052230Z VRB06KT 10SM CLR 23/03 A3000 560 26 1700 VRB/06 RMK AO2
14840KMKG MKG20060605173509306/05/06 17:35:31  5-MIN KMKG 052235Z 24006KT 10SM CLR 23/03 A3000 560 26 1700 250/06 RMK AO2
14840KMKG MKG20060605174009306/05/06 17:40:31  5-MIN KMKG 052240Z 25005KT 10SM CLR 23/03 A2999 560 26 1700 260/05 RMK AO2
14840KMKG MKG20060605174509306/05/06 17:45:31  5-MIN KMKG 052245Z 27006KT 10SM CLR 23/03 A3000 560 26 1700 270/06 RMK AO2
14840KMKG MKG20060605175011006/05/06 17:50:31  5-MIN KMKG 052250Z 27007KT 10SM CLR 23/04 A3000 560 28 1700 280/07 RMK AO2 SLP158 T02330039
14840KMKG MKG20060605175511006/05/06 17:55:31  5-MIN KMKG 052255Z 25006KT 10SM CLR 23/04 A3000 560 28 1700 250/06 RMK AO2 SLP157 T02330039
14840KMKG MKG20060605180009306/05/06 18:00:31  5-MIN KMKG 052300Z 25005KT 10SM CLR 23/03 A2999 560 27 1600 250/05 RMK AO2
14840KMKG MKG20060605180509306/05/06 18:05:31  5-MIN KMKG 052305Z 26003KT 10SM CLR 23/03 A2999 560 27 1600 260/03 RMK AO2
14840KMKG MKG20060605181009306/05/06 18:10:31  5-MIN KMKG 052310Z 24005KT 10SM CLR 23/03 A2999 560 27 1600 250/05 RMK AO2
14840KMKG MKG20060605181509306/05/06 18:15:31  5-MIN KMKG 052315Z 23005KT 10SM CLR 23/03 A2999 570 27 1600 240/05 RMK AO2
14840KMKG MKG20060605182009306/05/06 18:20:31  5-MIN KMKG 052320Z 25004KT 10SM CLR 23/03 A2999 570 27 1600 250/04 RMK AO2
14840KMKG MKG20060605182509306/05/06 18:25:31  5-MIN KMKG 052325Z 25004KT 10SM CLR 23/03 A2999 570 27 1600 250/04 RMK AO2
14840KMKG MKG20060605183009306/05/06 18:30:31  5-MIN KMKG 052330Z 24004KT 10SM CLR 23/04 A2999 570 29 1600 250/04 RMK AO2
14840KMKG MKG20060605183509306/05/06 18:35:31  5-MIN KMKG 052335Z 24005KT 10SM CLR 23/04 A2999 570 29 1600 250/05 RMK AO2
14840KMKG MKG20060605184009306/05/06 18:40:31  5-MIN KMKG 052340Z 28005KT 10SM CLR 22/04 A2999 570 30 1600 280/05 RMK AO2
14840KMKG MKG20060605184509306/05/06 18:45:31  5-MIN KMKG 052345Z 25004KT 10SM CLR 22/04 A2999 570 30 1600 250/04 RMK AO2
14840KMKG MKG20060605185012806/05/06 18:50:31  5-MIN KMKG 052350Z 25005KT 10SM CLR 22/04 A2999 570 30 1600 250/05 RMK AO2 SLP154 T02220039 10250 20222 56012
14840KMKG MKG20060605185512806/05/06 18:55:31  5-MIN KMKG 052355Z 24004KT 10SM CLR 22/04 A2999 570 31 1600 240/04 RMK AO2 SLP154 T02220044 10250 20222 56010
14840KMKG MKG20060605190009306/05/06 19:00:31  5-MIN KMKG 060000Z 23004KT 10SM CLR 22/04 A2999 570 32 1500 230/04 RMK AO2
14840KMKG MKG20060605190509306/05/06 19:05:31  5-MIN KMKG 060005Z 23005KT 10SM CLR 22/04 A2998 570 32 1500 240/05 RMK AO2
14840KMKG MKG20060605191009306/05/06 19:10:31  5-MIN KMKG 060010Z 24005KT 10SM CLR 21/04 A2998 570 33 1500 240/05 RMK AO2
14840KMKG MKG20060605191509306/05/06 19:15:31  5-MIN KMKG 060015Z 23004KT 10SM CLR 21/04 A2999 570 33 1500 240/04 RMK AO2
14840KMKG MKG20060605192009306/05/06 19:20:31  5-MIN KMKG 060020Z 23005KT 10SM CLR 21/04 A2998 570 33 1500 230/05 RMK AO2
14840KMKG MKG20060605192509306/05/06 19:25:31  5-MIN KMKG 060025Z 24005KT 10SM CLR 21/04 A2998 570 34 1400 240/05 RMK AO2
14840KMKG MKG20060605193009306/05/06 19:30:31  5-MIN KMKG 060030Z 23004KT 10SM CLR 21/05 A2998 570 35 1400 240/04 RMK AO2
14840KMKG MKG20060605193509306/05/06 19:35:31  5-MIN KMKG 060035Z 23004KT 10SM CLR 20/05 A2998 570 37 1300 230/04 RMK AO2
14840KMKG MKG20060605194009306/05/06 19:40:31  5-MIN KMKG 060040Z 23004KT 10SM CLR 19/05 A2998 580 38 1300 230/04 RMK AO2
14840KMKG MKG20060605194509306/05/06 19:45:31  5-MIN KMKG 060045Z 22003KT 10SM CLR 19/06 A2998 580 40 1300 230/03 RMK AO2
14840KMKG MKG20060605195011006/05/06 19:50:31  5-MIN KMKG 060050Z 23003KT 10SM CLR 19/06 A2998 580 41 1200 230/03 RMK AO2 SLP150 T01890056
14840KMKG MKG20060605195511006/05/06 19:55:31  5-MIN KMKG 060055Z 21004KT 10SM CLR 19/04 A2998 580 37 1300 220/04 RMK AO2 SLP150 T01940044
14840KMKG MKG20060605200009306/05/06 20:00:31  5-MIN KMKG 060100Z 21004KT 10SM CLR 19/04 A2998 580 38 1200 210/04 RMK AO2
14840KMKG MKG20060605200509306/05/06 20:05:31  5-MIN KMKG 060105Z 20003KT 10SM CLR 19/05 A2998 580 38 1300 210/03 RMK AO2
14840KMKG MKG20060605201009306/05/06 20:10:31  5-MIN KMKG 060110Z 00000KT 10SM CLR 19/05 A2998 580 39 1200 000/00 RMK AO2
14840KMKG MKG20060605201509306/05/06 20:15:31  5-MIN KMKG 060115Z 00000KT 10SM CLR 18/06 A2998 580 46 1100 000/00 RMK AO2
14840KMKG MKG20060605202009306/05/06 20:20:31  5-MIN KMKG 060120Z 00000KT 10SM CLR 18/06 A2998 570 46 1100 000/00 RMK AO2
14840KMKG MKG20060605202509306/05/06 20:25:31  5-MIN KMKG 060125Z 00000KT 10SM CLR 18/06 A2998 570 44 1100 000/00 RMK AO2
14840KMKG MKG20060605203009306/05/06 20:30:31  5-MIN KMKG 060130Z 00000KT 10SM CLR 17/06 A2998 580 47 1000 000/00 RMK AO2
14840KMKG MKG20060605203509206/05/06 20:35:31  5-MIN KMKG 060135Z 00000KT 10SM CLR 17/06 A2998 580 49 900 000/00 RMK AO2
14840KMKG MKG20060605204009206/05/06 20:40:31  5-MIN KMKG 060140Z 00000KT 10SM CLR 16/06 A2998 580 49 900 000/00 RMK AO2
14840KMKG MKG20060605204509206/05/06 20:45:31  5-MIN KMKG 060145Z 00000KT 10SM CLR 16/06 A2998 570 49 900 000/00 RMK AO2
14840KMKG MKG20060605205010906/05/06 20:50:31  5-MIN KMKG 060150Z 00000KT 10SM CLR 16/05 A2998 570 49 800 000/00 RMK AO2 SLP151 T01560050
14840KMKG MKG20060605205510906/05/06 20:55:31  5-MIN KMKG 060155Z 00000KT 10SM CLR 16/05 A2998 570 47 900 000/00 RMK AO2 SLP151 T01610050
14840KMKG MKG20060605210009206/05/06 21:00:31  5-MIN KMKG 060200Z 00000KT 10SM CLR 15/06 A2998 570 53 700 000/00 RMK AO2
14840KMKG MKG20060605210509206/05/06 21:05:31  5-MIN KMKG 060205Z 00000KT 10SM CLR 16/06 A2998 570 53 800 000/00 RMK AO2
14840KMKG MKG20060605211009206/05/06 21:10:31  5-MIN KMKG 060210Z 00000KT 10SM CLR 16/07 A2999 570 55 800 000/00 RMK AO2
14840KMKG MKG20060605211509206/05/06 21:15:31  5-MIN KMKG 060215Z 00000KT 10SM CLR 15/07 A2998 570 57 700 000/00 RMK AO2
14840KMKG MKG20060605212009206/05/06 21:20:31  5-MIN KMKG 060220Z 00000KT 10SM CLR 14/07 A2999 570 59 700 000/00 RMK AO2
14840KMKG MKG20060605212509206/05/06 21:25:31  5-MIN KMKG 060225Z 00000KT 10SM CLR 13/06 A2999 570 61 500 000/00 RMK AO2
14840KMKG MKG20060605213009206/05/06 21:30:31  5-MIN KMKG 060230Z 00000KT 10SM CLR 14/06 A2999 570 59 600 000/00 RMK AO2
14840KMKG MKG20060605213509206/05/06 21:35:31  5-MIN KMKG 060235Z 00000KT 10SM CLR 14/06 A2999 570 57 700 000/00 RMK AO2
14840KMKG MKG20060605214009206/05/06 21:40:31  5-MIN KMKG 060240Z 00000KT 10SM CLR 14/06 A2999 570 57 700 000/00 RMK AO2
14840KMKG MKG20060605214509206/05/06 21:45:31  5-MIN KMKG 060245Z 00000KT 10SM CLR 14/07 A2999 560 59 700 000/00 RMK AO2
14840KMKG MKG20060605215011506/05/06 21:50:31  5-MIN KMKG 060250Z 00000KT 10SM CLR 14/07 A2999 560 61 600 000/00 RMK AO2 SLP155 T01390067 56010
14840KMKG MKG20060605215511506/05/06 21:55:31  5-MIN KMKG 060255Z 00000KT 10SM CLR 13/07 A2999 570 64 500 000/00 RMK AO2 SLP154 T01330067 53000
14840KMKG MKG20060605220009206/05/06 22:00:31  5-MIN KMKG 060300Z 00000KT 10SM CLR 12/07 A2999 570 68 400 000/00 RMK AO2
14840KMKG MKG20060605220509206/05/06 22:05:31  5-MIN KMKG 060305Z 00000KT 10SM CLR 12/07 A2999 570 71 400 000/00 RMK AO2
14840KMKG MKG20060605221009206/05/06 22:10:31  5-MIN KMKG 060310Z 00000KT 10SM CLR 12/07 A2999 570 71 400 000/00 RMK AO2
14840KMKG MKG20060605221509206/05/06 22:15:31  5-MIN KMKG 060315Z 00000KT 10SM CLR 12/07 A2998 570 71 400 000/00 RMK AO2
14840KMKG MKG20060605222009206/05/06 22:20:31  5-MIN KMKG 060320Z 12003KT 10SM CLR 12/07 A2998 580 71 400 120/03 RMK AO2
14840KMKG MKG20060605222509206/05/06 22:25:31  5-MIN KMKG 060325Z 00000KT 10SM CLR 12/07 A2998 580 74 400 000/00 RMK AO2
14840KMKG MKG20060605223009206/05/06 22:30:31  5-MIN KMKG 060330Z 00000KT 10SM CLR 12/07 A2998 580 74 400 000/00 RMK AO2
14840KMKG MKG20060605223509206/05/06 22:35:31  5-MIN KMKG 060335Z 00000KT 10SM CLR 11/07 A2998 580 74 300 000/00 RMK AO2
14840KMKG MKG20060605224009206/05/06 22:40:31  5-MIN KMKG 060340Z 00000KT 10SM CLR 11/07 A2998 580 74 300 000/00 RMK AO2
14840KMKG MKG20060605224509206/05/06 22:45:31  5-MIN KMKG 060345Z 00000KT 10SM CLR 12/07 A2998 580 71 400 000/00 RMK AO2
14840KMKG MKG20060605225010906/05/06 22:50:31  5-MIN KMKG 060350Z 00000KT 10SM CLR 12/07 A2997 580 71 400 000/00 RMK AO2 SLP149 T01220072
14840KMKG MKG20060605225510906/05/06 22:55:31  5-MIN KMKG 060355Z 14003KT 10SM CLR 12/07 A2997 580 71 400 140/03 RMK AO2 SLP148 T01220072
14840KMKG MKG20060605230009206/05/06 23:00:31  5-MIN KMKG 060400Z 00000KT 10SM CLR 12/07 A2997 580 71 400 000/00 RMK AO2
14840KMKG MKG20060605230509206/05/06 23:05:31  5-MIN KMKG 060405Z 00000KT 10SM CLR 12/07 A2997 580 71 400 000/00 RMK AO2
14840KMKG MKG20060605231009206/05/06 23:10:31  5-MIN KMKG 060410Z 00000KT 10SM CLR 12/07 A2997 580 74 400 000/00 RMK AO2
14840KMKG MKG20060605231509206/05/06 23:15:31  5-MIN KMKG 060415Z 00000KT 10SM CLR 11/07 A2997 580 74 300 000/00 RMK AO2
14840KMKG MKG20060605232009206/05/06 23:20:31  5-MIN KMKG 060420Z 12004KT 10SM CLR 11/07 A2997 590 77 300 130/04 RMK AO2
14840KMKG MKG20060605232509206/05/06 23:25:31  5-MIN KMKG 060425Z 13005KT 10SM CLR 11/08 A2996 590 83 200 130/05 RMK AO2
14840KMKG MKG20060605233009206/05/06 23:30:31  5-MIN KMKG 060430Z 14004KT 10SM CLR 11/08 A2996 590 80 300 140/04 RMK AO2
14840KMKG MKG20060605233509206/05/06 23:35:31  5-MIN KMKG 060435Z 14004KT 10SM CLR 10/08 A2996 590 86 200 150/04 RMK AO2
14840KMKG MKG20060605234009206/05/06 23:40:31  5-MIN KMKG 060440Z 15003KT 10SM CLR 10/08 A2996 590 86 200 150/03 RMK AO2
14840KMKG MKG20060605234509206/05/06 23:45:31  5-MIN KMKG 060445Z 00000KT 10SM CLR 11/08 A2996 590 83 200 000/00 RMK AO2
14840KMKG MKG20060605235011906/05/06 23:50:31  5-MIN KMKG 060450Z 00000KT 10SM CLR 10/07 A2997 590 80 200 000/00 RMK AO2 SLP146 T01000067 402500089
14840KMKG MKG20060605235511906/05/06 23:55:31  5-MIN KMKG 060455Z 00000KT 10SM CLR 10/07 A2997 590 80 200 000/00 RMK AO2 SLP147 T01000067 402500089
14840KMKG MKG20060606000009206/06/06 00:00:32  5-MIN KMKG 060500Z 00000KT 10SM CLR 10/07 A2997 590 80 200 000/00 RMK AO2
14840KMKG MKG20060606000509206/06/06 00:05:31  5-MIN KMKG 060505Z 00000KT 10SM CLR 11/07 A2997 580 77 200 000/00 RMK AO2
14840KMKG MKG20060606001009206/06/06 00:10:31  5-MIN KMKG 060510Z 00000KT 10SM CLR 10/07 A2997 580 80 200 000/00 RMK AO2
14840KMKG MKG20060606001509206/06/06 00:15:31  5-MIN KMKG 060515Z 00000KT 10SM CLR 10/07 A2997 580 80 200 000/00 RMK AO2
14840KMKG MKG20060606002009206/06/06 00:20:31  5-MIN KMKG 060520Z 00000KT 10SM CLR 10/07 A2997 580 80 200 000/00 RMK AO2
14840KMKG MKG20060606002509206/06/06 00:25:31  5-MIN KMKG 060525Z 00000KT 10SM CLR 10/07 A2997 580 83 200 000/00 RMK AO2
14840KMKG MKG20060606003009206/06/06 00:30:31  5-MIN KMKG 060530Z 00000KT 10SM CLR 10/07 A2997 590 80 200 000/00 RMK AO2
14840KMKG MKG20060606003509206/06/06 00:35:31  5-MIN KMKG 060535Z 00000KT 10SM CLR 10/07 A2997 590 80 200 000/00 RMK AO2
14840KMKG MKG20060606004009206/06/06 00:40:31  5-MIN KMKG 060540Z 00000KT 10SM CLR 11/07 A2997 590 77 200 000/00 RMK AO2
14840KMKG MKG20060606004509206/06/06 00:45:31  5-MIN KMKG 060545Z 00000KT 10SM CLR 10/07 A2997 590 80 200 000/00 RMK AO2
14840KMKG MKG20060606005012706/06/06 00:50:31  5-MIN KMKG 060550Z 00000KT 10SM CLR 11/07 A2997 580 77 200 000/00 RMK AO2 SLP147 T01060067 10217 20100 53000
14840KMKG MKG20060606005512706/06/06 00:55:31  5-MIN KMKG 060555Z 00000KT 10SM CLR 11/07 A2997 580 77 200 000/00 RMK AO2 SLP147 T01060067 10217 20100 55006
14840KMKG MKG20060606010009206/06/06 01:00:31  5-MIN KMKG 060600Z 00000KT 10SM CLR 11/07 A2997 580 80 200 000/00 RMK AO2
14840KMKG MKG20060606010509206/06/06 01:05:31  5-MIN KMKG 060605Z 09003KT 10SM CLR 10/07 A2997 590 83 200 100/03 RMK AO2
14840KMKG MKG20060606011009206/06/06 01:10:31  5-MIN KMKG 060610Z 10003KT 10SM CLR 10/07 A2997 590 83 200 100/03 RMK AO2
14840KMKG MKG20060606011509206/06/06 01:15:31  5-MIN KMKG 060615Z 00000KT 10SM CLR 10/07 A2997 590 83 200 000/00 RMK AO2
14840KMKG MKG20060606012009206/06/06 01:20:31  5-MIN KMKG 060620Z 00000KT 10SM CLR 10/07 A2996 590 83 200 000/00 RMK AO2
14840KMKG MKG20060606012509206/06/06 01:25:31  5-MIN KMKG 060625Z 00000KT 10SM CLR 09/07 A2996 590 86 100 000/00 RMK AO2
14840KMKG MKG20060606013009206/06/06 01:30:31  5-MIN KMKG 060630Z 00000KT 10SM CLR 09/07 A2997 590 86 100 000/00 RMK AO2
14840KMKG MKG20060606013509206/06/06 01:35:31  5-MIN KMKG 060635Z 00000KT 10SM CLR 10/07 A2997 590 83 200 000/00 RMK AO2
14840KMKG MKG20060606014009206/06/06 01:40:31  5-MIN KMKG 060640Z 00000KT 10SM CLR 11/07 A2997 590 80 200 000/00 RMK AO2
14840KMKG MKG20060606014509206/06/06 01:45:31  5-MIN KMKG 060645Z 00000KT 10SM CLR 11/07 A2997 590 80 200 000/00 RMK AO2
14840KMKG MKG20060606015010906/06/06 01:50:31  5-MIN KMKG 060650Z 00000KT 10SM CLR 11/07 A2997 590 80 200 000/00 RMK AO2 SLP147 T01060072
14840KMKG MKG20060606015510906/06/06 01:55:31  5-MIN KMKG 060655Z 00000KT 10SM CLR 11/07 A2997 590 80 200 000/00 RMK AO2 SLP146 T01060072
14840KMKG MKG20060606020009206/06/06 02:00:31  5-MIN KMKG 060700Z 00000KT 10SM CLR 11/07 A2997 590 80 200 000/00 RMK AO2
14840KMKG MKG20060606020509206/06/06 02:05:31  5-MIN KMKG 060705Z 00000KT 10SM CLR 11/07 A2997 590 80 200 000/00 RMK AO2
14840KMKG MKG20060606021009206/06/06 02:10:31  5-MIN KMKG 060710Z 00000KT 10SM CLR 10/07 A2996 590 83 200 000/00 RMK AO2
14840KMKG MKG20060606021509206/06/06 02:15:31  5-MIN KMKG 060715Z 00000KT 10SM CLR 09/07 A2996 590 86 100 000/00 RMK AO2
14840KMKG MKG20060606022009206/06/06 02:20:31  5-MIN KMKG 060720Z 00000KT 10SM CLR 10/07 A2997 590 83 200 000/00 RMK AO2
14840KMKG MKG20060606022509206/06/06 02:25:31  5-MIN KMKG 060725Z 00000KT 10SM CLR 10/07 A2997 590 83 200 000/00 RMK AO2
14840KMKG MKG20060606023009206/06/06 02:30:31  5-MIN KMKG 060730Z 13003KT 10SM CLR 10/07 A2996 590 83 200 140/03 RMK AO2
14840KMKG MKG20060606023509006/06/06 02:35:31  5-MIN KMKG 060735Z 14003KT 10SM CLR 09/07 A2996 590 89 0 150/03 RMK AO2
14840KMKG MKG20060606024009206/06/06 02:40:31  5-MIN KMKG 060740Z 14003KT 10SM CLR 09/07 A2996 590 86 100 140/03 RMK AO2
14840KMKG MKG20060606024509006/06/06 02:45:31  5-MIN KMKG 060745Z 00000KT 10SM CLR 09/07 A2996 590 89 0 000/00 RMK AO2
14840KMKG MKG20060606025010706/06/06 02:50:31  5-MIN KMKG 060750Z 00000KT 10SM CLR 09/07 A2997 590 89 0 000/00 RMK AO2 SLP147 T00890072
14840KMKG MKG20060606025510906/06/06 02:55:31  5-MIN KMKG 060755Z 00000KT 10SM CLR 09/07 A2997 590 86 100 000/00 RMK AO2 SLP146 T00940072
14840KMKG MKG20060606030009006/06/06 03:00:31  5-MIN KMKG 060800Z 13003KT 10SM CLR 09/07 A2997 590 89 0 130/03 RMK AO2
14840KMKG MKG20060606030509006/06/06 03:05:31  5-MIN KMKG 060805Z 13003KT 10SM CLR 09/07 A2997 590 89 0 130/03 RMK AO2
14840KMKG MKG20060606031009006/06/06 03:10:31  5-MIN KMKG 060810Z 13003KT 10SM CLR 09/07 A2997 590 89 0 140/03 RMK AO2
14840KMKG MKG20060606031509206/06/06 03:15:31  5-MIN KMKG 060815Z 13003KT 10SM CLR 09/07 A2996 590 86 100 130/03 RMK AO2
14840KMKG MKG20060606032009206/06/06 03:20:31  5-MIN KMKG 060820Z 13003KT 10SM CLR 09/07 A2996 590 86 100 140/03 RMK AO2
14840KMKG MKG20060606032509206/06/06 03:25:31  5-MIN KMKG 060825Z 13003KT 10SM CLR 09/07 A2996 590 83 100 130/03 RMK AO2
14840KMKG MKG20060606033009206/06/06 03:30:31  5-MIN KMKG 060830Z 00000KT 10SM CLR 09/07 A2996 590 86 100 000/00 RMK AO2
14840KMKG MKG20060606033509206/06/06 03:35:31  5-MIN KMKG 060835Z 00000KT 10SM CLR 09/07 A2996 600 86 100 000/00 RMK AO2
14840KMKG MKG20060606034009206/06/06 03:40:31  5-MIN KMKG 060840Z 13003KT 10SM CLR 09/07 A2996 600 83 100 130/03 RMK AO2
14840KMKG MKG20060606034509206/06/06 03:45:31  5-MIN KMKG 060845Z 12004KT 10SM CLR 10/07 A2996 600 80 200 130/04 RMK AO2
14840KMKG MKG20060606035011506/06/06 03:50:31  5-MIN KMKG 060850Z 12003KT 10SM CLR 11/07 A2996 600 80 200 120/03 RMK AO2 SLP143 T01060072 55006
14840KMKG MKG20060606035511506/06/06 03:55:31  5-MIN KMKG 060855Z 00000KT 10SM CLR 10/07 A2996 600 83 200 000/00 RMK AO2 SLP143 T01000072 58004
14840KMKG MKG20060606040009206/06/06 04:00:31  5-MIN KMKG 060900Z 00000KT 10SM CLR 09/07 A2996 600 83 100 000/00 RMK AO2
14840KMKG MKG20060606040509206/06/06 04:05:31  5-MIN KMKG 060905Z 00000KT 10SM CLR 09/07 A2996 600 86 100 000/00 RMK AO2
14840KMKG MKG20060606041009206/06/06 04:10:31  5-MIN KMKG 060910Z 00000KT 10SM CLR 10/07 A2996 600 83 200 000/00 RMK AO2
14840KMKG MKG20060606041509206/06/06 04:15:31  5-MIN KMKG 060915Z 00000KT 10SM CLR 10/07 A2996 600 83 200 000/00 RMK AO2
14840KMKG MKG20060606042009206/06/06 04:20:31  5-MIN KMKG 060920Z 00000KT 10SM CLR 10/07 A2995 600 83 200 000/00 RMK AO2
14840KMKG MKG20060606042509206/06/06 04:25:31  5-MIN KMKG 060925Z 00000KT 10SM CLR 10/07 A2995 600 83 200 000/00 RMK AO2
14840KMKG MKG20060606043009206/06/06 04:30:31  5-MIN KMKG 060930Z 00000KT 10SM CLR 09/07 A2995 600 86 100 000/00 RMK AO2
14840KMKG MKG20060606043509206/06/06 04:35:31  5-MIN KMKG 060935Z 00000KT 10SM CLR 09/07 A2996 600 86 100 000/00 RMK AO2
14840KMKG MKG20060606044009206/06/06 04:40:31  5-MIN KMKG 060940Z 00000KT 10SM CLR 10/07 A2995 600 83 200 000/00 RMK AO2
14840KMKG MKG20060606044509206/06/06 04:45:31  5-MIN KMKG 060945Z 00000KT 10SM CLR 09/07 A2996 600 83 100 000/00 RMK AO2
14840KMKG MKG20060606045010906/06/06 04:50:31  5-MIN KMKG 060950Z 00000KT 10SM CLR 09/07 A2996 600 83 100 000/00 RMK AO2 SLP144 T00940067
14840KMKG MKG20060606045510706/06/06 04:55:31  5-MIN KMKG 060955Z 00000KT 10SM CLR 09/07 A2996 600 86 0 000/00 RMK AO2 SLP143 T00890067
14840KMKG MKG20060606050009206/06/06 05:00:31  5-MIN KMKG 061000Z 13003KT 10SM CLR 09/07 A2995 600 83 100 140/03 RMK AO2
14840KMKG MKG20060606050509206/06/06 05:05:31  5-MIN KMKG 061005Z 14003KT 10SM CLR 09/07 A2996 600 86 100 140/03 RMK AO2
14840KMKG MKG20060606051009206/06/06 05:10:31  5-MIN KMKG 061010Z 12004KT 10SM CLR 09/07 A2995 600 83 100 130/04 RMK AO2
14840KMKG MKG20060606051509206/06/06 05:15:31  5-MIN KMKG 061015Z 11003KT 10SM CLR 10/07 A2995 600 83 200 110/03 RMK AO2
14840KMKG MKG20060606052009206/06/06 05:20:31  5-MIN KMKG 061020Z 00000KT 10SM CLR 10/07 A2996 600 83 200 000/00 RMK AO2
14840KMKG MKG20060606052509206/06/06 05:25:31  5-MIN KMKG 061025Z 11003KT 10SM CLR 10/07 A2996 600 80 200 120/03 RMK AO2
14840KMKG MKG20060606053009206/06/06 05:30:31  5-MIN KMKG 061030Z 12003KT 10SM CLR 10/07 A2996 600 80 200 130/03 RMK AO2
14840KMKG MKG20060606053509206/06/06 05:35:31  5-MIN KMKG 061035Z 00000KT 10SM CLR 10/07 A2996 600 80 200 000/00 RMK AO2
14840KMKG MKG20060606054009206/06/06 05:40:31  5-MIN KMKG 061040Z 12003KT 10SM CLR 10/07 A2996 600 80 200 130/03 RMK AO2
14840KMKG MKG20060606054509206/06/06 05:45:31  5-MIN KMKG 061045Z 12003KT 10SM CLR 10/07 A2996 600 83 200 120/03 RMK AO2
14840KMKG MKG20060606055010906/06/06 05:50:31  5-MIN KMKG 061050Z 12003KT 10SM CLR 10/07 A2995 600 83 200 120/03 RMK AO2 SLP143 T01000072
14840KMKG MKG20060606055510906/06/06 05:55:31  5-MIN KMKG 061055Z 00000KT 10SM CLR 10/07 A2995 600 83 200 000/00 RMK AO2 SLP143 T01000072
14840KMKG MKG20060606060009206/06/06 06:00:31  5-MIN KMKG 061100Z 00000KT 10SM CLR 11/07 A2995 600 80 300 000/00 RMK AO2
14840KMKG MKG20060606060509206/06/06 06:05:31  5-MIN KMKG 061105Z 00000KT 10SM CLR 11/08 A2995 600 80 300 000/00 RMK AO2
14840KMKG MKG20060606061009206/06/06 06:10:31  5-MIN KMKG 061110Z 13005KT 10SM CLR 11/08 A2995 600 80 300 140/05 RMK AO2
14840KMKG MKG20060606061509206/06/06 06:15:31  5-MIN KMKG 061115Z 14006KT 10SM CLR 12/08 A2995 600 77 400 140/06 RMK AO2
14840KMKG MKG20060606062009206/06/06 06:20:31  5-MIN KMKG 061120Z 00000KT 10SM CLR 12/09 A2996 600 80 400 000/00 RMK AO2
14840KMKG MKG20060606062509206/06/06 06:25:31  5-MIN KMKG 061125Z 00000KT 10SM CLR 13/09 A2996 600 77 500 000/00 RMK AO2
14840KMKG MKG20060606063009206/06/06 06:30:31  5-MIN KMKG 061130Z 12004KT 10SM CLR 13/09 A2996 600 77 500 120/04 RMK AO2
14840KMKG MKG20060606063509206/06/06 06:35:31  5-MIN KMKG 061135Z 12003KT 10SM CLR 13/09 A2996 600 74 600 130/03 RMK AO2
14840KMKG MKG20060606064009206/06/06 06:40:31  5-MIN KMKG 061140Z 00000KT 10SM CLR 14/09 A2996 590 71 600 000/00 RMK AO2
14840KMKG MKG20060606064509206/06/06 06:45:31  5-MIN KMKG 061145Z 00000KT 10SM CLR 14/09 A2996 590 71 600 000/00 RMK AO2
14840KMKG MKG20060606065012706/06/06 06:50:31  5-MIN KMKG 061150Z 00000KT 10SM CLR 14/09 A2997 590 72 700 000/00 RMK AO2 SLP146 T01440094 10144 20089 58004
14840KMKG MKG20060606065512706/06/06 06:55:31  5-MIN KMKG 061155Z 00000KT 10SM CLR 15/09 A2996 590 66 800 000/00 RMK AO2 SLP145 T01500089 10150 20089 53002
14840KMKG MKG20060606070009206/06/06 07:00:31  5-MIN KMKG 061200Z 00000KT 10SM CLR 16/09 A2996 590 64 800 000/00 RMK AO2
14840KMKG MKG20060606070509206/06/06 07:05:31  5-MIN KMKG 061205Z 00000KT 10SM CLR 16/09 A2996 590 64 800 000/00 RMK AO2
14840KMKG MKG20060606071009206/06/06 07:10:31  5-MIN KMKG 061210Z 00000KT 10SM CLR 16/09 A2997 590 62 900 000/00 RMK AO2
14840KMKG MKG20060606071509206/06/06 07:15:31  5-MIN KMKG 061215Z 14003KT 10SM CLR 16/09 A2996 590 64 900 150/03 RMK AO2
14840KMKG MKG20060606072009306/06/06 07:20:31  5-MIN KMKG 061220Z 16004KT 10SM CLR 17/09 A2996 590 60 1000 160/04 RMK AO2
14840KMKG MKG20060606072509306/06/06 07:25:31  5-MIN KMKG 061225Z 14004KT 10SM CLR 17/09 A2996 600 57 1000 140/04 RMK AO2
14840KMKG MKG20060606073009306/06/06 07:30:31  5-MIN KMKG 061230Z 16003KT 10SM CLR 18/08 A2996 590 53 1100 160/03 RMK AO2
14840KMKG MKG20060606073509306/06/06 07:35:31  5-MIN KMKG 061235Z 19004KT 10SM CLR 18/08 A2996 590 52 1200 190/04 RMK AO2
14840KMKG MKG20060606074009306/06/06 07:40:31  5-MIN KMKG 061240Z 18005KT 10SM CLR 18/08 A2996 590 50 1200 180/05 RMK AO2
14840KMKG MKG20060606074509306/06/06 07:45:31  5-MIN KMKG 061245Z 18004KT 10SM CLR 19/08 A2996 600 50 1200 180/04 RMK AO2
14840KMKG MKG20060606075011006/06/06 07:50:31  5-MIN KMKG 061250Z 18005KT 10SM CLR 19/08 A2996 590 50 1200 190/05 RMK AO2 SLP144 T01890083
14840KMKG MKG20060606075511006/06/06 07:55:31  5-MIN KMKG 061255Z 19005KT 10SM CLR 19/09 A2996 590 52 1200 200/05 RMK AO2 SLP143 T01890089
14840KMKG MKG20060606080009306/06/06 08:00:31  5-MIN KMKG 061300Z 20007KT 10SM CLR 19/09 A2996 590 50 1300 200/07 RMK AO2
14840KMKG MKG20060606080509306/06/06 08:05:31  5-MIN KMKG 061305Z 21006KT 10SM CLR 20/09 A2996 590 48 1400 220/06 RMK AO2
14840KMKG MKG20060606081009306/06/06 08:10:31  5-MIN KMKG 061310Z 20008KT 10SM CLR 21/09 A2996 600 46 1400 200/08 RMK AO2
14840KMKG MKG20060606081509306/06/06 08:15:31  5-MIN KMKG 061315Z 20008KT 10SM CLR 21/09 A2996 600 46 1400 210/08 RMK AO2
14840KMKG MKG20060606082009306/06/06 08:20:31  5-MIN KMKG 061320Z 20009KT 10SM CLR 21/08 A2995 600 45 1400 200/09 RMK AO2
14840KMKG MKG20060606082509306/06/06 08:25:31  5-MIN KMKG 061325Z 20010KT 10SM CLR 21/09 A2995 600 45 1500 200/10 RMK AO2
14840KMKG MKG20060606083009306/06/06 08:30:31  5-MIN KMKG 061330Z 21011KT 10SM CLR 21/09 A2996 600 46 1400 210/11 RMK AO2
14840KMKG MKG20060606083509306/06/06 08:35:31  5-MIN KMKG 061335Z 20011KT 10SM CLR 21/09 A2996 600 47 1500 210/11 RMK AO2
14840KMKG MKG20060606084009306/06/06 08:40:31  5-MIN KMKG 061340Z 22010KT 10SM CLR 21/09 A2996 600 47 1500 220/10 RMK AO2
14840KMKG MKG20060606084509306/06/06 08:45:31  5-MIN KMKG 061345Z 22011KT 10SM CLR 21/09 A2996 600 48 1400 230/11 RMK AO2
14840KMKG MKG20060606085011006/06/06 08:50:31  5-MIN KMKG 061350Z 21011KT 10SM CLR 21/09 A2996 590 48 1400 210/11 RMK AO2 SLP144 T02060094
14840KMKG MKG20060606085511006/06/06 08:55:31  5-MIN KMKG 061355Z 22011KT 10SM CLR 21/10 A2996 590 50 1400 220/11 RMK AO2 SLP144 T02060100
14840KMKG MKG20060606090009306/06/06 09:00:31  5-MIN KMKG 061400Z 21009KT 10SM CLR 21/10 A2996 590 50 1400 220/09 RMK AO2
14840KMKG MKG20060606090509306/06/06 09:05:31  5-MIN KMKG 061405Z 22009KT 10SM CLR 21/11 A2996 590 52 1400 220/09 RMK AO2
14840KMKG MKG20060606091009306/06/06 09:10:31  5-MIN KMKG 061410Z 22011KT 10SM CLR 21/11 A2996 590 50 1500 230/11 RMK AO2
14840KMKG MKG20060606091509306/06/06 09:15:31  5-MIN KMKG 061415Z 21010KT 10SM CLR 21/11 A2996 590 52 1400 220/10 RMK AO2
14840KMKG MKG20060606092009306/06/06 09:20:31  5-MIN KMKG 061420Z 21007KT 10SM CLR 20/11 A2996 590 54 1400 220/07 RMK AO2
14840KMKG MKG20060606092509306/06/06 09:25:31  5-MIN KMKG 061425Z 21007KT 10SM CLR 20/11 A2997 590 56 1300 210/07 RMK AO2
14840KMKG MKG20060606093009306/06/06 09:30:31  5-MIN KMKG 061430Z 20007KT 10SM CLR 20/11 A2997 590 56 1300 210/07 RMK AO2
14840KMKG MKG20060606093509306/06/06 09:35:31  5-MIN KMKG 061435Z 22008KT 10SM CLR 21/11 A2997 590 54 1400 220/08 RMK AO2
14840KMKG MKG20060606094009306/06/06 09:40:31  5-MIN KMKG 061440Z 21009KT 10SM CLR 21/11 A2997 590 54 1400 210/09 RMK AO2
14840KMKG MKG20060606094509306/06/06 09:45:31  5-MIN KMKG 061445Z 20008KT 10SM CLR 21/11 A2997 590 54 1400 210/08 RMK AO2
14840KMKG MKG20060606095011606/06/06 09:50:31  5-MIN KMKG 061450Z 20009KT 10SM CLR 21/11 A2997 590 52 1500 200/09 RMK AO2 SLP146 T02110111 53002
14840KMKG MKG20060606095511606/06/06 09:55:31  5-MIN KMKG 061455Z 20008KT 10SM CLR 21/11 A2997 590 52 1500 210/08 RMK AO2 SLP146 T02110111 53001
14840KMKG MKG20060606100009606/06/06 10:00:31  5-MIN KMKG 061500Z 20007KT 10SM FEW085 21/11 A2996 590 52 1500 210/07 RMK AO2
14840KMKG MKG20060606100509606/06/06 10:05:31  5-MIN KMKG 061505Z 22007KT 10SM FEW085 22/12 A2996 590 52 1500 220/07 RMK AO2
14840KMKG MKG20060606101009606/06/06 10:10:31  5-MIN KMKG 061510Z 22009KT 10SM FEW085 22/11 A2996 590 50 1500 220/09 RMK AO2
14840KMKG MKG20060606101509606/06/06 10:15:31  5-MIN KMKG 061515Z 20008KT 10SM FEW085 22/12 A2996 590 51 1600 210/08 RMK AO2
14840KMKG MKG20060606102009606/06/06 10:20:31  5-MIN KMKG 061520Z 20008KT 10SM FEW085 22/12 A2996 590 51 1600 200/08 RMK AO2
14840KMKG MKG20060606102509606/06/06 10:25:31  5-MIN KMKG 061525Z 20009KT 10SM FEW085 22/11 A2996 590 49 1600 210/09 RMK AO2
14840KMKG MKG20060606103010906/06/06 10:30:31  5-MIN KMKG 061530Z 20008KT 180V240 10SM CLR 23/12 A2996 590 49 1700 210/08 180V240 RMK AO2
14840KMKG MKG20060606103509306/06/06 10:35:31  5-MIN KMKG 061535Z 20008KT 10SM CLR 22/12 A2996 590 51 1600 210/08 RMK AO2
14840KMKG MKG20060606104009306/06/06 10:40:31  5-MIN KMKG 061540Z 20008KT 10SM CLR 23/12 A2996 590 49 1700 210/08 RMK AO2
14840KMKG MKG20060606104509306/06/06 10:45:31  5-MIN KMKG 061545Z 20007KT 10SM CLR 22/12 A2996 590 51 1600 210/07 RMK AO2
14840KMKG MKG20060606105011006/06/06 10:50:31  5-MIN KMKG 061550Z 21008KT 10SM CLR 23/12 A2996 590 49 1700 210/08 RMK AO2 SLP144 T02280117
14840KMKG MKG20060606105511006/06/06 10:55:31  5-MIN KMKG 061555Z 22008KT 10SM CLR 23/11 A2996 590 47 1700 230/08 RMK AO2 SLP144 T02280111
14840KMKG MKG20060606110009306/06/06 11:00:31  5-MIN KMKG 061600Z 20008KT 10SM CLR 23/11 A2996 590 45 1700 200/08 RMK AO2
14840KMKG MKG20060606110509306/06/06 11:05:31  5-MIN KMKG 061605Z 20008KT 10SM CLR 23/11 A2996 590 45 1700 200/08 RMK AO2
14840KMKG MKG20060606111009306/06/06 11:10:31  5-MIN KMKG 061610Z 22009KT 10SM CLR 24/11 A2996 600 44 1800 230/09 RMK AO2
14840KMKG MKG20060606111509306/06/06 11:15:31  5-MIN KMKG 061615Z 18008KT 10SM CLR 24/11 A2996 600 42 1800 190/08 RMK AO2
14840KMKG MKG20060606112009306/06/06 11:20:31  5-MIN KMKG 061620Z 22009KT 10SM CLR 24/11 A2995 600 41 1900 220/09 RMK AO2
14840KMKG MKG20060606112509306/06/06 11:25:31  5-MIN KMKG 061625Z 22009KT 10SM CLR 24/10 A2995 600 41 1800 220/09 RMK AO2
14840KMKG MKG20060606113009306/06/06 11:30:31  5-MIN KMKG 061630Z 22011KT 10SM CLR 24/09 A2995 600 39 1800 220/11 RMK AO2
14840KMKG MKG20060606113509306/06/06 11:35:31  5-MIN KMKG 061635Z 22010KT 10SM CLR 24/09 A2995 600 39 1800 230/10 RMK AO2
14840KMKG MKG20060606114009306/06/06 11:40:31  5-MIN KMKG 061640Z 22009KT 10SM CLR 24/09 A2996 600 39 1800 220/09 RMK AO2
14840KMKG MKG20060606114509306/06/06 11:45:31  5-MIN KMKG 061645Z 21009KT 10SM CLR 24/09 A2995 600 39 1800 220/09 RMK AO2
14840KMKG MKG20060606115011006/06/06 11:50:31  5-MIN KMKG 061650Z 21010KT 10SM CLR 24/09 A2995 600 39 1800 210/10 RMK AO2 SLP142 T02390094
14840KMKG MKG20060606115511006/06/06 11:55:31  5-MIN KMKG 061655Z 21009KT 10SM CLR 24/10 A2996 600 39 1900 210/09 RMK AO2 SLP142 T02440100
14840KMKG MKG20060606120009306/06/06 12:00:31  5-MIN KMKG 061700Z 20009KT 10SM CLR 24/09 A2995 600 38 1900 210/09 RMK AO2
14840KMKG MKG20060606120509306/06/06 12:05:31  5-MIN KMKG 061705Z 22010KT 10SM CLR 24/10 A2995 600 39 1900 220/10 RMK AO2
14840KMKG MKG20060606121009306/06/06 12:10:31  5-MIN KMKG 061710Z 21011KT 10SM CLR 24/10 A2995 600 39 1900 220/11 RMK AO2
14840KMKG MKG20060606121509306/06/06 12:15:31  5-MIN KMKG 061715Z 20011KT 10SM CLR 24/09 A2995 600 39 1800 210/11 RMK AO2
14840KMKG MKG20060606122009306/06/06 12:20:31  5-MIN KMKG 061720Z 21010KT 10SM CLR 24/09 A2995 600 39 1800 220/10 RMK AO2
14840KMKG MKG20060606122509306/06/06 12:25:31  5-MIN KMKG 061725Z 21009KT 10SM CLR 24/09 A2995 610 39 1800 220/09 RMK AO2
14840KMKG MKG20060606123009306/06/06 12:30:31  5-MIN KMKG 061730Z 20011KT 10SM CLR 24/10 A2994 610 41 1800 200/11 RMK AO2
14840KMKG MKG20060606123509306/06/06 12:35:31  5-MIN KMKG 061735Z 22010KT 10SM CLR 23/09 A2994 610 41 1800 220/10 RMK AO2
14840KMKG MKG20060606124009306/06/06 12:40:31  5-MIN KMKG 061740Z 21009KT 10SM CLR 23/09 A2995 610 41 1800 220/09 RMK AO2
14840KMKG MKG20060606124509306/06/06 12:45:31  5-MIN KMKG 061745Z 21009KT 10SM CLR 23/10 A2994 610 42 1800 210/09 RMK AO2
14840KMKG MKG20060606125012806/06/06 12:50:31  5-MIN KMKG 061750Z 20010KT 10SM CLR 23/10 A2995 600 42 1800 210/10 RMK AO2 SLP140 T02330100 10244 20150 53001
14840KMKG MKG20060606125513106/06/06 12:55:31  5-MIN KMKG 061755Z 22011KT 10SM FEW100 23/09 A2995 610 42 1700 220/11 RMK AO2 SLP141 T02280094 10244 20150 58006
14840KMKG MKG20060606130009306/06/06 13:00:31  5-MIN KMKG 061800Z 21009KT 10SM CLR 23/09 A2995 610 42 1700 210/09 RMK AO2
14840KMKG MKG20060606130509306/06/06 13:05:31  5-MIN KMKG 061805Z 21009KT 10SM CLR 23/10 A2994 610 44 1700 210/09 RMK AO2
14840KMKG MKG20060606131009306/06/06 13:10:31  5-MIN KMKG 061810Z 20009KT 10SM CLR 22/09 A2994 610 43 1600 200/09 RMK AO2
14840KMKG MKG20060606131509306/06/06 13:15:31  5-MIN KMKG 061815Z 20012KT 10SM CLR 22/09 A2994 610 43 1600 210/12 RMK AO2
14840KMKG MKG20060606132009306/06/06 13:20:31  5-MIN KMKG 061820Z 20009KT 10SM CLR 22/09 A2994 610 43 1600 200/09 RMK AO2
14840KMKG MKG20060606132509306/06/06 13:25:31  5-MIN KMKG 061825Z 19009KT 10SM CLR 22/09 A2994 610 43 1600 200/09 RMK AO2
14840KMKG MKG20060606133009306/06/06 13:30:31  5-MIN KMKG 061830Z 19010KT 10SM CLR 22/10 A2994 620 47 1600 200/10 RMK AO2
14840KMKG MKG20060606133509306/06/06 13:35:31  5-MIN KMKG 061835Z 19010KT 10SM CLR 22/10 A2993 620 47 1600 190/10 RMK AO2
14840KMKG MKG20060606134009306/06/06 13:40:31  5-MIN KMKG 061840Z 20008KT 10SM CLR 22/10 A2993 620 47 1600 210/08 RMK AO2
14840KMKG MKG20060606134509306/06/06 13:45:31  5-MIN KMKG 061845Z 20011KT 10SM CLR 22/10 A2993 620 45 1600 200/11 RMK AO2
14840KMKG MKG20060606135011306/06/06 13:50:31  5-MIN KMKG 061850Z 20011KT 10SM SCT100 22/10 A2993 620 45 1600 200/11 RMK AO2 SLP135 T02220100
14840KMKG MKG20060606135511306/06/06 13:55:31  5-MIN KMKG 061855Z 20011KT 10SM SCT100 22/10 A2993 620 45 1600 200/11 RMK AO2 SLP134 T02220100
14840KMKG MKG20060606140009306/06/06 14:00:31  5-MIN KMKG 061900Z 20010KT 10SM CLR 22/11 A2993 620 47 1600 210/10 RMK AO2
14840KMKG MKG20060606140509306/06/06 14:05:31  5-MIN KMKG 061905Z 21013KT 10SM CLR 22/11 A2993 620 47 1600 210/13 RMK AO2
14840KMKG MKG20060606141009306/06/06 14:10:31  5-MIN KMKG 061910Z 22013KT 10SM CLR 23/10 A2993 620 44 1700 220/13 RMK AO2
14840KMKG MKG20060606141509306/06/06 14:15:31  5-MIN KMKG 061915Z 21013KT 10SM CLR 22/11 A2993 620 47 1600 220/13 RMK AO2
14840KMKG MKG20060606142011906/06/06 14:20:31  5-MIN KMKG 061920Z 22014KT 10SM -RA SCT080 BKN100 22/11 A2992 630 47 1700 220/14 RMK AO2 RAB18 P0000
14840KMKG MKG20060606142511906/06/06 14:25:31  5-MIN KMKG 061925Z 23013KT 10SM -RA SCT080 BKN100 22/11 A2992 630 47 1700 230/13 RMK AO2 RAB18 P0000
14840KMKG MKG20060606143011906/06/06 14:30:31  5-MIN KMKG 061930Z 23015KT 10SM -RA SCT080 BKN100 22/11 A2992 630 49 1600 240/15 RMK AO2 RAB18 P0000
14840KMKG MKG20060606143511206/06/06 14:35:31  5-MIN KMKG 061935Z 23012KT 10SM -RA SCT090 21/11 A2992 630 54 1500 230/12 RMK AO2 RAB18 P0000
14840KMKG MKG20060606144011206/06/06 14:40:31  5-MIN KMKG 061940Z 23012KT 10SM -RA BKN085 21/12 A2992 630 56 1500 230/12 RMK AO2 RAB18 P0000
14840KMKG MKG20060606144511206/06/06 14:45:31  5-MIN KMKG 061945Z 22009KT 10SM -RA BKN085 21/11 A2992 630 54 1500 220/09 RMK AO2 RAB18 P0000
14840KMKG MKG20060606145012806/06/06 14:50:31  5-MIN KMKG 061950Z 21009KT 10SM BKN085 21/11 A2992 640 54 1500 220/09 RMK AO2 RAB18E49 SLP130 P0000 T02060111
14840KMKG MKG20060606145512906/06/06 14:55:31  5-MIN KMKG 061955Z 19007KT 10SM -RA BKN085 21/11 A2991 640 52 1500 190/07 RMK AO2 RAB18 SLP127 P0000 T02060106
14840KMKG MKG20060606150011306/06/06 15:00:31  5-MIN KMKG 062000Z 19008KT 10SM -RA BKN085 OVC100 21/11 A2990 650 50 1500 190/08 RMK AO2 P0000
14840KMKG MKG20060606150511506/06/06 15:05:31  5-MIN KMKG 062005Z 20008KT 10SM BKN085 OVC100 21/10 A2990 650 48 1500 200/08 RMK AO2 RAE01 P0000
14840KMKG MKG20060606151010806/06/06 15:10:31  5-MIN KMKG 062010Z 19009KT 10SM OVC095 22/10 A2990 650 47 1600 200/09 RMK AO2 RAE01 P0000
14840KMKG MKG20060606151511506/06/06 15:15:31  5-MIN KMKG 062015Z 17010KT 10SM FEW080 OVC100 22/10 A2989 660 47 1600 170/10 RMK AO2 RAE01 P0000
14840KMKG MKG20060606152012206/06/06 15:20:31  5-MIN KMKG 062020Z 17008KT 10SM FEW080 BKN100 22/10 A2988 670 45 1700 170/08 RMK AO2 RAE01 PRESFR P0000
14840KMKG MKG20060606152510806/06/06 15:25:31  5-MIN KMKG 062025Z 16008KT 10SM BKN100 24/11 A2988 670 42 1900 170/08 RMK AO2 RAE01 P0000
14840KMKG MKG20060606153010806/06/06 15:30:31  5-MIN KMKG 062030Z 16009KT 10SM SCT100 24/10 A2988 670 41 1900 170/09 RMK AO2 RAE01 P0000
14840KMKG MKG20060606153510806/06/06 15:35:31  5-MIN KMKG 062035Z 18009KT 10SM SCT100 24/09 A2988 670 38 2000 180/09 RMK AO2 RAE01 P0000
14840KMKG MKG20060606154010806/06/06 15:40:31  5-MIN KMKG 062040Z 18010KT 10SM FEW100 24/09 A2988 670 38 2000 180/10 RMK AO2 RAE01 P0000
14840KMKG MKG20060606154510506/06/06 15:45:31  5-MIN KMKG 062045Z 19009KT 10SM CLR 24/09 A2988 670 36 2000 200/09 RMK AO2 RAE01 P0000
14840KMKG MKG20060606155013406/06/06 15:50:31  5-MIN KMKG 062050Z 18010KT 10SM CLR 24/09 A2987 670 38 1900 180/10 RMK AO2 RAE01 SLP115 P0000 60000 T02390089 58006
14840KMKG MKG20060606155513706/06/06 15:55:31  5-MIN KMKG 062055Z 18007KT 10SM FEW085 24/09 A2987 680 38 1900 180/07 RMK AO2 RAE01 SLP114 P0000 60000 T02390089 58025
14840KMKG MKG20060606160009606/06/06 16:00:31  5-MIN KMKG 062100Z 18009KT 10SM FEW085 24/09 A2987 680 38 2000 190/09 RMK AO2
14840KMKG MKG20060606160509306/06/06 16:05:31  5-MIN KMKG 062105Z 19008KT 10SM CLR 24/09 A2987 680 38 2000 190/08 RMK AO2
14840KMKG MKG20060606161009906/06/06 16:10:31  5-MIN KMKG 062110Z 19013G18KT 10SM CLR 24/09 A2986 680 36 2000 190/13G18 RMK AO2
14840KMKG MKG20060606161509306/06/06 16:15:31  5-MIN KMKG 062115Z 19011KT 10SM CLR 24/09 A2986 680 36 2000 190/11 RMK AO2
14840KMKG MKG20060606162009306/06/06 16:20:31  5-MIN KMKG 062120Z 20010KT 10SM CLR 24/09 A2986 680 36 2000 200/10 RMK AO2
14840KMKG MKG20060606162509606/06/06 16:25:31  5-MIN KMKG 062125Z 20012KT 10SM FEW080 24/09 A2987 680 38 1900 210/12 RMK AO2
14840KMKG MKG20060606163009606/06/06 16:30:31  5-MIN KMKG 062130Z 20010KT 10SM SCT080 24/09 A2987 680 38 1900 200/10 RMK AO2
14840KMKG MKG20060606163509606/06/06 16:35:31  5-MIN KMKG 062135Z 21010KT 10SM BKN080 24/09 A2987 680 38 1900 210/10 RMK AO2
14840KMKG MKG20060606164009606/06/06 16:40:31  5-MIN KMKG 062140Z 20012KT 10SM BKN080 24/09 A2987 680 38 1900 200/12 RMK AO2
14840KMKG MKG20060606164509606/06/06 16:45:31  5-MIN KMKG 062145Z 20011KT 10SM BKN080 24/09 A2987 680 38 1900 210/11 RMK AO2
14840KMKG MKG20060606165011306/06/06 16:50:31  5-MIN KMKG 062150Z 20012KT 10SM OVC080 24/09 A2987 680 38 1900 210/12 RMK AO2 SLP114 T02390089
14840KMKG MKG20060606165511306/06/06 16:55:31  5-MIN KMKG 062155Z 21011KT 10SM BKN080 23/09 A2987 680 39 1800 220/11 RMK AO2 SLP114 T02330089
14840KMKG MKG20060606170012106/06/06 17:00:31  5-MIN KMKG 062200Z 22012KT 10SM -RA SCT055 OVC085 23/09 A2987 680 40 1800 220/12 RMK AO2 RAB2158 P0000
14840KMKG MKG20060606170512106/06/06 17:05:31  5-MIN KMKG 062205Z 22011KT 10SM -RA BKN050 OVC085 23/09 A2987 670 42 1800 220/11 RMK AO2 RAB2158 P0000
14840KMKG MKG20060606171012106/06/06 17:10:31  5-MIN KMKG 062210Z 21010KT 10SM -RA BKN050 OVC085 22/11 A2988 670 49 1600 220/10 RMK AO2 RAB2158 P0000
14840KMKG MKG20060606171512006/06/06 17:15:31  5-MIN KMKG 062215Z 21008KT 9SM -RA BKN050 OVC085 21/12 A2988 670 56 1500 220/08 RMK AO2 RAB2158 P0000
14840KMKG MKG20060606172012006/06/06 17:20:31  5-MIN KMKG 062220Z 23012KT 7SM -RA BKN046 OVC060 20/12 A2987 670 60 1500 230/12 RMK AO2 RAB2158 P0000
14840KMKG MKG20060606172512906/06/06 17:25:31  5-MIN KMKG 062225Z 22009KT 4SM RA OVC038 19/12 A2987 680 65 1300 220/09 RMK AO2 VIS 1 3/4 RWY 14 RAB2158 P0000
14840KMKG MKG20060606173013706/06/06 17:30:31  5-MIN KMKG 062230Z 17005KT 3SM -RA BKN036 OVC085 19/13 A2986 680 67 1300 170/05 RMK AO2 VIS 1 1/2 RWY 14 RAB2158 P0002
14840KMKG MKG20060606173512006/06/06 17:35:31  5-MIN KMKG 062235Z 18004KT 6SM -RA BKN036 OVC085 18/13 A2986 680 72 1300 180/04 RMK AO2 RAB2158 P0002
14840KMKG MKG20060606174015306/06/06 17:40:31  5-MIN KMKG 062240Z 18005KT 10SM -TSRA SCT031 OVC085 19/13 A2986 690 70 1300 180/05 RMK AO2 OCNL LTGICCG RAB2158 TSB43 W-NW MOV E P0002
14840KMKG MKG20060606174515306/06/06 17:45:31  5-MIN KMKG 062245Z 16008KT 10SM -TSRA FEW025 OVC080 19/13 A2985 700 70 1400 160/08 RMK AO2 OCNL LTGICCG RAB2158 TSB43 W-NW MOV E P0002
14840KMKG MKG20060606175016306/06/06 17:50:31  5-MIN KMKG 062250Z 15009KT 10SM -TSRA FEW020 OVC080 19/14 A2984 700 72 1400 160/09 RMK AO2 OCNL LTGICCG RAB2158 TSB43 W-NW MOV E P0002 T01890139
14840KMKG MKG20060606175516306/06/06 17:55:31  5-MIN KMKG 062255Z 16009KT 10SM -TSRA OVC080 19/13 A2984 710 67 1400 160/09 RMK AO2 OCNL LTGICCG RAB2158 TSB43 W-NW MOV E SLP106 P0002 T01940133
14840KMKG MKG20060606180013306/06/06 18:00:31  5-MIN KMKG 062300Z 15008KT 10SM -TSRA OVC080 19/13 A2984 710 65 1400 160/08 RMK AO2 OCNL LTGICCG TS NW MOV E P0000
14840KMKG MKG20060606180514006/06/06 18:05:31  5-MIN KMKG 062305Z 14008KT 10SM TS OVC080 20/13 A2983 710 63 1500 150/08 RMK AO2 RAE04 OCNL LTGICCG TS W-NW MOV E P0000 $
14840KMKG MKG20060606181014006/06/06 18:10:31  5-MIN KMKG 062310Z 15008KT 10SM TS OVC080 20/13 A2984 710 63 1500 150/08 RMK AO2 OCNL LTGICCG RAE04 TS W-NW MOV E P0000 $
14840KMKG MKG20060606181514006/06/06 18:15:31  5-MIN KMKG 062315Z 16005KT 10SM TS OVC080 21/12 A2984 700 58 1500 160/05 RMK AO2 OCNL LTGICCG RAE04 TS W-NW MOV E P0000 $
14840KMKG MKG20060606182014606/06/06 18:20:31  5-MIN KMKG 062320Z VRB03KT 10SM TS OVC080 21/12 A2986 690 58 1500 VRB/03 RMK AO2 PRESRR OCNL LTGICCG RAE04 TS W-N MOV E P0000 $
14840KMKG MKG20060606182514606/06/06 18:25:31  5-MIN KMKG 062325Z 36013KT 10SM TS BKN080 OVC090 19/14 A2989 660 70 1400 360/13 RMK AO2 OCNL LTGICCG RAE04 TS W-N MOV E P0000 $
14840KMKG MKG20060606183015306/06/06 18:30:31  5-MIN KMKG 062330Z 07011KT 10SM TS BKN080 OVC095 19/13 A2989 650 65 1400 080/11 RMK AO2 OCNL LTGICCG RAE04 TS W-N MOV E PRESRR P0000 $
14840KMKG MKG20060606183517306/06/06 18:35:31  5-MIN KMKG 062335Z 09009KT 8SM -TSRA SCT080 OVC095 19/13 A2989 660 65 1400 090/09 RMK AO2 CIG 080 RWY 14 OCNL LTGICCG RAE04B32 TS W-N MOV E PRESRR P0000 $
14840KMKG MKG20060606184015906/06/06 18:40:31  5-MIN KMKG 062340Z 05007KT 8SM -TSRA OVC090 19/13 A2988 660 65 1400 050/07 RMK AO2 OCNL LTGICCG RAE04B32 TS W-N MOV E CIG 080 RWY 14 P0001 $
14840KMKG MKG20060606184518906/06/06 18:45:31  5-MIN KMKG 062345Z 30009G16KT 230V050 10SM -TSRA FEW046 OVC090 19/13 A2990 650 65 1400 300/09G16 230V050 RMK AO2 OCNL LTGICCG RAE04B32 TS W-N MOV E CIG 080 RWY 14 P0001 $
14840KMKG MKG20060606185019806/06/06 18:50:31  5-MIN KMKG 062350Z 25006G16KT 4SM +TSRA SCT026 OVC090 19/13 A2990 650 67 1300 250/06G16 RMK AO2 SLP124 OCNL LTGICCG RAE04B32 TS W-N MOV E P0003 60005 T01890128 10250 20183 58025 $
14840KMKG MKG20060606185521106/06/06 18:55:31  5-MIN KMKG 062355Z 29008KT 2SM +TSRA BKN018 OVC095 18/13 A2990 650 70 1200 290/08 RMK AO2 VIS 1 1/4 RWY 14 OCNL LTGICCG RAE04B32 TS N AND S-OHD MOV E SLP124 P0006 60008 T01830128 10250 20183 $
14840KMKG MKG20060606190014806/06/06 19:00:31  5-MIN KMKG 070000Z VRB03KT 1 1/4SM +TSRA BKN016 OVC090 17/14 A2989 650 83 1000 VRB/03 RMK AO2 OCNL LTGICCG TS N-OHD MOV E P0003 $
14840KMKG MKG20060606190517006/06/06 19:05:31  5-MIN KMKG 070005Z 00000KT 1 3/4SM -TSRA BKN016 BKN070 OVC090 17/13 A2990 650 80 1000 000/00 RMK AO2 VIS 3/4 RWY 14 OCNL LTGICCG TS N-OHD MOV E P0008 $
14840KMKG MKG20060606191017606/06/06 19:10:31  5-MIN KMKG 070010Z 12003KT 6SM -TSRA SCT018 OVC070 17/14 A2989 660 80 1100 130/03 RMK AO2 VIS 2 1/2 RWY 14 CIG 025 RWY 14 OCNL LTGICCG TS N-OHD MOV E P0008 $
14840KMKG MKG20060606191514806/06/06 19:15:31  5-MIN KMKG 070015Z 12004KT 10SM TS SCT013 OVC070 17/14 A2988 670 83 1100 120/04 RMK AO2 RAE15 OCNL LTGICCG TS N-OHD MOV E P0008 $
14840KMKG MKG20060606192015306/06/06 19:20:31  5-MIN KMKG 070020Z 11007KT 10SM TS FEW013 OVC075 17/14 A2987 670 83 1100 120/07 RMK AO2 OCNL LTGICCG RAE15 TS N-S MOV E PRESFR P0008 $
14840KMKG MKG20060606192515506/06/06 19:25:31  5-MIN KMKG 070025Z 14009KT 10SM TS FEW009 OVC075 17/14 A2987 680 86 1100 140/09 RMK AO2 OCNL LTGICCG RAE15 TS NE-SE MOV E PRESFR P0008 $
14840KMKG MKG20060606193015306/06/06 19:30:31  5-MIN KMKG 070030Z 12009KT 10SM TS BKN075 OVC085 17/14 A2986 680 83 1100 120/09 RMK AO2 OCNL LTGICCG RAE15 TS NE-SE MOV E PRESFR P0008
14840KMKG MKG20060606193515906/06/06 19:35:31  5-MIN KMKG 070035Z 11009KT 10SM TS BKN075 OVC085 17/14 A2986 690 80 1100 120/09 RMK AO2 RAE15 OCNL LTGICCG RAE15 TS NE-SE MOV E PRESFR P0008
14840KMKG MKG20060606194012006/06/06 19:40:31  5-MIN KMKG 070040Z 11008KT 10SM BKN075 OVC085 17/14 A2986 690 80 1100 110/08 RMK AO2 TSE36RAE15 P0008
14840KMKG MKG20060606194511306/06/06 19:45:31  5-MIN KMKG 070045Z 12008KT 10SM OVC070 17/14 A2986 680 80 1100 120/08 RMK AO2 TSE36RAE15 P0008
14840KMKG MKG20060606195014906/06/06 19:50:31  5-MIN KMKG 070050Z 13007KT 10SM TS BKN070 OVC090 17/14 A2987 680 80 1100 130/07 RMK AO2 OCNL LTGICCG RAE15 TSE36B48 SW MOV E P0008
14840KMKG MKG20060606195517806/06/06 19:55:31  5-MIN KMKG 070055Z 12006KT 6SM -TSRA FEW031 BKN070 OVC090 17/14 A2987 680 80 1100 120/06 RMK AO2 OCNL LTGICCG RAE15B52 TSE36B48 SW MOV E SLP112 P0008 T01720139
14840KMKG MKG20060606200015406/06/06 20:00:31  5-MIN KMKG 070100Z 16005KT 4SM TSRA BR SCT025 OVC070 17/14 A2988 670 86 1100 160/05 RMK AO2 VIS 2 RWY 14 OCNL LTGICCG TS SW MOV E P0001
14840KMKG MKG20060606200516406/06/06 20:05:31  5-MIN KMKG 070105Z 12007KT 2 1/2SM TSRA BR BKN022 OVC070 17/14 A2986 680 86 1100 130/07 RMK AO2 VIS 1 3/4 RWY 14 OCNL LTGICCG TS SW-W MOV E P0004
14840KMKG MKG20060606201015706/06/06 20:10:31  5-MIN KMKG 070110Z 11009KT 4SM -TSRA BR SCT022 OVC070 17/14 A2985 690 86 1100 120/09 RMK AO2 VIS 2 RWY 14 OCNL LTGICCG TS SW-W MOV E P0004
14840KMKG MKG20060606201514806/06/06 20:15:31  5-MIN KMKG 070115Z 11012KT 8SM -TSRA SCT022 OVC070 17/14 A2984 700 83 1100 120/12 RMK AO2 PRESFR OCNL LTGICCG TS SW-W MOV E P0004
14840KMKG MKG20060606202014906/06/06 20:20:31  5-MIN KMKG 070120Z 13011KT 10SM -TSRA SCT022 OVC070 17/14 A2984 710 83 1100 130/11 RMK AO2 OCNL LTGICCG TS SW-W MOV E PRESFR P0004
14840KMKG MKG20060606202514606/06/06 20:25:31  5-MIN KMKG 070125Z 13012KT 10SM TS FEW018 OVC070 17/14 A2984 710 86 1100 140/12 RMK AO2 OCNL LTGICCG TS SW-W MOV E PRESFR P0004
14840KMKG MKG20060606203014406/06/06 20:30:31  5-MIN KMKG 070130Z 13011KT 10SM TS BKN065 17/14 A2984 710 83 1100 140/11 RMK AO2 FRQ LTGICCG RAE21 TS SW-W MOV E PRESFR P0004
14840KMKG MKG20060606203514406/06/06 20:35:31  5-MIN KMKG 070135Z 13010KT 10SM TS OVC065 17/14 A2983 710 86 1100 140/10 RMK AO2 FRQ LTGICCG RAE21 TS SW-W MOV E PRESFR P0004
14840KMKG MKG20060606204014406/06/06 20:40:31  5-MIN KMKG 070140Z 13010KT 10SM TS OVC060 17/14 A2983 710 86 1100 140/10 RMK AO2 FRQ LTGICCG RAE21 TS SW-W MOV E PRESFR P0004
14840KMKG MKG20060606204514406/06/06 20:45:31  5-MIN KMKG 070145Z 13010KT 10SM TS OVC060 17/14 A2983 710 86 1100 140/10 RMK AO2 FRQ LTGICCG RAE21 TS SW-W MOV E PRESFR P0004
14840KMKG MKG20060606205015406/06/06 20:50:31  5-MIN KMKG 070150Z 13007KT 10SM TS OVC060 17/14 A2983 710 86 1100 130/07 RMK AO2 FRQ LTGICCG RAE21 TS SW-W MOV E PRESFR P0004 T01670144
14840KMKG MKG20060606205516106/06/06 20:55:31  5-MIN KMKG 070155Z 11005KT 10SM -TSRA OVC060 17/14 A2984 710 80 1200 110/05 RMK AO2 FRQ LTGICCG RAE21B50 TS SW-NW MOV E SLP101 P0004 T01720139
14840KMKG MKG20060606210014106/06/06 21:00:31  5-MIN KMKG 070200Z 07006KT 9SM -TSRA FEW032 OVC060 17/14 A2984 710 80 1200 070/06 RMK AO2 FRQ LTGICCG TS SW-NW MOV E P0000
14840KMKG MKG20060606210514406/06/06 21:05:31  5-MIN KMKG 070205Z 07007KT 6SM TSRA FEW032 OVC060 17/14 A2984 710 83 1100 070/07 RMK AO2 FRQ LTGICCG TS SW-NW-OHD MOV E P0003
14840KMKG MKG20060606211014506/06/06 21:10:31  5-MIN KMKG 070210Z VRB06KT 7SM -TSRA FEW032 OVC060 17/14 A2984 710 83 1100 VRB/06 RMK AO2 FRQ LTGICCG TS SW-NW-OHD MOV E P0003
14840KMKG MKG20060606211514606/06/06 21:15:31  5-MIN KMKG 070215Z 01008KT 10SM -TSRA FEW032 OVC060 17/14 A2984 700 83 1100 010/08 RMK AO2 CONS LTGICCG TS SW-N-OHD MOV E P0003
14840KMKG MKG20060606212014606/06/06 21:20:31  5-MIN KMKG 070220Z 01009KT 10SM -TSRA FEW032 OVC060 17/14 A2984 700 86 1100 020/09 RMK AO2 CONS LTGICCG TS SW-N-OHD MOV E P0003
14840KMKG MKG20060606212514606/06/06 21:25:31  5-MIN KMKG 070225Z 02006KT 10SM -TSRA FEW032 OVC055 17/14 A2985 700 83 1100 020/06 RMK AO2 CONS LTGICCG TS SW-N-OHD MOV E P0004
14840KMKG MKG20060606213015706/06/06 21:30:31  5-MIN KMKG 070230Z VRB06KT 4SM +TSRA FEW014 OVC055 17/14 A2985 690 83 1100 VRB/06 RMK AO2 VIS 2 RWY 14 FRQ LTGICCG TS SW-N-OHD MOV E P0006
14840KMKG MKG20060606213516406/06/06 21:35:31  5-MIN KMKG 070235Z 07007KT 3SM +TSRA FEW014 SCT047 OVC055 17/14 A2985 700 83 1100 070/07 RMK AO2 VIS 2 RWY 14 FRQ LTGICCG TS SW-N-OHD MOV E P0012
14840KMKG MKG20060606214015706/06/06 21:40:31  5-MIN KMKG 070240Z 08011KT 4SM +TSRA FEW016 OVC049 17/14 A2985 700 83 1100 090/11 RMK AO2 VIS 2 RWY 14 FRQ LTGICCG TS SW-N-OHD MOV E P0015
14840KMKG MKG20060606214514306/06/06 21:45:31  5-MIN KMKG 070245Z 08011KT 5SM -TSRA FEW016 OVC049 17/14 A2984 710 83 1100 090/11 RMK AO2 FRQ LTGICCG TS S-N-OHD MOV E P0018
14840KMKG MKG20060606215017206/06/06 21:50:31  5-MIN KMKG 070250Z 10008KT 9SM -TSRA FEW016 OVC049 16/14 A2984 710 86 1000 100/08 RMK AO2 SLP102 FRQ LTGICCG TS S-N-OHD MOV E P0018 60030 T01610139 53010
14840KMKG MKG20060606215518006/06/06 21:55:31  5-MIN KMKG 070255Z 10009KT 10SM -TSRA FEW016 OVC049 17/14 A2984 710 83 1100 100/09 RMK AO2 SLP102 FRQ LTGICCG TS S-N-OHD MOV E SLP102 P0018 60030 T01670139 56022
14840KMKG MKG20060606220014506/06/06 22:00:31  5-MIN KMKG 070300Z 11007KT 10SM -TSRA FEW018 BKN049 OVC065 17/14 A2984 710 83 1100 120/07 RMK AO2 FRQ LTGICCG TS E MOV E P0000
14840KMKG MKG20060606220513106/06/06 22:05:31  5-MIN KMKG 070305Z 13007KT 10SM -TSRA OVC049 17/14 A2983 710 83 1100 130/07 RMK AO2 FRQ LTGICCG TS E MOV E P0000
14840KMKG MKG20060606221013106/06/06 22:10:31  5-MIN KMKG 070310Z 14006KT 10SM -TSRA OVC045 17/14 A2983 710 86 1100 140/06 RMK AO2 FRQ LTGICCG TS E MOV E P0000
14840KMKG MKG20060606221513106/06/06 22:15:31  5-MIN KMKG 070315Z 12005KT 10SM -TSRA OVC045 17/14 A2983 710 86 1100 130/05 RMK AO2 FRQ LTGICCG TS E MOV E P0000
14840KMKG MKG20060606222013006/06/06 22:20:31  5-MIN KMKG 070320Z 13005KT 9SM -TSRA OVC045 17/14 A2983 710 86 1100 130/05 RMK AO2 FRQ LTGICCG TS E MOV E P0000
14840KMKG MKG20060606222513206/06/06 22:25:31  5-MIN KMKG 070325Z 12009KT 4SM TSRA BR OVC045 16/14 A2983 720 90 1100 120/09 RMK AO2 FRQ LTGICCG TS E MOV E P0006
14840KMKG MKG20060606223013306/06/06 22:30:31  5-MIN KMKG 070330Z 11006KT 4SM -TSRA BR OVC043 16/14 A2982 720 90 1100 110/06 RMK AO2 FRQ LTGICCG TS E MOV E P0007
14840KMKG MKG20060606223513306/06/06 22:35:31  5-MIN KMKG 070335Z 11006KT 5SM -TSRA BR OVC043 16/14 A2982 720 90 1100 110/06 RMK AO2 FRQ LTGICCG TS W MOV E P0007
14840KMKG MKG20060606224014906/06/06 22:40:31  5-MIN KMKG 070340Z 09006KT 5SM TSRA BR OVC043 17/14 A2982 720 86 1100 100/06 RMK AO2 VIS 2 1/2 RWY 14 FRQ LTGICCG TS W MOV E P0008
14840KMKG MKG20060606224515006/06/06 22:45:31  5-MIN KMKG 070345Z 09006KT 5SM -TSRA BR OVC043 16/14 A2982 720 90 1100 090/06 RMK AO2 VIS 2 1/2 RWY 14 FRQ LTGICCG TS W MOV E P0010
14840KMKG MKG20060606225014306/06/06 22:50:31  5-MIN KMKG 070350Z 11005KT 6SM -TSRA BR OVC043 16/15 A2983 710 93 1000 110/05 RMK AO2 FRQ LTGICCG TS W MOV E P0010 T01610150
14840KMKG MKG20060606225517406/06/06 22:55:31  5-MIN KMKG 070355Z 10008KT 3SM +TSRA BR FEW014 OVC041 16/15 A2982 720 93 1100 110/08 RMK AO2 VIS 1 3/4 RWY 14 FRQ LTGICCG TS W MOV E SLP099 P0021 T01610150
14840KMKG MKG20060606230015806/06/06 23:00:31  5-MIN KMKG 070400Z 10008KT 3SM -TSRA BR FEW014 OVC041 16/14 A2983 720 90 1100 110/08 RMK AO2 VIS 1 3/4 RWY 14 OCNL LTGICCG TS W MOV E P0001
14840KMKG MKG20060606230513106/06/06 23:05:31  5-MIN KMKG 070405Z 11006KT 8SM -TSRA OVC041 16/14 A2982 720 90 1100 120/06 RMK AO2 OCNL LTGICCG TS W MOV E P0001
14840KMKG MKG20060606231013406/06/06 23:10:31  5-MIN KMKG 070410Z 13011KT 8SM TS OVC041 17/14 A2982 720 86 1100 130/11 RMK AO2 RAE06 OCNL LTGICCG TS W MOV E P0001
14840KMKG MKG20060606231512806/06/06 23:15:31  5-MIN KMKG 070415Z 12008KT 9SM TS OVC039 17/14 A2981 730 86 1100 130/08 RMK AO2 OCNL LTGICCG TS W MOV E P0001
14840KMKG MKG20060606232013706/06/06 23:20:31  5-MIN KMKG 070420Z 12009KT 9SM -TSRA OVC039 17/14 A2981 730 86 1100 130/09 RMK AO2 OCNL LTGICCG RAE06 TS W MOV E P0001
14840KMKG MKG20060606232513706/06/06 23:25:31  5-MIN KMKG 070425Z 12007KT 8SM -TSRA OVC039 17/14 A2981 730 86 1100 130/07 RMK AO2 OCNL LTGICCG RAE06 TS W MOV E P0001
14840KMKG MKG20060606233013706/06/06 23:30:31  5-MIN KMKG 070430Z 12008KT 8SM -TSRA OVC037 17/14 A2981 730 86 1100 120/08 RMK AO2 OCNL LTGICCG RAE06 TS W MOV E P0001
14840KMKG MKG20060606233513706/06/06 23:35:31  5-MIN KMKG 070435Z 12008KT 9SM -TSRA OVC035 17/14 A2981 740 86 1100 120/08 RMK AO2 OCNL LTGICCG RAE06 TS W MOV E P0001
14840KMKG MKG20060606234013406/06/06 23:40:31  5-MIN KMKG 070440Z 13007KT 9SM TS OVC035 17/14 A2981 730 86 1100 130/07 RMK AO2 OCNL LTGICCG RAE06 TS W MOV E P0001
14840KMKG MKG20060606234514006/06/06 23:45:31  5-MIN KMKG 070445Z 14008KT 7SM -TSRA OVC035 16/15 A2980 740 93 1100 140/08 RMK AO2 OCNL LTGICCG RAE06B40 TS W MOV E P0001
14840KMKG MKG20060606235016706/06/06 23:50:31  5-MIN KMKG 070450Z 14007KT 7SM -TSRA OVC035 16/15 A2981 740 93 1100 140/07 RMK AO2 OCNL LTGICCG RAE06B40 TS W MOV E SLP091 P0001 T01610150 402500089
14840KMKG MKG20060606235516706/06/06 23:55:31  5-MIN KMKG 070455Z 15008KT 7SM -TSRA OVC035 17/15 A2980 740 90 1100 150/08 RMK AO2 OCNL LTGICCG RAE06B40 TS W MOV E SLP091 P0001 T01670150 402500089
14840KMKG MKG20060607000013806/07/06 00:00:32  5-MIN KMKG 070500Z 14006KT 7SM -TSRA FEW029 OVC035 17/15 A2981 740 90 1100 140/06 RMK AO2 OCNL LTGICCG TS W MOV E P0000
14840KMKG MKG20060607000514006/07/06 00:05:31  5-MIN KMKG 070505Z 14008KT 4SM TSRA BR FEW023 OVC035 17/15 A2981 740 90 1100 150/08 RMK AO2 OCNL LTGICCG TS W MOV E P0002
14840KMKG MKG20060607001014106/07/06 00:10:31  5-MIN KMKG 070510Z 12008KT 3SM +TSRA BR FEW019 OVC035 16/15 A2980 740 93 1100 130/08 RMK AO2 OCNL LTGICCG TS W MOV E P0010
14840KMKG MKG20060607001514106/07/06 00:15:31  5-MIN KMKG 070515Z 12006KT 4SM -TSRA BR FEW022 OVC035 16/15 A2980 740 93 1100 130/06 RMK AO2 OCNL LTGICCG TS W MOV E P0010
14840KMKG MKG20060607002013806/07/06 00:20:31  5-MIN KMKG 070520Z 12005KT 7SM -TSRA FEW022 OVC035 16/15 A2980 740 93 1100 130/05 RMK AO2 OCNL LTGICCG TS W MOV E P0010
14840KMKG MKG20060607002514106/07/06 00:25:31  5-MIN KMKG 070525Z 12004KT 7SM TS FEW022 OVC035 16/15 A2980 740 93 1100 130/04 RMK AO2 RAE22 OCNL LTGICCG TS W MOV E P0010
14840KMKG MKG20060607003013406/07/06 00:30:31  5-MIN KMKG 070530Z 12004KT 7SM TS OVC035 16/15 A2980 740 93 1100 120/04 RMK AO2 RAE22 OCNL LTGICCG TS W MOV E P0010
14840KMKG MKG20060607003513406/07/06 00:35:31  5-MIN KMKG 070535Z 12005KT 7SM TS OVC037 16/15 A2980 740 93 1100 130/05 RMK AO2 RAE22 OCNL LTGICCG TS W MOV E P0010
14840KMKG MKG20060607004013406/07/06 00:40:31  5-MIN KMKG 070540Z 12004KT 7SM TS OVC037 16/15 A2980 740 93 1100 120/04 RMK AO2 RAE22 OCNL LTGICCG TS W MOV E P0010
14840KMKG MKG20060607004513406/07/06 00:45:31  5-MIN KMKG 070545Z 12004KT 7SM TS OVC037 17/15 A2980 740 90 1200 130/04 RMK AO2 RAE22 OCNL LTGICCG TS W MOV E P0010
14840KMKG MKG20060607005017506/07/06 00:50:31  5-MIN KMKG 070550Z 13004KT 7SM TS OVC035 17/15 A2980 740 90 1100 140/04 RMK AO2 RAE22 SLP089 OCNL LTGICCG TS W MOV E P0010 60062 T01670150 10178 20161 56022
14840KMKG MKG20060607005517106/07/06 00:55:31  5-MIN KMKG 070555Z 00000KT 6SM -RA BR SCT029 OVC035 17/15 A2981 730 90 1100 000/00 RMK AO2 SLP092 RAE22B53 TSE52 P0010 60062 T01670150 10178 20161 55008
14840KMKG MKG20060607010013206/07/06 01:00:31  5-MIN KMKG 070600Z VRB03KT 5SM -RA BR BKN029 OVC035 17/15 A2981 730 90 1100 VRB/03 RMK AO2 VIS 2 1/2 RWY 14 P0001
14840KMKG MKG20060607010516706/07/06 01:05:31  5-MIN KMKG 070605Z 00000KT 4SM -TSRA BR BKN027 OVC035 17/15 A2981 730 90 1100 000/00 RMK AO2 VIS 2 1/2 RWY 14 TSB04 OCNL LTGICCG TSB03 W MOV E P0001
14840KMKG MKG20060607011014406/07/06 01:10:31  5-MIN KMKG 070610Z 00000KT 4SM -TSRA BR BKN027 OVC037 16/16 A2982 730 96 1100 000/00 RMK AO2 OCNL LTGICCG TSB03 W MOV E P0002
14840KMKG MKG20060607011516706/07/06 01:15:31  5-MIN KMKG 070615Z 00000KT 4SM TSRA BR BKN027 BKN035 OVC042 16/16 A2982 720 96 1100 000/00 RMK AO2 VIS 2 1/2 RWY 14 OCNL LTGICCG TSB03 W MOV E P0003
14840KMKG MKG20060607012016106/07/06 01:20:31  5-MIN KMKG 070620Z 00000KT 3SM -TSRA BR SCT027 OVC042 17/15 A2982 720 90 1100 000/00 RMK AO2 VIS 2 1/2 RWY 14 OCNL LTGICCG TSB03 W MOV E P0004
14840KMKG MKG20060607012514406/07/06 01:25:31  5-MIN KMKG 070625Z 00000KT 4SM -TSRA BR SCT027 OVC044 17/15 A2982 730 90 1100 000/00 RMK AO2 OCNL LTGICCG TSB03 W MOV E P0004
14840KMKG MKG20060607013015106/07/06 01:30:31  5-MIN KMKG 070630Z 20004KT 4SM -TSRA BR FEW021 SCT027 OVC044 17/16 A2982 720 93 1100 200/04 RMK AO2 OCNL LTGICCG TSB03 W MOV E P0005
14840KMKG MKG20060607013516706/07/06 01:35:31  5-MIN KMKG 070635Z 18006KT 3SM TSRA BR FEW013 SCT021 OVC044 17/16 A2982 730 93 1100 190/06 RMK AO2 VIS 2 1/2 RWY 14 OCNL LTGICCG TSB03 W MOV E P0006
14840KMKG MKG20060607014013006/07/06 01:40:31  5-MIN KMKG 070640Z 18007KT 3SM RA BR SCT013 BKN020 OVC044 17/15 A2982 730 90 1100 190/07 RMK AO2 TSB03E39 P0008
14840KMKG MKG20060607014513106/07/06 01:45:31  5-MIN KMKG 070645Z 17008KT 4SM -RA BR BKN013 BKN020 OVC046 16/15 A2981 730 93 1100 170/08 RMK AO2 TSB03E39 P0009
14840KMKG MKG20060607015013006/07/06 01:50:31  5-MIN KMKG 070650Z 17008KT 4SM RA BR BKN013 BKN020 OVC046 16/15 A2980 740 93 1100 180/08 RMK AO2 TSB03E39 P0010
14840KMKG MKG20060607015514706/07/06 01:55:31  5-MIN KMKG 070655Z 17009KT 4SM RA BR BKN013 OVC020 16/15 A2979 750 93 1100 170/09 RMK AO2 PRESFR SLP087 TSB03E39 P0012 T01610150
14840KMKG MKG20060607020012406/07/06 02:00:31  5-MIN KMKG 070700Z 17009KT 4SM RA BR OVC016 16/15 A2979 750 93 1100 180/09 RMK AO2 VIS 2 1/2 RWY 14 P0001
14840KMKG MKG20060607020515306/07/06 02:05:31  5-MIN KMKG 070705Z 17008KT 4SM TSRA BR OVC016 16/16 A2979 750 96 1100 170/08 RMK AO2 VIS 2 1/2 RWY 14 OCNL LTGICCG TSB03 W MOV E P0002
14840KMKG MKG20060607021013706/07/06 02:10:31  5-MIN KMKG 070710Z 16009KT 4SM -TSRA BR OVC018 16/16 A2979 750 96 1100 170/09 RMK AO2 OCNL LTGICCG TSB03 W MOV E P0003
14840KMKG MKG20060607021513706/07/06 02:15:31  5-MIN KMKG 070715Z 17009KT 4SM -TSRA BR OVC021 16/16 A2978 760 96 1100 170/09 RMK AO2 OCNL LTGICCG TSB03 W MOV E P0004
14840KMKG MKG20060607022014406/07/06 02:20:31  5-MIN KMKG 070720Z 16010KT 5SM -TSRA BR BKN023 OVC100 16/16 A2978 760 96 1100 170/10 RMK AO2 OCNL LTGICCG TSB03 W MOV E P0004
14840KMKG MKG20060607022514406/07/06 02:25:31  5-MIN KMKG 070725Z 16009KT 5SM -TSRA BR BKN023 OVC100 16/16 A2978 760 96 1100 160/09 RMK AO2 OCNL LTGICCG TSB03 W MOV E P0004
14840KMKG MKG20060607023012406/07/06 02:30:31  5-MIN KMKG 070730Z 16008KT 5SM -RA BR SCT021 OVC100 16/16 A2978 760 96 1100 170/08 RMK AO2 TSB03E25 P0004
14840KMKG MKG20060607023512406/07/06 02:35:31  5-MIN KMKG 070735Z 15007KT 5SM -RA BR SCT025 OVC100 16/16 A2977 770 96 1100 150/07 RMK AO2 TSB03E25 P0004
14840KMKG MKG20060607024012006/07/06 02:40:31  5-MIN KMKG 070740Z 15007KT 6SM BR FEW028 OVC100 17/16 A2978 760 93 1200 160/07 RMK AO2 TSB03E25 P0004
14840KMKG MKG20060607024511906/07/06 02:45:31  5-MIN KMKG 070745Z 15006KT 6SM BR BKN100 17/16 A2978 760 93 1200 160/06 RMK AO2 TSB03E25 RAE40 P0004
14840KMKG MKG20060607025013606/07/06 02:50:31  5-MIN KMKG 070750Z 18003KT 6SM BR BKN100 17/16 A2978 760 93 1200 190/03 RMK AO2 SLP084 TSB03E25 RAE40 P0004 T01670156
14840KMKG MKG20060607025513606/07/06 02:55:31  5-MIN KMKG 070755Z 19003KT 5SM BR BKN110 17/16 A2979 750 93 1200 200/03 RMK AO2 SLP085 TSB03E25 RAE40 P0004 T01670156
14840KMKG MKG20060607030009806/07/06 03:00:31  5-MIN KMKG 070800Z 17004KT 5SM BR BKN110 17/16 A2979 750 93 1200 170/04 RMK AO2
14840KMKG MKG20060607030509806/07/06 03:05:31  5-MIN KMKG 070805Z 18004KT 5SM BR SCT110 17/16 A2979 750 93 1200 190/04 RMK AO2
14840KMKG MKG20060607031009806/07/06 03:10:31  5-MIN KMKG 070810Z 20003KT 5SM BR FEW110 17/16 A2979 750 93 1200 200/03 RMK AO2
14840KMKG MKG20060607031509806/07/06 03:15:31  5-MIN KMKG 070815Z 17004KT 5SM BR FEW046 16/16 A2980 750 96 1100 180/04 RMK AO2
14840KMKG MKG20060607032009806/07/06 03:20:31  5-MIN KMKG 070820Z 00000KT 5SM BR FEW046 16/16 A2980 750 96 1100 000/00 RMK AO2
14840KMKG MKG20060607032509806/07/06 03:25:31  5-MIN KMKG 070825Z 00000KT 5SM BR FEW007 16/16 A2980 750 96 1100 000/00 RMK AO2
14840KMKG MKG20060607033010506/07/06 03:30:31  5-MIN KMKG 070830Z 19004KT 4SM BR FEW007 SCT046 16/16 A2980 740 96 1100 200/04 RMK AO2
14840KMKG MKG20060607033511206/07/06 03:35:31  5-MIN KMKG 070835Z 19006KT 5SM BR FEW007 SCT021 SCT036 16/16 A2980 740 96 1100 200/06 RMK AO2
14840KMKG MKG20060607034012706/07/06 03:40:31  5-MIN KMKG 070840Z 18006KT 5SM BR FEW007 SCT021 BKN036 17/16 A2979 750 93 1200 180/06 RMK AO2 CIG 021 RWY 14
14840KMKG MKG20060607034512706/07/06 03:45:31  5-MIN KMKG 070845Z 19009KT 5SM BR FEW007 SCT021 BKN034 17/16 A2979 750 93 1200 190/09 RMK AO2 CIG 021 RWY 14
14840KMKG MKG20060607035011206/07/06 03:50:31  5-MIN KMKG 070850Z 19009KT 5SM BR FEW007 BKN019 BKN034 17/16 A2979 750 93 1200 200/09 RMK AO2
14840KMKG MKG20060607035514106/07/06 03:55:31  5-MIN KMKG 070855Z 19009KT 5SM BR FEW007 BKN021 BKN034 17/16 A2979 750 93 1200 190/09 RMK AO2 SLP086 60016 T01670156 55000
14840KMKG MKG20060607040012706/07/06 04:00:31  5-MIN KMKG 070900Z 19008KT 5SM BR SCT021 SCT034 BKN120 17/16 A2979 750 93 1200 190/08 RMK AO2 CIG 021 RWY 14
14840KMKG MKG20060607040510506/07/06 04:05:31  5-MIN KMKG 070905Z 19009KT 6SM BR FEW021 SCT120 17/16 A2979 750 93 1200 190/09 RMK AO2
14840KMKG MKG20060607041010506/07/06 04:10:31  5-MIN KMKG 070910Z 18009KT 6SM BR FEW021 SCT120 17/16 A2979 750 93 1200 190/09 RMK AO2
14840KMKG MKG20060607041512006/07/06 04:15:31  5-MIN KMKG 070915Z 19010KT 6SM BR FEW021 BKN120 17/16 A2979 750 93 1200 190/10 RMK AO2 CIG 034 RWY 14
14840KMKG MKG20060607042010506/07/06 04:20:31  5-MIN KMKG 070920Z 20010KT 6SM BR FEW024 BKN120 17/16 A2980 750 93 1200 200/10 RMK AO2
14840KMKG MKG20060607042512006/07/06 04:25:31  5-MIN KMKG 070925Z 19010KT 6SM BR FEW024 BKN120 17/16 A2980 740 93 1200 200/10 RMK AO2 CIG 021 RWY 14
14840KMKG MKG20060607043012006/07/06 04:30:31  5-MIN KMKG 070930Z 19011KT 6SM BR FEW024 BKN120 17/16 A2980 750 93 1200 200/11 RMK AO2 CIG 034 RWY 14
14840KMKG MKG20060607043510506/07/06 04:35:31  5-MIN KMKG 070935Z 19009KT 6SM BR FEW024 BKN120 17/16 A2980 740 93 1200 190/09 RMK AO2
14840KMKG MKG20060607044010506/07/06 04:40:31  5-MIN KMKG 070940Z 19010KT 6SM BR FEW024 SCT120 17/16 A2980 750 93 1200 190/10 RMK AO2
14840KMKG MKG20060607044510506/07/06 04:45:31  5-MIN KMKG 070945Z 19009KT 6SM BR FEW024 SCT120 17/16 A2980 750 93 1200 190/09 RMK AO2
14840KMKG MKG20060607045011506/07/06 04:50:31  5-MIN KMKG 070950Z 20008KT 6SM BR FEW120 17/16 A2980 740 93 1200 200/08 RMK AO2 SLP088 T01670156
14840KMKG MKG20060607045512206/07/06 04:55:31  5-MIN KMKG 070955Z 19008KT 5SM BR FEW007 SCT120 17/16 A2980 740 93 1200 190/08 RMK AO2 SLP088 T01670156
14840KMKG MKG20060607050010506/07/06 05:00:31  5-MIN KMKG 071000Z 19008KT 5SM BR FEW007 SCT120 17/16 A2980 740 93 1200 200/08 RMK AO2
14840KMKG MKG20060607050510506/07/06 05:05:31  5-MIN KMKG 071005Z 19008KT 5SM BR FEW026 SCT120 17/16 A2980 740 93 1200 190/08 RMK AO2
14840KMKG MKG20060607051009806/07/06 05:10:31  5-MIN KMKG 071010Z 20008KT 6SM BR FEW026 17/16 A2980 740 93 1200 200/08 RMK AO2
14840KMKG MKG20060607051509806/07/06 05:15:31  5-MIN KMKG 071015Z 19008KT 5SM BR FEW026 17/16 A2980 740 93 1100 190/08 RMK AO2
14840KMKG MKG20060607052012206/07/06 05:20:31  5-MIN KMKG 071020Z 19008KT 4SM BR FEW026 SCT120 17/16 A2980 740 93 1100 190/08 RMK AO2 VIS 2 1/2 RWY 14
14840KMKG MKG20060607052512206/07/06 05:25:31  5-MIN KMKG 071025Z 19008KT 4SM BR FEW026 BKN120 17/16 A2980 740 93 1100 190/08 RMK AO2 VIS 2 1/2 RWY 14
14840KMKG MKG20060607053009806/07/06 05:30:31  5-MIN KMKG 071030Z 20008KT 4SM BR BKN110 17/16 A2981 740 93 1100 200/08 RMK AO2
14840KMKG MKG20060607053509806/07/06 05:35:31  5-MIN KMKG 071035Z 20008KT 4SM BR BKN110 17/16 A2981 740 93 1100 200/08 RMK AO2
14840KMKG MKG20060607054009806/07/06 05:40:31  5-MIN KMKG 071040Z 19007KT 5SM BR SCT120 17/16 A2981 740 93 1100 190/07 RMK AO2
14840KMKG MKG20060607054509806/07/06 05:45:31  5-MIN KMKG 071045Z 19008KT 5SM BR SCT110 17/16 A2981 740 93 1100 200/08 RMK AO2
14840KMKG MKG20060607055011506/07/06 05:50:31  5-MIN KMKG 071050Z 19007KT 5SM BR FEW110 17/16 A2981 740 93 1100 190/07 RMK AO2 SLP092 T01670156
14840KMKG MKG20060607055511506/07/06 05:55:31  5-MIN KMKG 071055Z 20005KT 5SM BR FEW110 17/16 A2981 730 93 1100 200/05 RMK AO2 SLP092 T01670156
14840KMKG MKG20060607060009506/07/06 06:00:31  5-MIN KMKG 071100Z 20007KT 5SM BR CLR 17/16 A2981 730 93 1100 200/07 RMK AO2
14840KMKG MKG20060607060509506/07/06 06:05:31  5-MIN KMKG 071105Z 20007KT 5SM BR CLR 17/16 A2981 730 93 1100 200/07 RMK AO2
14840KMKG MKG20060607061011206/07/06 06:10:31  5-MIN KMKG 071110Z 21007KT 5SM BR CLR 17/16 A2981 730 93 1100 210/07 RMK AO2 VIS 2 1/2 RWY 14
14840KMKG MKG20060607061511206/07/06 06:15:31  5-MIN KMKG 071115Z 20007KT 4SM BR CLR 17/16 A2981 730 93 1100 210/07 RMK AO2 VIS 2 1/2 RWY 14
14840KMKG MKG20060607062011206/07/06 06:20:31  5-MIN KMKG 071120Z 19006KT 4SM BR CLR 17/16 A2981 730 93 1100 200/06 RMK AO2 VIS 2 1/2 RWY 14
14840KMKG MKG20060607062511206/07/06 06:25:31  5-MIN KMKG 071125Z 20007KT 4SM BR CLR 17/16 A2982 730 93 1100 200/07 RMK AO2 VIS 2 1/2 RWY 14
14840KMKG MKG20060607063011206/07/06 06:30:31  5-MIN KMKG 071130Z 21006KT 4SM BR CLR 16/16 A2982 730 96 1100 220/06 RMK AO2 VIS 2 1/2 RWY 14
14840KMKG MKG20060607063511206/07/06 06:35:31  5-MIN KMKG 071135Z 22007KT 4SM BR CLR 16/15 A2982 730 93 1100 220/07 RMK AO2 VIS 2 1/2 RWY 14
14840KMKG MKG20060607064011506/07/06 06:40:31  5-MIN KMKG 071140Z 22007KT 4SM BR SCT018 16/15 A2982 720 93 1100 220/07 RMK AO2 VIS 2 1/2 RWY 14
14840KMKG MKG20060607064511506/07/06 06:45:31  5-MIN KMKG 071145Z 22006KT 4SM BR SCT018 17/16 A2982 720 93 1100 220/06 RMK AO2 VIS 2 1/2 RWY 14
14840KMKG MKG20060607065011506/07/06 06:50:31  5-MIN KMKG 071150Z 22006KT 4SM BR BKN015 17/16 A2982 720 93 1100 230/06 RMK AO2 VIS 2 1/2 RWY 14
14840KMKG MKG20060607065516206/07/06 06:55:31  5-MIN KMKG 071155Z 23006KT 4SM BR BKN013 17/16 A2982 720 93 1100 230/06 RMK AO2 VIS 2 1/2 RWY 14 SLP097 60016 70086 T01670156 10167 20161 53010
14840KMKG MKG20060607070011506/07/06 07:00:31  5-MIN KMKG 071200Z 21005KT 4SM BR BKN013 17/16 A2982 720 93 1100 210/05 RMK AO2 VIS 2 1/2 RWY 14
14840KMKG MKG20060607070511506/07/06 07:05:31  5-MIN KMKG 071205Z 20008KT 4SM BR BKN013 17/16 A2982 720 93 1100 210/08 RMK AO2 VIS 2 1/2 RWY 14
14840KMKG MKG20060607071011506/07/06 07:10:31  5-MIN KMKG 071210Z 22007KT 4SM BR OVC011 17/16 A2982 730 93 1100 220/07 RMK AO2 VIS 2 1/2 RWY 14
14840KMKG MKG20060607071511506/07/06 07:15:31  5-MIN KMKG 071215Z 22007KT 4SM BR OVC011 17/16 A2982 730 93 1100 220/07 RMK AO2 VIS 2 1/2 RWY 14
14840KMKG MKG20060607072013406/07/06 07:20:31  5-MIN KMKG 071220Z 22007KT 4SM BR BKN011 OVC014 16/16 A2982 720 96 1100 220/07 RMK AO2 VIS 2 1/2 RWY 14 CIG 006V013
14840KMKG MKG20060607072511506/07/06 07:25:31  5-MIN KMKG 071225Z 23008KT 4SM BR OVC011 16/16 A2982 730 96 1100 230/08 RMK AO2 VIS 2 1/2 RWY 14
14840KMKG MKG20060607073011506/07/06 07:30:31  5-MIN KMKG 071230Z 24006KT 4SM BR OVC011 17/16 A2982 720 93 1100 240/06 RMK AO2 VIS 2 1/2 RWY 14
14840KMKG MKG20060607073511506/07/06 07:35:31  5-MIN KMKG 071235Z 23005KT 4SM BR OVC011 17/16 A2982 720 93 1100 230/05 RMK AO2 VIS 2 1/2 RWY 14
14840KMKG MKG20060607074012206/07/06 07:40:31  5-MIN KMKG 071240Z 23006KT 4SM BR FEW005 OVC011 17/16 A2982 720 93 1100 230/06 RMK AO2 VIS 2 1/2 RWY 14
14840KMKG MKG20060607074512206/07/06 07:45:31  5-MIN KMKG 071245Z 23006KT 4SM BR FEW005 OVC011 16/16 A2982 720 96 1100 230/06 RMK AO2 VIS 2 1/2 RWY 14
14840KMKG MKG20060607075013906/07/06 07:50:31  5-MIN KMKG 071250Z 27005KT 4SM BR FEW005 OVC013 17/16 A2983 720 93 1100 270/05 RMK AO2 VIS 2 1/2 RWY 14 SLP098 T01670156
14840KMKG MKG20060607075513906/07/06 07:55:31  5-MIN KMKG 071255Z 27005KT 4SM BR FEW005 OVC013 17/16 A2983 720 93 1100 270/05 RMK AO2 VIS 2 1/2 RWY 14 SLP098 T01670156
14840KMKG MKG20060607080012206/07/06 08:00:31  5-MIN KMKG 071300Z 28006KT 4SM BR SCT005 OVC013 17/16 A2983 720 93 1100 290/06 RMK AO2 VIS 2 1/2 RWY 14
14840KMKG MKG20060607080512206/07/06 08:05:31  5-MIN KMKG 071305Z 26005KT 4SM BR FEW005 OVC011 17/16 A2983 720 93 1100 260/05 RMK AO2 VIS 2 1/2 RWY 14
14840KMKG MKG20060607081012206/07/06 08:10:31  5-MIN KMKG 071310Z 28004KT 4SM BR FEW005 OVC011 17/16 A2983 710 93 1100 280/04 RMK AO2 VIS 2 1/2 RWY 14
14840KMKG MKG20060607081512206/07/06 08:15:31  5-MIN KMKG 071315Z 27004KT 4SM BR FEW005 OVC011 17/16 A2983 710 93 1100 280/04 RMK AO2 VIS 2 1/2 RWY 14
14840KMKG MKG20060607082010506/07/06 08:20:31  5-MIN KMKG 071320Z 26003KT 5SM BR FEW005 OVC011 17/16 A2983 710 90 1200 260/03 RMK AO2
14840KMKG MKG20060607082509806/07/06 08:25:31  5-MIN KMKG 071325Z 28004KT 5SM BR OVC011 17/16 A2983 710 90 1200 290/04 RMK AO2
14840KMKG MKG20060607083011706/07/06 08:30:31  5-MIN KMKG 071330Z 29007KT 5SM BR FEW005 OVC011 18/16 A2983 710 90 1200 290/07 RMK AO2 CIG 009V013
14840KMKG MKG20060607083512006/07/06 08:35:31  5-MIN KMKG 071335Z 27007KT 5SM BR SCT005 OVC011 17/16 A2983 710 90 1200 270/07 RMK AO2 CIG 006 RWY 14
14840KMKG MKG20060607084011706/07/06 08:40:31  5-MIN KMKG 071340Z 28007KT 5SM BR BKN005 OVC011 17/16 A2984 710 93 1100 290/07 RMK AO2 CIG 005V009
14840KMKG MKG20060607084513406/07/06 08:45:31  5-MIN KMKG 071345Z 30007KT 4SM BR BKN005 OVC011 17/16 A2984 710 93 1100 300/07 RMK AO2 VIS 2 1/2 RWY 14 CIG 004V009
14840KMKG MKG20060607085015106/07/06 08:50:31  5-MIN KMKG 071350Z 31005KT 4SM BR BKN005 OVC011 17/16 A2984 710 93 1100 320/05 RMK AO2 VIS 2 1/2 RWY 14 CIG 004V008 SLP103 T01670156
14840KMKG MKG20060607085514406/07/06 08:55:31  5-MIN KMKG 071355Z 29006KT 4SM BR OVC005 17/16 A2984 710 93 1100 300/06 RMK AO2 VIS 2 1/2 RWY 14 CIG 004V009 SLP102 T01670156
14840KMKG MKG20060607090011506/07/06 09:00:31  5-MIN KMKG 071400Z 30005KT 4SM BR OVC005 17/16 A2984 710 90 1200 300/05 RMK AO2 VIS 2 1/2 RWY 14
14840KMKG MKG20060607090511506/07/06 09:05:31  5-MIN KMKG 071405Z 30007KT 4SM BR OVC005 17/16 A2984 710 93 1100 310/07 RMK AO2 VIS 2 1/2 RWY 14
14840KMKG MKG20060607091011506/07/06 09:10:31  5-MIN KMKG 071410Z 30007KT 4SM BR OVC005 17/15 A2984 700 90 1100 300/07 RMK AO2 VIS 2 1/2 RWY 14
14840KMKG MKG20060607091511506/07/06 09:15:31  5-MIN KMKG 071415Z 31008KT 4SM BR OVC005 17/15 A2984 700 90 1100 320/08 RMK AO2 VIS 2 1/2 RWY 14
14840KMKG MKG20060607092011106/07/06 09:20:31  5-MIN KMKG 071420Z 32005KT 4SM BR OVC005 17/15 A2984 700 90 1100 330/05 RMK AO2 VIS 2 RWY 14
14840KMKG MKG20060607092511106/07/06 09:25:31  5-MIN KMKG 071425Z 31005KT 4SM BR OVC005 17/15 A2984 710 90 1100 320/05 RMK AO2 VIS 2 RWY 14
14840KMKG MKG20060607093011106/07/06 09:30:31  5-MIN KMKG 071430Z 33005KT 4SM BR OVC005 17/15 A2984 700 90 1100 330/05 RMK AO2 VIS 2 RWY 14
14840KMKG MKG20060607093511506/07/06 09:35:31  5-MIN KMKG 071435Z 31006KT 4SM BR OVC005 17/15 A2984 700 90 1100 310/06 RMK AO2 VIS 2 1/2 RWY 14
14840KMKG MKG20060607094011506/07/06 09:40:31  5-MIN KMKG 071440Z 31004KT 4SM BR OVC005 17/16 A2984 700 93 1100 310/04 RMK AO2 VIS 2 1/2 RWY 14
14840KMKG MKG20060607094511506/07/06 09:45:31  5-MIN KMKG 071445Z 31004KT 5SM BR OVC005 17/16 A2984 710 90 1200 310/04 RMK AO2 VIS 2 1/2 RWY 14
14840KMKG MKG20060607095012806/07/06 09:50:31  5-MIN KMKG 071450Z VRB05KT 5SM BR BKN005 OVC010 18/16 A2984 710 87 1200 VRB/05 RMK AO2 SLP102 T01780156 53010
14840KMKG MKG20060607095512806/07/06 09:55:31  5-MIN KMKG 071455Z 32006KT 5SM BR BKN005 OVC010 18/16 A2984 710 87 1300 330/06 RMK AO2 SLP103 T01830161 53005
14840KMKG MKG20060607100011706/07/06 10:00:31  5-MIN KMKG 071500Z 30006KT 5SM BR BKN005 OVC010 18/16 A2984 700 87 1200 300/06 RMK AO2 CIG 004V009
14840KMKG MKG20060607100511006/07/06 10:05:31  5-MIN KMKG 071505Z 30005KT 6SM BR OVC008 18/16 A2984 700 87 1200 300/05 RMK AO2 CIG 005V011
14840KMKG MKG20060607101011006/07/06 10:10:31  5-MIN KMKG 071510Z 30006KT 6SM BR OVC008 18/16 A2984 700 90 1200 300/06 RMK AO2 CIG 006V011
14840KMKG MKG20060607101511006/07/06 10:15:31  5-MIN KMKG 071515Z 28004KT 6SM BR OVC008 18/16 A2984 700 87 1200 280/04 RMK AO2 CIG 006V011
14840KMKG MKG20060607102011006/07/06 10:20:31  5-MIN KMKG 071520Z VRB05KT 6SM BR OVC008 18/16 A2984 700 90 1200 VRB/05 RMK AO2 CIG 006V011
14840KMKG MKG20060607102509506/07/06 10:25:31  5-MIN KMKG 071525Z 28007KT 7SM OVC008 18/16 A2985 700 90 1200 280/07 RMK AO2
14840KMKG MKG20060607103009506/07/06 10:30:31  5-MIN KMKG 071530Z 28005KT 7SM OVC008 17/16 A2985 700 90 1200 290/05 RMK AO2
14840KMKG MKG20060607103509506/07/06 10:35:31  5-MIN KMKG 071535Z 29007KT 8SM OVC008 17/16 A2985 690 90 1200 290/07 RMK AO2
14840KMKG MKG20060607104009506/07/06 10:40:31  5-MIN KMKG 071540Z 30006KT 8SM OVC008 18/16 A2985 690 87 1200 310/06 RMK AO2
14840KMKG MKG20060607104510706/07/06 10:45:31  5-MIN KMKG 071545Z VRB04KT 8SM OVC008 18/16 A2985 690 87 1200 VRB/04 RMK AO2 CIG 007V011
14840KMKG MKG20060607105013106/07/06 10:50:31  5-MIN KMKG 071550Z 32007KT 9SM BKN008 OVC016 18/16 A2985 690 87 1300 320/07 RMK AO2 CIG 007V011 SLP107 T01830161
14840KMKG MKG20060607105513106/07/06 10:55:31  5-MIN KMKG 071555Z 29008KT 9SM BKN008 OVC016 18/16 A2985 690 87 1300 290/08 RMK AO2 CIG 007V012 SLP108 T01830161
14840KMKG MKG20060607110011406/07/06 11:00:31  5-MIN KMKG 071600Z 30009KT 9SM BKN010 OVC015 18/16 A2986 690 87 1200 300/09 RMK AO2 CIG 008V013
14840KMKG MKG20060607110509506/07/06 11:05:31  5-MIN KMKG 071605Z 30008KT 9SM OVC012 18/16 A2986 690 87 1200 300/08 RMK AO2
14840KMKG MKG20060607111009606/07/06 11:10:31  5-MIN KMKG 071610Z 29009KT 10SM OVC012 18/16 A2985 690 87 1200 300/09 RMK AO2
14840KMKG MKG20060607111509606/07/06 11:15:31  5-MIN KMKG 071615Z 31007KT 10SM OVC012 18/16 A2985 690 87 1200 320/07 RMK AO2
14840KMKG MKG20060607112009606/07/06 11:20:31  5-MIN KMKG 071620Z 31010KT 10SM OVC012 18/16 A2986 690 87 1200 320/10 RMK AO2
14840KMKG MKG20060607112510806/07/06 11:25:31  5-MIN KMKG 071625Z 32009KT 10SM OVC010 18/16 A2985 690 87 1200 330/09 RMK AO2 CIG 009V015
14840KMKG MKG20060607113012406/07/06 11:30:31  5-MIN KMKG 071630Z 31009KT 270V340 10SM OVC010 18/16 A2986 690 87 1200 310/09 270V340 RMK AO2 CIG 009V014
14840KMKG MKG20060607113509606/07/06 11:35:31  5-MIN KMKG 071635Z 31010KT 10SM OVC010 18/16 A2986 690 87 1200 320/10 RMK AO2
14840KMKG MKG20060607114009606/07/06 11:40:31  5-MIN KMKG 071640Z 31008KT 10SM OVC010 18/16 A2986 690 87 1200 310/08 RMK AO2
14840KMKG MKG20060607114509606/07/06 11:45:31  5-MIN KMKG 071645Z 30010KT 10SM OVC010 17/15 A2986 690 87 1100 300/10 RMK AO2
14840KMKG MKG20060607115011306/07/06 11:50:31  5-MIN KMKG 071650Z 30010KT 10SM OVC010 17/15 A2986 690 87 1100 310/10 RMK AO2 SLP111 T01720150
14840KMKG MKG20060607115511306/07/06 11:55:31  5-MIN KMKG 071655Z 30008KT 10SM OVC010 17/15 A2986 680 87 1100 300/08 RMK AO2 SLP111 T01720150
14840KMKG MKG20060607120009606/07/06 12:00:31  5-MIN KMKG 071700Z 29009KT 10SM OVC010 17/15 A2986 680 87 1100 300/09 RMK AO2
14840KMKG MKG20060607120509606/07/06 12:05:31  5-MIN KMKG 071705Z 32007KT 10SM OVC010 18/16 A2986 680 87 1200 330/07 RMK AO2
14840KMKG MKG20060607121009606/07/06 12:10:31  5-MIN KMKG 071710Z 29009KT 10SM OVC010 17/16 A2986 680 90 1100 300/09 RMK AO2
14840KMKG MKG20060607121509606/07/06 12:15:31  5-MIN KMKG 071715Z 30007KT 10SM OVC012 18/15 A2986 690 81 1300 300/07 RMK AO2
14840KMKG MKG20060607122009606/07/06 12:20:31  5-MIN KMKG 071720Z 30008KT 10SM OVC012 19/16 A2986 690 81 1300 300/08 RMK AO2
14840KMKG MKG20060607122509606/07/06 12:25:31  5-MIN KMKG 071725Z 30009KT 10SM OVC012 19/16 A2986 690 81 1300 300/09 RMK AO2
14840KMKG MKG20060607123009606/07/06 12:30:31  5-MIN KMKG 071730Z 30009KT 10SM BKN012 19/15 A2986 680 75 1400 310/09 RMK AO2
14840KMKG MKG20060607123509606/07/06 12:35:31  5-MIN KMKG 071735Z 28009KT 10SM BKN012 19/16 A2986 690 78 1400 290/09 RMK AO2
14840KMKG MKG20060607124009606/07/06 12:40:31  5-MIN KMKG 071740Z 30008KT 10SM SCT012 20/16 A2986 690 75 1500 300/08 RMK AO2
14840KMKG MKG20060607124509606/07/06 12:45:31  5-MIN KMKG 071745Z 29011KT 10SM SCT012 20/16 A2986 690 75 1500 290/11 RMK AO2
14840KMKG MKG20060607125013106/07/06 12:50:31  5-MIN KMKG 071750Z 30009KT 10SM SCT012 19/15 A2986 690 78 1300 310/09 RMK AO2 SLP109 T01890150 10200 20161 53005
14840KMKG MKG20060607125513106/07/06 12:55:31  5-MIN KMKG 071755Z 30009KT 10SM SCT012 19/15 A2986 690 78 1300 300/09 RMK AO2 SLP109 T01890150 10200 20161 50006
14840KMKG MKG20060607130009606/07/06 13:00:31  5-MIN KMKG 071800Z 30007KT 10SM SCT012 19/15 A2986 690 78 1300 300/07 RMK AO2
14840KMKG MKG20060607130511206/07/06 13:05:31  5-MIN KMKG 071805Z 29009KT 270V350 10SM SCT012 19/15 A2986 690 78 1300 290/09 270V350 RMK AO2
14840KMKG MKG20060607131009606/07/06 13:10:31  5-MIN KMKG 071810Z 29010KT 10SM SCT012 18/15 A2986 680 81 1300 300/10 RMK AO2
14840KMKG MKG20060607131509606/07/06 13:15:31  5-MIN KMKG 071815Z 30010KT 10SM SCT012 18/15 A2986 680 81 1300 300/10 RMK AO2
14840KMKG MKG20060607132009606/07/06 13:20:31  5-MIN KMKG 071820Z 31010KT 10SM SCT012 18/15 A2986 680 81 1300 310/10 RMK AO2
14840KMKG MKG20060607132509606/07/06 13:25:31  5-MIN KMKG 071825Z 32008KT 10SM SCT012 19/15 A2986 690 78 1300 330/08 RMK AO2
14840KMKG MKG20060607133009606/07/06 13:30:31  5-MIN KMKG 071830Z 31008KT 10SM SCT012 21/16 A2986 680 73 1500 310/08 RMK AO2
14840KMKG MKG20060607133509606/07/06 13:35:31  5-MIN KMKG 071835Z 32008KT 10SM SCT012 21/15 A2986 690 70 1500 330/08 RMK AO2
14840KMKG MKG20060607134009606/07/06 13:40:31  5-MIN KMKG 071840Z 33010KT 10SM SCT012 21/16 A2986 690 70 1600 340/10 RMK AO2
14840KMKG MKG20060607134510306/07/06 13:45:31  5-MIN KMKG 071845Z 33009KT 10SM FEW012 SCT026 22/16 A2986 690 68 1700 330/09 RMK AO2
14840KMKG MKG20060607135012006/07/06 13:50:31  5-MIN KMKG 071850Z 33010KT 10SM FEW012 SCT026 21/16 A2986 690 70 1600 340/10 RMK AO2 SLP109 T02110156
14840KMKG MKG20060607135512006/07/06 13:55:31  5-MIN KMKG 071855Z 31009KT 10SM FEW012 SCT024 22/16 A2986 690 68 1700 320/09 RMK AO2 SLP110 T02170156
14840KMKG MKG20060607140010306/07/06 14:00:31  5-MIN KMKG 071900Z 35011KT 10SM FEW012 SCT024 22/15 A2987 680 65 1700 350/11 RMK AO2
14840KMKG MKG20060607140510306/07/06 14:05:31  5-MIN KMKG 071905Z 34013KT 10SM FEW012 SCT024 22/15 A2986 680 65 1700 340/13 RMK AO2
14840KMKG MKG20060607141010306/07/06 14:10:31  5-MIN KMKG 071910Z 35012KT 10SM FEW012 SCT024 22/15 A2987 680 63 1700 350/12 RMK AO2
14840KMKG MKG20060607141510306/07/06 14:15:31  5-MIN KMKG 071915Z 34011KT 10SM FEW012 SCT024 23/15 A2987 680 61 1800 340/11 RMK AO2
14840KMKG MKG20060607142009606/07/06 14:20:31  5-MIN KMKG 071920Z 33013KT 10SM SCT024 22/14 A2986 680 61 1700 340/13 RMK AO2
14840KMKG MKG20060607142510206/07/06 14:25:31  5-MIN KMKG 071925Z 33011G18KT 10SM SCT024 22/15 A2986 680 65 1700 340/11G18 RMK AO2
14840KMKG MKG20060607143010206/07/06 14:30:31  5-MIN KMKG 071930Z 32012G18KT 10SM SCT024 22/15 A2986 690 63 1700 330/12G18 RMK AO2
14840KMKG MKG20060607143509606/07/06 14:35:31  5-MIN KMKG 071935Z 34010KT 10SM SCT024 22/15 A2987 680 63 1700 340/10 RMK AO2
14840KMKG MKG20060607144011206/07/06 14:40:31  5-MIN KMKG 071940Z 34010KT 300V360 10SM SCT024 22/14 A2986 680 61 1700 350/10 300V360 RMK AO2
14840KMKG MKG20060607144510206/07/06 14:45:31  5-MIN KMKG 071945Z 33013G16KT 10SM SCT028 22/15 A2986 690 63 1700 330/13G16 RMK AO2
14840KMKG MKG20060607145012006/07/06 14:50:31  5-MIN KMKG 071950Z 34012KT 10SM SCT028 SCT085 23/15 A2986 680 61 1800 350/12 RMK AO2 SLP110 T02280150
14840KMKG MKG20060607145512606/07/06 14:55:31  5-MIN KMKG 071955Z 34014G17KT 10SM SCT028 SCT085 22/15 A2986 680 63 1700 340/14G17 RMK AO2 SLP111 T02220150
14840KMKG MKG20060607150010306/07/06 15:00:31  5-MIN KMKG 072000Z 32013KT 10SM SCT028 SCT085 22/15 A2986 690 63 1700 320/13 RMK AO2
14840KMKG MKG20060607150510306/07/06 15:05:31  5-MIN KMKG 072005Z 34013KT 10SM SCT028 SCT085 23/15 A2986 680 61 1800 340/13 RMK AO2
14840KMKG MKG20060607151010306/07/06 15:10:31  5-MIN KMKG 072010Z 33015KT 10SM SCT028 SCT085 23/15 A2986 690 61 1800 330/15 RMK AO2
14840KMKG MKG20060607151510906/07/06 15:15:31  5-MIN KMKG 072015Z 34015G20KT 10SM SCT028 SCT085 23/16 A2986 690 63 1800 340/15G20 RMK AO2
14840KMKG MKG20060607152010906/07/06 15:20:31  5-MIN KMKG 072020Z 32012G20KT 10SM SCT028 SCT085 22/15 A2986 690 63 1700 320/12G20 RMK AO2
14840KMKG MKG20060607152510306/07/06 15:25:31  5-MIN KMKG 072025Z 34012KT 10SM SCT028 SCT085 23/15 A2986 680 61 1800 350/12 RMK AO2
14840KMKG MKG20060607153010906/07/06 15:30:31  5-MIN KMKG 072030Z 33013G18KT 10SM SCT028 SCT085 22/15 A2986 690 63 1700 330/13G18 RMK AO2
14840KMKG MKG20060607153510306/07/06 15:35:31  5-MIN KMKG 072035Z 33013KT 10SM SCT028 SCT085 22/15 A2986 690 63 1700 330/13 RMK AO2
14840KMKG MKG20060607154010306/07/06 15:40:31  5-MIN KMKG 072040Z 33014KT 10SM SCT028 SCT085 22/15 A2986 690 63 1700 330/14 RMK AO2
14840KMKG MKG20060607154510306/07/06 15:45:31  5-MIN KMKG 072045Z 32012KT 10SM SCT028 SCT085 22/14 A2986 680 61 1700 320/12 RMK AO2
14840KMKG MKG20060607155012606/07/06 15:50:31  5-MIN KMKG 072050Z 33012KT 10SM SCT028 SCT085 22/15 A2986 680 63 1700 330/12 RMK AO2 SLP110 T02220150 50006
14840KMKG MKG20060607155512606/07/06 15:55:31  5-MIN KMKG 072055Z 33013KT 10SM SCT028 SCT085 23/15 A2986 690 61 1800 340/13 RMK AO2 SLP109 T02280150 50001
14840KMKG MKG20060607160009306/07/06 16:00:31  5-MIN KMKG 072100Z 32011KT 10SM CLR 22/15 A2986 690 63 1700 320/11 RMK AO2
14840KMKG MKG20060607160509306/07/06 16:05:31  5-MIN KMKG 072105Z 35012KT 10SM CLR 22/15 A2986 680 63 1700 350/12 RMK AO2
14840KMKG MKG20060607161009306/07/06 16:10:31  5-MIN KMKG 072110Z 36010KT 10SM CLR 23/15 A2986 680 61 1800 010/10 RMK AO2
14840KMKG MKG20060607161509306/07/06 16:15:31  5-MIN KMKG 072115Z 01009KT 10SM CLR 22/14 A2986 680 61 1700 010/09 RMK AO2
14840KMKG MKG20060607162009306/07/06 16:20:31  5-MIN KMKG 072120Z 35010KT 10SM CLR 22/14 A2986 690 61 1700 360/10 RMK AO2
14840KMKG MKG20060607162509306/07/06 16:25:31  5-MIN KMKG 072125Z 33012KT 10SM CLR 23/14 A2986 690 59 1800 340/12 RMK AO2
14840KMKG MKG20060607163009306/07/06 16:30:31  5-MIN KMKG 072130Z 01012KT 10SM CLR 22/14 A2986 690 61 1700 010/12 RMK AO2
14840KMKG MKG20060607163509306/07/06 16:35:31  5-MIN KMKG 072135Z 34009KT 10SM CLR 22/14 A2986 690 61 1700 350/09 RMK AO2
14840KMKG MKG20060607164009906/07/06 16:40:31  5-MIN KMKG 072140Z 36012G15KT 10SM CLR 23/14 A2986 690 59 1800 360/12G15 RMK AO2
14840KMKG MKG20060607164509906/07/06 16:45:31  5-MIN KMKG 072145Z 35009G15KT 10SM CLR 22/14 A2986 690 59 1700 350/09G15 RMK AO2
14840KMKG MKG20060607165011306/07/06 16:50:31  5-MIN KMKG 072150Z 34011KT 10SM FEW030 22/14 A2986 690 61 1700 340/11 RMK AO2 SLP108 T02220144
14840KMKG MKG20060607165511306/07/06 16:55:31  5-MIN KMKG 072155Z 34010KT 10SM SCT032 23/14 A2986 680 59 1800 350/10 RMK AO2 SLP110 T02280144
14840KMKG MKG20060607170009606/07/06 17:00:31  5-MIN KMKG 072200Z 35009KT 10SM BKN032 23/14 A2986 690 59 1800 350/09 RMK AO2
14840KMKG MKG20060607170509606/07/06 17:05:31  5-MIN KMKG 072205Z 36010KT 10SM SCT032 23/14 A2986 680 59 1800 360/10 RMK AO2
14840KMKG MKG20060607171009606/07/06 17:10:31  5-MIN KMKG 072210Z 34010KT 10SM SCT032 22/14 A2986 680 59 1700 340/10 RMK AO2
14840KMKG MKG20060607171509606/07/06 17:15:31  5-MIN KMKG 072215Z 33011KT 10SM SCT032 23/14 A2986 680 59 1800 340/11 RMK AO2
14840KMKG MKG20060607172009606/07/06 17:20:31  5-MIN KMKG 072220Z 02009KT 10SM FEW032 23/14 A2986 690 59 1800 030/09 RMK AO2
14840KMKG MKG20060607172509606/07/06 17:25:31  5-MIN KMKG 072225Z 36006KT 10SM FEW032 23/14 A2986 690 59 1800 360/06 RMK AO2
14840KMKG MKG20060607173009306/07/06 17:30:31  5-MIN KMKG 072230Z 01007KT 10SM CLR 22/14 A2986 690 61 1700 020/07 RMK AO2
14840KMKG MKG20060607173509306/07/06 17:35:31  5-MIN KMKG 072235Z 02011KT 10SM CLR 22/14 A2986 690 61 1700 020/11 RMK AO2
14840KMKG MKG20060607174009306/07/06 17:40:31  5-MIN KMKG 072240Z 02008KT 10SM CLR 22/14 A2986 690 61 1700 020/08 RMK AO2
14840KMKG MKG20060607174509306/07/06 17:45:31  5-MIN KMKG 072245Z 36008KT 10SM CLR 23/14 A2986 690 59 1800 360/08 RMK AO2
14840KMKG MKG20060607175011306/07/06 17:50:31  5-MIN KMKG 072250Z 34008KT 10SM FEW032 23/14 A2986 690 59 1800 340/08 RMK AO2 SLP108 T02280144
14840KMKG MKG20060607175511306/07/06 17:55:31  5-MIN KMKG 072255Z 01008KT 10SM FEW032 23/14 A2986 690 59 1800 020/08 RMK AO2 SLP109 T02280144
14840KMKG MKG20060607180009306/07/06 18:00:31  5-MIN KMKG 072300Z 01009KT 10SM CLR 23/14 A2986 690 59 1800 020/09 RMK AO2
14840KMKG MKG20060607180509306/07/06 18:05:31  5-MIN KMKG 072305Z 01010KT 10SM CLR 23/14 A2986 690 59 1800 020/10 RMK AO2
14840KMKG MKG20060607181009306/07/06 18:10:31  5-MIN KMKG 072310Z 03009KT 10SM CLR 23/14 A2986 690 59 1800 040/09 RMK AO2
14840KMKG MKG20060607181509306/07/06 18:15:31  5-MIN KMKG 072315Z 01008KT 10SM CLR 23/14 A2986 690 59 1800 020/08 RMK AO2
14840KMKG MKG20060607182009306/07/06 18:20:31  5-MIN KMKG 072320Z 02008KT 10SM CLR 23/14 A2986 690 59 1800 020/08 RMK AO2
14840KMKG MKG20060607182509306/07/06 18:25:31  5-MIN KMKG 072325Z 36006KT 10SM CLR 23/14 A2986 680 59 1800 360/06 RMK AO2
14840KMKG MKG20060607183009306/07/06 18:30:31  5-MIN KMKG 072330Z 01008KT 10SM CLR 23/14 A2986 680 59 1800 020/08 RMK AO2
14840KMKG MKG20060607183509306/07/06 18:35:31  5-MIN KMKG 072335Z 01009KT 10SM CLR 23/14 A2986 680 59 1800 020/09 RMK AO2
14840KMKG MKG20060607184009306/07/06 18:40:31  5-MIN KMKG 072340Z 36007KT 10SM CLR 22/14 A2987 680 61 1700 010/07 RMK AO2
14840KMKG MKG20060607184509306/07/06 18:45:31  5-MIN KMKG 072345Z 31008KT 10SM CLR 22/15 A2987 680 63 1700 310/08 RMK AO2
14840KMKG MKG20060607185013106/07/06 18:50:31  5-MIN KMKG 072350Z 31007KT 10SM FEW032 22/15 A2987 680 65 1700 320/07 RMK AO2 SLP111 T02170150 10233 20178 50001
14840KMKG MKG20060607185513106/07/06 18:55:31  5-MIN KMKG 072355Z 31008KT 10SM FEW032 22/15 A2987 680 65 1700 310/08 RMK AO2 SLP111 T02170150 10233 20178 53001
14840KMKG MKG20060607190009306/07/06 19:00:31  5-MIN KMKG 080000Z 32007KT 10SM CLR 21/15 A2986 680 68 1600 320/07 RMK AO2
14840KMKG MKG20060607190509306/07/06 19:05:31  5-MIN KMKG 080005Z 33008KT 10SM CLR 22/16 A2987 680 68 1700 340/08 RMK AO2
14840KMKG MKG20060607191009306/07/06 19:10:31  5-MIN KMKG 080010Z 34008KT 10SM CLR 22/16 A2987 680 68 1600 340/08 RMK AO2
14840KMKG MKG20060607191509306/07/06 19:15:31  5-MIN KMKG 080015Z 34009KT 10SM CLR 22/16 A2987 670 68 1600 340/09 RMK AO2
14840KMKG MKG20060607192009306/07/06 19:20:31  5-MIN KMKG 080020Z 34009KT 10SM CLR 21/15 A2988 670 68 1600 340/09 RMK AO2
14840KMKG MKG20060607192509306/07/06 19:25:31  5-MIN KMKG 080025Z 34008KT 10SM CLR 21/15 A2987 670 68 1600 350/08 RMK AO2
14840KMKG MKG20060607193009306/07/06 19:30:31  5-MIN KMKG 080030Z 34007KT 10SM CLR 21/15 A2987 670 68 1600 350/07 RMK AO2
14840KMKG MKG20060607193509306/07/06 19:35:31  5-MIN KMKG 080035Z 34008KT 10SM CLR 21/16 A2988 670 73 1500 350/08 RMK AO2
14840KMKG MKG20060607194009306/07/06 19:40:31  5-MIN KMKG 080040Z 33008KT 10SM CLR 21/15 A2988 670 70 1500 340/08 RMK AO2
14840KMKG MKG20060607194509306/07/06 19:45:31  5-MIN KMKG 080045Z 34008KT 10SM CLR 21/15 A2988 670 70 1500 340/08 RMK AO2
14840KMKG MKG20060607195011306/07/06 19:50:31  5-MIN KMKG 080050Z 34008KT 10SM FEW035 21/15 A2988 670 70 1500 340/08 RMK AO2 SLP117 T02060150
14840KMKG MKG20060607195511306/07/06 19:55:31  5-MIN KMKG 080055Z 34007KT 10SM FEW035 21/15 A2989 660 70 1500 340/07 RMK AO2 SLP118 T02060150
14840KMKG MKG20060607200009306/07/06 20:00:31  5-MIN KMKG 080100Z 35007KT 10SM CLR 20/15 A2989 660 72 1400 350/07 RMK AO2
14840KMKG MKG20060607200509306/07/06 20:05:31  5-MIN KMKG 080105Z 35007KT 10SM CLR 20/15 A2989 660 72 1400 350/07 RMK AO2
14840KMKG MKG20060607201009306/07/06 20:10:31  5-MIN KMKG 080110Z 36005KT 10SM CLR 20/15 A2989 660 72 1400 360/05 RMK AO2
14840KMKG MKG20060607201509306/07/06 20:15:31  5-MIN KMKG 080115Z 34007KT 10SM CLR 19/15 A2989 660 75 1400 340/07 RMK AO2
14840KMKG MKG20060607202009306/07/06 20:20:31  5-MIN KMKG 080120Z 34007KT 10SM CLR 19/15 A2989 660 75 1400 340/07 RMK AO2
14840KMKG MKG20060607202509306/07/06 20:25:31  5-MIN KMKG 080125Z 33005KT 10SM CLR 19/15 A2989 660 75 1400 340/05 RMK AO2
14840KMKG MKG20060607203009306/07/06 20:30:31  5-MIN KMKG 080130Z 34006KT 10SM CLR 19/15 A2990 650 75 1400 340/06 RMK AO2
14840KMKG MKG20060607203509306/07/06 20:35:31  5-MIN KMKG 080135Z 27005KT 10SM CLR 19/15 A2990 650 78 1300 270/05 RMK AO2
14840KMKG MKG20060607204009306/07/06 20:40:31  5-MIN KMKG 080140Z 28005KT 10SM CLR 18/15 A2990 650 81 1200 280/05 RMK AO2
14840KMKG MKG20060607204509306/07/06 20:45:31  5-MIN KMKG 080145Z 29005KT 10SM CLR 18/15 A2990 650 83 1200 290/05 RMK AO2
14840KMKG MKG20060607205011006/07/06 20:50:31  5-MIN KMKG 080150Z 29006KT 10SM CLR 18/14 A2990 650 81 1200 290/06 RMK AO2 SLP123 T01780144
14840KMKG MKG20060607205511306/07/06 20:55:31  5-MIN KMKG 080155Z 29006KT 10SM FEW035 17/14 A2990 650 83 1100 290/06 RMK AO2 SLP124 T01720144
14840KMKG MKG20060607210009306/07/06 21:00:31  5-MIN KMKG 080200Z 29006KT 10SM CLR 17/14 A2990 650 83 1100 290/06 RMK AO2
14840KMKG MKG20060607210509306/07/06 21:05:31  5-MIN KMKG 080205Z 30005KT 10SM CLR 17/14 A2990 640 80 1100 300/05 RMK AO2
14840KMKG MKG20060607211009306/07/06 21:10:31  5-MIN KMKG 080210Z 29005KT 10SM CLR 17/14 A2991 640 80 1100 290/05 RMK AO2
14840KMKG MKG20060607211509306/07/06 21:15:31  5-MIN KMKG 080215Z 30005KT 10SM CLR 17/14 A2991 640 83 1000 300/05 RMK AO2
14840KMKG MKG20060607212009306/07/06 21:20:31  5-MIN KMKG 080220Z 30004KT 10SM CLR 17/14 A2991 640 83 1000 310/04 RMK AO2
14840KMKG MKG20060607212509306/07/06 21:25:31  5-MIN KMKG 080225Z 30004KT 10SM CLR 17/14 A2991 640 83 1000 300/04 RMK AO2
14840KMKG MKG20060607213009306/07/06 21:30:31  5-MIN KMKG 080230Z 31005KT 10SM CLR 16/14 A2991 640 86 1000 310/05 RMK AO2
14840KMKG MKG20060607213509306/07/06 21:35:31  5-MIN KMKG 080235Z VRB03KT 10SM CLR 16/14 A2991 640 86 1000 VRB/03 RMK AO2
14840KMKG MKG20060607214009306/07/06 21:40:31  5-MIN KMKG 080240Z 31003KT 10SM CLR 16/14 A2991 640 86 1000 320/03 RMK AO2
14840KMKG MKG20060607214509306/07/06 21:45:31  5-MIN KMKG 080245Z 33004KT 10SM CLR 16/14 A2992 630 86 1000 330/04 RMK AO2
14840KMKG MKG20060607215011606/07/06 21:50:31  5-MIN KMKG 080250Z 32005KT 10SM CLR 16/14 A2992 630 86 1000 320/05 RMK AO2 SLP130 T01610139 53001
14840KMKG MKG20060607215511506/07/06 21:55:31  5-MIN KMKG 080255Z 31004KT 10SM CLR 16/14 A2992 630 86 900 310/04 RMK AO2 SLP130 T01610139 51018
14840KMKG MKG20060607220009206/07/06 22:00:31  5-MIN KMKG 080300Z 34005KT 10SM CLR 16/14 A2992 630 86 900 340/05 RMK AO2
14840KMKG MKG20060607220509306/07/06 22:05:31  5-MIN KMKG 080305Z 34006KT 10SM CLR 17/14 A2992 630 86 1000 340/06 RMK AO2
14840KMKG MKG20060607221009306/07/06 22:10:31  5-MIN KMKG 080310Z 33007KT 10SM CLR 17/14 A2992 630 86 1000 340/07 RMK AO2
14840KMKG MKG20060607221509306/07/06 22:15:31  5-MIN KMKG 080315Z 34007KT 10SM CLR 17/15 A2992 630 90 1000 340/07 RMK AO2
14840KMKG MKG20060607222009306/07/06 22:20:31  5-MIN KMKG 080320Z 34006KT 10SM CLR 17/15 A2992 630 90 1000 340/06 RMK AO2
14840KMKG MKG20060607222509306/07/06 22:25:31  5-MIN KMKG 080325Z 34007KT 10SM CLR 17/15 A2992 630 90 1000 340/07 RMK AO2
14840KMKG MKG20060607223009606/07/06 22:30:31  5-MIN KMKG 080330Z 36006KT 10SM FEW040 17/15 A2992 630 90 1000 360/06 RMK AO2
14840KMKG MKG20060607223509606/07/06 22:35:31  5-MIN KMKG 080335Z 36007KT 10SM FEW040 17/15 A2992 630 87 1100 360/07 RMK AO2
14840KMKG MKG20060607224009606/07/06 22:40:31  5-MIN KMKG 080340Z 34007KT 10SM FEW040 17/15 A2992 630 87 1100 350/07 RMK AO2
14840KMKG MKG20060607224509606/07/06 22:45:31  5-MIN KMKG 080345Z 34007KT 10SM FEW038 17/15 A2993 630 90 1000 350/07 RMK AO2
14840KMKG MKG20060607225011306/07/06 22:50:31  5-MIN KMKG 080350Z 35007KT 10SM FEW038 17/15 A2993 620 90 1000 350/07 RMK AO2 SLP133 T01670150
14840KMKG MKG20060607225511306/07/06 22:55:31  5-MIN KMKG 080355Z 34008KT 10SM FEW038 17/14 A2993 620 86 1000 350/08 RMK AO2 SLP133 T01670144
14840KMKG MKG20060607230009606/07/06 23:00:31  5-MIN KMKG 080400Z 34007KT 10SM FEW038 17/14 A2993 620 86 1000 350/07 RMK AO2
14840KMKG MKG20060607230509606/07/06 23:05:31  5-MIN KMKG 080405Z 34008KT 10SM FEW038 17/14 A2993 620 86 1000 340/08 RMK AO2
14840KMKG MKG20060607231009606/07/06 23:10:31  5-MIN KMKG 080410Z 35008KT 10SM FEW038 17/14 A2993 620 86 1000 350/08 RMK AO2
14840KMKG MKG20060607231509306/07/06 23:15:31  5-MIN KMKG 080415Z 36009KT 10SM CLR 17/14 A2993 620 86 1000 360/09 RMK AO2
14840KMKG MKG20060607232009306/07/06 23:20:31  5-MIN KMKG 080420Z 36008KT 10SM CLR 17/14 A2993 620 86 1000 010/08 RMK AO2
14840KMKG MKG20060607232509306/07/06 23:25:31  5-MIN KMKG 080425Z 01008KT 10SM CLR 17/14 A2993 620 86 1000 010/08 RMK AO2
14840KMKG MKG20060607233009306/07/06 23:30:31  5-MIN KMKG 080430Z 36007KT 10SM CLR 17/14 A2993 620 86 1000 010/07 RMK AO2
14840KMKG MKG20060607233509306/07/06 23:35:31  5-MIN KMKG 080435Z 36007KT 10SM CLR 17/14 A2993 620 86 1000 010/07 RMK AO2
14840KMKG MKG20060607234009306/07/06 23:40:31  5-MIN KMKG 080440Z 36009KT 10SM CLR 17/14 A2993 620 86 1000 010/09 RMK AO2
14840KMKG MKG20060607234509306/07/06 23:45:31  5-MIN KMKG 080445Z 01008KT 10SM CLR 17/14 A2994 620 86 1000 010/08 RMK AO2
14840KMKG MKG20060607235012306/07/06 23:50:31  5-MIN KMKG 080450Z 36006KT 10SM FEW038 17/14 A2994 610 86 1000 360/06 RMK AO2 SLP136 T01670144 402330161
14840KMKG MKG20060607235512206/07/06 23:55:31  5-MIN KMKG 080455Z 36008KT 10SM FEW038 16/14 A2994 610 90 900 360/08 RMK AO2 SLP137 T01610144 402330161
14840KMKG MKG20060608000009506/08/06 00:00:32  5-MIN KMKG 080500Z 01007KT 10SM FEW038 16/14 A2994 620 90 900 010/07 RMK AO2
14840KMKG MKG20060608000509506/08/06 00:05:31  5-MIN KMKG 080505Z 01007KT 10SM FEW038 16/14 A2994 620 90 900 020/07 RMK AO2
14840KMKG MKG20060608001009406/08/06 00:10:31  5-MIN KMKG 080510Z 01007KT 9SM FEW038 16/14 A2994 620 90 900 010/07 RMK AO2
14840KMKG MKG20060608001509406/08/06 00:15:31  5-MIN KMKG 080515Z 01006KT 9SM FEW038 16/14 A2994 610 90 900 020/06 RMK AO2
14840KMKG MKG20060608002009106/08/06 00:20:31  5-MIN KMKG 080520Z 02007KT 9SM CLR 16/14 A2994 610 90 900 020/07 RMK AO2
14840KMKG MKG20060608002509106/08/06 00:25:31  5-MIN KMKG 080525Z 01006KT 9SM CLR 16/14 A2994 610 90 900 010/06 RMK AO2
14840KMKG MKG20060608003009106/08/06 00:30:31  5-MIN KMKG 080530Z 36007KT 9SM CLR 16/14 A2994 610 90 900 010/07 RMK AO2
14840KMKG MKG20060608003509106/08/06 00:35:31  5-MIN KMKG 080535Z 36007KT 8SM CLR 16/14 A2994 610 93 900 010/07 RMK AO2
14840KMKG MKG20060608004009106/08/06 00:40:31  5-MIN KMKG 080540Z 01006KT 8SM CLR 16/14 A2994 610 93 900 010/06 RMK AO2
14840KMKG MKG20060608004509106/08/06 00:45:31  5-MIN KMKG 080545Z 01005KT 8SM CLR 16/14 A2994 620 93 900 010/05 RMK AO2
14840KMKG MKG20060608005012606/08/06 00:50:31  5-MIN KMKG 080550Z 02006KT 8SM CLR 16/14 A2993 620 93 900 020/06 RMK AO2 SLP135 T01560144 10217 20156 51018
14840KMKG MKG20060608005512606/08/06 00:55:31  5-MIN KMKG 080555Z 01006KT 7SM CLR 16/14 A2993 620 93 900 010/06 RMK AO2 SLP135 T01560144 10217 20156 50005
14840KMKG MKG20060608010009106/08/06 01:00:31  5-MIN KMKG 080600Z 36006KT 7SM CLR 16/14 A2993 620 93 900 010/06 RMK AO2
14840KMKG MKG20060608010509106/08/06 01:05:31  5-MIN KMKG 080605Z 36005KT 7SM CLR 16/14 A2994 620 93 900 010/05 RMK AO2
14840KMKG MKG20060608011009106/08/06 01:10:31  5-MIN KMKG 080610Z 36006KT 7SM CLR 16/14 A2993 620 93 900 360/06 RMK AO2
14840KMKG MKG20060608011509106/08/06 01:15:31  5-MIN KMKG 080615Z 01005KT 7SM CLR 16/14 A2993 620 93 900 010/05 RMK AO2
14840KMKG MKG20060608012009106/08/06 01:20:31  5-MIN KMKG 080620Z 01005KT 7SM CLR 16/14 A2994 620 93 900 010/05 RMK AO2
14840KMKG MKG20060608012509106/08/06 01:25:31  5-MIN KMKG 080625Z 35005KT 7SM CLR 16/14 A2994 620 93 900 360/05 RMK AO2
14840KMKG MKG20060608013009106/08/06 01:30:31  5-MIN KMKG 080630Z 36006KT 7SM CLR 16/14 A2993 620 93 900 010/06 RMK AO2
14840KMKG MKG20060608013509106/08/06 01:35:31  5-MIN KMKG 080635Z 36007KT 7SM CLR 16/14 A2993 620 93 900 360/07 RMK AO2
14840KMKG MKG20060608014009106/08/06 01:40:31  5-MIN KMKG 080640Z 36007KT 7SM CLR 16/14 A2993 620 93 900 010/07 RMK AO2
14840KMKG MKG20060608014509106/08/06 01:45:31  5-MIN KMKG 080645Z 01008KT 7SM CLR 16/14 A2993 620 93 900 010/08 RMK AO2
14840KMKG MKG20060608015010806/08/06 01:50:31  5-MIN KMKG 080650Z 36007KT 7SM CLR 16/14 A2993 620 93 900 360/07 RMK AO2 SLP135 T01560144
14840KMKG MKG20060608015510806/08/06 01:55:31  5-MIN KMKG 080655Z 01007KT 7SM CLR 16/14 A2993 620 93 900 020/07 RMK AO2 SLP134 T01560144
14840KMKG MKG20060608020009106/08/06 02:00:31  5-MIN KMKG 080700Z 03006KT 7SM CLR 16/14 A2993 620 93 900 040/06 RMK AO2
14840KMKG MKG20060608020509106/08/06 02:05:31  5-MIN KMKG 080705Z 02004KT 7SM CLR 16/14 A2993 620 93 900 030/04 RMK AO2
14840KMKG MKG20060608021009106/08/06 02:10:31  5-MIN KMKG 080710Z 03004KT 7SM CLR 16/14 A2993 620 93 900 030/04 RMK AO2
14840KMKG MKG20060608021509106/08/06 02:15:31  5-MIN KMKG 080715Z 03006KT 7SM CLR 16/14 A2993 620 93 900 030/06 RMK AO2
14840KMKG MKG20060608022009106/08/06 02:20:31  5-MIN KMKG 080720Z 02005KT 7SM CLR 16/14 A2993 620 93 900 020/05 RMK AO2
14840KMKG MKG20060608022509106/08/06 02:25:31  5-MIN KMKG 080725Z 01004KT 7SM CLR 16/14 A2993 620 90 900 010/04 RMK AO2
14840KMKG MKG20060608023009106/08/06 02:30:31  5-MIN KMKG 080730Z 36004KT 7SM CLR 16/14 A2993 620 93 900 360/04 RMK AO2
14840KMKG MKG20060608023509406/08/06 02:35:31  5-MIN KMKG 080735Z 36006KT 6SM BR CLR 16/14 A2993 620 93 900 010/06 RMK AO2
14840KMKG MKG20060608024009406/08/06 02:40:31  5-MIN KMKG 080740Z 36005KT 6SM BR CLR 16/14 A2993 620 93 900 360/05 RMK AO2
14840KMKG MKG20060608024509406/08/06 02:45:31  5-MIN KMKG 080745Z 36005KT 6SM BR CLR 16/14 A2993 620 90 900 360/05 RMK AO2
14840KMKG MKG20060608025011106/08/06 02:50:31  5-MIN KMKG 080750Z 35005KT 6SM BR CLR 16/14 A2993 620 90 900 360/05 RMK AO2 SLP133 T01560139
14840KMKG MKG20060608025511106/08/06 02:55:31  5-MIN KMKG 080755Z 35005KT 6SM BR CLR 15/14 A2993 620 93 800 360/05 RMK AO2 SLP133 T01500139
14840KMKG MKG20060608030009406/08/06 03:00:31  5-MIN KMKG 080800Z 35005KT 6SM BR CLR 15/14 A2993 620 93 800 350/05 RMK AO2
14840KMKG MKG20060608030509406/08/06 03:05:31  5-MIN KMKG 080805Z 36006KT 6SM BR CLR 15/14 A2993 620 93 800 010/06 RMK AO2
14840KMKG MKG20060608031009406/08/06 03:10:31  5-MIN KMKG 080810Z 01007KT 6SM BR CLR 15/14 A2993 620 93 800 010/07 RMK AO2
14840KMKG MKG20060608031509406/08/06 03:15:31  5-MIN KMKG 080815Z 02006KT 6SM BR CLR 15/14 A2993 620 93 800 020/06 RMK AO2
14840KMKG MKG20060608032009406/08/06 03:20:31  5-MIN KMKG 080820Z 01005KT 6SM BR CLR 15/14 A2993 620 93 800 010/05 RMK AO2
14840KMKG MKG20060608032509406/08/06 03:25:31  5-MIN KMKG 080825Z 36006KT 6SM BR CLR 15/14 A2993 620 93 800 010/06 RMK AO2
14840KMKG MKG20060608033009406/08/06 03:30:31  5-MIN KMKG 080830Z 01006KT 6SM BR CLR 15/14 A2993 620 93 800 020/06 RMK AO2
14840KMKG MKG20060608033509406/08/06 03:35:31  5-MIN KMKG 080835Z 01006KT 6SM BR CLR 15/14 A2993 620 93 800 010/06 RMK AO2
14840KMKG MKG20060608034009406/08/06 03:40:31  5-MIN KMKG 080840Z 36005KT 6SM BR CLR 15/14 A2993 620 93 800 360/05 RMK AO2
14840KMKG MKG20060608034509406/08/06 03:45:31  5-MIN KMKG 080845Z 35005KT 6SM BR CLR 15/14 A2993 620 93 800 350/05 RMK AO2
14840KMKG MKG20060608035011706/08/06 03:50:31  5-MIN KMKG 080850Z 33005KT 6SM BR CLR 15/14 A2993 620 93 800 330/05 RMK AO2 SLP133 T01500139 50005
14840KMKG MKG20060608035511706/08/06 03:55:31  5-MIN KMKG 080855Z 33006KT 5SM BR CLR 15/14 A2993 620 93 800 330/06 RMK AO2 SLP135 T01500139 55000
14840KMKG MKG20060608040009406/08/06 04:00:31  5-MIN KMKG 080900Z 34005KT 6SM BR CLR 15/14 A2993 620 93 800 350/05 RMK AO2
14840KMKG MKG20060608040509406/08/06 04:05:31  5-MIN KMKG 080905Z 35004KT 6SM BR CLR 15/14 A2993 620 93 800 360/04 RMK AO2
14840KMKG MKG20060608041009406/08/06 04:10:31  5-MIN KMKG 080910Z 36006KT 6SM BR CLR 15/14 A2993 620 93 800 360/06 RMK AO2
14840KMKG MKG20060608041509406/08/06 04:15:31  5-MIN KMKG 080915Z 36006KT 6SM BR CLR 15/14 A2993 620 93 800 010/06 RMK AO2
14840KMKG MKG20060608042009406/08/06 04:20:31  5-MIN KMKG 080920Z 36005KT 6SM BR CLR 15/14 A2993 620 93 800 360/05 RMK AO2
14840KMKG MKG20060608042509406/08/06 04:25:31  5-MIN KMKG 080925Z 01005KT 6SM BR CLR 15/14 A2993 620 93 800 010/05 RMK AO2
14840KMKG MKG20060608043009406/08/06 04:30:31  5-MIN KMKG 080930Z 02006KT 6SM BR CLR 15/14 A2993 620 93 800 030/06 RMK AO2
14840KMKG MKG20060608043509406/08/06 04:35:31  5-MIN KMKG 080935Z 02005KT 6SM BR CLR 15/14 A2994 620 93 800 020/05 RMK AO2
14840KMKG MKG20060608044009406/08/06 04:40:31  5-MIN KMKG 080940Z 03005KT 6SM BR CLR 14/13 A2994 610 93 700 030/05 RMK AO2
14840KMKG MKG20060608044509406/08/06 04:45:31  5-MIN KMKG 080945Z 01004KT 6SM BR CLR 15/13 A2994 610 90 800 010/04 RMK AO2
14840KMKG MKG20060608045011106/08/06 04:50:31  5-MIN KMKG 080950Z 01005KT 6SM BR CLR 14/13 A2994 610 93 700 020/05 RMK AO2 SLP138 T01440133
14840KMKG MKG20060608045511106/08/06 04:55:31  5-MIN KMKG 080955Z 01005KT 6SM BR CLR 14/13 A2994 610 93 700 020/05 RMK AO2 SLP138 T01440133
14840KMKG MKG20060608050009406/08/06 05:00:31  5-MIN KMKG 081000Z 01005KT 5SM BR CLR 14/13 A2995 610 93 700 010/05 RMK AO2
14840KMKG MKG20060608050511106/08/06 05:05:31  5-MIN KMKG 081005Z 35003KT 4SM BR CLR 14/13 A2995 600 93 700 360/03 RMK AO2 VIS 2 1/2 RWY 14
14840KMKG MKG20060608051011106/08/06 05:10:31  5-MIN KMKG 081010Z 01005KT 4SM BR CLR 14/13 A2995 600 93 700 020/05 RMK AO2 VIS 2 1/2 RWY 14
14840KMKG MKG20060608051511106/08/06 05:15:31  5-MIN KMKG 081015Z 03005KT 4SM BR CLR 14/13 A2995 600 93 700 030/05 RMK AO2 VIS 2 1/2 RWY 14
14840KMKG MKG20060608052011106/08/06 05:20:31  5-MIN KMKG 081020Z 02005KT 4SM BR CLR 14/13 A2995 600 93 700 020/05 RMK AO2 VIS 2 1/2 RWY 14
14840KMKG MKG20060608052511106/08/06 05:25:31  5-MIN KMKG 081025Z 01004KT 4SM BR CLR 14/13 A2995 600 93 700 010/04 RMK AO2 VIS 2 1/2 RWY 14
14840KMKG MKG20060608053011106/08/06 05:30:31  5-MIN KMKG 081030Z 01005KT 4SM BR CLR 14/13 A2996 600 93 700 010/05 RMK AO2 VIS 2 1/2 RWY 14
14840KMKG MKG20060608053511106/08/06 05:35:31  5-MIN KMKG 081035Z 02004KT 4SM BR CLR 14/13 A2996 590 93 700 020/04 RMK AO2 VIS 2 1/2 RWY 14
14840KMKG MKG20060608054011106/08/06 05:40:31  5-MIN KMKG 081040Z 02004KT 4SM BR CLR 14/13 A2996 600 93 700 030/04 RMK AO2 VIS 2 1/2 RWY 14
14840KMKG MKG20060608054511106/08/06 05:45:31  5-MIN KMKG 081045Z 36004KT 4SM BR CLR 14/14 A2996 590 96 700 010/04 RMK AO2 VIS 2 1/2 RWY 14
14840KMKG MKG20060608055012806/08/06 05:50:31  5-MIN KMKG 081050Z 36005KT 4SM BR CLR 15/14 A2996 590 93 800 360/05 RMK AO2 VIS 2 1/2 RWY 14 SLP145 T01500139
14840KMKG MKG20060608055512806/08/06 05:55:31  5-MIN KMKG 081055Z 35004KT 4SM BR CLR 15/14 A2996 590 93 800 360/04 RMK AO2 VIS 2 1/2 RWY 14 SLP145 T01500139
14840KMKG MKG20060608060011106/08/06 06:00:31  5-MIN KMKG 081100Z 36004KT 4SM BR CLR 15/14 A2996 590 93 800 360/04 RMK AO2 VIS 2 1/2 RWY 14
14840KMKG MKG20060608060511106/08/06 06:05:31  5-MIN KMKG 081105Z 35003KT 4SM BR CLR 15/14 A2997 590 93 800 360/03 RMK AO2 VIS 2 1/2 RWY 14
14840KMKG MKG20060608061011106/08/06 06:10:31  5-MIN KMKG 081110Z 36005KT 4SM BR CLR 16/14 A2997 590 90 800 360/05 RMK AO2 VIS 2 1/2 RWY 14
14840KMKG MKG20060608061509406/08/06 06:15:31  5-MIN KMKG 081115Z 36005KT 5SM BR CLR 16/14 A2997 590 90 800 010/05 RMK AO2
14840KMKG MKG20060608062009406/08/06 06:20:31  5-MIN KMKG 081120Z 36005KT 5SM BR CLR 16/14 A2997 590 90 800 360/05 RMK AO2
14840KMKG MKG20060608062509406/08/06 06:25:31  5-MIN KMKG 081125Z 36005KT 5SM BR CLR 16/14 A2997 580 90 800 010/05 RMK AO2
14840KMKG MKG20060608063009406/08/06 06:30:31  5-MIN KMKG 081130Z 36006KT 5SM BR CLR 16/14 A2997 580 90 800 360/06 RMK AO2
14840KMKG MKG20060608063509406/08/06 06:35:31  5-MIN KMKG 081135Z 36006KT 5SM BR CLR 16/14 A2997 580 90 800 010/06 RMK AO2
14840KMKG MKG20060608064009406/08/06 06:40:31  5-MIN KMKG 081140Z 36005KT 5SM BR CLR 16/14 A2998 580 90 800 360/05 RMK AO2
14840KMKG MKG20060608064509406/08/06 06:45:31  5-MIN KMKG 081145Z 36004KT 6SM BR CLR 16/14 A2997 580 86 900 010/04 RMK AO2
14840KMKG MKG20060608065012906/08/06 06:50:31  5-MIN KMKG 081150Z 35004KT 6SM BR CLR 16/14 A2998 580 90 900 350/04 RMK AO2 SLP149 T01610144 10161 20144 55000
14840KMKG MKG20060608065512906/08/06 06:55:31  5-MIN KMKG 081155Z 35005KT 6SM BR CLR 16/14 A2998 580 86 900 350/05 RMK AO2 SLP150 T01610139 10161 20144 53015
14840KMKG MKG20060608070009406/08/06 07:00:31  5-MIN KMKG 081200Z 34006KT 6SM BR CLR 17/14 A2998 580 86 900 350/06 RMK AO2
14840KMKG MKG20060608070509106/08/06 07:05:31  5-MIN KMKG 081205Z 34006KT 7SM CLR 17/14 A2998 570 83 900 350/06 RMK AO2
14840KMKG MKG20060608071009106/08/06 07:10:31  5-MIN KMKG 081210Z 35006KT 7SM CLR 17/14 A2998 570 83 900 350/06 RMK AO2
14840KMKG MKG20060608071509206/08/06 07:15:31  5-MIN KMKG 081215Z 35005KT 8SM CLR 17/14 A2998 580 83 1000 350/05 RMK AO2
14840KMKG MKG20060608072009206/08/06 07:20:31  5-MIN KMKG 081220Z 36006KT 8SM CLR 17/14 A2998 570 83 1000 010/06 RMK AO2
14840KMKG MKG20060608072509206/08/06 07:25:31  5-MIN KMKG 081225Z 35006KT 8SM CLR 17/14 A2998 570 83 1000 360/06 RMK AO2
14840KMKG MKG20060608073009206/08/06 07:30:31  5-MIN KMKG 081230Z 36007KT 9SM CLR 17/14 A2998 570 83 1000 360/07 RMK AO2
14840KMKG MKG20060608073509206/08/06 07:35:31  5-MIN KMKG 081235Z 35005KT 9SM CLR 18/14 A2998 570 81 1100 360/05 RMK AO2
14840KMKG MKG20060608074009306/08/06 07:40:31  5-MIN KMKG 081240Z 36006KT 10SM CLR 18/14 A2999 570 81 1100 360/06 RMK AO2
14840KMKG MKG20060608074509306/08/06 07:45:31  5-MIN KMKG 081245Z 36007KT 10SM CLR 18/14 A2999 570 78 1100 360/07 RMK AO2
14840KMKG MKG20060608075011006/08/06 07:50:31  5-MIN KMKG 081250Z 36007KT 10SM CLR 18/14 A2999 570 78 1100 360/07 RMK AO2 SLP152 T01830144
14840KMKG MKG20060608075511006/08/06 07:55:31  5-MIN KMKG 081255Z 36007KT 10SM CLR 19/14 A2999 570 75 1200 010/07 RMK AO2 SLP152 T01890144
14840KMKG MKG20060608080009306/08/06 08:00:31  5-MIN KMKG 081300Z 01007KT 10SM CLR 19/14 A2999 570 75 1200 010/07 RMK AO2
14840KMKG MKG20060608080509306/08/06 08:05:31  5-MIN KMKG 081305Z 35008KT 10SM CLR 19/14 A2999 560 75 1200 350/08 RMK AO2
14840KMKG MKG20060608081009306/08/06 08:10:31  5-MIN KMKG 081310Z 36008KT 10SM CLR 19/14 A2999 560 72 1300 010/08 RMK AO2
14840KMKG MKG20060608081509306/08/06 08:15:31  5-MIN KMKG 081315Z 01006KT 10SM CLR 19/14 A3000 560 72 1200 010/06 RMK AO2
14840KMKG MKG20060608082009306/08/06 08:20:31  5-MIN KMKG 081320Z 36006KT 10SM CLR 20/14 A3000 560 70 1300 010/06 RMK AO2
14840KMKG MKG20060608082509306/08/06 08:25:31  5-MIN KMKG 081325Z 35007KT 10SM CLR 20/14 A3000 560 70 1300 350/07 RMK AO2
14840KMKG MKG20060608083009306/08/06 08:30:31  5-MIN KMKG 081330Z 35007KT 10SM CLR 20/15 A3000 560 72 1300 360/07 RMK AO2
14840KMKG MKG20060608083509306/08/06 08:35:31  5-MIN KMKG 081335Z 35006KT 10SM CLR 21/15 A3000 560 70 1400 360/06 RMK AO2
14840KMKG MKG20060608084009306/08/06 08:40:31  5-MIN KMKG 081340Z 36006KT 10SM CLR 21/15 A3000 560 70 1400 360/06 RMK AO2
14840KMKG MKG20060608084509306/08/06 08:45:31  5-MIN KMKG 081345Z 35007KT 10SM CLR 21/15 A3000 560 68 1400 350/07 RMK AO2
14840KMKG MKG20060608085011006/08/06 08:50:31  5-MIN KMKG 081350Z 35009KT 10SM CLR 21/15 A3000 560 68 1400 350/09 RMK AO2 SLP157 T02110150
14840KMKG MKG20060608085511006/08/06 08:55:31  5-MIN KMKG 081355Z 36007KT 10SM CLR 21/15 A3001 550 68 1400 010/07 RMK AO2 SLP158 T02110150
14840KMKG MKG20060608090009306/08/06 09:00:31  5-MIN KMKG 081400Z 35009KT 10SM CLR 22/15 A3001 550 65 1500 350/09 RMK AO2
14840KMKG MKG20060608090509306/08/06 09:05:31  5-MIN KMKG 081405Z 36008KT 10SM CLR 22/15 A3001 550 65 1500 360/08 RMK AO2
14840KMKG MKG20060608091009306/08/06 09:10:31  5-MIN KMKG 081410Z 33007KT 10SM CLR 22/15 A3001 550 65 1500 330/07 RMK AO2
14840KMKG MKG20060608091509306/08/06 09:15:31  5-MIN KMKG 081415Z 32009KT 10SM CLR 22/15 A3001 550 65 1500 330/09 RMK AO2
14840KMKG MKG20060608092009306/08/06 09:20:31  5-MIN KMKG 081420Z 33009KT 10SM CLR 22/15 A3000 550 65 1500 330/09 RMK AO2
14840KMKG MKG20060608092509306/08/06 09:25:31  5-MIN KMKG 081425Z 28008KT 10SM CLR 21/15 A3001 550 68 1400 290/08 RMK AO2
14840KMKG MKG20060608093009306/08/06 09:30:31  5-MIN KMKG 081430Z 27010KT 10SM CLR 20/14 A3001 550 70 1300 280/10 RMK AO2
14840KMKG MKG20060608093509306/08/06 09:35:31  5-MIN KMKG 081435Z 28010KT 10SM CLR 19/14 A3001 550 72 1200 280/10 RMK AO2
14840KMKG MKG20060608094009306/08/06 09:40:31  5-MIN KMKG 081440Z 31008KT 10SM CLR 19/14 A3001 550 72 1200 310/08 RMK AO2
14840KMKG MKG20060608094509306/08/06 09:45:31  5-MIN KMKG 081445Z 30010KT 10SM CLR 19/14 A3001 550 72 1200 300/10 RMK AO2
14840KMKG MKG20060608095011606/08/06 09:50:31  5-MIN KMKG 081450Z 30009KT 10SM CLR 19/14 A3001 550 72 1200 300/09 RMK AO2 SLP160 T01940144 53015
14840KMKG MKG20060608095511606/08/06 09:55:31  5-MIN KMKG 081455Z 30007KT 10SM CLR 19/14 A3001 550 72 1200 300/07 RMK AO2 SLP160 T01940144 51009
14840KMKG MKG20060608100009306/08/06 10:00:31  5-MIN KMKG 081500Z 30007KT 10SM CLR 20/14 A3001 550 70 1300 300/07 RMK AO2
14840KMKG MKG20060608100509306/08/06 10:05:31  5-MIN KMKG 081505Z 31007KT 10SM CLR 21/14 A3001 550 67 1400 310/07 RMK AO2
14840KMKG MKG20060608101009306/08/06 10:10:31  5-MIN KMKG 081510Z VRB06KT 10SM CLR 21/15 A3001 550 70 1400 VRB/06 RMK AO2
14840KMKG MKG20060608101509306/08/06 10:15:31  5-MIN KMKG 081515Z 32007KT 10SM CLR 21/15 A3000 550 68 1400 330/07 RMK AO2
14840KMKG MKG20060608102009306/08/06 10:20:31  5-MIN KMKG 081520Z 33008KT 10SM CLR 22/15 A3000 550 65 1500 330/08 RMK AO2
14840KMKG MKG20060608102509306/08/06 10:25:31  5-MIN KMKG 081525Z 33008KT 10SM CLR 21/15 A3000 560 68 1400 330/08 RMK AO2
14840KMKG MKG20060608103009306/08/06 10:30:31  5-MIN KMKG 081530Z 32006KT 10SM CLR 22/16 A3000 560 65 1600 320/06 RMK AO2
14840KMKG MKG20060608103509306/08/06 10:35:31  5-MIN KMKG 081535Z 32007KT 10SM CLR 22/16 A3000 560 65 1600 320/07 RMK AO2
14840KMKG MKG20060608104009606/08/06 10:40:31  5-MIN KMKG 081540Z 31003KT 10SM FEW085 23/16 A3000 560 63 1600 310/03 RMK AO2
14840KMKG MKG20060608104509306/08/06 10:45:31  5-MIN KMKG 081545Z VRB04KT 10SM CLR 23/16 A3000 560 63 1600 VRB/04 RMK AO2
14840KMKG MKG20060608105011006/08/06 10:50:31  5-MIN KMKG 081550Z 32007KT 10SM CLR 23/16 A3000 560 63 1600 320/07 RMK AO2 SLP156 T02280156
14840KMKG MKG20060608105511006/08/06 10:55:31  5-MIN KMKG 081555Z VRB04KT 10SM CLR 23/16 A3000 560 63 1600 VRB/04 RMK AO2 SLP156 T02280156
14840KMKG MKG20060608110009306/08/06 11:00:31  5-MIN KMKG 081600Z 33007KT 10SM CLR 23/16 A3000 560 61 1700 330/07 RMK AO2
14840KMKG MKG20060608110509306/08/06 11:05:31  5-MIN KMKG 081605Z 33006KT 10SM CLR 23/16 A2999 560 61 1700 330/06 RMK AO2
14840KMKG MKG20060608111009306/08/06 11:10:31  5-MIN KMKG 081610Z 33008KT 10SM CLR 24/16 A2999 560 59 1800 330/08 RMK AO2
14840KMKG MKG20060608111509306/08/06 11:15:31  5-MIN KMKG 081615Z 33007KT 10SM CLR 24/16 A2999 560 59 1800 340/07 RMK AO2
14840KMKG MKG20060608112009306/08/06 11:20:31  5-MIN KMKG 081620Z 33007KT 10SM CLR 24/16 A2999 560 59 1800 330/07 RMK AO2
14840KMKG MKG20060608112509306/08/06 11:25:31  5-MIN KMKG 081625Z 32006KT 10SM CLR 24/16 A2999 560 59 1800 330/06 RMK AO2
14840KMKG MKG20060608113009306/08/06 11:30:31  5-MIN KMKG 081630Z 33007KT 10SM CLR 24/16 A2999 570 57 1800 340/07 RMK AO2
14840KMKG MKG20060608113509306/08/06 11:35:31  5-MIN KMKG 081635Z 33006KT 10SM CLR 24/16 A2999 570 57 1800 330/06 RMK AO2
14840KMKG MKG20060608114009306/08/06 11:40:31  5-MIN KMKG 081640Z 33006KT 10SM CLR 24/16 A2999 560 57 1800 340/06 RMK AO2
14840KMKG MKG20060608114509306/08/06 11:45:31  5-MIN KMKG 081645Z 33006KT 10SM CLR 24/16 A2999 570 57 1800 340/06 RMK AO2
14840KMKG MKG20060608115011006/08/06 11:50:31  5-MIN KMKG 081650Z 28008KT 10SM CLR 24/16 A2999 570 57 1800 280/08 RMK AO2 SLP152 T02440156
14840KMKG MKG20060608115512906/08/06 11:55:31  5-MIN KMKG 081655Z 26007KT 230V300 10SM FEW055 24/16 A2999 570 59 1800 270/07 230V300 RMK AO2 SLP153 T02390156
14840KMKG MKG20060608120009306/08/06 12:00:31  5-MIN KMKG 081700Z 28008KT 10SM CLR 24/16 A2999 570 59 1800 290/08 RMK AO2
14840KMKG MKG20060608120509306/08/06 12:05:31  5-MIN KMKG 081705Z 27009KT 10SM CLR 24/16 A2999 570 57 1800 280/09 RMK AO2
14840KMKG MKG20060608121009306/08/06 12:10:31  5-MIN KMKG 081710Z 28009KT 10SM CLR 24/16 A2998 570 59 1800 280/09 RMK AO2
14840KMKG MKG20060608121509306/08/06 12:15:31  5-MIN KMKG 081715Z 29008KT 10SM CLR 24/16 A2999 570 57 1800 290/08 RMK AO2
14840KMKG MKG20060608122009306/08/06 12:20:31  5-MIN KMKG 081720Z 27008KT 10SM CLR 24/16 A2999 570 59 1800 270/08 RMK AO2
14840KMKG MKG20060608122509306/08/06 12:25:31  5-MIN KMKG 081725Z 28011KT 10SM CLR 24/16 A2999 570 59 1800 280/11 RMK AO2
14840KMKG MKG20060608123009306/08/06 12:30:31  5-MIN KMKG 081730Z 28009KT 10SM CLR 24/16 A2999 570 59 1800 290/09 RMK AO2
14840KMKG MKG20060608123509306/08/06 12:35:31  5-MIN KMKG 081735Z 30011KT 10SM CLR 24/16 A2999 570 59 1800 300/11 RMK AO2
14840KMKG MKG20060608124009306/08/06 12:40:31  5-MIN KMKG 081740Z 29009KT 10SM CLR 24/16 A2999 570 57 1800 290/09 RMK AO2
14840KMKG MKG20060608124509306/08/06 12:45:31  5-MIN KMKG 081745Z 29010KT 10SM CLR 24/16 A2999 570 57 1800 300/10 RMK AO2
14840KMKG MKG20060608125012806/08/06 12:50:31  5-MIN KMKG 081750Z 28011KT 10SM CLR 24/16 A2998 570 57 1800 290/11 RMK AO2 SLP151 T02440156 10244 20161 51009
14840KMKG MKG20060608125513106/08/06 12:55:31  5-MIN KMKG 081755Z 29007KT 10SM FEW045 24/16 A2998 570 57 1800 290/07 RMK AO2 SLP151 T02440156 10244 20161 56007
14840KMKG MKG20060608130009606/08/06 13:00:31  5-MIN KMKG 081800Z 29009KT 10SM FEW045 25/16 A2998 570 55 1900 300/09 RMK AO2
14840KMKG MKG20060608130509606/08/06 13:05:31  5-MIN KMKG 081805Z 28009KT 10SM FEW045 25/16 A2998 580 55 1900 290/09 RMK AO2
14840KMKG MKG20060608131009606/08/06 13:10:31  5-MIN KMKG 081810Z 30008KT 10SM FEW045 24/16 A2998 580 57 1800 300/08 RMK AO2
14840KMKG MKG20060608131509606/08/06 13:15:31  5-MIN KMKG 081815Z 30010KT 10SM FEW045 25/15 A2998 580 53 1900 300/10 RMK AO2
14840KMKG MKG20060608132009606/08/06 13:20:31  5-MIN KMKG 081820Z 30010KT 10SM FEW045 26/15 A2998 580 51 2000 300/10 RMK AO2
14840KMKG MKG20060608132509606/08/06 13:25:31  5-MIN KMKG 081825Z 31010KT 10SM FEW045 26/14 A2997 580 49 2000 310/10 RMK AO2
14840KMKG MKG20060608133009606/08/06 13:30:31  5-MIN KMKG 081830Z 30011KT 10SM FEW045 26/14 A2997 580 48 2000 300/11 RMK AO2
14840KMKG MKG20060608133509606/08/06 13:35:31  5-MIN KMKG 081835Z 29011KT 10SM FEW045 26/14 A2997 580 48 2000 300/11 RMK AO2
14840KMKG MKG20060608134009606/08/06 13:40:31  5-MIN KMKG 081840Z 29011KT 10SM FEW045 25/14 A2997 580 49 1900 300/11 RMK AO2
14840KMKG MKG20060608134509606/08/06 13:45:31  5-MIN KMKG 081845Z 30011KT 10SM SCT045 25/14 A2997 580 49 1900 300/11 RMK AO2
14840KMKG MKG20060608135011306/08/06 13:50:31  5-MIN KMKG 081850Z 29010KT 10SM SCT045 25/13 A2997 580 48 1900 300/10 RMK AO2 SLP146 T02500133
14840KMKG MKG20060608135511306/08/06 13:55:31  5-MIN KMKG 081855Z 29011KT 10SM SCT045 25/14 A2997 590 49 1900 300/11 RMK AO2 SLP145 T02500139
14840KMKG MKG20060608140009606/08/06 14:00:31  5-MIN KMKG 081900Z 28011KT 10SM SCT045 25/14 A2997 590 49 1900 290/11 RMK AO2
14840KMKG MKG20060608140509606/08/06 14:05:31  5-MIN KMKG 081905Z 30010KT 10SM SCT045 24/14 A2996 590 53 1900 300/10 RMK AO2
14840KMKG MKG20060608141009606/08/06 14:10:31  5-MIN KMKG 081910Z 30010KT 10SM SCT045 24/14 A2996 590 51 1900 300/10 RMK AO2
14840KMKG MKG20060608141509606/08/06 14:15:31  5-MIN KMKG 081915Z 29011KT 10SM SCT045 24/13 A2996 590 49 1900 300/11 RMK AO2
14840KMKG MKG20060608142009606/08/06 14:20:31  5-MIN KMKG 081920Z 29012KT 10SM SCT045 24/13 A2996 590 49 1900 300/12 RMK AO2
14840KMKG MKG20060608142509606/08/06 14:25:31  5-MIN KMKG 081925Z 29011KT 10SM SCT045 25/13 A2996 590 48 1900 300/11 RMK AO2
14840KMKG MKG20060608143009606/08/06 14:30:31  5-MIN KMKG 081930Z 29010KT 10SM SCT045 25/13 A2996 590 48 1900 300/10 RMK AO2
14840KMKG MKG20060608143509606/08/06 14:35:31  5-MIN KMKG 081935Z 30011KT 10SM SCT045 25/13 A2996 590 48 1900 300/11 RMK AO2
14840KMKG MKG20060608144009606/08/06 14:40:31  5-MIN KMKG 081940Z 29011KT 10SM SCT045 25/13 A2996 590 48 1900 300/11 RMK AO2
14840KMKG MKG20060608144509606/08/06 14:45:31  5-MIN KMKG 081945Z 29011KT 10SM SCT045 25/13 A2996 590 46 1900 300/11 RMK AO2
14840KMKG MKG20060608145011306/08/06 14:50:31  5-MIN KMKG 081950Z 29010KT 10SM SCT045 25/13 A2996 590 46 1900 300/10 RMK AO2 SLP143 T02500128
14840KMKG MKG20060608145511306/08/06 14:55:31  5-MIN KMKG 081955Z 30011KT 10SM SCT045 25/13 A2996 590 46 1900 300/11 RMK AO2 SLP143 T02500128
14840KMKG MKG20060608150009606/08/06 15:00:31  5-MIN KMKG 082000Z 30010KT 10SM SCT045 25/12 A2996 600 44 1900 300/10 RMK AO2
14840KMKG MKG20060608150509606/08/06 15:05:31  5-MIN KMKG 082005Z 29009KT 10SM SCT045 26/13 A2995 600 44 2000 290/09 RMK AO2
14840KMKG MKG20060608151009606/08/06 15:10:31  5-MIN KMKG 082010Z 30010KT 10SM SCT045 26/12 A2995 600 43 2000 300/10 RMK AO2
14840KMKG MKG20060608151509606/08/06 15:15:31  5-MIN KMKG 082015Z 29011KT 10SM SCT045 26/12 A2995 600 43 2000 290/11 RMK AO2
14840KMKG MKG20060608152009606/08/06 15:20:31  5-MIN KMKG 082020Z 29013KT 10SM SCT045 24/12 A2995 600 46 1900 300/13 RMK AO2
14840KMKG MKG20060608152509606/08/06 15:25:31  5-MIN KMKG 082025Z 30012KT 10SM SCT045 24/12 A2995 600 46 1900 310/12 RMK AO2
14840KMKG MKG20060608153009606/08/06 15:30:31  5-MIN KMKG 082030Z 30010KT 10SM SCT045 24/12 A2995 600 47 1800 310/10 RMK AO2
14840KMKG MKG20060608153509606/08/06 15:35:31  5-MIN KMKG 082035Z 29011KT 10SM SCT045 23/13 A2995 600 51 1700 300/11 RMK AO2
14840KMKG MKG20060608154009606/08/06 15:40:31  5-MIN KMKG 082040Z 29010KT 10SM SCT045 24/13 A2995 600 49 1800 300/10 RMK AO2
14840KMKG MKG20060608154509606/08/06 15:45:31  5-MIN KMKG 082045Z 29011KT 10SM SCT045 24/13 A2995 600 49 1800 300/11 RMK AO2
14840KMKG MKG20060608155011906/08/06 15:50:31  5-MIN KMKG 082050Z 30010KT 10SM SCT045 24/13 A2995 600 49 1800 300/10 RMK AO2 SLP140 T02390128 56007
14840KMKG MKG20060608155511906/08/06 15:55:31  5-MIN KMKG 082055Z 30009KT 10SM SCT045 24/13 A2995 600 49 1800 300/09 RMK AO2 SLP140 T02390128 56011
14840KMKG MKG20060608160009606/08/06 16:00:31  5-MIN KMKG 082100Z 29009KT 10SM SCT045 24/13 A2995 600 49 1900 300/09 RMK AO2
14840KMKG MKG20060608160509606/08/06 16:05:31  5-MIN KMKG 082105Z 29009KT 10SM SCT045 24/13 A2995 600 47 1900 300/09 RMK AO2
14840KMKG MKG20060608161009606/08/06 16:10:31  5-MIN KMKG 082110Z 29009KT 10SM SCT045 24/13 A2995 600 49 1900 300/09 RMK AO2
14840KMKG MKG20060608161509606/08/06 16:15:31  5-MIN KMKG 082115Z 29010KT 10SM SCT045 24/13 A2995 600 47 1900 290/10 RMK AO2
14840KMKG MKG20060608162009606/08/06 16:20:31  5-MIN KMKG 082120Z 29009KT 10SM SCT045 24/13 A2995 600 49 1900 300/09 RMK AO2
14840KMKG MKG20060608162509606/08/06 16:25:31  5-MIN KMKG 082125Z 30008KT 10SM SCT045 25/13 A2995 610 48 1900 300/08 RMK AO2
14840KMKG MKG20060608163011206/08/06 16:30:31  5-MIN KMKG 082130Z 31008KT 290V360 10SM SCT045 25/13 A2995 600 48 1900 320/08 290V360 RMK AO2
14840KMKG MKG20060608163509606/08/06 16:35:31  5-MIN KMKG 082135Z 31010KT 10SM SCT045 25/13 A2995 600 48 1900 310/10 RMK AO2
14840KMKG MKG20060608164009606/08/06 16:40:31  5-MIN KMKG 082140Z 30012KT 10SM SCT045 25/12 A2995 600 44 1900 300/12 RMK AO2
14840KMKG MKG20060608164509606/08/06 16:45:31  5-MIN KMKG 082145Z 30009KT 10SM SCT045 24/13 A2995 600 47 1900 310/09 RMK AO2
14840KMKG MKG20060608165011306/08/06 16:50:31  5-MIN KMKG 082150Z 30009KT 10SM SCT045 24/13 A2995 600 47 1900 310/09 RMK AO2 SLP139 T02440128
14840KMKG MKG20060608165511306/08/06 16:55:31  5-MIN KMKG 082155Z 30009KT 10SM FEW045 24/13 A2995 600 49 1900 310/09 RMK AO2 SLP140 T02440133
14840KMKG MKG20060608170009306/08/06 17:00:31  5-MIN KMKG 082200Z 30010KT 10SM CLR 24/13 A2995 600 47 1900 300/10 RMK AO2
14840KMKG MKG20060608170509606/08/06 17:05:31  5-MIN KMKG 082205Z 30009KT 10SM FEW046 24/13 A2995 600 49 1900 300/09 RMK AO2
14840KMKG MKG20060608171009606/08/06 17:10:31  5-MIN KMKG 082210Z 30010KT 10SM FEW046 24/13 A2995 600 51 1800 300/10 RMK AO2
14840KMKG MKG20060608171509606/08/06 17:15:31  5-MIN KMKG 082215Z 30012KT 10SM FEW046 24/13 A2995 600 51 1800 300/12 RMK AO2
14840KMKG MKG20060608172009606/08/06 17:20:31  5-MIN KMKG 082220Z 30011KT 10SM FEW046 23/13 A2995 600 53 1700 310/11 RMK AO2
14840KMKG MKG20060608172509606/08/06 17:25:31  5-MIN KMKG 082225Z 30011KT 10SM FEW046 23/13 A2995 600 53 1700 300/11 RMK AO2
14840KMKG MKG20060608173009606/08/06 17:30:31  5-MIN KMKG 082230Z 30010KT 10SM FEW046 23/13 A2995 600 53 1700 300/10 RMK AO2
14840KMKG MKG20060608173509606/08/06 17:35:31  5-MIN KMKG 082235Z 30010KT 10SM FEW046 23/13 A2995 600 53 1700 310/10 RMK AO2
14840KMKG MKG20060608174009606/08/06 17:40:31  5-MIN KMKG 082240Z 30009KT 10SM FEW046 23/13 A2995 600 53 1800 300/09 RMK AO2
14840KMKG MKG20060608174509606/08/06 17:45:31  5-MIN KMKG 082245Z 30010KT 10SM FEW046 23/13 A2995 600 53 1700 300/10 RMK AO2
14840KMKG MKG20060608175011306/08/06 17:50:31  5-MIN KMKG 082250Z 30011KT 10SM FEW046 23/13 A2995 610 55 1700 310/11 RMK AO2 SLP140 T02280133
14840KMKG MKG20060608175511306/08/06 17:55:31  5-MIN KMKG 082255Z 30010KT 10SM FEW046 23/14 A2995 600 57 1700 300/10 RMK AO2 SLP140 T02280139
14840KMKG MKG20060608180009306/08/06 18:00:31  5-MIN KMKG 082300Z 30010KT 10SM CLR 23/13 A2995 610 55 1700 300/10 RMK AO2
14840KMKG MKG20060608180509306/08/06 18:05:31  5-MIN KMKG 082305Z 30009KT 10SM CLR 23/13 A2995 600 55 1700 310/09 RMK AO2
14840KMKG MKG20060608181009306/08/06 18:10:31  5-MIN KMKG 082310Z 30009KT 10SM CLR 22/13 A2995 600 56 1600 300/09 RMK AO2
14840KMKG MKG20060608181509306/08/06 18:15:31  5-MIN KMKG 082315Z 29010KT 10SM CLR 22/13 A2995 610 56 1600 300/10 RMK AO2
14840KMKG MKG20060608182009306/08/06 18:20:31  5-MIN KMKG 082320Z 29009KT 10SM CLR 22/13 A2995 610 56 1600 300/09 RMK AO2
14840KMKG MKG20060608182509306/08/06 18:25:31  5-MIN KMKG 082325Z 29008KT 10SM CLR 22/13 A2995 610 56 1600 300/08 RMK AO2
14840KMKG MKG20060608183009306/08/06 18:30:31  5-MIN KMKG 082330Z 30007KT 10SM CLR 22/13 A2995 610 58 1600 310/07 RMK AO2
14840KMKG MKG20060608183509306/08/06 18:35:31  5-MIN KMKG 082335Z 30007KT 10SM CLR 22/13 A2995 600 58 1600 300/07 RMK AO2
14840KMKG MKG20060608184009306/08/06 18:40:31  5-MIN KMKG 082340Z 30006KT 10SM CLR 22/13 A2995 600 58 1600 300/06 RMK AO2
14840KMKG MKG20060608184509306/08/06 18:45:31  5-MIN KMKG 082345Z 30006KT 10SM CLR 22/13 A2995 600 58 1600 310/06 RMK AO2
14840KMKG MKG20060608185013106/08/06 18:50:31  5-MIN KMKG 082350Z 30007KT 10SM FEW045 21/14 A2995 600 63 1500 300/07 RMK AO2 SLP141 T02110139 10256 20211 56011
14840KMKG MKG20060608185513106/08/06 18:55:31  5-MIN KMKG 082355Z 30005KT 10SM FEW045 21/14 A2995 600 63 1500 300/05 RMK AO2 SLP141 T02110139 10256 20211 55000
14840KMKG MKG20060608190009306/08/06 19:00:31  5-MIN KMKG 090000Z 30006KT 10SM CLR 21/14 A2995 600 63 1500 300/06 RMK AO2
14840KMKG MKG20060608190509306/08/06 19:05:31  5-MIN KMKG 090005Z 29005KT 10SM CLR 21/14 A2995 600 63 1500 300/05 RMK AO2
14840KMKG MKG20060608191009306/08/06 19:10:31  5-MIN KMKG 090010Z 29004KT 10SM CLR 21/14 A2995 600 63 1500 300/04 RMK AO2
14840KMKG MKG20060608191509306/08/06 19:15:31  5-MIN KMKG 090015Z 29005KT 10SM CLR 21/14 A2995 600 65 1500 300/05 RMK AO2
14840KMKG MKG20060608192009306/08/06 19:20:31  5-MIN KMKG 090020Z 30004KT 10SM CLR 21/14 A2996 600 63 1500 310/04 RMK AO2
14840KMKG MKG20060608192509306/08/06 19:25:31  5-MIN KMKG 090025Z 30004KT 10SM CLR 21/14 A2996 600 65 1500 300/04 RMK AO2
14840KMKG MKG20060608193009306/08/06 19:30:31  5-MIN KMKG 090030Z 29005KT 10SM CLR 21/14 A2996 600 67 1400 290/05 RMK AO2
14840KMKG MKG20060608193509306/08/06 19:35:31  5-MIN KMKG 090035Z 29004KT 10SM CLR 21/14 A2995 600 67 1400 290/04 RMK AO2
14840KMKG MKG20060608194009306/08/06 19:40:31  5-MIN KMKG 090040Z 29003KT 10SM CLR 21/14 A2995 600 67 1400 290/03 RMK AO2
14840KMKG MKG20060608194509306/08/06 19:45:31  5-MIN KMKG 090045Z 00000KT 10SM CLR 21/14 A2995 600 67 1400 000/00 RMK AO2
14840KMKG MKG20060608195011006/08/06 19:50:31  5-MIN KMKG 090050Z 25003KT 10SM CLR 20/14 A2995 600 70 1400 250/03 RMK AO2 SLP140 T02000144
14840KMKG MKG20060608195511306/08/06 19:55:31  5-MIN KMKG 090055Z 24004KT 10SM FEW075 19/14 A2995 600 75 1200 250/04 RMK AO2 SLP141 T01890144
14840KMKG MKG20060608200009306/08/06 20:00:31  5-MIN KMKG 090100Z 24004KT 10SM CLR 18/14 A2995 600 78 1200 240/04 RMK AO2
14840KMKG MKG20060608200509306/08/06 20:05:31  5-MIN KMKG 090105Z 25003KT 10SM CLR 18/14 A2995 600 78 1200 250/03 RMK AO2
14840KMKG MKG20060608201009306/08/06 20:10:31  5-MIN KMKG 090110Z 27003KT 10SM CLR 18/14 A2995 600 78 1200 270/03 RMK AO2
14840KMKG MKG20060608201509306/08/06 20:15:31  5-MIN KMKG 090115Z 27003KT 10SM CLR 18/14 A2995 600 81 1100 270/03 RMK AO2
14840KMKG MKG20060608202009306/08/06 20:20:31  5-MIN KMKG 090120Z 27003KT 10SM CLR 18/14 A2995 600 81 1100 270/03 RMK AO2
14840KMKG MKG20060608202509306/08/06 20:25:31  5-MIN KMKG 090125Z 28004KT 10SM CLR 18/14 A2995 600 81 1100 280/04 RMK AO2
14840KMKG MKG20060608203009306/08/06 20:30:31  5-MIN KMKG 090130Z 29003KT 10SM CLR 18/14 A2996 600 81 1100 300/03 RMK AO2
14840KMKG MKG20060608203509306/08/06 20:35:31  5-MIN KMKG 090135Z 30003KT 10SM CLR 18/14 A2996 590 81 1100 300/03 RMK AO2
14840KMKG MKG20060608204009306/08/06 20:40:31  5-MIN KMKG 090140Z 30003KT 10SM CLR 18/14 A2996 590 81 1100 310/03 RMK AO2
14840KMKG MKG20060608204509306/08/06 20:45:31  5-MIN KMKG 090145Z 31003KT 10SM CLR 18/14 A2996 600 78 1100 310/03 RMK AO2
14840KMKG MKG20060608205011006/08/06 20:50:31  5-MIN KMKG 090150Z 32003KT 10SM CLR 17/14 A2996 590 83 1000 320/03 RMK AO2 SLP144 T01670139
14840KMKG MKG20060608205511006/08/06 20:55:31  5-MIN KMKG 090155Z 32004KT 10SM CLR 17/14 A2996 590 83 1000 320/04 RMK AO2 SLP144 T01670139
14840KMKG MKG20060608210009306/08/06 21:00:31  5-MIN KMKG 090200Z 32004KT 10SM CLR 18/14 A2996 600 78 1100 320/04 RMK AO2
14840KMKG MKG20060608210509306/08/06 21:05:31  5-MIN KMKG 090205Z 31004KT 10SM CLR 18/14 A2997 590 75 1200 320/04 RMK AO2
14840KMKG MKG20060608211009306/08/06 21:10:31  5-MIN KMKG 090210Z 31003KT 10SM CLR 18/14 A2997 580 78 1100 310/03 RMK AO2
14840KMKG MKG20060608211509306/08/06 21:15:31  5-MIN KMKG 090215Z 00000KT 10SM CLR 18/14 A2997 580 78 1100 000/00 RMK AO2
14840KMKG MKG20060608212009306/08/06 21:20:31  5-MIN KMKG 090220Z 35005KT 10SM CLR 18/14 A2997 580 78 1100 350/05 RMK AO2
14840KMKG MKG20060608212509306/08/06 21:25:31  5-MIN KMKG 090225Z 35005KT 10SM CLR 18/14 A2997 580 75 1100 360/05 RMK AO2
14840KMKG MKG20060608213009306/08/06 21:30:31  5-MIN KMKG 090230Z 36007KT 10SM CLR 19/14 A2998 580 72 1200 010/07 RMK AO2
14840KMKG MKG20060608213509306/08/06 21:35:31  5-MIN KMKG 090235Z 01009KT 10SM CLR 19/13 A2998 580 65 1300 010/09 RMK AO2
14840KMKG MKG20060608214009906/08/06 21:40:31  5-MIN KMKG 090240Z 01013G18KT 10SM CLR 20/12 A2998 570 58 1300 020/13G18 RMK AO2
14840KMKG MKG20060608214509906/08/06 21:45:31  5-MIN KMKG 090245Z 01011G18KT 10SM CLR 20/11 A2998 570 54 1300 020/11G18 RMK AO2
14840KMKG MKG20060608215011606/08/06 21:50:31  5-MIN KMKG 090250Z 02013KT 10SM CLR 20/10 A2999 570 52 1300 030/13 RMK AO2 SLP152 T02000100 55000
14840KMKG MKG20060608215512206/08/06 21:55:31  5-MIN KMKG 090255Z 01011G17KT 10SM CLR 20/09 A2999 570 50 1300 010/11G17 RMK AO2 SLP153 T02000094 53013
14840KMKG MKG20060608220009306/08/06 22:00:31  5-MIN KMKG 090300Z 02011KT 10SM CLR 19/09 A2999 560 52 1300 020/11 RMK AO2
14840KMKG MKG20060608220509306/08/06 22:05:31  5-MIN KMKG 090305Z 02011KT 10SM CLR 19/09 A2999 560 50 1300 030/11 RMK AO2
14840KMKG MKG20060608221009306/08/06 22:10:31  5-MIN KMKG 090310Z 02011KT 10SM CLR 19/09 A2999 560 50 1300 020/11 RMK AO2
14840KMKG MKG20060608221509306/08/06 22:15:31  5-MIN KMKG 090315Z 02010KT 10SM CLR 19/09 A2999 560 50 1300 020/10 RMK AO2
14840KMKG MKG20060608222009306/08/06 22:20:31  5-MIN KMKG 090320Z 01009KT 10SM CLR 19/09 A3000 560 52 1200 020/09 RMK AO2
14840KMKG MKG20060608222509306/08/06 22:25:31  5-MIN KMKG 090325Z 02010KT 10SM CLR 19/08 A3000 560 48 1200 020/10 RMK AO2
14840KMKG MKG20060608223009306/08/06 22:30:31  5-MIN KMKG 090330Z 02009KT 10SM CLR 19/08 A3000 560 50 1200 020/09 RMK AO2
14840KMKG MKG20060608223509306/08/06 22:35:31  5-MIN KMKG 090335Z 01008KT 10SM CLR 19/08 A3000 560 50 1200 020/08 RMK AO2
14840KMKG MKG20060608224009306/08/06 22:40:31  5-MIN KMKG 090340Z 01008KT 10SM CLR 19/08 A3000 560 50 1200 020/08 RMK AO2
14840KMKG MKG20060608224509306/08/06 22:45:31  5-MIN KMKG 090345Z 01009KT 10SM CLR 19/08 A3000 560 50 1200 010/09 RMK AO2
14840KMKG MKG20060608225011006/08/06 22:50:31  5-MIN KMKG 090350Z 01009KT 10SM CLR 18/09 A3000 550 54 1100 010/09 RMK AO2 SLP157 T01830089
14840KMKG MKG20060608225511606/08/06 22:55:31  5-MIN KMKG 090355Z 01010G16KT 10SM CLR 18/09 A3000 560 54 1100 010/10G16 RMK AO2 SLP157 T01830089
14840KMKG MKG20060608230009906/08/06 23:00:31  5-MIN KMKG 090400Z 01010G16KT 10SM CLR 18/09 A3000 550 54 1100 020/10G16 RMK AO2
14840KMKG MKG20060608230509306/08/06 23:05:31  5-MIN KMKG 090405Z 02010KT 10SM CLR 18/09 A3001 550 54 1100 020/10 RMK AO2
14840KMKG MKG20060608231009306/08/06 23:10:31  5-MIN KMKG 090410Z 02010KT 10SM CLR 18/09 A3001 550 54 1100 020/10 RMK AO2
14840KMKG MKG20060608231509906/08/06 23:15:31  5-MIN KMKG 090415Z 01013G17KT 10SM CLR 18/09 A3000 560 54 1100 020/13G17 RMK AO2
14840KMKG MKG20060608232009906/08/06 23:20:31  5-MIN KMKG 090420Z 02010G17KT 10SM CLR 18/09 A3001 550 54 1100 020/10G17 RMK AO2
14840KMKG MKG20060608232509306/08/06 23:25:31  5-MIN KMKG 090425Z 01009KT 10SM CLR 18/09 A3001 550 55 1000 020/09 RMK AO2
14840KMKG MKG20060608233009306/08/06 23:30:31  5-MIN KMKG 090430Z 01010KT 10SM CLR 18/09 A3000 550 55 1000 010/10 RMK AO2
14840KMKG MKG20060608233509306/08/06 23:35:31  5-MIN KMKG 090435Z 02009KT 10SM CLR 18/09 A3000 550 55 1000 020/09 RMK AO2
14840KMKG MKG20060608234009306/08/06 23:40:31  5-MIN KMKG 090440Z 01009KT 10SM CLR 17/09 A3000 550 60 1000 020/09 RMK AO2
14840KMKG MKG20060608234509306/08/06 23:45:31  5-MIN KMKG 090445Z 01009KT 10SM CLR 18/09 A3001 550 58 1000 020/09 RMK AO2
14840KMKG MKG20060608235012006/08/06 23:50:31  5-MIN KMKG 090450Z 01010KT 10SM CLR 17/09 A3001 540 60 1000 010/10 RMK AO2 SLP161 T01720094 402560144
14840KMKG MKG20060608235512006/08/06 23:55:31  5-MIN KMKG 090455Z 01012KT 10SM CLR 17/09 A3001 540 60 1000 020/12 RMK AO2 SLP162 T01720094 402560144
14840KMKG MKG20060609000009906/09/06 00:00:32  5-MIN KMKG 090500Z 02012G19KT 10SM CLR 17/09 A3002 540 60 1000 030/12G19 RMK AO2
14840KMKG MKG20060609000509906/09/06 00:05:31  5-MIN KMKG 090505Z 02014G19KT 10SM CLR 17/10 A3002 540 62 1000 020/14G19 RMK AO2
14840KMKG MKG20060609001009806/09/06 00:10:31  5-MIN KMKG 090510Z 02012G18KT 10SM CLR 17/10 A3002 540 64 900 020/12G18 RMK AO2
14840KMKG MKG20060609001509806/09/06 00:15:31  5-MIN KMKG 090515Z 02009G18KT 10SM CLR 17/10 A3002 540 64 900 020/09G18 RMK AO2
14840KMKG MKG20060609002009206/09/06 00:20:31  5-MIN KMKG 090520Z 02007KT 10SM CLR 17/10 A3002 540 64 900 020/07 RMK AO2
14840KMKG MKG20060609002509206/09/06 00:25:31  5-MIN KMKG 090525Z 02009KT 10SM CLR 16/10 A3001 550 67 800 020/09 RMK AO2
14840KMKG MKG20060609003009206/09/06 00:30:31  5-MIN KMKG 090530Z 01009KT 10SM CLR 16/10 A3001 540 67 800 010/09 RMK AO2
14840KMKG MKG20060609003509206/09/06 00:35:31  5-MIN KMKG 090535Z 03009KT 10SM CLR 16/10 A3001 550 67 800 030/09 RMK AO2
14840KMKG MKG20060609004009806/09/06 00:40:31  5-MIN KMKG 090540Z 02010G15KT 10SM CLR 16/10 A3001 550 67 800 020/10G15 RMK AO2
14840KMKG MKG20060609004509806/09/06 00:45:31  5-MIN KMKG 090545Z 02009G15KT 10SM CLR 16/10 A3001 550 67 800 030/09G15 RMK AO2
14840KMKG MKG20060609005013306/09/06 00:50:31  5-MIN KMKG 090550Z 02008G16KT 10SM CLR 16/10 A3001 550 67 800 030/08G16 RMK AO2 SLP160 T01610100 10211 20161 53013
14840KMKG MKG20060609005513306/09/06 00:55:31  5-MIN KMKG 090555Z 02009G16KT 10SM CLR 16/10 A3001 550 67 800 030/09G16 RMK AO2 SLP160 T01610100 10211 20161 50007
14840KMKG MKG20060609010009306/09/06 01:00:31  5-MIN KMKG 090600Z 02007KT 10SM CLR 17/10 A3001 540 62 1000 020/07 RMK AO2
14840KMKG MKG20060609010509206/09/06 01:05:31  5-MIN KMKG 090605Z 02010KT 10SM CLR 16/10 A3001 550 67 800 020/10 RMK AO2
14840KMKG MKG20060609011009206/09/06 01:10:31  5-MIN KMKG 090610Z 02009KT 10SM CLR 16/10 A3001 540 69 800 030/09 RMK AO2
14840KMKG MKG20060609011509206/09/06 01:15:31  5-MIN KMKG 090615Z 02008KT 10SM CLR 16/10 A3001 550 69 800 030/08 RMK AO2
14840KMKG MKG20060609012009206/09/06 01:20:31  5-MIN KMKG 090620Z 02007KT 10SM CLR 16/10 A3001 550 69 800 020/07 RMK AO2
14840KMKG MKG20060609012509206/09/06 01:25:31  5-MIN KMKG 090625Z 01008KT 10SM CLR 16/10 A3001 540 69 800 020/08 RMK AO2
14840KMKG MKG20060609013009206/09/06 01:30:31  5-MIN KMKG 090630Z 01009KT 10SM CLR 15/10 A3001 540 72 700 010/09 RMK AO2
14840KMKG MKG20060609013509206/09/06 01:35:31  5-MIN KMKG 090635Z 02010KT 10SM CLR 15/10 A3001 540 72 700 020/10 RMK AO2
14840KMKG MKG20060609014009206/09/06 01:40:31  5-MIN KMKG 090640Z 01009KT 10SM CLR 15/10 A3001 540 72 700 010/09 RMK AO2
14840KMKG MKG20060609014509206/09/06 01:45:31  5-MIN KMKG 090645Z 01011KT 10SM CLR 15/10 A3001 540 72 700 020/11 RMK AO2
14840KMKG MKG20060609015010906/09/06 01:50:31  5-MIN KMKG 090650Z 01008KT 10SM CLR 15/10 A3002 540 72 700 020/08 RMK AO2 SLP162 T01500100
14840KMKG MKG20060609015510906/09/06 01:55:31  5-MIN KMKG 090655Z 01008KT 10SM CLR 15/09 A3002 540 69 700 020/08 RMK AO2 SLP162 T01500094
14840KMKG MKG20060609020009206/09/06 02:00:31  5-MIN KMKG 090700Z 01009KT 10SM CLR 15/09 A3002 540 69 700 010/09 RMK AO2
14840KMKG MKG20060609020509206/09/06 02:05:31  5-MIN KMKG 090705Z 01010KT 10SM CLR 15/09 A3002 540 69 700 020/10 RMK AO2
14840KMKG MKG20060609021009206/09/06 02:10:31  5-MIN KMKG 090710Z 36008KT 10SM CLR 15/09 A3002 540 69 700 010/08 RMK AO2
14840KMKG MKG20060609021509206/09/06 02:15:31  5-MIN KMKG 090715Z 01010KT 10SM CLR 15/09 A3002 540 69 700 010/10 RMK AO2
14840KMKG MKG20060609022009206/09/06 02:20:31  5-MIN KMKG 090720Z 36009KT 10SM CLR 14/09 A3002 540 72 600 010/09 RMK AO2
14840KMKG MKG20060609022509206/09/06 02:25:31  5-MIN KMKG 090725Z 01009KT 10SM CLR 15/09 A3002 540 69 700 010/09 RMK AO2
14840KMKG MKG20060609023009206/09/06 02:30:31  5-MIN KMKG 090730Z 01012KT 10SM CLR 15/09 A3002 540 69 700 010/12 RMK AO2
14840KMKG MKG20060609023509206/09/06 02:35:31  5-MIN KMKG 090735Z 36010KT 10SM CLR 15/09 A3002 540 69 700 010/10 RMK AO2
14840KMKG MKG20060609024009206/09/06 02:40:31  5-MIN KMKG 090740Z 01010KT 10SM CLR 14/09 A3002 540 72 600 010/10 RMK AO2
14840KMKG MKG20060609024509206/09/06 02:45:31  5-MIN KMKG 090745Z 36008KT 10SM CLR 14/10 A3002 540 74 600 360/08 RMK AO2
14840KMKG MKG20060609025010906/09/06 02:50:31  5-MIN KMKG 090750Z 35009KT 10SM CLR 14/10 A3002 540 74 600 350/09 RMK AO2 SLP162 T01440100
14840KMKG MKG20060609025510906/09/06 02:55:31  5-MIN KMKG 090755Z 35009KT 10SM CLR 14/10 A3002 540 74 600 350/09 RMK AO2 SLP163 T01440100
14840KMKG MKG20060609030009206/09/06 03:00:31  5-MIN KMKG 090800Z 34009KT 10SM CLR 14/10 A3002 540 74 600 350/09 RMK AO2
14840KMKG MKG20060609030509206/09/06 03:05:31  5-MIN KMKG 090805Z 34010KT 10SM CLR 14/10 A3003 530 77 600 350/10 RMK AO2
14840KMKG MKG20060609031009206/09/06 03:10:31  5-MIN KMKG 090810Z 35008KT 10SM CLR 14/09 A3003 530 72 600 350/08 RMK AO2
14840KMKG MKG20060609031509806/09/06 03:15:31  5-MIN KMKG 090815Z 35010G16KT 10SM CLR 14/09 A3002 530 74 600 360/10G16 RMK AO2
14840KMKG MKG20060609032009806/09/06 03:20:31  5-MIN KMKG 090820Z 35009G16KT 10SM CLR 14/09 A3002 540 74 600 350/09G16 RMK AO2
14840KMKG MKG20060609032509206/09/06 03:25:31  5-MIN KMKG 090825Z 35009KT 10SM CLR 14/09 A3002 530 74 600 360/09 RMK AO2
14840KMKG MKG20060609033009206/09/06 03:30:31  5-MIN KMKG 090830Z 36008KT 10SM CLR 14/09 A3002 540 74 600 360/08 RMK AO2
14840KMKG MKG20060609033509206/09/06 03:35:31  5-MIN KMKG 090835Z 36008KT 10SM CLR 14/09 A3002 540 74 600 360/08 RMK AO2
14840KMKG MKG20060609034009206/09/06 03:40:31  5-MIN KMKG 090840Z 36008KT 10SM CLR 14/09 A3002 540 74 600 360/08 RMK AO2
14840KMKG MKG20060609034509206/09/06 03:45:31  5-MIN KMKG 090845Z 36009KT 10SM CLR 14/09 A3002 540 74 600 360/09 RMK AO2
14840KMKG MKG20060609035011506/09/06 03:50:31  5-MIN KMKG 090850Z 36008KT 10SM CLR 14/09 A3002 540 74 600 360/08 RMK AO2 SLP164 T01390094 50007
14840KMKG MKG20060609035511506/09/06 03:55:31  5-MIN KMKG 090855Z 35009KT 10SM CLR 13/09 A3002 540 77 500 350/09 RMK AO2 SLP165 T01330094 51003
14840KMKG MKG20060609040009206/09/06 04:00:31  5-MIN KMKG 090900Z 01008KT 10SM CLR 13/09 A3002 530 77 500 010/08 RMK AO2
14840KMKG MKG20060609040509206/09/06 04:05:31  5-MIN KMKG 090905Z 35007KT 10SM CLR 13/09 A3002 540 77 500 360/07 RMK AO2
14840KMKG MKG20060609041009206/09/06 04:10:31  5-MIN KMKG 090910Z 01007KT 10SM CLR 13/09 A3002 540 74 500 010/07 RMK AO2
14840KMKG MKG20060609041509206/09/06 04:15:31  5-MIN KMKG 090915Z 36008KT 10SM CLR 13/09 A3002 540 74 500 010/08 RMK AO2
14840KMKG MKG20060609042009206/09/06 04:20:31  5-MIN KMKG 090920Z 36007KT 10SM CLR 13/09 A3002 540 74 500 010/07 RMK AO2
14840KMKG MKG20060609042509206/09/06 04:25:31  5-MIN KMKG 090925Z 35007KT 10SM CLR 13/09 A3002 540 74 500 350/07 RMK AO2
14840KMKG MKG20060609043009206/09/06 04:30:31  5-MIN KMKG 090930Z 35007KT 10SM CLR 13/09 A3002 540 74 500 350/07 RMK AO2
14840KMKG MKG20060609043509206/09/06 04:35:31  5-MIN KMKG 090935Z 36005KT 10SM CLR 13/09 A3002 540 74 500 360/05 RMK AO2
14840KMKG MKG20060609044009206/09/06 04:40:31  5-MIN KMKG 090940Z 01009KT 10SM CLR 13/09 A3002 540 74 500 010/09 RMK AO2
14840KMKG MKG20060609044509206/09/06 04:45:31  5-MIN KMKG 090945Z 36010KT 10SM CLR 13/09 A3002 530 74 500 010/10 RMK AO2
14840KMKG MKG20060609045010906/09/06 04:50:31  5-MIN KMKG 090950Z 01009KT 10SM CLR 13/09 A3002 540 74 500 010/09 RMK AO2 SLP165 T01330089
14840KMKG MKG20060609045510906/09/06 04:55:31  5-MIN KMKG 090955Z 36009KT 10SM CLR 13/09 A3002 530 74 500 360/09 RMK AO2 SLP166 T01330089
14840KMKG MKG20060609050009206/09/06 05:00:31  5-MIN KMKG 091000Z 36007KT 10SM CLR 13/09 A3003 530 74 500 010/07 RMK AO2
14840KMKG MKG20060609050509206/09/06 05:05:31  5-MIN KMKG 091005Z 35009KT 10SM CLR 13/09 A3003 530 74 500 360/09 RMK AO2
14840KMKG MKG20060609051009206/09/06 05:10:31  5-MIN KMKG 091010Z 36007KT 10SM CLR 13/09 A3003 530 74 500 360/07 RMK AO2
14840KMKG MKG20060609051509206/09/06 05:15:31  5-MIN KMKG 091015Z 36009KT 10SM CLR 13/09 A3003 530 74 500 360/09 RMK AO2
14840KMKG MKG20060609052009206/09/06 05:20:31  5-MIN KMKG 091020Z 36008KT 10SM CLR 13/09 A3003 520 74 500 360/08 RMK AO2
14840KMKG MKG20060609052509206/09/06 05:25:31  5-MIN KMKG 091025Z 36010KT 10SM CLR 13/09 A3004 520 74 500 360/10 RMK AO2
14840KMKG MKG20060609053009206/09/06 05:30:31  5-MIN KMKG 091030Z 36009KT 10SM CLR 13/09 A3003 530 74 500 360/09 RMK AO2
14840KMKG MKG20060609053509206/09/06 05:35:31  5-MIN KMKG 091035Z 36009KT 10SM CLR 13/09 A3003 530 74 500 360/09 RMK AO2
14840KMKG MKG20060609054009206/09/06 05:40:31  5-MIN KMKG 091040Z 36008KT 10SM CLR 13/09 A3003 530 74 500 360/08 RMK AO2
14840KMKG MKG20060609054509206/09/06 05:45:31  5-MIN KMKG 091045Z 01010KT 10SM CLR 13/09 A3004 520 77 500 010/10 RMK AO2
14840KMKG MKG20060609055010906/09/06 05:50:31  5-MIN KMKG 091050Z 36009KT 10SM CLR 13/09 A3004 520 77 500 360/09 RMK AO2 SLP170 T01330094
14840KMKG MKG20060609055510906/09/06 05:55:31  5-MIN KMKG 091055Z 36008KT 10SM CLR 13/09 A3004 520 77 500 360/08 RMK AO2 SLP172 T01330094
14840KMKG MKG20060609060009506/09/06 06:00:31  5-MIN KMKG 091100Z 36010KT 10SM FEW110 13/09 A3004 520 77 500 360/10 RMK AO2
14840KMKG MKG20060609060509506/09/06 06:05:31  5-MIN KMKG 091105Z 36008KT 10SM SCT110 13/09 A3004 520 77 500 360/08 RMK AO2
14840KMKG MKG20060609061009506/09/06 06:10:31  5-MIN KMKG 091110Z 01007KT 10SM BKN110 13/09 A3004 520 77 500 020/07 RMK AO2
14840KMKG MKG20060609061509506/09/06 06:15:31  5-MIN KMKG 091115Z 36007KT 10SM BKN110 13/09 A3004 520 77 500 010/07 RMK AO2
14840KMKG MKG20060609062009506/09/06 06:20:31  5-MIN KMKG 091120Z 02007KT 10SM BKN110 13/09 A3004 520 77 500 020/07 RMK AO2
14840KMKG MKG20060609062509506/09/06 06:25:31  5-MIN KMKG 091125Z 01010KT 10SM BKN110 13/09 A3005 510 77 500 010/10 RMK AO2
14840KMKG MKG20060609063009506/09/06 06:30:31  5-MIN KMKG 091130Z 36010KT 10SM BKN120 13/09 A3005 510 77 500 010/10 RMK AO2
14840KMKG MKG20060609063509506/09/06 06:35:31  5-MIN KMKG 091135Z 36011KT 10SM BKN120 13/09 A3005 510 77 500 360/11 RMK AO2
14840KMKG MKG20060609064009506/09/06 06:40:31  5-MIN KMKG 091140Z 01010KT 10SM BKN120 13/09 A3005 510 77 500 010/10 RMK AO2
14840KMKG MKG20060609064509506/09/06 06:45:31  5-MIN KMKG 091145Z 36010KT 10SM BKN120 14/09 A3005 510 74 500 360/10 RMK AO2
14840KMKG MKG20060609065013006/09/06 06:50:31  5-MIN KMKG 091150Z 36008KT 10SM SCT120 14/09 A3006 510 74 500 010/08 RMK AO2 SLP176 T01390094 10172 20133 51003
14840KMKG MKG20060609065513006/09/06 06:55:31  5-MIN KMKG 091155Z 36008KT 10SM SCT120 14/09 A3005 510 74 500 010/08 RMK AO2 SLP176 T01390094 10172 20133 53011
14840KMKG MKG20060609070009506/09/06 07:00:31  5-MIN KMKG 091200Z 01008KT 10SM FEW120 14/09 A3005 510 74 500 010/08 RMK AO2
14840KMKG MKG20060609070509506/09/06 07:05:31  5-MIN KMKG 091205Z 01007KT 10SM FEW120 14/10 A3005 510 77 500 020/07 RMK AO2
14840KMKG MKG20060609071009206/09/06 07:10:31  5-MIN KMKG 091210Z 36010KT 10SM CLR 14/10 A3004 520 77 500 010/10 RMK AO2
14840KMKG MKG20060609071509206/09/06 07:15:31  5-MIN KMKG 091215Z 01010KT 10SM CLR 14/09 A3005 510 74 500 020/10 RMK AO2
14840KMKG MKG20060609072009206/09/06 07:20:31  5-MIN KMKG 091220Z 02010KT 10SM CLR 14/10 A3004 520 77 500 020/10 RMK AO2
14840KMKG MKG20060609072509206/09/06 07:25:31  5-MIN KMKG 091225Z 01010KT 10SM CLR 14/10 A3004 520 77 500 010/10 RMK AO2
14840KMKG MKG20060609073009206/09/06 07:30:31  5-MIN KMKG 091230Z 02011KT 10SM CLR 14/10 A3004 520 77 600 020/11 RMK AO2
14840KMKG MKG20060609073509206/09/06 07:35:31  5-MIN KMKG 091235Z 02008KT 10SM CLR 14/10 A3004 520 77 600 020/08 RMK AO2
14840KMKG MKG20060609074009206/09/06 07:40:31  5-MIN KMKG 091240Z 03011KT 10SM CLR 14/10 A3004 520 77 600 030/11 RMK AO2
14840KMKG MKG20060609074509506/09/06 07:45:31  5-MIN KMKG 091245Z 01009KT 10SM SCT120 14/10 A3004 520 77 500 020/09 RMK AO2
14840KMKG MKG20060609075011206/09/06 07:50:31  5-MIN KMKG 091250Z 02009KT 10SM SCT120 14/10 A3004 520 77 500 020/09 RMK AO2 SLP172 T01390100
14840KMKG MKG20060609075511206/09/06 07:55:31  5-MIN KMKG 091255Z 02008KT 10SM SCT120 14/10 A3004 520 77 600 020/08 RMK AO2 SLP172 T01390100
14840KMKG MKG20060609080009206/09/06 08:00:31  5-MIN KMKG 091300Z 01009KT 10SM CLR 14/10 A3004 520 77 600 020/09 RMK AO2
14840KMKG MKG20060609080509206/09/06 08:05:31  5-MIN KMKG 091305Z 02009KT 10SM CLR 14/10 A3004 520 74 600 020/09 RMK AO2
14840KMKG MKG20060609081009206/09/06 08:10:31  5-MIN KMKG 091310Z 01008KT 10SM CLR 14/10 A3004 520 74 600 010/08 RMK AO2
14840KMKG MKG20060609081509206/09/06 08:15:31  5-MIN KMKG 091315Z 36007KT 10SM CLR 14/10 A3005 510 74 600 360/07 RMK AO2
14840KMKG MKG20060609082009206/09/06 08:20:31  5-MIN KMKG 091320Z 02006KT 10SM CLR 15/11 A3004 520 74 700 020/06 RMK AO2
14840KMKG MKG20060609082509206/09/06 08:25:31  5-MIN KMKG 091325Z 35007KT 10SM CLR 16/11 A3005 510 72 700 350/07 RMK AO2
14840KMKG MKG20060609083009206/09/06 08:30:31  5-MIN KMKG 091330Z 35008KT 10SM CLR 16/11 A3005 510 72 700 350/08 RMK AO2
14840KMKG MKG20060609083509206/09/06 08:35:31  5-MIN KMKG 091335Z 36009KT 10SM CLR 16/11 A3005 510 69 800 010/09 RMK AO2
14840KMKG MKG20060609084009806/09/06 08:40:31  5-MIN KMKG 091340Z 01011G16KT 10SM CLR 16/11 A3005 510 69 800 010/11G16 RMK AO2
14840KMKG MKG20060609084509806/09/06 08:45:31  5-MIN KMKG 091345Z 01009G16KT 10SM CLR 17/10 A3005 510 64 900 020/09G16 RMK AO2
14840KMKG MKG20060609085010906/09/06 08:50:31  5-MIN KMKG 091350Z 02010KT 10SM CLR 17/10 A3005 510 64 900 020/10 RMK AO2 SLP175 T01670100
14840KMKG MKG20060609085510906/09/06 08:55:31  5-MIN KMKG 091355Z 03010KT 10SM CLR 17/11 A3005 510 67 900 040/10 RMK AO2 SLP175 T01670106
14840KMKG MKG20060609090009206/09/06 09:00:31  5-MIN KMKG 091400Z 01011KT 10SM CLR 17/11 A3004 520 64 900 010/11 RMK AO2
14840KMKG MKG20060609090509206/09/06 09:05:31  5-MIN KMKG 091405Z 01010KT 10SM CLR 17/11 A3004 520 64 900 010/10 RMK AO2
14840KMKG MKG20060609091009306/09/06 09:10:31  5-MIN KMKG 091410Z 03009KT 10SM CLR 18/11 A3004 520 62 1000 030/09 RMK AO2
14840KMKG MKG20060609091509306/09/06 09:15:31  5-MIN KMKG 091415Z 01010KT 10SM CLR 18/11 A3004 520 62 1000 010/10 RMK AO2
14840KMKG MKG20060609092009306/09/06 09:20:31  5-MIN KMKG 091420Z 01009KT 10SM CLR 18/11 A3005 520 62 1000 010/09 RMK AO2
14840KMKG MKG20060609092509306/09/06 09:25:31  5-MIN KMKG 091425Z 02009KT 10SM CLR 18/11 A3005 520 60 1100 020/09 RMK AO2
14840KMKG MKG20060609093009306/09/06 09:30:31  5-MIN KMKG 091430Z 35010KT 10SM CLR 18/11 A3004 520 60 1100 350/10 RMK AO2
14840KMKG MKG20060609093509606/09/06 09:35:31  5-MIN KMKG 091435Z 35009KT 10SM FEW038 18/11 A3004 520 60 1100 360/09 RMK AO2
14840KMKG MKG20060609094009606/09/06 09:40:31  5-MIN KMKG 091440Z 35010KT 10SM FEW038 19/11 A3004 520 58 1100 350/10 RMK AO2
14840KMKG MKG20060609094509606/09/06 09:45:31  5-MIN KMKG 091445Z 01011KT 10SM FEW038 19/10 A3004 520 56 1100 010/11 RMK AO2
14840KMKG MKG20060609095013506/09/06 09:50:31  5-MIN KMKG 091450Z 36009KT 330V030 10SM FEW038 19/10 A3004 520 56 1100 010/09 330V030 RMK AO2 SLP171 T01890100 53011
14840KMKG MKG20060609095511906/09/06 09:55:31  5-MIN KMKG 091455Z 02011KT 10SM FEW038 19/10 A3004 520 54 1200 020/11 RMK AO2 SLP171 T01940100 56004
14840KMKG MKG20060609100009606/09/06 10:00:31  5-MIN KMKG 091500Z 02011KT 10SM FEW038 19/10 A3004 520 54 1200 020/11 RMK AO2
14840KMKG MKG20060609100510206/09/06 10:05:31  5-MIN KMKG 091505Z 03011G15KT 10SM FEW036 19/10 A3004 520 54 1200 030/11G15 RMK AO2
14840KMKG MKG20060609101010206/09/06 10:10:31  5-MIN KMKG 091510Z 02009G15KT 10SM FEW036 19/09 A3004 520 52 1200 030/09G15 RMK AO2
14840KMKG MKG20060609101509606/09/06 10:15:31  5-MIN KMKG 091515Z 02008KT 10SM FEW036 19/09 A3004 520 52 1200 030/08 RMK AO2
14840KMKG MKG20060609102009606/09/06 10:20:31  5-MIN KMKG 091520Z 05009KT 10SM FEW036 20/09 A3004 520 50 1300 060/09 RMK AO2
14840KMKG MKG20060609102509606/09/06 10:25:31  5-MIN KMKG 091525Z 35009KT 10SM FEW036 20/09 A3004 520 50 1300 360/09 RMK AO2
14840KMKG MKG20060609103011206/09/06 10:30:31  5-MIN KMKG 091530Z 02009KT 340V060 10SM FEW036 21/09 A3004 520 48 1300 030/09 340V060 RMK AO2
14840KMKG MKG20060609103510206/09/06 10:35:31  5-MIN KMKG 091535Z 36008G15KT 10SM FEW036 20/09 A3004 520 50 1300 360/08G15 RMK AO2
14840KMKG MKG20060609104010206/09/06 10:40:31  5-MIN KMKG 091540Z 03008G15KT 10SM FEW036 20/09 A3004 520 50 1300 030/08G15 RMK AO2
14840KMKG MKG20060609104509606/09/06 10:45:31  5-MIN KMKG 091545Z 02009KT 10SM FEW039 20/09 A3004 520 50 1300 030/09 RMK AO2
14840KMKG MKG20060609105012906/09/06 10:50:31  5-MIN KMKG 091550Z 01007KT 330V050 10SM FEW041 20/09 A3004 520 50 1300 020/07 330V050 RMK AO2 SLP170 T02000094
14840KMKG MKG20060609105511306/09/06 10:55:31  5-MIN KMKG 091555Z 35010KT 10SM FEW041 19/09 A3004 520 54 1100 350/10 RMK AO2 SLP172 T01890094
14840KMKG MKG20060609110009606/09/06 11:00:31  5-MIN KMKG 091600Z 36009KT 10SM SCT041 19/09 A3004 520 52 1200 010/09 RMK AO2
14840KMKG MKG20060609110509606/09/06 11:05:31  5-MIN KMKG 091605Z 35011KT 10SM SCT041 20/09 A3004 520 48 1300 350/11 RMK AO2
14840KMKG MKG20060609111009606/09/06 11:10:31  5-MIN KMKG 091610Z 35008KT 10SM SCT041 21/09 A3004 520 48 1300 350/08 RMK AO2
14840KMKG MKG20060609111509606/09/06 11:15:31  5-MIN KMKG 091615Z 03008KT 10SM SCT041 21/09 A3004 520 45 1400 040/08 RMK AO2
14840KMKG MKG20060609112009606/09/06 11:20:31  5-MIN KMKG 091620Z 04008KT 10SM SCT041 21/09 A3004 520 46 1300 040/08 RMK AO2
14840KMKG MKG20060609112510206/09/06 11:25:31  5-MIN KMKG 091625Z 36011G18KT 10SM SCT041 21/09 A3004 520 48 1300 360/11G18 RMK AO2
14840KMKG MKG20060609113010206/09/06 11:30:31  5-MIN KMKG 091630Z 02008G18KT 10SM SCT044 21/09 A3004 520 48 1300 020/08G18 RMK AO2
14840KMKG MKG20060609113511206/09/06 11:35:31  5-MIN KMKG 091635Z 36008KT 320V070 10SM SCT044 21/09 A3004 520 48 1300 010/08 320V070 RMK AO2
14840KMKG MKG20060609114009606/09/06 11:40:31  5-MIN KMKG 091640Z 01008KT 10SM SCT044 20/09 A3004 520 50 1300 010/08 RMK AO2
14840KMKG MKG20060609114509606/09/06 11:45:31  5-MIN KMKG 091645Z 01007KT 10SM SCT044 21/09 A3004 520 48 1300 010/07 RMK AO2
14840KMKG MKG20060609115011306/09/06 11:50:31  5-MIN KMKG 091650Z 01008KT 10SM BKN044 21/09 A3003 530 47 1400 020/08 RMK AO2 SLP168 T02110094
14840KMKG MKG20060609115511306/09/06 11:55:31  5-MIN KMKG 091655Z 34007KT 10SM SCT044 21/09 A3003 530 48 1300 340/07 RMK AO2 SLP168 T02060094
14840KMKG MKG20060609120009606/09/06 12:00:31  5-MIN KMKG 091700Z 33008KT 10SM SCT044 21/10 A3003 530 50 1300 330/08 RMK AO2
14840KMKG MKG20060609120509606/09/06 12:05:31  5-MIN KMKG 091705Z 36008KT 10SM BKN044 21/09 A3003 530 47 1400 360/08 RMK AO2
14840KMKG MKG20060609121010206/09/06 12:10:31  5-MIN KMKG 091710Z 28006G16KT 10SM BKN044 20/10 A3003 530 52 1300 290/06G16 RMK AO2
14840KMKG MKG20060609121511806/09/06 12:15:31  5-MIN KMKG 091715Z 31007G16KT 220V350 10SM BKN046 21/11 A3002 540 52 1300 310/07G16 220V350 RMK AO2
14840KMKG MKG20060609122009606/09/06 12:20:31  5-MIN KMKG 091720Z 29008KT 10SM SCT046 21/11 A3002 540 50 1400 290/08 RMK AO2
14840KMKG MKG20060609122509606/09/06 12:25:31  5-MIN KMKG 091725Z 31009KT 10SM SCT046 21/11 A3001 540 52 1400 310/09 RMK AO2
14840KMKG MKG20060609123009606/09/06 12:30:31  5-MIN KMKG 091730Z 28009KT 10SM SCT046 21/11 A3001 550 50 1400 290/09 RMK AO2
14840KMKG MKG20060609123509606/09/06 12:35:31  5-MIN KMKG 091735Z 28009KT 10SM SCT048 20/10 A3001 550 52 1300 290/09 RMK AO2
14840KMKG MKG20060609124010306/09/06 12:40:31  5-MIN KMKG 091740Z 29011KT 10SM FEW048 SCT080 21/11 A3001 550 50 1400 290/11 RMK AO2
14840KMKG MKG20060609124509606/09/06 12:45:31  5-MIN KMKG 091745Z 28010KT 10SM FEW048 21/10 A3001 550 48 1400 290/10 RMK AO2
14840KMKG MKG20060609125013106/09/06 12:50:31  5-MIN KMKG 091750Z 28010KT 10SM SCT048 22/11 A3001 550 49 1500 290/10 RMK AO2 SLP161 T02170106 10217 20139 56004
14840KMKG MKG20060609125513106/09/06 12:55:31  5-MIN KMKG 091755Z 28011KT 10SM SCT048 21/11 A3001 550 52 1400 280/11 RMK AO2 SLP161 T02060106 10217 20139 58011
14840KMKG MKG20060609130009606/09/06 13:00:31  5-MIN KMKG 091800Z 28010KT 10SM SCT048 21/10 A3001 550 50 1400 280/10 RMK AO2
14840KMKG MKG20060609130509606/09/06 13:05:31  5-MIN KMKG 091805Z 28011KT 10SM SCT045 21/11 A3001 550 52 1400 280/11 RMK AO2
14840KMKG MKG20060609131009606/09/06 13:10:31  5-MIN KMKG 091810Z 28010KT 10SM SCT045 21/11 A3001 550 52 1400 280/10 RMK AO2
14840KMKG MKG20060609131509606/09/06 13:15:31  5-MIN KMKG 091815Z 29010KT 10SM SCT045 21/11 A3000 550 52 1400 290/10 RMK AO2
14840KMKG MKG20060609132009606/09/06 13:20:31  5-MIN KMKG 091820Z 29011KT 10SM SCT045 21/11 A3000 560 52 1400 300/11 RMK AO2
14840KMKG MKG20060609132509606/09/06 13:25:31  5-MIN KMKG 091825Z 30011KT 10SM SCT045 21/11 A3000 550 52 1400 300/11 RMK AO2
14840KMKG MKG20060609133009606/09/06 13:30:31  5-MIN KMKG 091830Z 30012KT 10SM SCT047 21/11 A3000 560 52 1400 310/12 RMK AO2
14840KMKG MKG20060609133510206/09/06 13:35:31  5-MIN KMKG 091835Z 30013G19KT 10SM SCT047 21/11 A3000 560 52 1400 300/13G19 RMK AO2
14840KMKG MKG20060609134010206/09/06 13:40:31  5-MIN KMKG 091840Z 30011G19KT 10SM SCT047 21/11 A2999 560 52 1400 300/11G19 RMK AO2
14840KMKG MKG20060609134509606/09/06 13:45:31  5-MIN KMKG 091845Z 30012KT 10SM SCT047 21/11 A2999 560 52 1400 310/12 RMK AO2
14840KMKG MKG20060609135011306/09/06 13:50:31  5-MIN KMKG 091850Z 30012KT 10SM SCT047 21/11 A2999 560 52 1400 310/12 RMK AO2 SLP155 T02060106
14840KMKG MKG20060609135511306/09/06 13:55:31  5-MIN KMKG 091855Z 31012KT 10SM SCT047 21/10 A3000 560 50 1400 310/12 RMK AO2 SLP156 T02060100
14840KMKG MKG20060609140009606/09/06 14:00:31  5-MIN KMKG 091900Z 32010KT 10SM SCT047 21/11 A3000 560 50 1400 320/10 RMK AO2
14840KMKG MKG20060609140509606/09/06 14:05:31  5-MIN KMKG 091905Z 32012KT 10SM SCT047 21/10 A3000 560 50 1400 330/12 RMK AO2
14840KMKG MKG20060609141009606/09/06 14:10:31  5-MIN KMKG 091910Z 32012KT 10SM SCT047 21/09 A3000 560 48 1400 330/12 RMK AO2
14840KMKG MKG20060609141509606/09/06 14:15:31  5-MIN KMKG 091915Z 30012KT 10SM SCT047 21/09 A2999 560 48 1400 310/12 RMK AO2
14840KMKG MKG20060609142009606/09/06 14:20:31  5-MIN KMKG 091920Z 29013KT 10SM SCT047 21/09 A3000 560 48 1400 300/13 RMK AO2
14840KMKG MKG20060609142509606/09/06 14:25:31  5-MIN KMKG 091925Z 31011KT 10SM SCT047 21/09 A3000 560 48 1400 310/11 RMK AO2
14840KMKG MKG20060609143010206/09/06 14:30:31  5-MIN KMKG 091930Z 29011G18KT 10SM SCT047 21/09 A3000 560 48 1400 290/11G18 RMK AO2
14840KMKG MKG20060609143509606/09/06 14:35:31  5-MIN KMKG 091935Z 29012KT 10SM FEW047 20/09 A3000 550 50 1300 300/12 RMK AO2
14840KMKG MKG20060609144009606/09/06 14:40:31  5-MIN KMKG 091940Z 28011KT 10SM FEW047 19/10 A3000 550 54 1200 290/11 RMK AO2
14840KMKG MKG20060609144509606/09/06 14:45:31  5-MIN KMKG 091945Z 30010KT 10SM FEW047 19/09 A3000 560 52 1200 300/10 RMK AO2
14840KMKG MKG20060609145011306/09/06 14:50:31  5-MIN KMKG 091950Z 29011KT 10SM FEW047 19/10 A2999 560 54 1300 300/11 RMK AO2 SLP156 T01940100
14840KMKG MKG20060609145511306/09/06 14:55:31  5-MIN KMKG 091955Z 29011KT 10SM FEW047 19/10 A2999 560 54 1300 300/11 RMK AO2 SLP156 T01940100
14840KMKG MKG20060609150009606/09/06 15:00:31  5-MIN KMKG 092000Z 29012KT 10SM FEW047 19/10 A2999 560 54 1300 300/12 RMK AO2
14840KMKG MKG20060609150509606/09/06 15:05:31  5-MIN KMKG 092005Z 30012KT 10SM FEW047 19/10 A2999 560 54 1300 300/12 RMK AO2
14840KMKG MKG20060609151009606/09/06 15:10:31  5-MIN KMKG 092010Z 32011KT 10SM FEW047 20/10 A2999 560 52 1300 330/11 RMK AO2
14840KMKG MKG20060609151509606/09/06 15:15:31  5-MIN KMKG 092015Z 32012KT 10SM FEW047 20/09 A2999 560 50 1300 320/12 RMK AO2
14840KMKG MKG20060609152009606/09/06 15:20:31  5-MIN KMKG 092020Z 31011KT 10SM FEW047 20/09 A2999 560 50 1300 310/11 RMK AO2
14840KMKG MKG20060609152510206/09/06 15:25:31  5-MIN KMKG 092025Z 32008G16KT 10SM FEW047 20/09 A2999 560 50 1300 330/08G16 RMK AO2
14840KMKG MKG20060609153009606/09/06 15:30:31  5-MIN KMKG 092030Z 32010KT 10SM FEW047 21/10 A2999 560 50 1400 320/10 RMK AO2
14840KMKG MKG20060609153509606/09/06 15:35:31  5-MIN KMKG 092035Z 33009KT 10SM FEW047 21/09 A2999 570 48 1400 340/09 RMK AO2
14840KMKG MKG20060609154009606/09/06 15:40:31  5-MIN KMKG 092040Z 32010KT 10SM FEW047 21/09 A2998 570 48 1400 330/10 RMK AO2
14840KMKG MKG20060609154509606/09/06 15:45:31  5-MIN KMKG 092045Z 32010KT 10SM FEW047 21/10 A2999 570 50 1400 320/10 RMK AO2
14840KMKG MKG20060609155011906/09/06 15:50:31  5-MIN KMKG 092050Z 32008KT 10SM FEW047 21/10 A2999 570 50 1400 330/08 RMK AO2 SLP154 T02060100 58011
14840KMKG MKG20060609155511906/09/06 15:55:31  5-MIN KMKG 092055Z 29009KT 10SM FEW047 21/11 A2998 570 52 1400 300/09 RMK AO2 SLP152 T02060106 56008
14840KMKG MKG20060609160009306/09/06 16:00:31  5-MIN KMKG 092100Z 29009KT 10SM CLR 19/09 A2999 570 52 1300 290/09 RMK AO2
14840KMKG MKG20060609160509306/09/06 16:05:31  5-MIN KMKG 092105Z 30009KT 10SM CLR 19/09 A2999 570 54 1200 310/09 RMK AO2
14840KMKG MKG20060609161009606/09/06 16:10:31  5-MIN KMKG 092110Z 29011KT 10SM FEW046 19/09 A2999 570 54 1200 300/11 RMK AO2
14840KMKG MKG20060609161509606/09/06 16:15:31  5-MIN KMKG 092115Z 31010KT 10SM FEW046 19/09 A2999 570 54 1200 310/10 RMK AO2
14840KMKG MKG20060609162009606/09/06 16:20:31  5-MIN KMKG 092120Z 30010KT 10SM FEW046 19/10 A2998 570 54 1300 300/10 RMK AO2
14840KMKG MKG20060609162509606/09/06 16:25:31  5-MIN KMKG 092125Z 30011KT 10SM FEW046 18/09 A2998 570 56 1100 300/11 RMK AO2
14840KMKG MKG20060609163009606/09/06 16:30:31  5-MIN KMKG 092130Z 30011KT 10SM FEW046 18/09 A2999 570 56 1100 310/11 RMK AO2
14840KMKG MKG20060609163509606/09/06 16:35:31  5-MIN KMKG 092135Z 30011KT 10SM FEW046 18/10 A2998 570 58 1100 310/11 RMK AO2
14840KMKG MKG20060609164009606/09/06 16:40:31  5-MIN KMKG 092140Z 31010KT 10SM FEW046 18/10 A2998 570 58 1100 310/10 RMK AO2
14840KMKG MKG20060609164509606/09/06 16:45:31  5-MIN KMKG 092145Z 31012KT 10SM FEW046 18/10 A2998 570 58 1100 310/12 RMK AO2
14840KMKG MKG20060609165011306/09/06 16:50:31  5-MIN KMKG 092150Z 32010KT 10SM FEW046 18/10 A2999 570 58 1100 330/10 RMK AO2 SLP154 T01830100
14840KMKG MKG20060609165511306/09/06 16:55:31  5-MIN KMKG 092155Z 32012KT 10SM FEW046 18/10 A2999 570 58 1100 320/12 RMK AO2 SLP155 T01830100
14840KMKG MKG20060609170009606/09/06 17:00:31  5-MIN KMKG 092200Z 32011KT 10SM FEW046 18/10 A2999 570 58 1100 320/11 RMK AO2
14840KMKG MKG20060609170509606/09/06 17:05:31  5-MIN KMKG 092205Z 32012KT 10SM FEW046 19/10 A2999 560 56 1200 320/12 RMK AO2
14840KMKG MKG20060609171009606/09/06 17:10:31  5-MIN KMKG 092210Z 32011KT 10SM FEW046 19/10 A2999 560 54 1300 320/11 RMK AO2
14840KMKG MKG20060609171510206/09/06 17:15:31  5-MIN KMKG 092215Z 34011G17KT 10SM FEW046 19/10 A2999 560 54 1300 340/11G17 RMK AO2
14840KMKG MKG20060609172009606/09/06 17:20:31  5-MIN KMKG 092220Z 34012KT 10SM FEW046 19/10 A2999 570 54 1300 340/12 RMK AO2
14840KMKG MKG20060609172509606/09/06 17:25:31  5-MIN KMKG 092225Z 33013KT 10SM FEW046 19/10 A2999 570 54 1300 340/13 RMK AO2
14840KMKG MKG20060609173009606/09/06 17:30:31  5-MIN KMKG 092230Z 33011KT 10SM FEW046 19/10 A2999 570 56 1200 330/11 RMK AO2
14840KMKG MKG20060609173509606/09/06 17:35:31  5-MIN KMKG 092235Z 35011KT 10SM FEW046 19/10 A2999 570 54 1300 350/11 RMK AO2
14840KMKG MKG20060609174009606/09/06 17:40:31  5-MIN KMKG 092240Z 35010KT 10SM FEW046 19/10 A2999 570 56 1200 360/10 RMK AO2
14840KMKG MKG20060609174510206/09/06 17:45:31  5-MIN KMKG 092245Z 34012G17KT 10SM FEW046 18/10 A2998 570 58 1100 350/12G17 RMK AO2
14840KMKG MKG20060609175011306/09/06 17:50:31  5-MIN KMKG 092250Z 34011KT 10SM FEW046 18/10 A2999 570 58 1100 340/11 RMK AO2 SLP154 T01830100
14840KMKG MKG20060609175511306/09/06 17:55:31  5-MIN KMKG 092255Z 34012KT 10SM FEW065 18/09 A2999 570 56 1100 350/12 RMK AO2 SLP155 T01830094
14840KMKG MKG20060609180009306/09/06 18:00:31  5-MIN KMKG 092300Z 34012KT 10SM CLR 18/10 A2999 570 60 1100 350/12 RMK AO2
14840KMKG MKG20060609180509306/09/06 18:05:31  5-MIN KMKG 092305Z 34013KT 10SM CLR 18/09 A2999 560 58 1100 350/13 RMK AO2
14840KMKG MKG20060609181009306/09/06 18:10:31  5-MIN KMKG 092310Z 35011KT 10SM CLR 18/09 A2999 560 58 1100 350/11 RMK AO2
14840KMKG MKG20060609181509306/09/06 18:15:31  5-MIN KMKG 092315Z 34013KT 10SM CLR 17/09 A3000 560 60 1000 340/13 RMK AO2
14840KMKG MKG20060609182009306/09/06 18:20:31  5-MIN KMKG 092320Z 34010KT 10SM CLR 17/09 A3000 560 60 1000 340/10 RMK AO2
14840KMKG MKG20060609182509306/09/06 18:25:31  5-MIN KMKG 092325Z 34011KT 10SM CLR 17/09 A3000 560 60 1000 340/11 RMK AO2
14840KMKG MKG20060609183009306/09/06 18:30:31  5-MIN KMKG 092330Z 34011KT 10SM CLR 17/09 A3000 550 60 1000 340/11 RMK AO2
14840KMKG MKG20060609183509306/09/06 18:35:31  5-MIN KMKG 092335Z 35011KT 10SM CLR 17/09 A3000 560 60 1000 350/11 RMK AO2
14840KMKG MKG20060609184009306/09/06 18:40:31  5-MIN KMKG 092340Z 36012KT 10SM CLR 17/09 A3000 560 60 1000 010/12 RMK AO2
14840KMKG MKG20060609184509206/09/06 18:45:31  5-MIN KMKG 092345Z 35011KT 10SM CLR 17/09 A3000 560 62 900 350/11 RMK AO2
14840KMKG MKG20060609185012706/09/06 18:50:31  5-MIN KMKG 092350Z 36010KT 10SM CLR 17/09 A3000 560 62 900 360/10 RMK AO2 SLP159 T01670094 10211 20167 56008
14840KMKG MKG20060609185512706/09/06 18:55:31  5-MIN KMKG 092355Z 36009KT 10SM CLR 17/09 A3000 550 62 900 360/09 RMK AO2 SLP159 T01670094 10211 20167 53006
14840KMKG MKG20060609190009206/09/06 19:00:31  5-MIN KMKG 100000Z 35011KT 10SM CLR 17/09 A3000 550 62 900 350/11 RMK AO2
14840KMKG MKG20060609190509206/09/06 19:05:31  5-MIN KMKG 100005Z 35011KT 10SM CLR 17/09 A3000 550 62 900 360/11 RMK AO2
14840KMKG MKG20060609191009206/09/06 19:10:31  5-MIN KMKG 100010Z 36013KT 10SM CLR 17/09 A3001 550 60 900 010/13 RMK AO2
14840KMKG MKG20060609191509206/09/06 19:15:31  5-MIN KMKG 100015Z 35011KT 10SM CLR 16/09 A3001 540 62 800 360/11 RMK AO2
14840KMKG MKG20060609192009806/09/06 19:20:31  5-MIN KMKG 100020Z 35012G17KT 10SM CLR 16/09 A3002 540 62 800 360/12G17 RMK AO2
14840KMKG MKG20060609192509206/09/06 19:25:31  5-MIN KMKG 100025Z 36009KT 10SM CLR 16/09 A3001 540 62 800 360/09 RMK AO2
14840KMKG MKG20060609193009206/09/06 19:30:31  5-MIN KMKG 100030Z 01011KT 10SM CLR 16/08 A3001 540 59 800 010/11 RMK AO2
14840KMKG MKG20060609193509206/09/06 19:35:31  5-MIN KMKG 100035Z 35011KT 10SM CLR 16/08 A3001 550 59 800 360/11 RMK AO2
14840KMKG MKG20060609194009206/09/06 19:40:31  5-MIN KMKG 100040Z 35009KT 10SM CLR 16/08 A3001 550 62 800 360/09 RMK AO2
14840KMKG MKG20060609194509206/09/06 19:45:31  5-MIN KMKG 100045Z 36008KT 10SM CLR 16/08 A3001 550 62 800 360/08 RMK AO2
14840KMKG MKG20060609195010906/09/06 19:50:31  5-MIN KMKG 100050Z 36008KT 10SM CLR 16/08 A3001 550 62 800 360/08 RMK AO2 SLP161 T01560083
14840KMKG MKG20060609195511806/09/06 19:55:31  5-MIN KMKG 100055Z 01010G16KT 10SM FEW090 16/08 A3000 550 62 800 010/10G16 RMK AO2 SLP159 T01560083
14840KMKG MKG20060609200009506/09/06 20:00:31  5-MIN KMKG 100100Z 02010KT 10SM FEW090 15/08 A3000 550 62 700 020/10 RMK AO2
14840KMKG MKG20060609200509506/09/06 20:05:31  5-MIN KMKG 100105Z 02009KT 10SM FEW090 15/08 A3000 550 62 700 020/09 RMK AO2
14840KMKG MKG20060609201009506/09/06 20:10:31  5-MIN KMKG 100110Z 35011KT 10SM FEW090 15/08 A3000 550 62 700 360/11 RMK AO2
14840KMKG MKG20060609201509506/09/06 20:15:31  5-MIN KMKG 100115Z 36011KT 10SM FEW090 15/08 A3000 550 62 700 010/11 RMK AO2
14840KMKG MKG20060609202009506/09/06 20:20:31  5-MIN KMKG 100120Z 36011KT 10SM FEW090 15/08 A3000 550 62 700 010/11 RMK AO2
14840KMKG MKG20060609202509506/09/06 20:25:31  5-MIN KMKG 100125Z 36010KT 10SM FEW090 15/08 A3001 550 62 700 010/10 RMK AO2
14840KMKG MKG20060609203009506/09/06 20:30:31  5-MIN KMKG 100130Z 02009KT 10SM FEW090 14/08 A3001 550 64 700 020/09 RMK AO2
14840KMKG MKG20060609203509506/09/06 20:35:31  5-MIN KMKG 100135Z 01010KT 10SM FEW090 14/07 A3000 550 61 700 020/10 RMK AO2
14840KMKG MKG20060609204009506/09/06 20:40:31  5-MIN KMKG 100140Z 36009KT 10SM FEW090 14/07 A3000 550 61 700 010/09 RMK AO2
14840KMKG MKG20060609204509506/09/06 20:45:31  5-MIN KMKG 100145Z 36010KT 10SM FEW090 14/07 A3001 550 61 700 010/10 RMK AO2
14840KMKG MKG20060609205011206/09/06 20:50:31  5-MIN KMKG 100150Z 01009KT 10SM FEW090 14/07 A3001 550 61 700 010/09 RMK AO2 SLP161 T01440072
14840KMKG MKG20060609205511206/09/06 20:55:31  5-MIN KMKG 100155Z 36011KT 10SM FEW090 14/07 A3001 550 64 600 010/11 RMK AO2 SLP161 T01390072
14840KMKG MKG20060609210009206/09/06 21:00:31  5-MIN KMKG 100200Z 01012KT 10SM CLR 14/07 A3001 550 61 600 010/12 RMK AO2
14840KMKG MKG20060609210509206/09/06 21:05:31  5-MIN KMKG 100205Z 36011KT 10SM CLR 14/07 A3002 540 61 600 360/11 RMK AO2
14840KMKG MKG20060609211009206/09/06 21:10:31  5-MIN KMKG 100210Z 01011KT 10SM CLR 14/07 A3002 540 61 600 010/11 RMK AO2
14840KMKG MKG20060609211509206/09/06 21:15:31  5-MIN KMKG 100215Z 01012KT 10SM CLR 14/07 A3002 540 61 600 010/12 RMK AO2
14840KMKG MKG20060609212009206/09/06 21:20:31  5-MIN KMKG 100220Z 01010KT 10SM CLR 14/07 A3002 540 61 600 020/10 RMK AO2
14840KMKG MKG20060609212509206/09/06 21:25:31  5-MIN KMKG 100225Z 01008KT 10SM CLR 14/07 A3002 540 61 600 020/08 RMK AO2
14840KMKG MKG20060609213009206/09/06 21:30:31  5-MIN KMKG 100230Z 01009KT 10SM CLR 14/07 A3002 530 61 600 020/09 RMK AO2
14840KMKG MKG20060609215011506/09/06 21:50:31  5-MIN KMKG 100250Z 01008KT 10SM CLR 13/07 A3003 530 64 500 010/08 RMK AO2 SLP168 T01330067 53006
14840KMKG MKG20060609215511506/09/06 21:55:31  5-MIN KMKG 100255Z 01010KT 10SM CLR 13/07 A3003 530 64 500 020/10 RMK AO2 SLP170 T01330067 53010
14840KMKG MKG20060609220009206/09/06 22:00:31  5-MIN KMKG 100300Z 01010KT 10SM CLR 13/07 A3003 520 64 500 020/10 RMK AO2
14840KMKG MKG20060609220509206/09/06 22:05:31  5-MIN KMKG 100305Z 01007KT 10SM CLR 13/07 A3004 520 64 500 020/07 RMK AO2
14840KMKG MKG20060609221009506/09/06 22:10:31  5-MIN KMKG 100310Z 01009KT 10SM FEW120 13/06 A3004 520 61 500 010/09 RMK AO2
14840KMKG MKG20060609221509506/09/06 22:15:31  5-MIN KMKG 100315Z 36009KT 10SM FEW120 13/06 A3005 510 61 500 360/09 RMK AO2
14840KMKG MKG20060609222009506/09/06 22:20:31  5-MIN KMKG 100320Z 36009KT 10SM FEW120 13/06 A3005 510 61 500 010/09 RMK AO2
14840KMKG MKG20060609222509506/09/06 22:25:31  5-MIN KMKG 100325Z 36009KT 10SM FEW120 13/06 A3005 510 61 500 360/09 RMK AO2
14840KMKG MKG20060609223009506/09/06 22:30:31  5-MIN KMKG 100330Z 01008KT 10SM FEW120 13/06 A3005 510 61 500 010/08 RMK AO2
14840KMKG MKG20060609223509506/09/06 22:35:31  5-MIN KMKG 100335Z 01010KT 10SM FEW120 13/06 A3005 510 61 500 020/10 RMK AO2
14840KMKG MKG20060609224009506/09/06 22:40:31  5-MIN KMKG 100340Z 01010KT 10SM FEW120 13/06 A3004 520 61 500 010/10 RMK AO2
14840KMKG MKG20060609224509506/09/06 22:45:31  5-MIN KMKG 100345Z 01009KT 10SM FEW120 13/06 A3004 520 61 500 020/09 RMK AO2
14840KMKG MKG20060609225010906/09/06 22:50:31  5-MIN KMKG 100350Z 03009KT 10SM CLR 13/06 A3004 520 61 500 030/09 RMK AO2 SLP172 T01330061
14840KMKG MKG20060609225510906/09/06 22:55:31  5-MIN KMKG 100355Z 02008KT 10SM CLR 13/06 A3004 520 61 500 030/08 RMK AO2 SLP171 T01330061
14840KMKG MKG20060609230009206/09/06 23:00:31  5-MIN KMKG 100400Z 02008KT 10SM CLR 13/06 A3004 520 61 400 020/08 RMK AO2
14840KMKG MKG20060609230509206/09/06 23:05:31  5-MIN KMKG 100405Z 02008KT 10SM CLR 13/06 A3004 520 61 400 030/08 RMK AO2
14840KMKG MKG20060609231009206/09/06 23:10:31  5-MIN KMKG 100410Z 02008KT 10SM CLR 13/06 A3004 520 61 400 030/08 RMK AO2
14840KMKG MKG20060609231509206/09/06 23:15:31  5-MIN KMKG 100415Z 04011KT 10SM CLR 13/06 A3004 520 61 400 040/11 RMK AO2
14840KMKG MKG20060609232009206/09/06 23:20:31  5-MIN KMKG 100420Z 03011KT 10SM CLR 13/06 A3004 520 61 400 040/11 RMK AO2
14840KMKG MKG20060609232509206/09/06 23:25:31  5-MIN KMKG 100425Z 03011KT 10SM CLR 13/05 A3004 520 59 400 040/11 RMK AO2
14840KMKG MKG20060609233009206/09/06 23:30:31  5-MIN KMKG 100430Z 03012KT 10SM CLR 13/05 A3004 520 59 400 030/12 RMK AO2
14840KMKG MKG20060609233509206/09/06 23:35:31  5-MIN KMKG 100435Z 04010KT 10SM CLR 13/05 A3004 520 59 400 040/10 RMK AO2
14840KMKG MKG20060609234009206/09/06 23:40:31  5-MIN KMKG 100440Z 03010KT 10SM CLR 13/05 A3004 520 59 400 040/10 RMK AO2
14840KMKG MKG20060609234509806/09/06 23:45:31  5-MIN KMKG 100445Z 04013G16KT 10SM CLR 13/05 A3004 520 59 400 040/13G16 RMK AO2
14840KMKG MKG20060609235011906/09/06 23:50:31  5-MIN KMKG 100450Z 03012KT 10SM CLR 12/05 A3004 520 61 400 040/12 RMK AO2 SLP172 T01220050 402170122
14840KMKG MKG20060609235511906/09/06 23:55:31  5-MIN KMKG 100455Z 03011KT 10SM CLR 12/05 A3004 520 61 400 040/11 RMK AO2 SLP172 T01220050 402170122
14840KMKG MKG20060610000009206/10/06 00:00:32  5-MIN KMKG 100500Z 05008KT 10SM CLR 12/05 A3004 520 61 400 050/08 RMK AO2
14840KMKG MKG20060610000509206/10/06 00:05:31  5-MIN KMKG 100505Z 04009KT 10SM CLR 12/05 A3004 520 61 400 050/09 RMK AO2
14840KMKG MKG20060610001009206/10/06 00:10:31  5-MIN KMKG 100510Z 04011KT 10SM CLR 12/05 A3004 520 61 400 040/11 RMK AO2
14840KMKG MKG20060610001509206/10/06 00:15:31  5-MIN KMKG 100515Z 04009KT 10SM CLR 12/05 A3004 520 61 400 040/09 RMK AO2
14840KMKG MKG20060610002009206/10/06 00:20:31  5-MIN KMKG 100520Z 05008KT 10SM CLR 12/05 A3004 520 61 400 050/08 RMK AO2
14840KMKG MKG20060610002509806/10/06 00:25:31  5-MIN KMKG 100525Z 03013G17KT 10SM CLR 12/05 A3004 520 61 400 040/13G17 RMK AO2
14840KMKG MKG20060610003009806/10/06 00:30:31  5-MIN KMKG 100530Z 04010G17KT 10SM CLR 12/05 A3003 530 61 400 040/10G17 RMK AO2
14840KMKG MKG20060610003509206/10/06 00:35:31  5-MIN KMKG 100535Z 03009KT 10SM CLR 12/05 A3003 530 61 400 040/09 RMK AO2
14840KMKG MKG20060610004010806/10/06 00:40:31  5-MIN KMKG 100540Z 04009KT 010V070 10SM CLR 12/05 A3003 530 61 400 040/09 010V070 RMK AO2
14840KMKG MKG20060610004509206/10/06 00:45:31  5-MIN KMKG 100545Z 05008KT 10SM CLR 12/05 A3003 530 63 300 060/08 RMK AO2
14840KMKG MKG20060610005013306/10/06 00:50:31  5-MIN KMKG 100550Z 03008G15KT 10SM CLR 12/05 A3003 530 63 300 040/08G15 RMK AO2 SLP169 T01170050 10167 20117 53010
14840KMKG MKG20060610005513306/10/06 00:55:31  5-MIN KMKG 100555Z 03009G15KT 10SM CLR 12/05 A3003 530 63 300 030/09G15 RMK AO2 SLP170 T01170050 10167 20117 58000
14840KMKG MKG20060610010009206/10/06 01:00:31  5-MIN KMKG 100600Z 04010KT 10SM CLR 12/05 A3003 530 63 300 050/10 RMK AO2
14840KMKG MKG20060610010509206/10/06 01:05:31  5-MIN KMKG 100605Z 04010KT 10SM CLR 12/05 A3003 530 63 300 040/10 RMK AO2
14840KMKG MKG20060610011009206/10/06 01:10:31  5-MIN KMKG 100610Z 04007KT 10SM CLR 11/05 A3003 530 66 200 040/07 RMK AO2
14840KMKG MKG20060610011509206/10/06 01:15:31  5-MIN KMKG 100615Z 04008KT 10SM CLR 11/05 A3003 530 66 200 050/08 RMK AO2
14840KMKG MKG20060610012009206/10/06 01:20:31  5-MIN KMKG 100620Z 03007KT 10SM CLR 11/05 A3003 530 66 200 040/07 RMK AO2
14840KMKG MKG20060610012509206/10/06 01:25:31  5-MIN KMKG 100625Z 03007KT 10SM CLR 11/05 A3003 530 66 200 030/07 RMK AO2
14840KMKG MKG20060610013009206/10/06 01:30:31  5-MIN KMKG 100630Z 02006KT 10SM CLR 11/05 A3003 530 66 200 030/06 RMK AO2
14840KMKG MKG20060610013509206/10/06 01:35:31  5-MIN KMKG 100635Z 02007KT 10SM CLR 11/05 A3003 530 68 200 020/07 RMK AO2
14840KMKG MKG20060610014009206/10/06 01:40:31  5-MIN KMKG 100640Z 02008KT 10SM CLR 11/05 A3003 530 68 200 020/08 RMK AO2
14840KMKG MKG20060610014509206/10/06 01:45:31  5-MIN KMKG 100645Z 02009KT 10SM CLR 11/05 A3003 530 68 200 020/09 RMK AO2
14840KMKG MKG20060610015010906/10/06 01:50:31  5-MIN KMKG 100650Z 02007KT 10SM CLR 11/05 A3003 530 68 200 030/07 RMK AO2 SLP168 T01060050
14840KMKG MKG20060610015510906/10/06 01:55:31  5-MIN KMKG 100655Z 02006KT 10SM CLR 11/05 A3003 530 68 200 020/06 RMK AO2 SLP167 T01060050
14840KMKG MKG20060610020009206/10/06 02:00:31  5-MIN KMKG 100700Z 01007KT 10SM CLR 10/05 A3003 530 71 100 020/07 RMK AO2
14840KMKG MKG20060610020509206/10/06 02:05:31  5-MIN KMKG 100705Z 02008KT 10SM CLR 10/05 A3002 530 71 100 020/08 RMK AO2
14840KMKG MKG20060610021009206/10/06 02:10:31  5-MIN KMKG 100710Z 02006KT 10SM CLR 10/05 A3002 530 71 100 020/06 RMK AO2
14840KMKG MKG20060610021509206/10/06 02:15:31  5-MIN KMKG 100715Z 02006KT 10SM CLR 10/05 A3003 530 71 100 020/06 RMK AO2
14840KMKG MKG20060610022009206/10/06 02:20:31  5-MIN KMKG 100720Z 01007KT 10SM CLR 10/05 A3004 520 71 100 020/07 RMK AO2
14840KMKG MKG20060610022509206/10/06 02:25:31  5-MIN KMKG 100725Z 01007KT 10SM CLR 10/05 A3004 520 71 100 020/07 RMK AO2
14840KMKG MKG20060610023009206/10/06 02:30:31  5-MIN KMKG 100730Z 02007KT 10SM CLR 10/05 A3004 520 71 100 020/07 RMK AO2
14840KMKG MKG20060610023509306/10/06 02:35:31  5-MIN KMKG 100735Z 01007KT 10SM FEW036 09/05 A3004 520 74 0 020/07 RMK AO2
14840KMKG MKG20060610024009306/10/06 02:40:31  5-MIN KMKG 100740Z 01008KT 10SM FEW036 09/05 A3004 520 74 0 020/08 RMK AO2
14840KMKG MKG20060610024509506/10/06 02:45:31  5-MIN KMKG 100745Z 02008KT 10SM FEW036 10/05 A3003 520 71 100 020/08 RMK AO2
14840KMKG MKG20060610025011006/10/06 02:50:31  5-MIN KMKG 100750Z 01007KT 10SM SCT036 09/05 A3003 530 74 0 020/07 RMK AO2 SLP170 T00940050
14840KMKG MKG20060610025511206/10/06 02:55:31  5-MIN KMKG 100755Z 02008KT 10SM BKN036 10/05 A3003 530 71 100 020/08 RMK AO2 SLP168 T01000050
14840KMKG MKG20060610030009506/10/06 03:00:31  5-MIN KMKG 100800Z 03008KT 10SM BKN036 10/05 A3002 540 71 100 030/08 RMK AO2
14840KMKG MKG20060610030509306/10/06 03:05:31  5-MIN KMKG 100805Z 03009KT 10SM BKN036 09/05 A3002 540 74 0 030/09 RMK AO2
14840KMKG MKG20060610031009306/10/06 03:10:31  5-MIN KMKG 100810Z 03008KT 10SM BKN036 09/05 A3002 540 74 0 030/08 RMK AO2
14840KMKG MKG20060610031509306/10/06 03:15:31  5-MIN KMKG 100815Z 03009KT 10SM SCT036 09/05 A3001 540 74 0 030/09 RMK AO2
14840KMKG MKG20060610032009306/10/06 03:20:31  5-MIN KMKG 100820Z 03007KT 10SM SCT036 09/05 A3002 540 74 0 040/07 RMK AO2
14840KMKG MKG20060610032509306/10/06 03:25:31  5-MIN KMKG 100825Z 03008KT 10SM FEW036 09/05 A3001 540 74 0 030/08 RMK AO2
14840KMKG MKG20060610033009306/10/06 03:30:31  5-MIN KMKG 100830Z 02007KT 10SM FEW038 09/05 A3002 540 76 0 030/07 RMK AO2
14840KMKG MKG20060610033509006/10/06 03:35:31  5-MIN KMKG 100835Z 03008KT 10SM CLR 09/05 A3002 540 76 0 030/08 RMK AO2
14840KMKG MKG20060610034009006/10/06 03:40:31  5-MIN KMKG 100840Z 04009KT 10SM CLR 09/05 A3002 540 76 0 040/09 RMK AO2
14840KMKG MKG20060610034509306/10/06 03:45:31  5-MIN KMKG 100845Z 04007KT 10SM SCT040 09/05 A3002 540 76 0 040/07 RMK AO2
14840KMKG MKG20060610035011606/10/06 03:50:31  5-MIN KMKG 100850Z 03007KT 10SM SCT036 09/05 A3002 540 76 0 040/07 RMK AO2 SLP164 T00890050 58000
14840KMKG MKG20060610035511606/10/06 03:55:31  5-MIN KMKG 100855Z 03007KT 10SM SCT036 09/05 A3002 540 76 0 030/07 RMK AO2 SLP164 T00890050 58005
14840KMKG MKG20060610040009306/10/06 04:00:31  5-MIN KMKG 100900Z 03007KT 10SM FEW039 09/05 A3001 540 76 0 040/07 RMK AO2
14840KMKG MKG20060610040509306/10/06 04:05:31  5-MIN KMKG 100905Z 03007KT 10SM FEW039 09/05 A3001 540 76 0 030/07 RMK AO2
14840KMKG MKG20060610041009306/10/06 04:10:31  5-MIN KMKG 100910Z 03007KT 10SM SCT039 09/05 A3001 540 76 0 040/07 RMK AO2
14840KMKG MKG20060610041509306/10/06 04:15:31  5-MIN KMKG 100915Z 04007KT 10SM SCT039 09/05 A3001 540 76 0 040/07 RMK AO2
14840KMKG MKG20060610042009306/10/06 04:20:31  5-MIN KMKG 100920Z 04006KT 10SM SCT039 09/05 A3001 540 76 0 050/06 RMK AO2
14840KMKG MKG20060610042509306/10/06 04:25:31  5-MIN KMKG 100925Z 04007KT 10SM SCT039 09/05 A3002 540 76 0 040/07 RMK AO2
14840KMKG MKG20060610043009306/10/06 04:30:31  5-MIN KMKG 100930Z 04006KT 10SM SCT039 09/05 A3002 540 76 0 040/06 RMK AO2
14840KMKG MKG20060610043509306/10/06 04:35:31  5-MIN KMKG 100935Z 04006KT 10SM SCT039 08/05 A3002 540 79 0 050/06 RMK AO2
14840KMKG MKG20060610044009306/10/06 04:40:31  5-MIN KMKG 100940Z 05006KT 10SM SCT039 09/05 A3002 540 76 0 060/06 RMK AO2
14840KMKG MKG20060610044509306/10/06 04:45:31  5-MIN KMKG 100945Z 05007KT 10SM SCT039 08/05 A3002 540 79 0 050/07 RMK AO2
14840KMKG MKG20060610045011006/10/06 04:50:31  5-MIN KMKG 100950Z 04007KT 10SM SCT039 08/05 A3001 550 79 0 040/07 RMK AO2 SLP163 T00830050
14840KMKG MKG20060610045511006/10/06 04:55:31  5-MIN KMKG 100955Z 05007KT 10SM SCT039 08/05 A3001 550 79 0 050/07 RMK AO2 SLP161 T00830050
14840KMKG MKG20060610050009006/10/06 05:00:31  5-MIN KMKG 101000Z 05007KT 10SM CLR 08/05 A3001 550 79 0 050/07 RMK AO2
14840KMKG MKG20060610050509306/10/06 05:05:31  5-MIN KMKG 101005Z 05005KT 10SM SCT040 08/05 A3001 550 79 0 050/05 RMK AO2
14840KMKG MKG20060610051009306/10/06 05:10:31  5-MIN KMKG 101010Z 04006KT 10SM SCT040 08/05 A3001 550 79 0 050/06 RMK AO2
14840KMKG MKG20060610051509306/10/06 05:15:31  5-MIN KMKG 101015Z 04008KT 10SM SCT040 08/05 A3001 550 79 0 040/08 RMK AO2
14840KMKG MKG20060610052009306/10/06 05:20:31  5-MIN KMKG 101020Z 04007KT 10SM SCT040 09/05 A3001 540 76 0 050/07 RMK AO2
14840KMKG MKG20060610052509306/10/06 05:25:31  5-MIN KMKG 101025Z 03006KT 10SM SCT040 09/05 A3002 540 76 0 030/06 RMK AO2
14840KMKG MKG20060610053009306/10/06 05:30:31  5-MIN KMKG 101030Z 04006KT 10SM SCT040 09/05 A3003 530 76 0 050/06 RMK AO2
14840KMKG MKG20060610053509306/10/06 05:35:31  5-MIN KMKG 101035Z 04005KT 10SM SCT040 09/05 A3003 530 76 0 040/05 RMK AO2
14840KMKG MKG20060610054009306/10/06 05:40:31  5-MIN KMKG 101040Z 05005KT 10SM SCT040 09/05 A3003 530 76 0 050/05 RMK AO2
14840KMKG MKG20060610054509306/10/06 05:45:31  5-MIN KMKG 101045Z 04005KT 10SM SCT040 09/05 A3003 530 76 0 050/05 RMK AO2
14840KMKG MKG20060610055011006/10/06 05:50:31  5-MIN KMKG 101050Z 04007KT 10SM SCT040 09/04 A3003 530 73 0 050/07 RMK AO2 SLP170 T00890044
14840KMKG MKG20060610055511006/10/06 05:55:31  5-MIN KMKG 101055Z 04008KT 10SM SCT040 09/04 A3003 530 73 0 050/08 RMK AO2 SLP171 T00890044
14840KMKG MKG20060610060009306/10/06 06:00:31  5-MIN KMKG 101100Z 05006KT 10SM SCT025 09/04 A3003 530 73 0 060/06 RMK AO2
14840KMKG MKG20060610060509306/10/06 06:05:31  5-MIN KMKG 101105Z 04006KT 10SM SCT025 09/05 A3003 530 76 0 050/06 RMK AO2
14840KMKG MKG20060610061009306/10/06 06:10:31  5-MIN KMKG 101110Z 04007KT 10SM SCT025 09/04 A3003 530 71 0 050/07 RMK AO2
14840KMKG MKG20060610061509306/10/06 06:15:31  5-MIN KMKG 101115Z 05007KT 10SM SCT025 09/04 A3003 530 71 0 050/07 RMK AO2
14840KMKG MKG20060610062009306/10/06 06:20:31  5-MIN KMKG 101120Z 05008KT 10SM SCT025 09/04 A3003 530 71 0 060/08 RMK AO2
14840KMKG MKG20060610062509306/10/06 06:25:31  5-MIN KMKG 101125Z 05008KT 10SM SCT025 09/04 A3003 530 71 0 060/08 RMK AO2
14840KMKG MKG20060610063009306/10/06 06:30:31  5-MIN KMKG 101130Z 06007KT 10SM FEW025 09/04 A3004 520 71 0 060/07 RMK AO2
14840KMKG MKG20060610063509306/10/06 06:35:31  5-MIN KMKG 101135Z 05007KT 10SM FEW025 09/04 A3004 520 71 0 060/07 RMK AO2
14840KMKG MKG20060610064009306/10/06 06:40:31  5-MIN KMKG 101140Z 05008KT 10SM FEW025 09/04 A3004 520 71 0 060/08 RMK AO2
14840KMKG MKG20060610064509306/10/06 06:45:31  5-MIN KMKG 101145Z 05007KT 10SM FEW025 09/04 A3004 520 71 0 050/07 RMK AO2
14840KMKG MKG20060610065013006/10/06 06:50:31  5-MIN KMKG 101150Z 05006KT 10SM FEW025 10/04 A3005 510 68 100 060/06 RMK AO2 SLP175 T01000044 10117 20083 58005
14840KMKG MKG20060610065513006/10/06 06:55:31  5-MIN KMKG 101155Z 05006KT 10SM FEW025 10/04 A3005 510 68 100 050/06 RMK AO2 SLP175 T01000044 10117 20083 53010
14840KMKG MKG20060610070009206/10/06 07:00:31  5-MIN KMKG 101200Z 05005KT 10SM CLR 10/05 A3005 510 71 100 050/05 RMK AO2
14840KMKG MKG20060610070509506/10/06 07:05:31  5-MIN KMKG 101205Z 05006KT 10SM FEW037 10/05 A3005 510 71 100 060/06 RMK AO2
14840KMKG MKG20060610071009506/10/06 07:10:31  5-MIN KMKG 101210Z 06006KT 10SM FEW037 10/05 A3005 510 71 100 060/06 RMK AO2
14840KMKG MKG20060610071509506/10/06 07:15:31  5-MIN KMKG 101215Z 05007KT 10SM FEW037 11/04 A3004 520 66 100 050/07 RMK AO2
14840KMKG MKG20060610072009506/10/06 07:20:31  5-MIN KMKG 101220Z 05007KT 10SM FEW037 11/05 A3004 520 68 100 060/07 RMK AO2
14840KMKG MKG20060610072509506/10/06 07:25:31  5-MIN KMKG 101225Z 05007KT 10SM FEW037 11/05 A3004 520 66 200 050/07 RMK AO2
14840KMKG MKG20060610073009506/10/06 07:30:31  5-MIN KMKG 101230Z 05005KT 10SM FEW037 11/05 A3004 520 66 200 060/05 RMK AO2
14840KMKG MKG20060610073509206/10/06 07:35:31  5-MIN KMKG 101235Z 05008KT 10SM CLR 11/05 A3004 520 66 200 050/08 RMK AO2
14840KMKG MKG20060610074009506/10/06 07:40:31  5-MIN KMKG 101240Z 06007KT 10SM FEW037 12/05 A3004 520 63 300 070/07 RMK AO2
14840KMKG MKG20060610074509506/10/06 07:45:31  5-MIN KMKG 101245Z 07008KT 10SM FEW037 12/05 A3004 520 63 300 070/08 RMK AO2
14840KMKG MKG20060610075011206/10/06 07:50:31  5-MIN KMKG 101250Z 06008KT 10SM FEW037 12/04 A3004 520 61 300 070/08 RMK AO2 SLP172 T01170044
14840KMKG MKG20060610075511206/10/06 07:55:31  5-MIN KMKG 101255Z 06007KT 10SM FEW037 12/04 A3004 520 61 300 060/07 RMK AO2 SLP172 T01170044
14840KMKG MKG20060610080009206/10/06 08:00:31  5-MIN KMKG 101300Z 06005KT 10SM CLR 12/05 A3004 520 61 400 060/05 RMK AO2
14840KMKG MKG20060610080509206/10/06 08:05:31  5-MIN KMKG 101305Z 06007KT 10SM CLR 12/05 A3004 520 61 400 070/07 RMK AO2
14840KMKG MKG20060610081009206/10/06 08:10:31  5-MIN KMKG 101310Z 08006KT 10SM CLR 13/04 A3004 520 56 400 090/06 RMK AO2
14840KMKG MKG20060610081509206/10/06 08:15:31  5-MIN KMKG 101315Z 06007KT 10SM CLR 13/05 A3004 520 59 400 070/07 RMK AO2
14840KMKG MKG20060610082009206/10/06 08:20:31  5-MIN KMKG 101320Z 07007KT 10SM CLR 13/05 A3004 520 59 400 070/07 RMK AO2
14840KMKG MKG20060610082509206/10/06 08:25:31  5-MIN KMKG 101325Z 07006KT 10SM CLR 13/05 A3004 520 59 400 080/06 RMK AO2
14840KMKG MKG20060610083009206/10/06 08:30:31  5-MIN KMKG 101330Z 05006KT 10SM CLR 13/05 A3004 520 57 500 060/06 RMK AO2
14840KMKG MKG20060610083509206/10/06 08:35:31  5-MIN KMKG 101335Z 06005KT 10SM CLR 13/06 A3004 520 59 500 070/05 RMK AO2
14840KMKG MKG20060610084009206/10/06 08:40:31  5-MIN KMKG 101340Z 06004KT 10SM CLR 13/06 A3004 520 59 500 070/04 RMK AO2
14840KMKG MKG20060610084509506/10/06 08:45:31  5-MIN KMKG 101345Z 07005KT 10SM FEW044 13/06 A3004 520 59 500 080/05 RMK AO2
14840KMKG MKG20060610085011206/10/06 08:50:31  5-MIN KMKG 101350Z 07005KT 10SM FEW044 14/06 A3004 520 59 600 080/05 RMK AO2 SLP173 T01390061
14840KMKG MKG20060610085511206/10/06 08:55:31  5-MIN KMKG 101355Z VRB05KT 10SM FEW044 14/06 A3004 520 57 600 VRB/05 RMK AO2 SLP173 T01390056
14840KMKG MKG20060610090009206/10/06 09:00:31  5-MIN KMKG 101400Z 06008KT 10SM CLR 14/06 A3004 520 55 600 070/08 RMK AO2
14840KMKG MKG20060610090509206/10/06 09:05:31  5-MIN KMKG 101405Z 08006KT 10SM CLR 14/05 A3004 520 55 600 090/06 RMK AO2
14840KMKG MKG20060610091009206/10/06 09:10:31  5-MIN KMKG 101410Z 08006KT 10SM CLR 14/05 A3003 530 55 600 090/06 RMK AO2
14840KMKG MKG20060610091509206/10/06 09:15:31  5-MIN KMKG 101415Z 09005KT 10SM CLR 14/06 A3003 520 57 600 090/05 RMK AO2
14840KMKG MKG20060610092009206/10/06 09:20:31  5-MIN KMKG 101420Z 05006KT 10SM CLR 14/06 A3003 530 55 600 060/06 RMK AO2
14840KMKG MKG20060610092509206/10/06 09:25:31  5-MIN KMKG 101425Z 05006KT 10SM CLR 14/06 A3003 530 57 600 050/06 RMK AO2
14840KMKG MKG20060610093009206/10/06 09:30:31  5-MIN KMKG 101430Z VRB03KT 10SM CLR 14/06 A3003 530 57 600 VRB/03 RMK AO2
14840KMKG MKG20060610093509206/10/06 09:35:31  5-MIN KMKG 101435Z 06007KT 10SM CLR 14/06 A3003 530 55 600 060/07 RMK AO2
14840KMKG MKG20060610094009206/10/06 09:40:31  5-MIN KMKG 101440Z 07005KT 10SM CLR 14/06 A3003 530 55 600 070/05 RMK AO2
14840KMKG MKG20060610094509206/10/06 09:45:31  5-MIN KMKG 101445Z 04005KT 10SM CLR 15/06 A3003 530 53 700 050/05 RMK AO2
14840KMKG MKG20060610095011506/10/06 09:50:31  5-MIN KMKG 101450Z VRB03KT 10SM CLR 16/06 A3003 530 51 800 VRB/03 RMK AO2 SLP169 T01560056 53010
14840KMKG MKG20060610095511506/10/06 09:55:31  5-MIN KMKG 101455Z VRB04KT 10SM CLR 16/06 A3003 530 51 800 VRB/04 RMK AO2 SLP170 T01560056 56004
14840KMKG MKG20060610100009206/10/06 10:00:31  5-MIN KMKG 101500Z 07006KT 10SM CLR 16/05 A3003 530 49 800 070/06 RMK AO2
14840KMKG MKG20060610100509206/10/06 10:05:31  5-MIN KMKG 101505Z VRB05KT 10SM CLR 16/05 A3003 530 49 800 VRB/05 RMK AO2
14840KMKG MKG20060610101009206/10/06 10:10:31  5-MIN KMKG 101510Z 06006KT 10SM CLR 16/05 A3003 530 47 800 060/06 RMK AO2
14840KMKG MKG20060610101509206/10/06 10:15:31  5-MIN KMKG 101515Z 05007KT 10SM CLR 16/04 A3003 530 45 800 060/07 RMK AO2
14840KMKG MKG20060610102009206/10/06 10:20:31  5-MIN KMKG 101520Z VRB06KT 10SM CLR 17/04 A3003 530 42 900 VRB/06 RMK AO2
14840KMKG MKG20060610102509206/10/06 10:25:31  5-MIN KMKG 101525Z 07007KT 10SM CLR 17/04 A3003 530 42 900 080/07 RMK AO2
14840KMKG MKG20060610103009306/10/06 10:30:31  5-MIN KMKG 101530Z 08007KT 10SM CLR 17/04 A3002 530 41 1000 080/07 RMK AO2
14840KMKG MKG20060610103509206/10/06 10:35:31  5-MIN KMKG 101535Z 07006KT 10SM CLR 17/03 A3002 530 40 900 070/06 RMK AO2
14840KMKG MKG20060610104009206/10/06 10:40:31  5-MIN KMKG 101540Z 09006KT 10SM CLR 17/04 A3002 540 42 900 090/06 RMK AO2
14840KMKG MKG20060610104509206/10/06 10:45:31  5-MIN KMKG 101545Z 04009KT 10SM CLR 17/04 A3002 540 42 900 040/09 RMK AO2
14840KMKG MKG20060610105011006/10/06 10:50:31  5-MIN KMKG 101550Z VRB05KT 10SM CLR 18/04 A3002 540 39 1000 VRB/05 RMK AO2 SLP165 T01780039
14840KMKG MKG20060610105511006/10/06 10:55:31  5-MIN KMKG 101555Z VRB03KT 10SM CLR 17/04 A3002 540 41 1000 VRB/03 RMK AO2 SLP165 T01720039
14840KMKG MKG20060610110009306/10/06 11:00:31  5-MIN KMKG 101600Z VRB06KT 10SM CLR 17/04 A3002 540 41 1000 VRB/06 RMK AO2
14840KMKG MKG20060610110509306/10/06 11:05:31  5-MIN KMKG 101605Z VRB05KT 10SM CLR 17/04 A3001 550 41 1000 VRB/05 RMK AO2
14840KMKG MKG20060610111009606/10/06 11:10:31  5-MIN KMKG 101610Z 11006KT 10SM FEW100 17/03 A3002 540 39 1000 110/06 RMK AO2
14840KMKG MKG20060610111509606/10/06 11:15:31  5-MIN KMKG 101615Z VRB03KT 10SM FEW100 17/03 A3001 540 37 1000 VRB/03 RMK AO2
14840KMKG MKG20060610112009306/10/06 11:20:31  5-MIN KMKG 101620Z 16006KT 10SM CLR 17/03 A3001 540 39 1000 170/06 RMK AO2
14840KMKG MKG20060610112509306/10/06 11:25:31  5-MIN KMKG 101625Z 07007KT 10SM CLR 17/02 A3002 540 36 1000 070/07 RMK AO2
14840KMKG MKG20060610113009306/10/06 11:30:31  5-MIN KMKG 101630Z 08006KT 10SM CLR 17/02 A3001 540 36 1000 090/06 RMK AO2
14840KMKG MKG20060610113509306/10/06 11:35:31  5-MIN KMKG 101635Z 01006KT 10SM CLR 18/03 A3001 540 35 1100 010/06 RMK AO2
14840KMKG MKG20060610114009306/10/06 11:40:31  5-MIN KMKG 101640Z VRB06KT 10SM CLR 18/02 A3001 540 34 1100 VRB/06 RMK AO2
14840KMKG MKG20060610114511206/10/06 11:45:31  5-MIN KMKG 101645Z 05007KT 350V090 10SM FEW060 18/02 A3001 540 35 1000 060/07 350V090 RMK AO2
14840KMKG MKG20060610115011306/10/06 11:50:31  5-MIN KMKG 101650Z 01006KT 10SM FEW060 18/02 A3001 540 32 1100 010/06 RMK AO2 SLP164 T01830017
14840KMKG MKG20060610115511306/10/06 11:55:31  5-MIN KMKG 101655Z 35007KT 10SM FEW060 18/01 A3002 540 31 1100 360/07 RMK AO2 SLP164 T01830011
14840KMKG MKG20060610120009306/10/06 12:00:31  5-MIN KMKG 101700Z 02009KT 10SM CLR 19/01 A3002 540 30 1200 030/09 RMK AO2
14840KMKG MKG20060610120509306/10/06 12:05:31  5-MIN KMKG 101705Z 03009KT 10SM CLR 19/01 A3001 540 30 1200 030/09 RMK AO2
14840KMKG MKG20060610121010906/10/06 12:10:31  5-MIN KMKG 101710Z 02008KT 350V060 10SM CLR 19/02 A3001 540 31 1200 030/08 350V060 RMK AO2
14840KMKG MKG20060610121509306/10/06 12:15:31  5-MIN KMKG 101715Z 36009KT 10SM CLR 19/02 A3001 550 31 1200 010/09 RMK AO2
14840KMKG MKG20060610122009306/10/06 12:20:31  5-MIN KMKG 101720Z 04009KT 10SM CLR 18/02 A3001 550 32 1100 040/09 RMK AO2
14840KMKG MKG20060610122509306/10/06 12:25:31  5-MIN KMKG 101725Z VRB05KT 10SM CLR 19/02 A3001 550 31 1200 VRB/05 RMK AO2
14840KMKG MKG20060610123009306/10/06 12:30:31  5-MIN KMKG 101730Z VRB05KT 10SM CLR 19/02 A3001 550 31 1200 VRB/05 RMK AO2
14840KMKG MKG20060610123509306/10/06 12:35:31  5-MIN KMKG 101735Z 33006KT 10SM CLR 19/02 A3001 550 32 1200 340/06 RMK AO2
14840KMKG MKG20060610124009306/10/06 12:40:31  5-MIN KMKG 101740Z VRB04KT 10SM CLR 19/02 A3001 550 31 1200 VRB/04 RMK AO2
14840KMKG MKG20060610124509306/10/06 12:45:31  5-MIN KMKG 101745Z VRB04KT 10SM CLR 18/02 A3000 550 32 1100 VRB/04 RMK AO2
14840KMKG MKG20060610125012806/10/06 12:50:31  5-MIN KMKG 101750Z 28011KT 10SM CLR 18/04 A3000 560 41 1100 290/11 RMK AO2 SLP158 T01780044 10194 20100 56004
14840KMKG MKG20060610125512806/10/06 12:55:31  5-MIN KMKG 101755Z 27008KT 10SM CLR 18/04 A3000 560 41 1100 270/08 RMK AO2 SLP158 T01780044 10194 20100 58012
14840KMKG MKG20060610130010906/10/06 13:00:31  5-MIN KMKG 101800Z 29007KT 250V320 10SM CLR 18/05 A3000 560 41 1100 300/07 250V320 RMK AO2
14840KMKG MKG20060610130509306/10/06 13:05:31  5-MIN KMKG 101805Z 30012KT 10SM CLR 18/05 A3000 560 41 1100 310/12 RMK AO2
14840KMKG MKG20060610131009306/10/06 13:10:31  5-MIN KMKG 101810Z 30012KT 10SM CLR 18/04 A3000 560 41 1100 310/12 RMK AO2
14840KMKG MKG20060610131509306/10/06 13:15:31  5-MIN KMKG 101815Z 31010KT 10SM CLR 18/04 A2999 560 39 1100 310/10 RMK AO2
14840KMKG MKG20060610132009306/10/06 13:20:31  5-MIN KMKG 101820Z 31011KT 10SM CLR 18/04 A3000 560 38 1100 320/11 RMK AO2
14840KMKG MKG20060610132509306/10/06 13:25:31  5-MIN KMKG 101825Z 30015KT 10SM CLR 18/03 A2999 560 38 1100 300/15 RMK AO2
14840KMKG MKG20060610133009306/10/06 13:30:31  5-MIN KMKG 101830Z 30014KT 10SM CLR 17/03 A3000 560 37 1000 310/14 RMK AO2
14840KMKG MKG20060610133509306/10/06 13:35:31  5-MIN KMKG 101835Z 30015KT 10SM CLR 18/03 A3000 560 38 1100 300/15 RMK AO2
14840KMKG MKG20060610134009306/10/06 13:40:31  5-MIN KMKG 101840Z 30015KT 10SM CLR 17/03 A3000 560 37 1000 310/15 RMK AO2
14840KMKG MKG20060610134509606/10/06 13:45:31  5-MIN KMKG 101845Z 31012KT 10SM FEW090 17/03 A2999 560 39 1000 320/12 RMK AO2
14840KMKG MKG20060610135011306/10/06 13:50:31  5-MIN KMKG 101850Z 29015KT 10SM FEW090 17/03 A3000 560 39 1000 300/15 RMK AO2 SLP158 T01720033
14840KMKG MKG20060610135511006/10/06 13:55:31  5-MIN KMKG 101855Z 29012KT 10SM CLR 18/03 A2999 560 36 1100 290/12 RMK AO2 SLP158 T01780028
14840KMKG MKG20060610140009306/10/06 14:00:31  5-MIN KMKG 101900Z 29015KT 10SM CLR 17/02 A2999 560 36 1000 300/15 RMK AO2
14840KMKG MKG20060610140509306/10/06 14:05:31  5-MIN KMKG 101905Z 32013KT 10SM CLR 17/03 A2999 570 37 1000 320/13 RMK AO2
14840KMKG MKG20060610141009306/10/06 14:10:31  5-MIN KMKG 101910Z 31012KT 10SM CLR 17/02 A2999 570 36 1000 310/12 RMK AO2
14840KMKG MKG20060610141509306/10/06 14:15:31  5-MIN KMKG 101915Z 30013KT 10SM CLR 17/02 A2999 570 36 1000 300/13 RMK AO2
14840KMKG MKG20060610142009306/10/06 14:20:31  5-MIN KMKG 101920Z 32014KT 10SM CLR 17/02 A2998 570 35 1000 320/14 RMK AO2
14840KMKG MKG20060610142509606/10/06 14:25:31  5-MIN KMKG 101925Z 30013KT 10SM FEW085 18/03 A2998 570 36 1100 300/13 RMK AO2
14840KMKG MKG20060610143009606/10/06 14:30:31  5-MIN KMKG 101930Z 30012KT 10SM FEW085 17/02 A2998 570 36 1000 300/12 RMK AO2
14840KMKG MKG20060610143509906/10/06 14:35:31  5-MIN KMKG 101935Z 32011G18KT 10SM CLR 18/03 A2998 570 36 1100 320/11G18 RMK AO2
14840KMKG MKG20060610144009906/10/06 14:40:31  5-MIN KMKG 101940Z 30012G18KT 10SM CLR 18/02 A2998 580 35 1100 310/12G18 RMK AO2
14840KMKG MKG20060610144509306/10/06 14:45:31  5-MIN KMKG 101945Z 30013KT 10SM CLR 18/02 A2998 580 35 1100 300/13 RMK AO2
14840KMKG MKG20060610145011006/10/06 14:50:31  5-MIN KMKG 101950Z 31012KT 10SM CLR 18/02 A2998 580 35 1100 310/12 RMK AO2 SLP152 T01780022
14840KMKG MKG20060610145511006/10/06 14:55:31  5-MIN KMKG 101955Z 31011KT 10SM CLR 18/03 A2998 580 36 1100 310/11 RMK AO2 SLP151 T01780028
14840KMKG MKG20060610150009306/10/06 15:00:31  5-MIN KMKG 102000Z 29010KT 10SM CLR 18/02 A2997 580 35 1100 300/10 RMK AO2
14840KMKG MKG20060610150509306/10/06 15:05:31  5-MIN KMKG 102005Z 29010KT 10SM CLR 18/03 A2997 580 36 1100 290/10 RMK AO2
14840KMKG MKG20060610151009306/10/06 15:10:31  5-MIN KMKG 102010Z 31013KT 10SM CLR 18/03 A2997 590 36 1100 310/13 RMK AO2
14840KMKG MKG20060610151509306/10/06 15:15:31  5-MIN KMKG 102015Z 29012KT 10SM CLR 18/03 A2996 590 36 1100 300/12 RMK AO2
14840KMKG MKG20060610152009306/10/06 15:20:31  5-MIN KMKG 102020Z 30012KT 10SM CLR 18/03 A2996 590 36 1100 310/12 RMK AO2
14840KMKG MKG20060610152509906/10/06 15:25:31  5-MIN KMKG 102025Z 30010G17KT 10SM CLR 18/03 A2996 590 36 1100 300/10G17 RMK AO2
14840KMKG MKG20060610153009306/10/06 15:30:31  5-MIN KMKG 102030Z 30010KT 10SM CLR 18/03 A2996 600 38 1100 300/10 RMK AO2
14840KMKG MKG20060610153509306/10/06 15:35:31  5-MIN KMKG 102035Z 30011KT 10SM CLR 18/03 A2995 600 38 1100 300/11 RMK AO2
14840KMKG MKG20060610154009306/10/06 15:40:31  5-MIN KMKG 102040Z 30011KT 10SM CLR 18/03 A2995 600 38 1100 300/11 RMK AO2
14840KMKG MKG20060610154509306/10/06 15:45:31  5-MIN KMKG 102045Z 29011KT 10SM CLR 18/03 A2995 600 36 1200 290/11 RMK AO2
14840KMKG MKG20060610155011606/10/06 15:50:31  5-MIN KMKG 102050Z 29008KT 10SM CLR 18/03 A2995 600 36 1200 290/08 RMK AO2 SLP142 T01830033 58012
14840KMKG MKG20060610155511606/10/06 15:55:31  5-MIN KMKG 102055Z 28012KT 10SM CLR 18/04 A2995 600 38 1200 290/12 RMK AO2 SLP142 T01830039 58016
14840KMKG MKG20060610160009306/10/06 16:00:31  5-MIN KMKG 102100Z 28011KT 10SM CLR 18/03 A2995 600 36 1200 280/11 RMK AO2
14840KMKG MKG20060610160509306/10/06 16:05:31  5-MIN KMKG 102105Z 29012KT 10SM CLR 19/04 A2995 610 36 1200 290/12 RMK AO2
14840KMKG MKG20060610161009606/10/06 16:10:31  5-MIN KMKG 102110Z 28011KT 10SM FEW080 18/03 A2995 610 36 1200 280/11 RMK AO2
14840KMKG MKG20060610161509306/10/06 16:15:31  5-MIN KMKG 102115Z 28012KT 10SM CLR 18/03 A2995 610 36 1100 280/12 RMK AO2
14840KMKG MKG20060610162009306/10/06 16:20:31  5-MIN KMKG 102120Z 28011KT 10SM CLR 18/03 A2995 610 36 1100 280/11 RMK AO2
14840KMKG MKG20060610162509306/10/06 16:25:31  5-MIN KMKG 102125Z 30011KT 10SM CLR 18/03 A2994 610 35 1200 300/11 RMK AO2
14840KMKG MKG20060610163009306/10/06 16:30:31  5-MIN KMKG 102130Z 28012KT 10SM CLR 18/03 A2994 610 36 1100 290/12 RMK AO2
14840KMKG MKG20060610163509306/10/06 16:35:31  5-MIN KMKG 102135Z 29011KT 10SM CLR 18/03 A2994 610 36 1100 290/11 RMK AO2
14840KMKG MKG20060610164009306/10/06 16:40:31  5-MIN KMKG 102140Z 29012KT 10SM CLR 18/03 A2994 610 36 1100 290/12 RMK AO2
14840KMKG MKG20060610164509306/10/06 16:45:31  5-MIN KMKG 102145Z 29012KT 10SM CLR 18/03 A2994 610 36 1100 290/12 RMK AO2
14840KMKG MKG20060610165011006/10/06 16:50:31  5-MIN KMKG 102150Z 29013KT 10SM CLR 18/02 A2994 610 35 1100 300/13 RMK AO2 SLP140 T01780022
14840KMKG MKG20060610165511006/10/06 16:55:31  5-MIN KMKG 102155Z 29013KT 10SM CLR 18/02 A2994 610 35 1100 290/13 RMK AO2 SLP140 T01780022
14840KMKG MKG20060610170009306/10/06 17:00:31  5-MIN KMKG 102200Z 29012KT 10SM CLR 18/02 A2994 610 35 1100 300/12 RMK AO2
14840KMKG MKG20060610170509306/10/06 17:05:31  5-MIN KMKG 102205Z 30010KT 10SM CLR 18/03 A2994 620 35 1200 300/10 RMK AO2
14840KMKG MKG20060610171009306/10/06 17:10:31  5-MIN KMKG 102210Z 30011KT 10SM CLR 18/02 A2994 610 35 1100 300/11 RMK AO2
14840KMKG MKG20060610171509306/10/06 17:15:31  5-MIN KMKG 102215Z 29011KT 10SM CLR 18/02 A2994 620 35 1100 290/11 RMK AO2
14840KMKG MKG20060610172009306/10/06 17:20:31  5-MIN KMKG 102220Z 29012KT 10SM CLR 18/03 A2993 620 36 1100 300/12 RMK AO2
14840KMKG MKG20060610172509306/10/06 17:25:31  5-MIN KMKG 102225Z 28010KT 10SM CLR 18/03 A2993 620 36 1100 280/10 RMK AO2
14840KMKG MKG20060610173009306/10/06 17:30:31  5-MIN KMKG 102230Z 30011KT 10SM CLR 18/03 A2993 620 36 1100 300/11 RMK AO2
14840KMKG MKG20060610173509306/10/06 17:35:31  5-MIN KMKG 102235Z 29011KT 10SM CLR 18/03 A2993 620 36 1100 290/11 RMK AO2
14840KMKG MKG20060610174009306/10/06 17:40:31  5-MIN KMKG 102240Z 29011KT 10SM CLR 18/03 A2993 620 38 1100 290/11 RMK AO2
14840KMKG MKG20060610174509306/10/06 17:45:31  5-MIN KMKG 102245Z 31010KT 10SM CLR 18/03 A2993 620 36 1200 310/10 RMK AO2
14840KMKG MKG20060610175011006/10/06 17:50:31  5-MIN KMKG 102250Z 34014KT 10SM CLR 18/03 A2994 620 38 1100 350/14 RMK AO2 SLP138 T01780033
14840KMKG MKG20060610175511006/10/06 17:55:31  5-MIN KMKG 102255Z 36011KT 10SM CLR 18/03 A2994 610 35 1200 360/11 RMK AO2 SLP139 T01830028
14840KMKG MKG20060610180009306/10/06 18:00:31  5-MIN KMKG 102300Z 36014KT 10SM CLR 18/02 A2994 610 32 1200 360/14 RMK AO2
14840KMKG MKG20060610180509306/10/06 18:05:31  5-MIN KMKG 102305Z 35011KT 10SM CLR 18/02 A2994 610 34 1200 350/11 RMK AO2
14840KMKG MKG20060610181009906/10/06 18:10:31  5-MIN KMKG 102310Z 34013G18KT 10SM CLR 19/02 A2994 610 32 1300 340/13G18 RMK AO2
14840KMKG MKG20060610181509906/10/06 18:15:31  5-MIN KMKG 102315Z 35014G18KT 10SM CLR 18/02 A2994 610 35 1100 350/14G18 RMK AO2
14840KMKG MKG20060610182009306/10/06 18:20:31  5-MIN KMKG 102320Z 34015KT 10SM CLR 18/02 A2994 610 33 1100 340/15 RMK AO2
14840KMKG MKG20060610182509306/10/06 18:25:31  5-MIN KMKG 102325Z 34010KT 10SM CLR 17/02 A2994 610 35 1100 350/10 RMK AO2
14840KMKG MKG20060610183009306/10/06 18:30:31  5-MIN KMKG 102330Z 35009KT 10SM CLR 17/02 A2994 610 36 1100 360/09 RMK AO2
14840KMKG MKG20060610183509306/10/06 18:35:31  5-MIN KMKG 102335Z 35008KT 10SM CLR 18/02 A2995 610 35 1100 350/08 RMK AO2
14840KMKG MKG20060610184009306/10/06 18:40:31  5-MIN KMKG 102340Z 35009KT 10SM CLR 18/03 A2994 610 36 1100 360/09 RMK AO2
14840KMKG MKG20060610184509306/10/06 18:45:31  5-MIN KMKG 102345Z 01012KT 10SM CLR 18/02 A2994 610 33 1100 010/12 RMK AO2
14840KMKG MKG20060610185012806/10/06 18:50:31  5-MIN KMKG 102350Z 34012KT 10SM CLR 17/02 A2994 610 36 1100 350/12 RMK AO2 SLP140 T01720022 10189 20172 58016
14840KMKG MKG20060610185512806/10/06 18:55:31  5-MIN KMKG 102355Z 35010KT 10SM CLR 18/03 A2994 610 36 1100 360/10 RMK AO2 SLP140 T01780028 10189 20172 55002
14840KMKG MKG20060610190009306/10/06 19:00:31  5-MIN KMKG 110000Z 35011KT 10SM CLR 18/03 A2994 610 35 1200 350/11 RMK AO2
14840KMKG MKG20060610190509306/10/06 19:05:31  5-MIN KMKG 110005Z 35010KT 10SM CLR 18/03 A2995 610 36 1100 350/10 RMK AO2
14840KMKG MKG20060610191009306/10/06 19:10:31  5-MIN KMKG 110010Z 35013KT 10SM CLR 17/03 A2995 610 37 1000 350/13 RMK AO2
14840KMKG MKG20060610191509306/10/06 19:15:31  5-MIN KMKG 110015Z 35010KT 10SM CLR 17/03 A2995 600 37 1000 360/10 RMK AO2
14840KMKG MKG20060610192009306/10/06 19:20:31  5-MIN KMKG 110020Z 36012KT 10SM CLR 17/02 A2995 600 37 1000 010/12 RMK AO2
14840KMKG MKG20060610192509306/10/06 19:25:31  5-MIN KMKG 110025Z 36011KT 10SM CLR 17/02 A2995 600 37 1000 010/11 RMK AO2
14840KMKG MKG20060610194509506/10/06 19:45:31  5-MIN KMKG 110045Z 36009KT 10SM FEW080 16/03 A2995 600 40 900 010/09 RMK AO2
14840KMKG MKG20060610195011206/10/06 19:50:31  5-MIN KMKG 110050Z 36011KT 10SM FEW085 16/03 A2995 600 40 900 010/11 RMK AO2 SLP144 T01610028
14840KMKG MKG20060610195511206/10/06 19:55:31  5-MIN KMKG 110055Z 01012KT 10SM FEW085 16/02 A2995 600 39 900 010/12 RMK AO2 SLP144 T01610022
14840KMKG MKG20060610200009206/10/06 20:00:31  5-MIN KMKG 110100Z 01009KT 10SM CLR 16/03 A2995 600 40 900 020/09 RMK AO2
14840KMKG MKG20060610200509506/10/06 20:05:31  5-MIN KMKG 110105Z 01012KT 10SM FEW085 16/03 A2996 600 42 800 010/12 RMK AO2
14840KMKG MKG20060610201010106/10/06 20:10:31  5-MIN KMKG 110110Z 36009G14KT 10SM FEW085 16/02 A2996 600 40 800 360/09G14 RMK AO2
14840KMKG MKG20060610201509506/10/06 20:15:31  5-MIN KMKG 110115Z 01008KT 10SM FEW085 16/03 A2996 600 42 800 020/08 RMK AO2
14840KMKG MKG20060610202009506/10/06 20:20:31  5-MIN KMKG 110120Z 36011KT 10SM FEW085 15/02 A2996 600 42 800 360/11 RMK AO2
14840KMKG MKG20060610202509506/10/06 20:25:31  5-MIN KMKG 110125Z 01011KT 10SM FEW085 15/02 A2996 590 42 800 010/11 RMK AO2
14840KMKG MKG20060610203009506/10/06 20:30:31  5-MIN KMKG 110130Z 01009KT 10SM FEW085 15/02 A2996 600 42 800 010/09 RMK AO2
14840KMKG MKG20060610203509506/10/06 20:35:31  5-MIN KMKG 110135Z 01011KT 10SM FEW085 15/02 A2996 590 42 800 010/11 RMK AO2
14840KMKG MKG20060610204009506/10/06 20:40:31  5-MIN KMKG 110140Z 01009KT 10SM FEW085 15/02 A2996 590 42 800 010/09 RMK AO2
14840KMKG MKG20060610204509506/10/06 20:45:31  5-MIN KMKG 110145Z 36011KT 10SM FEW085 14/02 A2996 590 43 700 010/11 RMK AO2
14840KMKG MKG20060610205011206/10/06 20:50:31  5-MIN KMKG 110150Z 36011KT 10SM FEW085 14/02 A2996 590 41 700 010/11 RMK AO2 SLP147 T01440017
14840KMKG MKG20060610205511206/10/06 20:55:31  5-MIN KMKG 110155Z 36011KT 10SM FEW100 14/02 A2997 590 43 700 010/11 RMK AO2 SLP148 T01440022
14840KMKG MKG20060610210009206/10/06 21:00:31  5-MIN KMKG 110200Z 36009KT 10SM CLR 14/02 A2997 580 43 700 010/09 RMK AO2
14840KMKG MKG20060610210509206/10/06 21:05:31  5-MIN KMKG 110205Z 01009KT 10SM CLR 14/02 A2997 580 43 700 010/09 RMK AO2
14840KMKG MKG20060610211009206/10/06 21:10:31  5-MIN KMKG 110210Z 01008KT 10SM CLR 14/02 A2997 580 45 600 010/08 RMK AO2
14840KMKG MKG20060610211509206/10/06 21:15:31  5-MIN KMKG 110215Z 01007KT 10SM CLR 14/02 A2997 580 45 600 020/07 RMK AO2
14840KMKG MKG20060610212009206/10/06 21:20:31  5-MIN KMKG 110220Z 01009KT 10SM CLR 14/02 A2997 580 45 600 010/09 RMK AO2
14840KMKG MKG20060610212509206/10/06 21:25:31  5-MIN KMKG 110225Z 01008KT 10SM CLR 14/02 A2998 580 45 600 010/08 RMK AO2
14840KMKG MKG20060610213009206/10/06 21:30:31  5-MIN KMKG 110230Z 01009KT 10SM CLR 13/02 A2998 580 46 600 010/09 RMK AO2
14840KMKG MKG20060610213509206/10/06 21:35:31  5-MIN KMKG 110235Z 01007KT 10SM CLR 13/02 A2998 580 46 600 020/07 RMK AO2
14840KMKG MKG20060610214009206/10/06 21:40:31  5-MIN KMKG 110240Z 02008KT 10SM CLR 13/02 A2998 580 46 600 020/08 RMK AO2
14840KMKG MKG20060610214509206/10/06 21:45:31  5-MIN KMKG 110245Z 02008KT 10SM CLR 13/02 A2998 580 46 600 020/08 RMK AO2
14840KMKG MKG20060610215011506/10/06 21:50:31  5-MIN KMKG 110250Z 02008KT 10SM CLR 13/02 A2997 580 46 600 030/08 RMK AO2 SLP151 T01330022 55002
14840KMKG MKG20060610215511506/10/06 21:55:31  5-MIN KMKG 110255Z 02006KT 10SM CLR 13/02 A2998 580 48 500 020/06 RMK AO2 SLP152 T01280022 53012
14840KMKG MKG20060610220009206/10/06 22:00:31  5-MIN KMKG 110300Z 03007KT 10SM CLR 13/02 A2998 580 48 500 030/07 RMK AO2
14840KMKG MKG20060610220509206/10/06 22:05:31  5-MIN KMKG 110305Z 03006KT 10SM CLR 13/02 A2998 570 48 500 030/06 RMK AO2
14840KMKG MKG20060610221009206/10/06 22:10:31  5-MIN KMKG 110310Z 03006KT 10SM CLR 13/02 A2998 570 48 500 030/06 RMK AO2
14840KMKG MKG20060610221509206/10/06 22:15:31  5-MIN KMKG 110315Z 02005KT 10SM CLR 12/03 A2998 570 52 400 030/05 RMK AO2
14840KMKG MKG20060610222009206/10/06 22:20:31  5-MIN KMKG 110320Z 03007KT 10SM CLR 13/03 A2998 570 50 500 030/07 RMK AO2
14840KMKG MKG20060610222509206/10/06 22:25:31  5-MIN KMKG 110325Z 03008KT 10SM CLR 13/03 A2999 570 50 500 040/08 RMK AO2
14840KMKG MKG20060610223009206/10/06 22:30:31  5-MIN KMKG 110330Z 03007KT 10SM CLR 12/03 A2999 570 52 400 040/07 RMK AO2
14840KMKG MKG20060610223509206/10/06 22:35:31  5-MIN KMKG 110335Z 03006KT 10SM CLR 12/03 A2999 570 52 400 030/06 RMK AO2
14840KMKG MKG20060610224009206/10/06 22:40:31  5-MIN KMKG 110340Z 02008KT 10SM CLR 12/03 A2999 570 52 400 030/08 RMK AO2
14840KMKG MKG20060610224509206/10/06 22:45:31  5-MIN KMKG 110345Z 03006KT 10SM CLR 12/03 A2999 570 52 400 030/06 RMK AO2
14840KMKG MKG20060610225010906/10/06 22:50:31  5-MIN KMKG 110350Z 04007KT 10SM CLR 12/03 A2999 570 52 400 040/07 RMK AO2 SLP155 T01220028
14840KMKG MKG20060610225510906/10/06 22:55:31  5-MIN KMKG 110355Z 04007KT 10SM CLR 12/03 A2999 560 52 400 040/07 RMK AO2 SLP156 T01220028
14840KMKG MKG20060610230009206/10/06 23:00:31  5-MIN KMKG 110400Z 03007KT 10SM CLR 12/03 A2999 570 54 300 040/07 RMK AO2
14840KMKG MKG20060610230509206/10/06 23:05:31  5-MIN KMKG 110405Z 03006KT 10SM CLR 12/03 A2999 560 54 300 030/06 RMK AO2
14840KMKG MKG20060610231009206/10/06 23:10:31  5-MIN KMKG 110410Z 03005KT 10SM CLR 12/03 A3000 560 54 300 040/05 RMK AO2
14840KMKG MKG20060610231509206/10/06 23:15:31  5-MIN KMKG 110415Z 04006KT 10SM CLR 12/02 A3000 560 52 300 050/06 RMK AO2
14840KMKG MKG20060610232009206/10/06 23:20:31  5-MIN KMKG 110420Z 04005KT 10SM CLR 11/03 A3000 550 56 300 050/05 RMK AO2
14840KMKG MKG20060610232509206/10/06 23:25:31  5-MIN KMKG 110425Z 05006KT 10SM CLR 11/03 A3000 550 56 300 050/06 RMK AO2
14840KMKG MKG20060610233009206/10/06 23:30:31  5-MIN KMKG 110430Z 05006KT 10SM CLR 11/03 A3000 550 56 300 050/06 RMK AO2
14840KMKG MKG20060610233509206/10/06 23:35:31  5-MIN KMKG 110435Z 05006KT 10SM CLR 11/03 A3000 550 56 300 050/06 RMK AO2
14840KMKG MKG20060610234009206/10/06 23:40:31  5-MIN KMKG 110440Z 04006KT 10SM CLR 11/03 A3000 550 56 300 050/06 RMK AO2
14840KMKG MKG20060610234509206/10/06 23:45:31  5-MIN KMKG 110445Z 04006KT 10SM CLR 11/03 A3000 550 58 200 050/06 RMK AO2
14840KMKG MKG20060610235011906/10/06 23:50:31  5-MIN KMKG 110450Z 04004KT 10SM CLR 11/03 A3000 550 56 300 050/04 RMK AO2 SLP160 T01110028 401940083
14840KMKG MKG20060610235511906/10/06 23:55:31  5-MIN KMKG 110455Z 05003KT 10SM CLR 11/03 A3001 550 58 200 060/03 RMK AO2 SLP162 T01060028 401940083
14840KMKG MKG20060611000009206/11/06 00:00:32  5-MIN KMKG 110500Z 04007KT 10SM CLR 11/03 A3000 550 58 200 050/07 RMK AO2
14840KMKG MKG20060611000509206/11/06 00:05:31  5-MIN KMKG 110505Z 04006KT 10SM CLR 11/03 A3000 550 58 200 050/06 RMK AO2
14840KMKG MKG20060611001009206/11/06 00:10:31  5-MIN KMKG 110510Z 03004KT 10SM CLR 11/03 A3000 550 58 200 030/04 RMK AO2
14840KMKG MKG20060611001509206/11/06 00:15:31  5-MIN KMKG 110515Z 03005KT 10SM CLR 10/02 A3000 560 58 100 030/05 RMK AO2
14840KMKG MKG20060611002009206/11/06 00:20:31  5-MIN KMKG 110520Z 04006KT 10SM CLR 11/02 A3000 560 56 200 040/06 RMK AO2
14840KMKG MKG20060611002509206/11/06 00:25:31  5-MIN KMKG 110525Z 03006KT 10SM CLR 11/02 A3000 560 56 200 040/06 RMK AO2
14840KMKG MKG20060611003009206/11/06 00:30:31  5-MIN KMKG 110530Z 03004KT 10SM CLR 10/02 A3000 560 58 100 040/04 RMK AO2
14840KMKG MKG20060611003509206/11/06 00:35:31  5-MIN KMKG 110535Z 03005KT 10SM CLR 10/02 A3000 560 58 100 030/05 RMK AO2
14840KMKG MKG20060611004009206/11/06 00:40:31  5-MIN KMKG 110540Z 03006KT 10SM CLR 10/02 A3000 560 56 100 040/06 RMK AO2
14840KMKG MKG20060611004509206/11/06 00:45:31  5-MIN KMKG 110545Z 04006KT 10SM CLR 10/02 A3000 560 56 100 040/06 RMK AO2
14840KMKG MKG20060611005012706/11/06 00:50:31  5-MIN KMKG 110550Z 04006KT 10SM CLR 10/02 A3000 560 56 100 050/06 RMK AO2 SLP158 T01000017 10183 20100 53012
14840KMKG MKG20060611005512706/11/06 00:55:31  5-MIN KMKG 110555Z 03006KT 10SM CLR 10/01 A3000 560 54 100 030/06 RMK AO2 SLP158 T01000011 10183 20100 50006
14840KMKG MKG20060611010009206/11/06 01:00:31  5-MIN KMKG 110600Z 03006KT 10SM CLR 10/01 A2999 560 54 100 040/06 RMK AO2
14840KMKG MKG20060611010509206/11/06 01:05:31  5-MIN KMKG 110605Z 03006KT 10SM CLR 10/01 A2999 560 54 100 040/06 RMK AO2
14840KMKG MKG20060611011009206/11/06 01:10:31  5-MIN KMKG 110610Z 03007KT 10SM CLR 10/01 A2999 560 54 100 040/07 RMK AO2
14840KMKG MKG20060611011509206/11/06 01:15:31  5-MIN KMKG 110615Z 03006KT 10SM CLR 09/01 A2999 560 56 100 040/06 RMK AO2
14840KMKG MKG20060611012009206/11/06 01:20:31  5-MIN KMKG 110620Z 03005KT 10SM CLR 09/01 A2999 560 56 100 030/05 RMK AO2
14840KMKG MKG20060611012509206/11/06 01:25:31  5-MIN KMKG 110625Z 03006KT 10SM CLR 09/01 A2999 570 56 100 040/06 RMK AO2
14840KMKG MKG20060611013009206/11/06 01:30:31  5-MIN KMKG 110630Z 03007KT 10SM CLR 09/01 A2999 570 56 100 040/07 RMK AO2
14840KMKG MKG20060611013509206/11/06 01:35:31  5-MIN KMKG 110635Z 03008KT 10SM CLR 09/01 A2999 570 56 100 030/08 RMK AO2
14840KMKG MKG20060611014009206/11/06 01:40:31  5-MIN KMKG 110640Z 03008KT 10SM CLR 09/01 A2998 570 56 100 030/08 RMK AO2
14840KMKG MKG20060611014509206/11/06 01:45:31  5-MIN KMKG 110645Z 03006KT 10SM CLR 09/01 A2998 570 56 100 040/06 RMK AO2
14840KMKG MKG20060611015010906/11/06 01:50:31  5-MIN KMKG 110650Z 02007KT 10SM CLR 09/01 A2998 570 56 100 030/07 RMK AO2 SLP154 T00940011
14840KMKG MKG20060611015510706/11/06 01:55:31  5-MIN KMKG 110655Z 02009KT 10SM CLR 09/01 A2998 580 58 0 030/09 RMK AO2 SLP152 T00890011
14840KMKG MKG20060611020009006/11/06 02:00:31  5-MIN KMKG 110700Z 03007KT 10SM CLR 09/01 A2998 580 58 0 030/07 RMK AO2
14840KMKG MKG20060611020509006/11/06 02:05:31  5-MIN KMKG 110705Z 03006KT 10SM CLR 09/01 A2998 580 58 0 030/06 RMK AO2
14840KMKG MKG20060611021009006/11/06 02:10:31  5-MIN KMKG 110710Z 03007KT 10SM CLR 09/02 A2998 570 60 0 040/07 RMK AO2
14840KMKG MKG20060611021509006/11/06 02:15:31  5-MIN KMKG 110715Z 03008KT 10SM CLR 09/01 A2998 580 58 0 030/08 RMK AO2
14840KMKG MKG20060611022009006/11/06 02:20:31  5-MIN KMKG 110720Z 03009KT 10SM CLR 09/01 A2998 580 58 0 030/09 RMK AO2
14840KMKG MKG20060611022509006/11/06 02:25:31  5-MIN KMKG 110725Z 03008KT 10SM CLR 09/01 A2998 580 58 0 030/08 RMK AO2
14840KMKG MKG20060611023009006/11/06 02:30:31  5-MIN KMKG 110730Z 03008KT 10SM CLR 09/01 A2998 580 58 0 030/08 RMK AO2
14840KMKG MKG20060611023509006/11/06 02:35:31  5-MIN KMKG 110735Z 03009KT 10SM CLR 09/01 A2997 580 58 0 040/09 RMK AO2
14840KMKG MKG20060611024009006/11/06 02:40:31  5-MIN KMKG 110740Z 03009KT 10SM CLR 09/01 A2998 580 58 0 030/09 RMK AO2
14840KMKG MKG20060611024509006/11/06 02:45:31  5-MIN KMKG 110745Z 03009KT 10SM CLR 09/01 A2997 580 58 0 040/09 RMK AO2
14840KMKG MKG20060611025010706/11/06 02:50:31  5-MIN KMKG 110750Z 03007KT 10SM CLR 08/02 A2997 580 63 0 030/07 RMK AO2 SLP151 T00830017
14840KMKG MKG20060611025510706/11/06 02:55:31  5-MIN KMKG 110755Z 03008KT 10SM CLR 08/02 A2998 580 63 0 030/08 RMK AO2 SLP151 T00830017
14840KMKG MKG20060611030009006/11/06 03:00:31  5-MIN KMKG 110800Z 03007KT 10SM CLR 08/02 A2998 580 63 0 040/07 RMK AO2
14840KMKG MKG20060611030509006/11/06 03:05:31  5-MIN KMKG 110805Z 04008KT 10SM CLR 08/02 A2997 580 63 0 040/08 RMK AO2
14840KMKG MKG20060611031009006/11/06 03:10:31  5-MIN KMKG 110810Z 03008KT 10SM CLR 08/02 A2997 580 63 0 040/08 RMK AO2
14840KMKG MKG20060611031509006/11/06 03:15:31  5-MIN KMKG 110815Z 04007KT 10SM CLR 08/02 A2997 580 63 0 040/07 RMK AO2
14840KMKG MKG20060611032009006/11/06 03:20:31  5-MIN KMKG 110820Z 03009KT 10SM CLR 08/02 A2997 580 63 0 040/09 RMK AO2
14840KMKG MKG20060611032509006/11/06 03:25:31  5-MIN KMKG 110825Z 03007KT 10SM CLR 08/02 A2998 580 63 0 040/07 RMK AO2
14840KMKG MKG20060611033009306/11/06 03:30:31  5-MIN KMKG 110830Z 04007KT 10SM CLR 08/02 A2998 580 65 -100 040/07 RMK AO2
14840KMKG MKG20060611033509306/11/06 03:35:31  5-MIN KMKG 110835Z 04006KT 10SM CLR 08/02 A2998 580 65 -100 040/06 RMK AO2
14840KMKG MKG20060611034009306/11/06 03:40:31  5-MIN KMKG 110840Z 02008KT 10SM CLR 08/02 A2998 570 65 -100 030/08 RMK AO2
14840KMKG MKG20060611034509306/11/06 03:45:31  5-MIN KMKG 110845Z 03007KT 10SM CLR 08/02 A2998 570 65 -100 040/07 RMK AO2
14840KMKG MKG20060611035011606/11/06 03:50:31  5-MIN KMKG 110850Z 04008KT 10SM CLR 08/02 A2999 570 65 -100 040/08 RMK AO2 SLP154 T00780017 50006
14840KMKG MKG20060611035511606/11/06 03:55:31  5-MIN KMKG 110855Z 04007KT 10SM CLR 08/02 A2999 560 65 -100 040/07 RMK AO2 SLP157 T00780017 55001
14840KMKG MKG20060611040009306/11/06 04:00:31  5-MIN KMKG 110900Z 04006KT 10SM CLR 08/02 A3000 560 65 -100 050/06 RMK AO2
14840KMKG MKG20060611040509306/11/06 04:05:31  5-MIN KMKG 110905Z 04006KT 10SM CLR 08/02 A3000 560 65 -100 040/06 RMK AO2
14840KMKG MKG20060611041009306/11/06 04:10:31  5-MIN KMKG 110910Z 04006KT 10SM CLR 08/02 A3000 550 65 -100 040/06 RMK AO2
14840KMKG MKG20060611041509306/11/06 04:15:31  5-MIN KMKG 110915Z 04005KT 10SM CLR 08/02 A3001 550 65 -100 040/05 RMK AO2
14840KMKG MKG20060611042009306/11/06 04:20:31  5-MIN KMKG 110920Z 03007KT 10SM CLR 08/02 A3001 550 65 -100 040/07 RMK AO2
14840KMKG MKG20060611042509006/11/06 04:25:31  5-MIN KMKG 110925Z 04007KT 10SM CLR 08/02 A3001 550 63 0 040/07 RMK AO2
14840KMKG MKG20060611043009006/11/06 04:30:31  5-MIN KMKG 110930Z 04008KT 10SM CLR 08/02 A3000 550 63 0 040/08 RMK AO2
14840KMKG MKG20060611043509306/11/06 04:35:31  5-MIN KMKG 110935Z 04006KT 10SM CLR 08/02 A3000 550 65 -100 040/06 RMK AO2
14840KMKG MKG20060611044009306/11/06 04:40:31  5-MIN KMKG 110940Z 04006KT 10SM CLR 08/02 A3000 550 68 -100 040/06 RMK AO2
14840KMKG MKG20060611044509306/11/06 04:45:31  5-MIN KMKG 110945Z 04008KT 10SM CLR 08/02 A3000 560 65 -100 050/08 RMK AO2
14840KMKG MKG20060611045011006/11/06 04:50:31  5-MIN KMKG 110950Z 05008KT 10SM CLR 08/02 A2999 560 65 -100 050/08 RMK AO2 SLP158 T00780017
14840KMKG MKG20060611045511006/11/06 04:55:31  5-MIN KMKG 110955Z 05008KT 10SM CLR 07/02 A2999 560 68 -100 060/08 RMK AO2 SLP159 T00720017
14840KMKG MKG20060611050009306/11/06 05:00:31  5-MIN KMKG 111000Z 05008KT 10SM CLR 07/02 A2999 560 68 -100 050/08 RMK AO2
14840KMKG MKG20060611050509306/11/06 05:05:31  5-MIN KMKG 111005Z 05008KT 10SM CLR 07/02 A2999 570 68 -100 060/08 RMK AO2
14840KMKG MKG20060611051009306/11/06 05:10:31  5-MIN KMKG 111010Z 06008KT 10SM CLR 07/02 A2998 570 68 -100 060/08 RMK AO2
14840KMKG MKG20060611051509306/11/06 05:15:31  5-MIN KMKG 111015Z 06007KT 10SM CLR 07/02 A2998 570 70 -100 060/07 RMK AO2
14840KMKG MKG20060611052009306/11/06 05:20:31  5-MIN KMKG 111020Z 05008KT 10SM CLR 07/02 A2998 580 70 -100 060/08 RMK AO2
14840KMKG MKG20060611052509306/11/06 05:25:31  5-MIN KMKG 111025Z 06008KT 10SM CLR 07/02 A2997 580 70 -100 060/08 RMK AO2
14840KMKG MKG20060611053009306/11/06 05:30:31  5-MIN KMKG 111030Z 06008KT 10SM CLR 08/02 A2997 580 68 -100 060/08 RMK AO2
14840KMKG MKG20060611053509306/11/06 05:35:31  5-MIN KMKG 111035Z 06007KT 10SM CLR 08/02 A2998 580 68 -100 060/07 RMK AO2
14840KMKG MKG20060611054009306/11/06 05:40:31  5-MIN KMKG 111040Z 06007KT 10SM CLR 08/02 A2998 580 68 -100 060/07 RMK AO2
14840KMKG MKG20060611054509306/11/06 05:45:31  5-MIN KMKG 111045Z 06007KT 10SM CLR 08/02 A2998 580 68 -100 060/07 RMK AO2
14840KMKG MKG20060611055010706/11/06 05:50:31  5-MIN KMKG 111050Z 05006KT 10SM CLR 08/02 A2998 570 65 0 060/06 RMK AO2 SLP153 T00830022
14840KMKG MKG20060611055510706/11/06 05:55:31  5-MIN KMKG 111055Z 05007KT 10SM CLR 08/03 A2999 570 68 0 060/07 RMK AO2 SLP155 T00830028
14840KMKG MKG20060611060009006/11/06 06:00:31  5-MIN KMKG 111100Z 05006KT 10SM CLR 09/03 A2999 570 65 0 050/06 RMK AO2
14840KMKG MKG20060611060509006/11/06 06:05:31  5-MIN KMKG 111105Z 05006KT 10SM CLR 08/02 A2999 560 65 0 050/06 RMK AO2
14840KMKG MKG20060611061009006/11/06 06:10:31  5-MIN KMKG 111110Z 05006KT 10SM CLR 09/03 A3000 560 65 0 050/06 RMK AO2
14840KMKG MKG20060611061509006/11/06 06:15:31  5-MIN KMKG 111115Z 06005KT 10SM CLR 09/03 A2999 570 65 0 060/05 RMK AO2
14840KMKG MKG20060611062009006/11/06 06:20:31  5-MIN KMKG 111120Z 07006KT 10SM CLR 09/03 A2999 570 65 0 070/06 RMK AO2
14840KMKG MKG20060611062509006/11/06 06:25:31  5-MIN KMKG 111125Z 06005KT 10SM CLR 09/03 A2999 560 65 0 070/05 RMK AO2
14840KMKG MKG20060611063009206/11/06 06:30:31  5-MIN KMKG 111130Z 06005KT 10SM CLR 09/03 A2999 570 65 100 060/05 RMK AO2
14840KMKG MKG20060611063509206/11/06 06:35:31  5-MIN KMKG 111135Z 05006KT 10SM CLR 10/03 A2999 570 63 100 050/06 RMK AO2
14840KMKG MKG20060611064009206/11/06 06:40:31  5-MIN KMKG 111140Z 05007KT 10SM CLR 10/03 A2998 570 63 100 060/07 RMK AO2
14840KMKG MKG20060611064509206/11/06 06:45:31  5-MIN KMKG 111145Z 05006KT 10SM CLR 10/03 A2998 570 63 200 050/06 RMK AO2
14840KMKG MKG20060611065012706/11/06 06:50:31  5-MIN KMKG 111150Z 06007KT 10SM CLR 10/03 A2998 580 63 200 060/07 RMK AO2 SLP153 T01000033 10100 20072 55001
14840KMKG MKG20060611065512706/11/06 06:55:31  5-MIN KMKG 111155Z 06005KT 10SM CLR 10/03 A2999 570 63 100 070/05 RMK AO2 SLP155 T01000033 10100 20072 58002
14840KMKG MKG20060611070009206/11/06 07:00:31  5-MIN KMKG 111200Z 07005KT 10SM CLR 11/04 A2999 570 63 200 070/05 RMK AO2
14840KMKG MKG20060611070509206/11/06 07:05:31  5-MIN KMKG 111205Z 07003KT 10SM CLR 11/04 A3000 560 63 200 080/03 RMK AO2
14840KMKG MKG20060611071009206/11/06 07:10:31  5-MIN KMKG 111210Z 08003KT 10SM CLR 11/04 A2999 560 61 300 090/03 RMK AO2
14840KMKG MKG20060611071509206/11/06 07:15:31  5-MIN KMKG 111215Z VRB04KT 10SM CLR 12/04 A2999 560 58 300 VRB/04 RMK AO2
14840KMKG MKG20060611072009206/11/06 07:20:31  5-MIN KMKG 111220Z 06003KT 10SM CLR 12/04 A3000 560 56 400 070/03 RMK AO2
14840KMKG MKG20060611072509206/11/06 07:25:31  5-MIN KMKG 111225Z 00000KT 10SM CLR 12/04 A3001 540 56 400 000/00 RMK AO2
14840KMKG MKG20060611073009206/11/06 07:30:31  5-MIN KMKG 111230Z 08004KT 10SM CLR 12/04 A3001 540 56 400 080/04 RMK AO2
14840KMKG MKG20060611073509206/11/06 07:35:31  5-MIN KMKG 111235Z 07004KT 10SM CLR 13/04 A3000 560 54 500 080/04 RMK AO2
14840KMKG MKG20060611074009206/11/06 07:40:31  5-MIN KMKG 111240Z 09006KT 10SM CLR 13/04 A3000 550 54 500 100/06 RMK AO2
14840KMKG MKG20060611074509206/11/06 07:45:31  5-MIN KMKG 111245Z 09003KT 10SM CLR 13/04 A3002 540 56 400 090/03 RMK AO2
14840KMKG MKG20060611075010906/11/06 07:50:31  5-MIN KMKG 111250Z 07006KT 10SM CLR 13/04 A3000 560 52 500 080/06 RMK AO2 SLP159 T01330039
14840KMKG MKG20060611075510906/11/06 07:55:31  5-MIN KMKG 111255Z 07007KT 10SM CLR 13/04 A3000 550 52 500 070/07 RMK AO2 SLP160 T01330039
14840KMKG MKG20060611080009206/11/06 08:00:31  5-MIN KMKG 111300Z 08005KT 10SM CLR 14/04 A3001 550 50 600 090/05 RMK AO2
14840KMKG MKG20060611080509206/11/06 08:05:31  5-MIN KMKG 111305Z 10007KT 10SM CLR 14/04 A3001 550 50 600 100/07 RMK AO2
14840KMKG MKG20060611081009206/11/06 08:10:31  5-MIN KMKG 111310Z 10005KT 10SM CLR 14/04 A3001 540 52 600 110/05 RMK AO2
14840KMKG MKG20060611081509206/11/06 08:15:31  5-MIN KMKG 111315Z 08005KT 10SM CLR 14/04 A3002 540 52 600 090/05 RMK AO2
14840KMKG MKG20060611082009206/11/06 08:20:31  5-MIN KMKG 111320Z 08005KT 10SM CLR 14/04 A3002 540 51 600 080/05 RMK AO2
14840KMKG MKG20060611082509206/11/06 08:25:31  5-MIN KMKG 111325Z 06008KT 10SM CLR 14/04 A3001 540 52 600 060/08 RMK AO2
14840KMKG MKG20060611083009206/11/06 08:30:31  5-MIN KMKG 111330Z VRB06KT 10SM CLR 14/04 A3001 550 51 600 VRB/06 RMK AO2
14840KMKG MKG20060611083509206/11/06 08:35:31  5-MIN KMKG 111335Z 05007KT 10SM CLR 15/05 A3001 550 51 700 050/07 RMK AO2
14840KMKG MKG20060611084009206/11/06 08:40:31  5-MIN KMKG 111340Z 04008KT 10SM CLR 15/04 A3000 550 49 700 050/08 RMK AO2
14840KMKG MKG20060611084509206/11/06 08:45:31  5-MIN KMKG 111345Z 08006KT 10SM CLR 14/04 A3000 560 51 700 080/06 RMK AO2
14840KMKG MKG20060611085010906/11/06 08:50:31  5-MIN KMKG 111350Z 04008KT 10SM CLR 15/05 A3000 560 51 700 040/08 RMK AO2 SLP158 T01500050
14840KMKG MKG20060611085510906/11/06 08:55:31  5-MIN KMKG 111355Z 05009KT 10SM CLR 15/05 A3000 560 51 700 050/09 RMK AO2 SLP158 T01500050
14840KMKG MKG20060611090009206/11/06 09:00:31  5-MIN KMKG 111400Z 04008KT 10SM CLR 15/05 A2999 560 51 700 050/08 RMK AO2
14840KMKG MKG20060611090510806/11/06 09:05:31  5-MIN KMKG 111405Z 05007KT 010V080 10SM CLR 15/04 A2999 560 49 700 050/07 010V080 RMK AO2
14840KMKG MKG20060611091009206/11/06 09:10:31  5-MIN KMKG 111410Z 06006KT 10SM CLR 16/05 A2999 560 49 800 070/06 RMK AO2
14840KMKG MKG20060611091509206/11/06 09:15:31  5-MIN KMKG 111415Z 06007KT 10SM CLR 16/05 A2999 560 49 800 060/07 RMK AO2
14840KMKG MKG20060611092009206/11/06 09:20:31  5-MIN KMKG 111420Z 04006KT 10SM CLR 16/05 A2999 560 49 800 050/06 RMK AO2
14840KMKG MKG20060611092509206/11/06 09:25:31  5-MIN KMKG 111425Z 05007KT 10SM CLR 16/05 A2999 560 49 800 050/07 RMK AO2
14840KMKG MKG20060611093009206/11/06 09:30:31  5-MIN KMKG 111430Z 04007KT 10SM CLR 16/04 A3000 560 47 800 050/07 RMK AO2
14840KMKG MKG20060611093510806/11/06 09:35:31  5-MIN KMKG 111435Z 03007KT 350V070 10SM CLR 16/05 A3000 560 47 900 030/07 350V070 RMK AO2
14840KMKG MKG20060611094009206/11/06 09:40:31  5-MIN KMKG 111440Z 03007KT 10SM CLR 16/04 A3000 560 45 900 040/07 RMK AO2
14840KMKG MKG20060611094509206/11/06 09:45:31  5-MIN KMKG 111445Z 02007KT 10SM CLR 16/04 A3000 560 44 900 030/07 RMK AO2
14840KMKG MKG20060611095011506/11/06 09:50:31  5-MIN KMKG 111450Z VRB04KT 10SM CLR 16/04 A3000 560 45 900 VRB/04 RMK AO2 SLP158 T01610044 58002
14840KMKG MKG20060611095511806/11/06 09:55:31  5-MIN KMKG 111455Z 04007KT 10SM FEW040 17/04 A3000 560 44 900 040/07 RMK AO2 SLP158 T01670044 51004
14840KMKG MKG20060611100009206/11/06 10:00:31  5-MIN KMKG 111500Z 05006KT 10SM CLR 17/04 A3000 560 42 900 050/06 RMK AO2
14840KMKG MKG20060611100509206/11/06 10:05:31  5-MIN KMKG 111505Z 03008KT 10SM CLR 17/04 A3000 560 42 900 030/08 RMK AO2
14840KMKG MKG20060611101009206/11/06 10:10:31  5-MIN KMKG 111510Z VRB03KT 10SM CLR 17/03 A3000 560 40 900 VRB/03 RMK AO2
14840KMKG MKG20060611101509206/11/06 10:15:31  5-MIN KMKG 111515Z VRB06KT 10SM CLR 17/03 A3000 560 40 900 VRB/06 RMK AO2
14840KMKG MKG20060611102009306/11/06 10:20:31  5-MIN KMKG 111520Z 03007KT 10SM CLR 17/03 A3000 560 39 1000 040/07 RMK AO2
14840KMKG MKG20060611102509306/11/06 10:25:31  5-MIN KMKG 111525Z 03010KT 10SM CLR 17/03 A3000 560 39 1000 040/10 RMK AO2
14840KMKG MKG20060611103009206/11/06 10:30:31  5-MIN KMKG 111530Z 03009KT 10SM CLR 17/03 A3000 560 39 900 030/09 RMK AO2
14840KMKG MKG20060611103509206/11/06 10:35:31  5-MIN KMKG 111535Z 06008KT 10SM CLR 17/03 A3000 560 39 900 060/08 RMK AO2
14840KMKG MKG20060611104009306/11/06 10:40:31  5-MIN KMKG 111540Z 06010KT 10SM CLR 17/03 A3000 550 37 1000 060/10 RMK AO2
14840KMKG MKG20060611104509306/11/06 10:45:31  5-MIN KMKG 111545Z 05007KT 10SM CLR 17/03 A3000 550 37 1000 060/07 RMK AO2
14840KMKG MKG20060611105011306/11/06 10:50:31  5-MIN KMKG 111550Z 08007KT 10SM FEW040 17/02 A3001 550 36 1000 090/07 RMK AO2 SLP161 T01720022
14840KMKG MKG20060611105511306/11/06 10:55:31  5-MIN KMKG 111555Z VRB04KT 10SM FEW040 17/03 A3001 550 39 1000 VRB/04 RMK AO2 SLP162 T01720033
14840KMKG MKG20060611110009206/11/06 11:00:31  5-MIN KMKG 111600Z VRB03KT 10SM CLR 17/03 A3001 540 39 900 VRB/03 RMK AO2
14840KMKG MKG20060611110509306/11/06 11:05:31  5-MIN KMKG 111605Z 04007KT 10SM CLR 18/03 A3001 540 36 1000 050/07 RMK AO2
14840KMKG MKG20060611111009306/11/06 11:10:31  5-MIN KMKG 111610Z VRB05KT 10SM CLR 17/03 A3001 540 37 1000 VRB/05 RMK AO2
14840KMKG MKG20060611111509306/11/06 11:15:31  5-MIN KMKG 111615Z VRB04KT 10SM CLR 17/03 A3001 540 37 1000 VRB/04 RMK AO2
14840KMKG MKG20060611112009306/11/06 11:20:31  5-MIN KMKG 111620Z VRB06KT 10SM CLR 17/03 A3001 540 37 1000 VRB/06 RMK AO2
14840KMKG MKG20060611112509306/11/06 11:25:31  5-MIN KMKG 111625Z VRB04KT 10SM CLR 17/03 A3001 550 37 1000 VRB/04 RMK AO2
14840KMKG MKG20060611113009306/11/06 11:30:31  5-MIN KMKG 111630Z VRB06KT 10SM CLR 18/03 A3001 550 36 1000 VRB/06 RMK AO2
14840KMKG MKG20060611113509306/11/06 11:35:31  5-MIN KMKG 111635Z VRB04KT 10SM CLR 17/03 A3001 550 37 1000 VRB/04 RMK AO2
14840KMKG MKG20060611114009306/11/06 11:40:31  5-MIN KMKG 111640Z 09007KT 10SM CLR 18/03 A3001 550 36 1000 090/07 RMK AO2
14840KMKG MKG20060611114509306/11/06 11:45:31  5-MIN KMKG 111645Z VRB06KT 10SM CLR 17/02 A3001 550 36 1000 VRB/06 RMK AO2
14840KMKG MKG20060611115011306/11/06 11:50:31  5-MIN KMKG 111650Z 04007KT 10SM FEW050 19/03 A3001 550 35 1200 050/07 RMK AO2 SLP162 T01890033
14840KMKG MKG20060611115511306/11/06 11:55:31  5-MIN KMKG 111655Z VRB04KT 10SM FEW050 18/03 A3001 550 35 1100 VRB/04 RMK AO2 SLP163 T01830028
14840KMKG MKG20060611120009606/11/06 12:00:31  5-MIN KMKG 111700Z VRB03KT 10SM FEW085 18/03 A3001 550 35 1100 VRB/03 RMK AO2
14840KMKG MKG20060611120509306/11/06 12:05:31  5-MIN KMKG 111705Z 06007KT 10SM CLR 18/03 A3001 550 36 1000 070/07 RMK AO2
14840KMKG MKG20060611121009606/11/06 12:10:31  5-MIN KMKG 111710Z VRB04KT 10SM FEW085 18/03 A3001 550 35 1100 VRB/04 RMK AO2
14840KMKG MKG20060611121509606/11/06 12:15:31  5-MIN KMKG 111715Z 04005KT 10SM FEW085 19/03 A3001 550 34 1200 040/05 RMK AO2
14840KMKG MKG20060611122009306/11/06 12:20:31  5-MIN KMKG 111720Z 05006KT 10SM CLR 19/03 A3001 550 34 1200 050/06 RMK AO2
14840KMKG MKG20060611122509306/11/06 12:25:31  5-MIN KMKG 111725Z VRB04KT 10SM CLR 19/03 A3001 550 35 1200 VRB/04 RMK AO2
14840KMKG MKG20060611123009906/11/06 12:30:31  5-MIN KMKG 111730Z 29010G14KT 10SM CLR 19/04 A3000 550 38 1200 290/10G14 RMK AO2
14840KMKG MKG20060611123509306/11/06 12:35:31  5-MIN KMKG 111735Z 28008KT 10SM CLR 18/04 A3000 550 39 1100 290/08 RMK AO2
14840KMKG MKG20060611124009306/11/06 12:40:31  5-MIN KMKG 111740Z 32010KT 10SM CLR 18/04 A3000 560 39 1100 320/10 RMK AO2
14840KMKG MKG20060611124509306/11/06 12:45:31  5-MIN KMKG 111745Z 31011KT 10SM CLR 19/05 A3000 560 39 1200 310/11 RMK AO2
14840KMKG MKG20060611125012806/11/06 12:50:31  5-MIN KMKG 111750Z 33012KT 10SM CLR 18/04 A3000 560 39 1100 330/12 RMK AO2 SLP159 T01830044 10189 20100 51004
14840KMKG MKG20060611125513106/11/06 12:55:31  5-MIN KMKG 111755Z 33011KT 10SM FEW050 18/04 A3000 560 39 1100 330/11 RMK AO2 SLP158 T01780039 10189 20100 58001
14840KMKG MKG20060611130009306/11/06 13:00:31  5-MIN KMKG 111800Z 32008KT 10SM CLR 18/04 A3000 560 39 1100 320/08 RMK AO2
14840KMKG MKG20060611130509306/11/06 13:05:31  5-MIN KMKG 111805Z 32011KT 10SM CLR 18/03 A3000 560 38 1100 320/11 RMK AO2
14840KMKG MKG20060611131009306/11/06 13:10:31  5-MIN KMKG 111810Z 32013KT 10SM CLR 17/03 A3000 560 37 1000 320/13 RMK AO2
14840KMKG MKG20060611131509206/11/06 13:15:31  5-MIN KMKG 111815Z 31013KT 10SM CLR 17/03 A3000 560 39 900 310/13 RMK AO2
14840KMKG MKG20060611132009306/11/06 13:20:31  5-MIN KMKG 111820Z 31013KT 10SM CLR 17/03 A3000 560 37 1000 310/13 RMK AO2
14840KMKG MKG20060611132509306/11/06 13:25:31  5-MIN KMKG 111825Z 33012KT 10SM CLR 17/03 A2999 560 37 1000 330/12 RMK AO2
14840KMKG MKG20060611133009306/11/06 13:30:31  5-MIN KMKG 111830Z 32011KT 10SM CLR 18/04 A2999 560 38 1100 330/11 RMK AO2
14840KMKG MKG20060611133509306/11/06 13:35:31  5-MIN KMKG 111835Z 31012KT 10SM CLR 18/04 A2999 570 39 1100 320/12 RMK AO2
14840KMKG MKG20060611134009206/11/06 13:40:31  5-MIN KMKG 111840Z 30011KT 10SM CLR 17/03 A2999 560 40 900 300/11 RMK AO2
14840KMKG MKG20060611134509206/11/06 13:45:31  5-MIN KMKG 111845Z 30012KT 10SM CLR 17/04 A2999 560 42 900 310/12 RMK AO2
14840KMKG MKG20060611135011006/11/06 13:50:31  5-MIN KMKG 111850Z 31011KT 10SM CLR 17/04 A2999 560 41 1000 320/11 RMK AO2 SLP157 T01720039
14840KMKG MKG20060611135511306/11/06 13:55:31  5-MIN KMKG 111855Z 31013KT 10SM FEW050 18/04 A2999 560 39 1100 320/13 RMK AO2 SLP157 T01780039
14840KMKG MKG20060611140009306/11/06 14:00:31  5-MIN KMKG 111900Z 33011KT 10SM CLR 18/04 A2999 570 41 1100 330/11 RMK AO2
14840KMKG MKG20060611140509306/11/06 14:05:31  5-MIN KMKG 111905Z 32013KT 10SM CLR 18/04 A2999 560 41 1100 330/13 RMK AO2
14840KMKG MKG20060611141009306/11/06 14:10:31  5-MIN KMKG 111910Z 31012KT 10SM CLR 17/04 A2999 560 41 1000 320/12 RMK AO2
14840KMKG MKG20060611141509806/11/06 14:15:31  5-MIN KMKG 111915Z 32010G18KT 10SM CLR 17/04 A2999 570 42 900 320/10G18 RMK AO2
14840KMKG MKG20060611142009806/11/06 14:20:31  5-MIN KMKG 111920Z 31013G18KT 10SM CLR 17/04 A2999 570 42 900 310/13G18 RMK AO2
14840KMKG MKG20060611142509906/11/06 14:25:31  5-MIN KMKG 111925Z 31011G18KT 10SM CLR 17/04 A2999 570 41 1000 320/11G18 RMK AO2
14840KMKG MKG20060611143009306/11/06 14:30:31  5-MIN KMKG 111930Z 31011KT 10SM CLR 17/04 A2999 560 42 1000 310/11 RMK AO2
14840KMKG MKG20060611143509306/11/06 14:35:31  5-MIN KMKG 111935Z 30012KT 10SM CLR 17/05 A2999 560 44 1000 300/12 RMK AO2
14840KMKG MKG20060611144009206/11/06 14:40:31  5-MIN KMKG 111940Z 31011KT 10SM CLR 17/05 A2999 560 45 900 310/11 RMK AO2
14840KMKG MKG20060611144509306/11/06 14:45:31  5-MIN KMKG 111945Z 29012KT 10SM CLR 17/06 A2999 560 46 1000 300/12 RMK AO2
14840KMKG MKG20060611145011306/11/06 14:50:31  5-MIN KMKG 111950Z 29013KT 10SM FEW060 17/06 A2999 560 46 1000 300/13 RMK AO2 SLP158 T01720056
14840KMKG MKG20060611145511306/11/06 14:55:31  5-MIN KMKG 111955Z 30008KT 10SM FEW060 17/06 A2999 570 46 1000 300/08 RMK AO2 SLP157 T01720056
14840KMKG MKG20060611150009306/11/06 15:00:31  5-MIN KMKG 112000Z 30009KT 10SM CLR 17/06 A2999 570 47 1000 300/09 RMK AO2
14840KMKG MKG20060611150509306/11/06 15:05:31  5-MIN KMKG 112005Z 31011KT 10SM CLR 18/06 A2999 560 46 1100 320/11 RMK AO2
14840KMKG MKG20060611151009306/11/06 15:10:31  5-MIN KMKG 112010Z 30012KT 10SM CLR 17/06 A2999 560 46 1000 310/12 RMK AO2
14840KMKG MKG20060611151509206/11/06 15:15:31  5-MIN KMKG 112015Z 30011KT 10SM CLR 17/05 A2999 570 45 900 310/11 RMK AO2
14840KMKG MKG20060611152009206/11/06 15:20:31  5-MIN KMKG 112020Z 30011KT 10SM CLR 17/06 A2999 570 47 900 300/11 RMK AO2
14840KMKG MKG20060611152509306/11/06 15:25:31  5-MIN KMKG 112025Z 30009KT 10SM CLR 17/06 A2999 570 46 1000 310/09 RMK AO2
14840KMKG MKG20060611153009306/11/06 15:30:31  5-MIN KMKG 112030Z 30012KT 10SM CLR 17/06 A2999 570 46 1000 300/12 RMK AO2
14840KMKG MKG20060611153509306/11/06 15:35:31  5-MIN KMKG 112035Z 30009KT 10SM CLR 18/06 A2999 570 44 1100 300/09 RMK AO2
14840KMKG MKG20060611154009306/11/06 15:40:31  5-MIN KMKG 112040Z 30010KT 10SM CLR 18/06 A2998 570 42 1100 300/10 RMK AO2
14840KMKG MKG20060611154509306/11/06 15:45:31  5-MIN KMKG 112045Z 30010KT 10SM CLR 18/06 A2998 570 42 1100 300/10 RMK AO2
14840KMKG MKG20060611155011906/11/06 15:50:31  5-MIN KMKG 112050Z 30010KT 10SM FEW060 18/06 A2998 570 42 1100 300/10 RMK AO2 SLP154 T01830056 58001
14840KMKG MKG20060611155511906/11/06 15:55:31  5-MIN KMKG 112055Z 29011KT 10SM FEW060 18/05 A2998 570 42 1100 290/11 RMK AO2 SLP155 T01780050 58004
14840KMKG MKG20060611160009306/11/06 16:00:31  5-MIN KMKG 112100Z 28009KT 10SM CLR 18/05 A2998 570 42 1100 280/09 RMK AO2
14840KMKG MKG20060611160509306/11/06 16:05:31  5-MIN KMKG 112105Z 29010KT 10SM CLR 19/06 A2998 580 41 1200 290/10 RMK AO2
14840KMKG MKG20060611161009306/11/06 16:10:31  5-MIN KMKG 112110Z 30011KT 10SM CLR 19/06 A2998 580 41 1200 300/11 RMK AO2
14840KMKG MKG20060611161509306/11/06 16:15:31  5-MIN KMKG 112115Z 29012KT 10SM CLR 18/05 A2998 580 42 1100 290/12 RMK AO2
14840KMKG MKG20060611162009906/11/06 16:20:31  5-MIN KMKG 112120Z 33012G17KT 10SM CLR 18/05 A2998 580 42 1100 340/12G17 RMK AO2
14840KMKG MKG20060611162509906/11/06 16:25:31  5-MIN KMKG 112125Z 34011G17KT 10SM CLR 18/04 A2998 570 41 1100 350/11G17 RMK AO2
14840KMKG MKG20060611163009306/11/06 16:30:31  5-MIN KMKG 112130Z 35011KT 10SM CLR 18/04 A2998 570 39 1100 350/11 RMK AO2
14840KMKG MKG20060611163510706/11/06 16:35:31  5-MIN KMKG 112135Z 33010KT 10SM FEW060 18/04 A2998 570 39 1100 340/10 RMK AO2 WSHFT 2119
14840KMKG MKG20060611164010706/11/06 16:40:31  5-MIN KMKG 112140Z 34011KT 10SM FEW060 18/04 A2998 570 39 1100 350/11 RMK AO2 WSHFT 2119
14840KMKG MKG20060611164510706/11/06 16:45:31  5-MIN KMKG 112145Z 33011KT 10SM FEW060 18/04 A2998 580 39 1100 330/11 RMK AO2 WSHFT 2119
14840KMKG MKG20060611165012406/11/06 16:50:31  5-MIN KMKG 112150Z 33012KT 10SM FEW060 17/04 A2998 580 41 1000 340/12 RMK AO2 WSHFT 2119 SLP153 T01720039
14840KMKG MKG20060611165512406/11/06 16:55:31  5-MIN KMKG 112155Z 32011KT 10SM FEW060 17/03 A2998 580 39 1000 320/11 RMK AO2 WSHFT 2119 SLP153 T01720033
14840KMKG MKG20060611170009306/11/06 17:00:31  5-MIN KMKG 112200Z 32010KT 10SM CLR 17/04 A2998 580 41 1000 330/10 RMK AO2
14840KMKG MKG20060611170509306/11/06 17:05:31  5-MIN KMKG 112205Z 33010KT 10SM CLR 18/04 A2998 570 39 1100 330/10 RMK AO2
14840KMKG MKG20060611171009306/11/06 17:10:31  5-MIN KMKG 112210Z 31012KT 10SM CLR 18/03 A2998 570 38 1100 320/12 RMK AO2
14840KMKG MKG20060611171509306/11/06 17:15:31  5-MIN KMKG 112215Z 35008KT 10SM CLR 18/04 A2999 570 38 1100 360/08 RMK AO2
14840KMKG MKG20060611172009306/11/06 17:20:31  5-MIN KMKG 112220Z 33011KT 10SM CLR 19/04 A2999 570 38 1200 330/11 RMK AO2
14840KMKG MKG20060611172509306/11/06 17:25:31  5-MIN KMKG 112225Z 34008KT 10SM CLR 18/04 A2998 570 38 1100 350/08 RMK AO2
14840KMKG MKG20060611173009306/11/06 17:30:31  5-MIN KMKG 112230Z 35010KT 10SM CLR 18/04 A2998 570 38 1100 350/10 RMK AO2
14840KMKG MKG20060611173509306/11/06 17:35:31  5-MIN KMKG 112235Z 34009KT 10SM CLR 18/04 A2998 570 38 1100 340/09 RMK AO2
14840KMKG MKG20060611174009306/11/06 17:40:31  5-MIN KMKG 112240Z 35008KT 10SM CLR 18/04 A2998 570 39 1100 350/08 RMK AO2
14840KMKG MKG20060611174509306/11/06 17:45:31  5-MIN KMKG 112245Z 34011KT 10SM CLR 17/04 A2998 570 41 1000 350/11 RMK AO2
14840KMKG MKG20060611175011006/11/06 17:50:31  5-MIN KMKG 112250Z 35007KT 10SM CLR 17/04 A2998 570 41 1000 350/07 RMK AO2 SLP155 T01720039
14840KMKG MKG20060611175511006/11/06 17:55:31  5-MIN KMKG 112255Z 33009KT 10SM CLR 17/04 A2998 570 41 1000 330/09 RMK AO2 SLP155 T01720039
14840KMKG MKG20060611180009306/11/06 18:00:31  5-MIN KMKG 112300Z 34008KT 10SM CLR 17/04 A2998 570 41 1000 350/08 RMK AO2
14840KMKG MKG20060611180509306/11/06 18:05:31  5-MIN KMKG 112305Z 33008KT 10SM CLR 17/04 A2998 570 41 1000 340/08 RMK AO2
14840KMKG MKG20060611181009306/11/06 18:10:31  5-MIN KMKG 112310Z 32006KT 10SM CLR 17/04 A2998 570 42 1000 320/06 RMK AO2
14840KMKG MKG20060611181509306/11/06 18:15:31  5-MIN KMKG 112315Z 33007KT 10SM CLR 18/04 A2998 570 41 1100 340/07 RMK AO2
14840KMKG MKG20060611182009306/11/06 18:20:31  5-MIN KMKG 112320Z 34005KT 10SM CLR 18/04 A2998 570 41 1100 340/05 RMK AO2
14840KMKG MKG20060611182509306/11/06 18:25:31  5-MIN KMKG 112325Z 32006KT 10SM CLR 18/05 A2998 570 42 1100 320/06 RMK AO2
14840KMKG MKG20060611183009306/11/06 18:30:31  5-MIN KMKG 112330Z 32006KT 10SM CLR 17/05 A2998 570 44 1000 320/06 RMK AO2
14840KMKG MKG20060611183509306/11/06 18:35:31  5-MIN KMKG 112335Z 32007KT 10SM CLR 17/05 A2998 570 44 1000 320/07 RMK AO2
14840KMKG MKG20060611184009206/11/06 18:40:31  5-MIN KMKG 112340Z 32006KT 10SM CLR 17/05 A2998 570 45 900 330/06 RMK AO2
14840KMKG MKG20060611184509206/11/06 18:45:31  5-MIN KMKG 112345Z 33005KT 10SM CLR 17/05 A2998 580 45 900 330/05 RMK AO2
14840KMKG MKG20060611185013106/11/06 18:50:31  5-MIN KMKG 112350Z 34007KT 10SM FEW055 17/05 A2998 570 44 1000 350/07 RMK AO2 SLP153 T01720050 10189 20161 58004
14840KMKG MKG20060611185513006/11/06 18:55:31  5-MIN KMKG 112355Z 35007KT 10SM FEW055 17/06 A2998 580 47 900 350/07 RMK AO2 SLP152 T01670056 10189 20161 56001
14840KMKG MKG20060611190009206/11/06 19:00:31  5-MIN KMKG 120000Z 34009KT 10SM CLR 17/05 A2998 580 45 900 340/09 RMK AO2
14840KMKG MKG20060611190509206/11/06 19:05:31  5-MIN KMKG 120005Z 01007KT 10SM CLR 17/04 A2998 570 44 900 010/07 RMK AO2
14840KMKG MKG20060611191009206/11/06 19:10:31  5-MIN KMKG 120010Z 01009KT 10SM CLR 17/04 A2998 570 44 900 010/09 RMK AO2
14840KMKG MKG20060611191509206/11/06 19:15:31  5-MIN KMKG 120015Z 01008KT 10SM CLR 17/04 A2998 570 42 900 010/08 RMK AO2
14840KMKG MKG20060611192009206/11/06 19:20:31  5-MIN KMKG 120020Z 01008KT 10SM CLR 17/04 A2998 580 44 900 010/08 RMK AO2
14840KMKG MKG20060611192509206/11/06 19:25:31  5-MIN KMKG 120025Z 01010KT 10SM CLR 17/04 A2998 570 44 900 010/10 RMK AO2
14840KMKG MKG20060611193009206/11/06 19:30:31  5-MIN KMKG 120030Z 01008KT 10SM CLR 17/04 A2998 570 44 900 010/08 RMK AO2
14840KMKG MKG20060611193509206/11/06 19:35:31  5-MIN KMKG 120035Z 01007KT 10SM CLR 17/04 A2998 570 42 900 010/07 RMK AO2
14840KMKG MKG20060611194009206/11/06 19:40:31  5-MIN KMKG 120040Z 01008KT 10SM CLR 17/04 A2998 570 42 900 010/08 RMK AO2
14840KMKG MKG20060611194509206/11/06 19:45:31  5-MIN KMKG 120045Z 02008KT 10SM CLR 16/04 A2998 580 45 900 020/08 RMK AO2
14840KMKG MKG20060611195010906/11/06 19:50:31  5-MIN KMKG 120050Z 02007KT 10SM CLR 16/04 A2998 580 44 900 020/07 RMK AO2 SLP151 T01610039
14840KMKG MKG20060611195510906/11/06 19:55:31  5-MIN KMKG 120055Z 36007KT 10SM CLR 16/04 A2998 580 45 900 360/07 RMK AO2 SLP152 T01610044
14840KMKG MKG20060611200009206/11/06 20:00:31  5-MIN KMKG 120100Z 01007KT 10SM CLR 16/04 A2998 570 45 900 010/07 RMK AO2
14840KMKG MKG20060611200509206/11/06 20:05:31  5-MIN KMKG 120105Z 36007KT 10SM CLR 16/04 A2998 570 45 900 360/07 RMK AO2
14840KMKG MKG20060611201009206/11/06 20:10:31  5-MIN KMKG 120110Z 36006KT 10SM CLR 16/04 A2998 570 45 900 010/06 RMK AO2
14840KMKG MKG20060611201509206/11/06 20:15:31  5-MIN KMKG 120115Z 01006KT 10SM CLR 16/04 A2999 570 45 900 010/06 RMK AO2
14840KMKG MKG20060611202009206/11/06 20:20:31  5-MIN KMKG 120120Z 01008KT 10SM CLR 16/04 A2999 570 47 800 010/08 RMK AO2
14840KMKG MKG20060611202509206/11/06 20:25:31  5-MIN KMKG 120125Z 36007KT 10SM CLR 16/04 A2999 570 47 800 010/07 RMK AO2
14840KMKG MKG20060611203009206/11/06 20:30:31  5-MIN KMKG 120130Z 36007KT 10SM CLR 16/04 A2999 560 47 800 010/07 RMK AO2
14840KMKG MKG20060611203509206/11/06 20:35:31  5-MIN KMKG 120135Z 36007KT 10SM CLR 16/04 A2999 560 47 800 360/07 RMK AO2
14840KMKG MKG20060611204009206/11/06 20:40:31  5-MIN KMKG 120140Z 01007KT 10SM CLR 16/04 A2999 560 47 800 010/07 RMK AO2
14840KMKG MKG20060611204509206/11/06 20:45:31  5-MIN KMKG 120145Z 01010KT 10SM CLR 16/04 A3000 560 45 800 010/10 RMK AO2
14840KMKG MKG20060611205010906/11/06 20:50:31  5-MIN KMKG 120150Z 36008KT 10SM CLR 16/04 A3000 560 45 800 010/08 RMK AO2 SLP158 T01560039
14840KMKG MKG20060611205510906/11/06 20:55:31  5-MIN KMKG 120155Z 01009KT 10SM CLR 16/04 A3000 560 47 800 020/09 RMK AO2 SLP159 T01560044
14840KMKG MKG20060611210009206/11/06 21:00:31  5-MIN KMKG 120200Z 01009KT 10SM CLR 16/04 A3000 550 45 800 010/09 RMK AO2
14840KMKG MKG20060611210509206/11/06 21:05:31  5-MIN KMKG 120205Z 01009KT 10SM CLR 16/04 A3001 550 47 800 010/09 RMK AO2
14840KMKG MKG20060611211009206/11/06 21:10:31  5-MIN KMKG 120210Z 36007KT 10SM CLR 16/04 A3001 550 47 800 010/07 RMK AO2
14840KMKG MKG20060611211509206/11/06 21:15:31  5-MIN KMKG 120215Z 01009KT 10SM CLR 16/04 A3001 550 47 800 010/09 RMK AO2
14840KMKG MKG20060611212009206/11/06 21:20:31  5-MIN KMKG 120220Z 36008KT 10SM CLR 16/04 A3001 540 47 800 010/08 RMK AO2
14840KMKG MKG20060611212509206/11/06 21:25:31  5-MIN KMKG 120225Z 36008KT 10SM CLR 16/04 A3002 540 47 800 010/08 RMK AO2
14840KMKG MKG20060611213009206/11/06 21:30:31  5-MIN KMKG 120230Z 36009KT 10SM CLR 16/04 A3002 540 47 800 010/09 RMK AO2
14840KMKG MKG20060611213509206/11/06 21:35:31  5-MIN KMKG 120235Z 36007KT 10SM CLR 16/04 A3002 540 47 800 010/07 RMK AO2
14840KMKG MKG20060611214009206/11/06 21:40:31  5-MIN KMKG 120240Z 01007KT 10SM CLR 15/04 A3002 540 49 700 020/07 RMK AO2
14840KMKG MKG20060611214509206/11/06 21:45:31  5-MIN KMKG 120245Z 01009KT 10SM CLR 15/04 A3002 530 49 700 020/09 RMK AO2
14840KMKG MKG20060611215011506/11/06 21:50:31  5-MIN KMKG 120250Z 01008KT 10SM CLR 15/04 A3002 530 49 700 020/08 RMK AO2 SLP167 T01500044 56001
14840KMKG MKG20060611215511506/11/06 21:55:31  5-MIN KMKG 120255Z 02008KT 10SM CLR 15/04 A3003 530 49 700 020/08 RMK AO2 SLP167 T01500044 53015
14840KMKG MKG20060611220009206/11/06 22:00:31  5-MIN KMKG 120300Z 01007KT 10SM CLR 15/05 A3003 530 51 700 020/07 RMK AO2
14840KMKG MKG20060611220509206/11/06 22:05:31  5-MIN KMKG 120305Z 01008KT 10SM CLR 15/05 A3003 530 51 700 010/08 RMK AO2
14840KMKG MKG20060611221009206/11/06 22:10:31  5-MIN KMKG 120310Z 02006KT 10SM CLR 14/05 A3003 530 53 600 020/06 RMK AO2
14840KMKG MKG20060611221509206/11/06 22:15:31  5-MIN KMKG 120315Z 02007KT 10SM CLR 15/05 A3003 530 51 700 020/07 RMK AO2
14840KMKG MKG20060611222009206/11/06 22:20:31  5-MIN KMKG 120320Z 02007KT 10SM CLR 15/05 A3003 530 51 700 020/07 RMK AO2
14840KMKG MKG20060611222509206/11/06 22:25:31  5-MIN KMKG 120325Z 02007KT 10SM CLR 14/05 A3003 530 53 600 020/07 RMK AO2
14840KMKG MKG20060611223009206/11/06 22:30:31  5-MIN KMKG 120330Z 02007KT 10SM CLR 14/05 A3003 530 53 600 020/07 RMK AO2
14840KMKG MKG20060611223509206/11/06 22:35:31  5-MIN KMKG 120335Z 02007KT 10SM CLR 14/05 A3003 530 53 600 030/07 RMK AO2
14840KMKG MKG20060611224009206/11/06 22:40:31  5-MIN KMKG 120340Z 02005KT 10SM CLR 14/05 A3003 530 53 600 030/05 RMK AO2
14840KMKG MKG20060611224509206/11/06 22:45:31  5-MIN KMKG 120345Z 02005KT 10SM CLR 14/05 A3004 520 53 600 020/05 RMK AO2
14840KMKG MKG20060611225010906/11/06 22:50:31  5-MIN KMKG 120350Z 03005KT 10SM CLR 14/05 A3003 520 53 600 040/05 RMK AO2 SLP170 T01440050
14840KMKG MKG20060611225510906/11/06 22:55:31  5-MIN KMKG 120355Z 03006KT 10SM CLR 14/05 A3004 520 53 600 030/06 RMK AO2 SLP171 T01440050
14840KMKG MKG20060611230009206/11/06 23:00:31  5-MIN KMKG 120400Z 01005KT 10SM CLR 14/05 A3004 520 53 600 010/05 RMK AO2
14840KMKG MKG20060611230509206/11/06 23:05:31  5-MIN KMKG 120405Z 01007KT 10SM CLR 14/05 A3004 520 55 600 010/07 RMK AO2
14840KMKG MKG20060611231009206/11/06 23:10:31  5-MIN KMKG 120410Z 01008KT 10SM CLR 14/05 A3004 520 55 500 020/08 RMK AO2
14840KMKG MKG20060611231509206/11/06 23:15:31  5-MIN KMKG 120415Z 02007KT 10SM CLR 14/05 A3004 520 55 600 020/07 RMK AO2
14840KMKG MKG20060611232009206/11/06 23:20:31  5-MIN KMKG 120420Z 02006KT 10SM CLR 13/05 A3004 520 57 500 030/06 RMK AO2
14840KMKG MKG20060611232509206/11/06 23:25:31  5-MIN KMKG 120425Z 02008KT 10SM CLR 14/05 A3004 520 55 500 020/08 RMK AO2
14840KMKG MKG20060611233009206/11/06 23:30:31  5-MIN KMKG 120430Z 02006KT 10SM CLR 13/05 A3004 520 57 500 020/06 RMK AO2
14840KMKG MKG20060611233509206/11/06 23:35:31  5-MIN KMKG 120435Z 03007KT 10SM CLR 13/05 A3004 520 57 500 030/07 RMK AO2
14840KMKG MKG20060611234009206/11/06 23:40:31  5-MIN KMKG 120440Z 03007KT 10SM CLR 13/05 A3004 520 57 500 030/07 RMK AO2
14840KMKG MKG20060611234509206/11/06 23:45:31  5-MIN KMKG 120445Z 03008KT 10SM CLR 13/05 A3004 520 57 500 030/08 RMK AO2
14840KMKG MKG20060611235011906/11/06 23:50:31  5-MIN KMKG 120450Z 03008KT 10SM CLR 13/05 A3004 520 57 500 030/08 RMK AO2 SLP173 T01330050 401890072
14840KMKG MKG20060611235511906/11/06 23:55:31  5-MIN KMKG 120455Z 04008KT 10SM CLR 13/05 A3004 520 57 500 040/08 RMK AO2 SLP173 T01330050 401890072
14840KMKG MKG20060612000009206/12/06 00:00:32  5-MIN KMKG 120500Z 03007KT 10SM CLR 13/05 A3005 510 59 400 030/07 RMK AO2
14840KMKG MKG20060612000509206/12/06 00:05:31  5-MIN KMKG 120505Z 03007KT 10SM CLR 13/05 A3005 510 59 400 040/07 RMK AO2
14840KMKG MKG20060612001009206/12/06 00:10:31  5-MIN KMKG 120510Z 04006KT 10SM CLR 13/05 A3005 510 59 400 040/06 RMK AO2
14840KMKG MKG20060612001509206/12/06 00:15:31  5-MIN KMKG 120515Z 04007KT 10SM CLR 13/05 A3005 510 59 400 040/07 RMK AO2
14840KMKG MKG20060612002009206/12/06 00:20:31  5-MIN KMKG 120520Z 03006KT 10SM CLR 12/06 A3005 510 63 300 040/06 RMK AO2
14840KMKG MKG20060612002509206/12/06 00:25:31  5-MIN KMKG 120525Z 03006KT 10SM CLR 12/06 A3005 510 63 300 040/06 RMK AO2
14840KMKG MKG20060612003009206/12/06 00:30:31  5-MIN KMKG 120530Z 03007KT 10SM CLR 12/06 A3005 510 63 300 030/07 RMK AO2
14840KMKG MKG20060612003509206/12/06 00:35:31  5-MIN KMKG 120535Z 03006KT 10SM CLR 12/06 A3005 510 63 300 030/06 RMK AO2
14840KMKG MKG20060612004009206/12/06 00:40:31  5-MIN KMKG 120540Z 03006KT 10SM CLR 12/06 A3005 510 63 300 040/06 RMK AO2
14840KMKG MKG20060612004509206/12/06 00:45:31  5-MIN KMKG 120545Z 03007KT 10SM CLR 12/06 A3005 510 66 300 030/07 RMK AO2
14840KMKG MKG20060612005012706/12/06 00:50:31  5-MIN KMKG 120550Z 04006KT 10SM CLR 12/06 A3005 510 66 300 040/06 RMK AO2 SLP177 T01170056 10172 20117 53015
14840KMKG MKG20060612005512706/12/06 00:55:31  5-MIN KMKG 120555Z 03007KT 10SM CLR 12/06 A3005 510 66 300 030/07 RMK AO2 SLP177 T01170056 10172 20117 52010
14840KMKG MKG20060612010009206/12/06 01:00:31  5-MIN KMKG 120600Z 03007KT 10SM CLR 12/06 A3006 510 66 300 030/07 RMK AO2
14840KMKG MKG20060612010509206/12/06 01:05:31  5-MIN KMKG 120605Z 03006KT 10SM CLR 12/06 A3006 510 66 300 030/06 RMK AO2
14840KMKG MKG20060612011009206/12/06 01:10:31  5-MIN KMKG 120610Z 03008KT 10SM CLR 12/06 A3006 510 66 300 040/08 RMK AO2
14840KMKG MKG20060612011509206/12/06 01:15:31  5-MIN KMKG 120615Z 03007KT 10SM CLR 12/06 A3006 510 66 300 030/07 RMK AO2
14840KMKG MKG20060612012009206/12/06 01:20:31  5-MIN KMKG 120620Z 03007KT 10SM CLR 12/06 A3005 510 66 300 030/07 RMK AO2
14840KMKG MKG20060612012509206/12/06 01:25:31  5-MIN KMKG 120625Z 04006KT 10SM CLR 12/06 A3005 510 66 300 040/06 RMK AO2
14840KMKG MKG20060612013009206/12/06 01:30:31  5-MIN KMKG 120630Z 05006KT 10SM CLR 12/06 A3005 510 66 300 050/06 RMK AO2
14840KMKG MKG20060612013509206/12/06 01:35:31  5-MIN KMKG 120635Z 05006KT 10SM CLR 11/06 A3005 510 68 200 050/06 RMK AO2
14840KMKG MKG20060612014009206/12/06 01:40:31  5-MIN KMKG 120640Z 05006KT 10SM CLR 11/06 A3006 510 68 200 060/06 RMK AO2
14840KMKG MKG20060612014509206/12/06 01:45:31  5-MIN KMKG 120645Z 05006KT 10SM CLR 11/06 A3006 500 68 200 050/06 RMK AO2
14840KMKG MKG20060612015010906/12/06 01:50:31  5-MIN KMKG 120650Z 04004KT 10SM CLR 11/06 A3006 500 68 200 050/04 RMK AO2 SLP180 T01110056
14840KMKG MKG20060612015510906/12/06 01:55:31  5-MIN KMKG 120655Z 04005KT 10SM CLR 11/06 A3006 500 71 100 050/05 RMK AO2 SLP180 T01060056
14840KMKG MKG20060612020009206/12/06 02:00:31  5-MIN KMKG 120700Z 04005KT 10SM CLR 11/06 A3006 500 71 100 040/05 RMK AO2
14840KMKG MKG20060612020509206/12/06 02:05:31  5-MIN KMKG 120705Z 05003KT 10SM CLR 11/06 A3006 500 71 100 050/03 RMK AO2
14840KMKG MKG20060612021009206/12/06 02:10:31  5-MIN KMKG 120710Z 04004KT 10SM CLR 11/06 A3006 500 71 100 040/04 RMK AO2
14840KMKG MKG20060612021509206/12/06 02:15:31  5-MIN KMKG 120715Z 04006KT 10SM CLR 11/06 A3006 500 71 100 040/06 RMK AO2
14840KMKG MKG20060612022009206/12/06 02:20:31  5-MIN KMKG 120720Z 03006KT 10SM CLR 11/06 A3006 500 74 100 030/06 RMK AO2
14840KMKG MKG20060612022509206/12/06 02:25:31  5-MIN KMKG 120725Z 03006KT 10SM CLR 11/06 A3006 500 71 100 030/06 RMK AO2
14840KMKG MKG20060612023009206/12/06 02:30:31  5-MIN KMKG 120730Z 02005KT 10SM CLR 11/06 A3007 500 71 100 030/05 RMK AO2
14840KMKG MKG20060612023509206/12/06 02:35:31  5-MIN KMKG 120735Z 03005KT 10SM CLR 11/06 A3007 490 71 100 040/05 RMK AO2
14840KMKG MKG20060612024009206/12/06 02:40:31  5-MIN KMKG 120740Z 04005KT 10SM CLR 11/06 A3007 500 71 100 050/05 RMK AO2
14840KMKG MKG20060612024509206/12/06 02:45:31  5-MIN KMKG 120745Z 04004KT 10SM CLR 10/06 A3007 500 74 100 040/04 RMK AO2
14840KMKG MKG20060612025010906/12/06 02:50:31  5-MIN KMKG 120750Z 03003KT 10SM CLR 10/06 A3007 490 74 100 030/03 RMK AO2 SLP182 T01000056
14840KMKG MKG20060612025510906/12/06 02:55:31  5-MIN KMKG 120755Z 03003KT 10SM CLR 10/06 A3007 490 74 100 040/03 RMK AO2 SLP183 T01000056
14840KMKG MKG20060612030009006/12/06 03:00:31  5-MIN KMKG 120800Z 02003KT 10SM CLR 10/06 A3007 490 74 0 020/03 RMK AO2
14840KMKG MKG20060612030509006/12/06 03:05:31  5-MIN KMKG 120805Z 01004KT 10SM CLR 10/06 A3007 490 77 0 010/04 RMK AO2
14840KMKG MKG20060612031009006/12/06 03:10:31  5-MIN KMKG 120810Z 01005KT 10SM CLR 10/06 A3007 490 77 0 020/05 RMK AO2
14840KMKG MKG20060612031509006/12/06 03:15:31  5-MIN KMKG 120815Z 36004KT 10SM CLR 10/06 A3008 490 77 0 010/04 RMK AO2
14840KMKG MKG20060612032009006/12/06 03:20:31  5-MIN KMKG 120820Z 36005KT 10SM CLR 09/06 A3008 490 79 0 360/05 RMK AO2
14840KMKG MKG20060612032509006/12/06 03:25:31  5-MIN KMKG 120825Z 01005KT 10SM CLR 09/06 A3008 490 79 0 010/05 RMK AO2
14840KMKG MKG20060612033009006/12/06 03:30:31  5-MIN KMKG 120830Z 36005KT 10SM CLR 09/06 A3008 480 79 0 010/05 RMK AO2
14840KMKG MKG20060612033509006/12/06 03:35:31  5-MIN KMKG 120835Z 36004KT 10SM CLR 09/06 A3008 480 76 0 010/04 RMK AO2
14840KMKG MKG20060612034009006/12/06 03:40:31  5-MIN KMKG 120840Z 01005KT 10SM CLR 09/06 A3008 480 76 0 010/05 RMK AO2
14840KMKG MKG20060612034509006/12/06 03:45:31  5-MIN KMKG 120845Z 36005KT 10SM CLR 09/06 A3008 480 76 0 010/05 RMK AO2
14840KMKG MKG20060612035011306/12/06 03:50:31  5-MIN KMKG 120850Z 36005KT 10SM CLR 09/06 A3008 480 76 0 010/05 RMK AO2 SLP186 T00940056 52010
14840KMKG MKG20060612035511306/12/06 03:55:31  5-MIN KMKG 120855Z 01006KT 10SM CLR 09/06 A3008 480 76 0 010/06 RMK AO2 SLP186 T00940056 53008
14840KMKG MKG20060612040009006/12/06 04:00:31  5-MIN KMKG 120900Z 01005KT 10SM CLR 09/06 A3008 480 79 0 020/05 RMK AO2
14840KMKG MKG20060612040509006/12/06 04:05:31  5-MIN KMKG 120905Z 02005KT 10SM CLR 09/06 A3008 480 76 0 020/05 RMK AO2
14840KMKG MKG20060612041009006/12/06 04:10:31  5-MIN KMKG 120910Z 02004KT 10SM CLR 09/06 A3008 480 79 0 020/04 RMK AO2
14840KMKG MKG20060612041509306/12/06 04:15:31  5-MIN KMKG 120915Z VRB03KT 10SM CLR 09/06 A3009 480 83 -100 VRB/03 RMK AO2
14840KMKG MKG20060612042009306/12/06 04:20:31  5-MIN KMKG 120920Z 02004KT 10SM CLR 09/06 A3009 480 83 -100 020/04 RMK AO2
14840KMKG MKG20060612042509306/12/06 04:25:31  5-MIN KMKG 120925Z 02004KT 10SM CLR 09/06 A3009 480 83 -100 020/04 RMK AO2
14840KMKG MKG20060612043009306/12/06 04:30:31  5-MIN KMKG 120930Z 01003KT 10SM CLR 09/06 A3009 470 79 -100 020/03 RMK AO2
14840KMKG MKG20060612043509306/12/06 04:35:31  5-MIN KMKG 120935Z 01003KT 10SM CLR 09/06 A3009 470 79 -100 020/03 RMK AO2
14840KMKG MKG20060612044009306/12/06 04:40:31  5-MIN KMKG 120940Z 02004KT 10SM CLR 09/06 A3009 470 79 -100 020/04 RMK AO2
14840KMKG MKG20060612044509306/12/06 04:45:31  5-MIN KMKG 120945Z 02003KT 10SM CLR 08/06 A3009 470 82 -100 020/03 RMK AO2
14840KMKG MKG20060612045011006/12/06 04:50:31  5-MIN KMKG 120950Z 03003KT 10SM CLR 08/06 A3009 470 82 -100 030/03 RMK AO2 SLP193 T00830056
14840KMKG MKG20060612045511006/12/06 04:55:31  5-MIN KMKG 120955Z 04004KT 10SM CLR 09/06 A3009 470 83 -100 040/04 RMK AO2 SLP192 T00890061
14840KMKG MKG20060612050009306/12/06 05:00:31  5-MIN KMKG 121000Z 03004KT 10SM CLR 09/06 A3010 470 83 -100 040/04 RMK AO2
14840KMKG MKG20060612050509306/12/06 05:05:31  5-MIN KMKG 121005Z 03004KT 10SM CLR 09/06 A3010 470 83 -100 040/04 RMK AO2
14840KMKG MKG20060612051009306/12/06 05:10:31  5-MIN KMKG 121010Z 04005KT 10SM CLR 09/06 A3010 460 83 -100 040/05 RMK AO2
14840KMKG MKG20060612051509306/12/06 05:15:31  5-MIN KMKG 121015Z 03004KT 10SM CLR 09/06 A3010 460 83 -100 040/04 RMK AO2
14840KMKG MKG20060612052009306/12/06 05:20:31  5-MIN KMKG 121020Z 03005KT 10SM CLR 09/06 A3010 460 83 -100 040/05 RMK AO2
14840KMKG MKG20060612052509306/12/06 05:25:31  5-MIN KMKG 121025Z 04005KT 10SM CLR 09/06 A3011 460 83 -100 040/05 RMK AO2
14840KMKG MKG20060612053009306/12/06 05:30:31  5-MIN KMKG 121030Z 03005KT 10SM CLR 09/06 A3011 460 83 -100 040/05 RMK AO2
14840KMKG MKG20060612053509006/12/06 05:35:31  5-MIN KMKG 121035Z 03006KT 10SM CLR 09/06 A3011 460 79 0 040/06 RMK AO2
14840KMKG MKG20060612054009006/12/06 05:40:31  5-MIN KMKG 121040Z 02005KT 10SM CLR 09/06 A3011 450 79 0 030/05 RMK AO2
14840KMKG MKG20060612054509006/12/06 05:45:31  5-MIN KMKG 121045Z 02005KT 10SM CLR 09/06 A3012 450 79 0 020/05 RMK AO2
14840KMKG MKG20060612055010706/12/06 05:50:31  5-MIN KMKG 121050Z 01004KT 10SM CLR 09/06 A3012 450 79 0 010/04 RMK AO2 SLP200 T00940061
14840KMKG MKG20060612055510706/12/06 05:55:31  5-MIN KMKG 121055Z 01005KT 10SM CLR 09/07 A3012 450 83 0 020/05 RMK AO2 SLP200 T00940067
14840KMKG MKG20060612060009006/12/06 06:00:31  5-MIN KMKG 121100Z VRB04KT 10SM CLR 10/07 A3012 450 80 0 VRB/04 RMK AO2
14840KMKG MKG20060612060509006/12/06 06:05:31  5-MIN KMKG 121105Z VRB03KT 10SM CLR 10/07 A3012 450 80 0 VRB/03 RMK AO2
14840KMKG MKG20060612061009006/12/06 06:10:31  5-MIN KMKG 121110Z 00000KT 10SM CLR 10/07 A3012 440 80 0 000/00 RMK AO2
14840KMKG MKG20060612061509206/12/06 06:15:31  5-MIN KMKG 121115Z 04004KT 10SM CLR 11/07 A3012 440 77 100 040/04 RMK AO2
14840KMKG MKG20060612062009206/12/06 06:20:31  5-MIN KMKG 121120Z 03004KT 10SM CLR 11/07 A3012 440 77 100 040/04 RMK AO2
14840KMKG MKG20060612062509206/12/06 06:25:31  5-MIN KMKG 121125Z 03004KT 10SM CLR 11/07 A3012 440 77 100 040/04 RMK AO2
14840KMKG MKG20060612063009206/12/06 06:30:31  5-MIN KMKG 121130Z VRB04KT 10SM CLR 11/07 A3012 440 77 100 VRB/04 RMK AO2
14840KMKG MKG20060612063509206/12/06 06:35:31  5-MIN KMKG 121135Z 06003KT 10SM CLR 11/07 A3013 440 74 100 070/03 RMK AO2
14840KMKG MKG20060612064009206/12/06 06:40:31  5-MIN KMKG 121140Z 06004KT 10SM CLR 12/07 A3013 440 74 200 060/04 RMK AO2
14840KMKG MKG20060612064509206/12/06 06:45:31  5-MIN KMKG 121145Z 03004KT 10SM CLR 12/07 A3013 440 74 200 040/04 RMK AO2
14840KMKG MKG20060612065012706/12/06 06:50:31  5-MIN KMKG 121150Z 04005KT 10SM CLR 12/07 A3013 430 74 200 050/05 RMK AO2 SLP205 T01170072 10117 20083 53008
14840KMKG MKG20060612065512706/12/06 06:55:31  5-MIN KMKG 121155Z 04004KT 10SM CLR 12/07 A3013 440 71 200 040/04 RMK AO2 SLP204 T01220072 10122 20083 51017
14840KMKG MKG20060612070009206/12/06 07:00:31  5-MIN KMKG 121200Z 03005KT 10SM CLR 12/07 A3013 440 71 200 030/05 RMK AO2
14840KMKG MKG20060612070509206/12/06 07:05:31  5-MIN KMKG 121205Z 04005KT 10SM CLR 13/08 A3013 430 71 300 040/05 RMK AO2
14840KMKG MKG20060612071009206/12/06 07:10:31  5-MIN KMKG 121210Z 06005KT 10SM CLR 13/08 A3013 430 71 300 060/05 RMK AO2
14840KMKG MKG20060612071509206/12/06 07:15:31  5-MIN KMKG 121215Z 05005KT 10SM CLR 13/07 A3013 430 69 300 050/05 RMK AO2
14840KMKG MKG20060612072009206/12/06 07:20:31  5-MIN KMKG 121220Z 04005KT 10SM CLR 13/07 A3014 430 69 300 050/05 RMK AO2
14840KMKG MKG20060612072509206/12/06 07:25:31  5-MIN KMKG 121225Z 05005KT 10SM CLR 13/08 A3014 430 69 400 060/05 RMK AO2
14840KMKG MKG20060612073009206/12/06 07:30:31  5-MIN KMKG 121230Z 04005KT 10SM CLR 14/08 A3014 430 66 400 040/05 RMK AO2
14840KMKG MKG20060612073509206/12/06 07:35:31  5-MIN KMKG 121235Z 04006KT 10SM CLR 14/08 A3014 430 66 400 050/06 RMK AO2
14840KMKG MKG20060612074009206/12/06 07:40:31  5-MIN KMKG 121240Z 03005KT 10SM CLR 14/08 A3014 430 66 400 040/05 RMK AO2
14840KMKG MKG20060612074509206/12/06 07:45:31  5-MIN KMKG 121245Z 02005KT 10SM CLR 14/08 A3014 430 66 400 030/05 RMK AO2
14840KMKG MKG20060612075010906/12/06 07:50:31  5-MIN KMKG 121250Z 01004KT 10SM CLR 14/08 A3014 430 64 500 010/04 RMK AO2 SLP207 T01440078
14840KMKG MKG20060612075510906/12/06 07:55:31  5-MIN KMKG 121255Z 02004KT 10SM CLR 14/08 A3014 420 64 500 020/04 RMK AO2 SLP207 T01440078
14840KMKG MKG20060612080009206/12/06 08:00:31  5-MIN KMKG 121300Z 03005KT 10SM CLR 15/07 A3015 420 59 600 030/05 RMK AO2
14840KMKG MKG20060612080509206/12/06 08:05:31  5-MIN KMKG 121305Z 05004KT 10SM CLR 15/08 A3015 420 62 600 050/04 RMK AO2
14840KMKG MKG20060612081009206/12/06 08:10:31  5-MIN KMKG 121310Z 03003KT 10SM CLR 15/07 A3015 420 59 600 030/03 RMK AO2
14840KMKG MKG20060612081509206/12/06 08:15:31  5-MIN KMKG 121315Z 04004KT 10SM CLR 16/08 A3015 420 59 600 040/04 RMK AO2
14840KMKG MKG20060612082009206/12/06 08:20:31  5-MIN KMKG 121320Z 05003KT 10SM CLR 15/07 A3015 420 59 600 060/03 RMK AO2
14840KMKG MKG20060612082509206/12/06 08:25:31  5-MIN KMKG 121325Z 05003KT 10SM CLR 16/08 A3015 420 59 600 050/03 RMK AO2
14840KMKG MKG20060612083009206/12/06 08:30:31  5-MIN KMKG 121330Z 04004KT 10SM CLR 16/08 A3015 410 59 600 040/04 RMK AO2
14840KMKG MKG20060612083509206/12/06 08:35:31  5-MIN KMKG 121335Z VRB03KT 10SM CLR 16/08 A3016 410 57 700 VRB/03 RMK AO2
14840KMKG MKG20060612084009206/12/06 08:40:31  5-MIN KMKG 121340Z 03005KT 10SM CLR 16/08 A3015 420 57 700 030/05 RMK AO2
14840KMKG MKG20060612084509206/12/06 08:45:31  5-MIN KMKG 121345Z 05005KT 10SM CLR 16/08 A3015 420 57 700 060/05 RMK AO2
14840KMKG MKG20060612085010906/12/06 08:50:31  5-MIN KMKG 121350Z 04005KT 10SM CLR 16/08 A3015 420 57 700 040/05 RMK AO2 SLP210 T01610078
14840KMKG MKG20060612085510906/12/06 08:55:31  5-MIN KMKG 121355Z 05007KT 10SM CLR 16/08 A3015 420 57 700 060/07 RMK AO2 SLP211 T01610078
14840KMKG MKG20060612090009206/12/06 09:00:31  5-MIN KMKG 121400Z 03004KT 10SM CLR 17/08 A3015 420 55 800 030/04 RMK AO2
14840KMKG MKG20060612090509206/12/06 09:05:31  5-MIN KMKG 121405Z 07006KT 10SM CLR 17/08 A3015 420 53 800 070/06 RMK AO2
14840KMKG MKG20060612091009206/12/06 09:10:31  5-MIN KMKG 121410Z 03006KT 10SM CLR 17/08 A3015 420 53 800 040/06 RMK AO2
14840KMKG MKG20060612091509206/12/06 09:15:31  5-MIN KMKG 121415Z 02007KT 10SM CLR 17/08 A3014 420 53 800 020/07 RMK AO2
14840KMKG MKG20060612092009206/12/06 09:20:31  5-MIN KMKG 121420Z 02006KT 10SM CLR 18/08 A3014 420 53 900 020/06 RMK AO2
14840KMKG MKG20060612092509206/12/06 09:25:31  5-MIN KMKG 121425Z VRB04KT 10SM CLR 17/08 A3014 430 53 800 VRB/04 RMK AO2
14840KMKG MKG20060612093009206/12/06 09:30:31  5-MIN KMKG 121430Z 08006KT 10SM CLR 18/08 A3014 430 51 900 090/06 RMK AO2
14840KMKG MKG20060612093509206/12/06 09:35:31  5-MIN KMKG 121435Z 08005KT 10SM CLR 17/08 A3014 430 53 800 080/05 RMK AO2
14840KMKG MKG20060612094009206/12/06 09:40:31  5-MIN KMKG 121440Z 06005KT 10SM CLR 18/08 A3014 430 51 900 060/05 RMK AO2
14840KMKG MKG20060612094509206/12/06 09:45:31  5-MIN KMKG 121445Z 00000KT 10SM CLR 18/08 A3014 430 51 900 000/00 RMK AO2
14840KMKG MKG20060612095011606/12/06 09:50:31  5-MIN KMKG 121450Z VRB05KT 10SM CLR 18/08 A3014 430 52 1000 VRB/05 RMK AO2 SLP205 T01830083 51017
14840KMKG MKG20060612095511906/12/06 09:55:31  5-MIN KMKG 121455Z 36006KT 10SM FEW040 18/08 A3014 430 50 1000 360/06 RMK AO2 SLP205 T01830078 50002
14840KMKG MKG20060612100009306/12/06 10:00:31  5-MIN KMKG 121500Z 36005KT 10SM CLR 18/08 A3014 430 50 1000 360/05 RMK AO2
14840KMKG MKG20060612100509306/12/06 10:05:31  5-MIN KMKG 121505Z 35009KT 10SM CLR 18/08 A3014 430 50 1000 350/09 RMK AO2
14840KMKG MKG20060612101009606/12/06 10:10:31  5-MIN KMKG 121510Z 35006KT 10SM FEW039 18/08 A3014 430 50 1000 350/06 RMK AO2
14840KMKG MKG20060612101509606/12/06 10:15:31  5-MIN KMKG 121515Z 30010KT 10SM SCT039 18/08 A3014 430 52 1000 300/10 RMK AO2
14840KMKG MKG20060612102009506/12/06 10:20:31  5-MIN KMKG 121520Z 30009KT 10SM FEW039 17/08 A3014 430 57 800 310/09 RMK AO2
14840KMKG MKG20060612102511106/12/06 10:25:31  5-MIN KMKG 121525Z 29007KT 260V320 10SM SCT041 17/08 A3013 430 57 800 300/07 260V320 RMK AO2
14840KMKG MKG20060612103009506/12/06 10:30:31  5-MIN KMKG 121530Z 29011KT 10SM SCT041 17/08 A3013 430 55 800 290/11 RMK AO2
14840KMKG MKG20060612103509506/12/06 10:35:31  5-MIN KMKG 121535Z 29009KT 10SM SCT041 18/08 A3013 430 53 900 300/09 RMK AO2
14840KMKG MKG20060612104009506/12/06 10:40:31  5-MIN KMKG 121540Z 30009KT 10SM FEW041 17/08 A3013 430 55 800 310/09 RMK AO2
14840KMKG MKG20060612104509506/12/06 10:45:31  5-MIN KMKG 121545Z 29008KT 10SM SCT041 17/08 A3014 430 55 800 290/08 RMK AO2
14840KMKG MKG20060612105011206/12/06 10:50:31  5-MIN KMKG 121550Z 28010KT 10SM SCT041 18/09 A3014 430 55 900 280/10 RMK AO2 SLP206 T01780089
14840KMKG MKG20060612105511206/12/06 10:55:31  5-MIN KMKG 121555Z 29009KT 10SM SCT043 18/08 A3014 430 53 900 290/09 RMK AO2 SLP207 T01780083
14840KMKG MKG20060612110009606/12/06 11:00:31  5-MIN KMKG 121600Z 29012KT 10SM BKN043 18/09 A3014 430 54 1000 290/12 RMK AO2
14840KMKG MKG20060612110509506/12/06 11:05:31  5-MIN KMKG 121605Z 28011KT 10SM BKN043 18/08 A3014 420 53 900 280/11 RMK AO2
14840KMKG MKG20060612111009506/12/06 11:10:31  5-MIN KMKG 121610Z 29014KT 10SM BKN043 18/08 A3014 420 53 900 290/14 RMK AO2
14840KMKG MKG20060612111509506/12/06 11:15:31  5-MIN KMKG 121615Z 29013KT 10SM BKN043 17/08 A3015 420 53 800 290/13 RMK AO2
14840KMKG MKG20060612112009506/12/06 11:20:31  5-MIN KMKG 121620Z 29012KT 10SM BKN045 17/08 A3015 420 53 800 290/12 RMK AO2
14840KMKG MKG20060612112509506/12/06 11:25:31  5-MIN KMKG 121625Z 28013KT 10SM BKN045 17/08 A3015 420 53 800 290/13 RMK AO2
14840KMKG MKG20060612113009506/12/06 11:30:31  5-MIN KMKG 121630Z 29014KT 10SM SCT045 17/07 A3015 420 51 800 290/14 RMK AO2
14840KMKG MKG20060612113509506/12/06 11:35:31  5-MIN KMKG 121635Z 29011KT 10SM SCT045 17/07 A3014 430 51 800 290/11 RMK AO2
14840KMKG MKG20060612114009506/12/06 11:40:31  5-MIN KMKG 121640Z 28010KT 10SM FEW045 17/08 A3014 430 53 800 290/10 RMK AO2
14840KMKG MKG20060612114509506/12/06 11:45:31  5-MIN KMKG 121645Z 31011KT 10SM FEW045 18/08 A3014 430 53 900 320/11 RMK AO2
14840KMKG MKG20060612115010906/12/06 11:50:31  5-MIN KMKG 121650Z 30011KT 10SM CLR 17/08 A3014 430 53 800 300/11 RMK AO2 SLP207 T01720078
14840KMKG MKG20060612115511206/12/06 11:55:31  5-MIN KMKG 121655Z 31011KT 10SM SCT043 18/08 A3014 430 51 900 310/11 RMK AO2 SLP206 T01780078
14840KMKG MKG20060612120009506/12/06 12:00:31  5-MIN KMKG 121700Z 30010KT 10SM FEW090 17/08 A3014 430 53 800 310/10 RMK AO2
14840KMKG MKG20060612120509506/12/06 12:05:31  5-MIN KMKG 121705Z 30010KT 10SM FEW090 18/08 A3014 430 51 900 300/10 RMK AO2
14840KMKG MKG20060612121009506/12/06 12:10:31  5-MIN KMKG 121710Z 30011KT 10SM FEW090 18/08 A3014 430 51 900 310/11 RMK AO2
14840KMKG MKG20060612121509506/12/06 12:15:31  5-MIN KMKG 121715Z 31011KT 10SM FEW090 18/08 A3014 430 51 900 310/11 RMK AO2
14840KMKG MKG20060612122009606/12/06 12:20:31  5-MIN KMKG 121720Z 28012KT 10SM FEW090 18/08 A3014 430 52 1000 280/12 RMK AO2
14840KMKG MKG20060612122509206/12/06 12:25:31  5-MIN KMKG 121725Z 28012KT 10SM CLR 18/08 A3014 430 51 900 290/12 RMK AO2
14840KMKG MKG20060612123009206/12/06 12:30:31  5-MIN KMKG 121730Z 29011KT 10SM CLR 18/08 A3014 430 51 900 290/11 RMK AO2
14840KMKG MKG20060612123509206/12/06 12:35:31  5-MIN KMKG 121735Z 30012KT 10SM CLR 18/08 A3014 430 51 900 310/12 RMK AO2
14840KMKG MKG20060612124009306/12/06 12:40:31  5-MIN KMKG 121740Z 28013KT 10SM CLR 18/08 A3014 430 50 1000 290/13 RMK AO2
14840KMKG MKG20060612124509306/12/06 12:45:31  5-MIN KMKG 121745Z 30012KT 10SM CLR 18/08 A3014 430 50 1000 300/12 RMK AO2
14840KMKG MKG20060612125012706/12/06 12:50:31  5-MIN KMKG 121750Z 31011KT 10SM CLR 18/08 A3014 430 51 900 310/11 RMK AO2 SLP206 T01780078 10183 20122 50002
14840KMKG MKG20060612125513106/12/06 12:55:31  5-MIN KMKG 121755Z 31012KT 10SM FEW045 18/08 A3014 430 50 1000 310/12 RMK AO2 SLP206 T01830078 10183 20122 51001
14840KMKG MKG20060612130009606/12/06 13:00:31  5-MIN KMKG 121800Z 31011KT 10SM FEW090 18/08 A3014 430 50 1000 310/11 RMK AO2
14840KMKG MKG20060612130509306/12/06 13:05:31  5-MIN KMKG 121805Z 30009KT 10SM CLR 19/08 A3014 430 50 1000 300/09 RMK AO2
14840KMKG MKG20060612131009306/12/06 13:10:31  5-MIN KMKG 121810Z 30011KT 10SM CLR 19/08 A3014 430 50 1000 300/11 RMK AO2
14840KMKG MKG20060612131509306/12/06 13:15:31  5-MIN KMKG 121815Z 29011KT 10SM CLR 18/08 A3014 430 50 1000 290/11 RMK AO2
14840KMKG MKG20060612132009306/12/06 13:20:31  5-MIN KMKG 121820Z 30011KT 10SM CLR 19/08 A3014 430 48 1000 310/11 RMK AO2
14840KMKG MKG20060612132509906/12/06 13:25:31  5-MIN KMKG 121825Z 28013G17KT 10SM CLR 18/08 A3014 420 50 1000 280/13G17 RMK AO2
14840KMKG MKG20060612133009306/12/06 13:30:31  5-MIN KMKG 121830Z 29012KT 10SM CLR 18/08 A3014 420 50 1000 290/12 RMK AO2
14840KMKG MKG20060612133509606/12/06 13:35:31  5-MIN KMKG 121835Z 30012KT 10SM FEW090 19/08 A3014 420 50 1000 310/12 RMK AO2
14840KMKG MKG20060612134009306/12/06 13:40:31  5-MIN KMKG 121840Z 30011KT 10SM CLR 18/08 A3014 420 50 1000 300/11 RMK AO2
14840KMKG MKG20060612134509606/12/06 13:45:31  5-MIN KMKG 121845Z 30011KT 10SM FEW085 19/08 A3014 420 48 1000 300/11 RMK AO2
14840KMKG MKG20060612135011306/12/06 13:50:31  5-MIN KMKG 121850Z 29010KT 10SM FEW045 19/08 A3014 420 48 1100 300/10 RMK AO2 SLP208 T01940083
14840KMKG MKG20060612135511306/12/06 13:55:31  5-MIN KMKG 121855Z 29012KT 10SM FEW045 19/08 A3015 420 50 1000 290/12 RMK AO2 SLP208 T01890083
14840KMKG MKG20060612140009206/12/06 14:00:31  5-MIN KMKG 121900Z 31011KT 10SM CLR 18/08 A3015 420 50 900 310/11 RMK AO2
14840KMKG MKG20060612140509306/12/06 14:05:31  5-MIN KMKG 121905Z 31013KT 10SM CLR 19/08 A3015 420 48 1000 310/13 RMK AO2
14840KMKG MKG20060612141009306/12/06 14:10:31  5-MIN KMKG 121910Z 30013KT 10SM CLR 18/08 A3015 420 50 1000 300/13 RMK AO2
14840KMKG MKG20060612141509206/12/06 14:15:31  5-MIN KMKG 121915Z 30011KT 10SM CLR 18/08 A3015 420 50 900 300/11 RMK AO2
14840KMKG MKG20060612142009206/12/06 14:20:31  5-MIN KMKG 121920Z 30011KT 10SM CLR 18/08 A3015 420 50 900 300/11 RMK AO2
14840KMKG MKG20060612142509206/12/06 14:25:31  5-MIN KMKG 121925Z 29011KT 10SM CLR 18/08 A3015 420 50 900 300/11 RMK AO2
14840KMKG MKG20060612143009206/12/06 14:30:31  5-MIN KMKG 121930Z 30010KT 10SM CLR 18/08 A3015 420 50 900 300/10 RMK AO2
14840KMKG MKG20060612143509206/12/06 14:35:31  5-MIN KMKG 121935Z 30011KT 10SM CLR 18/08 A3015 420 50 900 300/11 RMK AO2
14840KMKG MKG20060612144009206/12/06 14:40:31  5-MIN KMKG 121940Z 30011KT 10SM CLR 18/08 A3015 420 50 900 300/11 RMK AO2
14840KMKG MKG20060612144509506/12/06 14:45:31  5-MIN KMKG 121945Z 30012KT 10SM FEW045 18/08 A3015 420 50 900 300/12 RMK AO2
14840KMKG MKG20060612145011206/12/06 14:50:31  5-MIN KMKG 121950Z 31011KT 10SM FEW045 18/08 A3015 420 50 900 310/11 RMK AO2 SLP211 T01830078
14840KMKG MKG20060612145511306/12/06 14:55:31  5-MIN KMKG 121955Z 30012KT 10SM FEW045 19/08 A3015 420 48 1000 300/12 RMK AO2 SLP211 T01890078
14840KMKG MKG20060612150009206/12/06 15:00:31  5-MIN KMKG 122000Z 30014KT 10SM CLR 18/07 A3015 420 48 900 300/14 RMK AO2
14840KMKG MKG20060612150509206/12/06 15:05:31  5-MIN KMKG 122005Z 30011KT 10SM CLR 18/07 A3015 420 48 900 310/11 RMK AO2
14840KMKG MKG20060612151009206/12/06 15:10:31  5-MIN KMKG 122010Z 30011KT 10SM CLR 18/08 A3015 410 50 900 310/11 RMK AO2
14840KMKG MKG20060612151509206/12/06 15:15:31  5-MIN KMKG 122015Z 31010KT 10SM CLR 18/08 A3015 410 50 900 320/10 RMK AO2
14840KMKG MKG20060612152010206/12/06 15:20:31  5-MIN KMKG 122020Z 32012G18KT 10SM FEW045 19/08 A3015 420 48 1000 330/12G18 RMK AO2
14840KMKG MKG20060612152510206/12/06 15:25:31  5-MIN KMKG 122025Z 32012G19KT 10SM FEW045 19/07 A3015 420 46 1000 330/12G19 RMK AO2
14840KMKG MKG20060612153010206/12/06 15:30:31  5-MIN KMKG 122030Z 33015G19KT 10SM FEW045 19/07 A3015 420 44 1100 330/15G19 RMK AO2
14840KMKG MKG20060612161009306/12/06 16:10:31  5-MIN KMKG 122110Z 32012KT 10SM CLR 19/07 A3015 420 43 1100 330/12 RMK AO2
14840KMKG MKG20060612161509306/12/06 16:15:31  5-MIN KMKG 122115Z 32011KT 10SM CLR 19/07 A3015 420 43 1100 320/11 RMK AO2
14840KMKG MKG20060612162009306/12/06 16:20:31  5-MIN KMKG 122120Z 33008KT 10SM CLR 20/07 A3014 420 43 1100 330/08 RMK AO2
14840KMKG MKG20060612162509306/12/06 16:25:31  5-MIN KMKG 122125Z 31010KT 10SM CLR 19/07 A3014 430 43 1100 320/10 RMK AO2
14840KMKG MKG20060612163009306/12/06 16:30:31  5-MIN KMKG 122130Z 29009KT 10SM CLR 19/07 A3014 430 44 1100 290/09 RMK AO2
14840KMKG MKG20060612163509306/12/06 16:35:31  5-MIN KMKG 122135Z 30010KT 10SM CLR 19/07 A3014 430 44 1100 300/10 RMK AO2
14840KMKG MKG20060612164009306/12/06 16:40:31  5-MIN KMKG 122140Z 32008KT 10SM CLR 19/07 A3014 430 44 1100 320/08 RMK AO2
14840KMKG MKG20060612164509306/12/06 16:45:31  5-MIN KMKG 122145Z 30008KT 10SM CLR 20/07 A3014 430 43 1200 300/08 RMK AO2
14840KMKG MKG20060612165011006/12/06 16:50:31  5-MIN KMKG 122150Z 33008KT 10SM CLR 19/08 A3014 430 46 1100 340/08 RMK AO2 SLP207 T01940078
14840KMKG MKG20060612165511306/12/06 16:55:31  5-MIN KMKG 122155Z 31008KT 10SM FEW050 20/08 A3014 430 45 1200 310/08 RMK AO2 SLP207 T02000078
14840KMKG MKG20060612170009306/12/06 17:00:31  5-MIN KMKG 122200Z 31008KT 10SM CLR 19/07 A3014 430 44 1100 320/08 RMK AO2
14840KMKG MKG20060612170509306/12/06 17:05:31  5-MIN KMKG 122205Z 33007KT 10SM CLR 20/08 A3014 430 45 1200 330/07 RMK AO2
14840KMKG MKG20060612171009306/12/06 17:10:31  5-MIN KMKG 122210Z 30007KT 10SM CLR 20/07 A3014 430 43 1200 300/07 RMK AO2
14840KMKG MKG20060612171509306/12/06 17:15:31  5-MIN KMKG 122215Z 32007KT 10SM CLR 20/08 A3014 430 45 1100 320/07 RMK AO2
14840KMKG MKG20060612172009306/12/06 17:20:31  5-MIN KMKG 122220Z 30008KT 10SM CLR 20/07 A3014 430 43 1100 310/08 RMK AO2
14840KMKG MKG20060612172509306/12/06 17:25:31  5-MIN KMKG 122225Z 32008KT 10SM CLR 20/07 A3014 420 43 1100 320/08 RMK AO2
14840KMKG MKG20060612173009306/12/06 17:30:31  5-MIN KMKG 122230Z 29009KT 10SM CLR 20/07 A3014 430 43 1100 290/09 RMK AO2
14840KMKG MKG20060612173509306/12/06 17:35:31  5-MIN KMKG 122235Z 29008KT 10SM CLR 20/07 A3014 430 43 1100 290/08 RMK AO2
14840KMKG MKG20060612174009606/12/06 17:40:31  5-MIN KMKG 122240Z 29010KT 10SM FEW050 19/07 A3014 430 44 1100 300/10 RMK AO2
14840KMKG MKG20060612174509606/12/06 17:45:31  5-MIN KMKG 122245Z 30009KT 10SM FEW050 19/07 A3014 430 44 1100 300/09 RMK AO2
14840KMKG MKG20060612175011306/12/06 17:50:31  5-MIN KMKG 122250Z 29009KT 10SM FEW050 19/07 A3014 430 44 1000 300/09 RMK AO2 SLP208 T01890067
14840KMKG MKG20060612175511306/12/06 17:55:31  5-MIN KMKG 122255Z 30009KT 10SM FEW050 19/07 A3014 430 44 1000 300/09 RMK AO2 SLP208 T01890067
14840KMKG MKG20060612180009306/12/06 18:00:31  5-MIN KMKG 122300Z 30008KT 10SM CLR 19/07 A3014 430 44 1000 300/08 RMK AO2
14840KMKG MKG20060612180509306/12/06 18:05:31  5-MIN KMKG 122305Z 31008KT 10SM CLR 19/07 A3014 430 44 1000 310/08 RMK AO2
14840KMKG MKG20060612181009306/12/06 18:10:31  5-MIN KMKG 122310Z 30008KT 10SM CLR 18/07 A3014 430 46 1000 310/08 RMK AO2
14840KMKG MKG20060612181509306/12/06 18:15:31  5-MIN KMKG 122315Z 30007KT 10SM CLR 19/07 A3014 430 46 1000 300/07 RMK AO2
14840KMKG MKG20060612182009306/12/06 18:20:31  5-MIN KMKG 122320Z 30008KT 10SM CLR 18/07 A3014 430 48 1000 300/08 RMK AO2
14840KMKG MKG20060612182509306/12/06 18:25:31  5-MIN KMKG 122325Z 30008KT 10SM CLR 18/07 A3013 430 48 1000 300/08 RMK AO2
14840KMKG MKG20060612183009306/12/06 18:30:31  5-MIN KMKG 122330Z 29009KT 10SM CLR 18/07 A3013 430 48 1000 300/09 RMK AO2
14840KMKG MKG20060612183509306/12/06 18:35:31  5-MIN KMKG 122335Z 31007KT 10SM CLR 18/07 A3013 430 48 1000 310/07 RMK AO2
14840KMKG MKG20060612184009306/12/06 18:40:31  5-MIN KMKG 122340Z 31006KT 10SM CLR 18/07 A3014 430 48 1000 320/06 RMK AO2
14840KMKG MKG20060612184509306/12/06 18:45:31  5-MIN KMKG 122345Z 31005KT 10SM CLR 18/08 A3013 430 50 1000 310/05 RMK AO2
14840KMKG MKG20060612185012806/12/06 18:50:31  5-MIN KMKG 122350Z 32006KT 10SM CLR 18/08 A3013 430 50 1000 320/06 RMK AO2 SLP204 T01830078 10200 20183 50004
14840KMKG MKG20060612185512806/12/06 18:55:31  5-MIN KMKG 122355Z 31007KT 10SM CLR 18/08 A3013 430 50 1000 320/07 RMK AO2 SLP204 T01830078 10200 20183 56006
14840KMKG MKG20060612190009306/12/06 19:00:31  5-MIN KMKG 130000Z 32008KT 10SM CLR 18/08 A3013 430 52 1000 320/08 RMK AO2
14840KMKG MKG20060612190509306/12/06 19:05:31  5-MIN KMKG 130005Z 32008KT 10SM CLR 18/08 A3013 440 52 1000 320/08 RMK AO2
14840KMKG MKG20060612191009306/12/06 19:10:31  5-MIN KMKG 130010Z 31007KT 10SM CLR 18/08 A3013 430 52 1000 310/07 RMK AO2
14840KMKG MKG20060612191509306/12/06 19:15:31  5-MIN KMKG 130015Z 31007KT 10SM CLR 18/09 A3013 430 54 1000 320/07 RMK AO2
14840KMKG MKG20060612192009306/12/06 19:20:31  5-MIN KMKG 130020Z 33007KT 10SM CLR 18/08 A3014 430 52 1000 330/07 RMK AO2
14840KMKG MKG20060612192509306/12/06 19:25:31  5-MIN KMKG 130025Z 31006KT 10SM CLR 18/09 A3014 430 54 1000 310/06 RMK AO2
14840KMKG MKG20060612193009206/12/06 19:30:31  5-MIN KMKG 130030Z 32007KT 10SM CLR 18/08 A3013 430 53 900 320/07 RMK AO2
14840KMKG MKG20060612193509206/12/06 19:35:31  5-MIN KMKG 130035Z 30007KT 10SM CLR 18/08 A3013 430 53 900 310/07 RMK AO2
14840KMKG MKG20060612194009206/12/06 19:40:31  5-MIN KMKG 130040Z 30007KT 10SM CLR 17/08 A3013 430 55 800 300/07 RMK AO2
14840KMKG MKG20060612194509206/12/06 19:45:31  5-MIN KMKG 130045Z 29007KT 10SM CLR 17/08 A3014 430 55 800 290/07 RMK AO2
14840KMKG MKG20060612195010906/12/06 19:50:31  5-MIN KMKG 130050Z 30006KT 10SM CLR 17/08 A3014 430 55 800 310/06 RMK AO2 SLP205 T01670078
14840KMKG MKG20060612195510906/12/06 19:55:31  5-MIN KMKG 130055Z 30007KT 10SM CLR 17/08 A3014 430 55 800 300/07 RMK AO2 SLP205 T01670078
14840KMKG MKG20060612200009206/12/06 20:00:31  5-MIN KMKG 130100Z 31006KT 10SM CLR 16/08 A3014 430 57 700 310/06 RMK AO2
14840KMKG MKG20060612200509206/12/06 20:05:31  5-MIN KMKG 130105Z 31005KT 10SM CLR 16/08 A3014 430 57 700 310/05 RMK AO2
14840KMKG MKG20060612201009206/12/06 20:10:31  5-MIN KMKG 130110Z 30005KT 10SM CLR 16/08 A3014 430 57 700 310/05 RMK AO2
14840KMKG MKG20060612201509206/12/06 20:15:31  5-MIN KMKG 130115Z 31006KT 10SM CLR 16/08 A3014 430 62 600 310/06 RMK AO2
14840KMKG MKG20060612202009206/12/06 20:20:31  5-MIN KMKG 130120Z 31006KT 10SM CLR 16/08 A3014 430 62 600 310/06 RMK AO2
14840KMKG MKG20060612202509206/12/06 20:25:31  5-MIN KMKG 130125Z 32005KT 10SM CLR 16/08 A3014 430 62 600 320/05 RMK AO2
14840KMKG MKG20060612203009206/12/06 20:30:31  5-MIN KMKG 130130Z 32006KT 10SM CLR 16/09 A3014 430 64 600 330/06 RMK AO2
14840KMKG MKG20060612203509206/12/06 20:35:31  5-MIN KMKG 130135Z 32005KT 10SM CLR 16/09 A3014 430 64 600 320/05 RMK AO2
14840KMKG MKG20060612204009206/12/06 20:40:31  5-MIN KMKG 130140Z 32006KT 10SM CLR 15/09 A3014 430 66 600 330/06 RMK AO2
14840KMKG MKG20060612204509206/12/06 20:45:31  5-MIN KMKG 130145Z 32006KT 10SM CLR 15/09 A3014 430 66 600 320/06 RMK AO2
14840KMKG MKG20060612205010906/12/06 20:50:31  5-MIN KMKG 130150Z 32008KT 10SM CLR 15/09 A3014 420 66 600 330/08 RMK AO2 SLP207 T01500089
14840KMKG MKG20060612205510906/12/06 20:55:31  5-MIN KMKG 130155Z 33008KT 10SM CLR 15/09 A3015 420 66 600 330/08 RMK AO2 SLP208 T01500089
14840KMKG MKG20060612210009206/12/06 21:00:31  5-MIN KMKG 130200Z 32008KT 10SM CLR 15/09 A3015 420 66 600 330/08 RMK AO2
14840KMKG MKG20060612210509206/12/06 21:05:31  5-MIN KMKG 130205Z 33008KT 10SM CLR 15/09 A3015 420 66 600 340/08 RMK AO2
14840KMKG MKG20060612211009206/12/06 21:10:31  5-MIN KMKG 130210Z 33008KT 10SM CLR 14/08 A3015 420 66 500 330/08 RMK AO2
14840KMKG MKG20060612211509206/12/06 21:15:31  5-MIN KMKG 130215Z 35008KT 10SM CLR 14/08 A3015 420 66 500 350/08 RMK AO2
14840KMKG MKG20060612212009206/12/06 21:20:31  5-MIN KMKG 130220Z 34007KT 10SM CLR 14/08 A3015 420 66 500 340/07 RMK AO2
14840KMKG MKG20060612212509206/12/06 21:25:31  5-MIN KMKG 130225Z 33006KT 10SM CLR 14/08 A3015 420 66 500 330/06 RMK AO2
14840KMKG MKG20060612213009206/12/06 21:30:31  5-MIN KMKG 130230Z 33007KT 10SM CLR 14/08 A3015 420 69 400 330/07 RMK AO2
14840KMKG MKG20060612213509206/12/06 21:35:31  5-MIN KMKG 130235Z 34005KT 10SM CLR 14/08 A3015 420 69 400 350/05 RMK AO2
14840KMKG MKG20060612214009206/12/06 21:40:31  5-MIN KMKG 130240Z 35005KT 10SM CLR 14/08 A3015 420 69 400 360/05 RMK AO2
14840KMKG MKG20060612214509206/12/06 21:45:31  5-MIN KMKG 130245Z 01006KT 10SM CLR 14/08 A3015 420 69 400 010/06 RMK AO2
14840KMKG MKG20060612215011506/12/06 21:50:31  5-MIN KMKG 130250Z 01006KT 10SM CLR 14/08 A3015 420 69 400 010/06 RMK AO2 SLP208 T01390083 56006
14840KMKG MKG20060612215511506/12/06 21:55:31  5-MIN KMKG 130255Z 01005KT 10SM CLR 14/08 A3014 420 69 400 020/05 RMK AO2 SLP207 T01390083 50003
14840KMKG MKG20060612220009206/12/06 22:00:31  5-MIN KMKG 130300Z 02007KT 10SM CLR 14/08 A3014 430 66 400 020/07 RMK AO2
14840KMKG MKG20060612220509206/12/06 22:05:31  5-MIN KMKG 130305Z 01006KT 10SM CLR 14/08 A3014 430 66 400 020/06 RMK AO2
14840KMKG MKG20060612221009206/12/06 22:10:31  5-MIN KMKG 130310Z 01006KT 10SM CLR 13/07 A3014 420 66 400 010/06 RMK AO2
14840KMKG MKG20060612221509206/12/06 22:15:31  5-MIN KMKG 130315Z 02007KT 10SM CLR 13/07 A3014 430 66 400 020/07 RMK AO2
14840KMKG MKG20060612222009206/12/06 22:20:31  5-MIN KMKG 130320Z 01005KT 10SM CLR 13/07 A3014 430 66 400 010/05 RMK AO2
14840KMKG MKG20060612222509206/12/06 22:25:31  5-MIN KMKG 130325Z 01005KT 10SM CLR 13/08 A3014 430 69 400 020/05 RMK AO2
14840KMKG MKG20060612223009206/12/06 22:30:31  5-MIN KMKG 130330Z 01005KT 10SM CLR 13/08 A3014 430 69 400 010/05 RMK AO2
14840KMKG MKG20060612223509206/12/06 22:35:31  5-MIN KMKG 130335Z 01006KT 10SM CLR 13/07 A3014 430 66 400 010/06 RMK AO2
14840KMKG MKG20060612224009206/12/06 22:40:31  5-MIN KMKG 130340Z 01005KT 10SM CLR 13/07 A3014 430 69 300 010/05 RMK AO2
14840KMKG MKG20060612224509206/12/06 22:45:31  5-MIN KMKG 130345Z 01005KT 10SM CLR 13/08 A3014 430 71 300 010/05 RMK AO2
14840KMKG MKG20060612225010906/12/06 22:50:31  5-MIN KMKG 130350Z 01005KT 10SM CLR 13/08 A3014 430 71 300 010/05 RMK AO2 SLP206 T01280078
14840KMKG MKG20060612225510906/12/06 22:55:31  5-MIN KMKG 130355Z 02005KT 10SM CLR 13/08 A3014 430 71 300 020/05 RMK AO2 SLP206 T01280078
14840KMKG MKG20060612230009206/12/06 23:00:31  5-MIN KMKG 130400Z 01006KT 10SM CLR 13/08 A3014 430 71 300 020/06 RMK AO2
14840KMKG MKG20060612230509206/12/06 23:05:31  5-MIN KMKG 130405Z 02005KT 10SM CLR 13/08 A3014 430 71 300 020/05 RMK AO2
14840KMKG MKG20060612231009206/12/06 23:10:31  5-MIN KMKG 130410Z 02005KT 10SM CLR 13/08 A3014 430 71 300 020/05 RMK AO2
14840KMKG MKG20060612231509206/12/06 23:15:31  5-MIN KMKG 130415Z 02004KT 10SM CLR 13/08 A3014 430 71 300 020/04 RMK AO2
14840KMKG MKG20060612232009206/12/06 23:20:31  5-MIN KMKG 130420Z 36003KT 10SM CLR 13/08 A3014 430 71 300 360/03 RMK AO2
14840KMKG MKG20060612232509206/12/06 23:25:31  5-MIN KMKG 130425Z 02004KT 10SM CLR 12/08 A3014 430 74 200 020/04 RMK AO2
14840KMKG MKG20060612233009206/12/06 23:30:31  5-MIN KMKG 130430Z 01004KT 10SM CLR 12/08 A3014 430 74 200 010/04 RMK AO2
14840KMKG MKG20060612233509206/12/06 23:35:31  5-MIN KMKG 130435Z 01003KT 10SM CLR 12/08 A3014 430 74 200 010/03 RMK AO2
14840KMKG MKG20060612234009206/12/06 23:40:31  5-MIN KMKG 130440Z 00000KT 10SM CLR 12/08 A3014 430 74 200 000/00 RMK AO2
14840KMKG MKG20060612234509206/12/06 23:45:31  5-MIN KMKG 130445Z 02004KT 10SM CLR 12/08 A3014 430 74 200 020/04 RMK AO2
14840KMKG MKG20060612235011906/12/06 23:50:31  5-MIN KMKG 130450Z 02004KT 10SM CLR 12/08 A3014 430 74 200 020/04 RMK AO2 SLP206 T01220078 402000083
14840KMKG MKG20060612235511906/12/06 23:55:31  5-MIN KMKG 130455Z 02003KT 10SM CLR 12/08 A3014 430 74 200 030/03 RMK AO2 SLP207 T01220078 402000083
14840KMKG MKG20060613000009206/13/06 00:00:32  5-MIN KMKG 130500Z 02003KT 10SM CLR 12/08 A3014 430 74 200 030/03 RMK AO2
14840KMKG MKG20060613000509206/13/06 00:05:31  5-MIN KMKG 130505Z 04003KT 10SM CLR 12/08 A3014 430 74 200 040/03 RMK AO2
14840KMKG MKG20060613001009206/13/06 00:10:31  5-MIN KMKG 130510Z 03004KT 10SM CLR 12/08 A3013 430 74 200 040/04 RMK AO2
14840KMKG MKG20060613001509206/13/06 00:15:31  5-MIN KMKG 130515Z 03004KT 10SM CLR 12/08 A3013 430 74 200 040/04 RMK AO2
14840KMKG MKG20060613002009206/13/06 00:20:31  5-MIN KMKG 130520Z 03003KT 10SM CLR 12/08 A3013 430 74 200 040/03 RMK AO2
14840KMKG MKG20060613002509206/13/06 00:25:31  5-MIN KMKG 130525Z 03006KT 10SM CLR 12/08 A3014 430 74 200 040/06 RMK AO2
14840KMKG MKG20060613003009206/13/06 00:30:31  5-MIN KMKG 130530Z 05004KT 10SM CLR 12/08 A3013 430 77 200 050/04 RMK AO2
14840KMKG MKG20060613003509206/13/06 00:35:31  5-MIN KMKG 130535Z 05004KT 10SM CLR 12/08 A3013 430 77 200 050/04 RMK AO2
14840KMKG MKG20060613004009206/13/06 00:40:31  5-MIN KMKG 130540Z 05005KT 10SM CLR 12/08 A3013 430 77 200 050/05 RMK AO2
14840KMKG MKG20060613004509206/13/06 00:45:31  5-MIN KMKG 130545Z 05006KT 10SM CLR 12/08 A3013 440 77 200 060/06 RMK AO2
14840KMKG MKG20060613005012706/13/06 00:50:31  5-MIN KMKG 130550Z 06005KT 10SM CLR 12/08 A3013 440 80 200 070/05 RMK AO2 SLP203 T01170083 10183 20117 50003
14840KMKG MKG20060613005512706/13/06 00:55:31  5-MIN KMKG 130555Z 06007KT 10SM CLR 12/08 A3013 430 80 200 060/07 RMK AO2 SLP203 T01170083 10183 20117 58004
14840KMKG MKG20060613010009206/13/06 01:00:31  5-MIN KMKG 130600Z 06006KT 10SM CLR 12/08 A3013 440 80 200 060/06 RMK AO2
14840KMKG MKG20060613010509206/13/06 01:05:31  5-MIN KMKG 130605Z 06005KT 10SM CLR 12/08 A3013 440 80 200 060/05 RMK AO2
14840KMKG MKG20060613011009206/13/06 01:10:31  5-MIN KMKG 130610Z 06005KT 10SM CLR 12/08 A3013 440 80 200 070/05 RMK AO2
14840KMKG MKG20060613011509206/13/06 01:15:31  5-MIN KMKG 130615Z 07004KT 10SM CLR 11/08 A3013 440 83 100 080/04 RMK AO2
14840KMKG MKG20060613012009206/13/06 01:20:31  5-MIN KMKG 130620Z 07005KT 10SM CLR 11/08 A3013 440 80 100 080/05 RMK AO2
14840KMKG MKG20060613012509206/13/06 01:25:31  5-MIN KMKG 130625Z 08003KT 10SM CLR 11/08 A3013 440 80 100 080/03 RMK AO2
14840KMKG MKG20060613013009006/13/06 01:30:31  5-MIN KMKG 130630Z 07003KT 10SM CLR 11/08 A3013 440 83 0 070/03 RMK AO2
14840KMKG MKG20060613013509006/13/06 01:35:31  5-MIN KMKG 130635Z 06003KT 10SM CLR 11/08 A3013 440 83 0 070/03 RMK AO2
14840KMKG MKG20060613014009006/13/06 01:40:31  5-MIN KMKG 130640Z 07003KT 10SM CLR 11/08 A3013 440 83 0 070/03 RMK AO2
14840KMKG MKG20060613014509006/13/06 01:45:31  5-MIN KMKG 130645Z 07004KT 10SM CLR 11/08 A3013 440 83 0 070/04 RMK AO2
14840KMKG MKG20060613015010706/13/06 01:50:31  5-MIN KMKG 130650Z 07003KT 10SM CLR 11/08 A3013 440 86 0 070/03 RMK AO2 SLP203 T01060083
14840KMKG MKG20060613015510706/13/06 01:55:31  5-MIN KMKG 130655Z 07003KT 10SM CLR 11/08 A3013 440 86 0 070/03 RMK AO2 SLP203 T01060083
14840KMKG MKG20060613020009006/13/06 02:00:31  5-MIN KMKG 130700Z 06003KT 10SM CLR 11/08 A3013 440 86 0 070/03 RMK AO2
14840KMKG MKG20060613020509006/13/06 02:05:31  5-MIN KMKG 130705Z 06004KT 10SM CLR 11/08 A3013 440 83 0 060/04 RMK AO2
14840KMKG MKG20060613021009006/13/06 02:10:31  5-MIN KMKG 130710Z 07004KT 10SM CLR 11/08 A3013 440 86 0 070/04 RMK AO2
14840KMKG MKG20060613021509006/13/06 02:15:31  5-MIN KMKG 130715Z 07004KT 10SM CLR 11/08 A3013 440 86 0 070/04 RMK AO2
14840KMKG MKG20060613022009006/13/06 02:20:31  5-MIN KMKG 130720Z 06004KT 10SM CLR 11/08 A3013 440 86 0 070/04 RMK AO2
14840KMKG MKG20060613022509006/13/06 02:25:31  5-MIN KMKG 130725Z 07004KT 10SM CLR 11/08 A3013 440 86 0 070/04 RMK AO2
14840KMKG MKG20060613023009206/13/06 02:30:31  5-MIN KMKG 130730Z 07005KT 10SM CLR 11/08 A3013 440 86 100 080/05 RMK AO2
14840KMKG MKG20060613023509206/13/06 02:35:31  5-MIN KMKG 130735Z 07005KT 10SM CLR 11/08 A3013 440 86 100 080/05 RMK AO2
14840KMKG MKG20060613024009206/13/06 02:40:31  5-MIN KMKG 130740Z 07004KT 10SM CLR 11/08 A3013 440 86 100 080/04 RMK AO2
14840KMKG MKG20060613024509206/13/06 02:45:31  5-MIN KMKG 130745Z 08003KT 10SM CLR 11/08 A3013 440 86 100 080/03 RMK AO2
14840KMKG MKG20060613025010706/13/06 02:50:31  5-MIN KMKG 130750Z 00000KT 10SM CLR 11/08 A3013 430 86 0 000/00 RMK AO2 SLP205 T01060083
14840KMKG MKG20060613025510706/13/06 02:55:31  5-MIN KMKG 130755Z 00000KT 10SM CLR 11/08 A3013 430 86 0 000/00 RMK AO2 SLP204 T01060083
14840KMKG MKG20060613030009006/13/06 03:00:31  5-MIN KMKG 130800Z 00000KT 10SM CLR 11/08 A3013 430 86 0 000/00 RMK AO2
14840KMKG MKG20060613030509006/13/06 03:05:31  5-MIN KMKG 130805Z 00000KT 10SM CLR 11/08 A3013 430 86 0 000/00 RMK AO2
14840KMKG MKG20060613031009006/13/06 03:10:31  5-MIN KMKG 130810Z 00000KT 10SM CLR 11/08 A3013 440 86 0 000/00 RMK AO2
14840KMKG MKG20060613031509006/13/06 03:15:31  5-MIN KMKG 130815Z 00000KT 10SM CLR 11/08 A3013 440 86 0 000/00 RMK AO2
14840KMKG MKG20060613032009006/13/06 03:20:31  5-MIN KMKG 130820Z 00000KT 10SM CLR 11/08 A3013 430 86 0 000/00 RMK AO2
14840KMKG MKG20060613032509006/13/06 03:25:31  5-MIN KMKG 130825Z 00000KT 10SM CLR 11/08 A3013 430 86 0 000/00 RMK AO2
14840KMKG MKG20060613033009006/13/06 03:30:31  5-MIN KMKG 130830Z 00000KT 10SM CLR 11/08 A3013 430 86 0 000/00 RMK AO2
14840KMKG MKG20060613033509006/13/06 03:35:31  5-MIN KMKG 130835Z 00000KT 10SM CLR 11/08 A3014 430 86 0 000/00 RMK AO2
14840KMKG MKG20060613034009006/13/06 03:40:31  5-MIN KMKG 130840Z 00000KT 10SM CLR 11/08 A3013 430 86 0 000/00 RMK AO2
14840KMKG MKG20060613034509006/13/06 03:45:31  5-MIN KMKG 130845Z 00000KT 10SM CLR 11/08 A3013 430 86 0 000/00 RMK AO2
14840KMKG MKG20060613035011306/13/06 03:50:31  5-MIN KMKG 130850Z 00000KT 10SM CLR 11/08 A3014 430 86 0 000/00 RMK AO2 SLP205 T01060083 58004
14840KMKG MKG20060613035511306/13/06 03:55:31  5-MIN KMKG 130855Z 00000KT 10SM CLR 11/09 A3014 430 89 0 000/00 RMK AO2 SLP205 T01060089 53002
14840KMKG MKG20060613040009006/13/06 04:00:31  5-MIN KMKG 130900Z 00000KT 10SM CLR 11/09 A3014 430 89 0 000/00 RMK AO2
14840KMKG MKG20060613040509006/13/06 04:05:31  5-MIN KMKG 130905Z 00000KT 10SM CLR 11/08 A3014 430 86 0 000/00 RMK AO2
14840KMKG MKG20060613041009006/13/06 04:10:31  5-MIN KMKG 130910Z 00000KT 10SM CLR 10/08 A3014 430 89 0 000/00 RMK AO2
14840KMKG MKG20060613041509006/13/06 04:15:31  5-MIN KMKG 130915Z 00000KT 10SM CLR 11/08 A3014 430 86 0 000/00 RMK AO2
14840KMKG MKG20060613042009006/13/06 04:20:31  5-MIN KMKG 130920Z 05003KT 10SM CLR 11/09 A3014 430 89 0 060/03 RMK AO2
14840KMKG MKG20060613042509006/13/06 04:25:31  5-MIN KMKG 130925Z 00000KT 10SM CLR 10/09 A3014 420 93 0 000/00 RMK AO2
14840KMKG MKG20060613043009006/13/06 04:30:31  5-MIN KMKG 130930Z 00000KT 10SM CLR 10/08 A3014 430 89 0 000/00 RMK AO2
14840KMKG MKG20060613043509006/13/06 04:35:31  5-MIN KMKG 130935Z 00000KT 10SM CLR 10/08 A3014 430 89 0 000/00 RMK AO2
14840KMKG MKG20060613044009006/13/06 04:40:31  5-MIN KMKG 130940Z 07003KT 10SM CLR 10/08 A3014 430 89 0 080/03 RMK AO2
14840KMKG MKG20060613044509006/13/06 04:45:31  5-MIN KMKG 130945Z 07003KT 10SM CLR 10/08 A3014 420 89 0 070/03 RMK AO2
14840KMKG MKG20060613045010706/13/06 04:50:31  5-MIN KMKG 130950Z 00000KT 10SM CLR 10/08 A3015 420 89 0 000/00 RMK AO2 SLP209 T01000083
14840KMKG MKG20060613045510706/13/06 04:55:31  5-MIN KMKG 130955Z 06003KT 10SM CLR 10/08 A3015 420 89 0 070/03 RMK AO2 SLP209 T01000083
14840KMKG MKG20060613050009006/13/06 05:00:31  5-MIN KMKG 131000Z 00000KT 10SM CLR 10/08 A3015 420 89 0 000/00 RMK AO2
14840KMKG MKG20060613050509006/13/06 05:05:31  5-MIN KMKG 131005Z 00000KT 10SM CLR 10/08 A3015 420 89 0 000/00 RMK AO2
14840KMKG MKG20060613051009006/13/06 05:10:31  5-MIN KMKG 131010Z 00000KT 10SM CLR 10/08 A3015 420 89 0 000/00 RMK AO2
14840KMKG MKG20060613051509006/13/06 05:15:31  5-MIN KMKG 131015Z 00000KT 10SM CLR 10/09 A3015 420 93 0 000/00 RMK AO2
14840KMKG MKG20060613052009006/13/06 05:20:31  5-MIN KMKG 131020Z 00000KT 10SM CLR 10/09 A3015 420 93 0 000/00 RMK AO2
14840KMKG MKG20060613052509006/13/06 05:25:31  5-MIN KMKG 131025Z 07003KT 10SM CLR 10/09 A3015 420 93 0 070/03 RMK AO2
14840KMKG MKG20060613053009006/13/06 05:30:31  5-MIN KMKG 131030Z 07003KT 10SM CLR 10/09 A3015 420 93 0 070/03 RMK AO2
14840KMKG MKG20060613053509006/13/06 05:35:31  5-MIN KMKG 131035Z 00000KT 10SM CLR 10/09 A3015 420 93 0 000/00 RMK AO2
14840KMKG MKG20060613054009006/13/06 05:40:31  5-MIN KMKG 131040Z 00000KT 10SM CLR 10/09 A3015 420 93 0 000/00 RMK AO2
14840KMKG MKG20060613054509006/13/06 05:45:31  5-MIN KMKG 131045Z 08003KT 10SM CLR 10/09 A3015 420 93 0 080/03 RMK AO2
14840KMKG MKG20060613055010706/13/06 05:50:31  5-MIN KMKG 131050Z 08003KT 10SM CLR 11/09 A3015 420 89 0 080/03 RMK AO2 SLP209 T01060089
14840KMKG MKG20060613055510706/13/06 05:55:31  5-MIN KMKG 131055Z 08003KT 10SM CLR 11/09 A3015 420 93 0 080/03 RMK AO2 SLP210 T01060094
14840KMKG MKG20060613060009006/13/06 06:00:31  5-MIN KMKG 131100Z 08004KT 10SM CLR 11/09 A3015 420 93 0 090/04 RMK AO2
14840KMKG MKG20060613060509206/13/06 06:05:31  5-MIN KMKG 131105Z 08003KT 10SM CLR 11/09 A3015 420 89 100 080/03 RMK AO2
14840KMKG MKG20060613061009206/13/06 06:10:31  5-MIN KMKG 131110Z 07003KT 10SM CLR 11/09 A3015 410 89 100 070/03 RMK AO2
14840KMKG MKG20060613061509206/13/06 06:15:31  5-MIN KMKG 131115Z 08003KT 10SM CLR 12/10 A3015 410 89 200 080/03 RMK AO2
14840KMKG MKG20060613062009206/13/06 06:20:31  5-MIN KMKG 131120Z 07003KT 10SM CLR 12/10 A3016 410 86 200 070/03 RMK AO2
14840KMKG MKG20060613062509206/13/06 06:25:31  5-MIN KMKG 131125Z 07004KT 10SM CLR 12/10 A3016 410 86 200 070/04 RMK AO2
14840KMKG MKG20060613063009206/13/06 06:30:31  5-MIN KMKG 131130Z 07003KT 10SM CLR 12/10 A3016 410 86 200 070/03 RMK AO2
14840KMKG MKG20060613063509206/13/06 06:35:31  5-MIN KMKG 131135Z 06003KT 10SM CLR 13/10 A3016 410 83 300 060/03 RMK AO2
14840KMKG MKG20060613064009206/13/06 06:40:31  5-MIN KMKG 131140Z 07004KT 10SM CLR 13/10 A3016 410 83 300 080/04 RMK AO2
14840KMKG MKG20060613064509206/13/06 06:45:31  5-MIN KMKG 131145Z 07004KT 10SM CLR 13/10 A3016 410 83 300 080/04 RMK AO2
14840KMKG MKG20060613065012706/13/06 06:50:31  5-MIN KMKG 131150Z 07003KT 10SM CLR 13/10 A3016 410 80 300 070/03 RMK AO2 SLP213 T01330100 10133 20094 53002
14840KMKG MKG20060613065512706/13/06 06:55:31  5-MIN KMKG 131155Z 09003KT 10SM CLR 13/11 A3016 410 83 300 090/03 RMK AO2 SLP212 T01330106 10133 20094 51007
14840KMKG MKG20060613070009206/13/06 07:00:31  5-MIN KMKG 131200Z 09004KT 10SM CLR 13/10 A3016 410 80 400 090/04 RMK AO2
14840KMKG MKG20060613070509206/13/06 07:05:31  5-MIN KMKG 131205Z 06003KT 10SM CLR 14/11 A3016 410 80 400 070/03 RMK AO2
14840KMKG MKG20060613071009206/13/06 07:10:31  5-MIN KMKG 131210Z 06003KT 10SM CLR 14/11 A3016 410 80 400 070/03 RMK AO2
14840KMKG MKG20060613071509206/13/06 07:15:31  5-MIN KMKG 131215Z VRB03KT 10SM CLR 14/11 A3016 410 80 400 VRB/03 RMK AO2
14840KMKG MKG20060613072009206/13/06 07:20:31  5-MIN KMKG 131220Z 00000KT 10SM CLR 14/11 A3016 410 77 500 000/00 RMK AO2
14840KMKG MKG20060613072509206/13/06 07:25:31  5-MIN KMKG 131225Z 00000KT 10SM CLR 14/11 A3016 410 77 500 000/00 RMK AO2
14840KMKG MKG20060613073009206/13/06 07:30:31  5-MIN KMKG 131230Z 00000KT 10SM CLR 15/11 A3016 410 74 500 000/00 RMK AO2
14840KMKG MKG20060613073509206/13/06 07:35:31  5-MIN KMKG 131235Z 00000KT 10SM CLR 15/11 A3016 410 74 500 000/00 RMK AO2
14840KMKG MKG20060613074009206/13/06 07:40:31  5-MIN KMKG 131240Z 00000KT 10SM CLR 16/11 A3016 410 72 600 000/00 RMK AO2
14840KMKG MKG20060613074509206/13/06 07:45:31  5-MIN KMKG 131245Z 00000KT 10SM CLR 16/11 A3016 410 72 600 000/00 RMK AO2
14840KMKG MKG20060613075010906/13/06 07:50:31  5-MIN KMKG 131250Z 00000KT 10SM CLR 16/11 A3016 410 72 700 000/00 RMK AO2 SLP212 T01610111
14840KMKG MKG20060613075510906/13/06 07:55:31  5-MIN KMKG 131255Z 00000KT 10SM CLR 16/11 A3016 410 72 600 000/00 RMK AO2 SLP212 T01560106
14840KMKG MKG20060613080009206/13/06 08:00:31  5-MIN KMKG 131300Z 00000KT 10SM CLR 16/11 A3016 410 72 600 000/00 RMK AO2
14840KMKG MKG20060613080509206/13/06 08:05:31  5-MIN KMKG 131305Z 34003KT 10SM CLR 16/11 A3016 410 72 700 340/03 RMK AO2
14840KMKG MKG20060613081009206/13/06 08:10:31  5-MIN KMKG 131310Z 00000KT 10SM CLR 17/11 A3016 410 69 700 000/00 RMK AO2
14840KMKG MKG20060613081509206/13/06 08:15:31  5-MIN KMKG 131315Z VRB03KT 10SM CLR 17/11 A3016 410 69 700 VRB/03 RMK AO2
14840KMKG MKG20060613082009206/13/06 08:20:31  5-MIN KMKG 131320Z 29004KT 10SM CLR 17/11 A3016 410 69 700 290/04 RMK AO2
14840KMKG MKG20060613082509206/13/06 08:25:31  5-MIN KMKG 131325Z 35003KT 10SM CLR 17/11 A3016 410 69 700 350/03 RMK AO2
14840KMKG MKG20060613083009206/13/06 08:30:31  5-MIN KMKG 131330Z VRB04KT 10SM CLR 17/11 A3016 410 69 700 VRB/04 RMK AO2
14840KMKG MKG20060613083509206/13/06 08:35:31  5-MIN KMKG 131335Z 00000KT 10SM CLR 17/11 A3016 410 67 800 000/00 RMK AO2
14840KMKG MKG20060613084009206/13/06 08:40:31  5-MIN KMKG 131340Z 01004KT 10SM CLR 17/11 A3016 410 67 800 020/04 RMK AO2
14840KMKG MKG20060613084509206/13/06 08:45:31  5-MIN KMKG 131345Z 33003KT 10SM CLR 18/12 A3016 410 67 900 330/03 RMK AO2
14840KMKG MKG20060613085010906/13/06 08:50:31  5-MIN KMKG 131350Z 29004KT 10SM CLR 17/12 A3016 410 69 800 300/04 RMK AO2 SLP213 T01720117
14840KMKG MKG20060613085510906/13/06 08:55:31  5-MIN KMKG 131355Z 00000KT 10SM CLR 17/12 A3016 410 69 800 000/00 RMK AO2 SLP212 T01720117
14840KMKG MKG20060613090009206/13/06 09:00:31  5-MIN KMKG 131400Z VRB04KT 10SM CLR 17/12 A3016 410 69 800 VRB/04 RMK AO2
14840KMKG MKG20060613090509206/13/06 09:05:31  5-MIN KMKG 131405Z 30004KT 10SM CLR 18/11 A3015 420 64 900 300/04 RMK AO2
14840KMKG MKG20060613091009206/13/06 09:10:31  5-MIN KMKG 131410Z VRB03KT 10SM CLR 18/12 A3015 410 67 900 VRB/03 RMK AO2
14840KMKG MKG20060613091509206/13/06 09:15:31  5-MIN KMKG 131415Z VRB04KT 10SM CLR 18/12 A3016 410 65 900 VRB/04 RMK AO2
14840KMKG MKG20060613092009206/13/06 09:20:31  5-MIN KMKG 131420Z VRB04KT 10SM CLR 18/11 A3015 410 62 900 VRB/04 RMK AO2
14840KMKG MKG20060613092509306/13/06 09:25:31  5-MIN KMKG 131425Z 33004KT 10SM CLR 19/11 A3015 420 60 1000 330/04 RMK AO2
14840KMKG MKG20060613093009306/13/06 09:30:31  5-MIN KMKG 131430Z VRB04KT 10SM CLR 19/12 A3015 420 62 1000 VRB/04 RMK AO2
14840KMKG MKG20060613093509206/13/06 09:35:31  5-MIN KMKG 131435Z VRB04KT 10SM CLR 18/11 A3015 420 62 900 VRB/04 RMK AO2
14840KMKG MKG20060613094009306/13/06 09:40:31  5-MIN KMKG 131440Z 00000KT 10SM CLR 18/11 A3015 420 62 1000 000/00 RMK AO2
14840KMKG MKG20060613094509306/13/06 09:45:31  5-MIN KMKG 131445Z 35005KT 10SM CLR 19/12 A3015 420 62 1000 350/05 RMK AO2
14840KMKG MKG20060613095011606/13/06 09:50:31  5-MIN KMKG 131450Z VRB03KT 10SM CLR 18/11 A3015 420 62 1000 VRB/03 RMK AO2 SLP208 T01830111 51007
14840KMKG MKG20060613095511906/13/06 09:55:31  5-MIN KMKG 131455Z VRB05KT 10SM FEW045 19/12 A3015 420 62 1000 VRB/05 RMK AO2 SLP208 T01890117 58004
14840KMKG MKG20060613100009306/13/06 10:00:31  5-MIN KMKG 131500Z VRB06KT 10SM CLR 19/12 A3015 420 62 1000 VRB/06 RMK AO2
14840KMKG MKG20060613100509306/13/06 10:05:31  5-MIN KMKG 131505Z VRB05KT 10SM CLR 19/12 A3015 420 60 1100 VRB/05 RMK AO2
14840KMKG MKG20060613101009306/13/06 10:10:31  5-MIN KMKG 131510Z VRB04KT 10SM CLR 20/12 A3015 420 60 1100 VRB/04 RMK AO2
14840KMKG MKG20060613101509306/13/06 10:15:31  5-MIN KMKG 131515Z 30005KT 10SM CLR 19/12 A3015 420 60 1100 300/05 RMK AO2
14840KMKG MKG20060613102009306/13/06 10:20:31  5-MIN KMKG 131520Z 31007KT 10SM CLR 19/12 A3014 420 60 1100 310/07 RMK AO2
14840KMKG MKG20060613102509306/13/06 10:25:31  5-MIN KMKG 131525Z VRB04KT 10SM CLR 20/12 A3014 430 58 1200 VRB/04 RMK AO2
14840KMKG MKG20060613103009306/13/06 10:30:31  5-MIN KMKG 131530Z 29005KT 10SM CLR 20/11 A3014 430 56 1200 290/05 RMK AO2
14840KMKG MKG20060613103509306/13/06 10:35:31  5-MIN KMKG 131535Z VRB04KT 10SM CLR 21/12 A3014 430 56 1200 VRB/04 RMK AO2
14840KMKG MKG20060613104009606/13/06 10:40:31  5-MIN KMKG 131540Z 26005KT 10SM FEW045 21/12 A3014 430 56 1200 270/05 RMK AO2
14840KMKG MKG20060613104509606/13/06 10:45:31  5-MIN KMKG 131545Z 26008KT 10SM FEW045 20/12 A3014 430 60 1100 270/08 RMK AO2
14840KMKG MKG20060613105011306/13/06 10:50:31  5-MIN KMKG 131550Z 27008KT 10SM FEW045 20/12 A3014 430 60 1100 270/08 RMK AO2 SLP207 T02000122
14840KMKG MKG20060613105511306/13/06 10:55:31  5-MIN KMKG 131555Z 30007KT 10SM SCT045 21/12 A3014 430 58 1200 300/07 RMK AO2 SLP207 T02060122
14840KMKG MKG20060613110009606/13/06 11:00:31  5-MIN KMKG 131600Z 29008KT 10SM SCT045 20/12 A3014 430 60 1100 300/08 RMK AO2
14840KMKG MKG20060613110509606/13/06 11:05:31  5-MIN KMKG 131605Z 27008KT 10SM SCT045 21/12 A3014 420 58 1200 270/08 RMK AO2
14840KMKG MKG20060613111009606/13/06 11:10:31  5-MIN KMKG 131610Z 31008KT 10SM SCT045 21/12 A3014 420 58 1200 310/08 RMK AO2
14840KMKG MKG20060613111509606/13/06 11:15:31  5-MIN KMKG 131615Z 30006KT 10SM SCT045 20/12 A3014 430 58 1200 310/06 RMK AO2
14840KMKG MKG20060613112009606/13/06 11:20:31  5-MIN KMKG 131620Z 29008KT 10SM SCT045 21/12 A3014 430 58 1200 300/08 RMK AO2
14840KMKG MKG20060613112509606/13/06 11:25:31  5-MIN KMKG 131625Z 31007KT 10SM SCT045 21/12 A3014 430 58 1200 310/07 RMK AO2
14840KMKG MKG20060613113009606/13/06 11:30:31  5-MIN KMKG 131630Z 31007KT 10SM SCT045 21/12 A3014 430 56 1200 310/07 RMK AO2
14840KMKG MKG20060613113509606/13/06 11:35:31  5-MIN KMKG 131635Z 29008KT 10SM SCT050 21/12 A3014 430 56 1200 290/08 RMK AO2
14840KMKG MKG20060613114009606/13/06 11:40:31  5-MIN KMKG 131640Z 31008KT 10SM SCT050 21/12 A3014 430 56 1300 310/08 RMK AO2
14840KMKG MKG20060613114509606/13/06 11:45:31  5-MIN KMKG 131645Z 29007KT 10SM SCT050 22/12 A3013 430 54 1300 300/07 RMK AO2
14840KMKG MKG20060613115011306/13/06 11:50:31  5-MIN KMKG 131650Z 28007KT 10SM SCT050 21/12 A3013 430 56 1300 290/07 RMK AO2 SLP204 T02110122
14840KMKG MKG20060613115511306/13/06 11:55:31  5-MIN KMKG 131655Z 28009KT 10SM SCT050 22/12 A3013 430 54 1400 290/09 RMK AO2 SLP202 T02170122
14840KMKG MKG20060613120009606/13/06 12:00:31  5-MIN KMKG 131700Z 27009KT 10SM SCT050 21/12 A3013 440 56 1300 270/09 RMK AO2
14840KMKG MKG20060613120509606/13/06 12:05:31  5-MIN KMKG 131705Z 28010KT 10SM SCT050 21/12 A3013 440 56 1300 290/10 RMK AO2
14840KMKG MKG20060613121009606/13/06 12:10:31  5-MIN KMKG 131710Z 28011KT 10SM SCT050 20/12 A3013 440 58 1200 280/11 RMK AO2
14840KMKG MKG20060613121509606/13/06 12:15:31  5-MIN KMKG 131715Z 30013KT 10SM SCT050 19/12 A3013 440 60 1100 300/13 RMK AO2
14840KMKG MKG20060613122009606/13/06 12:20:31  5-MIN KMKG 131720Z 29009KT 10SM SCT050 19/12 A3013 440 60 1100 300/09 RMK AO2
14840KMKG MKG20060613122509606/13/06 12:25:31  5-MIN KMKG 131725Z 29011KT 10SM SCT050 20/12 A3013 440 58 1200 290/11 RMK AO2
14840KMKG MKG20060613123009606/13/06 12:30:31  5-MIN KMKG 131730Z 29011KT 10SM SCT050 19/12 A3013 440 60 1100 290/11 RMK AO2
14840KMKG MKG20060613123509606/13/06 12:35:31  5-MIN KMKG 131735Z 28010KT 10SM SCT050 19/11 A3013 440 58 1100 290/10 RMK AO2
14840KMKG MKG20060613124009606/13/06 12:40:31  5-MIN KMKG 131740Z 27011KT 10SM SCT050 20/12 A3013 440 58 1200 280/11 RMK AO2
14840KMKG MKG20060613124509606/13/06 12:45:31  5-MIN KMKG 131745Z 30011KT 10SM SCT050 19/12 A3013 440 60 1100 300/11 RMK AO2
14840KMKG MKG20060613125013106/13/06 12:50:31  5-MIN KMKG 131750Z 29008KT 10SM SCT050 20/12 A3012 440 58 1200 300/08 RMK AO2 SLP201 T02000117 10217 20133 58004
14840KMKG MKG20060613125513106/13/06 12:55:31  5-MIN KMKG 131755Z 28009KT 10SM SCT055 21/12 A3012 440 56 1200 290/09 RMK AO2 SLP200 T02060117 10217 20133 58008
14840KMKG MKG20060613130009606/13/06 13:00:31  5-MIN KMKG 131800Z 28009KT 10SM SCT055 21/12 A3012 450 56 1200 290/09 RMK AO2
14840KMKG MKG20060613130509606/13/06 13:05:31  5-MIN KMKG 131805Z 28010KT 10SM SCT055 21/12 A3012 450 54 1300 280/10 RMK AO2
14840KMKG MKG20060613131009606/13/06 13:10:31  5-MIN KMKG 131810Z 28010KT 10SM SCT055 21/12 A3012 450 56 1200 280/10 RMK AO2
14840KMKG MKG20060613131509606/13/06 13:15:31  5-MIN KMKG 131815Z 28010KT 10SM SCT055 21/11 A3012 450 54 1200 290/10 RMK AO2
14840KMKG MKG20060613132009606/13/06 13:20:31  5-MIN KMKG 131820Z 27010KT 10SM SCT055 21/11 A3011 450 54 1200 280/10 RMK AO2
14840KMKG MKG20060613132509606/13/06 13:25:31  5-MIN KMKG 131825Z 29009KT 10SM SCT055 21/11 A3011 450 54 1200 290/09 RMK AO2
14840KMKG MKG20060613133009606/13/06 13:30:31  5-MIN KMKG 131830Z 29009KT 10SM SCT055 20/11 A3011 450 54 1200 300/09 RMK AO2
14840KMKG MKG20060613133509606/13/06 13:35:31  5-MIN KMKG 131835Z 31012KT 10SM SCT055 21/11 A3011 450 54 1200 310/12 RMK AO2
14840KMKG MKG20060613134009606/13/06 13:40:31  5-MIN KMKG 131840Z 30009KT 10SM SCT055 21/11 A3011 450 54 1200 310/09 RMK AO2
14840KMKG MKG20060613134509606/13/06 13:45:31  5-MIN KMKG 131845Z 28010KT 10SM SCT055 21/11 A3011 460 54 1300 290/10 RMK AO2
14840KMKG MKG20060613135011306/13/06 13:50:31  5-MIN KMKG 131850Z 30010KT 10SM SCT055 21/11 A3011 460 54 1300 300/10 RMK AO2 SLP195 T02060111
14840KMKG MKG20060613135511306/13/06 13:55:31  5-MIN KMKG 131855Z 29008KT 10SM SCT055 21/11 A3010 460 54 1300 290/08 RMK AO2 SLP194 T02060111
14840KMKG MKG20060613140009606/13/06 14:00:31  5-MIN KMKG 131900Z 27010KT 10SM SCT055 21/11 A3010 460 52 1300 280/10 RMK AO2
14840KMKG MKG20060613140509606/13/06 14:05:31  5-MIN KMKG 131905Z 28012KT 10SM SCT055 21/11 A3010 460 54 1300 280/12 RMK AO2
14840KMKG MKG20060613141009606/13/06 14:10:31  5-MIN KMKG 131910Z 28012KT 10SM SCT055 21/11 A3010 460 52 1300 280/12 RMK AO2
14840KMKG MKG20060613141509606/13/06 14:15:31  5-MIN KMKG 131915Z 27011KT 10SM SCT055 21/11 A3010 460 52 1300 270/11 RMK AO2
14840KMKG MKG20060613142009606/13/06 14:20:31  5-MIN KMKG 131920Z 27010KT 10SM SCT055 21/11 A3010 460 52 1300 280/10 RMK AO2
14840KMKG MKG20060613142509606/13/06 14:25:31  5-MIN KMKG 131925Z 27012KT 10SM SCT055 21/11 A3010 470 52 1300 280/12 RMK AO2
14840KMKG MKG20060613143009606/13/06 14:30:31  5-MIN KMKG 131930Z 27014KT 10SM SCT055 20/10 A3010 470 52 1200 270/14 RMK AO2
14840KMKG MKG20060613143509606/13/06 14:35:31  5-MIN KMKG 131935Z 27012KT 10SM SCT055 20/10 A3010 470 52 1200 280/12 RMK AO2
14840KMKG MKG20060613144009606/13/06 14:40:31  5-MIN KMKG 131940Z 28012KT 10SM SCT055 21/10 A3010 470 50 1300 280/12 RMK AO2
14840KMKG MKG20060613144509606/13/06 14:45:31  5-MIN KMKG 131945Z 27013KT 10SM SCT055 20/09 A3010 470 50 1200 270/13 RMK AO2
14840KMKG MKG20060613145011306/13/06 14:50:31  5-MIN KMKG 131950Z 27012KT 10SM SCT055 20/09 A3010 470 50 1200 270/12 RMK AO2 SLP192 T02000094
14840KMKG MKG20060613145511306/13/06 14:55:31  5-MIN KMKG 131955Z 30011KT 10SM SCT055 20/09 A3010 470 50 1200 300/11 RMK AO2 SLP191 T02000094
14840KMKG MKG20060613150009606/13/06 15:00:31  5-MIN KMKG 132000Z 30011KT 10SM FEW085 20/09 A3010 470 50 1200 300/11 RMK AO2
14840KMKG MKG20060613150509306/13/06 15:05:31  5-MIN KMKG 132005Z 30012KT 10SM CLR 20/09 A3010 470 50 1200 310/12 RMK AO2
14840KMKG MKG20060613151009306/13/06 15:10:31  5-MIN KMKG 132010Z 30011KT 10SM CLR 19/09 A3009 470 50 1100 300/11 RMK AO2
14840KMKG MKG20060613151509306/13/06 15:15:31  5-MIN KMKG 132015Z 28011KT 10SM CLR 20/09 A3009 470 50 1200 290/11 RMK AO2
14840KMKG MKG20060613152009306/13/06 15:20:31  5-MIN KMKG 132020Z 30009KT 10SM CLR 20/09 A3009 470 50 1200 300/09 RMK AO2
14840KMKG MKG20060613152509306/13/06 15:25:31  5-MIN KMKG 132025Z 29010KT 10SM CLR 21/09 A3009 470 47 1300 300/10 RMK AO2
14840KMKG MKG20060613153009806/13/06 15:30:31  5-MIN KMKG 132030Z AUTO 27010KT 10SM CLR 19/09 A3009 470 50 1100 280/10 RMK AO2
14840KMKG MKG20060613153509306/13/06 15:35:31  5-MIN KMKG 132035Z 28009KT 10SM CLR 19/09 A3009 470 50 1100 290/09 RMK AO2
14840KMKG MKG20060613154009306/13/06 15:40:31  5-MIN KMKG 132040Z 28007KT 10SM CLR 21/09 A3009 470 46 1300 280/07 RMK AO2
14840KMKG MKG20060613154509306/13/06 15:45:31  5-MIN KMKG 132045Z 30010KT 10SM CLR 21/09 A3009 480 46 1300 300/10 RMK AO2
14840KMKG MKG20060613155011906/13/06 15:50:31  5-MIN KMKG 132050Z 30009KT 10SM FEW055 21/09 A3009 480 48 1300 300/09 RMK AO2 SLP188 T02060094 58008
14840KMKG MKG20060613155511906/13/06 15:55:31  5-MIN KMKG 132055Z 29008KT 10SM FEW055 21/09 A3009 480 46 1300 300/08 RMK AO2 SLP187 T02060089 56013
14840KMKG MKG20060613160009306/13/06 16:00:31  5-MIN KMKG 132100Z 30009KT 10SM CLR 21/09 A3008 480 46 1300 300/09 RMK AO2
14840KMKG MKG20060613160509306/13/06 16:05:31  5-MIN KMKG 132105Z 28008KT 10SM CLR 20/09 A3008 480 48 1200 280/08 RMK AO2
14840KMKG MKG20060613161009606/13/06 16:10:31  5-MIN KMKG 132110Z 30007KT 10SM FEW085 20/09 A3009 480 48 1200 310/07 RMK AO2
14840KMKG MKG20060613161509306/13/06 16:15:31  5-MIN KMKG 132115Z 30010KT 10SM CLR 20/09 A3008 480 48 1200 300/10 RMK AO2
14840KMKG MKG20060613162009306/13/06 16:20:31  5-MIN KMKG 132120Z 30007KT 10SM CLR 20/08 A3008 480 46 1200 310/07 RMK AO2
14840KMKG MKG20060613162509306/13/06 16:25:31  5-MIN KMKG 132125Z 30011KT 10SM CLR 20/08 A3008 480 46 1200 310/11 RMK AO2
14840KMKG MKG20060613163009306/13/06 16:30:31  5-MIN KMKG 132130Z 30008KT 10SM CLR 20/09 A3009 480 48 1200 300/08 RMK AO2
14840KMKG MKG20060613163509306/13/06 16:35:31  5-MIN KMKG 132135Z 30011KT 10SM CLR 21/09 A3008 480 46 1300 300/11 RMK AO2
14840KMKG MKG20060613164009906/13/06 16:40:31  5-MIN KMKG 132140Z 30012G17KT 10SM CLR 20/08 A3008 480 46 1200 310/12G17 RMK AO2
14840KMKG MKG20060613164509306/13/06 16:45:31  5-MIN KMKG 132145Z 30010KT 10SM CLR 19/08 A3008 480 48 1200 310/10 RMK AO2
14840KMKG MKG20060613165011006/13/06 16:50:31  5-MIN KMKG 132150Z 30010KT 10SM CLR 21/08 A3008 480 45 1300 310/10 RMK AO2 SLP187 T02060083
14840KMKG MKG20060613165511306/13/06 16:55:31  5-MIN KMKG 132155Z 30012KT 10SM FEW055 21/09 A3008 480 46 1300 300/12 RMK AO2 SLP187 T02060089
14840KMKG MKG20060613170009306/13/06 17:00:31  5-MIN KMKG 132200Z 29010KT 10SM CLR 21/09 A3008 480 46 1300 300/10 RMK AO2
14840KMKG MKG20060613170509306/13/06 17:05:31  5-MIN KMKG 132205Z 30010KT 10SM CLR 21/09 A3008 480 45 1300 300/10 RMK AO2
14840KMKG MKG20060613171009306/13/06 17:10:31  5-MIN KMKG 132210Z 30010KT 10SM CLR 21/09 A3008 480 46 1300 300/10 RMK AO2
14840KMKG MKG20060613171509306/13/06 17:15:31  5-MIN KMKG 132215Z 29011KT 10SM CLR 21/09 A3008 480 46 1300 300/11 RMK AO2
14840KMKG MKG20060613172009306/13/06 17:20:31  5-MIN KMKG 132220Z 30011KT 10SM CLR 21/09 A3008 480 46 1300 310/11 RMK AO2
14840KMKG MKG20060613172509306/13/06 17:25:31  5-MIN KMKG 132225Z 30012KT 10SM CLR 21/09 A3008 480 46 1300 310/12 RMK AO2
14840KMKG MKG20060613173009306/13/06 17:30:31  5-MIN KMKG 132230Z 30009KT 10SM CLR 21/09 A3008 480 46 1300 300/09 RMK AO2
14840KMKG MKG20060613173509306/13/06 17:35:31  5-MIN KMKG 132235Z 30009KT 10SM CLR 21/09 A3008 480 46 1300 300/09 RMK AO2
14840KMKG MKG20060613174009306/13/06 17:40:31  5-MIN KMKG 132240Z 31009KT 10SM CLR 21/09 A3008 480 46 1300 310/09 RMK AO2
14840KMKG MKG20060613174509306/13/06 17:45:31  5-MIN KMKG 132245Z 30009KT 10SM CLR 20/09 A3008 480 48 1200 300/09 RMK AO2
14840KMKG MKG20060613175011306/13/06 17:50:31  5-MIN KMKG 132250Z 30011KT 10SM FEW055 20/09 A3008 480 48 1200 300/11 RMK AO2 SLP186 T02000089
14840KMKG MKG20060613175511306/13/06 17:55:31  5-MIN KMKG 132255Z 30009KT 10SM FEW055 20/08 A3008 480 46 1200 310/09 RMK AO2 SLP186 T02000083
14840KMKG MKG20060613180010906/13/06 18:00:31  5-MIN KMKG 132300Z 31007KT 280V340 10SM CLR 20/08 A3008 480 46 1200 310/07 280V340 RMK AO2
14840KMKG MKG20060613180509306/13/06 18:05:31  5-MIN KMKG 132305Z 30009KT 10SM CLR 20/09 A3008 480 48 1200 300/09 RMK AO2
14840KMKG MKG20060613181009306/13/06 18:10:31  5-MIN KMKG 132310Z 30010KT 10SM CLR 20/08 A3008 480 46 1200 300/10 RMK AO2
14840KMKG MKG20060613181509306/13/06 18:15:31  5-MIN KMKG 132315Z 31009KT 10SM CLR 20/08 A3008 480 46 1200 320/09 RMK AO2
14840KMKG MKG20060613182009306/13/06 18:20:31  5-MIN KMKG 132320Z 31008KT 10SM CLR 21/09 A3008 480 46 1300 310/08 RMK AO2
14840KMKG MKG20060613182509306/13/06 18:25:31  5-MIN KMKG 132325Z 31008KT 10SM CLR 20/09 A3008 480 48 1200 310/08 RMK AO2
14840KMKG MKG20060613183009306/13/06 18:30:31  5-MIN KMKG 132330Z 30008KT 10SM CLR 20/09 A3008 480 48 1200 300/08 RMK AO2
14840KMKG MKG20060613183509306/13/06 18:35:31  5-MIN KMKG 132335Z 30008KT 10SM CLR 20/09 A3008 480 48 1200 300/08 RMK AO2
14840KMKG MKG20060613184009306/13/06 18:40:31  5-MIN KMKG 132340Z 30008KT 10SM CLR 20/09 A3008 480 48 1200 300/08 RMK AO2
14840KMKG MKG20060613184509306/13/06 18:45:31  5-MIN KMKG 132345Z 30008KT 10SM CLR 20/09 A3008 480 48 1200 300/08 RMK AO2
14840KMKG MKG20060613185012806/13/06 18:50:31  5-MIN KMKG 132350Z 29008KT 10SM CLR 20/09 A3008 480 48 1200 300/08 RMK AO2 SLP187 T02000089 10211 20189 56013
14840KMKG MKG20060613185513106/13/06 18:55:31  5-MIN KMKG 132355Z 30006KT 10SM FEW055 20/09 A3009 480 48 1200 300/06 RMK AO2 SLP188 T02000089 10211 20189 53000
14840KMKG MKG20060613190009306/13/06 19:00:31  5-MIN KMKG 140000Z 29007KT 10SM CLR 20/09 A3009 480 48 1200 300/07 RMK AO2
14840KMKG MKG20060613190509306/13/06 19:05:31  5-MIN KMKG 140005Z 29006KT 10SM CLR 19/09 A3009 470 50 1100 300/06 RMK AO2
14840KMKG MKG20060613191009306/13/06 19:10:31  5-MIN KMKG 140010Z 29006KT 10SM CLR 19/09 A3009 470 50 1100 300/06 RMK AO2
14840KMKG MKG20060613191509306/13/06 19:15:31  5-MIN KMKG 140015Z 30007KT 10SM CLR 19/09 A3009 470 50 1100 300/07 RMK AO2
14840KMKG MKG20060613192009306/13/06 19:20:31  5-MIN KMKG 140020Z 30007KT 10SM CLR 19/09 A3009 470 50 1100 310/07 RMK AO2
14840KMKG MKG20060613192509306/13/06 19:25:31  5-MIN KMKG 140025Z 30006KT 10SM CLR 19/09 A3009 470 52 1100 310/06 RMK AO2
14840KMKG MKG20060613193009306/13/06 19:30:31  5-MIN KMKG 140030Z 30005KT 10SM CLR 19/09 A3009 470 52 1100 310/05 RMK AO2
14840KMKG MKG20060613193509306/13/06 19:35:31  5-MIN KMKG 140035Z 30005KT 10SM CLR 19/09 A3009 470 52 1100 300/05 RMK AO2
14840KMKG MKG20060613194009306/13/06 19:40:31  5-MIN KMKG 140040Z 30004KT 10SM CLR 18/09 A3009 470 54 1000 300/04 RMK AO2
14840KMKG MKG20060613194509306/13/06 19:45:31  5-MIN KMKG 140045Z 30005KT 10SM CLR 18/09 A3009 470 54 1000 300/05 RMK AO2
14840KMKG MKG20060613195011306/13/06 19:50:31  5-MIN KMKG 140050Z 29004KT 10SM FEW050 18/09 A3009 470 54 1000 290/04 RMK AO2 SLP190 T01830089
14840KMKG MKG20060613195511206/13/06 19:55:31  5-MIN KMKG 140055Z 29004KT 10SM FEW050 18/09 A3009 470 55 900 290/04 RMK AO2 SLP190 T01780089
14840KMKG MKG20060613200009206/13/06 20:00:31  5-MIN KMKG 140100Z VRB03KT 10SM CLR 18/09 A3009 470 55 900 VRB/03 RMK AO2
14840KMKG MKG20060613200509206/13/06 20:05:31  5-MIN KMKG 140105Z VRB03KT 10SM CLR 17/09 A3009 470 57 900 VRB/03 RMK AO2
14840KMKG MKG20060613201009206/13/06 20:10:31  5-MIN KMKG 140110Z 00000KT 10SM CLR 17/09 A3009 470 57 900 000/00 RMK AO2
14840KMKG MKG20060613201509206/13/06 20:15:31  5-MIN KMKG 140115Z 00000KT 10SM CLR 17/09 A3010 470 57 900 000/00 RMK AO2
14840KMKG MKG20060613202009206/13/06 20:20:31  5-MIN KMKG 140120Z 00000KT 10SM CLR 17/09 A3010 470 57 900 000/00 RMK AO2
14840KMKG MKG20060613202509206/13/06 20:25:31  5-MIN KMKG 140125Z 29003KT 10SM CLR 17/09 A3010 470 57 900 290/03 RMK AO2
14840KMKG MKG20060613203009206/13/06 20:30:31  5-MIN KMKG 140130Z 30003KT 10SM CLR 17/09 A3010 470 60 800 300/03 RMK AO2
14840KMKG MKG20060613203509206/13/06 20:35:31  5-MIN KMKG 140135Z 29003KT 10SM CLR 17/09 A3010 470 60 800 300/03 RMK AO2
14840KMKG MKG20060613204009206/13/06 20:40:31  5-MIN KMKG 140140Z 29004KT 10SM CLR 16/09 A3010 470 64 700 290/04 RMK AO2
14840KMKG MKG20060613204509506/13/06 20:45:31  5-MIN KMKG 140145Z 29003KT 10SM FEW110 15/09 A3010 470 66 600 290/03 RMK AO2
14840KMKG MKG20060613205011206/13/06 20:50:31  5-MIN KMKG 140150Z 29003KT 10SM FEW110 14/09 A3010 460 69 500 300/03 RMK AO2 SLP192 T01440089
14840KMKG MKG20060613205510906/13/06 20:55:31  5-MIN KMKG 140155Z 29003KT 10SM CLR 14/09 A3010 460 71 500 290/03 RMK AO2 SLP193 T01390089
14840KMKG MKG20060613210009206/13/06 21:00:31  5-MIN KMKG 140200Z 30003KT 10SM CLR 14/09 A3010 460 69 500 300/03 RMK AO2
14840KMKG MKG20060613210509206/13/06 21:05:31  5-MIN KMKG 140205Z 30003KT 10SM CLR 14/09 A3010 460 69 500 300/03 RMK AO2
14840KMKG MKG20060613211009206/13/06 21:10:31  5-MIN KMKG 140210Z 00000KT 10SM CLR 14/09 A3010 460 71 500 000/00 RMK AO2
14840KMKG MKG20060613211509206/13/06 21:15:31  5-MIN KMKG 140215Z 00000KT 10SM CLR 13/09 A3010 460 74 400 000/00 RMK AO2
14840KMKG MKG20060613212009206/13/06 21:20:31  5-MIN KMKG 140220Z 00000KT 10SM CLR 13/09 A3010 460 77 300 000/00 RMK AO2
14840KMKG MKG20060613212509206/13/06 21:25:31  5-MIN KMKG 140225Z 00000KT 10SM CLR 13/09 A3011 460 74 400 000/00 RMK AO2
14840KMKG MKG20060613213009206/13/06 21:30:31  5-MIN KMKG 140230Z 00000KT 10SM CLR 14/09 A3010 460 71 500 000/00 RMK AO2
14840KMKG MKG20060613213509206/13/06 21:35:31  5-MIN KMKG 140235Z 00000KT 10SM CLR 14/09 A3010 460 69 500 000/00 RMK AO2
14840KMKG MKG20060613214009206/13/06 21:40:31  5-MIN KMKG 140240Z 00000KT 10SM CLR 14/09 A3011 460 69 500 000/00 RMK AO2
14840KMKG MKG20060613214509206/13/06 21:45:31  5-MIN KMKG 140245Z 00000KT 10SM CLR 14/09 A3011 460 71 500 000/00 RMK AO2
14840KMKG MKG20060613215011506/13/06 21:50:31  5-MIN KMKG 140250Z 00000KT 10SM CLR 13/09 A3011 460 77 300 000/00 RMK AO2 SLP195 T01280089 53000
14840KMKG MKG20060613215511506/13/06 21:55:31  5-MIN KMKG 140255Z 00000KT 10SM CLR 13/09 A3011 460 74 400 000/00 RMK AO2 SLP196 T01330089 53008
14840KMKG MKG20060613220009206/13/06 22:00:31  5-MIN KMKG 140300Z 00000KT 10SM CLR 13/09 A3011 450 74 400 000/00 RMK AO2
14840KMKG MKG20060613220509206/13/06 22:05:31  5-MIN KMKG 140305Z 00000KT 10SM CLR 13/09 A3011 460 77 400 000/00 RMK AO2
14840KMKG MKG20060613221009506/13/06 22:10:31  5-MIN KMKG 140310Z 00000KT 10SM FEW100 13/09 A3011 450 80 300 000/00 RMK AO2
14840KMKG MKG20060613221509506/13/06 22:15:31  5-MIN KMKG 140315Z 00000KT 10SM SCT100 13/09 A3011 460 80 300 000/00 RMK AO2
14840KMKG MKG20060613222009506/13/06 22:20:31  5-MIN KMKG 140320Z 00000KT 10SM BKN100 12/09 A3011 460 83 300 000/00 RMK AO2
14840KMKG MKG20060613222509506/13/06 22:25:31  5-MIN KMKG 140325Z 00000KT 10SM BKN100 12/09 A3011 450 83 300 000/00 RMK AO2
14840KMKG MKG20060613223009506/13/06 22:30:31  5-MIN KMKG 140330Z 00000KT 10SM BKN100 13/09 A3011 460 80 300 000/00 RMK AO2
14840KMKG MKG20060613223509506/13/06 22:35:31  5-MIN KMKG 140335Z 00000KT 10SM BKN100 13/09 A3011 460 80 300 000/00 RMK AO2
14840KMKG MKG20060613224009506/13/06 22:40:31  5-MIN KMKG 140340Z 00000KT 10SM OVC100 13/09 A3011 450 77 400 000/00 RMK AO2
14840KMKG MKG20060613224509506/13/06 22:45:31  5-MIN KMKG 140345Z 00000KT 10SM OVC100 13/09 A3011 460 77 400 000/00 RMK AO2
14840KMKG MKG20060613225011106/13/06 22:50:31  5-MIN KMKG 140350Z 00000KT 9SM OVC100 14/09 A3011 460 74 500 000/00 RMK AO2 SLP195 T01390094
14840KMKG MKG20060613225511106/13/06 22:55:31  5-MIN KMKG 140355Z 00000KT 8SM OVC100 13/09 A3011 460 77 400 000/00 RMK AO2 SLP194 T01330094
14840KMKG MKG20060613230009406/13/06 23:00:31  5-MIN KMKG 140400Z 00000KT 7SM OVC100 13/09 A3011 460 77 400 000/00 RMK AO2
14840KMKG MKG20060613230509406/13/06 23:05:31  5-MIN KMKG 140405Z 00000KT 9SM BKN100 14/09 A3010 460 74 500 000/00 RMK AO2
14840KMKG MKG20060613231009506/13/06 23:10:31  5-MIN KMKG 140410Z 00000KT 10SM BKN100 14/09 A3010 460 74 500 000/00 RMK AO2
14840KMKG MKG20060613231509506/13/06 23:15:31  5-MIN KMKG 140415Z 00000KT 10SM SCT100 14/09 A3010 460 74 500 000/00 RMK AO2
14840KMKG MKG20060613232009506/13/06 23:20:31  5-MIN KMKG 140420Z 00000KT 10SM SCT100 13/09 A3010 460 80 300 000/00 RMK AO2
14840KMKG MKG20060613232509506/13/06 23:25:31  5-MIN KMKG 140425Z 00000KT 10SM FEW100 13/09 A3010 460 77 400 000/00 RMK AO2
14840KMKG MKG20060613233009506/13/06 23:30:31  5-MIN KMKG 140430Z 00000KT 10SM FEW100 13/09 A3010 460 77 400 000/00 RMK AO2
14840KMKG MKG20060613233509206/13/06 23:35:31  5-MIN KMKG 140435Z 00000KT 10SM CLR 13/09 A3011 460 80 300 000/00 RMK AO2
14840KMKG MKG20060613234009206/13/06 23:40:31  5-MIN KMKG 140440Z 00000KT 10SM CLR 12/09 A3010 460 86 200 000/00 RMK AO2
14840KMKG MKG20060613234509206/13/06 23:45:31  5-MIN KMKG 140445Z 00000KT 10SM CLR 12/09 A3011 460 86 200 000/00 RMK AO2
14840KMKG MKG20060613235011906/13/06 23:50:31  5-MIN KMKG 140450Z 00000KT 10SM CLR 12/09 A3010 460 86 200 000/00 RMK AO2 SLP194 T01170094 402170094
14840KMKG MKG20060613235511906/13/06 23:55:31  5-MIN KMKG 140455Z 00000KT 10SM CLR 12/10 A3010 460 86 300 000/00 RMK AO2 SLP192 T01220100 402170094
14840KMKG MKG20060614000009206/14/06 00:00:32  5-MIN KMKG 140500Z 00000KT 10SM CLR 12/10 A3010 460 86 300 000/00 RMK AO2
14840KMKG MKG20060614000509206/14/06 00:05:31  5-MIN KMKG 140505Z 00000KT 10SM CLR 12/10 A3010 460 86 300 000/00 RMK AO2
14840KMKG MKG20060614001009206/14/06 00:10:31  5-MIN KMKG 140510Z 00000KT 10SM CLR 13/09 A3010 470 80 400 000/00 RMK AO2
14840KMKG MKG20060614001509206/14/06 00:15:31  5-MIN KMKG 140515Z 00000KT 10SM CLR 13/09 A3010 470 80 400 000/00 RMK AO2
14840KMKG MKG20060614002009206/14/06 00:20:31  5-MIN KMKG 140520Z 00000KT 10SM CLR 13/09 A3010 460 80 300 000/00 RMK AO2
14840KMKG MKG20060614002509206/14/06 00:25:31  5-MIN KMKG 140525Z 00000KT 10SM CLR 12/09 A3010 460 83 200 000/00 RMK AO2
14840KMKG MKG20060614003009206/14/06 00:30:31  5-MIN KMKG 140530Z 00000KT 10SM CLR 12/09 A3010 460 83 300 000/00 RMK AO2
14840KMKG MKG20060614003509206/14/06 00:35:31  5-MIN KMKG 140535Z 00000KT 10SM CLR 12/09 A3010 460 83 300 000/00 RMK AO2
14840KMKG MKG20060614004009206/14/06 00:40:31  5-MIN KMKG 140540Z 00000KT 10SM CLR 12/09 A3010 460 86 200 000/00 RMK AO2
14840KMKG MKG20060614004509206/14/06 00:45:31  5-MIN KMKG 140545Z 00000KT 10SM CLR 11/09 A3010 460 89 100 000/00 RMK AO2
14840KMKG MKG20060614005012706/14/06 00:50:31  5-MIN KMKG 140550Z 00000KT 10SM CLR 11/09 A3010 460 89 100 000/00 RMK AO2 SLP193 T01110094 10200 20111 53008
14840KMKG MKG20060614005512706/14/06 00:55:31  5-MIN KMKG 140555Z 00000KT 10SM CLR 12/09 A3010 460 86 200 000/00 RMK AO2 SLP193 T01170094 10200 20111 57003
14840KMKG MKG20060614010009206/14/06 01:00:31  5-MIN KMKG 140600Z 00000KT 10SM CLR 12/09 A3010 470 86 200 000/00 RMK AO2
14840KMKG MKG20060614010509206/14/06 01:05:31  5-MIN KMKG 140605Z 00000KT 10SM CLR 12/10 A3010 470 89 200 000/00 RMK AO2
14840KMKG MKG20060614011009206/14/06 01:10:31  5-MIN KMKG 140610Z 00000KT 10SM CLR 12/09 A3010 470 86 200 000/00 RMK AO2
14840KMKG MKG20060614011509206/14/06 01:15:31  5-MIN KMKG 140615Z 00000KT 10SM CLR 12/09 A3010 470 86 200 000/00 RMK AO2
14840KMKG MKG20060614012009206/14/06 01:20:31  5-MIN KMKG 140620Z 00000KT 10SM CLR 12/09 A3010 470 86 200 000/00 RMK AO2
14840KMKG MKG20060614012509206/14/06 01:25:31  5-MIN KMKG 140625Z 00000KT 10SM CLR 12/09 A3010 470 86 200 000/00 RMK AO2
14840KMKG MKG20060614013009206/14/06 01:30:31  5-MIN KMKG 140630Z 00000KT 10SM CLR 12/09 A3010 470 83 300 000/00 RMK AO2
14840KMKG MKG20060614013509206/14/06 01:35:31  5-MIN KMKG 140635Z 00000KT 10SM CLR 12/09 A3010 470 86 200 000/00 RMK AO2
14840KMKG MKG20060614014009206/14/06 01:40:31  5-MIN KMKG 140640Z 00000KT 10SM CLR 12/10 A3010 470 86 300 000/00 RMK AO2
14840KMKG MKG20060614014509206/14/06 01:45:31  5-MIN KMKG 140645Z 35003KT 10SM CLR 13/10 A3010 470 80 400 360/03 RMK AO2
14840KMKG MKG20060614015010906/14/06 01:50:31  5-MIN KMKG 140650Z 01003KT 10SM CLR 13/10 A3010 470 83 400 010/03 RMK AO2 SLP192 T01280100
14840KMKG MKG20060614015510906/14/06 01:55:31  5-MIN KMKG 140655Z 00000KT 10SM CLR 12/10 A3010 470 86 300 000/00 RMK AO2 SLP191 T01220100
14840KMKG MKG20060614020009206/14/06 02:00:31  5-MIN KMKG 140700Z 00000KT 10SM CLR 12/10 A3010 470 86 300 000/00 RMK AO2
14840KMKG MKG20060614020509206/14/06 02:05:31  5-MIN KMKG 140705Z 00000KT 10SM CLR 12/10 A3009 470 86 300 000/00 RMK AO2
14840KMKG MKG20060614021009206/14/06 02:10:31  5-MIN KMKG 140710Z 00000KT 10SM CLR 13/11 A3009 470 86 400 000/00 RMK AO2
14840KMKG MKG20060614021509206/14/06 02:15:31  5-MIN KMKG 140715Z 00000KT 10SM CLR 13/11 A3009 470 89 400 000/00 RMK AO2
14840KMKG MKG20060614022009206/14/06 02:20:31  5-MIN KMKG 140720Z 00000KT 10SM CLR 12/11 A3009 470 93 300 000/00 RMK AO2
14840KMKG MKG20060614022509206/14/06 02:25:31  5-MIN KMKG 140725Z 00000KT 10SM CLR 12/10 A3009 480 89 200 000/00 RMK AO2
14840KMKG MKG20060614023009206/14/06 02:30:31  5-MIN KMKG 140730Z 00000KT 10SM CLR 12/11 A3009 480 89 300 000/00 RMK AO2
14840KMKG MKG20060614023509206/14/06 02:35:31  5-MIN KMKG 140735Z 00000KT 10SM CLR 12/11 A3009 480 89 300 000/00 RMK AO2
14840KMKG MKG20060614024009206/14/06 02:40:31  5-MIN KMKG 140740Z 00000KT 10SM CLR 12/11 A3009 480 89 300 000/00 RMK AO2
14840KMKG MKG20060614024509206/14/06 02:45:31  5-MIN KMKG 140745Z 00000KT 10SM CLR 13/10 A3009 480 83 400 000/00 RMK AO2
14840KMKG MKG20060614025010906/14/06 02:50:31  5-MIN KMKG 140750Z 00000KT 10SM CLR 13/10 A3009 480 80 400 000/00 RMK AO2 SLP188 T01330100
14840KMKG MKG20060614025510906/14/06 02:55:31  5-MIN KMKG 140755Z 00000KT 10SM CLR 12/09 A3009 480 86 200 000/00 RMK AO2 SLP188 T01170094
14840KMKG MKG20060614030009206/14/06 03:00:31  5-MIN KMKG 140800Z 01003KT 10SM CLR 11/09 A3009 480 89 200 010/03 RMK AO2
14840KMKG MKG20060614030509206/14/06 03:05:31  5-MIN KMKG 140805Z 01003KT 10SM CLR 11/09 A3009 480 89 200 010/03 RMK AO2
14840KMKG MKG20060614031009206/14/06 03:10:31  5-MIN KMKG 140810Z 36003KT 10SM CLR 11/09 A3009 480 86 200 010/03 RMK AO2
14840KMKG MKG20060614031509206/14/06 03:15:31  5-MIN KMKG 140815Z 01003KT 10SM CLR 12/09 A3009 470 86 200 010/03 RMK AO2
14840KMKG MKG20060614032009206/14/06 03:20:31  5-MIN KMKG 140820Z 00000KT 10SM CLR 12/09 A3009 470 86 200 000/00 RMK AO2
14840KMKG MKG20060614032509206/14/06 03:25:31  5-MIN KMKG 140825Z 32004KT 10SM CLR 12/10 A3009 470 86 300 320/04 RMK AO2
14840KMKG MKG20060614033009206/14/06 03:30:31  5-MIN KMKG 140830Z 31005KT 10SM CLR 13/10 A3009 470 83 400 320/05 RMK AO2
14840KMKG MKG20060614033509206/14/06 03:35:31  5-MIN KMKG 140835Z 32003KT 10SM CLR 13/10 A3010 470 83 400 330/03 RMK AO2
14840KMKG MKG20060614034009206/14/06 03:40:31  5-MIN KMKG 140840Z 00000KT 10SM CLR 12/10 A3009 470 86 300 000/00 RMK AO2
14840KMKG MKG20060614034509206/14/06 03:45:31  5-MIN KMKG 140845Z 00000KT 10SM CLR 12/09 A3009 470 86 200 000/00 RMK AO2
14840KMKG MKG20060614035011506/14/06 03:50:31  5-MIN KMKG 140850Z 00000KT 10SM CLR 12/09 A3009 470 83 300 000/00 RMK AO2 SLP190 T01220094 57003
14840KMKG MKG20060614035511506/14/06 03:55:31  5-MIN KMKG 140855Z 00000KT 10SM CLR 12/10 A3009 470 86 300 000/00 RMK AO2 SLP189 T01220100 55003
14840KMKG MKG20060614040009206/14/06 04:00:31  5-MIN KMKG 140900Z 00000KT 10SM CLR 13/10 A3009 470 83 400 000/00 RMK AO2
14840KMKG MKG20060614040509206/14/06 04:05:31  5-MIN KMKG 140905Z 00000KT 10SM CLR 12/10 A3009 470 86 300 000/00 RMK AO2
14840KMKG MKG20060614041009206/14/06 04:10:31  5-MIN KMKG 140910Z 00000KT 10SM CLR 13/10 A3009 470 83 400 000/00 RMK AO2
14840KMKG MKG20060614041509206/14/06 04:15:31  5-MIN KMKG 140915Z 00000KT 10SM CLR 12/10 A3010 470 86 300 000/00 RMK AO2
14840KMKG MKG20060614042009206/14/06 04:20:31  5-MIN KMKG 140920Z 00000KT 10SM CLR 13/10 A3009 470 83 400 000/00 RMK AO2
14840KMKG MKG20060614042509206/14/06 04:25:31  5-MIN KMKG 140925Z 00000KT 10SM CLR 13/10 A3009 470 83 400 000/00 RMK AO2
14840KMKG MKG20060614043009206/14/06 04:30:31  5-MIN KMKG 140930Z 00000KT 10SM CLR 12/10 A3009 470 86 300 000/00 RMK AO2
14840KMKG MKG20060614043509206/14/06 04:35:31  5-MIN KMKG 140935Z 00000KT 10SM CLR 12/09 A3009 470 86 200 000/00 RMK AO2
14840KMKG MKG20060614044009206/14/06 04:40:31  5-MIN KMKG 140940Z 00000KT 10SM CLR 11/09 A3010 470 89 200 000/00 RMK AO2
14840KMKG MKG20060614044509206/14/06 04:45:31  5-MIN KMKG 140945Z 00000KT 10SM CLR 12/09 A3010 470 86 200 000/00 RMK AO2
14840KMKG MKG20060614045010906/14/06 04:50:31  5-MIN KMKG 140950Z VRB03KT 10SM CLR 12/09 A3010 470 86 200 VRB/03 RMK AO2 SLP191 T01170094
14840KMKG MKG20060614045510906/14/06 04:55:31  5-MIN KMKG 140955Z 00000KT 10SM CLR 12/09 A3009 470 86 200 000/00 RMK AO2 SLP189 T01170094
14840KMKG MKG20060614050009206/14/06 05:00:31  5-MIN KMKG 141000Z 07004KT 10SM CLR 12/09 A3009 470 86 200 070/04 RMK AO2
14840KMKG MKG20060614050509206/14/06 05:05:31  5-MIN KMKG 141005Z 05003KT 10SM CLR 11/09 A3009 470 89 100 050/03 RMK AO2
14840KMKG MKG20060614051009206/14/06 05:10:31  5-MIN KMKG 141010Z 00000KT 10SM CLR 11/09 A3010 470 89 100 000/00 RMK AO2
14840KMKG MKG20060614051509206/14/06 05:15:31  5-MIN KMKG 141015Z 00000KT 10SM CLR 11/09 A3010 460 86 100 000/00 RMK AO2
14840KMKG MKG20060614052009206/14/06 05:20:31  5-MIN KMKG 141020Z 00000KT 10SM CLR 12/09 A3010 460 86 200 000/00 RMK AO2
14840KMKG MKG20060614052509206/14/06 05:25:31  5-MIN KMKG 141025Z 33003KT 10SM CLR 12/09 A3011 460 86 200 330/03 RMK AO2
14840KMKG MKG20060614053009206/14/06 05:30:31  5-MIN KMKG 141030Z 35004KT 10SM CLR 12/09 A3011 460 86 200 350/04 RMK AO2
14840KMKG MKG20060614053509206/14/06 05:35:31  5-MIN KMKG 141035Z 36004KT 10SM CLR 12/09 A3011 450 86 200 360/04 RMK AO2
14840KMKG MKG20060614054009206/14/06 05:40:31  5-MIN KMKG 141040Z 34003KT 10SM CLR 12/09 A3011 450 83 300 350/03 RMK AO2
14840KMKG MKG20060614054509206/14/06 05:45:31  5-MIN KMKG 141045Z 35004KT 10SM CLR 12/10 A3011 450 86 300 350/04 RMK AO2
14840KMKG MKG20060614055010906/14/06 05:50:31  5-MIN KMKG 141050Z 35004KT 10SM CLR 12/10 A3011 450 86 300 360/04 RMK AO2 SLP197 T01220100
14840KMKG MKG20060614055510906/14/06 05:55:31  5-MIN KMKG 141055Z 35003KT 10SM CLR 12/10 A3012 450 86 300 350/03 RMK AO2 SLP198 T01220100
14840KMKG MKG20060614060009206/14/06 06:00:31  5-MIN KMKG 141100Z 35003KT 10SM CLR 13/10 A3012 450 83 300 360/03 RMK AO2
14840KMKG MKG20060614060509206/14/06 06:05:31  5-MIN KMKG 141105Z 36003KT 10SM CLR 13/11 A3012 450 86 300 360/03 RMK AO2
14840KMKG MKG20060614061009206/14/06 06:10:31  5-MIN KMKG 141110Z 00000KT 10SM CLR 13/11 A3012 450 83 400 000/00 RMK AO2
14840KMKG MKG20060614061509206/14/06 06:15:31  5-MIN KMKG 141115Z 00000KT 10SM CLR 13/11 A3012 450 83 400 000/00 RMK AO2
14840KMKG MKG20060614062009206/14/06 06:20:31  5-MIN KMKG 141120Z 00000KT 10SM CLR 14/11 A3011 450 80 500 000/00 RMK AO2
14840KMKG MKG20060614062509206/14/06 06:25:31  5-MIN KMKG 141125Z 08003KT 10SM CLR 14/11 A3011 450 80 500 080/03 RMK AO2
14840KMKG MKG20060614063009206/14/06 06:30:31  5-MIN KMKG 141130Z 08004KT 10SM CLR 14/11 A3011 460 80 500 090/04 RMK AO2
14840KMKG MKG20060614063509206/14/06 06:35:31  5-MIN KMKG 141135Z 08004KT 10SM CLR 14/11 A3011 450 80 500 080/04 RMK AO2
14840KMKG MKG20060614064009206/14/06 06:40:31  5-MIN KMKG 141140Z 00000KT 10SM CLR 14/11 A3011 460 80 500 000/00 RMK AO2
14840KMKG MKG20060614064509206/14/06 06:45:31  5-MIN KMKG 141145Z 07003KT 10SM CLR 14/11 A3011 450 80 500 070/03 RMK AO2
14840KMKG MKG20060614065012706/14/06 06:50:31  5-MIN KMKG 141150Z 07004KT 10SM CLR 14/11 A3011 450 77 500 070/04 RMK AO2 SLP195 T01440106 10144 20106 55003
14840KMKG MKG20060614065512706/14/06 06:55:31  5-MIN KMKG 141155Z 09004KT 10SM CLR 14/11 A3011 450 77 500 090/04 RMK AO2 SLP195 T01440106 10144 20106 50007
14840KMKG MKG20060614070009206/14/06 07:00:31  5-MIN KMKG 141200Z 08003KT 10SM CLR 15/11 A3011 450 74 600 090/03 RMK AO2
14840KMKG MKG20060614070509206/14/06 07:05:31  5-MIN KMKG 141205Z 07003KT 10SM CLR 16/11 A3011 450 74 700 070/03 RMK AO2
14840KMKG MKG20060614071009206/14/06 07:10:31  5-MIN KMKG 141210Z 08005KT 10SM CLR 16/11 A3011 450 72 700 090/05 RMK AO2
14840KMKG MKG20060614071509206/14/06 07:15:31  5-MIN KMKG 141215Z 09005KT 10SM CLR 16/11 A3011 450 74 700 090/05 RMK AO2
14840KMKG MKG20060614072009206/14/06 07:20:31  5-MIN KMKG 141220Z 09005KT 10SM CLR 16/11 A3011 450 74 700 090/05 RMK AO2
14840KMKG MKG20060614072509206/14/06 07:25:31  5-MIN KMKG 141225Z 09004KT 10SM CLR 16/11 A3012 450 72 700 090/04 RMK AO2
14840KMKG MKG20060614073009206/14/06 07:30:31  5-MIN KMKG 141230Z 10004KT 10SM CLR 16/11 A3011 450 72 700 100/04 RMK AO2
14840KMKG MKG20060614073509206/14/06 07:35:31  5-MIN KMKG 141235Z VRB03KT 10SM CLR 16/11 A3012 450 72 700 VRB/03 RMK AO2
14840KMKG MKG20060614074009206/14/06 07:40:31  5-MIN KMKG 141240Z 13003KT 10SM CLR 16/11 A3012 450 72 700 140/03 RMK AO2
14840KMKG MKG20060614074509206/14/06 07:45:31  5-MIN KMKG 141245Z 00000KT 10SM CLR 16/11 A3012 450 72 700 000/00 RMK AO2
14840KMKG MKG20060614075010906/14/06 07:50:31  5-MIN KMKG 141250Z VRB03KT 10SM CLR 17/11 A3012 450 69 800 VRB/03 RMK AO2 SLP198 T01670111
14840KMKG MKG20060614075510906/14/06 07:55:31  5-MIN KMKG 141255Z 00000KT 10SM CLR 17/11 A3012 450 69 800 000/00 RMK AO2 SLP198 T01670111
14840KMKG MKG20060614080009206/14/06 08:00:31  5-MIN KMKG 141300Z 00000KT 10SM CLR 17/12 A3012 450 69 900 000/00 RMK AO2
14840KMKG MKG20060614080509206/14/06 08:05:31  5-MIN KMKG 141305Z 00000KT 10SM CLR 17/12 A3012 440 69 800 000/00 RMK AO2
14840KMKG MKG20060614081009206/14/06 08:10:31  5-MIN KMKG 141310Z 13004KT 10SM CLR 18/12 A3012 440 67 900 130/04 RMK AO2
14840KMKG MKG20060614081509206/14/06 08:15:31  5-MIN KMKG 141315Z 00000KT 10SM CLR 18/12 A3012 440 67 900 000/00 RMK AO2
14840KMKG MKG20060614082009306/14/06 08:20:31  5-MIN KMKG 141320Z 00000KT 10SM CLR 18/12 A3013 440 65 1000 000/00 RMK AO2
14840KMKG MKG20060614082509306/14/06 08:25:31  5-MIN KMKG 141325Z VRB04KT 10SM CLR 19/12 A3013 440 62 1000 VRB/04 RMK AO2
14840KMKG MKG20060614083009306/14/06 08:30:31  5-MIN KMKG 141330Z 00000KT 10SM CLR 19/12 A3013 440 62 1000 000/00 RMK AO2
14840KMKG MKG20060614083509306/14/06 08:35:31  5-MIN KMKG 141335Z VRB03KT 10SM CLR 18/12 A3013 440 67 1000 VRB/03 RMK AO2
14840KMKG MKG20060614084009306/14/06 08:40:31  5-MIN KMKG 141340Z 06004KT 10SM CLR 19/12 A3012 440 65 1000 060/04 RMK AO2
14840KMKG MKG20060614084509306/14/06 08:45:31  5-MIN KMKG 141345Z 08005KT 10SM CLR 19/12 A3012 450 60 1100 080/05 RMK AO2
14840KMKG MKG20060614085011006/14/06 08:50:31  5-MIN KMKG 141350Z 08005KT 10SM CLR 19/12 A3012 450 62 1100 080/05 RMK AO2 SLP199 T01940122
14840KMKG MKG20060614085511306/14/06 08:55:31  5-MIN KMKG 141355Z 00000KT 10SM FEW110 20/12 A3012 440 60 1200 000/00 RMK AO2 SLP199 T02000122
14840KMKG MKG20060614090009306/14/06 09:00:31  5-MIN KMKG 141400Z 10003KT 10SM CLR 21/12 A3012 450 56 1200 110/03 RMK AO2
14840KMKG MKG20060614090509306/14/06 09:05:31  5-MIN KMKG 141405Z VRB03KT 10SM CLR 21/12 A3012 450 56 1200 VRB/03 RMK AO2
14840KMKG MKG20060614091009306/14/06 09:10:31  5-MIN KMKG 141410Z 00000KT 10SM CLR 21/12 A3012 450 56 1200 000/00 RMK AO2
14840KMKG MKG20060614091509306/14/06 09:15:31  5-MIN KMKG 141415Z 00000KT 10SM CLR 21/12 A3012 450 58 1200 000/00 RMK AO2
14840KMKG MKG20060614092009306/14/06 09:20:31  5-MIN KMKG 141420Z VRB03KT 10SM CLR 21/12 A3011 450 56 1300 VRB/03 RMK AO2
14840KMKG MKG20060614092509306/14/06 09:25:31  5-MIN KMKG 141425Z VRB03KT 10SM CLR 21/12 A3011 450 56 1300 VRB/03 RMK AO2
14840KMKG MKG20060614093009306/14/06 09:30:31  5-MIN KMKG 141430Z VRB04KT 10SM CLR 22/12 A3012 450 54 1400 VRB/04 RMK AO2
14840KMKG MKG20060614093509306/14/06 09:35:31  5-MIN KMKG 141435Z 35004KT 10SM CLR 22/12 A3012 450 54 1400 360/04 RMK AO2
14840KMKG MKG20060614094009306/14/06 09:40:31  5-MIN KMKG 141440Z 33004KT 10SM CLR 21/12 A3012 450 56 1300 340/04 RMK AO2
14840KMKG MKG20060614094509306/14/06 09:45:31  5-MIN KMKG 141445Z 34005KT 10SM CLR 22/12 A3012 450 51 1400 340/05 RMK AO2
14840KMKG MKG20060614095011906/14/06 09:50:31  5-MIN KMKG 141450Z VRB03KT 10SM SCT110 22/11 A3012 450 47 1400 VRB/03 RMK AO2 SLP198 T02220106 50007
14840KMKG MKG20060614095511906/14/06 09:55:31  5-MIN KMKG 141455Z VRB04KT 10SM SCT110 22/11 A3012 450 49 1400 VRB/04 RMK AO2 SLP197 T02170106 50002
14840KMKG MKG20060614100009306/14/06 10:00:31  5-MIN KMKG 141500Z 30004KT 10SM CLR 23/11 A3011 450 47 1500 310/04 RMK AO2
14840KMKG MKG20060614100509306/14/06 10:05:31  5-MIN KMKG 141505Z 34006KT 10SM CLR 23/12 A3011 450 47 1600 350/06 RMK AO2
14840KMKG MKG20060614101009306/14/06 10:10:31  5-MIN KMKG 141510Z 34006KT 10SM CLR 22/11 A3012 450 49 1400 340/06 RMK AO2
14840KMKG MKG20060614101509306/14/06 10:15:31  5-MIN KMKG 141515Z 30004KT 10SM CLR 22/11 A3012 450 50 1400 300/04 RMK AO2
14840KMKG MKG20060614102009306/14/06 10:20:31  5-MIN KMKG 141520Z 28005KT 10SM CLR 21/12 A3011 450 56 1300 280/05 RMK AO2
14840KMKG MKG20060614102509306/14/06 10:25:31  5-MIN KMKG 141525Z 29006KT 10SM CLR 21/13 A3011 450 58 1300 300/06 RMK AO2
14840KMKG MKG20060614103009306/14/06 10:30:31  5-MIN KMKG 141530Z 29007KT 10SM CLR 21/13 A3011 460 58 1300 300/07 RMK AO2
14840KMKG MKG20060614103509306/14/06 10:35:31  5-MIN KMKG 141535Z 28007KT 10SM CLR 21/13 A3011 450 58 1300 290/07 RMK AO2
14840KMKG MKG20060614104010306/14/06 10:40:31  5-MIN KMKG 141540Z 28007KT 10SM FEW045 SCT110 21/13 A3011 450 58 1300 280/07 RMK AO2
14840KMKG MKG20060614104511906/14/06 10:45:31  5-MIN KMKG 141545Z 29007KT 10SM -RA FEW045 SCT110 21/12 A3011 450 56 1300 290/07 RMK AO2 RAB44 P0000
14840KMKG MKG20060614105013606/14/06 10:50:31  5-MIN KMKG 141550Z 29007KT 10SM -RA FEW045 SCT110 21/12 A3012 450 54 1300 290/07 RMK AO2 RAB44 SLP197 P0000 T02110117
14840KMKG MKG20060614105513506/14/06 10:55:31  5-MIN KMKG 141555Z 30007KT 10SM FEW045 BKN110 21/12 A3012 450 54 1300 300/07 RMK AO2 RAB44E55 SLP197 P0000 T02110117
14840KMKG MKG20060614110010306/14/06 11:00:31  5-MIN KMKG 141600Z 29008KT 10SM FEW045 BKN110 21/12 A3012 450 56 1200 290/08 RMK AO2
14840KMKG MKG20060614110510306/14/06 11:05:31  5-MIN KMKG 141605Z 28007KT 10SM FEW045 BKN110 20/12 A3012 450 58 1200 290/07 RMK AO2
14840KMKG MKG20060614111010306/14/06 11:10:31  5-MIN KMKG 141610Z 31006KT 10SM FEW045 BKN110 20/12 A3011 450 58 1200 310/06 RMK AO2
14840KMKG MKG20060614111510306/14/06 11:15:31  5-MIN KMKG 141615Z 28004KT 10SM FEW045 BKN110 20/12 A3011 450 60 1200 290/04 RMK AO2
14840KMKG MKG20060614112010306/14/06 11:20:31  5-MIN KMKG 141620Z 29006KT 10SM FEW045 BKN110 20/12 A3011 450 60 1200 300/06 RMK AO2
14840KMKG MKG20060614112510306/14/06 11:25:31  5-MIN KMKG 141625Z 30006KT 10SM FEW045 BKN110 20/12 A3011 450 60 1200 300/06 RMK AO2
14840KMKG MKG20060614113010306/14/06 11:30:31  5-MIN KMKG 141630Z 30004KT 10SM FEW045 BKN110 21/12 A3011 450 58 1200 300/04 RMK AO2
14840KMKG MKG20060614113510306/14/06 11:35:31  5-MIN KMKG 141635Z 28005KT 10SM FEW045 BKN110 21/12 A3011 450 58 1200 290/05 RMK AO2
14840KMKG MKG20060614114010306/14/06 11:40:31  5-MIN KMKG 141640Z 32004KT 10SM FEW045 BKN110 22/12 A3011 460 54 1400 330/04 RMK AO2
14840KMKG MKG20060614114510306/14/06 11:45:31  5-MIN KMKG 141645Z 32005KT 10SM FEW045 BKN110 22/12 A3011 460 54 1400 320/05 RMK AO2
14840KMKG MKG20060614115012006/14/06 11:50:31  5-MIN KMKG 141650Z 33006KT 10SM FEW045 SCT110 22/12 A3011 460 52 1400 330/06 RMK AO2 SLP194 T02220122
14840KMKG MKG20060614115512006/14/06 11:55:31  5-MIN KMKG 141655Z 34005KT 10SM FEW045 SCT110 22/12 A3010 460 52 1400 350/05 RMK AO2 SLP193 T02220122
14840KMKG MKG20060614120010306/14/06 12:00:31  5-MIN KMKG 141700Z 33005KT 10SM FEW045 SCT110 22/12 A3010 460 51 1400 330/05 RMK AO2
14840KMKG MKG20060614120510306/14/06 12:05:31  5-MIN KMKG 141705Z 31006KT 10SM FEW045 SCT110 23/12 A3010 460 49 1600 320/06 RMK AO2
14840KMKG MKG20060614121010306/14/06 12:10:31  5-MIN KMKG 141710Z VRB05KT 10SM FEW045 SCT110 24/12 A3010 460 46 1600 VRB/05 RMK AO2
14840KMKG MKG20060614121510306/14/06 12:15:31  5-MIN KMKG 141715Z VRB03KT 10SM FEW045 SCT110 23/12 A3010 470 47 1600 VRB/03 RMK AO2
14840KMKG MKG20060614122010306/14/06 12:20:31  5-MIN KMKG 141720Z VRB04KT 10SM FEW045 SCT110 23/12 A3009 470 47 1600 VRB/04 RMK AO2
14840KMKG MKG20060614122510306/14/06 12:25:31  5-MIN KMKG 141725Z 34005KT 10SM FEW045 SCT110 23/12 A3010 470 47 1600 340/05 RMK AO2
14840KMKG MKG20060614123010306/14/06 12:30:31  5-MIN KMKG 141730Z 31007KT 10SM FEW045 SCT110 24/11 A3009 470 44 1600 310/07 RMK AO2
14840KMKG MKG20060614123510306/14/06 12:35:31  5-MIN KMKG 141735Z 33006KT 10SM FEW045 SCT110 24/12 A3009 470 46 1600 330/06 RMK AO2
14840KMKG MKG20060614124010306/14/06 12:40:31  5-MIN KMKG 141740Z 30009KT 10SM FEW050 SCT120 24/12 A3009 470 46 1600 300/09 RMK AO2
14840KMKG MKG20060614124510306/14/06 12:45:31  5-MIN KMKG 141745Z 29010KT 10SM FEW050 SCT120 23/12 A3009 470 49 1600 290/10 RMK AO2
14840KMKG MKG20060614125014406/14/06 12:50:31  5-MIN KMKG 141750Z 28010KT 10SM FEW050 SCT120 23/12 A3010 470 47 1600 290/10 RMK AO2 SLP191 60000 T02330117 10244 20144 50002
14840KMKG MKG20060614125513706/14/06 12:55:31  5-MIN KMKG 141755Z 30011KT 10SM SCT050 24/12 A3010 470 46 1600 300/11 RMK AO2 SLP191 60000 T02390117 10244 20144 58006
14840KMKG MKG20060614130009606/14/06 13:00:31  5-MIN KMKG 141800Z 29009KT 10SM SCT050 23/12 A3010 470 49 1500 300/09 RMK AO2
14840KMKG MKG20060614130509606/14/06 13:05:31  5-MIN KMKG 141805Z 27010KT 10SM SCT050 23/12 A3010 460 47 1600 270/10 RMK AO2
14840KMKG MKG20060614131009606/14/06 13:10:31  5-MIN KMKG 141810Z 30011KT 10SM SCT050 23/11 A3010 470 47 1500 300/11 RMK AO2
14840KMKG MKG20060614131509606/14/06 13:15:31  5-MIN KMKG 141815Z 28008KT 10SM SCT050 23/11 A3009 470 45 1500 290/08 RMK AO2
14840KMKG MKG20060614132009606/14/06 13:20:31  5-MIN KMKG 141820Z 28008KT 10SM SCT050 23/11 A3009 470 47 1500 280/08 RMK AO2
14840KMKG MKG20060614132509606/14/06 13:25:31  5-MIN KMKG 141825Z 25008KT 10SM SCT050 23/11 A3010 470 47 1500 260/08 RMK AO2
14840KMKG MKG20060614133009606/14/06 13:30:31  5-MIN KMKG 141830Z 27011KT 10SM SCT050 22/11 A3010 470 47 1500 270/11 RMK AO2
14840KMKG MKG20060614133509606/14/06 13:35:31  5-MIN KMKG 141835Z 28009KT 10SM SCT050 22/11 A3009 470 47 1500 290/09 RMK AO2
14840KMKG MKG20060614134009606/14/06 13:40:31  5-MIN KMKG 141840Z 28009KT 10SM SCT050 22/11 A3009 470 47 1500 290/09 RMK AO2
14840KMKG MKG20060614134509606/14/06 13:45:31  5-MIN KMKG 141845Z 28010KT 10SM SCT050 22/11 A3009 470 47 1500 290/10 RMK AO2
14840KMKG MKG20060614135011306/14/06 13:50:31  5-MIN KMKG 141850Z 29009KT 10SM SCT050 22/11 A3009 470 47 1500 290/09 RMK AO2 SLP189 T02220106
14840KMKG MKG20060614135511306/14/06 13:55:31  5-MIN KMKG 141855Z 30010KT 10SM SCT050 23/11 A3009 470 47 1500 300/10 RMK AO2 SLP189 T02280111
14840KMKG MKG20060614140009606/14/06 14:00:31  5-MIN KMKG 141900Z 30009KT 10SM SCT050 22/11 A3009 470 49 1500 300/09 RMK AO2
14840KMKG MKG20060614140509606/14/06 14:05:31  5-MIN KMKG 141905Z 27012KT 10SM SCT050 22/11 A3009 470 50 1400 280/12 RMK AO2
14840KMKG MKG20060614141009606/14/06 14:10:31  5-MIN KMKG 141910Z 28009KT 10SM SCT050 22/11 A3009 470 49 1400 280/09 RMK AO2
14840KMKG MKG20060614141509606/14/06 14:15:31  5-MIN KMKG 141915Z 29009KT 10SM SCT050 21/11 A3009 470 50 1300 290/09 RMK AO2
14840KMKG MKG20060614142009606/14/06 14:20:31  5-MIN KMKG 141920Z 29007KT 10SM SCT050 21/11 A3009 470 50 1300 300/07 RMK AO2
14840KMKG MKG20060614142509606/14/06 14:25:31  5-MIN KMKG 141925Z 30008KT 10SM SCT050 21/11 A3009 470 50 1300 300/08 RMK AO2
14840KMKG MKG20060614143009606/14/06 14:30:31  5-MIN KMKG 141930Z 30007KT 10SM SCT050 21/11 A3009 470 50 1300 310/07 RMK AO2
14840KMKG MKG20060614143509606/14/06 14:35:31  5-MIN KMKG 141935Z 33007KT 10SM SCT050 21/11 A3009 470 50 1300 330/07 RMK AO2
14840KMKG MKG20060614144009606/14/06 14:40:31  5-MIN KMKG 141940Z VRB06KT 10SM SCT050 21/11 A3009 470 50 1300 VRB/06 RMK AO2
14840KMKG MKG20060614144509606/14/06 14:45:31  5-MIN KMKG 141945Z 32007KT 10SM SCT050 21/11 A3009 470 52 1300 320/07 RMK AO2
14840KMKG MKG20060614145011306/14/06 14:50:31  5-MIN KMKG 141950Z 30007KT 10SM SCT050 21/11 A3009 470 50 1300 310/07 RMK AO2 SLP188 T02110106
14840KMKG MKG20060614145512006/14/06 14:55:31  5-MIN KMKG 141955Z 31007KT 10SM SCT050 SCT075 21/11 A3009 470 50 1300 310/07 RMK AO2 SLP190 T02110106
14840KMKG MKG20060614150010306/14/06 15:00:31  5-MIN KMKG 142000Z 32006KT 10SM SCT050 SCT075 22/11 A3009 470 49 1400 320/06 RMK AO2
14840KMKG MKG20060614150510306/14/06 15:05:31  5-MIN KMKG 142005Z 30006KT 10SM SCT050 SCT075 22/11 A3009 470 49 1400 300/06 RMK AO2
14840KMKG MKG20060614151010306/14/06 15:10:31  5-MIN KMKG 142010Z 29007KT 10SM SCT050 SCT075 22/11 A3009 470 50 1400 300/07 RMK AO2
14840KMKG MKG20060614151510306/14/06 15:15:31  5-MIN KMKG 142015Z 30008KT 10SM SCT050 SCT075 22/11 A3009 480 50 1400 300/08 RMK AO2
14840KMKG MKG20060614152010306/14/06 15:20:31  5-MIN KMKG 142020Z 29006KT 10SM SCT050 SCT075 22/11 A3009 480 50 1400 300/06 RMK AO2
14840KMKG MKG20060614152510306/14/06 15:25:31  5-MIN KMKG 142025Z 29007KT 10SM SCT050 SCT075 22/11 A3009 480 50 1400 300/07 RMK AO2
14840KMKG MKG20060614153009606/14/06 15:30:31  5-MIN KMKG 142030Z 28008KT 10SM SCT050 21/11 A3008 480 52 1300 290/08 RMK AO2
14840KMKG MKG20060614153509606/14/06 15:35:31  5-MIN KMKG 142035Z 29007KT 10SM SCT050 21/11 A3008 480 50 1300 300/07 RMK AO2
14840KMKG MKG20060614154009606/14/06 15:40:31  5-MIN KMKG 142040Z 30009KT 10SM SCT050 21/09 A3008 480 48 1300 300/09 RMK AO2
14840KMKG MKG20060614154509606/14/06 15:45:31  5-MIN KMKG 142045Z 32008KT 10SM SCT050 20/09 A3008 480 50 1200 320/08 RMK AO2
14840KMKG MKG20060614155014206/14/06 15:50:31  5-MIN KMKG 142050Z 31008KT 280V340 10SM FEW050 SCT090 21/09 A3008 480 47 1300 320/08 280V340 RMK AO2 SLP186 T02110094 58006
14840KMKG MKG20060614155512606/14/06 15:55:31  5-MIN KMKG 142055Z 31008KT 10SM FEW050 SCT090 21/09 A3008 480 47 1300 310/08 RMK AO2 SLP187 T02110094 58005
14840KMKG MKG20060614160009306/14/06 16:00:31  5-MIN KMKG 142100Z 30008KT 10SM CLR 22/09 A3008 480 45 1400 300/08 RMK AO2
14840KMKG MKG20060614160509306/14/06 16:05:31  5-MIN KMKG 142105Z 30008KT 10SM CLR 22/10 A3008 480 47 1400 310/08 RMK AO2
14840KMKG MKG20060614161010906/14/06 16:10:31  5-MIN KMKG 142110Z 31007KT 290V360 10SM CLR 22/10 A3008 480 45 1500 310/07 290V360 RMK AO2
14840KMKG MKG20060614161509606/14/06 16:15:31  5-MIN KMKG 142115Z 32007KT 10SM FEW050 23/11 A3008 480 45 1500 330/07 RMK AO2
14840KMKG MKG20060614162009606/14/06 16:20:31  5-MIN KMKG 142120Z 34008KT 10SM FEW050 23/11 A3008 480 45 1500 340/08 RMK AO2
14840KMKG MKG20060614162509606/14/06 16:25:31  5-MIN KMKG 142125Z 29007KT 10SM FEW050 23/11 A3008 480 45 1500 300/07 RMK AO2
14840KMKG MKG20060614163009606/14/06 16:30:31  5-MIN KMKG 142130Z 32007KT 10SM FEW050 23/11 A3008 480 45 1500 330/07 RMK AO2
14840KMKG MKG20060614163509606/14/06 16:35:31  5-MIN KMKG 142135Z 30008KT 10SM FEW050 23/11 A3008 480 44 1600 300/08 RMK AO2
14840KMKG MKG20060614164009606/14/06 16:40:31  5-MIN KMKG 142140Z 29008KT 10SM FEW050 22/10 A3009 480 45 1500 300/08 RMK AO2
14840KMKG MKG20060614164509606/14/06 16:45:31  5-MIN KMKG 142145Z 30008KT 10SM FEW050 22/10 A3009 480 47 1400 300/08 RMK AO2
14840KMKG MKG20060614165012006/14/06 16:50:31  5-MIN KMKG 142150Z 29010KT 10SM SCT047 SCT095 22/11 A3009 480 49 1400 290/10 RMK AO2 SLP189 T02170106
14840KMKG MKG20060614165512006/14/06 16:55:31  5-MIN KMKG 142155Z 30008KT 10SM SCT047 SCT095 22/11 A3009 470 49 1400 310/08 RMK AO2 SLP189 T02170106
14840KMKG MKG20060614170010306/14/06 17:00:31  5-MIN KMKG 142200Z 30008KT 10SM FEW047 SCT095 21/11 A3009 470 50 1300 300/08 RMK AO2
14840KMKG MKG20060614170510306/14/06 17:05:31  5-MIN KMKG 142205Z 30009KT 10SM FEW047 SCT095 21/10 A3009 470 48 1300 300/09 RMK AO2
14840KMKG MKG20060614171010306/14/06 17:10:31  5-MIN KMKG 142210Z 30007KT 10SM FEW047 SCT095 21/10 A3009 480 48 1300 300/07 RMK AO2
14840KMKG MKG20060614171510306/14/06 17:15:31  5-MIN KMKG 142215Z 31007KT 10SM FEW047 SCT095 21/11 A3009 480 50 1300 310/07 RMK AO2
14840KMKG MKG20060614172010306/14/06 17:20:31  5-MIN KMKG 142220Z 30007KT 10SM FEW047 SCT095 21/10 A3009 480 50 1300 310/07 RMK AO2
14840KMKG MKG20060614172510306/14/06 17:25:31  5-MIN KMKG 142225Z 31006KT 10SM FEW047 SCT095 21/10 A3008 480 48 1300 310/06 RMK AO2
14840KMKG MKG20060614173010306/14/06 17:30:31  5-MIN KMKG 142230Z 30006KT 10SM FEW047 SCT095 21/10 A3008 480 48 1300 300/06 RMK AO2
14840KMKG MKG20060614173510306/14/06 17:35:31  5-MIN KMKG 142235Z 31007KT 10SM FEW047 SCT095 21/10 A3008 480 50 1300 310/07 RMK AO2
14840KMKG MKG20060614174010306/14/06 17:40:31  5-MIN KMKG 142240Z 31006KT 10SM FEW047 SCT095 21/10 A3008 480 50 1300 310/06 RMK AO2
14840KMKG MKG20060614174510306/14/06 17:45:31  5-MIN KMKG 142245Z 31006KT 10SM FEW047 SCT095 21/09 A3008 480 48 1300 320/06 RMK AO2
14840KMKG MKG20060614175012006/14/06 17:50:31  5-MIN KMKG 142250Z 31007KT 10SM FEW047 SCT095 20/09 A3008 490 50 1200 320/07 RMK AO2 SLP184 T02000094
14840KMKG MKG20060614175512006/14/06 17:55:31  5-MIN KMKG 142255Z 31007KT 10SM FEW047 SCT095 21/09 A3007 490 48 1300 310/07 RMK AO2 SLP184 T02060094
14840KMKG MKG20060614180010306/14/06 18:00:31  5-MIN KMKG 142300Z 30007KT 10SM FEW047 SCT095 21/09 A3007 490 46 1300 300/07 RMK AO2
14840KMKG MKG20060614180510306/14/06 18:05:31  5-MIN KMKG 142305Z 31007KT 10SM FEW047 SCT095 21/09 A3007 490 46 1300 310/07 RMK AO2
14840KMKG MKG20060614181010306/14/06 18:10:31  5-MIN KMKG 142310Z 32005KT 10SM FEW047 SCT095 21/09 A3007 490 46 1300 320/05 RMK AO2
14840KMKG MKG20060614181510306/14/06 18:15:31  5-MIN KMKG 142315Z 31005KT 10SM FEW047 SCT095 21/09 A3007 490 47 1400 320/05 RMK AO2
14840KMKG MKG20060614182010306/14/06 18:20:31  5-MIN KMKG 142320Z 33006KT 10SM FEW048 SCT100 22/09 A3007 490 45 1400 330/06 RMK AO2
14840KMKG MKG20060614182510306/14/06 18:25:31  5-MIN KMKG 142325Z 33007KT 10SM FEW048 SCT100 22/09 A3007 490 43 1400 330/07 RMK AO2
14840KMKG MKG20060614183010306/14/06 18:30:31  5-MIN KMKG 142330Z 33007KT 10SM FEW048 SCT100 22/08 A3007 490 42 1400 330/07 RMK AO2
14840KMKG MKG20060614183510306/14/06 18:35:31  5-MIN KMKG 142335Z 33006KT 10SM FEW050 SCT100 22/08 A3007 490 42 1400 330/06 RMK AO2
14840KMKG MKG20060614184010306/14/06 18:40:31  5-MIN KMKG 142340Z 33007KT 10SM FEW050 SCT100 22/08 A3007 490 42 1400 340/07 RMK AO2
14840KMKG MKG20060614184510306/14/06 18:45:31  5-MIN KMKG 142345Z 32006KT 10SM FEW050 SCT100 22/08 A3007 490 42 1400 320/06 RMK AO2
14840KMKG MKG20060614185013806/14/06 18:50:31  5-MIN KMKG 142350Z 33005KT 10SM FEW050 SCT100 21/08 A3007 490 43 1400 340/05 RMK AO2 SLP181 T02110083 10233 20200 58005
14840KMKG MKG20060614185513806/14/06 18:55:31  5-MIN KMKG 142355Z 33004KT 10SM FEW050 SCT100 21/09 A3007 490 47 1400 330/04 RMK AO2 SLP181 T02110094 10233 20200 58005
14840KMKG MKG20060614190010306/14/06 19:00:31  5-MIN KMKG 150000Z 33004KT 10SM FEW050 SCT100 21/09 A3007 490 47 1400 330/04 RMK AO2
14840KMKG MKG20060614190510306/14/06 19:05:31  5-MIN KMKG 150005Z 34005KT 10SM FEW050 SCT100 22/09 A3007 490 45 1400 340/05 RMK AO2
14840KMKG MKG20060614191010306/14/06 19:10:31  5-MIN KMKG 150010Z 34006KT 10SM FEW050 SCT100 22/09 A3007 490 45 1400 350/06 RMK AO2
14840KMKG MKG20060614191510306/14/06 19:15:31  5-MIN KMKG 150015Z 34005KT 10SM FEW050 SCT100 22/09 A3007 500 45 1400 340/05 RMK AO2
14840KMKG MKG20060614192010306/14/06 19:20:31  5-MIN KMKG 150020Z 33005KT 10SM FEW050 SCT100 22/09 A3007 500 45 1400 330/05 RMK AO2
14840KMKG MKG20060614192510306/14/06 19:25:31  5-MIN KMKG 150025Z 32004KT 10SM FEW050 SCT100 21/10 A3006 500 48 1400 330/04 RMK AO2
14840KMKG MKG20060614193010306/14/06 19:30:31  5-MIN KMKG 150030Z 33004KT 10SM FEW050 SCT100 21/10 A3006 500 48 1400 340/04 RMK AO2
14840KMKG MKG20060614193510306/14/06 19:35:31  5-MIN KMKG 150035Z 34004KT 10SM FEW050 SCT100 21/11 A3006 500 50 1400 340/04 RMK AO2
14840KMKG MKG20060614194010306/14/06 19:40:31  5-MIN KMKG 150040Z 34004KT 10SM FEW050 SCT100 21/11 A3006 500 52 1300 340/04 RMK AO2
14840KMKG MKG20060614194510306/14/06 19:45:31  5-MIN KMKG 150045Z 32003KT 10SM FEW050 SCT100 21/11 A3007 500 52 1300 330/03 RMK AO2
14840KMKG MKG20060614195011006/14/06 19:50:31  5-MIN KMKG 150050Z 33003KT 10SM CLR 21/11 A3006 500 52 1300 330/03 RMK AO2 SLP180 T02060106
14840KMKG MKG20060614195511306/14/06 19:55:31  5-MIN KMKG 150055Z 33004KT 10SM FEW120 20/11 A3006 500 54 1200 330/04 RMK AO2 SLP179 T02000106
14840KMKG MKG20060614200009306/14/06 20:00:31  5-MIN KMKG 150100Z 30003KT 10SM CLR 20/11 A3006 500 54 1200 300/03 RMK AO2
14840KMKG MKG20060614200509306/14/06 20:05:31  5-MIN KMKG 150105Z 00000KT 10SM CLR 19/11 A3007 500 56 1200 000/00 RMK AO2
14840KMKG MKG20060614201009306/14/06 20:10:31  5-MIN KMKG 150110Z 00000KT 10SM CLR 19/11 A3007 500 56 1200 000/00 RMK AO2
14840KMKG MKG20060614201509306/14/06 20:15:31  5-MIN KMKG 150115Z 00000KT 10SM CLR 19/11 A3007 490 58 1100 000/00 RMK AO2
14840KMKG MKG20060614202009306/14/06 20:20:31  5-MIN KMKG 150120Z 00000KT 10SM CLR 19/11 A3007 490 58 1200 000/00 RMK AO2
14840KMKG MKG20060614202509306/14/06 20:25:31  5-MIN KMKG 150125Z 00000KT 10SM CLR 19/11 A3007 490 60 1100 000/00 RMK AO2
14840KMKG MKG20060614203009306/14/06 20:30:31  5-MIN KMKG 150130Z 00000KT 10SM CLR 19/11 A3007 490 58 1100 000/00 RMK AO2
14840KMKG MKG20060614203509306/14/06 20:35:31  5-MIN KMKG 150135Z 00000KT 10SM CLR 19/11 A3007 490 58 1100 000/00 RMK AO2
14840KMKG MKG20060614204009306/14/06 20:40:31  5-MIN KMKG 150140Z 00000KT 10SM CLR 19/11 A3007 490 58 1100 000/00 RMK AO2
14840KMKG MKG20060614204509306/14/06 20:45:31  5-MIN KMKG 150145Z 00000KT 10SM CLR 19/11 A3007 490 60 1100 000/00 RMK AO2
14840KMKG MKG20060614205011006/14/06 20:50:31  5-MIN KMKG 150150Z 00000KT 10SM CLR 19/11 A3007 490 60 1100 000/00 RMK AO2 SLP182 T01890111
14840KMKG MKG20060614205511006/14/06 20:55:31  5-MIN KMKG 150155Z 00000KT 10SM CLR 18/11 A3008 490 62 1000 000/00 RMK AO2 SLP182 T01830111
14840KMKG MKG20060614210009306/14/06 21:00:31  5-MIN KMKG 150200Z 00000KT 10SM CLR 18/11 A3008 490 62 1000 000/00 RMK AO2
14840KMKG MKG20060614210509306/14/06 21:05:31  5-MIN KMKG 150205Z 00000KT 10SM CLR 18/11 A3008 480 62 1000 000/00 RMK AO2
14840KMKG MKG20060614211009306/14/06 21:10:31  5-MIN KMKG 150210Z 00000KT 10SM CLR 18/11 A3008 480 62 1000 000/00 RMK AO2
14840KMKG MKG20060614211509606/14/06 21:15:31  5-MIN KMKG 150215Z 00000KT 10SM FEW120 18/11 A3008 480 62 1000 000/00 RMK AO2
14840KMKG MKG20060614212009606/14/06 21:20:31  5-MIN KMKG 150220Z 00000KT 10SM FEW120 18/11 A3008 480 62 1000 000/00 RMK AO2
14840KMKG MKG20060614212509606/14/06 21:25:31  5-MIN KMKG 150225Z 00000KT 10SM FEW120 18/11 A3008 480 62 1000 000/00 RMK AO2
14840KMKG MKG20060614213009606/14/06 21:30:31  5-MIN KMKG 150230Z 00000KT 10SM FEW120 18/11 A3008 480 62 1000 000/00 RMK AO2
14840KMKG MKG20060614213509506/14/06 21:35:31  5-MIN KMKG 150235Z 00000KT 10SM FEW120 17/11 A3008 480 67 900 000/00 RMK AO2
14840KMKG MKG20060614214009506/14/06 21:40:31  5-MIN KMKG 150240Z 00000KT 10SM FEW120 17/11 A3008 480 67 900 000/00 RMK AO2
14840KMKG MKG20060614214509206/14/06 21:45:31  5-MIN KMKG 150245Z 00000KT 10SM CLR 17/11 A3009 480 67 900 000/00 RMK AO2
14840KMKG MKG20060614215011506/14/06 21:50:31  5-MIN KMKG 150250Z 00000KT 10SM CLR 16/12 A3009 480 75 800 000/00 RMK AO2 SLP186 T01610117 58005
14840KMKG MKG20060614215511506/14/06 21:55:31  5-MIN KMKG 150255Z 00000KT 10SM CLR 16/12 A3009 480 77 700 000/00 RMK AO2 SLP187 T01560117 53006
14840KMKG MKG20060614220009206/14/06 22:00:31  5-MIN KMKG 150300Z 04003KT 10SM CLR 15/12 A3009 480 80 600 040/03 RMK AO2
14840KMKG MKG20060614220509206/14/06 22:05:31  5-MIN KMKG 150305Z 00000KT 10SM CLR 16/12 A3009 470 77 700 000/00 RMK AO2
14840KMKG MKG20060614221009206/14/06 22:10:31  5-MIN KMKG 150310Z 36003KT 10SM CLR 17/12 A3009 470 75 800 360/03 RMK AO2
14840KMKG MKG20060614221509206/14/06 22:15:31  5-MIN KMKG 150315Z 36003KT 10SM CLR 17/12 A3009 470 75 800 360/03 RMK AO2
14840KMKG MKG20060614222009206/14/06 22:20:31  5-MIN KMKG 150320Z 00000KT 10SM CLR 17/12 A3009 480 75 800 000/00 RMK AO2
14840KMKG MKG20060614222509206/14/06 22:25:31  5-MIN KMKG 150325Z 00000KT 10SM CLR 17/12 A3009 480 72 900 000/00 RMK AO2
14840KMKG MKG20060614223009206/14/06 22:30:31  5-MIN KMKG 150330Z 00000KT 10SM CLR 17/12 A3008 480 75 800 000/00 RMK AO2
14840KMKG MKG20060614223509206/14/06 22:35:31  5-MIN KMKG 150335Z 00000KT 10SM CLR 17/12 A3008 480 75 800 000/00 RMK AO2
14840KMKG MKG20060614224009206/14/06 22:40:31  5-MIN KMKG 150340Z 00000KT 10SM CLR 17/12 A3008 480 69 900 000/00 RMK AO2
14840KMKG MKG20060614224509206/14/06 22:45:31  5-MIN KMKG 150345Z 00000KT 10SM CLR 17/12 A3008 480 69 900 000/00 RMK AO2
14840KMKG MKG20060614225010906/14/06 22:50:31  5-MIN KMKG 150350Z 00000KT 10SM CLR 17/12 A3008 490 69 900 000/00 RMK AO2 SLP183 T01720117
14840KMKG MKG20060614225510906/14/06 22:55:31  5-MIN KMKG 150355Z 00000KT 10SM CLR 17/12 A3008 490 72 800 000/00 RMK AO2 SLP184 T01670117
14840KMKG MKG20060614230009206/14/06 23:00:31  5-MIN KMKG 150400Z 00000KT 10SM CLR 15/12 A3008 480 80 600 000/00 RMK AO2
14840KMKG MKG20060614230509206/14/06 23:05:31  5-MIN KMKG 150405Z 00000KT 10SM CLR 16/12 A3008 480 75 800 000/00 RMK AO2
14840KMKG MKG20060614231009206/14/06 23:10:31  5-MIN KMKG 150410Z 00000KT 10SM CLR 16/12 A3008 480 75 800 000/00 RMK AO2
14840KMKG MKG20060614231509206/14/06 23:15:31  5-MIN KMKG 150415Z 00000KT 10SM CLR 16/12 A3008 480 75 800 000/00 RMK AO2
14840KMKG MKG20060614232009206/14/06 23:20:31  5-MIN KMKG 150420Z 00000KT 10SM CLR 16/12 A3009 480 75 800 000/00 RMK AO2
14840KMKG MKG20060614232509206/14/06 23:25:31  5-MIN KMKG 150425Z 00000KT 10SM CLR 14/11 A3009 480 83 500 000/00 RMK AO2
14840KMKG MKG20060614233009206/14/06 23:30:31  5-MIN KMKG 150430Z 00000KT 10SM CLR 14/11 A3009 480 83 500 000/00 RMK AO2
14840KMKG MKG20060614233509206/14/06 23:35:31  5-MIN KMKG 150435Z 00000KT 10SM CLR 14/11 A3009 470 80 600 000/00 RMK AO2
14840KMKG MKG20060614234009206/14/06 23:40:31  5-MIN KMKG 150440Z 00000KT 10SM CLR 14/12 A3009 470 86 500 000/00 RMK AO2
14840KMKG MKG20060614234509206/14/06 23:45:31  5-MIN KMKG 150445Z 00000KT 10SM CLR 14/11 A3009 470 83 500 000/00 RMK AO2
14840KMKG MKG20060614235011906/14/06 23:50:31  5-MIN KMKG 150450Z 00000KT 10SM CLR 14/11 A3009 470 83 500 000/00 RMK AO2 SLP189 T01390111 402440106
14840KMKG MKG20060614235511906/14/06 23:55:31  5-MIN KMKG 150455Z 00000KT 10SM CLR 14/11 A3010 470 83 500 000/00 RMK AO2 SLP190 T01390111 402440106
14840KMKG MKG20060615000009206/15/06 00:00:32  5-MIN KMKG 150500Z 00000KT 10SM CLR 13/11 A3010 470 86 400 000/00 RMK AO2
14840KMKG MKG20060615000509206/15/06 00:05:31  5-MIN KMKG 150505Z 00000KT 10SM CLR 14/12 A3010 470 86 500 000/00 RMK AO2
14840KMKG MKG20060615001009206/15/06 00:10:31  5-MIN KMKG 150510Z 00000KT 10SM CLR 14/11 A3009 470 83 500 000/00 RMK AO2
14840KMKG MKG20060615001509206/15/06 00:15:31  5-MIN KMKG 150515Z 00000KT 10SM CLR 14/11 A3010 470 83 500 000/00 RMK AO2
14840KMKG MKG20060615002009206/15/06 00:20:31  5-MIN KMKG 150520Z 00000KT 10SM CLR 14/11 A3010 470 80 600 000/00 RMK AO2
14840KMKG MKG20060615002509206/15/06 00:25:31  5-MIN KMKG 150525Z 00000KT 10SM CLR 14/11 A3010 470 80 600 000/00 RMK AO2
14840KMKG MKG20060615003009206/15/06 00:30:31  5-MIN KMKG 150530Z 00000KT 10SM CLR 14/11 A3010 470 83 500 000/00 RMK AO2
14840KMKG MKG20060615003509206/15/06 00:35:31  5-MIN KMKG 150535Z 00000KT 10SM CLR 13/11 A3010 470 89 400 000/00 RMK AO2
14840KMKG MKG20060615004009206/15/06 00:40:31  5-MIN KMKG 150540Z 00000KT 10SM CLR 13/11 A3010 460 86 300 000/00 RMK AO2
14840KMKG MKG20060615004509206/15/06 00:45:31  5-MIN KMKG 150545Z 00000KT 10SM CLR 13/11 A3010 460 89 300 000/00 RMK AO2
14840KMKG MKG20060615005012706/15/06 00:50:31  5-MIN KMKG 150550Z 00000KT 10SM CLR 13/11 A3010 460 86 400 000/00 RMK AO2 SLP191 T01330111 10217 20128 53006
14840KMKG MKG20060615005512706/15/06 00:55:31  5-MIN KMKG 150555Z 00000KT 10SM CLR 13/11 A3010 470 86 400 000/00 RMK AO2 SLP191 T01330111 10217 20128 53004
14840KMKG MKG20060615010009206/15/06 01:00:31  5-MIN KMKG 150600Z 00000KT 10SM CLR 13/11 A3010 470 86 400 000/00 RMK AO2
14840KMKG MKG20060615010509206/15/06 01:05:31  5-MIN KMKG 150605Z 00000KT 10SM CLR 14/11 A3010 460 83 500 000/00 RMK AO2
14840KMKG MKG20060615011009206/15/06 01:10:31  5-MIN KMKG 150610Z 23005KT 10SM CLR 12/11 A3010 460 89 300 230/05 RMK AO2
14840KMKG MKG20060615011509206/15/06 01:15:31  5-MIN KMKG 150615Z 24005KT 10SM CLR 12/11 A3010 460 93 200 240/05 RMK AO2
14840KMKG MKG20060615012009206/15/06 01:20:31  5-MIN KMKG 150620Z 23003KT 10SM CLR 12/11 A3010 460 93 200 240/03 RMK AO2
14840KMKG MKG20060615012509206/15/06 01:25:31  5-MIN KMKG 150625Z 23003KT 10SM CLR 12/11 A3010 460 93 300 240/03 RMK AO2
14840KMKG MKG20060615013009206/15/06 01:30:31  5-MIN KMKG 150630Z 00000KT 10SM CLR 13/11 A3010 460 89 300 000/00 RMK AO2
14840KMKG MKG20060615013509206/15/06 01:35:31  5-MIN KMKG 150635Z 00000KT 10SM CLR 13/11 A3010 460 89 300 000/00 RMK AO2
14840KMKG MKG20060615014009206/15/06 01:40:31  5-MIN KMKG 150640Z 23003KT 10SM CLR 12/11 A3010 460 93 300 230/03 RMK AO2
14840KMKG MKG20060615014509206/15/06 01:45:31  5-MIN KMKG 150645Z 00000KT 10SM CLR 12/11 A3010 460 93 200 000/00 RMK AO2
14840KMKG MKG20060615015010906/15/06 01:50:31  5-MIN KMKG 150650Z 00000KT 10SM CLR 12/11 A3011 460 93 200 000/00 RMK AO2 SLP194 T01170106
14840KMKG MKG20060615015510906/15/06 01:55:31  5-MIN KMKG 150655Z 00000KT 10SM CLR 12/11 A3011 460 89 300 000/00 RMK AO2 SLP194 T01220106
14840KMKG MKG20060615020009206/15/06 02:00:31  5-MIN KMKG 150700Z 00000KT 10SM CLR 12/11 A3011 460 89 300 000/00 RMK AO2
14840KMKG MKG20060615020509206/15/06 02:05:31  5-MIN KMKG 150705Z 00000KT 10SM CLR 13/11 A3011 460 86 300 000/00 RMK AO2
14840KMKG MKG20060615021009206/15/06 02:10:31  5-MIN KMKG 150710Z 00000KT 10SM CLR 13/11 A3011 460 86 300 000/00 RMK AO2
14840KMKG MKG20060615021509206/15/06 02:15:31  5-MIN KMKG 150715Z 00000KT 10SM CLR 12/11 A3011 460 89 300 000/00 RMK AO2
14840KMKG MKG20060615022009206/15/06 02:20:31  5-MIN KMKG 150720Z 00000KT 10SM CLR 13/11 A3011 460 89 300 000/00 RMK AO2
14840KMKG MKG20060615022509206/15/06 02:25:31  5-MIN KMKG 150725Z 00000KT 10SM CLR 13/11 A3011 460 89 300 000/00 RMK AO2
14840KMKG MKG20060615023009206/15/06 02:30:31  5-MIN KMKG 150730Z 00000KT 10SM CLR 12/11 A3011 460 93 300 000/00 RMK AO2
14840KMKG MKG20060615023509206/15/06 02:35:31  5-MIN KMKG 150735Z 00000KT 10SM CLR 12/11 A3011 460 93 300 000/00 RMK AO2
14840KMKG MKG20060615024009206/15/06 02:40:31  5-MIN KMKG 150740Z 00000KT 10SM CLR 12/11 A3011 460 93 300 000/00 RMK AO2
14840KMKG MKG20060615024509206/15/06 02:45:31  5-MIN KMKG 150745Z 00000KT 10SM CLR 13/11 A3011 460 89 300 000/00 RMK AO2
14840KMKG MKG20060615025010906/15/06 02:50:31  5-MIN KMKG 150750Z 00000KT 10SM CLR 13/11 A3011 460 89 300 000/00 RMK AO2 SLP194 T01280111
14840KMKG MKG20060615025510906/15/06 02:55:31  5-MIN KMKG 150755Z 09003KT 10SM CLR 13/11 A3011 460 89 300 090/03 RMK AO2 SLP194 T01280111
14840KMKG MKG20060615030009206/15/06 03:00:31  5-MIN KMKG 150800Z 00000KT 10SM CLR 12/11 A3011 460 93 300 000/00 RMK AO2
14840KMKG MKG20060615030509206/15/06 03:05:31  5-MIN KMKG 150805Z 00000KT 10SM CLR 12/11 A3011 460 89 300 000/00 RMK AO2
14840KMKG MKG20060615031009206/15/06 03:10:31  5-MIN KMKG 150810Z 08003KT 10SM CLR 12/11 A3011 460 93 300 090/03 RMK AO2
14840KMKG MKG20060615031509206/15/06 03:15:31  5-MIN KMKG 150815Z 08003KT 10SM CLR 12/11 A3011 460 89 300 090/03 RMK AO2
14840KMKG MKG20060615032009206/15/06 03:20:31  5-MIN KMKG 150820Z 00000KT 10SM CLR 12/11 A3011 460 93 200 000/00 RMK AO2
14840KMKG MKG20060615032509206/15/06 03:25:31  5-MIN KMKG 150825Z 00000KT 10SM CLR 12/11 A3011 460 93 200 000/00 RMK AO2
14840KMKG MKG20060615033009206/15/06 03:30:31  5-MIN KMKG 150830Z 00000KT 10SM CLR 12/11 A3011 450 93 200 000/00 RMK AO2
14840KMKG MKG20060615033509206/15/06 03:35:31  5-MIN KMKG 150835Z 00000KT 10SM CLR 12/11 A3011 450 89 300 000/00 RMK AO2
14840KMKG MKG20060615034009206/15/06 03:40:31  5-MIN KMKG 150840Z 00000KT 10SM CLR 12/11 A3011 450 93 300 000/00 RMK AO2
14840KMKG MKG20060615034509206/15/06 03:45:31  5-MIN KMKG 150845Z 00000KT 10SM CLR 13/11 A3011 450 89 300 000/00 RMK AO2
14840KMKG MKG20060615035011406/15/06 03:50:31  5-MIN KMKG 150850Z 11003KT 9SM CLR 12/11 A3011 450 93 300 110/03 RMK AO2 SLP196 T01220111 53004
14840KMKG MKG20060615035511506/15/06 03:55:31  5-MIN KMKG 150855Z 00000KT 10SM CLR 12/11 A3011 460 89 300 000/00 RMK AO2 SLP196 T01220106 51003
14840KMKG MKG20060615040009206/15/06 04:00:31  5-MIN KMKG 150900Z 08003KT 10SM CLR 12/11 A3011 460 89 300 090/03 RMK AO2
14840KMKG MKG20060615040509106/15/06 04:05:31  5-MIN KMKG 150905Z 09003KT 9SM CLR 12/11 A3011 460 89 300 090/03 RMK AO2
14840KMKG MKG20060615041009106/15/06 04:10:31  5-MIN KMKG 150910Z 08004KT 8SM CLR 12/11 A3011 460 96 200 090/04 RMK AO2
14840KMKG MKG20060615041509106/15/06 04:15:31  5-MIN KMKG 150915Z 10003KT 9SM CLR 12/11 A3011 460 93 200 100/03 RMK AO2
14840KMKG MKG20060615042009106/15/06 04:20:31  5-MIN KMKG 150920Z 00000KT 9SM CLR 11/11 A3011 460 96 100 000/00 RMK AO2
14840KMKG MKG20060615042509206/15/06 04:25:31  5-MIN KMKG 150925Z 09003KT 10SM CLR 12/11 A3011 450 93 200 100/03 RMK AO2
14840KMKG MKG20060615043009206/15/06 04:30:31  5-MIN KMKG 150930Z 10003KT 10SM CLR 12/11 A3011 450 93 200 100/03 RMK AO2
14840KMKG MKG20060615043509206/15/06 04:35:31  5-MIN KMKG 150935Z 11003KT 10SM CLR 12/11 A3011 450 93 200 110/03 RMK AO2
14840KMKG MKG20060615044009206/15/06 04:40:31  5-MIN KMKG 150940Z 00000KT 10SM CLR 12/10 A3012 450 89 200 000/00 RMK AO2
14840KMKG MKG20060615044509206/15/06 04:45:31  5-MIN KMKG 150945Z 15003KT 10SM CLR 12/10 A3012 450 89 200 150/03 RMK AO2
14840KMKG MKG20060615045010906/15/06 04:50:31  5-MIN KMKG 150950Z 13003KT 10SM CLR 12/10 A3012 440 86 300 140/03 RMK AO2 SLP200 T01220100
14840KMKG MKG20060615045510906/15/06 04:55:31  5-MIN KMKG 150955Z 13003KT 10SM CLR 12/10 A3013 440 86 300 130/03 RMK AO2 SLP201 T01220100
14840KMKG MKG20060615050009206/15/06 05:00:31  5-MIN KMKG 151000Z 11003KT 10SM CLR 12/10 A3013 440 86 200 110/03 RMK AO2
14840KMKG MKG20060615050509206/15/06 05:05:31  5-MIN KMKG 151005Z 09003KT 10SM CLR 12/10 A3013 440 86 200 100/03 RMK AO2
14840KMKG MKG20060615051009206/15/06 05:10:31  5-MIN KMKG 151010Z 00000KT 10SM CLR 12/10 A3013 430 86 200 000/00 RMK AO2
14840KMKG MKG20060615051509206/15/06 05:15:31  5-MIN KMKG 151015Z 00000KT 10SM CLR 12/09 A3013 430 83 200 000/00 RMK AO2
14840KMKG MKG20060615052009206/15/06 05:20:31  5-MIN KMKG 151020Z 10003KT 10SM CLR 12/09 A3013 430 83 200 100/03 RMK AO2
14840KMKG MKG20060615052509206/15/06 05:25:31  5-MIN KMKG 151025Z 10004KT 10SM CLR 12/09 A3013 430 83 200 100/04 RMK AO2
14840KMKG MKG20060615053009206/15/06 05:30:31  5-MIN KMKG 151030Z 10005KT 10SM CLR 12/09 A3013 430 83 200 100/05 RMK AO2
14840KMKG MKG20060615053509206/15/06 05:35:31  5-MIN KMKG 151035Z 10005KT 10SM CLR 12/09 A3013 430 86 200 100/05 RMK AO2
14840KMKG MKG20060615054009206/15/06 05:40:31  5-MIN KMKG 151040Z 11004KT 10SM CLR 12/10 A3013 430 86 200 110/04 RMK AO2
14840KMKG MKG20060615054509206/15/06 05:45:31  5-MIN KMKG 151045Z 11004KT 10SM CLR 12/10 A3014 430 86 200 120/04 RMK AO2
14840KMKG MKG20060615055010906/15/06 05:50:31  5-MIN KMKG 151050Z 11004KT 10SM CLR 12/10 A3014 430 86 200 120/04 RMK AO2 SLP206 T01220100
14840KMKG MKG20060615055510906/15/06 05:55:31  5-MIN KMKG 151055Z 11003KT 10SM CLR 12/10 A3014 430 86 200 120/03 RMK AO2 SLP207 T01220100
14840KMKG MKG20060615060009206/15/06 06:00:31  5-MIN KMKG 151100Z 11003KT 10SM CLR 12/10 A3014 430 86 200 120/03 RMK AO2
14840KMKG MKG20060615060509206/15/06 06:05:31  5-MIN KMKG 151105Z 00000KT 10SM CLR 13/11 A3015 420 86 300 000/00 RMK AO2
14840KMKG MKG20060615061009206/15/06 06:10:31  5-MIN KMKG 151110Z 00000KT 10SM CLR 13/11 A3015 420 86 300 000/00 RMK AO2
14840KMKG MKG20060615061509206/15/06 06:15:31  5-MIN KMKG 151115Z 12005KT 10SM CLR 13/11 A3014 420 83 400 130/05 RMK AO2
14840KMKG MKG20060615062009206/15/06 06:20:31  5-MIN KMKG 151120Z 12005KT 10SM CLR 13/10 A3015 420 80 400 120/05 RMK AO2
14840KMKG MKG20060615062509206/15/06 06:25:31  5-MIN KMKG 151125Z 12005KT 10SM CLR 14/10 A3015 420 77 400 120/05 RMK AO2
14840KMKG MKG20060615063009506/15/06 06:30:31  5-MIN KMKG 151130Z 12005KT 10SM FEW060 14/11 A3015 420 77 500 120/05 RMK AO2
14840KMKG MKG20060615063509506/15/06 06:35:31  5-MIN KMKG 151135Z 12005KT 10SM SCT060 15/10 A3015 420 72 600 120/05 RMK AO2
14840KMKG MKG20060615064009506/15/06 06:40:31  5-MIN KMKG 151140Z 12006KT 10SM BKN060 15/10 A3015 420 72 600 130/06 RMK AO2
14840KMKG MKG20060615064509506/15/06 06:45:31  5-MIN KMKG 151145Z 12006KT 10SM BKN060 16/10 A3015 410 69 600 130/06 RMK AO2
14840KMKG MKG20060615065013006/15/06 06:50:31  5-MIN KMKG 151150Z 11006KT 10SM BKN060 16/10 A3015 410 67 700 110/06 RMK AO2 SLP210 T01610100 10161 20111 51003
14840KMKG MKG20060615140009606/15/06 14:00:31  5-MIN KMKG 151900Z 24008KT 10SM FEW070 26/11 A3013 440 38 1800 250/08 RMK AO2
14840KMKG MKG20060615140509606/15/06 14:05:31  5-MIN KMKG 151905Z 25009KT 10SM FEW070 26/11 A3013 440 38 1900 250/09 RMK AO2
14840KMKG MKG20060615141009606/15/06 14:10:31  5-MIN KMKG 151910Z 23010KT 10SM FEW070 26/11 A3013 440 37 1900 240/10 RMK AO2
14840KMKG MKG20060615141509606/15/06 14:15:31  5-MIN KMKG 151915Z 23010KT 10SM FEW070 26/11 A3013 440 37 1900 230/10 RMK AO2
14840KMKG MKG20060615142009606/15/06 14:20:31  5-MIN KMKG 151920Z 25010KT 10SM FEW090 27/11 A3013 440 37 1900 250/10 RMK AO2
14840KMKG MKG20060615142509606/15/06 14:25:31  5-MIN KMKG 151925Z 21009KT 10SM FEW090 27/11 A3013 440 37 1900 220/09 RMK AO2
14840KMKG MKG20060615143009606/15/06 14:30:31  5-MIN KMKG 151930Z 22010KT 10SM FEW090 26/11 A3013 440 38 1800 230/10 RMK AO2
14840KMKG MKG20060615143509606/15/06 14:35:31  5-MIN KMKG 151935Z 23009KT 10SM FEW090 26/11 A3013 440 38 1800 230/09 RMK AO2
14840KMKG MKG20060615144009606/15/06 14:40:31  5-MIN KMKG 151940Z 23009KT 10SM FEW090 25/11 A3012 440 41 1700 230/09 RMK AO2
14840KMKG MKG20060615144509606/15/06 14:45:31  5-MIN KMKG 151945Z 23008KT 10SM FEW090 25/11 A3012 450 41 1700 240/08 RMK AO2
14840KMKG MKG20060615145011306/15/06 14:50:31  5-MIN KMKG 151950Z 23008KT 10SM FEW090 26/11 A3012 450 40 1800 240/08 RMK AO2 SLP198 T02560111
14840KMKG MKG20060615145511306/15/06 14:55:31  5-MIN KMKG 151955Z 24008KT 10SM FEW090 26/11 A3012 450 40 1800 240/08 RMK AO2 SLP197 T02560111
14840KMKG MKG20060615150009606/15/06 15:00:31  5-MIN KMKG 152000Z 23008KT 10SM FEW095 26/11 A3012 450 40 1800 240/08 RMK AO2
14840KMKG MKG20060615150509606/15/06 15:05:31  5-MIN KMKG 152005Z 24007KT 10SM FEW095 26/12 A3012 450 41 1800 250/07 RMK AO2
14840KMKG MKG20060615151009606/15/06 15:10:31  5-MIN KMKG 152010Z 23009KT 10SM FEW095 26/12 A3012 450 41 1800 240/09 RMK AO2
14840KMKG MKG20060615151509606/15/06 15:15:31  5-MIN KMKG 152015Z 24009KT 10SM FEW095 25/11 A3012 450 41 1700 240/09 RMK AO2
14840KMKG MKG20060615152009606/15/06 15:20:31  5-MIN KMKG 152020Z 22009KT 10SM FEW095 25/11 A3012 450 41 1700 230/09 RMK AO2
14840KMKG MKG20060615152509606/15/06 15:25:31  5-MIN KMKG 152025Z 23008KT 10SM FEW095 25/11 A3012 450 41 1800 230/08 RMK AO2
14840KMKG MKG20060615153009606/15/06 15:30:31  5-MIN KMKG 152030Z 22009KT 10SM FEW100 26/11 A3011 450 40 1800 230/09 RMK AO2
14840KMKG MKG20060615153509606/15/06 15:35:31  5-MIN KMKG 152035Z 22008KT 10SM FEW095 25/11 A3011 450 41 1800 220/08 RMK AO2
14840KMKG MKG20060615154009606/15/06 15:40:31  5-MIN KMKG 152040Z 21007KT 10SM FEW095 25/12 A3011 450 43 1800 210/07 RMK AO2
14840KMKG MKG20060615154509606/15/06 15:45:31  5-MIN KMKG 152045Z 20008KT 10SM FEW095 26/12 A3011 460 41 1800 210/08 RMK AO2
14840KMKG MKG20060615155011906/15/06 15:50:31  5-MIN KMKG 152050Z 21008KT 10SM FEW095 26/12 A3011 460 41 1800 220/08 RMK AO2 SLP194 T02560117 58012
14840KMKG MKG20060615155511906/15/06 15:55:31  5-MIN KMKG 152055Z 20007KT 10SM FEW095 26/12 A3010 460 40 1900 200/07 RMK AO2 SLP192 T02610117 58012
14840KMKG MKG20060615160009306/15/06 16:00:31  5-MIN KMKG 152100Z 20006KT 10SM CLR 26/12 A3011 460 40 1900 200/06 RMK AO2
14840KMKG MKG20060615160509306/15/06 16:05:31  5-MIN KMKG 152105Z 21010KT 10SM CLR 26/12 A3010 460 40 1900 220/10 RMK AO2
14840KMKG MKG20060615161009306/15/06 16:10:31  5-MIN KMKG 152110Z 21009KT 10SM CLR 26/12 A3010 460 40 1900 210/09 RMK AO2
14840KMKG MKG20060615161509306/15/06 16:15:31  5-MIN KMKG 152115Z 20009KT 10SM CLR 26/12 A3010 460 40 1900 200/09 RMK AO2
14840KMKG MKG20060615162009306/15/06 16:20:31  5-MIN KMKG 152120Z 20009KT 10SM CLR 26/12 A3010 470 40 1900 210/09 RMK AO2
14840KMKG MKG20060615162509306/15/06 16:25:31  5-MIN KMKG 152125Z 19008KT 10SM CLR 26/12 A3010 470 41 1800 200/08 RMK AO2
14840KMKG MKG20060615163009306/15/06 16:30:31  5-MIN KMKG 152130Z 21007KT 10SM CLR 26/12 A3009 470 41 1800 210/07 RMK AO2
14840KMKG MKG20060615163509306/15/06 16:35:31  5-MIN KMKG 152135Z 20007KT 10SM CLR 26/12 A3009 470 40 1900 210/07 RMK AO2
14840KMKG MKG20060615164009306/15/06 16:40:31  5-MIN KMKG 152140Z 21009KT 10SM CLR 26/12 A3009 470 41 1800 210/09 RMK AO2
14840KMKG MKG20060615164509306/15/06 16:45:31  5-MIN KMKG 152145Z 21008KT 10SM CLR 26/12 A3009 470 40 1900 210/08 RMK AO2
14840KMKG MKG20060615165011006/15/06 16:50:31  5-MIN KMKG 152150Z 20009KT 10SM CLR 27/12 A3009 470 38 2000 200/09 RMK AO2 SLP188 T02670117
14840KMKG MKG20060615165511006/15/06 16:55:31  5-MIN KMKG 152155Z 21009KT 10SM CLR 27/12 A3009 470 38 2000 210/09 RMK AO2 SLP187 T02670117
14840KMKG MKG20060615170009606/15/06 17:00:31  5-MIN KMKG 152200Z 20008KT 10SM FEW095 27/12 A3009 470 38 2000 210/08 RMK AO2
14840KMKG MKG20060615170509606/15/06 17:05:31  5-MIN KMKG 152205Z 21009KT 10SM FEW095 27/12 A3009 480 38 2000 210/09 RMK AO2
14840KMKG MKG20060615171009606/15/06 17:10:31  5-MIN KMKG 152210Z 21009KT 10SM FEW095 27/12 A3009 470 38 2000 210/09 RMK AO2
14840KMKG MKG20060615171509606/15/06 17:15:31  5-MIN KMKG 152215Z 23009KT 10SM FEW095 27/11 A3009 480 36 2000 240/09 RMK AO2
14840KMKG MKG20060615172009606/15/06 17:20:31  5-MIN KMKG 152220Z 22011KT 10SM FEW095 27/11 A3009 480 36 2000 220/11 RMK AO2
14840KMKG MKG20060615172509606/15/06 17:25:31  5-MIN KMKG 152225Z 21009KT 10SM FEW095 27/11 A3009 480 37 2000 220/09 RMK AO2
14840KMKG MKG20060615173009606/15/06 17:30:31  5-MIN KMKG 152230Z 21009KT 10SM FEW095 26/11 A3008 480 38 1900 210/09 RMK AO2
14840KMKG MKG20060615173509606/15/06 17:35:31  5-MIN KMKG 152235Z 21009KT 10SM FEW095 26/11 A3008 480 38 1900 210/09 RMK AO2
14840KMKG MKG20060615174009606/15/06 17:40:31  5-MIN KMKG 152240Z 21007KT 10SM FEW095 26/12 A3008 480 40 1900 210/07 RMK AO2
14840KMKG MKG20060615174509606/15/06 17:45:31  5-MIN KMKG 152245Z 20007KT 10SM FEW095 26/12 A3008 480 40 1900 210/07 RMK AO2
14840KMKG MKG20060615175011306/15/06 17:50:31  5-MIN KMKG 152250Z 21008KT 10SM FEW095 27/12 A3008 480 38 2000 210/08 RMK AO2 SLP185 T02670117
14840KMKG MKG20060615175511306/15/06 17:55:31  5-MIN KMKG 152255Z 19008KT 10SM FEW090 27/12 A3009 480 38 2000 200/08 RMK AO2 SLP186 T02670117
14840KMKG MKG20060615180009306/15/06 18:00:31  5-MIN KMKG 152300Z 20006KT 10SM CLR 27/12 A3009 480 38 2000 200/06 RMK AO2
14840KMKG MKG20060615180509306/15/06 18:05:31  5-MIN KMKG 152305Z 20009KT 10SM CLR 27/12 A3009 480 38 2000 210/09 RMK AO2
14840KMKG MKG20060615181010906/15/06 18:10:31  5-MIN KMKG 152310Z 19007KT 150V210 10SM CLR 26/12 A3008 480 40 1900 200/07 150V210 RMK AO2
14840KMKG MKG20060615181509306/15/06 18:15:31  5-MIN KMKG 152315Z 21008KT 10SM CLR 26/12 A3008 480 40 1900 220/08 RMK AO2
14840KMKG MKG20060615182009306/15/06 18:20:31  5-MIN KMKG 152320Z 20008KT 10SM CLR 26/12 A3008 480 41 1900 200/08 RMK AO2
14840KMKG MKG20060615182509306/15/06 18:25:31  5-MIN KMKG 152325Z 21007KT 10SM CLR 26/12 A3008 480 43 1800 210/07 RMK AO2
14840KMKG MKG20060615183009306/15/06 18:30:31  5-MIN KMKG 152330Z 20007KT 10SM CLR 26/12 A3008 480 41 1800 200/07 RMK AO2
14840KMKG MKG20060615183509306/15/06 18:35:31  5-MIN KMKG 152335Z 21008KT 10SM CLR 26/12 A3008 480 43 1800 210/08 RMK AO2
14840KMKG MKG20060615184009306/15/06 18:40:31  5-MIN KMKG 152340Z 20006KT 10SM CLR 26/12 A3008 480 43 1900 210/06 RMK AO2
14840KMKG MKG20060615184509306/15/06 18:45:31  5-MIN KMKG 152345Z 19007KT 10SM CLR 26/12 A3008 480 43 1900 200/07 RMK AO2
14840KMKG MKG20060615185012806/15/06 18:50:31  5-MIN KMKG 152350Z 20007KT 10SM CLR 25/12 A3008 480 44 1800 200/07 RMK AO2 SLP185 T02500122 10272 20250 58012
14840KMKG MKG20060615185512806/15/06 18:55:31  5-MIN KMKG 152355Z 20006KT 10SM CLR 25/12 A3008 480 44 1800 200/06 RMK AO2 SLP185 T02500122 10272 20250 56007
14840KMKG MKG20060615190009306/15/06 19:00:31  5-MIN KMKG 160000Z 20006KT 10SM CLR 25/12 A3008 480 44 1800 200/06 RMK AO2
14840KMKG MKG20060615190509306/15/06 19:05:31  5-MIN KMKG 160005Z 19005KT 10SM CLR 25/12 A3008 480 44 1800 190/05 RMK AO2
14840KMKG MKG20060615191009306/15/06 19:10:31  5-MIN KMKG 160010Z 19005KT 10SM CLR 25/12 A3008 480 44 1800 200/05 RMK AO2
14840KMKG MKG20060615191509306/15/06 19:15:31  5-MIN KMKG 160015Z 18005KT 10SM CLR 25/12 A3008 490 44 1800 190/05 RMK AO2
14840KMKG MKG20060615192009306/15/06 19:20:31  5-MIN KMKG 160020Z 18005KT 10SM CLR 25/12 A3008 490 44 1800 180/05 RMK AO2
14840KMKG MKG20060615192509306/15/06 19:25:31  5-MIN KMKG 160025Z 18005KT 10SM CLR 25/12 A3008 490 44 1800 180/05 RMK AO2
14840KMKG MKG20060615193009306/15/06 19:30:31  5-MIN KMKG 160030Z 18004KT 10SM CLR 25/12 A3008 490 44 1800 180/04 RMK AO2
14840KMKG MKG20060615193509306/15/06 19:35:31  5-MIN KMKG 160035Z 18004KT 10SM CLR 25/12 A3007 490 44 1800 180/04 RMK AO2
14840KMKG MKG20060615194009306/15/06 19:40:31  5-MIN KMKG 160040Z 15005KT 10SM CLR 24/13 A3007 490 47 1700 160/05 RMK AO2
14840KMKG MKG20060615194509306/15/06 19:45:31  5-MIN KMKG 160045Z 15004KT 10SM CLR 24/13 A3007 490 47 1700 160/04 RMK AO2
14840KMKG MKG20060615195011306/15/06 19:50:31  5-MIN KMKG 160050Z 16005KT 10SM FEW120 24/12 A3007 490 46 1700 160/05 RMK AO2 SLP180 T02440122
14840KMKG MKG20060615195511306/15/06 19:55:31  5-MIN KMKG 160055Z 16004KT 10SM FEW120 24/12 A3007 490 47 1700 160/04 RMK AO2 SLP179 T02390122
14840KMKG MKG20060615200009306/15/06 20:00:31  5-MIN KMKG 160100Z 16004KT 10SM CLR 24/12 A3007 500 47 1700 160/04 RMK AO2
14840KMKG MKG20060615200509306/15/06 20:05:31  5-MIN KMKG 160105Z 15003KT 10SM CLR 24/12 A3007 500 47 1700 160/03 RMK AO2
14840KMKG MKG20060615201009306/15/06 20:10:31  5-MIN KMKG 160110Z 14004KT 10SM CLR 24/12 A3006 500 47 1700 150/04 RMK AO2
14840KMKG MKG20060615201509306/15/06 20:15:31  5-MIN KMKG 160115Z 13003KT 10SM CLR 23/13 A3006 500 51 1600 130/03 RMK AO2
14840KMKG MKG20060615202009306/15/06 20:20:31  5-MIN KMKG 160120Z 13004KT 10SM CLR 23/13 A3006 500 51 1600 130/04 RMK AO2
14840KMKG MKG20060615202509306/15/06 20:25:31  5-MIN KMKG 160125Z 12004KT 10SM CLR 23/13 A3006 500 51 1600 120/04 RMK AO2
14840KMKG MKG20060615203009306/15/06 20:30:31  5-MIN KMKG 160130Z 11004KT 10SM CLR 23/13 A3006 500 53 1600 120/04 RMK AO2
14840KMKG MKG20060615203509306/15/06 20:35:31  5-MIN KMKG 160135Z 11004KT 10SM CLR 22/13 A3006 500 56 1500 120/04 RMK AO2
14840KMKG MKG20060615204009306/15/06 20:40:31  5-MIN KMKG 160140Z 12004KT 10SM CLR 23/13 A3006 500 55 1600 120/04 RMK AO2
14840KMKG MKG20060615204509606/15/06 20:45:31  5-MIN KMKG 160145Z 12004KT 10SM FEW120 23/13 A3006 500 55 1600 130/04 RMK AO2
14840KMKG MKG20060615205011306/15/06 20:50:31  5-MIN KMKG 160150Z 14003KT 10SM FEW120 22/13 A3006 500 56 1500 140/03 RMK AO2 SLP177 T02220133
14840KMKG MKG20060615205511306/15/06 20:55:31  5-MIN KMKG 160155Z 15004KT 10SM FEW120 23/13 A3006 500 55 1600 150/04 RMK AO2 SLP177 T02280133
14840KMKG MKG20060615210009306/15/06 21:00:31  5-MIN KMKG 160200Z 14003KT 10SM CLR 22/13 A3006 500 56 1500 150/03 RMK AO2
14840KMKG MKG20060615210509306/15/06 21:05:31  5-MIN KMKG 160205Z 14003KT 10SM CLR 23/13 A3007 500 55 1600 150/03 RMK AO2
14840KMKG MKG20060615211009306/15/06 21:10:31  5-MIN KMKG 160210Z 14004KT 10SM CLR 22/13 A3007 500 56 1500 140/04 RMK AO2
14840KMKG MKG20060615211509306/15/06 21:15:31  5-MIN KMKG 160215Z 14006KT 10SM CLR 22/14 A3007 490 61 1400 140/06 RMK AO2
14840KMKG MKG20060615212009306/15/06 21:20:31  5-MIN KMKG 160220Z 14006KT 10SM CLR 21/14 A3007 500 63 1400 140/06 RMK AO2
14840KMKG MKG20060615212509306/15/06 21:25:31  5-MIN KMKG 160225Z 14006KT 10SM CLR 21/14 A3007 500 63 1400 140/06 RMK AO2
14840KMKG MKG20060615213009306/15/06 21:30:31  5-MIN KMKG 160230Z 14005KT 10SM CLR 21/14 A3007 500 63 1400 140/05 RMK AO2
14840KMKG MKG20060615213509306/15/06 21:35:31  5-MIN KMKG 160235Z 14005KT 10SM CLR 21/14 A3006 500 63 1400 140/05 RMK AO2
14840KMKG MKG20060615214009306/15/06 21:40:31  5-MIN KMKG 160240Z 15005KT 10SM CLR 21/14 A3007 490 63 1400 150/05 RMK AO2
14840KMKG MKG20060615214509306/15/06 21:45:31  5-MIN KMKG 160245Z 15005KT 10SM CLR 22/14 A3007 490 61 1400 160/05 RMK AO2
14840KMKG MKG20060615215011606/15/06 21:50:31  5-MIN KMKG 160250Z 15005KT 10SM CLR 22/14 A3007 490 59 1500 150/05 RMK AO2 SLP180 T02220139 56007
14840KMKG MKG20060615215511606/15/06 21:55:31  5-MIN KMKG 160255Z 15005KT 10SM CLR 22/13 A3007 490 56 1500 160/05 RMK AO2 SLP180 T02220133 55004
14840KMKG MKG20060615220009306/15/06 22:00:31  5-MIN KMKG 160300Z 14006KT 10SM CLR 22/14 A3007 490 61 1400 150/06 RMK AO2
14840KMKG MKG20060615220509306/15/06 22:05:31  5-MIN KMKG 160305Z 13006KT 10SM CLR 21/14 A3007 500 65 1300 130/06 RMK AO2
14840KMKG MKG20060615221009306/15/06 22:10:31  5-MIN KMKG 160310Z 13006KT 10SM CLR 21/14 A3007 490 65 1300 130/06 RMK AO2
14840KMKG MKG20060615221509306/15/06 22:15:31  5-MIN KMKG 160315Z 13006KT 10SM CLR 21/14 A3007 500 65 1300 140/06 RMK AO2
14840KMKG MKG20060615222009306/15/06 22:20:31  5-MIN KMKG 160320Z 14005KT 10SM CLR 21/14 A3007 490 65 1300 140/05 RMK AO2
14840KMKG MKG20060615222509306/15/06 22:25:31  5-MIN KMKG 160325Z 15004KT 10SM CLR 21/14 A3007 490 65 1300 150/04 RMK AO2
14840KMKG MKG20060615223009306/15/06 22:30:31  5-MIN KMKG 160330Z 15004KT 10SM CLR 21/14 A3008 490 65 1300 160/04 RMK AO2
14840KMKG MKG20060615223509306/15/06 22:35:31  5-MIN KMKG 160335Z 15003KT 10SM CLR 21/14 A3008 480 63 1300 150/03 RMK AO2
14840KMKG MKG20060615224009306/15/06 22:40:31  5-MIN KMKG 160340Z 14003KT 10SM CLR 21/14 A3008 490 65 1300 140/03 RMK AO2
14840KMKG MKG20060615224509306/15/06 22:45:31  5-MIN KMKG 160345Z 14004KT 10SM CLR 21/14 A3007 490 65 1300 140/04 RMK AO2
14840KMKG MKG20060615225011006/15/06 22:50:31  5-MIN KMKG 160350Z 15004KT 10SM CLR 21/14 A3008 490 65 1300 150/04 RMK AO2 SLP181 T02060139
14840KMKG MKG20060615225511006/15/06 22:55:31  5-MIN KMKG 160355Z 14004KT 10SM CLR 21/14 A3007 490 65 1300 140/04 RMK AO2 SLP181 T02060139
14840KMKG MKG20060615230009306/15/06 23:00:31  5-MIN KMKG 160400Z 13005KT 10SM CLR 20/14 A3007 490 67 1200 130/05 RMK AO2
14840KMKG MKG20060615230509306/15/06 23:05:31  5-MIN KMKG 160405Z 12005KT 10SM CLR 19/14 A3007 490 70 1200 130/05 RMK AO2
14840KMKG MKG20060615231009306/15/06 23:10:31  5-MIN KMKG 160410Z 13004KT 10SM CLR 19/14 A3007 490 70 1200 130/04 RMK AO2
14840KMKG MKG20060615231509306/15/06 23:15:31  5-MIN KMKG 160415Z 14004KT 10SM CLR 19/14 A3007 490 70 1200 140/04 RMK AO2
14840KMKG MKG20060615232009306/15/06 23:20:31  5-MIN KMKG 160420Z 14004KT 10SM CLR 20/14 A3007 490 67 1200 140/04 RMK AO2
14840KMKG MKG20060615232509306/15/06 23:25:31  5-MIN KMKG 160425Z 15004KT 10SM CLR 20/14 A3008 490 67 1200 150/04 RMK AO2
14840KMKG MKG20060615233009306/15/06 23:30:31  5-MIN KMKG 160430Z 15004KT 10SM CLR 19/14 A3008 490 70 1200 150/04 RMK AO2
14840KMKG MKG20060615233509306/15/06 23:35:31  5-MIN KMKG 160435Z 15005KT 10SM CLR 19/14 A3007 490 72 1200 160/05 RMK AO2
14840KMKG MKG20060615234009306/15/06 23:40:31  5-MIN KMKG 160440Z 16005KT 10SM CLR 19/14 A3007 490 72 1200 160/05 RMK AO2
14840KMKG MKG20060615234509306/15/06 23:45:31  5-MIN KMKG 160445Z 16005KT 10SM CLR 20/14 A3007 490 70 1200 160/05 RMK AO2
14840KMKG MKG20060615235012006/15/06 23:50:31  5-MIN KMKG 160450Z 16006KT 10SM CLR 20/14 A3007 490 70 1200 160/06 RMK AO2 SLP180 T02000144 402720111
14840KMKG MKG20060615235512006/15/06 23:55:31  5-MIN KMKG 160455Z 16006KT 10SM CLR 21/14 A3007 490 67 1300 170/06 RMK AO2 SLP180 T02060144 402720111
14840KMKG MKG20060616000009306/16/06 00:00:32  5-MIN KMKG 160500Z 16006KT 10SM CLR 21/14 A3007 490 67 1300 160/06 RMK AO2
14840KMKG MKG20060616000509306/16/06 00:05:31  5-MIN KMKG 160505Z 15005KT 10SM CLR 21/14 A3007 490 67 1300 160/05 RMK AO2
14840KMKG MKG20060616001009306/16/06 00:10:31  5-MIN KMKG 160510Z 15005KT 10SM CLR 20/14 A3007 490 70 1200 150/05 RMK AO2
14840KMKG MKG20060616001509306/16/06 00:15:31  5-MIN KMKG 160515Z 14006KT 10SM CLR 19/14 A3007 490 72 1200 150/06 RMK AO2
14840KMKG MKG20060616002009306/16/06 00:20:31  5-MIN KMKG 160520Z 14007KT 10SM CLR 19/14 A3007 490 72 1200 150/07 RMK AO2
14840KMKG MKG20060616002509306/16/06 00:25:31  5-MIN KMKG 160525Z 14007KT 10SM CLR 19/14 A3007 490 72 1200 150/07 RMK AO2
14840KMKG MKG20060616003009306/16/06 00:30:31  5-MIN KMKG 160530Z 14007KT 10SM CLR 19/14 A3007 500 72 1200 150/07 RMK AO2
14840KMKG MKG20060616003509306/16/06 00:35:31  5-MIN KMKG 160535Z 14007KT 10SM CLR 20/14 A3006 500 70 1200 150/07 RMK AO2
14840KMKG MKG20060616004009306/16/06 00:40:31  5-MIN KMKG 160540Z 15008KT 10SM CLR 20/14 A3006 500 70 1200 150/08 RMK AO2
14840KMKG MKG20060616004509306/16/06 00:45:31  5-MIN KMKG 160545Z 15008KT 10SM CLR 21/14 A3006 500 67 1300 150/08 RMK AO2
14840KMKG MKG20060616005012806/16/06 00:50:31  5-MIN KMKG 160550Z 15008KT 10SM CLR 21/14 A3006 500 67 1300 150/08 RMK AO2 SLP176 T02060144 10250 20194 55004
14840KMKG MKG20060616005512806/16/06 00:55:31  5-MIN KMKG 160555Z 15007KT 10SM CLR 21/14 A3006 500 67 1300 150/07 RMK AO2 SLP176 T02060144 10250 20194 58004
14840KMKG MKG20060616010009306/16/06 01:00:31  5-MIN KMKG 160600Z 15007KT 10SM CLR 21/14 A3006 500 67 1300 150/07 RMK AO2
14840KMKG MKG20060616010509306/16/06 01:05:31  5-MIN KMKG 160605Z 15007KT 10SM CLR 21/14 A3006 500 67 1300 160/07 RMK AO2
14840KMKG MKG20060616011009306/16/06 01:10:31  5-MIN KMKG 160610Z 15006KT 10SM CLR 21/14 A3007 500 67 1300 160/06 RMK AO2
14840KMKG MKG20060616011509306/16/06 01:15:31  5-MIN KMKG 160615Z 15006KT 10SM CLR 21/14 A3006 500 67 1300 150/06 RMK AO2
14840KMKG MKG20060616012009306/16/06 01:20:31  5-MIN KMKG 160620Z 15006KT 10SM CLR 21/14 A3007 500 67 1300 150/06 RMK AO2
14840KMKG MKG20060616012509306/16/06 01:25:31  5-MIN KMKG 160625Z 15006KT 10SM CLR 21/14 A3007 500 67 1300 160/06 RMK AO2
14840KMKG MKG20060616013009306/16/06 01:30:31  5-MIN KMKG 160630Z 15007KT 10SM CLR 21/14 A3006 500 67 1300 150/07 RMK AO2
14840KMKG MKG20060616013509306/16/06 01:35:31  5-MIN KMKG 160635Z 15007KT 10SM CLR 21/14 A3006 500 67 1300 150/07 RMK AO2
14840KMKG MKG20060616014009306/16/06 01:40:31  5-MIN KMKG 160640Z 15007KT 10SM CLR 21/14 A3006 500 67 1300 150/07 RMK AO2
14840KMKG MKG20060616014509306/16/06 01:45:31  5-MIN KMKG 160645Z 15007KT 10SM CLR 21/14 A3006 500 67 1300 160/07 RMK AO2
14840KMKG MKG20060616015011006/16/06 01:50:31  5-MIN KMKG 160650Z 15007KT 10SM CLR 21/14 A3005 510 67 1300 160/07 RMK AO2 SLP174 T02060144
14840KMKG MKG20060616015511006/16/06 01:55:31  5-MIN KMKG 160655Z 15006KT 10SM CLR 21/14 A3005 510 67 1300 160/06 RMK AO2 SLP174 T02060144
14840KMKG MKG20060616020009306/16/06 02:00:31  5-MIN KMKG 160700Z 16007KT 10SM CLR 21/14 A3006 500 65 1400 170/07 RMK AO2
14840KMKG MKG20060616020509306/16/06 02:05:31  5-MIN KMKG 160705Z 16007KT 10SM CLR 21/14 A3006 500 65 1400 170/07 RMK AO2
14840KMKG MKG20060616021009306/16/06 02:10:31  5-MIN KMKG 160710Z 16006KT 10SM CLR 21/14 A3006 500 65 1400 160/06 RMK AO2
14840KMKG MKG20060616021509306/16/06 02:15:31  5-MIN KMKG 160715Z 16007KT 10SM CLR 21/14 A3006 500 65 1400 160/07 RMK AO2
14840KMKG MKG20060616022009306/16/06 02:20:31  5-MIN KMKG 160720Z 16006KT 10SM CLR 21/14 A3006 500 65 1400 160/06 RMK AO2
14840KMKG MKG20060616022509306/16/06 02:25:31  5-MIN KMKG 160725Z 15007KT 10SM CLR 21/14 A3006 500 65 1400 150/07 RMK AO2
14840KMKG MKG20060616023009306/16/06 02:30:31  5-MIN KMKG 160730Z 15006KT 10SM CLR 21/14 A3006 500 67 1300 160/06 RMK AO2
14840KMKG MKG20060616023509306/16/06 02:35:31  5-MIN KMKG 160735Z 16007KT 10SM CLR 21/14 A3006 500 65 1400 160/07 RMK AO2
14840KMKG MKG20060616024009306/16/06 02:40:31  5-MIN KMKG 160740Z 16005KT 10SM CLR 21/14 A3006 500 65 1400 160/05 RMK AO2
14840KMKG MKG20060616024509306/16/06 02:45:31  5-MIN KMKG 160745Z 16006KT 10SM CLR 21/14 A3006 500 63 1400 160/06 RMK AO2
14840KMKG MKG20060616025011006/16/06 02:50:31  5-MIN KMKG 160750Z 15007KT 10SM CLR 21/14 A3007 500 63 1400 160/07 RMK AO2 SLP178 T02110139
14840KMKG MKG20060616025511006/16/06 02:55:31  5-MIN KMKG 160755Z 16007KT 10SM CLR 21/14 A3007 500 63 1400 160/07 RMK AO2 SLP178 T02110139
14840KMKG MKG20060616030009306/16/06 03:00:31  5-MIN KMKG 160800Z 16009KT 10SM CLR 21/14 A3006 500 63 1400 170/09 RMK AO2
14840KMKG MKG20060616030509306/16/06 03:05:31  5-MIN KMKG 160805Z 17008KT 10SM CLR 22/14 A3006 510 61 1400 170/08 RMK AO2
14840KMKG MKG20060616031009306/16/06 03:10:31  5-MIN KMKG 160810Z 17009KT 10SM CLR 22/14 A3005 510 61 1400 180/09 RMK AO2
14840KMKG MKG20060616031509306/16/06 03:15:31  5-MIN KMKG 160815Z 18010KT 10SM CLR 22/14 A3006 500 59 1500 180/10 RMK AO2
14840KMKG MKG20060616032009306/16/06 03:20:31  5-MIN KMKG 160820Z 17009KT 10SM CLR 22/14 A3006 500 59 1500 180/09 RMK AO2
14840KMKG MKG20060616032509306/16/06 03:25:31  5-MIN KMKG 160825Z 18010KT 10SM CLR 23/13 A3006 500 55 1600 190/10 RMK AO2
14840KMKG MKG20060616033009306/16/06 03:30:31  5-MIN KMKG 160830Z 18009KT 10SM CLR 23/13 A3006 500 55 1600 180/09 RMK AO2
14840KMKG MKG20060616033509306/16/06 03:35:31  5-MIN KMKG 160835Z 19012KT 10SM CLR 23/13 A3006 500 53 1600 200/12 RMK AO2
14840KMKG MKG20060616034009906/16/06 03:40:31  5-MIN KMKG 160840Z 19012G18KT 10SM CLR 23/13 A3007 500 53 1600 200/12G18 RMK AO2
14840KMKG MKG20060616034509306/16/06 03:45:31  5-MIN KMKG 160845Z 19013KT 10SM CLR 23/13 A3007 490 53 1600 200/13 RMK AO2
14840KMKG MKG20060616035011606/16/06 03:50:31  5-MIN KMKG 160850Z 19014KT 10SM CLR 24/13 A3007 490 51 1700 190/14 RMK AO2 SLP179 T02390133 58004
14840KMKG MKG20060616035511606/16/06 03:55:31  5-MIN KMKG 160855Z 19014KT 10SM CLR 24/13 A3007 490 51 1700 190/14 RMK AO2 SLP178 T02390133 53003
14840KMKG MKG20060616040009306/16/06 04:00:31  5-MIN KMKG 160900Z 20011KT 10SM CLR 23/13 A3007 490 53 1600 210/11 RMK AO2
14840KMKG MKG20060616040509306/16/06 04:05:31  5-MIN KMKG 160905Z 19013KT 10SM CLR 23/13 A3007 490 53 1600 200/13 RMK AO2
14840KMKG MKG20060616041009306/16/06 04:10:31  5-MIN KMKG 160910Z 20013KT 10SM CLR 23/13 A3008 490 53 1600 200/13 RMK AO2
14840KMKG MKG20060616041509306/16/06 04:15:31  5-MIN KMKG 160915Z 20011KT 10SM CLR 23/13 A3008 480 53 1600 210/11 RMK AO2
14840KMKG MKG20060616042009306/16/06 04:20:31  5-MIN KMKG 160920Z 19013KT 10SM CLR 23/13 A3008 480 53 1600 200/13 RMK AO2
14840KMKG MKG20060616042509306/16/06 04:25:31  5-MIN KMKG 160925Z 19014KT 10SM CLR 23/13 A3008 480 53 1600 190/14 RMK AO2
14840KMKG MKG20060616043009906/16/06 04:30:31  5-MIN KMKG 160930Z 19013G20KT 10SM CLR 23/13 A3008 480 53 1600 200/13G20 RMK AO2
14840KMKG MKG20060616043509906/16/06 04:35:31  5-MIN KMKG 160935Z 20013G20KT 10SM CLR 23/13 A3009 480 53 1600 200/13G20 RMK AO2
14840KMKG MKG20060616044009306/16/06 04:40:31  5-MIN KMKG 160940Z 20011KT 10SM CLR 23/13 A3009 470 53 1600 210/11 RMK AO2
14840KMKG MKG20060616044509306/16/06 04:45:31  5-MIN KMKG 160945Z 19013KT 10SM CLR 23/13 A3009 470 53 1600 200/13 RMK AO2
14840KMKG MKG20060616045011006/16/06 04:50:31  5-MIN KMKG 160950Z 20011KT 10SM CLR 23/13 A3009 470 53 1600 200/11 RMK AO2 SLP186 T02330133
14840KMKG MKG20060616045511006/16/06 04:55:31  5-MIN KMKG 160955Z 20010KT 10SM CLR 23/13 A3010 460 53 1600 200/10 RMK AO2 SLP189 T02330133
14840KMKG MKG20060616050009306/16/06 05:00:31  5-MIN KMKG 161000Z 20009KT 10SM CLR 23/13 A3010 460 55 1500 200/09 RMK AO2
14840KMKG MKG20060616050510906/16/06 05:05:31  5-MIN KMKG 161005Z 19011KT 10SM -RA CLR 23/14 A3010 470 57 1500 200/11 RMK AO2 RAB03 P0000
14840KMKG MKG20060616051010906/16/06 05:10:31  5-MIN KMKG 161010Z 19008KT 10SM -RA CLR 23/13 A3010 460 55 1500 200/08 RMK AO2 RAB03 P0000
14840KMKG MKG20060616051511106/16/06 05:15:31  5-MIN KMKG 161015Z 19010KT 10SM FEW065 23/13 A3010 460 55 1500 200/10 RMK AO2 RAB03E13 P0000
14840KMKG MKG20060616052011106/16/06 05:20:31  5-MIN KMKG 161020Z 19010KT 10SM FEW060 23/14 A3010 470 57 1500 190/10 RMK AO2 RAB03E13 P0000
14840KMKG MKG20060616052511206/16/06 05:25:31  5-MIN KMKG 161025Z 20011KT 10SM -RA FEW060 23/14 A3010 470 57 1500 200/11 RMK AO2 RAB03 P0000
14840KMKG MKG20060616053011906/16/06 05:30:31  5-MIN KMKG 161030Z 18013KT 10SM -RA FEW065 SCT085 23/14 A3009 470 57 1500 190/13 RMK AO2 RAB03 P0000
14840KMKG MKG20060616053511806/16/06 05:35:31  5-MIN KMKG 161035Z 19011KT 10SM FEW065 SCT085 23/14 A3009 470 57 1500 190/11 RMK AO2 RAB03E31 P0000
14840KMKG MKG20060616054011106/16/06 05:40:31  5-MIN KMKG 161040Z 18012KT 10SM FEW065 23/14 A3009 470 57 1500 190/12 RMK AO2 RAB03E31 P0000
14840KMKG MKG20060616054511106/16/06 05:45:31  5-MIN KMKG 161045Z 19012KT 10SM FEW080 23/14 A3009 470 57 1500 190/12 RMK AO2 RAB03E31 P0000
14840KMKG MKG20060616055012806/16/06 05:50:31  5-MIN KMKG 161050Z 19011KT 10SM FEW090 23/14 A3009 480 57 1500 190/11 RMK AO2 RAB03E31 SLP185 P0000 T02280139
14840KMKG MKG20060616055512806/16/06 05:55:31  5-MIN KMKG 161055Z 19014KT 10SM FEW090 23/14 A3009 480 57 1500 200/14 RMK AO2 RAB03E31 SLP185 P0000 T02280139
14840KMKG MKG20060616060009306/16/06 06:00:31  5-MIN KMKG 161100Z 19014KT 10SM CLR 23/14 A3008 480 57 1500 200/14 RMK AO2
14840KMKG MKG20060616060509306/16/06 06:05:31  5-MIN KMKG 161105Z 19011KT 10SM CLR 23/14 A3008 480 57 1500 200/11 RMK AO2
14840KMKG MKG20060616061009906/16/06 06:10:31  5-MIN KMKG 161110Z 20014G19KT 10SM CLR 23/14 A3008 480 57 1500 200/14G19 RMK AO2
14840KMKG MKG20060616061510206/16/06 06:15:31  5-MIN KMKG 161115Z 20013G19KT 10SM FEW085 23/14 A3009 480 57 1500 200/13G19 RMK AO2
14840KMKG MKG20060616062009606/16/06 06:20:31  5-MIN KMKG 161120Z 19011KT 10SM FEW085 23/14 A3009 470 59 1500 200/11 RMK AO2
14840KMKG MKG20060616062510206/16/06 06:25:31  5-MIN KMKG 161125Z 19011G18KT 10SM FEW085 23/14 A3009 470 59 1500 200/11G18 RMK AO2
14840KMKG MKG20060616063009906/16/06 06:30:31  5-MIN KMKG 161130Z 20013G20KT 10SM CLR 23/14 A3009 470 59 1500 200/13G20 RMK AO2
14840KMKG MKG20060616063509906/16/06 06:35:31  5-MIN KMKG 161135Z 19015G20KT 10SM CLR 23/14 A3009 470 57 1600 200/15G20 RMK AO2
14840KMKG MKG20060616064009906/16/06 06:40:31  5-MIN KMKG 161140Z 20012G20KT 10SM CLR 23/14 A3009 470 57 1600 200/12G20 RMK AO2
14840KMKG MKG20060616064509906/16/06 06:45:31  5-MIN KMKG 161145Z 19012G18KT 10SM CLR 23/14 A3009 470 57 1600 200/12G18 RMK AO2
14840KMKG MKG20060616065014306/16/06 06:50:31  5-MIN KMKG 161150Z 20013G18KT 10SM SCT090 23/14 A3009 470 57 1600 200/13G18 RMK AO2 SLP187 60000 T02330144 10239 20206 53003
14840KMKG MKG20060616065513706/16/06 06:55:31  5-MIN KMKG 161155Z 20012KT 10SM SCT090 23/14 A3010 470 57 1600 200/12 RMK AO2 SLP187 60000 T02330144 10239 20206 51009
14840KMKG MKG20060616070009906/16/06 07:00:31  5-MIN KMKG 161200Z 20013G19KT 10SM CLR 23/14 A3010 470 57 1600 200/13G19 RMK AO2
14840KMKG MKG20060616070509906/16/06 07:05:31  5-MIN KMKG 161205Z 20012G19KT 10SM CLR 23/14 A3010 470 57 1600 200/12G19 RMK AO2
14840KMKG MKG20060616071009306/16/06 07:10:31  5-MIN KMKG 161210Z 20014KT 10SM CLR 23/14 A3010 470 57 1600 200/14 RMK AO2
14840KMKG MKG20060616071509906/16/06 07:15:31  5-MIN KMKG 161215Z 20013G19KT 10SM CLR 23/14 A3010 470 57 1600 200/13G19 RMK AO2
14840KMKG MKG20060616072009906/16/06 07:20:31  5-MIN KMKG 161220Z 19015G22KT 10SM CLR 23/14 A3010 470 57 1600 200/15G22 RMK AO2
14840KMKG MKG20060616072509906/16/06 07:25:31  5-MIN KMKG 161225Z 20014G22KT 10SM CLR 23/14 A3010 470 57 1600 200/14G22 RMK AO2
14840KMKG MKG20060616073009306/16/06 07:30:31  5-MIN KMKG 161230Z 20015KT 10SM CLR 23/14 A3009 470 57 1600 200/15 RMK AO2
14840KMKG MKG20060616073509306/16/06 07:35:31  5-MIN KMKG 161235Z 19015KT 10SM CLR 24/14 A3009 470 55 1600 200/15 RMK AO2
14840KMKG MKG20060616074009906/16/06 07:40:31  5-MIN KMKG 161240Z 20014G20KT 10SM CLR 24/15 A3009 470 57 1700 200/14G20 RMK AO2
14840KMKG MKG20060616074509906/16/06 07:45:31  5-MIN KMKG 161245Z 20015G20KT 10SM CLR 24/15 A3009 470 57 1700 200/15G20 RMK AO2
14840KMKG MKG20060616075011606/16/06 07:50:31  5-MIN KMKG 161250Z 19016G20KT 10SM CLR 24/15 A3009 480 55 1700 200/16G20 RMK AO2 SLP185 T02440150
14840KMKG MKG20060616075511606/16/06 07:55:31  5-MIN KMKG 161255Z 20014G20KT 10SM CLR 24/15 A3009 480 55 1700 200/14G20 RMK AO2 SLP184 T02440150
14840KMKG MKG20060616080009906/16/06 08:00:31  5-MIN KMKG 161300Z 20017G20KT 10SM CLR 24/15 A3009 480 55 1700 200/17G20 RMK AO2
14840KMKG MKG20060616080509906/16/06 08:05:31  5-MIN KMKG 161305Z 20013G20KT 10SM CLR 24/15 A3009 480 55 1700 200/13G20 RMK AO2
14840KMKG MKG20060616081009306/16/06 08:10:31  5-MIN KMKG 161310Z 19014KT 10SM CLR 24/15 A3009 480 55 1700 200/14 RMK AO2
14840KMKG MKG20060616081509906/16/06 08:15:31  5-MIN KMKG 161315Z 20018G23KT 10SM CLR 25/15 A3009 480 53 1800 210/18G23 RMK AO2
14840KMKG MKG20060616082009906/16/06 08:20:31  5-MIN KMKG 161320Z 19014G23KT 10SM CLR 25/15 A3009 480 53 1800 190/14G23 RMK AO2
14840KMKG MKG20060616082509906/16/06 08:25:31  5-MIN KMKG 161325Z 20015G21KT 10SM CLR 25/15 A3009 480 53 1800 210/15G21 RMK AO2
14840KMKG MKG20060616083009906/16/06 08:30:31  5-MIN KMKG 161330Z 19016G21KT 10SM CLR 25/15 A3009 480 53 1800 200/16G21 RMK AO2
14840KMKG MKG20060616083509906/16/06 08:35:31  5-MIN KMKG 161335Z 19016G21KT 10SM CLR 25/15 A3009 480 53 1800 200/16G21 RMK AO2
14840KMKG MKG20060616084009906/16/06 08:40:31  5-MIN KMKG 161340Z 20013G21KT 10SM CLR 26/15 A3009 480 51 1800 200/13G21 RMK AO2
14840KMKG MKG20060616084509906/16/06 08:45:31  5-MIN KMKG 161345Z 20015G22KT 10SM CLR 26/15 A3009 480 51 1800 200/15G22 RMK AO2
14840KMKG MKG20060616085011606/16/06 08:50:31  5-MIN KMKG 161350Z 20016G22KT 10SM CLR 25/15 A3009 480 53 1800 200/16G22 RMK AO2 SLP185 T02500150
14840KMKG MKG20060616085511006/16/06 08:55:31  5-MIN KMKG 161355Z 20015KT 10SM CLR 26/15 A3009 480 51 1800 200/15 RMK AO2 SLP184 T02560150
14840KMKG MKG20060616090009306/16/06 09:00:31  5-MIN KMKG 161400Z 20014KT 10SM CLR 26/15 A3009 480 51 1800 200/14 RMK AO2
14840KMKG MKG20060616090509906/16/06 09:05:31  5-MIN KMKG 161405Z 20016G21KT 10SM CLR 26/15 A3009 470 51 1800 200/16G21 RMK AO2
14840KMKG MKG20060616091009906/16/06 09:10:31  5-MIN KMKG 161410Z 20014G24KT 10SM CLR 25/15 A3009 480 53 1800 200/14G24 RMK AO2
14840KMKG MKG20060616091509906/16/06 09:15:31  5-MIN KMKG 161415Z 20017G24KT 10SM CLR 25/15 A3009 470 53 1800 200/17G24 RMK AO2
14840KMKG MKG20060616092009906/16/06 09:20:31  5-MIN KMKG 161420Z 19017G24KT 10SM CLR 26/15 A3009 480 51 1800 200/17G24 RMK AO2
14840KMKG MKG20060616092509306/16/06 09:25:31  5-MIN KMKG 161425Z 20015KT 10SM CLR 26/15 A3009 470 51 1800 200/15 RMK AO2
14840KMKG MKG20060616093009906/16/06 09:30:31  5-MIN KMKG 161430Z 20017G22KT 10SM CLR 26/15 A3009 470 51 1800 210/17G22 RMK AO2
14840KMKG MKG20060616093509906/16/06 09:35:31  5-MIN KMKG 161435Z 19016G22KT 10SM CLR 25/15 A3009 470 53 1800 200/16G22 RMK AO2
14840KMKG MKG20060616094009906/16/06 09:40:31  5-MIN KMKG 161440Z 20018G23KT 10SM CLR 25/15 A3009 470 53 1800 200/18G23 RMK AO2
14840KMKG MKG20060616094511706/16/06 09:45:31  5-MIN KMKG 161445Z 20016G26KT 10SM CLR 26/15 A3009 470 51 1800 200/16G26 RMK AO2 PK WND 20026/1443
14840KMKG MKG20060616095014006/16/06 09:50:31  5-MIN KMKG 161450Z 20018G26KT 10SM CLR 25/15 A3009 470 53 1800 200/18G26 RMK AO2 PK WND 20026/1443 SLP187 T02500150 51009
14840KMKG MKG20060616095514006/16/06 09:55:31  5-MIN KMKG 161455Z 20016G24KT 10SM CLR 25/15 A3009 470 53 1800 210/16G24 RMK AO2 PK WND 20026/1443 SLP187 T02500150 55001
14840KMKG MKG20060616100009906/16/06 10:00:31  5-MIN KMKG 161500Z 20017G22KT 10SM CLR 25/15 A3009 470 53 1800 200/17G22 RMK AO2
14840KMKG MKG20060616100509906/16/06 10:05:31  5-MIN KMKG 161505Z 20016G23KT 10SM CLR 25/15 A3009 470 53 1800 200/16G23 RMK AO2
14840KMKG MKG20060616101009906/16/06 10:10:31  5-MIN KMKG 161510Z 20016G23KT 10SM CLR 26/15 A3009 470 51 1800 200/16G23 RMK AO2
14840KMKG MKG20060616101509906/16/06 10:15:31  5-MIN KMKG 161515Z 20015G21KT 10SM CLR 25/15 A3009 480 53 1800 200/15G21 RMK AO2
14840KMKG MKG20060616102009906/16/06 10:20:31  5-MIN KMKG 161520Z 20018G22KT 10SM CLR 26/15 A3009 480 50 1900 210/18G22 RMK AO2
14840KMKG MKG20060616102511706/16/06 10:25:31  5-MIN KMKG 161525Z 20020G26KT 10SM CLR 26/15 A3008 480 50 1900 200/20G26 RMK AO2 PK WND 19026/1524
14840KMKG MKG20060616103011706/16/06 10:30:31  5-MIN KMKG 161530Z 20017G26KT 10SM CLR 26/15 A3009 480 51 1800 200/17G26 RMK AO2 PK WND 19026/1524
14840KMKG MKG20060616103511706/16/06 10:35:31  5-MIN KMKG 161535Z 20019G25KT 10SM CLR 26/15 A3008 480 51 1800 210/19G25 RMK AO2 PK WND 19026/1524
14840KMKG MKG20060616104011706/16/06 10:40:31  5-MIN KMKG 161540Z 21019G24KT 10SM CLR 26/15 A3008 480 50 1900 210/19G24 RMK AO2 PK WND 19026/1524
14840KMKG MKG20060616104511706/16/06 10:45:31  5-MIN KMKG 161545Z 19016G25KT 10SM CLR 27/15 A3008 480 48 2000 200/16G25 RMK AO2 PK WND 19026/1524
14840KMKG MKG20060616105013406/16/06 10:50:31  5-MIN KMKG 161550Z 20019G23KT 10SM CLR 27/15 A3008 480 48 2000 210/19G23 RMK AO2 PK WND 19026/1524 SLP183 T02670150
14840KMKG MKG20060616105513406/16/06 10:55:31  5-MIN KMKG 161555Z 20021G27KT 10SM CLR 27/15 A3008 480 48 2000 200/21G27 RMK AO2 PK WND 20027/1554 SLP183 T02670150
14840KMKG MKG20060616110009906/16/06 11:00:31  5-MIN KMKG 161600Z 20018G27KT 10SM CLR 27/15 A3008 480 48 2000 200/18G27 RMK AO2
14840KMKG MKG20060616110509906/16/06 11:05:31  5-MIN KMKG 161605Z 20018G23KT 10SM CLR 26/15 A3008 480 50 1900 200/18G23 RMK AO2
14840KMKG MKG20060616111009906/16/06 11:10:31  5-MIN KMKG 161610Z 20017G25KT 10SM CLR 27/15 A3008 480 48 2000 210/17G25 RMK AO2
14840KMKG MKG20060616111511706/16/06 11:15:31  5-MIN KMKG 161615Z 21019G26KT 10SM CLR 27/16 A3008 490 48 2000 210/19G26 RMK AO2 PK WND 19026/1614
14840KMKG MKG20060616112011706/16/06 11:20:31  5-MIN KMKG 161620Z 20019G26KT 10SM CLR 26/15 A3008 490 50 1900 200/19G26 RMK AO2 PK WND 19026/1614
14840KMKG MKG20060616112511706/16/06 11:25:31  5-MIN KMKG 161625Z 20017G25KT 10SM CLR 26/15 A3007 490 51 1900 200/17G25 RMK AO2 PK WND 19026/1614
14840KMKG MKG20060616113011706/16/06 11:30:31  5-MIN KMKG 161630Z 20019G25KT 10SM CLR 26/15 A3008 480 51 1900 200/19G25 RMK AO2 PK WND 19026/1614
14840KMKG MKG20060616113511706/16/06 11:35:31  5-MIN KMKG 161635Z 20019G25KT 10SM CLR 26/16 A3008 490 51 1900 200/19G25 RMK AO2 PK WND 19026/1614
14840KMKG MKG20060616114011706/16/06 11:40:31  5-MIN KMKG 161640Z 19018G25KT 10SM CLR 27/16 A3008 490 50 2000 200/18G25 RMK AO2 PK WND 19026/1614
14840KMKG MKG20060616114511706/16/06 11:45:31  5-MIN KMKG 161645Z 20019G25KT 10SM CLR 27/16 A3007 490 48 2000 200/19G25 RMK AO2 PK WND 19026/1614
14840KMKG MKG20060616115013406/16/06 11:50:31  5-MIN KMKG 161650Z 20018G26KT 10SM CLR 27/16 A3007 490 48 2000 200/18G26 RMK AO2 PK WND 19026/1647 SLP181 T02720156
14840KMKG MKG20060616115513406/16/06 11:55:31  5-MIN KMKG 161655Z 20019G26KT 10SM CLR 28/16 A3007 490 46 2100 210/19G26 RMK AO2 PK WND 19026/1647 SLP178 T02780156
14840KMKG MKG20060616120009906/16/06 12:00:31  5-MIN KMKG 161700Z 20019G24KT 10SM CLR 28/16 A3007 490 46 2100 210/19G24 RMK AO2
14840KMKG MKG20060616120509906/16/06 12:05:31  5-MIN KMKG 161705Z 20018G25KT 10SM CLR 28/16 A3007 490 46 2100 210/18G25 RMK AO2
14840KMKG MKG20060616121009906/16/06 12:10:31  5-MIN KMKG 161710Z 20019G25KT 10SM CLR 28/16 A3007 490 47 2200 210/19G25 RMK AO2
14840KMKG MKG20060616121509906/16/06 12:15:31  5-MIN KMKG 161715Z 20020G25KT 10SM CLR 28/16 A3007 490 46 2100 200/20G25 RMK AO2
14840KMKG MKG20060616122011706/16/06 12:20:31  5-MIN KMKG 161720Z 20022G27KT 10SM CLR 27/16 A3007 500 50 2000 200/22G27 RMK AO2 PK WND 20027/1720
14840KMKG MKG20060616122511706/16/06 12:25:31  5-MIN KMKG 161725Z 20019G27KT 10SM CLR 28/16 A3007 490 48 2100 210/19G27 RMK AO2 PK WND 20027/1720
14840KMKG MKG20060616123011706/16/06 12:30:31  5-MIN KMKG 161730Z 20018G26KT 10SM CLR 28/16 A3006 500 48 2100 210/18G26 RMK AO2 PK WND 20027/1720
14840KMKG MKG20060616123511706/16/06 12:35:31  5-MIN KMKG 161735Z 20021G27KT 10SM CLR 28/16 A3006 500 48 2100 210/21G27 RMK AO2 PK WND 21027/1734
14840KMKG MKG20060616124011706/16/06 12:40:31  5-MIN KMKG 161740Z 20020G27KT 10SM CLR 28/16 A3006 500 48 2100 210/20G27 RMK AO2 PK WND 21027/1734
14840KMKG MKG20060616124511706/16/06 12:45:31  5-MIN KMKG 161745Z 20019G25KT 10SM CLR 28/16 A3005 510 47 2200 200/19G25 RMK AO2 PK WND 21027/1734
14840KMKG MKG20060616125015206/16/06 12:50:31  5-MIN KMKG 161750Z 20020G25KT 10SM CLR 28/16 A3005 510 47 2200 210/20G25 RMK AO2 PK WND 21027/1734 SLP173 T02830161 10283 20233 55001
14840KMKG MKG20060616125515206/16/06 12:55:31  5-MIN KMKG 161755Z 20017G25KT 10SM CLR 28/16 A3005 510 48 2100 200/17G25 RMK AO2 PK WND 21027/1734 SLP173 T02780161 10283 20233 58013
14840KMKG MKG20060616130009906/16/06 13:00:31  5-MIN KMKG 161800Z 20019G24KT 10SM CLR 28/16 A3005 510 48 2100 210/19G24 RMK AO2
14840KMKG MKG20060616130511706/16/06 13:05:31  5-MIN KMKG 161805Z 21020G28KT 10SM CLR 27/16 A3005 510 50 2100 210/20G28 RMK AO2 PK WND 21028/1805
14840KMKG MKG20060616131011706/16/06 13:10:31  5-MIN KMKG 161810Z 21018G28KT 10SM CLR 27/16 A3005 510 50 2100 210/18G28 RMK AO2 PK WND 21028/1805
14840KMKG MKG20060616131511706/16/06 13:15:31  5-MIN KMKG 161815Z 20019G25KT 10SM CLR 27/16 A3005 510 50 2100 210/19G25 RMK AO2 PK WND 21028/1805
14840KMKG MKG20060616132011706/16/06 13:20:31  5-MIN KMKG 161820Z 21018G23KT 10SM CLR 28/16 A3005 510 48 2100 210/18G23 RMK AO2 PK WND 21028/1805
14840KMKG MKG20060616132511706/16/06 13:25:31  5-MIN KMKG 161825Z 20018G23KT 10SM CLR 28/16 A3005 510 48 2100 200/18G23 RMK AO2 PK WND 21028/1805
14840KMKG MKG20060616133011706/16/06 13:30:31  5-MIN KMKG 161830Z 20020G24KT 10SM CLR 28/16 A3005 510 48 2100 200/20G24 RMK AO2 PK WND 21028/1805
14840KMKG MKG20060616133511706/16/06 13:35:31  5-MIN KMKG 161835Z 20018G24KT 10SM CLR 28/16 A3004 520 47 2200 210/18G24 RMK AO2 PK WND 21028/1805
14840KMKG MKG20060616134011706/16/06 13:40:31  5-MIN KMKG 161840Z 20017G23KT 10SM CLR 28/16 A3004 520 47 2200 210/17G23 RMK AO2 PK WND 21028/1805
14840KMKG MKG20060616134511706/16/06 13:45:31  5-MIN KMKG 161845Z 21018G24KT 10SM CLR 28/16 A3005 510 47 2200 210/18G24 RMK AO2 PK WND 21028/1805
14840KMKG MKG20060616135013406/16/06 13:50:31  5-MIN KMKG 161850Z 21017G24KT 10SM CLR 28/16 A3005 510 48 2100 220/17G24 RMK AO2 PK WND 21028/1805 SLP171 T02780161
14840KMKG MKG20060616135513406/16/06 13:55:31  5-MIN KMKG 161855Z 21017G23KT 10SM CLR 28/17 A3005 520 48 2200 210/17G23 RMK AO2 PK WND 21028/1805 SLP170 T02830167
14840KMKG MKG20060616140009906/16/06 14:00:31  5-MIN KMKG 161900Z 20019G24KT 10SM CLR 28/16 A3004 520 47 2200 210/19G24 RMK AO2
14840KMKG MKG20060616140511706/16/06 14:05:31  5-MIN KMKG 161905Z 21018G26KT 10SM CLR 28/16 A3004 520 48 2100 210/18G26 RMK AO2 PK WND 21026/1902
14840KMKG MKG20060616141011706/16/06 14:10:31  5-MIN KMKG 161910Z 21018G26KT 10SM CLR 27/16 A3004 520 50 2100 210/18G26 RMK AO2 PK WND 21026/1902
14840KMKG MKG20060616141511706/16/06 14:15:31  5-MIN KMKG 161915Z 21016G22KT 10SM CLR 28/16 A3004 520 48 2100 210/16G22 RMK AO2 PK WND 21026/1902
14840KMKG MKG20060616142011706/16/06 14:20:31  5-MIN KMKG 161920Z 21017G22KT 10SM CLR 28/17 A3004 520 48 2200 210/17G22 RMK AO2 PK WND 21026/1902
14840KMKG MKG20060616142511106/16/06 14:25:31  5-MIN KMKG 161925Z 20020KT 10SM CLR 29/17 A3003 530 47 2300 210/20 RMK AO2 PK WND 21026/1902
14840KMKG MKG20060616143011706/16/06 14:30:31  5-MIN KMKG 161930Z 21015G21KT 10SM CLR 28/17 A3004 520 48 2200 220/15G21 RMK AO2 PK WND 21026/1902
14840KMKG MKG20060616143511106/16/06 14:35:31  5-MIN KMKG 161935Z 21015KT 10SM CLR 28/17 A3003 530 48 2200 210/15 RMK AO2 PK WND 21026/1902
14840KMKG MKG20060616144011706/16/06 14:40:31  5-MIN KMKG 161940Z 21017G23KT 10SM CLR 28/16 A3003 530 48 2200 220/17G23 RMK AO2 PK WND 21026/1902
14840KMKG MKG20060616144511706/16/06 14:45:31  5-MIN KMKG 161945Z 21015G23KT 10SM CLR 28/16 A3003 530 48 2200 210/15G23 RMK AO2 PK WND 21026/1902
14840KMKG MKG20060616145013406/16/06 14:50:31  5-MIN KMKG 161950Z 20014G21KT 10SM CLR 28/17 A3003 530 50 2200 210/14G21 RMK AO2 PK WND 21026/1902 SLP166 T02780167
14840KMKG MKG20060616145512806/16/06 14:55:31  5-MIN KMKG 161955Z 20015KT 10SM CLR 28/17 A3003 530 50 2200 210/15 RMK AO2 PK WND 21026/1902 SLP165 T02780167
14840KMKG MKG20060616150009306/16/06 15:00:31  5-MIN KMKG 162000Z 21015KT 10SM CLR 28/17 A3003 530 50 2200 210/15 RMK AO2
14840KMKG MKG20060616150509306/16/06 15:05:31  5-MIN KMKG 162005Z 21016KT 10SM CLR 27/16 A3003 530 50 2100 210/16 RMK AO2
14840KMKG MKG20060616151009906/16/06 15:10:31  5-MIN KMKG 162010Z 21016G21KT 10SM CLR 27/16 A3003 530 52 2000 210/16G21 RMK AO2
14840KMKG MKG20060616151509906/16/06 15:15:31  5-MIN KMKG 162015Z 20016G21KT 10SM CLR 26/16 A3003 530 53 2000 210/16G21 RMK AO2
14840KMKG MKG20060616152009906/16/06 15:20:31  5-MIN KMKG 162020Z 20015G21KT 10SM CLR 26/16 A3003 530 53 2000 210/15G21 RMK AO2
14840KMKG MKG20060616152509306/16/06 15:25:31  5-MIN KMKG 162025Z 21015KT 10SM CLR 26/16 A3003 530 53 2000 220/15 RMK AO2
14840KMKG MKG20060616153009306/16/06 15:30:31  5-MIN KMKG 162030Z 21015KT 10SM CLR 26/16 A3003 530 53 2000 210/15 RMK AO2
14840KMKG MKG20060616153509906/16/06 15:35:31  5-MIN KMKG 162035Z 21014G21KT 10SM CLR 27/16 A3003 530 52 2000 210/14G21 RMK AO2
14840KMKG MKG20060616154009906/16/06 15:40:31  5-MIN KMKG 162040Z 21014G21KT 10SM CLR 28/16 A3002 540 48 2200 210/14G21 RMK AO2
14840KMKG MKG20060616154509306/16/06 15:45:31  5-MIN KMKG 162045Z 21015KT 10SM CLR 28/17 A3002 540 48 2200 210/15 RMK AO2
14840KMKG MKG20060616155012206/16/06 15:50:31  5-MIN KMKG 162050Z 21015G20KT 10SM CLR 29/17 A3002 540 47 2300 220/15G20 RMK AO2 SLP160 T02890167 58013
14840KMKG MKG20060616155511606/16/06 15:55:31  5-MIN KMKG 162055Z 21017KT 10SM CLR 29/17 A3001 540 47 2300 220/17 RMK AO2 SLP159 T02890167 58014
14840KMKG MKG20060616160009306/16/06 16:00:31  5-MIN KMKG 162100Z 21013KT 10SM CLR 28/16 A3001 550 47 2200 220/13 RMK AO2
14840KMKG MKG20060616160509906/16/06 16:05:31  5-MIN KMKG 162105Z 21015G20KT 10SM CLR 28/16 A3001 550 48 2200 220/15G20 RMK AO2
14840KMKG MKG20060616161009306/16/06 16:10:31  5-MIN KMKG 162110Z 20015KT 10SM CLR 28/16 A3001 550 48 2200 210/15 RMK AO2
14840KMKG MKG20060616161509306/16/06 16:15:31  5-MIN KMKG 162115Z 21013KT 10SM CLR 29/16 A3001 550 45 2300 220/13 RMK AO2
14840KMKG MKG20060616162009306/16/06 16:20:31  5-MIN KMKG 162120Z 21015KT 10SM CLR 29/16 A3001 540 45 2300 220/15 RMK AO2
14840KMKG MKG20060616162509306/16/06 16:25:31  5-MIN KMKG 162125Z 21017KT 10SM CLR 29/16 A3001 540 45 2300 220/17 RMK AO2
14840KMKG MKG20060616163009306/16/06 16:30:31  5-MIN KMKG 162130Z 22014KT 10SM CLR 29/16 A3001 550 45 2300 220/14 RMK AO2
14840KMKG MKG20060616163509306/16/06 16:35:31  5-MIN KMKG 162135Z 21015KT 10SM CLR 29/16 A3001 550 45 2300 220/15 RMK AO2
14840KMKG MKG20060616164009306/16/06 16:40:31  5-MIN KMKG 162140Z 21014KT 10SM CLR 29/16 A3001 550 44 2400 220/14 RMK AO2
14840KMKG MKG20060616164509906/16/06 16:45:31  5-MIN KMKG 162145Z 21014G21KT 10SM CLR 29/16 A3001 550 44 2400 220/14G21 RMK AO2
14840KMKG MKG20060616165011906/16/06 16:50:31  5-MIN KMKG 162150Z 21014G21KT 10SM FEW095 29/16 A3001 550 45 2300 210/14G21 RMK AO2 SLP157 T02890161
14840KMKG MKG20060616165511906/16/06 16:55:31  5-MIN KMKG 162155Z 21013G20KT 10SM FEW095 29/16 A3000 550 45 2300 220/13G20 RMK AO2 SLP156 T02890161
14840KMKG MKG20060616170009906/16/06 17:00:31  5-MIN KMKG 162200Z 21012G20KT 10SM CLR 29/16 A3000 550 45 2300 210/12G20 RMK AO2
14840KMKG MKG20060616170509306/16/06 17:05:31  5-MIN KMKG 162205Z 21015KT 10SM CLR 29/16 A3000 550 44 2400 210/15 RMK AO2
14840KMKG MKG20060616171009306/16/06 17:10:31  5-MIN KMKG 162210Z 21014KT 10SM CLR 29/16 A3000 550 44 2300 210/14 RMK AO2
14840KMKG MKG20060616171509306/16/06 17:15:31  5-MIN KMKG 162215Z 21012KT 10SM CLR 29/16 A3000 560 44 2400 220/12 RMK AO2
14840KMKG MKG20060616172009306/16/06 17:20:31  5-MIN KMKG 162220Z 21014KT 10SM CLR 29/16 A3000 560 45 2300 210/14 RMK AO2
14840KMKG MKG20060616172509306/16/06 17:25:31  5-MIN KMKG 162225Z 21013KT 10SM CLR 29/16 A3000 560 45 2300 210/13 RMK AO2
14840KMKG MKG20060616173009306/16/06 17:30:31  5-MIN KMKG 162230Z 21013KT 10SM CLR 29/16 A3000 560 44 2300 210/13 RMK AO2
14840KMKG MKG20060616173509306/16/06 17:35:31  5-MIN KMKG 162235Z 22011KT 10SM CLR 28/16 A3000 560 47 2300 220/11 RMK AO2
14840KMKG MKG20060616174009306/16/06 17:40:31  5-MIN KMKG 162240Z 22015KT 10SM CLR 29/16 A3000 560 45 2300 220/15 RMK AO2
14840KMKG MKG20060616174509306/16/06 17:45:31  5-MIN KMKG 162245Z 22013KT 10SM CLR 28/16 A3000 560 45 2300 230/13 RMK AO2
14840KMKG MKG20060616175011006/16/06 17:50:31  5-MIN KMKG 162250Z 22011KT 10SM CLR 28/16 A3000 560 45 2300 220/11 RMK AO2 SLP153 T02830156
14840KMKG MKG20060616175511006/16/06 17:55:31  5-MIN KMKG 162255Z 22013KT 10SM CLR 28/16 A2999 560 45 2300 220/13 RMK AO2 SLP153 T02830156
14840KMKG MKG20060616180009306/16/06 18:00:31  5-MIN KMKG 162300Z 22012KT 10SM CLR 28/15 A2999 560 43 2300 230/12 RMK AO2
14840KMKG MKG20060616180509306/16/06 18:05:31  5-MIN KMKG 162305Z 22013KT 10SM CLR 28/15 A2999 570 43 2300 230/13 RMK AO2
14840KMKG MKG20060616181009306/16/06 18:10:31  5-MIN KMKG 162310Z 22012KT 10SM CLR 28/15 A2999 570 43 2300 220/12 RMK AO2
14840KMKG MKG20060616181509306/16/06 18:15:31  5-MIN KMKG 162315Z 22012KT 10SM CLR 28/15 A2999 570 43 2300 220/12 RMK AO2
14840KMKG MKG20060616182009306/16/06 18:20:31  5-MIN KMKG 162320Z 22012KT 10SM CLR 28/15 A2999 570 43 2300 230/12 RMK AO2
14840KMKG MKG20060616182509306/16/06 18:25:31  5-MIN KMKG 162325Z 23011KT 10SM CLR 28/15 A2999 570 45 2200 230/11 RMK AO2
14840KMKG MKG20060616183009306/16/06 18:30:31  5-MIN KMKG 162330Z 22012KT 10SM CLR 28/15 A2998 570 45 2200 230/12 RMK AO2
14840KMKG MKG20060616183509306/16/06 18:35:31  5-MIN KMKG 162335Z 22011KT 10SM CLR 28/15 A2998 570 45 2200 220/11 RMK AO2
14840KMKG MKG20060616184009306/16/06 18:40:31  5-MIN KMKG 162340Z 22011KT 10SM CLR 27/15 A2998 570 46 2200 220/11 RMK AO2
14840KMKG MKG20060616184509306/16/06 18:45:31  5-MIN KMKG 162345Z 22011KT 10SM CLR 27/15 A2998 570 46 2200 230/11 RMK AO2
14840KMKG MKG20060616185012806/16/06 18:50:31  5-MIN KMKG 162350Z 22010KT 10SM CLR 28/15 A2998 580 45 2200 220/10 RMK AO2 SLP147 T02780150 10294 20261 58014
14840KMKG MKG20060616185512806/16/06 18:55:31  5-MIN KMKG 162355Z 21010KT 10SM CLR 28/15 A2998 580 45 2200 220/10 RMK AO2 SLP146 T02780150 10294 20261 58012
14840KMKG MKG20060616190009306/16/06 19:00:31  5-MIN KMKG 170000Z 21011KT 10SM CLR 27/15 A2998 580 46 2200 220/11 RMK AO2
14840KMKG MKG20060616190509306/16/06 19:05:31  5-MIN KMKG 170005Z 22009KT 10SM CLR 27/15 A2998 580 48 2100 220/09 RMK AO2
14840KMKG MKG20060616191009306/16/06 19:10:31  5-MIN KMKG 170010Z 21009KT 10SM CLR 27/14 A2998 580 46 2100 220/09 RMK AO2
14840KMKG MKG20060616191509306/16/06 19:15:31  5-MIN KMKG 170015Z 22008KT 10SM CLR 27/14 A2997 580 46 2100 220/08 RMK AO2
14840KMKG MKG20060616192009306/16/06 19:20:31  5-MIN KMKG 170020Z 21010KT 10SM CLR 27/14 A2997 580 46 2100 220/10 RMK AO2
14840KMKG MKG20060616192509306/16/06 19:25:31  5-MIN KMKG 170025Z 21009KT 10SM CLR 27/14 A2997 580 46 2100 220/09 RMK AO2
14840KMKG MKG20060616193009306/16/06 19:30:31  5-MIN KMKG 170030Z 20009KT 10SM CLR 26/14 A2997 590 48 2000 210/09 RMK AO2
14840KMKG MKG20060616193509306/16/06 19:35:31  5-MIN KMKG 170035Z 21009KT 10SM CLR 26/14 A2996 590 48 2000 210/09 RMK AO2
14840KMKG MKG20060616194009306/16/06 19:40:31  5-MIN KMKG 170040Z 20008KT 10SM CLR 26/14 A2996 590 48 2100 200/08 RMK AO2
14840KMKG MKG20060616194509306/16/06 19:45:31  5-MIN KMKG 170045Z 20008KT 10SM CLR 26/14 A2996 590 48 2100 200/08 RMK AO2
14840KMKG MKG20060616195011006/16/06 19:50:31  5-MIN KMKG 170050Z 19008KT 10SM CLR 26/14 A2996 600 48 2100 200/08 RMK AO2 SLP140 T02610144
14840KMKG MKG20060616195511006/16/06 19:55:31  5-MIN KMKG 170055Z 19008KT 10SM CLR 26/14 A2995 600 48 2100 190/08 RMK AO2 SLP138 T02610144
14840KMKG MKG20060616200009306/16/06 20:00:31  5-MIN KMKG 170100Z 19009KT 10SM CLR 26/14 A2995 600 48 2100 190/09 RMK AO2
14840KMKG MKG20060616200509306/16/06 20:05:31  5-MIN KMKG 170105Z 19008KT 10SM CLR 26/14 A2995 600 48 2100 190/08 RMK AO2
14840KMKG MKG20060616201009306/16/06 20:10:31  5-MIN KMKG 170110Z 19008KT 10SM CLR 26/14 A2995 600 48 2100 190/08 RMK AO2
14840KMKG MKG20060616201509306/16/06 20:15:31  5-MIN KMKG 170115Z 18008KT 10SM CLR 26/14 A2995 610 48 2100 190/08 RMK AO2
14840KMKG MKG20060616202009306/16/06 20:20:31  5-MIN KMKG 170120Z 19007KT 10SM CLR 26/14 A2994 610 48 2100 190/07 RMK AO2
14840KMKG MKG20060616202509306/16/06 20:25:31  5-MIN KMKG 170125Z 18008KT 10SM CLR 26/14 A2994 610 49 2000 180/08 RMK AO2
14840KMKG MKG20060616203009306/16/06 20:30:31  5-MIN KMKG 170130Z 19009KT 10SM CLR 26/14 A2994 610 48 2100 190/09 RMK AO2
14840KMKG MKG20060616203509306/16/06 20:35:31  5-MIN KMKG 170135Z 19009KT 10SM CLR 27/14 A2994 610 46 2100 190/09 RMK AO2
14840KMKG MKG20060616204009306/16/06 20:40:31  5-MIN KMKG 170140Z 20011KT 10SM CLR 27/14 A2994 610 46 2100 200/11 RMK AO2
14840KMKG MKG20060616204509306/16/06 20:45:31  5-MIN KMKG 170145Z 20012KT 10SM CLR 27/14 A2994 610 45 2200 200/12 RMK AO2
14840KMKG MKG20060616205011006/16/06 20:50:31  5-MIN KMKG 170150Z 20013KT 10SM CLR 27/14 A2994 610 45 2200 200/13 RMK AO2 SLP134 T02720144
14840KMKG MKG20060616205511006/16/06 20:55:31  5-MIN KMKG 170155Z 20013KT 10SM CLR 27/14 A2994 610 46 2100 200/13 RMK AO2 SLP135 T02670144
14840KMKG MKG20060616210009306/16/06 21:00:31  5-MIN KMKG 170200Z 20011KT 10SM CLR 27/14 A2994 610 46 2100 200/11 RMK AO2
14840KMKG MKG20060616210509306/16/06 21:05:31  5-MIN KMKG 170205Z 20010KT 10SM CLR 27/14 A2994 610 46 2100 200/10 RMK AO2
14840KMKG MKG20060616211009306/16/06 21:10:31  5-MIN KMKG 170210Z 20013KT 10SM CLR 27/14 A2995 600 46 2100 200/13 RMK AO2
14840KMKG MKG20060616211509306/16/06 21:15:31  5-MIN KMKG 170215Z 20012KT 10SM CLR 27/14 A2995 600 46 2100 210/12 RMK AO2
14840KMKG MKG20060616212009306/16/06 21:20:31  5-MIN KMKG 170220Z 20011KT 10SM CLR 27/14 A2995 600 46 2100 200/11 RMK AO2
14840KMKG MKG20060616212509306/16/06 21:25:31  5-MIN KMKG 170225Z 20011KT 10SM CLR 27/15 A2996 600 48 2100 200/11 RMK AO2
14840KMKG MKG20060616213009306/16/06 21:30:31  5-MIN KMKG 170230Z 20011KT 10SM CLR 27/15 A2996 600 48 2100 200/11 RMK AO2
14840KMKG MKG20060616213509306/16/06 21:35:31  5-MIN KMKG 170235Z 20011KT 10SM CLR 27/14 A2996 590 46 2100 200/11 RMK AO2
14840KMKG MKG20060616214009306/16/06 21:40:31  5-MIN KMKG 170240Z 20012KT 10SM CLR 27/14 A2997 590 46 2100 210/12 RMK AO2
14840KMKG MKG20060616214509306/16/06 21:45:31  5-MIN KMKG 170245Z 20013KT 10SM CLR 27/14 A2997 580 46 2100 210/13 RMK AO2
14840KMKG MKG20060616215011606/16/06 21:50:31  5-MIN KMKG 170250Z 20015KT 10SM CLR 27/14 A2997 580 46 2100 210/15 RMK AO2 SLP146 T02670144 58012
14840KMKG MKG20060616215511606/16/06 21:55:31  5-MIN KMKG 170255Z 21014KT 10SM CLR 27/14 A2998 580 46 2100 210/14 RMK AO2 SLP148 T02670144 53001
14840KMKG MKG20060616220009306/16/06 22:00:31  5-MIN KMKG 170300Z 21016KT 10SM CLR 27/14 A2998 570 46 2100 210/16 RMK AO2
14840KMKG MKG20060616220509306/16/06 22:05:31  5-MIN KMKG 170305Z 21014KT 10SM CLR 27/14 A2999 570 46 2100 220/14 RMK AO2
14840KMKG MKG20060616221009906/16/06 22:10:31  5-MIN KMKG 170310Z 21014G19KT 10SM CLR 27/14 A2999 560 46 2100 220/14G19 RMK AO2
14840KMKG MKG20060616221509306/16/06 22:15:31  5-MIN KMKG 170315Z 21015KT 10SM CLR 27/14 A3000 560 46 2100 210/15 RMK AO2
14840KMKG MKG20060616222009306/16/06 22:20:31  5-MIN KMKG 170320Z 21015KT 10SM CLR 27/14 A3000 560 46 2100 210/15 RMK AO2
14840KMKG MKG20060616222509306/16/06 22:25:31  5-MIN KMKG 170325Z 21017KT 10SM CLR 27/14 A3000 560 46 2100 210/17 RMK AO2
14840KMKG MKG20060616223009306/16/06 22:30:31  5-MIN KMKG 170330Z 21013KT 10SM CLR 26/14 A3000 550 48 2000 210/13 RMK AO2
14840KMKG MKG20060616223509306/16/06 22:35:31  5-MIN KMKG 170335Z 21013KT 10SM CLR 26/14 A3001 550 48 2000 210/13 RMK AO2
14840KMKG MKG20060616224009306/16/06 22:40:31  5-MIN KMKG 170340Z 21014KT 10SM CLR 26/15 A3001 550 50 2000 210/14 RMK AO2
14840KMKG MKG20060616224509306/16/06 22:45:31  5-MIN KMKG 170345Z 20014KT 10SM CLR 26/15 A3001 550 51 1900 210/14 RMK AO2
14840KMKG MKG20060616225011006/16/06 22:50:31  5-MIN KMKG 170350Z 20013KT 10SM CLR 26/15 A3001 550 51 1900 210/13 RMK AO2 SLP159 T02560150
14840KMKG MKG20060616225511006/16/06 22:55:31  5-MIN KMKG 170355Z 20012KT 10SM CLR 26/15 A3001 540 51 1900 210/12 RMK AO2 SLP159 T02560150
14840KMKG MKG20060616230009306/16/06 23:00:31  5-MIN KMKG 170400Z 20012KT 10SM CLR 25/15 A3002 540 53 1900 210/12 RMK AO2
14840KMKG MKG20060616230509306/16/06 23:05:31  5-MIN KMKG 170405Z 20012KT 10SM CLR 25/15 A3002 540 53 1900 210/12 RMK AO2
14840KMKG MKG20060616231009306/16/06 23:10:31  5-MIN KMKG 170410Z 21012KT 10SM CLR 25/15 A3002 540 53 1900 210/12 RMK AO2
14840KMKG MKG20060616231509306/16/06 23:15:31  5-MIN KMKG 170415Z 21012KT 10SM CLR 25/15 A3002 540 53 1900 210/12 RMK AO2
14840KMKG MKG20060616232009306/16/06 23:20:31  5-MIN KMKG 170420Z 21011KT 10SM CLR 25/15 A3002 540 53 1900 210/11 RMK AO2
14840KMKG MKG20060616232509306/16/06 23:25:31  5-MIN KMKG 170425Z 21015KT 10SM CLR 25/15 A3002 540 53 1900 210/15 RMK AO2
14840KMKG MKG20060616233009906/16/06 23:30:31  5-MIN KMKG 170430Z 21016G21KT 10SM CLR 26/16 A3002 540 53 1900 210/16G21 RMK AO2
14840KMKG MKG20060616233509906/16/06 23:35:31  5-MIN KMKG 170435Z 21014G21KT 10SM CLR 26/16 A3002 540 53 1900 210/14G21 RMK AO2
14840KMKG MKG20060616234009906/16/06 23:40:31  5-MIN KMKG 170440Z 21015G22KT 10SM CLR 26/16 A3002 540 53 1900 210/15G22 RMK AO2
14840KMKG MKG20060616234509906/16/06 23:45:31  5-MIN KMKG 170445Z 21016G22KT 10SM CLR 26/16 A3002 540 53 1900 220/16G22 RMK AO2
14840KMKG MKG20060616235012006/16/06 23:50:31  5-MIN KMKG 170450Z 21015KT 10SM CLR 26/16 A3002 540 53 1900 220/15 RMK AO2 SLP161 T02560156 402940194
14840KMKG MKG20060616235512606/16/06 23:55:31  5-MIN KMKG 170455Z 21015G22KT 10SM CLR 26/16 A3002 540 53 1900 210/15G22 RMK AO2 SLP160 T02560156 402940194
14840KMKG MKG20060617000009906/17/06 00:00:32  5-MIN KMKG 170500Z 21014G22KT 10SM CLR 26/16 A3001 540 53 1900 210/14G22 RMK AO2
14840KMKG MKG20060617000509906/17/06 00:05:31  5-MIN KMKG 170505Z 21016G21KT 10SM CLR 26/16 A3001 540 53 1900 210/16G21 RMK AO2
14840KMKG MKG20060617001009906/17/06 00:10:31  5-MIN KMKG 170510Z 21015G21KT 10SM CLR 26/16 A3001 550 53 1900 210/15G21 RMK AO2
14840KMKG MKG20060617001509906/17/06 00:15:31  5-MIN KMKG 170515Z 21016G22KT 10SM CLR 26/16 A3001 550 53 1900 210/16G22 RMK AO2
14840KMKG MKG20060617002009906/17/06 00:20:31  5-MIN KMKG 170520Z 21016G22KT 10SM CLR 26/16 A3001 550 53 1900 210/16G22 RMK AO2
14840KMKG MKG20060617002509906/17/06 00:25:31  5-MIN KMKG 170525Z 21016G21KT 10SM CLR 25/16 A3001 550 55 1900 210/16G21 RMK AO2
14840KMKG MKG20060617003009306/17/06 00:30:31  5-MIN KMKG 170530Z 21014KT 10SM CLR 25/16 A3001 550 55 1900 210/14 RMK AO2
14840KMKG MKG20060617003509906/17/06 00:35:31  5-MIN KMKG 170535Z 21017G22KT 10SM CLR 25/16 A3001 550 55 1900 210/17G22 RMK AO2
14840KMKG MKG20060617004009906/17/06 00:40:31  5-MIN KMKG 170540Z 21015G22KT 10SM CLR 25/16 A3001 550 55 1900 210/15G22 RMK AO2
14840KMKG MKG20060617004509906/17/06 00:45:31  5-MIN KMKG 170545Z 21016G22KT 10SM CLR 25/16 A3001 550 55 1900 210/16G22 RMK AO2
14840KMKG MKG20060617005012806/17/06 00:50:31  5-MIN KMKG 170550Z 21015KT 10SM CLR 25/16 A3001 550 55 1900 210/15 RMK AO2 SLP157 T02500156 10278 20250 53001
14840KMKG MKG20060617005512806/17/06 00:55:31  5-MIN KMKG 170555Z 21017KT 10SM CLR 25/16 A3000 550 55 1900 210/17 RMK AO2 SLP156 T02500156 10278 20250 50008
14840KMKG MKG20060617010009306/17/06 01:00:31  5-MIN KMKG 170600Z 21015KT 10SM CLR 25/16 A3000 550 55 1900 210/15 RMK AO2
14840KMKG MKG20060617010509906/17/06 01:05:31  5-MIN KMKG 170605Z 21014G22KT 10SM CLR 24/16 A3001 550 57 1800 210/14G22 RMK AO2
14840KMKG MKG20060617011009906/17/06 01:10:31  5-MIN KMKG 170610Z 21015G20KT 10SM CLR 24/16 A3000 550 57 1800 210/15G20 RMK AO2
14840KMKG MKG20060617011509906/17/06 01:15:31  5-MIN KMKG 170615Z 20015G21KT 10SM CLR 24/16 A3000 550 57 1800 210/15G21 RMK AO2
14840KMKG MKG20060617012009906/17/06 01:20:31  5-MIN KMKG 170620Z 21017G23KT 10SM CLR 25/16 A3000 550 55 1900 210/17G23 RMK AO2
14840KMKG MKG20060617012509906/17/06 01:25:31  5-MIN KMKG 170625Z 20017G23KT 10SM CLR 24/15 A3000 560 55 1800 210/17G23 RMK AO2
14840KMKG MKG20060617013009306/17/06 01:30:31  5-MIN KMKG 170630Z 20014KT 10SM CLR 24/16 A3000 560 57 1800 200/14 RMK AO2
14840KMKG MKG20060617013509906/17/06 01:35:31  5-MIN KMKG 170635Z 20016G24KT 10SM CLR 24/16 A2999 560 57 1800 200/16G24 RMK AO2
14840KMKG MKG20060617014009906/17/06 01:40:31  5-MIN KMKG 170640Z 20016G24KT 10SM CLR 24/16 A2999 560 57 1800 210/16G24 RMK AO2
14840KMKG MKG20060617014509306/17/06 01:45:31  5-MIN KMKG 170645Z 20012KT 10SM CLR 24/16 A2999 560 59 1800 210/12 RMK AO2
14840KMKG MKG20060617015011006/17/06 01:50:31  5-MIN KMKG 170650Z 20014KT 10SM CLR 24/16 A2999 560 59 1800 210/14 RMK AO2 SLP152 T02390156
14840KMKG MKG20060617015511006/17/06 01:55:31  5-MIN KMKG 170655Z 20016KT 10SM CLR 24/16 A2999 570 59 1800 210/16 RMK AO2 SLP151 T02390156
14840KMKG MKG20060617020009306/17/06 02:00:31  5-MIN KMKG 170700Z 20016KT 10SM CLR 24/16 A2999 570 59 1800 210/16 RMK AO2
14840KMKG MKG20060617020509306/17/06 02:05:31  5-MIN KMKG 170705Z 20015KT 10SM CLR 24/16 A2999 570 59 1800 210/15 RMK AO2
14840KMKG MKG20060617021009906/17/06 02:10:31  5-MIN KMKG 170710Z 20016G22KT 10SM CLR 24/16 A2999 570 59 1800 210/16G22 RMK AO2
14840KMKG MKG20060617021509906/17/06 02:15:31  5-MIN KMKG 170715Z 20017G24KT 10SM CLR 24/15 A2999 570 57 1800 210/17G24 RMK AO2
14840KMKG MKG20060617022009906/17/06 02:20:31  5-MIN KMKG 170720Z 20017G24KT 10SM CLR 24/15 A2999 570 57 1800 210/17G24 RMK AO2
14840KMKG MKG20060617022509906/17/06 02:25:31  5-MIN KMKG 170725Z 21016G22KT 10SM CLR 24/15 A2999 570 57 1800 210/16G22 RMK AO2
14840KMKG MKG20060617023009906/17/06 02:30:31  5-MIN KMKG 170730Z 20015G22KT 10SM CLR 24/15 A2998 570 57 1800 210/15G22 RMK AO2
14840KMKG MKG20060617023509906/17/06 02:35:31  5-MIN KMKG 170735Z 20017G22KT 10SM CLR 24/15 A2998 570 57 1800 210/17G22 RMK AO2
14840KMKG MKG20060617024009906/17/06 02:40:31  5-MIN KMKG 170740Z 20017G22KT 10SM CLR 24/15 A2998 570 57 1800 210/17G22 RMK AO2
14840KMKG MKG20060617024509906/17/06 02:45:31  5-MIN KMKG 170745Z 20020G23KT 10SM CLR 24/15 A2998 570 57 1800 200/20G23 RMK AO2
14840KMKG MKG20060617025011606/17/06 02:50:31  5-MIN KMKG 170750Z 20016G23KT 10SM CLR 24/15 A2998 580 57 1800 210/16G23 RMK AO2 SLP147 T02390150
14840KMKG MKG20060617025511606/17/06 02:55:31  5-MIN KMKG 170755Z 21017G24KT 10SM CLR 23/15 A2998 580 59 1700 210/17G24 RMK AO2 SLP147 T02330150
14840KMKG MKG20060617030009906/17/06 03:00:31  5-MIN KMKG 170800Z 20015G24KT 10SM CLR 23/15 A2998 580 59 1700 210/15G24 RMK AO2
14840KMKG MKG20060617030509906/17/06 03:05:31  5-MIN KMKG 170805Z 21015G24KT 10SM CLR 23/15 A2998 580 59 1700 210/15G24 RMK AO2
14840KMKG MKG20060617031009906/17/06 03:10:31  5-MIN KMKG 170810Z 20017G24KT 10SM CLR 23/15 A2997 580 59 1700 210/17G24 RMK AO2
14840KMKG MKG20060617031509906/17/06 03:15:31  5-MIN KMKG 170815Z 20014G22KT 10SM CLR 23/15 A2997 580 59 1700 200/14G22 RMK AO2
14840KMKG MKG20060617032009906/17/06 03:20:31  5-MIN KMKG 170820Z 20014G22KT 10SM CLR 23/15 A2997 580 59 1700 200/14G22 RMK AO2
14840KMKG MKG20060617032509906/17/06 03:25:31  5-MIN KMKG 170825Z 21015G21KT 10SM CLR 23/14 A2997 580 57 1700 210/15G21 RMK AO2
14840KMKG MKG20060617033009906/17/06 03:30:31  5-MIN KMKG 170830Z 20015G21KT 10SM CLR 23/14 A2997 580 57 1700 210/15G21 RMK AO2
14840KMKG MKG20060617033509306/17/06 03:35:31  5-MIN KMKG 170835Z 20016KT 10SM CLR 23/14 A2997 580 57 1700 210/16 RMK AO2
14840KMKG MKG20060617034009906/17/06 03:40:31  5-MIN KMKG 170840Z 20015G20KT 10SM CLR 23/14 A2997 580 57 1700 210/15G20 RMK AO2
14840KMKG MKG20060617034509906/17/06 03:45:31  5-MIN KMKG 170845Z 20015G20KT 10SM CLR 23/14 A2997 580 57 1700 210/15G20 RMK AO2
14840KMKG MKG20060617035011606/17/06 03:50:31  5-MIN KMKG 170850Z 20016KT 10SM CLR 23/14 A2997 580 57 1700 210/16 RMK AO2 SLP145 T02330144 50008
14840KMKG MKG20060617035511606/17/06 03:55:31  5-MIN KMKG 170855Z 20014KT 10SM CLR 23/14 A2998 580 57 1700 210/14 RMK AO2 SLP146 T02330144 56010
14840KMKG MKG20060617040009306/17/06 04:00:31  5-MIN KMKG 170900Z 21016KT 10SM CLR 23/14 A2997 580 59 1700 210/16 RMK AO2
14840KMKG MKG20060617040509306/17/06 04:05:31  5-MIN KMKG 170905Z 21017KT 10SM CLR 23/14 A2997 580 59 1700 210/17 RMK AO2
14840KMKG MKG20060617041009906/17/06 04:10:31  5-MIN KMKG 170910Z 21013G21KT 10SM CLR 23/14 A2997 580 59 1700 210/13G21 RMK AO2
14840KMKG MKG20060617041509306/17/06 04:15:31  5-MIN KMKG 170915Z 21015KT 10SM CLR 23/14 A2997 580 57 1700 210/15 RMK AO2
14840KMKG MKG20060617042009906/17/06 04:20:31  5-MIN KMKG 170920Z 21017G21KT 10SM CLR 23/14 A2997 580 57 1700 210/17G21 RMK AO2
14840KMKG MKG20060617042509306/17/06 04:25:31  5-MIN KMKG 170925Z 21016KT 10SM CLR 23/14 A2998 580 57 1700 210/16 RMK AO2
14840KMKG MKG20060617043009906/17/06 04:30:31  5-MIN KMKG 170930Z 21015G22KT 10SM CLR 23/14 A2998 580 57 1700 210/15G22 RMK AO2
14840KMKG MKG20060617043509906/17/06 04:35:31  5-MIN KMKG 170935Z 21015G22KT 10SM CLR 23/14 A2998 580 57 1700 210/15G22 RMK AO2
14840KMKG MKG20060617044009906/17/06 04:40:31  5-MIN KMKG 170940Z 21013G21KT 10SM CLR 23/14 A2998 580 57 1700 210/13G21 RMK AO2
14840KMKG MKG20060617044509906/17/06 04:45:31  5-MIN KMKG 170945Z 21014G21KT 10SM CLR 23/14 A2998 580 57 1700 210/14G21 RMK AO2
14840KMKG MKG20060617045011606/17/06 04:50:31  5-MIN KMKG 170950Z 21018G23KT 10SM CLR 23/14 A2998 580 57 1700 210/18G23 RMK AO2 SLP147 T02280139
14840KMKG MKG20060617045511606/17/06 04:55:31  5-MIN KMKG 170955Z 21015G23KT 10SM CLR 23/14 A2998 580 57 1700 210/15G23 RMK AO2 SLP147 T02280139
14840KMKG MKG20060617050009906/17/06 05:00:31  5-MIN KMKG 171000Z 21016G21KT 10SM CLR 23/14 A2998 580 57 1700 220/16G21 RMK AO2
14840KMKG MKG20060617050509906/17/06 05:05:31  5-MIN KMKG 171005Z 21016G21KT 10SM CLR 22/14 A2998 580 59 1600 210/16G21 RMK AO2
14840KMKG MKG20060617051009306/17/06 05:10:31  5-MIN KMKG 171010Z 21013KT 10SM CLR 22/14 A2998 580 59 1600 220/13 RMK AO2
14840KMKG MKG20060617051509906/17/06 05:15:31  5-MIN KMKG 171015Z 21016G22KT 10SM CLR 22/14 A2998 580 59 1600 210/16G22 RMK AO2
14840KMKG MKG20060617052009906/17/06 05:20:31  5-MIN KMKG 171020Z 21014G22KT 10SM CLR 22/14 A2998 570 59 1600 220/14G22 RMK AO2
14840KMKG MKG20060617052509906/17/06 05:25:31  5-MIN KMKG 171025Z 21014G20KT 10SM CLR 22/14 A2998 570 59 1600 210/14G20 RMK AO2
14840KMKG MKG20060617053009306/17/06 05:30:31  5-MIN KMKG 171030Z 21016KT 10SM CLR 22/14 A2998 570 59 1600 210/16 RMK AO2
14840KMKG MKG20060617053509306/17/06 05:35:31  5-MIN KMKG 171035Z 21015KT 10SM CLR 22/14 A2998 570 59 1600 220/15 RMK AO2
14840KMKG MKG20060617054009906/17/06 05:40:31  5-MIN KMKG 171040Z 21015G20KT 10SM CLR 22/14 A2998 570 59 1600 210/15G20 RMK AO2
14840KMKG MKG20060617054509906/17/06 05:45:31  5-MIN KMKG 171045Z 21017G22KT 10SM CLR 22/14 A2998 570 61 1500 210/17G22 RMK AO2
14840KMKG MKG20060617055011606/17/06 05:50:31  5-MIN KMKG 171050Z 21015G22KT 10SM CLR 22/14 A2998 570 59 1600 210/15G22 RMK AO2 SLP148 T02220139
14840KMKG MKG20060617055511006/17/06 05:55:31  5-MIN KMKG 171055Z 20013KT 10SM CLR 22/14 A2998 570 59 1600 210/13 RMK AO2 SLP149 T02220139
14840KMKG MKG20060617060009306/17/06 06:00:31  5-MIN KMKG 171100Z 21014KT 10SM CLR 22/14 A2998 570 59 1600 210/14 RMK AO2
14840KMKG MKG20060617060509906/17/06 06:05:31  5-MIN KMKG 171105Z 20014G21KT 10SM CLR 22/14 A2998 570 59 1600 200/14G21 RMK AO2
14840KMKG MKG20060617061009906/17/06 06:10:31  5-MIN KMKG 171110Z 21014G21KT 10SM CLR 22/14 A2998 570 59 1600 210/14G21 RMK AO2
14840KMKG MKG20060617061509306/17/06 06:15:31  5-MIN KMKG 171115Z 21013KT 10SM CLR 22/14 A2998 570 59 1600 210/13 RMK AO2
14840KMKG MKG20060617062009306/17/06 06:20:31  5-MIN KMKG 171120Z 21016KT 10SM CLR 23/14 A2999 570 57 1600 210/16 RMK AO2
14840KMKG MKG20060617062509906/17/06 06:25:31  5-MIN KMKG 171125Z 20014G21KT 10SM CLR 23/14 A2999 570 57 1600 210/14G21 RMK AO2
14840KMKG MKG20060617063010206/17/06 06:30:31  5-MIN KMKG 171130Z 20016G21KT 10SM FEW085 23/14 A2999 570 57 1600 210/16G21 RMK AO2
14840KMKG MKG20060617063509606/17/06 06:35:31  5-MIN KMKG 171135Z 20014KT 10SM FEW085 23/14 A2999 570 57 1600 210/14 RMK AO2
14840KMKG MKG20060617064009606/17/06 06:40:31  5-MIN KMKG 171140Z 20015KT 10SM FEW080 23/14 A2999 570 57 1600 210/15 RMK AO2
14840KMKG MKG20060617064509606/17/06 06:45:31  5-MIN KMKG 171145Z 20011KT 10SM FEW080 23/14 A2999 570 57 1600 200/11 RMK AO2
14840KMKG MKG20060617065013106/17/06 06:50:31  5-MIN KMKG 171150Z 19015KT 10SM FEW085 23/14 A2998 570 57 1600 200/15 RMK AO2 SLP149 T02280139 10250 20217 56010
14840KMKG MKG20060617065512806/17/06 06:55:31  5-MIN KMKG 171155Z 19012KT 10SM CLR 23/14 A2998 570 59 1600 200/12 RMK AO2 SLP149 T02280144 10250 20217 52003
14840KMKG MKG20060617070009906/17/06 07:00:31  5-MIN KMKG 171200Z 20016G20KT 10SM CLR 23/14 A2998 570 55 1700 200/16G20 RMK AO2
14840KMKG MKG20060617070509606/17/06 07:05:31  5-MIN KMKG 171205Z 20015KT 10SM FEW085 23/14 A2998 570 57 1700 200/15 RMK AO2
14840KMKG MKG20060617071009906/17/06 07:10:31  5-MIN KMKG 171210Z 20016G20KT 10SM CLR 23/14 A2999 570 55 1700 200/16G20 RMK AO2
14840KMKG MKG20060617071509906/17/06 07:15:31  5-MIN KMKG 171215Z 20015G20KT 10SM CLR 24/14 A2998 570 55 1800 210/15G20 RMK AO2
14840KMKG MKG20060617072009906/17/06 07:20:31  5-MIN KMKG 171220Z 21014G20KT 10SM CLR 24/14 A2999 570 55 1800 210/14G20 RMK AO2
14840KMKG MKG20060617072509906/17/06 07:25:31  5-MIN KMKG 171225Z 20017G20KT 10SM CLR 24/14 A2999 570 53 1800 200/17G20 RMK AO2
14840KMKG MKG20060617073009906/17/06 07:30:31  5-MIN KMKG 171230Z 20016G20KT 10SM CLR 24/14 A2999 570 53 1800 210/16G20 RMK AO2
14840KMKG MKG20060617073509906/17/06 07:35:31  5-MIN KMKG 171235Z 20017G21KT 10SM CLR 24/14 A2999 560 53 1800 210/17G21 RMK AO2
14840KMKG MKG20060617074009906/17/06 07:40:31  5-MIN KMKG 171240Z 20016G21KT 10SM CLR 24/14 A2999 560 53 1800 200/16G21 RMK AO2
14840KMKG MKG20060617074509906/17/06 07:45:31  5-MIN KMKG 171245Z 20015G20KT 10SM CLR 24/14 A3000 560 55 1800 200/15G20 RMK AO2
14840KMKG MKG20060617075011606/17/06 07:50:31  5-MIN KMKG 171250Z 21016G21KT 10SM CLR 24/14 A3000 560 51 1800 210/16G21 RMK AO2 SLP154 T02440139
14840KMKG MKG20060617075511606/17/06 07:55:31  5-MIN KMKG 171255Z 21015G21KT 10SM CLR 24/14 A3000 560 51 1800 210/15G21 RMK AO2 SLP154 T02440139
14840KMKG MKG20060617080009906/17/06 08:00:31  5-MIN KMKG 171300Z 20016G24KT 10SM CLR 24/14 A3000 560 51 1800 210/16G24 RMK AO2
14840KMKG MKG20060617080509906/17/06 08:05:31  5-MIN KMKG 171305Z 21015G24KT 10SM CLR 24/14 A3000 560 51 1800 210/15G24 RMK AO2
14840KMKG MKG20060617081009306/17/06 08:10:31  5-MIN KMKG 171310Z 20015KT 10SM CLR 24/14 A3000 560 51 1800 210/15 RMK AO2
14840KMKG MKG20060617081509906/17/06 08:15:31  5-MIN KMKG 171315Z 21017G21KT 10SM CLR 24/14 A3000 550 53 1800 210/17G21 RMK AO2
14840KMKG MKG20060617082009906/17/06 08:20:31  5-MIN KMKG 171320Z 21014G21KT 10SM CLR 24/14 A3000 550 51 1800 220/14G21 RMK AO2
14840KMKG MKG20060617082509906/17/06 08:25:31  5-MIN KMKG 171325Z 21017G22KT 10SM CLR 25/14 A3000 550 51 1900 210/17G22 RMK AO2
14840KMKG MKG20060617083009906/17/06 08:30:31  5-MIN KMKG 171330Z 21016G22KT 10SM CLR 25/14 A3000 550 49 1900 210/16G22 RMK AO2
14840KMKG MKG20060617083510206/17/06 08:35:31  5-MIN KMKG 171335Z 21016G22KT 10SM FEW080 25/14 A3001 550 51 1900 220/16G22 RMK AO2
14840KMKG MKG20060617084009306/17/06 08:40:31  5-MIN KMKG 171340Z 21015KT 10SM CLR 25/14 A3001 550 49 1900 210/15 RMK AO2
14840KMKG MKG20060617084509906/17/06 08:45:31  5-MIN KMKG 171345Z 21017G25KT 10SM CLR 25/14 A3001 550 51 1900 210/17G25 RMK AO2
14840KMKG MKG20060617085011606/17/06 08:50:31  5-MIN KMKG 171350Z 22015G25KT 10SM CLR 25/14 A3001 550 51 1900 220/15G25 RMK AO2 SLP158 T02500144
14840KMKG MKG20060617085511606/17/06 08:55:31  5-MIN KMKG 171355Z 21016G21KT 10SM CLR 25/14 A3001 550 51 1900 210/16G21 RMK AO2 SLP157 T02500144
14840KMKG MKG20060617090009906/17/06 09:00:31  5-MIN KMKG 171400Z 21016G22KT 10SM CLR 25/14 A3001 550 51 1900 220/16G22 RMK AO2
14840KMKG MKG20060617090509306/17/06 09:05:31  5-MIN KMKG 171405Z 20017KT 10SM CLR 26/14 A3001 550 49 1900 210/17 RMK AO2
14840KMKG MKG20060617091009906/17/06 09:10:31  5-MIN KMKG 171410Z 21017G23KT 10SM CLR 26/14 A3001 550 49 1900 210/17G23 RMK AO2
14840KMKG MKG20060617091509906/17/06 09:15:31  5-MIN KMKG 171415Z 21017G23KT 10SM CLR 26/14 A3001 550 49 1900 220/17G23 RMK AO2
14840KMKG MKG20060617092009906/17/06 09:20:31  5-MIN KMKG 171420Z 21018G23KT 10SM CLR 26/14 A3001 550 49 1900 210/18G23 RMK AO2
14840KMKG MKG20060617092509906/17/06 09:25:31  5-MIN KMKG 171425Z 21015G23KT 10SM CLR 26/14 A3001 550 49 1900 220/15G23 RMK AO2
14840KMKG MKG20060617093009906/17/06 09:30:31  5-MIN KMKG 171430Z 20016G20KT 10SM CLR 26/14 A3001 550 49 1900 210/16G20 RMK AO2
14840KMKG MKG20060617093509906/17/06 09:35:31  5-MIN KMKG 171435Z 21014G20KT 10SM CLR 26/14 A3001 550 49 1900 210/14G20 RMK AO2
14840KMKG MKG20060617094009906/17/06 09:40:31  5-MIN KMKG 171440Z 21015G20KT 10SM CLR 25/14 A3001 550 51 1900 210/15G20 RMK AO2
14840KMKG MKG20060617094509906/17/06 09:45:31  5-MIN KMKG 171445Z 20012G20KT 10SM CLR 26/14 A3001 550 49 1900 210/12G20 RMK AO2
14840KMKG MKG20060617095012206/17/06 09:50:31  5-MIN KMKG 171450Z 20014G19KT 10SM CLR 26/14 A3001 550 49 1900 210/14G19 RMK AO2 SLP158 T02560144 52003
14840KMKG MKG20060617095512206/17/06 09:55:31  5-MIN KMKG 171455Z 21015G20KT 10SM CLR 26/14 A3001 550 49 1900 220/15G20 RMK AO2 SLP158 T02560144 51009
14840KMKG MKG20060617100009906/17/06 10:00:31  5-MIN KMKG 171500Z 21014G20KT 10SM CLR 26/14 A3001 550 49 1900 210/14G20 RMK AO2
14840KMKG MKG20060617100509906/17/06 10:05:31  5-MIN KMKG 171505Z 21015G22KT 10SM CLR 26/14 A3001 550 49 1900 210/15G22 RMK AO2
14840KMKG MKG20060617101009906/17/06 10:10:31  5-MIN KMKG 171510Z 20015G22KT 10SM CLR 26/14 A3001 550 48 2000 200/15G22 RMK AO2
14840KMKG MKG20060617101509906/17/06 10:15:31  5-MIN KMKG 171515Z 21015G21KT 10SM CLR 26/14 A3001 550 48 2000 210/15G21 RMK AO2
14840KMKG MKG20060617102009906/17/06 10:20:31  5-MIN KMKG 171520Z 20015G21KT 10SM CLR 26/15 A3001 550 50 2000 200/15G21 RMK AO2
14840KMKG MKG20060617102509906/17/06 10:25:31  5-MIN KMKG 171525Z 21013G21KT 10SM CLR 27/15 A3000 550 48 2100 210/13G21 RMK AO2
14840KMKG MKG20060617103009906/17/06 10:30:31  5-MIN KMKG 171530Z 21016G21KT 10SM CLR 27/14 A3000 550 46 2100 210/16G21 RMK AO2
14840KMKG MKG20060617103509306/17/06 10:35:31  5-MIN KMKG 171535Z 20016KT 10SM CLR 27/15 A3000 550 48 2100 200/16 RMK AO2
14840KMKG MKG20060617104009906/17/06 10:40:31  5-MIN KMKG 171540Z 20015G22KT 10SM CLR 27/14 A3000 550 45 2100 200/15G22 RMK AO2
14840KMKG MKG20060617104509906/17/06 10:45:31  5-MIN KMKG 171545Z 21017G22KT 10SM CLR 27/14 A3000 560 45 2100 210/17G22 RMK AO2
14840KMKG MKG20060617105011606/17/06 10:50:31  5-MIN KMKG 171550Z 20017G23KT 10SM CLR 27/14 A3000 560 46 2100 200/17G23 RMK AO2 SLP155 T02670144
14840KMKG MKG20060617105511606/17/06 10:55:31  5-MIN KMKG 171555Z 20017G23KT 10SM CLR 27/14 A3000 560 46 2100 210/17G23 RMK AO2 SLP154 T02670144
14840KMKG MKG20060617110009906/17/06 11:00:31  5-MIN KMKG 171600Z 20016G24KT 10SM CLR 27/14 A2999 560 45 2100 200/16G24 RMK AO2
14840KMKG MKG20060617110509906/17/06 11:05:31  5-MIN KMKG 171605Z 20016G24KT 10SM CLR 28/14 A2999 570 43 2200 210/16G24 RMK AO2
14840KMKG MKG20060617111009906/17/06 11:10:31  5-MIN KMKG 171610Z 21018G23KT 10SM CLR 27/14 A2999 560 45 2100 210/18G23 RMK AO2
14840KMKG MKG20060617111509906/17/06 11:15:31  5-MIN KMKG 171615Z 21014G23KT 10SM CLR 28/15 A2999 570 45 2200 210/14G23 RMK AO2
14840KMKG MKG20060617112009306/17/06 11:20:31  5-MIN KMKG 171620Z 21015KT 10SM CLR 28/15 A2999 560 43 2300 210/15 RMK AO2
14840KMKG MKG20060617112509906/17/06 11:25:31  5-MIN KMKG 171625Z 21016G21KT 10SM CLR 28/15 A2999 570 45 2200 210/16G21 RMK AO2
14840KMKG MKG20060617113009906/17/06 11:30:31  5-MIN KMKG 171630Z 20015G21KT 10SM CLR 28/15 A2999 570 43 2300 200/15G21 RMK AO2
14840KMKG MKG20060617113509906/17/06 11:35:31  5-MIN KMKG 171635Z 20016G21KT 10SM CLR 28/15 A2998 570 45 2200 210/16G21 RMK AO2
14840KMKG MKG20060617114009906/17/06 11:40:31  5-MIN KMKG 171640Z 21014G23KT 10SM CLR 28/15 A2998 570 43 2300 210/14G23 RMK AO2
14840KMKG MKG20060617114509906/17/06 11:45:31  5-MIN KMKG 171645Z 20018G23KT 10SM CLR 29/15 A2998 570 42 2300 210/18G23 RMK AO2
14840KMKG MKG20060617115011606/17/06 11:50:31  5-MIN KMKG 171650Z 21018G24KT 10SM CLR 28/15 A2998 570 43 2300 210/18G24 RMK AO2 SLP148 T02830150
14840KMKG MKG20060617115511606/17/06 11:55:31  5-MIN KMKG 171655Z 20017G24KT 10SM CLR 28/15 A2998 570 43 2300 200/17G24 RMK AO2 SLP148 T02830150
14840KMKG MKG20060617120009906/17/06 12:00:31  5-MIN KMKG 171700Z 20017G25KT 10SM CLR 28/14 A2998 570 43 2200 210/17G25 RMK AO2
14840KMKG MKG20060617120510206/17/06 12:05:31  5-MIN KMKG 171705Z 20017G25KT 10SM FEW085 28/14 A2998 570 42 2300 210/17G25 RMK AO2
14840KMKG MKG20060617121009906/17/06 12:10:31  5-MIN KMKG 171710Z 20015G24KT 10SM CLR 29/15 A2998 570 42 2300 200/15G24 RMK AO2
14840KMKG MKG20060617121509906/17/06 12:15:31  5-MIN KMKG 171715Z 20016G24KT 10SM CLR 28/15 A2998 580 43 2300 210/16G24 RMK AO2
14840KMKG MKG20060617122009906/17/06 12:20:31  5-MIN KMKG 171720Z 19017G24KT 10SM CLR 29/15 A2998 580 41 2400 200/17G24 RMK AO2
14840KMKG MKG20060617122509906/17/06 12:25:31  5-MIN KMKG 171725Z 20016G22KT 10SM CLR 29/15 A2998 580 41 2400 210/16G22 RMK AO2
14840KMKG MKG20060617123009906/17/06 12:30:31  5-MIN KMKG 171730Z 20017G23KT 10SM CLR 29/14 A2998 580 40 2300 210/17G23 RMK AO2
14840KMKG MKG20060617123509906/17/06 12:35:31  5-MIN KMKG 171735Z 20016G23KT 10SM CLR 29/14 A2997 580 39 2400 200/16G23 RMK AO2
14840KMKG MKG20060617124009906/17/06 12:40:31  5-MIN KMKG 171740Z 19017G22KT 10SM CLR 29/14 A2997 580 39 2400 190/17G22 RMK AO2
14840KMKG MKG20060617124509906/17/06 12:45:31  5-MIN KMKG 171745Z 19015G22KT 10SM CLR 29/14 A2997 580 39 2400 190/15G22 RMK AO2
14840KMKG MKG20060617125013406/17/06 12:50:31  5-MIN KMKG 171750Z 19015G23KT 10SM CLR 29/14 A2997 590 39 2400 190/15G23 RMK AO2 SLP143 T02940144 10300 20228 51009
14840KMKG MKG20060617125513406/17/06 12:55:31  5-MIN KMKG 171755Z 19016G23KT 10SM CLR 29/14 A2997 590 39 2400 190/16G23 RMK AO2 SLP143 T02940144 10300 20228 58014
14840KMKG MKG20060617130009906/17/06 13:00:31  5-MIN KMKG 171800Z 19014G21KT 10SM CLR 30/14 A2996 590 38 2500 200/14G21 RMK AO2
14840KMKG MKG20060617130509906/17/06 13:05:31  5-MIN KMKG 171805Z 19015G21KT 10SM CLR 31/14 A2996 590 37 2500 190/15G21 RMK AO2
14840KMKG MKG20060617131009906/17/06 13:10:31  5-MIN KMKG 171810Z 20016G21KT 10SM CLR 31/14 A2996 590 35 2500 200/16G21 RMK AO2
14840KMKG MKG20060617131509906/17/06 13:15:31  5-MIN KMKG 171815Z 19017G23KT 10SM CLR 31/14 A2996 590 35 2500 190/17G23 RMK AO2
14840KMKG MKG20060617132009906/17/06 13:20:31  5-MIN KMKG 171820Z 20015G23KT 10SM CLR 30/14 A2996 600 36 2500 200/15G23 RMK AO2
14840KMKG MKG20060617132509906/17/06 13:25:31  5-MIN KMKG 171825Z 19016G20KT 10SM CLR 31/14 A2996 600 35 2600 200/16G20 RMK AO2
14840KMKG MKG20060617133009306/17/06 13:30:31  5-MIN KMKG 171830Z 19016KT 10SM CLR 31/13 A2996 600 34 2600 190/16 RMK AO2
14840KMKG MKG20060617133509306/17/06 13:35:31  5-MIN KMKG 171835Z 20016KT 10SM CLR 31/14 A2995 600 34 2600 200/16 RMK AO2
14840KMKG MKG20060617134009306/17/06 13:40:31  5-MIN KMKG 171840Z 20016KT 10SM CLR 31/14 A2995 600 34 2600 200/16 RMK AO2
14840KMKG MKG20060617134509306/17/06 13:45:31  5-MIN KMKG 171845Z 19016KT 10SM CLR 31/14 A2995 600 34 2600 190/16 RMK AO2
14840KMKG MKG20060617135011006/17/06 13:50:31  5-MIN KMKG 171850Z 19016KT 10SM CLR 31/14 A2995 600 35 2600 190/16 RMK AO2 SLP136 T03060139
14840KMKG MKG20060617135511606/17/06 13:55:31  5-MIN KMKG 171855Z 19018G24KT 10SM CLR 31/14 A2995 610 34 2600 190/18G24 RMK AO2 SLP136 T03110139
14840KMKG MKG20060617140009906/17/06 14:00:31  5-MIN KMKG 171900Z 19014G24KT 10SM CLR 32/14 A2995 610 33 2700 200/14G24 RMK AO2
14840KMKG MKG20060617140509906/17/06 14:05:31  5-MIN KMKG 171905Z 20014G21KT 10SM CLR 31/13 A2994 610 33 2600 200/14G21 RMK AO2
14840KMKG MKG20060617141009906/17/06 14:10:31  5-MIN KMKG 171910Z 19013G22KT 10SM CLR 32/14 A2994 610 32 2800 200/13G22 RMK AO2
14840KMKG MKG20060617141509906/17/06 14:15:31  5-MIN KMKG 171915Z 20017G22KT 10SM CLR 32/13 A2994 610 32 2700 200/17G22 RMK AO2
14840KMKG MKG20060617142009906/17/06 14:20:31  5-MIN KMKG 171920Z 20013G21KT 10SM CLR 32/13 A2994 610 32 2700 200/13G21 RMK AO2
14840KMKG MKG20060617142509906/17/06 14:25:31  5-MIN KMKG 171925Z 19016G21KT 10SM CLR 33/13 A2994 610 30 2800 200/16G21 RMK AO2
14840KMKG MKG20060617143009906/17/06 14:30:31  5-MIN KMKG 171930Z 20013G20KT 10SM CLR 32/13 A2994 610 30 2800 200/13G20 RMK AO2
14840KMKG MKG20060617143509906/17/06 14:35:31  5-MIN KMKG 171935Z 21015G21KT 10SM CLR 32/13 A2994 610 30 2800 210/15G21 RMK AO2
14840KMKG MKG20060617144009906/17/06 14:40:31  5-MIN KMKG 171940Z 20018G21KT 10SM CLR 32/13 A2994 620 30 2800 210/18G21 RMK AO2
14840KMKG MKG20060617144509306/17/06 14:45:31  5-MIN KMKG 171945Z 21019KT 10SM CLR 32/13 A2993 620 31 2700 210/19 RMK AO2
14840KMKG MKG20060617145011606/17/06 14:50:31  5-MIN KMKG 171950Z 20017G23KT 10SM CLR 32/13 A2993 620 31 2700 210/17G23 RMK AO2 SLP131 T03170128
14840KMKG MKG20060617145511606/17/06 14:55:31  5-MIN KMKG 171955Z 20017G23KT 10SM CLR 32/13 A2993 620 30 2800 210/17G23 RMK AO2 SLP130 T03220128
14840KMKG MKG20060617150009906/17/06 15:00:31  5-MIN KMKG 172000Z 20014G22KT 10SM CLR 32/13 A2993 620 31 2800 200/14G22 RMK AO2
14840KMKG MKG20060617150509306/17/06 15:05:31  5-MIN KMKG 172005Z 20015KT 10SM CLR 32/13 A2993 620 31 2800 200/15 RMK AO2
14840KMKG MKG20060617151009306/17/06 15:10:31  5-MIN KMKG 172010Z 19015KT 10SM CLR 32/13 A2993 620 31 2800 200/15 RMK AO2
14840KMKG MKG20060617151509906/17/06 15:15:31  5-MIN KMKG 172015Z 20015G21KT 10SM CLR 32/13 A2993 630 30 2800 210/15G21 RMK AO2
14840KMKG MKG20060617152009906/17/06 15:20:31  5-MIN KMKG 172020Z 20015G22KT 10SM CLR 32/13 A2992 630 30 2800 200/15G22 RMK AO2
14840KMKG MKG20060617152509906/17/06 15:25:31  5-MIN KMKG 172025Z 20016G22KT 10SM CLR 32/13 A2992 630 30 2800 200/16G22 RMK AO2
14840KMKG MKG20060617153009306/17/06 15:30:31  5-MIN KMKG 172030Z 19015KT 10SM CLR 32/13 A2992 630 30 2800 200/15 RMK AO2
14840KMKG MKG20060617153509306/17/06 15:35:31  5-MIN KMKG 172035Z 20013KT 10SM CLR 32/13 A2992 630 30 2800 210/13 RMK AO2
14840KMKG MKG20060617154009306/17/06 15:40:31  5-MIN KMKG 172040Z 21014KT 10SM CLR 32/13 A2992 630 31 2800 210/14 RMK AO2
14840KMKG MKG20060617154509906/17/06 15:45:31  5-MIN KMKG 172045Z 20016G21KT 10SM CLR 32/13 A2991 640 31 2800 200/16G21 RMK AO2
14840KMKG MKG20060617155012206/17/06 15:50:31  5-MIN KMKG 172050Z 21013G21KT 10SM CLR 32/13 A2991 640 30 2800 220/13G21 RMK AO2 SLP123 T03220128 58014
14840KMKG MKG20060617155511606/17/06 15:55:31  5-MIN KMKG 172055Z 21014KT 10SM CLR 33/13 A2990 650 29 2900 210/14 RMK AO2 SLP121 T03280128 58021
14840KMKG MKG20060617160009906/17/06 16:00:31  5-MIN KMKG 172100Z 20009G18KT 10SM CLR 33/13 A2990 650 29 2900 210/09G18 RMK AO2
14840KMKG MKG20060617160509906/17/06 16:05:31  5-MIN KMKG 172105Z 20012G16KT 10SM CLR 33/13 A2990 650 29 2900 200/12G16 RMK AO2
14840KMKG MKG20060617161009906/17/06 16:10:31  5-MIN KMKG 172110Z 20013G16KT 10SM CLR 32/13 A2990 650 31 2800 210/13G16 RMK AO2
14840KMKG MKG20060617161509306/17/06 16:15:31  5-MIN KMKG 172115Z 20015KT 10SM CLR 32/13 A2989 650 32 2700 210/15 RMK AO2
14840KMKG MKG20060617162009306/17/06 16:20:31  5-MIN KMKG 172120Z 20013KT 10SM CLR 32/13 A2989 650 32 2700 210/13 RMK AO2
14840KMKG MKG20060617162509306/17/06 16:25:31  5-MIN KMKG 172125Z 21015KT 10SM CLR 32/13 A2989 660 32 2700 210/15 RMK AO2
14840KMKG MKG20060617163009306/17/06 16:30:31  5-MIN KMKG 172130Z 21015KT 10SM CLR 32/13 A2989 660 32 2700 220/15 RMK AO2
14840KMKG MKG20060617163509306/17/06 16:35:31  5-MIN KMKG 172135Z 20013KT 10SM CLR 32/13 A2989 660 32 2700 210/13 RMK AO2
14840KMKG MKG20060617164009306/17/06 16:40:31  5-MIN KMKG 172140Z 20011KT 10SM CLR 31/13 A2989 660 33 2700 200/11 RMK AO2
14840KMKG MKG20060617164509306/17/06 16:45:31  5-MIN KMKG 172145Z 20013KT 10SM CLR 31/14 A2989 660 34 2700 200/13 RMK AO2
14840KMKG MKG20060617165011006/17/06 16:50:31  5-MIN KMKG 172150Z 21014KT 10SM CLR 31/14 A2989 660 34 2700 210/14 RMK AO2 SLP116 T03110139
14840KMKG MKG20060617165511006/17/06 16:55:31  5-MIN KMKG 172155Z 20013KT 10SM CLR 31/14 A2989 660 35 2600 210/13 RMK AO2 SLP116 T03060139
14840KMKG MKG20060617170009306/17/06 17:00:31  5-MIN KMKG 172200Z 19011KT 10SM CLR 31/14 A2989 660 34 2700 200/11 RMK AO2
14840KMKG MKG20060617170509306/17/06 17:05:31  5-MIN KMKG 172205Z 19010KT 10SM CLR 31/14 A2988 660 34 2700 200/10 RMK AO2
14840KMKG MKG20060617171009306/17/06 17:10:31  5-MIN KMKG 172210Z 19010KT 10SM CLR 31/14 A2988 670 35 2600 200/10 RMK AO2
14840KMKG MKG20060617171509306/17/06 17:15:31  5-MIN KMKG 172215Z 19011KT 10SM CLR 31/14 A2988 670 35 2600 200/11 RMK AO2
14840KMKG MKG20060617172009306/17/06 17:20:31  5-MIN KMKG 172220Z 19011KT 10SM CLR 31/14 A2988 670 35 2600 200/11 RMK AO2
14840KMKG MKG20060617172509306/17/06 17:25:31  5-MIN KMKG 172225Z 19010KT 10SM CLR 31/14 A2987 670 35 2600 200/10 RMK AO2
14840KMKG MKG20060617173009306/17/06 17:30:31  5-MIN KMKG 172230Z 20012KT 10SM CLR 31/14 A2988 670 35 2600 200/12 RMK AO2
14840KMKG MKG20060617173509306/17/06 17:35:31  5-MIN KMKG 172235Z 19012KT 10SM CLR 31/14 A2988 670 35 2600 200/12 RMK AO2
14840KMKG MKG20060617174009306/17/06 17:40:31  5-MIN KMKG 172240Z 19011KT 10SM CLR 31/14 A2987 670 35 2600 200/11 RMK AO2
14840KMKG MKG20060617174509906/17/06 17:45:31  5-MIN KMKG 172245Z 18009G16KT 10SM CLR 31/14 A2987 680 35 2600 180/09G16 RMK AO2
14840KMKG MKG20060617175011006/17/06 17:50:31  5-MIN KMKG 172250Z 19009KT 10SM CLR 31/14 A2987 670 35 2600 200/09 RMK AO2 SLP111 T03060139
14840KMKG MKG20060617175511006/17/06 17:55:31  5-MIN KMKG 172255Z 20010KT 10SM CLR 31/14 A2987 680 35 2600 210/10 RMK AO2 SLP111 T03060139
14840KMKG MKG20060617180009306/17/06 18:00:31  5-MIN KMKG 172300Z 20010KT 10SM CLR 31/13 A2987 680 34 2600 200/10 RMK AO2
14840KMKG MKG20060617180509306/17/06 18:05:31  5-MIN KMKG 172305Z 20010KT 10SM CLR 31/13 A2987 680 34 2600 200/10 RMK AO2
14840KMKG MKG20060617181009306/17/06 18:10:31  5-MIN KMKG 172310Z 20010KT 10SM CLR 31/13 A2987 680 34 2600 200/10 RMK AO2
14840KMKG MKG20060617181509306/17/06 18:15:31  5-MIN KMKG 172315Z 20011KT 10SM CLR 30/13 A2987 680 35 2600 200/11 RMK AO2
14840KMKG MKG20060617182009306/17/06 18:20:31  5-MIN KMKG 172320Z 20012KT 10SM CLR 30/14 A2987 680 36 2600 210/12 RMK AO2
14840KMKG MKG20060617182509306/17/06 18:25:31  5-MIN KMKG 172325Z 20011KT 10SM CLR 30/13 A2987 680 35 2600 200/11 RMK AO2
14840KMKG MKG20060617183009306/17/06 18:30:31  5-MIN KMKG 172330Z 20012KT 10SM CLR 30/14 A2987 680 36 2600 200/12 RMK AO2
14840KMKG MKG20060617183509306/17/06 18:35:31  5-MIN KMKG 172335Z 20010KT 10SM CLR 29/14 A2986 680 38 2500 200/10 RMK AO2
14840KMKG MKG20060617184009306/17/06 18:40:31  5-MIN KMKG 172340Z 20012KT 10SM CLR 29/14 A2986 680 38 2500 200/12 RMK AO2
14840KMKG MKG20060617184509306/17/06 18:45:31  5-MIN KMKG 172345Z 20011KT 10SM CLR 29/14 A2986 680 38 2500 200/11 RMK AO2
14840KMKG MKG20060617185012806/17/06 18:50:31  5-MIN KMKG 172350Z 18009KT 10SM CLR 29/14 A2986 680 38 2500 180/09 RMK AO2 SLP108 T02940139 10328 20294 58021
14840KMKG MKG20060617185512806/17/06 18:55:31  5-MIN KMKG 172355Z 19010KT 10SM CLR 29/14 A2986 690 39 2500 190/10 RMK AO2 SLP107 T02890139 10328 20289 56015
14840KMKG MKG20060617190009306/17/06 19:00:31  5-MIN KMKG 180000Z 19008KT 10SM CLR 29/14 A2986 690 39 2500 190/08 RMK AO2
14840KMKG MKG20060617190509306/17/06 19:05:31  5-MIN KMKG 180005Z 20008KT 10SM CLR 29/14 A2986 690 39 2500 210/08 RMK AO2
14840KMKG MKG20060617191009306/17/06 19:10:31  5-MIN KMKG 180010Z 20007KT 10SM CLR 29/14 A2986 690 39 2500 210/07 RMK AO2
14840KMKG MKG20060617191509306/17/06 19:15:31  5-MIN KMKG 180015Z 21007KT 10SM CLR 29/14 A2986 680 39 2500 210/07 RMK AO2
14840KMKG MKG20060617192009306/17/06 19:20:31  5-MIN KMKG 180020Z 21010KT 10SM CLR 28/13 A2986 680 39 2400 210/10 RMK AO2
14840KMKG MKG20060617192509306/17/06 19:25:31  5-MIN KMKG 180025Z 20009KT 10SM CLR 28/13 A2986 690 37 2400 200/09 RMK AO2
14840KMKG MKG20060617193009306/17/06 19:30:31  5-MIN KMKG 180030Z 20008KT 10SM CLR 28/13 A2986 690 39 2400 200/08 RMK AO2
14840KMKG MKG20060617193509306/17/06 19:35:31  5-MIN KMKG 180035Z 19010KT 10SM CLR 28/13 A2986 680 40 2300 200/10 RMK AO2
14840KMKG MKG20060617194009306/17/06 19:40:31  5-MIN KMKG 180040Z 19008KT 10SM CLR 28/13 A2986 680 40 2300 190/08 RMK AO2
14840KMKG MKG20060617194509306/17/06 19:45:31  5-MIN KMKG 180045Z 19009KT 10SM CLR 28/13 A2986 690 40 2400 200/09 RMK AO2
14840KMKG MKG20060617195011306/17/06 19:50:31  5-MIN KMKG 180050Z 19009KT 10SM FEW090 28/13 A2986 690 39 2400 200/09 RMK AO2 SLP107 T02780128
14840KMKG MKG20060617195511306/17/06 19:55:31  5-MIN KMKG 180055Z 20009KT 10SM FEW090 28/13 A2986 690 39 2300 200/09 RMK AO2 SLP107 T02780128
14840KMKG MKG20060617200009606/17/06 20:00:31  5-MIN KMKG 180100Z 20010KT 10SM FEW080 28/13 A2986 680 39 2300 200/10 RMK AO2
14840KMKG MKG20060617200509606/17/06 20:05:31  5-MIN KMKG 180105Z 19010KT 10SM FEW080 28/13 A2986 680 39 2300 200/10 RMK AO2
14840KMKG MKG20060617201009606/17/06 20:10:31  5-MIN KMKG 180110Z 19008KT 10SM FEW100 27/13 A2986 680 42 2300 200/08 RMK AO2
14840KMKG MKG20060617201509606/17/06 20:15:31  5-MIN KMKG 180115Z 19007KT 10SM FEW100 27/13 A2986 690 42 2300 190/07 RMK AO2
14840KMKG MKG20060617202009606/17/06 20:20:31  5-MIN KMKG 180120Z 19008KT 10SM SCT110 27/13 A2986 690 42 2300 190/08 RMK AO2
14840KMKG MKG20060617202509606/17/06 20:25:31  5-MIN KMKG 180125Z 18008KT 10SM SCT110 27/13 A2986 690 42 2300 190/08 RMK AO2
14840KMKG MKG20060617203009606/17/06 20:30:31  5-MIN KMKG 180130Z 18009KT 10SM SCT110 27/13 A2986 690 42 2300 180/09 RMK AO2
14840KMKG MKG20060617203509606/17/06 20:35:31  5-MIN KMKG 180135Z 18007KT 10SM SCT110 27/13 A2986 690 42 2300 180/07 RMK AO2
14840KMKG MKG20060617204009606/17/06 20:40:31  5-MIN KMKG 180140Z 17009KT 10SM SCT110 28/13 A2985 690 40 2400 180/09 RMK AO2
14840KMKG MKG20060617204509606/17/06 20:45:31  5-MIN KMKG 180145Z 17008KT 10SM SCT110 28/13 A2985 690 40 2400 180/08 RMK AO2
14840KMKG MKG20060617205011306/17/06 20:50:31  5-MIN KMKG 180150Z 17008KT 10SM SCT110 28/13 A2985 690 40 2400 170/08 RMK AO2 SLP104 T02780133
14840KMKG MKG20060617205511306/17/06 20:55:31  5-MIN KMKG 180155Z 16008KT 10SM SCT110 28/13 A2985 690 40 2400 170/08 RMK AO2 SLP104 T02780133
14840KMKG MKG20060617210009606/17/06 21:00:31  5-MIN KMKG 180200Z 16007KT 10SM SCT110 28/13 A2985 690 40 2400 160/07 RMK AO2
14840KMKG MKG20060617210509606/17/06 21:05:31  5-MIN KMKG 180205Z 16009KT 10SM SCT110 28/14 A2985 690 42 2400 170/09 RMK AO2
14840KMKG MKG20060617211009606/17/06 21:10:31  5-MIN KMKG 180210Z 16008KT 10SM SCT110 28/14 A2985 690 42 2400 170/08 RMK AO2
14840KMKG MKG20060617211509606/17/06 21:15:31  5-MIN KMKG 180215Z 16009KT 10SM SCT110 28/14 A2985 690 42 2400 170/09 RMK AO2
14840KMKG MKG20060617212009606/17/06 21:20:31  5-MIN KMKG 180220Z 16009KT 10SM SCT110 28/14 A2985 690 42 2400 170/09 RMK AO2
14840KMKG MKG20060617212509606/17/06 21:25:31  5-MIN KMKG 180225Z 17010KT 10SM SCT110 28/14 A2986 690 42 2400 170/10 RMK AO2
14840KMKG MKG20060617213009606/17/06 21:30:31  5-MIN KMKG 180230Z 16010KT 10SM SCT110 28/14 A2986 690 43 2400 160/10 RMK AO2
14840KMKG MKG20060617213509606/17/06 21:35:31  5-MIN KMKG 180235Z 17008KT 10SM SCT110 28/14 A2986 690 43 2400 170/08 RMK AO2
14840KMKG MKG20060617214010306/17/06 21:40:31  5-MIN KMKG 180240Z 16010KT 10SM BKN090 BKN120 28/14 A2986 690 43 2400 170/10 RMK AO2
14840KMKG MKG20060617214510306/17/06 21:45:31  5-MIN KMKG 180245Z 17011KT 10SM SCT075 OVC095 28/14 A2986 690 42 2400 170/11 RMK AO2
14840KMKG MKG20060617215012606/17/06 21:50:31  5-MIN KMKG 180250Z 17010KT 10SM SCT075 OVC090 28/14 A2986 690 42 2400 170/10 RMK AO2 SLP105 T02830144 56015
14840KMKG MKG20060617215512606/17/06 21:55:31  5-MIN KMKG 180255Z 17011KT 10SM SCT075 OVC095 28/14 A2986 690 42 2400 170/11 RMK AO2 SLP105 T02830144 55001
14840KMKG MKG20060617220010306/17/06 22:00:31  5-MIN KMKG 180300Z 17011KT 10SM SCT075 OVC095 28/14 A2985 690 42 2400 170/11 RMK AO2
14840KMKG MKG20060617220510306/17/06 22:05:31  5-MIN KMKG 180305Z 18013KT 10SM BKN070 OVC095 28/14 A2986 690 42 2400 180/13 RMK AO2
14840KMKG MKG20060617221011606/17/06 22:10:31  5-MIN KMKG 180310Z 17012G18KT 10SM BKN070 BKN095 OVC120 28/14 A2985 690 42 2400 170/12G18 RMK AO2
14840KMKG MKG20060617221513106/17/06 22:15:31  5-MIN KMKG 180315Z 17013G18KT 10SM SCT075 BKN100 OVC120 29/14 A2985 690 39 2500 170/13G18 RMK AO2 CIG 075 RWY 14
14840KMKG MKG20060617222011606/17/06 22:20:31  5-MIN KMKG 180320Z 17011G18KT 10SM FEW070 BKN100 BKN120 29/14 A2985 690 40 2500 170/11G18 RMK AO2
14840KMKG MKG20060617222510906/17/06 22:25:31  5-MIN KMKG 180325Z 17010G18KT 10SM FEW070 BKN110 28/14 A2985 690 42 2400 180/10G18 RMK AO2
14840KMKG MKG20060617223010306/17/06 22:30:31  5-MIN KMKG 180330Z 17012KT 10SM SCT070 BKN110 28/14 A2986 690 42 2400 180/12 RMK AO2
14840KMKG MKG20060617223511806/17/06 22:35:31  5-MIN KMKG 180335Z 18012KT 10SM SCT070 BKN110 28/14 A2986 690 42 2400 190/12 RMK AO2 CIG 075 RWY 14
14840KMKG MKG20060617224012706/17/06 22:40:31  5-MIN KMKG 180340Z 20024G31KT 10SM SCT070 BKN110 29/14 A2986 690 40 2500 200/24G31 RMK AO2 PK WND 21031/0340
14840KMKG MKG20060617224512706/17/06 22:45:31  5-MIN KMKG 180345Z 22024G32KT 10SM FEW070 SCT110 29/14 A2987 680 40 2500 220/24G32 RMK AO2 PK WND 21032/0342
14840KMKG MKG20060617225015106/17/06 22:50:31  5-MIN KMKG 180350Z 21020G32KT 10SM FEW070 SCT110 27/14 A2988 670 46 2200 210/20G32 RMK AO2 PK WND 21032/0342 PRESRR SLP113 T02670144
14840KMKG MKG20060617225515106/17/06 22:55:31  5-MIN KMKG 180355Z 21018G24KT 10SM FEW070 SCT085 SCT110 26/14 A2988 670 49 2100 220/18G24 RMK AO2 PK WND 21032/0342 SLP114 T02560144
14840KMKG MKG20060617230010906/17/06 23:00:31  5-MIN KMKG 180400Z 21019G23KT 10SM FEW080 BKN100 26/15 A2988 670 51 2100 220/19G23 RMK AO2
14840KMKG MKG20060617230510206/17/06 23:05:31  5-MIN KMKG 180405Z 21017G23KT 10SM BKN100 25/16 A2988 670 57 2000 220/17G23 RMK AO2
14840KMKG MKG20060617231010206/17/06 23:10:31  5-MIN KMKG 180410Z 21015G21KT 10SM BKN100 25/17 A2987 670 59 2000 220/15G21 RMK AO2
14840KMKG MKG20060617231509606/17/06 23:15:31  5-MIN KMKG 180415Z 20013KT 10SM BKN100 25/17 A2987 670 59 2000 210/13 RMK AO2
14840KMKG MKG20060617232010306/17/06 23:20:31  5-MIN KMKG 180420Z 21016KT 10SM FEW060 BKN100 25/17 A2987 680 59 2000 210/16 RMK AO2
14840KMKG MKG20060617232510906/17/06 23:25:31  5-MIN KMKG 180425Z 21013G20KT 10SM FEW060 BKN100 25/17 A2987 680 59 2000 210/13G20 RMK AO2
14840KMKG MKG20060617233010906/17/06 23:30:31  5-MIN KMKG 180430Z 20012G20KT 10SM FEW060 BKN110 24/17 A2987 680 63 2000 210/12G20 RMK AO2
14840KMKG MKG20060617233510906/17/06 23:35:31  5-MIN KMKG 180435Z 20011G19KT 10SM FEW060 BKN110 24/17 A2987 680 63 2000 200/11G19 RMK AO2
14840KMKG MKG20060617234010306/17/06 23:40:31  5-MIN KMKG 180440Z 20009KT 10SM FEW060 BKN110 24/17 A2987 680 63 2000 200/09 RMK AO2
14840KMKG MKG20060617234510306/17/06 23:45:31  5-MIN KMKG 180445Z 21011KT 10SM FEW060 BKN110 24/17 A2987 680 63 2000 210/11 RMK AO2
14840KMKG MKG20060617235012306/17/06 23:50:31  5-MIN KMKG 180450Z 20011KT 10SM BKN110 24/17 A2987 680 63 2000 210/11 RMK AO2 SLP109 T02440172 403280217
14840KMKG MKG20060617235513006/17/06 23:55:31  5-MIN KMKG 180455Z 20013KT 10SM FEW065 BKN110 24/17 A2987 680 63 2000 200/13 RMK AO2 SLP109 T02440172 403280217
14840KMKG MKG20060618000010306/18/06 00:00:32  5-MIN KMKG 180500Z 21016KT 10SM SCT060 BKN110 25/17 A2987 680 61 2000 210/16 RMK AO2
14840KMKG MKG20060618000510906/18/06 00:05:31  5-MIN KMKG 180505Z 21017G21KT 10SM BKN060 OVC110 25/17 A2986 680 61 2000 210/17G21 RMK AO2
14840KMKG MKG20060618001010906/18/06 00:10:31  5-MIN KMKG 180510Z 21018G23KT 10SM BKN065 OVC110 25/17 A2987 680 61 2000 220/18G23 RMK AO2
14840KMKG MKG20060618001510906/18/06 00:15:31  5-MIN KMKG 180515Z 21017G23KT 10SM BKN065 OVC110 24/17 A2987 680 63 2000 210/17G23 RMK AO2
14840KMKG MKG20060618002010306/18/06 00:20:31  5-MIN KMKG 180520Z 20014KT 10SM BKN065 BKN110 24/17 A2987 680 63 2000 210/14 RMK AO2
14840KMKG MKG20060618002510206/18/06 00:25:31  5-MIN KMKG 180525Z 20013G20KT 10SM BKN065 24/17 A2986 680 66 1900 210/13G20 RMK AO2
14840KMKG MKG20060618003010206/18/06 00:30:31  5-MIN KMKG 180530Z 20014G20KT 10SM SCT065 23/17 A2986 680 68 1800 210/14G20 RMK AO2
14840KMKG MKG20060618003510206/18/06 00:35:31  5-MIN KMKG 180535Z 20013G21KT 10SM FEW070 23/17 A2986 680 68 1800 210/13G21 RMK AO2
14840KMKG MKG20060618004010206/18/06 00:40:31  5-MIN KMKG 180540Z 20014G21KT 10SM FEW070 23/17 A2986 690 68 1900 210/14G21 RMK AO2
14840KMKG MKG20060618004509906/18/06 00:45:31  5-MIN KMKG 180545Z 20015G21KT 10SM CLR 24/17 A2986 690 66 1900 200/15G21 RMK AO2
14840KMKG MKG20060618005013406/18/06 00:50:31  5-MIN KMKG 180550Z 20015G20KT 10SM CLR 24/17 A2986 690 66 1900 210/15G20 RMK AO2 SLP106 T02390172 10289 20233 55001
14840KMKG MKG20060618005512806/18/06 00:55:31  5-MIN KMKG 180555Z 20013KT 10SM CLR 24/17 A2986 690 66 1900 200/13 RMK AO2 SLP106 T02390172 10289 20233 50000
14840KMKG MKG20060618010009906/18/06 01:00:31  5-MIN KMKG 180600Z 20015G24KT 10SM CLR 23/17 A2985 690 68 1900 210/15G24 RMK AO2
14840KMKG MKG20060618010509906/18/06 01:05:31  5-MIN KMKG 180605Z 20014G24KT 10SM CLR 24/17 A2986 690 66 1900 210/14G24 RMK AO2
14840KMKG MKG20060618011009906/18/06 01:10:31  5-MIN KMKG 180610Z 20014G21KT 10SM CLR 24/17 A2986 690 66 1900 210/14G21 RMK AO2
14840KMKG MKG20060618011509906/18/06 01:15:31  5-MIN KMKG 180615Z 20017G22KT 10SM CLR 24/17 A2986 690 66 1900 210/17G22 RMK AO2
14840KMKG MKG20060618012009906/18/06 01:20:31  5-MIN KMKG 180620Z 20016G23KT 10SM CLR 23/17 A2986 690 68 1900 210/16G23 RMK AO2
14840KMKG MKG20060618012509906/18/06 01:25:31  5-MIN KMKG 180625Z 20015G23KT 10SM CLR 23/17 A2986 690 68 1900 200/15G23 RMK AO2
14840KMKG MKG20060618013009906/18/06 01:30:31  5-MIN KMKG 180630Z 20015G22KT 10SM CLR 23/17 A2986 690 68 1900 200/15G22 RMK AO2
14840KMKG MKG20060618013509906/18/06 01:35:31  5-MIN KMKG 180635Z 20017G22KT 10SM CLR 23/17 A2986 690 68 1900 210/17G22 RMK AO2
14840KMKG MKG20060618014009906/18/06 01:40:31  5-MIN KMKG 180640Z 19015G22KT 10SM CLR 23/17 A2986 690 68 1900 200/15G22 RMK AO2
14840KMKG MKG20060618014509906/18/06 01:45:31  5-MIN KMKG 180645Z 20016G20KT 10SM CLR 23/18 A2985 690 70 1900 200/16G20 RMK AO2
14840KMKG MKG20060618015011606/18/06 01:50:31  5-MIN KMKG 180650Z 21016G21KT 10SM CLR 23/18 A2985 690 70 1900 210/16G21 RMK AO2 SLP103 T02330178
14840KMKG MKG20060618015511006/18/06 01:55:31  5-MIN KMKG 180655Z 21016KT 10SM CLR 23/18 A2985 700 70 1900 210/16 RMK AO2 SLP103 T02330178
14840KMKG MKG20060618020009306/18/06 02:00:31  5-MIN KMKG 180700Z 21016KT 10SM CLR 23/18 A2985 700 70 1900 210/16 RMK AO2
14840KMKG MKG20060618020509306/18/06 02:05:31  5-MIN KMKG 180705Z 21016KT 10SM CLR 23/18 A2985 690 70 1900 210/16 RMK AO2
14840KMKG MKG20060618021009306/18/06 02:10:31  5-MIN KMKG 180710Z 21017KT 10SM CLR 23/18 A2985 700 70 1900 210/17 RMK AO2
14840KMKG MKG20060618021509306/18/06 02:15:31  5-MIN KMKG 180715Z 21016KT 10SM CLR 23/17 A2985 700 70 1800 210/16 RMK AO2
14840KMKG MKG20060618022009906/18/06 02:20:31  5-MIN KMKG 180720Z 21016G22KT 10SM CLR 23/17 A2985 700 70 1800 220/16G22 RMK AO2
14840KMKG MKG20060618022509906/18/06 02:25:31  5-MIN KMKG 180725Z 21014G22KT 10SM CLR 23/17 A2985 690 70 1800 210/14G22 RMK AO2
14840KMKG MKG20060618023009906/18/06 02:30:31  5-MIN KMKG 180730Z 21015G22KT 10SM CLR 23/17 A2985 690 70 1800 210/15G22 RMK AO2
14840KMKG MKG20060618023509906/18/06 02:35:31  5-MIN KMKG 180735Z 21013G22KT 10SM CLR 22/17 A2985 690 73 1700 220/13G22 RMK AO2
14840KMKG MKG20060618024009906/18/06 02:40:31  5-MIN KMKG 180740Z 22014G22KT 10SM CLR 23/17 A2985 690 70 1800 220/14G22 RMK AO2
14840KMKG MKG20060618024509906/18/06 02:45:31  5-MIN KMKG 180745Z 21015G22KT 10SM CLR 23/17 A2985 690 70 1800 210/15G22 RMK AO2
14840KMKG MKG20060618025011006/18/06 02:50:31  5-MIN KMKG 180750Z 21015KT 10SM CLR 22/17 A2985 690 73 1700 220/15 RMK AO2 SLP104 T02220172
14840KMKG MKG20060618025511606/18/06 02:55:31  5-MIN KMKG 180755Z 21014G21KT 10SM CLR 22/18 A2985 690 75 1700 220/14G21 RMK AO2 SLP103 T02220178
14840KMKG MKG20060618030010206/18/06 03:00:31  5-MIN KMKG 180800Z 21018G22KT 10SM FEW080 22/18 A2986 690 75 1700 220/18G22 RMK AO2
14840KMKG MKG20060618030510206/18/06 03:05:31  5-MIN KMKG 180805Z 21015G22KT 10SM SCT080 22/17 A2986 690 73 1700 210/15G22 RMK AO2
14840KMKG MKG20060618031009606/18/06 03:10:31  5-MIN KMKG 180810Z 21014KT 10SM BKN080 22/17 A2986 690 73 1700 210/14 RMK AO2
14840KMKG MKG20060618031509606/18/06 03:15:31  5-MIN KMKG 180815Z 20014KT 10SM BKN085 22/17 A2986 690 73 1700 210/14 RMK AO2
14840KMKG MKG20060618032010206/18/06 03:20:31  5-MIN KMKG 180820Z 20016G22KT 10SM BKN085 22/17 A2986 690 73 1700 210/16G22 RMK AO2
14840KMKG MKG20060618032510206/18/06 03:25:31  5-MIN KMKG 180825Z 20013G22KT 10SM OVC085 22/18 A2986 690 75 1700 200/13G22 RMK AO2
14840KMKG MKG20060618033009606/18/06 03:30:31  5-MIN KMKG 180830Z 20012KT 10SM OVC090 22/18 A2986 690 75 1700 210/12 RMK AO2
14840KMKG MKG20060618033510206/18/06 03:35:31  5-MIN KMKG 180835Z 20014G21KT 10SM OVC090 22/18 A2986 690 75 1700 210/14G21 RMK AO2
14840KMKG MKG20060618034010206/18/06 03:40:31  5-MIN KMKG 180840Z 20015G21KT 10SM OVC090 22/18 A2986 690 75 1700 210/15G21 RMK AO2
14840KMKG MKG20060618034509606/18/06 03:45:31  5-MIN KMKG 180845Z 20013KT 10SM OVC090 22/18 A2986 680 75 1700 200/13 RMK AO2
14840KMKG MKG20060618035011906/18/06 03:50:31  5-MIN KMKG 180850Z 20013KT 10SM OVC090 23/18 A2986 690 73 1800 200/13 RMK AO2 SLP106 T02280178 50000
14840KMKG MKG20060618035511906/18/06 03:55:31  5-MIN KMKG 180855Z 21015KT 10SM OVC090 23/18 A2986 690 73 1800 210/15 RMK AO2 SLP105 T02280178 53000
14840KMKG MKG20060618040010206/18/06 04:00:31  5-MIN KMKG 180900Z 20015G20KT 10SM OVC095 23/18 A2986 690 73 1800 210/15G20 RMK AO2
14840KMKG MKG20060618040510206/18/06 04:05:31  5-MIN KMKG 180905Z 20015G23KT 10SM OVC095 23/18 A2986 690 73 1800 200/15G23 RMK AO2
14840KMKG MKG20060618041010206/18/06 04:10:31  5-MIN KMKG 180910Z 20014G23KT 10SM OVC095 23/18 A2985 690 73 1800 200/14G23 RMK AO2
14840KMKG MKG20060618041510206/18/06 04:15:31  5-MIN KMKG 180915Z 20015G20KT 10SM OVC095 23/18 A2985 690 73 1800 200/15G20 RMK AO2
14840KMKG MKG20060618042009606/18/06 04:20:31  5-MIN KMKG 180920Z 20013KT 10SM BKN100 23/18 A2985 690 73 1800 200/13 RMK AO2
14840KMKG MKG20060618042509606/18/06 04:25:31  5-MIN KMKG 180925Z 20015KT 10SM BKN100 23/18 A2985 690 73 1800 200/15 RMK AO2
14840KMKG MKG20060618043009606/18/06 04:30:31  5-MIN KMKG 180930Z 20016KT 10SM BKN100 23/18 A2985 700 73 1800 210/16 RMK AO2
14840KMKG MKG20060618043509606/18/06 04:35:31  5-MIN KMKG 180935Z 20015KT 10SM BKN100 23/18 A2985 700 73 1800 200/15 RMK AO2
14840KMKG MKG20060618044010206/18/06 04:40:31  5-MIN KMKG 180940Z 20013G20KT 10SM BKN100 23/18 A2985 700 73 1800 210/13G20 RMK AO2
14840KMKG MKG20060618044510206/18/06 04:45:31  5-MIN KMKG 180945Z 21016G20KT 10SM SCT100 23/18 A2985 700 73 1800 210/16G20 RMK AO2
14840KMKG MKG20060618045011906/18/06 04:50:31  5-MIN KMKG 180950Z 20015G22KT 10SM SCT100 23/18 A2985 700 73 1800 210/15G22 RMK AO2 SLP102 T02280178
14840KMKG MKG20060618045511906/18/06 04:55:31  5-MIN KMKG 180955Z 21014G22KT 10SM BKN100 23/18 A2985 700 73 1800 210/14G22 RMK AO2 SLP103 T02280178
14840KMKG MKG20060618050010206/18/06 05:00:31  5-MIN KMKG 181000Z 20017G21KT 10SM SCT100 23/18 A2985 700 73 1800 210/17G21 RMK AO2
14840KMKG MKG20060618050510206/18/06 05:05:31  5-MIN KMKG 181005Z 20016G21KT 10SM FEW100 23/18 A2985 700 73 1800 200/16G21 RMK AO2
14840KMKG MKG20060618051010206/18/06 05:10:31  5-MIN KMKG 181010Z 20013G21KT 10SM FEW100 23/18 A2984 700 73 1800 210/13G21 RMK AO2
14840KMKG MKG20060618051509606/18/06 05:15:31  5-MIN KMKG 181015Z 20014KT 10SM FEW100 23/18 A2984 700 73 1800 200/14 RMK AO2
14840KMKG MKG20060618052009606/18/06 05:20:31  5-MIN KMKG 181020Z 20013KT 10SM FEW100 23/18 A2984 700 73 1800 200/13 RMK AO2
14840KMKG MKG20060618052509306/18/06 05:25:31  5-MIN KMKG 181025Z 20011KT 10SM CLR 23/18 A2984 700 76 1800 200/11 RMK AO2
14840KMKG MKG20060618053009606/18/06 05:30:31  5-MIN KMKG 181030Z 20012KT 10SM FEW065 23/18 A2984 700 76 1800 200/12 RMK AO2
14840KMKG MKG20060618053511206/18/06 05:35:31  5-MIN KMKG 181035Z 20015KT 10SM -RA FEW065 23/18 A2984 700 76 1800 200/15 RMK AO2 RAB32 P0000
14840KMKG MKG20060618054011206/18/06 05:40:31  5-MIN KMKG 181040Z 19012KT 10SM -RA FEW060 23/18 A2985 700 76 1800 190/12 RMK AO2 RAB32 P0000
14840KMKG MKG20060618054511106/18/06 05:45:31  5-MIN KMKG 181045Z 19014KT 10SM FEW060 23/18 A2984 700 76 1800 200/14 RMK AO2 RAB32E41 P0000
14840KMKG MKG20060618055013406/18/06 05:50:31  5-MIN KMKG 181050Z 20012G18KT 10SM FEW060 23/18 A2985 700 73 1900 200/12G18 RMK AO2 RAB32E41 SLP101 P0000 T02330183
14840KMKG MKG20060618055512806/18/06 05:55:31  5-MIN KMKG 181055Z 20013KT 10SM FEW060 23/18 A2984 700 73 1900 200/13 RMK AO2 RAB32E41 SLP100 P0000 T02330183
14840KMKG MKG20060618060010206/18/06 06:00:31  5-MIN KMKG 181100Z 20014G21KT 10SM FEW070 23/18 A2984 700 73 1900 200/14G21 RMK AO2
14840KMKG MKG20060618060510206/18/06 06:05:31  5-MIN KMKG 181105Z 19013G21KT 10SM SCT070 23/18 A2984 700 73 1900 200/13G21 RMK AO2
14840KMKG MKG20060618061009606/18/06 06:10:31  5-MIN KMKG 181110Z 20015KT 10SM BKN070 23/18 A2984 700 73 1900 200/15 RMK AO2
14840KMKG MKG20060618061509606/18/06 06:15:31  5-MIN KMKG 181115Z 20015KT 10SM BKN075 23/18 A2984 700 73 1900 200/15 RMK AO2
14840KMKG MKG20060618062009606/18/06 06:20:31  5-MIN KMKG 181120Z 20015KT 10SM BKN070 23/18 A2984 700 73 1900 200/15 RMK AO2
14840KMKG MKG20060618062510906/18/06 06:25:31  5-MIN KMKG 181125Z 20014G20KT 10SM SCT060 OVC075 23/18 A2984 700 73 1900 210/14G20 RMK AO2
14840KMKG MKG20060618063011606/18/06 06:30:31  5-MIN KMKG 181130Z 20012G20KT 10SM FEW027 BKN060 OVC075 23/18 A2984 710 73 1900 200/12G20 RMK AO2
14840KMKG MKG20060618063511006/18/06 06:35:31  5-MIN KMKG 181135Z 20014KT 10SM FEW027 BKN060 OVC075 23/18 A2984 710 73 1900 200/14 RMK AO2
14840KMKG MKG20060618064010306/18/06 06:40:31  5-MIN KMKG 181140Z 20015KT 10SM BKN065 OVC075 23/18 A2984 710 73 1900 200/15 RMK AO2
14840KMKG MKG20060618064511606/18/06 06:45:31  5-MIN KMKG 181145Z 20017G23KT 10SM FEW027 BKN065 OVC080 23/18 A2984 710 70 1900 200/17G23 RMK AO2
14840KMKG MKG20060618065015706/18/06 06:50:31  5-MIN KMKG 181150Z 19013G23KT 10SM SCT027 BKN060 OVC075 23/18 A2984 710 70 1900 190/13G23 RMK AO2 SLP099 60000 T02330178 10239 20222 53000
14840KMKG MKG20060618065515006/18/06 06:55:31  5-MIN KMKG 181155Z 20016G23KT 10SM BKN027 OVC065 23/18 A2983 710 70 1900 200/16G23 RMK AO2 SLP098 60000 T02330178 10239 20222 58008
14840KMKG MKG20060618070010906/18/06 07:00:31  5-MIN KMKG 181200Z 19016G23KT 10SM BKN027 OVC070 23/18 A2983 710 73 1800 200/16G23 RMK AO2
14840KMKG MKG20060618070510906/18/06 07:05:31  5-MIN KMKG 181205Z 20014G23KT 10SM BKN025 OVC075 23/18 A2983 710 73 1800 200/14G23 RMK AO2
14840KMKG MKG20060618071010206/18/06 07:10:31  5-MIN KMKG 181210Z 19018G24KT 10SM OVC025 23/18 A2983 710 73 1800 200/18G24 RMK AO2
14840KMKG MKG20060618071510206/18/06 07:15:31  5-MIN KMKG 181215Z 20014G24KT 10SM OVC025 23/18 A2983 710 73 1800 200/14G24 RMK AO2
14840KMKG MKG20060618072010206/18/06 07:20:31  5-MIN KMKG 181220Z 20016G24KT 10SM OVC025 23/18 A2983 710 73 1800 200/16G24 RMK AO2
14840KMKG MKG20060618072510206/18/06 07:25:31  5-MIN KMKG 181225Z 20017G24KT 10SM OVC025 23/18 A2983 710 73 1800 200/17G24 RMK AO2
14840KMKG MKG20060618073010206/18/06 07:30:31  5-MIN KMKG 181230Z 20018G23KT 10SM OVC025 23/18 A2983 710 73 1800 200/18G23 RMK AO2
14840KMKG MKG20060618073510206/18/06 07:35:31  5-MIN KMKG 181235Z 20016G22KT 10SM OVC025 23/18 A2983 710 73 1800 200/16G22 RMK AO2
14840KMKG MKG20060618074010206/18/06 07:40:31  5-MIN KMKG 181240Z 20018G23KT 10SM OVC025 22/18 A2983 710 75 1800 200/18G23 RMK AO2
14840KMKG MKG20060618074510206/18/06 07:45:31  5-MIN KMKG 181245Z 20018G24KT 10SM OVC025 22/18 A2983 710 75 1800 200/18G24 RMK AO2
14840KMKG MKG20060618075011906/18/06 07:50:31  5-MIN KMKG 181250Z 20016G24KT 10SM OVC025 22/18 A2983 710 75 1800 200/16G24 RMK AO2 SLP097 T02220178
14840KMKG MKG20060618075511906/18/06 07:55:31  5-MIN KMKG 181255Z 19017G23KT 10SM OVC025 23/18 A2983 710 76 1800 200/17G23 RMK AO2 SLP097 T02280183
14840KMKG MKG20060618080009606/18/06 08:00:31  5-MIN KMKG 181300Z 20018KT 10SM OVC025 23/18 A2983 720 76 1800 200/18 RMK AO2
14840KMKG MKG20060618080510206/18/06 08:05:31  5-MIN KMKG 181305Z 20016G22KT 10SM OVC025 23/18 A2983 710 76 1800 200/16G22 RMK AO2
14840KMKG MKG20060618081010206/18/06 08:10:31  5-MIN KMKG 181310Z 20014G22KT 10SM OVC025 23/18 A2983 710 76 1800 200/14G22 RMK AO2
14840KMKG MKG20060618081510206/18/06 08:15:31  5-MIN KMKG 181315Z 20016G24KT 10SM OVC027 23/18 A2983 710 76 1800 200/16G24 RMK AO2
14840KMKG MKG20060618082010206/18/06 08:20:31  5-MIN KMKG 181320Z 20017G24KT 10SM OVC027 23/18 A2983 710 76 1800 200/17G24 RMK AO2
14840KMKG MKG20060618082510206/18/06 08:25:31  5-MIN KMKG 181325Z 20018G23KT 10SM OVC025 22/18 A2983 710 78 1800 200/18G23 RMK AO2
14840KMKG MKG20060618083010206/18/06 08:30:31  5-MIN KMKG 181330Z 19017G25KT 10SM OVC025 22/18 A2983 710 78 1800 200/17G25 RMK AO2
14840KMKG MKG20060618083512006/18/06 08:35:31  5-MIN KMKG 181335Z 20018G27KT 10SM OVC025 22/18 A2984 710 78 1800 200/18G27 RMK AO2 PK WND 20027/1333
14840KMKG MKG20060618084012006/18/06 08:40:31  5-MIN KMKG 181340Z 20017G27KT 10SM OVC025 22/18 A2984 710 78 1700 200/17G27 RMK AO2 PK WND 20027/1333
14840KMKG MKG20060618084512006/18/06 08:45:31  5-MIN KMKG 181345Z 20017G24KT 10SM OVC025 22/18 A2983 710 78 1800 200/17G24 RMK AO2 PK WND 20027/1333
14840KMKG MKG20060618085015206/18/06 08:50:31  5-MIN KMKG 181350Z 20017G24KT 8SM -RA OVC023 22/18 A2984 710 81 1700 200/17G24 RMK AO2 PK WND 20027/1333 RAB47 SLP100 P0000 T02170183
14840KMKG MKG20060618085515506/18/06 08:55:31  5-MIN KMKG 181355Z 20020G24KT 6SM -RA BR OVC023 21/19 A2984 710 87 1600 200/20G24 RMK AO2 PK WND 20027/1333 RAB47 SLP099 P0000 T02110189
14840KMKG MKG20060618090010806/18/06 09:00:31  5-MIN KMKG 181400Z 20019KT 6SM -RA BR OVC023 21/19 A2984 710 87 1600 210/19 RMK AO2 P0000
14840KMKG MKG20060618090511406/18/06 09:05:31  5-MIN KMKG 181405Z 20018G25KT 6SM -RA BR OVC021 21/19 A2984 710 90 1600 200/18G25 RMK AO2 P0000
14840KMKG MKG20060618091011106/18/06 09:10:31  5-MIN KMKG 181410Z 20017G25KT 7SM -RA OVC021 21/19 A2984 710 90 1600 210/17G25 RMK AO2 P0000
14840KMKG MKG20060618091511106/18/06 09:15:31  5-MIN KMKG 181415Z 20018G21KT 7SM -RA OVC021 21/19 A2984 710 90 1600 200/18G21 RMK AO2 P0000
14840KMKG MKG20060618092011106/18/06 09:20:31  5-MIN KMKG 181420Z 20016G22KT 7SM -RA OVC021 21/19 A2984 710 90 1600 210/16G22 RMK AO2 P0000
14840KMKG MKG20060618092511106/18/06 09:25:31  5-MIN KMKG 181425Z 20017G23KT 7SM -RA OVC021 21/19 A2984 710 90 1600 210/17G23 RMK AO2 P0000
14840KMKG MKG20060618093011106/18/06 09:30:31  5-MIN KMKG 181430Z 20017G23KT 7SM -RA OVC021 21/18 A2983 710 87 1600 200/17G23 RMK AO2 P0000
14840KMKG MKG20060618093511106/18/06 09:35:31  5-MIN KMKG 181435Z 20015G23KT 7SM -RA OVC019 21/18 A2983 710 87 1600 210/15G23 RMK AO2 P0000
14840KMKG MKG20060618094011106/18/06 09:40:31  5-MIN KMKG 181440Z 20017G20KT 7SM -RA OVC019 21/18 A2983 710 87 1600 200/17G20 RMK AO2 P0000
14840KMKG MKG20060618094511106/18/06 09:45:31  5-MIN KMKG 181445Z 20016G21KT 7SM -RA OVC019 21/19 A2983 710 90 1600 210/16G21 RMK AO2 P0000
14840KMKG MKG20060618095013606/18/06 09:50:31  5-MIN KMKG 181450Z 20017KT 7SM OVC019 21/18 A2983 710 87 1600 210/17 RMK AO2 RAE46 SLP097 P0000 60000 T02060183 58008
14840KMKG MKG20060618095514006/18/06 09:55:31  5-MIN KMKG 181455Z 20016G21KT 7SM -RA OVC019 21/18 A2983 710 87 1600 210/16G21 RMK AO2 SLP097 P0000 60000 T02060183 58001
14840KMKG MKG20060618100011106/18/06 10:00:31  5-MIN KMKG 181500Z 20018G22KT 7SM -RA OVC019 21/18 A2983 720 87 1600 210/18G22 RMK AO2 P0000
14840KMKG MKG20060618100510506/18/06 10:05:31  5-MIN KMKG 181505Z 20016KT 7SM -RA OVC019 21/18 A2983 720 87 1600 210/16 RMK AO2 P0000
14840KMKG MKG20060618101011406/18/06 10:10:31  5-MIN KMKG 181510Z 21019G23KT 6SM -RA BR OVC017 21/18 A2983 720 87 1600 210/19G23 RMK AO2 P0000
14840KMKG MKG20060618101511106/18/06 10:15:31  5-MIN KMKG 181515Z 21016G23KT 7SM -RA OVC017 21/18 A2983 720 87 1600 210/16G23 RMK AO2 P0000
14840KMKG MKG20060618102011306/18/06 10:20:31  5-MIN KMKG 181520Z 21018G24KT 8SM OVC017 21/18 A2983 720 87 1600 210/18G24 RMK AO2 RAE20 P0000
14840KMKG MKG20060618102511106/18/06 10:25:31  5-MIN KMKG 181525Z 20019G25KT 7SM -RA OVC017 20/18 A2983 720 90 1500 210/19G25 RMK AO2 P0000
14840KMKG MKG20060618103011106/18/06 10:30:31  5-MIN KMKG 181530Z 21016G25KT 7SM -RA OVC017 20/18 A2983 720 90 1500 210/16G25 RMK AO2 P0000
14840KMKG MKG20060618103511306/18/06 10:35:31  5-MIN KMKG 181535Z 21018G24KT 9SM OVC017 20/18 A2983 720 87 1500 210/18G24 RMK AO2 RAE34 P0000
14840KMKG MKG20060618104012906/18/06 10:40:31  5-MIN KMKG 181540Z 21019G29KT 9SM -RA OVC019 20/18 A2982 720 87 1500 210/19G29 RMK AO2 PK WND 21029/1537 P0000
14840KMKG MKG20060618104512906/18/06 10:45:31  5-MIN KMKG 181545Z 21017G29KT 9SM -RA OVC019 20/18 A2983 720 87 1500 210/17G29 RMK AO2 PK WND 21029/1537 P0000
14840KMKG MKG20060618105014806/18/06 10:50:31  5-MIN KMKG 181550Z 20019G24KT 9SM OVC019 20/18 A2983 720 87 1500 210/19G24 RMK AO2 PK WND 21029/1537 RAE49 SLP096 P0000 T02000178
14840KMKG MKG20060618105514806/18/06 10:55:31  5-MIN KMKG 181555Z 21019G26KT 9SM OVC019 20/18 A2983 720 87 1500 210/19G26 RMK AO2 PK WND 21029/1537 RAE49 SLP096 P0000 T02000178
14840KMKG MKG20060618110010106/18/06 11:00:31  5-MIN KMKG 181600Z 21021G26KT 9SM OVC019 20/18 A2983 720 87 1500 210/21G26 RMK AO2
14840KMKG MKG20060618110510106/18/06 11:05:31  5-MIN KMKG 181605Z 21020G25KT 9SM OVC019 20/18 A2983 720 87 1500 220/20G25 RMK AO2
14840KMKG MKG20060618111013806/18/06 11:10:31  5-MIN KMKG 181610Z 21021G26KT 6SM -RA BR OVC019 20/18 A2983 720 87 1500 210/21G26 RMK AO2 PK WND 21026/1609 RAB09 P0000
14840KMKG MKG20060618111515106/18/06 11:15:31  5-MIN KMKG 181615Z 22019G26KT 4SM -RA BR OVC019 20/18 A2983 710 87 1500 230/19G26 RMK AO2 PK WND 21026/1609 VIS 2 RWY 14 RAB09 P0001
14840KMKG MKG20060618112016606/18/06 11:20:31  5-MIN KMKG 181620Z 23016G24KT 2 1/2SM -RA BR FEW007 OVC019 18/17 A2984 710 93 1300 240/16G24 RMK AO2 PK WND 21026/1609 VIS 1 1/4 RWY 14 RAB09 P0002
14840KMKG MKG20060618112516506/18/06 11:25:31  5-MIN KMKG 181625Z 22015G20KT 2 1/2SM RA BR FEW009 OVC019 18/17 A2984 700 93 1200 230/15G20 RMK AO2 PK WND 21026/1609 VIS 1 1/4 RWY 14 RAB09 P0004
14840KMKG MKG20060618113017806/18/06 11:30:31  5-MIN KMKG 181630Z 22016KT 3SM -RA BR SCT009 SCT012 OVC019 18/17 A2984 700 96 1200 230/16 RMK AO2 PK WND 21026/1609 VIS 1 1/2 RWY 14 RAB09 CIG 012 RWY 14 P0005
14840KMKG MKG20060618113516806/18/06 11:35:31  5-MIN KMKG 181635Z 23015KT 3SM -RA BR BKN009 OVC019 18/17 A2985 700 93 1200 230/15 RMK AO2 PK WND 21026/1609 VIS 1 3/4 RWY 14 RAB09 CIG 005V011 P0005
14840KMKG MKG20060618114015506/18/06 11:40:31  5-MIN KMKG 181640Z 23013KT 2 1/2SM -RA BR BKN007 OVC019 18/17 A2984 700 93 1200 230/13 RMK AO2 PK WND 21026/1609 RAB09 CIG 005V013 P0006
14840KMKG MKG20060618114515506/18/06 11:45:31  5-MIN KMKG 181645Z 23012KT 2 1/2SM -RA BR BKN007 OVC011 18/17 A2984 700 96 1200 230/12 RMK AO2 PK WND 21026/1609 RAB09 CIG 005V008 P0007
14840KMKG MKG20060618115015506/18/06 11:50:31  5-MIN KMKG 181650Z 23014KT 1 1/4SM +RA BR BKN005 OVC011 18/17 A2985 700 96 1200 230/14 RMK AO2 PK WND 21026/1609 RAB09 CIG 004V008 P0010
14840KMKG MKG20060618115516006/18/06 11:55:31  5-MIN KMKG 181655Z 24014KT 1SM RA BR OVC005 18/17 A2984 700 96 1200 240/14 RMK AO2 PK WND 21026/1609 RAB09 CIG 003V008 SLP103 P0013 T01780172
14840KMKG MKG20060618120013806/18/06 12:00:31  5-MIN KMKG 181700Z 24013KT 1 1/2SM RA BR OVC005 18/17 A2984 700 96 1200 240/13 RMK AO2 VIS 3/4 RWY 14 CIG 003V008 P0002
14840KMKG MKG20060618120513606/18/06 12:05:31  5-MIN KMKG 181705Z 24014KT 1 3/4SM RA BR OVC005 18/17 A2984 700 93 1300 240/14 RMK AO2 VIS 1 RWY 14 CIG 003V008 P0005
14840KMKG MKG20060618121014106/18/06 12:10:31  5-MIN KMKG 181710Z 24012KT 2 1/2SM -RA BR OVC005 18/18 A2985 700 96 1300 250/12 RMK AO2 VIS 1 1/4 RWY 14 CIG 003V008 P0005
14840KMKG MKG20060618121512806/18/06 12:15:31  5-MIN KMKG 181715Z 24011KT 2 1/2SM RA BR OVC005 18/18 A2985 700 96 1300 250/11 RMK AO2 VIS 1 1/2 RWY 14 P0006
14840KMKG MKG20060618122011506/18/06 12:20:31  5-MIN KMKG 181720Z 24011KT 2SM -RA BR BKN005 OVC022 18/17 A2985 700 93 1300 250/11 RMK AO2 P0006
14840KMKG MKG20060618122511406/18/06 12:25:31  5-MIN KMKG 181725Z 23010KT 2SM RA BR BKN005 OVC017 18/17 A2985 700 96 1200 240/10 RMK AO2 P0007
14840KMKG MKG20060618123011906/18/06 12:30:31  5-MIN KMKG 181730Z 24011KT 1 3/4SM -RA BR BKN005 OVC015 18/17 A2985 700 96 1200 240/11 RMK AO2 P0009
14840KMKG MKG20060618123513606/18/06 12:35:31  5-MIN KMKG 181735Z 25010KT 2 1/2SM -RA BR BKN005 OVC018 17/17 A2985 700 96 1200 260/10 RMK AO2 VIS 1 1/4 RWY 14 P0010
14840KMKG MKG20060618124013606/18/06 12:40:31  5-MIN KMKG 181740Z 25009KT 2 1/2SM -RA BR BKN005 OVC018 17/17 A2985 700 96 1200 250/09 RMK AO2 VIS 1 1/2 RWY 14 P0010
14840KMKG MKG20060618124513606/18/06 12:45:31  5-MIN KMKG 181745Z 24008KT 2 1/2SM -RA BR BKN005 OVC018 17/17 A2985 700 96 1200 240/08 RMK AO2 VIS 1 1/2 RWY 14 P0011
14840KMKG MKG20060618125018406/18/06 12:50:31  5-MIN KMKG 181750Z 23007KT 2 1/2SM -RA BR BKN005 BKN018 OVC030 18/17 A2984 700 96 1200 230/07 RMK AO2 VIS 1 1/4 RWY 14 SLP103 P0011 60024 T01780172 10233 20172 58001
14840KMKG MKG20060618125519906/18/06 12:55:31  5-MIN KMKG 181755Z 23006KT 2 1/2SM -RA BR SCT003 BKN018 OVC030 18/17 A2984 700 96 1200 240/06 RMK AO2 VIS 1 1/2 RWY 14 CIG 003 RWY 14 SLP103 P0011 60024 T01780172 10233 20172 51005
14840KMKG MKG20060618130015006/18/06 13:00:31  5-MIN KMKG 181800Z 22006KT 4SM -RA BR SCT003 BKN018 OVC030 18/18 A2984 700 96 1300 230/06 RMK AO2 VIS 2 RWY 14 CIG 003 RWY 14 P0000
14840KMKG MKG20060618130512206/18/06 13:05:31  5-MIN KMKG 181805Z 23007KT 5SM -RA BR SCT003 BKN018 OVC060 18/18 A2984 700 96 1300 230/07 RMK AO2 P0000
14840KMKG MKG20060618131013506/18/06 13:10:31  5-MIN KMKG 181810Z 20005KT 2 1/2SM SCT003 BKN018 OVC041 18/18 A2984 700 96 1300 200/05 RMK AO2 SFC VIS 7 RAE09 P0000
14840KMKG MKG20060618131515306/18/06 13:15:31  5-MIN KMKG 181815Z 20004KT 2 1/2SM BR SCT003 BKN024 OVC042 18/18 A2984 700 96 1300 210/04 RMK AO2 SFC VIS 9 RAE09 CIG 019 RWY 14 P0000
14840KMKG MKG20060618132013806/18/06 13:20:31  5-MIN KMKG 181820Z 24006KT 2 1/2SM BR SCT003 BKN022 OVC042 18/17 A2984 700 93 1300 240/06 RMK AO2 SFC VIS 3 RAE09 P0000
14840KMKG MKG20060618132515006/18/06 13:25:31  5-MIN KMKG 181825Z 24005KT 2 1/2SM BR SCT003 BKN022 OVC055 18/18 A2984 700 96 1300 250/05 RMK AO2 SFC VIS 3 RAE09 CIG 016V030 P0000
14840KMKG MKG20060618133015306/18/06 13:30:31  5-MIN KMKG 181830Z 22006KT 2 1/2SM BR SCT003 BKN047 OVC055 18/17 A2984 700 93 1300 220/06 RMK AO2 SFC VIS 6 RAE09 CIG 040 RWY 14 P0000
14840KMKG MKG20060618133513806/18/06 13:35:31  5-MIN KMKG 181835Z 21005KT 2 1/2SM BR SCT003 BKN047 OVC055 18/17 A2984 700 93 1300 210/05 RMK AO2 SFC VIS 6 RAE09 P0000
14840KMKG MKG20060618134013806/18/06 13:40:31  5-MIN KMKG 181840Z 18005KT 2 1/2SM BR SCT003 SCT045 OVC055 19/18 A2984 710 93 1400 180/05 RMK AO2 SFC VIS 6 RAE09 P0000
14840KMKG MKG20060618134513806/18/06 13:45:31  5-MIN KMKG 181845Z 19004KT 2 1/2SM BR FEW003 SCT047 OVC055 19/18 A2984 710 93 1400 190/04 RMK AO2 SFC VIS 6 RAE09 P0000
14840KMKG MKG20060618135014806/18/06 13:50:31  5-MIN KMKG 181850Z 19006KT 2 1/2SM BR SCT003 OVC055 19/18 A2984 710 93 1400 200/06 RMK AO2 SFC VIS 6 RAE09 SLP102 P0000 T01890178
14840KMKG MKG20060618135515106/18/06 13:55:31  5-MIN KMKG 181855Z 23007KT 3SM -RA BR SCT005 OVC055 19/18 A2984 710 93 1400 230/07 RMK AO2 SFC VIS 6 RAE09B52 SLP101 P0000 T01890178
14840KMKG MKG20060618140012506/18/06 14:00:31  5-MIN KMKG 181900Z 23008KT 3SM -RA BR BKN005 OVC055 18/17 A2984 700 93 1300 230/08 RMK AO2 SFC VIS 6 P0000
14840KMKG MKG20060618140512506/18/06 14:05:31  5-MIN KMKG 181905Z 24009KT 3SM -RA BR BKN005 OVC055 18/17 A2984 700 93 1300 240/09 RMK AO2 SFC VIS 6 P0000
14840KMKG MKG20060618141012506/18/06 14:10:31  5-MIN KMKG 181910Z 20007KT 3SM -RA BR BKN005 OVC060 18/17 A2983 710 93 1300 200/07 RMK AO2 SFC VIS 6 P0000
14840KMKG MKG20060618141512506/18/06 14:15:31  5-MIN KMKG 181915Z 20010KT 3SM -RA BR BKN005 OVC070 18/17 A2983 710 93 1300 200/10 RMK AO2 SFC VIS 6 P0000
14840KMKG MKG20060618142013206/18/06 14:20:31  5-MIN KMKG 181920Z 18008KT 3SM -RA BR SCT005 BKN050 OVC075 18/17 A2983 720 93 1300 190/08 RMK AO2 SFC VIS 6 P0000
14840KMKG MKG20060618142513206/18/06 14:25:31  5-MIN KMKG 181925Z 15009KT 3SM -RA BR FEW005 BKN036 OVC075 18/17 A2982 730 93 1300 160/09 RMK AO2 SFC VIS 6 P0000
14840KMKG MKG20060618143013206/18/06 14:30:31  5-MIN KMKG 181930Z 17007KT 3SM -RA BR FEW005 BKN033 BKN075 18/17 A2982 730 93 1300 170/07 RMK AO2 SFC VIS 6 P0001
14840KMKG MKG20060618143513206/18/06 14:35:31  5-MIN KMKG 181935Z 21006KT 3SM -RA BR FEW003 SCT036 BKN080 18/18 A2982 720 96 1300 220/06 RMK AO2 SFC VIS 6 P0001
14840KMKG MKG20060618144013206/18/06 14:40:31  5-MIN KMKG 181940Z 27005KT 3SM -RA BR FEW004 SCT031 BKN080 19/18 A2983 720 93 1400 280/05 RMK AO2 SFC VIS 6 P0001
14840KMKG MKG20060618144512506/18/06 14:45:31  5-MIN KMKG 181945Z 29004KT 3SM -RA BR SCT004 BKN028 18/18 A2983 720 96 1300 300/04 RMK AO2 SFC VIS 6 P0001
14840KMKG MKG20060618145013206/18/06 14:50:31  5-MIN KMKG 181950Z 00000KT 3SM -RA BR SCT004 BKN021 BKN090 19/18 A2983 720 93 1400 000/00 RMK AO2 SFC VIS 6 P0001
14840KMKG MKG20060618145514906/18/06 14:55:31  5-MIN KMKG 181955Z 00000KT 3SM -RA BR SCT004 SCT021 BKN090 19/18 A2982 720 93 1400 000/00 RMK AO2 SFC VIS 6 SLP097 P0001 T01890178
14840KMKG MKG20060618150012906/18/06 15:00:31  5-MIN KMKG 182000Z 00000KT 3SM BR FEW004 BKN090 19/18 A2983 710 93 1400 000/00 RMK AO2 SFC VIS 6 RAE1957 P0000
14840KMKG MKG20060618150512906/18/06 15:05:31  5-MIN KMKG 182005Z 25004KT 3SM BR SCT004 OVC090 19/18 A2984 710 93 1400 250/04 RMK AO2 SFC VIS 6 RAE1957 P0000
14840KMKG MKG20060618151012506/18/06 15:10:31  5-MIN KMKG 182010Z 22009KT 3SM -RA BR FEW004 BKN090 19/18 A2984 710 90 1400 230/09 RMK AO2 SFC VIS 6 P0000
14840KMKG MKG20060618151512506/18/06 15:15:31  5-MIN KMKG 182015Z 23008KT 3SM -RA BR FEW006 BKN090 19/18 A2984 700 90 1400 230/08 RMK AO2 SFC VIS 6 P0000
14840KMKG MKG20060618152011806/18/06 15:20:31  5-MIN KMKG 182020Z 24009KT 3SM -RA BR BKN090 19/17 A2984 700 90 1400 240/09 RMK AO2 SFC VIS 6 P0000
14840KMKG MKG20060618152511806/18/06 15:25:31  5-MIN KMKG 182025Z 25006KT 3SM -RA BR BKN090 18/17 A2984 700 93 1300 250/06 RMK AO2 SFC VIS 6 P0000
14840KMKG MKG20060618153011806/18/06 15:30:31  5-MIN KMKG 182030Z 24006KT 3SM -RA BR BKN090 18/17 A2985 690 93 1300 240/06 RMK AO2 SFC VIS 6 P0000
14840KMKG MKG20060618153511006/18/06 15:35:31  5-MIN KMKG 182035Z 23007KT 6SM BR BKN095 18/17 A2985 690 90 1300 230/07 RMK AO2 RAE35 P0000
14840KMKG MKG20060618154011506/18/06 15:40:31  5-MIN KMKG 182040Z 23008KT 6SM -RA BR FEW020 BKN095 18/17 A2986 690 90 1300 230/08 RMK AO2 P0000
14840KMKG MKG20060618154511206/18/06 15:45:31  5-MIN KMKG 182045Z 24007KT 7SM -RA FEW017 BKN090 18/17 A2985 690 93 1200 240/07 RMK AO2 P0001
14840KMKG MKG20060618155014106/18/06 15:50:31  5-MIN KMKG 182050Z 23009KT 8SM -RA FEW029 BKN095 18/17 A2985 690 93 1200 240/09 RMK AO2 SLP106 P0001 60002 T01780167 51005
14840KMKG MKG20060618155514106/18/06 15:55:31  5-MIN KMKG 182055Z 26009KT 8SM -RA FEW033 BKN095 18/17 A2985 700 93 1200 260/09 RMK AO2 SLP104 P0001 60002 T01780167 53001
14840KMKG MKG20060618160011206/18/06 16:00:31  5-MIN KMKG 182100Z 27006KT 8SM -RA FEW026 BKN095 18/17 A2984 700 93 1200 280/06 RMK AO2 P0000
14840KMKG MKG20060618160511406/18/06 16:05:31  5-MIN KMKG 182105Z 27005KT 8SM FEW026 SCT090 18/17 A2985 700 93 1200 270/05 RMK AO2 RAE03 P0000
14840KMKG MKG20060618161010706/18/06 16:10:31  5-MIN KMKG 182110Z 24003KT 8SM FEW090 18/16 A2984 700 90 1200 250/03 RMK AO2 RAE03 P0000
14840KMKG MKG20060618161510706/18/06 16:15:31  5-MIN KMKG 182115Z 25004KT 8SM SCT090 18/16 A2984 700 90 1200 250/04 RMK AO2 RAE03 P0000
14840KMKG MKG20060618162010706/18/06 16:20:31  5-MIN KMKG 182120Z 24003KT 8SM SCT090 18/16 A2984 700 90 1200 240/03 RMK AO2 RAE03 P0000
14840KMKG MKG20060618162511406/18/06 16:25:31  5-MIN KMKG 182125Z 21004KT 8SM -RA SCT090 18/17 A2984 710 93 1200 220/04 RMK AO2 RAE03B21 P0000
14840KMKG MKG20060618163011406/18/06 16:30:31  5-MIN KMKG 182130Z 22003KT 8SM -RA SCT090 18/17 A2984 710 93 1200 220/03 RMK AO2 RAE03B21 P0000
14840KMKG MKG20060618163511306/18/06 16:35:31  5-MIN KMKG 182135Z 22005KT 8SM SCT090 18/17 A2984 700 93 1200 220/05 RMK AO2 RAE03B21E35 P0000
14840KMKG MKG20060618164011306/18/06 16:40:31  5-MIN KMKG 182140Z 21006KT 8SM SCT090 18/17 A2984 710 93 1200 220/06 RMK AO2 RAE03B21E35 P0000
14840KMKG MKG20060618164511306/18/06 16:45:31  5-MIN KMKG 182145Z 20006KT 8SM SCT090 18/17 A2983 710 90 1300 210/06 RMK AO2 RAE03B21E35 P0000
14840KMKG MKG20060618165013706/18/06 16:50:31  5-MIN KMKG 182150Z 21005KT 8SM FEW010 SCT090 18/17 A2983 710 93 1300 220/05 RMK AO2 RAE03B21E35 SLP099 P0000 T01830172
14840KMKG MKG20060618165513806/18/06 16:55:31  5-MIN KMKG 182155Z 21005KT 10SM FEW010 SCT090 18/17 A2982 720 90 1300 210/05 RMK AO2 RAE03B21E35 SLP096 P0000 T01830167
14840KMKG MKG20060618170010306/18/06 17:00:31  5-MIN KMKG 182200Z 23005KT 10SM FEW033 SCT090 18/17 A2983 720 90 1300 240/05 RMK AO2
14840KMKG MKG20060618170510306/18/06 17:05:31  5-MIN KMKG 182205Z 25006KT 10SM FEW033 SCT090 18/17 A2983 710 90 1300 260/06 RMK AO2
14840KMKG MKG20060618171010306/18/06 17:10:31  5-MIN KMKG 182210Z 25007KT 10SM FEW033 SCT090 18/17 A2984 710 90 1300 260/07 RMK AO2
14840KMKG MKG20060618171510306/18/06 17:15:31  5-MIN KMKG 182215Z 23006KT 10SM FEW033 SCT090 18/17 A2983 710 90 1300 240/06 RMK AO2
14840KMKG MKG20060618172010306/18/06 17:20:31  5-MIN KMKG 182220Z 24006KT 10SM FEW033 SCT090 18/17 A2983 710 90 1300 240/06 RMK AO2
14840KMKG MKG20060618172510306/18/06 17:25:31  5-MIN KMKG 182225Z 24006KT 10SM FEW033 SCT090 18/17 A2983 710 90 1300 240/06 RMK AO2
14840KMKG MKG20060618173009606/18/06 17:30:31  5-MIN KMKG 182230Z 25007KT 10SM SCT090 18/17 A2984 710 90 1300 250/07 RMK AO2
14840KMKG MKG20060618173509606/18/06 17:35:31  5-MIN KMKG 182235Z 23008KT 10SM SCT090 18/16 A2984 710 90 1200 230/08 RMK AO2
14840KMKG MKG20060618174010306/18/06 17:40:31  5-MIN KMKG 182240Z 23008KT 10SM FEW034 SCT110 18/16 A2984 710 90 1200 230/08 RMK AO2
14840KMKG MKG20060618174510306/18/06 17:45:31  5-MIN KMKG 182245Z 24010KT 10SM FEW034 SCT110 18/16 A2984 700 90 1200 240/10 RMK AO2
14840KMKG MKG20060618175012006/18/06 17:50:31  5-MIN KMKG 182250Z 24010KT 10SM FEW034 SCT110 18/16 A2984 700 90 1200 240/10 RMK AO2 SLP103 T01780161
14840KMKG MKG20060618175512006/18/06 17:55:31  5-MIN KMKG 182255Z 25008KT 10SM FEW034 SCT110 18/16 A2984 700 90 1200 260/08 RMK AO2 SLP102 T01780161
14840KMKG MKG20060618180010306/18/06 18:00:31  5-MIN KMKG 182300Z 23007KT 10SM FEW034 SCT110 18/16 A2984 710 90 1200 230/07 RMK AO2
14840KMKG MKG20060618180510306/18/06 18:05:31  5-MIN KMKG 182305Z 21006KT 10SM FEW034 SCT110 18/16 A2983 710 90 1200 210/06 RMK AO2
14840KMKG MKG20060618181010306/18/06 18:10:31  5-MIN KMKG 182310Z 23007KT 10SM FEW034 SCT110 18/16 A2984 700 90 1200 240/07 RMK AO2
14840KMKG MKG20060618181510306/18/06 18:15:31  5-MIN KMKG 182315Z 21008KT 10SM FEW034 SCT120 18/16 A2984 710 90 1200 210/08 RMK AO2
14840KMKG MKG20060618182010306/18/06 18:20:31  5-MIN KMKG 182320Z 24007KT 10SM FEW034 SCT120 18/17 A2984 700 93 1200 240/07 RMK AO2
14840KMKG MKG20060618182510306/18/06 18:25:31  5-MIN KMKG 182325Z 24006KT 10SM FEW034 SCT120 18/16 A2984 700 90 1200 240/06 RMK AO2
14840KMKG MKG20060618183010306/18/06 18:30:31  5-MIN KMKG 182330Z 22006KT 10SM FEW034 SCT120 18/16 A2984 710 90 1200 220/06 RMK AO2
14840KMKG MKG20060618183510306/18/06 18:35:31  5-MIN KMKG 182335Z 22007KT 10SM FEW034 SCT120 18/16 A2985 700 90 1200 230/07 RMK AO2
14840KMKG MKG20060618184010306/18/06 18:40:31  5-MIN KMKG 182340Z 24007KT 10SM FEW034 SCT120 18/16 A2985 690 90 1200 250/07 RMK AO2
14840KMKG MKG20060618184510306/18/06 18:45:31  5-MIN KMKG 182345Z 22007KT 10SM FEW034 SCT120 18/16 A2985 700 90 1200 220/07 RMK AO2
14840KMKG MKG20060618185014406/18/06 18:50:31  5-MIN KMKG 182350Z 21007KT 10SM FEW034 SCT120 18/17 A2985 700 93 1200 210/07 RMK AO2 SLP104 60002 T01780167 10194 20172 53001
14840KMKG MKG20060618185513706/18/06 18:55:31  5-MIN KMKG 182355Z 21008KT 10SM SCT085 18/17 A2984 700 93 1200 210/08 RMK AO2 SLP104 60002 T01780167 10194 20172 55000
14840KMKG MKG20060618190009306/18/06 19:00:31  5-MIN KMKG 190000Z 21006KT 10SM CLR 18/16 A2984 700 90 1200 220/06 RMK AO2
14840KMKG MKG20060618190509606/18/06 19:05:31  5-MIN KMKG 190005Z 19006KT 10SM SCT085 18/16 A2984 700 90 1200 200/06 RMK AO2
14840KMKG MKG20060618191009606/18/06 19:10:31  5-MIN KMKG 190010Z 19005KT 10SM SCT085 18/16 A2984 700 90 1200 190/05 RMK AO2
14840KMKG MKG20060618191509606/18/06 19:15:31  5-MIN KMKG 190015Z 21005KT 10SM SCT085 18/16 A2985 700 90 1200 210/05 RMK AO2
14840KMKG MKG20060618192009606/18/06 19:20:31  5-MIN KMKG 190020Z 22005KT 10SM SCT085 17/16 A2985 700 93 1200 220/05 RMK AO2
14840KMKG MKG20060618192509606/18/06 19:25:31  5-MIN KMKG 190025Z 22007KT 10SM SCT085 17/16 A2985 690 93 1200 220/07 RMK AO2
14840KMKG MKG20060618193009606/18/06 19:30:31  5-MIN KMKG 190030Z 22007KT 10SM SCT085 17/16 A2985 700 93 1200 220/07 RMK AO2
14840KMKG MKG20060618193509606/18/06 19:35:31  5-MIN KMKG 190035Z 21007KT 10SM SCT090 17/16 A2985 700 93 1200 220/07 RMK AO2
14840KMKG MKG20060618194009606/18/06 19:40:31  5-MIN KMKG 190040Z 21006KT 10SM SCT090 17/16 A2984 700 93 1200 210/06 RMK AO2
14840KMKG MKG20060618194509606/18/06 19:45:31  5-MIN KMKG 190045Z 20006KT 10SM SCT090 17/16 A2985 700 93 1200 210/06 RMK AO2
14840KMKG MKG20060618195011306/18/06 19:50:31  5-MIN KMKG 190050Z 21007KT 10SM SCT090 17/16 A2985 700 93 1200 210/07 RMK AO2 SLP104 T01720161
14840KMKG MKG20060618195511306/18/06 19:55:31  5-MIN KMKG 190055Z 20007KT 10SM SCT090 17/16 A2985 700 93 1200 210/07 RMK AO2 SLP104 T01720161
14840KMKG MKG20060618203509606/18/06 20:35:31  5-MIN KMKG 190135Z 19003KT 10SM FEW100 17/16 A2985 690 93 1200 190/03 RMK AO2
14840KMKG MKG20060618204009606/18/06 20:40:31  5-MIN KMKG 190140Z 19004KT 10SM FEW100 17/16 A2986 690 93 1100 190/04 RMK AO2
14840KMKG MKG20060618204509606/18/06 20:45:31  5-MIN KMKG 190145Z 20004KT 10SM FEW100 17/16 A2986 690 93 1100 200/04 RMK AO2
14840KMKG MKG20060618205011306/18/06 20:50:31  5-MIN KMKG 190150Z 19004KT 10SM FEW100 17/16 A2986 690 93 1100 200/04 RMK AO2 SLP108 T01720161
14840KMKG MKG20060618205511306/18/06 20:55:31  5-MIN KMKG 190155Z 19004KT 10SM FEW100 17/16 A2986 690 93 1100 200/04 RMK AO2 SLP108 T01720161
14840KMKG MKG20060618210009606/18/06 21:00:31  5-MIN KMKG 190200Z 19003KT 10SM FEW100 17/16 A2986 680 93 1100 200/03 RMK AO2
14840KMKG MKG20060618210509606/18/06 21:05:31  5-MIN KMKG 190205Z 19004KT 10SM FEW100 17/16 A2987 680 93 1100 190/04 RMK AO2
14840KMKG MKG20060618211009606/18/06 21:10:31  5-MIN KMKG 190210Z 19004KT 10SM FEW100 17/16 A2987 680 93 1100 190/04 RMK AO2
14840KMKG MKG20060618211509606/18/06 21:15:31  5-MIN KMKG 190215Z 19005KT 10SM FEW100 17/16 A2987 680 93 1100 200/05 RMK AO2
14840KMKG MKG20060618212009606/18/06 21:20:31  5-MIN KMKG 190220Z 20005KT 10SM SCT020 18/17 A2987 680 93 1200 200/05 RMK AO2
14840KMKG MKG20060618212509606/18/06 21:25:31  5-MIN KMKG 190225Z 20006KT 10SM BKN020 18/17 A2987 670 93 1200 210/06 RMK AO2
14840KMKG MKG20060618213009606/18/06 21:30:31  5-MIN KMKG 190230Z 20006KT 10SM BKN020 18/17 A2987 670 90 1300 210/06 RMK AO2
14840KMKG MKG20060618213509606/18/06 21:35:31  5-MIN KMKG 190235Z 21006KT 10SM BKN020 18/17 A2987 670 93 1300 220/06 RMK AO2
14840KMKG MKG20060618214009606/18/06 21:40:31  5-MIN KMKG 190240Z 21006KT 10SM OVC020 18/17 A2988 670 93 1300 210/06 RMK AO2
14840KMKG MKG20060618214509606/18/06 21:45:31  5-MIN KMKG 190245Z 21007KT 10SM BKN020 18/17 A2988 670 93 1300 210/07 RMK AO2
14840KMKG MKG20060618215011906/18/06 21:50:31  5-MIN KMKG 190250Z 20009KT 10SM BKN020 18/17 A2988 670 93 1300 200/09 RMK AO2 SLP114 T01830172 55000
14840KMKG MKG20060618215511906/18/06 21:55:31  5-MIN KMKG 190255Z 20007KT 10SM BKN020 19/17 A2988 670 90 1300 210/07 RMK AO2 SLP115 T01890172 53011
14840KMKG MKG20060618220009606/18/06 22:00:31  5-MIN KMKG 190300Z 20007KT 10SM SCT018 18/17 A2987 670 93 1300 210/07 RMK AO2
14840KMKG MKG20060618220509606/18/06 22:05:31  5-MIN KMKG 190305Z 21009KT 10SM FEW018 18/17 A2987 680 93 1300 210/09 RMK AO2
14840KMKG MKG20060618221009606/18/06 22:10:31  5-MIN KMKG 190310Z 20009KT 10SM FEW018 18/17 A2987 680 93 1300 210/09 RMK AO2
14840KMKG MKG20060618221509306/18/06 22:15:31  5-MIN KMKG 190315Z 21009KT 10SM CLR 18/17 A2986 680 93 1300 220/09 RMK AO2
14840KMKG MKG20060618222009306/18/06 22:20:31  5-MIN KMKG 190320Z 22011KT 10SM CLR 18/17 A2986 680 93 1300 230/11 RMK AO2
14840KMKG MKG20060618222509306/18/06 22:25:31  5-MIN KMKG 190325Z 23011KT 10SM CLR 19/17 A2986 680 90 1300 230/11 RMK AO2
14840KMKG MKG20060618223009306/18/06 22:30:31  5-MIN KMKG 190330Z 22013KT 10SM CLR 19/17 A2986 690 90 1300 220/13 RMK AO2
14840KMKG MKG20060618223509306/18/06 22:35:31  5-MIN KMKG 190335Z 22013KT 10SM CLR 19/17 A2986 690 90 1300 230/13 RMK AO2
14840KMKG MKG20060618224009306/18/06 22:40:31  5-MIN KMKG 190340Z 23012KT 10SM CLR 19/17 A2986 690 90 1300 230/12 RMK AO2
14840KMKG MKG20060618224509906/18/06 22:45:31  5-MIN KMKG 190345Z 23012G18KT 10SM CLR 19/17 A2986 690 90 1300 230/12G18 RMK AO2
14840KMKG MKG20060618225011606/18/06 22:50:31  5-MIN KMKG 190350Z 23014G19KT 10SM CLR 19/17 A2986 680 90 1300 240/14G19 RMK AO2 SLP110 T01890172
14840KMKG MKG20060618225511606/18/06 22:55:31  5-MIN KMKG 190355Z 23011G19KT 10SM CLR 19/18 A2986 680 93 1300 230/11G19 RMK AO2 SLP110 T01890178
14840KMKG MKG20060618230009306/18/06 23:00:31  5-MIN KMKG 190400Z 22010KT 10SM CLR 19/17 A2986 680 90 1300 220/10 RMK AO2
14840KMKG MKG20060618230509306/18/06 23:05:31  5-MIN KMKG 190405Z 22011KT 10SM CLR 18/17 A2986 680 93 1300 220/11 RMK AO2
14840KMKG MKG20060618231009306/18/06 23:10:31  5-MIN KMKG 190410Z 22012KT 10SM CLR 18/17 A2986 680 93 1300 220/12 RMK AO2
14840KMKG MKG20060618231509306/18/06 23:15:31  5-MIN KMKG 190415Z 21011KT 10SM CLR 18/17 A2986 690 93 1300 220/11 RMK AO2
14840KMKG MKG20060618232009306/18/06 23:20:31  5-MIN KMKG 190420Z 20011KT 10SM CLR 18/17 A2986 690 93 1300 200/11 RMK AO2
14840KMKG MKG20060618232509206/18/06 23:25:31  5-MIN KMKG 190425Z 20010KT 9SM CLR 18/17 A2986 690 93 1300 200/10 RMK AO2
14840KMKG MKG20060618233009506/18/06 23:30:31  5-MIN KMKG 190430Z 20009KT 9SM FEW013 18/17 A2986 690 96 1200 200/09 RMK AO2
14840KMKG MKG20060618233509506/18/06 23:35:31  5-MIN KMKG 190435Z 21009KT 9SM FEW013 18/17 A2986 690 96 1200 210/09 RMK AO2
14840KMKG MKG20060618234009206/18/06 23:40:31  5-MIN KMKG 190440Z 21009KT 9SM CLR 18/17 A2986 690 96 1200 220/09 RMK AO2
14840KMKG MKG20060618234509206/18/06 23:45:31  5-MIN KMKG 190445Z 20009KT 9SM CLR 18/17 A2986 690 96 1200 210/09 RMK AO2
14840KMKG MKG20060618235011906/18/06 23:50:31  5-MIN KMKG 190450Z 21008KT 8SM CLR 18/17 A2986 690 96 1200 210/08 RMK AO2 SLP110 T01780172 402500172
14840KMKG MKG20060618235512206/18/06 23:55:31  5-MIN KMKG 190455Z 21008KT 8SM FEW090 18/17 A2986 690 93 1200 210/08 RMK AO2 SLP109 T01780167 402500172
14840KMKG MKG20060619000009506/19/06 00:00:32  5-MIN KMKG 190500Z 21008KT 8SM FEW090 18/17 A2985 690 93 1200 220/08 RMK AO2
14840KMKG MKG20060619000509506/19/06 00:05:31  5-MIN KMKG 190505Z 21008KT 8SM FEW090 18/17 A2985 690 93 1200 210/08 RMK AO2
14840KMKG MKG20060619001009506/19/06 00:10:31  5-MIN KMKG 190510Z 20008KT 8SM FEW090 18/17 A2985 690 93 1200 210/08 RMK AO2
14840KMKG MKG20060619001509506/19/06 00:15:31  5-MIN KMKG 190515Z 21009KT 7SM FEW090 18/17 A2985 690 93 1200 210/09 RMK AO2
14840KMKG MKG20060619002009506/19/06 00:20:31  5-MIN KMKG 190520Z 21009KT 7SM FEW090 18/17 A2985 690 93 1200 210/09 RMK AO2
14840KMKG MKG20060619002509206/19/06 00:25:31  5-MIN KMKG 190525Z 21008KT 7SM CLR 18/17 A2985 690 93 1200 210/08 RMK AO2
14840KMKG MKG20060619003009206/19/06 00:30:31  5-MIN KMKG 190530Z 22007KT 7SM CLR 18/17 A2985 690 93 1200 220/07 RMK AO2
14840KMKG MKG20060619003509206/19/06 00:35:31  5-MIN KMKG 190535Z 21009KT 7SM CLR 18/17 A2985 690 93 1200 210/09 RMK AO2
14840KMKG MKG20060619004009206/19/06 00:40:31  5-MIN KMKG 190540Z 22010KT 7SM CLR 18/17 A2985 700 93 1200 220/10 RMK AO2
14840KMKG MKG20060619004509206/19/06 00:45:31  5-MIN KMKG 190545Z 22009KT 7SM CLR 18/17 A2985 690 93 1200 220/09 RMK AO2
14840KMKG MKG20060619005012706/19/06 00:50:31  5-MIN KMKG 190550Z 21008KT 7SM CLR 18/17 A2985 700 93 1200 220/08 RMK AO2 SLP106 T01780167 10189 20172 53011
14840KMKG MKG20060619005512706/19/06 00:55:31  5-MIN KMKG 190555Z 22009KT 7SM CLR 18/17 A2985 700 93 1200 220/09 RMK AO2 SLP106 T01780167 10189 20172 56009
14840KMKG MKG20060619010009206/19/06 01:00:31  5-MIN KMKG 190600Z 22009KT 7SM CLR 18/17 A2985 700 93 1200 220/09 RMK AO2
14840KMKG MKG20060619010509206/19/06 01:05:31  5-MIN KMKG 190605Z 23008KT 7SM CLR 17/17 A2984 700 96 1200 230/08 RMK AO2
14840KMKG MKG20060619011009206/19/06 01:10:31  5-MIN KMKG 190610Z 24008KT 7SM CLR 17/16 A2984 700 93 1200 250/08 RMK AO2
14840KMKG MKG20060619011509206/19/06 01:15:31  5-MIN KMKG 190615Z 25008KT 7SM CLR 17/16 A2984 700 93 1200 250/08 RMK AO2
14840KMKG MKG20060619012009206/19/06 01:20:31  5-MIN KMKG 190620Z 23010KT 7SM CLR 18/17 A2984 700 93 1200 230/10 RMK AO2
14840KMKG MKG20060619012509206/19/06 01:25:31  5-MIN KMKG 190625Z 23010KT 7SM CLR 17/16 A2984 700 93 1200 230/10 RMK AO2
14840KMKG MKG20060619013009506/19/06 01:30:31  5-MIN KMKG 190630Z 23010KT 6SM BR CLR 17/16 A2984 700 93 1200 230/10 RMK AO2
14840KMKG MKG20060619013509506/19/06 01:35:31  5-MIN KMKG 190635Z 24011KT 6SM BR CLR 17/16 A2984 710 93 1200 240/11 RMK AO2
14840KMKG MKG20060619014009506/19/06 01:40:31  5-MIN KMKG 190640Z 24011KT 6SM BR CLR 17/16 A2984 710 93 1200 240/11 RMK AO2
14840KMKG MKG20060619014509506/19/06 01:45:31  5-MIN KMKG 190645Z 24011KT 6SM BR CLR 17/16 A2984 710 93 1200 240/11 RMK AO2
14840KMKG MKG20060619015010906/19/06 01:50:31  5-MIN KMKG 190650Z 24009KT 7SM CLR 18/17 A2984 710 93 1200 250/09 RMK AO2 SLP102 T01780167
14840KMKG MKG20060619015510906/19/06 01:55:31  5-MIN KMKG 190655Z 24012KT 7SM CLR 18/17 A2984 710 93 1200 250/12 RMK AO2 SLP102 T01780167
14840KMKG MKG20060619020009206/19/06 02:00:31  5-MIN KMKG 190700Z 24011KT 7SM CLR 18/17 A2983 710 90 1300 240/11 RMK AO2
14840KMKG MKG20060619020509206/19/06 02:05:31  5-MIN KMKG 190705Z 24011KT 7SM CLR 18/17 A2983 710 90 1300 250/11 RMK AO2
14840KMKG MKG20060619021009206/19/06 02:10:31  5-MIN KMKG 190710Z 24010KT 7SM CLR 18/17 A2983 710 93 1200 240/10 RMK AO2
14840KMKG MKG20060619021509506/19/06 02:15:31  5-MIN KMKG 190715Z 24010KT 6SM BR CLR 18/17 A2983 710 93 1200 240/10 RMK AO2
14840KMKG MKG20060619022009506/19/06 02:20:31  5-MIN KMKG 190720Z 25010KT 6SM BR CLR 18/17 A2983 710 93 1200 250/10 RMK AO2
14840KMKG MKG20060619022509506/19/06 02:25:31  5-MIN KMKG 190725Z 24009KT 6SM BR CLR 18/17 A2983 710 93 1200 250/09 RMK AO2
14840KMKG MKG20060619023009506/19/06 02:30:31  5-MIN KMKG 190730Z 24009KT 6SM BR CLR 18/17 A2983 710 93 1200 240/09 RMK AO2
14840KMKG MKG20060619023509506/19/06 02:35:31  5-MIN KMKG 190735Z 24009KT 6SM BR CLR 18/17 A2983 710 93 1200 240/09 RMK AO2
14840KMKG MKG20060619024009506/19/06 02:40:31  5-MIN KMKG 190740Z 23009KT 6SM BR CLR 17/17 A2983 710 96 1200 230/09 RMK AO2
14840KMKG MKG20060619024509506/19/06 02:45:31  5-MIN KMKG 190745Z 23009KT 5SM BR CLR 17/17 A2983 710 96 1200 240/09 RMK AO2
14840KMKG MKG20060619025011206/19/06 02:50:31  5-MIN KMKG 190750Z 24010KT 5SM BR CLR 17/17 A2983 710 96 1200 240/10 RMK AO2 SLP101 T01720167
14840KMKG MKG20060619025511206/19/06 02:55:31  5-MIN KMKG 190755Z 26008KT 6SM BR CLR 18/17 A2983 710 90 1300 260/08 RMK AO2 SLP101 T01830167
14840KMKG MKG20060619030009206/19/06 03:00:31  5-MIN KMKG 190800Z 25009KT 7SM CLR 18/17 A2983 710 93 1300 260/09 RMK AO2
14840KMKG MKG20060619030509206/19/06 03:05:31  5-MIN KMKG 190805Z 25011KT 8SM CLR 19/18 A2983 720 90 1400 260/11 RMK AO2
14840KMKG MKG20060619031009306/19/06 03:10:31  5-MIN KMKG 190810Z 27012KT 10SM CLR 20/18 A2983 710 87 1500 270/12 RMK AO2
14840KMKG MKG20060619031509906/19/06 03:15:31  5-MIN KMKG 190815Z 26013G18KT 10SM CLR 20/18 A2983 720 87 1500 260/13G18 RMK AO2
14840KMKG MKG20060619032009806/19/06 03:20:31  5-MIN KMKG 190820Z 26012G19KT 9SM CLR 19/18 A2983 720 90 1400 260/12G19 RMK AO2
14840KMKG MKG20060619032509806/19/06 03:25:31  5-MIN KMKG 190825Z 27013G19KT 9SM CLR 19/18 A2983 710 90 1400 270/13G19 RMK AO2
14840KMKG MKG20060619033009806/19/06 03:30:31  5-MIN KMKG 190830Z 26014G20KT 8SM CLR 19/18 A2983 710 90 1400 270/14G20 RMK AO2
14840KMKG MKG20060619033509806/19/06 03:35:31  5-MIN KMKG 190835Z 26013G20KT 8SM CLR 19/17 A2983 720 90 1400 260/13G20 RMK AO2
14840KMKG MKG20060619034009206/19/06 03:40:31  5-MIN KMKG 190840Z 27011KT 8SM CLR 19/17 A2983 710 90 1400 270/11 RMK AO2
14840KMKG MKG20060619034509206/19/06 03:45:31  5-MIN KMKG 190845Z 26011KT 7SM CLR 18/17 A2983 710 93 1300 260/11 RMK AO2
14840KMKG MKG20060619035011506/19/06 03:50:31  5-MIN KMKG 190850Z 26011KT 7SM CLR 18/17 A2983 710 93 1300 260/11 RMK AO2 SLP099 T01830172 56009
14840KMKG MKG20060619035511506/19/06 03:55:31  5-MIN KMKG 190855Z 26011KT 7SM CLR 18/17 A2983 720 93 1300 270/11 RMK AO2 SLP099 T01830172 56007
14840KMKG MKG20060619040009206/19/06 04:00:31  5-MIN KMKG 190900Z 26011KT 7SM CLR 18/17 A2983 710 93 1300 260/11 RMK AO2
14840KMKG MKG20060619040509506/19/06 04:05:31  5-MIN KMKG 190905Z 26009KT 6SM BR CLR 18/17 A2983 710 93 1200 260/09 RMK AO2
14840KMKG MKG20060619041009506/19/06 04:10:31  5-MIN KMKG 190910Z 26008KT 5SM BR CLR 18/17 A2983 710 93 1200 260/08 RMK AO2
14840KMKG MKG20060619041509506/19/06 04:15:31  5-MIN KMKG 190915Z 27010KT 6SM BR CLR 18/17 A2983 710 90 1300 270/10 RMK AO2
14840KMKG MKG20060619042009506/19/06 04:20:31  5-MIN KMKG 190920Z 27010KT 6SM BR CLR 18/17 A2983 710 93 1300 270/10 RMK AO2
14840KMKG MKG20060619042509206/19/06 04:25:31  5-MIN KMKG 190925Z 26010KT 7SM CLR 19/17 A2983 710 90 1400 260/10 RMK AO2
14840KMKG MKG20060619043010806/19/06 04:30:31  5-MIN KMKG 190930Z 26010KT 230V360 7SM CLR 19/17 A2983 720 90 1400 270/10 230V360 RMK AO2
14840KMKG MKG20060619043509506/19/06 04:35:31  5-MIN KMKG 190935Z 25010KT 6SM BR CLR 18/17 A2983 720 93 1300 260/10 RMK AO2
14840KMKG MKG20060619044009506/19/06 04:40:31  5-MIN KMKG 190940Z 24008KT 6SM BR CLR 18/17 A2983 710 93 1300 250/08 RMK AO2
14840KMKG MKG20060619044511106/19/06 04:45:31  5-MIN KMKG 190945Z 24007KT 230V360 6SM BR CLR 18/17 A2983 710 93 1200 240/07 230V360 RMK AO2
14840KMKG MKG20060619045011206/19/06 04:50:31  5-MIN KMKG 190950Z 23009KT 6SM BR CLR 18/17 A2984 710 93 1200 230/09 RMK AO2 SLP102 T01780167
14840KMKG MKG20060619045511206/19/06 04:55:31  5-MIN KMKG 190955Z 22008KT 5SM BR CLR 18/17 A2984 710 93 1200 230/08 RMK AO2 SLP102 T01780167
14840KMKG MKG20060619050009506/19/06 05:00:31  5-MIN KMKG 191000Z 26007KT 4SM BR CLR 17/17 A2984 710 96 1200 260/07 RMK AO2
14840KMKG MKG20060619050511206/19/06 05:05:31  5-MIN KMKG 191005Z 25006KT 4SM BR CLR 17/17 A2984 710 96 1200 250/06 RMK AO2 VIS 2 1/2 RWY 14
14840KMKG MKG20060619051011206/19/06 05:10:31  5-MIN KMKG 191010Z 23006KT 3SM BR CLR 17/17 A2984 700 96 1200 240/06 RMK AO2 VIS 2 1/2 RWY 14
14840KMKG MKG20060619051511206/19/06 05:15:31  5-MIN KMKG 191015Z 24005KT 3SM BR CLR 17/16 A2984 700 93 1200 250/05 RMK AO2 VIS 2 1/2 RWY 14
14840KMKG MKG20060619052011506/19/06 05:20:31  5-MIN KMKG 191020Z 21006KT 3SM BR FEW005 17/16 A2984 700 93 1200 220/06 RMK AO2 VIS 2 1/2 RWY 14
14840KMKG MKG20060619052511506/19/06 05:25:31  5-MIN KMKG 191025Z 22004KT 3SM BR FEW005 17/16 A2985 700 93 1200 220/04 RMK AO2 VIS 2 1/2 RWY 14
14840KMKG MKG20060619053009806/19/06 05:30:31  5-MIN KMKG 191030Z 22005KT 3SM BR FEW007 17/16 A2985 700 93 1200 220/05 RMK AO2
14840KMKG MKG20060619053511106/19/06 05:35:31  5-MIN KMKG 191035Z 21004KT 3SM BR FEW007 17/16 A2984 700 93 1200 220/04 RMK AO2 VIS 2 RWY 14
14840KMKG MKG20060619054011106/19/06 05:40:31  5-MIN KMKG 191040Z 22004KT 4SM BR FEW007 17/16 A2985 700 93 1200 230/04 RMK AO2 VIS 2 RWY 14
14840KMKG MKG20060619054511506/19/06 05:45:31  5-MIN KMKG 191045Z 28006KT 4SM BR FEW007 17/16 A2985 700 93 1200 290/06 RMK AO2 VIS 2 1/2 RWY 14
14840KMKG MKG20060619055013206/19/06 05:50:31  5-MIN KMKG 191050Z 24006KT 4SM BR SCT007 17/16 A2985 690 93 1200 250/06 RMK AO2 VIS 2 1/2 RWY 14 SLP107 T01720161
14840KMKG MKG20060619055511506/19/06 05:55:31  5-MIN KMKG 191055Z 24004KT 4SM BR FEW007 17/16 A2985 690 93 1200 240/04 RMK AO2 SLP107 T01720161
14840KMKG MKG20060619060009806/19/06 06:00:31  5-MIN KMKG 191100Z 23005KT 4SM BR FEW007 17/16 A2985 690 93 1200 240/05 RMK AO2
14840KMKG MKG20060619060509806/19/06 06:05:31  5-MIN KMKG 191105Z VRB04KT 4SM BR FEW007 17/16 A2985 690 96 1100 VRB/04 RMK AO2
14840KMKG MKG20060619061009806/19/06 06:10:31  5-MIN KMKG 191110Z VRB05KT 4SM BR FEW007 17/17 A2985 690 96 1200 VRB/05 RMK AO2
14840KMKG MKG20060619061509806/19/06 06:15:31  5-MIN KMKG 191115Z 27006KT 4SM BR FEW007 18/17 A2986 690 93 1200 270/06 RMK AO2
14840KMKG MKG20060619062009806/19/06 06:20:31  5-MIN KMKG 191120Z 24005KT 4SM BR SCT007 18/17 A2985 690 93 1200 250/05 RMK AO2
14840KMKG MKG20060619062509806/19/06 06:25:31  5-MIN KMKG 191125Z 26007KT 4SM BR SCT007 17/16 A2986 690 93 1200 270/07 RMK AO2
14840KMKG MKG20060619063009806/19/06 06:30:31  5-MIN KMKG 191130Z VRB05KT 4SM BR SCT007 18/17 A2986 690 93 1200 VRB/05 RMK AO2
14840KMKG MKG20060619063509806/19/06 06:35:31  5-MIN KMKG 191135Z VRB05KT 5SM BR FEW007 18/17 A2986 690 93 1200 VRB/05 RMK AO2
14840KMKG MKG20060619064009806/19/06 06:40:31  5-MIN KMKG 191140Z 26006KT 5SM BR FEW007 18/17 A2985 690 93 1300 260/06 RMK AO2
14840KMKG MKG20060619064509806/19/06 06:45:31  5-MIN KMKG 191145Z 26004KT 6SM BR FEW007 18/17 A2985 690 90 1300 260/04 RMK AO2
14840KMKG MKG20060619065013906/19/06 06:50:31  5-MIN KMKG 191150Z 26006KT 6SM BR FEW007 18/17 A2985 690 90 1300 260/06 RMK AO2 SLP108 70026 T01830167 10200 20167 56007
14840KMKG MKG20060619065513306/19/06 06:55:31  5-MIN KMKG 191155Z VRB04KT 7SM CLR 19/17 A2985 690 90 1300 VRB/04 RMK AO2 SLP108 70026 T01890172 10200 20167 51009
14840KMKG MKG20060619070009206/19/06 07:00:31  5-MIN KMKG 191200Z 24005KT 7SM CLR 19/17 A2985 690 90 1300 240/05 RMK AO2
14840KMKG MKG20060619070509206/19/06 07:05:31  5-MIN KMKG 191205Z VRB04KT 7SM CLR 19/17 A2985 700 87 1400 VRB/04 RMK AO2
14840KMKG MKG20060619071009206/19/06 07:10:31  5-MIN KMKG 191210Z 26005KT 8SM CLR 19/18 A2986 690 90 1400 270/05 RMK AO2
14840KMKG MKG20060619071509206/19/06 07:15:31  5-MIN KMKG 191215Z VRB06KT 9SM CLR 19/17 A2985 690 87 1400 VRB/06 RMK AO2
14840KMKG MKG20060619072009306/19/06 07:20:31  5-MIN KMKG 191220Z VRB04KT 10SM CLR 19/17 A2985 690 87 1400 VRB/04 RMK AO2
14840KMKG MKG20060619072509306/19/06 07:25:31  5-MIN KMKG 191225Z 26006KT 10SM CLR 20/17 A2985 690 84 1500 260/06 RMK AO2
14840KMKG MKG20060619073009306/19/06 07:30:31  5-MIN KMKG 191230Z 26005KT 10SM CLR 20/17 A2985 700 84 1500 270/05 RMK AO2
14840KMKG MKG20060619073510906/19/06 07:35:31  5-MIN KMKG 191235Z 26008KT 210V280 10SM CLR 21/17 A2985 700 81 1500 260/08 210V280 RMK AO2
14840KMKG MKG20060619074010906/19/06 07:40:31  5-MIN KMKG 191240Z 26007KT 230V290 10SM CLR 21/18 A2985 690 84 1500 270/07 230V290 RMK AO2
14840KMKG MKG20060619074510906/19/06 07:45:31  5-MIN KMKG 191245Z 26007KT 220V290 10SM CLR 21/18 A2985 690 84 1500 260/07 220V290 RMK AO2
14840KMKG MKG20060619075012606/19/06 07:50:31  5-MIN KMKG 191250Z 25007KT 220V280 10SM CLR 21/18 A2985 690 81 1600 260/07 220V280 RMK AO2 SLP107 T02110178
14840KMKG MKG20060619075511006/19/06 07:55:31  5-MIN KMKG 191255Z 25012KT 10SM CLR 21/18 A2985 690 81 1600 260/12 RMK AO2 SLP106 T02110178
14840KMKG MKG20060619080009306/19/06 08:00:31  5-MIN KMKG 191300Z 26011KT 10SM CLR 21/17 A2985 690 78 1600 270/11 RMK AO2
14840KMKG MKG20060619080509306/19/06 08:05:31  5-MIN KMKG 191305Z 27011KT 10SM CLR 21/18 A2985 690 81 1600 270/11 RMK AO2
14840KMKG MKG20060619081009306/19/06 08:10:31  5-MIN KMKG 191310Z 26010KT 10SM CLR 21/17 A2985 690 78 1600 270/10 RMK AO2
14840KMKG MKG20060619081509306/19/06 08:15:31  5-MIN KMKG 191315Z 26012KT 10SM CLR 21/17 A2985 690 75 1600 270/12 RMK AO2
14840KMKG MKG20060619082009306/19/06 08:20:31  5-MIN KMKG 191320Z 26010KT 10SM CLR 21/17 A2985 690 78 1600 270/10 RMK AO2
14840KMKG MKG20060619082509306/19/06 08:25:31  5-MIN KMKG 191325Z 27008KT 10SM CLR 21/17 A2985 690 78 1600 270/08 RMK AO2
14840KMKG MKG20060619083009306/19/06 08:30:31  5-MIN KMKG 191330Z 26010KT 10SM CLR 22/17 A2985 690 73 1700 260/10 RMK AO2
14840KMKG MKG20060619083509306/19/06 08:35:31  5-MIN KMKG 191335Z 26013KT 10SM CLR 22/17 A2985 690 73 1700 270/13 RMK AO2
14840KMKG MKG20060619084009306/19/06 08:40:31  5-MIN KMKG 191340Z 27011KT 10SM CLR 22/17 A2986 690 70 1700 270/11 RMK AO2
14840KMKG MKG20060619084509906/19/06 08:45:31  5-MIN KMKG 191345Z 27011G16KT 10SM CLR 22/17 A2985 690 70 1700 270/11G16 RMK AO2
14840KMKG MKG20060619085011606/19/06 08:50:31  5-MIN KMKG 191350Z 27012G16KT 10SM CLR 22/17 A2985 690 70 1700 270/12G16 RMK AO2 SLP107 T02220167
14840KMKG MKG20060619085511606/19/06 08:55:31  5-MIN KMKG 191355Z 27013G18KT 10SM CLR 22/17 A2985 690 70 1700 270/13G18 RMK AO2 SLP107 T02220167
14840KMKG MKG20060619090009306/19/06 09:00:31  5-MIN KMKG 191400Z 27012KT 10SM CLR 22/17 A2985 700 70 1700 270/12 RMK AO2
14840KMKG MKG20060619090509306/19/06 09:05:31  5-MIN KMKG 191405Z 26013KT 10SM CLR 22/16 A2985 690 68 1700 260/13 RMK AO2
14840KMKG MKG20060619091009306/19/06 09:10:31  5-MIN KMKG 191410Z 26011KT 10SM CLR 22/16 A2985 700 68 1700 260/11 RMK AO2
14840KMKG MKG20060619091509906/19/06 09:15:31  5-MIN KMKG 191415Z 26012G17KT 10SM CLR 22/16 A2985 700 68 1700 260/12G17 RMK AO2
14840KMKG MKG20060619092009906/19/06 09:20:31  5-MIN KMKG 191420Z 25013G17KT 10SM CLR 22/16 A2985 700 68 1700 260/13G17 RMK AO2
14840KMKG MKG20060619092509306/19/06 09:25:31  5-MIN KMKG 191425Z 25012KT 10SM CLR 22/16 A2985 700 68 1700 250/12 RMK AO2
14840KMKG MKG20060619093009306/19/06 09:30:31  5-MIN KMKG 191430Z 25011KT 10SM CLR 22/16 A2985 700 68 1700 250/11 RMK AO2
14840KMKG MKG20060619093509306/19/06 09:35:31  5-MIN KMKG 191435Z 25010KT 10SM CLR 22/16 A2985 700 68 1700 250/10 RMK AO2
14840KMKG MKG20060619094009306/19/06 09:40:31  5-MIN KMKG 191440Z 24012KT 10SM CLR 22/16 A2984 700 68 1700 240/12 RMK AO2
14840KMKG MKG20060619094509306/19/06 09:45:31  5-MIN KMKG 191445Z 24011KT 10SM CLR 22/16 A2984 700 70 1700 240/11 RMK AO2
14840KMKG MKG20060619095011606/19/06 09:50:31  5-MIN KMKG 191450Z 25008KT 10SM CLR 23/16 A2984 700 65 1800 250/08 RMK AO2 SLP103 T02280161 51009
14840KMKG MKG20060619095511606/19/06 09:55:31  5-MIN KMKG 191455Z 26010KT 10SM CLR 23/16 A2985 700 65 1800 260/10 RMK AO2 SLP105 T02280161 58002
14840KMKG MKG20060619100009906/19/06 10:00:31  5-MIN KMKG 191500Z 26015G21KT 10SM CLR 23/16 A2986 690 65 1800 260/15G21 RMK AO2
14840KMKG MKG20060619100509906/19/06 10:05:31  5-MIN KMKG 191505Z 26015G21KT 10SM CLR 23/16 A2985 690 65 1800 270/15G21 RMK AO2
14840KMKG MKG20060619101009906/19/06 10:10:31  5-MIN KMKG 191510Z 26013G21KT 10SM CLR 22/16 A2985 690 68 1700 260/13G21 RMK AO2
14840KMKG MKG20060619101509306/19/06 10:15:31  5-MIN KMKG 191515Z 26010KT 10SM CLR 21/16 A2985 690 73 1500 260/10 RMK AO2
14840KMKG MKG20060619102009906/19/06 10:20:31  5-MIN KMKG 191520Z 25013G17KT 10SM CLR 21/16 A2985 690 73 1500 260/13G17 RMK AO2
14840KMKG MKG20060619102510206/19/06 10:25:31  5-MIN KMKG 191525Z 25011G21KT 10SM FEW110 20/16 A2985 690 75 1500 250/11G21 RMK AO2
14840KMKG MKG20060619103010206/19/06 10:30:31  5-MIN KMKG 191530Z 24011G21KT 10SM FEW110 20/16 A2985 690 75 1500 250/11G21 RMK AO2
14840KMKG MKG20060619103510206/19/06 10:35:31  5-MIN KMKG 191535Z 24013G18KT 10SM SCT110 19/16 A2985 690 78 1400 240/13G18 RMK AO2
14840KMKG MKG20060619104010206/19/06 10:40:31  5-MIN KMKG 191540Z 24014G18KT 10SM SCT110 19/16 A2985 690 78 1400 240/14G18 RMK AO2
14840KMKG MKG20060619104509606/19/06 10:45:31  5-MIN KMKG 191545Z 24012KT 10SM SCT110 19/16 A2985 700 78 1400 240/12 RMK AO2
14840KMKG MKG20060619105011306/19/06 10:50:31  5-MIN KMKG 191550Z 25011KT 10SM SCT110 20/16 A2985 690 75 1500 250/11 RMK AO2 SLP107 T02000156
14840KMKG MKG20060619105511306/19/06 10:55:31  5-MIN KMKG 191555Z 24011KT 10SM SCT110 20/16 A2985 690 75 1500 250/11 RMK AO2 SLP107 T02000156
14840KMKG MKG20060619110009606/19/06 11:00:31  5-MIN KMKG 191600Z 25011KT 10SM SCT110 20/16 A2985 690 75 1500 260/11 RMK AO2
14840KMKG MKG20060619110509606/19/06 11:05:31  5-MIN KMKG 191605Z 25011KT 10SM SCT110 20/16 A2985 690 75 1500 260/11 RMK AO2
14840KMKG MKG20060619111009606/19/06 11:10:31  5-MIN KMKG 191610Z 26010KT 10SM SCT110 21/16 A2986 690 73 1500 270/10 RMK AO2
14840KMKG MKG20060619111509606/19/06 11:15:31  5-MIN KMKG 191615Z 25011KT 10SM FEW110 21/16 A2986 690 70 1600 250/11 RMK AO2
14840KMKG MKG20060619112010206/19/06 11:20:31  5-MIN KMKG 191620Z 25013G17KT 10SM FEW110 22/16 A2986 690 65 1700 250/13G17 RMK AO2
14840KMKG MKG20060619112509606/19/06 11:25:31  5-MIN KMKG 191625Z 26011KT 10SM FEW110 22/16 A2986 690 68 1700 260/11 RMK AO2
14840KMKG MKG20060619113010206/19/06 11:30:31  5-MIN KMKG 191630Z 27010G17KT 10SM FEW110 22/15 A2986 690 65 1700 270/10G17 RMK AO2
14840KMKG MKG20060619113509906/19/06 11:35:31  5-MIN KMKG 191635Z 25014G18KT 10SM CLR 22/15 A2986 690 65 1700 260/14G18 RMK AO2
14840KMKG MKG20060619114009906/19/06 11:40:31  5-MIN KMKG 191640Z 26012G18KT 10SM CLR 22/15 A2986 690 65 1700 270/12G18 RMK AO2
14840KMKG MKG20060619114509906/19/06 11:45:31  5-MIN KMKG 191645Z 27012G17KT 10SM CLR 22/15 A2986 690 63 1700 270/12G17 RMK AO2
14840KMKG MKG20060619115011606/19/06 11:50:31  5-MIN KMKG 191650Z 26009G17KT 10SM CLR 23/15 A2986 690 61 1800 270/09G17 RMK AO2 SLP108 T02280150
14840KMKG MKG20060619115511006/19/06 11:55:31  5-MIN KMKG 191655Z 26012KT 10SM CLR 23/15 A2986 690 59 1900 260/12 RMK AO2 SLP108 T02330150
14840KMKG MKG20060619120009306/19/06 12:00:31  5-MIN KMKG 191700Z 26012KT 10SM CLR 23/15 A2986 690 61 1800 260/12 RMK AO2
14840KMKG MKG20060619120509906/19/06 12:05:31  5-MIN KMKG 191705Z 28013G17KT 10SM CLR 23/15 A2986 690 59 1900 280/13G17 RMK AO2
14840KMKG MKG20060619121009306/19/06 12:10:31  5-MIN KMKG 191710Z 27011KT 10SM CLR 23/15 A2986 690 59 1900 270/11 RMK AO2
14840KMKG MKG20060619121509306/19/06 12:15:31  5-MIN KMKG 191715Z 27009KT 10SM CLR 24/15 A2986 690 57 1900 270/09 RMK AO2
14840KMKG MKG20060619122009906/19/06 12:20:31  5-MIN KMKG 191720Z 27012G18KT 10SM CLR 24/15 A2986 680 57 1900 270/12G18 RMK AO2
14840KMKG MKG20060619122509906/19/06 12:25:31  5-MIN KMKG 191725Z 29013G18KT 10SM CLR 24/14 A2986 680 53 1900 290/13G18 RMK AO2
14840KMKG MKG20060619123009906/19/06 12:30:31  5-MIN KMKG 191730Z 27012G17KT 10SM CLR 24/14 A2986 680 55 1900 280/12G17 RMK AO2
14840KMKG MKG20060619123509906/19/06 12:35:31  5-MIN KMKG 191735Z 27015G19KT 10SM CLR 24/14 A2986 680 55 1900 270/15G19 RMK AO2
14840KMKG MKG20060619124010206/19/06 12:40:31  5-MIN KMKG 191740Z 28009G19KT 10SM FEW090 24/14 A2986 680 53 1900 280/09G19 RMK AO2
14840KMKG MKG20060619124509606/19/06 12:45:31  5-MIN KMKG 191745Z 28013KT 10SM FEW090 24/14 A2986 680 53 1900 280/13 RMK AO2
14840KMKG MKG20060619125013106/19/06 12:50:31  5-MIN KMKG 191750Z 27010KT 10SM FEW045 24/14 A2987 680 55 1900 280/10 RMK AO2 SLP111 T02390144 10239 20189 58002
14840KMKG MKG20060619125513106/19/06 12:55:31  5-MIN KMKG 191755Z 26010KT 10SM FEW045 24/14 A2987 680 55 1900 260/10 RMK AO2 SLP112 T02390144 10239 20189 53006
14840KMKG MKG20060619130009906/19/06 13:00:31  5-MIN KMKG 191800Z 26013G16KT 10SM CLR 24/14 A2987 680 55 1900 260/13G16 RMK AO2
14840KMKG MKG20060619130509306/19/06 13:05:31  5-MIN KMKG 191805Z 26013KT 10SM CLR 24/14 A2987 680 53 1900 270/13 RMK AO2
14840KMKG MKG20060619131009306/19/06 13:10:31  5-MIN KMKG 191810Z 27012KT 10SM CLR 23/14 A2987 680 57 1800 270/12 RMK AO2
14840KMKG MKG20060619131509306/19/06 13:15:31  5-MIN KMKG 191815Z 26011KT 10SM CLR 24/14 A2987 680 55 1900 270/11 RMK AO2
14840KMKG MKG20060619132009306/19/06 13:20:31  5-MIN KMKG 191820Z 27011KT 10SM CLR 24/14 A2987 680 55 1900 280/11 RMK AO2
14840KMKG MKG20060619132509306/19/06 13:25:31  5-MIN KMKG 191825Z 27011KT 10SM CLR 24/14 A2987 680 53 2000 270/11 RMK AO2
14840KMKG MKG20060619133009306/19/06 13:30:31  5-MIN KMKG 191830Z 28011KT 10SM CLR 24/14 A2987 680 55 1900 280/11 RMK AO2
14840KMKG MKG20060619133509306/19/06 13:35:31  5-MIN KMKG 191835Z 29012KT 10SM CLR 24/14 A2987 680 51 2000 290/12 RMK AO2
14840KMKG MKG20060619134009306/19/06 13:40:31  5-MIN KMKG 191840Z 28010KT 10SM CLR 24/14 A2987 680 51 2000 290/10 RMK AO2
14840KMKG MKG20060619134509306/19/06 13:45:31  5-MIN KMKG 191845Z 29010KT 10SM CLR 25/14 A2987 680 51 2000 300/10 RMK AO2
14840KMKG MKG20060619135012606/19/06 13:50:31  5-MIN KMKG 191850Z 28009KT 230V310 10SM CLR 25/14 A2987 680 51 2000 290/09 230V310 RMK AO2 SLP110 T02500144
14840KMKG MKG20060619135511306/19/06 13:55:31  5-MIN KMKG 191855Z 28010KT 10SM FEW045 25/14 A2987 680 51 2000 290/10 RMK AO2 SLP110 T02500144
14840KMKG MKG20060619140009306/19/06 14:00:31  5-MIN KMKG 191900Z 29009KT 10SM CLR 24/14 A2986 680 53 2000 290/09 RMK AO2
14840KMKG MKG20060619140509306/19/06 14:05:31  5-MIN KMKG 191905Z 29010KT 10SM CLR 24/14 A2986 680 51 2000 290/10 RMK AO2
14840KMKG MKG20060619141009306/19/06 14:10:31  5-MIN KMKG 191910Z 29010KT 10SM CLR 24/14 A2986 680 53 2000 290/10 RMK AO2
14840KMKG MKG20060619141509306/19/06 14:15:31  5-MIN KMKG 191915Z 30011KT 10SM CLR 25/14 A2986 680 51 2000 300/11 RMK AO2
14840KMKG MKG20060619142009306/19/06 14:20:31  5-MIN KMKG 191920Z 30011KT 10SM CLR 24/14 A2986 680 51 2000 310/11 RMK AO2
14840KMKG MKG20060619142509306/19/06 14:25:31  5-MIN KMKG 191925Z 30011KT 10SM CLR 24/14 A2986 680 51 2000 310/11 RMK AO2
14840KMKG MKG20060619143009306/19/06 14:30:31  5-MIN KMKG 191930Z 31013KT 10SM CLR 24/14 A2986 680 51 2000 310/13 RMK AO2
14840KMKG MKG20060619143509606/19/06 14:35:31  5-MIN KMKG 191935Z 31012KT 10SM FEW045 24/14 A2986 680 53 2000 310/12 RMK AO2
14840KMKG MKG20060619144009606/19/06 14:40:31  5-MIN KMKG 191940Z 31012KT 10SM FEW045 24/14 A2986 680 51 2000 310/12 RMK AO2
14840KMKG MKG20060619144509606/19/06 14:45:31  5-MIN KMKG 191945Z 30011KT 10SM FEW045 25/14 A2987 680 49 2000 310/11 RMK AO2
14840KMKG MKG20060619145011306/19/06 14:50:31  5-MIN KMKG 191950Z 30010KT 10SM FEW045 25/14 A2987 680 51 2000 300/10 RMK AO2 SLP111 T02500144
14840KMKG MKG20060619145511306/19/06 14:55:31  5-MIN KMKG 191955Z 30011KT 10SM FEW045 25/14 A2987 680 51 2000 300/11 RMK AO2 SLP110 T02500144
14840KMKG MKG20060619150009606/19/06 15:00:31  5-MIN KMKG 192000Z 30011KT 10SM FEW045 25/14 A2986 680 49 2000 300/11 RMK AO2
14840KMKG MKG20060619150509606/19/06 15:05:31  5-MIN KMKG 192005Z 30010KT 10SM FEW045 25/14 A2987 680 49 2000 300/10 RMK AO2
14840KMKG MKG20060619151009606/19/06 15:10:31  5-MIN KMKG 192010Z 30010KT 10SM FEW045 25/14 A2987 680 49 2000 300/10 RMK AO2
14840KMKG MKG20060619151509606/19/06 15:15:31  5-MIN KMKG 192015Z 31009KT 10SM FEW045 25/14 A2986 680 51 2000 310/09 RMK AO2
14840KMKG MKG20060619152009606/19/06 15:20:31  5-MIN KMKG 192020Z 31011KT 10SM FEW045 25/14 A2986 680 51 2000 310/11 RMK AO2
14840KMKG MKG20060619152509606/19/06 15:25:31  5-MIN KMKG 192025Z 30010KT 10SM FEW045 25/14 A2986 680 51 2000 300/10 RMK AO2
14840KMKG MKG20060619153009606/19/06 15:30:31  5-MIN KMKG 192030Z 31010KT 10SM FEW045 25/14 A2986 680 51 2000 310/10 RMK AO2
14840KMKG MKG20060619153509606/19/06 15:35:31  5-MIN KMKG 192035Z 31011KT 10SM FEW045 24/14 A2987 680 51 2000 310/11 RMK AO2
14840KMKG MKG20060619154009606/19/06 15:40:31  5-MIN KMKG 192040Z 31010KT 10SM FEW045 24/14 A2987 680 51 2000 320/10 RMK AO2
14840KMKG MKG20060619154509606/19/06 15:45:31  5-MIN KMKG 192045Z 30010KT 10SM FEW045 24/14 A2987 680 51 2000 310/10 RMK AO2
14840KMKG MKG20060619155011906/19/06 15:50:31  5-MIN KMKG 192050Z 29010KT 10SM FEW045 25/14 A2987 680 51 2000 300/10 RMK AO2 SLP112 T02500144 53006
14840KMKG MKG20060619155511906/19/06 15:55:31  5-MIN KMKG 192055Z 29007KT 10SM FEW045 25/14 A2987 680 51 2000 290/07 RMK AO2 SLP112 T02500144 53001
14840KMKG MKG20060619160009606/19/06 16:00:31  5-MIN KMKG 192100Z 29009KT 10SM FEW045 24/14 A2987 680 51 2000 300/09 RMK AO2
14840KMKG MKG20060619160509606/19/06 16:05:31  5-MIN KMKG 192105Z 31008KT 10SM FEW045 24/14 A2987 670 51 2000 310/08 RMK AO2
14840KMKG MKG20060619161009606/19/06 16:10:31  5-MIN KMKG 192110Z 30008KT 10SM FEW045 25/14 A2987 670 51 2000 310/08 RMK AO2
14840KMKG MKG20060619161509606/19/06 16:15:31  5-MIN KMKG 192115Z 29011KT 10SM FEW045 24/14 A2987 670 53 1900 290/11 RMK AO2
14840KMKG MKG20060619162009606/19/06 16:20:31  5-MIN KMKG 192120Z 31008KT 10SM FEW045 24/14 A2988 670 53 1900 310/08 RMK AO2
14840KMKG MKG20060619162509606/19/06 16:25:31  5-MIN KMKG 192125Z 29010KT 10SM FEW045 24/14 A2988 670 53 1900 300/10 RMK AO2
14840KMKG MKG20060619163009606/19/06 16:30:31  5-MIN KMKG 192130Z 30008KT 10SM FEW045 24/14 A2988 670 51 2000 300/08 RMK AO2
14840KMKG MKG20060619163509606/19/06 16:35:31  5-MIN KMKG 192135Z 31009KT 10SM FEW045 24/14 A2988 670 51 2000 310/09 RMK AO2
14840KMKG MKG20060619164009606/19/06 16:40:31  5-MIN KMKG 192140Z 30007KT 10SM FEW045 24/14 A2988 670 51 2000 300/07 RMK AO2
14840KMKG MKG20060619164509606/19/06 16:45:31  5-MIN KMKG 192145Z 30008KT 10SM FEW045 24/14 A2988 670 51 2000 300/08 RMK AO2
14840KMKG MKG20060619165011306/19/06 16:50:31  5-MIN KMKG 192150Z 29009KT 10SM FEW045 24/14 A2988 670 51 2000 300/09 RMK AO2 SLP115 T02440139
14840KMKG MKG20060619165511306/19/06 16:55:31  5-MIN KMKG 192155Z 31007KT 10SM FEW045 24/14 A2988 670 51 2000 310/07 RMK AO2 SLP116 T02440139
14840KMKG MKG20060619170009606/19/06 17:00:31  5-MIN KMKG 192200Z 31007KT 10SM FEW055 24/14 A2988 670 51 2000 310/07 RMK AO2
14840KMKG MKG20060619170510206/19/06 17:05:31  5-MIN KMKG 192205Z 31008G15KT 10SM FEW055 24/14 A2988 670 51 2000 310/08G15 RMK AO2
14840KMKG MKG20060619171010206/19/06 17:10:31  5-MIN KMKG 192210Z 31009G15KT 10SM FEW055 24/14 A2988 670 53 1900 320/09G15 RMK AO2
14840KMKG MKG20060619171509606/19/06 17:15:31  5-MIN KMKG 192215Z 31007KT 10SM FEW055 24/14 A2988 670 51 2000 310/07 RMK AO2
14840KMKG MKG20060619172009606/19/06 17:20:31  5-MIN KMKG 192220Z 30008KT 10SM FEW060 24/14 A2988 670 53 1900 310/08 RMK AO2
14840KMKG MKG20060619172509606/19/06 17:25:31  5-MIN KMKG 192225Z 32008KT 10SM FEW060 23/14 A2988 670 55 1800 330/08 RMK AO2
14840KMKG MKG20060619173009606/19/06 17:30:31  5-MIN KMKG 192230Z 32008KT 10SM SCT060 23/14 A2988 670 55 1800 320/08 RMK AO2
14840KMKG MKG20060619173509606/19/06 17:35:31  5-MIN KMKG 192235Z 31006KT 10SM BKN060 24/14 A2988 670 53 1900 310/06 RMK AO2
14840KMKG MKG20060619174009606/19/06 17:40:31  5-MIN KMKG 192240Z 30007KT 10SM SCT060 24/14 A2988 670 53 1900 300/07 RMK AO2
14840KMKG MKG20060619174509606/19/06 17:45:31  5-MIN KMKG 192245Z 31007KT 10SM SCT060 24/14 A2988 670 53 1900 320/07 RMK AO2
14840KMKG MKG20060619175011306/19/06 17:50:31  5-MIN KMKG 192250Z 30008KT 10SM SCT060 24/14 A2988 670 53 1900 310/08 RMK AO2 SLP116 T02390139
14840KMKG MKG20060619175511306/19/06 17:55:31  5-MIN KMKG 192255Z 30011KT 10SM FEW060 24/14 A2988 670 53 1900 310/11 RMK AO2 SLP116 T02390139
14840KMKG MKG20060619180009606/19/06 18:00:31  5-MIN KMKG 192300Z 30010KT 10SM FEW065 24/13 A2988 670 51 1900 300/10 RMK AO2
14840KMKG MKG20060619180509306/19/06 18:05:31  5-MIN KMKG 192305Z 31008KT 10SM CLR 24/13 A2988 670 51 1900 310/08 RMK AO2
14840KMKG MKG20060619181009306/19/06 18:10:31  5-MIN KMKG 192310Z 30010KT 10SM CLR 23/13 A2988 670 53 1800 310/10 RMK AO2
14840KMKG MKG20060619181509306/19/06 18:15:31  5-MIN KMKG 192315Z 30009KT 10SM CLR 23/13 A2988 670 53 1800 310/09 RMK AO2
14840KMKG MKG20060619182009306/19/06 18:20:31  5-MIN KMKG 192320Z 30008KT 10SM CLR 23/14 A2988 670 55 1800 310/08 RMK AO2
14840KMKG MKG20060619182509306/19/06 18:25:31  5-MIN KMKG 192325Z 31009KT 10SM CLR 23/13 A2988 670 53 1800 320/09 RMK AO2
14840KMKG MKG20060619183009306/19/06 18:30:31  5-MIN KMKG 192330Z 32010KT 10SM CLR 23/13 A2987 670 53 1800 320/10 RMK AO2
14840KMKG MKG20060619183509906/19/06 18:35:31  5-MIN KMKG 192335Z 32009G16KT 10SM CLR 23/13 A2987 670 55 1800 320/09G16 RMK AO2
14840KMKG MKG20060619184009306/19/06 18:40:31  5-MIN KMKG 192340Z 32010KT 10SM CLR 23/13 A2988 670 55 1800 320/10 RMK AO2
14840KMKG MKG20060619184509306/19/06 18:45:31  5-MIN KMKG 192345Z 31008KT 10SM CLR 23/13 A2988 670 55 1800 310/08 RMK AO2
14840KMKG MKG20060619185012806/19/06 18:50:31  5-MIN KMKG 192350Z 31010KT 10SM CLR 22/13 A2988 670 56 1700 320/10 RMK AO2 SLP114 T02220133 10250 20222 53001
14840KMKG MKG20060619185512806/19/06 18:55:31  5-MIN KMKG 192355Z 32008KT 10SM CLR 22/13 A2988 670 56 1700 320/08 RMK AO2 SLP115 T02220133 10250 20222 50002
14840KMKG MKG20060619190509306/19/06 19:05:31  5-MIN KMKG 200005Z 31009KT 10SM CLR 22/14 A2988 670 59 1700 320/09 RMK AO2
14840KMKG MKG20060619191009906/19/06 19:10:31  5-MIN KMKG 200010Z 32007G14KT 10SM CLR 22/14 A2988 670 59 1700 320/07G14 RMK AO2
14840KMKG MKG20060619191509306/19/06 19:15:31  5-MIN KMKG 200015Z 31009KT 10SM CLR 22/13 A2988 660 58 1600 320/09 RMK AO2
14840KMKG MKG20060619192009306/19/06 19:20:31  5-MIN KMKG 200020Z 32009KT 10SM CLR 22/13 A2989 660 58 1600 330/09 RMK AO2
14840KMKG MKG20060619192509306/19/06 19:25:31  5-MIN KMKG 200025Z 32006KT 10SM CLR 22/14 A2989 660 61 1600 320/06 RMK AO2
14840KMKG MKG20060619193009306/19/06 19:30:31  5-MIN KMKG 200030Z 31007KT 10SM CLR 21/14 A2989 660 63 1600 320/07 RMK AO2
14840KMKG MKG20060619193509306/19/06 19:35:31  5-MIN KMKG 200035Z 30005KT 10SM CLR 21/14 A2989 660 63 1600 310/05 RMK AO2
14840KMKG MKG20060619194009306/19/06 19:40:31  5-MIN KMKG 200040Z 31005KT 10SM CLR 21/14 A2989 660 63 1600 310/05 RMK AO2
14840KMKG MKG20060619194509306/19/06 19:45:31  5-MIN KMKG 200045Z 33006KT 10SM CLR 21/14 A2989 660 63 1600 330/06 RMK AO2
14840KMKG MKG20060619195011006/19/06 19:50:31  5-MIN KMKG 200050Z 33005KT 10SM CLR 21/14 A2989 660 63 1600 330/05 RMK AO2 SLP119 T02110139
14840KMKG MKG20060619195511006/19/06 19:55:31  5-MIN KMKG 200055Z 31006KT 10SM CLR 21/14 A2989 660 63 1600 320/06 RMK AO2 SLP120 T02110139
14840KMKG MKG20060619200009306/19/06 20:00:31  5-MIN KMKG 200100Z 33008KT 10SM CLR 21/14 A2989 660 65 1500 330/08 RMK AO2
14840KMKG MKG20060619200509306/19/06 20:05:31  5-MIN KMKG 200105Z 32007KT 10SM CLR 21/14 A2989 650 65 1500 330/07 RMK AO2
14840KMKG MKG20060619201009306/19/06 20:10:31  5-MIN KMKG 200110Z 32008KT 10SM CLR 21/14 A2990 650 65 1500 330/08 RMK AO2
14840KMKG MKG20060619201509306/19/06 20:15:31  5-MIN KMKG 200115Z 32007KT 10SM CLR 20/14 A2990 650 67 1400 330/07 RMK AO2
14840KMKG MKG20060619202009606/19/06 20:20:31  5-MIN KMKG 200120Z 31006KT 10SM FEW075 20/14 A2990 650 67 1400 310/06 RMK AO2
14840KMKG MKG20060619202509606/19/06 20:25:31  5-MIN KMKG 200125Z 28005KT 10SM FEW075 20/14 A2990 650 67 1400 290/05 RMK AO2
14840KMKG MKG20060619203009606/19/06 20:30:31  5-MIN KMKG 200130Z 28005KT 10SM SCT075 19/14 A2990 650 70 1400 280/05 RMK AO2
14840KMKG MKG20060619203509606/19/06 20:35:31  5-MIN KMKG 200135Z 26005KT 10SM BKN075 19/14 A2990 650 72 1300 270/05 RMK AO2
14840KMKG MKG20060619204009606/19/06 20:40:31  5-MIN KMKG 200140Z 27006KT 10SM BKN075 19/14 A2990 650 72 1300 280/06 RMK AO2
14840KMKG MKG20060619204509606/19/06 20:45:31  5-MIN KMKG 200145Z 28005KT 10SM BKN075 19/14 A2990 640 72 1300 280/05 RMK AO2
14840KMKG MKG20060619205011306/19/06 20:50:31  5-MIN KMKG 200150Z 29005KT 10SM BKN075 19/14 A2990 650 72 1300 300/05 RMK AO2 SLP124 T01890139
14840KMKG MKG20060619205511306/19/06 20:55:31  5-MIN KMKG 200155Z 29006KT 10SM BKN075 19/14 A2991 640 72 1300 300/06 RMK AO2 SLP125 T01890139
14840KMKG MKG20060619210009606/19/06 21:00:31  5-MIN KMKG 200200Z 29006KT 10SM BKN075 18/14 A2991 640 75 1200 290/06 RMK AO2
14840KMKG MKG20060619210509606/19/06 21:05:31  5-MIN KMKG 200205Z 29006KT 10SM BKN075 18/14 A2991 640 75 1200 300/06 RMK AO2
14840KMKG MKG20060619211009606/19/06 21:10:31  5-MIN KMKG 200210Z 30005KT 10SM SCT075 18/14 A2991 640 78 1200 300/05 RMK AO2
14840KMKG MKG20060619211509606/19/06 21:15:31  5-MIN KMKG 200215Z 29004KT 10SM SCT075 18/14 A2992 630 78 1100 290/04 RMK AO2
14840KMKG MKG20060619212009606/19/06 21:20:31  5-MIN KMKG 200220Z 28004KT 10SM FEW075 18/14 A2992 630 78 1100 280/04 RMK AO2
14840KMKG MKG20060619212509606/19/06 21:25:31  5-MIN KMKG 200225Z 28003KT 10SM FEW075 17/14 A2992 630 80 1100 290/03 RMK AO2
14840KMKG MKG20060619213009606/19/06 21:30:31  5-MIN KMKG 200230Z 28003KT 10SM FEW080 17/14 A2992 630 80 1100 280/03 RMK AO2
14840KMKG MKG20060619213509606/19/06 21:35:31  5-MIN KMKG 200235Z 27003KT 10SM FEW080 17/14 A2992 630 80 1100 270/03 RMK AO2
14840KMKG MKG20060619214009306/19/06 21:40:31  5-MIN KMKG 200240Z 27003KT 10SM CLR 17/14 A2993 620 80 1100 270/03 RMK AO2
14840KMKG MKG20060619214509306/19/06 21:45:31  5-MIN KMKG 200245Z 00000KT 10SM CLR 17/14 A2993 620 83 1000 000/00 RMK AO2
14840KMKG MKG20060619215011606/19/06 21:50:31  5-MIN KMKG 200250Z 23003KT 10SM CLR 17/14 A2994 610 83 1000 230/03 RMK AO2 SLP135 T01670139 50002
14840KMKG MKG20060619215511606/19/06 21:55:31  5-MIN KMKG 200255Z 22003KT 10SM CLR 17/14 A2994 610 83 1000 220/03 RMK AO2 SLP136 T01670139 53021
14840KMKG MKG20060619220009306/19/06 22:00:31  5-MIN KMKG 200300Z 00000KT 10SM CLR 17/14 A2994 610 83 1000 000/00 RMK AO2
14840KMKG MKG20060619220509606/19/06 22:05:31  5-MIN KMKG 200305Z 00000KT 10SM FEW050 17/14 A2994 610 83 1000 000/00 RMK AO2
14840KMKG MKG20060619221009606/19/06 22:10:31  5-MIN KMKG 200310Z 00000KT 10SM SCT050 17/14 A2995 610 83 1000 000/00 RMK AO2
14840KMKG MKG20060619221509606/19/06 22:15:31  5-MIN KMKG 200315Z 00000KT 10SM SCT050 17/14 A2995 600 83 1000 000/00 RMK AO2
14840KMKG MKG20060619222009606/19/06 22:20:31  5-MIN KMKG 200320Z 00000KT 10SM BKN050 17/14 A2995 600 86 1000 000/00 RMK AO2
14840KMKG MKG20060619222509606/19/06 22:25:31  5-MIN KMKG 200325Z 22003KT 10SM BKN050 17/14 A2995 600 86 1000 220/03 RMK AO2
14840KMKG MKG20060619223010306/19/06 22:30:31  5-MIN KMKG 200330Z 00000KT 10SM BKN050 BKN065 17/14 A2995 600 86 1000 000/00 RMK AO2
14840KMKG MKG20060619223510906/19/06 22:35:31  5-MIN KMKG 200335Z 00000KT 10SM BKN050 BKN065 BKN085 16/14 A2995 600 90 900 000/00 RMK AO2
14840KMKG MKG20060619224011006/19/06 22:40:31  5-MIN KMKG 200340Z 00000KT 10SM SCT050 BKN060 BKN085 17/14 A2995 600 86 1000 000/00 RMK AO2
14840KMKG MKG20060619224511006/19/06 22:45:31  5-MIN KMKG 200345Z 00000KT 10SM FEW050 SCT065 BKN085 17/14 A2995 600 86 1000 000/00 RMK AO2
14840KMKG MKG20060619225012706/19/06 22:50:31  5-MIN KMKG 200350Z 00000KT 10SM FEW050 SCT065 BKN085 17/14 A2995 600 86 1000 000/00 RMK AO2 SLP142 T01670144
14840KMKG MKG20060619225514206/19/06 22:55:31  5-MIN KMKG 200355Z 00000KT 10SM SCT060 SCT070 BKN085 17/14 A2996 600 86 1000 000/00 RMK AO2 CIG 065 RWY 14 SLP143 T01670144
14840KMKG MKG20060619230010306/19/06 23:00:31  5-MIN KMKG 200400Z 00000KT 10SM SCT060 BKN085 17/14 A2996 600 86 1000 000/00 RMK AO2
14840KMKG MKG20060619230510306/19/06 23:05:31  5-MIN KMKG 200405Z 00000KT 10SM FEW065 BKN085 17/14 A2996 600 86 1000 000/00 RMK AO2
14840KMKG MKG20060619231011806/19/06 23:10:31  5-MIN KMKG 200410Z 00000KT 10SM SCT055 BKN085 17/14 A2996 600 86 1000 000/00 RMK AO2 CIG 055 RWY 14
14840KMKG MKG20060619231511006/19/06 23:15:31  5-MIN KMKG 200415Z 00000KT 10SM FEW049 BKN060 BKN085 17/14 A2996 600 86 1000 000/00 RMK AO2
14840KMKG MKG20060619232011006/19/06 23:20:31  5-MIN KMKG 200420Z 00000KT 10SM BKN055 BKN070 BKN090 17/14 A2996 600 83 1000 000/00 RMK AO2
14840KMKG MKG20060619232511006/19/06 23:25:31  5-MIN KMKG 200425Z 00000KT 10SM BKN055 BKN070 BKN090 17/15 A2996 600 87 1000 000/00 RMK AO2
14840KMKG MKG20060619233009606/19/06 23:30:31  5-MIN KMKG 200430Z 00000KT 10SM BKN060 17/15 A2996 600 87 1000 000/00 RMK AO2
14840KMKG MKG20060619233510306/19/06 23:35:31  5-MIN KMKG 200435Z 00000KT 10SM BKN055 BKN070 17/15 A2996 590 87 1000 000/00 RMK AO2
14840KMKG MKG20060619234010306/19/06 23:40:31  5-MIN KMKG 200440Z 00000KT 10SM BKN055 BKN070 17/15 A2996 590 90 1000 000/00 RMK AO2
14840KMKG MKG20060619234510306/19/06 23:45:31  5-MIN KMKG 200445Z 00000KT 10SM SCT050 BKN065 17/15 A2996 590 90 1000 000/00 RMK AO2
14840KMKG MKG20060619235013006/19/06 23:50:31  5-MIN KMKG 200450Z 02004KT 10SM FEW050 BKN060 17/15 A2996 590 87 1000 020/04 RMK AO2 SLP145 T01720150 402500161
14840KMKG MKG20060619235512306/19/06 23:55:31  5-MIN KMKG 200455Z 02007KT 10SM BKN060 19/14 A2997 590 75 1200 020/07 RMK AO2 SLP146 T01890144 402500161
14840KMKG MKG20060620000009606/20/06 00:00:32  5-MIN KMKG 200500Z 02007KT 10SM BKN060 19/14 A2997 590 75 1200 020/07 RMK AO2
14840KMKG MKG20060620000509606/20/06 00:05:31  5-MIN KMKG 200505Z 03009KT 10SM BKN055 19/14 A2997 590 75 1200 030/09 RMK AO2
14840KMKG MKG20060620001009606/20/06 00:10:31  5-MIN KMKG 200510Z 03007KT 10SM BKN060 19/14 A2997 580 75 1200 040/07 RMK AO2
14840KMKG MKG20060620001509606/20/06 00:15:31  5-MIN KMKG 200515Z 03009KT 10SM BKN060 19/14 A2998 580 72 1200 030/09 RMK AO2
14840KMKG MKG20060620002009606/20/06 00:20:31  5-MIN KMKG 200520Z 03009KT 10SM BKN055 19/14 A2998 580 72 1200 030/09 RMK AO2
14840KMKG MKG20060620002509606/20/06 00:25:31  5-MIN KMKG 200525Z 03009KT 10SM OVC060 19/14 A2998 580 72 1200 030/09 RMK AO2
14840KMKG MKG20060620003011006/20/06 00:30:31  5-MIN KMKG 200530Z 03008KT 10SM SCT050 BKN065 OVC080 19/14 A2998 570 72 1200 030/08 RMK AO2
14840KMKG MKG20060620003511006/20/06 00:35:31  5-MIN KMKG 200535Z 03008KT 10SM SCT050 BKN065 OVC085 19/14 A2998 570 72 1200 040/08 RMK AO2
14840KMKG MKG20060620004011006/20/06 00:40:31  5-MIN KMKG 200540Z 03007KT 10SM SCT050 BKN065 OVC085 18/13 A2998 570 72 1100 040/07 RMK AO2
14840KMKG MKG20060620004511006/20/06 00:45:31  5-MIN KMKG 200545Z 03008KT 10SM FEW050 BKN065 OVC085 18/13 A2998 570 72 1100 040/08 RMK AO2
14840KMKG MKG20060620005014506/20/06 00:50:31  5-MIN KMKG 200550Z 04007KT 10SM FEW050 SCT065 BKN085 18/13 A2998 570 72 1100 040/07 RMK AO2 SLP151 T01830133 10222 20161 53021
14840KMKG MKG20060620005513806/20/06 00:55:31  5-MIN KMKG 200555Z 04007KT 10SM FEW070 SCT085 18/13 A2998 570 72 1100 040/07 RMK AO2 SLP151 T01830133 10222 20161 51015
14840KMKG MKG20060620010010306/20/06 01:00:31  5-MIN KMKG 200600Z 04006KT 10SM FEW050 SCT085 18/13 A2998 570 75 1100 050/06 RMK AO2
14840KMKG MKG20060620010510306/20/06 01:05:31  5-MIN KMKG 200605Z 05007KT 10SM FEW050 SCT085 18/13 A2998 580 72 1100 050/07 RMK AO2
14840KMKG MKG20060620011009606/20/06 01:10:31  5-MIN KMKG 200610Z 03008KT 10SM FEW085 18/13 A2998 570 72 1100 040/08 RMK AO2
14840KMKG MKG20060620011509306/20/06 01:15:31  5-MIN KMKG 200615Z 03010KT 10SM CLR 18/13 A2999 570 72 1100 030/10 RMK AO2
14840KMKG MKG20060620012009306/20/06 01:20:31  5-MIN KMKG 200620Z 03005KT 10SM CLR 18/13 A2999 570 72 1100 030/05 RMK AO2
14840KMKG MKG20060620012509306/20/06 01:25:31  5-MIN KMKG 200625Z 04007KT 10SM CLR 17/13 A2998 570 75 1000 050/07 RMK AO2
14840KMKG MKG20060620013009306/20/06 01:30:31  5-MIN KMKG 200630Z 03009KT 10SM CLR 17/13 A2999 570 75 1000 030/09 RMK AO2
14840KMKG MKG20060620013509606/20/06 01:35:31  5-MIN KMKG 200635Z 03007KT 10SM SCT050 18/13 A3000 560 72 1100 030/07 RMK AO2
14840KMKG MKG20060620014009606/20/06 01:40:31  5-MIN KMKG 200640Z 04007KT 10SM BKN049 18/13 A2999 560 72 1100 040/07 RMK AO2
14840KMKG MKG20060620014509606/20/06 01:45:31  5-MIN KMKG 200645Z 03007KT 10SM BKN049 18/12 A3000 560 69 1100 030/07 RMK AO2
14840KMKG MKG20060620015011306/20/06 01:50:31  5-MIN KMKG 200650Z 04008KT 10SM BKN055 18/12 A3000 560 69 1100 040/08 RMK AO2 SLP155 T01780122
14840KMKG MKG20060620015511306/20/06 01:55:31  5-MIN KMKG 200655Z 03008KT 10SM BKN055 18/12 A3000 560 69 1100 040/08 RMK AO2 SLP156 T01780122
14840KMKG MKG20060620020010306/20/06 02:00:31  5-MIN KMKG 200700Z 03007KT 10SM SCT050 OVC060 18/12 A3000 550 69 1000 040/07 RMK AO2
14840KMKG MKG20060620020509606/20/06 02:05:31  5-MIN KMKG 200705Z 03008KT 10SM OVC060 18/12 A3001 550 67 1000 030/08 RMK AO2
14840KMKG MKG20060620021009606/20/06 02:10:31  5-MIN KMKG 200710Z 02008KT 10SM OVC060 18/12 A3001 550 67 1000 030/08 RMK AO2
14840KMKG MKG20060620021509606/20/06 02:15:31  5-MIN KMKG 200715Z 03009KT 10SM OVC060 17/11 A3000 550 67 1000 040/09 RMK AO2
14840KMKG MKG20060620022009606/20/06 02:20:31  5-MIN KMKG 200720Z 04007KT 10SM OVC060 17/11 A3001 550 67 1000 040/07 RMK AO2
14840KMKG MKG20060620022509606/20/06 02:25:31  5-MIN KMKG 200725Z 04006KT 10SM OVC060 17/11 A3001 550 67 1000 040/06 RMK AO2
14840KMKG MKG20060620023009606/20/06 02:30:31  5-MIN KMKG 200730Z 03007KT 10SM OVC060 17/11 A3001 550 67 1000 040/07 RMK AO2
14840KMKG MKG20060620023509606/20/06 02:35:31  5-MIN KMKG 200735Z 03007KT 10SM OVC060 17/11 A3001 550 67 1000 030/07 RMK AO2
14840KMKG MKG20060620024009606/20/06 02:40:31  5-MIN KMKG 200740Z 03007KT 10SM OVC060 17/11 A3001 550 67 1000 040/07 RMK AO2
14840KMKG MKG20060620024509606/20/06 02:45:31  5-MIN KMKG 200745Z 03006KT 10SM OVC060 17/11 A3001 540 64 1000 040/06 RMK AO2
14840KMKG MKG20060620025011306/20/06 02:50:31  5-MIN KMKG 200750Z 04006KT 10SM OVC060 17/11 A3001 550 67 1000 050/06 RMK AO2 SLP160 T01720111
14840KMKG MKG20060620025511306/20/06 02:55:31  5-MIN KMKG 200755Z 04006KT 10SM OVC060 17/11 A3001 550 67 1000 040/06 RMK AO2 SLP159 T01720111
14840KMKG MKG20060620030009506/20/06 03:00:31  5-MIN KMKG 200800Z 04007KT 10SM OVC060 17/11 A3000 550 67 900 040/07 RMK AO2
14840KMKG MKG20060620030509506/20/06 03:05:31  5-MIN KMKG 200805Z 03006KT 10SM BKN065 17/11 A3001 550 67 900 030/06 RMK AO2
14840KMKG MKG20060620031009506/20/06 03:10:31  5-MIN KMKG 200810Z 03005KT 10SM BKN065 17/11 A3001 550 67 900 030/05 RMK AO2
14840KMKG MKG20060620031509506/20/06 03:15:31  5-MIN KMKG 200815Z 03004KT 10SM SCT065 16/11 A3001 550 69 800 030/04 RMK AO2
14840KMKG MKG20060620032009506/20/06 03:20:31  5-MIN KMKG 200820Z 05003KT 10SM SCT065 16/11 A3001 550 69 900 050/03 RMK AO2
14840KMKG MKG20060620032509506/20/06 03:25:31  5-MIN KMKG 200825Z 04003KT 10SM FEW065 16/11 A3001 550 69 900 050/03 RMK AO2
14840KMKG MKG20060620033009206/20/06 03:30:31  5-MIN KMKG 200830Z 04003KT 10SM CLR 16/11 A3001 550 69 800 040/03 RMK AO2
14840KMKG MKG20060620033509206/20/06 03:35:31  5-MIN KMKG 200835Z 00000KT 10SM CLR 16/11 A3001 550 69 800 000/00 RMK AO2
14840KMKG MKG20060620034009206/20/06 03:40:31  5-MIN KMKG 200840Z 00000KT 10SM CLR 16/11 A3001 550 69 800 000/00 RMK AO2
14840KMKG MKG20060620034509206/20/06 03:45:31  5-MIN KMKG 200845Z 00000KT 10SM CLR 16/11 A3001 550 72 800 000/00 RMK AO2
14840KMKG MKG20060620035011506/20/06 03:50:31  5-MIN KMKG 200850Z 00000KT 10SM CLR 16/11 A3001 550 72 800 000/00 RMK AO2 SLP159 T01560106 51015
14840KMKG MKG20060620035511506/20/06 03:55:31  5-MIN KMKG 200855Z 00000KT 10SM CLR 16/11 A3001 550 72 800 000/00 RMK AO2 SLP159 T01560106 51008
14840KMKG MKG20060620040009206/20/06 04:00:31  5-MIN KMKG 200900Z 00000KT 10SM CLR 16/11 A3001 550 72 800 000/00 RMK AO2
14840KMKG MKG20060620040509206/20/06 04:05:31  5-MIN KMKG 200905Z 00000KT 10SM CLR 16/11 A3001 550 72 800 000/00 RMK AO2
14840KMKG MKG20060620041009206/20/06 04:10:31  5-MIN KMKG 200910Z 00000KT 10SM CLR 15/10 A3001 550 72 700 000/00 RMK AO2
14840KMKG MKG20060620041509206/20/06 04:15:31  5-MIN KMKG 200915Z 00000KT 10SM CLR 14/10 A3001 540 74 600 000/00 RMK AO2
14840KMKG MKG20060620042009206/20/06 04:20:31  5-MIN KMKG 200920Z 00000KT 10SM CLR 14/10 A3001 540 74 600 000/00 RMK AO2
14840KMKG MKG20060620042509206/20/06 04:25:31  5-MIN KMKG 200925Z 00000KT 10SM CLR 14/11 A3002 540 77 600 000/00 RMK AO2
14840KMKG MKG20060620043009206/20/06 04:30:31  5-MIN KMKG 200930Z 00000KT 10SM CLR 14/11 A3002 540 77 600 000/00 RMK AO2
14840KMKG MKG20060620043509206/20/06 04:35:31  5-MIN KMKG 200935Z 04003KT 10SM CLR 14/11 A3002 540 77 600 050/03 RMK AO2
14840KMKG MKG20060620044009206/20/06 04:40:31  5-MIN KMKG 200940Z 03003KT 10SM CLR 14/11 A3002 540 77 600 040/03 RMK AO2
14840KMKG MKG20060620044509206/20/06 04:45:31  5-MIN KMKG 200945Z 02004KT 10SM CLR 14/11 A3002 540 80 600 020/04 RMK AO2
14840KMKG MKG20060620045010906/20/06 04:50:31  5-MIN KMKG 200950Z 01003KT 10SM CLR 14/11 A3003 530 80 600 020/03 RMK AO2 SLP165 T01390106
14840KMKG MKG20060620045510906/20/06 04:55:31  5-MIN KMKG 200955Z 36003KT 10SM CLR 14/11 A3003 530 80 600 360/03 RMK AO2 SLP167 T01440111
14840KMKG MKG20060620050009206/20/06 05:00:31  5-MIN KMKG 201000Z 36003KT 10SM CLR 13/11 A3003 530 83 500 360/03 RMK AO2
14840KMKG MKG20060620050509206/20/06 05:05:31  5-MIN KMKG 201005Z 01003KT 10SM CLR 13/11 A3003 530 86 500 010/03 RMK AO2
14840KMKG MKG20060620051009206/20/06 05:10:31  5-MIN KMKG 201010Z 01004KT 10SM CLR 14/11 A3003 530 83 600 010/04 RMK AO2
14840KMKG MKG20060620051509206/20/06 05:15:31  5-MIN KMKG 201015Z 01004KT 10SM CLR 13/11 A3003 530 86 500 020/04 RMK AO2
14840KMKG MKG20060620052009206/20/06 05:20:31  5-MIN KMKG 201020Z 01004KT 10SM CLR 13/11 A3004 520 83 500 020/04 RMK AO2
14840KMKG MKG20060620052509206/20/06 05:25:31  5-MIN KMKG 201025Z 03004KT 10SM CLR 14/11 A3004 520 80 600 030/04 RMK AO2
14840KMKG MKG20060620053009206/20/06 05:30:31  5-MIN KMKG 201030Z 03003KT 10SM CLR 14/11 A3004 520 77 600 030/03 RMK AO2
14840KMKG MKG20060620053509206/20/06 05:35:31  5-MIN KMKG 201035Z 03005KT 10SM CLR 14/11 A3004 520 77 600 030/05 RMK AO2
14840KMKG MKG20060620054009206/20/06 05:40:31  5-MIN KMKG 201040Z 03003KT 10SM CLR 14/10 A3004 520 74 600 030/03 RMK AO2
14840KMKG MKG20060620054509206/20/06 05:45:31  5-MIN KMKG 201045Z 03004KT 10SM CLR 14/10 A3004 520 74 600 040/04 RMK AO2
14840KMKG MKG20060620055010906/20/06 05:50:31  5-MIN KMKG 201050Z 04004KT 10SM CLR 14/10 A3004 520 74 600 040/04 RMK AO2 SLP171 T01440100
14840KMKG MKG20060620055510906/20/06 05:55:31  5-MIN KMKG 201055Z 05003KT 10SM CLR 15/10 A3004 520 72 700 050/03 RMK AO2 SLP171 T01500100
14840KMKG MKG20060620060009206/20/06 06:00:31  5-MIN KMKG 201100Z 04003KT 10SM CLR 14/11 A3005 510 77 600 040/03 RMK AO2
14840KMKG MKG20060620060509206/20/06 06:05:31  5-MIN KMKG 201105Z 03003KT 10SM CLR 14/11 A3005 510 77 600 040/03 RMK AO2
14840KMKG MKG20060620061009206/20/06 06:10:31  5-MIN KMKG 201110Z 03003KT 10SM CLR 15/11 A3005 510 74 700 040/03 RMK AO2
14840KMKG MKG20060620061509206/20/06 06:15:31  5-MIN KMKG 201115Z 00000KT 10SM CLR 16/10 A3005 510 69 700 000/00 RMK AO2
14840KMKG MKG20060620062009206/20/06 06:20:31  5-MIN KMKG 201120Z 00000KT 10SM CLR 16/11 A3005 510 69 800 000/00 RMK AO2
14840KMKG MKG20060620062509206/20/06 06:25:31  5-MIN KMKG 201125Z 00000KT 10SM CLR 16/10 A3005 510 67 800 000/00 RMK AO2
14840KMKG MKG20060620063009206/20/06 06:30:31  5-MIN KMKG 201130Z 00000KT 10SM CLR 16/11 A3005 510 69 800 000/00 RMK AO2
14840KMKG MKG20060620063509206/20/06 06:35:31  5-MIN KMKG 201135Z 00000KT 10SM CLR 16/11 A3005 510 69 800 000/00 RMK AO2
14840KMKG MKG20060620064009206/20/06 06:40:31  5-MIN KMKG 201140Z 00000KT 10SM CLR 16/10 A3005 510 67 800 000/00 RMK AO2
14840KMKG MKG20060620064509206/20/06 06:45:31  5-MIN KMKG 201145Z 05003KT 10SM CLR 17/10 A3005 510 64 900 050/03 RMK AO2
14840KMKG MKG20060620065012706/20/06 06:50:31  5-MIN KMKG 201150Z 05005KT 10SM CLR 17/09 A3005 510 62 900 060/05 RMK AO2 SLP174 T01670094 10183 20133 51008
14840KMKG MKG20060620065512706/20/06 06:55:31  5-MIN KMKG 201155Z 00000KT 10SM CLR 17/10 A3005 510 64 900 000/00 RMK AO2 SLP173 T01670100 10183 20133 51014
14840KMKG MKG20060620070009206/20/06 07:00:31  5-MIN KMKG 201200Z 05004KT 10SM CLR 17/10 A3005 510 62 900 060/04 RMK AO2
14840KMKG MKG20060620070509206/20/06 07:05:31  5-MIN KMKG 201205Z 05005KT 10SM CLR 17/09 A3005 510 60 900 050/05 RMK AO2
14840KMKG MKG20060620071009206/20/06 07:10:31  5-MIN KMKG 201210Z 05004KT 10SM CLR 17/09 A3004 520 60 900 050/04 RMK AO2
14840KMKG MKG20060620071509306/20/06 07:15:31  5-MIN KMKG 201215Z 04005KT 10SM CLR 18/09 A3005 510 55 1000 040/05 RMK AO2
14840KMKG MKG20060620072009306/20/06 07:20:31  5-MIN KMKG 201220Z 04006KT 10SM CLR 18/08 A3005 510 53 1000 040/06 RMK AO2
14840KMKG MKG20060620072509306/20/06 07:25:31  5-MIN KMKG 201225Z 05005KT 10SM CLR 18/08 A3005 510 53 1000 050/05 RMK AO2
14840KMKG MKG20060620073009306/20/06 07:30:31  5-MIN KMKG 201230Z 05007KT 10SM CLR 18/08 A3004 520 51 1000 050/07 RMK AO2
14840KMKG MKG20060620073509306/20/06 07:35:31  5-MIN KMKG 201235Z 05007KT 10SM CLR 18/08 A3004 520 51 1000 050/07 RMK AO2
14840KMKG MKG20060620074009306/20/06 07:40:31  5-MIN KMKG 201240Z 05007KT 10SM CLR 18/08 A3004 520 51 1000 050/07 RMK AO2
14840KMKG MKG20060620074509306/20/06 07:45:31  5-MIN KMKG 201245Z 05006KT 10SM CLR 18/07 A3004 520 49 1000 060/06 RMK AO2
14840KMKG MKG20060620075011006/20/06 07:50:31  5-MIN KMKG 201250Z 05008KT 10SM CLR 18/07 A3004 520 49 1000 050/08 RMK AO2 SLP171 T01780072
14840KMKG MKG20060620075511006/20/06 07:55:31  5-MIN KMKG 201255Z 06006KT 10SM CLR 18/08 A3004 520 50 1100 060/06 RMK AO2 SLP171 T01830078
14840KMKG MKG20060620080009306/20/06 08:00:31  5-MIN KMKG 201300Z 06006KT 10SM CLR 18/08 A3004 520 50 1100 060/06 RMK AO2
14840KMKG MKG20060620080509306/20/06 08:05:31  5-MIN KMKG 201305Z 06007KT 10SM CLR 18/08 A3004 520 50 1100 060/07 RMK AO2
14840KMKG MKG20060620081009306/20/06 08:10:31  5-MIN KMKG 201310Z 06008KT 10SM CLR 18/08 A3005 510 50 1100 060/08 RMK AO2
14840KMKG MKG20060620081509306/20/06 08:15:31  5-MIN KMKG 201315Z 05006KT 10SM CLR 18/07 A3005 510 48 1100 050/06 RMK AO2
14840KMKG MKG20060620082009306/20/06 08:20:31  5-MIN KMKG 201320Z 06007KT 10SM CLR 19/07 A3005 510 46 1100 060/07 RMK AO2
14840KMKG MKG20060620082509306/20/06 08:25:31  5-MIN KMKG 201325Z 06008KT 10SM CLR 19/07 A3005 510 44 1100 070/08 RMK AO2
14840KMKG MKG20060620083009306/20/06 08:30:31  5-MIN KMKG 201330Z 06009KT 10SM CLR 19/07 A3006 510 44 1100 060/09 RMK AO2
14840KMKG MKG20060620083509306/20/06 08:35:31  5-MIN KMKG 201335Z 05007KT 10SM CLR 19/07 A3006 500 44 1100 050/07 RMK AO2
14840KMKG MKG20060620084009306/20/06 08:40:31  5-MIN KMKG 201340Z 04006KT 10SM CLR 19/07 A3006 500 43 1200 040/06 RMK AO2
14840KMKG MKG20060620084509306/20/06 08:45:31  5-MIN KMKG 201345Z 06006KT 10SM CLR 19/07 A3006 500 44 1200 070/06 RMK AO2
14840KMKG MKG20060620085011006/20/06 08:50:31  5-MIN KMKG 201350Z 06007KT 10SM CLR 19/07 A3005 510 46 1100 070/07 RMK AO2 SLP175 T01890072
14840KMKG MKG20060620085511006/20/06 08:55:31  5-MIN KMKG 201355Z 03006KT 10SM CLR 19/07 A3006 500 44 1200 030/06 RMK AO2 SLP176 T01940072
14840KMKG MKG20060620090009306/20/06 09:00:31  5-MIN KMKG 201400Z 05007KT 10SM CLR 20/08 A3006 500 45 1200 050/07 RMK AO2
14840KMKG MKG20060620090509306/20/06 09:05:31  5-MIN KMKG 201405Z 05006KT 10SM CLR 19/08 A3006 510 46 1200 060/06 RMK AO2
14840KMKG MKG20060620091009306/20/06 09:10:31  5-MIN KMKG 201410Z 06006KT 10SM CLR 19/08 A3006 500 46 1200 060/06 RMK AO2
14840KMKG MKG20060620091509306/20/06 09:15:31  5-MIN KMKG 201415Z 05006KT 10SM CLR 21/08 A3006 500 45 1300 050/06 RMK AO2
14840KMKG MKG20060620092009306/20/06 09:20:31  5-MIN KMKG 201420Z VRB06KT 10SM CLR 21/08 A3006 510 45 1300 VRB/06 RMK AO2
14840KMKG MKG20060620092509306/20/06 09:25:31  5-MIN KMKG 201425Z 07007KT 10SM CLR 20/08 A3006 500 46 1200 070/07 RMK AO2
14840KMKG MKG20060620093009306/20/06 09:30:31  5-MIN KMKG 201430Z 06004KT 10SM CLR 20/08 A3005 510 46 1200 060/04 RMK AO2
14840KMKG MKG20060620093509306/20/06 09:35:31  5-MIN KMKG 201435Z 06007KT 10SM CLR 21/08 A3005 510 45 1300 070/07 RMK AO2
14840KMKG MKG20060620094009306/20/06 09:40:31  5-MIN KMKG 201440Z 07008KT 10SM CLR 21/08 A3005 510 45 1300 080/08 RMK AO2
14840KMKG MKG20060620094509306/20/06 09:45:31  5-MIN KMKG 201445Z 07008KT 10SM CLR 21/08 A3005 510 45 1300 070/08 RMK AO2
14840KMKG MKG20060620095011606/20/06 09:50:31  5-MIN KMKG 201450Z 07006KT 10SM CLR 21/08 A3006 500 43 1300 080/06 RMK AO2 SLP177 T02060078 51014
14840KMKG MKG20060620095511606/20/06 09:55:31  5-MIN KMKG 201455Z 10006KT 10SM CLR 21/08 A3006 500 45 1300 100/06 RMK AO2 SLP178 T02060083 53003
14840KMKG MKG20060620100009306/20/06 10:00:31  5-MIN KMKG 201500Z VRB03KT 10SM CLR 21/08 A3006 510 45 1300 VRB/03 RMK AO2
14840KMKG MKG20060620100509306/20/06 10:05:31  5-MIN KMKG 201505Z 09007KT 10SM CLR 22/09 A3005 510 43 1400 090/07 RMK AO2
14840KMKG MKG20060620101009306/20/06 10:10:31  5-MIN KMKG 201510Z VRB05KT 10SM CLR 21/08 A3005 510 43 1400 VRB/05 RMK AO2
14840KMKG MKG20060620101509306/20/06 10:15:31  5-MIN KMKG 201515Z VRB03KT 10SM CLR 21/08 A3005 510 43 1400 VRB/03 RMK AO2
14840KMKG MKG20060620102009306/20/06 10:20:31  5-MIN KMKG 201520Z 09007KT 10SM CLR 22/08 A3005 510 40 1400 100/07 RMK AO2
14840KMKG MKG20060620102509306/20/06 10:25:31  5-MIN KMKG 201525Z 10006KT 10SM CLR 21/07 A3005 510 40 1400 100/06 RMK AO2
14840KMKG MKG20060620103009306/20/06 10:30:31  5-MIN KMKG 201530Z 11006KT 10SM CLR 22/07 A3005 510 37 1400 120/06 RMK AO2
14840KMKG MKG20060620103509306/20/06 10:35:31  5-MIN KMKG 201535Z 07006KT 10SM CLR 22/07 A3005 510 39 1400 080/06 RMK AO2
14840KMKG MKG20060620104009306/20/06 10:40:31  5-MIN KMKG 201540Z VRB04KT 10SM CLR 22/07 A3006 500 36 1500 VRB/04 RMK AO2
14840KMKG MKG20060620104509306/20/06 10:45:31  5-MIN KMKG 201545Z VRB03KT 10SM CLR 22/07 A3006 500 37 1400 VRB/03 RMK AO2
14840KMKG MKG20060620105011006/20/06 10:50:31  5-MIN KMKG 201550Z 00000KT 10SM CLR 22/07 A3006 500 36 1500 000/00 RMK AO2 SLP178 T02220067
14840KMKG MKG20060620105511006/20/06 10:55:31  5-MIN KMKG 201555Z VRB03KT 10SM CLR 22/06 A3006 500 36 1400 VRB/03 RMK AO2 SLP178 T02170061
14840KMKG MKG20060620110009306/20/06 11:00:31  5-MIN KMKG 201600Z 00000KT 10SM CLR 22/06 A3006 500 33 1500 000/00 RMK AO2
14840KMKG MKG20060620110509306/20/06 11:05:31  5-MIN KMKG 201605Z 26004KT 10SM CLR 22/06 A3007 500 35 1500 260/04 RMK AO2
14840KMKG MKG20060620111009306/20/06 11:10:31  5-MIN KMKG 201610Z VRB05KT 10SM CLR 22/07 A3007 490 36 1500 VRB/05 RMK AO2
14840KMKG MKG20060620111509306/20/06 11:15:31  5-MIN KMKG 201615Z 30004KT 10SM CLR 23/07 A3007 490 35 1600 310/04 RMK AO2
14840KMKG MKG20060620112009306/20/06 11:20:31  5-MIN KMKG 201620Z VRB06KT 10SM CLR 23/07 A3007 490 33 1600 VRB/06 RMK AO2
14840KMKG MKG20060620112509306/20/06 11:25:31  5-MIN KMKG 201625Z VRB05KT 10SM CLR 23/07 A3007 490 35 1500 VRB/05 RMK AO2
14840KMKG MKG20060620113009306/20/06 11:30:31  5-MIN KMKG 201630Z 33006KT 10SM CLR 23/06 A3007 490 33 1600 330/06 RMK AO2
14840KMKG MKG20060620113509306/20/06 11:35:31  5-MIN KMKG 201635Z VRB03KT 10SM CLR 23/06 A3007 490 33 1600 VRB/03 RMK AO2
14840KMKG MKG20060620114009306/20/06 11:40:31  5-MIN KMKG 201640Z VRB06KT 10SM CLR 23/08 A3006 500 38 1600 VRB/06 RMK AO2
14840KMKG MKG20060620114509306/20/06 11:45:31  5-MIN KMKG 201645Z 28006KT 10SM CLR 22/09 A3007 500 43 1500 280/06 RMK AO2
14840KMKG MKG20060620115011006/20/06 11:50:31  5-MIN KMKG 201650Z 29005KT 10SM CLR 22/09 A3007 500 43 1500 290/05 RMK AO2 SLP179 T02220094
14840KMKG MKG20060620115511006/20/06 11:55:31  5-MIN KMKG 201655Z 29007KT 10SM CLR 23/09 A3007 490 42 1600 290/07 RMK AO2 SLP180 T02280094
14840KMKG MKG20060620120009306/20/06 12:00:31  5-MIN KMKG 201700Z VRB06KT 10SM CLR 23/09 A3007 490 42 1600 VRB/06 RMK AO2
14840KMKG MKG20060620120509306/20/06 12:05:31  5-MIN KMKG 201705Z 26008KT 10SM CLR 23/09 A3007 490 40 1500 260/08 RMK AO2
14840KMKG MKG20060620121009306/20/06 12:10:31  5-MIN KMKG 201710Z 25008KT 10SM CLR 22/09 A3007 490 42 1500 260/08 RMK AO2
14840KMKG MKG20060620121509306/20/06 12:15:31  5-MIN KMKG 201715Z 26008KT 10SM CLR 23/09 A3007 490 40 1600 270/08 RMK AO2
14840KMKG MKG20060620122009306/20/06 12:20:31  5-MIN KMKG 201720Z 24010KT 10SM CLR 23/09 A3007 490 40 1500 250/10 RMK AO2
14840KMKG MKG20060620122509306/20/06 12:25:31  5-MIN KMKG 201725Z 26009KT 10SM CLR 22/09 A3007 490 42 1500 260/09 RMK AO2
14840KMKG MKG20060620123009306/20/06 12:30:31  5-MIN KMKG 201730Z 29009KT 10SM CLR 23/10 A3007 490 44 1500 290/09 RMK AO2
14840KMKG MKG20060620123509306/20/06 12:35:31  5-MIN KMKG 201735Z 29008KT 10SM CLR 22/10 A3007 490 45 1500 290/08 RMK AO2
14840KMKG MKG20060620124009306/20/06 12:40:31  5-MIN KMKG 201740Z 28008KT 10SM CLR 23/10 A3007 490 44 1600 290/08 RMK AO2
14840KMKG MKG20060620124509306/20/06 12:45:31  5-MIN KMKG 201745Z 26008KT 10SM CLR 22/09 A3006 500 45 1400 270/08 RMK AO2
14840KMKG MKG20060620125012806/20/06 12:50:31  5-MIN KMKG 201750Z VRB06KT 10SM CLR 22/09 A3006 500 45 1400 VRB/06 RMK AO2 SLP177 T02170094 10233 20167 53003
14840KMKG MKG20060620125512806/20/06 12:55:31  5-MIN KMKG 201755Z 29007KT 10SM CLR 22/09 A3006 500 43 1500 290/07 RMK AO2 SLP177 T02220094 10233 20167 50001
14840KMKG MKG20060620130009306/20/06 13:00:31  5-MIN KMKG 201800Z 29006KT 10SM CLR 22/09 A3006 500 43 1500 290/06 RMK AO2
14840KMKG MKG20060620130509306/20/06 13:05:31  5-MIN KMKG 201805Z 29006KT 10SM CLR 22/09 A3006 500 45 1400 290/06 RMK AO2
14840KMKG MKG20060620131009306/20/06 13:10:31  5-MIN KMKG 201810Z 29006KT 10SM CLR 22/09 A3006 500 43 1500 290/06 RMK AO2
14840KMKG MKG20060620131509306/20/06 13:15:31  5-MIN KMKG 201815Z 28008KT 10SM CLR 23/10 A3006 500 44 1600 280/08 RMK AO2
14840KMKG MKG20060620132009306/20/06 13:20:31  5-MIN KMKG 201820Z 30007KT 10SM CLR 22/09 A3006 510 45 1400 300/07 RMK AO2
14840KMKG MKG20060620132509306/20/06 13:25:31  5-MIN KMKG 201825Z 29007KT 10SM CLR 22/09 A3006 500 42 1500 300/07 RMK AO2
14840KMKG MKG20060620133009306/20/06 13:30:31  5-MIN KMKG 201830Z 30007KT 10SM CLR 22/09 A3006 500 43 1400 300/07 RMK AO2
14840KMKG MKG20060620133509306/20/06 13:35:31  5-MIN KMKG 201835Z 30007KT 10SM CLR 22/09 A3006 500 45 1400 300/07 RMK AO2
14840KMKG MKG20060620134009306/20/06 13:40:31  5-MIN KMKG 201840Z 28007KT 10SM CLR 22/09 A3007 500 43 1400 290/07 RMK AO2
14840KMKG MKG20060620134509306/20/06 13:45:31  5-MIN KMKG 201845Z 29008KT 10SM CLR 22/09 A3007 490 43 1500 290/08 RMK AO2
14840KMKG MKG20060620135011006/20/06 13:50:31  5-MIN KMKG 201850Z 28008KT 10SM CLR 22/10 A3007 490 45 1500 280/08 RMK AO2 SLP180 T02220100
14840KMKG MKG20060620135511006/20/06 13:55:31  5-MIN KMKG 201855Z 27008KT 10SM CLR 22/10 A3007 490 45 1500 270/08 RMK AO2 SLP181 T02220100
14840KMKG MKG20060620140009306/20/06 14:00:31  5-MIN KMKG 201900Z 31008KT 10SM CLR 22/09 A3007 500 45 1400 310/08 RMK AO2
14840KMKG MKG20060620140509306/20/06 14:05:31  5-MIN KMKG 201905Z 30007KT 10SM CLR 21/09 A3007 500 47 1400 300/07 RMK AO2
14840KMKG MKG20060620141009306/20/06 14:10:31  5-MIN KMKG 201910Z 33006KT 10SM CLR 21/09 A3006 500 47 1400 330/06 RMK AO2
14840KMKG MKG20060620141509306/20/06 14:15:31  5-MIN KMKG 201915Z 34005KT 10SM CLR 21/10 A3005 510 48 1400 350/05 RMK AO2
14840KMKG MKG20060620142009306/20/06 14:20:31  5-MIN KMKG 201920Z 32004KT 10SM CLR 22/10 A3005 510 47 1400 320/04 RMK AO2
14840KMKG MKG20060620142509306/20/06 14:25:31  5-MIN KMKG 201925Z 00000KT 10SM CLR 21/09 A3005 510 47 1400 000/00 RMK AO2
14840KMKG MKG20060620143009306/20/06 14:30:31  5-MIN KMKG 201930Z 30005KT 10SM CLR 22/10 A3005 510 47 1400 300/05 RMK AO2
14840KMKG MKG20060620143509306/20/06 14:35:31  5-MIN KMKG 201935Z 29005KT 10SM CLR 22/10 A3005 510 47 1400 290/05 RMK AO2
14840KMKG MKG20060620144009306/20/06 14:40:31  5-MIN KMKG 201940Z 27006KT 10SM CLR 22/11 A3005 510 49 1400 280/06 RMK AO2
14840KMKG MKG20060620144509306/20/06 14:45:31  5-MIN KMKG 201945Z 28007KT 10SM CLR 22/11 A3005 510 49 1400 290/07 RMK AO2
14840KMKG MKG20060620145011006/20/06 14:50:31  5-MIN KMKG 201950Z 27005KT 10SM CLR 22/11 A3004 520 49 1500 270/05 RMK AO2 SLP172 T02170106
14840KMKG MKG20060620145511006/20/06 14:55:31  5-MIN KMKG 201955Z VRB03KT 10SM CLR 22/10 A3004 520 47 1500 VRB/03 RMK AO2 SLP171 T02170100
14840KMKG MKG20060620150009306/20/06 15:00:31  5-MIN KMKG 202000Z 26005KT 10SM CLR 22/09 A3004 520 45 1500 260/05 RMK AO2
14840KMKG MKG20060620150509306/20/06 15:05:31  5-MIN KMKG 202005Z 28006KT 10SM CLR 22/10 A3005 510 47 1500 290/06 RMK AO2
14840KMKG MKG20060620151009306/20/06 15:10:31  5-MIN KMKG 202010Z 23004KT 10SM CLR 22/09 A3004 520 43 1500 240/04 RMK AO2
14840KMKG MKG20060620151508506/20/06 15:15:31  5-MIN KMKG 202015Z 10SM 22/09 A3004 520 43 1500 M /M RMK AO2 PNO $
14840KMKG MKG20060620152009106/20/06 15:20:31  5-MIN KMKG 202020Z 25007KT 10SM 22/09 A3004 520 43 1500 260/07 RMK AO2 $
14840KMKG MKG20060620152509106/20/06 15:25:31  5-MIN KMKG 202025Z 26007KT 10SM 22/09 A3004 520 43 1500 260/07 RMK AO2 $
14840KMKG MKG20060620153009106/20/06 15:30:31  5-MIN KMKG 202030Z 24008KT 10SM 22/09 A3004 520 43 1500 250/08 RMK AO2 $
14840KMKG MKG20060620153509106/20/06 15:35:31  5-MIN KMKG 202035Z 24008KT 10SM 22/10 A3005 510 47 1400 250/08 RMK AO2 $
14840KMKG MKG20060620154009106/20/06 15:40:31  5-MIN KMKG 202040Z 25009KT 10SM 22/10 A3005 510 47 1400 250/09 RMK AO2 $
14840KMKG MKG20060620154509506/20/06 15:45:31  5-MIN KMKG 202045Z 26009KT 10SM CLR 21/10 A3005 510 50 1300 260/09 RMK AO2 $
14840KMKG MKG20060620155011806/20/06 15:50:31  5-MIN KMKG 202050Z 26006KT 10SM CLR 21/09 A3004 520 48 1300 260/06 RMK AO2 SLP173 T02060094 50001 $
14840KMKG MKG20060620155511806/20/06 15:55:31  5-MIN KMKG 202055Z 26006KT 10SM CLR 20/09 A3004 520 50 1300 270/06 RMK AO2 SLP172 T02000094 58006 $
14840KMKG MKG20060620160009506/20/06 16:00:31  5-MIN KMKG 202100Z 26005KT 10SM CLR 20/09 A3004 520 50 1300 260/05 RMK AO2 $
14840KMKG MKG20060620160509506/20/06 16:05:31  5-MIN KMKG 202105Z 27004KT 10SM CLR 20/09 A3003 530 48 1300 270/04 RMK AO2 $
14840KMKG MKG20060620161009506/20/06 16:10:31  5-MIN KMKG 202110Z 27004KT 10SM CLR 19/09 A3003 530 50 1200 270/04 RMK AO2 $
14840KMKG MKG20060620161509506/20/06 16:15:31  5-MIN KMKG 202115Z 26005KT 10SM CLR 20/09 A3003 530 50 1300 270/05 RMK AO2 $
14840KMKG MKG20060620162009506/20/06 16:20:31  5-MIN KMKG 202120Z 26005KT 10SM CLR 20/09 A3003 530 50 1300 270/05 RMK AO2 $
14840KMKG MKG20060620162509506/20/06 16:25:31  5-MIN KMKG 202125Z 25005KT 10SM CLR 19/09 A3003 530 52 1200 250/05 RMK AO2 $
14840KMKG MKG20060620163009506/20/06 16:30:31  5-MIN KMKG 202130Z 24004KT 10SM CLR 20/09 A3003 530 50 1300 240/04 RMK AO2 $
14840KMKG MKG20060620163509506/20/06 16:35:31  5-MIN KMKG 202135Z 22003KT 10SM CLR 20/09 A3002 540 48 1300 220/03 RMK AO2 $
14840KMKG MKG20060620164009506/20/06 16:40:31  5-MIN KMKG 202140Z 20003KT 10SM CLR 20/09 A3002 540 48 1300 200/03 RMK AO2 $
14840KMKG MKG20060620164509506/20/06 16:45:31  5-MIN KMKG 202145Z 21004KT 10SM CLR 20/08 A3002 540 46 1300 220/04 RMK AO2 $
14840KMKG MKG20060620165011206/20/06 16:50:31  5-MIN KMKG 202150Z 21004KT 10SM CLR 20/09 A3002 540 48 1300 220/04 RMK AO2 SLP164 T02000089 $
14840KMKG MKG20060620165511206/20/06 16:55:31  5-MIN KMKG 202155Z 24004KT 10SM CLR 20/09 A3002 540 48 1300 250/04 RMK AO2 SLP163 T02000089 $
14840KMKG MKG20060620170009506/20/06 17:00:31  5-MIN KMKG 202200Z VRB04KT 10SM CLR 20/09 A3001 540 50 1300 VRB/04 RMK AO2 $
14840KMKG MKG20060620170509506/20/06 17:05:31  5-MIN KMKG 202205Z 23006KT 10SM CLR 21/09 A3001 540 48 1400 230/06 RMK AO2 $
14840KMKG MKG20060620171009506/20/06 17:10:31  5-MIN KMKG 202210Z 21004KT 10SM CLR 20/09 A3001 550 50 1300 210/04 RMK AO2 $
14840KMKG MKG20060620171509506/20/06 17:15:31  5-MIN KMKG 202215Z 24007KT 10SM CLR 20/09 A3002 540 48 1300 240/07 RMK AO2 $
14840KMKG MKG20060620172009506/20/06 17:20:31  5-MIN KMKG 202220Z 23007KT 10SM CLR 20/09 A3002 540 48 1300 240/07 RMK AO2 $
14840KMKG MKG20060620172509506/20/06 17:25:31  5-MIN KMKG 202225Z 24006KT 10SM CLR 20/09 A3002 540 48 1300 240/06 RMK AO2 $
14840KMKG MKG20060620173009506/20/06 17:30:31  5-MIN KMKG 202230Z 24005KT 10SM CLR 20/08 A3002 540 45 1300 240/05 RMK AO2 $
14840KMKG MKG20060620173509506/20/06 17:35:31  5-MIN KMKG 202235Z 23004KT 10SM CLR 19/08 A3001 540 46 1200 240/04 RMK AO2 $
14840KMKG MKG20060620174009506/20/06 17:40:31  5-MIN KMKG 202240Z 23003KT 10SM CLR 19/08 A3001 550 46 1200 230/03 RMK AO2 $
14840KMKG MKG20060620174509506/20/06 17:45:31  5-MIN KMKG 202245Z 22004KT 10SM CLR 19/07 A3001 550 43 1200 220/04 RMK AO2 $
14840KMKG MKG20060620175011206/20/06 17:50:31  5-MIN KMKG 202250Z 00000KT 10SM CLR 19/07 A3000 550 44 1200 000/00 RMK AO2 SLP158 T01940072 $
14840KMKG MKG20060620175511206/20/06 17:55:31  5-MIN KMKG 202255Z 00000KT 10SM CLR 20/08 A3000 560 45 1300 000/00 RMK AO2 SLP157 T02000078 $
14840KMKG MKG20060620180009506/20/06 18:00:31  5-MIN KMKG 202300Z 14004KT 10SM CLR 20/07 A3000 560 43 1300 150/04 RMK AO2 $
14840KMKG MKG20060620180509506/20/06 18:05:31  5-MIN KMKG 202305Z 14004KT 10SM CLR 20/07 A2999 570 43 1300 140/04 RMK AO2 $
14840KMKG MKG20060620181009506/20/06 18:10:31  5-MIN KMKG 202310Z 13004KT 10SM CLR 20/08 A2998 570 45 1300 130/04 RMK AO2 $
14840KMKG MKG20060620181509506/20/06 18:15:31  5-MIN KMKG 202315Z 13005KT 10SM CLR 20/07 A2998 580 43 1300 130/05 RMK AO2 $
14840KMKG MKG20060620182009506/20/06 18:20:31  5-MIN KMKG 202320Z 13005KT 10SM CLR 21/07 A2997 580 40 1400 140/05 RMK AO2 $
14840KMKG MKG20060620182510206/20/06 18:25:31  5-MIN KMKG 202325Z 14007KT 10SM CLR 21/07 A2996 590 38 1500 150/07 RMK AO2 PRESFR $
14840KMKG MKG20060620183009506/20/06 18:30:31  5-MIN KMKG 202330Z 13008KT 10SM CLR 22/07 A2996 590 39 1500 140/08 RMK AO2 $
14840KMKG MKG20060620183509506/20/06 18:35:31  5-MIN KMKG 202335Z 14008KT 10SM CLR 22/07 A2996 590 37 1500 140/08 RMK AO2 $
14840KMKG MKG20060620184009506/20/06 18:40:31  5-MIN KMKG 202340Z 14008KT 10SM CLR 21/07 A2996 600 40 1500 140/08 RMK AO2 $
14840KMKG MKG20060620184509506/20/06 18:45:31  5-MIN KMKG 202345Z 14006KT 10SM CLR 21/08 A2996 600 43 1500 150/06 RMK AO2 $
14840KMKG MKG20060620185013006/20/06 18:50:31  5-MIN KMKG 202350Z 16007KT 10SM CLR 21/08 A2996 600 42 1500 160/07 RMK AO2 SLP142 T02110078 10228 20194 58006 $
14840KMKG MKG20060620185513006/20/06 18:55:31  5-MIN KMKG 202355Z 14006KT 10SM CLR 21/08 A2996 600 42 1500 140/06 RMK AO2 SLP142 T02110078 10228 20194 58028 $
14840KMKG MKG20060620190009506/20/06 19:00:31  5-MIN KMKG 210000Z 16005KT 10SM CLR 22/08 A2996 600 42 1500 170/05 RMK AO2 $
14840KMKG MKG20060620190509506/20/06 19:05:31  5-MIN KMKG 210005Z 16007KT 10SM CLR 22/08 A2996 600 42 1600 170/07 RMK AO2 $
14840KMKG MKG20060620191009506/20/06 19:10:31  5-MIN KMKG 210010Z 17008KT 10SM CLR 22/08 A2996 600 42 1500 180/08 RMK AO2 $
14840KMKG MKG20060620191509506/20/06 19:15:31  5-MIN KMKG 210015Z 17007KT 10SM CLR 22/08 A2996 600 42 1600 180/07 RMK AO2 $
14840KMKG MKG20060620192009506/20/06 19:20:31  5-MIN KMKG 210020Z 16006KT 10SM CLR 21/08 A2996 600 43 1500 160/06 RMK AO2 $
14840KMKG MKG20060620192509506/20/06 19:25:31  5-MIN KMKG 210025Z 16006KT 10SM CLR 21/08 A2995 600 43 1500 160/06 RMK AO2 $
14840KMKG MKG20060620193009506/20/06 19:30:31  5-MIN KMKG 210030Z 15006KT 10SM CLR 21/08 A2996 600 43 1500 150/06 RMK AO2 $
14840KMKG MKG20060620193509506/20/06 19:35:31  5-MIN KMKG 210035Z 17005KT 10SM CLR 21/08 A2996 590 45 1400 170/05 RMK AO2 $
14840KMKG MKG20060620194009506/20/06 19:40:31  5-MIN KMKG 210040Z 18003KT 10SM CLR 21/09 A2997 580 46 1400 180/03 RMK AO2 $
14840KMKG MKG20060620194510206/20/06 19:45:31  5-MIN KMKG 210045Z 00000KT 10SM CLR 21/09 A2998 580 46 1400 000/00 RMK AO2 PRESRR $
14840KMKG MKG20060620195011906/20/06 19:50:31  5-MIN KMKG 210050Z 28003KT 10SM CLR 19/09 A2999 570 52 1300 280/03 RMK AO2 PRESRR SLP153 T01940094 $
14840KMKG MKG20060620195511506/20/06 19:55:31  5-MIN KMKG 210055Z 29004KT 10SM FEW100 19/09 A2999 560 54 1200 300/04 RMK AO2 SLP155 T01890094 $
14840KMKG MKG20060620200009506/20/06 20:00:31  5-MIN KMKG 210100Z 00000KT 10SM CLR 19/09 A2999 570 52 1300 000/00 RMK AO2 $
14840KMKG MKG20060620200509506/20/06 20:05:31  5-MIN KMKG 210105Z 30003KT 10SM CLR 19/09 A2999 560 50 1300 310/03 RMK AO2 $
14840KMKG MKG20060620201009506/20/06 20:10:31  5-MIN KMKG 210110Z 30004KT 10SM CLR 19/09 A3000 560 50 1200 300/04 RMK AO2 $
14840KMKG MKG20060620201509506/20/06 20:15:31  5-MIN KMKG 210115Z 32004KT 10SM CLR 19/09 A3000 560 52 1200 330/04 RMK AO2 $
14840KMKG MKG20060620202009506/20/06 20:20:31  5-MIN KMKG 210120Z 32004KT 10SM CLR 19/09 A3000 560 54 1200 320/04 RMK AO2 $
14840KMKG MKG20060620202509506/20/06 20:25:31  5-MIN KMKG 210125Z 33003KT 10SM CLR 19/10 A2999 560 56 1200 340/03 RMK AO2 $
14840KMKG MKG20060620203009506/20/06 20:30:31  5-MIN KMKG 210130Z 02003KT 10SM CLR 19/10 A2999 560 56 1200 020/03 RMK AO2 $
14840KMKG MKG20060620203509506/20/06 20:35:31  5-MIN KMKG 210135Z 03003KT 10SM CLR 19/11 A2999 560 58 1200 030/03 RMK AO2 $
14840KMKG MKG20060620204009506/20/06 20:40:31  5-MIN KMKG 210140Z 05003KT 10SM CLR 18/10 A2999 570 58 1100 050/03 RMK AO2 $
14840KMKG MKG20060620204509506/20/06 20:45:31  5-MIN KMKG 210145Z 00000KT 10SM CLR 18/10 A3000 560 58 1100 000/00 RMK AO2 $
14840KMKG MKG20060620205011206/20/06 20:50:31  5-MIN KMKG 210150Z 00000KT 10SM CLR 18/11 A3000 560 60 1100 000/00 RMK AO2 SLP157 T01830106 $
14840KMKG MKG20060620205511206/20/06 20:55:31  5-MIN KMKG 210155Z 00000KT 10SM CLR 18/11 A3000 560 60 1100 000/00 RMK AO2 SLP157 T01830106 $
14840KMKG MKG20060620210009506/20/06 21:00:31  5-MIN KMKG 210200Z 00000KT 10SM CLR 18/11 A3000 550 60 1100 000/00 RMK AO2 $
14840KMKG MKG20060620210509506/20/06 21:05:31  5-MIN KMKG 210205Z 00000KT 10SM CLR 18/11 A3000 550 64 1000 000/00 RMK AO2 $
14840KMKG MKG20060620211009506/20/06 21:10:31  5-MIN KMKG 210210Z 00000KT 10SM CLR 18/11 A3001 550 62 1000 000/00 RMK AO2 $
14840KMKG MKG20060620211509806/20/06 21:15:31  5-MIN KMKG 210215Z 00000KT 10SM FEW060 18/11 A3001 550 64 1000 000/00 RMK AO2 $
14840KMKG MKG20060620212009806/20/06 21:20:31  5-MIN KMKG 210220Z 29003KT 10SM SCT080 18/11 A3002 540 64 1000 300/03 RMK AO2 $
14840KMKG MKG20060620212509806/20/06 21:25:31  5-MIN KMKG 210225Z 00000KT 10SM SCT080 18/12 A3002 540 67 1000 000/00 RMK AO2 $
14840KMKG MKG20060620213009806/20/06 21:30:31  5-MIN KMKG 210230Z 00000KT 10SM BKN075 18/12 A3001 550 67 1000 000/00 RMK AO2 $
14840KMKG MKG20060620213510506/20/06 21:35:31  5-MIN KMKG 210235Z 16005KT 10SM BKN080 BKN110 18/11 A3000 560 62 1100 160/05 RMK AO2 $
14840KMKG MKG20060620214010506/20/06 21:40:31  5-MIN KMKG 210240Z 17006KT 10SM BKN080 BKN110 18/12 A2999 560 65 1100 170/06 RMK AO2 $
14840KMKG MKG20060620214511406/20/06 21:45:31  5-MIN KMKG 210245Z 09003KT 10SM -RA BKN080 19/11 A3000 560 58 1200 090/03 RMK AO2 RAB44 P0000 $
14840KMKG MKG20060620215014306/20/06 21:50:31  5-MIN KMKG 210250Z 04006KT 10SM -RA SCT080 18/12 A3001 550 65 1100 040/06 RMK AO2 RAB44 SLP159 P0000 60000 T01830117 58028 $
14840KMKG MKG20060620215514206/20/06 21:55:31  5-MIN KMKG 210255Z 05004KT 10SM SCT080 19/11 A3001 550 60 1200 050/04 RMK AO2 RAB44E54 SLP159 P0000 60000 T01890111 51018 $
14840KMKG MKG20060620220009806/20/06 22:00:31  5-MIN KMKG 210300Z 06004KT 10SM FEW085 18/11 A3001 550 62 1100 060/04 RMK AO2 $
14840KMKG MKG20060620220509806/20/06 22:05:31  5-MIN KMKG 210305Z 06004KT 10SM FEW080 18/12 A3000 550 65 1100 060/04 RMK AO2 $
14840KMKG MKG20060620221009506/20/06 22:10:31  5-MIN KMKG 210310Z 09003KT 10SM CLR 18/12 A3000 560 67 1100 090/03 RMK AO2 $
14840KMKG MKG20060620221509506/20/06 22:15:31  5-MIN KMKG 210315Z 11004KT 10SM CLR 18/12 A3000 560 67 1100 120/04 RMK AO2 $
14840KMKG MKG20060620222009506/20/06 22:20:31  5-MIN KMKG 210320Z 14004KT 10SM CLR 18/12 A3000 560 67 1100 140/04 RMK AO2 $
14840KMKG MKG20060620222509506/20/06 22:25:31  5-MIN KMKG 210325Z 13005KT 10SM CLR 18/11 A2999 560 64 1100 130/05 RMK AO2 $
14840KMKG MKG20060620223009506/20/06 22:30:31  5-MIN KMKG 210330Z 13005KT 10SM CLR 18/11 A2999 560 64 1100 130/05 RMK AO2 $
14840KMKG MKG20060620223509506/20/06 22:35:31  5-MIN KMKG 210335Z 13006KT 10SM CLR 17/11 A2999 570 67 1000 140/06 RMK AO2 $
14840KMKG MKG20060620224009506/20/06 22:40:31  5-MIN KMKG 210340Z 14005KT 10SM CLR 17/12 A2999 570 69 1000 140/05 RMK AO2 $
14840KMKG MKG20060620224509506/20/06 22:45:31  5-MIN KMKG 210345Z 14005KT 10SM CLR 17/11 A2999 570 67 1000 140/05 RMK AO2 $
14840KMKG MKG20060620225011206/20/06 22:50:31  5-MIN KMKG 210350Z 15005KT 10SM CLR 18/11 A2999 570 64 1100 150/05 RMK AO2 SLP152 T01780111 $
14840KMKG MKG20060620225511206/20/06 22:55:31  5-MIN KMKG 210355Z 15006KT 10SM CLR 18/11 A2998 570 64 1100 150/06 RMK AO2 SLP150 T01780111 $
14840KMKG MKG20060620230009806/20/06 23:00:31  5-MIN KMKG 210400Z 13005KT 10SM FEW100 18/11 A2999 570 62 1100 140/05 RMK AO2 $
14840KMKG MKG20060620230509806/20/06 23:05:31  5-MIN KMKG 210405Z 13004KT 10SM FEW100 18/12 A2999 560 67 1100 130/04 RMK AO2 $
14840KMKG MKG20060620231009806/20/06 23:10:31  5-MIN KMKG 210410Z 14005KT 10SM FEW110 18/12 A2999 570 67 1100 150/05 RMK AO2 $
14840KMKG MKG20060620231509806/20/06 23:15:31  5-MIN KMKG 210415Z 15005KT 10SM FEW110 18/12 A2998 570 67 1100 160/05 RMK AO2 $
14840KMKG MKG20060620232009806/20/06 23:20:31  5-MIN KMKG 210420Z 15004KT 10SM FEW100 18/12 A2998 580 67 1100 160/04 RMK AO2 $
14840KMKG MKG20060620232509806/20/06 23:25:31  5-MIN KMKG 210425Z 14005KT 10SM SCT110 18/11 A2998 580 62 1100 140/05 RMK AO2 $
14840KMKG MKG20060620233009806/20/06 23:30:31  5-MIN KMKG 210430Z 11004KT 10SM SCT110 18/12 A2998 570 65 1100 110/04 RMK AO2 $
14840KMKG MKG20060620233509806/20/06 23:35:31  5-MIN KMKG 210435Z 10003KT 10SM FEW110 18/12 A2998 570 65 1100 110/03 RMK AO2 $
14840KMKG MKG20060620234009806/20/06 23:40:31  5-MIN KMKG 210440Z 12005KT 10SM FEW110 18/12 A2998 580 65 1100 120/05 RMK AO2 $
14840KMKG MKG20060620234509806/20/06 23:45:31  5-MIN KMKG 210445Z 13005KT 10SM FEW110 18/11 A2998 580 62 1100 140/05 RMK AO2 $
14840KMKG MKG20060620235012506/20/06 23:50:31  5-MIN KMKG 210450Z 14007KT 10SM FEW110 18/12 A2997 580 65 1100 140/07 RMK AO2 SLP147 T01830117 402330133 $
14840KMKG MKG20060620235512206/20/06 23:55:31  5-MIN KMKG 210455Z 14007KT 10SM CLR 18/11 A2997 580 62 1200 150/07 RMK AO2 SLP146 T01830111 402330133 $
14840KMKG MKG20060621000009506/21/06 00:00:32  5-MIN KMKG 210500Z 13007KT 10SM CLR 19/11 A2997 590 60 1200 140/07 RMK AO2 $
14840KMKG MKG20060621000509506/21/06 00:05:31  5-MIN KMKG 210505Z 13007KT 10SM CLR 18/12 A2996 590 65 1200 130/07 RMK AO2 $
14840KMKG MKG20060621001009506/21/06 00:10:31  5-MIN KMKG 210510Z 12008KT 10SM CLR 18/12 A2996 600 67 1100 130/08 RMK AO2 $
14840KMKG MKG20060621001509506/21/06 00:15:31  5-MIN KMKG 210515Z 12007KT 10SM CLR 18/12 A2996 600 65 1200 120/07 RMK AO2 $
14840KMKG MKG20060621002009506/21/06 00:20:31  5-MIN KMKG 210520Z 12006KT 10SM CLR 18/12 A2995 600 65 1200 130/06 RMK AO2 $
14840KMKG MKG20060621002509506/21/06 00:25:31  5-MIN KMKG 210525Z 12006KT 10SM CLR 18/12 A2996 600 67 1100 130/06 RMK AO2 $
14840KMKG MKG20060621003009806/21/06 00:30:31  5-MIN KMKG 210530Z 12006KT 10SM FEW085 18/12 A2995 600 67 1100 130/06 RMK AO2 $
14840KMKG MKG20060621003509806/21/06 00:35:31  5-MIN KMKG 210535Z 12007KT 10SM SCT080 18/12 A2995 610 67 1100 130/07 RMK AO2 $
14840KMKG MKG20060621004009806/21/06 00:40:31  5-MIN KMKG 210540Z 12006KT 10SM SCT080 18/12 A2994 610 67 1100 130/06 RMK AO2 $
14840KMKG MKG20060621004509806/21/06 00:45:31  5-MIN KMKG 210545Z 12006KT 10SM FEW080 18/12 A2994 610 67 1100 120/06 RMK AO2 $
14840KMKG MKG20060621005013906/21/06 00:50:31  5-MIN KMKG 210550Z 12005KT 10SM SCT080 18/12 A2994 610 67 1100 120/05 RMK AO2 SLP137 60000 T01780117 10217 20172 51018 $
14840KMKG MKG20060621005513906/21/06 00:55:31  5-MIN KMKG 210555Z 13005KT 10SM SCT080 18/12 A2994 610 67 1100 140/05 RMK AO2 SLP137 60000 T01780117 10217 20172 57022 $
14840KMKG MKG20060621010009806/21/06 01:00:31  5-MIN KMKG 210600Z 14006KT 10SM SCT075 18/12 A2994 610 69 1100 140/06 RMK AO2 $
14840KMKG MKG20060621010509806/21/06 01:05:31  5-MIN KMKG 210605Z 14006KT 10SM FEW070 18/12 A2994 610 69 1100 140/06 RMK AO2 $
14840KMKG MKG20060621011009806/21/06 01:10:31  5-MIN KMKG 210610Z 14006KT 10SM FEW075 18/12 A2994 610 69 1100 140/06 RMK AO2 $
14840KMKG MKG20060621011509806/21/06 01:15:31  5-MIN KMKG 210615Z 15006KT 10SM FEW075 18/12 A2994 610 67 1200 150/06 RMK AO2 $
14840KMKG MKG20060621012009806/21/06 01:20:31  5-MIN KMKG 210620Z 14007KT 10SM FEW070 19/12 A2993 620 65 1300 140/07 RMK AO2 $
14840KMKG MKG20060621012509806/21/06 01:25:31  5-MIN KMKG 210625Z 14008KT 10SM SCT065 19/12 A2992 630 65 1300 140/08 RMK AO2 $
14840KMKG MKG20060621013010506/21/06 01:30:31  5-MIN KMKG 210630Z 14008KT 10SM SCT055 BKN075 19/13 A2992 630 67 1300 150/08 RMK AO2 $
14840KMKG MKG20060621013510506/21/06 01:35:31  5-MIN KMKG 210635Z 16007KT 10SM BKN055 BKN070 19/13 A2992 630 65 1300 160/07 RMK AO2 $
14840KMKG MKG20060621014012706/21/06 01:40:31  5-MIN KMKG 210640Z 18007KT 10SM SCT055 BKN070 BKN120 19/13 A2992 630 65 1300 180/07 RMK AO2 CIG 055 RWY 14 $
14840KMKG MKG20060621014510506/21/06 01:45:31  5-MIN KMKG 210645Z 18008KT 10SM SCT060 BKN120 19/13 A2992 630 65 1300 180/08 RMK AO2 $
14840KMKG MKG20060621015012206/21/06 01:50:31  5-MIN KMKG 210650Z 17009KT 10SM SCT055 BKN120 20/13 A2991 640 63 1400 170/09 RMK AO2 SLP127 T02000128 $
14840KMKG MKG20060621015512206/21/06 01:55:31  5-MIN KMKG 210655Z 17010KT 10SM SCT055 BKN120 20/13 A2991 640 65 1400 180/10 RMK AO2 SLP127 T02000133 $
14840KMKG MKG20060621020010506/21/06 02:00:31  5-MIN KMKG 210700Z 18009KT 10SM FEW055 SCT120 20/13 A2991 640 65 1400 180/09 RMK AO2 $
14840KMKG MKG20060621020510506/21/06 02:05:31  5-MIN KMKG 210705Z 15010KT 10SM FEW120 20/13 A2989 660 65 1400 150/10 RMK AO2 PRESFR $
14840KMKG MKG20060621021009806/21/06 02:10:31  5-MIN KMKG 210710Z 17008KT 10SM FEW120 20/13 A2989 660 65 1400 180/08 RMK AO2 $
14840KMKG MKG20060621021510206/21/06 02:15:31  5-MIN KMKG 210715Z 16009KT 10SM CLR 20/13 A2988 670 65 1400 170/09 RMK AO2 PRESFR $
14840KMKG MKG20060621022009506/21/06 02:20:31  5-MIN KMKG 210720Z 16008KT 10SM CLR 20/13 A2988 670 65 1400 160/08 RMK AO2 $
14840KMKG MKG20060621022509506/21/06 02:25:31  5-MIN KMKG 210725Z 19007KT 10SM CLR 20/14 A2989 660 67 1400 190/07 RMK AO2 $
14840KMKG MKG20060621023009506/21/06 02:30:31  5-MIN KMKG 210730Z 19010KT 10SM CLR 20/14 A2989 660 67 1400 190/10 RMK AO2 $
14840KMKG MKG20060621023509506/21/06 02:35:31  5-MIN KMKG 210735Z 18010KT 10SM CLR 21/14 A2989 660 65 1500 180/10 RMK AO2 $
14840KMKG MKG20060621024009506/21/06 02:40:31  5-MIN KMKG 210740Z 17010KT 10SM CLR 21/14 A2989 660 65 1500 170/10 RMK AO2 $
14840KMKG MKG20060621024509506/21/06 02:45:31  5-MIN KMKG 210745Z 17009KT 10SM CLR 20/14 A2989 660 70 1400 180/09 RMK AO2 $
14840KMKG MKG20060621025011206/21/06 02:50:31  5-MIN KMKG 210750Z 15009KT 10SM CLR 20/14 A2988 660 70 1400 160/09 RMK AO2 SLP117 T02000144 $
14840KMKG MKG20060621025511206/21/06 02:55:31  5-MIN KMKG 210755Z 16009KT 10SM CLR 21/14 A2988 660 67 1500 160/09 RMK AO2 SLP117 T02060144 $
14840KMKG MKG20060621030009506/21/06 03:00:31  5-MIN KMKG 210800Z 15009KT 10SM CLR 21/14 A2989 660 67 1500 160/09 RMK AO2 $
14840KMKG MKG20060621030509506/21/06 03:05:31  5-MIN KMKG 210805Z 14008KT 10SM CLR 20/14 A2989 660 70 1400 140/08 RMK AO2 $
14840KMKG MKG20060621031009506/21/06 03:10:31  5-MIN KMKG 210810Z 13009KT 10SM CLR 19/14 A2989 660 72 1400 130/09 RMK AO2 $
14840KMKG MKG20060621031509506/21/06 03:15:31  5-MIN KMKG 210815Z 12009KT 10SM CLR 19/14 A2989 660 72 1400 130/09 RMK AO2 $
14840KMKG MKG20060621032009506/21/06 03:20:31  5-MIN KMKG 210820Z 12008KT 10SM CLR 20/14 A2989 660 70 1400 120/08 RMK AO2 $
14840KMKG MKG20060621032509506/21/06 03:25:31  5-MIN KMKG 210825Z 13008KT 10SM CLR 19/14 A2989 660 72 1400 130/08 RMK AO2 $
14840KMKG MKG20060621033009806/21/06 03:30:31  5-MIN KMKG 210830Z 13009KT 10SM FEW100 19/14 A2989 660 72 1400 130/09 RMK AO2 $
14840KMKG MKG20060621033509806/21/06 03:35:31  5-MIN KMKG 210835Z 13009KT 10SM FEW100 19/15 A2989 660 75 1400 130/09 RMK AO2 $
14840KMKG MKG20060621034009806/21/06 03:40:31  5-MIN KMKG 210840Z 13009KT 10SM SCT100 19/15 A2989 660 75 1400 130/09 RMK AO2 $
14840KMKG MKG20060621034509806/21/06 03:45:31  5-MIN KMKG 210845Z 13008KT 10SM BKN100 19/15 A2989 660 75 1400 140/08 RMK AO2 $
14840KMKG MKG20060621035012106/21/06 03:50:31  5-MIN KMKG 210850Z 13009KT 10SM BKN100 19/15 A2989 660 75 1400 140/09 RMK AO2 SLP119 T01940150 57022 $
14840KMKG MKG20060621035512106/21/06 03:55:31  5-MIN KMKG 210855Z 14008KT 10SM BKN100 19/15 A2989 660 75 1400 140/08 RMK AO2 SLP120 T01940150 55016 $
14840KMKG MKG20060621040009806/21/06 04:00:31  5-MIN KMKG 210900Z 14007KT 10SM BKN100 19/15 A2989 660 75 1400 140/07 RMK AO2 $
14840KMKG MKG20060621040509806/21/06 04:05:31  5-MIN KMKG 210905Z 14009KT 10SM BKN100 19/15 A2989 660 75 1400 140/09 RMK AO2 $
14840KMKG MKG20060621041009806/21/06 04:10:31  5-MIN KMKG 210910Z 14007KT 10SM SCT100 19/15 A2989 660 75 1400 150/07 RMK AO2 $
14840KMKG MKG20060621041509806/21/06 04:15:31  5-MIN KMKG 210915Z 14006KT 10SM SCT100 19/15 A2989 660 75 1400 150/06 RMK AO2 $
14840KMKG MKG20060621042009806/21/06 04:20:31  5-MIN KMKG 210920Z 14007KT 10SM FEW046 19/15 A2989 660 75 1400 150/07 RMK AO2 $
14840KMKG MKG20060621042509806/21/06 04:25:31  5-MIN KMKG 210925Z 14008KT 10SM FEW046 19/15 A2988 660 75 1400 140/08 RMK AO2 $
14840KMKG MKG20060621043009806/21/06 04:30:31  5-MIN KMKG 210930Z 15008KT 10SM FEW046 19/15 A2988 670 75 1400 150/08 RMK AO2 $
14840KMKG MKG20060621043509806/21/06 04:35:31  5-MIN KMKG 210935Z 15007KT 10SM FEW048 19/15 A2988 670 75 1400 150/07 RMK AO2 $
14840KMKG MKG20060621044009806/21/06 04:40:31  5-MIN KMKG 210940Z 15008KT 10SM FEW048 19/15 A2988 670 75 1400 160/08 RMK AO2 $
14840KMKG MKG20060621044509806/21/06 04:45:31  5-MIN KMKG 210945Z 15009KT 10SM FEW048 19/15 A2987 670 75 1400 150/09 RMK AO2 $
14840KMKG MKG20060621045011506/21/06 04:50:31  5-MIN KMKG 210950Z 15009KT 10SM FEW048 19/15 A2987 680 75 1400 160/09 RMK AO2 SLP113 T01940150 $
14840KMKG MKG20060621045511206/21/06 04:55:31  5-MIN KMKG 210955Z 15008KT 10SM CLR 19/15 A2987 680 75 1400 160/08 RMK AO2 SLP113 T01940150 $
14840KMKG MKG20060621050009506/21/06 05:00:31  5-MIN KMKG 211000Z 15009KT 10SM CLR 19/15 A2987 680 75 1400 160/09 RMK AO2 $
14840KMKG MKG20060621050509506/21/06 05:05:31  5-MIN KMKG 211005Z 15009KT 10SM CLR 19/15 A2987 680 75 1400 160/09 RMK AO2 $
14840KMKG MKG20060621051009506/21/06 05:10:31  5-MIN KMKG 211010Z 15011KT 10SM CLR 19/15 A2986 680 75 1400 150/11 RMK AO2 $
14840KMKG MKG20060621051509506/21/06 05:15:31  5-MIN KMKG 211015Z 15010KT 10SM CLR 19/15 A2986 680 75 1400 160/10 RMK AO2 $
14840KMKG MKG20060621052009506/21/06 05:20:31  5-MIN KMKG 211020Z 16008KT 10SM CLR 19/15 A2986 680 75 1400 170/08 RMK AO2 $
14840KMKG MKG20060621052509506/21/06 05:25:31  5-MIN KMKG 211025Z 16010KT 10SM CLR 19/15 A2986 690 75 1400 160/10 RMK AO2 $
14840KMKG MKG20060621053009506/21/06 05:30:31  5-MIN KMKG 211030Z 16009KT 10SM CLR 19/15 A2986 690 75 1400 170/09 RMK AO2 $
14840KMKG MKG20060621053509506/21/06 05:35:31  5-MIN KMKG 211035Z 17007KT 10SM CLR 19/15 A2986 690 75 1400 180/07 RMK AO2 $
14840KMKG MKG20060621054009506/21/06 05:40:31  5-MIN KMKG 211040Z 18006KT 10SM CLR 19/15 A2986 690 75 1400 180/06 RMK AO2 $
14840KMKG MKG20060621054509506/21/06 05:45:31  5-MIN KMKG 211045Z 16009KT 10SM CLR 19/15 A2986 690 75 1400 170/09 RMK AO2 $
14840KMKG MKG20060621055011506/21/06 05:50:31  5-MIN KMKG 211050Z 17010KT 10SM FEW070 20/16 A2986 690 75 1500 170/10 RMK AO2 SLP109 T02000156 $
14840KMKG MKG20060621055512206/21/06 05:55:31  5-MIN KMKG 211055Z 17009KT 10SM SCT070 SCT110 20/16 A2986 690 75 1500 170/09 RMK AO2 SLP108 T02000156 $
14840KMKG MKG20060621060012706/21/06 06:00:31  5-MIN KMKG 211100Z 17009KT 10SM FEW055 SCT070 BKN110 20/16 A2985 690 75 1500 170/09 RMK AO2 CIG 070 RWY 14 $
14840KMKG MKG20060621060511206/21/06 06:05:31  5-MIN KMKG 211105Z 16009KT 10SM SCT055 BKN075 BKN110 20/16 A2985 700 75 1500 170/09 RMK AO2 $
14840KMKG MKG20060621061011206/21/06 06:10:31  5-MIN KMKG 211110Z 16009KT 10SM BKN055 BKN070 BKN110 21/16 A2985 690 73 1500 170/09 RMK AO2 $
14840KMKG MKG20060621061512006/21/06 06:15:31  5-MIN KMKG 211115Z 16011KT 6SM -RA BKN055 OVC070 20/16 A2985 700 78 1500 160/11 RMK AO2 RAB14 P0001 $
14840KMKG MKG20060621062012006/21/06 06:20:31  5-MIN KMKG 211120Z 18007KT 6SM -RA BKN055 OVC070 20/16 A2984 700 78 1500 180/07 RMK AO2 RAB14 P0003 $
14840KMKG MKG20060621062511306/21/06 06:25:31  5-MIN KMKG 211125Z 17009KT 10SM OVC055 19/17 A2984 700 84 1400 180/09 RMK AO2 RAB14E25 P0003 $
14840KMKG MKG20060621063011406/21/06 06:30:31  5-MIN KMKG 211130Z 17006KT 10SM -RA OVC055 20/17 A2984 700 81 1500 170/06 RMK AO2 RAB14 P0003 $
14840KMKG MKG20060621063511406/21/06 06:35:31  5-MIN KMKG 211135Z 18006KT 10SM -RA OVC055 20/17 A2984 700 81 1500 190/06 RMK AO2 RAB14 P0003 $
14840KMKG MKG20060621064011306/21/06 06:40:31  5-MIN KMKG 211140Z 18005KT 10SM OVC050 20/17 A2985 700 81 1500 180/05 RMK AO2 RAB14E38 P0003 $
14840KMKG MKG20060621064511306/21/06 06:45:31  5-MIN KMKG 211145Z 17006KT 10SM OVC050 20/17 A2985 700 81 1500 170/06 RMK AO2 RAB14E38 P0003 $
14840KMKG MKG20060621065016006/21/06 06:50:31  5-MIN KMKG 211150Z 17007KT 10SM OVC050 20/17 A2984 700 81 1500 180/07 RMK AO2 RAB14E38 SLP103 P0003 60003 70003 T02000167 10206 20178 55016 $
14840KMKG MKG20060621065515806/21/06 06:55:31  5-MIN KMKG 211155Z 18007KT 10SM OVC050 21/17 A2984 710 81 1600 190/07 RMK AO2 RAB14E38 SLP102 P0003 60003 70003 T02060172 10206 20178 56018
14840KMKG MKG20060621070009606/21/06 07:00:31  5-MIN KMKG 211200Z 17007KT 10SM OVC050 21/17 A2984 710 81 1600 180/07 RMK AO2
14840KMKG MKG20060621070509606/21/06 07:05:31  5-MIN KMKG 211205Z 18009KT 10SM OVC050 21/18 A2984 710 84 1600 180/09 RMK AO2
14840KMKG MKG20060621071009606/21/06 07:10:31  5-MIN KMKG 211210Z 19010KT 10SM OVC050 21/18 A2984 700 84 1600 200/10 RMK AO2
14840KMKG MKG20060621071512906/21/06 07:15:31  5-MIN KMKG 211215Z 21011KT 10SM TS OVC050 21/18 A2984 700 81 1600 210/11 RMK AO2 TSB12 OCNL LTGICCG TS W MOV E
14840KMKG MKG20060621072013506/21/06 07:20:31  5-MIN KMKG 211220Z 21015G20KT 10SM TS BKN050 22/18 A2984 700 78 1700 210/15G20 RMK AO2 TSB12 OCNL LTGICCG TS W MOV E
14840KMKG MKG20060621072513506/21/06 07:25:31  5-MIN KMKG 211225Z 21014G20KT 10SM TS OVC050 22/18 A2985 700 78 1700 210/14G20 RMK AO2 TSB12 OCNL LTGICCG TS W MOV E
14840KMKG MKG20060621073015306/21/06 07:30:31  5-MIN KMKG 211230Z 20021G27KT 10SM TS OVC050 22/18 A2985 700 78 1700 210/21G27 RMK AO2 PK WND 20027/1229 TSB12 OCNL LTGICCG TS W MOV E
14840KMKG MKG20060621073515306/21/06 07:35:31  5-MIN KMKG 211235Z 21017G27KT 10SM TS OVC050 21/18 A2985 700 81 1600 220/17G27 RMK AO2 PK WND 20027/1229 TSB12 OCNL LTGICCG TS W MOV E
14840KMKG MKG20060621074015306/21/06 07:40:31  5-MIN KMKG 211240Z 22016G23KT 10SM TS OVC048 21/18 A2985 700 81 1600 230/16G23 RMK AO2 PK WND 20027/1229 TSB12 OCNL LTGICCG TS W MOV E
14840KMKG MKG20060621074516706/21/06 07:45:31  5-MIN KMKG 211245Z 23014G23KT 10SM -TSRA OVC048 21/18 A2985 700 84 1500 240/14G23 RMK AO2 PK WND 20027/1229 TSB12RAB42 OCNL LTGICCG TS W MOV E P0000
14840KMKG MKG20060621075018506/21/06 07:50:31  5-MIN KMKG 211250Z 23015KT 10SM -TSRA BKN050 OVC060 20/17 A2986 680 84 1500 240/15 RMK AO2 PK WND 20027/1229 TSB12RAB42 SLP111 OCNL LTGICCG TS W MOV E P0000 T02000172
14840KMKG MKG20060621075520706/21/06 07:55:31  5-MIN KMKG 211255Z 24018KT 2 1/2SM TSRA FEW011 BKN048 OVC075 20/17 A2990 650 84 1400 250/18 RMK AO2 PK WND 20027/1229 VIS 1 1/2 RWY 14 PRESRR SLP122 OCNL LTGICCG RAB42 TS W MOV E T02000172
14840KMKG MKG20060621080016406/21/06 08:00:31  5-MIN KMKG 211300Z 22018G26KT 2SM TSRA BR SCT015 BKN048 OVC100 19/17 A2989 660 87 1400 230/18G26 RMK AO2 PK WND 24026/1300 VIS 1 1/4 RWY 14 P0008
14840KMKG MKG20060621080515706/21/06 08:05:31  5-MIN KMKG 211305Z 24016G26KT 3SM TSRA BR SCT023 OVC050 19/17 A2989 660 87 1400 250/16G26 RMK AO2 PK WND 24026/1300 VIS 1 1/2 RWY 14 P0010
14840KMKG MKG20060621081016706/21/06 08:10:31  5-MIN KMKG 211310Z 24014G23KT 3SM TSRA BR BKN023 OVC050 20/18 A2989 660 87 1400 240/14G23 RMK AO2 PK WND 24026/1300 VIS 1 1/2 RWY 14 TS ALQADS P0014
14840KMKG MKG20060621081516806/21/06 08:15:31  5-MIN KMKG 211315Z 24015G23KT 4SM -TSRA BKN033 BKN055 OVC080 20/17 A2989 660 84 1400 250/15G23 RMK AO2 PK WND 24026/1300 VIS 2 RWY 14 TS ALQADS P0017
14840KMKG MKG20060621082014206/21/06 08:20:31  5-MIN KMKG 211320Z 26015G20KT 10SM -TSRA OVC044 20/17 A2990 650 84 1400 270/15G20 RMK AO2 PK WND 24026/1300 TS ALQADS P0017
14840KMKG MKG20060621082514206/21/06 08:25:31  5-MIN KMKG 211325Z 28013G24KT 10SM -TSRA OVC046 20/17 A2991 640 81 1400 280/13G24 RMK AO2 PK WND 24026/1300 TS ALQADS P0017
14840KMKG MKG20060621083014206/21/06 08:30:31  5-MIN KMKG 211330Z 26011G24KT 10SM -TSRA OVC048 19/17 A2991 640 84 1300 260/11G24 RMK AO2 PK WND 24026/1300 TS ALQADS P0017
14840KMKG MKG20060621083514306/21/06 08:35:31  5-MIN KMKG 211335Z 25012KT 10SM -TSRA BKN050 BKN080 19/17 A2991 640 84 1400 250/12 RMK AO2 PK WND 24026/1300 TS ALQADS P0017
14840KMKG MKG20060621084015806/21/06 08:40:31  5-MIN KMKG 211340Z 24010KT 10SM -TSRA SCT060 BKN080 19/17 A2991 640 87 1300 250/10 RMK AO2 PK WND 24026/1300 CIG 060 RWY 14 TS ALQADS P0017
14840KMKG MKG20060621084513906/21/06 08:45:31  5-MIN KMKG 211345Z 26010KT 10SM TS SCT060 19/17 A2991 640 87 1300 260/10 RMK AO2 PK WND 24026/1300 RAE43 TS ALQADS P0017
14840KMKG MKG20060621085014106/21/06 08:50:31  5-MIN KMKG 211350Z 27009KT 10SM FEW055 19/16 A2990 650 84 1300 270/09 RMK AO2 PK WND 24026/1300 TSE50RAE43 TS ALQADS P0017
14840KMKG MKG20060621085515406/21/06 08:55:31  5-MIN KMKG 211355Z 27007G15KT 10SM FEW055 19/16 A2990 640 84 1300 280/07G15 RMK AO2 PK WND 24026/1300 SLP125 RAE43TSE49 P0017 T01890161
14840KMKG MKG20060621090009306/21/06 09:00:31  5-MIN KMKG 211400Z 27006KT 10SM CLR 19/16 A2990 650 81 1300 270/06 RMK AO2
14840KMKG MKG20060621090509306/21/06 09:05:31  5-MIN KMKG 211405Z 25005KT 10SM CLR 18/16 A2990 650 84 1200 260/05 RMK AO2
14840KMKG MKG20060621091009306/21/06 09:10:31  5-MIN KMKG 211410Z VRB04KT 10SM CLR 18/16 A2990 650 84 1200 VRB/04 RMK AO2
14840KMKG MKG20060621091509606/21/06 09:15:31  5-MIN KMKG 211415Z VRB03KT 10SM FEW095 18/16 A2990 650 84 1200 VRB/03 RMK AO2
14840KMKG MKG20060621092009606/21/06 09:20:31  5-MIN KMKG 211420Z 26004KT 10SM FEW090 18/16 A2990 650 84 1200 260/04 RMK AO2
14840KMKG MKG20060621092509306/21/06 09:25:31  5-MIN KMKG 211425Z 25007KT 10SM CLR 19/16 A2990 650 81 1300 250/07 RMK AO2
14840KMKG MKG20060621093010906/21/06 09:30:31  5-MIN KMKG 211430Z 22006KT 10SM -RA CLR 19/16 A2990 650 81 1300 230/06 RMK AO2 RAB26 P0000
14840KMKG MKG20060621093510906/21/06 09:35:31  5-MIN KMKG 211435Z 21006KT 10SM -RA CLR 19/16 A2990 650 84 1300 210/06 RMK AO2 RAB26 P0000
14840KMKG MKG20060621094011206/21/06 09:40:31  5-MIN KMKG 211440Z 19006KT 10SM -RA SCT015 19/16 A2989 650 84 1300 190/06 RMK AO2 RAB26 P0001
14840KMKG MKG20060621094511206/21/06 09:45:31  5-MIN KMKG 211445Z 18009KT 10SM -RA SCT011 19/16 A2989 660 84 1300 180/09 RMK AO2 RAB26 P0001
14840KMKG MKG20060621095014806/21/06 09:50:31  5-MIN KMKG 211450Z 19008KT 10SM -RA FEW011 19/16 A2988 670 84 1300 200/08 RMK AO2 RAB26 PRESFR SLP117 P0001 60020 T01890161 56018
14840KMKG MKG20060621095514106/21/06 09:55:31  5-MIN KMKG 211455Z 19009KT 10SM -RA FEW011 19/16 A2988 670 84 1300 190/09 RMK AO2 RAB26 SLP117 P0001 60020 T01890161 50014
14840KMKG MKG20060621100010606/21/06 10:00:31  5-MIN KMKG 211500Z 18009KT 10SM -RA FEW011 19/16 A2988 670 81 1400 180/09 RMK AO2 P0000
14840KMKG MKG20060621100510606/21/06 10:05:31  5-MIN KMKG 211505Z 18006KT 10SM -RA FEW011 19/17 A2987 680 84 1400 190/06 RMK AO2 P0000
14840KMKG MKG20060621101010506/21/06 10:10:31  5-MIN KMKG 211510Z 16006KT 10SM CLR 19/17 A2987 680 84 1400 160/06 RMK AO2 RAE10 P0000
14840KMKG MKG20060621101510506/21/06 10:15:31  5-MIN KMKG 211515Z 17006KT 10SM CLR 19/17 A2987 670 84 1400 170/06 RMK AO2 RAE10 P0000
14840KMKG MKG20060621102010306/21/06 10:20:31  5-MIN KMKG 211520Z 14008KT 10SM -RA CLR 20/17 A2986 680 81 1500 150/08 RMK AO2 P0000
14840KMKG MKG20060621102510306/21/06 10:25:31  5-MIN KMKG 211525Z 14010KT 10SM -RA CLR 20/17 A2986 690 81 1500 140/10 RMK AO2 P0000
14840KMKG MKG20060621103010506/21/06 10:30:31  5-MIN KMKG 211530Z 14009KT 10SM CLR 20/17 A2986 690 81 1500 140/09 RMK AO2 RAE26 P0000
14840KMKG MKG20060621103510506/21/06 10:35:31  5-MIN KMKG 211535Z 12010KT 10SM CLR 20/17 A2985 690 84 1500 130/10 RMK AO2 RAE26 P0000
14840KMKG MKG20060621104010506/21/06 10:40:31  5-MIN KMKG 211540Z 12008KT 10SM CLR 20/18 A2985 700 87 1500 120/08 RMK AO2 RAE26 P0000
14840KMKG MKG20060621104510506/21/06 10:45:31  5-MIN KMKG 211545Z 12010KT 10SM CLR 21/18 A2985 700 84 1500 120/10 RMK AO2 RAE26 P0000
14840KMKG MKG20060621105012906/21/06 10:50:31  5-MIN KMKG 211550Z 12010KT 10SM CLR 21/18 A2984 710 84 1600 120/10 RMK AO2 RAE26 PRESFR SLP102 P0000 T02060178
14840KMKG MKG20060621105512206/21/06 10:55:31  5-MIN KMKG 211555Z 12010KT 10SM CLR 21/18 A2985 700 84 1600 130/10 RMK AO2 RAE26 SLP104 P0000 T02110183
14840KMKG MKG20060621110009306/21/06 11:00:31  5-MIN KMKG 211600Z 12011KT 10SM CLR 21/18 A2984 700 84 1600 120/11 RMK AO2
14840KMKG MKG20060621110509306/21/06 11:05:31  5-MIN KMKG 211605Z 11009KT 10SM CLR 22/18 A2984 700 81 1700 120/09 RMK AO2
14840KMKG MKG20060621111009306/21/06 11:10:31  5-MIN KMKG 211610Z 12009KT 10SM CLR 22/18 A2984 700 78 1700 130/09 RMK AO2
14840KMKG MKG20060621111509306/21/06 11:15:31  5-MIN KMKG 211615Z 12008KT 10SM CLR 23/18 A2984 710 76 1800 120/08 RMK AO2
14840KMKG MKG20060621112010906/21/06 11:20:31  5-MIN KMKG 211620Z 15007KT 120V180 10SM CLR 24/18 A2984 700 71 1900 150/07 120V180 RMK AO2
14840KMKG MKG20060621112509306/21/06 11:25:31  5-MIN KMKG 211625Z 15005KT 10SM CLR 24/18 A2985 700 66 2000 150/05 RMK AO2
14840KMKG MKG20060621113009306/21/06 11:30:31  5-MIN KMKG 211630Z 13004KT 10SM CLR 24/19 A2985 690 73 1900 140/04 RMK AO2
14840KMKG MKG20060621113509306/21/06 11:35:31  5-MIN KMKG 211635Z 15005KT 10SM CLR 24/18 A2985 700 66 2000 160/05 RMK AO2
14840KMKG MKG20060621114009306/21/06 11:40:31  5-MIN KMKG 211640Z 15005KT 10SM CLR 25/17 A2985 700 61 2100 150/05 RMK AO2
14840KMKG MKG20060621114509306/21/06 11:45:31  5-MIN KMKG 211645Z VRB04KT 10SM CLR 25/18 A2985 700 64 2100 VRB/04 RMK AO2
14840KMKG MKG20060621115011006/21/06 11:50:31  5-MIN KMKG 211650Z VRB03KT 10SM CLR 25/18 A2985 690 64 2000 VRB/03 RMK AO2 SLP105 T02500178
14840KMKG MKG20060621115511006/21/06 11:55:31  5-MIN KMKG 211655Z 22004KT 10SM CLR 25/18 A2985 700 66 2000 220/04 RMK AO2 SLP105 T02500183
14840KMKG MKG20060621120009306/21/06 12:00:31  5-MIN KMKG 211700Z 26005KT 10SM CLR 26/18 A2985 690 61 2100 270/05 RMK AO2
14840KMKG MKG20060621120509306/21/06 12:05:31  5-MIN KMKG 211705Z 23006KT 10SM CLR 26/17 A2985 700 55 2200 230/06 RMK AO2
14840KMKG MKG20060621121009306/21/06 12:10:31  5-MIN KMKG 211710Z 25006KT 10SM CLR 26/17 A2985 700 55 2200 260/06 RMK AO2
14840KMKG MKG20060621121510906/21/06 12:15:31  5-MIN KMKG 211715Z 24007KT 210V270 10SM CLR 26/17 A2985 700 57 2200 240/07 210V270 RMK AO2
14840KMKG MKG20060621122009306/21/06 12:20:31  5-MIN KMKG 211720Z 24007KT 10SM CLR 26/17 A2985 690 57 2100 240/07 RMK AO2
14840KMKG MKG20060621122509306/21/06 12:25:31  5-MIN KMKG 211725Z 23009KT 10SM CLR 26/17 A2986 690 57 2100 230/09 RMK AO2
14840KMKG MKG20060621123009306/21/06 12:30:31  5-MIN KMKG 211730Z 23009KT 10SM CLR 26/17 A2986 680 59 2100 240/09 RMK AO2
14840KMKG MKG20060621123509306/21/06 12:35:31  5-MIN KMKG 211735Z 23010KT 10SM CLR 26/17 A2986 680 59 2100 240/10 RMK AO2
14840KMKG MKG20060621124009306/21/06 12:40:31  5-MIN KMKG 211740Z 23010KT 10SM CLR 26/17 A2987 680 59 2100 230/10 RMK AO2
14840KMKG MKG20060621124509306/21/06 12:45:31  5-MIN KMKG 211745Z 23011KT 10SM CLR 26/17 A2987 670 57 2100 230/11 RMK AO2
14840KMKG MKG20060621125013406/21/06 12:50:31  5-MIN KMKG 211750Z 23014KT 10SM CLR 26/17 A2988 670 59 2100 230/14 RMK AO2 SLP115 60020 T02560172 10261 20183 50014
14840KMKG MKG20060621125514006/21/06 12:55:31  5-MIN KMKG 211755Z 22016G21KT 10SM CLR 25/17 A2988 660 59 2000 220/16G21 RMK AO2 SLP116 60020 T02500167 10261 20183 53001
14840KMKG MKG20060621130009906/21/06 13:00:31  5-MIN KMKG 211800Z 22015G21KT 10SM CLR 24/16 A2989 660 61 1900 220/15G21 RMK AO2
14840KMKG MKG20060621130509906/21/06 13:05:31  5-MIN KMKG 211805Z 21015G24KT 10SM CLR 23/16 A2989 660 63 1800 210/15G24 RMK AO2
14840KMKG MKG20060621131009906/21/06 13:10:31  5-MIN KMKG 211810Z 21013G24KT 10SM CLR 23/16 A2989 660 63 1800 220/13G24 RMK AO2
14840KMKG MKG20060621131509606/21/06 13:15:31  5-MIN KMKG 211815Z 21013KT 10SM FEW044 23/16 A2989 660 65 1800 210/13 RMK AO2
14840KMKG MKG20060621132010206/21/06 13:20:31  5-MIN KMKG 211820Z 21012G18KT 10SM SCT044 23/17 A2989 660 68 1800 210/12G18 RMK AO2
14840KMKG MKG20060621132510206/21/06 13:25:31  5-MIN KMKG 211825Z 21012G18KT 10SM SCT044 22/17 A2989 660 70 1700 210/12G18 RMK AO2
14840KMKG MKG20060621133009606/21/06 13:30:31  5-MIN KMKG 211830Z 21014KT 10SM SCT044 22/17 A2989 660 70 1700 210/14 RMK AO2
14840KMKG MKG20060621133509606/21/06 13:35:31  5-MIN KMKG 211835Z 20011KT 10SM BKN044 22/17 A2989 660 70 1700 210/11 RMK AO2
14840KMKG MKG20060621134009606/21/06 13:40:31  5-MIN KMKG 211840Z 21012KT 10SM BKN039 22/17 A2989 660 70 1700 210/12 RMK AO2
14840KMKG MKG20060621134510306/21/06 13:45:31  5-MIN KMKG 211845Z 21013KT 10SM BKN034 BKN042 22/17 A2989 650 73 1700 210/13 RMK AO2
14840KMKG MKG20060621135014306/21/06 13:50:31  5-MIN KMKG 211850Z 21013KT 10SM -RA FEW027 BKN036 BKN042 22/18 A2989 660 75 1700 210/13 RMK AO2 RAB49 SLP120 P0000 T02220178
14840KMKG MKG20060621135513606/21/06 13:55:31  5-MIN KMKG 211855Z 21011KT 10SM -RA SCT025 BKN035 22/18 A2989 660 78 1700 220/11 RMK AO2 RAB49 SLP119 P0000 T02220183
14840KMKG MKG20060621140011906/21/06 14:00:31  5-MIN KMKG 211900Z 21009KT 8SM -RA FEW015 BKN025 OVC040 22/19 A2989 660 84 1700 210/09 RMK AO2 P0000
14840KMKG MKG20060621140511906/21/06 14:05:31  5-MIN KMKG 211905Z 21013KT 7SM -RA FEW015 BKN025 OVC036 22/19 A2989 660 84 1700 210/13 RMK AO2 P0001
14840KMKG MKG20060621141011906/21/06 14:10:31  5-MIN KMKG 211910Z 21011KT 8SM -RA FEW015 BKN025 OVC034 22/19 A2989 660 84 1700 220/11 RMK AO2 P0001
14840KMKG MKG20060621141512006/21/06 14:15:31  5-MIN KMKG 211915Z 21009KT 10SM -RA FEW015 BKN025 OVC034 22/19 A2989 660 84 1700 220/09 RMK AO2 P0001
14840KMKG MKG20060621142011906/21/06 14:20:31  5-MIN KMKG 211920Z 21010KT 9SM -RA FEW015 BKN023 OVC034 22/19 A2989 660 84 1700 210/10 RMK AO2 P0001
14840KMKG MKG20060621142513406/21/06 14:25:31  5-MIN KMKG 211925Z 22010KT 8SM -RA SCT023 BKN029 BKN036 22/19 A2989 660 84 1700 220/10 RMK AO2 CIG 023 RWY 14 P0001
14840KMKG MKG20060621143011906/21/06 14:30:31  5-MIN KMKG 211930Z 20010KT 7SM -RA FEW013 BKN025 OVC033 22/19 A2988 660 84 1700 210/10 RMK AO2 P0001
14840KMKG MKG20060621143512206/21/06 14:35:31  5-MIN KMKG 211935Z 19010KT 6SM -RA BR FEW011 SCT020 BKN030 22/19 A2988 670 87 1600 190/10 RMK AO2 P0001
14840KMKG MKG20060621144012206/21/06 14:40:31  5-MIN KMKG 211940Z 20011KT 6SM -RA BR FEW011 SCT020 BKN034 22/19 A2988 670 87 1600 210/11 RMK AO2 P0001
14840KMKG MKG20060621144511506/21/06 14:45:31  5-MIN KMKG 211945Z 20012KT 5SM -RA BR SCT019 BKN034 22/20 A2988 670 90 1600 200/12 RMK AO2 P0001
14840KMKG MKG20060621145014706/21/06 14:50:31  5-MIN KMKG 211950Z 20012KT 4SM -RA BR SCT019 BKN034 22/20 A2988 670 90 1600 200/12 RMK AO2 CIG 022 RWY 14 SLP116 P0002 T02170200
14840KMKG MKG20060621145513206/21/06 14:55:31  5-MIN KMKG 211955Z 20012KT 4SM -RA BR SCT017 BKN034 22/20 A2988 670 90 1600 210/12 RMK AO2 SLP116 P0002 T02170200
14840KMKG MKG20060621150011506/21/06 15:00:31  5-MIN KMKG 212000Z 22013KT 5SM -RA BR SCT015 BKN034 22/20 A2989 660 90 1600 220/13 RMK AO2 P0000
14840KMKG MKG20060621150511706/21/06 15:05:31  5-MIN KMKG 212005Z 21012KT 5SM BR FEW019 BKN034 22/20 A2989 660 90 1600 220/12 RMK AO2 RAE05 P0000
14840KMKG MKG20060621151011506/21/06 15:10:31  5-MIN KMKG 212010Z 22012KT 5SM -RA BR SCT019 BKN034 22/20 A2989 660 90 1600 220/12 RMK AO2 P0000
14840KMKG MKG20060621151514506/21/06 15:15:31  5-MIN KMKG 212015Z 21014G19KT 4SM -RA BR SCT016 BKN034 BKN047 22/20 A2989 660 87 1700 220/14G19 RMK AO2 VIS 2 1/2 RWY 14 P0000
14840KMKG MKG20060621152014506/21/06 15:20:31  5-MIN KMKG 212020Z 22013G18KT 4SM -RA BR SCT016 BKN034 BKN047 22/20 A2988 670 90 1600 220/13G18 RMK AO2 VIS 2 1/2 RWY 14 P0001
14840KMKG MKG20060621152513906/21/06 15:25:31  5-MIN KMKG 212025Z 22011KT 4SM -RA BR BKN016 BKN034 BKN060 22/20 A2989 660 87 1700 230/11 RMK AO2 VIS 2 1/2 RWY 14 P0001
14840KMKG MKG20060621153012206/21/06 15:30:31  5-MIN KMKG 212030Z 23012KT 5SM -RA BR SCT016 BKN034 BKN048 22/20 A2989 660 90 1600 230/12 RMK AO2 P0001
14840KMKG MKG20060621153512206/21/06 15:35:31  5-MIN KMKG 212035Z 23010KT 5SM -RA BR SCT016 SCT048 BKN060 22/20 A2988 660 90 1600 240/10 RMK AO2 P0001
14840KMKG MKG20060621154012206/21/06 15:40:31  5-MIN KMKG 212040Z 23009KT 6SM -RA BR FEW016 SCT038 BKN050 22/20 A2988 660 90 1600 240/09 RMK AO2 P0001
14840KMKG MKG20060621154512206/21/06 15:45:31  5-MIN KMKG 212045Z 23008KT 6SM -RA BR FEW016 BKN038 BKN060 22/20 A2988 670 90 1600 230/08 RMK AO2 P0001
14840KMKG MKG20060621155015106/21/06 15:50:31  5-MIN KMKG 212050Z 22008KT 5SM -RA BR FEW014 BKN038 BKN060 22/20 A2987 680 90 1600 230/08 RMK AO2 SLP113 P0001 60003 T02170200 53001
14840KMKG MKG20060621155514406/21/06 15:55:31  5-MIN KMKG 212055Z 22009KT 5SM -RA BR BKN038 BKN060 22/20 A2988 670 90 1600 230/09 RMK AO2 SLP115 P0001 60003 T02170200 58002
14840KMKG MKG20060621160011006/21/06 16:00:31  5-MIN KMKG 212100Z 23007KT 5SM BR BKN038 22/20 A2987 680 87 1700 230/07 RMK AO2 RAE00 P0000
14840KMKG MKG20060621160511006/21/06 16:05:31  5-MIN KMKG 212105Z 22009KT 5SM BR BKN038 22/21 A2988 670 90 1700 230/09 RMK AO2 RAE00 P0000
14840KMKG MKG20060621161010806/21/06 16:10:31  5-MIN KMKG 212110Z 23009KT 5SM -RA BR SCT038 22/20 A2988 670 87 1700 230/09 RMK AO2 P0000
14840KMKG MKG20060621161510806/21/06 16:15:31  5-MIN KMKG 212115Z 22008KT 5SM -RA BR SCT036 22/21 A2987 680 90 1700 230/08 RMK AO2 P0000
14840KMKG MKG20060621162011506/21/06 16:20:31  5-MIN KMKG 212120Z 21008KT 5SM -RA BR FEW036 23/21 A2985 700 87 1800 220/08 RMK AO2 PRESFR P0000
14840KMKG MKG20060621162511506/21/06 16:25:31  5-MIN KMKG 212125Z 21006KT 5SM -RA BR FEW010 23/21 A2984 710 87 1800 210/06 RMK AO2 PRESFR P0000
14840KMKG MKG20060621163010806/21/06 16:30:31  5-MIN KMKG 212130Z 20006KT 5SM -RA BR FEW010 23/21 A2983 710 87 1800 200/06 RMK AO2 P0000
14840KMKG MKG20060621163511506/21/06 16:35:31  5-MIN KMKG 212135Z 20006KT 5SM -RA BR FEW033 23/21 A2982 730 87 1800 200/06 RMK AO2 PRESFR P0000
14840KMKG MKG20060621164011506/21/06 16:40:31  5-MIN KMKG 212140Z 19006KT 5SM -RA BR FEW033 22/21 A2981 740 90 1800 190/06 RMK AO2 PRESFR P0000
14840KMKG MKG20060621164510506/21/06 16:45:31  5-MIN KMKG 212145Z 21008KT 5SM -RA BR CLR 23/21 A2981 730 90 1800 210/08 RMK AO2 P0000
14840KMKG MKG20060621165012406/21/06 16:50:31  5-MIN KMKG 212150Z 23009KT 5SM BR CLR 23/21 A2983 720 87 1800 230/09 RMK AO2 RAE49 SLP098 P0000 T02280206
14840KMKG MKG20060621165512706/21/06 16:55:31  5-MIN KMKG 212155Z 23010KT 5SM BR FEW035 23/21 A2983 710 87 1900 240/10 RMK AO2 RAE49 SLP099 P0000 T02330211
14840KMKG MKG20060621170010106/21/06 17:00:31  5-MIN KMKG 212200Z 23013G18KT 5SM HZ CLR 23/21 A2983 710 84 1900 230/13G18 RMK AO2
14840KMKG MKG20060621170510106/21/06 17:05:31  5-MIN KMKG 212205Z 23015G19KT 6SM BR CLR 23/21 A2984 710 87 1800 230/15G19 RMK AO2
14840KMKG MKG20060621171009806/21/06 17:10:31  5-MIN KMKG 212210Z 23012KT 5SM BR FEW120 23/21 A2984 710 87 1800 230/12 RMK AO2
14840KMKG MKG20060621171509806/21/06 17:15:31  5-MIN KMKG 212215Z 23011KT 5SM HZ FEW120 23/20 A2983 720 84 1800 230/11 RMK AO2
14840KMKG MKG20060621172009806/21/06 17:20:31  5-MIN KMKG 212220Z 24010KT 6SM HZ SCT110 23/20 A2983 720 84 1800 250/10 RMK AO2
14840KMKG MKG20060621172510506/21/06 17:25:31  5-MIN KMKG 212225Z 23009KT 6SM HZ FEW090 SCT110 23/20 A2983 720 84 1800 240/09 RMK AO2
14840KMKG MKG20060621173010206/21/06 17:30:31  5-MIN KMKG 212230Z 23012KT 7SM FEW090 BKN100 23/20 A2982 720 81 1900 240/12 RMK AO2
14840KMKG MKG20060621173510206/21/06 17:35:31  5-MIN KMKG 212235Z 23010KT 7SM BKN095 BKN110 23/20 A2982 720 81 1900 240/10 RMK AO2
14840KMKG MKG20060621174010206/21/06 17:40:31  5-MIN KMKG 212240Z 23011KT 8SM SCT090 BKN110 24/21 A2982 720 81 2000 240/11 RMK AO2
14840KMKG MKG20060621174510206/21/06 17:45:31  5-MIN KMKG 212245Z 25010KT 8SM SCT090 SCT100 24/20 A2982 720 76 2000 250/10 RMK AO2
14840KMKG MKG20060621175011906/21/06 17:50:31  5-MIN KMKG 212250Z 24012KT 9SM SCT080 SCT095 24/20 A2983 720 76 2000 250/12 RMK AO2 SLP097 T02440200
14840KMKG MKG20060621175512006/21/06 17:55:31  5-MIN KMKG 212255Z 25010KT 10SM SCT080 SCT095 24/20 A2983 720 76 2000 250/10 RMK AO2 SLP097 T02440200
14840KMKG MKG20060621180009606/21/06 18:00:31  5-MIN KMKG 212300Z 26010KT 10SM SCT075 24/20 A2983 710 76 2000 260/10 RMK AO2
14840KMKG MKG20060621180509606/21/06 18:05:31  5-MIN KMKG 212305Z 27008KT 10SM FEW075 24/20 A2983 710 76 2000 270/08 RMK AO2
14840KMKG MKG20060621181009606/21/06 18:10:31  5-MIN KMKG 212310Z 26008KT 10SM FEW075 24/20 A2984 710 76 2000 260/08 RMK AO2
14840KMKG MKG20060621181509606/21/06 18:15:31  5-MIN KMKG 212315Z 26007KT 10SM FEW075 24/20 A2984 710 76 2000 270/07 RMK AO2
14840KMKG MKG20060621182009606/21/06 18:20:31  5-MIN KMKG 212320Z 26007KT 10SM FEW075 24/20 A2984 700 76 2000 260/07 RMK AO2
14840KMKG MKG20060621182509306/21/06 18:25:31  5-MIN KMKG 212325Z 26009KT 10SM CLR 24/20 A2985 700 78 1900 270/09 RMK AO2
14840KMKG MKG20060621183009306/21/06 18:30:31  5-MIN KMKG 212330Z 26009KT 10SM CLR 24/20 A2985 700 78 1900 270/09 RMK AO2
14840KMKG MKG20060621183509206/21/06 18:35:31  5-MIN KMKG 212335Z 26008KT 9SM CLR 23/19 A2985 700 78 1900 270/08 RMK AO2
14840KMKG MKG20060621184009206/21/06 18:40:31  5-MIN KMKG 212340Z 24006KT 8SM CLR 23/20 A2984 700 81 1900 240/06 RMK AO2
14840KMKG MKG20060621184509206/21/06 18:45:31  5-MIN KMKG 212345Z 24005KT 8SM CLR 23/20 A2984 700 81 1900 250/05 RMK AO2
14840KMKG MKG20060621185013306/21/06 18:50:31  5-MIN KMKG 212350Z 24006KT 8SM CLR 23/20 A2984 700 81 1900 240/06 RMK AO2 SLP102 60003 T02330200 10244 20217 58002
14840KMKG MKG20060621185513306/21/06 18:55:31  5-MIN KMKG 212355Z 22005KT 8SM CLR 23/20 A2984 700 81 1900 230/05 RMK AO2 SLP102 60003 T02330200 10244 20217 55012
14840KMKG MKG20060621190009206/21/06 19:00:31  5-MIN KMKG 220000Z 22006KT 8SM CLR 23/20 A2984 700 81 1900 230/06 RMK AO2
14840KMKG MKG20060621190509206/21/06 19:05:31  5-MIN KMKG 220005Z 23006KT 8SM CLR 23/20 A2984 700 84 1800 230/06 RMK AO2
14840KMKG MKG20060621191009206/21/06 19:10:31  5-MIN KMKG 220010Z 24006KT 7SM CLR 23/20 A2984 710 84 1800 240/06 RMK AO2
14840KMKG MKG20060621191509206/21/06 19:15:31  5-MIN KMKG 220015Z 23004KT 7SM CLR 23/20 A2984 710 84 1800 240/04 RMK AO2
14840KMKG MKG20060621192009206/21/06 19:20:31  5-MIN KMKG 220020Z 26005KT 8SM CLR 23/19 A2984 710 81 1800 260/05 RMK AO2
14840KMKG MKG20060621192509206/21/06 19:25:31  5-MIN KMKG 220025Z 26003KT 8SM CLR 23/19 A2984 710 81 1800 260/03 RMK AO2
14840KMKG MKG20060621193009206/21/06 19:30:31  5-MIN KMKG 220030Z 25003KT 8SM CLR 23/19 A2984 710 81 1800 260/03 RMK AO2
14840KMKG MKG20060621193509206/21/06 19:35:31  5-MIN KMKG 220035Z 25003KT 8SM CLR 23/19 A2983 710 81 1800 250/03 RMK AO2
14840KMKG MKG20060621194009206/21/06 19:40:31  5-MIN KMKG 220040Z 23004KT 8SM CLR 22/19 A2983 710 84 1800 240/04 RMK AO2
14840KMKG MKG20060621194509206/21/06 19:45:31  5-MIN KMKG 220045Z 23005KT 8SM CLR 22/19 A2983 710 84 1800 230/05 RMK AO2
14840KMKG MKG20060621195010906/21/06 19:50:31  5-MIN KMKG 220050Z 23004KT 7SM CLR 22/19 A2983 710 87 1700 240/04 RMK AO2 SLP099 T02170194
14840KMKG MKG20060621195511206/21/06 19:55:31  5-MIN KMKG 220055Z 23004KT 6SM BR CLR 22/19 A2983 710 87 1700 230/04 RMK AO2 SLP099 T02170194
14840KMKG MKG20060621200009506/21/06 20:00:31  5-MIN KMKG 220100Z 22005KT 6SM BR CLR 22/19 A2983 710 87 1700 230/05 RMK AO2
14840KMKG MKG20060621200509506/21/06 20:05:31  5-MIN KMKG 220105Z 23004KT 6SM BR CLR 21/19 A2983 710 90 1600 240/04 RMK AO2
14840KMKG MKG20060621201009506/21/06 20:10:31  5-MIN KMKG 220110Z 24004KT 6SM BR CLR 21/19 A2983 710 90 1600 240/04 RMK AO2
14840KMKG MKG20060621201509506/21/06 20:15:31  5-MIN KMKG 220115Z 23004KT 5SM BR CLR 21/19 A2983 710 90 1600 230/04 RMK AO2
14840KMKG MKG20060621202009506/21/06 20:20:31  5-MIN KMKG 220120Z 22004KT 5SM BR CLR 21/19 A2984 710 93 1600 220/04 RMK AO2
14840KMKG MKG20060621202509506/21/06 20:25:31  5-MIN KMKG 220125Z 22004KT 5SM BR CLR 21/19 A2984 710 93 1600 220/04 RMK AO2
14840KMKG MKG20060621203009506/21/06 20:30:31  5-MIN KMKG 220130Z 22004KT 5SM BR CLR 21/19 A2984 710 93 1600 220/04 RMK AO2
14840KMKG MKG20060621203509506/21/06 20:35:31  5-MIN KMKG 220135Z 22005KT 5SM BR CLR 21/19 A2984 710 90 1600 220/05 RMK AO2
14840KMKG MKG20060621204009506/21/06 20:40:31  5-MIN KMKG 220140Z 23006KT 5SM BR CLR 21/19 A2984 710 90 1600 230/06 RMK AO2
14840KMKG MKG20060621204509506/21/06 20:45:31  5-MIN KMKG 220145Z 23006KT 5SM BR CLR 21/19 A2984 710 90 1600 230/06 RMK AO2
14840KMKG MKG20060621205011206/21/06 20:50:31  5-MIN KMKG 220150Z 22004KT 4SM BR CLR 20/19 A2984 700 93 1500 220/04 RMK AO2 SLP103 T02000189
14840KMKG MKG20060621205511206/21/06 20:55:31  5-MIN KMKG 220155Z 21004KT 4SM BR CLR 20/19 A2984 700 93 1500 210/04 RMK AO2 SLP103 T02000189
14840KMKG MKG20060621210009506/21/06 21:00:31  5-MIN KMKG 220200Z 21004KT 5SM BR CLR 20/19 A2985 700 93 1500 220/04 RMK AO2
14840KMKG MKG20060621210509506/21/06 21:05:31  5-MIN KMKG 220205Z 22004KT 5SM BR CLR 20/19 A2985 700 93 1500 220/04 RMK AO2
14840KMKG MKG20060621211009506/21/06 21:10:31  5-MIN KMKG 220210Z 22004KT 5SM BR CLR 20/19 A2985 690 93 1500 220/04 RMK AO2
14840KMKG MKG20060621211509506/21/06 21:15:31  5-MIN KMKG 220215Z 21005KT 5SM BR CLR 20/19 A2985 690 93 1500 220/05 RMK AO2
14840KMKG MKG20060621212009506/21/06 21:20:31  5-MIN KMKG 220220Z 21005KT 5SM BR CLR 19/19 A2986 690 97 1400 220/05 RMK AO2
14840KMKG MKG20060621212509506/21/06 21:25:31  5-MIN KMKG 220225Z 21007KT 5SM BR CLR 19/18 A2986 690 93 1400 210/07 RMK AO2
14840KMKG MKG20060621213009506/21/06 21:30:31  5-MIN KMKG 220230Z 21007KT 5SM BR CLR 20/18 A2986 680 90 1500 220/07 RMK AO2
14840KMKG MKG20060621213509506/21/06 21:35:31  5-MIN KMKG 220235Z 21007KT 5SM BR CLR 20/18 A2987 680 90 1500 210/07 RMK AO2
14840KMKG MKG20060621214009506/21/06 21:40:31  5-MIN KMKG 220240Z 21008KT 5SM BR CLR 20/18 A2987 680 90 1500 220/08 RMK AO2
14840KMKG MKG20060621214509506/21/06 21:45:31  5-MIN KMKG 220245Z 21007KT 5SM BR CLR 19/18 A2987 680 93 1400 220/07 RMK AO2
14840KMKG MKG20060621215011806/21/06 21:50:31  5-MIN KMKG 220250Z 21006KT 5SM BR CLR 19/18 A2987 680 93 1400 220/06 RMK AO2 SLP112 T01940183 55012
14840KMKG MKG20060621215511806/21/06 21:55:31  5-MIN KMKG 220255Z 23005KT 5SM BR CLR 19/18 A2987 680 93 1400 230/05 RMK AO2 SLP112 T01940183 53009
14840KMKG MKG20060621220009506/21/06 22:00:31  5-MIN KMKG 220300Z 22004KT 4SM BR CLR 19/18 A2987 680 93 1400 220/04 RMK AO2
14840KMKG MKG20060621220509506/21/06 22:05:31  5-MIN KMKG 220305Z 21005KT 4SM BR CLR 19/18 A2987 670 93 1400 210/05 RMK AO2
14840KMKG MKG20060621221009506/21/06 22:10:31  5-MIN KMKG 220310Z 21005KT 4SM BR CLR 19/18 A2987 670 93 1400 210/05 RMK AO2
14840KMKG MKG20060621221509506/21/06 22:15:31  5-MIN KMKG 220315Z 21005KT 4SM BR CLR 19/18 A2987 670 93 1400 220/05 RMK AO2
14840KMKG MKG20060621222009506/21/06 22:20:31  5-MIN KMKG 220320Z 21005KT 4SM BR CLR 19/18 A2987 670 93 1400 210/05 RMK AO2
14840KMKG MKG20060621222511206/21/06 22:25:31  5-MIN KMKG 220325Z 21005KT 4SM BR CLR 19/18 A2987 670 93 1400 220/05 RMK AO2 VIS 2 1/2 RWY 14
14840KMKG MKG20060621223011206/21/06 22:30:31  5-MIN KMKG 220330Z 20005KT 4SM BR CLR 19/18 A2987 670 93 1400 200/05 RMK AO2 VIS 2 1/2 RWY 14
14840KMKG MKG20060621223511206/21/06 22:35:31  5-MIN KMKG 220335Z 20004KT 4SM BR CLR 19/18 A2987 670 97 1300 210/04 RMK AO2 VIS 2 1/2 RWY 14
14840KMKG MKG20060621224011206/21/06 22:40:31  5-MIN KMKG 220340Z 22004KT 4SM BR CLR 19/18 A2988 670 93 1400 230/04 RMK AO2 VIS 2 1/2 RWY 14
14840KMKG MKG20060621224511206/21/06 22:45:31  5-MIN KMKG 220345Z 22004KT 4SM BR CLR 19/18 A2988 670 97 1300 230/04 RMK AO2 VIS 2 1/2 RWY 14
14840KMKG MKG20060621225011206/21/06 22:50:31  5-MIN KMKG 220350Z 23005KT 4SM BR CLR 19/18 A2988 670 97 1300 230/05 RMK AO2 SLP115 T01890183
14840KMKG MKG20060621225511206/21/06 22:55:31  5-MIN KMKG 220355Z 23006KT 4SM BR CLR 19/18 A2988 670 97 1300 240/06 RMK AO2 SLP115 T01890183
14840KMKG MKG20060621230009506/21/06 23:00:31  5-MIN KMKG 220400Z 23006KT 4SM BR CLR 19/18 A2988 670 97 1300 230/06 RMK AO2
14840KMKG MKG20060621230509506/21/06 23:05:31  5-MIN KMKG 220405Z 23006KT 4SM BR CLR 19/18 A2988 670 97 1300 230/06 RMK AO2
14840KMKG MKG20060621231009506/21/06 23:10:31  5-MIN KMKG 220410Z 23005KT 4SM BR CLR 19/18 A2988 660 97 1300 230/05 RMK AO2
14840KMKG MKG20060621231509506/21/06 23:15:31  5-MIN KMKG 220415Z 22004KT 4SM BR CLR 19/18 A2988 660 97 1300 230/04 RMK AO2
14840KMKG MKG20060621232009506/21/06 23:20:31  5-MIN KMKG 220420Z 21004KT 4SM BR CLR 19/18 A2989 660 97 1300 220/04 RMK AO2
14840KMKG MKG20060621232509506/21/06 23:25:31  5-MIN KMKG 220425Z 00000KT 5SM BR CLR 19/18 A2989 660 97 1300 000/00 RMK AO2
14840KMKG MKG20060621233009506/21/06 23:30:31  5-MIN KMKG 220430Z VRB03KT 5SM BR CLR 19/18 A2989 660 97 1300 VRB/03 RMK AO2
14840KMKG MKG20060621233509506/21/06 23:35:31  5-MIN KMKG 220435Z 24006KT 5SM BR CLR 19/18 A2989 660 90 1400 240/06 RMK AO2
14840KMKG MKG20060621234009206/21/06 23:40:31  5-MIN KMKG 220440Z 25006KT 7SM CLR 20/18 A2989 660 90 1400 250/06 RMK AO2
14840KMKG MKG20060621234509206/21/06 23:45:31  5-MIN KMKG 220445Z 24005KT 8SM CLR 20/18 A2989 660 90 1400 250/05 RMK AO2
14840KMKG MKG20060621235011906/21/06 23:50:31  5-MIN KMKG 220450Z 25006KT 8SM CLR 20/18 A2989 660 90 1400 260/06 RMK AO2 SLP117 T02000183 402610178
14840KMKG MKG20060621235511906/21/06 23:55:31  5-MIN KMKG 220455Z 25007KT 9SM CLR 20/18 A2989 660 90 1400 250/07 RMK AO2 SLP118 T02000183 402610178
14840KMKG MKG20060622000009206/22/06 00:00:32  5-MIN KMKG 220500Z 25006KT 9SM CLR 20/18 A2989 660 90 1400 250/06 RMK AO2
14840KMKG MKG20060622000509206/22/06 00:05:31  5-MIN KMKG 220505Z 24005KT 9SM CLR 20/18 A2989 650 90 1400 250/05 RMK AO2
14840KMKG MKG20060622001009206/22/06 00:10:31  5-MIN KMKG 220510Z 23005KT 9SM CLR 20/18 A2990 650 90 1400 240/05 RMK AO2
14840KMKG MKG20060622001509206/22/06 00:15:31  5-MIN KMKG 220515Z 23007KT 8SM CLR 19/18 A2990 650 93 1400 230/07 RMK AO2
14840KMKG MKG20060622002009206/22/06 00:20:31  5-MIN KMKG 220520Z 23007KT 7SM CLR 19/18 A2990 650 90 1400 240/07 RMK AO2
14840KMKG MKG20060622002509206/22/06 00:25:31  5-MIN KMKG 220525Z 23006KT 7SM CLR 19/18 A2990 650 93 1300 240/06 RMK AO2
14840KMKG MKG20060622003009206/22/06 00:30:31  5-MIN KMKG 220530Z 24007KT 7SM CLR 19/18 A2990 650 90 1400 240/07 RMK AO2
14840KMKG MKG20060622003509206/22/06 00:35:31  5-MIN KMKG 220535Z 23007KT 7SM CLR 19/18 A2990 650 90 1400 240/07 RMK AO2
14840KMKG MKG20060622004009206/22/06 00:40:31  5-MIN KMKG 220540Z 23005KT 7SM CLR 19/18 A2990 650 93 1400 240/05 RMK AO2
14840KMKG MKG20060622004509206/22/06 00:45:31  5-MIN KMKG 220545Z 23006KT 7SM CLR 19/18 A2990 650 93 1400 230/06 RMK AO2
14840KMKG MKG20060622005012706/22/06 00:50:31  5-MIN KMKG 220550Z 24006KT 7SM CLR 19/18 A2990 650 93 1400 240/06 RMK AO2 SLP123 T01940183 10233 20189 53009
14840KMKG MKG20060622005512706/22/06 00:55:31  5-MIN KMKG 220555Z 25006KT 7SM CLR 20/18 A2990 650 90 1400 250/06 RMK AO2 SLP123 T02000183 10233 20189 53011
14840KMKG MKG20060622010009206/22/06 01:00:31  5-MIN KMKG 220600Z 25010KT 8SM CLR 21/19 A2990 650 90 1500 260/10 RMK AO2
14840KMKG MKG20060622010509206/22/06 01:05:31  5-MIN KMKG 220605Z 26006KT 8SM CLR 21/19 A2990 650 90 1500 260/06 RMK AO2
14840KMKG MKG20060622011009206/22/06 01:10:31  5-MIN KMKG 220610Z 26008KT 8SM CLR 21/19 A2990 650 90 1500 260/08 RMK AO2
14840KMKG MKG20060622011509206/22/06 01:15:31  5-MIN KMKG 220615Z 25006KT 8SM CLR 21/19 A2990 650 90 1500 260/06 RMK AO2
14840KMKG MKG20060622012009206/22/06 01:20:31  5-MIN KMKG 220620Z 26007KT 8SM CLR 21/19 A2991 640 90 1500 270/07 RMK AO2
14840KMKG MKG20060622012509206/22/06 01:25:31  5-MIN KMKG 220625Z 27008KT 8SM CLR 21/19 A2991 640 90 1500 270/08 RMK AO2
14840KMKG MKG20060622013009206/22/06 01:30:31  5-MIN KMKG 220630Z 27007KT 8SM CLR 21/19 A2991 640 90 1500 270/07 RMK AO2
14840KMKG MKG20060622013509206/22/06 01:35:31  5-MIN KMKG 220635Z 27008KT 8SM CLR 21/19 A2991 640 90 1500 280/08 RMK AO2
14840KMKG MKG20060622014009206/22/06 01:40:31  5-MIN KMKG 220640Z 27008KT 8SM CLR 21/19 A2991 640 90 1500 280/08 RMK AO2
14840KMKG MKG20060622014509206/22/06 01:45:31  5-MIN KMKG 220645Z 28008KT 9SM CLR 21/19 A2991 640 90 1500 290/08 RMK AO2
14840KMKG MKG20060622015010906/22/06 01:50:31  5-MIN KMKG 220650Z 28008KT 9SM CLR 21/19 A2991 640 90 1500 280/08 RMK AO2 SLP126 T02060189
14840KMKG MKG20060622015510906/22/06 01:55:31  5-MIN KMKG 220655Z 28009KT 9SM CLR 21/18 A2991 640 87 1500 280/09 RMK AO2 SLP126 T02060183
14840KMKG MKG20060622020009206/22/06 02:00:31  5-MIN KMKG 220700Z 28008KT 9SM CLR 20/18 A2991 640 90 1400 290/08 RMK AO2
14840KMKG MKG20060622020509206/22/06 02:05:31  5-MIN KMKG 220705Z 28007KT 8SM CLR 20/18 A2991 640 90 1400 290/07 RMK AO2
14840KMKG MKG20060622021009206/22/06 02:10:31  5-MIN KMKG 220710Z 29010KT 8SM CLR 20/18 A2991 640 90 1400 290/10 RMK AO2
14840KMKG MKG20060622021509206/22/06 02:15:31  5-MIN KMKG 220715Z 28009KT 8SM CLR 20/18 A2991 640 90 1400 280/09 RMK AO2
14840KMKG MKG20060622022009206/22/06 02:20:31  5-MIN KMKG 220720Z 29011KT 8SM CLR 19/18 A2992 630 93 1300 300/11 RMK AO2
14840KMKG MKG20060622022509206/22/06 02:25:31  5-MIN KMKG 220725Z 31008KT 7SM CLR 19/18 A2992 630 90 1300 310/08 RMK AO2
14840KMKG MKG20060622023009206/22/06 02:30:31  5-MIN KMKG 220730Z 30007KT 7SM CLR 19/18 A2992 630 90 1300 300/07 RMK AO2
14840KMKG MKG20060622023509206/22/06 02:35:31  5-MIN KMKG 220735Z 30005KT 7SM CLR 19/18 A2992 630 93 1300 310/05 RMK AO2
14840KMKG MKG20060622024009206/22/06 02:40:31  5-MIN KMKG 220740Z 30006KT 7SM CLR 19/18 A2993 620 90 1300 300/06 RMK AO2
14840KMKG MKG20060622024509206/22/06 02:45:31  5-MIN KMKG 220745Z 30007KT 8SM CLR 19/18 A2993 620 90 1300 300/07 RMK AO2
14840KMKG MKG20060622025010906/22/06 02:50:31  5-MIN KMKG 220750Z 30007KT 8SM CLR 19/18 A2993 620 90 1300 310/07 RMK AO2 SLP132 T01940178
14840KMKG MKG20060622025510906/22/06 02:55:31  5-MIN KMKG 220755Z 30008KT 9SM CLR 19/18 A2993 620 90 1300 310/08 RMK AO2 SLP133 T01940178
14840KMKG MKG20060622030009206/22/06 03:00:31  5-MIN KMKG 220800Z 30007KT 8SM CLR 19/18 A2994 620 90 1300 300/07 RMK AO2
14840KMKG MKG20060622030509206/22/06 03:05:31  5-MIN KMKG 220805Z 30007KT 8SM CLR 19/18 A2994 610 90 1300 310/07 RMK AO2
14840KMKG MKG20060622031009206/22/06 03:10:31  5-MIN KMKG 220810Z 30007KT 8SM CLR 19/18 A2994 610 90 1300 310/07 RMK AO2
14840KMKG MKG20060622031509206/22/06 03:15:31  5-MIN KMKG 220815Z 30007KT 8SM CLR 19/18 A2994 610 90 1300 300/07 RMK AO2
14840KMKG MKG20060622032009206/22/06 03:20:31  5-MIN KMKG 220820Z 30007KT 8SM CLR 19/18 A2994 610 90 1300 300/07 RMK AO2
14840KMKG MKG20060622032509206/22/06 03:25:31  5-MIN KMKG 220825Z 29006KT 8SM CLR 19/18 A2994 610 90 1300 300/06 RMK AO2
14840KMKG MKG20060622033009206/22/06 03:30:31  5-MIN KMKG 220830Z 29005KT 8SM CLR 19/18 A2994 610 93 1200 300/05 RMK AO2
14840KMKG MKG20060622033509206/22/06 03:35:31  5-MIN KMKG 220835Z 28004KT 7SM CLR 19/18 A2994 610 93 1200 290/04 RMK AO2
14840KMKG MKG20060622034009206/22/06 03:40:31  5-MIN KMKG 220840Z 28004KT 7SM CLR 18/17 A2994 610 93 1200 280/04 RMK AO2
14840KMKG MKG20060622034509206/22/06 03:45:31  5-MIN KMKG 220845Z 29004KT 7SM CLR 18/17 A2995 610 93 1200 290/04 RMK AO2
14840KMKG MKG20060622035011506/22/06 03:50:31  5-MIN KMKG 220850Z 29004KT 7SM CLR 18/17 A2995 600 93 1200 290/04 RMK AO2 SLP140 T01830172 53011
14840KMKG MKG20060622035511506/22/06 03:55:31  5-MIN KMKG 220855Z 29005KT 7SM CLR 18/17 A2995 600 93 1200 300/05 RMK AO2 SLP140 T01830172 53016
14840KMKG MKG20060622040009206/22/06 04:00:31  5-MIN KMKG 220900Z 29006KT 7SM CLR 18/17 A2995 600 93 1200 300/06 RMK AO2
14840KMKG MKG20060622040509206/22/06 04:05:31  5-MIN KMKG 220905Z 29007KT 7SM CLR 18/17 A2996 600 93 1200 300/07 RMK AO2
14840KMKG MKG20060622041009206/22/06 04:10:31  5-MIN KMKG 220910Z 30005KT 8SM CLR 18/17 A2995 600 93 1200 300/05 RMK AO2
14840KMKG MKG20060622041509206/22/06 04:15:31  5-MIN KMKG 220915Z 29005KT 8SM CLR 18/17 A2996 600 93 1200 290/05 RMK AO2
14840KMKG MKG20060622042009206/22/06 04:20:31  5-MIN KMKG 220920Z 29005KT 8SM CLR 18/17 A2996 590 90 1200 290/05 RMK AO2
14840KMKG MKG20060622042509206/22/06 04:25:31  5-MIN KMKG 220925Z 30005KT 8SM CLR 18/17 A2996 590 90 1200 300/05 RMK AO2
14840KMKG MKG20060622043009206/22/06 04:30:31  5-MIN KMKG 220930Z 30005KT 9SM CLR 18/17 A2996 590 90 1200 300/05 RMK AO2
14840KMKG MKG20060622043509206/22/06 04:35:31  5-MIN KMKG 220935Z 29004KT 9SM CLR 18/17 A2996 590 90 1200 300/04 RMK AO2
14840KMKG MKG20060622044009206/22/06 04:40:31  5-MIN KMKG 220940Z VRB03KT 9SM CLR 18/17 A2996 600 90 1200 VRB/03 RMK AO2
14840KMKG MKG20060622044509306/22/06 04:45:31  5-MIN KMKG 220945Z VRB03KT 10SM CLR 18/17 A2996 590 90 1200 VRB/03 RMK AO2
14840KMKG MKG20060622045011006/22/06 04:50:31  5-MIN KMKG 220950Z 29003KT 10SM CLR 18/17 A2997 590 90 1200 290/03 RMK AO2 SLP145 T01830167
14840KMKG MKG20060622045510906/22/06 04:55:31  5-MIN KMKG 220955Z 29003KT 9SM CLR 18/17 A2997 590 90 1200 300/03 RMK AO2 SLP145 T01830167
14840KMKG MKG20060622050009206/22/06 05:00:31  5-MIN KMKG 221000Z 30003KT 9SM CLR 18/17 A2997 590 93 1100 300/03 RMK AO2
14840KMKG MKG20060622050509206/22/06 05:05:31  5-MIN KMKG 221005Z 00000KT 9SM CLR 18/17 A2997 590 90 1200 000/00 RMK AO2
14840KMKG MKG20060622051009206/22/06 05:10:31  5-MIN KMKG 221010Z 00000KT 9SM CLR 18/17 A2996 590 90 1200 000/00 RMK AO2
14840KMKG MKG20060622051509206/22/06 05:15:31  5-MIN KMKG 221015Z 00000KT 9SM CLR 18/17 A2996 590 90 1200 000/00 RMK AO2
14840KMKG MKG20060622052009206/22/06 05:20:31  5-MIN KMKG 221020Z 00000KT 9SM CLR 18/17 A2996 590 90 1200 000/00 RMK AO2
14840KMKG MKG20060622052509206/22/06 05:25:31  5-MIN KMKG 221025Z 00000KT 9SM CLR 18/17 A2997 590 93 1100 000/00 RMK AO2
14840KMKG MKG20060622053009206/22/06 05:30:31  5-MIN KMKG 221030Z 00000KT 8SM CLR 18/17 A2997 590 93 1100 000/00 RMK AO2
14840KMKG MKG20060622053509206/22/06 05:35:31  5-MIN KMKG 221035Z 00000KT 8SM CLR 17/17 A2997 580 96 1000 000/00 RMK AO2
14840KMKG MKG20060622054009206/22/06 05:40:31  5-MIN KMKG 221040Z 00000KT 8SM CLR 18/17 A2997 580 93 1100 000/00 RMK AO2
14840KMKG MKG20060622054509206/22/06 05:45:31  5-MIN KMKG 221045Z 28003KT 8SM CLR 18/17 A2997 580 93 1100 280/03 RMK AO2
14840KMKG MKG20060622055010906/22/06 05:50:31  5-MIN KMKG 221050Z 00000KT 8SM CLR 18/17 A2997 580 93 1100 000/00 RMK AO2 SLP146 T01780167
14840KMKG MKG20060622055510906/22/06 05:55:31  5-MIN KMKG 221055Z 28003KT 8SM CLR 18/17 A2997 580 93 1100 290/03 RMK AO2 SLP147 T01780167
14840KMKG MKG20060622060009206/22/06 06:00:31  5-MIN KMKG 221100Z 30003KT 9SM CLR 18/17 A2997 580 90 1100 300/03 RMK AO2
14840KMKG MKG20060622060509306/22/06 06:05:31  5-MIN KMKG 221105Z 29003KT 10SM CLR 18/17 A2997 580 90 1100 300/03 RMK AO2
14840KMKG MKG20060622061009306/22/06 06:10:31  5-MIN KMKG 221110Z 29003KT 10SM CLR 19/17 A2997 580 87 1200 290/03 RMK AO2
14840KMKG MKG20060622061509306/22/06 06:15:31  5-MIN KMKG 221115Z 29004KT 10SM CLR 19/17 A2998 580 87 1200 290/04 RMK AO2
14840KMKG MKG20060622062009306/22/06 06:20:31  5-MIN KMKG 221120Z 29004KT 10SM CLR 19/17 A2998 580 87 1300 290/04 RMK AO2
14840KMKG MKG20060622062509306/22/06 06:25:31  5-MIN KMKG 221125Z 27004KT 10SM CLR 19/17 A2998 580 87 1300 270/04 RMK AO2
14840KMKG MKG20060622063009306/22/06 06:30:31  5-MIN KMKG 221130Z 27004KT 10SM CLR 19/17 A2998 580 87 1300 280/04 RMK AO2
14840KMKG MKG20060622063509306/22/06 06:35:31  5-MIN KMKG 221135Z 28005KT 10SM CLR 20/17 A2998 570 84 1300 290/05 RMK AO2
14840KMKG MKG20060622064009306/22/06 06:40:31  5-MIN KMKG 221140Z 28005KT 10SM CLR 20/17 A2999 570 84 1300 280/05 RMK AO2
14840KMKG MKG20060622064509306/22/06 06:45:31  5-MIN KMKG 221145Z 28006KT 10SM CLR 20/17 A3000 560 84 1300 290/06 RMK AO2
14840KMKG MKG20060622065013406/22/06 06:50:31  5-MIN KMKG 221150Z 29006KT 10SM CLR 20/17 A3000 560 81 1300 300/06 RMK AO2 SLP155 70023 T02000167 10206 20172 53016
14840KMKG MKG20060622065513406/22/06 06:55:31  5-MIN KMKG 221155Z 30005KT 10SM CLR 20/17 A3000 560 81 1300 300/05 RMK AO2 SLP155 70023 T02000167 10206 20172 53015
14840KMKG MKG20060622070009306/22/06 07:00:31  5-MIN KMKG 221200Z 30006KT 10SM CLR 20/17 A3000 560 81 1300 300/06 RMK AO2
14840KMKG MKG20060622070509906/22/06 07:05:31  5-MIN KMKG 221205Z 30005KT 10SM CLR 20/17 A2999 560 81 1300 300/05 RMK AO2 PNO $
14840KMKG MKG20060622071009506/22/06 07:10:31  5-MIN KMKG 221210Z 30005KT 10SM CLR 20/17 A3000 560 81 1300 300/05 RMK AO2 $
14840KMKG MKG20060622071509506/22/06 07:15:31  5-MIN KMKG 221215Z 30007KT 10SM CLR 20/16 A3000 560 78 1300 300/07 RMK AO2 $
14840KMKG MKG20060622072009506/22/06 07:20:31  5-MIN KMKG 221220Z 31006KT 10SM CLR 20/16 A2999 560 78 1300 320/06 RMK AO2 $
14840KMKG MKG20060622072508906/22/06 07:25:31  5-MIN KMKG 221225Z 10SM CLR 20/16 A2999 560 78 1300 M /M RMK AO2 PNO $
14840KMKG MKG20060622073009506/22/06 07:30:31  5-MIN KMKG 221230Z 30005KT 10SM CLR 20/16 A3000 560 78 1300 300/05 RMK AO2 $
14840KMKG MKG20060622073509506/22/06 07:35:31  5-MIN KMKG 221235Z 30007KT 10SM CLR 21/16 A2999 560 75 1400 300/07 RMK AO2 $
14840KMKG MKG20060622074009506/22/06 07:40:31  5-MIN KMKG 221240Z 29005KT 10SM CLR 21/16 A3000 560 75 1400 300/05 RMK AO2 $
14840KMKG MKG20060622074509506/22/06 07:45:31  5-MIN KMKG 221245Z 29006KT 10SM CLR 21/16 A3000 560 75 1400 290/06 RMK AO2 $
14840KMKG MKG20060622075011206/22/06 07:50:31  5-MIN KMKG 221250Z 29005KT 10SM CLR 21/16 A3000 560 75 1400 300/05 RMK AO2 SLP156 T02060161 $
14840KMKG MKG20060622075511206/22/06 07:55:31  5-MIN KMKG 221255Z 30006KT 10SM CLR 21/16 A3000 560 75 1400 300/06 RMK AO2 SLP157 T02060161 $
14840KMKG MKG20060622080009506/22/06 08:00:31  5-MIN KMKG 221300Z 30007KT 10SM CLR 21/16 A3000 550 73 1400 300/07 RMK AO2 $
14840KMKG MKG20060622080509506/22/06 08:05:31  5-MIN KMKG 221305Z 29006KT 10SM CLR 21/16 A3001 550 75 1400 290/06 RMK AO2 $
14840KMKG MKG20060622081009506/22/06 08:10:31  5-MIN KMKG 221310Z 29006KT 10SM CLR 21/16 A3001 550 73 1400 290/06 RMK AO2 $
14840KMKG MKG20060622081509506/22/06 08:15:31  5-MIN KMKG 221315Z 30006KT 10SM CLR 22/16 A3001 550 70 1500 300/06 RMK AO2 $
14840KMKG MKG20060622082009506/22/06 08:20:31  5-MIN KMKG 221320Z 30005KT 10SM CLR 22/16 A3001 550 70 1500 310/05 RMK AO2 $
14840KMKG MKG20060622082509506/22/06 08:25:31  5-MIN KMKG 221325Z 32006KT 10SM CLR 22/16 A3001 550 65 1600 320/06 RMK AO2 $
14840KMKG MKG20060622083009506/22/06 08:30:31  5-MIN KMKG 221330Z 30006KT 10SM CLR 22/16 A3001 550 65 1600 300/06 RMK AO2 $
14840KMKG MKG20060622083509506/22/06 08:35:31  5-MIN KMKG 221335Z 31006KT 10SM CLR 22/16 A3001 550 68 1600 310/06 RMK AO2 $
14840KMKG MKG20060622090509506/22/06 09:05:31  5-MIN KMKG 221405Z 30004KT 10SM CLR 23/15 A3001 550 61 1600 300/04 RMK AO2 $
14840KMKG MKG20060622091009506/22/06 09:10:31  5-MIN KMKG 221410Z 30005KT 10SM CLR 23/15 A3001 540 59 1700 300/05 RMK AO2 $
14840KMKG MKG20060622091509506/22/06 09:15:31  5-MIN KMKG 221415Z 31005KT 10SM CLR 23/15 A3001 540 59 1700 320/05 RMK AO2 $
14840KMKG MKG20060622092009506/22/06 09:20:31  5-MIN KMKG 221420Z 30005KT 10SM CLR 23/15 A3002 540 59 1700 300/05 RMK AO2 $
14840KMKG MKG20060622092509506/22/06 09:25:31  5-MIN KMKG 221425Z 29006KT 10SM CLR 23/15 A3002 540 59 1700 300/06 RMK AO2 $
14840KMKG MKG20060622093009506/22/06 09:30:31  5-MIN KMKG 221430Z 31006KT 10SM CLR 23/15 A3002 540 59 1700 310/06 RMK AO2 $
14840KMKG MKG20060622093509506/22/06 09:35:31  5-MIN KMKG 221435Z 30005KT 10SM CLR 23/15 A3002 530 59 1700 310/05 RMK AO2 $
14840KMKG MKG20060622094009506/22/06 09:40:31  5-MIN KMKG 221440Z 26005KT 10SM CLR 23/16 A3002 530 61 1700 270/05 RMK AO2 $
14840KMKG MKG20060622094509506/22/06 09:45:31  5-MIN KMKG 221445Z 28006KT 10SM CLR 23/16 A3003 530 63 1600 280/06 RMK AO2 $
14840KMKG MKG20060622095011806/22/06 09:50:31  5-MIN KMKG 221450Z 28006KT 10SM CLR 23/15 A3003 530 61 1600 290/06 RMK AO2 SLP167 T02280150 53015 $
14840KMKG MKG20060622095511806/22/06 09:55:31  5-MIN KMKG 221455Z 27007KT 10SM CLR 23/16 A3004 520 63 1600 280/07 RMK AO2 SLP171 T02280156 53015 $
14840KMKG MKG20060622100009506/22/06 10:00:31  5-MIN KMKG 221500Z 26007KT 10SM CLR 22/15 A3005 510 63 1500 270/07 RMK AO2 $
14840KMKG MKG20060622100509506/22/06 10:05:31  5-MIN KMKG 221505Z 28009KT 10SM CLR 22/15 A3005 510 65 1400 280/09 RMK AO2 $
14840KMKG MKG20060622101009506/22/06 10:10:31  5-MIN KMKG 221510Z 28006KT 10SM CLR 22/15 A3005 510 65 1400 280/06 RMK AO2 $
14840KMKG MKG20060622101509506/22/06 10:15:31  5-MIN KMKG 221515Z 27009KT 10SM CLR 22/15 A3006 500 65 1400 270/09 RMK AO2 $
14840KMKG MKG20060622102009506/22/06 10:20:31  5-MIN KMKG 221520Z 27008KT 10SM CLR 21/15 A3006 500 68 1400 280/08 RMK AO2 $
14840KMKG MKG20060622102510206/22/06 10:25:31  5-MIN KMKG 221525Z 27009KT 10SM CLR 21/15 A3007 490 70 1300 280/09 RMK AO2 PRESRR $
14840KMKG MKG20060622103012906/22/06 10:30:31  5-MIN KMKG 221530Z 27009KT 10SM TS FEW090 20/15 A3007 490 72 1200 280/09 RMK AO2 OCNL LTGICCG TSB27 SW MOV E $
14840KMKG MKG20060622103512906/22/06 10:35:31  5-MIN KMKG 221535Z 28009KT 10SM TS FEW075 20/15 A3008 480 72 1200 280/09 RMK AO2 OCNL LTGICCG TSB27 SW MOV E $
14840KMKG MKG20060622104013606/22/06 10:40:31  5-MIN KMKG 221540Z 26007KT 10SM TS FEW070 20/15 A3009 470 72 1200 260/07 RMK AO2 PRESRR OCNL LTGICCG TSB27 SW MOV E $
14840KMKG MKG20060622104513606/22/06 10:45:31  5-MIN KMKG 221545Z 26010KT 10SM TS FEW070 19/15 A3010 460 75 1100 260/10 RMK AO2 PRESRR OCNL LTGICCG TSB27 SW MOV E $
14840KMKG MKG20060622105015306/22/06 10:50:31  5-MIN KMKG 221550Z 26007KT 10SM TS FEW070 19/16 A3011 460 78 1100 260/07 RMK AO2 PRESRR SLP193 OCNL LTGICCG TSB27 SW MOV E T01940156 $
14840KMKG MKG20060622105513106/22/06 10:55:31  5-MIN KMKG 221555Z 27008KT 10SM FEW070 19/16 A3011 450 78 1100 270/08 RMK AO2 TSB28E47 SLP193 PRESRR T01940156 $
14840KMKG MKG20060622110009806/22/06 11:00:31  5-MIN KMKG 221600Z 27006KT 10SM FEW060 19/16 A3011 450 78 1100 270/06 RMK AO2 $
14840KMKG MKG20060622110509506/22/06 11:05:31  5-MIN KMKG 221605Z 26008KT 10SM CLR 19/16 A3012 450 78 1100 260/08 RMK AO2 $
14840KMKG MKG20060622111009506/22/06 11:10:31  5-MIN KMKG 221610Z 23009KT 10SM CLR 19/16 A3012 450 78 1100 230/09 RMK AO2 $
14840KMKG MKG20060622111509506/22/06 11:15:31  5-MIN KMKG 221615Z 25007KT 10SM CLR 19/16 A3012 450 78 1100 260/07 RMK AO2 $
14840KMKG MKG20060622112009506/22/06 11:20:31  5-MIN KMKG 221620Z 23006KT 10SM CLR 19/16 A3011 450 78 1100 230/06 RMK AO2 $
14840KMKG MKG20060622112509506/22/06 11:25:31  5-MIN KMKG 221625Z 28004KT 10SM CLR 19/16 A3011 450 78 1100 280/04 RMK AO2 $
14840KMKG MKG20060622113009506/22/06 11:30:31  5-MIN KMKG 221630Z 30005KT 10SM CLR 19/16 A3011 460 78 1100 300/05 RMK AO2 $
14840KMKG MKG20060622113509506/22/06 11:35:31  5-MIN KMKG 221635Z 30005KT 10SM CLR 19/16 A3011 460 78 1100 310/05 RMK AO2 $
14840KMKG MKG20060622114009506/22/06 11:40:31  5-MIN KMKG 221640Z 24004KT 10SM CLR 20/16 A3011 460 75 1200 240/04 RMK AO2 $
14840KMKG MKG20060622114509506/22/06 11:45:31  5-MIN KMKG 221645Z 22006KT 10SM CLR 20/16 A3011 460 75 1200 220/06 RMK AO2 $
14840KMKG MKG20060622115011206/22/06 11:50:31  5-MIN KMKG 221650Z 22010KT 10SM CLR 20/15 A3012 450 72 1200 220/10 RMK AO2 SLP196 T02000150 $
14840KMKG MKG20060622115511206/22/06 11:55:31  5-MIN KMKG 221655Z 23007KT 10SM CLR 19/16 A3012 450 78 1100 230/07 RMK AO2 SLP196 T01940156 $
14840KMKG MKG20060622120009506/22/06 12:00:31  5-MIN KMKG 221700Z 25007KT 10SM CLR 19/15 A3011 450 75 1100 260/07 RMK AO2 $
14840KMKG MKG20060622120509506/22/06 12:05:31  5-MIN KMKG 221705Z 24008KT 10SM CLR 19/15 A3011 450 75 1100 240/08 RMK AO2 $
14840KMKG MKG20060622121009506/22/06 12:10:31  5-MIN KMKG 221710Z 24005KT 10SM CLR 19/15 A3010 460 75 1100 250/05 RMK AO2 $
14840KMKG MKG20060622121511806/22/06 12:15:31  5-MIN KMKG 221715Z 24004KT 10SM -RA CLR 19/15 A3009 470 75 1100 240/04 RMK AO2 RAB15 PRESFR P0000 $
14840KMKG MKG20060622122012106/22/06 12:20:31  5-MIN KMKG 221720Z 00000KT 10SM -RA FEW023 19/15 A3008 480 75 1200 000/00 RMK AO2 RAB15 PRESFR P0000 $
14840KMKG MKG20060622122511306/22/06 12:25:31  5-MIN KMKG 221725Z 00000KT 8SM -RA SCT018 19/15 A3008 480 75 1200 000/00 RMK AO2 RAB15 P0000 $
14840KMKG MKG20060622123012006/22/06 12:30:31  5-MIN KMKG 221730Z 00000KT 6SM -RA BKN014 19/16 A3007 490 78 1200 000/00 RMK AO2 RAB15 PRESFR P0001 $
14840KMKG MKG20060622123512006/22/06 12:35:31  5-MIN KMKG 221735Z 09005KT 8SM -RA BKN014 19/16 A3005 510 78 1200 090/05 RMK AO2 RAB15 PRESFR P0001 $
14840KMKG MKG20060622124012106/22/06 12:40:31  5-MIN KMKG 221740Z 08006KT 10SM -RA BKN014 19/16 A3004 520 81 1200 080/06 RMK AO2 RAB15 PRESFR P0001 $
14840KMKG MKG20060622124512106/22/06 12:45:31  5-MIN KMKG 221745Z 08005KT 10SM -RA SCT014 20/16 A3002 530 78 1300 090/05 RMK AO2 RAB15 PRESFR P0001 $
14840KMKG MKG20060622125016206/22/06 12:50:31  5-MIN KMKG 221750Z 09006KT 10SM -RA SCT012 20/16 A3002 540 75 1300 090/06 RMK AO2 RAB15 PRESFR SLP162 P0001 60001 T02000156 10233 20194 58009 $
14840KMKG MKG20060622125516206/22/06 12:55:31  5-MIN KMKG 221755Z 07006KT 10SM -RA FEW012 21/16 A3001 550 75 1400 070/06 RMK AO2 RAB15 PRESFR SLP159 P0001 60001 T02060161 10233 20194 58034 $
14840KMKG MKG20060622130011906/22/06 13:00:31  5-MIN KMKG 221800Z 05005KT 10SM FEW012 21/16 A3000 550 73 1400 060/05 RMK AO2 RAE1759 PRESFR P0000 $
14840KMKG MKG20060622130510906/22/06 13:05:31  5-MIN KMKG 221805Z VRB04KT 10SM CLR 21/16 A3001 550 73 1400 VRB/04 RMK AO2 RAE1759 P0000 $
14840KMKG MKG20060622131010906/22/06 13:10:31  5-MIN KMKG 221810Z VRB03KT 10SM CLR 21/16 A3001 550 73 1400 VRB/03 RMK AO2 RAE1759 P0000 $
14840KMKG MKG20060622131510906/22/06 13:15:31  5-MIN KMKG 221815Z 00000KT 10SM CLR 21/16 A3000 550 73 1400 000/00 RMK AO2 RAE1759 P0000 $
14840KMKG MKG20060622132010906/22/06 13:20:31  5-MIN KMKG 221820Z 02008KT 10SM CLR 21/16 A2999 570 73 1500 020/08 RMK AO2 RAE1759 P0000 $
14840KMKG MKG20060622132510906/22/06 13:25:31  5-MIN KMKG 221825Z VRB03KT 10SM CLR 21/16 A3002 540 70 1400 VRB/03 RMK AO2 RAE1759 P0000 $
14840KMKG MKG20060622133010906/22/06 13:30:31  5-MIN KMKG 221830Z 29004KT 10SM CLR 21/16 A3002 540 70 1400 290/04 RMK AO2 RAE1759 P0000 $
14840KMKG MKG20060622133510906/22/06 13:35:31  5-MIN KMKG 221835Z 00000KT 10SM CLR 21/16 A3001 540 73 1400 000/00 RMK AO2 RAE1759 P0000 $
14840KMKG MKG20060622134010906/22/06 13:40:31  5-MIN KMKG 221840Z 23003KT 10SM CLR 21/16 A3002 540 73 1400 230/03 RMK AO2 RAE1759 P0000 $
14840KMKG MKG20060622134510906/22/06 13:45:31  5-MIN KMKG 221845Z 20005KT 10SM CLR 21/16 A3002 540 70 1400 210/05 RMK AO2 RAE1759 P0000 $
14840KMKG MKG20060622135013306/22/06 13:50:31  5-MIN KMKG 221850Z 22004KT 10SM -RA CLR 21/16 A3002 540 70 1400 220/04 RMK AO2 RAE1759B47 SLP163 P0000 T02110156 $
14840KMKG MKG20060622135513306/22/06 13:55:31  5-MIN KMKG 221855Z 19004KT 10SM -RA CLR 21/16 A3002 540 70 1400 190/04 RMK AO2 RAE1759B47 SLP164 P0000 T02110156 $
14840KMKG MKG20060622140010506/22/06 14:00:31  5-MIN KMKG 221900Z 21004KT 10SM -RA CLR 21/16 A3003 530 73 1400 210/04 RMK AO2 P0000 $
14840KMKG MKG20060622140510706/22/06 14:05:31  5-MIN KMKG 221905Z 22005KT 10SM CLR 22/16 A3003 530 70 1500 230/05 RMK AO2 RAE02 P0000 $
14840KMKG MKG20060622141010706/22/06 14:10:31  5-MIN KMKG 221910Z 23005KT 10SM CLR 22/16 A3003 530 65 1500 240/05 RMK AO2 RAE02 P0000 $
14840KMKG MKG20060622141510706/22/06 14:15:31  5-MIN KMKG 221915Z 21006KT 10SM CLR 22/16 A3003 530 65 1500 220/06 RMK AO2 RAE02 P0000 $
14840KMKG MKG20060622142010706/22/06 14:20:31  5-MIN KMKG 221920Z 23008KT 10SM CLR 22/16 A3004 520 65 1500 230/08 RMK AO2 RAE02 P0000 $
14840KMKG MKG20060622142510706/22/06 14:25:31  5-MIN KMKG 221925Z 23009KT 10SM CLR 22/15 A3004 520 63 1500 230/09 RMK AO2 RAE02 P0000 $
14840KMKG MKG20060622143010706/22/06 14:30:31  5-MIN KMKG 221930Z 24010KT 10SM CLR 22/15 A3004 520 63 1500 250/10 RMK AO2 RAE02 P0000 $
14840KMKG MKG20060622143510706/22/06 14:35:31  5-MIN KMKG 221935Z 22011KT 10SM CLR 22/15 A3005 510 65 1400 230/11 RMK AO2 RAE02 P0000 $
14840KMKG MKG20060622144010706/22/06 14:40:31  5-MIN KMKG 221940Z 24011KT 10SM CLR 21/15 A3005 510 68 1400 240/11 RMK AO2 RAE02 P0000 $
14840KMKG MKG20060622144510706/22/06 14:45:31  5-MIN KMKG 221945Z 24011KT 10SM CLR 21/15 A3005 510 70 1300 240/11 RMK AO2 RAE02 P0000 $
14840KMKG MKG20060622145012406/22/06 14:50:31  5-MIN KMKG 221950Z 23009KT 10SM CLR 20/15 A3006 500 72 1200 240/09 RMK AO2 RAE02 SLP176 P0000 T02000150 $
14840KMKG MKG20060622145512406/22/06 14:55:31  5-MIN KMKG 221955Z 24007KT 10SM CLR 20/15 A3005 510 72 1300 240/07 RMK AO2 RAE02 SLP174 P0000 T02000150 $
14840KMKG MKG20060622150009506/22/06 15:00:31  5-MIN KMKG 222000Z 23010KT 10SM CLR 19/15 A3005 510 75 1200 240/10 RMK AO2 $
14840KMKG MKG20060622150509506/22/06 15:05:31  5-MIN KMKG 222005Z 24008KT 10SM CLR 19/15 A3005 510 75 1200 240/08 RMK AO2 $
14840KMKG MKG20060622151009506/22/06 15:10:31  5-MIN KMKG 222010Z 23009KT 10SM CLR 19/15 A3005 510 75 1200 240/09 RMK AO2 $
14840KMKG MKG20060622151509506/22/06 15:15:31  5-MIN KMKG 222015Z 24007KT 10SM CLR 19/15 A3004 520 75 1200 240/07 RMK AO2 $
14840KMKG MKG20060622152009506/22/06 15:20:31  5-MIN KMKG 222020Z 24008KT 10SM CLR 21/15 A3004 520 68 1400 240/08 RMK AO2 $
14840KMKG MKG20060622152509506/22/06 15:25:31  5-MIN KMKG 222025Z 24007KT 10SM CLR 21/15 A3004 520 68 1400 240/07 RMK AO2 $
14840KMKG MKG20060622153009506/22/06 15:30:31  5-MIN KMKG 222030Z 23009KT 10SM CLR 22/15 A3004 520 63 1500 230/09 RMK AO2 $
14840KMKG MKG20060622153509506/22/06 15:35:31  5-MIN KMKG 222035Z 25010KT 10SM CLR 22/14 A3004 520 61 1500 250/10 RMK AO2 $
14840KMKG MKG20060622154009506/22/06 15:40:31  5-MIN KMKG 222040Z 24009KT 10SM CLR 23/14 A3004 520 57 1600 240/09 RMK AO2 $
14840KMKG MKG20060622154509806/22/06 15:45:31  5-MIN KMKG 222045Z 24011KT 10SM FEW033 23/14 A3003 520 57 1600 240/11 RMK AO2 $
14840KMKG MKG20060622155012706/22/06 15:50:31  5-MIN KMKG 222050Z 25009KT 10SM FEW033 22/14 A3003 530 59 1500 250/09 RMK AO2 SLP168 60000 T02220139 58034 $
14840KMKG MKG20060622155512706/22/06 15:55:31  5-MIN KMKG 222055Z 26008KT 10SM FEW033 23/14 A3003 530 57 1600 260/08 RMK AO2 SLP166 60000 T02280139 50007 $
14840KMKG MKG20060622160009506/22/06 16:00:31  5-MIN KMKG 222100Z 26008KT 10SM CLR 23/14 A3003 530 57 1600 260/08 RMK AO2 $
14840KMKG MKG20060622160509506/22/06 16:05:31  5-MIN KMKG 222105Z 26009KT 10SM CLR 22/14 A3003 530 59 1500 270/09 RMK AO2 $
14840KMKG MKG20060622161009506/22/06 16:10:31  5-MIN KMKG 222110Z 28008KT 10SM CLR 22/14 A3003 530 59 1500 280/08 RMK AO2 $
14840KMKG MKG20060622161509506/22/06 16:15:31  5-MIN KMKG 222115Z 25009KT 10SM CLR 22/13 A3003 530 56 1500 260/09 RMK AO2 $
14840KMKG MKG20060622162009506/22/06 16:20:31  5-MIN KMKG 222120Z 25008KT 10SM CLR 22/13 A3003 530 56 1500 260/08 RMK AO2 $
14840KMKG MKG20060622162509506/22/06 16:25:31  5-MIN KMKG 222125Z 25008KT 10SM CLR 22/14 A3003 530 59 1500 250/08 RMK AO2 $
14840KMKG MKG20060622163009506/22/06 16:30:31  5-MIN KMKG 222130Z 25008KT 10SM CLR 22/14 A3003 530 61 1500 260/08 RMK AO2 $
14840KMKG MKG20060622163509506/22/06 16:35:31  5-MIN KMKG 222135Z 27007KT 10SM CLR 22/14 A3004 520 61 1500 270/07 RMK AO2 $
14840KMKG MKG20060622164009506/22/06 16:40:31  5-MIN KMKG 222140Z 26010KT 10SM CLR 22/14 A3004 520 59 1500 270/10 RMK AO2 $
14840KMKG MKG20060622164509506/22/06 16:45:31  5-MIN KMKG 222145Z 25011KT 10SM CLR 22/14 A3004 520 61 1500 260/11 RMK AO2 $
14840KMKG MKG20060622165011206/22/06 16:50:31  5-MIN KMKG 222150Z 24011KT 10SM CLR 22/14 A3004 520 61 1500 250/11 RMK AO2 SLP172 T02170139 $
14840KMKG MKG20060622165511506/22/06 16:55:31  5-MIN KMKG 222155Z 25010KT 10SM FEW033 22/14 A3004 520 61 1500 250/10 RMK AO2 SLP171 T02170139 $
14840KMKG MKG20060622170009506/22/06 17:00:31  5-MIN KMKG 222200Z 26009KT 10SM CLR 22/14 A3004 520 59 1500 270/09 RMK AO2 $
14840KMKG MKG20060622170509506/22/06 17:05:31  5-MIN KMKG 222205Z 26009KT 10SM CLR 22/14 A3004 520 61 1500 260/09 RMK AO2 $
14840KMKG MKG20060622171009506/22/06 17:10:31  5-MIN KMKG 222210Z 24009KT 10SM CLR 22/14 A3004 520 61 1500 250/09 RMK AO2 $
14840KMKG MKG20060622171509506/22/06 17:15:31  5-MIN KMKG 222215Z 24009KT 10SM CLR 22/14 A3004 520 61 1500 250/09 RMK AO2 $
14840KMKG MKG20060622172009506/22/06 17:20:31  5-MIN KMKG 222220Z 25007KT 10SM CLR 22/14 A3004 520 59 1500 260/07 RMK AO2 $
14840KMKG MKG20060622172509506/22/06 17:25:31  5-MIN KMKG 222225Z 25006KT 10SM CLR 22/14 A3004 520 59 1500 250/06 RMK AO2 $
14840KMKG MKG20060622173009506/22/06 17:30:31  5-MIN KMKG 222230Z 24007KT 10SM CLR 22/14 A3004 520 59 1500 250/07 RMK AO2 $
14840KMKG MKG20060622173509506/22/06 17:35:31  5-MIN KMKG 222235Z 25008KT 10SM CLR 22/14 A3004 520 59 1500 260/08 RMK AO2 $
14840KMKG MKG20060622174009506/22/06 17:40:31  5-MIN KMKG 222240Z 24007KT 10SM CLR 22/14 A3004 520 61 1500 250/07 RMK AO2 $
14840KMKG MKG20060622174509506/22/06 17:45:31  5-MIN KMKG 222245Z 24008KT 10SM CLR 22/14 A3003 520 59 1500 240/08 RMK AO2 $
14840KMKG MKG20060622175011506/22/06 17:50:31  5-MIN KMKG 222250Z 24008KT 10SM FEW035 22/13 A3003 530 56 1500 250/08 RMK AO2 SLP168 T02220133 $
14840KMKG MKG20060622175511506/22/06 17:55:31  5-MIN KMKG 222255Z 25008KT 10SM FEW035 22/14 A3004 520 59 1500 250/08 RMK AO2 SLP169 T02220139 $
14840KMKG MKG20060622180009506/22/06 18:00:31  5-MIN KMKG 222300Z 25008KT 10SM CLR 22/14 A3004 520 59 1500 260/08 RMK AO2 $
14840KMKG MKG20060622180509506/22/06 18:05:31  5-MIN KMKG 222305Z 25009KT 10SM CLR 22/14 A3004 520 61 1500 250/09 RMK AO2 $
14840KMKG MKG20060622181009506/22/06 18:10:31  5-MIN KMKG 222310Z 25006KT 10SM CLR 22/14 A3004 520 61 1500 260/06 RMK AO2 $
14840KMKG MKG20060622181509506/22/06 18:15:31  5-MIN KMKG 222315Z 25007KT 10SM CLR 22/14 A3004 520 59 1500 260/07 RMK AO2 $
14840KMKG MKG20060622182009506/22/06 18:20:31  5-MIN KMKG 222320Z 24006KT 10SM CLR 22/14 A3003 530 59 1500 250/06 RMK AO2 $
14840KMKG MKG20060622182509506/22/06 18:25:31  5-MIN KMKG 222325Z 24005KT 10SM CLR 22/14 A3003 530 61 1500 240/05 RMK AO2 $
14840KMKG MKG20060622183009506/22/06 18:30:31  5-MIN KMKG 222330Z 22005KT 10SM CLR 22/14 A3004 520 61 1500 230/05 RMK AO2 $
14840KMKG MKG20060622183509506/22/06 18:35:31  5-MIN KMKG 222335Z 22005KT 10SM CLR 22/14 A3004 520 61 1500 230/05 RMK AO2 $
14840KMKG MKG20060622184009506/22/06 18:40:31  5-MIN KMKG 222340Z 22006KT 10SM CLR 22/14 A3004 520 61 1500 230/06 RMK AO2 $
14840KMKG MKG20060622184509506/22/06 18:45:31  5-MIN KMKG 222345Z 23007KT 10SM CLR 22/13 A3005 510 58 1400 230/07 RMK AO2 $
14840KMKG MKG20060622185013606/22/06 18:50:31  5-MIN KMKG 222350Z 24005KT 10SM CLR 22/13 A3005 510 58 1400 240/05 RMK AO2 SLP173 60000 T02170133 10228 20194 50007 $
14840KMKG MKG20060622185513606/22/06 18:55:31  5-MIN KMKG 222355Z VRB03KT 10SM CLR 22/14 A3005 510 61 1400 VRB/03 RMK AO2 SLP173 60000 T02170139 10228 20194 51006 $
14840KMKG MKG20060622190009806/22/06 19:00:31  5-MIN KMKG 230000Z 23003KT 10SM FEW035 22/14 A3005 510 61 1400 230/03 RMK AO2 $
14840KMKG MKG20060622190509806/22/06 19:05:31  5-MIN KMKG 230005Z 23003KT 10SM FEW035 22/13 A3005 510 58 1400 240/03 RMK AO2 $
14840KMKG MKG20060622191009806/22/06 19:10:31  5-MIN KMKG 230010Z 24003KT 10SM FEW035 21/13 A3005 510 61 1400 250/03 RMK AO2 $
14840KMKG MKG20060622191509806/22/06 19:15:31  5-MIN KMKG 230015Z VRB03KT 10SM FEW035 21/14 A3005 510 63 1400 VRB/03 RMK AO2 $
14840KMKG MKG20060622192009806/22/06 19:20:31  5-MIN KMKG 230020Z 23004KT 10SM FEW035 21/14 A3005 510 63 1400 240/04 RMK AO2 $
14840KMKG MKG20060622192509806/22/06 19:25:31  5-MIN KMKG 230025Z 23003KT 10SM FEW035 21/14 A3006 500 63 1400 230/03 RMK AO2 $
14840KMKG MKG20060622193009806/22/06 19:30:31  5-MIN KMKG 230030Z 21003KT 10SM FEW035 21/14 A3006 510 63 1400 220/03 RMK AO2 $
14840KMKG MKG20060622193509806/22/06 19:35:31  5-MIN KMKG 230035Z 20005KT 10SM FEW035 21/14 A3006 510 63 1400 200/05 RMK AO2 $
14840KMKG MKG20060622194009806/22/06 19:40:31  5-MIN KMKG 230040Z 21003KT 10SM FEW035 21/14 A3006 500 65 1300 220/03 RMK AO2 $
14840KMKG MKG20060622194509806/22/06 19:45:31  5-MIN KMKG 230045Z 00000KT 10SM FEW035 21/14 A3006 500 67 1300 000/00 RMK AO2 $
14840KMKG MKG20060622195011206/22/06 19:50:31  5-MIN KMKG 230050Z 20003KT 10SM CLR 21/14 A3006 500 67 1300 200/03 RMK AO2 SLP178 T02060144 $
14840KMKG MKG20060622195511206/22/06 19:55:31  5-MIN KMKG 230055Z 21003KT 10SM CLR 21/14 A3007 500 67 1300 220/03 RMK AO2 SLP179 T02060144 $
14840KMKG MKG20060622200009506/22/06 20:00:31  5-MIN KMKG 230100Z 21004KT 10SM CLR 20/14 A3007 500 70 1200 220/04 RMK AO2 $
14840KMKG MKG20060622200509506/22/06 20:05:31  5-MIN KMKG 230105Z 23004KT 10SM CLR 20/14 A3007 500 70 1200 230/04 RMK AO2 $
14840KMKG MKG20060622201009506/22/06 20:10:31  5-MIN KMKG 230110Z 24003KT 10SM CLR 20/15 A3007 490 72 1200 240/03 RMK AO2 $
14840KMKG MKG20060622201509506/22/06 20:15:31  5-MIN KMKG 230115Z 00000KT 10SM CLR 20/14 A3007 490 70 1200 000/00 RMK AO2 $
14840KMKG MKG20060622202009506/22/06 20:20:31  5-MIN KMKG 230120Z 00000KT 10SM CLR 20/14 A3007 490 70 1200 000/00 RMK AO2 $
14840KMKG MKG20060622202509506/22/06 20:25:31  5-MIN KMKG 230125Z 30005KT 10SM CLR 20/14 A3008 490 70 1200 300/05 RMK AO2 $
14840KMKG MKG20060622203009506/22/06 20:30:31  5-MIN KMKG 230130Z 27003KT 10SM CLR 19/14 A3008 490 72 1200 280/03 RMK AO2 $
14840KMKG MKG20060622203509506/22/06 20:35:31  5-MIN KMKG 230135Z 30003KT 10SM CLR 19/15 A3008 480 75 1200 300/03 RMK AO2 $
14840KMKG MKG20060622204009806/22/06 20:40:31  5-MIN KMKG 230140Z 00000KT 10SM FEW100 19/15 A3008 480 75 1200 000/00 RMK AO2 $
14840KMKG MKG20060622204509806/22/06 20:45:31  5-MIN KMKG 230145Z 23003KT 10SM SCT100 19/15 A3008 480 75 1200 230/03 RMK AO2 $
14840KMKG MKG20060622205011506/22/06 20:50:31  5-MIN KMKG 230150Z 25003KT 10SM SCT095 19/15 A3009 480 78 1100 250/03 RMK AO2 SLP186 T01890150 $
14840KMKG MKG20060622205511506/22/06 20:55:31  5-MIN KMKG 230155Z 27004KT 10SM BKN095 19/15 A3009 470 78 1100 270/04 RMK AO2 SLP187 T01890150 $
14840KMKG MKG20060622210009806/22/06 21:00:31  5-MIN KMKG 230200Z 25004KT 10SM BKN100 19/15 A3009 470 78 1100 250/04 RMK AO2 $
14840KMKG MKG20060622210509806/22/06 21:05:31  5-MIN KMKG 230205Z 24003KT 10SM BKN095 19/15 A3009 470 78 1100 240/03 RMK AO2 $
14840KMKG MKG20060622211009806/22/06 21:10:31  5-MIN KMKG 230210Z 23005KT 10SM BKN090 18/16 A3009 470 84 1000 230/05 RMK AO2 $
14840KMKG MKG20060622211509806/22/06 21:15:31  5-MIN KMKG 230215Z 23004KT 10SM OVC090 18/16 A3009 470 84 1000 240/04 RMK AO2 $
14840KMKG MKG20060622212009806/22/06 21:20:31  5-MIN KMKG 230220Z 25003KT 10SM OVC090 18/16 A3010 470 84 1000 260/03 RMK AO2 $
14840KMKG MKG20060622212511306/22/06 21:25:31  5-MIN KMKG 230225Z 00000KT 10SM OVC095 18/16 A3009 470 84 1000 000/00 RMK AO2 CIG 080 RWY 14 $
14840KMKG MKG20060622213012006/22/06 21:30:31  5-MIN KMKG 230230Z 00000KT 10SM SCT075 BKN100 18/16 A3010 470 84 1000 000/00 RMK AO2 CIG 080 RWY 14 $
14840KMKG MKG20060622213512706/22/06 21:35:31  5-MIN KMKG 230235Z 00000KT 10SM FEW060 SCT080 BKN100 18/16 A3010 470 84 1000 000/00 RMK AO2 CIG 080 RWY 14 $
14840KMKG MKG20060622214012706/22/06 21:40:31  5-MIN KMKG 230240Z 00000KT 10SM SCT055 BKN075 OVC100 18/16 A3010 470 84 1000 000/00 RMK AO2 CIG 060 RWY 14 $
14840KMKG MKG20060622214511206/22/06 21:45:31  5-MIN KMKG 230245Z 00000KT 10SM FEW055 BKN070 OVC100 18/16 A3010 460 84 1000 000/00 RMK AO2 $
14840KMKG MKG20060622215013506/22/06 21:50:31  5-MIN KMKG 230250Z 00000KT 10SM SCT055 BKN070 OVC100 18/16 A3010 460 84 1000 000/00 RMK AO2 SLP191 T01830156 51006 $
14840KMKG MKG20060622215513506/22/06 21:55:31  5-MIN KMKG 230255Z 00000KT 10SM BKN055 BKN070 OVC100 18/16 A3010 460 84 1000 000/00 RMK AO2 SLP192 T01830156 51018 $
14840KMKG MKG20060622220011206/22/06 22:00:31  5-MIN KMKG 230300Z 00000KT 10SM BKN055 BKN070 OVC100 18/16 A3010 460 84 1000 000/00 RMK AO2 $
14840KMKG MKG20060622220510506/22/06 22:05:31  5-MIN KMKG 230305Z 00000KT 10SM BKN055 OVC070 18/16 A3011 460 84 1000 000/00 RMK AO2 $
14840KMKG MKG20060622221010506/22/06 22:10:31  5-MIN KMKG 230310Z 00000KT 10SM BKN055 OVC065 18/16 A3011 460 84 1000 000/00 RMK AO2 $
14840KMKG MKG20060622221509806/22/06 22:15:31  5-MIN KMKG 230315Z 00000KT 10SM OVC050 18/16 A3011 450 84 1000 000/00 RMK AO2 $
14840KMKG MKG20060622222009806/22/06 22:20:31  5-MIN KMKG 230320Z 00000KT 10SM OVC055 18/16 A3011 460 84 1000 000/00 RMK AO2 $
14840KMKG MKG20060622222510506/22/06 22:25:31  5-MIN KMKG 230325Z 00000KT 10SM BKN055 OVC100 18/16 A3011 450 84 1000 000/00 RMK AO2 $
14840KMKG MKG20060622223010506/22/06 22:30:31  5-MIN KMKG 230330Z 00000KT 10SM BKN050 BKN100 18/16 A3011 450 84 1000 000/00 RMK AO2 $
14840KMKG MKG20060622223510506/22/06 22:35:31  5-MIN KMKG 230335Z 00000KT 10SM SCT055 BKN100 18/16 A3011 450 84 1000 000/00 RMK AO2 $
14840KMKG MKG20060622224010506/22/06 22:40:31  5-MIN KMKG 230340Z 00000KT 10SM SCT055 BKN100 18/16 A3011 460 84 1000 000/00 RMK AO2 $
14840KMKG MKG20060622224510506/22/06 22:45:31  5-MIN KMKG 230345Z 01005KT 10SM FEW055 BKN100 18/16 A3011 450 84 1000 010/05 RMK AO2 $
14840KMKG MKG20060622225012206/22/06 22:50:31  5-MIN KMKG 230350Z 01006KT 10SM FEW055 SCT100 19/16 A3011 450 81 1100 020/06 RMK AO2 SLP195 T01890156 $
14840KMKG MKG20060622225511506/22/06 22:55:31  5-MIN KMKG 230355Z 03007KT 10SM FEW100 19/16 A3011 450 81 1100 030/07 RMK AO2 SLP195 T01890156 $
14840KMKG MKG20060622230009806/22/06 23:00:31  5-MIN KMKG 230400Z 04006KT 10SM FEW100 19/16 A3011 450 78 1100 040/06 RMK AO2 $
14840KMKG MKG20060622230509806/22/06 23:05:31  5-MIN KMKG 230405Z 03007KT 10SM FEW100 19/16 A3011 450 78 1100 040/07 RMK AO2 $
14840KMKG MKG20060622231009806/22/06 23:10:31  5-MIN KMKG 230410Z 04008KT 10SM FEW100 19/16 A3011 450 78 1100 040/08 RMK AO2 $
14840KMKG MKG20060622231509506/22/06 23:15:31  5-MIN KMKG 230415Z 04007KT 10SM CLR 19/16 A3012 450 78 1100 050/07 RMK AO2 $
14840KMKG MKG20060622232009506/22/06 23:20:31  5-MIN KMKG 230420Z 03006KT 10SM CLR 19/16 A3011 450 78 1100 040/06 RMK AO2 $
14840KMKG MKG20060622232509806/22/06 23:25:31  5-MIN KMKG 230425Z 03008KT 10SM FEW100 19/16 A3011 450 78 1100 040/08 RMK AO2 $
14840KMKG MKG20060622233009806/22/06 23:30:31  5-MIN KMKG 230430Z 03009KT 10SM FEW100 19/16 A3011 450 78 1100 030/09 RMK AO2 $
14840KMKG MKG20060622233510506/22/06 23:35:31  5-MIN KMKG 230435Z 04008KT 10SM FEW055 SCT100 19/16 A3012 450 78 1100 040/08 RMK AO2 $
14840KMKG MKG20060622234010506/22/06 23:40:31  5-MIN KMKG 230440Z 02008KT 10SM FEW055 BKN100 19/15 A3011 450 78 1100 030/08 RMK AO2 $
14840KMKG MKG20060622234512006/22/06 23:45:31  5-MIN KMKG 230445Z 03008KT 10SM FEW055 BKN100 19/15 A3011 450 78 1100 040/08 RMK AO2 CIG 055 RWY 14 $
14840KMKG MKG20060622235014706/22/06 23:50:31  5-MIN KMKG 230450Z 03009KT 10SM SCT055 BKN100 19/15 A3012 450 78 1100 040/09 RMK AO2 CIG 055 RWY 14 SLP196 T01890150 402330172 $
14840KMKG MKG20060622235513206/22/06 23:55:31  5-MIN KMKG 230455Z 03007KT 10SM BKN055 OVC100 19/14 A3012 450 75 1000 030/07 RMK AO2 SLP196 T01890144 402330172 $
14840KMKG MKG20060623000010506/23/06 00:00:32  5-MIN KMKG 230500Z 03011KT 10SM BKN055 OVC100 19/14 A3012 450 75 1000 030/11 RMK AO2 $
14840KMKG MKG20060623000512006/23/06 00:05:31  5-MIN KMKG 230505Z 03010KT 10SM SCT055 OVC100 19/14 A3012 450 72 1000 030/10 RMK AO2 CIG 055 RWY 14 $
14840KMKG MKG20060623001012006/23/06 00:10:31  5-MIN KMKG 230510Z 03010KT 10SM SCT060 OVC100 19/14 A3012 450 72 1000 030/10 RMK AO2 CIG 060 RWY 14 $
14840KMKG MKG20060623001510506/23/06 00:15:31  5-MIN KMKG 230515Z 03011KT 10SM BKN060 OVC100 18/13 A3012 450 72 1000 040/11 RMK AO2 $
14840KMKG MKG20060623002012006/23/06 00:20:31  5-MIN KMKG 230520Z 03007KT 10SM SCT060 OVC100 18/13 A3012 450 70 1000 030/07 RMK AO2 CIG 055 RWY 14 $
14840KMKG MKG20060623002510506/23/06 00:25:31  5-MIN KMKG 230525Z 03009KT 10SM FEW060 BKN100 18/13 A3012 450 72 1000 030/09 RMK AO2 $
14840KMKG MKG20060623003010506/23/06 00:30:31  5-MIN KMKG 230530Z 02009KT 10SM FEW060 BKN100 18/13 A3012 450 72 1000 030/09 RMK AO2 $
14840KMKG MKG20060623003510506/23/06 00:35:31  5-MIN KMKG 230535Z 03012KT 10SM FEW060 BKN100 18/13 A3012 450 70 1000 030/12 RMK AO2 $
14840KMKG MKG20060623004010406/23/06 00:40:31  5-MIN KMKG 230540Z 03008KT 10SM FEW060 BKN100 18/12 A3012 450 69 900 030/08 RMK AO2 $
14840KMKG MKG20060623004509706/23/06 00:45:31  5-MIN KMKG 230545Z 03009KT 10SM SCT100 18/12 A3012 450 67 900 030/09 RMK AO2 $
14840KMKG MKG20060623005013206/23/06 00:50:31  5-MIN KMKG 230550Z 02009KT 10SM FEW100 18/12 A3012 440 67 900 030/09 RMK AO2 SLP200 T01780117 10217 20178 51018 $
14840KMKG MKG20060623005513206/23/06 00:55:31  5-MIN KMKG 230555Z 03008KT 10SM FEW100 18/11 A3012 440 64 900 030/08 RMK AO2 SLP199 T01780111 10217 20178 51007 $
14840KMKG MKG20060623010009706/23/06 01:00:31  5-MIN KMKG 230600Z 03009KT 10SM FEW100 18/11 A3012 440 64 900 030/09 RMK AO2 $
14840KMKG MKG20060623010509406/23/06 01:05:31  5-MIN KMKG 230605Z 04008KT 10SM CLR 17/11 A3012 440 67 800 040/08 RMK AO2 $
14840KMKG MKG20060623011009406/23/06 01:10:31  5-MIN KMKG 230610Z 03009KT 10SM CLR 17/11 A3012 450 67 900 030/09 RMK AO2 $
14840KMKG MKG20060623011509406/23/06 01:15:31  5-MIN KMKG 230615Z 04007KT 10SM CLR 17/11 A3012 450 67 900 040/07 RMK AO2 $
14840KMKG MKG20060623012009406/23/06 01:20:31  5-MIN KMKG 230620Z 04008KT 10SM CLR 17/11 A3012 450 67 900 040/08 RMK AO2 $
14840KMKG MKG20060623012509406/23/06 01:25:31  5-MIN KMKG 230625Z 03006KT 10SM CLR 17/11 A3012 450 67 900 030/06 RMK AO2 $
14840KMKG MKG20060623013009406/23/06 01:30:31  5-MIN KMKG 230630Z 03007KT 10SM CLR 17/11 A3012 450 69 800 030/07 RMK AO2 $
14840KMKG MKG20060623013509406/23/06 01:35:31  5-MIN KMKG 230635Z 04007KT 10SM CLR 17/11 A3012 450 69 800 040/07 RMK AO2 $
14840KMKG MKG20060623014009406/23/06 01:40:31  5-MIN KMKG 230640Z 04008KT 10SM CLR 17/11 A3012 450 69 800 040/08 RMK AO2 $
14840KMKG MKG20060623014509406/23/06 01:45:31  5-MIN KMKG 230645Z 03006KT 10SM CLR 17/11 A3012 450 69 800 040/06 RMK AO2 $
14840KMKG MKG20060623015011106/23/06 01:50:31  5-MIN KMKG 230650Z 04008KT 10SM CLR 17/11 A3012 450 69 800 040/08 RMK AO2 SLP198 T01670111 $
14840KMKG MKG20060623015511106/23/06 01:55:31  5-MIN KMKG 230655Z 03006KT 10SM CLR 16/11 A3012 450 72 700 030/06 RMK AO2 SLP198 T01610111 $
14840KMKG MKG20060623020009406/23/06 02:00:31  5-MIN KMKG 230700Z 03007KT 10SM CLR 16/11 A3012 450 72 700 030/07 RMK AO2 $
14840KMKG MKG20060623020509406/23/06 02:05:31  5-MIN KMKG 230705Z 03009KT 10SM CLR 16/11 A3012 450 72 700 040/09 RMK AO2 $
14840KMKG MKG20060623021009406/23/06 02:10:31  5-MIN KMKG 230710Z 03007KT 10SM CLR 16/11 A3013 440 72 700 040/07 RMK AO2 $
14840KMKG MKG20060623021509406/23/06 02:15:31  5-MIN KMKG 230715Z 04007KT 10SM CLR 16/11 A3013 440 72 600 040/07 RMK AO2 $
14840KMKG MKG20060623022009406/23/06 02:20:31  5-MIN KMKG 230720Z 05009KT 10SM CLR 16/11 A3012 440 72 700 060/09 RMK AO2 $
14840KMKG MKG20060623022509406/23/06 02:25:31  5-MIN KMKG 230725Z 05006KT 10SM CLR 16/11 A3012 440 72 700 060/06 RMK AO2 $
14840KMKG MKG20060623023009406/23/06 02:30:31  5-MIN KMKG 230730Z 04008KT 10SM CLR 16/11 A3012 440 72 700 040/08 RMK AO2 $
14840KMKG MKG20060623023509406/23/06 02:35:31  5-MIN KMKG 230735Z 03006KT 10SM CLR 16/11 A3012 440 72 700 030/06 RMK AO2 $
14840KMKG MKG20060623024009406/23/06 02:40:31  5-MIN KMKG 230740Z 03009KT 10SM CLR 15/10 A3013 440 72 600 030/09 RMK AO2 $
14840KMKG MKG20060623024509406/23/06 02:45:31  5-MIN KMKG 230745Z 04007KT 10SM CLR 15/10 A3013 440 72 600 040/07 RMK AO2 $
14840KMKG MKG20060623025011106/23/06 02:50:31  5-MIN KMKG 230750Z 05009KT 10SM CLR 15/10 A3013 440 72 600 050/09 RMK AO2 SLP201 T01500100 $
14840KMKG MKG20060623025511106/23/06 02:55:31  5-MIN KMKG 230755Z 05009KT 10SM CLR 15/09 A3013 440 69 600 050/09 RMK AO2 SLP202 T01500094 $
14840KMKG MKG20060623030009406/23/06 03:00:31  5-MIN KMKG 230800Z 04009KT 10SM CLR 14/09 A3013 440 72 500 040/09 RMK AO2 $
14840KMKG MKG20060623030509406/23/06 03:05:31  5-MIN KMKG 230805Z 04008KT 10SM CLR 14/09 A3013 440 72 500 050/08 RMK AO2 $
14840KMKG MKG20060623031009406/23/06 03:10:31  5-MIN KMKG 230810Z 03008KT 10SM CLR 14/09 A3013 440 72 500 040/08 RMK AO2 $
14840KMKG MKG20060623031509406/23/06 03:15:31  5-MIN KMKG 230815Z 03007KT 10SM CLR 14/09 A3013 440 72 500 030/07 RMK AO2 $
14840KMKG MKG20060623032009406/23/06 03:20:31  5-MIN KMKG 230820Z 03009KT 10SM CLR 14/09 A3013 440 72 500 030/09 RMK AO2 $
14840KMKG MKG20060623032509406/23/06 03:25:31  5-MIN KMKG 230825Z 04007KT 10SM CLR 14/09 A3013 440 72 500 040/07 RMK AO2 $
14840KMKG MKG20060623033009406/23/06 03:30:31  5-MIN KMKG 230830Z 04008KT 10SM CLR 14/09 A3013 440 74 400 050/08 RMK AO2 $
14840KMKG MKG20060623033509406/23/06 03:35:31  5-MIN KMKG 230835Z 03006KT 10SM CLR 14/09 A3013 440 74 400 040/06 RMK AO2 $
14840KMKG MKG20060623034009406/23/06 03:40:31  5-MIN KMKG 230840Z 04006KT 10SM CLR 14/09 A3014 430 74 400 040/06 RMK AO2 $
14840KMKG MKG20060623034509406/23/06 03:45:31  5-MIN KMKG 230845Z 04007KT 10SM CLR 14/09 A3014 430 74 400 040/07 RMK AO2 $
14840KMKG MKG20060623035012006/23/06 03:50:31  5-MIN KMKG 230850Z 04006KT 10SM FEW049 14/09 A3014 430 74 400 040/06 RMK AO2 SLP206 T01390094 51007 $
14840KMKG MKG20060623035512006/23/06 03:55:31  5-MIN KMKG 230855Z 03008KT 10SM SCT049 13/09 A3014 420 77 400 030/08 RMK AO2 SLP207 T01330094 53007 $
14840KMKG MKG20060623040009706/23/06 04:00:31  5-MIN KMKG 230900Z 04007KT 10SM SCT049 13/09 A3014 420 77 400 040/07 RMK AO2 $
14840KMKG MKG20060623040509706/23/06 04:05:31  5-MIN KMKG 230905Z 03009KT 10SM SCT049 13/09 A3015 420 77 400 030/09 RMK AO2 $
14840KMKG MKG20060623041009706/23/06 04:10:31  5-MIN KMKG 230910Z 03009KT 10SM SCT049 13/09 A3015 420 74 400 030/09 RMK AO2 $
14840KMKG MKG20060623041509706/23/06 04:15:31  5-MIN KMKG 230915Z 04008KT 10SM FEW049 13/09 A3015 420 74 400 040/08 RMK AO2 $
14840KMKG MKG20060623042009706/23/06 04:20:31  5-MIN KMKG 230920Z 03007KT 10SM FEW047 13/09 A3015 420 74 400 040/07 RMK AO2 $
14840KMKG MKG20060623042509706/23/06 04:25:31  5-MIN KMKG 230925Z 04007KT 10SM FEW047 13/09 A3015 420 77 300 040/07 RMK AO2 $
14840KMKG MKG20060623043009406/23/06 04:30:31  5-MIN KMKG 230930Z 04008KT 10SM CLR 13/09 A3015 420 77 300 040/08 RMK AO2 $
14840KMKG MKG20060623043509406/23/06 04:35:31  5-MIN KMKG 230935Z 04007KT 10SM CLR 13/09 A3015 420 77 300 040/07 RMK AO2 $
14840KMKG MKG20060623044009406/23/06 04:40:31  5-MIN KMKG 230940Z 04007KT 10SM CLR 13/09 A3015 420 77 300 040/07 RMK AO2 $
14840KMKG MKG20060623044509706/23/06 04:45:31  5-MIN KMKG 230945Z 04008KT 10SM FEW047 13/09 A3015 410 77 300 040/08 RMK AO2 $
14840KMKG MKG20060623045011406/23/06 04:50:31  5-MIN KMKG 230950Z 04007KT 10SM FEW047 13/09 A3016 410 77 300 040/07 RMK AO2 SLP210 T01280089 $
14840KMKG MKG20060623045511406/23/06 04:55:31  5-MIN KMKG 230955Z 04007KT 10SM SCT047 13/09 A3016 410 77 300 050/07 RMK AO2 SLP211 T01280089 $
14840KMKG MKG20060623050009706/23/06 05:00:31  5-MIN KMKG 231000Z 03008KT 10SM BKN047 13/09 A3016 410 77 300 040/08 RMK AO2 $
14840KMKG MKG20060623050509706/23/06 05:05:31  5-MIN KMKG 231005Z 04007KT 10SM BKN047 13/09 A3016 410 77 300 050/07 RMK AO2 $
14840KMKG MKG20060623051009706/23/06 05:10:31  5-MIN KMKG 231010Z 05007KT 10SM BKN047 13/09 A3016 410 77 300 050/07 RMK AO2 $
14840KMKG MKG20060623051509706/23/06 05:15:31  5-MIN KMKG 231015Z 04008KT 10SM OVC047 13/09 A3016 410 77 300 050/08 RMK AO2 $
14840KMKG MKG20060623052010406/23/06 05:20:31  5-MIN KMKG 231020Z 04009KT 10SM BKN047 OVC055 13/08 A3016 410 74 300 040/09 RMK AO2 $
14840KMKG MKG20060623052510406/23/06 05:25:31  5-MIN KMKG 231025Z 03008KT 10SM BKN047 BKN055 13/08 A3016 410 74 300 040/08 RMK AO2 $
14840KMKG MKG20060623053010406/23/06 05:30:31  5-MIN KMKG 231030Z 02009KT 10SM SCT047 BKN055 12/08 A3016 410 77 200 030/09 RMK AO2 $
14840KMKG MKG20060623053509706/23/06 05:35:31  5-MIN KMKG 231035Z 03011KT 10SM SCT050 12/08 A3016 410 77 200 030/11 RMK AO2 $
14840KMKG MKG20060623054009706/23/06 05:40:31  5-MIN KMKG 231040Z 04009KT 10SM FEW050 12/08 A3017 400 77 200 040/09 RMK AO2 $
14840KMKG MKG20060623054509706/23/06 05:45:31  5-MIN KMKG 231045Z 04010KT 10SM FEW055 12/08 A3017 400 77 200 040/10 RMK AO2 $
14840KMKG MKG20060623055011106/23/06 05:50:31  5-MIN KMKG 231050Z 03008KT 10SM CLR 12/08 A3017 400 77 200 030/08 RMK AO2 SLP214 T01220083 $
14840KMKG MKG20060623055511106/23/06 05:55:31  5-MIN KMKG 231055Z 04011KT 10SM CLR 12/08 A3017 400 77 200 040/11 RMK AO2 SLP216 T01220083 $
14840KMKG MKG20060623060009406/23/06 06:00:31  5-MIN KMKG 231100Z 05007KT 10SM CLR 12/08 A3017 400 77 200 050/07 RMK AO2 $
14840KMKG MKG20060623060509406/23/06 06:05:31  5-MIN KMKG 231105Z 05007KT 10SM CLR 12/08 A3017 400 77 200 060/07 RMK AO2 $
14840KMKG MKG20060623061009406/23/06 06:10:31  5-MIN KMKG 231110Z 04007KT 10SM CLR 13/08 A3018 400 74 300 050/07 RMK AO2 $
14840KMKG MKG20060623061509406/23/06 06:15:31  5-MIN KMKG 231115Z 04010KT 10SM CLR 13/08 A3018 390 74 300 050/10 RMK AO2 $
14840KMKG MKG20060623062009406/23/06 06:20:31  5-MIN KMKG 231120Z 05009KT 10SM CLR 13/08 A3018 390 74 300 050/09 RMK AO2 $
14840KMKG MKG20060623062509406/23/06 06:25:31  5-MIN KMKG 231125Z 06010KT 10SM CLR 13/08 A3018 390 71 300 070/10 RMK AO2 $
14840KMKG MKG20060623063009706/23/06 06:30:31  5-MIN KMKG 231130Z 06010KT 10SM FEW065 13/08 A3018 390 71 300 070/10 RMK AO2 $
14840KMKG MKG20060625233511506/25/06 23:35:31  5-MIN KMKG 260435Z 06007KT 10SM SCT080 OVC110 18/14 A3007 490 81 1000 070/07 RMK AO2 RAE14 P0000
14840KMKG MKG20060625234011506/25/06 23:40:31  5-MIN KMKG 260440Z 06006KT 10SM SCT075 OVC110 18/14 A3007 490 81 1000 060/06 RMK AO2 RAE14 P0000
14840KMKG MKG20060625234511506/25/06 23:45:31  5-MIN KMKG 260445Z 06004KT 10SM BKN075 OVC110 18/14 A3007 490 81 1000 070/04 RMK AO2 RAE14 P0000
14840KMKG MKG20060625235014206/25/06 23:50:31  5-MIN KMKG 260450Z 05006KT 10SM BKN080 OVC110 18/14 A3008 490 78 1000 050/06 RMK AO2 RAE14 SLP183 P0000 T01780139 402220167
14840KMKG MKG20060625235514206/25/06 23:55:31  5-MIN KMKG 260455Z 04005KT 10SM FEW043 OVC080 18/14 A3008 490 78 1000 040/05 RMK AO2 RAE14 SLP184 P0000 T01780139 402220167
14840KMKG MKG20060626000010306/26/06 00:00:32  5-MIN KMKG 260500Z 04005KT 10SM FEW043 OVC075 18/14 A3008 490 78 1000 050/05 RMK AO2
14840KMKG MKG20060626000511006/26/06 00:05:31  5-MIN KMKG 260505Z 04006KT 10SM SCT043 BKN065 OVC080 18/14 A3007 490 78 1000 040/06 RMK AO2
14840KMKG MKG20060626001010306/26/06 00:10:31  5-MIN KMKG 260510Z 04007KT 10SM SCT045 OVC070 18/14 A3007 490 78 1000 050/07 RMK AO2
14840KMKG MKG20060626001511006/26/06 00:15:31  5-MIN KMKG 260515Z 05008KT 10SM FEW045 BKN070 OVC080 18/13 A3007 490 75 1000 060/08 RMK AO2
14840KMKG MKG20060626002012506/26/06 00:20:31  5-MIN KMKG 260520Z 05008KT 10SM FEW045 SCT065 OVC085 18/13 A3007 490 75 1000 050/08 RMK AO2 CIG 070 RWY 14
14840KMKG MKG20060626002511006/26/06 00:25:31  5-MIN KMKG 260525Z 05008KT 10SM FEW045 SCT070 OVC090 18/13 A3007 500 75 1000 060/08 RMK AO2
14840KMKG MKG20060626003011006/26/06 00:30:31  5-MIN KMKG 260530Z 06009KT 10SM FEW045 BKN090 OVC100 18/13 A3006 500 75 1000 060/09 RMK AO2
14840KMKG MKG20060626003512406/26/06 00:35:31  5-MIN KMKG 260535Z 05008KT 10SM FEW070 SCT090 OVC110 17/14 A3006 500 80 900 060/08 RMK AO2 CIG 085 RWY 14
14840KMKG MKG20060626004010206/26/06 00:40:31  5-MIN KMKG 260540Z 04008KT 10SM SCT085 OVC110 17/14 A3006 500 80 900 050/08 RMK AO2
14840KMKG MKG20060626004510206/26/06 00:45:31  5-MIN KMKG 260545Z 04006KT 10SM FEW090 OVC110 17/14 A3006 500 80 900 050/06 RMK AO2
14840KMKG MKG20060626005013606/26/06 00:50:31  5-MIN KMKG 260550Z 05007KT 10SM BKN110 17/14 A3006 500 83 900 050/07 RMK AO2 SLP178 60001 T01720144 10217 20172 53006
14840KMKG MKG20060626005513606/26/06 00:55:31  5-MIN KMKG 260555Z 04005KT 10SM BKN110 17/14 A3006 500 83 900 050/05 RMK AO2 SLP178 60001 T01720144 10217 20172 58005
14840KMKG MKG20060626010010206/26/06 01:00:31  5-MIN KMKG 260600Z 04006KT 10SM FEW070 BKN120 17/14 A3006 500 83 900 050/06 RMK AO2
14840KMKG MKG20060626010510206/26/06 01:05:31  5-MIN KMKG 260605Z 05006KT 10SM SCT070 BKN120 17/14 A3006 500 83 900 050/06 RMK AO2
14840KMKG MKG20060626011010206/26/06 01:10:31  5-MIN KMKG 260610Z 04007KT 10SM BKN070 BKN120 17/14 A3006 500 83 900 040/07 RMK AO2
14840KMKG MKG20060626011510206/26/06 01:15:31  5-MIN KMKG 260615Z 04007KT 10SM BKN075 BKN110 17/14 A3006 500 83 900 040/07 RMK AO2
14840KMKG MKG20060626012010206/26/06 01:20:31  5-MIN KMKG 260620Z 04008KT 10SM SCT075 BKN110 17/14 A3006 500 83 900 050/08 RMK AO2
14840KMKG MKG20060626012510206/26/06 01:25:31  5-MIN KMKG 260625Z 05008KT 10SM SCT075 OVC110 17/14 A3006 510 80 900 050/08 RMK AO2
14840KMKG MKG20060626013010206/26/06 01:30:31  5-MIN KMKG 260630Z 05008KT 10SM SCT075 OVC110 17/14 A3005 510 80 900 050/08 RMK AO2
14840KMKG MKG20060626013510206/26/06 01:35:31  5-MIN KMKG 260635Z 04008KT 10SM FEW075 OVC110 17/14 A3005 510 80 900 040/08 RMK AO2
14840KMKG MKG20060626014009506/26/06 01:40:31  5-MIN KMKG 260640Z 04009KT 10SM OVC110 17/14 A3005 510 80 900 050/09 RMK AO2
14840KMKG MKG20060626014509506/26/06 01:45:31  5-MIN KMKG 260645Z 04009KT 10SM OVC110 17/14 A3005 510 80 900 050/09 RMK AO2
14840KMKG MKG20060626015011206/26/06 01:50:31  5-MIN KMKG 260650Z 05008KT 10SM OVC110 17/13 A3005 510 78 900 050/08 RMK AO2 SLP175 T01720133
14840KMKG MKG20060626015511206/26/06 01:55:31  5-MIN KMKG 260655Z 05008KT 10SM OVC110 17/13 A3005 510 78 900 050/08 RMK AO2 SLP175 T01720133
14840KMKG MKG20060626020010206/26/06 02:00:31  5-MIN KMKG 260700Z 05009KT 10SM FEW075 OVC110 17/13 A3005 510 78 900 060/09 RMK AO2
14840KMKG MKG20060626020510206/26/06 02:05:31  5-MIN KMKG 260705Z 05006KT 10SM SCT070 OVC110 17/13 A3005 510 80 900 050/06 RMK AO2
14840KMKG MKG20060626021010206/26/06 02:10:31  5-MIN KMKG 260710Z 05009KT 10SM BKN065 OVC110 17/13 A3005 510 78 900 050/09 RMK AO2
14840KMKG MKG20060626021510206/26/06 02:15:31  5-MIN KMKG 260715Z 05007KT 10SM BKN065 OVC110 17/13 A3005 510 78 900 060/07 RMK AO2
14840KMKG MKG20060626022010206/26/06 02:20:31  5-MIN KMKG 260720Z 05009KT 10SM BKN065 OVC110 17/13 A3005 510 77 900 060/09 RMK AO2
14840KMKG MKG20060626022510206/26/06 02:25:31  5-MIN KMKG 260725Z 05008KT 10SM BKN065 OVC080 17/13 A3005 510 77 900 060/08 RMK AO2
14840KMKG MKG20060626023010206/26/06 02:30:31  5-MIN KMKG 260730Z 05008KT 10SM BKN065 OVC085 17/13 A3005 510 77 900 060/08 RMK AO2
14840KMKG MKG20060626023511706/26/06 02:35:31  5-MIN KMKG 260735Z 05008KT 10SM SCT065 OVC085 17/13 A3005 510 77 900 050/08 RMK AO2 CIG 065 RWY 14
14840KMKG MKG20060626024011706/26/06 02:40:31  5-MIN KMKG 260740Z 05008KT 10SM SCT065 OVC085 17/13 A3005 510 77 900 050/08 RMK AO2 CIG 065 RWY 14
14840KMKG MKG20060626024511706/26/06 02:45:31  5-MIN KMKG 260745Z 05007KT 10SM FEW065 OVC085 17/13 A3005 510 77 900 050/07 RMK AO2 CIG 065 RWY 14
14840KMKG MKG20060626025011906/26/06 02:50:31  5-MIN KMKG 260750Z 05008KT 10SM FEW070 OVC085 17/13 A3004 520 77 900 050/08 RMK AO2 SLP173 T01670128
14840KMKG MKG20060626025511206/26/06 02:55:31  5-MIN KMKG 260755Z 05007KT 10SM OVC085 17/13 A3005 520 77 900 050/07 RMK AO2 SLP173 T01670128
14840KMKG MKG20060626030010206/26/06 03:00:31  5-MIN KMKG 260800Z 06007KT 10SM BKN090 OVC100 17/13 A3005 520 77 900 060/07 RMK AO2
14840KMKG MKG20060626030509506/26/06 03:05:31  5-MIN KMKG 260805Z 05008KT 10SM OVC095 17/13 A3004 520 77 900 050/08 RMK AO2
14840KMKG MKG20060626031009506/26/06 03:10:31  5-MIN KMKG 260810Z 05007KT 10SM OVC095 17/12 A3004 520 75 900 060/07 RMK AO2
14840KMKG MKG20060626031510206/26/06 03:15:31  5-MIN KMKG 260815Z 05007KT 10SM FEW065 OVC100 17/12 A3005 510 75 900 060/07 RMK AO2
14840KMKG MKG20060626032010206/26/06 03:20:31  5-MIN KMKG 260820Z 06006KT 10SM SCT070 OVC095 17/12 A3005 510 75 900 060/06 RMK AO2
14840KMKG MKG20060626032510206/26/06 03:25:31  5-MIN KMKG 260825Z 06005KT 10SM SCT070 OVC095 17/12 A3005 510 75 900 060/05 RMK AO2
14840KMKG MKG20060626033010906/26/06 03:30:31  5-MIN KMKG 260830Z 06006KT 10SM FEW050 BKN070 OVC100 17/12 A3005 510 75 900 070/06 RMK AO2
14840KMKG MKG20060626033510906/26/06 03:35:31  5-MIN KMKG 260835Z 06006KT 10SM SCT055 BKN070 OVC095 17/12 A3004 520 75 900 060/06 RMK AO2
14840KMKG MKG20060626034010906/26/06 03:40:31  5-MIN KMKG 260840Z 07006KT 10SM SCT055 BKN070 OVC090 17/12 A3004 520 75 900 070/06 RMK AO2
14840KMKG MKG20060626034510906/26/06 03:45:31  5-MIN KMKG 260845Z 06007KT 10SM FEW055 BKN070 OVC085 17/12 A3004 520 75 900 070/07 RMK AO2
14840KMKG MKG20060626035013206/26/06 03:50:31  5-MIN KMKG 260850Z 06007KT 10SM FEW055 BKN075 OVC085 17/12 A3004 520 75 900 070/07 RMK AO2 SLP170 T01670122 58005
14840KMKG MKG20060626035513206/26/06 03:55:31  5-MIN KMKG 260855Z 06008KT 10SM FEW055 BKN085 OVC100 17/12 A3004 520 75 900 060/08 RMK AO2 SLP170 T01670122 56007
14840KMKG MKG20060626040010906/26/06 04:00:31  5-MIN KMKG 260900Z 05007KT 10SM FEW055 BKN080 OVC100 17/12 A3004 520 75 900 060/07 RMK AO2
14840KMKG MKG20060626040510206/26/06 04:05:31  5-MIN KMKG 260905Z 06008KT 10SM SCT080 OVC100 17/12 A3004 520 75 900 060/08 RMK AO2
14840KMKG MKG20060626041010206/26/06 04:10:31  5-MIN KMKG 260910Z 06006KT 10SM SCT085 OVC100 17/12 A3004 520 75 900 060/06 RMK AO2
14840KMKG MKG20060626041510206/26/06 04:15:31  5-MIN KMKG 260915Z 05006KT 10SM FEW085 OVC100 17/12 A3004 520 75 900 060/06 RMK AO2
14840KMKG MKG20060626042009506/26/06 04:20:31  5-MIN KMKG 260920Z 05007KT 10SM OVC100 17/12 A3004 520 75 900 060/07 RMK AO2
14840KMKG MKG20060626042510206/26/06 04:25:31  5-MIN KMKG 260925Z 05006KT 10SM FEW090 OVC100 17/12 A3004 520 75 900 050/06 RMK AO2
14840KMKG MKG20060626043010206/26/06 04:30:31  5-MIN KMKG 260930Z 05006KT 10SM FEW090 OVC110 17/12 A3004 520 72 900 060/06 RMK AO2
14840KMKG MKG20060626043510206/26/06 04:35:31  5-MIN KMKG 260935Z 05006KT 10SM FEW090 OVC110 17/12 A3004 520 72 900 060/06 RMK AO2
14840KMKG MKG20060626044010206/26/06 04:40:31  5-MIN KMKG 260940Z 05007KT 10SM FEW090 OVC110 17/12 A3004 520 72 900 050/07 RMK AO2
14840KMKG MKG20060626044510206/26/06 04:45:31  5-MIN KMKG 260945Z 05006KT 10SM FEW090 OVC110 17/12 A3004 520 72 900 050/06 RMK AO2
14840KMKG MKG20060626045011906/26/06 04:50:31  5-MIN KMKG 260950Z 05005KT 10SM FEW090 OVC110 17/12 A3004 520 72 900 060/05 RMK AO2 SLP170 T01670117
14840KMKG MKG20060626045511206/26/06 04:55:31  5-MIN KMKG 260955Z 06005KT 10SM OVC110 17/12 A3004 520 72 900 060/05 RMK AO2 SLP171 T01670117
14840KMKG MKG20060626050009506/26/06 05:00:31  5-MIN KMKG 261000Z 06004KT 10SM OVC110 16/12 A3004 520 75 800 060/04 RMK AO2
14840KMKG MKG20060626050510206/26/06 05:05:31  5-MIN KMKG 261005Z 05004KT 10SM FEW080 OVC110 16/12 A3004 520 75 800 060/04 RMK AO2
14840KMKG MKG20060626051010206/26/06 05:10:31  5-MIN KMKG 261010Z 04004KT 10SM FEW080 OVC110 16/12 A3004 520 75 800 040/04 RMK AO2
14840KMKG MKG20060626051510206/26/06 05:15:31  5-MIN KMKG 261015Z 04005KT 10SM FEW080 OVC110 17/12 A3004 520 72 900 050/05 RMK AO2
14840KMKG MKG20060626052010206/26/06 05:20:31  5-MIN KMKG 261020Z 03006KT 10SM FEW080 OVC110 17/12 A3004 520 72 900 040/06 RMK AO2
14840KMKG MKG20060626052510206/26/06 05:25:31  5-MIN KMKG 261025Z 04006KT 10SM FEW080 OVC110 17/12 A3004 520 72 900 050/06 RMK AO2
14840KMKG MKG20060626053010206/26/06 05:30:31  5-MIN KMKG 261030Z 04006KT 10SM FEW080 OVC110 17/12 A3004 520 72 900 050/06 RMK AO2
14840KMKG MKG20060626053509506/26/06 05:35:31  5-MIN KMKG 261035Z 05008KT 10SM OVC110 17/12 A3004 520 72 900 060/08 RMK AO2
14840KMKG MKG20060626054009506/26/06 05:40:31  5-MIN KMKG 261040Z 05006KT 10SM OVC110 17/12 A3004 520 72 900 060/06 RMK AO2
14840KMKG MKG20060626054509506/26/06 05:45:31  5-MIN KMKG 261045Z 05006KT 10SM OVC110 17/12 A3004 520 72 900 050/06 RMK AO2
14840KMKG MKG20060626055011206/26/06 05:50:31  5-MIN KMKG 261050Z 05006KT 10SM OVC110 17/12 A3004 520 72 900 060/06 RMK AO2 SLP169 T01670117
14840KMKG MKG20060626055511206/26/06 05:55:31  5-MIN KMKG 261055Z 05007KT 10SM OVC110 17/12 A3003 530 72 900 060/07 RMK AO2 SLP168 T01670117
14840KMKG MKG20060626060009506/26/06 06:00:31  5-MIN KMKG 261100Z 06006KT 10SM OVC110 17/12 A3003 530 72 900 060/06 RMK AO2
14840KMKG MKG20060626060509506/26/06 06:05:31  5-MIN KMKG 261105Z 05008KT 10SM OVC110 17/12 A3003 530 72 900 060/08 RMK AO2
14840KMKG MKG20060626061009506/26/06 06:10:31  5-MIN KMKG 261110Z 05006KT 10SM OVC110 17/12 A3003 530 72 900 060/06 RMK AO2
14840KMKG MKG20060626061509506/26/06 06:15:31  5-MIN KMKG 261115Z 05008KT 10SM BKN110 17/12 A3003 530 72 900 060/08 RMK AO2
14840KMKG MKG20060626062009506/26/06 06:20:31  5-MIN KMKG 261120Z 05007KT 10SM BKN110 17/12 A3003 530 72 900 060/07 RMK AO2
14840KMKG MKG20060626062509506/26/06 06:25:31  5-MIN KMKG 261125Z 05008KT 10SM BKN110 17/12 A3003 530 72 900 050/08 RMK AO2
14840KMKG MKG20060626063009506/26/06 06:30:31  5-MIN KMKG 261130Z 05006KT 10SM SCT110 17/12 A3003 530 72 900 050/06 RMK AO2
14840KMKG MKG20060626063509506/26/06 06:35:31  5-MIN KMKG 261135Z 05007KT 10SM FEW110 16/12 A3003 530 75 800 050/07 RMK AO2
14840KMKG MKG20060626064009506/26/06 06:40:31  5-MIN KMKG 261140Z 05007KT 10SM FEW110 16/12 A3003 530 75 800 050/07 RMK AO2
14840KMKG MKG20060626064509506/26/06 06:45:31  5-MIN KMKG 261145Z 05007KT 10SM FEW110 16/12 A3003 530 75 800 050/07 RMK AO2
14840KMKG MKG20060626065013606/26/06 06:50:31  5-MIN KMKG 261150Z 03005KT 10SM FEW110 17/12 A3003 530 72 900 040/05 RMK AO2 SLP168 70005 T01670117 10172 20161 56007
14840KMKG MKG20060626065513606/26/06 06:55:31  5-MIN KMKG 261155Z 04007KT 10SM FEW110 17/12 A3003 530 72 900 040/07 RMK AO2 SLP168 70005 T01670117 10172 20161 58003
14840KMKG MKG20060626070009206/26/06 07:00:31  5-MIN KMKG 261200Z 04006KT 10SM CLR 17/12 A3003 530 72 900 050/06 RMK AO2
14840KMKG MKG20060626070509206/26/06 07:05:31  5-MIN KMKG 261205Z 05004KT 10SM CLR 17/12 A3003 530 72 900 050/04 RMK AO2
14840KMKG MKG20060626071009206/26/06 07:10:31  5-MIN KMKG 261210Z 04005KT 10SM CLR 17/12 A3003 530 72 900 050/05 RMK AO2
14840KMKG MKG20060626071509506/26/06 07:15:31  5-MIN KMKG 261215Z 04005KT 10SM FEW110 17/12 A3003 530 72 900 040/05 RMK AO2
14840KMKG MKG20060626072009506/26/06 07:20:31  5-MIN KMKG 261220Z 03006KT 10SM SCT110 17/12 A3003 530 72 900 040/06 RMK AO2
14840KMKG MKG20060626072509506/26/06 07:25:31  5-MIN KMKG 261225Z 03006KT 10SM SCT110 17/12 A3003 530 72 900 030/06 RMK AO2
14840KMKG MKG20060626073009506/26/06 07:30:31  5-MIN KMKG 261230Z 04006KT 10SM BKN110 17/12 A3003 530 72 900 050/06 RMK AO2
14840KMKG MKG20060626073509606/26/06 07:35:31  5-MIN KMKG 261235Z 04006KT 10SM BKN110 18/12 A3003 530 67 1100 040/06 RMK AO2
14840KMKG MKG20060626074009606/26/06 07:40:31  5-MIN KMKG 261240Z 04008KT 10SM BKN110 18/12 A3003 530 67 1100 040/08 RMK AO2
14840KMKG MKG20060626074509606/26/06 07:45:31  5-MIN KMKG 261245Z 06008KT 10SM BKN110 18/12 A3003 530 69 1000 060/08 RMK AO2
14840KMKG MKG20060626075011306/26/06 07:50:31  5-MIN KMKG 261250Z 04007KT 10SM BKN110 18/12 A3003 520 67 1000 040/07 RMK AO2 SLP169 T01780117
14840KMKG MKG20060626075511306/26/06 07:55:31  5-MIN KMKG 261255Z 04006KT 10SM BKN110 18/12 A3004 520 69 1000 040/06 RMK AO2 SLP169 T01780122
14840KMKG MKG20060626080009606/26/06 08:00:31  5-MIN KMKG 261300Z 03006KT 10SM SCT110 18/12 A3004 520 69 1000 030/06 RMK AO2
14840KMKG MKG20060626080509606/26/06 08:05:31  5-MIN KMKG 261305Z 04006KT 10SM SCT110 18/12 A3003 520 69 1000 050/06 RMK AO2
14840KMKG MKG20060626081009606/26/06 08:10:31  5-MIN KMKG 261310Z 04006KT 10SM FEW110 18/12 A3003 530 69 1000 050/06 RMK AO2
14840KMKG MKG20060626081509306/26/06 08:15:31  5-MIN KMKG 261315Z 04007KT 10SM CLR 18/12 A3003 530 67 1100 040/07 RMK AO2
14840KMKG MKG20060626082009306/26/06 08:20:31  5-MIN KMKG 261320Z 05005KT 10SM CLR 18/13 A3003 530 70 1100 050/05 RMK AO2
14840KMKG MKG20060626082509306/26/06 08:25:31  5-MIN KMKG 261325Z 04006KT 10SM CLR 19/13 A3003 530 67 1100 050/06 RMK AO2
14840KMKG MKG20060626083009306/26/06 08:30:31  5-MIN KMKG 261330Z 05006KT 10SM CLR 19/13 A3003 530 67 1100 060/06 RMK AO2
14840KMKG MKG20060626083509306/26/06 08:35:31  5-MIN KMKG 261335Z 04007KT 10SM CLR 19/13 A3003 530 67 1100 050/07 RMK AO2
14840KMKG MKG20060626084009306/26/06 08:40:31  5-MIN KMKG 261340Z 04007KT 10SM CLR 19/13 A3003 530 67 1100 040/07 RMK AO2
14840KMKG MKG20060626084509306/26/06 08:45:31  5-MIN KMKG 261345Z 05007KT 10SM CLR 19/13 A3003 530 67 1100 060/07 RMK AO2
14840KMKG MKG20060626085011306/26/06 08:50:31  5-MIN KMKG 261350Z 05006KT 10SM FEW110 19/13 A3003 530 67 1100 050/06 RMK AO2 SLP167 T01890128
14840KMKG MKG20060626085511306/26/06 08:55:31  5-MIN KMKG 261355Z 05008KT 10SM FEW110 19/13 A3003 530 65 1200 060/08 RMK AO2 SLP166 T01940128
14840KMKG MKG20060626090009306/26/06 09:00:31  5-MIN KMKG 261400Z 05007KT 10SM CLR 20/13 A3003 530 65 1300 050/07 RMK AO2
14840KMKG MKG20060626090509306/26/06 09:05:31  5-MIN KMKG 261405Z 05008KT 10SM CLR 20/13 A3003 530 65 1300 050/08 RMK AO2
14840KMKG MKG20060626091009306/26/06 09:10:31  5-MIN KMKG 261410Z 05008KT 10SM CLR 19/13 A3003 530 65 1200 060/08 RMK AO2
14840KMKG MKG20060626091509306/26/06 09:15:31  5-MIN KMKG 261415Z 04006KT 10SM CLR 19/13 A3003 530 65 1200 040/06 RMK AO2
14840KMKG MKG20060626092009306/26/06 09:20:31  5-MIN KMKG 261420Z 04008KT 10SM CLR 20/13 A3003 530 63 1300 050/08 RMK AO2
14840KMKG MKG20060626092509306/26/06 09:25:31  5-MIN KMKG 261425Z 04007KT 10SM CLR 20/13 A3003 530 63 1300 050/07 RMK AO2
14840KMKG MKG20060626093009306/26/06 09:30:31  5-MIN KMKG 261430Z 04007KT 10SM CLR 20/13 A3003 530 65 1300 040/07 RMK AO2
14840KMKG MKG20060626093509306/26/06 09:35:31  5-MIN KMKG 261435Z 05008KT 10SM CLR 20/13 A3002 530 65 1300 060/08 RMK AO2
14840KMKG MKG20060626094009306/26/06 09:40:31  5-MIN KMKG 261440Z 05006KT 10SM CLR 20/13 A3002 530 65 1300 050/06 RMK AO2
14840KMKG MKG20060626094509306/26/06 09:45:31  5-MIN KMKG 261445Z 05007KT 10SM CLR 20/13 A3002 530 65 1300 060/07 RMK AO2
14840KMKG MKG20060626095011606/26/06 09:50:31  5-MIN KMKG 261450Z 04008KT 10SM CLR 20/13 A3002 530 65 1300 050/08 RMK AO2 SLP165 T02000133 58003
14840KMKG MKG20060626095511906/26/06 09:55:31  5-MIN KMKG 261455Z 05008KT 10SM FEW110 21/13 A3002 540 63 1400 060/08 RMK AO2 SLP163 T02060133 58003
14840KMKG MKG20060626100009306/26/06 10:00:31  5-MIN KMKG 261500Z 05007KT 10SM CLR 21/13 A3002 540 63 1400 050/07 RMK AO2
14840KMKG MKG20060626100509306/26/06 10:05:31  5-MIN KMKG 261505Z 06007KT 10SM CLR 21/14 A3002 540 65 1400 060/07 RMK AO2
14840KMKG MKG20060626101009306/26/06 10:10:31  5-MIN KMKG 261510Z 05007KT 10SM CLR 21/14 A3002 540 63 1400 050/07 RMK AO2
14840KMKG MKG20060626101509306/26/06 10:15:31  5-MIN KMKG 261515Z 04006KT 10SM CLR 22/14 A3002 540 59 1500 040/06 RMK AO2
14840KMKG MKG20060626102009306/26/06 10:20:31  5-MIN KMKG 261520Z 01007KT 10SM CLR 22/14 A3002 540 59 1500 010/07 RMK AO2
14840KMKG MKG20060626102509306/26/06 10:25:31  5-MIN KMKG 261525Z 02007KT 10SM CLR 22/14 A3001 540 61 1500 020/07 RMK AO2
14840KMKG MKG20060626103009306/26/06 10:30:31  5-MIN KMKG 261530Z VRB04KT 10SM CLR 22/14 A3001 540 61 1500 VRB/04 RMK AO2
14840KMKG MKG20060626103509306/26/06 10:35:31  5-MIN KMKG 261535Z 04005KT 10SM CLR 22/14 A3001 540 59 1500 040/05 RMK AO2
14840KMKG MKG20060626104009306/26/06 10:40:31  5-MIN KMKG 261540Z 01006KT 10SM CLR 22/14 A3001 550 61 1600 020/06 RMK AO2
14840KMKG MKG20060626104509306/26/06 10:45:31  5-MIN KMKG 261545Z 05009KT 10SM CLR 23/14 A3001 550 59 1600 050/09 RMK AO2
14840KMKG MKG20060626105011306/26/06 10:50:31  5-MIN KMKG 261550Z 06006KT 10SM FEW110 22/14 A3001 550 61 1600 060/06 RMK AO2 SLP160 T02220144
14840KMKG MKG20060626105511306/26/06 10:55:31  5-MIN KMKG 261555Z 05004KT 10SM FEW110 23/14 A3001 550 59 1600 050/04 RMK AO2 SLP159 T02280144
14840KMKG MKG20060626110009306/26/06 11:00:31  5-MIN KMKG 261600Z 07008KT 10SM CLR 23/14 A3001 550 59 1600 080/08 RMK AO2
14840KMKG MKG20060626110509306/26/06 11:05:31  5-MIN KMKG 261605Z 07007KT 10SM CLR 23/14 A3001 550 59 1600 070/07 RMK AO2
14840KMKG MKG20060626111009306/26/06 11:10:31  5-MIN KMKG 261610Z 08007KT 10SM CLR 23/14 A3001 550 59 1600 080/07 RMK AO2
14840KMKG MKG20060626111509306/26/06 11:15:31  5-MIN KMKG 261615Z 07006KT 10SM CLR 23/14 A3000 550 57 1700 080/06 RMK AO2
14840KMKG MKG20060626112009306/26/06 11:20:31  5-MIN KMKG 261620Z 03007KT 10SM CLR 24/15 A3000 560 57 1800 030/07 RMK AO2
14840KMKG MKG20060626112509306/26/06 11:25:31  5-MIN KMKG 261625Z 05007KT 10SM CLR 24/15 A3000 550 55 1800 050/07 RMK AO2
14840KMKG MKG20060626113009306/26/06 11:30:31  5-MIN KMKG 261630Z 06008KT 10SM CLR 24/15 A3000 560 57 1800 070/08 RMK AO2
14840KMKG MKG20060626113509306/26/06 11:35:31  5-MIN KMKG 261635Z 07008KT 10SM CLR 24/15 A3000 560 55 1800 080/08 RMK AO2
14840KMKG MKG20060626114009306/26/06 11:40:31  5-MIN KMKG 261640Z VRB04KT 10SM CLR 24/15 A3000 560 55 1800 VRB/04 RMK AO2
14840KMKG MKG20060626114509306/26/06 11:45:31  5-MIN KMKG 261645Z VRB06KT 10SM CLR 24/15 A3000 550 55 1800 VRB/06 RMK AO2
14840KMKG MKG20060626115011006/26/06 11:50:31  5-MIN KMKG 261650Z 08006KT 10SM CLR 26/16 A3000 550 53 1900 080/06 RMK AO2 SLP156 T02560156
14840KMKG MKG20060626115511306/26/06 11:55:31  5-MIN KMKG 261655Z 08007KT 10SM FEW040 26/15 A3000 560 51 1900 090/07 RMK AO2 SLP156 T02560150
14840KMKG MKG20060626120009606/26/06 12:00:31  5-MIN KMKG 261700Z 09007KT 10SM FEW033 26/15 A3000 560 51 1900 100/07 RMK AO2
14840KMKG MKG20060626120511206/26/06 12:05:31  5-MIN KMKG 261705Z 07007KT 040V100 10SM SCT033 26/15 A3000 560 51 1900 080/07 040V100 RMK AO2
14840KMKG MKG20060626121009606/26/06 12:10:31  5-MIN KMKG 261710Z 08009KT 10SM FEW033 26/16 A3000 560 51 2000 090/09 RMK AO2
14840KMKG MKG20060626121509606/26/06 12:15:31  5-MIN KMKG 261715Z 07007KT 10SM FEW033 25/15 A3000 560 53 1900 070/07 RMK AO2
14840KMKG MKG20060626122009606/26/06 12:20:31  5-MIN KMKG 261720Z 03007KT 10SM FEW033 26/15 A3000 560 50 2000 030/07 RMK AO2
14840KMKG MKG20060626122509606/26/06 12:25:31  5-MIN KMKG 261725Z VRB03KT 10SM FEW033 25/15 A3000 560 53 1900 VRB/03 RMK AO2
14840KMKG MKG20060626123009606/26/06 12:30:31  5-MIN KMKG 261730Z VRB05KT 10SM FEW033 25/15 A3000 560 53 1900 VRB/05 RMK AO2
14840KMKG MKG20060626123509306/26/06 12:35:31  5-MIN KMKG 261735Z 04005KT 10SM CLR 25/15 A3000 560 53 1900 040/05 RMK AO2
14840KMKG MKG20060626124009606/26/06 12:40:31  5-MIN KMKG 261740Z 29009KT 10SM FEW034 24/15 A3000 560 57 1800 290/09 RMK AO2
14840KMKG MKG20060626124509606/26/06 12:45:31  5-MIN KMKG 261745Z 29010KT 10SM FEW034 23/15 A2999 560 61 1600 290/10 RMK AO2
14840KMKG MKG20060626125013106/26/06 12:50:31  5-MIN KMKG 261750Z 30010KT 10SM FEW034 23/15 A2999 560 61 1600 310/10 RMK AO2 SLP154 T02280150 10261 20167 58003
14840KMKG MKG20060626125513106/26/06 12:55:31  5-MIN KMKG 261755Z 31009KT 10SM BKN036 23/15 A2999 560 61 1600 310/09 RMK AO2 SLP154 T02280150 10261 20167 56009
14840KMKG MKG20060626130010306/26/06 13:00:31  5-MIN KMKG 261800Z 29008KT 10SM FEW036 SCT060 23/14 A2999 560 59 1600 300/08 RMK AO2
14840KMKG MKG20060626130510306/26/06 13:05:31  5-MIN KMKG 261805Z 30010KT 10SM FEW036 SCT060 23/15 A2999 560 59 1700 300/10 RMK AO2
14840KMKG MKG20060626131011006/26/06 13:10:31  5-MIN KMKG 261810Z 30009KT 10SM FEW036 SCT050 SCT055 23/15 A2999 560 59 1700 300/09 RMK AO2
14840KMKG MKG20060626131511006/26/06 13:15:31  5-MIN KMKG 261815Z 29008KT 10SM FEW036 SCT048 BKN055 23/15 A2999 560 61 1600 290/08 RMK AO2
14840KMKG MKG20060626132010306/26/06 13:20:31  5-MIN KMKG 261820Z 27010KT 10SM FEW048 SCT055 23/15 A2999 560 59 1700 280/10 RMK AO2
14840KMKG MKG20060626132511006/26/06 13:25:31  5-MIN KMKG 261825Z 28009KT 10SM FEW045 SCT090 SCT110 23/15 A2999 560 61 1600 290/09 RMK AO2
14840KMKG MKG20060626133011006/26/06 13:30:31  5-MIN KMKG 261830Z 28009KT 10SM FEW044 SCT090 SCT100 23/15 A2999 560 61 1600 290/09 RMK AO2
14840KMKG MKG20060626133510306/26/06 13:35:31  5-MIN KMKG 261835Z 28009KT 10SM FEW047 SCT100 23/16 A2999 570 63 1600 290/09 RMK AO2
14840KMKG MKG20060626134009606/26/06 13:40:31  5-MIN KMKG 261840Z 29009KT 10SM FEW095 23/15 A2999 570 61 1600 290/09 RMK AO2
14840KMKG MKG20060626134509606/26/06 13:45:31  5-MIN KMKG 261845Z 29011KT 10SM FEW100 23/15 A2999 570 59 1700 290/11 RMK AO2
14840KMKG MKG20060626135011306/26/06 13:50:31  5-MIN KMKG 261850Z 29009KT 10SM FEW100 23/15 A2999 570 61 1600 290/09 RMK AO2 SLP153 T02280150
14840KMKG MKG20060626135511306/26/06 13:55:31  5-MIN KMKG 261855Z 29008KT 10SM FEW036 23/16 A2999 570 61 1700 290/08 RMK AO2 SLP153 T02330156
14840KMKG MKG20060626140009606/26/06 14:00:31  5-MIN KMKG 261900Z 30009KT 10SM FEW039 23/15 A2999 570 61 1600 300/09 RMK AO2
14840KMKG MKG20060626140509606/26/06 14:05:31  5-MIN KMKG 261905Z 29008KT 10SM SCT037 23/15 A2999 570 61 1600 290/08 RMK AO2
14840KMKG MKG20060626141009606/26/06 14:10:31  5-MIN KMKG 261910Z 28009KT 10SM SCT037 22/15 A2999 570 63 1600 290/09 RMK AO2
14840KMKG MKG20060626141509606/26/06 14:15:31  5-MIN KMKG 261915Z 29009KT 10SM FEW037 22/15 A2999 570 63 1600 300/09 RMK AO2
14840KMKG MKG20060626142009606/26/06 14:20:31  5-MIN KMKG 261920Z 30009KT 10SM FEW037 23/15 A2998 570 61 1600 300/09 RMK AO2
14840KMKG MKG20060626142509606/26/06 14:25:31  5-MIN KMKG 261925Z 29010KT 10SM FEW037 23/15 A2998 570 61 1600 290/10 RMK AO2
14840KMKG MKG20060626143009606/26/06 14:30:31  5-MIN KMKG 261930Z 30009KT 10SM FEW037 23/16 A2998 570 63 1600 300/09 RMK AO2
14840KMKG MKG20060626143509306/26/06 14:35:31  5-MIN KMKG 261935Z 30009KT 10SM CLR 23/16 A2998 570 63 1600 310/09 RMK AO2
14840KMKG MKG20060626144009306/26/06 14:40:31  5-MIN KMKG 261940Z 29009KT 10SM CLR 22/16 A2998 570 65 1600 290/09 RMK AO2
14840KMKG MKG20060626144509306/26/06 14:45:31  5-MIN KMKG 261945Z 29009KT 10SM CLR 22/16 A2998 580 65 1600 290/09 RMK AO2
14840KMKG MKG20060626145011006/26/06 14:50:31  5-MIN KMKG 261950Z 30010KT 10SM CLR 22/16 A2998 580 65 1600 300/10 RMK AO2 SLP150 T02220156
14840KMKG MKG20060626145511006/26/06 14:55:31  5-MIN KMKG 261955Z 30009KT 10SM CLR 23/16 A2998 580 63 1700 300/09 RMK AO2 SLP150 T02280156
14840KMKG MKG20060626150009306/26/06 15:00:31  5-MIN KMKG 262000Z 30010KT 10SM CLR 24/16 A2998 580 61 1800 300/10 RMK AO2
14840KMKG MKG20060626150509306/26/06 15:05:31  5-MIN KMKG 262005Z 29010KT 10SM CLR 24/16 A2998 580 57 1800 300/10 RMK AO2
14840KMKG MKG20060626151009306/26/06 15:10:31  5-MIN KMKG 262010Z 30010KT 10SM CLR 24/16 A2998 580 57 1800 300/10 RMK AO2
14840KMKG MKG20060626151509306/26/06 15:15:31  5-MIN KMKG 262015Z 30010KT 10SM CLR 24/16 A2997 580 57 1800 300/10 RMK AO2
14840KMKG MKG20060626152009606/26/06 15:20:31  5-MIN KMKG 262020Z 29009KT 10SM FEW036 24/16 A2997 580 59 1800 300/09 RMK AO2
14840KMKG MKG20060626152509606/26/06 15:25:31  5-MIN KMKG 262025Z 29010KT 10SM FEW036 24/16 A2997 580 61 1800 290/10 RMK AO2
14840KMKG MKG20060626153009606/26/06 15:30:31  5-MIN KMKG 262030Z 28009KT 10SM FEW036 24/16 A2997 590 59 1900 290/09 RMK AO2
14840KMKG MKG20060626153509606/26/06 15:35:31  5-MIN KMKG 262035Z 30010KT 10SM FEW036 24/16 A2997 590 59 1800 300/10 RMK AO2
14840KMKG MKG20060626154009606/26/06 15:40:31  5-MIN KMKG 262040Z 30009KT 10SM FEW036 24/16 A2996 590 59 1900 310/09 RMK AO2
14840KMKG MKG20060626154509606/26/06 15:45:31  5-MIN KMKG 262045Z 30008KT 10SM FEW036 24/16 A2996 590 61 1800 300/08 RMK AO2
14840KMKG MKG20060626155011906/26/06 15:50:31  5-MIN KMKG 262050Z 30007KT 10SM FEW036 24/16 A2996 590 61 1800 310/07 RMK AO2 SLP143 T02390161 56009
14840KMKG MKG20060626155511906/26/06 15:55:31  5-MIN KMKG 262055Z 31006KT 10SM FEW036 25/16 A2996 600 57 1900 310/06 RMK AO2 SLP142 T02500161 58012
14840KMKG MKG20060626160009306/26/06 16:00:31  5-MIN KMKG 262100Z 30008KT 10SM CLR 24/16 A2996 590 59 1900 300/08 RMK AO2
14840KMKG MKG20060626160509306/26/06 16:05:31  5-MIN KMKG 262105Z 32007KT 10SM CLR 25/16 A2996 600 57 1900 320/07 RMK AO2
14840KMKG MKG20060626161009606/26/06 16:10:31  5-MIN KMKG 262110Z 33008KT 10SM FEW039 25/16 A2996 600 57 1900 330/08 RMK AO2
14840KMKG MKG20060626161509606/26/06 16:15:31  5-MIN KMKG 262115Z 33011KT 10SM FEW039 25/17 A2995 600 59 1900 340/11 RMK AO2
14840KMKG MKG20060626162009606/26/06 16:20:31  5-MIN KMKG 262120Z 33008KT 10SM FEW039 25/17 A2995 600 59 1900 330/08 RMK AO2
14840KMKG MKG20060626162509606/26/06 16:25:31  5-MIN KMKG 262125Z 35010KT 10SM FEW039 26/17 A2995 600 57 2000 360/10 RMK AO2
14840KMKG MKG20060626163009606/26/06 16:30:31  5-MIN KMKG 262130Z 36011KT 10SM FEW039 26/16 A2995 600 55 2000 360/11 RMK AO2
14840KMKG MKG20060626163509606/26/06 16:35:31  5-MIN KMKG 262135Z 34012KT 10SM FEW039 25/16 A2995 600 57 1900 340/12 RMK AO2
14840KMKG MKG20060626164009606/26/06 16:40:31  5-MIN KMKG 262140Z 01010KT 10SM FEW039 25/16 A2995 600 57 1900 010/10 RMK AO2
14840KMKG MKG20060626164509606/26/06 16:45:31  5-MIN KMKG 262145Z 35012KT 10SM FEW039 25/16 A2995 600 57 1900 350/12 RMK AO2
14840KMKG MKG20060626165011306/26/06 16:50:31  5-MIN KMKG 262150Z 35011KT 10SM FEW039 25/16 A2995 600 55 1900 360/11 RMK AO2 SLP141 T02500156
14840KMKG MKG20060626165511306/26/06 16:55:31  5-MIN KMKG 262155Z 02010KT 10SM FEW039 25/16 A2995 600 55 1900 020/10 RMK AO2 SLP140 T02500156
14840KMKG MKG20060626170009306/26/06 17:00:31  5-MIN KMKG 262200Z 36010KT 10SM CLR 24/16 A2995 600 57 1900 010/10 RMK AO2
14840KMKG MKG20060626170509306/26/06 17:05:31  5-MIN KMKG 262205Z 03013KT 10SM CLR 24/16 A2995 600 57 1900 030/13 RMK AO2
14840KMKG MKG20060626171009906/26/06 17:10:31  5-MIN KMKG 262210Z 36009G16KT 10SM CLR 24/16 A2995 610 57 1900 360/09G16 RMK AO2
14840KMKG MKG20060626171509306/26/06 17:15:31  5-MIN KMKG 262215Z 36011KT 10SM CLR 24/16 A2994 610 57 1900 360/11 RMK AO2
14840KMKG MKG20060626172009306/26/06 17:20:31  5-MIN KMKG 262220Z 36010KT 10SM CLR 24/15 A2995 610 55 1900 360/10 RMK AO2
14840KMKG MKG20060626172509306/26/06 17:25:31  5-MIN KMKG 262225Z 02009KT 10SM CLR 24/14 A2994 610 53 1900 020/09 RMK AO2
14840KMKG MKG20060626173009306/26/06 17:30:31  5-MIN KMKG 262230Z 02007KT 10SM CLR 24/14 A2994 610 51 1900 030/07 RMK AO2
14840KMKG MKG20060626173509306/26/06 17:35:31  5-MIN KMKG 262235Z 02007KT 10SM CLR 25/13 A2994 610 48 1900 020/07 RMK AO2
14840KMKG MKG20060626174009306/26/06 17:40:31  5-MIN KMKG 262240Z 01007KT 10SM CLR 25/14 A2994 610 49 2000 010/07 RMK AO2
14840KMKG MKG20060626174509306/26/06 17:45:31  5-MIN KMKG 262245Z 35006KT 10SM CLR 24/13 A2993 620 49 1900 360/06 RMK AO2
14840KMKG MKG20060626175011006/26/06 17:50:31  5-MIN KMKG 262250Z 01006KT 10SM CLR 25/13 A2993 620 48 2000 010/06 RMK AO2 SLP134 T02500133
14840KMKG MKG20060626175511306/26/06 17:55:31  5-MIN KMKG 262255Z 02007KT 10SM FEW045 25/13 A2993 620 48 2000 030/07 RMK AO2 SLP134 T02500133
14840KMKG MKG20060626180009306/26/06 18:00:31  5-MIN KMKG 262300Z 03005KT 10SM CLR 24/13 A2993 620 49 1900 030/05 RMK AO2
14840KMKG MKG20060626180509306/26/06 18:05:31  5-MIN KMKG 262305Z 01006KT 10SM CLR 25/14 A2993 620 49 2000 020/06 RMK AO2
14840KMKG MKG20060626181009306/26/06 18:10:31  5-MIN KMKG 262310Z 02006KT 10SM CLR 24/13 A2993 620 49 1900 030/06 RMK AO2
14840KMKG MKG20060626181509306/26/06 18:15:31  5-MIN KMKG 262315Z 35006KT 10SM CLR 24/13 A2993 620 49 1900 350/06 RMK AO2
14840KMKG MKG20060626182009306/26/06 18:20:31  5-MIN KMKG 262320Z 36007KT 10SM CLR 24/13 A2993 620 49 1900 360/07 RMK AO2
14840KMKG MKG20060626182509306/26/06 18:25:31  5-MIN KMKG 262325Z 36008KT 10SM CLR 24/13 A2993 620 47 1900 360/08 RMK AO2
14840KMKG MKG20060626183009306/26/06 18:30:31  5-MIN KMKG 262330Z 36007KT 10SM CLR 24/13 A2994 620 47 1900 360/07 RMK AO2
14840KMKG MKG20060626183509306/26/06 18:35:31  5-MIN KMKG 262335Z 35009KT 10SM CLR 24/13 A2993 620 51 1800 350/09 RMK AO2
14840KMKG MKG20060626184009306/26/06 18:40:31  5-MIN KMKG 262340Z 35010KT 10SM CLR 24/13 A2993 620 49 1800 350/10 RMK AO2
14840KMKG MKG20060626184509306/26/06 18:45:31  5-MIN KMKG 262345Z 35009KT 10SM CLR 24/12 A2993 620 47 1800 350/09 RMK AO2
14840KMKG MKG20060626185012806/26/06 18:50:31  5-MIN KMKG 262350Z 35009KT 10SM CLR 23/12 A2993 620 49 1800 360/09 RMK AO2 SLP133 T02330122 10256 20222 58012
14840KMKG MKG20060626185512806/26/06 18:55:31  5-MIN KMKG 262355Z 35008KT 10SM CLR 23/13 A2993 620 51 1800 350/08 RMK AO2 SLP133 T02330128 10256 20222 56009
14840KMKG MKG20060626190009306/26/06 19:00:31  5-MIN KMKG 270000Z 35007KT 10SM CLR 23/13 A2993 620 53 1800 350/07 RMK AO2
14840KMKG MKG20060626190509306/26/06 19:05:31  5-MIN KMKG 270005Z 34007KT 10SM CLR 23/14 A2993 620 57 1800 350/07 RMK AO2
14840KMKG MKG20060626191009306/26/06 19:10:31  5-MIN KMKG 270010Z 36008KT 10SM CLR 23/14 A2994 620 57 1700 360/08 RMK AO2
14840KMKG MKG20060626191509306/26/06 19:15:31  5-MIN KMKG 270015Z 01007KT 10SM CLR 23/14 A2994 620 59 1700 020/07 RMK AO2
14840KMKG MKG20060626192009306/26/06 19:20:31  5-MIN KMKG 270020Z 03007KT 10SM CLR 23/14 A2994 620 59 1700 030/07 RMK AO2
14840KMKG MKG20060626192509306/26/06 19:25:31  5-MIN KMKG 270025Z 01006KT 10SM CLR 22/15 A2993 620 63 1600 010/06 RMK AO2
14840KMKG MKG20060626193009306/26/06 19:30:31  5-MIN KMKG 270030Z 36006KT 10SM CLR 22/15 A2994 620 63 1600 010/06 RMK AO2
14840KMKG MKG20060626193509306/26/06 19:35:31  5-MIN KMKG 270035Z 36009KT 10SM CLR 22/15 A2994 610 65 1600 010/09 RMK AO2
14840KMKG MKG20060626194009306/26/06 19:40:31  5-MIN KMKG 270040Z 01008KT 10SM CLR 22/16 A2994 610 68 1600 010/08 RMK AO2
14840KMKG MKG20060626194509306/26/06 19:45:31  5-MIN KMKG 270045Z 36007KT 10SM CLR 21/15 A2994 610 68 1500 010/07 RMK AO2
14840KMKG MKG20060626195011006/26/06 19:50:31  5-MIN KMKG 270050Z 02006KT 10SM CLR 21/15 A2994 610 68 1500 020/06 RMK AO2 SLP136 T02110150
14840KMKG MKG20060626195511006/26/06 19:55:31  5-MIN KMKG 270055Z 01005KT 10SM CLR 21/15 A2994 610 68 1500 010/05 RMK AO2 SLP136 T02110150
14840KMKG MKG20060626200009306/26/06 20:00:31  5-MIN KMKG 270100Z 01006KT 10SM CLR 21/15 A2994 610 68 1500 020/06 RMK AO2
14840KMKG MKG20060626200509306/26/06 20:05:31  5-MIN KMKG 270105Z 01006KT 10SM CLR 21/15 A2994 610 70 1400 020/06 RMK AO2
14840KMKG MKG20060626201009306/26/06 20:10:31  5-MIN KMKG 270110Z 02005KT 10SM CLR 21/15 A2994 610 70 1400 020/05 RMK AO2
14840KMKG MKG20060626201509306/26/06 20:15:31  5-MIN KMKG 270115Z 01005KT 10SM CLR 21/15 A2994 610 70 1400 010/05 RMK AO2
14840KMKG MKG20060626202009306/26/06 20:20:31  5-MIN KMKG 270120Z 01005KT 10SM CLR 20/15 A2993 620 72 1400 010/05 RMK AO2
14840KMKG MKG20060626202509306/26/06 20:25:31  5-MIN KMKG 270125Z 35006KT 10SM CLR 20/15 A2993 620 72 1400 360/06 RMK AO2
14840KMKG MKG20060626203009306/26/06 20:30:31  5-MIN KMKG 270130Z 36005KT 10SM CLR 20/16 A2993 620 75 1400 010/05 RMK AO2
14840KMKG MKG20060626203509306/26/06 20:35:31  5-MIN KMKG 270135Z 36005KT 10SM CLR 19/15 A2993 620 75 1300 010/05 RMK AO2
14840KMKG MKG20060626204009306/26/06 20:40:31  5-MIN KMKG 270140Z 01004KT 10SM CLR 19/15 A2993 620 75 1300 010/04 RMK AO2
14840KMKG MKG20060626204509306/26/06 20:45:31  5-MIN KMKG 270145Z 01005KT 10SM CLR 19/15 A2994 610 75 1300 010/05 RMK AO2
14840KMKG MKG20060626205011006/26/06 20:50:31  5-MIN KMKG 270150Z 01005KT 10SM CLR 19/16 A2994 620 78 1300 020/05 RMK AO2 SLP135 T01940156
14840KMKG MKG20060626205511006/26/06 20:55:31  5-MIN KMKG 270155Z 02004KT 10SM CLR 19/16 A2994 610 78 1300 020/04 RMK AO2 SLP136 T01940156
14840KMKG MKG20060626210009306/26/06 21:00:31  5-MIN KMKG 270200Z 01004KT 10SM CLR 19/15 A2994 610 75 1300 020/04 RMK AO2
14840KMKG MKG20060626210509306/26/06 21:05:31  5-MIN KMKG 270205Z 01003KT 10SM CLR 19/15 A2994 610 78 1200 010/03 RMK AO2
14840KMKG MKG20060626211009306/26/06 21:10:31  5-MIN KMKG 270210Z 36003KT 10SM CLR 19/15 A2994 610 75 1300 010/03 RMK AO2
14840KMKG MKG20060626211509306/26/06 21:15:31  5-MIN KMKG 270215Z 00000KT 10SM CLR 19/16 A2995 610 78 1300 000/00 RMK AO2
14840KMKG MKG20060626212009306/26/06 21:20:31  5-MIN KMKG 270220Z 03005KT 10SM CLR 19/16 A2995 600 78 1300 040/05 RMK AO2
14840KMKG MKG20060626212509306/26/06 21:25:31  5-MIN KMKG 270225Z 01004KT 10SM CLR 19/15 A2995 610 78 1200 020/04 RMK AO2
14840KMKG MKG20060626213009306/26/06 21:30:31  5-MIN KMKG 270230Z 01005KT 10SM CLR 19/15 A2995 600 78 1200 010/05 RMK AO2
14840KMKG MKG20060626213509606/26/06 21:35:31  5-MIN KMKG 270235Z 01005KT 10SM FEW110 18/15 A2995 600 81 1200 010/05 RMK AO2
14840KMKG MKG20060626214009606/26/06 21:40:31  5-MIN KMKG 270240Z 01005KT 10SM FEW110 18/15 A2995 600 81 1200 010/05 RMK AO2
14840KMKG MKG20060626214509606/26/06 21:45:31  5-MIN KMKG 270245Z 01004KT 10SM FEW110 18/15 A2995 600 81 1200 020/04 RMK AO2
14840KMKG MKG20060626215011906/26/06 21:50:31  5-MIN KMKG 270250Z 01004KT 10SM FEW110 18/15 A2995 600 81 1200 020/04 RMK AO2 SLP140 T01830150 56009
14840KMKG MKG20060626215511906/26/06 21:55:31  5-MIN KMKG 270255Z 02005KT 10SM FEW110 18/15 A2995 600 81 1200 020/05 RMK AO2 SLP140 T01830150 53007
14840KMKG MKG20060626220009306/26/06 22:00:31  5-MIN KMKG 270300Z 02005KT 10SM CLR 18/15 A2995 600 83 1100 020/05 RMK AO2
14840KMKG MKG20060626220509306/26/06 22:05:31  5-MIN KMKG 270305Z 02005KT 10SM CLR 18/16 A2996 600 87 1100 020/05 RMK AO2
14840KMKG MKG20060626221009306/26/06 22:10:31  5-MIN KMKG 270310Z 02003KT 10SM CLR 18/16 A2995 600 87 1100 020/03 RMK AO2
14840KMKG MKG20060626221509306/26/06 22:15:31  5-MIN KMKG 270315Z 02004KT 10SM CLR 18/16 A2995 600 87 1100 030/04 RMK AO2
14840KMKG MKG20060626222009306/26/06 22:20:31  5-MIN KMKG 270320Z 02003KT 10SM CLR 18/16 A2995 600 87 1100 020/03 RMK AO2
14840KMKG MKG20060626222509306/26/06 22:25:31  5-MIN KMKG 270325Z 02004KT 10SM CLR 18/16 A2995 600 87 1100 030/04 RMK AO2
14840KMKG MKG20060626223009606/26/06 22:30:31  5-MIN KMKG 270330Z 01003KT 10SM FEW110 18/16 A2995 600 87 1100 020/03 RMK AO2
14840KMKG MKG20060626223509606/26/06 22:35:31  5-MIN KMKG 270335Z 02003KT 10SM SCT110 18/16 A2995 600 87 1100 020/03 RMK AO2
14840KMKG MKG20060626224009606/26/06 22:40:31  5-MIN KMKG 270340Z 01003KT 10SM BKN110 18/16 A2995 600 87 1100 010/03 RMK AO2
14840KMKG MKG20060626224509606/26/06 22:45:31  5-MIN KMKG 270345Z 02003KT 10SM BKN110 18/16 A2995 600 87 1100 030/03 RMK AO2
14840KMKG MKG20060626225011306/26/06 22:50:31  5-MIN KMKG 270350Z 03003KT 10SM BKN110 18/16 A2995 600 87 1100 040/03 RMK AO2 SLP139 T01780156
14840KMKG MKG20060626225511306/26/06 22:55:31  5-MIN KMKG 270355Z 00000KT 10SM OVC110 18/16 A2995 600 87 1100 000/00 RMK AO2 SLP139 T01780156
14840KMKG MKG20060626230009606/26/06 23:00:31  5-MIN KMKG 270400Z 00000KT 10SM OVC110 18/16 A2995 600 87 1100 000/00 RMK AO2
14840KMKG MKG20060626230509606/26/06 23:05:31  5-MIN KMKG 270405Z 01003KT 10SM OVC110 18/16 A2995 600 87 1100 010/03 RMK AO2
14840KMKG MKG20060626231009606/26/06 23:10:31  5-MIN KMKG 270410Z 02004KT 10SM BKN110 17/16 A2995 600 90 1000 020/04 RMK AO2
14840KMKG MKG20060626231509606/26/06 23:15:31  5-MIN KMKG 270415Z 01003KT 10SM BKN110 17/16 A2995 600 90 1000 020/03 RMK AO2
14840KMKG MKG20060626232009606/26/06 23:20:31  5-MIN KMKG 270420Z 02003KT 10SM SCT110 18/16 A2995 600 87 1100 020/03 RMK AO2
14840KMKG MKG20060626232509606/26/06 23:25:31  5-MIN KMKG 270425Z 00000KT 10SM FEW110 17/16 A2995 600 90 1000 000/00 RMK AO2
14840KMKG MKG20060626233009606/26/06 23:30:31  5-MIN KMKG 270430Z 00000KT 10SM FEW110 18/16 A2995 600 87 1100 000/00 RMK AO2
14840KMKG MKG20060626233509606/26/06 23:35:31  5-MIN KMKG 270435Z 00000KT 10SM SCT110 17/16 A2995 610 90 1000 000/00 RMK AO2
14840KMKG MKG20060626234009606/26/06 23:40:31  5-MIN KMKG 270440Z 00000KT 10SM SCT110 17/16 A2994 610 90 1100 000/00 RMK AO2
14840KMKG MKG20060626234509606/26/06 23:45:31  5-MIN KMKG 270445Z 00000KT 10SM BKN110 17/16 A2994 610 90 1100 000/00 RMK AO2
14840KMKG MKG20060626235012306/26/06 23:50:31  5-MIN KMKG 270450Z 00000KT 10SM BKN110 17/16 A2994 610 90 1100 000/00 RMK AO2 SLP136 T01720156 402610161
14840KMKG MKG20060626235512206/26/06 23:55:31  5-MIN KMKG 270455Z 36003KT 9SM BKN110 17/16 A2994 610 90 1100 360/03 RMK AO2 SLP136 T01720156 402610161
14840KMKG MKG20060627000009506/27/06 00:00:32  5-MIN KMKG 270500Z 01005KT 7SM OVC110 17/16 A2994 610 90 1100 010/05 RMK AO2
14840KMKG MKG20060627000509506/27/06 00:05:31  5-MIN KMKG 270505Z 36004KT 7SM OVC110 17/16 A2994 610 93 1100 360/04 RMK AO2
14840KMKG MKG20060627001009506/27/06 00:10:31  5-MIN KMKG 270510Z 35004KT 7SM OVC110 17/16 A2994 610 93 1100 350/04 RMK AO2
14840KMKG MKG20060627001509506/27/06 00:15:31  5-MIN KMKG 270515Z 01005KT 7SM OVC110 17/16 A2994 610 93 1100 010/05 RMK AO2
14840KMKG MKG20060627002009506/27/06 00:20:31  5-MIN KMKG 270520Z 35004KT 7SM OVC110 17/16 A2993 620 93 1100 350/04 RMK AO2
14840KMKG MKG20060627002509506/27/06 00:25:31  5-MIN KMKG 270525Z 34005KT 7SM BKN110 17/16 A2993 620 90 1100 340/05 RMK AO2
14840KMKG MKG20060627003009506/27/06 00:30:31  5-MIN KMKG 270530Z 32003KT 8SM BKN110 17/16 A2993 620 90 1100 320/03 RMK AO2
14840KMKG MKG20060627003509506/27/06 00:35:31  5-MIN KMKG 270535Z 33003KT 8SM SCT110 17/16 A2993 620 93 1100 330/03 RMK AO2
14840KMKG MKG20060627004009506/27/06 00:40:31  5-MIN KMKG 270540Z 34003KT 9SM FEW110 17/16 A2993 620 93 1100 340/03 RMK AO2
14840KMKG MKG20060627004509506/27/06 00:45:31  5-MIN KMKG 270545Z 01003KT 9SM FEW110 17/16 A2994 610 90 1100 010/03 RMK AO2
14840KMKG MKG20060627005012706/27/06 00:50:31  5-MIN KMKG 270550Z 02004KT 9SM CLR 17/16 A2994 610 90 1100 030/04 RMK AO2 SLP136 T01720156 10233 20172 53007
14840KMKG MKG20060627005512806/27/06 00:55:31  5-MIN KMKG 270555Z 01004KT 10SM CLR 17/16 A2994 610 90 1100 020/04 RMK AO2 SLP135 T01720156 10233 20172 58004
14840KMKG MKG20060627010009206/27/06 01:00:31  5-MIN KMKG 270600Z 35004KT 9SM CLR 17/16 A2994 620 93 1000 350/04 RMK AO2
14840KMKG MKG20060627010509106/27/06 01:05:31  5-MIN KMKG 270605Z 34005KT 9SM CLR 16/15 A2994 610 93 900 340/05 RMK AO2
14840KMKG MKG20060627011009206/27/06 01:10:31  5-MIN KMKG 270610Z 33005KT 9SM CLR 17/16 A2994 610 93 1000 340/05 RMK AO2
14840KMKG MKG20060627011509206/27/06 01:15:31  5-MIN KMKG 270615Z 33004KT 9SM CLR 17/16 A2994 620 93 1000 340/04 RMK AO2
14840KMKG MKG20060627012009206/27/06 01:20:31  5-MIN KMKG 270620Z 33004KT 8SM CLR 17/16 A2993 620 93 1000 330/04 RMK AO2
14840KMKG MKG20060627012509206/27/06 01:25:31  5-MIN KMKG 270625Z 34005KT 8SM CLR 17/16 A2993 620 93 1000 340/05 RMK AO2
14840KMKG MKG20060627013009206/27/06 01:30:31  5-MIN KMKG 270630Z 34003KT 8SM CLR 17/16 A2993 620 93 1000 340/03 RMK AO2
14840KMKG MKG20060627013509206/27/06 01:35:31  5-MIN KMKG 270635Z 03003KT 8SM CLR 17/16 A2993 620 93 1000 030/03 RMK AO2
14840KMKG MKG20060627014009206/27/06 01:40:31  5-MIN KMKG 270640Z 03003KT 8SM CLR 17/16 A2993 620 96 1000 030/03 RMK AO2
14840KMKG MKG20060627014509206/27/06 01:45:31  5-MIN KMKG 270645Z 03003KT 8SM CLR 17/16 A2993 620 93 1100 030/03 RMK AO2
14840KMKG MKG20060627015010906/27/06 01:50:31  5-MIN KMKG 270650Z 00000KT 8SM CLR 17/16 A2993 620 93 1000 000/00 RMK AO2 SLP133 T01670156
14840KMKG MKG20060627015510906/27/06 01:55:31  5-MIN KMKG 270655Z 00000KT 8SM CLR 17/16 A2993 620 93 1000 000/00 RMK AO2 SLP132 T01670156
14840KMKG MKG20060627020009206/27/06 02:00:31  5-MIN KMKG 270700Z 02003KT 8SM CLR 17/16 A2992 630 93 1000 030/03 RMK AO2
14840KMKG MKG20060627020509206/27/06 02:05:31  5-MIN KMKG 270705Z 01003KT 7SM CLR 17/16 A2992 630 93 1000 010/03 RMK AO2
14840KMKG MKG20060627021009106/27/06 02:10:31  5-MIN KMKG 270710Z 34004KT 7SM CLR 16/16 A2992 630 96 900 340/04 RMK AO2
14840KMKG MKG20060627021509406/27/06 02:15:31  5-MIN KMKG 270715Z 34005KT 6SM BR CLR 16/16 A2992 630 96 900 350/05 RMK AO2
14840KMKG MKG20060627022009406/27/06 02:20:31  5-MIN KMKG 270720Z 36004KT 6SM BR CLR 16/16 A2992 630 96 900 010/04 RMK AO2
14840KMKG MKG20060627022509206/27/06 02:25:31  5-MIN KMKG 270725Z 03003KT 8SM CLR 17/16 A2993 630 93 1000 030/03 RMK AO2
14840KMKG MKG20060627023009106/27/06 02:30:31  5-MIN KMKG 270730Z 00000KT 7SM CLR 16/15 A2993 630 93 900 000/00 RMK AO2
14840KMKG MKG20060627023509406/27/06 02:35:31  5-MIN KMKG 270735Z 00000KT 6SM BR CLR 16/15 A2993 620 93 900 000/00 RMK AO2
14840KMKG MKG20060627024009406/27/06 02:40:31  5-MIN KMKG 270740Z 00000KT 5SM BR CLR 16/15 A2992 630 93 900 000/00 RMK AO2
14840KMKG MKG20060627024509406/27/06 02:45:31  5-MIN KMKG 270745Z 00000KT 5SM BR CLR 16/15 A2992 630 93 900 000/00 RMK AO2
14840KMKG MKG20060627025011106/27/06 02:50:31  5-MIN KMKG 270750Z 00000KT 5SM BR CLR 16/15 A2992 630 93 900 000/00 RMK AO2 SLP130 T01610150
14840KMKG MKG20060627025511106/27/06 02:55:31  5-MIN KMKG 270755Z 00000KT 4SM BR CLR 16/15 A2992 630 96 900 000/00 RMK AO2 SLP130 T01560150
14840KMKG MKG20060627030009406/27/06 03:00:31  5-MIN KMKG 270800Z 36003KT 5SM BR CLR 16/14 A2992 630 93 900 360/03 RMK AO2
14840KMKG MKG20060627030509406/27/06 03:05:31  5-MIN KMKG 270805Z 35003KT 6SM BR CLR 16/15 A2992 630 96 900 360/03 RMK AO2
14840KMKG MKG20060627031009406/27/06 03:10:31  5-MIN KMKG 270810Z 00000KT 6SM BR CLR 16/15 A2992 630 96 900 000/00 RMK AO2
14840KMKG MKG20060627031509406/27/06 03:15:31  5-MIN KMKG 270815Z 34004KT 6SM BR CLR 16/15 A2992 630 96 900 340/04 RMK AO2
14840KMKG MKG20060627032009406/27/06 03:20:31  5-MIN KMKG 270820Z 33004KT 6SM BR CLR 16/14 A2992 630 93 900 340/04 RMK AO2
14840KMKG MKG20060627032509106/27/06 03:25:31  5-MIN KMKG 270825Z 33006KT 7SM CLR 16/15 A2992 630 93 900 330/06 RMK AO2
14840KMKG MKG20060627033009206/27/06 03:30:31  5-MIN KMKG 270830Z 34005KT 8SM CLR 16/15 A2992 630 93 1000 340/05 RMK AO2
14840KMKG MKG20060627033509106/27/06 03:35:31  5-MIN KMKG 270835Z 32004KT 9SM CLR 16/15 A2992 630 93 900 330/04 RMK AO2
14840KMKG MKG20060627034009106/27/06 03:40:31  5-MIN KMKG 270840Z 32004KT 9SM CLR 16/15 A2992 630 93 900 330/04 RMK AO2
14840KMKG MKG20060627034509106/27/06 03:45:31  5-MIN KMKG 270845Z 32004KT 9SM CLR 16/15 A2992 630 93 900 320/04 RMK AO2
14840KMKG MKG20060627035011406/27/06 03:50:31  5-MIN KMKG 270850Z 34004KT 9SM CLR 16/15 A2992 630 93 900 340/04 RMK AO2 SLP129 T01610150 58004
14840KMKG MKG20060627035511406/27/06 03:55:31  5-MIN KMKG 270855Z 36004KT 8SM CLR 16/15 A2992 630 93 900 360/04 RMK AO2 SLP129 T01610150 56006
14840KMKG MKG20060627040009106/27/06 04:00:31  5-MIN KMKG 270900Z 00000KT 8SM CLR 16/15 A2992 630 93 900 000/00 RMK AO2
14840KMKG MKG20060627040509106/27/06 04:05:31  5-MIN KMKG 270905Z 00000KT 8SM CLR 16/15 A2992 630 93 900 000/00 RMK AO2
14840KMKG MKG20060627041009106/27/06 04:10:31  5-MIN KMKG 270910Z 02003KT 9SM CLR 16/15 A2992 630 93 900 020/03 RMK AO2
14840KMKG MKG20060627041509106/27/06 04:15:31  5-MIN KMKG 270915Z 00000KT 9SM CLR 16/15 A2992 630 93 900 000/00 RMK AO2
14840KMKG MKG20060627042009106/27/06 04:20:31  5-MIN KMKG 270920Z 00000KT 9SM CLR 16/15 A2992 630 93 900 000/00 RMK AO2
14840KMKG MKG20060627042509206/27/06 04:25:31  5-MIN KMKG 270925Z 04003KT 10SM CLR 16/15 A2992 630 93 900 050/03 RMK AO2
14840KMKG MKG20060627043009206/27/06 04:30:31  5-MIN KMKG 270930Z 00000KT 10SM CLR 16/15 A2992 630 93 900 000/00 RMK AO2
14840KMKG MKG20060627043509106/27/06 04:35:31  5-MIN KMKG 270935Z 00000KT 9SM CLR 16/15 A2993 630 93 900 000/00 RMK AO2
14840KMKG MKG20060627044009106/27/06 04:40:31  5-MIN KMKG 270940Z 00000KT 8SM CLR 16/15 A2993 620 96 900 000/00 RMK AO2
14840KMKG MKG20060627044509106/27/06 04:45:31  5-MIN KMKG 270945Z 00000KT 8SM CLR 16/15 A2993 620 93 900 000/00 RMK AO2
14840KMKG MKG20060627045010806/27/06 04:50:31  5-MIN KMKG 270950Z 12003KT 7SM CLR 16/15 A2993 620 93 900 120/03 RMK AO2 SLP132 T01610150
14840KMKG MKG20060627045510806/27/06 04:55:31  5-MIN KMKG 270955Z 11003KT 7SM CLR 16/15 A2993 620 96 900 110/03 RMK AO2 SLP132 T01560150
14840KMKG MKG20060627050009106/27/06 05:00:31  5-MIN KMKG 271000Z 08003KT 7SM CLR 16/15 A2993 620 96 900 090/03 RMK AO2
14840KMKG MKG20060627050509106/27/06 05:05:31  5-MIN KMKG 271005Z 08003KT 7SM CLR 16/15 A2993 620 93 900 080/03 RMK AO2
14840KMKG MKG20060627051009106/27/06 05:10:31  5-MIN KMKG 271010Z 08003KT 8SM CLR 16/14 A2993 620 93 900 080/03 RMK AO2
14840KMKG MKG20060627051509106/27/06 05:15:31  5-MIN KMKG 271015Z 07003KT 8SM CLR 16/14 A2993 620 90 900 080/03 RMK AO2
14840KMKG MKG20060627052009406/27/06 05:20:31  5-MIN KMKG 271020Z 08003KT 8SM FEW110 16/14 A2993 620 93 900 080/03 RMK AO2
14840KMKG MKG20060627052509406/27/06 05:25:31  5-MIN KMKG 271025Z 00000KT 8SM SCT110 16/14 A2993 620 93 900 000/00 RMK AO2
14840KMKG MKG20060627053009406/27/06 05:30:31  5-MIN KMKG 271030Z 00000KT 8SM SCT110 16/14 A2993 620 90 900 000/00 RMK AO2
14840KMKG MKG20060627053511706/27/06 05:35:31  5-MIN KMKG 271035Z 00000KT 7SM -RA SCT055 BKN110 16/14 A2993 620 93 900 000/00 RMK AO2 RAB32 P0000
14840KMKG MKG20060627054011706/27/06 05:40:31  5-MIN KMKG 271040Z 00000KT 7SM -RA SCT049 BKN110 16/14 A2993 620 93 900 000/00 RMK AO2 RAB32 P0000
14840KMKG MKG20060627054511706/27/06 05:45:31  5-MIN KMKG 271045Z 00000KT 8SM -RA FEW055 SCT110 16/14 A2993 620 93 900 000/00 RMK AO2 RAB32 P0000
14840KMKG MKG20060627055013306/27/06 05:50:31  5-MIN KMKG 271050Z 00000KT 9SM FEW055 SCT100 16/14 A2993 620 93 900 000/00 RMK AO2 RAB32E48 SLP134 P0000 T01560144
14840KMKG MKG20060627055512606/27/06 05:55:31  5-MIN KMKG 271055Z 00000KT 8SM FEW055 16/14 A2993 620 90 900 000/00 RMK AO2 RAB32E48 SLP134 P0000 T01610144
14840KMKG MKG20060627060009406/27/06 06:00:31  5-MIN KMKG 271100Z 00000KT 8SM FEW044 16/14 A2993 620 90 900 000/00 RMK AO2
14840KMKG MKG20060627060509106/27/06 06:05:31  5-MIN KMKG 271105Z 00000KT 9SM CLR 16/14 A2994 620 90 900 000/00 RMK AO2
14840KMKG MKG20060627061009106/27/06 06:10:31  5-MIN KMKG 271110Z 00000KT 8SM CLR 16/15 A2994 620 93 900 000/00 RMK AO2
14840KMKG MKG20060627061509106/27/06 06:15:31  5-MIN KMKG 271115Z 00000KT 7SM CLR 16/15 A2994 610 93 900 000/00 RMK AO2
14840KMKG MKG20060627062009106/27/06 06:20:31  5-MIN KMKG 271120Z 00000KT 8SM CLR 16/15 A2994 610 93 900 000/00 RMK AO2
14840KMKG MKG20060627062509106/27/06 06:25:31  5-MIN KMKG 271125Z 00000KT 7SM CLR 16/15 A2994 620 93 900 000/00 RMK AO2
14840KMKG MKG20060627063009106/27/06 06:30:31  5-MIN KMKG 271130Z 00000KT 7SM CLR 16/15 A2994 610 93 900 000/00 RMK AO2
14840KMKG MKG20060627063509106/27/06 06:35:31  5-MIN KMKG 271135Z 00000KT 7SM CLR 16/15 A2994 610 93 900 000/00 RMK AO2
14840KMKG MKG20060627064009406/27/06 06:40:31  5-MIN KMKG 271140Z 00000KT 7SM FEW085 16/15 A2994 610 93 900 000/00 RMK AO2
14840KMKG MKG20060627064509106/27/06 06:45:31  5-MIN KMKG 271145Z 00000KT 7SM CLR 16/15 A2994 610 93 900 000/00 RMK AO2
14840KMKG MKG20060627065013206/27/06 06:50:31  5-MIN KMKG 271150Z 00000KT 7SM CLR 16/15 A2994 610 93 900 000/00 RMK AO2 SLP136 60000 T01610150 10172 20156 56006
14840KMKG MKG20060627065514206/27/06 06:55:31  5-MIN KMKG 271155Z 00000KT 7SM FEW055 SCT085 16/15 A2994 610 93 900 000/00 RMK AO2 SLP135 60000 T01610150 10172 20156 51006
14840KMKG MKG20060627070009206/27/06 07:00:31  5-MIN KMKG 271200Z 00000KT 7SM CLR 17/15 A2994 610 90 1000 000/00 RMK AO2
14840KMKG MKG20060627070509206/27/06 07:05:31  5-MIN KMKG 271205Z 00000KT 7SM CLR 17/15 A2994 610 90 1000 000/00 RMK AO2
14840KMKG MKG20060627071009506/27/06 07:10:31  5-MIN KMKG 271210Z 31003KT 7SM FEW120 17/16 A2994 610 93 1000 310/03 RMK AO2
14840KMKG MKG20060627071509506/27/06 07:15:31  5-MIN KMKG 271215Z 27004KT 7SM FEW110 17/16 A2994 610 93 1000 270/04 RMK AO2
14840KMKG MKG20060627072009506/27/06 07:20:31  5-MIN KMKG 271220Z 28005KT 7SM FEW120 17/16 A2994 610 93 1000 290/05 RMK AO2
14840KMKG MKG20060627072509506/27/06 07:25:31  5-MIN KMKG 271225Z 29005KT 7SM FEW120 17/16 A2994 610 93 1000 300/05 RMK AO2
14840KMKG MKG20060627073009206/27/06 07:30:31  5-MIN KMKG 271230Z 30003KT 7SM CLR 17/16 A2994 610 93 1000 300/03 RMK AO2
14840KMKG MKG20060627073509206/27/06 07:35:31  5-MIN KMKG 271235Z 31005KT 8SM CLR 17/16 A2994 610 90 1100 310/05 RMK AO2
14840KMKG MKG20060627074009206/27/06 07:40:31  5-MIN KMKG 271240Z 30003KT 7SM CLR 17/16 A2994 610 90 1100 310/03 RMK AO2
14840KMKG MKG20060627074509206/27/06 07:45:31  5-MIN KMKG 271245Z 29004KT 7SM CLR 17/16 A2994 610 90 1100 300/04 RMK AO2
14840KMKG MKG20060627075011206/27/06 07:50:31  5-MIN KMKG 271250Z 30005KT 7SM FEW110 17/16 A2994 610 90 1100 310/05 RMK AO2 SLP136 T01720156
14840KMKG MKG20060627075511206/27/06 07:55:31  5-MIN KMKG 271255Z 30004KT 8SM FEW110 17/16 A2994 610 90 1100 300/04 RMK AO2 SLP138 T01720156
14840KMKG MKG20060627080009206/27/06 08:00:31  5-MIN KMKG 271300Z 27004KT 9SM CLR 17/16 A2995 600 90 1000 270/04 RMK AO2
14840KMKG MKG20060627080509206/27/06 08:05:31  5-MIN KMKG 271305Z 26004KT 9SM CLR 17/16 A2995 600 90 1000 260/04 RMK AO2
14840KMKG MKG20060627081009306/27/06 08:10:31  5-MIN KMKG 271310Z 29004KT 10SM CLR 17/16 A2995 600 90 1000 300/04 RMK AO2
14840KMKG MKG20060627081509306/27/06 08:15:31  5-MIN KMKG 271315Z 29003KT 10SM CLR 18/16 A2995 600 87 1100 300/03 RMK AO2
14840KMKG MKG20060627082009306/27/06 08:20:31  5-MIN KMKG 271320Z 00000KT 10SM CLR 18/16 A2995 600 87 1200 000/00 RMK AO2
14840KMKG MKG20060627082509306/27/06 08:25:31  5-MIN KMKG 271325Z VRB03KT 10SM CLR 18/16 A2995 600 87 1200 VRB/03 RMK AO2
14840KMKG MKG20060627083009306/27/06 08:30:31  5-MIN KMKG 271330Z 32003KT 10SM CLR 18/16 A2995 600 84 1200 320/03 RMK AO2
14840KMKG MKG20060627083509306/27/06 08:35:31  5-MIN KMKG 271335Z 32003KT 10SM CLR 18/16 A2995 600 84 1200 320/03 RMK AO2
14840KMKG MKG20060627084009306/27/06 08:40:31  5-MIN KMKG 271340Z 31003KT 10SM CLR 18/16 A2995 600 84 1200 320/03 RMK AO2
14840KMKG MKG20060627084509306/27/06 08:45:31  5-MIN KMKG 271345Z 00000KT 10SM CLR 19/16 A2995 600 81 1200 000/00 RMK AO2
14840KMKG MKG20060627085011006/27/06 08:50:31  5-MIN KMKG 271350Z 00000KT 10SM CLR 19/16 A2995 600 81 1200 000/00 RMK AO2 SLP139 T01890156
14840KMKG MKG20060627085511306/27/06 08:55:31  5-MIN KMKG 271355Z 00000KT 10SM FEW110 19/16 A2995 600 81 1200 000/00 RMK AO2 SLP140 T01890156
14840KMKG MKG20060627090009606/27/06 09:00:31  5-MIN KMKG 271400Z 00000KT 10SM FEW110 19/16 A2995 600 81 1200 000/00 RMK AO2
14840KMKG MKG20060627090509606/27/06 09:05:31  5-MIN KMKG 271405Z 34003KT 10SM FEW110 20/16 A2995 600 75 1400 340/03 RMK AO2
14840KMKG MKG20060627091009606/27/06 09:10:31  5-MIN KMKG 271410Z 00000KT 10SM FEW110 19/16 A2995 600 78 1300 000/00 RMK AO2
14840KMKG MKG20060627091509606/27/06 09:15:31  5-MIN KMKG 271415Z 30004KT 10SM FEW110 20/16 A2995 600 75 1400 300/04 RMK AO2
14840KMKG MKG20060627092009606/27/06 09:20:31  5-MIN KMKG 271420Z VRB03KT 10SM FEW110 20/16 A2995 600 75 1400 VRB/03 RMK AO2
14840KMKG MKG20060627092509606/27/06 09:25:31  5-MIN KMKG 271425Z VRB04KT 10SM FEW110 20/15 A2995 600 72 1400 VRB/04 RMK AO2
14840KMKG MKG20060627093009606/27/06 09:30:31  5-MIN KMKG 271430Z VRB03KT 10SM FEW110 21/15 A2995 600 70 1400 VRB/03 RMK AO2
14840KMKG MKG20060627093509606/27/06 09:35:31  5-MIN KMKG 271435Z VRB04KT 10SM FEW110 21/15 A2995 600 68 1500 VRB/04 RMK AO2
14840KMKG MKG20060627094009606/27/06 09:40:31  5-MIN KMKG 271440Z VRB03KT 10SM FEW110 21/15 A2995 600 68 1500 VRB/03 RMK AO2
14840KMKG MKG20060627094509606/27/06 09:45:31  5-MIN KMKG 271445Z VRB03KT 10SM FEW110 21/14 A2995 600 65 1500 VRB/03 RMK AO2
14840KMKG MKG20060627095011906/27/06 09:50:31  5-MIN KMKG 271450Z 36003KT 10SM FEW110 21/14 A2995 600 65 1500 010/03 RMK AO2 SLP140 T02110144 51006
14840KMKG MKG20060627095511906/27/06 09:55:31  5-MIN KMKG 271455Z VRB03KT 10SM SCT110 22/14 A2995 600 63 1600 VRB/03 RMK AO2 SLP140 T02170144 51005
14840KMKG MKG20060627100009306/27/06 10:00:31  5-MIN KMKG 271500Z VRB04KT 10SM CLR 22/15 A2995 600 63 1600 VRB/04 RMK AO2
14840KMKG MKG20060627100509306/27/06 10:05:31  5-MIN KMKG 271505Z VRB04KT 10SM CLR 22/15 A2995 600 63 1600 VRB/04 RMK AO2
14840KMKG MKG20060627101009306/27/06 10:10:31  5-MIN KMKG 271510Z 30005KT 10SM CLR 22/14 A2996 600 63 1600 310/05 RMK AO2
14840KMKG MKG20060627101509306/27/06 10:15:31  5-MIN KMKG 271515Z 27008KT 10SM CLR 21/15 A2996 600 68 1500 270/08 RMK AO2
14840KMKG MKG20060627102009306/27/06 10:20:31  5-MIN KMKG 271520Z 24007KT 10SM CLR 21/15 A2996 590 68 1500 250/07 RMK AO2
14840KMKG MKG20060627102509306/27/06 10:25:31  5-MIN KMKG 271525Z 26007KT 10SM CLR 21/15 A2996 590 68 1500 260/07 RMK AO2
14840KMKG MKG20060627103009306/27/06 10:30:31  5-MIN KMKG 271530Z 25008KT 10SM CLR 21/15 A2996 590 70 1400 250/08 RMK AO2
14840KMKG MKG20060627103509306/27/06 10:35:31  5-MIN KMKG 271535Z 26007KT 10SM CLR 20/15 A2996 590 72 1400 260/07 RMK AO2
14840KMKG MKG20060627104009306/27/06 10:40:31  5-MIN KMKG 271540Z 26006KT 10SM CLR 20/15 A2996 590 72 1400 270/06 RMK AO2
14840KMKG MKG20060627104509306/27/06 10:45:31  5-MIN KMKG 271545Z 29007KT 10SM CLR 20/15 A2996 590 72 1400 290/07 RMK AO2
14840KMKG MKG20060627105011006/27/06 10:50:31  5-MIN KMKG 271550Z 29006KT 10SM CLR 20/15 A2996 590 72 1400 290/06 RMK AO2 SLP144 T02000150
14840KMKG MKG20060627105511306/27/06 10:55:31  5-MIN KMKG 271555Z 26006KT 10SM SCT120 20/15 A2996 590 72 1400 260/06 RMK AO2 SLP144 T02000150
14840KMKG MKG20060627110009306/27/06 11:00:31  5-MIN KMKG 271600Z 28006KT 10SM CLR 20/16 A2996 590 75 1400 280/06 RMK AO2
14840KMKG MKG20060627110509306/27/06 11:05:31  5-MIN KMKG 271605Z 29006KT 10SM CLR 21/15 A2996 590 70 1400 300/06 RMK AO2
14840KMKG MKG20060627111009306/27/06 11:10:31  5-MIN KMKG 271610Z 28006KT 10SM CLR 21/15 A2996 590 70 1400 280/06 RMK AO2
14840KMKG MKG20060627111509306/27/06 11:15:31  5-MIN KMKG 271615Z 26005KT 10SM CLR 21/16 A2996 590 73 1400 270/05 RMK AO2
14840KMKG MKG20060627112009306/27/06 11:20:31  5-MIN KMKG 271620Z 25004KT 10SM CLR 21/16 A2996 590 73 1400 250/04 RMK AO2
14840KMKG MKG20060627112509306/27/06 11:25:31  5-MIN KMKG 271625Z 27005KT 10SM CLR 21/16 A2996 590 73 1400 280/05 RMK AO2
14840KMKG MKG20060627113009306/27/06 11:30:31  5-MIN KMKG 271630Z 27006KT 10SM CLR 21/15 A2996 590 70 1400 280/06 RMK AO2
14840KMKG MKG20060627113509306/27/06 11:35:31  5-MIN KMKG 271635Z 25007KT 10SM CLR 21/15 A2996 590 68 1500 260/07 RMK AO2
14840KMKG MKG20060627114009306/27/06 11:40:31  5-MIN KMKG 271640Z 27006KT 10SM CLR 21/15 A2996 590 68 1500 280/06 RMK AO2
14840KMKG MKG20060627114509306/27/06 11:45:31  5-MIN KMKG 271645Z 26006KT 10SM CLR 22/15 A2996 590 65 1500 260/06 RMK AO2
14840KMKG MKG20060627115012006/27/06 11:50:31  5-MIN KMKG 271650Z 27007KT 10SM FEW040 SCT120 22/15 A2996 590 63 1600 270/07 RMK AO2 SLP145 T02220150
14840KMKG MKG20060627115512006/27/06 11:55:31  5-MIN KMKG 271655Z 24007KT 10SM FEW040 SCT120 22/15 A2997 590 65 1500 240/07 RMK AO2 SLP145 T02170150
14840KMKG MKG20060627120009306/27/06 12:00:31  5-MIN KMKG 271700Z 26007KT 10SM CLR 22/16 A2997 590 65 1600 260/07 RMK AO2
14840KMKG MKG20060627120509306/27/06 12:05:31  5-MIN KMKG 271705Z 27006KT 10SM CLR 22/15 A2996 590 63 1600 280/06 RMK AO2
14840KMKG MKG20060627121009306/27/06 12:10:31  5-MIN KMKG 271710Z 29006KT 10SM CLR 23/15 A2996 590 61 1700 290/06 RMK AO2
14840KMKG MKG20060627121510906/27/06 12:15:31  5-MIN KMKG 271715Z 29007KT 270V330 10SM CLR 22/14 A2996 590 61 1600 290/07 270V330 RMK AO2
14840KMKG MKG20060627122009306/27/06 12:20:31  5-MIN KMKG 271720Z 28007KT 10SM CLR 22/14 A2997 590 59 1600 280/07 RMK AO2
14840KMKG MKG20060627122509306/27/06 12:25:31  5-MIN KMKG 271725Z 24008KT 10SM CLR 23/14 A2997 590 59 1700 240/08 RMK AO2
14840KMKG MKG20060627123009306/27/06 12:30:31  5-MIN KMKG 271730Z 26009KT 10SM CLR 23/14 A2997 590 59 1700 270/09 RMK AO2
14840KMKG MKG20060627123509306/27/06 12:35:31  5-MIN KMKG 271735Z 26009KT 10SM CLR 22/14 A2997 580 59 1600 270/09 RMK AO2
14840KMKG MKG20060627124010906/27/06 12:40:31  5-MIN KMKG 271740Z 26008KT 230V290 10SM CLR 23/14 A2997 580 57 1700 260/08 230V290 RMK AO2
14840KMKG MKG20060627124509306/27/06 12:45:31  5-MIN KMKG 271745Z 27009KT 10SM CLR 23/13 A2997 590 55 1700 280/09 RMK AO2
14840KMKG MKG20060627125013106/27/06 12:50:31  5-MIN KMKG 271750Z 28010KT 10SM FEW035 23/13 A2997 580 51 1700 280/10 RMK AO2 SLP146 T02330128 10233 20161 51005
14840KMKG MKG20060627125513106/27/06 12:55:31  5-MIN KMKG 271755Z 26011KT 10SM FEW035 23/12 A2997 580 51 1700 270/11 RMK AO2 SLP147 T02280122 10233 20161 51006
14840KMKG MKG20060627130009306/27/06 13:00:31  5-MIN KMKG 271800Z 26011KT 10SM CLR 22/13 A2997 580 54 1600 270/11 RMK AO2
14840KMKG MKG20060627130509306/27/06 13:05:31  5-MIN KMKG 271805Z 27011KT 10SM CLR 22/13 A2997 580 56 1500 270/11 RMK AO2
14840KMKG MKG20060627131009306/27/06 13:10:31  5-MIN KMKG 271810Z 27010KT 10SM CLR 22/13 A2997 580 56 1500 270/10 RMK AO2
14840KMKG MKG20060627131509306/27/06 13:15:31  5-MIN KMKG 271815Z 26011KT 10SM CLR 22/12 A2997 580 54 1500 260/11 RMK AO2
14840KMKG MKG20060627132009306/27/06 13:20:31  5-MIN KMKG 271820Z 25009KT 10SM CLR 22/12 A2997 580 54 1500 260/09 RMK AO2
14840KMKG MKG20060627132509306/27/06 13:25:31  5-MIN KMKG 271825Z 25010KT 10SM CLR 22/12 A2997 580 52 1600 250/10 RMK AO2
14840KMKG MKG20060627133009306/27/06 13:30:31  5-MIN KMKG 271830Z 25010KT 10SM CLR 23/12 A2997 580 49 1700 250/10 RMK AO2
14840KMKG MKG20060627133509306/27/06 13:35:31  5-MIN KMKG 271835Z 28010KT 10SM CLR 22/12 A2997 580 51 1600 280/10 RMK AO2
14840KMKG MKG20060627134009306/27/06 13:40:31  5-MIN KMKG 271840Z 28010KT 10SM CLR 23/12 A2997 580 49 1700 280/10 RMK AO2
14840KMKG MKG20060627134509306/27/06 13:45:31  5-MIN KMKG 271845Z 27009KT 10SM CLR 23/11 A2997 580 45 1700 270/09 RMK AO2
14840KMKG MKG20060627135011006/27/06 13:50:31  5-MIN KMKG 271850Z 27011KT 10SM CLR 23/11 A2997 580 47 1700 280/11 RMK AO2 SLP147 T02280111
14840KMKG MKG20060627135511306/27/06 13:55:31  5-MIN KMKG 271855Z 27012KT 10SM FEW032 23/12 A2997 580 47 1700 270/12 RMK AO2 SLP147 T02330117
14840KMKG MKG20060627140009306/27/06 14:00:31  5-MIN KMKG 271900Z 27011KT 10SM CLR 22/12 A2997 590 52 1500 270/11 RMK AO2
14840KMKG MKG20060627140509306/27/06 14:05:31  5-MIN KMKG 271905Z 27010KT 10SM CLR 22/12 A2997 590 52 1500 280/10 RMK AO2
14840KMKG MKG20060627141009306/27/06 14:10:31  5-MIN KMKG 271910Z 28009KT 10SM CLR 22/12 A2997 590 51 1600 280/09 RMK AO2
14840KMKG MKG20060627141509306/27/06 14:15:31  5-MIN KMKG 271915Z 26010KT 10SM CLR 23/12 A2997 590 49 1700 260/10 RMK AO2
14840KMKG MKG20060627142009306/27/06 14:20:31  5-MIN KMKG 271920Z 25012KT 10SM CLR 22/11 A2996 590 49 1600 260/12 RMK AO2
14840KMKG MKG20060627142509306/27/06 14:25:31  5-MIN KMKG 271925Z 25011KT 10SM CLR 22/11 A2996 590 49 1600 260/11 RMK AO2
14840KMKG MKG20060627143009606/27/06 14:30:31  5-MIN KMKG 271930Z 25010KT 10SM FEW040 22/12 A2996 590 51 1600 260/10 RMK AO2
14840KMKG MKG20060627143509606/27/06 14:35:31  5-MIN KMKG 271935Z 27009KT 10SM FEW040 22/11 A2996 590 49 1600 270/09 RMK AO2
14840KMKG MKG20060627144009606/27/06 14:40:31  5-MIN KMKG 271940Z 27009KT 10SM FEW040 22/12 A2996 590 51 1600 280/09 RMK AO2
14840KMKG MKG20060627144509606/27/06 14:45:31  5-MIN KMKG 271945Z 27008KT 10SM FEW040 23/12 A2996 590 49 1700 270/08 RMK AO2
14840KMKG MKG20060627145011306/27/06 14:50:31  5-MIN KMKG 271950Z 27010KT 10SM FEW040 23/11 A2996 590 47 1700 270/10 RMK AO2 SLP143 T02280111
14840KMKG MKG20060627145511306/27/06 14:55:31  5-MIN KMKG 271955Z 27009KT 10SM FEW040 22/11 A2996 590 49 1600 270/09 RMK AO2 SLP144 T02220111
14840KMKG MKG20060627150009606/27/06 15:00:31  5-MIN KMKG 272000Z 25010KT 10SM FEW085 22/11 A2996 590 49 1600 260/10 RMK AO2
14840KMKG MKG20060627150509606/27/06 15:05:31  5-MIN KMKG 272005Z 26009KT 10SM FEW085 22/12 A2996 600 51 1600 260/09 RMK AO2
14840KMKG MKG20060627151009306/27/06 15:10:31  5-MIN KMKG 272010Z 26009KT 10SM CLR 22/11 A2996 600 50 1600 270/09 RMK AO2
14840KMKG MKG20060627151509306/27/06 15:15:31  5-MIN KMKG 272015Z 26008KT 10SM CLR 22/11 A2995 600 50 1600 260/08 RMK AO2
14840KMKG MKG20060627152009306/27/06 15:20:31  5-MIN KMKG 272020Z 27008KT 10SM CLR 22/11 A2995 600 47 1600 270/08 RMK AO2
14840KMKG MKG20060627152511206/27/06 15:25:31  5-MIN KMKG 272025Z 26007KT 230V290 10SM FEW085 23/11 A2995 600 45 1700 260/07 230V290 RMK AO2
14840KMKG MKG20060627153009606/27/06 15:30:31  5-MIN KMKG 272030Z 25007KT 10SM FEW085 23/11 A2995 600 45 1700 260/07 RMK AO2
14840KMKG MKG20060627153509606/27/06 15:35:31  5-MIN KMKG 272035Z 26007KT 10SM FEW085 23/11 A2995 600 44 1700 270/07 RMK AO2
14840KMKG MKG20060627154011206/27/06 15:40:31  5-MIN KMKG 272040Z 27007KT 230V290 10SM FEW055 23/10 A2995 600 42 1700 270/07 230V290 RMK AO2
14840KMKG MKG20060627154509606/27/06 15:45:31  5-MIN KMKG 272045Z 23008KT 10SM FEW055 23/10 A2995 600 44 1700 240/08 RMK AO2
14840KMKG MKG20060627155011906/27/06 15:50:31  5-MIN KMKG 272050Z 27008KT 10SM FEW055 22/11 A2995 600 47 1600 270/08 RMK AO2 SLP140 T02220106 51006
14840KMKG MKG20060627155511906/27/06 15:55:31  5-MIN KMKG 272055Z 27007KT 10SM FEW055 22/11 A2995 610 47 1600 270/07 RMK AO2 SLP139 T02220106 58008
14840KMKG MKG20060627160009306/27/06 16:00:31  5-MIN KMKG 272100Z 25007KT 10SM CLR 23/11 A2995 600 45 1700 260/07 RMK AO2
14840KMKG MKG20060627160509606/27/06 16:05:31  5-MIN KMKG 272105Z 23009KT 10SM FEW085 23/11 A2995 600 47 1700 230/09 RMK AO2
14840KMKG MKG20060627161009306/27/06 16:10:31  5-MIN KMKG 272110Z 26008KT 10SM CLR 22/11 A2995 600 49 1600 260/08 RMK AO2
14840KMKG MKG20060627161509306/27/06 16:15:31  5-MIN KMKG 272115Z 25008KT 10SM CLR 23/12 A2995 600 49 1700 250/08 RMK AO2
14840KMKG MKG20060627162009306/27/06 16:20:31  5-MIN KMKG 272120Z 22008KT 10SM CLR 23/11 A2994 610 47 1700 220/08 RMK AO2
14840KMKG MKG20060627162509306/27/06 16:25:31  5-MIN KMKG 272125Z 25007KT 10SM CLR 22/11 A2994 610 49 1600 250/07 RMK AO2
14840KMKG MKG20060627163009306/27/06 16:30:31  5-MIN KMKG 272130Z 25007KT 10SM CLR 22/11 A2995 610 49 1600 250/07 RMK AO2
14840KMKG MKG20060627163509306/27/06 16:35:31  5-MIN KMKG 272135Z VRB05KT 10SM CLR 23/11 A2995 610 47 1700 VRB/05 RMK AO2
14840KMKG MKG20060627164009306/27/06 16:40:31  5-MIN KMKG 272140Z 26007KT 10SM CLR 23/11 A2995 610 47 1700 260/07 RMK AO2
14840KMKG MKG20060627164509306/27/06 16:45:31  5-MIN KMKG 272145Z 22007KT 10SM CLR 23/11 A2995 610 45 1800 220/07 RMK AO2
14840KMKG MKG20060627165011306/27/06 16:50:31  5-MIN KMKG 272150Z 23007KT 10SM FEW055 23/11 A2995 610 45 1700 230/07 RMK AO2 SLP139 T02280106
14840KMKG MKG20060627165511306/27/06 16:55:31  5-MIN KMKG 272155Z 23007KT 10SM FEW055 23/11 A2995 600 47 1700 230/07 RMK AO2 SLP140 T02280111
14840KMKG MKG20060627170009306/27/06 17:00:31  5-MIN KMKG 272200Z VRB06KT 10SM CLR 23/11 A2995 600 45 1700 VRB/06 RMK AO2
14840KMKG MKG20060627170509306/27/06 17:05:31  5-MIN KMKG 272205Z 24006KT 10SM CLR 23/11 A2995 610 47 1700 240/06 RMK AO2
14840KMKG MKG20060627171009306/27/06 17:10:31  5-MIN KMKG 272210Z 26006KT 10SM CLR 23/11 A2995 600 45 1700 260/06 RMK AO2
14840KMKG MKG20060627171509306/27/06 17:15:31  5-MIN KMKG 272215Z 24007KT 10SM CLR 23/10 A2995 600 44 1700 250/07 RMK AO2
14840KMKG MKG20060627172009306/27/06 17:20:31  5-MIN KMKG 272220Z 24007KT 10SM CLR 23/10 A2995 600 44 1700 250/07 RMK AO2
14840KMKG MKG20060627172509306/27/06 17:25:31  5-MIN KMKG 272225Z 26008KT 10SM CLR 23/11 A2995 600 45 1700 260/08 RMK AO2
14840KMKG MKG20060627173009306/27/06 17:30:31  5-MIN KMKG 272230Z 26008KT 10SM CLR 22/11 A2995 600 49 1600 260/08 RMK AO2
14840KMKG MKG20060627173509306/27/06 17:35:31  5-MIN KMKG 272235Z 25008KT 10SM CLR 22/11 A2995 600 47 1600 260/08 RMK AO2
14840KMKG MKG20060627174009306/27/06 17:40:31  5-MIN KMKG 272240Z 26009KT 10SM CLR 22/11 A2995 600 47 1600 260/09 RMK AO2
14840KMKG MKG20060627174509306/27/06 17:45:31  5-MIN KMKG 272245Z 24008KT 10SM CLR 22/11 A2995 600 49 1600 250/08 RMK AO2
14840KMKG MKG20060627175011006/27/06 17:50:31  5-MIN KMKG 272250Z 24006KT 10SM CLR 22/11 A2995 600 49 1600 250/06 RMK AO2 SLP141 T02220111
14840KMKG MKG20060627175511006/27/06 17:55:31  5-MIN KMKG 272255Z 26008KT 10SM CLR 22/12 A2995 600 51 1600 270/08 RMK AO2 SLP140 T02220117
14840KMKG MKG20060627180009306/27/06 18:00:31  5-MIN KMKG 272300Z 26007KT 10SM CLR 22/11 A2995 600 49 1600 260/07 RMK AO2
14840KMKG MKG20060627180509306/27/06 18:05:31  5-MIN KMKG 272305Z 25006KT 10SM CLR 22/11 A2995 600 49 1600 250/06 RMK AO2
14840KMKG MKG20060627181009306/27/06 18:10:31  5-MIN KMKG 272310Z 24006KT 10SM CLR 22/11 A2995 600 50 1600 240/06 RMK AO2
14840KMKG MKG20060627181509306/27/06 18:15:31  5-MIN KMKG 272315Z 23005KT 10SM CLR 22/12 A2995 600 52 1600 240/05 RMK AO2
14840KMKG MKG20060627182009306/27/06 18:20:31  5-MIN KMKG 272320Z 24005KT 10SM CLR 22/11 A2995 600 50 1600 250/05 RMK AO2
14840KMKG MKG20060627182509306/27/06 18:25:31  5-MIN KMKG 272325Z 24005KT 10SM CLR 22/11 A2995 600 50 1600 250/05 RMK AO2
14840KMKG MKG20060627183009306/27/06 18:30:31  5-MIN KMKG 272330Z 24005KT 10SM CLR 22/11 A2995 600 50 1600 250/05 RMK AO2
14840KMKG MKG20060627183509306/27/06 18:35:31  5-MIN KMKG 272335Z 24005KT 10SM CLR 22/11 A2995 600 50 1600 240/05 RMK AO2
14840KMKG MKG20060627184009306/27/06 18:40:31  5-MIN KMKG 272340Z 24005KT 10SM CLR 22/12 A2995 600 52 1600 250/05 RMK AO2
14840KMKG MKG20060627184509306/27/06 18:45:31  5-MIN KMKG 272345Z 24006KT 10SM CLR 22/12 A2995 600 52 1600 240/06 RMK AO2
14840KMKG MKG20060627185012806/27/06 18:50:31  5-MIN KMKG 272350Z 24005KT 10SM CLR 22/12 A2995 600 52 1600 240/05 RMK AO2 SLP142 T02170117 10239 20211 58008
14840KMKG MKG20060627185513106/27/06 18:55:31  5-MIN KMKG 272355Z 25005KT 10SM FEW042 21/12 A2995 600 56 1500 250/05 RMK AO2 SLP142 T02110122 10239 20211 53002
14840KMKG MKG20060627190009306/27/06 19:00:31  5-MIN KMKG 280000Z 25005KT 10SM CLR 21/12 A2996 600 56 1500 260/05 RMK AO2
14840KMKG MKG20060627190509306/27/06 19:05:31  5-MIN KMKG 280005Z 24006KT 10SM CLR 21/12 A2996 590 56 1500 240/06 RMK AO2
14840KMKG MKG20060627191009306/27/06 19:10:31  5-MIN KMKG 280010Z 25006KT 10SM CLR 21/12 A2996 590 58 1400 250/06 RMK AO2
14840KMKG MKG20060627191509306/27/06 19:15:31  5-MIN KMKG 280015Z 25005KT 10SM CLR 21/12 A2996 590 58 1400 250/05 RMK AO2
14840KMKG MKG20060627192009306/27/06 19:20:31  5-MIN KMKG 280020Z 26005KT 10SM CLR 21/12 A2996 590 58 1400 260/05 RMK AO2
14840KMKG MKG20060627192509306/27/06 19:25:31  5-MIN KMKG 280025Z 24005KT 10SM CLR 20/13 A2996 590 63 1400 240/05 RMK AO2
14840KMKG MKG20060627193009306/27/06 19:30:31  5-MIN KMKG 280030Z 23005KT 10SM CLR 20/13 A2996 590 63 1400 230/05 RMK AO2
14840KMKG MKG20060627193509306/27/06 19:35:31  5-MIN KMKG 280035Z 24004KT 10SM CLR 20/13 A2996 590 65 1400 240/04 RMK AO2
14840KMKG MKG20060627194009306/27/06 19:40:31  5-MIN KMKG 280040Z 24006KT 10SM CLR 19/13 A2996 590 67 1300 240/06 RMK AO2
14840KMKG MKG20060627194509306/27/06 19:45:31  5-MIN KMKG 280045Z 23004KT 10SM CLR 19/13 A2996 590 67 1300 230/04 RMK AO2
14840KMKG MKG20060627195011306/27/06 19:50:31  5-MIN KMKG 280050Z 25004KT 10SM FEW042 19/13 A2996 590 70 1200 250/04 RMK AO2 SLP145 T01890133
14840KMKG MKG20060627195511306/27/06 19:55:31  5-MIN KMKG 280055Z 22003KT 10SM FEW042 19/13 A2996 590 70 1200 220/03 RMK AO2 SLP145 T01890133
14840KMKG MKG20060627200009306/27/06 20:00:31  5-MIN KMKG 280100Z 20005KT 10SM CLR 19/13 A2996 590 70 1200 210/05 RMK AO2
14840KMKG MKG20060627200509306/27/06 20:05:31  5-MIN KMKG 280105Z 25005KT 10SM CLR 18/13 A2997 590 72 1200 260/05 RMK AO2
14840KMKG MKG20060627201009306/27/06 20:10:31  5-MIN KMKG 280110Z 24004KT 10SM CLR 18/14 A2997 590 75 1200 240/04 RMK AO2
14840KMKG MKG20060627201509306/27/06 20:15:31  5-MIN KMKG 280115Z 26005KT 10SM CLR 18/14 A2997 590 78 1100 260/05 RMK AO2
14840KMKG MKG20060627202009306/27/06 20:20:31  5-MIN KMKG 280120Z 23005KT 10SM CLR 18/14 A2997 590 78 1100 240/05 RMK AO2
14840KMKG MKG20060627202509306/27/06 20:25:31  5-MIN KMKG 280125Z 24006KT 10SM CLR 18/14 A2997 590 78 1100 240/06 RMK AO2
14840KMKG MKG20060627203009306/27/06 20:30:31  5-MIN KMKG 280130Z 25004KT 10SM CLR 18/14 A2997 590 78 1100 250/04 RMK AO2
14840KMKG MKG20060627203509306/27/06 20:35:31  5-MIN KMKG 280135Z VRB04KT 10SM CLR 17/14 A2997 580 83 1000 VRB/04 RMK AO2
14840KMKG MKG20060627204009306/27/06 20:40:31  5-MIN KMKG 280140Z 21004KT 10SM CLR 17/14 A2997 590 83 1000 210/04 RMK AO2
14840KMKG MKG20060627204509306/27/06 20:45:31  5-MIN KMKG 280145Z 25003KT 10SM CLR 17/14 A2997 580 83 1000 250/03 RMK AO2
14840KMKG MKG20060627205011006/27/06 20:50:31  5-MIN KMKG 280150Z 00000KT 10SM CLR 17/14 A2997 590 83 1000 000/00 RMK AO2 SLP147 T01720144
14840KMKG MKG20060627205511006/27/06 20:55:31  5-MIN KMKG 280155Z 19005KT 10SM CLR 17/14 A2997 590 86 1000 200/05 RMK AO2 SLP146 T01670144
14840KMKG MKG20060627210009306/27/06 21:00:31  5-MIN KMKG 280200Z 18004KT 10SM CLR 17/15 A2997 590 87 1000 180/04 RMK AO2
14840KMKG MKG20060627210509306/27/06 21:05:31  5-MIN KMKG 280205Z 15003KT 10SM CLR 17/15 A2997 590 87 1000 150/03 RMK AO2
14840KMKG MKG20060627211009306/27/06 21:10:31  5-MIN KMKG 280210Z 16004KT 10SM CLR 17/14 A2997 580 83 1000 170/04 RMK AO2
14840KMKG MKG20060627211509306/27/06 21:15:31  5-MIN KMKG 280215Z 17004KT 10SM CLR 17/15 A2997 580 87 1000 180/04 RMK AO2
14840KMKG MKG20060627212009306/27/06 21:20:31  5-MIN KMKG 280220Z 18005KT 10SM CLR 18/15 A2997 590 83 1100 190/05 RMK AO2
14840KMKG MKG20060627212509306/27/06 21:25:31  5-MIN KMKG 280225Z 20006KT 10SM CLR 18/15 A2997 580 83 1100 200/06 RMK AO2
14840KMKG MKG20060627213009306/27/06 21:30:31  5-MIN KMKG 280230Z 20005KT 10SM CLR 18/15 A2997 580 83 1100 200/05 RMK AO2
14840KMKG MKG20060627213509306/27/06 21:35:31  5-MIN KMKG 280235Z 20005KT 10SM CLR 18/15 A2998 580 83 1100 210/05 RMK AO2
14840KMKG MKG20060627214009606/27/06 21:40:31  5-MIN KMKG 280240Z 21006KT 10SM FEW120 18/16 A2997 580 87 1100 210/06 RMK AO2
14840KMKG MKG20060627214509606/27/06 21:45:31  5-MIN KMKG 280245Z 20006KT 10SM FEW120 18/16 A2997 580 87 1100 200/06 RMK AO2
14840KMKG MKG20060627215011906/27/06 21:50:31  5-MIN KMKG 280250Z 21006KT 10SM SCT120 18/16 A2997 580 87 1100 210/06 RMK AO2 SLP148 T01780156 53002
14840KMKG MKG20060627215511906/27/06 21:55:31  5-MIN KMKG 280255Z 23005KT 10SM BKN120 18/16 A2998 580 87 1100 230/05 RMK AO2 SLP149 T01780156 53008
14840KMKG MKG20060627220009606/27/06 22:00:31  5-MIN KMKG 280300Z 23004KT 10SM BKN120 18/16 A2998 580 87 1100 230/04 RMK AO2
14840KMKG MKG20060627220509606/27/06 22:05:31  5-MIN KMKG 280305Z 22005KT 10SM BKN120 18/16 A2998 580 87 1100 230/05 RMK AO2
14840KMKG MKG20060627221009606/27/06 22:10:31  5-MIN KMKG 280310Z 22005KT 10SM OVC120 18/16 A2998 570 87 1100 220/05 RMK AO2
14840KMKG MKG20060627221509606/27/06 22:15:31  5-MIN KMKG 280315Z 21004KT 10SM BKN120 18/15 A2998 580 83 1100 220/04 RMK AO2
14840KMKG MKG20060627222009606/27/06 22:20:31  5-MIN KMKG 280320Z 19004KT 10SM BKN120 18/15 A2998 570 83 1100 200/04 RMK AO2
14840KMKG MKG20060627222509606/27/06 22:25:31  5-MIN KMKG 280325Z 19004KT 10SM SCT120 18/15 A2998 570 83 1100 190/04 RMK AO2
14840KMKG MKG20060627223009606/27/06 22:30:31  5-MIN KMKG 280330Z 21003KT 10SM FEW120 18/15 A2998 570 83 1100 210/03 RMK AO2
14840KMKG MKG20060627223509606/27/06 22:35:31  5-MIN KMKG 280335Z 22003KT 10SM FEW120 18/14 A2999 570 81 1100 220/03 RMK AO2
14840KMKG MKG20060627224009306/27/06 22:40:31  5-MIN KMKG 280340Z 22004KT 10SM CLR 18/14 A2999 570 81 1100 220/04 RMK AO2
14840KMKG MKG20060627224509306/27/06 22:45:31  5-MIN KMKG 280345Z 21003KT 10SM CLR 18/14 A2999 570 81 1100 220/03 RMK AO2
14840KMKG MKG20060627225011006/27/06 22:50:31  5-MIN KMKG 280350Z 20003KT 10SM CLR 18/15 A2999 570 83 1100 200/03 RMK AO2 SLP153 T01780150
14840KMKG MKG20060627225511006/27/06 22:55:31  5-MIN KMKG 280355Z 20003KT 10SM CLR 18/15 A2998 570 83 1100 200/03 RMK AO2 SLP152 T01780150
14840KMKG MKG20060627230009306/27/06 23:00:31  5-MIN KMKG 280400Z 21003KT 10SM CLR 17/14 A2998 570 83 1000 210/03 RMK AO2
14840KMKG MKG20060627230509306/27/06 23:05:31  5-MIN KMKG 280405Z 00000KT 10SM CLR 18/14 A2998 570 81 1100 000/00 RMK AO2
14840KMKG MKG20060627231009606/27/06 23:10:31  5-MIN KMKG 280410Z 00000KT 10SM FEW075 18/15 A2998 570 83 1100 000/00 RMK AO2
14840KMKG MKG20060627231509606/27/06 23:15:31  5-MIN KMKG 280415Z 19003KT 10SM FEW075 18/14 A2998 570 81 1100 190/03 RMK AO2
14840KMKG MKG20060627232009606/27/06 23:20:31  5-MIN KMKG 280420Z 17004KT 10SM SCT075 18/14 A2998 580 81 1100 170/04 RMK AO2
14840KMKG MKG20060627232509606/27/06 23:25:31  5-MIN KMKG 280425Z 18004KT 10SM SCT075 17/14 A2998 580 83 1000 180/04 RMK AO2
14840KMKG MKG20060627233009606/27/06 23:30:31  5-MIN KMKG 280430Z 19003KT 10SM FEW075 18/15 A2998 570 83 1100 190/03 RMK AO2
14840KMKG MKG20060627233510306/27/06 23:35:31  5-MIN KMKG 280435Z 23003KT 10SM FEW060 SCT070 18/15 A2998 570 83 1100 230/03 RMK AO2
14840KMKG MKG20060627234010306/27/06 23:40:31  5-MIN KMKG 280440Z 27005KT 10SM SCT060 BKN070 17/15 A2998 570 87 1000 280/05 RMK AO2
14840KMKG MKG20060627234510306/27/06 23:45:31  5-MIN KMKG 280445Z 29004KT 10SM BKN060 BKN075 18/15 A2999 570 83 1100 290/04 RMK AO2
14840KMKG MKG20060627235014506/27/06 23:50:31  5-MIN KMKG 280450Z 31004KT 10SM SCT060 BKN075 18/15 A2999 560 83 1100 310/04 RMK AO2 CIG 060 RWY 14 SLP154 T01780150 402390156
14840KMKG MKG20060627235514506/27/06 23:55:31  5-MIN KMKG 280455Z 29006KT 10SM FEW060 BKN080 18/15 A2999 560 81 1100 300/06 RMK AO2 CIG 060 RWY 14 SLP154 T01830150 402390156
14840KMKG MKG20060628000010306/28/06 00:00:32  5-MIN KMKG 280500Z 26005KT 10SM SCT060 BKN080 18/15 A2999 560 81 1100 270/05 RMK AO2
14840KMKG MKG20060628000510306/28/06 00:05:31  5-MIN KMKG 280505Z 27007KT 10SM SCT060 BKN080 18/15 A2999 560 83 1100 280/07 RMK AO2
14840KMKG MKG20060628001010306/28/06 00:10:31  5-MIN KMKG 280510Z 28004KT 10SM FEW060 SCT080 18/15 A2999 570 83 1100 280/04 RMK AO2
14840KMKG MKG20060628001509606/28/06 00:15:31  5-MIN KMKG 280515Z 29004KT 10SM FEW080 18/15 A2999 570 83 1100 300/04 RMK AO2
14840KMKG MKG20060628002009606/28/06 00:20:31  5-MIN KMKG 280520Z 30003KT 10SM FEW080 18/15 A2999 570 83 1100 300/03 RMK AO2
14840KMKG MKG20060628002509306/28/06 00:25:31  5-MIN KMKG 280525Z VRB03KT 10SM CLR 18/15 A2999 570 83 1100 VRB/03 RMK AO2
14840KMKG MKG20060628003009306/28/06 00:30:31  5-MIN KMKG 280530Z 00000KT 10SM CLR 18/15 A2999 570 83 1100 000/00 RMK AO2
14840KMKG MKG20060628003509306/28/06 00:35:31  5-MIN KMKG 280535Z 00000KT 10SM CLR 18/15 A2998 570 83 1100 000/00 RMK AO2
14840KMKG MKG20060628004009306/28/06 00:40:31  5-MIN KMKG 280540Z 00000KT 10SM CLR 17/15 A2999 570 87 1000 000/00 RMK AO2
14840KMKG MKG20060628004509506/28/06 00:45:31  5-MIN KMKG 280545Z 26003KT 10SM FEW110 17/14 A2999 570 86 900 270/03 RMK AO2
14840KMKG MKG20060628005013006/28/06 00:50:31  5-MIN KMKG 280550Z 23003KT 10SM FEW110 17/14 A2998 570 86 900 230/03 RMK AO2 SLP151 T01670144 10211 20167 53008
14840KMKG MKG20060628005513106/28/06 00:55:31  5-MIN KMKG 280555Z 24005KT 10SM FEW110 17/14 A2999 570 83 1000 240/05 RMK AO2 SLP152 T01720144 10211 20167 50002
14840KMKG MKG20060628010009506/28/06 01:00:31  5-MIN KMKG 280600Z 22003KT 10SM SCT110 16/14 A2998 570 93 800 230/03 RMK AO2
14840KMKG MKG20060628010509506/28/06 01:05:31  5-MIN KMKG 280605Z 22003KT 10SM SCT110 16/15 A2998 570 93 900 220/03 RMK AO2
14840KMKG MKG20060628011009506/28/06 01:10:31  5-MIN KMKG 280610Z 00000KT 10SM FEW110 16/14 A2998 580 90 900 000/00 RMK AO2
14840KMKG MKG20060628011509506/28/06 01:15:31  5-MIN KMKG 280615Z 00000KT 10SM FEW110 16/14 A2998 580 90 900 000/00 RMK AO2
14840KMKG MKG20060628012009506/28/06 01:20:31  5-MIN KMKG 280620Z 00000KT 10SM FEW110 16/14 A2998 580 90 900 000/00 RMK AO2
14840KMKG MKG20060628012509506/28/06 01:25:31  5-MIN KMKG 280625Z 00000KT 10SM FEW110 16/14 A2997 580 90 900 000/00 RMK AO2
14840KMKG MKG20060628013009206/28/06 01:30:31  5-MIN KMKG 280630Z 00000KT 10SM CLR 16/14 A2998 580 90 900 000/00 RMK AO2
14840KMKG MKG20060628013509206/28/06 01:35:31  5-MIN KMKG 280635Z 00000KT 10SM CLR 16/14 A2998 580 90 900 000/00 RMK AO2
14840KMKG MKG20060628014009206/28/06 01:40:31  5-MIN KMKG 280640Z 13004KT 10SM CLR 16/14 A2997 580 93 800 140/04 RMK AO2
14840KMKG MKG20060628014509106/28/06 01:45:31  5-MIN KMKG 280645Z 13004KT 9SM CLR 16/14 A2998 580 90 800 140/04 RMK AO2
14840KMKG MKG20060628015010806/28/06 01:50:31  5-MIN KMKG 280650Z 14005KT 8SM CLR 15/14 A2997 580 93 800 140/05 RMK AO2 SLP149 T01500139
14840KMKG MKG20060628015510806/28/06 01:55:31  5-MIN KMKG 280655Z 12005KT 7SM CLR 15/14 A2997 580 93 800 130/05 RMK AO2 SLP147 T01500139
14840KMKG MKG20060628020009106/28/06 02:00:31  5-MIN KMKG 280700Z 12004KT 8SM CLR 16/14 A2997 580 93 800 120/04 RMK AO2
14840KMKG MKG20060628020509106/28/06 02:05:31  5-MIN KMKG 280705Z 00000KT 8SM CLR 16/14 A2998 580 93 800 000/00 RMK AO2
14840KMKG MKG20060628021009106/28/06 02:10:31  5-MIN KMKG 280710Z 13003KT 8SM CLR 16/14 A2998 580 90 800 130/03 RMK AO2
14840KMKG MKG20060628021509106/28/06 02:15:31  5-MIN KMKG 280715Z 13003KT 9SM CLR 15/14 A2997 580 93 800 140/03 RMK AO2
14840KMKG MKG20060628022009106/28/06 02:20:31  5-MIN KMKG 280720Z 16003KT 8SM CLR 16/14 A2997 580 93 800 160/03 RMK AO2
14840KMKG MKG20060628022509106/28/06 02:25:31  5-MIN KMKG 280725Z 00000KT 9SM CLR 16/14 A2997 580 93 800 000/00 RMK AO2
14840KMKG MKG20060628023009106/28/06 02:30:31  5-MIN KMKG 280730Z 00000KT 9SM CLR 16/14 A2997 580 93 800 000/00 RMK AO2
14840KMKG MKG20060628023509106/28/06 02:35:31  5-MIN KMKG 280735Z 15003KT 9SM CLR 16/14 A2997 580 93 800 150/03 RMK AO2
14840KMKG MKG20060628024009106/28/06 02:40:31  5-MIN KMKG 280740Z 16003KT 9SM CLR 16/14 A2997 580 90 800 160/03 RMK AO2
14840KMKG MKG20060628024509106/28/06 02:45:31  5-MIN KMKG 280745Z 16003KT 9SM CLR 15/13 A2997 580 90 800 170/03 RMK AO2
14840KMKG MKG20060628025010806/28/06 02:50:31  5-MIN KMKG 280750Z 00000KT 9SM CLR 15/14 A2997 580 93 800 000/00 RMK AO2 SLP148 T01500139
14840KMKG MKG20060628025510806/28/06 02:55:31  5-MIN KMKG 280755Z 00000KT 9SM CLR 14/13 A2997 580 93 700 000/00 RMK AO2 SLP148 T01440133
14840KMKG MKG20060628030009106/28/06 03:00:31  5-MIN KMKG 280800Z 00000KT 9SM CLR 14/13 A2997 580 93 700 000/00 RMK AO2
14840KMKG MKG20060628030509106/28/06 03:05:31  5-MIN KMKG 280805Z 00000KT 8SM CLR 15/14 A2997 580 93 800 000/00 RMK AO2
14840KMKG MKG20060628031009106/28/06 03:10:31  5-MIN KMKG 280810Z 00000KT 8SM CLR 16/14 A2997 580 90 800 000/00 RMK AO2
14840KMKG MKG20060628031509106/28/06 03:15:31  5-MIN KMKG 280815Z 00000KT 8SM CLR 15/14 A2997 580 93 800 000/00 RMK AO2
14840KMKG MKG20060628032009106/28/06 03:20:31  5-MIN KMKG 280820Z 00000KT 8SM CLR 15/14 A2997 580 93 800 000/00 RMK AO2
14840KMKG MKG20060628032509106/28/06 03:25:31  5-MIN KMKG 280825Z 32004KT 8SM CLR 14/13 A2997 580 93 700 320/04 RMK AO2
14840KMKG MKG20060628033009106/28/06 03:30:31  5-MIN KMKG 280830Z 30005KT 8SM CLR 15/14 A2998 580 93 800 300/05 RMK AO2
14840KMKG MKG20060628033509106/28/06 03:35:31  5-MIN KMKG 280835Z 29003KT 8SM CLR 15/14 A2997 580 93 800 300/03 RMK AO2
14840KMKG MKG20060628034009106/28/06 03:40:31  5-MIN KMKG 280840Z 29003KT 7SM CLR 15/14 A2997 580 93 800 300/03 RMK AO2
14840KMKG MKG20060628034509106/28/06 03:45:31  5-MIN KMKG 280845Z 24003KT 7SM CLR 15/14 A2997 580 93 800 240/03 RMK AO2
14840KMKG MKG20060628035011406/28/06 03:50:31  5-MIN KMKG 280850Z 23003KT 7SM CLR 14/13 A2997 580 96 600 240/03 RMK AO2 SLP148 T01390133 50002
14840KMKG MKG20060628035511406/28/06 03:55:31  5-MIN KMKG 280855Z 00000KT 8SM CLR 14/13 A2997 580 93 700 000/00 RMK AO2 SLP148 T01440133 56004
14840KMKG MKG20060628040009106/28/06 04:00:31  5-MIN KMKG 280900Z 00000KT 8SM CLR 14/13 A2997 580 93 700 000/00 RMK AO2
14840KMKG MKG20060628040509106/28/06 04:05:31  5-MIN KMKG 280905Z 00000KT 7SM CLR 14/13 A2997 580 93 700 000/00 RMK AO2
14840KMKG MKG20060628041009406/28/06 04:10:31  5-MIN KMKG 280910Z 00000KT 6SM BR CLR 14/13 A2997 580 93 700 000/00 RMK AO2
14840KMKG MKG20060628041509406/28/06 04:15:31  5-MIN KMKG 280915Z 00000KT 6SM BR CLR 14/13 A2998 580 93 700 000/00 RMK AO2
14840KMKG MKG20060628042009106/28/06 04:20:31  5-MIN KMKG 280920Z 00000KT 7SM CLR 14/13 A2998 580 93 700 000/00 RMK AO2
14840KMKG MKG20060628042509106/28/06 04:25:31  5-MIN KMKG 280925Z 00000KT 7SM CLR 14/13 A2998 580 93 700 000/00 RMK AO2
14840KMKG MKG20060628043009406/28/06 04:30:31  5-MIN KMKG 280930Z 00000KT 6SM BR CLR 14/13 A2998 570 96 600 000/00 RMK AO2
14840KMKG MKG20060628043509106/28/06 04:35:31  5-MIN KMKG 280935Z 00000KT 7SM CLR 14/13 A2998 570 96 600 000/00 RMK AO2
14840KMKG MKG20060628044009106/28/06 04:40:31  5-MIN KMKG 280940Z 00000KT 8SM CLR 13/13 A2998 570 96 500 000/00 RMK AO2
14840KMKG MKG20060628044509106/28/06 04:45:31  5-MIN KMKG 280945Z 00000KT 8SM CLR 14/13 A2999 570 93 600 000/00 RMK AO2
14840KMKG MKG20060628045010806/28/06 04:50:31  5-MIN KMKG 280950Z 00000KT 8SM CLR 14/13 A2999 570 93 600 000/00 RMK AO2 SLP153 T01390128
14840KMKG MKG20060628045510806/28/06 04:55:31  5-MIN KMKG 280955Z 00000KT 9SM CLR 14/13 A2999 570 93 600 000/00 RMK AO2 SLP153 T01390128
14840KMKG MKG20060628050009106/28/06 05:00:31  5-MIN KMKG 281000Z 00000KT 9SM CLR 14/13 A2999 570 93 600 000/00 RMK AO2
14840KMKG MKG20060628050509106/28/06 05:05:31  5-MIN KMKG 281005Z 00000KT 8SM CLR 14/13 A2999 570 93 600 000/00 RMK AO2
14840KMKG MKG20060628051009406/28/06 05:10:31  5-MIN KMKG 281010Z 00000KT 6SM BR CLR 14/13 A2999 560 93 600 000/00 RMK AO2
14840KMKG MKG20060628051509406/28/06 05:15:31  5-MIN KMKG 281015Z 00000KT 6SM BR CLR 13/12 A2999 560 93 500 000/00 RMK AO2
14840KMKG MKG20060628052009406/28/06 05:20:31  5-MIN KMKG 281020Z 00000KT 6SM BR CLR 13/12 A2999 560 93 500 000/00 RMK AO2
14840KMKG MKG20060628052509406/28/06 05:25:31  5-MIN KMKG 281025Z 00000KT 6SM BR CLR 13/12 A2999 560 93 500 000/00 RMK AO2
14840KMKG MKG20060628053010706/28/06 05:30:31  5-MIN KMKG 281030Z 00000KT 6SM BR CLR 13/12 A3000 560 89 500 000/00 RMK AO2 VIS 2 RWY 14
14840KMKG MKG20060628053511106/28/06 05:35:31  5-MIN KMKG 281035Z 00000KT 4SM BR CLR 13/12 A2999 560 93 500 000/00 RMK AO2 VIS 1 1/2 RWY 14
14840KMKG MKG20060628054011106/28/06 05:40:31  5-MIN KMKG 281040Z 00000KT 4SM BR CLR 13/12 A2999 560 93 500 000/00 RMK AO2 VIS 1 1/2 RWY 14
14840KMKG MKG20060628054511506/28/06 05:45:31  5-MIN KMKG 281045Z 00000KT 2 1/2SM BR CLR 13/12 A3000 560 93 500 000/00 RMK AO2 VIS 1 1/4 RWY 14
14840KMKG MKG20060628055011506/28/06 05:50:31  5-MIN KMKG 281050Z 00000KT 2 1/2SM BR CLR 13/13 A3000 560 96 500 000/00 RMK AO2 VIS 1 1/2 RWY 14
14840KMKG MKG20060628055512806/28/06 05:55:31  5-MIN KMKG 281055Z 00000KT 5SM BR CLR 13/13 A3000 550 96 500 000/00 RMK AO2 VIS 1 1/2 RWY 14 SLP158 T01330128
14840KMKG MKG20060628060011106/28/06 06:00:31  5-MIN KMKG 281100Z 00000KT 4SM BR CLR 14/13 A3000 550 96 600 000/00 RMK AO2 VIS 1 1/2 RWY 14
14840KMKG MKG20060628060511106/28/06 06:05:31  5-MIN KMKG 281105Z 00000KT 4SM BR CLR 14/13 A3000 550 96 600 000/00 RMK AO2 VIS 1 3/4 RWY 14
14840KMKG MKG20060628061011106/28/06 06:10:31  5-MIN KMKG 281110Z 00000KT 4SM BR CLR 14/13 A3000 550 93 700 000/00 RMK AO2 VIS 1 3/4 RWY 14
14840KMKG MKG20060628061511106/28/06 06:15:31  5-MIN KMKG 281115Z 00000KT 4SM BR CLR 14/14 A3000 550 96 700 000/00 RMK AO2 VIS 1 3/4 RWY 14
14840KMKG MKG20060628062011106/28/06 06:20:31  5-MIN KMKG 281120Z 00000KT 4SM BR CLR 15/14 A3001 550 93 700 000/00 RMK AO2 VIS 1 3/4 RWY 14
14840KMKG MKG20060628062511106/28/06 06:25:31  5-MIN KMKG 281125Z 00000KT 4SM BR CLR 15/14 A3001 550 96 700 000/00 RMK AO2 VIS 1 3/4 RWY 14
14840KMKG MKG20060628063011106/28/06 06:30:31  5-MIN KMKG 281130Z 00000KT 4SM BR CLR 16/14 A3001 550 93 800 000/00 RMK AO2 VIS 2 1/2 RWY 14
14840KMKG MKG20060628063509406/28/06 06:35:31  5-MIN KMKG 281135Z 00000KT 4SM BR CLR 16/14 A3001 550 93 800 000/00 RMK AO2
14840KMKG MKG20060628064009406/28/06 06:40:31  5-MIN KMKG 281140Z 00000KT 5SM BR CLR 16/14 A3001 550 93 800 000/00 RMK AO2
14840KMKG MKG20060628064509406/28/06 06:45:31  5-MIN KMKG 281145Z 00000KT 6SM BR CLR 16/14 A3001 550 93 800 000/00 RMK AO2
14840KMKG MKG20060628065012906/28/06 06:50:31  5-MIN KMKG 281150Z 00000KT 6SM BR CLR 16/15 A3001 550 93 800 000/00 RMK AO2 SLP161 T01610150 10161 20128 56004
14840KMKG MKG20060628065512906/28/06 06:55:31  5-MIN KMKG 281155Z 00000KT 6SM BR CLR 17/15 A3001 550 90 900 000/00 RMK AO2 SLP161 T01670150 10167 20128 51013
14840KMKG MKG20060628070009806/28/06 07:00:31  5-MIN KMKG 281200Z 00000KT 6SM BR FEW085 17/16 A3001 550 90 1000 000/00 RMK AO2
14840KMKG MKG20060628070509506/28/06 07:05:31  5-MIN KMKG 281205Z 00000KT 7SM FEW085 17/16 A3001 550 90 1000 000/00 RMK AO2
14840KMKG MKG20060628071009206/28/06 07:10:31  5-MIN KMKG 281210Z 00000KT 7SM CLR 18/16 A3001 540 87 1000 000/00 RMK AO2
14840KMKG MKG20060628071509206/28/06 07:15:31  5-MIN KMKG 281215Z 00000KT 8SM CLR 18/16 A3001 540 84 1100 000/00 RMK AO2
14840KMKG MKG20060628072009506/28/06 07:20:31  5-MIN KMKG 281220Z 00000KT 9SM FEW085 18/16 A3001 540 87 1000 000/00 RMK AO2
14840KMKG MKG20060628072509506/28/06 07:25:31  5-MIN KMKG 281225Z 00000KT 9SM FEW085 18/16 A3002 540 87 1000 000/00 RMK AO2
14840KMKG MKG20060628073009306/28/06 07:30:31  5-MIN KMKG 281230Z 24003KT 10SM CLR 18/16 A3002 540 84 1100 240/03 RMK AO2
14840KMKG MKG20060628073509306/28/06 07:35:31  5-MIN KMKG 281235Z VRB04KT 10SM CLR 18/16 A3002 540 84 1100 VRB/04 RMK AO2
14840KMKG MKG20060628074009306/28/06 07:40:31  5-MIN KMKG 281240Z 25004KT 10SM CLR 19/16 A3002 540 81 1200 250/04 RMK AO2
14840KMKG MKG20060628074509306/28/06 07:45:31  5-MIN KMKG 281245Z 26005KT 10SM CLR 19/15 A3002 540 78 1200 270/05 RMK AO2
14840KMKG MKG20060628075011006/28/06 07:50:31  5-MIN KMKG 281250Z VRB03KT 10SM CLR 19/15 A3002 540 75 1200 VRB/03 RMK AO2 SLP163 T01940150
14840KMKG MKG20060628075512006/28/06 07:55:31  5-MIN KMKG 281255Z 29005KT 10SM FEW050 SCT110 20/15 A3002 540 72 1300 290/05 RMK AO2 SLP163 T02000150
14840KMKG MKG20060628080009306/28/06 08:00:31  5-MIN KMKG 281300Z 26003KT 10SM CLR 19/14 A3002 540 70 1200 260/03 RMK AO2
14840KMKG MKG20060628080509306/28/06 08:05:31  5-MIN KMKG 281305Z 25003KT 10SM CLR 20/14 A3002 540 67 1300 250/03 RMK AO2
14840KMKG MKG20060628081009306/28/06 08:10:31  5-MIN KMKG 281310Z 27004KT 10SM CLR 20/13 A3002 540 65 1300 280/04 RMK AO2
14840KMKG MKG20060628081509306/28/06 08:15:31  5-MIN KMKG 281315Z VRB04KT 10SM CLR 20/14 A3002 540 67 1300 VRB/04 RMK AO2
14840KMKG MKG20060628082009306/28/06 08:20:31  5-MIN KMKG 281320Z 29004KT 10SM CLR 20/13 A3002 540 65 1300 290/04 RMK AO2
14840KMKG MKG20060628082509306/28/06 08:25:31  5-MIN KMKG 281325Z 00000KT 10SM CLR 20/13 A3002 540 65 1300 000/00 RMK AO2
14840KMKG MKG20060628083009606/28/06 08:30:31  5-MIN KMKG 281330Z 00000KT 10SM FEW095 20/13 A3002 540 63 1300 000/00 RMK AO2
14840KMKG MKG20060628083509606/28/06 08:35:31  5-MIN KMKG 281335Z VRB03KT 10SM FEW095 20/13 A3002 540 65 1300 VRB/03 RMK AO2
14840KMKG MKG20060628084009606/28/06 08:40:31  5-MIN KMKG 281340Z VRB04KT 10SM SCT095 20/13 A3002 540 65 1300 VRB/04 RMK AO2
14840KMKG MKG20060628084509606/28/06 08:45:31  5-MIN KMKG 281345Z VRB03KT 10SM SCT095 21/13 A3002 540 63 1400 VRB/03 RMK AO2
14840KMKG MKG20060628085011306/28/06 08:50:31  5-MIN KMKG 281350Z VRB04KT 10SM SCT095 21/13 A3002 540 61 1400 VRB/04 RMK AO2 SLP162 T02110133
14840KMKG MKG20060628085512006/28/06 08:55:31  5-MIN KMKG 281355Z 26004KT 10SM FEW050 BKN095 21/13 A3002 540 60 1400 260/04 RMK AO2 SLP163 T02060128
14840KMKG MKG20060628090009606/28/06 09:00:31  5-MIN KMKG 281400Z 32005KT 10SM SCT095 21/13 A3002 540 60 1400 320/05 RMK AO2
14840KMKG MKG20060628090509606/28/06 09:05:31  5-MIN KMKG 281405Z 25004KT 10SM SCT095 21/13 A3002 540 61 1400 250/04 RMK AO2
14840KMKG MKG20060628091009606/28/06 09:10:31  5-MIN KMKG 281410Z VRB05KT 10SM FEW095 21/13 A3002 540 58 1400 VRB/05 RMK AO2
14840KMKG MKG20060628091510306/28/06 09:15:31  5-MIN KMKG 281415Z 23003KT 10SM FEW080 SCT095 21/12 A3002 540 56 1400 230/03 RMK AO2
14840KMKG MKG20060628092010306/28/06 09:20:31  5-MIN KMKG 281420Z 22007KT 10SM FEW080 SCT095 21/12 A3002 540 56 1400 220/07 RMK AO2
14840KMKG MKG20060628092509606/28/06 09:25:31  5-MIN KMKG 281425Z 26004KT 10SM SCT085 21/12 A3002 540 56 1400 260/04 RMK AO2
14840KMKG MKG20060628093009606/28/06 09:30:31  5-MIN KMKG 281430Z 24005KT 10SM SCT080 21/12 A3002 540 56 1400 240/05 RMK AO2
14840KMKG MKG20060628093509606/28/06 09:35:31  5-MIN KMKG 281435Z 26006KT 10SM FEW080 22/12 A3002 540 54 1500 270/06 RMK AO2
14840KMKG MKG20060628094010306/28/06 09:40:31  5-MIN KMKG 281440Z 22004KT 10SM FEW070 SCT080 21/12 A3002 540 54 1400 230/04 RMK AO2
14840KMKG MKG20060628094509606/28/06 09:45:31  5-MIN KMKG 281445Z 24005KT 10SM SCT075 21/12 A3002 540 54 1400 250/05 RMK AO2
14840KMKG MKG20060628095011906/28/06 09:50:31  5-MIN KMKG 281450Z 24005KT 10SM SCT080 22/12 A3002 540 52 1500 240/05 RMK AO2 SLP163 T02170117 51013
14840KMKG MKG20060628095512606/28/06 09:55:31  5-MIN KMKG 281455Z 24007KT 10SM FEW050 BKN075 22/12 A3002 540 52 1500 250/07 RMK AO2 SLP163 T02170117 51003
14840KMKG MKG20060628100009606/28/06 10:00:31  5-MIN KMKG 281500Z 23005KT 10SM BKN075 22/12 A3002 540 54 1500 230/05 RMK AO2
14840KMKG MKG20060628100509606/28/06 10:05:31  5-MIN KMKG 281505Z 23006KT 10SM BKN075 22/12 A3002 540 52 1500 240/06 RMK AO2
14840KMKG MKG20060628101009606/28/06 10:10:31  5-MIN KMKG 281510Z 23005KT 10SM BKN070 21/12 A3002 540 56 1400 240/05 RMK AO2
14840KMKG MKG20060628101510306/28/06 10:15:31  5-MIN KMKG 281515Z 23007KT 10SM BKN070 BKN085 22/12 A3002 540 54 1500 240/07 RMK AO2
14840KMKG MKG20060628102011806/28/06 10:20:31  5-MIN KMKG 281520Z 23005KT 10SM SCT070 BKN085 21/12 A3002 540 56 1400 240/05 RMK AO2 CIG 070 RWY 14
14840KMKG MKG20060628102510306/28/06 10:25:31  5-MIN KMKG 281525Z 23005KT 10SM SCT070 BKN085 22/12 A3002 540 54 1500 240/05 RMK AO2
14840KMKG MKG20060628103010306/28/06 10:30:31  5-MIN KMKG 281530Z 26007KT 10SM FEW070 SCT080 22/12 A3002 540 52 1500 270/07 RMK AO2
14840KMKG MKG20060628103510306/28/06 10:35:31  5-MIN KMKG 281535Z 28008KT 10SM FEW065 SCT080 22/13 A3002 540 56 1500 280/08 RMK AO2
14840KMKG MKG20060628104010306/28/06 10:40:31  5-MIN KMKG 281540Z VRB04KT 10SM FEW070 SCT085 22/12 A3002 530 54 1500 VRB/04 RMK AO2
14840KMKG MKG20060628104510306/28/06 10:45:31  5-MIN KMKG 281545Z 28010KT 10SM FEW065 SCT080 22/12 A3002 530 52 1500 290/10 RMK AO2
14840KMKG MKG20060628105011306/28/06 10:50:31  5-MIN KMKG 281550Z 27009KT 10SM FEW065 23/13 A3003 530 53 1600 270/09 RMK AO2 SLP166 T02280128
14840KMKG MKG20060628105512006/28/06 10:55:31  5-MIN KMKG 281555Z 29011KT 10SM FEW040 SCT070 22/13 A3003 530 58 1500 290/11 RMK AO2 SLP166 T02170133
14840KMKG MKG20060628110009606/28/06 11:00:31  5-MIN KMKG 281600Z 27010KT 10SM FEW065 22/14 A3003 530 61 1500 280/10 RMK AO2
14840KMKG MKG20060628110509306/28/06 11:05:31  5-MIN KMKG 281605Z 25008KT 10SM CLR 21/14 A3003 530 65 1400 250/08 RMK AO2
14840KMKG MKG20060628111009306/28/06 11:10:31  5-MIN KMKG 281610Z 27007KT 10SM CLR 21/14 A3002 540 65 1400 270/07 RMK AO2
14840KMKG MKG20060628111509306/28/06 11:15:31  5-MIN KMKG 281615Z 27008KT 10SM CLR 22/14 A3002 540 63 1500 280/08 RMK AO2
14840KMKG MKG20060628112010906/28/06 11:20:31  5-MIN KMKG 281620Z 29008KT 260V330 10SM CLR 21/14 A3002 540 65 1400 290/08 260V330 RMK AO2
14840KMKG MKG20060628112509306/28/06 11:25:31  5-MIN KMKG 281625Z 30005KT 10SM CLR 21/14 A3002 540 65 1400 310/05 RMK AO2
14840KMKG MKG20060628113009306/28/06 11:30:31  5-MIN KMKG 281630Z 30007KT 10SM CLR 22/14 A3002 540 61 1500 300/07 RMK AO2
14840KMKG MKG20060628113509306/28/06 11:35:31  5-MIN KMKG 281635Z 28009KT 10SM CLR 22/14 A3002 540 61 1500 290/09 RMK AO2
14840KMKG MKG20060628114009306/28/06 11:40:31  5-MIN KMKG 281640Z 27008KT 10SM CLR 22/14 A3002 540 61 1500 270/08 RMK AO2
14840KMKG MKG20060628114509306/28/06 11:45:31  5-MIN KMKG 281645Z 30007KT 10SM CLR 22/14 A3002 540 61 1500 300/07 RMK AO2
14840KMKG MKG20060628115011006/28/06 11:50:31  5-MIN KMKG 281650Z 27008KT 10SM CLR 22/13 A3002 540 56 1500 280/08 RMK AO2 SLP163 T02170128
14840KMKG MKG20060628115511306/28/06 11:55:31  5-MIN KMKG 281655Z 27008KT 10SM FEW040 22/13 A3002 540 56 1500 270/08 RMK AO2 SLP162 T02170128
14840KMKG MKG20060628120009306/28/06 12:00:31  5-MIN KMKG 281700Z 29008KT 10SM CLR 22/13 A3002 540 54 1500 300/08 RMK AO2
14840KMKG MKG20060628120510906/28/06 12:05:31  5-MIN KMKG 281705Z 31007KT 270V330 10SM CLR 22/13 A3002 540 54 1500 310/07 270V330 RMK AO2
14840KMKG MKG20060628121009306/28/06 12:10:31  5-MIN KMKG 281710Z 27009KT 10SM CLR 22/13 A3002 540 56 1500 280/09 RMK AO2
14840KMKG MKG20060628121509306/28/06 12:15:31  5-MIN KMKG 281715Z 30009KT 10SM CLR 22/13 A3002 540 54 1500 310/09 RMK AO2
14840KMKG MKG20060628122009306/28/06 12:20:31  5-MIN KMKG 281720Z 30010KT 10SM CLR 22/13 A3001 540 56 1500 310/10 RMK AO2
14840KMKG MKG20060628122509306/28/06 12:25:31  5-MIN KMKG 281725Z 31009KT 10SM CLR 22/13 A3001 550 56 1500 310/09 RMK AO2
14840KMKG MKG20060628123009306/28/06 12:30:31  5-MIN KMKG 281730Z 28009KT 10SM CLR 22/13 A3001 550 56 1500 280/09 RMK AO2
14840KMKG MKG20060628123509306/28/06 12:35:31  5-MIN KMKG 281735Z 31008KT 10SM CLR 22/13 A3001 550 56 1500 320/08 RMK AO2
14840KMKG MKG20060628124009306/28/06 12:40:31  5-MIN KMKG 281740Z 28007KT 10SM CLR 22/13 A3001 550 56 1600 280/07 RMK AO2
14840KMKG MKG20060628124509306/28/06 12:45:31  5-MIN KMKG 281745Z 29008KT 10SM CLR 22/13 A3001 550 54 1600 300/08 RMK AO2
14840KMKG MKG20060628125014706/28/06 12:50:31  5-MIN KMKG 281750Z 32008KT 290V350 10SM FEW040 22/13 A3000 550 56 1600 320/08 290V350 RMK AO2 SLP158 T02220133 10228 20167 51003
14840KMKG MKG20060628125513106/28/06 12:55:31  5-MIN KMKG 281755Z 32007KT 10SM FEW040 23/13 A3000 550 53 1600 320/07 RMK AO2 SLP158 T02280128 10228 20167 58005
14840KMKG MKG20060628130009306/28/06 13:00:31  5-MIN KMKG 281800Z 33008KT 10SM CLR 23/13 A3000 550 53 1600 330/08 RMK AO2
14840KMKG MKG20060628130509306/28/06 13:05:31  5-MIN KMKG 281805Z 30009KT 10SM CLR 23/13 A3000 560 53 1700 310/09 RMK AO2
14840KMKG MKG20060628131009306/28/06 13:10:31  5-MIN KMKG 281810Z 33009KT 10SM CLR 23/13 A3000 560 53 1600 330/09 RMK AO2
14840KMKG MKG20060628131509306/28/06 13:15:31  5-MIN KMKG 281815Z 33008KT 10SM CLR 23/13 A3000 560 53 1600 330/08 RMK AO2
14840KMKG MKG20060628132010806/28/06 13:20:31  5-MIN KMKG 281820Z 31007KT 270V350 9SM CLR 23/13 A3000 560 53 1600 310/07 270V350 RMK AO2
14840KMKG MKG20060628132509206/28/06 13:25:31  5-MIN KMKG 281825Z 33009KT 9SM CLR 23/13 A3000 560 51 1700 340/09 RMK AO2
14840KMKG MKG20060628133009206/28/06 13:30:31  5-MIN KMKG 281830Z 31006KT 9SM CLR 23/12 A3000 550 51 1600 320/06 RMK AO2
14840KMKG MKG20060628133509206/28/06 13:35:31  5-MIN KMKG 281835Z 33007KT 9SM CLR 23/12 A3000 560 49 1700 330/07 RMK AO2
14840KMKG MKG20060628134010806/28/06 13:40:31  5-MIN KMKG 281840Z 32008KT 280V350 8SM CLR 23/12 A3000 550 49 1700 330/08 280V350 RMK AO2
14840KMKG MKG20060628134509206/28/06 13:45:31  5-MIN KMKG 281845Z VRB06KT 8SM CLR 23/12 A3000 560 49 1700 VRB/06 RMK AO2
14840KMKG MKG20060628135011206/28/06 13:50:31  5-MIN KMKG 281850Z 29009KT 8SM FEW040 23/12 A3000 560 49 1700 290/09 RMK AO2 SLP157 T02330122
14840KMKG MKG20060628135511206/28/06 13:55:31  5-MIN KMKG 281855Z 30009KT 8SM FEW040 23/12 A3000 550 49 1700 300/09 RMK AO2 SLP157 T02330122
14840KMKG MKG20060628140009506/28/06 14:00:31  5-MIN KMKG 281900Z 29005KT 8SM FEW040 23/12 A3000 550 51 1600 300/05 RMK AO2
14840KMKG MKG20060628140509506/28/06 14:05:31  5-MIN KMKG 281905Z 32007KT 8SM SCT036 23/12 A3000 560 49 1700 320/07 RMK AO2
14840KMKG MKG20060628141009506/28/06 14:10:31  5-MIN KMKG 281910Z 36007KT 8SM SCT038 23/12 A3000 560 49 1700 360/07 RMK AO2
14840KMKG MKG20060628141509506/28/06 14:15:31  5-MIN KMKG 281915Z 34011KT 8SM BKN038 24/12 A3000 560 47 1800 340/11 RMK AO2
14840KMKG MKG20060628142009506/28/06 14:20:31  5-MIN KMKG 281920Z 34008KT 7SM BKN038 23/12 A3000 560 49 1600 350/08 RMK AO2
14840KMKG MKG20060628142509506/28/06 14:25:31  5-MIN KMKG 281925Z 35008KT 7SM BKN040 23/12 A3000 560 49 1600 350/08 RMK AO2
14840KMKG MKG20060628143011106/28/06 14:30:31  5-MIN KMKG 281930Z 34009KT 7SM -RA BKN040 24/12 A3000 560 46 1800 340/09 RMK AO2 RAB30 P0000
14840KMKG MKG20060628143511006/28/06 14:35:31  5-MIN KMKG 281935Z 35006KT 8SM BKN040 23/12 A3000 560 49 1600 350/06 RMK AO2 RAB30E34 P0000
14840KMKG MKG20060628144011006/28/06 14:40:31  5-MIN KMKG 281940Z 34006KT 8SM SCT040 24/12 A3000 560 47 1800 340/06 RMK AO2 RAB30E34 P0000
14840KMKG MKG20060628144511006/28/06 14:45:31  5-MIN KMKG 281945Z 31008KT 8SM SCT040 23/12 A3000 560 47 1700 310/08 RMK AO2 RAB30E34 P0000
14840KMKG MKG20060628145012706/28/06 14:50:31  5-MIN KMKG 281950Z 28012KT 8SM FEW040 24/11 A3000 560 42 1800 290/12 RMK AO2 RAB30E34 SLP155 P0000 T02390106
14840KMKG MKG20060628145512706/28/06 14:55:31  5-MIN KMKG 281955Z 28011KT 7SM FEW040 23/11 A3000 560 44 1700 290/11 RMK AO2 RAB30E34 SLP157 P0000 T02330106
14840KMKG MKG20060628150010606/28/06 15:00:31  5-MIN KMKG 282000Z 25016KT 8SM FEW040 23/12 A3000 560 47 1700 260/16 RMK AO2 WSHFT 1946
14840KMKG MKG20060628150511206/28/06 15:05:31  5-MIN KMKG 282005Z 28015G18KT 8SM FEW040 22/13 A3000 550 56 1600 290/15G18 RMK AO2 WSHFT 1946
14840KMKG MKG20060628151010906/28/06 15:10:31  5-MIN KMKG 282010Z 29016G20KT 8SM CLR 21/14 A3001 550 63 1400 290/16G20 RMK AO2 WSHFT 1946
14840KMKG MKG20060628151510906/28/06 15:15:31  5-MIN KMKG 282015Z 31016G20KT 7SM CLR 21/13 A3001 550 63 1400 310/16G20 RMK AO2 WSHFT 1946
14840KMKG MKG20060628152010906/28/06 15:20:31  5-MIN KMKG 282020Z 29017G22KT 7SM CLR 19/13 A3001 550 67 1200 300/17G22 RMK AO2 WSHFT 1946
14840KMKG MKG20060628152510906/28/06 15:25:31  5-MIN KMKG 282025Z 30017G22KT 8SM CLR 19/13 A3001 540 67 1200 300/17G22 RMK AO2 WSHFT 1946
14840KMKG MKG20060628153010906/28/06 15:30:31  5-MIN KMKG 282030Z 30012G21KT 8SM CLR 19/13 A3002 540 67 1200 300/12G21 RMK AO2 WSHFT 1946
14840KMKG MKG20060628153510906/28/06 15:35:31  5-MIN KMKG 282035Z 31013G18KT 8SM CLR 19/13 A3002 540 67 1200 310/13G18 RMK AO2 WSHFT 1946
14840KMKG MKG20060628154010906/28/06 15:40:31  5-MIN KMKG 282040Z 30012G18KT 8SM CLR 20/13 A3002 540 65 1300 300/12G18 RMK AO2 WSHFT 1946
14840KMKG MKG20060628154510306/28/06 15:45:31  5-MIN KMKG 282045Z 30014KT 8SM CLR 20/12 A3002 540 60 1300 310/14 RMK AO2 WSHFT 1946
14840KMKG MKG20060628155013506/28/06 15:50:31  5-MIN KMKG 282050Z 29012KT 8SM SCT040 20/12 A3002 540 60 1300 300/12 RMK AO2 WSHFT 1946 SLP165 60000 T02000122 58005
14840KMKG MKG20060628155513506/28/06 15:55:31  5-MIN KMKG 282055Z 29012KT 8SM FEW040 20/12 A3002 540 60 1300 290/12 RMK AO2 WSHFT 1946 SLP165 60000 T02000122 53006
14840KMKG MKG20060628160009206/28/06 16:00:31  5-MIN KMKG 282100Z 31012KT 8SM CLR 20/12 A3002 540 60 1300 310/12 RMK AO2
14840KMKG MKG20060628160509206/28/06 16:05:31  5-MIN KMKG 282105Z 31011KT 8SM CLR 21/12 A3002 540 58 1300 310/11 RMK AO2
14840KMKG MKG20060628161009206/28/06 16:10:31  5-MIN KMKG 282110Z 29010KT 8SM CLR 21/12 A3002 540 54 1400 290/10 RMK AO2
14840KMKG MKG20060628161509206/28/06 16:15:31  5-MIN KMKG 282115Z 30013KT 8SM CLR 21/11 A3002 530 54 1300 300/13 RMK AO2
14840KMKG MKG20060628162009206/28/06 16:20:31  5-MIN KMKG 282120Z 30011KT 9SM CLR 20/11 A3003 530 56 1300 310/11 RMK AO2
14840KMKG MKG20060628162509206/28/06 16:25:31  5-MIN KMKG 282125Z 31010KT 9SM CLR 21/11 A3003 530 54 1300 320/10 RMK AO2
14840KMKG MKG20060628163009206/28/06 16:30:31  5-MIN KMKG 282130Z 30010KT 9SM CLR 21/11 A3003 530 54 1300 300/10 RMK AO2
14840KMKG MKG20060628163509206/28/06 16:35:31  5-MIN KMKG 282135Z 30009KT 9SM CLR 21/11 A3002 530 54 1300 300/09 RMK AO2
14840KMKG MKG20060628164009206/28/06 16:40:31  5-MIN KMKG 282140Z 30008KT 9SM CLR 21/11 A3002 530 54 1300 300/08 RMK AO2
14840KMKG MKG20060628164509206/28/06 16:45:31  5-MIN KMKG 282145Z 30011KT 9SM CLR 21/11 A3002 540 54 1300 310/11 RMK AO2
14840KMKG MKG20060628165011206/28/06 16:50:31  5-MIN KMKG 282150Z 30012KT 9SM FEW040 21/11 A3002 540 54 1300 300/12 RMK AO2 SLP165 T02060111
14840KMKG MKG20060628165511206/28/06 16:55:31  5-MIN KMKG 282155Z 30011KT 9SM FEW040 20/11 A3002 540 56 1300 310/11 RMK AO2 SLP165 T02000111
14840KMKG MKG20060628170009306/28/06 17:00:31  5-MIN KMKG 282200Z 30012KT 10SM CLR 20/11 A3002 540 56 1300 300/12 RMK AO2
14840KMKG MKG20060628170509306/28/06 17:05:31  5-MIN KMKG 282205Z 30011KT 10SM CLR 20/11 A3002 540 56 1300 300/11 RMK AO2
14840KMKG MKG20060628171009306/28/06 17:10:31  5-MIN KMKG 282210Z 30010KT 10SM CLR 20/12 A3002 540 58 1300 300/10 RMK AO2
14840KMKG MKG20060628171509306/28/06 17:15:31  5-MIN KMKG 282215Z 30011KT 10SM CLR 20/12 A3002 540 58 1300 300/11 RMK AO2
14840KMKG MKG20060628172009306/28/06 17:20:31  5-MIN KMKG 282220Z 29011KT 10SM CLR 19/13 A3002 540 65 1200 290/11 RMK AO2
14840KMKG MKG20060628172509306/28/06 17:25:31  5-MIN KMKG 282225Z 29011KT 10SM CLR 19/13 A3002 540 65 1200 300/11 RMK AO2
14840KMKG MKG20060628173009306/28/06 17:30:31  5-MIN KMKG 282230Z 29011KT 10SM CLR 19/13 A3002 530 65 1200 290/11 RMK AO2
14840KMKG MKG20060628173509306/28/06 17:35:31  5-MIN KMKG 282235Z 29011KT 10SM CLR 20/12 A3002 530 60 1300 300/11 RMK AO2
14840KMKG MKG20060628174009306/28/06 17:40:31  5-MIN KMKG 282240Z 30009KT 10SM CLR 19/12 A3002 540 62 1200 310/09 RMK AO2
14840KMKG MKG20060628174509306/28/06 17:45:31  5-MIN KMKG 282245Z 28009KT 10SM CLR 20/13 A3002 530 63 1300 290/09 RMK AO2
14840KMKG MKG20060628175011006/28/06 17:50:31  5-MIN KMKG 282250Z 30010KT 10SM CLR 19/12 A3002 530 62 1200 300/10 RMK AO2 SLP167 T01940122
14840KMKG MKG20060628175511006/28/06 17:55:31  5-MIN KMKG 282255Z 30010KT 10SM CLR 19/12 A3002 540 62 1200 300/10 RMK AO2 SLP166 T01940122
14840KMKG MKG20060628180009306/28/06 18:00:31  5-MIN KMKG 282300Z 29009KT 10SM CLR 19/12 A3002 540 60 1200 300/09 RMK AO2
14840KMKG MKG20060628180509306/28/06 18:05:31  5-MIN KMKG 282305Z 28009KT 10SM CLR 19/12 A3002 540 62 1200 280/09 RMK AO2
14840KMKG MKG20060628181009306/28/06 18:10:31  5-MIN KMKG 282310Z 29008KT 10SM CLR 19/13 A3002 540 65 1200 300/08 RMK AO2
14840KMKG MKG20060628181509306/28/06 18:15:31  5-MIN KMKG 282315Z 29010KT 10SM CLR 19/12 A3002 530 62 1200 300/10 RMK AO2
14840KMKG MKG20060628182009306/28/06 18:20:31  5-MIN KMKG 282320Z 29011KT 10SM CLR 19/12 A3003 530 62 1200 300/11 RMK AO2
14840KMKG MKG20060628182509606/28/06 18:25:31  5-MIN KMKG 282325Z 30009KT 10SM FEW085 19/12 A3003 530 62 1200 300/09 RMK AO2
14840KMKG MKG20060628183009606/28/06 18:30:31  5-MIN KMKG 282330Z 31009KT 10SM FEW085 19/12 A3002 530 62 1200 310/09 RMK AO2
14840KMKG MKG20060628183509306/28/06 18:35:31  5-MIN KMKG 282335Z 29008KT 10SM CLR 19/12 A3003 530 65 1200 300/08 RMK AO2
14840KMKG MKG20060628184009306/28/06 18:40:31  5-MIN KMKG 282340Z 29010KT 10SM CLR 19/13 A3002 530 67 1200 300/10 RMK AO2
14840KMKG MKG20060628184509306/28/06 18:45:31  5-MIN KMKG 282345Z 30008KT 10SM CLR 19/12 A3003 530 65 1200 310/08 RMK AO2
14840KMKG MKG20060628185013406/28/06 18:50:31  5-MIN KMKG 282350Z 31009KT 10SM CLR 18/13 A3003 530 70 1100 310/09 RMK AO2 SLP167 60000 T01830128 10239 20183 53006
14840KMKG MKG20060628185513406/28/06 18:55:31  5-MIN KMKG 282355Z 30009KT 10SM CLR 18/13 A3003 530 70 1100 300/09 RMK AO2 SLP167 60000 T01830128 10239 20183 53002
14840KMKG MKG20060628190009306/28/06 19:00:31  5-MIN KMKG 290000Z 30009KT 10SM CLR 18/12 A3003 530 67 1100 300/09 RMK AO2
14840KMKG MKG20060628190509306/28/06 19:05:31  5-MIN KMKG 290005Z 31008KT 10SM CLR 18/13 A3003 530 70 1100 310/08 RMK AO2
14840KMKG MKG20060628191009306/28/06 19:10:31  5-MIN KMKG 290010Z 32008KT 10SM CLR 18/12 A3002 530 67 1100 320/08 RMK AO2
14840KMKG MKG20060628191509306/28/06 19:15:31  5-MIN KMKG 290015Z 31006KT 10SM CLR 18/12 A3003 530 67 1100 310/06 RMK AO2
14840KMKG MKG20060628192009306/28/06 19:20:31  5-MIN KMKG 290020Z 31006KT 10SM CLR 18/12 A3003 530 67 1100 320/06 RMK AO2
14840KMKG MKG20060628192509306/28/06 19:25:31  5-MIN KMKG 290025Z 31009KT 10SM CLR 18/12 A3003 530 67 1100 310/09 RMK AO2
14840KMKG MKG20060628193009306/28/06 19:30:31  5-MIN KMKG 290030Z 30008KT 10SM CLR 18/12 A3004 520 67 1100 300/08 RMK AO2
14840KMKG MKG20060628193509306/28/06 19:35:31  5-MIN KMKG 290035Z 30007KT 10SM CLR 18/12 A3004 520 65 1100 300/07 RMK AO2
14840KMKG MKG20060628194009306/28/06 19:40:31  5-MIN KMKG 290040Z 31007KT 10SM CLR 18/12 A3004 520 67 1000 320/07 RMK AO2
14840KMKG MKG20060628194509306/28/06 19:45:31  5-MIN KMKG 290045Z 30007KT 10SM CLR 18/12 A3004 520 67 1000 310/07 RMK AO2
14840KMKG MKG20060628195011006/28/06 19:50:31  5-MIN KMKG 290050Z 29009KT 10SM CLR 18/12 A3005 510 67 1000 300/09 RMK AO2 SLP173 T01780117
14840KMKG MKG20060628195510906/28/06 19:55:31  5-MIN KMKG 290055Z 29007KT 10SM CLR 17/12 A3005 510 69 900 290/07 RMK AO2 SLP174 T01720117
14840KMKG MKG20060628200009206/28/06 20:00:31  5-MIN KMKG 290100Z 30007KT 10SM CLR 17/12 A3005 510 72 900 300/07 RMK AO2
14840KMKG MKG20060628200509206/28/06 20:05:31  5-MIN KMKG 290105Z 30009KT 10SM CLR 17/12 A3005 510 75 900 310/09 RMK AO2
14840KMKG MKG20060628201009206/28/06 20:10:31  5-MIN KMKG 290110Z 31007KT 10SM CLR 17/12 A3005 510 75 900 310/07 RMK AO2
14840KMKG MKG20060628201509206/28/06 20:15:31  5-MIN KMKG 290115Z 31008KT 10SM CLR 17/12 A3005 510 75 900 310/08 RMK AO2
14840KMKG MKG20060628202009206/28/06 20:20:31  5-MIN KMKG 290120Z 32007KT 10SM CLR 17/13 A3005 510 77 900 320/07 RMK AO2
14840KMKG MKG20060628202509206/28/06 20:25:31  5-MIN KMKG 290125Z 33007KT 10SM CLR 17/13 A3005 510 77 900 330/07 RMK AO2
14840KMKG MKG20060628203009206/28/06 20:30:31  5-MIN KMKG 290130Z 33009KT 10SM CLR 17/13 A3005 510 77 900 330/09 RMK AO2
14840KMKG MKG20060628203509206/28/06 20:35:31  5-MIN KMKG 290135Z 34008KT 10SM CLR 17/13 A3006 510 77 900 340/08 RMK AO2
14840KMKG MKG20060628204009206/28/06 20:40:31  5-MIN KMKG 290140Z 33009KT 10SM CLR 17/13 A3006 500 77 900 330/09 RMK AO2
14840KMKG MKG20060628204509206/28/06 20:45:31  5-MIN KMKG 290145Z 33009KT 10SM CLR 17/13 A3006 500 77 900 340/09 RMK AO2
14840KMKG MKG20060628205010906/28/06 20:50:31  5-MIN KMKG 290150Z 33007KT 10SM CLR 17/12 A3006 500 75 900 330/07 RMK AO2 SLP178 T01670122
14840KMKG MKG20060628205510906/28/06 20:55:31  5-MIN KMKG 290155Z 33007KT 10SM CLR 17/12 A3006 500 75 900 330/07 RMK AO2 SLP178 T01670122
14840KMKG MKG20060628210009206/28/06 21:00:31  5-MIN KMKG 290200Z 33006KT 10SM CLR 17/12 A3006 500 75 900 340/06 RMK AO2
14840KMKG MKG20060628210509206/28/06 21:05:31  5-MIN KMKG 290205Z 33006KT 10SM CLR 17/12 A3006 500 75 800 340/06 RMK AO2
14840KMKG MKG20060628211009206/28/06 21:10:31  5-MIN KMKG 290210Z 34004KT 10SM CLR 17/12 A3007 500 75 800 340/04 RMK AO2
14840KMKG MKG20060628211509206/28/06 21:15:31  5-MIN KMKG 290215Z 34005KT 10SM CLR 16/12 A3007 500 75 800 340/05 RMK AO2
14840KMKG MKG20060628212009206/28/06 21:20:31  5-MIN KMKG 290220Z 29003KT 10SM CLR 17/12 A3007 490 72 800 290/03 RMK AO2
14840KMKG MKG20060628212509206/28/06 21:25:31  5-MIN KMKG 290225Z 28004KT 10SM CLR 16/12 A3007 490 77 800 280/04 RMK AO2
14840KMKG MKG20060628213009206/28/06 21:30:31  5-MIN KMKG 290230Z 29007KT 10SM CLR 16/12 A3007 490 77 800 300/07 RMK AO2
14840KMKG MKG20060628213509206/28/06 21:35:31  5-MIN KMKG 290235Z 28006KT 10SM CLR 16/12 A3007 490 77 800 280/06 RMK AO2
14840KMKG MKG20060628214009206/28/06 21:40:31  5-MIN KMKG 290240Z 29005KT 10SM CLR 16/12 A3007 490 80 700 290/05 RMK AO2
14840KMKG MKG20060628214509206/28/06 21:45:31  5-MIN KMKG 290245Z 30006KT 10SM CLR 16/12 A3007 490 77 800 300/06 RMK AO2
14840KMKG MKG20060628215011506/28/06 21:50:31  5-MIN KMKG 290250Z 30006KT 10SM CLR 16/13 A3007 490 80 800 310/06 RMK AO2 SLP180 T01610128 53002
14840KMKG MKG20060628215511506/28/06 21:55:31  5-MIN KMKG 290255Z 31005KT 10SM CLR 16/13 A3006 500 80 800 320/05 RMK AO2 SLP179 T01610128 51012
14840KMKG MKG20060628220009206/28/06 22:00:31  5-MIN KMKG 290300Z 32006KT 10SM CLR 16/13 A3007 500 80 800 320/06 RMK AO2
14840KMKG MKG20060628220509206/28/06 22:05:31  5-MIN KMKG 290305Z 32006KT 10SM CLR 16/13 A3007 490 80 800 320/06 RMK AO2
14840KMKG MKG20060628221009206/28/06 22:10:31  5-MIN KMKG 290310Z 31004KT 10SM CLR 16/13 A3007 490 80 800 310/04 RMK AO2
14840KMKG MKG20060628221509206/28/06 22:15:31  5-MIN KMKG 290315Z 29005KT 10SM CLR 16/13 A3007 490 83 700 290/05 RMK AO2
14840KMKG MKG20060628222009206/28/06 22:20:31  5-MIN KMKG 290320Z 30006KT 10SM CLR 16/13 A3007 490 83 700 300/06 RMK AO2
14840KMKG MKG20060628222509206/28/06 22:25:31  5-MIN KMKG 290325Z 30006KT 10SM CLR 16/13 A3007 490 83 700 310/06 RMK AO2
14840KMKG MKG20060628223009206/28/06 22:30:31  5-MIN KMKG 290330Z VRB05KT 10SM CLR 16/13 A3007 490 83 700 VRB/05 RMK AO2
14840KMKG MKG20060628223509206/28/06 22:35:31  5-MIN KMKG 290335Z 29005KT 10SM CLR 16/13 A3007 490 83 700 290/05 RMK AO2
14840KMKG MKG20060628224009206/28/06 22:40:31  5-MIN KMKG 290340Z 29005KT 10SM CLR 16/12 A3007 490 80 700 300/05 RMK AO2
14840KMKG MKG20060628224509206/28/06 22:45:31  5-MIN KMKG 290345Z 28005KT 10SM CLR 16/12 A3007 490 80 700 290/05 RMK AO2
14840KMKG MKG20060628225010906/28/06 22:50:31  5-MIN KMKG 290350Z 31004KT 10SM CLR 15/12 A3007 490 83 600 310/04 RMK AO2 SLP183 T01500122
14840KMKG MKG20060628225510906/28/06 22:55:31  5-MIN KMKG 290355Z 31004KT 10SM CLR 16/12 A3008 490 77 700 310/04 RMK AO2 SLP184 T01560117
14840KMKG MKG20060628230009206/28/06 23:00:31  5-MIN KMKG 290400Z 30004KT 10SM CLR 16/12 A3008 490 77 700 310/04 RMK AO2
14840KMKG MKG20060628230509206/28/06 23:05:31  5-MIN KMKG 290405Z 30005KT 10SM CLR 16/12 A3007 490 80 700 300/05 RMK AO2
14840KMKG MKG20060628231009206/28/06 23:10:31  5-MIN KMKG 290410Z 30004KT 10SM CLR 16/12 A3007 490 80 700 310/04 RMK AO2
14840KMKG MKG20060628231509206/28/06 23:15:31  5-MIN KMKG 290415Z 31004KT 10SM CLR 16/12 A3007 490 80 700 310/04 RMK AO2
14840KMKG MKG20060628232009206/28/06 23:20:31  5-MIN KMKG 290420Z 29004KT 10SM CLR 16/12 A3007 490 80 700 300/04 RMK AO2
14840KMKG MKG20060628232509206/28/06 23:25:31  5-MIN KMKG 290425Z 28003KT 10SM CLR 15/12 A3007 490 83 600 280/03 RMK AO2
14840KMKG MKG20060628233009206/28/06 23:30:31  5-MIN KMKG 290430Z 31004KT 10SM CLR 15/12 A3008 490 83 600 310/04 RMK AO2
14840KMKG MKG20060628233509206/28/06 23:35:31  5-MIN KMKG 290435Z 33004KT 10SM CLR 15/13 A3007 490 86 600 330/04 RMK AO2
14840KMKG MKG20060628234009106/28/06 23:40:31  5-MIN KMKG 290440Z 32005KT 9SM CLR 16/13 A3007 490 83 700 320/05 RMK AO2
14840KMKG MKG20060628234509106/28/06 23:45:31  5-MIN KMKG 290445Z 31004KT 9SM CLR 16/13 A3007 490 86 700 310/04 RMK AO2
14840KMKG MKG20060628235011806/28/06 23:50:31  5-MIN KMKG 290450Z 29003KT 9SM CLR 15/13 A3007 490 90 600 300/03 RMK AO2 SLP182 T01500133 402390128
14840KMKG MKG20060628235511806/28/06 23:55:31  5-MIN KMKG 290455Z 28005KT 9SM CLR 15/13 A3007 490 86 600 290/05 RMK AO2 SLP183 T01500128 402390128
14840KMKG MKG20060629000009106/29/06 00:00:32  5-MIN KMKG 290500Z 28004KT 9SM CLR 14/13 A3008 490 90 600 290/04 RMK AO2
14840KMKG MKG20060629000509106/29/06 00:05:31  5-MIN KMKG 290505Z 28003KT 9SM CLR 14/13 A3008 490 90 600 290/03 RMK AO2
14840KMKG MKG20060629001009106/29/06 00:10:31  5-MIN KMKG 290510Z 30003KT 8SM CLR 14/13 A3008 480 90 600 300/03 RMK AO2
14840KMKG MKG20060629001509106/29/06 00:15:31  5-MIN KMKG 290515Z VRB04KT 9SM CLR 15/13 A3008 480 90 600 VRB/04 RMK AO2
14840KMKG MKG20060629002009106/29/06 00:20:31  5-MIN KMKG 290520Z 31004KT 9SM CLR 15/13 A3008 480 90 600 310/04 RMK AO2
14840KMKG MKG20060629002509106/29/06 00:25:31  5-MIN KMKG 290525Z 32004KT 9SM CLR 15/13 A3008 480 90 600 320/04 RMK AO2
14840KMKG MKG20060629003009106/29/06 00:30:31  5-MIN KMKG 290530Z 33008KT 9SM CLR 16/13 A3008 480 86 700 330/08 RMK AO2
14840KMKG MKG20060629003509206/29/06 00:35:31  5-MIN KMKG 290535Z 32006KT 10SM CLR 16/13 A3008 480 86 700 320/06 RMK AO2
14840KMKG MKG20060629004009206/29/06 00:40:31  5-MIN KMKG 290540Z 32005KT 10SM CLR 16/13 A3008 480 86 700 330/05 RMK AO2
14840KMKG MKG20060629004509206/29/06 00:45:31  5-MIN KMKG 290545Z 31004KT 10SM CLR 16/13 A3008 480 86 700 310/04 RMK AO2
14840KMKG MKG20060629005012706/29/06 00:50:31  5-MIN KMKG 290550Z 31003KT 10SM CLR 15/13 A3008 480 90 600 310/03 RMK AO2 SLP186 T01500133 10183 20139 51012
14840KMKG MKG20060629005512706/29/06 00:55:31  5-MIN KMKG 290555Z 33004KT 10SM CLR 15/13 A3008 480 86 600 330/04 RMK AO2 SLP186 T01500128 10183 20139 51007
14840KMKG MKG20060629010009206/29/06 01:00:31  5-MIN KMKG 290600Z 33006KT 10SM CLR 15/13 A3009 480 86 600 330/06 RMK AO2
14840KMKG MKG20060629010509206/29/06 01:05:31  5-MIN KMKG 290605Z 32006KT 10SM CLR 16/13 A3009 480 83 700 320/06 RMK AO2
14840KMKG MKG20060629011009206/29/06 01:10:31  5-MIN KMKG 290610Z 33006KT 10SM CLR 16/13 A3009 470 83 700 330/06 RMK AO2
14840KMKG MKG20060629011509206/29/06 01:15:31  5-MIN KMKG 290615Z 31005KT 10SM CLR 16/13 A3009 480 83 700 320/05 RMK AO2
14840KMKG MKG20060629012009206/29/06 01:20:31  5-MIN KMKG 290620Z 31005KT 10SM CLR 15/13 A3009 480 86 600 320/05 RMK AO2
14840KMKG MKG20060629012509206/29/06 01:25:31  5-MIN KMKG 290625Z 29004KT 10SM CLR 15/13 A3009 480 86 600 290/04 RMK AO2
14840KMKG MKG20060629013009206/29/06 01:30:31  5-MIN KMKG 290630Z 30004KT 10SM CLR 16/13 A3008 480 83 700 300/04 RMK AO2
14840KMKG MKG20060629013509206/29/06 01:35:31  5-MIN KMKG 290635Z 30005KT 10SM CLR 15/13 A3008 480 86 600 300/05 RMK AO2
14840KMKG MKG20060629014009206/29/06 01:40:31  5-MIN KMKG 290640Z 30007KT 10SM CLR 16/13 A3008 480 86 700 310/07 RMK AO2
14840KMKG MKG20060629014509206/29/06 01:45:31  5-MIN KMKG 290645Z 30005KT 10SM CLR 15/13 A3009 480 86 600 310/05 RMK AO2
14840KMKG MKG20060629015010906/29/06 01:50:31  5-MIN KMKG 290650Z 30004KT 10SM CLR 15/13 A3009 480 90 600 300/04 RMK AO2 SLP186 T01500133
14840KMKG MKG20060629015510906/29/06 01:55:31  5-MIN KMKG 290655Z 29004KT 10SM CLR 16/13 A3009 480 86 700 300/04 RMK AO2 SLP186 T01560133
14840KMKG MKG20060629020009206/29/06 02:00:31  5-MIN KMKG 290700Z 32004KT 10SM CLR 15/13 A3008 480 90 600 320/04 RMK AO2
14840KMKG MKG20060629020509206/29/06 02:05:31  5-MIN KMKG 290705Z 32007KT 10SM CLR 16/13 A3008 480 86 700 320/07 RMK AO2
14840KMKG MKG20060629021009206/29/06 02:10:31  5-MIN KMKG 290710Z 32006KT 10SM CLR 16/14 A3009 480 90 700 330/06 RMK AO2
14840KMKG MKG20060629021509206/29/06 02:15:31  5-MIN KMKG 290715Z 32007KT 10SM CLR 16/14 A3009 480 90 700 320/07 RMK AO2
14840KMKG MKG20060629022009206/29/06 02:20:31  5-MIN KMKG 290720Z 31006KT 10SM CLR 16/14 A3009 470 90 700 320/06 RMK AO2
14840KMKG MKG20060629022509206/29/06 02:25:31  5-MIN KMKG 290725Z 32007KT 10SM CLR 16/14 A3009 470 90 700 320/07 RMK AO2
14840KMKG MKG20060629023009206/29/06 02:30:31  5-MIN KMKG 290730Z VRB05KT 10SM CLR 16/14 A3009 470 90 700 VRB/05 RMK AO2
14840KMKG MKG20060629023509206/29/06 02:35:31  5-MIN KMKG 290735Z VRB05KT 10SM CLR 16/14 A3009 470 90 700 VRB/05 RMK AO2
14840KMKG MKG20060629024009106/29/06 02:40:31  5-MIN KMKG 290740Z VRB03KT 9SM CLR 16/14 A3009 480 90 700 VRB/03 RMK AO2
14840KMKG MKG20060629024509106/29/06 02:45:31  5-MIN KMKG 290745Z 30003KT 9SM CLR 15/14 A3009 480 93 600 300/03 RMK AO2
14840KMKG MKG20060629025010806/29/06 02:50:31  5-MIN KMKG 290750Z 33006KT 9SM CLR 15/14 A3009 480 93 600 340/06 RMK AO2 SLP186 T01500139
14840KMKG MKG20060629025510806/29/06 02:55:31  5-MIN KMKG 290755Z 34004KT 9SM CLR 15/13 A3008 480 90 600 340/04 RMK AO2 SLP185 T01500133
14840KMKG MKG20060629030009106/29/06 03:00:31  5-MIN KMKG 290800Z 34005KT 9SM CLR 15/13 A3008 480 90 600 340/05 RMK AO2
14840KMKG MKG20060629030509106/29/06 03:05:31  5-MIN KMKG 290805Z 33006KT 9SM CLR 15/13 A3009 480 90 600 340/06 RMK AO2
14840KMKG MKG20060629031009106/29/06 03:10:31  5-MIN KMKG 290810Z 32006KT 9SM CLR 15/14 A3009 480 93 600 330/06 RMK AO2
14840KMKG MKG20060629031509106/29/06 03:15:31  5-MIN KMKG 290815Z 33007KT 9SM CLR 16/14 A3009 470 90 700 330/07 RMK AO2
14840KMKG MKG20060629032009106/29/06 03:20:31  5-MIN KMKG 290820Z 33005KT 9SM CLR 15/14 A3009 480 93 600 330/05 RMK AO2
14840KMKG MKG20060629032509106/29/06 03:25:31  5-MIN KMKG 290825Z 33006KT 9SM CLR 15/14 A3009 480 93 600 330/06 RMK AO2
14840KMKG MKG20060629033009106/29/06 03:30:31  5-MIN KMKG 290830Z 33004KT 9SM CLR 15/14 A3009 480 93 600 330/04 RMK AO2
14840KMKG MKG20060629033509106/29/06 03:35:31  5-MIN KMKG 290835Z 32005KT 8SM CLR 15/13 A3009 480 90 600 330/05 RMK AO2
14840KMKG MKG20060629034009106/29/06 03:40:31  5-MIN KMKG 290840Z 33006KT 8SM CLR 15/14 A3009 480 93 600 340/06 RMK AO2
14840KMKG MKG20060629034509106/29/06 03:45:31  5-MIN KMKG 290845Z 35003KT 8SM CLR 15/13 A3009 480 90 600 350/03 RMK AO2
14840KMKG MKG20060629035011406/29/06 03:50:31  5-MIN KMKG 290850Z 34004KT 8SM CLR 14/13 A3009 480 93 600 340/04 RMK AO2 SLP187 T01440133 51007
14840KMKG MKG20060629035511406/29/06 03:55:31  5-MIN KMKG 290855Z 33004KT 8SM CLR 14/13 A3009 470 93 600 330/04 RMK AO2 SLP188 T01440133 53002
14840KMKG MKG20060629040009106/29/06 04:00:31  5-MIN KMKG 290900Z 33006KT 8SM CLR 15/13 A3009 470 90 600 330/06 RMK AO2
14840KMKG MKG20060629040509106/29/06 04:05:31  5-MIN KMKG 290905Z 33005KT 8SM CLR 15/14 A3009 470 93 600 340/05 RMK AO2
14840KMKG MKG20060629041009106/29/06 04:10:31  5-MIN KMKG 290910Z 33006KT 8SM CLR 15/13 A3009 470 90 600 340/06 RMK AO2
14840KMKG MKG20060629041509106/29/06 04:15:31  5-MIN KMKG 290915Z 33005KT 8SM CLR 15/14 A3009 470 93 600 340/05 RMK AO2
14840KMKG MKG20060629042009106/29/06 04:20:31  5-MIN KMKG 290920Z 33006KT 8SM CLR 15/13 A3010 470 90 600 340/06 RMK AO2
14840KMKG MKG20060629042509106/29/06 04:25:31  5-MIN KMKG 290925Z 32005KT 8SM CLR 15/13 A3009 470 90 600 330/05 RMK AO2
14840KMKG MKG20060629043009106/29/06 04:30:31  5-MIN KMKG 290930Z 33006KT 9SM CLR 15/13 A3009 470 90 600 330/06 RMK AO2
14840KMKG MKG20060629043509106/29/06 04:35:31  5-MIN KMKG 290935Z 33006KT 9SM CLR 15/13 A3009 470 90 600 340/06 RMK AO2
14840KMKG MKG20060629044009106/29/06 04:40:31  5-MIN KMKG 290940Z 32005KT 9SM CLR 15/13 A3010 470 90 600 320/05 RMK AO2
14840KMKG MKG20060629044509106/29/06 04:45:31  5-MIN KMKG 290945Z 29004KT 9SM CLR 15/13 A3010 470 90 600 290/04 RMK AO2
14840KMKG MKG20060629045010806/29/06 04:50:31  5-MIN KMKG 290950Z VRB04KT 9SM CLR 14/13 A3010 460 93 500 VRB/04 RMK AO2 SLP191 T01440133
14840KMKG MKG20060629045510806/29/06 04:55:31  5-MIN KMKG 290955Z 32005KT 8SM CLR 15/13 A3010 460 90 600 320/05 RMK AO2 SLP191 T01500133
14840KMKG MKG20060629050009106/29/06 05:00:31  5-MIN KMKG 291000Z VRB04KT 9SM CLR 15/13 A3010 470 90 600 VRB/04 RMK AO2
14840KMKG MKG20060629050509106/29/06 05:05:31  5-MIN KMKG 291005Z 33004KT 8SM CLR 15/13 A3010 470 90 600 330/04 RMK AO2
14840KMKG MKG20060629051009106/29/06 05:10:31  5-MIN KMKG 291010Z VRB03KT 7SM CLR 14/13 A3010 470 93 500 VRB/03 RMK AO2
14840KMKG MKG20060629051509106/29/06 05:15:31  5-MIN KMKG 291015Z 00000KT 7SM CLR 13/12 A3010 460 93 400 000/00 RMK AO2
14840KMKG MKG20060629052009106/29/06 05:20:31  5-MIN KMKG 291020Z 00000KT 7SM CLR 13/12 A3010 460 93 400 000/00 RMK AO2
14840KMKG MKG20060629052509106/29/06 05:25:31  5-MIN KMKG 291025Z 00000KT 7SM CLR 13/12 A3010 460 93 400 000/00 RMK AO2
14840KMKG MKG20060629053009106/29/06 05:30:31  5-MIN KMKG 291030Z 32003KT 7SM CLR 13/12 A3010 460 93 400 330/03 RMK AO2
14840KMKG MKG20060629053509106/29/06 05:35:31  5-MIN KMKG 291035Z 33004KT 8SM CLR 14/13 A3010 460 93 500 330/04 RMK AO2
14840KMKG MKG20060629054009106/29/06 05:40:31  5-MIN KMKG 291040Z 33005KT 9SM CLR 14/13 A3010 460 93 500 340/05 RMK AO2
14840KMKG MKG20060629054509106/29/06 05:45:31  5-MIN KMKG 291045Z 33004KT 9SM CLR 15/13 A3010 460 90 600 330/04 RMK AO2
14840KMKG MKG20060629055010806/29/06 05:50:31  5-MIN KMKG 291050Z 31004KT 9SM CLR 15/13 A3011 460 90 600 310/04 RMK AO2 SLP193 T01500133
14840KMKG MKG20060629055510906/29/06 05:55:31  5-MIN KMKG 291055Z 31004KT 10SM CLR 14/13 A3011 460 90 500 310/04 RMK AO2 SLP193 T01440128
14840KMKG MKG20060629180009606/29/06 18:00:31  5-MIN KMKG 292300Z 28007KT 10SM FEW085 21/11 A3012 450 52 1300 280/07 RMK AO2
14840KMKG MKG20060629180509606/29/06 18:05:31  5-MIN KMKG 292305Z 28007KT 10SM FEW085 22/11 A3011 450 50 1400 290/07 RMK AO2
14840KMKG MKG20060629181009606/29/06 18:10:31  5-MIN KMKG 292310Z 26007KT 10SM FEW085 21/12 A3011 450 54 1300 270/07 RMK AO2
14840KMKG MKG20060629181509606/29/06 18:15:31  5-MIN KMKG 292315Z 26006KT 10SM FEW085 21/12 A3011 450 54 1300 260/06 RMK AO2
14840KMKG MKG20060629182009306/29/06 18:20:31  5-MIN KMKG 292320Z 26006KT 10SM CLR 21/12 A3011 450 54 1300 260/06 RMK AO2
14840KMKG MKG20060629182509306/29/06 18:25:31  5-MIN KMKG 292325Z 27005KT 10SM CLR 21/12 A3011 450 54 1300 280/05 RMK AO2
14840KMKG MKG20060629183009306/29/06 18:30:31  5-MIN KMKG 292330Z 27005KT 10SM CLR 21/12 A3011 450 56 1200 280/05 RMK AO2
14840KMKG MKG20060629183509306/29/06 18:35:31  5-MIN KMKG 292335Z 25007KT 10SM CLR 21/12 A3011 450 56 1200 250/07 RMK AO2
14840KMKG MKG20060629184009306/29/06 18:40:31  5-MIN KMKG 292340Z 26006KT 10SM CLR 21/11 A3011 460 54 1200 270/06 RMK AO2
14840KMKG MKG20060629184509306/29/06 18:45:31  5-MIN KMKG 292345Z 25005KT 10SM CLR 21/12 A3011 460 56 1300 260/05 RMK AO2
14840KMKG MKG20060629185012806/29/06 18:50:31  5-MIN KMKG 292350Z 26005KT 10SM CLR 21/11 A3011 460 54 1300 260/05 RMK AO2 SLP194 T02060111 10233 20206 56004
14840KMKG MKG20060629185512806/29/06 18:55:31  5-MIN KMKG 292355Z 25005KT 10SM CLR 21/12 A3010 460 56 1300 250/05 RMK AO2 SLP193 T02060117 10233 20206 58008
14840KMKG MKG20060629190009306/29/06 19:00:31  5-MIN KMKG 300000Z 23006KT 10SM CLR 20/12 A3010 460 58 1200 230/06 RMK AO2
14840KMKG MKG20060629190509306/29/06 19:05:31  5-MIN KMKG 300005Z 23005KT 10SM CLR 20/12 A3010 460 58 1200 240/05 RMK AO2
14840KMKG MKG20060629191009306/29/06 19:10:31  5-MIN KMKG 300010Z 23006KT 10SM CLR 20/12 A3010 460 60 1200 240/06 RMK AO2
14840KMKG MKG20060629191509306/29/06 19:15:31  5-MIN KMKG 300015Z 24004KT 10SM CLR 19/12 A3010 460 62 1100 240/04 RMK AO2
14840KMKG MKG20060629192009306/29/06 19:20:31  5-MIN KMKG 300020Z 23004KT 10SM CLR 19/13 A3010 460 65 1100 230/04 RMK AO2
14840KMKG MKG20060629192509306/29/06 19:25:31  5-MIN KMKG 300025Z 23004KT 10SM CLR 19/13 A3010 460 65 1100 240/04 RMK AO2
14840KMKG MKG20060629193009306/29/06 19:30:31  5-MIN KMKG 300030Z 24004KT 10SM CLR 19/13 A3010 460 65 1100 240/04 RMK AO2
14840KMKG MKG20060629193509306/29/06 19:35:31  5-MIN KMKG 300035Z 24004KT 10SM CLR 19/12 A3011 460 65 1100 240/04 RMK AO2
14840KMKG MKG20060629194009306/29/06 19:40:31  5-MIN KMKG 300040Z 24004KT 10SM CLR 19/13 A3011 460 67 1100 240/04 RMK AO2
14840KMKG MKG20060629194509306/29/06 19:45:31  5-MIN KMKG 300045Z 24004KT 10SM CLR 19/13 A3011 460 67 1100 240/04 RMK AO2
14840KMKG MKG20060629195011006/29/06 19:50:31  5-MIN KMKG 300050Z 23004KT 10SM CLR 18/13 A3011 460 72 1000 240/04 RMK AO2 SLP193 T01830133
14840KMKG MKG20060629195511006/29/06 19:55:31  5-MIN KMKG 300055Z 23003KT 10SM CLR 18/13 A3011 460 72 1000 240/03 RMK AO2 SLP193 T01830133
14840KMKG MKG20060629200009306/29/06 20:00:31  5-MIN KMKG 300100Z 25003KT 10SM CLR 18/13 A3011 460 72 1000 250/03 RMK AO2
14840KMKG MKG20060629200509206/29/06 20:05:31  5-MIN KMKG 300105Z 24004KT 10SM CLR 18/13 A3011 460 75 900 240/04 RMK AO2
14840KMKG MKG20060629201009206/29/06 20:10:31  5-MIN KMKG 300110Z 23004KT 10SM CLR 18/13 A3011 460 75 900 240/04 RMK AO2
14840KMKG MKG20060629201509206/29/06 20:15:31  5-MIN KMKG 300115Z 23004KT 10SM CLR 18/14 A3011 460 78 900 230/04 RMK AO2
14840KMKG MKG20060629202009206/29/06 20:20:31  5-MIN KMKG 300120Z 23003KT 10SM CLR 18/14 A3011 460 78 900 230/03 RMK AO2
14840KMKG MKG20060629202509206/29/06 20:25:31  5-MIN KMKG 300125Z 23003KT 10SM CLR 17/14 A3011 460 80 900 240/03 RMK AO2
14840KMKG MKG20060629203009206/29/06 20:30:31  5-MIN KMKG 300130Z 22003KT 10SM CLR 17/14 A3011 460 80 900 220/03 RMK AO2
14840KMKG MKG20060629203509206/29/06 20:35:31  5-MIN KMKG 300135Z 22003KT 10SM CLR 17/14 A3011 460 80 900 230/03 RMK AO2
14840KMKG MKG20060629204009206/29/06 20:40:31  5-MIN KMKG 300140Z 22003KT 10SM CLR 17/14 A3011 460 80 900 230/03 RMK AO2
14840KMKG MKG20060629204509206/29/06 20:45:31  5-MIN KMKG 300145Z 23003KT 10SM CLR 17/14 A3011 460 83 800 230/03 RMK AO2
14840KMKG MKG20060629205010906/29/06 20:50:31  5-MIN KMKG 300150Z 00000KT 10SM CLR 17/14 A3011 460 83 800 000/00 RMK AO2 SLP194 T01670139
14840KMKG MKG20060629205510906/29/06 20:55:31  5-MIN KMKG 300155Z 00000KT 10SM CLR 16/14 A3011 450 86 700 000/00 RMK AO2 SLP195 T01610139
14840KMKG MKG20060629210009206/29/06 21:00:31  5-MIN KMKG 300200Z 00000KT 10SM CLR 16/14 A3011 450 86 700 000/00 RMK AO2
14840KMKG MKG20060629210509206/29/06 21:05:31  5-MIN KMKG 300205Z 00000KT 10SM CLR 16/14 A3011 450 86 700 000/00 RMK AO2
14840KMKG MKG20060629211009206/29/06 21:10:31  5-MIN KMKG 300210Z 00000KT 10SM CLR 16/14 A3011 450 86 700 000/00 RMK AO2
14840KMKG MKG20060629211509206/29/06 21:15:31  5-MIN KMKG 300215Z 00000KT 10SM CLR 16/14 A3011 450 86 700 000/00 RMK AO2
14840KMKG MKG20060629212009206/29/06 21:20:31  5-MIN KMKG 300220Z 00000KT 10SM CLR 16/14 A3011 450 86 700 000/00 RMK AO2
14840KMKG MKG20060629212509206/29/06 21:25:31  5-MIN KMKG 300225Z 00000KT 10SM CLR 16/14 A3011 450 86 700 000/00 RMK AO2
14840KMKG MKG20060629213009206/29/06 21:30:31  5-MIN KMKG 300230Z 00000KT 10SM CLR 16/14 A3012 450 86 700 000/00 RMK AO2
14840KMKG MKG20060629213509206/29/06 21:35:31  5-MIN KMKG 300235Z 00000KT 10SM CLR 16/14 A3012 450 86 700 000/00 RMK AO2
14840KMKG MKG20060629214009206/29/06 21:40:31  5-MIN KMKG 300240Z 00000KT 10SM CLR 16/14 A3011 450 90 700 000/00 RMK AO2
14840KMKG MKG20060629214509106/29/06 21:45:31  5-MIN KMKG 300245Z 00000KT 9SM CLR 16/14 A3011 450 90 700 000/00 RMK AO2
14840KMKG MKG20060629215011406/29/06 21:50:31  5-MIN KMKG 300250Z 23003KT 9SM CLR 16/14 A3012 450 90 700 230/03 RMK AO2 SLP197 T01560139 58008
14840KMKG MKG20060629215511406/29/06 21:55:31  5-MIN KMKG 300255Z 23003KT 8SM CLR 14/13 A3011 450 93 500 230/03 RMK AO2 SLP197 T01440133 53004
14840KMKG MKG20060629220009106/29/06 22:00:31  5-MIN KMKG 300300Z 22003KT 8SM CLR 14/13 A3011 450 93 500 220/03 RMK AO2
14840KMKG MKG20060629220509206/29/06 22:05:31  5-MIN KMKG 300305Z 22004KT 10SM CLR 14/13 A3012 450 90 500 220/04 RMK AO2
14840KMKG MKG20060629221009206/29/06 22:10:31  5-MIN KMKG 300310Z 22003KT 10SM CLR 14/13 A3011 450 90 500 220/03 RMK AO2
14840KMKG MKG20060629221509106/29/06 22:15:31  5-MIN KMKG 300315Z 21003KT 9SM CLR 14/13 A3011 450 93 500 220/03 RMK AO2
14840KMKG MKG20060629222009106/29/06 22:20:31  5-MIN KMKG 300320Z 21003KT 9SM CLR 15/13 A3011 460 90 600 210/03 RMK AO2
14840KMKG MKG20060629222509206/29/06 22:25:31  5-MIN KMKG 300325Z 00000KT 10SM CLR 16/14 A3011 450 90 700 000/00 RMK AO2
14840KMKG MKG20060629223009206/29/06 22:30:31  5-MIN KMKG 300330Z 00000KT 10SM CLR 16/14 A3011 450 90 700 000/00 RMK AO2
14840KMKG MKG20060629223509206/29/06 22:35:31  5-MIN KMKG 300335Z 00000KT 10SM CLR 16/14 A3011 450 90 700 000/00 RMK AO2
14840KMKG MKG20060629224009206/29/06 22:40:31  5-MIN KMKG 300340Z 00000KT 10SM CLR 16/14 A3011 460 90 700 000/00 RMK AO2
14840KMKG MKG20060629224509206/29/06 22:45:31  5-MIN KMKG 300345Z 00000KT 10SM CLR 16/14 A3011 460 90 700 000/00 RMK AO2
14840KMKG MKG20060629225010906/29/06 22:50:31  5-MIN KMKG 300350Z 00000KT 10SM CLR 15/13 A3011 460 90 600 000/00 RMK AO2 SLP195 T01500133
14840KMKG MKG20060629225510906/29/06 22:55:31  5-MIN KMKG 300355Z 00000KT 10SM CLR 14/13 A3011 460 90 500 000/00 RMK AO2 SLP195 T01440128
14840KMKG MKG20060629230009106/29/06 23:00:31  5-MIN KMKG 300400Z 00000KT 9SM CLR 14/13 A3011 460 93 500 000/00 RMK AO2
14840KMKG MKG20060629230509106/29/06 23:05:31  5-MIN KMKG 300405Z 00000KT 9SM CLR 15/13 A3011 460 90 600 000/00 RMK AO2
14840KMKG MKG20060629231009106/29/06 23:10:31  5-MIN KMKG 300410Z 00000KT 9SM CLR 15/13 A3011 460 90 600 000/00 RMK AO2
14840KMKG MKG20060629231509206/29/06 23:15:31  5-MIN KMKG 300415Z 00000KT 10SM CLR 14/13 A3011 460 90 500 000/00 RMK AO2
14840KMKG MKG20060629232009206/29/06 23:20:31  5-MIN KMKG 300420Z 00000KT 10SM CLR 14/13 A3011 450 90 500 000/00 RMK AO2
14840KMKG MKG20060629232509206/29/06 23:25:31  5-MIN KMKG 300425Z 00000KT 10SM CLR 15/13 A3011 450 86 600 000/00 RMK AO2
14840KMKG MKG20060629233009206/29/06 23:30:31  5-MIN KMKG 300430Z 00000KT 10SM CLR 15/13 A3011 450 90 600 000/00 RMK AO2
14840KMKG MKG20060629233509206/29/06 23:35:31  5-MIN KMKG 300435Z 00000KT 10SM CLR 15/13 A3011 450 86 600 000/00 RMK AO2
14840KMKG MKG20060629234009206/29/06 23:40:31  5-MIN KMKG 300440Z 00000KT 10SM CLR 14/13 A3011 450 90 500 000/00 RMK AO2
14840KMKG MKG20060629234509106/29/06 23:45:31  5-MIN KMKG 300445Z 00000KT 9SM CLR 14/13 A3011 460 90 500 000/00 RMK AO2
14840KMKG MKG20060629235011806/29/06 23:50:31  5-MIN KMKG 300450Z 00000KT 9SM CLR 14/13 A3011 460 90 500 000/00 RMK AO2 SLP194 T01440128 402330017
14840KMKG MKG20060629235511906/29/06 23:55:31  5-MIN KMKG 300455Z 00000KT 10SM CLR 14/13 A3011 460 90 500 000/00 RMK AO2 SLP194 T01440128 402330017
14840KMKG MKG20060630000009106/30/06 00:00:32  5-MIN KMKG 300500Z 00000KT 9SM CLR 14/12 A3010 460 90 500 000/00 RMK AO2
14840KMKG MKG20060630000509106/30/06 00:05:31  5-MIN KMKG 300505Z 00000KT 9SM CLR 14/13 A3010 460 90 500 000/00 RMK AO2
14840KMKG MKG20060630001009106/30/06 00:10:31  5-MIN KMKG 300510Z 00000KT 9SM CLR 14/13 A3010 460 90 500 000/00 RMK AO2
14840KMKG MKG20060630001509206/30/06 00:15:31  5-MIN KMKG 300515Z 00000KT 10SM CLR 14/13 A3010 460 93 500 000/00 RMK AO2
14840KMKG MKG20060630002009206/30/06 00:20:31  5-MIN KMKG 300520Z 00000KT 10SM CLR 14/12 A3010 470 90 500 000/00 RMK AO2
14840KMKG MKG20060630002509206/30/06 00:25:31  5-MIN KMKG 300525Z 21003KT 10SM CLR 14/12 A3010 470 90 500 210/03 RMK AO2
14840KMKG MKG20060630003009206/30/06 00:30:31  5-MIN KMKG 300530Z 21004KT 10SM CLR 13/12 A3010 470 93 400 220/04 RMK AO2
14840KMKG MKG20060630003508406/30/06 00:35:31  5-MIN KMKG 300535Z 10SM 13/12 A3010 470 89 400 M /M RMK AO2 PNO $
14840KMKG MKG20060630004009806/30/06 00:40:31  5-MIN KMKG 300540Z 00000KT 10SM CLR 13/12 A3010 470 89 400 000/00 RMK AO2 PNO $
14840KMKG MKG20060630004509806/30/06 00:45:31  5-MIN KMKG 300545Z 00000KT 10SM CLR 13/12 A3010 470 89 400 000/00 RMK AO2 PNO $
14840KMKG MKG20060630005011106/30/06 00:50:31  5-MIN KMKG 300550Z 00000KT 10SM CLR A3010 M M M 000/00 RMK AO2 SLPNO 10206 20133 53004 PNO $
14840KMKG MKG20060630005512206/30/06 00:55:31  5-MIN KMKG 300555Z 00000KT 10SM CLR 13/ A3010 470 M 400 000/00 RMK AO2 SLP190 T0133 10206 20133 58006 $
14840KMKG MKG20060630010009406/30/06 01:00:31  5-MIN KMKG 300600Z 00000KT 10SM CLR 14/12 A3010 470 86 600 000/00 RMK AO2 $
14840KMKG MKG20060630010509406/30/06 01:05:31  5-MIN KMKG 300605Z 00000KT 10SM CLR 14/12 A3009 470 86 600 000/00 RMK AO2 $
14840KMKG MKG20060630011009406/30/06 01:10:31  5-MIN KMKG 300610Z 00000KT 10SM CLR 14/12 A3009 470 86 600 000/00 RMK AO2 $
14840KMKG MKG20060630011509406/30/06 01:15:31  5-MIN KMKG 300615Z 00000KT 10SM CLR 14/12 A3009 470 90 500 000/00 RMK AO2 $
14840KMKG MKG20060630012009406/30/06 01:20:31  5-MIN KMKG 300620Z 00000KT 10SM CLR 14/12 A3009 470 86 500 000/00 RMK AO2 $
14840KMKG MKG20060630012509406/30/06 01:25:31  5-MIN KMKG 300625Z 00000KT 10SM CLR 14/12 A3009 470 86 500 000/00 RMK AO2 $
14840KMKG MKG20060630013009406/30/06 01:30:31  5-MIN KMKG 300630Z 00000KT 10SM CLR 14/12 A3009 470 86 500 000/00 RMK AO2 $
14840KMKG MKG20060630013509406/30/06 01:35:31  5-MIN KMKG 300635Z 00000KT 10SM CLR 14/12 A3009 470 86 500 000/00 RMK AO2 $
14840KMKG MKG20060630014009406/30/06 01:40:31  5-MIN KMKG 300640Z 00000KT 10SM CLR 14/12 A3009 470 86 600 000/00 RMK AO2 $
14840KMKG MKG20060630014509406/30/06 01:45:31  5-MIN KMKG 300645Z 00000KT 10SM CLR 14/13 A3009 470 90 600 000/00 RMK AO2 $
14840KMKG MKG20060630015011106/30/06 01:50:31  5-MIN KMKG 300650Z 00000KT 10SM CLR 14/12 A3009 470 86 600 000/00 RMK AO2 SLP189 T01440122 $
14840KMKG MKG20060630015511106/30/06 01:55:31  5-MIN KMKG 300655Z 23003KT 10SM CLR 14/12 A3009 470 86 500 230/03 RMK AO2 SLP189 T01390117 $
14840KMKG MKG20060630020009406/30/06 02:00:31  5-MIN KMKG 300700Z 22003KT 10SM CLR 13/12 A3009 470 89 400 230/03 RMK AO2 $
14840KMKG MKG20060630020509406/30/06 02:05:31  5-MIN KMKG 300705Z 22003KT 10SM CLR 13/12 A3009 470 89 400 230/03 RMK AO2 $
14840KMKG MKG20060630021009406/30/06 02:10:31  5-MIN KMKG 300710Z 23004KT 10SM CLR 13/12 A3009 470 89 400 240/04 RMK AO2 $
14840KMKG MKG20060630021509406/30/06 02:15:31  5-MIN KMKG 300715Z 22003KT 10SM CLR 13/11 A3009 470 86 400 220/03 RMK AO2 $
14840KMKG MKG20060630022009406/30/06 02:20:31  5-MIN KMKG 300720Z 00000KT 10SM CLR 14/12 A3009 470 90 500 000/00 RMK AO2 $
14840KMKG MKG20060630022509406/30/06 02:25:31  5-MIN KMKG 300725Z 00000KT 10SM CLR 14/12 A3009 470 90 500 000/00 RMK AO2 $
14840KMKG MKG20060630023009406/30/06 02:30:31  5-MIN KMKG 300730Z 00000KT 10SM CLR 14/12 A3009 470 90 500 000/00 RMK AO2 $
14840KMKG MKG20060630023509406/30/06 02:35:31  5-MIN KMKG 300735Z 00000KT 10SM CLR 13/12 A3009 470 93 400 000/00 RMK AO2 $
14840KMKG MKG20060630024009406/30/06 02:40:31  5-MIN KMKG 300740Z 00000KT 10SM CLR 14/12 A3009 470 90 500 000/00 RMK AO2 $
14840KMKG MKG20060630024509406/30/06 02:45:31  5-MIN KMKG 300745Z 00000KT 10SM CLR 13/12 A3009 470 89 400 000/00 RMK AO2 $
14840KMKG MKG20060630025011106/30/06 02:50:31  5-MIN KMKG 300750Z 00000KT 10SM CLR 13/12 A3009 470 89 400 000/00 RMK AO2 SLP188 T01330117 $
14840KMKG MKG20060630025511106/30/06 02:55:31  5-MIN KMKG 300755Z 00000KT 10SM CLR 13/12 A3009 480 93 400 000/00 RMK AO2 SLP188 T01280117 $
14840KMKG MKG20060630030009406/30/06 03:00:31  5-MIN KMKG 300800Z 00000KT 10SM CLR 13/12 A3009 480 93 400 000/00 RMK AO2 $
14840KMKG MKG20060630030509406/30/06 03:05:31  5-MIN KMKG 300805Z 00000KT 10SM CLR 13/12 A3009 480 89 400 000/00 RMK AO2 $
14840KMKG MKG20060630031009406/30/06 03:10:31  5-MIN KMKG 300810Z 00000KT 10SM CLR 13/12 A3008 480 89 400 000/00 RMK AO2 $
14840KMKG MKG20060630031509406/30/06 03:15:31  5-MIN KMKG 300815Z 00000KT 10SM CLR 14/12 A3008 480 86 500 000/00 RMK AO2 $
14840KMKG MKG20060630032009406/30/06 03:20:31  5-MIN KMKG 300820Z 00000KT 10SM CLR 14/12 A3008 480 86 500 000/00 RMK AO2 $
14840KMKG MKG20060630032509406/30/06 03:25:31  5-MIN KMKG 300825Z 00000KT 10SM CLR 13/12 A3008 480 89 400 000/00 RMK AO2 $
14840KMKG MKG20060630033009406/30/06 03:30:31  5-MIN KMKG 300830Z 00000KT 10SM CLR 13/12 A3008 480 89 400 000/00 RMK AO2 $
14840KMKG MKG20060630033509406/30/06 03:35:31  5-MIN KMKG 300835Z 00000KT 10SM CLR 13/12 A3008 480 89 400 000/00 RMK AO2 $
14840KMKG MKG20060630034009306/30/06 03:40:31  5-MIN KMKG 300840Z 00000KT 9SM CLR 13/12 A3008 490 89 400 000/00 RMK AO2 $
14840KMKG MKG20060630034509306/30/06 03:45:31  5-MIN KMKG 300845Z 00000KT 9SM CLR 13/11 A3008 480 89 400 000/00 RMK AO2 $
14840KMKG MKG20060630035011706/30/06 03:50:31  5-MIN KMKG 300850Z 00000KT 10SM CLR 13/12 A3008 480 89 400 000/00 RMK AO2 SLP184 T01330117 58006 $
14840KMKG MKG20060630035511706/30/06 03:55:31  5-MIN KMKG 300855Z 00000KT 10SM CLR 13/12 A3008 480 89 400 000/00 RMK AO2 SLP185 T01330117 58005 $
14840KMKG MKG20060630040009406/30/06 04:00:31  5-MIN KMKG 300900Z 00000KT 10SM CLR 13/12 A3008 480 89 400 000/00 RMK AO2 $
14840KMKG MKG20060630040509406/30/06 04:05:31  5-MIN KMKG 300905Z 00000KT 10SM CLR 13/12 A3008 480 89 400 000/00 RMK AO2 $
14840KMKG MKG20060630041009306/30/06 04:10:31  5-MIN KMKG 300910Z 00000KT 9SM CLR 13/12 A3008 490 93 400 000/00 RMK AO2 $
14840KMKG MKG20060630041509306/30/06 04:15:31  5-MIN KMKG 300915Z 00000KT 9SM CLR 14/13 A3008 480 93 500 000/00 RMK AO2 $
14840KMKG MKG20060630042009306/30/06 04:20:31  5-MIN KMKG 300920Z 00000KT 9SM CLR 13/12 A3008 480 93 400 000/00 RMK AO2 $
14840KMKG MKG20060630042509306/30/06 04:25:31  5-MIN KMKG 300925Z 00000KT 9SM CLR 13/12 A3008 480 93 400 000/00 RMK AO2 $
14840KMKG MKG20060630043009306/30/06 04:30:31  5-MIN KMKG 300930Z 00000KT 8SM CLR 13/12 A3008 480 93 400 000/00 RMK AO2 $
14840KMKG MKG20060630043509306/30/06 04:35:31  5-MIN KMKG 300935Z 00000KT 9SM CLR 13/12 A3008 480 93 400 000/00 RMK AO2 $
14840KMKG MKG20060630044009406/30/06 04:40:31  5-MIN KMKG 300940Z 00000KT 10SM CLR 13/12 A3008 480 93 400 000/00 RMK AO2 $
14840KMKG MKG20060630044509306/30/06 04:45:31  5-MIN KMKG 300945Z 00000KT 9SM CLR 12/11 A3008 480 93 300 000/00 RMK AO2 $
14840KMKG MKG20060630045011006/30/06 04:50:31  5-MIN KMKG 300950Z 00000KT 9SM CLR 12/11 A3009 480 93 300 000/00 RMK AO2 SLP187 T01220111 $
14840KMKG MKG20060630045511006/30/06 04:55:31  5-MIN KMKG 300955Z 00000KT 9SM CLR 12/11 A3008 480 96 200 000/00 RMK AO2 SLP186 T01170111 $
14840KMKG MKG20060630050009306/30/06 05:00:31  5-MIN KMKG 301000Z 00000KT 9SM CLR 12/12 A3008 480 96 300 000/00 RMK AO2 $
14840KMKG MKG20060630050509306/30/06 05:05:31  5-MIN KMKG 301005Z 00000KT 8SM CLR 12/12 A3008 480 96 300 000/00 RMK AO2 $
14840KMKG MKG20060630051009306/30/06 05:10:31  5-MIN KMKG 301010Z 00000KT 7SM CLR 13/12 A3008 480 93 400 000/00 RMK AO2 $
14840KMKG MKG20060630051509306/30/06 05:15:31  5-MIN KMKG 301015Z 00000KT 7SM CLR 12/11 A3009 480 93 300 000/00 RMK AO2 $
14840KMKG MKG20060630052009306/30/06 05:20:31  5-MIN KMKG 301020Z 13003KT 7SM CLR 13/12 A3009 480 93 400 140/03 RMK AO2 $
14840KMKG MKG20060630052509606/30/06 05:25:31  5-MIN KMKG 301025Z 14003KT 6SM BR CLR 12/12 A3009 470 96 300 140/03 RMK AO2 $
14840KMKG MKG20060630053009606/30/06 05:30:31  5-MIN KMKG 301030Z 13003KT 5SM BR CLR 12/12 A3009 480 96 300 130/03 RMK AO2 $
14840KMKG MKG20060630053509606/30/06 05:35:31  5-MIN KMKG 301035Z 13004KT 6SM BR CLR 12/11 A3009 480 93 300 140/04 RMK AO2 $
14840KMKG MKG20060630054009606/30/06 05:40:31  5-MIN KMKG 301040Z 13003KT 6SM BR CLR 12/12 A3009 480 96 300 130/03 RMK AO2 $
14840KMKG MKG20060630054509306/30/06 05:45:31  5-MIN KMKG 301045Z 12003KT 7SM CLR 12/12 A3009 480 96 300 130/03 RMK AO2 $
14840KMKG MKG20060630055011006/30/06 05:50:31  5-MIN KMKG 301050Z 13004KT 8SM CLR 13/12 A3009 480 93 400 140/04 RMK AO2 SLP187 T01280117 $
14840KMKG MKG20060630055511006/30/06 05:55:31  5-MIN KMKG 301055Z 13004KT 7SM CLR 13/12 A3009 470 93 400 140/04 RMK AO2 SLP188 T01280117 $
14840KMKG MKG20060630060009306/30/06 06:00:31  5-MIN KMKG 301100Z 00000KT 7SM CLR 13/12 A3009 470 93 400 000/00 RMK AO2 $
14840KMKG MKG20060630060509306/30/06 06:05:31  5-MIN KMKG 301105Z 00000KT 7SM CLR 13/12 A3009 480 93 400 000/00 RMK AO2 $
14840KMKG MKG20060630061009306/30/06 06:10:31  5-MIN KMKG 301110Z 00000KT 7SM CLR 13/12 A3009 480 93 400 000/00 RMK AO2 $
14840KMKG MKG20060630061509306/30/06 06:15:31  5-MIN KMKG 301115Z 00000KT 7SM CLR 13/12 A3009 480 93 400 000/00 RMK AO2 $
14840KMKG MKG20060630062009306/30/06 06:20:31  5-MIN KMKG 301120Z 00000KT 7SM CLR 13/12 A3009 480 93 400 000/00 RMK AO2 $
14840KMKG MKG20060630062509306/30/06 06:25:31  5-MIN KMKG 301125Z 00000KT 7SM CLR 13/12 A3009 480 93 400 000/00 RMK AO2 $
14840KMKG MKG20060630063009306/30/06 06:30:31  5-MIN KMKG 301130Z 00000KT 8SM CLR 14/12 A3009 480 90 500 000/00 RMK AO2 $
14840KMKG MKG20060630063509306/30/06 06:35:31  5-MIN KMKG 301135Z 00000KT 8SM CLR 14/13 A3009 480 90 600 000/00 RMK AO2 $
14840KMKG MKG20060630064009306/30/06 06:40:31  5-MIN KMKG 301140Z 12003KT 8SM CLR 14/13 A3009 470 90 600 130/03 RMK AO2 $
14840KMKG MKG20060630064509306/30/06 06:45:31  5-MIN KMKG 301145Z 12003KT 8SM CLR 15/13 A3009 470 90 600 120/03 RMK AO2 $
14840KMKG MKG20060630065012806/30/06 06:50:31  5-MIN KMKG 301150Z 12003KT 9SM CLR 16/13 A3009 470 86 700 120/03 RMK AO2 SLP189 T01560133 10156 20117 58005 $
14840KMKG MKG20060630065512806/30/06 06:55:31  5-MIN KMKG 301155Z 13003KT 9SM CLR 16/14 A3009 470 90 700 130/03 RMK AO2 SLP188 T01560139 10156 20117 51004 $
14840KMKG MKG20060630070009306/30/06 07:00:31  5-MIN KMKG 301200Z 13003KT 9SM CLR 16/14 A3009 470 90 700 140/03 RMK AO2 $
14840KMKG MKG20060630070509306/30/06 07:05:31  5-MIN KMKG 301205Z 15003KT 9SM CLR 16/14 A3009 470 90 800 150/03 RMK AO2 $
14840KMKG MKG20060630071009406/30/06 07:10:31  5-MIN KMKG 301210Z 00000KT 10SM CLR 17/14 A3009 470 80 900 000/00 RMK AO2 $
14840KMKG MKG20060630071509406/30/06 07:15:31  5-MIN KMKG 301215Z 00000KT 10SM CLR 17/14 A3009 470 83 900 000/00 RMK AO2 $
14840KMKG MKG20060630072009506/30/06 07:20:31  5-MIN KMKG 301220Z 00000KT 10SM CLR 18/14 A3009 470 78 1000 000/00 RMK AO2 $
14840KMKG MKG20060630072509506/30/06 07:25:31  5-MIN KMKG 301225Z 21003KT 10SM CLR 18/14 A3009 470 78 1000 220/03 RMK AO2 $
14840KMKG MKG20060630073009506/30/06 07:30:31  5-MIN KMKG 301230Z 21004KT 10SM CLR 19/14 A3009 470 72 1100 210/04 RMK AO2 $
14840KMKG MKG20060630073509506/30/06 07:35:31  5-MIN KMKG 301235Z 23005KT 10SM CLR 19/14 A3009 470 72 1100 240/05 RMK AO2 $
14840KMKG MKG20060630074009506/30/06 07:40:31  5-MIN KMKG 301240Z 24005KT 10SM CLR 19/14 A3009 470 70 1100 240/05 RMK AO2 $
14840KMKG MKG20060630074509506/30/06 07:45:31  5-MIN KMKG 301245Z 24006KT 10SM CLR 20/14 A3009 470 67 1200 240/06 RMK AO2 $
14840KMKG MKG20060630075011206/30/06 07:50:31  5-MIN KMKG 301250Z 24007KT 10SM CLR 20/13 A3009 470 65 1200 250/07 RMK AO2 SLP187 T02000133 $
14840KMKG MKG20060630075511506/30/06 07:55:31  5-MIN KMKG 301255Z 25006KT 10SM FEW080 21/13 A3009 470 63 1300 250/06 RMK AO2 SLP187 T02060133 $
14840KMKG MKG20060630080009806/30/06 08:00:31  5-MIN KMKG 301300Z 25005KT 10SM FEW080 21/13 A3009 470 60 1300 250/05 RMK AO2 $
14840KMKG MKG20060630080509506/30/06 08:05:31  5-MIN KMKG 301305Z 25007KT 10SM CLR 21/12 A3009 470 58 1300 250/07 RMK AO2 $
14840KMKG MKG20060630081009806/30/06 08:10:31  5-MIN KMKG 301310Z 25005KT 10SM FEW085 21/12 A3009 470 56 1300 250/05 RMK AO2 $
14840KMKG MKG20060630081509806/30/06 08:15:31  5-MIN KMKG 301315Z 23008KT 10SM FEW085 21/12 A3010 470 56 1300 240/08 RMK AO2 $
14840KMKG MKG20060630082009806/30/06 08:20:31  5-MIN KMKG 301320Z 25007KT 10SM FEW090 21/12 A3010 460 54 1300 250/07 RMK AO2 $
14840KMKG MKG20060630082509506/30/06 08:25:31  5-MIN KMKG 301325Z 24006KT 10SM CLR 21/12 A3010 460 56 1300 250/06 RMK AO2 $
14840KMKG MKG20060630083009506/30/06 08:30:31  5-MIN KMKG 301330Z 23008KT 10SM CLR 21/12 A3010 460 54 1300 240/08 RMK AO2 $
14840KMKG MKG20060630083509506/30/06 08:35:31  5-MIN KMKG 301335Z 24007KT 10SM CLR 22/12 A3010 460 52 1400 250/07 RMK AO2 $
14840KMKG MKG20060630084009506/30/06 08:40:31  5-MIN KMKG 301340Z 25008KT 10SM CLR 22/12 A3010 460 52 1400 250/08 RMK AO2 $
14840KMKG MKG20060630084509506/30/06 08:45:31  5-MIN KMKG 301345Z 24010KT 10SM CLR 22/11 A3010 460 50 1400 250/10 RMK AO2 $
14840KMKG MKG20060630085011206/30/06 08:50:31  5-MIN KMKG 301350Z 25009KT 10SM CLR 21/11 A3010 460 52 1300 260/09 RMK AO2 SLP192 T02110111 $
14840KMKG MKG20060630085511206/30/06 08:55:31  5-MIN KMKG 301355Z 26009KT 10SM CLR 22/12 A3010 460 52 1400 260/09 RMK AO2 SLP191 T02170117 $
14840KMKG MKG20060630090009506/30/06 09:00:31  5-MIN KMKG 301400Z 24009KT 10SM CLR 22/12 A3010 460 52 1400 240/09 RMK AO2 $
14840KMKG MKG20060630090509506/30/06 09:05:31  5-MIN KMKG 301405Z 25007KT 10SM CLR 22/12 A3010 460 52 1400 250/07 RMK AO2 $
14840KMKG MKG20060630091009506/30/06 09:10:31  5-MIN KMKG 301410Z 26008KT 10SM CLR 22/12 A3010 460 52 1400 260/08 RMK AO2 $
14840KMKG MKG20060630091509506/30/06 09:15:31  5-MIN KMKG 301415Z 25007KT 10SM CLR 22/11 A3010 460 50 1400 250/07 RMK AO2 $
14840KMKG MKG20060630092009506/30/06 09:20:31  5-MIN KMKG 301420Z 25009KT 10SM CLR 22/11 A3010 460 49 1500 260/09 RMK AO2 $
14840KMKG MKG20060630092509806/30/06 09:25:31  5-MIN KMKG 301425Z 26008KT 10SM FEW085 22/11 A3010 460 49 1500 270/08 RMK AO2 $
14840KMKG MKG20060630093009806/30/06 09:30:31  5-MIN KMKG 301430Z 23009KT 10SM FEW090 23/11 A3010 470 47 1500 230/09 RMK AO2 $
14840KMKG MKG20060630093509506/30/06 09:35:31  5-MIN KMKG 301435Z 23011KT 10SM CLR 22/11 A3010 470 47 1500 230/11 RMK AO2 $
14840KMKG MKG20060630094009506/30/06 09:40:31  5-MIN KMKG 301440Z 23010KT 10SM CLR 22/11 A3010 470 47 1500 230/10 RMK AO2 $
14840KMKG MKG20060630094509506/30/06 09:45:31  5-MIN KMKG 301445Z 24010KT 10SM CLR 23/11 A3010 470 45 1500 240/10 RMK AO2 $
14840KMKG MKG20060630095014006/30/06 09:50:31  5-MIN KMKG 301450Z 23011KT 10SM -RA CLR 23/11 A3010 470 47 1500 230/11 RMK AO2 RAB47 SLP190 P0000 60000 T02280111 51004 $
14840KMKG MKG20060630095511806/30/06 09:55:31  5-MIN KMKG 301455Z 23011KT 10SM CLR 23/11 A3010 470 45 1500 240/11 RMK AO2 SLP191 T02280106 50002 $
14840KMKG MKG20060630100009506/30/06 10:00:31  5-MIN KMKG 301500Z 23013KT 10SM CLR 23/11 A3010 470 45 1500 240/13 RMK AO2 $
14840KMKG MKG20060630100509506/30/06 10:05:31  5-MIN KMKG 301505Z 23012KT 10SM CLR 22/11 A3010 470 47 1500 240/12 RMK AO2 $
14840KMKG MKG20060630101009506/30/06 10:10:31  5-MIN KMKG 301510Z 24012KT 10SM CLR 22/11 A3010 470 47 1500 250/12 RMK AO2 $
14840KMKG MKG20060630101509506/30/06 10:15:31  5-MIN KMKG 301515Z 24011KT 10SM CLR 22/11 A3010 470 47 1500 240/11 RMK AO2 $
14840KMKG MKG20060630102009506/30/06 10:20:31  5-MIN KMKG 301520Z 24010KT 10SM CLR 23/11 A3010 460 45 1500 240/10 RMK AO2 $
14840KMKG MKG20060630102509506/30/06 10:25:31  5-MIN KMKG 301525Z 23011KT 10SM CLR 23/11 A3010 460 45 1500 240/11 RMK AO2 $
14840KMKG MKG20060630103009506/30/06 10:30:31  5-MIN KMKG 301530Z 24011KT 10SM CLR 23/11 A3010 460 44 1600 240/11 RMK AO2 $
14840KMKG MKG20060630103509506/30/06 10:35:31  5-MIN KMKG 301535Z 24012KT 10SM CLR 23/11 A3010 460 45 1500 240/12 RMK AO2 $
14840KMKG MKG20060630104009506/30/06 10:40:31  5-MIN KMKG 301540Z 23012KT 10SM CLR 23/11 A3010 460 45 1500 240/12 RMK AO2 $
14840KMKG MKG20060630104509506/30/06 10:45:31  5-MIN KMKG 301545Z 24012KT 10SM CLR 23/11 A3010 460 45 1500 240/12 RMK AO2 $
14840KMKG MKG20060630105011206/30/06 10:50:31  5-MIN KMKG 301550Z 24011KT 10SM CLR 23/11 A3010 460 45 1500 250/11 RMK AO2 SLP192 T02280106 $
14840KMKG MKG20060630105511206/30/06 10:55:31  5-MIN KMKG 301555Z 25010KT 10SM CLR 23/10 A3010 460 44 1500 250/10 RMK AO2 SLP193 T02280100 $
14840KMKG MKG20060630110009506/30/06 11:00:31  5-MIN KMKG 301600Z 24011KT 10SM CLR 23/10 A3011 460 42 1600 240/11 RMK AO2 $
14840KMKG MKG20060630110509506/30/06 11:05:31  5-MIN KMKG 301605Z 25012KT 10SM CLR 23/10 A3011 460 42 1600 250/12 RMK AO2 $
14840KMKG MKG20060630111009506/30/06 11:10:31  5-MIN KMKG 301610Z 25011KT 10SM CLR 23/10 A3011 460 42 1600 250/11 RMK AO2 $
14840KMKG MKG20060630111509506/30/06 11:15:31  5-MIN KMKG 301615Z 25010KT 10SM CLR 23/10 A3011 460 42 1600 250/10 RMK AO2 $
14840KMKG MKG20060630112009506/30/06 11:20:31  5-MIN KMKG 301620Z 24011KT 10SM CLR 23/10 A3010 460 42 1600 240/11 RMK AO2 $
14840KMKG MKG20060630112509506/30/06 11:25:31  5-MIN KMKG 301625Z 24011KT 10SM CLR 23/09 A3011 460 41 1600 250/11 RMK AO2 $
14840KMKG MKG20060630113009506/30/06 11:30:31  5-MIN KMKG 301630Z 25010KT 10SM CLR 23/10 A3010 460 42 1600 250/10 RMK AO2 $
14840KMKG MKG20060630113509506/30/06 11:35:31  5-MIN KMKG 301635Z 24010KT 10SM CLR 23/10 A3010 460 42 1600 240/10 RMK AO2 $
14840KMKG MKG20060630114009506/30/06 11:40:31  5-MIN KMKG 301640Z 23009KT 10SM CLR 23/11 A3010 460 44 1600 230/09 RMK AO2 $
14840KMKG MKG20060630114509506/30/06 11:45:31  5-MIN KMKG 301645Z 24010KT 10SM CLR 23/11 A3010 460 44 1600 240/10 RMK AO2 $
14840KMKG MKG20060630115011206/30/06 11:50:31  5-MIN KMKG 301650Z 25010KT 10SM CLR 23/10 A3010 470 42 1600 260/10 RMK AO2 SLP191 T02330100 $
14840KMKG MKG20060630115511206/30/06 11:55:31  5-MIN KMKG 301655Z 25012KT 10SM CLR 24/09 A3010 470 39 1600 260/12 RMK AO2 SLP190 T02390094 $
14840KMKG MKG20060630120009506/30/06 12:00:31  5-MIN KMKG 301700Z 25009KT 10SM CLR 24/10 A3010 470 41 1600 260/09 RMK AO2 $
14840KMKG MKG20060630120509506/30/06 12:05:31  5-MIN KMKG 301705Z 26010KT 10SM CLR 24/09 A3010 470 39 1600 260/10 RMK AO2 $
14840KMKG MKG20060630121009506/30/06 12:10:31  5-MIN KMKG 301710Z 25010KT 10SM CLR 24/10 A3010 470 41 1600 260/10 RMK AO2 $
14840KMKG MKG20060630121509506/30/06 12:15:31  5-MIN KMKG 301715Z 24010KT 10SM CLR 24/10 A3009 470 41 1600 240/10 RMK AO2 $
14840KMKG MKG20060630122009506/30/06 12:20:31  5-MIN KMKG 301720Z 24010KT 10SM CLR 24/10 A3009 470 41 1700 250/10 RMK AO2 $
14840KMKG MKG20060630122509506/30/06 12:25:31  5-MIN KMKG 301725Z 25009KT 10SM CLR 24/10 A3009 470 41 1700 250/09 RMK AO2 $
14840KMKG MKG20060630123009506/30/06 12:30:31  5-MIN KMKG 301730Z 25009KT 10SM CLR 24/10 A3009 470 41 1700 250/09 RMK AO2 $
14840KMKG MKG20060630123509506/30/06 12:35:31  5-MIN KMKG 301735Z 25009KT 10SM CLR 24/11 A3009 470 41 1700 250/09 RMK AO2 $
14840KMKG MKG20060630124009506/30/06 12:40:31  5-MIN KMKG 301740Z 26009KT 10SM CLR 24/11 A3009 480 42 1700 270/09 RMK AO2 $
14840KMKG MKG20060630124509506/30/06 12:45:31  5-MIN KMKG 301745Z 25010KT 10SM CLR 23/10 A3009 470 42 1600 250/10 RMK AO2 $
14840KMKG MKG20060630125013506/30/06 12:50:31  5-MIN KMKG 301750Z 25010KT 10SM CLR 24/10 A3009 480 39 1700 250/10 RMK AO2 SLPNO 60000 T02440100 10244 20156 50002 $
14840KMKG MKG20060630125513606/30/06 12:55:31  5-MIN KMKG 301755Z 24008KT 10SM CLR 24/10 A3009 480 39 1700 240/08 RMK AO2 SLP187 60000 T02440100 10244 20156 58003 $
14840KMKG MKG20060630130010906/30/06 13:00:31  5-MIN KMKG 301800Z 24009KT 210V280 10SM CLR 24/11 A3009 480 41 1700 250/09 210V280 RMK AO2
14840KMKG MKG20060630130509306/30/06 13:05:31  5-MIN KMKG 301805Z 25009KT 10SM CLR 24/11 A3009 480 42 1700 260/09 RMK AO2
14840KMKG MKG20060630131009306/30/06 13:10:31  5-MIN KMKG 301810Z 23008KT 10SM CLR 24/11 A3008 480 42 1700 240/08 RMK AO2
14840KMKG MKG20060630131509306/30/06 13:15:31  5-MIN KMKG 301815Z 24008KT 10SM CLR 25/11 A3008 480 41 1800 250/08 RMK AO2
14840KMKG MKG20060630132010906/30/06 13:20:31  5-MIN KMKG 301820Z 26008KT 220V290 10SM CLR 24/11 A3008 480 41 1700 260/08 220V290 RMK AO2
14840KMKG MKG20060630132509306/30/06 13:25:31  5-MIN KMKG 301825Z 23008KT 10SM CLR 25/11 A3008 480 41 1800 230/08 RMK AO2
14840KMKG MKG20060630133010906/30/06 13:30:31  5-MIN KMKG 301830Z 25007KT 210V280 10SM CLR 24/11 A3008 480 42 1700 250/07 210V280 RMK AO2
14840KMKG MKG20060630133509306/30/06 13:35:31  5-MIN KMKG 301835Z 26010KT 10SM CLR 25/11 A3008 480 39 1800 260/10 RMK AO2
14840KMKG MKG20060630134009306/30/06 13:40:31  5-MIN KMKG 301840Z 25009KT 10SM CLR 24/11 A3008 480 41 1700 250/09 RMK AO2
14840KMKG MKG20060630134509306/30/06 13:45:31  5-MIN KMKG 301845Z 24009KT 10SM CLR 25/11 A3008 480 39 1800 250/09 RMK AO2
14840KMKG MKG20060630135011006/30/06 13:50:31  5-MIN KMKG 301850Z 24008KT 10SM CLR 25/11 A3008 480 39 1800 250/08 RMK AO2 SLP184 T02500106
14840KMKG MKG20060630135511006/30/06 13:55:31  5-MIN KMKG 301855Z 24010KT 10SM CLR 25/10 A3008 480 38 1800 240/10 RMK AO2 SLP184 T02500100
14840KMKG MKG20060630140009306/30/06 14:00:31  5-MIN KMKG 301900Z 23010KT 10SM CLR 25/10 A3008 480 38 1800 230/10 RMK AO2
14840KMKG MKG20060630140509306/30/06 14:05:31  5-MIN KMKG 301905Z 24010KT 10SM CLR 25/10 A3008 480 38 1800 250/10 RMK AO2
14840KMKG MKG20060630141009306/30/06 14:10:31  5-MIN KMKG 301910Z 24010KT 10SM CLR 24/10 A3008 490 39 1700 240/10 RMK AO2
14840KMKG MKG20060630141509306/30/06 14:15:31  5-MIN KMKG 301915Z 24009KT 10SM CLR 24/10 A3008 490 39 1700 250/09 RMK AO2
14840KMKG MKG20060630142010906/30/06 14:20:31  5-MIN KMKG 301920Z 23009KT 210V270 10SM CLR 24/09 A3008 490 38 1700 240/09 210V270 RMK AO2
14840KMKG MKG20060630142509306/30/06 14:25:31  5-MIN KMKG 301925Z 24009KT 10SM CLR 24/10 A3008 490 39 1700 240/09 RMK AO2
14840KMKG MKG20060630143009306/30/06 14:30:31  5-MIN KMKG 301930Z 23010KT 10SM CLR 25/10 A3008 490 38 1800 240/10 RMK AO2
14840KMKG MKG20060630143509306/30/06 14:35:31  5-MIN KMKG 301935Z 23010KT 10SM CLR 24/10 A3008 490 39 1700 230/10 RMK AO2
14840KMKG MKG20060630144009306/30/06 14:40:31  5-MIN KMKG 301940Z 23010KT 10SM CLR 25/10 A3008 490 38 1800 230/10 RMK AO2
14840KMKG MKG20060630144509306/30/06 14:45:31  5-MIN KMKG 301945Z 23008KT 10SM CLR 24/10 A3007 490 39 1700 230/08 RMK AO2
14840KMKG MKG20060630145011006/30/06 14:50:31  5-MIN KMKG 301950Z 25008KT 10SM CLR 24/10 A3007 490 39 1700 250/08 RMK AO2 SLP182 T02440100
14840KMKG MKG20060630145511006/30/06 14:55:31  5-MIN KMKG 301955Z 23007KT 10SM CLR 24/11 A3007 490 41 1700 230/07 RMK AO2 SLP182 T02440106
14840KMKG MKG20060630150009306/30/06 15:00:31  5-MIN KMKG 302000Z 24008KT 10SM CLR 24/10 A3007 490 39 1700 240/08 RMK AO2
14840KMKG MKG20060630150509306/30/06 15:05:31  5-MIN KMKG 302005Z 25006KT 10SM CLR 24/10 A3007 490 39 1700 250/06 RMK AO2
14840KMKG MKG20060630151009306/30/06 15:10:31  5-MIN KMKG 302010Z 25007KT 10SM CLR 25/11 A3007 490 39 1800 260/07 RMK AO2
14840KMKG MKG20060630151509306/30/06 15:15:31  5-MIN KMKG 302015Z 22006KT 10SM CLR 25/11 A3007 500 39 1800 230/06 RMK AO2
14840KMKG MKG20060630152009306/30/06 15:20:31  5-MIN KMKG 302020Z 23007KT 10SM CLR 26/11 A3007 500 38 1900 230/07 RMK AO2
14840KMKG MKG20060630152509306/30/06 15:25:31  5-MIN KMKG 302025Z 24008KT 10SM CLR 25/10 A3006 500 38 1800 240/08 RMK AO2
14840KMKG MKG20060630153010906/30/06 15:30:31  5-MIN KMKG 302030Z 25007KT 210V270 10SM CLR 25/10 A3006 500 38 1800 250/07 210V270 RMK AO2
14840KMKG MKG20060630153509306/30/06 15:35:31  5-MIN KMKG 302035Z 22006KT 10SM CLR 25/10 A3006 500 38 1800 230/06 RMK AO2
14840KMKG MKG20060630154009306/30/06 15:40:31  5-MIN KMKG 302040Z 24007KT 10SM CLR 25/10 A3006 500 38 1800 250/07 RMK AO2
14840KMKG MKG20060630154509306/30/06 15:45:31  5-MIN KMKG 302045Z 25009KT 10SM CLR 25/10 A3006 500 38 1800 250/09 RMK AO2
14840KMKG MKG20060630155011606/30/06 15:50:31  5-MIN KMKG 302050Z 22007KT 10SM CLR 25/10 A3006 500 38 1800 230/07 RMK AO2 SLP176 T02500100 58003
14840KMKG MKG20060630155511606/30/06 15:55:31  5-MIN KMKG 302055Z 22009KT 10SM CLR 26/10 A3006 500 37 1900 230/09 RMK AO2 SLP176 T02560100 58010
14840KMKG MKG20060630160009306/30/06 16:00:31  5-MIN KMKG 302100Z 22008KT 10SM CLR 25/10 A3006 500 38 1800 230/08 RMK AO2
14840KMKG MKG20060630160509306/30/06 16:05:31  5-MIN KMKG 302105Z 22008KT 10SM CLR 25/10 A3005 510 38 1800 220/08 RMK AO2
14840KMKG MKG20060630161009306/30/06 16:10:31  5-MIN KMKG 302110Z 21008KT 10SM CLR 25/10 A3005 510 38 1800 220/08 RMK AO2
14840KMKG MKG20060630161509306/30/06 16:15:31  5-MIN KMKG 302115Z 24007KT 10SM CLR 26/11 A3005 510 38 1900 240/07 RMK AO2
14840KMKG MKG20060630162009306/30/06 16:20:31  5-MIN KMKG 302120Z 25008KT 10SM CLR 25/10 A3005 510 38 1800 250/08 RMK AO2
14840KMKG MKG20060630162509306/30/06 16:25:31  5-MIN KMKG 302125Z 25008KT 10SM CLR 25/10 A3005 510 38 1800 250/08 RMK AO2
14840KMKG MKG20060630163009306/30/06 16:30:31  5-MIN KMKG 302130Z 23007KT 10SM CLR 24/10 A3005 510 39 1800 230/07 RMK AO2
14840KMKG MKG20060630163509306/30/06 16:35:31  5-MIN KMKG 302135Z 23007KT 10SM CLR 24/10 A3005 510 39 1800 230/07 RMK AO2
14840KMKG MKG20060630164009306/30/06 16:40:31  5-MIN KMKG 302140Z 22005KT 10SM CLR 24/10 A3005 510 39 1800 230/05 RMK AO2
14840KMKG MKG20060630164509306/30/06 16:45:31  5-MIN KMKG 302145Z 24007KT 10SM CLR 24/10 A3005 510 39 1800 240/07 RMK AO2
14840KMKG MKG20060630165011006/30/06 16:50:31  5-MIN KMKG 302150Z 26006KT 10SM CLR 24/10 A3005 510 39 1800 260/06 RMK AO2 SLP173 T02440100
14840KMKG MKG20060630165511006/30/06 16:55:31  5-MIN KMKG 302155Z VRB06KT 10SM CLR 24/11 A3004 520 41 1800 VRB/06 RMK AO2 SLP173 T02440106
