14840KMKG MKG20010801051509508/01/01 05:15:31  5-MIN KMKG 011015Z 19008KT 5SM BR CLR 24/22 A3019 380 87 1600 190/08 RMK AO2
14840KMKG MKG20010801052009508/01/01 05:20:31  5-MIN KMKG 011020Z 18007KT 5SM BR CLR 24/22 A3019 380 87 1600 180/07 RMK AO2
14840KMKG MKG20010801052509508/01/01 05:25:31  5-MIN KMKG 011025Z 17007KT 4SM BR CLR 24/22 A3019 380 87 1600 180/07 RMK AO2
14840KMKG MKG20010801053009508/01/01 05:30:31  5-MIN KMKG 011030Z 18006KT 4SM BR CLR 24/22 A3019 380 87 1600 180/06 RMK AO2
14840KMKG MKG20010801053509508/01/01 05:35:31  5-MIN KMKG 011035Z 17005KT 3SM BR CLR 24/22 A3019 380 90 1500 180/05 RMK AO2
14840KMKG MKG20010801054009508/01/01 05:40:31  5-MIN KMKG 011040Z 17006KT 3SM BR CLR 24/22 A3019 380 87 1600 170/06 RMK AO2
14840KMKG MKG20010801054509508/01/01 05:45:31  5-MIN KMKG 011045Z 17006KT 3SM BR CLR 24/22 A3019 380 87 1600 170/06 RMK AO2
14840KMKG MKG20010801055011208/01/01 05:50:31  5-MIN KMKG 011050Z 17006KT 3SM BR CLR 24/22 A3019 380 87 1600 170/06 RMK AO2 SLP219 T02440222
14840KMKG MKG20010801055511208/01/01 05:55:31  5-MIN KMKG 011055Z 17006KT 3SM BR CLR 24/22 A3019 380 90 1500 170/06 RMK AO2 SLP220 T02390222
14840KMKG MKG20010801060009508/01/01 06:00:31  5-MIN KMKG 011100Z 17006KT 3SM BR CLR 24/22 A3019 380 87 1600 170/06 RMK AO2
14840KMKG MKG20010801060509508/01/01 06:05:31  5-MIN KMKG 011105Z 18007KT 3SM BR CLR 24/22 A3020 380 87 1600 180/07 RMK AO2
14840KMKG MKG20010801061009508/01/01 06:10:31  5-MIN KMKG 011110Z 18006KT 3SM BR CLR 24/22 A3020 370 87 1600 190/06 RMK AO2
14840KMKG MKG20010801061509508/01/01 06:15:31  5-MIN KMKG 011115Z 18007KT 3SM BR CLR 24/22 A3019 380 87 1600 180/07 RMK AO2
14840KMKG MKG20010801062009508/01/01 06:20:31  5-MIN KMKG 011120Z 18006KT 4SM BR CLR 24/22 A3019 380 87 1600 190/06 RMK AO2
14840KMKG MKG20010801062509508/01/01 06:25:31  5-MIN KMKG 011125Z 19006KT 4SM BR CLR 24/22 A3019 380 87 1600 190/06 RMK AO2
14840KMKG MKG20010801063009508/01/01 06:30:31  5-MIN KMKG 011130Z 19006KT 4SM BR CLR 24/22 A3019 380 87 1600 190/06 RMK AO2
14840KMKG MKG20010801063509508/01/01 06:35:31  5-MIN KMKG 011135Z 19006KT 4SM HZ CLR 25/22 A3020 380 84 1700 200/06 RMK AO2
14840KMKG MKG20010801064009508/01/01 06:40:31  5-MIN KMKG 011140Z 20007KT 4SM HZ CLR 25/22 A3020 380 81 1700 200/07 RMK AO2
14840KMKG MKG20010801064509508/01/01 06:45:31  5-MIN KMKG 011145Z 19009KT 4SM HZ CLR 26/22 A3020 370 79 1700 200/09 RMK AO2
14840KMKG MKG20010801065013008/01/01 06:50:31  5-MIN KMKG 011150Z 20009KT 4SM HZ CLR 26/22 A3020 370 79 1700 200/09 RMK AO2 SLP222 T02560217 10261 20239 56003
14840KMKG MKG20010801065513008/01/01 06:55:31  5-MIN KMKG 011155Z 19009KT 4SM HZ CLR 26/22 A3020 370 79 1700 190/09 RMK AO2 SLP223 T02560217 10261 20239 51009
14840KMKG MKG20010801070009508/01/01 07:00:31  5-MIN KMKG 011200Z 19008KT 4SM HZ CLR 26/22 A3020 370 79 1700 190/08 RMK AO2
14840KMKG MKG20010801070509508/01/01 07:05:31  5-MIN KMKG 011205Z 18009KT 4SM HZ CLR 26/22 A3020 370 81 1700 180/09 RMK AO2
14840KMKG MKG20010801071009508/01/01 07:10:31  5-MIN KMKG 011210Z 18008KT 4SM HZ CLR 26/22 A3020 370 79 1700 190/08 RMK AO2
14840KMKG MKG20010801071509508/01/01 07:15:31  5-MIN KMKG 011215Z 19010KT 4SM HZ CLR 26/22 A3021 370 79 1700 190/10 RMK AO2
14840KMKG MKG20010801072009508/01/01 07:20:31  5-MIN KMKG 011220Z 19010KT 4SM HZ CLR 26/22 A3021 370 79 1800 190/10 RMK AO2
14840KMKG MKG20010801072509508/01/01 07:25:31  5-MIN KMKG 011225Z 19009KT 4SM HZ CLR 26/22 A3021 360 76 1800 200/09 RMK AO2
14840KMKG MKG20010801073009508/01/01 07:30:31  5-MIN KMKG 011230Z 20009KT 4SM HZ CLR 26/22 A3021 360 76 1800 210/09 RMK AO2
14840KMKG MKG20010801073509508/01/01 07:35:31  5-MIN KMKG 011235Z 19010KT 4SM HZ CLR 26/22 A3022 360 76 1800 200/10 RMK AO2
14840KMKG MKG20010801074009508/01/01 07:40:31  5-MIN KMKG 011240Z 20008KT 4SM HZ CLR 27/22 A3022 350 76 1800 210/08 RMK AO2
14840KMKG MKG20010801074509508/01/01 07:45:31  5-MIN KMKG 011245Z 20010KT 4SM HZ CLR 27/22 A3022 350 73 1800 210/10 RMK AO2
14840KMKG MKG20010801075011208/01/01 07:50:31  5-MIN KMKG 011250Z 20010KT 4SM HZ CLR 27/22 A3022 350 76 1800 210/10 RMK AO2 SLP229 T02670222
14840KMKG MKG20010801075511208/01/01 07:55:31  5-MIN KMKG 011255Z 20011KT 4SM HZ CLR 27/22 A3022 350 73 1800 200/11 RMK AO2 SLP230 T02670217
14840KMKG MKG20010801080009508/01/01 08:00:31  5-MIN KMKG 011300Z 20011KT 5SM HZ CLR 27/22 A3023 350 73 1800 200/11 RMK AO2
14840KMKG MKG20010801080509508/01/01 08:05:31  5-MIN KMKG 011305Z 21010KT 5SM HZ CLR 27/22 A3023 340 73 1800 210/10 RMK AO2
14840KMKG MKG20010801081009508/01/01 08:10:31  5-MIN KMKG 011310Z 21010KT 5SM HZ CLR 27/22 A3023 340 73 1800 220/10 RMK AO2
14840KMKG MKG20010801081509508/01/01 08:15:31  5-MIN KMKG 011315Z 21009KT 5SM HZ CLR 27/22 A3024 340 73 1800 210/09 RMK AO2
14840KMKG MKG20010801082009508/01/01 08:20:31  5-MIN KMKG 011320Z 21009KT 5SM HZ CLR 27/22 A3023 340 73 1800 220/09 RMK AO2
14840KMKG MKG20010801082509508/01/01 08:25:31  5-MIN KMKG 011325Z 22010KT 5SM HZ CLR 27/22 A3024 340 73 1800 220/10 RMK AO2
14840KMKG MKG20010801083009508/01/01 08:30:31  5-MIN KMKG 011330Z 21010KT 5SM HZ CLR 27/22 A3023 340 73 1800 220/10 RMK AO2
14840KMKG MKG20010801083509508/01/01 08:35:31  5-MIN KMKG 011335Z 21011KT 5SM HZ CLR 27/22 A3023 340 73 1800 220/11 RMK AO2
14840KMKG MKG20010801084009508/01/01 08:40:31  5-MIN KMKG 011340Z 21010KT 5SM HZ CLR 27/22 A3024 340 73 1800 220/10 RMK AO2
14840KMKG MKG20010801084509508/01/01 08:45:31  5-MIN KMKG 011345Z 21010KT 5SM HZ CLR 27/22 A3024 340 74 1900 210/10 RMK AO2
14840KMKG MKG20010801085011208/01/01 08:50:31  5-MIN KMKG 011350Z 21009KT 5SM HZ CLR 27/22 A3024 340 74 1900 210/09 RMK AO2 SLP234 T02720222
14840KMKG MKG20010801085511208/01/01 08:55:31  5-MIN KMKG 011355Z 20009KT 5SM HZ CLR 27/22 A3024 340 73 1800 210/09 RMK AO2 SLP235 T02670217
14840KMKG MKG20010801090009508/01/01 09:00:31  5-MIN KMKG 011400Z 21012KT 4SM HZ CLR 27/22 A3024 340 74 1900 210/12 RMK AO2
14840KMKG MKG20010801090509508/01/01 09:05:31  5-MIN KMKG 011405Z 21010KT 4SM HZ CLR 27/22 A3024 340 71 1900 210/10 RMK AO2
14840KMKG MKG20010801091009508/01/01 09:10:31  5-MIN KMKG 011410Z 21009KT 4SM HZ CLR 28/22 A3024 340 71 1900 210/09 RMK AO2
14840KMKG MKG20010801091509508/01/01 09:15:31  5-MIN KMKG 011415Z 22009KT 4SM HZ CLR 28/22 A3024 330 71 1900 220/09 RMK AO2
14840KMKG MKG20010801092009508/01/01 09:20:31  5-MIN KMKG 011420Z 21009KT 4SM HZ CLR 28/22 A3024 330 71 1900 210/09 RMK AO2
14840KMKG MKG20010801092509508/01/01 09:25:31  5-MIN KMKG 011425Z 20010KT 4SM HZ CLR 28/22 A3024 330 71 1900 210/10 RMK AO2
14840KMKG MKG20010801093009508/01/01 09:30:31  5-MIN KMKG 011430Z 20011KT 4SM HZ CLR 28/22 A3024 340 71 1900 200/11 RMK AO2
14840KMKG MKG20010801093509508/01/01 09:35:31  5-MIN KMKG 011435Z 21008KT 4SM HZ CLR 28/22 A3024 330 71 1900 220/08 RMK AO2
14840KMKG MKG20010801094009508/01/01 09:40:31  5-MIN KMKG 011440Z 21010KT 4SM HZ CLR 28/22 A3024 330 71 1900 220/10 RMK AO2
14840KMKG MKG20010801094509508/01/01 09:45:31  5-MIN KMKG 011445Z 21008KT 4SM HZ CLR 27/22 A3024 340 71 1900 210/08 RMK AO2
14840KMKG MKG20010801095011808/01/01 09:50:31  5-MIN KMKG 011450Z 22010KT 4SM HZ CLR 28/22 A3024 330 71 1900 220/10 RMK AO2 SLP238 T02780222 51009
14840KMKG MKG20010801095511808/01/01 09:55:31  5-MIN KMKG 011455Z 21008KT 4SM HZ CLR 28/22 A3024 330 71 1900 210/08 RMK AO2 SLP237 T02780222 51014
14840KMKG MKG20010801100009508/01/01 10:00:31  5-MIN KMKG 011500Z 22010KT 4SM HZ CLR 28/22 A3025 330 71 1900 220/10 RMK AO2
14840KMKG MKG20010801100509508/01/01 10:05:31  5-MIN KMKG 011505Z 21010KT 4SM HZ CLR 28/22 A3024 330 69 1900 210/10 RMK AO2
14840KMKG MKG20010801101009508/01/01 10:10:31  5-MIN KMKG 011510Z 20010KT 4SM HZ CLR 28/22 A3025 330 69 2000 210/10 RMK AO2
14840KMKG MKG20010801101509508/01/01 10:15:31  5-MIN KMKG 011515Z 21010KT 4SM HZ CLR 28/22 A3025 330 71 1900 210/10 RMK AO2
14840KMKG MKG20010801102009508/01/01 10:20:31  5-MIN KMKG 011520Z 21010KT 4SM HZ CLR 28/22 A3025 330 71 1900 220/10 RMK AO2
14840KMKG MKG20010801102509508/01/01 10:25:31  5-MIN KMKG 011525Z 21011KT 4SM HZ CLR 28/22 A3025 330 71 1900 210/11 RMK AO2
14840KMKG MKG20010801103009508/01/01 10:30:31  5-MIN KMKG 011530Z 22010KT 4SM HZ CLR 28/22 A3025 330 69 2000 220/10 RMK AO2
14840KMKG MKG20010801103509508/01/01 10:35:31  5-MIN KMKG 011535Z 21010KT 4SM HZ CLR 28/22 A3024 330 69 2000 210/10 RMK AO2
14840KMKG MKG20010801104009508/01/01 10:40:31  5-MIN KMKG 011540Z 21011KT 4SM HZ CLR 28/22 A3024 340 69 2000 210/11 RMK AO2
14840KMKG MKG20010801104509508/01/01 10:45:31  5-MIN KMKG 011545Z 19011KT 4SM HZ CLR 28/22 A3024 340 69 2000 190/11 RMK AO2
14840KMKG MKG20010801105011208/01/01 10:50:31  5-MIN KMKG 011550Z 20012KT 4SM HZ CLR 28/22 A3024 340 69 2000 200/12 RMK AO2 SLP235 T02830222
14840KMKG MKG20010801105511208/01/01 10:55:31  5-MIN KMKG 011555Z 20011KT 4SM HZ CLR 28/22 A3024 340 69 2000 200/11 RMK AO2 SLP235 T02830222
14840KMKG MKG20010801110009508/01/01 11:00:31  5-MIN KMKG 011600Z 21010KT 4SM HZ CLR 28/22 A3024 340 69 2000 210/10 RMK AO2
14840KMKG MKG20010801110509508/01/01 11:05:31  5-MIN KMKG 011605Z 20013KT 4SM HZ CLR 29/22 A3024 340 67 2100 200/13 RMK AO2
14840KMKG MKG20010801111009508/01/01 11:10:31  5-MIN KMKG 011610Z 20011KT 4SM HZ CLR 28/22 A3023 340 69 2000 210/11 RMK AO2
14840KMKG MKG20010801111509508/01/01 11:15:31  5-MIN KMKG 011615Z 20011KT 4SM HZ CLR 28/22 A3023 350 69 2000 210/11 RMK AO2
14840KMKG MKG20010801112009508/01/01 11:20:31  5-MIN KMKG 011620Z 20013KT 4SM HZ CLR 28/22 A3022 350 69 2000 200/13 RMK AO2
14840KMKG MKG20010801112509508/01/01 11:25:31  5-MIN KMKG 011625Z 19012KT 4SM HZ CLR 29/22 A3022 350 67 2100 190/12 RMK AO2
14840KMKG MKG20010801113009508/01/01 11:30:31  5-MIN KMKG 011630Z 19013KT 4SM HZ CLR 28/22 A3022 360 69 2000 200/13 RMK AO2
14840KMKG MKG20010801113509508/01/01 11:35:31  5-MIN KMKG 011635Z 20013KT 4SM HZ CLR 28/22 A3021 360 69 2000 200/13 RMK AO2
14840KMKG MKG20010801114009508/01/01 11:40:31  5-MIN KMKG 011640Z 20013KT 4SM HZ CLR 28/22 A3021 360 66 2000 200/13 RMK AO2
14840KMKG MKG20010801114509508/01/01 11:45:31  5-MIN KMKG 011645Z 20013KT 4SM HZ CLR 28/22 A3021 370 69 2000 210/13 RMK AO2
14840KMKG MKG20010801115011208/01/01 11:50:31  5-MIN KMKG 011650Z 19014KT 4SM HZ CLR 29/22 A3021 370 67 2100 190/14 RMK AO2 SLP224 T02890222
14840KMKG MKG20010801115511208/01/01 11:55:31  5-MIN KMKG 011655Z 19013KT 4SM HZ CLR 29/22 A3020 370 64 2100 190/13 RMK AO2 SLP223 T02890217
14840KMKG MKG20010801120009508/01/01 12:00:31  5-MIN KMKG 011700Z 20012KT 4SM HZ CLR 28/22 A3020 370 69 2000 200/12 RMK AO2
14840KMKG MKG20010801120509508/01/01 12:05:31  5-MIN KMKG 011705Z 19011KT 4SM HZ CLR 29/22 A3020 370 67 2100 200/11 RMK AO2
14840KMKG MKG20010801121009508/01/01 12:10:31  5-MIN KMKG 011710Z 19011KT 4SM HZ CLR 29/22 A3020 370 67 2100 200/11 RMK AO2
14840KMKG MKG20010801121509508/01/01 12:15:31  5-MIN KMKG 011715Z 20012KT 4SM HZ CLR 29/22 A3020 380 64 2200 200/12 RMK AO2
14840KMKG MKG20010801122009508/01/01 12:20:31  5-MIN KMKG 011720Z 20013KT 4SM HZ CLR 29/22 A3019 380 64 2200 210/13 RMK AO2
14840KMKG MKG20010801122509508/01/01 12:25:31  5-MIN KMKG 011725Z 20011KT 4SM HZ CLR 29/22 A3019 380 64 2200 200/11 RMK AO2
14840KMKG MKG20010801123009508/01/01 12:30:31  5-MIN KMKG 011730Z 19011KT 4SM HZ CLR 30/22 A3020 380 62 2200 200/11 RMK AO2
14840KMKG MKG20010801123509508/01/01 12:35:31  5-MIN KMKG 011735Z 19012KT 4SM HZ CLR 29/22 A3020 380 64 2200 190/12 RMK AO2
14840KMKG MKG20010801124009508/01/01 12:40:31  5-MIN KMKG 011740Z 18013KT 4SM HZ CLR 29/22 A3019 380 64 2200 190/13 RMK AO2
14840KMKG MKG20010801124509508/01/01 12:45:31  5-MIN KMKG 011745Z 21013KT 4SM HZ CLR 29/22 A3020 380 67 2100 210/13 RMK AO2
14840KMKG MKG20010801125013008/01/01 12:50:31  5-MIN KMKG 011750Z 21012KT 4SM HZ CLR 29/22 A3020 370 64 2100 210/12 RMK AO2 SLP222 T02890217 10300 20256 51014
14840KMKG MKG20010801125513008/01/01 12:55:31  5-MIN KMKG 011755Z 20011KT 4SM HZ CLR 28/22 A3020 370 66 2000 200/11 RMK AO2 SLP222 T02830217 10300 20256 56014
14840KMKG MKG20010801130009508/01/01 13:00:31  5-MIN KMKG 011800Z 20011KT 4SM HZ CLR 28/22 A3020 370 66 2000 200/11 RMK AO2
14840KMKG MKG20010801130509508/01/01 13:05:31  5-MIN KMKG 011805Z 22012KT 4SM HZ CLR 28/22 A3021 360 69 2000 230/12 RMK AO2
14840KMKG MKG20010801131009508/01/01 13:10:31  5-MIN KMKG 011810Z 22014KT 4SM HZ CLR 28/22 A3021 360 69 2000 220/14 RMK AO2
14840KMKG MKG20010801131509508/01/01 13:15:31  5-MIN KMKG 011815Z 22014KT 4SM HZ CLR 28/22 A3021 360 69 2000 220/14 RMK AO2
14840KMKG MKG20010801132009508/01/01 13:20:31  5-MIN KMKG 011820Z 21011KT 4SM HZ CLR 28/22 A3021 360 69 2000 210/11 RMK AO2
14840KMKG MKG20010801132509508/01/01 13:25:31  5-MIN KMKG 011825Z 20012KT 4SM HZ CLR 27/22 A3021 360 71 1900 210/12 RMK AO2
14840KMKG MKG20010801133009508/01/01 13:30:31  5-MIN KMKG 011830Z 20010KT 4SM HZ CLR 28/22 A3022 360 69 1900 210/10 RMK AO2
14840KMKG MKG20010801133509508/01/01 13:35:31  5-MIN KMKG 011835Z 20012KT 4SM HZ CLR 28/22 A3022 360 69 1900 200/12 RMK AO2
14840KMKG MKG20010801134009508/01/01 13:40:31  5-MIN KMKG 011840Z 20009KT 4SM HZ CLR 28/22 A3022 360 69 1900 210/09 RMK AO2
14840KMKG MKG20010801134509508/01/01 13:45:31  5-MIN KMKG 011845Z 20009KT 4SM HZ CLR 28/22 A3022 360 71 1900 210/09 RMK AO2
14840KMKG MKG20010801135011208/01/01 13:50:31  5-MIN KMKG 011850Z 20009KT 4SM HZ CLR 28/22 A3022 350 69 1900 200/09 RMK AO2 SLP229 T02780217
14840KMKG MKG20010801135511208/01/01 13:55:31  5-MIN KMKG 011855Z 21010KT 4SM HZ CLR 28/22 A3022 350 66 2000 220/10 RMK AO2 SLP229 T02830217
14840KMKG MKG20010801140009508/01/01 14:00:31  5-MIN KMKG 011900Z 21011KT 4SM HZ CLR 28/22 A3022 350 69 1900 220/11 RMK AO2
14840KMKG MKG20010801140509508/01/01 14:05:31  5-MIN KMKG 011905Z 22012KT 4SM HZ CLR 28/22 A3022 360 66 2000 220/12 RMK AO2
14840KMKG MKG20010801141009508/01/01 14:10:31  5-MIN KMKG 011910Z 20011KT 4SM HZ CLR 28/22 A3022 360 69 2000 210/11 RMK AO2
14840KMKG MKG20010801141509508/01/01 14:15:31  5-MIN KMKG 011915Z 21013KT 4SM HZ CLR 28/22 A3021 360 66 2000 210/13 RMK AO2
14840KMKG MKG20010801142009508/01/01 14:20:31  5-MIN KMKG 011920Z 21012KT 4SM HZ CLR 28/22 A3021 360 66 2000 210/12 RMK AO2
14840KMKG MKG20010801142509508/01/01 14:25:31  5-MIN KMKG 011925Z 20013KT 4SM HZ CLR 28/22 A3021 360 66 2000 210/13 RMK AO2
14840KMKG MKG20010801143009508/01/01 14:30:31  5-MIN KMKG 011930Z 22013KT 4SM HZ CLR 29/22 A3021 360 64 2100 220/13 RMK AO2
14840KMKG MKG20010801143509508/01/01 14:35:31  5-MIN KMKG 011935Z 21012KT 4SM HZ CLR 28/22 A3021 370 66 2000 220/12 RMK AO2
14840KMKG MKG20010801144009508/01/01 14:40:31  5-MIN KMKG 011940Z 21011KT 4SM HZ CLR 29/22 A3021 370 64 2100 210/11 RMK AO2
14840KMKG MKG20010801144509508/01/01 14:45:31  5-MIN KMKG 011945Z 20012KT 4SM HZ CLR 29/22 A3020 370 64 2200 210/12 RMK AO2
14840KMKG MKG20010801145011208/01/01 14:50:31  5-MIN KMKG 011950Z 20011KT 4SM HZ CLR 29/22 A3019 380 64 2100 200/11 RMK AO2 SLP219 T02890217
14840KMKG MKG20010801145511208/01/01 14:55:31  5-MIN KMKG 011955Z 20012KT 4SM HZ CLR 29/22 A3019 380 62 2200 200/12 RMK AO2 SLP218 T02940217
14840KMKG MKG20010801150009508/01/01 15:00:31  5-MIN KMKG 012000Z 20012KT 5SM HZ CLR 30/22 A3019 380 62 2200 200/12 RMK AO2
14840KMKG MKG20010801150509508/01/01 15:05:31  5-MIN KMKG 012005Z 21013KT 5SM HZ CLR 29/22 A3019 380 62 2200 210/13 RMK AO2
14840KMKG MKG20010801151009508/01/01 15:10:31  5-MIN KMKG 012010Z 19014KT 5SM HZ CLR 30/22 A3019 390 60 2200 200/14 RMK AO2
14840KMKG MKG20010801151510108/01/01 15:15:31  5-MIN KMKG 012015Z 21010G19KT 5SM HZ CLR 29/22 A3018 390 62 2200 210/10G19 RMK AO2
14840KMKG MKG20010801152010108/01/01 15:20:31  5-MIN KMKG 012020Z 20010G19KT 5SM HZ CLR 30/22 A3019 390 60 2200 200/10G19 RMK AO2
14840KMKG MKG20010801152509508/01/01 15:25:31  5-MIN KMKG 012025Z 20013KT 5SM HZ CLR 29/22 A3019 380 62 2200 210/13 RMK AO2
14840KMKG MKG20010801153009508/01/01 15:30:31  5-MIN KMKG 012030Z 20013KT 5SM HZ CLR 30/22 A3018 390 60 2200 210/13 RMK AO2
14840KMKG MKG20010801153509508/01/01 15:35:31  5-MIN KMKG 012035Z 20013KT 5SM HZ CLR 30/22 A3018 390 60 2200 200/13 RMK AO2
14840KMKG MKG20010801154009508/01/01 15:40:31  5-MIN KMKG 012040Z 20013KT 5SM HZ CLR 31/22 A3017 400 58 2300 200/13 RMK AO2
14840KMKG MKG20010801154509508/01/01 15:45:31  5-MIN KMKG 012045Z 20013KT 5SM HZ CLR 31/22 A3017 400 60 2300 210/13 RMK AO2
14840KMKG MKG20010801155011808/01/01 15:50:31  5-MIN KMKG 012050Z 19014KT 5SM HZ CLR 31/22 A3017 400 60 2300 200/14 RMK AO2 SLP211 T03060222 56014
14840KMKG MKG20010801155511808/01/01 15:55:31  5-MIN KMKG 012055Z 19015KT 5SM HZ CLR 31/22 A3017 400 58 2300 200/15 RMK AO2 SLP211 T03060217 58011
14840KMKG MKG20010801160009508/01/01 16:00:31  5-MIN KMKG 012100Z 20013KT 5SM HZ CLR 31/22 A3017 400 58 2400 200/13 RMK AO2
14840KMKG MKG20010801160509508/01/01 16:05:31  5-MIN KMKG 012105Z 20015KT 5SM HZ CLR 31/22 A3016 410 58 2400 200/15 RMK AO2
14840KMKG MKG20010801161010108/01/01 16:10:31  5-MIN KMKG 012110Z 19013G19KT 5SM HZ CLR 30/22 A3017 400 60 2300 200/13G19 RMK AO2
14840KMKG MKG20010801161510108/01/01 16:15:31  5-MIN KMKG 012115Z 20014G19KT 5SM HZ CLR 30/22 A3017 400 60 2300 200/14G19 RMK AO2
14840KMKG MKG20010801162010108/01/01 16:20:31  5-MIN KMKG 012120Z 20012G18KT 5SM HZ CLR 30/22 A3017 400 60 2300 200/12G18 RMK AO2
14840KMKG MKG20010801162509508/01/01 16:25:31  5-MIN KMKG 012125Z 22014KT 5SM HZ CLR 31/22 A3017 400 58 2300 220/14 RMK AO2
14840KMKG MKG20010801163009508/01/01 16:30:31  5-MIN KMKG 012130Z 21012KT 5SM HZ CLR 31/22 A3018 390 58 2300 210/12 RMK AO2
14840KMKG MKG20010801163509508/01/01 16:35:31  5-MIN KMKG 012135Z 20014KT 5SM HZ CLR 31/22 A3018 390 58 2300 200/14 RMK AO2
14840KMKG MKG20010801164009508/01/01 16:40:31  5-MIN KMKG 012140Z 21013KT 5SM HZ CLR 31/22 A3018 390 56 2400 210/13 RMK AO2
14840KMKG MKG20010801164509508/01/01 16:45:31  5-MIN KMKG 012145Z 20013KT 5SM HZ CLR 31/22 A3018 390 58 2300 200/13 RMK AO2
14840KMKG MKG20010801165011808/01/01 16:50:31  5-MIN KMKG 012150Z 20015G19KT 5SM HZ CLR 31/22 A3018 390 58 2300 200/15G19 RMK AO2 SLP215 T03060217
14840KMKG MKG20010801165511808/01/01 16:55:31  5-MIN KMKG 012155Z 20014G20KT 5SM HZ CLR 30/22 A3018 390 60 2200 200/14G20 RMK AO2 SLP215 T03000217
14840KMKG MKG20010801170010108/01/01 17:00:31  5-MIN KMKG 012200Z 20011G20KT 5SM HZ CLR 30/22 A3018 390 60 2200 210/11G20 RMK AO2
14840KMKG MKG20010801170509508/01/01 17:05:31  5-MIN KMKG 012205Z 20011KT 5SM HZ CLR 31/22 A3018 390 58 2300 210/11 RMK AO2
14840KMKG MKG20010801171009508/01/01 17:10:31  5-MIN KMKG 012210Z 21012KT 6SM HZ CLR 31/22 A3018 390 60 2300 210/12 RMK AO2
14840KMKG MKG20010802023509808/02/01 02:35:31  5-MIN KMKG 020735Z 21004KT 3SM BR OVC120 23/22 A3016 410 93 1500 210/04 RMK AO2
14840KMKG MKG20010802024009808/02/01 02:40:31  5-MIN KMKG 020740Z 20003KT 3SM BR OVC110 23/22 A3016 410 93 1500 200/03 RMK AO2
14840KMKG MKG20010802024509808/02/01 02:45:31  5-MIN KMKG 020745Z 00000KT 3SM BR OVC110 23/22 A3016 410 93 1500 000/00 RMK AO2
14840KMKG MKG20010802025011508/02/01 02:50:31  5-MIN KMKG 020750Z 00000KT 3SM BR OVC110 23/22 A3016 410 93 1500 000/00 RMK AO2 SLP209 T02330222
14840KMKG MKG20010802025511508/02/01 02:55:31  5-MIN KMKG 020755Z 00000KT 3SM BR OVC110 23/22 A3016 410 93 1500 000/00 RMK AO2 SLP209 T02330222
14840KMKG MKG20010802030009808/02/01 03:00:31  5-MIN KMKG 020800Z 00000KT 3SM BR OVC110 23/22 A3016 410 93 1500 000/00 RMK AO2
14840KMKG MKG20010802030509808/02/01 03:05:31  5-MIN KMKG 020805Z 00000KT 3SM BR OVC110 23/22 A3016 410 93 1500 000/00 RMK AO2
14840KMKG MKG20010802031009808/02/01 03:10:31  5-MIN KMKG 020810Z 00000KT 3SM BR BKN110 23/22 A3016 410 93 1500 000/00 RMK AO2
14840KMKG MKG20010802031509808/02/01 03:15:31  5-MIN KMKG 020815Z 00000KT 3SM BR BKN110 23/22 A3016 410 93 1500 000/00 RMK AO2
14840KMKG MKG20010802032009808/02/01 03:20:31  5-MIN KMKG 020820Z 00000KT 3SM BR SCT110 23/22 A3016 410 93 1500 000/00 RMK AO2
14840KMKG MKG20010802032509808/02/01 03:25:31  5-MIN KMKG 020825Z 00000KT 3SM BR SCT120 23/22 A3016 410 93 1500 000/00 RMK AO2
14840KMKG MKG20010802033009808/02/01 03:30:31  5-MIN KMKG 020830Z 00000KT 3SM BR FEW120 23/22 A3016 410 93 1500 000/00 RMK AO2
14840KMKG MKG20010802033509508/02/01 03:35:31  5-MIN KMKG 020835Z 00000KT 3SM BR CLR 23/22 A3016 410 93 1500 000/00 RMK AO2
14840KMKG MKG20010802034009508/02/01 03:40:31  5-MIN KMKG 020840Z 00000KT 3SM BR CLR 23/22 A3015 420 93 1500 000/00 RMK AO2
14840KMKG MKG20010802034509508/02/01 03:45:31  5-MIN KMKG 020845Z 15004KT 3SM BR CLR 23/22 A3015 420 93 1500 150/04 RMK AO2
14840KMKG MKG20010802035011808/02/01 03:50:31  5-MIN KMKG 020850Z 15004KT 3SM BR CLR 23/22 A3015 420 93 1500 160/04 RMK AO2 SLP203 T02330222 58008
14840KMKG MKG20010802035511808/02/01 03:55:31  5-MIN KMKG 020855Z 18003KT 3SM BR CLR 23/22 A3015 420 93 1500 180/03 RMK AO2 SLP203 T02330222 58003
14840KMKG MKG20010802040009508/02/01 04:00:31  5-MIN KMKG 020900Z 19003KT 3SM BR CLR 23/22 A3015 420 93 1500 190/03 RMK AO2
14840KMKG MKG20010802040509508/02/01 04:05:31  5-MIN KMKG 020905Z 15003KT 3SM BR CLR 23/22 A3015 420 93 1500 160/03 RMK AO2
14840KMKG MKG20010802041009508/02/01 04:10:31  5-MIN KMKG 020910Z 00000KT 3SM BR CLR 23/22 A3015 420 93 1500 000/00 RMK AO2
14840KMKG MKG20010802041509508/02/01 04:15:31  5-MIN KMKG 020915Z 00000KT 3SM BR CLR 23/22 A3015 420 93 1500 000/00 RMK AO2
14840KMKG MKG20010802042009508/02/01 04:20:31  5-MIN KMKG 020920Z 00000KT 3SM BR CLR 23/22 A3015 420 93 1500 000/00 RMK AO2
14840KMKG MKG20010802042509508/02/01 04:25:31  5-MIN KMKG 020925Z 00000KT 3SM BR CLR 23/22 A3015 420 93 1500 000/00 RMK AO2
14840KMKG MKG20010802043009508/02/01 04:30:31  5-MIN KMKG 020930Z 28003KT 3SM BR CLR 23/22 A3015 420 97 1500 280/03 RMK AO2
14840KMKG MKG20010802043509908/02/01 04:35:31  5-MIN KMKG 020935Z 25006KT 2 1/2SM BR CLR 23/22 A3016 410 97 1500 260/06 RMK AO2
14840KMKG MKG20010802044009908/02/01 04:40:31  5-MIN KMKG 020940Z 23005KT 2 1/2SM BR CLR 23/22 A3015 420 97 1500 240/05 RMK AO2
14840KMKG MKG20010802044510208/02/01 04:45:31  5-MIN KMKG 020945Z 23005KT 2 1/2SM BR FEW120 23/22 A3015 420 97 1500 230/05 RMK AO2
14840KMKG MKG20010802045011908/02/01 04:50:31  5-MIN KMKG 020950Z 23005KT 2 1/2SM BR FEW120 23/22 A3015 420 97 1500 230/05 RMK AO2 SLP206 T02280222
14840KMKG MKG20010802045511908/02/01 04:55:31  5-MIN KMKG 020955Z 22006KT 2 1/2SM BR SCT120 23/22 A3015 420 97 1500 220/06 RMK AO2 SLP206 T02280222
14840KMKG MKG20010802050010208/02/01 05:00:31  5-MIN KMKG 021000Z 22006KT 2 1/2SM BR SCT120 23/22 A3015 420 97 1500 220/06 RMK AO2
14840KMKG MKG20010802050510208/02/01 05:05:31  5-MIN KMKG 021005Z 23004KT 2 1/2SM BR SCT120 23/22 A3015 420 97 1500 230/04 RMK AO2
14840KMKG MKG20010802051010208/02/01 05:10:31  5-MIN KMKG 021010Z 24004KT 2 1/2SM BR SCT120 23/22 A3015 420 97 1500 240/04 RMK AO2
14840KMKG MKG20010802051510908/02/01 05:15:31  5-MIN KMKG 021015Z 24005KT 2 1/2SM BR FEW049 SCT120 23/22 A3016 410 97 1500 240/05 RMK AO2
14840KMKG MKG20010802052010908/02/01 05:20:31  5-MIN KMKG 021020Z 24004KT 2 1/2SM BR SCT049 SCT120 23/22 A3016 410 97 1400 250/04 RMK AO2
14840KMKG MKG20010802052510208/02/01 05:25:31  5-MIN KMKG 021025Z 25004KT 2 1/2SM BR BKN049 23/22 A3016 410 97 1400 250/04 RMK AO2
14840KMKG MKG20010802053009808/02/01 05:30:31  5-MIN KMKG 021030Z 24005KT 3SM BR BKN049 23/22 A3017 400 93 1500 250/05 RMK AO2
14840KMKG MKG20010802053509808/02/01 05:35:31  5-MIN KMKG 021035Z 26006KT 4SM BR BKN049 23/22 A3017 400 93 1500 260/06 RMK AO2
14840KMKG MKG20010802054009808/02/01 05:40:31  5-MIN KMKG 021040Z 26006KT 4SM BR OVC049 23/22 A3017 400 90 1500 260/06 RMK AO2
14840KMKG MKG20010802054509808/02/01 05:45:31  5-MIN KMKG 021045Z 27006KT 5SM BR OVC049 24/22 A3017 400 87 1600 270/06 RMK AO2
14840KMKG MKG20010802055011508/02/01 05:50:31  5-MIN KMKG 021050Z 27007KT 6SM HZ OVC049 24/21 A3017 400 84 1600 280/07 RMK AO2 SLP213 T02390211
14840KMKG MKG20010802055511208/02/01 05:55:31  5-MIN KMKG 021055Z 27006KT 8SM OVC049 24/21 A3017 400 84 1600 280/06 RMK AO2 SLP213 T02390211
14840KMKG MKG20010802060009508/02/01 06:00:31  5-MIN KMKG 021100Z 26007KT 9SM OVC049 24/21 A3018 390 84 1600 270/07 RMK AO2
14840KMKG MKG20010802060509608/02/01 06:05:31  5-MIN KMKG 021105Z 26008KT 10SM OVC049 24/21 A3019 390 84 1500 260/08 RMK AO2
14840KMKG MKG20010802061011208/02/01 06:10:31  5-MIN KMKG 021110Z 27010KT 230V300 10SM OVC047 24/21 A3019 380 84 1500 280/10 230V300 RMK AO2
14840KMKG MKG20010802061509608/02/01 06:15:31  5-MIN KMKG 021115Z 27009KT 10SM OVC047 23/21 A3019 380 87 1500 270/09 RMK AO2
14840KMKG MKG20010802062011808/02/01 06:20:31  5-MIN KMKG 021120Z 26010KT 9SM -RA BKN047 OVC055 23/21 A3018 390 87 1500 270/10 RMK AO2 RAB17 P0000
14840KMKG MKG20010802062512408/02/01 06:25:31  5-MIN KMKG 021125Z 27006G14KT 9SM -RA BKN047 BKN055 23/22 A3018 390 93 1400 280/06G14 RMK AO2 RAB17 P0000
14840KMKG MKG20010802063011808/02/01 06:30:31  5-MIN KMKG 021130Z 27008KT 8SM -RA BKN045 BKN060 23/22 A3018 390 93 1400 270/08 RMK AO2 RAB17 P0000
14840KMKG MKG20010802063511808/02/01 06:35:31  5-MIN KMKG 021135Z 28009KT 7SM -RA SCT045 BKN055 23/22 A3018 390 93 1400 280/09 RMK AO2 RAB17 P0000
14840KMKG MKG20010802064012508/02/01 06:40:31  5-MIN KMKG 021140Z 28009KT 8SM -RA FEW045 BKN055 BKN095 23/22 A3018 390 93 1400 280/09 RMK AO2 RAB17 P0000
14840KMKG MKG20010802064514008/02/01 06:45:31  5-MIN KMKG 021145Z 27009KT 8SM -RA SCT045 BKN055 BKN095 23/22 A3019 390 93 1400 270/09 RMK AO2 RAB17 CIG 047 RWY 14 P0000
14840KMKG MKG20010802065017408/02/01 06:50:31  5-MIN KMKG 021150Z 26009KT 8SM -RA SCT045 BKN055 23/22 A3018 390 93 1400 260/09 RMK AO2 RAB17 CIG 045 RWY 14 SLP217 P0000 60000 T02280217 10239 20228 58003
14840KMKG MKG20010802065515908/02/01 06:55:31  5-MIN KMKG 021155Z 27010KT 8SM -RA SCT045 BKN055 23/22 A3018 390 93 1400 280/10 RMK AO2 RAB17 SLP217 P0000 60000 T02280217 10239 20228 53013
14840KMKG MKG20010802070011208/02/01 07:00:31  5-MIN KMKG 021200Z 27009KT 8SM -RA SCT047 BKN060 23/22 A3018 390 93 1400 280/09 RMK AO2 P0000
14840KMKG MKG20010802070513608/02/01 07:05:31  5-MIN KMKG 021205Z 27008KT 4SM RA BR FEW027 SCT044 BKN055 22/22 A3018 390 97 1400 270/08 RMK AO2 CIG 044 RWY 14 P0002
14840KMKG MKG20010802071012108/02/01 07:10:31  5-MIN KMKG 021210Z 26007KT 3SM RA BR SCT023 BKN044 OVC055 22/22 A3018 390 97 1400 270/07 RMK AO2 P0003
14840KMKG MKG20010802071512208/02/01 07:15:31  5-MIN KMKG 021215Z 28007KT 4SM -RA BR FEW023 BKN044 OVC055 22/22 A3018 390 97 1400 290/07 RMK AO2 P0003
14840KMKG MKG20010802072011908/02/01 07:20:31  5-MIN KMKG 021220Z 27005KT 8SM -RA FEW023 SCT040 BKN048 22/22 A3018 390 97 1400 280/05 RMK AO2 P0003
14840KMKG MKG20010802072511908/02/01 07:25:31  5-MIN KMKG 021225Z 27006KT 9SM -RA FEW023 BKN048 BKN055 23/22 A3018 390 93 1400 270/06 RMK AO2 P0003
14840KMKG MKG20010802073011908/02/01 07:30:31  5-MIN KMKG 021230Z 27007KT 9SM -RA FEW023 BKN048 BKN060 23/22 A3018 390 93 1400 270/07 RMK AO2 P0003
14840KMKG MKG20010802073512008/02/01 07:35:31  5-MIN KMKG 021235Z 27007KT 10SM -RA FEW023 SCT048 SCT060 23/22 A3018 390 93 1400 270/07 RMK AO2 P0003
14840KMKG MKG20010802074012008/02/01 07:40:31  5-MIN KMKG 021240Z 27007KT 10SM -RA FEW038 SCT048 SCT060 23/22 A3018 390 93 1400 280/07 RMK AO2 P0003
14840KMKG MKG20010802074512008/02/01 07:45:31  5-MIN KMKG 021245Z 27006KT 10SM -RA FEW038 SCT046 SCT060 23/22 A3018 390 93 1400 270/06 RMK AO2 P0003
14840KMKG MKG20010802075012508/02/01 07:50:31  5-MIN KMKG 021250Z 29007KT 10SM FEW038 23/22 A3019 390 93 1400 290/07 RMK AO2 RAE47 SLP218 P0003 T02280217
14840KMKG MKG20010802075512508/02/01 07:55:31  5-MIN KMKG 021255Z 30007KT 10SM FEW038 23/22 A3019 380 97 1400 310/07 RMK AO2 RAE47 SLP218 P0003 T02280222
14840KMKG MKG20010802080009608/02/01 08:00:31  5-MIN KMKG 021300Z 31008KT 10SM FEW038 23/22 A3019 380 97 1400 310/08 RMK AO2
14840KMKG MKG20010802080509608/02/01 08:05:31  5-MIN KMKG 021305Z 31007KT 10SM FEW038 23/22 A3019 380 93 1400 320/07 RMK AO2
14840KMKG MKG20010802081009308/02/01 08:10:31  5-MIN KMKG 021310Z 30008KT 10SM CLR 23/22 A3019 380 97 1400 310/08 RMK AO2
14840KMKG MKG20010802081509608/02/01 08:15:31  5-MIN KMKG 021315Z 30007KT 10SM FEW006 23/22 A3019 390 97 1400 310/07 RMK AO2
14840KMKG MKG20010802082009608/02/01 08:20:31  5-MIN KMKG 021320Z 30006KT 10SM FEW006 23/22 A3018 390 97 1400 300/06 RMK AO2
14840KMKG MKG20010802082509608/02/01 08:25:31  5-MIN KMKG 021325Z 29004KT 10SM FEW006 23/22 A3018 390 97 1400 300/04 RMK AO2
14840KMKG MKG20010802083009608/02/01 08:30:31  5-MIN KMKG 021330Z 29005KT 10SM FEW006 23/22 A3018 390 97 1400 290/05 RMK AO2
14840KMKG MKG20010802083509308/02/01 08:35:31  5-MIN KMKG 021335Z 26004KT 10SM CLR 23/22 A3018 390 97 1400 270/04 RMK AO2
14840KMKG MKG20010802084009608/02/01 08:40:31  5-MIN KMKG 021340Z 27004KT 10SM FEW007 23/22 A3018 390 97 1400 280/04 RMK AO2
14840KMKG MKG20010802084509608/02/01 08:45:31  5-MIN KMKG 021345Z 29004KT 10SM FEW007 23/22 A3018 390 93 1500 290/04 RMK AO2
14840KMKG MKG20010802085011308/02/01 08:50:31  5-MIN KMKG 021350Z 27005KT 10SM FEW007 23/22 A3018 390 93 1500 280/05 RMK AO2 SLP216 T02330222
14840KMKG MKG20010802085511308/02/01 08:55:31  5-MIN KMKG 021355Z 30005KT 10SM SCT007 23/22 A3018 390 93 1500 300/05 RMK AO2 SLP217 T02330222
14840KMKG MKG20010802090009608/02/01 09:00:31  5-MIN KMKG 021400Z 30006KT 10SM SCT007 23/22 A3018 390 97 1400 310/06 RMK AO2
14840KMKG MKG20010802090509608/02/01 09:05:31  5-MIN KMKG 021405Z 30007KT 10SM SCT007 23/22 A3018 390 97 1400 300/07 RMK AO2
14840KMKG MKG20010802091009608/02/01 09:10:31  5-MIN KMKG 021410Z 29006KT 10SM SCT007 23/22 A3018 390 97 1400 290/06 RMK AO2
14840KMKG MKG20010802091509608/02/01 09:15:31  5-MIN KMKG 021415Z 30005KT 10SM SCT007 23/22 A3018 390 97 1400 300/05 RMK AO2
14840KMKG MKG20010802092009608/02/01 09:20:31  5-MIN KMKG 021420Z 28006KT 10SM FEW005 23/22 A3018 390 97 1400 280/06 RMK AO2
14840KMKG MKG20010802092509608/02/01 09:25:31  5-MIN KMKG 021425Z 25005KT 10SM FEW005 23/22 A3019 390 97 1400 250/05 RMK AO2
14840KMKG MKG20010802093009608/02/01 09:30:31  5-MIN KMKG 021430Z 24005KT 10SM FEW005 23/22 A3019 380 97 1400 250/05 RMK AO2
14840KMKG MKG20010802093509608/02/01 09:35:31  5-MIN KMKG 021435Z 26007KT 10SM FEW005 23/22 A3019 380 97 1400 260/07 RMK AO2
14840KMKG MKG20010802094011208/02/01 09:40:31  5-MIN KMKG 021440Z 28008KT 10SM -RA SCT005 23/22 A3020 380 97 1400 290/08 RMK AO2 RAB36 P0000
14840KMKG MKG20010802094511208/02/01 09:45:31  5-MIN KMKG 021445Z 28007KT 10SM -RA BKN005 23/22 A3020 380 97 1400 290/07 RMK AO2 RAB36 P0000
14840KMKG MKG20010802095014008/02/01 09:50:31  5-MIN KMKG 021450Z 27005KT 10SM BKN005 23/22 A3020 370 97 1400 270/05 RMK AO2 RAB36E46 SLP223 P0000 60003 T02280222 53013
14840KMKG MKG20010802095514708/02/01 09:55:31  5-MIN KMKG 021455Z 27005KT 10SM BKN005 BKN035 23/22 A3020 370 97 1400 280/05 RMK AO2 RAB36E46 SLP222 P0000 60003 T02280222 53005
14840KMKG MKG20010802100010308/02/01 10:00:31  5-MIN KMKG 021500Z VRB04KT 10SM BKN005 OVC035 23/22 A3020 370 97 1400 VRB/04 RMK AO2
14840KMKG MKG20010802100510308/02/01 10:05:31  5-MIN KMKG 021505Z VRB04KT 10SM BKN005 OVC033 23/22 A3020 370 97 1400 VRB/04 RMK AO2
14840KMKG MKG20010802101011808/02/01 10:10:31  5-MIN KMKG 021510Z 26004KT 10SM SCT005 OVC033 23/22 A3019 380 97 1400 260/04 RMK AO2 CIG 005 RWY 14
14840KMKG MKG20010802101510308/02/01 10:15:31  5-MIN KMKG 021515Z 25006KT 10SM SCT005 OVC033 23/22 A3019 380 93 1400 260/06 RMK AO2
14840KMKG MKG20010802102010308/02/01 10:20:31  5-MIN KMKG 021520Z 25007KT 10SM FEW005 OVC033 23/22 A3019 380 93 1400 260/07 RMK AO2
14840KMKG MKG20010802102510308/02/01 10:25:31  5-MIN KMKG 021525Z 25007KT 10SM FEW005 OVC035 23/22 A3019 380 93 1400 250/07 RMK AO2
14840KMKG MKG20010802103009608/02/01 10:30:31  5-MIN KMKG 021530Z 24005KT 10SM OVC035 23/22 A3019 380 93 1400 240/05 RMK AO2
14840KMKG MKG20010802103509608/02/01 10:35:31  5-MIN KMKG 021535Z 23004KT 10SM OVC035 23/22 A3019 380 90 1500 240/04 RMK AO2
14840KMKG MKG20010802104009608/02/01 10:40:31  5-MIN KMKG 021540Z 23005KT 10SM OVC035 23/22 A3019 380 90 1500 240/05 RMK AO2
14840KMKG MKG20010802104509608/02/01 10:45:31  5-MIN KMKG 021545Z 24007KT 10SM OVC035 23/22 A3019 380 90 1500 240/07 RMK AO2
14840KMKG MKG20010802105011308/02/01 10:50:31  5-MIN KMKG 021550Z 22007KT 10SM OVC035 23/22 A3019 380 90 1500 230/07 RMK AO2 SLP219 T02330217
14840KMKG MKG20010802105512008/02/01 10:55:31  5-MIN KMKG 021555Z 23006KT 10SM FEW006 OVC035 23/22 A3019 380 90 1500 240/06 RMK AO2 SLP219 T02330217
14840KMKG MKG20010802110009608/02/01 11:00:31  5-MIN KMKG 021600Z 23005KT 10SM BKN035 23/22 A3019 380 90 1500 230/05 RMK AO2
14840KMKG MKG20010802110509608/02/01 11:05:31  5-MIN KMKG 021605Z 25006KT 10SM BKN035 24/22 A3019 380 87 1500 250/06 RMK AO2
14840KMKG MKG20010802111009608/02/01 11:10:31  5-MIN KMKG 021610Z 25005KT 10SM BKN035 23/22 A3019 390 90 1500 250/05 RMK AO2
14840KMKG MKG20010802111509608/02/01 11:15:31  5-MIN KMKG 021615Z 26005KT 10SM BKN037 24/22 A3019 390 90 1500 260/05 RMK AO2
14840KMKG MKG20010802112009608/02/01 11:20:31  5-MIN KMKG 021620Z 25004KT 10SM BKN037 24/22 A3019 390 87 1500 260/04 RMK AO2
14840KMKG MKG20010802112509608/02/01 11:25:31  5-MIN KMKG 021625Z 26005KT 10SM BKN037 24/22 A3019 390 87 1500 270/05 RMK AO2
14840KMKG MKG20010802113009608/02/01 11:30:31  5-MIN KMKG 021630Z 27005KT 10SM BKN037 24/22 A3019 380 87 1500 280/05 RMK AO2
14840KMKG MKG20010802113509608/02/01 11:35:31  5-MIN KMKG 021635Z 30005KT 10SM BKN037 24/22 A3019 390 90 1500 300/05 RMK AO2
14840KMKG MKG20010802114009608/02/01 11:40:31  5-MIN KMKG 021640Z 27006KT 10SM OVC037 24/22 A3019 390 87 1500 280/06 RMK AO2
14840KMKG MKG20010802114509608/02/01 11:45:31  5-MIN KMKG 021645Z 25006KT 10SM OVC037 24/22 A3019 380 87 1500 260/06 RMK AO2
14840KMKG MKG20010802115011308/02/01 11:50:31  5-MIN KMKG 021650Z 26005KT 10SM OVC037 24/22 A3019 390 84 1600 270/05 RMK AO2 SLP218 T02440217
14840KMKG MKG20010802115511308/02/01 11:55:31  5-MIN KMKG 021655Z 27006KT 10SM OVC039 24/22 A3018 390 87 1600 270/06 RMK AO2 SLP217 T02440222
14840KMKG MKG20010802120009608/02/01 12:00:31  5-MIN KMKG 021700Z 24006KT 10SM BKN039 25/22 A3018 390 84 1700 250/06 RMK AO2
14840KMKG MKG20010802120509608/02/01 12:05:31  5-MIN KMKG 021705Z 25006KT 10SM BKN039 25/22 A3018 390 84 1700 250/06 RMK AO2
14840KMKG MKG20010802121009608/02/01 12:10:31  5-MIN KMKG 021710Z 25008KT 10SM SCT041 25/22 A3018 390 84 1700 250/08 RMK AO2
14840KMKG MKG20010802121509608/02/01 12:15:31  5-MIN KMKG 021715Z 24007KT 10SM SCT041 25/22 A3018 390 84 1700 250/07 RMK AO2
14840KMKG MKG20010802122009608/02/01 12:20:31  5-MIN KMKG 021720Z 25010KT 10SM FEW041 24/22 A3018 390 84 1600 250/10 RMK AO2
14840KMKG MKG20010802122509608/02/01 12:25:31  5-MIN KMKG 021725Z 25009KT 10SM FEW039 24/22 A3018 390 84 1600 250/09 RMK AO2
14840KMKG MKG20010802123009608/02/01 12:30:31  5-MIN KMKG 021730Z 26010KT 10SM SCT041 24/22 A3018 390 84 1600 270/10 RMK AO2
14840KMKG MKG20010802123509608/02/01 12:35:31  5-MIN KMKG 021735Z 27010KT 10SM BKN041 24/22 A3018 390 84 1600 280/10 RMK AO2
14840KMKG MKG20010802124010308/02/01 12:40:31  5-MIN KMKG 021740Z 26010KT 10SM FEW022 BKN041 24/22 A3018 390 84 1600 260/10 RMK AO2
14840KMKG MKG20010802124511008/02/01 12:45:31  5-MIN KMKG 021745Z 24010KT 10SM SCT018 SCT022 BKN041 24/22 A3017 400 84 1600 240/10 RMK AO2
14840KMKG MKG20010802125014408/02/01 12:50:31  5-MIN KMKG 021750Z 24008KT 10SM SCT018 BKN041 24/22 A3017 400 84 1600 250/08 RMK AO2 SLP212 60003 T02440217 10250 20222 53005
14840KMKG MKG20010802125514408/02/01 12:55:31  5-MIN KMKG 021755Z 24008KT 10SM BKN016 BKN041 24/22 A3018 390 84 1600 250/08 RMK AO2 SLP215 60003 T02440217 10250 20222 57007
14840KMKG MKG20010802130010308/02/01 13:00:31  5-MIN KMKG 021800Z 27009KT 10SM BKN016 BKN041 24/22 A3018 390 84 1600 280/09 RMK AO2
14840KMKG MKG20010802130510308/02/01 13:05:31  5-MIN KMKG 021805Z 27009KT 10SM BKN016 OVC021 24/22 A3018 390 84 1600 270/09 RMK AO2
14840KMKG MKG20010802131009608/02/01 13:10:31  5-MIN KMKG 021810Z 25010KT 10SM OVC016 24/22 A3018 390 87 1600 260/10 RMK AO2
14840KMKG MKG20010802131509608/02/01 13:15:31  5-MIN KMKG 021815Z 26011KT 10SM OVC014 24/22 A3018 400 87 1600 260/11 RMK AO2
14840KMKG MKG20010802132009608/02/01 13:20:31  5-MIN KMKG 021820Z 26007KT 10SM OVC014 24/22 A3018 390 87 1600 270/07 RMK AO2
14840KMKG MKG20010802132511508/02/01 13:25:31  5-MIN KMKG 021825Z 26008KT 10SM BKN010 OVC015 24/22 A3018 400 87 1600 260/08 RMK AO2 CIG 009V013
14840KMKG MKG20010802133010308/02/01 13:30:31  5-MIN KMKG 021830Z 26008KT 10SM BKN010 OVC015 24/22 A3018 400 87 1600 260/08 RMK AO2
14840KMKG MKG20010802133510808/02/01 13:35:31  5-MIN KMKG 021835Z 27008KT 10SM OVC010 24/22 A3018 400 87 1600 270/08 RMK AO2 CIG 009V013
14840KMKG MKG20010802134009608/02/01 13:40:31  5-MIN KMKG 021840Z 26006KT 10SM OVC010 24/22 A3017 400 87 1600 260/06 RMK AO2
14840KMKG MKG20010802134509608/02/01 13:45:31  5-MIN KMKG 021845Z 26007KT 10SM OVC010 24/22 A3017 400 87 1600 260/07 RMK AO2
14840KMKG MKG20010802135011308/02/01 13:50:31  5-MIN KMKG 021850Z 25008KT 10SM OVC010 24/22 A3017 400 87 1600 250/08 RMK AO2 SLP213 T02390217
14840KMKG MKG20010802135511308/02/01 13:55:31  5-MIN KMKG 021855Z 28006KT 10SM OVC010 24/22 A3017 400 87 1600 280/06 RMK AO2 SLP214 T02390217
14840KMKG MKG20010802140009608/02/01 14:00:31  5-MIN KMKG 021900Z 26007KT 10SM OVC010 24/22 A3017 400 87 1600 260/07 RMK AO2
14840KMKG MKG20010802140509608/02/01 14:05:31  5-MIN KMKG 021905Z 27006KT 10SM OVC010 23/22 A3017 400 90 1500 270/06 RMK AO2
14840KMKG MKG20010802141009608/02/01 14:10:31  5-MIN KMKG 021910Z 28006KT 10SM OVC010 24/22 A3017 400 87 1600 280/06 RMK AO2
14840KMKG MKG20010802141509608/02/01 14:15:31  5-MIN KMKG 021915Z 28006KT 10SM OVC010 24/22 A3017 400 87 1600 280/06 RMK AO2
14840KMKG MKG20010802142009608/02/01 14:20:31  5-MIN KMKG 021920Z 24007KT 10SM OVC008 24/22 A3017 400 87 1600 240/07 RMK AO2
14840KMKG MKG20010802142509608/02/01 14:25:31  5-MIN KMKG 021925Z 27005KT 10SM OVC008 24/22 A3016 410 87 1600 270/05 RMK AO2
14840KMKG MKG20010802143009608/02/01 14:30:31  5-MIN KMKG 021930Z 26006KT 10SM OVC008 24/22 A3016 410 87 1600 270/06 RMK AO2
14840KMKG MKG20010802143510308/02/01 14:35:31  5-MIN KMKG 021935Z 25007KT 10SM BKN008 OVC012 24/22 A3017 400 87 1600 250/07 RMK AO2
14840KMKG MKG20010802144010308/02/01 14:40:31  5-MIN KMKG 021940Z 25008KT 10SM BKN008 OVC012 24/22 A3017 400 87 1600 260/08 RMK AO2
14840KMKG MKG20010802144510808/02/01 14:45:31  5-MIN KMKG 021945Z 26008KT 10SM OVC010 24/22 A3017 400 87 1600 260/08 RMK AO2 CIG 007V012
14840KMKG MKG20010802145012508/02/01 14:50:31  5-MIN KMKG 021950Z 26008KT 10SM OVC010 24/22 A3017 400 90 1600 260/08 RMK AO2 CIG 007V013 SLP212 T02390222
14840KMKG MKG20010802145512508/02/01 14:55:31  5-MIN KMKG 021955Z 28006KT 10SM OVC010 24/22 A3017 400 90 1600 290/06 RMK AO2 CIG 007V013 SLP212 T02390222
14840KMKG MKG20010802150011508/02/01 15:00:31  5-MIN KMKG 022000Z 26008KT 10SM BKN010 OVC039 24/22 A3017 400 87 1600 270/08 RMK AO2 CIG 007V013
14840KMKG MKG20010802150512208/02/01 15:05:31  5-MIN KMKG 022005Z 27005KT 10SM BKN008 BKN012 OVC039 24/22 A3016 410 87 1600 270/05 RMK AO2 CIG 007V010
14840KMKG MKG20010802151011508/02/01 15:10:31  5-MIN KMKG 022010Z VRB05KT 10SM BKN010 OVC037 24/22 A3016 410 90 1600 VRB/05 RMK AO2 CIG 007V014
14840KMKG MKG20010802151512208/02/01 15:15:31  5-MIN KMKG 022015Z 26005KT 10SM BKN010 BKN013 OVC037 24/22 A3016 410 87 1600 270/05 RMK AO2 CIG 007V011
14840KMKG MKG20010802152011508/02/01 15:20:31  5-MIN KMKG 022020Z 27005KT 10SM BKN010 BKN037 24/22 A3016 410 87 1600 280/05 RMK AO2 CIG 007V013
14840KMKG MKG20010802152511508/02/01 15:25:31  5-MIN KMKG 022025Z 28005KT 10SM BKN010 BKN037 24/22 A3016 410 87 1600 280/05 RMK AO2 CIG 007V013
14840KMKG MKG20010802153010308/02/01 15:30:31  5-MIN KMKG 022030Z 26005KT 10SM BKN010 OVC037 24/22 A3016 410 87 1600 260/05 RMK AO2
14840KMKG MKG20010802153510308/02/01 15:35:31  5-MIN KMKG 022035Z 27007KT 10SM BKN010 OVC037 24/22 A3016 410 90 1600 270/07 RMK AO2
14840KMKG MKG20010802154010308/02/01 15:40:31  5-MIN KMKG 022040Z 27006KT 10SM BKN010 BKN037 24/22 A3016 410 87 1600 280/06 RMK AO2
14840KMKG MKG20010802154510308/02/01 15:45:31  5-MIN KMKG 022045Z 27005KT 10SM BKN010 BKN037 24/22 A3016 410 87 1600 280/05 RMK AO2
14840KMKG MKG20010802155011908/02/01 15:50:31  5-MIN KMKG 022050Z 26006KT 10SM BKN010 24/22 A3016 410 87 1600 270/06 RMK AO2 SLP210 T02390217 57007
14840KMKG MKG20010802155511908/02/01 15:55:31  5-MIN KMKG 022055Z 23006KT 10SM BKN012 24/22 A3016 410 87 1600 240/06 RMK AO2 SLP210 T02440222 58006
14840KMKG MKG20010802160009608/02/01 16:00:31  5-MIN KMKG 022100Z 24007KT 10SM BKN012 24/22 A3016 410 87 1600 240/07 RMK AO2
14840KMKG MKG20010802160509608/02/01 16:05:31  5-MIN KMKG 022105Z 25006KT 10SM BKN012 24/22 A3016 410 87 1600 250/06 RMK AO2
14840KMKG MKG20010802161009608/02/01 16:10:31  5-MIN KMKG 022110Z VRB04KT 10SM BKN012 24/22 A3016 410 87 1600 VRB/04 RMK AO2
14840KMKG MKG20010802161510808/02/01 16:15:31  5-MIN KMKG 022115Z 26005KT 10SM BKN010 24/22 A3016 410 87 1600 260/05 RMK AO2 CIG 008V014
14840KMKG MKG20010802162009608/02/01 16:20:31  5-MIN KMKG 022120Z 25006KT 10SM SCT010 24/22 A3016 410 84 1600 250/06 RMK AO2
14840KMKG MKG20010802162509608/02/01 16:25:31  5-MIN KMKG 022125Z 27004KT 10SM BKN012 25/22 A3016 410 84 1700 270/04 RMK AO2
14840KMKG MKG20010802163009608/02/01 16:30:31  5-MIN KMKG 022130Z VRB04KT 10SM BKN012 24/22 A3016 410 84 1600 VRB/04 RMK AO2
14840KMKG MKG20010802163509608/02/01 16:35:31  5-MIN KMKG 022135Z 23004KT 10SM SCT012 24/22 A3015 420 84 1600 230/04 RMK AO2
14840KMKG MKG20010802164009608/02/01 16:40:31  5-MIN KMKG 022140Z VRB05KT 10SM FEW012 25/22 A3015 420 84 1700 VRB/05 RMK AO2
14840KMKG MKG20010802164509608/02/01 16:45:31  5-MIN KMKG 022145Z 23006KT 10SM SCT012 25/22 A3015 420 84 1700 230/06 RMK AO2
14840KMKG MKG20010802165011308/02/01 16:50:31  5-MIN KMKG 022150Z 22005KT 10SM SCT012 24/22 A3015 420 84 1600 220/05 RMK AO2 SLP207 T02440217
14840KMKG MKG20010802165511308/02/01 16:55:31  5-MIN KMKG 022155Z 24006KT 10SM SCT012 25/22 A3015 420 84 1700 240/06 RMK AO2 SLP207 T02500222
14840KMKG MKG20010802170009608/02/01 17:00:31  5-MIN KMKG 022200Z 22005KT 10SM SCT012 25/22 A3015 420 84 1700 220/05 RMK AO2
14840KMKG MKG20010802170509608/02/01 17:05:31  5-MIN KMKG 022205Z 24005KT 10SM SCT012 25/22 A3015 420 84 1700 240/05 RMK AO2
14840KMKG MKG20010802171009608/02/01 17:10:31  5-MIN KMKG 022210Z 22004KT 10SM SCT012 24/22 A3015 420 84 1700 220/04 RMK AO2
14840KMKG MKG20010802171509608/02/01 17:15:31  5-MIN KMKG 022215Z 23004KT 10SM SCT012 25/22 A3015 420 81 1700 240/04 RMK AO2
14840KMKG MKG20010802172010308/02/01 17:20:31  5-MIN KMKG 022220Z VRB04KT 10SM FEW012 SCT080 25/22 A3014 420 81 1700 VRB/04 RMK AO2
14840KMKG MKG20010802172510308/02/01 17:25:31  5-MIN KMKG 022225Z VRB04KT 10SM FEW012 BKN080 25/22 A3015 420 81 1700 VRB/04 RMK AO2
14840KMKG MKG20010802173010308/02/01 17:30:31  5-MIN KMKG 022230Z 24004KT 10SM FEW012 BKN080 25/22 A3014 430 81 1700 240/04 RMK AO2
14840KMKG MKG20010802173510308/02/01 17:35:31  5-MIN KMKG 022235Z 22003KT 10SM FEW012 BKN080 24/22 A3014 430 84 1700 230/03 RMK AO2
14840KMKG MKG20010802174009608/02/01 17:40:31  5-MIN KMKG 022240Z 22004KT 10SM BKN080 24/22 A3014 430 84 1700 220/04 RMK AO2
14840KMKG MKG20010802174509608/02/01 17:45:31  5-MIN KMKG 022245Z 25005KT 10SM BKN080 24/22 A3014 430 84 1700 260/05 RMK AO2
14840KMKG MKG20010802175011308/02/01 17:50:31  5-MIN KMKG 022250Z 23005KT 10SM OVC080 24/22 A3014 430 84 1700 230/05 RMK AO2 SLP202 T02440217
14840KMKG MKG20010802175511308/02/01 17:55:31  5-MIN KMKG 022255Z 23005KT 10SM OVC080 24/22 A3014 430 87 1700 240/05 RMK AO2 SLP201 T02440222
14840KMKG MKG20010802180009608/02/01 18:00:31  5-MIN KMKG 022300Z 23006KT 10SM OVC080 24/22 A3013 430 87 1700 230/06 RMK AO2
14840KMKG MKG20010802180509608/02/01 18:05:31  5-MIN KMKG 022305Z 21004KT 10SM OVC080 24/22 A3013 440 87 1700 220/04 RMK AO2
14840KMKG MKG20010802181009608/02/01 18:10:31  5-MIN KMKG 022310Z 22004KT 10SM OVC080 24/22 A3013 440 87 1700 220/04 RMK AO2
14840KMKG MKG20010802181509608/02/01 18:15:31  5-MIN KMKG 022315Z 23004KT 10SM OVC085 24/22 A3013 440 87 1700 230/04 RMK AO2
14840KMKG MKG20010802182009608/02/01 18:20:31  5-MIN KMKG 022320Z 23005KT 10SM OVC085 24/22 A3013 440 87 1700 240/05 RMK AO2
14840KMKG MKG20010802182509608/02/01 18:25:31  5-MIN KMKG 022325Z 22005KT 10SM OVC090 24/22 A3012 440 87 1700 230/05 RMK AO2
14840KMKG MKG20010802183009608/02/01 18:30:31  5-MIN KMKG 022330Z 23006KT 10SM OVC090 24/22 A3012 450 87 1700 230/06 RMK AO2
14840KMKG MKG20010802183510308/02/01 18:35:31  5-MIN KMKG 022335Z 22005KT 10SM FEW065 OVC090 24/22 A3012 450 87 1700 230/05 RMK AO2
14840KMKG MKG20010802184010308/02/01 18:40:31  5-MIN KMKG 022340Z 22004KT 10SM SCT065 OVC090 24/22 A3012 450 87 1700 230/04 RMK AO2
14840KMKG MKG20010802184510308/02/01 18:45:31  5-MIN KMKG 022345Z 24004KT 10SM FEW070 OVC090 24/22 A3012 450 87 1700 240/04 RMK AO2
14840KMKG MKG20010802185013808/02/01 18:50:31  5-MIN KMKG 022350Z 24005KT 10SM FEW060 BKN090 24/22 A3012 450 87 1700 250/05 RMK AO2 SLP196 T02440222 10250 20233 58006
14840KMKG MKG20010802185513808/02/01 18:55:31  5-MIN KMKG 022355Z 24005KT 10SM FEW060 BKN090 24/22 A3012 450 84 1700 240/05 RMK AO2 SLP195 T02440217 10250 20233 58015
14840KMKG MKG20010802190011808/02/01 19:00:31  5-MIN KMKG 030000Z 22005KT 10SM SCT060 BKN090 24/22 A3011 450 84 1700 220/05 RMK AO2 CIG 060 RWY 14
14840KMKG MKG20010802190511008/02/01 19:05:31  5-MIN KMKG 030005Z 22006KT 10SM BKN055 BKN070 BKN090 24/22 A3011 460 90 1600 220/06 RMK AO2
14840KMKG MKG20010802191010308/02/01 19:10:31  5-MIN KMKG 030010Z 22006KT 10SM BKN055 BKN090 24/22 A3011 460 90 1600 220/06 RMK AO2
14840KMKG MKG20010802191509608/02/01 19:15:31  5-MIN KMKG 030015Z 24006KT 10SM BKN060 24/22 A3011 460 90 1600 240/06 RMK AO2
14840KMKG MKG20010802192009608/02/01 19:20:31  5-MIN KMKG 030020Z 21005KT 10SM OVC060 23/22 A3010 460 93 1600 210/05 RMK AO2
14840KMKG MKG20010802192509608/02/01 19:25:31  5-MIN KMKG 030025Z 22005KT 10SM BKN060 23/22 A3010 460 90 1600 220/05 RMK AO2
14840KMKG MKG20010802193009608/02/01 19:30:31  5-MIN KMKG 030030Z 21004KT 10SM BKN060 23/22 A3010 460 90 1600 220/04 RMK AO2
14840KMKG MKG20010802193509608/02/01 19:35:31  5-MIN KMKG 030035Z 21004KT 10SM SCT060 23/22 A3010 470 90 1600 220/04 RMK AO2
14840KMKG MKG20010802194009608/02/01 19:40:31  5-MIN KMKG 030040Z 23003KT 10SM SCT060 23/22 A3010 470 93 1500 240/03 RMK AO2
14840KMKG MKG20010802194509608/02/01 19:45:31  5-MIN KMKG 030045Z 22003KT 10SM FEW060 23/22 A3010 460 93 1500 230/03 RMK AO2
14840KMKG MKG20010802195011008/02/01 19:50:31  5-MIN KMKG 030050Z 00000KT 10SM CLR 23/22 A3010 470 93 1500 000/00 RMK AO2 SLP189 T02280217
14840KMKG MKG20010802195511008/02/01 19:55:31  5-MIN KMKG 030055Z 00000KT 10SM CLR 23/22 A3010 460 93 1500 000/00 RMK AO2 SLP190 T02280217
14840KMKG MKG20010802200009308/02/01 20:00:31  5-MIN KMKG 030100Z 00000KT 10SM CLR 23/22 A3010 470 93 1500 000/00 RMK AO2
14840KMKG MKG20010802200509208/02/01 20:05:31  5-MIN KMKG 030105Z 18003KT 9SM CLR 23/22 A3010 460 93 1500 190/03 RMK AO2
14840KMKG MKG20010802201009208/02/01 20:10:31  5-MIN KMKG 030110Z 00000KT 9SM CLR 23/22 A3010 460 93 1500 000/00 RMK AO2
14840KMKG MKG20010802201509308/02/01 20:15:31  5-MIN KMKG 030115Z 00000KT 10SM CLR 23/22 A3010 460 93 1500 000/00 RMK AO2
14840KMKG MKG20010802202009308/02/01 20:20:31  5-MIN KMKG 030120Z 34003KT 10SM CLR 23/22 A3011 460 93 1500 340/03 RMK AO2
14840KMKG MKG20010802202509208/02/01 20:25:31  5-MIN KMKG 030125Z 00000KT 9SM CLR 22/22 A3011 460 97 1400 000/00 RMK AO2
14840KMKG MKG20010802203009208/02/01 20:30:31  5-MIN KMKG 030130Z 00000KT 9SM CLR 22/22 A3011 450 97 1400 000/00 RMK AO2
14840KMKG MKG20010802203509508/02/01 20:35:31  5-MIN KMKG 030135Z 00000KT 9SM FEW075 22/22 A3011 450 97 1400 000/00 RMK AO2
14840KMKG MKG20010802204009508/02/01 20:40:31  5-MIN KMKG 030140Z 00000KT 9SM SCT080 22/22 A3011 450 97 1400 000/00 RMK AO2
14840KMKG MKG20010802204509508/02/01 20:45:31  5-MIN KMKG 030145Z 00000KT 8SM SCT080 22/22 A3011 450 97 1400 000/00 RMK AO2
14840KMKG MKG20010802205011208/02/01 20:50:31  5-MIN KMKG 030150Z 27003KT 9SM SCT075 22/22 A3012 450 97 1400 280/03 RMK AO2 SLP196 T02220217
14840KMKG MKG20010802205511208/02/01 20:55:31  5-MIN KMKG 030155Z 27003KT 8SM SCT080 22/22 A3012 450 97 1400 280/03 RMK AO2 SLP196 T02220217
14840KMKG MKG20010802210009508/02/01 21:00:31  5-MIN KMKG 030200Z 28004KT 8SM BKN080 22/22 A3012 450 97 1400 280/04 RMK AO2
14840KMKG MKG20010802210509508/02/01 21:05:31  5-MIN KMKG 030205Z 28005KT 8SM BKN080 22/22 A3012 440 97 1400 290/05 RMK AO2
14840KMKG MKG20010802211009508/02/01 21:10:31  5-MIN KMKG 030210Z 29005KT 8SM BKN080 22/22 A3013 440 97 1400 300/05 RMK AO2
14840KMKG MKG20010802211510208/02/01 21:15:31  5-MIN KMKG 030215Z 30005KT 8SM FEW047 BKN080 23/22 A3013 440 93 1500 310/05 RMK AO2
14840KMKG MKG20010802212011708/02/01 21:20:31  5-MIN KMKG 030220Z 30005KT 8SM SCT047 OVC080 23/22 A3013 430 93 1500 300/05 RMK AO2 CIG 047 RWY 14
14840KMKG MKG20010802212510208/02/01 21:25:31  5-MIN KMKG 030225Z 29004KT 8SM BKN047 OVC080 23/22 A3013 430 97 1500 300/04 RMK AO2
14840KMKG MKG20010802213010208/02/01 21:30:31  5-MIN KMKG 030230Z 29004KT 8SM BKN047 OVC075 23/22 A3014 430 97 1500 290/04 RMK AO2
14840KMKG MKG20010802213510208/02/01 21:35:31  5-MIN KMKG 030235Z 27005KT 8SM BKN047 OVC080 23/22 A3014 430 93 1500 280/05 RMK AO2
14840KMKG MKG20010802214009508/02/01 21:40:31  5-MIN KMKG 030240Z 28005KT 9SM OVC045 23/22 A3014 430 93 1500 290/05 RMK AO2
14840KMKG MKG20010802214509508/02/01 21:45:31  5-MIN KMKG 030245Z 27004KT 9SM OVC045 23/22 A3014 430 93 1500 280/04 RMK AO2
14840KMKG MKG20010802215011808/02/01 21:50:31  5-MIN KMKG 030250Z 30005KT 8SM OVC045 23/22 A3014 430 97 1500 310/05 RMK AO2 SLP203 T02280222 58015
14840KMKG MKG20010802215511808/02/01 21:55:31  5-MIN KMKG 030255Z 30005KT 8SM OVC045 23/22 A3014 430 93 1500 310/05 RMK AO2 SLP202 T02280217 53007
14840KMKG MKG20010802220009508/02/01 22:00:31  5-MIN KMKG 030300Z 32004KT 8SM OVC045 23/22 A3014 430 93 1500 320/04 RMK AO2
14840KMKG MKG20010802220509508/02/01 22:05:31  5-MIN KMKG 030305Z 30003KT 9SM OVC045 23/22 A3013 430 93 1500 310/03 RMK AO2
14840KMKG MKG20010802221009508/02/01 22:10:31  5-MIN KMKG 030310Z 31003KT 9SM OVC047 23/22 A3013 430 93 1500 310/03 RMK AO2
14840KMKG MKG20010802221510208/02/01 22:15:31  5-MIN KMKG 030315Z 00000KT 9SM BKN047 OVC055 23/22 A3013 440 93 1500 000/00 RMK AO2
14840KMKG MKG20010802222010908/02/01 22:20:31  5-MIN KMKG 030320Z 00000KT 9SM BKN047 BKN060 OVC085 23/22 A3013 440 93 1500 000/00 RMK AO2
14840KMKG MKG20010802222511008/02/01 22:25:31  5-MIN KMKG 030325Z 00000KT 10SM SCT049 BKN060 OVC085 23/22 A3012 440 93 1500 000/00 RMK AO2
14840KMKG MKG20010802223010208/02/01 22:30:31  5-MIN KMKG 030330Z 00000KT 9SM SCT049 OVC085 23/22 A3012 450 93 1500 000/00 RMK AO2
14840KMKG MKG20010802223510908/02/01 22:35:31  5-MIN KMKG 030335Z 00000KT 9SM FEW049 SCT060 OVC085 23/22 A3012 450 93 1500 000/00 RMK AO2
14840KMKG MKG20010802224010208/02/01 22:40:31  5-MIN KMKG 030340Z 00000KT 9SM FEW060 BKN085 23/22 A3012 450 93 1500 000/00 RMK AO2
14840KMKG MKG20010802224509508/02/01 22:45:31  5-MIN KMKG 030345Z 00000KT 9SM BKN085 22/22 A3012 450 97 1400 000/00 RMK AO2
14840KMKG MKG20010802225011208/02/01 22:50:31  5-MIN KMKG 030350Z 31003KT 9SM BKN090 22/22 A3012 450 97 1400 320/03 RMK AO2 SLP197 T02220217
14840KMKG MKG20010802225511208/02/01 22:55:31  5-MIN KMKG 030355Z 31004KT 9SM BKN090 22/22 A3012 440 97 1400 310/04 RMK AO2 SLP197 T02220217
14840KMKG MKG20010802230009508/02/01 23:00:31  5-MIN KMKG 030400Z 29003KT 9SM BKN090 22/22 A3012 440 97 1400 290/03 RMK AO2
14840KMKG MKG20010802230509508/02/01 23:05:31  5-MIN KMKG 030405Z 30004KT 8SM BKN090 22/22 A3012 440 97 1400 310/04 RMK AO2
14840KMKG MKG20010802231009508/02/01 23:10:31  5-MIN KMKG 030410Z 30004KT 8SM BKN085 22/22 A3012 440 97 1400 310/04 RMK AO2
14840KMKG MKG20010802231509508/02/01 23:15:31  5-MIN KMKG 030415Z 31003KT 8SM OVC085 22/22 A3012 440 97 1400 320/03 RMK AO2
14840KMKG MKG20010802232009508/02/01 23:20:31  5-MIN KMKG 030420Z 32003KT 7SM OVC090 22/22 A3012 440 97 1400 330/03 RMK AO2
14840KMKG MKG20010802232509508/02/01 23:25:31  5-MIN KMKG 030425Z 33004KT 7SM OVC090 22/22 A3012 440 97 1400 330/04 RMK AO2
14840KMKG MKG20010802233009508/02/01 23:30:31  5-MIN KMKG 030430Z 33005KT 7SM OVC090 22/22 A3012 440 97 1400 330/05 RMK AO2
14840KMKG MKG20010802233509508/02/01 23:35:31  5-MIN KMKG 030435Z 32004KT 7SM OVC090 22/22 A3012 440 97 1400 320/04 RMK AO2
14840KMKG MKG20010802234010208/02/01 23:40:31  5-MIN KMKG 030440Z 31004KT 7SM FEW005 OVC095 22/22 A3012 440 97 1400 310/04 RMK AO2
14840KMKG MKG20010802234510208/02/01 23:45:31  5-MIN KMKG 030445Z 31004KT 7SM FEW005 OVC095 22/22 A3012 440 97 1400 320/04 RMK AO2
14840KMKG MKG20010802235013208/02/01 23:50:31  5-MIN KMKG 030450Z 30006KT 6SM BR FEW005 BKN090 22/22 A3013 440 97 1400 310/06 RMK AO2 SLP199 T02220217 402610222
14840KMKG MKG20010802235513208/02/01 23:55:31  5-MIN KMKG 030455Z 30003KT 6SM BR SCT005 OVC090 22/22 A3013 440 97 1400 310/03 RMK AO2 SLP199 T02220217 402610222
14840KMKG MKG20010803000010508/03/01 00:00:31  5-MIN KMKG 030500Z 30004KT 6SM BR SCT005 OVC090 23/22 A3013 440 90 1500 300/04 RMK AO2
14840KMKG MKG20010803000512008/03/01 00:05:31  5-MIN KMKG 030505Z 31004KT 6SM BR SCT005 BKN090 22/22 A3013 440 97 1400 310/04 RMK AO2 CIG 006 RWY 14
14840KMKG MKG20010803001012008/03/01 00:10:31  5-MIN KMKG 030510Z 32004KT 6SM BR SCT005 BKN085 22/22 A3013 440 97 1400 320/04 RMK AO2 CIG 006 RWY 14
14840KMKG MKG20010803001510508/03/01 00:15:31  5-MIN KMKG 030515Z 33005KT 6SM BR BKN005 BKN085 22/22 A3013 430 97 1400 330/05 RMK AO2
14840KMKG MKG20010803002010508/03/01 00:20:31  5-MIN KMKG 030520Z 35006KT 6SM BR BKN005 BKN090 22/22 A3013 430 97 1400 350/06 RMK AO2
14840KMKG MKG20010803002510508/03/01 00:25:31  5-MIN KMKG 030525Z 35006KT 6SM BR BKN005 BKN090 22/22 A3013 430 97 1400 350/06 RMK AO2
14840KMKG MKG20010803003009808/03/01 00:30:31  5-MIN KMKG 030530Z 35008KT 6SM BR OVC005 22/22 A3013 430 97 1400 350/08 RMK AO2
14840KMKG MKG20010803003509808/03/01 00:35:31  5-MIN KMKG 030535Z 33007KT 6SM BR OVC005 22/22 A3013 430 97 1400 330/07 RMK AO2
14840KMKG MKG20010803004009808/03/01 00:40:31  5-MIN KMKG 030540Z 32007KT 6SM BR OVC005 22/22 A3013 440 97 1400 330/07 RMK AO2
14840KMKG MKG20010803004509808/03/01 00:45:31  5-MIN KMKG 030545Z 33005KT 6SM BR OVC005 22/22 A3013 440 97 1400 330/05 RMK AO2
14840KMKG MKG20010803005013308/03/01 00:50:31  5-MIN KMKG 030550Z 33004KT 6SM BR OVC005 22/22 A3013 440 97 1400 330/04 RMK AO2 SLP199 T02220217 10244 20222 53007
14840KMKG MKG20010803005513308/03/01 00:55:31  5-MIN KMKG 030555Z 33005KT 5SM BR OVC005 22/21 A3013 440 97 1400 340/05 RMK AO2 SLP198 T02170211 10244 20217 56003
14840KMKG MKG20010803010009908/03/01 01:00:31  5-MIN KMKG 030600Z 33005KT 5SM BR OVC005 22/22 A3012 440 100 1400 340/05 RMK AO2
14840KMKG MKG20010803010509808/03/01 01:05:31  5-MIN KMKG 030605Z 34005KT 5SM BR OVC003 22/21 A3012 450 97 1400 350/05 RMK AO2
14840KMKG MKG20010803011009808/03/01 01:10:31  5-MIN KMKG 030610Z 35004KT 5SM BR OVC003 22/21 A3012 450 97 1400 350/04 RMK AO2
14840KMKG MKG20010803011509808/03/01 01:15:31  5-MIN KMKG 030615Z 34005KT 5SM BR OVC003 22/21 A3011 450 97 1400 350/05 RMK AO2
14840KMKG MKG20010803012009808/03/01 01:20:31  5-MIN KMKG 030620Z 36004KT 4SM BR OVC003 22/21 A3011 450 97 1400 010/04 RMK AO2
14840KMKG MKG20010803012509808/03/01 01:25:31  5-MIN KMKG 030625Z 01004KT 4SM BR OVC003 22/21 A3011 460 97 1400 020/04 RMK AO2
14840KMKG MKG20010803013009808/03/01 01:30:31  5-MIN KMKG 030630Z 01003KT 4SM BR OVC003 22/21 A3011 460 97 1400 010/03 RMK AO2
14840KMKG MKG20010803013509808/03/01 01:35:31  5-MIN KMKG 030635Z 36003KT 3SM BR OVC003 22/21 A3010 460 97 1400 010/03 RMK AO2
14840KMKG MKG20010803014010308/03/01 01:40:31  5-MIN KMKG 030640Z 02003KT 2 1/2SM BR OVC003 22/22 A3010 460 100 1400 020/03 RMK AO2
14840KMKG MKG20010803014510208/03/01 01:45:31  5-MIN KMKG 030645Z 02004KT 2 1/2SM BR OVC003 22/21 A3010 460 97 1400 020/04 RMK AO2
14840KMKG MKG20010803015011508/03/01 01:50:31  5-MIN KMKG 030650Z 01006KT 3SM BR OVC003 22/21 A3010 460 97 1400 020/06 RMK AO2 SLP191 T02170211
14840KMKG MKG20010803015511508/03/01 01:55:31  5-MIN KMKG 030655Z 02006KT 3SM BR OVC003 22/21 A3010 460 97 1400 020/06 RMK AO2 SLP191 T02170211
14840KMKG MKG20010803020010208/03/01 02:00:31  5-MIN KMKG 030700Z 36005KT 2 1/2SM BR OVC003 22/21 A3010 460 97 1400 010/05 RMK AO2
14840KMKG MKG20010803020511908/03/01 02:05:31  5-MIN KMKG 030705Z 01004KT 2 1/2SM BR OVC003 22/21 A3010 460 97 1400 010/04 RMK AO2 VIS 1 3/4 RWY 14
14840KMKG MKG20010803021009808/03/01 02:10:31  5-MIN KMKG 030710Z 36004KT 2SM BR OVC003 22/21 A3010 460 97 1400 360/04 RMK AO2
14840KMKG MKG20010803021509808/03/01 02:15:31  5-MIN KMKG 030715Z 36004KT 2SM BR OVC003 22/21 A3010 460 97 1400 010/04 RMK AO2
14840KMKG MKG20010803022009808/03/01 02:20:31  5-MIN KMKG 030720Z 36003KT 2SM BR OVC003 22/21 A3010 460 97 1400 360/03 RMK AO2
14840KMKG MKG20010803022511908/03/01 02:25:31  5-MIN KMKG 030725Z 36004KT 2 1/2SM BR OVC003 22/21 A3010 460 97 1400 010/04 RMK AO2 VIS 1 3/4 RWY 14
14840KMKG MKG20010803023011908/03/01 02:30:31  5-MIN KMKG 030730Z 36006KT 2 1/2SM BR OVC003 22/21 A3010 460 97 1400 360/06 RMK AO2 VIS 1 3/4 RWY 14
14840KMKG MKG20010803023509808/03/01 02:35:31  5-MIN KMKG 030735Z 02004KT 2SM BR OVC003 22/21 A3010 470 97 1400 020/04 RMK AO2
14840KMKG MKG20010803024009808/03/01 02:40:31  5-MIN KMKG 030740Z 01005KT 2SM BR OVC003 22/21 A3010 460 97 1400 020/05 RMK AO2
14840KMKG MKG20010803024509808/03/01 02:45:31  5-MIN KMKG 030745Z 01004KT 2SM BR OVC003 22/21 A3010 460 97 1400 010/04 RMK AO2
14840KMKG MKG20010803025013608/03/01 02:50:31  5-MIN KMKG 030750Z 02004KT 2 1/2SM BR OVC003 22/21 A3010 470 97 1400 030/04 RMK AO2 VIS 1 1/2 RWY 14 SLP189 T02170211
14840KMKG MKG20010803025513608/03/01 02:55:31  5-MIN KMKG 030755Z 04004KT 2 1/2SM BR OVC003 22/21 A3010 470 97 1400 040/04 RMK AO2 VIS 1 1/2 RWY 14 SLP189 T02170211
14840KMKG MKG20010803030011908/03/01 03:00:31  5-MIN KMKG 030800Z 02005KT 2 1/2SM BR OVC003 22/21 A3010 470 97 1400 030/05 RMK AO2 VIS 1 3/4 RWY 14
14840KMKG MKG20010803030511908/03/01 03:05:31  5-MIN KMKG 030805Z 03005KT 2 1/2SM BR OVC003 22/21 A3010 470 97 1400 040/05 RMK AO2 VIS 1 3/4 RWY 14
14840KMKG MKG20010803031011908/03/01 03:10:31  5-MIN KMKG 030810Z 04004KT 2 1/2SM BR OVC003 22/21 A3010 470 97 1400 040/04 RMK AO2 VIS 1 3/4 RWY 14
14840KMKG MKG20010803031511508/03/01 03:15:31  5-MIN KMKG 030815Z 02004KT 3SM BR OVC003 22/21 A3010 470 97 1400 020/04 RMK AO2 VIS 1 3/4 RWY 14
14840KMKG MKG20010803032011908/03/01 03:20:31  5-MIN KMKG 030820Z 01006KT 2 1/2SM BR OVC003 22/21 A3010 460 97 1400 010/06 RMK AO2 VIS 1 3/4 RWY 14
14840KMKG MKG20010803032511908/03/01 03:25:31  5-MIN KMKG 030825Z 02006KT 2 1/2SM BR OVC003 22/21 A3010 460 97 1400 030/06 RMK AO2 VIS 1 3/4 RWY 14
14840KMKG MKG20010803033009908/03/01 03:30:31  5-MIN KMKG 030830Z 03006KT 2SM BR OVC003 21/21 A3010 460 100 1300 030/06 RMK AO2
14840KMKG MKG20010803033509808/03/01 03:35:31  5-MIN KMKG 030835Z 04006KT 2SM BR OVC003 22/21 A3010 470 97 1400 050/06 RMK AO2
14840KMKG MKG20010803034011908/03/01 03:40:31  5-MIN KMKG 030840Z 03005KT 2 1/2SM BR OVC003 22/21 A3010 470 97 1400 030/05 RMK AO2 VIS 1 3/4 RWY 14
14840KMKG MKG20010803034510208/03/01 03:45:31  5-MIN KMKG 030845Z 03004KT 2 1/2SM BR OVC003 22/21 A3010 470 97 1400 030/04 RMK AO2
14840KMKG MKG20010803035012108/03/01 03:50:31  5-MIN KMKG 030850Z 04008KT 3SM BR OVC003 22/21 A3010 470 97 1400 040/08 RMK AO2 SLP189 T02170211 56003
14840KMKG MKG20010803035512108/03/01 03:55:31  5-MIN KMKG 030855Z 03008KT 4SM BR OVC003 22/21 A3010 470 97 1400 040/08 RMK AO2 SLP189 T02170211 56009
14840KMKG MKG20010803040009908/03/01 04:00:31  5-MIN KMKG 030900Z 04008KT 4SM BR OVC003 21/21 A3010 470 100 1300 040/08 RMK AO2
14840KMKG MKG20010803040509808/03/01 04:05:31  5-MIN KMKG 030905Z 03007KT 4SM BR OVC003 21/21 A3010 470 97 1300 030/07 RMK AO2
14840KMKG MKG20010803041009808/03/01 04:10:31  5-MIN KMKG 030910Z 04006KT 4SM BR OVC003 21/21 A3010 470 97 1300 040/06 RMK AO2
14840KMKG MKG20010803041509808/03/01 04:15:31  5-MIN KMKG 030915Z 04005KT 3SM BR OVC003 21/21 A3009 470 97 1300 040/05 RMK AO2
14840KMKG MKG20010803042009808/03/01 04:20:31  5-MIN KMKG 030920Z 05005KT 3SM BR OVC003 21/21 A3010 470 97 1300 050/05 RMK AO2
14840KMKG MKG20010803042510208/03/01 04:25:31  5-MIN KMKG 030925Z 05005KT 2 1/2SM BR BKN003 21/21 A3009 470 97 1300 050/05 RMK AO2
14840KMKG MKG20010803043010208/03/01 04:30:31  5-MIN KMKG 030930Z 04005KT 2 1/2SM BR BKN003 21/21 A3009 470 97 1300 050/05 RMK AO2
14840KMKG MKG20010803043509808/03/01 04:35:31  5-MIN KMKG 030935Z 04006KT 3SM BR BKN003 21/21 A3010 470 97 1300 040/06 RMK AO2
14840KMKG MKG20010803044009808/03/01 04:40:31  5-MIN KMKG 030940Z 04004KT 4SM BR BKN003 21/21 A3010 470 97 1300 050/04 RMK AO2
14840KMKG MKG20010803044509808/03/01 04:45:31  5-MIN KMKG 030945Z 03004KT 4SM BR OVC003 21/21 A3010 470 97 1300 040/04 RMK AO2
14840KMKG MKG20010803045011508/03/01 04:50:31  5-MIN KMKG 030950Z 07003KT 4SM BR BKN003 21/21 A3009 470 97 1300 070/03 RMK AO2 SLP187 T02110206
14840KMKG MKG20010803045511508/03/01 04:55:31  5-MIN KMKG 030955Z 00000KT 4SM BR BKN003 21/21 A3010 470 97 1300 000/00 RMK AO2 SLP188 T02110206
14840KMKG MKG20010803050009808/03/01 05:00:31  5-MIN KMKG 031000Z 00000KT 3SM BR BKN003 21/20 A3010 470 97 1300 000/00 RMK AO2
14840KMKG MKG20010803050509908/03/01 05:05:31  5-MIN KMKG 031005Z 00000KT 3SM BR BKN003 21/21 A3010 470 100 1300 000/00 RMK AO2
14840KMKG MKG20010803051009808/03/01 05:10:31  5-MIN KMKG 031010Z 00000KT 3SM BR BKN003 21/20 A3010 470 97 1300 000/00 RMK AO2
14840KMKG MKG20010803051509808/03/01 05:15:31  5-MIN KMKG 031015Z VRB03KT 4SM BR SCT003 21/20 A3010 470 97 1300 VRB/03 RMK AO2
14840KMKG MKG20010803052009808/03/01 05:20:31  5-MIN KMKG 031020Z 34005KT 4SM BR SCT005 20/19 A3010 460 97 1200 350/05 RMK AO2
14840KMKG MKG20010803052509908/03/01 05:25:31  5-MIN KMKG 031025Z 34005KT 4SM BR SCT005 20/20 A3010 460 100 1200 350/05 RMK AO2
14840KMKG MKG20010803053009808/03/01 05:30:31  5-MIN KMKG 031030Z 35005KT 5SM BR FEW005 21/20 A3010 460 97 1300 360/05 RMK AO2
14840KMKG MKG20010803053509808/03/01 05:35:31  5-MIN KMKG 031035Z 01005KT 4SM BR SCT005 21/20 A3010 460 97 1300 010/05 RMK AO2
14840KMKG MKG20010803054011508/03/01 05:40:31  5-MIN KMKG 031040Z 02005KT 3SM BR SCT005 21/20 A3010 470 97 1300 030/05 RMK AO2 VIS 2 1/2 RWY 14
14840KMKG MKG20010803054511508/03/01 05:45:31  5-MIN KMKG 031045Z 03005KT 3SM BR SCT005 21/20 A3010 470 97 1300 030/05 RMK AO2 VIS 2 1/2 RWY 14
14840KMKG MKG20010803055011508/03/01 05:50:31  5-MIN KMKG 031050Z 01005KT 3SM BR SCT005 21/20 A3010 470 97 1300 020/05 RMK AO2 SLP188 T02060200
14840KMKG MKG20010803055511508/03/01 05:55:31  5-MIN KMKG 031055Z 01006KT 3SM BR SCT005 21/20 A3010 470 97 1300 020/06 RMK AO2 SLP188 T02060200
14840KMKG MKG20010803060009808/03/01 06:00:31  5-MIN KMKG 031100Z 01006KT 3SM BR SCT005 21/20 A3010 470 97 1300 010/06 RMK AO2
14840KMKG MKG20010803060509808/03/01 06:05:31  5-MIN KMKG 031105Z 01005KT 3SM BR SCT005 21/20 A3010 470 97 1300 010/05 RMK AO2
14840KMKG MKG20010803061011508/03/01 06:10:31  5-MIN KMKG 031110Z 01005KT 3SM BR SCT005 21/20 A3010 470 97 1300 020/05 RMK AO2 VIS 2 1/2 RWY 14
14840KMKG MKG20010803061509808/03/01 06:15:31  5-MIN KMKG 031115Z 01003KT 3SM BR SCT005 21/20 A3009 470 97 1300 020/03 RMK AO2
14840KMKG MKG20010803062009808/03/01 06:20:31  5-MIN KMKG 031120Z 01003KT 3SM BR FEW005 21/20 A3009 470 97 1300 010/03 RMK AO2
14840KMKG MKG20010803062511508/03/01 06:25:31  5-MIN KMKG 031125Z 36003KT 3SM BR FEW005 21/20 A3009 470 97 1300 010/03 RMK AO2 VIS 2 1/2 RWY 14
14840KMKG MKG20010803063011508/03/01 06:30:31  5-MIN KMKG 031130Z 36003KT 3SM BR FEW005 21/20 A3009 470 93 1300 010/03 RMK AO2 VIS 2 1/2 RWY 14
14840KMKG MKG20010803063511508/03/01 06:35:31  5-MIN KMKG 031135Z 36003KT 4SM BR FEW005 21/20 A3009 470 93 1300 360/03 RMK AO2 VIS 2 1/2 RWY 14
14840KMKG MKG20010803064009508/03/01 06:40:31  5-MIN KMKG 031140Z 36004KT 4SM BR CLR 21/20 A3009 470 93 1300 010/04 RMK AO2
14840KMKG MKG20010803064509508/03/01 06:45:31  5-MIN KMKG 031145Z 02004KT 4SM BR CLR 21/20 A3009 470 93 1300 020/04 RMK AO2
14840KMKG MKG20010803065013608/03/01 06:50:31  5-MIN KMKG 031150Z 03004KT 4SM BR CLR 21/20 A3009 470 93 1300 030/04 RMK AO2 SLP187 70003 T02110200 10217 20200 56009
14840KMKG MKG20010803065513608/03/01 06:55:31  5-MIN KMKG 031155Z 03005KT 5SM BR CLR 22/20 A3009 470 90 1400 040/05 RMK AO2 SLP187 70003 T02170200 10217 20200 58002
14840KMKG MKG20010803070009508/03/01 07:00:31  5-MIN KMKG 031200Z 03005KT 6SM BR CLR 22/19 A3009 470 87 1400 040/05 RMK AO2
14840KMKG MKG20010803070509208/03/01 07:05:31  5-MIN KMKG 031205Z 05005KT 7SM CLR 22/19 A3010 470 87 1400 050/05 RMK AO2
14840KMKG MKG20010803071009208/03/01 07:10:31  5-MIN KMKG 031210Z 04004KT 8SM CLR 22/19 A3009 470 87 1400 050/04 RMK AO2
14840KMKG MKG20010803071509208/03/01 07:15:31  5-MIN KMKG 031215Z 06007KT 8SM CLR 22/19 A3009 470 87 1400 060/07 RMK AO2
14840KMKG MKG20010803072009308/03/01 07:20:31  5-MIN KMKG 031220Z 05007KT 10SM CLR 22/19 A3009 470 84 1400 060/07 RMK AO2
14840KMKG MKG20010803072509308/03/01 07:25:31  5-MIN KMKG 031225Z 03007KT 10SM CLR 22/19 A3009 470 84 1400 030/07 RMK AO2
14840KMKG MKG20010803073009308/03/01 07:30:31  5-MIN KMKG 031230Z 04005KT 10SM CLR 22/19 A3009 470 84 1400 040/05 RMK AO2
14840KMKG MKG20010803073509308/03/01 07:35:31  5-MIN KMKG 031235Z 03005KT 10SM CLR 22/19 A3009 470 81 1500 040/05 RMK AO2
14840KMKG MKG20010803074009308/03/01 07:40:31  5-MIN KMKG 031240Z 04005KT 10SM CLR 22/19 A3009 470 81 1500 040/05 RMK AO2
14840KMKG MKG20010803074509308/03/01 07:45:31  5-MIN KMKG 031245Z 06004KT 10SM CLR 22/19 A3009 470 81 1500 060/04 RMK AO2
14840KMKG MKG20010803075011008/03/01 07:50:31  5-MIN KMKG 031250Z 04004KT 10SM CLR 23/19 A3009 470 78 1500 050/04 RMK AO2 SLP187 T02280189
14840KMKG MKG20010803075511008/03/01 07:55:31  5-MIN KMKG 031255Z 04004KT 10SM CLR 23/19 A3009 470 78 1500 050/04 RMK AO2 SLP187 T02280189
14840KMKG MKG20010803080009308/03/01 08:00:31  5-MIN KMKG 031300Z 07005KT 10SM CLR 23/19 A3009 470 78 1500 080/05 RMK AO2
14840KMKG MKG20010803080509308/03/01 08:05:31  5-MIN KMKG 031305Z 04004KT 10SM CLR 23/19 A3009 470 76 1600 040/04 RMK AO2
14840KMKG MKG20010803081009308/03/01 08:10:31  5-MIN KMKG 031310Z 03004KT 10SM CLR 23/18 A3009 470 73 1600 040/04 RMK AO2
14840KMKG MKG20010803081509308/03/01 08:15:31  5-MIN KMKG 031315Z 05006KT 10SM CLR 23/18 A3009 470 73 1600 060/06 RMK AO2
14840KMKG MKG20010803082009308/03/01 08:20:31  5-MIN KMKG 031320Z 05005KT 10SM CLR 24/18 A3009 470 71 1600 050/05 RMK AO2
14840KMKG MKG20010803082509308/03/01 08:25:31  5-MIN KMKG 031325Z VRB06KT 10SM CLR 24/18 A3010 470 68 1600 VRB/06 RMK AO2
14840KMKG MKG20010803083009308/03/01 08:30:31  5-MIN KMKG 031330Z 06007KT 10SM CLR 24/18 A3010 470 68 1600 060/07 RMK AO2
14840KMKG MKG20010803083509308/03/01 08:35:31  5-MIN KMKG 031335Z 05006KT 10SM CLR 24/18 A3010 470 66 1700 060/06 RMK AO2
14840KMKG MKG20010803084009308/03/01 08:40:31  5-MIN KMKG 031340Z 06008KT 10SM CLR 24/18 A3010 470 66 1700 060/08 RMK AO2
14840KMKG MKG20010803084509308/03/01 08:45:31  5-MIN KMKG 031345Z 06007KT 10SM CLR 24/18 A3010 470 66 1700 060/07 RMK AO2
14840KMKG MKG20010803085011008/03/01 08:50:31  5-MIN KMKG 031350Z 06006KT 10SM CLR 24/18 A3010 460 68 1700 060/06 RMK AO2 SLP190 T02440183
14840KMKG MKG20010803085511008/03/01 08:55:31  5-MIN KMKG 031355Z 06007KT 10SM CLR 25/18 A3010 460 66 1800 070/07 RMK AO2 SLP190 T02500183
14840KMKG MKG20010803090009308/03/01 09:00:31  5-MIN KMKG 031400Z 05007KT 10SM CLR 25/18 A3010 470 66 1800 060/07 RMK AO2
14840KMKG MKG20010803090509308/03/01 09:05:31  5-MIN KMKG 031405Z 05006KT 10SM CLR 25/18 A3010 460 66 1800 060/06 RMK AO2
14840KMKG MKG20010803091009308/03/01 09:10:31  5-MIN KMKG 031410Z 03006KT 10SM CLR 25/18 A3010 460 66 1800 030/06 RMK AO2
14840KMKG MKG20010803091509308/03/01 09:15:31  5-MIN KMKG 031415Z 05006KT 10SM CLR 26/18 A3010 460 61 1800 050/06 RMK AO2
14840KMKG MKG20010803092009308/03/01 09:20:31  5-MIN KMKG 031420Z 05008KT 10SM CLR 26/18 A3010 470 59 1900 050/08 RMK AO2
14840KMKG MKG20010803092509308/03/01 09:25:31  5-MIN KMKG 031425Z 05007KT 10SM CLR 26/17 A3010 470 57 1900 050/07 RMK AO2
14840KMKG MKG20010803093009308/03/01 09:30:31  5-MIN KMKG 031430Z 05008KT 10SM CLR 27/17 A3010 470 55 2000 060/08 RMK AO2
14840KMKG MKG20010803093509308/03/01 09:35:31  5-MIN KMKG 031435Z 05007KT 10SM CLR 27/17 A3010 470 55 2000 060/07 RMK AO2
14840KMKG MKG20010803094009308/03/01 09:40:31  5-MIN KMKG 031440Z 04007KT 10SM CLR 27/17 A3009 470 55 2000 040/07 RMK AO2
14840KMKG MKG20010803094509308/03/01 09:45:31  5-MIN KMKG 031445Z 05008KT 10SM CLR 27/17 A3009 470 55 2000 060/08 RMK AO2
14840KMKG MKG20010803095011608/03/01 09:50:31  5-MIN KMKG 031450Z 03006KT 10SM CLR 27/17 A3010 470 53 2000 030/06 RMK AO2 SLP187 T02670167 58002
14840KMKG MKG20010803095511908/03/01 09:55:31  5-MIN KMKG 031455Z 05006KT 10SM FEW050 27/17 A3009 470 54 2000 050/06 RMK AO2 SLP187 T02720172 50001
14840KMKG MKG20010803100009608/03/01 10:00:31  5-MIN KMKG 031500Z 04008KT 10SM SCT050 27/17 A3010 470 55 2000 050/08 RMK AO2
14840KMKG MKG20010803100509608/03/01 10:05:31  5-MIN KMKG 031505Z 06006KT 10SM BKN050 27/17 A3009 470 55 2000 060/06 RMK AO2
14840KMKG MKG20010803101009608/03/01 10:10:31  5-MIN KMKG 031510Z 07006KT 10SM BKN055 27/17 A3009 470 55 2000 070/06 RMK AO2
14840KMKG MKG20010803101509608/03/01 10:15:31  5-MIN KMKG 031515Z 06006KT 10SM BKN050 27/17 A3009 470 55 2000 060/06 RMK AO2
14840KMKG MKG20010803102009608/03/01 10:20:31  5-MIN KMKG 031520Z VRB04KT 10SM OVC050 27/17 A3009 470 55 2000 VRB/04 RMK AO2
14840KMKG MKG20010803102509608/03/01 10:25:31  5-MIN KMKG 031525Z 04005KT 10SM BKN050 27/17 A3009 470 54 2000 040/05 RMK AO2
14840KMKG MKG20010803103009608/03/01 10:30:31  5-MIN KMKG 031530Z 36007KT 10SM BKN055 28/17 A3009 470 52 2100 360/07 RMK AO2
14840KMKG MKG20010803103509608/03/01 10:35:31  5-MIN KMKG 031535Z 04008KT 10SM SCT055 28/17 A3009 480 52 2100 050/08 RMK AO2
14840KMKG MKG20010803104009608/03/01 10:40:31  5-MIN KMKG 031540Z 05007KT 10SM SCT055 28/17 A3009 470 52 2100 050/07 RMK AO2
14840KMKG MKG20010803104509608/03/01 10:45:31  5-MIN KMKG 031545Z 06006KT 10SM FEW055 28/17 A3009 480 52 2100 060/06 RMK AO2
14840KMKG MKG20010803105011308/03/01 10:50:31  5-MIN KMKG 031550Z 07005KT 10SM FEW060 27/17 A3009 480 54 2000 080/05 RMK AO2 SLP184 T02720172
14840KMKG MKG20010803105511308/03/01 10:55:31  5-MIN KMKG 031555Z VRB06KT 10SM FEW060 28/17 A3009 480 52 2100 VRB/06 RMK AO2 SLP184 T02780172
14840KMKG MKG20010803110009308/03/01 11:00:31  5-MIN KMKG 031600Z 01009KT 10SM CLR 28/17 A3009 480 50 2200 010/09 RMK AO2
14840KMKG MKG20010803110509308/03/01 11:05:31  5-MIN KMKG 031605Z 02008KT 10SM CLR 28/17 A3008 480 50 2200 020/08 RMK AO2
14840KMKG MKG20010803111009308/03/01 11:10:31  5-MIN KMKG 031610Z 04006KT 10SM CLR 29/18 A3008 480 50 2200 040/06 RMK AO2
14840KMKG MKG20010803111509308/03/01 11:15:31  5-MIN KMKG 031615Z 05007KT 10SM CLR 28/17 A3008 480 50 2200 050/07 RMK AO2
14840KMKG MKG20010803112009308/03/01 11:20:31  5-MIN KMKG 031620Z 03008KT 10SM CLR 29/18 A3008 480 50 2200 030/08 RMK AO2
14840KMKG MKG20010803112509308/03/01 11:25:31  5-MIN KMKG 031625Z 36009KT 10SM CLR 29/17 A3008 480 48 2200 360/09 RMK AO2
14840KMKG MKG20010803113009308/03/01 11:30:31  5-MIN KMKG 031630Z 02009KT 10SM CLR 29/17 A3008 480 48 2200 030/09 RMK AO2
14840KMKG MKG20010803113509308/03/01 11:35:31  5-MIN KMKG 031635Z 05007KT 10SM CLR 28/17 A3008 480 50 2200 050/07 RMK AO2
14840KMKG MKG20010803114009608/03/01 11:40:31  5-MIN KMKG 031640Z VRB05KT 10SM FEW045 29/17 A3008 480 48 2200 VRB/05 RMK AO2
14840KMKG MKG20010803114510308/03/01 11:45:31  5-MIN KMKG 031645Z VRB05KT 10SM SCT045 SCT050 29/18 A3008 490 49 2300 VRB/05 RMK AO2
14840KMKG MKG20010803115012008/03/01 11:50:31  5-MIN KMKG 031650Z 36008KT 10SM SCT045 BKN050 28/17 A3007 490 50 2200 010/08 RMK AO2 SLP180 T02830172
14840KMKG MKG20010803115511308/03/01 11:55:31  5-MIN KMKG 031655Z 33006KT 10SM BKN049 29/17 A3007 490 48 2200 330/06 RMK AO2 SLP180 T02890172
14840KMKG MKG20010803120011208/03/01 12:00:31  5-MIN KMKG 031700Z 03008KT 340V070 10SM BKN049 29/17 A3007 490 48 2200 030/08 340V070 RMK AO2
14840KMKG MKG20010803120509608/03/01 12:05:31  5-MIN KMKG 031705Z 01008KT 10SM BKN049 29/17 A3007 490 48 2200 020/08 RMK AO2
14840KMKG MKG20010803121009608/03/01 12:10:31  5-MIN KMKG 031710Z 36008KT 10SM SCT049 29/18 A3007 490 49 2300 360/08 RMK AO2
14840KMKG MKG20010803121509608/03/01 12:15:31  5-MIN KMKG 031715Z VRB05KT 10SM SCT049 29/18 A3007 490 49 2300 VRB/05 RMK AO2
14840KMKG MKG20010803122009608/03/01 12:20:31  5-MIN KMKG 031720Z 01009KT 10SM BKN049 28/17 A3007 490 50 2200 020/09 RMK AO2
14840KMKG MKG20010803122509608/03/01 12:25:31  5-MIN KMKG 031725Z 27009KT 10SM BKN049 28/19 A3007 490 58 2100 270/09 RMK AO2
14840KMKG MKG20010803123010308/03/01 12:30:31  5-MIN KMKG 031730Z 29009KT 10SM BKN049 BKN055 28/19 A3007 490 60 2100 290/09 RMK AO2
14840KMKG MKG20010803123510308/03/01 12:35:31  5-MIN KMKG 031735Z 28011KT 10SM BKN049 BKN055 28/19 A3007 490 56 2200 290/11 RMK AO2
14840KMKG MKG20010803124010308/03/01 12:40:31  5-MIN KMKG 031740Z 29012KT 10SM BKN049 BKN055 28/19 A3007 490 58 2100 290/12 RMK AO2
14840KMKG MKG20010803124511208/03/01 12:45:31  5-MIN KMKG 031745Z 30009KT 260V320 10SM SCT049 28/19 A3007 490 56 2200 300/09 260V320 RMK AO2
14840KMKG MKG20010803125013108/03/01 12:50:31  5-MIN KMKG 031750Z 28012KT 10SM FEW049 28/19 A3007 490 56 2200 290/12 RMK AO2 SLP178 T02830189 10294 20217 50001
14840KMKG MKG20010803125513108/03/01 12:55:31  5-MIN KMKG 031755Z 29012KT 10SM SCT049 28/19 A3007 490 60 2100 290/12 RMK AO2 SLP178 T02780194 10294 20217 56009
14840KMKG MKG20010803130009608/03/01 13:00:31  5-MIN KMKG 031800Z 28010KT 10SM FEW049 28/19 A3007 490 58 2200 290/10 RMK AO2
14840KMKG MKG20010803130509308/03/01 13:05:31  5-MIN KMKG 031805Z 27013KT 10SM CLR 28/19 A3007 490 56 2200 280/13 RMK AO2
14840KMKG MKG20010803131009308/03/01 13:10:31  5-MIN KMKG 031810Z 29010KT 10SM CLR 28/19 A3007 490 58 2100 300/10 RMK AO2
14840KMKG MKG20010803131509308/03/01 13:15:31  5-MIN KMKG 031815Z 29012KT 10SM CLR 28/19 A3007 490 58 2100 300/12 RMK AO2
14840KMKG MKG20010803132009608/03/01 13:20:31  5-MIN KMKG 031820Z 29012KT 10SM FEW050 28/19 A3007 490 58 2100 300/12 RMK AO2
14840KMKG MKG20010803132509608/03/01 13:25:31  5-MIN KMKG 031825Z 30011KT 10SM FEW050 28/18 A3007 490 56 2100 300/11 RMK AO2
14840KMKG MKG20010803133009608/03/01 13:30:31  5-MIN KMKG 031830Z 29011KT 10SM FEW050 28/19 A3007 490 58 2100 290/11 RMK AO2
14840KMKG MKG20010803133509608/03/01 13:35:31  5-MIN KMKG 031835Z 28012KT 10SM FEW050 28/18 A3007 490 56 2100 280/12 RMK AO2
14840KMKG MKG20010803134009608/03/01 13:40:31  5-MIN KMKG 031840Z 29013KT 10SM FEW050 28/18 A3007 490 56 2100 290/13 RMK AO2
14840KMKG MKG20010803134509608/03/01 13:45:31  5-MIN KMKG 031845Z 28012KT 10SM FEW050 28/18 A3007 500 56 2100 290/12 RMK AO2
14840KMKG MKG20010803135011308/03/01 13:50:31  5-MIN KMKG 031850Z 28011KT 10SM FEW050 27/18 A3006 500 58 2100 280/11 RMK AO2 SLP176 T02720183
14840KMKG MKG20010803135511308/03/01 13:55:31  5-MIN KMKG 031855Z 29010KT 10SM FEW050 28/18 A3006 500 56 2100 290/10 RMK AO2 SLP176 T02780183
14840KMKG MKG20010803140009608/03/01 14:00:31  5-MIN KMKG 031900Z 29012KT 10SM FEW050 28/18 A3006 500 54 2200 300/12 RMK AO2
14840KMKG MKG20010803140509608/03/01 14:05:31  5-MIN KMKG 031905Z 31011KT 10SM FEW050 28/18 A3007 500 56 2100 310/11 RMK AO2
14840KMKG MKG20010803141009608/03/01 14:10:31  5-MIN KMKG 031910Z 29013KT 10SM FEW050 28/19 A3006 500 58 2100 300/13 RMK AO2
14840KMKG MKG20010803141509608/03/01 14:15:31  5-MIN KMKG 031915Z 29011KT 10SM FEW050 27/19 A3006 500 60 2100 300/11 RMK AO2
14840KMKG MKG20010803142009608/03/01 14:20:31  5-MIN KMKG 031920Z 29011KT 10SM FEW050 27/19 A3006 500 60 2100 300/11 RMK AO2
14840KMKG MKG20010803142509608/03/01 14:25:31  5-MIN KMKG 031925Z 30011KT 10SM FEW050 27/19 A3006 500 60 2100 310/11 RMK AO2
14840KMKG MKG20010803143010208/03/01 14:30:31  5-MIN KMKG 031930Z 30012G17KT 10SM FEW050 27/19 A3005 510 60 2100 310/12G17 RMK AO2
14840KMKG MKG20010803143510208/03/01 14:35:31  5-MIN KMKG 031935Z 29012G17KT 10SM FEW050 27/18 A3005 510 58 2100 300/12G17 RMK AO2
14840KMKG MKG20010803144009608/03/01 14:40:31  5-MIN KMKG 031940Z 30010KT 10SM FEW050 28/19 A3005 510 58 2100 310/10 RMK AO2
14840KMKG MKG20010803144509608/03/01 14:45:31  5-MIN KMKG 031945Z 29009KT 10SM FEW050 28/19 A3005 510 56 2200 300/09 RMK AO2
14840KMKG MKG20010803145011308/03/01 14:50:31  5-MIN KMKG 031950Z 31009KT 10SM FEW050 29/18 A3005 510 52 2300 310/09 RMK AO2 SLP171 T02890183
14840KMKG MKG20010803145511308/03/01 14:55:31  5-MIN KMKG 031955Z 30010KT 10SM FEW050 29/18 A3005 510 52 2300 300/10 RMK AO2 SLP170 T02890183
14840KMKG MKG20010803150009308/03/01 15:00:31  5-MIN KMKG 032000Z 31013KT 10SM CLR 28/18 A3004 520 54 2200 310/13 RMK AO2
14840KMKG MKG20010803150509308/03/01 15:05:31  5-MIN KMKG 032005Z 30012KT 10SM CLR 28/18 A3005 510 52 2200 310/12 RMK AO2
14840KMKG MKG20010803151009308/03/01 15:10:31  5-MIN KMKG 032010Z 31011KT 10SM CLR 28/18 A3005 510 52 2200 320/11 RMK AO2
14840KMKG MKG20010803151509308/03/01 15:15:31  5-MIN KMKG 032015Z 32014KT 10SM CLR 28/18 A3005 510 52 2200 320/14 RMK AO2
14840KMKG MKG20010803152009908/03/01 15:20:31  5-MIN KMKG 032020Z 31015G18KT 10SM CLR 28/17 A3004 520 50 2200 320/15G18 RMK AO2
14840KMKG MKG20010803152509908/03/01 15:25:31  5-MIN KMKG 032025Z 31011G18KT 10SM CLR 29/17 A3004 520 48 2300 310/11G18 RMK AO2
14840KMKG MKG20010803153009308/03/01 15:30:31  5-MIN KMKG 032030Z 30011KT 10SM CLR 28/18 A3004 520 54 2200 310/11 RMK AO2
14840KMKG MKG20010803153509308/03/01 15:35:31  5-MIN KMKG 032035Z 31009KT 10SM CLR 28/18 A3004 520 54 2200 310/09 RMK AO2
14840KMKG MKG20010803154009308/03/01 15:40:31  5-MIN KMKG 032040Z 31013KT 10SM CLR 28/18 A3004 520 52 2200 310/13 RMK AO2
14840KMKG MKG20010803154509308/03/01 15:45:31  5-MIN KMKG 032045Z 32010KT 10SM CLR 29/17 A3003 520 48 2300 320/10 RMK AO2
14840KMKG MKG20010803155011608/03/01 15:50:31  5-MIN KMKG 032050Z 31011KT 10SM CLR 29/17 A3004 520 48 2300 320/11 RMK AO2 SLP167 T02890172 56009
14840KMKG MKG20010803155511608/03/01 15:55:31  5-MIN KMKG 032055Z 31010KT 10SM CLR 29/17 A3003 520 47 2300 320/10 RMK AO2 SLP166 T02890167 58011
14840KMKG MKG20010803160009308/03/01 16:00:31  5-MIN KMKG 032100Z 31009KT 10SM CLR 29/17 A3003 530 45 2300 320/09 RMK AO2
14840KMKG MKG20010803160509308/03/01 16:05:31  5-MIN KMKG 032105Z 32012KT 10SM CLR 29/17 A3004 520 45 2300 330/12 RMK AO2
14840KMKG MKG20010803161009908/03/01 16:10:31  5-MIN KMKG 032110Z 31013G18KT 10SM CLR 29/16 A3003 520 45 2300 310/13G18 RMK AO2
14840KMKG MKG20010803161509908/03/01 16:15:31  5-MIN KMKG 032115Z 30010G18KT 10SM CLR 29/17 A3004 520 47 2300 300/10G18 RMK AO2
14840KMKG MKG20010803162009308/03/01 16:20:31  5-MIN KMKG 032120Z 31009KT 10SM CLR 29/17 A3003 530 47 2300 320/09 RMK AO2
14840KMKG MKG20010803162509308/03/01 16:25:31  5-MIN KMKG 032125Z 31012KT 10SM CLR 28/17 A3003 530 48 2200 310/12 RMK AO2
14840KMKG MKG20010803163009308/03/01 16:30:31  5-MIN KMKG 032130Z 32011KT 10SM CLR 28/17 A3003 530 48 2200 330/11 RMK AO2
14840KMKG MKG20010803163509308/03/01 16:35:31  5-MIN KMKG 032135Z 32013KT 10SM CLR 28/16 A3003 530 47 2200 320/13 RMK AO2
14840KMKG MKG20010803164009908/03/01 16:40:31  5-MIN KMKG 032140Z 32012G19KT 10SM CLR 28/16 A3003 530 47 2200 320/12G19 RMK AO2
14840KMKG MKG20010803164509908/03/01 16:45:31  5-MIN KMKG 032145Z 30014G19KT 10SM CLR 28/17 A3003 530 48 2200 310/14G19 RMK AO2
14840KMKG MKG20010803165011608/03/01 16:50:31  5-MIN KMKG 032150Z 30012G19KT 10SM CLR 28/17 A3003 530 50 2200 310/12G19 RMK AO2 SLP164 T02780167
14840KMKG MKG20010803165511008/03/01 16:55:31  5-MIN KMKG 032155Z 31012KT 10SM CLR 28/17 A3003 530 50 2200 310/12 RMK AO2 SLP164 T02780167
14840KMKG MKG20010803170009308/03/01 17:00:31  5-MIN KMKG 032200Z 30011KT 10SM CLR 28/17 A3002 540 50 2200 310/11 RMK AO2
14840KMKG MKG20010803170509308/03/01 17:05:31  5-MIN KMKG 032205Z 30012KT 10SM CLR 28/17 A3002 530 50 2200 300/12 RMK AO2
14840KMKG MKG20010803171009308/03/01 17:10:31  5-MIN KMKG 032210Z 32013KT 10SM CLR 28/17 A3002 530 50 2200 330/13 RMK AO2
14840KMKG MKG20010803171509308/03/01 17:15:31  5-MIN KMKG 032215Z 32012KT 10SM CLR 28/16 A3002 540 48 2200 320/12 RMK AO2
14840KMKG MKG20010803172009308/03/01 17:20:31  5-MIN KMKG 032220Z 32010KT 10SM CLR 28/17 A3002 540 50 2200 320/10 RMK AO2
14840KMKG MKG20010803172509308/03/01 17:25:31  5-MIN KMKG 032225Z 33012KT 10SM CLR 28/16 A3002 540 48 2200 330/12 RMK AO2
14840KMKG MKG20010803173009308/03/01 17:30:31  5-MIN KMKG 032230Z 32009KT 10SM CLR 28/17 A3002 540 50 2200 320/09 RMK AO2
14840KMKG MKG20010803173509308/03/01 17:35:31  5-MIN KMKG 032235Z 33012KT 10SM CLR 28/15 A3002 540 45 2200 340/12 RMK AO2
14840KMKG MKG20010803174009308/03/01 17:40:31  5-MIN KMKG 032240Z 32010KT 10SM CLR 28/16 A3001 540 46 2200 330/10 RMK AO2
14840KMKG MKG20010803174509308/03/01 17:45:31  5-MIN KMKG 032245Z 33011KT 10SM CLR 27/14 A3001 550 45 2100 330/11 RMK AO2
14840KMKG MKG20010803175011008/03/01 17:50:31  5-MIN KMKG 032250Z 32011KT 10SM CLR 27/14 A3001 540 45 2100 320/11 RMK AO2 SLP160 T02720144
14840KMKG MKG20010803175511008/03/01 17:55:31  5-MIN KMKG 032255Z 31007KT 10SM CLR 27/15 A3001 550 46 2100 320/07 RMK AO2 SLP160 T02720150
14840KMKG MKG20010803180009308/03/01 18:00:31  5-MIN KMKG 032300Z 32009KT 10SM CLR 27/15 A3001 550 46 2100 320/09 RMK AO2
14840KMKG MKG20010803180509308/03/01 18:05:31  5-MIN KMKG 032305Z 32009KT 10SM CLR 27/15 A3001 550 46 2100 330/09 RMK AO2
14840KMKG MKG20010803181009308/03/01 18:10:31  5-MIN KMKG 032310Z 32009KT 10SM CLR 27/15 A3001 550 46 2100 330/09 RMK AO2
14840KMKG MKG20010803181509308/03/01 18:15:31  5-MIN KMKG 032315Z 32006KT 10SM CLR 27/16 A3001 550 48 2100 320/06 RMK AO2
14840KMKG MKG20010803182009308/03/01 18:20:31  5-MIN KMKG 032320Z 33009KT 10SM CLR 27/16 A3001 550 48 2100 330/09 RMK AO2
14840KMKG MKG20010803182509308/03/01 18:25:31  5-MIN KMKG 032325Z 33009KT 10SM CLR 27/16 A3001 550 50 2100 330/09 RMK AO2
14840KMKG MKG20010803183009308/03/01 18:30:31  5-MIN KMKG 032330Z 35011KT 10SM CLR 27/15 A3001 550 46 2100 350/11 RMK AO2
14840KMKG MKG20010803183509308/03/01 18:35:31  5-MIN KMKG 032335Z 34012KT 10SM CLR 27/13 A3001 550 43 2100 350/12 RMK AO2
14840KMKG MKG20010803184009308/03/01 18:40:31  5-MIN KMKG 032340Z 35009KT 10SM CLR 27/13 A3001 550 41 2100 350/09 RMK AO2
14840KMKG MKG20010803184509308/03/01 18:45:31  5-MIN KMKG 032345Z 34008KT 10SM CLR 27/13 A3001 550 43 2100 350/08 RMK AO2
14840KMKG MKG20010803185012808/03/01 18:50:31  5-MIN KMKG 032350Z 35011KT 10SM CLR 27/13 A3001 550 43 2100 350/11 RMK AO2 SLP159 T02670133 10294 20267 58011
14840KMKG MKG20010803185512808/03/01 18:55:31  5-MIN KMKG 032355Z 34010KT 10SM CLR 26/13 A3001 550 44 2000 350/10 RMK AO2 SLP158 T02610133 10294 20261 56009
14840KMKG MKG20010803190009308/03/01 19:00:31  5-MIN KMKG 040000Z 34011KT 10SM CLR 26/14 A3001 550 46 2000 350/11 RMK AO2
14840KMKG MKG20010803190509308/03/01 19:05:31  5-MIN KMKG 040005Z 36011KT 10SM CLR 26/13 A3001 550 43 2000 360/11 RMK AO2
14840KMKG MKG20010803191009308/03/01 19:10:31  5-MIN KMKG 040010Z 35010KT 10SM CLR 26/13 A3001 550 43 2000 360/10 RMK AO2
14840KMKG MKG20010803191509308/03/01 19:15:31  5-MIN KMKG 040015Z 35010KT 10SM CLR 26/13 A3001 550 44 1900 350/10 RMK AO2
14840KMKG MKG20010803192009308/03/01 19:20:31  5-MIN KMKG 040020Z 34008KT 10SM CLR 26/13 A3001 550 46 1900 350/08 RMK AO2
14840KMKG MKG20010803192509308/03/01 19:25:31  5-MIN KMKG 040025Z 34009KT 10SM CLR 26/13 A3001 550 46 1900 350/09 RMK AO2
14840KMKG MKG20010803193009308/03/01 19:30:31  5-MIN KMKG 040030Z 35009KT 10SM CLR 26/13 A3001 550 46 1900 350/09 RMK AO2
14840KMKG MKG20010803193509308/03/01 19:35:31  5-MIN KMKG 040035Z 35007KT 10SM CLR 25/13 A3001 550 48 1900 350/07 RMK AO2
14840KMKG MKG20010803194009308/03/01 19:40:31  5-MIN KMKG 040040Z 35007KT 10SM CLR 25/13 A3001 550 48 1900 350/07 RMK AO2
14840KMKG MKG20010803194509308/03/01 19:45:31  5-MIN KMKG 040045Z 35007KT 10SM CLR 25/13 A3001 550 48 1900 350/07 RMK AO2
14840KMKG MKG20010803195011008/03/01 19:50:31  5-MIN KMKG 040050Z 34007KT 10SM CLR 24/13 A3001 550 49 1800 350/07 RMK AO2 SLP159 T02440133
14840KMKG MKG20010803195511008/03/01 19:55:31  5-MIN KMKG 040055Z 34008KT 10SM CLR 24/13 A3001 550 49 1800 350/08 RMK AO2 SLP159 T02440133
14840KMKG MKG20010803200009308/03/01 20:00:31  5-MIN KMKG 040100Z 34007KT 10SM CLR 24/13 A3001 550 49 1800 350/07 RMK AO2
14840KMKG MKG20010803200509308/03/01 20:05:31  5-MIN KMKG 040105Z 35007KT 10SM CLR 24/13 A3001 550 49 1800 350/07 RMK AO2
14840KMKG MKG20010803201009308/03/01 20:10:31  5-MIN KMKG 040110Z 35005KT 10SM CLR 24/14 A3001 550 53 1700 350/05 RMK AO2
14840KMKG MKG20010803201509308/03/01 20:15:31  5-MIN KMKG 040115Z 33005KT 10SM CLR 24/14 A3001 550 53 1700 340/05 RMK AO2
14840KMKG MKG20010803202009308/03/01 20:20:31  5-MIN KMKG 040120Z 33004KT 10SM CLR 23/14 A3001 550 55 1700 330/04 RMK AO2
14840KMKG MKG20010803202509308/03/01 20:25:31  5-MIN KMKG 040125Z 32004KT 10SM CLR 23/14 A3001 550 55 1700 330/04 RMK AO2
14840KMKG MKG20010803203009308/03/01 20:30:31  5-MIN KMKG 040130Z 33005KT 10SM CLR 23/14 A3001 550 55 1700 340/05 RMK AO2
14840KMKG MKG20010803203509308/03/01 20:35:31  5-MIN KMKG 040135Z 34006KT 10SM CLR 23/14 A3001 540 57 1700 340/06 RMK AO2
14840KMKG MKG20010803204009308/03/01 20:40:31  5-MIN KMKG 040140Z 34006KT 10SM CLR 23/14 A3001 540 57 1700 350/06 RMK AO2
14840KMKG MKG20010803204509308/03/01 20:45:31  5-MIN KMKG 040145Z 35004KT 10SM CLR 23/14 A3002 540 57 1700 360/04 RMK AO2
14840KMKG MKG20010803205011008/03/01 20:50:31  5-MIN KMKG 040150Z 35004KT 10SM CLR 23/14 A3002 540 57 1700 350/04 RMK AO2 SLP161 T02330144
14840KMKG MKG20010803205511008/03/01 20:55:31  5-MIN KMKG 040155Z 35004KT 10SM CLR 23/15 A3002 540 61 1600 350/04 RMK AO2 SLP161 T02280150
14840KMKG MKG20010803210009308/03/01 21:00:31  5-MIN KMKG 040200Z 36004KT 10SM CLR 23/15 A3002 540 61 1600 360/04 RMK AO2
14840KMKG MKG20010803210509308/03/01 21:05:31  5-MIN KMKG 040205Z 01005KT 10SM CLR 23/15 A3002 540 61 1600 020/05 RMK AO2
14840KMKG MKG20010803211009308/03/01 21:10:31  5-MIN KMKG 040210Z 01006KT 10SM CLR 23/15 A3002 540 61 1600 010/06 RMK AO2
14840KMKG MKG20010803211509308/03/01 21:15:31  5-MIN KMKG 040215Z 36005KT 10SM CLR 23/15 A3002 540 61 1600 010/05 RMK AO2
14840KMKG MKG20010803212009308/03/01 21:20:31  5-MIN KMKG 040220Z 36005KT 10SM CLR 22/15 A3002 540 63 1500 360/05 RMK AO2
14840KMKG MKG20010803212509308/03/01 21:25:31  5-MIN KMKG 040225Z 36004KT 10SM CLR 23/16 A3002 540 63 1600 360/04 RMK AO2
14840KMKG MKG20010803213009308/03/01 21:30:31  5-MIN KMKG 040230Z 01005KT 10SM CLR 23/16 A3002 540 63 1600 010/05 RMK AO2
14840KMKG MKG20010803213509308/03/01 21:35:31  5-MIN KMKG 040235Z 01005KT 10SM CLR 23/16 A3002 540 61 1700 010/05 RMK AO2
14840KMKG MKG20010803214009308/03/01 21:40:31  5-MIN KMKG 040240Z 01006KT 10SM CLR 23/16 A3002 540 61 1700 010/06 RMK AO2
14840KMKG MKG20010803214509308/03/01 21:45:31  5-MIN KMKG 040245Z 01005KT 10SM CLR 23/16 A3002 540 61 1700 010/05 RMK AO2
14840KMKG MKG20010803215011608/03/01 21:50:31  5-MIN KMKG 040250Z 01006KT 10SM CLR 23/16 A3002 540 61 1700 020/06 RMK AO2 SLP162 T02330156 56009
14840KMKG MKG20010803215511608/03/01 21:55:31  5-MIN KMKG 040255Z 02007KT 10SM CLR 23/16 A3002 540 63 1600 020/07 RMK AO2 SLP162 T02280156 53004
14840KMKG MKG20010803220009308/03/01 22:00:31  5-MIN KMKG 040300Z 02007KT 10SM CLR 23/16 A3002 540 63 1600 020/07 RMK AO2
14840KMKG MKG20010803220509308/03/01 22:05:31  5-MIN KMKG 040305Z 01007KT 10SM CLR 23/16 A3002 540 63 1600 020/07 RMK AO2
14840KMKG MKG20010803221009308/03/01 22:10:31  5-MIN KMKG 040310Z 02006KT 10SM CLR 23/16 A3002 540 63 1600 020/06 RMK AO2
14840KMKG MKG20010803221509308/03/01 22:15:31  5-MIN KMKG 040315Z 02006KT 10SM CLR 23/16 A3002 540 63 1600 020/06 RMK AO2
14840KMKG MKG20010803222009308/03/01 22:20:31  5-MIN KMKG 040320Z 02005KT 10SM CLR 23/16 A3002 540 63 1600 020/05 RMK AO2
14840KMKG MKG20010803222509308/03/01 22:25:31  5-MIN KMKG 040325Z 02006KT 10SM CLR 22/16 A3002 540 65 1500 030/06 RMK AO2
14840KMKG MKG20010803223009308/03/01 22:30:31  5-MIN KMKG 040330Z 02007KT 10SM CLR 22/16 A3002 540 65 1500 020/07 RMK AO2
14840KMKG MKG20010803223509308/03/01 22:35:31  5-MIN KMKG 040335Z 02006KT 10SM CLR 22/16 A3002 540 65 1500 020/06 RMK AO2
14840KMKG MKG20010803224009308/03/01 22:40:31  5-MIN KMKG 040340Z 02006KT 10SM CLR 22/16 A3003 530 65 1500 020/06 RMK AO2
14840KMKG MKG20010803224509308/03/01 22:45:31  5-MIN KMKG 040345Z 03006KT 10SM CLR 22/16 A3002 530 65 1500 030/06 RMK AO2
14840KMKG MKG20010803225011008/03/01 22:50:31  5-MIN KMKG 040350Z 03005KT 10SM CLR 22/16 A3002 530 65 1500 040/05 RMK AO2 SLP163 T02220156
14840KMKG MKG20010803225511008/03/01 22:55:31  5-MIN KMKG 040355Z 03006KT 10SM CLR 22/16 A3002 530 65 1500 040/06 RMK AO2 SLP163 T02220156
14840KMKG MKG20010803230009308/03/01 23:00:31  5-MIN KMKG 040400Z 04005KT 10SM CLR 22/16 A3002 530 65 1500 050/05 RMK AO2
14840KMKG MKG20010803230509308/03/01 23:05:31  5-MIN KMKG 040405Z 04006KT 10SM CLR 22/16 A3002 530 65 1500 050/06 RMK AO2
14840KMKG MKG20010803231009308/03/01 23:10:31  5-MIN KMKG 040410Z 04006KT 10SM CLR 22/16 A3003 530 65 1500 040/06 RMK AO2
14840KMKG MKG20010803231509308/03/01 23:15:31  5-MIN KMKG 040415Z 02005KT 10SM CLR 22/16 A3003 530 68 1500 030/05 RMK AO2
14840KMKG MKG20010803232009308/03/01 23:20:31  5-MIN KMKG 040420Z 03006KT 10SM CLR 22/16 A3003 530 68 1500 030/06 RMK AO2
14840KMKG MKG20010803232509308/03/01 23:25:31  5-MIN KMKG 040425Z 03006KT 10SM CLR 22/16 A3003 530 68 1500 030/06 RMK AO2
14840KMKG MKG20010803233009308/03/01 23:30:31  5-MIN KMKG 040430Z 02005KT 10SM CLR 22/16 A3003 530 68 1500 030/05 RMK AO2
14840KMKG MKG20010803233509308/03/01 23:35:31  5-MIN KMKG 040435Z 03006KT 10SM CLR 22/16 A3003 530 68 1500 030/06 RMK AO2
14840KMKG MKG20010803234009308/03/01 23:40:31  5-MIN KMKG 040440Z 03006KT 10SM CLR 22/16 A3003 530 68 1500 030/06 RMK AO2
14840KMKG MKG20010803234509308/03/01 23:45:31  5-MIN KMKG 040445Z 02006KT 10SM CLR 21/16 A3003 530 70 1400 030/06 RMK AO2
14840KMKG MKG20010803235012008/03/01 23:50:31  5-MIN KMKG 040450Z 02006KT 10SM CLR 22/16 A3003 530 68 1500 030/06 RMK AO2 SLP163 T02170156 402940200
14840KMKG MKG20010803235512008/03/01 23:55:31  5-MIN KMKG 040455Z 02006KT 10SM CLR 21/16 A3003 530 70 1400 030/06 RMK AO2 SLP163 T02110156 402940200
14840KMKG MKG20010804000009308/04/01 00:00:31  5-MIN KMKG 040500Z 02006KT 10SM CLR 21/16 A3003 530 70 1400 030/06 RMK AO2
14840KMKG MKG20010804000509308/04/01 00:05:31  5-MIN KMKG 040505Z 03006KT 10SM CLR 21/16 A3003 530 70 1400 030/06 RMK AO2
14840KMKG MKG20010804001009308/04/01 00:10:31  5-MIN KMKG 040510Z 03005KT 10SM CLR 21/16 A3003 530 73 1300 030/05 RMK AO2
14840KMKG MKG20010804001509308/04/01 00:15:31  5-MIN KMKG 040515Z 03006KT 10SM CLR 21/15 A3003 530 68 1400 040/06 RMK AO2
14840KMKG MKG20010804002009308/04/01 00:20:31  5-MIN KMKG 040520Z 04005KT 10SM CLR 21/15 A3003 530 70 1300 040/05 RMK AO2
14840KMKG MKG20010804002509308/04/01 00:25:31  5-MIN KMKG 040525Z 05006KT 10SM CLR 21/15 A3003 530 70 1300 050/06 RMK AO2
14840KMKG MKG20010804003009308/04/01 00:30:31  5-MIN KMKG 040530Z 05006KT 10SM CLR 21/15 A3003 530 70 1300 060/06 RMK AO2
14840KMKG MKG20010804003509308/04/01 00:35:31  5-MIN KMKG 040535Z 05006KT 10SM CLR 21/15 A3003 530 70 1300 050/06 RMK AO2
14840KMKG MKG20010804004009308/04/01 00:40:31  5-MIN KMKG 040540Z 06005KT 10SM CLR 20/15 A3003 530 72 1300 060/05 RMK AO2
14840KMKG MKG20010804004509308/04/01 00:45:31  5-MIN KMKG 040545Z 05004KT 10SM CLR 20/15 A3003 530 72 1300 050/04 RMK AO2
14840KMKG MKG20010804005012808/04/01 00:50:31  5-MIN KMKG 040550Z 05004KT 10SM CLR 20/15 A3002 530 72 1300 050/04 RMK AO2 SLP163 T02000150 10261 20200 53004
14840KMKG MKG20010804005512808/04/01 00:55:31  5-MIN KMKG 040555Z 06004KT 10SM CLR 20/15 A3002 540 72 1300 060/04 RMK AO2 SLP163 T02000150 10261 20200 50000
14840KMKG MKG20010804010009308/04/01 01:00:31  5-MIN KMKG 040600Z 06004KT 10SM CLR 19/15 A3002 540 75 1200 060/04 RMK AO2
14840KMKG MKG20010804010509308/04/01 01:05:31  5-MIN KMKG 040605Z 06004KT 10SM CLR 19/15 A3002 540 75 1200 060/04 RMK AO2
14840KMKG MKG20010804011009308/04/01 01:10:31  5-MIN KMKG 040610Z 05004KT 10SM CLR 19/15 A3002 540 75 1200 050/04 RMK AO2
14840KMKG MKG20010804011509308/04/01 01:15:31  5-MIN KMKG 040615Z 05005KT 10SM CLR 19/15 A3002 540 75 1200 060/05 RMK AO2
14840KMKG MKG20010804012009308/04/01 01:20:31  5-MIN KMKG 040620Z 06005KT 10SM CLR 19/15 A3002 540 75 1200 060/05 RMK AO2
14840KMKG MKG20010804012509308/04/01 01:25:31  5-MIN KMKG 040625Z 06004KT 10SM CLR 19/15 A3002 540 75 1200 060/04 RMK AO2
14840KMKG MKG20010804013009308/04/01 01:30:31  5-MIN KMKG 040630Z 06004KT 10SM CLR 19/15 A3002 540 78 1200 070/04 RMK AO2
14840KMKG MKG20010804013509308/04/01 01:35:31  5-MIN KMKG 040635Z 06004KT 10SM CLR 19/14 A3002 540 75 1200 070/04 RMK AO2
14840KMKG MKG20010804014009308/04/01 01:40:31  5-MIN KMKG 040640Z 07004KT 10SM CLR 18/14 A3001 540 78 1100 070/04 RMK AO2
14840KMKG MKG20010804014509308/04/01 01:45:31  5-MIN KMKG 040645Z 06004KT 10SM CLR 18/14 A3002 540 78 1100 070/04 RMK AO2
14840KMKG MKG20010804015011008/04/01 01:50:31  5-MIN KMKG 040650Z 06003KT 10SM CLR 18/14 A3002 540 78 1100 060/03 RMK AO2 SLP161 T01830144
14840KMKG MKG20010804015511008/04/01 01:55:31  5-MIN KMKG 040655Z 06003KT 10SM CLR 18/14 A3002 540 78 1100 070/03 RMK AO2 SLP161 T01830144
14840KMKG MKG20010804020009308/04/01 02:00:31  5-MIN KMKG 040700Z 07003KT 10SM CLR 18/14 A3002 540 78 1100 070/03 RMK AO2
14840KMKG MKG20010804020509308/04/01 02:05:31  5-MIN KMKG 040705Z 07003KT 10SM CLR 18/14 A3001 540 78 1100 070/03 RMK AO2
14840KMKG MKG20010804021009308/04/01 02:10:31  5-MIN KMKG 040710Z 08004KT 10SM CLR 18/14 A3001 550 78 1100 080/04 RMK AO2
14840KMKG MKG20010804021509308/04/01 02:15:31  5-MIN KMKG 040715Z 08004KT 10SM CLR 18/14 A3001 550 81 1000 080/04 RMK AO2
14840KMKG MKG20010804022009308/04/01 02:20:31  5-MIN KMKG 040720Z 07004KT 10SM CLR 18/14 A3001 550 81 1000 070/04 RMK AO2
14840KMKG MKG20010804022509308/04/01 02:25:31  5-MIN KMKG 040725Z 06005KT 10SM CLR 18/14 A3001 550 78 1000 070/05 RMK AO2
14840KMKG MKG20010804023009308/04/01 02:30:31  5-MIN KMKG 040730Z 07005KT 10SM CLR 18/14 A3001 550 78 1000 080/05 RMK AO2
14840KMKG MKG20010804023509308/04/01 02:35:31  5-MIN KMKG 040735Z 08005KT 10SM CLR 18/14 A3001 550 78 1000 080/05 RMK AO2
14840KMKG MKG20010804024009308/04/01 02:40:31  5-MIN KMKG 040740Z 07004KT 10SM CLR 17/14 A3001 540 80 1000 080/04 RMK AO2
14840KMKG MKG20010804024509308/04/01 02:45:31  5-MIN KMKG 040745Z 08005KT 10SM CLR 17/14 A3001 540 80 1000 090/05 RMK AO2
14840KMKG MKG20010804025011008/04/01 02:50:31  5-MIN KMKG 040750Z 08005KT 10SM CLR 17/14 A3001 540 80 1000 080/05 RMK AO2 SLP160 T01720139
14840KMKG MKG20010804025511008/04/01 02:55:31  5-MIN KMKG 040755Z 09005KT 10SM CLR 17/14 A3001 540 80 1000 090/05 RMK AO2 SLP160 T01720139
14840KMKG MKG20010804030009308/04/01 03:00:31  5-MIN KMKG 040800Z 09003KT 10SM CLR 17/14 A3001 540 80 1000 100/03 RMK AO2
14840KMKG MKG20010804030509308/04/01 03:05:31  5-MIN KMKG 040805Z 08004KT 10SM CLR 17/14 A3001 540 80 1000 090/04 RMK AO2
14840KMKG MKG20010804031009308/04/01 03:10:31  5-MIN KMKG 040810Z 09003KT 10SM CLR 17/14 A3001 540 80 1000 090/03 RMK AO2
14840KMKG MKG20010804031509308/04/01 03:15:31  5-MIN KMKG 040815Z 08003KT 10SM CLR 17/14 A3002 540 80 1000 080/03 RMK AO2
14840KMKG MKG20010804032009308/04/01 03:20:31  5-MIN KMKG 040820Z 08004KT 10SM CLR 17/14 A3002 540 80 1000 080/04 RMK AO2
14840KMKG MKG20010804032509308/04/01 03:25:31  5-MIN KMKG 040825Z 07004KT 10SM CLR 17/13 A3002 540 78 1000 080/04 RMK AO2
14840KMKG MKG20010804033009308/04/01 03:30:31  5-MIN KMKG 040830Z 08004KT 10SM CLR 17/13 A3002 530 78 1000 080/04 RMK AO2
14840KMKG MKG20010804033509308/04/01 03:35:31  5-MIN KMKG 040835Z 08003KT 10SM CLR 17/13 A3002 530 78 1000 090/03 RMK AO2
14840KMKG MKG20010804034009308/04/01 03:40:31  5-MIN KMKG 040840Z 00000KT 10SM CLR 17/13 A3002 530 78 1000 000/00 RMK AO2
14840KMKG MKG20010804034509208/04/01 03:45:31  5-MIN KMKG 040845Z 00000KT 10SM CLR 17/13 A3003 530 80 900 000/00 RMK AO2
14840KMKG MKG20010804035011608/04/01 03:50:31  5-MIN KMKG 040850Z 05003KT 10SM CLR 17/14 A3003 530 80 1000 060/03 RMK AO2 SLP165 T01720139 50000
14840KMKG MKG20010804035511608/04/01 03:55:31  5-MIN KMKG 040855Z 07003KT 10SM CLR 17/14 A3003 530 80 1000 070/03 RMK AO2 SLP165 T01720139 53002
14840KMKG MKG20010804040009208/04/01 04:00:31  5-MIN KMKG 040900Z 00000KT 10SM CLR 17/13 A3003 530 80 900 000/00 RMK AO2
14840KMKG MKG20010804040509208/04/01 04:05:31  5-MIN KMKG 040905Z 00000KT 10SM CLR 17/14 A3003 530 83 900 000/00 RMK AO2
14840KMKG MKG20010804041009308/04/01 04:10:31  5-MIN KMKG 040910Z 00000KT 10SM CLR 17/14 A3003 530 80 1000 000/00 RMK AO2
14840KMKG MKG20010804041509308/04/01 04:15:31  5-MIN KMKG 040915Z 08003KT 10SM CLR 17/14 A3003 530 80 1000 080/03 RMK AO2
14840KMKG MKG20010804042009208/04/01 04:20:31  5-MIN KMKG 040920Z 00000KT 10SM CLR 17/14 A3003 530 83 900 000/00 RMK AO2
14840KMKG MKG20010804042509208/04/01 04:25:31  5-MIN KMKG 040925Z 00000KT 10SM CLR 17/14 A3003 530 83 900 000/00 RMK AO2
14840KMKG MKG20010804043009208/04/01 04:30:31  5-MIN KMKG 040930Z 00000KT 10SM CLR 17/14 A3003 520 83 900 000/00 RMK AO2
14840KMKG MKG20010804043509208/04/01 04:35:31  5-MIN KMKG 040935Z 00000KT 10SM CLR 17/14 A3004 520 80 900 000/00 RMK AO2
14840KMKG MKG20010804044009208/04/01 04:40:31  5-MIN KMKG 040940Z 00000KT 10SM CLR 17/14 A3004 520 83 900 000/00 RMK AO2
14840KMKG MKG20010804044509208/04/01 04:45:31  5-MIN KMKG 040945Z 00000KT 10SM CLR 17/14 A3004 520 83 900 000/00 RMK AO2
14840KMKG MKG20010804045010908/04/01 04:50:31  5-MIN KMKG 040950Z 00000KT 10SM CLR 17/14 A3004 520 83 900 000/00 RMK AO2 SLP168 T01670139
14840KMKG MKG20010804045510908/04/01 04:55:31  5-MIN KMKG 040955Z 00000KT 10SM CLR 16/14 A3004 520 86 800 000/00 RMK AO2 SLP168 T01610139
14840KMKG MKG20010804050009208/04/01 05:00:31  5-MIN KMKG 041000Z 00000KT 10SM CLR 17/14 A3004 520 83 900 000/00 RMK AO2
14840KMKG MKG20010804050509208/04/01 05:05:31  5-MIN KMKG 041005Z 34003KT 10SM CLR 16/14 A3004 520 86 800 350/03 RMK AO2
14840KMKG MKG20010804051009208/04/01 05:10:31  5-MIN KMKG 041010Z 33004KT 10SM CLR 16/14 A3005 510 90 700 330/04 RMK AO2
14840KMKG MKG20010804051509208/04/01 05:15:31  5-MIN KMKG 041015Z 34003KT 10SM CLR 16/14 A3005 510 90 800 340/03 RMK AO2
14840KMKG MKG20010804052009208/04/01 05:20:31  5-MIN KMKG 041020Z 34003KT 10SM CLR 16/14 A3005 510 90 800 350/03 RMK AO2
14840KMKG MKG20010804052509208/04/01 05:25:31  5-MIN KMKG 041025Z 00000KT 10SM CLR 16/14 A3005 510 90 700 000/00 RMK AO2
14840KMKG MKG20010804053009208/04/01 05:30:31  5-MIN KMKG 041030Z 00000KT 10SM CLR 16/14 A3005 510 93 700 000/00 RMK AO2
14840KMKG MKG20010804053509208/04/01 05:35:31  5-MIN KMKG 041035Z 36003KT 10SM CLR 16/14 A3006 500 90 800 360/03 RMK AO2
14840KMKG MKG20010804054009208/04/01 05:40:31  5-MIN KMKG 041040Z 36004KT 10SM CLR 16/14 A3006 500 90 700 010/04 RMK AO2
14840KMKG MKG20010804054509208/04/01 05:45:31  5-MIN KMKG 041045Z 36006KT 10SM CLR 16/14 A3006 500 86 800 010/06 RMK AO2
14840KMKG MKG20010804055010908/04/01 05:50:31  5-MIN KMKG 041050Z 01005KT 10SM CLR 17/14 A3007 500 86 800 010/05 RMK AO2 SLP178 T01670144
14840KMKG MKG20010804055510908/04/01 05:55:31  5-MIN KMKG 041055Z 01004KT 10SM CLR 17/14 A3007 490 86 800 010/04 RMK AO2 SLP179 T01670144
14840KMKG MKG20010804060009208/04/01 06:00:31  5-MIN KMKG 041100Z 01005KT 10SM CLR 17/14 A3007 490 86 800 010/05 RMK AO2
14840KMKG MKG20010804060509208/04/01 06:05:31  5-MIN KMKG 041105Z 01005KT 10SM CLR 17/14 A3007 490 83 900 010/05 RMK AO2
14840KMKG MKG20010804061009208/04/01 06:10:31  5-MIN KMKG 041110Z 36005KT 10SM CLR 17/14 A3007 490 83 900 010/05 RMK AO2
14840KMKG MKG20010804061509208/04/01 06:15:31  5-MIN KMKG 041115Z 02005KT 10SM CLR 17/15 A3007 490 87 900 020/05 RMK AO2
14840KMKG MKG20010804062009208/04/01 06:20:31  5-MIN KMKG 041120Z 02004KT 10SM CLR 17/15 A3007 490 87 900 020/04 RMK AO2
14840KMKG MKG20010804062509208/04/01 06:25:31  5-MIN KMKG 041125Z 01004KT 10SM CLR 17/15 A3007 490 87 900 010/04 RMK AO2
14840KMKG MKG20010804063009308/04/01 06:30:31  5-MIN KMKG 041130Z 01004KT 10SM CLR 18/15 A3007 490 83 1000 010/04 RMK AO2
14840KMKG MKG20010804063509308/04/01 06:35:31  5-MIN KMKG 041135Z 01004KT 10SM CLR 18/15 A3008 490 83 1000 010/04 RMK AO2
14840KMKG MKG20010804064009308/04/01 06:40:31  5-MIN KMKG 041140Z 01003KT 10SM CLR 18/15 A3008 490 83 1000 010/03 RMK AO2
14840KMKG MKG20010804064509308/04/01 06:45:31  5-MIN KMKG 041145Z 02003KT 10SM CLR 18/15 A3008 490 83 1000 030/03 RMK AO2
14840KMKG MKG20010804065012808/04/01 06:50:31  5-MIN KMKG 041150Z 03003KT 10SM CLR 18/15 A3008 490 81 1000 030/03 RMK AO2 SLP181 T01830150 10194 20156 53002
14840KMKG MKG20010804065512808/04/01 06:55:31  5-MIN KMKG 041155Z 03003KT 10SM CLR 18/15 A3008 490 81 1000 030/03 RMK AO2 SLP182 T01830150 10194 20156 53016
14840KMKG MKG20010804070009308/04/01 07:00:31  5-MIN KMKG 041200Z 05003KT 10SM CLR 18/15 A3008 490 81 1000 060/03 RMK AO2
14840KMKG MKG20010804070509308/04/01 07:05:31  5-MIN KMKG 041205Z 04004KT 10SM CLR 18/15 A3008 490 81 1000 050/04 RMK AO2
14840KMKG MKG20010804071009308/04/01 07:10:31  5-MIN KMKG 041210Z 05003KT 10SM CLR 18/15 A3008 490 81 1000 060/03 RMK AO2
14840KMKG MKG20010804071509308/04/01 07:15:31  5-MIN KMKG 041215Z 07004KT 10SM CLR 19/16 A3008 490 81 1100 080/04 RMK AO2
14840KMKG MKG20010804072009308/04/01 07:20:31  5-MIN KMKG 041220Z 05004KT 10SM CLR 19/16 A3008 490 81 1100 060/04 RMK AO2
14840KMKG MKG20010804072509308/04/01 07:25:31  5-MIN KMKG 041225Z 04003KT 10SM CLR 19/16 A3008 480 78 1200 050/03 RMK AO2
14840KMKG MKG20010804073009308/04/01 07:30:31  5-MIN KMKG 041230Z 04003KT 10SM CLR 19/16 A3008 480 78 1200 040/03 RMK AO2
14840KMKG MKG20010804073509308/04/01 07:35:31  5-MIN KMKG 041235Z 03004KT 10SM CLR 19/16 A3008 480 78 1200 030/04 RMK AO2
14840KMKG MKG20010804074009308/04/01 07:40:31  5-MIN KMKG 041240Z 04004KT 10SM CLR 20/16 A3008 480 75 1200 050/04 RMK AO2
14840KMKG MKG20010804074509308/04/01 07:45:31  5-MIN KMKG 041245Z 03003KT 10SM CLR 20/16 A3008 480 78 1200 030/03 RMK AO2
14840KMKG MKG20010804075011008/04/01 07:50:31  5-MIN KMKG 041250Z VRB03KT 10SM CLR 20/16 A3008 480 78 1200 VRB/03 RMK AO2 SLP183 T02000161
14840KMKG MKG20010804075511008/04/01 07:55:31  5-MIN KMKG 041255Z 07004KT 10SM CLR 21/16 A3008 480 75 1300 070/04 RMK AO2 SLP183 T02060161
14840KMKG MKG20010804080009308/04/01 08:00:31  5-MIN KMKG 041300Z 06004KT 10SM CLR 21/16 A3008 480 75 1300 060/04 RMK AO2
14840KMKG MKG20010804080509308/04/01 08:05:31  5-MIN KMKG 041305Z VRB03KT 10SM CLR 21/16 A3008 480 73 1300 VRB/03 RMK AO2
14840KMKG MKG20010804081009308/04/01 08:10:31  5-MIN KMKG 041310Z VRB04KT 10SM CLR 21/16 A3008 480 73 1300 VRB/04 RMK AO2
14840KMKG MKG20010804081509308/04/01 08:15:31  5-MIN KMKG 041315Z 06003KT 10SM CLR 22/16 A3008 480 70 1400 060/03 RMK AO2
14840KMKG MKG20010804082009308/04/01 08:20:31  5-MIN KMKG 041320Z VRB03KT 10SM CLR 22/16 A3008 480 70 1400 VRB/03 RMK AO2
14840KMKG MKG20010804082509308/04/01 08:25:31  5-MIN KMKG 041325Z VRB03KT 10SM CLR 22/17 A3008 480 70 1500 VRB/03 RMK AO2
14840KMKG MKG20010804083009308/04/01 08:30:31  5-MIN KMKG 041330Z VRB03KT 10SM CLR 22/17 A3008 480 70 1500 VRB/03 RMK AO2
14840KMKG MKG20010804083509308/04/01 08:35:31  5-MIN KMKG 041335Z VRB03KT 10SM CLR 23/17 A3008 480 68 1500 VRB/03 RMK AO2
14840KMKG MKG20010804084009308/04/01 08:40:31  5-MIN KMKG 041340Z 00000KT 10SM CLR 23/17 A3008 480 68 1500 000/00 RMK AO2
14840KMKG MKG20010804084509308/04/01 08:45:31  5-MIN KMKG 041345Z VRB03KT 10SM CLR 23/17 A3008 480 68 1500 VRB/03 RMK AO2
14840KMKG MKG20010804085011008/04/01 08:50:31  5-MIN KMKG 041350Z VRB03KT 10SM CLR 23/17 A3008 480 68 1500 VRB/03 RMK AO2 SLP184 T02280167
14840KMKG MKG20010804085511008/04/01 08:55:31  5-MIN KMKG 041355Z 04004KT 10SM CLR 23/17 A3008 480 66 1600 040/04 RMK AO2 SLP184 T02330167
14840KMKG MKG20010804090009308/04/01 09:00:31  5-MIN KMKG 041400Z VRB03KT 10SM CLR 23/17 A3008 480 66 1600 VRB/03 RMK AO2
14840KMKG MKG20010804090509308/04/01 09:05:31  5-MIN KMKG 041405Z VRB03KT 10SM CLR 24/17 A3008 480 66 1700 VRB/03 RMK AO2
14840KMKG MKG20010804091009308/04/01 09:10:31  5-MIN KMKG 041410Z 05004KT 10SM CLR 24/17 A3008 480 61 1700 060/04 RMK AO2
14840KMKG MKG20010804091509308/04/01 09:15:31  5-MIN KMKG 041415Z 03003KT 10SM CLR 24/17 A3008 480 63 1700 040/03 RMK AO2
14840KMKG MKG20010804092009308/04/01 09:20:31  5-MIN KMKG 041420Z 10005KT 10SM CLR 24/17 A3008 480 61 1700 110/05 RMK AO2
14840KMKG MKG20010804092509308/04/01 09:25:31  5-MIN KMKG 041425Z VRB06KT 10SM CLR 25/16 A3008 480 57 1800 VRB/06 RMK AO2
14840KMKG MKG20010804093009308/04/01 09:30:31  5-MIN KMKG 041430Z 00000KT 10SM CLR 25/16 A3008 480 57 1800 000/00 RMK AO2
14840KMKG MKG20010804093509308/04/01 09:35:31  5-MIN KMKG 041435Z VRB05KT 10SM CLR 25/16 A3008 480 57 1800 VRB/05 RMK AO2
14840KMKG MKG20010804094009308/04/01 09:40:31  5-MIN KMKG 041440Z 12004KT 10SM CLR 25/16 A3008 490 57 1800 130/04 RMK AO2
14840KMKG MKG20010804094509308/04/01 09:45:31  5-MIN KMKG 041445Z VRB04KT 10SM CLR 25/16 A3008 480 57 1800 VRB/04 RMK AO2
14840KMKG MKG20010804095011608/04/01 09:50:31  5-MIN KMKG 041450Z VRB03KT 10SM CLR 26/16 A3008 480 55 1900 VRB/03 RMK AO2 SLP182 T02560161 53016
14840KMKG MKG20010804095511608/04/01 09:55:31  5-MIN KMKG 041455Z 07006KT 10SM CLR 26/16 A3008 480 53 1900 070/06 RMK AO2 SLP181 T02560156 50000
14840KMKG MKG20010804100009308/04/01 10:00:31  5-MIN KMKG 041500Z VRB03KT 10SM CLR 26/16 A3008 480 55 1900 VRB/03 RMK AO2
14840KMKG MKG20010804100509308/04/01 10:05:31  5-MIN KMKG 041505Z VRB03KT 10SM CLR 26/16 A3008 490 55 1900 VRB/03 RMK AO2
14840KMKG MKG20010804101009308/04/01 10:10:31  5-MIN KMKG 041510Z VRB04KT 10SM CLR 27/16 A3008 480 50 2000 VRB/04 RMK AO2
14840KMKG MKG20010804101509308/04/01 10:15:31  5-MIN KMKG 041515Z 06004KT 10SM CLR 26/16 A3008 480 51 1900 060/04 RMK AO2
14840KMKG MKG20010804102009308/04/01 10:20:31  5-MIN KMKG 041520Z 12004KT 10SM CLR 26/16 A3008 480 53 1900 120/04 RMK AO2
14840KMKG MKG20010804102509308/04/01 10:25:31  5-MIN KMKG 041525Z 06004KT 10SM CLR 27/16 A3008 480 50 2000 060/04 RMK AO2
14840KMKG MKG20010804103009308/04/01 10:30:31  5-MIN KMKG 041530Z 06007KT 10SM CLR 27/16 A3008 480 48 2000 070/07 RMK AO2
14840KMKG MKG20010804103509308/04/01 10:35:31  5-MIN KMKG 041535Z VRB03KT 10SM CLR 27/16 A3008 480 50 2000 VRB/03 RMK AO2
14840KMKG MKG20010804104009308/04/01 10:40:31  5-MIN KMKG 041540Z 12004KT 10SM CLR 27/16 A3008 480 50 2000 120/04 RMK AO2
14840KMKG MKG20010804104509308/04/01 10:45:31  5-MIN KMKG 041545Z VRB06KT 10SM CLR 27/16 A3008 480 48 2000 VRB/06 RMK AO2
14840KMKG MKG20010804105011008/04/01 10:50:31  5-MIN KMKG 041550Z 06004KT 10SM CLR 27/16 A3008 480 48 2000 070/04 RMK AO2 SLP183 T02720156
14840KMKG MKG20010804105511008/04/01 10:55:31  5-MIN KMKG 041555Z 02005KT 10SM CLR 27/15 A3008 480 46 2000 020/05 RMK AO2 SLP183 T02720150
14840KMKG MKG20010804110009308/04/01 11:00:31  5-MIN KMKG 041600Z 08005KT 10SM CLR 27/14 A3008 480 45 2000 080/05 RMK AO2
14840KMKG MKG20010804110509308/04/01 11:05:31  5-MIN KMKG 041605Z VRB04KT 10SM CLR 28/14 A3008 480 43 2100 VRB/04 RMK AO2
14840KMKG MKG20010804111009308/04/01 11:10:31  5-MIN KMKG 041610Z VRB04KT 10SM CLR 27/15 A3008 480 46 2000 VRB/04 RMK AO2
14840KMKG MKG20010804111509308/04/01 11:15:31  5-MIN KMKG 041615Z VRB03KT 10SM CLR 28/15 A3008 480 45 2100 VRB/03 RMK AO2
14840KMKG MKG20010804112009308/04/01 11:20:31  5-MIN KMKG 041620Z VRB05KT 10SM CLR 28/15 A3008 480 45 2100 VRB/05 RMK AO2
14840KMKG MKG20010804112509308/04/01 11:25:31  5-MIN KMKG 041625Z VRB04KT 10SM CLR 28/15 A3008 480 45 2100 VRB/04 RMK AO2
14840KMKG MKG20010804113009308/04/01 11:30:31  5-MIN KMKG 041630Z VRB04KT 10SM CLR 29/15 A3008 480 42 2200 VRB/04 RMK AO2
14840KMKG MKG20010804113509308/04/01 11:35:31  5-MIN KMKG 041635Z 07006KT 10SM CLR 28/15 A3008 480 43 2200 080/06 RMK AO2
14840KMKG MKG20010804114009308/04/01 11:40:31  5-MIN KMKG 041640Z VRB04KT 10SM CLR 29/15 A3008 490 42 2200 VRB/04 RMK AO2
14840KMKG MKG20010804114509308/04/01 11:45:31  5-MIN KMKG 041645Z VRB06KT 10SM CLR 29/15 A3008 490 42 2200 VRB/06 RMK AO2
14840KMKG MKG20010804115011008/04/01 11:50:31  5-MIN KMKG 041650Z 03007KT 10SM CLR 29/15 A3008 490 42 2200 040/07 RMK AO2 SLP181 T02890150
14840KMKG MKG20010804115511008/04/01 11:55:31  5-MIN KMKG 041655Z 01006KT 10SM CLR 29/14 A3007 490 40 2200 020/06 RMK AO2 SLP180 T02890144
14840KMKG MKG20010804120009308/04/01 12:00:31  5-MIN KMKG 041700Z 03006KT 10SM CLR 29/14 A3007 490 40 2200 030/06 RMK AO2
14840KMKG MKG20010804120509308/04/01 12:05:31  5-MIN KMKG 041705Z VRB04KT 10SM CLR 29/14 A3007 490 40 2200 VRB/04 RMK AO2
14840KMKG MKG20010804121009308/04/01 12:10:31  5-MIN KMKG 041710Z 05008KT 10SM CLR 29/14 A3007 490 40 2200 050/08 RMK AO2
14840KMKG MKG20010804121509308/04/01 12:15:31  5-MIN KMKG 041715Z 03006KT 10SM CLR 29/14 A3007 490 39 2200 040/06 RMK AO2
14840KMKG MKG20010804122009308/04/01 12:20:31  5-MIN KMKG 041720Z VRB04KT 10SM CLR 29/14 A3007 490 39 2200 VRB/04 RMK AO2
14840KMKG MKG20010804122509308/04/01 12:25:31  5-MIN KMKG 041725Z VRB05KT 10SM CLR 29/14 A3007 490 39 2200 VRB/05 RMK AO2
14840KMKG MKG20010804123009308/04/01 12:30:31  5-MIN KMKG 041730Z VRB05KT 10SM CLR 29/14 A3007 490 38 2300 VRB/05 RMK AO2
14840KMKG MKG20010804123509308/04/01 12:35:31  5-MIN KMKG 041735Z 02005KT 10SM CLR 29/14 A3007 490 38 2300 030/05 RMK AO2
14840KMKG MKG20010804124009308/04/01 12:40:31  5-MIN KMKG 041740Z 01007KT 10SM CLR 29/14 A3007 490 38 2300 020/07 RMK AO2
14840KMKG MKG20010804124509308/04/01 12:45:31  5-MIN KMKG 041745Z 03009KT 10SM CLR 31/13 A3007 500 34 2400 040/09 RMK AO2
14840KMKG MKG20010804125012808/04/01 12:50:31  5-MIN KMKG 041750Z VRB06KT 10SM CLR 30/14 A3006 500 36 2400 VRB/06 RMK AO2 SLP176 T03000139 10306 20183 50000
14840KMKG MKG20010804125514408/04/01 12:55:31  5-MIN KMKG 041755Z 24007KT 180V280 10SM CLR 30/17 A3006 500 44 2400 250/07 180V280 RMK AO2 SLP176 T03000167 10306 20183 58005
14840KMKG MKG20010804130009308/04/01 13:00:31  5-MIN KMKG 041800Z 28008KT 10SM CLR 28/17 A3006 500 50 2200 280/08 RMK AO2
14840KMKG MKG20010804130509308/04/01 13:05:31  5-MIN KMKG 041805Z 27007KT 10SM CLR 29/18 A3006 500 50 2200 270/07 RMK AO2
14840KMKG MKG20010804131009308/04/01 13:10:31  5-MIN KMKG 041810Z 26007KT 10SM CLR 28/17 A3006 500 50 2200 270/07 RMK AO2
14840KMKG MKG20010804131509308/04/01 13:15:31  5-MIN KMKG 041815Z 26007KT 10SM CLR 28/17 A3006 500 50 2200 260/07 RMK AO2
14840KMKG MKG20010804132009308/04/01 13:20:31  5-MIN KMKG 041820Z 26007KT 10SM CLR 28/17 A3006 500 50 2200 260/07 RMK AO2
14840KMKG MKG20010804132509308/04/01 13:25:31  5-MIN KMKG 041825Z 26008KT 10SM CLR 28/17 A3006 500 50 2200 270/08 RMK AO2
14840KMKG MKG20010804133009308/04/01 13:30:31  5-MIN KMKG 041830Z 27008KT 10SM CLR 28/17 A3006 500 50 2200 280/08 RMK AO2
14840KMKG MKG20010804133509308/04/01 13:35:31  5-MIN KMKG 041835Z 27007KT 10SM CLR 28/17 A3006 510 50 2200 270/07 RMK AO2
14840KMKG MKG20010804134009308/04/01 13:40:31  5-MIN KMKG 041840Z 27009KT 10SM CLR 28/17 A3005 510 50 2100 270/09 RMK AO2
14840KMKG MKG20010804134509308/04/01 13:45:31  5-MIN KMKG 041845Z 27008KT 10SM CLR 28/17 A3005 510 48 2200 270/08 RMK AO2
14840KMKG MKG20010804135011008/04/01 13:50:31  5-MIN KMKG 041850Z 29008KT 10SM CLR 29/17 A3006 500 48 2300 290/08 RMK AO2 SLP175 T02890172
14840KMKG MKG20010804135511008/04/01 13:55:31  5-MIN KMKG 041855Z 29008KT 10SM CLR 28/17 A3006 510 50 2200 290/08 RMK AO2 SLP174 T02830172
14840KMKG MKG20010804140009308/04/01 14:00:31  5-MIN KMKG 041900Z 30010KT 10SM CLR 28/17 A3006 510 48 2200 300/10 RMK AO2
14840KMKG MKG20010804140509308/04/01 14:05:31  5-MIN KMKG 041905Z 29009KT 10SM CLR 28/17 A3006 510 50 2200 290/09 RMK AO2
14840KMKG MKG20010804141009308/04/01 14:10:31  5-MIN KMKG 041910Z 29010KT 10SM CLR 28/17 A3006 500 50 2200 290/10 RMK AO2
14840KMKG MKG20010804141509308/04/01 14:15:31  5-MIN KMKG 041915Z 26008KT 10SM CLR 28/17 A3005 510 50 2200 270/08 RMK AO2
14840KMKG MKG20010804142009308/04/01 14:20:31  5-MIN KMKG 041920Z 29008KT 10SM CLR 28/17 A3005 510 50 2200 290/08 RMK AO2
14840KMKG MKG20010804142509308/04/01 14:25:31  5-MIN KMKG 041925Z 28009KT 10SM CLR 28/17 A3005 510 48 2200 280/09 RMK AO2
14840KMKG MKG20010804143009308/04/01 14:30:31  5-MIN KMKG 041930Z 27009KT 10SM CLR 28/16 A3005 510 48 2100 270/09 RMK AO2
14840KMKG MKG20010804143509308/04/01 14:35:31  5-MIN KMKG 041935Z 28008KT 10SM CLR 28/16 A3005 510 46 2100 280/08 RMK AO2
14840KMKG MKG20010804144009308/04/01 14:40:31  5-MIN KMKG 041940Z 28009KT 10SM CLR 28/16 A3005 510 46 2100 280/09 RMK AO2
14840KMKG MKG20010804144509308/04/01 14:45:31  5-MIN KMKG 041945Z 28008KT 10SM CLR 28/16 A3005 510 47 2200 290/08 RMK AO2
14840KMKG MKG20010804145011008/04/01 14:50:31  5-MIN KMKG 041950Z 27009KT 10SM CLR 28/16 A3005 510 47 2200 280/09 RMK AO2 SLP173 T02830161
14840KMKG MKG20010804145511008/04/01 14:55:31  5-MIN KMKG 041955Z 28007KT 10SM CLR 28/17 A3005 510 50 2100 280/07 RMK AO2 SLP174 T02780167
14840KMKG MKG20010804150009308/04/01 15:00:31  5-MIN KMKG 042000Z 26008KT 10SM CLR 28/17 A3005 510 50 2100 260/08 RMK AO2
14840KMKG MKG20010804150509308/04/01 15:05:31  5-MIN KMKG 042005Z 28007KT 10SM CLR 28/17 A3005 510 48 2200 280/07 RMK AO2
14840KMKG MKG20010804151009308/04/01 15:10:31  5-MIN KMKG 042010Z 30009KT 10SM CLR 28/17 A3005 510 48 2200 300/09 RMK AO2
14840KMKG MKG20010804151509308/04/01 15:15:31  5-MIN KMKG 042015Z 28008KT 10SM CLR 28/17 A3006 500 48 2200 280/08 RMK AO2
14840KMKG MKG20010804152009308/04/01 15:20:31  5-MIN KMKG 042020Z 28009KT 10SM CLR 28/16 A3006 500 47 2200 280/09 RMK AO2
14840KMKG MKG20010804152509308/04/01 15:25:31  5-MIN KMKG 042025Z 27009KT 10SM CLR 28/16 A3006 500 48 2100 280/09 RMK AO2
14840KMKG MKG20010804153009308/04/01 15:30:31  5-MIN KMKG 042030Z 27010KT 10SM CLR 28/15 A3006 500 45 2100 270/10 RMK AO2
14840KMKG MKG20010804153509308/04/01 15:35:31  5-MIN KMKG 042035Z 29010KT 10SM CLR 28/15 A3006 500 45 2100 290/10 RMK AO2
14840KMKG MKG20010804154009308/04/01 15:40:31  5-MIN KMKG 042040Z 29008KT 10SM CLR 28/15 A3006 510 45 2100 290/08 RMK AO2
14840KMKG MKG20010804154509308/04/01 15:45:31  5-MIN KMKG 042045Z 28008KT 10SM CLR 28/16 A3005 510 46 2100 280/08 RMK AO2
14840KMKG MKG20010804155011608/04/01 15:50:31  5-MIN KMKG 042050Z 29010KT 10SM CLR 28/16 A3006 510 46 2100 300/10 RMK AO2 SLP174 T02780156 58005
14840KMKG MKG20010804155511608/04/01 15:55:31  5-MIN KMKG 042055Z 29010KT 10SM CLR 28/16 A3006 510 46 2100 290/10 RMK AO2 SLP174 T02780156 55002
14840KMKG MKG20010804160009308/04/01 16:00:31  5-MIN KMKG 042100Z 28009KT 10SM CLR 28/16 A3006 510 46 2100 280/09 RMK AO2
14840KMKG MKG20010804160509308/04/01 16:05:31  5-MIN KMKG 042105Z 28009KT 10SM CLR 28/16 A3005 510 48 2100 290/09 RMK AO2
14840KMKG MKG20010804161009308/04/01 16:10:31  5-MIN KMKG 042110Z 30008KT 10SM CLR 28/16 A3005 510 48 2100 310/08 RMK AO2
14840KMKG MKG20010804161509308/04/01 16:15:31  5-MIN KMKG 042115Z 31009KT 10SM CLR 27/16 A3005 510 50 2100 310/09 RMK AO2
14840KMKG MKG20010804162009308/04/01 16:20:31  5-MIN KMKG 042120Z 29009KT 10SM CLR 28/16 A3005 510 48 2100 300/09 RMK AO2
14840KMKG MKG20010804162509308/04/01 16:25:31  5-MIN KMKG 042125Z 30009KT 10SM CLR 27/16 A3005 510 50 2100 300/09 RMK AO2
14840KMKG MKG20010804163009308/04/01 16:30:31  5-MIN KMKG 042130Z 30009KT 10SM CLR 27/16 A3005 510 52 2000 300/09 RMK AO2
14840KMKG MKG20010804163509308/04/01 16:35:31  5-MIN KMKG 042135Z 31008KT 10SM CLR 27/16 A3005 510 50 2100 310/08 RMK AO2
14840KMKG MKG20010804164009308/04/01 16:40:31  5-MIN KMKG 042140Z 31009KT 10SM CLR 27/16 A3005 510 52 2000 310/09 RMK AO2
14840KMKG MKG20010804164509308/04/01 16:45:31  5-MIN KMKG 042145Z 30008KT 10SM CLR 27/16 A3005 510 50 2100 300/08 RMK AO2
14840KMKG MKG20010804165011008/04/01 16:50:31  5-MIN KMKG 042150Z 28007KT 10SM CLR 27/16 A3005 510 50 2000 280/07 RMK AO2 SLP172 T02670156
14840KMKG MKG20010804165511008/04/01 16:55:31  5-MIN KMKG 042155Z 30008KT 10SM CLR 27/16 A3005 510 48 2100 300/08 RMK AO2 SLP172 T02720156
14840KMKG MKG20010804170009308/04/01 17:00:31  5-MIN KMKG 042200Z 29010KT 10SM CLR 27/16 A3005 510 48 2100 300/10 RMK AO2
14840KMKG MKG20010804170509308/04/01 17:05:31  5-MIN KMKG 042205Z 28008KT 10SM CLR 27/16 A3005 510 50 2000 290/08 RMK AO2
14840KMKG MKG20010804171009308/04/01 17:10:31  5-MIN KMKG 042210Z 30009KT 10SM CLR 27/16 A3005 510 50 2100 310/09 RMK AO2
14840KMKG MKG20010804171509308/04/01 17:15:31  5-MIN KMKG 042215Z 30010KT 10SM CLR 27/16 A3005 510 52 2000 310/10 RMK AO2
14840KMKG MKG20010804172009308/04/01 17:20:31  5-MIN KMKG 042220Z 29008KT 10SM CLR 27/16 A3005 510 52 2000 300/08 RMK AO2
14840KMKG MKG20010804172509308/04/01 17:25:31  5-MIN KMKG 042225Z 30008KT 10SM CLR 27/17 A3005 510 53 2000 310/08 RMK AO2
14840KMKG MKG20010804173009308/04/01 17:30:31  5-MIN KMKG 042230Z 29009KT 10SM CLR 27/16 A3005 510 52 2000 290/09 RMK AO2
14840KMKG MKG20010804173509308/04/01 17:35:31  5-MIN KMKG 042235Z 31008KT 10SM CLR 27/16 A3005 510 52 2000 310/08 RMK AO2
14840KMKG MKG20010804174009308/04/01 17:40:31  5-MIN KMKG 042240Z 31007KT 10SM CLR 27/16 A3005 510 52 2000 310/07 RMK AO2
14840KMKG MKG20010804174509308/04/01 17:45:31  5-MIN KMKG 042245Z 30007KT 10SM CLR 27/16 A3005 510 52 2000 310/07 RMK AO2
14840KMKG MKG20010804175011008/04/01 17:50:31  5-MIN KMKG 042250Z 30008KT 10SM CLR 27/16 A3005 510 52 2000 300/08 RMK AO2 SLP172 T02670161
14840KMKG MKG20010804175511008/04/01 17:55:31  5-MIN KMKG 042255Z 30007KT 10SM CLR 27/16 A3005 510 52 2000 300/07 RMK AO2 SLP172 T02670161
14840KMKG MKG20010804180009308/04/01 18:00:31  5-MIN KMKG 042300Z 32008KT 10SM CLR 27/16 A3005 510 52 2000 320/08 RMK AO2
14840KMKG MKG20010804180509308/04/01 18:05:31  5-MIN KMKG 042305Z 30008KT 10SM CLR 27/16 A3004 520 52 2000 310/08 RMK AO2
14840KMKG MKG20010804181009308/04/01 18:10:31  5-MIN KMKG 042310Z 30008KT 10SM CLR 26/16 A3004 520 53 2000 310/08 RMK AO2
14840KMKG MKG20010804181509308/04/01 18:15:31  5-MIN KMKG 042315Z 32007KT 10SM CLR 26/16 A3004 520 53 2000 320/07 RMK AO2
14840KMKG MKG20010804182009308/04/01 18:20:31  5-MIN KMKG 042320Z 31008KT 10SM CLR 26/16 A3004 520 53 2000 320/08 RMK AO2
14840KMKG MKG20010804182509308/04/01 18:25:31  5-MIN KMKG 042325Z 31008KT 10SM CLR 26/16 A3004 520 51 2000 310/08 RMK AO2
14840KMKG MKG20010804183009308/04/01 18:30:31  5-MIN KMKG 042330Z 30008KT 10SM CLR 26/16 A3004 520 51 2000 300/08 RMK AO2
14840KMKG MKG20010804183509308/04/01 18:35:31  5-MIN KMKG 042335Z 31008KT 10SM CLR 26/16 A3004 520 51 2000 310/08 RMK AO2
14840KMKG MKG20010804184009308/04/01 18:40:31  5-MIN KMKG 042340Z 30008KT 10SM CLR 26/16 A3004 520 51 2000 300/08 RMK AO2
14840KMKG MKG20010804184509308/04/01 18:45:31  5-MIN KMKG 042345Z 31007KT 10SM CLR 26/16 A3004 520 53 1900 320/07 RMK AO2
14840KMKG MKG20010804185012808/04/01 18:50:31  5-MIN KMKG 042350Z 31008KT 10SM CLR 26/16 A3004 520 53 1900 310/08 RMK AO2 SLP169 T02560156 10294 20256 55002
14840KMKG MKG20010804185512808/04/01 18:55:31  5-MIN KMKG 042355Z 30006KT 10SM CLR 26/16 A3004 520 53 1900 310/06 RMK AO2 SLP169 T02560156 10294 20256 58005
14840KMKG MKG20010804190009308/04/01 19:00:31  5-MIN KMKG 050000Z 30006KT 10SM CLR 26/16 A3004 520 55 1900 310/06 RMK AO2
14840KMKG MKG20010804190509308/04/01 19:05:31  5-MIN KMKG 050005Z 30005KT 10SM CLR 26/16 A3004 520 55 1900 310/05 RMK AO2
14840KMKG MKG20010804191009308/04/01 19:10:31  5-MIN KMKG 050010Z 31005KT 10SM CLR 25/16 A3004 520 57 1800 320/05 RMK AO2
14840KMKG MKG20010804191509308/04/01 19:15:31  5-MIN KMKG 050015Z 32006KT 10SM CLR 25/17 A3004 520 59 1800 320/06 RMK AO2
14840KMKG MKG20010804192009308/04/01 19:20:31  5-MIN KMKG 050020Z 32006KT 10SM CLR 25/17 A3004 520 59 1800 320/06 RMK AO2
14840KMKG MKG20010804192509308/04/01 19:25:31  5-MIN KMKG 050025Z 34007KT 10SM CLR 25/16 A3004 520 57 1800 340/07 RMK AO2
14840KMKG MKG20010804193009308/04/01 19:30:31  5-MIN KMKG 050030Z 33009KT 10SM CLR 25/16 A3004 520 55 1800 330/09 RMK AO2
14840KMKG MKG20010804193509308/04/01 19:35:31  5-MIN KMKG 050035Z 33006KT 10SM CLR 25/16 A3004 520 55 1800 330/06 RMK AO2
14840KMKG MKG20010804194009308/04/01 19:40:31  5-MIN KMKG 050040Z 33006KT 10SM CLR 25/16 A3004 520 55 1800 330/06 RMK AO2
14840KMKG MKG20010804194509308/04/01 19:45:31  5-MIN KMKG 050045Z 33007KT 10SM CLR 24/16 A3005 510 59 1800 340/07 RMK AO2
14840KMKG MKG20010804195011008/04/01 19:50:31  5-MIN KMKG 050050Z 34007KT 10SM CLR 24/16 A3005 510 59 1800 340/07 RMK AO2 SLP172 T02440161
14840KMKG MKG20010804195511008/04/01 19:55:31  5-MIN KMKG 050055Z 33006KT 10SM CLR 24/16 A3004 520 59 1800 340/06 RMK AO2 SLP171 T02440161
14840KMKG MKG20010804200009308/04/01 20:00:31  5-MIN KMKG 050100Z 34005KT 10SM CLR 24/16 A3004 520 61 1700 340/05 RMK AO2
14840KMKG MKG20010804200509308/04/01 20:05:31  5-MIN KMKG 050105Z 35004KT 10SM CLR 24/16 A3004 520 61 1700 360/04 RMK AO2
14840KMKG MKG20010804201009308/04/01 20:10:31  5-MIN KMKG 050110Z 33005KT 10SM CLR 23/16 A3004 520 63 1600 340/05 RMK AO2
14840KMKG MKG20010804201509308/04/01 20:15:31  5-MIN KMKG 050115Z 34005KT 10SM CLR 23/16 A3004 520 63 1600 340/05 RMK AO2
14840KMKG MKG20010804202009308/04/01 20:20:31  5-MIN KMKG 050120Z 34006KT 10SM CLR 23/16 A3005 510 63 1600 340/06 RMK AO2
14840KMKG MKG20010804202509308/04/01 20:25:31  5-MIN KMKG 050125Z 35005KT 10SM CLR 23/16 A3005 510 63 1600 360/05 RMK AO2
14840KMKG MKG20010804203009308/04/01 20:30:31  5-MIN KMKG 050130Z 01005KT 10SM CLR 23/16 A3005 510 63 1600 010/05 RMK AO2
14840KMKG MKG20010804203509308/04/01 20:35:31  5-MIN KMKG 050135Z 01004KT 10SM CLR 23/16 A3005 510 63 1600 010/04 RMK AO2
14840KMKG MKG20010804204009308/04/01 20:40:31  5-MIN KMKG 050140Z 01003KT 10SM CLR 23/16 A3004 520 63 1600 010/03 RMK AO2
14840KMKG MKG20010804204509308/04/01 20:45:31  5-MIN KMKG 050145Z 02003KT 10SM CLR 23/16 A3004 520 65 1600 020/03 RMK AO2
14840KMKG MKG20010804205011008/04/01 20:50:31  5-MIN KMKG 050150Z 01004KT 10SM CLR 23/16 A3005 510 65 1600 020/04 RMK AO2 SLP172 T02280161
14840KMKG MKG20010804205511008/04/01 20:55:31  5-MIN KMKG 050155Z 02003KT 10SM CLR 23/16 A3005 510 65 1600 020/03 RMK AO2 SLP172 T02280161
14840KMKG MKG20010804210009308/04/01 21:00:31  5-MIN KMKG 050200Z 01003KT 10SM CLR 23/16 A3005 510 63 1600 010/03 RMK AO2
14840KMKG MKG20010804210509308/04/01 21:05:31  5-MIN KMKG 050205Z 01003KT 10SM CLR 23/16 A3005 510 63 1600 020/03 RMK AO2
14840KMKG MKG20010804211009308/04/01 21:10:31  5-MIN KMKG 050210Z 03003KT 10SM CLR 23/16 A3005 510 65 1600 030/03 RMK AO2
14840KMKG MKG20010804211509308/04/01 21:15:31  5-MIN KMKG 050215Z 00000KT 10SM CLR 23/16 A3005 510 65 1600 000/00 RMK AO2
14840KMKG MKG20010804212009308/04/01 21:20:31  5-MIN KMKG 050220Z 00000KT 10SM CLR 23/16 A3005 510 65 1600 000/00 RMK AO2
14840KMKG MKG20010804212509308/04/01 21:25:31  5-MIN KMKG 050225Z 00000KT 10SM CLR 23/16 A3006 500 65 1600 000/00 RMK AO2
14840KMKG MKG20010804213009308/04/01 21:30:31  5-MIN KMKG 050230Z 00000KT 10SM CLR 22/16 A3006 510 70 1400 000/00 RMK AO2
14840KMKG MKG20010804213509308/04/01 21:35:31  5-MIN KMKG 050235Z 00000KT 10SM CLR 22/16 A3006 500 70 1400 000/00 RMK AO2
14840KMKG MKG20010804214009308/04/01 21:40:31  5-MIN KMKG 050240Z 00000KT 10SM CLR 22/16 A3006 500 70 1400 000/00 RMK AO2
14840KMKG MKG20010804214509308/04/01 21:45:31  5-MIN KMKG 050245Z 00000KT 10SM CLR 21/16 A3006 500 70 1400 000/00 RMK AO2
14840KMKG MKG20010804215011608/04/01 21:50:31  5-MIN KMKG 050250Z 00000KT 10SM CLR 21/17 A3006 500 75 1400 000/00 RMK AO2 SLP176 T02110167 58005
14840KMKG MKG20010804215511608/04/01 21:55:31  5-MIN KMKG 050255Z 00000KT 10SM CLR 21/17 A3006 500 78 1300 000/00 RMK AO2 SLP176 T02060167 53007
14840KMKG MKG20010804220009308/04/01 22:00:31  5-MIN KMKG 050300Z 00000KT 10SM CLR 21/17 A3006 500 78 1300 000/00 RMK AO2
14840KMKG MKG20010804220509308/04/01 22:05:31  5-MIN KMKG 050305Z 00000KT 10SM CLR 21/17 A3006 500 78 1300 000/00 RMK AO2
14840KMKG MKG20010804221009308/04/01 22:10:31  5-MIN KMKG 050310Z 00000KT 10SM CLR 21/16 A3006 500 73 1400 000/00 RMK AO2
14840KMKG MKG20010804221509308/04/01 22:15:31  5-MIN KMKG 050315Z 00000KT 10SM CLR 21/16 A3006 500 75 1300 000/00 RMK AO2
14840KMKG MKG20010804222009308/04/01 22:20:31  5-MIN KMKG 050320Z 00000KT 10SM CLR 21/16 A3006 500 75 1300 000/00 RMK AO2
14840KMKG MKG20010804222509308/04/01 22:25:31  5-MIN KMKG 050325Z 00000KT 10SM CLR 20/16 A3006 500 78 1200 000/00 RMK AO2
14840KMKG MKG20010804223009308/04/01 22:30:31  5-MIN KMKG 050330Z 00000KT 10SM CLR 20/16 A3006 500 78 1200 000/00 RMK AO2
14840KMKG MKG20010804223509308/04/01 22:35:31  5-MIN KMKG 050335Z 00000KT 10SM CLR 20/16 A3007 500 78 1200 000/00 RMK AO2
14840KMKG MKG20010804224009308/04/01 22:40:31  5-MIN KMKG 050340Z 00000KT 10SM CLR 20/16 A3007 500 78 1200 000/00 RMK AO2
14840KMKG MKG20010804224509308/04/01 22:45:31  5-MIN KMKG 050345Z 00000KT 10SM CLR 20/16 A3007 500 78 1200 000/00 RMK AO2
14840KMKG MKG20010804225011008/04/01 22:50:31  5-MIN KMKG 050350Z 00000KT 10SM CLR 20/16 A3007 490 78 1200 000/00 RMK AO2 SLP179 T02000161
14840KMKG MKG20010804225511008/04/01 22:55:31  5-MIN KMKG 050355Z 00000KT 10SM CLR 20/16 A3007 490 78 1200 000/00 RMK AO2 SLP178 T02000161
14840KMKG MKG20010804230009308/04/01 23:00:31  5-MIN KMKG 050400Z 00000KT 10SM CLR 20/16 A3007 500 78 1200 000/00 RMK AO2
14840KMKG MKG20010804230509308/04/01 23:05:31  5-MIN KMKG 050405Z 00000KT 10SM CLR 20/16 A3007 500 78 1200 000/00 RMK AO2
14840KMKG MKG20010804231009308/04/01 23:10:31  5-MIN KMKG 050410Z 00000KT 10SM CLR 19/16 A3007 500 81 1200 000/00 RMK AO2
14840KMKG MKG20010804231509308/04/01 23:15:31  5-MIN KMKG 050415Z 00000KT 10SM CLR 19/17 A3007 490 87 1100 000/00 RMK AO2
14840KMKG MKG20010804232009308/04/01 23:20:31  5-MIN KMKG 050420Z 00000KT 10SM CLR 19/16 A3008 490 84 1100 000/00 RMK AO2
14840KMKG MKG20010804232509308/04/01 23:25:31  5-MIN KMKG 050425Z 00000KT 10SM CLR 19/16 A3008 480 84 1100 000/00 RMK AO2
14840KMKG MKG20010804233009308/04/01 23:30:31  5-MIN KMKG 050430Z 00000KT 10SM CLR 19/16 A3008 480 84 1100 000/00 RMK AO2
14840KMKG MKG20010804233509308/04/01 23:35:31  5-MIN KMKG 050435Z 00000KT 10SM CLR 19/16 A3008 480 84 1100 000/00 RMK AO2
14840KMKG MKG20010804234009308/04/01 23:40:31  5-MIN KMKG 050440Z 00000KT 10SM CLR 19/16 A3008 480 84 1100 000/00 RMK AO2
14840KMKG MKG20010804234509308/04/01 23:45:31  5-MIN KMKG 050445Z 00000KT 10SM CLR 19/16 A3008 480 81 1200 000/00 RMK AO2
14840KMKG MKG20010804235012008/04/01 23:50:31  5-MIN KMKG 050450Z 00000KT 10SM CLR 19/17 A3008 480 87 1200 000/00 RMK AO2 SLP183 T01940172 403060156
14840KMKG MKG20010804235512008/04/01 23:55:31  5-MIN KMKG 050455Z 00000KT 10SM CLR 20/17 A3009 480 84 1200 000/00 RMK AO2 SLP184 T02000172 403060156
14840KMKG MKG20010805000009308/05/01 00:00:31  5-MIN KMKG 050500Z 00000KT 10SM CLR 19/17 A3009 480 90 1100 000/00 RMK AO2
14840KMKG MKG20010805000509308/05/01 00:05:31  5-MIN KMKG 050505Z 13003KT 10SM CLR 19/16 A3009 480 81 1100 130/03 RMK AO2
14840KMKG MKG20010805001009308/05/01 00:10:31  5-MIN KMKG 050510Z 00000KT 10SM CLR 19/16 A3009 470 84 1100 000/00 RMK AO2
14840KMKG MKG20010805001509308/05/01 00:15:31  5-MIN KMKG 050515Z 00000KT 10SM CLR 19/16 A3009 470 81 1100 000/00 RMK AO2
14840KMKG MKG20010805002009308/05/01 00:20:31  5-MIN KMKG 050520Z 00000KT 10SM CLR 18/16 A3009 470 84 1000 000/00 RMK AO2
14840KMKG MKG20010805002509308/05/01 00:25:31  5-MIN KMKG 050525Z 00000KT 10SM CLR 19/16 A3009 470 84 1100 000/00 RMK AO2
14840KMKG MKG20010805003009308/05/01 00:30:31  5-MIN KMKG 050530Z 00000KT 10SM CLR 19/16 A3009 470 84 1100 000/00 RMK AO2
14840KMKG MKG20010805003509308/05/01 00:35:31  5-MIN KMKG 050535Z 12003KT 10SM CLR 19/16 A3009 470 84 1100 130/03 RMK AO2
14840KMKG MKG20010805004009308/05/01 00:40:31  5-MIN KMKG 050540Z 00000KT 10SM CLR 19/16 A3009 470 84 1100 000/00 RMK AO2
14840KMKG MKG20010805004509208/05/01 00:45:31  5-MIN KMKG 050545Z 00000KT 10SM CLR 18/16 A3010 470 87 900 000/00 RMK AO2
14840KMKG MKG20010805005012808/05/01 00:50:31  5-MIN KMKG 050550Z 00000KT 10SM CLR 19/16 A3010 470 84 1100 000/00 RMK AO2 SLP187 T01890161 10256 20178 53007
14840KMKG MKG20010805005512808/05/01 00:55:31  5-MIN KMKG 050555Z 00000KT 10SM CLR 18/16 A3010 470 84 1000 000/00 RMK AO2 SLP188 T01830156 10256 20178 53013
14840KMKG MKG20010805010009308/05/01 01:00:31  5-MIN KMKG 050600Z 00000KT 10SM CLR 19/16 A3010 470 84 1100 000/00 RMK AO2
14840KMKG MKG20010805010509308/05/01 01:05:31  5-MIN KMKG 050605Z 00000KT 10SM CLR 19/16 A3010 460 84 1100 000/00 RMK AO2
14840KMKG MKG20010805011009208/05/01 01:10:31  5-MIN KMKG 050610Z 00000KT 10SM CLR 18/16 A3010 460 87 900 000/00 RMK AO2
14840KMKG MKG20010805011509208/05/01 01:15:31  5-MIN KMKG 050615Z 00000KT 10SM CLR 18/16 A3010 460 90 900 000/00 RMK AO2
14840KMKG MKG20010805012009208/05/01 01:20:31  5-MIN KMKG 050620Z 00000KT 10SM CLR 18/16 A3010 460 90 900 000/00 RMK AO2
14840KMKG MKG20010805012509208/05/01 01:25:31  5-MIN KMKG 050625Z 00000KT 10SM CLR 17/16 A3010 460 90 900 000/00 RMK AO2
14840KMKG MKG20010805013009208/05/01 01:30:31  5-MIN KMKG 050630Z 00000KT 10SM CLR 18/16 A3010 460 87 900 000/00 RMK AO2
14840KMKG MKG20010805013509208/05/01 01:35:31  5-MIN KMKG 050635Z 00000KT 10SM CLR 18/16 A3010 460 87 900 000/00 RMK AO2
14840KMKG MKG20010805014009208/05/01 01:40:31  5-MIN KMKG 050640Z 00000KT 10SM CLR 17/16 A3010 460 90 900 000/00 RMK AO2
14840KMKG MKG20010805014509208/05/01 01:45:31  5-MIN KMKG 050645Z 00000KT 10SM CLR 18/16 A3011 460 87 900 000/00 RMK AO2
14840KMKG MKG20010805015010908/05/01 01:50:31  5-MIN KMKG 050650Z 00000KT 10SM CLR 17/16 A3011 460 90 900 000/00 RMK AO2 SLP192 T01720156
14840KMKG MKG20010805015510908/05/01 01:55:31  5-MIN KMKG 050655Z 00000KT 10SM CLR 17/16 A3011 460 90 900 000/00 RMK AO2 SLP192 T01720156
14840KMKG MKG20010805020009208/05/01 02:00:31  5-MIN KMKG 050700Z 00000KT 10SM CLR 17/16 A3011 460 90 900 000/00 RMK AO2
14840KMKG MKG20010805020509208/05/01 02:05:31  5-MIN KMKG 050705Z 00000KT 10SM CLR 18/16 A3011 460 87 900 000/00 RMK AO2
14840KMKG MKG20010805021009208/05/01 02:10:31  5-MIN KMKG 050710Z 00000KT 10SM CLR 18/16 A3011 460 87 900 000/00 RMK AO2
14840KMKG MKG20010805021509308/05/01 02:15:31  5-MIN KMKG 050715Z 00000KT 10SM CLR 18/16 A3011 460 84 1000 000/00 RMK AO2
14840KMKG MKG20010805022009208/05/01 02:20:31  5-MIN KMKG 050720Z 00000KT 10SM CLR 18/16 A3011 460 87 900 000/00 RMK AO2
14840KMKG MKG20010805022509208/05/01 02:25:31  5-MIN KMKG 050725Z 00000KT 10SM CLR 18/16 A3010 460 87 900 000/00 RMK AO2
14840KMKG MKG20010805023009208/05/01 02:30:31  5-MIN KMKG 050730Z 00000KT 10SM CLR 18/16 A3010 460 87 900 000/00 RMK AO2
14840KMKG MKG20010805023509208/05/01 02:35:31  5-MIN KMKG 050735Z 00000KT 10SM CLR 17/16 A3010 460 90 900 000/00 RMK AO2
14840KMKG MKG20010805024009208/05/01 02:40:31  5-MIN KMKG 050740Z 00000KT 10SM CLR 17/16 A3010 460 90 900 000/00 RMK AO2
14840KMKG MKG20010805024509208/05/01 02:45:31  5-MIN KMKG 050745Z 00000KT 10SM CLR 17/16 A3010 460 90 900 000/00 RMK AO2
14840KMKG MKG20010805025010908/05/01 02:50:31  5-MIN KMKG 050750Z 00000KT 10SM CLR 17/16 A3010 470 90 900 000/00 RMK AO2 SLP189 T01720156
14840KMKG MKG20010805025510908/05/01 02:55:31  5-MIN KMKG 050755Z 00000KT 10SM CLR 17/15 A3010 470 90 800 000/00 RMK AO2 SLP189 T01670150
14840KMKG MKG20010805030009208/05/01 03:00:31  5-MIN KMKG 050800Z 00000KT 10SM CLR 17/16 A3010 470 90 900 000/00 RMK AO2
14840KMKG MKG20010805030509208/05/01 03:05:31  5-MIN KMKG 050805Z 00000KT 10SM CLR 17/16 A3010 470 93 800 000/00 RMK AO2
14840KMKG MKG20010805031009208/05/01 03:10:31  5-MIN KMKG 050810Z 00000KT 10SM CLR 17/15 A3010 470 90 800 000/00 RMK AO2
14840KMKG MKG20010805031509208/05/01 03:15:31  5-MIN KMKG 050815Z 00000KT 10SM CLR 17/15 A3010 470 90 800 000/00 RMK AO2
14840KMKG MKG20010805032009208/05/01 03:20:31  5-MIN KMKG 050820Z 00000KT 10SM CLR 17/15 A3010 460 90 800 000/00 RMK AO2
14840KMKG MKG20010805032509208/05/01 03:25:31  5-MIN KMKG 050825Z 00000KT 10SM CLR 17/15 A3010 470 90 800 000/00 RMK AO2
14840KMKG MKG20010805033009208/05/01 03:30:31  5-MIN KMKG 050830Z 00000KT 10SM CLR 17/15 A3010 470 90 800 000/00 RMK AO2
14840KMKG MKG20010805033509208/05/01 03:35:31  5-MIN KMKG 050835Z 00000KT 10SM CLR 16/14 A3010 470 90 700 000/00 RMK AO2
14840KMKG MKG20010805034009208/05/01 03:40:31  5-MIN KMKG 050840Z 00000KT 10SM CLR 17/15 A3009 470 90 800 000/00 RMK AO2
14840KMKG MKG20010805034509208/05/01 03:45:31  5-MIN KMKG 050845Z 00000KT 10SM CLR 16/15 A3010 470 93 700 000/00 RMK AO2
14840KMKG MKG20010805035011508/05/01 03:50:31  5-MIN KMKG 050850Z 00000KT 10SM CLR 17/15 A3010 470 90 800 000/00 RMK AO2 SLP189 T01670150 53013
14840KMKG MKG20010805035511508/05/01 03:55:31  5-MIN KMKG 050855Z 00000KT 10SM CLR 16/15 A3010 470 93 700 000/00 RMK AO2 SLP189 T01610150 51000
14840KMKG MKG20010805040009208/05/01 04:00:31  5-MIN KMKG 050900Z 00000KT 10SM CLR 17/15 A3010 460 90 800 000/00 RMK AO2
14840KMKG MKG20010805040509208/05/01 04:05:31  5-MIN KMKG 050905Z 00000KT 10SM CLR 17/15 A3010 460 90 800 000/00 RMK AO2
14840KMKG MKG20010805041009208/05/01 04:10:31  5-MIN KMKG 050910Z 00000KT 10SM CLR 17/15 A3010 460 90 800 000/00 RMK AO2
14840KMKG MKG20010805041509208/05/01 04:15:31  5-MIN KMKG 050915Z 00000KT 10SM CLR 17/15 A3010 460 90 800 000/00 RMK AO2
14840KMKG MKG20010805042009208/05/01 04:20:31  5-MIN KMKG 050920Z 00000KT 10SM CLR 17/15 A3010 460 90 800 000/00 RMK AO2
14840KMKG MKG20010805042509208/05/01 04:25:31  5-MIN KMKG 050925Z 00000KT 10SM CLR 17/15 A3011 460 90 800 000/00 RMK AO2
14840KMKG MKG20010805043009208/05/01 04:30:31  5-MIN KMKG 050930Z 00000KT 10SM CLR 17/15 A3010 460 90 800 000/00 RMK AO2
14840KMKG MKG20010805043509208/05/01 04:35:31  5-MIN KMKG 050935Z 00000KT 10SM CLR 17/15 A3011 460 90 800 000/00 RMK AO2
14840KMKG MKG20010805044009208/05/01 04:40:31  5-MIN KMKG 050940Z 00000KT 10SM CLR 17/15 A3010 460 90 800 000/00 RMK AO2
14840KMKG MKG20010805044509208/05/01 04:45:31  5-MIN KMKG 050945Z 00000KT 10SM CLR 17/15 A3010 460 90 800 000/00 RMK AO2
14840KMKG MKG20010805045010908/05/01 04:50:31  5-MIN KMKG 050950Z 00000KT 10SM CLR 17/15 A3010 460 90 800 000/00 RMK AO2 SLP189 T01670150
14840KMKG MKG20010805045510908/05/01 04:55:31  5-MIN KMKG 050955Z 00000KT 10SM CLR 17/15 A3010 460 90 800 000/00 RMK AO2 SLP190 T01670150
14840KMKG MKG20010805050009208/05/01 05:00:31  5-MIN KMKG 051000Z 00000KT 10SM CLR 16/14 A3010 460 90 700 000/00 RMK AO2
14840KMKG MKG20010805050509208/05/01 05:05:31  5-MIN KMKG 051005Z 00000KT 10SM CLR 16/15 A3010 460 93 700 000/00 RMK AO2
14840KMKG MKG20010805051009208/05/01 05:10:31  5-MIN KMKG 051010Z 00000KT 10SM CLR 16/15 A3011 460 93 700 000/00 RMK AO2
14840KMKG MKG20010805051509208/05/01 05:15:31  5-MIN KMKG 051015Z 00000KT 10SM CLR 16/15 A3011 450 93 700 000/00 RMK AO2
14840KMKG MKG20010805052009208/05/01 05:20:31  5-MIN KMKG 051020Z 00000KT 10SM CLR 16/14 A3011 450 90 700 000/00 RMK AO2
14840KMKG MKG20010805052509208/05/01 05:25:31  5-MIN KMKG 051025Z 00000KT 10SM CLR 16/15 A3011 450 93 700 000/00 RMK AO2
14840KMKG MKG20010805053009208/05/01 05:30:31  5-MIN KMKG 051030Z 00000KT 10SM CLR 16/14 A3011 450 90 700 000/00 RMK AO2
14840KMKG MKG20010805053509208/05/01 05:35:31  5-MIN KMKG 051035Z 00000KT 10SM CLR 16/14 A3011 450 90 700 000/00 RMK AO2
14840KMKG MKG20010805054009208/05/01 05:40:31  5-MIN KMKG 051040Z 13003KT 10SM CLR 16/14 A3011 450 90 700 130/03 RMK AO2
14840KMKG MKG20010805054509208/05/01 05:45:31  5-MIN KMKG 051045Z 12003KT 10SM CLR 16/14 A3012 450 90 700 120/03 RMK AO2
14840KMKG MKG20010805055010908/05/01 05:50:31  5-MIN KMKG 051050Z 00000KT 10SM CLR 16/14 A3012 450 93 700 000/00 RMK AO2 SLP197 T01560144
14840KMKG MKG20010805055510908/05/01 05:55:31  5-MIN KMKG 051055Z 00000KT 10SM CLR 16/14 A3012 440 90 700 000/00 RMK AO2 SLP197 T01610144
14840KMKG MKG20010805060009208/05/01 06:00:31  5-MIN KMKG 051100Z 00000KT 10SM CLR 16/15 A3012 440 93 700 000/00 RMK AO2
14840KMKG MKG20010805060509208/05/01 06:05:31  5-MIN KMKG 051105Z 00000KT 10SM CLR 16/14 A3012 440 90 700 000/00 RMK AO2
14840KMKG MKG20010805061009208/05/01 06:10:31  5-MIN KMKG 051110Z 00000KT 10SM CLR 16/15 A3012 440 93 700 000/00 RMK AO2
14840KMKG MKG20010805061509208/05/01 06:15:31  5-MIN KMKG 051115Z 00000KT 10SM CLR 17/15 A3012 440 90 800 000/00 RMK AO2
14840KMKG MKG20010805062009208/05/01 06:20:31  5-MIN KMKG 051120Z 00000KT 10SM CLR 17/15 A3013 440 90 800 000/00 RMK AO2
14840KMKG MKG20010805062509208/05/01 06:25:31  5-MIN KMKG 051125Z 00000KT 10SM CLR 17/16 A3012 440 90 800 000/00 RMK AO2
14840KMKG MKG20010805063009208/05/01 06:30:31  5-MIN KMKG 051130Z 00000KT 10SM CLR 18/16 A3013 440 87 900 000/00 RMK AO2
14840KMKG MKG20010805063509208/05/01 06:35:31  5-MIN KMKG 051135Z 00000KT 10SM CLR 18/16 A3013 440 90 900 000/00 RMK AO2
14840KMKG MKG20010805064009308/05/01 06:40:31  5-MIN KMKG 051140Z 00000KT 10SM CLR 18/16 A3013 440 87 1000 000/00 RMK AO2
14840KMKG MKG20010805064509308/05/01 06:45:31  5-MIN KMKG 051145Z 00000KT 10SM CLR 18/16 A3013 430 87 1000 000/00 RMK AO2
14840KMKG MKG20010805065012808/05/01 06:50:31  5-MIN KMKG 051150Z 12003KT 10SM CLR 19/17 A3013 430 87 1000 130/03 RMK AO2 SLP201 T01890167 10189 20156 51000
14840KMKG MKG20010805065512808/05/01 06:55:31  5-MIN KMKG 051155Z 13003KT 10SM CLR 19/17 A3014 430 87 1000 130/03 RMK AO2 SLP202 T01890167 10189 20156 53012
14840KMKG MKG20010805070009308/05/01 07:00:31  5-MIN KMKG 051200Z 13003KT 10SM CLR 19/17 A3013 430 87 1000 130/03 RMK AO2
14840KMKG MKG20010805070509308/05/01 07:05:31  5-MIN KMKG 051205Z 00000KT 10SM CLR 19/17 A3014 430 84 1100 000/00 RMK AO2
14840KMKG MKG20010805071009308/05/01 07:10:31  5-MIN KMKG 051210Z 00000KT 10SM CLR 20/17 A3014 430 81 1200 000/00 RMK AO2
14840KMKG MKG20010805071509308/05/01 07:15:31  5-MIN KMKG 051215Z 15003KT 10SM CLR 21/17 A3013 430 81 1200 150/03 RMK AO2
14840KMKG MKG20010805072009308/05/01 07:20:31  5-MIN KMKG 051220Z 14004KT 10SM CLR 21/17 A3014 430 81 1200 150/04 RMK AO2
14840KMKG MKG20010805072509308/05/01 07:25:31  5-MIN KMKG 051225Z 16004KT 10SM CLR 21/17 A3013 430 78 1300 160/04 RMK AO2
14840KMKG MKG20010805073009308/05/01 07:30:31  5-MIN KMKG 051230Z 16004KT 10SM CLR 22/17 A3014 430 75 1300 160/04 RMK AO2
14840KMKG MKG20010805073509308/05/01 07:35:31  5-MIN KMKG 051235Z 16005KT 10SM CLR 22/17 A3014 430 75 1300 160/05 RMK AO2
14840KMKG MKG20010805074009308/05/01 07:40:31  5-MIN KMKG 051240Z 17004KT 10SM CLR 22/17 A3014 430 73 1400 170/04 RMK AO2
14840KMKG MKG20010805074509308/05/01 07:45:31  5-MIN KMKG 051245Z 16003KT 10SM CLR 22/17 A3014 430 73 1400 170/03 RMK AO2
14840KMKG MKG20010805075011008/05/01 07:50:31  5-MIN KMKG 051250Z VRB03KT 10SM CLR 23/17 A3014 430 70 1500 VRB/03 RMK AO2 SLP203 T02280172
14840KMKG MKG20010805075511008/05/01 07:55:31  5-MIN KMKG 051255Z VRB04KT 10SM CLR 23/17 A3014 430 70 1500 VRB/04 RMK AO2 SLP204 T02280172
14840KMKG MKG20010805080009308/05/01 08:00:31  5-MIN KMKG 051300Z 17004KT 10SM CLR 23/17 A3014 430 68 1500 170/04 RMK AO2
14840KMKG MKG20010805080509308/05/01 08:05:31  5-MIN KMKG 051305Z 17005KT 10SM CLR 24/17 A3014 420 66 1600 170/05 RMK AO2
14840KMKG MKG20010805081009308/05/01 08:10:31  5-MIN KMKG 051310Z 16004KT 10SM CLR 24/17 A3015 420 63 1600 160/04 RMK AO2
14840KMKG MKG20010805081509308/05/01 08:15:31  5-MIN KMKG 051315Z 18004KT 10SM CLR 24/17 A3015 420 66 1600 180/04 RMK AO2
14840KMKG MKG20010805082009308/05/01 08:20:31  5-MIN KMKG 051320Z VRB04KT 10SM CLR 24/17 A3015 420 63 1600 VRB/04 RMK AO2
14840KMKG MKG20010805112009308/05/01 11:20:31  5-MIN KMKG 051620Z 23007KT 10SM CLR 29/18 A3017 400 50 2100 240/07 RMK AO2
14840KMKG MKG20010805112509308/05/01 11:25:31  5-MIN KMKG 051625Z 21008KT 10SM CLR 29/18 A3017 400 50 2100 210/08 RMK AO2
14840KMKG MKG20010805113009308/05/01 11:30:31  5-MIN KMKG 051630Z 20007KT 10SM CLR 29/17 A3016 400 48 2100 200/07 RMK AO2
14840KMKG MKG20010805113509308/05/01 11:35:31  5-MIN KMKG 051635Z 24009KT 10SM CLR 29/17 A3016 410 47 2200 240/09 RMK AO2
14840KMKG MKG20010805114009308/05/01 11:40:31  5-MIN KMKG 051640Z 22008KT 10SM CLR 29/17 A3016 410 48 2100 230/08 RMK AO2
14840KMKG MKG20010805114509308/05/01 11:45:31  5-MIN KMKG 051645Z 21009KT 10SM CLR 29/17 A3016 410 48 2100 210/09 RMK AO2
14840KMKG MKG20010805115011008/05/01 11:50:31  5-MIN KMKG 051650Z 21009KT 10SM CLR 29/17 A3016 410 48 2100 220/09 RMK AO2 SLP210 T02890172
14840KMKG MKG20010805115512608/05/01 11:55:31  5-MIN KMKG 051655Z 22008KT 190V260 10SM CLR 29/18 A3016 410 49 2200 220/08 190V260 RMK AO2 SLP210 T02940178
14840KMKG MKG20010805120009308/05/01 12:00:31  5-MIN KMKG 051700Z 21007KT 10SM CLR 29/18 A3016 410 50 2100 210/07 RMK AO2
14840KMKG MKG20010805120509308/05/01 12:05:31  5-MIN KMKG 051705Z 22008KT 10SM CLR 29/18 A3017 400 49 2200 220/08 RMK AO2
14840KMKG MKG20010805121009308/05/01 12:10:31  5-MIN KMKG 051710Z 23007KT 10SM CLR 29/18 A3016 410 50 2100 230/07 RMK AO2
14840KMKG MKG20010805121509308/05/01 12:15:31  5-MIN KMKG 051715Z 23007KT 10SM CLR 29/18 A3016 410 49 2200 240/07 RMK AO2
14840KMKG MKG20010805122009308/05/01 12:20:31  5-MIN KMKG 051720Z 21007KT 10SM CLR 29/17 A3017 400 47 2200 220/07 RMK AO2
14840KMKG MKG20010805122509308/05/01 12:25:31  5-MIN KMKG 051725Z 21008KT 10SM CLR 29/18 A3017 400 49 2200 220/08 RMK AO2
14840KMKG MKG20010805123009308/05/01 12:30:31  5-MIN KMKG 051730Z 20008KT 10SM CLR 29/17 A3017 400 48 2100 200/08 RMK AO2
14840KMKG MKG20010805123509308/05/01 12:35:31  5-MIN KMKG 051735Z 23009KT 10SM CLR 29/18 A3017 400 49 2200 230/09 RMK AO2
14840KMKG MKG20010805124009308/05/01 12:40:31  5-MIN KMKG 051740Z 23009KT 10SM CLR 29/18 A3017 400 50 2100 230/09 RMK AO2
14840KMKG MKG20010805124509308/05/01 12:45:31  5-MIN KMKG 051745Z 24008KT 10SM CLR 29/18 A3017 400 49 2200 250/08 RMK AO2
14840KMKG MKG20010805125012808/05/01 12:50:31  5-MIN KMKG 051750Z 25010KT 10SM CLR 29/18 A3018 400 49 2200 250/10 RMK AO2 SLP214 T02940178 10294 20189 53009
14840KMKG MKG20010805125512808/05/01 12:55:31  5-MIN KMKG 051755Z 25010KT 10SM CLR 29/18 A3018 390 50 2100 250/10 RMK AO2 SLP215 T02890178 10294 20189 53005
14840KMKG MKG20010805130009308/05/01 13:00:31  5-MIN KMKG 051800Z 22009KT 10SM CLR 29/18 A3018 390 50 2100 220/09 RMK AO2
14840KMKG MKG20010805130509308/05/01 13:05:31  5-MIN KMKG 051805Z 24008KT 10SM CLR 29/18 A3018 390 50 2100 240/08 RMK AO2
14840KMKG MKG20010805131009308/05/01 13:10:31  5-MIN KMKG 051810Z 24009KT 10SM CLR 29/18 A3018 390 49 2200 240/09 RMK AO2
14840KMKG MKG20010805131509308/05/01 13:15:31  5-MIN KMKG 051815Z 23010KT 10SM CLR 29/17 A3017 400 48 2100 240/10 RMK AO2
14840KMKG MKG20010805132009308/05/01 13:20:31  5-MIN KMKG 051820Z 24010KT 10SM CLR 29/17 A3017 400 48 2100 240/10 RMK AO2
14840KMKG MKG20010805132509308/05/01 13:25:31  5-MIN KMKG 051825Z 24009KT 10SM CLR 29/17 A3017 400 48 2100 250/09 RMK AO2
14840KMKG MKG20010805133009308/05/01 13:30:31  5-MIN KMKG 051830Z 23009KT 10SM CLR 29/18 A3017 400 50 2100 230/09 RMK AO2
14840KMKG MKG20010805133509308/05/01 13:35:31  5-MIN KMKG 051835Z 23008KT 10SM CLR 29/17 A3018 400 48 2100 240/08 RMK AO2
14840KMKG MKG20010805134009308/05/01 13:40:31  5-MIN KMKG 051840Z 24008KT 10SM CLR 29/18 A3017 400 49 2200 240/08 RMK AO2
14840KMKG MKG20010805134509308/05/01 13:45:31  5-MIN KMKG 051845Z 25008KT 10SM CLR 29/17 A3017 400 48 2100 250/08 RMK AO2
14840KMKG MKG20010805135011008/05/01 13:50:31  5-MIN KMKG 051850Z 21008KT 10SM CLR 29/17 A3017 400 48 2100 210/08 RMK AO2 SLP213 T02890172
14840KMKG MKG20010805135511008/05/01 13:55:31  5-MIN KMKG 051855Z 22007KT 10SM CLR 29/17 A3016 410 47 2200 230/07 RMK AO2 SLP212 T02940172
14840KMKG MKG20010805140009308/05/01 14:00:31  5-MIN KMKG 051900Z 20009KT 10SM CLR 29/17 A3017 400 47 2200 210/09 RMK AO2
14840KMKG MKG20010805140509308/05/01 14:05:31  5-MIN KMKG 051905Z 21008KT 10SM CLR 29/17 A3016 410 47 2200 210/08 RMK AO2
14840KMKG MKG20010805141009308/05/01 14:10:31  5-MIN KMKG 051910Z 21009KT 10SM CLR 30/17 A3016 410 45 2300 220/09 RMK AO2
14840KMKG MKG20010805141509308/05/01 14:15:31  5-MIN KMKG 051915Z 19008KT 10SM CLR 30/17 A3016 410 44 2300 200/08 RMK AO2
14840KMKG MKG20010805142009308/05/01 14:20:31  5-MIN KMKG 051920Z 21011KT 10SM CLR 30/17 A3016 410 44 2300 210/11 RMK AO2
14840KMKG MKG20010805142509308/05/01 14:25:31  5-MIN KMKG 051925Z 21010KT 10SM CLR 29/17 A3016 410 45 2200 220/10 RMK AO2
14840KMKG MKG20010805143009308/05/01 14:30:31  5-MIN KMKG 051930Z 22010KT 10SM CLR 30/17 A3016 410 44 2300 230/10 RMK AO2
14840KMKG MKG20010805143509308/05/01 14:35:31  5-MIN KMKG 051935Z 23011KT 10SM CLR 30/16 A3015 410 42 2300 230/11 RMK AO2
14840KMKG MKG20010805144009308/05/01 14:40:31  5-MIN KMKG 051940Z 22010KT 10SM CLR 29/16 A3015 410 44 2200 220/10 RMK AO2
14840KMKG MKG20010805144509308/05/01 14:45:31  5-MIN KMKG 051945Z 22010KT 10SM CLR 30/16 A3015 410 42 2300 220/10 RMK AO2
14840KMKG MKG20010805145011008/05/01 14:50:31  5-MIN KMKG 051950Z 21008KT 10SM CLR 30/16 A3015 410 42 2300 210/08 RMK AO2 SLP208 T03000161
14840KMKG MKG20010805145511008/05/01 14:55:31  5-MIN KMKG 051955Z 20010KT 10SM CLR 31/16 A3015 420 41 2300 200/10 RMK AO2 SLP207 T03060161
14840KMKG MKG20010805150009308/05/01 15:00:31  5-MIN KMKG 052000Z 23011KT 10SM CLR 30/16 A3015 420 42 2300 230/11 RMK AO2
14840KMKG MKG20010805150509308/05/01 15:05:31  5-MIN KMKG 052005Z 22010KT 10SM CLR 30/16 A3015 420 42 2300 230/10 RMK AO2
14840KMKG MKG20010805151009308/05/01 15:10:31  5-MIN KMKG 052010Z 23010KT 10SM CLR 30/16 A3015 420 42 2300 240/10 RMK AO2
14840KMKG MKG20010805151509308/05/01 15:15:31  5-MIN KMKG 052015Z 22010KT 10SM CLR 30/16 A3014 420 42 2300 230/10 RMK AO2
14840KMKG MKG20010805152009308/05/01 15:20:31  5-MIN KMKG 052020Z 22010KT 10SM CLR 31/16 A3014 430 41 2300 230/10 RMK AO2
14840KMKG MKG20010805152509308/05/01 15:25:31  5-MIN KMKG 052025Z 22010KT 10SM CLR 31/16 A3014 430 41 2300 230/10 RMK AO2
14840KMKG MKG20010805153009308/05/01 15:30:31  5-MIN KMKG 052030Z 21011KT 10SM CLR 31/16 A3014 430 40 2400 210/11 RMK AO2
14840KMKG MKG20010805153509308/05/01 15:35:31  5-MIN KMKG 052035Z 21011KT 10SM CLR 30/16 A3013 430 42 2300 210/11 RMK AO2
14840KMKG MKG20010805154009308/05/01 15:40:31  5-MIN KMKG 052040Z 22012KT 10SM CLR 30/16 A3014 430 42 2300 220/12 RMK AO2
14840KMKG MKG20010805154509308/05/01 15:45:31  5-MIN KMKG 052045Z 22013KT 10SM CLR 31/16 A3013 430 41 2400 220/13 RMK AO2
14840KMKG MKG20010805155011608/05/01 15:50:31  5-MIN KMKG 052050Z 22011KT 10SM CLR 31/16 A3013 440 41 2400 220/11 RMK AO2 SLP200 T03060161 53005
14840KMKG MKG20010805155511608/05/01 15:55:31  5-MIN KMKG 052055Z 22011KT 10SM CLR 31/16 A3013 430 41 2400 220/11 RMK AO2 SLP201 T03060161 58014
14840KMKG MKG20010805160009308/05/01 16:00:31  5-MIN KMKG 052100Z 21010KT 10SM CLR 31/16 A3013 430 41 2400 220/10 RMK AO2
14840KMKG MKG20010805160509308/05/01 16:05:31  5-MIN KMKG 052105Z 22011KT 10SM CLR 31/16 A3014 430 41 2300 230/11 RMK AO2
14840KMKG MKG20010805161009308/05/01 16:10:31  5-MIN KMKG 052110Z 22010KT 10SM CLR 31/16 A3014 430 41 2300 220/10 RMK AO2
14840KMKG MKG20010805161509308/05/01 16:15:31  5-MIN KMKG 052115Z 22012KT 10SM CLR 31/16 A3014 430 41 2300 230/12 RMK AO2
14840KMKG MKG20010805162009308/05/01 16:20:31  5-MIN KMKG 052120Z 21011KT 10SM CLR 30/16 A3014 430 42 2300 210/11 RMK AO2
14840KMKG MKG20010805162509308/05/01 16:25:31  5-MIN KMKG 052125Z 22009KT 10SM CLR 30/16 A3014 430 42 2300 220/09 RMK AO2
14840KMKG MKG20010805163009308/05/01 16:30:31  5-MIN KMKG 052130Z 21010KT 10SM CLR 31/16 A3014 430 41 2300 220/10 RMK AO2
14840KMKG MKG20010805163509308/05/01 16:35:31  5-MIN KMKG 052135Z 24010KT 10SM CLR 30/16 A3014 430 42 2300 250/10 RMK AO2
14840KMKG MKG20010805164009308/05/01 16:40:31  5-MIN KMKG 052140Z 23011KT 10SM CLR 30/16 A3014 430 42 2300 230/11 RMK AO2
14840KMKG MKG20010805164509308/05/01 16:45:31  5-MIN KMKG 052145Z 22011KT 10SM CLR 29/16 A3014 430 44 2200 230/11 RMK AO2
14840KMKG MKG20010805165011008/05/01 16:50:31  5-MIN KMKG 052150Z 23010KT 10SM CLR 30/16 A3014 430 42 2300 230/10 RMK AO2 SLP203 T03000161
14840KMKG MKG20010805165511008/05/01 16:55:31  5-MIN KMKG 052155Z 24009KT 10SM CLR 30/16 A3014 430 42 2300 240/09 RMK AO2 SLP203 T03000161
14840KMKG MKG20010805170009308/05/01 17:00:31  5-MIN KMKG 052200Z 21009KT 10SM CLR 30/16 A3014 430 42 2300 210/09 RMK AO2
14840KMKG MKG20010805170509308/05/01 17:05:31  5-MIN KMKG 052205Z 23011KT 10SM CLR 29/16 A3013 430 44 2200 230/11 RMK AO2
14840KMKG MKG20010805171009308/05/01 17:10:31  5-MIN KMKG 052210Z 22008KT 10SM CLR 29/16 A3013 430 44 2200 230/08 RMK AO2
14840KMKG MKG20010805171509308/05/01 17:15:31  5-MIN KMKG 052215Z 22009KT 10SM CLR 30/17 A3013 430 44 2300 220/09 RMK AO2
14840KMKG MKG20010805172009308/05/01 17:20:31  5-MIN KMKG 052220Z 21009KT 10SM CLR 29/17 A3013 430 45 2200 220/09 RMK AO2
14840KMKG MKG20010805172509308/05/01 17:25:31  5-MIN KMKG 052225Z 22007KT 10SM CLR 29/17 A3013 430 47 2200 220/07 RMK AO2
14840KMKG MKG20010805173009308/05/01 17:30:31  5-MIN KMKG 052230Z 22009KT 10SM CLR 29/17 A3014 430 47 2200 220/09 RMK AO2
14840KMKG MKG20010805173509308/05/01 17:35:31  5-MIN KMKG 052235Z 22009KT 10SM CLR 29/17 A3014 430 48 2200 220/09 RMK AO2
14840KMKG MKG20010805174009308/05/01 17:40:31  5-MIN KMKG 052240Z 22009KT 10SM CLR 29/17 A3014 430 48 2200 230/09 RMK AO2
14840KMKG MKG20010805174509308/05/01 17:45:31  5-MIN KMKG 052245Z 22008KT 10SM CLR 29/17 A3014 430 48 2200 220/08 RMK AO2
14840KMKG MKG20010805175011008/05/01 17:50:31  5-MIN KMKG 052250Z 22008KT 10SM CLR 29/17 A3014 430 48 2200 230/08 RMK AO2 SLP202 T02890172
14840KMKG MKG20010805175511008/05/01 17:55:31  5-MIN KMKG 052255Z 21009KT 10SM CLR 28/18 A3013 430 52 2100 220/09 RMK AO2 SLP201 T02830178
14840KMKG MKG20010805180009308/05/01 18:00:31  5-MIN KMKG 052300Z 22008KT 10SM CLR 28/18 A3013 430 52 2100 220/08 RMK AO2
14840KMKG MKG20010805180509308/05/01 18:05:31  5-MIN KMKG 052305Z 21007KT 10SM CLR 28/18 A3013 430 52 2100 210/07 RMK AO2
14840KMKG MKG20010805181009308/05/01 18:10:31  5-MIN KMKG 052310Z 21007KT 10SM CLR 28/18 A3013 440 52 2100 220/07 RMK AO2
14840KMKG MKG20010805181509308/05/01 18:15:31  5-MIN KMKG 052315Z 22006KT 10SM CLR 28/18 A3013 440 52 2100 230/06 RMK AO2
14840KMKG MKG20010805182009308/05/01 18:20:31  5-MIN KMKG 052320Z 21007KT 10SM CLR 28/18 A3013 440 52 2100 220/07 RMK AO2
14840KMKG MKG20010805182509308/05/01 18:25:31  5-MIN KMKG 052325Z 21006KT 10SM CLR 28/18 A3012 440 52 2100 220/06 RMK AO2
14840KMKG MKG20010805183009308/05/01 18:30:31  5-MIN KMKG 052330Z 20006KT 10SM CLR 28/18 A3012 440 52 2100 200/06 RMK AO2
14840KMKG MKG20010805183509308/05/01 18:35:31  5-MIN KMKG 052335Z 19006KT 10SM CLR 28/18 A3012 450 52 2100 200/06 RMK AO2
14840KMKG MKG20010805184009308/05/01 18:40:31  5-MIN KMKG 052340Z 19006KT 10SM CLR 28/18 A3012 450 54 2100 190/06 RMK AO2
14840KMKG MKG20010805184509308/05/01 18:45:31  5-MIN KMKG 052345Z 19007KT 10SM CLR 28/18 A3012 450 54 2100 190/07 RMK AO2
14840KMKG MKG20010805185012808/05/01 18:50:31  5-MIN KMKG 052350Z 19007KT 10SM CLR 28/18 A3012 450 54 2100 200/07 RMK AO2 SLP196 T02780178 10311 20278 58014
14840KMKG MKG20010805185512808/05/01 18:55:31  5-MIN KMKG 052355Z 18007KT 10SM CLR 28/18 A3012 450 54 2100 180/07 RMK AO2 SLP196 T02780178 10311 20272 58005
14840KMKG MKG20010805190009308/05/01 19:00:31  5-MIN KMKG 060000Z 17007KT 10SM CLR 28/18 A3012 450 54 2100 180/07 RMK AO2
14840KMKG MKG20010805190509308/05/01 19:05:31  5-MIN KMKG 060005Z 18008KT 10SM CLR 27/18 A3011 450 56 2000 180/08 RMK AO2
14840KMKG MKG20010805191009308/05/01 19:10:31  5-MIN KMKG 060010Z 18007KT 10SM CLR 27/18 A3012 450 56 2000 180/07 RMK AO2
14840KMKG MKG20010805191509308/05/01 19:15:31  5-MIN KMKG 060015Z 18006KT 10SM CLR 27/17 A3012 450 54 2000 180/06 RMK AO2
14840KMKG MKG20010805192009308/05/01 19:20:31  5-MIN KMKG 060020Z 17006KT 10SM CLR 27/17 A3012 450 54 2000 180/06 RMK AO2
14840KMKG MKG20010805192509308/05/01 19:25:31  5-MIN KMKG 060025Z 18004KT 10SM CLR 27/17 A3012 450 54 2000 180/04 RMK AO2
14840KMKG MKG20010805193009308/05/01 19:30:31  5-MIN KMKG 060030Z 19005KT 10SM CLR 27/17 A3012 450 55 1900 190/05 RMK AO2
14840KMKG MKG20010805193509308/05/01 19:35:31  5-MIN KMKG 060035Z 24003KT 10SM CLR 26/17 A3012 440 57 1900 240/03 RMK AO2
14840KMKG MKG20010805194009308/05/01 19:40:31  5-MIN KMKG 060040Z 00000KT 10SM CLR 26/17 A3013 440 57 1900 000/00 RMK AO2
14840KMKG MKG20010805194509308/05/01 19:45:31  5-MIN KMKG 060045Z 00000KT 10SM CLR 26/18 A3013 440 59 1900 000/00 RMK AO2
14840KMKG MKG20010805195011008/05/01 19:50:31  5-MIN KMKG 060050Z 00000KT 10SM CLR 26/18 A3013 440 59 1900 000/00 RMK AO2 SLP197 T02610178
14840KMKG MKG20010805195511008/05/01 19:55:31  5-MIN KMKG 060055Z 21003KT 10SM CLR 26/18 A3012 440 61 1800 220/03 RMK AO2 SLP197 T02560178
14840KMKG MKG20010805200009308/05/01 20:00:31  5-MIN KMKG 060100Z 20003KT 10SM CLR 26/18 A3013 440 61 1800 210/03 RMK AO2
14840KMKG MKG20010805200509308/05/01 20:05:31  5-MIN KMKG 060105Z 21003KT 10SM CLR 26/18 A3013 440 61 1800 210/03 RMK AO2
14840KMKG MKG20010805201009308/05/01 20:10:31  5-MIN KMKG 060110Z 21003KT 10SM CLR 25/18 A3013 440 64 1700 220/03 RMK AO2
14840KMKG MKG20010805201509308/05/01 20:15:31  5-MIN KMKG 060115Z 20003KT 10SM CLR 24/17 A3013 440 63 1700 210/03 RMK AO2
14840KMKG MKG20010805202009308/05/01 20:20:31  5-MIN KMKG 060120Z 20003KT 10SM CLR 24/17 A3013 440 63 1700 200/03 RMK AO2
14840KMKG MKG20010805202509308/05/01 20:25:31  5-MIN KMKG 060125Z 18003KT 10SM CLR 24/17 A3013 440 63 1700 190/03 RMK AO2
14840KMKG MKG20010805203009308/05/01 20:30:31  5-MIN KMKG 060130Z 19004KT 10SM CLR 24/17 A3013 440 63 1600 190/04 RMK AO2
14840KMKG MKG20010805203509308/05/01 20:35:31  5-MIN KMKG 060135Z 19005KT 10SM CLR 24/17 A3012 440 61 1700 190/05 RMK AO2
14840KMKG MKG20010805204009308/05/01 20:40:31  5-MIN KMKG 060140Z 18005KT 10SM CLR 24/17 A3012 440 61 1700 190/05 RMK AO2
14840KMKG MKG20010805204509308/05/01 20:45:31  5-MIN KMKG 060145Z 18005KT 10SM CLR 24/17 A3013 440 61 1700 190/05 RMK AO2
14840KMKG MKG20010805205011008/05/01 20:50:31  5-MIN KMKG 060150Z 18005KT 10SM CLR 24/17 A3013 440 61 1700 190/05 RMK AO2 SLP197 T02440167
14840KMKG MKG20010805205511008/05/01 20:55:31  5-MIN KMKG 060155Z 18005KT 10SM CLR 24/17 A3013 440 61 1700 180/05 RMK AO2 SLP198 T02440167
14840KMKG MKG20010805210009308/05/01 21:00:31  5-MIN KMKG 060200Z 18006KT 10SM CLR 24/17 A3013 440 61 1700 190/06 RMK AO2
14840KMKG MKG20010805210509308/05/01 21:05:31  5-MIN KMKG 060205Z 18006KT 10SM CLR 24/17 A3013 440 61 1700 190/06 RMK AO2
14840KMKG MKG20010805211009308/05/01 21:10:31  5-MIN KMKG 060210Z 18005KT 10SM CLR 24/17 A3013 440 61 1700 190/05 RMK AO2
14840KMKG MKG20010805211509308/05/01 21:15:31  5-MIN KMKG 060215Z 19005KT 10SM CLR 24/17 A3013 440 63 1600 190/05 RMK AO2
14840KMKG MKG20010805212009308/05/01 21:20:31  5-MIN KMKG 060220Z 18004KT 10SM CLR 24/17 A3013 430 63 1600 190/04 RMK AO2
14840KMKG MKG20010805212509308/05/01 21:25:31  5-MIN KMKG 060225Z 18003KT 10SM CLR 23/17 A3014 430 66 1500 190/03 RMK AO2
14840KMKG MKG20010805213009308/05/01 21:30:31  5-MIN KMKG 060230Z 00000KT 10SM CLR 23/17 A3014 430 66 1500 000/00 RMK AO2
14840KMKG MKG20010805213509308/05/01 21:35:31  5-MIN KMKG 060235Z 00000KT 10SM CLR 23/17 A3013 430 70 1500 000/00 RMK AO2
14840KMKG MKG20010805214009308/05/01 21:40:31  5-MIN KMKG 060240Z 00000KT 10SM CLR 23/17 A3014 430 70 1500 000/00 RMK AO2
14840KMKG MKG20010805214509308/05/01 21:45:31  5-MIN KMKG 060245Z 00000KT 10SM CLR 23/17 A3014 430 70 1500 000/00 RMK AO2
14840KMKG MKG20010805215011608/05/01 21:50:31  5-MIN KMKG 060250Z 00000KT 10SM CLR 23/17 A3014 430 70 1500 000/00 RMK AO2 SLP201 T02280172 58005
14840KMKG MKG20010805215511608/05/01 21:55:31  5-MIN KMKG 060255Z 11003KT 10SM CLR 23/17 A3014 430 70 1500 110/03 RMK AO2 SLP202 T02280172 53007
14840KMKG MKG20010805220009308/05/01 22:00:31  5-MIN KMKG 060300Z 12003KT 10SM CLR 23/17 A3014 430 70 1500 130/03 RMK AO2
14840KMKG MKG20010805220509308/05/01 22:05:31  5-MIN KMKG 060305Z 00000KT 10SM CLR 23/17 A3014 430 70 1500 000/00 RMK AO2
14840KMKG MKG20010805221009308/05/01 22:10:31  5-MIN KMKG 060310Z 12003KT 10SM CLR 23/17 A3014 430 70 1500 120/03 RMK AO2
14840KMKG MKG20010805221509308/05/01 22:15:31  5-MIN KMKG 060315Z 12003KT 10SM CLR 22/17 A3014 430 73 1400 130/03 RMK AO2
14840KMKG MKG20010805222009308/05/01 22:20:31  5-MIN KMKG 060320Z 13003KT 10SM CLR 22/17 A3014 430 73 1400 140/03 RMK AO2
14840KMKG MKG20010805222509308/05/01 22:25:31  5-MIN KMKG 060325Z 15003KT 10SM CLR 22/17 A3014 430 73 1400 150/03 RMK AO2
14840KMKG MKG20010805223009308/05/01 22:30:31  5-MIN KMKG 060330Z 15003KT 10SM CLR 22/17 A3014 430 75 1300 150/03 RMK AO2
14840KMKG MKG20010805223509308/05/01 22:35:31  5-MIN KMKG 060335Z 00000KT 10SM CLR 22/17 A3014 430 73 1400 000/00 RMK AO2
14840KMKG MKG20010805224009308/05/01 22:40:31  5-MIN KMKG 060340Z 00000KT 10SM CLR 22/17 A3014 430 73 1400 000/00 RMK AO2
14840KMKG MKG20010805224509308/05/01 22:45:31  5-MIN KMKG 060345Z 00000KT 10SM CLR 22/17 A3013 430 75 1300 000/00 RMK AO2
14840KMKG MKG20010805225011008/05/01 22:50:31  5-MIN KMKG 060350Z 00000KT 10SM CLR 22/17 A3014 430 75 1300 000/00 RMK AO2 SLP201 T02170172
14840KMKG MKG20010805225511008/05/01 22:55:31  5-MIN KMKG 060355Z 00000KT 10SM CLR 22/17 A3014 430 75 1300 000/00 RMK AO2 SLP202 T02170172
14840KMKG MKG20010805230009308/05/01 23:00:31  5-MIN KMKG 060400Z 00000KT 10SM CLR 22/18 A3014 430 78 1300 000/00 RMK AO2
14840KMKG MKG20010805230509308/05/01 23:05:31  5-MIN KMKG 060405Z 00000KT 10SM CLR 22/18 A3014 430 78 1300 000/00 RMK AO2
14840KMKG MKG20010805231009308/05/01 23:10:31  5-MIN KMKG 060410Z 00000KT 10SM CLR 22/18 A3014 430 78 1300 000/00 RMK AO2
14840KMKG MKG20010805231509308/05/01 23:15:31  5-MIN KMKG 060415Z 00000KT 10SM CLR 22/18 A3014 430 78 1300 000/00 RMK AO2
14840KMKG MKG20010805232009308/05/01 23:20:31  5-MIN KMKG 060420Z 14003KT 10SM CLR 21/18 A3014 430 81 1300 150/03 RMK AO2
14840KMKG MKG20010805232509308/05/01 23:25:31  5-MIN KMKG 060425Z 16003KT 10SM CLR 21/17 A3014 430 78 1300 160/03 RMK AO2
14840KMKG MKG20010805233009308/05/01 23:30:31  5-MIN KMKG 060430Z 00000KT 10SM CLR 21/17 A3014 430 78 1300 000/00 RMK AO2
14840KMKG MKG20010805233509308/05/01 23:35:31  5-MIN KMKG 060435Z 00000KT 10SM CLR 21/18 A3014 430 81 1300 000/00 RMK AO2
14840KMKG MKG20010805234009308/05/01 23:40:31  5-MIN KMKG 060440Z 13003KT 10SM CLR 21/18 A3014 430 81 1300 140/03 RMK AO2
14840KMKG MKG20010805234509308/05/01 23:45:31  5-MIN KMKG 060445Z 00000KT 10SM CLR 21/17 A3014 430 78 1300 000/00 RMK AO2
14840KMKG MKG20010805235012008/05/01 23:50:31  5-MIN KMKG 060450Z 00000KT 10SM CLR 21/18 A3014 430 81 1300 000/00 RMK AO2 SLP203 T02110178 403110156
14840KMKG MKG20010805235512008/05/01 23:55:31  5-MIN KMKG 060455Z 00000KT 10SM CLR 21/18 A3014 430 81 1300 000/00 RMK AO2 SLP203 T02110178 403110156
14840KMKG MKG20010806000009308/06/01 00:00:31  5-MIN KMKG 060500Z 00000KT 10SM CLR 21/17 A3014 430 78 1300 000/00 RMK AO2
14840KMKG MKG20010806000509308/06/01 00:05:31  5-MIN KMKG 060505Z 00000KT 10SM CLR 21/17 A3014 430 78 1300 000/00 RMK AO2
14840KMKG MKG20010806001009308/06/01 00:10:31  5-MIN KMKG 060510Z 14003KT 10SM CLR 21/17 A3014 430 81 1200 140/03 RMK AO2
14840KMKG MKG20010806001509308/06/01 00:15:31  5-MIN KMKG 060515Z 00000KT 10SM CLR 21/17 A3014 430 81 1200 000/00 RMK AO2
14840KMKG MKG20010806002009308/06/01 00:20:31  5-MIN KMKG 060520Z 00000KT 10SM CLR 21/17 A3014 430 81 1200 000/00 RMK AO2
14840KMKG MKG20010806002509308/06/01 00:25:31  5-MIN KMKG 060525Z 00000KT 10SM CLR 21/17 A3014 430 78 1300 000/00 RMK AO2
14840KMKG MKG20010806003009308/06/01 00:30:31  5-MIN KMKG 060530Z 00000KT 10SM CLR 21/17 A3014 430 78 1300 000/00 RMK AO2
14840KMKG MKG20010806003509308/06/01 00:35:31  5-MIN KMKG 060535Z 00000KT 10SM CLR 21/17 A3014 430 78 1300 000/00 RMK AO2
14840KMKG MKG20010806004009308/06/01 00:40:31  5-MIN KMKG 060540Z 00000KT 10SM CLR 21/17 A3014 430 78 1300 000/00 RMK AO2
14840KMKG MKG20010806004509308/06/01 00:45:31  5-MIN KMKG 060545Z 19003KT 10SM CLR 22/17 A3014 430 75 1300 200/03 RMK AO2
14840KMKG MKG20010806005012808/06/01 00:50:31  5-MIN KMKG 060550Z 20003KT 10SM CLR 22/17 A3014 430 73 1400 210/03 RMK AO2 SLP203 T02220172 10278 20206 53007
14840KMKG MKG20010806005512808/06/01 00:55:31  5-MIN KMKG 060555Z 00000KT 10SM CLR 22/17 A3014 420 75 1300 000/00 RMK AO2 SLP204 T02170172 10278 20206 53002
14840KMKG MKG20010806010009308/06/01 01:00:31  5-MIN KMKG 060600Z 00000KT 10SM CLR 22/18 A3015 420 75 1400 000/00 RMK AO2
14840KMKG MKG20010806010509308/06/01 01:05:31  5-MIN KMKG 060605Z 00000KT 10SM CLR 23/18 A3015 420 73 1500 000/00 RMK AO2
14840KMKG MKG20010806011009308/06/01 01:10:31  5-MIN KMKG 060610Z 20005KT 10SM CLR 23/18 A3014 420 73 1500 200/05 RMK AO2
14840KMKG MKG20010806011509308/06/01 01:15:31  5-MIN KMKG 060615Z 20007KT 10SM CLR 23/18 A3014 420 73 1500 210/07 RMK AO2
14840KMKG MKG20010806012009308/06/01 01:20:31  5-MIN KMKG 060620Z 20006KT 10SM CLR 23/18 A3014 430 73 1500 210/06 RMK AO2
14840KMKG MKG20010806012509308/06/01 01:25:31  5-MIN KMKG 060625Z 20007KT 10SM CLR 23/19 A3014 430 76 1500 210/07 RMK AO2
14840KMKG MKG20010806013009308/06/01 01:30:31  5-MIN KMKG 060630Z 20008KT 10SM CLR 24/19 A3014 430 73 1600 210/08 RMK AO2
14840KMKG MKG20010806013509308/06/01 01:35:31  5-MIN KMKG 060635Z 21007KT 10SM CLR 24/19 A3014 430 73 1600 210/07 RMK AO2
14840KMKG MKG20010806014009308/06/01 01:40:31  5-MIN KMKG 060640Z 20008KT 10SM CLR 24/19 A3014 430 73 1600 210/08 RMK AO2
14840KMKG MKG20010806014509308/06/01 01:45:31  5-MIN KMKG 060645Z 21008KT 10SM CLR 24/19 A3014 430 73 1600 210/08 RMK AO2
14840KMKG MKG20010806015011008/06/01 01:50:31  5-MIN KMKG 060650Z 21007KT 10SM CLR 24/19 A3014 430 76 1600 220/07 RMK AO2 SLP202 T02390194
14840KMKG MKG20010806015511008/06/01 01:55:31  5-MIN KMKG 060655Z 21008KT 10SM CLR 23/19 A3014 430 78 1500 210/08 RMK AO2 SLP202 T02330194
14840KMKG MKG20010806020009308/06/01 02:00:31  5-MIN KMKG 060700Z 21006KT 10SM CLR 23/19 A3014 430 78 1500 220/06 RMK AO2
14840KMKG MKG20010806020509308/06/01 02:05:31  5-MIN KMKG 060705Z 22007KT 10SM CLR 23/19 A3014 430 78 1500 220/07 RMK AO2
14840KMKG MKG20010806021009308/06/01 02:10:31  5-MIN KMKG 060710Z 22007KT 10SM CLR 23/19 A3014 430 78 1500 220/07 RMK AO2
14840KMKG MKG20010806021509308/06/01 02:15:31  5-MIN KMKG 060715Z 22007KT 10SM CLR 24/19 A3014 430 76 1600 220/07 RMK AO2
14840KMKG MKG20010806022009308/06/01 02:20:31  5-MIN KMKG 060720Z 22007KT 10SM CLR 23/19 A3014 430 78 1500 220/07 RMK AO2
14840KMKG MKG20010806022509308/06/01 02:25:31  5-MIN KMKG 060725Z 21007KT 10SM CLR 24/20 A3014 430 78 1600 220/07 RMK AO2
14840KMKG MKG20010806023009308/06/01 02:30:31  5-MIN KMKG 060730Z 22007KT 10SM CLR 23/20 A3014 430 81 1500 220/07 RMK AO2
14840KMKG MKG20010806023509308/06/01 02:35:31  5-MIN KMKG 060735Z 22009KT 10SM CLR 24/20 A3014 430 78 1600 220/09 RMK AO2
14840KMKG MKG20010806024009308/06/01 02:40:31  5-MIN KMKG 060740Z 22007KT 10SM CLR 23/20 A3014 430 81 1500 220/07 RMK AO2
14840KMKG MKG20010806024509308/06/01 02:45:31  5-MIN KMKG 060745Z 22008KT 10SM CLR 23/20 A3014 430 81 1500 220/08 RMK AO2
14840KMKG MKG20010806025011008/06/01 02:50:31  5-MIN KMKG 060750Z 22009KT 10SM CLR 23/21 A3014 430 84 1500 220/09 RMK AO2 SLP202 T02330206
14840KMKG MKG20010806025511008/06/01 02:55:31  5-MIN KMKG 060755Z 22008KT 10SM CLR 23/21 A3014 430 84 1500 220/08 RMK AO2 SLP201 T02330206
14840KMKG MKG20010806030009308/06/01 03:00:31  5-MIN KMKG 060800Z 21008KT 10SM CLR 23/21 A3014 430 84 1500 220/08 RMK AO2
14840KMKG MKG20010806030509308/06/01 03:05:31  5-MIN KMKG 060805Z 22008KT 10SM CLR 23/21 A3014 430 84 1500 220/08 RMK AO2
14840KMKG MKG20010806031009308/06/01 03:10:31  5-MIN KMKG 060810Z 22008KT 10SM CLR 23/21 A3014 430 84 1500 220/08 RMK AO2
14840KMKG MKG20010806031509308/06/01 03:15:31  5-MIN KMKG 060815Z 22008KT 10SM CLR 23/21 A3014 430 87 1500 220/08 RMK AO2
14840KMKG MKG20010806032009308/06/01 03:20:31  5-MIN KMKG 060820Z 23007KT 10SM CLR 23/21 A3014 430 90 1500 230/07 RMK AO2
14840KMKG MKG20010806032509308/06/01 03:25:31  5-MIN KMKG 060825Z 22007KT 10SM CLR 23/21 A3014 430 90 1500 230/07 RMK AO2
14840KMKG MKG20010806033009308/06/01 03:30:31  5-MIN KMKG 060830Z 23007KT 10SM CLR 23/21 A3014 430 90 1500 230/07 RMK AO2
14840KMKG MKG20010806033509308/06/01 03:35:31  5-MIN KMKG 060835Z 23007KT 10SM CLR 23/21 A3014 430 90 1500 230/07 RMK AO2
14840KMKG MKG20010806034009308/06/01 03:40:31  5-MIN KMKG 060840Z 23007KT 10SM CLR 23/21 A3014 430 90 1500 230/07 RMK AO2
14840KMKG MKG20010806034509308/06/01 03:45:31  5-MIN KMKG 060845Z 22008KT 10SM CLR 23/21 A3014 430 90 1500 230/08 RMK AO2
14840KMKG MKG20010806035011608/06/01 03:50:31  5-MIN KMKG 060850Z 23007KT 10SM CLR 23/21 A3014 430 90 1500 230/07 RMK AO2 SLP202 T02280211 53002
14840KMKG MKG20010806035511608/06/01 03:55:31  5-MIN KMKG 060855Z 24006KT 10SM CLR 23/21 A3014 430 90 1500 240/06 RMK AO2 SLP202 T02280211 55001
14840KMKG MKG20010806040009308/06/01 04:00:31  5-MIN KMKG 060900Z 22006KT 10SM CLR 23/21 A3014 430 90 1500 230/06 RMK AO2
14840KMKG MKG20010806040509208/06/01 04:05:31  5-MIN KMKG 060905Z 22006KT 9SM CLR 23/21 A3014 430 90 1500 220/06 RMK AO2
14840KMKG MKG20010806041009208/06/01 04:10:31  5-MIN KMKG 060910Z 22006KT 9SM CLR 22/21 A3014 430 93 1400 230/06 RMK AO2
14840KMKG MKG20010806041509208/06/01 04:15:31  5-MIN KMKG 060915Z 22006KT 9SM CLR 22/21 A3014 430 93 1400 230/06 RMK AO2
14840KMKG MKG20010806042009208/06/01 04:20:31  5-MIN KMKG 060920Z 23006KT 9SM CLR 22/21 A3014 430 93 1400 230/06 RMK AO2
14840KMKG MKG20010806042509208/06/01 04:25:31  5-MIN KMKG 060925Z 23006KT 9SM CLR 22/21 A3014 430 93 1400 230/06 RMK AO2
14840KMKG MKG20010806043009208/06/01 04:30:31  5-MIN KMKG 060930Z 21006KT 9SM CLR 23/21 A3014 430 90 1500 220/06 RMK AO2
14840KMKG MKG20010806043509208/06/01 04:35:31  5-MIN KMKG 060935Z 22006KT 8SM CLR 23/21 A3014 430 90 1500 220/06 RMK AO2
14840KMKG MKG20010806044009208/06/01 04:40:31  5-MIN KMKG 060940Z 21006KT 8SM CLR 22/21 A3014 430 93 1400 220/06 RMK AO2
14840KMKG MKG20010806044509208/06/01 04:45:31  5-MIN KMKG 060945Z 21006KT 8SM CLR 22/21 A3014 430 93 1400 220/06 RMK AO2
14840KMKG MKG20010806045010908/06/01 04:50:31  5-MIN KMKG 060950Z 21005KT 8SM CLR 22/21 A3014 430 93 1400 220/05 RMK AO2 SLP203 T02220211
14840KMKG MKG20010806045510908/06/01 04:55:31  5-MIN KMKG 060955Z 22005KT 8SM CLR 22/21 A3014 420 93 1400 220/05 RMK AO2 SLP204 T02220211
14840KMKG MKG20010806050009208/06/01 05:00:31  5-MIN KMKG 061000Z 22003KT 7SM CLR 22/21 A3014 430 93 1400 230/03 RMK AO2
14840KMKG MKG20010806050509208/06/01 05:05:31  5-MIN KMKG 061005Z 23004KT 7SM CLR 22/21 A3014 430 93 1400 230/04 RMK AO2
14840KMKG MKG20010806051009208/06/01 05:10:31  5-MIN KMKG 061010Z 22004KT 7SM CLR 22/21 A3014 420 93 1400 220/04 RMK AO2
14840KMKG MKG20010806051509208/06/01 05:15:31  5-MIN KMKG 061015Z 22003KT 7SM CLR 22/21 A3014 420 93 1400 220/03 RMK AO2
14840KMKG MKG20010806052009508/06/01 05:20:31  5-MIN KMKG 061020Z 22003KT 6SM BR CLR 22/21 A3015 420 93 1400 220/03 RMK AO2
14840KMKG MKG20010806052509508/06/01 05:25:31  5-MIN KMKG 061025Z 22003KT 6SM BR CLR 22/21 A3015 420 93 1400 220/03 RMK AO2
14840KMKG MKG20010806053009508/06/01 05:30:31  5-MIN KMKG 061030Z 22003KT 6SM BR CLR 22/22 A3015 420 97 1400 230/03 RMK AO2
14840KMKG MKG20010806053509508/06/01 05:35:31  5-MIN KMKG 061035Z 21005KT 5SM BR CLR 22/21 A3015 420 93 1400 220/05 RMK AO2
14840KMKG MKG20010806054009508/06/01 05:40:31  5-MIN KMKG 061040Z 23005KT 5SM BR CLR 22/21 A3015 420 97 1300 230/05 RMK AO2
14840KMKG MKG20010806054509508/06/01 05:45:31  5-MIN KMKG 061045Z 22006KT 5SM BR CLR 22/21 A3015 420 97 1300 220/06 RMK AO2
14840KMKG MKG20010806055011208/06/01 05:50:31  5-MIN KMKG 061050Z 22006KT 4SM BR CLR 22/21 A3015 420 97 1300 230/06 RMK AO2 SLP204 T02170211
14840KMKG MKG20010806055511208/06/01 05:55:31  5-MIN KMKG 061055Z 23006KT 4SM BR CLR 22/22 A3015 420 97 1400 240/06 RMK AO2 SLP204 T02220217
14840KMKG MKG20010806060009508/06/01 06:00:31  5-MIN KMKG 061100Z 24005KT 4SM BR CLR 22/22 A3015 420 97 1400 240/05 RMK AO2
14840KMKG MKG20010806060509508/06/01 06:05:31  5-MIN KMKG 061105Z 23006KT 4SM BR CLR 23/22 A3015 420 93 1500 240/06 RMK AO2
14840KMKG MKG20010806061009508/06/01 06:10:31  5-MIN KMKG 061110Z 24006KT 4SM BR CLR 23/22 A3015 420 93 1500 240/06 RMK AO2
14840KMKG MKG20010806061509508/06/01 06:15:31  5-MIN KMKG 061115Z 24006KT 4SM BR CLR 23/22 A3015 420 93 1500 250/06 RMK AO2
14840KMKG MKG20010806062009508/06/01 06:20:31  5-MIN KMKG 061120Z 23006KT 4SM BR CLR 23/22 A3015 420 93 1500 240/06 RMK AO2
14840KMKG MKG20010806062509508/06/01 06:25:31  5-MIN KMKG 061125Z 23006KT 4SM BR CLR 23/22 A3015 420 97 1500 230/06 RMK AO2
14840KMKG MKG20010806063009508/06/01 06:30:31  5-MIN KMKG 061130Z 23007KT 5SM BR CLR 23/22 A3015 420 93 1500 240/07 RMK AO2
14840KMKG MKG20010806063509508/06/01 06:35:31  5-MIN KMKG 061135Z 24005KT 5SM BR CLR 23/22 A3016 410 93 1500 250/05 RMK AO2
14840KMKG MKG20010806064009508/06/01 06:40:31  5-MIN KMKG 061140Z 24007KT 5SM BR CLR 24/22 A3016 410 90 1600 250/07 RMK AO2
14840KMKG MKG20010806064509508/06/01 06:45:31  5-MIN KMKG 061145Z 25008KT 6SM BR CLR 24/22 A3016 410 87 1600 250/08 RMK AO2
14840KMKG MKG20010806065012708/06/01 06:50:31  5-MIN KMKG 061150Z 25007KT 7SM CLR 24/22 A3016 410 84 1600 260/07 RMK AO2 SLP209 T02440217 10244 20217 55001
14840KMKG MKG20010806065512708/06/01 06:55:31  5-MIN KMKG 061155Z 25009KT 8SM CLR 24/22 A3016 410 84 1600 250/09 RMK AO2 SLP209 T02440217 10244 20217 53007
14840KMKG MKG20010806070009208/06/01 07:00:31  5-MIN KMKG 061200Z 26009KT 8SM CLR 24/22 A3016 410 84 1600 260/09 RMK AO2
14840KMKG MKG20010806070509208/06/01 07:05:31  5-MIN KMKG 061205Z 26007KT 9SM CLR 24/22 A3016 410 84 1600 260/07 RMK AO2
14840KMKG MKG20010806071009208/06/01 07:10:31  5-MIN KMKG 061210Z 25009KT 9SM CLR 25/22 A3016 410 81 1700 250/09 RMK AO2
14840KMKG MKG20010806071509208/06/01 07:15:31  5-MIN KMKG 061215Z 25009KT 9SM CLR 25/22 A3016 410 81 1700 250/09 RMK AO2
14840KMKG MKG20010806072009208/06/01 07:20:31  5-MIN KMKG 061220Z 26009KT 9SM CLR 25/22 A3016 410 81 1700 260/09 RMK AO2
14840KMKG MKG20010806072509208/06/01 07:25:31  5-MIN KMKG 061225Z 26008KT 9SM CLR 25/22 A3016 410 84 1700 260/08 RMK AO2
14840KMKG MKG20010806073009208/06/01 07:30:31  5-MIN KMKG 061230Z 26010KT 9SM CLR 25/22 A3017 400 81 1700 270/10 RMK AO2
14840KMKG MKG20010806073509308/06/01 07:35:31  5-MIN KMKG 061235Z 25008KT 10SM CLR 26/22 A3017 400 79 1800 250/08 RMK AO2
14840KMKG MKG20010806074009308/06/01 07:40:31  5-MIN KMKG 061240Z 26009KT 10SM CLR 26/22 A3017 400 79 1800 270/09 RMK AO2
14840KMKG MKG20010806074509308/06/01 07:45:31  5-MIN KMKG 061245Z 26010KT 10SM CLR 26/22 A3017 400 79 1700 260/10 RMK AO2
14840KMKG MKG20010806075011008/06/01 07:50:31  5-MIN KMKG 061250Z 25010KT 10SM CLR 25/22 A3017 400 81 1700 250/10 RMK AO2 SLP214 T02500217
14840KMKG MKG20010806075511008/06/01 07:55:31  5-MIN KMKG 061255Z 25009KT 10SM CLR 26/22 A3017 400 81 1700 250/09 RMK AO2 SLP214 T02560222
14840KMKG MKG20010806080009308/06/01 08:00:31  5-MIN KMKG 061300Z 26009KT 10SM CLR 26/22 A3018 390 81 1700 260/09 RMK AO2
14840KMKG MKG20010806080509308/06/01 08:05:31  5-MIN KMKG 061305Z 26009KT 10SM CLR 26/22 A3018 390 79 1700 260/09 RMK AO2
14840KMKG MKG20010806081009308/06/01 08:10:31  5-MIN KMKG 061310Z 25010KT 10SM CLR 26/22 A3017 400 79 1700 250/10 RMK AO2
14840KMKG MKG20010806081509308/06/01 08:15:31  5-MIN KMKG 061315Z 26007KT 10SM CLR 26/22 A3018 390 79 1700 260/07 RMK AO2
14840KMKG MKG20010806082009308/06/01 08:20:31  5-MIN KMKG 061320Z 25010KT 10SM CLR 26/22 A3017 400 79 1700 260/10 RMK AO2
14840KMKG MKG20010806082509308/06/01 08:25:31  5-MIN KMKG 061325Z 26008KT 10SM CLR 26/22 A3017 400 76 1800 270/08 RMK AO2
14840KMKG MKG20010806083009308/06/01 08:30:31  5-MIN KMKG 061330Z 26011KT 10SM CLR 26/22 A3018 400 76 1800 270/11 RMK AO2
14840KMKG MKG20010806083509308/06/01 08:35:31  5-MIN KMKG 061335Z 26011KT 10SM CLR 27/21 A3017 400 71 1900 260/11 RMK AO2
14840KMKG MKG20010806084009308/06/01 08:40:31  5-MIN KMKG 061340Z 26011KT 10SM CLR 26/21 A3017 400 73 1800 270/11 RMK AO2
14840KMKG MKG20010806084509308/06/01 08:45:31  5-MIN KMKG 061345Z 26009KT 10SM CLR 27/21 A3017 400 71 1900 260/09 RMK AO2
14840KMKG MKG20010806085011008/06/01 08:50:31  5-MIN KMKG 061350Z 25011KT 10SM CLR 27/21 A3017 400 69 1900 250/11 RMK AO2 SLP213 T02670206
14840KMKG MKG20010806085511008/06/01 08:55:31  5-MIN KMKG 061355Z 26011KT 10SM CLR 27/21 A3017 400 69 1900 260/11 RMK AO2 SLP213 T02670206
14840KMKG MKG20010806090009308/06/01 09:00:31  5-MIN KMKG 061400Z 26011KT 10SM CLR 27/21 A3017 400 66 1900 260/11 RMK AO2
14840KMKG MKG20010806090509308/06/01 09:05:31  5-MIN KMKG 061405Z 25010KT 10SM CLR 27/21 A3017 400 66 1900 260/10 RMK AO2
14840KMKG MKG20010806091009308/06/01 09:10:31  5-MIN KMKG 061410Z 26012KT 10SM CLR 27/21 A3017 400 66 1900 260/12 RMK AO2
14840KMKG MKG20010806091509308/06/01 09:15:31  5-MIN KMKG 061415Z 25013KT 10SM CLR 27/21 A3017 400 66 1900 250/13 RMK AO2
14840KMKG MKG20010806092009308/06/01 09:20:31  5-MIN KMKG 061420Z 25010KT 10SM CLR 27/21 A3017 400 66 1900 250/10 RMK AO2
14840KMKG MKG20010806092509308/06/01 09:25:31  5-MIN KMKG 061425Z 25010KT 10SM CLR 27/21 A3017 400 66 1900 250/10 RMK AO2
14840KMKG MKG20010806093009908/06/01 09:30:31  5-MIN KMKG 061430Z 25013G18KT 10SM CLR 27/21 A3017 400 66 1900 250/13G18 RMK AO2
14840KMKG MKG20010806093509908/06/01 09:35:31  5-MIN KMKG 061435Z 25011G18KT 10SM CLR 27/21 A3017 400 69 1900 250/11G18 RMK AO2
14840KMKG MKG20010806094009308/06/01 09:40:31  5-MIN KMKG 061440Z 24012KT 10SM CLR 27/21 A3017 400 69 1900 240/12 RMK AO2
14840KMKG MKG20010806094509308/06/01 09:45:31  5-MIN KMKG 061445Z 24013KT 10SM CLR 27/21 A3017 400 69 1900 240/13 RMK AO2
14840KMKG MKG20010806095011608/06/01 09:50:31  5-MIN KMKG 061450Z 24011KT 10SM CLR 28/21 A3017 400 66 2000 240/11 RMK AO2 SLP213 T02780211 53007
14840KMKG MKG20010806095511608/06/01 09:55:31  5-MIN KMKG 061455Z 25010KT 10SM CLR 27/21 A3017 400 69 1900 250/10 RMK AO2 SLP212 T02720211 50003
14840KMKG MKG20010806100009308/06/01 10:00:31  5-MIN KMKG 061500Z 24011KT 10SM CLR 27/21 A3017 400 69 1900 250/11 RMK AO2
14840KMKG MKG20010806100509308/06/01 10:05:31  5-MIN KMKG 061505Z 24009KT 10SM CLR 28/22 A3017 400 69 2000 240/09 RMK AO2
14840KMKG MKG20010806101009308/06/01 10:10:31  5-MIN KMKG 061510Z 25012KT 10SM CLR 28/22 A3017 400 66 2100 260/12 RMK AO2
14840KMKG MKG20010806101509308/06/01 10:15:31  5-MIN KMKG 061515Z 23012KT 10SM CLR 28/22 A3017 400 69 2000 240/12 RMK AO2
14840KMKG MKG20010806102009308/06/01 10:20:31  5-MIN KMKG 061520Z 23012KT 10SM CLR 28/22 A3017 400 69 2000 240/12 RMK AO2
14840KMKG MKG20010806102509308/06/01 10:25:31  5-MIN KMKG 061525Z 23010KT 10SM CLR 28/22 A3017 400 69 2000 230/10 RMK AO2
14840KMKG MKG20010806103009308/06/01 10:30:31  5-MIN KMKG 061530Z 24010KT 10SM CLR 28/22 A3017 400 69 2000 240/10 RMK AO2
14840KMKG MKG20010806103509308/06/01 10:35:31  5-MIN KMKG 061535Z 23011KT 10SM CLR 28/21 A3017 400 66 2000 240/11 RMK AO2
14840KMKG MKG20010806104009308/06/01 10:40:31  5-MIN KMKG 061540Z 25012KT 10SM CLR 28/22 A3017 400 69 2000 250/12 RMK AO2
14840KMKG MKG20010806104509308/06/01 10:45:31  5-MIN KMKG 061545Z 25010KT 10SM CLR 28/21 A3017 400 66 2000 250/10 RMK AO2
14840KMKG MKG20010806105011008/06/01 10:50:31  5-MIN KMKG 061550Z 25011KT 10SM CLR 28/22 A3017 400 69 2000 260/11 RMK AO2 SLP213 T02780217
14840KMKG MKG20010806105511008/06/01 10:55:31  5-MIN KMKG 061555Z 24013KT 10SM CLR 28/21 A3017 400 64 2100 250/13 RMK AO2 SLP213 T02830211
14840KMKG MKG20010806110009308/06/01 11:00:31  5-MIN KMKG 061600Z 24012KT 10SM CLR 28/21 A3017 400 64 2100 250/12 RMK AO2
14840KMKG MKG20010806110509308/06/01 11:05:31  5-MIN KMKG 061605Z 24011KT 10SM CLR 28/21 A3017 400 64 2100 250/11 RMK AO2
14840KMKG MKG20010806111009308/06/01 11:10:31  5-MIN KMKG 061610Z 24013KT 10SM CLR 29/21 A3017 400 62 2100 240/13 RMK AO2
14840KMKG MKG20010806111509308/06/01 11:15:31  5-MIN KMKG 061615Z 24010KT 10SM CLR 28/21 A3018 390 64 2100 250/10 RMK AO2
14840KMKG MKG20010806112009308/06/01 11:20:31  5-MIN KMKG 061620Z 24010KT 10SM CLR 28/21 A3017 400 64 2100 240/10 RMK AO2
14840KMKG MKG20010806112509308/06/01 11:25:31  5-MIN KMKG 061625Z 23012KT 10SM CLR 28/21 A3017 400 64 2100 240/12 RMK AO2
14840KMKG MKG20010806113009308/06/01 11:30:31  5-MIN KMKG 061630Z 24010KT 10SM CLR 28/21 A3017 400 64 2100 240/10 RMK AO2
14840KMKG MKG20010806113509308/06/01 11:35:31  5-MIN KMKG 061635Z 24012KT 10SM CLR 29/22 A3017 400 64 2100 240/12 RMK AO2
14840KMKG MKG20010806114009308/06/01 11:40:31  5-MIN KMKG 061640Z 23012KT 10SM CLR 29/22 A3017 400 62 2200 240/12 RMK AO2
14840KMKG MKG20010806114509308/06/01 11:45:31  5-MIN KMKG 061645Z 24013KT 10SM CLR 29/22 A3017 400 62 2200 240/13 RMK AO2
14840KMKG MKG20010806115011008/06/01 11:50:31  5-MIN KMKG 061650Z 22013KT 10SM CLR 29/22 A3017 400 64 2100 230/13 RMK AO2 SLP212 T02890217
14840KMKG MKG20010806115511008/06/01 11:55:31  5-MIN KMKG 061655Z 23013KT 10SM CLR 29/22 A3017 400 64 2100 230/13 RMK AO2 SLP212 T02890217
14840KMKG MKG20010806120009308/06/01 12:00:31  5-MIN KMKG 061700Z 23012KT 10SM CLR 29/22 A3017 400 62 2200 230/12 RMK AO2
14840KMKG MKG20010806120509308/06/01 12:05:31  5-MIN KMKG 061705Z 23013KT 10SM CLR 29/22 A3017 400 64 2100 240/13 RMK AO2
14840KMKG MKG20010806121009308/06/01 12:10:31  5-MIN KMKG 061710Z 22015KT 10SM CLR 29/22 A3017 400 64 2100 230/15 RMK AO2
14840KMKG MKG20010806121509308/06/01 12:15:31  5-MIN KMKG 061715Z 23013KT 10SM CLR 29/22 A3017 400 64 2100 240/13 RMK AO2
14840KMKG MKG20010806122009308/06/01 12:20:31  5-MIN KMKG 061720Z 22013KT 10SM CLR 29/22 A3016 410 64 2100 220/13 RMK AO2
14840KMKG MKG20010806122509308/06/01 12:25:31  5-MIN KMKG 061725Z 23011KT 10SM CLR 29/22 A3017 400 62 2200 230/11 RMK AO2
14840KMKG MKG20010806123009308/06/01 12:30:31  5-MIN KMKG 061730Z 23014KT 10SM CLR 29/22 A3016 410 64 2100 230/14 RMK AO2
14840KMKG MKG20010806123509308/06/01 12:35:31  5-MIN KMKG 061735Z 22013KT 10SM CLR 29/22 A3016 410 64 2100 230/13 RMK AO2
14840KMKG MKG20010806124009308/06/01 12:40:31  5-MIN KMKG 061740Z 22014KT 10SM CLR 29/22 A3016 410 64 2100 220/14 RMK AO2
14840KMKG MKG20010806124509308/06/01 12:45:31  5-MIN KMKG 061745Z 22012KT 10SM CLR 29/22 A3016 410 62 2200 220/12 RMK AO2
14840KMKG MKG20010806125012808/06/01 12:50:31  5-MIN KMKG 061750Z 22015KT 10SM CLR 29/22 A3016 410 62 2200 220/15 RMK AO2 SLP208 T02940217 10294 20244 50003
14840KMKG MKG20010806125512808/06/01 12:55:31  5-MIN KMKG 061755Z 22014KT 10SM CLR 29/21 A3015 410 62 2100 230/14 RMK AO2 SLP207 T02890211 10294 20244 58005
14840KMKG MKG20010806130009308/06/01 13:00:31  5-MIN KMKG 061800Z 23012KT 10SM CLR 29/21 A3016 410 62 2100 230/12 RMK AO2
14840KMKG MKG20010806130509308/06/01 13:05:31  5-MIN KMKG 061805Z 22014KT 10SM CLR 29/22 A3015 410 64 2100 220/14 RMK AO2
14840KMKG MKG20010806131009308/06/01 13:10:31  5-MIN KMKG 061810Z 23014KT 10SM CLR 29/22 A3015 420 62 2200 230/14 RMK AO2
14840KMKG MKG20010806131509308/06/01 13:15:31  5-MIN KMKG 061815Z 22013KT 10SM CLR 29/22 A3015 420 64 2100 220/13 RMK AO2
14840KMKG MKG20010806132009308/06/01 13:20:31  5-MIN KMKG 061820Z 20012KT 10SM CLR 29/21 A3015 420 62 2100 210/12 RMK AO2
14840KMKG MKG20010806132509308/06/01 13:25:31  5-MIN KMKG 061825Z 21012KT 10SM CLR 29/22 A3015 420 64 2200 220/12 RMK AO2
14840KMKG MKG20010806133009308/06/01 13:30:31  5-MIN KMKG 061830Z 22011KT 10SM CLR 29/21 A3014 420 62 2200 230/11 RMK AO2
14840KMKG MKG20010806133509308/06/01 13:35:31  5-MIN KMKG 061835Z 22015KT 10SM CLR 29/21 A3014 430 60 2200 230/15 RMK AO2
14840KMKG MKG20010806134009308/06/01 13:40:31  5-MIN KMKG 061840Z 23013KT 10SM CLR 29/21 A3014 420 60 2200 230/13 RMK AO2
14840KMKG MKG20010806134509308/06/01 13:45:31  5-MIN KMKG 061845Z 23013KT 10SM CLR 29/21 A3014 430 62 2200 230/13 RMK AO2
14840KMKG MKG20010806135011008/06/01 13:50:31  5-MIN KMKG 061850Z 22015KT 10SM CLR 29/21 A3014 430 62 2200 220/15 RMK AO2 SLP203 T02890211
14840KMKG MKG20010806135511008/06/01 13:55:31  5-MIN KMKG 061855Z 22016KT 10SM CLR 29/21 A3014 430 62 2200 220/16 RMK AO2 SLP202 T02890211
14840KMKG MKG20010806140009908/06/01 14:00:31  5-MIN KMKG 061900Z 22014G20KT 10SM CLR 28/21 A3014 430 64 2100 230/14G20 RMK AO2
14840KMKG MKG20010806140509908/06/01 14:05:31  5-MIN KMKG 061905Z 23014G20KT 10SM CLR 29/21 A3014 430 62 2200 230/14G20 RMK AO2
14840KMKG MKG20010806141009308/06/01 14:10:31  5-MIN KMKG 061910Z 22014KT 10SM CLR 29/21 A3014 430 62 2200 230/14 RMK AO2
14840KMKG MKG20010806141509308/06/01 14:15:31  5-MIN KMKG 061915Z 22015KT 10SM CLR 29/21 A3014 430 62 2200 220/15 RMK AO2
14840KMKG MKG20010806142009308/06/01 14:20:31  5-MIN KMKG 061920Z 22015KT 10SM CLR 29/21 A3014 430 62 2200 220/15 RMK AO2
14840KMKG MKG20010806142509308/06/01 14:25:31  5-MIN KMKG 061925Z 23014KT 10SM CLR 29/21 A3014 430 62 2200 230/14 RMK AO2
14840KMKG MKG20010806143009308/06/01 14:30:31  5-MIN KMKG 061930Z 23013KT 10SM CLR 29/21 A3014 430 62 2200 230/13 RMK AO2
14840KMKG MKG20010806143509308/06/01 14:35:31  5-MIN KMKG 061935Z 22013KT 10SM CLR 29/21 A3014 430 62 2200 220/13 RMK AO2
14840KMKG MKG20010806144009308/06/01 14:40:31  5-MIN KMKG 061940Z 21013KT 10SM CLR 29/21 A3013 430 62 2200 210/13 RMK AO2
14840KMKG MKG20010806144509308/06/01 14:45:31  5-MIN KMKG 061945Z 21013KT 10SM CLR 29/21 A3014 430 62 2200 210/13 RMK AO2
14840KMKG MKG20010806145011008/06/01 14:50:31  5-MIN KMKG 061950Z 22012KT 10SM CLR 29/21 A3014 430 62 2200 220/12 RMK AO2 SLP201 T02890211
14840KMKG MKG20010806145511008/06/01 14:55:31  5-MIN KMKG 061955Z 22012KT 10SM CLR 29/21 A3013 440 62 2200 220/12 RMK AO2 SLP199 T02890211
14840KMKG MKG20010806150009308/06/01 15:00:31  5-MIN KMKG 062000Z 22012KT 10SM CLR 29/21 A3013 430 62 2200 220/12 RMK AO2
14840KMKG MKG20010806150509308/06/01 15:05:31  5-MIN KMKG 062005Z 21016KT 10SM CLR 29/21 A3013 440 62 2200 210/16 RMK AO2
14840KMKG MKG20010806151009308/06/01 15:10:31  5-MIN KMKG 062010Z 22014KT 10SM CLR 29/21 A3013 440 62 2200 220/14 RMK AO2
14840KMKG MKG20010806151509308/06/01 15:15:31  5-MIN KMKG 062015Z 21012KT 10SM CLR 28/21 A3012 440 62 2100 220/12 RMK AO2
14840KMKG MKG20010806152009308/06/01 15:20:31  5-MIN KMKG 062020Z 20013KT 10SM CLR 29/21 A3012 440 62 2200 200/13 RMK AO2
14840KMKG MKG20010806152509308/06/01 15:25:31  5-MIN KMKG 062025Z 21012KT 10SM CLR 29/21 A3012 440 60 2200 220/12 RMK AO2
14840KMKG MKG20010806153009308/06/01 15:30:31  5-MIN KMKG 062030Z 20013KT 10SM CLR 28/21 A3012 440 62 2100 200/13 RMK AO2
14840KMKG MKG20010806153509308/06/01 15:35:31  5-MIN KMKG 062035Z 21010KT 10SM CLR 29/21 A3012 440 60 2200 210/10 RMK AO2
14840KMKG MKG20010806154009308/06/01 15:40:31  5-MIN KMKG 062040Z 21013KT 10SM CLR 29/21 A3012 450 60 2200 220/13 RMK AO2
14840KMKG MKG20010806154509308/06/01 15:45:31  5-MIN KMKG 062045Z 21013KT 10SM CLR 29/21 A3012 450 60 2200 210/13 RMK AO2
14840KMKG MKG20010806155011608/06/01 15:50:31  5-MIN KMKG 062050Z 21011KT 10SM CLR 29/21 A3012 450 60 2200 210/11 RMK AO2 SLP195 T02890206 58005
14840KMKG MKG20010806155511608/06/01 15:55:31  5-MIN KMKG 062055Z 21012KT 10SM CLR 29/21 A3012 450 58 2200 210/12 RMK AO2 SLP195 T02940206 56011
14840KMKG MKG20010806160009308/06/01 16:00:31  5-MIN KMKG 062100Z 21010KT 10SM CLR 29/21 A3012 450 60 2200 220/10 RMK AO2
14840KMKG MKG20010806160509308/06/01 16:05:31  5-MIN KMKG 062105Z 20012KT 10SM CLR 29/21 A3012 450 60 2200 210/12 RMK AO2
14840KMKG MKG20010806161009308/06/01 16:10:31  5-MIN KMKG 062110Z 21012KT 10SM CLR 29/21 A3012 450 60 2200 210/12 RMK AO2
14840KMKG MKG20010806161509908/06/01 16:15:31  5-MIN KMKG 062115Z 22013G18KT 10SM CLR 29/20 A3011 450 58 2200 220/13G18 RMK AO2
14840KMKG MKG20010806162009308/06/01 16:20:31  5-MIN KMKG 062120Z 20013KT 10SM CLR 29/20 A3011 450 58 2200 210/13 RMK AO2
14840KMKG MKG20010806162509308/06/01 16:25:31  5-MIN KMKG 062125Z 20013KT 10SM CLR 29/20 A3011 450 58 2200 200/13 RMK AO2
14840KMKG MKG20010806163009308/06/01 16:30:31  5-MIN KMKG 062130Z 20013KT 10SM CLR 28/20 A3011 450 60 2100 210/13 RMK AO2
14840KMKG MKG20010806163509308/06/01 16:35:31  5-MIN KMKG 062135Z 21013KT 10SM CLR 29/20 A3011 460 58 2200 210/13 RMK AO2
14840KMKG MKG20010806164009308/06/01 16:40:31  5-MIN KMKG 062140Z 21014KT 10SM CLR 28/19 A3011 460 58 2100 210/14 RMK AO2
14840KMKG MKG20010806164509308/06/01 16:45:31  5-MIN KMKG 062145Z 21015KT 10SM CLR 28/19 A3011 460 58 2100 210/15 RMK AO2
14840KMKG MKG20010806165011008/06/01 16:50:31  5-MIN KMKG 062150Z 21014KT 10SM CLR 28/19 A3010 460 58 2100 210/14 RMK AO2 SLP190 T02830194
14840KMKG MKG20010806165511008/06/01 16:55:31  5-MIN KMKG 062155Z 21014KT 10SM CLR 28/19 A3011 460 58 2100 210/14 RMK AO2 SLP191 T02830194
14840KMKG MKG20010801000009208/01/01 00:00:32  5-MIN KMKG 010500Z 18005KT 7SM CLR 25/22 A3018 390 81 1700 190/05 RMK AO2
14840KMKG MKG20010801000509208/01/01 00:05:31  5-MIN KMKG 010505Z 18006KT 7SM CLR 25/22 A3018 390 81 1700 180/06 RMK AO2
14840KMKG MKG20010801001009208/01/01 00:10:31  5-MIN KMKG 010510Z 17007KT 7SM CLR 26/22 A3018 390 79 1700 180/07 RMK AO2
14840KMKG MKG20010801001509208/01/01 00:15:31  5-MIN KMKG 010515Z 18007KT 8SM CLR 26/22 A3018 390 79 1700 190/07 RMK AO2
14840KMKG MKG20010801002009208/01/01 00:20:31  5-MIN KMKG 010520Z 19008KT 8SM CLR 26/22 A3018 390 79 1800 190/08 RMK AO2
14840KMKG MKG20010801002509208/01/01 00:25:31  5-MIN KMKG 010525Z 20011KT 8SM CLR 26/22 A3018 390 79 1800 200/11 RMK AO2
14840KMKG MKG20010801003009208/01/01 00:30:31  5-MIN KMKG 010530Z 20010KT 8SM CLR 27/22 A3018 390 76 1900 210/10 RMK AO2
14840KMKG MKG20010801003509208/01/01 00:35:31  5-MIN KMKG 010535Z 20009KT 8SM CLR 27/22 A3018 390 76 1900 200/09 RMK AO2
14840KMKG MKG20010801004009208/01/01 00:40:31  5-MIN KMKG 010540Z 20011KT 8SM CLR 27/22 A3018 390 76 1900 210/11 RMK AO2
14840KMKG MKG20010801004509208/01/01 00:45:31  5-MIN KMKG 010545Z 20009KT 8SM CLR 26/22 A3018 390 79 1800 210/09 RMK AO2
14840KMKG MKG20010801005012708/01/01 00:50:31  5-MIN KMKG 010550Z 20010KT 8SM CLR 26/22 A3018 390 79 1800 210/10 RMK AO2 SLP216 T02610222 10294 20250 53008
14840KMKG MKG20010801005512708/01/01 00:55:31  5-MIN KMKG 010555Z 21009KT 8SM CLR 26/22 A3018 390 79 1800 210/09 RMK AO2 SLP216 T02610222 10294 20250 53008
14840KMKG MKG20010801010009208/01/01 01:00:31  5-MIN KMKG 010600Z 21010KT 7SM CLR 26/22 A3018 390 79 1800 210/10 RMK AO2
14840KMKG MKG20010801010509208/01/01 01:05:31  5-MIN KMKG 010605Z 21011KT 7SM CLR 26/22 A3018 390 81 1700 210/11 RMK AO2
14840KMKG MKG20010801011009208/01/01 01:10:31  5-MIN KMKG 010610Z 20011KT 7SM CLR 26/22 A3018 390 81 1700 210/11 RMK AO2
14840KMKG MKG20010801011509208/01/01 01:15:31  5-MIN KMKG 010615Z 21010KT 7SM CLR 26/22 A3018 390 81 1700 220/10 RMK AO2
14840KMKG MKG20010801012009208/01/01 01:20:31  5-MIN KMKG 010620Z 21009KT 7SM CLR 26/22 A3018 400 81 1700 220/09 RMK AO2
14840KMKG MKG20010801012509208/01/01 01:25:31  5-MIN KMKG 010625Z 21010KT 7SM CLR 26/22 A3017 400 81 1700 210/10 RMK AO2
14840KMKG MKG20010801013009208/01/01 01:30:31  5-MIN KMKG 010630Z 21011KT 7SM CLR 26/22 A3017 400 81 1800 210/11 RMK AO2
14840KMKG MKG20010801013509208/01/01 01:35:31  5-MIN KMKG 010635Z 21011KT 7SM CLR 26/22 A3017 400 81 1700 210/11 RMK AO2
14840KMKG MKG20010801014009208/01/01 01:40:31  5-MIN KMKG 010640Z 20010KT 7SM CLR 26/22 A3017 400 81 1800 200/10 RMK AO2
14840KMKG MKG20010801014509208/01/01 01:45:31  5-MIN KMKG 010645Z 20009KT 7SM CLR 26/22 A3017 400 81 1800 200/09 RMK AO2
14840KMKG MKG20010801015010908/01/01 01:50:31  5-MIN KMKG 010650Z 20009KT 7SM CLR 26/22 A3017 400 81 1800 210/09 RMK AO2 SLP211 T02560222
14840KMKG MKG20010801015510908/01/01 01:55:31  5-MIN KMKG 010655Z 21011KT 7SM CLR 26/22 A3017 400 81 1800 220/11 RMK AO2 SLP210 T02560222
14840KMKG MKG20010801020009208/01/01 02:00:31  5-MIN KMKG 010700Z 21011KT 7SM CLR 26/22 A3017 400 81 1800 220/11 RMK AO2
14840KMKG MKG20010801020509808/01/01 02:05:31  5-MIN KMKG 010705Z 21011G16KT 7SM CLR 26/22 A3017 400 81 1700 210/11G16 RMK AO2
14840KMKG MKG20010801021009208/01/01 02:10:31  5-MIN KMKG 010710Z 21013KT 7SM CLR 26/22 A3017 400 81 1700 210/13 RMK AO2
14840KMKG MKG20010801021509208/01/01 02:15:31  5-MIN KMKG 010715Z 21009KT 7SM CLR 26/22 A3017 400 81 1700 210/09 RMK AO2
14840KMKG MKG20010801022009208/01/01 02:20:31  5-MIN KMKG 010720Z 21011KT 7SM CLR 26/22 A3018 390 81 1700 210/11 RMK AO2
14840KMKG MKG20010801022509208/01/01 02:25:31  5-MIN KMKG 010725Z 20012KT 7SM CLR 26/22 A3017 400 81 1700 210/12 RMK AO2
14840KMKG MKG20010801023009508/01/01 02:30:31  5-MIN KMKG 010730Z 20012KT 6SM HZ CLR 26/22 A3017 400 81 1700 200/12 RMK AO2
14840KMKG MKG20010801023509508/01/01 02:35:31  5-MIN KMKG 010735Z 20010KT 6SM HZ CLR 26/22 A3018 390 81 1700 210/10 RMK AO2
14840KMKG MKG20010801024009508/01/01 02:40:31  5-MIN KMKG 010740Z 20009KT 6SM HZ CLR 25/22 A3018 390 84 1700 200/09 RMK AO2
14840KMKG MKG20010801024509508/01/01 02:45:31  5-MIN KMKG 010745Z 20009KT 6SM HZ CLR 25/22 A3018 390 84 1700 200/09 RMK AO2
14840KMKG MKG20010801025011208/01/01 02:50:31  5-MIN KMKG 010750Z 20009KT 6SM HZ CLR 25/22 A3018 390 84 1700 200/09 RMK AO2 SLP215 T02500222
14840KMKG MKG20010801025511208/01/01 02:55:31  5-MIN KMKG 010755Z 20010KT 6SM HZ CLR 25/22 A3018 390 84 1700 200/10 RMK AO2 SLP215 T02500222
14840KMKG MKG20010801030009508/01/01 03:00:31  5-MIN KMKG 010800Z 19009KT 6SM HZ CLR 25/22 A3018 390 84 1700 200/09 RMK AO2
14840KMKG MKG20010801030509508/01/01 03:05:31  5-MIN KMKG 010805Z 20009KT 6SM HZ CLR 25/22 A3018 390 84 1700 200/09 RMK AO2
14840KMKG MKG20010801031009508/01/01 03:10:31  5-MIN KMKG 010810Z 19011KT 6SM HZ CLR 25/22 A3018 390 84 1700 200/11 RMK AO2
14840KMKG MKG20010801031509508/01/01 03:15:31  5-MIN KMKG 010815Z 20010KT 6SM HZ CLR 25/22 A3018 390 84 1700 210/10 RMK AO2
14840KMKG MKG20010801032009508/01/01 03:20:31  5-MIN KMKG 010820Z 21010KT 6SM HZ CLR 25/22 A3018 390 84 1700 210/10 RMK AO2
14840KMKG MKG20010801032509508/01/01 03:25:31  5-MIN KMKG 010825Z 20011KT 6SM HZ CLR 25/22 A3018 390 81 1700 210/11 RMK AO2
14840KMKG MKG20010801033009508/01/01 03:30:31  5-MIN KMKG 010830Z 20011KT 6SM HZ CLR 25/22 A3018 390 81 1700 210/11 RMK AO2
14840KMKG MKG20010801033509508/01/01 03:35:31  5-MIN KMKG 010835Z 20012KT 6SM HZ CLR 25/22 A3018 390 81 1700 210/12 RMK AO2
14840KMKG MKG20010801034009508/01/01 03:40:31  5-MIN KMKG 010840Z 20012KT 6SM HZ CLR 25/22 A3018 390 81 1700 200/12 RMK AO2
14840KMKG MKG20010801034509508/01/01 03:45:31  5-MIN KMKG 010845Z 20011KT 6SM HZ CLR 25/22 A3018 400 81 1700 200/11 RMK AO2
14840KMKG MKG20010801035011808/01/01 03:50:31  5-MIN KMKG 010850Z 20011KT 6SM HZ CLR 25/22 A3017 400 81 1700 210/11 RMK AO2 SLP213 T02500217 53008
14840KMKG MKG20010801035511808/01/01 03:55:31  5-MIN KMKG 010855Z 20012KT 6SM HZ CLR 25/22 A3017 400 81 1700 200/12 RMK AO2 SLP213 T02500217 56003
14840KMKG MKG20010801040009508/01/01 04:00:31  5-MIN KMKG 010900Z 20010KT 6SM HZ CLR 25/22 A3017 400 81 1700 210/10 RMK AO2
14840KMKG MKG20010801040509508/01/01 04:05:31  5-MIN KMKG 010905Z 21012KT 6SM HZ CLR 26/22 A3018 390 79 1700 210/12 RMK AO2
14840KMKG MKG20010801041009508/01/01 04:10:31  5-MIN KMKG 010910Z 21012KT 6SM HZ CLR 26/22 A3018 400 79 1700 210/12 RMK AO2
14840KMKG MKG20010801041509508/01/01 04:15:31  5-MIN KMKG 010915Z 20010KT 6SM HZ CLR 26/22 A3017 400 79 1700 210/10 RMK AO2
14840KMKG MKG20010801042009508/01/01 04:20:31  5-MIN KMKG 010920Z 21009KT 6SM HZ CLR 26/22 A3018 390 79 1700 210/09 RMK AO2
14840KMKG MKG20010801042509508/01/01 04:25:31  5-MIN KMKG 010925Z 21010KT 6SM HZ CLR 25/22 A3018 390 81 1700 210/10 RMK AO2
14840KMKG MKG20010801043009508/01/01 04:30:31  5-MIN KMKG 010930Z 20010KT 6SM HZ CLR 25/22 A3018 390 81 1700 200/10 RMK AO2
14840KMKG MKG20010801043509508/01/01 04:35:31  5-MIN KMKG 010935Z 19008KT 6SM HZ CLR 25/22 A3018 390 81 1700 200/08 RMK AO2
14840KMKG MKG20010801044009508/01/01 04:40:31  5-MIN KMKG 010940Z 20009KT 6SM HZ CLR 25/22 A3019 390 81 1700 210/09 RMK AO2
14840KMKG MKG20010801044509508/01/01 04:45:31  5-MIN KMKG 010945Z 20008KT 5SM HZ CLR 25/22 A3019 380 81 1700 200/08 RMK AO2
14840KMKG MKG20010801045011208/01/01 04:50:31  5-MIN KMKG 010950Z 20009KT 5SM HZ CLR 25/22 A3019 380 81 1700 200/09 RMK AO2 SLP219 T02500217
14840KMKG MKG20010801045511208/01/01 04:55:31  5-MIN KMKG 010955Z 19008KT 5SM HZ CLR 24/22 A3020 380 84 1600 190/08 RMK AO2 SLP220 T02440217
14840KMKG MKG20010801050009508/01/01 05:00:31  5-MIN KMKG 011000Z 19008KT 5SM HZ CLR 24/22 A3019 380 84 1600 190/08 RMK AO2
14840KMKG MKG20010801050509508/01/01 05:05:31  5-MIN KMKG 011005Z 19008KT 5SM HZ CLR 24/22 A3019 380 84 1600 190/08 RMK AO2
14840KMKG MKG20010801051009508/01/01 05:10:31  5-MIN KMKG 011010Z 19008KT 5SM BR CLR 24/22 A3019 380 87 1600 190/08 RMK AO2
14840KMKG MKG20010801051509508/01/01 05:15:31  5-MIN KMKG 011015Z 19008KT 5SM BR CLR 24/22 A3019 380 87 1600 190/08 RMK AO2
14840KMKG MKG20010801052009508/01/01 05:20:31  5-MIN KMKG 011020Z 18007KT 5SM BR CLR 24/22 A3019 380 87 1600 180/07 RMK AO2
14840KMKG MKG20010801052509508/01/01 05:25:31  5-MIN KMKG 011025Z 17007KT 4SM BR CLR 24/22 A3019 380 87 1600 180/07 RMK AO2
14840KMKG MKG20010801053009508/01/01 05:30:31  5-MIN KMKG 011030Z 18006KT 4SM BR CLR 24/22 A3019 380 87 1600 180/06 RMK AO2
14840KMKG MKG20010801053509508/01/01 05:35:31  5-MIN KMKG 011035Z 17005KT 3SM BR CLR 24/22 A3019 380 90 1500 180/05 RMK AO2
14840KMKG MKG20010801054009508/01/01 05:40:31  5-MIN KMKG 011040Z 17006KT 3SM BR CLR 24/22 A3019 380 87 1600 170/06 RMK AO2
14840KMKG MKG20010801054509508/01/01 05:45:31  5-MIN KMKG 011045Z 17006KT 3SM BR CLR 24/22 A3019 380 87 1600 170/06 RMK AO2
14840KMKG MKG20010801055011208/01/01 05:50:31  5-MIN KMKG 011050Z 17006KT 3SM BR CLR 24/22 A3019 380 87 1600 170/06 RMK AO2 SLP219 T02440222
14840KMKG MKG20010801055511208/01/01 05:55:31  5-MIN KMKG 011055Z 17006KT 3SM BR CLR 24/22 A3019 380 90 1500 170/06 RMK AO2 SLP220 T02390222
14840KMKG MKG20010801060009508/01/01 06:00:31  5-MIN KMKG 011100Z 17006KT 3SM BR CLR 24/22 A3019 380 87 1600 170/06 RMK AO2
14840KMKG MKG20010801060509508/01/01 06:05:31  5-MIN KMKG 011105Z 18007KT 3SM BR CLR 24/22 A3020 380 87 1600 180/07 RMK AO2
14840KMKG MKG20010801061009508/01/01 06:10:31  5-MIN KMKG 011110Z 18006KT 3SM BR CLR 24/22 A3020 370 87 1600 190/06 RMK AO2
14840KMKG MKG20010801061509508/01/01 06:15:31  5-MIN KMKG 011115Z 18007KT 3SM BR CLR 24/22 A3019 380 87 1600 180/07 RMK AO2
14840KMKG MKG20010801062009508/01/01 06:20:31  5-MIN KMKG 011120Z 18006KT 4SM BR CLR 24/22 A3019 380 87 1600 190/06 RMK AO2
14840KMKG MKG20010801062509508/01/01 06:25:31  5-MIN KMKG 011125Z 19006KT 4SM BR CLR 24/22 A3019 380 87 1600 190/06 RMK AO2
14840KMKG MKG20010801063009508/01/01 06:30:31  5-MIN KMKG 011130Z 19006KT 4SM BR CLR 24/22 A3019 380 87 1600 190/06 RMK AO2
14840KMKG MKG20010801063509508/01/01 06:35:31  5-MIN KMKG 011135Z 19006KT 4SM HZ CLR 25/22 A3020 380 84 1700 200/06 RMK AO2
14840KMKG MKG20010801064009508/01/01 06:40:31  5-MIN KMKG 011140Z 20007KT 4SM HZ CLR 25/22 A3020 380 81 1700 200/07 RMK AO2
14840KMKG MKG20010801064509508/01/01 06:45:31  5-MIN KMKG 011145Z 19009KT 4SM HZ CLR 26/22 A3020 370 79 1700 200/09 RMK AO2
14840KMKG MKG20010801065013008/01/01 06:50:31  5-MIN KMKG 011150Z 20009KT 4SM HZ CLR 26/22 A3020 370 79 1700 200/09 RMK AO2 SLP222 T02560217 10261 20239 56003
14840KMKG MKG20010801065513008/01/01 06:55:31  5-MIN KMKG 011155Z 19009KT 4SM HZ CLR 26/22 A3020 370 79 1700 190/09 RMK AO2 SLP223 T02560217 10261 20239 51009
14840KMKG MKG20010801070009508/01/01 07:00:31  5-MIN KMKG 011200Z 19008KT 4SM HZ CLR 26/22 A3020 370 79 1700 190/08 RMK AO2
14840KMKG MKG20010801070509508/01/01 07:05:31  5-MIN KMKG 011205Z 18009KT 4SM HZ CLR 26/22 A3020 370 81 1700 180/09 RMK AO2
14840KMKG MKG20010801071009508/01/01 07:10:31  5-MIN KMKG 011210Z 18008KT 4SM HZ CLR 26/22 A3020 370 79 1700 190/08 RMK AO2
14840KMKG MKG20010801071509508/01/01 07:15:31  5-MIN KMKG 011215Z 19010KT 4SM HZ CLR 26/22 A3021 370 79 1700 190/10 RMK AO2
14840KMKG MKG20010801072009508/01/01 07:20:31  5-MIN KMKG 011220Z 19010KT 4SM HZ CLR 26/22 A3021 370 79 1800 190/10 RMK AO2
14840KMKG MKG20010801072509508/01/01 07:25:31  5-MIN KMKG 011225Z 19009KT 4SM HZ CLR 26/22 A3021 360 76 1800 200/09 RMK AO2
14840KMKG MKG20010801073009508/01/01 07:30:31  5-MIN KMKG 011230Z 20009KT 4SM HZ CLR 26/22 A3021 360 76 1800 210/09 RMK AO2
14840KMKG MKG20010801073509508/01/01 07:35:31  5-MIN KMKG 011235Z 19010KT 4SM HZ CLR 26/22 A3022 360 76 1800 200/10 RMK AO2
14840KMKG MKG20010801074009508/01/01 07:40:31  5-MIN KMKG 011240Z 20008KT 4SM HZ CLR 27/22 A3022 350 76 1800 210/08 RMK AO2
14840KMKG MKG20010801074509508/01/01 07:45:31  5-MIN KMKG 011245Z 20010KT 4SM HZ CLR 27/22 A3022 350 73 1800 210/10 RMK AO2
14840KMKG MKG20010801075011208/01/01 07:50:31  5-MIN KMKG 011250Z 20010KT 4SM HZ CLR 27/22 A3022 350 76 1800 210/10 RMK AO2 SLP229 T02670222
14840KMKG MKG20010801075511208/01/01 07:55:31  5-MIN KMKG 011255Z 20011KT 4SM HZ CLR 27/22 A3022 350 73 1800 200/11 RMK AO2 SLP230 T02670217
14840KMKG MKG20010801080009508/01/01 08:00:31  5-MIN KMKG 011300Z 20011KT 5SM HZ CLR 27/22 A3023 350 73 1800 200/11 RMK AO2
14840KMKG MKG20010801080509508/01/01 08:05:31  5-MIN KMKG 011305Z 21010KT 5SM HZ CLR 27/22 A3023 340 73 1800 210/10 RMK AO2
14840KMKG MKG20010801081009508/01/01 08:10:31  5-MIN KMKG 011310Z 21010KT 5SM HZ CLR 27/22 A3023 340 73 1800 220/10 RMK AO2
14840KMKG MKG20010801081509508/01/01 08:15:31  5-MIN KMKG 011315Z 21009KT 5SM HZ CLR 27/22 A3024 340 73 1800 210/09 RMK AO2
14840KMKG MKG20010801082009508/01/01 08:20:31  5-MIN KMKG 011320Z 21009KT 5SM HZ CLR 27/22 A3023 340 73 1800 220/09 RMK AO2
14840KMKG MKG20010801082509508/01/01 08:25:31  5-MIN KMKG 011325Z 22010KT 5SM HZ CLR 27/22 A3024 340 73 1800 220/10 RMK AO2
14840KMKG MKG20010801083009508/01/01 08:30:31  5-MIN KMKG 011330Z 21010KT 5SM HZ CLR 27/22 A3023 340 73 1800 220/10 RMK AO2
14840KMKG MKG20010801083509508/01/01 08:35:31  5-MIN KMKG 011335Z 21011KT 5SM HZ CLR 27/22 A3023 340 73 1800 220/11 RMK AO2
14840KMKG MKG20010801084009508/01/01 08:40:31  5-MIN KMKG 011340Z 21010KT 5SM HZ CLR 27/22 A3024 340 73 1800 220/10 RMK AO2
14840KMKG MKG20010801084509508/01/01 08:45:31  5-MIN KMKG 011345Z 21010KT 5SM HZ CLR 27/22 A3024 340 74 1900 210/10 RMK AO2
14840KMKG MKG20010801085011208/01/01 08:50:31  5-MIN KMKG 011350Z 21009KT 5SM HZ CLR 27/22 A3024 340 74 1900 210/09 RMK AO2 SLP234 T02720222
14840KMKG MKG20010801085511208/01/01 08:55:31  5-MIN KMKG 011355Z 20009KT 5SM HZ CLR 27/22 A3024 340 73 1800 210/09 RMK AO2 SLP235 T02670217
14840KMKG MKG20010801090009508/01/01 09:00:31  5-MIN KMKG 011400Z 21012KT 4SM HZ CLR 27/22 A3024 340 74 1900 210/12 RMK AO2
14840KMKG MKG20010801090509508/01/01 09:05:31  5-MIN KMKG 011405Z 21010KT 4SM HZ CLR 27/22 A3024 340 71 1900 210/10 RMK AO2
14840KMKG MKG20010801091009508/01/01 09:10:31  5-MIN KMKG 011410Z 21009KT 4SM HZ CLR 28/22 A3024 340 71 1900 210/09 RMK AO2
14840KMKG MKG20010801091509508/01/01 09:15:31  5-MIN KMKG 011415Z 22009KT 4SM HZ CLR 28/22 A3024 330 71 1900 220/09 RMK AO2
14840KMKG MKG20010801092009508/01/01 09:20:31  5-MIN KMKG 011420Z 21009KT 4SM HZ CLR 28/22 A3024 330 71 1900 210/09 RMK AO2
14840KMKG MKG20010801092509508/01/01 09:25:31  5-MIN KMKG 011425Z 20010KT 4SM HZ CLR 28/22 A3024 330 71 1900 210/10 RMK AO2
14840KMKG MKG20010801093009508/01/01 09:30:31  5-MIN KMKG 011430Z 20011KT 4SM HZ CLR 28/22 A3024 340 71 1900 200/11 RMK AO2
14840KMKG MKG20010801093509508/01/01 09:35:31  5-MIN KMKG 011435Z 21008KT 4SM HZ CLR 28/22 A3024 330 71 1900 220/08 RMK AO2
14840KMKG MKG20010801094009508/01/01 09:40:31  5-MIN KMKG 011440Z 21010KT 4SM HZ CLR 28/22 A3024 330 71 1900 220/10 RMK AO2
14840KMKG MKG20010801094509508/01/01 09:45:31  5-MIN KMKG 011445Z 21008KT 4SM HZ CLR 27/22 A3024 340 71 1900 210/08 RMK AO2
14840KMKG MKG20010801095011808/01/01 09:50:31  5-MIN KMKG 011450Z 22010KT 4SM HZ CLR 28/22 A3024 330 71 1900 220/10 RMK AO2 SLP238 T02780222 51009
14840KMKG MKG20010801095511808/01/01 09:55:31  5-MIN KMKG 011455Z 21008KT 4SM HZ CLR 28/22 A3024 330 71 1900 210/08 RMK AO2 SLP237 T02780222 51014
14840KMKG MKG20010801100009508/01/01 10:00:31  5-MIN KMKG 011500Z 22010KT 4SM HZ CLR 28/22 A3025 330 71 1900 220/10 RMK AO2
14840KMKG MKG20010801100509508/01/01 10:05:31  5-MIN KMKG 011505Z 21010KT 4SM HZ CLR 28/22 A3024 330 69 1900 210/10 RMK AO2
14840KMKG MKG20010801101009508/01/01 10:10:31  5-MIN KMKG 011510Z 20010KT 4SM HZ CLR 28/22 A3025 330 69 2000 210/10 RMK AO2
14840KMKG MKG20010801101509508/01/01 10:15:31  5-MIN KMKG 011515Z 21010KT 4SM HZ CLR 28/22 A3025 330 71 1900 210/10 RMK AO2
14840KMKG MKG20010801102009508/01/01 10:20:31  5-MIN KMKG 011520Z 21010KT 4SM HZ CLR 28/22 A3025 330 71 1900 220/10 RMK AO2
14840KMKG MKG20010801102509508/01/01 10:25:31  5-MIN KMKG 011525Z 21011KT 4SM HZ CLR 28/22 A3025 330 71 1900 210/11 RMK AO2
14840KMKG MKG20010801103009508/01/01 10:30:31  5-MIN KMKG 011530Z 22010KT 4SM HZ CLR 28/22 A3025 330 69 2000 220/10 RMK AO2
14840KMKG MKG20010801103509508/01/01 10:35:31  5-MIN KMKG 011535Z 21010KT 4SM HZ CLR 28/22 A3024 330 69 2000 210/10 RMK AO2
14840KMKG MKG20010801104009508/01/01 10:40:31  5-MIN KMKG 011540Z 21011KT 4SM HZ CLR 28/22 A3024 340 69 2000 210/11 RMK AO2
14840KMKG MKG20010801104509508/01/01 10:45:31  5-MIN KMKG 011545Z 19011KT 4SM HZ CLR 28/22 A3024 340 69 2000 190/11 RMK AO2
14840KMKG MKG20010801105011208/01/01 10:50:31  5-MIN KMKG 011550Z 20012KT 4SM HZ CLR 28/22 A3024 340 69 2000 200/12 RMK AO2 SLP235 T02830222
14840KMKG MKG20010801105511208/01/01 10:55:31  5-MIN KMKG 011555Z 20011KT 4SM HZ CLR 28/22 A3024 340 69 2000 200/11 RMK AO2 SLP235 T02830222
14840KMKG MKG20010801110009508/01/01 11:00:31  5-MIN KMKG 011600Z 21010KT 4SM HZ CLR 28/22 A3024 340 69 2000 210/10 RMK AO2
14840KMKG MKG20010801110509508/01/01 11:05:31  5-MIN KMKG 011605Z 20013KT 4SM HZ CLR 29/22 A3024 340 67 2100 200/13 RMK AO2
14840KMKG MKG20010801111009508/01/01 11:10:31  5-MIN KMKG 011610Z 20011KT 4SM HZ CLR 28/22 A3023 340 69 2000 210/11 RMK AO2
14840KMKG MKG20010801111509508/01/01 11:15:31  5-MIN KMKG 011615Z 20011KT 4SM HZ CLR 28/22 A3023 350 69 2000 210/11 RMK AO2
14840KMKG MKG20010801112009508/01/01 11:20:31  5-MIN KMKG 011620Z 20013KT 4SM HZ CLR 28/22 A3022 350 69 2000 200/13 RMK AO2
14840KMKG MKG20010801112509508/01/01 11:25:31  5-MIN KMKG 011625Z 19012KT 4SM HZ CLR 29/22 A3022 350 67 2100 190/12 RMK AO2
14840KMKG MKG20010801113009508/01/01 11:30:31  5-MIN KMKG 011630Z 19013KT 4SM HZ CLR 28/22 A3022 360 69 2000 200/13 RMK AO2
14840KMKG MKG20010801113509508/01/01 11:35:31  5-MIN KMKG 011635Z 20013KT 4SM HZ CLR 28/22 A3021 360 69 2000 200/13 RMK AO2
14840KMKG MKG20010801114009508/01/01 11:40:31  5-MIN KMKG 011640Z 20013KT 4SM HZ CLR 28/22 A3021 360 66 2000 200/13 RMK AO2
14840KMKG MKG20010801114509508/01/01 11:45:31  5-MIN KMKG 011645Z 20013KT 4SM HZ CLR 28/22 A3021 370 69 2000 210/13 RMK AO2
14840KMKG MKG20010801115011208/01/01 11:50:31  5-MIN KMKG 011650Z 19014KT 4SM HZ CLR 29/22 A3021 370 67 2100 190/14 RMK AO2 SLP224 T02890222
14840KMKG MKG20010801115511208/01/01 11:55:31  5-MIN KMKG 011655Z 19013KT 4SM HZ CLR 29/22 A3020 370 64 2100 190/13 RMK AO2 SLP223 T02890217
14840KMKG MKG20010801120009508/01/01 12:00:31  5-MIN KMKG 011700Z 20012KT 4SM HZ CLR 28/22 A3020 370 69 2000 200/12 RMK AO2
14840KMKG MKG20010801120509508/01/01 12:05:31  5-MIN KMKG 011705Z 19011KT 4SM HZ CLR 29/22 A3020 370 67 2100 200/11 RMK AO2
14840KMKG MKG20010801121009508/01/01 12:10:31  5-MIN KMKG 011710Z 19011KT 4SM HZ CLR 29/22 A3020 370 67 2100 200/11 RMK AO2
14840KMKG MKG20010801121509508/01/01 12:15:31  5-MIN KMKG 011715Z 20012KT 4SM HZ CLR 29/22 A3020 380 64 2200 200/12 RMK AO2
14840KMKG MKG20010801122009508/01/01 12:20:31  5-MIN KMKG 011720Z 20013KT 4SM HZ CLR 29/22 A3019 380 64 2200 210/13 RMK AO2
14840KMKG MKG20010801122509508/01/01 12:25:31  5-MIN KMKG 011725Z 20011KT 4SM HZ CLR 29/22 A3019 380 64 2200 200/11 RMK AO2
14840KMKG MKG20010801123009508/01/01 12:30:31  5-MIN KMKG 011730Z 19011KT 4SM HZ CLR 30/22 A3020 380 62 2200 200/11 RMK AO2
14840KMKG MKG20010801123509508/01/01 12:35:31  5-MIN KMKG 011735Z 19012KT 4SM HZ CLR 29/22 A3020 380 64 2200 190/12 RMK AO2
14840KMKG MKG20010801124009508/01/01 12:40:31  5-MIN KMKG 011740Z 18013KT 4SM HZ CLR 29/22 A3019 380 64 2200 190/13 RMK AO2
14840KMKG MKG20010801124509508/01/01 12:45:31  5-MIN KMKG 011745Z 21013KT 4SM HZ CLR 29/22 A3020 380 67 2100 210/13 RMK AO2
14840KMKG MKG20010801125013008/01/01 12:50:31  5-MIN KMKG 011750Z 21012KT 4SM HZ CLR 29/22 A3020 370 64 2100 210/12 RMK AO2 SLP222 T02890217 10300 20256 51014
14840KMKG MKG20010801125513008/01/01 12:55:31  5-MIN KMKG 011755Z 20011KT 4SM HZ CLR 28/22 A3020 370 66 2000 200/11 RMK AO2 SLP222 T02830217 10300 20256 56014
14840KMKG MKG20010801130009508/01/01 13:00:31  5-MIN KMKG 011800Z 20011KT 4SM HZ CLR 28/22 A3020 370 66 2000 200/11 RMK AO2
14840KMKG MKG20010801130509508/01/01 13:05:31  5-MIN KMKG 011805Z 22012KT 4SM HZ CLR 28/22 A3021 360 69 2000 230/12 RMK AO2
14840KMKG MKG20010801131009508/01/01 13:10:31  5-MIN KMKG 011810Z 22014KT 4SM HZ CLR 28/22 A3021 360 69 2000 220/14 RMK AO2
14840KMKG MKG20010801131509508/01/01 13:15:31  5-MIN KMKG 011815Z 22014KT 4SM HZ CLR 28/22 A3021 360 69 2000 220/14 RMK AO2
14840KMKG MKG20010801132009508/01/01 13:20:31  5-MIN KMKG 011820Z 21011KT 4SM HZ CLR 28/22 A3021 360 69 2000 210/11 RMK AO2
14840KMKG MKG20010801132509508/01/01 13:25:31  5-MIN KMKG 011825Z 20012KT 4SM HZ CLR 27/22 A3021 360 71 1900 210/12 RMK AO2
14840KMKG MKG20010801133009508/01/01 13:30:31  5-MIN KMKG 011830Z 20010KT 4SM HZ CLR 28/22 A3022 360 69 1900 210/10 RMK AO2
14840KMKG MKG20010801133509508/01/01 13:35:31  5-MIN KMKG 011835Z 20012KT 4SM HZ CLR 28/22 A3022 360 69 1900 200/12 RMK AO2
14840KMKG MKG20010801134009508/01/01 13:40:31  5-MIN KMKG 011840Z 20009KT 4SM HZ CLR 28/22 A3022 360 69 1900 210/09 RMK AO2
14840KMKG MKG20010801134509508/01/01 13:45:31  5-MIN KMKG 011845Z 20009KT 4SM HZ CLR 28/22 A3022 360 71 1900 210/09 RMK AO2
14840KMKG MKG20010801135011208/01/01 13:50:31  5-MIN KMKG 011850Z 20009KT 4SM HZ CLR 28/22 A3022 350 69 1900 200/09 RMK AO2 SLP229 T02780217
14840KMKG MKG20010801135511208/01/01 13:55:31  5-MIN KMKG 011855Z 21010KT 4SM HZ CLR 28/22 A3022 350 66 2000 220/10 RMK AO2 SLP229 T02830217
14840KMKG MKG20010801140009508/01/01 14:00:31  5-MIN KMKG 011900Z 21011KT 4SM HZ CLR 28/22 A3022 350 69 1900 220/11 RMK AO2
14840KMKG MKG20010801140509508/01/01 14:05:31  5-MIN KMKG 011905Z 22012KT 4SM HZ CLR 28/22 A3022 360 66 2000 220/12 RMK AO2
14840KMKG MKG20010801141009508/01/01 14:10:31  5-MIN KMKG 011910Z 20011KT 4SM HZ CLR 28/22 A3022 360 69 2000 210/11 RMK AO2
14840KMKG MKG20010801141509508/01/01 14:15:31  5-MIN KMKG 011915Z 21013KT 4SM HZ CLR 28/22 A3021 360 66 2000 210/13 RMK AO2
14840KMKG MKG20010801142009508/01/01 14:20:31  5-MIN KMKG 011920Z 21012KT 4SM HZ CLR 28/22 A3021 360 66 2000 210/12 RMK AO2
14840KMKG MKG20010801142509508/01/01 14:25:31  5-MIN KMKG 011925Z 20013KT 4SM HZ CLR 28/22 A3021 360 66 2000 210/13 RMK AO2
14840KMKG MKG20010801143009508/01/01 14:30:31  5-MIN KMKG 011930Z 22013KT 4SM HZ CLR 29/22 A3021 360 64 2100 220/13 RMK AO2
14840KMKG MKG20010801143509508/01/01 14:35:31  5-MIN KMKG 011935Z 21012KT 4SM HZ CLR 28/22 A3021 370 66 2000 220/12 RMK AO2
14840KMKG MKG20010801144009508/01/01 14:40:31  5-MIN KMKG 011940Z 21011KT 4SM HZ CLR 29/22 A3021 370 64 2100 210/11 RMK AO2
14840KMKG MKG20010801144509508/01/01 14:45:31  5-MIN KMKG 011945Z 20012KT 4SM HZ CLR 29/22 A3020 370 64 2200 210/12 RMK AO2
14840KMKG MKG20010801145011208/01/01 14:50:31  5-MIN KMKG 011950Z 20011KT 4SM HZ CLR 29/22 A3019 380 64 2100 200/11 RMK AO2 SLP219 T02890217
14840KMKG MKG20010801145511208/01/01 14:55:31  5-MIN KMKG 011955Z 20012KT 4SM HZ CLR 29/22 A3019 380 62 2200 200/12 RMK AO2 SLP218 T02940217
14840KMKG MKG20010801150009508/01/01 15:00:31  5-MIN KMKG 012000Z 20012KT 5SM HZ CLR 30/22 A3019 380 62 2200 200/12 RMK AO2
14840KMKG MKG20010801150509508/01/01 15:05:31  5-MIN KMKG 012005Z 21013KT 5SM HZ CLR 29/22 A3019 380 62 2200 210/13 RMK AO2
14840KMKG MKG20010801151009508/01/01 15:10:31  5-MIN KMKG 012010Z 19014KT 5SM HZ CLR 30/22 A3019 390 60 2200 200/14 RMK AO2
14840KMKG MKG20010801151510108/01/01 15:15:31  5-MIN KMKG 012015Z 21010G19KT 5SM HZ CLR 29/22 A3018 390 62 2200 210/10G19 RMK AO2
14840KMKG MKG20010801152010108/01/01 15:20:31  5-MIN KMKG 012020Z 20010G19KT 5SM HZ CLR 30/22 A3019 390 60 2200 200/10G19 RMK AO2
14840KMKG MKG20010801152509508/01/01 15:25:31  5-MIN KMKG 012025Z 20013KT 5SM HZ CLR 29/22 A3019 380 62 2200 210/13 RMK AO2
14840KMKG MKG20010801153009508/01/01 15:30:31  5-MIN KMKG 012030Z 20013KT 5SM HZ CLR 30/22 A3018 390 60 2200 210/13 RMK AO2
14840KMKG MKG20010801153509508/01/01 15:35:31  5-MIN KMKG 012035Z 20013KT 5SM HZ CLR 30/22 A3018 390 60 2200 200/13 RMK AO2
14840KMKG MKG20010801154009508/01/01 15:40:31  5-MIN KMKG 012040Z 20013KT 5SM HZ CLR 31/22 A3017 400 58 2300 200/13 RMK AO2
14840KMKG MKG20010801154509508/01/01 15:45:31  5-MIN KMKG 012045Z 20013KT 5SM HZ CLR 31/22 A3017 400 60 2300 210/13 RMK AO2
14840KMKG MKG20010801155011808/01/01 15:50:31  5-MIN KMKG 012050Z 19014KT 5SM HZ CLR 31/22 A3017 400 60 2300 200/14 RMK AO2 SLP211 T03060222 56014
14840KMKG MKG20010801155511808/01/01 15:55:31  5-MIN KMKG 012055Z 19015KT 5SM HZ CLR 31/22 A3017 400 58 2300 200/15 RMK AO2 SLP211 T03060217 58011
14840KMKG MKG20010801160009508/01/01 16:00:31  5-MIN KMKG 012100Z 20013KT 5SM HZ CLR 31/22 A3017 400 58 2400 200/13 RMK AO2
14840KMKG MKG20010801160509508/01/01 16:05:31  5-MIN KMKG 012105Z 20015KT 5SM HZ CLR 31/22 A3016 410 58 2400 200/15 RMK AO2
14840KMKG MKG20010801161010108/01/01 16:10:31  5-MIN KMKG 012110Z 19013G19KT 5SM HZ CLR 30/22 A3017 400 60 2300 200/13G19 RMK AO2
14840KMKG MKG20010801161510108/01/01 16:15:31  5-MIN KMKG 012115Z 20014G19KT 5SM HZ CLR 30/22 A3017 400 60 2300 200/14G19 RMK AO2
14840KMKG MKG20010801162010108/01/01 16:20:31  5-MIN KMKG 012120Z 20012G18KT 5SM HZ CLR 30/22 A3017 400 60 2300 200/12G18 RMK AO2
14840KMKG MKG20010801162509508/01/01 16:25:31  5-MIN KMKG 012125Z 22014KT 5SM HZ CLR 31/22 A3017 400 58 2300 220/14 RMK AO2
14840KMKG MKG20010801163009508/01/01 16:30:31  5-MIN KMKG 012130Z 21012KT 5SM HZ CLR 31/22 A3018 390 58 2300 210/12 RMK AO2
14840KMKG MKG20010801163509508/01/01 16:35:31  5-MIN KMKG 012135Z 20014KT 5SM HZ CLR 31/22 A3018 390 58 2300 200/14 RMK AO2
14840KMKG MKG20010801164009508/01/01 16:40:31  5-MIN KMKG 012140Z 21013KT 5SM HZ CLR 31/22 A3018 390 56 2400 210/13 RMK AO2
14840KMKG MKG20010801164509508/01/01 16:45:31  5-MIN KMKG 012145Z 20013KT 5SM HZ CLR 31/22 A3018 390 58 2300 200/13 RMK AO2
14840KMKG MKG20010801165011808/01/01 16:50:31  5-MIN KMKG 012150Z 20015G19KT 5SM HZ CLR 31/22 A3018 390 58 2300 200/15G19 RMK AO2 SLP215 T03060217
14840KMKG MKG20010801165511808/01/01 16:55:31  5-MIN KMKG 012155Z 20014G20KT 5SM HZ CLR 30/22 A3018 390 60 2200 200/14G20 RMK AO2 SLP215 T03000217
14840KMKG MKG20010801170010108/01/01 17:00:31  5-MIN KMKG 012200Z 20011G20KT 5SM HZ CLR 30/22 A3018 390 60 2200 210/11G20 RMK AO2
14840KMKG MKG20010801170509508/01/01 17:05:31  5-MIN KMKG 012205Z 20011KT 5SM HZ CLR 31/22 A3018 390 58 2300 210/11 RMK AO2
14840KMKG MKG20010801171009508/01/01 17:10:31  5-MIN KMKG 012210Z 21012KT 6SM HZ CLR 31/22 A3018 390 60 2300 210/12 RMK AO2
14840KMKG MKG20010806160509308/06/01 16:05:31  5-MIN KMKG 062105Z 20012KT 10SM CLR 29/21 A3012 450 60 2200 210/12 RMK AO2
14840KMKG MKG20010806161009308/06/01 16:10:31  5-MIN KMKG 062110Z 21012KT 10SM CLR 29/21 A3012 450 60 2200 210/12 RMK AO2
14840KMKG MKG20010806161509908/06/01 16:15:31  5-MIN KMKG 062115Z 22013G18KT 10SM CLR 29/20 A3011 450 58 2200 220/13G18 RMK AO2
14840KMKG MKG20010806162009308/06/01 16:20:31  5-MIN KMKG 062120Z 20013KT 10SM CLR 29/20 A3011 450 58 2200 210/13 RMK AO2
14840KMKG MKG20010806162509308/06/01 16:25:31  5-MIN KMKG 062125Z 20013KT 10SM CLR 29/20 A3011 450 58 2200 200/13 RMK AO2
14840KMKG MKG20010806163009308/06/01 16:30:31  5-MIN KMKG 062130Z 20013KT 10SM CLR 28/20 A3011 450 60 2100 210/13 RMK AO2
14840KMKG MKG20010806163509308/06/01 16:35:31  5-MIN KMKG 062135Z 21013KT 10SM CLR 29/20 A3011 460 58 2200 210/13 RMK AO2
14840KMKG MKG20010806164009308/06/01 16:40:31  5-MIN KMKG 062140Z 21014KT 10SM CLR 28/19 A3011 460 58 2100 210/14 RMK AO2
14840KMKG MKG20010806164509308/06/01 16:45:31  5-MIN KMKG 062145Z 21015KT 10SM CLR 28/19 A3011 460 58 2100 210/15 RMK AO2
14840KMKG MKG20010806165011008/06/01 16:50:31  5-MIN KMKG 062150Z 21014KT 10SM CLR 28/19 A3010 460 58 2100 210/14 RMK AO2 SLP190 T02830194
14840KMKG MKG20010806165511008/06/01 16:55:31  5-MIN KMKG 062155Z 21014KT 10SM CLR 28/19 A3011 460 58 2100 210/14 RMK AO2 SLP191 T02830194
14840KMKG MKG20010806170009308/06/01 17:00:31  5-MIN KMKG 062200Z 21015KT 10SM CLR 28/19 A3011 460 58 2100 220/15 RMK AO2
14840KMKG MKG20010806170509308/06/01 17:05:31  5-MIN KMKG 062205Z 21014KT 10SM CLR 28/19 A3011 460 58 2100 210/14 RMK AO2
14840KMKG MKG20010806171009308/06/01 17:10:31  5-MIN KMKG 062210Z 21013KT 10SM CLR 28/19 A3011 460 58 2100 210/13 RMK AO2
14840KMKG MKG20010806171509308/06/01 17:15:31  5-MIN KMKG 062215Z 21014KT 10SM CLR 28/19 A3010 460 58 2100 210/14 RMK AO2
14840KMKG MKG20010806172009308/06/01 17:20:31  5-MIN KMKG 062220Z 21013KT 10SM CLR 28/19 A3010 460 58 2100 220/13 RMK AO2
14840KMKG MKG20010806172509308/06/01 17:25:31  5-MIN KMKG 062225Z 21013KT 10SM CLR 28/19 A3010 460 58 2100 210/13 RMK AO2
14840KMKG MKG20010806173009308/06/01 17:30:31  5-MIN KMKG 062230Z 20013KT 10SM CLR 28/19 A3010 460 58 2100 210/13 RMK AO2
14840KMKG MKG20010806173509308/06/01 17:35:31  5-MIN KMKG 062235Z 21012KT 10SM CLR 28/19 A3010 460 58 2100 210/12 RMK AO2
14840KMKG MKG20010806174009908/06/01 17:40:31  5-MIN KMKG 062240Z 21013G18KT 10SM CLR 28/19 A3010 460 58 2100 210/13G18 RMK AO2
14840KMKG MKG20010806174509908/06/01 17:45:31  5-MIN KMKG 062245Z 21012G18KT 10SM CLR 27/19 A3010 460 62 2000 210/12G18 RMK AO2
14840KMKG MKG20010806175011008/06/01 17:50:31  5-MIN KMKG 062250Z 21013KT 10SM CLR 28/19 A3010 460 60 2100 210/13 RMK AO2 SLP189 T02780194
14840KMKG MKG20010806175511008/06/01 17:55:31  5-MIN KMKG 062255Z 21013KT 10SM CLR 28/19 A3010 470 56 2100 210/13 RMK AO2 SLP188 T02830189
14840KMKG MKG20010806180009308/06/01 18:00:31  5-MIN KMKG 062300Z 21012KT 10SM CLR 28/19 A3010 470 58 2100 210/12 RMK AO2
14840KMKG MKG20010806180509308/06/01 18:05:31  5-MIN KMKG 062305Z 21011KT 10SM CLR 28/19 A3010 470 58 2100 210/11 RMK AO2
14840KMKG MKG20010806181009308/06/01 18:10:31  5-MIN KMKG 062310Z 21010KT 10SM CLR 28/19 A3010 470 56 2100 220/10 RMK AO2
14840KMKG MKG20010806181509308/06/01 18:15:31  5-MIN KMKG 062315Z 21011KT 10SM CLR 28/19 A3010 470 58 2100 210/11 RMK AO2
14840KMKG MKG20010806182009308/06/01 18:20:31  5-MIN KMKG 062320Z 20011KT 10SM CLR 28/19 A3010 470 58 2100 210/11 RMK AO2
14840KMKG MKG20010806182509308/06/01 18:25:31  5-MIN KMKG 062325Z 20011KT 10SM CLR 27/19 A3010 470 60 2000 210/11 RMK AO2
14840KMKG MKG20010806183009308/06/01 18:30:31  5-MIN KMKG 062330Z 20010KT 10SM CLR 27/19 A3010 470 60 2000 200/10 RMK AO2
14840KMKG MKG20010806183509308/06/01 18:35:31  5-MIN KMKG 062335Z 20010KT 10SM CLR 27/19 A3009 470 60 2000 200/10 RMK AO2
14840KMKG MKG20010806184009308/06/01 18:40:31  5-MIN KMKG 062340Z 20010KT 10SM CLR 27/19 A3009 470 60 2000 200/10 RMK AO2
14840KMKG MKG20010806184509308/06/01 18:45:31  5-MIN KMKG 062345Z 20011KT 10SM CLR 27/19 A3009 470 62 2000 210/11 RMK AO2
14840KMKG MKG20010806185012808/06/01 18:50:31  5-MIN KMKG 062350Z 21011KT 10SM CLR 27/19 A3009 470 62 2000 210/11 RMK AO2 SLP186 T02670189 10294 20267 56011
14840KMKG MKG20010806185512808/06/01 18:55:31  5-MIN KMKG 062355Z 20010KT 10SM CLR 27/19 A3009 470 62 2000 210/10 RMK AO2 SLP186 T02670189 10294 20267 56009
14840KMKG MKG20010806190009308/06/01 19:00:31  5-MIN KMKG 070000Z 20011KT 10SM CLR 27/19 A3009 470 62 2000 200/11 RMK AO2
14840KMKG MKG20010806190509308/06/01 19:05:31  5-MIN KMKG 070005Z 21011KT 10SM CLR 27/19 A3009 470 62 2000 210/11 RMK AO2
14840KMKG MKG20010806191009308/06/01 19:10:31  5-MIN KMKG 070010Z 20012KT 10SM CLR 27/19 A3009 470 62 2000 200/12 RMK AO2
14840KMKG MKG20010806191509308/06/01 19:15:31  5-MIN KMKG 070015Z 20011KT 10SM CLR 27/19 A3009 470 62 2000 210/11 RMK AO2
14840KMKG MKG20010806192009308/06/01 19:20:31  5-MIN KMKG 070020Z 20011KT 10SM CLR 27/18 A3009 470 60 2000 210/11 RMK AO2
14840KMKG MKG20010806192509308/06/01 19:25:31  5-MIN KMKG 070025Z 20010KT 10SM CLR 27/19 A3009 480 62 2000 210/10 RMK AO2
14840KMKG MKG20010806193009308/06/01 19:30:31  5-MIN KMKG 070030Z 20010KT 10SM CLR 27/18 A3009 480 60 2000 200/10 RMK AO2
14840KMKG MKG20010806193509308/06/01 19:35:31  5-MIN KMKG 070035Z 21011KT 10SM CLR 26/19 A3009 480 64 1900 210/11 RMK AO2
14840KMKG MKG20010806194009308/06/01 19:40:31  5-MIN KMKG 070040Z 21011KT 10SM CLR 26/19 A3009 480 64 1900 210/11 RMK AO2
14840KMKG MKG20010806194509308/06/01 19:45:31  5-MIN KMKG 070045Z 20011KT 10SM CLR 26/19 A3009 480 64 1900 210/11 RMK AO2
14840KMKG MKG20010806195011008/06/01 19:50:31  5-MIN KMKG 070050Z 21012KT 10SM CLR 26/19 A3009 480 64 1900 210/12 RMK AO2 SLP184 T02610189
14840KMKG MKG20010806195511008/06/01 19:55:31  5-MIN KMKG 070055Z 21011KT 10SM CLR 26/19 A3008 480 64 1900 210/11 RMK AO2 SLP183 T02610189
14840KMKG MKG20010806200009308/06/01 20:00:31  5-MIN KMKG 070100Z 20011KT 10SM CLR 26/19 A3008 480 64 1900 210/11 RMK AO2
14840KMKG MKG20010806200509308/06/01 20:05:31  5-MIN KMKG 070105Z 21011KT 10SM CLR 26/19 A3008 480 64 1900 210/11 RMK AO2
14840KMKG MKG20010806201009308/06/01 20:10:31  5-MIN KMKG 070110Z 21011KT 10SM CLR 26/19 A3008 480 64 1900 210/11 RMK AO2
14840KMKG MKG20010806201509308/06/01 20:15:31  5-MIN KMKG 070115Z 21010KT 10SM CLR 26/19 A3008 480 64 1900 210/10 RMK AO2
14840KMKG MKG20010806202009308/06/01 20:20:31  5-MIN KMKG 070120Z 21010KT 10SM CLR 26/19 A3008 480 64 1900 210/10 RMK AO2
14840KMKG MKG20010806202509308/06/01 20:25:31  5-MIN KMKG 070125Z 20012KT 10SM CLR 26/19 A3008 480 64 1900 210/12 RMK AO2
14840KMKG MKG20010806203009308/06/01 20:30:31  5-MIN KMKG 070130Z 20013KT 10SM CLR 26/19 A3008 480 64 1900 210/13 RMK AO2
14840KMKG MKG20010806203509308/06/01 20:35:31  5-MIN KMKG 070135Z 20010KT 10SM CLR 26/19 A3008 480 64 1900 210/10 RMK AO2
14840KMKG MKG20010806204009308/06/01 20:40:31  5-MIN KMKG 070140Z 20011KT 10SM CLR 26/19 A3008 480 64 1900 210/11 RMK AO2
14840KMKG MKG20010806204509308/06/01 20:45:31  5-MIN KMKG 070145Z 21012KT 10SM CLR 26/19 A3008 480 64 1900 210/12 RMK AO2
14840KMKG MKG20010806205011008/06/01 20:50:31  5-MIN KMKG 070150Z 21011KT 10SM CLR 27/19 A3009 480 64 2000 220/11 RMK AO2 SLP184 T02670194
14840KMKG MKG20010806205511008/06/01 20:55:31  5-MIN KMKG 070155Z 21012KT 10SM CLR 27/19 A3009 480 62 2000 220/12 RMK AO2 SLP184 T02670189
14840KMKG MKG20010806210009308/06/01 21:00:31  5-MIN KMKG 070200Z 21010KT 10SM CLR 27/19 A3009 480 64 2000 220/10 RMK AO2
14840KMKG MKG20010806210509308/06/01 21:05:31  5-MIN KMKG 070205Z 21011KT 10SM CLR 26/19 A3009 480 66 1900 220/11 RMK AO2
14840KMKG MKG20010806211009308/06/01 21:10:31  5-MIN KMKG 070210Z 21011KT 10SM CLR 26/19 A3009 480 66 1900 220/11 RMK AO2
14840KMKG MKG20010806211509308/06/01 21:15:31  5-MIN KMKG 070215Z 21011KT 10SM CLR 26/20 A3009 480 68 1900 220/11 RMK AO2
14840KMKG MKG20010806212009308/06/01 21:20:31  5-MIN KMKG 070220Z 21012KT 10SM CLR 26/20 A3009 480 68 1900 220/12 RMK AO2
14840KMKG MKG20010806212509308/06/01 21:25:31  5-MIN KMKG 070225Z 22013KT 10SM CLR 26/20 A3009 480 68 1900 220/13 RMK AO2
14840KMKG MKG20010806213009308/06/01 21:30:31  5-MIN KMKG 070230Z 22010KT 10SM CLR 26/20 A3009 480 68 1900 220/10 RMK AO2
14840KMKG MKG20010806213509308/06/01 21:35:31  5-MIN KMKG 070235Z 22009KT 10SM CLR 26/20 A3009 470 68 1900 230/09 RMK AO2
14840KMKG MKG20010806214009308/06/01 21:40:31  5-MIN KMKG 070240Z 23009KT 10SM CLR 26/21 A3009 470 71 1900 230/09 RMK AO2
14840KMKG MKG20010806214509308/06/01 21:45:31  5-MIN KMKG 070245Z 23008KT 10SM CLR 26/21 A3009 470 71 1900 230/08 RMK AO2
14840KMKG MKG20010806215011608/06/01 21:50:31  5-MIN KMKG 070250Z 23008KT 10SM CLR 26/21 A3009 470 73 1800 230/08 RMK AO2 SLP187 T02560206 56009
14840KMKG MKG20010806215511608/06/01 21:55:31  5-MIN KMKG 070255Z 23008KT 10SM CLR 26/21 A3010 470 73 1800 230/08 RMK AO2 SLP187 T02560206 53002
14840KMKG MKG20010806220009308/06/01 22:00:31  5-MIN KMKG 070300Z 22009KT 10SM CLR 26/21 A3009 470 73 1800 230/09 RMK AO2
14840KMKG MKG20010806220509308/06/01 22:05:31  5-MIN KMKG 070305Z 23009KT 10SM CLR 26/21 A3009 470 76 1800 230/09 RMK AO2
14840KMKG MKG20010806221009308/06/01 22:10:31  5-MIN KMKG 070310Z 23008KT 10SM CLR 25/21 A3009 470 79 1800 230/08 RMK AO2
14840KMKG MKG20010806221509308/06/01 22:15:31  5-MIN KMKG 070315Z 23008KT 10SM CLR 25/21 A3009 470 79 1800 230/08 RMK AO2
14840KMKG MKG20010806222009308/06/01 22:20:31  5-MIN KMKG 070320Z 23009KT 10SM CLR 25/21 A3009 470 79 1800 230/09 RMK AO2
14840KMKG MKG20010806222509308/06/01 22:25:31  5-MIN KMKG 070325Z 23009KT 10SM CLR 25/21 A3009 480 79 1800 230/09 RMK AO2
14840KMKG MKG20010806223009308/06/01 22:30:31  5-MIN KMKG 070330Z 23009KT 10SM CLR 25/21 A3009 470 79 1800 230/09 RMK AO2
14840KMKG MKG20010806223509308/06/01 22:35:31  5-MIN KMKG 070335Z 23009KT 10SM CLR 25/22 A3009 470 81 1800 230/09 RMK AO2
14840KMKG MKG20010806224009308/06/01 22:40:31  5-MIN KMKG 070340Z 23009KT 10SM CLR 25/22 A3009 470 81 1800 240/09 RMK AO2
14840KMKG MKG20010806224509308/06/01 22:45:31  5-MIN KMKG 070345Z 23010KT 10SM CLR 25/22 A3009 470 81 1800 240/10 RMK AO2
14840KMKG MKG20010806225011008/06/01 22:50:31  5-MIN KMKG 070350Z 23011KT 10SM CLR 25/22 A3009 470 81 1800 240/11 RMK AO2 SLP185 T02500217
14840KMKG MKG20010806225511008/06/01 22:55:31  5-MIN KMKG 070355Z 24008KT 10SM CLR 26/22 A3009 480 79 1800 240/08 RMK AO2 SLP183 T02560217
14840KMKG MKG20010806230009308/06/01 23:00:31  5-MIN KMKG 070400Z 24011KT 10SM CLR 26/22 A3009 480 79 1800 240/11 RMK AO2
14840KMKG MKG20010806230509308/06/01 23:05:31  5-MIN KMKG 070405Z 24012KT 10SM CLR 26/22 A3009 480 81 1800 240/12 RMK AO2
14840KMKG MKG20010806231009308/06/01 23:10:31  5-MIN KMKG 070410Z 25009KT 10SM CLR 26/22 A3009 480 79 1900 250/09 RMK AO2
14840KMKG MKG20010806231509308/06/01 23:15:31  5-MIN KMKG 070415Z 24010KT 10SM CLR 26/22 A3009 480 79 1900 250/10 RMK AO2
14840KMKG MKG20010806232009308/06/01 23:20:31  5-MIN KMKG 070420Z 25009KT 10SM CLR 26/22 A3009 480 79 1900 250/09 RMK AO2
14840KMKG MKG20010806232509308/06/01 23:25:31  5-MIN KMKG 070425Z 25010KT 10SM CLR 26/23 A3009 480 81 1900 250/10 RMK AO2
14840KMKG MKG20010806233009308/06/01 23:30:31  5-MIN KMKG 070430Z 25009KT 10SM CLR 27/23 A3008 480 79 2000 250/09 RMK AO2
14840KMKG MKG20010806233509908/06/01 23:35:31  5-MIN KMKG 070435Z 24008G14KT 10SM CLR 26/23 A3009 480 81 1900 240/08G14 RMK AO2
14840KMKG MKG20010806234009208/06/01 23:40:31  5-MIN KMKG 070440Z 24009KT 9SM CLR 26/23 A3008 480 84 1800 240/09 RMK AO2
14840KMKG MKG20010806234509208/06/01 23:45:31  5-MIN KMKG 070445Z 24010KT 9SM CLR 26/23 A3008 480 84 1900 240/10 RMK AO2
14840KMKG MKG20010806235011908/06/01 23:50:31  5-MIN KMKG 070450Z 25009KT 9SM CLR 26/23 A3008 480 84 1800 250/09 RMK AO2 SLP182 T02560228 402940206
14840KMKG MKG20010806235511908/06/01 23:55:31  5-MIN KMKG 070455Z 24009KT 9SM CLR 26/23 A3008 480 84 1800 240/09 RMK AO2 SLP182 T02560228 402940206
14840KMKG MKG20010807000009208/07/01 00:00:31  5-MIN KMKG 070500Z 24008KT 9SM CLR 26/22 A3008 480 81 1800 250/08 RMK AO2
14840KMKG MKG20010807000509208/07/01 00:05:31  5-MIN KMKG 070505Z 24009KT 9SM CLR 26/22 A3009 480 81 1800 250/09 RMK AO2
14840KMKG MKG20010807001009208/07/01 00:10:31  5-MIN KMKG 070510Z 24008KT 8SM CLR 26/23 A3008 480 84 1800 250/08 RMK AO2
14840KMKG MKG20010807001509208/07/01 00:15:31  5-MIN KMKG 070515Z 24009KT 8SM CLR 26/23 A3008 480 84 1900 240/09 RMK AO2
14840KMKG MKG20010807002009208/07/01 00:20:31  5-MIN KMKG 070520Z 24008KT 8SM CLR 26/23 A3008 480 84 1900 250/08 RMK AO2
14840KMKG MKG20010807002509208/07/01 00:25:31  5-MIN KMKG 070525Z 24009KT 8SM CLR 26/23 A3008 480 84 1900 240/09 RMK AO2
14840KMKG MKG20010807003009208/07/01 00:30:31  5-MIN KMKG 070530Z 24009KT 8SM CLR 25/23 A3008 480 87 1800 240/09 RMK AO2
14840KMKG MKG20010807003509208/07/01 00:35:31  5-MIN KMKG 070535Z 23009KT 8SM CLR 25/23 A3008 480 87 1800 240/09 RMK AO2
14840KMKG MKG20010807004009208/07/01 00:40:31  5-MIN KMKG 070540Z 23008KT 8SM CLR 25/23 A3008 480 87 1800 240/08 RMK AO2
14840KMKG MKG20010807004509208/07/01 00:45:31  5-MIN KMKG 070545Z 23010KT 7SM CLR 25/23 A3008 480 87 1800 240/10 RMK AO2
14840KMKG MKG20010807005012708/07/01 00:50:31  5-MIN KMKG 070550Z 24011KT 7SM CLR 25/23 A3008 480 87 1800 240/11 RMK AO2 SLP181 T02500228 10267 20250 53002
14840KMKG MKG20010807005512708/07/01 00:55:31  5-MIN KMKG 070555Z 23010KT 8SM CLR 26/23 A3008 480 84 1900 240/10 RMK AO2 SLP181 T02560228 10267 20250 56005
14840KMKG MKG20010807010009208/07/01 01:00:31  5-MIN KMKG 070600Z 24009KT 8SM CLR 26/23 A3008 480 84 1900 240/09 RMK AO2
14840KMKG MKG20010807010509208/07/01 01:05:31  5-MIN KMKG 070605Z 24010KT 8SM CLR 26/23 A3008 480 84 1900 240/10 RMK AO2
14840KMKG MKG20010807011009208/07/01 01:10:31  5-MIN KMKG 070610Z 24009KT 8SM CLR 26/23 A3008 480 84 1900 250/09 RMK AO2
14840KMKG MKG20010807011509208/07/01 01:15:31  5-MIN KMKG 070615Z 24009KT 8SM CLR 26/23 A3008 480 84 1900 240/09 RMK AO2
14840KMKG MKG20010807012009208/07/01 01:20:31  5-MIN KMKG 070620Z 24008KT 7SM CLR 25/23 A3008 480 87 1800 250/08 RMK AO2
14840KMKG MKG20010807012509208/07/01 01:25:31  5-MIN KMKG 070625Z 24008KT 7SM CLR 25/23 A3008 480 87 1800 250/08 RMK AO2
14840KMKG MKG20010807013009208/07/01 01:30:31  5-MIN KMKG 070630Z 24009KT 7SM CLR 25/23 A3008 480 87 1800 240/09 RMK AO2
14840KMKG MKG20010807013509208/07/01 01:35:31  5-MIN KMKG 070635Z 24009KT 7SM CLR 26/23 A3008 480 84 1900 250/09 RMK AO2
14840KMKG MKG20010807014009508/07/01 01:40:31  5-MIN KMKG 070640Z 24009KT 7SM FEW046 26/23 A3008 480 84 1900 250/09 RMK AO2
14840KMKG MKG20010807014509508/07/01 01:45:31  5-MIN KMKG 070645Z 24009KT 7SM FEW046 26/23 A3008 480 84 1900 240/09 RMK AO2
14840KMKG MKG20010807015011208/07/01 01:50:31  5-MIN KMKG 070650Z 23009KT 7SM SCT046 25/23 A3008 480 87 1800 240/09 RMK AO2 SLP181 T02500228
14840KMKG MKG20010807015511208/07/01 01:55:31  5-MIN KMKG 070655Z 24009KT 7SM BKN046 26/23 A3008 480 84 1900 240/09 RMK AO2 SLP181 T02560228
14840KMKG MKG20010807020009508/07/01 02:00:31  5-MIN KMKG 070700Z 24009KT 7SM BKN046 26/23 A3008 480 84 1900 250/09 RMK AO2
14840KMKG MKG20010807020509508/07/01 02:05:31  5-MIN KMKG 070705Z 24009KT 7SM BKN046 26/23 A3007 490 84 1900 240/09 RMK AO2
14840KMKG MKG20010807021009508/07/01 02:10:31  5-MIN KMKG 070710Z 24009KT 7SM BKN048 26/23 A3007 490 84 1900 240/09 RMK AO2
14840KMKG MKG20010807021509508/07/01 02:15:31  5-MIN KMKG 070715Z 24009KT 7SM BKN048 26/23 A3007 490 84 1900 240/09 RMK AO2
14840KMKG MKG20010807022009508/07/01 02:20:31  5-MIN KMKG 070720Z 24008KT 7SM BKN048 26/23 A3008 490 84 1900 240/08 RMK AO2
14840KMKG MKG20010807022509508/07/01 02:25:31  5-MIN KMKG 070725Z 24008KT 7SM SCT048 26/23 A3008 490 84 1900 240/08 RMK AO2
14840KMKG MKG20010807023009508/07/01 02:30:31  5-MIN KMKG 070730Z 23008KT 7SM FEW048 26/23 A3008 490 84 1900 240/08 RMK AO2
14840KMKG MKG20010807023509508/07/01 02:35:31  5-MIN KMKG 070735Z 24008KT 7SM FEW050 26/23 A3008 490 84 1900 240/08 RMK AO2
14840KMKG MKG20010807024009208/07/01 02:40:31  5-MIN KMKG 070740Z 23009KT 7SM CLR 26/23 A3008 490 84 1900 240/09 RMK AO2
14840KMKG MKG20010807024509208/07/01 02:45:31  5-MIN KMKG 070745Z 23008KT 7SM CLR 25/23 A3008 480 87 1800 230/08 RMK AO2
14840KMKG MKG20010807025011208/07/01 02:50:31  5-MIN KMKG 070750Z 23008KT 7SM FEW038 25/23 A3008 480 87 1800 240/08 RMK AO2 SLP181 T02500228
14840KMKG MKG20010807025511208/07/01 02:55:31  5-MIN KMKG 070755Z 23009KT 7SM FEW038 25/23 A3008 480 87 1800 230/09 RMK AO2 SLP180 T02500228
14840KMKG MKG20010807030009508/07/01 03:00:31  5-MIN KMKG 070800Z 23008KT 7SM FEW038 25/23 A3008 480 87 1800 230/08 RMK AO2
14840KMKG MKG20010807030509508/07/01 03:05:31  5-MIN KMKG 070805Z 23009KT 7SM SCT036 25/23 A3008 480 87 1800 230/09 RMK AO2
14840KMKG MKG20010807031009508/07/01 03:10:31  5-MIN KMKG 070810Z 23008KT 7SM BKN036 25/23 A3008 480 87 1800 230/08 RMK AO2
14840KMKG MKG20010807031509508/07/01 03:15:31  5-MIN KMKG 070815Z 23008KT 7SM BKN036 25/23 A3008 480 87 1800 230/08 RMK AO2
14840KMKG MKG20010807032010208/07/01 03:20:31  5-MIN KMKG 070820Z 22007KT 7SM BKN036 BKN048 25/23 A3008 480 87 1800 230/07 RMK AO2
14840KMKG MKG20010807032510208/07/01 03:25:31  5-MIN KMKG 070825Z 21007KT 7SM SCT036 BKN048 25/23 A3008 480 87 1800 210/07 RMK AO2
14840KMKG MKG20010807033010208/07/01 03:30:31  5-MIN KMKG 070830Z 22007KT 7SM SCT036 BKN048 25/23 A3008 480 87 1800 230/07 RMK AO2
14840KMKG MKG20010807033510208/07/01 03:35:31  5-MIN KMKG 070835Z 23007KT 7SM SCT036 BKN048 24/23 A3008 480 90 1700 230/07 RMK AO2
14840KMKG MKG20010807034010208/07/01 03:40:31  5-MIN KMKG 070840Z 21006KT 7SM FEW036 SCT048 24/23 A3008 480 90 1700 220/06 RMK AO2
14840KMKG MKG20010807034510208/07/01 03:45:31  5-MIN KMKG 070845Z 23007KT 7SM FEW048 SCT060 24/23 A3008 480 90 1700 230/07 RMK AO2
14840KMKG MKG20010807035012508/07/01 03:50:31  5-MIN KMKG 070850Z 23007KT 7SM FEW048 SCT060 24/23 A3008 480 90 1700 230/07 RMK AO2 SLP183 T02440228 56005
14840KMKG MKG20010807035511808/07/01 03:55:31  5-MIN KMKG 070855Z 23007KT 7SM FEW033 24/23 A3008 480 90 1700 230/07 RMK AO2 SLP181 T02440228 53001
14840KMKG MKG20010807040010208/07/01 04:00:31  5-MIN KMKG 070900Z 23006KT 7SM FEW033 SCT060 24/23 A3008 480 90 1700 230/06 RMK AO2
14840KMKG MKG20010807040510508/07/01 04:05:31  5-MIN KMKG 070905Z 23006KT 6SM BR SCT033 SCT060 24/23 A3008 480 90 1700 230/06 RMK AO2
14840KMKG MKG20010807041012708/07/01 04:10:31  5-MIN KMKG 070910Z 23006KT 6SM BR SCT033 SCT049 BKN060 24/23 A3008 480 90 1700 230/06 RMK AO2 CIG 044 RWY 14
14840KMKG MKG20010807041510508/07/01 04:15:31  5-MIN KMKG 070915Z 23007KT 6SM BR SCT033 SCT047 24/23 A3008 480 90 1700 240/07 RMK AO2
14840KMKG MKG20010807042010508/07/01 04:20:31  5-MIN KMKG 070920Z 24008KT 6SM BR SCT033 SCT047 24/23 A3008 480 90 1700 240/08 RMK AO2
14840KMKG MKG20010807042510508/07/01 04:25:31  5-MIN KMKG 070925Z 25010KT 6SM BR FEW033 SCT047 24/23 A3008 480 90 1700 250/10 RMK AO2
14840KMKG MKG20010807043009808/07/01 04:30:31  5-MIN KMKG 070930Z 24008KT 6SM BR FEW033 24/23 A3008 480 90 1700 240/08 RMK AO2
14840KMKG MKG20010807043509808/07/01 04:35:31  5-MIN KMKG 070935Z 24009KT 6SM BR FEW033 24/23 A3008 490 90 1700 250/09 RMK AO2
14840KMKG MKG20010807044010508/07/01 04:40:31  5-MIN KMKG 070940Z 24009KT 6SM BR FEW033 SCT043 24/23 A3008 480 90 1700 240/09 RMK AO2
14840KMKG MKG20010807044510508/07/01 04:45:31  5-MIN KMKG 070945Z 24008KT 6SM BR FEW033 SCT041 24/23 A3008 480 90 1700 240/08 RMK AO2
14840KMKG MKG20010807045012208/07/01 04:50:31  5-MIN KMKG 070950Z 24010KT 6SM BR FEW033 SCT041 24/23 A3008 480 90 1700 250/10 RMK AO2 SLP182 T02440228
14840KMKG MKG20010807045512208/07/01 04:55:31  5-MIN KMKG 070955Z 24009KT 5SM BR FEW033 SCT041 24/23 A3008 480 90 1700 250/09 RMK AO2 SLP182 T02440228
14840KMKG MKG20010807050010508/07/01 05:00:31  5-MIN KMKG 071000Z 24009KT 5SM BR FEW033 SCT041 24/23 A3008 480 90 1700 250/09 RMK AO2
14840KMKG MKG20010807050510508/07/01 05:05:31  5-MIN KMKG 071005Z 25007KT 5SM BR FEW033 SCT041 24/23 A3008 490 90 1700 250/07 RMK AO2
14840KMKG MKG20010807051009808/07/01 05:10:31  5-MIN KMKG 071010Z 25006KT 5SM BR FEW033 24/23 A3008 490 90 1700 250/06 RMK AO2
14840KMKG MKG20010807051509808/07/01 05:15:31  5-MIN KMKG 071015Z 25007KT 5SM BR FEW042 24/23 A3008 490 90 1700 250/07 RMK AO2
14840KMKG MKG20010807052009508/07/01 05:20:31  5-MIN KMKG 071020Z 25006KT 5SM BR CLR 24/23 A3008 490 90 1700 250/06 RMK AO2
14840KMKG MKG20010807052509508/07/01 05:25:31  5-MIN KMKG 071025Z 25005KT 5SM BR CLR 24/23 A3008 480 93 1700 250/05 RMK AO2
14840KMKG MKG20010807053009508/07/01 05:30:31  5-MIN KMKG 071030Z 25007KT 5SM BR CLR 24/23 A3008 480 93 1700 250/07 RMK AO2
14840KMKG MKG20010807053509508/07/01 05:35:31  5-MIN KMKG 071035Z 25006KT 5SM BR CLR 24/23 A3008 480 93 1700 250/06 RMK AO2
14840KMKG MKG20010807054009808/07/01 05:40:31  5-MIN KMKG 071040Z 24006KT 5SM BR SCT040 24/23 A3008 480 93 1700 240/06 RMK AO2
14840KMKG MKG20010807054509808/07/01 05:45:31  5-MIN KMKG 071045Z 25006KT 5SM BR SCT040 24/23 A3008 480 93 1700 250/06 RMK AO2
14840KMKG MKG20010807055011508/07/01 05:50:31  5-MIN KMKG 071050Z 26006KT 4SM BR SCT040 24/23 A3008 480 90 1700 260/06 RMK AO2 SLP183 T02440228
14840KMKG MKG20010807055511508/07/01 05:55:31  5-MIN KMKG 071055Z 24005KT 3SM BR SCT040 24/23 A3008 480 90 1700 250/05 RMK AO2 SLP183 T02440228
14840KMKG MKG20010807060010508/07/01 06:00:31  5-MIN KMKG 071100Z 24005KT 3SM BR SCT035 SCT050 24/23 A3009 480 93 1700 240/05 RMK AO2
14840KMKG MKG20010807060510508/07/01 06:05:31  5-MIN KMKG 071105Z 22004KT 3SM BR SCT035 BKN050 24/23 A3009 480 93 1700 230/04 RMK AO2
14840KMKG MKG20010807061010508/07/01 06:10:31  5-MIN KMKG 071110Z 24005KT 3SM BR SCT035 SCT050 24/23 A3009 470 93 1700 250/05 RMK AO2
14840KMKG MKG20010807061510508/07/01 06:15:31  5-MIN KMKG 071115Z 23006KT 3SM BR SCT035 SCT050 24/23 A3009 480 90 1700 240/06 RMK AO2
14840KMKG MKG20010807062009808/07/01 06:20:31  5-MIN KMKG 071120Z 24006KT 3SM BR FEW035 24/23 A3009 470 93 1700 240/06 RMK AO2
14840KMKG MKG20010807062509808/07/01 06:25:31  5-MIN KMKG 071125Z 24006KT 3SM BR FEW035 24/23 A3009 470 93 1600 240/06 RMK AO2
14840KMKG MKG20010807063009808/07/01 06:30:31  5-MIN KMKG 071130Z 24005KT 3SM BR SCT035 24/23 A3009 470 90 1700 250/05 RMK AO2
14840KMKG MKG20010807063509808/07/01 06:35:31  5-MIN KMKG 071135Z 25006KT 3SM BR SCT037 24/23 A3010 470 90 1700 250/06 RMK AO2
14840KMKG MKG20010807064010508/07/01 06:40:31  5-MIN KMKG 071140Z 24005KT 3SM BR SCT037 BKN044 24/23 A3010 470 90 1700 250/05 RMK AO2
14840KMKG MKG20010807064510508/07/01 06:45:31  5-MIN KMKG 071145Z 24006KT 4SM BR SCT037 BKN044 24/23 A3010 460 90 1700 240/06 RMK AO2
14840KMKG MKG20010807065014708/07/01 06:50:31  5-MIN KMKG 071150Z 23005KT 4SM BR SCT037 BKN044 BKN050 24/23 A3010 460 90 1700 240/05 RMK AO2 SLP189 T02440228 10256 20239 53001
14840KMKG MKG20010807065514008/07/01 06:55:31  5-MIN KMKG 071155Z 23007KT 4SM BR SCT037 SCT047 24/23 A3010 460 93 1700 240/07 RMK AO2 SLP189 T02440233 10256 20239 53006
14840KMKG MKG20010807070009808/07/01 07:00:31  5-MIN KMKG 071200Z 23008KT 4SM BR FEW037 25/23 A3010 460 90 1800 240/08 RMK AO2
14840KMKG MKG20010807070509808/07/01 07:05:31  5-MIN KMKG 071205Z 24007KT 4SM BR FEW037 25/23 A3010 460 90 1800 240/07 RMK AO2
14840KMKG MKG20010807071009808/07/01 07:10:31  5-MIN KMKG 071210Z 23007KT 4SM BR FEW046 25/23 A3011 460 90 1800 230/07 RMK AO2
14840KMKG MKG20010807071509808/07/01 07:15:31  5-MIN KMKG 071215Z 23007KT 4SM BR FEW041 25/23 A3010 460 90 1800 240/07 RMK AO2
14840KMKG MKG20010807072009808/07/01 07:20:31  5-MIN KMKG 071220Z 24008KT 4SM BR FEW041 25/23 A3011 460 90 1800 240/08 RMK AO2
14840KMKG MKG20010807072509508/07/01 07:25:31  5-MIN KMKG 071225Z 25008KT 4SM BR CLR 25/23 A3011 460 90 1800 250/08 RMK AO2
14840KMKG MKG20010807073009508/07/01 07:30:31  5-MIN KMKG 071230Z 25007KT 4SM BR CLR 25/23 A3011 460 90 1800 250/07 RMK AO2
14840KMKG MKG20010807073509508/07/01 07:35:31  5-MIN KMKG 071235Z 24007KT 4SM BR CLR 25/23 A3011 460 90 1800 240/07 RMK AO2
14840KMKG MKG20010807074009508/07/01 07:40:31  5-MIN KMKG 071240Z 25007KT 4SM BR CLR 25/23 A3011 460 90 1800 260/07 RMK AO2
14840KMKG MKG20010807074509508/07/01 07:45:31  5-MIN KMKG 071245Z 25006KT 4SM BR CLR 26/23 A3011 460 87 1800 250/06 RMK AO2
14840KMKG MKG20010807075011508/07/01 07:50:31  5-MIN KMKG 071250Z 24007KT 4SM BR FEW014 26/23 A3011 460 87 1800 240/07 RMK AO2 SLP191 T02560233
14840KMKG MKG20010807075511508/07/01 07:55:31  5-MIN KMKG 071255Z 23008KT 4SM BR FEW014 26/23 A3011 460 87 1800 240/08 RMK AO2 SLP191 T02560233
14840KMKG MKG20010807080009808/07/01 08:00:31  5-MIN KMKG 071300Z 25007KT 4SM BR FEW014 26/23 A3011 460 87 1800 250/07 RMK AO2
14840KMKG MKG20010807080509808/07/01 08:05:31  5-MIN KMKG 071305Z 27005KT 4SM HZ FEW014 26/23 A3011 460 84 1900 270/05 RMK AO2
14840KMKG MKG20010807081009808/07/01 08:10:31  5-MIN KMKG 071310Z 26006KT 4SM HZ FEW014 26/23 A3010 460 84 1900 270/06 RMK AO2
14840KMKG MKG20010807081509808/07/01 08:15:31  5-MIN KMKG 071315Z 25007KT 4SM HZ FEW014 26/23 A3010 460 84 1900 250/07 RMK AO2
14840KMKG MKG20010807082009808/07/01 08:20:31  5-MIN KMKG 071320Z 26007KT 4SM HZ SCT014 26/23 A3011 460 84 1900 260/07 RMK AO2
14840KMKG MKG20010807082509808/07/01 08:25:31  5-MIN KMKG 071325Z 26007KT 4SM HZ SCT014 26/23 A3011 460 84 1900 260/07 RMK AO2
14840KMKG MKG20010807083009808/07/01 08:30:31  5-MIN KMKG 071330Z 26007KT 4SM BR BKN014 26/23 A3011 460 87 1800 260/07 RMK AO2
14840KMKG MKG20010807083509808/07/01 08:35:31  5-MIN KMKG 071335Z 27005KT 4SM HZ BKN012 26/23 A3011 460 84 1900 270/05 RMK AO2
14840KMKG MKG20010807084009808/07/01 08:40:31  5-MIN KMKG 071340Z 27007KT 4SM HZ BKN012 26/23 A3010 460 84 1900 280/07 RMK AO2
14840KMKG MKG20010807084509808/07/01 08:45:31  5-MIN KMKG 071345Z 26006KT 4SM HZ BKN012 26/23 A3011 460 84 1900 270/06 RMK AO2
14840KMKG MKG20010807085011508/07/01 08:50:31  5-MIN KMKG 071350Z 26008KT 4SM HZ OVC012 26/23 A3011 460 84 1900 270/08 RMK AO2 SLP191 T02610233
14840KMKG MKG20010807085511508/07/01 08:55:31  5-MIN KMKG 071355Z 27007KT 4SM BR OVC012 26/23 A3011 460 87 1800 280/07 RMK AO2 SLP190 T02560233
14840KMKG MKG20010807090009808/07/01 09:00:31  5-MIN KMKG 071400Z 26008KT 4SM HZ OVC012 26/23 A3011 460 84 1900 270/08 RMK AO2
14840KMKG MKG20010807090509808/07/01 09:05:31  5-MIN KMKG 071405Z 28007KT 4SM HZ BKN012 26/23 A3010 460 84 1900 280/07 RMK AO2
14840KMKG MKG20010807091009808/07/01 09:10:31  5-MIN KMKG 071410Z 27006KT 4SM HZ OVC010 26/23 A3010 460 84 1900 280/06 RMK AO2
14840KMKG MKG20010807091509808/07/01 09:15:31  5-MIN KMKG 071415Z 26007KT 4SM BR OVC010 26/23 A3010 460 87 1800 260/07 RMK AO2
14840KMKG MKG20010807092009808/07/01 09:20:31  5-MIN KMKG 071420Z 26008KT 4SM HZ OVC010 26/23 A3011 460 84 1900 260/08 RMK AO2
14840KMKG MKG20010807092509808/07/01 09:25:31  5-MIN KMKG 071425Z 27006KT 4SM HZ OVC010 26/23 A3010 460 84 1900 280/06 RMK AO2
14840KMKG MKG20010807093009808/07/01 09:30:31  5-MIN KMKG 071430Z 27006KT 4SM HZ OVC010 26/23 A3011 460 84 1900 270/06 RMK AO2
14840KMKG MKG20010807093509808/07/01 09:35:31  5-MIN KMKG 071435Z 27007KT 4SM HZ OVC010 26/23 A3011 460 84 1900 270/07 RMK AO2
14840KMKG MKG20010807094009808/07/01 09:40:31  5-MIN KMKG 071440Z 27006KT 4SM HZ OVC010 27/24 A3011 460 84 1900 280/06 RMK AO2
14840KMKG MKG20010807094509808/07/01 09:45:31  5-MIN KMKG 071445Z 27006KT 4SM HZ OVC010 26/23 A3011 460 84 1900 270/06 RMK AO2
14840KMKG MKG20010807095012108/07/01 09:50:31  5-MIN KMKG 071450Z 25007KT 4SM HZ OVC010 27/24 A3011 460 84 1900 250/07 RMK AO2 SLP191 T02670239 53006
14840KMKG MKG20010807095512108/07/01 09:55:31  5-MIN KMKG 071455Z 25005KT 4SM HZ OVC010 27/24 A3011 460 84 1900 260/05 RMK AO2 SLP191 T02670239 51002
14840KMKG MKG20010807100009808/07/01 10:00:31  5-MIN KMKG 071500Z 26006KT 4SM HZ OVC010 27/24 A3011 460 82 2000 270/06 RMK AO2
14840KMKG MKG20010807100509808/07/01 10:05:31  5-MIN KMKG 071505Z 26007KT 4SM HZ OVC010 27/24 A3011 460 82 2000 270/07 RMK AO2
14840KMKG MKG20010807101009808/07/01 10:10:31  5-MIN KMKG 071510Z 25007KT 4SM HZ OVC010 27/24 A3011 450 84 1900 250/07 RMK AO2
14840KMKG MKG20010807101509808/07/01 10:15:31  5-MIN KMKG 071515Z 26008KT 4SM HZ OVC010 27/24 A3011 450 84 1900 260/08 RMK AO2
14840KMKG MKG20010807102009808/07/01 10:20:31  5-MIN KMKG 071520Z 26009KT 4SM HZ OVC010 27/24 A3011 450 84 1900 270/09 RMK AO2
14840KMKG MKG20010807102509808/07/01 10:25:31  5-MIN KMKG 071525Z 27006KT 4SM HZ OVC010 27/24 A3011 450 84 1900 270/06 RMK AO2
14840KMKG MKG20010807103009808/07/01 10:30:31  5-MIN KMKG 071530Z 26009KT 4SM HZ OVC010 27/24 A3011 450 84 1900 260/09 RMK AO2
14840KMKG MKG20010807103509808/07/01 10:35:31  5-MIN KMKG 071535Z 25008KT 4SM HZ OVC010 27/24 A3011 450 84 1900 260/08 RMK AO2
14840KMKG MKG20010807104011408/07/01 10:40:31  5-MIN KMKG 071540Z 26007KT 220V280 4SM HZ OVC010 27/24 A3011 450 82 2000 260/07 220V280 RMK AO2
14840KMKG MKG20010807104509808/07/01 10:45:31  5-MIN KMKG 071545Z 25007KT 4SM HZ OVC010 27/24 A3011 450 84 1900 250/07 RMK AO2
14840KMKG MKG20010807105011508/07/01 10:50:31  5-MIN KMKG 071550Z 27007KT 4SM HZ OVC010 27/24 A3011 450 82 2000 270/07 RMK AO2 SLP193 T02720239
14840KMKG MKG20010807105511508/07/01 10:55:31  5-MIN KMKG 071555Z VRB06KT 4SM HZ OVC010 28/24 A3011 450 79 2100 VRB/06 RMK AO2 SLP193 T02780239
14840KMKG MKG20010807110009808/07/01 11:00:31  5-MIN KMKG 071600Z 26007KT 4SM HZ OVC010 28/24 A3011 450 79 2100 260/07 RMK AO2
14840KMKG MKG20010807110509808/07/01 11:05:31  5-MIN KMKG 071605Z 27008KT 4SM HZ OVC010 28/24 A3011 450 79 2100 270/08 RMK AO2
14840KMKG MKG20010807111009808/07/01 11:10:31  5-MIN KMKG 071610Z 25008KT 3SM HZ BKN008 27/24 A3011 450 82 2000 250/08 RMK AO2
14840KMKG MKG20010807111509808/07/01 11:15:31  5-MIN KMKG 071615Z 25008KT 4SM HZ BKN008 28/24 A3011 450 79 2100 250/08 RMK AO2
14840KMKG MKG20010807112009808/07/01 11:20:31  5-MIN KMKG 071620Z 26006KT 4SM HZ SCT008 27/24 A3011 450 82 2000 260/06 RMK AO2
14840KMKG MKG20010807112509808/07/01 11:25:31  5-MIN KMKG 071625Z 25006KT 4SM HZ FEW008 28/24 A3011 460 79 2100 250/06 RMK AO2
14840KMKG MKG20010807113009808/07/01 11:30:31  5-MIN KMKG 071630Z 24006KT 4SM HZ FEW008 28/24 A3011 460 79 2100 240/06 RMK AO2
14840KMKG MKG20010807113509508/07/01 11:35:31  5-MIN KMKG 071635Z 24007KT 4SM HZ CLR 28/24 A3011 460 79 2100 250/07 RMK AO2
14840KMKG MKG20010807114009508/07/01 11:40:31  5-MIN KMKG 071640Z 23008KT 4SM HZ CLR 28/24 A3011 460 79 2100 230/08 RMK AO2
14840KMKG MKG20010807114509808/07/01 11:45:31  5-MIN KMKG 071645Z 24008KT 4SM HZ FEW015 28/24 A3010 460 79 2100 250/08 RMK AO2
14840KMKG MKG20010807115011508/07/01 11:50:31  5-MIN KMKG 071650Z 26006KT 4SM HZ FEW015 28/24 A3010 460 79 2100 260/06 RMK AO2 SLP188 T02830244
14840KMKG MKG20010807115511508/07/01 11:55:31  5-MIN KMKG 071655Z 28007KT 4SM HZ FEW015 29/24 A3010 460 76 2200 290/07 RMK AO2 SLP188 T02890244
14840KMKG MKG20010807120009808/07/01 12:00:31  5-MIN KMKG 071700Z 24007KT 4SM HZ FEW015 29/24 A3010 460 76 2200 250/07 RMK AO2
14840KMKG MKG20010807120509808/07/01 12:05:31  5-MIN KMKG 071705Z 26007KT 4SM HZ FEW015 29/24 A3010 470 74 2300 270/07 RMK AO2
14840KMKG MKG20010807121009808/07/01 12:10:31  5-MIN KMKG 071710Z 27007KT 4SM HZ FEW015 29/24 A3010 470 76 2200 280/07 RMK AO2
14840KMKG MKG20010807121509808/07/01 12:15:31  5-MIN KMKG 071715Z 25006KT 4SM HZ FEW015 29/24 A3010 470 74 2300 260/06 RMK AO2
14840KMKG MKG20010807122009808/07/01 12:20:31  5-MIN KMKG 071720Z 26007KT 4SM HZ FEW015 30/25 A3010 470 74 2300 270/07 RMK AO2
14840KMKG MKG20010807122509808/07/01 12:25:31  5-MIN KMKG 071725Z 25008KT 4SM HZ FEW015 29/24 A3010 470 74 2300 250/08 RMK AO2
14840KMKG MKG20010807123009808/07/01 12:30:31  5-MIN KMKG 071730Z 25008KT 4SM HZ FEW015 29/24 A3010 470 74 2300 260/08 RMK AO2
14840KMKG MKG20010807123509808/07/01 12:35:31  5-MIN KMKG 071735Z 24010KT 4SM HZ FEW015 29/24 A3009 470 74 2300 250/10 RMK AO2
14840KMKG MKG20010807124009808/07/01 12:40:31  5-MIN KMKG 071740Z 25009KT 4SM HZ FEW020 29/24 A3009 470 76 2200 250/09 RMK AO2
14840KMKG MKG20010807124509808/07/01 12:45:31  5-MIN KMKG 071745Z 25007KT 4SM HZ FEW020 29/24 A3009 470 74 2300 250/07 RMK AO2
14840KMKG MKG20010807125014908/07/01 12:50:31  5-MIN KMKG 071750Z 28009KT 230V310 4SM HZ FEW020 29/25 A3009 470 76 2300 290/09 230V310 RMK AO2 SLP185 T02940250 10300 20244 51002
14840KMKG MKG20010807125513308/07/01 12:55:31  5-MIN KMKG 071755Z 28009KT 4SM HZ FEW020 29/24 A3009 470 74 2300 280/09 RMK AO2 SLP185 T02940244 10300 20244 58005
14840KMKG MKG20010807130009808/07/01 13:00:31  5-MIN KMKG 071800Z 28008KT 4SM HZ FEW020 29/24 A3009 470 74 2300 290/08 RMK AO2
14840KMKG MKG20010807130509808/07/01 13:05:31  5-MIN KMKG 071805Z 25010KT 4SM HZ FEW020 29/24 A3009 470 76 2200 250/10 RMK AO2
14840KMKG MKG20010807131009808/07/01 13:10:31  5-MIN KMKG 071810Z 24008KT 4SM HZ FEW020 29/24 A3009 470 76 2200 250/08 RMK AO2
14840KMKG MKG20010807131509808/07/01 13:15:31  5-MIN KMKG 071815Z 24009KT 4SM HZ FEW020 29/24 A3009 470 76 2200 250/09 RMK AO2
14840KMKG MKG20010807132009808/07/01 13:20:31  5-MIN KMKG 071820Z 26008KT 4SM HZ FEW020 29/24 A3009 470 76 2200 260/08 RMK AO2
14840KMKG MKG20010807132509808/07/01 13:25:31  5-MIN KMKG 071825Z 27009KT 4SM HZ FEW020 29/24 A3009 480 74 2300 270/09 RMK AO2
14840KMKG MKG20010807133009808/07/01 13:30:31  5-MIN KMKG 071830Z 25009KT 4SM HZ FEW020 29/24 A3009 480 76 2200 250/09 RMK AO2
14840KMKG MKG20010807133509808/07/01 13:35:31  5-MIN KMKG 071835Z 25008KT 4SM HZ FEW020 29/24 A3009 480 76 2200 260/08 RMK AO2
14840KMKG MKG20010807134009808/07/01 13:40:31  5-MIN KMKG 071840Z 26009KT 4SM HZ FEW020 29/24 A3008 480 76 2200 260/09 RMK AO2
14840KMKG MKG20010807134509808/07/01 13:45:31  5-MIN KMKG 071845Z 26009KT 4SM HZ FEW020 29/24 A3008 480 76 2200 270/09 RMK AO2
14840KMKG MKG20010807135011508/07/01 13:50:31  5-MIN KMKG 071850Z 25009KT 4SM HZ FEW020 28/24 A3008 480 79 2200 260/09 RMK AO2 SLP182 T02830244
14840KMKG MKG20010807135511508/07/01 13:55:31  5-MIN KMKG 071855Z 26010KT 4SM HZ FEW020 29/24 A3008 480 76 2200 260/10 RMK AO2 SLP180 T02890244
14840KMKG MKG20010807140009808/07/01 14:00:31  5-MIN KMKG 071900Z 27011KT 4SM HZ FEW020 29/24 A3008 480 74 2300 270/11 RMK AO2
14840KMKG MKG20010807140509808/07/01 14:05:31  5-MIN KMKG 071905Z 27009KT 5SM HZ FEW020 29/24 A3008 490 74 2300 270/09 RMK AO2
14840KMKG MKG20010807141009808/07/01 14:10:31  5-MIN KMKG 071910Z 27011KT 5SM HZ FEW020 29/24 A3008 480 76 2200 270/11 RMK AO2
14840KMKG MKG20010807141509808/07/01 14:15:31  5-MIN KMKG 071915Z 26009KT 5SM HZ FEW020 29/24 A3008 490 74 2300 270/09 RMK AO2
14840KMKG MKG20010807142009808/07/01 14:20:31  5-MIN KMKG 071920Z 28010KT 5SM HZ FEW025 29/24 A3008 490 74 2300 280/10 RMK AO2
14840KMKG MKG20010807142511408/07/01 14:25:31  5-MIN KMKG 071925Z 28009KT 240V310 5SM HZ FEW025 29/24 A3008 490 74 2300 280/09 240V310 RMK AO2
14840KMKG MKG20010807143009808/07/01 14:30:31  5-MIN KMKG 071930Z 26009KT 5SM HZ FEW025 29/24 A3007 490 76 2200 270/09 RMK AO2
14840KMKG MKG20010807143509808/07/01 14:35:31  5-MIN KMKG 071935Z 25010KT 5SM HZ FEW025 29/24 A3007 490 76 2200 250/10 RMK AO2
14840KMKG MKG20010807144009808/07/01 14:40:31  5-MIN KMKG 071940Z 27012KT 5SM HZ FEW025 29/24 A3007 490 74 2300 270/12 RMK AO2
14840KMKG MKG20010807144509808/07/01 14:45:31  5-MIN KMKG 071945Z 27011KT 5SM HZ FEW025 29/24 A3007 490 74 2200 270/11 RMK AO2
14840KMKG MKG20010807145011508/07/01 14:50:31  5-MIN KMKG 071950Z 26010KT 5SM HZ FEW025 29/24 A3007 490 74 2200 260/10 RMK AO2 SLP177 T02890239
14840KMKG MKG20010807145511508/07/01 14:55:31  5-MIN KMKG 071955Z 26009KT 6SM HZ FEW025 29/24 A3007 500 71 2300 270/09 RMK AO2 SLP176 T02940239
14840KMKG MKG20010807150009508/07/01 15:00:31  5-MIN KMKG 072000Z 28008KT 6SM HZ CLR 29/24 A3007 500 71 2300 280/08 RMK AO2
14840KMKG MKG20010807150509208/07/01 15:05:31  5-MIN KMKG 072005Z 29009KT 7SM CLR 30/23 A3006 500 67 2400 290/09 RMK AO2
14840KMKG MKG20010807151009208/07/01 15:10:31  5-MIN KMKG 072010Z 29010KT 7SM CLR 30/23 A3006 500 65 2400 300/10 RMK AO2
14840KMKG MKG20010807151509208/07/01 15:15:31  5-MIN KMKG 072015Z 28010KT 7SM CLR 29/23 A3006 500 67 2300 280/10 RMK AO2
14840KMKG MKG20010807152009208/07/01 15:20:31  5-MIN KMKG 072020Z 27010KT 7SM CLR 29/23 A3006 500 67 2300 270/10 RMK AO2
14840KMKG MKG20010807152509208/07/01 15:25:31  5-MIN KMKG 072025Z 28008KT 7SM CLR 29/23 A3006 500 69 2300 280/08 RMK AO2
14840KMKG MKG20010807153009208/07/01 15:30:31  5-MIN KMKG 072030Z 28010KT 7SM CLR 29/23 A3006 500 69 2300 280/10 RMK AO2
14840KMKG MKG20010807153509208/07/01 15:35:31  5-MIN KMKG 072035Z 29011KT 7SM CLR 30/23 A3006 500 67 2400 290/11 RMK AO2
14840KMKG MKG20010807154009208/07/01 15:40:31  5-MIN KMKG 072040Z 28010KT 7SM CLR 30/23 A3006 500 65 2400 290/10 RMK AO2
14840KMKG MKG20010807154509208/07/01 15:45:31  5-MIN KMKG 072045Z 28009KT 8SM CLR 31/23 A3006 500 65 2400 280/09 RMK AO2
14840KMKG MKG20010807155011508/07/01 15:50:31  5-MIN KMKG 072050Z 26009KT 8SM CLR 30/23 A3006 510 67 2400 260/09 RMK AO2 SLP173 T03000233 58005
14840KMKG MKG20010807155511508/07/01 15:55:31  5-MIN KMKG 072055Z 27007KT 8SM CLR 30/23 A3006 510 67 2400 280/07 RMK AO2 SLP172 T03000233 56012
14840KMKG MKG20010807160009208/07/01 16:00:31  5-MIN KMKG 072100Z 27008KT 8SM CLR 30/23 A3006 510 65 2400 270/08 RMK AO2
14840KMKG MKG20010807160509208/07/01 16:05:31  5-MIN KMKG 072105Z 27008KT 7SM CLR 30/23 A3005 510 67 2400 270/08 RMK AO2
14840KMKG MKG20010807161009208/07/01 16:10:31  5-MIN KMKG 072110Z 28007KT 7SM CLR 30/23 A3005 510 67 2400 280/07 RMK AO2
14840KMKG MKG20010807161509208/07/01 16:15:31  5-MIN KMKG 072115Z 27009KT 8SM CLR 29/23 A3005 510 67 2300 270/09 RMK AO2
14840KMKG MKG20010807162009208/07/01 16:20:31  5-MIN KMKG 072120Z 26008KT 8SM CLR 30/23 A3005 510 65 2400 270/08 RMK AO2
14840KMKG MKG20010807162509208/07/01 16:25:31  5-MIN KMKG 072125Z 27008KT 8SM CLR 30/23 A3005 510 65 2400 280/08 RMK AO2
14840KMKG MKG20010807163009208/07/01 16:30:31  5-MIN KMKG 072130Z 27006KT 9SM CLR 31/23 A3005 510 62 2400 280/06 RMK AO2
14840KMKG MKG20010807163509208/07/01 16:35:31  5-MIN KMKG 072135Z 29007KT 9SM CLR 31/23 A3005 510 62 2400 290/07 RMK AO2
14840KMKG MKG20010807164009308/07/01 16:40:31  5-MIN KMKG 072140Z 28008KT 10SM CLR 31/22 A3005 510 60 2500 290/08 RMK AO2
14840KMKG MKG20010807164509308/07/01 16:45:31  5-MIN KMKG 072145Z 28008KT 10SM CLR 31/23 A3004 520 62 2500 280/08 RMK AO2
14840KMKG MKG20010807165010908/07/01 16:50:31  5-MIN KMKG 072150Z 28009KT 9SM CLR 31/23 A3004 520 62 2500 280/09 RMK AO2 SLP169 T03060228
14840KMKG MKG20010807165510908/07/01 16:55:31  5-MIN KMKG 072155Z 28008KT 9SM CLR 30/22 A3004 520 62 2400 280/08 RMK AO2 SLP168 T03000222
14840KMKG MKG20010807170009208/07/01 17:00:31  5-MIN KMKG 072200Z 29009KT 9SM CLR 30/22 A3004 520 62 2400 290/09 RMK AO2
14840KMKG MKG20010807170509308/07/01 17:05:31  5-MIN KMKG 072205Z 29008KT 10SM CLR 30/22 A3004 520 62 2400 300/08 RMK AO2
14840KMKG MKG20010807171009308/07/01 17:10:31  5-MIN KMKG 072210Z 28008KT 10SM CLR 31/23 A3004 520 62 2500 290/08 RMK AO2
14840KMKG MKG20010807171509308/07/01 17:15:31  5-MIN KMKG 072215Z 28008KT 10SM CLR 31/22 A3004 520 60 2500 290/08 RMK AO2
14840KMKG MKG20010807172009308/07/01 17:20:31  5-MIN KMKG 072220Z 28008KT 10SM CLR 31/22 A3004 520 60 2500 290/08 RMK AO2
14840KMKG MKG20010807172509308/07/01 17:25:31  5-MIN KMKG 072225Z 28008KT 10SM CLR 30/22 A3004 520 62 2400 280/08 RMK AO2
14840KMKG MKG20010807173009308/07/01 17:30:31  5-MIN KMKG 072230Z 29008KT 10SM CLR 31/22 A3004 520 58 2500 290/08 RMK AO2
14840KMKG MKG20010807173509308/07/01 17:35:31  5-MIN KMKG 072235Z 26008KT 10SM CLR 30/22 A3004 520 62 2400 260/08 RMK AO2
14840KMKG MKG20010807174009308/07/01 17:40:31  5-MIN KMKG 072240Z 26008KT 10SM CLR 29/22 A3004 520 64 2300 260/08 RMK AO2
14840KMKG MKG20010807174509308/07/01 17:45:31  5-MIN KMKG 072245Z 27008KT 10SM CLR 29/22 A3004 520 64 2300 280/08 RMK AO2
14840KMKG MKG20010807175011008/07/01 17:50:31  5-MIN KMKG 072250Z 27008KT 10SM CLR 29/22 A3003 520 64 2300 270/08 RMK AO2 SLP165 T02940222
14840KMKG MKG20010807175510908/07/01 17:55:31  5-MIN KMKG 072255Z 26008KT 9SM CLR 29/22 A3003 530 67 2300 270/08 RMK AO2 SLP166 T02890222
14840KMKG MKG20010807180009208/07/01 18:00:31  5-MIN KMKG 072300Z 26008KT 8SM CLR 28/23 A3003 530 71 2200 270/08 RMK AO2
14840KMKG MKG20010807180509208/07/01 18:05:31  5-MIN KMKG 072305Z 26008KT 8SM CLR 28/23 A3003 530 74 2200 260/08 RMK AO2
14840KMKG MKG20010807181009208/07/01 18:10:31  5-MIN KMKG 072310Z 27007KT 8SM CLR 28/23 A3003 530 74 2200 270/07 RMK AO2
14840KMKG MKG20010807181509208/07/01 18:15:31  5-MIN KMKG 072315Z 27007KT 8SM CLR 28/23 A3003 530 71 2200 270/07 RMK AO2
14840KMKG MKG20010807182009208/07/01 18:20:31  5-MIN KMKG 072320Z 29007KT 8SM CLR 28/23 A3003 530 74 2200 290/07 RMK AO2
14840KMKG MKG20010807182509208/07/01 18:25:31  5-MIN KMKG 072325Z 27006KT 8SM CLR 28/22 A3003 530 71 2200 280/06 RMK AO2
14840KMKG MKG20010807183009208/07/01 18:30:31  5-MIN KMKG 072330Z 29008KT 8SM CLR 28/22 A3003 530 71 2200 290/08 RMK AO2
14840KMKG MKG20010807183509208/07/01 18:35:31  5-MIN KMKG 072335Z 30006KT 8SM CLR 28/22 A3003 530 71 2200 310/06 RMK AO2
14840KMKG MKG20010807184009208/07/01 18:40:31  5-MIN KMKG 072340Z 29006KT 9SM CLR 28/22 A3003 530 71 2200 300/06 RMK AO2
14840KMKG MKG20010807184509208/07/01 18:45:31  5-MIN KMKG 072345Z 28005KT 9SM CLR 28/22 A3003 530 69 2200 280/05 RMK AO2
14840KMKG MKG20010807185012708/07/01 18:50:31  5-MIN KMKG 072350Z 29005KT 9SM CLR 28/22 A3003 530 71 2200 300/05 RMK AO2 SLP165 T02780222 10311 20278 56012
14840KMKG MKG20010807185512708/07/01 18:55:31  5-MIN KMKG 072355Z 29005KT 9SM CLR 28/22 A3003 530 69 2200 290/05 RMK AO2 SLP165 T02780217 10311 20278 56008
14840KMKG MKG20010807190009308/07/01 19:00:31  5-MIN KMKG 080000Z 27005KT 10SM CLR 28/22 A3003 530 71 2200 270/05 RMK AO2
14840KMKG MKG20010807190509308/07/01 19:05:31  5-MIN KMKG 080005Z 27005KT 10SM CLR 28/22 A3003 530 69 2200 280/05 RMK AO2
14840KMKG MKG20010807191009308/07/01 19:10:31  5-MIN KMKG 080010Z 29005KT 10SM CLR 28/22 A3004 520 69 2200 290/05 RMK AO2
14840KMKG MKG20010807191509308/07/01 19:15:31  5-MIN KMKG 080015Z 27005KT 10SM CLR 28/22 A3004 520 69 2200 270/05 RMK AO2
14840KMKG MKG20010807192009308/07/01 19:20:31  5-MIN KMKG 080020Z 27005KT 10SM CLR 27/22 A3003 520 71 2100 270/05 RMK AO2
14840KMKG MKG20010807192509308/07/01 19:25:31  5-MIN KMKG 080025Z 28006KT 10SM CLR 27/21 A3004 520 71 2000 280/06 RMK AO2
14840KMKG MKG20010807193009308/07/01 19:30:31  5-MIN KMKG 080030Z 26005KT 10SM CLR 27/21 A3004 520 71 2000 260/05 RMK AO2
14840KMKG MKG20010807193509308/07/01 19:35:31  5-MIN KMKG 080035Z 28005KT 10SM CLR 27/21 A3004 520 71 2000 280/05 RMK AO2
14840KMKG MKG20010807194009308/07/01 19:40:31  5-MIN KMKG 080040Z 26005KT 10SM CLR 26/21 A3004 520 73 2000 270/05 RMK AO2
14840KMKG MKG20010807194509308/07/01 19:45:31  5-MIN KMKG 080045Z 24005KT 10SM CLR 26/21 A3004 520 73 2000 250/05 RMK AO2
14840KMKG MKG20010807195011008/07/01 19:50:31  5-MIN KMKG 080050Z 29003KT 10SM CLR 26/21 A3004 520 76 1900 300/03 RMK AO2 SLP168 T02560211
14840KMKG MKG20010807195510908/07/01 19:55:31  5-MIN KMKG 080055Z 26004KT 9SM CLR 26/21 A3004 520 76 1900 260/04 RMK AO2 SLP168 T02560211
14840KMKG MKG20010807200009208/07/01 20:00:31  5-MIN KMKG 080100Z 24003KT 9SM CLR 25/22 A3004 520 81 1800 240/03 RMK AO2
14840KMKG MKG20010807200509208/07/01 20:05:31  5-MIN KMKG 080105Z 26003KT 8SM CLR 25/22 A3004 520 81 1800 260/03 RMK AO2
14840KMKG MKG20010807201009208/07/01 20:10:31  5-MIN KMKG 080110Z 25004KT 8SM CLR 25/22 A3004 520 81 1800 260/04 RMK AO2
14840KMKG MKG20010807201509208/07/01 20:15:31  5-MIN KMKG 080115Z 23004KT 8SM CLR 24/22 A3004 520 84 1800 240/04 RMK AO2
14840KMKG MKG20010807202009208/07/01 20:20:31  5-MIN KMKG 080120Z 25004KT 7SM CLR 24/22 A3004 520 84 1800 250/04 RMK AO2
14840KMKG MKG20010807202509508/07/01 20:25:31  5-MIN KMKG 080125Z 24004KT 6SM BR CLR 24/22 A3005 510 90 1700 250/04 RMK AO2
14840KMKG MKG20010807203009508/07/01 20:30:31  5-MIN KMKG 080130Z 26003KT 6SM BR CLR 24/23 A3005 510 93 1700 260/03 RMK AO2
14840KMKG MKG20010807203509508/07/01 20:35:31  5-MIN KMKG 080135Z 25004KT 5SM BR CLR 24/23 A3005 510 93 1700 250/04 RMK AO2
14840KMKG MKG20010807204009508/07/01 20:40:31  5-MIN KMKG 080140Z 00000KT 4SM BR CLR 24/23 A3005 510 97 1700 000/00 RMK AO2
14840KMKG MKG20010807204509508/07/01 20:45:31  5-MIN KMKG 080145Z 00000KT 4SM BR CLR 24/23 A3005 510 93 1800 000/00 RMK AO2
14840KMKG MKG20010807205011208/07/01 20:50:31  5-MIN KMKG 080150Z 00000KT 4SM BR CLR 24/23 A3006 510 97 1700 000/00 RMK AO2 SLP173 T02390233
14840KMKG MKG20010807205511208/07/01 20:55:31  5-MIN KMKG 080155Z 00000KT 3SM BR CLR 24/23 A3006 510 97 1700 000/00 RMK AO2 SLP173 T02390233
14840KMKG MKG20010807210009508/07/01 21:00:31  5-MIN KMKG 080200Z 00000KT 3SM BR CLR 24/23 A3006 500 97 1700 000/00 RMK AO2
14840KMKG MKG20010807210509508/07/01 21:05:31  5-MIN KMKG 080205Z 00000KT 3SM BR CLR 24/23 A3006 500 97 1700 000/00 RMK AO2
14840KMKG MKG20010807211009908/07/01 21:10:31  5-MIN KMKG 080210Z 00000KT 2 1/2SM BR CLR 24/23 A3006 500 97 1700 000/00 RMK AO2
14840KMKG MKG20010807211509908/07/01 21:15:31  5-MIN KMKG 080215Z 00000KT 2 1/2SM BR CLR 24/23 A3006 500 97 1700 000/00 RMK AO2
14840KMKG MKG20010807212009908/07/01 21:20:31  5-MIN KMKG 080220Z 00000KT 2 1/2SM BR CLR 24/23 A3006 500 97 1700 000/00 RMK AO2
14840KMKG MKG20010807212509908/07/01 21:25:31  5-MIN KMKG 080225Z 00000KT 2 1/2SM BR CLR 23/23 A3006 500 97 1600 000/00 RMK AO2
14840KMKG MKG20010807213009908/07/01 21:30:31  5-MIN KMKG 080230Z 00000KT 2 1/2SM BR CLR 24/23 A3006 500 97 1700 000/00 RMK AO2
14840KMKG MKG20010807213509508/07/01 21:35:31  5-MIN KMKG 080235Z 00000KT 2SM BR CLR 24/23 A3006 500 97 1700 000/00 RMK AO2
14840KMKG MKG20010807214009608/07/01 21:40:31  5-MIN KMKG 080240Z 00000KT 2SM BR CLR 23/23 A3006 510 100 1600 000/00 RMK AO2
14840KMKG MKG20010807214509608/07/01 21:45:31  5-MIN KMKG 080245Z 00000KT 2SM BR CLR 23/23 A3006 510 100 1600 000/00 RMK AO2
14840KMKG MKG20010807215011808/07/01 21:50:31  5-MIN KMKG 080250Z 00000KT 2SM BR CLR 24/23 A3006 500 97 1700 000/00 RMK AO2 SLP174 T02390233 56008
14840KMKG MKG20010807215512208/07/01 21:55:31  5-MIN KMKG 080255Z 00000KT 1 3/4SM BR CLR 24/23 A3006 500 97 1700 000/00 RMK AO2 SLP174 T02390233 51008
14840KMKG MKG20010807220009908/07/01 22:00:31  5-MIN KMKG 080300Z 00000KT 1 3/4SM BR CLR 24/23 A3006 500 97 1700 000/00 RMK AO2
14840KMKG MKG20010807220510008/07/01 22:05:31  5-MIN KMKG 080305Z 00000KT 1 3/4SM BR CLR 23/23 A3006 500 100 1600 000/00 RMK AO2
14840KMKG MKG20010807221009608/07/01 22:10:31  5-MIN KMKG 080310Z 00000KT 3SM BR CLR 23/23 A3006 500 100 1600 000/00 RMK AO2
14840KMKG MKG20010807221509508/07/01 22:15:31  5-MIN KMKG 080315Z 00000KT 3SM BR CLR 23/23 A3006 500 97 1600 000/00 RMK AO2
14840KMKG MKG20010807222009808/07/01 22:20:31  5-MIN KMKG 080320Z 00000KT 1/2SM FG CLR 23/23 A3006 500 100 1600 000/00 RMK AO2
14840KMKG MKG20010807222510008/07/01 22:25:31  5-MIN KMKG 080325Z 00000KT 1/4SM FG VV002 23/23 A3006 500 100 1600 000/00 RMK AO2
14840KMKG MKG20010807223010008/07/01 22:30:31  5-MIN KMKG 080330Z 00000KT 1/4SM FG VV002 23/23 A3006 500 100 1600 000/00 RMK AO2
14840KMKG MKG20010807223510108/07/01 22:35:31  5-MIN KMKG 080335Z 00000KT 1/4SM FG BKN002 23/23 A3006 500 100 1600 000/00 RMK AO2
14840KMKG MKG20010807224010808/07/01 22:40:31  5-MIN KMKG 080340Z 00000KT 1/4SM FG BKN002 BKN005 23/23 A3006 500 100 1600 000/00 RMK AO2
14840KMKG MKG20010807224510608/07/01 22:45:31  5-MIN KMKG 080345Z 00000KT 1SM BR BKN002 OVC005 23/23 A3006 500 100 1600 000/00 RMK AO2
14840KMKG MKG20010807225012508/07/01 22:50:31  5-MIN KMKG 080350Z 00000KT 3/4SM BR BKN002 OVC005 23/23 A3006 500 100 1600 000/00 RMK AO2 SLP174 T02330233
14840KMKG MKG20010807225512308/07/01 22:55:31  5-MIN KMKG 080355Z 00000KT 1SM BR BKN002 OVC005 23/23 A3006 500 100 1600 000/00 RMK AO2 SLP174 T02330233
14840KMKG MKG20010807230012508/07/01 23:00:31  5-MIN KMKG 080400Z 00000KT 1 3/4SM BR BKN002 OVC005 23/23 A3006 500 100 1600 000/00 RMK AO2 VIS 1/2 RWY 14
14840KMKG MKG20010807230511808/07/01 23:05:31  5-MIN KMKG 080405Z 00000KT 1 1/4SM BR OVC002 23/23 A3006 500 100 1600 000/00 RMK AO2 VIS 1/2 RWY 14
14840KMKG MKG20010807231010808/07/01 23:10:31  5-MIN KMKG 080410Z 22004KT 1/2SM FG BKN002 OVC005 23/23 A3006 500 100 1600 220/04 RMK AO2
14840KMKG MKG20010807231510808/07/01 23:15:31  5-MIN KMKG 080415Z 23004KT 1/4SM FG BKN002 OVC005 23/23 A3006 510 100 1600 230/04 RMK AO2
14840KMKG MKG20010807232010808/07/01 23:20:31  5-MIN KMKG 080420Z 23005KT 1/4SM FG BKN001 OVC005 23/23 A3006 510 100 1600 230/05 RMK AO2
14840KMKG MKG20010807232510908/07/01 23:25:31  5-MIN KMKG 080425Z 00000KT M1/4SM FG BKN001 OVC005 24/24 A3006 500 100 1700 000/00 RMK AO2
14840KMKG MKG20010807233010908/07/01 23:30:31  5-MIN KMKG 080430Z 23004KT M1/4SM FG BKN001 OVC005 24/24 A3006 510 100 1700 240/04 RMK AO2
14840KMKG MKG20010807233510908/07/01 23:35:31  5-MIN KMKG 080435Z 00000KT M1/4SM FG BKN001 OVC005 24/24 A3006 510 100 1700 000/00 RMK AO2
14840KMKG MKG20010807234010908/07/01 23:40:31  5-MIN KMKG 080440Z 21003KT M1/4SM FG BKN001 OVC005 24/24 A3006 510 100 1700 220/03 RMK AO2
14840KMKG MKG20010807234510908/07/01 23:45:31  5-MIN KMKG 080445Z 22003KT M1/4SM FG BKN001 OVC005 24/24 A3006 510 100 1700 220/03 RMK AO2
14840KMKG MKG20010807235013608/07/01 23:50:31  5-MIN KMKG 080450Z 00000KT M1/4SM FG BKN001 OVC005 24/24 A3006 500 100 1700 000/00 RMK AO2 SLP174 T02390239 403110228
14840KMKG MKG20010807235512808/07/01 23:55:31  5-MIN KMKG 080455Z 00000KT M1/4SM FG VV001 23/23 A3005 510 100 1600 000/00 RMK AO2 SLP173 T02330233 403110228
14840KMKG MKG20010808000010108/08/01 00:00:31  5-MIN KMKG 080500Z 00000KT M1/4SM FG VV001 23/23 A3005 510 100 1600 000/00 RMK AO2
14840KMKG MKG20010808000510808/08/01 00:05:31  5-MIN KMKG 080505Z 00000KT 1/4SM FG BKN001 OVC005 23/23 A3005 510 100 1600 000/00 RMK AO2
14840KMKG MKG20010808001010808/08/01 00:10:31  5-MIN KMKG 080510Z 00000KT 1/4SM FG BKN001 BKN005 23/23 A3005 510 100 1600 000/00 RMK AO2
14840KMKG MKG20010808001510808/08/01 00:15:31  5-MIN KMKG 080515Z 00000KT 1/2SM FG SCT001 BKN005 23/23 A3005 510 100 1600 000/00 RMK AO2
14840KMKG MKG20010808002012408/08/01 00:20:31  5-MIN KMKG 080520Z 00000KT 3/4SM BR SCT001 SCT005 23/23 A3005 510 100 1600 000/00 RMK AO2 VIS M1/4 RWY 14
14840KMKG MKG20010808002511408/08/01 00:25:31  5-MIN KMKG 080525Z 00000KT 1SM BR FEW001 23/23 A3005 510 100 1600 000/00 RMK AO2 VIS 1/4 RWY 14
14840KMKG MKG20010808003009808/08/01 00:30:31  5-MIN KMKG 080530Z 00000KT 1SM BR VV001 23/23 A3005 510 100 1600 000/00 RMK AO2
14840KMKG MKG20010808003510008/08/01 00:35:31  5-MIN KMKG 080535Z 00000KT 1 1/4SM BR CLR 23/23 A3005 510 100 1600 000/00 RMK AO2
14840KMKG MKG20010808004009608/08/01 00:40:31  5-MIN KMKG 080540Z 00000KT 1SM BR CLR 24/24 A3005 510 100 1700 000/00 RMK AO2
14840KMKG MKG20010808004509808/08/01 00:45:31  5-MIN KMKG 080545Z 00000KT 1/2SM FG CLR 23/23 A3005 510 100 1600 000/00 RMK AO2
14840KMKG MKG20010808005013308/08/01 00:50:31  5-MIN KMKG 080550Z 00000KT 1/2SM FG CLR 23/23 A3005 510 100 1600 000/00 RMK AO2 SLP170 T02330233 10278 20228 51008
14840KMKG MKG20010808005513508/08/01 00:55:31  5-MIN KMKG 080555Z 00000KT 1 1/4SM BR CLR 23/23 A3005 510 100 1600 000/00 RMK AO2 SLP170 T02330233 10278 20228 58003
14840KMKG MKG20010808010011508/08/01 01:00:31  5-MIN KMKG 080600Z 00000KT 1 1/2SM BR CLR 23/23 A3005 510 100 1600 000/00 RMK AO2 VIS 3/4 RWY 14
14840KMKG MKG20010808010509808/08/01 01:05:31  5-MIN KMKG 080605Z 00000KT 1SM BR VV001 23/23 A3005 510 100 1600 000/00 RMK AO2
14840KMKG MKG20010808011010008/08/01 01:10:31  5-MIN KMKG 080610Z 00000KT 3/4SM BR VV001 23/23 A3005 510 100 1600 000/00 RMK AO2
14840KMKG MKG20010808011510008/08/01 01:15:31  5-MIN KMKG 080615Z 00000KT 1 1/4SM BR CLR 23/23 A3005 510 100 1600 000/00 RMK AO2
14840KMKG MKG20010808012009608/08/01 01:20:31  5-MIN KMKG 080620Z 00000KT 1SM BR CLR 22/22 A3004 520 100 1500 000/00 RMK AO2
14840KMKG MKG20010808012509608/08/01 01:25:31  5-MIN KMKG 080625Z 00000KT 1SM BR CLR 23/23 A3004 520 100 1600 000/00 RMK AO2
14840KMKG MKG20010808013010008/08/01 01:30:31  5-MIN KMKG 080630Z 00000KT 1 1/2SM BR CLR 23/23 A3004 520 100 1600 000/00 RMK AO2
14840KMKG MKG20010808013511308/08/01 01:35:31  5-MIN KMKG 080635Z 00000KT 2 1/2SM BR CLR 23/23 A3004 520 100 1600 000/00 RMK AO2 VIS 1 RWY 14
14840KMKG MKG20010808014011508/08/01 01:40:31  5-MIN KMKG 080640Z 00000KT 1 3/4SM BR CLR 22/22 A3004 520 100 1500 000/00 RMK AO2 VIS 3/4 RWY 14
14840KMKG MKG20010808014510008/08/01 01:45:31  5-MIN KMKG 080645Z 00000KT 1 1/4SM BR CLR 23/23 A3004 520 100 1600 000/00 RMK AO2
14840KMKG MKG20010808015011708/08/01 01:50:31  5-MIN KMKG 080650Z 12003KT 1 1/4SM BR CLR 22/22 A3004 520 100 1500 120/03 RMK AO2 SLP168 T02220222
14840KMKG MKG20010808015512808/08/01 01:55:31  5-MIN KMKG 080655Z 12003KT 2SM BR CLR 22/22 A3004 520 100 1500 130/03 RMK AO2 VIS 3/4 RWY 14 SLP168 T02220222
14840KMKG MKG20010808020011008/08/01 02:00:31  5-MIN KMKG 080700Z 13003KT 2SM BR CLR 22/22 A3004 520 97 1500 130/03 RMK AO2 VIS 3/4 RWY 14
14840KMKG MKG20010808020510908/08/01 02:05:31  5-MIN KMKG 080705Z 14003KT 2SM BR CLR 22/22 A3003 530 100 1500 150/03 RMK AO2 VIS 1 RWY 14
14840KMKG MKG20010808021011208/08/01 02:10:31  5-MIN KMKG 080710Z 14003KT 1 3/4SM BR CLR 23/22 A3003 530 97 1600 150/03 RMK AO2 VIS 1 RWY 14
14840KMKG MKG20010808021511408/08/01 02:15:31  5-MIN KMKG 080715Z 00000KT 1 1/2SM BR CLR 23/22 A3003 530 97 1600 000/00 RMK AO2 VIS 3/4 RWY 14
14840KMKG MKG20010808022009808/08/01 02:20:31  5-MIN KMKG 080720Z 00000KT 3/4SM BR CLR 23/23 A3003 530 100 1600 000/00 RMK AO2
14840KMKG MKG20010808022509608/08/01 02:25:31  5-MIN KMKG 080725Z 00000KT 1SM BR CLR 23/23 A3003 530 100 1600 000/00 RMK AO2
14840KMKG MKG20010808023011408/08/01 02:30:31  5-MIN KMKG 080730Z 00000KT 1 3/4SM BR CLR 23/22 A3003 530 97 1600 000/00 RMK AO2 VIS 3/4 RWY 14
14840KMKG MKG20010808023511408/08/01 02:35:31  5-MIN KMKG 080735Z 00000KT 1 3/4SM BR CLR 23/22 A3003 530 97 1600 000/00 RMK AO2 VIS 3/4 RWY 14
14840KMKG MKG20010808024009908/08/01 02:40:31  5-MIN KMKG 080740Z 00000KT 1/2SM FG VV001 23/22 A3003 530 97 1600 000/00 RMK AO2
14840KMKG MKG20010808024510008/08/01 02:45:31  5-MIN KMKG 080745Z 00000KT 1/2SM FG VV001 22/22 A3003 530 100 1500 000/00 RMK AO2
14840KMKG MKG20010808025011708/08/01 02:50:31  5-MIN KMKG 080750Z 00000KT 1/4SM FG VV001 22/22 A3003 530 100 1500 000/00 RMK AO2 SLP165 T02220222
14840KMKG MKG20010808025511708/08/01 02:55:31  5-MIN KMKG 080755Z 00000KT 1/2SM FG VV001 22/22 A3003 530 100 1500 000/00 RMK AO2 SLP165 T02220222
14840KMKG MKG20010808030011408/08/01 03:00:31  5-MIN KMKG 080800Z 00000KT 1SM BR VV001 23/23 A3003 530 100 1600 000/00 RMK AO2 VIS M1/4 RWY 14
14840KMKG MKG20010808030511208/08/01 03:05:31  5-MIN KMKG 080805Z 00000KT 1SM BR VV001 23/22 A3003 530 97 1600 000/00 RMK AO2 VIS 1/4 RWY 14
14840KMKG MKG20010808031010008/08/01 03:10:31  5-MIN KMKG 080810Z 00000KT 3/4SM BR VV001 23/23 A3003 530 100 1600 000/00 RMK AO2
14840KMKG MKG20010808031511808/08/01 03:15:31  5-MIN KMKG 080815Z 16003KT 1 1/4SM BR FEW001 22/22 A3003 530 100 1500 160/03 RMK AO2 VIS 1/2 RWY 14
14840KMKG MKG20010808032011808/08/01 03:20:31  5-MIN KMKG 080820Z 00000KT 1 1/2SM BR SCT001 22/22 A3003 530 100 1500 000/00 RMK AO2 VIS 1/2 RWY 14
14840KMKG MKG20010808032511708/08/01 03:25:31  5-MIN KMKG 080825Z 00000KT 1 1/2SM BR FEW001 22/22 A3003 530 97 1500 000/00 RMK AO2 VIS 1/2 RWY 14
14840KMKG MKG20010808033011608/08/01 03:30:31  5-MIN KMKG 080830Z 00000KT 1 3/4SM BR FEW001 22/22 A3003 530 100 1500 000/00 RMK AO2 VIS 1 RWY 14
14840KMKG MKG20010808033511708/08/01 03:35:31  5-MIN KMKG 080835Z 00000KT 1 3/4SM BR FEW001 22/22 A3003 530 97 1500 000/00 RMK AO2 VIS 3/4 RWY 14
14840KMKG MKG20010808034011708/08/01 03:40:31  5-MIN KMKG 080840Z 00000KT 1 3/4SM BR FEW001 22/22 A3003 530 97 1500 000/00 RMK AO2 VIS 3/4 RWY 14
14840KMKG MKG20010808034510808/08/01 03:45:31  5-MIN KMKG 080845Z 00000KT 2SM BR CLR 22/22 A3003 530 97 1500 000/00 RMK AO2 VIS 1 RWY 14
14840KMKG MKG20010808035013308/08/01 03:50:31  5-MIN KMKG 080850Z 00000KT 2SM BR CLR 22/22 A3003 530 97 1500 000/00 RMK AO2 VIS 3/4 RWY 14 SLP164 T02220217 58003
14840KMKG MKG20010808035513708/08/01 03:55:31  5-MIN KMKG 080855Z 14003KT 1 3/4SM BR CLR 22/22 A3003 530 97 1500 140/03 RMK AO2 VIS 3/4 RWY 14 SLP163 T02220217 56007
14840KMKG MKG20010808040011508/08/01 04:00:31  5-MIN KMKG 080900Z 14004KT 1 1/4SM BR CLR 22/22 A3002 530 100 1500 140/04 RMK AO2 VIS 1/2 RWY 14
14840KMKG MKG20010808040511508/08/01 04:05:31  5-MIN KMKG 080905Z 17004KT 1 1/4SM BR CLR 22/22 A3002 530 100 1500 180/04 RMK AO2 VIS 1/4 RWY 14
14840KMKG MKG20010808041011508/08/01 04:10:31  5-MIN KMKG 080910Z 19003KT 1 1/2SM BR CLR 22/22 A3002 530 100 1500 190/03 RMK AO2 VIS 1/4 RWY 14
14840KMKG MKG20010808041511008/08/01 04:15:31  5-MIN KMKG 080915Z 19004KT 2SM BR CLR 22/21 A3002 540 97 1500 200/04 RMK AO2 VIS 3/4 RWY 14
14840KMKG MKG20010808042011308/08/01 04:20:31  5-MIN KMKG 080920Z 19004KT 2SM BR CLR 22/22 A3002 540 100 1500 200/04 RMK AO2 VIS 1 1/4 RWY 14
14840KMKG MKG20010808042510008/08/01 04:25:31  5-MIN KMKG 080925Z 00000KT 1 1/2SM BR CLR 22/22 A3002 540 100 1500 000/00 RMK AO2
14840KMKG MKG20010808043009908/08/01 04:30:31  5-MIN KMKG 080930Z 14004KT 1 1/4SM BR CLR 22/22 A3002 540 97 1500 150/04 RMK AO2
14840KMKG MKG20010808043510008/08/01 04:35:31  5-MIN KMKG 080935Z 15004KT 1 1/4SM BR CLR 22/22 A3002 540 100 1500 150/04 RMK AO2
14840KMKG MKG20010808044009608/08/01 04:40:31  5-MIN KMKG 080940Z 13004KT 1SM BR CLR 22/22 A3003 530 100 1500 130/04 RMK AO2
14840KMKG MKG20010808044509608/08/01 04:45:31  5-MIN KMKG 080945Z 15004KT 1SM BR CLR 22/22 A3002 530 100 1500 150/04 RMK AO2
14840KMKG MKG20010808045011308/08/01 04:50:31  5-MIN KMKG 080950Z 17003KT 1SM BR CLR 22/22 A3002 540 100 1500 170/03 RMK AO2 SLP162 T02220222
14840KMKG MKG20010808045511708/08/01 04:55:31  5-MIN KMKG 080955Z 00000KT 1 1/4SM BR CLR 22/22 A3002 540 100 1500 000/00 RMK AO2 SLP162 T02220222
14840KMKG MKG20010808050010008/08/01 05:00:31  5-MIN KMKG 081000Z 00000KT 1 1/4SM BR CLR 22/22 A3002 530 100 1500 000/00 RMK AO2
14840KMKG MKG20010808050510008/08/01 05:05:31  5-MIN KMKG 081005Z 16003KT 1 1/4SM BR CLR 22/22 A3002 540 100 1500 160/03 RMK AO2
14840KMKG MKG20010808051010008/08/01 05:10:31  5-MIN KMKG 081010Z 00000KT 1 1/4SM BR CLR 22/22 A3002 530 100 1500 000/00 RMK AO2
14840KMKG MKG20010808051510008/08/01 05:15:31  5-MIN KMKG 081015Z 00000KT 1 1/4SM BR CLR 22/22 A3003 530 100 1500 000/00 RMK AO2
14840KMKG MKG20010808052010008/08/01 05:20:31  5-MIN KMKG 081020Z 00000KT 1 1/4SM BR CLR 22/22 A3003 530 100 1500 000/00 RMK AO2
14840KMKG MKG20010808052511208/08/01 05:25:31  5-MIN KMKG 081025Z 00000KT 1/2SM BR CLR 22/22 A3003 530 100 1500 000/00 RMK AO2 SFC VIS 1 1/4
14840KMKG MKG20010808053009708/08/01 05:30:31  5-MIN KMKG 081030Z 00000KT 1/2SM FG CLR 22/22 A3002 530 97 1500 000/00 RMK AO2
14840KMKG MKG20010808053509808/08/01 05:35:31  5-MIN KMKG 081035Z 00000KT 1/2SM FG CLR 22/22 A3003 530 100 1500 000/00 RMK AO2
14840KMKG MKG20010808054009808/08/01 05:40:31  5-MIN KMKG 081040Z 00000KT 1/2SM FG CLR 22/22 A3002 530 100 1500 000/00 RMK AO2
14840KMKG MKG20010808054510808/08/01 05:45:31  5-MIN KMKG 081045Z 00000KT 1/2SM FG CLR 22/22 A3002 530 100 1500 000/00 RMK AO2 TWR VIS 1
14840KMKG MKG20010808055012508/08/01 05:50:31  5-MIN KMKG 081050Z 00000KT 3/4SM BR CLR 22/22 A3002 530 100 1500 000/00 RMK AO2 TWR VIS 1 SLP163 T02220222
14840KMKG MKG20010808055512508/08/01 05:55:31  5-MIN KMKG 081055Z 00000KT 3/4SM BR CLR 22/22 A3003 530 100 1500 000/00 RMK AO2 TWR VIS 1 SLP164 T02220222
14840KMKG MKG20010808060010808/08/01 06:00:31  5-MIN KMKG 081100Z 00000KT 3/4SM BR CLR 22/22 A3003 530 100 1500 000/00 RMK AO2 TWR VIS 1
14840KMKG MKG20010808060509808/08/01 06:05:31  5-MIN KMKG 081105Z 16003KT 3/4SM BR CLR 22/22 A3003 530 100 1500 170/03 RMK AO2
14840KMKG MKG20010808061009808/08/01 06:10:31  5-MIN KMKG 081110Z 00000KT 3/4SM BR CLR 22/22 A3003 530 100 1500 000/00 RMK AO2
14840KMKG MKG20010808061509808/08/01 06:15:31  5-MIN KMKG 081115Z 00000KT 3/4SM BR CLR 22/22 A3003 530 100 1500 000/00 RMK AO2
14840KMKG MKG20010808062009808/08/01 06:20:31  5-MIN KMKG 081120Z 15003KT 3/4SM BR CLR 22/22 A3003 530 100 1500 150/03 RMK AO2
14840KMKG MKG20010808062509808/08/01 06:25:31  5-MIN KMKG 081125Z 15003KT 3/4SM BR CLR 22/22 A3003 530 100 1500 150/03 RMK AO2
14840KMKG MKG20010808063009708/08/01 06:30:31  5-MIN KMKG 081130Z 00000KT 3/4SM BR CLR 23/22 A3003 530 97 1600 000/00 RMK AO2
14840KMKG MKG20010808063509808/08/01 06:35:31  5-MIN KMKG 081135Z 00000KT 3/4SM BR CLR 23/23 A3003 530 100 1600 000/00 RMK AO2
14840KMKG MKG20010808064009808/08/01 06:40:31  5-MIN KMKG 081140Z 00000KT 3/4SM BR CLR 23/23 A3003 530 100 1600 000/00 RMK AO2
14840KMKG MKG20010808064509708/08/01 06:45:31  5-MIN KMKG 081145Z 00000KT 3/4SM BR CLR 23/23 A3003 530 97 1700 000/00 RMK AO2
14840KMKG MKG20010808065013008/08/01 06:50:31  5-MIN KMKG 081150Z 00000KT 1SM BR CLR 23/23 A3003 530 97 1700 000/00 RMK AO2 SLP164 T02330228 10233 20217 56007
14840KMKG MKG20010808065513008/08/01 06:55:31  5-MIN KMKG 081155Z 00000KT 1SM BR CLR 23/23 A3003 530 97 1700 000/00 RMK AO2 SLP164 T02330228 10233 20217 53001
14840KMKG MKG20010808070009608/08/01 07:00:31  5-MIN KMKG 081200Z 00000KT 1SM BR CLR 23/23 A3003 530 100 1700 000/00 RMK AO2
14840KMKG MKG20010808070509508/08/01 07:05:31  5-MIN KMKG 081205Z 00000KT 1SM BR CLR 24/23 A3003 530 97 1700 000/00 RMK AO2
14840KMKG MKG20010808071009508/08/01 07:10:31  5-MIN KMKG 081210Z 21003KT 1SM BR CLR 24/23 A3003 530 97 1700 210/03 RMK AO2
14840KMKG MKG20010808071509608/08/01 07:15:31  5-MIN KMKG 081215Z 00000KT 1SM BR CLR 24/24 A3003 530 100 1700 000/00 RMK AO2
14840KMKG MKG20010808072009908/08/01 07:20:31  5-MIN KMKG 081220Z 20003KT 1 1/4SM BR CLR 24/24 A3003 530 97 1800 200/03 RMK AO2
14840KMKG MKG20010808072509908/08/01 07:25:31  5-MIN KMKG 081225Z 00000KT 1 1/4SM BR CLR 24/24 A3003 530 97 1800 000/00 RMK AO2
14840KMKG MKG20010808073009908/08/01 07:30:31  5-MIN KMKG 081230Z 00000KT 1 1/2SM BR CLR 25/24 A3003 530 93 1800 000/00 RMK AO2
14840KMKG MKG20010808073509908/08/01 07:35:31  5-MIN KMKG 081235Z 21003KT 1 1/2SM BR CLR 25/24 A3003 530 93 1800 210/03 RMK AO2
14840KMKG MKG20010808074009908/08/01 07:40:31  5-MIN KMKG 081240Z 21003KT 1 3/4SM BR CLR 26/24 A3003 530 93 1900 220/03 RMK AO2
14840KMKG MKG20010808074509508/08/01 07:45:31  5-MIN KMKG 081245Z 21004KT 2SM BR CLR 26/24 A3002 540 93 1900 210/04 RMK AO2
14840KMKG MKG20010808075011208/08/01 07:50:31  5-MIN KMKG 081250Z 20005KT 2SM BR CLR 26/24 A3002 540 90 2000 200/05 RMK AO2 SLP162 T02610244
14840KMKG MKG20010808075512608/08/01 07:55:31  5-MIN KMKG 081255Z 21004KT 2SM BR CLR 26/24 A3002 540 90 2000 210/04 RMK AO2 SFC VIS 2 1/2 SLP162 T02610244
14840KMKG MKG20010808080010908/08/01 08:00:31  5-MIN KMKG 081300Z 21005KT 2SM BR CLR 26/25 A3002 540 93 2000 210/05 RMK AO2 SFC VIS 2 1/2
14840KMKG MKG20010808080510908/08/01 08:05:31  5-MIN KMKG 081305Z 20006KT 2SM BR CLR 27/25 A3002 540 90 2000 200/06 RMK AO2 SFC VIS 2 1/2
14840KMKG MKG20010808081010508/08/01 08:10:31  5-MIN KMKG 081310Z 20004KT 2SM BR CLR 27/25 A3002 540 90 2000 200/04 RMK AO2 SFC VIS 3
14840KMKG MKG20010808081510508/08/01 08:15:31  5-MIN KMKG 081315Z 19006KT 2SM BR CLR 27/25 A3002 540 87 2100 190/06 RMK AO2 SFC VIS 3
14840KMKG MKG20010808082010508/08/01 08:20:31  5-MIN KMKG 081320Z 20006KT 2SM BR CLR 27/25 A3002 540 87 2100 210/06 RMK AO2 SFC VIS 3
14840KMKG MKG20010808082510508/08/01 08:25:31  5-MIN KMKG 081325Z 21006KT 2SM BR CLR 27/25 A3002 540 87 2100 220/06 RMK AO2 SFC VIS 3
14840KMKG MKG20010808083010508/08/01 08:30:31  5-MIN KMKG 081330Z 20006KT 2SM HZ CLR 28/25 A3002 540 84 2200 210/06 RMK AO2 SFC VIS 3
14840KMKG MKG20010808083510508/08/01 08:35:31  5-MIN KMKG 081335Z 22007KT 2SM HZ CLR 28/25 A3002 540 84 2200 230/07 RMK AO2 SFC VIS 4
14840KMKG MKG20010808084010508/08/01 08:40:31  5-MIN KMKG 081340Z 25007KT 2SM BR CLR 27/25 A3002 530 87 2100 260/07 RMK AO2 SFC VIS 4
14840KMKG MKG20010808084509508/08/01 08:45:31  5-MIN KMKG 081345Z 23007KT 4SM BR CLR 27/25 A3003 530 87 2100 240/07 RMK AO2
14840KMKG MKG20010808085011208/08/01 08:50:31  5-MIN KMKG 081350Z 23007KT 4SM HZ CLR 28/25 A3003 530 84 2200 230/07 RMK AO2 SLP165 T02780250
14840KMKG MKG20010808085511208/08/01 08:55:31  5-MIN KMKG 081355Z 22008KT 4SM HZ CLR 28/25 A3003 530 84 2200 230/08 RMK AO2 SLP166 T02780250
14840KMKG MKG20010808090009508/08/01 09:00:31  5-MIN KMKG 081400Z 24008KT 4SM HZ CLR 28/25 A3003 530 84 2200 240/08 RMK AO2
14840KMKG MKG20010808090509508/08/01 09:05:31  5-MIN KMKG 081405Z 23008KT 4SM BR CLR 27/25 A3003 530 87 2100 230/08 RMK AO2
14840KMKG MKG20010808091009508/08/01 09:10:31  5-MIN KMKG 081410Z 23008KT 4SM HZ CLR 28/25 A3003 530 84 2200 240/08 RMK AO2
14840KMKG MKG20010808091509508/08/01 09:15:31  5-MIN KMKG 081415Z 24008KT 4SM HZ CLR 28/25 A3003 530 84 2200 240/08 RMK AO2
14840KMKG MKG20010808092009508/08/01 09:20:31  5-MIN KMKG 081420Z 24009KT 4SM BR CLR 27/25 A3003 530 87 2100 240/09 RMK AO2
14840KMKG MKG20010808092509508/08/01 09:25:31  5-MIN KMKG 081425Z 24008KT 4SM BR CLR 27/25 A3003 530 87 2100 240/08 RMK AO2
14840KMKG MKG20010808093009508/08/01 09:30:31  5-MIN KMKG 081430Z 24008KT 4SM HZ CLR 28/25 A3003 530 84 2200 240/08 RMK AO2
14840KMKG MKG20010808093509508/08/01 09:35:31  5-MIN KMKG 081435Z 23008KT 4SM HZ CLR 28/25 A3003 530 84 2200 240/08 RMK AO2
14840KMKG MKG20010808094009808/08/01 09:40:31  5-MIN KMKG 081440Z 24008KT 4SM HZ FEW012 28/25 A3003 530 82 2200 250/08 RMK AO2
14840KMKG MKG20010808094509808/08/01 09:45:31  5-MIN KMKG 081445Z 26007KT 4SM HZ FEW012 28/25 A3003 530 82 2200 260/07 RMK AO2
14840KMKG MKG20010808095012108/08/01 09:50:31  5-MIN KMKG 081450Z 27007KT 4SM HZ FEW012 28/25 A3003 530 82 2200 270/07 RMK AO2 SLP164 T02830250 53001
14840KMKG MKG20010808095512108/08/01 09:55:31  5-MIN KMKG 081455Z 26008KT 5SM HZ FEW012 28/25 A3003 530 82 2200 270/08 RMK AO2 SLP165 T02830250 53001
14840KMKG MKG20010808100009508/08/01 10:00:31  5-MIN KMKG 081500Z 25008KT 5SM HZ CLR 29/25 A3003 530 79 2300 260/08 RMK AO2
14840KMKG MKG20010808100509508/08/01 10:05:31  5-MIN KMKG 081505Z 26008KT 5SM HZ CLR 29/25 A3003 530 79 2300 260/08 RMK AO2
14840KMKG MKG20010808101009508/08/01 10:10:31  5-MIN KMKG 081510Z 28008KT 5SM HZ CLR 29/25 A3003 530 79 2300 290/08 RMK AO2
14840KMKG MKG20010808101509508/08/01 10:15:31  5-MIN KMKG 081515Z 27008KT 5SM HZ CLR 29/25 A3003 530 76 2300 270/08 RMK AO2
14840KMKG MKG20010808102009508/08/01 10:20:31  5-MIN KMKG 081520Z 28007KT 5SM HZ CLR 29/25 A3003 520 76 2300 280/07 RMK AO2
14840KMKG MKG20010808102509508/08/01 10:25:31  5-MIN KMKG 081525Z 27008KT 6SM HZ CLR 29/25 A3003 530 76 2300 270/08 RMK AO2
14840KMKG MKG20010808103009508/08/01 10:30:31  5-MIN KMKG 081530Z 25009KT 5SM HZ CLR 29/25 A3003 530 79 2300 260/09 RMK AO2
14840KMKG MKG20010808103509508/08/01 10:35:31  5-MIN KMKG 081535Z 26007KT 5SM HZ CLR 29/25 A3004 520 79 2300 270/07 RMK AO2
14840KMKG MKG20010808104009508/08/01 10:40:31  5-MIN KMKG 081540Z 27006KT 5SM HZ CLR 30/25 A3004 520 74 2400 270/06 RMK AO2
14840KMKG MKG20010808104509508/08/01 10:45:31  5-MIN KMKG 081545Z 26007KT 5SM HZ CLR 29/25 A3004 520 76 2300 260/07 RMK AO2
14840KMKG MKG20010808105011208/08/01 10:50:31  5-MIN KMKG 081550Z 27006KT 5SM HZ CLR 29/25 A3004 520 79 2300 280/06 RMK AO2 SLP168 T02890250
14840KMKG MKG20010808105511208/08/01 10:55:31  5-MIN KMKG 081555Z 27008KT 5SM HZ CLR 29/25 A3004 520 76 2300 270/08 RMK AO2 SLP168 T02940250
14840KMKG MKG20010808110009508/08/01 11:00:31  5-MIN KMKG 081600Z 28008KT 5SM HZ CLR 29/25 A3004 520 76 2300 280/08 RMK AO2
14840KMKG MKG20010808110509508/08/01 11:05:31  5-MIN KMKG 081605Z VRB06KT 6SM HZ CLR 29/25 A3003 530 76 2300 VRB/06 RMK AO2
14840KMKG MKG20010808111009508/08/01 11:10:31  5-MIN KMKG 081610Z 24008KT 6SM HZ CLR 30/24 A3003 530 72 2400 240/08 RMK AO2
14840KMKG MKG20010808111509508/08/01 11:15:31  5-MIN KMKG 081615Z 26007KT 6SM HZ CLR 29/24 A3003 530 74 2300 260/07 RMK AO2
14840KMKG MKG20010808112009508/08/01 11:20:31  5-MIN KMKG 081620Z 26009KT 6SM HZ CLR 30/24 A3002 540 72 2400 260/09 RMK AO2
14840KMKG MKG20010808112509508/08/01 11:25:31  5-MIN KMKG 081625Z 28007KT 6SM HZ CLR 30/24 A3002 540 72 2400 280/07 RMK AO2
14840KMKG MKG20010808113009508/08/01 11:30:31  5-MIN KMKG 081630Z 26006KT 6SM HZ CLR 31/24 A3002 540 69 2500 260/06 RMK AO2
14840KMKG MKG20010808113509508/08/01 11:35:31  5-MIN KMKG 081635Z 26008KT 6SM HZ CLR 31/24 A3002 540 69 2500 260/08 RMK AO2
14840KMKG MKG20010808114009208/08/01 11:40:31  5-MIN KMKG 081640Z 26009KT 7SM CLR 31/24 A3002 540 69 2500 270/09 RMK AO2
14840KMKG MKG20010808114509208/08/01 11:45:31  5-MIN KMKG 081645Z 26007KT 7SM CLR 30/24 A3002 530 72 2400 260/07 RMK AO2
14840KMKG MKG20010808115011208/08/01 11:50:31  5-MIN KMKG 081650Z 24009KT 6SM HZ CLR 30/24 A3003 530 72 2400 250/09 RMK AO2 SLP163 T03000244
14840KMKG MKG20010808115511208/08/01 11:55:31  5-MIN KMKG 081655Z 24009KT 6SM HZ CLR 30/24 A3003 530 72 2400 250/09 RMK AO2 SLP163 T03000244
14840KMKG MKG20010808120009508/08/01 12:00:31  5-MIN KMKG 081700Z 26009KT 6SM HZ CLR 31/24 A3002 530 69 2500 260/09 RMK AO2
14840KMKG MKG20010808120509508/08/01 12:05:31  5-MIN KMKG 081705Z 24010KT 6SM HZ CLR 30/24 A3002 530 72 2400 240/10 RMK AO2
14840KMKG MKG20010808121009508/08/01 12:10:31  5-MIN KMKG 081710Z 25010KT 6SM HZ CLR 30/24 A3002 540 69 2400 250/10 RMK AO2
14840KMKG MKG20010808121509508/08/01 12:15:31  5-MIN KMKG 081715Z 25010KT 6SM HZ CLR 29/24 A3002 540 71 2400 250/10 RMK AO2
14840KMKG MKG20010808122009508/08/01 12:20:31  5-MIN KMKG 081720Z 25009KT 6SM HZ CLR 30/24 A3002 540 69 2400 250/09 RMK AO2
14840KMKG MKG20010808122509508/08/01 12:25:31  5-MIN KMKG 081725Z 25008KT 6SM HZ CLR 29/24 A3002 540 71 2400 250/08 RMK AO2
14840KMKG MKG20010808123009508/08/01 12:30:31  5-MIN KMKG 081730Z 25008KT 6SM HZ CLR 30/24 A3002 540 69 2400 260/08 RMK AO2
14840KMKG MKG20010808123509508/08/01 12:35:31  5-MIN KMKG 081735Z 25008KT 6SM HZ CLR 30/24 A3002 540 69 2400 250/08 RMK AO2
14840KMKG MKG20010808124009208/08/01 12:40:31  5-MIN KMKG 081740Z 26008KT 7SM CLR 31/24 A3002 540 67 2500 260/08 RMK AO2
14840KMKG MKG20010808124509208/08/01 12:45:31  5-MIN KMKG 081745Z 25009KT 7SM CLR 31/24 A3002 540 67 2500 260/09 RMK AO2
14840KMKG MKG20010808125012708/08/01 12:50:31  5-MIN KMKG 081750Z 27009KT 7SM CLR 31/24 A3002 540 67 2500 280/09 RMK AO2 SLP159 T03060239 10311 20233 53001
14840KMKG MKG20010808133509208/08/01 13:35:31  5-MIN KMKG 081835Z 26008KT 8SM CLR 31/23 A3001 550 63 2600 260/08 RMK AO2
14840KMKG MKG20010808134009208/08/01 13:40:31  5-MIN KMKG 081840Z 24009KT 8SM CLR 31/23 A3001 550 63 2600 240/09 RMK AO2
14840KMKG MKG20010808134509208/08/01 13:45:31  5-MIN KMKG 081845Z 26008KT 8SM CLR 31/23 A3000 550 63 2600 260/08 RMK AO2
14840KMKG MKG20010808135010908/08/01 13:50:31  5-MIN KMKG 081850Z 24007KT 7SM CLR 31/23 A3000 550 63 2600 240/07 RMK AO2 SLP155 T03110233
14840KMKG MKG20010808135510908/08/01 13:55:31  5-MIN KMKG 081855Z 27009KT 7SM CLR 32/23 A3000 550 61 2600 270/09 RMK AO2 SLP155 T03170233
14840KMKG MKG20010808140009208/08/01 14:00:31  5-MIN KMKG 081900Z 24009KT 7SM CLR 31/23 A3000 550 65 2500 240/09 RMK AO2
14840KMKG MKG20010808140509208/08/01 14:05:31  5-MIN KMKG 081905Z 25009KT 7SM CLR 31/23 A3000 550 63 2600 260/09 RMK AO2
14840KMKG MKG20010808141009208/08/01 14:10:31  5-MIN KMKG 081910Z 24008KT 7SM CLR 31/23 A3000 560 63 2600 250/08 RMK AO2
14840KMKG MKG20010808141509208/08/01 14:15:31  5-MIN KMKG 081915Z 23009KT 7SM CLR 31/23 A3000 560 63 2600 240/09 RMK AO2
14840KMKG MKG20010808142009208/08/01 14:20:31  5-MIN KMKG 081920Z 23009KT 7SM CLR 31/23 A2999 560 63 2600 240/09 RMK AO2
14840KMKG MKG20010808142509208/08/01 14:25:31  5-MIN KMKG 081925Z 23011KT 7SM CLR 32/24 A2999 560 63 2600 240/11 RMK AO2
14840KMKG MKG20010808143009208/08/01 14:30:31  5-MIN KMKG 081930Z 23009KT 7SM CLR 31/24 A2999 570 65 2600 240/09 RMK AO2
14840KMKG MKG20010808143509208/08/01 14:35:31  5-MIN KMKG 081935Z 23011KT 7SM CLR 31/24 A2999 570 65 2600 240/11 RMK AO2
14840KMKG MKG20010808144009208/08/01 14:40:31  5-MIN KMKG 081940Z 23010KT 7SM CLR 31/23 A2999 570 63 2600 230/10 RMK AO2
14840KMKG MKG20010808144509208/08/01 14:45:31  5-MIN KMKG 081945Z 23011KT 7SM CLR 31/23 A2999 570 63 2600 240/11 RMK AO2
14840KMKG MKG20010808145010908/08/01 14:50:31  5-MIN KMKG 081950Z 24010KT 7SM CLR 31/23 A2999 570 65 2500 240/10 RMK AO2 SLP151 T03060233
14840KMKG MKG20010808145510908/08/01 14:55:31  5-MIN KMKG 081955Z 23009KT 7SM CLR 31/23 A2999 570 65 2500 240/09 RMK AO2 SLP150 T03060233
14840KMKG MKG20010808150009208/08/01 15:00:31  5-MIN KMKG 082000Z 24009KT 7SM CLR 31/23 A2998 570 65 2500 250/09 RMK AO2
14840KMKG MKG20010808150509208/08/01 15:05:31  5-MIN KMKG 082005Z 23010KT 8SM CLR 31/23 A2999 570 63 2600 230/10 RMK AO2
14840KMKG MKG20010808151009208/08/01 15:10:31  5-MIN KMKG 082010Z 25009KT 8SM CLR 31/23 A2998 570 65 2500 250/09 RMK AO2
14840KMKG MKG20010808151509208/08/01 15:15:31  5-MIN KMKG 082015Z 24008KT 8SM CLR 31/23 A2998 580 63 2600 240/08 RMK AO2
14840KMKG MKG20010808152009208/08/01 15:20:31  5-MIN KMKG 082020Z 24010KT 8SM CLR 31/23 A2998 580 63 2600 240/10 RMK AO2
14840KMKG MKG20010808152509208/08/01 15:25:31  5-MIN KMKG 082025Z 25008KT 8SM CLR 31/23 A2998 580 65 2500 250/08 RMK AO2
14840KMKG MKG20010808153009208/08/01 15:30:31  5-MIN KMKG 082030Z 23010KT 8SM CLR 31/23 A2997 580 63 2600 240/10 RMK AO2
14840KMKG MKG20010808153509208/08/01 15:35:31  5-MIN KMKG 082035Z 24010KT 9SM CLR 31/23 A2997 580 60 2600 250/10 RMK AO2
14840KMKG MKG20010808154009208/08/01 15:40:31  5-MIN KMKG 082040Z 23010KT 9SM CLR 31/23 A2997 590 62 2500 230/10 RMK AO2
14840KMKG MKG20010808154509208/08/01 15:45:31  5-MIN KMKG 082045Z 23010KT 9SM CLR 31/23 A2996 590 60 2600 240/10 RMK AO2
14840KMKG MKG20010808155011508/08/01 15:50:31  5-MIN KMKG 082050Z 24011KT 9SM CLR 31/23 A2996 590 60 2600 240/11 RMK AO2 SLP141 T03110228 58004
14840KMKG MKG20010808155511508/08/01 15:55:31  5-MIN KMKG 082055Z 25010KT 9SM CLR 31/23 A2996 590 60 2600 250/10 RMK AO2 SLP141 T03110228 58019
14840KMKG MKG20010808160009208/08/01 16:00:31  5-MIN KMKG 082100Z 24010KT 9SM CLR 31/22 A2996 600 58 2600 250/10 RMK AO2
14840KMKG MKG20010808160509308/08/01 16:05:31  5-MIN KMKG 082105Z 25010KT 10SM CLR 31/22 A2996 600 60 2500 250/10 RMK AO2
14840KMKG MKG20010808161009308/08/01 16:10:31  5-MIN KMKG 082110Z 25009KT 10SM CLR 31/22 A2996 600 58 2600 250/09 RMK AO2
14840KMKG MKG20010808161509308/08/01 16:15:31  5-MIN KMKG 082115Z 26008KT 10SM CLR 31/22 A2996 600 58 2600 260/08 RMK AO2
14840KMKG MKG20010808162009308/08/01 16:20:31  5-MIN KMKG 082120Z 23009KT 10SM CLR 31/22 A2995 600 58 2600 240/09 RMK AO2
14840KMKG MKG20010808162509308/08/01 16:25:31  5-MIN KMKG 082125Z 24009KT 10SM CLR 31/22 A2995 600 58 2600 240/09 RMK AO2
14840KMKG MKG20010808163009308/08/01 16:30:31  5-MIN KMKG 082130Z 23010KT 10SM CLR 31/22 A2995 600 58 2600 230/10 RMK AO2
14840KMKG MKG20010808163509308/08/01 16:35:31  5-MIN KMKG 082135Z 23011KT 10SM CLR 31/22 A2995 600 58 2600 230/11 RMK AO2
14840KMKG MKG20010808164009308/08/01 16:40:31  5-MIN KMKG 082140Z 24011KT 10SM CLR 31/22 A2995 600 60 2600 240/11 RMK AO2
14840KMKG MKG20010808164509308/08/01 16:45:31  5-MIN KMKG 082145Z 23011KT 10SM CLR 31/23 A2995 600 62 2600 230/11 RMK AO2
14840KMKG MKG20010808165011008/08/01 16:50:31  5-MIN KMKG 082150Z 23011KT 10SM CLR 31/22 A2996 600 60 2600 230/11 RMK AO2 SLP140 T03060222
14840KMKG MKG20010808165511008/08/01 16:55:31  5-MIN KMKG 082155Z 23009KT 10SM CLR 31/23 A2995 600 62 2600 240/09 RMK AO2 SLP139 T03060228
14840KMKG MKG20010808170009308/08/01 17:00:31  5-MIN KMKG 082200Z 22010KT 10SM CLR 31/23 A2995 600 62 2600 220/10 RMK AO2
14840KMKG MKG20010808170509308/08/01 17:05:31  5-MIN KMKG 082205Z 21010KT 10SM CLR 31/23 A2995 610 62 2600 220/10 RMK AO2
14840KMKG MKG20010808171009308/08/01 17:10:31  5-MIN KMKG 082210Z 22009KT 10SM CLR 31/23 A2995 610 62 2600 230/09 RMK AO2
14840KMKG MKG20010808171509308/08/01 17:15:31  5-MIN KMKG 082215Z 22010KT 10SM CLR 30/23 A2995 610 65 2500 220/10 RMK AO2
14840KMKG MKG20010808172009308/08/01 17:20:31  5-MIN KMKG 082220Z 22012KT 10SM CLR 31/22 A2994 610 60 2600 230/12 RMK AO2
14840KMKG MKG20010808172509308/08/01 17:25:31  5-MIN KMKG 082225Z 22010KT 10SM CLR 31/22 A2995 610 60 2600 230/10 RMK AO2
14840KMKG MKG20010808173009308/08/01 17:30:31  5-MIN KMKG 082230Z 21011KT 10SM CLR 31/23 A2994 610 62 2600 210/11 RMK AO2
14840KMKG MKG20010808173509308/08/01 17:35:31  5-MIN KMKG 082235Z 21011KT 10SM CLR 30/22 A2994 610 62 2500 220/11 RMK AO2
14840KMKG MKG20010808174009308/08/01 17:40:31  5-MIN KMKG 082240Z 21011KT 10SM CLR 30/22 A2994 610 62 2500 220/11 RMK AO2
14840KMKG MKG20010808174509208/08/01 17:45:31  5-MIN KMKG 082245Z 21010KT 9SM CLR 30/23 A2994 610 65 2500 220/10 RMK AO2
14840KMKG MKG20010808175010908/08/01 17:50:31  5-MIN KMKG 082250Z 22010KT 9SM CLR 30/23 A2994 620 65 2500 220/10 RMK AO2 SLP133 T03000228
14840KMKG MKG20010808175510908/08/01 17:55:31  5-MIN KMKG 082255Z 22009KT 9SM CLR 29/23 A2994 620 67 2500 220/09 RMK AO2 SLP133 T02940228
14840KMKG MKG20010808180009208/08/01 18:00:31  5-MIN KMKG 082300Z 22010KT 9SM CLR 29/23 A2994 620 67 2400 230/10 RMK AO2
14840KMKG MKG20010808180509208/08/01 18:05:31  5-MIN KMKG 082305Z 22009KT 9SM CLR 29/23 A2993 620 67 2500 230/09 RMK AO2
14840KMKG MKG20010808181009208/08/01 18:10:31  5-MIN KMKG 082310Z 22009KT 9SM CLR 29/23 A2993 620 67 2500 230/09 RMK AO2
14840KMKG MKG20010808181509208/08/01 18:15:31  5-MIN KMKG 082315Z 22009KT 9SM CLR 29/23 A2993 620 67 2500 220/09 RMK AO2
14840KMKG MKG20010808182009208/08/01 18:20:31  5-MIN KMKG 082320Z 21008KT 9SM CLR 29/23 A2993 620 67 2500 220/08 RMK AO2
14840KMKG MKG20010808182509208/08/01 18:25:31  5-MIN KMKG 082325Z 21009KT 9SM CLR 29/23 A2993 630 67 2500 210/09 RMK AO2
14840KMKG MKG20010808183009208/08/01 18:30:31  5-MIN KMKG 082330Z 21010KT 8SM CLR 29/23 A2992 630 67 2500 210/10 RMK AO2
14840KMKG MKG20010808183509208/08/01 18:35:31  5-MIN KMKG 082335Z 21008KT 8SM CLR 29/23 A2992 630 69 2400 220/08 RMK AO2
14840KMKG MKG20010808184009208/08/01 18:40:31  5-MIN KMKG 082340Z 22007KT 8SM CLR 29/23 A2992 630 69 2400 220/07 RMK AO2
14840KMKG MKG20010808184509208/08/01 18:45:31  5-MIN KMKG 082345Z 21009KT 8SM CLR 29/23 A2993 630 69 2400 220/09 RMK AO2
14840KMKG MKG20010808185012708/08/01 18:50:31  5-MIN KMKG 082350Z 21009KT 8SM CLR 29/23 A2992 630 69 2400 210/09 RMK AO2 SLP129 T02890228 10317 20289 58019
14840KMKG MKG20010808185512708/08/01 18:55:31  5-MIN KMKG 082355Z 21009KT 8SM CLR 28/23 A2992 630 71 2300 210/09 RMK AO2 SLP128 T02830228 10317 20283 58012
14840KMKG MKG20010808190009208/08/01 19:00:31  5-MIN KMKG 090000Z 21009KT 8SM CLR 28/23 A2992 630 71 2300 220/09 RMK AO2
14840KMKG MKG20010808190509208/08/01 19:05:31  5-MIN KMKG 090005Z 21008KT 7SM CLR 28/23 A2992 630 71 2300 210/08 RMK AO2
14840KMKG MKG20010808191009208/08/01 19:10:31  5-MIN KMKG 090010Z 21009KT 7SM CLR 28/23 A2992 630 71 2300 210/09 RMK AO2
14840KMKG MKG20010808191509208/08/01 19:15:31  5-MIN KMKG 090015Z 21009KT 7SM CLR 28/23 A2993 630 71 2300 210/09 RMK AO2
14840KMKG MKG20010808192009208/08/01 19:20:31  5-MIN KMKG 090020Z 20008KT 7SM CLR 28/23 A2993 630 74 2300 200/08 RMK AO2
14840KMKG MKG20010808192509508/08/01 19:25:31  5-MIN KMKG 090025Z 20007KT 6SM HZ CLR 28/23 A2993 630 74 2300 200/07 RMK AO2
14840KMKG MKG20010808193009508/08/01 19:30:31  5-MIN KMKG 090030Z 20009KT 6SM HZ CLR 28/23 A2993 620 74 2300 200/09 RMK AO2
14840KMKG MKG20010808193509508/08/01 19:35:31  5-MIN KMKG 090035Z 20008KT 6SM HZ CLR 28/23 A2993 620 74 2300 200/08 RMK AO2
14840KMKG MKG20010808194009508/08/01 19:40:31  5-MIN KMKG 090040Z 19008KT 6SM HZ CLR 27/23 A2993 620 76 2200 190/08 RMK AO2
14840KMKG MKG20010808194509508/08/01 19:45:31  5-MIN KMKG 090045Z 19009KT 6SM HZ CLR 27/23 A2993 620 76 2200 200/09 RMK AO2
14840KMKG MKG20010808195011208/08/01 19:50:31  5-MIN KMKG 090050Z 19008KT 6SM HZ CLR 27/23 A2993 620 76 2200 200/08 RMK AO2 SLP131 T02720228
14840KMKG MKG20010808195511208/08/01 19:55:31  5-MIN KMKG 090055Z 19007KT 5SM HZ CLR 27/23 A2993 620 76 2200 200/07 RMK AO2 SLP130 T02720228
14840KMKG MKG20010808200009508/08/01 20:00:31  5-MIN KMKG 090100Z 19008KT 5SM HZ CLR 27/23 A2993 620 76 2200 200/08 RMK AO2
14840KMKG MKG20010808200509508/08/01 20:05:31  5-MIN KMKG 090105Z 19008KT 5SM HZ CLR 27/23 A2993 620 76 2200 200/08 RMK AO2
14840KMKG MKG20010808201009508/08/01 20:10:31  5-MIN KMKG 090110Z 20008KT 5SM HZ CLR 27/23 A2992 630 76 2200 200/08 RMK AO2
14840KMKG MKG20010808201509508/08/01 20:15:31  5-MIN KMKG 090115Z 20008KT 5SM HZ CLR 27/22 A2992 630 74 2200 200/08 RMK AO2
14840KMKG MKG20010808202009508/08/01 20:20:31  5-MIN KMKG 090120Z 20009KT 6SM HZ CLR 27/22 A2993 620 74 2200 200/09 RMK AO2
14840KMKG MKG20010808202509208/08/01 20:25:31  5-MIN KMKG 090125Z 20007KT 7SM CLR 27/22 A2993 620 74 2200 210/07 RMK AO2
14840KMKG MKG20010808203009208/08/01 20:30:31  5-MIN KMKG 090130Z 20007KT 7SM CLR 27/22 A2993 620 74 2200 200/07 RMK AO2
14840KMKG MKG20010808203509208/08/01 20:35:31  5-MIN KMKG 090135Z 20007KT 7SM CLR 27/22 A2993 620 74 2200 200/07 RMK AO2
14840KMKG MKG20010808204009208/08/01 20:40:31  5-MIN KMKG 090140Z 20007KT 7SM CLR 27/22 A2993 620 74 2200 200/07 RMK AO2
14840KMKG MKG20010808204509208/08/01 20:45:31  5-MIN KMKG 090145Z 20007KT 7SM CLR 27/22 A2993 620 71 2200 210/07 RMK AO2
14840KMKG MKG20010808205010908/08/01 20:50:31  5-MIN KMKG 090150Z 20007KT 7SM CLR 27/22 A2993 620 74 2200 210/07 RMK AO2 SLP130 T02720222
14840KMKG MKG20010808205510908/08/01 20:55:31  5-MIN KMKG 090155Z 20006KT 7SM CLR 27/22 A2993 620 71 2200 200/06 RMK AO2 SLP130 T02720217
14840KMKG MKG20010808210009208/08/01 21:00:31  5-MIN KMKG 090200Z 20007KT 7SM CLR 27/22 A2993 620 71 2200 200/07 RMK AO2
14840KMKG MKG20010808210509208/08/01 21:05:31  5-MIN KMKG 090205Z 20008KT 7SM CLR 27/22 A2993 620 71 2200 200/08 RMK AO2
14840KMKG MKG20010808211009208/08/01 21:10:31  5-MIN KMKG 090210Z 20007KT 7SM CLR 27/22 A2993 620 71 2200 200/07 RMK AO2
14840KMKG MKG20010808211509208/08/01 21:15:31  5-MIN KMKG 090215Z 20008KT 7SM CLR 27/22 A2993 620 71 2200 200/08 RMK AO2
14840KMKG MKG20010808212009208/08/01 21:20:31  5-MIN KMKG 090220Z 20009KT 7SM CLR 28/21 A2993 620 66 2300 200/09 RMK AO2
14840KMKG MKG20010808212509208/08/01 21:25:31  5-MIN KMKG 090225Z 20009KT 7SM CLR 28/21 A2993 620 66 2300 210/09 RMK AO2
14840KMKG MKG20010808213009208/08/01 21:30:31  5-MIN KMKG 090230Z 20008KT 7SM CLR 27/21 A2993 620 69 2200 210/08 RMK AO2
14840KMKG MKG20010808213509208/08/01 21:35:31  5-MIN KMKG 090235Z 21008KT 7SM CLR 27/21 A2993 620 69 2200 210/08 RMK AO2
14840KMKG MKG20010808214009208/08/01 21:40:31  5-MIN KMKG 090240Z 21008KT 7SM CLR 27/21 A2993 620 69 2200 210/08 RMK AO2
14840KMKG MKG20010808214509208/08/01 21:45:31  5-MIN KMKG 090245Z 21009KT 7SM CLR 27/21 A2993 620 69 2200 210/09 RMK AO2
14840KMKG MKG20010808215011508/08/01 21:50:31  5-MIN KMKG 090250Z 21008KT 7SM CLR 27/22 A2993 620 71 2200 210/08 RMK AO2 SLP129 T02720217 58012
14840KMKG MKG20010808215511508/08/01 21:55:31  5-MIN KMKG 090255Z 21009KT 7SM CLR 27/22 A2993 630 71 2200 220/09 RMK AO2 SLP128 T02720217 50001
14840KMKG MKG20010808220009208/08/01 22:00:31  5-MIN KMKG 090300Z 22009KT 7SM CLR 27/22 A2992 630 71 2200 220/09 RMK AO2
14840KMKG MKG20010808220509208/08/01 22:05:31  5-MIN KMKG 090305Z 21009KT 7SM CLR 27/22 A2992 630 71 2200 220/09 RMK AO2
14840KMKG MKG20010808221009208/08/01 22:10:31  5-MIN KMKG 090310Z 21011KT 7SM CLR 27/22 A2992 630 73 2200 220/11 RMK AO2
14840KMKG MKG20010808221509208/08/01 22:15:31  5-MIN KMKG 090315Z 21009KT 7SM CLR 27/22 A2992 630 76 2200 220/09 RMK AO2
14840KMKG MKG20010808222009208/08/01 22:20:31  5-MIN KMKG 090320Z 22009KT 7SM CLR 27/22 A2992 630 76 2200 220/09 RMK AO2
14840KMKG MKG20010808222509208/08/01 22:25:31  5-MIN KMKG 090325Z 22010KT 7SM CLR 27/22 A2992 630 76 2200 230/10 RMK AO2
14840KMKG MKG20010808223009208/08/01 22:30:31  5-MIN KMKG 090330Z 22011KT 7SM CLR 27/22 A2992 630 76 2200 230/11 RMK AO2
14840KMKG MKG20010808223509208/08/01 22:35:31  5-MIN KMKG 090335Z 22011KT 7SM CLR 27/22 A2992 630 76 2200 220/11 RMK AO2
14840KMKG MKG20010808224009208/08/01 22:40:31  5-MIN KMKG 090340Z 23010KT 7SM CLR 27/22 A2992 630 76 2200 230/10 RMK AO2
14840KMKG MKG20010808224509508/08/01 22:45:31  5-MIN KMKG 090345Z 22011KT 6SM HZ CLR 26/22 A2992 630 79 2100 230/11 RMK AO2
14840KMKG MKG20010808225011208/08/01 22:50:31  5-MIN KMKG 090350Z 23009KT 6SM HZ CLR 26/23 A2992 630 81 2100 230/09 RMK AO2 SLP126 T02610228
14840KMKG MKG20010808225511208/08/01 22:55:31  5-MIN KMKG 090355Z 22010KT 6SM HZ CLR 26/23 A2992 630 81 2100 230/10 RMK AO2 SLP125 T02610228
14840KMKG MKG20010808230009508/08/01 23:00:31  5-MIN KMKG 090400Z 23008KT 6SM HZ CLR 26/23 A2992 630 81 2100 230/08 RMK AO2
14840KMKG MKG20010808230509508/08/01 23:05:31  5-MIN KMKG 090405Z 24008KT 6SM HZ CLR 26/23 A2992 630 81 2100 240/08 RMK AO2
14840KMKG MKG20010808231009508/08/01 23:10:31  5-MIN KMKG 090410Z 24008KT 6SM HZ CLR 26/23 A2992 630 81 2100 240/08 RMK AO2
14840KMKG MKG20010808231509508/08/01 23:15:31  5-MIN KMKG 090415Z 24008KT 6SM HZ CLR 26/23 A2992 630 81 2100 240/08 RMK AO2
14840KMKG MKG20010808232009508/08/01 23:20:31  5-MIN KMKG 090420Z 23010KT 6SM HZ CLR 26/23 A2992 630 81 2100 240/10 RMK AO2
14840KMKG MKG20010808232509208/08/01 23:25:31  5-MIN KMKG 090425Z 24008KT 7SM CLR 26/23 A2991 640 81 2100 240/08 RMK AO2
14840KMKG MKG20010808233009208/08/01 23:30:31  5-MIN KMKG 090430Z 24009KT 7SM CLR 27/22 A2991 640 76 2200 250/09 RMK AO2
14840KMKG MKG20010808233509208/08/01 23:35:31  5-MIN KMKG 090435Z 25009KT 7SM CLR 27/22 A2991 640 76 2200 250/09 RMK AO2
14840KMKG MKG20010808234009208/08/01 23:40:31  5-MIN KMKG 090440Z 25008KT 8SM CLR 27/22 A2991 640 76 2200 250/08 RMK AO2
14840KMKG MKG20010808234509208/08/01 23:45:31  5-MIN KMKG 090445Z 25009KT 8SM CLR 27/22 A2991 640 76 2200 260/09 RMK AO2
14840KMKG MKG20010808235011908/08/01 23:50:31  5-MIN KMKG 090450Z 25008KT 8SM CLR 27/22 A2991 640 76 2200 260/08 RMK AO2 SLP124 T02670222 403170217
14840KMKG MKG20010808235511908/08/01 23:55:31  5-MIN KMKG 090455Z 25008KT 8SM CLR 27/22 A2991 640 76 2200 260/08 RMK AO2 SLP124 T02670222 403170217
14840KMKG MKG20010809000009208/09/01 00:00:31  5-MIN KMKG 090500Z 26008KT 8SM CLR 27/22 A2992 630 73 2200 260/08 RMK AO2
14840KMKG MKG20010809000509208/09/01 00:05:31  5-MIN KMKG 090505Z 25009KT 8SM CLR 27/22 A2992 630 73 2200 250/09 RMK AO2
14840KMKG MKG20010809001009208/09/01 00:10:31  5-MIN KMKG 090510Z 25007KT 8SM CLR 27/22 A2991 640 76 2200 260/07 RMK AO2
14840KMKG MKG20010809001509208/09/01 00:15:31  5-MIN KMKG 090515Z 25007KT 8SM CLR 27/22 A2991 640 76 2200 260/07 RMK AO2
14840KMKG MKG20010809002009208/09/01 00:20:31  5-MIN KMKG 090520Z 25009KT 8SM CLR 27/22 A2992 640 76 2200 260/09 RMK AO2
14840KMKG MKG20010809002509208/09/01 00:25:31  5-MIN KMKG 090525Z 25009KT 7SM CLR 27/22 A2991 640 76 2200 260/09 RMK AO2
14840KMKG MKG20010809003009208/09/01 00:30:31  5-MIN KMKG 090530Z 24009KT 7SM CLR 27/22 A2991 640 76 2200 250/09 RMK AO2
14840KMKG MKG20010809003509208/09/01 00:35:31  5-MIN KMKG 090535Z 24009KT 7SM CLR 26/22 A2991 640 79 2100 240/09 RMK AO2
14840KMKG MKG20010809004009208/09/01 00:40:31  5-MIN KMKG 090540Z 24008KT 7SM CLR 26/22 A2991 640 79 2100 240/08 RMK AO2
14840KMKG MKG20010809004509208/09/01 00:45:31  5-MIN KMKG 090545Z 24008KT 7SM CLR 26/22 A2991 640 79 2100 240/08 RMK AO2
14840KMKG MKG20010809005012708/09/01 00:50:31  5-MIN KMKG 090550Z 23008KT 7SM CLR 26/22 A2991 640 81 2000 240/08 RMK AO2 SLP122 T02560222 10283 20256 50001
14840KMKG MKG20010809005512708/09/01 00:55:31  5-MIN KMKG 090555Z 24008KT 7SM CLR 26/22 A2990 650 81 2100 240/08 RMK AO2 SLP121 T02560222 10283 20256 58007
14840KMKG MKG20010809010009208/09/01 01:00:31  5-MIN KMKG 090600Z 23010KT 7SM CLR 26/22 A2990 650 81 2100 240/10 RMK AO2
14840KMKG MKG20010809010509508/09/01 01:05:31  5-MIN KMKG 090605Z 23009KT 6SM HZ CLR 26/22 A2991 640 81 2000 240/09 RMK AO2
14840KMKG MKG20010809011009508/09/01 01:10:31  5-MIN KMKG 090610Z 23010KT 6SM HZ CLR 26/22 A2991 640 81 2000 230/10 RMK AO2
14840KMKG MKG20010809011509508/09/01 01:15:31  5-MIN KMKG 090615Z 23008KT 6SM HZ CLR 26/22 A2990 650 81 2100 230/08 RMK AO2
14840KMKG MKG20010809012009208/09/01 01:20:31  5-MIN KMKG 090620Z 23010KT 7SM CLR 26/22 A2990 650 81 2100 240/10 RMK AO2
14840KMKG MKG20010809012509208/09/01 01:25:31  5-MIN KMKG 090625Z 23009KT 7SM CLR 26/22 A2991 640 81 2000 230/09 RMK AO2
14840KMKG MKG20010809013009208/09/01 01:30:31  5-MIN KMKG 090630Z 23008KT 7SM CLR 26/22 A2991 640 81 2000 240/08 RMK AO2
14840KMKG MKG20010809013509208/09/01 01:35:31  5-MIN KMKG 090635Z 23008KT 7SM CLR 25/22 A2991 640 84 2000 230/08 RMK AO2
14840KMKG MKG20010809014009208/09/01 01:40:31  5-MIN KMKG 090640Z 23008KT 7SM CLR 26/22 A2991 640 81 2000 240/08 RMK AO2
14840KMKG MKG20010809014509208/09/01 01:45:31  5-MIN KMKG 090645Z 23009KT 7SM CLR 26/22 A2991 640 81 2000 240/09 RMK AO2
14840KMKG MKG20010809015011208/09/01 01:50:31  5-MIN KMKG 090650Z 23009KT 6SM HZ CLR 25/22 A2990 640 84 2000 240/09 RMK AO2 SLP121 T02500222
14840KMKG MKG20010809015511208/09/01 01:55:31  5-MIN KMKG 090655Z 23008KT 6SM HZ CLR 25/22 A2990 650 84 2000 240/08 RMK AO2 SLP121 T02500222
14840KMKG MKG20010809020009508/09/01 02:00:31  5-MIN KMKG 090700Z 23008KT 6SM HZ CLR 26/22 A2990 650 81 2100 230/08 RMK AO2
14840KMKG MKG20010809020509508/09/01 02:05:31  5-MIN KMKG 090705Z 23008KT 5SM HZ CLR 25/22 A2990 650 84 2000 230/08 RMK AO2
14840KMKG MKG20010809021009508/09/01 02:10:31  5-MIN KMKG 090710Z 23008KT 5SM BR CLR 25/23 A2991 640 87 2000 240/08 RMK AO2
14840KMKG MKG20010809021509508/09/01 02:15:31  5-MIN KMKG 090715Z 23008KT 5SM BR CLR 25/23 A2991 640 87 2000 230/08 RMK AO2
14840KMKG MKG20010809022009508/09/01 02:20:31  5-MIN KMKG 090720Z 23008KT 5SM BR CLR 25/23 A2991 640 87 2000 240/08 RMK AO2
14840KMKG MKG20010809022509508/09/01 02:25:31  5-MIN KMKG 090725Z 23008KT 5SM BR CLR 25/23 A2991 640 87 2000 240/08 RMK AO2
14840KMKG MKG20010809023009508/09/01 02:30:31  5-MIN KMKG 090730Z 23010KT 5SM BR CLR 25/23 A2991 640 87 2000 230/10 RMK AO2
14840KMKG MKG20010809023509508/09/01 02:35:31  5-MIN KMKG 090735Z 23009KT 5SM BR CLR 25/23 A2991 640 87 2000 240/09 RMK AO2
14840KMKG MKG20010809024009508/09/01 02:40:31  5-MIN KMKG 090740Z 23009KT 5SM BR CLR 25/23 A2991 640 87 2000 240/09 RMK AO2
14840KMKG MKG20010809024509508/09/01 02:45:31  5-MIN KMKG 090745Z 24009KT 5SM HZ CLR 26/23 A2992 640 84 2000 240/09 RMK AO2
14840KMKG MKG20010809025011208/09/01 02:50:31  5-MIN KMKG 090750Z 24009KT 4SM HZ CLR 26/23 A2991 640 84 2000 240/09 RMK AO2 SLP125 T02560228
14840KMKG MKG20010809025511208/09/01 02:55:31  5-MIN KMKG 090755Z 24009KT 4SM HZ CLR 26/23 A2992 630 84 2000 240/09 RMK AO2 SLP126 T02560228
14840KMKG MKG20010809030009508/09/01 03:00:31  5-MIN KMKG 090800Z 24007KT 4SM HZ CLR 26/23 A2992 630 84 2000 250/07 RMK AO2
14840KMKG MKG20010809030509508/09/01 03:05:31  5-MIN KMKG 090805Z 24008KT 4SM HZ CLR 26/23 A2992 630 84 2000 250/08 RMK AO2
14840KMKG MKG20010809031009508/09/01 03:10:31  5-MIN KMKG 090810Z 24008KT 4SM HZ CLR 26/23 A2992 630 84 2000 250/08 RMK AO2
14840KMKG MKG20010809031509508/09/01 03:15:31  5-MIN KMKG 090815Z 25008KT 4SM HZ CLR 26/23 A2992 630 84 2000 250/08 RMK AO2
14840KMKG MKG20010809032009508/09/01 03:20:31  5-MIN KMKG 090820Z 26008KT 4SM HZ CLR 26/23 A2992 630 84 2000 260/08 RMK AO2
14840KMKG MKG20010809032509508/09/01 03:25:31  5-MIN KMKG 090825Z 25007KT 4SM HZ CLR 26/23 A2992 630 84 2000 260/07 RMK AO2
14840KMKG MKG20010809033009508/09/01 03:30:31  5-MIN KMKG 090830Z 26007KT 4SM HZ CLR 26/23 A2992 630 84 2000 260/07 RMK AO2
14840KMKG MKG20010809033509508/09/01 03:35:31  5-MIN KMKG 090835Z 26007KT 4SM HZ CLR 26/23 A2992 630 84 2000 270/07 RMK AO2
14840KMKG MKG20010809034009508/09/01 03:40:31  5-MIN KMKG 090840Z 25007KT 4SM HZ CLR 26/23 A2992 630 84 2000 260/07 RMK AO2
14840KMKG MKG20010809034509508/09/01 03:45:31  5-MIN KMKG 090845Z 26007KT 4SM HZ CLR 26/23 A2993 620 84 2000 260/07 RMK AO2
14840KMKG MKG20010809035011808/09/01 03:50:31  5-MIN KMKG 090850Z 25007KT 4SM HZ CLR 26/23 A2993 630 84 2000 260/07 RMK AO2 SLP128 T02560228 58007
14840KMKG MKG20010809035511808/09/01 03:55:31  5-MIN KMKG 090855Z 25007KT 4SM HZ CLR 26/23 A2993 630 84 2000 250/07 RMK AO2 SLP128 T02560228 53007
14840KMKG MKG20010809040009508/09/01 04:00:31  5-MIN KMKG 090900Z 24007KT 4SM HZ CLR 26/23 A2993 620 84 2000 250/07 RMK AO2
14840KMKG MKG20010809040509508/09/01 04:05:31  5-MIN KMKG 090905Z 24008KT 4SM HZ CLR 26/23 A2993 620 84 2000 240/08 RMK AO2
14840KMKG MKG20010809041009508/09/01 04:10:31  5-MIN KMKG 090910Z 23007KT 4SM BR CLR 25/23 A2993 620 87 2000 230/07 RMK AO2
14840KMKG MKG20010809041509508/09/01 04:15:31  5-MIN KMKG 090915Z 23007KT 3SM BR CLR 25/23 A2993 630 87 2000 230/07 RMK AO2
14840KMKG MKG20010809042009508/09/01 04:20:31  5-MIN KMKG 090920Z 22006KT 3SM BR CLR 24/23 A2992 630 90 1900 220/06 RMK AO2
14840KMKG MKG20010809042509508/09/01 04:25:31  5-MIN KMKG 090925Z 21006KT 3SM BR CLR 24/23 A2992 630 90 1900 220/06 RMK AO2
14840KMKG MKG20010809043009508/09/01 04:30:31  5-MIN KMKG 090930Z 22006KT 3SM BR CLR 24/23 A2992 630 93 1900 230/06 RMK AO2
14840KMKG MKG20010809043509508/09/01 04:35:31  5-MIN KMKG 090935Z 23005KT 3SM BR CLR 24/23 A2992 630 93 1900 230/05 RMK AO2
14840KMKG MKG20010809044009508/09/01 04:40:31  5-MIN KMKG 090940Z 22006KT 3SM BR CLR 24/23 A2991 640 90 1900 230/06 RMK AO2
14840KMKG MKG20010809044509508/09/01 04:45:31  5-MIN KMKG 090945Z 23007KT 3SM BR CLR 24/23 A2991 640 93 1900 230/07 RMK AO2
14840KMKG MKG20010809045011208/09/01 04:50:31  5-MIN KMKG 090950Z 23007KT 3SM BR CLR 24/23 A2991 640 90 1900 230/07 RMK AO2 SLP122 T02440228
14840KMKG MKG20010809045511208/09/01 04:55:31  5-MIN KMKG 090955Z 23007KT 3SM BR CLR 24/23 A2991 640 90 1900 240/07 RMK AO2 SLP123 T02440228
14840KMKG MKG20010809050009508/09/01 05:00:31  5-MIN KMKG 091000Z 23008KT 3SM BR CLR 25/23 A2991 640 87 2000 240/08 RMK AO2
14840KMKG MKG20010809050509508/09/01 05:05:31  5-MIN KMKG 091005Z 23007KT 3SM BR CLR 24/23 A2991 640 90 1900 230/07 RMK AO2
14840KMKG MKG20010809051009508/09/01 05:10:31  5-MIN KMKG 091010Z 23007KT 3SM BR CLR 24/23 A2990 650 93 1900 230/07 RMK AO2
14840KMKG MKG20010809051509508/09/01 05:15:31  5-MIN KMKG 091015Z 23007KT 3SM BR CLR 24/23 A2990 650 93 1900 230/07 RMK AO2
14840KMKG MKG20010809052009908/09/01 05:20:31  5-MIN KMKG 091020Z 23007KT 2 1/2SM BR CLR 24/23 A2990 650 93 1900 230/07 RMK AO2
14840KMKG MKG20010809052509908/09/01 05:25:31  5-MIN KMKG 091025Z 23007KT 2 1/2SM BR CLR 24/23 A2989 650 93 1900 230/07 RMK AO2
14840KMKG MKG20010809053009908/09/01 05:30:31  5-MIN KMKG 091030Z 22008KT 2 1/2SM BR CLR 24/23 A2989 660 93 1900 230/08 RMK AO2
14840KMKG MKG20010809053509508/09/01 05:35:31  5-MIN KMKG 091035Z 23010KT 3SM BR CLR 25/23 A2989 660 90 2000 230/10 RMK AO2
14840KMKG MKG20010809054010908/09/01 05:40:31  5-MIN KMKG 091040Z 24009KT 2 1/2SM BR CLR 25/23 A2989 660 87 2000 240/09 RMK AO2 SFC VIS 3
14840KMKG MKG20010809054509908/09/01 05:45:31  5-MIN KMKG 091045Z 23009KT 2 1/2SM BR CLR 25/23 A2989 660 87 2000 240/09 RMK AO2
14840KMKG MKG20010809055012608/09/01 05:50:31  5-MIN KMKG 091050Z 23008KT 2SM BR CLR 25/23 A2989 660 87 2000 240/08 RMK AO2 TWR VIS 2 1/2 SLP117 T02500228
14840KMKG MKG20010809055513008/09/01 05:55:31  5-MIN KMKG 091055Z 23007KT 1 3/4SM BR CLR 25/23 A2990 650 87 2000 240/07 RMK AO2 TWR VIS 2 1/2 SLP118 T02500228
14840KMKG MKG20010809060009908/09/01 06:00:31  5-MIN KMKG 091100Z 23007KT 1 3/4SM BR CLR 25/23 A2990 650 87 2000 240/07 RMK AO2
14840KMKG MKG20010809060509908/09/01 06:05:31  5-MIN KMKG 091105Z 23008KT 1 3/4SM BR CLR 25/23 A2990 650 90 2000 230/08 RMK AO2
14840KMKG MKG20010809061009908/09/01 06:10:31  5-MIN KMKG 091110Z 23008KT 1 3/4SM BR CLR 25/23 A2990 650 90 2000 240/08 RMK AO2
14840KMKG MKG20010809061509908/09/01 06:15:31  5-MIN KMKG 091115Z 23008KT 1 3/4SM BR CLR 25/23 A2990 650 90 2000 240/08 RMK AO2
14840KMKG MKG20010809062009908/09/01 06:20:31  5-MIN KMKG 091120Z 23008KT 1 3/4SM BR CLR 25/23 A2990 650 90 2000 230/08 RMK AO2
14840KMKG MKG20010809062509908/09/01 06:25:31  5-MIN KMKG 091125Z 23009KT 1 3/4SM BR CLR 25/23 A2990 650 90 2000 230/09 RMK AO2
14840KMKG MKG20010809063009908/09/01 06:30:31  5-MIN KMKG 091130Z 23008KT 1 3/4SM BR CLR 25/23 A2990 650 90 2000 230/08 RMK AO2
14840KMKG MKG20010809063509908/09/01 06:35:31  5-MIN KMKG 091135Z 23007KT 1 3/4SM BR CLR 25/23 A2990 650 90 2000 240/07 RMK AO2
14840KMKG MKG20010809064009908/09/01 06:40:31  5-MIN KMKG 091140Z 23007KT 1 3/4SM BR CLR 26/23 A2991 640 87 2000 240/07 RMK AO2
14840KMKG MKG20010809064509908/09/01 06:45:31  5-MIN KMKG 091145Z 23008KT 1 3/4SM BR CLR 26/23 A2991 640 87 2000 230/08 RMK AO2
14840KMKG MKG20010809065013408/09/01 06:50:31  5-MIN KMKG 091150Z 23008KT 1 3/4SM BR CLR 26/23 A2991 640 87 2000 230/08 RMK AO2 SLP123 T02560233 10256 20244 53007
14840KMKG MKG20010809065513408/09/01 06:55:31  5-MIN KMKG 091155Z 23008KT 1 3/4SM BR CLR 26/23 A2991 640 87 2000 230/08 RMK AO2 SLP123 T02560233 10256 20244 55005
14840KMKG MKG20010809070009908/09/01 07:00:31  5-MIN KMKG 091200Z 23009KT 1 3/4SM BR CLR 26/23 A2991 640 87 2000 230/09 RMK AO2
14840KMKG MKG20010809070509908/09/01 07:05:31  5-MIN KMKG 091205Z 23008KT 1 3/4SM BR CLR 26/23 A2991 640 87 2100 230/08 RMK AO2
14840KMKG MKG20010809071009908/09/01 07:10:31  5-MIN KMKG 091210Z 23008KT 1 3/4SM HZ CLR 26/23 A2991 640 84 2100 230/08 RMK AO2
14840KMKG MKG20010809071509908/09/01 07:15:31  5-MIN KMKG 091215Z 23009KT 1 3/4SM HZ CLR 26/23 A2990 650 84 2100 230/09 RMK AO2
14840KMKG MKG20010809072009508/09/01 07:20:31  5-MIN KMKG 091220Z 22011KT 2SM HZ CLR 26/23 A2990 650 84 2100 220/11 RMK AO2
14840KMKG MKG20010809072509508/09/01 07:25:31  5-MIN KMKG 091225Z 23009KT 2SM BR CLR 26/24 A2990 650 87 2100 230/09 RMK AO2
14840KMKG MKG20010809073009508/09/01 07:30:31  5-MIN KMKG 091230Z 24009KT 2SM HZ CLR 26/23 A2990 650 84 2100 240/09 RMK AO2
14840KMKG MKG20010809073509508/09/01 07:35:31  5-MIN KMKG 091235Z 23010KT 2SM HZ CLR 26/23 A2990 650 84 2100 230/10 RMK AO2
14840KMKG MKG20010809074009508/09/01 07:40:31  5-MIN KMKG 091240Z 23011KT 2SM HZ CLR 27/23 A2990 650 82 2200 230/11 RMK AO2
14840KMKG MKG20010809074509508/09/01 07:45:31  5-MIN KMKG 091245Z 22009KT 2SM HZ CLR 27/23 A2990 650 82 2200 220/09 RMK AO2
14840KMKG MKG20010809075011608/09/01 07:50:31  5-MIN KMKG 091250Z 22009KT 1 1/4SM HZ CLR 27/23 A2990 650 82 2200 220/09 RMK AO2 SLP118 T02670233
14840KMKG MKG20010809075511208/09/01 07:55:31  5-MIN KMKG 091255Z 22012KT 2SM HZ CLR 27/23 A2989 650 82 2200 220/12 RMK AO2 SLP118 T02670233
14840KMKG MKG20010809080009508/09/01 08:00:31  5-MIN KMKG 091300Z 23011KT 2SM HZ CLR 27/23 A2989 660 79 2300 230/11 RMK AO2
14840KMKG MKG20010809080509908/09/01 08:05:31  5-MIN KMKG 091305Z 22012KT 2 1/2SM HZ CLR 27/23 A2989 660 79 2300 230/12 RMK AO2
14840KMKG MKG20010809081009908/09/01 08:10:31  5-MIN KMKG 091310Z 23012KT 2 1/2SM HZ CLR 27/23 A2988 660 79 2300 230/12 RMK AO2
14840KMKG MKG20010809081509908/09/01 08:15:31  5-MIN KMKG 091315Z 23013KT 2 1/2SM HZ CLR 27/23 A2988 660 79 2300 230/13 RMK AO2
14840KMKG MKG20010809082009908/09/01 08:20:31  5-MIN KMKG 091320Z 23010KT 2 1/2SM HZ CLR 27/23 A2988 660 79 2300 240/10 RMK AO2
14840KMKG MKG20010809082509908/09/01 08:25:31  5-MIN KMKG 091325Z 24010KT 2 1/2SM HZ CLR 28/23 A2988 660 76 2300 240/10 RMK AO2
14840KMKG MKG20010809083009908/09/01 08:30:31  5-MIN KMKG 091330Z 24010KT 2 1/2SM HZ CLR 28/23 A2989 660 76 2300 240/10 RMK AO2
14840KMKG MKG20010809083509908/09/01 08:35:31  5-MIN KMKG 091335Z 23011KT 2 1/2SM HZ CLR 28/23 A2988 660 76 2300 240/11 RMK AO2
14840KMKG MKG20010809084009908/09/01 08:40:31  5-MIN KMKG 091340Z 24011KT 2 1/2SM HZ CLR 28/23 A2988 660 76 2300 240/11 RMK AO2
14840KMKG MKG20010809084509508/09/01 08:45:31  5-MIN KMKG 091345Z 24011KT 3SM HZ CLR 28/23 A2989 660 76 2300 250/11 RMK AO2
14840KMKG MKG20010809085011208/09/01 08:50:31  5-MIN KMKG 091350Z 24011KT 3SM HZ CLR 28/23 A2989 660 76 2300 250/11 RMK AO2 SLP115 T02780233
14840KMKG MKG20010809085511208/09/01 08:55:31  5-MIN KMKG 091355Z 24011KT 3SM HZ CLR 28/23 A2988 660 76 2300 250/11 RMK AO2 SLP114 T02780233
14840KMKG MKG20010809090009508/09/01 09:00:31  5-MIN KMKG 091400Z 23012KT 3SM HZ CLR 28/23 A2988 670 74 2400 230/12 RMK AO2
14840KMKG MKG20010809090509508/09/01 09:05:31  5-MIN KMKG 091405Z 22012KT 3SM HZ CLR 28/23 A2988 670 76 2300 230/12 RMK AO2
14840KMKG MKG20010809091009508/09/01 09:10:31  5-MIN KMKG 091410Z 23013KT 3SM HZ CLR 28/23 A2987 680 74 2400 230/13 RMK AO2
14840KMKG MKG20010809091509508/09/01 09:15:31  5-MIN KMKG 091415Z 23014KT 3SM HZ CLR 28/23 A2987 680 74 2400 230/14 RMK AO2
14840KMKG MKG20010809092009508/09/01 09:20:31  5-MIN KMKG 091420Z 23013KT 3SM HZ CLR 29/23 A2987 670 71 2500 230/13 RMK AO2
14840KMKG MKG20010809092509508/09/01 09:25:31  5-MIN KMKG 091425Z 23013KT 3SM HZ CLR 28/23 A2988 670 74 2400 230/13 RMK AO2
14840KMKG MKG20010809093009508/09/01 09:30:31  5-MIN KMKG 091430Z 23013KT 3SM HZ CLR 28/23 A2988 670 74 2400 230/13 RMK AO2
14840KMKG MKG20010809093509508/09/01 09:35:31  5-MIN KMKG 091435Z 23014KT 3SM HZ CLR 28/23 A2987 670 74 2400 230/14 RMK AO2
14840KMKG MKG20010809094009508/09/01 09:40:31  5-MIN KMKG 091440Z 22013KT 3SM HZ CLR 28/23 A2987 680 74 2400 220/13 RMK AO2
14840KMKG MKG20010809094509508/09/01 09:45:31  5-MIN KMKG 091445Z 22013KT 3SM HZ CLR 29/23 A2987 680 71 2500 230/13 RMK AO2
14840KMKG MKG20010809095011808/09/01 09:50:31  5-MIN KMKG 091450Z 22013KT 3SM HZ CLR 29/23 A2986 680 71 2500 230/13 RMK AO2 SLP107 T02890233 55005
14840KMKG MKG20010809095511808/09/01 09:55:31  5-MIN KMKG 091455Z 22015KT 3SM HZ CLR 28/23 A2986 690 74 2400 230/15 RMK AO2 SLP106 T02830233 58016
14840KMKG MKG20010809100009508/09/01 10:00:31  5-MIN KMKG 091500Z 22014KT 3SM HZ CLR 29/23 A2986 680 71 2500 220/14 RMK AO2
14840KMKG MKG20010809100509508/09/01 10:05:31  5-MIN KMKG 091505Z 23012KT 4SM HZ CLR 29/23 A2986 680 69 2500 240/12 RMK AO2
14840KMKG MKG20010809101009508/09/01 10:10:31  5-MIN KMKG 091510Z 23014KT 4SM HZ CLR 29/23 A2986 680 71 2500 230/14 RMK AO2
14840KMKG MKG20010809101510108/09/01 10:15:31  5-MIN KMKG 091515Z 23015G19KT 4SM HZ CLR 29/23 A2986 680 71 2500 230/15G19 RMK AO2
14840KMKG MKG20010809102010108/09/01 10:20:31  5-MIN KMKG 091520Z 24014G19KT 4SM HZ CLR 29/23 A2986 680 69 2500 240/14G19 RMK AO2
14840KMKG MKG20010809102509508/09/01 10:25:31  5-MIN KMKG 091525Z 22016KT 4SM HZ CLR 29/23 A2986 680 71 2500 220/16 RMK AO2
14840KMKG MKG20010809103009508/09/01 10:30:31  5-MIN KMKG 091530Z 22016KT 4SM HZ CLR 29/23 A2987 680 71 2500 230/16 RMK AO2
14840KMKG MKG20010809103509508/09/01 10:35:31  5-MIN KMKG 091535Z 22015KT 4SM HZ CLR 29/23 A2987 680 69 2500 230/15 RMK AO2
14840KMKG MKG20010809104009508/09/01 10:40:31  5-MIN KMKG 091540Z 22015KT 4SM HZ CLR 29/23 A2986 680 69 2500 230/15 RMK AO2
14840KMKG MKG20010809104509508/09/01 10:45:31  5-MIN KMKG 091545Z 22014KT 4SM HZ CLR 29/23 A2986 680 69 2500 230/14 RMK AO2
14840KMKG MKG20010809105011208/09/01 10:50:31  5-MIN KMKG 091550Z 23014KT 4SM HZ CLR 29/23 A2987 680 69 2500 230/14 RMK AO2 SLP108 T02940233
14840KMKG MKG20010809105511208/09/01 10:55:31  5-MIN KMKG 091555Z 23014KT 4SM HZ CLR 29/23 A2987 680 69 2500 230/14 RMK AO2 SLP108 T02940233
14840KMKG MKG20010809110009808/09/01 11:00:31  5-MIN KMKG 091600Z 21014KT 4SM HZ FEW080 29/23 A2987 680 69 2500 220/14 RMK AO2
14840KMKG MKG20010809110510408/09/01 11:05:31  5-MIN KMKG 091605Z 22015G21KT 4SM HZ FEW080 29/23 A2987 680 71 2500 220/15G21 RMK AO2
14840KMKG MKG20010809111010108/09/01 11:10:31  5-MIN KMKG 091610Z 21015G21KT 4SM HZ CLR 29/24 A2987 680 71 2500 210/15G21 RMK AO2
14840KMKG MKG20010809111509808/09/01 11:15:31  5-MIN KMKG 091615Z 21017KT 4SM HZ FEW080 29/23 A2987 680 71 2500 210/17 RMK AO2
14840KMKG MKG20010809112009808/09/01 11:20:31  5-MIN KMKG 091620Z 21014KT 4SM HZ FEW080 29/23 A2987 680 71 2500 220/14 RMK AO2
14840KMKG MKG20010809112509508/09/01 11:25:31  5-MIN KMKG 091625Z 22014KT 4SM HZ CLR 29/24 A2986 680 71 2500 230/14 RMK AO2
14840KMKG MKG20010809113009508/09/01 11:30:31  5-MIN KMKG 091630Z 20016KT 4SM HZ CLR 29/23 A2986 680 69 2500 210/16 RMK AO2
14840KMKG MKG20010809113509508/09/01 11:35:31  5-MIN KMKG 091635Z 20015KT 4SM HZ CLR 29/23 A2986 690 69 2500 210/15 RMK AO2
14840KMKG MKG20010809114009508/09/01 11:40:31  5-MIN KMKG 091640Z 21015KT 4SM HZ CLR 30/23 A2986 690 67 2600 220/15 RMK AO2
14840KMKG MKG20010809114509508/09/01 11:45:31  5-MIN KMKG 091645Z 21014KT 4SM HZ CLR 30/23 A2986 690 67 2600 220/14 RMK AO2
14840KMKG MKG20010809115011208/09/01 11:50:31  5-MIN KMKG 091650Z 22015KT 3SM HZ CLR 29/23 A2986 690 69 2500 220/15 RMK AO2 SLP105 T02940233
14840KMKG MKG20010809115511208/09/01 11:55:31  5-MIN KMKG 091655Z 21014KT 4SM HZ CLR 30/23 A2986 690 67 2600 220/14 RMK AO2 SLP105 T03000233
14840KMKG MKG20010809120009508/09/01 12:00:31  5-MIN KMKG 091700Z 22015KT 4SM HZ CLR 30/23 A2985 690 67 2600 220/15 RMK AO2
14840KMKG MKG20010809120509508/09/01 12:05:31  5-MIN KMKG 091705Z 21014KT 4SM HZ CLR 30/23 A2985 690 67 2600 210/14 RMK AO2
14840KMKG MKG20010809121009508/09/01 12:10:31  5-MIN KMKG 091710Z 22015KT 4SM HZ CLR 30/23 A2985 700 67 2600 220/15 RMK AO2
14840KMKG MKG20010809121510108/09/01 12:15:31  5-MIN KMKG 091715Z 22014G20KT 4SM HZ CLR 29/23 A2985 700 69 2600 220/14G20 RMK AO2
14840KMKG MKG20010809122010108/09/01 12:20:31  5-MIN KMKG 091720Z 21015G20KT 4SM HZ CLR 30/23 A2985 700 67 2600 220/15G20 RMK AO2
14840KMKG MKG20010809122510108/09/01 12:25:31  5-MIN KMKG 091725Z 22016G21KT 4SM HZ CLR 30/23 A2984 700 67 2600 220/16G21 RMK AO2
14840KMKG MKG20010809123010108/09/01 12:30:31  5-MIN KMKG 091730Z 22013G21KT 4SM HZ CLR 30/23 A2984 700 67 2600 220/13G21 RMK AO2
14840KMKG MKG20010809123509508/09/01 12:35:31  5-MIN KMKG 091735Z 21015KT 4SM HZ CLR 30/23 A2984 710 67 2600 210/15 RMK AO2
14840KMKG MKG20010809124009508/09/01 12:40:31  5-MIN KMKG 091740Z 21015KT 4SM HZ CLR 30/23 A2983 710 67 2600 210/15 RMK AO2
14840KMKG MKG20010809124510108/09/01 12:45:31  5-MIN KMKG 091745Z 20016G22KT 4SM HZ CLR 31/23 A2983 710 65 2700 210/16G22 RMK AO2
14840KMKG MKG20010809125013608/09/01 12:50:31  5-MIN KMKG 091750Z 21016G22KT 4SM HZ CLR 30/23 A2983 720 67 2600 210/16G22 RMK AO2 SLP094 T03000233 10306 20256 58016
14840KMKG MKG20010809125513008/09/01 12:55:31  5-MIN KMKG 091755Z 21015KT 4SM HZ CLR 31/23 A2983 720 65 2700 210/15 RMK AO2 SLP095 T03060233 10306 20256 58011
14840KMKG MKG20010809130009508/09/01 13:00:31  5-MIN KMKG 091800Z 21015KT 4SM HZ CLR 31/23 A2982 720 65 2700 210/15 RMK AO2
14840KMKG MKG20010809130510108/09/01 13:05:31  5-MIN KMKG 091805Z 21017G23KT 4SM HZ CLR 30/23 A2982 720 67 2600 210/17G23 RMK AO2
14840KMKG MKG20010809131010108/09/01 13:10:31  5-MIN KMKG 091810Z 21018G23KT 4SM HZ CLR 31/23 A2982 720 65 2700 210/18G23 RMK AO2
14840KMKG MKG20010809131510108/09/01 13:15:31  5-MIN KMKG 091815Z 22015G21KT 4SM HZ CLR 31/23 A2982 720 65 2700 220/15G21 RMK AO2
14840KMKG MKG20010809132010108/09/01 13:20:31  5-MIN KMKG 091820Z 20014G19KT 4SM HZ CLR 30/23 A2982 730 67 2600 210/14G19 RMK AO2
14840KMKG MKG20010809132510108/09/01 13:25:31  5-MIN KMKG 091825Z 21017G21KT 4SM HZ CLR 30/23 A2981 730 67 2700 210/17G21 RMK AO2
14840KMKG MKG20010809133010108/09/01 13:30:31  5-MIN KMKG 091830Z 21015G23KT 4SM HZ CLR 31/23 A2981 730 65 2700 210/15G23 RMK AO2
14840KMKG MKG20010809133510108/09/01 13:35:31  5-MIN KMKG 091835Z 21019G23KT 4SM HZ CLR 31/23 A2981 730 63 2800 210/19G23 RMK AO2
14840KMKG MKG20010809134010108/09/01 13:40:31  5-MIN KMKG 091840Z 21016G23KT 4SM HZ CLR 31/23 A2981 740 63 2800 210/16G23 RMK AO2
14840KMKG MKG20010809134510108/09/01 13:45:31  5-MIN KMKG 091845Z 20014G20KT 4SM HZ CLR 31/23 A2981 740 65 2700 210/14G20 RMK AO2
14840KMKG MKG20010809135011808/09/01 13:50:31  5-MIN KMKG 091850Z 21018G22KT 4SM HZ CLR 31/23 A2980 740 63 2800 210/18G22 RMK AO2 SLP087 T03110233
14840KMKG MKG20010809135511808/09/01 13:55:31  5-MIN KMKG 091855Z 21014G22KT 4SM HZ CLR 31/23 A2980 740 63 2800 220/14G22 RMK AO2 SLP086 T03110233
14840KMKG MKG20010809140009508/09/01 14:00:31  5-MIN KMKG 091900Z 21016KT 4SM HZ CLR 31/23 A2980 740 63 2800 210/16 RMK AO2
14840KMKG MKG20010809140510108/09/01 14:05:31  5-MIN KMKG 091905Z 21017G24KT 4SM HZ CLR 31/23 A2980 740 63 2800 210/17G24 RMK AO2
14840KMKG MKG20010809141010108/09/01 14:10:31  5-MIN KMKG 091910Z 21018G24KT 4SM HZ CLR 31/23 A2980 740 63 2800 220/18G24 RMK AO2
14840KMKG MKG20010809141510108/09/01 14:15:31  5-MIN KMKG 091915Z 21014G23KT 4SM HZ CLR 31/23 A2979 750 63 2800 210/14G23 RMK AO2
14840KMKG MKG20010809142010108/09/01 14:20:31  5-MIN KMKG 091920Z 20017G24KT 4SM HZ CLR 31/23 A2979 750 63 2800 200/17G24 RMK AO2
14840KMKG MKG20010809142510108/09/01 14:25:31  5-MIN KMKG 091925Z 20019G24KT 4SM HZ CLR 31/23 A2979 760 63 2800 200/19G24 RMK AO2
14840KMKG MKG20010809143010108/09/01 14:30:31  5-MIN KMKG 091930Z 21020G24KT 4SM HZ CLR 31/23 A2978 760 62 2700 210/20G24 RMK AO2
14840KMKG MKG20010809143511908/09/01 14:35:31  5-MIN KMKG 091935Z 21019G27KT 4SM HZ CLR 31/23 A2978 760 62 2700 210/19G27 RMK AO2 PK WND 20027/1932
14840KMKG MKG20010809144011908/09/01 14:40:31  5-MIN KMKG 091940Z 21020G27KT 4SM HZ CLR 31/23 A2978 760 60 2800 210/20G27 RMK AO2 PK WND 20027/1932
14840KMKG MKG20010809144511908/09/01 14:45:31  5-MIN KMKG 091945Z 21020G25KT 4SM HZ CLR 31/23 A2977 770 62 2800 210/20G25 RMK AO2 PK WND 20027/1932
14840KMKG MKG20010809145013608/09/01 14:50:31  5-MIN KMKG 091950Z 20018G25KT 4SM HZ CLR 31/23 A2977 770 60 2800 210/18G25 RMK AO2 PK WND 20027/1932 SLP076 T03110228
14840KMKG MKG20010809145513608/09/01 14:55:31  5-MIN KMKG 091955Z 21018G26KT 4SM HZ CLR 31/23 A2977 770 60 2800 210/18G26 RMK AO2 PK WND 20027/1932 SLP076 T03110228
14840KMKG MKG20010809150010108/09/01 15:00:31  5-MIN KMKG 092000Z 20019G26KT 4SM HZ CLR 31/23 A2977 770 60 2800 200/19G26 RMK AO2
14840KMKG MKG20010809150510108/09/01 15:05:31  5-MIN KMKG 092005Z 20015G25KT 4SM HZ CLR 31/23 A2978 760 62 2800 210/15G25 RMK AO2
14840KMKG MKG20010809151010108/09/01 15:10:31  5-MIN KMKG 092010Z 20018G25KT 4SM HZ CLR 31/23 A2978 760 63 2800 200/18G25 RMK AO2
14840KMKG MKG20010809151510108/09/01 15:15:31  5-MIN KMKG 092015Z 21014G22KT 4SM HZ CLR 31/23 A2978 760 63 2800 210/14G22 RMK AO2
14840KMKG MKG20010809152010108/09/01 15:20:31  5-MIN KMKG 092020Z 21015G21KT 4SM HZ CLR 32/23 A2978 760 61 2900 220/15G21 RMK AO2
14840KMKG MKG20010809152510108/09/01 15:25:31  5-MIN KMKG 092025Z 21014G21KT 4SM HZ CLR 31/23 A2978 760 63 2800 210/14G21 RMK AO2
14840KMKG MKG20010809153010108/09/01 15:30:31  5-MIN KMKG 092030Z 20016G22KT 4SM HZ CLR 31/23 A2978 760 63 2800 200/16G22 RMK AO2
14840KMKG MKG20010809153510108/09/01 15:35:31  5-MIN KMKG 092035Z 20019G22KT 4SM HZ CLR 31/23 A2978 760 63 2800 200/19G22 RMK AO2
14840KMKG MKG20010809154010108/09/01 15:40:31  5-MIN KMKG 092040Z 21014G20KT 4SM HZ CLR 31/23 A2977 770 63 2800 210/14G20 RMK AO2
14840KMKG MKG20010809154510108/09/01 15:45:31  5-MIN KMKG 092045Z 20016G22KT 4SM HZ CLR 31/23 A2977 770 60 2800 210/16G22 RMK AO2
14840KMKG MKG20010809155012408/09/01 15:50:31  5-MIN KMKG 092050Z 20015G22KT 4SM HZ CLR 31/23 A2977 770 60 2800 200/15G22 RMK AO2 SLP077 T03110228 58011
14840KMKG MKG20010809155512408/09/01 15:55:31  5-MIN KMKG 092055Z 20016G22KT 4SM HZ CLR 31/23 A2977 770 60 2800 210/16G22 RMK AO2 SLP074 T03110228 56020
14840KMKG MKG20010809160011908/09/01 16:00:31  5-MIN KMKG 092100Z 20018G26KT 4SM HZ CLR 31/23 A2976 780 60 2800 200/18G26 RMK AO2 PK WND 21026/2057
14840KMKG MKG20010809160511908/09/01 16:05:31  5-MIN KMKG 092105Z 20018G26KT 4SM HZ CLR 31/23 A2976 780 60 2800 210/18G26 RMK AO2 PK WND 21026/2057
14840KMKG MKG20010809161011908/09/01 16:10:31  5-MIN KMKG 092110Z 20015G24KT 4SM HZ CLR 31/23 A2976 780 60 2800 210/15G24 RMK AO2 PK WND 21026/2057
14840KMKG MKG20010809161511908/09/01 16:15:31  5-MIN KMKG 092115Z 20014G24KT 4SM HZ CLR 31/23 A2976 780 60 2800 210/14G24 RMK AO2 PK WND 21026/2057
14840KMKG MKG20010809162011908/09/01 16:20:31  5-MIN KMKG 092120Z 20016G21KT 4SM HZ CLR 31/23 A2976 780 60 2800 200/16G21 RMK AO2 PK WND 21026/2057
14840KMKG MKG20010809162511908/09/01 16:25:31  5-MIN KMKG 092125Z 21016G21KT 4SM HZ CLR 31/23 A2976 780 62 2800 210/16G21 RMK AO2 PK WND 21026/2057
14840KMKG MKG20010809163011908/09/01 16:30:31  5-MIN KMKG 092130Z 21016G25KT 4SM HZ CLR 31/23 A2976 780 62 2800 210/16G25 RMK AO2 PK WND 21026/2057
14840KMKG MKG20010809163511908/09/01 16:35:31  5-MIN KMKG 092135Z 20014G25KT 4SM HZ CLR 31/23 A2976 780 62 2800 200/14G25 RMK AO2 PK WND 21026/2057
14840KMKG MKG20010809164011908/09/01 16:40:31  5-MIN KMKG 092140Z 21018G23KT 4SM HZ CLR 31/23 A2977 770 62 2800 210/18G23 RMK AO2 PK WND 21026/2057
14840KMKG MKG20010809164511908/09/01 16:45:31  5-MIN KMKG 092145Z 20017G23KT 4SM HZ CLR 31/23 A2976 780 62 2800 210/17G23 RMK AO2 PK WND 21026/2057
14840KMKG MKG20010809165013008/09/01 16:50:31  5-MIN KMKG 092150Z 21017KT 4SM HZ CLR 31/23 A2976 780 62 2800 210/17 RMK AO2 PK WND 21026/2057 SLP073 T03060228
14840KMKG MKG20010809165513008/09/01 16:55:31  5-MIN KMKG 092155Z 20015KT 4SM HZ CLR 31/23 A2976 780 62 2800 210/15 RMK AO2 PK WND 21026/2057 SLP072 T03060228
14840KMKG MKG20010809170009508/09/01 17:00:31  5-MIN KMKG 092200Z 21017KT 4SM HZ CLR 30/23 A2976 780 65 2700 210/17 RMK AO2
14840KMKG MKG20010809170510108/09/01 17:05:31  5-MIN KMKG 092205Z 21014G21KT 4SM HZ CLR 30/23 A2976 780 65 2700 210/14G21 RMK AO2
14840KMKG MKG20010809171010108/09/01 17:10:31  5-MIN KMKG 092210Z 21014G23KT 4SM HZ CLR 30/23 A2976 780 65 2700 210/14G23 RMK AO2
14840KMKG MKG20010809171510108/09/01 17:15:31  5-MIN KMKG 092215Z 21016G23KT 4SM HZ CLR 31/23 A2976 780 62 2800 210/16G23 RMK AO2
14840KMKG MKG20010809172010108/09/01 17:20:31  5-MIN KMKG 092220Z 20017G22KT 4SM HZ CLR 31/23 A2976 780 62 2800 210/17G22 RMK AO2
14840KMKG MKG20010809172510108/09/01 17:25:31  5-MIN KMKG 092225Z 20015G22KT 4SM HZ CLR 31/23 A2975 790 60 2800 210/15G22 RMK AO2
14840KMKG MKG20010809173010108/09/01 17:30:31  5-MIN KMKG 092230Z 20017G23KT 5SM HZ CLR 31/23 A2975 790 62 2800 210/17G23 RMK AO2
14840KMKG MKG20010809173510108/09/01 17:35:31  5-MIN KMKG 092235Z 21018G24KT 5SM HZ CLR 31/23 A2974 800 62 2800 210/18G24 RMK AO2
14840KMKG MKG20010809174010408/09/01 17:40:31  5-MIN KMKG 092240Z 21018G24KT 5SM HZ FEW070 31/23 A2974 790 62 2800 210/18G24 RMK AO2
14840KMKG MKG20010809174511108/09/01 17:45:31  5-MIN KMKG 092245Z 32016G24KT 5SM HZ FEW027 29/22 A2979 750 67 2600 320/16G24 RMK AO2 PRESRR
14840KMKG MKG20010809175015308/09/01 17:50:31  5-MIN KMKG 092250Z 32016G22KT 6SM HZ FEW027 SCT031 SCT065 26/21 A2980 750 73 2200 320/16G22 RMK AO2 WSHFT 2232 PRESRR SLP085 T02560206
14840KMKG MKG20010809175515008/09/01 17:55:31  5-MIN KMKG 092255Z 34019G23KT 8SM FEW025 SCT033 BKN049 26/21 A2981 740 73 2200 350/19G23 RMK AO2 WSHFT 2237 PRESRR SLP088 T02560206
14840KMKG MKG20010809180014408/09/01 18:00:31  5-MIN KMKG 092300Z 35017G27KT 9SM SCT030 SCT047 BKN070 24/20 A2981 740 76 2000 350/17G27 RMK AO2 PK WND 33027/2257 WSHFT 2242
14840KMKG MKG20010809180514508/09/01 18:05:31  5-MIN KMKG 092305Z 36014G27KT 10SM FEW030 SCT048 BKN065 24/19 A2980 740 73 2000 360/14G27 RMK AO2 PK WND 33027/2257 WSHFT 2242
14840KMKG MKG20010809181015308/09/01 18:10:31  5-MIN KMKG 092310Z 34015KT 7SM RA SCT032 BKN046 OVC100 24/20 A2981 740 78 2000 340/15 RMK AO2 PK WND 33027/2257 WSHFT 2242 RAB08 P0001
14840KMKG MKG20010809181516008/09/01 18:15:31  5-MIN KMKG 092315Z 36009G17KT 7SM -RA SCT032 BKN046 BKN070 23/21 A2981 740 84 1900 010/09G17 RMK AO2 PK WND 33027/2257 WSHFT 2242 RAB08 P0001
14840KMKG MKG20010809182017008/09/01 18:20:31  5-MIN KMKG 092320Z 36014KT 10SM -RA FEW032 SCT046 BKN065 23/21 A2980 740 84 1900 010/14 RMK AO2 PK WND 33027/2257 WSHFT 2242 RAB08 CIG 049 RWY 14 P0001
14840KMKG MKG20010809182515508/09/01 18:25:31  5-MIN KMKG 092325Z 36011KT 10SM -RA SCT044 BKN060 BKN070 23/21 A2981 730 84 1900 360/11 RMK AO2 PK WND 33027/2257 WSHFT 2242 RAB08 P0001
14840KMKG MKG20010809183017208/09/01 18:30:31  5-MIN KMKG 092330Z 35015KT 6SM -RA BR FEW037 SCT047 BKN070 23/21 A2981 740 87 1800 360/15 RMK AO2 PK WND 33027/2257 WSHFT 2242 RAB08 CIG 049 RWY 14 P0003
14840KMKG MKG20010809183522308/09/01 18:35:31  5-MIN KMKG 092335Z 35012KT 2 1/2SM +TSRA BR SCT024 SCT045 BKN070 22/21 A2980 740 90 1800 350/12 RMK AO2 PK WND 33027/2257 WSHFT 2242 VIS 1 3/4 RWY 14 OCNL LTGICCG RAB08 TSB34 NW MOV SE CIG 047 RWY14 P0006
14840KMKG MKG20010809184019808/09/01 18:40:31  5-MIN KMKG 092340Z 34016G19KT 1 3/4SM +TSRA BR SCT023 BKN039 BKN070 22/21 A2980 740 90 1800 340/16G19 RMK AO2 PK WND 33027/2257 WSHFT 2242 OCNL LTGICCG RAB08 TSB34 NW MOV SE P0013
14840KMKG MKG20010809184521408/09/01 18:45:31  5-MIN KMKG 092345Z 34013G19KT 2 1/2SM TSRA BR BKN023 BKN037 BKN090 22/21 A2981 740 90 1800 340/13G19 RMK AO2 PK WND 33027/2257 WSHFT 2242 VIS 1 1/2 RWY 14 OCNL LTGICCG RAB08 TSB34 NW MOV SE P0014
14840KMKG MKG20010809185023508/09/01 18:50:31  5-MIN KMKG 092350Z 35014G20KT 6SM -TSRA BR BKN021 BKN065 OVC090 22/21 A2980 740 90 1800 360/14G20 RMK AO2 PK WND 33027/2257 WSHFT 2242 SLP087 OCNL LTGICCG RAB08 TSB34 NW MOV SE P0014 60014 T02220206 10317 20222 56020
14840KMKG MKG20010809185524108/09/01 18:55:31  5-MIN KMKG 092355Z 36014G20KT 10SM -TSRA SCT019 BKN060 OVC090 22/21 A2979 760 90 1800 010/14G20 RMK AO2 PK WND 33027/2257 WSHFT 2242 OCNL LTGICCG RAB08 TSB34 NW MOV SE CIG 039 RWY14 SLP087 P0014 60014 T02220206 10317 20222
14840KMKG MKG20010809190015408/09/01 19:00:31  5-MIN KMKG 100000Z 34016G21KT 10SM -TSRA SCT019 BKN065 OVC090 22/21 A2979 750 90 1800 340/16G21 RMK AO2 OCNL LTGICCG TS NW MOV SE P0000
14840KMKG MKG20010809190515508/09/01 19:05:31  5-MIN KMKG 100005Z 35013G21KT 10SM -TSRA FEW023 BKN065 OVC090 22/21 A2979 750 90 1800 350/13G21 RMK AO2 FRQ LTGICCG TS W-NW MOV SE P0000
14840KMKG MKG20010809191015408/09/01 19:10:31  5-MIN KMKG 100010Z 35010KT 5SM TSRA BR FEW020 BKN065 OVC090 22/21 A2979 750 93 1700 350/10 RMK AO2 FRQ LTGICCG TS W-NW-OHD MOV SE P0005
14840KMKG MKG20010809191517208/09/01 19:15:31  5-MIN KMKG 100015Z 01007KT 3SM +TSRA BR SCT027 BKN060 OVC090 22/21 A2979 750 93 1700 010/07 RMK AO2 VIS 1 1/4 RWY 14 FRQ LTGICCG TS W-NW-OHD MOV SE P0007
14840KMKG MKG20010809192018608/09/01 19:20:31  5-MIN KMKG 100020Z 05006KT 4SM +TSRA BR SCT027 BKN060 OVC080 22/20 A2978 760 90 1700 050/06 RMK AO2 VIS 1 1/4 RWY 14 FRQ LTGICCG TS W-NW-OHD MOV SE CIG 041 RWY14 P0009
14840KMKG MKG20010809192514608/09/01 19:25:31  5-MIN KMKG 100025Z 02004KT 6SM -TSRA BR BKN038 OVC065 21/20 A2979 750 93 1700 020/04 RMK AO2 FRQ LTGICCG TS NW-OHD MOV SE P0009
14840KMKG MKG20010809193014008/09/01 19:30:31  5-MIN KMKG 100030Z 08004KT 10SM -TSRA BKN046 OVC060 22/20 A2978 760 90 1800 080/04 RMK AO2 FRQ LTGICCG TS NW MOV SE P0009
14840KMKG MKG20010809193514008/09/01 19:35:31  5-MIN KMKG 100035Z VRB03KT 10SM -TSRA BKN050 OVC075 21/21 A2978 760 97 1700 VRB/03 RMK AO2 FRQ LTGICCG TS NW MOV SE P0009
14840KMKG MKG20010809194013808/09/01 19:40:31  5-MIN KMKG 100040Z 18003KT 10SM -TSRA OVC060 22/21 A2980 740 93 1700 190/03 RMK AO2 FRQ LTGICCACG TS SW-NW MOV SE P0009
14840KMKG MKG20010809194514508/09/01 19:45:31  5-MIN KMKG 100045Z 21012KT 10SM -TSRA OVC060 22/21 A2981 730 93 1700 220/12 RMK AO2 PRESRR FRQ LTGICCACG TS SW-NW MOV SE P0009
14840KMKG MKG20010809195015508/09/01 19:50:31  5-MIN KMKG 100050Z 21011KT 10SM -TSRA OVC070 22/21 A2982 730 93 1700 220/11 RMK AO2 FRQ LTGICCACG TS SW-NW MOV SE PRESRR P0009 T02170206
14840KMKG MKG20010809195515508/09/01 19:55:31  5-MIN KMKG 100055Z 21007KT 10SM -TSRA OVC065 22/21 A2981 730 97 1700 220/07 RMK AO2 FRQ LTGICCACG TS SW-NW MOV SE SLP090 P0009 T02170211
14840KMKG MKG20010809200014308/09/01 20:00:31  5-MIN KMKG 100100Z 21007KT 9SM -TSRA BKN065 OVC090 22/21 A2980 740 97 1700 220/07 RMK AO2 FRQ LTGICCACG TS SW-W MOV SE P0000
14840KMKG MKG20010809200515008/09/01 20:05:31  5-MIN KMKG 100105Z 23007KT 7SM -TSRA BKN060 BKN075 OVC110 22/21 A2981 730 97 1700 240/07 RMK AO2 FRQ LTGICCACG TS SW-W MOV SE P0001
14840KMKG MKG20010809201015108/09/01 20:10:31  5-MIN KMKG 100110Z 20008KT 6SM -TSRA BR BKN055 OVC075 22/21 A2980 740 97 1700 210/08 RMK AO2 FRQ LTGICCACG TS SW-NW-OHD MOV SE P0001
14840KMKG MKG20010809201514808/09/01 20:15:31  5-MIN KMKG 100115Z 17008KT 8SM -TSRA BKN060 OVC075 22/21 A2979 750 97 1700 170/08 RMK AO2 FRQ LTGICCACG TS SW-NW-OHD MOV SE P0001
14840KMKG MKG20010809202014908/09/01 20:20:31  5-MIN KMKG 100120Z 16006KT 10SM -TSRA BKN060 OVC080 22/21 A2979 750 97 1700 170/06 RMK AO2 FRQ LTGICCACG TS SW-NW-OHD MOV SE P0001
14840KMKG MKG20010809202515608/09/01 20:25:31  5-MIN KMKG 100125Z 20007KT 10SM -TSRA BKN060 BKN080 OVC100 22/21 A2980 740 97 1700 200/07 RMK AO2 FRQ LTGICCACG TS SW-NW-OHD MOV SE P0001
14840KMKG MKG20010809203015608/09/01 20:30:31  5-MIN KMKG 100130Z 23009KT 10SM -TSRA BKN060 BKN075 OVC100 22/21 A2981 730 97 1700 230/09 RMK AO2 FRQ LTGICCACG TS SW-NW-OHD MOV SE P0001
14840KMKG MKG20010809203514108/09/01 20:35:31  5-MIN KMKG 100135Z 22009KT 8SM -TSRA BKN065 OVC085 22/21 A2981 730 97 1700 220/09 RMK AO2 FRQ LTGICCACG TS SW MOV SE P0002
14840KMKG MKG20010809204014108/09/01 20:40:31  5-MIN KMKG 100140Z 19009KT 8SM -TSRA BKN065 OVC095 22/21 A2980 740 97 1700 200/09 RMK AO2 FRQ LTGICCACG TS SW MOV SE P0002
14840KMKG MKG20010809204514108/09/01 20:45:31  5-MIN KMKG 100145Z 19007KT 8SM -TSRA BKN060 OVC080 22/21 A2980 740 97 1700 190/07 RMK AO2 FRQ LTGICCACG TS SW MOV SE P0002
14840KMKG MKG20010809205015808/09/01 20:50:31  5-MIN KMKG 100150Z 19011KT 7SM -TSRA BKN055 OVC080 22/21 A2980 740 97 1700 190/11 RMK AO2 SLP087 FRQ LTGICCACG TS SW MOV SE P0003 T02170211
14840KMKG MKG20010809205515808/09/01 20:55:31  5-MIN KMKG 100155Z 19014KT 8SM -TSRA BKN055 OVC085 22/21 A2980 740 97 1700 190/14 RMK AO2 FRQ LTGICCACG TS SW MOV SE SLP088 P0003 T02170211
14840KMKG MKG20010809210014208/09/01 21:00:31  5-MIN KMKG 100200Z 20011KT 9SM -TSRA BKN055 OVC085 22/21 A2980 740 93 1800 210/11 RMK AO2 OCNL LTGICCACG TS SW MOV SE P0000
14840KMKG MKG20010809210514308/09/01 21:05:31  5-MIN KMKG 100205Z 23008KT 10SM -TSRA SCT055 OVC080 22/21 A2981 730 93 1800 240/08 RMK AO2 OCNL LTGICCACG TS SW MOV SE P0000
14840KMKG MKG20010809211014608/09/01 21:10:31  5-MIN KMKG 100210Z 22009KT 10SM TS FEW050 OVC080 22/21 A2981 730 93 1800 220/09 RMK AO2 RAE10 OCNL LTGICCACG TS SW MOV SE P0000
14840KMKG MKG20010809211515308/09/01 21:15:31  5-MIN KMKG 100215Z 22010KT 10SM TS FEW050 OVC085 22/21 A2982 720 93 1800 230/10 RMK AO2 RAE10 PRESRR OCNL LTGICCACG TS SW MOV SE P0000
14840KMKG MKG20010809212014608/09/01 21:20:31  5-MIN KMKG 100220Z 22009KT 10SM TS BKN085 OVC100 22/21 A2982 720 93 1800 220/09 RMK AO2 RAE10 OCNL LTGICCACG TS SW MOV SE P0000
14840KMKG MKG20010809212514608/09/01 21:25:31  5-MIN KMKG 100225Z 23009KT 10SM TS BKN085 BKN100 22/21 A2983 720 93 1800 240/09 RMK AO2 RAE10 OCNL LTGICCACG TS SW MOV SE P0000
14840KMKG MKG20010809213016008/09/01 21:30:31  5-MIN KMKG 100230Z 21010KT 10SM TS FEW008 BKN085 OVC100 22/21 A2984 700 93 1700 220/10 RMK AO2 RAE10 PRESRR OCNL LTGICCACG TS SW MOV SE P0000
14840KMKG MKG20010809213515908/09/01 21:35:31  5-MIN KMKG 100235Z 23010KT 9SM TS SCT008 BKN085 OVC100 22/22 A2985 690 97 1700 240/10 RMK AO2 OCNL LTGICCACG RAE10 TS SW MOV SE PRESRR P0000
14840KMKG MKG20010809214018008/09/01 21:40:31  5-MIN KMKG 100240Z 22015G18KT 8SM TS SCT008 BKN013 OVC100 22/22 A2985 690 97 1700 230/15G18 RMK AO2 CIG 008 RWY 14 OCNL LTGICCACG RAE10 TS SW MOV SE PRESRR P0000
14840KMKG MKG20010810124009608/10/01 12:40:31  5-MIN KMKG 101740Z 29012KT 10SM SCT041 23/14 A3004 520 55 1600 300/12 RMK AO2
14840KMKG MKG20010810124509608/10/01 12:45:31  5-MIN KMKG 101745Z 29011KT 10SM SCT041 24/14 A3004 520 53 1700 290/11 RMK AO2
14840KMKG MKG20010810125013108/10/01 12:50:31  5-MIN KMKG 101750Z 27012KT 10SM FEW039 23/14 A3004 520 55 1600 280/12 RMK AO2 SLP170 T02330139 10239 20183 51017
14840KMKG MKG20010810125513108/10/01 12:55:31  5-MIN KMKG 101755Z 29012KT 10SM SCT039 23/13 A3004 520 53 1600 290/12 RMK AO2 SLP169 T02330133 10239 20183 50002
14840KMKG MKG20010810130010208/10/01 13:00:31  5-MIN KMKG 101800Z 28014G17KT 10SM SCT039 24/13 A3004 520 51 1700 280/14G17 RMK AO2
14840KMKG MKG20010810130510208/10/01 13:05:31  5-MIN KMKG 101805Z 30012G17KT 10SM SCT039 23/13 A3003 520 53 1700 310/12G17 RMK AO2
14840KMKG MKG20010810131009608/10/01 13:10:31  5-MIN KMKG 101810Z 32012KT 10SM SCT039 23/13 A3004 520 53 1700 330/12 RMK AO2
14840KMKG MKG20010810131509608/10/01 13:15:31  5-MIN KMKG 101815Z 30010KT 10SM SCT042 24/13 A3003 530 51 1700 310/10 RMK AO2
14840KMKG MKG20010810132009608/10/01 13:20:31  5-MIN KMKG 101820Z 30011KT 10SM SCT042 24/13 A3003 530 51 1700 310/11 RMK AO2
14840KMKG MKG20010810132510208/10/01 13:25:31  5-MIN KMKG 101825Z 30014G17KT 10SM SCT042 23/13 A3003 530 53 1700 300/14G17 RMK AO2
14840KMKG MKG20010810133010208/10/01 13:30:31  5-MIN KMKG 101830Z 28012G18KT 10SM SCT042 24/13 A3003 530 51 1700 290/12G18 RMK AO2
14840KMKG MKG20010810133509608/10/01 13:35:31  5-MIN KMKG 101835Z 29012KT 10SM SCT042 24/13 A3003 530 51 1700 300/12 RMK AO2
14840KMKG MKG20010810134009608/10/01 13:40:31  5-MIN KMKG 101840Z 30013KT 10SM SCT042 23/13 A3003 520 53 1700 310/13 RMK AO2
14840KMKG MKG20010810134509608/10/01 13:45:31  5-MIN KMKG 101845Z 30012KT 10SM SCT042 24/13 A3004 520 51 1700 300/12 RMK AO2
14840KMKG MKG20010810135011308/10/01 13:50:31  5-MIN KMKG 101850Z 32013KT 10SM SCT042 24/13 A3004 520 51 1700 320/13 RMK AO2 SLP168 T02390133
14840KMKG MKG20010810135511308/10/01 13:55:31  5-MIN KMKG 101855Z 29013KT 10SM SCT042 24/13 A3004 520 51 1700 300/13 RMK AO2 SLP168 T02390133
14840KMKG MKG20010810140009608/10/01 14:00:31  5-MIN KMKG 101900Z 33013KT 10SM SCT042 24/14 A3004 520 53 1700 330/13 RMK AO2
14840KMKG MKG20010810140509608/10/01 14:05:31  5-MIN KMKG 101905Z 30012KT 10SM SCT042 24/13 A3003 530 51 1700 310/12 RMK AO2
14840KMKG MKG20010810141009608/10/01 14:10:31  5-MIN KMKG 101910Z 31012KT 10SM SCT042 23/13 A3004 520 53 1700 310/12 RMK AO2
14840KMKG MKG20010810141509608/10/01 14:15:31  5-MIN KMKG 101915Z 33014KT 10SM SCT042 24/13 A3004 520 51 1700 330/14 RMK AO2
14840KMKG MKG20010810142009608/10/01 14:20:31  5-MIN KMKG 101920Z 33012KT 10SM SCT042 24/13 A3004 520 51 1700 330/12 RMK AO2
14840KMKG MKG20010810142510208/10/01 14:25:31  5-MIN KMKG 101925Z 32013G17KT 10SM SCT042 24/14 A3004 520 53 1700 330/13G17 RMK AO2
14840KMKG MKG20010810143010208/10/01 14:30:31  5-MIN KMKG 101930Z 32014G18KT 10SM SCT042 23/13 A3004 520 53 1600 330/14G18 RMK AO2
14840KMKG MKG20010810143509608/10/01 14:35:31  5-MIN KMKG 101935Z 32013KT 10SM SCT042 24/14 A3004 520 53 1700 320/13 RMK AO2
14840KMKG MKG20010810144009608/10/01 14:40:31  5-MIN KMKG 101940Z 32012KT 10SM SCT042 23/14 A3004 520 55 1600 320/12 RMK AO2
14840KMKG MKG20010810144511808/10/01 14:45:31  5-MIN KMKG 101945Z 31012G17KT 280V340 10SM SCT042 24/14 A3004 520 53 1700 310/12G17 280V340 RMK AO2
14840KMKG MKG20010810145011308/10/01 14:50:31  5-MIN KMKG 101950Z 30015KT 10SM SCT042 23/14 A3004 520 55 1600 300/15 RMK AO2 SLP171 T02330139
14840KMKG MKG20010810145511308/10/01 14:55:31  5-MIN KMKG 101955Z 30013KT 10SM SCT042 23/14 A3005 510 55 1600 300/13 RMK AO2 SLP171 T02330139
14840KMKG MKG20010810150009608/10/01 15:00:31  5-MIN KMKG 102000Z 30015KT 10SM SCT042 23/14 A3005 510 55 1600 310/15 RMK AO2
14840KMKG MKG20010810150509608/10/01 15:05:31  5-MIN KMKG 102005Z 31014KT 10SM SCT042 24/14 A3005 510 53 1700 320/14 RMK AO2
14840KMKG MKG20010810151009608/10/01 15:10:31  5-MIN KMKG 102010Z 30015KT 10SM SCT042 23/14 A3005 510 55 1600 300/15 RMK AO2
14840KMKG MKG20010810151510208/10/01 15:15:31  5-MIN KMKG 102015Z 31013G22KT 10SM SCT042 23/14 A3005 510 55 1600 310/13G22 RMK AO2
14840KMKG MKG20010810152010208/10/01 15:20:31  5-MIN KMKG 102020Z 32016G22KT 10SM SCT042 23/13 A3005 510 53 1600 320/16G22 RMK AO2
14840KMKG MKG20010810152510208/10/01 15:25:31  5-MIN KMKG 102025Z 31011G21KT 10SM SCT042 23/13 A3005 510 55 1600 310/11G21 RMK AO2
14840KMKG MKG20010810153009608/10/01 15:30:31  5-MIN KMKG 102030Z 31014KT 10SM SCT042 23/14 A3005 510 55 1600 310/14 RMK AO2
14840KMKG MKG20010810153509608/10/01 15:35:31  5-MIN KMKG 102035Z 32013KT 10SM SCT042 23/14 A3005 510 55 1600 330/13 RMK AO2
14840KMKG MKG20010810154010208/10/01 15:40:31  5-MIN KMKG 102040Z 32011G18KT 10SM SCT042 23/14 A3005 510 57 1600 320/11G18 RMK AO2
14840KMKG MKG20010810154510208/10/01 15:45:31  5-MIN KMKG 102045Z 33016G21KT 10SM SCT042 24/14 A3005 510 55 1700 330/16G21 RMK AO2
14840KMKG MKG20010810155012508/10/01 15:50:31  5-MIN KMKG 102050Z 33016G22KT 10SM SCT042 23/14 A3005 510 55 1600 330/16G22 RMK AO2 SLP173 T02330139 50002
14840KMKG MKG20010810155512508/10/01 15:55:31  5-MIN KMKG 102055Z 30013G22KT 10SM SCT042 23/13 A3005 510 55 1600 310/13G22 RMK AO2 SLP173 T02280133 53002
14840KMKG MKG20010810160011808/10/01 16:00:31  5-MIN KMKG 102100Z 32013G20KT 280V340 10SM SCT042 23/13 A3005 510 53 1600 330/13G20 280V340 RMK AO2
14840KMKG MKG20010810160509608/10/01 16:05:31  5-MIN KMKG 102105Z 31012KT 10SM SCT042 23/13 A3005 510 55 1600 320/12 RMK AO2
14840KMKG MKG20010810161010208/10/01 16:10:31  5-MIN KMKG 102110Z 33014G21KT 10SM SCT042 23/13 A3005 510 55 1600 330/14G21 RMK AO2
14840KMKG MKG20010810161510208/10/01 16:15:31  5-MIN KMKG 102115Z 32013G21KT 10SM SCT042 23/14 A3005 510 55 1600 330/13G21 RMK AO2
14840KMKG MKG20010810162010208/10/01 16:20:31  5-MIN KMKG 102120Z 31014G19KT 10SM SCT042 23/13 A3005 510 53 1600 320/14G19 RMK AO2
14840KMKG MKG20010810162510208/10/01 16:25:31  5-MIN KMKG 102125Z 32013G19KT 10SM SCT042 23/13 A3005 510 53 1600 330/13G19 RMK AO2
14840KMKG MKG20010810163010208/10/01 16:30:31  5-MIN KMKG 102130Z 30013G18KT 10SM SCT042 23/13 A3005 510 55 1600 300/13G18 RMK AO2
14840KMKG MKG20010810163510208/10/01 16:35:31  5-MIN KMKG 102135Z 32012G18KT 10SM SCT042 23/13 A3005 510 53 1600 330/12G18 RMK AO2
14840KMKG MKG20010810164010208/10/01 16:40:31  5-MIN KMKG 102140Z 31011G18KT 10SM SCT042 23/13 A3004 520 55 1600 310/11G18 RMK AO2
14840KMKG MKG20010810164510208/10/01 16:45:31  5-MIN KMKG 102145Z 32015G18KT 10SM SCT042 23/13 A3004 520 53 1600 330/15G18 RMK AO2
14840KMKG MKG20010810165011908/10/01 16:50:31  5-MIN KMKG 102150Z 31015G20KT 10SM SCT042 23/13 A3005 510 53 1600 320/15G20 RMK AO2 SLP172 T02280128
14840KMKG MKG20010810165511308/10/01 16:55:31  5-MIN KMKG 102155Z 32013KT 10SM SCT042 23/13 A3005 510 53 1600 320/13 RMK AO2 SLP173 T02280128
14840KMKG MKG20010810170009908/10/01 17:00:31  5-MIN KMKG 102200Z 32012G18KT 10SM CLR 23/13 A3004 520 55 1600 320/12G18 RMK AO2
14840KMKG MKG20010810170509308/10/01 17:05:31  5-MIN KMKG 102205Z 32013KT 10SM CLR 23/13 A3005 520 55 1600 320/13 RMK AO2
14840KMKG MKG20010810171009908/10/01 17:10:31  5-MIN KMKG 102210Z 32014G18KT 10SM CLR 23/13 A3005 510 55 1600 320/14G18 RMK AO2
14840KMKG MKG20010810171509908/10/01 17:15:31  5-MIN KMKG 102215Z 31014G19KT 10SM CLR 22/13 A3005 510 54 1500 320/14G19 RMK AO2
14840KMKG MKG20010810172009308/10/01 17:20:31  5-MIN KMKG 102220Z 33014KT 10SM CLR 23/13 A3006 500 55 1600 330/14 RMK AO2
14840KMKG MKG20010810172509308/10/01 17:25:31  5-MIN KMKG 102225Z 33015KT 10SM CLR 23/13 A3006 500 55 1600 340/15 RMK AO2
14840KMKG MKG20010810173009908/10/01 17:30:31  5-MIN KMKG 102230Z 32011G19KT 10SM CLR 22/13 A3006 510 54 1500 330/11G19 RMK AO2
14840KMKG MKG20010810173509908/10/01 17:35:31  5-MIN KMKG 102235Z 32015G18KT 10SM CLR 22/13 A3006 510 56 1500 330/15G18 RMK AO2
14840KMKG MKG20010810174009308/10/01 17:40:31  5-MIN KMKG 102240Z 33014KT 10SM CLR 22/13 A3005 510 56 1500 330/14 RMK AO2
14840KMKG MKG20010810174509308/10/01 17:45:31  5-MIN KMKG 102245Z 33016KT 10SM CLR 22/13 A3005 510 56 1500 340/16 RMK AO2
14840KMKG MKG20010810175011008/10/01 17:50:31  5-MIN KMKG 102250Z 34013KT 10SM CLR 22/13 A3005 510 56 1500 350/13 RMK AO2 SLP174 T02220133
14840KMKG MKG20010810175511008/10/01 17:55:31  5-MIN KMKG 102255Z 33013KT 10SM CLR 22/13 A3004 520 56 1500 330/13 RMK AO2 SLP172 T02220133
14840KMKG MKG20010810180009308/10/01 18:00:31  5-MIN KMKG 102300Z 34016KT 10SM CLR 22/13 A3004 520 56 1500 340/16 RMK AO2
14840KMKG MKG20010810180509308/10/01 18:05:31  5-MIN KMKG 102305Z 32016KT 10SM CLR 22/13 A3004 520 56 1500 330/16 RMK AO2
14840KMKG MKG20010810181009308/10/01 18:10:31  5-MIN KMKG 102310Z 33013KT 10SM CLR 22/13 A3005 510 54 1500 340/13 RMK AO2
14840KMKG MKG20010810181509308/10/01 18:15:31  5-MIN KMKG 102315Z 32013KT 10SM CLR 22/13 A3005 510 56 1500 330/13 RMK AO2
14840KMKG MKG20010810182009308/10/01 18:20:31  5-MIN KMKG 102320Z 33012KT 10SM CLR 22/13 A3005 510 54 1500 340/12 RMK AO2
14840KMKG MKG20010810182509308/10/01 18:25:31  5-MIN KMKG 102325Z 34013KT 10SM CLR 22/13 A3005 510 54 1500 340/13 RMK AO2
14840KMKG MKG20010810183009308/10/01 18:30:31  5-MIN KMKG 102330Z 34012KT 10SM CLR 22/13 A3005 510 54 1500 350/12 RMK AO2
14840KMKG MKG20010810183509308/10/01 18:35:31  5-MIN KMKG 102335Z 34012KT 10SM CLR 22/13 A3005 510 54 1500 350/12 RMK AO2
14840KMKG MKG20010810184009308/10/01 18:40:31  5-MIN KMKG 102340Z 35012KT 10SM CLR 22/12 A3006 510 54 1400 360/12 RMK AO2
14840KMKG MKG20010810184509308/10/01 18:45:31  5-MIN KMKG 102345Z 36011KT 10SM CLR 22/12 A3005 510 54 1400 360/11 RMK AO2
14840KMKG MKG20010810185012808/10/01 18:50:31  5-MIN KMKG 102350Z 36011KT 10SM CLR 22/12 A3005 510 54 1400 360/11 RMK AO2 SLP173 T02170122 10239 20217 53002
14840KMKG MKG20010810185513108/10/01 18:55:31  5-MIN KMKG 102355Z 35010KT 10SM FEW045 22/12 A3005 510 54 1400 350/10 RMK AO2 SLP173 T02170122 10239 20217 53001
14840KMKG MKG20010810190009308/10/01 19:00:31  5-MIN KMKG 110000Z 35010KT 10SM CLR 22/12 A3005 510 54 1400 350/10 RMK AO2
14840KMKG MKG20010810190509308/10/01 19:05:31  5-MIN KMKG 110005Z 34009KT 10SM CLR 21/12 A3005 510 56 1400 350/09 RMK AO2
14840KMKG MKG20010810191009308/10/01 19:10:31  5-MIN KMKG 110010Z 34011KT 10SM CLR 21/12 A3005 510 56 1400 340/11 RMK AO2
14840KMKG MKG20010810191509308/10/01 19:15:31  5-MIN KMKG 110015Z 35010KT 10SM CLR 21/12 A3005 510 56 1400 350/10 RMK AO2
14840KMKG MKG20010810192009308/10/01 19:20:31  5-MIN KMKG 110020Z 35011KT 10SM CLR 21/12 A3005 510 56 1400 350/11 RMK AO2
14840KMKG MKG20010810192509308/10/01 19:25:31  5-MIN KMKG 110025Z 34012KT 10SM CLR 21/12 A3005 510 54 1400 350/12 RMK AO2
14840KMKG MKG20010810193009308/10/01 19:30:31  5-MIN KMKG 110030Z 36008KT 10SM CLR 21/12 A3005 510 56 1300 360/08 RMK AO2
14840KMKG MKG20010810193509308/10/01 19:35:31  5-MIN KMKG 110035Z 36007KT 10SM CLR 21/12 A3005 510 56 1300 010/07 RMK AO2
14840KMKG MKG20010810194009308/10/01 19:40:31  5-MIN KMKG 110040Z 02008KT 10SM CLR 21/12 A3005 510 56 1300 020/08 RMK AO2
14840KMKG MKG20010810194509308/10/01 19:45:31  5-MIN KMKG 110045Z 01006KT 10SM CLR 20/12 A3006 500 58 1200 010/06 RMK AO2
14840KMKG MKG20010810195011008/10/01 19:50:31  5-MIN KMKG 110050Z 01007KT 10SM CLR 20/12 A3006 500 58 1200 010/07 RMK AO2 SLP177 T02000117
14840KMKG MKG20010810195511008/10/01 19:55:31  5-MIN KMKG 110055Z 36008KT 10SM CLR 20/12 A3006 500 58 1200 360/08 RMK AO2 SLP178 T02000117
14840KMKG MKG20010810200009308/10/01 20:00:31  5-MIN KMKG 110100Z 01007KT 10SM CLR 20/12 A3006 500 58 1200 020/07 RMK AO2
14840KMKG MKG20010810200509308/10/01 20:05:31  5-MIN KMKG 110105Z 01008KT 10SM CLR 20/12 A3007 500 58 1200 010/08 RMK AO2
14840KMKG MKG20010810201009308/10/01 20:10:31  5-MIN KMKG 110110Z 36008KT 10SM CLR 20/12 A3007 500 58 1200 010/08 RMK AO2
14840KMKG MKG20010810201509308/10/01 20:15:31  5-MIN KMKG 110115Z 36008KT 10SM CLR 20/12 A3007 490 58 1200 010/08 RMK AO2
14840KMKG MKG20010810202009308/10/01 20:20:31  5-MIN KMKG 110120Z 36008KT 10SM CLR 19/12 A3007 490 60 1200 010/08 RMK AO2
14840KMKG MKG20010810202509308/10/01 20:25:31  5-MIN KMKG 110125Z 01008KT 10SM CLR 20/12 A3007 490 58 1200 010/08 RMK AO2
14840KMKG MKG20010810203009308/10/01 20:30:31  5-MIN KMKG 110130Z 36008KT 10SM CLR 19/12 A3007 490 60 1200 010/08 RMK AO2
14840KMKG MKG20010810203509308/10/01 20:35:31  5-MIN KMKG 110135Z 36008KT 10SM CLR 19/12 A3008 490 60 1200 010/08 RMK AO2
14840KMKG MKG20010810204009308/10/01 20:40:31  5-MIN KMKG 110140Z 01007KT 10SM CLR 19/12 A3008 480 60 1200 010/07 RMK AO2
14840KMKG MKG20010810204509308/10/01 20:45:31  5-MIN KMKG 110145Z 01008KT 10SM CLR 19/11 A3008 480 58 1200 010/08 RMK AO2
14840KMKG MKG20010810205011008/10/01 20:50:31  5-MIN KMKG 110150Z 02007KT 10SM CLR 19/11 A3008 480 58 1200 020/07 RMK AO2 SLP183 T01940111
14840KMKG MKG20010810205511008/10/01 20:55:31  5-MIN KMKG 110155Z 01007KT 10SM CLR 19/11 A3008 480 58 1200 020/07 RMK AO2 SLP185 T01940111
14840KMKG MKG20010810210009308/10/01 21:00:31  5-MIN KMKG 110200Z 01008KT 10SM CLR 19/11 A3008 480 58 1200 010/08 RMK AO2
14840KMKG MKG20010810210509308/10/01 21:05:31  5-MIN KMKG 110205Z 01006KT 10SM CLR 19/11 A3008 480 60 1100 010/06 RMK AO2
14840KMKG MKG20010810211009308/10/01 21:10:31  5-MIN KMKG 110210Z 01007KT 10SM CLR 19/11 A3008 480 58 1100 020/07 RMK AO2
14840KMKG MKG20010810211509308/10/01 21:15:31  5-MIN KMKG 110215Z 02007KT 10SM CLR 19/11 A3008 480 58 1100 020/07 RMK AO2
14840KMKG MKG20010810212009308/10/01 21:20:31  5-MIN KMKG 110220Z 01009KT 10SM CLR 19/11 A3008 480 58 1100 020/09 RMK AO2
14840KMKG MKG20010810212509308/10/01 21:25:31  5-MIN KMKG 110225Z 01008KT 10SM CLR 19/11 A3009 480 58 1100 020/08 RMK AO2
14840KMKG MKG20010810213009308/10/01 21:30:31  5-MIN KMKG 110230Z 01007KT 10SM CLR 18/11 A3009 470 60 1000 020/07 RMK AO2
14840KMKG MKG20010810213509308/10/01 21:35:31  5-MIN KMKG 110235Z 01008KT 10SM CLR 18/11 A3009 470 60 1000 020/08 RMK AO2
14840KMKG MKG20010810214009308/10/01 21:40:31  5-MIN KMKG 110240Z 02007KT 10SM CLR 18/11 A3009 470 60 1000 020/07 RMK AO2
14840KMKG MKG20010810214509308/10/01 21:45:31  5-MIN KMKG 110245Z 02008KT 10SM CLR 18/11 A3009 470 60 1000 020/08 RMK AO2
14840KMKG MKG20010810215011608/10/01 21:50:31  5-MIN KMKG 110250Z 02006KT 10SM CLR 18/11 A3009 470 60 1000 030/06 RMK AO2 SLP187 T01830106 53001
14840KMKG MKG20010810215511608/10/01 21:55:31  5-MIN KMKG 110255Z 02007KT 10SM CLR 18/11 A3009 470 60 1000 020/07 RMK AO2 SLP188 T01830106 51014
14840KMKG MKG20010810220009208/10/01 22:00:31  5-MIN KMKG 110300Z 02006KT 10SM CLR 18/11 A3009 470 62 900 020/06 RMK AO2
14840KMKG MKG20010810220509208/10/01 22:05:31  5-MIN KMKG 110305Z 01006KT 10SM CLR 18/11 A3009 470 62 900 020/06 RMK AO2
14840KMKG MKG20010810221009208/10/01 22:10:31  5-MIN KMKG 110310Z 02008KT 10SM CLR 18/11 A3009 470 62 900 030/08 RMK AO2
14840KMKG MKG20010810221509208/10/01 22:15:31  5-MIN KMKG 110315Z 02006KT 10SM CLR 18/11 A3009 470 62 900 020/06 RMK AO2
14840KMKG MKG20010810222009208/10/01 22:20:31  5-MIN KMKG 110320Z 02007KT 10SM CLR 18/11 A3010 470 62 900 030/07 RMK AO2
14840KMKG MKG20010810222509208/10/01 22:25:31  5-MIN KMKG 110325Z 02007KT 10SM CLR 18/11 A3010 470 62 900 030/07 RMK AO2
14840KMKG MKG20010810223009208/10/01 22:30:31  5-MIN KMKG 110330Z 02006KT 10SM CLR 18/11 A3010 460 62 900 030/06 RMK AO2
14840KMKG MKG20010810223509208/10/01 22:35:31  5-MIN KMKG 110335Z 02006KT 10SM CLR 18/11 A3010 460 64 900 030/06 RMK AO2
14840KMKG MKG20010810224009208/10/01 22:40:31  5-MIN KMKG 110340Z 03004KT 10SM CLR 18/11 A3010 460 64 900 040/04 RMK AO2
14840KMKG MKG20010810224509208/10/01 22:45:31  5-MIN KMKG 110345Z 04004KT 10SM CLR 17/11 A3010 460 67 900 040/04 RMK AO2
14840KMKG MKG20010810225010908/10/01 22:50:31  5-MIN KMKG 110350Z 03005KT 10SM CLR 18/11 A3010 460 64 900 040/05 RMK AO2 SLP192 T01780111
14840KMKG MKG20010810225510908/10/01 22:55:31  5-MIN KMKG 110355Z 03004KT 10SM CLR 18/11 A3010 460 64 900 030/04 RMK AO2 SLP192 T01780111
14840KMKG MKG20010810230009208/10/01 23:00:31  5-MIN KMKG 110400Z 04004KT 10SM CLR 17/11 A3010 460 67 900 050/04 RMK AO2
14840KMKG MKG20010810230509208/10/01 23:05:31  5-MIN KMKG 110405Z 04005KT 10SM CLR 17/11 A3011 460 67 900 040/05 RMK AO2
14840KMKG MKG20010810231009208/10/01 23:10:31  5-MIN KMKG 110410Z 05004KT 10SM CLR 17/11 A3011 460 67 900 050/04 RMK AO2
14840KMKG MKG20010810231509208/10/01 23:15:31  5-MIN KMKG 110415Z 05006KT 10SM CLR 17/11 A3010 460 67 900 060/06 RMK AO2
14840KMKG MKG20010810232009208/10/01 23:20:31  5-MIN KMKG 110420Z 05005KT 10SM CLR 17/11 A3011 460 67 900 050/05 RMK AO2
14840KMKG MKG20010810232509208/10/01 23:25:31  5-MIN KMKG 110425Z 05005KT 10SM CLR 17/11 A3011 460 69 800 050/05 RMK AO2
14840KMKG MKG20010810233009208/10/01 23:30:31  5-MIN KMKG 110430Z 05005KT 10SM CLR 17/11 A3011 460 69 800 050/05 RMK AO2
14840KMKG MKG20010810233509208/10/01 23:35:31  5-MIN KMKG 110435Z 05005KT 10SM CLR 17/11 A3011 460 69 800 050/05 RMK AO2
14840KMKG MKG20010810234009208/10/01 23:40:31  5-MIN KMKG 110440Z 05005KT 10SM CLR 17/11 A3011 460 69 800 050/05 RMK AO2
14840KMKG MKG20010810234509208/10/01 23:45:31  5-MIN KMKG 110445Z 05006KT 10SM CLR 17/11 A3011 460 69 800 050/06 RMK AO2
14840KMKG MKG20010810235011908/10/01 23:50:31  5-MIN KMKG 110450Z 05006KT 10SM CLR 17/12 A3011 460 75 800 050/06 RMK AO2 SLP193 T01670122 402390167
14840KMKG MKG20010810235511908/10/01 23:55:31  5-MIN KMKG 110455Z 05005KT 10SM CLR 16/12 A3011 460 77 700 050/05 RMK AO2 SLP193 T01610122 402390161
14840KMKG MKG20010811000009208/11/01 00:00:31  5-MIN KMKG 110500Z 05004KT 10SM CLR 16/11 A3011 460 72 700 050/04 RMK AO2
14840KMKG MKG20010811000509208/11/01 00:05:31  5-MIN KMKG 110505Z 05003KT 10SM CLR 16/11 A3011 460 72 700 060/03 RMK AO2
14840KMKG MKG20010811001009208/11/01 00:10:31  5-MIN KMKG 110510Z 05004KT 10SM CLR 16/11 A3011 460 74 700 060/04 RMK AO2
14840KMKG MKG20010811001509208/11/01 00:15:31  5-MIN KMKG 110515Z 06004KT 10SM CLR 16/11 A3011 460 74 700 060/04 RMK AO2
14840KMKG MKG20010811002009208/11/01 00:20:31  5-MIN KMKG 110520Z 06004KT 10SM CLR 16/11 A3011 460 74 700 060/04 RMK AO2
14840KMKG MKG20010811002509208/11/01 00:25:31  5-MIN KMKG 110525Z 06005KT 10SM CLR 15/11 A3011 460 77 600 060/05 RMK AO2
14840KMKG MKG20010811003009208/11/01 00:30:31  5-MIN KMKG 110530Z 07003KT 10SM CLR 15/11 A3011 460 77 600 070/03 RMK AO2
14840KMKG MKG20010811003509208/11/01 00:35:31  5-MIN KMKG 110535Z 06004KT 10SM CLR 15/11 A3010 460 77 600 070/04 RMK AO2
14840KMKG MKG20010823045511708/23/01 04:55:31  5-MIN KMKG 230955Z 05005KT 1/4SM FG VV001 19/19 A2996 590 100 1200 050/05 RMK AO2 SLP144 T01890189
14840KMKG MKG20010823050010008/23/01 05:00:31  5-MIN KMKG 231000Z 05005KT 1/4SM FG VV001 19/19 A2996 590 100 1200 050/05 RMK AO2
14840KMKG MKG20010823050510008/23/01 05:05:31  5-MIN KMKG 231005Z 07004KT 1/4SM FG VV001 18/18 A2996 590 100 1200 070/04 RMK AO2
14840KMKG MKG20010823051010008/23/01 05:10:31  5-MIN KMKG 231010Z 05004KT 1/4SM FG VV001 18/18 A2997 590 100 1200 060/04 RMK AO2
14840KMKG MKG20010823051510008/23/01 05:15:31  5-MIN KMKG 231015Z 04005KT 1/4SM FG VV001 18/18 A2997 590 100 1200 050/05 RMK AO2
14840KMKG MKG20010823052010008/23/01 05:20:31  5-MIN KMKG 231020Z 04005KT 1/4SM FG VV001 18/18 A2997 590 100 1200 050/05 RMK AO2
14840KMKG MKG20010823052510008/23/01 05:25:31  5-MIN KMKG 231025Z 04005KT 1/4SM FG VV001 18/18 A2997 580 100 1100 050/05 RMK AO2
14840KMKG MKG20010823053010008/23/01 05:30:31  5-MIN KMKG 231030Z 04007KT 1/4SM FG VV001 18/18 A2998 580 100 1100 040/07 RMK AO2
14840KMKG MKG20010823053510008/23/01 05:35:31  5-MIN KMKG 231035Z 03006KT 1/4SM FG VV001 18/18 A2998 570 100 1100 030/06 RMK AO2
14840KMKG MKG20010823054010008/23/01 05:40:31  5-MIN KMKG 231040Z 05005KT 1/2SM FG VV001 18/18 A2998 570 100 1100 050/05 RMK AO2
14840KMKG MKG20010823054510008/23/01 05:45:31  5-MIN KMKG 231045Z 04004KT 1/2SM FG VV001 18/18 A2998 570 100 1100 040/04 RMK AO2
14840KMKG MKG20010823055011708/23/01 05:50:31  5-MIN KMKG 231050Z 06004KT 1/2SM FG VV001 18/18 A2998 570 100 1100 060/04 RMK AO2 SLP150 T01830183
14840KMKG MKG20010823055511708/23/01 05:55:31  5-MIN KMKG 231055Z 05004KT 1/2SM FG VV001 18/18 A2998 570 100 1100 050/04 RMK AO2 SLP151 T01780178
14840KMKG MKG20010823060010008/23/01 06:00:31  5-MIN KMKG 231100Z 05005KT 1/2SM FG VV001 18/18 A2999 570 100 1100 060/05 RMK AO2
14840KMKG MKG20010823060510008/23/01 06:05:31  5-MIN KMKG 231105Z 05005KT 1/2SM FG VV001 18/18 A2999 570 100 1100 060/05 RMK AO2
14840KMKG MKG20010823061010008/23/01 06:10:31  5-MIN KMKG 231110Z 06006KT 1/2SM FG VV001 18/18 A2999 570 100 1100 070/06 RMK AO2
14840KMKG MKG20010823061510008/23/01 06:15:31  5-MIN KMKG 231115Z 05005KT 1/4SM FG VV001 18/18 A2999 570 100 1100 060/05 RMK AO2
14840KMKG MKG20010823062010008/23/01 06:20:31  5-MIN KMKG 231120Z 05007KT 1/4SM FG VV001 18/18 A2999 560 100 1100 060/07 RMK AO2
14840KMKG MKG20010823062510008/23/01 06:25:31  5-MIN KMKG 231125Z 05006KT 1/4SM FG VV001 18/18 A2999 560 100 1100 050/06 RMK AO2
14840KMKG MKG20010823063010008/23/01 06:30:31  5-MIN KMKG 231130Z 04006KT 1/4SM FG VV001 18/18 A3000 560 100 1100 040/06 RMK AO2
14840KMKG MKG20010823063510008/23/01 06:35:31  5-MIN KMKG 231135Z 06006KT 1/2SM FG VV001 18/18 A2999 560 100 1100 060/06 RMK AO2
14840KMKG MKG20010823064010008/23/01 06:40:31  5-MIN KMKG 231140Z 07005KT 1/2SM FG VV001 18/18 A2999 560 100 1100 070/05 RMK AO2
14840KMKG MKG20010823064510008/23/01 06:45:31  5-MIN KMKG 231145Z 05005KT 1/4SM FG VV001 18/18 A2999 560 100 1100 050/05 RMK AO2
14840KMKG MKG20010823065014208/23/01 06:50:31  5-MIN KMKG 231150Z 04006KT 1/4SM FG OVC001 18/18 A2999 560 100 1100 050/06 RMK AO2 SLP155 70057 T01780178 10194 20178 55006
14840KMKG MKG20010823065514208/23/01 06:55:31  5-MIN KMKG 231155Z 04006KT 1/4SM FG OVC001 18/18 A3000 560 100 1100 040/06 RMK AO2 SLP156 70057 T01780178 10194 20178 53015
14840KMKG MKG20010823070011308/23/01 07:00:31  5-MIN KMKG 231200Z 06005KT 1/4SM FG OVC001 18/18 A3000 560 100 1100 060/05 RMK AO2 SFC VIS 1/2
14840KMKG MKG20010823070511308/23/01 07:05:31  5-MIN KMKG 231205Z 06005KT 1/4SM FG OVC001 18/18 A3000 560 100 1100 060/05 RMK AO2 SFC VIS 1/2
14840KMKG MKG20010823071011308/23/01 07:10:31  5-MIN KMKG 231210Z 06006KT 1/4SM FG OVC001 18/18 A3000 550 100 1000 060/06 RMK AO2 SFC VIS 1/2
14840KMKG MKG20010823071511308/23/01 07:15:31  5-MIN KMKG 231215Z 06004KT 1/4SM FG OVC001 18/18 A3000 550 100 1000 070/04 RMK AO2 SFC VIS 1/2
14840KMKG MKG20010823072010108/23/01 07:20:31  5-MIN KMKG 231220Z 06004KT 1/4SM FG OVC001 18/18 A3001 550 100 1000 060/04 RMK AO2
14840KMKG MKG20010823072510008/23/01 07:25:31  5-MIN KMKG 231225Z 06004KT 1/4SM FG VV001 18/18 A3001 550 100 1000 060/04 RMK AO2
14840KMKG MKG20010823073009908/23/01 07:30:31  5-MIN KMKG 231230Z 03003KT 1/4SM FG VV001 18/18 A3001 540 96 1100 040/03 RMK AO2
14840KMKG MKG20010823073510008/23/01 07:35:31  5-MIN KMKG 231235Z 04004KT 1/4SM FG VV001 18/18 A3002 540 100 1100 050/04 RMK AO2
14840KMKG MKG20010823074011208/23/01 07:40:31  5-MIN KMKG 231240Z VRB05KT 1/4SM FG VV001 18/18 A3002 540 100 1100 VRB/05 RMK AO2 SFC VIS 1/2
14840KMKG MKG20010823074511308/23/01 07:45:31  5-MIN KMKG 231245Z 04004KT 1/4SM FG OVC001 18/18 A3002 540 100 1100 050/04 RMK AO2 SFC VIS 1/2
14840KMKG MKG20010823075013008/23/01 07:50:31  5-MIN KMKG 231250Z 04005KT 1/4SM FG OVC001 18/18 A3002 530 100 1100 040/05 RMK AO2 SFC VIS 1/2 SLP165 T01830183
14840KMKG MKG20010823075511808/23/01 07:55:31  5-MIN KMKG 231255Z 02005KT 1/2SM FG OVC001 18/18 A3003 530 100 1100 030/05 RMK AO2 SLP166 T01830183
14840KMKG MKG20010823080011508/23/01 08:00:31  5-MIN KMKG 231300Z 03005KT 3/4SM BR OVC001 18/18 A3003 530 100 1100 040/05 RMK AO2 SFC VIS 1 1/4
14840KMKG MKG20010823080511308/23/01 08:05:31  5-MIN KMKG 231305Z 04006KT 1SM BR OVC003 18/18 A3003 520 100 1100 050/06 RMK AO2 SFC VIS 1 1/2
14840KMKG MKG20010823081011308/23/01 08:10:31  5-MIN KMKG 231310Z 03004KT 1SM BR OVC003 18/18 A3003 530 100 1100 040/04 RMK AO2 SFC VIS 1 3/4
14840KMKG MKG20010823081511208/23/01 08:15:31  5-MIN KMKG 231315Z 04004KT 1SM BR OVC003 19/18 A3003 520 97 1100 040/04 RMK AO2 SFC VIS 1 3/4
14840KMKG MKG20010823082010908/23/01 08:20:31  5-MIN KMKG 231320Z 04005KT 1SM BR OVC003 19/19 A3004 520 100 1100 040/05 RMK AO2 SFC VIS 2
14840KMKG MKG20010823082511208/23/01 08:25:31  5-MIN KMKG 231325Z 06006KT 1SM BR OVC003 19/18 A3004 520 97 1100 060/06 RMK AO2 SFC VIS 2 1/2
14840KMKG MKG20010823083011208/23/01 08:30:31  5-MIN KMKG 231330Z 03005KT 1SM BR OVC003 19/18 A3004 520 97 1100 030/05 RMK AO2 SFC VIS 2 1/2
14840KMKG MKG20010823083512008/23/01 08:35:31  5-MIN KMKG 231335Z 03006KT 2 1/2SM BR OVC003 19/19 A3004 520 100 1100 030/06 RMK AO2 VIS 1 3/4 RWY 14
14840KMKG MKG20010823084010308/23/01 08:40:31  5-MIN KMKG 231340Z 04004KT 2 1/2SM BR OVC003 19/19 A3004 520 100 1100 040/04 RMK AO2
14840KMKG MKG20010823084511308/23/01 08:45:31  5-MIN KMKG 231345Z 06004KT 2 1/2SM BR OVC003 19/19 A3004 520 100 1100 060/04 RMK AO2 SFC VIS 3
14840KMKG MKG20010823085012908/23/01 08:50:31  5-MIN KMKG 231350Z 09003KT 2 1/2SM BR OVC003 19/19 A3004 520 97 1200 100/03 RMK AO2 SFC VIS 3 SLP170 T01940189
14840KMKG MKG20010823085512908/23/01 08:55:31  5-MIN KMKG 231355Z 08004KT 2 1/2SM BR OVC003 19/19 A3004 520 97 1200 080/04 RMK AO2 SFC VIS 3 SLP170 T01940189
14840KMKG MKG20010823090011208/23/01 09:00:31  5-MIN KMKG 231400Z 07005KT 2 1/2SM BR OVC003 19/19 A3004 520 97 1200 070/05 RMK AO2 SFC VIS 3
14840KMKG MKG20010823090511208/23/01 09:05:31  5-MIN KMKG 231405Z 06005KT 2 1/2SM BR OVC003 20/19 A3004 520 93 1300 060/05 RMK AO2 SFC VIS 4
14840KMKG MKG20010823091011908/23/01 09:10:31  5-MIN KMKG 231410Z 06006KT 2 1/2SM BR BKN003 OVC008 20/19 A3004 520 93 1300 060/06 RMK AO2 SFC VIS 4
14840KMKG MKG20010823091512408/23/01 09:15:31  5-MIN KMKG 231415Z 04006KT 2 1/2SM BR OVC006 20/19 A3004 520 93 1300 040/06 RMK AO2 SFC VIS 4 CIG 003V008
14840KMKG MKG20010823092012408/23/01 09:20:31  5-MIN KMKG 231420Z 05004KT 2 1/2SM BR OVC006 21/19 A3003 520 90 1300 050/04 RMK AO2 SFC VIS 5 CIG 003V008
14840KMKG MKG20010823092512408/23/01 09:25:31  5-MIN KMKG 231425Z 04006KT 2 1/2SM BR OVC006 21/19 A3004 520 90 1300 050/06 RMK AO2 SFC VIS 5 CIG 004V011
14840KMKG MKG20010823093012408/23/01 09:30:31  5-MIN KMKG 231430Z 06005KT 2 1/2SM BR OVC006 21/19 A3003 530 90 1300 060/05 RMK AO2 SFC VIS 5 CIG 004V011
14840KMKG MKG20010823093512408/23/01 09:35:31  5-MIN KMKG 231435Z 05005KT 2 1/2SM BR OVC006 21/19 A3003 530 90 1300 050/05 RMK AO2 SFC VIS 5 CIG 005V011
14840KMKG MKG20010823094012408/23/01 09:40:31  5-MIN KMKG 231440Z 06005KT 2 1/2SM BR OVC006 21/19 A3003 530 90 1300 060/05 RMK AO2 SFC VIS 5 CIG 006V011
14840KMKG MKG20010823094512408/23/01 09:45:31  5-MIN KMKG 231445Z 06004KT 2 1/2SM BR OVC006 21/19 A3003 530 87 1400 070/04 RMK AO2 SFC VIS 6 CIG 006V011
14840KMKG MKG20010823095014708/23/01 09:50:31  5-MIN KMKG 231450Z 08006KT 2 1/2SM BR OVC008 22/19 A3004 520 87 1500 080/06 RMK AO2 SFC VIS 6 CIG 006V011 SLP169 T02170194 53015
14840KMKG MKG20010823095514708/23/01 09:55:31  5-MIN KMKG 231455Z 08006KT 2 1/2SM HZ OVC008 22/19 A3004 520 84 1500 080/06 RMK AO2 SFC VIS 6 CIG 007V012 SLP169 T02170189 50013
14840KMKG MKG20010823100012808/23/01 10:00:31  5-MIN KMKG 231500Z 08007KT 2 1/2SM BKN008 BKN013 22/19 A3004 520 84 1500 080/07 RMK AO2 SFC VIS 7 CIG 007V011
14840KMKG MKG20010823100510708/23/01 10:05:31  5-MIN KMKG 231505Z 08006KT 7SM BKN010 22/19 A3004 520 84 1500 080/06 RMK AO2 CIG 007V013
14840KMKG MKG20010823101010708/23/01 10:10:31  5-MIN KMKG 231510Z VRB06KT 8SM BKN010 22/19 A3004 520 84 1500 VRB/06 RMK AO2 CIG 007V013
14840KMKG MKG20010823101509508/23/01 10:15:31  5-MIN KMKG 231515Z 06007KT 8SM BKN010 22/19 A3004 520 84 1500 060/07 RMK AO2
14840KMKG MKG20010823102009508/23/01 10:20:31  5-MIN KMKG 231520Z 06008KT 7SM BKN012 22/19 A3004 520 84 1500 070/08 RMK AO2
14840KMKG MKG20010823102509508/23/01 10:25:31  5-MIN KMKG 231525Z 06005KT 7SM BKN012 22/19 A3004 520 84 1500 070/05 RMK AO2
14840KMKG MKG20010823103009508/23/01 10:30:31  5-MIN KMKG 231530Z 05005KT 8SM BKN014 22/19 A3005 510 84 1400 050/05 RMK AO2
14840KMKG MKG20010823103509508/23/01 10:35:31  5-MIN KMKG 231535Z 05005KT 8SM BKN014 22/19 A3005 510 84 1500 060/05 RMK AO2
14840KMKG MKG20010823104009508/23/01 10:40:31  5-MIN KMKG 231540Z 02005KT 8SM BKN014 22/19 A3005 510 84 1500 020/05 RMK AO2
14840KMKG MKG20010823104509508/23/01 10:45:31  5-MIN KMKG 231545Z VRB05KT 8SM OVC014 23/19 A3005 510 81 1600 VRB/05 RMK AO2
14840KMKG MKG20010823105011208/23/01 10:50:31  5-MIN KMKG 231550Z 07005KT 8SM OVC014 23/19 A3005 510 81 1600 070/05 RMK AO2 SLP172 T02280194
14840KMKG MKG20010823105511208/23/01 10:55:31  5-MIN KMKG 231555Z 05005KT 8SM OVC014 23/19 A3005 510 81 1600 060/05 RMK AO2 SLP172 T02280194
14840KMKG MKG20010823110009508/23/01 11:00:31  5-MIN KMKG 231600Z 05003KT 8SM BKN016 23/19 A3005 510 78 1600 060/03 RMK AO2
14840KMKG MKG20010823110509508/23/01 11:05:31  5-MIN KMKG 231605Z 05005KT 8SM BKN016 23/19 A3005 510 78 1600 060/05 RMK AO2
14840KMKG MKG20010823111010208/23/01 11:10:31  5-MIN KMKG 231610Z 07003KT 9SM SCT016 BKN020 23/19 A3005 510 78 1600 070/03 RMK AO2
14840KMKG MKG20010823111510208/23/01 11:15:31  5-MIN KMKG 231615Z 07006KT 9SM FEW016 BKN022 24/19 A3005 510 76 1700 070/06 RMK AO2
14840KMKG MKG20010823112010308/23/01 11:20:31  5-MIN KMKG 231620Z 08006KT 10SM SCT020 SCT027 24/19 A3005 510 73 1800 090/06 RMK AO2
14840KMKG MKG20010823112510308/23/01 11:25:31  5-MIN KMKG 231625Z 04005KT 10SM SCT023 SCT027 24/19 A3005 510 76 1700 040/05 RMK AO2
14840KMKG MKG20010823113011808/23/01 11:30:31  5-MIN KMKG 231630Z 03006KT 10SM SCT023 BKN027 24/19 A3005 510 76 1700 040/06 RMK AO2 CIG 021 RWY 14
14840KMKG MKG20010823113510308/23/01 11:35:31  5-MIN KMKG 231635Z 04006KT 10SM SCT023 BKN027 24/19 A3005 510 73 1800 040/06 RMK AO2
14840KMKG MKG20010823114010308/23/01 11:40:31  5-MIN KMKG 231640Z 05005KT 10SM BKN025 BKN031 24/19 A3005 510 73 1800 060/05 RMK AO2
14840KMKG MKG20010823114510308/23/01 11:45:31  5-MIN KMKG 231645Z 04008KT 10SM BKN026 BKN031 24/19 A3005 510 73 1700 050/08 RMK AO2
14840KMKG MKG20010823115012008/23/01 11:50:31  5-MIN KMKG 231650Z 04005KT 10SM BKN026 BKN031 24/19 A3005 510 73 1700 040/05 RMK AO2 SLP174 T02390189
14840KMKG MKG20010823115512008/23/01 11:55:31  5-MIN KMKG 231655Z VRB04KT 10SM SCT026 BKN033 24/19 A3005 510 73 1800 VRB/04 RMK AO2 SLP174 T02440194
14840KMKG MKG20010823120011008/23/01 12:00:31  5-MIN KMKG 231700Z 09006KT 10SM FEW024 SCT029 BKN041 26/20 A3005 510 71 1900 090/06 RMK AO2
14840KMKG MKG20010823120511008/23/01 12:05:31  5-MIN KMKG 231705Z 07006KT 10SM FEW024 SCT029 BKN039 25/19 A3005 510 71 1800 070/06 RMK AO2
14840KMKG MKG20010823121011008/23/01 12:10:31  5-MIN KMKG 231710Z 06007KT 10SM SCT024 BKN034 BKN042 24/19 A3005 510 71 1800 070/07 RMK AO2
14840KMKG MKG20010823121510308/23/01 12:15:31  5-MIN KMKG 231715Z 05004KT 10SM BKN026 BKN038 24/19 A3005 510 71 1800 050/04 RMK AO2
14840KMKG MKG20010823122011808/23/01 12:20:31  5-MIN KMKG 231720Z 08005KT 10SM SCT026 BKN040 24/19 A3005 510 71 1800 080/05 RMK AO2 CIG 024 RWY 14
14840KMKG MKG20010823122511008/23/01 12:25:31  5-MIN KMKG 231725Z 08007KT 10SM SCT026 SCT035 OVC042 25/19 A3005 510 68 1800 080/07 RMK AO2
14840KMKG MKG20010823123010308/23/01 12:30:31  5-MIN KMKG 231730Z 03005KT 10SM SCT026 OVC040 25/19 A3005 510 68 1800 040/05 RMK AO2
14840KMKG MKG20010823123510308/23/01 12:35:31  5-MIN KMKG 231735Z 06004KT 10SM FEW026 OVC040 24/19 A3005 510 71 1800 060/04 RMK AO2
14840KMKG MKG20010823124011008/23/01 12:40:31  5-MIN KMKG 231740Z VRB04KT 10SM FEW028 BKN040 OVC046 25/19 A3005 510 68 1800 VRB/04 RMK AO2
14840KMKG MKG20010823124509608/23/01 12:45:31  5-MIN KMKG 231745Z VRB04KT 10SM BKN042 26/19 A3005 510 66 1900 VRB/04 RMK AO2
14840KMKG MKG20010823125013108/23/01 12:50:31  5-MIN KMKG 231750Z VRB05KT 10SM OVC042 25/19 A3005 510 71 1800 VRB/05 RMK AO2 SLP171 T02500194 10256 20178 50013
14840KMKG MKG20010823125513108/23/01 12:55:31  5-MIN KMKG 231755Z 00000KT 10SM BKN042 26/19 A3005 510 68 1900 000/00 RMK AO2 SLP171 T02560194 10256 20178 50004
14840KMKG MKG20010823130011008/23/01 13:00:31  5-MIN KMKG 231800Z 00000KT 10SM FEW026 SCT038 OVC045 25/19 A3005 510 68 1800 000/00 RMK AO2
14840KMKG MKG20010823130510308/23/01 13:05:31  5-MIN KMKG 231805Z 00000KT 10SM FEW026 BKN045 25/19 A3005 510 68 1800 000/00 RMK AO2
14840KMKG MKG20010823131010308/23/01 13:10:31  5-MIN KMKG 231810Z VRB05KT 10SM FEW026 BKN045 26/19 A3005 510 66 1900 VRB/05 RMK AO2
14840KMKG MKG20010823131510308/23/01 13:15:31  5-MIN KMKG 231815Z 09005KT 10SM FEW026 BKN045 26/19 A3005 510 66 2000 100/05 RMK AO2
14840KMKG MKG20010823132011008/23/01 13:20:31  5-MIN KMKG 231820Z 00000KT 10SM FEW026 SCT036 BKN045 26/19 A3005 510 64 2000 000/00 RMK AO2
14840KMKG MKG20010823132511808/23/01 13:25:31  5-MIN KMKG 231825Z 28008KT 10SM SCT031 BKN045 25/20 A3004 520 73 1800 280/08 RMK AO2 CIG 038 RWY 14
14840KMKG MKG20010823133012408/23/01 13:30:31  5-MIN KMKG 231830Z 29008KT 9SM SCT030 SCT036 BKN045 24/20 A3005 510 76 1800 300/08 RMK AO2 CIG 038 RWY 14
14840KMKG MKG20010823133512408/23/01 13:35:31  5-MIN KMKG 231835Z 28006KT 9SM SCT028 BKN036 BKN045 24/20 A3005 510 76 1800 280/06 RMK AO2 CIG 030 RWY 14
14840KMKG MKG20010823134010208/23/01 13:40:31  5-MIN KMKG 231840Z 27007KT 8SM BKN030 BKN039 24/20 A3005 510 76 1800 280/07 RMK AO2
14840KMKG MKG20010823134510208/23/01 13:45:31  5-MIN KMKG 231845Z 27007KT 8SM BKN030 BKN040 24/20 A3005 510 76 1800 270/07 RMK AO2
14840KMKG MKG20010823135011908/23/01 13:50:31  5-MIN KMKG 231850Z 28007KT 9SM BKN030 BKN038 24/20 A3005 510 78 1700 280/07 RMK AO2 SLP173 T02390200
14840KMKG MKG20010823135511908/23/01 13:55:31  5-MIN KMKG 231855Z 27009KT 9SM BKN030 BKN038 25/21 A3005 510 76 1800 280/09 RMK AO2 SLP173 T02500206
14840KMKG MKG20010823140011708/23/01 14:00:31  5-MIN KMKG 231900Z 29009KT 9SM SCT030 BKN044 25/20 A3005 510 73 1800 290/09 RMK AO2 CIG 032 RWY 14
14840KMKG MKG20010823140511708/23/01 14:05:31  5-MIN KMKG 231905Z 30009KT 9SM SCT032 BKN044 25/20 A3005 510 73 1800 300/09 RMK AO2 CIG 034 RWY 14
14840KMKG MKG20010823141011808/23/01 14:10:31  5-MIN KMKG 231910Z 28010KT 10SM FEW032 BKN042 25/20 A3005 510 73 1800 280/10 RMK AO2 CIG 034 RWY 14
14840KMKG MKG20010823141510308/23/01 14:15:31  5-MIN KMKG 231915Z 28011KT 10SM FEW030 SCT042 25/20 A3006 510 73 1800 290/11 RMK AO2
14840KMKG MKG20010823142010308/23/01 14:20:31  5-MIN KMKG 231920Z 28009KT 10SM FEW036 SCT045 25/19 A3006 510 71 1800 290/09 RMK AO2
14840KMKG MKG20010823142510308/23/01 14:25:31  5-MIN KMKG 231925Z 28009KT 10SM FEW036 SCT045 26/20 A3005 510 71 1900 290/09 RMK AO2
14840KMKG MKG20010823143009608/23/01 14:30:31  5-MIN KMKG 231930Z 29009KT 10SM FEW038 26/20 A3005 510 71 1900 290/09 RMK AO2
14840KMKG MKG20010823143509608/23/01 14:35:31  5-MIN KMKG 231935Z 31010KT 10SM FEW038 25/19 A3005 510 71 1800 310/10 RMK AO2
14840KMKG MKG20010823144009508/23/01 14:40:31  5-MIN KMKG 231940Z 29011KT 9SM SCT030 25/20 A3005 510 73 1800 300/11 RMK AO2
14840KMKG MKG20010823144509508/23/01 14:45:31  5-MIN KMKG 231945Z 30009KT 9SM SCT030 26/20 A3005 510 71 1900 300/09 RMK AO2
14840KMKG MKG20010823145011208/23/01 14:50:31  5-MIN KMKG 231950Z 31008KT 9SM SCT030 25/19 A3005 510 71 1800 310/08 RMK AO2 SLP174 T02500194
14840KMKG MKG20010823145511208/23/01 14:55:31  5-MIN KMKG 231955Z 29010KT 8SM SCT030 25/20 A3006 510 73 1800 290/10 RMK AO2 SLP174 T02500200
14840KMKG MKG20010823150009208/23/01 15:00:31  5-MIN KMKG 232000Z 31009KT 8SM CLR 25/20 A3006 500 73 1800 310/09 RMK AO2
14840KMKG MKG20010823150509508/23/01 15:05:31  5-MIN KMKG 232005Z 32009KT 8SM FEW034 25/19 A3005 510 71 1800 320/09 RMK AO2
14840KMKG MKG20010823151009508/23/01 15:10:31  5-MIN KMKG 232010Z 29008KT 8SM FEW034 26/20 A3005 510 71 1900 300/08 RMK AO2
14840KMKG MKG20010823151509508/23/01 15:15:31  5-MIN KMKG 232015Z 30007KT 8SM FEW034 25/19 A3005 510 71 1800 300/07 RMK AO2
14840KMKG MKG20010823152009508/23/01 15:20:31  5-MIN KMKG 232020Z 30010KT 7SM FEW034 25/19 A3005 510 71 1800 310/10 RMK AO2
14840KMKG MKG20010823152509508/23/01 15:25:31  5-MIN KMKG 232025Z 30009KT 7SM FEW034 24/19 A3005 510 73 1800 300/09 RMK AO2
14840KMKG MKG20010823153009508/23/01 15:30:31  5-MIN KMKG 232030Z 30007KT 7SM FEW034 24/19 A3005 510 73 1800 300/07 RMK AO2
14840KMKG MKG20010823153510808/23/01 15:35:31  5-MIN KMKG 232035Z 30007KT 250V350 7SM CLR 24/19 A3005 510 76 1700 300/07 250V350 RMK AO2
14840KMKG MKG20010823154009508/23/01 15:40:31  5-MIN KMKG 232040Z 28008KT 6SM HZ CLR 24/20 A3005 510 78 1700 280/08 RMK AO2
14840KMKG MKG20010823154509508/23/01 15:45:31  5-MIN KMKG 232045Z 28009KT 6SM HZ CLR 24/20 A3006 510 78 1700 280/09 RMK AO2
14840KMKG MKG20010823155012108/23/01 15:50:31  5-MIN KMKG 232050Z 29008KT 6SM HZ FEW035 24/20 A3006 500 78 1700 300/08 RMK AO2 SLP175 T02390200 50004
14840KMKG MKG20010823155512108/23/01 15:55:31  5-MIN KMKG 232055Z 28008KT 6SM HZ FEW035 24/19 A3006 500 76 1700 290/08 RMK AO2 SLP175 T02390194 51004
14840KMKG MKG20010823160009508/23/01 16:00:31  5-MIN KMKG 232100Z 28007KT 6SM HZ CLR 24/20 A3006 500 78 1700 290/07 RMK AO2
14840KMKG MKG20010823160509208/23/01 16:05:31  5-MIN KMKG 232105Z 29007KT 7SM CLR 24/20 A3006 510 76 1800 300/07 RMK AO2
14840KMKG MKG20010823161009208/23/01 16:10:31  5-MIN KMKG 232110Z 30008KT 7SM CLR 24/19 A3006 510 73 1800 310/08 RMK AO2
14840KMKG MKG20010823161509208/23/01 16:15:31  5-MIN KMKG 232115Z 29008KT 7SM CLR 24/19 A3006 510 73 1800 290/08 RMK AO2
14840KMKG MKG20010823162009208/23/01 16:20:31  5-MIN KMKG 232120Z 30007KT 8SM CLR 24/19 A3005 510 73 1800 300/07 RMK AO2
14840KMKG MKG20010823162509208/23/01 16:25:31  5-MIN KMKG 232125Z 32008KT 8SM CLR 24/19 A3005 510 73 1800 320/08 RMK AO2
14840KMKG MKG20010823163009208/23/01 16:30:31  5-MIN KMKG 232130Z 30008KT 8SM CLR 24/19 A3005 510 73 1800 300/08 RMK AO2
14840KMKG MKG20010823163509208/23/01 16:35:31  5-MIN KMKG 232135Z 30007KT 8SM CLR 24/19 A3006 510 73 1800 310/07 RMK AO2
14840KMKG MKG20010823164009208/23/01 16:40:31  5-MIN KMKG 232140Z 29007KT 8SM CLR 24/19 A3006 510 76 1700 300/07 RMK AO2
14840KMKG MKG20010823164509208/23/01 16:45:31  5-MIN KMKG 232145Z 29006KT 8SM CLR 24/19 A3006 500 73 1800 300/06 RMK AO2
14840KMKG MKG20010823165011208/23/01 16:50:31  5-MIN KMKG 232150Z 30006KT 8SM FEW035 24/19 A3006 510 73 1800 300/06 RMK AO2 SLP175 T02440194
14840KMKG MKG20010823192509208/23/01 19:25:31  5-MIN KMKG 240025Z 29004KT 7SM CLR 22/20 A3006 500 87 1500 290/04 RMK AO2
14840KMKG MKG20010823193009208/23/01 19:30:31  5-MIN KMKG 240030Z 30004KT 7SM CLR 22/20 A3006 500 87 1500 310/04 RMK AO2
14840KMKG MKG20010823193509208/23/01 19:35:31  5-MIN KMKG 240035Z 30005KT 7SM CLR 22/19 A3006 500 87 1400 300/05 RMK AO2
14840KMKG MKG20010823194009208/23/01 19:40:31  5-MIN KMKG 240040Z 30004KT 7SM CLR 22/19 A3006 500 87 1400 310/04 RMK AO2
14840KMKG MKG20010823194509508/23/01 19:45:31  5-MIN KMKG 240045Z 30004KT 6SM BR CLR 22/19 A3006 500 87 1400 310/04 RMK AO2
14840KMKG MKG20010823195011208/23/01 19:50:31  5-MIN KMKG 240050Z 30005KT 6SM BR CLR 22/19 A3006 500 87 1400 300/05 RMK AO2 SLP178 T02170194
14840KMKG MKG20010823195511208/23/01 19:55:31  5-MIN KMKG 240055Z 30004KT 6SM BR CLR 21/19 A3006 500 90 1400 310/04 RMK AO2 SLP178 T02110194
14840KMKG MKG20010823200009208/23/01 20:00:31  5-MIN KMKG 240100Z 32004KT 7SM CLR 21/19 A3006 500 90 1400 320/04 RMK AO2
14840KMKG MKG20010823200509208/23/01 20:05:31  5-MIN KMKG 240105Z 32004KT 7SM CLR 21/19 A3006 500 87 1400 320/04 RMK AO2
14840KMKG MKG20010823201009208/23/01 20:10:31  5-MIN KMKG 240110Z 31003KT 7SM CLR 21/19 A3007 490 87 1400 320/03 RMK AO2
14840KMKG MKG20010823201509208/23/01 20:15:31  5-MIN KMKG 240115Z 31003KT 7SM CLR 21/19 A3007 490 87 1400 320/03 RMK AO2
14840KMKG MKG20010823202009208/23/01 20:20:31  5-MIN KMKG 240120Z 33003KT 7SM CLR 21/19 A3007 490 87 1400 330/03 RMK AO2
14840KMKG MKG20010823202509208/23/01 20:25:31  5-MIN KMKG 240125Z 32003KT 7SM CLR 21/19 A3007 490 90 1300 330/03 RMK AO2
14840KMKG MKG20010823203009508/23/01 20:30:31  5-MIN KMKG 240130Z 34003KT 6SM BR CLR 20/19 A3008 490 93 1200 340/03 RMK AO2
14840KMKG MKG20010823203509508/23/01 20:35:31  5-MIN KMKG 240135Z 33003KT 6SM BR CLR 20/19 A3008 480 93 1200 330/03 RMK AO2
14840KMKG MKG20010823204009508/23/01 20:40:31  5-MIN KMKG 240140Z 33003KT 6SM BR CLR 20/19 A3008 480 93 1200 330/03 RMK AO2
14840KMKG MKG20010823204509508/23/01 20:45:31  5-MIN KMKG 240145Z 32003KT 6SM BR CLR 21/19 A3008 480 90 1300 330/03 RMK AO2
14840KMKG MKG20010823205010908/23/01 20:50:31  5-MIN KMKG 240150Z 00000KT 7SM CLR 22/19 A3008 480 87 1400 000/00 RMK AO2 SLP184 T02170194
14840KMKG MKG20010823205510908/23/01 20:55:31  5-MIN KMKG 240155Z 00000KT 7SM CLR 21/19 A3008 480 90 1300 000/00 RMK AO2 SLP184 T02110194
14840KMKG MKG20010823210009508/23/01 21:00:31  5-MIN KMKG 240200Z 00000KT 6SM BR CLR 21/19 A3008 480 90 1300 000/00 RMK AO2
14840KMKG MKG20010823210509508/23/01 21:05:31  5-MIN KMKG 240205Z 00000KT 6SM BR CLR 21/19 A3009 480 90 1300 000/00 RMK AO2
14840KMKG MKG20010823211009508/23/01 21:10:31  5-MIN KMKG 240210Z 00000KT 6SM BR CLR 21/19 A3009 480 87 1300 000/00 RMK AO2
14840KMKG MKG20010823211509508/23/01 21:15:31  5-MIN KMKG 240215Z 00000KT 6SM BR CLR 21/19 A3009 480 90 1300 000/00 RMK AO2
14840KMKG MKG20010823212009808/23/01 21:20:31  5-MIN KMKG 240220Z 00000KT 6SM BR FEW050 20/19 A3009 470 93 1200 000/00 RMK AO2
14840KMKG MKG20010823212509808/23/01 21:25:31  5-MIN KMKG 240225Z 34003KT 6SM BR FEW050 20/19 A3009 470 93 1200 350/03 RMK AO2
14840KMKG MKG20010823213009808/23/01 21:30:31  5-MIN KMKG 240230Z 36003KT 5SM BR FEW050 21/19 A3009 470 90 1300 360/03 RMK AO2
14840KMKG MKG20010823213509808/23/01 21:35:31  5-MIN KMKG 240235Z 36003KT 5SM BR FEW050 21/19 A3009 470 93 1300 360/03 RMK AO2
14840KMKG MKG20010823214009808/23/01 21:40:31  5-MIN KMKG 240240Z 01006KT 5SM BR FEW050 21/19 A3009 470 93 1300 010/06 RMK AO2
14840KMKG MKG20010823214509808/23/01 21:45:31  5-MIN KMKG 240245Z 01006KT 6SM BR FEW050 21/19 A3009 470 90 1300 020/06 RMK AO2
14840KMKG MKG20010823215011508/23/01 21:50:31  5-MIN KMKG 240250Z 02006KT 7SM CLR 21/19 A3009 470 90 1300 020/06 RMK AO2 SLP186 T02110194 55000
14840KMKG MKG20010823215511508/23/01 21:55:31  5-MIN KMKG 240255Z 02006KT 7SM CLR 21/19 A3009 470 90 1300 020/06 RMK AO2 SLP187 T02110194 53012
14840KMKG MKG20010823220009208/23/01 22:00:31  5-MIN KMKG 240300Z 03007KT 7SM CLR 21/19 A3010 470 90 1300 030/07 RMK AO2
14840KMKG MKG20010823220509208/23/01 22:05:31  5-MIN KMKG 240305Z 03006KT 7SM CLR 21/19 A3010 470 90 1300 030/06 RMK AO2
14840KMKG MKG20010823221009208/23/01 22:10:31  5-MIN KMKG 240310Z 02007KT 7SM CLR 22/19 A3010 470 87 1400 020/07 RMK AO2
14840KMKG MKG20010823221509208/23/01 22:15:31  5-MIN KMKG 240315Z 03007KT 7SM CLR 21/19 A3010 470 90 1300 030/07 RMK AO2
14840KMKG MKG20010823222009208/23/01 22:20:31  5-MIN KMKG 240320Z 05006KT 7SM CLR 21/19 A3010 470 90 1300 050/06 RMK AO2
14840KMKG MKG20010823222509208/23/01 22:25:31  5-MIN KMKG 240325Z 05008KT 7SM CLR 21/19 A3010 470 90 1300 050/08 RMK AO2
14840KMKG MKG20010823223009208/23/01 22:30:31  5-MIN KMKG 240330Z 05007KT 7SM CLR 21/19 A3010 470 90 1300 060/07 RMK AO2
14840KMKG MKG20010823223509208/23/01 22:35:31  5-MIN KMKG 240335Z 06006KT 7SM CLR 21/19 A3010 470 90 1300 060/06 RMK AO2
14840KMKG MKG20010823224009208/23/01 22:40:31  5-MIN KMKG 240340Z 07006KT 7SM CLR 21/19 A3010 470 93 1300 070/06 RMK AO2
14840KMKG MKG20010823224509208/23/01 22:45:31  5-MIN KMKG 240345Z 06005KT 7SM CLR 21/19 A3010 470 93 1300 070/05 RMK AO2
14840KMKG MKG20010823225010908/23/01 22:50:31  5-MIN KMKG 240350Z 06006KT 7SM CLR 21/19 A3010 470 90 1300 070/06 RMK AO2 SLP189 T02060189
14840KMKG MKG20010823225510908/23/01 22:55:31  5-MIN KMKG 240355Z 06006KT 7SM CLR 21/19 A3010 470 90 1300 070/06 RMK AO2 SLP188 T02060189
14840KMKG MKG20010823230009208/23/01 23:00:31  5-MIN KMKG 240400Z 07007KT 7SM CLR 21/19 A3010 470 90 1300 070/07 RMK AO2
14840KMKG MKG20010823230509208/23/01 23:05:31  5-MIN KMKG 240405Z 07006KT 7SM CLR 21/19 A3010 470 90 1300 080/06 RMK AO2
14840KMKG MKG20010823231009508/23/01 23:10:31  5-MIN KMKG 240410Z 08008KT 7SM FEW060 21/19 A3010 470 90 1300 080/08 RMK AO2
14840KMKG MKG20010823231509508/23/01 23:15:31  5-MIN KMKG 240415Z 08007KT 8SM SCT060 21/19 A3010 460 90 1300 080/07 RMK AO2
14840KMKG MKG20010823232009508/23/01 23:20:31  5-MIN KMKG 240420Z 08008KT 8SM BKN060 20/19 A3010 460 93 1200 080/08 RMK AO2
14840KMKG MKG20010823232509508/23/01 23:25:31  5-MIN KMKG 240425Z 07009KT 8SM BKN060 20/19 A3010 460 93 1200 080/09 RMK AO2
14840KMKG MKG20010823233009508/23/01 23:30:31  5-MIN KMKG 240430Z 07008KT 9SM SCT060 20/19 A3010 460 93 1200 080/08 RMK AO2
14840KMKG MKG20010823233509508/23/01 23:35:31  5-MIN KMKG 240435Z 08007KT 9SM BKN055 20/19 A3011 460 93 1200 080/07 RMK AO2
14840KMKG MKG20010823234009508/23/01 23:40:31  5-MIN KMKG 240440Z 08009KT 9SM BKN055 20/19 A3011 460 93 1200 080/09 RMK AO2
14840KMKG MKG20010823234509508/23/01 23:45:31  5-MIN KMKG 240445Z 08008KT 9SM BKN055 20/19 A3011 460 93 1200 080/08 RMK AO2
14840KMKG MKG20010823235012208/23/01 23:50:31  5-MIN KMKG 240450Z 08008KT 9SM SCT055 20/19 A3011 460 93 1200 090/08 RMK AO2 SLP193 T02000189 402610178
14840KMKG MKG20010823235512208/23/01 23:55:31  5-MIN KMKG 240455Z 08007KT 9SM SCT055 20/19 A3011 460 93 1200 090/07 RMK AO2 SLP193 T02000189 402610178
14840KMKG MKG20010824000009508/24/01 00:00:31  5-MIN KMKG 240500Z 09007KT 8SM BKN055 20/19 A3011 450 93 1200 090/07 RMK AO2
14840KMKG MKG20010824000509508/24/01 00:05:31  5-MIN KMKG 240505Z 09005KT 8SM BKN050 20/19 A3011 450 93 1200 090/05 RMK AO2
14840KMKG MKG20010824001009508/24/01 00:10:31  5-MIN KMKG 240510Z 09006KT 8SM BKN055 20/19 A3011 450 93 1200 090/06 RMK AO2
14840KMKG MKG20010824001509508/24/01 00:15:31  5-MIN KMKG 240515Z 08006KT 8SM SCT055 20/19 A3011 450 93 1200 090/06 RMK AO2
14840KMKG MKG20010824002009508/24/01 00:20:31  5-MIN KMKG 240520Z 08006KT 8SM SCT050 19/19 A3011 450 97 1100 080/06 RMK AO2
14840KMKG MKG20010824002509508/24/01 00:25:31  5-MIN KMKG 240525Z 07007KT 7SM SCT050 19/19 A3011 450 97 1100 080/07 RMK AO2
14840KMKG MKG20010824003009508/24/01 00:30:31  5-MIN KMKG 240530Z 07005KT 7SM FEW055 19/19 A3012 450 97 1100 070/05 RMK AO2
14840KMKG MKG20010824003509508/24/01 00:35:31  5-MIN KMKG 240535Z 07006KT 7SM FEW055 19/19 A3012 450 97 1100 070/06 RMK AO2
14840KMKG MKG20010824004009208/24/01 00:40:31  5-MIN KMKG 240540Z 07007KT 7SM CLR 19/18 A3012 450 93 1100 070/07 RMK AO2
14840KMKG MKG20010824004509208/24/01 00:45:31  5-MIN KMKG 240545Z 07007KT 7SM CLR 19/18 A3012 450 93 1100 080/07 RMK AO2
14840KMKG MKG20010824005013008/24/01 00:50:31  5-MIN KMKG 240550Z 08007KT 6SM BR CLR 19/18 A3012 450 93 1100 080/07 RMK AO2 SLP195 T01940183 10233 20194 53012
14840KMKG MKG20010824005513008/24/01 00:55:31  5-MIN KMKG 240555Z 08008KT 6SM BR CLR 19/18 A3011 450 93 1100 090/08 RMK AO2 SLP194 T01940183 10233 20194 53007
14840KMKG MKG20010824010009508/24/01 01:00:31  5-MIN KMKG 240600Z 08007KT 6SM BR CLR 19/18 A3011 450 93 1100 080/07 RMK AO2
14840KMKG MKG20010824010509508/24/01 01:05:31  5-MIN KMKG 240605Z 09008KT 6SM BR CLR 19/18 A3011 450 97 1100 090/08 RMK AO2
14840KMKG MKG20010824011009508/24/01 01:10:31  5-MIN KMKG 240610Z 09008KT 6SM BR CLR 19/18 A3011 450 97 1100 090/08 RMK AO2
14840KMKG MKG20010824011509508/24/01 01:15:31  5-MIN KMKG 240615Z 08009KT 6SM BR CLR 19/18 A3011 450 97 1100 080/09 RMK AO2
14840KMKG MKG20010824012009508/24/01 01:20:31  5-MIN KMKG 240620Z 09008KT 6SM BR CLR 19/18 A3011 450 93 1100 090/08 RMK AO2
14840KMKG MKG20010824012509208/24/01 01:25:31  5-MIN KMKG 240625Z 09007KT 7SM CLR 19/18 A3011 450 93 1100 090/07 RMK AO2
14840KMKG MKG20010824013009208/24/01 01:30:31  5-MIN KMKG 240630Z 09006KT 7SM CLR 19/18 A3012 450 93 1100 090/06 RMK AO2
14840KMKG MKG20010824013509208/24/01 01:35:31  5-MIN KMKG 240635Z 08007KT 7SM CLR 19/18 A3011 450 93 1100 090/07 RMK AO2
14840KMKG MKG20010824014009508/24/01 01:40:31  5-MIN KMKG 240640Z 08008KT 6SM BR CLR 19/18 A3011 450 93 1100 080/08 RMK AO2
14840KMKG MKG20010824014509508/24/01 01:45:31  5-MIN KMKG 240645Z 08008KT 6SM BR CLR 19/18 A3011 450 93 1100 090/08 RMK AO2
14840KMKG MKG20010824015011208/24/01 01:50:31  5-MIN KMKG 240650Z 08008KT 6SM BR CLR 18/18 A3011 460 96 1000 090/08 RMK AO2 SLP193 T01830178
14840KMKG MKG20010824015511208/24/01 01:55:31  5-MIN KMKG 240655Z 08008KT 6SM BR CLR 18/17 A3011 460 93 1000 080/08 RMK AO2 SLP193 T01830172
14840KMKG MKG20010824020009208/24/01 02:00:31  5-MIN KMKG 240700Z 09007KT 7SM CLR 18/17 A3011 450 93 1000 090/07 RMK AO2
14840KMKG MKG20010824020509208/24/01 02:05:31  5-MIN KMKG 240705Z 09006KT 7SM CLR 18/17 A3011 450 93 1000 100/06 RMK AO2
14840KMKG MKG20010824021009208/24/01 02:10:31  5-MIN KMKG 240710Z 09007KT 7SM CLR 18/17 A3012 450 93 1000 090/07 RMK AO2
14840KMKG MKG20010824021509208/24/01 02:15:31  5-MIN KMKG 240715Z 09006KT 7SM CLR 18/17 A3012 450 93 1000 090/06 RMK AO2
14840KMKG MKG20010824022009208/24/01 02:20:31  5-MIN KMKG 240720Z 09006KT 7SM CLR 18/17 A3012 450 93 1000 090/06 RMK AO2
14840KMKG MKG20010824022509208/24/01 02:25:31  5-MIN KMKG 240725Z 08008KT 7SM CLR 18/17 A3012 440 93 1000 080/08 RMK AO2
14840KMKG MKG20010824023009508/24/01 02:30:31  5-MIN KMKG 240730Z 08007KT 6SM BR CLR 18/17 A3012 440 93 1000 080/07 RMK AO2
14840KMKG MKG20010824023509408/24/01 02:35:31  5-MIN KMKG 240735Z 08007KT 6SM BR CLR 18/17 A3012 440 96 900 090/07 RMK AO2
14840KMKG MKG20010824024009408/24/01 02:40:31  5-MIN KMKG 240740Z 08008KT 6SM BR CLR 18/17 A3012 440 96 900 090/08 RMK AO2
14840KMKG MKG20010824024509408/24/01 02:45:31  5-MIN KMKG 240745Z 08008KT 6SM BR CLR 18/17 A3012 440 96 900 090/08 RMK AO2
14840KMKG MKG20010824025011108/24/01 02:50:31  5-MIN KMKG 240750Z 08007KT 6SM BR CLR 18/17 A3012 440 96 900 080/07 RMK AO2 SLP198 T01780172
14840KMKG MKG20010824025511108/24/01 02:55:31  5-MIN KMKG 240755Z 08007KT 6SM BR CLR 18/17 A3013 440 93 900 080/07 RMK AO2 SLP199 T01780167
14840KMKG MKG20010824030009408/24/01 03:00:31  5-MIN KMKG 240800Z 08006KT 6SM BR CLR 18/17 A3013 440 93 900 080/06 RMK AO2
14840KMKG MKG20010824030509408/24/01 03:05:31  5-MIN KMKG 240805Z 08006KT 6SM BR CLR 18/17 A3013 440 93 900 090/06 RMK AO2
14840KMKG MKG20010824031009408/24/01 03:10:31  5-MIN KMKG 240810Z 08006KT 6SM BR CLR 18/17 A3013 440 93 900 080/06 RMK AO2
14840KMKG MKG20010824031509408/24/01 03:15:31  5-MIN KMKG 240815Z 08005KT 5SM BR CLR 18/17 A3013 440 93 900 090/05 RMK AO2
14840KMKG MKG20010824032009408/24/01 03:20:31  5-MIN KMKG 240820Z 08005KT 5SM BR CLR 18/17 A3013 440 93 900 080/05 RMK AO2
14840KMKG MKG20010824032509408/24/01 03:25:31  5-MIN KMKG 240825Z 08006KT 5SM BR CLR 17/17 A3013 440 96 800 080/06 RMK AO2
14840KMKG MKG20010824033009408/24/01 03:30:31  5-MIN KMKG 240830Z 08007KT 5SM BR CLR 17/17 A3013 440 96 800 080/07 RMK AO2
14840KMKG MKG20010824033509408/24/01 03:35:31  5-MIN KMKG 240835Z 08009KT 5SM BR CLR 17/17 A3012 440 96 800 080/09 RMK AO2
14840KMKG MKG20010824034009408/24/01 03:40:31  5-MIN KMKG 240840Z 08010KT 5SM BR CLR 17/17 A3013 440 96 800 080/10 RMK AO2
14840KMKG MKG20010824034509408/24/01 03:45:31  5-MIN KMKG 240845Z 09008KT 5SM BR CLR 17/17 A3013 440 96 800 090/08 RMK AO2
14840KMKG MKG20010824035011708/24/01 03:50:31  5-MIN KMKG 240850Z 09006KT 5SM BR CLR 17/17 A3013 440 96 800 090/06 RMK AO2 SLP201 T01720167 53007
14840KMKG MKG20010824035511708/24/01 03:55:31  5-MIN KMKG 240855Z 09007KT 5SM BR CLR 17/17 A3013 440 96 800 090/07 RMK AO2 SLP201 T01720167 53006
14840KMKG MKG20010824040009408/24/01 04:00:31  5-MIN KMKG 240900Z 09006KT 5SM BR CLR 17/17 A3013 430 96 800 090/06 RMK AO2
14840KMKG MKG20010824040509408/24/01 04:05:31  5-MIN KMKG 240905Z 09007KT 5SM BR CLR 17/17 A3013 430 96 800 100/07 RMK AO2
14840KMKG MKG20010824041009408/24/01 04:10:31  5-MIN KMKG 240910Z 10006KT 5SM BR CLR 17/17 A3014 430 96 800 100/06 RMK AO2
14840KMKG MKG20010824041509408/24/01 04:15:31  5-MIN KMKG 240915Z 10005KT 5SM BR CLR 17/17 A3014 430 96 800 110/05 RMK AO2
14840KMKG MKG20010824042009408/24/01 04:20:31  5-MIN KMKG 240920Z 11006KT 4SM BR CLR 17/17 A3014 430 96 800 110/06 RMK AO2
14840KMKG MKG20010824042509408/24/01 04:25:31  5-MIN KMKG 240925Z 10005KT 4SM BR CLR 17/17 A3014 430 96 800 100/05 RMK AO2
14840KMKG MKG20010824043009408/24/01 04:30:31  5-MIN KMKG 240930Z 10005KT 4SM BR CLR 17/17 A3014 430 96 800 100/05 RMK AO2
14840KMKG MKG20010824043509708/24/01 04:35:31  5-MIN KMKG 240935Z 10005KT 4SM BR FEW024 17/17 A3014 430 96 800 100/05 RMK AO2
14840KMKG MKG20010824044009708/24/01 04:40:31  5-MIN KMKG 240940Z 09007KT 4SM BR SCT024 17/17 A3014 430 96 800 090/07 RMK AO2
14840KMKG MKG20010824044509708/24/01 04:45:31  5-MIN KMKG 240945Z 09005KT 4SM BR FEW024 17/17 A3014 430 96 800 090/05 RMK AO2
14840KMKG MKG20010824045011408/24/01 04:50:31  5-MIN KMKG 240950Z 09006KT 4SM BR FEW024 17/17 A3014 430 96 800 090/06 RMK AO2 SLP204 T01720167
14840KMKG MKG20010824045511408/24/01 04:55:31  5-MIN KMKG 240955Z 09005KT 4SM BR FEW024 17/17 A3014 430 96 800 090/05 RMK AO2 SLP203 T01720167
14840KMKG MKG20010824050009708/24/01 05:00:31  5-MIN KMKG 241000Z 10005KT 4SM BR FEW024 17/17 A3014 430 96 800 100/05 RMK AO2
14840KMKG MKG20010824050509408/24/01 05:05:31  5-MIN KMKG 241005Z 11004KT 4SM BR CLR 17/17 A3014 420 96 800 110/04 RMK AO2
14840KMKG MKG20010824051009408/24/01 05:10:31  5-MIN KMKG 241010Z 10005KT 4SM BR CLR 17/17 A3014 430 96 800 100/05 RMK AO2
14840KMKG MKG20010824051509408/24/01 05:15:31  5-MIN KMKG 241015Z 09006KT 4SM BR CLR 17/17 A3014 430 96 800 090/06 RMK AO2
14840KMKG MKG20010824052009408/24/01 05:20:31  5-MIN KMKG 241020Z 09006KT 4SM BR CLR 17/17 A3014 430 96 800 090/06 RMK AO2
14840KMKG MKG20010824052509408/24/01 05:25:31  5-MIN KMKG 241025Z 09006KT 4SM BR CLR 17/17 A3014 430 96 800 090/06 RMK AO2
14840KMKG MKG20010824053009408/24/01 05:30:31  5-MIN KMKG 241030Z 09006KT 4SM BR CLR 17/17 A3014 430 96 800 090/06 RMK AO2
14840KMKG MKG20010824053509408/24/01 05:35:31  5-MIN KMKG 241035Z 09007KT 4SM BR CLR 17/17 A3014 430 96 800 090/07 RMK AO2
14840KMKG MKG20010824054009408/24/01 05:40:31  5-MIN KMKG 241040Z 09006KT 3SM BR CLR 17/17 A3014 430 96 800 100/06 RMK AO2
14840KMKG MKG20010824054509408/24/01 05:45:31  5-MIN KMKG 241045Z 10005KT 4SM BR CLR 17/17 A3014 420 96 800 110/05 RMK AO2
14840KMKG MKG20010824055011208/24/01 05:50:31  5-MIN KMKG 241050Z 10005KT 4SM BR CLR 17/17 A3015 420 100 800 100/05 RMK AO2 SLP206 T01670167
14840KMKG MKG20010824055511108/24/01 05:55:31  5-MIN KMKG 241055Z 09006KT 4SM BR CLR 17/17 A3015 420 96 800 100/06 RMK AO2 SLP207 T01720167
14840KMKG MKG20010824060009408/24/01 06:00:31  5-MIN KMKG 241100Z 09006KT 4SM BR CLR 17/17 A3015 420 96 800 090/06 RMK AO2
14840KMKG MKG20010824060509708/24/01 06:05:31  5-MIN KMKG 241105Z 09006KT 3SM BR FEW011 17/17 A3015 420 96 800 100/06 RMK AO2
14840KMKG MKG20010824061010108/24/01 06:10:31  5-MIN KMKG 241110Z 10006KT 2 1/2SM BR FEW011 17/17 A3015 420 96 800 100/06 RMK AO2
14840KMKG MKG20010824061509708/24/01 06:15:31  5-MIN KMKG 241115Z 09007KT 3SM BR FEW032 17/17 A3015 420 96 800 100/07 RMK AO2
14840KMKG MKG20010824062009708/24/01 06:20:31  5-MIN KMKG 241120Z 09006KT 3SM BR FEW032 17/17 A3015 420 96 800 090/06 RMK AO2
14840KMKG MKG20010824062509708/24/01 06:25:31  5-MIN KMKG 241125Z 09006KT 3SM BR FEW012 17/17 A3015 420 96 800 090/06 RMK AO2
14840KMKG MKG20010824063009708/24/01 06:30:31  5-MIN KMKG 241130Z 09006KT 3SM BR FEW012 17/17 A3015 420 96 800 090/06 RMK AO2
14840KMKG MKG20010824063509708/24/01 06:35:31  5-MIN KMKG 241135Z 10007KT 3SM BR FEW012 17/17 A3015 420 96 800 110/07 RMK AO2
14840KMKG MKG20010824064009708/24/01 06:40:31  5-MIN KMKG 241140Z 11007KT 3SM BR SCT012 17/17 A3015 420 96 800 110/07 RMK AO2
14840KMKG MKG20010824064509708/24/01 06:45:31  5-MIN KMKG 241145Z 11006KT 3SM BR BKN012 17/17 A3016 410 96 800 110/06 RMK AO2
14840KMKG MKG20010824065013208/24/01 06:50:31  5-MIN KMKG 241150Z 10007KT 4SM BR BKN012 18/17 A3016 410 93 900 110/07 RMK AO2 SLP210 T01780167 10194 20167 53006
14840KMKG MKG20010824065513208/24/01 06:55:31  5-MIN KMKG 241155Z 10008KT 4SM BR BKN012 18/17 A3016 410 93 900 110/08 RMK AO2 SLP209 T01780167 10194 20167 53008
14840KMKG MKG20010824070009708/24/01 07:00:31  5-MIN KMKG 241200Z 11009KT 4SM BR OVC012 18/17 A3016 410 93 900 110/09 RMK AO2
14840KMKG MKG20010824070509708/24/01 07:05:31  5-MIN KMKG 241205Z 11010KT 5SM BR OVC012 18/17 A3016 410 93 900 110/10 RMK AO2
14840KMKG MKG20010824071009708/24/01 07:10:31  5-MIN KMKG 241210Z 10009KT 6SM BR OVC012 18/17 A3016 410 90 900 110/09 RMK AO2
14840KMKG MKG20010824071509708/24/01 07:15:31  5-MIN KMKG 241215Z 10008KT 6SM BR OVC012 18/17 A3016 410 93 900 100/08 RMK AO2
14840KMKG MKG20010824072010008/24/01 07:20:31  5-MIN KMKG 241220Z 11010G16KT 7SM OVC012 18/17 A3016 410 93 900 110/10G16 RMK AO2
14840KMKG MKG20010824072510008/24/01 07:25:31  5-MIN KMKG 241225Z 10009G16KT 7SM OVC012 18/17 A3016 410 93 900 100/09G16 RMK AO2
14840KMKG MKG20010824073009408/24/01 07:30:31  5-MIN KMKG 241230Z 10008KT 7SM OVC012 18/17 A3016 410 93 900 100/08 RMK AO2
14840KMKG MKG20010824073509408/24/01 07:35:31  5-MIN KMKG 241235Z 11010KT 7SM OVC012 18/17 A3016 410 93 900 120/10 RMK AO2
14840KMKG MKG20010824074009508/24/01 07:40:31  5-MIN KMKG 241240Z 11009KT 8SM OVC012 19/17 A3016 410 90 1000 120/09 RMK AO2
14840KMKG MKG20010824074509508/24/01 07:45:31  5-MIN KMKG 241245Z 11010KT 8SM OVC012 19/17 A3016 410 90 1000 120/10 RMK AO2
14840KMKG MKG20010824075011208/24/01 07:50:31  5-MIN KMKG 241250Z 11008KT 9SM OVC012 19/17 A3016 410 90 1000 110/08 RMK AO2 SLP212 T01890172
14840KMKG MKG20010824075511208/24/01 07:55:31  5-MIN KMKG 241255Z 10010KT 9SM OVC012 19/17 A3017 400 90 1000 110/10 RMK AO2 SLP213 T01890172
14840KMKG MKG20010824080009508/24/01 08:00:31  5-MIN KMKG 241300Z 11008KT 9SM OVC010 19/17 A3017 400 90 1000 110/08 RMK AO2
14840KMKG MKG20010824080509508/24/01 08:05:31  5-MIN KMKG 241305Z 11008KT 9SM OVC010 19/17 A3017 400 90 1000 120/08 RMK AO2
14840KMKG MKG20010824081009508/24/01 08:10:31  5-MIN KMKG 241310Z 11008KT 9SM OVC010 19/17 A3017 400 90 1000 110/08 RMK AO2
14840KMKG MKG20010824081509508/24/01 08:15:31  5-MIN KMKG 241315Z 10008KT 9SM OVC010 19/17 A3017 400 87 1100 110/08 RMK AO2
14840KMKG MKG20010824082009508/24/01 08:20:31  5-MIN KMKG 241320Z 10009KT 9SM OVC010 19/17 A3017 400 87 1100 100/09 RMK AO2
14840KMKG MKG20010824082509508/24/01 08:25:31  5-MIN KMKG 241325Z 10011KT 9SM OVC010 19/17 A3017 400 87 1100 100/11 RMK AO2
14840KMKG MKG20010824083009608/24/01 08:30:31  5-MIN KMKG 241330Z 09010KT 10SM OVC010 19/17 A3017 400 87 1100 100/10 RMK AO2
14840KMKG MKG20010824083509608/24/01 08:35:31  5-MIN KMKG 241335Z 11010KT 10SM OVC010 19/17 A3017 400 87 1100 110/10 RMK AO2
14840KMKG MKG20010824084009608/24/01 08:40:31  5-MIN KMKG 241340Z 09010KT 10SM OVC010 20/18 A3017 400 87 1100 100/10 RMK AO2
14840KMKG MKG20010824084509608/24/01 08:45:31  5-MIN KMKG 241345Z 09011KT 10SM OVC010 19/17 A3017 400 87 1100 100/11 RMK AO2
14840KMKG MKG20010824085011308/24/01 08:50:31  5-MIN KMKG 241350Z 09011KT 10SM OVC010 20/17 A3017 400 84 1100 090/11 RMK AO2 SLP215 T02000172
14840KMKG MKG20010824085511308/24/01 08:55:31  5-MIN KMKG 241355Z 10011KT 10SM OVC010 20/17 A3017 400 84 1100 100/11 RMK AO2 SLP215 T02000172
14840KMKG MKG20010824090009608/24/01 09:00:31  5-MIN KMKG 241400Z 10012KT 10SM OVC010 20/17 A3017 400 84 1100 110/12 RMK AO2
14840KMKG MKG20010824090509608/24/01 09:05:31  5-MIN KMKG 241405Z 10011KT 10SM OVC012 20/17 A3017 400 84 1100 110/11 RMK AO2
14840KMKG MKG20010824091009608/24/01 09:10:31  5-MIN KMKG 241410Z 10011KT 10SM OVC012 20/17 A3016 400 84 1100 100/11 RMK AO2
14840KMKG MKG20010824091509608/24/01 09:15:31  5-MIN KMKG 241415Z 10009KT 10SM OVC012 21/18 A3016 410 84 1200 100/09 RMK AO2
14840KMKG MKG20010824092009608/24/01 09:20:31  5-MIN KMKG 241420Z 09011KT 10SM OVC012 21/18 A3016 410 84 1200 100/11 RMK AO2
14840KMKG MKG20010824092509608/24/01 09:25:31  5-MIN KMKG 241425Z 10013KT 10SM OVC012 21/17 A3016 410 81 1200 110/13 RMK AO2
14840KMKG MKG20010824093009608/24/01 09:30:31  5-MIN KMKG 241430Z 09012KT 10SM OVC012 21/17 A3016 410 81 1200 100/12 RMK AO2
14840KMKG MKG20010824093509608/24/01 09:35:31  5-MIN KMKG 241435Z 11011KT 10SM OVC012 21/17 A3016 410 78 1300 110/11 RMK AO2
14840KMKG MKG20010824094009608/24/01 09:40:31  5-MIN KMKG 241440Z 10011KT 10SM BKN012 21/17 A3016 410 78 1300 100/11 RMK AO2
14840KMKG MKG20010824094509608/24/01 09:45:31  5-MIN KMKG 241445Z 09013KT 10SM BKN012 22/18 A3016 410 78 1300 090/13 RMK AO2
14840KMKG MKG20010824095011908/24/01 09:50:31  5-MIN KMKG 241450Z 11011KT 10SM BKN012 22/18 A3016 410 78 1300 110/11 RMK AO2 SLP209 T02170178 53008
14840KMKG MKG20010824095511908/24/01 09:55:31  5-MIN KMKG 241455Z 11011KT 10SM BKN012 22/18 A3015 420 78 1300 110/11 RMK AO2 SLP207 T02170178 58001
14840KMKG MKG20010824100009608/24/01 10:00:31  5-MIN KMKG 241500Z 10010KT 10SM BKN014 22/18 A3015 420 78 1300 110/10 RMK AO2
14840KMKG MKG20010824100509608/24/01 10:05:31  5-MIN KMKG 241505Z 10010KT 10SM BKN014 22/18 A3015 420 78 1300 110/10 RMK AO2
14840KMKG MKG20010824101009608/24/01 10:10:31  5-MIN KMKG 241510Z 12011KT 10SM BKN014 22/18 A3015 420 78 1300 120/11 RMK AO2
14840KMKG MKG20010824101509608/24/01 10:15:31  5-MIN KMKG 241515Z 12012KT 10SM BKN014 22/18 A3015 420 75 1400 130/12 RMK AO2
14840KMKG MKG20010824102009608/24/01 10:20:31  5-MIN KMKG 241520Z 12011KT 10SM SCT014 22/18 A3016 410 78 1300 120/11 RMK AO2
14840KMKG MKG20010824102509608/24/01 10:25:31  5-MIN KMKG 241525Z 11011KT 10SM BKN014 21/18 A3016 410 81 1300 120/11 RMK AO2
14840KMKG MKG20010824103009608/24/01 10:30:31  5-MIN KMKG 241530Z 11011KT 10SM BKN014 22/18 A3016 410 78 1300 110/11 RMK AO2
14840KMKG MKG20010824103509608/24/01 10:35:31  5-MIN KMKG 241535Z 10009KT 10SM BKN014 21/17 A3016 410 78 1300 100/09 RMK AO2
14840KMKG MKG20010824104009608/24/01 10:40:31  5-MIN KMKG 241540Z 10009KT 10SM BKN016 22/18 A3015 410 78 1300 100/09 RMK AO2
14840KMKG MKG20010824104509608/24/01 10:45:31  5-MIN KMKG 241545Z 13011KT 10SM BKN016 22/18 A3015 410 75 1400 130/11 RMK AO2
14840KMKG MKG20010824105011308/24/01 10:50:31  5-MIN KMKG 241550Z 13013KT 10SM BKN016 22/18 A3016 410 75 1400 130/13 RMK AO2 SLP209 T02220178
14840KMKG MKG20010824105511308/24/01 10:55:31  5-MIN KMKG 241555Z 12012KT 10SM BKN016 22/18 A3016 410 75 1400 120/12 RMK AO2 SLP209 T02220178
14840KMKG MKG20010824110009608/24/01 11:00:31  5-MIN KMKG 241600Z 11010KT 10SM BKN016 22/18 A3016 410 75 1400 110/10 RMK AO2
14840KMKG MKG20010824110509608/24/01 11:05:31  5-MIN KMKG 241605Z 10010KT 10SM BKN016 21/17 A3016 410 78 1300 110/10 RMK AO2
14840KMKG MKG20010824111009608/24/01 11:10:31  5-MIN KMKG 241610Z 11010KT 10SM BKN016 22/18 A3015 410 78 1300 120/10 RMK AO2
14840KMKG MKG20010824111509608/24/01 11:15:31  5-MIN KMKG 241615Z 10009KT 10SM BKN016 22/18 A3015 410 78 1300 110/09 RMK AO2
14840KMKG MKG20010824112009608/24/01 11:20:31  5-MIN KMKG 241620Z 12010KT 10SM BKN016 22/18 A3016 410 75 1400 120/10 RMK AO2
14840KMKG MKG20010824112509608/24/01 11:25:31  5-MIN KMKG 241625Z 12010KT 10SM BKN016 23/18 A3016 410 73 1500 120/10 RMK AO2
14840KMKG MKG20010824113009608/24/01 11:30:31  5-MIN KMKG 241630Z 12011KT 10SM BKN016 23/18 A3015 410 73 1500 120/11 RMK AO2
14840KMKG MKG20010824113509608/24/01 11:35:31  5-MIN KMKG 241635Z 11009KT 10SM BKN016 22/18 A3016 410 75 1400 110/09 RMK AO2
14840KMKG MKG20010824114009608/24/01 11:40:31  5-MIN KMKG 241640Z 10007KT 10SM OVC016 22/18 A3016 410 75 1400 110/07 RMK AO2
14840KMKG MKG20010824114509608/24/01 11:45:31  5-MIN KMKG 241645Z 13010KT 10SM OVC018 22/18 A3016 410 75 1400 140/10 RMK AO2
14840KMKG MKG20010824115011308/24/01 11:50:31  5-MIN KMKG 241650Z 13010KT 10SM OVC018 22/18 A3016 410 75 1400 130/10 RMK AO2 SLP210 T02220178
14840KMKG MKG20010824115511308/24/01 11:55:31  5-MIN KMKG 241655Z 09009KT 10SM OVC018 22/18 A3016 410 75 1400 090/09 RMK AO2 SLP211 T02220178
14840KMKG MKG20010824120009608/24/01 12:00:31  5-MIN KMKG 241700Z 11008KT 10SM OVC018 23/18 A3016 410 76 1500 120/08 RMK AO2
14840KMKG MKG20010824120509608/24/01 12:05:31  5-MIN KMKG 241705Z 12008KT 10SM OVC018 22/18 A3016 410 75 1400 130/08 RMK AO2
14840KMKG MKG20010824121009608/24/01 12:10:31  5-MIN KMKG 241710Z 10010KT 10SM OVC018 22/18 A3015 410 75 1400 100/10 RMK AO2
14840KMKG MKG20010824121509608/24/01 12:15:31  5-MIN KMKG 241715Z 12010KT 10SM OVC018 23/18 A3015 410 73 1500 120/10 RMK AO2
14840KMKG MKG20010824122009608/24/01 12:20:31  5-MIN KMKG 241720Z 09010KT 10SM OVC018 22/18 A3015 420 75 1400 100/10 RMK AO2
14840KMKG MKG20010824122509608/24/01 12:25:31  5-MIN KMKG 241725Z 12010KT 10SM OVC018 22/18 A3015 420 75 1400 120/10 RMK AO2
14840KMKG MKG20010824123009608/24/01 12:30:31  5-MIN KMKG 241730Z 10009KT 10SM OVC018 22/18 A3014 430 75 1400 110/09 RMK AO2
14840KMKG MKG20010824123509608/24/01 12:35:31  5-MIN KMKG 241735Z 11009KT 10SM OVC018 23/18 A3014 430 73 1500 120/09 RMK AO2
14840KMKG MKG20010824124009608/24/01 12:40:31  5-MIN KMKG 241740Z 11009KT 10SM OVC018 23/18 A3014 430 76 1500 110/09 RMK AO2
14840KMKG MKG20010824124509608/24/01 12:45:31  5-MIN KMKG 241745Z 11010KT 10SM OVC018 22/18 A3014 430 75 1400 120/10 RMK AO2
14840KMKG MKG20010824125013108/24/01 12:50:31  5-MIN KMKG 241750Z 12007KT 10SM BKN018 23/18 A3014 430 76 1500 120/07 RMK AO2 SLP205 T02280183 10228 20178 58001
14840KMKG MKG20010824125513108/24/01 12:55:31  5-MIN KMKG 241755Z 11007KT 10SM OVC018 23/18 A3014 430 76 1500 110/07 RMK AO2 SLP204 T02280183 10228 20178 58004
14840KMKG MKG20010824130009608/24/01 13:00:31  5-MIN KMKG 241800Z 14009KT 10SM OVC018 23/18 A3014 430 73 1500 140/09 RMK AO2
14840KMKG MKG20010824130509608/24/01 13:05:31  5-MIN KMKG 241805Z 12009KT 10SM BKN018 23/18 A3014 430 73 1500 120/09 RMK AO2
14840KMKG MKG20010824131009608/24/01 13:10:31  5-MIN KMKG 241810Z 14011KT 10SM BKN018 23/18 A3014 430 73 1500 150/11 RMK AO2
14840KMKG MKG20010824131509608/24/01 13:15:31  5-MIN KMKG 241815Z 13008KT 10SM SCT018 23/18 A3014 430 73 1500 140/08 RMK AO2
14840KMKG MKG20010824132009608/24/01 13:20:31  5-MIN KMKG 241820Z 15011KT 10SM SCT018 23/18 A3014 430 73 1500 150/11 RMK AO2
14840KMKG MKG20010824132509608/24/01 13:25:31  5-MIN KMKG 241825Z 13010KT 10SM FEW018 24/18 A3014 430 71 1600 130/10 RMK AO2
14840KMKG MKG20010824133009608/24/01 13:30:31  5-MIN KMKG 241830Z 12011KT 10SM SCT018 24/18 A3014 430 71 1600 120/11 RMK AO2
14840KMKG MKG20010824133509608/24/01 13:35:31  5-MIN KMKG 241835Z 12010KT 10SM SCT018 24/18 A3013 430 71 1600 120/10 RMK AO2
14840KMKG MKG20010824134009608/24/01 13:40:31  5-MIN KMKG 241840Z 14008KT 10SM SCT018 24/19 A3013 430 71 1700 140/08 RMK AO2
14840KMKG MKG20010824134509608/24/01 13:45:31  5-MIN KMKG 241845Z 12009KT 10SM SCT018 24/18 A3013 430 68 1700 130/09 RMK AO2
14840KMKG MKG20010824135011308/24/01 13:50:31  5-MIN KMKG 241850Z 11009KT 10SM SCT018 24/18 A3014 430 71 1600 110/09 RMK AO2 SLP202 T02390183
14840KMKG MKG20010824135512908/24/01 13:55:31  5-MIN KMKG 241855Z 12007KT 090V150 10SM SCT022 23/18 A3013 430 73 1500 120/07 090V150 RMK AO2 SLP202 T02330183
14840KMKG MKG20010824140009608/24/01 14:00:31  5-MIN KMKG 241900Z 08007KT 10SM SCT022 24/18 A3013 430 71 1600 080/07 RMK AO2
14840KMKG MKG20010824140509608/24/01 14:05:31  5-MIN KMKG 241905Z 10009KT 10SM BKN022 24/18 A3013 430 71 1600 100/09 RMK AO2
14840KMKG MKG20010824141009608/24/01 14:10:31  5-MIN KMKG 241910Z 10008KT 10SM BKN022 24/18 A3013 430 71 1600 110/08 RMK AO2
14840KMKG MKG20010824141511808/24/01 14:15:31  5-MIN KMKG 241915Z 09007KT 10SM SCT022 BKN050 24/18 A3013 440 71 1600 100/07 RMK AO2 CIG 023 RWY 14
14840KMKG MKG20010824142010308/24/01 14:20:31  5-MIN KMKG 241920Z 08006KT 10SM BKN022 BKN050 24/18 A3013 440 71 1600 080/06 RMK AO2
14840KMKG MKG20010824142510308/24/01 14:25:31  5-MIN KMKG 241925Z 15006KT 10SM BKN022 BKN050 24/18 A3013 440 71 1600 150/06 RMK AO2
14840KMKG MKG20010824143010308/24/01 14:30:31  5-MIN KMKG 241930Z 09006KT 10SM BKN022 BKN050 24/18 A3013 440 71 1600 090/06 RMK AO2
14840KMKG MKG20010824143510308/24/01 14:35:31  5-MIN KMKG 241935Z 10007KT 10SM BKN022 BKN050 24/18 A3013 440 71 1600 100/07 RMK AO2
14840KMKG MKG20010824144010308/24/01 14:40:31  5-MIN KMKG 241940Z 06003KT 10SM BKN022 OVC055 24/18 A3012 440 71 1600 060/03 RMK AO2
14840KMKG MKG20010824144510308/24/01 14:45:31  5-MIN KMKG 241945Z 10007KT 10SM BKN022 OVC055 24/18 A3012 450 71 1600 110/07 RMK AO2
14840KMKG MKG20010824145012008/24/01 14:50:31  5-MIN KMKG 241950Z 08007KT 10SM BKN022 OVC055 24/19 A3012 450 71 1700 090/07 RMK AO2 SLP196 T02440189
14840KMKG MKG20010824145512008/24/01 14:55:31  5-MIN KMKG 241955Z 11007KT 10SM BKN024 OVC055 24/18 A3012 450 71 1600 120/07 RMK AO2 SLP197 T02390183
14840KMKG MKG20010824150010308/24/01 15:00:31  5-MIN KMKG 242000Z 10006KT 10SM BKN024 OVC055 24/19 A3012 450 73 1600 100/06 RMK AO2
14840KMKG MKG20010824150510308/24/01 15:05:31  5-MIN KMKG 242005Z 11006KT 10SM BKN024 OVC055 24/19 A3012 450 71 1700 110/06 RMK AO2
14840KMKG MKG20010824151010308/24/01 15:10:31  5-MIN KMKG 242010Z 14007KT 10SM BKN024 OVC055 24/19 A3011 450 71 1700 150/07 RMK AO2
14840KMKG MKG20010824151510308/24/01 15:15:31  5-MIN KMKG 242015Z 11008KT 10SM BKN024 OVC055 24/19 A3011 450 71 1700 110/08 RMK AO2
14840KMKG MKG20010824152010308/24/01 15:20:31  5-MIN KMKG 242020Z 12006KT 10SM BKN024 OVC055 24/19 A3011 460 71 1700 120/06 RMK AO2
14840KMKG MKG20010824152510308/24/01 15:25:31  5-MIN KMKG 242025Z 13007KT 10SM BKN026 BKN055 24/19 A3011 460 71 1700 130/07 RMK AO2
14840KMKG MKG20010824153010308/24/01 15:30:31  5-MIN KMKG 242030Z 11008KT 10SM BKN026 BKN055 24/19 A3010 460 71 1700 110/08 RMK AO2
14840KMKG MKG20010824153510308/24/01 15:35:31  5-MIN KMKG 242035Z 10008KT 10SM BKN026 BKN055 24/18 A3010 460 68 1700 100/08 RMK AO2
14840KMKG MKG20010824154009608/24/01 15:40:31  5-MIN KMKG 242040Z 11008KT 10SM BKN026 25/19 A3010 470 68 1800 120/08 RMK AO2
14840KMKG MKG20010824154509608/24/01 15:45:31  5-MIN KMKG 242045Z 10007KT 10SM OVC026 24/18 A3010 460 71 1600 110/07 RMK AO2
14840KMKG MKG20010824155011908/24/01 15:50:31  5-MIN KMKG 242050Z 14009KT 10SM BKN026 24/19 A3010 470 71 1700 150/09 RMK AO2 SLP189 T02440189 58004
14840KMKG MKG20010824155511908/24/01 15:55:31  5-MIN KMKG 242055Z 13010KT 10SM BKN028 24/19 A3010 470 71 1700 140/10 RMK AO2 SLP189 T02440189 58015
14840KMKG MKG20010824160009608/24/01 16:00:31  5-MIN KMKG 242100Z 14007KT 10SM BKN028 25/19 A3010 470 68 1800 150/07 RMK AO2
14840KMKG MKG20010824160509608/24/01 16:05:31  5-MIN KMKG 242105Z 14008KT 10SM BKN028 25/18 A3010 470 66 1800 140/08 RMK AO2
14840KMKG MKG20010824161009608/24/01 16:10:31  5-MIN KMKG 242110Z 13008KT 10SM BKN028 25/19 A3010 470 68 1800 140/08 RMK AO2
14840KMKG MKG20010824161509608/24/01 16:15:31  5-MIN KMKG 242115Z 14006KT 10SM BKN028 24/18 A3010 470 68 1700 140/06 RMK AO2
14840KMKG MKG20010824162009608/24/01 16:20:31  5-MIN KMKG 242120Z VRB03KT 10SM BKN028 25/18 A3010 470 66 1800 VRB/03 RMK AO2
14840KMKG MKG20010824162509608/24/01 16:25:31  5-MIN KMKG 242125Z 12007KT 10SM BKN028 25/19 A3010 470 68 1800 130/07 RMK AO2
14840KMKG MKG20010824163009608/24/01 16:30:31  5-MIN KMKG 242130Z 12008KT 10SM BKN028 25/19 A3010 460 68 1800 120/08 RMK AO2
14840KMKG MKG20010824163509608/24/01 16:35:31  5-MIN KMKG 242135Z 11006KT 10SM BKN028 24/18 A3010 470 68 1700 120/06 RMK AO2
14840KMKG MKG20010824164009608/24/01 16:40:31  5-MIN KMKG 242140Z 15007KT 10SM BKN028 24/18 A3010 470 68 1700 150/07 RMK AO2
14840KMKG MKG20010824164509608/24/01 16:45:31  5-MIN KMKG 242145Z 16006KT 10SM BKN028 24/19 A3010 470 71 1700 160/06 RMK AO2
14840KMKG MKG20010824165011308/24/01 16:50:31  5-MIN KMKG 242150Z 16006KT 10SM FEW028 25/19 A3010 470 68 1800 160/06 RMK AO2 SLP189 T02500189
14840KMKG MKG20010824165511308/24/01 16:55:31  5-MIN KMKG 242155Z 15008KT 10SM SCT028 25/19 A3010 470 68 1800 150/08 RMK AO2 SLP189 T02500189
14840KMKG MKG20010824170009608/24/01 17:00:31  5-MIN KMKG 242200Z 14008KT 10SM SCT028 25/19 A3010 470 68 1800 140/08 RMK AO2
14840KMKG MKG20010824170509608/24/01 17:05:31  5-MIN KMKG 242205Z 13009KT 10SM SCT028 25/19 A3009 470 68 1800 130/09 RMK AO2
14840KMKG MKG20010824171009608/24/01 17:10:31  5-MIN KMKG 242210Z 12007KT 10SM SCT028 25/19 A3009 470 68 1800 120/07 RMK AO2
14840KMKG MKG20010824171509608/24/01 17:15:31  5-MIN KMKG 242215Z 13009KT 10SM SCT028 26/19 A3009 480 66 1800 130/09 RMK AO2
14840KMKG MKG20010824172009608/24/01 17:20:31  5-MIN KMKG 242220Z 12007KT 10SM SCT028 25/18 A3009 470 66 1800 130/07 RMK AO2
14840KMKG MKG20010824172509608/24/01 17:25:31  5-MIN KMKG 242225Z 13007KT 10SM SCT028 25/19 A3009 470 68 1800 140/07 RMK AO2
14840KMKG MKG20010824173009608/24/01 17:30:31  5-MIN KMKG 242230Z 14007KT 10SM SCT028 26/19 A3009 470 66 1800 140/07 RMK AO2
14840KMKG MKG20010824173509608/24/01 17:35:31  5-MIN KMKG 242235Z 10006KT 10SM SCT028 25/19 A3009 480 68 1800 100/06 RMK AO2
14840KMKG MKG20010824174009608/24/01 17:40:31  5-MIN KMKG 242240Z 14005KT 10SM SCT028 25/19 A3009 470 68 1800 140/05 RMK AO2
14840KMKG MKG20010824174509608/24/01 17:45:31  5-MIN KMKG 242245Z 12005KT 10SM FEW029 25/19 A3009 470 68 1800 130/05 RMK AO2
14840KMKG MKG20010824175011308/24/01 17:50:31  5-MIN KMKG 242250Z 12009KT 10SM FEW029 24/18 A3009 470 68 1700 120/09 RMK AO2 SLP187 T02440183
14840KMKG MKG20010824175511308/24/01 17:55:31  5-MIN KMKG 242255Z 10008KT 10SM FEW029 24/18 A3009 470 68 1700 100/08 RMK AO2 SLP188 T02440183
14840KMKG MKG20010824180009608/24/01 18:00:31  5-MIN KMKG 242300Z 10006KT 10SM FEW029 24/18 A3009 470 68 1700 110/06 RMK AO2
14840KMKG MKG20010824180509608/24/01 18:05:31  5-MIN KMKG 242305Z 10007KT 10SM FEW029 24/18 A3009 470 68 1700 100/07 RMK AO2
14840KMKG MKG20010824181009608/24/01 18:10:31  5-MIN KMKG 242310Z 11006KT 10SM FEW029 24/18 A3009 480 68 1700 110/06 RMK AO2
14840KMKG MKG20010824181509608/24/01 18:15:31  5-MIN KMKG 242315Z 12007KT 10SM FEW029 24/18 A3008 480 68 1700 120/07 RMK AO2
14840KMKG MKG20010824182009308/24/01 18:20:31  5-MIN KMKG 242320Z 12007KT 10SM CLR 24/18 A3008 480 68 1700 120/07 RMK AO2
14840KMKG MKG20010824182509308/24/01 18:25:31  5-MIN KMKG 242325Z 10006KT 10SM CLR 24/19 A3008 480 71 1700 100/06 RMK AO2
14840KMKG MKG20010824183009308/24/01 18:30:31  5-MIN KMKG 242330Z 10005KT 10SM CLR 25/19 A3008 480 68 1800 110/05 RMK AO2
14840KMKG MKG20010824183509308/24/01 18:35:31  5-MIN KMKG 242335Z 12005KT 10SM CLR 24/19 A3008 480 71 1700 120/05 RMK AO2
14840KMKG MKG20010824184009308/24/01 18:40:31  5-MIN KMKG 242340Z 11006KT 10SM CLR 24/19 A3008 480 71 1700 110/06 RMK AO2
14840KMKG MKG20010824184509308/24/01 18:45:31  5-MIN KMKG 242345Z 11004KT 10SM CLR 24/19 A3008 480 71 1700 110/04 RMK AO2
14840KMKG MKG20010824185012808/24/01 18:50:31  5-MIN KMKG 242350Z 11006KT 10SM CLR 24/19 A3008 480 71 1700 110/06 RMK AO2 SLP184 T02440189 10256 20228 58015
14840KMKG MKG20010824185512708/24/01 18:55:31  5-MIN KMKG 242355Z 11006KT 9SM CLR 24/19 A3008 490 71 1700 110/06 RMK AO2 SLP183 T02440189 10256 20228 58006
14840KMKG MKG20010824190009208/24/01 19:00:31  5-MIN KMKG 250000Z 11007KT 9SM CLR 24/19 A3008 480 73 1700 110/07 RMK AO2
14840KMKG MKG20010824190509208/24/01 19:05:31  5-MIN KMKG 250005Z 11006KT 9SM CLR 24/19 A3008 490 73 1700 110/06 RMK AO2
14840KMKG MKG20010824191009208/24/01 19:10:31  5-MIN KMKG 250010Z 11004KT 9SM CLR 24/19 A3008 480 73 1700 110/04 RMK AO2
14840KMKG MKG20010824191509208/24/01 19:15:31  5-MIN KMKG 250015Z 10004KT 8SM CLR 23/19 A3008 480 76 1600 110/04 RMK AO2
14840KMKG MKG20010824192009208/24/01 19:20:31  5-MIN KMKG 250020Z 10004KT 8SM CLR 23/19 A3008 480 76 1600 110/04 RMK AO2
14840KMKG MKG20010824192509208/24/01 19:25:31  5-MIN KMKG 250025Z 10004KT 8SM CLR 23/19 A3008 480 76 1600 110/04 RMK AO2
14840KMKG MKG20010824193009208/24/01 19:30:31  5-MIN KMKG 250030Z 10004KT 8SM CLR 23/19 A3008 480 78 1500 110/04 RMK AO2
14840KMKG MKG20010824193509208/24/01 19:35:31  5-MIN KMKG 250035Z 10004KT 8SM CLR 23/19 A3008 480 78 1500 110/04 RMK AO2
14840KMKG MKG20010824194009208/24/01 19:40:31  5-MIN KMKG 250040Z 10004KT 8SM CLR 23/19 A3009 480 78 1500 110/04 RMK AO2
14840KMKG MKG20010824194509208/24/01 19:45:31  5-MIN KMKG 250045Z 10004KT 8SM CLR 23/19 A3009 480 78 1500 110/04 RMK AO2
14840KMKG MKG20010824195010908/24/01 19:50:31  5-MIN KMKG 250050Z 10005KT 9SM CLR 23/19 A3009 480 78 1500 110/05 RMK AO2 SLP186 T02280189
14840KMKG MKG20010824195510908/24/01 19:55:31  5-MIN KMKG 250055Z 10005KT 9SM CLR 22/19 A3008 480 81 1500 110/05 RMK AO2 SLP185 T02220189
14840KMKG MKG20010824200009208/24/01 20:00:31  5-MIN KMKG 250100Z 11005KT 9SM CLR 22/19 A3008 480 81 1500 110/05 RMK AO2
14840KMKG MKG20010824200509208/24/01 20:05:31  5-MIN KMKG 250105Z 10004KT 9SM CLR 22/19 A3008 480 81 1500 100/04 RMK AO2
14840KMKG MKG20010824201009208/24/01 20:10:31  5-MIN KMKG 250110Z 10005KT 9SM CLR 22/19 A3008 480 84 1400 110/05 RMK AO2
14840KMKG MKG20010824201509208/24/01 20:15:31  5-MIN KMKG 250115Z 10004KT 9SM CLR 22/19 A3008 480 84 1400 110/04 RMK AO2
14840KMKG MKG20010824202009208/24/01 20:20:31  5-MIN KMKG 250120Z 10005KT 8SM CLR 21/19 A3008 480 87 1300 110/05 RMK AO2
14840KMKG MKG20010824202509208/24/01 20:25:31  5-MIN KMKG 250125Z 11004KT 8SM CLR 21/19 A3008 480 87 1300 110/04 RMK AO2
14840KMKG MKG20010824203009208/24/01 20:30:31  5-MIN KMKG 250130Z 11003KT 8SM CLR 21/19 A3008 480 87 1300 120/03 RMK AO2
14840KMKG MKG20010824203509208/24/01 20:35:31  5-MIN KMKG 250135Z 12003KT 8SM CLR 21/19 A3008 480 87 1300 120/03 RMK AO2
14840KMKG MKG20010824204009208/24/01 20:40:31  5-MIN KMKG 250140Z 12004KT 8SM CLR 21/19 A3008 480 87 1300 120/04 RMK AO2
14840KMKG MKG20010824204509208/24/01 20:45:31  5-MIN KMKG 250145Z 11003KT 7SM CLR 21/19 A3009 480 87 1300 120/03 RMK AO2
14840KMKG MKG20010824205010908/24/01 20:50:31  5-MIN KMKG 250150Z 12004KT 7SM CLR 21/19 A3009 480 87 1300 120/04 RMK AO2 SLP187 T02110189
14840KMKG MKG20010824205510908/24/01 20:55:31  5-MIN KMKG 250155Z 12004KT 7SM CLR 21/18 A3009 480 84 1300 120/04 RMK AO2 SLP187 T02110183
14840KMKG MKG20010824210009208/24/01 21:00:31  5-MIN KMKG 250200Z 10004KT 7SM CLR 21/18 A3009 480 84 1300 110/04 RMK AO2
14840KMKG MKG20010824210509208/24/01 21:05:31  5-MIN KMKG 250205Z 10004KT 7SM CLR 21/18 A3009 480 87 1300 100/04 RMK AO2
14840KMKG MKG20010824211009508/24/01 21:10:31  5-MIN KMKG 250210Z 10005KT 6SM BR CLR 21/18 A3009 480 87 1300 100/05 RMK AO2
14840KMKG MKG20010824211509508/24/01 21:15:31  5-MIN KMKG 250215Z 10004KT 6SM BR CLR 21/18 A3009 480 87 1300 110/04 RMK AO2
14840KMKG MKG20010824212009508/24/01 21:20:31  5-MIN KMKG 250220Z 11004KT 6SM BR CLR 21/18 A3009 480 87 1300 120/04 RMK AO2
14840KMKG MKG20010824212509508/24/01 21:25:31  5-MIN KMKG 250225Z 12004KT 6SM BR CLR 21/18 A3009 480 87 1300 120/04 RMK AO2
14840KMKG MKG20010824213009508/24/01 21:30:31  5-MIN KMKG 250230Z 10004KT 6SM BR CLR 20/18 A3008 480 90 1200 110/04 RMK AO2
14840KMKG MKG20010824213509508/24/01 21:35:31  5-MIN KMKG 250235Z 10004KT 6SM BR CLR 20/18 A3008 480 90 1200 100/04 RMK AO2
14840KMKG MKG20010824214009508/24/01 21:40:31  5-MIN KMKG 250240Z 10005KT 6SM BR CLR 20/18 A3008 480 90 1200 100/05 RMK AO2
14840KMKG MKG20010824214509508/24/01 21:45:31  5-MIN KMKG 250245Z 09006KT 6SM BR CLR 20/18 A3008 480 90 1200 100/06 RMK AO2
14840KMKG MKG20010824215011808/24/01 21:50:31  5-MIN KMKG 250250Z 10006KT 6SM BR CLR 20/18 A3008 480 90 1200 110/06 RMK AO2 SLP183 T02000183 58006
14840KMKG MKG20010824215511808/24/01 21:55:31  5-MIN KMKG 250255Z 11006KT 6SM BR CLR 20/18 A3008 480 90 1200 120/06 RMK AO2 SLP183 T02000183 50000
14840KMKG MKG20010824220009208/24/01 22:00:31  5-MIN KMKG 250300Z 11005KT 7SM CLR 20/18 A3008 480 90 1200 110/05 RMK AO2
14840KMKG MKG20010824220509208/24/01 22:05:31  5-MIN KMKG 250305Z 10005KT 7SM CLR 20/18 A3008 480 87 1200 110/05 RMK AO2
14840KMKG MKG20010824221009208/24/01 22:10:31  5-MIN KMKG 250310Z 10006KT 7SM CLR 20/18 A3008 480 87 1200 100/06 RMK AO2
14840KMKG MKG20010824221509508/24/01 22:15:31  5-MIN KMKG 250315Z 10006KT 6SM BR CLR 20/18 A3008 480 87 1200 100/06 RMK AO2
14840KMKG MKG20010824222009508/24/01 22:20:31  5-MIN KMKG 250320Z 09008KT 6SM BR CLR 20/18 A3008 480 87 1200 100/08 RMK AO2
14840KMKG MKG20010824222509508/24/01 22:25:31  5-MIN KMKG 250325Z 09008KT 6SM BR CLR 20/18 A3008 480 87 1200 090/08 RMK AO2
14840KMKG MKG20010824223009508/24/01 22:30:31  5-MIN KMKG 250330Z 09008KT 6SM BR CLR 20/18 A3008 480 87 1200 100/08 RMK AO2
14840KMKG MKG20010824223509508/24/01 22:35:31  5-MIN KMKG 250335Z 10007KT 6SM BR CLR 20/18 A3008 480 87 1200 100/07 RMK AO2
14840KMKG MKG20010824224009508/24/01 22:40:31  5-MIN KMKG 250340Z 10007KT 6SM BR CLR 20/18 A3008 480 87 1200 100/07 RMK AO2
14840KMKG MKG20010824224509508/24/01 22:45:31  5-MIN KMKG 250345Z 10007KT 5SM BR CLR 20/18 A3008 480 87 1200 100/07 RMK AO2
14840KMKG MKG20010824225011208/24/01 22:50:31  5-MIN KMKG 250350Z 11008KT 5SM BR CLR 20/18 A3008 480 90 1200 110/08 RMK AO2 SLP183 T02000183
14840KMKG MKG20010824225511208/24/01 22:55:31  5-MIN KMKG 250355Z 10008KT 5SM BR CLR 20/18 A3008 490 90 1200 110/08 RMK AO2 SLP183 T02000183
14840KMKG MKG20010824230009508/24/01 23:00:31  5-MIN KMKG 250400Z 10008KT 6SM BR CLR 19/18 A3008 490 93 1200 110/08 RMK AO2
14840KMKG MKG20010824230509508/24/01 23:05:31  5-MIN KMKG 250405Z 10008KT 6SM BR CLR 19/18 A3008 490 93 1200 110/08 RMK AO2
14840KMKG MKG20010824231009508/24/01 23:10:31  5-MIN KMKG 250410Z 10007KT 6SM BR CLR 19/18 A3008 480 93 1200 110/07 RMK AO2
14840KMKG MKG20010824231509508/24/01 23:15:31  5-MIN KMKG 250415Z 11007KT 6SM BR CLR 19/18 A3008 480 93 1200 110/07 RMK AO2
14840KMKG MKG20010824232009508/24/01 23:20:31  5-MIN KMKG 250420Z 11007KT 6SM BR CLR 19/18 A3008 480 93 1200 120/07 RMK AO2
14840KMKG MKG20010824232509508/24/01 23:25:31  5-MIN KMKG 250425Z 11006KT 6SM BR CLR 19/18 A3008 480 93 1200 110/06 RMK AO2
14840KMKG MKG20010824233009508/24/01 23:30:31  5-MIN KMKG 250430Z 11005KT 6SM BR CLR 19/18 A3008 480 93 1200 120/05 RMK AO2
14840KMKG MKG20010824233509508/24/01 23:35:31  5-MIN KMKG 250435Z 12005KT 6SM BR CLR 19/18 A3008 480 93 1200 120/05 RMK AO2
14840KMKG MKG20010824234009508/24/01 23:40:31  5-MIN KMKG 250440Z 11005KT 6SM BR CLR 19/18 A3008 480 90 1200 120/05 RMK AO2
14840KMKG MKG20010824234509508/24/01 23:45:31  5-MIN KMKG 250445Z 11005KT 6SM BR CLR 19/18 A3008 480 90 1200 120/05 RMK AO2
14840KMKG MKG20010824235012208/24/01 23:50:31  5-MIN KMKG 250450Z 11006KT 6SM BR CLR 19/18 A3008 480 93 1100 120/06 RMK AO2 SLP184 T01890178 402560167
14840KMKG MKG20010824235511908/24/01 23:55:31  5-MIN KMKG 250455Z 11005KT 7SM CLR 19/18 A3008 480 93 1100 120/05 RMK AO2 SLP183 T01890178 402560167
14840KMKG MKG20010825000009208/25/01 00:00:31  5-MIN KMKG 250500Z 11006KT 7SM CLR 19/18 A3008 490 93 1100 120/06 RMK AO2
14840KMKG MKG20010825000509208/25/01 00:05:31  5-MIN KMKG 250505Z 12006KT 7SM CLR 19/18 A3008 490 93 1100 120/06 RMK AO2
14840KMKG MKG20010825001009208/25/01 00:10:31  5-MIN KMKG 250510Z 12006KT 7SM CLR 19/18 A3008 490 93 1100 120/06 RMK AO2
14840KMKG MKG20010825001509208/25/01 00:15:31  5-MIN KMKG 250515Z 12006KT 7SM CLR 19/18 A3008 480 93 1100 120/06 RMK AO2
14840KMKG MKG20010825002009208/25/01 00:20:31  5-MIN KMKG 250520Z 12007KT 7SM CLR 19/18 A3008 490 93 1100 120/07 RMK AO2
14840KMKG MKG20010825002509508/25/01 00:25:31  5-MIN KMKG 250525Z 12007KT 7SM FEW090 19/18 A3007 490 93 1100 120/07 RMK AO2
14840KMKG MKG20010825003009508/25/01 00:30:31  5-MIN KMKG 250530Z 11006KT 7SM SCT090 19/18 A3007 490 93 1100 110/06 RMK AO2
14840KMKG MKG20010825003509508/25/01 00:35:31  5-MIN KMKG 250535Z 11006KT 7SM SCT095 19/18 A3007 490 93 1100 110/06 RMK AO2
14840KMKG MKG20010825004009508/25/01 00:40:31  5-MIN KMKG 250540Z 10007KT 8SM SCT095 19/18 A3007 490 93 1100 110/07 RMK AO2
14840KMKG MKG20010825004509508/25/01 00:45:31  5-MIN KMKG 250545Z 10007KT 8SM BKN095 19/18 A3007 490 93 1100 110/07 RMK AO2
14840KMKG MKG20010825005013008/25/01 00:50:31  5-MIN KMKG 250550Z 11007KT 8SM BKN100 19/18 A3007 500 93 1100 110/07 RMK AO2 SLP179 T01890178 10244 20189 50000
14840KMKG MKG20010825005513008/25/01 00:55:31  5-MIN KMKG 250555Z 11006KT 8SM BKN100 19/18 A3006 500 93 1100 120/06 RMK AO2 SLP178 T01890178 10244 20189 58004
14840KMKG MKG20010825010009508/25/01 01:00:31  5-MIN KMKG 250600Z 11007KT 8SM BKN100 19/18 A3006 500 93 1100 120/07 RMK AO2
14840KMKG MKG20010825010509508/25/01 01:05:31  5-MIN KMKG 250605Z 11007KT 9SM OVC095 19/18 A3006 500 93 1100 110/07 RMK AO2
14840KMKG MKG20010825011009508/25/01 01:10:31  5-MIN KMKG 250610Z 12006KT 9SM OVC095 19/18 A3006 500 93 1100 120/06 RMK AO2
14840KMKG MKG20010825011509508/25/01 01:15:31  5-MIN KMKG 250615Z 12008KT 9SM OVC090 19/18 A3006 500 93 1100 120/08 RMK AO2
14840KMKG MKG20010825012009508/25/01 01:20:31  5-MIN KMKG 250620Z 12008KT 9SM OVC090 19/18 A3006 500 93 1100 120/08 RMK AO2
14840KMKG MKG20010825012509608/25/01 01:25:31  5-MIN KMKG 250625Z 11008KT 10SM OVC085 19/18 A3006 500 93 1100 120/08 RMK AO2
14840KMKG MKG20010825013009608/25/01 01:30:31  5-MIN KMKG 250630Z 12009KT 10SM OVC085 19/18 A3006 500 93 1100 120/09 RMK AO2
14840KMKG MKG20010825013509508/25/01 01:35:31  5-MIN KMKG 250635Z 12007KT 9SM OVC080 19/18 A3005 510 93 1100 120/07 RMK AO2
14840KMKG MKG20010825014009508/25/01 01:40:31  5-MIN KMKG 250640Z 12007KT 9SM OVC080 19/18 A3006 510 93 1100 120/07 RMK AO2
14840KMKG MKG20010825014509508/25/01 01:45:31  5-MIN KMKG 250645Z 12008KT 9SM OVC080 19/18 A3005 510 93 1100 120/08 RMK AO2
14840KMKG MKG20010825015011208/25/01 01:50:31  5-MIN KMKG 250650Z 11007KT 9SM OVC080 19/18 A3005 510 93 1100 120/07 RMK AO2 SLP173 T01890178
14840KMKG MKG20010825015511208/25/01 01:55:31  5-MIN KMKG 250655Z 11007KT 9SM OVC080 19/18 A3005 520 93 1100 110/07 RMK AO2 SLP172 T01890178
14840KMKG MKG20010825020010208/25/01 02:00:31  5-MIN KMKG 250700Z 11008KT 9SM BKN075 OVC100 19/18 A3004 520 90 1200 120/08 RMK AO2
14840KMKG MKG20010825020510208/25/01 02:05:31  5-MIN KMKG 250705Z 12008KT 8SM BKN075 OVC100 19/18 A3004 520 90 1200 120/08 RMK AO2
14840KMKG MKG20010825021010208/25/01 02:10:31  5-MIN KMKG 250710Z 12008KT 8SM BKN075 OVC100 19/18 A3004 520 90 1200 120/08 RMK AO2
14840KMKG MKG20010825021510208/25/01 02:15:31  5-MIN KMKG 250715Z 12008KT 8SM BKN070 OVC100 19/18 A3004 520 90 1200 120/08 RMK AO2
14840KMKG MKG20010825022010208/25/01 02:20:31  5-MIN KMKG 250720Z 11007KT 8SM SCT070 OVC100 19/18 A3004 520 90 1200 120/07 RMK AO2
14840KMKG MKG20010825022510208/25/01 02:25:31  5-MIN KMKG 250725Z 12007KT 8SM SCT070 OVC100 19/18 A3004 520 90 1200 120/07 RMK AO2
14840KMKG MKG20010825023010208/25/01 02:30:31  5-MIN KMKG 250730Z 12007KT 8SM FEW070 BKN100 19/18 A3004 520 90 1200 130/07 RMK AO2
14840KMKG MKG20010825023511808/25/01 02:35:31  5-MIN KMKG 250735Z 12008KT 7SM -RA FEW070 BKN100 19/18 A3003 530 90 1200 120/08 RMK AO2 RAB35 P0000
14840KMKG MKG20010825024011108/25/01 02:40:31  5-MIN KMKG 250740Z 12009KT 7SM -RA BKN100 19/18 A3003 530 90 1200 120/09 RMK AO2 RAB35 P0000
14840KMKG MKG20010825024511108/25/01 02:45:31  5-MIN KMKG 250745Z 12009KT 7SM -RA BKN100 19/18 A3003 530 90 1200 130/09 RMK AO2 RAB35 P0000
14840KMKG MKG20010825025012808/25/01 02:50:31  5-MIN KMKG 250750Z 12010KT 7SM -RA BKN100 19/18 A3002 530 90 1200 120/10 RMK AO2 RAB35 SLP164 P0000 T01940178
14840KMKG MKG20010825025512708/25/01 02:55:31  5-MIN KMKG 250755Z 12009KT 7SM BKN100 19/18 A3003 530 90 1200 120/09 RMK AO2 RAB35E51 SLP165 P0000 T01940178
14840KMKG MKG20010825030009808/25/01 03:00:31  5-MIN KMKG 250800Z 12008KT 6SM BR BKN095 19/18 A3002 530 93 1200 120/08 RMK AO2
14840KMKG MKG20010825030509808/25/01 03:05:31  5-MIN KMKG 250805Z 12008KT 6SM BR OVC090 19/18 A3003 530 93 1200 130/08 RMK AO2
14840KMKG MKG20010825031011408/25/01 03:10:31  5-MIN KMKG 250810Z 13008KT 6SM -RA BR OVC095 19/18 A3002 530 93 1200 130/08 RMK AO2 RAB10 P0000
14840KMKG MKG20010825031511408/25/01 03:15:31  5-MIN KMKG 250815Z 13008KT 6SM -RA BR OVC095 19/18 A3002 540 93 1200 130/08 RMK AO2 RAB10 P0000
14840KMKG MKG20010825032012108/25/01 03:20:31  5-MIN KMKG 250820Z 13007KT 6SM -RA BR FEW050 OVC095 19/18 A3003 530 93 1200 140/07 RMK AO2 RAB10 P0000
14840KMKG MKG20010825032512108/25/01 03:25:31  5-MIN KMKG 250825Z 13006KT 5SM -RA BR FEW050 OVC095 19/18 A3002 540 93 1200 130/06 RMK AO2 RAB10 P0000
14840KMKG MKG20010825033012108/25/01 03:30:31  5-MIN KMKG 250830Z 12006KT 5SM -RA BR FEW050 OVC095 19/18 A3002 540 93 1200 130/06 RMK AO2 RAB10 P0000
14840KMKG MKG20010825033512108/25/01 03:35:31  5-MIN KMKG 250835Z 12006KT 5SM -RA BR FEW050 OVC090 19/18 A3002 540 97 1200 130/06 RMK AO2 RAB10 P0000
14840KMKG MKG20010825034012108/25/01 03:40:31  5-MIN KMKG 250840Z 13006KT 5SM -RA BR SCT050 OVC090 19/18 A3002 540 93 1200 130/06 RMK AO2 RAB10 P0001
14840KMKG MKG20010825034512108/25/01 03:45:31  5-MIN KMKG 250845Z 12006KT 5SM -RA BR BKN050 OVC090 19/18 A3002 540 97 1200 130/06 RMK AO2 RAB10 P0001
14840KMKG MKG20010825035015008/25/01 03:50:31  5-MIN KMKG 250850Z 14006KT 4SM -RA BR BKN050 OVC090 19/18 A3002 540 97 1200 140/06 RMK AO2 RAB10 SLP163 P0001 60001 T01890183 58004
14840KMKG MKG20010825035515008/25/01 03:55:31  5-MIN KMKG 250855Z 12007KT 4SM -RA BR BKN050 OVC090 19/18 A3002 540 97 1200 130/07 RMK AO2 RAB10 SLP162 P0001 60001 T01890183 56015
14840KMKG MKG20010825040012208/25/01 04:00:31  5-MIN KMKG 250900Z 13006KT 4SM -RA BR FEW014 BKN048 OVC085 19/18 A3002 540 97 1200 140/06 RMK AO2 P0001
14840KMKG MKG20010825040511808/25/01 04:05:31  5-MIN KMKG 250905Z 14005KT 2 1/2SM RA BR SCT014 OVC048 19/18 A3002 540 97 1200 140/05 RMK AO2 P0004
14840KMKG MKG20010825041012208/25/01 04:10:31  5-MIN KMKG 250910Z 13006KT 2SM +RA BR SCT014 SCT019 OVC048 19/18 A3002 540 97 1200 130/06 RMK AO2 P0006
14840KMKG MKG20010825041512608/25/01 04:15:31  5-MIN KMKG 250915Z 13006KT 2 1/2SM -RA BR FEW012 BKN039 OVC048 19/18 A3002 540 97 1200 130/06 RMK AO2 P0006
14840KMKG MKG20010825042014308/25/01 04:20:31  5-MIN KMKG 250920Z 12008KT 2 1/2SM +RA BR SCT014 BKN026 OVC048 19/18 A3001 540 97 1200 120/08 RMK AO2 VIS 1 3/4 RWY 14 P0010
14840KMKG MKG20010825042512608/25/01 04:25:31  5-MIN KMKG 250925Z 12007KT 1 3/4SM +RA BR BKN016 BKN024 OVC039 19/18 A3001 550 97 1200 120/07 RMK AO2 P0016
14840KMKG MKG20010825043012508/25/01 04:30:31  5-MIN KMKG 250930Z 11008KT 1 3/4SM RA BR BKN014 BKN024 OVC036 19/18 A3001 550 97 1200 110/08 RMK AO2 P0017
14840KMKG MKG20010825043512508/25/01 04:35:31  5-MIN KMKG 250935Z 13008KT 1 3/4SM RA BR SCT014 BKN036 OVC050 19/18 A3001 550 97 1200 140/08 RMK AO2 P0023
14840KMKG MKG20010825044012208/25/01 04:40:31  5-MIN KMKG 250940Z 12008KT 1SM +RA BR BKN010 BKN027 OVC050 19/18 A3000 550 97 1200 130/08 RMK AO2 P0038
14840KMKG MKG20010825044512208/25/01 04:45:31  5-MIN KMKG 250945Z 13007KT 1SM +RA BR BKN008 BKN020 OVC036 19/18 A3001 550 97 1200 130/07 RMK AO2 P0045
14840KMKG MKG20010825045015808/25/01 04:50:31  5-MIN KMKG 250950Z 13009KT 1 1/4SM +RA BR SCT008 BKN020 OVC036 19/18 A3000 550 97 1200 130/09 RMK AO2 CIG 011 RWY 14 SLP157 P0046 T01890183
14840KMKG MKG20010825045513908/25/01 04:55:31  5-MIN KMKG 250955Z 11009KT 2SM -RA BR FEW006 SCT018 OVC036 19/18 A3000 550 97 1200 120/09 RMK AO2 SLP157 P0047 T01890183
14840KMKG MKG20010825050014308/25/01 05:00:31  5-MIN KMKG 251000Z 11009KT 2 1/2SM -RA BR FEW006 SCT018 OVC036 19/18 A3000 560 97 1200 110/09 RMK AO2 VIS 1 3/4 RWY 14 P0000
14840KMKG MKG20010825050513008/25/01 05:05:31  5-MIN KMKG 251005Z 11010KT 3SM BR FEW004 OVC036 19/18 A3000 550 97 1200 120/10 RMK AO2 VIS 2 RWY 14 RAE05 P0000
14840KMKG MKG20010825051011408/25/01 05:10:31  5-MIN KMKG 251010Z 12009KT 2SM RA BR FEW004 OVC036 19/18 A3000 550 97 1200 130/09 RMK AO2 P0005
14840KMKG MKG20010825051511208/25/01 05:15:31  5-MIN KMKG 251015Z 13009KT 1 3/4SM +RA BR OVC036 19/18 A3000 550 97 1200 130/09 RMK AO2 P0006
14840KMKG MKG20010825052011508/25/01 05:20:31  5-MIN KMKG 251020Z 12011KT 2SM -RA BR SCT029 OVC034 19/18 A3001 550 97 1200 130/11 RMK AO2 P0006
14840KMKG MKG20010825052511908/25/01 05:25:31  5-MIN KMKG 251025Z 12010KT 2 1/2SM -RA BR BKN029 OVC036 19/18 A3000 550 97 1200 120/10 RMK AO2 P0007
14840KMKG MKG20010825053011408/25/01 05:30:31  5-MIN KMKG 251030Z 12009KT 2SM RA BR BKN029 OVC036 19/18 A3000 550 97 1200 120/09 RMK AO2 P0009
14840KMKG MKG20010825053511508/25/01 05:35:31  5-MIN KMKG 251035Z 12007KT 2SM -RA BR BKN027 OVC036 19/18 A3000 550 97 1200 120/07 RMK AO2 P0010
14840KMKG MKG20010825054011208/25/01 05:40:31  5-MIN KMKG 251040Z 11007KT 2 1/2SM -RA BR OVC027 19/18 A3001 550 97 1200 110/07 RMK AO2 P0010
14840KMKG MKG20010825054511508/25/01 05:45:31  5-MIN KMKG 251045Z 12007KT 3SM -RA BR FEW012 OVC027 19/18 A3001 550 97 1200 120/07 RMK AO2 P0010
14840KMKG MKG20010825055012708/25/01 05:50:31  5-MIN KMKG 251050Z 12007KT 3SM BR OVC025 19/18 A3001 550 97 1200 120/07 RMK AO2 RAE48 SLP157 P0010 T01890183
14840KMKG MKG20010825055512708/25/01 05:55:31  5-MIN KMKG 251055Z 13008KT 3SM BR OVC025 19/18 A3001 550 97 1200 130/08 RMK AO2 RAE48 SLP159 P0010 T01890183
14840KMKG MKG20010825060010808/25/01 06:00:31  5-MIN KMKG 251100Z 12008KT 2SM BR OVC023 19/18 A3001 550 97 1200 120/08 RMK AO2 SFC VIS 3
14840KMKG MKG20010825060510808/25/01 06:05:31  5-MIN KMKG 251105Z 13008KT 2SM BR OVC023 19/18 A3001 550 97 1200 130/08 RMK AO2 SFC VIS 3
14840KMKG MKG20010825061010808/25/01 06:10:31  5-MIN KMKG 251110Z 13008KT 2SM BR OVC023 19/18 A3001 550 97 1200 140/08 RMK AO2 SFC VIS 3
14840KMKG MKG20010825061510808/25/01 06:15:31  5-MIN KMKG 251115Z 13006KT 2SM BR OVC023 19/18 A3001 540 97 1200 130/06 RMK AO2 SFC VIS 3
14840KMKG MKG20010825062010808/25/01 06:20:31  5-MIN KMKG 251120Z 13006KT 2SM BR OVC023 19/18 A3001 540 97 1200 140/06 RMK AO2 SFC VIS 3
14840KMKG MKG20010825062509808/25/01 06:25:31  5-MIN KMKG 251125Z 13006KT 2SM BR OVC023 19/18 A3001 540 97 1200 130/06 RMK AO2
14840KMKG MKG20010825063009808/25/01 06:30:31  5-MIN KMKG 251130Z 13006KT 2SM BR OVC023 19/18 A3002 540 97 1200 140/06 RMK AO2
14840KMKG MKG20010825063509808/25/01 06:35:31  5-MIN KMKG 251135Z 13007KT 2SM BR OVC023 19/18 A3002 540 93 1200 130/07 RMK AO2
14840KMKG MKG20010825064009808/25/01 06:40:31  5-MIN KMKG 251140Z 13007KT 2SM BR OVC023 19/18 A3002 540 93 1200 130/07 RMK AO2
14840KMKG MKG20010825064509808/25/01 06:45:31  5-MIN KMKG 251145Z 13007KT 2SM BR OVC023 19/18 A3002 540 93 1200 140/07 RMK AO2
14840KMKG MKG20010825065014508/25/01 06:50:31  5-MIN KMKG 251150Z 13007KT 2SM BR OVC023 19/19 A3001 540 97 1200 130/07 RMK AO2 SLP160 60058 70058 T01940189 10194 20189 56015
14840KMKG MKG20010825065514508/25/01 06:55:31  5-MIN KMKG 251155Z 13008KT 2SM BR OVC023 19/19 A3001 540 97 1200 130/08 RMK AO2 SLP160 60058 70058 T01940189 10194 20189 55002
14840KMKG MKG20010825070010508/25/01 07:00:31  5-MIN KMKG 251200Z 13007KT 2SM BR BKN021 OVC026 19/19 A3002 540 97 1200 140/07 RMK AO2
14840KMKG MKG20010825070510508/25/01 07:05:31  5-MIN KMKG 251205Z 13009KT 2SM BR BKN021 OVC026 19/19 A3001 550 97 1200 140/09 RMK AO2
14840KMKG MKG20010825071011208/25/01 07:10:31  5-MIN KMKG 251210Z 13009KT 2SM BR BKN021 BKN026 BKN040 19/19 A3001 550 97 1200 140/09 RMK AO2
14840KMKG MKG20010825071511208/25/01 07:15:31  5-MIN KMKG 251215Z 13009KT 2SM BR SCT021 BKN026 BKN042 19/19 A3001 550 97 1200 140/09 RMK AO2
14840KMKG MKG20010825072011208/25/01 07:20:31  5-MIN KMKG 251220Z 13009KT 2SM BR SCT021 BKN028 OVC042 19/19 A3001 550 97 1200 140/09 RMK AO2
14840KMKG MKG20010825072511208/25/01 07:25:31  5-MIN KMKG 251225Z 13008KT 2SM BR FEW021 BKN028 OVC042 19/19 A3001 550 97 1200 140/08 RMK AO2
14840KMKG MKG20010825073011208/25/01 07:30:31  5-MIN KMKG 251230Z 13008KT 2SM BR SCT021 BKN028 BKN042 19/19 A3000 550 97 1200 130/08 RMK AO2
14840KMKG MKG20010825073512708/25/01 07:35:31  5-MIN KMKG 251235Z 13008KT 2SM BR FEW021 SCT028 BKN042 19/19 A3000 550 97 1200 130/08 RMK AO2 CIG 028 RWY 14
14840KMKG MKG20010825074011208/25/01 07:40:31  5-MIN KMKG 251240Z 13008KT 2SM BR SCT023 BKN028 BKN042 19/19 A3000 550 97 1200 130/08 RMK AO2
14840KMKG MKG20010825074511208/25/01 07:45:31  5-MIN KMKG 251245Z 13007KT 2SM BR SCT023 BKN028 BKN042 19/19 A3000 550 97 1200 130/07 RMK AO2
14840KMKG MKG20010825075014408/25/01 07:50:31  5-MIN KMKG 251250Z 13008KT 2SM BR FEW021 SCT026 BKN042 19/19 A3000 560 97 1200 130/08 RMK AO2 CIG 028 RWY 14 SLP157 T01940189
14840KMKG MKG20010825075512208/25/01 07:55:31  5-MIN KMKG 251255Z 13008KT 2SM BR FEW021 SCT026 19/19 A3000 560 97 1200 140/08 RMK AO2 SLP156 T01940189
14840KMKG MKG20010825080009808/25/01 08:00:31  5-MIN KMKG 251300Z 13008KT 2SM BR FEW024 20/19 A3000 560 93 1300 140/08 RMK AO2
14840KMKG MKG20010825080509808/25/01 08:05:31  5-MIN KMKG 251305Z 14008KT 2SM BR FEW024 20/19 A3000 560 93 1300 140/08 RMK AO2
14840KMKG MKG20010825081009808/25/01 08:10:31  5-MIN KMKG 251310Z 15007KT 2SM BR FEW020 20/19 A3000 560 93 1300 150/07 RMK AO2
14840KMKG MKG20010825081510508/25/01 08:15:31  5-MIN KMKG 251315Z 14008KT 2SM BR FEW020 SCT025 20/19 A3000 560 93 1300 140/08 RMK AO2
14840KMKG MKG20010825082010508/25/01 08:20:31  5-MIN KMKG 251320Z 14007KT 2SM BR FEW020 SCT028 20/19 A3000 560 93 1300 150/07 RMK AO2
14840KMKG MKG20010825082510508/25/01 08:25:31  5-MIN KMKG 251325Z 14009KT 2SM BR FEW020 SCT035 20/19 A3000 560 97 1300 150/09 RMK AO2
14840KMKG MKG20010825083010508/25/01 08:30:31  5-MIN KMKG 251330Z 14008KT 2SM BR FEW020 SCT035 21/19 A2999 560 93 1400 140/08 RMK AO2
14840KMKG MKG20010825083510508/25/01 08:35:31  5-MIN KMKG 251335Z 14009KT 2SM BR FEW020 SCT035 21/19 A2999 560 93 1400 150/09 RMK AO2
14840KMKG MKG20010825084010508/25/01 08:40:31  5-MIN KMKG 251340Z 14009KT 2SM BR FEW020 SCT035 21/19 A2999 560 93 1400 150/09 RMK AO2
14840KMKG MKG20010825084509808/25/01 08:45:31  5-MIN KMKG 251345Z 15009KT 2SM BR FEW036 21/19 A2999 560 93 1400 150/09 RMK AO2
14840KMKG MKG20010825085011908/25/01 08:50:31  5-MIN KMKG 251350Z 15007KT 2 1/2SM BR FEW036 21/20 A2999 560 93 1400 160/07 RMK AO2 SLP155 T02110200
14840KMKG MKG20010825085511908/25/01 08:55:31  5-MIN KMKG 251355Z 15008KT 2 1/2SM BR FEW021 21/20 A2999 560 93 1400 150/08 RMK AO2 SLP154 T02110200
14840KMKG MKG20010825090010208/25/01 09:00:31  5-MIN KMKG 251400Z 15008KT 2 1/2SM BR FEW021 22/20 A2999 560 90 1500 160/08 RMK AO2
14840KMKG MKG20010825090511408/25/01 09:05:31  5-MIN KMKG 251405Z 15009KT 2 1/2SM BR CLR 21/20 A2999 560 93 1400 150/09 RMK AO2 CIG 045 RWY 14
14840KMKG MKG20010825091010208/25/01 09:10:31  5-MIN KMKG 251410Z 16009KT 2 1/2SM BR FEW016 21/19 A3000 560 90 1400 160/09 RMK AO2
14840KMKG MKG20010825091510208/25/01 09:15:31  5-MIN KMKG 251415Z 15008KT 2 1/2SM BR SCT016 21/20 A3000 560 93 1400 150/08 RMK AO2
14840KMKG MKG20010825092010208/25/01 09:20:31  5-MIN KMKG 251420Z 15007KT 2 1/2SM BR BKN016 21/20 A3000 560 93 1400 150/07 RMK AO2
14840KMKG MKG20010825092510208/25/01 09:25:31  5-MIN KMKG 251425Z 14008KT 2 1/2SM BR BKN016 21/20 A2999 560 93 1400 150/08 RMK AO2
14840KMKG MKG20010825093010208/25/01 09:30:31  5-MIN KMKG 251430Z 15008KT 2 1/2SM BR BKN016 21/19 A2999 560 90 1400 150/08 RMK AO2
14840KMKG MKG20010825093510908/25/01 09:35:31  5-MIN KMKG 251435Z 15008KT 2 1/2SM BR BKN016 BKN036 21/20 A2999 560 93 1400 160/08 RMK AO2
14840KMKG MKG20010825094010908/25/01 09:40:31  5-MIN KMKG 251440Z 15008KT 2 1/2SM BR BKN018 BKN034 21/20 A2999 570 93 1400 150/08 RMK AO2
14840KMKG MKG20010825094510908/25/01 09:45:31  5-MIN KMKG 251445Z 15006KT 2 1/2SM BR BKN018 BKN034 21/20 A2999 570 93 1400 150/06 RMK AO2
14840KMKG MKG20010825095013208/25/01 09:50:31  5-MIN KMKG 251450Z 15007KT 2 1/2SM BR SCT018 SCT034 22/20 A2999 570 90 1500 150/07 RMK AO2 SLP153 T02170200 55002
14840KMKG MKG20010825095513208/25/01 09:55:31  5-MIN KMKG 251455Z 15008KT 2 1/2SM BR FEW018 SCT034 22/20 A2999 570 90 1500 150/08 RMK AO2 SLP152 T02170200 56009
14840KMKG MKG20010825100010208/25/01 10:00:31  5-MIN KMKG 251500Z 14007KT 2 1/2SM BR FEW020 22/20 A2999 570 90 1500 150/07 RMK AO2
14840KMKG MKG20010825100512408/25/01 10:05:31  5-MIN KMKG 251505Z 15006KT 2 1/2SM BR CLR 22/20 A2999 570 87 1600 160/06 RMK AO2 SFC VIS 3 CIG 035 RWY 14
14840KMKG MKG20010825101012408/25/01 10:10:31  5-MIN KMKG 251510Z 15008KT 2 1/2SM BR CLR 22/20 A2999 570 87 1600 150/08 RMK AO2 SFC VIS 3 CIG 095 RWY 14
14840KMKG MKG20010825101512408/25/01 10:15:31  5-MIN KMKG 251515Z 15007KT 2 1/2SM BR CLR 23/21 A2998 570 87 1600 160/07 RMK AO2 SFC VIS 3 CIG 095 RWY 14
14840KMKG MKG20010825102011208/25/01 10:20:31  5-MIN KMKG 251520Z 15009KT 2 1/2SM BR FEW019 23/21 A2998 570 87 1600 160/09 RMK AO2 SFC VIS 3
14840KMKG MKG20010825102511208/25/01 10:25:31  5-MIN KMKG 251525Z 16010KT 2 1/2SM BR SCT019 23/21 A2998 580 87 1700 160/10 RMK AO2 SFC VIS 3
14840KMKG MKG20010825103009808/25/01 10:30:31  5-MIN KMKG 251530Z 15010KT 3SM BR BKN019 23/21 A2998 580 87 1700 160/10 RMK AO2
14840KMKG MKG20010825103509808/25/01 10:35:31  5-MIN KMKG 251535Z 15009KT 3SM BR BKN019 23/21 A2998 580 87 1700 160/09 RMK AO2
14840KMKG MKG20010825104009808/25/01 10:40:31  5-MIN KMKG 251540Z 15008KT 3SM BR BKN017 23/21 A2998 580 87 1700 160/08 RMK AO2
14840KMKG MKG20010825104509808/25/01 10:45:31  5-MIN KMKG 251545Z 16008KT 3SM BR OVC017 23/21 A2998 580 87 1700 160/08 RMK AO2
14840KMKG MKG20010825105011508/25/01 10:50:31  5-MIN KMKG 251550Z 17007KT 3SM BR OVC017 23/21 A2998 580 87 1700 170/07 RMK AO2 SLP148 T02280206
14840KMKG MKG20010825105511508/25/01 10:55:31  5-MIN KMKG 251555Z 16009KT 3SM BR BKN015 23/21 A2997 580 87 1700 160/09 RMK AO2 SLP147 T02280206
14840KMKG MKG20010825110009808/25/01 11:00:31  5-MIN KMKG 251600Z 16008KT 3SM HZ BKN015 23/21 A2998 580 84 1700 170/08 RMK AO2
14840KMKG MKG20010825110509808/25/01 11:05:31  5-MIN KMKG 251605Z 16006KT 4SM BR BKN015 23/21 A2997 580 87 1700 170/06 RMK AO2
14840KMKG MKG20010825111009808/25/01 11:10:31  5-MIN KMKG 251610Z 18007KT 4SM HZ BKN015 24/21 A2998 580 84 1800 180/07 RMK AO2
14840KMKG MKG20010825111510508/25/01 11:15:31  5-MIN KMKG 251615Z 16009KT 4SM HZ BKN015 BKN019 23/21 A2997 580 84 1700 160/09 RMK AO2
14840KMKG MKG20010825112009808/25/01 11:20:31  5-MIN KMKG 251620Z 17009KT 4SM HZ BKN015 24/21 A2997 580 84 1800 170/09 RMK AO2
14840KMKG MKG20010825112509808/25/01 11:25:31  5-MIN KMKG 251625Z 17009KT 4SM HZ BKN015 24/21 A2997 580 84 1800 170/09 RMK AO2
14840KMKG MKG20010825113009808/25/01 11:30:31  5-MIN KMKG 251630Z 18011KT 4SM HZ BKN017 24/21 A2997 580 81 1800 180/11 RMK AO2
14840KMKG MKG20010825113509808/25/01 11:35:31  5-MIN KMKG 251635Z 17009KT 4SM HZ BKN017 24/21 A2997 580 84 1800 180/09 RMK AO2
14840KMKG MKG20010825114009808/25/01 11:40:31  5-MIN KMKG 251640Z 18009KT 4SM HZ BKN017 24/21 A2997 590 84 1800 180/09 RMK AO2
14840KMKG MKG20010825114509808/25/01 11:45:31  5-MIN KMKG 251645Z 19011KT 5SM HZ BKN017 24/21 A2997 590 81 1900 190/11 RMK AO2
14840KMKG MKG20010825115012108/25/01 11:50:31  5-MIN KMKG 251650Z 17012G16KT 5SM HZ BKN017 24/21 A2997 590 78 1900 180/12G16 RMK AO2 SLP144 T02440206
14840KMKG MKG20010825115511508/25/01 11:55:31  5-MIN KMKG 251655Z 18010KT 5SM HZ BKN017 24/21 A2996 590 78 1900 180/10 RMK AO2 SLP142 T02440206
14840KMKG MKG20010825120009808/25/01 12:00:31  5-MIN KMKG 251700Z 19013KT 5SM HZ BKN019 24/21 A2997 590 78 1900 190/13 RMK AO2
14840KMKG MKG20010825120510408/25/01 12:05:31  5-MIN KMKG 251705Z 18013G19KT 5SM HZ BKN019 24/21 A2996 590 78 1900 180/13G19 RMK AO2
14840KMKG MKG20010825121010408/25/01 12:10:31  5-MIN KMKG 251710Z 19010G19KT 5SM HZ BKN019 24/21 A2997 590 81 1800 190/10G19 RMK AO2
14840KMKG MKG20010825121511108/25/01 12:15:31  5-MIN KMKG 251715Z 18014G18KT 5SM HZ BKN019 BKN031 24/21 A2996 590 81 1800 190/14G18 RMK AO2
14840KMKG MKG20010825122011108/25/01 12:20:31  5-MIN KMKG 251720Z 19011G18KT 5SM HZ BKN019 OVC031 24/21 A2996 590 81 1800 200/11G18 RMK AO2
14840KMKG MKG20010825122510508/25/01 12:25:31  5-MIN KMKG 251725Z 18013KT 5SM HZ BKN019 OVC031 24/21 A2996 590 81 1800 190/13 RMK AO2
14840KMKG MKG20010825123011108/25/01 12:30:31  5-MIN KMKG 251730Z 18011G18KT 5SM HZ SCT019 BKN031 24/21 A2996 600 81 1800 180/11G18 RMK AO2
14840KMKG MKG20010825123511108/25/01 12:35:31  5-MIN KMKG 251735Z 19011G18KT 5SM HZ FEW019 BKN031 23/21 A2996 600 84 1700 190/11G18 RMK AO2
14840KMKG MKG20010825124011108/25/01 12:40:31  5-MIN KMKG 251740Z 19013G20KT 5SM HZ FEW019 BKN031 23/21 A2996 600 84 1700 190/13G20 RMK AO2
14840KMKG MKG20010825124511108/25/01 12:45:31  5-MIN KMKG 251745Z 18010G20KT 5SM HZ FEW017 BKN031 24/21 A2996 600 81 1800 190/10G20 RMK AO2
14840KMKG MKG20010825125014008/25/01 12:50:31  5-MIN KMKG 251750Z 19014KT 5SM HZ FEW017 BKN031 24/21 A2995 600 81 1800 190/14 RMK AO2 SLP140 T02390206 10250 20194 56009
14840KMKG MKG20010825125515508/25/01 12:55:31  5-MIN KMKG 251755Z 19013KT 5SM HZ SCT017 BKN031 24/21 A2995 600 81 1800 190/13 RMK AO2 CIG 018 RWY 14 SLP140 T02390206 10250 20194 56010
14840KMKG MKG20010825130012608/25/01 13:00:31  5-MIN KMKG 251800Z 19013G19KT 5SM HZ SCT017 BKN031 23/21 A2995 600 84 1700 190/13G19 RMK AO2 CIG 016 RWY 14
14840KMKG MKG20010825130511108/25/01 13:05:31  5-MIN KMKG 251805Z 18012G19KT 5SM HZ BKN017 BKN034 24/21 A2995 600 81 1800 180/12G19 RMK AO2
14840KMKG MKG20010825131009808/25/01 13:10:31  5-MIN KMKG 251810Z 17014KT 5SM HZ SCT017 23/21 A2995 610 84 1800 180/14 RMK AO2
14840KMKG MKG20010825131510408/25/01 13:15:31  5-MIN KMKG 251815Z 18012G19KT 5SM HZ SCT017 23/21 A2994 610 84 1800 190/12G19 RMK AO2
14840KMKG MKG20010825132009808/25/01 13:20:31  5-MIN KMKG 251820Z 17011KT 5SM HZ FEW017 23/21 A2994 610 84 1800 180/11 RMK AO2
14840KMKG MKG20010825132509808/25/01 13:25:31  5-MIN KMKG 251825Z 18011KT 5SM HZ FEW017 23/21 A2994 620 84 1800 180/11 RMK AO2
14840KMKG MKG20010825133009808/25/01 13:30:31  5-MIN KMKG 251830Z 18012KT 5SM HZ FEW015 23/21 A2993 620 84 1800 180/12 RMK AO2
14840KMKG MKG20010825133509508/25/01 13:35:31  5-MIN KMKG 251835Z 18010KT 5SM HZ CLR 23/21 A2993 620 84 1800 180/10 RMK AO2
14840KMKG MKG20010825134010808/25/01 13:40:31  5-MIN KMKG 251840Z 19013KT 5SM -RA CLR 23/21 A2993 620 84 1800 190/13 RMK AO2 RAB39 P0000
14840KMKG MKG20010825134510808/25/01 13:45:31  5-MIN KMKG 251845Z 17011KT 5SM -RA CLR 23/21 A2992 630 84 1800 180/11 RMK AO2 RAB39 P0000
14840KMKG MKG20010825135012808/25/01 13:50:31  5-MIN KMKG 251850Z 17012KT 5SM -RA BR CLR 23/21 A2992 630 87 1700 170/12 RMK AO2 RAB39 SLP130 P0000 T02280206
14840KMKG MKG20010825135513108/25/01 13:55:31  5-MIN KMKG 251855Z 17010KT 5SM -RA BR SCT016 23/21 A2992 630 87 1700 180/10 RMK AO2 RAB39 SLP128 P0000 T02280206
14840KMKG MKG20010825140010808/25/01 14:00:31  5-MIN KMKG 251900Z 18011KT 5SM -RA BR SCT016 23/21 A2992 630 87 1700 180/11 RMK AO2 P0000
14840KMKG MKG20010825140510808/25/01 14:05:31  5-MIN KMKG 251905Z 19010KT 5SM -RA BR SCT016 23/21 A2993 630 90 1700 190/10 RMK AO2 P0000
14840KMKG MKG20010825141010808/25/01 14:10:31  5-MIN KMKG 251910Z 19011KT 5SM -RA BR SCT016 23/21 A2993 630 90 1700 190/11 RMK AO2 P0000
14840KMKG MKG20010825141510808/25/01 14:15:31  5-MIN KMKG 251915Z 19009KT 5SM -RA BR SCT016 23/21 A2993 630 87 1700 190/09 RMK AO2 P0000
14840KMKG MKG20010825142010808/25/01 14:20:31  5-MIN KMKG 251920Z 18011KT 5SM -RA BR SCT016 23/21 A2993 630 90 1700 190/11 RMK AO2 P0000
14840KMKG MKG20010825142512108/25/01 14:25:31  5-MIN KMKG 251925Z 18010G16KT 5SM -RA BR BKN016 BKN024 23/21 A2993 630 90 1700 190/10G16 RMK AO2 P0000
14840KMKG MKG20010825143011408/25/01 14:30:31  5-MIN KMKG 251930Z 19010G16KT 5SM -RA BR BKN018 23/21 A2992 630 87 1800 190/10G16 RMK AO2 P0000
14840KMKG MKG20010825143511008/25/01 14:35:31  5-MIN KMKG 251935Z 19011KT 5SM BR BKN018 23/21 A2992 630 87 1800 200/11 RMK AO2 RAE35 P0000
14840KMKG MKG20010825144011008/25/01 14:40:31  5-MIN KMKG 251940Z 19011KT 5SM BR BKN016 23/21 A2992 630 87 1800 190/11 RMK AO2 RAE35 P0000
14840KMKG MKG20010825144511008/25/01 14:45:31  5-MIN KMKG 251945Z 17009KT 5SM HZ BKN016 24/21 A2991 640 84 1900 180/09 RMK AO2 RAE35 P0000
14840KMKG MKG20010825145012708/25/01 14:50:31  5-MIN KMKG 251950Z 17008KT 5SM HZ SCT016 24/21 A2991 640 84 1900 170/08 RMK AO2 RAE35 SLP124 P0000 T02390211
14840KMKG MKG20010825145512708/25/01 14:55:31  5-MIN KMKG 251955Z 17008KT 5SM HZ BKN016 24/21 A2990 650 84 1900 180/08 RMK AO2 RAE35 SLP123 P0000 T02390211
14840KMKG MKG20010825150010508/25/01 15:00:31  5-MIN KMKG 252000Z 16010KT 5SM HZ SCT016 24/21 A2990 650 84 1900 170/10 RMK AO2 PRESFR
14840KMKG MKG20010825150509808/25/01 15:05:31  5-MIN KMKG 252005Z 17009KT 5SM HZ SCT016 24/21 A2990 650 84 1900 180/09 RMK AO2
14840KMKG MKG20010825151009808/25/01 15:10:31  5-MIN KMKG 252010Z 15009KT 5SM HZ BKN016 24/21 A2989 650 81 1900 150/09 RMK AO2
14840KMKG MKG20010825151510508/25/01 15:15:31  5-MIN KMKG 252015Z 16012KT 5SM HZ SCT014 BKN019 24/22 A2989 660 84 1900 170/12 RMK AO2
14840KMKG MKG20010825152009808/25/01 15:20:31  5-MIN KMKG 252020Z 16011KT 5SM HZ BKN016 24/21 A2989 660 84 1900 160/11 RMK AO2
14840KMKG MKG20010825152509808/25/01 15:25:31  5-MIN KMKG 252025Z 17010KT 5SM HZ BKN014 24/21 A2989 660 84 1900 180/10 RMK AO2
14840KMKG MKG20010825153009808/25/01 15:30:31  5-MIN KMKG 252030Z 17011KT 5SM HZ SCT014 24/21 A2989 660 84 1900 170/11 RMK AO2
14840KMKG MKG20010825153509808/25/01 15:35:31  5-MIN KMKG 252035Z 17009KT 5SM HZ SCT014 24/21 A2989 660 81 1900 180/09 RMK AO2
14840KMKG MKG20010825154009808/25/01 15:40:31  5-MIN KMKG 252040Z 16010KT 5SM HZ FEW014 24/21 A2988 670 81 2000 160/10 RMK AO2
14840KMKG MKG20010825154509808/25/01 15:45:31  5-MIN KMKG 252045Z 15009KT 5SM HZ FEW014 24/21 A2988 670 81 2000 150/09 RMK AO2
14840KMKG MKG20010825155012708/25/01 15:50:31  5-MIN KMKG 252050Z 15009KT 6SM HZ FEW110 24/21 A2987 670 81 2000 160/09 RMK AO2 SLP113 60000 T02440211 56010
14840KMKG MKG20010825155512408/25/01 15:55:31  5-MIN KMKG 252055Z 13011KT 6SM HZ CLR 24/21 A2987 680 81 2000 140/11 RMK AO2 SLP112 60000 T02440211 56028
14840KMKG MKG20010825160009808/25/01 16:00:31  5-MIN KMKG 252100Z 16009KT 6SM HZ FEW110 24/21 A2987 670 81 2000 160/09 RMK AO2
14840KMKG MKG20010825160509808/25/01 16:05:31  5-MIN KMKG 252105Z 16008KT 5SM HZ FEW110 24/21 A2987 670 84 1900 160/08 RMK AO2
14840KMKG MKG20010825161010508/25/01 16:10:31  5-MIN KMKG 252110Z 15008KT 5SM HZ FEW016 SCT110 24/21 A2987 680 84 1900 150/08 RMK AO2
14840KMKG MKG20010825161510508/25/01 16:15:31  5-MIN KMKG 252115Z 15008KT 6SM HZ FEW016 SCT110 24/21 A2987 680 84 1900 160/08 RMK AO2
14840KMKG MKG20010825162010508/25/01 16:20:31  5-MIN KMKG 252120Z 15009KT 6SM HZ FEW016 SCT110 24/21 A2987 680 84 1900 150/09 RMK AO2
14840KMKG MKG20010825162511808/25/01 16:25:31  5-MIN KMKG 252125Z 14009KT 6SM -RA FEW016 SCT110 24/21 A2987 680 84 1900 140/09 RMK AO2 RAB21 P0000
14840KMKG MKG20010825163011808/25/01 16:30:31  5-MIN KMKG 252130Z 14009KT 6SM -RA FEW016 SCT110 24/21 A2987 680 84 1900 150/09 RMK AO2 RAB21 P0000
14840KMKG MKG20010825163512008/25/01 16:35:31  5-MIN KMKG 252135Z 14009KT 6SM HZ FEW016 SCT110 24/21 A2987 680 84 1900 150/09 RMK AO2 RAB21E32 P0000
14840KMKG MKG20010825164012008/25/01 16:40:31  5-MIN KMKG 252140Z 14009KT 5SM HZ FEW016 SCT110 24/21 A2987 680 84 1900 150/09 RMK AO2 RAB21E32 P0000
14840KMKG MKG20010825164512008/25/01 16:45:31  5-MIN KMKG 252145Z 15009KT 5SM HZ FEW016 SCT110 24/21 A2987 680 84 1900 150/09 RMK AO2 RAB21E32 P0000
14840KMKG MKG20010825165013708/25/01 16:50:31  5-MIN KMKG 252150Z 14009KT 5SM HZ FEW016 SCT110 24/21 A2986 680 84 1900 140/09 RMK AO2 RAB21E32 SLP109 P0000 T02390211
14840KMKG MKG20010825165513708/25/01 16:55:31  5-MIN KMKG 252155Z 15006KT 5SM HZ FEW016 SCT110 24/21 A2987 680 84 1900 150/06 RMK AO2 RAB21E32 SLP111 P0000 T02390211
14840KMKG MKG20010825170009808/25/01 17:00:31  5-MIN KMKG 252200Z 14006KT 5SM HZ FEW110 24/21 A2987 680 84 1900 140/06 RMK AO2
14840KMKG MKG20010825170509808/25/01 17:05:31  5-MIN KMKG 252205Z 15007KT 5SM HZ FEW100 24/21 A2987 680 84 1900 150/07 RMK AO2
14840KMKG MKG20010825171010508/25/01 17:10:31  5-MIN KMKG 252210Z 15008KT 5SM HZ FEW090 SCT110 24/21 A2987 680 84 1900 150/08 RMK AO2
14840KMKG MKG20010825171510508/25/01 17:15:31  5-MIN KMKG 252215Z 15008KT 5SM HZ FEW090 SCT110 24/21 A2987 680 84 1900 150/08 RMK AO2
14840KMKG MKG20010825172010508/25/01 17:20:31  5-MIN KMKG 252220Z 15008KT 5SM HZ FEW090 SCT110 24/21 A2986 680 84 1900 150/08 RMK AO2
14840KMKG MKG20010825172511208/25/01 17:25:31  5-MIN KMKG 252225Z 14009KT 5SM HZ FEW040 SCT055 SCT100 24/21 A2987 680 84 1900 150/09 RMK AO2
14840KMKG MKG20010825173011208/25/01 17:30:31  5-MIN KMKG 252230Z 14009KT 5SM HZ SCT040 BKN055 BKN100 24/21 A2986 680 84 1900 140/09 RMK AO2
14840KMKG MKG20010825173511808/25/01 17:35:31  5-MIN KMKG 252235Z 14008KT 5SM -RA BKN042 BKN055 24/21 A2986 680 84 1900 150/08 RMK AO2 RAB33 P0000
14840KMKG MKG20010825174011808/25/01 17:40:31  5-MIN KMKG 252240Z 16006KT 6SM -RA BKN042 BKN050 24/21 A2986 680 84 1900 160/06 RMK AO2 RAB33 P0000
14840KMKG MKG20010825174512008/25/01 17:45:31  5-MIN KMKG 252245Z 15008KT 6SM HZ BKN044 BKN055 24/21 A2986 690 84 1900 150/08 RMK AO2 RAB33E42 P0000
14840KMKG MKG20010825175013008/25/01 17:50:31  5-MIN KMKG 252250Z 15009KT 6SM HZ OVC044 24/21 A2986 690 84 1900 150/09 RMK AO2 RAB33E42 SLP108 P0000 T02390211
14840KMKG MKG20010825175513008/25/01 17:55:31  5-MIN KMKG 252255Z 16008KT 6SM HZ BKN046 24/21 A2986 690 81 1900 160/08 RMK AO2 RAB33E42 SLP107 P0000 T02390206
14840KMKG MKG20010825180009808/25/01 18:00:31  5-MIN KMKG 252300Z 15007KT 6SM HZ OVC048 24/21 A2985 690 81 1900 150/07 RMK AO2
14840KMKG MKG20010825180509808/25/01 18:05:31  5-MIN KMKG 252305Z 16007KT 6SM HZ OVC046 24/21 A2985 690 81 1900 160/07 RMK AO2
14840KMKG MKG20010825181009808/25/01 18:10:31  5-MIN KMKG 252310Z 15007KT 6SM HZ OVC046 23/21 A2985 700 84 1900 160/07 RMK AO2
14840KMKG MKG20010825181509808/25/01 18:15:31  5-MIN KMKG 252315Z 15007KT 6SM HZ OVC046 24/21 A2985 700 84 1900 150/07 RMK AO2
14840KMKG MKG20010825182009808/25/01 18:20:31  5-MIN KMKG 252320Z 15008KT 6SM BR OVC046 23/21 A2984 700 87 1900 150/08 RMK AO2
14840KMKG MKG20010825182509808/25/01 18:25:31  5-MIN KMKG 252325Z 15006KT 6SM BR OVC046 23/21 A2984 700 87 1900 150/06 RMK AO2
14840KMKG MKG20010825183009808/25/01 18:30:31  5-MIN KMKG 252330Z 15007KT 6SM BR OVC046 23/21 A2984 700 87 1900 150/07 RMK AO2
14840KMKG MKG20010825183509808/25/01 18:35:31  5-MIN KMKG 252335Z 15006KT 5SM BR BKN046 23/21 A2984 700 87 1900 150/06 RMK AO2
14840KMKG MKG20010825184010508/25/01 18:40:31  5-MIN KMKG 252340Z 15006KT 5SM BR BKN048 BKN120 23/21 A2984 710 87 1900 150/06 RMK AO2
14840KMKG MKG20010825184510508/25/01 18:45:31  5-MIN KMKG 252345Z 15008KT 5SM BR SCT048 BKN120 23/21 A2984 710 87 1900 150/08 RMK AO2
14840KMKG MKG20010825185014608/25/01 18:50:31  5-MIN KMKG 252350Z 16008KT 5SM BR SCT048 BKN120 23/21 A2984 710 87 1900 160/08 RMK AO2 SLP101 60000 T02330211 10244 20228 56028
14840KMKG MKG20010825185514608/25/01 18:55:31  5-MIN KMKG 252355Z 15006KT 5SM BR FEW048 SCT120 23/21 A2984 710 87 1900 160/06 RMK AO2 SLP100 60000 T02330211 10244 20228 58012
14840KMKG MKG20010825190010508/25/01 19:00:31  5-MIN KMKG 260000Z 15005KT 5SM BR FEW050 SCT120 23/21 A2984 710 87 1900 160/05 RMK AO2
14840KMKG MKG20010825190510508/25/01 19:05:31  5-MIN KMKG 260005Z 15006KT 5SM BR FEW050 SCT120 23/21 A2983 710 87 1900 150/06 RMK AO2
14840KMKG MKG20010825191010508/25/01 19:10:31  5-MIN KMKG 260010Z 15008KT 5SM BR FEW050 SCT120 23/21 A2983 710 87 1900 150/08 RMK AO2
14840KMKG MKG20010825191510508/25/01 19:15:31  5-MIN KMKG 260015Z 15006KT 5SM BR FEW050 SCT120 23/21 A2983 720 87 1900 150/06 RMK AO2
14840KMKG MKG20010825192010508/25/01 19:20:31  5-MIN KMKG 260020Z 16006KT 5SM BR FEW050 SCT120 23/21 A2983 710 87 1900 160/06 RMK AO2
14840KMKG MKG20010825192510508/25/01 19:25:31  5-MIN KMKG 260025Z 16006KT 5SM BR FEW050 SCT120 23/21 A2983 710 87 1900 160/06 RMK AO2
14840KMKG MKG20010825193010508/25/01 19:30:31  5-MIN KMKG 260030Z 16007KT 4SM BR BKN025 BKN031 23/21 A2983 710 87 1900 160/07 RMK AO2
14840KMKG MKG20010825193510508/25/01 19:35:31  5-MIN KMKG 260035Z 16006KT 5SM BR BKN025 BKN031 23/21 A2983 710 87 1900 160/06 RMK AO2
14840KMKG MKG20010825194011208/25/01 19:40:31  5-MIN KMKG 260040Z 15006KT 5SM BR BKN025 BKN031 OVC110 23/21 A2983 720 87 1900 160/06 RMK AO2
14840KMKG MKG20010825194512708/25/01 19:45:31  5-MIN KMKG 260045Z 16006KT 6SM BR FEW022 BKN029 OVC110 23/22 A2983 710 90 1900 170/06 RMK AO2 CIG 024 RWY 14
14840KMKG MKG20010825195014408/25/01 19:50:31  5-MIN KMKG 260050Z 16006KT 5SM BR SCT022 BKN029 OVC070 23/22 A2983 710 90 1900 170/06 RMK AO2 CIG 024 RWY 14 SLP099 T02330217
14840KMKG MKG20010825195514408/25/01 19:55:31  5-MIN KMKG 260055Z 17007KT 5SM BR SCT022 BKN029 OVC110 23/22 A2983 710 90 1900 170/07 RMK AO2 CIG 024 RWY 14 SLP099 T02330217
14840KMKG MKG20010825200011208/25/01 20:00:31  5-MIN KMKG 260100Z 17006KT 5SM BR FEW022 BKN027 OVC110 23/22 A2983 710 90 1900 170/06 RMK AO2
14840KMKG MKG20010825200511208/25/01 20:05:31  5-MIN KMKG 260105Z 18007KT 5SM BR FEW022 BKN027 BKN065 23/22 A2983 710 90 1900 180/07 RMK AO2
14840KMKG MKG20010825201011208/25/01 20:10:31  5-MIN KMKG 260110Z 17007KT 5SM BR BKN027 BKN065 BKN080 23/22 A2983 710 90 1900 180/07 RMK AO2
14840KMKG MKG20010825201510508/25/01 20:15:31  5-MIN KMKG 260115Z 18009KT 6SM BR SCT027 BKN070 23/22 A2983 710 90 1900 180/09 RMK AO2
14840KMKG MKG20010825202011208/25/01 20:20:31  5-MIN KMKG 260120Z 17010KT 6SM BR FEW027 BKN065 OVC080 23/22 A2983 710 90 1900 180/10 RMK AO2
14840KMKG MKG20010825202511208/25/01 20:25:31  5-MIN KMKG 260125Z 18009KT 6SM BR FEW027 BKN065 OVC080 24/22 A2983 710 87 1900 180/09 RMK AO2
14840KMKG MKG20010825203011208/25/01 20:30:31  5-MIN KMKG 260130Z 19010KT 6SM BR FEW032 BKN065 OVC080 24/22 A2983 710 87 1900 190/10 RMK AO2
14840KMKG MKG20010825203510908/25/01 20:35:31  5-MIN KMKG 260135Z 18010KT 7SM SCT046 BKN065 OVC100 24/22 A2983 710 87 1900 190/10 RMK AO2
14840KMKG MKG20010825204010908/25/01 20:40:31  5-MIN KMKG 260140Z 18012KT 7SM FEW046 BKN070 BKN100 24/22 A2983 710 87 1900 190/12 RMK AO2
14840KMKG MKG20010825204510908/25/01 20:45:31  5-MIN KMKG 260145Z 19013KT 7SM FEW020 SCT046 BKN065 24/22 A2983 710 87 1900 190/13 RMK AO2
14840KMKG MKG20010825205012608/25/01 20:50:31  5-MIN KMKG 260150Z 19013KT 7SM FEW020 BKN046 BKN055 24/21 A2983 710 84 1900 200/13 RMK AO2 SLP098 T02390211
14840KMKG MKG20010825205513208/25/01 20:55:31  5-MIN KMKG 260155Z 19013G20KT 7SM FEW020 BKN048 BKN060 24/21 A2983 710 84 1900 190/13G20 RMK AO2 SLP099 T02390211
14840KMKG MKG20010825210011508/25/01 21:00:31  5-MIN KMKG 260200Z 19013G20KT 7SM FEW018 BKN046 BKN055 24/22 A2983 710 87 1900 190/13G20 RMK AO2
14840KMKG MKG20010825210511508/25/01 21:05:31  5-MIN KMKG 260205Z 19017G20KT 7SM FEW018 BKN044 BKN055 24/22 A2983 720 87 1900 190/17G20 RMK AO2
14840KMKG MKG20010825211011508/25/01 21:10:31  5-MIN KMKG 260210Z 19013G20KT 7SM FEW018 SCT034 OVC050 24/22 A2983 720 87 2000 190/13G20 RMK AO2
14840KMKG MKG20010825211510908/25/01 21:15:31  5-MIN KMKG 260215Z 20015KT 7SM SCT029 BKN038 OVC050 24/22 A2983 720 87 2000 200/15 RMK AO2
14840KMKG MKG20010825212010908/25/01 21:20:31  5-MIN KMKG 260220Z 19013KT 7SM SCT029 BKN038 OVC049 24/22 A2982 720 87 2000 200/13 RMK AO2
14840KMKG MKG20010825212511108/25/01 21:25:31  5-MIN KMKG 260225Z 20015G20KT 6SM BR BKN034 OVC049 24/22 A2982 720 87 2000 200/15G20 RMK AO2
14840KMKG MKG20010825213011808/25/01 21:30:31  5-MIN KMKG 260230Z 19014G20KT 6SM BR BKN030 BKN039 OVC049 23/22 A2982 720 90 1900 200/14G20 RMK AO2
14840KMKG MKG20010825213511208/25/01 21:35:31  5-MIN KMKG 260235Z 19014KT 6SM BR SCT028 BKN036 OVC047 23/22 A2982 720 90 1900 200/14 RMK AO2
14840KMKG MKG20010825214012708/25/01 21:40:31  5-MIN KMKG 260240Z 20013KT 6SM BR FEW018 BKN036 OVC049 23/22 A2982 720 90 1900 200/13 RMK AO2 CIG 030 RWY 14
14840KMKG MKG20010825214513308/25/01 21:45:31  5-MIN KMKG 260245Z 19015G20KT 6SM BR SCT028 BKN034 OVC049 23/22 A2982 720 90 1900 200/15G20 RMK AO2 CIG 028 RWY 14
14840KMKG MKG20010825215014108/25/01 21:50:31  5-MIN KMKG 260250Z 19014G20KT 6SM BR FEW022 BKN028 OVC049 23/21 A2982 720 87 1900 200/14G20 RMK AO2 SLP094 T02330211 58012
14840KMKG MKG20010825215514108/25/01 21:55:31  5-MIN KMKG 260255Z 20015G19KT 6SM BR BKN025 BKN035 OVC049 23/21 A2982 730 90 1800 200/15G19 RMK AO2 SLP093 T02280211 58007
14840KMKG MKG20010825220011208/25/01 22:00:31  5-MIN KMKG 260300Z 19014KT 6SM BR SCT025 BKN030 OVC060 23/21 A2981 730 90 1800 200/14 RMK AO2
14840KMKG MKG20010825220511208/25/01 22:05:31  5-MIN KMKG 260305Z 19013KT 6SM BR SCT025 BKN030 OVC060 23/21 A2981 730 90 1800 200/13 RMK AO2
14840KMKG MKG20010825221012708/25/01 22:10:31  5-MIN KMKG 260310Z 19015KT 6SM BR SCT025 BKN030 BKN060 23/21 A2981 730 90 1800 200/15 RMK AO2 CIG 025 RWY 14
14840KMKG MKG20010825221510508/25/01 22:15:31  5-MIN KMKG 260315Z 20014KT 6SM BR BKN025 BKN060 23/21 A2981 730 90 1800 200/14 RMK AO2
14840KMKG MKG20010825222010508/25/01 22:20:31  5-MIN KMKG 260320Z 21014KT 5SM BR SCT025 BKN060 23/21 A2982 730 90 1800 220/14 RMK AO2
14840KMKG MKG20010825222510508/25/01 22:25:31  5-MIN KMKG 260325Z 23012KT 5SM BR SCT025 BKN060 23/21 A2982 730 90 1800 230/12 RMK AO2
14840KMKG MKG20010825223010508/25/01 22:30:31  5-MIN KMKG 260330Z 23011KT 5SM BR SCT025 BKN060 22/21 A2982 720 93 1800 240/11 RMK AO2
14840KMKG MKG20010825223511108/25/01 22:35:31  5-MIN KMKG 260335Z 23012G19KT 5SM BR SCT025 BKN060 22/21 A2982 720 93 1800 230/12G19 RMK AO2
14840KMKG MKG20010825224011108/25/01 22:40:31  5-MIN KMKG 260340Z 22011G19KT 4SM BR SCT025 BKN060 22/21 A2982 720 93 1800 230/11G19 RMK AO2
14840KMKG MKG20010825224510508/25/01 22:45:31  5-MIN KMKG 260345Z 22010KT 4SM BR SCT025 BKN060 22/21 A2982 720 93 1700 230/10 RMK AO2
14840KMKG MKG20010825225012208/25/01 22:50:31  5-MIN KMKG 260350Z 23010KT 4SM BR SCT025 BKN060 22/21 A2982 720 93 1700 230/10 RMK AO2 SLP095 T02170206
14840KMKG MKG20010825225512208/25/01 22:55:31  5-MIN KMKG 260355Z 24008KT 5SM BR SCT025 BKN060 22/21 A2982 720 93 1700 240/08 RMK AO2 SLP095 T02170206
14840KMKG MKG20010825230011208/25/01 23:00:31  5-MIN KMKG 260400Z 24009KT 6SM BR FEW008 SCT019 SCT046 22/21 A2982 720 93 1700 240/09 RMK AO2
14840KMKG MKG20010825230509508/25/01 23:05:31  5-MIN KMKG 260405Z 24009KT 7SM FEW008 22/21 A2982 720 93 1700 240/09 RMK AO2
14840KMKG MKG20010825231009508/25/01 23:10:31  5-MIN KMKG 260410Z 23011KT 8SM FEW019 22/21 A2983 720 93 1700 240/11 RMK AO2
14840KMKG MKG20010825231509508/25/01 23:15:31  5-MIN KMKG 260415Z 23009KT 8SM FEW043 21/21 A2983 720 97 1600 230/09 RMK AO2
14840KMKG MKG20010825232009508/25/01 23:20:31  5-MIN KMKG 260420Z 23009KT 8SM SCT043 22/21 A2982 720 93 1700 230/09 RMK AO2
14840KMKG MKG20010825232509508/25/01 23:25:31  5-MIN KMKG 260425Z 23009KT 8SM SCT043 22/21 A2982 720 93 1700 240/09 RMK AO2
14840KMKG MKG20010825233010208/25/01 23:30:31  5-MIN KMKG 260430Z 23008KT 8SM FEW025 BKN043 22/21 A2982 720 93 1700 230/08 RMK AO2
14840KMKG MKG20010825233510908/25/01 23:35:31  5-MIN KMKG 260435Z 23008KT 9SM SCT025 SCT030 BKN043 22/21 A2983 720 93 1700 230/08 RMK AO2
14840KMKG MKG20010825234010908/25/01 23:40:31  5-MIN KMKG 260440Z 22008KT 9SM SCT025 BKN030 BKN043 22/21 A2982 720 93 1700 230/08 RMK AO2
14840KMKG MKG20010825234510908/25/01 23:45:31  5-MIN KMKG 260445Z 22008KT 8SM BKN025 BKN032 OVC043 22/21 A2982 720 93 1700 230/08 RMK AO2
14840KMKG MKG20010825235013608/25/01 23:50:31  5-MIN KMKG 260450Z 24007KT 8SM SCT023 BKN029 OVC050 22/21 A2982 720 93 1700 240/07 RMK AO2 SLP096 T02170206 402500189
14840KMKG MKG20010825235513608/25/01 23:55:31  5-MIN KMKG 260455Z 24007KT 8SM FEW007 BKN023 OVC050 22/21 A2983 720 93 1700 240/07 RMK AO2 SLP096 T02170206 402500189
14840KMKG MKG20010826000012508/26/01 00:00:31  5-MIN KMKG 260500Z 24006KT 8SM -RA FEW007 BKN023 OVC040 22/21 A2983 720 93 1700 240/06 RMK AO2 RAB00 P0000
14840KMKG MKG20010826000512808/26/01 00:05:31  5-MIN KMKG 260505Z 24006KT 6SM -RA BR SCT007 BKN023 OVC040 22/21 A2983 720 93 1700 240/06 RMK AO2 RAB00 P0001
14840KMKG MKG20010826001012808/26/01 00:10:31  5-MIN KMKG 260510Z 24006KT 6SM -RA BR SCT007 BKN021 OVC028 22/21 A2982 720 93 1700 240/06 RMK AO2 RAB00 P0001
14840KMKG MKG20010826001512408/26/01 00:15:31  5-MIN KMKG 260515Z 24007KT 8SM SCT007 BKN021 OVC038 22/21 A2982 720 93 1700 250/07 RMK AO2 RAB00E15 P0001
14840KMKG MKG20010826002012408/26/01 00:20:31  5-MIN KMKG 260520Z 24006KT 9SM FEW007 BKN019 OVC038 22/21 A2983 720 93 1700 240/06 RMK AO2 RAB00E15 P0001
14840KMKG MKG20010826002512408/26/01 00:25:31  5-MIN KMKG 260525Z 24006KT 9SM FEW007 BKN019 OVC024 21/21 A2982 720 97 1600 250/06 RMK AO2 RAB00E15 P0001
14840KMKG MKG20010826003011808/26/01 00:30:31  5-MIN KMKG 260530Z 23008KT 10SM FEW007 OVC019 21/21 A2982 720 97 1600 240/08 RMK AO2 RAB00E15 P0001
14840KMKG MKG20010826003511108/26/01 00:35:31  5-MIN KMKG 260535Z 25007KT 10SM OVC019 21/21 A2982 720 97 1600 260/07 RMK AO2 RAB00E15 P0001
14840KMKG MKG20010826004011808/26/01 00:40:31  5-MIN KMKG 260540Z 25007KT 10SM BKN019 OVC038 21/21 A2982 720 97 1600 260/07 RMK AO2 RAB00E15 P0001
14840KMKG MKG20010826004511708/26/01 00:45:31  5-MIN KMKG 260545Z 24007KT 9SM BKN019 OVC035 21/21 A2982 720 97 1600 250/07 RMK AO2 RAB00E15 P0001
14840KMKG MKG20010826005016508/26/01 00:50:31  5-MIN KMKG 260550Z 24008KT 9SM BKN019 BKN032 OVC040 21/21 A2982 730 97 1600 250/08 RMK AO2 RAB00E15 SLP094 P0001 60001 T02110206 10239 20211 58007
14840KMKG MKG20010826005516508/26/01 00:55:31  5-MIN KMKG 260555Z 25005KT 8SM FEW007 BKN019 OVC040 21/21 A2982 720 97 1600 250/05 RMK AO2 RAB00E15 SLP094 P0001 60001 T02110206 10239 20211 50001
14840KMKG MKG20010826010010908/26/01 01:00:31  5-MIN KMKG 260600Z 24007KT 8SM FEW007 BKN019 OVC032 21/21 A2982 730 97 1600 250/07 RMK AO2
14840KMKG MKG20010826010510908/26/01 01:05:31  5-MIN KMKG 260605Z 25007KT 8SM SCT007 BKN016 OVC036 21/21 A2981 730 97 1600 250/07 RMK AO2
14840KMKG MKG20010826011010908/26/01 01:10:31  5-MIN KMKG 260610Z 25007KT 8SM SCT007 BKN018 OVC050 21/21 A2981 730 97 1700 260/07 RMK AO2
14840KMKG MKG20010826011510908/26/01 01:15:31  5-MIN KMKG 260615Z 25006KT 8SM SCT007 BKN018 OVC050 21/21 A2981 730 97 1600 260/06 RMK AO2
14840KMKG MKG20010826012010908/26/01 01:20:31  5-MIN KMKG 260620Z 25007KT 7SM SCT007 BKN016 OVC040 21/21 A2981 730 97 1700 260/07 RMK AO2
14840KMKG MKG20010826012512108/26/01 01:25:31  5-MIN KMKG 260625Z 25006KT 7SM BKN005 BKN016 OVC042 21/21 A2981 730 97 1700 260/06 RMK AO2 CIG 004V010
14840KMKG MKG20010826013012108/26/01 01:30:31  5-MIN KMKG 260630Z 26007KT 7SM BKN005 BKN016 OVC042 21/21 A2981 730 97 1700 260/07 RMK AO2 CIG 004V010
14840KMKG MKG20010826013514008/26/01 01:35:31  5-MIN KMKG 260635Z 26008KT 6SM -RA BR BKN005 BKN016 OVC042 21/21 A2981 730 97 1700 260/08 RMK AO2 RAB35 CIG 004V010 P0000
14840KMKG MKG20010826014013308/26/01 01:40:31  5-MIN KMKG 260640Z 25007KT 5SM -RA BR BKN005 OVC024 21/21 A2981 730 97 1700 260/07 RMK AO2 RAB35 CIG 004V010 P0000
14840KMKG MKG20010826014512608/26/01 01:45:31  5-MIN KMKG 260645Z 25007KT 5SM -RA BR OVC005 21/21 A2981 730 97 1700 250/07 RMK AO2 RAB35 CIG 003V008 P0000
14840KMKG MKG20010826015013908/26/01 01:50:31  5-MIN KMKG 260650Z 25007KT 5SM -RA BR BKN005 OVC008 21/21 A2981 730 100 1600 250/07 RMK AO2 RAB35 SLP091 P0000 T02060206
14840KMKG MKG20010826015514408/26/01 01:55:31  5-MIN KMKG 260655Z 27005KT 4SM -RA BR OVC005 21/21 A2981 730 100 1600 270/05 RMK AO2 RAB35 CIG 003V008 SLP091 P0000 T02060206
14840KMKG MKG20010826020012108/26/01 02:00:31  5-MIN KMKG 260700Z 26006KT 6SM -RA BR OVC005 21/21 A2981 730 100 1600 270/06 RMK AO2 CIG 003V007 P0000
14840KMKG MKG20010826020512008/26/01 02:05:31  5-MIN KMKG 260705Z 27007KT 7SM OVC005 21/21 A2981 730 100 1600 270/07 RMK AO2 RAE03 CIG 003V007 P0000
14840KMKG MKG20010826021010808/26/01 02:10:31  5-MIN KMKG 260710Z 29007KT 7SM OVC005 21/21 A2981 730 100 1600 290/07 RMK AO2 RAE03 P0000
14840KMKG MKG20010826021511408/26/01 02:15:31  5-MIN KMKG 260715Z 29009KT 8SM BKN005 OVC011 21/21 A2981 730 97 1700 290/09 RMK AO2 RAE03 P0000
14840KMKG MKG20010826022012608/26/01 02:20:31  5-MIN KMKG 260720Z 29009KT 8SM BKN005 OVC014 21/21 A2981 730 97 1700 290/09 RMK AO2 RAE03 CIG 003V009 P0000
14840KMKG MKG20010826022512108/26/01 02:25:31  5-MIN KMKG 260725Z 28010KT 8SM BKN005 BKN008 OVC014 21/21 A2981 730 97 1700 290/10 RMK AO2 RAE03 P0000
14840KMKG MKG20010826023012108/26/01 02:30:31  5-MIN KMKG 260730Z 29009KT 9SM BKN005 BKN008 OVC016 21/20 A2981 730 97 1600 290/09 RMK AO2 RAE03 P0000
14840KMKG MKG20010826023513408/26/01 02:35:31  5-MIN KMKG 260735Z 29009KT 10SM BKN005 BKN013 OVC018 21/20 A2981 730 93 1700 290/09 RMK AO2 RAE03 CIG 004V009 P0000
14840KMKG MKG20010826024012208/26/01 02:40:31  5-MIN KMKG 260740Z 28007KT 10SM SCT005 BKN015 OVC020 21/20 A2981 730 97 1600 290/07 RMK AO2 RAE03 P0000
14840KMKG MKG20010826024512208/26/01 02:45:31  5-MIN KMKG 260745Z 28007KT 10SM SCT005 BKN011 OVC018 21/20 A2981 730 97 1600 290/07 RMK AO2 RAE03 P0000
14840KMKG MKG20010826025015108/26/01 02:50:31  5-MIN KMKG 260750Z 28007KT 10SM BKN007 BKN012 OVC018 21/20 A2981 730 97 1600 290/07 RMK AO2 RAE03 CIG 004V010 SLP092 P0000 T02060200
14840KMKG MKG20010826025515108/26/01 02:55:31  5-MIN KMKG 260755Z 29008KT 10SM BKN007 BKN012 OVC018 21/20 A2982 730 97 1600 290/08 RMK AO2 RAE03 CIG 004V010 SLP093 P0000 T02060200
14840KMKG MKG20010826030011008/26/01 03:00:31  5-MIN KMKG 260800Z 28007KT 10SM BKN007 BKN010 OVC018 21/20 A2982 730 97 1600 290/07 RMK AO2
14840KMKG MKG20010826030513308/26/01 03:05:31  5-MIN KMKG 260805Z 28007KT 6SM -RA BR BKN007 OVC013 21/20 A2982 730 97 1600 280/07 RMK AO2 RAB04 CIG 005V010 P0001
14840KMKG MKG20010826031013808/26/01 03:10:31  5-MIN KMKG 260810Z 29009G15KT 3SM RA BR BKN007 OVC013 21/20 A2982 730 97 1600 290/09G15 RMK AO2 RAB04 CIG 005V010 P0001
14840KMKG MKG20010826031513908/26/01 03:15:31  5-MIN KMKG 260815Z 31011G15KT 4SM -RA BR BKN007 OVC013 21/20 A2982 730 97 1600 310/11G15 RMK AO2 RAB04 CIG 004V010 P0001
14840KMKG MKG20010826032013308/26/01 03:20:31  5-MIN KMKG 260820Z 30008KT 5SM -RA BR BKN007 OVC010 21/19 A2982 720 93 1600 300/08 RMK AO2 RAB04 CIG 004V008 P0001
14840KMKG MKG20010826032513208/26/01 03:25:31  5-MIN KMKG 260825Z 31005KT 6SM BR BKN007 OVC010 21/19 A2982 720 93 1600 320/05 RMK AO2 RAB04E24 CIG 004V009 P0001
14840KMKG MKG20010826033012108/26/01 03:30:31  5-MIN KMKG 260830Z 30007KT 5SM BR BKN005 OVC010 20/20 A2982 720 100 1500 310/07 RMK AO2 RAB04E24 P0001
14840KMKG MKG20010826033512508/26/01 03:35:31  5-MIN KMKG 260835Z 30009KT 5SM BR OVC005 20/19 A2982 720 97 1500 300/09 RMK AO2 RAB04E24 CIG 003V008 P0001
14840KMKG MKG20010826034012008/26/01 03:40:31  5-MIN KMKG 260840Z 31007KT 6SM BR BKN005 OVC009 20/19 A2983 720 97 1500 310/07 RMK AO2 RAB04E24 P0001
14840KMKG MKG20010826034512008/26/01 03:45:31  5-MIN KMKG 260845Z 30005KT 6SM BR BKN005 OVC009 20/19 A2982 720 97 1500 310/05 RMK AO2 RAB04E24 P0001
14840KMKG MKG20010826035013908/26/01 03:50:31  5-MIN KMKG 260850Z 32006KT 7SM OVC005 20/19 A2982 720 97 1500 320/06 RMK AO2 RAB04E24 SLP096 P0001 60001 T02000194 50001
14840KMKG MKG20010826035513908/26/01 03:55:31  5-MIN KMKG 260855Z 30007KT 7SM OVC005 20/19 A2983 720 97 1500 300/07 RMK AO2 RAB04E24 SLP097 P0001 60001 T02000194 53003
14840KMKG MKG20010826040009808/26/01 04:00:31  5-MIN KMKG 260900Z 30008KT 6SM BR OVC005 20/19 A2983 710 97 1500 300/08 RMK AO2
14840KMKG MKG20010826040509808/26/01 04:05:31  5-MIN KMKG 260905Z 30009KT 5SM BR OVC003 20/19 A2983 710 97 1500 300/09 RMK AO2
14840KMKG MKG20010826041011008/26/01 04:10:31  5-MIN KMKG 260910Z 30008KT 5SM BR OVC003 20/19 A2983 710 97 1500 300/08 RMK AO2 CIG 002V007
14840KMKG MKG20010826041509508/26/01 04:15:31  5-MIN KMKG 260915Z 29008KT 8SM OVC003 20/19 A2983 710 97 1500 290/08 RMK AO2
14840KMKG MKG20010826042009508/26/01 04:20:31  5-MIN KMKG 260920Z 29007KT 8SM OVC003 20/19 A2983 710 97 1500 300/07 RMK AO2
14840KMKG MKG20010826042511408/26/01 04:25:31  5-MIN KMKG 260925Z 30007KT 8SM BKN003 OVC010 20/19 A2984 710 97 1500 300/07 RMK AO2 CIG 002V007
14840KMKG MKG20010826043011508/26/01 04:30:31  5-MIN KMKG 260930Z 29006KT 10SM BKN005 OVC010 20/19 A2984 710 97 1500 290/06 RMK AO2 CIG 002V007
14840KMKG MKG20010826043510808/26/01 04:35:31  5-MIN KMKG 260935Z 30007KT 10SM OVC005 20/19 A2983 710 97 1500 300/07 RMK AO2 CIG 003V008
14840KMKG MKG20010826044010808/26/01 04:40:31  5-MIN KMKG 260940Z 30006KT 10SM OVC005 20/19 A2984 710 97 1500 300/06 RMK AO2 CIG 003V008
14840KMKG MKG20010826044509608/26/01 04:45:31  5-MIN KMKG 260945Z 29006KT 10SM OVC005 20/19 A2984 710 97 1500 300/06 RMK AO2
14840KMKG MKG20010826045012408/26/01 04:50:31  5-MIN KMKG 260950Z VRB06KT 8SM OVC005 20/19 A2984 710 97 1500 VRB/06 RMK AO2 CIG 003V009 SLP101 T02000194
14840KMKG MKG20010826045511208/26/01 04:55:31  5-MIN KMKG 260955Z 30007KT 7SM OVC005 20/19 A2984 710 97 1500 310/07 RMK AO2 SLP101 T02000194
14840KMKG MKG20010826050009508/26/01 05:00:31  5-MIN KMKG 261000Z 30005KT 7SM OVC005 20/19 A2984 710 97 1500 310/05 RMK AO2
14840KMKG MKG20010826050509508/26/01 05:05:31  5-MIN KMKG 261005Z 32008KT 7SM OVC005 20/19 A2984 710 97 1500 320/08 RMK AO2
14840KMKG MKG20010826051009508/26/01 05:10:31  5-MIN KMKG 261010Z 32007KT 9SM OVC005 20/19 A2984 700 97 1500 330/07 RMK AO2
14840KMKG MKG20010826051509608/26/01 05:15:31  5-MIN KMKG 261015Z 32006KT 10SM OVC005 20/19 A2984 700 97 1500 330/06 RMK AO2
14840KMKG MKG20010826052009608/26/01 05:20:31  5-MIN KMKG 261020Z 32006KT 10SM OVC005 20/19 A2984 700 97 1500 330/06 RMK AO2
14840KMKG MKG20010826052509608/26/01 05:25:31  5-MIN KMKG 261025Z 32006KT 10SM OVC005 20/19 A2984 700 97 1500 330/06 RMK AO2
14840KMKG MKG20010826053009608/26/01 05:30:31  5-MIN KMKG 261030Z 31006KT 10SM OVC005 20/19 A2984 700 97 1500 320/06 RMK AO2
14840KMKG MKG20010826053509608/26/01 05:35:31  5-MIN KMKG 261035Z 31006KT 10SM OVC005 20/19 A2985 700 97 1500 320/06 RMK AO2
14840KMKG MKG20010826054009608/26/01 05:40:31  5-MIN KMKG 261040Z 32006KT 10SM OVC005 20/19 A2985 700 97 1500 330/06 RMK AO2
14840KMKG MKG20010826054509608/26/01 05:45:31  5-MIN KMKG 261045Z 32006KT 10SM OVC005 20/19 A2985 690 97 1500 320/06 RMK AO2
14840KMKG MKG20010826055011308/26/01 05:50:31  5-MIN KMKG 261050Z 32006KT 10SM OVC005 20/19 A2985 690 97 1500 320/06 RMK AO2 SLP106 T02000194
14840KMKG MKG20010826055512508/26/01 05:55:31  5-MIN KMKG 261055Z 32006KT 10SM OVC005 20/19 A2985 690 97 1500 330/06 RMK AO2 CIG 004V009 SLP106 T02000194
14840KMKG MKG20010826060010808/26/01 06:00:31  5-MIN KMKG 261100Z 32007KT 10SM OVC005 20/19 A2986 690 97 1500 330/07 RMK AO2 CIG 004V009
14840KMKG MKG20010826060510808/26/01 06:05:31  5-MIN KMKG 261105Z 33007KT 10SM OVC005 20/19 A2986 690 97 1500 330/07 RMK AO2 CIG 004V009
14840KMKG MKG20010826061010808/26/01 06:10:31  5-MIN KMKG 261110Z 33007KT 10SM OVC005 20/19 A2986 690 97 1500 340/07 RMK AO2 CIG 004V009
14840KMKG MKG20010826061510808/26/01 06:15:31  5-MIN KMKG 261115Z 33007KT 10SM OVC005 20/19 A2986 680 97 1500 330/07 RMK AO2 CIG 004V009
14840KMKG MKG20010826062009608/26/01 06:20:31  5-MIN KMKG 261120Z 33008KT 10SM OVC005 20/19 A2987 680 97 1500 340/08 RMK AO2
14840KMKG MKG20010826062511508/26/01 06:25:31  5-MIN KMKG 261125Z 33007KT 10SM BKN005 OVC018 20/19 A2987 680 97 1500 330/07 RMK AO2 CIG 005V009
14840KMKG MKG20010826063011508/26/01 06:30:31  5-MIN KMKG 261130Z 32006KT 10SM BKN007 OVC016 20/19 A2987 680 97 1500 330/06 RMK AO2 CIG 005V011
14840KMKG MKG20010826063513008/26/01 06:35:31  5-MIN KMKG 261135Z 32008KT 7SM -RA BKN007 OVC016 20/19 A2987 680 97 1500 320/08 RMK AO2 RAB34 CIG 005V013 P0000
14840KMKG MKG20010826064012608/26/01 06:40:31  5-MIN KMKG 261140Z 32007KT 5SM -RA BR OVC007 20/19 A2987 680 97 1500 330/07 RMK AO2 RAB34 CIG 005V011 P0000
14840KMKG MKG20010826064513908/26/01 06:45:31  5-MIN KMKG 261145Z 32005KT 4SM BR BKN007 BKN016 OVC023 20/19 A2987 680 97 1500 320/05 RMK AO2 RAB34E43 CIG 004V011 P0000
14840KMKG MKG20010826065018608/26/01 06:50:31  5-MIN KMKG 261150Z 33007KT 5SM BR BKN007 BKN016 OVC023 20/19 A2987 670 97 1500 330/07 RMK AO2 RAB34E43 CIG 004V011 SLP112 P0000 60001 70002 T02000194 10211 20200 53003
14840KMKG MKG20010826065517308/26/01 06:55:31  5-MIN KMKG 261155Z 33007KT 4SM -RA BR OVC007 20/19 A2987 670 97 1500 340/07 RMK AO2 RAB34 CIG 004V011 SLP112 P0000 60001 70002 T02000194 10211 20200 53015
14840KMKG MKG20010826070012008/26/01 07:00:31  5-MIN KMKG 261200Z 33006KT 5SM -RA BR OVC007 20/19 A2987 670 97 1500 340/06 RMK AO2 CIG 004V009 P0000
14840KMKG MKG20010826070512008/26/01 07:05:31  5-MIN KMKG 261205Z 34006KT 10SM OVC007 20/19 A2987 670 97 1500 340/06 RMK AO2 RAE02 CIG 004V009 P0000
14840KMKG MKG20010826071012008/26/01 07:10:31  5-MIN KMKG 261210Z 33010KT 10SM OVC007 21/19 A2988 670 93 1500 340/10 RMK AO2 RAE02 CIG 004V010 P0000
14840KMKG MKG20010826071511908/26/01 07:15:31  5-MIN KMKG 261215Z 34008KT 9SM OVC007 21/19 A2988 670 93 1500 350/08 RMK AO2 RAE02 CIG 004V010 P0000
14840KMKG MKG20010826072012008/26/01 07:20:31  5-MIN KMKG 261220Z 33010KT 10SM OVC007 20/19 A2988 670 97 1400 340/10 RMK AO2 RAE02 CIG 005V010 P0000
14840KMKG MKG20010826072510808/26/01 07:25:31  5-MIN KMKG 261225Z 34009KT 10SM OVC007 20/19 A2988 670 97 1400 340/09 RMK AO2 RAE02 P0000
14840KMKG MKG20010826073012708/26/01 07:30:31  5-MIN KMKG 261230Z 33009KT 10SM BKN007 OVC011 20/19 A2989 660 97 1400 340/09 RMK AO2 RAE02 CIG 005V010 P0000
14840KMKG MKG20010826073512708/26/01 07:35:31  5-MIN KMKG 261235Z 34008KT 10SM BKN007 OVC011 21/19 A2988 660 93 1500 350/08 RMK AO2 RAE02 CIG 005V010 P0000
14840KMKG MKG20010826074012708/26/01 07:40:31  5-MIN KMKG 261240Z 34011KT 10SM BKN008 OVC011 21/19 A2989 660 93 1500 350/11 RMK AO2 RAE02 CIG 005V011 P0000
14840KMKG MKG20010826074512708/26/01 07:45:31  5-MIN KMKG 261245Z 34010KT 10SM BKN008 OVC011 21/19 A2989 660 90 1500 340/10 RMK AO2 RAE02 CIG 005V011 P0000
14840KMKG MKG20010826075013208/26/01 07:50:31  5-MIN KMKG 261250Z 35010KT 10SM BKN011 OVC070 21/19 A2989 660 90 1500 350/10 RMK AO2 RAE02 SLP118 P0000 T02060189
14840KMKG MKG20010826075514408/26/01 07:55:31  5-MIN KMKG 261255Z 36009KT 10SM BKN011 OVC070 21/19 A2989 660 90 1500 360/09 RMK AO2 RAE02 CIG 007V014 SLP117 P0000 T02060189
14840KMKG MKG20010826080010308/26/01 08:00:31  5-MIN KMKG 261300Z 36010KT 10SM BKN011 OVC070 21/19 A2989 660 90 1500 360/10 RMK AO2
14840KMKG MKG20010826080510308/26/01 08:05:31  5-MIN KMKG 261305Z 36010KT 10SM BKN011 OVC070 21/19 A2989 660 90 1500 360/10 RMK AO2
14840KMKG MKG20010826081010308/26/01 08:10:31  5-MIN KMKG 261310Z 36010KT 10SM BKN011 OVC070 21/19 A2989 660 90 1500 360/10 RMK AO2
14840KMKG MKG20010826081510308/26/01 08:15:31  5-MIN KMKG 261315Z 36013KT 10SM BKN013 OVC070 20/18 A2989 660 90 1400 360/13 RMK AO2
14840KMKG MKG20010826082009608/26/01 08:20:31  5-MIN KMKG 261320Z 35010KT 10SM OVC013 20/18 A2989 660 90 1400 360/10 RMK AO2
14840KMKG MKG20010826082509608/26/01 08:25:31  5-MIN KMKG 261325Z 01013KT 10SM BKN013 20/18 A2989 650 87 1400 010/13 RMK AO2
14840KMKG MKG20010826083009608/26/01 08:30:31  5-MIN KMKG 261330Z 02011KT 10SM BKN013 20/18 A2990 650 87 1400 020/11 RMK AO2
14840KMKG MKG20010826083509608/26/01 08:35:31  5-MIN KMKG 261335Z 01008KT 10SM OVC013 20/18 A2990 650 87 1400 010/08 RMK AO2
14840KMKG MKG20010826084009608/26/01 08:40:31  5-MIN KMKG 261340Z 01008KT 10SM OVC013 20/18 A2990 640 87 1400 020/08 RMK AO2
14840KMKG MKG20010826084509608/26/01 08:45:31  5-MIN KMKG 261345Z 02009KT 10SM OVC013 20/18 A2991 640 87 1400 020/09 RMK AO2
14840KMKG MKG20010826085011308/26/01 08:50:31  5-MIN KMKG 261350Z 36009KT 10SM OVC013 21/18 A2991 640 87 1500 010/09 RMK AO2 SLP124 T02060183
14840KMKG MKG20010826085511308/26/01 08:55:31  5-MIN KMKG 261355Z 36008KT 10SM OVC013 21/18 A2991 640 84 1500 010/08 RMK AO2 SLP124 T02060178
14840KMKG MKG20010826090009608/26/01 09:00:31  5-MIN KMKG 261400Z 36010KT 10SM OVC013 21/18 A2991 640 84 1500 360/10 RMK AO2
14840KMKG MKG20010826090509608/26/01 09:05:31  5-MIN KMKG 261405Z 36007KT 10SM OVC013 21/18 A2991 640 87 1500 010/07 RMK AO2
14840KMKG MKG20010826091009608/26/01 09:10:31  5-MIN KMKG 261410Z 01009KT 10SM OVC013 21/18 A2991 640 87 1500 010/09 RMK AO2
14840KMKG MKG20010826091509608/26/01 09:15:31  5-MIN KMKG 261415Z 35007KT 10SM BKN013 21/18 A2991 640 87 1500 360/07 RMK AO2
14840KMKG MKG20010826092009608/26/01 09:20:31  5-MIN KMKG 261420Z 35009KT 10SM BKN013 21/18 A2991 640 84 1500 350/09 RMK AO2
14840KMKG MKG20010826092509608/26/01 09:25:31  5-MIN KMKG 261425Z 35008KT 10SM BKN013 21/18 A2991 640 84 1500 350/08 RMK AO2
14840KMKG MKG20010826093009608/26/01 09:30:31  5-MIN KMKG 261430Z 34009KT 10SM BKN013 21/18 A2991 640 84 1500 340/09 RMK AO2
14840KMKG MKG20010826093509608/26/01 09:35:31  5-MIN KMKG 261435Z 34009KT 10SM SCT013 21/18 A2991 640 81 1500 340/09 RMK AO2
14840KMKG MKG20010826094009608/26/01 09:40:31  5-MIN KMKG 261440Z 35008KT 10SM SCT013 21/18 A2992 630 81 1500 360/08 RMK AO2
14840KMKG MKG20010826094509608/26/01 09:45:31  5-MIN KMKG 261445Z 34011KT 10SM FEW013 22/18 A2992 630 81 1600 350/11 RMK AO2
14840KMKG MKG20010826095012508/26/01 09:50:31  5-MIN KMKG 261450Z 34009KT 10SM FEW016 22/18 A2992 630 78 1600 340/09 RMK AO2 SLP127 60000 T02170178 53015
14840KMKG MKG20010826095512508/26/01 09:55:31  5-MIN KMKG 261455Z 34010KT 10SM FEW016 22/18 A2992 630 75 1700 350/10 RMK AO2 SLP127 60000 T02220178 51015
14840KMKG MKG20010826100009608/26/01 10:00:31  5-MIN KMKG 261500Z 35007KT 10SM FEW016 22/18 A2992 630 75 1700 360/07 RMK AO2
14840KMKG MKG20010826100509608/26/01 10:05:31  5-MIN KMKG 261505Z 01008KT 10SM FEW016 22/18 A2992 630 75 1700 010/08 RMK AO2
14840KMKG MKG20010826101009608/26/01 10:10:31  5-MIN KMKG 261510Z 35009KT 10SM FEW016 23/18 A2992 630 73 1700 350/09 RMK AO2
14840KMKG MKG20010826101509608/26/01 10:15:31  5-MIN KMKG 261515Z 34008KT 10SM FEW016 23/18 A2992 630 73 1700 350/08 RMK AO2
14840KMKG MKG20010826102009608/26/01 10:20:31  5-MIN KMKG 261520Z 35007KT 10SM FEW016 23/18 A2992 630 73 1700 350/07 RMK AO2
14840KMKG MKG20010826102509608/26/01 10:25:31  5-MIN KMKG 261525Z 34009KT 10SM FEW016 23/18 A2992 630 73 1700 350/09 RMK AO2
14840KMKG MKG20010826103009608/26/01 10:30:31  5-MIN KMKG 261530Z 34008KT 10SM FEW016 23/18 A2992 630 70 1800 340/08 RMK AO2
14840KMKG MKG20010826103509608/26/01 10:35:31  5-MIN KMKG 261535Z 36007KT 10SM FEW016 23/18 A2992 630 70 1800 010/07 RMK AO2
14840KMKG MKG20010826104009608/26/01 10:40:31  5-MIN KMKG 261540Z 36009KT 10SM FEW016 23/18 A2992 630 70 1800 360/09 RMK AO2
14840KMKG MKG20010826104509608/26/01 10:45:31  5-MIN KMKG 261545Z 35008KT 10SM FEW016 23/18 A2992 630 70 1800 360/08 RMK AO2
14840KMKG MKG20010826105011308/26/01 10:50:31  5-MIN KMKG 261550Z 02007KT 10SM FEW016 23/18 A2992 630 70 1800 020/07 RMK AO2 SLP129 T02330178
14840KMKG MKG20010826105511308/26/01 10:55:31  5-MIN KMKG 261555Z 33006KT 10SM FEW016 24/18 A2992 630 71 1800 340/06 RMK AO2 SLP129 T02390183
14840KMKG MKG20010826110009308/26/01 11:00:31  5-MIN KMKG 261600Z 35008KT 10SM CLR 24/18 A2992 630 71 1800 350/08 RMK AO2
14840KMKG MKG20010826110509608/26/01 11:05:31  5-MIN KMKG 261605Z 32008KT 10SM FEW016 24/18 A2992 630 68 1800 320/08 RMK AO2
14840KMKG MKG20010826111009608/26/01 11:10:31  5-MIN KMKG 261610Z 34008KT 10SM FEW016 24/18 A2992 630 71 1800 340/08 RMK AO2
14840KMKG MKG20010826111509608/26/01 11:15:31  5-MIN KMKG 261615Z VRB06KT 10SM FEW016 24/19 A2992 630 73 1800 VRB/06 RMK AO2
14840KMKG MKG20010826112011208/26/01 11:20:31  5-MIN KMKG 261620Z 29007KT 260V320 10SM FEW016 24/19 A2992 630 73 1800 290/07 260V320 RMK AO2
14840KMKG MKG20010826112509608/26/01 11:25:31  5-MIN KMKG 261625Z 27008KT 10SM FEW016 23/19 A2992 630 76 1800 270/08 RMK AO2
14840KMKG MKG20010826113009608/26/01 11:30:31  5-MIN KMKG 261630Z 30009KT 10SM FEW016 24/19 A2992 630 73 1800 310/09 RMK AO2
14840KMKG MKG20010826113509608/26/01 11:35:31  5-MIN KMKG 261635Z 30008KT 10SM FEW016 24/19 A2992 630 73 1800 300/08 RMK AO2
14840KMKG MKG20010826114009608/26/01 11:40:31  5-MIN KMKG 261640Z 30009KT 10SM FEW016 24/19 A2992 630 73 1800 310/09 RMK AO2
14840KMKG MKG20010826114509608/26/01 11:45:31  5-MIN KMKG 261645Z 30009KT 10SM FEW016 24/19 A2992 630 73 1800 300/09 RMK AO2
14840KMKG MKG20010826115011308/26/01 11:50:31  5-MIN KMKG 261650Z 29009KT 10SM FEW016 24/19 A2992 630 73 1800 290/09 RMK AO2 SLP129 T02390189
14840KMKG MKG20010826115511308/26/01 11:55:31  5-MIN KMKG 261655Z 29009KT 10SM FEW016 24/19 A2992 630 71 1900 300/09 RMK AO2 SLP129 T02440189
14840KMKG MKG20010826120009608/26/01 12:00:31  5-MIN KMKG 261700Z 30009KT 10SM FEW016 24/19 A2992 630 73 1800 300/09 RMK AO2
14840KMKG MKG20010826120509608/26/01 12:05:31  5-MIN KMKG 261705Z 29010KT 10SM FEW016 24/19 A2992 630 73 1800 290/10 RMK AO2
14840KMKG MKG20010826121009608/26/01 12:10:31  5-MIN KMKG 261710Z 30009KT 10SM FEW016 24/19 A2992 630 73 1800 300/09 RMK AO2
14840KMKG MKG20010826121509608/26/01 12:15:31  5-MIN KMKG 261715Z 30010KT 10SM FEW016 24/19 A2992 630 73 1800 310/10 RMK AO2
14840KMKG MKG20010826122009608/26/01 12:20:31  5-MIN KMKG 261720Z 30009KT 10SM FEW016 24/19 A2992 630 73 1800 300/09 RMK AO2
14840KMKG MKG20010826122509608/26/01 12:25:31  5-MIN KMKG 261725Z 30009KT 10SM FEW016 24/19 A2992 630 73 1800 310/09 RMK AO2
14840KMKG MKG20010826123009608/26/01 12:30:31  5-MIN KMKG 261730Z 30009KT 10SM FEW016 24/19 A2992 630 73 1800 310/09 RMK AO2
14840KMKG MKG20010826123509608/26/01 12:35:31  5-MIN KMKG 261735Z 29010KT 10SM FEW016 24/19 A2992 630 73 1800 290/10 RMK AO2
14840KMKG MKG20010826124009608/26/01 12:40:31  5-MIN KMKG 261740Z 30010KT 10SM FEW016 24/19 A2992 630 73 1800 310/10 RMK AO2
14840KMKG MKG20010826124509608/26/01 12:45:31  5-MIN KMKG 261745Z 29011KT 10SM FEW016 24/19 A2992 630 73 1800 300/11 RMK AO2
14840KMKG MKG20010826125013708/26/01 12:50:31  5-MIN KMKG 261750Z 30010KT 10SM FEW016 24/19 A2992 630 73 1800 310/10 RMK AO2 SLP130 60000 T02390189 10244 20200 51015
14840KMKG MKG20010826125513708/26/01 12:55:31  5-MIN KMKG 261755Z 29010KT 10SM FEW016 24/19 A2992 630 73 1800 300/10 RMK AO2 SLP129 60000 T02390189 10244 20200 51002
14840KMKG MKG20010826130009608/26/01 13:00:31  5-MIN KMKG 261800Z 30010KT 10SM FEW016 24/19 A2992 630 73 1800 310/10 RMK AO2
14840KMKG MKG20010826130509608/26/01 13:05:31  5-MIN KMKG 261805Z 29011KT 10SM FEW016 24/19 A2992 630 71 1900 290/11 RMK AO2
14840KMKG MKG20010826131009608/26/01 13:10:31  5-MIN KMKG 261810Z 29011KT 10SM FEW016 24/19 A2992 630 71 1900 300/11 RMK AO2
14840KMKG MKG20010826131509608/26/01 13:15:31  5-MIN KMKG 261815Z 30012KT 10SM FEW016 24/19 A2992 630 73 1800 300/12 RMK AO2
14840KMKG MKG20010826132009608/26/01 13:20:31  5-MIN KMKG 261820Z 31010KT 10SM FEW016 24/19 A2992 630 71 1900 310/10 RMK AO2
14840KMKG MKG20010826132509608/26/01 13:25:31  5-MIN KMKG 261825Z 29010KT 10SM FEW016 24/19 A2992 630 73 1800 300/10 RMK AO2
14840KMKG MKG20010826133009608/26/01 13:30:31  5-MIN KMKG 261830Z 30010KT 10SM FEW016 24/19 A2993 620 71 1900 300/10 RMK AO2
14840KMKG MKG20010826133509608/26/01 13:35:31  5-MIN KMKG 261835Z 29009KT 10SM FEW016 24/19 A2993 620 73 1900 300/09 RMK AO2
14840KMKG MKG20010826134009608/26/01 13:40:31  5-MIN KMKG 261840Z 30011KT 10SM FEW016 24/19 A2993 620 71 1900 300/11 RMK AO2
14840KMKG MKG20010826134509608/26/01 13:45:31  5-MIN KMKG 261845Z 30010KT 10SM FEW016 24/19 A2993 620 73 1900 300/10 RMK AO2
14840KMKG MKG20010826135011308/26/01 13:50:31  5-MIN KMKG 261850Z 30010KT 10SM FEW016 24/19 A2993 620 71 1900 310/10 RMK AO2 SLP133 T02440189
14840KMKG MKG20010826135511308/26/01 13:55:31  5-MIN KMKG 261855Z 29010KT 10SM FEW016 24/19 A2993 620 73 1900 290/10 RMK AO2 SLP133 T02440194
14840KMKG MKG20010826140009608/26/01 14:00:31  5-MIN KMKG 261900Z 29010KT 10SM FEW016 24/19 A2993 620 73 1800 290/10 RMK AO2
14840KMKG MKG20010826140509608/26/01 14:05:31  5-MIN KMKG 261905Z 30010KT 10SM FEW016 24/19 A2994 620 73 1900 300/10 RMK AO2
14840KMKG MKG20010826141009608/26/01 14:10:31  5-MIN KMKG 261910Z 29011KT 10SM FEW016 24/19 A2994 620 73 1800 300/11 RMK AO2
14840KMKG MKG20010826141509608/26/01 14:15:31  5-MIN KMKG 261915Z 29009KT 10SM FEW018 24/19 A2994 620 73 1900 300/09 RMK AO2
14840KMKG MKG20010826142009608/26/01 14:20:31  5-MIN KMKG 261920Z 29010KT 10SM FEW018 24/19 A2994 620 73 1900 300/10 RMK AO2
14840KMKG MKG20010826142509608/26/01 14:25:31  5-MIN KMKG 261925Z 30008KT 10SM FEW018 24/19 A2993 620 73 1900 300/08 RMK AO2
14840KMKG MKG20010826143009608/26/01 14:30:31  5-MIN KMKG 261930Z 31009KT 10SM FEW018 24/19 A2994 620 73 1900 310/09 RMK AO2
14840KMKG MKG20010826143509608/26/01 14:35:31  5-MIN KMKG 261935Z 29009KT 10SM FEW018 24/19 A2993 620 73 1900 300/09 RMK AO2
14840KMKG MKG20010826144009608/26/01 14:40:31  5-MIN KMKG 261940Z 30008KT 10SM FEW018 24/19 A2994 620 73 1900 310/08 RMK AO2
14840KMKG MKG20010826144509608/26/01 14:45:31  5-MIN KMKG 261945Z 30008KT 10SM FEW018 24/19 A2994 620 73 1900 300/08 RMK AO2
14840KMKG MKG20010826145011308/26/01 14:50:31  5-MIN KMKG 261950Z 28009KT 10SM FEW018 24/19 A2994 620 73 1900 280/09 RMK AO2 SLP134 T02440194
14840KMKG MKG20010826145511308/26/01 14:55:31  5-MIN KMKG 261955Z 27008KT 10SM FEW018 24/19 A2994 620 73 1900 280/08 RMK AO2 SLP134 T02440194
14840KMKG MKG20010826150009308/26/01 15:00:31  5-MIN KMKG 262000Z 28009KT 10SM CLR 24/19 A2994 610 73 1900 280/09 RMK AO2
14840KMKG MKG20010826150509308/26/01 15:05:31  5-MIN KMKG 262005Z 27009KT 10SM CLR 24/19 A2994 610 73 1800 270/09 RMK AO2
14840KMKG MKG20010826151009608/26/01 15:10:31  5-MIN KMKG 262010Z 28009KT 10SM FEW025 24/19 A2994 610 73 1800 290/09 RMK AO2
14840KMKG MKG20010826151509608/26/01 15:15:31  5-MIN KMKG 262015Z 29009KT 10SM FEW025 24/19 A2994 610 76 1800 290/09 RMK AO2
14840KMKG MKG20010826152009608/26/01 15:20:31  5-MIN KMKG 262020Z 27010KT 10SM FEW025 24/19 A2994 610 76 1800 270/10 RMK AO2
14840KMKG MKG20010826152509608/26/01 15:25:31  5-MIN KMKG 262025Z 29010KT 10SM FEW025 24/19 A2994 610 73 1900 300/10 RMK AO2
14840KMKG MKG20010826153009608/26/01 15:30:31  5-MIN KMKG 262030Z 29009KT 10SM FEW025 24/19 A2994 610 73 1800 290/09 RMK AO2
14840KMKG MKG20010826153509608/26/01 15:35:31  5-MIN KMKG 262035Z 31009KT 10SM FEW025 24/19 A2994 610 73 1800 310/09 RMK AO2
14840KMKG MKG20010826154009608/26/01 15:40:31  5-MIN KMKG 262040Z 30009KT 10SM FEW025 24/19 A2994 610 73 1800 310/09 RMK AO2
14840KMKG MKG20010826154509608/26/01 15:45:31  5-MIN KMKG 262045Z 30010KT 10SM FEW025 24/19 A2994 610 73 1800 300/10 RMK AO2
14840KMKG MKG20010826155011908/26/01 15:50:31  5-MIN KMKG 262050Z 30010KT 10SM FEW025 24/19 A2994 610 73 1800 300/10 RMK AO2 SLP134 T02390189 51002
14840KMKG MKG20010826155511908/26/01 15:55:31  5-MIN KMKG 262055Z 30009KT 10SM FEW025 24/19 A2994 610 73 1800 310/09 RMK AO2 SLP134 T02390189 51005
14840KMKG MKG20010826160009308/26/01 16:00:31  5-MIN KMKG 262100Z 30009KT 10SM CLR 24/19 A2994 620 73 1800 300/09 RMK AO2
14840KMKG MKG20010826160509608/26/01 16:05:31  5-MIN KMKG 262105Z 29010KT 10SM FEW025 23/19 A2994 610 76 1800 300/10 RMK AO2
14840KMKG MKG20010826161009608/26/01 16:10:31  5-MIN KMKG 262110Z 29011KT 10SM FEW025 23/19 A2994 610 76 1800 300/11 RMK AO2
14840KMKG MKG20010826161509608/26/01 16:15:31  5-MIN KMKG 262115Z 29010KT 10SM FEW025 23/19 A2994 610 76 1800 300/10 RMK AO2
14840KMKG MKG20010826162009608/26/01 16:20:31  5-MIN KMKG 262120Z 29010KT 10SM FEW025 23/19 A2994 610 76 1800 290/10 RMK AO2
14840KMKG MKG20010826162509608/26/01 16:25:31  5-MIN KMKG 262125Z 29009KT 10SM FEW025 23/18 A2994 620 73 1800 290/09 RMK AO2
14840KMKG MKG20010826163009608/26/01 16:30:31  5-MIN KMKG 262130Z 29009KT 10SM FEW025 24/19 A2994 610 73 1800 300/09 RMK AO2
14840KMKG MKG20010826163509608/26/01 16:35:31  5-MIN KMKG 262135Z 30009KT 10SM FEW025 24/19 A2994 610 73 1800 300/09 RMK AO2
14840KMKG MKG20010826164009608/26/01 16:40:31  5-MIN KMKG 262140Z 29010KT 10SM FEW025 24/19 A2994 610 73 1800 300/10 RMK AO2
14840KMKG MKG20010826164509608/26/01 16:45:31  5-MIN KMKG 262145Z 30009KT 10SM FEW025 24/19 A2994 610 73 1800 300/09 RMK AO2
14840KMKG MKG20010826165011308/26/01 16:50:31  5-MIN KMKG 262150Z 29010KT 10SM FEW025 24/19 A2994 610 73 1800 300/10 RMK AO2 SLP136 T02390189
14840KMKG MKG20010826165511308/26/01 16:55:31  5-MIN KMKG 262155Z 30009KT 10SM FEW025 24/19 A2994 610 73 1800 300/09 RMK AO2 SLP136 T02390189
14840KMKG MKG20010826170009308/26/01 17:00:31  5-MIN KMKG 262200Z 30008KT 10SM CLR 23/19 A2994 610 76 1800 300/08 RMK AO2
14840KMKG MKG20010826170509308/26/01 17:05:31  5-MIN KMKG 262205Z 30007KT 10SM CLR 23/19 A2994 610 76 1800 300/07 RMK AO2
14840KMKG MKG20010826171009308/26/01 17:10:31  5-MIN KMKG 262210Z 30008KT 10SM CLR 24/19 A2994 610 73 1800 310/08 RMK AO2
14840KMKG MKG20010826171509308/26/01 17:15:31  5-MIN KMKG 262215Z 30008KT 10SM CLR 24/19 A2994 610 73 1800 310/08 RMK AO2
14840KMKG MKG20010826172009308/26/01 17:20:31  5-MIN KMKG 262220Z 31007KT 10SM CLR 24/19 A2994 610 73 1800 320/07 RMK AO2
14840KMKG MKG20010826172509308/26/01 17:25:31  5-MIN KMKG 262225Z 32008KT 10SM CLR 24/18 A2994 610 71 1800 320/08 RMK AO2
14840KMKG MKG20010826173009308/26/01 17:30:31  5-MIN KMKG 262230Z 32008KT 10SM CLR 24/18 A2994 610 71 1800 330/08 RMK AO2
14840KMKG MKG20010826173509308/26/01 17:35:31  5-MIN KMKG 262235Z 31008KT 10SM CLR 24/19 A2994 610 73 1800 320/08 RMK AO2
14840KMKG MKG20010826174009308/26/01 17:40:31  5-MIN KMKG 262240Z 32009KT 10SM CLR 24/18 A2994 610 68 1900 330/09 RMK AO2
14840KMKG MKG20010826174509308/26/01 17:45:31  5-MIN KMKG 262245Z 33010KT 10SM CLR 24/19 A2994 610 71 1900 340/10 RMK AO2
14840KMKG MKG20010826175011008/26/01 17:50:31  5-MIN KMKG 262250Z 32010KT 10SM CLR 24/18 A2994 610 71 1800 330/10 RMK AO2 SLP136 T02390183
14840KMKG MKG20010826175511008/26/01 17:55:31  5-MIN KMKG 262255Z 32009KT 10SM CLR 24/18 A2994 610 71 1800 320/09 RMK AO2 SLP136 T02390183
14840KMKG MKG20010826180009308/26/01 18:00:31  5-MIN KMKG 262300Z 32008KT 10SM CLR 24/18 A2994 610 71 1800 320/08 RMK AO2
14840KMKG MKG20010826180509308/26/01 18:05:31  5-MIN KMKG 262305Z 32008KT 10SM CLR 24/18 A2994 610 71 1800 330/08 RMK AO2
14840KMKG MKG20010826181009308/26/01 18:10:31  5-MIN KMKG 262310Z 32009KT 10SM CLR 24/18 A2995 610 71 1800 320/09 RMK AO2
14840KMKG MKG20010826181509308/26/01 18:15:31  5-MIN KMKG 262315Z 32009KT 10SM CLR 24/18 A2994 610 71 1800 330/09 RMK AO2
14840KMKG MKG20010826182009308/26/01 18:20:31  5-MIN KMKG 262320Z 32007KT 10SM CLR 24/18 A2994 610 71 1800 330/07 RMK AO2
14840KMKG MKG20010826182509308/26/01 18:25:31  5-MIN KMKG 262325Z 32006KT 10SM CLR 24/18 A2994 610 71 1800 330/06 RMK AO2
14840KMKG MKG20010826183009308/26/01 18:30:31  5-MIN KMKG 262330Z 33009KT 10SM CLR 24/18 A2994 610 71 1800 340/09 RMK AO2
14840KMKG MKG20010826183509308/26/01 18:35:31  5-MIN KMKG 262335Z 33008KT 10SM CLR 24/18 A2994 610 71 1800 330/08 RMK AO2
14840KMKG MKG20010826184009308/26/01 18:40:31  5-MIN KMKG 262340Z 34009KT 10SM CLR 24/18 A2994 610 68 1800 340/09 RMK AO2
14840KMKG MKG20010826184509308/26/01 18:45:31  5-MIN KMKG 262345Z 34008KT 10SM CLR 23/17 A2994 610 68 1800 350/08 RMK AO2
14840KMKG MKG20010826185012808/26/01 18:50:31  5-MIN KMKG 262350Z 33008KT 10SM CLR 23/17 A2995 610 68 1800 340/08 RMK AO2 SLP137 T02330172 10244 20233 51005
14840KMKG MKG20010826185512808/26/01 18:55:31  5-MIN KMKG 262355Z 34009KT 10SM CLR 23/17 A2995 610 68 1800 340/09 RMK AO2 SLP137 T02330172 10244 20233 52003
14840KMKG MKG20010826190009308/26/01 19:00:31  5-MIN KMKG 270000Z 34007KT 10SM CLR 23/17 A2994 610 68 1800 340/07 RMK AO2
14840KMKG MKG20010826190509308/26/01 19:05:31  5-MIN KMKG 270005Z 34008KT 10SM CLR 23/17 A2995 610 70 1700 350/08 RMK AO2
14840KMKG MKG20010826191009308/26/01 19:10:31  5-MIN KMKG 270010Z 34008KT 10SM CLR 23/17 A2994 610 70 1700 350/08 RMK AO2
14840KMKG MKG20010826191509308/26/01 19:15:31  5-MIN KMKG 270015Z 34006KT 10SM CLR 23/17 A2994 610 70 1700 350/06 RMK AO2
14840KMKG MKG20010826192009308/26/01 19:20:31  5-MIN KMKG 270020Z 35004KT 10SM CLR 22/17 A2994 610 73 1600 360/04 RMK AO2
14840KMKG MKG20010826192509308/26/01 19:25:31  5-MIN KMKG 270025Z 36004KT 10SM CLR 22/18 A2994 610 78 1600 010/04 RMK AO2
14840KMKG MKG20010826193009308/26/01 19:30:31  5-MIN KMKG 270030Z 35004KT 10SM CLR 22/18 A2994 610 78 1600 360/04 RMK AO2
14840KMKG MKG20010826193509308/26/01 19:35:31  5-MIN KMKG 270035Z 35003KT 10SM CLR 22/17 A2994 610 75 1600 360/03 RMK AO2
14840KMKG MKG20010826194009608/26/01 19:40:31  5-MIN KMKG 270040Z 00000KT 10SM FEW080 22/17 A2994 610 75 1600 000/00 RMK AO2
14840KMKG MKG20010826194509608/26/01 19:45:31  5-MIN KMKG 270045Z 36003KT 10SM FEW080 22/17 A2994 610 75 1600 360/03 RMK AO2
14840KMKG MKG20010826195011308/26/01 19:50:31  5-MIN KMKG 270050Z 00000KT 10SM FEW080 21/17 A2995 610 78 1500 000/00 RMK AO2 SLP138 T02110172
14840KMKG MKG20010826195511308/26/01 19:55:31  5-MIN KMKG 270055Z 00000KT 10SM FEW080 21/17 A2994 610 78 1500 000/00 RMK AO2 SLP138 T02110172
14840KMKG MKG20010826200009308/26/01 20:00:31  5-MIN KMKG 270100Z 00000KT 10SM CLR 22/17 A2994 610 75 1600 000/00 RMK AO2
14840KMKG MKG20010826200509308/26/01 20:05:31  5-MIN KMKG 270105Z 00000KT 10SM CLR 21/17 A2994 610 78 1500 000/00 RMK AO2
14840KMKG MKG20010826201009308/26/01 20:10:31  5-MIN KMKG 270110Z 00000KT 10SM CLR 21/17 A2994 610 78 1500 000/00 RMK AO2
14840KMKG MKG20010826201509308/26/01 20:15:31  5-MIN KMKG 270115Z 00000KT 10SM CLR 21/17 A2994 610 81 1400 000/00 RMK AO2
14840KMKG MKG20010826202009308/26/01 20:20:31  5-MIN KMKG 270120Z 00000KT 10SM CLR 19/17 A2994 610 87 1300 000/00 RMK AO2
14840KMKG MKG20010826202509308/26/01 20:25:31  5-MIN KMKG 270125Z 00000KT 10SM CLR 19/17 A2995 610 87 1300 000/00 RMK AO2
14840KMKG MKG20010826203009208/26/01 20:30:31  5-MIN KMKG 270130Z 26003KT 9SM CLR 19/17 A2995 600 90 1200 260/03 RMK AO2
14840KMKG MKG20010826203509508/26/01 20:35:31  5-MIN KMKG 270135Z 23003KT 8SM FEW080 18/17 A2995 600 93 1100 230/03 RMK AO2
14840KMKG MKG20010826204009208/26/01 20:40:31  5-MIN KMKG 270140Z 24003KT 8SM CLR 18/17 A2995 600 96 1100 250/03 RMK AO2
14840KMKG MKG20010826204509208/26/01 20:45:31  5-MIN KMKG 270145Z 00000KT 7SM CLR 18/17 A2995 600 96 1100 000/00 RMK AO2
14840KMKG MKG20010826205010908/26/01 20:50:31  5-MIN KMKG 270150Z 00000KT 7SM CLR 18/17 A2995 600 96 1100 000/00 RMK AO2 SLP139 T01780172
14840KMKG MKG20010826205510908/26/01 20:55:31  5-MIN KMKG 270155Z 00000KT 7SM CLR 18/17 A2995 600 93 1200 000/00 RMK AO2 SLP139 T01830172
14840KMKG MKG20010826210009208/26/01 21:00:31  5-MIN KMKG 270200Z 00000KT 7SM CLR 18/17 A2995 600 96 1100 000/00 RMK AO2
14840KMKG MKG20010826210509508/26/01 21:05:31  5-MIN KMKG 270205Z 00000KT 6SM BR CLR 18/17 A2995 600 96 1100 000/00 RMK AO2
14840KMKG MKG20010826211009508/26/01 21:10:31  5-MIN KMKG 270210Z 00000KT 6SM BR CLR 18/17 A2995 600 96 1100 000/00 RMK AO2
14840KMKG MKG20010826211509508/26/01 21:15:31  5-MIN KMKG 270215Z 00000KT 6SM BR CLR 18/17 A2995 600 96 1100 000/00 RMK AO2
14840KMKG MKG20010826212009508/26/01 21:20:31  5-MIN KMKG 270220Z 00000KT 6SM BR CLR 18/17 A2995 600 96 1100 000/00 RMK AO2
14840KMKG MKG20010826212509508/26/01 21:25:31  5-MIN KMKG 270225Z 00000KT 6SM BR CLR 18/17 A2995 600 93 1200 000/00 RMK AO2
14840KMKG MKG20010826213009508/26/01 21:30:31  5-MIN KMKG 270230Z 00000KT 6SM BR CLR 18/18 A2996 600 96 1200 000/00 RMK AO2
14840KMKG MKG20010826213509208/26/01 21:35:31  5-MIN KMKG 270235Z 00000KT 7SM CLR 18/17 A2996 600 96 1100 000/00 RMK AO2
14840KMKG MKG20010826214009308/26/01 21:40:31  5-MIN KMKG 270240Z 00000KT 7SM CLR 17/17 A2996 600 100 1000 000/00 RMK AO2
14840KMKG MKG20010826214509208/26/01 21:45:31  5-MIN KMKG 270245Z 00000KT 7SM CLR 17/17 A2995 600 96 1000 000/00 RMK AO2
14840KMKG MKG20010826215011508/26/01 21:50:31  5-MIN KMKG 270250Z 00000KT 7SM CLR 17/17 A2996 600 96 1000 000/00 RMK AO2 SLP142 T01720167 52003
14840KMKG MKG20010826215511508/26/01 21:55:31  5-MIN KMKG 270255Z 00000KT 7SM CLR 17/17 A2995 600 96 1000 000/00 RMK AO2 SLP141 T01720167 53003
14840KMKG MKG20010826220009208/26/01 22:00:31  5-MIN KMKG 270300Z 00000KT 7SM CLR 17/17 A2996 600 96 1000 000/00 RMK AO2
14840KMKG MKG20010826220509208/26/01 22:05:31  5-MIN KMKG 270305Z 00000KT 7SM CLR 17/17 A2996 600 96 1000 000/00 RMK AO2
14840KMKG MKG20010826221009508/26/01 22:10:31  5-MIN KMKG 270310Z 00000KT 6SM BR CLR 17/17 A2996 600 96 1000 000/00 RMK AO2
14840KMKG MKG20010826221509508/26/01 22:15:31  5-MIN KMKG 270315Z 00000KT 5SM BR CLR 17/17 A2996 590 96 1000 000/00 RMK AO2
14840KMKG MKG20010826222009508/26/01 22:20:31  5-MIN KMKG 270320Z 00000KT 5SM BR CLR 17/17 A2996 590 96 1000 000/00 RMK AO2
14840KMKG MKG20010826222509508/26/01 22:25:31  5-MIN KMKG 270325Z 00000KT 5SM BR CLR 17/17 A2996 600 96 1000 000/00 RMK AO2
14840KMKG MKG20010826223009608/26/01 22:30:31  5-MIN KMKG 270330Z 25003KT 5SM BR CLR 17/17 A2996 590 100 1000 250/03 RMK AO2
14840KMKG MKG20010826223509508/26/01 22:35:31  5-MIN KMKG 270335Z 00000KT 5SM BR CLR 17/16 A2996 590 96 1000 000/00 RMK AO2
14840KMKG MKG20010826224009508/26/01 22:40:31  5-MIN KMKG 270340Z 00000KT 4SM BR CLR 17/16 A2996 590 96 1000 000/00 RMK AO2
14840KMKG MKG20010826224509508/26/01 22:45:31  5-MIN KMKG 270345Z 00000KT 5SM BR CLR 17/16 A2996 590 96 1000 000/00 RMK AO2
14840KMKG MKG20010826225012908/26/01 22:50:31  5-MIN KMKG 270350Z 00000KT 6SM BR CLR 17/16 A2996 590 96 1000 000/00 RMK AO2 VIS 2 1/2 RWY 14 SLP144 T01670161
14840KMKG MKG20010826225510808/26/01 22:55:31  5-MIN KMKG 270355Z 00000KT 7SM CLR 16/16 A2997 590 96 900 000/00 RMK AO2 SLP145 T01610156
14840KMKG MKG20010826230009508/26/01 23:00:31  5-MIN KMKG 270400Z 00000KT 6SM BR CLR 17/16 A2996 590 96 1000 000/00 RMK AO2
14840KMKG MKG20010826230509508/26/01 23:05:31  5-MIN KMKG 270405Z 00000KT 6SM BR CLR 17/16 A2996 590 96 1000 000/00 RMK AO2
14840KMKG MKG20010826231009508/26/01 23:10:31  5-MIN KMKG 270410Z 00000KT 6SM BR CLR 17/16 A2996 590 96 1000 000/00 RMK AO2
14840KMKG MKG20010826231510908/26/01 23:15:31  5-MIN KMKG 270415Z 00000KT 8SM CLR 17/16 A2996 590 96 1000 000/00 RMK AO2 VIS 2 1/2 RWY 14
14840KMKG MKG20010826232009208/26/01 23:20:31  5-MIN KMKG 270420Z 00000KT 8SM CLR 17/16 A2996 590 93 1000 000/00 RMK AO2
14840KMKG MKG20010826232509208/26/01 23:25:31  5-MIN KMKG 270425Z 21003KT 7SM CLR 17/16 A2996 590 96 1000 210/03 RMK AO2
14840KMKG MKG20010826233009108/26/01 23:30:31  5-MIN KMKG 270430Z 00000KT 7SM CLR 16/15 A2997 590 93 900 000/00 RMK AO2
14840KMKG MKG20010826233509108/26/01 23:35:31  5-MIN KMKG 270435Z 00000KT 7SM CLR 16/16 A2997 590 96 900 000/00 RMK AO2
14840KMKG MKG20010826234009208/26/01 23:40:31  5-MIN KMKG 270440Z 00000KT 7SM CLR 17/16 A2997 590 93 1000 000/00 RMK AO2
14840KMKG MKG20010826234509508/26/01 23:45:31  5-MIN KMKG 270445Z 22003KT 4SM BR CLR 17/16 A2997 590 96 1000 220/03 RMK AO2
14840KMKG MKG20010826235012208/26/01 23:50:31  5-MIN KMKG 270450Z 00000KT 2SM BR CLR 17/17 A2997 590 96 1000 000/00 RMK AO2 SLP145 T01720167 402440161
14840KMKG MKG20010826235513408/26/01 23:55:31  5-MIN KMKG 270455Z 00000KT 1 3/4SM BR CLR 17/17 A2996 590 96 1000 000/00 RMK AO2 VIS 1V5 SLP144 T01720167 402440161
14840KMKG MKG20010827000009508/27/01 00:00:31  5-MIN KMKG 270500Z 00000KT 4SM BR CLR 17/16 A2996 590 96 1000 000/00 RMK AO2
14840KMKG MKG20010827000509208/27/01 00:05:31  5-MIN KMKG 270505Z 00000KT 7SM CLR 17/16 A2996 590 96 1000 000/00 RMK AO2
14840KMKG MKG20010827001009208/27/01 00:10:31  5-MIN KMKG 270510Z 00000KT 7SM CLR 17/16 A2996 590 93 1000 000/00 RMK AO2
14840KMKG MKG20010827001509208/27/01 00:15:31  5-MIN KMKG 270515Z 00000KT 7SM CLR 17/16 A2996 590 93 1000 000/00 RMK AO2
14840KMKG MKG20010827002009208/27/01 00:20:31  5-MIN KMKG 270520Z 00000KT 7SM CLR 17/16 A2996 590 93 1000 000/00 RMK AO2
14840KMKG MKG20010827002509408/27/01 00:25:31  5-MIN KMKG 270525Z 00000KT 5SM BR CLR 16/16 A2996 590 96 900 000/00 RMK AO2
14840KMKG MKG20010827003009408/27/01 00:30:31  5-MIN KMKG 270530Z 00000KT 5SM BR CLR 16/16 A2996 590 96 900 000/00 RMK AO2
14840KMKG MKG20010827003509408/27/01 00:35:31  5-MIN KMKG 270535Z 00000KT 5SM BR CLR 16/16 A2996 590 96 900 000/00 RMK AO2
14840KMKG MKG20010827004009408/27/01 00:40:31  5-MIN KMKG 270540Z 00000KT 5SM BR CLR 16/16 A2996 590 96 900 000/00 RMK AO2
14840KMKG MKG20010827004509408/27/01 00:45:31  5-MIN KMKG 270545Z 00000KT 5SM BR CLR 16/16 A2996 600 96 900 000/00 RMK AO2
14840KMKG MKG20010827005013008/27/01 00:50:31  5-MIN KMKG 270550Z 00000KT 5SM BR CLR 17/16 A2996 600 96 1000 000/00 RMK AO2 SLP142 T01670161 10233 20161 53003
14840KMKG MKG20010827005512908/27/01 00:55:31  5-MIN KMKG 270555Z 00000KT 5SM BR CLR 16/16 A2996 600 96 900 000/00 RMK AO2 SLP142 T01610156 10233 20161 50001
14840KMKG MKG20010827010009408/27/01 01:00:31  5-MIN KMKG 270600Z 00000KT 4SM BR CLR 16/16 A2996 600 96 900 000/00 RMK AO2
14840KMKG MKG20010827010511208/27/01 01:05:31  5-MIN KMKG 270605Z 00000KT 4SM BR CLR 17/16 A2996 590 96 1000 000/00 RMK AO2 VIS 2 1/2 RWY 14
14840KMKG MKG20010827011011208/27/01 01:10:31  5-MIN KMKG 270610Z 00000KT 4SM BR CLR 17/16 A2996 600 96 1000 000/00 RMK AO2 VIS 2 1/2 RWY 14
14840KMKG MKG20010827011511108/27/01 01:15:31  5-MIN KMKG 270615Z 00000KT 5SM BR CLR 16/16 A2995 600 96 900 000/00 RMK AO2 VIS 2 1/2 RWY 14
14840KMKG MKG20010827012011208/27/01 01:20:31  5-MIN KMKG 270620Z 00000KT 6SM BR CLR 17/16 A2995 600 96 1000 000/00 RMK AO2 VIS 2 1/2 RWY 14
14840KMKG MKG20010827012511108/27/01 01:25:31  5-MIN KMKG 270625Z 00000KT 6SM BR FEW001 17/16 A2995 600 96 1000 000/00 RMK AO2 VIS 2 RWY 14
14840KMKG MKG20010827013011508/27/01 01:30:31  5-MIN KMKG 270630Z 00000KT 6SM BR SCT001 17/16 A2996 600 96 1000 000/00 RMK AO2 VIS 1 3/4 RWY 14
14840KMKG MKG20010827013511208/27/01 01:35:31  5-MIN KMKG 270635Z 00000KT 6SM BR BKN001 16/16 A2995 600 96 900 000/00 RMK AO2 VIS 3/4 RWY 14
14840KMKG MKG20010827014012308/27/01 01:40:31  5-MIN KMKG 270640Z 00000KT 1 3/4SM BR BKN001 BKN007 16/16 A2995 600 96 900 000/00 RMK AO2 VIS 3/4 RWY 14
14840KMKG MKG20010827014510708/27/01 01:45:31  5-MIN KMKG 270645Z 00000KT 3/4SM BR BKN001 BKN007 16/16 A2995 600 100 900 000/00 RMK AO2
14840KMKG MKG20010827015012408/27/01 01:50:31  5-MIN KMKG 270650Z 00000KT 1/2SM FG BKN001 OVC005 16/16 A2995 600 100 900 000/00 RMK AO2 SLP141 T01610161
14840KMKG MKG20010827015512408/27/01 01:55:31  5-MIN KMKG 270655Z 00000KT 1/4SM FG BKN001 OVC005 16/16 A2995 600 100 900 000/00 RMK AO2 SLP140 T01610161
14840KMKG MKG20010827020010708/27/01 02:00:31  5-MIN KMKG 270700Z 00000KT 1/4SM FG BKN001 OVC005 16/16 A2995 600 100 900 000/00 RMK AO2
14840KMKG MKG20010827020512208/27/01 02:05:31  5-MIN KMKG 270705Z 00000KT 1/2SM FG BKN001 OVC005 16/16 A2995 600 100 800 000/00 RMK AO2 VIS M1/4V1 3/4
14840KMKG MKG20010827021009908/27/01 02:10:31  5-MIN KMKG 270710Z 00000KT 1/4SM FG VV001 16/16 A2995 600 100 800 000/00 RMK AO2
14840KMKG MKG20010827021510708/27/01 02:15:31  5-MIN KMKG 270715Z 00000KT 1/4SM FG BKN001 OVC005 16/16 A2995 600 100 800 000/00 RMK AO2
14840KMKG MKG20010827022010808/27/01 02:20:31  5-MIN KMKG 270720Z 00000KT M1/4SM FG BKN001 OVC005 16/16 A2995 610 100 900 000/00 RMK AO2
14840KMKG MKG20010827022509908/27/01 02:25:31  5-MIN KMKG 270725Z 00000KT 1/4SM FG VV001 16/16 A2994 610 100 900 000/00 RMK AO2
14840KMKG MKG20010827023009908/27/01 02:30:31  5-MIN KMKG 270730Z 00000KT 1/4SM FG VV001 16/16 A2994 610 100 900 000/00 RMK AO2
14840KMKG MKG20010827023509908/27/01 02:35:31  5-MIN KMKG 270735Z 12003KT 1/4SM FG VV001 16/16 A2994 610 100 900 120/03 RMK AO2
14840KMKG MKG20010827024010808/27/01 02:40:31  5-MIN KMKG 270740Z 12003KT M1/4SM FG BKN001 OVC005 16/16 A2994 610 100 900 120/03 RMK AO2
14840KMKG MKG20010827024510708/27/01 02:45:31  5-MIN KMKG 270745Z 11003KT 1/4SM FG BKN001 OVC005 16/16 A2994 610 100 900 120/03 RMK AO2
14840KMKG MKG20010827025012408/27/01 02:50:31  5-MIN KMKG 270750Z 00000KT 1/4SM FG BKN001 OVC005 16/16 A2994 610 100 900 000/00 RMK AO2 SLP137 T01610161
14840KMKG MKG20010827025512408/27/01 02:55:31  5-MIN KMKG 270755Z 00000KT 1/4SM FG BKN001 OVC005 16/16 A2995 600 100 900 000/00 RMK AO2 SLP139 T01610161
14840KMKG MKG20010827030009908/27/01 03:00:31  5-MIN KMKG 270800Z 00000KT 1/4SM FG VV001 16/16 A2994 610 100 900 000/00 RMK AO2
14840KMKG MKG20010827030509908/27/01 03:05:31  5-MIN KMKG 270805Z 00000KT 1/4SM FG VV001 16/16 A2994 610 100 900 000/00 RMK AO2
14840KMKG MKG20010827031010008/27/01 03:10:31  5-MIN KMKG 270810Z 00000KT 1/4SM FG VV001 17/17 A2994 610 100 1000 000/00 RMK AO2
14840KMKG MKG20010827031510008/27/01 03:15:31  5-MIN KMKG 270815Z 00000KT 1/4SM FG VV001 17/17 A2994 610 100 1000 000/00 RMK AO2
14840KMKG MKG20010827032009908/27/01 03:20:31  5-MIN KMKG 270820Z 00000KT 1/4SM FG VV001 16/16 A2994 610 100 900 000/00 RMK AO2
14840KMKG MKG20010827032509908/27/01 03:25:31  5-MIN KMKG 270825Z 00000KT 1/4SM FG VV001 16/16 A2994 610 100 900 000/00 RMK AO2
14840KMKG MKG20010827033009908/27/01 03:30:31  5-MIN KMKG 270830Z 00000KT 1/4SM FG VV001 16/16 A2994 610 100 900 000/00 RMK AO2
14840KMKG MKG20010827033509908/27/01 03:35:31  5-MIN KMKG 270835Z 00000KT 1/4SM FG VV001 16/16 A2994 610 100 900 000/00 RMK AO2
14840KMKG MKG20010827034009908/27/01 03:40:31  5-MIN KMKG 270840Z 12004KT 1/4SM FG VV001 16/16 A2994 620 100 900 120/04 RMK AO2
14840KMKG MKG20010827034509908/27/01 03:45:31  5-MIN KMKG 270845Z 12003KT 1/4SM FG VV001 16/16 A2994 610 100 900 120/03 RMK AO2
14840KMKG MKG20010827035013008/27/01 03:50:31  5-MIN KMKG 270850Z 00000KT 1/4SM FG BKN001 OVC005 16/16 A2994 610 100 900 000/00 RMK AO2 SLP137 T01610161 50001
14840KMKG MKG20010827035513008/27/01 03:55:31  5-MIN KMKG 270855Z 00000KT 1/4SM FG BKN001 OVC005 16/16 A2994 610 100 900 000/00 RMK AO2 SLP137 T01610161 56005
14840KMKG MKG20010827040010708/27/01 04:00:31  5-MIN KMKG 270900Z 00000KT 1/4SM FG BKN001 OVC005 16/16 A2995 600 100 800 000/00 RMK AO2
14840KMKG MKG20010827040510708/27/01 04:05:31  5-MIN KMKG 270905Z 00000KT 1/4SM FG BKN001 OVC005 16/16 A2996 600 100 900 000/00 RMK AO2
14840KMKG MKG20010827041011308/27/01 04:10:31  5-MIN KMKG 270910Z 00000KT 1/4SM FG BKN001 OVC005 16/16 A2996 590 100 800 000/00 RMK AO2 P0001
14840KMKG MKG20010827041511308/27/01 04:15:31  5-MIN KMKG 270915Z 00000KT 1/2SM FG BKN001 OVC005 16/16 A2996 590 100 900 000/00 RMK AO2 P0001
14840KMKG MKG20010827042011308/27/01 04:20:31  5-MIN KMKG 270920Z 00000KT 1/2SM FG BKN001 OVC007 16/16 A2996 590 100 900 000/00 RMK AO2 P0001
14840KMKG MKG20010827042510708/27/01 04:25:31  5-MIN KMKG 270925Z 00000KT 3/4SM BR BKN001 OVC007 16/16 A2996 590 100 900 000/00 RMK AO2
14840KMKG MKG20010827043010708/27/01 04:30:31  5-MIN KMKG 270930Z 00000KT 1/2SM FG SCT001 OVC007 16/16 A2997 590 100 900 000/00 RMK AO2
14840KMKG MKG20010827043510708/27/01 04:35:31  5-MIN KMKG 270935Z 00000KT 1/2SM FG SCT001 OVC007 16/16 A2997 590 100 900 000/00 RMK AO2
14840KMKG MKG20010827044010708/27/01 04:40:31  5-MIN KMKG 270940Z 00000KT 1/2SM FG SCT001 OVC007 16/16 A2997 580 100 900 000/00 RMK AO2
14840KMKG MKG20010827044512208/27/01 04:45:31  5-MIN KMKG 270945Z 00000KT 1/2SM FG SCT001 OVC007 16/16 A2997 580 100 900 000/00 RMK AO2 CIG 001 RWY 14
14840KMKG MKG20010827045014008/27/01 04:50:31  5-MIN KMKG 270950Z 00000KT 1/2SM FG SCT001 OVC007 17/17 A2997 580 100 1000 000/00 RMK AO2 CIG 001 RWY 14 SLP147 T01670167
14840KMKG MKG20010827045514008/27/01 04:55:31  5-MIN KMKG 270955Z 00000KT 1/2SM FG SCT001 OVC007 17/17 A2997 580 100 1000 000/00 RMK AO2 CIG 001 RWY 14 SLP147 T01670167
14840KMKG MKG20010827050010608/27/01 05:00:31  5-MIN KMKG 271000Z 00000KT 1SM BR BKN001 OVC007 17/17 A2997 580 100 1000 000/00 RMK AO2
14840KMKG MKG20010827050511308/27/01 05:05:31  5-MIN KMKG 271005Z 00000KT 3SM BR BKN001 BKN007 OVC120 17/17 A2997 590 100 1000 000/00 RMK AO2
14840KMKG MKG20010827051011308/27/01 05:10:31  5-MIN KMKG 271010Z 00000KT 4SM BR SCT001 BKN007 OVC120 17/17 A2997 590 100 1000 000/00 RMK AO2
14840KMKG MKG20010827051511308/27/01 05:15:31  5-MIN KMKG 271015Z 13003KT 4SM BR SCT001 SCT007 BKN120 17/17 A2996 590 100 1000 130/03 RMK AO2
14840KMKG MKG20010827052010608/27/01 05:20:31  5-MIN KMKG 271020Z 14003KT 4SM BR FEW001 BKN120 17/17 A2996 590 100 1000 140/03 RMK AO2
14840KMKG MKG20010827052510508/27/01 05:25:31  5-MIN KMKG 271025Z 14003KT 4SM BR FEW001 SCT120 16/16 A2996 590 100 900 140/03 RMK AO2
14840KMKG MKG20010827053009808/27/01 05:30:31  5-MIN KMKG 271030Z 15003KT 4SM BR FEW120 16/16 A2996 590 100 900 150/03 RMK AO2
14840KMKG MKG20010827053509808/27/01 05:35:31  5-MIN KMKG 271035Z 00000KT 5SM BR SCT120 16/16 A2996 600 100 900 000/00 RMK AO2
14840KMKG MKG20010827054009808/27/01 05:40:31  5-MIN KMKG 271040Z 00000KT 5SM BR SCT120 16/16 A2996 600 100 900 000/00 RMK AO2
14840KMKG MKG20010827054509808/27/01 05:45:31  5-MIN KMKG 271045Z 00000KT 5SM BR FEW120 16/16 A2996 600 100 900 000/00 RMK AO2
14840KMKG MKG20010827055011508/27/01 05:50:31  5-MIN KMKG 271050Z 00000KT 6SM BR FEW120 16/16 A2996 600 100 900 000/00 RMK AO2 SLP142 T01610161
14840KMKG MKG20010827055511508/27/01 05:55:31  5-MIN KMKG 271055Z 00000KT 6SM BR FEW120 16/16 A2996 600 100 900 000/00 RMK AO2 SLP141 T01610161
14840KMKG MKG20010827060009808/27/01 06:00:31  5-MIN KMKG 271100Z 15003KT 4SM BR FEW120 16/16 A2995 600 100 900 150/03 RMK AO2
14840KMKG MKG20010827060510208/27/01 06:05:31  5-MIN KMKG 271105Z 16003KT 2 1/2SM BR FEW120 16/16 A2995 600 100 900 160/03 RMK AO2
14840KMKG MKG20010827061009908/27/01 06:10:31  5-MIN KMKG 271110Z 19003KT 3SM BR FEW120 17/17 A2995 600 100 1000 200/03 RMK AO2
14840KMKG MKG20010827061509908/27/01 06:15:31  5-MIN KMKG 271115Z 21003KT 3SM BR FEW120 17/17 A2995 600 100 1000 210/03 RMK AO2
14840KMKG MKG20010827062011508/27/01 06:20:31  5-MIN KMKG 271120Z 20003KT 3SM BR FEW120 17/17 A2995 600 96 1000 200/03 RMK AO2 VIS 2 1/2 RWY 14
14840KMKG MKG20010827062511308/27/01 06:25:31  5-MIN KMKG 271125Z 19003KT 3SM BR CLR 17/17 A2995 600 100 1000 190/03 RMK AO2 VIS 2 1/2 RWY 14
14840KMKG MKG20010827063011508/27/01 06:30:31  5-MIN KMKG 271130Z 19003KT 3SM BR FEW120 18/17 A2995 600 96 1100 190/03 RMK AO2 VIS 2 1/2 RWY 14
14840KMKG MKG20010827063509908/27/01 06:35:31  5-MIN KMKG 271135Z 19004KT 3SM BR FEW120 18/18 A2995 610 100 1100 200/04 RMK AO2
14840KMKG MKG20010827064009808/27/01 06:40:31  5-MIN KMKG 271140Z 21005KT 3SM BR FEW120 18/18 A2995 610 96 1200 220/05 RMK AO2
14840KMKG MKG20010827064509908/27/01 06:45:31  5-MIN KMKG 271145Z 20005KT 3SM BR FEW120 18/18 A2994 610 100 1100 200/05 RMK AO2
14840KMKG MKG20010827065013408/27/01 06:50:31  5-MIN KMKG 271150Z 23003KT 3SM BR FEW120 18/18 A2994 610 100 1200 230/03 RMK AO2 SLP137 T01830183 10183 20156 56005
14840KMKG MKG20010827065513408/27/01 06:55:31  5-MIN KMKG 271155Z 20006KT 3SM BR FEW120 18/18 A2994 610 100 1200 200/06 RMK AO2 SLP138 T01830183 10183 20156 50000
14840KMKG MKG20010827070009808/27/01 07:00:31  5-MIN KMKG 271200Z 21005KT 3SM BR FEW120 19/18 A2994 610 97 1200 210/05 RMK AO2
14840KMKG MKG20010827070509808/27/01 07:05:31  5-MIN KMKG 271205Z 20005KT 3SM BR FEW120 19/18 A2994 610 97 1200 210/05 RMK AO2
14840KMKG MKG20010827071010608/27/01 07:10:31  5-MIN KMKG 271210Z 17009KT 3SM BR BKN120 19/19 A2992 630 100 1300 170/09 RMK AO2 PRESFR
14840KMKG MKG20010827071511508/27/01 07:15:31  5-MIN KMKG 271215Z 18009KT 3SM BR BKN120 19/19 A2992 630 97 1300 180/09 RMK AO2 VIS 2 1/2 RWY 14
14840KMKG MKG20010827072009808/27/01 07:20:31  5-MIN KMKG 271220Z 18008KT 4SM BR BKN120 19/19 A2992 630 97 1300 180/08 RMK AO2
14840KMKG MKG20010827072509808/27/01 07:25:31  5-MIN KMKG 271225Z 19007KT 4SM BR BKN120 19/19 A2992 630 97 1300 200/07 RMK AO2
14840KMKG MKG20010827073009808/27/01 07:30:31  5-MIN KMKG 271230Z 18008KT 4SM BR BKN120 19/19 A2991 640 97 1400 180/08 RMK AO2
14840KMKG MKG20010827073510508/27/01 07:35:31  5-MIN KMKG 271235Z 17008KT 4SM BR SCT120 19/19 A2990 650 97 1400 170/08 RMK AO2 PRESFR
14840KMKG MKG20010827074009808/27/01 07:40:31  5-MIN KMKG 271240Z 17009KT 4SM BR SCT120 19/19 A2990 650 97 1400 170/09 RMK AO2
14840KMKG MKG20010827074509808/27/01 07:45:31  5-MIN KMKG 271245Z 17008KT 4SM BR BKN120 19/19 A2990 650 97 1400 170/08 RMK AO2
14840KMKG MKG20010827075011508/27/01 07:50:31  5-MIN KMKG 271250Z 18007KT 4SM BR BKN120 20/19 A2991 640 93 1400 180/07 RMK AO2 SLP124 T02000189
14840KMKG MKG20010827075511508/27/01 07:55:31  5-MIN KMKG 271255Z 18005KT 5SM BR BKN110 20/19 A2991 640 93 1400 190/05 RMK AO2 SLP125 T02000189
14840KMKG MKG20010827080009808/27/01 08:00:31  5-MIN KMKG 271300Z 18004KT 5SM BR SCT110 20/19 A2991 640 97 1400 180/04 RMK AO2
14840KMKG MKG20010827080509808/27/01 08:05:31  5-MIN KMKG 271305Z 12003KT 5SM BR BKN120 20/19 A2991 640 97 1400 130/03 RMK AO2
14840KMKG MKG20010827081009808/27/01 08:10:31  5-MIN KMKG 271310Z 08004KT 4SM BR SCT110 20/19 A2991 640 97 1400 090/04 RMK AO2
14840KMKG MKG20010827081511508/27/01 08:15:31  5-MIN KMKG 271315Z 08004KT 3SM BR SCT110 21/19 A2992 630 93 1500 090/04 RMK AO2 VIS 2 1/2 RWY 14
14840KMKG MKG20010827082009808/27/01 08:20:31  5-MIN KMKG 271320Z 07003KT 3SM BR FEW110 21/19 A2992 630 93 1500 070/03 RMK AO2
14840KMKG MKG20010827082511508/27/01 08:25:31  5-MIN KMKG 271325Z 08004KT 4SM BR FEW120 21/19 A2992 630 90 1500 080/04 RMK AO2 VIS 2 1/2 RWY 14
14840KMKG MKG20010827083011508/27/01 08:30:31  5-MIN KMKG 271330Z 08005KT 4SM BR FEW120 21/20 A2992 630 93 1500 090/05 RMK AO2 VIS 2 1/2 RWY 14
14840KMKG MKG20010827083509508/27/01 08:35:31  5-MIN KMKG 271335Z 10004KT 4SM BR CLR 21/19 A2992 630 90 1500 100/04 RMK AO2
14840KMKG MKG20010827084009508/27/01 08:40:31  5-MIN KMKG 271340Z 10004KT 4SM BR CLR 21/19 A2992 630 90 1500 100/04 RMK AO2
14840KMKG MKG20010827084509508/27/01 08:45:31  5-MIN KMKG 271345Z 06005KT 4SM BR CLR 21/20 A2992 630 93 1500 070/05 RMK AO2
14840KMKG MKG20010827085011208/27/01 08:50:31  5-MIN KMKG 271350Z 03004KT 4SM BR CLR 22/19 A2992 630 87 1600 040/04 RMK AO2 SLP130 T02170194
14840KMKG MKG20010827085511208/27/01 08:55:31  5-MIN KMKG 271355Z VRB03KT 5SM BR CLR 22/19 A2992 630 87 1600 VRB/03 RMK AO2 SLP130 T02170194
14840KMKG MKG20010827090009508/27/01 09:00:31  5-MIN KMKG 271400Z 11003KT 6SM BR CLR 22/19 A2992 630 87 1600 120/03 RMK AO2
14840KMKG MKG20010827090509508/27/01 09:05:31  5-MIN KMKG 271405Z 16004KT 6SM BR CLR 22/20 A2992 630 90 1600 160/04 RMK AO2
14840KMKG MKG20010827091009508/27/01 09:10:31  5-MIN KMKG 271410Z 19005KT 6SM BR CLR 22/20 A2992 630 87 1700 190/05 RMK AO2
14840KMKG MKG20010827091509208/27/01 09:15:31  5-MIN KMKG 271415Z 21008KT 7SM CLR 23/20 A2992 630 84 1700 210/08 RMK AO2
14840KMKG MKG20010827092009208/27/01 09:20:31  5-MIN KMKG 271420Z 21009KT 9SM CLR 23/20 A2991 640 81 1800 210/09 RMK AO2
14840KMKG MKG20010827092509308/27/01 09:25:31  5-MIN KMKG 271425Z 21009KT 10SM CLR 24/20 A2992 630 78 1900 210/09 RMK AO2
14840KMKG MKG20010827093009308/27/01 09:30:31  5-MIN KMKG 271430Z 20007KT 10SM CLR 23/20 A2992 640 81 1800 200/07 RMK AO2
14840KMKG MKG20010827093509308/27/01 09:35:31  5-MIN KMKG 271435Z 21009KT 10SM CLR 24/19 A2991 640 76 1900 210/09 RMK AO2
14840KMKG MKG20010827094009308/27/01 09:40:31  5-MIN KMKG 271440Z 21009KT 10SM CLR 23/19 A2991 640 78 1800 210/09 RMK AO2
14840KMKG MKG20010827094509308/27/01 09:45:31  5-MIN KMKG 271445Z 19010KT 10SM CLR 24/19 A2992 640 76 1900 200/10 RMK AO2
14840KMKG MKG20010827095011608/27/01 09:50:31  5-MIN KMKG 271450Z 20010KT 10SM CLR 24/20 A2991 640 78 1900 200/10 RMK AO2 SLP128 T02390200 50000
14840KMKG MKG20010827095511608/27/01 09:55:31  5-MIN KMKG 271455Z 21007KT 10SM CLR 24/19 A2992 630 76 1800 220/07 RMK AO2 SLP128 T02390194 56009
14840KMKG MKG20010827100009308/27/01 10:00:31  5-MIN KMKG 271500Z 23008KT 10SM CLR 24/19 A2992 630 76 1800 230/08 RMK AO2
14840KMKG MKG20010827100509308/27/01 10:05:31  5-MIN KMKG 271505Z 20008KT 10SM CLR 24/20 A2991 640 76 1900 210/08 RMK AO2
14840KMKG MKG20010827101009308/27/01 10:10:31  5-MIN KMKG 271510Z 20009KT 10SM CLR 24/19 A2991 640 73 1900 200/09 RMK AO2
14840KMKG MKG20010827101509308/27/01 10:15:31  5-MIN KMKG 271515Z 20009KT 10SM CLR 24/19 A2991 640 71 1900 200/09 RMK AO2
14840KMKG MKG20010827102009308/27/01 10:20:31  5-MIN KMKG 271520Z 20011KT 10SM CLR 24/19 A2991 640 71 1900 200/11 RMK AO2
14840KMKG MKG20010827102509308/27/01 10:25:31  5-MIN KMKG 271525Z 21009KT 10SM CLR 25/19 A2992 630 71 2000 210/09 RMK AO2
14840KMKG MKG20010827103009308/27/01 10:30:31  5-MIN KMKG 271530Z 21010KT 10SM CLR 25/19 A2992 640 71 2000 210/10 RMK AO2
14840KMKG MKG20010827103509608/27/01 10:35:31  5-MIN KMKG 271535Z 21010KT 10SM FEW110 24/19 A2992 630 71 1900 220/10 RMK AO2
14840KMKG MKG20010827104009308/27/01 10:40:31  5-MIN KMKG 271540Z 21011KT 10SM CLR 24/19 A2992 630 73 1800 220/11 RMK AO2
14840KMKG MKG20010827104509308/27/01 10:45:31  5-MIN KMKG 271545Z 20010KT 10SM CLR 24/19 A2992 630 73 1900 200/10 RMK AO2
14840KMKG MKG20010827105011008/27/01 10:50:31  5-MIN KMKG 271550Z 20011KT 10SM CLR 24/19 A2992 630 73 1900 210/11 RMK AO2 SLP128 T02440194
14840KMKG MKG20010827105511008/27/01 10:55:31  5-MIN KMKG 271555Z 20010KT 10SM CLR 24/19 A2991 640 73 1900 210/10 RMK AO2 SLP127 T02440194
14840KMKG MKG20010827110009308/27/01 11:00:31  5-MIN KMKG 271600Z 22011KT 10SM CLR 24/19 A2991 640 73 1900 220/11 RMK AO2
14840KMKG MKG20010827110509308/27/01 11:05:31  5-MIN KMKG 271605Z 22013KT 10SM CLR 24/19 A2992 630 73 1900 220/13 RMK AO2
14840KMKG MKG20010827111009308/27/01 11:10:31  5-MIN KMKG 271610Z 21012KT 10SM CLR 24/19 A2992 630 71 1900 210/12 RMK AO2
14840KMKG MKG20010827111509308/27/01 11:15:31  5-MIN KMKG 271615Z 21011KT 10SM CLR 24/19 A2992 630 73 1900 220/11 RMK AO2
14840KMKG MKG20010827112009308/27/01 11:20:31  5-MIN KMKG 271620Z 22012KT 10SM CLR 24/19 A2992 640 73 1900 230/12 RMK AO2
14840KMKG MKG20010827112509308/27/01 11:25:31  5-MIN KMKG 271625Z 21013KT 10SM CLR 24/19 A2991 640 73 1900 210/13 RMK AO2
14840KMKG MKG20010827113009308/27/01 11:30:31  5-MIN KMKG 271630Z 20012KT 10SM CLR 24/19 A2991 640 73 1900 210/12 RMK AO2
14840KMKG MKG20010827113509308/27/01 11:35:31  5-MIN KMKG 271635Z 21012KT 10SM CLR 24/19 A2991 640 76 1900 210/12 RMK AO2
14840KMKG MKG20010827114009308/27/01 11:40:31  5-MIN KMKG 271640Z 21013KT 10SM CLR 24/19 A2991 640 71 1900 210/13 RMK AO2
14840KMKG MKG20010827114509308/27/01 11:45:31  5-MIN KMKG 271645Z 22012KT 10SM CLR 24/19 A2991 640 73 1900 220/12 RMK AO2
14840KMKG MKG20010827115011008/27/01 11:50:31  5-MIN KMKG 271650Z 22012KT 10SM CLR 24/19 A2991 640 71 1900 220/12 RMK AO2 SLP125 T02440189
14840KMKG MKG20010827115511008/27/01 11:55:31  5-MIN KMKG 271655Z 21012KT 10SM CLR 24/19 A2991 640 73 1900 220/12 RMK AO2 SLP125 T02440194
14840KMKG MKG20010827120009908/27/01 12:00:31  5-MIN KMKG 271700Z 21015G18KT 10SM CLR 25/20 A2991 640 73 2000 210/15G18 RMK AO2
14840KMKG MKG20010827120509908/27/01 12:05:31  5-MIN KMKG 271705Z 22011G18KT 10SM CLR 24/19 A2990 650 73 1900 220/11G18 RMK AO2
14840KMKG MKG20010827121009308/27/01 12:10:31  5-MIN KMKG 271710Z 23013KT 10SM CLR 24/19 A2990 650 73 1900 230/13 RMK AO2
14840KMKG MKG20010827121509308/27/01 12:15:31  5-MIN KMKG 271715Z 23013KT 10SM CLR 25/19 A2990 650 71 2000 230/13 RMK AO2
14840KMKG MKG20010827122009308/27/01 12:20:31  5-MIN KMKG 271720Z 23013KT 10SM CLR 25/19 A2990 650 71 2000 230/13 RMK AO2
14840KMKG MKG20010827122509908/27/01 12:25:31  5-MIN KMKG 271725Z 22017G20KT 10SM CLR 25/19 A2990 650 71 2000 230/17G20 RMK AO2
14840KMKG MKG20010827123010208/27/01 12:30:31  5-MIN KMKG 271730Z 24015G20KT 10SM FEW095 24/19 A2990 650 76 1900 240/15G20 RMK AO2
14840KMKG MKG20010827123509608/27/01 12:35:31  5-MIN KMKG 271735Z 23013KT 10SM SCT095 24/19 A2990 650 73 1900 230/13 RMK AO2
14840KMKG MKG20010827124009608/27/01 12:40:31  5-MIN KMKG 271740Z 21013KT 10SM BKN090 24/20 A2989 660 76 1900 220/13 RMK AO2
14840KMKG MKG20010827124509608/27/01 12:45:31  5-MIN KMKG 271745Z 22015KT 10SM BKN090 24/20 A2989 660 78 1900 230/15 RMK AO2
14840KMKG MKG20010827125013108/27/01 12:50:31  5-MIN KMKG 271750Z 22014KT 10SM BKN090 24/19 A2989 660 76 1900 220/14 RMK AO2 SLP120 T02390194 10250 20183 56009
14840KMKG MKG20010827125513108/27/01 12:55:31  5-MIN KMKG 271755Z 22012KT 10SM BKN090 24/20 A2989 660 78 1900 220/12 RMK AO2 SLP120 T02390200 10250 20183 58008
14840KMKG MKG20010827130009508/27/01 13:00:31  5-MIN KMKG 271800Z 22012KT 9SM BKN090 24/19 A2989 660 76 1900 230/12 RMK AO2
14840KMKG MKG20010827130509508/27/01 13:05:31  5-MIN KMKG 271805Z 22012KT 9SM BKN090 24/20 A2989 660 76 1900 220/12 RMK AO2
14840KMKG MKG20010827131009508/27/01 13:10:31  5-MIN KMKG 271810Z 22013KT 9SM BKN090 24/19 A2989 660 76 1900 230/13 RMK AO2
14840KMKG MKG20010827131509508/27/01 13:15:31  5-MIN KMKG 271815Z 21014KT 9SM BKN090 24/19 A2989 660 76 1900 210/14 RMK AO2
14840KMKG MKG20010827132009508/27/01 13:20:31  5-MIN KMKG 271820Z 21012KT 9SM BKN090 24/19 A2988 660 73 1900 220/12 RMK AO2
14840KMKG MKG20010827132509508/27/01 13:25:31  5-MIN KMKG 271825Z 22010KT 9SM SCT090 25/19 A2988 660 71 2000 220/10 RMK AO2
14840KMKG MKG20010827133009608/27/01 13:30:31  5-MIN KMKG 271830Z 21014KT 10SM SCT095 25/19 A2988 670 68 2000 220/14 RMK AO2
14840KMKG MKG20010827133509608/27/01 13:35:31  5-MIN KMKG 271835Z 22011KT 10SM SCT085 24/19 A2988 670 71 2000 220/11 RMK AO2
14840KMKG MKG20010827134010308/27/01 13:40:31  5-MIN KMKG 271840Z 21011KT 10SM SCT075 BKN090 24/18 A2988 670 71 1900 220/11 RMK AO2
14840KMKG MKG20010827134510208/27/01 13:45:31  5-MIN KMKG 271845Z 21012KT 9SM BKN080 BKN090 24/19 A2988 670 76 1900 210/12 RMK AO2
14840KMKG MKG20010827135011208/27/01 13:50:31  5-MIN KMKG 271850Z 21012KT 9SM BKN080 24/19 A2988 670 76 1900 210/12 RMK AO2 SLP114 T02390194
14840KMKG MKG20010827135511208/27/01 13:55:31  5-MIN KMKG 271855Z 21011KT 9SM BKN080 24/19 A2988 670 73 1900 220/11 RMK AO2 SLP114 T02390189
14840KMKG MKG20010827140009508/27/01 14:00:31  5-MIN KMKG 271900Z 21011KT 9SM BKN080 24/19 A2987 670 73 2000 220/11 RMK AO2
14840KMKG MKG20010827140509508/27/01 14:05:31  5-MIN KMKG 271905Z 21011KT 9SM BKN080 24/19 A2987 670 73 2000 220/11 RMK AO2
14840KMKG MKG20010827141009508/27/01 14:10:31  5-MIN KMKG 271910Z 21013KT 9SM BKN085 25/19 A2987 680 71 2000 210/13 RMK AO2
14840KMKG MKG20010827141509508/27/01 14:15:31  5-MIN KMKG 271915Z 20013KT 9SM BKN085 24/19 A2987 680 73 2000 210/13 RMK AO2
14840KMKG MKG20010827142010208/27/01 14:20:31  5-MIN KMKG 271920Z 20011KT 9SM FEW070 BKN085 24/19 A2987 680 73 2000 200/11 RMK AO2
14840KMKG MKG20010827142510208/27/01 14:25:31  5-MIN KMKG 271925Z 19013KT 9SM FEW065 BKN085 24/19 A2986 680 71 2000 200/13 RMK AO2
14840KMKG MKG20010827143010208/27/01 14:30:31  5-MIN KMKG 271930Z 20013KT 9SM FEW065 BKN080 25/19 A2986 680 71 2000 200/13 RMK AO2
14840KMKG MKG20010827143510208/27/01 14:35:31  5-MIN KMKG 271935Z 20014KT 9SM SCT065 BKN080 24/19 A2986 690 71 2000 200/14 RMK AO2
14840KMKG MKG20010827144010208/27/01 14:40:31  5-MIN KMKG 271940Z 19011KT 8SM FEW065 BKN080 24/19 A2986 690 73 2000 190/11 RMK AO2
14840KMKG MKG20010827144510208/27/01 14:45:31  5-MIN KMKG 271945Z 20011KT 9SM SCT060 BKN080 24/19 A2985 690 73 2000 200/11 RMK AO2
14840KMKG MKG20010827145011908/27/01 14:50:31  5-MIN KMKG 271950Z 20011KT 9SM SCT060 BKN080 24/19 A2985 690 71 2000 200/11 RMK AO2 SLP106 T02440189
14840KMKG MKG20010827145511908/27/01 14:55:31  5-MIN KMKG 271955Z 20010KT 9SM FEW060 OVC080 24/19 A2985 700 71 2000 210/10 RMK AO2 SLP105 T02440189
14840KMKG MKG20010827150010208/27/01 15:00:31  5-MIN KMKG 272000Z 20011KT 9SM FEW060 OVC080 25/19 A2985 700 68 2100 200/11 RMK AO2
14840KMKG MKG20010827150510308/27/01 15:05:31  5-MIN KMKG 272005Z 21014KT 10SM FEW060 OVC075 25/18 A2985 700 66 2100 210/14 RMK AO2
14840KMKG MKG20010827151010908/27/01 15:10:31  5-MIN KMKG 272010Z 21015G18KT 10SM FEW060 OVC070 24/18 A2985 700 66 2000 210/15G18 RMK AO2
14840KMKG MKG20010827151510208/27/01 15:15:31  5-MIN KMKG 272015Z 20014G18KT 10SM OVC070 24/18 A2984 700 66 2000 200/14G18 RMK AO2
14840KMKG MKG20010827152009608/27/01 15:20:31  5-MIN KMKG 272020Z 20014KT 10SM OVC070 24/18 A2984 700 68 1900 200/14 RMK AO2
14840KMKG MKG20010827152510308/27/01 15:25:31  5-MIN KMKG 272025Z 20011KT 10SM SCT055 OVC070 23/18 A2984 700 73 1900 210/11 RMK AO2
14840KMKG MKG20010827153010808/27/01 15:30:31  5-MIN KMKG 272030Z 20010G18KT 9SM BKN050 OVC070 23/18 A2984 710 73 1900 200/10G18 RMK AO2
14840KMKG MKG20010827153510208/27/01 15:35:31  5-MIN KMKG 272035Z 20011KT 9SM BKN055 OVC070 23/18 A2984 710 73 1900 200/11 RMK AO2
14840KMKG MKG20010827154010208/27/01 15:40:31  5-MIN KMKG 272040Z 20012KT 8SM BKN055 OVC070 23/19 A2984 710 76 1900 210/12 RMK AO2
14840KMKG MKG20010827154509508/27/01 15:45:31  5-MIN KMKG 272045Z 20012KT 8SM OVC055 23/19 A2983 710 76 1900 210/12 RMK AO2
14840KMKG MKG20010827155011808/27/01 15:50:31  5-MIN KMKG 272050Z 20012KT 8SM OVC050 23/19 A2983 710 76 1900 200/12 RMK AO2 SLP100 T02330189 58008
14840KMKG MKG20010827155511808/27/01 15:55:31  5-MIN KMKG 272055Z 21011KT 9SM OVC050 23/19 A2983 710 76 1900 210/11 RMK AO2 SLP100 T02330189 57019
14840KMKG MKG20010827160009508/27/01 16:00:31  5-MIN KMKG 272100Z 20012KT 9SM OVC050 23/19 A2983 710 76 1900 210/12 RMK AO2
14840KMKG MKG20010827160509508/27/01 16:05:31  5-MIN KMKG 272105Z 20011KT 9SM OVC050 23/19 A2983 710 78 1800 210/11 RMK AO2
14840KMKG MKG20010827161009508/27/01 16:10:31  5-MIN KMKG 272110Z 20011KT 9SM OVC050 23/18 A2983 710 73 1900 210/11 RMK AO2
14840KMKG MKG20010827161509608/27/01 16:15:31  5-MIN KMKG 272115Z 20011KT 10SM OVC048 23/19 A2983 710 76 1900 210/11 RMK AO2
14840KMKG MKG20010827162009608/27/01 16:20:31  5-MIN KMKG 272120Z 21010KT 10SM OVC048 24/19 A2983 720 73 1900 210/10 RMK AO2
14840KMKG MKG20010827162509608/27/01 16:25:31  5-MIN KMKG 272125Z 21012KT 10SM OVC046 24/18 A2983 720 71 1900 210/12 RMK AO2
14840KMKG MKG20010827163009608/27/01 16:30:31  5-MIN KMKG 272130Z 21010KT 10SM OVC046 24/18 A2983 720 71 1900 210/10 RMK AO2
14840KMKG MKG20010827163510308/27/01 16:35:31  5-MIN KMKG 272135Z 21013KT 10SM BKN046 BKN060 24/18 A2983 720 68 2000 220/13 RMK AO2
14840KMKG MKG20010827164011808/27/01 16:40:31  5-MIN KMKG 272140Z 21010KT 10SM SCT046 BKN060 25/18 A2983 720 66 2100 220/10 RMK AO2 CIG 046 RWY 14
14840KMKG MKG20010827164510308/27/01 16:45:31  5-MIN KMKG 272145Z 21012KT 10SM SCT046 BKN060 24/18 A2983 720 68 2000 220/12 RMK AO2
14840KMKG MKG20010827165012008/27/01 16:50:31  5-MIN KMKG 272150Z 21013KT 10SM SCT046 BKN060 24/18 A2983 720 68 2000 220/13 RMK AO2 SLP098 T02440183
14840KMKG MKG20010827165512708/27/01 16:55:31  5-MIN KMKG 272155Z 22011KT 10SM FEW042 SCT049 BKN060 24/18 A2983 720 71 2000 220/11 RMK AO2 SLP098 T02390183
14840KMKG MKG20010827170011008/27/01 17:00:31  5-MIN KMKG 272200Z 22011KT 10SM FEW042 SCT049 BKN065 24/18 A2983 720 66 2000 220/11 RMK AO2
14840KMKG MKG20010827170511008/27/01 17:05:31  5-MIN KMKG 272205Z 21013KT 10SM FEW040 SCT050 BKN065 24/17 A2982 720 63 2000 220/13 RMK AO2
14840KMKG MKG20010827171011008/27/01 17:10:31  5-MIN KMKG 272210Z 21012KT 10SM FEW040 SCT050 BKN065 24/17 A2982 720 63 2000 220/12 RMK AO2
14840KMKG MKG20010827171511008/27/01 17:15:31  5-MIN KMKG 272215Z 21012KT 10SM FEW040 SCT055 SCT070 25/18 A2982 720 64 2100 220/12 RMK AO2
14840KMKG MKG20010827172010308/27/01 17:20:31  5-MIN KMKG 272220Z 22013KT 10SM FEW040 SCT065 24/18 A2982 730 66 2000 220/13 RMK AO2
14840KMKG MKG20010827172509608/27/01 17:25:31  5-MIN KMKG 272225Z 21013KT 10SM FEW040 24/18 A2982 730 66 2000 220/13 RMK AO2
14840KMKG MKG20010827173009308/27/01 17:30:31  5-MIN KMKG 272230Z 22011KT 10SM CLR 25/18 A2981 730 64 2100 220/11 RMK AO2
14840KMKG MKG20010827173509308/27/01 17:35:31  5-MIN KMKG 272235Z 22012KT 10SM CLR 24/18 A2981 730 66 2000 230/12 RMK AO2
14840KMKG MKG20010827174009608/27/01 17:40:31  5-MIN KMKG 272240Z 21011KT 10SM FEW047 24/17 A2981 730 63 2000 220/11 RMK AO2
14840KMKG MKG20010827174509608/27/01 17:45:31  5-MIN KMKG 272245Z 22012KT 10SM FEW045 24/17 A2981 740 63 2000 220/12 RMK AO2
14840KMKG MKG20010827175011308/27/01 17:50:31  5-MIN KMKG 272250Z 22012KT 10SM SCT043 24/17 A2981 740 63 2000 220/12 RMK AO2 SLP090 T02440172
14840KMKG MKG20010827175511308/27/01 17:55:31  5-MIN KMKG 272255Z 21012KT 10SM FEW043 24/17 A2980 740 66 2000 220/12 RMK AO2 SLP090 T02390172
14840KMKG MKG20010827180009608/27/01 18:00:31  5-MIN KMKG 272300Z 21011KT 10SM FEW043 24/17 A2980 740 66 2000 220/11 RMK AO2
14840KMKG MKG20010827180509608/27/01 18:05:31  5-MIN KMKG 272305Z 21010KT 10SM FEW043 24/17 A2980 740 66 2000 210/10 RMK AO2
14840KMKG MKG20010827181009608/27/01 18:10:31  5-MIN KMKG 272310Z 21010KT 10SM SCT043 24/17 A2980 740 66 2000 210/10 RMK AO2
14840KMKG MKG20010827181509608/27/01 18:15:31  5-MIN KMKG 272315Z 22011KT 10SM SCT042 24/18 A2981 740 68 2000 220/11 RMK AO2
14840KMKG MKG20010827182010308/27/01 18:20:31  5-MIN KMKG 272320Z 21010KT 10SM SCT040 BKN055 24/18 A2981 730 68 2000 220/10 RMK AO2
14840KMKG MKG20010827182510308/27/01 18:25:31  5-MIN KMKG 272325Z 21009KT 10SM SCT040 BKN055 24/18 A2981 740 68 2000 220/09 RMK AO2
14840KMKG MKG20010827183012508/27/01 18:30:31  5-MIN KMKG 272330Z 21010KT 10SM SCT040 SCT047 BKN055 24/18 A2980 740 68 2000 220/10 RMK AO2 CIG 045 RWY 14
14840KMKG MKG20010827183511008/27/01 18:35:31  5-MIN KMKG 272335Z 21011KT 10SM SCT040 SCT047 BKN055 24/18 A2981 740 68 2000 220/11 RMK AO2
14840KMKG MKG20010827184010308/27/01 18:40:31  5-MIN KMKG 272340Z 21010KT 10SM SCT040 BKN055 24/17 A2980 740 66 2000 220/10 RMK AO2
14840KMKG MKG20010827184510908/27/01 18:45:31  5-MIN KMKG 272345Z 23016G20KT 10SM SCT038 BKN055 23/18 A2981 740 70 1900 230/16G20 RMK AO2
14840KMKG MKG20010827185014408/27/01 18:50:31  5-MIN KMKG 272350Z 22014G20KT 10SM FEW038 SCT050 23/18 A2981 730 76 1800 230/14G20 RMK AO2 SLP093 T02280183 10256 20228 57019
14840KMKG MKG20010827185513108/27/01 18:55:31  5-MIN KMKG 272355Z 23010KT 10SM FEW038 22/18 A2981 730 78 1800 230/10 RMK AO2 SLP092 T02220183 10256 20222 55008
14840KMKG MKG20010827190009608/27/01 19:00:31  5-MIN KMKG 280000Z 24008KT 10SM FEW038 23/18 A2981 730 73 1800 240/08 RMK AO2
14840KMKG MKG20010827190509608/27/01 19:05:31  5-MIN KMKG 280005Z 23008KT 10SM FEW038 23/18 A2982 730 73 1800 230/08 RMK AO2
14840KMKG MKG20010827191010208/27/01 19:10:31  5-MIN KMKG 280010Z 22011G16KT 10SM FEW047 23/18 A2982 720 73 1800 220/11G16 RMK AO2
14840KMKG MKG20010827191509308/27/01 19:15:31  5-MIN KMKG 280015Z 23012KT 10SM CLR 23/18 A2982 720 76 1800 240/12 RMK AO2
14840KMKG MKG20010827192009308/27/01 19:20:31  5-MIN KMKG 280020Z 23010KT 10SM CLR 22/18 A2982 720 78 1800 240/10 RMK AO2
14840KMKG MKG20010827192509308/27/01 19:25:31  5-MIN KMKG 280025Z 23009KT 10SM CLR 22/18 A2982 730 78 1800 230/09 RMK AO2
14840KMKG MKG20010827193009308/27/01 19:30:31  5-MIN KMKG 280030Z 22008KT 10SM CLR 22/18 A2982 730 81 1700 230/08 RMK AO2
14840KMKG MKG20010827193509308/27/01 19:35:31  5-MIN KMKG 280035Z 22006KT 10SM CLR 22/18 A2982 730 81 1700 220/06 RMK AO2
14840KMKG MKG20010827194009308/27/01 19:40:31  5-MIN KMKG 280040Z 23005KT 10SM CLR 21/18 A2982 730 84 1600 240/05 RMK AO2
14840KMKG MKG20010827194509308/27/01 19:45:31  5-MIN KMKG 280045Z 23006KT 10SM CLR 21/18 A2981 730 84 1600 230/06 RMK AO2
14840KMKG MKG20010827195011008/27/01 19:50:31  5-MIN KMKG 280050Z 25006KT 10SM CLR 21/18 A2982 720 84 1600 250/06 RMK AO2 SLP095 T02110183
14840KMKG MKG20010827195511308/27/01 19:55:31  5-MIN KMKG 280055Z 25007KT 10SM FEW030 22/18 A2982 730 81 1700 250/07 RMK AO2 SLP094 T02170183
14840KMKG MKG20010827200009308/27/01 20:00:31  5-MIN KMKG 280100Z 26007KT 10SM CLR 22/18 A2982 720 81 1700 260/07 RMK AO2
14840KMKG MKG20010827200509308/27/01 20:05:31  5-MIN KMKG 280105Z VRB06KT 10SM CLR 22/18 A2982 730 81 1700 VRB/06 RMK AO2
14840KMKG MKG20010827201009308/27/01 20:10:31  5-MIN KMKG 280110Z 28005KT 10SM CLR 22/18 A2982 720 81 1700 280/05 RMK AO2
14840KMKG MKG20010827201509308/27/01 20:15:31  5-MIN KMKG 280115Z 27006KT 10SM CLR 22/19 A2982 720 84 1700 270/06 RMK AO2
14840KMKG MKG20010827202009308/27/01 20:20:31  5-MIN KMKG 280120Z 26006KT 10SM CLR 22/19 A2982 720 84 1700 270/06 RMK AO2
14840KMKG MKG20010827202509308/27/01 20:25:31  5-MIN KMKG 280125Z 27006KT 10SM CLR 22/19 A2982 720 84 1700 270/06 RMK AO2
14840KMKG MKG20010827203009308/27/01 20:30:31  5-MIN KMKG 280130Z 26005KT 10SM CLR 22/19 A2982 720 84 1700 270/05 RMK AO2
14840KMKG MKG20010827203509308/27/01 20:35:31  5-MIN KMKG 280135Z 25006KT 10SM CLR 22/19 A2982 720 84 1700 250/06 RMK AO2
14840KMKG MKG20010827204009308/27/01 20:40:31  5-MIN KMKG 280140Z 23007KT 10SM CLR 22/19 A2982 720 84 1700 230/07 RMK AO2
14840KMKG MKG20010827204509308/27/01 20:45:31  5-MIN KMKG 280145Z 22006KT 10SM CLR 21/19 A2982 720 87 1600 220/06 RMK AO2
14840KMKG MKG20010827205011308/27/01 20:50:31  5-MIN KMKG 280150Z 22006KT 10SM FEW120 21/19 A2982 720 87 1600 230/06 RMK AO2 SLP095 T02110189
14840KMKG MKG20010827205512808/27/01 20:55:31  5-MIN KMKG 280155Z 23006KT 10SM FEW110 21/19 A2982 720 87 1600 230/06 RMK AO2 SLP096 DSNT LTG NE-SE T02110189
14840KMKG MKG20010827210009608/27/01 21:00:31  5-MIN KMKG 280200Z 24005KT 10SM SCT110 21/19 A2982 720 87 1600 240/05 RMK AO2
14840KMKG MKG20010827210509608/27/01 21:05:31  5-MIN KMKG 280205Z 25005KT 10SM SCT110 21/19 A2982 720 90 1600 250/05 RMK AO2
14840KMKG MKG20010827211009608/27/01 21:10:31  5-MIN KMKG 280210Z 24006KT 10SM SCT110 21/19 A2982 720 90 1600 250/06 RMK AO2
14840KMKG MKG20010827211509608/27/01 21:15:31  5-MIN KMKG 280215Z 24007KT 10SM SCT110 21/19 A2982 720 90 1600 250/07 RMK AO2
14840KMKG MKG20010827212009608/27/01 21:20:31  5-MIN KMKG 280220Z 24005KT 10SM FEW110 21/19 A2982 720 90 1600 240/05 RMK AO2
14840KMKG MKG20010827212509608/27/01 21:25:31  5-MIN KMKG 280225Z 26005KT 10SM FEW110 21/19 A2982 720 90 1600 260/05 RMK AO2
14840KMKG MKG20010827213009508/27/01 21:30:31  5-MIN KMKG 280230Z 26005KT 9SM FEW110 21/19 A2982 720 90 1600 270/05 RMK AO2
14840KMKG MKG20010827213509508/27/01 21:35:31  5-MIN KMKG 280235Z 27006KT 9SM FEW110 21/19 A2982 720 90 1600 270/06 RMK AO2
14840KMKG MKG20010827214009208/27/01 21:40:31  5-MIN KMKG 280240Z 28006KT 9SM CLR 21/19 A2982 720 90 1600 280/06 RMK AO2
14840KMKG MKG20010827214509208/27/01 21:45:31  5-MIN KMKG 280245Z 29006KT 9SM CLR 21/19 A2982 720 90 1600 290/06 RMK AO2
14840KMKG MKG20010827215011508/27/01 21:50:31  5-MIN KMKG 280250Z 30006KT 9SM CLR 21/19 A2982 720 90 1600 300/06 RMK AO2 SLP094 T02110194 55008
14840KMKG MKG20010827215511508/27/01 21:55:31  5-MIN KMKG 280255Z 28005KT 9SM CLR 21/19 A2982 720 90 1600 290/05 RMK AO2 SLP094 T02110194 50003
14840KMKG MKG20010827220009208/27/01 22:00:31  5-MIN KMKG 280300Z 29005KT 9SM CLR 21/19 A2982 720 90 1600 290/05 RMK AO2
14840KMKG MKG20010827220509208/27/01 22:05:31  5-MIN KMKG 280305Z 30004KT 9SM CLR 21/19 A2982 720 90 1600 310/04 RMK AO2
14840KMKG MKG20010827221009208/27/01 22:10:31  5-MIN KMKG 280310Z 32004KT 9SM CLR 21/19 A2982 720 90 1600 320/04 RMK AO2
14840KMKG MKG20010827221509208/27/01 22:15:31  5-MIN KMKG 280315Z 30004KT 9SM CLR 21/19 A2982 720 90 1600 310/04 RMK AO2
14840KMKG MKG20010827222009208/27/01 22:20:31  5-MIN KMKG 280320Z 29004KT 9SM CLR 21/19 A2982 720 90 1600 300/04 RMK AO2
14840KMKG MKG20010827222509208/27/01 22:25:31  5-MIN KMKG 280325Z 29004KT 9SM CLR 21/19 A2982 720 90 1600 300/04 RMK AO2
14840KMKG MKG20010827223009508/27/01 22:30:31  5-MIN KMKG 280330Z 30005KT 9SM FEW038 21/19 A2982 720 90 1600 300/05 RMK AO2
14840KMKG MKG20010827223509508/27/01 22:35:31  5-MIN KMKG 280335Z 30005KT 9SM FEW038 21/19 A2982 720 90 1600 300/05 RMK AO2
14840KMKG MKG20010827224009508/27/01 22:40:31  5-MIN KMKG 280340Z 30005KT 9SM SCT040 21/19 A2982 720 90 1600 310/05 RMK AO2
14840KMKG MKG20010827224510208/27/01 22:45:31  5-MIN KMKG 280345Z 30004KT 9SM FEW036 SCT044 21/19 A2983 720 90 1600 310/04 RMK AO2
14840KMKG MKG20010827225011908/27/01 22:50:31  5-MIN KMKG 280350Z 29005KT 9SM FEW036 SCT045 21/19 A2983 720 90 1600 300/05 RMK AO2 SLP096 T02110194
14840KMKG MKG20010827225511908/27/01 22:55:31  5-MIN KMKG 280355Z 31005KT 9SM FEW036 SCT045 21/19 A2983 720 90 1600 310/05 RMK AO2 SLP097 T02110194
14840KMKG MKG20010827230009508/27/01 23:00:31  5-MIN KMKG 280400Z 31004KT 9SM FEW045 21/19 A2983 720 90 1600 310/04 RMK AO2
14840KMKG MKG20010827230509508/27/01 23:05:31  5-MIN KMKG 280405Z 30004KT 9SM FEW045 21/19 A2983 710 90 1600 300/04 RMK AO2
14840KMKG MKG20010827231009208/27/01 23:10:31  5-MIN KMKG 280410Z 29004KT 9SM CLR 21/19 A2983 710 90 1600 290/04 RMK AO2
14840KMKG MKG20010827231509208/27/01 23:15:31  5-MIN KMKG 280415Z 27003KT 9SM CLR 21/19 A2984 710 90 1600 280/03 RMK AO2
14840KMKG MKG20010827232009508/27/01 23:20:31  5-MIN KMKG 280420Z 00000KT 9SM FEW029 21/19 A2984 710 90 1600 000/00 RMK AO2
14840KMKG MKG20010827232509508/27/01 23:25:31  5-MIN KMKG 280425Z 28003KT 9SM FEW029 21/19 A2983 710 90 1600 280/03 RMK AO2
14840KMKG MKG20010827233009508/27/01 23:30:31  5-MIN KMKG 280430Z 29003KT 8SM FEW029 21/19 A2983 710 93 1600 290/03 RMK AO2
14840KMKG MKG20010827233509508/27/01 23:35:31  5-MIN KMKG 280435Z 30003KT 8SM FEW029 21/19 A2983 710 93 1600 300/03 RMK AO2
14840KMKG MKG20010827234009508/27/01 23:40:31  5-MIN KMKG 280440Z 30003KT 8SM FEW029 21/19 A2983 710 93 1600 310/03 RMK AO2
14840KMKG MKG20010827234509508/27/01 23:45:31  5-MIN KMKG 280445Z 30003KT 8SM FEW029 21/19 A2984 710 93 1600 310/03 RMK AO2
14840KMKG MKG20010827235012908/27/01 23:50:31  5-MIN KMKG 280450Z 29004KT 8SM FEW029 SCT037 21/19 A2983 710 93 1600 290/04 RMK AO2 SLP099 T02060194 402560156
14840KMKG MKG20010827235512208/27/01 23:55:31  5-MIN KMKG 280455Z 00000KT 7SM FEW029 21/19 A2983 710 93 1600 000/00 RMK AO2 SLP098 T02060194 402560156
14840KMKG MKG20010828000009508/28/01 00:00:31  5-MIN KMKG 280500Z 32003KT 7SM FEW037 21/19 A2983 710 93 1600 330/03 RMK AO2
14840KMKG MKG20010828000509508/28/01 00:05:31  5-MIN KMKG 280505Z 00000KT 7SM FEW037 21/19 A2983 710 93 1600 000/00 RMK AO2
14840KMKG MKG20010828001009508/28/01 00:10:31  5-MIN KMKG 280510Z 00000KT 7SM FEW037 21/19 A2983 710 93 1600 000/00 RMK AO2
14840KMKG MKG20010828001509508/28/01 00:15:31  5-MIN KMKG 280515Z 00000KT 7SM FEW029 21/19 A2983 710 93 1600 000/00 RMK AO2
14840KMKG MKG20010828002009808/28/01 00:20:31  5-MIN KMKG 280520Z 00000KT 6SM BR FEW029 20/19 A2984 710 97 1500 000/00 RMK AO2
14840KMKG MKG20010828002509808/28/01 00:25:31  5-MIN KMKG 280525Z 00000KT 6SM BR SCT029 20/19 A2984 710 97 1500 000/00 RMK AO2
14840KMKG MKG20010828003009808/28/01 00:30:31  5-MIN KMKG 280530Z 00000KT 6SM BR SCT031 20/19 A2984 710 93 1500 000/00 RMK AO2
14840KMKG MKG20010828003510508/28/01 00:35:31  5-MIN KMKG 280535Z 00000KT 6SM BR SCT029 BKN055 20/19 A2984 710 97 1500 000/00 RMK AO2
14840KMKG MKG20010828004010508/28/01 00:40:31  5-MIN KMKG 280540Z 00000KT 6SM BR SCT029 BKN055 20/19 A2984 710 93 1500 000/00 RMK AO2
14840KMKG MKG20010828004511208/28/01 00:45:31  5-MIN KMKG 280545Z 00000KT 6SM BR SCT026 BKN031 BKN055 20/19 A2984 710 93 1500 000/00 RMK AO2
14840KMKG MKG20010828005014708/28/01 00:50:31  5-MIN KMKG 280550Z 00000KT 6SM BR SCT026 BKN031 BKN055 19/19 A2984 700 97 1400 000/00 RMK AO2 SLP101 T01940189 10228 20194 50003
14840KMKG MKG20010828005514408/28/01 00:55:31  5-MIN KMKG 280555Z 00000KT 7SM FEW022 SCT026 BKN033 20/19 A2984 710 93 1500 000/00 RMK AO2 SLP101 T02000189 10228 20194 52007
14840KMKG MKG20010828010012708/28/01 01:00:31  5-MIN KMKG 280600Z 00000KT 6SM BR FEW026 SCT033 BKN055 19/19 A2984 710 97 1400 000/00 RMK AO2 CIG 032 RWY 14
14840KMKG MKG20010828010510508/28/01 01:05:31  5-MIN KMKG 280605Z 01003KT 6SM BR FEW024 SCT033 20/19 A2984 710 93 1500 010/03 RMK AO2
14840KMKG MKG20010828011010508/28/01 01:10:31  5-MIN KMKG 280610Z 01004KT 6SM BR FEW024 SCT033 20/19 A2984 710 97 1500 020/04 RMK AO2
14840KMKG MKG20010828011509808/28/01 01:15:31  5-MIN KMKG 280615Z 02004KT 6SM BR FEW029 21/19 A2984 710 93 1600 020/04 RMK AO2
14840KMKG MKG20010828012009808/28/01 01:20:31  5-MIN KMKG 280620Z 03005KT 6SM BR FEW033 21/19 A2984 710 93 1600 030/05 RMK AO2
14840KMKG MKG20010828012509508/28/01 01:25:31  5-MIN KMKG 280625Z 03005KT 6SM BR CLR 20/19 A2984 700 97 1500 040/05 RMK AO2
14840KMKG MKG20010828013009508/28/01 01:30:31  5-MIN KMKG 280630Z 04006KT 6SM BR CLR 20/19 A2984 700 97 1500 040/06 RMK AO2
14840KMKG MKG20010828013509508/28/01 01:35:31  5-MIN KMKG 280635Z 03007KT 6SM BR CLR 20/19 A2984 700 97 1500 040/07 RMK AO2
14840KMKG MKG20010828014009508/28/01 01:40:31  5-MIN KMKG 280640Z 03007KT 6SM BR CLR 20/19 A2984 700 93 1500 040/07 RMK AO2
14840KMKG MKG20010828014509508/28/01 01:45:31  5-MIN KMKG 280645Z 03007KT 6SM BR CLR 20/19 A2985 700 93 1500 040/07 RMK AO2
14840KMKG MKG20010828015010908/28/01 01:50:31  5-MIN KMKG 280650Z 03007KT 7SM CLR 20/19 A2985 700 93 1500 030/07 RMK AO2 SLP103 T02000189
14840KMKG MKG20010828015510908/28/01 01:55:31  5-MIN KMKG 280655Z 03007KT 7SM CLR 20/19 A2985 700 93 1500 030/07 RMK AO2 SLP103 T02000189
14840KMKG MKG20010828020009208/28/01 02:00:31  5-MIN KMKG 280700Z 03007KT 7SM CLR 20/18 A2985 700 90 1500 030/07 RMK AO2
14840KMKG MKG20010828020509208/28/01 02:05:31  5-MIN KMKG 280705Z 05006KT 8SM CLR 20/18 A2985 690 90 1500 050/06 RMK AO2
14840KMKG MKG20010828021009208/28/01 02:10:31  5-MIN KMKG 280710Z 04007KT 8SM CLR 20/18 A2985 690 90 1500 040/07 RMK AO2
14840KMKG MKG20010828021509208/28/01 02:15:31  5-MIN KMKG 280715Z 04006KT 8SM CLR 20/18 A2985 690 90 1500 050/06 RMK AO2
14840KMKG MKG20010828022009208/28/01 02:20:31  5-MIN KMKG 280720Z 05005KT 8SM CLR 19/18 A2986 690 93 1400 060/05 RMK AO2
14840KMKG MKG20010828022509208/28/01 02:25:31  5-MIN KMKG 280725Z 07005KT 8SM CLR 19/18 A2986 690 90 1400 080/05 RMK AO2
14840KMKG MKG20010828023009508/28/01 02:30:31  5-MIN KMKG 280730Z 06004KT 8SM FEW085 19/18 A2986 680 90 1400 070/04 RMK AO2
14840KMKG MKG20010828023510208/28/01 02:35:31  5-MIN KMKG 280735Z 05004KT 8SM FEW050 SCT085 19/18 A2986 680 90 1400 050/04 RMK AO2
14840KMKG MKG20010828024010208/28/01 02:40:31  5-MIN KMKG 280740Z 03006KT 9SM SCT050 SCT085 19/18 A2987 680 90 1400 040/06 RMK AO2
14840KMKG MKG20010828024510208/28/01 02:45:31  5-MIN KMKG 280745Z 04007KT 9SM SCT050 BKN085 19/18 A2987 680 90 1400 040/07 RMK AO2
14840KMKG MKG20010828025011908/28/01 02:50:31  5-MIN KMKG 280750Z 04006KT 9SM SCT050 BKN085 19/18 A2987 680 90 1400 040/06 RMK AO2 SLP112 T01940178
14840KMKG MKG20010828025511908/28/01 02:55:31  5-MIN KMKG 280755Z 03006KT 9SM BKN055 OVC085 19/18 A2987 670 90 1400 040/06 RMK AO2 SLP113 T01940178
14840KMKG MKG20010828030010208/28/01 03:00:31  5-MIN KMKG 280800Z 03005KT 9SM BKN055 OVC085 19/18 A2988 670 90 1400 030/05 RMK AO2
14840KMKG MKG20010828030510208/28/01 03:05:31  5-MIN KMKG 280805Z 02005KT 9SM BKN055 OVC085 19/18 A2988 670 90 1400 020/05 RMK AO2
14840KMKG MKG20010828031010208/28/01 03:10:31  5-MIN KMKG 280810Z 03005KT 9SM SCT055 OVC085 19/18 A2988 670 90 1400 040/05 RMK AO2
14840KMKG MKG20010828031510208/28/01 03:15:31  5-MIN KMKG 280815Z 04003KT 9SM SCT055 BKN085 19/18 A2988 670 93 1300 040/03 RMK AO2
14840KMKG MKG20010828032010208/28/01 03:20:31  5-MIN KMKG 280820Z 03005KT 9SM BKN055 BKN085 19/18 A2988 670 93 1300 040/05 RMK AO2
14840KMKG MKG20010828032510208/28/01 03:25:31  5-MIN KMKG 280825Z 03005KT 8SM BKN055 BKN085 19/18 A2988 670 93 1300 030/05 RMK AO2
14840KMKG MKG20010828033010208/28/01 03:30:31  5-MIN KMKG 280830Z 03003KT 8SM SCT055 BKN085 19/17 A2988 670 90 1300 030/03 RMK AO2
14840KMKG MKG20010828033510208/28/01 03:35:31  5-MIN KMKG 280835Z 03004KT 8SM FEW055 SCT085 18/17 A2988 670 93 1200 030/04 RMK AO2
14840KMKG MKG20010828034009508/28/01 03:40:31  5-MIN KMKG 280840Z 03003KT 7SM FEW055 19/17 A2988 670 90 1300 030/03 RMK AO2
14840KMKG MKG20010828034509508/28/01 03:45:31  5-MIN KMKG 280845Z 02003KT 7SM FEW055 18/17 A2988 660 93 1200 020/03 RMK AO2
14840KMKG MKG20010828035011808/28/01 03:50:31  5-MIN KMKG 280850Z 01004KT 7SM FEW055 18/17 A2988 660 93 1200 020/04 RMK AO2 SLP117 T01830172 52007
14840KMKG MKG20010828035511508/28/01 03:55:31  5-MIN KMKG 280855Z 01005KT 7SM CLR 18/17 A2989 660 93 1200 020/05 RMK AO2 SLP118 T01830172 53016
14840KMKG MKG20010828040009208/28/01 04:00:31  5-MIN KMKG 280900Z 01006KT 7SM CLR 18/17 A2989 660 93 1200 010/06 RMK AO2
14840KMKG MKG20010828040509208/28/01 04:05:31  5-MIN KMKG 280905Z 01005KT 7SM CLR 18/17 A2989 660 93 1200 020/05 RMK AO2
14840KMKG MKG20010828041009208/28/01 04:10:31  5-MIN KMKG 280910Z 01006KT 7SM CLR 18/17 A2990 650 93 1200 020/06 RMK AO2
14840KMKG MKG20010828041509208/28/01 04:15:31  5-MIN KMKG 280915Z 01006KT 7SM CLR 18/17 A2990 650 96 1200 010/06 RMK AO2
14840KMKG MKG20010828042009208/28/01 04:20:31  5-MIN KMKG 280920Z 01006KT 7SM CLR 18/17 A2990 650 96 1200 010/06 RMK AO2
14840KMKG MKG20010828042509208/28/01 04:25:31  5-MIN KMKG 280925Z 01007KT 7SM CLR 18/17 A2990 650 96 1200 010/07 RMK AO2
14840KMKG MKG20010828043009208/28/01 04:30:31  5-MIN KMKG 280930Z 02009KT 8SM CLR 18/17 A2990 650 96 1200 020/09 RMK AO2
14840KMKG MKG20010828043509208/28/01 04:35:31  5-MIN KMKG 280935Z 02008KT 9SM CLR 18/17 A2990 650 93 1200 030/08 RMK AO2
14840KMKG MKG20010828044009308/28/01 04:40:31  5-MIN KMKG 280940Z 02006KT 10SM CLR 18/17 A2990 650 93 1200 020/06 RMK AO2
14840KMKG MKG20010828044509308/28/01 04:45:31  5-MIN KMKG 280945Z 01007KT 10SM CLR 18/17 A2990 650 93 1200 020/07 RMK AO2
14840KMKG MKG20010828045011008/28/01 04:50:31  5-MIN KMKG 280950Z 01007KT 10SM CLR 18/17 A2990 650 93 1200 020/07 RMK AO2 SLP123 T01780167
14840KMKG MKG20010828045511008/28/01 04:55:31  5-MIN KMKG 280955Z 02008KT 10SM CLR 18/17 A2990 650 93 1200 020/08 RMK AO2 SLP124 T01780167
14840KMKG MKG20010828050009308/28/01 05:00:31  5-MIN KMKG 281000Z 01006KT 10SM CLR 18/17 A2991 640 93 1200 020/06 RMK AO2
14840KMKG MKG20010828050509308/28/01 05:05:31  5-MIN KMKG 281005Z 02006KT 10SM CLR 18/16 A2991 640 90 1200 020/06 RMK AO2
14840KMKG MKG20010828051009308/28/01 05:10:31  5-MIN KMKG 281010Z 02006KT 10SM CLR 18/16 A2991 640 90 1200 030/06 RMK AO2
14840KMKG MKG20010828051509308/28/01 05:15:31  5-MIN KMKG 281015Z 02006KT 10SM CLR 18/16 A2991 640 90 1200 020/06 RMK AO2
14840KMKG MKG20010828052009308/28/01 05:20:31  5-MIN KMKG 281020Z 02006KT 10SM CLR 17/16 A2991 640 93 1100 030/06 RMK AO2
14840KMKG MKG20010828052509608/28/01 05:25:31  5-MIN KMKG 281025Z 02006KT 10SM FEW049 18/16 A2991 640 90 1200 020/06 RMK AO2
14840KMKG MKG20010828053009608/28/01 05:30:31  5-MIN KMKG 281030Z 02005KT 10SM SCT049 18/16 A2991 640 90 1100 030/05 RMK AO2
14840KMKG MKG20010828053509608/28/01 05:35:31  5-MIN KMKG 281035Z 03006KT 10SM BKN049 18/16 A2992 630 90 1100 040/06 RMK AO2
14840KMKG MKG20010828054010308/28/01 05:40:31  5-MIN KMKG 281040Z 03006KT 10SM BKN049 BKN060 18/16 A2992 630 90 1100 040/06 RMK AO2
14840KMKG MKG20010828054510308/28/01 05:45:31  5-MIN KMKG 281045Z 02006KT 10SM BKN049 BKN060 17/16 A2992 630 93 1100 030/06 RMK AO2
14840KMKG MKG20010828055012008/28/01 05:50:31  5-MIN KMKG 281050Z 03006KT 10SM SCT049 BKN060 17/16 A2992 630 90 1100 030/06 RMK AO2 SLP130 T01720156
14840KMKG MKG20010828055512008/28/01 05:55:31  5-MIN KMKG 281055Z 02005KT 10SM SCT049 BKN060 17/16 A2993 620 90 1100 020/05 RMK AO2 SLP132 T01720156
14840KMKG MKG20010828060009608/28/01 06:00:31  5-MIN KMKG 281100Z 03006KT 10SM BKN055 17/16 A2993 620 90 1100 030/06 RMK AO2
14840KMKG MKG20010828060509608/28/01 06:05:31  5-MIN KMKG 281105Z 03007KT 10SM BKN055 18/16 A2993 620 87 1100 030/07 RMK AO2
14840KMKG MKG20010828061009608/28/01 06:10:31  5-MIN KMKG 281110Z 02006KT 10SM BKN060 17/16 A2994 610 90 1100 020/06 RMK AO2
14840KMKG MKG20010828061509608/28/01 06:15:31  5-MIN KMKG 281115Z 03006KT 10SM BKN060 17/16 A2994 610 90 1100 040/06 RMK AO2
14840KMKG MKG20010828062009608/28/01 06:20:31  5-MIN KMKG 281120Z 03005KT 10SM BKN060 17/15 A2994 610 87 1100 040/05 RMK AO2
14840KMKG MKG20010828062509608/28/01 06:25:31  5-MIN KMKG 281125Z 04006KT 10SM BKN060 17/15 A2994 610 87 1000 050/06 RMK AO2
14840KMKG MKG20010828063009608/28/01 06:30:31  5-MIN KMKG 281130Z 04006KT 10SM BKN060 18/15 A2995 600 83 1100 050/06 RMK AO2
14840KMKG MKG20010828063509608/28/01 06:35:31  5-MIN KMKG 281135Z 04004KT 10SM BKN060 17/15 A2995 600 87 1000 050/04 RMK AO2
14840KMKG MKG20010828064009608/28/01 06:40:31  5-MIN KMKG 281140Z 04005KT 10SM BKN060 18/15 A2995 600 83 1100 040/05 RMK AO2
14840KMKG MKG20010828064509608/28/01 06:45:31  5-MIN KMKG 281145Z 04007KT 10SM BKN060 17/15 A2996 600 87 1000 040/07 RMK AO2
14840KMKG MKG20010828065013108/28/01 06:50:31  5-MIN KMKG 281150Z 03006KT 10SM SCT060 17/15 A2996 590 87 1000 030/06 RMK AO2 SLP143 T01720150 10206 20172 53016
14840KMKG MKG20010828065513108/28/01 06:55:31  5-MIN KMKG 281155Z 03004KT 10SM BKN060 18/14 A2996 590 81 1100 040/04 RMK AO2 SLP143 T01780144 10206 20172 53024
14840KMKG MKG20010828070009608/28/01 07:00:31  5-MIN KMKG 281200Z 04005KT 10SM BKN060 18/15 A2996 590 83 1100 040/05 RMK AO2
14840KMKG MKG20010828070509608/28/01 07:05:31  5-MIN KMKG 281205Z 04005KT 10SM SCT060 18/15 A2996 590 83 1100 050/05 RMK AO2
14840KMKG MKG20010828071009608/28/01 07:10:31  5-MIN KMKG 281210Z 03005KT 10SM FEW060 18/15 A2996 590 83 1100 040/05 RMK AO2
14840KMKG MKG20010828071509608/28/01 07:15:31  5-MIN KMKG 281215Z 05005KT 10SM FEW060 18/14 A2996 590 78 1200 050/05 RMK AO2
14840KMKG MKG20010828072009608/28/01 07:20:31  5-MIN KMKG 281220Z 04005KT 10SM FEW060 18/14 A2996 590 78 1200 040/05 RMK AO2
14840KMKG MKG20010828072509608/28/01 07:25:31  5-MIN KMKG 281225Z 04004KT 10SM FEW060 18/15 A2997 590 81 1200 050/04 RMK AO2
14840KMKG MKG20010828073009308/28/01 07:30:31  5-MIN KMKG 281230Z 05005KT 10SM CLR 18/14 A2997 590 78 1200 050/05 RMK AO2
14840KMKG MKG20010828073509308/28/01 07:35:31  5-MIN KMKG 281235Z 05006KT 10SM CLR 18/14 A2997 590 78 1200 050/06 RMK AO2
14840KMKG MKG20010828074009308/28/01 07:40:31  5-MIN KMKG 281240Z 03006KT 10SM CLR 19/14 A2997 590 75 1200 030/06 RMK AO2
14840KMKG MKG20010828074509308/28/01 07:45:31  5-MIN KMKG 281245Z 05006KT 10SM CLR 19/14 A2997 580 75 1200 050/06 RMK AO2
14840KMKG MKG20010828075011008/28/01 07:50:31  5-MIN KMKG 281250Z 04006KT 10SM CLR 19/14 A2997 580 75 1200 040/06 RMK AO2 SLP147 T01890144
14840KMKG MKG20010828075511008/28/01 07:55:31  5-MIN KMKG 281255Z 03007KT 10SM CLR 19/14 A2997 580 72 1300 030/07 RMK AO2 SLP147 T01940144
14840KMKG MKG20010828080009308/28/01 08:00:31  5-MIN KMKG 281300Z 05006KT 10SM CLR 19/14 A2997 580 72 1300 060/06 RMK AO2
14840KMKG MKG20010828080509308/28/01 08:05:31  5-MIN KMKG 281305Z 04005KT 10SM CLR 19/14 A2998 580 72 1300 050/05 RMK AO2
14840KMKG MKG20010828081009308/28/01 08:10:31  5-MIN KMKG 281310Z 05005KT 10SM CLR 19/14 A2998 580 70 1300 050/05 RMK AO2
14840KMKG MKG20010828081509308/28/01 08:15:31  5-MIN KMKG 281315Z 05005KT 10SM CLR 19/14 A2998 580 70 1300 050/05 RMK AO2
14840KMKG MKG20010828082009308/28/01 08:20:31  5-MIN KMKG 281320Z 05006KT 10SM CLR 19/14 A2998 580 70 1300 050/06 RMK AO2
14840KMKG MKG20010828082509308/28/01 08:25:31  5-MIN KMKG 281325Z 04004KT 10SM CLR 20/14 A2998 570 67 1300 050/04 RMK AO2
14840KMKG MKG20010828083009308/28/01 08:30:31  5-MIN KMKG 281330Z 03004KT 10SM CLR 20/14 A2998 570 70 1300 030/04 RMK AO2
14840KMKG MKG20010828083509308/28/01 08:35:31  5-MIN KMKG 281335Z 03007KT 10SM CLR 21/14 A2998 570 67 1400 040/07 RMK AO2
14840KMKG MKG20010828084009308/28/01 08:40:31  5-MIN KMKG 281340Z 03007KT 10SM CLR 20/14 A2999 570 67 1300 040/07 RMK AO2
14840KMKG MKG20010828084509308/28/01 08:45:31  5-MIN KMKG 281345Z 02007KT 10SM CLR 21/14 A2999 570 65 1400 030/07 RMK AO2
14840KMKG MKG20010828085011008/28/01 08:50:31  5-MIN KMKG 281350Z 05007KT 10SM CLR 21/13 A2999 570 63 1400 060/07 RMK AO2 SLP153 T02060133
14840KMKG MKG20010828085511008/28/01 08:55:31  5-MIN KMKG 281355Z 04005KT 10SM CLR 21/13 A2999 570 63 1400 040/05 RMK AO2 SLP153 T02060133
14840KMKG MKG20010828090009308/28/01 09:00:31  5-MIN KMKG 281400Z 06005KT 10SM CLR 21/13 A2999 560 61 1400 070/05 RMK AO2
14840KMKG MKG20010828090509308/28/01 09:05:31  5-MIN KMKG 281405Z 04006KT 10SM CLR 21/14 A2999 560 63 1400 050/06 RMK AO2
14840KMKG MKG20010828091009308/28/01 09:10:31  5-MIN KMKG 281410Z 04006KT 10SM CLR 21/14 A2999 560 63 1400 040/06 RMK AO2
14840KMKG MKG20010828091509308/28/01 09:15:31  5-MIN KMKG 281415Z 02007KT 10SM CLR 22/14 A3000 560 61 1500 020/07 RMK AO2
14840KMKG MKG20010828092009308/28/01 09:20:31  5-MIN KMKG 281420Z 01009KT 10SM CLR 21/14 A3000 560 63 1400 020/09 RMK AO2
14840KMKG MKG20010828092509308/28/01 09:25:31  5-MIN KMKG 281425Z 01010KT 10SM CLR 21/14 A3000 560 63 1400 020/10 RMK AO2
14840KMKG MKG20010828093009308/28/01 09:30:31  5-MIN KMKG 281430Z 01008KT 10SM CLR 22/14 A3000 560 61 1500 010/08 RMK AO2
14840KMKG MKG20010828093509308/28/01 09:35:31  5-MIN KMKG 281435Z 01007KT 10SM CLR 22/14 A3000 560 61 1500 010/07 RMK AO2
14840KMKG MKG20010828094009308/28/01 09:40:31  5-MIN KMKG 281440Z 02006KT 10SM CLR 22/14 A3000 560 63 1500 020/06 RMK AO2
14840KMKG MKG20010828094509308/28/01 09:45:31  5-MIN KMKG 281445Z 02008KT 10SM CLR 22/14 A3000 560 59 1600 020/08 RMK AO2
14840KMKG MKG20010828095011608/28/01 09:50:31  5-MIN KMKG 281450Z 02007KT 10SM CLR 22/14 A3000 560 59 1600 030/07 RMK AO2 SLP155 T02220139 53024
14840KMKG MKG20010828095511608/28/01 09:55:31  5-MIN KMKG 281455Z 01006KT 10SM CLR 22/14 A3000 560 61 1600 020/06 RMK AO2 SLP155 T02220144 51013
14840KMKG MKG20010828100009308/28/01 10:00:31  5-MIN KMKG 281500Z 05006KT 10SM CLR 22/14 A3000 560 59 1600 060/06 RMK AO2
14840KMKG MKG20010828100509308/28/01 10:05:31  5-MIN KMKG 281505Z 05005KT 10SM CLR 22/14 A3000 550 59 1600 050/05 RMK AO2
14840KMKG MKG20010828101009308/28/01 10:10:31  5-MIN KMKG 281510Z 03008KT 10SM CLR 22/14 A3000 550 59 1600 030/08 RMK AO2
14840KMKG MKG20010828101509308/28/01 10:15:31  5-MIN KMKG 281515Z 04007KT 10SM CLR 22/14 A3000 550 59 1600 040/07 RMK AO2
14840KMKG MKG20010828102009308/28/01 10:20:31  5-MIN KMKG 281520Z 05006KT 10SM CLR 23/13 A3000 550 55 1600 060/06 RMK AO2
14840KMKG MKG20010828102509308/28/01 10:25:31  5-MIN KMKG 281525Z 04006KT 10SM CLR 22/13 A3001 550 56 1600 050/06 RMK AO2
14840KMKG MKG20010828103009308/28/01 10:30:31  5-MIN KMKG 281530Z VRB06KT 10SM CLR 23/14 A3001 550 57 1600 VRB/06 RMK AO2
14840KMKG MKG20010828103509308/28/01 10:35:31  5-MIN KMKG 281535Z 35006KT 10SM CLR 23/14 A3001 550 55 1700 350/06 RMK AO2
14840KMKG MKG20010828104009608/28/01 10:40:31  5-MIN KMKG 281540Z 01007KT 10SM FEW032 23/14 A3001 550 55 1700 010/07 RMK AO2
14840KMKG MKG20010828104509608/28/01 10:45:31  5-MIN KMKG 281545Z 36005KT 10SM FEW032 23/14 A3001 550 57 1700 360/05 RMK AO2
14840KMKG MKG20010828105011308/28/01 10:50:31  5-MIN KMKG 281550Z 34005KT 10SM FEW032 23/14 A3001 550 55 1700 350/05 RMK AO2 SLP158 T02330139
14840KMKG MKG20010828105511308/28/01 10:55:31  5-MIN KMKG 281555Z 01008KT 10SM FEW032 23/14 A3001 550 55 1700 020/08 RMK AO2 SLP158 T02330139
14840KMKG MKG20010828110009608/28/01 11:00:31  5-MIN KMKG 281600Z 36009KT 10SM FEW032 24/14 A3001 550 55 1700 360/09 RMK AO2
14840KMKG MKG20010828110509608/28/01 11:05:31  5-MIN KMKG 281605Z 01007KT 10SM FEW032 24/14 A3001 550 53 1700 020/07 RMK AO2
14840KMKG MKG20010828111009608/28/01 11:10:31  5-MIN KMKG 281610Z 03004KT 10SM FEW032 23/14 A3001 550 55 1700 030/04 RMK AO2
14840KMKG MKG20010828111509608/28/01 11:15:31  5-MIN KMKG 281615Z VRB05KT 10SM FEW032 24/14 A3001 550 53 1700 VRB/05 RMK AO2
14840KMKG MKG20010828112011208/28/01 11:20:31  5-MIN KMKG 281620Z 35008KT 310V010 10SM FEW032 24/14 A3001 550 53 1700 350/08 310V010 RMK AO2
14840KMKG MKG20010828112509608/28/01 11:25:31  5-MIN KMKG 281625Z 01005KT 10SM FEW032 24/14 A3001 550 55 1700 010/05 RMK AO2
14840KMKG MKG20010828113009608/28/01 11:30:31  5-MIN KMKG 281630Z 33007KT 10SM FEW032 24/14 A3001 550 53 1700 330/07 RMK AO2
14840KMKG MKG20010828113510308/28/01 11:35:31  5-MIN KMKG 281635Z 32008KT 10SM FEW044 SCT055 24/14 A3001 550 53 1700 330/08 RMK AO2
14840KMKG MKG20010828114010308/28/01 11:40:31  5-MIN KMKG 281640Z 28008KT 10SM SCT043 SCT050 23/16 A3001 550 63 1600 290/08 RMK AO2
14840KMKG MKG20010828114510308/28/01 11:45:31  5-MIN KMKG 281645Z 28009KT 10SM FEW043 SCT050 22/16 A3001 550 68 1600 280/09 RMK AO2
14840KMKG MKG20010828115012008/28/01 11:50:31  5-MIN KMKG 281650Z 25009KT 10SM FEW043 SCT050 23/16 A3001 550 65 1600 260/09 RMK AO2 SLP159 T02280161
14840KMKG MKG20010828115512008/28/01 11:55:31  5-MIN KMKG 281655Z 29009KT 10SM FEW043 SCT050 23/16 A3001 550 63 1700 290/09 RMK AO2 SLP160 T02330161
14840KMKG MKG20010828120010308/28/01 12:00:31  5-MIN KMKG 281700Z 29010KT 10SM FEW042 SCT050 23/17 A3001 540 66 1700 290/10 RMK AO2
14840KMKG MKG20010828120509608/28/01 12:05:31  5-MIN KMKG 281705Z 29009KT 10SM SCT044 23/16 A3001 540 63 1700 300/09 RMK AO2
14840KMKG MKG20010828121009608/28/01 12:10:31  5-MIN KMKG 281710Z 29009KT 10SM FEW044 24/17 A3001 540 63 1700 290/09 RMK AO2
14840KMKG MKG20010828121509608/28/01 12:15:31  5-MIN KMKG 281715Z 29010KT 10SM FEW041 23/16 A3001 550 63 1700 290/10 RMK AO2
14840KMKG MKG20010828122009608/28/01 12:20:31  5-MIN KMKG 281720Z 29009KT 10SM FEW041 23/17 A3001 550 66 1700 290/09 RMK AO2
14840KMKG MKG20010828122509608/28/01 12:25:31  5-MIN KMKG 281725Z 29011KT 10SM FEW044 23/17 A3001 540 66 1700 290/11 RMK AO2
14840KMKG MKG20010828123009308/28/01 12:30:31  5-MIN KMKG 281730Z 29010KT 10SM CLR 23/17 A3001 550 66 1700 290/10 RMK AO2
14840KMKG MKG20010828123509608/28/01 12:35:31  5-MIN KMKG 281735Z 29009KT 10SM FEW044 23/17 A3001 540 66 1700 290/09 RMK AO2
14840KMKG MKG20010828124009608/28/01 12:40:31  5-MIN KMKG 281740Z 27010KT 10SM SCT044 24/17 A3001 550 63 1700 270/10 RMK AO2
14840KMKG MKG20010828124509608/28/01 12:45:31  5-MIN KMKG 281745Z 29011KT 10SM SCT044 23/16 A3001 550 63 1700 290/11 RMK AO2
14840KMKG MKG20010828125013108/28/01 12:50:31  5-MIN KMKG 281750Z 30010KT 10SM SCT044 24/17 A3001 540 63 1700 300/10 RMK AO2 SLP160 T02390167 10239 20172 51013
14840KMKG MKG20010828125513108/28/01 12:55:31  5-MIN KMKG 281755Z 27011KT 10SM SCT060 23/16 A3001 540 63 1700 280/11 RMK AO2 SLP160 T02330161 10239 20172 51005
14840KMKG MKG20010828130009608/28/01 13:00:31  5-MIN KMKG 281800Z 29009KT 10SM SCT060 23/16 A3001 550 61 1700 290/09 RMK AO2
14840KMKG MKG20010828130509608/28/01 13:05:31  5-MIN KMKG 281805Z 30010KT 10SM SCT060 24/15 A3001 540 57 1700 310/10 RMK AO2
14840KMKG MKG20010828131009608/28/01 13:10:31  5-MIN KMKG 281810Z 30010KT 10SM SCT060 24/16 A3001 540 59 1700 300/10 RMK AO2
14840KMKG MKG20010828131509608/28/01 13:15:31  5-MIN KMKG 281815Z 29010KT 10SM SCT060 24/16 A3001 550 59 1700 290/10 RMK AO2
14840KMKG MKG20010828132009608/28/01 13:20:31  5-MIN KMKG 281820Z 30010KT 10SM SCT060 24/16 A3001 540 59 1700 300/10 RMK AO2
14840KMKG MKG20010828132509608/28/01 13:25:31  5-MIN KMKG 281825Z 30010KT 10SM SCT060 24/15 A3001 540 57 1700 300/10 RMK AO2
14840KMKG MKG20010828133009608/28/01 13:30:31  5-MIN KMKG 281830Z 30010KT 10SM BKN065 23/15 A3002 540 59 1700 300/10 RMK AO2
14840KMKG MKG20010828133509608/28/01 13:35:31  5-MIN KMKG 281835Z 29009KT 10SM SCT060 23/14 A3002 540 59 1600 290/09 RMK AO2
14840KMKG MKG20010828134009608/28/01 13:40:31  5-MIN KMKG 281840Z 29009KT 10SM SCT065 24/16 A3001 540 59 1700 290/09 RMK AO2
14840KMKG MKG20010828134509608/28/01 13:45:31  5-MIN KMKG 281845Z 29009KT 10SM SCT065 24/16 A3001 540 59 1700 300/09 RMK AO2
14840KMKG MKG20010828135011308/28/01 13:50:31  5-MIN KMKG 281850Z 29009KT 10SM BKN070 23/15 A3002 540 59 1700 300/09 RMK AO2 SLP161 T02330150
14840KMKG MKG20010828135511308/28/01 13:55:31  5-MIN KMKG 281855Z 29009KT 10SM BKN070 23/16 A3001 540 63 1600 290/09 RMK AO2 SLP161 T02280156
14840KMKG MKG20010828140009608/28/01 14:00:31  5-MIN KMKG 281900Z 29009KT 10SM BKN070 23/16 A3002 540 61 1700 290/09 RMK AO2
14840KMKG MKG20010828140509608/28/01 14:05:31  5-MIN KMKG 281905Z 28009KT 10SM BKN070 23/16 A3002 540 63 1600 290/09 RMK AO2
14840KMKG MKG20010828141009608/28/01 14:10:31  5-MIN KMKG 281910Z 27011KT 10SM BKN070 23/16 A3002 540 61 1700 280/11 RMK AO2
14840KMKG MKG20010828141509608/28/01 14:15:31  5-MIN KMKG 281915Z 29010KT 10SM BKN065 23/16 A3002 540 61 1700 290/10 RMK AO2
14840KMKG MKG20010828142009608/28/01 14:20:31  5-MIN KMKG 281920Z 29011KT 10SM BKN060 23/16 A3001 540 61 1700 290/11 RMK AO2
14840KMKG MKG20010828142509608/28/01 14:25:31  5-MIN KMKG 281925Z 28011KT 10SM BKN065 24/16 A3001 540 59 1700 280/11 RMK AO2
14840KMKG MKG20010828143009608/28/01 14:30:31  5-MIN KMKG 281930Z 30010KT 10SM SCT065 23/16 A3001 540 61 1700 300/10 RMK AO2
14840KMKG MKG20010828143509608/28/01 14:35:31  5-MIN KMKG 281935Z 29010KT 10SM SCT060 23/16 A3001 540 63 1600 300/10 RMK AO2
14840KMKG MKG20010828144009608/28/01 14:40:31  5-MIN KMKG 281940Z 29009KT 10SM SCT060 23/16 A3001 540 63 1700 290/09 RMK AO2
14840KMKG MKG20010828144509608/28/01 14:45:31  5-MIN KMKG 281945Z 30007KT 10SM SCT060 24/16 A3001 540 61 1700 300/07 RMK AO2
14840KMKG MKG20010828145011308/28/01 14:50:31  5-MIN KMKG 281950Z 31008KT 10SM SCT060 23/16 A3001 550 61 1700 310/08 RMK AO2 SLP159 T02330156
14840KMKG MKG20010828145511308/28/01 14:55:31  5-MIN KMKG 281955Z 30005KT 10SM SCT060 24/16 A3001 550 59 1800 300/05 RMK AO2 SLP159 T02440161
14840KMKG MKG20010828150009608/28/01 15:00:31  5-MIN KMKG 282000Z 27009KT 10SM SCT055 24/16 A3001 550 59 1800 270/09 RMK AO2
14840KMKG MKG20010828150511208/28/01 15:05:31  5-MIN KMKG 282005Z 28008KT 260V320 10SM FEW055 24/16 A3001 550 61 1700 280/08 260V320 RMK AO2
14840KMKG MKG20010828151009608/28/01 15:10:31  5-MIN KMKG 282010Z 28010KT 10SM FEW055 24/16 A3001 550 61 1700 280/10 RMK AO2
14840KMKG MKG20010828151511208/28/01 15:15:31  5-MIN KMKG 282015Z 28009KT 250V310 10SM FEW065 24/16 A3001 550 59 1800 290/09 250V310 RMK AO2
14840KMKG MKG20010828152009608/28/01 15:20:31  5-MIN KMKG 282020Z 26010KT 10SM FEW060 24/16 A3001 550 59 1800 270/10 RMK AO2
14840KMKG MKG20010828152509608/28/01 15:25:31  5-MIN KMKG 282025Z 27010KT 10SM FEW060 24/16 A3001 550 57 1800 280/10 RMK AO2
14840KMKG MKG20010828153009608/28/01 15:30:31  5-MIN KMKG 282030Z 28011KT 10SM FEW060 24/15 A3001 550 57 1700 280/11 RMK AO2
14840KMKG MKG20010828153509608/28/01 15:35:31  5-MIN KMKG 282035Z 29011KT 10SM FEW060 24/15 A3001 550 57 1700 290/11 RMK AO2
14840KMKG MKG20010828154009608/28/01 15:40:31  5-MIN KMKG 282040Z 29009KT 10SM FEW060 24/14 A3001 550 55 1700 290/09 RMK AO2
14840KMKG MKG20010828154509608/28/01 15:45:31  5-MIN KMKG 282045Z 28009KT 10SM FEW060 24/15 A3001 550 55 1800 280/09 RMK AO2
14840KMKG MKG20010828155011908/28/01 15:50:31  5-MIN KMKG 282050Z 30009KT 10SM FEW060 24/15 A3001 550 55 1800 300/09 RMK AO2 SLP158 T02440150 51005
14840KMKG MKG20010828155511608/28/01 15:55:31  5-MIN KMKG 282055Z 30009KT 10SM CLR 24/15 A3001 550 57 1700 300/09 RMK AO2 SLP159 T02390150 58002
14840KMKG MKG20010828160009308/28/01 16:00:31  5-MIN KMKG 282100Z 28011KT 10SM CLR 24/15 A3001 550 57 1700 290/11 RMK AO2
14840KMKG MKG20010828160509308/28/01 16:05:31  5-MIN KMKG 282105Z 28011KT 10SM CLR 24/15 A3001 550 57 1700 290/11 RMK AO2
14840KMKG MKG20010828161009308/28/01 16:10:31  5-MIN KMKG 282110Z 29011KT 10SM CLR 24/15 A3001 550 57 1700 290/11 RMK AO2
14840KMKG MKG20010828161509308/28/01 16:15:31  5-MIN KMKG 282115Z 30011KT 10SM CLR 23/15 A3001 550 59 1700 300/11 RMK AO2
14840KMKG MKG20010828162009608/28/01 16:20:31  5-MIN KMKG 282120Z 30010KT 10SM FEW060 23/15 A3000 550 59 1700 310/10 RMK AO2
14840KMKG MKG20010828162509608/28/01 16:25:31  5-MIN KMKG 282125Z 29012KT 10SM FEW060 23/14 A3001 550 57 1700 300/12 RMK AO2
14840KMKG MKG20010828163009608/28/01 16:30:31  5-MIN KMKG 282130Z 30011KT 10SM FEW060 23/14 A3000 550 57 1700 300/11 RMK AO2
14840KMKG MKG20010828163509608/28/01 16:35:31  5-MIN KMKG 282135Z 30011KT 10SM FEW060 23/14 A3000 550 55 1700 300/11 RMK AO2
14840KMKG MKG20010828164009608/28/01 16:40:31  5-MIN KMKG 282140Z 30012KT 10SM FEW060 23/14 A3001 550 57 1600 300/12 RMK AO2
14840KMKG MKG20010828164509308/28/01 16:45:31  5-MIN KMKG 282145Z 30012KT 10SM CLR 23/14 A3001 550 57 1600 310/12 RMK AO2
14840KMKG MKG20010828165011008/28/01 16:50:31  5-MIN KMKG 282150Z 30011KT 10SM CLR 23/14 A3001 550 57 1600 310/11 RMK AO2 SLP159 T02280139
14840KMKG MKG20010828165511008/28/01 16:55:31  5-MIN KMKG 282155Z 30011KT 10SM CLR 23/14 A3001 550 57 1600 300/11 RMK AO2 SLP159 T02280139
14840KMKG MKG20010828170009308/28/01 17:00:31  5-MIN KMKG 282200Z 31008KT 10SM CLR 23/14 A3001 550 59 1600 320/08 RMK AO2
14840KMKG MKG20010828170509308/28/01 17:05:31  5-MIN KMKG 282205Z 30009KT 10SM CLR 23/14 A3001 550 59 1600 310/09 RMK AO2
14840KMKG MKG20010828171009308/28/01 17:10:31  5-MIN KMKG 282210Z 32009KT 10SM CLR 23/14 A3001 550 59 1600 320/09 RMK AO2
14840KMKG MKG20010828171509308/28/01 17:15:31  5-MIN KMKG 282215Z 31008KT 10SM CLR 23/14 A3001 550 59 1600 310/08 RMK AO2
14840KMKG MKG20010828172009308/28/01 17:20:31  5-MIN KMKG 282220Z 31007KT 10SM CLR 23/14 A3001 540 59 1600 310/07 RMK AO2
14840KMKG MKG20010828172509308/28/01 17:25:31  5-MIN KMKG 282225Z 30008KT 10SM CLR 23/14 A3001 540 59 1600 310/08 RMK AO2
14840KMKG MKG20010828173010908/28/01 17:30:31  5-MIN KMKG 282230Z 33009KT 290V360 10SM CLR 23/14 A3001 540 59 1600 330/09 290V360 RMK AO2
14840KMKG MKG20010828173509308/28/01 17:35:31  5-MIN KMKG 282235Z 31011KT 10SM CLR 23/14 A3002 540 57 1600 320/11 RMK AO2
14840KMKG MKG20010828174009308/28/01 17:40:31  5-MIN KMKG 282240Z 32008KT 10SM CLR 23/14 A3001 540 59 1600 330/08 RMK AO2
14840KMKG MKG20010828174509308/28/01 17:45:31  5-MIN KMKG 282245Z 32010KT 10SM CLR 23/14 A3002 540 57 1600 320/10 RMK AO2
14840KMKG MKG20010828175011008/28/01 17:50:31  5-MIN KMKG 282250Z 32008KT 10SM CLR 23/14 A3002 540 59 1600 330/08 RMK AO2 SLP163 T02280144
14840KMKG MKG20010828175511008/28/01 17:55:31  5-MIN KMKG 282255Z 33010KT 10SM CLR 23/14 A3002 540 59 1600 330/10 RMK AO2 SLP164 T02280144
14840KMKG MKG20010828180009308/28/01 18:00:31  5-MIN KMKG 282300Z 32008KT 10SM CLR 23/14 A3002 540 57 1600 330/08 RMK AO2
14840KMKG MKG20010828180509308/28/01 18:05:31  5-MIN KMKG 282305Z 33008KT 10SM CLR 22/14 A3002 540 61 1500 330/08 RMK AO2
14840KMKG MKG20010828181009308/28/01 18:10:31  5-MIN KMKG 282310Z 33007KT 10SM CLR 22/14 A3002 540 61 1500 330/07 RMK AO2
14840KMKG MKG20010828181509308/28/01 18:15:31  5-MIN KMKG 282315Z 33008KT 10SM CLR 22/15 A3002 540 63 1500 330/08 RMK AO2
14840KMKG MKG20010828182009308/28/01 18:20:31  5-MIN KMKG 282320Z 32006KT 10SM CLR 22/14 A3002 540 61 1500 320/06 RMK AO2
14840KMKG MKG20010828182509308/28/01 18:25:31  5-MIN KMKG 282325Z 32008KT 10SM CLR 22/14 A3002 540 61 1500 330/08 RMK AO2
14840KMKG MKG20010828183009308/28/01 18:30:31  5-MIN KMKG 282330Z 31008KT 10SM CLR 22/14 A3002 530 61 1500 310/08 RMK AO2
14840KMKG MKG20010828183509308/28/01 18:35:31  5-MIN KMKG 282335Z 31006KT 10SM CLR 22/14 A3002 530 63 1500 310/06 RMK AO2
14840KMKG MKG20010828184009308/28/01 18:40:31  5-MIN KMKG 282340Z 31007KT 10SM CLR 22/14 A3003 530 63 1500 310/07 RMK AO2
14840KMKG MKG20010828184509308/28/01 18:45:31  5-MIN KMKG 282345Z 32006KT 10SM CLR 22/14 A3003 530 63 1500 330/06 RMK AO2
14840KMKG MKG20010828185012808/28/01 18:50:31  5-MIN KMKG 282350Z 33007KT 10SM CLR 22/14 A3003 530 63 1500 340/07 RMK AO2 SLP167 T02170144 10250 20217 58002
14840KMKG MKG20010828185512808/28/01 18:55:31  5-MIN KMKG 282355Z 33006KT 10SM CLR 22/14 A3003 530 61 1500 330/06 RMK AO2 SLP167 T02170139 10250 20217 53007
14840KMKG MKG20010828190009308/28/01 19:00:31  5-MIN KMKG 290000Z 33007KT 10SM CLR 21/14 A3003 530 65 1400 340/07 RMK AO2
14840KMKG MKG20010828190509308/28/01 19:05:31  5-MIN KMKG 290005Z 33006KT 10SM CLR 21/14 A3003 530 65 1400 330/06 RMK AO2
14840KMKG MKG20010828191009308/28/01 19:10:31  5-MIN KMKG 290010Z 33006KT 10SM CLR 21/14 A3003 520 67 1300 340/06 RMK AO2
14840KMKG MKG20010828191509308/28/01 19:15:31  5-MIN KMKG 290015Z 33005KT 10SM CLR 21/14 A3003 520 67 1300 340/05 RMK AO2
14840KMKG MKG20010828192009308/28/01 19:20:31  5-MIN KMKG 290020Z 32005KT 10SM CLR 20/14 A3004 520 70 1300 330/05 RMK AO2
14840KMKG MKG20010828192509308/28/01 19:25:31  5-MIN KMKG 290025Z 32005KT 10SM CLR 20/14 A3004 520 70 1300 320/05 RMK AO2
14840KMKG MKG20010828193009308/28/01 19:30:31  5-MIN KMKG 290030Z 32006KT 10SM CLR 20/14 A3004 520 70 1300 320/06 RMK AO2
14840KMKG MKG20010828193509308/28/01 19:35:31  5-MIN KMKG 290035Z 30004KT 10SM CLR 20/14 A3004 520 70 1300 300/04 RMK AO2
14840KMKG MKG20010828194009308/28/01 19:40:31  5-MIN KMKG 290040Z 30005KT 10SM CLR 19/14 A3004 520 72 1200 300/05 RMK AO2
14840KMKG MKG20010828194509308/28/01 19:45:31  5-MIN KMKG 290045Z 30005KT 10SM CLR 19/14 A3004 520 72 1200 310/05 RMK AO2
14840KMKG MKG20010828195011008/28/01 19:50:31  5-MIN KMKG 290050Z 31004KT 10SM CLR 19/15 A3004 520 78 1100 310/04 RMK AO2 SLP172 T01890150
14840KMKG MKG20010828195511008/28/01 19:55:31  5-MIN KMKG 290055Z 33003KT 10SM CLR 19/15 A3005 510 75 1200 340/03 RMK AO2 SLP172 T01940150
14840KMKG MKG20010828200009308/28/01 20:00:31  5-MIN KMKG 290100Z 33005KT 10SM CLR 19/15 A3005 510 75 1200 340/05 RMK AO2
14840KMKG MKG20010828200509308/28/01 20:05:31  5-MIN KMKG 290105Z 34005KT 10SM CLR 19/15 A3005 510 78 1100 340/05 RMK AO2
14840KMKG MKG20010828201009308/28/01 20:10:31  5-MIN KMKG 290110Z 34004KT 10SM CLR 19/15 A3005 510 78 1100 340/04 RMK AO2
14840KMKG MKG20010828201509308/28/01 20:15:31  5-MIN KMKG 290115Z 35004KT 10SM CLR 18/15 A3005 510 81 1100 350/04 RMK AO2
14840KMKG MKG20010828202009308/28/01 20:20:31  5-MIN KMKG 290120Z 34005KT 10SM CLR 18/15 A3005 510 81 1100 350/05 RMK AO2
14840KMKG MKG20010828202509308/28/01 20:25:31  5-MIN KMKG 290125Z 34004KT 10SM CLR 18/15 A3005 510 81 1100 350/04 RMK AO2
14840KMKG MKG20010828203009308/28/01 20:30:31  5-MIN KMKG 290130Z 34003KT 10SM CLR 18/15 A3005 510 81 1100 350/03 RMK AO2
14840KMKG MKG20010828203509308/28/01 20:35:31  5-MIN KMKG 290135Z 34003KT 10SM CLR 18/15 A3005 510 81 1100 350/03 RMK AO2
14840KMKG MKG20010828204009308/28/01 20:40:31  5-MIN KMKG 290140Z 00000KT 10SM CLR 18/15 A3005 510 81 1100 000/00 RMK AO2
14840KMKG MKG20010828204509308/28/01 20:45:31  5-MIN KMKG 290145Z 00000KT 10SM CLR 18/15 A3006 510 81 1100 000/00 RMK AO2
14840KMKG MKG20010828205011008/28/01 20:50:31  5-MIN KMKG 290150Z 34003KT 10SM CLR 18/16 A3006 500 84 1100 340/03 RMK AO2 SLP176 T01830156
14840KMKG MKG20010828205511008/28/01 20:55:31  5-MIN KMKG 290155Z 33003KT 10SM CLR 19/16 A3006 500 81 1100 340/03 RMK AO2 SLP176 T01890156
14840KMKG MKG20010828210009308/28/01 21:00:31  5-MIN KMKG 290200Z 34004KT 10SM CLR 19/16 A3006 500 81 1100 350/04 RMK AO2
14840KMKG MKG20010828210509308/28/01 21:05:31  5-MIN KMKG 290205Z 36003KT 10SM CLR 18/15 A3006 500 81 1000 360/03 RMK AO2
14840KMKG MKG20010828211009308/28/01 21:10:31  5-MIN KMKG 290210Z 00000KT 10SM CLR 18/15 A3006 500 83 1000 000/00 RMK AO2
14840KMKG MKG20010828211509308/28/01 21:15:31  5-MIN KMKG 290215Z 00000KT 10SM CLR 18/15 A3006 500 83 1000 000/00 RMK AO2
14840KMKG MKG20010828212009308/28/01 21:20:31  5-MIN KMKG 290220Z 00000KT 10SM CLR 18/16 A3006 500 84 1000 000/00 RMK AO2
14840KMKG MKG20010828212509308/28/01 21:25:31  5-MIN KMKG 290225Z 00000KT 10SM CLR 18/15 A3007 500 83 1000 000/00 RMK AO2
14840KMKG MKG20010828213009208/28/01 21:30:31  5-MIN KMKG 290230Z 00000KT 10SM CLR 16/14 A3007 500 90 800 000/00 RMK AO2
14840KMKG MKG20010828213509208/28/01 21:35:31  5-MIN KMKG 290235Z 00000KT 10SM CLR 17/15 A3007 490 90 800 000/00 RMK AO2
14840KMKG MKG20010828214009208/28/01 21:40:31  5-MIN KMKG 290240Z 00000KT 10SM CLR 16/14 A3007 490 86 800 000/00 RMK AO2
14840KMKG MKG20010828214509208/28/01 21:45:31  5-MIN KMKG 290245Z 00000KT 10SM CLR 16/14 A3007 490 86 800 000/00 RMK AO2
14840KMKG MKG20010828215011508/28/01 21:50:31  5-MIN KMKG 290250Z 00000KT 10SM CLR 17/14 A3007 490 86 800 000/00 RMK AO2 SLP180 T01670144 53007
14840KMKG MKG20010828215511508/28/01 21:55:31  5-MIN KMKG 290255Z 00000KT 10SM CLR 17/14 A3007 490 86 800 000/00 RMK AO2 SLP180 T01670144 51013
14840KMKG MKG20010828220009208/28/01 22:00:31  5-MIN KMKG 290300Z 00000KT 10SM CLR 17/14 A3007 490 86 800 000/00 RMK AO2
14840KMKG MKG20010828220509208/28/01 22:05:31  5-MIN KMKG 290305Z 00000KT 10SM CLR 16/14 A3007 490 90 800 000/00 RMK AO2
14840KMKG MKG20010828221009208/28/01 22:10:31  5-MIN KMKG 290310Z 00000KT 10SM CLR 16/15 A3007 490 93 800 000/00 RMK AO2
14840KMKG MKG20010828221509208/28/01 22:15:31  5-MIN KMKG 290315Z 00000KT 10SM CLR 17/15 A3007 490 90 800 000/00 RMK AO2
14840KMKG MKG20010828222009208/28/01 22:20:31  5-MIN KMKG 290320Z 00000KT 10SM CLR 16/15 A3007 490 93 800 000/00 RMK AO2
14840KMKG MKG20010828222509208/28/01 22:25:31  5-MIN KMKG 290325Z 00000KT 10SM CLR 16/15 A3007 490 93 800 000/00 RMK AO2
14840KMKG MKG20010828223009208/28/01 22:30:31  5-MIN KMKG 290330Z 00000KT 10SM CLR 17/15 A3007 500 90 800 000/00 RMK AO2
14840KMKG MKG20010828223509208/28/01 22:35:31  5-MIN KMKG 290335Z 00000KT 10SM CLR 17/15 A3007 490 90 800 000/00 RMK AO2
14840KMKG MKG20010828224009208/28/01 22:40:31  5-MIN KMKG 290340Z 00000KT 10SM CLR 17/14 A3007 500 86 800 000/00 RMK AO2
14840KMKG MKG20010828224509208/28/01 22:45:31  5-MIN KMKG 290345Z 00000KT 10SM CLR 17/14 A3007 500 86 800 000/00 RMK AO2
14840KMKG MKG20010828225010908/28/01 22:50:31  5-MIN KMKG 290350Z 00000KT 10SM CLR 17/14 A3007 490 86 800 000/00 RMK AO2 SLP179 T01670144
14840KMKG MKG20010828225510908/28/01 22:55:31  5-MIN KMKG 290355Z 00000KT 10SM CLR 16/14 A3007 490 90 700 000/00 RMK AO2 SLP179 T01560139
14840KMKG MKG20010828230009208/28/01 23:00:31  5-MIN KMKG 290400Z 00000KT 10SM CLR 16/14 A3007 490 90 700 000/00 RMK AO2
14840KMKG MKG20010828230509208/28/01 23:05:31  5-MIN KMKG 290405Z 00000KT 10SM CLR 16/14 A3007 490 90 700 000/00 RMK AO2
14840KMKG MKG20010828231009208/28/01 23:10:31  5-MIN KMKG 290410Z 00000KT 10SM CLR 15/14 A3007 490 93 600 000/00 RMK AO2
14840KMKG MKG20010828231509208/28/01 23:15:31  5-MIN KMKG 290415Z 00000KT 10SM CLR 15/14 A3007 490 93 600 000/00 RMK AO2
14840KMKG MKG20010828232009208/28/01 23:20:31  5-MIN KMKG 290420Z 00000KT 10SM CLR 15/14 A3007 490 93 600 000/00 RMK AO2
14840KMKG MKG20010828232509208/28/01 23:25:31  5-MIN KMKG 290425Z 00000KT 10SM CLR 15/14 A3007 490 93 600 000/00 RMK AO2
14840KMKG MKG20010828233009208/28/01 23:30:31  5-MIN KMKG 290430Z 00000KT 10SM CLR 15/14 A3007 490 93 600 000/00 RMK AO2
14840KMKG MKG20010828233509208/28/01 23:35:31  5-MIN KMKG 290435Z 00000KT 10SM CLR 15/14 A3007 490 93 600 000/00 RMK AO2
14840KMKG MKG20010828234009208/28/01 23:40:31  5-MIN KMKG 290440Z 00000KT 10SM CLR 16/14 A3007 490 90 700 000/00 RMK AO2
14840KMKG MKG20010828234509208/28/01 23:45:31  5-MIN KMKG 290445Z 00000KT 10SM CLR 16/14 A3007 490 93 700 000/00 RMK AO2
14840KMKG MKG20010828235011908/28/01 23:50:31  5-MIN KMKG 290450Z 00000KT 10SM CLR 16/14 A3007 490 93 700 000/00 RMK AO2 SLP182 T01560144 402500150
14840KMKG MKG20010828235511908/28/01 23:55:31  5-MIN KMKG 290455Z 00000KT 10SM CLR 15/13 A3007 490 90 600 000/00 RMK AO2 SLP181 T01500133 402500150
14840KMKG MKG20010829000009208/29/01 00:00:31  5-MIN KMKG 290500Z 00000KT 10SM CLR 14/13 A3007 490 93 600 000/00 RMK AO2
14840KMKG MKG20010829000509208/29/01 00:05:31  5-MIN KMKG 290505Z 00000KT 10SM CLR 14/13 A3007 490 96 500 000/00 RMK AO2
14840KMKG MKG20010829001009208/29/01 00:10:31  5-MIN KMKG 290510Z 00000KT 10SM CLR 14/13 A3007 490 96 500 000/00 RMK AO2
14840KMKG MKG20010829001509208/29/01 00:15:31  5-MIN KMKG 290515Z 00000KT 10SM CLR 14/13 A3007 490 96 500 000/00 RMK AO2
14840KMKG MKG20010829002009208/29/01 00:20:31  5-MIN KMKG 290520Z 00000KT 10SM CLR 14/13 A3007 490 96 500 000/00 RMK AO2
14840KMKG MKG20010829002509208/29/01 00:25:31  5-MIN KMKG 290525Z 00000KT 10SM CLR 14/13 A3007 490 93 600 000/00 RMK AO2
14840KMKG MKG20010829003009208/29/01 00:30:31  5-MIN KMKG 290530Z 00000KT 10SM CLR 15/13 A3007 490 90 600 000/00 RMK AO2
14840KMKG MKG20010829003509208/29/01 00:35:31  5-MIN KMKG 290535Z 00000KT 10SM CLR 14/13 A3007 490 93 600 000/00 RMK AO2
14840KMKG MKG20010829004009208/29/01 00:40:31  5-MIN KMKG 290540Z 00000KT 10SM CLR 14/13 A3007 490 93 600 000/00 RMK AO2
14840KMKG MKG20010829004509208/29/01 00:45:31  5-MIN KMKG 290545Z 00000KT 10SM CLR 14/13 A3007 490 93 500 000/00 RMK AO2
14840KMKG MKG20010829005012708/29/01 00:50:31  5-MIN KMKG 290550Z 00000KT 10SM CLR 14/13 A3007 490 93 500 000/00 RMK AO2 SLP182 T01390128 10211 20133 51013
14840KMKG MKG20010829005512708/29/01 00:55:31  5-MIN KMKG 290555Z 00000KT 10SM CLR 13/12 A3007 490 93 400 000/00 RMK AO2 SLP182 T01330122 10211 20133 53001
14840KMKG MKG20010829010009208/29/01 01:00:31  5-MIN KMKG 290600Z 00000KT 10SM CLR 13/12 A3007 490 93 400 000/00 RMK AO2
14840KMKG MKG20010829010509208/29/01 01:05:31  5-MIN KMKG 290605Z 00000KT 10SM CLR 13/12 A3007 490 93 500 000/00 RMK AO2
14840KMKG MKG20010829011009208/29/01 01:10:31  5-MIN KMKG 290610Z 00000KT 10SM CLR 13/12 A3007 490 93 500 000/00 RMK AO2
14840KMKG MKG20010829011509208/29/01 01:15:31  5-MIN KMKG 290615Z 00000KT 10SM CLR 13/12 A3007 490 89 500 000/00 RMK AO2
14840KMKG MKG20010829012009208/29/01 01:20:31  5-MIN KMKG 290620Z 13003KT 10SM CLR 13/12 A3007 490 93 500 140/03 RMK AO2
14840KMKG MKG20010829012509208/29/01 01:25:31  5-MIN KMKG 290625Z 00000KT 10SM CLR 13/13 A3007 500 96 500 000/00 RMK AO2
14840KMKG MKG20010829013009208/29/01 01:30:31  5-MIN KMKG 290630Z 12003KT 10SM CLR 13/13 A3007 490 96 500 120/03 RMK AO2
14840KMKG MKG20010829013509208/29/01 01:35:31  5-MIN KMKG 290635Z 11003KT 10SM CLR 13/12 A3007 490 96 400 120/03 RMK AO2
14840KMKG MKG20010829014009208/29/01 01:40:31  5-MIN KMKG 290640Z 00000KT 10SM CLR 13/12 A3007 490 93 500 000/00 RMK AO2
14840KMKG MKG20010829014509208/29/01 01:45:31  5-MIN KMKG 290645Z 15003KT 10SM CLR 13/12 A3007 500 93 500 150/03 RMK AO2
14840KMKG MKG20010829015010908/29/01 01:50:31  5-MIN KMKG 290650Z 13004KT 10SM CLR 13/12 A3007 490 93 500 130/04 RMK AO2 SLP180 T01330122
14840KMKG MKG20010829015510908/29/01 01:55:31  5-MIN KMKG 290655Z 00000KT 10SM CLR 13/12 A3007 490 93 500 000/00 RMK AO2 SLP181 T01330122
14840KMKG MKG20010829020009208/29/01 02:00:31  5-MIN KMKG 290700Z 00000KT 10SM CLR 13/12 A3007 490 93 500 000/00 RMK AO2
14840KMKG MKG20010829020509208/29/01 02:05:31  5-MIN KMKG 290705Z 00000KT 10SM CLR 13/12 A3007 490 93 500 000/00 RMK AO2
14840KMKG MKG20010829021009208/29/01 02:10:31  5-MIN KMKG 290710Z 00000KT 10SM CLR 13/12 A3007 490 93 500 000/00 RMK AO2
14840KMKG MKG20010829021509208/29/01 02:15:31  5-MIN KMKG 290715Z 00000KT 10SM CLR 14/12 A3007 490 90 500 000/00 RMK AO2
14840KMKG MKG20010829022009208/29/01 02:20:31  5-MIN KMKG 290720Z 00000KT 10SM CLR 14/12 A3007 500 90 500 000/00 RMK AO2
14840KMKG MKG20010829022509208/29/01 02:25:31  5-MIN KMKG 290725Z 00000KT 10SM CLR 14/12 A3006 500 90 500 000/00 RMK AO2
14840KMKG MKG20010829023009208/29/01 02:30:31  5-MIN KMKG 290730Z 00000KT 10SM CLR 14/12 A3006 500 90 500 000/00 RMK AO2
14840KMKG MKG20010829023509208/29/01 02:35:31  5-MIN KMKG 290735Z 00000KT 10SM CLR 14/12 A3006 500 90 500 000/00 RMK AO2
14840KMKG MKG20010829024009208/29/01 02:40:31  5-MIN KMKG 290740Z 00000KT 10SM CLR 14/12 A3006 500 86 500 000/00 RMK AO2
14840KMKG MKG20010829024509208/29/01 02:45:31  5-MIN KMKG 290745Z 00000KT 10SM CLR 13/12 A3007 500 89 500 000/00 RMK AO2
14840KMKG MKG20010829025010908/29/01 02:50:31  5-MIN KMKG 290750Z 00000KT 10SM CLR 13/12 A3006 500 89 500 000/00 RMK AO2 SLP179 T01330117
14840KMKG MKG20010829025510908/29/01 02:55:31  5-MIN KMKG 290755Z 00000KT 10SM CLR 13/12 A3007 500 89 500 000/00 RMK AO2 SLP180 T01330117
14840KMKG MKG20010829030009208/29/01 03:00:31  5-MIN KMKG 290800Z 00000KT 10SM CLR 13/12 A3007 500 89 500 000/00 RMK AO2
14840KMKG MKG20010829030509208/29/01 03:05:31  5-MIN KMKG 290805Z 13003KT 10SM CLR 12/12 A3007 500 96 300 130/03 RMK AO2
14840KMKG MKG20010829031009208/29/01 03:10:31  5-MIN KMKG 290810Z 13003KT 10SM CLR 12/11 A3006 500 93 300 140/03 RMK AO2
14840KMKG MKG20010829031509208/29/01 03:15:31  5-MIN KMKG 290815Z 12004KT 10SM CLR 12/11 A3006 500 93 300 130/04 RMK AO2
14840KMKG MKG20010829032009208/29/01 03:20:31  5-MIN KMKG 290820Z 12004KT 10SM CLR 12/11 A3006 500 93 300 130/04 RMK AO2
14840KMKG MKG20010829032509208/29/01 03:25:31  5-MIN KMKG 290825Z 13004KT 10SM CLR 12/11 A3006 500 93 300 130/04 RMK AO2
14840KMKG MKG20010829033009208/29/01 03:30:31  5-MIN KMKG 290830Z 13004KT 10SM CLR 12/11 A3006 500 96 300 130/04 RMK AO2
14840KMKG MKG20010829033509208/29/01 03:35:31  5-MIN KMKG 290835Z 13004KT 10SM CLR 12/11 A3006 500 93 300 130/04 RMK AO2
14840KMKG MKG20010829034009208/29/01 03:40:31  5-MIN KMKG 290840Z 12003KT 10SM CLR 12/11 A3006 500 93 300 120/03 RMK AO2
14840KMKG MKG20010829034509208/29/01 03:45:31  5-MIN KMKG 290845Z 11003KT 10SM CLR 12/11 A3006 500 93 300 110/03 RMK AO2
14840KMKG MKG20010829035011508/29/01 03:50:31  5-MIN KMKG 290850Z 10003KT 10SM CLR 12/11 A3006 500 93 300 110/03 RMK AO2 SLP179 T01220111 53001
14840KMKG MKG20010829035511508/29/01 03:55:31  5-MIN KMKG 290855Z 00000KT 10SM CLR 12/11 A3006 500 89 300 000/00 RMK AO2 SLP179 T01220106 56003
14840KMKG MKG20010829040009208/29/01 04:00:31  5-MIN KMKG 290900Z 00000KT 10SM CLR 12/11 A3006 500 93 300 000/00 RMK AO2
14840KMKG MKG20010829040509208/29/01 04:05:31  5-MIN KMKG 290905Z 00000KT 10SM CLR 12/11 A3006 500 89 300 000/00 RMK AO2
14840KMKG MKG20010829041009208/29/01 04:10:31  5-MIN KMKG 290910Z 00000KT 10SM CLR 13/11 A3006 500 86 400 000/00 RMK AO2
14840KMKG MKG20010829041509208/29/01 04:15:31  5-MIN KMKG 290915Z 00000KT 10SM CLR 13/11 A3006 500 86 400 000/00 RMK AO2
14840KMKG MKG20010829042009208/29/01 04:20:31  5-MIN KMKG 290920Z 00000KT 10SM CLR 13/11 A3006 500 86 400 000/00 RMK AO2
14840KMKG MKG20010829042509208/29/01 04:25:31  5-MIN KMKG 290925Z 00000KT 10SM CLR 13/11 A3007 500 86 400 000/00 RMK AO2
14840KMKG MKG20010829043009208/29/01 04:30:31  5-MIN KMKG 290930Z 00000KT 10SM CLR 13/11 A3007 500 86 400 000/00 RMK AO2
14840KMKG MKG20010829043509208/29/01 04:35:31  5-MIN KMKG 290935Z 00000KT 10SM CLR 13/11 A3007 500 86 400 000/00 RMK AO2
14840KMKG MKG20010829044009208/29/01 04:40:31  5-MIN KMKG 290940Z 00000KT 10SM CLR 13/11 A3007 490 86 400 000/00 RMK AO2
14840KMKG MKG20010829044509208/29/01 04:45:31  5-MIN KMKG 290945Z 00000KT 10SM CLR 13/11 A3007 490 86 400 000/00 RMK AO2
14840KMKG MKG20010829045010908/29/01 04:50:31  5-MIN KMKG 290950Z 00000KT 10SM CLR 13/11 A3007 490 86 400 000/00 RMK AO2 SLP181 T01280106
14840KMKG MKG20010829045510908/29/01 04:55:31  5-MIN KMKG 290955Z 00000KT 10SM CLR 12/11 A3007 490 89 300 000/00 RMK AO2 SLP181 T01220106
14840KMKG MKG20010829050009208/29/01 05:00:31  5-MIN KMKG 291000Z 00000KT 10SM CLR 12/11 A3007 490 89 300 000/00 RMK AO2
14840KMKG MKG20010829050509208/29/01 05:05:31  5-MIN KMKG 291005Z 00000KT 10SM CLR 12/11 A3007 490 89 300 000/00 RMK AO2
14840KMKG MKG20010829051009208/29/01 05:10:31  5-MIN KMKG 291010Z 00000KT 10SM CLR 12/11 A3007 490 89 300 000/00 RMK AO2
14840KMKG MKG20010829051509208/29/01 05:15:31  5-MIN KMKG 291015Z 09003KT 10SM CLR 12/11 A3007 500 93 300 100/03 RMK AO2
14840KMKG MKG20010829052009208/29/01 05:20:31  5-MIN KMKG 291020Z 10003KT 10SM CLR 12/11 A3007 500 93 300 110/03 RMK AO2
14840KMKG MKG20010829052509208/29/01 05:25:31  5-MIN KMKG 291025Z 11003KT 10SM CLR 11/10 A3007 500 93 200 110/03 RMK AO2
14840KMKG MKG20010829053009208/29/01 05:30:31  5-MIN KMKG 291030Z 00000KT 10SM CLR 12/10 A3007 500 89 300 000/00 RMK AO2
14840KMKG MKG20010829053509208/29/01 05:35:31  5-MIN KMKG 291035Z 12003KT 10SM CLR 12/10 A3007 490 89 300 130/03 RMK AO2
14840KMKG MKG20010829054009208/29/01 05:40:31  5-MIN KMKG 291040Z 12003KT 10SM CLR 11/10 A3007 490 93 200 130/03 RMK AO2
14840KMKG MKG20010829054509208/29/01 05:45:31  5-MIN KMKG 291045Z 12004KT 10SM CLR 11/10 A3007 490 93 200 120/04 RMK AO2
14840KMKG MKG20010829055010908/29/01 05:50:31  5-MIN KMKG 291050Z 12004KT 10SM CLR 12/10 A3007 490 89 300 120/04 RMK AO2 SLP181 T01170100
14840KMKG MKG20010829055510908/29/01 05:55:31  5-MIN KMKG 291055Z 12004KT 10SM CLR 11/10 A3007 490 93 200 130/04 RMK AO2 SLP181 T01110100
14840KMKG MKG20010829060009208/29/01 06:00:31  5-MIN KMKG 291100Z 12004KT 10SM CLR 11/10 A3007 490 93 200 130/04 RMK AO2
14840KMKG MKG20010829060509208/29/01 06:05:31  5-MIN KMKG 291105Z 13004KT 10SM CLR 11/10 A3008 490 93 200 130/04 RMK AO2
14840KMKG MKG20010829061009208/29/01 06:10:31  5-MIN KMKG 291110Z 13005KT 10SM CLR 11/10 A3008 490 93 200 130/05 RMK AO2
14840KMKG MKG20010829061509208/29/01 06:15:31  5-MIN KMKG 291115Z 12005KT 10SM CLR 11/10 A3008 480 93 200 130/05 RMK AO2
14840KMKG MKG20010829062009208/29/01 06:20:31  5-MIN KMKG 291120Z 12004KT 10SM CLR 11/10 A3008 480 93 200 120/04 RMK AO2
14840KMKG MKG20010829062509208/29/01 06:25:31  5-MIN KMKG 291125Z 12003KT 10SM CLR 12/11 A3008 480 93 200 120/03 RMK AO2
14840KMKG MKG20010829063009208/29/01 06:30:31  5-MIN KMKG 291130Z 12003KT 10SM CLR 11/10 A3008 480 93 200 130/03 RMK AO2
14840KMKG MKG20010829063509208/29/01 06:35:31  5-MIN KMKG 291135Z 13003KT 10SM CLR 11/10 A3009 480 93 200 130/03 RMK AO2
14840KMKG MKG20010829064009208/29/01 06:40:31  5-MIN KMKG 291140Z 00000KT 10SM CLR 12/11 A3009 480 93 200 000/00 RMK AO2
14840KMKG MKG20010829064509208/29/01 06:45:31  5-MIN KMKG 291145Z 00000KT 10SM CLR 12/11 A3009 480 93 200 000/00 RMK AO2
14840KMKG MKG20010829065012708/29/01 06:50:31  5-MIN KMKG 291150Z 00000KT 10SM CLR 12/11 A3009 470 93 300 000/00 RMK AO2 SLP188 T01220111 10139 20111 56003
14840KMKG MKG20010829065512708/29/01 06:55:31  5-MIN KMKG 291155Z 14004KT 10SM CLR 13/11 A3009 470 89 400 140/04 RMK AO2 SLP189 T01280111 10139 20111 53010
14840KMKG MKG20010829070009208/29/01 07:00:31  5-MIN KMKG 291200Z 13004KT 10SM CLR 13/12 A3009 470 93 400 130/04 RMK AO2
14840KMKG MKG20010829070509208/29/01 07:05:31  5-MIN KMKG 291205Z 13004KT 10SM CLR 13/12 A3010 470 89 400 130/04 RMK AO2
14840KMKG MKG20010829071009208/29/01 07:10:31  5-MIN KMKG 291210Z 13004KT 10SM CLR 13/12 A3010 470 89 400 130/04 RMK AO2
14840KMKG MKG20010829071509208/29/01 07:15:31  5-MIN KMKG 291215Z 13005KT 10SM CLR 14/12 A3010 470 86 500 130/05 RMK AO2
14840KMKG MKG20010829072009208/29/01 07:20:31  5-MIN KMKG 291220Z 12005KT 10SM CLR 14/12 A3010 470 90 500 130/05 RMK AO2
14840KMKG MKG20010829072509208/29/01 07:25:31  5-MIN KMKG 291225Z 13005KT 10SM CLR 14/12 A3010 470 86 500 130/05 RMK AO2
14840KMKG MKG20010829073009208/29/01 07:30:31  5-MIN KMKG 291230Z 13005KT 10SM CLR 14/13 A3010 460 90 500 130/05 RMK AO2
14840KMKG MKG20010829073509208/29/01 07:35:31  5-MIN KMKG 291235Z 13006KT 10SM CLR 14/13 A3010 460 90 500 130/06 RMK AO2
14840KMKG MKG20010829074009208/29/01 07:40:31  5-MIN KMKG 291240Z 13006KT 10SM CLR 15/13 A3010 460 86 600 130/06 RMK AO2
14840KMKG MKG20010829074509208/29/01 07:45:31  5-MIN KMKG 291245Z 13005KT 10SM CLR 15/13 A3010 460 86 600 140/05 RMK AO2
14840KMKG MKG20010829075010908/29/01 07:50:31  5-MIN KMKG 291250Z 13006KT 10SM CLR 16/13 A3010 460 86 700 130/06 RMK AO2 SLP191 T01560133
14840KMKG MKG20010829075510908/29/01 07:55:31  5-MIN KMKG 291255Z 13006KT 10SM CLR 16/13 A3010 470 83 700 130/06 RMK AO2 SLP191 T01610133
14840KMKG MKG20010829080009208/29/01 08:00:31  5-MIN KMKG 291300Z 13005KT 10SM CLR 16/13 A3010 470 83 700 130/05 RMK AO2
14840KMKG MKG20010829080509208/29/01 08:05:31  5-MIN KMKG 291305Z 13006KT 10SM CLR 17/13 A3010 470 80 800 140/06 RMK AO2
14840KMKG MKG20010829081009208/29/01 08:10:31  5-MIN KMKG 291310Z 13005KT 10SM CLR 17/13 A3010 470 80 800 130/05 RMK AO2
14840KMKG MKG20010829081509208/29/01 08:15:31  5-MIN KMKG 291315Z 12004KT 10SM CLR 17/13 A3010 470 78 900 130/04 RMK AO2
14840KMKG MKG20010829082009208/29/01 08:20:31  5-MIN KMKG 291320Z 13005KT 10SM CLR 18/14 A3010 460 78 900 130/05 RMK AO2
14840KMKG MKG20010829082509308/29/01 08:25:31  5-MIN KMKG 291325Z 14005KT 10SM CLR 18/14 A3010 470 75 1000 150/05 RMK AO2
14840KMKG MKG20010829083009308/29/01 08:30:31  5-MIN KMKG 291330Z 14005KT 10SM CLR 19/13 A3010 470 70 1100 150/05 RMK AO2
14840KMKG MKG20010829083509308/29/01 08:35:31  5-MIN KMKG 291335Z 14005KT 10SM CLR 19/13 A3010 470 70 1100 150/05 RMK AO2
14840KMKG MKG20010829084009308/29/01 08:40:31  5-MIN KMKG 291340Z 15006KT 10SM CLR 19/13 A3010 470 65 1100 150/06 RMK AO2
14840KMKG MKG20010829084509308/29/01 08:45:31  5-MIN KMKG 291345Z 16005KT 10SM CLR 19/12 A3010 470 62 1100 160/05 RMK AO2
14840KMKG MKG20010829085011008/29/01 08:50:31  5-MIN KMKG 291350Z 16006KT 10SM CLR 20/13 A3009 470 63 1200 160/06 RMK AO2 SLP189 T02000128
14840KMKG MKG20010829085511008/29/01 08:55:31  5-MIN KMKG 291355Z 15007KT 10SM CLR 21/12 A3009 470 58 1300 160/07 RMK AO2 SLP189 T02060122
14840KMKG MKG20010829090009308/29/01 09:00:31  5-MIN KMKG 291400Z 17006KT 10SM CLR 21/12 A3009 470 58 1300 170/06 RMK AO2
14840KMKG MKG20010829090509308/29/01 09:05:31  5-MIN KMKG 291405Z 17007KT 10SM CLR 21/12 A3010 470 56 1300 170/07 RMK AO2
14840KMKG MKG20010829091009308/29/01 09:10:31  5-MIN KMKG 291410Z 17006KT 10SM CLR 21/12 A3010 470 56 1300 170/06 RMK AO2
14840KMKG MKG20010829091509308/29/01 09:15:31  5-MIN KMKG 291415Z 17007KT 10SM CLR 22/12 A3009 470 52 1400 170/07 RMK AO2
14840KMKG MKG20010829092009308/29/01 09:20:31  5-MIN KMKG 291420Z 17006KT 10SM CLR 22/12 A3009 470 54 1400 180/06 RMK AO2
14840KMKG MKG20010829092509308/29/01 09:25:31  5-MIN KMKG 291425Z 16006KT 10SM CLR 22/12 A3010 470 51 1500 160/06 RMK AO2
14840KMKG MKG20010829093009308/29/01 09:30:31  5-MIN KMKG 291430Z 17008KT 10SM CLR 22/11 A3009 470 49 1500 170/08 RMK AO2
14840KMKG MKG20010829093509308/29/01 09:35:31  5-MIN KMKG 291435Z 17008KT 10SM CLR 23/11 A3009 470 47 1500 170/08 RMK AO2
14840KMKG MKG20010829094009308/29/01 09:40:31  5-MIN KMKG 291440Z 17008KT 10SM CLR 23/11 A3010 470 45 1500 170/08 RMK AO2
14840KMKG MKG20010829094509308/29/01 09:45:31  5-MIN KMKG 291445Z 18006KT 10SM CLR 23/11 A3010 470 45 1500 180/06 RMK AO2
14840KMKG MKG20010829095011608/29/01 09:50:31  5-MIN KMKG 291450Z 16007KT 10SM CLR 23/11 A3010 470 47 1500 160/07 RMK AO2 SLP190 T02280111 53010
14840KMKG MKG20010829095511608/29/01 09:55:31  5-MIN KMKG 291455Z 15007KT 10SM CLR 23/11 A3010 470 47 1500 150/07 RMK AO2 SLP189 T02280111 51001
14840KMKG MKG20010829100009308/29/01 10:00:31  5-MIN KMKG 291500Z 15006KT 10SM CLR 23/11 A3009 470 45 1500 160/06 RMK AO2
14840KMKG MKG20010829100509308/29/01 10:05:31  5-MIN KMKG 291505Z 14007KT 10SM CLR 23/11 A3009 470 45 1600 140/07 RMK AO2
14840KMKG MKG20010829101010908/29/01 10:10:31  5-MIN KMKG 291510Z 17007KT 130V200 10SM CLR 24/11 A3009 470 44 1600 170/07 130V200 RMK AO2
14840KMKG MKG20010829101509308/29/01 10:15:31  5-MIN KMKG 291515Z 18004KT 10SM CLR 23/11 A3009 470 44 1600 190/04 RMK AO2
14840KMKG MKG20010829102009308/29/01 10:20:31  5-MIN KMKG 291520Z 19007KT 10SM CLR 24/11 A3009 470 42 1700 200/07 RMK AO2
14840KMKG MKG20010829102509308/29/01 10:25:31  5-MIN KMKG 291525Z 19007KT 10SM CLR 24/11 A3009 480 42 1700 200/07 RMK AO2
14840KMKG MKG20010829103009308/29/01 10:30:31  5-MIN KMKG 291530Z 18006KT 10SM CLR 24/11 A3009 470 42 1700 190/06 RMK AO2
14840KMKG MKG20010829103509308/29/01 10:35:31  5-MIN KMKG 291535Z 18006KT 10SM CLR 24/10 A3009 480 41 1700 180/06 RMK AO2
14840KMKG MKG20010829104009308/29/01 10:40:31  5-MIN KMKG 291540Z 13005KT 10SM CLR 24/11 A3009 480 44 1700 140/05 RMK AO2
14840KMKG MKG20010829104509308/29/01 10:45:31  5-MIN KMKG 291545Z 17006KT 10SM CLR 24/10 A3009 480 39 1700 180/06 RMK AO2
14840KMKG MKG20010829105011008/29/01 10:50:31  5-MIN KMKG 291550Z 18006KT 10SM CLR 24/11 A3009 480 41 1700 190/06 RMK AO2 SLP186 T02440106
14840KMKG MKG20010829105511008/29/01 10:55:31  5-MIN KMKG 291555Z 19007KT 10SM CLR 24/11 A3008 480 41 1700 190/07 RMK AO2 SLP185 T02440106
14840KMKG MKG20010829110009308/29/01 11:00:31  5-MIN KMKG 291600Z 20006KT 10SM CLR 24/11 A3008 480 42 1700 200/06 RMK AO2
14840KMKG MKG20010829110509308/29/01 11:05:31  5-MIN KMKG 291605Z VRB06KT 10SM CLR 24/11 A3008 480 42 1700 VRB/06 RMK AO2
14840KMKG MKG20010829111009308/29/01 11:10:31  5-MIN KMKG 291610Z 17005KT 10SM CLR 24/11 A3008 480 42 1700 180/05 RMK AO2
14840KMKG MKG20010829111509308/29/01 11:15:31  5-MIN KMKG 291615Z 20008KT 10SM CLR 25/11 A3008 480 41 1800 200/08 RMK AO2
14840KMKG MKG20010829112009308/29/01 11:20:31  5-MIN KMKG 291620Z VRB05KT 10SM CLR 25/11 A3008 480 41 1800 VRB/05 RMK AO2
14840KMKG MKG20010829112509308/29/01 11:25:31  5-MIN KMKG 291625Z 18006KT 10SM CLR 25/11 A3008 490 41 1800 180/06 RMK AO2
14840KMKG MKG20010829113009308/29/01 11:30:31  5-MIN KMKG 291630Z 16006KT 10SM CLR 25/12 A3008 490 43 1800 160/06 RMK AO2
14840KMKG MKG20010829113509308/29/01 11:35:31  5-MIN KMKG 291635Z 20006KT 10SM CLR 25/11 A3008 490 41 1800 200/06 RMK AO2
14840KMKG MKG20010829114009308/29/01 11:40:31  5-MIN KMKG 291640Z 19007KT 10SM CLR 26/11 A3007 490 40 1900 200/07 RMK AO2
14840KMKG MKG20010829114509308/29/01 11:45:31  5-MIN KMKG 291645Z 19005KT 10SM CLR 25/11 A3007 490 41 1800 190/05 RMK AO2
14840KMKG MKG20010829115011008/29/01 11:50:31  5-MIN KMKG 291650Z 22007KT 10SM CLR 25/13 A3007 490 46 1800 220/07 RMK AO2 SLP182 T02500128
14840KMKG MKG20010829115511008/29/01 11:55:31  5-MIN KMKG 291655Z 23008KT 10SM CLR 25/12 A3007 490 44 1800 240/08 RMK AO2 SLP182 T02500122
14840KMKG MKG20010829120009308/29/01 12:00:31  5-MIN KMKG 291700Z 22010KT 10SM CLR 25/13 A3008 490 46 1800 220/10 RMK AO2
14840KMKG MKG20010829120509308/29/01 12:05:31  5-MIN KMKG 291705Z 23010KT 10SM CLR 25/12 A3008 480 44 1800 240/10 RMK AO2
14840KMKG MKG20010829121009308/29/01 12:10:31  5-MIN KMKG 291710Z 23009KT 10SM CLR 24/13 A3008 480 47 1700 240/09 RMK AO2
14840KMKG MKG20010829121509308/29/01 12:15:31  5-MIN KMKG 291715Z 26009KT 10SM CLR 24/12 A3008 490 46 1700 260/09 RMK AO2
14840KMKG MKG20010829122009308/29/01 12:20:31  5-MIN KMKG 291720Z 23010KT 10SM CLR 25/12 A3008 490 44 1800 240/10 RMK AO2
14840KMKG MKG20010829122509308/29/01 12:25:31  5-MIN KMKG 291725Z 22010KT 10SM CLR 25/12 A3008 490 43 1800 220/10 RMK AO2
14840KMKG MKG20010829123009308/29/01 12:30:31  5-MIN KMKG 291730Z 26009KT 10SM CLR 25/11 A3008 490 41 1800 260/09 RMK AO2
14840KMKG MKG20010829123509608/29/01 12:35:31  5-MIN KMKG 291735Z 25009KT 10SM FEW055 25/12 A3008 490 43 1800 260/09 RMK AO2
14840KMKG MKG20010829124009608/29/01 12:40:31  5-MIN KMKG 291740Z 23009KT 10SM FEW055 25/12 A3008 480 43 1800 230/09 RMK AO2
14840KMKG MKG20010829124511208/29/01 12:45:31  5-MIN KMKG 291745Z 24008KT 220V280 10SM FEW055 25/12 A3008 480 44 1800 240/08 220V280 RMK AO2
14840KMKG MKG20010829125013108/29/01 12:50:31  5-MIN KMKG 291750Z 26009KT 10SM FEW055 25/12 A3008 490 44 1800 260/09 RMK AO2 SLP183 T02500122 10256 20128 51001
14840KMKG MKG20010829125513108/29/01 12:55:31  5-MIN KMKG 291755Z 27010KT 10SM FEW055 25/12 A3007 490 43 1800 270/10 RMK AO2 SLP182 T02500117 10256 20128 56007
14840KMKG MKG20010829130009608/29/01 13:00:31  5-MIN KMKG 291800Z 26009KT 10SM FEW055 25/12 A3007 490 43 1800 260/09 RMK AO2
14840KMKG MKG20010829130509608/29/01 13:05:31  5-MIN KMKG 291805Z 25009KT 10SM FEW055 25/11 A3007 490 41 1800 250/09 RMK AO2
14840KMKG MKG20010829131009608/29/01 13:10:31  5-MIN KMKG 291810Z 26009KT 10SM FEW055 25/12 A3007 490 43 1800 270/09 RMK AO2
14840KMKG MKG20010829131509608/29/01 13:15:31  5-MIN KMKG 291815Z 25009KT 10SM FEW055 25/12 A3008 490 43 1800 260/09 RMK AO2
14840KMKG MKG20010829132009608/29/01 13:20:31  5-MIN KMKG 291820Z 26008KT 10SM FEW055 25/11 A3007 490 41 1800 260/08 RMK AO2
14840KMKG MKG20010829132509608/29/01 13:25:31  5-MIN KMKG 291825Z 26008KT 10SM FEW055 25/12 A3007 490 43 1800 260/08 RMK AO2
14840KMKG MKG20010829133009608/29/01 13:30:31  5-MIN KMKG 291830Z 25008KT 10SM FEW055 25/12 A3007 490 43 1800 250/08 RMK AO2
14840KMKG MKG20010829133509608/29/01 13:35:31  5-MIN KMKG 291835Z 25007KT 10SM FEW055 24/12 A3007 500 44 1700 250/07 RMK AO2
14840KMKG MKG20010829134009608/29/01 13:40:31  5-MIN KMKG 291840Z 25007KT 10SM SCT055 25/12 A3006 500 44 1800 250/07 RMK AO2
14840KMKG MKG20010829134509608/29/01 13:45:31  5-MIN KMKG 291845Z VRB06KT 10SM SCT055 25/12 A3005 510 43 1800 VRB/06 RMK AO2
14840KMKG MKG20010829135011308/29/01 13:50:31  5-MIN KMKG 291850Z 26005KT 10SM SCT055 25/12 A3005 510 44 1800 270/05 RMK AO2 SLP175 T02500122
14840KMKG MKG20010829135511308/29/01 13:55:31  5-MIN KMKG 291855Z 24006KT 10SM SCT055 25/12 A3005 510 44 1800 240/06 RMK AO2 SLP174 T02500122
14840KMKG MKG20010829140009608/29/01 14:00:31  5-MIN KMKG 291900Z VRB04KT 10SM SCT055 25/12 A3005 510 44 1800 VRB/04 RMK AO2
14840KMKG MKG20010829140509608/29/01 14:05:31  5-MIN KMKG 291905Z 22007KT 10SM SCT055 26/12 A3005 510 43 1900 220/07 RMK AO2
14840KMKG MKG20010829141009608/29/01 14:10:31  5-MIN KMKG 291910Z 24007KT 10SM SCT055 26/12 A3005 510 43 1900 240/07 RMK AO2
14840KMKG MKG20010829141509608/29/01 14:15:31  5-MIN KMKG 291915Z 23006KT 10SM SCT055 26/13 A3005 510 44 1900 230/06 RMK AO2
14840KMKG MKG20010829142009608/29/01 14:20:31  5-MIN KMKG 291920Z 24007KT 10SM SCT055 26/12 A3005 510 43 1900 250/07 RMK AO2
14840KMKG MKG20010829142509608/29/01 14:25:31  5-MIN KMKG 291925Z 25008KT 10SM SCT055 26/12 A3005 510 43 1900 260/08 RMK AO2
14840KMKG MKG20010829143009608/29/01 14:30:31  5-MIN KMKG 291930Z 23008KT 10SM SCT055 25/12 A3005 510 44 1800 240/08 RMK AO2
14840KMKG MKG20010829143509608/29/01 14:35:31  5-MIN KMKG 291935Z 24007KT 10SM SCT055 25/12 A3005 510 43 1800 250/07 RMK AO2
14840KMKG MKG20010829144009608/29/01 14:40:31  5-MIN KMKG 291940Z 24007KT 10SM SCT055 25/12 A3005 510 43 1800 240/07 RMK AO2
14840KMKG MKG20010829144509608/29/01 14:45:31  5-MIN KMKG 291945Z 24009KT 10SM SCT055 25/12 A3005 510 43 1800 250/09 RMK AO2
14840KMKG MKG20010829145011308/29/01 14:50:31  5-MIN KMKG 291950Z 25009KT 10SM SCT055 25/12 A3005 510 44 1800 250/09 RMK AO2 SLP174 T02500122
14840KMKG MKG20010829145511308/29/01 14:55:31  5-MIN KMKG 291955Z 26009KT 10SM SCT055 25/12 A3005 510 43 1800 260/09 RMK AO2 SLP174 T02500117
14840KMKG MKG20010829150009308/29/01 15:00:31  5-MIN KMKG 292000Z 27009KT 10SM CLR 25/12 A3005 510 43 1800 270/09 RMK AO2
14840KMKG MKG20010829150509308/29/01 15:05:31  5-MIN KMKG 292005Z 27008KT 10SM CLR 25/12 A3005 510 43 1800 270/08 RMK AO2
14840KMKG MKG20010829151009308/29/01 15:10:31  5-MIN KMKG 292010Z 26007KT 10SM CLR 25/12 A3005 510 44 1800 270/07 RMK AO2
14840KMKG MKG20010829151509308/29/01 15:15:31  5-MIN KMKG 292015Z 28007KT 10SM CLR 25/12 A3005 510 44 1800 280/07 RMK AO2
14840KMKG MKG20010829152009608/29/01 15:20:31  5-MIN KMKG 292020Z 27008KT 10SM SCT055 25/13 A3005 510 46 1800 270/08 RMK AO2
14840KMKG MKG20010829152509608/29/01 15:25:31  5-MIN KMKG 292025Z 27007KT 10SM SCT055 25/12 A3005 510 44 1800 270/07 RMK AO2
14840KMKG MKG20010829153009608/29/01 15:30:31  5-MIN KMKG 292030Z 30008KT 10SM SCT055 25/12 A3005 510 44 1800 300/08 RMK AO2
14840KMKG MKG20010829153509608/29/01 15:35:31  5-MIN KMKG 292035Z VRB06KT 10SM SCT055 24/12 A3005 510 44 1800 VRB/06 RMK AO2
14840KMKG MKG20010829154009608/29/01 15:40:31  5-MIN KMKG 292040Z 30008KT 10SM SCT055 25/12 A3005 510 44 1800 310/08 RMK AO2
14840KMKG MKG20010829154509608/29/01 15:45:31  5-MIN KMKG 292045Z 28007KT 10SM SCT055 24/12 A3005 510 44 1800 280/07 RMK AO2
14840KMKG MKG20010829155011908/29/01 15:50:31  5-MIN KMKG 292050Z 27006KT 10SM FEW055 24/11 A3005 510 42 1800 270/06 RMK AO2 SLP175 T02440111 56007
14840KMKG MKG20010829155511908/29/01 15:55:31  5-MIN KMKG 292055Z 28008KT 10SM FEW055 24/12 A3005 510 44 1800 290/08 RMK AO2 SLP174 T02440117 56008
14840KMKG MKG20010829160009308/29/01 16:00:31  5-MIN KMKG 292100Z 27008KT 10SM CLR 24/12 A3005 510 44 1800 280/08 RMK AO2
14840KMKG MKG20010829160509308/29/01 16:05:31  5-MIN KMKG 292105Z 27007KT 10SM CLR 24/12 A3004 520 46 1700 280/07 RMK AO2
14840KMKG MKG20010829161009308/29/01 16:10:31  5-MIN KMKG 292110Z 25008KT 10SM CLR 24/12 A3004 520 46 1800 250/08 RMK AO2
14840KMKG MKG20010829161509308/29/01 16:15:31  5-MIN KMKG 292115Z 28008KT 10SM CLR 24/12 A3004 520 46 1800 280/08 RMK AO2
14840KMKG MKG20010829162009308/29/01 16:20:31  5-MIN KMKG 292120Z 29007KT 10SM CLR 24/12 A3004 520 47 1700 300/07 RMK AO2
14840KMKG MKG20010829162509308/29/01 16:25:31  5-MIN KMKG 292125Z VRB06KT 10SM CLR 24/12 A3004 520 47 1700 VRB/06 RMK AO2
14840KMKG MKG20010829163009308/29/01 16:30:31  5-MIN KMKG 292130Z 28008KT 10SM CLR 24/12 A3004 520 46 1800 280/08 RMK AO2
14840KMKG MKG20010829163509308/29/01 16:35:31  5-MIN KMKG 292135Z 26006KT 10SM CLR 24/12 A3004 520 47 1700 270/06 RMK AO2
14840KMKG MKG20010829164009308/29/01 16:40:31  5-MIN KMKG 292140Z 28008KT 10SM CLR 24/13 A3004 520 49 1700 290/08 RMK AO2
14840KMKG MKG20010829164509308/29/01 16:45:31  5-MIN KMKG 292145Z 29007KT 10SM CLR 24/13 A3004 520 49 1700 290/07 RMK AO2
14840KMKG MKG20010829165011008/29/01 16:50:31  5-MIN KMKG 292150Z 28005KT 10SM CLR 24/13 A3004 520 51 1700 290/05 RMK AO2 SLP171 T02390133
14840KMKG MKG20010829165511008/29/01 16:55:31  5-MIN KMKG 292155Z 26005KT 10SM CLR 24/13 A3004 520 51 1700 270/05 RMK AO2 SLP171 T02390133
14840KMKG MKG20010829170009308/29/01 17:00:31  5-MIN KMKG 292200Z 30008KT 10SM CLR 24/13 A3004 520 51 1700 300/08 RMK AO2
14840KMKG MKG20010829170509308/29/01 17:05:31  5-MIN KMKG 292205Z 29007KT 10SM CLR 24/13 A3004 520 51 1700 290/07 RMK AO2
14840KMKG MKG20010829171009308/29/01 17:10:31  5-MIN KMKG 292210Z 30006KT 10SM CLR 24/13 A3004 520 51 1700 300/06 RMK AO2
14840KMKG MKG20010829171509308/29/01 17:15:31  5-MIN KMKG 292215Z 30006KT 10SM CLR 23/13 A3003 530 53 1700 300/06 RMK AO2
14840KMKG MKG20010829172009308/29/01 17:20:31  5-MIN KMKG 292220Z 30005KT 10SM CLR 23/13 A3003 530 53 1700 300/05 RMK AO2
14840KMKG MKG20010829172509308/29/01 17:25:31  5-MIN KMKG 292225Z VRB05KT 10SM CLR 23/13 A3003 530 53 1700 VRB/05 RMK AO2
14840KMKG MKG20010829173009308/29/01 17:30:31  5-MIN KMKG 292230Z 25004KT 10SM CLR 23/13 A3003 530 53 1700 260/04 RMK AO2
14840KMKG MKG20010829173509308/29/01 17:35:31  5-MIN KMKG 292235Z 26004KT 10SM CLR 23/13 A3003 530 53 1700 260/04 RMK AO2
14840KMKG MKG20010829174009308/29/01 17:40:31  5-MIN KMKG 292240Z 26003KT 10SM CLR 23/14 A3002 530 55 1700 260/03 RMK AO2
14840KMKG MKG20010829174509308/29/01 17:45:31  5-MIN KMKG 292245Z 27004KT 10SM CLR 23/13 A3002 540 53 1700 270/04 RMK AO2
14840KMKG MKG20010829175011008/29/01 17:50:31  5-MIN KMKG 292250Z VRB04KT 10SM CLR 23/14 A3002 540 55 1700 VRB/04 RMK AO2 SLP163 T02330139
14840KMKG MKG20010829175511008/29/01 17:55:31  5-MIN KMKG 292255Z 23003KT 10SM CLR 23/13 A3001 550 51 1700 240/03 RMK AO2 SLP160 T02330128
14840KMKG MKG20010829180009308/29/01 18:00:31  5-MIN KMKG 292300Z 24004KT 10SM CLR 23/13 A3001 550 53 1700 250/04 RMK AO2
14840KMKG MKG20010829180509308/29/01 18:05:31  5-MIN KMKG 292305Z 22004KT 10SM CLR 23/13 A3001 550 51 1700 230/04 RMK AO2
14840KMKG MKG20010829181009308/29/01 18:10:31  5-MIN KMKG 292310Z 24003KT 10SM CLR 23/13 A3000 550 53 1600 240/03 RMK AO2
14840KMKG MKG20010829181509308/29/01 18:15:31  5-MIN KMKG 292315Z 20005KT 10SM CLR 23/13 A3000 560 53 1600 210/05 RMK AO2
14840KMKG MKG20010829182009308/29/01 18:20:31  5-MIN KMKG 292320Z 20005KT 10SM CLR 23/12 A3000 560 51 1600 210/05 RMK AO2
14840KMKG MKG20010829182509308/29/01 18:25:31  5-MIN KMKG 292325Z 19004KT 10SM CLR 23/12 A2999 560 51 1600 200/04 RMK AO2
14840KMKG MKG20010829183009308/29/01 18:30:31  5-MIN KMKG 292330Z 20004KT 10SM CLR 23/12 A2999 570 51 1600 200/04 RMK AO2
14840KMKG MKG20010829183509308/29/01 18:35:31  5-MIN KMKG 292335Z 17005KT 10SM CLR 22/13 A2998 570 54 1600 180/05 RMK AO2
14840KMKG MKG20010829184009308/29/01 18:40:31  5-MIN KMKG 292340Z 17004KT 10SM CLR 22/13 A2998 580 54 1600 170/04 RMK AO2
14840KMKG MKG20010829184510008/29/01 18:45:31  5-MIN KMKG 292345Z 14006KT 10SM CLR 22/13 A2997 590 54 1600 150/06 RMK AO2 PRESFR
14840KMKG MKG20010829185013508/29/01 18:50:31  5-MIN KMKG 292350Z 15006KT 10SM CLR 22/13 A2996 590 56 1500 150/06 RMK AO2 PRESFR SLP145 T02170128 10256 20217 56008
14840KMKG MKG20010829185513508/29/01 18:55:31  5-MIN KMKG 292355Z 14009KT 10SM CLR 22/13 A2995 610 56 1600 140/09 RMK AO2 PRESFR SLP139 T02170128 10256 20217 58035
14840KMKG MKG20010829190010008/29/01 19:00:31  5-MIN KMKG 300000Z 13012KT 10SM CLR 21/13 A2993 630 58 1500 140/12 RMK AO2 PRESFR
14840KMKG MKG20010829190510008/29/01 19:05:31  5-MIN KMKG 300005Z 14011KT 10SM CLR 21/13 A2991 640 58 1500 140/11 RMK AO2 PRESFR
14840KMKG MKG20010829191009308/29/01 19:10:31  5-MIN KMKG 300010Z 15008KT 10SM CLR 21/13 A2992 630 58 1500 150/08 RMK AO2
14840KMKG MKG20010829191509308/29/01 19:15:31  5-MIN KMKG 300015Z 15007KT 10SM CLR 22/13 A2992 630 56 1600 160/07 RMK AO2
14840KMKG MKG20010829192009308/29/01 19:20:31  5-MIN KMKG 300020Z 18006KT 10SM CLR 21/13 A2993 620 61 1500 180/06 RMK AO2
14840KMKG MKG20010829192510008/29/01 19:25:31  5-MIN KMKG 300025Z 19005KT 10SM CLR 21/13 A2994 610 61 1500 190/05 RMK AO2 PRESRR
14840KMKG MKG20010829193010008/29/01 19:30:31  5-MIN KMKG 300030Z 22005KT 10SM CLR 21/13 A2995 600 63 1400 220/05 RMK AO2 PRESRR
14840KMKG MKG20010829193509308/29/01 19:35:31  5-MIN KMKG 300035Z 20004KT 10SM CLR 21/13 A2995 600 63 1400 200/04 RMK AO2
14840KMKG MKG20010829194009308/29/01 19:40:31  5-MIN KMKG 300040Z 20003KT 10SM CLR 21/13 A2995 600 63 1400 200/03 RMK AO2
14840KMKG MKG20010829194509308/29/01 19:45:31  5-MIN KMKG 300045Z 00000KT 10SM CLR 21/13 A2996 600 63 1400 000/00 RMK AO2
14840KMKG MKG20010829195011008/29/01 19:50:31  5-MIN KMKG 300050Z 00000KT 10SM CLR 21/13 A2996 590 63 1400 000/00 RMK AO2 SLP145 T02060133
14840KMKG MKG20010829195511008/29/01 19:55:31  5-MIN KMKG 300055Z 00000KT 10SM CLR 20/13 A2996 590 65 1400 000/00 RMK AO2 SLP145 T02000133
14840KMKG MKG20010829200009308/29/01 20:00:31  5-MIN KMKG 300100Z 00000KT 10SM CLR 20/13 A2996 590 65 1300 000/00 RMK AO2
14840KMKG MKG20010829200509308/29/01 20:05:31  5-MIN KMKG 300105Z 00000KT 10SM CLR 19/13 A2997 580 67 1300 000/00 RMK AO2
14840KMKG MKG20010829201009308/29/01 20:10:31  5-MIN KMKG 300110Z 30004KT 10SM CLR 18/13 A2998 580 72 1100 300/04 RMK AO2
14840KMKG MKG20010829201509308/29/01 20:15:31  5-MIN KMKG 300115Z 30003KT 10SM CLR 19/13 A2998 580 70 1200 300/03 RMK AO2
14840KMKG MKG20010829202009308/29/01 20:20:31  5-MIN KMKG 300120Z 19003KT 10SM CLR 19/13 A2997 590 70 1200 200/03 RMK AO2
14840KMKG MKG20010829202509308/29/01 20:25:31  5-MIN KMKG 300125Z 17006KT 10SM CLR 18/13 A2996 590 72 1200 170/06 RMK AO2
14840KMKG MKG20010829203009308/29/01 20:30:31  5-MIN KMKG 300130Z 19005KT 10SM CLR 19/14 A2997 590 72 1200 190/05 RMK AO2
14840KMKG MKG20010829203509308/29/01 20:35:31  5-MIN KMKG 300135Z 00000KT 10SM CLR 19/14 A2997 580 72 1200 000/00 RMK AO2
14840KMKG MKG20010829204009308/29/01 20:40:31  5-MIN KMKG 300140Z 19003KT 10SM CLR 19/14 A2997 580 72 1200 200/03 RMK AO2
14840KMKG MKG20010829204509308/29/01 20:45:31  5-MIN KMKG 300145Z 17005KT 10SM CLR 19/14 A2997 590 72 1200 180/05 RMK AO2
14840KMKG MKG20010829205011008/29/01 20:50:31  5-MIN KMKG 300150Z 18005KT 10SM CLR 19/14 A2997 590 70 1300 180/05 RMK AO2 SLP145 T01940139
14840KMKG MKG20010829205511008/29/01 20:55:31  5-MIN KMKG 300155Z 17005KT 10SM CLR 20/13 A2996 590 65 1300 170/05 RMK AO2 SLP145 T02000133
14840KMKG MKG20010829210009308/29/01 21:00:31  5-MIN KMKG 300200Z 17005KT 10SM CLR 20/13 A2997 590 65 1300 170/05 RMK AO2
14840KMKG MKG20010829210509308/29/01 21:05:31  5-MIN KMKG 300205Z 16004KT 10SM CLR 20/13 A2997 590 65 1300 170/04 RMK AO2
14840KMKG MKG20010829211009308/29/01 21:10:31  5-MIN KMKG 300210Z 17005KT 10SM CLR 19/13 A2997 590 67 1300 170/05 RMK AO2
14840KMKG MKG20010829211509308/29/01 21:15:31  5-MIN KMKG 300215Z 17005KT 10SM CLR 19/13 A2996 590 67 1300 170/05 RMK AO2
14840KMKG MKG20010829212009308/29/01 21:20:31  5-MIN KMKG 300220Z 17005KT 10SM CLR 19/13 A2997 590 70 1200 180/05 RMK AO2
14840KMKG MKG20010829212509308/29/01 21:25:31  5-MIN KMKG 300225Z 17004KT 10SM CLR 19/13 A2997 590 67 1300 180/04 RMK AO2
14840KMKG MKG20010829213009308/29/01 21:30:31  5-MIN KMKG 300230Z 16003KT 10SM CLR 19/13 A2997 590 70 1200 160/03 RMK AO2
14840KMKG MKG20010829213509308/29/01 21:35:31  5-MIN KMKG 300235Z 14003KT 10SM CLR 19/13 A2997 590 70 1200 150/03 RMK AO2
14840KMKG MKG20010829214009308/29/01 21:40:31  5-MIN KMKG 300240Z 15003KT 10SM CLR 18/14 A2997 590 78 1100 150/03 RMK AO2
14840KMKG MKG20010829214509308/29/01 21:45:31  5-MIN KMKG 300245Z 14003KT 10SM CLR 18/14 A2997 590 75 1200 140/03 RMK AO2
14840KMKG MKG20010829215011608/29/01 21:50:31  5-MIN KMKG 300250Z 12004KT 10SM CLR 19/14 A2997 590 72 1200 120/04 RMK AO2 SLP145 T01890139 58035
14840KMKG MKG20010829215511608/29/01 21:55:31  5-MIN KMKG 300255Z 13003KT 10SM CLR 18/14 A2997 590 75 1200 140/03 RMK AO2 SLP145 T01830139 51007
14840KMKG MKG20010829220009308/29/01 22:00:31  5-MIN KMKG 300300Z 15005KT 10SM CLR 18/14 A2996 590 78 1100 150/05 RMK AO2
14840KMKG MKG20010829220509308/29/01 22:05:31  5-MIN KMKG 300305Z 15005KT 10SM CLR 17/14 A2996 590 80 1000 160/05 RMK AO2
14840KMKG MKG20010829221009308/29/01 22:10:31  5-MIN KMKG 300310Z 15005KT 10SM CLR 17/14 A2996 590 80 1000 150/05 RMK AO2
14840KMKG MKG20010829221509308/29/01 22:15:31  5-MIN KMKG 300315Z 16005KT 10SM CLR 17/14 A2996 600 80 1000 160/05 RMK AO2
14840KMKG MKG20010829222009308/29/01 22:20:31  5-MIN KMKG 300320Z 15005KT 10SM CLR 18/14 A2996 600 78 1100 160/05 RMK AO2
14840KMKG MKG20010829222509308/29/01 22:25:31  5-MIN KMKG 300325Z 15006KT 10SM CLR 18/14 A2995 600 78 1100 150/06 RMK AO2
14840KMKG MKG20010829223009308/29/01 22:30:31  5-MIN KMKG 300330Z 14007KT 10SM CLR 17/14 A2995 600 80 1000 150/07 RMK AO2
14840KMKG MKG20010829223509308/29/01 22:35:31  5-MIN KMKG 300335Z 15007KT 10SM CLR 17/14 A2995 600 80 1000 150/07 RMK AO2
14840KMKG MKG20010829224009308/29/01 22:40:31  5-MIN KMKG 300340Z 15007KT 10SM CLR 17/14 A2995 600 80 1000 160/07 RMK AO2
14840KMKG MKG20010829224509308/29/01 22:45:31  5-MIN KMKG 300345Z 15006KT 10SM CLR 18/14 A2995 610 78 1100 160/06 RMK AO2
14840KMKG MKG20010829225011008/29/01 22:50:31  5-MIN KMKG 300350Z 15007KT 10SM CLR 18/14 A2994 610 78 1100 160/07 RMK AO2 SLP138 T01780139
14840KMKG MKG20010829225511008/29/01 22:55:31  5-MIN KMKG 300355Z 16007KT 10SM CLR 18/14 A2994 610 75 1200 170/07 RMK AO2 SLP136 T01830139
14840KMKG MKG20010829230009308/29/01 23:00:31  5-MIN KMKG 300400Z 16007KT 10SM CLR 18/14 A2994 610 75 1200 170/07 RMK AO2
14840KMKG MKG20010829230509308/29/01 23:05:31  5-MIN KMKG 300405Z 16007KT 10SM CLR 18/14 A2994 610 75 1200 170/07 RMK AO2
14840KMKG MKG20010829231009308/29/01 23:10:31  5-MIN KMKG 300410Z 15006KT 10SM CLR 18/14 A2994 610 78 1200 160/06 RMK AO2
14840KMKG MKG20010829231509308/29/01 23:15:31  5-MIN KMKG 300415Z 15007KT 10SM CLR 18/14 A2994 610 78 1200 160/07 RMK AO2
14840KMKG MKG20010829232009308/29/01 23:20:31  5-MIN KMKG 300420Z 16007KT 10SM CLR 18/14 A2994 610 78 1200 160/07 RMK AO2
14840KMKG MKG20010829232509308/29/01 23:25:31  5-MIN KMKG 300425Z 15007KT 10SM CLR 18/14 A2994 610 78 1200 160/07 RMK AO2
14840KMKG MKG20010829233009308/29/01 23:30:31  5-MIN KMKG 300430Z 16007KT 10SM CLR 18/14 A2994 610 78 1200 160/07 RMK AO2
14840KMKG MKG20010829233509308/29/01 23:35:31  5-MIN KMKG 300435Z 15008KT 10SM CLR 18/14 A2994 610 78 1200 150/08 RMK AO2
14840KMKG MKG20010829234009308/29/01 23:40:31  5-MIN KMKG 300440Z 15007KT 10SM CLR 18/14 A2994 610 78 1200 150/07 RMK AO2
14840KMKG MKG20010829234509308/29/01 23:45:31  5-MIN KMKG 300445Z 15007KT 10SM CLR 18/14 A2994 620 78 1200 150/07 RMK AO2
14840KMKG MKG20010829235012008/29/01 23:50:31  5-MIN KMKG 300450Z 15007KT 10SM CLR 18/14 A2993 620 78 1200 160/07 RMK AO2 SLP133 T01830144 402560111
14840KMKG MKG20010829235512008/29/01 23:55:31  5-MIN KMKG 300455Z 16007KT 10SM CLR 19/14 A2994 620 75 1300 160/07 RMK AO2 SLP134 T01890144 402560111
14840KMKG MKG20010830000009308/30/01 00:00:31  5-MIN KMKG 300500Z 16008KT 10SM CLR 18/14 A2993 620 78 1200 170/08 RMK AO2
14840KMKG MKG20010830000509308/30/01 00:05:31  5-MIN KMKG 300505Z 16008KT 10SM CLR 19/14 A2993 620 75 1300 160/08 RMK AO2
14840KMKG MKG20010830001009308/30/01 00:10:31  5-MIN KMKG 300510Z 16008KT 10SM CLR 19/14 A2993 620 75 1300 160/08 RMK AO2
14840KMKG MKG20010830001509308/30/01 00:15:31  5-MIN KMKG 300515Z 16008KT 10SM CLR 19/14 A2993 620 75 1300 160/08 RMK AO2
14840KMKG MKG20010830002009308/30/01 00:20:31  5-MIN KMKG 300520Z 16007KT 10SM CLR 19/14 A2993 620 75 1300 170/07 RMK AO2
14840KMKG MKG20010830002509308/30/01 00:25:31  5-MIN KMKG 300525Z 16007KT 10SM CLR 19/14 A2993 620 75 1300 160/07 RMK AO2
14840KMKG MKG20010830003009308/30/01 00:30:31  5-MIN KMKG 300530Z 16006KT 10SM CLR 18/14 A2993 620 78 1200 160/06 RMK AO2
14840KMKG MKG20010830003509308/30/01 00:35:31  5-MIN KMKG 300535Z 15007KT 10SM CLR 18/14 A2994 620 78 1200 160/07 RMK AO2
14840KMKG MKG20010830004009308/30/01 00:40:31  5-MIN KMKG 300540Z 15006KT 10SM CLR 18/14 A2994 620 78 1200 150/06 RMK AO2
14840KMKG MKG20010830004509308/30/01 00:45:31  5-MIN KMKG 300545Z 15006KT 10SM CLR 18/14 A2994 610 78 1200 150/06 RMK AO2
14840KMKG MKG20010830005012808/30/01 00:50:31  5-MIN KMKG 300550Z 15006KT 10SM CLR 18/14 A2994 620 81 1100 150/06 RMK AO2 SLP134 T01780144 10217 20172 51007
14840KMKG MKG20010830005512808/30/01 00:55:31  5-MIN KMKG 300555Z 15006KT 10SM CLR 18/14 A2994 610 81 1100 150/06 RMK AO2 SLP134 T01780144 10217 20172 55009
14840KMKG MKG20010830010009308/30/01 01:00:31  5-MIN KMKG 300600Z 15006KT 10SM CLR 17/14 A2994 610 83 1100 150/06 RMK AO2
14840KMKG MKG20010830010509308/30/01 01:05:31  5-MIN KMKG 300605Z 14006KT 10SM CLR 17/14 A2994 610 83 1100 140/06 RMK AO2
14840KMKG MKG20010830011009308/30/01 01:10:31  5-MIN KMKG 300610Z 13007KT 10SM CLR 17/14 A2994 610 83 1100 140/07 RMK AO2
14840KMKG MKG20010830011509308/30/01 01:15:31  5-MIN KMKG 300615Z 13005KT 10SM CLR 17/14 A2994 620 86 1000 130/05 RMK AO2
14840KMKG MKG20010830012009308/30/01 01:20:31  5-MIN KMKG 300620Z 13006KT 10SM CLR 17/14 A2993 620 86 1000 130/06 RMK AO2
14840KMKG MKG20010830012509308/30/01 01:25:31  5-MIN KMKG 300625Z 13007KT 10SM CLR 17/14 A2993 620 86 1000 140/07 RMK AO2
14840KMKG MKG20010830013009308/30/01 01:30:31  5-MIN KMKG 300630Z 14006KT 10SM CLR 17/14 A2993 620 86 1000 140/06 RMK AO2
14840KMKG MKG20010830013509308/30/01 01:35:31  5-MIN KMKG 300635Z 14007KT 10SM CLR 17/15 A2993 620 90 1000 140/07 RMK AO2
14840KMKG MKG20010830014009308/30/01 01:40:31  5-MIN KMKG 300640Z 14006KT 10SM CLR 17/15 A2993 620 87 1100 140/06 RMK AO2
14840KMKG MKG20010830014509308/30/01 01:45:31  5-MIN KMKG 300645Z 14007KT 10SM CLR 17/14 A2993 620 86 1000 140/07 RMK AO2
14840KMKG MKG20010830015011008/30/01 01:50:31  5-MIN KMKG 300650Z 15007KT 10SM CLR 17/14 A2993 620 86 1000 150/07 RMK AO2 SLP133 T01670144
14840KMKG MKG20010830015511008/30/01 01:55:31  5-MIN KMKG 300655Z 15007KT 10SM CLR 17/14 A2993 620 83 1100 160/07 RMK AO2 SLP133 T01720144
14840KMKG MKG20010830020009308/30/01 02:00:31  5-MIN KMKG 300700Z 15006KT 10SM CLR 17/14 A2993 620 83 1100 150/06 RMK AO2
14840KMKG MKG20010830020509308/30/01 02:05:31  5-MIN KMKG 300705Z 14008KT 10SM CLR 17/14 A2992 630 83 1100 150/08 RMK AO2
14840KMKG MKG20010830021009308/30/01 02:10:31  5-MIN KMKG 300710Z 15007KT 10SM CLR 17/14 A2992 630 86 1000 150/07 RMK AO2
14840KMKG MKG20010830021509308/30/01 02:15:31  5-MIN KMKG 300715Z 14008KT 10SM CLR 17/14 A2991 640 86 1000 140/08 RMK AO2
14840KMKG MKG20010830022009308/30/01 02:20:31  5-MIN KMKG 300720Z 15007KT 10SM CLR 17/14 A2991 640 86 1000 150/07 RMK AO2
14840KMKG MKG20010830022509308/30/01 02:25:31  5-MIN KMKG 300725Z 15007KT 10SM CLR 17/14 A2991 640 83 1100 150/07 RMK AO2
14840KMKG MKG20010830023009308/30/01 02:30:31  5-MIN KMKG 300730Z 15007KT 10SM CLR 17/14 A2991 640 83 1100 150/07 RMK AO2
14840KMKG MKG20010830023509308/30/01 02:35:31  5-MIN KMKG 300735Z 15007KT 10SM CLR 17/14 A2991 640 83 1100 160/07 RMK AO2
14840KMKG MKG20010830024009308/30/01 02:40:31  5-MIN KMKG 300740Z 15006KT 10SM CLR 17/14 A2991 640 83 1100 160/06 RMK AO2
14840KMKG MKG20010830024509308/30/01 02:45:31  5-MIN KMKG 300745Z 15006KT 10SM CLR 17/14 A2990 640 83 1100 150/06 RMK AO2
14840KMKG MKG20010830025011008/30/01 02:50:31  5-MIN KMKG 300750Z 15006KT 10SM CLR 17/14 A2990 650 83 1100 160/06 RMK AO2 SLP124 T01720144
14840KMKG MKG20010830025511008/30/01 02:55:31  5-MIN KMKG 300755Z 15007KT 10SM CLR 17/14 A2990 650 83 1100 150/07 RMK AO2 SLP123 T01720144
14840KMKG MKG20010830030009308/30/01 03:00:31  5-MIN KMKG 300800Z 15007KT 10SM CLR 17/14 A2990 650 83 1100 150/07 RMK AO2
14840KMKG MKG20010830030509308/30/01 03:05:31  5-MIN KMKG 300805Z 15006KT 10SM CLR 17/14 A2990 650 86 1000 150/06 RMK AO2
14840KMKG MKG20010830031009308/30/01 03:10:31  5-MIN KMKG 300810Z 15007KT 10SM CLR 17/14 A2989 660 86 1000 150/07 RMK AO2
14840KMKG MKG20010830031509308/30/01 03:15:31  5-MIN KMKG 300815Z 15007KT 10SM CLR 17/14 A2989 660 86 1000 150/07 RMK AO2
14840KMKG MKG20010830032009308/30/01 03:20:31  5-MIN KMKG 300820Z 16007KT 10SM CLR 17/14 A2989 660 83 1100 160/07 RMK AO2
14840KMKG MKG20010830032509308/30/01 03:25:31  5-MIN KMKG 300825Z 16007KT 10SM CLR 17/14 A2988 660 83 1100 170/07 RMK AO2
14840KMKG MKG20010830033009308/30/01 03:30:31  5-MIN KMKG 300830Z 16007KT 10SM CLR 17/14 A2988 660 83 1100 160/07 RMK AO2
14840KMKG MKG20010830033509308/30/01 03:35:31  5-MIN KMKG 300835Z 16007KT 10SM CLR 17/14 A2988 670 83 1100 160/07 RMK AO2
14840KMKG MKG20010830034009308/30/01 03:40:31  5-MIN KMKG 300840Z 16008KT 10SM CLR 17/14 A2988 670 83 1100 170/08 RMK AO2
14840KMKG MKG20010830034509308/30/01 03:45:31  5-MIN KMKG 300845Z 16007KT 10SM CLR 18/14 A2988 670 81 1200 160/07 RMK AO2
14840KMKG MKG20010830035011608/30/01 03:50:31  5-MIN KMKG 300850Z 16008KT 10SM CLR 18/14 A2988 670 81 1200 160/08 RMK AO2 SLP116 T01780144 55009
14840KMKG MKG20010830035511608/30/01 03:55:31  5-MIN KMKG 300855Z 16007KT 10SM CLR 18/14 A2988 670 81 1200 160/07 RMK AO2 SLP116 T01780144 58019
14840KMKG MKG20010830040009308/30/01 04:00:31  5-MIN KMKG 300900Z 16006KT 10SM CLR 18/14 A2988 670 81 1200 170/06 RMK AO2
14840KMKG MKG20010830040509308/30/01 04:05:31  5-MIN KMKG 300905Z 16006KT 10SM CLR 18/14 A2988 670 81 1200 160/06 RMK AO2
14840KMKG MKG20010830041009308/30/01 04:10:31  5-MIN KMKG 300910Z 16006KT 10SM CLR 17/14 A2988 670 83 1100 170/06 RMK AO2
14840KMKG MKG20010830041509308/30/01 04:15:31  5-MIN KMKG 300915Z 17005KT 10SM CLR 17/14 A2988 660 83 1100 170/05 RMK AO2
14840KMKG MKG20010830042009308/30/01 04:20:31  5-MIN KMKG 300920Z 16007KT 10SM CLR 17/14 A2988 670 83 1100 170/07 RMK AO2
14840KMKG MKG20010830042509308/30/01 04:25:31  5-MIN KMKG 300925Z 16007KT 10SM CLR 17/14 A2988 670 83 1100 170/07 RMK AO2
14840KMKG MKG20010830043009308/30/01 04:30:31  5-MIN KMKG 300930Z 16008KT 10SM CLR 17/14 A2988 670 83 1100 170/08 RMK AO2
14840KMKG MKG20010830043509308/30/01 04:35:31  5-MIN KMKG 300935Z 16007KT 10SM CLR 17/14 A2988 670 83 1100 170/07 RMK AO2
14840KMKG MKG20010830044009308/30/01 04:40:31  5-MIN KMKG 300940Z 17006KT 10SM CLR 17/14 A2987 670 83 1100 170/06 RMK AO2
14840KMKG MKG20010830044509308/30/01 04:45:31  5-MIN KMKG 300945Z 17006KT 10SM CLR 17/14 A2987 670 83 1100 180/06 RMK AO2
14840KMKG MKG20010830045011008/30/01 04:50:31  5-MIN KMKG 300950Z 17006KT 10SM CLR 17/14 A2987 670 83 1100 180/06 RMK AO2 SLP113 T01720144
14840KMKG MKG20010830045511008/30/01 04:55:31  5-MIN KMKG 300955Z 17006KT 10SM CLR 17/14 A2987 680 83 1100 170/06 RMK AO2 SLP112 T01720144
14840KMKG MKG20010830050009308/30/01 05:00:31  5-MIN KMKG 301000Z 17006KT 10SM CLR 17/14 A2987 680 83 1100 170/06 RMK AO2
14840KMKG MKG20010830050509308/30/01 05:05:31  5-MIN KMKG 301005Z 17005KT 10SM CLR 17/14 A2987 680 83 1100 170/05 RMK AO2
14840KMKG MKG20010830051009308/30/01 05:10:31  5-MIN KMKG 301010Z 16006KT 10SM CLR 17/15 A2987 670 87 1100 170/06 RMK AO2
14840KMKG MKG20010830051509308/30/01 05:15:31  5-MIN KMKG 301015Z 16006KT 10SM CLR 17/15 A2987 680 87 1100 170/06 RMK AO2
14840KMKG MKG20010830052009308/30/01 05:20:31  5-MIN KMKG 301020Z 15007KT 10SM CLR 17/15 A2986 690 87 1100 150/07 RMK AO2
14840KMKG MKG20010830052509308/30/01 05:25:31  5-MIN KMKG 301025Z 15007KT 10SM CLR 17/15 A2986 690 87 1100 150/07 RMK AO2
14840KMKG MKG20010830053009308/30/01 05:30:31  5-MIN KMKG 301030Z 16006KT 10SM CLR 17/15 A2986 680 87 1100 160/06 RMK AO2
14840KMKG MKG20010830053509308/30/01 05:35:31  5-MIN KMKG 301035Z 17006KT 10SM CLR 17/15 A2986 680 87 1100 170/06 RMK AO2
14840KMKG MKG20010830054009308/30/01 05:40:31  5-MIN KMKG 301040Z 17007KT 10SM CLR 17/15 A2986 680 87 1100 170/07 RMK AO2
14840KMKG MKG20010830054509208/30/01 05:45:31  5-MIN KMKG 301045Z 17007KT 9SM CLR 17/15 A2986 680 87 1100 170/07 RMK AO2
14840KMKG MKG20010830055010908/30/01 05:50:31  5-MIN KMKG 301050Z 18006KT 9SM CLR 17/15 A2987 680 87 1100 190/06 RMK AO2 SLP112 T01720150
14840KMKG MKG20010830055510908/30/01 05:55:31  5-MIN KMKG 301055Z 17005KT 9SM CLR 17/15 A2987 680 90 1100 180/05 RMK AO2 SLP112 T01670150
14840KMKG MKG20010830060009208/30/01 06:00:31  5-MIN KMKG 301100Z 17005KT 9SM CLR 17/15 A2987 670 90 1100 180/05 RMK AO2
14840KMKG MKG20010830060509208/30/01 06:05:31  5-MIN KMKG 301105Z 16005KT 8SM CLR 17/15 A2987 670 87 1100 170/05 RMK AO2
14840KMKG MKG20010830061009208/30/01 06:10:31  5-MIN KMKG 301110Z 17004KT 7SM CLR 17/15 A2988 670 87 1100 180/04 RMK AO2
14840KMKG MKG20010830061509208/30/01 06:15:31  5-MIN KMKG 301115Z 17004KT 7SM CLR 17/15 A2988 660 87 1100 180/04 RMK AO2
14840KMKG MKG20010830062009208/30/01 06:20:31  5-MIN KMKG 301120Z 17004KT 7SM CLR 17/15 A2989 660 87 1100 180/04 RMK AO2
14840KMKG MKG20010830062509208/30/01 06:25:31  5-MIN KMKG 301125Z 17004KT 7SM CLR 17/16 A2989 660 90 1100 180/04 RMK AO2
14840KMKG MKG20010830063009208/30/01 06:30:31  5-MIN KMKG 301130Z 18005KT 7SM CLR 17/16 A2989 660 90 1100 190/05 RMK AO2
14840KMKG MKG20010830063509208/30/01 06:35:31  5-MIN KMKG 301135Z 18005KT 7SM CLR 17/16 A2988 670 90 1100 180/05 RMK AO2
14840KMKG MKG20010830064009208/30/01 06:40:31  5-MIN KMKG 301140Z 19005KT 7SM CLR 17/16 A2988 660 90 1100 200/05 RMK AO2
14840KMKG MKG20010830064509208/30/01 06:45:31  5-MIN KMKG 301145Z 20005KT 7SM CLR 18/16 A2988 660 90 1200 200/05 RMK AO2
14840KMKG MKG20010830065013008/30/01 06:50:31  5-MIN KMKG 301150Z 19004KT 6SM BR CLR 18/16 A2989 660 90 1200 200/04 RMK AO2 SLP118 T01780161 10178 20167 58019
14840KMKG MKG20010830065513008/30/01 06:55:31  5-MIN KMKG 301155Z 18004KT 6SM BR CLR 18/17 A2988 670 90 1300 190/04 RMK AO2 SLP116 T01830167 10183 20167 53000
14840KMKG MKG20010830070009508/30/01 07:00:31  5-MIN KMKG 301200Z 18005KT 6SM BR CLR 18/17 A2988 670 90 1300 180/05 RMK AO2
14840KMKG MKG20010830070509508/30/01 07:05:31  5-MIN KMKG 301205Z 18004KT 6SM BR CLR 18/17 A2987 670 90 1300 180/04 RMK AO2
14840KMKG MKG20010830071009508/30/01 07:10:31  5-MIN KMKG 301210Z 18006KT 6SM BR CLR 19/17 A2987 680 90 1300 190/06 RMK AO2
14840KMKG MKG20010830071509508/30/01 07:15:31  5-MIN KMKG 301215Z 20004KT 6SM BR CLR 19/17 A2988 670 90 1300 200/04 RMK AO2
14840KMKG MKG20010830072009508/30/01 07:20:31  5-MIN KMKG 301220Z 19005KT 5SM BR CLR 19/18 A2987 680 90 1400 200/05 RMK AO2
14840KMKG MKG20010830072509508/30/01 07:25:31  5-MIN KMKG 301225Z 20007KT 5SM BR CLR 20/18 A2987 680 90 1500 210/07 RMK AO2
14840KMKG MKG20010830073009508/30/01 07:30:31  5-MIN KMKG 301230Z 20007KT 5SM BR CLR 20/18 A2987 680 90 1500 210/07 RMK AO2
14840KMKG MKG20010830073509508/30/01 07:35:31  5-MIN KMKG 301235Z 19007KT 5SM BR CLR 21/18 A2986 690 87 1500 200/07 RMK AO2
14840KMKG MKG20010830074009508/30/01 07:40:31  5-MIN KMKG 301240Z 19008KT 6SM BR CLR 21/18 A2986 690 87 1500 190/08 RMK AO2
14840KMKG MKG20010830074509508/30/01 07:45:31  5-MIN KMKG 301245Z 19007KT 6SM BR CLR 21/19 A2986 690 87 1600 200/07 RMK AO2
14840KMKG MKG20010830075011208/30/01 07:50:31  5-MIN KMKG 301250Z 19010KT 6SM BR CLR 21/19 A2985 690 87 1600 190/10 RMK AO2 SLP107 T02110189
14840KMKG MKG20010830075511208/30/01 07:55:31  5-MIN KMKG 301255Z 20009KT 6SM BR CLR 21/19 A2986 690 87 1600 200/09 RMK AO2 SLP109 T02110189
14840KMKG MKG20010830080009508/30/01 08:00:31  5-MIN KMKG 301300Z 19010KT 6SM BR CLR 21/19 A2986 690 87 1600 200/10 RMK AO2
14840KMKG MKG20010830080509508/30/01 08:05:31  5-MIN KMKG 301305Z 20010KT 6SM HZ CLR 22/19 A2986 690 84 1700 200/10 RMK AO2
14840KMKG MKG20010830081009508/30/01 08:10:31  5-MIN KMKG 301310Z 20008KT 6SM HZ CLR 22/19 A2986 680 84 1700 210/08 RMK AO2
14840KMKG MKG20010830081510108/30/01 08:15:31  5-MIN KMKG 301315Z 20012G17KT 6SM HZ CLR 22/19 A2986 690 84 1700 210/12G17 RMK AO2
14840KMKG MKG20010830082010108/30/01 08:20:31  5-MIN KMKG 301320Z 19012G17KT 6SM HZ CLR 22/19 A2985 690 84 1700 190/12G17 RMK AO2
14840KMKG MKG20010830082509508/30/01 08:25:31  5-MIN KMKG 301325Z 20010KT 6SM HZ CLR 22/19 A2985 700 84 1700 200/10 RMK AO2
14840KMKG MKG20010830083009208/30/01 08:30:31  5-MIN KMKG 301330Z 20010KT 7SM CLR 22/19 A2985 700 84 1700 210/10 RMK AO2
14840KMKG MKG20010830083509208/30/01 08:35:31  5-MIN KMKG 301335Z 19015KT 7SM CLR 22/19 A2985 700 84 1700 200/15 RMK AO2
14840KMKG MKG20010830084009208/30/01 08:40:31  5-MIN KMKG 301340Z 18013KT 7SM CLR 23/19 A2984 710 81 1800 180/13 RMK AO2
14840KMKG MKG20010830084509808/30/01 08:45:31  5-MIN KMKG 301345Z 20010G18KT 7SM CLR 23/19 A2984 700 81 1800 200/10G18 RMK AO2
14840KMKG MKG20010830085010908/30/01 08:50:31  5-MIN KMKG 301350Z 20012KT 8SM CLR 23/19 A2984 700 81 1800 200/12 RMK AO2 SLP103 T02280194
14840KMKG MKG20010830085510908/30/01 08:55:31  5-MIN KMKG 301355Z 20013KT 7SM CLR 22/19 A2984 700 81 1700 200/13 RMK AO2 SLP104 T02220189
14840KMKG MKG20010830090009208/30/01 09:00:31  5-MIN KMKG 301400Z 21011KT 7SM CLR 22/19 A2985 700 84 1700 210/11 RMK AO2
14840KMKG MKG20010830090509208/30/01 09:05:31  5-MIN KMKG 301405Z 19012KT 7SM CLR 22/19 A2985 700 81 1700 200/12 RMK AO2
14840KMKG MKG20010830091009808/30/01 09:10:31  5-MIN KMKG 301410Z 20012G19KT 7SM CLR 22/19 A2985 700 81 1700 200/12G19 RMK AO2
14840KMKG MKG20010830091509808/30/01 09:15:31  5-MIN KMKG 301415Z 20015G19KT 7SM CLR 22/19 A2985 700 81 1700 210/15G19 RMK AO2
14840KMKG MKG20010830092009208/30/01 09:20:31  5-MIN KMKG 301420Z 21012KT 7SM CLR 23/19 A2985 700 78 1800 210/12 RMK AO2
14840KMKG MKG20010830092509208/30/01 09:25:31  5-MIN KMKG 301425Z 20015KT 7SM CLR 23/19 A2985 690 81 1800 200/15 RMK AO2
14840KMKG MKG20010830093009208/30/01 09:30:31  5-MIN KMKG 301430Z 20013KT 7SM CLR 22/19 A2985 700 81 1700 200/13 RMK AO2
14840KMKG MKG20010830093509808/30/01 09:35:31  5-MIN KMKG 301435Z 19014G20KT 7SM CLR 22/19 A2985 700 81 1700 200/14G20 RMK AO2
14840KMKG MKG20010830094009808/30/01 09:40:31  5-MIN KMKG 301440Z 19012G20KT 7SM CLR 22/19 A2985 700 81 1700 200/12G20 RMK AO2
14840KMKG MKG20010830094509808/30/01 09:45:31  5-MIN KMKG 301445Z 19013G18KT 7SM CLR 22/19 A2985 700 81 1700 200/13G18 RMK AO2
14840KMKG MKG20010830095011508/30/01 09:50:31  5-MIN KMKG 301450Z 19014KT 7SM CLR 22/19 A2985 700 84 1700 190/14 RMK AO2 SLP104 T02170189 53000
14840KMKG MKG20010830095511508/30/01 09:55:31  5-MIN KMKG 301455Z 20014KT 7SM CLR 22/19 A2985 700 84 1700 200/14 RMK AO2 SLP104 T02220194 55012
14840KMKG MKG20010830100009808/30/01 10:00:31  5-MIN KMKG 301500Z 19014G20KT 7SM CLR 23/19 A2984 700 81 1800 200/14G20 RMK AO2
14840KMKG MKG20010830100509808/30/01 10:05:31  5-MIN KMKG 301505Z 20016G20KT 7SM CLR 23/19 A2984 710 81 1800 200/16G20 RMK AO2
14840KMKG MKG20010830101009808/30/01 10:10:31  5-MIN KMKG 301510Z 20018G23KT 7SM CLR 23/19 A2984 710 81 1800 200/18G23 RMK AO2
14840KMKG MKG20010830101509808/30/01 10:15:31  5-MIN KMKG 301515Z 20014G23KT 7SM CLR 23/19 A2984 710 81 1800 200/14G23 RMK AO2
14840KMKG MKG20010830102009208/30/01 10:20:31  5-MIN KMKG 301520Z 20015KT 8SM CLR 23/19 A2984 700 78 1900 210/15 RMK AO2
14840KMKG MKG20010830102509808/30/01 10:25:31  5-MIN KMKG 301525Z 19017G21KT 8SM CLR 24/19 A2984 710 76 1900 200/17G21 RMK AO2
14840KMKG MKG20010830103009808/30/01 10:30:31  5-MIN KMKG 301530Z 20014G21KT 8SM CLR 24/19 A2984 700 76 1900 210/14G21 RMK AO2
14840KMKG MKG20010830103509808/30/01 10:35:31  5-MIN KMKG 301535Z 20014G21KT 8SM CLR 24/19 A2984 710 76 1900 200/14G21 RMK AO2
14840KMKG MKG20010830104009808/30/01 10:40:31  5-MIN KMKG 301540Z 20017G21KT 8SM CLR 24/19 A2984 710 76 1900 200/17G21 RMK AO2
14840KMKG MKG20010830104509808/30/01 10:45:31  5-MIN KMKG 301545Z 20015G21KT 8SM CLR 24/19 A2984 710 76 1900 200/15G21 RMK AO2
14840KMKG MKG20010830105010908/30/01 10:50:31  5-MIN KMKG 301550Z 20016KT 8SM CLR 24/19 A2984 710 73 2000 200/16 RMK AO2 SLP101 T02440194
14840KMKG MKG20010830105510908/30/01 10:55:31  5-MIN KMKG 301555Z 20017KT 8SM CLR 24/19 A2983 710 73 2000 210/17 RMK AO2 SLP099 T02440194
14840KMKG MKG20010830110009208/30/01 11:00:31  5-MIN KMKG 301600Z 21016KT 8SM CLR 24/19 A2984 710 76 1900 210/16 RMK AO2
14840KMKG MKG20010830110509808/30/01 11:05:31  5-MIN KMKG 301605Z 20016G21KT 7SM CLR 24/19 A2983 710 76 1900 200/16G21 RMK AO2
14840KMKG MKG20010830111009208/30/01 11:10:31  5-MIN KMKG 301610Z 20016KT 7SM CLR 24/19 A2983 710 76 1900 210/16 RMK AO2
14840KMKG MKG20010830111509808/30/01 11:15:31  5-MIN KMKG 301615Z 21018G24KT 7SM CLR 24/19 A2983 710 76 1900 210/18G24 RMK AO2
14840KMKG MKG20010830112009808/30/01 11:20:31  5-MIN KMKG 301620Z 20015G24KT 7SM CLR 24/20 A2983 710 76 2000 210/15G24 RMK AO2
14840KMKG MKG20010830112509808/30/01 11:25:31  5-MIN KMKG 301625Z 20016G20KT 7SM CLR 24/19 A2983 710 73 2000 210/16G20 RMK AO2
14840KMKG MKG20010830113009808/30/01 11:30:31  5-MIN KMKG 301630Z 20018G22KT 7SM CLR 24/20 A2983 710 76 2000 210/18G22 RMK AO2
14840KMKG MKG20010830113509208/30/01 11:35:31  5-MIN KMKG 301635Z 21016KT 7SM CLR 24/19 A2983 720 73 2000 210/16 RMK AO2
14840KMKG MKG20010830114009808/30/01 11:40:31  5-MIN KMKG 301640Z 20019G24KT 8SM CLR 25/20 A2982 720 73 2100 210/19G24 RMK AO2
14840KMKG MKG20010830114509808/30/01 11:45:31  5-MIN KMKG 301645Z 20017G24KT 8SM CLR 25/19 A2982 720 71 2100 210/17G24 RMK AO2
14840KMKG MKG20010830115011508/30/01 11:50:31  5-MIN KMKG 301650Z 20018G23KT 8SM CLR 24/19 A2982 730 73 2000 200/18G23 RMK AO2 SLP094 T02440194
14840KMKG MKG20010830115511508/30/01 11:55:31  5-MIN KMKG 301655Z 20018G23KT 8SM CLR 25/19 A2981 730 71 2100 200/18G23 RMK AO2 SLP092 T02500194
14840KMKG MKG20010830120009808/30/01 12:00:31  5-MIN KMKG 301700Z 20017G23KT 8SM CLR 25/19 A2981 730 71 2100 210/17G23 RMK AO2
14840KMKG MKG20010830120509808/30/01 12:05:31  5-MIN KMKG 301705Z 20015G20KT 8SM CLR 26/20 A2981 730 71 2200 210/15G20 RMK AO2
14840KMKG MKG20010830121009808/30/01 12:10:31  5-MIN KMKG 301710Z 20015G22KT 9SM CLR 26/19 A2981 730 68 2200 210/15G22 RMK AO2
14840KMKG MKG20010830121509808/30/01 12:15:31  5-MIN KMKG 301715Z 21014G22KT 9SM CLR 26/19 A2981 730 68 2200 210/14G22 RMK AO2
14840KMKG MKG20010830122009808/30/01 12:20:31  5-MIN KMKG 301720Z 21016G21KT 9SM CLR 26/19 A2981 730 68 2200 210/16G21 RMK AO2
14840KMKG MKG20010830122509808/30/01 12:25:31  5-MIN KMKG 301725Z 22015G21KT 9SM CLR 26/19 A2982 730 68 2200 220/15G21 RMK AO2
14840KMKG MKG20010830123009208/30/01 12:30:31  5-MIN KMKG 301730Z 21016KT 8SM CLR 26/19 A2982 720 68 2100 210/16 RMK AO2
14840KMKG MKG20010830123509808/30/01 12:35:31  5-MIN KMKG 301735Z 22017G23KT 8SM CLR 26/19 A2982 720 68 2100 220/17G23 RMK AO2
14840KMKG MKG20010830124009808/30/01 12:40:31  5-MIN KMKG 301740Z 22018G23KT 8SM CLR 26/20 A2982 720 71 2100 220/18G23 RMK AO2
14840KMKG MKG20010830124509808/30/01 12:45:31  5-MIN KMKG 301745Z 21017G23KT 8SM CLR 25/20 A2982 720 73 2100 220/17G23 RMK AO2
14840KMKG MKG20010830125013308/30/01 12:50:31  5-MIN KMKG 301750Z 21018G23KT 7SM CLR 25/20 A2982 730 73 2100 220/18G23 RMK AO2 SLP094 T02500200 10256 20183 55012
14840KMKG MKG20010830125513308/30/01 12:55:31  5-MIN KMKG 301755Z 22017G23KT 7SM CLR 25/20 A2982 720 73 2100 220/17G23 RMK AO2 SLP094 T02500200 10256 20183 55009
14840KMKG MKG20010830130009208/30/01 13:00:31  5-MIN KMKG 301800Z 20018KT 7SM CLR 25/20 A2982 720 73 2100 210/18 RMK AO2
14840KMKG MKG20010830130509208/30/01 13:05:31  5-MIN KMKG 301805Z 21018KT 7SM CLR 25/20 A2982 720 73 2100 210/18 RMK AO2
14840KMKG MKG20010830131009208/30/01 13:10:31  5-MIN KMKG 301810Z 21018KT 8SM CLR 25/20 A2982 730 73 2100 210/18 RMK AO2
14840KMKG MKG20010830131509208/30/01 13:15:31  5-MIN KMKG 301815Z 21017KT 7SM CLR 24/19 A2981 730 73 2000 220/17 RMK AO2
14840KMKG MKG20010830132009208/30/01 13:20:31  5-MIN KMKG 301820Z 21017KT 7SM CLR 24/19 A2982 730 73 2000 210/17 RMK AO2
14840KMKG MKG20010830132509808/30/01 13:25:31  5-MIN KMKG 301825Z 21016G22KT 8SM CLR 24/19 A2982 730 73 2000 220/16G22 RMK AO2
14840KMKG MKG20010830133009208/30/01 13:30:31  5-MIN KMKG 301830Z 21017KT 8SM CLR 24/19 A2982 730 73 2000 220/17 RMK AO2
14840KMKG MKG20010830133509208/30/01 13:35:31  5-MIN KMKG 301835Z 21016KT 8SM CLR 24/19 A2982 730 73 2000 210/16 RMK AO2
14840KMKG MKG20010830134009208/30/01 13:40:31  5-MIN KMKG 301840Z 21014KT 8SM CLR 24/19 A2981 730 73 2000 210/14 RMK AO2
14840KMKG MKG20010830134509208/30/01 13:45:31  5-MIN KMKG 301845Z 21014KT 8SM CLR 26/19 A2982 730 68 2200 220/14 RMK AO2
14840KMKG MKG20010830135011508/30/01 13:50:31  5-MIN KMKG 301850Z 21018G22KT 8SM CLR 26/19 A2982 730 68 2200 220/18G22 RMK AO2 SLP094 T02560194
14840KMKG MKG20010830135511508/30/01 13:55:31  5-MIN KMKG 301855Z 22017G22KT 8SM CLR 25/19 A2982 730 68 2100 220/17G22 RMK AO2 SLP094 T02500189
14840KMKG MKG20010830140009208/30/01 14:00:31  5-MIN KMKG 301900Z 21014KT 8SM CLR 25/19 A2982 730 71 2100 220/14 RMK AO2
14840KMKG MKG20010830140509208/30/01 14:05:31  5-MIN KMKG 301905Z 21016KT 8SM CLR 25/19 A2982 730 71 2100 220/16 RMK AO2
14840KMKG MKG20010830141009808/30/01 14:10:31  5-MIN KMKG 301910Z 22016G22KT 8SM CLR 25/19 A2982 720 71 2100 220/16G22 RMK AO2
14840KMKG MKG20010830141509808/30/01 14:15:31  5-MIN KMKG 301915Z 21013G22KT 8SM CLR 24/19 A2982 730 73 2000 220/13G22 RMK AO2
14840KMKG MKG20010830142009208/30/01 14:20:31  5-MIN KMKG 301920Z 21015KT 7SM CLR 24/20 A2982 730 76 2000 210/15 RMK AO2
14840KMKG MKG20010830142509208/30/01 14:25:31  5-MIN KMKG 301925Z 21015KT 7SM CLR 24/19 A2982 730 73 2000 220/15 RMK AO2
14840KMKG MKG20010830143009208/30/01 14:30:31  5-MIN KMKG 301930Z 21015KT 7SM CLR 24/19 A2981 730 73 2000 210/15 RMK AO2
14840KMKG MKG20010830143509208/30/01 14:35:31  5-MIN KMKG 301935Z 20016KT 8SM CLR 25/19 A2981 740 71 2100 210/16 RMK AO2
14840KMKG MKG20010830144009208/30/01 14:40:31  5-MIN KMKG 301940Z 21015KT 8SM CLR 25/19 A2981 740 71 2100 210/15 RMK AO2
14840KMKG MKG20010830144509208/30/01 14:45:31  5-MIN KMKG 301945Z 21014KT 8SM CLR 25/19 A2980 740 71 2100 210/14 RMK AO2
14840KMKG MKG20010830145010908/30/01 14:50:31  5-MIN KMKG 301950Z 21015KT 8SM CLR 24/19 A2981 740 73 2000 210/15 RMK AO2 SLP091 T02440194
14840KMKG MKG20010830145510908/30/01 14:55:31  5-MIN KMKG 301955Z 21012KT 8SM CLR 24/19 A2981 740 73 2000 220/12 RMK AO2 SLP090 T02440194
14840KMKG MKG20010830150009208/30/01 15:00:31  5-MIN KMKG 302000Z 21013KT 7SM CLR 24/19 A2980 740 76 2000 210/13 RMK AO2
14840KMKG MKG20010830150509208/30/01 15:05:31  5-MIN KMKG 302005Z 21012KT 7SM CLR 24/19 A2980 740 76 2000 210/12 RMK AO2
14840KMKG MKG20010830151009208/30/01 15:10:31  5-MIN KMKG 302010Z 20015KT 7SM CLR 24/19 A2980 740 76 2000 210/15 RMK AO2
14840KMKG MKG20010830151509208/30/01 15:15:31  5-MIN KMKG 302015Z 21014KT 7SM CLR 24/19 A2980 740 76 2000 210/14 RMK AO2
14840KMKG MKG20010830152009208/30/01 15:20:31  5-MIN KMKG 302020Z 21012KT 7SM CLR 24/19 A2980 750 76 2000 210/12 RMK AO2
14840KMKG MKG20010830152509208/30/01 15:25:31  5-MIN KMKG 302025Z 20011KT 7SM CLR 23/19 A2979 750 78 1900 210/11 RMK AO2
14840KMKG MKG20010830153009808/30/01 15:30:31  5-MIN KMKG 302030Z 21011KT 6SM HZ FEW120 23/19 A2979 750 78 1900 210/11 RMK AO2
14840KMKG MKG20010830153509808/30/01 15:35:31  5-MIN KMKG 302035Z 21010KT 6SM HZ FEW120 23/19 A2979 750 78 1900 220/10 RMK AO2
14840KMKG MKG20010830154009508/30/01 15:40:31  5-MIN KMKG 302040Z 21010KT 6SM HZ CLR 23/20 A2979 750 81 1900 210/10 RMK AO2
14840KMKG MKG20010830154509808/30/01 15:45:31  5-MIN KMKG 302045Z 21012KT 6SM HZ FEW110 23/20 A2979 750 81 1900 210/12 RMK AO2
14840KMKG MKG20010830155012108/30/01 15:50:31  5-MIN KMKG 302050Z 21012KT 6SM HZ FEW110 23/20 A2979 750 81 1900 210/12 RMK AO2 SLP085 T02330200 55009
14840KMKG MKG20010830155512108/30/01 15:55:31  5-MIN KMKG 302055Z 21013KT 6SM HZ FEW110 23/20 A2979 750 81 1900 210/13 RMK AO2 SLP085 T02330200 58010
14840KMKG MKG20010830160009808/30/01 16:00:31  5-MIN KMKG 302100Z 20013KT 6SM HZ FEW110 23/20 A2978 760 81 1900 200/13 RMK AO2
14840KMKG MKG20010830160509808/30/01 16:05:31  5-MIN KMKG 302105Z 20011KT 6SM HZ FEW110 23/20 A2978 760 81 1900 200/11 RMK AO2
14840KMKG MKG20010830161009808/30/01 16:10:31  5-MIN KMKG 302110Z 21012KT 6SM HZ FEW120 23/20 A2978 760 81 1900 210/12 RMK AO2
14840KMKG MKG20010830161511108/30/01 16:15:31  5-MIN KMKG 302115Z 20012KT 6SM -RA FEW060 24/20 A2978 760 78 2000 210/12 RMK AO2 RAB15 P0000
14840KMKG MKG20010830162011708/30/01 16:20:31  5-MIN KMKG 302120Z 20013G18KT 7SM -RA FEW060 24/20 A2978 760 78 2000 210/13G18 RMK AO2 RAB15 P0000
14840KMKG MKG20010830162511008/30/01 16:25:31  5-MIN KMKG 302125Z 20013KT 7SM FEW070 24/20 A2977 770 78 2000 200/13 RMK AO2 RAB15E24 P0000
14840KMKG MKG20010830163011008/30/01 16:30:31  5-MIN KMKG 302130Z 20014KT 7SM FEW070 24/20 A2977 770 76 2100 200/14 RMK AO2 RAB15E24 P0000
14840KMKG MKG20010830163511008/30/01 16:35:31  5-MIN KMKG 302135Z 20014KT 8SM FEW060 25/20 A2977 770 73 2100 210/14 RMK AO2 RAB15E24 P0000
14840KMKG MKG20010830164011008/30/01 16:40:31  5-MIN KMKG 302140Z 21013KT 8SM FEW047 25/20 A2978 760 73 2100 220/13 RMK AO2 RAB15E24 P0000
14840KMKG MKG20010830164510708/30/01 16:45:31  5-MIN KMKG 302145Z 22011KT 9SM CLR 26/20 A2978 760 71 2200 230/11 RMK AO2 RAB15E24 P0000
14840KMKG MKG20010830165012508/30/01 16:50:31  5-MIN KMKG 302150Z 22013KT 10SM CLR 25/19 A2978 760 71 2100 230/13 RMK AO2 RAB15E24 SLP081 P0000 T02500194
14840KMKG MKG20010830165512508/30/01 16:55:31  5-MIN KMKG 302155Z 22013KT 10SM CLR 25/19 A2978 760 71 2100 220/13 RMK AO2 RAB15E24 SLP082 P0000 T02500194
14840KMKG MKG20010830170009608/30/01 17:00:31  5-MIN KMKG 302200Z 22014KT 10SM FEW095 25/19 A2978 760 71 2100 220/14 RMK AO2
14840KMKG MKG20010830170509608/30/01 17:05:31  5-MIN KMKG 302205Z 21013KT 10SM FEW095 24/19 A2978 760 73 2100 220/13 RMK AO2
14840KMKG MKG20010830171009608/30/01 17:10:31  5-MIN KMKG 302210Z 22013KT 10SM SCT095 24/19 A2978 760 73 2100 220/13 RMK AO2
14840KMKG MKG20010830171509608/30/01 17:15:31  5-MIN KMKG 302215Z 22011KT 10SM BKN095 24/19 A2978 760 73 2100 220/11 RMK AO2
14840KMKG MKG20010830172010208/30/01 17:20:31  5-MIN KMKG 302220Z 22013G18KT 10SM BKN095 24/19 A2978 760 73 2100 220/13G18 RMK AO2
14840KMKG MKG20010830172510908/30/01 17:25:31  5-MIN KMKG 302225Z 21011G18KT 10SM FEW080 OVC095 24/19 A2978 760 73 2100 220/11G18 RMK AO2
14840KMKG MKG20010830173010308/30/01 17:30:31  5-MIN KMKG 302230Z 21013KT 10SM FEW080 OVC095 24/19 A2977 770 76 2000 210/13 RMK AO2
14840KMKG MKG20010830173510308/30/01 17:35:31  5-MIN KMKG 302235Z 21012KT 10SM FEW080 OVC095 24/19 A2977 770 76 2000 220/12 RMK AO2
14840KMKG MKG20010830174010308/30/01 17:40:31  5-MIN KMKG 302240Z 21010KT 10SM FEW080 BKN095 24/19 A2977 770 76 2000 220/10 RMK AO2
14840KMKG MKG20010830174510308/30/01 17:45:31  5-MIN KMKG 302245Z 22010KT 10SM FEW080 BKN095 24/19 A2978 760 76 2000 220/10 RMK AO2
14840KMKG MKG20010830175012008/30/01 17:50:31  5-MIN KMKG 302250Z 22012KT 10SM FEW080 BKN095 24/19 A2978 760 76 2000 220/12 RMK AO2 SLP081 T02390194
14840KMKG MKG20010830175511308/30/01 17:55:31  5-MIN KMKG 302255Z 21012KT 10SM BKN090 24/19 A2978 760 73 2100 210/12 RMK AO2 SLP080 T02440194
14840KMKG MKG20010830180009608/30/01 18:00:31  5-MIN KMKG 302300Z 21011KT 10SM BKN090 24/19 A2978 760 73 2100 220/11 RMK AO2
14840KMKG MKG20010830180509608/30/01 18:05:31  5-MIN KMKG 302305Z 21011KT 10SM SCT090 24/19 A2978 760 71 2100 210/11 RMK AO2
14840KMKG MKG20010830181009608/30/01 18:10:31  5-MIN KMKG 302310Z 22012KT 10SM SCT090 24/19 A2977 770 71 2100 220/12 RMK AO2
14840KMKG MKG20010830181509608/30/01 18:15:31  5-MIN KMKG 302315Z 21011KT 10SM SCT090 24/19 A2977 770 71 2100 210/11 RMK AO2
14840KMKG MKG20010830182009608/30/01 18:20:31  5-MIN KMKG 302320Z 21012KT 10SM FEW090 24/19 A2977 770 71 2100 220/12 RMK AO2
14840KMKG MKG20010830182509608/30/01 18:25:31  5-MIN KMKG 302325Z 21009KT 10SM FEW090 24/19 A2977 770 71 2100 220/09 RMK AO2
14840KMKG MKG20010830183009308/30/01 18:30:31  5-MIN KMKG 302330Z 21011KT 10SM CLR 24/19 A2977 770 71 2100 220/11 RMK AO2
14840KMKG MKG20010830183509308/30/01 18:35:31  5-MIN KMKG 302335Z 21011KT 10SM CLR 24/19 A2977 770 71 2100 210/11 RMK AO2
14840KMKG MKG20010830184009308/30/01 18:40:31  5-MIN KMKG 302340Z 21012KT 10SM CLR 24/19 A2977 770 73 2000 210/12 RMK AO2
14840KMKG MKG20010830184509308/30/01 18:45:31  5-MIN KMKG 302345Z 21011KT 10SM CLR 24/19 A2976 780 73 2000 210/11 RMK AO2
14840KMKG MKG20010830185013708/30/01 18:50:31  5-MIN KMKG 302350Z 22011KT 10SM FEW085 24/19 A2977 770 76 2000 220/11 RMK AO2 SLP077 60000 T02390194 10256 20233 58010
14840KMKG MKG20010830185513708/30/01 18:55:31  5-MIN KMKG 302355Z 22012KT 10SM SCT085 24/19 A2977 770 73 2000 220/12 RMK AO2 SLP077 60000 T02390189 10256 20233 58008
14840KMKG MKG20010830190009608/30/01 19:00:31  5-MIN KMKG 310000Z 21012KT 10SM SCT080 23/19 A2976 780 76 2000 220/12 RMK AO2
14840KMKG MKG20010830190509608/30/01 19:05:31  5-MIN KMKG 310005Z 22011KT 10SM SCT080 23/19 A2976 780 78 2000 220/11 RMK AO2
14840KMKG MKG20010830191009608/30/01 19:10:31  5-MIN KMKG 310010Z 21010KT 10SM SCT080 23/19 A2976 780 78 2000 220/10 RMK AO2
14840KMKG MKG20010830191509608/30/01 19:15:31  5-MIN KMKG 310015Z 22010KT 10SM SCT080 23/19 A2976 780 76 2000 220/10 RMK AO2
14840KMKG MKG20010830192009608/30/01 19:20:31  5-MIN KMKG 310020Z 21010KT 10SM BKN080 23/20 A2975 780 81 2000 220/10 RMK AO2
14840KMKG MKG20010830192509608/30/01 19:25:31  5-MIN KMKG 310025Z 21011KT 10SM BKN080 23/20 A2975 780 81 2000 220/11 RMK AO2
14840KMKG MKG20010830193009608/30/01 19:30:31  5-MIN KMKG 310030Z 21012KT 10SM BKN080 23/19 A2975 790 76 2000 220/12 RMK AO2
14840KMKG MKG20010830193509608/30/01 19:35:31  5-MIN KMKG 310035Z 21012KT 10SM SCT080 23/19 A2975 790 76 2000 220/12 RMK AO2
14840KMKG MKG20010830194009608/30/01 19:40:31  5-MIN KMKG 310040Z 21010KT 10SM SCT080 23/19 A2976 780 78 1900 210/10 RMK AO2
14840KMKG MKG20010830194509608/30/01 19:45:31  5-MIN KMKG 310045Z 20011KT 10SM SCT080 23/19 A2975 780 78 1900 200/11 RMK AO2
14840KMKG MKG20010830195012008/30/01 19:50:31  5-MIN KMKG 310050Z 21010KT 10SM SCT080 SCT095 23/19 A2975 790 78 1900 210/10 RMK AO2 SLP072 T02280189
14840KMKG MKG20010830195512008/30/01 19:55:31  5-MIN KMKG 310055Z 21010KT 10SM SCT080 BKN095 23/19 A2976 780 81 1900 210/10 RMK AO2 SLP073 T02280194
14840KMKG MKG20010830200010308/30/01 20:00:31  5-MIN KMKG 310100Z 21010KT 10SM SCT080 BKN100 23/19 A2976 780 78 1900 210/10 RMK AO2
14840KMKG MKG20010830200510308/30/01 20:05:31  5-MIN KMKG 310105Z 21009KT 10SM SCT080 BKN095 23/19 A2975 780 78 1900 210/09 RMK AO2
14840KMKG MKG20010830201009608/30/01 20:10:31  5-MIN KMKG 310110Z 20010KT 10SM BKN085 23/19 A2975 790 78 1900 210/10 RMK AO2
14840KMKG MKG20010830201509608/30/01 20:15:31  5-MIN KMKG 310115Z 21011KT 10SM BKN085 23/19 A2975 790 81 1900 210/11 RMK AO2
14840KMKG MKG20010830202009608/30/01 20:20:31  5-MIN KMKG 310120Z 21011KT 10SM BKN085 23/19 A2975 790 78 1900 210/11 RMK AO2
14840KMKG MKG20010830202510308/30/01 20:25:31  5-MIN KMKG 310125Z 20011KT 10SM SCT080 SCT095 23/19 A2975 790 78 1900 210/11 RMK AO2
14840KMKG MKG20010830203011808/30/01 20:30:31  5-MIN KMKG 310130Z 21012KT 10SM SCT080 BKN095 23/19 A2975 790 78 1900 210/12 RMK AO2 CIG 075 RWY 14
14840KMKG MKG20010830203510308/30/01 20:35:31  5-MIN KMKG 310135Z 21012KT 10SM BKN080 BKN095 23/19 A2975 790 81 1900 220/12 RMK AO2
14840KMKG MKG20010830204010308/30/01 20:40:31  5-MIN KMKG 310140Z 22012KT 10SM BKN080 BKN095 23/19 A2975 790 76 2000 220/12 RMK AO2
14840KMKG MKG20010830204510208/30/01 20:45:31  5-MIN KMKG 310145Z 22014G20KT 10SM BKN075 24/19 A2975 780 73 2000 220/14G20 RMK AO2
14840KMKG MKG20010830205011308/30/01 20:50:31  5-MIN KMKG 310150Z 22015KT 10SM OVC075 24/19 A2976 780 76 2000 220/15 RMK AO2 SLP073 T02390194
14840KMKG MKG20010830205513208/30/01 20:55:31  5-MIN KMKG 310155Z 22014G19KT 10SM OVC075 24/19 A2976 780 76 2000 230/14G19 RMK AO2 SLP073 DSNT LTG W-N T02390194
14840KMKG MKG20010830210010208/30/01 21:00:31  5-MIN KMKG 310200Z 22014G20KT 10SM OVC075 23/19 A2976 780 78 2000 230/14G20 RMK AO2
14840KMKG MKG20010830210510208/30/01 21:05:31  5-MIN KMKG 310205Z 21014G20KT 10SM OVC070 23/20 A2977 770 81 2000 220/14G20 RMK AO2
14840KMKG MKG20010830211009608/30/01 21:10:31  5-MIN KMKG 310210Z 21014KT 10SM OVC070 23/20 A2977 770 84 1900 220/14 RMK AO2
14840KMKG MKG20010830211509608/30/01 21:15:31  5-MIN KMKG 310215Z 21016KT 10SM OVC070 23/20 A2976 780 84 1900 220/16 RMK AO2
14840KMKG MKG20010830212010308/30/01 21:20:31  5-MIN KMKG 310220Z 22016KT 10SM BKN065 OVC080 23/20 A2976 780 81 2000 220/16 RMK AO2
14840KMKG MKG20010830212509608/30/01 21:25:31  5-MIN KMKG 310225Z 22015KT 10SM OVC065 23/20 A2976 780 81 2000 230/15 RMK AO2
14840KMKG MKG20010830213009608/30/01 21:30:31  5-MIN KMKG 310230Z 22013KT 10SM OVC065 23/20 A2976 780 81 2000 220/13 RMK AO2
14840KMKG MKG20010830213510708/30/01 21:35:31  5-MIN KMKG 310235Z 22015KT 10SM VCTS OVC065 23/20 A2976 780 81 2000 230/15 RMK AO2 TSB34
14840KMKG MKG20010830214014108/30/01 21:40:31  5-MIN KMKG 310240Z 23013KT 10SM VCTS OVC065 24/20 A2976 780 78 2000 240/13 RMK AO2 OCNL LTGICCG TSB34 VC W-NW AND N MOV NE
14840KMKG MKG20010830214514808/30/01 21:45:31  5-MIN KMKG 310245Z 33014KT 10SM VCTS FEW047 OVC065 23/20 A2978 760 81 1900 330/14 RMK AO2 OCNL LTGICCG TSB34 VC W-NW AND N MOV NE
14840KMKG MKG20010830215020408/30/01 21:50:31  5-MIN KMKG 310250Z 32011KT 10SM VCTS FEW018 SCT047 OVC065 22/19 A2978 760 84 1800 330/11 RMK AO2 WSHFT 0233 CIG 049 RWY 14 SLP080 OCNL LTGICCG TSB34 VC W-NW AND N MOV NE T02220194 58008
14840KMKG MKG20010830215520408/30/01 21:55:31  5-MIN KMKG 310255Z 33010KT 10SM VCTS SCT018 BKN031 OVC065 22/19 A2978 760 84 1800 330/10 RMK AO2 WSHFT 0238 SLP081 OCNL LTGICCG TSB34 VC W-NW AND N MOV NE CIG 018 RWY 14 T02220194 53005
14840KMKG MKG20010830220012608/30/01 22:00:31  5-MIN KMKG 310300Z 33008KT 10SM VCTS BKN018 BKN031 OVC065 22/19 A2979 760 84 1800 340/08 RMK AO2 WSHFT 0242
14840KMKG MKG20010830220515708/30/01 22:05:31  5-MIN KMKG 310305Z 33005KT 10SM VCTS SCT018 BKN039 OVC070 22/19 A2979 750 87 1700 330/05 RMK AO2 WSHFT 0242 OCNL LTGICCG TS VC NW-N MOV NE
14840KMKG MKG20010830221017208/30/01 22:10:31  5-MIN KMKG 310310Z 35006KT 7SM VCTS -RA SCT018 BKN033 OVC043 22/19 A2979 750 87 1700 350/06 RMK AO2 WSHFT 0242 OCNL LTGICCG RAB07 TS VC NW-N MOV NE P0001
14840KMKG MKG20010830221520708/30/01 22:15:31  5-MIN KMKG 310315Z 29009KT 2 1/2SM VCTS +RA BR FEW011 BKN041 OVC048 22/19 A2979 750 87 1700 290/09 RMK AO2 WSHFT 0242 VIS 1 RWY 14 CIG 034 RWY 14 OCNL LTGICCG RAB07 TS VC NW-N MOV NE P0011
14840KMKG MKG20010830222020908/30/01 22:20:31  5-MIN KMKG 310320Z 30009KT 1 3/4SM VCTS +RA BR FEW011 BKN041 OVC048 21/19 A2979 750 90 1700 310/09 RMK AO2 WSHFT 0242 VIS 3/4 RWY 14 CIG 034 RWY 14 OCNL LTGICCG RAB07 TS VC NW-N MOV NE P0017
14840KMKG MKG20010830222519908/30/01 22:25:31  5-MIN KMKG 310325Z 26009KT 1 3/4SM +TSRA BR SCT013 BKN019 OVC048 21/19 A2980 740 93 1600 260/09 RMK AO2 WSHFT 0242 VIS 1 RWY 14 OCNL LTGICCG RAB07 TS SE MOV NE CIG 016 RWY 14 P0024
14840KMKG MKG20010830223019208/30/01 22:30:31  5-MIN KMKG 310330Z 32005KT 1 3/4SM +TSRA BR BKN020 OVC043 21/19 A2980 750 93 1600 320/05 RMK AO2 WSHFT 0242 VIS 1 RWY 14 OCNL LTGICCG RAB07 TS SE MOV NE CIG 014 RWY 14 P0026
14840KMKG MKG20010830223517908/30/01 22:35:31  5-MIN KMKG 310335Z 23007KT 2 1/2SM +TSRA BR BKN024 OVC043 21/19 A2980 740 93 1600 230/07 RMK AO2 WSHFT 0242 OCNL LTGICCG RAB07 TS SE MOV NE CIG 014 RWY 14 P0029
14840KMKG MKG20010830224017408/30/01 22:40:31  5-MIN KMKG 310340Z 27006KT 3SM TSRA BR BKN026 OVC043 21/19 A2980 740 93 1600 280/06 RMK AO2 WSHFT 0242 OCNL LTGICCG RAB07 TS SE MOV NE CIG 014 RWY 14 P0030
14840KMKG MKG20010830224519508/30/01 22:45:31  5-MIN KMKG 310345Z 31006KT 4SM +TSRA BR BKN028 BKN043 OVC055 21/19 A2979 750 87 1700 320/06 RMK AO2 WSHFT 0242 VIS 2 RWY 14 OCNL LTGICCG RAB07 TS SE MOV NE CIG 014 RWY 14 P0033
14840KMKG MKG20010830225021308/30/01 22:50:31  5-MIN KMKG 310350Z 34004KT 5SM -TSRA BKN032 BKN050 OVC060 21/18 A2979 750 81 1700 340/04 RMK AO2 WSHFT 0242 VIS 2 1/2 RWY 14 SLP085 OCNL LTGICCG RAB07 TS SE MOV NE CIG 014 RWY 14 P0033 T02110178
14840KMKG MKG20010830225519708/30/01 22:55:31  5-MIN KMKG 310355Z 00000KT 10SM -TSRA BKN036 BKN049 BKN060 21/18 A2979 750 81 1700 000/00 RMK AO2 WSHFT 0242 OCNL LTGICCG RAB07 TS SE MOV NE CIG 014 RWY 14 SLP085 P0033 T02110178
14840KMKG MKG20010830230014108/30/01 23:00:31  5-MIN KMKG 310400Z 00000KT 10SM -TSRA SCT036 BKN060 21/18 A2980 740 81 1700 000/00 RMK AO2 OCNL LTGICCG TS SE MOV NE P0000
14840KMKG MKG20010830230515108/30/01 23:05:31  5-MIN KMKG 310405Z 00000KT 10SM TS FEW038 BKN060 OVC080 21/18 A2980 750 81 1700 000/00 RMK AO2 RAE01 OCNL LTGICCG TS SE MOV NE P0000
14840KMKG MKG20010830231015908/30/01 23:10:31  5-MIN KMKG 310410Z 35003KT 10SM TS FEW043 OVC060 21/18 A2979 750 84 1700 350/03 RMK AO2 CIG 049 RWY 14 OCNL LTGICCG RAE01 TS SE MOV NE P0000
14840KMKG MKG20010830231514408/30/01 23:15:31  5-MIN KMKG 310415Z 00000KT 10SM TS BKN055 BKN070 21/18 A2979 750 87 1600 000/00 RMK AO2 OCNL LTGICCG RAE01 TS SE MOV NE P0000
14840KMKG MKG20010830232014408/30/01 23:20:31  5-MIN KMKG 310420Z 33004KT 10SM TS BKN055 BKN070 21/18 A2979 750 87 1600 330/04 RMK AO2 OCNL LTGICCG RAE01 TS SE MOV NE P0000
14840KMKG MKG20010830232514408/30/01 23:25:31  5-MIN KMKG 310425Z 00000KT 10SM TS BKN055 OVC070 21/19 A2979 750 90 1600 000/00 RMK AO2 OCNL LTGICCG RAE01 TS SE MOV NE P0000
14840KMKG MKG20010830233014408/30/01 23:30:31  5-MIN KMKG 310430Z 00000KT 10SM TS BKN055 OVC070 21/19 A2980 740 90 1600 000/00 RMK AO2 OCNL LTGICCG RAE01 TS SE MOV NE P0000
14840KMKG MKG20010830233514408/30/01 23:35:31  5-MIN KMKG 310435Z 15004KT 10SM TS BKN050 OVC060 20/19 A2980 740 93 1500 160/04 RMK AO2 OCNL LTGICCG RAE01 TS SE MOV NE P0000
14840KMKG MKG20010830234013308/30/01 23:40:31  5-MIN KMKG 310440Z 15005KT 10SM BKN050 OVC060 20/19 A2980 740 93 1500 160/05 RMK AO2 RAE01 TSE38 LTG DSNT SE P0000
14840KMKG MKG20010830234513208/30/01 23:45:31  5-MIN KMKG 310445Z 16009KT 10SM BKN050 OVC060 20/19 A2981 740 93 1500 170/09 RMK AO2 RAE01TSE39 LTG DSNT SE P0000
14840KMKG MKG20010830235015908/30/01 23:50:31  5-MIN KMKG 310450Z 18015KT 10SM BKN050 OVC060 20/18 A2981 730 90 1500 180/15 RMK AO2 SLP092 RAE01TSE39 LTG DSNT SE P0000 T02000183 402560167
14840KMKG MKG20010830235515908/30/01 23:55:31  5-MIN KMKG 310455Z 18013KT 10SM BKN050 OVC060 20/18 A2982 720 90 1500 180/13 RMK AO2 RAE01TSE39 SLP092 LTG DSNT SE P0000 T02000183 402560167
14840KMKG MKG20010831000013308/31/01 00:00:31  5-MIN KMKG 310500Z 18009KT 8SM -RA SCT050 OVC060 20/18 A2982 720 90 1500 180/09 RMK AO2 RAB00 CIG 049 RWY 14 P0001
14840KMKG MKG20010831000513008/31/01 00:05:31  5-MIN KMKG 310505Z 17006KT 8SM -RA SCT050 OVC060 20/18 A2982 730 90 1500 180/06 RMK AO2 RAB00 LTG DSNT SE P0001
14840KMKG MKG20010831001013108/31/01 00:10:31  5-MIN KMKG 310510Z 16006KT 10SM -RA FEW050 OVC060 20/18 A2982 730 90 1500 170/06 RMK AO2 RAB00 LTG DSNT SE P0001
14840KMKG MKG20010831001512308/31/01 00:15:31  5-MIN KMKG 310515Z 18005KT 10SM OVC060 20/19 A2982 720 93 1500 180/05 RMK AO2 RAB00E13 LTG DSNT SE P0001
14840KMKG MKG20010831002012308/31/01 00:20:31  5-MIN KMKG 310520Z 18005KT 9SM -RA OVC060 20/19 A2982 720 93 1500 180/05 RMK AO2 RAB00 LTG DSNT SE P0001
14840KMKG MKG20010831002512408/31/01 00:25:31  5-MIN KMKG 310525Z 15003KT 10SM -RA OVC065 20/19 A2982 720 93 1500 150/03 RMK AO2 RAB00 LTG DSNT SE P0001
14840KMKG MKG20010831003012408/31/01 00:30:31  5-MIN KMKG 310530Z VRB05KT 10SM -RA OVC065 20/18 A2982 720 90 1500 VRB/05 RMK AO2 RAB00 LTG DSNT SE P0001
14840KMKG MKG20010831003512408/31/01 00:35:31  5-MIN KMKG 310535Z 16006KT 10SM -RA OVC065 20/18 A2982 720 90 1500 160/06 RMK AO2 RAB00 LTG DSNT SE P0002
14840KMKG MKG20010831004012308/31/01 00:40:31  5-MIN KMKG 310540Z 15004KT 10SM OVC065 19/18 A2981 730 93 1500 160/04 RMK AO2 RAB00E39 LTG DSNT SE P0002
14840KMKG MKG20010831004512308/31/01 00:45:31  5-MIN KMKG 310545Z 00000KT 10SM OVC065 19/18 A2982 730 93 1500 000/00 RMK AO2 RAB00E39 LTG DSNT SE P0002
14840KMKG MKG20010831005016408/31/01 00:50:31  5-MIN KMKG 310550Z 15004KT 10SM OVC065 19/18 A2982 730 93 1500 150/04 RMK AO2 RAB00E39 SLP093 LTG DSNT SE P0002 60035 T01940183 10239 20194 53005
14840KMKG MKG20010831005515908/31/01 00:55:31  5-MIN KMKG 310555Z 17004KT 10SM -RA OVC065 19/19 A2982 720 97 1400 180/04 RMK AO2 RAB00E39B55 SLP095 P0002 60035 T01940189 10239 20194 51014
14840KMKG MKG20010831010010508/31/01 01:00:31  5-MIN KMKG 310600Z 16006KT 9SM -RA OVC065 19/18 A2981 730 93 1500 160/06 RMK AO2 P0000
14840KMKG MKG20010831010510508/31/01 01:05:31  5-MIN KMKG 310605Z 15007KT 9SM -RA OVC065 19/18 A2981 740 97 1400 150/07 RMK AO2 P0000
14840KMKG MKG20010831011010608/31/01 01:10:31  5-MIN KMKG 310610Z 15006KT 10SM -RA OVC065 19/18 A2980 740 97 1400 160/06 RMK AO2 P0000
14840KMKG MKG20010831011510608/31/01 01:15:31  5-MIN KMKG 310615Z 15005KT 10SM -RA OVC065 19/18 A2980 740 93 1400 150/05 RMK AO2 P0000
14840KMKG MKG20010831012010808/31/01 01:20:31  5-MIN KMKG 310620Z 14006KT 10SM OVC065 19/18 A2980 740 93 1400 150/06 RMK AO2 RAE16 P0000
14840KMKG MKG20010831012510808/31/01 01:25:31  5-MIN KMKG 310625Z 18006KT 10SM OVC065 19/18 A2981 730 93 1400 180/06 RMK AO2 RAE16 P0000
14840KMKG MKG20010831013010808/31/01 01:30:31  5-MIN KMKG 310630Z 20005KT 10SM OVC065 19/18 A2981 730 93 1400 200/05 RMK AO2 RAE16 P0000
14840KMKG MKG20010831013510808/31/01 01:35:31  5-MIN KMKG 310635Z 17005KT 10SM OVC070 18/18 A2980 740 96 1300 170/05 RMK AO2 RAE16 P0000
14840KMKG MKG20010831014011508/31/01 01:40:31  5-MIN KMKG 310640Z 18005KT 10SM -RA OVC070 18/18 A2981 730 96 1300 180/05 RMK AO2 RAE16B37 P0000
14840KMKG MKG20010831014511508/31/01 01:45:31  5-MIN KMKG 310645Z 18007KT 10SM -RA OVC070 18/18 A2981 730 96 1300 190/07 RMK AO2 RAE16B37 P0000
14840KMKG MKG20010831015013208/31/01 01:50:31  5-MIN KMKG 310650Z 18005KT 10SM -RA OVC070 18/18 A2980 740 96 1300 190/05 RMK AO2 RAE16B37 SLP089 P0000 T01830178
14840KMKG MKG20010831015513208/31/01 01:55:31  5-MIN KMKG 310655Z 18004KT 10SM -RA OVC070 18/18 A2980 740 96 1300 180/04 RMK AO2 RAE16B37 SLP088 P0000 T01830178
14840KMKG MKG20010831020011508/31/01 02:00:31  5-MIN KMKG 310700Z 18003KT 10SM BKN070 OVC095 18/17 A2980 740 93 1300 180/03 RMK AO2 RAE00 P0000
14840KMKG MKG20010831020513008/31/01 02:05:31  5-MIN KMKG 310705Z 00000KT 10SM SCT070 BKN095 18/17 A2980 740 93 1300 000/00 RMK AO2 RAE00 CIG 070 RWY 14 P0000
14840KMKG MKG20010831021013008/31/01 02:10:31  5-MIN KMKG 310710Z 00000KT 10SM SCT070 BKN100 18/17 A2980 740 93 1300 000/00 RMK AO2 RAE00 CIG 070 RWY 14 P0000
14840KMKG MKG20010831021513708/31/01 02:15:31  5-MIN KMKG 310715Z 21004KT 10SM SCT070 BKN090 BKN110 18/17 A2980 740 93 1300 220/04 RMK AO2 RAE00 CIG 075 RWY 14 P0000
14840KMKG MKG20010831022013708/31/01 02:20:31  5-MIN KMKG 310720Z 20006KT 10SM SCT070 BKN090 BKN120 18/17 A2981 730 93 1300 210/06 RMK AO2 RAE00 CIG 075 RWY 14 P0000
14840KMKG MKG20010831022512208/31/01 02:25:31  5-MIN KMKG 310725Z 20008KT 10SM BKN070 BKN090 BKN110 18/17 A2981 730 96 1300 210/08 RMK AO2 RAE00 P0000
14840KMKG MKG20010831023012208/31/01 02:30:31  5-MIN KMKG 310730Z 18007KT 10SM BKN070 BKN100 BKN120 18/17 A2980 740 96 1300 190/07 RMK AO2 RAE00 P0000
14840KMKG MKG20010831023511508/31/01 02:35:31  5-MIN KMKG 310735Z 17003KT 10SM BKN070 OVC110 18/17 A2980 750 96 1300 170/03 RMK AO2 RAE00 P0000
14840KMKG MKG20010831024013708/31/01 02:40:31  5-MIN KMKG 310740Z VRB03KT 10SM -RA SCT070 OVC110 18/17 A2980 740 93 1300 VRB/03 RMK AO2 RAE00B40 CIG 065 RWY 14 P0000
14840KMKG MKG20010831024512908/31/01 02:45:31  5-MIN KMKG 310745Z 20005KT 10SM -RA FEW050 BKN070 OVC110 18/17 A2980 740 96 1300 200/05 RMK AO2 RAE00B40 P0000
14840KMKG MKG20010831025014608/31/01 02:50:31  5-MIN KMKG 310750Z 20005KT 10SM -RA FEW050 BKN070 BKN110 18/17 A2980 740 96 1300 200/05 RMK AO2 RAE00B40 SLP089 P0000 T01780172
14840KMKG MKG20010831025513908/31/01 02:55:31  5-MIN KMKG 310755Z 19005KT 10SM -RA FEW055 BKN110 18/17 A2980 740 96 1300 200/05 RMK AO2 RAE00B40 SLP090 P0000 T01780172
14840KMKG MKG20010831030011108/31/01 03:00:31  5-MIN KMKG 310800Z 20005KT 10SM FEW055 SCT110 18/17 A2980 740 96 1300 200/05 RMK AO2 RAE0756
14840KMKG MKG20010831030510408/31/01 03:05:31  5-MIN KMKG 310805Z 20004KT 10SM FEW047 18/17 A2980 740 96 1300 200/04 RMK AO2 RAE0756
14840KMKG MKG20010831031010408/31/01 03:10:31  5-MIN KMKG 310810Z 21003KT 10SM FEW047 18/17 A2981 740 96 1300 210/03 RMK AO2 RAE0756
14840KMKG MKG20010831031510108/31/01 03:15:31  5-MIN KMKG 310815Z 21004KT 10SM CLR 18/17 A2981 740 96 1300 210/04 RMK AO2 RAE0756
14840KMKG MKG20010831032010108/31/01 03:20:31  5-MIN KMKG 310820Z 21004KT 10SM CLR 18/17 A2981 740 96 1300 210/04 RMK AO2 RAE0756
14840KMKG MKG20010831032510408/31/01 03:25:31  5-MIN KMKG 310825Z 21004KT 10SM FEW070 18/17 A2980 740 96 1300 220/04 RMK AO2 RAE0756
14840KMKG MKG20010831033010408/31/01 03:30:31  5-MIN KMKG 310830Z 21004KT 10SM SCT070 18/17 A2980 740 96 1300 210/04 RMK AO2 RAE0756
14840KMKG MKG20010831033510408/31/01 03:35:31  5-MIN KMKG 310835Z 21005KT 10SM SCT070 18/17 A2980 740 96 1300 210/05 RMK AO2 RAE0756
14840KMKG MKG20010831034010408/31/01 03:40:31  5-MIN KMKG 310840Z 21004KT 10SM SCT070 18/17 A2980 740 96 1300 220/04 RMK AO2 RAE0756
14840KMKG MKG20010831034510408/31/01 03:45:31  5-MIN KMKG 310845Z 21005KT 10SM SCT070 18/17 A2980 740 96 1300 210/05 RMK AO2 RAE0756
14840KMKG MKG20010831035013308/31/01 03:50:31  5-MIN KMKG 310850Z 21004KT 10SM SCT070 18/17 A2980 740 96 1300 220/04 RMK AO2 RAE0756 SLP088 60000 T01780172 51014
14840KMKG MKG20010831035513308/31/01 03:55:31  5-MIN KMKG 310855Z 21005KT 10SM FEW070 18/17 A2980 740 96 1300 210/05 RMK AO2 RAE0756 SLP088 60000 T01780172 56008
14840KMKG MKG20010831040009608/31/01 04:00:31  5-MIN KMKG 310900Z 21004KT 10SM FEW070 18/17 A2980 750 96 1300 220/04 RMK AO2
14840KMKG MKG20010831040509608/31/01 04:05:31  5-MIN KMKG 310905Z 22005KT 10SM FEW070 18/17 A2980 740 96 1300 220/05 RMK AO2
14840KMKG MKG20010831041009608/31/01 04:10:31  5-MIN KMKG 310910Z 22004KT 10SM FEW070 18/17 A2980 750 96 1300 220/04 RMK AO2
14840KMKG MKG20010831041509308/31/01 04:15:31  5-MIN KMKG 310915Z 21003KT 10SM CLR 18/17 A2980 750 96 1300 220/03 RMK AO2
14840KMKG MKG20010831042009308/31/01 04:20:31  5-MIN KMKG 310920Z 19003KT 10SM CLR 18/17 A2980 750 96 1300 190/03 RMK AO2
14840KMKG MKG20010831042509308/31/01 04:25:31  5-MIN KMKG 310925Z 11004KT 10SM CLR 17/17 A2980 750 96 1200 110/04 RMK AO2
14840KMKG MKG20010831043009208/31/01 04:30:31  5-MIN KMKG 310930Z 12005KT 9SM CLR 17/17 A2979 750 96 1200 120/05 RMK AO2
14840KMKG MKG20010831043509208/31/01 04:35:31  5-MIN KMKG 310935Z 14003KT 9SM CLR 17/17 A2979 750 96 1200 150/03 RMK AO2
14840KMKG MKG20010831044009208/31/01 04:40:31  5-MIN KMKG 310940Z 00000KT 9SM CLR 17/17 A2979 750 96 1200 000/00 RMK AO2
14840KMKG MKG20010831044509208/31/01 04:45:31  5-MIN KMKG 310945Z 00000KT 9SM CLR 17/17 A2979 750 96 1200 000/00 RMK AO2
14840KMKG MKG20010831045010908/31/01 04:50:31  5-MIN KMKG 310950Z 12003KT 8SM CLR 17/17 A2979 750 96 1200 120/03 RMK AO2 SLP085 T01720167
14840KMKG MKG20010831045511008/31/01 04:55:31  5-MIN KMKG 310955Z 13003KT 7SM CLR 17/17 A2979 750 100 1200 130/03 RMK AO2 SLP084 T01670167
14840KMKG MKG20010831050009208/31/01 05:00:31  5-MIN KMKG 311000Z 00000KT 7SM CLR 17/17 A2979 750 96 1200 000/00 RMK AO2
14840KMKG MKG20010831050509208/31/01 05:05:31  5-MIN KMKG 311005Z 00000KT 7SM CLR 17/17 A2979 750 96 1200 000/00 RMK AO2
14840KMKG MKG20010831051009508/31/01 05:10:31  5-MIN KMKG 311010Z 00000KT 5SM BR CLR 17/16 A2979 750 96 1200 000/00 RMK AO2
14840KMKG MKG20010831051509508/31/01 05:15:31  5-MIN KMKG 311015Z 00000KT 4SM BR CLR 17/16 A2979 750 96 1200 000/00 RMK AO2
14840KMKG MKG20010831052010008/31/01 05:20:31  5-MIN KMKG 311020Z 00000KT 1 3/4SM BR CLR 16/16 A2979 750 100 1100 000/00 RMK AO2
14840KMKG MKG20010831052509608/31/01 05:25:31  5-MIN KMKG 311025Z 00000KT 1SM BR CLR 16/16 A2979 750 100 1100 000/00 RMK AO2
14840KMKG MKG20010831053009608/31/01 05:30:31  5-MIN KMKG 311030Z 00000KT 1SM BR CLR 17/17 A2979 750 100 1200 000/00 RMK AO2
14840KMKG MKG20010831053509608/31/01 05:35:31  5-MIN KMKG 311035Z 00000KT 1SM BR CLR 17/17 A2980 750 100 1200 000/00 RMK AO2
14840KMKG MKG20010831054009808/31/01 05:40:31  5-MIN KMKG 311040Z 00000KT 3/4SM BR CLR 17/17 A2980 750 100 1200 000/00 RMK AO2
14840KMKG MKG20010831054509808/31/01 05:45:31  5-MIN KMKG 311045Z 00000KT 3/4SM BR CLR 17/17 A2980 750 100 1200 000/00 RMK AO2
14840KMKG MKG20010831055011508/31/01 05:50:31  5-MIN KMKG 311050Z 00000KT 1/2SM FG CLR 16/16 A2980 750 100 1100 000/00 RMK AO2 SLP087 T01610161
14840KMKG MKG20010831055511608/31/01 05:55:31  5-MIN KMKG 311055Z 00000KT 1/2SM BCFG CLR 16/16 A2980 740 96 1100 000/00 RMK AO2 SLP088 T01610156
14840KMKG MKG20010831060009908/31/01 06:00:31  5-MIN KMKG 311100Z 00000KT 1/2SM BCFG CLR 16/16 A2980 740 96 1100 000/00 RMK AO2
14840KMKG MKG20010831060510008/31/01 06:05:31  5-MIN KMKG 311105Z 00000KT 1/2SM BCFG CLR 16/16 A2980 740 100 1100 000/00 RMK AO2
14840KMKG MKG20010831061010008/31/01 06:10:31  5-MIN KMKG 311110Z 00000KT 1/2SM BCFG CLR 16/16 A2980 740 100 1000 000/00 RMK AO2
14840KMKG MKG20010831061510008/31/01 06:15:31  5-MIN KMKG 311115Z 00000KT 1/2SM BCFG CLR 16/16 A2981 740 100 1000 000/00 RMK AO2
14840KMKG MKG20010831062010008/31/01 06:20:31  5-MIN KMKG 311120Z 00000KT 3/4SM BCFG CLR 16/16 A2981 740 100 1000 000/00 RMK AO2
14840KMKG MKG20010831062510008/31/01 06:25:31  5-MIN KMKG 311125Z 00000KT 3/4SM BCFG CLR 16/16 A2981 740 100 1100 000/00 RMK AO2
14840KMKG MKG20010831063010008/31/01 06:30:31  5-MIN KMKG 311130Z 00000KT 3/4SM BCFG CLR 16/16 A2981 730 100 1000 000/00 RMK AO2
14840KMKG MKG20010831063510008/31/01 06:35:31  5-MIN KMKG 311135Z 00000KT 3/4SM BCFG CLR 16/16 A2981 730 100 1000 000/00 RMK AO2
14840KMKG MKG20010831064010008/31/01 06:40:31  5-MIN KMKG 311140Z 33003KT 3/4SM BCFG CLR 16/16 A2982 730 100 1000 330/03 RMK AO2
14840KMKG MKG20010831064510008/31/01 06:45:31  5-MIN KMKG 311145Z 32003KT 3/4SM BCFG CLR 16/16 A2982 730 100 1000 330/03 RMK AO2
14840KMKG MKG20010831065014708/31/01 06:50:31  5-MIN KMKG 311150Z 32003KT 3/4SM BCFG CLR 16/16 A2982 730 100 1100 320/03 RMK AO2 SLP094 60000 70035 T01610161 10194 20156 56008
14840KMKG MKG20010831065516208/31/01 06:55:31  5-MIN KMKG 311155Z 32003KT 2 1/2SM BR CLR 16/16 A2982 720 100 1100 320/03 RMK AO2 VIS 1/2 RWY 14 SLP096 60000 70035 T01610161 10194 20156 53008
14840KMKG MKG20010831070010908/31/01 07:00:31  5-MIN KMKG 311200Z 32003KT 5SM BR CLR 16/16 A2982 720 100 1100 330/03 RMK AO2 VIS 1 RWY 14
14840KMKG MKG20010831070511008/31/01 07:05:31  5-MIN KMKG 311205Z 34004KT 8SM CLR 17/17 A2982 720 100 1100 340/04 RMK AO2 VIS 1 3/4 RWY 14
14840KMKG MKG20010831071010508/31/01 07:10:31  5-MIN KMKG 311210Z 35004KT 9SM CLR 17/17 A2982 720 96 1200 350/04 RMK AO2 VIS 2 RWY 14
14840KMKG MKG20010831071509308/31/01 07:15:31  5-MIN KMKG 311215Z 34006KT 10SM CLR 17/17 A2983 720 96 1200 340/06 RMK AO2
14840KMKG MKG20010831072009408/31/01 07:20:31  5-MIN KMKG 311220Z 34005KT 10SM CLR 17/17 A2983 710 100 1200 350/05 RMK AO2
14840KMKG MKG20010831072509308/31/01 07:25:31  5-MIN KMKG 311225Z 36005KT 10SM CLR 18/17 A2983 710 96 1200 360/05 RMK AO2
14840KMKG MKG20010831073009308/31/01 07:30:31  5-MIN KMKG 311230Z 36006KT 10SM CLR 18/17 A2983 710 96 1200 360/06 RMK AO2
14840KMKG MKG20010831073509308/31/01 07:35:31  5-MIN KMKG 311235Z 36007KT 10SM CLR 18/17 A2983 710 93 1200 360/07 RMK AO2
14840KMKG MKG20010831074009308/31/01 07:40:31  5-MIN KMKG 311240Z 36007KT 10SM CLR 18/17 A2983 710 90 1300 010/07 RMK AO2
14840KMKG MKG20010831074509308/31/01 07:45:31  5-MIN KMKG 311245Z 01010KT 10SM CLR 19/17 A2984 710 87 1400 010/10 RMK AO2
14840KMKG MKG20010831075011008/31/01 07:50:31  5-MIN KMKG 311250Z 01010KT 10SM CLR 19/16 A2983 710 84 1400 010/10 RMK AO2 SLP100 T01890161
14840KMKG MKG20010831075511008/31/01 07:55:31  5-MIN KMKG 311255Z 01010KT 10SM CLR 19/16 A2984 710 84 1400 010/10 RMK AO2 SLP101 T01890161
14840KMKG MKG20010831080009308/31/01 08:00:31  5-MIN KMKG 311300Z 01008KT 10SM CLR 19/16 A2984 710 84 1400 010/08 RMK AO2
14840KMKG MKG20010831080509308/31/01 08:05:31  5-MIN KMKG 311305Z 01010KT 10SM CLR 19/16 A2984 710 81 1400 010/10 RMK AO2
14840KMKG MKG20010831081009308/31/01 08:10:31  5-MIN KMKG 311310Z 36010KT 10SM CLR 19/16 A2984 710 81 1400 010/10 RMK AO2
14840KMKG MKG20010831081509308/31/01 08:15:31  5-MIN KMKG 311315Z 01010KT 10SM CLR 19/16 A2984 700 81 1400 010/10 RMK AO2
14840KMKG MKG20010831082009308/31/01 08:20:31  5-MIN KMKG 311320Z 02007KT 10SM CLR 19/16 A2984 700 81 1400 020/07 RMK AO2
14840KMKG MKG20010831082509308/31/01 08:25:31  5-MIN KMKG 311325Z 01007KT 10SM CLR 20/17 A2984 700 81 1500 020/07 RMK AO2
14840KMKG MKG20010831083009308/31/01 08:30:31  5-MIN KMKG 311330Z 01006KT 10SM CLR 20/17 A2984 700 81 1500 010/06 RMK AO2
14840KMKG MKG20010831083509308/31/01 08:35:31  5-MIN KMKG 311335Z 01009KT 10SM CLR 20/16 A2984 700 78 1500 010/09 RMK AO2
14840KMKG MKG20010831084009308/31/01 08:40:31  5-MIN KMKG 311340Z 02008KT 10SM CLR 20/17 A2984 700 81 1500 020/08 RMK AO2
14840KMKG MKG20010831084509308/31/01 08:45:31  5-MIN KMKG 311345Z 01008KT 10SM CLR 21/17 A2984 700 78 1600 010/08 RMK AO2
14840KMKG MKG20010831085011008/31/01 08:50:31  5-MIN KMKG 311350Z 01009KT 10SM CLR 21/16 A2984 700 75 1600 010/09 RMK AO2 SLP103 T02060161
14840KMKG MKG20010831085511008/31/01 08:55:31  5-MIN KMKG 311355Z 36009KT 10SM CLR 21/16 A2984 700 75 1600 010/09 RMK AO2 SLP103 T02060161
14840KMKG MKG20010831090009308/31/01 09:00:31  5-MIN KMKG 311400Z 01009KT 10SM CLR 21/16 A2985 700 75 1500 010/09 RMK AO2
14840KMKG MKG20010831090509308/31/01 09:05:31  5-MIN KMKG 311405Z 01010KT 10SM CLR 21/17 A2985 700 78 1500 020/10 RMK AO2
14840KMKG MKG20010831091009308/31/01 09:10:31  5-MIN KMKG 311410Z 01009KT 10SM CLR 21/16 A2985 700 73 1600 020/09 RMK AO2
14840KMKG MKG20010831091509308/31/01 09:15:31  5-MIN KMKG 311415Z 36008KT 10SM CLR 21/17 A2985 690 75 1600 360/08 RMK AO2
14840KMKG MKG20010831092009308/31/01 09:20:31  5-MIN KMKG 311420Z 36011KT 10SM CLR 21/17 A2985 690 75 1600 010/11 RMK AO2
14840KMKG MKG20010831092509608/31/01 09:25:31  5-MIN KMKG 311425Z 01009KT 10SM FEW019 21/17 A2986 690 75 1600 020/09 RMK AO2
14840KMKG MKG20010831093009608/31/01 09:30:31  5-MIN KMKG 311430Z 01011KT 10SM FEW019 21/17 A2986 690 75 1600 020/11 RMK AO2
14840KMKG MKG20010831093509308/31/01 09:35:31  5-MIN KMKG 311435Z 01012KT 10SM CLR 21/17 A2986 690 75 1600 010/12 RMK AO2
14840KMKG MKG20010831094009608/31/01 09:40:31  5-MIN KMKG 311440Z 36009KT 10SM FEW019 21/17 A2986 690 75 1600 010/09 RMK AO2
14840KMKG MKG20010831094509608/31/01 09:45:31  5-MIN KMKG 311445Z 01010KT 10SM FEW019 21/17 A2986 680 75 1600 010/10 RMK AO2
14840KMKG MKG20010831095011908/31/01 09:50:31  5-MIN KMKG 311450Z 02008KT 10SM FEW019 21/17 A2986 680 75 1600 020/08 RMK AO2 SLP110 T02110167 53008
14840KMKG MKG20010831095511908/31/01 09:55:31  5-MIN KMKG 311455Z 35010KT 10SM FEW019 21/17 A2987 680 75 1600 360/10 RMK AO2 SLP110 T02110167 53016
14840KMKG MKG20010831100009608/31/01 10:00:31  5-MIN KMKG 311500Z 36011KT 10SM SCT019 21/17 A2987 680 75 1600 360/11 RMK AO2
14840KMKG MKG20010831100509608/31/01 10:05:31  5-MIN KMKG 311505Z 36011KT 10SM SCT019 21/16 A2987 680 73 1600 360/11 RMK AO2
14840KMKG MKG20010831101009608/31/01 10:10:31  5-MIN KMKG 311510Z 01010KT 10SM FEW019 21/16 A2987 670 73 1500 010/10 RMK AO2
14840KMKG MKG20010831101509608/31/01 10:15:31  5-MIN KMKG 311515Z 36009KT 10SM FEW019 21/16 A2987 670 70 1600 360/09 RMK AO2
14840KMKG MKG20010831102009608/31/01 10:20:31  5-MIN KMKG 311520Z 36011KT 10SM FEW019 22/16 A2988 670 70 1600 010/11 RMK AO2
14840KMKG MKG20010831102509608/31/01 10:25:31  5-MIN KMKG 311525Z 36010KT 10SM FEW021 21/16 A2987 670 70 1600 360/10 RMK AO2
14840KMKG MKG20010831103009608/31/01 10:30:31  5-MIN KMKG 311530Z 36008KT 10SM FEW032 22/16 A2988 670 70 1600 360/08 RMK AO2
14840KMKG MKG20010831103509608/31/01 10:35:31  5-MIN KMKG 311535Z 36009KT 10SM FEW032 22/16 A2988 670 70 1600 360/09 RMK AO2
14840KMKG MKG20010831104009608/31/01 10:40:31  5-MIN KMKG 311540Z 35007KT 10SM FEW032 22/16 A2988 670 68 1600 350/07 RMK AO2
14840KMKG MKG20010831104509608/31/01 10:45:31  5-MIN KMKG 311545Z 36010KT 10SM SCT032 22/16 A2988 670 68 1600 360/10 RMK AO2
14840KMKG MKG20010831105011308/31/01 10:50:31  5-MIN KMKG 311550Z 36008KT 10SM SCT032 22/16 A2988 670 65 1700 360/08 RMK AO2 SLP115 T02220156
14840KMKG MKG20010831105511308/31/01 10:55:31  5-MIN KMKG 311555Z 01009KT 10SM FEW029 22/16 A2988 670 65 1700 010/09 RMK AO2 SLP114 T02220156
14840KMKG MKG20010831110009608/31/01 11:00:31  5-MIN KMKG 311600Z 36010KT 10SM SCT029 23/16 A2988 670 63 1800 010/10 RMK AO2
14840KMKG MKG20010831110509608/31/01 11:05:31  5-MIN KMKG 311605Z 01009KT 10SM SCT029 23/16 A2988 670 63 1800 010/09 RMK AO2
14840KMKG MKG20010831111009608/31/01 11:10:31  5-MIN KMKG 311610Z 02009KT 10SM SCT031 22/15 A2988 670 65 1600 020/09 RMK AO2
14840KMKG MKG20010831111509608/31/01 11:15:31  5-MIN KMKG 311615Z VRB05KT 10SM FEW029 22/16 A2988 670 65 1700 VRB/05 RMK AO2
14840KMKG MKG20010831112010308/31/01 11:20:31  5-MIN KMKG 311620Z 33008KT 10SM FEW029 SCT034 23/16 A2988 670 63 1800 330/08 RMK AO2
14840KMKG MKG20010831112509608/31/01 11:25:31  5-MIN KMKG 311625Z VRB05KT 10SM SCT034 22/15 A2988 670 63 1700 VRB/05 RMK AO2
14840KMKG MKG20010831113010308/31/01 11:30:31  5-MIN KMKG 311630Z 30008KT 10SM BKN032 BKN040 22/15 A2988 670 65 1600 300/08 RMK AO2
14840KMKG MKG20010831113509608/31/01 11:35:31  5-MIN KMKG 311635Z 29008KT 10SM BKN034 22/16 A2988 670 70 1600 300/08 RMK AO2
14840KMKG MKG20010831114010908/31/01 11:40:31  5-MIN KMKG 311640Z 28010G15KT 10SM BKN034 BKN065 22/16 A2988 670 68 1700 290/10G15 RMK AO2
14840KMKG MKG20010831114511608/31/01 11:45:31  5-MIN KMKG 311645Z 30008G17KT 10SM FEW026 SCT031 BKN039 22/16 A2988 670 70 1600 310/08G17 RMK AO2
14840KMKG MKG20010831115013308/31/01 11:50:31  5-MIN KMKG 311650Z 32008G17KT 10SM BKN031 BKN039 OVC060 21/16 A2988 660 70 1600 320/08G17 RMK AO2 SLP117 T02110156
14840KMKG MKG20010831115512708/31/01 11:55:31  5-MIN KMKG 311655Z 33007KT 10SM BKN031 BKN039 BKN060 21/16 A2989 660 70 1600 340/07 RMK AO2 SLP118 T02110156
14840KMKG MKG20010831120012508/31/01 12:00:31  5-MIN KMKG 311700Z 34010KT 10SM FEW029 SCT038 BKN060 22/16 A2989 660 68 1700 340/10 RMK AO2 CIG 041 RWY 14
14840KMKG MKG20010831120512508/31/01 12:05:31  5-MIN KMKG 311705Z VRB06KT 10SM FEW027 SCT060 BKN075 22/16 A2989 660 68 1700 VRB/06 RMK AO2 CIG 050 RWY 14
14840KMKG MKG20010831121012508/31/01 12:10:31  5-MIN KMKG 311710Z VRB06KT 10SM FEW027 BKN060 BKN075 23/16 A2989 660 63 1800 VRB/06 RMK AO2 CIG 047 RWY 14
14840KMKG MKG20010831121511608/31/01 12:15:31  5-MIN KMKG 311715Z 36011G15KT 10SM FEW027 BKN060 BKN075 22/14 A2989 660 61 1700 010/11G15 RMK AO2
14840KMKG MKG20010831122011008/31/01 12:20:31  5-MIN KMKG 311720Z 35010KT 10SM FEW027 BKN065 BKN075 22/15 A2989 660 65 1600 360/10 RMK AO2
14840KMKG MKG20010831122510308/31/01 12:25:31  5-MIN KMKG 311725Z 33011KT 10SM FEW031 BKN065 22/15 A2989 660 65 1600 330/11 RMK AO2
14840KMKG MKG20010831123010308/31/01 12:30:31  5-MIN KMKG 311730Z 34007KT 10SM FEW031 BKN065 22/15 A2989 660 63 1700 350/07 RMK AO2
14840KMKG MKG20010831123510308/31/01 12:35:31  5-MIN KMKG 311735Z 35008KT 10SM FEW031 BKN065 22/16 A2989 660 65 1700 350/08 RMK AO2
14840KMKG MKG20010831124010308/31/01 12:40:31  5-MIN KMKG 311740Z 34006KT 10SM FEW033 BKN065 23/15 A2988 660 61 1800 340/06 RMK AO2
14840KMKG MKG20010831124510908/31/01 12:45:31  5-MIN KMKG 311745Z 34011G14KT 10SM SCT035 BKN065 22/14 A2989 660 61 1700 340/11G14 RMK AO2
14840KMKG MKG20010831125013808/31/01 12:50:31  5-MIN KMKG 311750Z 33010KT 10SM SCT035 BKN070 22/14 A2989 660 59 1700 330/10 RMK AO2 SLP118 T02220139 10228 20161 53016
14840KMKG MKG20010831125513808/31/01 12:55:31  5-MIN KMKG 311755Z 33010KT 10SM SCT035 BKN070 23/14 A2988 670 55 1800 340/10 RMK AO2 SLP116 T02330139 10233 20161 50005
14840KMKG MKG20010831130010308/31/01 13:00:31  5-MIN KMKG 311800Z 34013KT 10SM SCT035 BKN070 23/14 A2989 660 57 1800 340/13 RMK AO2
14840KMKG MKG20010831130510308/31/01 13:05:31  5-MIN KMKG 311805Z 34011KT 10SM FEW035 SCT050 22/14 A2989 660 59 1700 350/11 RMK AO2
14840KMKG MKG20010831131010308/31/01 13:10:31  5-MIN KMKG 311810Z 33012KT 10SM FEW035 SCT050 22/14 A2989 660 61 1600 330/12 RMK AO2
14840KMKG MKG20010831131509608/31/01 13:15:31  5-MIN KMKG 311815Z 32011KT 10SM FEW050 22/14 A2989 660 61 1600 330/11 RMK AO2
14840KMKG MKG20010831132009608/31/01 13:20:31  5-MIN KMKG 311820Z 34010KT 10SM SCT050 23/14 A2989 660 55 1800 340/10 RMK AO2
14840KMKG MKG20010831132509608/31/01 13:25:31  5-MIN KMKG 311825Z 35011KT 10SM SCT050 23/14 A2989 660 59 1700 360/11 RMK AO2
14840KMKG MKG20010831133010908/31/01 13:30:31  5-MIN KMKG 311830Z 34011G17KT 10SM FEW039 SCT050 23/15 A2990 650 61 1700 350/11G17 RMK AO2
14840KMKG MKG20010831133510208/31/01 13:35:31  5-MIN KMKG 311835Z 33011G17KT 10SM FEW039 23/14 A2989 660 59 1700 330/11G17 RMK AO2
14840KMKG MKG20010831134010208/31/01 13:40:31  5-MIN KMKG 311840Z 32012G17KT 10SM FEW037 23/14 A2989 660 57 1800 330/12G17 RMK AO2
14840KMKG MKG20010831134509608/31/01 13:45:31  5-MIN KMKG 311845Z 35013KT 10SM SCT037 23/14 A2990 650 59 1700 360/13 RMK AO2
14840KMKG MKG20010831135012008/31/01 13:50:31  5-MIN KMKG 311850Z 35013KT 10SM SCT037 BKN049 22/14 A2990 650 59 1700 360/13 RMK AO2 SLP122 T02220139
14840KMKG MKG20010831135512008/31/01 13:55:31  5-MIN KMKG 311855Z 36013KT 10SM SCT037 SCT049 22/14 A2990 650 61 1700 360/13 RMK AO2 SLP123 T02220144
14840KMKG MKG20010831140010308/31/01 14:00:31  5-MIN KMKG 311900Z 36012KT 10SM SCT037 SCT050 22/14 A2991 640 61 1700 360/12 RMK AO2
14840KMKG MKG20010831140510308/31/01 14:05:31  5-MIN KMKG 311905Z 01013KT 10SM FEW037 SCT050 21/14 A2990 650 63 1500 010/13 RMK AO2
14840KMKG MKG20010831141010308/31/01 14:10:31  5-MIN KMKG 311910Z 33014KT 10SM FEW037 SCT050 22/14 A2990 650 63 1600 340/14 RMK AO2
14840KMKG MKG20010831141509608/31/01 14:15:31  5-MIN KMKG 311915Z 34012KT 10SM FEW037 23/14 A2990 650 59 1700 350/12 RMK AO2
14840KMKG MKG20010831142009608/31/01 14:20:31  5-MIN KMKG 311920Z 35010KT 10SM SCT037 23/14 A2990 650 57 1700 350/10 RMK AO2
14840KMKG MKG20010831142510208/31/01 14:25:31  5-MIN KMKG 311925Z 35014G17KT 10SM SCT037 23/14 A2990 650 59 1700 350/14G17 RMK AO2
14840KMKG MKG20010831143009608/31/01 14:30:31  5-MIN KMKG 311930Z 34015KT 10SM SCT037 22/14 A2990 650 61 1600 350/15 RMK AO2
14840KMKG MKG20010831143510308/31/01 14:35:31  5-MIN KMKG 311935Z 34014KT 10SM FEW046 SCT055 22/14 A2991 640 61 1700 350/14 RMK AO2
14840KMKG MKG20010831144010308/31/01 14:40:31  5-MIN KMKG 311940Z 34014KT 10SM FEW035 SCT055 22/14 A2991 640 61 1600 350/14 RMK AO2
14840KMKG MKG20010831190509808/31/01 19:05:31  5-MIN KMKG 010005Z 01009G16KT 10SM CLR 17/08 A2999 570 57 900 010/09G16 RMK AO2
14840KMKG MKG20010831191009208/31/01 19:10:31  5-MIN KMKG 010010Z 01008KT 10SM CLR 17/08 A2999 570 55 900 010/08 RMK AO2
14840KMKG MKG20010831191509208/31/01 19:15:31  5-MIN KMKG 010015Z 35008KT 10SM CLR 16/08 A2999 570 59 900 360/08 RMK AO2
14840KMKG MKG20010831192009208/31/01 19:20:31  5-MIN KMKG 010020Z 01011KT 10SM CLR 16/08 A2999 560 59 900 010/11 RMK AO2
14840KMKG MKG20010831192509208/31/01 19:25:31  5-MIN KMKG 010025Z 01009KT 10SM CLR 16/08 A2999 560 59 900 010/09 RMK AO2
14840KMKG MKG20010831193009208/31/01 19:30:31  5-MIN KMKG 010030Z 36010KT 10SM CLR 16/08 A2999 560 57 900 010/10 RMK AO2
14840KMKG MKG20010831193509208/31/01 19:35:31  5-MIN KMKG 010035Z 01011KT 10SM CLR 16/08 A3000 560 59 900 010/11 RMK AO2
14840KMKG MKG20010831194009208/31/01 19:40:31  5-MIN KMKG 010040Z 36013KT 10SM CLR 16/08 A3000 560 62 800 360/13 RMK AO2
14840KMKG MKG20010831194509208/31/01 19:45:31  5-MIN KMKG 010045Z 36010KT 10SM CLR 16/08 A3000 560 62 800 010/10 RMK AO2
14840KMKG MKG20010831195010908/31/01 19:50:31  5-MIN KMKG 010050Z 36010KT 10SM CLR 16/08 A3000 550 62 800 010/10 RMK AO2 SLP158 T01560083
14840KMKG MKG20010831195510908/31/01 19:55:31  5-MIN KMKG 010055Z 36012KT 10SM CLR 16/08 A3001 550 62 800 010/12 RMK AO2 SLP159 T01560083
14840KMKG MKG20010831200009208/31/01 20:00:31  5-MIN KMKG 010100Z 01011KT 10SM CLR 16/08 A3001 550 62 800 010/11 RMK AO2
14840KMKG MKG20010831200509208/31/01 20:05:31  5-MIN KMKG 010105Z 01013KT 10SM CLR 15/08 A3001 550 64 700 010/13 RMK AO2
14840KMKG MKG20010831201009208/31/01 20:10:31  5-MIN KMKG 010110Z 01011KT 10SM CLR 15/08 A3001 540 64 700 020/11 RMK AO2
14840KMKG MKG20010831201509208/31/01 20:15:31  5-MIN KMKG 010115Z 01011KT 10SM CLR 15/08 A3002 540 64 700 010/11 RMK AO2
14840KMKG MKG20010831202009208/31/01 20:20:31  5-MIN KMKG 010120Z 02008KT 10SM CLR 15/08 A3002 540 64 700 020/08 RMK AO2
14840KMKG MKG20010831202509208/31/01 20:25:31  5-MIN KMKG 010125Z 02009KT 10SM CLR 14/08 A3002 540 66 600 020/09 RMK AO2
14840KMKG MKG20010831203009208/31/01 20:30:31  5-MIN KMKG 010130Z 01008KT 10SM CLR 14/08 A3002 530 66 600 010/08 RMK AO2
14840KMKG MKG20010831203509208/31/01 20:35:31  5-MIN KMKG 010135Z 01007KT 10SM CLR 14/08 A3003 530 66 600 010/07 RMK AO2
14840KMKG MKG20010831204009208/31/01 20:40:31  5-MIN KMKG 010140Z 01008KT 10SM CLR 14/08 A3003 530 69 600 010/08 RMK AO2
14840KMKG MKG20010831204509208/31/01 20:45:31  5-MIN KMKG 010145Z 01009KT 10SM CLR 14/08 A3003 530 66 600 010/09 RMK AO2
14840KMKG MKG20010831205010908/31/01 20:50:31  5-MIN KMKG 010150Z 02008KT 10SM CLR 14/08 A3004 520 69 600 020/08 RMK AO2 SLP170 T01390083
14840KMKG MKG20010831205510908/31/01 20:55:31  5-MIN KMKG 010155Z 02009KT 10SM CLR 14/08 A3004 520 69 600 020/09 RMK AO2 SLP170 T01390083
14840KMKG MKG20010831210009208/31/01 21:00:31  5-MIN KMKG 010200Z 02009KT 10SM CLR 14/08 A3004 520 69 500 020/09 RMK AO2
14840KMKG MKG20010831210509208/31/01 21:05:31  5-MIN KMKG 010205Z 02009KT 10SM CLR 14/08 A3004 520 69 500 020/09 RMK AO2
14840KMKG MKG20010831211009208/31/01 21:10:31  5-MIN KMKG 010210Z 01009KT 10SM CLR 14/08 A3004 520 69 500 020/09 RMK AO2
14840KMKG MKG20010831211509208/31/01 21:15:31  5-MIN KMKG 010215Z 02010KT 10SM CLR 14/08 A3005 510 66 500 030/10 RMK AO2
14840KMKG MKG20010831212009208/31/01 21:20:31  5-MIN KMKG 010220Z 02008KT 10SM CLR 14/08 A3004 520 66 500 020/08 RMK AO2
14840KMKG MKG20010831212509208/31/01 21:25:31  5-MIN KMKG 010225Z 02009KT 10SM CLR 13/08 A3005 510 69 500 030/09 RMK AO2
14840KMKG MKG20010831213009208/31/01 21:30:31  5-MIN KMKG 010230Z 02007KT 10SM CLR 13/08 A3005 510 69 500 020/07 RMK AO2
14840KMKG MKG20010831213509208/31/01 21:35:31  5-MIN KMKG 010235Z 02007KT 10SM CLR 13/08 A3005 510 69 500 020/07 RMK AO2
14840KMKG MKG20010831214009208/31/01 21:40:31  5-MIN KMKG 010240Z 02007KT 10SM CLR 13/08 A3005 510 71 400 020/07 RMK AO2
14840KMKG MKG20010831214509208/31/01 21:45:31  5-MIN KMKG 010245Z 02007KT 10SM CLR 13/08 A3005 510 71 400 020/07 RMK AO2
14840KMKG MKG20010831215011508/31/01 21:50:31  5-MIN KMKG 010250Z 03007KT 10SM CLR 13/08 A3005 510 71 400 030/07 RMK AO2 SLP175 T01280078 51017
14840KMKG MKG20010831215511508/31/01 21:55:31  5-MIN KMKG 010255Z 03006KT 10SM CLR 13/08 A3005 510 69 500 030/06 RMK AO2 SLP175 T01330078 51022
14840KMKG MKG20010831220009208/31/01 22:00:31  5-MIN KMKG 010300Z 04007KT 10SM CLR 13/08 A3005 510 71 400 040/07 RMK AO2
14840KMKG MKG20010831220509208/31/01 22:05:31  5-MIN KMKG 010305Z 03007KT 10SM CLR 13/08 A3005 510 71 400 030/07 RMK AO2
14840KMKG MKG20010831221009208/31/01 22:10:31  5-MIN KMKG 010310Z 03006KT 10SM CLR 13/08 A3005 510 71 400 030/06 RMK AO2
14840KMKG MKG20010831221509208/31/01 22:15:31  5-MIN KMKG 010315Z 03006KT 10SM CLR 13/08 A3006 500 71 400 030/06 RMK AO2
14840KMKG MKG20010831222009208/31/01 22:20:31  5-MIN KMKG 010320Z 04006KT 10SM CLR 12/08 A3006 500 77 300 040/06 RMK AO2
14840KMKG MKG20010831222509208/31/01 22:25:31  5-MIN KMKG 010325Z 03006KT 10SM CLR 13/08 A3006 500 74 400 040/06 RMK AO2
14840KMKG MKG20010831223009208/31/01 22:30:31  5-MIN KMKG 010330Z 03004KT 10SM CLR 12/08 A3006 500 77 300 040/04 RMK AO2
14840KMKG MKG20010831223509208/31/01 22:35:31  5-MIN KMKG 010335Z 04004KT 10SM CLR 12/08 A3006 500 77 300 040/04 RMK AO2
14840KMKG MKG20010831224009208/31/01 22:40:31  5-MIN KMKG 010340Z 04006KT 10SM CLR 12/08 A3006 500 77 300 050/06 RMK AO2
14840KMKG MKG20010831224509208/31/01 22:45:31  5-MIN KMKG 010345Z 04004KT 10SM CLR 12/08 A3006 500 77 300 050/04 RMK AO2
14840KMKG MKG20010831225010908/31/01 22:50:31  5-MIN KMKG 010350Z 03004KT 10SM CLR 12/08 A3006 500 77 300 040/04 RMK AO2 SLP179 T01220083
14840KMKG MKG20010831225510908/31/01 22:55:31  5-MIN KMKG 010355Z 03005KT 10SM CLR 12/08 A3007 500 77 300 030/05 RMK AO2 SLP180 T01220083
14840KMKG MKG20010831230009208/31/01 23:00:31  5-MIN KMKG 010400Z 02004KT 10SM CLR 12/08 A3007 490 80 300 020/04 RMK AO2
14840KMKG MKG20010831230509208/31/01 23:05:31  5-MIN KMKG 010405Z 03004KT 10SM CLR 12/08 A3007 490 77 300 030/04 RMK AO2
14840KMKG MKG20010831231009208/31/01 23:10:31  5-MIN KMKG 010410Z 03003KT 10SM CLR 12/08 A3007 490 77 200 030/03 RMK AO2
14840KMKG MKG20010831231509208/31/01 23:15:31  5-MIN KMKG 010415Z 02003KT 10SM CLR 12/08 A3007 490 77 200 030/03 RMK AO2
14840KMKG MKG20010831232009208/31/01 23:20:31  5-MIN KMKG 010420Z 02003KT 10SM CLR 12/08 A3007 490 77 200 030/03 RMK AO2
14840KMKG MKG20010831232509208/31/01 23:25:31  5-MIN KMKG 010425Z 02003KT 10SM CLR 12/08 A3007 490 77 200 020/03 RMK AO2
14840KMKG MKG20010831233009208/31/01 23:30:31  5-MIN KMKG 010430Z 01003KT 10SM CLR 11/08 A3008 480 80 200 010/03 RMK AO2
14840KMKG MKG20010831233509208/31/01 23:35:31  5-MIN KMKG 010435Z 01004KT 10SM CLR 11/08 A3008 480 80 200 010/04 RMK AO2
14840KMKG MKG20010831234009208/31/01 23:40:31  5-MIN KMKG 010440Z 01004KT 10SM CLR 11/08 A3008 480 83 200 010/04 RMK AO2
14840KMKG MKG20010831234509208/31/01 23:45:31  5-MIN KMKG 010445Z 02004KT 10SM CLR 11/08 A3008 480 80 200 020/04 RMK AO2
14840KMKG MKG20010831235011908/31/01 23:50:31  5-MIN KMKG 010450Z 02003KT 10SM CLR 11/08 A3008 480 80 200 030/03 RMK AO2 SLP185 T01110078 402390111
14840KMKG MKG20010831235511908/31/01 23:55:31  5-MIN KMKG 010455Z 02003KT 10SM CLR 11/08 A3008 490 80 200 030/03 RMK AO2 SLP185 T01110078 402390111
