14840KMKG MKG20011101000010811/01/01 00:00:32  5-MIN KMKG 010500Z 18015G23KT 10SM SCT090 BKN110 15/04 A2992 630 49 800 180/15G23 RMK AO2
14840KMKG MKG20011101000510811/01/01 00:05:31  5-MIN KMKG 010505Z 18017G22KT 10SM SCT090 BKN110 15/04 A2991 640 49 800 180/17G22 RMK AO2
14840KMKG MKG20011101001010111/01/01 00:10:31  5-MIN KMKG 010510Z 18018G24KT 10SM BKN100 15/04 A2991 640 49 800 180/18G24 RMK AO2
14840KMKG MKG20011101001510111/01/01 00:15:31  5-MIN KMKG 010515Z 18016G25KT 10SM SCT095 14/05 A2991 640 53 800 180/16G25 RMK AO2
14840KMKG MKG20011101002010111/01/01 00:20:31  5-MIN KMKG 010520Z 19016G25KT 10SM FEW100 14/05 A2991 640 53 800 190/16G25 RMK AO2
14840KMKG MKG20011101002510111/01/01 00:25:31  5-MIN KMKG 010525Z 19017G25KT 10SM FEW110 14/05 A2991 640 53 800 190/17G25 RMK AO2
14840KMKG MKG20011101003009811/01/01 00:30:31  5-MIN KMKG 010530Z 18019G25KT 10SM CLR 14/05 A2991 640 53 800 180/19G25 RMK AO2
14840KMKG MKG20011101003509811/01/01 00:35:31  5-MIN KMKG 010535Z 18018G25KT 10SM CLR 14/05 A2991 640 53 800 190/18G25 RMK AO2
14840KMKG MKG20011101004009811/01/01 00:40:31  5-MIN KMKG 010540Z 18016G24KT 10SM CLR 14/05 A2990 640 53 800 180/16G24 RMK AO2
14840KMKG MKG20011101004509811/01/01 00:45:31  5-MIN KMKG 010545Z 18020G25KT 10SM CLR 14/05 A2991 640 53 800 190/20G25 RMK AO2
14840KMKG MKG20011101005013911/01/01 00:50:31  5-MIN KMKG 010550Z 17019G25KT 10SM CLR 14/05 A2990 650 53 800 180/19G25 RMK AO2 SLP126 60000 T01440050 10172 20144 56003
14840KMKG MKG20011101005516011/01/01 00:55:31  5-MIN KMKG 010555Z 18017G26KT 10SM FEW120 14/05 A2990 650 53 800 180/17G26 RMK AO2 PK WND 18026/0551 SLP125 60000 T01440050 10172 20144 56013
14840KMKG MKG20011101010011911/01/01 01:00:31  5-MIN KMKG 010600Z 17019G29KT 10SM SCT120 14/05 A2990 650 53 800 180/19G29 RMK AO2 PK WND 18029/0556
14840KMKG MKG20011101010511911/01/01 01:05:31  5-MIN KMKG 010605Z 18019G29KT 10SM BKN120 14/05 A2989 660 53 800 180/19G29 RMK AO2 PK WND 18029/0556
14840KMKG MKG20011101011011911/01/01 01:10:31  5-MIN KMKG 010610Z 18020G26KT 10SM BKN120 14/05 A2989 660 53 800 180/20G26 RMK AO2 PK WND 18029/0556
14840KMKG MKG20011101011511911/01/01 01:15:31  5-MIN KMKG 010615Z 18019G27KT 10SM BKN120 14/05 A2989 660 53 800 180/19G27 RMK AO2 PK WND 18029/0556
14840KMKG MKG20011101012011911/01/01 01:20:31  5-MIN KMKG 010620Z 17018G27KT 10SM OVC120 14/05 A2989 660 53 800 180/18G27 RMK AO2 PK WND 18029/0556
14840KMKG MKG20011101012511911/01/01 01:25:31  5-MIN KMKG 010625Z 18020G25KT 10SM OVC120 14/05 A2988 660 53 800 180/20G25 RMK AO2 PK WND 18029/0556
14840KMKG MKG20011101013011911/01/01 01:30:31  5-MIN KMKG 010630Z 18019G25KT 10SM OVC120 14/05 A2989 660 53 800 180/19G25 RMK AO2 PK WND 18029/0556
14840KMKG MKG20011101013511911/01/01 01:35:31  5-MIN KMKG 010635Z 18019G26KT 10SM OVC120 14/05 A2989 660 53 800 180/19G26 RMK AO2 PK WND 18029/0556
14840KMKG MKG20011101014011911/01/01 01:40:31  5-MIN KMKG 010640Z 19020G26KT 10SM BKN120 14/05 A2989 660 53 800 190/20G26 RMK AO2 PK WND 18029/0556
14840KMKG MKG20011101014511911/01/01 01:45:31  5-MIN KMKG 010645Z 18017G27KT 10SM BKN120 14/05 A2989 660 53 800 190/17G27 RMK AO2 PK WND 18029/0556
14840KMKG MKG20011101015013611/01/01 01:50:31  5-MIN KMKG 010650Z 18015G27KT 10SM SCT120 14/06 A2989 660 55 800 190/15G27 RMK AO2 PK WND 18029/0556 SLP121 T01440056
14840KMKG MKG20011101015513011/01/01 01:55:31  5-MIN KMKG 010655Z 18016KT 10SM FEW120 14/06 A2988 660 55 800 180/16 RMK AO2 PK WND 18029/0556 SLP119 T01440056
14840KMKG MKG20011101020010111/01/01 02:00:31  5-MIN KMKG 010700Z 18018G24KT 10SM FEW120 14/06 A2988 670 55 800 180/18G24 RMK AO2
14840KMKG MKG20011101020509811/01/01 02:05:31  5-MIN KMKG 010705Z 18018G24KT 10SM CLR 14/06 A2988 670 55 800 190/18G24 RMK AO2
14840KMKG MKG20011101021009811/01/01 02:10:31  5-MIN KMKG 010710Z 18019G25KT 10SM CLR 14/06 A2988 670 55 800 190/19G25 RMK AO2
14840KMKG MKG20011101021511611/01/01 02:15:31  5-MIN KMKG 010715Z 18020G26KT 10SM CLR 14/06 A2988 670 55 800 190/20G26 RMK AO2 PK WND 20026/0714
14840KMKG MKG20011101022011611/01/01 02:20:31  5-MIN KMKG 010720Z 18017G27KT 10SM CLR 14/06 A2988 670 55 800 190/17G27 RMK AO2 PK WND 20027/0720
14840KMKG MKG20011101022511611/01/01 02:25:31  5-MIN KMKG 010725Z 19019G27KT 10SM CLR 14/06 A2987 670 55 800 190/19G27 RMK AO2 PK WND 20027/0720
14840KMKG MKG20011101023011611/01/01 02:30:31  5-MIN KMKG 010730Z 19019G27KT 10SM CLR 14/06 A2987 670 55 800 190/19G27 RMK AO2 PK WND 18027/0727
14840KMKG MKG20011101023511611/01/01 02:35:31  5-MIN KMKG 010735Z 18019G27KT 10SM CLR 14/05 A2987 670 53 800 190/19G27 RMK AO2 PK WND 18027/0727
14840KMKG MKG20011101024011611/01/01 02:40:31  5-MIN KMKG 010740Z 19020G26KT 10SM CLR 14/05 A2987 670 53 800 190/20G26 RMK AO2 PK WND 18027/0727
14840KMKG MKG20011101024511611/01/01 02:45:31  5-MIN KMKG 010745Z 18020G26KT 10SM CLR 14/05 A2987 670 53 800 190/20G26 RMK AO2 PK WND 18027/0727
14840KMKG MKG20011101025013311/01/01 02:50:31  5-MIN KMKG 010750Z 18021G29KT 10SM CLR 14/05 A2987 670 53 800 180/21G29 RMK AO2 PK WND 17029/0750 SLP115 T01440050
14840KMKG MKG20011101025513311/01/01 02:55:31  5-MIN KMKG 010755Z 18018G29KT 10SM CLR 14/05 A2987 680 53 800 190/18G29 RMK AO2 PK WND 17029/0750 SLP115 T01440050
14840KMKG MKG20011101030011611/01/01 03:00:31  5-MIN KMKG 010800Z 18021G28KT 10SM CLR 14/05 A2987 680 53 800 190/21G28 RMK AO2 PK WND 18028/0759
14840KMKG MKG20011101030511611/01/01 03:05:31  5-MIN KMKG 010805Z 18018G28KT 10SM CLR 14/05 A2987 680 53 800 180/18G28 RMK AO2 PK WND 18028/0759
14840KMKG MKG20011101031011611/01/01 03:10:31  5-MIN KMKG 010810Z 18016G25KT 10SM CLR 14/05 A2987 680 53 800 180/16G25 RMK AO2 PK WND 18028/0759
14840KMKG MKG20011101031511611/01/01 03:15:31  5-MIN KMKG 010815Z 18021G28KT 10SM CLR 14/05 A2986 680 53 800 190/21G28 RMK AO2 PK WND 17028/0813
14840KMKG MKG20011101032011611/01/01 03:20:31  5-MIN KMKG 010820Z 18019G28KT 10SM CLR 14/05 A2986 680 53 800 190/19G28 RMK AO2 PK WND 17028/0813
14840KMKG MKG20011101032511611/01/01 03:25:31  5-MIN KMKG 010825Z 19019G26KT 10SM CLR 14/05 A2986 680 53 800 190/19G26 RMK AO2 PK WND 17028/0813
14840KMKG MKG20011101033011611/01/01 03:30:31  5-MIN KMKG 010830Z 18019G27KT 10SM CLR 14/05 A2986 680 53 800 190/19G27 RMK AO2 PK WND 17028/0813
14840KMKG MKG20011101033511611/01/01 03:35:31  5-MIN KMKG 010835Z 18020G29KT 10SM CLR 14/06 A2986 690 55 800 180/20G29 RMK AO2 PK WND 17029/0835
14840KMKG MKG20011101034011611/01/01 03:40:31  5-MIN KMKG 010840Z 18019G29KT 10SM CLR 14/06 A2986 690 57 800 190/19G29 RMK AO2 PK WND 17029/0835
14840KMKG MKG20011101034511611/01/01 03:45:31  5-MIN KMKG 010845Z 18018G27KT 10SM CLR 14/06 A2985 690 55 800 190/18G27 RMK AO2 PK WND 17029/0835
14840KMKG MKG20011101035013911/01/01 03:50:31  5-MIN KMKG 010850Z 19019G26KT 10SM CLR 14/06 A2986 690 57 800 190/19G26 RMK AO2 PK WND 17029/0835 SLP109 T01390056 56013
14840KMKG MKG20011101035513911/01/01 03:55:31  5-MIN KMKG 010855Z 18020G27KT 10SM CLR 14/06 A2985 690 59 800 180/20G27 RMK AO2 PK WND 17029/0835 SLP108 T01390061 58016
14840KMKG MKG20011101040009811/01/01 04:00:31  5-MIN KMKG 010900Z 18019G27KT 10SM CLR 14/06 A2985 700 59 800 190/19G27 RMK AO2
14840KMKG MKG20011101040511611/01/01 04:05:31  5-MIN KMKG 010905Z 19019G29KT 10SM CLR 14/06 A2985 700 59 800 190/19G29 RMK AO2 PK WND 19029/0904
14840KMKG MKG20011101041011611/01/01 04:10:31  5-MIN KMKG 010910Z 18022G29KT 10SM CLR 14/06 A2984 700 59 800 190/22G29 RMK AO2 PK WND 19029/0904
14840KMKG MKG20011101041511611/01/01 04:15:31  5-MIN KMKG 010915Z 19019G27KT 10SM CLR 14/06 A2984 700 59 800 190/19G27 RMK AO2 PK WND 19029/0904
14840KMKG MKG20011101042011611/01/01 04:20:31  5-MIN KMKG 010920Z 19019G26KT 10SM CLR 14/06 A2984 700 59 800 190/19G26 RMK AO2 PK WND 19029/0904
14840KMKG MKG20011101042511611/01/01 04:25:31  5-MIN KMKG 010925Z 19019G25KT 10SM CLR 14/06 A2985 700 59 800 190/19G25 RMK AO2 PK WND 19029/0904
14840KMKG MKG20011101043011611/01/01 04:30:31  5-MIN KMKG 010930Z 18019G29KT 10SM CLR 14/06 A2985 700 59 800 190/19G29 RMK AO2 PK WND 19029/0927
14840KMKG MKG20011101043511611/01/01 04:35:31  5-MIN KMKG 010935Z 18018G29KT 10SM CLR 14/06 A2985 700 59 800 190/18G29 RMK AO2 PK WND 19029/0927
14840KMKG MKG20011101044011611/01/01 04:40:31  5-MIN KMKG 010940Z 19020G26KT 10SM CLR 14/06 A2985 700 59 800 190/20G26 RMK AO2 PK WND 19029/0927
14840KMKG MKG20011101044511611/01/01 04:45:31  5-MIN KMKG 010945Z 18018G26KT 10SM CLR 14/06 A2985 700 59 800 190/18G26 RMK AO2 PK WND 19029/0927
14840KMKG MKG20011101045013311/01/01 04:50:31  5-MIN KMKG 010950Z 19020G26KT 10SM CLR 14/06 A2984 700 57 800 190/20G26 RMK AO2 PK WND 19029/0927 SLP105 T01440061
14840KMKG MKG20011101045513311/01/01 04:55:31  5-MIN KMKG 010955Z 18018G27KT 10SM CLR 14/06 A2984 700 57 800 190/18G27 RMK AO2 PK WND 19029/0927 SLP105 T01440061
14840KMKG MKG20011101050011611/01/01 05:00:31  5-MIN KMKG 011000Z 19019G27KT 10SM CLR 14/06 A2984 700 57 800 190/19G27 RMK AO2 PK WND 19027/1000
14840KMKG MKG20011101050511911/01/01 05:05:31  5-MIN KMKG 011005Z 19018G27KT 10SM FEW120 14/06 A2984 700 57 800 190/18G27 RMK AO2 PK WND 19027/1000
14840KMKG MKG20011101051011911/01/01 05:10:31  5-MIN KMKG 011010Z 19021G26KT 10SM FEW110 14/06 A2984 710 57 800 190/21G26 RMK AO2 PK WND 19027/1000
14840KMKG MKG20011101051511911/01/01 05:15:31  5-MIN KMKG 011015Z 19021G30KT 10SM SCT110 14/06 A2984 710 57 800 190/21G30 RMK AO2 PK WND 17030/1011
14840KMKG MKG20011101052011911/01/01 05:20:31  5-MIN KMKG 011020Z 18022G30KT 10SM SCT110 14/06 A2984 710 59 800 180/22G30 RMK AO2 PK WND 17030/1011
14840KMKG MKG20011101052511911/01/01 05:25:31  5-MIN KMKG 011025Z 18018G27KT 10SM SCT110 14/06 A2983 710 59 800 190/18G27 RMK AO2 PK WND 17030/1011
14840KMKG MKG20011101053011911/01/01 05:30:31  5-MIN KMKG 011030Z 18020G27KT 10SM BKN110 14/06 A2983 720 57 900 190/20G27 RMK AO2 PK WND 17030/1011
14840KMKG MKG20011101053511911/01/01 05:35:31  5-MIN KMKG 011035Z 19022G28KT 10SM BKN110 14/06 A2983 710 57 900 190/22G28 RMK AO2 PK WND 17030/1011
14840KMKG MKG20011101054011911/01/01 05:40:31  5-MIN KMKG 011040Z 18023G29KT 10SM BKN110 14/06 A2983 710 57 900 190/23G29 RMK AO2 PK WND 17030/1011
14840KMKG MKG20011101054511911/01/01 05:45:31  5-MIN KMKG 011045Z 19020G30KT 10SM BKN110 14/06 A2983 720 57 900 190/20G30 RMK AO2 PK WND 19030/1045
14840KMKG MKG20011101055013611/01/01 05:50:31  5-MIN KMKG 011050Z 18018G30KT 10SM SCT110 14/06 A2983 720 59 800 190/18G30 RMK AO2 PK WND 19030/1045 SLP100 T01390061
14840KMKG MKG20011101055513611/01/01 05:55:31  5-MIN KMKG 011055Z 18021G29KT 10SM BKN110 14/06 A2982 720 59 800 190/21G29 RMK AO2 PK WND 19030/1045 SLP098 T01390061
14840KMKG MKG20011101060011911/01/01 06:00:31  5-MIN KMKG 011100Z 18022G29KT 10SM SCT110 14/06 A2983 720 59 800 190/22G29 RMK AO2 PK WND 18029/1059
14840KMKG MKG20011101060511911/01/01 06:05:31  5-MIN KMKG 011105Z 18021G29KT 10SM FEW110 14/06 A2983 720 59 800 190/21G29 RMK AO2 PK WND 18029/1059
14840KMKG MKG20011101061011911/01/01 06:10:31  5-MIN KMKG 011110Z 18021G28KT 10SM FEW110 14/06 A2983 720 59 800 190/21G28 RMK AO2 PK WND 18029/1059
14840KMKG MKG20011101061511911/01/01 06:15:31  5-MIN KMKG 011115Z 18020G27KT 10SM FEW110 14/07 A2983 720 61 800 190/20G27 RMK AO2 PK WND 18029/1059
14840KMKG MKG20011101062011911/01/01 06:20:31  5-MIN KMKG 011120Z 18020G27KT 10SM FEW110 14/07 A2982 720 61 800 180/20G27 RMK AO2 PK WND 18029/1059
14840KMKG MKG20011101062512611/01/01 06:25:31  5-MIN KMKG 011125Z 18018G27KT 10SM FEW095 SCT120 14/07 A2982 720 61 800 190/18G27 RMK AO2 PK WND 18029/1059
14840KMKG MKG20011101063012611/01/01 06:30:31  5-MIN KMKG 011130Z 18022G28KT 10SM FEW095 SCT120 14/07 A2983 720 61 800 190/22G28 RMK AO2 PK WND 18029/1059
14840KMKG MKG20011101063512611/01/01 06:35:31  5-MIN KMKG 011135Z 19023G31KT 10SM SCT085 SCT120 14/07 A2982 730 61 800 190/23G31 RMK AO2 PK WND 19031/1131
14840KMKG MKG20011101064012611/01/01 06:40:31  5-MIN KMKG 011140Z 19019G31KT 10SM SCT090 SCT120 14/07 A2982 720 61 800 190/19G31 RMK AO2 PK WND 19031/1131
14840KMKG MKG20011101064511911/01/01 06:45:31  5-MIN KMKG 011145Z 18018G27KT 10SM FEW090 14/07 A2982 720 61 800 190/18G27 RMK AO2 PK WND 19031/1131
14840KMKG MKG20011101065015411/01/01 06:50:31  5-MIN KMKG 011150Z 19019G27KT 10SM FEW090 14/07 A2982 720 61 800 190/19G27 RMK AO2 PK WND 19031/1131 SLP098 T01390067 10144 20139 58016
14840KMKG MKG20011101065515411/01/01 06:55:31  5-MIN KMKG 011155Z 18023G30KT 10SM FEW080 14/06 A2982 720 59 800 190/23G30 RMK AO2 PK WND 19031/1131 SLP098 T01390061 10144 20139 56010
14840KMKG MKG20011101070011911/01/01 07:00:31  5-MIN KMKG 011200Z 19023G30KT 10SM FEW080 14/07 A2982 720 61 800 190/23G30 RMK AO2 PK WND 18029/1156
14840KMKG MKG20011101070511611/01/01 07:05:31  5-MIN KMKG 011205Z 18022G29KT 10SM CLR 14/06 A2982 720 59 800 190/22G29 RMK AO2 PK WND 18029/1156
14840KMKG MKG20011101071011611/01/01 07:10:31  5-MIN KMKG 011210Z 19018G28KT 10SM CLR 14/07 A2982 720 61 800 190/18G28 RMK AO2 PK WND 18029/1156
14840KMKG MKG20011101071511611/01/01 07:15:31  5-MIN KMKG 011215Z 18022G28KT 10SM CLR 14/07 A2982 720 61 800 190/22G28 RMK AO2 PK WND 18029/1156
14840KMKG MKG20011101072011611/01/01 07:20:31  5-MIN KMKG 011220Z 19020G28KT 10SM CLR 14/07 A2982 720 61 800 190/20G28 RMK AO2 PK WND 18029/1156
14840KMKG MKG20011101072511611/01/01 07:25:31  5-MIN KMKG 011225Z 19019G28KT 10SM CLR 14/07 A2982 720 61 800 190/19G28 RMK AO2 PK WND 18029/1156
14840KMKG MKG20011101073011611/01/01 07:30:31  5-MIN KMKG 011230Z 19021G28KT 10SM CLR 14/07 A2982 720 61 800 190/21G28 RMK AO2 PK WND 18029/1156
14840KMKG MKG20011101073511611/01/01 07:35:31  5-MIN KMKG 011235Z 19023G30KT 10SM CLR 14/07 A2982 720 61 800 190/23G30 RMK AO2 PK WND 18030/1235
14840KMKG MKG20011101074011611/01/01 07:40:31  5-MIN KMKG 011240Z 18019G30KT 10SM CLR 14/07 A2982 720 61 800 190/19G30 RMK AO2 PK WND 18030/1235
14840KMKG MKG20011101074511611/01/01 07:45:31  5-MIN KMKG 011245Z 18020G27KT 10SM CLR 14/07 A2982 720 61 800 190/20G27 RMK AO2 PK WND 18030/1235
14840KMKG MKG20011101075013611/01/01 07:50:31  5-MIN KMKG 011250Z 19020G28KT 10SM FEW049 14/07 A2982 720 61 800 190/20G28 RMK AO2 PK WND 18030/1235 SLP098 T01390067
14840KMKG MKG20011101075513611/01/01 07:55:31  5-MIN KMKG 011255Z 19016G28KT 10SM SCT049 14/07 A2982 720 61 800 190/16G28 RMK AO2 PK WND 18030/1235 SLP097 T01390067
14840KMKG MKG20011101080011911/01/01 08:00:31  5-MIN KMKG 011300Z 19017G27KT 10SM BKN049 14/07 A2982 720 61 800 190/17G27 RMK AO2 PK WND 19027/1257
14840KMKG MKG20011101080511911/01/01 08:05:31  5-MIN KMKG 011305Z 19017G28KT 10SM BKN049 14/07 A2982 720 61 800 190/17G28 RMK AO2 PK WND 20028/1302
14840KMKG MKG20011101081011911/01/01 08:10:31  5-MIN KMKG 011310Z 19020G29KT 10SM BKN049 14/07 A2983 720 61 800 190/20G29 RMK AO2 PK WND 18029/1306
14840KMKG MKG20011101081512611/01/01 08:15:31  5-MIN KMKG 011315Z 18020G29KT 10SM SCT047 OVC055 14/07 A2982 720 61 800 190/20G29 RMK AO2 PK WND 19029/1312
14840KMKG MKG20011101082012611/01/01 08:20:31  5-MIN KMKG 011320Z 19019G29KT 10SM BKN045 OVC055 14/07 A2982 730 61 800 190/19G29 RMK AO2 PK WND 19029/1312
14840KMKG MKG20011101082512611/01/01 08:25:31  5-MIN KMKG 011325Z 18018G29KT 10SM BKN045 OVC055 14/07 A2982 720 61 800 190/18G29 RMK AO2 PK WND 20029/1323
14840KMKG MKG20011101083012611/01/01 08:30:31  5-MIN KMKG 011330Z 19021G29KT 10SM BKN045 OVC055 14/07 A2982 720 61 800 190/21G29 RMK AO2 PK WND 19029/1328
14840KMKG MKG20011101083512611/01/01 08:35:31  5-MIN KMKG 011335Z 18020G29KT 10SM BKN045 OVC055 14/07 A2982 730 61 900 190/20G29 RMK AO2 PK WND 19029/1328
14840KMKG MKG20011101084011911/01/01 08:40:31  5-MIN KMKG 011340Z 19022G30KT 10SM OVC045 14/07 A2982 730 61 900 190/22G30 RMK AO2 PK WND 19030/1340
14840KMKG MKG20011101084511911/01/01 08:45:31  5-MIN KMKG 011345Z 19020G30KT 10SM OVC045 14/07 A2982 720 61 900 190/20G30 RMK AO2 PK WND 19030/1340
14840KMKG MKG20011101085013611/01/01 08:50:31  5-MIN KMKG 011350Z 18023G30KT 10SM OVC045 14/07 A2982 720 61 900 190/23G30 RMK AO2 PK WND 18030/1350 SLP097 T01440072
14840KMKG MKG20011101085513611/01/01 08:55:31  5-MIN KMKG 011355Z 19023G30KT 10SM OVC045 14/07 A2982 730 61 900 190/23G30 RMK AO2 PK WND 19030/1355 SLP096 T01440072
14840KMKG MKG20011101090013711/01/01 09:00:31  5-MIN KMKG 011400Z 19020G30KT 10SM -RA OVC045 14/08 A2982 720 66 800 190/20G30 RMK AO2 PK WND 19030/1356 RAB1357 P0000
14840KMKG MKG20011101090513711/01/01 09:05:31  5-MIN KMKG 011405Z 18020G30KT 10SM -RA OVC045 14/08 A2982 720 66 800 190/20G30 RMK AO2 PK WND 19030/1356 RAB1357 P0000
14840KMKG MKG20011101091015211/01/01 09:10:31  5-MIN KMKG 011410Z 19018G30KT 160V230 10SM OVC045 14/08 A2982 720 66 800 190/18G30 160V230 RMK AO2 PK WND 17030/1410 RAB1357E10 P0000
14840KMKG MKG20011101091513611/01/01 09:15:31  5-MIN KMKG 011415Z 19021G31KT 10SM OVC045 14/08 A2982 720 66 800 200/21G31 RMK AO2 PK WND 20031/1413 RAB1357E10 P0000
14840KMKG MKG20011101092013611/01/01 09:20:31  5-MIN KMKG 011420Z 19021G31KT 10SM OVC045 14/08 A2982 720 66 800 190/21G31 RMK AO2 PK WND 20031/1413 RAB1357E10 P0000
14840KMKG MKG20011101092513611/01/01 09:25:31  5-MIN KMKG 011425Z 19020G30KT 10SM OVC045 14/08 A2982 720 64 900 190/20G30 RMK AO2 PK WND 20031/1413 RAB1357E10 P0000
14840KMKG MKG20011101093013611/01/01 09:30:31  5-MIN KMKG 011430Z 19022G29KT 10SM OVC043 14/08 A2982 720 64 900 190/22G29 RMK AO2 PK WND 20031/1413 RAB1357E10 P0000
14840KMKG MKG20011101093513611/01/01 09:35:31  5-MIN KMKG 011435Z 18024G29KT 10SM OVC043 14/08 A2982 720 66 800 190/24G29 RMK AO2 PK WND 20031/1413 RAB1357E10 P0000
14840KMKG MKG20011101094013611/01/01 09:40:31  5-MIN KMKG 011440Z 19020G29KT 10SM OVC043 14/08 A2982 720 66 800 190/20G29 RMK AO2 PK WND 20031/1413 RAB1357E10 P0000
14840KMKG MKG20011101094513611/01/01 09:45:31  5-MIN KMKG 011445Z 19021G30KT 10SM OVC043 14/08 A2982 720 66 800 190/21G30 RMK AO2 PK WND 20031/1413 RAB1357E10 P0000
14840KMKG MKG20011101095016511/01/01 09:50:31  5-MIN KMKG 011450Z 19020G30KT 10SM OVC041 14/08 A2982 730 66 800 190/20G30 RMK AO2 PK WND 20031/1413 RAB1357E10 SLP096 P0000 60000 T01390078 56010
14840KMKG MKG20011101095516511/01/01 09:55:31  5-MIN KMKG 011455Z 19021G30KT 10SM OVC041 14/08 A2982 720 66 800 190/21G30 RMK AO2 PK WND 20031/1413 RAB1357E10 SLP098 P0000 60000 T01390078 55000
14840KMKG MKG20011101100011911/01/01 10:00:31  5-MIN KMKG 011500Z 18020G26KT 10SM -RA OVC041 14/08 A2982 720 69 800 190/20G26 RMK AO2 RAB1456 P0000
14840KMKG MKG20011101100513711/01/01 10:05:31  5-MIN KMKG 011505Z 19021G26KT 10SM -RA OVC041 14/08 A2982 720 69 800 190/21G26 RMK AO2 PK WND 19026/1501 RAB1456 P0000
14840KMKG MKG20011101101013611/01/01 10:10:31  5-MIN KMKG 011510Z 18020G31KT 10SM OVC041 14/08 A2981 730 69 800 190/20G31 RMK AO2 PK WND 19031/1506 RAB1456E06 P0000
14840KMKG MKG20011101101513611/01/01 10:15:31  5-MIN KMKG 011515Z 19019G31KT 10SM OVC041 14/08 A2982 730 69 800 190/19G31 RMK AO2 PK WND 19031/1506 RAB1456E06 P0000
14840KMKG MKG20011101102013611/01/01 10:20:31  5-MIN KMKG 011520Z 19018G28KT 10SM OVC041 14/08 A2981 730 69 800 190/18G28 RMK AO2 PK WND 19031/1506 RAB1456E06 P0000
14840KMKG MKG20011101102513611/01/01 10:25:31  5-MIN KMKG 011525Z 19021G28KT 10SM OVC041 14/08 A2982 720 69 800 190/21G28 RMK AO2 PK WND 19031/1506 RAB1456E06 P0000
14840KMKG MKG20011101103013611/01/01 10:30:31  5-MIN KMKG 011530Z 19022G28KT 10SM OVC041 14/08 A2982 720 69 800 200/22G28 RMK AO2 PK WND 19031/1506 RAB1456E06 P0000
14840KMKG MKG20011101103513611/01/01 10:35:31  5-MIN KMKG 011535Z 19019G30KT 10SM OVC039 14/08 A2982 720 69 800 190/19G30 RMK AO2 PK WND 19031/1506 RAB1456E06 P0000
14840KMKG MKG20011101104013611/01/01 10:40:31  5-MIN KMKG 011540Z 19019G30KT 10SM OVC039 14/08 A2982 720 69 800 190/19G30 RMK AO2 PK WND 19031/1506 RAB1456E06 P0000
14840KMKG MKG20011101104513611/01/01 10:45:31  5-MIN KMKG 011545Z 19020G28KT 10SM OVC039 14/08 A2983 720 69 800 190/20G28 RMK AO2 PK WND 19031/1506 RAB1456E06 P0000
14840KMKG MKG20011101105016011/01/01 10:50:31  5-MIN KMKG 011550Z 18020G27KT 10SM -RA OVC039 14/08 A2982 720 69 800 190/20G27 RMK AO2 PK WND 19031/1506 RAB1456E06B46 SLP100 P0000 T01390083
14840KMKG MKG20011101105515911/01/01 10:55:31  5-MIN KMKG 011555Z 19019G26KT 10SM OVC039 14/09 A2983 720 71 800 190/19G26 RMK AO2 PK WND 19031/1506 RAB1456E06B46E55 SLP100 P0000 T01390089
14840KMKG MKG20011101110010111/01/01 11:00:31  5-MIN KMKG 011600Z 19017G26KT 10SM OVC039 14/09 A2983 720 71 800 190/17G26 RMK AO2
14840KMKG MKG20011101110511911/01/01 11:05:31  5-MIN KMKG 011605Z 19021G27KT 10SM OVC039 14/09 A2983 720 71 800 190/21G27 RMK AO2 PK WND 19027/1605
14840KMKG MKG20011101111013511/01/01 11:10:31  5-MIN KMKG 011610Z 19016G27KT 10SM -RA OVC039 14/09 A2983 720 71 800 190/16G27 RMK AO2 PK WND 19027/1605 RAB10 P0000
14840KMKG MKG20011101111513511/01/01 11:15:31  5-MIN KMKG 011615Z 18016G27KT 10SM -RA OVC039 14/09 A2983 720 71 800 190/16G27 RMK AO2 PK WND 19027/1613 RAB10 P0000
14840KMKG MKG20011101112013511/01/01 11:20:31  5-MIN KMKG 011620Z 19017G28KT 10SM -RA OVC039 14/09 A2983 720 71 800 200/17G28 RMK AO2 PK WND 19028/1617 RAB10 P0000
14840KMKG MKG20011101112513411/01/01 11:25:31  5-MIN KMKG 011625Z 20020G28KT 10SM OVC039 14/09 A2983 720 71 800 200/20G28 RMK AO2 PK WND 19028/1617 RAB10E22 P0000
14840KMKG MKG20011101113013411/01/01 11:30:31  5-MIN KMKG 011630Z 19016G26KT 10SM OVC039 14/09 A2983 720 71 800 190/16G26 RMK AO2 PK WND 19028/1617 RAB10E22 P0000
14840KMKG MKG20011101113513411/01/01 11:35:31  5-MIN KMKG 011635Z 19016G26KT 10SM OVC039 14/09 A2983 720 71 800 190/16G26 RMK AO2 PK WND 19028/1617 RAB10E22 P0000
14840KMKG MKG20011101114013411/01/01 11:40:31  5-MIN KMKG 011640Z 19017G25KT 10SM OVC039 14/09 A2983 720 71 800 200/17G25 RMK AO2 PK WND 19028/1617 RAB10E22 P0000
14840KMKG MKG20011101114513411/01/01 11:45:31  5-MIN KMKG 011645Z 19018G26KT 10SM OVC039 14/09 A2983 720 74 800 200/18G26 RMK AO2 PK WND 19028/1617 RAB10E22 P0000
14840KMKG MKG20011101115015111/01/01 11:50:31  5-MIN KMKG 011650Z 19018G26KT 10SM OVC039 14/09 A2983 720 74 800 190/18G26 RMK AO2 PK WND 19028/1617 RAB10E22 SLP100 P0000 T01390094
14840KMKG MKG20011101115515811/01/01 11:55:31  5-MIN KMKG 011655Z 18018G25KT 10SM BKN039 OVC045 14/09 A2982 720 74 800 190/18G25 RMK AO2 PK WND 19028/1617 RAB10E22 SLP099 P0000 T01390094
14840KMKG MKG20011101120010811/01/01 12:00:31  5-MIN KMKG 011700Z 19018G25KT 10SM SCT038 OVC046 14/09 A2982 720 74 800 190/18G25 RMK AO2
14840KMKG MKG20011101120510811/01/01 12:05:31  5-MIN KMKG 011705Z 19020G25KT 10SM SCT038 OVC046 14/09 A2982 720 74 800 190/20G25 RMK AO2
14840KMKG MKG20011101121010111/01/01 12:10:31  5-MIN KMKG 011710Z 19017G25KT 10SM OVC046 14/09 A2982 720 74 800 190/17G25 RMK AO2
14840KMKG MKG20011101121511911/01/01 12:15:31  5-MIN KMKG 011715Z 18021G27KT 10SM OVC046 14/09 A2981 730 74 800 180/21G27 RMK AO2 PK WND 18027/1715
14840KMKG MKG20011101122014211/01/01 12:20:31  5-MIN KMKG 011720Z 18018G27KT 10SM -RA BKN048 OVC055 14/10 A2981 740 77 800 190/18G27 RMK AO2 PK WND 18027/1715 RAB20 P0000
14840KMKG MKG20011101122514111/01/01 12:25:31  5-MIN KMKG 011725Z 19018G29KT 9SM -RA BKN048 OVC060 14/10 A2981 730 77 800 190/18G29 RMK AO2 PK WND 19029/1723 RAB20 P0000
14840KMKG MKG20011101123014211/01/01 12:30:31  5-MIN KMKG 011730Z 19017G29KT 10SM -RA SCT048 OVC060 14/10 A2980 740 77 800 190/17G29 RMK AO2 PK WND 19029/1723 RAB20 P0000
14840KMKG MKG20011101123514811/01/01 12:35:31  5-MIN KMKG 011735Z 18019G28KT 9SM -RA FEW048 BKN060 OVC075 14/10 A2979 750 77 800 180/19G28 RMK AO2 PK WND 19029/1723 RAB20 P0000
14840KMKG MKG20011101124014811/01/01 12:40:31  5-MIN KMKG 011740Z 18018G28KT 8SM -RA SCT050 BKN065 OVC080 13/11 A2979 750 83 800 190/18G28 RMK AO2 PK WND 19029/1723 RAB20 P0000
14840KMKG MKG20011101124514811/01/01 12:45:31  5-MIN KMKG 011745Z 19019G26KT 8SM -RA FEW045 BKN060 BKN080 13/11 A2979 750 83 800 190/19G26 RMK AO2 PK WND 19029/1723 RAB20 P0000
14840KMKG MKG20011101125019011/01/01 12:50:31  5-MIN KMKG 011750Z 18016G26KT 10SM -RA FEW037 BKN060 BKN080 13/11 A2979 750 83 800 190/16G26 RMK AO2 PK WND 19029/1723 RAB20 SLP089 P0000 60000 T01330106 10144 20133 55000
14840KMKG MKG20011101125518311/01/01 12:55:31  5-MIN KMKG 011755Z 18018G24KT 10SM -RA SCT037 BKN070 13/11 A2979 750 83 800 190/18G24 RMK AO2 PK WND 19029/1723 RAB20 SLP090 P0000 60000 T01330106 10144 20133 58009
14840KMKG MKG20011101130011711/01/01 13:00:31  5-MIN KMKG 011800Z 18018G24KT 8SM -RA BKN037 BKN075 13/11 A2980 750 86 800 190/18G24 RMK AO2 P0001
14840KMKG MKG20011101130512411/01/01 13:05:31  5-MIN KMKG 011805Z 18019G25KT 7SM -RA SCT033 BKN040 BKN075 13/11 A2979 750 86 800 190/19G25 RMK AO2 P0001
14840KMKG MKG20011101131012411/01/01 13:10:31  5-MIN KMKG 011810Z 18017G25KT 9SM -RA BKN031 BKN040 OVC080 13/11 A2979 760 86 800 190/17G25 RMK AO2 P0001
14840KMKG MKG20011101131512511/01/01 13:15:31  5-MIN KMKG 011815Z 18017G22KT 10SM -RA BKN031 BKN040 BKN080 13/11 A2978 760 86 800 180/17G22 RMK AO2 P0001
14840KMKG MKG20011101132014211/01/01 13:20:31  5-MIN KMKG 011820Z 18019G26KT 7SM -RA SCT031 BKN040 OVC110 13/11 A2977 770 86 800 180/19G26 RMK AO2 PK WND 18026/1820 P0001
14840KMKG MKG20011101132514211/01/01 13:25:31  5-MIN KMKG 011825Z 18017G26KT 7SM -RA SCT029 BKN042 OVC110 13/11 A2977 770 86 800 190/17G26 RMK AO2 PK WND 18026/1820 P0001
14840KMKG MKG20011101133014211/01/01 13:30:31  5-MIN KMKG 011830Z 18017G23KT 8SM -RA FEW031 BKN085 OVC100 13/11 A2977 770 86 800 180/17G23 RMK AO2 PK WND 18026/1820 P0001
14840KMKG MKG20011101133514211/01/01 13:35:31  5-MIN KMKG 011835Z 19020G27KT 9SM -RA FEW029 BKN085 OVC100 13/11 A2979 750 86 800 190/20G27 RMK AO2 PK WND 18027/1834 P0001
14840KMKG MKG20011101134014311/01/01 13:40:31  5-MIN KMKG 011840Z 19020G27KT 10SM -RA SCT029 BKN070 OVC100 13/11 A2979 760 86 800 190/20G27 RMK AO2 PK WND 18027/1834 P0001
14840KMKG MKG20011101134514311/01/01 13:45:31  5-MIN KMKG 011845Z 18017G25KT 10SM -RA BKN027 BKN034 OVC100 13/11 A2978 760 86 800 190/17G25 RMK AO2 PK WND 18027/1834 P0001
14840KMKG MKG20011101135016211/01/01 13:50:31  5-MIN KMKG 011850Z 18020G26KT 10SM BKN027 BKN042 BKN100 13/11 A2977 770 86 800 190/20G26 RMK AO2 PK WND 18027/1834 RAE50 SLP082 P0001 T01330111
14840KMKG MKG20011101135516211/01/01 13:55:31  5-MIN KMKG 011855Z 18016G27KT 10SM FEW027 BKN032 BKN042 13/11 A2978 760 86 800 190/16G27 RMK AO2 PK WND 17027/1851 RAE50 SLP086 P0001 T01330111
14840KMKG MKG20011101140013211/01/01 14:00:31  5-MIN KMKG 011900Z 18016G27KT 9SM -RA FEW027 BKN032 OVC100 13/11 A2978 760 86 800 190/16G27 RMK AO2 RAB1857 P0000
14840KMKG MKG20011101140512511/01/01 14:05:31  5-MIN KMKG 011905Z 19018G24KT 8SM -RA BKN030 OVC041 13/11 A2979 750 86 800 190/18G24 RMK AO2 RAB1857 P0001
14840KMKG MKG20011101141014311/01/01 14:10:31  5-MIN KMKG 011910Z 18020G28KT 8SM -RA BKN030 OVC041 13/11 A2979 750 86 800 190/20G28 RMK AO2 PK WND 18028/1910 RAB1857 P0001
14840KMKG MKG20011101141514311/01/01 14:15:31  5-MIN KMKG 011915Z 18016G28KT 9SM -RA BKN030 OVC041 13/11 A2979 750 86 800 190/16G28 RMK AO2 PK WND 18028/1910 RAB1857 P0001
14840KMKG MKG20011101142014311/01/01 14:20:31  5-MIN KMKG 011920Z 18016G25KT 9SM -RA BKN030 OVC041 14/11 A2979 750 83 800 190/16G25 RMK AO2 PK WND 18028/1910 RAB1857 P0001
14840KMKG MKG20011101142513711/01/01 14:25:31  5-MIN KMKG 011925Z 19016G22KT 10SM -RA OVC030 14/11 A2979 750 83 800 190/16G22 RMK AO2 PK WND 18028/1910 RAB1857 P0001
14840KMKG MKG20011101143013611/01/01 14:30:31  5-MIN KMKG 011930Z 19014G22KT 9SM -RA OVC030 14/11 A2978 760 83 800 190/14G22 RMK AO2 PK WND 18028/1910 RAB1857 P0001
14840KMKG MKG20011101143513611/01/01 14:35:31  5-MIN KMKG 011935Z 18018G22KT 8SM -RA OVC030 14/12 A2979 750 86 800 190/18G22 RMK AO2 PK WND 18028/1910 RAB1857 P0001
14840KMKG MKG20011101144014311/01/01 14:40:31  5-MIN KMKG 011940Z 19017G22KT 8SM -RA BKN030 OVC045 14/12 A2979 750 86 800 190/17G22 RMK AO2 PK WND 18028/1910 RAB1857 P0001
14840KMKG MKG20011101144513611/01/01 14:45:31  5-MIN KMKG 011945Z 19015G22KT 8SM -RA OVC030 14/12 A2979 750 86 800 190/15G22 RMK AO2 PK WND 18028/1910 RAB1857 P0001
14840KMKG MKG20011101145015311/01/01 14:50:31  5-MIN KMKG 011950Z 19015G20KT 8SM -RA OVC030 13/12 A2980 740 89 800 200/15G20 RMK AO2 PK WND 18028/1910 RAB1857 SLP091 P0001 T01330117
14840KMKG MKG20011101145515311/01/01 14:55:31  5-MIN KMKG 011955Z 19016G21KT 7SM -RA OVC028 13/12 A2980 740 89 800 190/16G21 RMK AO2 PK WND 18028/1910 RAB1857 SLP091 P0001 T01330117
14840KMKG MKG20011101150011011/01/01 15:00:31  5-MIN KMKG 012000Z 19016G21KT 8SM -RA OVC028 13/12 A2980 740 89 800 190/16G21 RMK AO2 P0000
14840KMKG MKG20011101150511311/01/01 15:05:31  5-MIN KMKG 012005Z 19016G21KT 5SM -RA BR OVC028 13/12 A2980 740 89 800 190/16G21 RMK AO2 P0001
14840KMKG MKG20011101151011311/01/01 15:10:31  5-MIN KMKG 012010Z 19017G22KT 4SM -RA BR OVC028 13/12 A2981 740 89 800 200/17G22 RMK AO2 P0002
14840KMKG MKG20011101151511311/01/01 15:15:31  5-MIN KMKG 012015Z 19018G24KT 5SM -RA BR OVC028 13/12 A2981 740 89 800 190/18G24 RMK AO2 P0002
14840KMKG MKG20011101152011011/01/01 15:20:31  5-MIN KMKG 012020Z 19017G24KT 8SM -RA OVC028 13/12 A2981 740 89 800 190/17G24 RMK AO2 P0002
14840KMKG MKG20011101152511011/01/01 15:25:31  5-MIN KMKG 012025Z 19015G20KT 8SM -RA OVC028 13/12 A2980 740 89 800 190/15G20 RMK AO2 P0002
14840KMKG MKG20011101153011011/01/01 15:30:31  5-MIN KMKG 012030Z 18017G23KT 9SM -RA OVC028 13/12 A2980 740 89 800 190/17G23 RMK AO2 P0002
14840KMKG MKG20011101153511111/01/01 15:35:31  5-MIN KMKG 012035Z 19017G23KT 10SM -RA OVC028 13/12 A2980 740 89 800 190/17G23 RMK AO2 P0002
14840KMKG MKG20011101154011311/01/01 15:40:31  5-MIN KMKG 012040Z 18018G23KT 10SM OVC028 14/12 A2980 740 86 800 190/18G23 RMK AO2 RAE36 P0002
14840KMKG MKG20011101154511311/01/01 15:45:31  5-MIN KMKG 012045Z 19017G23KT 10SM OVC028 14/12 A2980 740 86 800 190/17G23 RMK AO2 RAE36 P0002
14840KMKG MKG20011101155014211/01/01 15:50:31  5-MIN KMKG 012050Z 19018G22KT 10SM OVC028 14/12 A2980 740 86 800 190/18G22 RMK AO2 RAE36 SLP093 P0002 60004 T01390117 58009
14840KMKG MKG20011101155514211/01/01 15:55:31  5-MIN KMKG 012055Z 18016G22KT 10SM OVC028 14/12 A2980 740 86 800 190/16G22 RMK AO2 RAE36 SLP092 P0002 60004 T01390117 53003
14840KMKG MKG20011101160010111/01/01 16:00:31  5-MIN KMKG 012100Z 19018G23KT 10SM OVC028 14/12 A2981 730 86 800 200/18G23 RMK AO2
14840KMKG MKG20011101160510111/01/01 16:05:31  5-MIN KMKG 012105Z 19016G23KT 10SM OVC028 14/12 A2981 730 86 800 190/16G23 RMK AO2
14840KMKG MKG20011101161010111/01/01 16:10:31  5-MIN KMKG 012110Z 19018G23KT 10SM OVC028 14/12 A2981 730 86 800 200/18G23 RMK AO2
14840KMKG MKG20011101161510111/01/01 16:15:31  5-MIN KMKG 012115Z 19018G24KT 10SM OVC028 14/12 A2981 730 86 800 190/18G24 RMK AO2
14840KMKG MKG20011101162010111/01/01 16:20:31  5-MIN KMKG 012120Z 19016G24KT 10SM OVC028 14/12 A2981 730 86 800 200/16G24 RMK AO2
14840KMKG MKG20011101162509511/01/01 16:25:31  5-MIN KMKG 012125Z 19016KT 10SM OVC028 14/12 A2981 730 86 800 190/16 RMK AO2
14840KMKG MKG20011101163009511/01/01 16:30:31  5-MIN KMKG 012130Z 19018KT 10SM OVC028 14/12 A2981 730 86 800 200/18 RMK AO2
14840KMKG MKG20011101163510111/01/01 16:35:31  5-MIN KMKG 012135Z 19016G21KT 10SM OVC028 14/12 A2981 730 86 800 190/16G21 RMK AO2
14840KMKG MKG20011101164010111/01/01 16:40:31  5-MIN KMKG 012140Z 19017G23KT 10SM OVC028 14/12 A2982 730 86 800 190/17G23 RMK AO2
14840KMKG MKG20011101164510111/01/01 16:45:31  5-MIN KMKG 012145Z 19014G23KT 10SM OVC028 14/12 A2982 730 83 900 200/14G23 RMK AO2
14840KMKG MKG20011101165011811/01/01 16:50:31  5-MIN KMKG 012150Z 19015G21KT 10SM OVC028 14/12 A2982 730 83 900 190/15G21 RMK AO2 SLP097 T01440117
14840KMKG MKG20011101165511811/01/01 16:55:31  5-MIN KMKG 012155Z 19015G21KT 10SM OVC028 14/12 A2981 730 83 900 190/15G21 RMK AO2 SLP096 T01440117
14840KMKG MKG20011101170011911/01/01 17:00:31  5-MIN KMKG 012200Z 19017G27KT 10SM OVC028 14/12 A2981 730 83 900 190/17G27 RMK AO2 PK WND 18027/2157
14840KMKG MKG20011101170511911/01/01 17:05:31  5-MIN KMKG 012205Z 19016G27KT 10SM OVC028 14/12 A2981 730 83 900 200/16G27 RMK AO2 PK WND 18027/2157
14840KMKG MKG20011101171011911/01/01 17:10:31  5-MIN KMKG 012210Z 19016G23KT 10SM OVC028 14/12 A2981 730 83 900 190/16G23 RMK AO2 PK WND 18027/2157
14840KMKG MKG20011101171511911/01/01 17:15:31  5-MIN KMKG 012215Z 19016G22KT 10SM OVC028 14/12 A2981 730 83 900 190/16G22 RMK AO2 PK WND 18027/2157
14840KMKG MKG20011101172011911/01/01 17:20:31  5-MIN KMKG 012220Z 19016G22KT 10SM OVC030 14/12 A2981 730 83 900 190/16G22 RMK AO2 PK WND 18027/2157
14840KMKG MKG20011101172511911/01/01 17:25:31  5-MIN KMKG 012225Z 19018G25KT 10SM OVC030 14/12 A2981 730 83 900 190/18G25 RMK AO2 PK WND 18027/2157
14840KMKG MKG20011101173011811/01/01 17:30:31  5-MIN KMKG 012230Z 19015G25KT 9SM OVC030 14/12 A2982 730 83 900 200/15G25 RMK AO2 PK WND 18027/2157
14840KMKG MKG20011101173512611/01/01 17:35:31  5-MIN KMKG 012235Z 19018G23KT 10SM BKN030 OVC040 14/12 A2982 720 86 900 190/18G23 RMK AO2 PK WND 18027/2157
14840KMKG MKG20011101174011911/01/01 17:40:31  5-MIN KMKG 012240Z 20017G23KT 10SM OVC030 14/12 A2982 720 86 900 200/17G23 RMK AO2 PK WND 18027/2157
14840KMKG MKG20011101174511911/01/01 17:45:31  5-MIN KMKG 012245Z 19015G21KT 10SM OVC030 14/12 A2982 720 86 900 200/15G21 RMK AO2 PK WND 18027/2157
14840KMKG MKG20011101175013611/01/01 17:50:31  5-MIN KMKG 012250Z 19016G23KT 10SM OVC030 14/12 A2982 720 86 900 200/16G23 RMK AO2 PK WND 18027/2157 SLP099 T01440122
14840KMKG MKG20011101175514311/01/01 17:55:31  5-MIN KMKG 012255Z 19016G23KT 10SM BKN030 OVC042 14/12 A2982 720 86 900 200/16G23 RMK AO2 PK WND 18027/2157 SLP099 T01440122
14840KMKG MKG20011101180010911/01/01 18:00:31  5-MIN KMKG 012300Z 19017KT 10SM BKN030 BKN039 OVC046 14/12 A2982 720 86 900 190/17 RMK AO2
14840KMKG MKG20011101180510811/01/01 18:05:31  5-MIN KMKG 012305Z 19016G23KT 10SM BKN030 OVC046 14/12 A2983 720 86 900 200/16G23 RMK AO2
14840KMKG MKG20011101181010811/01/01 18:10:31  5-MIN KMKG 012310Z 19019G23KT 10SM BKN030 OVC046 14/12 A2983 720 86 900 190/19G23 RMK AO2
14840KMKG MKG20011101181513011/01/01 18:15:31  5-MIN KMKG 012315Z 20015G22KT 10SM SCT030 BKN046 OVC055 14/12 A2983 720 86 900 200/15G22 RMK AO2 CIG 035 RWY 14
14840KMKG MKG20011101182010911/01/01 18:20:31  5-MIN KMKG 012320Z 19017KT 10SM FEW030 BKN046 OVC055 14/12 A2983 720 86 900 190/17 RMK AO2
14840KMKG MKG20011101182511511/01/01 18:25:31  5-MIN KMKG 012325Z 19018G22KT 10SM FEW030 BKN047 OVC055 14/12 A2983 720 86 900 200/18G22 RMK AO2
14840KMKG MKG20011101183011511/01/01 18:30:31  5-MIN KMKG 012330Z 19016G22KT 10SM FEW030 BKN048 OVC055 14/12 A2983 720 86 900 190/16G22 RMK AO2
14840KMKG MKG20011101183510911/01/01 18:35:31  5-MIN KMKG 012335Z 19015KT 10SM FEW030 SCT040 OVC055 15/12 A2983 710 83 900 200/15 RMK AO2
14840KMKG MKG20011101184010811/01/01 18:40:31  5-MIN KMKG 012340Z 19015G24KT 10SM FEW032 OVC055 15/12 A2983 710 83 900 190/15G24 RMK AO2
14840KMKG MKG20011101184510811/01/01 18:45:31  5-MIN KMKG 012345Z 19015G24KT 10SM FEW042 OVC055 15/12 A2983 710 83 900 200/15G24 RMK AO2
14840KMKG MKG20011101185014911/01/01 18:50:31  5-MIN KMKG 012350Z 19015G23KT 10SM FEW042 OVC055 15/12 A2983 720 83 900 190/15G23 RMK AO2 SLP101 60004 T01500122 10150 20133 53003
14840KMKG MKG20011101185514211/01/01 18:55:31  5-MIN KMKG 012355Z 20019G25KT 10SM OVC055 15/12 A2983 710 83 900 200/19G25 RMK AO2 SLP102 60004 T01500122 10150 20133 51009
14840KMKG MKG20011101190010111/01/01 19:00:31  5-MIN KMKG 020000Z 19017G25KT 10SM OVC055 15/12 A2983 710 83 900 200/17G25 RMK AO2
14840KMKG MKG20011101190510111/01/01 19:05:31  5-MIN KMKG 020005Z 20016G24KT 10SM OVC055 15/12 A2984 710 83 900 200/16G24 RMK AO2
14840KMKG MKG20011101191010111/01/01 19:10:31  5-MIN KMKG 020010Z 20017G24KT 10SM OVC050 15/12 A2984 710 83 900 200/17G24 RMK AO2
14840KMKG MKG20011101191510111/01/01 19:15:31  5-MIN KMKG 020015Z 20016G22KT 10SM OVC055 15/12 A2984 700 83 900 210/16G22 RMK AO2
14840KMKG MKG20011101192010111/01/01 19:20:31  5-MIN KMKG 020020Z 20018G24KT 10SM OVC055 15/12 A2984 700 83 900 210/18G24 RMK AO2
14840KMKG MKG20011101192510811/01/01 19:25:31  5-MIN KMKG 020025Z 20018G24KT 10SM FEW045 OVC055 15/12 A2984 700 83 900 200/18G24 RMK AO2
14840KMKG MKG20011101193010811/01/01 19:30:31  5-MIN KMKG 020030Z 20020G24KT 10SM SCT043 OVC055 15/12 A2984 700 83 900 200/20G24 RMK AO2
14840KMKG MKG20011101193511611/01/01 19:35:31  5-MIN KMKG 020035Z 20016G24KT 10SM SCT041 SCT048 OVC060 16/12 A2984 700 80 1000 200/16G24 RMK AO2
14840KMKG MKG20011101194013311/01/01 19:40:31  5-MIN KMKG 020040Z 20019G28KT 10SM SCT041 SCT048 OVC060 15/12 A2984 700 83 900 210/19G28 RMK AO2 PK WND 19028/0040
14840KMKG MKG20011101194512611/01/01 19:45:31  5-MIN KMKG 020045Z 20016G28KT 10SM FEW041 OVC060 15/12 A2984 700 83 900 200/16G28 RMK AO2 PK WND 19028/0040
14840KMKG MKG20011101195014311/01/01 19:50:31  5-MIN KMKG 020050Z 20019G22KT 10SM FEW041 OVC060 15/12 A2984 700 83 900 210/19G22 RMK AO2 PK WND 19028/0040 SLP106 T01500122
14840KMKG MKG20011101195514411/01/01 19:55:31  5-MIN KMKG 020055Z 20016G22KT 10SM FEW041 OVC060 16/12 A2984 700 80 1000 210/16G22 RMK AO2 PK WND 19028/0040 SLP106 T01560122
14840KMKG MKG20011101200010811/01/01 20:00:31  5-MIN KMKG 020100Z 20017G22KT 10SM FEW041 OVC060 15/12 A2984 700 83 900 200/17G22 RMK AO2
14840KMKG MKG20011101200510211/01/01 20:05:31  5-MIN KMKG 020105Z 20017G24KT 10SM OVC060 16/12 A2984 700 80 1000 200/17G24 RMK AO2
14840KMKG MKG20011101201010111/01/01 20:10:31  5-MIN KMKG 020110Z 21018G24KT 10SM OVC060 15/12 A2985 700 83 900 210/18G24 RMK AO2
14840KMKG MKG20011101201510011/01/01 20:15:31  5-MIN KMKG 020115Z 20016G24KT 9SM OVC060 15/12 A2985 700 83 900 210/16G24 RMK AO2
14840KMKG MKG20011101202010011/01/01 20:20:31  5-MIN KMKG 020120Z 20016G24KT 9SM OVC060 15/12 A2985 700 83 900 210/16G24 RMK AO2
14840KMKG MKG20011101202510011/01/01 20:25:31  5-MIN KMKG 020125Z 21017G23KT 9SM OVC055 15/12 A2985 690 83 900 210/17G23 RMK AO2
14840KMKG MKG20011101203009411/01/01 20:30:31  5-MIN KMKG 020130Z 21015KT 9SM OVC055 15/12 A2985 690 83 900 210/15 RMK AO2
14840KMKG MKG20011101203509411/01/01 20:35:31  5-MIN KMKG 020135Z 21016KT 9SM OVC055 15/12 A2985 690 83 900 210/16 RMK AO2
14840KMKG MKG20011101204010011/01/01 20:40:31  5-MIN KMKG 020140Z 21017G22KT 9SM OVC055 15/12 A2985 690 83 900 210/17G22 RMK AO2
14840KMKG MKG20011101204510011/01/01 20:45:31  5-MIN KMKG 020145Z 21015G22KT 9SM OVC055 15/12 A2985 690 83 900 210/15G22 RMK AO2
14840KMKG MKG20011101205011111/01/01 20:50:31  5-MIN KMKG 020150Z 20017KT 9SM BKN055 15/12 A2985 690 83 900 210/17 RMK AO2 SLP108 T01500122
14840KMKG MKG20011101205511711/01/01 20:55:31  5-MIN KMKG 020155Z 21017G22KT 9SM BKN055 15/12 A2985 690 83 900 210/17G22 RMK AO2 SLP108 T01500122
14840KMKG MKG20011101210010011/01/01 21:00:31  5-MIN KMKG 020200Z 20015G22KT 9SM SCT060 15/12 A2985 690 83 900 210/15G22 RMK AO2
14840KMKG MKG20011101210510011/01/01 21:05:31  5-MIN KMKG 020205Z 20017G22KT 8SM FEW060 14/12 A2985 690 86 800 210/17G22 RMK AO2
14840KMKG MKG20011101211009411/01/01 21:10:31  5-MIN KMKG 020210Z 20016KT 8SM FEW060 14/12 A2985 690 86 800 210/16 RMK AO2
14840KMKG MKG20011101211509411/01/01 21:15:31  5-MIN KMKG 020215Z 20014KT 8SM FEW034 14/12 A2986 690 86 800 200/14 RMK AO2
14840KMKG MKG20011101212009411/01/01 21:20:31  5-MIN KMKG 020220Z 20016KT 8SM FEW034 14/12 A2985 690 86 800 210/16 RMK AO2
14840KMKG MKG20011101212509411/01/01 21:25:31  5-MIN KMKG 020225Z 20016KT 8SM FEW034 14/12 A2986 690 86 800 210/16 RMK AO2
14840KMKG MKG20011101213010011/01/01 21:30:31  5-MIN KMKG 020230Z 20016G21KT 8SM FEW034 14/12 A2986 690 86 800 210/16G21 RMK AO2
14840KMKG MKG20011101213510011/01/01 21:35:31  5-MIN KMKG 020235Z 20015G21KT 8SM FEW034 14/12 A2986 690 86 800 210/15G21 RMK AO2
14840KMKG MKG20011101214010011/01/01 21:40:31  5-MIN KMKG 020240Z 20017G21KT 8SM FEW032 14/12 A2986 690 86 800 210/17G21 RMK AO2
14840KMKG MKG20011101214510011/01/01 21:45:31  5-MIN KMKG 020245Z 20016G21KT 8SM FEW032 14/12 A2986 690 86 800 210/16G21 RMK AO2
14840KMKG MKG20011101215012011/01/01 21:50:31  5-MIN KMKG 020250Z 20016G21KT 8SM CLR 14/12 A2986 690 86 800 210/16G21 RMK AO2 SLP111 T01440122 51009
14840KMKG MKG20011101215511411/01/01 21:55:31  5-MIN KMKG 020255Z 20016KT 9SM CLR 14/12 A2986 690 86 800 210/16 RMK AO2 SLP112 T01440122 51010
14840KMKG MKG20011101220009111/01/01 22:00:31  5-MIN KMKG 020300Z 20018KT 9SM CLR 14/12 A2986 690 86 800 210/18 RMK AO2
14840KMKG MKG20011101220509111/01/01 22:05:31  5-MIN KMKG 020305Z 20017KT 9SM CLR 14/12 A2986 690 86 800 200/17 RMK AO2
14840KMKG MKG20011101221009711/01/01 22:10:31  5-MIN KMKG 020310Z 20016G23KT 9SM CLR 14/12 A2986 690 86 800 210/16G23 RMK AO2
14840KMKG MKG20011101221509711/01/01 22:15:31  5-MIN KMKG 020315Z 21015G23KT 9SM CLR 14/12 A2986 680 86 800 210/15G23 RMK AO2
14840KMKG MKG20011101222009111/01/01 22:20:31  5-MIN KMKG 020320Z 20014KT 9SM CLR 14/12 A2986 680 83 800 210/14 RMK AO2
14840KMKG MKG20011101222509111/01/01 22:25:31  5-MIN KMKG 020325Z 21015KT 9SM CLR 14/12 A2987 680 83 800 210/15 RMK AO2
14840KMKG MKG20011101223009711/01/01 22:30:31  5-MIN KMKG 020330Z 21016G21KT 9SM CLR 14/12 A2986 680 83 800 210/16G21 RMK AO2
14840KMKG MKG20011101223509711/01/01 22:35:31  5-MIN KMKG 020335Z 21018G21KT 9SM CLR 14/12 A2987 680 86 800 210/18G21 RMK AO2
14840KMKG MKG20011101224009411/01/01 22:40:31  5-MIN KMKG 020340Z 21015KT 9SM FEW038 14/12 A2987 680 86 800 210/15 RMK AO2
14840KMKG MKG20011101224510011/01/01 22:45:31  5-MIN KMKG 020345Z 21017G21KT 9SM FEW038 14/12 A2987 680 86 800 210/17G21 RMK AO2
14840KMKG MKG20011101225011711/01/01 22:50:31  5-MIN KMKG 020350Z 21016G21KT 9SM FEW038 14/12 A2986 680 86 800 210/16G21 RMK AO2 SLP113 T01440122
14840KMKG MKG20011101225511111/01/01 22:55:31  5-MIN KMKG 020355Z 21015KT 9SM FEW038 14/12 A2986 680 86 800 220/15 RMK AO2 SLP113 T01440122
14840KMKG MKG20011101230010011/01/01 23:00:31  5-MIN KMKG 020400Z 21016G22KT 9SM FEW038 14/12 A2986 680 86 800 210/16G22 RMK AO2
14840KMKG MKG20011101230510011/01/01 23:05:31  5-MIN KMKG 020405Z 21016G22KT 9SM FEW038 15/12 A2986 680 83 900 210/16G22 RMK AO2
14840KMKG MKG20011101231010111/01/01 23:10:31  5-MIN KMKG 020410Z 21015G22KT 10SM FEW038 14/12 A2986 680 86 800 210/15G22 RMK AO2
14840KMKG MKG20011101231511511/01/01 23:15:31  5-MIN KMKG 020415Z 21018G26KT 9SM CLR 14/12 A2986 680 86 800 210/18G26 RMK AO2 PK WND 21026/0414
14840KMKG MKG20011101232011511/01/01 23:20:31  5-MIN KMKG 020420Z 21015G26KT 9SM CLR 14/12 A2986 680 83 800 210/15G26 RMK AO2 PK WND 21026/0414
14840KMKG MKG20011101232511511/01/01 23:25:31  5-MIN KMKG 020425Z 21013G20KT 9SM CLR 14/12 A2986 680 83 800 210/13G20 RMK AO2 PK WND 21026/0414
14840KMKG MKG20011101233011511/01/01 23:30:31  5-MIN KMKG 020430Z 21016G21KT 9SM CLR 14/12 A2986 680 83 800 210/16G21 RMK AO2 PK WND 21026/0414
14840KMKG MKG20011101233511511/01/01 23:35:31  5-MIN KMKG 020435Z 21013G21KT 9SM CLR 14/12 A2986 690 83 800 210/13G21 RMK AO2 PK WND 21026/0414
14840KMKG MKG20011101234011511/01/01 23:40:31  5-MIN KMKG 020440Z 21015G21KT 9SM CLR 14/12 A2986 690 86 800 210/15G21 RMK AO2 PK WND 21026/0414
14840KMKG MKG20011101234511511/01/01 23:45:31  5-MIN KMKG 020445Z 21014G21KT 9SM CLR 14/12 A2986 690 86 800 210/14G21 RMK AO2 PK WND 21026/0414
14840KMKG MKG20011101235013611/01/01 23:50:31  5-MIN KMKG 020450Z 21012KT 9SM CLR 14/12 A2986 690 86 800 210/12 RMK AO2 PK WND 21026/0414 SLP111 T01440122 401560133
14840KMKG MKG20011101235513611/01/01 23:55:31  5-MIN KMKG 020455Z 21014KT 9SM CLR 14/12 A2985 690 86 800 220/14 RMK AO2 PK WND 21026/0414 SLP110 T01390117 401560133
14840KMKG MKG20011102000009111/02/01 00:00:31  5-MIN KMKG 020500Z 21015KT 9SM CLR 14/12 A2985 690 86 800 220/15 RMK AO2
14840KMKG MKG20011102000509111/02/01 00:05:31  5-MIN KMKG 020505Z 22014KT 9SM CLR 14/12 A2985 690 86 800 220/14 RMK AO2
14840KMKG MKG20011102001009111/02/01 00:10:31  5-MIN KMKG 020510Z 21013KT 9SM CLR 14/12 A2985 690 90 800 210/13 RMK AO2
14840KMKG MKG20011102001509111/02/01 00:15:31  5-MIN KMKG 020515Z 21014KT 8SM CLR 14/12 A2985 690 90 800 210/14 RMK AO2
14840KMKG MKG20011102002009111/02/01 00:20:31  5-MIN KMKG 020520Z 21013KT 8SM CLR 14/12 A2985 690 90 800 210/13 RMK AO2
14840KMKG MKG20011102002509111/02/01 00:25:31  5-MIN KMKG 020525Z 21012KT 8SM CLR 14/12 A2985 690 86 800 210/12 RMK AO2
14840KMKG MKG20011102003009111/02/01 00:30:31  5-MIN KMKG 020530Z 20012KT 8SM CLR 14/12 A2985 690 86 800 210/12 RMK AO2
14840KMKG MKG20011102003509111/02/01 00:35:31  5-MIN KMKG 020535Z 21012KT 8SM CLR 14/12 A2985 700 86 800 210/12 RMK AO2
14840KMKG MKG20011102004009111/02/01 00:40:31  5-MIN KMKG 020540Z 21012KT 8SM CLR 14/12 A2985 700 90 800 220/12 RMK AO2
14840KMKG MKG20011102004509111/02/01 00:45:31  5-MIN KMKG 020545Z 21013KT 8SM CLR 14/12 A2985 700 86 800 220/13 RMK AO2
14840KMKG MKG20011102005012611/02/01 00:50:31  5-MIN KMKG 020550Z 21012KT 8SM CLR 14/12 A2985 700 90 800 220/12 RMK AO2 SLP108 T01390122 10156 20139 51010
14840KMKG MKG20011102005512611/02/01 00:55:31  5-MIN KMKG 020555Z 20013KT 8SM CLR 14/12 A2985 700 90 800 210/13 RMK AO2 SLP108 T01390122 10156 20139 58004
14840KMKG MKG20011102010009111/02/01 01:00:31  5-MIN KMKG 020600Z 20013KT 8SM CLR 14/12 A2985 700 90 800 210/13 RMK AO2
14840KMKG MKG20011102010509111/02/01 01:05:31  5-MIN KMKG 020605Z 20011KT 8SM CLR 14/12 A2985 700 90 800 200/11 RMK AO2
14840KMKG MKG20011102011009111/02/01 01:10:31  5-MIN KMKG 020610Z 19012KT 8SM CLR 14/12 A2985 700 90 800 190/12 RMK AO2
14840KMKG MKG20011102011509111/02/01 01:15:31  5-MIN KMKG 020615Z 19012KT 8SM CLR 14/12 A2985 700 90 800 190/12 RMK AO2
14840KMKG MKG20011102012009111/02/01 01:20:31  5-MIN KMKG 020620Z 19013KT 7SM CLR 14/12 A2985 700 86 800 190/13 RMK AO2
14840KMKG MKG20011102012509111/02/01 01:25:31  5-MIN KMKG 020625Z 20012KT 7SM CLR 14/12 A2984 700 90 800 200/12 RMK AO2
14840KMKG MKG20011102013009111/02/01 01:30:31  5-MIN KMKG 020630Z 19013KT 7SM CLR 14/12 A2984 700 90 800 190/13 RMK AO2
14840KMKG MKG20011102013509111/02/01 01:35:31  5-MIN KMKG 020635Z 20012KT 8SM CLR 14/12 A2984 710 90 800 210/12 RMK AO2
14840KMKG MKG20011102014009111/02/01 01:40:31  5-MIN KMKG 020640Z 20015KT 8SM CLR 14/12 A2984 710 90 800 200/15 RMK AO2
14840KMKG MKG20011102014509111/02/01 01:45:31  5-MIN KMKG 020645Z 20013KT 8SM CLR 14/12 A2984 710 90 800 200/13 RMK AO2
14840KMKG MKG20011102015010811/02/01 01:50:31  5-MIN KMKG 020650Z 20013KT 8SM CLR 14/12 A2984 710 86 800 200/13 RMK AO2 SLP104 T01390117
14840KMKG MKG20011102015511411/02/01 01:55:31  5-MIN KMKG 020655Z 20015G20KT 8SM CLR 14/12 A2984 710 86 800 210/15G20 RMK AO2 SLP104 T01440122
14840KMKG MKG20011102020009111/02/01 02:00:31  5-MIN KMKG 020700Z 20014KT 8SM CLR 14/12 A2984 710 86 800 210/14 RMK AO2
14840KMKG MKG20011102020509111/02/01 02:05:31  5-MIN KMKG 020705Z 20014KT 8SM CLR 14/12 A2984 710 90 800 200/14 RMK AO2
14840KMKG MKG20011102021009111/02/01 02:10:31  5-MIN KMKG 020710Z 20016KT 8SM CLR 14/12 A2984 710 90 800 200/16 RMK AO2
14840KMKG MKG20011102021509711/02/01 02:15:31  5-MIN KMKG 020715Z 20015G20KT 8SM CLR 14/12 A2984 700 90 800 200/15G20 RMK AO2
14840KMKG MKG20011102022009711/02/01 02:20:31  5-MIN KMKG 020720Z 20015G20KT 8SM CLR 14/12 A2984 700 86 800 200/15G20 RMK AO2
14840KMKG MKG20011102022509111/02/01 02:25:31  5-MIN KMKG 020725Z 19014KT 8SM CLR 14/12 A2984 700 86 800 200/14 RMK AO2
14840KMKG MKG20011102023009111/02/01 02:30:31  5-MIN KMKG 020730Z 20015KT 8SM CLR 14/12 A2984 700 86 800 200/15 RMK AO2
14840KMKG MKG20011102023509111/02/01 02:35:31  5-MIN KMKG 020735Z 20014KT 8SM CLR 14/12 A2985 700 86 800 200/14 RMK AO2
14840KMKG MKG20011102024009111/02/01 02:40:31  5-MIN KMKG 020740Z 20012KT 8SM CLR 13/12 A2985 700 89 700 210/12 RMK AO2
14840KMKG MKG20011102024509711/02/01 02:45:31  5-MIN KMKG 020745Z 20013G18KT 8SM CLR 14/12 A2985 700 86 800 200/13G18 RMK AO2
14840KMKG MKG20011102025010811/02/01 02:50:31  5-MIN KMKG 020750Z 20013KT 8SM CLR 13/12 A2985 700 89 700 210/13 RMK AO2 SLP108 T01330117
14840KMKG MKG20011102025510811/02/01 02:55:31  5-MIN KMKG 020755Z 20011KT 8SM CLR 13/12 A2985 700 89 700 210/11 RMK AO2 SLP108 T01330117
14840KMKG MKG20011102030009111/02/01 03:00:31  5-MIN KMKG 020800Z 20013KT 7SM CLR 13/12 A2985 700 93 700 200/13 RMK AO2
14840KMKG MKG20011102030509111/02/01 03:05:31  5-MIN KMKG 020805Z 19015KT 7SM CLR 14/12 A2985 700 90 800 200/15 RMK AO2
14840KMKG MKG20011102031009111/02/01 03:10:31  5-MIN KMKG 020810Z 19014KT 7SM CLR 14/12 A2984 710 90 800 190/14 RMK AO2
14840KMKG MKG20011102031509111/02/01 03:15:31  5-MIN KMKG 020815Z 21013KT 7SM CLR 13/12 A2985 690 93 700 220/13 RMK AO2
14840KMKG MKG20011102032009111/02/01 03:20:31  5-MIN KMKG 020820Z 21014KT 7SM CLR 13/12 A2985 700 93 700 210/14 RMK AO2
14840KMKG MKG20011102032509411/02/01 03:25:31  5-MIN KMKG 020825Z 21014KT 6SM BR CLR 13/12 A2985 700 93 700 210/14 RMK AO2
14840KMKG MKG20011102033009411/02/01 03:30:31  5-MIN KMKG 020830Z 21014KT 6SM BR CLR 13/12 A2985 690 93 700 210/14 RMK AO2
14840KMKG MKG20011102033509411/02/01 03:35:31  5-MIN KMKG 020835Z 21013KT 6SM BR CLR 13/12 A2985 700 93 700 210/13 RMK AO2
14840KMKG MKG20011102034009711/02/01 03:40:31  5-MIN KMKG 020840Z 21013KT 6SM BR FEW025 13/12 A2985 700 93 700 210/13 RMK AO2
14840KMKG MKG20011102034509711/02/01 03:45:31  5-MIN KMKG 020845Z 21011KT 6SM BR FEW025 13/12 A2985 690 93 700 210/11 RMK AO2
14840KMKG MKG20011102035012011/02/01 03:50:31  5-MIN KMKG 020850Z 21012KT 5SM BR SCT025 13/12 A2985 690 93 700 220/12 RMK AO2 SLP110 T01330122 58004
14840KMKG MKG20011102035512011/02/01 03:55:31  5-MIN KMKG 020855Z 21013KT 5SM BR BKN025 13/12 A2985 690 93 700 220/13 RMK AO2 SLP110 T01330122 53002
14840KMKG MKG20011102040009711/02/01 04:00:31  5-MIN KMKG 020900Z 21011KT 5SM BR BKN025 13/12 A2986 690 93 700 210/11 RMK AO2
14840KMKG MKG20011102040510411/02/01 04:05:31  5-MIN KMKG 020905Z 22011KT 5SM BR BKN025 BKN029 13/12 A2986 690 93 700 220/11 RMK AO2
14840KMKG MKG20011102041010411/02/01 04:10:31  5-MIN KMKG 020910Z 21014KT 5SM BR BKN025 OVC029 13/12 A2986 690 93 700 220/14 RMK AO2
14840KMKG MKG20011102041509711/02/01 04:15:31  5-MIN KMKG 020915Z 22012KT 5SM BR OVC025 13/12 A2986 690 93 700 220/12 RMK AO2
14840KMKG MKG20011102042009711/02/01 04:20:31  5-MIN KMKG 020920Z 22011KT 5SM BR OVC027 13/12 A2986 690 93 700 230/11 RMK AO2
14840KMKG MKG20011102042509711/02/01 04:25:31  5-MIN KMKG 020925Z 23010KT 5SM BR BKN027 13/12 A2986 690 93 700 230/10 RMK AO2
14840KMKG MKG20011102043009711/02/01 04:30:31  5-MIN KMKG 020930Z 22012KT 5SM BR BKN025 13/12 A2986 690 93 700 230/12 RMK AO2
14840KMKG MKG20011102043509711/02/01 04:35:31  5-MIN KMKG 020935Z 23009KT 5SM BR SCT027 13/12 A2986 680 96 600 230/09 RMK AO2
14840KMKG MKG20011102044009711/02/01 04:40:31  5-MIN KMKG 020940Z 23008KT 5SM BR FEW027 13/12 A2987 680 96 600 240/08 RMK AO2
14840KMKG MKG20011102044509711/02/01 04:45:31  5-MIN KMKG 020945Z 22011KT 4SM BR FEW027 13/12 A2987 680 96 600 230/11 RMK AO2
14840KMKG MKG20011102045011111/02/01 04:50:31  5-MIN KMKG 020950Z 23011KT 4SM BR CLR 13/12 A2987 680 96 600 230/11 RMK AO2 SLP115 T01280122
14840KMKG MKG20011102045511111/02/01 04:55:31  5-MIN KMKG 020955Z 23009KT 4SM BR CLR 13/12 A2987 680 93 600 240/09 RMK AO2 SLP114 T01280117
14840KMKG MKG20011102050009411/02/01 05:00:31  5-MIN KMKG 021000Z 24008KT 4SM BR CLR 13/12 A2987 680 93 600 240/08 RMK AO2
14840KMKG MKG20011102050509411/02/01 05:05:31  5-MIN KMKG 021005Z 24010KT 4SM BR CLR 13/12 A2987 670 93 600 250/10 RMK AO2
14840KMKG MKG20011102051009411/02/01 05:10:31  5-MIN KMKG 021010Z 23008KT 4SM BR CLR 12/12 A2988 670 96 500 240/08 RMK AO2
14840KMKG MKG20011102051509411/02/01 05:15:31  5-MIN KMKG 021015Z 24008KT 4SM BR CLR 12/12 A2988 670 96 500 240/08 RMK AO2
14840KMKG MKG20011102052009411/02/01 05:20:31  5-MIN KMKG 021020Z 24007KT 4SM BR CLR 12/12 A2988 670 96 500 240/07 RMK AO2
14840KMKG MKG20011102052509411/02/01 05:25:31  5-MIN KMKG 021025Z 25006KT 4SM BR CLR 12/12 A2988 660 96 500 250/06 RMK AO2
14840KMKG MKG20011102053009411/02/01 05:30:31  5-MIN KMKG 021030Z 25007KT 4SM BR CLR 12/11 A2989 660 93 500 250/07 RMK AO2
14840KMKG MKG20011102053509411/02/01 05:35:31  5-MIN KMKG 021035Z 25007KT 4SM BR CLR 12/11 A2989 660 93 500 250/07 RMK AO2
14840KMKG MKG20011102054009411/02/01 05:40:31  5-MIN KMKG 021040Z 25007KT 5SM BR CLR 12/11 A2989 660 93 500 260/07 RMK AO2
14840KMKG MKG20011102054509411/02/01 05:45:31  5-MIN KMKG 021045Z 25007KT 5SM BR CLR 12/11 A2989 660 89 500 250/07 RMK AO2
14840KMKG MKG20011102055011111/02/01 05:50:31  5-MIN KMKG 021050Z 25006KT 5SM BR CLR 12/11 A2990 650 89 500 250/06 RMK AO2 SLP124 T01220106
14840KMKG MKG20011102055511111/02/01 05:55:31  5-MIN KMKG 021055Z 25006KT 5SM BR CLR 12/11 A2990 650 93 400 260/06 RMK AO2 SLP125 T01170106
14840KMKG MKG20011102060009411/02/01 06:00:31  5-MIN KMKG 021100Z 25006KT 6SM BR CLR 12/11 A2990 650 89 500 250/06 RMK AO2
14840KMKG MKG20011102060509411/02/01 06:05:31  5-MIN KMKG 021105Z 26008KT 6SM BR CLR 12/11 A2990 650 89 500 260/08 RMK AO2
14840KMKG MKG20011102061009411/02/01 06:10:31  5-MIN KMKG 021110Z 26008KT 6SM BR CLR 12/11 A2990 650 89 500 270/08 RMK AO2
14840KMKG MKG20011102061509111/02/01 06:15:31  5-MIN KMKG 021115Z 26006KT 7SM CLR 12/10 A2990 650 89 400 270/06 RMK AO2
14840KMKG MKG20011102062009111/02/01 06:20:31  5-MIN KMKG 021120Z 27005KT 7SM CLR 12/10 A2990 650 89 400 280/05 RMK AO2
14840KMKG MKG20011102062509411/02/01 06:25:31  5-MIN KMKG 021125Z 28006KT 7SM FEW065 12/09 A2991 640 86 400 280/06 RMK AO2
14840KMKG MKG20011102063009411/02/01 06:30:31  5-MIN KMKG 021130Z 27006KT 9SM SCT070 12/09 A2991 640 83 400 280/06 RMK AO2
14840KMKG MKG20011102063510211/02/01 06:35:31  5-MIN KMKG 021135Z 28006KT 10SM FEW070 SCT080 12/08 A2991 640 80 400 280/06 RMK AO2
14840KMKG MKG20011102064010211/02/01 06:40:31  5-MIN KMKG 021140Z 29007KT 10SM FEW070 BKN080 12/08 A2991 640 77 400 290/07 RMK AO2
14840KMKG MKG20011102064510211/02/01 06:45:31  5-MIN KMKG 021145Z 28006KT 10SM FEW070 BKN080 12/07 A2991 640 71 500 290/06 RMK AO2
14840KMKG MKG20011102065014311/02/01 06:50:31  5-MIN KMKG 021150Z 28006KT 10SM FEW070 OVC085 12/08 A2991 640 77 400 280/06 RMK AO2 SLP130 70004 T01170078 10144 20117 53002
14840KMKG MKG20011102065513611/02/01 06:55:31  5-MIN KMKG 021155Z 27006KT 10SM BKN080 12/08 A2992 630 77 400 280/06 RMK AO2 SLP131 70004 T01170078 10144 20117 53021
14840KMKG MKG20011102070009511/02/01 07:00:31  5-MIN KMKG 021200Z 27005KT 10SM BKN085 12/07 A2992 630 74 400 270/05 RMK AO2
14840KMKG MKG20011102070509511/02/01 07:05:31  5-MIN KMKG 021205Z 27005KT 10SM SCT085 11/07 A2993 630 77 300 270/05 RMK AO2
14840KMKG MKG20011102071009511/02/01 07:10:31  5-MIN KMKG 021210Z 26006KT 10SM SCT085 11/07 A2993 620 77 300 260/06 RMK AO2
14840KMKG MKG20011102071509511/02/01 07:15:31  5-MIN KMKG 021215Z 27006KT 10SM FEW085 12/08 A2993 620 77 400 270/06 RMK AO2
14840KMKG MKG20011102072009511/02/01 07:20:31  5-MIN KMKG 021220Z 27006KT 10SM FEW080 11/07 A2993 620 77 300 270/06 RMK AO2
14840KMKG MKG20011102072509511/02/01 07:25:31  5-MIN KMKG 021225Z 27007KT 10SM SCT075 11/07 A2993 620 77 300 270/07 RMK AO2
14840KMKG MKG20011102073009511/02/01 07:30:31  5-MIN KMKG 021230Z 26007KT 10SM BKN075 11/08 A2993 620 80 300 260/07 RMK AO2
14840KMKG MKG20011102073509511/02/01 07:35:31  5-MIN KMKG 021235Z 26007KT 10SM BKN075 12/07 A2994 620 74 400 270/07 RMK AO2
14840KMKG MKG20011102074009511/02/01 07:40:31  5-MIN KMKG 021240Z 26007KT 10SM BKN075 12/07 A2994 610 74 400 270/07 RMK AO2
14840KMKG MKG20011102074509511/02/01 07:45:31  5-MIN KMKG 021245Z 26007KT 10SM OVC075 12/07 A2994 610 74 400 270/07 RMK AO2
14840KMKG MKG20011102075011211/02/01 07:50:31  5-MIN KMKG 021250Z 26008KT 10SM OVC075 12/07 A2995 600 74 400 260/08 RMK AO2 SLP142 T01170072
14840KMKG MKG20011102075511211/02/01 07:55:31  5-MIN KMKG 021255Z 26007KT 10SM BKN075 12/07 A2995 600 74 400 260/07 RMK AO2 SLP142 T01170072
14840KMKG MKG20011102080009511/02/01 08:00:31  5-MIN KMKG 021300Z 26007KT 10SM BKN080 12/07 A2995 600 74 400 260/07 RMK AO2
14840KMKG MKG20011102080509511/02/01 08:05:31  5-MIN KMKG 021305Z 26007KT 10SM BKN080 12/07 A2995 600 74 400 260/07 RMK AO2
14840KMKG MKG20011102081009511/02/01 08:10:31  5-MIN KMKG 021310Z 26007KT 10SM SCT080 12/07 A2995 600 74 400 270/07 RMK AO2
14840KMKG MKG20011102081509511/02/01 08:15:31  5-MIN KMKG 021315Z 26007KT 10SM FEW080 12/07 A2996 600 74 400 260/07 RMK AO2
14840KMKG MKG20011102082009511/02/01 08:20:31  5-MIN KMKG 021320Z 26006KT 10SM FEW080 12/07 A2996 590 74 400 260/06 RMK AO2
14840KMKG MKG20011102082509211/02/01 08:25:31  5-MIN KMKG 021325Z 27006KT 10SM CLR 12/07 A2997 590 74 400 270/06 RMK AO2
14840KMKG MKG20011102083009211/02/01 08:30:31  5-MIN KMKG 021330Z 26006KT 10SM CLR 12/07 A2997 590 71 400 260/06 RMK AO2
14840KMKG MKG20011102083509211/02/01 08:35:31  5-MIN KMKG 021335Z 27006KT 10SM CLR 12/07 A2997 590 71 400 270/06 RMK AO2
14840KMKG MKG20011102084009211/02/01 08:40:31  5-MIN KMKG 021340Z 26007KT 10SM CLR 12/07 A2997 580 71 400 260/07 RMK AO2
14840KMKG MKG20011102084509211/02/01 08:45:31  5-MIN KMKG 021345Z 26008KT 10SM CLR 12/07 A2997 580 68 400 270/08 RMK AO2
14840KMKG MKG20011102085010911/02/01 08:50:31  5-MIN KMKG 021350Z 26008KT 10SM CLR 12/07 A2998 580 68 400 270/08 RMK AO2 SLP152 T01220067
14840KMKG MKG20011102085510911/02/01 08:55:31  5-MIN KMKG 021355Z 27009KT 10SM CLR 13/06 A2998 570 63 500 270/09 RMK AO2 SLP153 T01280061
14840KMKG MKG20011102090009211/02/01 09:00:31  5-MIN KMKG 021400Z 26009KT 10SM CLR 13/06 A2998 570 63 500 270/09 RMK AO2
14840KMKG MKG20011102090509211/02/01 09:05:31  5-MIN KMKG 021405Z 27009KT 10SM CLR 13/06 A2998 570 63 500 280/09 RMK AO2
14840KMKG MKG20011102091009211/02/01 09:10:31  5-MIN KMKG 021410Z 26008KT 10SM CLR 13/06 A2998 570 61 500 270/08 RMK AO2
14840KMKG MKG20011102091509211/02/01 09:15:31  5-MIN KMKG 021415Z 27009KT 10SM CLR 13/06 A2998 570 63 500 270/09 RMK AO2
14840KMKG MKG20011102092009211/02/01 09:20:31  5-MIN KMKG 021420Z 26009KT 10SM CLR 13/06 A2998 570 63 500 270/09 RMK AO2
14840KMKG MKG20011102092509211/02/01 09:25:31  5-MIN KMKG 021425Z 27009KT 10SM CLR 13/06 A2998 570 61 500 270/09 RMK AO2
14840KMKG MKG20011102093009211/02/01 09:30:31  5-MIN KMKG 021430Z 27011KT 10SM CLR 13/07 A2998 570 64 500 280/11 RMK AO2
14840KMKG MKG20011102093509211/02/01 09:35:31  5-MIN KMKG 021435Z 27010KT 10SM CLR 13/06 A2998 570 61 500 270/10 RMK AO2
14840KMKG MKG20011102094009211/02/01 09:40:31  5-MIN KMKG 021440Z 27010KT 10SM CLR 13/06 A2999 570 61 500 270/10 RMK AO2
14840KMKG MKG20011102094509211/02/01 09:45:31  5-MIN KMKG 021445Z 27011KT 10SM CLR 13/06 A2999 570 59 500 270/11 RMK AO2
14840KMKG MKG20011102095011511/02/01 09:50:31  5-MIN KMKG 021450Z 26007KT 10SM CLR 13/06 A2999 570 61 500 260/07 RMK AO2 SLP155 T01330061 53021
14840KMKG MKG20011102095511511/02/01 09:55:31  5-MIN KMKG 021455Z 25007KT 10SM CLR 14/06 A2999 570 59 600 250/07 RMK AO2 SLP155 T01390061 51024
14840KMKG MKG20011102100009211/02/01 10:00:31  5-MIN KMKG 021500Z 26008KT 10SM CLR 14/06 A2999 570 59 600 270/08 RMK AO2
14840KMKG MKG20011102100509211/02/01 10:05:31  5-MIN KMKG 021505Z 26008KT 10SM CLR 14/06 A2999 570 59 600 270/08 RMK AO2
14840KMKG MKG20011102101009211/02/01 10:10:31  5-MIN KMKG 021510Z 26008KT 10SM CLR 14/06 A2999 570 57 600 260/08 RMK AO2
14840KMKG MKG20011102101509211/02/01 10:15:31  5-MIN KMKG 021515Z 25007KT 10SM CLR 14/06 A2999 570 59 600 250/07 RMK AO2
14840KMKG MKG20011102102009211/02/01 10:20:31  5-MIN KMKG 021520Z 25008KT 10SM CLR 14/06 A2999 570 57 600 260/08 RMK AO2
14840KMKG MKG20011102102509211/02/01 10:25:31  5-MIN KMKG 021525Z 24009KT 10SM CLR 14/06 A2999 570 57 600 250/09 RMK AO2
14840KMKG MKG20011102103009211/02/01 10:30:31  5-MIN KMKG 021530Z 25010KT 10SM CLR 14/06 A2999 560 57 600 250/10 RMK AO2
14840KMKG MKG20011102103509211/02/01 10:35:31  5-MIN KMKG 021535Z 25011KT 10SM CLR 14/05 A2999 560 55 600 260/11 RMK AO2
14840KMKG MKG20011102104009211/02/01 10:40:31  5-MIN KMKG 021540Z 25011KT 10SM CLR 14/05 A2999 560 55 600 260/11 RMK AO2
14840KMKG MKG20011102104509211/02/01 10:45:31  5-MIN KMKG 021545Z 26011KT 10SM CLR 14/05 A3000 560 55 600 260/11 RMK AO2
14840KMKG MKG20011102105010911/02/01 10:50:31  5-MIN KMKG 021550Z 26012KT 10SM CLR 14/05 A3000 560 55 600 260/12 RMK AO2 SLP158 T01390050
14840KMKG MKG20011102105510911/02/01 10:55:31  5-MIN KMKG 021555Z 26012KT 10SM CLR 14/05 A3000 560 55 600 260/12 RMK AO2 SLP158 T01390050
14840KMKG MKG20011102110009211/02/01 11:00:31  5-MIN KMKG 021600Z 26009KT 10SM CLR 14/05 A3000 560 55 600 260/09 RMK AO2
14840KMKG MKG20011102110509211/02/01 11:05:31  5-MIN KMKG 021605Z 25011KT 10SM CLR 14/06 A3000 560 55 700 250/11 RMK AO2
14840KMKG MKG20011102111009211/02/01 11:10:31  5-MIN KMKG 021610Z 25011KT 10SM CLR 14/05 A3000 560 55 600 250/11 RMK AO2
14840KMKG MKG20011102111509211/02/01 11:15:31  5-MIN KMKG 021615Z 24012KT 10SM CLR 14/05 A3000 550 55 600 250/12 RMK AO2
14840KMKG MKG20011102112009211/02/01 11:20:31  5-MIN KMKG 021620Z 25012KT 10SM CLR 14/05 A3000 550 55 600 250/12 RMK AO2
14840KMKG MKG20011102112509211/02/01 11:25:31  5-MIN KMKG 021625Z 24012KT 10SM CLR 14/05 A3000 550 55 600 250/12 RMK AO2
14840KMKG MKG20011102113009211/02/01 11:30:31  5-MIN KMKG 021630Z 25012KT 10SM CLR 14/04 A3000 550 52 600 250/12 RMK AO2
14840KMKG MKG20011102113509211/02/01 11:35:31  5-MIN KMKG 021635Z 24010KT 10SM CLR 14/04 A3000 550 51 700 240/10 RMK AO2
14840KMKG MKG20011102114009211/02/01 11:40:31  5-MIN KMKG 021640Z 24012KT 10SM CLR 14/04 A3001 550 51 700 250/12 RMK AO2
14840KMKG MKG20011102114509211/02/01 11:45:31  5-MIN KMKG 021645Z 24010KT 10SM CLR 14/04 A3001 550 49 700 250/10 RMK AO2
14840KMKG MKG20011102115010911/02/01 11:50:31  5-MIN KMKG 021650Z 24011KT 10SM CLR 15/04 A3001 550 49 700 240/11 RMK AO2 SLP160 T01500044
14840KMKG MKG20011102115510911/02/01 11:55:31  5-MIN KMKG 021655Z 24013KT 10SM CLR 14/04 A3001 550 49 700 240/13 RMK AO2 SLP162 T01440039
14840KMKG MKG20011102221009211/02/01 22:10:31  5-MIN KMKG 030310Z 28010KT 10SM CLR 11/02 A3016 410 52 100 280/10 RMK AO2
14840KMKG MKG20011102221509211/02/01 22:15:31  5-MIN KMKG 030315Z 28011KT 10SM CLR 11/02 A3017 400 52 100 280/11 RMK AO2
14840KMKG MKG20011102222009211/02/01 22:20:31  5-MIN KMKG 030320Z 27011KT 10SM CLR 11/03 A3017 400 56 100 280/11 RMK AO2
14840KMKG MKG20011102222509211/02/01 22:25:31  5-MIN KMKG 030325Z 28010KT 10SM CLR 11/03 A3017 400 56 100 280/10 RMK AO2
14840KMKG MKG20011102223009211/02/01 22:30:31  5-MIN KMKG 030330Z 28010KT 10SM CLR 11/03 A3017 400 56 100 280/10 RMK AO2
14840KMKG MKG20011102223509211/02/01 22:35:31  5-MIN KMKG 030335Z 28011KT 10SM CLR 11/03 A3018 400 56 100 280/11 RMK AO2
14840KMKG MKG20011102224009211/02/01 22:40:31  5-MIN KMKG 030340Z 27010KT 10SM CLR 11/03 A3018 390 56 100 280/10 RMK AO2
14840KMKG MKG20011102224509211/02/01 22:45:31  5-MIN KMKG 030345Z 27009KT 10SM CLR 11/03 A3018 390 56 100 280/09 RMK AO2
14840KMKG MKG20011102225010911/02/01 22:50:31  5-MIN KMKG 030350Z 27009KT 10SM CLR 11/03 A3018 390 56 100 280/09 RMK AO2 SLP221 T01110028
14840KMKG MKG20011102225510911/02/01 22:55:31  5-MIN KMKG 030355Z 27009KT 10SM CLR 11/02 A3018 390 54 100 280/09 RMK AO2 SLP221 T01110022
14840KMKG MKG20011102230009011/02/01 23:00:31  5-MIN KMKG 030400Z 27009KT 10SM CLR 11/03 A3018 390 58 0 280/09 RMK AO2
14840KMKG MKG20011102230509011/02/01 23:05:31  5-MIN KMKG 030405Z 28008KT 10SM CLR 11/03 A3018 390 58 0 280/08 RMK AO2
14840KMKG MKG20011102231009211/02/01 23:10:31  5-MIN KMKG 030410Z 28009KT 10SM CLR 11/03 A3018 390 56 100 280/09 RMK AO2
14840KMKG MKG20011102231509011/02/01 23:15:31  5-MIN KMKG 030415Z 28008KT 10SM CLR 11/03 A3019 390 58 0 280/08 RMK AO2
14840KMKG MKG20011102232009011/02/01 23:20:31  5-MIN KMKG 030420Z 28009KT 10SM CLR 11/02 A3019 390 56 0 280/09 RMK AO2
14840KMKG MKG20011102232509011/02/01 23:25:31  5-MIN KMKG 030425Z 28011KT 10SM CLR 11/02 A3019 390 56 0 280/11 RMK AO2
14840KMKG MKG20011102233009011/02/01 23:30:31  5-MIN KMKG 030430Z 28012KT 10SM CLR 11/02 A3019 380 56 0 280/12 RMK AO2
14840KMKG MKG20011102233509011/02/01 23:35:31  5-MIN KMKG 030435Z 28010KT 10SM CLR 11/02 A3019 380 56 0 280/10 RMK AO2
14840KMKG MKG20011102234009011/02/01 23:40:31  5-MIN KMKG 030440Z 28009KT 10SM CLR 11/02 A3019 380 56 0 280/09 RMK AO2
14840KMKG MKG20011102234509011/02/01 23:45:31  5-MIN KMKG 030445Z 27008KT 10SM CLR 11/02 A3019 380 56 0 280/08 RMK AO2
14840KMKG MKG20011102235011711/02/01 23:50:31  5-MIN KMKG 030450Z 28009KT 10SM CLR 11/03 A3019 380 58 0 280/09 RMK AO2 SLP225 T01060028 401560106
14840KMKG MKG20011102235511711/02/01 23:55:31  5-MIN KMKG 030455Z 28009KT 10SM CLR 11/03 A3019 380 58 0 280/09 RMK AO2 SLP225 T01060028 401560100
14840KMKG MKG20011103000009011/03/01 00:00:31  5-MIN KMKG 030500Z 28010KT 10SM CLR 11/03 A3019 380 58 0 280/10 RMK AO2
14840KMKG MKG20011103000509011/03/01 00:05:31  5-MIN KMKG 030505Z 28009KT 10SM CLR 11/02 A3019 380 56 0 280/09 RMK AO2
14840KMKG MKG20011103001009011/03/01 00:10:31  5-MIN KMKG 030510Z 27010KT 10SM CLR 11/02 A3019 380 56 0 280/10 RMK AO2
14840KMKG MKG20011103001509011/03/01 00:15:31  5-MIN KMKG 030515Z 28009KT 10SM CLR 11/02 A3019 380 56 0 280/09 RMK AO2
14840KMKG MKG20011103002009011/03/01 00:20:31  5-MIN KMKG 030520Z 28009KT 10SM CLR 10/02 A3020 380 58 0 280/09 RMK AO2
14840KMKG MKG20011103002509011/03/01 00:25:31  5-MIN KMKG 030525Z 27009KT 10SM CLR 11/03 A3020 380 58 0 280/09 RMK AO2
14840KMKG MKG20011103003009011/03/01 00:30:31  5-MIN KMKG 030530Z 27009KT 10SM CLR 10/03 A3020 370 63 0 280/09 RMK AO2
14840KMKG MKG20011103003509011/03/01 00:35:31  5-MIN KMKG 030535Z 27008KT 10SM CLR 10/03 A3020 370 63 0 280/08 RMK AO2
14840KMKG MKG20011103004009011/03/01 00:40:31  5-MIN KMKG 030540Z 27010KT 10SM CLR 11/03 A3020 370 61 0 280/10 RMK AO2
14840KMKG MKG20011103004509311/03/01 00:45:31  5-MIN KMKG 030545Z 28010KT 10SM CLR 10/03 A3020 370 63 -100 280/10 RMK AO2
14840KMKG MKG20011103005012511/03/01 00:50:31  5-MIN KMKG 030550Z 28009KT 10SM CLR 11/03 A3021 370 58 0 280/09 RMK AO2 SLP230 T01060028 10122 20100 53020
14840KMKG MKG20011103005512811/03/01 00:55:31  5-MIN KMKG 030555Z 28010KT 10SM CLR 10/02 A3021 370 58 -100 280/10 RMK AO2 SLP231 T01000022 10122 20100 51016
14840KMKG MKG20011103010009011/03/01 01:00:31  5-MIN KMKG 030600Z 28011KT 10SM CLR 11/02 A3021 370 56 0 280/11 RMK AO2
14840KMKG MKG20011103010509311/03/01 01:05:31  5-MIN KMKG 030605Z 27009KT 10SM CLR 10/02 A3021 370 58 -100 280/09 RMK AO2
14840KMKG MKG20011103011009311/03/01 01:10:31  5-MIN KMKG 030610Z 27010KT 10SM CLR 10/02 A3021 360 58 -100 280/10 RMK AO2
14840KMKG MKG20011103011509311/03/01 01:15:31  5-MIN KMKG 030615Z 27008KT 10SM CLR 10/02 A3021 360 58 -100 280/08 RMK AO2
14840KMKG MKG20011103012009311/03/01 01:20:31  5-MIN KMKG 030620Z 27009KT 10SM CLR 10/03 A3021 360 60 -100 270/09 RMK AO2
14840KMKG MKG20011103012509311/03/01 01:25:31  5-MIN KMKG 030625Z 27010KT 10SM CLR 10/03 A3021 360 60 -100 280/10 RMK AO2
14840KMKG MKG20011103013009311/03/01 01:30:31  5-MIN KMKG 030630Z 27009KT 10SM CLR 10/03 A3022 360 60 -100 280/09 RMK AO2
14840KMKG MKG20011103013509311/03/01 01:35:31  5-MIN KMKG 030635Z 28010KT 10SM CLR 10/03 A3022 360 60 -100 290/10 RMK AO2
14840KMKG MKG20011103014009311/03/01 01:40:31  5-MIN KMKG 030640Z 28010KT 10SM CLR 10/03 A3022 360 60 -100 280/10 RMK AO2
14840KMKG MKG20011103014509311/03/01 01:45:31  5-MIN KMKG 030645Z 28010KT 10SM CLR 10/03 A3022 350 60 -100 280/10 RMK AO2
14840KMKG MKG20011103015011011/03/01 01:50:31  5-MIN KMKG 030650Z 28010KT 10SM CLR 10/02 A3022 350 58 -100 280/10 RMK AO2 SLP236 T01000022
14840KMKG MKG20011103015511011/03/01 01:55:31  5-MIN KMKG 030655Z 28010KT 10SM CLR 10/02 A3022 350 58 -100 290/10 RMK AO2 SLP236 T01000022
14840KMKG MKG20011103020009311/03/01 02:00:31  5-MIN KMKG 030700Z 29007KT 10SM CLR 10/02 A3022 350 58 -100 290/07 RMK AO2
14840KMKG MKG20011103020509311/03/01 02:05:31  5-MIN KMKG 030705Z 28008KT 10SM CLR 10/02 A3022 350 58 -100 290/08 RMK AO2
14840KMKG MKG20011103021009311/03/01 02:10:31  5-MIN KMKG 030710Z 28009KT 10SM CLR 10/03 A3023 350 60 -100 290/09 RMK AO2
14840KMKG MKG20011103021509311/03/01 02:15:31  5-MIN KMKG 030715Z 28009KT 10SM CLR 10/02 A3023 350 58 -100 290/09 RMK AO2
14840KMKG MKG20011103022009311/03/01 02:20:31  5-MIN KMKG 030720Z 29010KT 10SM CLR 10/03 A3023 340 60 -100 290/10 RMK AO2
14840KMKG MKG20011103022509311/03/01 02:25:31  5-MIN KMKG 030725Z 28008KT 10SM CLR 09/03 A3023 340 63 -200 290/08 RMK AO2
14840KMKG MKG20011103023009311/03/01 02:30:31  5-MIN KMKG 030730Z 28010KT 10SM CLR 10/02 A3023 340 58 -100 290/10 RMK AO2
14840KMKG MKG20011103023509311/03/01 02:35:31  5-MIN KMKG 030735Z 29009KT 10SM CLR 10/02 A3023 340 58 -100 290/09 RMK AO2
14840KMKG MKG20011103024009311/03/01 02:40:31  5-MIN KMKG 030740Z 29009KT 10SM CLR 10/03 A3024 340 60 -100 290/09 RMK AO2
14840KMKG MKG20011103024509311/03/01 02:45:31  5-MIN KMKG 030745Z 29007KT 10SM CLR 10/03 A3024 340 60 -100 290/07 RMK AO2
14840KMKG MKG20011103025011011/03/01 02:50:31  5-MIN KMKG 030750Z 29009KT 10SM CLR 10/03 A3024 340 60 -100 290/09 RMK AO2 SLP242 T01000028
14840KMKG MKG20011103025511011/03/01 02:55:31  5-MIN KMKG 030755Z 29007KT 10SM CLR 10/03 A3024 330 60 -100 290/07 RMK AO2 SLP243 T01000028
14840KMKG MKG20011103030009311/03/01 03:00:31  5-MIN KMKG 030800Z 29008KT 10SM CLR 09/03 A3024 330 63 -200 290/08 RMK AO2
14840KMKG MKG20011103030509311/03/01 03:05:31  5-MIN KMKG 030805Z 29009KT 10SM CLR 10/03 A3025 330 60 -100 290/09 RMK AO2
14840KMKG MKG20011103031009311/03/01 03:10:31  5-MIN KMKG 030810Z 29007KT 10SM CLR 09/03 A3025 330 63 -200 290/07 RMK AO2
14840KMKG MKG20011103031509311/03/01 03:15:31  5-MIN KMKG 030815Z 29007KT 10SM CLR 09/03 A3025 330 63 -200 300/07 RMK AO2
14840KMKG MKG20011103032009311/03/01 03:20:31  5-MIN KMKG 030820Z 28007KT 10SM CLR 09/03 A3025 330 63 -200 290/07 RMK AO2
14840KMKG MKG20011103032509311/03/01 03:25:31  5-MIN KMKG 030825Z 29010KT 10SM CLR 09/02 A3025 330 60 -200 290/10 RMK AO2
14840KMKG MKG20011103033009311/03/01 03:30:31  5-MIN KMKG 030830Z 29009KT 10SM CLR 09/02 A3025 320 60 -200 300/09 RMK AO2
14840KMKG MKG20011103033509311/03/01 03:35:31  5-MIN KMKG 030835Z 29008KT 10SM CLR 09/03 A3025 320 63 -200 290/08 RMK AO2
14840KMKG MKG20011103034009311/03/01 03:40:31  5-MIN KMKG 030840Z 29008KT 10SM CLR 09/03 A3026 320 63 -200 290/08 RMK AO2
14840KMKG MKG20011103034509311/03/01 03:45:31  5-MIN KMKG 030845Z 29006KT 10SM CLR 09/03 A3026 320 63 -200 300/06 RMK AO2
14840KMKG MKG20011103035011611/03/01 03:50:31  5-MIN KMKG 030850Z 29007KT 10SM CLR 09/03 A3026 320 65 -300 290/07 RMK AO2 SLP249 T00890028 51016
14840KMKG MKG20011103035511611/03/01 03:55:31  5-MIN KMKG 030855Z 29007KT 10SM CLR 09/03 A3026 320 65 -300 290/07 RMK AO2 SLP250 T00890028 53019
14840KMKG MKG20011103040009311/03/01 04:00:31  5-MIN KMKG 030900Z 29009KT 10SM CLR 09/03 A3027 310 63 -200 290/09 RMK AO2
14840KMKG MKG20011103040509311/03/01 04:05:31  5-MIN KMKG 030905Z 29007KT 10SM CLR 09/03 A3027 310 63 -200 290/07 RMK AO2
14840KMKG MKG20011103041009311/03/01 04:10:31  5-MIN KMKG 030910Z 29006KT 10SM CLR 09/03 A3027 310 65 -300 290/06 RMK AO2
14840KMKG MKG20011103041509311/03/01 04:15:31  5-MIN KMKG 030915Z 29006KT 10SM CLR 09/03 A3027 310 68 -300 300/06 RMK AO2
14840KMKG MKG20011103042009311/03/01 04:20:31  5-MIN KMKG 030920Z 29006KT 10SM CLR 09/03 A3027 310 68 -300 290/06 RMK AO2
14840KMKG MKG20011103042509311/03/01 04:25:31  5-MIN KMKG 030925Z 29005KT 10SM CLR 09/03 A3027 310 68 -300 290/05 RMK AO2
14840KMKG MKG20011103043009311/03/01 04:30:31  5-MIN KMKG 030930Z 29006KT 10SM CLR 09/03 A3027 310 68 -300 300/06 RMK AO2
14840KMKG MKG20011103043509311/03/01 04:35:31  5-MIN KMKG 030935Z 30007KT 10SM CLR 09/03 A3028 300 68 -300 300/07 RMK AO2
14840KMKG MKG20011103044009311/03/01 04:40:31  5-MIN KMKG 030940Z 29005KT 10SM CLR 09/03 A3028 300 68 -300 300/05 RMK AO2
14840KMKG MKG20011103044509311/03/01 04:45:31  5-MIN KMKG 030945Z 29006KT 10SM CLR 09/03 A3028 300 68 -300 300/06 RMK AO2
14840KMKG MKG20011103045011011/03/01 04:50:31  5-MIN KMKG 030950Z 29004KT 10SM CLR 08/03 A3028 300 70 -300 300/04 RMK AO2 SLP256 T00830033
14840KMKG MKG20011103045511011/03/01 04:55:31  5-MIN KMKG 030955Z 29005KT 10SM CLR 08/03 A3028 300 70 -300 290/05 RMK AO2 SLP257 T00830033
14840KMKG MKG20011103050009311/03/01 05:00:31  5-MIN KMKG 031000Z 30005KT 10SM CLR 08/03 A3028 300 70 -300 300/05 RMK AO2
14840KMKG MKG20011103050509311/03/01 05:05:31  5-MIN KMKG 031005Z 29003KT 10SM CLR 08/03 A3029 290 70 -300 300/03 RMK AO2
14840KMKG MKG20011103051009311/03/01 05:10:31  5-MIN KMKG 031010Z 29005KT 10SM CLR 08/03 A3029 290 70 -400 290/05 RMK AO2
14840KMKG MKG20011103051509311/03/01 05:15:31  5-MIN KMKG 031015Z 29004KT 10SM CLR 08/03 A3029 290 70 -400 290/04 RMK AO2
14840KMKG MKG20011103052009311/03/01 05:20:31  5-MIN KMKG 031020Z 29005KT 10SM CLR 08/03 A3029 290 70 -400 300/05 RMK AO2
14840KMKG MKG20011103052509311/03/01 05:25:31  5-MIN KMKG 031025Z 28005KT 10SM CLR 08/03 A3030 280 70 -400 290/05 RMK AO2
14840KMKG MKG20011103053009311/03/01 05:30:31  5-MIN KMKG 031030Z 28004KT 10SM CLR 08/03 A3030 280 70 -400 290/04 RMK AO2
14840KMKG MKG20011103053509311/03/01 05:35:31  5-MIN KMKG 031035Z 29004KT 10SM CLR 08/03 A3030 280 70 -400 290/04 RMK AO2
14840KMKG MKG20011103054009311/03/01 05:40:31  5-MIN KMKG 031040Z 28004KT 10SM CLR 08/03 A3031 270 68 -400 290/04 RMK AO2
14840KMKG MKG20011103054509311/03/01 05:45:31  5-MIN KMKG 031045Z 29004KT 10SM CLR 08/03 A3031 270 70 -400 300/04 RMK AO2
14840KMKG MKG20011103055011011/03/01 05:50:31  5-MIN KMKG 031050Z 29004KT 10SM CLR 08/03 A3031 270 70 -400 290/04 RMK AO2 SLP267 T00780028
14840KMKG MKG20011103055511011/03/01 05:55:31  5-MIN KMKG 031055Z 29004KT 10SM CLR 08/03 A3031 270 70 -400 290/04 RMK AO2 SLP267 T00780028
14840KMKG MKG20011103060009311/03/01 06:00:31  5-MIN KMKG 031100Z 30004KT 10SM CLR 08/03 A3031 270 70 -400 300/04 RMK AO2
14840KMKG MKG20011103060509311/03/01 06:05:31  5-MIN KMKG 031105Z 29003KT 10SM CLR 08/03 A3031 270 68 -400 300/03 RMK AO2
14840KMKG MKG20011103061009311/03/01 06:10:31  5-MIN KMKG 031110Z 29003KT 10SM CLR 08/03 A3031 270 70 -400 290/03 RMK AO2
14840KMKG MKG20011103061509311/03/01 06:15:31  5-MIN KMKG 031115Z 29004KT 10SM CLR 08/03 A3031 270 68 -400 300/04 RMK AO2
14840KMKG MKG20011103062009311/03/01 06:20:31  5-MIN KMKG 031120Z 30004KT 10SM CLR 08/03 A3031 270 70 -400 300/04 RMK AO2
14840KMKG MKG20011103062509311/03/01 06:25:31  5-MIN KMKG 031125Z 29004KT 10SM CLR 08/03 A3031 270 70 -400 300/04 RMK AO2
14840KMKG MKG20011103063009311/03/01 06:30:31  5-MIN KMKG 031130Z 00000KT 10SM CLR 07/03 A3031 270 73 -500 000/00 RMK AO2
14840KMKG MKG20011103063509311/03/01 06:35:31  5-MIN KMKG 031135Z 30004KT 10SM CLR 07/03 A3031 270 76 -600 300/04 RMK AO2
14840KMKG MKG20011103064009311/03/01 06:40:31  5-MIN KMKG 031140Z 29004KT 10SM CLR 07/03 A3032 270 73 -500 290/04 RMK AO2
14840KMKG MKG20011103064509311/03/01 06:45:31  5-MIN KMKG 031145Z 28004KT 10SM CLR 08/03 A3032 260 73 -500 290/04 RMK AO2
14840KMKG MKG20011103065012811/03/01 06:50:31  5-MIN KMKG 031150Z 28005KT 10SM CLR 07/03 A3032 260 73 -500 290/05 RMK AO2 SLP270 T00720028 10106 20067 53019
14840KMKG MKG20011103065512811/03/01 06:55:31  5-MIN KMKG 031155Z 29004KT 10SM CLR 07/03 A3032 260 73 -500 290/04 RMK AO2 SLP271 T00720028 10106 20067 51019
14840KMKG MKG20011103070009311/03/01 07:00:31  5-MIN KMKG 031200Z 29004KT 10SM CLR 07/03 A3032 260 73 -500 290/04 RMK AO2
14840KMKG MKG20011103070509311/03/01 07:05:31  5-MIN KMKG 031205Z 28005KT 10SM CLR 07/03 A3032 260 76 -500 280/05 RMK AO2
14840KMKG MKG20011103071009311/03/01 07:10:31  5-MIN KMKG 031210Z 28004KT 10SM CLR 07/03 A3033 260 73 -500 280/04 RMK AO2
14840KMKG MKG20011103071509311/03/01 07:15:31  5-MIN KMKG 031215Z 28004KT 10SM CLR 07/03 A3033 260 73 -500 290/04 RMK AO2
14840KMKG MKG20011103072009311/03/01 07:20:31  5-MIN KMKG 031220Z 28003KT 10SM CLR 07/03 A3033 260 76 -500 290/03 RMK AO2
14840KMKG MKG20011103072509311/03/01 07:25:31  5-MIN KMKG 031225Z 28003KT 10SM CLR 08/03 A3033 260 73 -500 290/03 RMK AO2
14840KMKG MKG20011103073009311/03/01 07:30:31  5-MIN KMKG 031230Z 28003KT 10SM CLR 08/03 A3033 250 73 -500 280/03 RMK AO2
14840KMKG MKG20011103073509311/03/01 07:35:31  5-MIN KMKG 031235Z 29004KT 10SM CLR 08/03 A3033 250 73 -500 300/04 RMK AO2
14840KMKG MKG20011103074009311/03/01 07:40:31  5-MIN KMKG 031240Z 28004KT 10SM CLR 07/03 A3033 250 76 -500 280/04 RMK AO2
14840KMKG MKG20011103074509311/03/01 07:45:31  5-MIN KMKG 031245Z 27003KT 10SM CLR 07/03 A3033 250 76 -500 270/03 RMK AO2
14840KMKG MKG20011103075011011/03/01 07:50:31  5-MIN KMKG 031250Z 27003KT 10SM CLR 06/03 A3034 250 79 -700 280/03 RMK AO2 SLP275 T00610028
14840KMKG MKG20011103075511011/03/01 07:55:31  5-MIN KMKG 031255Z 27003KT 10SM CLR 06/03 A3034 250 79 -700 270/03 RMK AO2 SLP276 T00610028
14840KMKG MKG20011103080009311/03/01 08:00:31  5-MIN KMKG 031300Z 27003KT 10SM CLR 07/03 A3034 250 76 -600 280/03 RMK AO2
14840KMKG MKG20011103080509311/03/01 08:05:31  5-MIN KMKG 031305Z 28003KT 10SM CLR 06/03 A3034 250 82 -700 280/03 RMK AO2
14840KMKG MKG20011103081009311/03/01 08:10:31  5-MIN KMKG 031310Z 28003KT 10SM CLR 06/03 A3034 240 82 -700 280/03 RMK AO2
14840KMKG MKG20011103081509311/03/01 08:15:31  5-MIN KMKG 031315Z 28003KT 10SM CLR 06/03 A3034 240 82 -700 280/03 RMK AO2
14840KMKG MKG20011103082009311/03/01 08:20:31  5-MIN KMKG 031320Z 28003KT 10SM CLR 07/03 A3034 240 79 -600 280/03 RMK AO2
14840KMKG MKG20011103082509311/03/01 08:25:31  5-MIN KMKG 031325Z 27003KT 10SM CLR 07/04 A3035 240 82 -600 270/03 RMK AO2
14840KMKG MKG20011103083009311/03/01 08:30:31  5-MIN KMKG 031330Z 27004KT 10SM CLR 08/04 A3035 240 79 -500 280/04 RMK AO2
14840KMKG MKG20011103083509311/03/01 08:35:31  5-MIN KMKG 031335Z 28004KT 10SM CLR 09/04 A3035 240 73 -400 280/04 RMK AO2
14840KMKG MKG20011103084009311/03/01 08:40:31  5-MIN KMKG 031340Z 28003KT 10SM CLR 09/04 A3035 240 73 -400 280/03 RMK AO2
14840KMKG MKG20011103084509311/03/01 08:45:31  5-MIN KMKG 031345Z 28004KT 10SM CLR 09/04 A3035 240 71 -300 290/04 RMK AO2
14840KMKG MKG20011103085011011/03/01 08:50:31  5-MIN KMKG 031350Z 28005KT 10SM CLR 09/04 A3035 240 71 -300 280/05 RMK AO2 SLP281 T00940044
14840KMKG MKG20011103085511011/03/01 08:55:31  5-MIN KMKG 031355Z 28005KT 10SM CLR 09/05 A3035 230 74 -300 280/05 RMK AO2 SLP281 T00940050
14840KMKG MKG20011103090009311/03/01 09:00:31  5-MIN KMKG 031400Z 28006KT 10SM CLR 09/04 A3035 230 71 -300 280/06 RMK AO2
14840KMKG MKG20011103090509311/03/01 09:05:31  5-MIN KMKG 031405Z 28007KT 10SM CLR 10/05 A3036 230 71 -200 280/07 RMK AO2
14840KMKG MKG20011103091009311/03/01 09:10:31  5-MIN KMKG 031410Z 27006KT 10SM CLR 10/05 A3036 230 71 -200 270/06 RMK AO2
14840KMKG MKG20011103091509311/03/01 09:15:31  5-MIN KMKG 031415Z 27006KT 10SM CLR 10/04 A3036 220 68 -200 280/06 RMK AO2
14840KMKG MKG20011103092009311/03/01 09:20:31  5-MIN KMKG 031420Z 28006KT 10SM CLR 10/04 A3036 220 68 -200 280/06 RMK AO2
14840KMKG MKG20011103092509311/03/01 09:25:31  5-MIN KMKG 031425Z 29006KT 10SM CLR 10/04 A3036 220 68 -200 300/06 RMK AO2
14840KMKG MKG20011103093009311/03/01 09:30:31  5-MIN KMKG 031430Z VRB04KT 10SM CLR 11/05 A3036 220 68 -200 VRB/04 RMK AO2
14840KMKG MKG20011103093509311/03/01 09:35:31  5-MIN KMKG 031435Z 30005KT 10SM CLR 11/05 A3036 220 68 -200 300/05 RMK AO2
14840KMKG MKG20011103094009311/03/01 09:40:31  5-MIN KMKG 031440Z 28005KT 10SM CLR 11/05 A3036 220 68 -200 280/05 RMK AO2
14840KMKG MKG20011103094509311/03/01 09:45:31  5-MIN KMKG 031445Z 26007KT 10SM CLR 11/05 A3036 220 68 -200 260/07 RMK AO2
14840KMKG MKG20011103095011611/03/01 09:50:31  5-MIN KMKG 031450Z 26007KT 10SM CLR 11/05 A3036 220 68 -200 270/07 RMK AO2 SLP284 T01060050 51019
14840KMKG MKG20011103095511611/03/01 09:55:31  5-MIN KMKG 031455Z 26007KT 10SM CLR 11/04 A3036 220 66 -200 270/07 RMK AO2 SLP284 T01060044 51014
14840KMKG MKG20011103100009311/03/01 10:00:31  5-MIN KMKG 031500Z 26006KT 10SM CLR 11/04 A3036 220 66 -200 260/06 RMK AO2
14840KMKG MKG20011103100509311/03/01 10:05:31  5-MIN KMKG 031505Z 28005KT 10SM CLR 11/05 A3036 220 68 -200 290/05 RMK AO2
14840KMKG MKG20011103101009311/03/01 10:10:31  5-MIN KMKG 031510Z 27007KT 10SM CLR 11/05 A3036 220 68 -200 280/07 RMK AO2
14840KMKG MKG20011103101509311/03/01 10:15:31  5-MIN KMKG 031515Z 28007KT 10SM CLR 11/05 A3036 220 68 -200 280/07 RMK AO2
14840KMKG MKG20011103102009311/03/01 10:20:31  5-MIN KMKG 031520Z 26006KT 10SM CLR 11/05 A3036 220 68 -200 260/06 RMK AO2
14840KMKG MKG20011103102509311/03/01 10:25:31  5-MIN KMKG 031525Z 26008KT 10SM CLR 11/05 A3036 220 68 -200 260/08 RMK AO2
14840KMKG MKG20011103103009311/03/01 10:30:31  5-MIN KMKG 031530Z 27006KT 10SM CLR 11/05 A3037 220 66 -100 280/06 RMK AO2
14840KMKG MKG20011103103509311/03/01 10:35:31  5-MIN KMKG 031535Z 28008KT 10SM CLR 11/04 A3037 220 63 -100 280/08 RMK AO2
14840KMKG MKG20011103104009311/03/01 10:40:31  5-MIN KMKG 031540Z 27008KT 10SM CLR 11/04 A3037 220 63 -100 270/08 RMK AO2
14840KMKG MKG20011103104509311/03/01 10:45:31  5-MIN KMKG 031545Z 28007KT 10SM CLR 11/04 A3037 220 61 -100 280/07 RMK AO2
14840KMKG MKG20011103105011011/03/01 10:50:31  5-MIN KMKG 031550Z 27008KT 10SM CLR 11/04 A3037 220 61 -100 270/08 RMK AO2 SLP285 T01110039
14840KMKG MKG20011103105511011/03/01 10:55:31  5-MIN KMKG 031555Z 26006KT 10SM CLR 11/04 A3037 220 63 -100 260/06 RMK AO2 SLP286 T01110044
14840KMKG MKG20011103110009011/03/01 11:00:31  5-MIN KMKG 031600Z 28007KT 10SM CLR 12/04 A3037 220 61 0 290/07 RMK AO2
14840KMKG MKG20011103110509011/03/01 11:05:31  5-MIN KMKG 031605Z 29007KT 10SM CLR 12/04 A3037 220 58 0 290/07 RMK AO2
14840KMKG MKG20011103111009311/03/01 11:10:31  5-MIN KMKG 031610Z 27006KT 10SM CLR 11/04 A3037 220 61 -100 280/06 RMK AO2
14840KMKG MKG20011103111509011/03/01 11:15:31  5-MIN KMKG 031615Z 26008KT 10SM CLR 12/04 A3037 220 61 0 260/08 RMK AO2
14840KMKG MKG20011103112009011/03/01 11:20:31  5-MIN KMKG 031620Z 24009KT 10SM CLR 12/04 A3037 220 61 0 250/09 RMK AO2
14840KMKG MKG20011103112509011/03/01 11:25:31  5-MIN KMKG 031625Z 24008KT 10SM CLR 12/04 A3037 210 58 0 240/08 RMK AO2
14840KMKG MKG20011103113009311/03/01 11:30:31  5-MIN KMKG 031630Z 25009KT 10SM CLR 11/04 A3037 210 61 -100 260/09 RMK AO2
14840KMKG MKG20011103113509011/03/01 11:35:31  5-MIN KMKG 031635Z 26009KT 10SM CLR 12/04 A3038 210 61 0 260/09 RMK AO2
14840KMKG MKG20011103114009011/03/01 11:40:31  5-MIN KMKG 031640Z 27009KT 10SM CLR 12/04 A3038 210 61 0 270/09 RMK AO2
14840KMKG MKG20011103114509311/03/01 11:45:31  5-MIN KMKG 031645Z 26009KT 10SM CLR 11/04 A3037 210 61 -100 270/09 RMK AO2
14840KMKG MKG20011103115010711/03/01 11:50:31  5-MIN KMKG 031650Z 27009KT 10SM CLR 12/04 A3037 210 58 0 270/09 RMK AO2 SLP288 T01170039
14840KMKG MKG20011103115510711/03/01 11:55:31  5-MIN KMKG 031655Z 27009KT 10SM CLR 12/04 A3037 220 58 0 270/09 RMK AO2 SLP287 T01170039
14840KMKG MKG20011103120009011/03/01 12:00:31  5-MIN KMKG 031700Z 25008KT 10SM CLR 12/04 A3037 220 61 0 260/08 RMK AO2
14840KMKG MKG20011103120509011/03/01 12:05:31  5-MIN KMKG 031705Z 24009KT 10SM CLR 12/04 A3037 220 61 0 240/09 RMK AO2
14840KMKG MKG20011103121009011/03/01 12:10:31  5-MIN KMKG 031710Z 25008KT 10SM CLR 12/04 A3037 220 61 0 250/08 RMK AO2
14840KMKG MKG20011103121509011/03/01 12:15:31  5-MIN KMKG 031715Z 26008KT 10SM CLR 12/04 A3037 220 58 0 270/08 RMK AO2
14840KMKG MKG20011103122009011/03/01 12:20:31  5-MIN KMKG 031720Z 28008KT 10SM CLR 12/03 A3037 220 54 0 280/08 RMK AO2
14840KMKG MKG20011103122509011/03/01 12:25:31  5-MIN KMKG 031725Z 26009KT 10SM CLR 12/03 A3037 220 56 0 270/09 RMK AO2
14840KMKG MKG20011103123009011/03/01 12:30:31  5-MIN KMKG 031730Z 27008KT 10SM CLR 12/03 A3036 220 56 0 280/08 RMK AO2
14840KMKG MKG20011103123509011/03/01 12:35:31  5-MIN KMKG 031735Z 23008KT 10SM CLR 12/04 A3036 220 56 0 230/08 RMK AO2
14840KMKG MKG20011103124009011/03/01 12:40:31  5-MIN KMKG 031740Z 24007KT 10SM CLR 12/03 A3036 230 56 0 240/07 RMK AO2
14840KMKG MKG20011103124509011/03/01 12:45:31  5-MIN KMKG 031745Z 24006KT 10SM CLR 12/04 A3035 230 56 0 240/06 RMK AO2
14840KMKG MKG20011103125014111/03/01 12:50:31  5-MIN KMKG 031750Z 24007KT 210V280 10SM CLR 12/04 A3035 230 59 0 240/07 210V280 RMK AO2 SLP281 T01220044 10122 20056 51014
14840KMKG MKG20011103125512511/03/01 12:55:31  5-MIN KMKG 031755Z 25008KT 10SM CLR 12/04 A3035 230 56 0 250/08 RMK AO2 SLP280 T01220039 10122 20056 58004
14840KMKG MKG20011103130009011/03/01 13:00:31  5-MIN KMKG 031800Z 24008KT 10SM CLR 12/04 A3035 240 58 0 240/08 RMK AO2
14840KMKG MKG20011103130509011/03/01 13:05:31  5-MIN KMKG 031805Z 22009KT 10SM CLR 12/03 A3035 240 56 0 230/09 RMK AO2
14840KMKG MKG20011103131009011/03/01 13:10:31  5-MIN KMKG 031810Z 24007KT 10SM CLR 12/04 A3035 240 58 0 240/07 RMK AO2
14840KMKG MKG20011103131509011/03/01 13:15:31  5-MIN KMKG 031815Z 24008KT 10SM CLR 12/04 A3035 240 56 0 240/08 RMK AO2
14840KMKG MKG20011103132009011/03/01 13:20:31  5-MIN KMKG 031820Z 24010KT 10SM CLR 12/03 A3035 240 56 0 250/10 RMK AO2
14840KMKG MKG20011103132509011/03/01 13:25:31  5-MIN KMKG 031825Z 23009KT 10SM CLR 12/04 A3035 240 58 0 240/09 RMK AO2
14840KMKG MKG20011103133009011/03/01 13:30:31  5-MIN KMKG 031830Z 25009KT 10SM CLR 12/04 A3034 240 56 0 260/09 RMK AO2
14840KMKG MKG20011103133509011/03/01 13:35:31  5-MIN KMKG 031835Z 24007KT 10SM CLR 12/04 A3034 240 61 0 240/07 RMK AO2
14840KMKG MKG20011103134009011/03/01 13:40:31  5-MIN KMKG 031840Z 23007KT 10SM CLR 12/03 A3034 240 56 0 230/07 RMK AO2
14840KMKG MKG20011103134509011/03/01 13:45:31  5-MIN KMKG 031845Z 23007KT 10SM CLR 12/03 A3034 250 56 0 230/07 RMK AO2
14840KMKG MKG20011103135010711/03/01 13:50:31  5-MIN KMKG 031850Z 23008KT 10SM CLR 12/03 A3034 250 54 0 240/08 RMK AO2 SLP275 T01220033
14840KMKG MKG20011103135510711/03/01 13:55:31  5-MIN KMKG 031855Z 23008KT 10SM CLR 12/04 A3033 250 58 0 240/08 RMK AO2 SLP274 T01170039
14840KMKG MKG20011103140009011/03/01 14:00:31  5-MIN KMKG 031900Z 23007KT 10SM CLR 12/03 A3033 250 56 0 230/07 RMK AO2
14840KMKG MKG20011103140509011/03/01 14:05:31  5-MIN KMKG 031905Z 24007KT 10SM CLR 12/04 A3033 260 56 0 240/07 RMK AO2
14840KMKG MKG20011103141009011/03/01 14:10:31  5-MIN KMKG 031910Z 21007KT 10SM CLR 12/03 A3032 260 52 0 220/07 RMK AO2
14840KMKG MKG20011103141509011/03/01 14:15:31  5-MIN KMKG 031915Z 22008KT 10SM CLR 12/03 A3032 260 52 0 220/08 RMK AO2
14840KMKG MKG20011103142009011/03/01 14:20:31  5-MIN KMKG 031920Z 23008KT 10SM CLR 12/03 A3032 260 52 0 230/08 RMK AO2
14840KMKG MKG20011103142509011/03/01 14:25:31  5-MIN KMKG 031925Z 23008KT 10SM CLR 12/03 A3032 270 52 0 240/08 RMK AO2
14840KMKG MKG20011103143009011/03/01 14:30:31  5-MIN KMKG 031930Z 24009KT 10SM CLR 12/02 A3031 270 50 0 240/09 RMK AO2
14840KMKG MKG20011103143509011/03/01 14:35:31  5-MIN KMKG 031935Z 21008KT 10SM CLR 12/03 A3031 270 52 0 210/08 RMK AO2
14840KMKG MKG20011103144009011/03/01 14:40:31  5-MIN KMKG 031940Z 21009KT 10SM CLR 12/03 A3031 270 52 0 210/09 RMK AO2
14840KMKG MKG20011103144509011/03/01 14:45:31  5-MIN KMKG 031945Z 21008KT 10SM CLR 12/02 A3031 270 50 0 210/08 RMK AO2
14840KMKG MKG20011103145010711/03/01 14:50:31  5-MIN KMKG 031950Z 21008KT 10SM CLR 12/02 A3031 270 50 0 210/08 RMK AO2 SLP266 T01220022
14840KMKG MKG20011103145510711/03/01 14:55:31  5-MIN KMKG 031955Z 22009KT 10SM CLR 12/02 A3031 270 50 0 220/09 RMK AO2 SLP266 T01220022
14840KMKG MKG20011103150009011/03/01 15:00:31  5-MIN KMKG 032000Z 22009KT 10SM CLR 12/03 A3031 270 54 0 230/09 RMK AO2
14840KMKG MKG20011103150509011/03/01 15:05:31  5-MIN KMKG 032005Z 22009KT 10SM CLR 12/03 A3031 270 52 0 230/09 RMK AO2
14840KMKG MKG20011103151009011/03/01 15:10:31  5-MIN KMKG 032010Z 23009KT 10SM CLR 12/03 A3032 270 52 0 230/09 RMK AO2
14840KMKG MKG20011103151509011/03/01 15:15:31  5-MIN KMKG 032015Z 22009KT 10SM CLR 12/03 A3031 270 56 0 220/09 RMK AO2
14840KMKG MKG20011103152009011/03/01 15:20:31  5-MIN KMKG 032020Z 22008KT 10SM CLR 12/03 A3031 270 54 0 220/08 RMK AO2
14840KMKG MKG20011103152509011/03/01 15:25:31  5-MIN KMKG 032025Z 21009KT 10SM CLR 12/03 A3031 270 56 0 210/09 RMK AO2
14840KMKG MKG20011103153009011/03/01 15:30:31  5-MIN KMKG 032030Z 21008KT 10SM CLR 12/04 A3031 270 58 0 210/08 RMK AO2
14840KMKG MKG20011103153509011/03/01 15:35:31  5-MIN KMKG 032035Z 20008KT 10SM CLR 12/04 A3031 270 58 0 210/08 RMK AO2
14840KMKG MKG20011103154009011/03/01 15:40:31  5-MIN KMKG 032040Z 20009KT 10SM CLR 12/03 A3031 270 54 0 210/09 RMK AO2
14840KMKG MKG20011103154509011/03/01 15:45:31  5-MIN KMKG 032045Z 21008KT 10SM CLR 12/03 A3031 270 54 0 210/08 RMK AO2
14840KMKG MKG20011103155011311/03/01 15:50:31  5-MIN KMKG 032050Z 21008KT 10SM CLR 12/03 A3031 270 54 0 220/08 RMK AO2 SLP266 T01220033 58004
14840KMKG MKG20011103155511311/03/01 15:55:31  5-MIN KMKG 032055Z 21010KT 10SM CLR 12/03 A3031 270 54 0 220/10 RMK AO2 SLP266 T01170028 56015
14840KMKG MKG20011103160009011/03/01 16:00:31  5-MIN KMKG 032100Z 21010KT 10SM CLR 12/03 A3030 280 54 0 220/10 RMK AO2
14840KMKG MKG20011103160509011/03/01 16:05:31  5-MIN KMKG 032105Z 20008KT 10SM CLR 12/04 A3030 280 58 0 200/08 RMK AO2
14840KMKG MKG20011103161009011/03/01 16:10:31  5-MIN KMKG 032110Z 19010KT 10SM CLR 12/04 A3030 280 58 0 200/10 RMK AO2
14840KMKG MKG20011103161509011/03/01 16:15:31  5-MIN KMKG 032115Z 21010KT 10SM CLR 11/04 A3030 280 63 0 210/10 RMK AO2
14840KMKG MKG20011103162009011/03/01 16:20:31  5-MIN KMKG 032120Z 20009KT 10SM CLR 11/04 A3030 280 63 0 210/09 RMK AO2
14840KMKG MKG20011103162509011/03/01 16:25:31  5-MIN KMKG 032125Z 19009KT 10SM CLR 11/04 A3030 280 63 0 190/09 RMK AO2
14840KMKG MKG20011103163009011/03/01 16:30:31  5-MIN KMKG 032130Z 19007KT 10SM CLR 11/04 A3030 280 63 0 200/07 RMK AO2
14840KMKG MKG20011103163509011/03/01 16:35:31  5-MIN KMKG 032135Z 18008KT 10SM CLR 11/04 A3030 280 63 0 180/08 RMK AO2
14840KMKG MKG20011103164009011/03/01 16:40:31  5-MIN KMKG 032140Z 20007KT 10SM CLR 11/04 A3030 290 63 0 200/07 RMK AO2
14840KMKG MKG20011103164509011/03/01 16:45:31  5-MIN KMKG 032145Z 18007KT 10SM CLR 11/05 A3029 290 66 0 180/07 RMK AO2
14840KMKG MKG20011103165010711/03/01 16:50:31  5-MIN KMKG 032150Z 19008KT 10SM CLR 11/04 A3029 290 63 0 190/08 RMK AO2 SLP262 T01110044
14840KMKG MKG20011103165510711/03/01 16:55:31  5-MIN KMKG 032155Z 17008KT 10SM CLR 11/04 A3029 290 63 0 180/08 RMK AO2 SLP261 T01110044
14840KMKG MKG20011103170009311/03/01 17:00:31  5-MIN KMKG 032200Z 18008KT 10SM CLR 11/05 A3029 290 68 -100 180/08 RMK AO2
14840KMKG MKG20011103170509311/03/01 17:05:31  5-MIN KMKG 032205Z 18007KT 10SM CLR 11/05 A3029 290 68 -100 180/07 RMK AO2
14840KMKG MKG20011103171009311/03/01 17:10:31  5-MIN KMKG 032210Z 17005KT 10SM CLR 11/05 A3029 290 68 -100 180/05 RMK AO2
14840KMKG MKG20011103171509311/03/01 17:15:31  5-MIN KMKG 032215Z 17005KT 10SM CLR 10/05 A3029 290 71 -200 170/05 RMK AO2
14840KMKG MKG20011103172009311/03/01 17:20:31  5-MIN KMKG 032220Z 17005KT 10SM CLR 10/06 A3029 290 74 -100 180/05 RMK AO2
14840KMKG MKG20011103172509311/03/01 17:25:31  5-MIN KMKG 032225Z 17005KT 10SM CLR 10/06 A3028 300 74 -100 170/05 RMK AO2
14840KMKG MKG20011103173009311/03/01 17:30:31  5-MIN KMKG 032230Z 16005KT 10SM CLR 09/06 A3028 300 76 -200 170/05 RMK AO2
14840KMKG MKG20011103173509311/03/01 17:35:31  5-MIN KMKG 032235Z 17004KT 10SM CLR 09/06 A3028 300 76 -200 170/04 RMK AO2
14840KMKG MKG20011103174009311/03/01 17:40:31  5-MIN KMKG 032240Z 16004KT 10SM CLR 09/06 A3028 300 76 -200 160/04 RMK AO2
14840KMKG MKG20011103174509311/03/01 17:45:31  5-MIN KMKG 032245Z 16004KT 10SM CLR 09/06 A3028 300 76 -200 160/04 RMK AO2
14840KMKG MKG20011103175011011/03/01 17:50:31  5-MIN KMKG 032250Z 16004KT 10SM CLR 09/06 A3028 300 76 -200 160/04 RMK AO2 SLP256 T00940056
14840KMKG MKG20011103175511011/03/01 17:55:31  5-MIN KMKG 032255Z 16004KT 10SM CLR 09/06 A3028 300 79 -300 160/04 RMK AO2 SLP257 T00890056
14840KMKG MKG20011103180009311/03/01 18:00:31  5-MIN KMKG 032300Z 16005KT 10SM CLR 09/06 A3028 300 79 -300 160/05 RMK AO2
14840KMKG MKG20011103180509311/03/01 18:05:31  5-MIN KMKG 032305Z 16005KT 10SM CLR 08/06 A3028 300 82 -300 170/05 RMK AO2
14840KMKG MKG20011103181009311/03/01 18:10:31  5-MIN KMKG 032310Z 16005KT 10SM CLR 08/06 A3028 300 82 -300 170/05 RMK AO2
14840KMKG MKG20011103181509311/03/01 18:15:31  5-MIN KMKG 032315Z 16004KT 10SM CLR 08/06 A3028 300 82 -300 160/04 RMK AO2
14840KMKG MKG20011103182009311/03/01 18:20:31  5-MIN KMKG 032320Z 15004KT 10SM CLR 08/06 A3028 300 82 -300 160/04 RMK AO2
14840KMKG MKG20011103182509311/03/01 18:25:31  5-MIN KMKG 032325Z 15004KT 10SM CLR 08/06 A3027 300 82 -300 160/04 RMK AO2
14840KMKG MKG20011103183009311/03/01 18:30:31  5-MIN KMKG 032330Z 15004KT 10SM CLR 09/06 A3027 310 79 -300 160/04 RMK AO2
14840KMKG MKG20011103183509311/03/01 18:35:31  5-MIN KMKG 032335Z 15003KT 10SM CLR 08/06 A3027 310 82 -300 150/03 RMK AO2
14840KMKG MKG20011103184009311/03/01 18:40:31  5-MIN KMKG 032340Z 15003KT 10SM CLR 07/05 A3027 310 86 -500 150/03 RMK AO2
14840KMKG MKG20011103184509311/03/01 18:45:31  5-MIN KMKG 032345Z 16004KT 10SM CLR 07/05 A3027 310 86 -500 160/04 RMK AO2
14840KMKG MKG20011103185012811/03/01 18:50:31  5-MIN KMKG 032350Z 16004KT 10SM CLR 08/05 A3027 310 82 -400 160/04 RMK AO2 SLP255 T00780050 10128 20072 56015
14840KMKG MKG20011103185512811/03/01 18:55:31  5-MIN KMKG 032355Z 15004KT 10SM CLR 08/05 A3027 310 79 -300 160/04 RMK AO2 SLP255 T00830050 10128 20072 56012
14840KMKG MKG20011103190009311/03/01 19:00:31  5-MIN KMKG 040000Z 16005KT 10SM CLR 08/05 A3027 310 82 -400 170/05 RMK AO2
14840KMKG MKG20011103190509311/03/01 19:05:31  5-MIN KMKG 040005Z 16005KT 10SM CLR 08/05 A3027 310 82 -400 170/05 RMK AO2
14840KMKG MKG20011103191009311/03/01 19:10:31  5-MIN KMKG 040010Z 19003KT 10SM CLR 08/05 A3027 310 82 -400 190/03 RMK AO2
14840KMKG MKG20011103191509311/03/01 19:15:31  5-MIN KMKG 040015Z 16003KT 10SM CLR 08/05 A3027 310 82 -400 160/03 RMK AO2
14840KMKG MKG20011103192009311/03/01 19:20:31  5-MIN KMKG 040020Z 00000KT 10SM CLR 07/05 A3027 310 86 -500 000/00 RMK AO2
14840KMKG MKG20011103192509311/03/01 19:25:31  5-MIN KMKG 040025Z 00000KT 10SM CLR 07/04 A3027 310 86 -500 000/00 RMK AO2
14840KMKG MKG20011103193009311/03/01 19:30:31  5-MIN KMKG 040030Z 00000KT 10SM CLR 08/05 A3027 310 82 -400 000/00 RMK AO2
14840KMKG MKG20011103193509311/03/01 19:35:31  5-MIN KMKG 040035Z 00000KT 10SM CLR 08/05 A3027 310 82 -400 000/00 RMK AO2
14840KMKG MKG20011103194009311/03/01 19:40:31  5-MIN KMKG 040040Z 15004KT 10SM CLR 08/05 A3027 310 82 -400 150/04 RMK AO2
14840KMKG MKG20011103194509311/03/01 19:45:31  5-MIN KMKG 040045Z 15003KT 10SM CLR 07/05 A3027 310 86 -500 150/03 RMK AO2
14840KMKG MKG20011103195011011/03/01 19:50:31  5-MIN KMKG 040050Z 15003KT 10SM CLR 07/04 A3026 310 86 -500 150/03 RMK AO2 SLP252 T00670044
14840KMKG MKG20011103195511011/03/01 19:55:31  5-MIN KMKG 040055Z 15003KT 10SM CLR 06/04 A3026 310 86 -600 160/03 RMK AO2 SLP253 T00610039
14840KMKG MKG20011103200009311/03/01 20:00:31  5-MIN KMKG 040100Z 15003KT 10SM CLR 06/04 A3026 320 86 -600 150/03 RMK AO2
14840KMKG MKG20011103200509311/03/01 20:05:31  5-MIN KMKG 040105Z 00000KT 10SM CLR 06/04 A3026 320 86 -600 000/00 RMK AO2
14840KMKG MKG20011103201009311/03/01 20:10:31  5-MIN KMKG 040110Z 15003KT 10SM CLR 06/04 A3026 320 89 -700 160/03 RMK AO2
14840KMKG MKG20011103201509311/03/01 20:15:31  5-MIN KMKG 040115Z 17003KT 10SM CLR 06/04 A3026 320 86 -600 170/03 RMK AO2
14840KMKG MKG20011103202009311/03/01 20:20:31  5-MIN KMKG 040120Z 17003KT 10SM CLR 06/04 A3026 320 89 -700 170/03 RMK AO2
14840KMKG MKG20011103202509311/03/01 20:25:31  5-MIN KMKG 040125Z 00000KT 10SM CLR 06/04 A3026 320 89 -700 000/00 RMK AO2
14840KMKG MKG20011103203009311/03/01 20:30:31  5-MIN KMKG 040130Z 00000KT 10SM CLR 06/04 A3026 320 89 -700 000/00 RMK AO2
14840KMKG MKG20011103203509311/03/01 20:35:31  5-MIN KMKG 040135Z 00000KT 10SM CLR 06/04 A3026 320 89 -700 000/00 RMK AO2
14840KMKG MKG20011103204009311/03/01 20:40:31  5-MIN KMKG 040140Z 00000KT 10SM CLR 06/04 A3026 320 89 -700 000/00 RMK AO2
14840KMKG MKG20011103204509311/03/01 20:45:31  5-MIN KMKG 040145Z 00000KT 10SM CLR 06/04 A3026 320 89 -700 000/00 RMK AO2
14840KMKG MKG20011103205011011/03/01 20:50:31  5-MIN KMKG 040150Z 00000KT 10SM CLR 05/03 A3026 320 89 -700 000/00 RMK AO2 SLP249 T00500033
14840KMKG MKG20011103205511011/03/01 20:55:31  5-MIN KMKG 040155Z 00000KT 10SM CLR 06/03 A3025 320 85 -700 000/00 RMK AO2 SLP249 T00560033
14840KMKG MKG20011103210009311/03/01 21:00:31  5-MIN KMKG 040200Z 00000KT 10SM CLR 06/03 A3025 320 85 -700 000/00 RMK AO2
14840KMKG MKG20011104190009411/04/01 19:00:31  5-MIN KMKG 050000Z 01005KT 10SM CLR 06/M04 A3033 260 50 -700 020/05 RMK AO2
14840KMKG MKG20011104190509411/04/01 19:05:31  5-MIN KMKG 050005Z 02005KT 10SM CLR 06/M04 A3033 260 48 -700 020/05 RMK AO2
14840KMKG MKG20011104191009411/04/01 19:10:31  5-MIN KMKG 050010Z 02004KT 10SM CLR 06/M04 A3033 260 46 -700 020/04 RMK AO2
14840KMKG MKG20011104191509411/04/01 19:15:31  5-MIN KMKG 050015Z 03004KT 10SM CLR 06/M04 A3033 250 46 -700 030/04 RMK AO2
14840KMKG MKG20011104192009411/04/01 19:20:31  5-MIN KMKG 050020Z 03004KT 10SM CLR 06/M04 A3033 250 48 -700 030/04 RMK AO2
14840KMKG MKG20011104192509411/04/01 19:25:31  5-MIN KMKG 050025Z 04004KT 10SM CLR 05/M04 A3033 250 50 -800 040/04 RMK AO2
14840KMKG MKG20011104193009411/04/01 19:30:31  5-MIN KMKG 050030Z 04003KT 10SM CLR 04/M04 A3033 250 54 -900 040/03 RMK AO2
14840KMKG MKG20011104193509511/04/01 19:35:31  5-MIN KMKG 050035Z 00000KT 10SM CLR 03/M04 A3033 250 59 -1100 000/00 RMK AO2
14840KMKG MKG20011104194009511/04/01 19:40:31  5-MIN KMKG 050040Z 00000KT 10SM CLR 03/M04 A3033 250 59 -1000 000/00 RMK AO2
14840KMKG MKG20011104194509511/04/01 19:45:31  5-MIN KMKG 050045Z 00000KT 10SM CLR 02/M03 A3033 250 67 -1200 000/00 RMK AO2
14840KMKG MKG20011104195011211/04/01 19:50:31  5-MIN KMKG 050050Z 00000KT 10SM CLR 03/M03 A3033 250 67 -1100 000/00 RMK AO2 SLP276 T00281028
14840KMKG MKG20011104195511211/04/01 19:55:31  5-MIN KMKG 050055Z 00000KT 10SM CLR 02/M03 A3033 250 69 -1200 000/00 RMK AO2 SLP277 T00221028
14840KMKG MKG20011104200009511/04/01 20:00:31  5-MIN KMKG 050100Z 00000KT 10SM CLR 02/M03 A3034 250 69 -1200 000/00 RMK AO2
14840KMKG MKG20011104200509511/04/01 20:05:31  5-MIN KMKG 050105Z 21003KT 10SM CLR 01/M04 A3034 250 72 -1400 210/03 RMK AO2
14840KMKG MKG20011104201009511/04/01 20:10:31  5-MIN KMKG 050110Z 21004KT 10SM CLR 00/M04 A3034 250 75 -1400 220/04 RMK AO2
14840KMKG MKG20011104201509511/04/01 20:15:31  5-MIN KMKG 050115Z 22005KT 10SM CLR 00/M03 A3034 250 78 -1400 220/05 RMK AO2
14840KMKG MKG20011104202009511/04/01 20:20:31  5-MIN KMKG 050120Z 21005KT 10SM CLR 00/M03 A3034 240 78 -1400 220/05 RMK AO2
14840KMKG MKG20011104202509511/04/01 20:25:31  5-MIN KMKG 050125Z 22005KT 10SM CLR 00/M04 A3034 240 75 -1400 220/05 RMK AO2
14840KMKG MKG20011104203009511/04/01 20:30:31  5-MIN KMKG 050130Z 00000KT 10SM CLR 01/M04 A3035 240 72 -1400 000/00 RMK AO2
14840KMKG MKG20011104203509511/04/01 20:35:31  5-MIN KMKG 050135Z 00000KT 10SM CLR 01/M04 A3034 240 72 -1400 000/00 RMK AO2
14840KMKG MKG20011104204009511/04/01 20:40:31  5-MIN KMKG 050140Z 00000KT 10SM CLR 01/M04 A3034 240 69 -1300 000/00 RMK AO2
14840KMKG MKG20011104204509511/04/01 20:45:31  5-MIN KMKG 050145Z 00000KT 10SM CLR 01/M04 A3034 240 69 -1300 000/00 RMK AO2
14840KMKG MKG20011104205011211/04/01 20:50:31  5-MIN KMKG 050150Z 00000KT 10SM CLR 01/M03 A3034 240 75 -1400 000/00 RMK AO2 SLP279 T00061033
14840KMKG MKG20011104205511211/04/01 20:55:31  5-MIN KMKG 050155Z 00000KT 10SM CLR 01/M03 A3034 240 72 -1300 000/00 RMK AO2 SLP279 T00111033
14840KMKG MKG20011104210009511/04/01 21:00:31  5-MIN KMKG 050200Z 00000KT 10SM CLR 01/M03 A3034 240 75 -1400 000/00 RMK AO2
14840KMKG MKG20011104210509511/04/01 21:05:31  5-MIN KMKG 050205Z 00000KT 10SM CLR 01/M03 A3034 240 75 -1400 000/00 RMK AO2
14840KMKG MKG20011104211009511/04/01 21:10:31  5-MIN KMKG 050210Z 00000KT 10SM CLR 00/M04 A3034 240 75 -1400 000/00 RMK AO2
14840KMKG MKG20011104211509511/04/01 21:15:31  5-MIN KMKG 050215Z 00000KT 10SM CLR 00/M04 A3035 240 75 -1400 000/00 RMK AO2
14840KMKG MKG20011104212009511/04/01 21:20:31  5-MIN KMKG 050220Z 00000KT 10SM CLR 00/M04 A3035 240 75 -1500 000/00 RMK AO2
14840KMKG MKG20011104212509511/04/01 21:25:31  5-MIN KMKG 050225Z 00000KT 10SM CLR 00/M03 A3035 230 78 -1500 000/00 RMK AO2
14840KMKG MKG20011104213009511/04/01 21:30:31  5-MIN KMKG 050230Z 00000KT 10SM CLR 00/M03 A3035 230 78 -1500 000/00 RMK AO2
14840KMKG MKG20011104213509511/04/01 21:35:31  5-MIN KMKG 050235Z 00000KT 10SM CLR 00/M03 A3035 230 78 -1500 000/00 RMK AO2
14840KMKG MKG20011104214009611/04/01 21:40:31  5-MIN KMKG 050240Z 00000KT 10SM CLR M01/M04 A3035 240 78 -1500 000/00 RMK AO2
14840KMKG MKG20011104214509511/04/01 21:45:31  5-MIN KMKG 050245Z 00000KT 10SM CLR 00/M03 A3035 240 78 -1500 000/00 RMK AO2
14840KMKG MKG20011104215011811/04/01 21:50:31  5-MIN KMKG 050250Z 00000KT 10SM CLR 00/M03 A3035 240 78 -1500 000/00 RMK AO2 SLP282 T00001033 51013
14840KMKG MKG20011104215511811/04/01 21:55:31  5-MIN KMKG 050255Z 00000KT 10SM CLR 00/M04 A3035 240 75 -1400 000/00 RMK AO2 SLP282 T00001039 51007
14840KMKG MKG20011104220009611/04/01 22:00:31  5-MIN KMKG 050300Z 00000KT 10SM CLR M01/M04 A3035 240 78 -1500 000/00 RMK AO2
14840KMKG MKG20011104220509611/04/01 22:05:31  5-MIN KMKG 050305Z 00000KT 10SM CLR M01/M04 A3035 240 78 -1500 000/00 RMK AO2
14840KMKG MKG20011104221009611/04/01 22:10:31  5-MIN KMKG 050310Z 00000KT 10SM CLR M01/M03 A3035 240 85 -1500 000/00 RMK AO2
14840KMKG MKG20011104221509611/04/01 22:15:31  5-MIN KMKG 050315Z 00000KT 10SM CLR M01/M03 A3035 240 85 -1500 000/00 RMK AO2
14840KMKG MKG20011104222009611/04/01 22:20:31  5-MIN KMKG 050320Z 00000KT 10SM CLR M01/M04 A3035 240 75 -1500 000/00 RMK AO2
14840KMKG MKG20011104222509511/04/01 22:25:31  5-MIN KMKG 050325Z 00000KT 10SM CLR 00/M04 A3035 240 75 -1500 000/00 RMK AO2
14840KMKG MKG20011104223009511/04/01 22:30:31  5-MIN KMKG 050330Z 00000KT 10SM CLR 00/M03 A3035 230 78 -1500 000/00 RMK AO2
14840KMKG MKG20011104223509611/04/01 22:35:31  5-MIN KMKG 050335Z 00000KT 10SM CLR M01/M04 A3035 230 78 -1500 000/00 RMK AO2
14840KMKG MKG20011104224009611/04/01 22:40:31  5-MIN KMKG 050340Z 00000KT 10SM CLR M01/M04 A3035 230 78 -1500 000/00 RMK AO2
14840KMKG MKG20011104224509611/04/01 22:45:31  5-MIN KMKG 050345Z 00000KT 10SM CLR M01/M04 A3035 230 78 -1500 000/00 RMK AO2
14840KMKG MKG20011104225011311/04/01 22:50:31  5-MIN KMKG 050350Z 00000KT 10SM CLR M01/M04 A3035 230 78 -1500 000/00 RMK AO2 SLP284 T10061039
14840KMKG MKG20011104225511311/04/01 22:55:31  5-MIN KMKG 050355Z 00000KT 10SM CLR M01/M04 A3035 230 81 -1600 000/00 RMK AO2 SLP284 T10111039
14840KMKG MKG20011104230009611/04/01 23:00:31  5-MIN KMKG 050400Z 00000KT 10SM CLR M01/M04 A3036 230 81 -1600 000/00 RMK AO2
14840KMKG MKG20011104230509611/04/01 23:05:31  5-MIN KMKG 050405Z 00000KT 10SM CLR M01/M04 A3036 220 78 -1600 000/00 RMK AO2
14840KMKG MKG20011104231009511/04/01 23:10:31  5-MIN KMKG 050410Z 04005KT 10SM CLR 00/M03 A3037 220 78 -1500 040/05 RMK AO2
14840KMKG MKG20011104231509511/04/01 23:15:31  5-MIN KMKG 050415Z 02006KT 10SM CLR 01/M03 A3036 220 72 -1300 020/06 RMK AO2
14840KMKG MKG20011104232009511/04/01 23:20:31  5-MIN KMKG 050420Z 02007KT 10SM CLR 03/M03 A3037 220 67 -1100 020/07 RMK AO2
14840KMKG MKG20011104232509511/04/01 23:25:31  5-MIN KMKG 050425Z 01006KT 10SM CLR 03/M03 A3036 220 61 -1000 020/06 RMK AO2
14840KMKG MKG20011104233009511/04/01 23:30:31  5-MIN KMKG 050430Z 02005KT 10SM CLR 03/M03 A3036 220 67 -1100 020/05 RMK AO2
14840KMKG MKG20011104233509511/04/01 23:35:31  5-MIN KMKG 050435Z 02004KT 10SM CLR 03/M03 A3037 220 64 -1100 020/04 RMK AO2
14840KMKG MKG20011104234009511/04/01 23:40:31  5-MIN KMKG 050440Z 02003KT 10SM CLR 02/M03 A3036 220 67 -1200 020/03 RMK AO2
14840KMKG MKG20011104234509611/04/01 23:45:31  5-MIN KMKG 050445Z 02003KT 10SM CLR M01/M04 A3036 220 78 -1500 030/03 RMK AO2
14840KMKG MKG20011104235012211/04/01 23:50:31  5-MIN KMKG 050450Z 03004KT 10SM CLR 00/M04 A3036 220 75 -1500 030/04 RMK AO2 SLP287 T00001039 401281011
14840KMKG MKG20011104235512211/04/01 23:55:31  5-MIN KMKG 050455Z 03003KT 10SM CLR 01/M03 A3036 220 72 -1300 040/03 RMK AO2 SLP285 T00111033 401281011
14840KMKG MKG20011105000009511/05/01 00:00:31  5-MIN KMKG 050500Z 00000KT 10SM CLR 01/M03 A3036 230 72 -1300 000/00 RMK AO2
14840KMKG MKG20011105000509511/05/01 00:05:31  5-MIN KMKG 050505Z 00000KT 10SM CLR 01/M03 A3036 220 72 -1300 000/00 RMK AO2
14840KMKG MKG20011105001009511/05/01 00:10:31  5-MIN KMKG 050510Z 00000KT 10SM CLR 01/M03 A3036 230 75 -1400 000/00 RMK AO2
14840KMKG MKG20011105001509511/05/01 00:15:31  5-MIN KMKG 050515Z 00000KT 10SM CLR 00/M03 A3036 220 78 -1500 000/00 RMK AO2
14840KMKG MKG20011105002009511/05/01 00:20:31  5-MIN KMKG 050520Z 00000KT 10SM CLR 00/M03 A3036 220 78 -1500 000/00 RMK AO2
14840KMKG MKG20011105002509511/05/01 00:25:31  5-MIN KMKG 050525Z 00000KT 10SM CLR 00/M03 A3036 220 78 -1500 000/00 RMK AO2
14840KMKG MKG20011105003009511/05/01 00:30:31  5-MIN KMKG 050530Z 00000KT 10SM CLR 00/M03 A3036 220 81 -1500 000/00 RMK AO2
14840KMKG MKG20011105003509611/05/01 00:35:31  5-MIN KMKG 050535Z 00000KT 10SM CLR M01/M03 A3036 220 81 -1500 000/00 RMK AO2
14840KMKG MKG20011105004009511/05/01 00:40:31  5-MIN KMKG 050540Z 00000KT 10SM CLR 00/M04 A3037 220 75 -1500 000/00 RMK AO2
14840KMKG MKG20011105004509511/05/01 00:45:31  5-MIN KMKG 050545Z 05003KT 10SM CLR 00/M04 A3037 220 75 -1500 050/03 RMK AO2
14840KMKG MKG20011105005013111/05/01 00:50:31  5-MIN KMKG 050550Z 00000KT 10SM CLR M01/M04 A3037 220 78 -1500 000/00 RMK AO2 SLP289 T10061039 10061 21011 51007
14840KMKG MKG20011105005513111/05/01 00:55:31  5-MIN KMKG 050555Z 00000KT 10SM CLR M02/M04 A3037 220 81 -1700 000/00 RMK AO2 SLP289 T10171044 10061 21017 52007
14840KMKG MKG20011105010009611/05/01 01:00:31  5-MIN KMKG 050600Z 00000KT 10SM CLR M01/M04 A3037 220 78 -1600 000/00 RMK AO2
14840KMKG MKG20011105010509611/05/01 01:05:31  5-MIN KMKG 050605Z 00000KT 10SM CLR M01/M04 A3037 220 81 -1600 000/00 RMK AO2
14840KMKG MKG20011105011009611/05/01 01:10:31  5-MIN KMKG 050610Z 00000KT 10SM CLR M01/M04 A3037 220 78 -1500 000/00 RMK AO2
14840KMKG MKG20011105011509611/05/01 01:15:31  5-MIN KMKG 050615Z 00000KT 10SM CLR M01/M04 A3037 220 78 -1500 000/00 RMK AO2
14840KMKG MKG20011105012009611/05/01 01:20:31  5-MIN KMKG 050620Z 00000KT 10SM CLR M01/M04 A3037 220 78 -1500 000/00 RMK AO2
14840KMKG MKG20011105012509611/05/01 01:25:31  5-MIN KMKG 050625Z 00000KT 10SM CLR M01/M04 A3037 220 78 -1500 000/00 RMK AO2
14840KMKG MKG20011105013009611/05/01 01:30:31  5-MIN KMKG 050630Z 00000KT 10SM CLR M02/M04 A3037 220 81 -1700 000/00 RMK AO2
14840KMKG MKG20011105013509611/05/01 01:35:31  5-MIN KMKG 050635Z 00000KT 10SM CLR M01/M04 A3036 220 78 -1500 000/00 RMK AO2
14840KMKG MKG20011105014009611/05/01 01:40:31  5-MIN KMKG 050640Z 00000KT 10SM CLR M01/M04 A3036 220 78 -1500 000/00 RMK AO2
14840KMKG MKG20011105014509611/05/01 01:45:31  5-MIN KMKG 050645Z 00000KT 10SM CLR M01/M04 A3036 220 78 -1500 000/00 RMK AO2
14840KMKG MKG20011105015011311/05/01 01:50:31  5-MIN KMKG 050650Z 00000KT 10SM CLR M01/M04 A3036 220 81 -1600 000/00 RMK AO2 SLP287 T10111039
14840KMKG MKG20011105015511311/05/01 01:55:31  5-MIN KMKG 050655Z 00000KT 10SM CLR M01/M04 A3037 220 81 -1600 000/00 RMK AO2 SLP288 T10111039
14840KMKG MKG20011105020009611/05/01 02:00:31  5-MIN KMKG 050700Z 00000KT 10SM CLR M01/M04 A3037 220 81 -1600 000/00 RMK AO2
14840KMKG MKG20011105020509611/05/01 02:05:31  5-MIN KMKG 050705Z 00000KT 10SM CLR M01/M04 A3036 220 81 -1600 000/00 RMK AO2
14840KMKG MKG20011105021009611/05/01 02:10:31  5-MIN KMKG 050710Z 00000KT 10SM CLR M02/M04 A3036 220 81 -1700 000/00 RMK AO2
14840KMKG MKG20011105021509611/05/01 02:15:31  5-MIN KMKG 050715Z 00000KT 10SM CLR M01/M04 A3036 220 81 -1600 000/00 RMK AO2
14840KMKG MKG20011105022009611/05/01 02:20:31  5-MIN KMKG 050720Z 00000KT 10SM CLR M01/M04 A3036 230 81 -1600 000/00 RMK AO2
14840KMKG MKG20011105022509611/05/01 02:25:31  5-MIN KMKG 050725Z 00000KT 10SM CLR M01/M04 A3036 230 78 -1600 000/00 RMK AO2
14840KMKG MKG20011105023009611/05/01 02:30:31  5-MIN KMKG 050730Z 00000KT 10SM CLR M02/M04 A3036 220 81 -1700 000/00 RMK AO2
14840KMKG MKG20011105023509611/05/01 02:35:31  5-MIN KMKG 050735Z 00000KT 10SM CLR M02/M04 A3037 220 81 -1700 000/00 RMK AO2
14840KMKG MKG20011105024009611/05/01 02:40:31  5-MIN KMKG 050740Z 00000KT 10SM CLR M02/M04 A3037 220 85 -1700 000/00 RMK AO2
14840KMKG MKG20011105024509611/05/01 02:45:31  5-MIN KMKG 050745Z 00000KT 10SM CLR M02/M04 A3037 220 81 -1700 000/00 RMK AO2
14840KMKG MKG20011105025011311/05/01 02:50:31  5-MIN KMKG 050750Z 00000KT 10SM CLR M02/M04 A3037 210 81 -1700 000/00 RMK AO2 SLP290 T10171044
14840KMKG MKG20011105025511311/05/01 02:55:31  5-MIN KMKG 050755Z 00000KT 10SM CLR M02/M04 A3037 210 81 -1700 000/00 RMK AO2 SLP291 T10171044
14840KMKG MKG20011105030009611/05/01 03:00:31  5-MIN KMKG 050800Z 00000KT 10SM CLR M02/M04 A3037 210 85 -1700 000/00 RMK AO2
14840KMKG MKG20011105030509611/05/01 03:05:31  5-MIN KMKG 050805Z 00000KT 10SM CLR M02/M04 A3037 210 81 -1700 000/00 RMK AO2
14840KMKG MKG20011105031009611/05/01 03:10:31  5-MIN KMKG 050810Z 00000KT 10SM CLR M02/M04 A3037 210 81 -1700 000/00 RMK AO2
14840KMKG MKG20011105031509611/05/01 03:15:31  5-MIN KMKG 050815Z 00000KT 10SM CLR M02/M04 A3037 210 85 -1700 000/00 RMK AO2
14840KMKG MKG20011105032009611/05/01 03:20:31  5-MIN KMKG 050820Z 00000KT 10SM CLR M02/M04 A3037 210 88 -1800 000/00 RMK AO2
14840KMKG MKG20011105032509611/05/01 03:25:31  5-MIN KMKG 050825Z 00000KT 10SM CLR M03/M04 A3037 210 88 -1800 000/00 RMK AO2
14840KMKG MKG20011105033009611/05/01 03:30:31  5-MIN KMKG 050830Z 00000KT 10SM CLR M02/M04 A3037 210 85 -1800 000/00 RMK AO2
14840KMKG MKG20011105033509611/05/01 03:35:31  5-MIN KMKG 050835Z 00000KT 10SM CLR M02/M04 A3037 210 85 -1800 000/00 RMK AO2
14840KMKG MKG20011105034009611/05/01 03:40:31  5-MIN KMKG 050840Z 00000KT 10SM CLR M02/M04 A3037 220 85 -1800 000/00 RMK AO2
14840KMKG MKG20011105034509611/05/01 03:45:31  5-MIN KMKG 050845Z 00000KT 10SM CLR M03/M04 A3037 210 88 -1800 000/00 RMK AO2
14840KMKG MKG20011105035011911/05/01 03:50:31  5-MIN KMKG 050850Z 00000KT 10SM CLR M03/M04 A3037 210 88 -1800 000/00 RMK AO2 SLP292 T10281044 52007
14840KMKG MKG20011105035511911/05/01 03:55:31  5-MIN KMKG 050855Z 00000KT 10SM CLR M02/M04 A3038 210 85 -1800 000/00 RMK AO2 SLP292 T10221044 53002
14840KMKG MKG20011105040009611/05/01 04:00:31  5-MIN KMKG 050900Z 00000KT 10SM CLR M03/M05 A3038 210 85 -1800 000/00 RMK AO2
14840KMKG MKG20011105040509611/05/01 04:05:31  5-MIN KMKG 050905Z 00000KT 10SM CLR M03/M05 A3038 210 88 -1900 000/00 RMK AO2
14840KMKG MKG20011105041009611/05/01 04:10:31  5-MIN KMKG 050910Z 00000KT 10SM CLR M03/M04 A3038 210 88 -1800 000/00 RMK AO2
14840KMKG MKG20011105041509611/05/01 04:15:31  5-MIN KMKG 050915Z 00000KT 10SM CLR M03/M04 A3038 210 88 -1800 000/00 RMK AO2
14840KMKG MKG20011105042009611/05/01 04:20:31  5-MIN KMKG 050920Z 00000KT 10SM CLR M03/M04 A3038 210 88 -1800 000/00 RMK AO2
14840KMKG MKG20011105042509611/05/01 04:25:31  5-MIN KMKG 050925Z 00000KT 10SM CLR M03/M05 A3038 210 85 -1800 000/00 RMK AO2
14840KMKG MKG20011105043009611/05/01 04:30:31  5-MIN KMKG 050930Z 00000KT 10SM CLR M03/M04 A3038 200 88 -1800 000/00 RMK AO2
14840KMKG MKG20011105043509611/05/01 04:35:31  5-MIN KMKG 050935Z 00000KT 10SM CLR M02/M04 A3038 210 85 -1800 000/00 RMK AO2
14840KMKG MKG20011105044009611/05/01 04:40:31  5-MIN KMKG 050940Z 00000KT 10SM CLR M02/M04 A3038 200 85 -1800 000/00 RMK AO2
14840KMKG MKG20011105044509611/05/01 04:45:31  5-MIN KMKG 050945Z 00000KT 10SM CLR M02/M04 A3039 200 88 -1800 000/00 RMK AO2
14840KMKG MKG20011105045011311/05/01 04:50:31  5-MIN KMKG 050950Z 00000KT 10SM CLR M03/M04 A3039 200 92 -1800 000/00 RMK AO2 SLP297 T10281039
14840KMKG MKG20011105045511311/05/01 04:55:31  5-MIN KMKG 050955Z 00000KT 10SM CLR M03/M04 A3039 200 88 -1800 000/00 RMK AO2 SLP296 T10281044
14840KMKG MKG20011105050009611/05/01 05:00:31  5-MIN KMKG 051000Z 00000KT 10SM CLR M03/M04 A3039 200 92 -1900 000/00 RMK AO2
14840KMKG MKG20011105050509611/05/01 05:05:31  5-MIN KMKG 051005Z 00000KT 10SM CLR M03/M04 A3039 200 88 -1900 000/00 RMK AO2
14840KMKG MKG20011105051009611/05/01 05:10:31  5-MIN KMKG 051010Z 00000KT 10SM CLR M03/M04 A3039 200 88 -1800 000/00 RMK AO2
14840KMKG MKG20011105051509611/05/01 05:15:31  5-MIN KMKG 051015Z 00000KT 10SM CLR M03/M05 A3039 200 88 -1900 000/00 RMK AO2
14840KMKG MKG20011105052009611/05/01 05:20:31  5-MIN KMKG 051020Z 00000KT 10SM CLR M03/M05 A3039 200 88 -1900 000/00 RMK AO2
14840KMKG MKG20011105052509611/05/01 05:25:31  5-MIN KMKG 051025Z 00000KT 10SM CLR M03/M04 A3039 200 92 -1900 000/00 RMK AO2
14840KMKG MKG20011105053009611/05/01 05:30:31  5-MIN KMKG 051030Z 00000KT 10SM CLR M03/M04 A3038 200 88 -1800 000/00 RMK AO2
14840KMKG MKG20011105053509611/05/01 05:35:31  5-MIN KMKG 051035Z 00000KT 10SM CLR M03/M04 A3039 200 88 -1900 000/00 RMK AO2
14840KMKG MKG20011105054009611/05/01 05:40:31  5-MIN KMKG 051040Z 00000KT 10SM CLR M03/M04 A3039 200 92 -1900 000/00 RMK AO2
14840KMKG MKG20011105054509611/05/01 05:45:31  5-MIN KMKG 051045Z 00000KT 10SM CLR M03/M04 A3039 190 88 -1900 000/00 RMK AO2
14840KMKG MKG20011105055011311/05/01 05:50:31  5-MIN KMKG 051050Z 00000KT 10SM CLR M03/M04 A3040 190 88 -1900 000/00 RMK AO2 SLP300 T10281044
14840KMKG MKG20011105055511311/05/01 05:55:31  5-MIN KMKG 051055Z 00000KT 10SM CLR M03/M05 A3040 190 85 -1900 000/00 RMK AO2 SLP300 T10281050
14840KMKG MKG20011105060009611/05/01 06:00:31  5-MIN KMKG 051100Z 00000KT 10SM CLR M03/M05 A3040 190 85 -1900 000/00 RMK AO2
14840KMKG MKG20011105060509611/05/01 06:05:31  5-MIN KMKG 051105Z 00000KT 10SM CLR M03/M05 A3040 190 88 -1900 000/00 RMK AO2
14840KMKG MKG20011105061009611/05/01 06:10:31  5-MIN KMKG 051110Z 06003KT 10SM CLR M03/M05 A3040 190 88 -1900 060/03 RMK AO2
14840KMKG MKG20011105061509611/05/01 06:15:31  5-MIN KMKG 051115Z 07003KT 10SM CLR M03/M06 A3039 200 85 -1900 070/03 RMK AO2
14840KMKG MKG20011105062009611/05/01 06:20:31  5-MIN KMKG 051120Z 06003KT 10SM CLR M03/M05 A3039 200 88 -1900 070/03 RMK AO2
14840KMKG MKG20011105062509611/05/01 06:25:31  5-MIN KMKG 051125Z 05003KT 10SM CLR M04/M06 A3039 200 88 -2000 050/03 RMK AO2
14840KMKG MKG20011105063009611/05/01 06:30:31  5-MIN KMKG 051130Z 00000KT 10SM CLR M04/M06 A3039 200 88 -2000 000/00 RMK AO2
14840KMKG MKG20011105063509611/05/01 06:35:31  5-MIN KMKG 051135Z 00000KT 10SM CLR M04/M06 A3039 200 88 -2000 000/00 RMK AO2
14840KMKG MKG20011105064009611/05/01 06:40:31  5-MIN KMKG 051140Z 00000KT 10SM CLR M04/M06 A3039 200 88 -2000 000/00 RMK AO2
14840KMKG MKG20011105064509611/05/01 06:45:31  5-MIN KMKG 051145Z 00000KT 10SM CLR M03/M05 A3039 200 88 -1900 000/00 RMK AO2
14840KMKG MKG20011105065013111/05/01 06:50:31  5-MIN KMKG 051150Z 00000KT 10SM CLR M04/M06 A3039 200 88 -2000 000/00 RMK AO2 SLP297 T10391056 10000 21039 53002
14840KMKG MKG20011105065513111/05/01 06:55:31  5-MIN KMKG 051155Z 00000KT 10SM CLR M04/M06 A3039 200 88 -2000 000/00 RMK AO2 SLP297 T10391056 10000 21039 50004
14840KMKG MKG20011105070009611/05/01 07:00:31  5-MIN KMKG 051200Z 00000KT 10SM CLR M04/M05 A3039 200 92 -2000 000/00 RMK AO2
14840KMKG MKG20011105070509611/05/01 07:05:31  5-MIN KMKG 051205Z 11003KT 10SM CLR M03/M05 A3039 200 88 -1900 120/03 RMK AO2
14840KMKG MKG20011105071009611/05/01 07:10:31  5-MIN KMKG 051210Z 11003KT 10SM CLR M04/M05 A3039 200 92 -2000 120/03 RMK AO2
14840KMKG MKG20011105071509611/05/01 07:15:31  5-MIN KMKG 051215Z 00000KT 10SM CLR M04/M06 A3039 200 88 -2000 000/00 RMK AO2
14840KMKG MKG20011105072009611/05/01 07:20:31  5-MIN KMKG 051220Z 00000KT 10SM CLR M04/M06 A3039 200 88 -2000 000/00 RMK AO2
14840KMKG MKG20011105072509611/05/01 07:25:31  5-MIN KMKG 051225Z 00000KT 10SM CLR M04/M06 A3039 200 88 -2000 000/00 RMK AO2
14840KMKG MKG20011105073009611/05/01 07:30:31  5-MIN KMKG 051230Z 00000KT 10SM CLR M03/M06 A3039 200 85 -1900 000/00 RMK AO2
14840KMKG MKG20011105073509611/05/01 07:35:31  5-MIN KMKG 051235Z 07003KT 10SM CLR M03/M05 A3039 200 85 -1800 070/03 RMK AO2
14840KMKG MKG20011105074009611/05/01 07:40:31  5-MIN KMKG 051240Z 00000KT 10SM CLR M03/M04 A3039 200 92 -1900 000/00 RMK AO2
14840KMKG MKG20011105074509611/05/01 07:45:31  5-MIN KMKG 051245Z 00000KT 10SM CLR M03/M05 A3039 200 88 -1900 000/00 RMK AO2
14840KMKG MKG20011105075011311/05/01 07:50:31  5-MIN KMKG 051250Z 00000KT 10SM CLR M04/M06 A3039 200 88 -2000 000/00 RMK AO2 SLP299 T10391056
14840KMKG MKG20011105075511311/05/01 07:55:31  5-MIN KMKG 051255Z 07003KT 10SM CLR M03/M05 A3039 200 88 -1900 080/03 RMK AO2 SLP299 T10331050
14840KMKG MKG20011105080009611/05/01 08:00:31  5-MIN KMKG 051300Z 07003KT 10SM CLR M03/M04 A3039 200 88 -1900 080/03 RMK AO2
14840KMKG MKG20011105080509611/05/01 08:05:31  5-MIN KMKG 051305Z 08003KT 10SM CLR M03/M04 A3039 200 88 -1900 080/03 RMK AO2
14840KMKG MKG20011105081009611/05/01 08:10:31  5-MIN KMKG 051310Z 00000KT 10SM CLR M02/M04 A3039 190 88 -1800 000/00 RMK AO2
14840KMKG MKG20011105081509611/05/01 08:15:31  5-MIN KMKG 051315Z 00000KT 10SM CLR M02/M03 A3039 190 92 -1800 000/00 RMK AO2
14840KMKG MKG20011105082009611/05/01 08:20:31  5-MIN KMKG 051320Z 00000KT 10SM CLR M02/M03 A3040 190 92 -1700 000/00 RMK AO2
14840KMKG MKG20011105082509611/05/01 08:25:31  5-MIN KMKG 051325Z 00000KT 10SM CLR M01/M03 A3040 190 88 -1700 000/00 RMK AO2
14840KMKG MKG20011105083009611/05/01 08:30:31  5-MIN KMKG 051330Z 00000KT 10SM CLR M01/M02 A3040 190 88 -1600 000/00 RMK AO2
14840KMKG MKG20011105083509611/05/01 08:35:31  5-MIN KMKG 051335Z 00000KT 10SM CLR M01/M02 A3040 190 88 -1600 000/00 RMK AO2
14840KMKG MKG20011105084009511/05/01 08:40:31  5-MIN KMKG 051340Z 00000KT 10SM CLR 00/M02 A3040 190 88 -1500 000/00 RMK AO2
14840KMKG MKG20011105084509511/05/01 08:45:31  5-MIN KMKG 051345Z 00000KT 10SM CLR 00/M02 A3040 190 88 -1500 000/00 RMK AO2
14840KMKG MKG20011105085011211/05/01 08:50:31  5-MIN KMKG 051350Z 00000KT 10SM CLR 01/M02 A3041 180 85 -1400 000/00 RMK AO2 SLP304 T00061017
14840KMKG MKG20011105085511211/05/01 08:55:31  5-MIN KMKG 051355Z 00000KT 10SM CLR 01/M01 A3041 180 85 -1400 000/00 RMK AO2 SLP303 T00111011
14840KMKG MKG20011105090009511/05/01 09:00:31  5-MIN KMKG 051400Z 00000KT 10SM CLR 02/M01 A3041 180 82 -1300 000/00 RMK AO2
14840KMKG MKG20011105090509511/05/01 09:05:31  5-MIN KMKG 051405Z 11003KT 10SM CLR 02/M01 A3041 180 78 -1200 110/03 RMK AO2
14840KMKG MKG20011105091009511/05/01 09:10:31  5-MIN KMKG 051410Z 11003KT 10SM CLR 03/M01 A3041 180 79 -1200 110/03 RMK AO2
14840KMKG MKG20011105091509511/05/01 09:15:31  5-MIN KMKG 051415Z 11003KT 10SM CLR 03/M01 A3041 180 75 -1200 120/03 RMK AO2
14840KMKG MKG20011105092009511/05/01 09:20:31  5-MIN KMKG 051420Z 11003KT 10SM CLR 03/M01 A3041 180 72 -1100 110/03 RMK AO2
14840KMKG MKG20011105092509511/05/01 09:25:31  5-MIN KMKG 051425Z 00000KT 10SM CLR 03/M01 A3041 180 76 -1100 000/00 RMK AO2
14840KMKG MKG20011105093009511/05/01 09:30:31  5-MIN KMKG 051430Z 12003KT 10SM CLR 04/M01 A3041 180 73 -1000 130/03 RMK AO2
14840KMKG MKG20011105093509511/05/01 09:35:31  5-MIN KMKG 051435Z 10004KT 10SM CLR 04/M01 A3041 180 70 -1000 100/04 RMK AO2
14840KMKG MKG20011105094009511/05/01 09:40:31  5-MIN KMKG 051440Z 11004KT 10SM CLR 04/M01 A3041 180 67 -1000 110/04 RMK AO2
14840KMKG MKG20011105094509511/05/01 09:45:31  5-MIN KMKG 051445Z 10004KT 10SM CLR 04/M01 A3041 180 67 -1000 100/04 RMK AO2
14840KMKG MKG20011105095011811/05/01 09:50:31  5-MIN KMKG 051450Z 11005KT 10SM CLR 04/M01 A3041 180 67 -1000 110/05 RMK AO2 SLP305 T00441011 50004
14840KMKG MKG20011105095511711/05/01 09:55:31  5-MIN KMKG 051455Z 12005KT 10SM CLR 05/M01 A3041 180 64 -900 120/05 RMK AO2 SLP304 T00501011 53007
14840KMKG MKG20011105100009411/05/01 10:00:31  5-MIN KMKG 051500Z 11003KT 10SM CLR 05/M01 A3041 180 64 -900 110/03 RMK AO2
14840KMKG MKG20011105100509411/05/01 10:05:31  5-MIN KMKG 051505Z 11004KT 10SM CLR 06/M01 A3041 180 65 -800 120/04 RMK AO2
14840KMKG MKG20011105101009411/05/01 10:10:31  5-MIN KMKG 051510Z 12004KT 10SM CLR 06/M01 A3041 180 62 -800 120/04 RMK AO2
14840KMKG MKG20011105101509411/05/01 10:15:31  5-MIN KMKG 051515Z VRB03KT 10SM CLR 06/M02 A3041 180 59 -800 VRB/03 RMK AO2
14840KMKG MKG20011105102009411/05/01 10:20:31  5-MIN KMKG 051520Z 13004KT 10SM CLR 06/M02 A3041 180 57 -800 130/04 RMK AO2
14840KMKG MKG20011105102509411/05/01 10:25:31  5-MIN KMKG 051525Z 12004KT 10SM CLR 06/M02 A3041 180 57 -800 130/04 RMK AO2
14840KMKG MKG20011105103009411/05/01 10:30:31  5-MIN KMKG 051530Z 12004KT 10SM CLR 06/M02 A3041 180 55 -800 120/04 RMK AO2
14840KMKG MKG20011105103509411/05/01 10:35:31  5-MIN KMKG 051535Z 12004KT 10SM CLR 07/M02 A3041 180 53 -700 120/04 RMK AO2
14840KMKG MKG20011105104009411/05/01 10:40:31  5-MIN KMKG 051540Z 12004KT 10SM CLR 07/M02 A3041 180 53 -700 130/04 RMK AO2
14840KMKG MKG20011105104509411/05/01 10:45:31  5-MIN KMKG 051545Z 12004KT 10SM CLR 07/M02 A3041 180 53 -700 120/04 RMK AO2
14840KMKG MKG20011105105011111/05/01 10:50:31  5-MIN KMKG 051550Z 11005KT 10SM CLR 07/M02 A3041 180 51 -600 110/05 RMK AO2 SLP302 T00721022
14840KMKG MKG20011105105511111/05/01 10:55:31  5-MIN KMKG 051555Z 09004KT 10SM CLR 07/M03 A3041 180 49 -600 090/04 RMK AO2 SLP303 T00721028
14840KMKG MKG20011105110009411/05/01 11:00:31  5-MIN KMKG 051600Z 14003KT 10SM CLR 07/M02 A3041 180 51 -600 150/03 RMK AO2
14840KMKG MKG20011105110509411/05/01 11:05:31  5-MIN KMKG 051605Z 14005KT 10SM CLR 08/M02 A3041 180 49 -500 150/05 RMK AO2
14840KMKG MKG20011105111009411/05/01 11:10:31  5-MIN KMKG 051610Z 11003KT 10SM CLR 07/M02 A3040 190 51 -600 120/03 RMK AO2
14840KMKG MKG20011105111509411/05/01 11:15:31  5-MIN KMKG 051615Z VRB03KT 10SM CLR 08/M02 A3040 190 49 -500 VRB/03 RMK AO2
14840KMKG MKG20011105112009411/05/01 11:20:31  5-MIN KMKG 051620Z VRB04KT 10SM CLR 08/M02 A3040 190 49 -500 VRB/04 RMK AO2
14840KMKG MKG20011105112509411/05/01 11:25:31  5-MIN KMKG 051625Z 13003KT 10SM CLR 08/M02 A3040 190 49 -500 140/03 RMK AO2
14840KMKG MKG20011105113009411/05/01 11:30:31  5-MIN KMKG 051630Z 12003KT 10SM CLR 08/M03 A3040 190 45 -500 120/03 RMK AO2
14840KMKG MKG20011105113509411/05/01 11:35:31  5-MIN KMKG 051635Z 17003KT 10SM CLR 08/M02 A3040 190 47 -500 170/03 RMK AO2
14840KMKG MKG20011105114009411/05/01 11:40:31  5-MIN KMKG 051640Z VRB03KT 10SM CLR 08/M02 A3039 200 47 -500 VRB/03 RMK AO2
14840KMKG MKG20011105114509411/05/01 11:45:31  5-MIN KMKG 051645Z 00000KT 10SM CLR 08/M02 A3039 200 47 -500 000/00 RMK AO2
14840KMKG MKG20011105115011111/05/01 11:50:31  5-MIN KMKG 051650Z VRB03KT 10SM CLR 08/M02 A3039 200 47 -500 VRB/03 RMK AO2 SLP298 T00831022
14840KMKG MKG20011105115511111/05/01 11:55:31  5-MIN KMKG 051655Z 00000KT 10SM CLR 08/M03 A3039 200 45 -500 000/00 RMK AO2 SLP296 T00831028
14840KMKG MKG20011105120009411/05/01 12:00:31  5-MIN KMKG 051700Z 00000KT 10SM CLR 08/M03 A3039 200 45 -500 000/00 RMK AO2
14840KMKG MKG20011105120509411/05/01 12:05:31  5-MIN KMKG 051705Z 19003KT 10SM CLR 09/M03 A3038 200 43 -400 200/03 RMK AO2
14840KMKG MKG20011105121009411/05/01 12:10:31  5-MIN KMKG 051710Z 00000KT 10SM CLR 09/M03 A3038 200 43 -400 000/00 RMK AO2
14840KMKG MKG20011105121509411/05/01 12:15:31  5-MIN KMKG 051715Z 11003KT 10SM CLR 09/M03 A3038 210 43 -400 120/03 RMK AO2
14840KMKG MKG20011105122009411/05/01 12:20:31  5-MIN KMKG 051720Z 00000KT 10SM CLR 09/M03 A3038 210 42 -400 000/00 RMK AO2
14840KMKG MKG20011105122509411/05/01 12:25:31  5-MIN KMKG 051725Z 00000KT 10SM CLR 09/M03 A3038 210 43 -400 000/00 RMK AO2
14840KMKG MKG20011105123009411/05/01 12:30:31  5-MIN KMKG 051730Z 00000KT 10SM CLR 09/M03 A3037 210 42 -400 000/00 RMK AO2
14840KMKG MKG20011105123509411/05/01 12:35:31  5-MIN KMKG 051735Z 00000KT 10SM CLR 09/M03 A3037 220 42 -300 000/00 RMK AO2
14840KMKG MKG20011105124009411/05/01 12:40:31  5-MIN KMKG 051740Z VRB03KT 10SM CLR 09/M03 A3037 220 42 -300 VRB/03 RMK AO2
14840KMKG MKG20011105124509411/05/01 12:45:31  5-MIN KMKG 051745Z 00000KT 10SM CLR 09/M02 A3037 220 44 -300 000/00 RMK AO2
14840KMKG MKG20011105125012911/05/01 12:50:31  5-MIN KMKG 051750Z 29003KT 10SM CLR 09/M03 A3036 220 42 -300 290/03 RMK AO2 SLP288 T00941028 10100 21039 53007
14840KMKG MKG20011105125512911/05/01 12:55:31  5-MIN KMKG 051755Z 00000KT 10SM CLR 10/M03 A3036 220 40 -200 000/00 RMK AO2 SLP288 T01001028 10100 21039 58016
14840KMKG MKG20011105130009411/05/01 13:00:31  5-MIN KMKG 051800Z 31005KT 10SM CLR 10/M01 A3036 220 46 -200 310/05 RMK AO2
14840KMKG MKG20011105130509411/05/01 13:05:31  5-MIN KMKG 051805Z 29004KT 10SM CLR 09/M01 A3036 230 49 -300 300/04 RMK AO2
14840KMKG MKG20011105131009311/05/01 13:10:31  5-MIN KMKG 051810Z 31005KT 10SM CLR 09/00 A3035 230 51 -300 310/05 RMK AO2
14840KMKG MKG20011105131509411/05/01 13:15:31  5-MIN KMKG 051815Z 35004KT 10SM CLR 10/M01 A3035 230 47 -200 350/04 RMK AO2
14840KMKG MKG20011105132009311/05/01 13:20:31  5-MIN KMKG 051820Z VRB05KT 10SM CLR 09/00 A3035 230 51 -300 VRB/05 RMK AO2
14840KMKG MKG20011105132509411/05/01 13:25:31  5-MIN KMKG 051825Z 25005KT 10SM CLR 10/M01 A3035 240 47 -200 250/05 RMK AO2
14840KMKG MKG20011105133009411/05/01 13:30:31  5-MIN KMKG 051830Z VRB05KT 10SM CLR 10/M01 A3035 240 47 -200 VRB/05 RMK AO2
14840KMKG MKG20011105133509311/05/01 13:35:31  5-MIN KMKG 051835Z 27006KT 10SM CLR 10/00 A3035 240 49 -200 270/06 RMK AO2
14840KMKG MKG20011105134009311/05/01 13:40:31  5-MIN KMKG 051840Z VRB05KT 10SM CLR 10/00 A3034 240 49 -200 VRB/05 RMK AO2
14840KMKG MKG20011105134509311/05/01 13:45:31  5-MIN KMKG 051845Z 28008KT 10SM CLR 10/01 A3034 240 52 -200 280/08 RMK AO2
14840KMKG MKG20011105135011011/05/01 13:50:31  5-MIN KMKG 051850Z 23006KT 10SM CLR 09/00 A3034 240 51 -300 240/06 RMK AO2 SLP280 T00940000
14840KMKG MKG20011105135511011/05/01 13:55:31  5-MIN KMKG 051855Z 24005KT 10SM CLR 09/00 A3034 240 51 -300 250/05 RMK AO2 SLP280 T00940000
14840KMKG MKG20011105140009311/05/01 14:00:31  5-MIN KMKG 051900Z 25006KT 10SM CLR 09/00 A3034 240 51 -300 250/06 RMK AO2
14840KMKG MKG20011105140509311/05/01 14:05:31  5-MIN KMKG 051905Z 25006KT 10SM CLR 10/01 A3034 250 52 -200 250/06 RMK AO2
14840KMKG MKG20011105141009311/05/01 14:10:31  5-MIN KMKG 051910Z 22007KT 10SM CLR 10/00 A3034 240 49 -200 220/07 RMK AO2
14840KMKG MKG20011105141509311/05/01 14:15:31  5-MIN KMKG 051915Z 23007KT 10SM CLR 09/00 A3034 240 51 -300 240/07 RMK AO2
14840KMKG MKG20011105142009311/05/01 14:20:31  5-MIN KMKG 051920Z 22006KT 10SM CLR 09/00 A3034 240 51 -300 220/06 RMK AO2
14840KMKG MKG20011105142510911/05/01 14:25:31  5-MIN KMKG 051925Z 25007KT 210V290 10SM CLR 09/00 A3034 250 51 -300 260/07 210V290 RMK AO2
14840KMKG MKG20011105143009311/05/01 14:30:31  5-MIN KMKG 051930Z 23006KT 10SM CLR 10/00 A3034 250 49 -200 230/06 RMK AO2
14840KMKG MKG20011105143509311/05/01 14:35:31  5-MIN KMKG 051935Z 25006KT 10SM CLR 09/00 A3033 250 51 -300 250/06 RMK AO2
14840KMKG MKG20011105144009411/05/01 14:40:31  5-MIN KMKG 051940Z 26007KT 10SM CLR 09/M01 A3033 250 49 -300 260/07 RMK AO2
14840KMKG MKG20011105144509311/05/01 14:45:31  5-MIN KMKG 051945Z 24006KT 10SM CLR 09/00 A3033 250 51 -300 250/06 RMK AO2
14840KMKG MKG20011105145011011/05/01 14:50:31  5-MIN KMKG 051950Z 27007KT 10SM CLR 10/00 A3033 250 49 -200 270/07 RMK AO2 SLP277 T01000000
14840KMKG MKG20011105145511111/05/01 14:55:31  5-MIN KMKG 051955Z 22006KT 10SM CLR 09/M01 A3033 250 49 -300 220/06 RMK AO2 SLP277 T00941006
14840KMKG MKG20011105150009411/05/01 15:00:31  5-MIN KMKG 052000Z 25006KT 10SM CLR 09/M01 A3033 250 49 -300 250/06 RMK AO2
14840KMKG MKG20011105150509411/05/01 15:05:31  5-MIN KMKG 052005Z VRB05KT 10SM CLR 09/M01 A3033 260 49 -300 VRB/05 RMK AO2
14840KMKG MKG20011105151009411/05/01 15:10:31  5-MIN KMKG 052010Z 26005KT 10SM CLR 09/M01 A3033 260 49 -300 260/05 RMK AO2
14840KMKG MKG20011105151509411/05/01 15:15:31  5-MIN KMKG 052015Z 22004KT 10SM CLR 09/M01 A3033 260 47 -300 230/04 RMK AO2
14840KMKG MKG20011105152009411/05/01 15:20:31  5-MIN KMKG 052020Z 23007KT 10SM CLR 09/M01 A3033 260 47 -300 230/07 RMK AO2
14840KMKG MKG20011105152509411/05/01 15:25:31  5-MIN KMKG 052025Z 25007KT 10SM CLR 09/M01 A3033 260 49 -300 260/07 RMK AO2
14840KMKG MKG20011105153009411/05/01 15:30:31  5-MIN KMKG 052030Z 23006KT 10SM CLR 09/M01 A3032 260 49 -300 240/06 RMK AO2
14840KMKG MKG20011105153509411/05/01 15:35:31  5-MIN KMKG 052035Z 23007KT 10SM CLR 09/M01 A3032 260 49 -300 240/07 RMK AO2
14840KMKG MKG20011105154009411/05/01 15:40:31  5-MIN KMKG 052040Z 24007KT 10SM CLR 09/M01 A3032 260 47 -300 240/07 RMK AO2
14840KMKG MKG20011105154509411/05/01 15:45:31  5-MIN KMKG 052045Z 24005KT 10SM CLR 09/M01 A3032 260 47 -300 250/05 RMK AO2
14840KMKG MKG20011105155011711/05/01 15:50:31  5-MIN KMKG 052050Z 22007KT 10SM CLR 09/M01 A3032 260 47 -200 230/07 RMK AO2 SLP273 T00941011 58016
14840KMKG MKG20011105155511711/05/01 15:55:31  5-MIN KMKG 052055Z 24007KT 10SM CLR 09/M01 A3032 260 49 -300 240/07 RMK AO2 SLP272 T00891011 56015
14840KMKG MKG20011105160009411/05/01 16:00:31  5-MIN KMKG 052100Z 24005KT 10SM CLR 09/M01 A3031 270 49 -300 240/05 RMK AO2
14840KMKG MKG20011105160509411/05/01 16:05:31  5-MIN KMKG 052105Z 22008KT 10SM CLR 09/M01 A3031 270 49 -300 230/08 RMK AO2
14840KMKG MKG20011105161009411/05/01 16:10:31  5-MIN KMKG 052110Z 25007KT 10SM CLR 09/M01 A3031 270 49 -300 250/07 RMK AO2
14840KMKG MKG20011105161509411/05/01 16:15:31  5-MIN KMKG 052115Z 24006KT 10SM CLR 09/M01 A3031 270 49 -300 240/06 RMK AO2
14840KMKG MKG20011105162009411/05/01 16:20:31  5-MIN KMKG 052120Z 25005KT 10SM CLR 09/M01 A3031 270 51 -300 250/05 RMK AO2
14840KMKG MKG20011105162509411/05/01 16:25:31  5-MIN KMKG 052125Z 23006KT 10SM CLR 09/M01 A3031 270 49 -300 230/06 RMK AO2
14840KMKG MKG20011105163009411/05/01 16:30:31  5-MIN KMKG 052130Z 24007KT 10SM CLR 08/M01 A3031 270 51 -400 250/07 RMK AO2
14840KMKG MKG20011105163509411/05/01 16:35:31  5-MIN KMKG 052135Z 23007KT 10SM CLR 08/M01 A3031 270 51 -400 240/07 RMK AO2
14840KMKG MKG20011105164009411/05/01 16:40:31  5-MIN KMKG 052140Z 24005KT 10SM CLR 08/M01 A3031 270 53 -400 240/05 RMK AO2
14840KMKG MKG20011105164509411/05/01 16:45:31  5-MIN KMKG 052145Z 22005KT 10SM CLR 08/M01 A3031 270 51 -400 230/05 RMK AO2
14840KMKG MKG20011105165011111/05/01 16:50:31  5-MIN KMKG 052150Z 24006KT 10SM CLR 08/M01 A3031 270 51 -400 240/06 RMK AO2 SLP270 T00831011
14840KMKG MKG20011105165511111/05/01 16:55:31  5-MIN KMKG 052155Z 23005KT 10SM CLR 08/M01 A3031 270 51 -400 230/05 RMK AO2 SLP270 T00831011
14840KMKG MKG20011105170009411/05/01 17:00:31  5-MIN KMKG 052200Z 23006KT 10SM CLR 08/M01 A3031 270 53 -400 240/06 RMK AO2
14840KMKG MKG20011105170509411/05/01 17:05:31  5-MIN KMKG 052205Z 24006KT 10SM CLR 08/M01 A3031 270 53 -400 240/06 RMK AO2
14840KMKG MKG20011105171009411/05/01 17:10:31  5-MIN KMKG 052210Z 23004KT 10SM CLR 08/M01 A3031 270 53 -400 240/04 RMK AO2
14840KMKG MKG20011105171509411/05/01 17:15:31  5-MIN KMKG 052215Z 22005KT 10SM CLR 07/M01 A3031 270 57 -500 230/05 RMK AO2
14840KMKG MKG20011105172009411/05/01 17:20:31  5-MIN KMKG 052220Z 22004KT 10SM CLR 07/M01 A3031 270 60 -600 220/04 RMK AO2
14840KMKG MKG20011105172509411/05/01 17:25:31  5-MIN KMKG 052225Z 21004KT 10SM CLR 07/M01 A3031 270 60 -600 210/04 RMK AO2
14840KMKG MKG20011105173009411/05/01 17:30:31  5-MIN KMKG 052230Z 22004KT 10SM CLR 06/M01 A3031 270 62 -600 220/04 RMK AO2
14840KMKG MKG20011105173509411/05/01 17:35:31  5-MIN KMKG 052235Z 20003KT 10SM CLR 07/M01 A3031 270 60 -600 200/03 RMK AO2
14840KMKG MKG20011105174009411/05/01 17:40:31  5-MIN KMKG 052240Z 00000KT 10SM CLR 07/M01 A3031 270 60 -600 000/00 RMK AO2
14840KMKG MKG20011105174509411/05/01 17:45:31  5-MIN KMKG 052245Z 00000KT 10SM CLR 07/M01 A3031 270 60 -600 000/00 RMK AO2
14840KMKG MKG20011105175011111/05/01 17:50:31  5-MIN KMKG 052250Z 00000KT 10SM CLR 07/M01 A3031 280 60 -600 000/00 RMK AO2 SLP270 T00671006
14840KMKG MKG20011105175511111/05/01 17:55:31  5-MIN KMKG 052255Z 00000KT 10SM CLR 06/M01 A3031 280 62 -600 000/00 RMK AO2 SLP269 T00611006
14840KMKG MKG20011105180009411/05/01 18:00:31  5-MIN KMKG 052300Z 00000KT 10SM CLR 06/M01 A3030 280 65 -700 000/00 RMK AO2
14840KMKG MKG20011105180509411/05/01 18:05:31  5-MIN KMKG 052305Z 00000KT 10SM CLR 05/M01 A3030 280 67 -800 000/00 RMK AO2
14840KMKG MKG20011105181009411/05/01 18:10:31  5-MIN KMKG 052310Z 00000KT 10SM CLR 05/M01 A3030 280 67 -800 000/00 RMK AO2
14840KMKG MKG20011105181509411/05/01 18:15:31  5-MIN KMKG 052315Z 00000KT 10SM CLR 04/M01 A3030 280 67 -800 000/00 RMK AO2
14840KMKG MKG20011105182009411/05/01 18:20:31  5-MIN KMKG 052320Z 00000KT 10SM CLR 05/M01 A3030 280 64 -800 000/00 RMK AO2
14840KMKG MKG20011105182509411/05/01 18:25:31  5-MIN KMKG 052325Z 00000KT 10SM CLR 06/M01 A3030 280 65 -700 000/00 RMK AO2
14840KMKG MKG20011105183009411/05/01 18:30:31  5-MIN KMKG 052330Z 00000KT 10SM CLR 04/M01 A3030 280 67 -800 000/00 RMK AO2
14840KMKG MKG20011105183509411/05/01 18:35:31  5-MIN KMKG 052335Z 00000KT 10SM CLR 04/M01 A3030 280 70 -900 000/00 RMK AO2
14840KMKG MKG20011105184009411/05/01 18:40:31  5-MIN KMKG 052340Z 18003KT 10SM CLR 04/M01 A3030 280 67 -800 180/03 RMK AO2
14840KMKG MKG20011105184509411/05/01 18:45:31  5-MIN KMKG 052345Z 00000KT 10SM CLR 04/M01 A3030 280 73 -900 000/00 RMK AO2
14840KMKG MKG20011105185012911/05/01 18:50:31  5-MIN KMKG 052350Z 00000KT 10SM CLR 04/M01 A3030 280 70 -800 000/00 RMK AO2 SLP268 T00441006 10100 20039 56015
14840KMKG MKG20011105185513011/05/01 18:55:31  5-MIN KMKG 052355Z 00000KT 10SM CLR 03/M01 A3030 280 76 -1000 000/00 RMK AO2 SLP268 T00331006 10100 20033 56006
14840KMKG MKG20011105190009511/05/01 19:00:31  5-MIN KMKG 060000Z 00000KT 10SM CLR 03/M01 A3030 280 72 -1000 000/00 RMK AO2
14840KMKG MKG20011105190509511/05/01 19:05:31  5-MIN KMKG 060005Z 00000KT 10SM CLR 03/M01 A3030 290 72 -1000 000/00 RMK AO2
14840KMKG MKG20011105191009411/05/01 19:10:31  5-MIN KMKG 060010Z 00000KT 10SM CLR 04/M01 A3030 290 73 -900 000/00 RMK AO2
14840KMKG MKG20011105191509511/05/01 19:15:31  5-MIN KMKG 060015Z 00000KT 10SM CLR 03/M01 A3030 290 76 -1000 000/00 RMK AO2
14840KMKG MKG20011105192009511/05/01 19:20:31  5-MIN KMKG 060020Z 00000KT 10SM CLR 03/M01 A3030 290 76 -1000 000/00 RMK AO2
14840KMKG MKG20011105192509511/05/01 19:25:31  5-MIN KMKG 060025Z 00000KT 10SM CLR 02/M01 A3029 290 82 -1100 000/00 RMK AO2
14840KMKG MKG20011105193009511/05/01 19:30:31  5-MIN KMKG 060030Z 00000KT 10SM CLR 03/M01 A3029 290 79 -1000 000/00 RMK AO2
14840KMKG MKG20011105193509511/05/01 19:35:31  5-MIN KMKG 060035Z 00000KT 10SM CLR 02/M01 A3029 290 82 -1100 000/00 RMK AO2
14840KMKG MKG20011105194009511/05/01 19:40:31  5-MIN KMKG 060040Z 14003KT 10SM CLR 02/M01 A3029 290 82 -1100 140/03 RMK AO2
14840KMKG MKG20011105194509511/05/01 19:45:31  5-MIN KMKG 060045Z 12003KT 10SM CLR 02/M01 A3029 290 78 -1100 120/03 RMK AO2
14840KMKG MKG20011105195011211/05/01 19:50:31  5-MIN KMKG 060050Z 12004KT 10SM CLR 02/M01 A3029 290 82 -1200 120/04 RMK AO2 SLP266 T00171011
14840KMKG MKG20011105195511211/05/01 19:55:31  5-MIN KMKG 060055Z 13003KT 10SM CLR 02/M01 A3029 290 82 -1200 130/03 RMK AO2 SLP265 T00171011
14840KMKG MKG20011105200009511/05/01 20:00:31  5-MIN KMKG 060100Z 13004KT 10SM CLR 01/M01 A3029 290 85 -1200 130/04 RMK AO2
14840KMKG MKG20011105200509511/05/01 20:05:31  5-MIN KMKG 060105Z 13004KT 10SM CLR 02/M01 A3029 290 82 -1100 140/04 RMK AO2
14840KMKG MKG20011105201009511/05/01 20:10:31  5-MIN KMKG 060110Z 13004KT 10SM CLR 01/M01 A3029 290 85 -1200 140/04 RMK AO2
14840KMKG MKG20011105201509511/05/01 20:15:31  5-MIN KMKG 060115Z 14004KT 10SM CLR 01/M01 A3029 290 85 -1200 140/04 RMK AO2
14840KMKG MKG20011105202009511/05/01 20:20:31  5-MIN KMKG 060120Z 14003KT 10SM CLR 01/M01 A3029 290 85 -1200 150/03 RMK AO2
14840KMKG MKG20011105202509511/05/01 20:25:31  5-MIN KMKG 060125Z 13003KT 10SM CLR 02/M01 A3029 290 85 -1200 140/03 RMK AO2
14840KMKG MKG20011105203009511/05/01 20:30:31  5-MIN KMKG 060130Z 13003KT 10SM CLR 02/M01 A3029 290 85 -1200 140/03 RMK AO2
14840KMKG MKG20011105203509511/05/01 20:35:31  5-MIN KMKG 060135Z 13004KT 10SM CLR 02/M01 A3028 300 85 -1200 130/04 RMK AO2
14840KMKG MKG20011105204009511/05/01 20:40:31  5-MIN KMKG 060140Z 13004KT 10SM CLR 01/M01 A3028 300 85 -1200 130/04 RMK AO2
14840KMKG MKG20011105204509511/05/01 20:45:31  5-MIN KMKG 060145Z 13005KT 10SM CLR 01/M01 A3028 300 89 -1300 140/05 RMK AO2
14840KMKG MKG20011105205011211/05/01 20:50:31  5-MIN KMKG 060150Z 13005KT 10SM CLR 01/M01 A3028 300 89 -1300 140/05 RMK AO2 SLP261 T00061011
14840KMKG MKG20011105205511211/05/01 20:55:31  5-MIN KMKG 060155Z 13004KT 10SM CLR 01/M01 A3028 300 89 -1300 130/04 RMK AO2 SLP261 T00061011
14840KMKG MKG20011105210009511/05/01 21:00:31  5-MIN KMKG 060200Z 14004KT 10SM CLR 01/M01 A3028 300 85 -1200 140/04 RMK AO2
14840KMKG MKG20011105210509511/05/01 21:05:31  5-MIN KMKG 060205Z 14003KT 10SM CLR 01/M01 A3028 300 89 -1200 150/03 RMK AO2
14840KMKG MKG20011105211009511/05/01 21:10:31  5-MIN KMKG 060210Z 14003KT 10SM CLR 01/M01 A3028 300 89 -1200 150/03 RMK AO2
14840KMKG MKG20011105211509511/05/01 21:15:31  5-MIN KMKG 060215Z 00000KT 10SM CLR 01/M01 A3028 300 89 -1300 000/00 RMK AO2
14840KMKG MKG20011105212009511/05/01 21:20:31  5-MIN KMKG 060220Z 00000KT 10SM CLR 01/M01 A3028 300 89 -1200 000/00 RMK AO2
14840KMKG MKG20011105212509511/05/01 21:25:31  5-MIN KMKG 060225Z 00000KT 10SM CLR 02/M01 A3028 300 85 -1200 000/00 RMK AO2
14840KMKG MKG20011105213009511/05/01 21:30:31  5-MIN KMKG 060230Z 00000KT 10SM CLR 02/M01 A3028 300 85 -1200 000/00 RMK AO2
14840KMKG MKG20011105213509511/05/01 21:35:31  5-MIN KMKG 060235Z 00000KT 10SM CLR 01/M01 A3028 300 85 -1200 000/00 RMK AO2
14840KMKG MKG20011105214009511/05/01 21:40:31  5-MIN KMKG 060240Z 00000KT 10SM CLR 01/M01 A3028 300 85 -1200 000/00 RMK AO2
14840KMKG MKG20011105214509511/05/01 21:45:31  5-MIN KMKG 060245Z 00000KT 10SM CLR 01/M01 A3028 300 89 -1300 000/00 RMK AO2
14840KMKG MKG20011105215011811/05/01 21:50:31  5-MIN KMKG 060250Z 00000KT 10SM CLR 01/M01 A3028 300 85 -1200 000/00 RMK AO2 SLP260 T00111011 56006
14840KMKG MKG20011105215511811/05/01 21:55:31  5-MIN KMKG 060255Z 13003KT 10SM CLR 01/M01 A3028 300 89 -1300 130/03 RMK AO2 SLP259 T00061011 56006
14840KMKG MKG20011105220009511/05/01 22:00:31  5-MIN KMKG 060300Z 13003KT 10SM CLR 01/M01 A3028 300 89 -1300 140/03 RMK AO2
14840KMKG MKG20011105220509511/05/01 22:05:31  5-MIN KMKG 060305Z 13004KT 10SM CLR 01/M01 A3028 300 89 -1300 130/04 RMK AO2
14840KMKG MKG20011105221009511/05/01 22:10:31  5-MIN KMKG 060310Z 13004KT 10SM CLR 01/M01 A3028 300 92 -1300 130/04 RMK AO2
14840KMKG MKG20011105221509511/05/01 22:15:31  5-MIN KMKG 060315Z 14003KT 10SM CLR 01/M01 A3028 300 89 -1200 140/03 RMK AO2
14840KMKG MKG20011105222009511/05/01 22:20:31  5-MIN KMKG 060320Z 14003KT 10SM CLR 01/M01 A3028 300 89 -1300 140/03 RMK AO2
14840KMKG MKG20011105222509511/05/01 22:25:31  5-MIN KMKG 060325Z 13004KT 10SM CLR 01/M01 A3028 300 89 -1300 130/04 RMK AO2
14840KMKG MKG20011105223009511/05/01 22:30:31  5-MIN KMKG 060330Z 12003KT 10SM CLR 01/M01 A3028 300 89 -1200 120/03 RMK AO2
14840KMKG MKG20011105223509511/05/01 22:35:31  5-MIN KMKG 060335Z 12003KT 10SM CLR 02/M01 A3028 300 85 -1200 130/03 RMK AO2
14840KMKG MKG20011105224009511/05/01 22:40:31  5-MIN KMKG 060340Z 13004KT 10SM CLR 02/M01 A3028 300 85 -1200 130/04 RMK AO2
14840KMKG MKG20011105224509511/05/01 22:45:31  5-MIN KMKG 060345Z 14004KT 10SM CLR 01/M01 A3028 300 89 -1200 140/04 RMK AO2
14840KMKG MKG20011105225011211/05/01 22:50:31  5-MIN KMKG 060350Z 14003KT 10SM CLR 01/M01 A3028 300 89 -1200 140/03 RMK AO2 SLP259 T00111006
14840KMKG MKG20011105225511211/05/01 22:55:31  5-MIN KMKG 060355Z 13003KT 10SM CLR 01/M01 A3028 300 89 -1200 140/03 RMK AO2 SLP259 T00111006
14840KMKG MKG20011105230009511/05/01 23:00:31  5-MIN KMKG 060400Z 12004KT 10SM CLR 01/M01 A3027 300 85 -1200 130/04 RMK AO2
14840KMKG MKG20011105230509511/05/01 23:05:31  5-MIN KMKG 060405Z 13003KT 10SM CLR 01/M01 A3027 300 89 -1300 140/03 RMK AO2
14840KMKG MKG20011105231009511/05/01 23:10:31  5-MIN KMKG 060410Z 14003KT 10SM CLR 01/M01 A3027 310 92 -1300 140/03 RMK AO2
14840KMKG MKG20011105231509511/05/01 23:15:31  5-MIN KMKG 060415Z 13003KT 10SM CLR 01/M01 A3027 310 89 -1200 130/03 RMK AO2
14840KMKG MKG20011105232009511/05/01 23:20:31  5-MIN KMKG 060420Z 12004KT 10SM CLR 01/M01 A3027 310 89 -1200 120/04 RMK AO2
14840KMKG MKG20011105232509511/05/01 23:25:31  5-MIN KMKG 060425Z 12004KT 10SM CLR 01/M01 A3027 310 89 -1200 120/04 RMK AO2
14840KMKG MKG20011105233009511/05/01 23:30:31  5-MIN KMKG 060430Z 12004KT 10SM CLR 02/M01 A3027 310 85 -1200 130/04 RMK AO2
14840KMKG MKG20011105233509511/05/01 23:35:31  5-MIN KMKG 060435Z 12003KT 10SM CLR 01/M01 A3027 310 89 -1200 120/03 RMK AO2
14840KMKG MKG20011105234009511/05/01 23:40:31  5-MIN KMKG 060440Z 12004KT 10SM CLR 02/M01 A3027 310 85 -1200 120/04 RMK AO2
14840KMKG MKG20011105234509511/05/01 23:45:31  5-MIN KMKG 060445Z 12003KT 10SM CLR 02/M01 A3027 310 85 -1200 130/03 RMK AO2
14840KMKG MKG20011105235012111/05/01 23:50:31  5-MIN KMKG 060450Z 12004KT 10SM CLR 02/00 A3027 310 85 -1100 120/04 RMK AO2 SLP256 T00220000 401001039
14840KMKG MKG20011105235512211/05/01 23:55:31  5-MIN KMKG 060455Z 12004KT 10SM CLR 02/M01 A3027 310 85 -1200 130/04 RMK AO2 SLP256 T00171006 401001039
14840KMKG MKG20011106000009511/06/01 00:00:31  5-MIN KMKG 060500Z 12003KT 10SM CLR 02/M01 A3027 310 85 -1200 130/03 RMK AO2
14840KMKG MKG20011106000509511/06/01 00:05:31  5-MIN KMKG 060505Z 12003KT 10SM CLR 01/M01 A3027 310 85 -1200 120/03 RMK AO2
14840KMKG MKG20011106001009511/06/01 00:10:31  5-MIN KMKG 060510Z 13003KT 10SM CLR 01/M01 A3027 310 89 -1300 130/03 RMK AO2
14840KMKG MKG20011106001509511/06/01 00:15:31  5-MIN KMKG 060515Z 13003KT 10SM CLR 00/M01 A3027 310 92 -1400 140/03 RMK AO2
14840KMKG MKG20011106002009511/06/01 00:20:31  5-MIN KMKG 060520Z 13003KT 10SM CLR 01/M01 A3027 310 89 -1300 130/03 RMK AO2
14840KMKG MKG20011106002509511/06/01 00:25:31  5-MIN KMKG 060525Z 12003KT 10SM CLR 01/M01 A3027 310 85 -1200 130/03 RMK AO2
14840KMKG MKG20011106003009511/06/01 00:30:31  5-MIN KMKG 060530Z 12003KT 10SM CLR 01/M01 A3027 310 89 -1200 130/03 RMK AO2
14840KMKG MKG20011106003509511/06/01 00:35:31  5-MIN KMKG 060535Z 13004KT 10SM CLR 01/M01 A3027 310 89 -1200 140/04 RMK AO2
14840KMKG MKG20011106004009511/06/01 00:40:31  5-MIN KMKG 060540Z 15003KT 10SM CLR 01/M01 A3027 310 85 -1200 150/03 RMK AO2
14840KMKG MKG20011106004509511/06/01 00:45:31  5-MIN KMKG 060545Z 15004KT 10SM CLR 01/M01 A3027 310 89 -1300 150/04 RMK AO2
14840KMKG MKG20011106005013011/06/01 00:50:31  5-MIN KMKG 060550Z 15004KT 10SM CLR 01/M01 A3027 310 89 -1300 150/04 RMK AO2 SLP255 T00061011 10039 20000 56006
14840KMKG MKG20011106005513011/06/01 00:55:31  5-MIN KMKG 060555Z 15004KT 10SM CLR 01/M01 A3027 310 89 -1300 160/04 RMK AO2 SLP256 T00061011 10039 20000 56003
14840KMKG MKG20011106010009511/06/01 01:00:31  5-MIN KMKG 060600Z 15003KT 10SM CLR 01/M01 A3027 310 89 -1300 150/03 RMK AO2
14840KMKG MKG20011106010509511/06/01 01:05:31  5-MIN KMKG 060605Z 13003KT 10SM CLR 01/M01 A3027 310 89 -1300 140/03 RMK AO2
14840KMKG MKG20011106011009511/06/01 01:10:31  5-MIN KMKG 060610Z 11004KT 10SM CLR 01/M01 A3027 310 89 -1300 120/04 RMK AO2
14840KMKG MKG20011106011509511/06/01 01:15:31  5-MIN KMKG 060615Z VRB03KT 10SM CLR 01/M01 A3027 310 89 -1300 VRB/03 RMK AO2
14840KMKG MKG20011106012009511/06/01 01:20:31  5-MIN KMKG 060620Z 00000KT 10SM CLR 01/M01 A3027 310 89 -1300 000/00 RMK AO2
14840KMKG MKG20011106012509511/06/01 01:25:31  5-MIN KMKG 060625Z 00000KT 10SM CLR 01/M01 A3027 310 89 -1300 000/00 RMK AO2
14840KMKG MKG20011106013009511/06/01 01:30:31  5-MIN KMKG 060630Z 00000KT 10SM CLR 01/M01 A3027 310 85 -1200 000/00 RMK AO2
14840KMKG MKG20011106013509511/06/01 01:35:31  5-MIN KMKG 060635Z 00000KT 10SM CLR 01/M01 A3027 310 89 -1200 000/00 RMK AO2
14840KMKG MKG20011106014009511/06/01 01:40:31  5-MIN KMKG 060640Z VRB03KT 10SM CLR 01/M01 A3027 310 89 -1200 VRB/03 RMK AO2
14840KMKG MKG20011106014509511/06/01 01:45:31  5-MIN KMKG 060645Z 13003KT 10SM CLR 02/M01 A3027 310 85 -1100 130/03 RMK AO2
14840KMKG MKG20011106015011211/06/01 01:50:31  5-MIN KMKG 060650Z 13003KT 10SM CLR 02/M01 A3027 310 85 -1100 130/03 RMK AO2 SLP255 T00171006
14840KMKG MKG20011106015511211/06/01 01:55:31  5-MIN KMKG 060655Z 12004KT 10SM CLR 02/M01 A3027 310 85 -1100 130/04 RMK AO2 SLP255 T00171006
14840KMKG MKG20011106020009511/06/01 02:00:31  5-MIN KMKG 060700Z 12004KT 10SM CLR 01/M01 A3027 310 89 -1200 120/04 RMK AO2
14840KMKG MKG20011106020509511/06/01 02:05:31  5-MIN KMKG 060705Z 12004KT 10SM CLR 01/M01 A3027 310 89 -1200 130/04 RMK AO2
14840KMKG MKG20011106021009511/06/01 02:10:31  5-MIN KMKG 060710Z 13004KT 10SM CLR 01/M01 A3027 310 89 -1300 130/04 RMK AO2
14840KMKG MKG20011106021509511/06/01 02:15:31  5-MIN KMKG 060715Z 13004KT 10SM CLR 00/M01 A3027 310 92 -1400 140/04 RMK AO2
14840KMKG MKG20011106022009511/06/01 02:20:31  5-MIN KMKG 060720Z 14003KT 10SM CLR 01/M01 A3027 310 89 -1300 140/03 RMK AO2
14840KMKG MKG20011106022509511/06/01 02:25:31  5-MIN KMKG 060725Z 15003KT 10SM CLR 00/M01 A3027 310 92 -1400 150/03 RMK AO2
14840KMKG MKG20011106023009511/06/01 02:30:31  5-MIN KMKG 060730Z 14003KT 10SM CLR 00/M01 A3027 310 92 -1400 140/03 RMK AO2
14840KMKG MKG20011106023509511/06/01 02:35:31  5-MIN KMKG 060735Z 13004KT 10SM CLR 00/M01 A3027 310 92 -1400 130/04 RMK AO2
14840KMKG MKG20011106024009511/06/01 02:40:31  5-MIN KMKG 060740Z 13003KT 10SM CLR 01/M01 A3027 310 89 -1300 130/03 RMK AO2
14840KMKG MKG20011106024509511/06/01 02:45:31  5-MIN KMKG 060745Z 13003KT 10SM CLR 01/M01 A3027 310 89 -1300 140/03 RMK AO2
14840KMKG MKG20011106025011211/06/01 02:50:31  5-MIN KMKG 060750Z 12003KT 10SM CLR 01/M02 A3027 310 85 -1300 130/03 RMK AO2 SLP254 T00061017
14840KMKG MKG20011106025511211/06/01 02:55:31  5-MIN KMKG 060755Z 12003KT 10SM CLR 01/M01 A3027 310 89 -1300 130/03 RMK AO2 SLP254 T00061011
14840KMKG MKG20011106030009511/06/01 03:00:31  5-MIN KMKG 060800Z 14003KT 10SM CLR 01/M01 A3026 320 85 -1200 150/03 RMK AO2
14840KMKG MKG20011106030509511/06/01 03:05:31  5-MIN KMKG 060805Z 14003KT 10SM CLR 01/M02 A3026 310 85 -1300 150/03 RMK AO2
14840KMKG MKG20011106031009511/06/01 03:10:31  5-MIN KMKG 060810Z 00000KT 10SM CLR 01/M02 A3027 310 85 -1300 000/00 RMK AO2
14840KMKG MKG20011106031509511/06/01 03:15:31  5-MIN KMKG 060815Z 00000KT 10SM CLR 01/M02 A3026 310 85 -1300 000/00 RMK AO2
14840KMKG MKG20011106032009511/06/01 03:20:31  5-MIN KMKG 060820Z 00000KT 10SM CLR 01/M02 A3026 310 85 -1300 000/00 RMK AO2
14840KMKG MKG20011106032509511/06/01 03:25:31  5-MIN KMKG 060825Z 12003KT 10SM CLR 01/M02 A3026 310 82 -1200 130/03 RMK AO2
14840KMKG MKG20011106033009511/06/01 03:30:31  5-MIN KMKG 060830Z 14003KT 10SM CLR 01/M02 A3026 310 82 -1200 140/03 RMK AO2
14840KMKG MKG20011106033509511/06/01 03:35:31  5-MIN KMKG 060835Z 13003KT 10SM CLR 01/M02 A3026 310 82 -1200 140/03 RMK AO2
14840KMKG MKG20011106034009511/06/01 03:40:31  5-MIN KMKG 060840Z 14003KT 10SM CLR 01/M02 A3026 320 82 -1200 140/03 RMK AO2
14840KMKG MKG20011106034509511/06/01 03:45:31  5-MIN KMKG 060845Z 00000KT 10SM CLR 01/M02 A3026 320 82 -1200 000/00 RMK AO2
14840KMKG MKG20011106035011811/06/01 03:50:31  5-MIN KMKG 060850Z 00000KT 10SM CLR 01/M02 A3026 320 82 -1200 000/00 RMK AO2 SLP252 T00111017 56003
14840KMKG MKG20011106035511811/06/01 03:55:31  5-MIN KMKG 060855Z 00000KT 10SM CLR 01/M02 A3026 320 82 -1200 000/00 RMK AO2 SLP253 T00111017 58003
14840KMKG MKG20011106040009511/06/01 04:00:31  5-MIN KMKG 060900Z 00000KT 10SM CLR 01/M02 A3026 320 82 -1200 000/00 RMK AO2
14840KMKG MKG20011106040509511/06/01 04:05:31  5-MIN KMKG 060905Z 00000KT 10SM CLR 01/M02 A3026 320 82 -1200 000/00 RMK AO2
14840KMKG MKG20011106041009511/06/01 04:10:31  5-MIN KMKG 060910Z 14003KT 10SM CLR 01/M02 A3026 320 82 -1200 150/03 RMK AO2
14840KMKG MKG20011106041509511/06/01 04:15:31  5-MIN KMKG 060915Z 14003KT 10SM CLR 01/M02 A3026 320 82 -1200 150/03 RMK AO2
14840KMKG MKG20011106042009511/06/01 04:20:31  5-MIN KMKG 060920Z 14004KT 10SM CLR 01/M02 A3026 320 82 -1200 150/04 RMK AO2
14840KMKG MKG20011106042509511/06/01 04:25:31  5-MIN KMKG 060925Z 14004KT 10SM CLR 01/M02 A3026 320 82 -1200 150/04 RMK AO2
14840KMKG MKG20011106043009511/06/01 04:30:31  5-MIN KMKG 060930Z 15004KT 10SM CLR 01/M02 A3025 320 85 -1300 150/04 RMK AO2
14840KMKG MKG20011106043509511/06/01 04:35:31  5-MIN KMKG 060935Z 17003KT 10SM CLR 00/M02 A3025 320 88 -1300 170/03 RMK AO2
14840KMKG MKG20011106044009511/06/01 04:40:31  5-MIN KMKG 060940Z 00000KT 10SM CLR 01/M02 A3025 320 85 -1300 000/00 RMK AO2
14840KMKG MKG20011106044509511/06/01 04:45:31  5-MIN KMKG 060945Z 00000KT 10SM CLR 01/M02 A3026 320 85 -1300 000/00 RMK AO2
14840KMKG MKG20011106045011211/06/01 04:50:31  5-MIN KMKG 060950Z 00000KT 10SM CLR 01/M02 A3026 320 85 -1300 000/00 RMK AO2 SLP252 T00061017
14840KMKG MKG20011106045511211/06/01 04:55:31  5-MIN KMKG 060955Z 14003KT 10SM CLR 00/M02 A3026 320 85 -1300 150/03 RMK AO2 SLP251 T00001022
14840KMKG MKG20011106050009511/06/01 05:00:31  5-MIN KMKG 061000Z 15003KT 10SM CLR 00/M02 A3025 320 88 -1300 150/03 RMK AO2
14840KMKG MKG20011106050509511/06/01 05:05:31  5-MIN KMKG 061005Z 15004KT 10SM CLR 00/M02 A3025 320 88 -1300 150/04 RMK AO2
14840KMKG MKG20011106051009511/06/01 05:10:31  5-MIN KMKG 061010Z 14003KT 10SM CLR 00/M02 A3025 330 88 -1300 150/03 RMK AO2
14840KMKG MKG20011106063009611/06/01 06:30:31  5-MIN KMKG 061130Z 12004KT 10SM CLR M02/M02 A3025 320 96 -1600 130/04 RMK AO2
14840KMKG MKG20011106063509611/06/01 06:35:31  5-MIN KMKG 061135Z 12005KT 10SM CLR M02/M03 A3025 320 96 -1600 120/05 RMK AO2
14840KMKG MKG20011106064009611/06/01 06:40:31  5-MIN KMKG 061140Z 11005KT 10SM CLR M01/M02 A3025 320 92 -1500 120/05 RMK AO2
14840KMKG MKG20011106064509611/06/01 06:45:31  5-MIN KMKG 061145Z 12005KT 10SM CLR M01/M02 A3025 320 96 -1500 120/05 RMK AO2
14840KMKG MKG20011106065013111/06/01 06:50:31  5-MIN KMKG 061150Z 12005KT 10SM CLR M01/M02 A3025 320 92 -1500 130/05 RMK AO2 SLP251 T10111022 10017 21022 58003
14840KMKG MKG20011106065513111/06/01 06:55:31  5-MIN KMKG 061155Z 13004KT 10SM CLR M02/M03 A3025 330 92 -1500 140/04 RMK AO2 SLP251 T10171028 10017 21022 56004
14840KMKG MKG20011106070009511/06/01 07:00:31  5-MIN KMKG 061200Z 13004KT 9SM CLR M02/M03 A3025 330 96 -1600 140/04 RMK AO2
14840KMKG MKG20011106070509511/06/01 07:05:31  5-MIN KMKG 061205Z 13005KT 9SM CLR M02/M02 A3025 330 96 -1500 130/05 RMK AO2
14840KMKG MKG20011106071009511/06/01 07:10:31  5-MIN KMKG 061210Z 13006KT 9SM CLR M01/M02 A3024 330 96 -1500 130/06 RMK AO2
14840KMKG MKG20011106071509611/06/01 07:15:31  5-MIN KMKG 061215Z 13006KT 10SM CLR M01/M01 A3024 330 96 -1400 140/06 RMK AO2
14840KMKG MKG20011106072009511/06/01 07:20:31  5-MIN KMKG 061220Z 14006KT 9SM CLR M01/M01 A3024 330 96 -1400 140/06 RMK AO2
14840KMKG MKG20011106072509511/06/01 07:25:31  5-MIN KMKG 061225Z 13006KT 8SM CLR M01/M01 A3024 330 96 -1400 140/06 RMK AO2
14840KMKG MKG20011106073009511/06/01 07:30:31  5-MIN KMKG 061230Z 13005KT 8SM CLR M01/M01 A3024 330 96 -1400 140/05 RMK AO2
14840KMKG MKG20011106073509511/06/01 07:35:31  5-MIN KMKG 061235Z 13006KT 8SM CLR M01/M01 A3024 330 96 -1400 130/06 RMK AO2
14840KMKG MKG20011106074009511/06/01 07:40:31  5-MIN KMKG 061240Z 13006KT 8SM CLR M01/M01 A3024 330 96 -1400 130/06 RMK AO2
14840KMKG MKG20011106074509411/06/01 07:45:31  5-MIN KMKG 061245Z 13005KT 8SM CLR 00/M01 A3024 330 96 -1300 130/05 RMK AO2
14840KMKG MKG20011106075011111/06/01 07:50:31  5-MIN KMKG 061250Z 13006KT 9SM CLR 00/M01 A3024 340 96 -1300 130/06 RMK AO2 SLP247 T00001006
14840KMKG MKG20011106075511111/06/01 07:55:31  5-MIN KMKG 061255Z 13006KT 9SM CLR 00/M01 A3024 340 96 -1300 130/06 RMK AO2 SLP247 T00001006
14840KMKG MKG20011106080009311/06/01 08:00:31  5-MIN KMKG 061300Z 13006KT 9SM CLR 01/00 A3024 340 96 -1300 130/06 RMK AO2
14840KMKG MKG20011106080509311/06/01 08:05:31  5-MIN KMKG 061305Z 13006KT 9SM CLR 01/00 A3024 330 96 -1300 130/06 RMK AO2
14840KMKG MKG20011106081009311/06/01 08:10:31  5-MIN KMKG 061310Z 13006KT 9SM CLR 01/00 A3024 340 92 -1200 130/06 RMK AO2
14840KMKG MKG20011106081509311/06/01 08:15:31  5-MIN KMKG 061315Z 13007KT 9SM CLR 01/01 A3024 340 96 -1200 140/07 RMK AO2
14840KMKG MKG20011106082009411/06/01 08:20:31  5-MIN KMKG 061320Z 14006KT 10SM CLR 02/01 A3024 340 92 -1100 140/06 RMK AO2
14840KMKG MKG20011106082509411/06/01 08:25:31  5-MIN KMKG 061325Z 14006KT 10SM CLR 02/01 A3024 340 92 -1000 150/06 RMK AO2
14840KMKG MKG20011106083009311/06/01 08:30:31  5-MIN KMKG 061330Z 14007KT 10SM CLR 03/02 A3024 340 89 -900 150/07 RMK AO2
14840KMKG MKG20011106083509311/06/01 08:35:31  5-MIN KMKG 061335Z 15007KT 10SM CLR 04/02 A3023 340 89 -800 150/07 RMK AO2
14840KMKG MKG20011106084009311/06/01 08:40:31  5-MIN KMKG 061340Z 15006KT 10SM CLR 04/03 A3024 340 89 -800 150/06 RMK AO2
14840KMKG MKG20011106084509311/06/01 08:45:31  5-MIN KMKG 061345Z 15006KT 10SM CLR 06/03 A3024 340 85 -600 160/06 RMK AO2
14840KMKG MKG20011106085011011/06/01 08:50:31  5-MIN KMKG 061350Z 19007KT 10SM CLR 07/04 A3024 340 82 -500 190/07 RMK AO2 SLP245 T00670039
14840KMKG MKG20011106085511611/06/01 08:55:31  5-MIN KMKG 061355Z 20010G14KT 10SM CLR 09/05 A3024 340 74 -200 210/10G14 RMK AO2 SLP244 T00940050
14840KMKG MKG20011106090009311/06/01 09:00:31  5-MIN KMKG 061400Z 20013KT 10SM CLR 10/05 A3024 340 71 -100 210/13 RMK AO2
14840KMKG MKG20011106090509911/06/01 09:05:31  5-MIN KMKG 061405Z 21017G21KT 10SM CLR 10/05 A3024 340 71 -100 210/17G21 RMK AO2
14840KMKG MKG20011106091009911/06/01 09:10:31  5-MIN KMKG 061410Z 21013G21KT 10SM CLR 10/05 A3024 340 71 -100 210/13G21 RMK AO2
14840KMKG MKG20011106091509011/06/01 09:15:31  5-MIN KMKG 061415Z 21016KT 10SM CLR 11/05 A3024 340 68 0 210/16 RMK AO2
14840KMKG MKG20011106092009011/06/01 09:20:31  5-MIN KMKG 061420Z 20014KT 10SM CLR 11/05 A3024 340 68 0 210/14 RMK AO2
14840KMKG MKG20011106092509011/06/01 09:25:31  5-MIN KMKG 061425Z 21015KT 10SM CLR 11/05 A3024 340 68 0 210/15 RMK AO2
14840KMKG MKG20011106093009611/06/01 09:30:31  5-MIN KMKG 061430Z 20018G21KT 10SM CLR 11/05 A3024 340 68 0 210/18G21 RMK AO2
14840KMKG MKG20011106093509011/06/01 09:35:31  5-MIN KMKG 061435Z 21017KT 10SM CLR 11/04 A3024 340 63 0 210/17 RMK AO2
14840KMKG MKG20011106094009011/06/01 09:40:31  5-MIN KMKG 061440Z 21016KT 10SM CLR 11/04 A3024 340 63 0 210/16 RMK AO2
14840KMKG MKG20011106094509611/06/01 09:45:31  5-MIN KMKG 061445Z 21014G19KT 10SM CLR 11/04 A3024 340 63 0 210/14G19 RMK AO2
14840KMKG MKG20011106095011311/06/01 09:50:31  5-MIN KMKG 061450Z 20017KT 10SM CLR 11/04 A3024 340 63 0 210/17 RMK AO2 SLP243 T01110044 56004
14840KMKG MKG20011106095511511/06/01 09:55:31  5-MIN KMKG 061455Z 21015KT 10SM CLR 12/04 A3023 340 61 100 210/15 RMK AO2 SLP243 T01170044 56005
14840KMKG MKG20011106100009611/06/01 10:00:31  5-MIN KMKG 061500Z 21020G23KT 10SM CLR 11/04 A3024 340 63 0 220/20G23 RMK AO2
14840KMKG MKG20011106100509011/06/01 10:05:31  5-MIN KMKG 061505Z 21018KT 10SM CLR 11/04 A3023 340 63 0 220/18 RMK AO2
14840KMKG MKG20011106101009211/06/01 10:10:31  5-MIN KMKG 061510Z 21018KT 10SM CLR 12/04 A3023 340 61 100 220/18 RMK AO2
14840KMKG MKG20011106101509811/06/01 10:15:31  5-MIN KMKG 061515Z 21020G24KT 10SM CLR 12/04 A3024 340 61 100 220/20G24 RMK AO2
14840KMKG MKG20011106102009811/06/01 10:20:31  5-MIN KMKG 061520Z 22018G24KT 10SM CLR 12/04 A3023 340 58 100 220/18G24 RMK AO2
14840KMKG MKG20011106102509811/06/01 10:25:31  5-MIN KMKG 061525Z 22019G24KT 10SM CLR 12/04 A3024 340 61 100 220/19G24 RMK AO2
14840KMKG MKG20011106103009811/06/01 10:30:31  5-MIN KMKG 061530Z 21014G22KT 10SM CLR 12/04 A3024 340 61 100 220/14G22 RMK AO2
14840KMKG MKG20011106103509811/06/01 10:35:31  5-MIN KMKG 061535Z 21018G23KT 10SM CLR 12/04 A3024 340 61 100 220/18G23 RMK AO2
14840KMKG MKG20011106104009811/06/01 10:40:31  5-MIN KMKG 061540Z 20016G23KT 10SM CLR 12/04 A3024 340 61 100 210/16G23 RMK AO2
14840KMKG MKG20011106104509811/06/01 10:45:31  5-MIN KMKG 061545Z 20015G22KT 10SM CLR 12/04 A3024 340 61 100 210/15G22 RMK AO2
14840KMKG MKG20011106105011511/06/01 10:50:31  5-MIN KMKG 061550Z 21018G22KT 10SM CLR 12/05 A3023 340 61 100 210/18G22 RMK AO2 SLP242 T01220050
14840KMKG MKG20011106105510911/06/01 10:55:31  5-MIN KMKG 061555Z 20016KT 10SM CLR 12/04 A3023 340 61 100 210/16 RMK AO2 SLP242 T01170044
14840KMKG MKG20011106110009811/06/01 11:00:31  5-MIN KMKG 061600Z 21019G24KT 10SM CLR 12/04 A3023 340 61 100 210/19G24 RMK AO2
14840KMKG MKG20011106110509811/06/01 11:05:31  5-MIN KMKG 061605Z 19016G24KT 10SM CLR 12/04 A3023 340 61 100 200/16G24 RMK AO2
14840KMKG MKG20011106111009811/06/01 11:10:31  5-MIN KMKG 061610Z 21017G23KT 10SM CLR 12/04 A3023 340 59 100 210/17G23 RMK AO2
14840KMKG MKG20011106111509811/06/01 11:15:31  5-MIN KMKG 061615Z 20016G23KT 10SM CLR 12/05 A3023 340 61 100 210/16G23 RMK AO2
14840KMKG MKG20011106112009811/06/01 11:20:31  5-MIN KMKG 061620Z 20016G22KT 10SM CLR 12/04 A3023 350 61 100 210/16G22 RMK AO2
14840KMKG MKG20011106112509211/06/01 11:25:31  5-MIN KMKG 061625Z 20016KT 10SM CLR 12/05 A3023 350 61 100 210/16 RMK AO2
14840KMKG MKG20011106113009811/06/01 11:30:31  5-MIN KMKG 061630Z 19018G21KT 10SM CLR 12/05 A3023 350 61 100 200/18G21 RMK AO2
14840KMKG MKG20011106113509811/06/01 11:35:31  5-MIN KMKG 061635Z 20017G22KT 10SM CLR 12/04 A3023 350 59 100 200/17G22 RMK AO2
14840KMKG MKG20011106114009811/06/01 11:40:31  5-MIN KMKG 061640Z 20015G22KT 10SM CLR 12/04 A3023 350 59 100 210/15G22 RMK AO2
14840KMKG MKG20011106114509211/06/01 11:45:31  5-MIN KMKG 061645Z 19015KT 10SM CLR 12/04 A3022 350 59 100 200/15 RMK AO2
14840KMKG MKG20011106115010911/06/01 11:50:31  5-MIN KMKG 061650Z 21018KT 10SM CLR 12/04 A3022 350 59 100 210/18 RMK AO2 SLP238 T01220044
14840KMKG MKG20011106115510911/06/01 11:55:31  5-MIN KMKG 061655Z 20018KT 10SM CLR 12/04 A3022 350 59 100 200/18 RMK AO2 SLP237 T01220044
14840KMKG MKG20011106120009211/06/01 12:00:31  5-MIN KMKG 061700Z 20017KT 10SM CLR 12/04 A3022 350 59 100 200/17 RMK AO2
14840KMKG MKG20011106120509211/06/01 12:05:31  5-MIN KMKG 061705Z 20019KT 10SM CLR 12/04 A3022 360 59 200 210/19 RMK AO2
14840KMKG MKG20011106121009211/06/01 12:10:31  5-MIN KMKG 061710Z 19017KT 10SM CLR 12/04 A3021 360 59 200 200/17 RMK AO2
14840KMKG MKG20011106121509811/06/01 12:15:31  5-MIN KMKG 061715Z 20019G23KT 10SM CLR 12/04 A3021 360 59 200 200/19G23 RMK AO2
14840KMKG MKG20011106122009811/06/01 12:20:31  5-MIN KMKG 061720Z 20019G23KT 10SM CLR 12/04 A3021 370 56 200 210/19G23 RMK AO2
14840KMKG MKG20011106122509211/06/01 12:25:31  5-MIN KMKG 061725Z 19017KT 10SM CLR 12/04 A3020 370 59 200 190/17 RMK AO2
14840KMKG MKG20011106123009811/06/01 12:30:31  5-MIN KMKG 061730Z 20018G23KT 10SM CLR 12/04 A3020 370 59 200 210/18G23 RMK AO2
14840KMKG MKG20011106123510111/06/01 12:35:31  5-MIN KMKG 061735Z 19018G23KT 10SM FEW048 12/04 A3020 370 59 200 200/18G23 RMK AO2
14840KMKG MKG20011106124010111/06/01 12:40:31  5-MIN KMKG 061740Z 19018G23KT 10SM SCT048 12/04 A3020 370 59 200 190/18G23 RMK AO2
14840KMKG MKG20011106124510111/06/01 12:45:31  5-MIN KMKG 061745Z 20020G25KT 10SM SCT048 12/04 A3020 370 58 100 210/20G25 RMK AO2
14840KMKG MKG20011106125013611/06/01 12:50:31  5-MIN KMKG 061750Z 20019G25KT 10SM BKN050 12/04 A3020 380 58 100 210/19G25 RMK AO2 SLP230 T01170039 10128 21022 56005
14840KMKG MKG20011106125514311/06/01 12:55:31  5-MIN KMKG 061755Z 20017G24KT 10SM BKN050 BKN055 12/04 A3019 380 58 100 200/17G24 RMK AO2 SLP230 T01170039 10128 21022 58014
14840KMKG MKG20011106130010011/06/01 13:00:31  5-MIN KMKG 061800Z 19019KT 10SM BKN050 BKN055 11/04 A3019 380 61 0 190/19 RMK AO2
14840KMKG MKG20011106130510111/06/01 13:05:31  5-MIN KMKG 061805Z 20020G25KT 10SM BKN050 12/04 A3019 380 58 100 210/20G25 RMK AO2
14840KMKG MKG20011106131010111/06/01 13:10:31  5-MIN KMKG 061810Z 20016G25KT 10SM BKN050 12/04 A3019 390 59 200 200/16G25 RMK AO2
14840KMKG MKG20011106131510811/06/01 13:15:31  5-MIN KMKG 061815Z 21019G22KT 10SM SCT047 BKN055 12/04 A3019 380 61 100 210/19G22 RMK AO2
14840KMKG MKG20011106132010811/06/01 13:20:31  5-MIN KMKG 061820Z 21018G22KT 10SM SCT047 BKN055 12/04 A3019 390 61 100 210/18G22 RMK AO2
14840KMKG MKG20011106132510211/06/01 13:25:31  5-MIN KMKG 061825Z 20016KT 10SM BKN047 BKN055 12/04 A3019 390 61 100 200/16 RMK AO2
14840KMKG MKG20011106133010811/06/01 13:30:31  5-MIN KMKG 061830Z 20016G23KT 10SM BKN047 BKN055 12/04 A3019 390 61 100 200/16G23 RMK AO2
14840KMKG MKG20011106133510811/06/01 13:35:31  5-MIN KMKG 061835Z 19018G23KT 10SM BKN042 OVC055 12/04 A3019 380 61 100 200/18G23 RMK AO2
14840KMKG MKG20011106134010811/06/01 13:40:31  5-MIN KMKG 061840Z 20015G23KT 10SM BKN044 OVC055 12/04 A3019 390 58 100 210/15G23 RMK AO2
14840KMKG MKG20011106134510811/06/01 13:45:31  5-MIN KMKG 061845Z 20017G23KT 10SM BKN041 OVC050 11/04 A3018 390 63 100 200/17G23 RMK AO2
14840KMKG MKG20011106135012511/06/01 13:50:31  5-MIN KMKG 061850Z 20017G21KT 10SM BKN041 OVC050 12/04 A3018 390 61 100 200/17G21 RMK AO2 SLP225 T01170044
14840KMKG MKG20011106135511911/06/01 13:55:31  5-MIN KMKG 061855Z 19015KT 10SM BKN039 OVC055 12/04 A3018 390 61 100 200/15 RMK AO2 SLP224 T01170044
14840KMKG MKG20011106140011511/06/01 14:00:31  5-MIN KMKG 061900Z 19016G22KT 10SM BKN039 BKN048 OVC055 12/04 A3018 390 61 100 190/16G22 RMK AO2
14840KMKG MKG20011106140510811/06/01 14:05:31  5-MIN KMKG 061905Z 19018G23KT 10SM BKN043 OVC055 12/04 A3018 400 61 100 190/18G23 RMK AO2
14840KMKG MKG20011106141010811/06/01 14:10:31  5-MIN KMKG 061910Z 20017G23KT 10SM BKN043 OVC055 12/04 A3017 400 58 100 200/17G23 RMK AO2
14840KMKG MKG20011106141510811/06/01 14:15:31  5-MIN KMKG 061915Z 19018G22KT 10SM BKN043 OVC055 12/04 A3017 400 61 100 190/18G22 RMK AO2
14840KMKG MKG20011106142010211/06/01 14:20:31  5-MIN KMKG 061920Z 19016KT 10SM BKN042 OVC050 12/04 A3017 400 61 100 190/16 RMK AO2
14840KMKG MKG20011106142510211/06/01 14:25:31  5-MIN KMKG 061925Z 19018KT 10SM BKN044 OVC050 12/04 A3017 400 61 100 190/18 RMK AO2
14840KMKG MKG20011106143010111/06/01 14:30:31  5-MIN KMKG 061930Z 19018G23KT 10SM OVC047 12/04 A3016 400 61 100 190/18G23 RMK AO2
14840KMKG MKG20011106143510111/06/01 14:35:31  5-MIN KMKG 061935Z 19016G23KT 10SM OVC047 12/04 A3016 410 61 100 190/16G23 RMK AO2
14840KMKG MKG20011106144010111/06/01 14:40:31  5-MIN KMKG 061940Z 19017G25KT 10SM OVC047 12/04 A3016 410 58 100 200/17G25 RMK AO2
14840KMKG MKG20011106144510111/06/01 14:45:31  5-MIN KMKG 061945Z 19014G25KT 10SM BKN047 12/04 A3016 410 61 100 200/14G25 RMK AO2
14840KMKG MKG20011106145011811/06/01 14:50:31  5-MIN KMKG 061950Z 19012G21KT 10SM BKN049 12/04 A3016 410 59 200 190/12G21 RMK AO2 SLP218 T01220044
14840KMKG MKG20011106145511811/06/01 14:55:31  5-MIN KMKG 061955Z 19015G22KT 10SM SCT049 12/04 A3016 410 56 200 190/15G22 RMK AO2 SLP218 T01220039
14840KMKG MKG20011106150010111/06/01 15:00:31  5-MIN KMKG 062000Z 19013G22KT 10SM FEW047 12/04 A3016 410 56 200 190/13G22 RMK AO2
14840KMKG MKG20011106150510111/06/01 15:05:31  5-MIN KMKG 062005Z 18013G21KT 10SM FEW047 12/04 A3016 410 56 200 190/13G21 RMK AO2
14840KMKG MKG20011106151009811/06/01 15:10:31  5-MIN KMKG 062010Z 19012G21KT 10SM CLR 12/04 A3016 410 56 200 200/12G21 RMK AO2
14840KMKG MKG20011106151509811/06/01 15:15:31  5-MIN KMKG 062015Z 19014G19KT 10SM CLR 12/04 A3016 410 56 200 190/14G19 RMK AO2
14840KMKG MKG20011106152009211/06/01 15:20:31  5-MIN KMKG 062020Z 18016KT 10SM CLR 12/04 A3016 410 56 200 180/16 RMK AO2
14840KMKG MKG20011106152509811/06/01 15:25:31  5-MIN KMKG 062025Z 18012G19KT 10SM CLR 12/04 A3016 410 56 200 190/12G19 RMK AO2
14840KMKG MKG20011106153009811/06/01 15:30:31  5-MIN KMKG 062030Z 18016G21KT 10SM CLR 12/04 A3015 420 56 200 180/16G21 RMK AO2
14840KMKG MKG20011106153509811/06/01 15:35:31  5-MIN KMKG 062035Z 19015G21KT 10SM CLR 12/04 A3015 420 56 200 190/15G21 RMK AO2
14840KMKG MKG20011106154009811/06/01 15:40:31  5-MIN KMKG 062040Z 18017G20KT 10SM CLR 12/04 A3015 420 56 200 190/17G20 RMK AO2
14840KMKG MKG20011106154509811/06/01 15:45:31  5-MIN KMKG 062045Z 18012G19KT 10SM CLR 12/04 A3015 420 56 200 190/12G19 RMK AO2
14840KMKG MKG20011106155011511/06/01 15:50:31  5-MIN KMKG 062050Z 19013KT 10SM CLR 12/04 A3015 420 56 200 190/13 RMK AO2 SLP214 T01220039 58014
14840KMKG MKG20011106155511511/06/01 15:55:31  5-MIN KMKG 062055Z 18012KT 10SM CLR 12/04 A3015 420 56 200 180/12 RMK AO2 SLP213 T01220039 57015
14840KMKG MKG20011106160009511/06/01 16:00:31  5-MIN KMKG 062100Z 18012KT 10SM FEW075 12/04 A3015 420 56 200 190/12 RMK AO2
14840KMKG MKG20011106160510111/06/01 16:05:31  5-MIN KMKG 062105Z 18013G18KT 10SM SCT075 12/04 A3015 410 58 200 190/13G18 RMK AO2
14840KMKG MKG20011106161009511/06/01 16:10:31  5-MIN KMKG 062110Z 18015KT 10SM SCT075 12/04 A3015 420 58 200 190/15 RMK AO2
14840KMKG MKG20011106161509511/06/01 16:15:31  5-MIN KMKG 062115Z 19014KT 10SM BKN075 12/04 A3015 420 58 200 190/14 RMK AO2
14840KMKG MKG20011106162010111/06/01 16:20:31  5-MIN KMKG 062120Z 18014G19KT 10SM BKN075 12/04 A3015 420 58 200 190/14G19 RMK AO2
14840KMKG MKG20011106162510111/06/01 16:25:31  5-MIN KMKG 062125Z 19016G19KT 10SM BKN075 12/04 A3015 420 58 200 190/16G19 RMK AO2
14840KMKG MKG20011106163010111/06/01 16:30:31  5-MIN KMKG 062130Z 19013G19KT 10SM OVC075 12/04 A3015 420 58 200 200/13G19 RMK AO2
14840KMKG MKG20011106163509511/06/01 16:35:31  5-MIN KMKG 062135Z 18014KT 10SM OVC075 12/04 A3015 420 58 200 190/14 RMK AO2
14840KMKG MKG20011106164009511/06/01 16:40:31  5-MIN KMKG 062140Z 18012KT 10SM BKN075 12/04 A3015 420 58 200 190/12 RMK AO2
14840KMKG MKG20011106164509511/06/01 16:45:31  5-MIN KMKG 062145Z 19015KT 10SM BKN075 12/04 A3014 420 58 200 190/15 RMK AO2
14840KMKG MKG20011106165011211/06/01 16:50:31  5-MIN KMKG 062150Z 18014KT 10SM BKN075 12/04 A3014 430 58 200 190/14 RMK AO2 SLP211 T01170039
14840KMKG MKG20011106165511211/06/01 16:55:31  5-MIN KMKG 062155Z 19014KT 10SM BKN075 12/04 A3014 430 58 200 190/14 RMK AO2 SLP210 T01170039
14840KMKG MKG20011106170009511/06/01 17:00:31  5-MIN KMKG 062200Z 19014KT 10SM SCT075 12/04 A3014 430 58 200 190/14 RMK AO2
14840KMKG MKG20011106170510111/06/01 17:05:31  5-MIN KMKG 062205Z 19016G20KT 10SM FEW075 12/04 A3014 430 58 200 190/16G20 RMK AO2
14840KMKG MKG20011106171010111/06/01 17:10:31  5-MIN KMKG 062210Z 19015G20KT 10SM FEW075 12/04 A3014 430 58 200 190/15G20 RMK AO2
14840KMKG MKG20011106171509511/06/01 17:15:31  5-MIN KMKG 062215Z 19011KT 10SM FEW075 12/04 A3014 430 58 200 190/11 RMK AO2
14840KMKG MKG20011106172009211/06/01 17:20:31  5-MIN KMKG 062220Z 19015KT 10SM CLR 12/04 A3014 430 58 200 200/15 RMK AO2
14840KMKG MKG20011106172509211/06/01 17:25:31  5-MIN KMKG 062225Z 19013KT 10SM CLR 12/04 A3014 430 58 200 190/13 RMK AO2
14840KMKG MKG20011106173009211/06/01 17:30:31  5-MIN KMKG 062230Z 19014KT 10SM CLR 12/04 A3014 430 58 200 190/14 RMK AO2
14840KMKG MKG20011106173509211/06/01 17:35:31  5-MIN KMKG 062235Z 19013KT 10SM CLR 12/04 A3014 430 61 200 190/13 RMK AO2
14840KMKG MKG20011106174009211/06/01 17:40:31  5-MIN KMKG 062240Z 20015KT 10SM CLR 12/04 A3014 430 61 200 200/15 RMK AO2
14840KMKG MKG20011106174509211/06/01 17:45:31  5-MIN KMKG 062245Z 19012KT 10SM CLR 12/04 A3014 430 61 200 190/12 RMK AO2
14840KMKG MKG20011106175010911/06/01 17:50:31  5-MIN KMKG 062250Z 19013KT 10SM CLR 12/04 A3014 430 61 200 200/13 RMK AO2 SLP211 T01170044
14840KMKG MKG20011106175510911/06/01 17:55:31  5-MIN KMKG 062255Z 19014KT 10SM CLR 12/04 A3014 430 61 200 200/14 RMK AO2 SLP211 T01170044
14840KMKG MKG20011106180009811/06/01 18:00:31  5-MIN KMKG 062300Z 19014G19KT 10SM CLR 12/04 A3014 430 61 200 200/14G19 RMK AO2
14840KMKG MKG20011106180509811/06/01 18:05:31  5-MIN KMKG 062305Z 20013G19KT 10SM CLR 12/04 A3014 430 61 200 200/13G19 RMK AO2
14840KMKG MKG20011106181009811/06/01 18:10:31  5-MIN KMKG 062310Z 20016G22KT 10SM CLR 12/04 A3014 430 56 200 200/16G22 RMK AO2
14840KMKG MKG20011106181509811/06/01 18:15:31  5-MIN KMKG 062315Z 20016G22KT 10SM CLR 12/04 A3014 430 56 200 200/16G22 RMK AO2
14840KMKG MKG20011106182009511/06/01 18:20:31  5-MIN KMKG 062320Z 20013KT 10SM FEW075 12/04 A3014 430 59 200 210/13 RMK AO2
14840KMKG MKG20011106182509511/06/01 18:25:31  5-MIN KMKG 062325Z 20015KT 10SM FEW070 12/04 A3014 430 59 200 210/15 RMK AO2
14840KMKG MKG20011106204009511/06/01 20:40:31  5-MIN KMKG 070140Z 20014KT 10SM FEW055 12/06 A3013 440 66 300 210/14 RMK AO2
14840KMKG MKG20011106204509511/06/01 20:45:31  5-MIN KMKG 070145Z 21014KT 10SM FEW055 12/06 A3013 440 66 200 220/14 RMK AO2
14840KMKG MKG20011106205011211/06/01 20:50:31  5-MIN KMKG 070150Z 21011KT 10SM FEW055 12/06 A3013 440 66 200 210/11 RMK AO2 SLP206 T01220061
14840KMKG MKG20011106205511211/06/01 20:55:31  5-MIN KMKG 070155Z 21013KT 10SM SCT055 13/06 A3013 440 63 300 210/13 RMK AO2 SLP205 T01280061
14840KMKG MKG20011106210009511/06/01 21:00:31  5-MIN KMKG 070200Z 21015KT 10SM BKN055 13/06 A3013 440 63 300 210/15 RMK AO2
14840KMKG MKG20011106210509511/06/01 21:05:31  5-MIN KMKG 070205Z 21013KT 10SM BKN060 13/06 A3013 440 63 300 220/13 RMK AO2
14840KMKG MKG20011106211009511/06/01 21:10:31  5-MIN KMKG 070210Z 21015KT 10SM SCT060 13/06 A3013 430 63 300 220/15 RMK AO2
14840KMKG MKG20011106211509511/06/01 21:15:31  5-MIN KMKG 070215Z 22013KT 10SM SCT060 13/06 A3014 430 63 300 220/13 RMK AO2
14840KMKG MKG20011106212009511/06/01 21:20:31  5-MIN KMKG 070220Z 21014KT 10SM BKN055 13/06 A3014 430 63 300 220/14 RMK AO2
14840KMKG MKG20011106212509511/06/01 21:25:31  5-MIN KMKG 070225Z 21013KT 10SM BKN060 13/06 A3014 430 63 300 220/13 RMK AO2
14840KMKG MKG20011106213009511/06/01 21:30:31  5-MIN KMKG 070230Z 21011KT 10SM BKN060 13/07 A3015 420 66 300 220/11 RMK AO2
14840KMKG MKG20011106213509511/06/01 21:35:31  5-MIN KMKG 070235Z 21012KT 10SM BKN060 13/07 A3015 420 66 300 210/12 RMK AO2
14840KMKG MKG20011106214009511/06/01 21:40:31  5-MIN KMKG 070240Z 21011KT 10SM OVC060 13/07 A3015 420 66 300 210/11 RMK AO2
14840KMKG MKG20011106214509511/06/01 21:45:31  5-MIN KMKG 070245Z 21010KT 10SM OVC060 12/07 A3015 420 68 200 210/10 RMK AO2
14840KMKG MKG20011106215011811/06/01 21:50:31  5-MIN KMKG 070250Z 21009KT 10SM OVC060 12/07 A3015 420 71 200 210/09 RMK AO2 SLP212 T01220072 56004
14840KMKG MKG20011106215511811/06/01 21:55:31  5-MIN KMKG 070255Z 20009KT 10SM OVC055 13/07 A3015 420 69 300 200/09 RMK AO2 SLP212 T01280072 53005
14840KMKG MKG20011106220009511/06/01 22:00:31  5-MIN KMKG 070300Z 20010KT 10SM OVC055 13/07 A3015 420 69 300 210/10 RMK AO2
14840KMKG MKG20011106220509511/06/01 22:05:31  5-MIN KMKG 070305Z 21009KT 10SM OVC050 13/07 A3015 420 69 300 210/09 RMK AO2
14840KMKG MKG20011106221009511/06/01 22:10:31  5-MIN KMKG 070310Z 21008KT 10SM OVC050 13/07 A3015 420 69 300 210/08 RMK AO2
14840KMKG MKG20011106221509511/06/01 22:15:31  5-MIN KMKG 070315Z 21010KT 10SM OVC050 13/07 A3015 420 69 300 210/10 RMK AO2
14840KMKG MKG20011106222009511/06/01 22:20:31  5-MIN KMKG 070320Z 21009KT 10SM OVC050 13/07 A3015 420 66 300 220/09 RMK AO2
14840KMKG MKG20011106222509511/06/01 22:25:31  5-MIN KMKG 070325Z 22009KT 10SM OVC050 13/07 A3015 420 69 300 220/09 RMK AO2
14840KMKG MKG20011106223009511/06/01 22:30:31  5-MIN KMKG 070330Z 22011KT 10SM OVC050 13/07 A3015 420 66 300 220/11 RMK AO2
14840KMKG MKG20011106223509511/06/01 22:35:31  5-MIN KMKG 070335Z 22010KT 10SM OVC050 13/07 A3015 410 66 300 220/10 RMK AO2
14840KMKG MKG20011106224009511/06/01 22:40:31  5-MIN KMKG 070340Z 22010KT 10SM OVC050 13/07 A3016 410 66 300 220/10 RMK AO2
14840KMKG MKG20011106224509511/06/01 22:45:31  5-MIN KMKG 070345Z 21010KT 10SM OVC050 13/07 A3015 420 66 300 220/10 RMK AO2
14840KMKG MKG20011106225011211/06/01 22:50:31  5-MIN KMKG 070350Z 22010KT 10SM OVC050 13/07 A3015 420 66 300 220/10 RMK AO2 SLP212 T01280067
14840KMKG MKG20011106225511211/06/01 22:55:31  5-MIN KMKG 070355Z 22011KT 10SM OVC050 13/07 A3015 420 66 300 220/11 RMK AO2 SLP212 T01280067
14840KMKG MKG20011106230009511/06/01 23:00:31  5-MIN KMKG 070400Z 22011KT 10SM OVC050 13/07 A3015 420 66 300 220/11 RMK AO2
14840KMKG MKG20011106230509511/06/01 23:05:31  5-MIN KMKG 070405Z 22010KT 10SM OVC050 13/07 A3015 420 66 300 230/10 RMK AO2
14840KMKG MKG20011106231009511/06/01 23:10:31  5-MIN KMKG 070410Z 23012KT 10SM OVC050 13/07 A3015 420 66 300 230/12 RMK AO2
14840KMKG MKG20011106231509511/06/01 23:15:31  5-MIN KMKG 070415Z 22010KT 10SM OVC050 13/07 A3014 430 66 300 230/10 RMK AO2
14840KMKG MKG20011106232009511/06/01 23:20:31  5-MIN KMKG 070420Z 23011KT 10SM OVC050 13/07 A3014 430 66 300 230/11 RMK AO2
14840KMKG MKG20011106232509511/06/01 23:25:31  5-MIN KMKG 070425Z 22011KT 10SM OVC050 13/07 A3014 420 66 300 230/11 RMK AO2
14840KMKG MKG20011106233009511/06/01 23:30:31  5-MIN KMKG 070430Z 22010KT 10SM OVC050 13/07 A3014 430 66 300 230/10 RMK AO2
14840KMKG MKG20011106233509511/06/01 23:35:31  5-MIN KMKG 070435Z 22013KT 10SM OVC050 13/07 A3014 420 66 300 230/13 RMK AO2
14840KMKG MKG20011106234009511/06/01 23:40:31  5-MIN KMKG 070440Z 22012KT 10SM OVC050 13/07 A3014 430 66 300 230/12 RMK AO2
14840KMKG MKG20011106234509511/06/01 23:45:31  5-MIN KMKG 070445Z 23012KT 10SM OVC050 13/07 A3014 430 69 300 230/12 RMK AO2
14840KMKG MKG20011106235012211/06/01 23:50:31  5-MIN KMKG 070450Z 23011KT 10SM OVC050 13/07 A3014 430 69 300 230/11 RMK AO2 SLP209 T01280072 401281022
14840KMKG MKG20011106235512211/06/01 23:55:31  5-MIN KMKG 070455Z 23011KT 10SM OVC050 13/07 A3014 420 69 300 240/11 RMK AO2 SLP209 T01280072 401281022
14840KMKG MKG20011107000009511/07/01 00:00:31  5-MIN KMKG 070500Z 23011KT 10SM OVC050 13/07 A3014 420 69 300 240/11 RMK AO2
14840KMKG MKG20011107000509511/07/01 00:05:31  5-MIN KMKG 070505Z 23010KT 10SM OVC050 13/07 A3014 420 69 300 230/10 RMK AO2
14840KMKG MKG20011107001009511/07/01 00:10:31  5-MIN KMKG 070510Z 23010KT 10SM OVC050 13/07 A3015 420 69 300 230/10 RMK AO2
14840KMKG MKG20011107001509511/07/01 00:15:31  5-MIN KMKG 070515Z 23010KT 10SM OVC050 13/07 A3015 420 69 300 230/10 RMK AO2
14840KMKG MKG20011107002009511/07/01 00:20:31  5-MIN KMKG 070520Z 23010KT 10SM OVC050 13/07 A3015 420 69 300 230/10 RMK AO2
14840KMKG MKG20011107002509511/07/01 00:25:31  5-MIN KMKG 070525Z 23009KT 10SM OVC050 13/07 A3015 420 69 300 230/09 RMK AO2
14840KMKG MKG20011107003009511/07/01 00:30:31  5-MIN KMKG 070530Z 23010KT 10SM OVC050 13/07 A3015 420 69 300 230/10 RMK AO2
14840KMKG MKG20011107003509511/07/01 00:35:31  5-MIN KMKG 070535Z 24010KT 10SM OVC050 13/07 A3015 420 69 300 240/10 RMK AO2
14840KMKG MKG20011107004009511/07/01 00:40:31  5-MIN KMKG 070540Z 23008KT 10SM OVC050 13/07 A3015 420 69 300 230/08 RMK AO2
14840KMKG MKG20011107004509511/07/01 00:45:31  5-MIN KMKG 070545Z 23009KT 10SM OVC050 13/07 A3015 420 69 300 240/09 RMK AO2
14840KMKG MKG20011107005013011/07/01 00:50:31  5-MIN KMKG 070550Z 23008KT 10SM OVC050 13/07 A3015 420 69 300 240/08 RMK AO2 SLP212 T01280072 10128 20122 53005
14840KMKG MKG20011107005513011/07/01 00:55:31  5-MIN KMKG 070555Z 24007KT 10SM OVC048 13/07 A3015 420 69 300 240/07 RMK AO2 SLP212 T01280072 10128 20122 53000
14840KMKG MKG20011107010009511/07/01 01:00:31  5-MIN KMKG 070600Z 26006KT 10SM OVC048 13/08 A3016 410 71 300 270/06 RMK AO2
14840KMKG MKG20011107010511111/07/01 01:05:31  5-MIN KMKG 070605Z 28007KT 250V320 10SM OVC048 13/08 A3016 410 71 300 290/07 250V320 RMK AO2
14840KMKG MKG20011107011009511/07/01 01:10:31  5-MIN KMKG 070610Z 25007KT 10SM OVC048 12/08 A3016 410 74 200 260/07 RMK AO2
14840KMKG MKG20011107011509511/07/01 01:15:31  5-MIN KMKG 070615Z 24007KT 10SM OVC048 12/08 A3016 410 74 200 240/07 RMK AO2
14840KMKG MKG20011107012009511/07/01 01:20:31  5-MIN KMKG 070620Z 24006KT 10SM OVC048 12/08 A3015 420 74 200 240/06 RMK AO2
14840KMKG MKG20011107012509511/07/01 01:25:31  5-MIN KMKG 070625Z 24006KT 10SM OVC048 12/08 A3015 410 74 200 250/06 RMK AO2
14840KMKG MKG20011107013009511/07/01 01:30:31  5-MIN KMKG 070630Z 24006KT 10SM OVC048 12/08 A3015 420 74 200 250/06 RMK AO2
14840KMKG MKG20011107013509511/07/01 01:35:31  5-MIN KMKG 070635Z 24007KT 10SM OVC050 12/08 A3015 420 74 200 250/07 RMK AO2
14840KMKG MKG20011107014009511/07/01 01:40:31  5-MIN KMKG 070640Z 24005KT 10SM OVC050 12/08 A3015 420 74 200 240/05 RMK AO2
14840KMKG MKG20011107014509511/07/01 01:45:31  5-MIN KMKG 070645Z 24006KT 10SM OVC050 12/08 A3015 420 74 200 240/06 RMK AO2
14840KMKG MKG20011107015011211/07/01 01:50:31  5-MIN KMKG 070650Z 24007KT 10SM OVC050 12/08 A3015 420 74 200 250/07 RMK AO2 SLP211 T01220078
14840KMKG MKG20011107015511211/07/01 01:55:31  5-MIN KMKG 070655Z 23008KT 10SM OVC050 12/08 A3015 420 74 200 240/08 RMK AO2 SLP211 T01220078
14840KMKG MKG20011107020009511/07/01 02:00:31  5-MIN KMKG 070700Z 24009KT 10SM OVC055 12/08 A3015 420 74 200 240/09 RMK AO2
14840KMKG MKG20011107020509511/07/01 02:05:31  5-MIN KMKG 070705Z 23008KT 10SM OVC055 12/08 A3015 420 74 200 240/08 RMK AO2
14840KMKG MKG20011107021009511/07/01 02:10:31  5-MIN KMKG 070710Z 24009KT 10SM OVC055 12/08 A3015 420 74 200 240/09 RMK AO2
14840KMKG MKG20011107021509511/07/01 02:15:31  5-MIN KMKG 070715Z 24008KT 10SM OVC055 12/08 A3015 420 74 200 240/08 RMK AO2
14840KMKG MKG20011107022009511/07/01 02:20:31  5-MIN KMKG 070720Z 24007KT 10SM OVC055 12/08 A3015 420 74 200 240/07 RMK AO2
14840KMKG MKG20011107022509511/07/01 02:25:31  5-MIN KMKG 070725Z 23008KT 10SM OVC055 12/08 A3015 420 74 200 230/08 RMK AO2
14840KMKG MKG20011107023009511/07/01 02:30:31  5-MIN KMKG 070730Z 23007KT 10SM OVC055 12/08 A3015 420 74 200 230/07 RMK AO2
14840KMKG MKG20011107023509511/07/01 02:35:31  5-MIN KMKG 070735Z 23007KT 10SM OVC055 12/08 A3015 420 74 200 240/07 RMK AO2
14840KMKG MKG20011107024009511/07/01 02:40:31  5-MIN KMKG 070740Z 23006KT 10SM OVC055 12/08 A3015 420 74 200 230/06 RMK AO2
14840KMKG MKG20011107024509511/07/01 02:45:31  5-MIN KMKG 070745Z 23007KT 10SM OVC055 12/08 A3015 420 74 200 230/07 RMK AO2
14840KMKG MKG20011107025011211/07/01 02:50:31  5-MIN KMKG 070750Z 23006KT 10SM OVC055 12/08 A3015 420 74 200 230/06 RMK AO2 SLP212 T01220078
14840KMKG MKG20011107025511211/07/01 02:55:31  5-MIN KMKG 070755Z 23007KT 10SM OVC055 12/08 A3015 420 77 200 230/07 RMK AO2 SLP212 T01170078
14840KMKG MKG20011107030009411/07/01 03:00:31  5-MIN KMKG 070800Z 24007KT 9SM OVC055 12/08 A3015 420 77 200 240/07 RMK AO2
14840KMKG MKG20011107030509411/07/01 03:05:31  5-MIN KMKG 070805Z 23005KT 9SM OVC055 12/08 A3015 420 74 200 240/05 RMK AO2
14840KMKG MKG20011107031009411/07/01 03:10:31  5-MIN KMKG 070810Z VRB03KT 9SM OVC055 12/08 A3015 420 77 200 VRB/03 RMK AO2
14840KMKG MKG20011107031509411/07/01 03:15:31  5-MIN KMKG 070815Z VRB03KT 9SM OVC055 12/08 A3015 420 74 200 VRB/03 RMK AO2
14840KMKG MKG20011107032009411/07/01 03:20:31  5-MIN KMKG 070820Z 00000KT 9SM OVC055 12/08 A3015 420 74 200 000/00 RMK AO2
14840KMKG MKG20011107032509411/07/01 03:25:31  5-MIN KMKG 070825Z 23005KT 9SM OVC055 12/08 A3015 420 74 200 240/05 RMK AO2
14840KMKG MKG20011107033009411/07/01 03:30:31  5-MIN KMKG 070830Z 24004KT 9SM OVC055 12/08 A3015 420 77 200 240/04 RMK AO2
14840KMKG MKG20011107033509411/07/01 03:35:31  5-MIN KMKG 070835Z 24004KT 9SM OVC055 12/08 A3015 420 77 200 250/04 RMK AO2
14840KMKG MKG20011107034009411/07/01 03:40:31  5-MIN KMKG 070840Z 23004KT 9SM OVC055 12/08 A3015 420 77 200 240/04 RMK AO2
14840KMKG MKG20011107034509411/07/01 03:45:31  5-MIN KMKG 070845Z 24003KT 9SM OVC055 12/08 A3015 420 80 200 250/03 RMK AO2
14840KMKG MKG20011107035011711/07/01 03:50:31  5-MIN KMKG 070850Z 00000KT 8SM OVC060 12/08 A3015 420 80 200 000/00 RMK AO2 SLP212 T01170083 53000
14840KMKG MKG20011107035511711/07/01 03:55:31  5-MIN KMKG 070855Z 00000KT 8SM OVC060 12/08 A3015 410 80 200 000/00 RMK AO2 SLP213 T01170083 53000
14840KMKG MKG20011107040009411/07/01 04:00:31  5-MIN KMKG 070900Z 23004KT 8SM OVC060 12/08 A3015 410 80 200 230/04 RMK AO2
14840KMKG MKG20011107040509411/07/01 04:05:31  5-MIN KMKG 070905Z 21003KT 8SM OVC060 11/08 A3016 410 80 100 210/03 RMK AO2
14840KMKG MKG20011107041009411/07/01 04:10:31  5-MIN KMKG 070910Z 20004KT 8SM OVC060 11/08 A3016 410 83 100 210/04 RMK AO2
14840KMKG MKG20011107041509411/07/01 04:15:31  5-MIN KMKG 070915Z 20005KT 8SM OVC060 11/08 A3016 410 83 100 200/05 RMK AO2
14840KMKG MKG20011107042009411/07/01 04:20:31  5-MIN KMKG 070920Z 21006KT 8SM OVC060 11/08 A3016 410 83 100 210/06 RMK AO2
14840KMKG MKG20011107042509411/07/01 04:25:31  5-MIN KMKG 070925Z 21005KT 8SM OVC060 11/08 A3016 410 83 100 210/05 RMK AO2
14840KMKG MKG20011107043009211/07/01 04:30:31  5-MIN KMKG 070930Z 19004KT 7SM OVC060 11/08 A3016 410 86 0 200/04 RMK AO2
14840KMKG MKG20011107043509211/07/01 04:35:31  5-MIN KMKG 070935Z 20005KT 7SM OVC060 11/08 A3016 410 86 0 200/05 RMK AO2
14840KMKG MKG20011107044009211/07/01 04:40:31  5-MIN KMKG 070940Z 21005KT 7SM BKN060 11/08 A3016 410 86 0 210/05 RMK AO2
14840KMKG MKG20011107044509211/07/01 04:45:31  5-MIN KMKG 070945Z 21005KT 7SM BKN060 10/08 A3016 410 89 0 210/05 RMK AO2
14840KMKG MKG20011107045010911/07/01 04:50:31  5-MIN KMKG 070950Z 21004KT 7SM BKN060 10/08 A3016 410 89 0 210/04 RMK AO2 SLP215 T01000083
14840KMKG MKG20011107045510911/07/01 04:55:31  5-MIN KMKG 070955Z 21004KT 7SM BKN060 10/08 A3016 410 89 0 210/04 RMK AO2 SLP216 T01000083
14840KMKG MKG20011107050009211/07/01 05:00:31  5-MIN KMKG 071000Z 21004KT 7SM BKN060 10/08 A3016 410 86 0 210/04 RMK AO2
14840KMKG MKG20011107050509511/07/01 05:05:31  5-MIN KMKG 071005Z 20003KT 6SM BR SCT060 10/08 A3016 410 89 0 210/03 RMK AO2
14840KMKG MKG20011107051009511/07/01 05:10:31  5-MIN KMKG 071010Z 19003KT 6SM BR FEW060 10/08 A3016 410 89 0 200/03 RMK AO2
14840KMKG MKG20011107051509511/07/01 05:15:31  5-MIN KMKG 071015Z 00000KT 6SM BR FEW060 10/08 A3016 410 89 0 000/00 RMK AO2
14840KMKG MKG20011107052009811/07/01 05:20:31  5-MIN KMKG 071020Z 00000KT 6SM BR FEW060 09/08 A3016 410 93 -100 000/00 RMK AO2
14840KMKG MKG20011107052509511/07/01 05:25:31  5-MIN KMKG 071025Z 00000KT 5SM BR CLR 09/08 A3016 410 89 -100 000/00 RMK AO2
14840KMKG MKG20011107053009511/07/01 05:30:31  5-MIN KMKG 071030Z 00000KT 5SM BR CLR 09/08 A3016 410 93 -100 000/00 RMK AO2
14840KMKG MKG20011107053509511/07/01 05:35:31  5-MIN KMKG 071035Z 00000KT 5SM BR CLR 09/08 A3016 410 93 -100 000/00 RMK AO2
14840KMKG MKG20011107054009511/07/01 05:40:31  5-MIN KMKG 071040Z 00000KT 5SM BR CLR 09/08 A3016 410 93 -100 000/00 RMK AO2
14840KMKG MKG20011107054509511/07/01 05:45:31  5-MIN KMKG 071045Z 00000KT 4SM BR CLR 09/08 A3016 410 96 -100 000/00 RMK AO2
14840KMKG MKG20011107055011211/07/01 05:50:31  5-MIN KMKG 071050Z 00000KT 4SM BR CLR 08/08 A3016 410 96 -200 000/00 RMK AO2 SLP217 T00830078
14840KMKG MKG20011107055511211/07/01 05:55:31  5-MIN KMKG 071055Z 00000KT 4SM BR CLR 08/07 A3016 410 96 -300 000/00 RMK AO2 SLP217 T00780072
14840KMKG MKG20011107060009511/07/01 06:00:31  5-MIN KMKG 071100Z 00000KT 4SM BR CLR 08/07 A3016 410 96 -300 000/00 RMK AO2
14840KMKG MKG20011107060509511/07/01 06:05:31  5-MIN KMKG 071105Z 00000KT 4SM BR CLR 08/07 A3016 410 96 -300 000/00 RMK AO2
14840KMKG MKG20011107061009511/07/01 06:10:31  5-MIN KMKG 071110Z 00000KT 3SM BR CLR 08/08 A3017 400 96 -200 000/00 RMK AO2
14840KMKG MKG20011107061509811/07/01 06:15:31  5-MIN KMKG 071115Z 00000KT 3SM BR FEW060 08/07 A3017 400 96 -300 000/00 RMK AO2
14840KMKG MKG20011107062009811/07/01 06:20:31  5-MIN KMKG 071120Z 00000KT 3SM BR FEW060 08/07 A3017 400 96 -300 000/00 RMK AO2
14840KMKG MKG20011107062510211/07/01 06:25:31  5-MIN KMKG 071125Z 00000KT 2 1/2SM BR FEW060 07/07 A3017 400 96 -300 000/00 RMK AO2
14840KMKG MKG20011107063010311/07/01 06:30:31  5-MIN KMKG 071130Z 00000KT 1 3/4SM BR FEW060 07/07 A3017 400 100 -400 000/00 RMK AO2
14840KMKG MKG20011107063510211/07/01 06:35:31  5-MIN KMKG 071135Z 00000KT 1 1/2SM BR FEW060 07/07 A3017 400 96 -400 000/00 RMK AO2
14840KMKG MKG20011107064010211/07/01 06:40:31  5-MIN KMKG 071140Z 00000KT 1 3/4SM BR FEW060 07/06 A3017 400 96 -400 000/00 RMK AO2
14840KMKG MKG20011107064510311/07/01 06:45:31  5-MIN KMKG 071145Z 00000KT 1 1/2SM BR FEW060 07/07 A3018 390 100 -400 000/00 RMK AO2
14840KMKG MKG20011107065013711/07/01 06:50:31  5-MIN KMKG 071150Z 00000KT 1 1/2SM BR SCT060 07/07 A3018 390 96 -400 000/00 RMK AO2 SLP222 T00720067 10128 20067 53000
14840KMKG MKG20011107065513811/07/01 06:55:31  5-MIN KMKG 071155Z 00000KT 1 1/2SM BR BKN060 07/07 A3018 390 100 -400 000/00 RMK AO2 SLP222 T00720072 10128 20067 53008
14840KMKG MKG20011107070009911/07/01 07:00:31  5-MIN KMKG 071200Z 06003KT 2SM BR BKN060 07/07 A3018 390 100 -400 060/03 RMK AO2
14840KMKG MKG20011107070510311/07/01 07:05:31  5-MIN KMKG 071205Z 06004KT 2 1/2SM BR BKN060 07/07 A3018 390 100 -400 070/04 RMK AO2
14840KMKG MKG20011107071010211/07/01 07:10:31  5-MIN KMKG 071210Z 08003KT 2 1/2SM BR BKN060 08/07 A3018 390 96 -300 080/03 RMK AO2
14840KMKG MKG20011107071510311/07/01 07:15:31  5-MIN KMKG 071215Z 00000KT 2 1/2SM BR BKN060 07/07 A3018 390 100 -400 000/00 RMK AO2
14840KMKG MKG20011107072010311/07/01 07:20:31  5-MIN KMKG 071220Z 00000KT 2 1/2SM BR BKN060 07/07 A3018 390 100 -400 000/00 RMK AO2
14840KMKG MKG20011107072510211/07/01 07:25:31  5-MIN KMKG 071225Z 00000KT 2 1/2SM BR BKN065 08/07 A3018 390 96 -300 000/00 RMK AO2
14840KMKG MKG20011107073011311/07/01 07:30:31  5-MIN KMKG 071230Z 00000KT 2SM BR BKN065 07/07 A3018 390 100 -400 000/00 RMK AO2 TWR VIS 2 1/2
14840KMKG MKG20011107073511211/07/01 07:35:31  5-MIN KMKG 071235Z 00000KT 2SM BR BKN065 07/07 A3018 390 96 -400 000/00 RMK AO2 TWR VIS 2 1/2
14840KMKG MKG20011107074011211/07/01 07:40:31  5-MIN KMKG 071240Z 11003KT 2SM BR SCT065 07/07 A3018 390 96 -400 110/03 RMK AO2 TWR VIS 2 1/2
14840KMKG MKG20011107074511311/07/01 07:45:31  5-MIN KMKG 071245Z 11003KT 2SM BR SCT065 07/07 A3018 390 100 -400 110/03 RMK AO2 TWR VIS 2 1/2
14840KMKG MKG20011107075012911/07/01 07:50:31  5-MIN KMKG 071250Z 11003KT 2SM BR SCT065 07/07 A3018 390 96 -400 110/03 RMK AO2 TWR VIS 2 1/2 SLP224 T00720067
14840KMKG MKG20011107075512911/07/01 07:55:31  5-MIN KMKG 071255Z 11003KT 2SM BR BKN065 07/07 A3018 390 96 -400 110/03 RMK AO2 TWR VIS 2 1/2 SLP224 T00720067
14840KMKG MKG20011107080011311/07/01 08:00:31  5-MIN KMKG 071300Z 00000KT 2SM BR BKN065 07/07 A3019 390 100 -400 000/00 RMK AO2 TWR VIS 2 1/2
14840KMKG MKG20011107080511211/07/01 08:05:31  5-MIN KMKG 071305Z 00000KT 2SM BR BKN065 08/07 A3019 380 96 -300 000/00 RMK AO2 TWR VIS 2 1/2
14840KMKG MKG20011107081011211/07/01 08:10:31  5-MIN KMKG 071310Z 00000KT 2SM BR BKN065 08/08 A3019 380 96 -200 000/00 RMK AO2 TWR VIS 2 1/2
14840KMKG MKG20011107081511211/07/01 08:15:31  5-MIN KMKG 071315Z 00000KT 2SM BR BKN065 08/08 A3019 390 96 -200 000/00 RMK AO2 TWR VIS 2 1/2
14840KMKG MKG20011107082009811/07/01 08:20:31  5-MIN KMKG 071320Z 07003KT 2SM BR OVC065 09/08 A3018 390 96 -200 080/03 RMK AO2
14840KMKG MKG20011107082509811/07/01 08:25:31  5-MIN KMKG 071325Z 07004KT 2SM BR OVC065 09/09 A3018 390 96 -100 070/04 RMK AO2
14840KMKG MKG20011107083009511/07/01 08:30:31  5-MIN KMKG 071330Z 00000KT 2SM BR OVC070 10/09 A3019 380 93 0 000/00 RMK AO2
14840KMKG MKG20011107083509511/07/01 08:35:31  5-MIN KMKG 071335Z 00000KT 2SM BR OVC070 10/09 A3019 380 93 0 000/00 RMK AO2
14840KMKG MKG20011107084009511/07/01 08:40:31  5-MIN KMKG 071340Z 00000KT 2SM BR OVC070 10/09 A3019 380 93 0 000/00 RMK AO2
14840KMKG MKG20011107084510511/07/01 08:45:31  5-MIN KMKG 071345Z 11003KT 3SM BR BKN070 10/09 A3019 380 93 0 110/03 RMK AO2 TWR VIS 4
14840KMKG MKG20011107085012211/07/01 08:50:31  5-MIN KMKG 071350Z 14003KT 3SM BR BKN070 11/09 A3020 380 89 0 150/03 RMK AO2 TWR VIS 4 SLP228 T01060089
14840KMKG MKG20011107085511211/07/01 08:55:31  5-MIN KMKG 071355Z 14003KT 4SM BR BKN070 11/09 A3020 370 89 0 150/03 RMK AO2 SLP228 T01060089
14840KMKG MKG20011107090009511/07/01 09:00:31  5-MIN KMKG 071400Z 00000KT 4SM BR OVC065 11/09 A3020 370 89 0 000/00 RMK AO2
14840KMKG MKG20011107090509511/07/01 09:05:31  5-MIN KMKG 071405Z 00000KT 4SM BR OVC065 11/09 A3020 370 93 0 000/00 RMK AO2
14840KMKG MKG20011107091009511/07/01 09:10:31  5-MIN KMKG 071410Z 00000KT 4SM BR OVC065 11/09 A3020 370 93 0 000/00 RMK AO2
14840KMKG MKG20011107091509511/07/01 09:15:31  5-MIN KMKG 071415Z 00000KT 4SM BR OVC070 11/09 A3020 370 89 0 000/00 RMK AO2
14840KMKG MKG20011107092009511/07/01 09:20:31  5-MIN KMKG 071420Z 09003KT 4SM BR OVC070 11/09 A3020 380 89 0 100/03 RMK AO2
14840KMKG MKG20011107092509511/07/01 09:25:31  5-MIN KMKG 071425Z 00000KT 4SM BR OVC070 11/09 A3020 370 89 0 000/00 RMK AO2
14840KMKG MKG20011107093009511/07/01 09:30:31  5-MIN KMKG 071430Z 11003KT 4SM BR OVC070 11/09 A3020 370 89 0 120/03 RMK AO2
14840KMKG MKG20011107093509711/07/01 09:35:31  5-MIN KMKG 071435Z 00000KT 4SM BR OVC070 12/09 A3020 370 86 100 000/00 RMK AO2
14840KMKG MKG20011107094009711/07/01 09:40:31  5-MIN KMKG 071440Z 12003KT 4SM BR OVC070 12/10 A3019 380 89 100 130/03 RMK AO2
14840KMKG MKG20011107094509711/07/01 09:45:31  5-MIN KMKG 071445Z VRB03KT 4SM BR OVC070 12/10 A3020 380 89 100 VRB/03 RMK AO2
14840KMKG MKG20011107095012011/07/01 09:50:31  5-MIN KMKG 071450Z 00000KT 4SM BR OVC070 12/10 A3020 380 86 200 000/00 RMK AO2 SLP228 T01220100 53008
14840KMKG MKG20011107095512011/07/01 09:55:31  5-MIN KMKG 071455Z 00000KT 4SM BR OVC070 12/10 A3020 380 86 200 000/00 RMK AO2 SLP228 T01220100 51006
14840KMKG MKG20011107100009711/07/01 10:00:31  5-MIN KMKG 071500Z 00000KT 4SM BR OVC070 12/10 A3020 370 86 200 000/00 RMK AO2
14840KMKG MKG20011107100509711/07/01 10:05:31  5-MIN KMKG 071505Z 00000KT 4SM BR OVC070 12/10 A3020 370 86 200 000/00 RMK AO2
14840KMKG MKG20011107101009711/07/01 10:10:31  5-MIN KMKG 071510Z 00000KT 4SM BR OVC070 12/10 A3020 380 86 200 000/00 RMK AO2
14840KMKG MKG20011107101509711/07/01 10:15:31  5-MIN KMKG 071515Z 00000KT 5SM BR OVC070 12/10 A3020 380 86 200 000/00 RMK AO2
14840KMKG MKG20011107102009711/07/01 10:20:31  5-MIN KMKG 071520Z 22004KT 5SM BR OVC070 12/10 A3020 370 86 200 230/04 RMK AO2
14840KMKG MKG20011107102509711/07/01 10:25:31  5-MIN KMKG 071525Z 20003KT 4SM HZ OVC070 13/10 A3020 370 83 200 200/03 RMK AO2
14840KMKG MKG20011107103009711/07/01 10:30:31  5-MIN KMKG 071530Z 19003KT 4SM HZ OVC070 13/10 A3020 370 83 200 200/03 RMK AO2
14840KMKG MKG20011107103509711/07/01 10:35:31  5-MIN KMKG 071535Z 00000KT 5SM HZ OVC070 13/10 A3020 370 83 200 000/00 RMK AO2
14840KMKG MKG20011107104009711/07/01 10:40:31  5-MIN KMKG 071540Z 21003KT 5SM HZ OVC070 13/10 A3020 370 83 200 220/03 RMK AO2
14840KMKG MKG20011107104509711/07/01 10:45:31  5-MIN KMKG 071545Z 17003KT 5SM HZ OVC070 13/10 A3020 370 83 200 170/03 RMK AO2
14840KMKG MKG20011107105011411/07/01 10:50:31  5-MIN KMKG 071550Z 00000KT 5SM HZ OVC070 13/10 A3020 370 83 200 000/00 RMK AO2 SLP230 T01280100
14840KMKG MKG20011107105511411/07/01 10:55:31  5-MIN KMKG 071555Z 15003KT 5SM HZ OVC075 13/10 A3020 370 83 200 160/03 RMK AO2 SLP229 T01280100
14840KMKG MKG20011107110010411/07/01 11:00:31  5-MIN KMKG 071600Z 17003KT 5SM HZ FEW060 OVC070 13/10 A3020 370 80 300 170/03 RMK AO2
14840KMKG MKG20011107110510411/07/01 11:05:31  5-MIN KMKG 071605Z 18005KT 5SM HZ FEW055 OVC075 13/10 A3020 370 80 300 180/05 RMK AO2
14840KMKG MKG20011107111010411/07/01 11:10:31  5-MIN KMKG 071610Z 17004KT 5SM HZ FEW055 OVC075 13/10 A3020 370 80 300 180/04 RMK AO2
14840KMKG MKG20011107111510411/07/01 11:15:31  5-MIN KMKG 071615Z 17003KT 5SM HZ FEW055 OVC075 13/10 A3020 370 80 300 180/03 RMK AO2
14840KMKG MKG20011107112010411/07/01 11:20:31  5-MIN KMKG 071620Z 18003KT 5SM HZ SCT055 OVC075 14/10 A3020 380 77 400 180/03 RMK AO2
14840KMKG MKG20011107112510411/07/01 11:25:31  5-MIN KMKG 071625Z VRB03KT 5SM HZ SCT055 BKN075 14/10 A3020 380 77 400 VRB/03 RMK AO2
14840KMKG MKG20011107113010411/07/01 11:30:31  5-MIN KMKG 071630Z 18004KT 6SM HZ SCT055 BKN075 14/10 A3020 380 74 400 190/04 RMK AO2
14840KMKG MKG20011107113510411/07/01 11:35:31  5-MIN KMKG 071635Z 19005KT 6SM HZ SCT050 BKN075 14/10 A3020 380 77 400 200/05 RMK AO2
14840KMKG MKG20011107114010411/07/01 11:40:31  5-MIN KMKG 071640Z 17005KT 6SM HZ FEW050 BKN075 14/10 A3019 380 74 400 170/05 RMK AO2
14840KMKG MKG20011107114510411/07/01 11:45:31  5-MIN KMKG 071645Z 19005KT 6SM HZ FEW055 OVC075 15/11 A3019 380 74 500 200/05 RMK AO2
14840KMKG MKG20011107115012111/07/01 11:50:31  5-MIN KMKG 071650Z 19006KT 6SM HZ FEW050 OVC075 15/10 A3019 380 72 500 190/06 RMK AO2 SLP223 T01500100
14840KMKG MKG20011107115512111/07/01 11:55:31  5-MIN KMKG 071655Z 17006KT 6SM HZ FEW050 BKN075 14/10 A3019 380 74 400 170/06 RMK AO2 SLP223 T01440100
14840KMKG MKG20011107120009711/07/01 12:00:31  5-MIN KMKG 071700Z 19006KT 6SM HZ BKN075 15/10 A3019 380 72 500 190/06 RMK AO2
14840KMKG MKG20011107120509411/07/01 12:05:31  5-MIN KMKG 071705Z 19005KT 7SM BKN075 15/10 A3019 380 72 500 190/05 RMK AO2
14840KMKG MKG20011107121009711/07/01 12:10:31  5-MIN KMKG 071710Z 20007KT 6SM HZ BKN075 15/09 A3019 390 69 500 200/07 RMK AO2
14840KMKG MKG20011107121509411/07/01 12:15:31  5-MIN KMKG 071715Z 18007KT 7SM BKN080 15/09 A3018 390 69 500 180/07 RMK AO2
14840KMKG MKG20011107122009411/07/01 12:20:31  5-MIN KMKG 071720Z 20006KT 7SM OVC080 15/09 A3018 390 69 500 210/06 RMK AO2
14840KMKG MKG20011107122509411/07/01 12:25:31  5-MIN KMKG 071725Z 19007KT 7SM OVC080 15/09 A3018 390 66 500 200/07 RMK AO2
14840KMKG MKG20011107123009411/07/01 12:30:31  5-MIN KMKG 071730Z 19008KT 7SM OVC080 15/09 A3018 390 66 500 190/08 RMK AO2
14840KMKG MKG20011107123509411/07/01 12:35:31  5-MIN KMKG 071735Z 20008KT 7SM OVC075 14/09 A3018 390 69 500 210/08 RMK AO2
14840KMKG MKG20011107124009411/07/01 12:40:31  5-MIN KMKG 071740Z 18007KT 7SM OVC075 15/09 A3017 400 69 500 180/07 RMK AO2
14840KMKG MKG20011107124510111/07/01 12:45:31  5-MIN KMKG 071745Z 20004KT 7SM FEW043 OVC075 14/09 A3017 400 72 500 200/04 RMK AO2
14840KMKG MKG20011107125013611/07/01 12:50:31  5-MIN KMKG 071750Z 21007KT 7SM FEW043 OVC075 15/09 A3017 400 69 500 210/07 RMK AO2 SLP218 T01500094 10156 20067 51006
14840KMKG MKG20011107125513611/07/01 12:55:31  5-MIN KMKG 071755Z 19007KT 7SM FEW043 OVC080 14/09 A3017 400 72 500 200/07 RMK AO2 SLP217 T01440094 10156 20067 58009
14840KMKG MKG20011107130010111/07/01 13:00:31  5-MIN KMKG 071800Z 19008KT 7SM FEW043 OVC075 14/09 A3017 400 69 500 200/08 RMK AO2
14840KMKG MKG20011107130510111/07/01 13:05:31  5-MIN KMKG 071805Z 19008KT 7SM FEW043 OVC075 14/09 A3017 400 69 500 200/08 RMK AO2
14840KMKG MKG20011107131010111/07/01 13:10:31  5-MIN KMKG 071810Z 18009KT 7SM FEW043 OVC080 15/09 A3016 410 69 500 190/09 RMK AO2
14840KMKG MKG20011107131509411/07/01 13:15:31  5-MIN KMKG 071815Z 17008KT 7SM OVC075 15/09 A3016 410 69 500 180/08 RMK AO2
14840KMKG MKG20011107132009411/07/01 13:20:31  5-MIN KMKG 071820Z 17009KT 7SM BKN075 16/09 A3016 410 67 600 180/09 RMK AO2
14840KMKG MKG20011107132509411/07/01 13:25:31  5-MIN KMKG 071825Z 19009KT 8SM BKN070 15/09 A3016 410 66 500 190/09 RMK AO2
14840KMKG MKG20011107133010111/07/01 13:30:31  5-MIN KMKG 071830Z 18008KT 8SM FEW060 BKN075 15/09 A3016 410 69 500 190/08 RMK AO2
14840KMKG MKG20011107133510111/07/01 13:35:31  5-MIN KMKG 071835Z 19008KT 8SM FEW060 BKN075 14/09 A3016 410 72 500 200/08 RMK AO2
14840KMKG MKG20011107134012311/07/01 13:40:31  5-MIN KMKG 071840Z 21010KT 8SM FEW041 SCT060 BKN075 14/09 A3016 410 72 500 210/10 RMK AO2 CIG 060 RWY 14
14840KMKG MKG20011107134510811/07/01 13:45:31  5-MIN KMKG 071845Z 19008KT 8SM FEW041 BKN060 BKN075 14/09 A3016 410 72 500 200/08 RMK AO2
14840KMKG MKG20011107135014011/07/01 13:50:31  5-MIN KMKG 071850Z 18009KT 8SM SCT041 BKN060 BKN075 14/09 A3016 410 74 400 190/09 RMK AO2 CIG 039 RWY 14 SLP212 T01390094
14840KMKG MKG20011107135514011/07/01 13:55:31  5-MIN KMKG 071855Z 18009KT 7SM SCT041 BKN060 BKN080 14/09 A3015 410 74 400 190/09 RMK AO2 CIG 039 RWY 14 SLP212 T01390094
14840KMKG MKG20011107140012311/07/01 14:00:31  5-MIN KMKG 071900Z 18007KT 7SM SCT039 BKN060 BKN080 14/09 A3015 420 74 400 190/07 RMK AO2 CIG 039 RWY 14
14840KMKG MKG20011107140510811/07/01 14:05:31  5-MIN KMKG 071905Z 20008KT 7SM BKN039 BKN060 BKN080 13/09 A3015 420 77 400 200/08 RMK AO2
14840KMKG MKG20011107141010811/07/01 14:10:31  5-MIN KMKG 071910Z 20008KT 7SM BKN039 BKN065 BKN080 13/09 A3015 420 77 400 200/08 RMK AO2
14840KMKG MKG20011107141510811/07/01 14:15:31  5-MIN KMKG 071915Z 19007KT 7SM BKN039 BKN060 OVC080 13/09 A3015 420 77 400 190/07 RMK AO2
14840KMKG MKG20011107142010811/07/01 14:20:31  5-MIN KMKG 071920Z 20008KT 7SM BKN039 BKN060 OVC080 13/09 A3015 420 77 400 210/08 RMK AO2
14840KMKG MKG20011107142510111/07/01 14:25:31  5-MIN KMKG 071925Z 20007KT 7SM BKN039 OVC060 13/09 A3015 420 77 400 200/07 RMK AO2
14840KMKG MKG20011107143010111/07/01 14:30:31  5-MIN KMKG 071930Z 18007KT 7SM BKN041 OVC060 13/10 A3014 420 80 400 190/07 RMK AO2
14840KMKG MKG20011107143510111/07/01 14:35:31  5-MIN KMKG 071935Z 19006KT 8SM BKN041 BKN060 14/09 A3014 420 74 400 190/06 RMK AO2
14840KMKG MKG20011107144010811/07/01 14:40:31  5-MIN KMKG 071940Z 19008KT 8SM BKN041 BKN055 BKN075 14/09 A3015 420 74 400 200/08 RMK AO2
14840KMKG MKG20011107144512311/07/01 14:45:31  5-MIN KMKG 071945Z 19008KT 8SM SCT041 BKN050 BKN075 14/09 A3014 420 74 400 190/08 RMK AO2 CIG 041 RWY 14
14840KMKG MKG20011107145012511/07/01 14:50:31  5-MIN KMKG 071950Z 18008KT 8SM SCT041 BKN050 BKN080 13/09 A3014 430 77 400 190/08 RMK AO2 SLP209 T01330094
14840KMKG MKG20011107145512511/07/01 14:55:31  5-MIN KMKG 071955Z 17006KT 8SM FEW041 BKN050 BKN080 13/09 A3014 430 77 400 180/06 RMK AO2 SLP209 T01330094
14840KMKG MKG20011107150010811/07/01 15:00:31  5-MIN KMKG 072000Z 19008KT 8SM FEW041 BKN050 BKN080 13/09 A3014 430 77 400 190/08 RMK AO2
14840KMKG MKG20011107150510111/07/01 15:05:31  5-MIN KMKG 072005Z 19010KT 8SM BKN050 BKN075 13/09 A3014 430 77 400 200/10 RMK AO2
14840KMKG MKG20011107151009411/07/01 15:10:31  5-MIN KMKG 072010Z 19008KT 8SM BKN050 13/09 A3014 430 77 300 200/08 RMK AO2
14840KMKG MKG20011107151510111/07/01 15:15:31  5-MIN KMKG 072015Z 19008KT 8SM BKN050 BKN085 13/09 A3014 430 77 300 190/08 RMK AO2
14840KMKG MKG20011107152010111/07/01 15:20:31  5-MIN KMKG 072020Z 17006KT 8SM BKN050 BKN080 12/09 A3014 430 80 200 180/06 RMK AO2
14840KMKG MKG20011107152510111/07/01 15:25:31  5-MIN KMKG 072025Z 18008KT 8SM SCT050 OVC085 13/09 A3013 430 77 300 190/08 RMK AO2
14840KMKG MKG20011107153010111/07/01 15:30:31  5-MIN KMKG 072030Z 18006KT 8SM FEW050 OVC085 13/09 A3013 430 77 300 180/06 RMK AO2
14840KMKG MKG20011107153510111/07/01 15:35:31  5-MIN KMKG 072035Z 20006KT 8SM FEW050 BKN085 13/09 A3014 430 77 300 200/06 RMK AO2
14840KMKG MKG20011107154010111/07/01 15:40:31  5-MIN KMKG 072040Z 20007KT 8SM FEW050 BKN085 13/09 A3014 430 77 300 200/07 RMK AO2
14840KMKG MKG20011107154510111/07/01 15:45:31  5-MIN KMKG 072045Z 20006KT 8SM SCT048 OVC085 13/09 A3014 430 77 300 200/06 RMK AO2
14840KMKG MKG20011107155013111/07/01 15:50:31  5-MIN KMKG 072050Z 19008KT 8SM BKN048 BKN060 OVC085 13/09 A3014 430 74 400 190/08 RMK AO2 SLP207 T01330089 58009
14840KMKG MKG20011107155513111/07/01 15:55:31  5-MIN KMKG 072055Z 18006KT 8SM SCT048 BKN060 OVC085 13/09 A3013 430 77 300 190/06 RMK AO2 SLP206 T01280089 56012
14840KMKG MKG20011107160010811/07/01 16:00:31  5-MIN KMKG 072100Z 18007KT 8SM SCT048 BKN060 OVC085 13/09 A3013 430 77 300 180/07 RMK AO2
14840KMKG MKG20011107160510111/07/01 16:05:31  5-MIN KMKG 072105Z 18008KT 8SM SCT048 OVC060 13/09 A3013 430 77 300 180/08 RMK AO2
14840KMKG MKG20011107161011611/07/01 16:10:31  5-MIN KMKG 072110Z 19008KT 8SM SCT048 OVC060 13/09 A3013 430 77 300 200/08 RMK AO2 CIG 050 RWY 14
14840KMKG MKG20011107161510111/07/01 16:15:31  5-MIN KMKG 072115Z 19007KT 8SM BKN050 OVC060 13/09 A3013 430 77 300 190/07 RMK AO2
14840KMKG MKG20011107162010811/07/01 16:20:31  5-MIN KMKG 072120Z 18006KT 8SM SCT050 BKN060 OVC080 13/09 A3013 440 77 300 180/06 RMK AO2
14840KMKG MKG20011107162510811/07/01 16:25:31  5-MIN KMKG 072125Z 19006KT 8SM FEW050 BKN060 OVC085 12/09 A3013 440 80 200 190/06 RMK AO2
14840KMKG MKG20011107163010811/07/01 16:30:31  5-MIN KMKG 072130Z 20004KT 8SM FEW050 SCT060 OVC085 12/09 A3013 430 80 200 210/04 RMK AO2
14840KMKG MKG20011107163510811/07/01 16:35:31  5-MIN KMKG 072135Z 20004KT 8SM SCT050 SCT060 OVC085 12/09 A3014 430 80 200 210/04 RMK AO2
14840KMKG MKG20011107164010811/07/01 16:40:31  5-MIN KMKG 072140Z 19004KT 8SM BKN048 BKN060 OVC085 12/09 A3013 430 80 200 200/04 RMK AO2
14840KMKG MKG20011107164510811/07/01 16:45:31  5-MIN KMKG 072145Z 21004KT 8SM BKN048 BKN060 OVC085 12/09 A3013 430 80 200 210/04 RMK AO2
14840KMKG MKG20011107165012511/07/01 16:50:31  5-MIN KMKG 072150Z 21004KT 8SM BKN048 BKN055 OVC085 12/09 A3013 430 80 200 210/04 RMK AO2 SLP206 T01220089
14840KMKG MKG20011107165512511/07/01 16:55:31  5-MIN KMKG 072155Z 21003KT 8SM BKN046 BKN055 OVC085 12/09 A3013 430 80 200 210/03 RMK AO2 SLP206 T01220089
14840KMKG MKG20011107170010111/07/01 17:00:31  5-MIN KMKG 072200Z 22004KT 8SM BKN046 OVC060 12/09 A3013 440 80 200 230/04 RMK AO2
14840KMKG MKG20011107170510111/07/01 17:05:31  5-MIN KMKG 072205Z 22004KT 8SM BKN048 OVC060 12/09 A3013 440 80 200 230/04 RMK AO2
14840KMKG MKG20011107171010111/07/01 17:10:31  5-MIN KMKG 072210Z 21005KT 8SM BKN048 OVC060 12/09 A3013 440 83 200 210/05 RMK AO2
14840KMKG MKG20011107171510111/07/01 17:15:31  5-MIN KMKG 072215Z 21003KT 8SM BKN048 OVC060 12/09 A3013 440 83 200 210/03 RMK AO2
14840KMKG MKG20011107172010111/07/01 17:20:31  5-MIN KMKG 072220Z 19003KT 8SM BKN048 OVC060 12/09 A3013 440 83 200 200/03 RMK AO2
14840KMKG MKG20011107172510111/07/01 17:25:31  5-MIN KMKG 072225Z 20003KT 8SM BKN048 OVC060 12/09 A3013 440 83 200 200/03 RMK AO2
14840KMKG MKG20011107173011611/07/01 17:30:31  5-MIN KMKG 072230Z 19003KT 9SM FEW045 OVC055 12/09 A3013 440 83 200 200/03 RMK AO2 CIG 046 RWY 14
14840KMKG MKG20011107173509411/07/01 17:35:31  5-MIN KMKG 072235Z 00000KT 9SM OVC050 12/09 A3012 440 83 200 000/00 RMK AO2
14840KMKG MKG20011107174011611/07/01 17:40:31  5-MIN KMKG 072240Z 17003KT 9SM BKN055 OVC065 12/09 A3012 440 83 200 180/03 RMK AO2 CIG 046 RWY 14
14840KMKG MKG20011107174510111/07/01 17:45:31  5-MIN KMKG 072245Z 00000KT 9SM SCT049 OVC060 12/09 A3013 440 83 200 000/00 RMK AO2
14840KMKG MKG20011107175011811/07/01 17:50:31  5-MIN KMKG 072250Z 00000KT 9SM FEW049 OVC060 12/09 A3012 440 83 200 000/00 RMK AO2 SLP204 T01170089
14840KMKG MKG20011107175511911/07/01 17:55:31  5-MIN KMKG 072255Z 19003KT 10SM FEW048 OVC060 12/09 A3012 440 83 200 200/03 RMK AO2 SLP203 T01170089
14840KMKG MKG20011107180010111/07/01 18:00:31  5-MIN KMKG 072300Z 20003KT 9SM FEW050 BKN060 11/09 A3012 440 86 100 210/03 RMK AO2
14840KMKG MKG20011107180512411/07/01 18:05:31  5-MIN KMKG 072305Z 19004KT 9SM -RA SCT049 BKN060 BKN090 11/09 A3012 440 86 100 200/04 RMK AO2 RAB05 P0000
14840KMKG MKG20011107181012511/07/01 18:10:31  5-MIN KMKG 072310Z 19004KT 10SM -RA BKN049 BKN060 OVC090 11/09 A3012 440 86 100 200/04 RMK AO2 RAB05 P0000
14840KMKG MKG20011107181512411/07/01 18:15:31  5-MIN KMKG 072315Z 18004KT 10SM BKN049 BKN060 OVC090 11/09 A3012 450 86 100 190/04 RMK AO2 RAB05E14 P0000
14840KMKG MKG20011107182012311/07/01 18:20:31  5-MIN KMKG 072320Z 17004KT 9SM BKN049 BKN060 BKN090 11/09 A3012 450 86 100 170/04 RMK AO2 RAB05E14 P0000
14840KMKG MKG20011107182510911/07/01 18:25:31  5-MIN KMKG 072325Z 17004KT 9SM BKN049 11/09 A3012 450 86 100 170/04 RMK AO2 RAB05E14 P0000
14840KMKG MKG20011107183012311/07/01 18:30:31  5-MIN KMKG 072330Z 16004KT 9SM SCT049 BKN060 BKN095 11/08 A3012 450 83 100 160/04 RMK AO2 RAB05E14 P0000
14840KMKG MKG20011107183511611/07/01 18:35:31  5-MIN KMKG 072335Z 15003KT 9SM SCT050 BKN100 11/08 A3012 450 83 100 150/03 RMK AO2 RAB05E14 P0000
14840KMKG MKG20011107184011611/07/01 18:40:31  5-MIN KMKG 072340Z 15004KT 9SM FEW055 BKN100 11/08 A3011 450 80 100 150/04 RMK AO2 RAB05E14 P0000
14840KMKG MKG20011107230009411/07/01 23:00:31  5-MIN KMKG 080400Z 19012KT 9SM FEW080 13/10 A3005 510 80 500 190/12 RMK AO2
14840KMKG MKG20011107230509411/07/01 23:05:31  5-MIN KMKG 080405Z 19011KT 9SM SCT080 13/11 A3005 510 83 500 200/11 RMK AO2
14840KMKG MKG20011107231009411/07/01 23:10:31  5-MIN KMKG 080410Z 19010KT 9SM SCT080 13/11 A3004 520 83 500 200/10 RMK AO2
14840KMKG MKG20011107231509411/07/01 23:15:31  5-MIN KMKG 080415Z 20012KT 8SM BKN080 13/11 A3004 520 83 500 200/12 RMK AO2
14840KMKG MKG20011107232009411/07/01 23:20:31  5-MIN KMKG 080420Z 20011KT 8SM BKN080 14/11 A3004 520 80 500 200/11 RMK AO2
14840KMKG MKG20011107232509411/07/01 23:25:31  5-MIN KMKG 080425Z 20013KT 8SM BKN080 13/11 A3004 520 83 500 200/13 RMK AO2
14840KMKG MKG20011107233009411/07/01 23:30:31  5-MIN KMKG 080430Z 19013KT 7SM SCT080 14/11 A3003 530 80 600 190/13 RMK AO2
14840KMKG MKG20011107233509411/07/01 23:35:31  5-MIN KMKG 080435Z 19011KT 7SM SCT080 13/11 A3003 530 83 500 200/11 RMK AO2
14840KMKG MKG20011107234009411/07/01 23:40:31  5-MIN KMKG 080440Z 19011KT 7SM FEW080 14/11 A3003 530 80 600 200/11 RMK AO2
14840KMKG MKG20011107234510111/07/01 23:45:31  5-MIN KMKG 080445Z 20014KT 7SM FEW065 SCT080 13/11 A3003 530 83 500 200/14 RMK AO2
14840KMKG MKG20011107235012111/07/01 23:50:31  5-MIN KMKG 080450Z 20012KT 7SM SCT065 14/11 A3003 530 80 600 200/12 RMK AO2 SLP168 T01390106 401560067
14840KMKG MKG20011107235512711/07/01 23:55:31  5-MIN KMKG 080455Z 20014G20KT 8SM SCT065 14/11 A3003 530 80 600 200/14G20 RMK AO2 SLP168 T01390106 401560067
14840KMKG MKG20011108000010011/08/01 00:00:31  5-MIN KMKG 080500Z 19015G20KT 8SM FEW065 14/11 A3002 540 80 600 190/15G20 RMK AO2
14840KMKG MKG20011108000509411/08/01 00:05:31  5-MIN KMKG 080505Z 19013KT 8SM FEW065 13/11 A3002 540 83 500 200/13 RMK AO2
14840KMKG MKG20011108001009411/08/01 00:10:31  5-MIN KMKG 080510Z 19013KT 8SM FEW065 13/11 A3002 540 83 500 190/13 RMK AO2
14840KMKG MKG20011108001509411/08/01 00:15:31  5-MIN KMKG 080515Z 19013KT 8SM FEW065 13/11 A3002 540 83 500 200/13 RMK AO2
14840KMKG MKG20011108002009111/08/01 00:20:31  5-MIN KMKG 080520Z 20012KT 8SM CLR 13/11 A3002 540 83 500 200/12 RMK AO2
14840KMKG MKG20011108002509111/08/01 00:25:31  5-MIN KMKG 080525Z 19013KT 8SM CLR 14/10 A3002 540 77 600 200/13 RMK AO2
14840KMKG MKG20011108003009111/08/01 00:30:31  5-MIN KMKG 080530Z 19014KT 8SM CLR 13/10 A3001 540 80 500 190/14 RMK AO2
14840KMKG MKG20011108003509111/08/01 00:35:31  5-MIN KMKG 080535Z 19014KT 8SM CLR 14/10 A3001 550 77 600 200/14 RMK AO2
14840KMKG MKG20011108004009111/08/01 00:40:31  5-MIN KMKG 080540Z 20014KT 8SM CLR 14/10 A3001 550 77 600 200/14 RMK AO2
14840KMKG MKG20011108004509711/08/01 00:45:31  5-MIN KMKG 080545Z 20017G20KT 9SM CLR 14/10 A3001 550 74 700 210/17G20 RMK AO2
14840KMKG MKG20011108005013811/08/01 00:50:31  5-MIN KMKG 080550Z 20016G21KT 9SM CLR 14/10 A3001 550 74 700 200/16G21 RMK AO2 SLP161 60000 T01440100 10144 20100 56016
14840KMKG MKG20011108005513811/08/01 00:55:31  5-MIN KMKG 080555Z 19014G21KT 8SM CLR 14/10 A3001 550 77 600 200/14G21 RMK AO2 SLP161 60000 T01390100 10144 20100 58019
14840KMKG MKG20011108010009111/08/01 01:00:31  5-MIN KMKG 080600Z 19013KT 8SM CLR 13/10 A3000 550 80 500 190/13 RMK AO2
14840KMKG MKG20011108010509111/08/01 01:05:31  5-MIN KMKG 080605Z 20012KT 8SM CLR 14/10 A3000 550 77 600 200/12 RMK AO2
14840KMKG MKG20011108011009111/08/01 01:10:31  5-MIN KMKG 080610Z 20015KT 8SM CLR 14/10 A3000 550 77 600 200/15 RMK AO2
14840KMKG MKG20011108011509411/08/01 01:15:31  5-MIN KMKG 080615Z 19014KT 8SM FEW110 14/10 A3000 560 77 600 200/14 RMK AO2
14840KMKG MKG20011108012009411/08/01 01:20:31  5-MIN KMKG 080620Z 20015KT 8SM FEW110 14/10 A3000 560 77 600 200/15 RMK AO2
14840KMKG MKG20011108012509111/08/01 01:25:31  5-MIN KMKG 080625Z 20013KT 8SM CLR 13/10 A3000 560 80 500 200/13 RMK AO2
14840KMKG MKG20011108013009411/08/01 01:30:31  5-MIN KMKG 080630Z 19014KT 7SM FEW110 13/10 A3000 560 80 500 200/14 RMK AO2
14840KMKG MKG20011108013509411/08/01 01:35:31  5-MIN KMKG 080635Z 20015KT 7SM FEW110 13/10 A3000 560 80 500 200/15 RMK AO2
14840KMKG MKG20011108014010011/08/01 01:40:31  5-MIN KMKG 080640Z 20016G20KT 7SM SCT110 13/10 A3000 560 80 500 200/16G20 RMK AO2
14840KMKG MKG20011108014510011/08/01 01:45:31  5-MIN KMKG 080645Z 19013G20KT 7SM FEW110 13/10 A2999 560 80 500 200/13G20 RMK AO2
14840KMKG MKG20011108015011111/08/01 01:50:31  5-MIN KMKG 080650Z 19013KT 7SM FEW110 13/10 A3000 560 80 500 200/13 RMK AO2 SLP158 T01330100
14840KMKG MKG20011108015511111/08/01 01:55:31  5-MIN KMKG 080655Z 19012KT 7SM FEW110 13/10 A2999 560 80 500 200/12 RMK AO2 SLP158 T01330100
14840KMKG MKG20011108020009411/08/01 02:00:31  5-MIN KMKG 080700Z 19013KT 7SM FEW110 13/10 A2999 560 80 500 200/13 RMK AO2
14840KMKG MKG20011108020509411/08/01 02:05:31  5-MIN KMKG 080705Z 19011KT 7SM FEW110 13/10 A2999 560 80 500 200/11 RMK AO2
14840KMKG MKG20011108021009411/08/01 02:10:31  5-MIN KMKG 080710Z 19012KT 7SM FEW100 13/10 A2999 560 80 500 200/12 RMK AO2
14840KMKG MKG20011108021509411/08/01 02:15:31  5-MIN KMKG 080715Z 20013KT 7SM SCT100 13/10 A2999 560 80 500 200/13 RMK AO2
14840KMKG MKG20011108022009411/08/01 02:20:31  5-MIN KMKG 080720Z 20012KT 8SM BKN100 14/10 A2999 570 77 600 200/12 RMK AO2
14840KMKG MKG20011108022509411/08/01 02:25:31  5-MIN KMKG 080725Z 19016KT 8SM BKN100 14/10 A2999 570 77 600 200/16 RMK AO2
14840KMKG MKG20011108023010011/08/01 02:30:31  5-MIN KMKG 080730Z 20014G20KT 8SM BKN100 14/10 A2999 570 77 600 200/14G20 RMK AO2
14840KMKG MKG20011108023509411/08/01 02:35:31  5-MIN KMKG 080735Z 19014KT 8SM OVC100 14/10 A2998 570 77 600 200/14 RMK AO2
14840KMKG MKG20011108024010011/08/01 02:40:31  5-MIN KMKG 080740Z 19014G18KT 8SM OVC100 14/10 A2998 570 77 600 200/14G18 RMK AO2
14840KMKG MKG20011108024510011/08/01 02:45:31  5-MIN KMKG 080745Z 19014G18KT 8SM OVC095 14/10 A2998 570 77 600 200/14G18 RMK AO2
14840KMKG MKG20011108025011111/08/01 02:50:31  5-MIN KMKG 080750Z 19013KT 8SM OVC090 14/10 A2998 580 77 600 190/13 RMK AO2 SLP152 T01390100
14840KMKG MKG20011108025511711/08/01 02:55:31  5-MIN KMKG 080755Z 19014G19KT 8SM OVC090 14/10 A2998 580 77 600 190/14G19 RMK AO2 SLP151 T01390100
14840KMKG MKG20011108030009411/08/01 03:00:31  5-MIN KMKG 080800Z 18014KT 8SM OVC090 14/10 A2997 580 77 600 190/14 RMK AO2
14840KMKG MKG20011108030510011/08/01 03:05:31  5-MIN KMKG 080805Z 18012G22KT 8SM OVC090 14/10 A2997 590 77 600 190/12G22 RMK AO2
14840KMKG MKG20011108031010011/08/01 03:10:31  5-MIN KMKG 080810Z 19014G22KT 8SM OVC085 14/10 A2996 590 77 600 200/14G22 RMK AO2
14840KMKG MKG20011108031510011/08/01 03:15:31  5-MIN KMKG 080815Z 18013G20KT 8SM OVC090 14/10 A2996 590 77 600 190/13G20 RMK AO2
14840KMKG MKG20011108032009411/08/01 03:20:31  5-MIN KMKG 080820Z 19013KT 8SM OVC090 13/10 A2996 600 80 600 190/13 RMK AO2
14840KMKG MKG20011108032509411/08/01 03:25:31  5-MIN KMKG 080825Z 19014KT 8SM OVC090 13/10 A2996 600 80 600 190/14 RMK AO2
14840KMKG MKG20011108033009411/08/01 03:30:31  5-MIN KMKG 080830Z 19016KT 8SM OVC090 13/10 A2996 600 80 600 190/16 RMK AO2
14840KMKG MKG20011108033509411/08/01 03:35:31  5-MIN KMKG 080835Z 18014KT 8SM OVC085 13/10 A2995 600 80 600 190/14 RMK AO2
14840KMKG MKG20011108034009411/08/01 03:40:31  5-MIN KMKG 080840Z 19014KT 8SM OVC085 13/10 A2995 610 80 600 190/14 RMK AO2
14840KMKG MKG20011108034509411/08/01 03:45:31  5-MIN KMKG 080845Z 18014KT 8SM OVC085 13/10 A2994 610 80 600 190/14 RMK AO2
14840KMKG MKG20011108035011711/08/01 03:50:31  5-MIN KMKG 080850Z 19014KT 8SM OVC085 13/10 A2994 610 80 600 190/14 RMK AO2 SLP139 T01330100 58019
14840KMKG MKG20011108035512311/08/01 03:55:31  5-MIN KMKG 080855Z 19014G19KT 8SM OVC085 13/10 A2994 620 80 600 190/14G19 RMK AO2 SLP138 T01330100 58023
14840KMKG MKG20011108040010011/08/01 04:00:31  5-MIN KMKG 080900Z 19015G19KT 8SM OVC090 13/10 A2994 620 80 600 190/15G19 RMK AO2
14840KMKG MKG20011108040510011/08/01 04:05:31  5-MIN KMKG 080905Z 19017G22KT 8SM OVC090 13/10 A2993 620 80 600 190/17G22 RMK AO2
14840KMKG MKG20011108041010011/08/01 04:10:31  5-MIN KMKG 080910Z 18016G22KT 8SM BKN095 13/10 A2992 630 80 600 180/16G22 RMK AO2
14840KMKG MKG20011108041510011/08/01 04:15:31  5-MIN KMKG 080915Z 19014G20KT 8SM BKN095 13/10 A2993 630 80 600 190/14G20 RMK AO2
14840KMKG MKG20011108042010011/08/01 04:20:31  5-MIN KMKG 080920Z 19014G19KT 7SM SCT095 13/10 A2992 630 80 600 190/14G19 RMK AO2
14840KMKG MKG20011108042510011/08/01 04:25:31  5-MIN KMKG 080925Z 19014G19KT 7SM SCT100 13/10 A2992 630 80 600 190/14G19 RMK AO2
14840KMKG MKG20011108043009411/08/01 04:30:31  5-MIN KMKG 080930Z 18016KT 7SM FEW100 13/10 A2992 630 80 600 190/16 RMK AO2
14840KMKG MKG20011108043509711/08/01 04:35:31  5-MIN KMKG 080935Z 18015G21KT 8SM CLR 13/10 A2991 640 80 600 190/15G21 RMK AO2
14840KMKG MKG20011108044009711/08/01 04:40:31  5-MIN KMKG 080940Z 19016G21KT 8SM CLR 13/10 A2992 630 80 600 200/16G21 RMK AO2
14840KMKG MKG20011108044509711/08/01 04:45:31  5-MIN KMKG 080945Z 19016G21KT 7SM CLR 13/10 A2992 630 80 600 190/16G21 RMK AO2
14840KMKG MKG20011108045010811/08/01 04:50:31  5-MIN KMKG 080950Z 20016KT 7SM CLR 13/10 A2992 630 80 600 200/16 RMK AO2 SLP132 T01330100
14840KMKG MKG20011108045510811/08/01 04:55:31  5-MIN KMKG 080955Z 19016KT 7SM CLR 13/10 A2991 640 80 600 190/16 RMK AO2 SLP131 T01330100
14840KMKG MKG20011108050009111/08/01 05:00:31  5-MIN KMKG 081000Z 19017KT 7SM CLR 13/10 A2992 640 83 600 190/17 RMK AO2
14840KMKG MKG20011108050509111/08/01 05:05:31  5-MIN KMKG 081005Z 19014KT 7SM CLR 13/10 A2991 640 80 600 200/14 RMK AO2
14840KMKG MKG20011108051009711/08/01 05:10:31  5-MIN KMKG 081010Z 19016G22KT 7SM CLR 13/10 A2991 640 80 600 190/16G22 RMK AO2
14840KMKG MKG20011108051509711/08/01 05:15:31  5-MIN KMKG 081015Z 19015G22KT 7SM CLR 13/10 A2991 640 80 600 190/15G22 RMK AO2
14840KMKG MKG20011108052009111/08/01 05:20:31  5-MIN KMKG 081020Z 20014KT 7SM CLR 13/10 A2991 640 80 600 200/14 RMK AO2
14840KMKG MKG20011108052509111/08/01 05:25:31  5-MIN KMKG 081025Z 20014KT 7SM CLR 13/10 A2991 640 80 600 200/14 RMK AO2
14840KMKG MKG20011108053009111/08/01 05:30:31  5-MIN KMKG 081030Z 19016KT 7SM CLR 13/10 A2991 640 80 600 200/16 RMK AO2
14840KMKG MKG20011108053509111/08/01 05:35:31  5-MIN KMKG 081035Z 20014KT 8SM CLR 13/10 A2991 640 80 600 200/14 RMK AO2
14840KMKG MKG20011108054009711/08/01 05:40:31  5-MIN KMKG 081040Z 20015G20KT 8SM CLR 13/10 A2991 640 80 600 200/15G20 RMK AO2
14840KMKG MKG20011108054509711/08/01 05:45:31  5-MIN KMKG 081045Z 20016G21KT 8SM CLR 13/10 A2991 640 80 600 200/16G21 RMK AO2
14840KMKG MKG20011108055011411/08/01 05:50:31  5-MIN KMKG 081050Z 20017G22KT 8SM CLR 13/10 A2990 640 80 600 200/17G22 RMK AO2 SLP128 T01330100
14840KMKG MKG20011108055511411/08/01 05:55:31  5-MIN KMKG 081055Z 20014G22KT 8SM CLR 13/10 A2991 640 83 600 210/14G22 RMK AO2 SLP129 T01280100
14840KMKG MKG20011108060009111/08/01 06:00:31  5-MIN KMKG 081100Z 20015KT 8SM CLR 13/10 A2991 640 80 600 210/15 RMK AO2
14840KMKG MKG20011108060509111/08/01 06:05:31  5-MIN KMKG 081105Z 20014KT 8SM CLR 13/10 A2990 650 80 600 200/14 RMK AO2
14840KMKG MKG20011108061009711/08/01 06:10:31  5-MIN KMKG 081110Z 20013G20KT 8SM CLR 13/10 A2990 650 83 600 200/13G20 RMK AO2
14840KMKG MKG20011108061509711/08/01 06:15:31  5-MIN KMKG 081115Z 20014G20KT 8SM CLR 13/10 A2990 650 83 600 210/14G20 RMK AO2
14840KMKG MKG20011108062009111/08/01 06:20:31  5-MIN KMKG 081120Z 20012KT 7SM CLR 13/10 A2990 650 83 600 210/12 RMK AO2
14840KMKG MKG20011108062509711/08/01 06:25:31  5-MIN KMKG 081125Z 21017G21KT 7SM CLR 13/10 A2989 650 83 600 210/17G21 RMK AO2
14840KMKG MKG20011108063010011/08/01 06:30:31  5-MIN KMKG 081130Z 21015G24KT 7SM FEW120 13/10 A2990 650 80 600 210/15G24 RMK AO2
14840KMKG MKG20011108063510011/08/01 06:35:31  5-MIN KMKG 081135Z 21015G24KT 7SM SCT120 13/10 A2990 650 83 600 220/15G24 RMK AO2
14840KMKG MKG20011108064009411/08/01 06:40:31  5-MIN KMKG 081140Z 21013KT 7SM SCT120 13/10 A2990 650 83 600 210/13 RMK AO2
14840KMKG MKG20011108064509411/08/01 06:45:31  5-MIN KMKG 081145Z 21014KT 7SM BKN110 13/10 A2990 650 80 600 220/14 RMK AO2
14840KMKG MKG20011108065013511/08/01 06:50:31  5-MIN KMKG 081150Z 22016G20KT 7SM BKN110 13/10 A2990 650 83 600 220/16G20 RMK AO2 SLP126 T01280100 10139 20128 58023
14840KMKG MKG20011108065513511/08/01 06:55:31  5-MIN KMKG 081155Z 21015G20KT 7SM OVC110 13/10 A2990 650 83 600 210/15G20 RMK AO2 SLP126 T01280100 10139 20128 56012
14840KMKG MKG20011108070009411/08/01 07:00:31  5-MIN KMKG 081200Z 22013KT 7SM OVC110 13/10 A2990 650 80 600 230/13 RMK AO2
14840KMKG MKG20011108070509411/08/01 07:05:31  5-MIN KMKG 081205Z 22012KT 7SM OVC100 13/10 A2990 650 80 600 220/12 RMK AO2
14840KMKG MKG20011108071011611/08/01 07:10:31  5-MIN KMKG 081210Z 22015G20KT 7SM -RA OVC100 13/10 A2990 650 80 600 230/15G20 RMK AO2 RAB08 P0000
14840KMKG MKG20011108071511611/08/01 07:15:31  5-MIN KMKG 081215Z 22014G20KT 8SM -RA OVC110 13/10 A2990 650 80 600 230/14G20 RMK AO2 RAB08 P0000
14840KMKG MKG20011108072011611/08/01 07:20:31  5-MIN KMKG 081220Z 23012G19KT 8SM -RA OVC110 13/10 A2990 650 83 600 230/12G19 RMK AO2 RAB08 P0000
14840KMKG MKG20011108072511011/08/01 07:25:31  5-MIN KMKG 081225Z 23012KT 8SM -RA BKN110 13/10 A2990 650 80 600 240/12 RMK AO2 RAB08 P0000
14840KMKG MKG20011108073012311/08/01 07:30:31  5-MIN KMKG 081230Z 23016G21KT 7SM -RA FEW049 BKN110 13/10 A2990 650 83 600 230/16G21 RMK AO2 RAB08 P0000
14840KMKG MKG20011108073513011/08/01 07:35:31  5-MIN KMKG 081235Z 23013G21KT 6SM -RA FEW049 BKN075 OVC110 13/10 A2990 650 83 600 240/13G21 RMK AO2 RAB08 P0000
14840KMKG MKG20011108074012611/08/01 07:40:31  5-MIN KMKG 081240Z 23013KT 6SM HZ FEW055 BKN070 OVC110 13/10 A2990 650 83 600 240/13 RMK AO2 RAB08E40 P0000
14840KMKG MKG20011108074512611/08/01 07:45:31  5-MIN KMKG 081245Z 24013KT 5SM HZ FEW040 BKN070 OVC110 13/10 A2990 650 83 600 240/13 RMK AO2 RAB08E40 P0000
14840KMKG MKG20011108075014311/08/01 07:50:31  5-MIN KMKG 081250Z 24013KT 5SM HZ FEW031 BKN070 OVC100 13/10 A2990 650 83 600 250/13 RMK AO2 RAB08E40 SLP127 P0000 T01280100
14840KMKG MKG20011108075514311/08/01 07:55:31  5-MIN KMKG 081255Z 24013KT 6SM HZ SCT031 BKN040 OVC070 13/10 A2991 640 83 600 250/13 RMK AO2 RAB08E40 SLP129 P0000 T01280100
14840KMKG MKG20011108080010411/08/01 08:00:31  5-MIN KMKG 081300Z 26014KT 6SM HZ BKN031 OVC070 13/10 A2991 640 83 600 260/14 RMK AO2
14840KMKG MKG20011108080510711/08/01 08:05:31  5-MIN KMKG 081305Z 26014G20KT 7SM BKN031 OVC070 13/10 A2991 640 80 600 270/14G20 RMK AO2
14840KMKG MKG20011108081011411/08/01 08:10:31  5-MIN KMKG 081310Z 27019G23KT 7SM FEW022 BKN031 OVC070 13/10 A2991 640 83 600 280/19G23 RMK AO2
14840KMKG MKG20011108081510711/08/01 08:15:31  5-MIN KMKG 081315Z 28016G25KT 7SM SCT020 OVC031 13/10 A2991 640 83 600 280/16G25 RMK AO2
14840KMKG MKG20011108082012211/08/01 08:20:31  5-MIN KMKG 081320Z 29015G25KT 7SM SCT020 OVC031 12/10 A2992 630 86 500 290/15G25 RMK AO2 CIG 021 RWY 14
14840KMKG MKG20011108082511011/08/01 08:25:31  5-MIN KMKG 081325Z 30019G25KT 6SM HZ BKN022 OVC031 12/09 A2992 630 83 500 300/19G25 RMK AO2
14840KMKG MKG20011108083011011/08/01 08:30:31  5-MIN KMKG 081330Z 30013G25KT 5SM BR BKN022 OVC029 12/09 A2993 620 86 400 300/13G25 RMK AO2
14840KMKG MKG20011108083512811/08/01 08:35:31  5-MIN KMKG 081335Z 30019G26KT 4SM BR FEW017 OVC022 12/09 A2993 630 86 400 310/19G26 RMK AO2 PK WND 30026/1334
14840KMKG MKG20011108084012811/08/01 08:40:31  5-MIN KMKG 081340Z 31013G26KT 4SM BR SCT015 OVC022 11/09 A2993 620 89 300 310/13G26 RMK AO2 PK WND 30026/1334
14840KMKG MKG20011108084512811/08/01 08:45:31  5-MIN KMKG 081345Z 31016G21KT 4SM BR BKN015 OVC022 11/09 A2993 620 89 300 320/16G21 RMK AO2 PK WND 30026/1334
14840KMKG MKG20011108085014511/08/01 08:50:31  5-MIN KMKG 081350Z 30014G24KT 4SM BR BKN013 OVC022 11/09 A2994 610 86 300 310/14G24 RMK AO2 PK WND 30026/1334 SLP139 T01110089
14840KMKG MKG20011108085514511/08/01 08:55:31  5-MIN KMKG 081355Z 31014G24KT 4SM BR BKN013 OVC022 11/09 A2994 610 86 300 310/14G24 RMK AO2 PK WND 30026/1334 SLP140 T01110089
14840KMKG MKG20011108090010311/08/01 09:00:31  5-MIN KMKG 081400Z 31017G23KT 4SM BR OVC013 11/09 A2994 610 89 300 310/17G23 RMK AO2
14840KMKG MKG20011108090510311/08/01 09:05:31  5-MIN KMKG 081405Z 31014G23KT 4SM BR OVC013 11/09 A2995 610 89 300 310/14G23 RMK AO2
14840KMKG MKG20011108091013711/08/01 09:10:31  5-MIN KMKG 081410Z 31019G28KT 4SM -RA BR OVC013 11/09 A2995 600 89 300 320/19G28 RMK AO2 PK WND 31028/1407 RAB09 P0000
14840KMKG MKG20011108091513711/08/01 09:15:31  5-MIN KMKG 081415Z 31018G28KT 4SM -RA BR OVC013 11/09 A2995 600 89 300 310/18G28 RMK AO2 PK WND 31028/1407 RAB09 P0000
14840KMKG MKG20011108092013611/08/01 09:20:31  5-MIN KMKG 081420Z 31018G26KT 4SM BR OVC013 11/09 A2995 600 89 300 320/18G26 RMK AO2 PK WND 31028/1407 RAB09E20 P0000
14840KMKG MKG20011108092513711/08/01 09:25:31  5-MIN KMKG 081425Z 31018G24KT 4SM -RA BR OVC013 11/09 A2995 600 89 300 310/18G24 RMK AO2 PK WND 31028/1407 RAB09 P0000
14840KMKG MKG20011108093013711/08/01 09:30:31  5-MIN KMKG 081430Z 31018G26KT 4SM -RA BR OVC013 11/09 A2996 600 89 200 310/18G26 RMK AO2 PK WND 31028/1407 RAB09 P0000
14840KMKG MKG20011108093513711/08/01 09:35:31  5-MIN KMKG 081435Z 32018G26KT 5SM -RA BR OVC013 11/09 A2996 590 89 200 320/18G26 RMK AO2 PK WND 31028/1407 RAB09 P0000
14840KMKG MKG20011108094013611/08/01 09:40:31  5-MIN KMKG 081440Z 31019G25KT 5SM BR OVC013 11/09 A2996 590 89 200 320/19G25 RMK AO2 PK WND 31028/1407 RAB09E38 P0000
14840KMKG MKG20011108094513711/08/01 09:45:31  5-MIN KMKG 081445Z 31018G28KT 5SM -RA BR OVC013 11/09 A2996 590 89 200 310/18G28 RMK AO2 PK WND 30028/1442 RAB09 P0000
14840KMKG MKG20011108095016611/08/01 09:50:31  5-MIN KMKG 081450Z 31020G28KT 5SM -RA BR OVC013 11/09 A2996 600 89 200 320/20G28 RMK AO2 PK WND 30028/1442 RAB09 SLP146 P0000 60000 T01060089 56012
14840KMKG MKG20011108095516611/08/01 09:55:31  5-MIN KMKG 081455Z 31019G27KT 6SM -RA BR OVC013 10/09 A2996 590 93 200 320/19G27 RMK AO2 PK WND 30028/1442 RAB09 SLP149 P0000 60000 T01000089 53021
14840KMKG MKG20011108100013111/08/01 10:00:31  5-MIN KMKG 081500Z 32017G27KT 6SM -RA BR OVC013 10/09 A2997 590 93 200 320/17G27 RMK AO2 PK WND 31027/1456 P0000
14840KMKG MKG20011108100513811/08/01 10:05:31  5-MIN KMKG 081505Z 32020G27KT 5SM -RA BR BKN013 OVC019 10/09 A2997 590 93 200 320/20G27 RMK AO2 PK WND 31027/1456 P0001
14840KMKG MKG20011108101013111/08/01 10:10:31  5-MIN KMKG 081510Z 31019G27KT 5SM -RA BR OVC013 10/09 A2997 580 93 200 320/19G27 RMK AO2 PK WND 31027/1506 P0001
14840KMKG MKG20011108101515011/08/01 10:15:31  5-MIN KMKG 081515Z 31015G27KT 5SM -RA BR BKN010 OVC015 10/09 A2998 580 93 200 320/15G27 RMK AO2 PK WND 31027/1506 CIG 008V012 P0001
14840KMKG MKG20011108102013811/08/01 10:20:31  5-MIN KMKG 081520Z 31017G23KT 5SM -RA BR SCT008 OVC013 09/09 A2997 580 96 100 310/17G23 RMK AO2 PK WND 31027/1506 P0001
14840KMKG MKG20011108102515011/08/01 10:25:31  5-MIN KMKG 081525Z 31017G25KT 6SM -RA BR BKN010 OVC015 09/08 A2998 580 93 100 310/17G25 RMK AO2 PK WND 31027/1506 CIG 008V012 P0001
14840KMKG MKG20011108103013811/08/01 10:30:31  5-MIN KMKG 081530Z 31018G25KT 6SM -RA BR BKN010 OVC013 09/08 A2998 580 93 100 310/18G25 RMK AO2 PK WND 31027/1506 P0001
14840KMKG MKG20011108103513111/08/01 10:35:31  5-MIN KMKG 081535Z 31022G28KT 6SM -RA BR OVC010 09/08 A2998 570 93 100 320/22G28 RMK AO2 PK WND 31028/1533 P0001
14840KMKG MKG20011108104013311/08/01 10:40:31  5-MIN KMKG 081540Z 32023G28KT 7SM -RA BKN010 OVC016 09/08 A2998 570 96 0 330/23G28 RMK AO2 PK WND 31028/1533 P0002
14840KMKG MKG20011108104515211/08/01 10:45:31  5-MIN KMKG 081545Z 32018G32KT 7SM -RA BKN010 BKN016 OVC022 09/08 A2999 570 93 0 320/18G32 RMK AO2 PK WND 32032/1541 CIG 008V012 P0002
14840KMKG MKG20011108105015011/08/01 10:50:31  5-MIN KMKG 081550Z 31019G32KT 7SM -RA BKN014 OVC022 09/08 A2999 560 93 0 320/19G32 RMK AO2 PK WND 32032/1541 SLP158 P0002 T00890078
14840KMKG MKG20011108105518211/08/01 10:55:31  5-MIN KMKG 081555Z 32017G26KT 6SM -RA BR SCT010 BKN016 OVC022 09/08 A3000 550 93 0 320/17G26 RMK AO2 PK WND 32032/1541 CIG 011 RWY 14 PRESRR SLP161 P0003 T00890078
14840KMKG MKG20011108110015011/08/01 11:00:31  5-MIN KMKG 081600Z 33019G28KT 6SM -RA BR BKN012 BKN017 OVC022 08/07 A3001 540 93 0 330/19G28 RMK AO2 PK WND 32028/1556 PRESRR P0000
14840KMKG MKG20011108110514211/08/01 11:05:31  5-MIN KMKG 081605Z 32017G28KT 4SM RA BR BKN012 OVC020 08/07 A3002 540 93 0 330/17G28 RMK AO2 PK WND 32028/1556 PRESRR P0002
14840KMKG MKG20011108111014211/08/01 11:10:31  5-MIN KMKG 081610Z 32017G23KT 4SM RA BR BKN012 BKN018 OVC024 08/07 A3002 540 93 0 320/17G23 RMK AO2 PK WND 32028/1556 P0003
14840KMKG MKG20011108111514211/08/01 11:15:31  5-MIN KMKG 081615Z 32015G23KT 5SM RA BR BKN012 BKN018 OVC024 08/07 A3002 530 93 0 320/15G23 RMK AO2 PK WND 32028/1556 P0004
14840KMKG MKG20011108112013611/08/01 11:20:31  5-MIN KMKG 081620Z 31018G24KT 6SM -RA BR BKN012 OVC018 08/07 A3002 540 93 0 320/18G24 RMK AO2 PK WND 32028/1556 P0004
14840KMKG MKG20011108112513711/08/01 11:25:31  5-MIN KMKG 081625Z 32017G25KT 10SM -RA BKN012 OVC018 08/07 A3003 530 96 -100 320/17G25 RMK AO2 PK WND 32028/1556 P0004
14840KMKG MKG20011108113013711/08/01 11:30:31  5-MIN KMKG 081630Z 33019G27KT 10SM -RA BKN012 OVC018 08/07 A3004 520 93 -100 330/19G27 RMK AO2 PK WND 32028/1556 P0004
14840KMKG MKG20011108113513011/08/01 11:35:31  5-MIN KMKG 081635Z 32014G27KT 10SM -RA OVC012 08/07 A3004 520 93 -100 320/14G27 RMK AO2 PK WND 32028/1556 P0004
14840KMKG MKG20011108114013211/08/01 11:40:31  5-MIN KMKG 081640Z 32019G26KT 10SM OVC012 08/07 A3004 520 93 -100 320/19G26 RMK AO2 PK WND 32028/1556 RAE38 P0004
14840KMKG MKG20011108114513211/08/01 11:45:31  5-MIN KMKG 081645Z 32020G27KT 10SM OVC014 08/07 A3004 520 93 -100 330/20G27 RMK AO2 PK WND 32028/1556 RAE38 P0004
14840KMKG MKG20011108115015611/08/01 11:50:31  5-MIN KMKG 081650Z 32018G27KT 10SM BKN014 OVC018 08/06 A3005 510 89 -100 320/18G27 RMK AO2 PK WND 32028/1556 RAE38 SLP176 P0004 T00780061
14840KMKG MKG20011108115514911/08/01 11:55:31  5-MIN KMKG 081655Z 32015G24KT 10SM OVC014 08/06 A3005 510 89 -100 320/15G24 RMK AO2 PK WND 32028/1556 RAE38 SLP177 P0004 T00780061
14840KMKG MKG20011108120010911/08/01 12:00:31  5-MIN KMKG 081700Z 32018G25KT 10SM BKN016 OVC022 08/06 A3005 510 86 -100 320/18G25 RMK AO2
14840KMKG MKG20011108120513411/08/01 12:05:31  5-MIN KMKG 081705Z 32017G28KT 10SM BKN017 BKN026 OVC033 08/06 A3006 500 82 -100 330/17G28 RMK AO2 PK WND 32028/1702
14840KMKG MKG20011108121014911/08/01 12:10:31  5-MIN KMKG 081710Z 32016G28KT 10SM SCT017 BKN028 OVC033 08/06 A3006 500 82 -100 320/16G28 RMK AO2 PK WND 32028/1702 CIG 023 RWY 14
14840KMKG MKG20011108121513411/08/01 12:15:31  5-MIN KMKG 081715Z 32018G27KT 10SM SCT019 SCT023 OVC028 08/05 A3006 500 79 -100 320/18G27 RMK AO2 PK WND 32028/1702
14840KMKG MKG20011108122013411/08/01 12:20:31  5-MIN KMKG 081720Z 31019G27KT 10SM SCT019 BKN028 OVC034 08/05 A3006 500 79 -100 320/19G27 RMK AO2 PK WND 32028/1702
14840KMKG MKG20011108122513411/08/01 12:25:31  5-MIN KMKG 081725Z 31021G26KT 10SM SCT021 BKN030 OVC034 08/06 A3007 490 82 -100 320/21G26 RMK AO2 PK WND 32028/1702
14840KMKG MKG20011108123012711/08/01 12:30:31  5-MIN KMKG 081730Z 32022G26KT 10SM FEW021 OVC033 08/05 A3007 490 79 -100 320/22G26 RMK AO2 PK WND 32028/1702
14840KMKG MKG20011108123513411/08/01 12:35:31  5-MIN KMKG 081735Z 32019G29KT 10SM FEW021 BKN029 OVC037 08/05 A3007 490 79 -100 320/19G29 RMK AO2 PK WND 33029/1734
14840KMKG MKG20011108124013411/08/01 12:40:31  5-MIN KMKG 081740Z 31019G29KT 10SM FEW023 BKN029 OVC037 08/04 A3007 490 76 -100 310/19G29 RMK AO2 PK WND 33029/1734
14840KMKG MKG20011108124512711/08/01 12:45:31  5-MIN KMKG 081745Z 31024G31KT 10SM FEW023 OVC034 08/04 A3007 490 79 -200 320/24G31 RMK AO2 PK WND 31031/1745
14840KMKG MKG20011108125018411/08/01 12:50:31  5-MIN KMKG 081750Z 31021G31KT 10SM -RA FEW023 OVC034 08/04 A3008 490 79 -200 310/21G31 RMK AO2 PK WND 31031/1745 RAB50 SLP187 P0000 60007 T00780044 10133 20078 53021
14840KMKG MKG20011108125518411/08/01 12:55:31  5-MIN KMKG 081755Z 31018G29KT 10SM -RA SCT023 OVC034 08/04 A3008 490 79 -200 320/18G29 RMK AO2 PK WND 31031/1745 RAB50 SLP187 P0000 60007 T00780044 10133 20078 51038
14840KMKG MKG20011108130013711/08/01 13:00:31  5-MIN KMKG 081800Z 31020G32KT 10SM -RA FEW023 OVC034 08/04 A3008 480 76 -200 320/20G32 RMK AO2 PK WND 31032/1756 P0000
14840KMKG MKG20011108130514611/08/01 13:05:31  5-MIN KMKG 081805Z 31019G32KT 10SM FEW023 BKN032 OVC038 08/04 A3008 480 76 -200 320/19G32 RMK AO2 PK WND 31032/1756 RAE01 P0000
14840KMKG MKG20011108131014611/08/01 13:10:31  5-MIN KMKG 081810Z 31021G28KT 10SM FEW023 BKN032 OVC050 08/04 A3008 480 73 -100 320/21G28 RMK AO2 PK WND 31032/1756 RAE01 P0000
14840KMKG MKG20011108131514611/08/01 13:15:31  5-MIN KMKG 081815Z 31022G27KT 10SM FEW023 BKN031 OVC055 08/04 A3008 480 73 -100 320/22G27 RMK AO2 PK WND 31032/1756 RAE01 P0000
14840KMKG MKG20011108132013911/08/01 13:20:31  5-MIN KMKG 081820Z 31023G28KT 10SM SCT025 OVC034 08/04 A3009 470 73 -100 320/23G28 RMK AO2 PK WND 31032/1756 RAE01 P0000
14840KMKG MKG20011108132513911/08/01 13:25:31  5-MIN KMKG 081825Z 31023G32KT 10SM SCT027 OVC034 08/03 A3009 470 73 -200 320/23G32 RMK AO2 PK WND 30032/1823 RAE01 P0000
14840KMKG MKG20011108133013911/08/01 13:30:31  5-MIN KMKG 081830Z 31020G32KT 10SM SCT027 OVC036 08/03 A3009 470 73 -200 310/20G32 RMK AO2 PK WND 32032/1827 RAE01 P0000
14840KMKG MKG20011108133513911/08/01 13:35:31  5-MIN KMKG 081835Z 32020G32KT 10SM SCT027 OVC036 08/03 A3010 460 73 -200 320/20G32 RMK AO2 PK WND 32032/1827 RAE01 P0000
14840KMKG MKG20011108134015411/08/01 13:40:31  5-MIN KMKG 081840Z 31024G32KT 10SM SCT027 OVC034 08/03 A3010 460 70 -200 310/24G32 RMK AO2 PK WND 30032/1838 RAE01 CIG 026 RWY 14 P0000
14840KMKG MKG20011108134513911/08/01 13:45:31  5-MIN KMKG 081845Z 32019G32KT 10SM SCT027 OVC034 08/03 A3011 460 70 -200 320/19G32 RMK AO2 PK WND 30032/1838 RAE01 P0000
14840KMKG MKG20011108135015611/08/01 13:50:31  5-MIN KMKG 081850Z 32014G26KT 10SM BKN028 OVC035 08/03 A3011 450 68 -100 320/14G26 RMK AO2 PK WND 30032/1838 RAE01 SLP199 P0000 T00830028
14840KMKG MKG20011108135515611/08/01 13:55:31  5-MIN KMKG 081855Z 31024G31KT 10SM SCT028 OVC036 08/02 A3011 450 65 -100 320/24G31 RMK AO2 PK WND 30032/1838 RAE01 SLP199 P0000 T00830022
14840KMKG MKG20011108140012711/08/01 14:00:31  5-MIN KMKG 081900Z 31024G31KT 10SM SCT029 OVC036 08/02 A3012 450 68 -200 310/24G31 RMK AO2 PK WND 31031/1900
14840KMKG MKG20011108140512011/08/01 14:05:31  5-MIN KMKG 081905Z 32022G31KT 10SM OVC034 08/02 A3012 440 68 -200 320/22G31 RMK AO2 PK WND 31031/1901
14840KMKG MKG20011108141012711/08/01 14:10:31  5-MIN KMKG 081910Z 31021G31KT 10SM BKN034 OVC040 08/02 A3012 450 68 -200 320/21G31 RMK AO2 PK WND 31031/1901
14840KMKG MKG20011108141512711/08/01 14:15:31  5-MIN KMKG 081915Z 32024G32KT 10SM BKN034 OVC042 08/02 A3013 440 68 -200 320/24G32 RMK AO2 PK WND 31032/1913
14840KMKG MKG20011108142012711/08/01 14:20:31  5-MIN KMKG 081920Z 31025G33KT 10SM BKN034 OVC042 08/02 A3013 440 68 -200 320/25G33 RMK AO2 PK WND 32033/1920
14840KMKG MKG20011108142512711/08/01 14:25:31  5-MIN KMKG 081925Z 32026G33KT 10SM SCT034 OVC044 08/02 A3013 430 68 -200 320/26G33 RMK AO2 PK WND 32033/1920
14840KMKG MKG20011108143012711/08/01 14:30:31  5-MIN KMKG 081930Z 32022G32KT 10SM SCT034 OVC046 07/02 A3013 440 70 -300 320/22G32 RMK AO2 PK WND 32033/1920
14840KMKG MKG20011108143512711/08/01 14:35:31  5-MIN KMKG 081935Z 31024G36KT 10SM FEW034 OVC046 08/02 A3014 430 65 -200 320/24G36 RMK AO2 PK WND 33036/1933
14840KMKG MKG20011108144012711/08/01 14:40:31  5-MIN KMKG 081940Z 31025G36KT 10SM FEW038 BKN050 08/02 A3014 430 65 -200 310/25G36 RMK AO2 PK WND 33036/1933
14840KMKG MKG20011108144512011/08/01 14:45:31  5-MIN KMKG 081945Z 32022G32KT 10SM BKN048 08/02 A3014 420 63 -200 320/22G32 RMK AO2 PK WND 33036/1933
14840KMKG MKG20011108145014411/08/01 14:50:31  5-MIN KMKG 081950Z 31021G30KT 10SM FEW030 BKN047 08/02 A3014 420 65 -200 320/21G30 RMK AO2 PK WND 33036/1933 SLP209 T00830022
14840KMKG MKG20011108145515111/08/01 14:55:31  5-MIN KMKG 081955Z 32024G34KT 10SM SCT030 SCT042 BKN049 08/02 A3015 420 65 -300 330/24G34 RMK AO2 PK WND 33036/1933 SLP211 T00780017
14840KMKG MKG20011108150014211/08/01 15:00:31  5-MIN KMKG 082000Z 34022G34KT 10SM SCT033 BKN049 08/02 A3016 410 63 -200 340/22G34 RMK AO2 PK WND 33031/1959 CIG 035 RWY 14
14840KMKG MKG20011108150512711/08/01 15:05:31  5-MIN KMKG 082005Z 32024G32KT 10SM BKN035 BKN049 08/01 A3015 410 62 -300 320/24G32 RMK AO2 PK WND 31032/2004
14840KMKG MKG20011108151013411/08/01 15:10:31  5-MIN KMKG 082010Z 33018G32KT 10SM BKN035 BKN042 BKN049 07/01 A3017 400 65 -300 340/18G32 RMK AO2 PK WND 31032/2004
14840KMKG MKG20011108151514111/08/01 15:15:31  5-MIN KMKG 082015Z 34022G27KT 10SM BKN035 BKN042 OVC049 07/01 A3018 390 62 -400 340/22G27 RMK AO2 PK WND 31032/2004 PRESRR
14840KMKG MKG20011108152012711/08/01 15:20:31  5-MIN KMKG 082020Z 32023G31KT 10SM BKN035 OVC042 08/01 A3016 410 60 -300 330/23G31 RMK AO2 PK WND 31032/2004
14840KMKG MKG20011108152512711/08/01 15:25:31  5-MIN KMKG 082025Z 33020G31KT 10SM BKN037 OVC048 08/00 A3018 390 58 -300 330/20G31 RMK AO2 PK WND 31032/2004
14840KMKG MKG20011108153012711/08/01 15:30:31  5-MIN KMKG 082030Z 32020G30KT 10SM BKN038 OVC046 08/00 A3018 390 58 -300 320/20G30 RMK AO2 PK WND 31032/2004
14840KMKG MKG20011108153512711/08/01 15:35:31  5-MIN KMKG 082035Z 31023G28KT 10SM BKN038 OVC046 08/00 A3017 400 58 -300 320/23G28 RMK AO2 PK WND 31032/2004
14840KMKG MKG20011108154012811/08/01 15:40:31  5-MIN KMKG 082040Z 32024G33KT 10SM BKN038 OVC046 07/M01 A3019 380 60 -400 320/24G33 RMK AO2 PK WND 32033/2036
14840KMKG MKG20011108154512811/08/01 15:45:31  5-MIN KMKG 082045Z 32024G33KT 10SM BKN038 OVC046 07/M01 A3019 390 60 -400 330/24G33 RMK AO2 PK WND 32033/2036
14840KMKG MKG20011108155015011/08/01 15:50:31  5-MIN KMKG 082050Z 33022G30KT 10SM OVC041 07/M01 A3020 380 60 -400 330/22G30 RMK AO2 PK WND 32033/2036 SLP228 60000 T00671006 51038
14840KMKG MKG20011108155515011/08/01 15:55:31  5-MIN KMKG 082055Z 32021G26KT 10SM OVC041 07/M01 A3020 380 60 -400 330/21G26 RMK AO2 PK WND 32033/2036 SLP228 60000 T00671006 53040
14840KMKG MKG20011108160012111/08/01 16:00:31  5-MIN KMKG 082100Z 33016G26KT 10SM OVC041 07/M01 A3020 370 60 -500 330/16G26 RMK AO2 PK WND 32026/2056
14840KMKG MKG20011108160512111/08/01 16:05:31  5-MIN KMKG 082105Z 33018G26KT 10SM OVC041 07/M01 A3021 360 60 -500 330/18G26 RMK AO2 PK WND 33026/2101
14840KMKG MKG20011108161012111/08/01 16:10:31  5-MIN KMKG 082110Z 34016G26KT 10SM OVC041 06/M01 A3021 360 62 -500 340/16G26 RMK AO2 PK WND 33026/2101
14840KMKG MKG20011108161512811/08/01 16:15:31  5-MIN KMKG 082115Z 34022G28KT 10SM OVC041 06/M01 A3022 350 62 -500 340/22G28 RMK AO2 PK WND 33028/2114 PRESRR
14840KMKG MKG20011108162012111/08/01 16:20:31  5-MIN KMKG 082120Z 34022G28KT 10SM OVC041 06/M01 A3022 350 60 -500 340/22G28 RMK AO2 PK WND 33028/2114
14840KMKG MKG20011108162512111/08/01 16:25:31  5-MIN KMKG 082125Z 34022G30KT 10SM OVC041 06/M01 A3023 350 60 -600 340/22G30 RMK AO2 PK WND 35030/2125
14840KMKG MKG20011108163012111/08/01 16:30:31  5-MIN KMKG 082130Z 33019G30KT 10SM OVC039 06/M01 A3023 350 60 -600 330/19G30 RMK AO2 PK WND 35030/2125
14840KMKG MKG20011108163512111/08/01 16:35:31  5-MIN KMKG 082135Z 33015G25KT 10SM OVC041 06/M01 A3023 340 60 -600 340/15G25 RMK AO2 PK WND 35030/2125
14840KMKG MKG20011108164012111/08/01 16:40:31  5-MIN KMKG 082140Z 33018G26KT 10SM OVC041 06/M01 A3024 330 62 -600 330/18G26 RMK AO2 PK WND 35030/2125
14840KMKG MKG20011108164512111/08/01 16:45:31  5-MIN KMKG 082145Z 33016G26KT 10SM OVC041 06/M01 A3024 340 60 -600 340/16G26 RMK AO2 PK WND 35030/2125
14840KMKG MKG20011108165013811/08/01 16:50:31  5-MIN KMKG 082150Z 33019G24KT 10SM OVC041 06/M01 A3024 340 62 -600 340/19G24 RMK AO2 PK WND 35030/2125 SLP243 T00611006
14840KMKG MKG20011108165513811/08/01 16:55:31  5-MIN KMKG 082155Z 34018G23KT 10SM OVC041 06/M01 A3025 330 62 -600 350/18G23 RMK AO2 PK WND 35030/2125 SLP246 T00561011
14840KMKG MKG20011108170010311/08/01 17:00:31  5-MIN KMKG 082200Z 34019G24KT 10SM OVC041 06/M01 A3025 320 62 -600 340/19G24 RMK AO2
14840KMKG MKG20011108170512111/08/01 17:05:31  5-MIN KMKG 082205Z 32021G27KT 10SM OVC041 06/M01 A3024 330 62 -600 330/21G27 RMK AO2 PK WND 31027/2203
14840KMKG MKG20011108171012811/08/01 17:10:31  5-MIN KMKG 082210Z 34017G27KT 10SM OVC041 06/M01 A3026 310 62 -700 340/17G27 RMK AO2 PK WND 31027/2203 PRESRR
14840KMKG MKG20011108171512111/08/01 17:15:31  5-MIN KMKG 082215Z 33022G27KT 10SM OVC041 06/M02 A3026 320 59 -700 330/22G27 RMK AO2 PK WND 32027/2214
14840KMKG MKG20011108172012111/08/01 17:20:31  5-MIN KMKG 082220Z 33021G27KT 10SM OVC041 06/M02 A3026 320 59 -700 340/21G27 RMK AO2 PK WND 32027/2214
14840KMKG MKG20011108172512111/08/01 17:25:31  5-MIN KMKG 082225Z 33016G29KT 10SM OVC041 06/M02 A3026 310 57 -700 330/16G29 RMK AO2 PK WND 33029/2221
14840KMKG MKG20011108173012111/08/01 17:30:31  5-MIN KMKG 082230Z 33019G29KT 10SM OVC041 06/M02 A3027 310 59 -700 330/19G29 RMK AO2 PK WND 33029/2221
14840KMKG MKG20011108173512111/08/01 17:35:31  5-MIN KMKG 082235Z 34016G25KT 10SM OVC041 06/M02 A3027 310 57 -700 340/16G25 RMK AO2 PK WND 33029/2221
14840KMKG MKG20011108174012111/08/01 17:40:31  5-MIN KMKG 082240Z 33015G25KT 10SM OVC038 05/M02 A3027 310 59 -700 340/15G25 RMK AO2 PK WND 33029/2221
14840KMKG MKG20011108174512111/08/01 17:45:31  5-MIN KMKG 082245Z 33014G22KT 10SM OVC038 05/M02 A3028 300 62 -700 340/14G22 RMK AO2 PK WND 33029/2221
14840KMKG MKG20011108175013811/08/01 17:50:31  5-MIN KMKG 082250Z 33018G22KT 10SM OVC038 05/M02 A3028 300 62 -800 330/18G22 RMK AO2 PK WND 33029/2221 SLP257 T00501017
14840KMKG MKG20011108175513811/08/01 17:55:31  5-MIN KMKG 082255Z 32014G22KT 10SM OVC038 05/M02 A3028 300 62 -700 330/14G22 RMK AO2 PK WND 33029/2221 SLP257 T00501017
14840KMKG MKG20011108180010311/08/01 18:00:31  5-MIN KMKG 082300Z 33014G20KT 10SM OVC038 05/M02 A3029 290 62 -800 330/14G20 RMK AO2
14840KMKG MKG20011108180509711/08/01 18:05:31  5-MIN KMKG 082305Z 32019KT 10SM OVC038 05/M02 A3029 290 62 -800 320/19 RMK AO2
14840KMKG MKG20011108181009711/08/01 18:10:31  5-MIN KMKG 082310Z 33017KT 10SM OVC038 05/M02 A3029 290 62 -800 330/17 RMK AO2
14840KMKG MKG20011108181509711/08/01 18:15:31  5-MIN KMKG 082315Z 33016KT 10SM OVC038 05/M01 A3030 280 64 -800 340/16 RMK AO2
14840KMKG MKG20011108182009711/08/01 18:20:31  5-MIN KMKG 082320Z 34014KT 10SM OVC036 05/M01 A3030 280 64 -800 350/14 RMK AO2
14840KMKG MKG20011108182510311/08/01 18:25:31  5-MIN KMKG 082325Z 33013G20KT 10SM OVC036 05/M02 A3030 280 62 -800 330/13G20 RMK AO2
14840KMKG MKG20011108183010311/08/01 18:30:31  5-MIN KMKG 082330Z 34013G20KT 10SM OVC036 05/M01 A3031 270 64 -800 350/13G20 RMK AO2
14840KMKG MKG20011108183510311/08/01 18:35:31  5-MIN KMKG 082335Z 34013G20KT 10SM OVC036 05/M02 A3031 270 62 -800 350/13G20 RMK AO2
14840KMKG MKG20011108184009711/08/01 18:40:31  5-MIN KMKG 082340Z 35013KT 10SM OVC036 05/M02 A3032 270 62 -800 360/13 RMK AO2
14840KMKG MKG20011108184510311/08/01 18:45:31  5-MIN KMKG 082345Z 35011G18KT 10SM OVC036 05/M02 A3032 260 62 -800 350/11G18 RMK AO2
14840KMKG MKG20011108185013811/08/01 18:50:31  5-MIN KMKG 082350Z 34012KT 10SM OVC036 05/M02 A3032 260 62 -800 340/12 RMK AO2 SLP270 60000 T00501017 10083 20050 53040
14840KMKG MKG20011108185516011/08/01 18:55:31  5-MIN KMKG 082355Z 35017G21KT 320V020 10SM OVC038 05/M02 A3032 260 59 -800 350/17G21 320V020 RMK AO2 SLP271 60000 T00501022 10083 20050 51042
14840KMKG MKG20011108190010311/08/01 19:00:31  5-MIN KMKG 090000Z 34015G21KT 10SM OVC038 05/M02 A3033 260 59 -800 350/15G21 RMK AO2
14840KMKG MKG20011108190510311/08/01 19:05:31  5-MIN KMKG 090005Z 34012G19KT 10SM OVC038 05/M02 A3033 260 59 -800 350/12G19 RMK AO2
14840KMKG MKG20011108191009711/08/01 19:10:31  5-MIN KMKG 090010Z 34010KT 10SM OVC038 05/M02 A3033 250 59 -800 350/10 RMK AO2
14840KMKG MKG20011108191509711/08/01 19:15:31  5-MIN KMKG 090015Z 34010KT 10SM OVC038 04/M02 A3033 250 62 -900 340/10 RMK AO2
14840KMKG MKG20011108192009711/08/01 19:20:31  5-MIN KMKG 090020Z 32013KT 10SM OVC038 04/M02 A3033 250 62 -900 330/13 RMK AO2
14840KMKG MKG20011108192510311/08/01 19:25:31  5-MIN KMKG 090025Z 31013G18KT 10SM OVC038 05/M02 A3033 250 59 -800 320/13G18 RMK AO2
14840KMKG MKG20011108193010311/08/01 19:30:31  5-MIN KMKG 090030Z 33013G18KT 10SM OVC038 05/M02 A3033 260 62 -800 330/13G18 RMK AO2
14840KMKG MKG20011108193509711/08/01 19:35:31  5-MIN KMKG 090035Z 34014KT 10SM OVC038 05/M02 A3033 250 59 -800 340/14 RMK AO2
14840KMKG MKG20011108194009711/08/01 19:40:31  5-MIN KMKG 090040Z 35013KT 10SM OVC038 05/M02 A3033 250 59 -800 350/13 RMK AO2
14840KMKG MKG20011108194509711/08/01 19:45:31  5-MIN KMKG 090045Z 33012KT 10SM OVC038 05/M02 A3034 250 59 -800 340/12 RMK AO2
14840KMKG MKG20011108195011411/08/01 19:50:31  5-MIN KMKG 090050Z 33011KT 10SM OVC038 04/M02 A3034 240 62 -900 330/11 RMK AO2 SLP277 T00441022
14840KMKG MKG20011108195511411/08/01 19:55:31  5-MIN KMKG 090055Z 32012KT 10SM OVC038 04/M02 A3034 240 62 -900 330/12 RMK AO2 SLP278 T00441022
14840KMKG MKG20011108200010311/08/01 20:00:31  5-MIN KMKG 090100Z 33012G17KT 10SM OVC038 04/M02 A3034 240 62 -900 330/12G17 RMK AO2
14840KMKG MKG20011108200509711/08/01 20:05:31  5-MIN KMKG 090105Z 32013KT 10SM OVC038 05/M02 A3034 240 59 -800 330/13 RMK AO2
14840KMKG MKG20011108201009711/08/01 20:10:31  5-MIN KMKG 090110Z 33009KT 10SM OVC038 05/M02 A3034 240 59 -800 330/09 RMK AO2
14840KMKG MKG20011108201509711/08/01 20:15:31  5-MIN KMKG 090115Z 33010KT 10SM OVC038 05/M02 A3035 240 59 -800 330/10 RMK AO2
14840KMKG MKG20011108202009711/08/01 20:20:31  5-MIN KMKG 090120Z 32009KT 10SM OVC036 05/M02 A3035 240 62 -800 320/09 RMK AO2
14840KMKG MKG20011108202509711/08/01 20:25:31  5-MIN KMKG 090125Z 33009KT 10SM OVC036 04/M02 A3035 240 64 -900 340/09 RMK AO2
14840KMKG MKG20011108203009711/08/01 20:30:31  5-MIN KMKG 090130Z 32010KT 10SM OVC036 05/M02 A3035 240 62 -800 330/10 RMK AO2
14840KMKG MKG20011108203509711/08/01 20:35:31  5-MIN KMKG 090135Z 32011KT 10SM OVC036 05/M02 A3035 240 59 -800 320/11 RMK AO2
14840KMKG MKG20011108204010311/08/01 20:40:31  5-MIN KMKG 090140Z 34014G17KT 10SM OVC038 05/M02 A3036 230 59 -800 340/14G17 RMK AO2
14840KMKG MKG20011108204510311/08/01 20:45:31  5-MIN KMKG 090145Z 34010G17KT 10SM OVC038 05/M02 A3036 230 62 -800 350/10G17 RMK AO2
14840KMKG MKG20011108205011411/08/01 20:50:31  5-MIN KMKG 090150Z 33010KT 10SM OVC038 05/M02 A3036 220 62 -800 340/10 RMK AO2 SLP286 T00501017
14840KMKG MKG20011108205511411/08/01 20:55:31  5-MIN KMKG 090155Z 34010KT 10SM OVC038 05/M02 A3036 220 59 -800 340/10 RMK AO2 SLP286 T00501022
14840KMKG MKG20011108210009711/08/01 21:00:31  5-MIN KMKG 090200Z 33009KT 10SM OVC038 05/M02 A3036 230 59 -800 340/09 RMK AO2
14840KMKG MKG20011108210509711/08/01 21:05:31  5-MIN KMKG 090205Z 34009KT 10SM OVC038 05/M02 A3036 230 59 -800 340/09 RMK AO2
14840KMKG MKG20011108211009711/08/01 21:10:31  5-MIN KMKG 090210Z 33010KT 10SM OVC036 05/M02 A3036 230 62 -800 330/10 RMK AO2
14840KMKG MKG20011108211509711/08/01 21:15:31  5-MIN KMKG 090215Z 33008KT 10SM OVC036 04/M02 A3036 220 64 -900 330/08 RMK AO2
14840KMKG MKG20011108212010311/08/01 21:20:31  5-MIN KMKG 090220Z 33010G16KT 10SM OVC036 04/M02 A3036 220 64 -900 340/10G16 RMK AO2
14840KMKG MKG20011108212510311/08/01 21:25:31  5-MIN KMKG 090225Z 33011G16KT 10SM OVC036 04/M02 A3037 220 62 -900 340/11G16 RMK AO2
14840KMKG MKG20011108213009711/08/01 21:30:31  5-MIN KMKG 090230Z 34010KT 10SM OVC036 04/M02 A3037 220 62 -900 340/10 RMK AO2
14840KMKG MKG20011108213509711/08/01 21:35:31  5-MIN KMKG 090235Z 34012KT 10SM OVC036 04/M02 A3037 210 62 -900 340/12 RMK AO2
14840KMKG MKG20011108214009711/08/01 21:40:31  5-MIN KMKG 090240Z 34012KT 10SM OVC036 04/M02 A3038 210 62 -900 340/12 RMK AO2
14840KMKG MKG20011108214509711/08/01 21:45:31  5-MIN KMKG 090245Z 33012KT 10SM OVC036 05/M02 A3038 210 59 -900 330/12 RMK AO2
14840KMKG MKG20011108215012011/08/01 21:50:31  5-MIN KMKG 090250Z 33012KT 10SM OVC036 04/M02 A3038 210 64 -900 340/12 RMK AO2 SLP292 T00441017 51042
14840KMKG MKG20011108215512011/08/01 21:55:31  5-MIN KMKG 090255Z 32015KT 10SM OVC036 05/M02 A3038 210 62 -900 330/15 RMK AO2 SLP291 T00501017 51019
14840KMKG MKG20011108220010311/08/01 22:00:31  5-MIN KMKG 090300Z 31015G20KT 10SM OVC034 05/M02 A3038 210 62 -900 320/15G20 RMK AO2
14840KMKG MKG20011108220510311/08/01 22:05:31  5-MIN KMKG 090305Z 33015G22KT 10SM OVC034 04/M02 A3039 200 62 -900 340/15G22 RMK AO2
14840KMKG MKG20011108221010311/08/01 22:10:31  5-MIN KMKG 090310Z 34015G22KT 10SM OVC036 04/M02 A3039 190 62 -900 340/15G22 RMK AO2
14840KMKG MKG20011108221509711/08/01 22:15:31  5-MIN KMKG 090315Z 33013KT 10SM OVC036 04/M02 A3039 200 62 -900 330/13 RMK AO2
14840KMKG MKG20011108222009711/08/01 22:20:31  5-MIN KMKG 090320Z 34012KT 10SM OVC036 04/M02 A3040 190 62 -900 340/12 RMK AO2
14840KMKG MKG20011108222510311/08/01 22:25:31  5-MIN KMKG 090325Z 35011G17KT 10SM OVC036 04/M02 A3039 200 62 -900 360/11G17 RMK AO2
14840KMKG MKG20011108223009711/08/01 22:30:31  5-MIN KMKG 090330Z 35010KT 10SM OVC036 04/M02 A3040 190 62 -900 350/10 RMK AO2
14840KMKG MKG20011108223509811/08/01 22:35:31  5-MIN KMKG 090335Z 33009KT 10SM OVC036 04/M02 A3040 190 62 -1000 330/09 RMK AO2
14840KMKG MKG20011108224009811/08/01 22:40:31  5-MIN KMKG 090340Z 33009KT 10SM OVC036 04/M02 A3040 190 62 -1000 340/09 RMK AO2
14840KMKG MKG20011108224509811/08/01 22:45:31  5-MIN KMKG 090345Z 34010KT 10SM OVC036 04/M02 A3040 190 62 -1000 340/10 RMK AO2
14840KMKG MKG20011108225011511/08/01 22:50:31  5-MIN KMKG 090350Z 35009KT 10SM OVC036 04/M02 A3040 190 62 -1000 350/09 RMK AO2 SLP298 T00441022
14840KMKG MKG20011108225511511/08/01 22:55:31  5-MIN KMKG 090355Z 34008KT 10SM OVC036 04/M02 A3040 190 64 -1000 340/08 RMK AO2 SLP299 T00441017
14840KMKG MKG20011108230009711/08/01 23:00:31  5-MIN KMKG 090400Z 34007KT 10SM OVC034 04/M02 A3039 190 64 -900 350/07 RMK AO2
14840KMKG MKG20011108230509711/08/01 23:05:31  5-MIN KMKG 090405Z 34007KT 10SM OVC034 04/M02 A3039 200 62 -900 340/07 RMK AO2
14840KMKG MKG20011108231009811/08/01 23:10:31  5-MIN KMKG 090410Z 33009KT 10SM OVC034 04/M02 A3040 190 64 -1000 330/09 RMK AO2
14840KMKG MKG20011108231509811/08/01 23:15:31  5-MIN KMKG 090415Z 32010KT 10SM OVC034 04/M02 A3040 190 62 -1000 320/10 RMK AO2
14840KMKG MKG20011108232009811/08/01 23:20:31  5-MIN KMKG 090420Z 32010KT 10SM OVC034 04/M02 A3040 190 64 -1000 330/10 RMK AO2
14840KMKG MKG20011108232509811/08/01 23:25:31  5-MIN KMKG 090425Z 33009KT 10SM OVC034 04/M02 A3040 190 64 -1000 330/09 RMK AO2
14840KMKG MKG20011108233009811/08/01 23:30:31  5-MIN KMKG 090430Z 33010KT 10SM OVC034 04/M02 A3040 190 62 -1000 330/10 RMK AO2
14840KMKG MKG20011108233509811/08/01 23:35:31  5-MIN KMKG 090435Z 33010KT 10SM OVC034 04/M02 A3040 190 62 -1000 330/10 RMK AO2
14840KMKG MKG20011108234009811/08/01 23:40:31  5-MIN KMKG 090440Z 33008KT 10SM OVC034 04/M02 A3040 190 64 -1000 340/08 RMK AO2
14840KMKG MKG20011108234509811/08/01 23:45:31  5-MIN KMKG 090445Z 35006KT 10SM OVC034 04/M02 A3040 190 62 -1000 350/06 RMK AO2
14840KMKG MKG20011108235012511/08/01 23:50:31  5-MIN KMKG 090450Z 33006KT 10SM OVC034 04/M02 A3040 190 64 -1000 330/06 RMK AO2 SLP300 T00441017 401440044
14840KMKG MKG20011108235512511/08/01 23:55:31  5-MIN KMKG 090455Z 35004KT 10SM OVC034 04/M02 A3040 190 64 -1000 350/04 RMK AO2 SLP299 T00441017 401440044
14840KMKG MKG20011109000009811/09/01 00:00:31  5-MIN KMKG 090500Z 33004KT 10SM OVC034 04/M01 A3040 190 67 -1000 340/04 RMK AO2
14840KMKG MKG20011109000509711/09/01 00:05:31  5-MIN KMKG 090505Z 32005KT 10SM OVC034 04/M02 A3040 190 64 -900 330/05 RMK AO2
14840KMKG MKG20011109001009711/09/01 00:10:31  5-MIN KMKG 090510Z 33006KT 10SM OVC034 04/M02 A3040 190 64 -900 330/06 RMK AO2
14840KMKG MKG20011109001509711/09/01 00:15:31  5-MIN KMKG 090515Z 33006KT 10SM OVC034 04/M02 A3039 200 64 -900 340/06 RMK AO2
14840KMKG MKG20011109002009711/09/01 00:20:31  5-MIN KMKG 090520Z 33005KT 10SM OVC034 04/M01 A3039 200 67 -900 330/05 RMK AO2
14840KMKG MKG20011109002509711/09/01 00:25:31  5-MIN KMKG 090525Z 33005KT 10SM OVC034 04/M01 A3039 190 67 -900 340/05 RMK AO2
14840KMKG MKG20011109003009711/09/01 00:30:31  5-MIN KMKG 090530Z 32004KT 10SM OVC034 04/M01 A3040 190 67 -900 330/04 RMK AO2
14840KMKG MKG20011109003509811/09/01 00:35:31  5-MIN KMKG 090535Z 32006KT 10SM OVC034 04/M01 A3040 190 67 -1000 320/06 RMK AO2
14840KMKG MKG20011109004009711/09/01 00:40:31  5-MIN KMKG 090540Z 32009KT 10SM OVC034 04/M02 A3040 190 64 -900 320/09 RMK AO2
14840KMKG MKG20011109004509711/09/01 00:45:31  5-MIN KMKG 090545Z 32009KT 10SM OVC034 04/M02 A3039 190 64 -900 320/09 RMK AO2
14840KMKG MKG20011109005013211/09/01 00:50:31  5-MIN KMKG 090550Z 32008KT 10SM OVC034 04/M02 A3039 200 62 -900 330/08 RMK AO2 SLP296 T00441022 10050 20044 51019
14840KMKG MKG20011109005513211/09/01 00:55:31  5-MIN KMKG 090555Z 32006KT 10SM OVC034 04/M02 A3039 200 64 -900 330/06 RMK AO2 SLP295 T00441017 10050 20044 50003
14840KMKG MKG20011109010009811/09/01 01:00:31  5-MIN KMKG 090600Z 32006KT 10SM BKN034 04/M02 A3039 200 67 -1000 320/06 RMK AO2
14840KMKG MKG20011109010509811/09/01 01:05:31  5-MIN KMKG 090605Z 33007KT 10SM BKN034 04/M02 A3039 200 67 -1000 330/07 RMK AO2
14840KMKG MKG20011109011009811/09/01 01:10:31  5-MIN KMKG 090610Z 33007KT 10SM BKN034 04/M02 A3039 200 67 -1000 340/07 RMK AO2
14840KMKG MKG20011109011509811/09/01 01:15:31  5-MIN KMKG 090615Z 32007KT 10SM BKN034 04/M02 A3039 200 67 -1000 320/07 RMK AO2
14840KMKG MKG20011109012009811/09/01 01:20:31  5-MIN KMKG 090620Z 32005KT 10SM BKN034 04/M02 A3039 200 67 -1000 330/05 RMK AO2
14840KMKG MKG20011109012509811/09/01 01:25:31  5-MIN KMKG 090625Z 33005KT 10SM BKN034 03/M02 A3039 200 70 -1100 330/05 RMK AO2
14840KMKG MKG20011109013009811/09/01 01:30:31  5-MIN KMKG 090630Z 33005KT 10SM BKN034 03/M02 A3039 200 70 -1100 330/05 RMK AO2
14840KMKG MKG20011109013509811/09/01 01:35:31  5-MIN KMKG 090635Z 32004KT 10SM SCT034 03/M02 A3039 200 69 -1100 320/04 RMK AO2
14840KMKG MKG20011109014009811/09/01 01:40:31  5-MIN KMKG 090640Z 31004KT 10SM SCT034 03/M02 A3039 200 69 -1100 320/04 RMK AO2
14840KMKG MKG20011109014509811/09/01 01:45:31  5-MIN KMKG 090645Z 32004KT 10SM FEW034 03/M02 A3039 200 69 -1100 320/04 RMK AO2
14840KMKG MKG20011109015011511/09/01 01:50:31  5-MIN KMKG 090650Z 31004KT 10SM FEW034 03/M02 A3039 200 69 -1100 310/04 RMK AO2 SLP296 T00281022
14840KMKG MKG20011109015511511/09/01 01:55:31  5-MIN KMKG 090655Z 30003KT 10SM SCT032 03/M02 A3039 200 69 -1100 310/03 RMK AO2 SLP295 T00281022
14840KMKG MKG20011109020009811/09/01 02:00:31  5-MIN KMKG 090700Z 00000KT 10SM FEW032 02/M02 A3039 200 72 -1200 000/00 RMK AO2
14840KMKG MKG20011109020509811/09/01 02:05:31  5-MIN KMKG 090705Z 00000KT 10SM SCT032 03/M02 A3039 200 69 -1100 000/00 RMK AO2
14840KMKG MKG20011109021009811/09/01 02:10:31  5-MIN KMKG 090710Z 00000KT 10SM SCT032 02/M02 A3039 200 72 -1200 000/00 RMK AO2
14840KMKG MKG20011109021509811/09/01 02:15:31  5-MIN KMKG 090715Z 00000KT 10SM SCT032 02/M02 A3039 200 72 -1200 000/00 RMK AO2
14840KMKG MKG20011109022009811/09/01 02:20:31  5-MIN KMKG 090720Z 00000KT 10SM SCT032 03/M02 A3039 200 72 -1100 000/00 RMK AO2
14840KMKG MKG20011109022509811/09/01 02:25:31  5-MIN KMKG 090725Z 00000KT 10SM FEW032 02/M02 A3039 200 72 -1200 000/00 RMK AO2
14840KMKG MKG20011109023009811/09/01 02:30:31  5-MIN KMKG 090730Z 00000KT 10SM FEW032 02/M02 A3039 200 75 -1300 000/00 RMK AO2
14840KMKG MKG20011109023509811/09/01 02:35:31  5-MIN KMKG 090735Z 00000KT 10SM FEW030 01/M02 A3039 200 78 -1400 000/00 RMK AO2
14840KMKG MKG20011109024009811/09/01 02:40:31  5-MIN KMKG 090740Z 00000KT 10SM FEW030 01/M02 A3039 200 82 -1400 000/00 RMK AO2
14840KMKG MKG20011109024509511/09/01 02:45:31  5-MIN KMKG 090745Z 00000KT 10SM CLR 00/M02 A3038 200 85 -1500 000/00 RMK AO2
14840KMKG MKG20011109025011211/09/01 02:50:31  5-MIN KMKG 090750Z 00000KT 10SM CLR 00/M02 A3038 200 85 -1500 000/00 RMK AO2 SLP295 T00001022
14840KMKG MKG20011109025511211/09/01 02:55:31  5-MIN KMKG 090755Z 00000KT 10SM CLR 00/M02 A3038 210 85 -1500 000/00 RMK AO2 SLP295 T00001022
14840KMKG MKG20011109030009511/09/01 03:00:31  5-MIN KMKG 090800Z 00000KT 10SM CLR 00/M02 A3038 210 85 -1500 000/00 RMK AO2
14840KMKG MKG20011109030509911/09/01 03:05:31  5-MIN KMKG 090805Z 00000KT 10SM FEW030 M01/M02 A3038 200 92 -1600 000/00 RMK AO2
14840KMKG MKG20011109031009911/09/01 03:10:31  5-MIN KMKG 090810Z 00000KT 10SM FEW030 M01/M02 A3038 210 88 -1600 000/00 RMK AO2
14840KMKG MKG20011109031509911/09/01 03:15:31  5-MIN KMKG 090815Z 21003KT 10SM FEW030 M01/M02 A3038 210 88 -1600 220/03 RMK AO2
14840KMKG MKG20011109032009911/09/01 03:20:31  5-MIN KMKG 090820Z 21003KT 10SM FEW030 M01/M02 A3038 200 92 -1600 220/03 RMK AO2
14840KMKG MKG20011109032509911/09/01 03:25:31  5-MIN KMKG 090825Z 00000KT 10SM SCT030 M01/M02 A3038 210 88 -1600 000/00 RMK AO2
14840KMKG MKG20011109033009911/09/01 03:30:31  5-MIN KMKG 090830Z 00000KT 10SM FEW030 M01/M02 A3038 210 88 -1600 000/00 RMK AO2
14840KMKG MKG20011109033509911/09/01 03:35:31  5-MIN KMKG 090835Z 00000KT 10SM FEW030 M01/M02 A3038 210 88 -1600 000/00 RMK AO2
14840KMKG MKG20011109034009811/09/01 03:40:31  5-MIN KMKG 090840Z 00000KT 10SM FEW030 00/M02 A3038 210 85 -1500 000/00 RMK AO2
14840KMKG MKG20011109034509911/09/01 03:45:31  5-MIN KMKG 090845Z 00000KT 10SM FEW030 M01/M02 A3038 210 88 -1600 000/00 RMK AO2
14840KMKG MKG20011109035012211/09/01 03:50:31  5-MIN KMKG 090850Z 00000KT 10SM FEW030 M01/M02 A3037 220 92 -1600 000/00 RMK AO2 SLP291 T10111022 50003
14840KMKG MKG20011109035512211/09/01 03:55:31  5-MIN KMKG 090855Z 00000KT 10SM FEW030 M01/M02 A3037 220 92 -1600 000/00 RMK AO2 SLP289 T10111022 58007
14840KMKG MKG20011109040009911/09/01 04:00:31  5-MIN KMKG 090900Z 00000KT 10SM FEW030 M01/M03 A3037 220 88 -1600 000/00 RMK AO2
14840KMKG MKG20011109040509911/09/01 04:05:31  5-MIN KMKG 090905Z 13003KT 10SM FEW030 M01/M02 A3036 220 92 -1600 140/03 RMK AO2
14840KMKG MKG20011109041009611/09/01 04:10:31  5-MIN KMKG 090910Z 14003KT 10SM CLR M01/M02 A3037 220 92 -1600 150/03 RMK AO2
14840KMKG MKG20011109041509611/09/01 04:15:31  5-MIN KMKG 090915Z 13003KT 10SM CLR M01/M02 A3036 220 88 -1500 130/03 RMK AO2
14840KMKG MKG20011109042009611/09/01 04:20:31  5-MIN KMKG 090920Z 00000KT 10SM CLR M01/M02 A3036 220 88 -1500 000/00 RMK AO2
14840KMKG MKG20011109042509611/09/01 04:25:31  5-MIN KMKG 090925Z 00000KT 10SM CLR M01/M02 A3037 220 92 -1600 000/00 RMK AO2
14840KMKG MKG20011109043009611/09/01 04:30:31  5-MIN KMKG 090930Z 00000KT 10SM CLR M01/M02 A3037 220 92 -1600 000/00 RMK AO2
14840KMKG MKG20011109043509911/09/01 04:35:31  5-MIN KMKG 090935Z 00000KT 10SM FEW027 M01/M02 A3037 220 88 -1500 000/00 RMK AO2
14840KMKG MKG20011109044009611/09/01 04:40:31  5-MIN KMKG 090940Z 15003KT 10SM CLR M01/M02 A3036 230 92 -1600 150/03 RMK AO2
14840KMKG MKG20011109044509611/09/01 04:45:31  5-MIN KMKG 090945Z 00000KT 10SM CLR M01/M03 A3036 220 88 -1600 000/00 RMK AO2
14840KMKG MKG20011109045011311/09/01 04:50:31  5-MIN KMKG 090950Z 00000KT 10SM CLR M01/M03 A3036 220 88 -1600 000/00 RMK AO2 SLP288 T10111028
14840KMKG MKG20011109045511311/09/01 04:55:31  5-MIN KMKG 090955Z 00000KT 10SM CLR M01/M02 A3036 220 92 -1600 000/00 RMK AO2 SLP289 T10111022
14840KMKG MKG20011109050009911/09/01 05:00:31  5-MIN KMKG 091000Z 12004KT 10SM FEW027 M01/M03 A3036 220 88 -1600 120/04 RMK AO2
14840KMKG MKG20011109050509911/09/01 05:05:31  5-MIN KMKG 091005Z 12004KT 10SM FEW027 M01/M03 A3036 220 88 -1600 120/04 RMK AO2
14840KMKG MKG20011109051009911/09/01 05:10:31  5-MIN KMKG 091010Z 11004KT 10SM FEW027 M02/M03 A3036 230 92 -1700 110/04 RMK AO2
14840KMKG MKG20011109051509911/09/01 05:15:31  5-MIN KMKG 091015Z 10003KT 10SM SCT027 M01/M03 A3036 220 88 -1600 110/03 RMK AO2
14840KMKG MKG20011109052009911/09/01 05:20:31  5-MIN KMKG 091020Z 10003KT 10SM SCT027 M01/M03 A3036 220 88 -1600 100/03 RMK AO2
14840KMKG MKG20011109052509911/09/01 05:25:31  5-MIN KMKG 091025Z 11004KT 10SM SCT027 M01/M03 A3036 230 88 -1600 120/04 RMK AO2
14840KMKG MKG20011109053009911/09/01 05:30:31  5-MIN KMKG 091030Z 12004KT 10SM FEW027 M02/M03 A3036 230 92 -1700 130/04 RMK AO2
14840KMKG MKG20011109053509911/09/01 05:35:31  5-MIN KMKG 091035Z 13004KT 10SM FEW027 M02/M03 A3036 230 92 -1700 140/04 RMK AO2
14840KMKG MKG20011109054009911/09/01 05:40:31  5-MIN KMKG 091040Z 13003KT 10SM FEW027 M01/M02 A3036 230 92 -1600 130/03 RMK AO2
14840KMKG MKG20011109054509911/09/01 05:45:31  5-MIN KMKG 091045Z 13004KT 10SM FEW027 M02/M03 A3035 230 92 -1700 130/04 RMK AO2
14840KMKG MKG20011109055011611/09/01 05:50:31  5-MIN KMKG 091050Z 12003KT 10SM FEW027 M02/M03 A3036 230 92 -1700 130/03 RMK AO2 SLP286 T10171028
14840KMKG MKG20011109055511611/09/01 05:55:31  5-MIN KMKG 091055Z 00000KT 10SM FEW027 M02/M03 A3036 230 92 -1700 000/00 RMK AO2 SLP286 T10171028
14840KMKG MKG20011109060009911/09/01 06:00:31  5-MIN KMKG 091100Z 12003KT 10SM FEW027 M02/M03 A3035 230 92 -1700 120/03 RMK AO2
14840KMKG MKG20011109060509911/09/01 06:05:31  5-MIN KMKG 091105Z 00000KT 10SM FEW027 M02/M03 A3035 230 92 -1700 000/00 RMK AO2
14840KMKG MKG20011109061009911/09/01 06:10:31  5-MIN KMKG 091110Z 11004KT 10SM FEW027 M02/M03 A3035 230 88 -1700 120/04 RMK AO2
14840KMKG MKG20011109061509911/09/01 06:15:31  5-MIN KMKG 091115Z 12004KT 10SM FEW027 M02/M03 A3035 240 92 -1700 120/04 RMK AO2
14840KMKG MKG20011109062009911/09/01 06:20:31  5-MIN KMKG 091120Z 13003KT 10SM FEW027 M02/M03 A3035 240 92 -1700 130/03 RMK AO2
14840KMKG MKG20011109062509911/09/01 06:25:31  5-MIN KMKG 091125Z 12003KT 10SM FEW029 M02/M03 A3035 240 92 -1700 120/03 RMK AO2
14840KMKG MKG20011109063009911/09/01 06:30:31  5-MIN KMKG 091130Z 12003KT 10SM FEW029 M02/M03 A3035 240 92 -1700 120/03 RMK AO2
14840KMKG MKG20011109063509911/09/01 06:35:31  5-MIN KMKG 091135Z 11004KT 10SM FEW029 M02/M04 A3035 240 88 -1700 120/04 RMK AO2
14840KMKG MKG20011109064009911/09/01 06:40:31  5-MIN KMKG 091140Z 13003KT 10SM FEW029 M02/M03 A3035 240 88 -1700 140/03 RMK AO2
14840KMKG MKG20011109064509911/09/01 06:45:31  5-MIN KMKG 091145Z 14003KT 10SM FEW029 M02/M03 A3035 240 88 -1700 140/03 RMK AO2
14840KMKG MKG20011109065014011/09/01 06:50:31  5-MIN KMKG 091150Z 00000KT 10SM SCT029 M02/M03 A3035 240 92 -1700 000/00 RMK AO2 SLP283 70007 T10221033 10044 21028 58007
14840KMKG MKG20011109065514011/09/01 06:55:31  5-MIN KMKG 091155Z VRB03KT 10SM SCT029 M02/M03 A3035 240 92 -1700 VRB/03 RMK AO2 SLP284 70007 T10221033 10044 21028 58006
14840KMKG MKG20011109070009911/09/01 07:00:31  5-MIN KMKG 091200Z 19004KT 10SM BKN029 M02/M03 A3035 240 92 -1700 190/04 RMK AO2
14840KMKG MKG20011109070509911/09/01 07:05:31  5-MIN KMKG 091205Z 21003KT 10SM SCT029 M02/M03 A3035 240 92 -1700 210/03 RMK AO2
14840KMKG MKG20011109071009911/09/01 07:10:31  5-MIN KMKG 091210Z 22005KT 10SM SCT029 M01/M02 A3035 240 88 -1500 230/05 RMK AO2
14840KMKG MKG20011109071509811/09/01 07:15:31  5-MIN KMKG 091215Z 23006KT 10SM SCT029 01/M01 A3034 240 85 -1300 230/06 RMK AO2
14840KMKG MKG20011109072009711/09/01 07:20:31  5-MIN KMKG 091220Z 23007KT 10SM SCT029 03/00 A3034 240 79 -1000 230/07 RMK AO2
14840KMKG MKG20011109072509711/09/01 07:25:31  5-MIN KMKG 091225Z 23006KT 10SM SCT029 04/00 A3034 240 76 -1000 230/06 RMK AO2
14840KMKG MKG20011109073009711/09/01 07:30:31  5-MIN KMKG 091230Z 23007KT 10SM FEW029 03/00 A3034 240 79 -1000 230/07 RMK AO2
14840KMKG MKG20011109073509611/09/01 07:35:31  5-MIN KMKG 091235Z 23010KT 10SM FEW029 04/00 A3034 240 73 -900 240/10 RMK AO2
14840KMKG MKG20011109074009611/09/01 07:40:31  5-MIN KMKG 091240Z 23011KT 10SM FEW029 05/00 A3035 240 70 -800 230/11 RMK AO2
14840KMKG MKG20011109074509611/09/01 07:45:31  5-MIN KMKG 091245Z 23008KT 10SM FEW029 05/00 A3035 240 70 -800 240/08 RMK AO2
14840KMKG MKG20011109075011311/09/01 07:50:31  5-MIN KMKG 091250Z 23007KT 10SM FEW030 05/01 A3035 240 73 -800 240/07 RMK AO2 SLP282 T00500006
14840KMKG MKG20011109075511311/09/01 07:55:31  5-MIN KMKG 091255Z 23009KT 10SM FEW030 05/01 A3035 240 73 -800 240/09 RMK AO2 SLP282 T00500006
14840KMKG MKG20011109080009311/09/01 08:00:31  5-MIN KMKG 091300Z 23008KT 10SM CLR 06/00 A3034 240 67 -800 230/08 RMK AO2
14840KMKG MKG20011109080509311/09/01 08:05:31  5-MIN KMKG 091305Z 23010KT 10SM CLR 05/00 A3034 240 70 -800 230/10 RMK AO2
14840KMKG MKG20011109081009611/09/01 08:10:31  5-MIN KMKG 091310Z 22011KT 10SM FEW031 06/01 A3034 250 70 -700 230/11 RMK AO2
14840KMKG MKG20011109081510211/09/01 08:15:31  5-MIN KMKG 091315Z 24011G17KT 10SM FEW031 06/01 A3034 250 70 -700 240/11G17 RMK AO2
14840KMKG MKG20011109082009311/09/01 08:20:31  5-MIN KMKG 091320Z 24011KT 10SM CLR 06/01 A3034 250 67 -700 240/11 RMK AO2
14840KMKG MKG20011109082509911/09/01 08:25:31  5-MIN KMKG 091325Z 24013G17KT 10SM CLR 06/00 A3033 250 65 -700 240/13G17 RMK AO2
14840KMKG MKG20011109083009611/09/01 08:30:31  5-MIN KMKG 091330Z 23010KT 10SM FEW031 06/01 A3033 250 67 -700 240/10 RMK AO2
14840KMKG MKG20011109083510211/09/01 08:35:31  5-MIN KMKG 091335Z 22013G17KT 10SM FEW031 07/01 A3033 250 65 -600 230/13G17 RMK AO2
14840KMKG MKG20011109084009611/09/01 08:40:31  5-MIN KMKG 091340Z 24010KT 10SM FEW031 07/01 A3033 250 65 -600 240/10 RMK AO2
14840KMKG MKG20011109084509611/09/01 08:45:31  5-MIN KMKG 091345Z 22014KT 10SM FEW031 07/01 A3033 250 65 -600 230/14 RMK AO2
14840KMKG MKG20011109085011911/09/01 08:50:31  5-MIN KMKG 091350Z 23013G20KT 10SM FEW031 07/01 A3033 260 65 -600 230/13G20 RMK AO2 SLP275 T00670006
14840KMKG MKG20011109085511911/09/01 08:55:31  5-MIN KMKG 091355Z 23013G20KT 10SM FEW031 07/01 A3032 260 65 -600 230/13G20 RMK AO2 SLP274 T00670006
14840KMKG MKG20011109090009611/09/01 09:00:31  5-MIN KMKG 091400Z 23010KT 10SM FEW031 07/01 A3032 260 65 -500 230/10 RMK AO2
14840KMKG MKG20011109090509611/09/01 09:05:31  5-MIN KMKG 091405Z 22016KT 10SM FEW029 07/02 A3032 260 68 -500 230/16 RMK AO2
14840KMKG MKG20011109091010211/09/01 09:10:31  5-MIN KMKG 091410Z 23015G19KT 10SM SCT029 07/01 A3032 260 65 -500 230/15G19 RMK AO2
14840KMKG MKG20011109091510211/09/01 09:15:31  5-MIN KMKG 091415Z 22014G19KT 10SM SCT029 07/01 A3032 260 65 -500 230/14G19 RMK AO2
14840KMKG MKG20011109092009611/09/01 09:20:31  5-MIN KMKG 091420Z 23017KT 10SM SCT029 07/01 A3032 260 65 -600 230/17 RMK AO2
14840KMKG MKG20011109092510211/09/01 09:25:31  5-MIN KMKG 091425Z 22017G23KT 10SM FEW029 07/01 A3032 260 65 -600 220/17G23 RMK AO2
14840KMKG MKG20011109093010211/09/01 09:30:31  5-MIN KMKG 091430Z 23015G23KT 10SM FEW029 07/01 A3032 260 65 -600 240/15G23 RMK AO2
14840KMKG MKG20011109093510211/09/01 09:35:31  5-MIN KMKG 091435Z 23010G20KT 10SM FEW029 07/01 A3032 260 65 -600 230/10G20 RMK AO2
14840KMKG MKG20011109094009911/09/01 09:40:31  5-MIN KMKG 091440Z 22016G21KT 10SM CLR 07/01 A3032 260 62 -500 220/16G21 RMK AO2
14840KMKG MKG20011109094509911/09/01 09:45:31  5-MIN KMKG 091445Z 22015G21KT 10SM CLR 07/01 A3033 260 62 -500 230/15G21 RMK AO2
14840KMKG MKG20011109095012211/09/01 09:50:31  5-MIN KMKG 091450Z 22015G21KT 10SM CLR 07/00 A3033 260 60 -500 230/15G21 RMK AO2 SLP274 T00720000 58006
14840KMKG MKG20011109095512511/09/01 09:55:31  5-MIN KMKG 091455Z 23015G24KT 10SM FEW029 08/01 A3032 260 60 -500 240/15G24 RMK AO2 SLP273 T00780006 58008
14840KMKG MKG20011109100010211/09/01 10:00:31  5-MIN KMKG 091500Z 23017G24KT 10SM FEW033 08/01 A3033 260 60 -500 240/17G24 RMK AO2
14840KMKG MKG20011109100510211/09/01 10:05:31  5-MIN KMKG 091505Z 24015G24KT 10SM FEW033 08/01 A3033 260 60 -500 240/15G24 RMK AO2
14840KMKG MKG20011109101010211/09/01 10:10:31  5-MIN KMKG 091510Z 23015G24KT 10SM FEW033 08/01 A3033 260 60 -500 230/15G24 RMK AO2
14840KMKG MKG20011109101510211/09/01 10:15:31  5-MIN KMKG 091515Z 23015G20KT 10SM SCT033 08/01 A3033 260 58 -400 230/15G20 RMK AO2
14840KMKG MKG20011109102010211/09/01 10:20:31  5-MIN KMKG 091520Z 22016G21KT 10SM SCT033 08/01 A3032 260 60 -500 230/16G21 RMK AO2
14840KMKG MKG20011109102509611/09/01 10:25:31  5-MIN KMKG 091525Z 23016KT 10SM SCT033 08/01 A3032 270 60 -400 240/16 RMK AO2
14840KMKG MKG20011109103010211/09/01 10:30:31  5-MIN KMKG 091530Z 23017G23KT 10SM SCT033 08/01 A3032 270 60 -400 230/17G23 RMK AO2
14840KMKG MKG20011109103510211/09/01 10:35:31  5-MIN KMKG 091535Z 23014G23KT 10SM SCT033 08/01 A3031 270 60 -400 230/14G23 RMK AO2
14840KMKG MKG20011109104010211/09/01 10:40:31  5-MIN KMKG 091540Z 23015G20KT 10SM SCT033 08/01 A3031 270 60 -400 230/15G20 RMK AO2
14840KMKG MKG20011109104510211/09/01 10:45:31  5-MIN KMKG 091545Z 23016G23KT 10SM FEW033 08/01 A3031 270 58 -400 240/16G23 RMK AO2
14840KMKG MKG20011109105011911/09/01 10:50:31  5-MIN KMKG 091550Z 24018G25KT 10SM SCT033 08/01 A3031 270 60 -400 240/18G25 RMK AO2 SLP269 T00780006
14840KMKG MKG20011109105511911/09/01 10:55:31  5-MIN KMKG 091555Z 24016G25KT 10SM SCT033 08/01 A3031 270 60 -400 240/16G25 RMK AO2 SLP270 T00780006
14840KMKG MKG20011109110010211/09/01 11:00:31  5-MIN KMKG 091600Z 23017G24KT 10SM FEW031 08/01 A3031 270 62 -400 230/17G24 RMK AO2
14840KMKG MKG20011109110510211/09/01 11:05:31  5-MIN KMKG 091605Z 23017G25KT 10SM SCT031 08/01 A3031 270 58 -400 230/17G25 RMK AO2
14840KMKG MKG20011109111010211/09/01 11:10:31  5-MIN KMKG 091610Z 23015G25KT 10SM SCT031 08/01 A3031 270 60 -400 240/15G25 RMK AO2
14840KMKG MKG20011109111510211/09/01 11:15:31  5-MIN KMKG 091615Z 22019G24KT 10SM FEW031 08/01 A3031 270 60 -400 220/19G24 RMK AO2
14840KMKG MKG20011109112010211/09/01 11:20:31  5-MIN KMKG 091620Z 23018G25KT 10SM FEW031 08/01 A3031 280 60 -400 240/18G25 RMK AO2
14840KMKG MKG20011109112510211/09/01 11:25:31  5-MIN KMKG 091625Z 23019G25KT 10SM SCT031 08/01 A3031 280 60 -400 240/19G25 RMK AO2
14840KMKG MKG20011109113010211/09/01 11:30:31  5-MIN KMKG 091630Z 23016G24KT 10SM SCT031 08/01 A3030 280 60 -400 230/16G24 RMK AO2
14840KMKG MKG20011109113509611/09/01 11:35:31  5-MIN KMKG 091635Z 22019KT 10SM FEW031 08/01 A3030 280 60 -400 220/19 RMK AO2
14840KMKG MKG20011109114010211/09/01 11:40:31  5-MIN KMKG 091640Z 22019G25KT 10SM FEW031 08/01 A3030 280 60 -400 230/19G25 RMK AO2
14840KMKG MKG20011109114510211/09/01 11:45:31  5-MIN KMKG 091645Z 22019G25KT 10SM FEW031 08/01 A3029 290 60 -400 230/19G25 RMK AO2
14840KMKG MKG20011109115011311/09/01 11:50:31  5-MIN KMKG 091650Z 22020KT 10SM FEW029 08/01 A3029 290 62 -400 230/20 RMK AO2 SLP261 T00780011
14840KMKG MKG20011109115513711/09/01 11:55:31  5-MIN KMKG 091655Z 21021G26KT 10SM SCT029 09/02 A3029 290 60 -300 220/21G26 RMK AO2 PK WND 21026/1655 SLP260 T00890017
14840KMKG MKG20011109120010211/09/01 12:00:31  5-MIN KMKG 091700Z 21021G26KT 10SM FEW029 09/02 A3028 300 60 -300 220/21G26 RMK AO2
14840KMKG MKG20011109120510211/09/01 12:05:31  5-MIN KMKG 091705Z 22018G25KT 10SM FEW029 09/02 A3028 300 60 -300 230/18G25 RMK AO2
14840KMKG MKG20011109121010211/09/01 12:10:31  5-MIN KMKG 091710Z 23019G24KT 10SM FEW029 09/02 A3028 300 58 -200 230/19G24 RMK AO2
14840KMKG MKG20011109121512011/09/01 12:15:31  5-MIN KMKG 091715Z 21021G27KT 10SM SCT029 09/01 A3027 310 58 -300 220/21G27 RMK AO2 PK WND 21027/1715
14840KMKG MKG20011109122012011/09/01 12:20:31  5-MIN KMKG 091720Z 23018G27KT 10SM FEW029 08/01 A3027 310 60 -300 240/18G27 RMK AO2 PK WND 21027/1715
14840KMKG MKG20011109122512011/09/01 12:25:31  5-MIN KMKG 091725Z 23017G26KT 10SM FEW029 08/01 A3027 310 60 -300 230/17G26 RMK AO2 PK WND 21027/1715
14840KMKG MKG20011109123012011/09/01 12:30:31  5-MIN KMKG 091730Z 22019G25KT 10SM SCT029 08/02 A3027 310 63 -300 230/19G25 RMK AO2 PK WND 21027/1715
14840KMKG MKG20011109123512011/09/01 12:35:31  5-MIN KMKG 091735Z 22020G26KT 10SM SCT029 09/02 A3027 310 60 -300 220/20G26 RMK AO2 PK WND 21027/1715
14840KMKG MKG20011109124012011/09/01 12:40:31  5-MIN KMKG 091740Z 23018G26KT 10SM SCT029 08/01 A3026 310 60 -300 230/18G26 RMK AO2 PK WND 21027/1715
14840KMKG MKG20011109124512011/09/01 12:45:31  5-MIN KMKG 091745Z 22019G25KT 10SM FEW029 09/02 A3026 310 60 -300 220/19G25 RMK AO2 PK WND 21027/1715
14840KMKG MKG20011109125015511/09/01 12:50:31  5-MIN KMKG 091750Z 23016G24KT 10SM FEW029 08/01 A3026 320 60 -300 230/16G24 RMK AO2 PK WND 21027/1715 SLP252 T00830011 10094 21022 58008
14840KMKG MKG20011109125515511/09/01 12:55:31  5-MIN KMKG 091755Z 22013G22KT 10SM SCT029 09/02 A3026 320 60 -300 220/13G22 RMK AO2 PK WND 21027/1715 SLP252 T00890017 10094 21022 58021
14840KMKG MKG20011109130009611/09/01 13:00:31  5-MIN KMKG 091800Z 22020KT 10SM FEW029 09/02 A3025 320 58 -200 230/20 RMK AO2
14840KMKG MKG20011109130510211/09/01 13:05:31  5-MIN KMKG 091805Z 23019G24KT 10SM FEW027 09/02 A3025 330 60 -200 230/19G24 RMK AO2
14840KMKG MKG20011109131010211/09/01 13:10:31  5-MIN KMKG 091810Z 22016G24KT 10SM FEW027 09/02 A3025 330 60 -200 230/16G24 RMK AO2
14840KMKG MKG20011109131510211/09/01 13:15:31  5-MIN KMKG 091815Z 22019G23KT 10SM FEW027 09/02 A3024 330 60 -200 230/19G23 RMK AO2
14840KMKG MKG20011109132012011/09/01 13:20:31  5-MIN KMKG 091820Z 22020G26KT 10SM FEW027 09/02 A3024 340 60 -200 220/20G26 RMK AO2 PK WND 22026/1818
14840KMKG MKG20011109132512011/09/01 13:25:31  5-MIN KMKG 091825Z 22021G26KT 10SM FEW027 08/02 A3024 340 63 -300 220/21G26 RMK AO2 PK WND 22026/1818
14840KMKG MKG20011109133012011/09/01 13:30:31  5-MIN KMKG 091830Z 21019G26KT 10SM FEW027 09/02 A3024 340 60 -200 210/19G26 RMK AO2 PK WND 21026/1830
14840KMKG MKG20011109133512011/09/01 13:35:31  5-MIN KMKG 091835Z 22019G26KT 10SM FEW027 09/02 A3023 340 60 -200 220/19G26 RMK AO2 PK WND 22026/1832
14840KMKG MKG20011109134012011/09/01 13:40:31  5-MIN KMKG 091840Z 21019G26KT 10SM FEW027 09/02 A3023 350 63 -200 210/19G26 RMK AO2 PK WND 22026/1832
14840KMKG MKG20011109134511411/09/01 13:45:31  5-MIN KMKG 091845Z 21021KT 10SM FEW027 09/02 A3023 350 63 -200 220/21 RMK AO2 PK WND 22026/1832
14840KMKG MKG20011109135013711/09/01 13:50:31  5-MIN KMKG 091850Z 20021G25KT 10SM FEW027 09/02 A3023 350 63 -200 210/21G25 RMK AO2 PK WND 22026/1832 SLP240 T00890022
14840KMKG MKG20011109135513711/09/01 13:55:31  5-MIN KMKG 091855Z 21021G25KT 10SM FEW027 09/02 A3022 350 60 -200 220/21G25 RMK AO2 PK WND 22026/1832 SLP239 T00890017
14840KMKG MKG20011109140009911/09/01 14:00:31  5-MIN KMKG 091900Z 20020G25KT 10SM CLR 09/02 A3021 360 63 -200 210/20G25 RMK AO2
14840KMKG MKG20011109140511711/09/01 14:05:31  5-MIN KMKG 091905Z 21021G26KT 10SM CLR 09/02 A3021 360 60 -200 210/21G26 RMK AO2 PK WND 21026/1903
14840KMKG MKG20011109141011711/09/01 14:10:31  5-MIN KMKG 091910Z 22021G26KT 10SM CLR 08/02 A3021 360 63 -300 220/21G26 RMK AO2 PK WND 21026/1903
14840KMKG MKG20011109141511711/09/01 14:15:31  5-MIN KMKG 091915Z 21023G26KT 10SM CLR 09/02 A3021 370 60 -200 220/23G26 RMK AO2 PK WND 21026/1914
14840KMKG MKG20011109142011711/09/01 14:20:31  5-MIN KMKG 091920Z 21015G26KT 10SM CLR 09/02 A3021 370 60 -200 210/15G26 RMK AO2 PK WND 21026/1914
14840KMKG MKG20011109142511711/09/01 14:25:31  5-MIN KMKG 091925Z 21016G25KT 10SM CLR 09/02 A3020 370 63 -200 220/16G25 RMK AO2 PK WND 21026/1914
14840KMKG MKG20011109143011711/09/01 14:30:31  5-MIN KMKG 091930Z 21019G25KT 10SM CLR 09/02 A3020 370 63 -200 210/19G25 RMK AO2 PK WND 21026/1914
14840KMKG MKG20011109143511711/09/01 14:35:31  5-MIN KMKG 091935Z 20014G23KT 10SM CLR 09/02 A3020 370 63 -200 210/14G23 RMK AO2 PK WND 21026/1914
14840KMKG MKG20011109144011711/09/01 14:40:31  5-MIN KMKG 091940Z 20017G24KT 10SM CLR 09/02 A3019 380 63 -200 210/17G24 RMK AO2 PK WND 21026/1914
14840KMKG MKG20011109144511111/09/01 14:45:31  5-MIN KMKG 091945Z 21023KT 10SM CLR 09/02 A3019 380 63 -200 210/23 RMK AO2 PK WND 21026/1945
14840KMKG MKG20011109145012811/09/01 14:50:31  5-MIN KMKG 091950Z 21018KT 10SM CLR 09/02 A3019 380 60 -200 210/18 RMK AO2 PK WND 21026/1945 SLP228 T00890017
14840KMKG MKG20011109145513111/09/01 14:55:31  5-MIN KMKG 091955Z 20016KT 10SM FEW027 09/02 A3018 390 60 -200 200/16 RMK AO2 PK WND 21026/1945 SLP227 T00890017
14840KMKG MKG20011109150009311/09/01 15:00:31  5-MIN KMKG 092000Z 19017KT 10SM CLR 09/02 A3018 390 63 -200 200/17 RMK AO2
14840KMKG MKG20011109150509911/09/01 15:05:31  5-MIN KMKG 092005Z 20016G25KT 10SM CLR 09/02 A3018 390 63 -200 200/16G25 RMK AO2
14840KMKG MKG20011109151009911/09/01 15:10:31  5-MIN KMKG 092010Z 21018G25KT 10SM CLR 09/02 A3018 390 63 -200 210/18G25 RMK AO2
14840KMKG MKG20011109151510211/09/01 15:15:31  5-MIN KMKG 092015Z 21015G24KT 10SM FEW027 09/02 A3017 400 63 -100 210/15G24 RMK AO2
14840KMKG MKG20011109152012011/09/01 15:20:31  5-MIN KMKG 092020Z 20018G27KT 10SM FEW027 09/02 A3017 400 63 -200 210/18G27 RMK AO2 PK WND 21027/2018
14840KMKG MKG20011109152512011/09/01 15:25:31  5-MIN KMKG 092025Z 21019G27KT 10SM FEW027 08/02 A3017 400 65 -200 220/19G27 RMK AO2 PK WND 21027/2018
14840KMKG MKG20011109153011411/09/01 15:30:31  5-MIN KMKG 092030Z 21019KT 10SM FEW027 09/02 A3017 400 63 -100 210/19 RMK AO2 PK WND 21027/2018
14840KMKG MKG20011109153511411/09/01 15:35:31  5-MIN KMKG 092035Z 21017KT 10SM FEW027 09/02 A3017 400 63 -100 210/17 RMK AO2 PK WND 21027/2018
14840KMKG MKG20011109154012011/09/01 15:40:31  5-MIN KMKG 092040Z 20020G24KT 10SM FEW027 09/02 A3016 410 60 -100 210/20G24 RMK AO2 PK WND 21027/2018
14840KMKG MKG20011109154512011/09/01 15:45:31  5-MIN KMKG 092045Z 21017G24KT 10SM FEW027 09/02 A3016 410 63 -100 210/17G24 RMK AO2 PK WND 21027/2018
14840KMKG MKG20011109155014311/09/01 15:50:31  5-MIN KMKG 092050Z 20019G24KT 10SM FEW027 09/02 A3016 410 60 -100 210/19G24 RMK AO2 PK WND 21027/2018 SLP217 T00890017 58021
14840KMKG MKG20011109155514311/09/01 15:55:31  5-MIN KMKG 092055Z 21020G25KT 10SM FEW027 09/02 A3015 420 60 -100 210/20G25 RMK AO2 PK WND 21027/2018 SLP216 T00890017 56036
14840KMKG MKG20011109160009911/09/01 16:00:31  5-MIN KMKG 092100Z 21018G25KT 10SM CLR 09/02 A3015 420 63 -100 210/18G25 RMK AO2
14840KMKG MKG20011109160509911/09/01 16:05:31  5-MIN KMKG 092105Z 21019G25KT 10SM CLR 09/02 A3015 420 63 -100 210/19G25 RMK AO2
14840KMKG MKG20011109161009911/09/01 16:10:31  5-MIN KMKG 092110Z 20016G25KT 10SM CLR 09/02 A3015 420 63 -100 210/16G25 RMK AO2
14840KMKG MKG20011109161509911/09/01 16:15:31  5-MIN KMKG 092115Z 20018G23KT 10SM CLR 09/02 A3015 420 63 -100 210/18G23 RMK AO2
14840KMKG MKG20011109162009911/09/01 16:20:31  5-MIN KMKG 092120Z 20018G23KT 10SM CLR 08/02 A3015 420 65 -200 210/18G23 RMK AO2
14840KMKG MKG20011109162509911/09/01 16:25:31  5-MIN KMKG 092125Z 21018G23KT 10SM CLR 09/02 A3015 420 63 -100 210/18G23 RMK AO2
14840KMKG MKG20011109163009911/09/01 16:30:31  5-MIN KMKG 092130Z 21018G24KT 10SM CLR 08/02 A3014 420 65 -200 220/18G24 RMK AO2
14840KMKG MKG20011109163509311/09/01 16:35:31  5-MIN KMKG 092135Z 21021KT 10SM CLR 08/02 A3014 420 65 -200 210/21 RMK AO2
14840KMKG MKG20011109164009911/09/01 16:40:31  5-MIN KMKG 092140Z 20017G23KT 10SM CLR 08/02 A3014 420 65 -200 200/17G23 RMK AO2
14840KMKG MKG20011109164509911/09/01 16:45:31  5-MIN KMKG 092145Z 21016G23KT 10SM CLR 08/02 A3014 430 65 -200 210/16G23 RMK AO2
14840KMKG MKG20011109165011611/09/01 16:50:31  5-MIN KMKG 092150Z 20016G23KT 10SM CLR 08/02 A3014 430 65 -200 210/16G23 RMK AO2 SLP212 T00830022
14840KMKG MKG20011109165511611/09/01 16:55:31  5-MIN KMKG 092155Z 20017G24KT 10SM CLR 08/03 A3014 430 68 -200 210/17G24 RMK AO2 SLP211 T00830028
14840KMKG MKG20011109170009911/09/01 17:00:31  5-MIN KMKG 092200Z 20015G24KT 10SM CLR 08/03 A3014 430 68 -200 210/15G24 RMK AO2
14840KMKG MKG20011109170509311/09/01 17:05:31  5-MIN KMKG 092205Z 21014KT 10SM CLR 08/03 A3014 430 68 -200 210/14 RMK AO2
14840KMKG MKG20011109171009311/09/01 17:10:31  5-MIN KMKG 092210Z 21016KT 10SM CLR 08/03 A3014 430 68 -200 220/16 RMK AO2
14840KMKG MKG20011109171509311/09/01 17:15:31  5-MIN KMKG 092215Z 21015KT 10SM CLR 08/03 A3014 430 68 -200 210/15 RMK AO2
14840KMKG MKG20011109172009311/09/01 17:20:31  5-MIN KMKG 092220Z 20015KT 10SM CLR 08/02 A3014 430 65 -200 210/15 RMK AO2
14840KMKG MKG20011109172509311/09/01 17:25:31  5-MIN KMKG 092225Z 20014KT 10SM CLR 08/03 A3014 430 68 -200 210/14 RMK AO2
14840KMKG MKG20011109173009911/09/01 17:30:31  5-MIN KMKG 092230Z 21016G20KT 10SM CLR 08/03 A3014 430 68 -200 210/16G20 RMK AO2
14840KMKG MKG20011109173509911/09/01 17:35:31  5-MIN KMKG 092235Z 20015G20KT 10SM CLR 08/03 A3014 430 68 -200 210/15G20 RMK AO2
14840KMKG MKG20011109174009311/09/01 17:40:31  5-MIN KMKG 092240Z 21017KT 10SM CLR 08/03 A3013 430 68 -200 210/17 RMK AO2
14840KMKG MKG20011109174509911/09/01 17:45:31  5-MIN KMKG 092245Z 21016G21KT 10SM CLR 08/03 A3013 440 68 -200 210/16G21 RMK AO2
14840KMKG MKG20011109175011611/09/01 17:50:31  5-MIN KMKG 092250Z 21015G21KT 10SM CLR 08/03 A3013 440 68 -200 210/15G21 RMK AO2 SLP209 T00830028
14840KMKG MKG20011109175511011/09/01 17:55:31  5-MIN KMKG 092255Z 21015KT 10SM CLR 08/03 A3013 440 68 -200 220/15 RMK AO2 SLP209 T00830028
14840KMKG MKG20011109180009311/09/01 18:00:31  5-MIN KMKG 092300Z 21014KT 10SM CLR 08/03 A3013 440 68 -200 220/14 RMK AO2
14840KMKG MKG20011109180509311/09/01 18:05:31  5-MIN KMKG 092305Z 21015KT 10SM CLR 08/03 A3013 430 68 -200 220/15 RMK AO2
14840KMKG MKG20011109181009311/09/01 18:10:31  5-MIN KMKG 092310Z 21016KT 10SM CLR 08/03 A3013 440 68 -200 220/16 RMK AO2
14840KMKG MKG20011109181509311/09/01 18:15:31  5-MIN KMKG 092315Z 21016KT 10SM CLR 08/03 A3013 440 68 -200 220/16 RMK AO2
14840KMKG MKG20011109182009911/09/01 18:20:31  5-MIN KMKG 092320Z 21018G22KT 10SM CLR 09/03 A3013 440 65 -100 210/18G22 RMK AO2
14840KMKG MKG20011109182509311/09/01 18:25:31  5-MIN KMKG 092325Z 21017KT 10SM CLR 09/03 A3013 440 65 -100 210/17 RMK AO2
14840KMKG MKG20011109183009311/09/01 18:30:31  5-MIN KMKG 092330Z 22014KT 10SM CLR 09/03 A3013 440 65 -100 220/14 RMK AO2
14840KMKG MKG20011109183509311/09/01 18:35:31  5-MIN KMKG 092335Z 21016KT 10SM CLR 09/03 A3013 440 65 -100 220/16 RMK AO2
14840KMKG MKG20011109184009311/09/01 18:40:31  5-MIN KMKG 092340Z 21016KT 10SM CLR 09/03 A3013 440 65 -100 220/16 RMK AO2
14840KMKG MKG20011109184509311/09/01 18:45:31  5-MIN KMKG 092345Z 21015KT 10SM CLR 09/03 A3013 440 65 -100 210/15 RMK AO2
14840KMKG MKG20011109185012811/09/01 18:50:31  5-MIN KMKG 092350Z 21015KT 10SM CLR 09/03 A3013 440 68 -100 220/15 RMK AO2 SLP208 T00890033 10094 20083 56036
14840KMKG MKG20011109185512811/09/01 18:55:31  5-MIN KMKG 092355Z 22014KT 10SM CLR 09/03 A3013 440 68 -100 220/14 RMK AO2 SLP207 T00890033 10094 20083 56009
14840KMKG MKG20011109190009311/09/01 19:00:31  5-MIN KMKG 100000Z 22013KT 10SM CLR 09/03 A3013 440 68 -100 220/13 RMK AO2
14840KMKG MKG20011109190509311/09/01 19:05:31  5-MIN KMKG 100005Z 22013KT 10SM CLR 09/03 A3013 440 68 -100 220/13 RMK AO2
14840KMKG MKG20011109191009311/09/01 19:10:31  5-MIN KMKG 100010Z 22014KT 10SM CLR 09/03 A3013 440 68 -100 220/14 RMK AO2
14840KMKG MKG20011109191509311/09/01 19:15:31  5-MIN KMKG 100015Z 22015KT 10SM CLR 09/03 A3013 440 68 -100 220/15 RMK AO2
14840KMKG MKG20011109192009311/09/01 19:20:31  5-MIN KMKG 100020Z 22013KT 10SM CLR 09/03 A3012 440 65 -100 220/13 RMK AO2
14840KMKG MKG20011109192509311/09/01 19:25:31  5-MIN KMKG 100025Z 22016KT 10SM CLR 09/03 A3012 440 68 -100 220/16 RMK AO2
14840KMKG MKG20011109193009311/09/01 19:30:31  5-MIN KMKG 100030Z 22016KT 10SM CLR 09/03 A3012 440 65 -100 220/16 RMK AO2
14840KMKG MKG20011109193509311/09/01 19:35:31  5-MIN KMKG 100035Z 22014KT 10SM CLR 09/03 A3012 440 68 -100 220/14 RMK AO2
14840KMKG MKG20011109194009311/09/01 19:40:31  5-MIN KMKG 100040Z 22014KT 10SM CLR 09/03 A3012 450 68 -100 220/14 RMK AO2
14840KMKG MKG20011109194509011/09/01 19:45:31  5-MIN KMKG 100045Z 22014KT 10SM CLR 09/03 A3012 450 65 0 230/14 RMK AO2
14840KMKG MKG20011109195010711/09/01 19:50:31  5-MIN KMKG 100050Z 22012KT 10SM CLR 09/03 A3012 450 65 0 230/12 RMK AO2 SLP202 T00940033
14840KMKG MKG20011109195510711/09/01 19:55:31  5-MIN KMKG 100055Z 23012KT 10SM CLR 09/03 A3012 450 65 0 230/12 RMK AO2 SLP204 T00940033
14840KMKG MKG20011109200009611/09/01 20:00:31  5-MIN KMKG 100100Z 22014G18KT 10SM CLR 09/03 A3012 450 65 0 230/14G18 RMK AO2
14840KMKG MKG20011109200509611/09/01 20:05:31  5-MIN KMKG 100105Z 22014G18KT 10SM CLR 09/03 A3011 450 65 0 220/14G18 RMK AO2
14840KMKG MKG20011109201009011/09/01 20:10:31  5-MIN KMKG 100110Z 22014KT 10SM CLR 09/04 A3011 460 68 0 230/14 RMK AO2
14840KMKG MKG20011109201509011/09/01 20:15:31  5-MIN KMKG 100115Z 22014KT 10SM CLR 09/04 A3011 460 68 0 230/14 RMK AO2
14840KMKG MKG20011109202009011/09/01 20:20:31  5-MIN KMKG 100120Z 22014KT 10SM CLR 09/04 A3010 460 68 0 220/14 RMK AO2
14840KMKG MKG20011109202509011/09/01 20:25:31  5-MIN KMKG 100125Z 22014KT 10SM CLR 09/03 A3010 460 65 0 220/14 RMK AO2
14840KMKG MKG20011109203009611/09/01 20:30:31  5-MIN KMKG 100130Z 22013G19KT 10SM CLR 09/03 A3010 460 65 0 220/13G19 RMK AO2
14840KMKG MKG20011109203509011/09/01 20:35:31  5-MIN KMKG 100135Z 22014KT 10SM CLR 09/03 A3010 460 65 0 220/14 RMK AO2
14840KMKG MKG20011109204009011/09/01 20:40:31  5-MIN KMKG 100140Z 22014KT 10SM CLR 09/04 A3010 460 68 0 220/14 RMK AO2
14840KMKG MKG20011109204509011/09/01 20:45:31  5-MIN KMKG 100145Z 22014KT 10SM CLR 09/04 A3010 460 68 0 220/14 RMK AO2
14840KMKG MKG20011109205011311/09/01 20:50:31  5-MIN KMKG 100150Z 22015G21KT 10SM CLR 09/03 A3010 460 65 0 230/15G21 RMK AO2 SLP197 T00940033
14840KMKG MKG20011109205511311/09/01 20:55:31  5-MIN KMKG 100155Z 22015G21KT 10SM CLR 09/03 A3010 470 65 0 220/15G21 RMK AO2 SLP196 T00940033
14840KMKG MKG20011109210009011/09/01 21:00:31  5-MIN KMKG 100200Z 22012KT 10SM CLR 09/04 A3010 460 68 0 230/12 RMK AO2
14840KMKG MKG20011109210509011/09/01 21:05:31  5-MIN KMKG 100205Z 22013KT 10SM CLR 09/04 A3010 460 68 0 230/13 RMK AO2
14840KMKG MKG20011109211009011/09/01 21:10:31  5-MIN KMKG 100210Z 22014KT 10SM CLR 09/04 A3010 470 68 0 220/14 RMK AO2
14840KMKG MKG20011109211509011/09/01 21:15:31  5-MIN KMKG 100215Z 22013KT 10SM CLR 09/04 A3010 470 68 0 230/13 RMK AO2
14840KMKG MKG20011109212009011/09/01 21:20:31  5-MIN KMKG 100220Z 22013KT 10SM CLR 09/04 A3010 470 68 0 230/13 RMK AO2
14840KMKG MKG20011109212509011/09/01 21:25:31  5-MIN KMKG 100225Z 22013KT 10SM CLR 09/04 A3010 470 68 0 230/13 RMK AO2
14840KMKG MKG20011109213009011/09/01 21:30:31  5-MIN KMKG 100230Z 22013KT 10SM CLR 09/03 A3009 470 65 0 230/13 RMK AO2
14840KMKG MKG20011109213509011/09/01 21:35:31  5-MIN KMKG 100235Z 22012KT 10SM CLR 09/04 A3009 470 68 0 230/12 RMK AO2
14840KMKG MKG20011109214009011/09/01 21:40:31  5-MIN KMKG 100240Z 22015KT 10SM CLR 09/03 A3009 480 65 0 230/15 RMK AO2
14840KMKG MKG20011109214509011/09/01 21:45:31  5-MIN KMKG 100245Z 22013KT 10SM CLR 09/03 A3009 480 65 0 230/13 RMK AO2
14840KMKG MKG20011109215011311/09/01 21:50:31  5-MIN KMKG 100250Z 22013KT 10SM CLR 09/04 A3008 480 68 0 220/13 RMK AO2 SLP191 T00940039 56009
14840KMKG MKG20011109215511311/09/01 21:55:31  5-MIN KMKG 100255Z 22013KT 10SM CLR 09/03 A3008 480 68 0 230/13 RMK AO2 SLP191 T00890033 58015
14840KMKG MKG20011109220009011/09/01 22:00:31  5-MIN KMKG 100300Z 23012KT 10SM CLR 09/03 A3008 480 65 0 230/12 RMK AO2
14840KMKG MKG20011109220509011/09/01 22:05:31  5-MIN KMKG 100305Z 22011KT 10SM CLR 09/03 A3008 480 65 0 230/11 RMK AO2
14840KMKG MKG20011109221009011/09/01 22:10:31  5-MIN KMKG 100310Z 22012KT 10SM CLR 09/05 A3008 490 76 0 220/12 RMK AO2
14840KMKG MKG20011109221509011/09/01 22:15:31  5-MIN KMKG 100315Z 22012KT 10SM CLR 09/05 A3008 490 74 0 220/12 RMK AO2
14840KMKG MKG20011109222009611/09/01 22:20:31  5-MIN KMKG 100320Z 22012G18KT 10SM CLR 09/03 A3007 490 65 0 220/12G18 RMK AO2
14840KMKG MKG20011109222509611/09/01 22:25:31  5-MIN KMKG 100325Z 22011G18KT 10SM CLR 09/03 A3007 490 68 0 220/11G18 RMK AO2
14840KMKG MKG20011109223009011/09/01 22:30:31  5-MIN KMKG 100330Z 22012KT 10SM CLR 09/03 A3007 490 68 0 230/12 RMK AO2
14840KMKG MKG20011109223509011/09/01 22:35:31  5-MIN KMKG 100335Z 22012KT 10SM CLR 09/03 A3006 500 65 0 230/12 RMK AO2
14840KMKG MKG20011109224009011/09/01 22:40:31  5-MIN KMKG 100340Z 23013KT 10SM CLR 09/03 A3006 500 68 0 230/13 RMK AO2
14840KMKG MKG20011109224509011/09/01 22:45:31  5-MIN KMKG 100345Z 22014KT 10SM CLR 09/03 A3006 500 65 0 220/14 RMK AO2
14840KMKG MKG20011109225010711/09/01 22:50:31  5-MIN KMKG 100350Z 22012KT 10SM CLR 09/03 A3006 500 68 0 230/12 RMK AO2 SLP182 T00890033
14840KMKG MKG20011109225510711/09/01 22:55:31  5-MIN KMKG 100355Z 22012KT 10SM CLR 09/03 A3006 510 68 0 230/12 RMK AO2 SLP181 T00890033
14840KMKG MKG20011109230009011/09/01 23:00:31  5-MIN KMKG 100400Z 22012KT 10SM CLR 09/03 A3005 510 68 0 220/12 RMK AO2
14840KMKG MKG20011109230509011/09/01 23:05:31  5-MIN KMKG 100405Z 22012KT 10SM CLR 09/03 A3005 510 68 0 230/12 RMK AO2
14840KMKG MKG20011109231009011/09/01 23:10:31  5-MIN KMKG 100410Z 22011KT 10SM CLR 09/03 A3005 510 68 0 230/11 RMK AO2
14840KMKG MKG20011109231509011/09/01 23:15:31  5-MIN KMKG 100415Z 22012KT 10SM CLR 09/03 A3005 510 68 0 220/12 RMK AO2
14840KMKG MKG20011109232009011/09/01 23:20:31  5-MIN KMKG 100420Z 22013KT 10SM CLR 09/03 A3004 520 68 0 230/13 RMK AO2
14840KMKG MKG20011109232509011/09/01 23:25:31  5-MIN KMKG 100425Z 22012KT 10SM CLR 09/03 A3004 520 68 0 220/12 RMK AO2
14840KMKG MKG20011109233009011/09/01 23:30:31  5-MIN KMKG 100430Z 22012KT 10SM CLR 09/03 A3004 520 68 0 220/12 RMK AO2
14840KMKG MKG20011109233509011/09/01 23:35:31  5-MIN KMKG 100435Z 22012KT 10SM CLR 09/03 A3004 520 68 0 230/12 RMK AO2
14840KMKG MKG20011109234009011/09/01 23:40:31  5-MIN KMKG 100440Z 22012KT 10SM CLR 09/03 A3004 520 65 0 230/12 RMK AO2
14840KMKG MKG20011109234509011/09/01 23:45:31  5-MIN KMKG 100445Z 22012KT 10SM CLR 09/03 A3003 520 68 0 220/12 RMK AO2
14840KMKG MKG20011109235011711/09/01 23:50:31  5-MIN KMKG 100450Z 22011KT 10SM CLR 09/03 A3003 530 68 0 230/11 RMK AO2 SLP174 T00890033 400941028
14840KMKG MKG20011109235511711/09/01 23:55:31  5-MIN KMKG 100455Z 22011KT 10SM CLR 09/03 A3003 530 68 0 220/11 RMK AO2 SLP172 T00890033 400941028
14840KMKG MKG20011110000009011/10/01 00:00:31  5-MIN KMKG 100500Z 22012KT 10SM CLR 09/03 A3003 530 68 0 220/12 RMK AO2
14840KMKG MKG20011110000509011/10/01 00:05:31  5-MIN KMKG 100505Z 22012KT 10SM CLR 09/03 A3003 530 68 0 230/12 RMK AO2
14840KMKG MKG20011110001009011/10/01 00:10:31  5-MIN KMKG 100510Z 22012KT 10SM CLR 09/03 A3002 540 68 0 220/12 RMK AO2
14840KMKG MKG20011110001509011/10/01 00:15:31  5-MIN KMKG 100515Z 22013KT 10SM CLR 09/03 A3002 540 68 0 230/13 RMK AO2
14840KMKG MKG20011110002009011/10/01 00:20:31  5-MIN KMKG 100520Z 22013KT 10SM CLR 09/03 A3002 540 68 0 220/13 RMK AO2
14840KMKG MKG20011110002509011/10/01 00:25:31  5-MIN KMKG 100525Z 22012KT 10SM CLR 09/03 A3002 540 68 0 230/12 RMK AO2
14840KMKG MKG20011110003009011/10/01 00:30:31  5-MIN KMKG 100530Z 23010KT 10SM CLR 09/03 A3002 530 68 0 230/10 RMK AO2
14840KMKG MKG20011110003509011/10/01 00:35:31  5-MIN KMKG 100535Z 23012KT 10SM CLR 09/03 A3002 540 68 0 230/12 RMK AO2
14840KMKG MKG20011110004009011/10/01 00:40:31  5-MIN KMKG 100540Z 22014KT 10SM CLR 09/03 A3002 540 65 0 220/14 RMK AO2
14840KMKG MKG20011110004509011/10/01 00:45:31  5-MIN KMKG 100545Z 22012KT 10SM CLR 09/03 A3001 540 68 0 220/12 RMK AO2
14840KMKG MKG20011110005012511/10/01 00:50:31  5-MIN KMKG 100550Z 22011KT 10SM CLR 09/03 A3001 540 68 0 220/11 RMK AO2 SLP166 T00890033 10094 20089 58015
14840KMKG MKG20011110005512511/10/01 00:55:31  5-MIN KMKG 100555Z 21011KT 10SM CLR 09/03 A3001 550 68 0 220/11 RMK AO2 SLP164 T00890033 10094 20089 56025
14840KMKG MKG20011110010009011/10/01 01:00:31  5-MIN KMKG 100600Z 22011KT 10SM CLR 09/03 A3001 550 68 0 220/11 RMK AO2
14840KMKG MKG20011110010509011/10/01 01:05:31  5-MIN KMKG 100605Z 22012KT 10SM CLR 09/03 A3000 550 68 0 220/12 RMK AO2
14840KMKG MKG20011110011009011/10/01 01:10:31  5-MIN KMKG 100610Z 22011KT 10SM CLR 09/03 A3000 550 68 0 230/11 RMK AO2
14840KMKG MKG20011110011509011/10/01 01:15:31  5-MIN KMKG 100615Z 22010KT 10SM CLR 09/03 A3000 560 68 0 230/10 RMK AO2
14840KMKG MKG20011110012009011/10/01 01:20:31  5-MIN KMKG 100620Z 22012KT 10SM CLR 09/03 A3000 560 68 0 220/12 RMK AO2
14840KMKG MKG20011110012509011/10/01 01:25:31  5-MIN KMKG 100625Z 23010KT 10SM CLR 09/03 A2999 560 68 0 230/10 RMK AO2
14840KMKG MKG20011110013009011/10/01 01:30:31  5-MIN KMKG 100630Z 22010KT 10SM CLR 09/03 A2999 560 68 0 230/10 RMK AO2
14840KMKG MKG20011110013509011/10/01 01:35:31  5-MIN KMKG 100635Z 22013KT 10SM CLR 09/03 A2999 570 68 0 230/13 RMK AO2
14840KMKG MKG20011110014009011/10/01 01:40:31  5-MIN KMKG 100640Z 22012KT 10SM CLR 09/03 A2998 570 68 0 220/12 RMK AO2
14840KMKG MKG20011110014509011/10/01 01:45:31  5-MIN KMKG 100645Z 22013KT 10SM CLR 09/03 A2998 580 68 0 220/13 RMK AO2
14840KMKG MKG20011110015010711/10/01 01:50:31  5-MIN KMKG 100650Z 21011KT 10SM CLR 08/03 A2998 580 70 0 220/11 RMK AO2 SLP154 T00830033
14840KMKG MKG20011110015510711/10/01 01:55:31  5-MIN KMKG 100655Z 22011KT 10SM CLR 09/04 A2998 580 71 0 220/11 RMK AO2 SLP153 T00890039
14840KMKG MKG20011110020009011/10/01 02:00:31  5-MIN KMKG 100700Z 22012KT 10SM CLR 09/04 A2997 580 71 0 220/12 RMK AO2
14840KMKG MKG20011110020509011/10/01 02:05:31  5-MIN KMKG 100705Z 22012KT 10SM CLR 09/04 A2997 580 71 0 220/12 RMK AO2
14840KMKG MKG20011110021009011/10/01 02:10:31  5-MIN KMKG 100710Z 22012KT 10SM CLR 08/04 A2997 590 73 0 220/12 RMK AO2
14840KMKG MKG20011110021509011/10/01 02:15:31  5-MIN KMKG 100715Z 22013KT 10SM CLR 08/04 A2997 590 73 0 220/13 RMK AO2
14840KMKG MKG20011110022009011/10/01 02:20:31  5-MIN KMKG 100720Z 22011KT 10SM CLR 08/04 A2996 590 73 0 220/11 RMK AO2
14840KMKG MKG20011110022509011/10/01 02:25:31  5-MIN KMKG 100725Z 22012KT 10SM CLR 08/04 A2996 590 73 0 220/12 RMK AO2
14840KMKG MKG20011110023009011/10/01 02:30:31  5-MIN KMKG 100730Z 22013KT 10SM CLR 08/04 A2996 590 73 0 220/13 RMK AO2
14840KMKG MKG20011110023509011/10/01 02:35:31  5-MIN KMKG 100735Z 22011KT 10SM CLR 08/04 A2996 590 73 0 220/11 RMK AO2
14840KMKG MKG20011110024009011/10/01 02:40:31  5-MIN KMKG 100740Z 22012KT 10SM CLR 08/04 A2996 600 73 0 220/12 RMK AO2
14840KMKG MKG20011110024509011/10/01 02:45:31  5-MIN KMKG 100745Z 21012KT 10SM CLR 08/04 A2995 600 73 0 220/12 RMK AO2
14840KMKG MKG20011110025010711/10/01 02:50:31  5-MIN KMKG 100750Z 22011KT 10SM CLR 08/04 A2995 600 73 0 220/11 RMK AO2 SLP146 T00830039
14840KMKG MKG20011110025510711/10/01 02:55:31  5-MIN KMKG 100755Z 22012KT 10SM CLR 08/04 A2995 600 73 0 230/12 RMK AO2 SLP146 T00830039
14840KMKG MKG20011110030009211/10/01 03:00:31  5-MIN KMKG 100800Z 22012KT 10SM CLR 09/04 A2995 600 71 100 230/12 RMK AO2
14840KMKG MKG20011110030509011/10/01 03:05:31  5-MIN KMKG 100805Z 22012KT 10SM CLR 08/04 A2995 600 73 0 220/12 RMK AO2
14840KMKG MKG20011110031009011/10/01 03:10:31  5-MIN KMKG 100810Z 22011KT 10SM CLR 08/04 A2995 610 73 0 220/11 RMK AO2
14840KMKG MKG20011110031509011/10/01 03:15:31  5-MIN KMKG 100815Z 22012KT 10SM CLR 08/04 A2995 610 73 0 220/12 RMK AO2
14840KMKG MKG20011110032009011/10/01 03:20:31  5-MIN KMKG 100820Z 22012KT 10SM CLR 08/04 A2994 610 73 0 230/12 RMK AO2
14840KMKG MKG20011110032509011/10/01 03:25:31  5-MIN KMKG 100825Z 22014KT 10SM CLR 08/04 A2994 610 73 0 220/14 RMK AO2
14840KMKG MKG20011110033009011/10/01 03:30:31  5-MIN KMKG 100830Z 22014KT 10SM CLR 08/04 A2993 620 73 0 220/14 RMK AO2
14840KMKG MKG20011110033509011/10/01 03:35:31  5-MIN KMKG 100835Z 21011KT 10SM CLR 08/04 A2993 620 73 0 220/11 RMK AO2
14840KMKG MKG20011110034009011/10/01 03:40:31  5-MIN KMKG 100840Z 22012KT 10SM CLR 08/04 A2992 630 73 0 220/12 RMK AO2
14840KMKG MKG20011110034509011/10/01 03:45:31  5-MIN KMKG 100845Z 22010KT 10SM CLR 08/04 A2992 630 76 0 220/10 RMK AO2
14840KMKG MKG20011110035011311/10/01 03:50:31  5-MIN KMKG 100850Z 22011KT 10SM CLR 08/04 A2992 630 76 0 220/11 RMK AO2 SLP136 T00780039 56025
14840KMKG MKG20011110035511311/10/01 03:55:31  5-MIN KMKG 100855Z 22012KT 10SM CLR 08/04 A2992 630 76 0 220/12 RMK AO2 SLP136 T00780039 57029
14840KMKG MKG20011110040009011/10/01 04:00:31  5-MIN KMKG 100900Z 22011KT 10SM CLR 08/04 A2992 630 73 0 230/11 RMK AO2
14840KMKG MKG20011110040509011/10/01 04:05:31  5-MIN KMKG 100905Z 22011KT 10SM CLR 08/04 A2992 630 76 0 230/11 RMK AO2
14840KMKG MKG20011110041009011/10/01 04:10:31  5-MIN KMKG 100910Z 22011KT 10SM CLR 08/04 A2992 630 73 0 230/11 RMK AO2
14840KMKG MKG20011110041509011/10/01 04:15:31  5-MIN KMKG 100915Z 22013KT 10SM CLR 08/04 A2991 640 73 0 230/13 RMK AO2
14840KMKG MKG20011110042009011/10/01 04:20:31  5-MIN KMKG 100920Z 23012KT 10SM CLR 08/04 A2992 630 73 0 230/12 RMK AO2
14840KMKG MKG20011110042509011/10/01 04:25:31  5-MIN KMKG 100925Z 23013KT 10SM CLR 08/03 A2992 630 70 0 230/13 RMK AO2
14840KMKG MKG20011110043009211/10/01 04:30:31  5-MIN KMKG 100930Z 23011KT 10SM CLR 09/03 A2992 630 68 100 230/11 RMK AO2
14840KMKG MKG20011110043509011/10/01 04:35:31  5-MIN KMKG 100935Z 23010KT 10SM CLR 08/03 A2992 630 70 0 230/10 RMK AO2
14840KMKG MKG20011110044009011/10/01 04:40:31  5-MIN KMKG 100940Z 23010KT 10SM CLR 08/03 A2992 630 70 0 240/10 RMK AO2
14840KMKG MKG20011110044509011/10/01 04:45:31  5-MIN KMKG 100945Z 22013KT 10SM CLR 08/03 A2991 640 68 0 230/13 RMK AO2
14840KMKG MKG20011110045010711/10/01 04:50:31  5-MIN KMKG 100950Z 23013KT 10SM CLR 08/03 A2991 640 68 0 240/13 RMK AO2 SLP132 T00830028
14840KMKG MKG20011110045511311/10/01 04:55:31  5-MIN KMKG 100955Z 23014G18KT 10SM CLR 08/03 A2991 640 68 0 230/14G18 RMK AO2 SLP131 T00830028
14840KMKG MKG20011110050009611/10/01 05:00:31  5-MIN KMKG 101000Z 23011G18KT 10SM CLR 08/03 A2991 640 68 0 230/11G18 RMK AO2
14840KMKG MKG20011110050509011/10/01 05:05:31  5-MIN KMKG 101005Z 23012KT 10SM CLR 08/03 A2990 650 70 0 230/12 RMK AO2
14840KMKG MKG20011110051009011/10/01 05:10:31  5-MIN KMKG 101010Z 22011KT 10SM CLR 08/03 A2990 650 70 0 230/11 RMK AO2
14840KMKG MKG20011110051509011/10/01 05:15:31  5-MIN KMKG 101015Z 23012KT 10SM CLR 08/03 A2990 650 70 0 240/12 RMK AO2
14840KMKG MKG20011110052009011/10/01 05:20:31  5-MIN KMKG 101020Z 23012KT 10SM CLR 08/03 A2990 650 70 0 230/12 RMK AO2
14840KMKG MKG20011110052509611/10/01 05:25:31  5-MIN KMKG 101025Z 22013G17KT 10SM CLR 08/03 A2990 650 70 0 230/13G17 RMK AO2
14840KMKG MKG20011110053009611/10/01 05:30:31  5-MIN KMKG 101030Z 23012G17KT 10SM CLR 08/03 A2990 650 70 0 230/12G17 RMK AO2
14840KMKG MKG20011110053509011/10/01 05:35:31  5-MIN KMKG 101035Z 22010KT 10SM CLR 08/03 A2990 650 73 0 230/10 RMK AO2
14840KMKG MKG20011110054009011/10/01 05:40:31  5-MIN KMKG 101040Z 22011KT 10SM CLR 08/03 A2990 650 73 0 230/11 RMK AO2
14840KMKG MKG20011110054509011/10/01 05:45:31  5-MIN KMKG 101045Z 23009KT 10SM CLR 08/03 A2990 650 73 0 230/09 RMK AO2
14840KMKG MKG20011110055010711/10/01 05:50:31  5-MIN KMKG 101050Z 23008KT 10SM CLR 07/03 A2990 650 76 0 230/08 RMK AO2 SLP127 T00720033
14840KMKG MKG20011110055510711/10/01 05:55:31  5-MIN KMKG 101055Z 22009KT 10SM CLR 08/03 A2990 650 73 0 230/09 RMK AO2 SLP127 T00780033
14840KMKG MKG20011110060009011/10/01 06:00:31  5-MIN KMKG 101100Z 23012KT 10SM CLR 08/03 A2989 660 73 0 230/12 RMK AO2
14840KMKG MKG20011110060509011/10/01 06:05:31  5-MIN KMKG 101105Z 23008KT 10SM CLR 07/03 A2989 660 76 0 240/08 RMK AO2
14840KMKG MKG20011110061009011/10/01 06:10:31  5-MIN KMKG 101110Z 23009KT 10SM CLR 07/03 A2989 660 76 0 230/09 RMK AO2
14840KMKG MKG20011110061509011/10/01 06:15:31  5-MIN KMKG 101115Z 23011KT 10SM CLR 07/03 A2989 660 76 0 230/11 RMK AO2
14840KMKG MKG20011110062009011/10/01 06:20:31  5-MIN KMKG 101120Z 23008KT 10SM CLR 08/03 A2989 660 73 0 240/08 RMK AO2
14840KMKG MKG20011110062509011/10/01 06:25:31  5-MIN KMKG 101125Z 23010KT 10SM CLR 08/03 A2989 660 73 0 230/10 RMK AO2
14840KMKG MKG20011110063009011/10/01 06:30:31  5-MIN KMKG 101130Z 23009KT 10SM CLR 08/03 A2989 660 73 0 240/09 RMK AO2
14840KMKG MKG20011110063509011/10/01 06:35:31  5-MIN KMKG 101135Z 24007KT 10SM CLR 08/03 A2989 660 73 0 240/07 RMK AO2
14840KMKG MKG20011110064009011/10/01 06:40:31  5-MIN KMKG 101140Z 24008KT 10SM CLR 07/03 A2989 660 76 0 240/08 RMK AO2
14840KMKG MKG20011110064509011/10/01 06:45:31  5-MIN KMKG 101145Z 23009KT 10SM CLR 07/03 A2989 660 76 0 240/09 RMK AO2
14840KMKG MKG20011110065012511/10/01 06:50:31  5-MIN KMKG 101150Z 23008KT 10SM CLR 08/03 A2989 660 70 0 230/08 RMK AO2 SLP124 T00780028 10094 20072 57029
14840KMKG MKG20011110065512511/10/01 06:55:31  5-MIN KMKG 101155Z 24008KT 10SM CLR 08/03 A2989 660 70 0 240/08 RMK AO2 SLP125 T00780028 10094 20072 56011
14840KMKG MKG20011110070009011/10/01 07:00:31  5-MIN KMKG 101200Z 24008KT 10SM CLR 07/03 A2989 660 73 0 250/08 RMK AO2
14840KMKG MKG20011110070509011/10/01 07:05:31  5-MIN KMKG 101205Z 25011KT 10SM CLR 07/03 A2989 650 73 0 250/11 RMK AO2
14840KMKG MKG20011110071009011/10/01 07:10:31  5-MIN KMKG 101210Z 24009KT 10SM CLR 07/03 A2989 660 73 0 250/09 RMK AO2
14840KMKG MKG20011110071509011/10/01 07:15:31  5-MIN KMKG 101215Z 24008KT 10SM CLR 07/03 A2989 660 73 0 240/08 RMK AO2
14840KMKG MKG20011110072009011/10/01 07:20:31  5-MIN KMKG 101220Z 24010KT 10SM CLR 07/03 A2989 660 76 0 240/10 RMK AO2
14840KMKG MKG20011110072509011/10/01 07:25:31  5-MIN KMKG 101225Z 24009KT 10SM CLR 07/03 A2989 660 73 0 240/09 RMK AO2
14840KMKG MKG20011110073009011/10/01 07:30:31  5-MIN KMKG 101230Z 25008KT 10SM CLR 07/03 A2989 660 73 0 250/08 RMK AO2
14840KMKG MKG20011110073509011/10/01 07:35:31  5-MIN KMKG 101235Z 24008KT 10SM CLR 07/03 A2989 660 73 0 240/08 RMK AO2
14840KMKG MKG20011110074009011/10/01 07:40:31  5-MIN KMKG 101240Z 25011KT 10SM CLR 08/03 A2989 660 70 0 250/11 RMK AO2
14840KMKG MKG20011110074509011/10/01 07:45:31  5-MIN KMKG 101245Z 25009KT 10SM CLR 07/03 A2990 650 73 0 260/09 RMK AO2
14840KMKG MKG20011110075010711/10/01 07:50:31  5-MIN KMKG 101250Z 25008KT 10SM CLR 07/03 A2990 650 76 0 250/08 RMK AO2 SLP127 T00720033
14840KMKG MKG20011110075510711/10/01 07:55:31  5-MIN KMKG 101255Z 24008KT 10SM CLR 07/03 A2989 650 76 0 250/08 RMK AO2 SLP126 T00720033
14840KMKG MKG20011110080009011/10/01 08:00:31  5-MIN KMKG 101300Z 24010KT 10SM CLR 07/03 A2989 650 76 0 240/10 RMK AO2
14840KMKG MKG20011110080509011/10/01 08:05:31  5-MIN KMKG 101305Z 25009KT 10SM CLR 08/03 A2989 660 73 0 250/09 RMK AO2
14840KMKG MKG20011110081009011/10/01 08:10:31  5-MIN KMKG 101310Z 24009KT 10SM CLR 08/03 A2989 660 73 0 250/09 RMK AO2
14840KMKG MKG20011110081509011/10/01 08:15:31  5-MIN KMKG 101315Z 24009KT 10SM CLR 08/03 A2989 660 73 0 250/09 RMK AO2
14840KMKG MKG20011110082009011/10/01 08:20:31  5-MIN KMKG 101320Z 25008KT 10SM CLR 08/03 A2989 660 73 0 250/08 RMK AO2
14840KMKG MKG20011110082509011/10/01 08:25:31  5-MIN KMKG 101325Z 24009KT 10SM CLR 08/04 A2989 660 76 0 250/09 RMK AO2
14840KMKG MKG20011110083009211/10/01 08:30:31  5-MIN KMKG 101330Z 24009KT 10SM CLR 08/04 A2989 660 73 100 240/09 RMK AO2
14840KMKG MKG20011110083509211/10/01 08:35:31  5-MIN KMKG 101335Z 25008KT 10SM CLR 08/04 A2989 660 73 100 250/08 RMK AO2
14840KMKG MKG20011110084010211/10/01 08:40:31  5-MIN KMKG 101340Z AUTO 25006KT 10SM CLR 08/04 A2989 660 73 100 250/06 RMK AO2 TSNO
14840KMKG MKG20011110084510211/10/01 08:45:31  5-MIN KMKG 101345Z AUTO 25009KT 10SM CLR 08/04 A2989 660 73 100 250/09 RMK AO2 TSNO
14840KMKG MKG20011110085013511/10/01 08:50:31  5-MIN KMKG 101350Z AUTO 25010KT 220V280 10SM CLR 09/04 A2989 660 71 100 260/10 220V280 RMK AO2 SLP124 T00890039 TSNO
14840KMKG MKG20011110085511911/10/01 08:55:31  5-MIN KMKG 101355Z AUTO 26010KT 10SM CLR 09/04 A2989 660 71 100 260/10 RMK AO2 SLP124 T00890039 TSNO
14840KMKG MKG20011110090010211/10/01 09:00:31  5-MIN KMKG 101400Z AUTO 25010KT 10SM CLR 09/04 A2989 660 71 100 250/10 RMK AO2 TSNO
14840KMKG MKG20011110090510211/10/01 09:05:31  5-MIN KMKG 101405Z AUTO 25011KT 10SM CLR 09/03 A2989 660 68 100 250/11 RMK AO2 TSNO
14840KMKG MKG20011110091010211/10/01 09:10:31  5-MIN KMKG 101410Z AUTO 26010KT 10SM CLR 09/03 A2989 660 68 100 260/10 RMK AO2 TSNO
14840KMKG MKG20011110091510211/10/01 09:15:31  5-MIN KMKG 101415Z AUTO 26011KT 10SM CLR 09/03 A2989 660 65 200 260/11 RMK AO2 TSNO
14840KMKG MKG20011110092010811/10/01 09:20:31  5-MIN KMKG 101420Z AUTO 26012G17KT 10SM CLR 09/03 A2989 660 65 200 260/12G17 RMK AO2 TSNO
14840KMKG MKG20011110092510211/10/01 09:25:31  5-MIN KMKG 101425Z AUTO 26013KT 10SM CLR 09/03 A2989 660 65 200 260/13 RMK AO2 TSNO
14840KMKG MKG20011110093010211/10/01 09:30:31  5-MIN KMKG 101430Z AUTO 25010KT 10SM CLR 09/03 A2988 660 65 200 260/10 RMK AO2 TSNO
14840KMKG MKG20011110093510811/10/01 09:35:31  5-MIN KMKG 101435Z AUTO 27014G18KT 10SM CLR 09/03 A2988 660 65 200 270/14G18 RMK AO2 TSNO
14840KMKG MKG20011110094010211/10/01 09:40:31  5-MIN KMKG 101440Z AUTO 27013KT 10SM CLR 09/03 A2988 660 65 200 270/13 RMK AO2 TSNO
14840KMKG MKG20011110094510211/10/01 09:45:31  5-MIN KMKG 101445Z AUTO 26012KT 10SM CLR 09/04 A2988 660 68 200 270/12 RMK AO2 TSNO
14840KMKG MKG20011110095013111/10/01 09:50:31  5-MIN KMKG 101450Z AUTO 26014G19KT 10SM CLR 09/03 A2989 660 65 200 270/14G19 RMK AO2 SLP123 T00940033 56011 TSNO
14840KMKG MKG20011110095512111/10/01 09:55:31  5-MIN KMKG 101455Z 27011G19KT 10SM CLR 10/04 A2989 660 65 300 270/11G19 RMK AO2 SLP124 T01000039 51001
14840KMKG MKG20011110100009211/10/01 10:00:31  5-MIN KMKG 101500Z 27014KT 10SM CLR 10/03 A2989 660 63 300 280/14 RMK AO2
14840KMKG MKG20011110100509811/10/01 10:05:31  5-MIN KMKG 101505Z 27016G21KT 10SM CLR 10/03 A2989 660 63 300 270/16G21 RMK AO2
14840KMKG MKG20011110101009811/10/01 10:10:31  5-MIN KMKG 101510Z 28015G21KT 10SM CLR 10/03 A2989 660 63 300 280/15G21 RMK AO2
14840KMKG MKG20011110101509811/10/01 10:15:31  5-MIN KMKG 101515Z 28014G21KT 10SM CLR 10/03 A2989 660 63 300 280/14G21 RMK AO2
14840KMKG MKG20011110102009811/10/01 10:20:31  5-MIN KMKG 101520Z 28014G21KT 10SM CLR 10/03 A2989 650 63 300 290/14G21 RMK AO2
14840KMKG MKG20011110102509811/10/01 10:25:31  5-MIN KMKG 101525Z 28013G21KT 10SM CLR 10/03 A2989 650 63 300 290/13G21 RMK AO2
14840KMKG MKG20011110103009811/10/01 10:30:31  5-MIN KMKG 101530Z 29013G21KT 10SM CLR 10/03 A2989 650 60 300 290/13G21 RMK AO2
14840KMKG MKG20011110103509211/10/01 10:35:31  5-MIN KMKG 101535Z 28016KT 10SM CLR 10/03 A2989 660 60 300 290/16 RMK AO2
14840KMKG MKG20011110104009811/10/01 10:40:31  5-MIN KMKG 101540Z 28015G20KT 10SM CLR 10/03 A2989 660 60 300 280/15G20 RMK AO2
14840KMKG MKG20011110104509811/10/01 10:45:31  5-MIN KMKG 101545Z 29014G20KT 10SM CLR 10/03 A2989 650 60 300 290/14G20 RMK AO2
14840KMKG MKG20011110105010911/10/01 10:50:31  5-MIN KMKG 101550Z 29011KT 10SM CLR 10/03 A2989 660 60 300 300/11 RMK AO2 SLP125 T01000028
14840KMKG MKG20011110105511511/10/01 10:55:31  5-MIN KMKG 101555Z 28015G21KT 10SM CLR 10/02 A2989 650 58 300 290/15G21 RMK AO2 SLP125 T01000022
14840KMKG MKG20011110110009811/10/01 11:00:31  5-MIN KMKG 101600Z 30017G21KT 10SM CLR 10/03 A2990 650 60 200 300/17G21 RMK AO2
14840KMKG MKG20011110110509811/10/01 11:05:31  5-MIN KMKG 101605Z 28013G21KT 10SM CLR 10/02 A2990 650 58 200 290/13G21 RMK AO2
14840KMKG MKG20011110111009211/10/01 11:10:31  5-MIN KMKG 101610Z 29012KT 10SM CLR 10/03 A2990 650 60 200 290/12 RMK AO2
14840KMKG MKG20011110111509811/10/01 11:15:31  5-MIN KMKG 101615Z 28014G19KT 10SM CLR 10/03 A2990 650 60 200 290/14G19 RMK AO2
14840KMKG MKG20011110112009811/10/01 11:20:31  5-MIN KMKG 101620Z 29012G19KT 10SM CLR 10/02 A2990 650 58 200 300/12G19 RMK AO2
14840KMKG MKG20011110112509811/10/01 11:25:31  5-MIN KMKG 101625Z 29016G21KT 10SM CLR 10/02 A2990 650 58 200 300/16G21 RMK AO2
14840KMKG MKG20011110113009811/10/01 11:30:31  5-MIN KMKG 101630Z 30015G21KT 10SM CLR 10/02 A2991 640 58 200 300/15G21 RMK AO2
14840KMKG MKG20011110113509811/10/01 11:35:31  5-MIN KMKG 101635Z 30015G21KT 10SM CLR 10/02 A2990 650 58 200 300/15G21 RMK AO2
14840KMKG MKG20011110114009811/10/01 11:40:31  5-MIN KMKG 101640Z 29018G22KT 10SM CLR 09/02 A2991 640 60 200 300/18G22 RMK AO2
14840KMKG MKG20011110114509811/10/01 11:45:31  5-MIN KMKG 101645Z 29017G22KT 10SM CLR 09/02 A2991 640 60 200 290/17G22 RMK AO2
14840KMKG MKG20011110115011511/10/01 11:50:31  5-MIN KMKG 101650Z 28014G21KT 10SM CLR 09/02 A2991 640 60 200 290/14G21 RMK AO2 SLP129 T00940022
14840KMKG MKG20011110115510911/10/01 11:55:31  5-MIN KMKG 101655Z 28015KT 10SM CLR 10/03 A2991 640 60 200 290/15 RMK AO2 SLP129 T01000028
14840KMKG MKG20011110120009211/10/01 12:00:31  5-MIN KMKG 101700Z 29013KT 10SM CLR 10/03 A2991 640 60 200 300/13 RMK AO2
14840KMKG MKG20011110120509811/10/01 12:05:31  5-MIN KMKG 101705Z 30011G17KT 10SM CLR 10/03 A2991 640 60 200 300/11G17 RMK AO2
14840KMKG MKG20011110121009811/10/01 12:10:31  5-MIN KMKG 101710Z 28012G17KT 10SM CLR 10/03 A2991 640 60 200 290/12G17 RMK AO2
14840KMKG MKG20011110121509211/10/01 12:15:31  5-MIN KMKG 101715Z 29010KT 10SM CLR 10/03 A2991 640 63 200 290/10 RMK AO2
14840KMKG MKG20011110122009211/10/01 12:20:31  5-MIN KMKG 101720Z 29010KT 10SM CLR 10/03 A2991 640 60 200 290/10 RMK AO2
14840KMKG MKG20011110122509211/10/01 12:25:31  5-MIN KMKG 101725Z 29011KT 10SM CLR 10/03 A2991 640 60 200 300/11 RMK AO2
14840KMKG MKG20011110123009211/10/01 12:30:31  5-MIN KMKG 101730Z 29012KT 10SM CLR 10/03 A2991 640 60 200 290/12 RMK AO2
14840KMKG MKG20011110123509811/10/01 12:35:31  5-MIN KMKG 101735Z 29012G18KT 10SM CLR 10/03 A2991 640 60 200 290/12G18 RMK AO2
14840KMKG MKG20011110124009811/10/01 12:40:31  5-MIN KMKG 101740Z 29011G18KT 10SM CLR 10/03 A2991 640 60 200 290/11G18 RMK AO2
14840KMKG MKG20011110124509211/10/01 12:45:31  5-MIN KMKG 101745Z 29011KT 10SM CLR 10/03 A2991 640 63 200 290/11 RMK AO2
14840KMKG MKG20011110125012711/10/01 12:50:31  5-MIN KMKG 101750Z 28013KT 10SM CLR 10/03 A2991 640 63 200 290/13 RMK AO2 SLP132 T01000033 10100 20072 51001
14840KMKG MKG20011110125512711/10/01 12:55:31  5-MIN KMKG 101755Z 29012KT 10SM CLR 10/03 A2991 640 63 200 290/12 RMK AO2 SLP132 T01000033 10100 20072 53008
14840KMKG MKG20011110130009211/10/01 13:00:31  5-MIN KMKG 101800Z 28013KT 10SM CLR 10/03 A2991 640 63 200 290/13 RMK AO2
14840KMKG MKG20011110130509211/10/01 13:05:31  5-MIN KMKG 101805Z 29013KT 10SM CLR 10/03 A2992 630 63 200 290/13 RMK AO2
14840KMKG MKG20011110131009811/10/01 13:10:31  5-MIN KMKG 101810Z 29013G19KT 10SM CLR 10/03 A2992 630 63 200 290/13G19 RMK AO2
14840KMKG MKG20011110131509811/10/01 13:15:31  5-MIN KMKG 101815Z 29013G19KT 10SM CLR 10/04 A2992 630 65 200 290/13G19 RMK AO2
14840KMKG MKG20011110132009811/10/01 13:20:31  5-MIN KMKG 101820Z 30012G19KT 10SM CLR 10/04 A2992 630 65 200 300/12G19 RMK AO2
14840KMKG MKG20011110132509211/10/01 13:25:31  5-MIN KMKG 101825Z 28013KT 10SM CLR 10/04 A2992 630 65 200 290/13 RMK AO2
14840KMKG MKG20011110133009211/10/01 13:30:31  5-MIN KMKG 101830Z 28013KT 10SM CLR 11/04 A2992 630 63 300 280/13 RMK AO2
14840KMKG MKG20011110133509211/10/01 13:35:31  5-MIN KMKG 101835Z 28013KT 10SM CLR 10/04 A2992 630 65 200 290/13 RMK AO2
14840KMKG MKG20011110134009211/10/01 13:40:31  5-MIN KMKG 101840Z 29014KT 10SM CLR 10/04 A2993 630 65 200 290/14 RMK AO2
14840KMKG MKG20011110134509211/10/01 13:45:31  5-MIN KMKG 101845Z 30014KT 10SM CLR 10/04 A2993 620 65 200 300/14 RMK AO2
14840KMKG MKG20011110135010911/10/01 13:50:31  5-MIN KMKG 101850Z 28015KT 10SM CLR 10/04 A2993 620 65 200 290/15 RMK AO2 SLP138 T01000039
14840KMKG MKG20011110135510911/10/01 13:55:31  5-MIN KMKG 101855Z 29010KT 10SM CLR 10/04 A2994 620 68 200 300/10 RMK AO2 SLP139 T01000044
14840KMKG MKG20011110140009211/10/01 14:00:31  5-MIN KMKG 101900Z 30012KT 10SM CLR 11/04 A2994 610 66 300 300/12 RMK AO2
14840KMKG MKG20011110140509811/10/01 14:05:31  5-MIN KMKG 101905Z 30013G18KT 10SM CLR 10/04 A2994 610 68 200 310/13G18 RMK AO2
14840KMKG MKG20011110141009811/10/01 14:10:31  5-MIN KMKG 101910Z 30012G18KT 10SM CLR 11/04 A2994 610 66 300 300/12G18 RMK AO2
14840KMKG MKG20011110141509811/10/01 14:15:31  5-MIN KMKG 101915Z 31011G17KT 10SM CLR 11/04 A2994 610 66 300 310/11G17 RMK AO2
14840KMKG MKG20011110142009811/10/01 14:20:31  5-MIN KMKG 101920Z 30014G18KT 10SM CLR 10/04 A2994 610 65 200 310/14G18 RMK AO2
14840KMKG MKG20011110142509211/10/01 14:25:31  5-MIN KMKG 101925Z 30013KT 10SM CLR 10/04 A2994 610 68 200 310/13 RMK AO2
14840KMKG MKG20011110143009811/10/01 14:30:31  5-MIN KMKG 101930Z 30013G19KT 10SM CLR 10/04 A2995 600 68 200 310/13G19 RMK AO2
14840KMKG MKG20011110143509811/10/01 14:35:31  5-MIN KMKG 101935Z 31011G19KT 10SM CLR 11/04 A2995 600 66 300 310/11G19 RMK AO2
14840KMKG MKG20011110144009211/10/01 14:40:31  5-MIN KMKG 101940Z 31017KT 10SM CLR 11/04 A2995 600 63 300 320/17 RMK AO2
14840KMKG MKG20011110144509811/10/01 14:45:31  5-MIN KMKG 101945Z 31018G22KT 10SM CLR 11/03 A2996 600 58 200 320/18G22 RMK AO2
14840KMKG MKG20011110145011511/10/01 14:50:31  5-MIN KMKG 101950Z 32019G22KT 10SM CLR 11/03 A2996 590 58 200 330/19G22 RMK AO2 SLP148 T01060028
14840KMKG MKG20011110145511511/10/01 14:55:31  5-MIN KMKG 101955Z 32014G22KT 10SM CLR 11/03 A2996 590 58 200 330/14G22 RMK AO2 SLP150 T01060028
14840KMKG MKG20011110150009811/10/01 15:00:31  5-MIN KMKG 102000Z 32018G23KT 10SM CLR 11/03 A2997 590 58 200 320/18G23 RMK AO2
14840KMKG MKG20011110150509811/10/01 15:05:31  5-MIN KMKG 102005Z 31019G23KT 10SM CLR 10/03 A2997 590 60 200 320/19G23 RMK AO2
14840KMKG MKG20011110151009811/10/01 15:10:31  5-MIN KMKG 102010Z 32015G22KT 10SM CLR 10/03 A2997 590 63 200 320/15G22 RMK AO2
14840KMKG MKG20011110151509811/10/01 15:15:31  5-MIN KMKG 102015Z 32015G22KT 10SM CLR 10/03 A2997 580 63 200 320/15G22 RMK AO2
14840KMKG MKG20011110152009811/10/01 15:20:31  5-MIN KMKG 102020Z 32015G21KT 10SM CLR 10/03 A2997 580 63 200 320/15G21 RMK AO2
14840KMKG MKG20011110152509811/10/01 15:25:31  5-MIN KMKG 102025Z 33017G22KT 10SM CLR 10/03 A2998 570 63 200 340/17G22 RMK AO2
14840KMKG MKG20011110153009811/10/01 15:30:31  5-MIN KMKG 102030Z 33019G22KT 10SM CLR 10/03 A2998 570 63 200 330/19G22 RMK AO2
14840KMKG MKG20011110153509211/10/01 15:35:31  5-MIN KMKG 102035Z 31017KT 10SM CLR 10/04 A2998 570 65 100 320/17 RMK AO2
14840KMKG MKG20011110154009811/10/01 15:40:31  5-MIN KMKG 102040Z 32015G21KT 10SM CLR 10/04 A2999 570 65 100 320/15G21 RMK AO2
14840KMKG MKG20011110154509811/10/01 15:45:31  5-MIN KMKG 102045Z 32017G21KT 10SM CLR 09/04 A3000 560 68 100 320/17G21 RMK AO2
14840KMKG MKG20011110155012111/10/01 15:50:31  5-MIN KMKG 102050Z 32021G24KT 10SM CLR 09/04 A3000 560 68 100 320/21G24 RMK AO2 SLP161 T00940039 53008
14840KMKG MKG20011110155512111/10/01 15:55:31  5-MIN KMKG 102055Z 32020G24KT 10SM CLR 09/04 A3000 550 68 100 320/20G24 RMK AO2 SLP162 T00940039 53029
14840KMKG MKG20011110160009011/10/01 16:00:31  5-MIN KMKG 102100Z 32018KT 10SM CLR 09/04 A3001 550 71 0 320/18 RMK AO2
14840KMKG MKG20011110160509611/10/01 16:05:31  5-MIN KMKG 102105Z 32016G23KT 10SM CLR 09/04 A3001 540 71 0 320/16G23 RMK AO2
14840KMKG MKG20011110161009611/10/01 16:10:31  5-MIN KMKG 102110Z 32014G22KT 10SM CLR 09/04 A3002 540 71 0 320/14G22 RMK AO2
14840KMKG MKG20011110161510311/10/01 16:15:31  5-MIN KMKG 102115Z 32017G23KT 10SM CLR 09/04 A3003 530 71 0 330/17G23 RMK AO2 PRESRR
14840KMKG MKG20011110162010611/10/01 16:20:31  5-MIN KMKG 102120Z 33015G23KT 10SM FEW030 09/04 A3003 530 71 0 340/15G23 RMK AO2 PRESRR
14840KMKG MKG20011110162511711/10/01 16:25:31  5-MIN KMKG 102125Z 34020G26KT 10SM FEW030 09/03 A3004 520 65 0 350/20G26 RMK AO2 PK WND 34026/2124
14840KMKG MKG20011110163012011/10/01 16:30:31  5-MIN KMKG 102130Z 34017G26KT 10SM FEW030 08/02 A3004 520 65 -100 340/17G26 RMK AO2 PK WND 34026/2124
14840KMKG MKG20011110163512011/10/01 16:35:31  5-MIN KMKG 102135Z 34019G23KT 10SM FEW030 08/03 A3004 520 68 -100 340/19G23 RMK AO2 PK WND 34026/2124
14840KMKG MKG20011110164012011/10/01 16:40:31  5-MIN KMKG 102140Z 33018G23KT 10SM FEW030 08/03 A3005 510 68 -100 340/18G23 RMK AO2 PK WND 34026/2124
14840KMKG MKG20011110164511411/10/01 16:45:31  5-MIN KMKG 102145Z 34015KT 10SM FEW030 08/03 A3005 510 68 -100 340/15 RMK AO2 PK WND 34026/2124
14840KMKG MKG20011110165013711/10/01 16:50:31  5-MIN KMKG 102150Z 34015G20KT 10SM FEW030 08/03 A3005 510 73 -100 340/15G20 RMK AO2 PK WND 34026/2124 SLP180 T00780033
14840KMKG MKG20011110165513711/10/01 16:55:31  5-MIN KMKG 102155Z 33018G21KT 10SM SCT030 08/03 A3005 510 73 -100 340/18G21 RMK AO2 PK WND 34026/2124 SLP181 T00780033
14840KMKG MKG20011110170010211/10/01 17:00:31  5-MIN KMKG 102200Z 34013G21KT 10SM SCT030 08/03 A3006 500 73 -200 350/13G21 RMK AO2
14840KMKG MKG20011110170510211/10/01 17:05:31  5-MIN KMKG 102205Z 34015G21KT 10SM SCT030 08/03 A3007 490 70 -100 350/15G21 RMK AO2
14840KMKG MKG20011110171010211/10/01 17:10:31  5-MIN KMKG 102210Z 35015G21KT 10SM BKN030 08/03 A3007 500 70 -100 350/15G21 RMK AO2
14840KMKG MKG20011110171510211/10/01 17:15:31  5-MIN KMKG 102215Z 34017G21KT 10SM BKN030 08/03 A3007 490 73 -200 340/17G21 RMK AO2
14840KMKG MKG20011110172010211/10/01 17:20:31  5-MIN KMKG 102220Z 34016G22KT 10SM OVC030 08/03 A3007 490 73 -200 340/16G22 RMK AO2
14840KMKG MKG20011110172510311/10/01 17:25:31  5-MIN KMKG 102225Z 34011KT 10SM SCT027 BKN032 08/03 A3007 490 73 -200 350/11 RMK AO2
14840KMKG MKG20011110173010911/10/01 17:30:31  5-MIN KMKG 102230Z 33018G22KT 10SM SCT027 BKN032 08/03 A3008 480 70 -200 330/18G22 RMK AO2
14840KMKG MKG20011110173510911/10/01 17:35:31  5-MIN KMKG 102235Z 33017G22KT 10SM SCT027 BKN032 08/03 A3009 480 70 -200 340/17G22 RMK AO2
14840KMKG MKG20011110174010911/10/01 17:40:31  5-MIN KMKG 102240Z 34012G21KT 10SM SCT027 BKN032 08/03 A3009 470 70 -200 350/12G21 RMK AO2
14840KMKG MKG20011110174510311/10/01 17:45:31  5-MIN KMKG 102245Z 34014KT 10SM SCT027 BKN032 08/03 A3009 470 70 -200 350/14 RMK AO2
14840KMKG MKG20011110175012611/10/01 17:50:31  5-MIN KMKG 102250Z 35016G22KT 10SM SCT027 BKN032 08/03 A3009 470 70 -200 350/16G22 RMK AO2 SLP194 T00780028
14840KMKG MKG20011110175512611/10/01 17:55:31  5-MIN KMKG 102255Z 34014G22KT 10SM BKN030 OVC034 08/03 A3010 470 70 -200 340/14G22 RMK AO2 SLP196 T00780028
14840KMKG MKG20011111131509411/11/01 13:15:31  5-MIN KMKG 111815Z 00000KT 10SM CLR 07/M03 A3040 190 51 -700 000/00 RMK AO2
14840KMKG MKG20011111132009711/11/01 13:20:31  5-MIN KMKG 111820Z VRB03KT 10SM FEW041 07/M02 A3040 190 51 -600 VRB/03 RMK AO2
14840KMKG MKG20011111132509711/11/01 13:25:31  5-MIN KMKG 111825Z VRB06KT 10SM SCT041 07/M03 A3040 190 51 -700 VRB/06 RMK AO2
14840KMKG MKG20011111133009711/11/01 13:30:31  5-MIN KMKG 111830Z VRB05KT 10SM SCT041 07/M02 A3040 190 53 -700 VRB/05 RMK AO2
14840KMKG MKG20011111133509711/11/01 13:35:31  5-MIN KMKG 111835Z 32006KT 10SM FEW041 07/M03 A3040 190 51 -700 330/06 RMK AO2
14840KMKG MKG20011111134009711/11/01 13:40:31  5-MIN KMKG 111840Z 30007KT 10SM FEW041 07/M02 A3040 190 53 -700 300/07 RMK AO2
14840KMKG MKG20011111134509711/11/01 13:45:31  5-MIN KMKG 111845Z 32007KT 10SM FEW041 07/M02 A3039 190 53 -700 320/07 RMK AO2
14840KMKG MKG20011111135011411/11/01 13:50:31  5-MIN KMKG 111850Z 29005KT 10SM FEW041 07/M02 A3039 200 51 -600 300/05 RMK AO2 SLP298 T00721022
14840KMKG MKG20011111135511411/11/01 13:55:31  5-MIN KMKG 111855Z 29007KT 10SM FEW041 07/M02 A3039 200 53 -600 290/07 RMK AO2 SLP298 T00721017
14840KMKG MKG20011111140009711/11/01 14:00:31  5-MIN KMKG 111900Z 30009KT 10SM FEW041 07/M02 A3039 200 51 -600 300/09 RMK AO2
14840KMKG MKG20011111140509411/11/01 14:05:31  5-MIN KMKG 111905Z 31009KT 10SM CLR 07/M02 A3039 200 53 -600 310/09 RMK AO2
14840KMKG MKG20011111141009411/11/01 14:10:31  5-MIN KMKG 111910Z 26010KT 10SM CLR 07/M02 A3039 200 55 -700 260/10 RMK AO2
14840KMKG MKG20011111141511311/11/01 14:15:31  5-MIN KMKG 111915Z 27008KT 230V320 10SM FEW041 07/M02 A3039 200 53 -700 280/08 230V320 RMK AO2
14840KMKG MKG20011111142009711/11/01 14:20:31  5-MIN KMKG 111920Z 27008KT 10SM FEW041 07/M02 A3039 200 55 -700 280/08 RMK AO2
14840KMKG MKG20011111142509711/11/01 14:25:31  5-MIN KMKG 111925Z 30008KT 10SM FEW041 07/M02 A3039 200 53 -700 300/08 RMK AO2
14840KMKG MKG20011111143011311/11/01 14:30:31  5-MIN KMKG 111930Z 28008KT 260V320 10SM FEW041 07/M02 A3039 200 53 -700 290/08 260V320 RMK AO2
14840KMKG MKG20011111143509711/11/01 14:35:31  5-MIN KMKG 111935Z 26010KT 10SM FEW041 07/M02 A3038 200 55 -700 270/10 RMK AO2
14840KMKG MKG20011111144009711/11/01 14:40:31  5-MIN KMKG 111940Z 27007KT 10SM FEW041 07/M02 A3038 200 55 -700 270/07 RMK AO2
14840KMKG MKG20011111144509711/11/01 14:45:31  5-MIN KMKG 111945Z 27008KT 10SM FEW041 07/M02 A3038 210 55 -700 280/08 RMK AO2
14840KMKG MKG20011111145011111/11/01 14:50:31  5-MIN KMKG 111950Z 26006KT 10SM CLR 07/M02 A3038 200 55 -700 270/06 RMK AO2 SLP295 T00671017
14840KMKG MKG20011111145511111/11/01 14:55:31  5-MIN KMKG 111955Z 27009KT 10SM CLR 07/M02 A3039 200 55 -700 270/09 RMK AO2 SLP296 T00671017
14840KMKG MKG20011111150009411/11/01 15:00:31  5-MIN KMKG 112000Z 24008KT 10SM CLR 07/M02 A3038 200 55 -700 250/08 RMK AO2
14840KMKG MKG20011111150509411/11/01 15:05:31  5-MIN KMKG 112005Z 27008KT 10SM CLR 07/M02 A3039 200 55 -700 280/08 RMK AO2
14840KMKG MKG20011111151011011/11/01 15:10:31  5-MIN KMKG 112010Z 28007KT 230V290 10SM CLR 06/M02 A3038 200 57 -700 280/07 230V290 RMK AO2
14840KMKG MKG20011111151509411/11/01 15:15:31  5-MIN KMKG 112015Z 28007KT 10SM CLR 07/M02 A3038 210 55 -700 290/07 RMK AO2
14840KMKG MKG20011111152009411/11/01 15:20:31  5-MIN KMKG 112020Z 24009KT 10SM CLR 07/M02 A3038 210 55 -700 250/09 RMK AO2
14840KMKG MKG20011111152509411/11/01 15:25:31  5-MIN KMKG 112025Z 25008KT 10SM CLR 06/M02 A3038 210 57 -700 250/08 RMK AO2
14840KMKG MKG20011111153009411/11/01 15:30:31  5-MIN KMKG 112030Z 27008KT 10SM CLR 06/M02 A3038 210 57 -700 280/08 RMK AO2
14840KMKG MKG20011111153509411/11/01 15:35:31  5-MIN KMKG 112035Z 24006KT 10SM CLR 07/M01 A3038 210 57 -700 250/06 RMK AO2
14840KMKG MKG20011111154009411/11/01 15:40:31  5-MIN KMKG 112040Z 25008KT 10SM CLR 06/M02 A3038 200 57 -700 260/08 RMK AO2
14840KMKG MKG20011111154509411/11/01 15:45:31  5-MIN KMKG 112045Z 27007KT 10SM CLR 06/M02 A3039 200 57 -700 270/07 RMK AO2
14840KMKG MKG20011111155011711/11/01 15:50:31  5-MIN KMKG 112050Z 25007KT 10SM CLR 06/M01 A3039 200 60 -700 250/07 RMK AO2 SLP297 T00611011 58007
14840KMKG MKG20011111155511711/11/01 15:55:31  5-MIN KMKG 112055Z 28005KT 10SM CLR 06/M02 A3039 200 57 -700 280/05 RMK AO2 SLP297 T00611017 55003
14840KMKG MKG20011111160009411/11/01 16:00:31  5-MIN KMKG 112100Z 28006KT 10SM CLR 06/M01 A3039 200 60 -700 290/06 RMK AO2
14840KMKG MKG20011111160509411/11/01 16:05:31  5-MIN KMKG 112105Z 29006KT 10SM CLR 06/M01 A3039 200 60 -700 290/06 RMK AO2
14840KMKG MKG20011111161009411/11/01 16:10:31  5-MIN KMKG 112110Z 25007KT 10SM CLR 06/M01 A3039 200 60 -700 260/07 RMK AO2
14840KMKG MKG20011111161509411/11/01 16:15:31  5-MIN KMKG 112115Z 25006KT 10SM CLR 06/M02 A3039 200 57 -700 260/06 RMK AO2
14840KMKG MKG20011111162009411/11/01 16:20:31  5-MIN KMKG 112120Z 25005KT 10SM CLR 06/M02 A3039 200 57 -700 260/05 RMK AO2
14840KMKG MKG20011111162509411/11/01 16:25:31  5-MIN KMKG 112125Z 27005KT 10SM CLR 06/M02 A3039 200 57 -700 270/05 RMK AO2
14840KMKG MKG20011111163009411/11/01 16:30:31  5-MIN KMKG 112130Z 28005KT 10SM CLR 06/M01 A3039 200 60 -700 280/05 RMK AO2
14840KMKG MKG20011111163509411/11/01 16:35:31  5-MIN KMKG 112135Z 28007KT 10SM CLR 06/M01 A3039 200 60 -700 280/07 RMK AO2
14840KMKG MKG20011111164009411/11/01 16:40:31  5-MIN KMKG 112140Z 28006KT 10SM CLR 06/M01 A3039 200 62 -800 280/06 RMK AO2
14840KMKG MKG20011111164509411/11/01 16:45:31  5-MIN KMKG 112145Z 26005KT 10SM CLR 06/M01 A3039 200 62 -800 260/05 RMK AO2
14840KMKG MKG20011111165011111/11/01 16:50:31  5-MIN KMKG 112150Z 26005KT 10SM CLR 06/M01 A3039 200 62 -800 270/05 RMK AO2 SLP297 T00561011
14840KMKG MKG20011111165511111/11/01 16:55:31  5-MIN KMKG 112155Z 27005KT 10SM CLR 06/M01 A3039 200 62 -800 270/05 RMK AO2 SLP296 T00561011
14840KMKG MKG20011111170009411/11/01 17:00:31  5-MIN KMKG 112200Z 26006KT 10SM CLR 05/M01 A3039 200 64 -900 270/06 RMK AO2
14840KMKG MKG20011111170509411/11/01 17:05:31  5-MIN KMKG 112205Z 27004KT 10SM CLR 04/M01 A3039 200 67 -900 270/04 RMK AO2
14840KMKG MKG20011111171009411/11/01 17:10:31  5-MIN KMKG 112210Z 24004KT 10SM CLR 05/M01 A3039 200 64 -900 250/04 RMK AO2
14840KMKG MKG20011111171509411/11/01 17:15:31  5-MIN KMKG 112215Z 25005KT 10SM CLR 04/M01 A3039 200 67 -900 250/05 RMK AO2
14840KMKG MKG20011111172009411/11/01 17:20:31  5-MIN KMKG 112220Z 25004KT 10SM CLR 04/M01 A3039 200 67 -900 250/04 RMK AO2
14840KMKG MKG20011111172509411/11/01 17:25:31  5-MIN KMKG 112225Z 24003KT 10SM CLR 04/M01 A3039 200 67 -900 250/03 RMK AO2
14840KMKG MKG20011111173009411/11/01 17:30:31  5-MIN KMKG 112230Z 24003KT 10SM CLR 04/M01 A3039 200 67 -900 240/03 RMK AO2
14840KMKG MKG20011111173509411/11/01 17:35:31  5-MIN KMKG 112235Z 26003KT 10SM CLR 04/M01 A3039 200 67 -900 260/03 RMK AO2
14840KMKG MKG20011111174009411/11/01 17:40:31  5-MIN KMKG 112240Z 24003KT 10SM CLR 04/M01 A3039 200 67 -900 250/03 RMK AO2
14840KMKG MKG20011111174509411/11/01 17:45:31  5-MIN KMKG 112245Z 00000KT 10SM CLR 04/M01 A3039 200 67 -900 000/00 RMK AO2
14840KMKG MKG20011111175011211/11/01 17:50:31  5-MIN KMKG 112250Z 00000KT 10SM CLR 04/M01 A3039 200 70 -1000 000/00 RMK AO2 SLP299 T00391011
14840KMKG MKG20011111175511111/11/01 17:55:31  5-MIN KMKG 112255Z 00000KT 10SM CLR 04/M01 A3039 200 67 -900 000/00 RMK AO2 SLP299 T00441011
14840KMKG MKG20011111180009511/11/01 18:00:31  5-MIN KMKG 112300Z 00000KT 10SM CLR 04/M01 A3040 190 70 -1000 000/00 RMK AO2
14840KMKG MKG20011111180509511/11/01 18:05:31  5-MIN KMKG 112305Z 21003KT 10SM CLR 04/M01 A3040 190 70 -1000 210/03 RMK AO2
14840KMKG MKG20011111181009511/11/01 18:10:31  5-MIN KMKG 112310Z 00000KT 10SM CLR 03/M01 A3040 190 72 -1100 000/00 RMK AO2
14840KMKG MKG20011111181509511/11/01 18:15:31  5-MIN KMKG 112315Z 00000KT 10SM CLR 03/M01 A3040 190 72 -1100 000/00 RMK AO2
14840KMKG MKG20011111182009511/11/01 18:20:31  5-MIN KMKG 112320Z 00000KT 10SM CLR 03/M02 A3040 190 72 -1200 000/00 RMK AO2
14840KMKG MKG20011111182509511/11/01 18:25:31  5-MIN KMKG 112325Z 00000KT 10SM CLR 03/M01 A3040 190 75 -1200 000/00 RMK AO2
14840KMKG MKG20011111183009811/11/01 18:30:31  5-MIN KMKG 112330Z 00000KT 10SM FEW030 02/M02 A3040 190 78 -1300 000/00 RMK AO2
14840KMKG MKG20011111183509811/11/01 18:35:31  5-MIN KMKG 112335Z 00000KT 10SM FEW030 01/M02 A3040 190 78 -1400 000/00 RMK AO2
14840KMKG MKG20011111184009811/11/01 18:40:31  5-MIN KMKG 112340Z 00000KT 10SM FEW030 01/M02 A3040 190 78 -1400 000/00 RMK AO2
14840KMKG MKG20011111184509811/11/01 18:45:31  5-MIN KMKG 112345Z 00000KT 10SM FEW030 01/M02 A3040 190 78 -1400 000/00 RMK AO2
14840KMKG MKG20011111185013311/11/01 18:50:31  5-MIN KMKG 112350Z 00000KT 10SM FEW030 01/M02 A3040 190 82 -1400 000/00 RMK AO2 SLP302 T00111017 10078 20006 55003
14840KMKG MKG20011111185513311/11/01 18:55:31  5-MIN KMKG 112355Z 00000KT 10SM FEW030 00/M02 A3040 190 85 -1500 000/00 RMK AO2 SLP302 T00001022 10078 20000 53003
14840KMKG MKG20011111190009511/11/01 19:00:31  5-MIN KMKG 120000Z 00000KT 10SM CLR 01/M02 A3040 190 82 -1400 000/00 RMK AO2
14840KMKG MKG20011111190509511/11/01 19:05:31  5-MIN KMKG 120005Z 00000KT 10SM CLR 01/M02 A3040 190 82 -1400 000/00 RMK AO2
14840KMKG MKG20011111191009511/11/01 19:10:31  5-MIN KMKG 120010Z 00000KT 10SM CLR 01/M02 A3040 190 82 -1400 000/00 RMK AO2
14840KMKG MKG20011111191509511/11/01 19:15:31  5-MIN KMKG 120015Z 00000KT 10SM CLR 01/M02 A3040 190 82 -1400 000/00 RMK AO2
14840KMKG MKG20011111192009511/11/01 19:20:31  5-MIN KMKG 120020Z 00000KT 10SM CLR 01/M02 A3040 190 82 -1400 000/00 RMK AO2
14840KMKG MKG20011111192509511/11/01 19:25:31  5-MIN KMKG 120025Z 00000KT 10SM CLR 00/M02 A3040 190 85 -1500 000/00 RMK AO2
14840KMKG MKG20011111193009511/11/01 19:30:31  5-MIN KMKG 120030Z 00000KT 10SM CLR 01/M02 A3040 190 82 -1400 000/00 RMK AO2
14840KMKG MKG20011111193509511/11/01 19:35:31  5-MIN KMKG 120035Z 00000KT 10SM CLR 00/M02 A3040 190 85 -1500 000/00 RMK AO2
14840KMKG MKG20011111194009511/11/01 19:40:31  5-MIN KMKG 120040Z 00000KT 10SM CLR 01/M02 A3040 190 82 -1400 000/00 RMK AO2
14840KMKG MKG20011111194509511/11/01 19:45:31  5-MIN KMKG 120045Z 00000KT 10SM CLR 00/M02 A3040 190 85 -1500 000/00 RMK AO2
14840KMKG MKG20011111195011211/11/01 19:50:31  5-MIN KMKG 120050Z 00000KT 10SM CLR 00/M02 A3040 190 85 -1500 000/00 RMK AO2 SLP303 T00001022
14840KMKG MKG20011111195511211/11/01 19:55:31  5-MIN KMKG 120055Z 00000KT 10SM CLR 01/M02 A3040 190 85 -1400 000/00 RMK AO2 SLP301 T00061017
14840KMKG MKG20011111200009511/11/01 20:00:31  5-MIN KMKG 120100Z 00000KT 10SM CLR 01/M02 A3040 190 82 -1400 000/00 RMK AO2
14840KMKG MKG20011111200509511/11/01 20:05:31  5-MIN KMKG 120105Z 00000KT 10SM CLR 00/M02 A3040 190 85 -1500 000/00 RMK AO2
14840KMKG MKG20011111201009511/11/01 20:10:31  5-MIN KMKG 120110Z 00000KT 10SM CLR 00/M02 A3040 190 85 -1500 000/00 RMK AO2
14840KMKG MKG20011111201509511/11/01 20:15:31  5-MIN KMKG 120115Z 00000KT 10SM CLR 00/M02 A3040 190 85 -1500 000/00 RMK AO2
14840KMKG MKG20011111202009611/11/01 20:20:31  5-MIN KMKG 120120Z 00000KT 10SM CLR M01/M02 A3040 190 88 -1600 000/00 RMK AO2
14840KMKG MKG20011111202509511/11/01 20:25:31  5-MIN KMKG 120125Z 11003KT 10SM CLR 00/M02 A3040 190 85 -1500 110/03 RMK AO2
14840KMKG MKG20011111203009611/11/01 20:30:31  5-MIN KMKG 120130Z 00000KT 10SM CLR M01/M02 A3040 190 88 -1600 000/00 RMK AO2
14840KMKG MKG20011111203509611/11/01 20:35:31  5-MIN KMKG 120135Z 00000KT 10SM CLR M01/M02 A3040 190 92 -1700 000/00 RMK AO2
14840KMKG MKG20011111204009611/11/01 20:40:31  5-MIN KMKG 120140Z 00000KT 10SM CLR M01/M02 A3040 190 92 -1700 000/00 RMK AO2
14840KMKG MKG20011111204509611/11/01 20:45:31  5-MIN KMKG 120145Z 13003KT 10SM CLR M01/M02 A3040 190 88 -1600 130/03 RMK AO2
14840KMKG MKG20011111205011311/11/01 20:50:31  5-MIN KMKG 120150Z 00000KT 10SM CLR M01/M02 A3040 190 88 -1600 000/00 RMK AO2 SLP302 T10061022
14840KMKG MKG20011111205511311/11/01 20:55:31  5-MIN KMKG 120155Z 00000KT 10SM CLR M01/M02 A3040 190 88 -1600 000/00 RMK AO2 SLP302 T10061022
14840KMKG MKG20011111210009611/11/01 21:00:31  5-MIN KMKG 120200Z 00000KT 10SM CLR M01/M02 A3040 190 88 -1600 000/00 RMK AO2
14840KMKG MKG20011111210509511/11/01 21:05:31  5-MIN KMKG 120205Z 00000KT 10SM CLR 00/M02 A3040 190 85 -1500 000/00 RMK AO2
14840KMKG MKG20011111211009611/11/01 21:10:31  5-MIN KMKG 120210Z 00000KT 10SM CLR M01/M02 A3040 190 88 -1600 000/00 RMK AO2
14840KMKG MKG20011111211509611/11/01 21:15:31  5-MIN KMKG 120215Z 00000KT 10SM CLR M01/M02 A3040 190 92 -1600 000/00 RMK AO2
14840KMKG MKG20011111212009611/11/01 21:20:31  5-MIN KMKG 120220Z 00000KT 10SM CLR M01/M02 A3041 180 88 -1600 000/00 RMK AO2
14840KMKG MKG20011111212509611/11/01 21:25:31  5-MIN KMKG 120225Z 00000KT 10SM CLR M01/M02 A3041 180 88 -1600 000/00 RMK AO2
14840KMKG MKG20011111213009611/11/01 21:30:31  5-MIN KMKG 120230Z 10003KT 10SM CLR M01/M02 A3041 180 92 -1700 100/03 RMK AO2
14840KMKG MKG20011111213509611/11/01 21:35:31  5-MIN KMKG 120235Z 11003KT 10SM CLR M01/M03 A3041 180 88 -1700 110/03 RMK AO2
14840KMKG MKG20011111214009611/11/01 21:40:31  5-MIN KMKG 120240Z 10003KT 10SM CLR M01/M02 A3041 180 88 -1600 110/03 RMK AO2
14840KMKG MKG20011111214509611/11/01 21:45:31  5-MIN KMKG 120245Z 11004KT 10SM CLR M01/M03 A3041 180 88 -1700 110/04 RMK AO2
14840KMKG MKG20011111215011911/11/01 21:50:31  5-MIN KMKG 120250Z 12003KT 10SM CLR M02/M03 A3041 180 92 -1700 120/03 RMK AO2 SLP305 T10171028 53003
14840KMKG MKG20011111215511811/11/01 21:55:31  5-MIN KMKG 120255Z 12004KT 9SM CLR M02/M03 A3041 180 92 -1700 120/04 RMK AO2 SLP305 T10171028 53003
14840KMKG MKG20011111220009511/11/01 22:00:31  5-MIN KMKG 120300Z 12005KT 9SM CLR M02/M03 A3041 180 92 -1700 130/05 RMK AO2
14840KMKG MKG20011111220509611/11/01 22:05:31  5-MIN KMKG 120305Z 11004KT 10SM CLR M02/M03 A3041 180 92 -1800 110/04 RMK AO2
14840KMKG MKG20011111221009611/11/01 22:10:31  5-MIN KMKG 120310Z 00000KT 10SM CLR M02/M03 A3042 180 92 -1800 000/00 RMK AO2
14840KMKG MKG20011111221509611/11/01 22:15:31  5-MIN KMKG 120315Z 00000KT 10SM CLR M02/M03 A3042 170 88 -1700 000/00 RMK AO2
14840KMKG MKG20011111222009611/11/01 22:20:31  5-MIN KMKG 120320Z 00000KT 10SM CLR M01/M03 A3042 170 88 -1700 000/00 RMK AO2
14840KMKG MKG20011111222509611/11/01 22:25:31  5-MIN KMKG 120325Z 00000KT 10SM CLR M01/M03 A3042 170 88 -1700 000/00 RMK AO2
14840KMKG MKG20011111223009611/11/01 22:30:31  5-MIN KMKG 120330Z 00000KT 10SM CLR M01/M03 A3042 170 88 -1700 000/00 RMK AO2
14840KMKG MKG20011111223509611/11/01 22:35:31  5-MIN KMKG 120335Z 00000KT 10SM CLR M01/M03 A3042 170 88 -1700 000/00 RMK AO2
14840KMKG MKG20011111224009611/11/01 22:40:31  5-MIN KMKG 120340Z 00000KT 10SM CLR M01/M02 A3042 170 92 -1700 000/00 RMK AO2
14840KMKG MKG20011111224509611/11/01 22:45:31  5-MIN KMKG 120345Z 00000KT 10SM CLR M02/M03 A3042 170 92 -1700 000/00 RMK AO2
14840KMKG MKG20011111225011311/11/01 22:50:31  5-MIN KMKG 120350Z 00000KT 10SM CLR M02/M03 A3042 170 92 -1700 000/00 RMK AO2 SLP307 T10171028
14840KMKG MKG20011111225511311/11/01 22:55:31  5-MIN KMKG 120355Z 00000KT 10SM CLR M02/M03 A3042 170 92 -1700 000/00 RMK AO2 SLP308 T10171028
14840KMKG MKG20011111230009611/11/01 23:00:31  5-MIN KMKG 120400Z 00000KT 10SM CLR M02/M03 A3042 170 92 -1700 000/00 RMK AO2
14840KMKG MKG20011111230509611/11/01 23:05:31  5-MIN KMKG 120405Z 00000KT 10SM CLR M02/M03 A3042 170 92 -1700 000/00 RMK AO2
14840KMKG MKG20011111231009611/11/01 23:10:31  5-MIN KMKG 120410Z 00000KT 10SM CLR M02/M03 A3042 170 92 -1700 000/00 RMK AO2
14840KMKG MKG20011111231509611/11/01 23:15:31  5-MIN KMKG 120415Z 11003KT 10SM CLR M02/M03 A3042 170 96 -1800 110/03 RMK AO2
14840KMKG MKG20011111232009611/11/01 23:20:31  5-MIN KMKG 120420Z 11003KT 10SM CLR M02/M03 A3042 170 96 -1800 120/03 RMK AO2
14840KMKG MKG20011111232509611/11/01 23:25:31  5-MIN KMKG 120425Z 13003KT 10SM CLR M02/M03 A3042 170 96 -1800 130/03 RMK AO2
14840KMKG MKG20011111233009611/11/01 23:30:31  5-MIN KMKG 120430Z 13003KT 10SM CLR M02/M03 A3042 170 92 -1700 140/03 RMK AO2
14840KMKG MKG20011111233509611/11/01 23:35:31  5-MIN KMKG 120435Z 00000KT 10SM CLR M01/M02 A3042 170 92 -1700 000/00 RMK AO2
14840KMKG MKG20011111234009611/11/01 23:40:31  5-MIN KMKG 120440Z 00000KT 10SM CLR M01/M03 A3042 170 88 -1700 000/00 RMK AO2
14840KMKG MKG20011111234509611/11/01 23:45:31  5-MIN KMKG 120445Z 00000KT 10SM CLR M02/M03 A3042 170 88 -1700 000/00 RMK AO2
14840KMKG MKG20011111235012311/11/01 23:50:31  5-MIN KMKG 120450Z 12003KT 10SM CLR M02/M03 A3042 170 92 -1800 120/03 RMK AO2 SLP308 T10221033 400781022
14840KMKG MKG20011111235512311/11/01 23:55:31  5-MIN KMKG 120455Z 12004KT 10SM CLR M02/M03 A3042 170 92 -1800 120/04 RMK AO2 SLP309 T10221033 400781022
14840KMKG MKG20011112000009611/12/01 00:00:31  5-MIN KMKG 120500Z 12004KT 10SM CLR M03/M04 A3042 170 92 -1900 120/04 RMK AO2
14840KMKG MKG20011112000509611/12/01 00:05:31  5-MIN KMKG 120505Z 11003KT 10SM CLR M02/M03 A3042 170 92 -1800 110/03 RMK AO2
14840KMKG MKG20011112001009611/12/01 00:10:31  5-MIN KMKG 120510Z 11003KT 10SM CLR M02/M03 A3042 170 96 -1800 120/03 RMK AO2
14840KMKG MKG20011112001509611/12/01 00:15:31  5-MIN KMKG 120515Z 11003KT 10SM CLR M03/M03 A3042 170 96 -1900 110/03 RMK AO2
14840KMKG MKG20011112002009611/12/01 00:20:31  5-MIN KMKG 120520Z 12004KT 10SM CLR M02/M03 A3042 170 92 -1800 120/04 RMK AO2
14840KMKG MKG20011112002509611/12/01 00:25:31  5-MIN KMKG 120525Z 13003KT 10SM CLR M02/M04 A3042 170 88 -1800 130/03 RMK AO2
14840KMKG MKG20011112003009611/12/01 00:30:31  5-MIN KMKG 120530Z 13003KT 10SM CLR M03/M04 A3042 170 92 -1900 130/03 RMK AO2
14840KMKG MKG20011112003509611/12/01 00:35:31  5-MIN KMKG 120535Z 12004KT 10SM CLR M02/M03 A3042 170 92 -1800 130/04 RMK AO2
14840KMKG MKG20011112004009611/12/01 00:40:31  5-MIN KMKG 120540Z 13004KT 10SM CLR M02/M03 A3042 170 92 -1800 130/04 RMK AO2
14840KMKG MKG20011112004509611/12/01 00:45:31  5-MIN KMKG 120545Z 11004KT 10SM CLR M03/M04 A3042 170 92 -1900 120/04 RMK AO2
14840KMKG MKG20011112005013111/12/01 00:50:31  5-MIN KMKG 120550Z 12003KT 10SM CLR M03/M04 A3042 170 92 -1900 120/03 RMK AO2 SLP308 T10281039 10006 21028 53003
14840KMKG MKG20011112005513111/12/01 00:55:31  5-MIN KMKG 120555Z 11003KT 10SM CLR M02/M03 A3042 170 92 -1800 120/03 RMK AO2 SLP309 T10221033 10006 21028 51004
14840KMKG MKG20011112010009611/12/01 01:00:31  5-MIN KMKG 120600Z 09004KT 10SM CLR M02/M03 A3042 170 96 -1800 100/04 RMK AO2
14840KMKG MKG20011112010509611/12/01 01:05:31  5-MIN KMKG 120605Z 09003KT 10SM CLR M02/M03 A3042 170 96 -1800 100/03 RMK AO2
14840KMKG MKG20011112011009511/12/01 01:10:31  5-MIN KMKG 120610Z 11003KT 9SM CLR M02/M03 A3042 170 92 -1700 110/03 RMK AO2
14840KMKG MKG20011112011509511/12/01 01:15:31  5-MIN KMKG 120615Z 12004KT 9SM CLR M02/M03 A3042 170 92 -1800 130/04 RMK AO2
14840KMKG MKG20011112012009511/12/01 01:20:31  5-MIN KMKG 120620Z 12004KT 9SM CLR M03/M04 A3042 170 92 -1900 130/04 RMK AO2
14840KMKG MKG20011112012509611/12/01 01:25:31  5-MIN KMKG 120625Z 14003KT 10SM CLR M03/M04 A3042 170 92 -1900 140/03 RMK AO2
14840KMKG MKG20011112013009611/12/01 01:30:31  5-MIN KMKG 120630Z 13003KT 10SM CLR M02/M03 A3042 170 92 -1800 130/03 RMK AO2
14840KMKG MKG20011112013509611/12/01 01:35:31  5-MIN KMKG 120635Z 12003KT 10SM CLR M03/M04 A3042 170 92 -1900 130/03 RMK AO2
14840KMKG MKG20011112014009611/12/01 01:40:31  5-MIN KMKG 120640Z 11004KT 10SM CLR M03/M04 A3042 170 92 -1900 110/04 RMK AO2
14840KMKG MKG20011112014509611/12/01 01:45:31  5-MIN KMKG 120645Z 11004KT 10SM CLR M03/M04 A3042 170 92 -1900 120/04 RMK AO2
14840KMKG MKG20011112015011311/12/01 01:50:31  5-MIN KMKG 120650Z 12004KT 10SM CLR M02/M03 A3042 170 96 -1800 120/04 RMK AO2 SLP307 T10221028
14840KMKG MKG20011112015511211/12/01 01:55:31  5-MIN KMKG 120655Z 12004KT 9SM CLR M03/M04 A3042 170 92 -1900 120/04 RMK AO2 SLP308 T10281039
14840KMKG MKG20011112020009611/12/01 02:00:31  5-MIN KMKG 120700Z 12004KT 10SM CLR M03/M04 A3042 170 92 -2000 120/04 RMK AO2
14840KMKG MKG20011112020509611/12/01 02:05:31  5-MIN KMKG 120705Z 12003KT 10SM CLR M03/M04 A3042 170 92 -1900 130/03 RMK AO2
14840KMKG MKG20011112021009511/12/01 02:10:31  5-MIN KMKG 120710Z 00000KT 9SM CLR M03/M04 A3042 170 92 -1900 000/00 RMK AO2
14840KMKG MKG20011112021509511/12/01 02:15:31  5-MIN KMKG 120715Z 00000KT 9SM CLR M03/M03 A3042 170 96 -1900 000/00 RMK AO2
14840KMKG MKG20011112022009511/12/01 02:20:31  5-MIN KMKG 120720Z 00000KT 9SM CLR M03/M04 A3042 170 92 -1900 000/00 RMK AO2
14840KMKG MKG20011112022509511/12/01 02:25:31  5-MIN KMKG 120725Z 00000KT 9SM CLR M02/M03 A3042 170 92 -1800 000/00 RMK AO2
14840KMKG MKG20011112023009511/12/01 02:30:31  5-MIN KMKG 120730Z 00000KT 9SM CLR M03/M04 A3042 170 92 -1900 000/00 RMK AO2
14840KMKG MKG20011112023509511/12/01 02:35:31  5-MIN KMKG 120735Z 00000KT 9SM CLR M03/M04 A3042 170 92 -1900 000/00 RMK AO2
14840KMKG MKG20011112024009611/12/01 02:40:31  5-MIN KMKG 120740Z 00000KT 10SM CLR M03/M04 A3043 160 88 -1900 000/00 RMK AO2
14840KMKG MKG20011112024509511/12/01 02:45:31  5-MIN KMKG 120745Z 11003KT 9SM CLR M03/M04 A3043 160 92 -1900 110/03 RMK AO2
14840KMKG MKG20011112025011211/12/01 02:50:31  5-MIN KMKG 120750Z 11003KT 9SM CLR M03/M04 A3043 160 92 -1900 110/03 RMK AO2 SLP311 T10281039
14840KMKG MKG20011112025511211/12/01 02:55:31  5-MIN KMKG 120755Z 10003KT 9SM CLR M03/M04 A3043 160 96 -2000 110/03 RMK AO2 SLP311 T10331039
14840KMKG MKG20011112030009511/12/01 03:00:31  5-MIN KMKG 120800Z 10003KT 9SM CLR M04/M05 A3043 160 92 -2000 110/03 RMK AO2
14840KMKG MKG20011112030509511/12/01 03:05:31  5-MIN KMKG 120805Z 11003KT 9SM CLR M03/M04 A3043 160 92 -2000 120/03 RMK AO2
14840KMKG MKG20011112031009511/12/01 03:10:31  5-MIN KMKG 120810Z 12004KT 9SM CLR M03/M04 A3043 160 92 -2000 120/04 RMK AO2
14840KMKG MKG20011112031509511/12/01 03:15:31  5-MIN KMKG 120815Z 11004KT 9SM CLR M03/M04 A3043 160 92 -2000 120/04 RMK AO2
14840KMKG MKG20011112032009511/12/01 03:20:31  5-MIN KMKG 120820Z 12005KT 9SM CLR M03/M04 A3043 160 92 -2000 120/05 RMK AO2
14840KMKG MKG20011112032509511/12/01 03:25:31  5-MIN KMKG 120825Z 12004KT 8SM CLR M03/M04 A3043 160 92 -2000 130/04 RMK AO2
14840KMKG MKG20011112033009511/12/01 03:30:31  5-MIN KMKG 120830Z 12004KT 8SM CLR M03/M04 A3043 160 96 -2000 120/04 RMK AO2
14840KMKG MKG20011112033509511/12/01 03:35:31  5-MIN KMKG 120835Z 11004KT 8SM CLR M03/M04 A3043 170 96 -2000 120/04 RMK AO2
14840KMKG MKG20011112034009511/12/01 03:40:31  5-MIN KMKG 120840Z 11005KT 8SM CLR M03/M04 A3043 170 92 -1900 110/05 RMK AO2
14840KMKG MKG20011112034509511/12/01 03:45:31  5-MIN KMKG 120845Z 11004KT 8SM CLR M03/M04 A3043 170 92 -2000 120/04 RMK AO2
14840KMKG MKG20011112035011811/12/01 03:50:31  5-MIN KMKG 120850Z 11004KT 8SM CLR M03/M04 A3043 170 92 -1900 120/04 RMK AO2 SLP311 T10281039 51004
14840KMKG MKG20011112035511811/12/01 03:55:31  5-MIN KMKG 120855Z 12005KT 8SM CLR M03/M04 A3043 160 92 -1900 120/05 RMK AO2 SLP311 T10281039 53002
14840KMKG MKG20011112040009511/12/01 04:00:31  5-MIN KMKG 120900Z 11005KT 8SM CLR M03/M04 A3043 160 92 -2000 120/05 RMK AO2
14840KMKG MKG20011112040509511/12/01 04:05:31  5-MIN KMKG 120905Z 10004KT 8SM CLR M03/M04 A3043 160 92 -2000 100/04 RMK AO2
14840KMKG MKG20011112041009511/12/01 04:10:31  5-MIN KMKG 120910Z 10003KT 7SM CLR M02/M03 A3043 160 92 -1800 100/03 RMK AO2
14840KMKG MKG20011112041509511/12/01 04:15:31  5-MIN KMKG 120915Z 10003KT 7SM CLR M03/M03 A3043 160 96 -1900 100/03 RMK AO2
14840KMKG MKG20011112042009511/12/01 04:20:31  5-MIN KMKG 120920Z 11003KT 7SM CLR M03/M04 A3043 160 96 -2000 110/03 RMK AO2
14840KMKG MKG20011112042509511/12/01 04:25:31  5-MIN KMKG 120925Z 11003KT 8SM CLR M03/M04 A3043 160 92 -2000 120/03 RMK AO2
14840KMKG MKG20011112043009511/12/01 04:30:31  5-MIN KMKG 120930Z 11004KT 8SM CLR M03/M04 A3043 160 92 -2000 120/04 RMK AO2
14840KMKG MKG20011112043509511/12/01 04:35:31  5-MIN KMKG 120935Z 11004KT 8SM CLR M04/M04 A3044 160 96 -2000 110/04 RMK AO2
14840KMKG MKG20011112044009511/12/01 04:40:31  5-MIN KMKG 120940Z 12003KT 8SM CLR M04/M04 A3044 160 96 -2000 120/03 RMK AO2
14840KMKG MKG20011112044509511/12/01 04:45:31  5-MIN KMKG 120945Z 00000KT 8SM CLR M03/M04 A3044 160 92 -2000 000/00 RMK AO2
14840KMKG MKG20011112045011211/12/01 04:50:31  5-MIN KMKG 120950Z 11004KT 7SM CLR M03/M04 A3044 160 96 -2000 120/04 RMK AO2 SLP314 T10331039
14840KMKG MKG20011112045511211/12/01 04:55:31  5-MIN KMKG 120955Z 11004KT 7SM CLR M03/M04 A3044 150 92 -2000 110/04 RMK AO2 SLP315 T10331044
14840KMKG MKG20011112050009511/12/01 05:00:31  5-MIN KMKG 121000Z 00000KT 7SM CLR M03/M04 A3044 150 92 -2000 000/00 RMK AO2
14840KMKG MKG20011112050509511/12/01 05:05:31  5-MIN KMKG 121005Z 11003KT 8SM CLR M03/M04 A3044 150 92 -2000 110/03 RMK AO2
14840KMKG MKG20011112051009511/12/01 05:10:31  5-MIN KMKG 121010Z 11003KT 8SM CLR M03/M05 A3044 150 88 -2000 110/03 RMK AO2
14840KMKG MKG20011112051509511/12/01 05:15:31  5-MIN KMKG 121015Z 11004KT 7SM CLR M03/M04 A3044 150 92 -2000 110/04 RMK AO2
14840KMKG MKG20011112052009511/12/01 05:20:31  5-MIN KMKG 121020Z 11004KT 7SM CLR M03/M04 A3044 150 92 -2000 110/04 RMK AO2
14840KMKG MKG20011112052509511/12/01 05:25:31  5-MIN KMKG 121025Z 11003KT 8SM CLR M03/M04 A3044 150 92 -2000 120/03 RMK AO2
14840KMKG MKG20011112053009511/12/01 05:30:31  5-MIN KMKG 121030Z 11003KT 8SM CLR M03/M04 A3045 150 92 -2000 110/03 RMK AO2
14840KMKG MKG20011112053509511/12/01 05:35:31  5-MIN KMKG 121035Z 11003KT 7SM CLR M03/M04 A3045 150 96 -2000 120/03 RMK AO2
14840KMKG MKG20011112054009511/12/01 05:40:31  5-MIN KMKG 121040Z 11003KT 7SM CLR M03/M04 A3045 150 92 -1900 110/03 RMK AO2
14840KMKG MKG20011112054509511/12/01 05:45:31  5-MIN KMKG 121045Z 10003KT 7SM CLR M03/M04 A3045 150 96 -2000 110/03 RMK AO2
14840KMKG MKG20011112055011211/12/01 05:50:31  5-MIN KMKG 121050Z 11003KT 8SM CLR M03/M04 A3045 150 92 -2000 110/03 RMK AO2 SLP318 T10331044
14840KMKG MKG20011112055511211/12/01 05:55:31  5-MIN KMKG 121055Z 11003KT 8SM CLR M03/M04 A3045 150 96 -2000 110/03 RMK AO2 SLP318 T10331039
14840KMKG MKG20011112060009511/12/01 06:00:31  5-MIN KMKG 121100Z 11003KT 7SM CLR M03/M04 A3045 150 92 -1900 110/03 RMK AO2
14840KMKG MKG20011112060509511/12/01 06:05:31  5-MIN KMKG 121105Z 00000KT 7SM CLR M03/M04 A3045 150 96 -2000 000/00 RMK AO2
14840KMKG MKG20011112061009511/12/01 06:10:31  5-MIN KMKG 121110Z 10003KT 8SM CLR M03/M04 A3045 150 92 -1900 110/03 RMK AO2
14840KMKG MKG20011112061509511/12/01 06:15:31  5-MIN KMKG 121115Z 11003KT 7SM CLR M03/M04 A3045 150 92 -1900 120/03 RMK AO2
14840KMKG MKG20011112062009511/12/01 06:20:31  5-MIN KMKG 121120Z 11003KT 7SM CLR M03/M04 A3045 150 96 -2000 120/03 RMK AO2
14840KMKG MKG20011112062509811/12/01 06:25:31  5-MIN KMKG 121125Z 11003KT 6SM BR CLR M03/M04 A3045 150 92 -1900 110/03 RMK AO2
14840KMKG MKG20011112063009811/12/01 06:30:31  5-MIN KMKG 121130Z 11003KT 6SM BR CLR M03/M04 A3045 140 92 -1900 110/03 RMK AO2
14840KMKG MKG20011112063509511/12/01 06:35:31  5-MIN KMKG 121135Z 11003KT 7SM CLR M03/M04 A3045 140 96 -2000 120/03 RMK AO2
14840KMKG MKG20011112064009511/12/01 06:40:31  5-MIN KMKG 121140Z 11003KT 7SM CLR M03/M04 A3045 140 96 -2000 120/03 RMK AO2
14840KMKG MKG20011112064509811/12/01 06:45:31  5-MIN KMKG 121145Z 12004KT 6SM BR CLR M03/M03 A3045 140 96 -1900 120/04 RMK AO2
14840KMKG MKG20011112065013411/12/01 06:50:31  5-MIN KMKG 121150Z 11003KT 6SM BR CLR M03/M03 A3045 140 100 -1900 110/03 RMK AO2 SLP320 T10281028 11017 21039 53002
14840KMKG MKG20011112065513311/12/01 06:55:31  5-MIN KMKG 121155Z 11003KT 6SM BR CLR M03/M04 A3045 140 96 -2000 110/03 RMK AO2 SLP321 T10331039 11017 21039 51008
14840KMKG MKG20011112070009811/12/01 07:00:31  5-MIN KMKG 121200Z 00000KT 6SM BR CLR M03/M04 A3045 140 96 -2000 000/00 RMK AO2
14840KMKG MKG20011112070509811/12/01 07:05:31  5-MIN KMKG 121205Z 13003KT 6SM BR CLR M03/M04 A3045 140 92 -1900 130/03 RMK AO2
14840KMKG MKG20011112071009811/12/01 07:10:31  5-MIN KMKG 121210Z 13003KT 6SM BR CLR M02/M03 A3045 140 96 -1800 130/03 RMK AO2
14840KMKG MKG20011112071509811/12/01 07:15:31  5-MIN KMKG 121215Z 13003KT 6SM BR CLR M03/M03 A3045 140 96 -1900 130/03 RMK AO2
14840KMKG MKG20011112072009811/12/01 07:20:31  5-MIN KMKG 121220Z 13003KT 6SM BR CLR M03/M03 A3045 140 96 -1900 130/03 RMK AO2
14840KMKG MKG20011112072509811/12/01 07:25:31  5-MIN KMKG 121225Z 12004KT 5SM BR CLR M03/M03 A3045 140 96 -1900 130/04 RMK AO2
14840KMKG MKG20011112073009811/12/01 07:30:31  5-MIN KMKG 121230Z 13004KT 4SM BR CLR M03/M03 A3045 140 96 -1900 130/04 RMK AO2
14840KMKG MKG20011112073509811/12/01 07:35:31  5-MIN KMKG 121235Z 13004KT 3SM BR CLR M03/M03 A3045 140 96 -1900 140/04 RMK AO2
14840KMKG MKG20011112074009811/12/01 07:40:31  5-MIN KMKG 121240Z 13005KT 3SM BR CLR M03/M04 A3045 140 96 -2000 130/05 RMK AO2
14840KMKG MKG20011112074509811/12/01 07:45:31  5-MIN KMKG 121245Z 13004KT 4SM BR CLR M03/M04 A3045 140 96 -2000 130/04 RMK AO2
14840KMKG MKG20011112075011511/12/01 07:50:31  5-MIN KMKG 121250Z 13004KT 4SM BR CLR M03/M03 A3045 140 96 -1900 130/04 RMK AO2 SLP322 T10281033
14840KMKG MKG20011112075511511/12/01 07:55:31  5-MIN KMKG 121255Z 13004KT 4SM BR CLR M03/M03 A3045 140 96 -1900 130/04 RMK AO2 SLP322 T10281033
14840KMKG MKG20011112080009811/12/01 08:00:31  5-MIN KMKG 121300Z 12004KT 4SM BR CLR M03/M03 A3046 140 96 -1900 130/04 RMK AO2
14840KMKG MKG20011112080509811/12/01 08:05:31  5-MIN KMKG 121305Z 13004KT 4SM BR CLR M02/M03 A3046 140 96 -1900 130/04 RMK AO2
14840KMKG MKG20011112081009811/12/01 08:10:31  5-MIN KMKG 121310Z 13004KT 4SM BR CLR M02/M02 A3046 140 96 -1800 130/04 RMK AO2
14840KMKG MKG20011112081509811/12/01 08:15:31  5-MIN KMKG 121315Z 12004KT 5SM BR CLR M02/M02 A3046 140 96 -1800 120/04 RMK AO2
14840KMKG MKG20011112082009811/12/01 08:20:31  5-MIN KMKG 121320Z 12004KT 5SM BR CLR M01/M02 A3046 140 96 -1700 130/04 RMK AO2
14840KMKG MKG20011112082509811/12/01 08:25:31  5-MIN KMKG 121325Z 12004KT 5SM BR CLR M01/M02 A3046 140 96 -1700 130/04 RMK AO2
14840KMKG MKG20011112083009911/12/01 08:30:31  5-MIN KMKG 121330Z 12004KT 5SM BR CLR M01/M01 A3046 130 100 -1700 130/04 RMK AO2
14840KMKG MKG20011112083509811/12/01 08:35:31  5-MIN KMKG 121335Z 12004KT 5SM BR CLR M01/M01 A3046 130 96 -1600 130/04 RMK AO2
14840KMKG MKG20011112084009911/12/01 08:40:31  5-MIN KMKG 121340Z 12004KT 5SM BR CLR M01/M01 A3046 130 100 -1600 130/04 RMK AO2
14840KMKG MKG20011112084509711/12/01 08:45:31  5-MIN KMKG 121345Z 12004KT 5SM BR CLR 00/M01 A3046 130 96 -1600 120/04 RMK AO2
14840KMKG MKG20011112085011411/12/01 08:50:31  5-MIN KMKG 121350Z 12004KT 5SM BR CLR 00/M01 A3046 130 96 -1600 120/04 RMK AO2 SLP323 T00001006
14840KMKG MKG20011112085511311/12/01 08:55:31  5-MIN KMKG 121355Z 12003KT 5SM BR CLR 01/00 A3046 130 96 -1500 120/03 RMK AO2 SLP324 T00060000
14840KMKG MKG20011112090009611/12/01 09:00:31  5-MIN KMKG 121400Z 12003KT 5SM BR CLR 01/01 A3046 130 96 -1400 130/03 RMK AO2
14840KMKG MKG20011112090509611/12/01 09:05:31  5-MIN KMKG 121405Z 12003KT 5SM BR CLR 02/01 A3046 130 96 -1400 130/03 RMK AO2
14840KMKG MKG20011112091009611/12/01 09:10:31  5-MIN KMKG 121410Z 13004KT 6SM BR CLR 02/01 A3046 130 92 -1300 140/04 RMK AO2
14840KMKG MKG20011112091509611/12/01 09:15:31  5-MIN KMKG 121415Z 13004KT 6SM BR CLR 02/01 A3046 130 92 -1300 130/04 RMK AO2
14840KMKG MKG20011112092009611/12/01 09:20:31  5-MIN KMKG 121420Z 14004KT 6SM BR CLR 03/02 A3046 130 92 -1200 140/04 RMK AO2
14840KMKG MKG20011112092509311/12/01 09:25:31  5-MIN KMKG 121425Z 14003KT 7SM CLR 03/02 A3046 130 92 -1200 140/03 RMK AO2
14840KMKG MKG20011112093009311/12/01 09:30:31  5-MIN KMKG 121430Z 13003KT 7SM CLR 03/02 A3046 130 89 -1200 130/03 RMK AO2
14840KMKG MKG20011112093509311/12/01 09:35:31  5-MIN KMKG 121435Z 00000KT 7SM CLR 04/02 A3046 130 89 -1100 000/00 RMK AO2
14840KMKG MKG20011112094009311/12/01 09:40:31  5-MIN KMKG 121440Z 00000KT 8SM CLR 04/03 A3046 130 92 -1100 000/00 RMK AO2
14840KMKG MKG20011112094509311/12/01 09:45:31  5-MIN KMKG 121445Z 16004KT 8SM CLR 04/03 A3046 130 89 -1000 170/04 RMK AO2
14840KMKG MKG20011112095011611/12/01 09:50:31  5-MIN KMKG 121450Z 16004KT 8SM CLR 04/03 A3046 130 89 -1000 160/04 RMK AO2 SLP323 T00440028 51008
14840KMKG MKG20011112095511911/12/01 09:55:31  5-MIN KMKG 121455Z 17003KT 8SM FEW035 05/03 A3046 130 89 -1000 180/03 RMK AO2 SLP322 T00500033 51003
14840KMKG MKG20011112100009211/12/01 10:00:31  5-MIN KMKG 121500Z 17005KT 9SM CLR 06/04 A3046 130 89 -900 170/05 RMK AO2
14840KMKG MKG20011112100509211/12/01 10:05:31  5-MIN KMKG 121505Z 17005KT 9SM CLR 06/04 A3046 130 89 -800 180/05 RMK AO2
14840KMKG MKG20011112101009311/12/01 10:10:31  5-MIN KMKG 121510Z 17005KT 10SM CLR 07/04 A3046 130 86 -800 170/05 RMK AO2
14840KMKG MKG20011112101509311/12/01 10:15:31  5-MIN KMKG 121515Z 16005KT 10SM CLR 07/04 A3046 130 86 -800 170/05 RMK AO2
14840KMKG MKG20011112102009311/12/01 10:20:31  5-MIN KMKG 121520Z 17007KT 10SM CLR 07/04 A3046 130 82 -700 180/07 RMK AO2
14840KMKG MKG20011112102509311/12/01 10:25:31  5-MIN KMKG 121525Z 17007KT 10SM CLR 08/05 A3046 130 82 -600 180/07 RMK AO2
14840KMKG MKG20011112103009611/12/01 10:30:31  5-MIN KMKG 121530Z 17007KT 10SM FEW024 07/04 A3046 130 82 -700 170/07 RMK AO2
14840KMKG MKG20011112103509611/12/01 10:35:31  5-MIN KMKG 121535Z 17007KT 10SM FEW024 08/05 A3046 130 82 -600 170/07 RMK AO2
14840KMKG MKG20011112104009311/12/01 10:40:31  5-MIN KMKG 121540Z 18008KT 10SM CLR 08/05 A3046 130 79 -500 180/08 RMK AO2
14840KMKG MKG20011112104509611/12/01 10:45:31  5-MIN KMKG 121545Z 18009KT 10SM FEW025 09/06 A3046 130 79 -500 190/09 RMK AO2
14840KMKG MKG20011112105011311/12/01 10:50:31  5-MIN KMKG 121550Z 18006KT 10SM SCT025 09/06 A3046 130 79 -500 180/06 RMK AO2 SLP323 T00890056
14840KMKG MKG20011112105511311/12/01 10:55:31  5-MIN KMKG 121555Z 17006KT 10SM SCT027 09/06 A3047 130 83 -500 180/06 RMK AO2 SLP323 T00890061
14840KMKG MKG20011112110009611/12/01 11:00:31  5-MIN KMKG 121600Z 18010KT 10SM BKN027 09/06 A3047 130 83 -500 180/10 RMK AO2
14840KMKG MKG20011112110509611/12/01 11:05:31  5-MIN KMKG 121605Z 19008KT 10SM BKN027 09/06 A3047 130 83 -500 190/08 RMK AO2
14840KMKG MKG20011112111009611/12/01 11:10:31  5-MIN KMKG 121610Z 18010KT 10SM BKN027 09/06 A3047 130 79 -400 180/10 RMK AO2
14840KMKG MKG20011112111510311/12/01 11:15:31  5-MIN KMKG 121615Z 20010KT 10SM FEW018 OVC027 09/07 A3046 130 83 -400 200/10 RMK AO2
14840KMKG MKG20011112112010311/12/01 11:20:31  5-MIN KMKG 121620Z 19011KT 10SM FEW018 OVC027 09/06 A3046 130 79 -400 190/11 RMK AO2
14840KMKG MKG20011112112510311/12/01 11:25:31  5-MIN KMKG 121625Z 18010KT 10SM SCT018 OVC027 09/06 A3046 130 83 -500 190/10 RMK AO2
14840KMKG MKG20011112113010311/12/01 11:30:31  5-MIN KMKG 121630Z 19014KT 10SM SCT018 OVC027 09/06 A3046 130 79 -400 190/14 RMK AO2
14840KMKG MKG20011112113510311/12/01 11:35:31  5-MIN KMKG 121635Z 21009KT 10SM SCT018 OVC027 09/06 A3046 130 83 -500 210/09 RMK AO2
14840KMKG MKG20011112114010311/12/01 11:40:31  5-MIN KMKG 121640Z 20010KT 10SM SCT018 OVC025 09/06 A3046 130 79 -400 200/10 RMK AO2
14840KMKG MKG20011112114510311/12/01 11:45:31  5-MIN KMKG 121645Z 20010KT 10SM SCT018 OVC027 09/06 A3046 140 79 -400 200/10 RMK AO2
14840KMKG MKG20011112115012011/12/01 11:50:31  5-MIN KMKG 121650Z 21012KT 10SM BKN020 OVC025 09/05 A3046 140 74 -400 210/12 RMK AO2 SLP320 T00940050
14840KMKG MKG20011112115512011/12/01 11:55:31  5-MIN KMKG 121655Z 22011KT 10SM BKN022 OVC028 09/04 A3046 140 71 -400 220/11 RMK AO2 SLP320 T00940044
14840KMKG MKG20011112120009611/12/01 12:00:31  5-MIN KMKG 121700Z 21010KT 10SM BKN022 09/04 A3046 140 71 -400 220/10 RMK AO2
14840KMKG MKG20011112120509611/12/01 12:05:31  5-MIN KMKG 121705Z 22011KT 10SM BKN024 09/04 A3045 140 71 -400 220/11 RMK AO2
14840KMKG MKG20011112121009611/12/01 12:10:31  5-MIN KMKG 121710Z 22011KT 10SM BKN022 09/04 A3045 140 73 -500 220/11 RMK AO2
14840KMKG MKG20011112121509611/12/01 12:15:31  5-MIN KMKG 121715Z 22010KT 10SM BKN022 09/04 A3045 140 71 -400 220/10 RMK AO2
14840KMKG MKG20011112122009611/12/01 12:20:31  5-MIN KMKG 121720Z 21011KT 10SM BKN022 10/05 A3045 150 71 -300 210/11 RMK AO2
14840KMKG MKG20011112122509611/12/01 12:25:31  5-MIN KMKG 121725Z 19010KT 10SM BKN022 10/05 A3045 150 71 -300 190/10 RMK AO2
14840KMKG MKG20011112123009611/12/01 12:30:31  5-MIN KMKG 121730Z 20011KT 10SM BKN022 10/05 A3045 150 71 -300 210/11 RMK AO2
14840KMKG MKG20011112123509611/12/01 12:35:31  5-MIN KMKG 121735Z 23011KT 10SM BKN022 11/05 A3044 150 68 -300 230/11 RMK AO2
14840KMKG MKG20011112124009611/12/01 12:40:31  5-MIN KMKG 121740Z 22012KT 10SM BKN022 10/05 A3044 150 71 -300 220/12 RMK AO2
14840KMKG MKG20011112124509611/12/01 12:45:31  5-MIN KMKG 121745Z 23010KT 10SM BKN022 10/05 A3044 150 71 -300 230/10 RMK AO2
14840KMKG MKG20011112125013111/12/01 12:50:31  5-MIN KMKG 121750Z 19011KT 10SM OVC022 10/05 A3044 150 71 -300 200/11 RMK AO2 SLP314 T01000050 10106 21033 51003
14840KMKG MKG20011112125513111/12/01 12:55:31  5-MIN KMKG 121755Z 20011KT 10SM BKN022 09/05 A3044 150 74 -400 200/11 RMK AO2 SLP314 T00940050 10106 21033 58008
14840KMKG MKG20011112130009611/12/01 13:00:31  5-MIN KMKG 121800Z 21012KT 10SM BKN022 09/04 A3044 160 71 -400 210/12 RMK AO2
14840KMKG MKG20011112130509611/12/01 13:05:31  5-MIN KMKG 121805Z 21011KT 10SM BKN022 09/05 A3044 160 74 -400 220/11 RMK AO2
14840KMKG MKG20011112131009611/12/01 13:10:31  5-MIN KMKG 121810Z 20010KT 10SM OVC022 10/05 A3043 160 71 -300 210/10 RMK AO2
14840KMKG MKG20011112131509611/12/01 13:15:31  5-MIN KMKG 121815Z 20009KT 10SM BKN022 09/05 A3043 160 74 -400 200/09 RMK AO2
14840KMKG MKG20011112132009611/12/01 13:20:31  5-MIN KMKG 121820Z 22011KT 10SM BKN022 10/05 A3043 160 71 -300 230/11 RMK AO2
14840KMKG MKG20011112132509611/12/01 13:25:31  5-MIN KMKG 121825Z 23012KT 10SM BKN022 10/05 A3043 160 71 -300 230/12 RMK AO2
14840KMKG MKG20011112133009611/12/01 13:30:31  5-MIN KMKG 121830Z 22013KT 10SM BKN022 10/05 A3043 160 71 -300 220/13 RMK AO2
14840KMKG MKG20011112133509611/12/01 13:35:31  5-MIN KMKG 121835Z 20011KT 10SM BKN022 10/05 A3043 160 71 -300 200/11 RMK AO2
14840KMKG MKG20011112134009611/12/01 13:40:31  5-MIN KMKG 121840Z 19012KT 10SM BKN022 10/05 A3043 160 71 -300 190/12 RMK AO2
14840KMKG MKG20011112134509611/12/01 13:45:31  5-MIN KMKG 121845Z 20012KT 10SM BKN022 09/05 A3043 170 74 -400 210/12 RMK AO2
14840KMKG MKG20011112135011311/12/01 13:50:31  5-MIN KMKG 121850Z 20011KT 10SM BKN022 09/05 A3042 170 74 -400 210/11 RMK AO2 SLP309 T00940050
14840KMKG MKG20011112135511311/12/01 13:55:31  5-MIN KMKG 121855Z 20012KT 10SM BKN022 10/06 A3042 170 74 -300 210/12 RMK AO2 SLP309 T01000056
14840KMKG MKG20011112140009611/12/01 14:00:31  5-MIN KMKG 121900Z 20011KT 10SM BKN022 10/06 A3042 170 74 -300 210/11 RMK AO2
14840KMKG MKG20011112140509611/12/01 14:05:31  5-MIN KMKG 121905Z 22011KT 10SM BKN022 10/06 A3042 170 74 -300 220/11 RMK AO2
14840KMKG MKG20011112141009611/12/01 14:10:31  5-MIN KMKG 121910Z 21011KT 10SM BKN022 10/06 A3042 170 74 -300 210/11 RMK AO2
14840KMKG MKG20011112141509611/12/01 14:15:31  5-MIN KMKG 121915Z 19011KT 10SM BKN022 09/05 A3042 170 74 -400 190/11 RMK AO2
14840KMKG MKG20011112142009611/12/01 14:20:31  5-MIN KMKG 121920Z 19012KT 10SM BKN022 10/06 A3042 170 74 -300 200/12 RMK AO2
14840KMKG MKG20011112142509611/12/01 14:25:31  5-MIN KMKG 121925Z 19012KT 10SM BKN022 10/06 A3042 170 74 -300 200/12 RMK AO2
14840KMKG MKG20011112143009611/12/01 14:30:31  5-MIN KMKG 121930Z 19012KT 10SM BKN022 10/05 A3042 170 71 -300 190/12 RMK AO2
14840KMKG MKG20011112143509611/12/01 14:35:31  5-MIN KMKG 121935Z 19012KT 10SM BKN022 10/05 A3042 170 71 -300 200/12 RMK AO2
14840KMKG MKG20011112144009611/12/01 14:40:31  5-MIN KMKG 121940Z 20009KT 10SM SCT022 10/05 A3041 180 71 -300 210/09 RMK AO2
14840KMKG MKG20011112144509611/12/01 14:45:31  5-MIN KMKG 121945Z 18013KT 10SM FEW022 10/05 A3041 180 71 -300 190/13 RMK AO2
14840KMKG MKG20011112145011311/12/01 14:50:31  5-MIN KMKG 121950Z 20010KT 10SM FEW022 10/05 A3041 180 71 -300 200/10 RMK AO2 SLP304 T01000050
14840KMKG MKG20011112145511311/12/01 14:55:31  5-MIN KMKG 121955Z 18011KT 10SM SCT022 10/04 A3041 180 68 -300 190/11 RMK AO2 SLP304 T01000044
14840KMKG MKG20011112150009611/12/01 15:00:31  5-MIN KMKG 122000Z 20013KT 10SM FEW022 10/04 A3041 180 68 -300 200/13 RMK AO2
14840KMKG MKG20011112150509611/12/01 15:05:31  5-MIN KMKG 122005Z 21010KT 10SM FEW022 10/04 A3041 180 68 -300 210/10 RMK AO2
14840KMKG MKG20011112151009611/12/01 15:10:31  5-MIN KMKG 122010Z 18010KT 10SM FEW022 10/04 A3041 180 68 -300 180/10 RMK AO2
14840KMKG MKG20011112151509611/12/01 15:15:31  5-MIN KMKG 122015Z 21013KT 10SM FEW022 10/04 A3041 180 65 -300 220/13 RMK AO2
14840KMKG MKG20011112152009611/12/01 15:20:31  5-MIN KMKG 122020Z 19009KT 10SM FEW022 09/04 A3041 180 68 -300 200/09 RMK AO2
14840KMKG MKG20011112152509611/12/01 15:25:31  5-MIN KMKG 122025Z 21013KT 10SM FEW022 10/04 A3040 190 68 -300 210/13 RMK AO2
14840KMKG MKG20011112153009611/12/01 15:30:31  5-MIN KMKG 122030Z 19010KT 10SM FEW022 09/04 A3040 190 71 -300 200/10 RMK AO2
14840KMKG MKG20011112153509611/12/01 15:35:31  5-MIN KMKG 122035Z 20011KT 10SM FEW022 09/04 A3040 190 71 -300 200/11 RMK AO2
14840KMKG MKG20011112154009611/12/01 15:40:31  5-MIN KMKG 122040Z 20012KT 10SM FEW022 09/04 A3040 190 71 -300 200/12 RMK AO2
14840KMKG MKG20011112154509611/12/01 15:45:31  5-MIN KMKG 122045Z 20012KT 10SM FEW022 09/04 A3040 190 71 -300 200/12 RMK AO2
14840KMKG MKG20011112155011911/12/01 15:50:31  5-MIN KMKG 122050Z 18014KT 10SM FEW022 09/04 A3040 190 71 -400 190/14 RMK AO2 SLP300 T00890039 58008
14840KMKG MKG20011112155511611/12/01 15:55:31  5-MIN KMKG 122055Z 18013KT 10SM CLR 09/04 A3040 190 68 -300 190/13 RMK AO2 SLP299 T00940039 57014
14840KMKG MKG20011112160009311/12/01 16:00:31  5-MIN KMKG 122100Z 19014KT 10SM CLR 09/04 A3040 190 68 -300 190/14 RMK AO2
14840KMKG MKG20011112160509311/12/01 16:05:31  5-MIN KMKG 122105Z 19009KT 10SM CLR 09/04 A3040 190 68 -300 190/09 RMK AO2
14840KMKG MKG20011112161009311/12/01 16:10:31  5-MIN KMKG 122110Z 19012KT 10SM CLR 09/04 A3039 190 71 -400 190/12 RMK AO2
14840KMKG MKG20011112161509311/12/01 16:15:31  5-MIN KMKG 122115Z 19010KT 10SM CLR 09/04 A3039 200 71 -400 190/10 RMK AO2
14840KMKG MKG20011112162009311/12/01 16:20:31  5-MIN KMKG 122120Z 19012KT 10SM CLR 09/04 A3039 200 68 -300 200/12 RMK AO2
14840KMKG MKG20011112162509311/12/01 16:25:31  5-MIN KMKG 122125Z 19011KT 10SM CLR 09/04 A3039 200 71 -400 200/11 RMK AO2
14840KMKG MKG20011112163009311/12/01 16:30:31  5-MIN KMKG 122130Z 18008KT 10SM CLR 09/04 A3039 200 71 -400 190/08 RMK AO2
14840KMKG MKG20011112163509311/12/01 16:35:31  5-MIN KMKG 122135Z 19010KT 10SM CLR 09/04 A3039 200 71 -400 200/10 RMK AO2
14840KMKG MKG20011112164009311/12/01 16:40:31  5-MIN KMKG 122140Z 19008KT 10SM CLR 09/04 A3039 200 71 -400 190/08 RMK AO2
14840KMKG MKG20011112164509311/12/01 16:45:31  5-MIN KMKG 122145Z 18009KT 10SM CLR 09/03 A3039 200 68 -400 180/09 RMK AO2
14840KMKG MKG20011112165011011/12/01 16:50:31  5-MIN KMKG 122150Z 18008KT 10SM CLR 09/03 A3038 200 68 -400 190/08 RMK AO2 SLP295 T00890033
14840KMKG MKG20011112165511011/12/01 16:55:31  5-MIN KMKG 122155Z 18008KT 10SM CLR 09/04 A3038 200 71 -400 190/08 RMK AO2 SLP295 T00890039
14840KMKG MKG20011112170009311/12/01 17:00:31  5-MIN KMKG 122200Z 19006KT 10SM CLR 08/04 A3038 200 73 -500 190/06 RMK AO2
14840KMKG MKG20011112170509311/12/01 17:05:31  5-MIN KMKG 122205Z 18006KT 10SM CLR 08/04 A3038 210 73 -500 180/06 RMK AO2
14840KMKG MKG20011112171009311/12/01 17:10:31  5-MIN KMKG 122210Z 18008KT 10SM CLR 08/04 A3038 210 73 -500 180/08 RMK AO2
14840KMKG MKG20011112171509311/12/01 17:15:31  5-MIN KMKG 122215Z 17006KT 10SM CLR 08/04 A3038 210 76 -500 180/06 RMK AO2
14840KMKG MKG20011112172009311/12/01 17:20:31  5-MIN KMKG 122220Z 16005KT 10SM CLR 08/04 A3038 210 76 -500 170/05 RMK AO2
14840KMKG MKG20011112172509311/12/01 17:25:31  5-MIN KMKG 122225Z 17005KT 10SM CLR 07/04 A3038 210 79 -600 170/05 RMK AO2
14840KMKG MKG20011112173009311/12/01 17:30:31  5-MIN KMKG 122230Z 17005KT 10SM CLR 07/04 A3038 210 79 -600 170/05 RMK AO2
14840KMKG MKG20011112173509311/12/01 17:35:31  5-MIN KMKG 122235Z 17006KT 10SM CLR 07/04 A3038 210 82 -700 180/06 RMK AO2
14840KMKG MKG20011112174009311/12/01 17:40:31  5-MIN KMKG 122240Z 17006KT 10SM CLR 07/04 A3038 210 82 -700 170/06 RMK AO2
14840KMKG MKG20011112174509311/12/01 17:45:31  5-MIN KMKG 122245Z 17006KT 10SM CLR 07/04 A3037 210 82 -700 170/06 RMK AO2
14840KMKG MKG20011112175011011/12/01 17:50:31  5-MIN KMKG 122250Z 16006KT 10SM CLR 07/04 A3037 210 82 -700 170/06 RMK AO2 SLP293 T00670039
14840KMKG MKG20011112175511011/12/01 17:55:31  5-MIN KMKG 122255Z 16005KT 10SM CLR 07/04 A3037 210 82 -700 160/05 RMK AO2 SLP293 T00670039
14840KMKG MKG20011112180009311/12/01 18:00:31  5-MIN KMKG 122300Z 15005KT 10SM CLR 07/04 A3037 210 82 -700 150/05 RMK AO2
14840KMKG MKG20011112180509311/12/01 18:05:31  5-MIN KMKG 122305Z 13004KT 10SM CLR 06/03 A3038 210 85 -800 140/04 RMK AO2
14840KMKG MKG20011112181009311/12/01 18:10:31  5-MIN KMKG 122310Z 13004KT 10SM CLR 05/03 A3038 210 89 -900 130/04 RMK AO2
14840KMKG MKG20011112181509311/12/01 18:15:31  5-MIN KMKG 122315Z 13004KT 10SM CLR 06/03 A3038 210 85 -800 130/04 RMK AO2
14840KMKG MKG20011112182009311/12/01 18:20:31  5-MIN KMKG 122320Z 13004KT 10SM CLR 04/03 A3038 210 89 -900 140/04 RMK AO2
14840KMKG MKG20011112182509311/12/01 18:25:31  5-MIN KMKG 122325Z 13003KT 10SM CLR 05/03 A3037 210 89 -900 140/03 RMK AO2
14840KMKG MKG20011112183009311/12/01 18:30:31  5-MIN KMKG 122330Z 13004KT 10SM CLR 06/03 A3037 210 85 -800 130/04 RMK AO2
14840KMKG MKG20011112183509311/12/01 18:35:31  5-MIN KMKG 122335Z 12003KT 10SM CLR 05/03 A3037 210 89 -900 120/03 RMK AO2
14840KMKG MKG20011112184009211/12/01 18:40:31  5-MIN KMKG 122340Z 11004KT 9SM CLR 05/03 A3037 220 89 -900 120/04 RMK AO2
14840KMKG MKG20011112184509211/12/01 18:45:31  5-MIN KMKG 122345Z 12004KT 9SM CLR 04/03 A3037 220 92 -900 120/04 RMK AO2
14840KMKG MKG20011112185012711/12/01 18:50:31  5-MIN KMKG 122350Z 12004KT 8SM CLR 04/03 A3037 220 92 -900 120/04 RMK AO2 SLP292 T00440033 10106 20044 57014
14840KMKG MKG20011112185512711/12/01 18:55:31  5-MIN KMKG 122355Z 13004KT 8SM CLR 04/03 A3037 220 92 -900 130/04 RMK AO2 SLP292 T00440033 10106 20044 56009
14840KMKG MKG20011112190009211/12/01 19:00:31  5-MIN KMKG 130000Z 14004KT 8SM CLR 04/03 A3037 220 92 -900 140/04 RMK AO2
14840KMKG MKG20011112190509311/12/01 19:05:31  5-MIN KMKG 130005Z 00000KT 9SM CLR 03/02 A3037 220 92 -1100 000/00 RMK AO2
14840KMKG MKG20011112191009311/12/01 19:10:31  5-MIN KMKG 130010Z 00000KT 8SM CLR 03/02 A3038 210 96 -1100 000/00 RMK AO2
14840KMKG MKG20011112191509311/12/01 19:15:31  5-MIN KMKG 130015Z 00000KT 7SM CLR 04/03 A3038 210 96 -1000 000/00 RMK AO2
14840KMKG MKG20011112192009211/12/01 19:20:31  5-MIN KMKG 130020Z 14003KT 7SM CLR 04/03 A3037 210 92 -900 140/03 RMK AO2
14840KMKG MKG20011112192509311/12/01 19:25:31  5-MIN KMKG 130025Z 14004KT 8SM CLR 04/03 A3037 220 96 -1000 140/04 RMK AO2
14840KMKG MKG20011112193009311/12/01 19:30:31  5-MIN KMKG 130030Z 14004KT 7SM CLR 03/02 A3037 220 96 -1100 150/04 RMK AO2
14840KMKG MKG20011112193509311/12/01 19:35:31  5-MIN KMKG 130035Z 00000KT 7SM CLR 02/01 A3037 210 96 -1300 000/00 RMK AO2
14840KMKG MKG20011112194009611/12/01 19:40:31  5-MIN KMKG 130040Z 00000KT 6SM BR CLR 02/01 A3038 210 96 -1300 000/00 RMK AO2
14840KMKG MKG20011112194509611/12/01 19:45:31  5-MIN KMKG 130045Z 00000KT 6SM BR CLR 02/01 A3038 210 96 -1300 000/00 RMK AO2
14840KMKG MKG20011112195011311/12/01 19:50:31  5-MIN KMKG 130050Z 00000KT 6SM BR CLR 03/02 A3038 210 96 -1100 000/00 RMK AO2 SLP294 T00280022
14840KMKG MKG20011112195511311/12/01 19:55:31  5-MIN KMKG 130055Z 10003KT 6SM BR CLR 03/03 A3038 210 96 -1100 110/03 RMK AO2 SLP294 T00330028
14840KMKG MKG20011112200009611/12/01 20:00:31  5-MIN KMKG 130100Z 10003KT 6SM BR CLR 01/01 A3038 210 96 -1300 100/03 RMK AO2
14840KMKG MKG20011112200509611/12/01 20:05:31  5-MIN KMKG 130105Z 00000KT 5SM BR CLR 02/01 A3038 210 96 -1300 000/00 RMK AO2
14840KMKG MKG20011112201009611/12/01 20:10:31  5-MIN KMKG 130110Z 11003KT 4SM BR CLR 02/01 A3037 210 96 -1300 110/03 RMK AO2
14840KMKG MKG20011112201509711/12/01 20:15:31  5-MIN KMKG 130115Z 10004KT 4SM BR CLR 01/01 A3037 220 100 -1300 100/04 RMK AO2
14840KMKG MKG20011112202009711/12/01 20:20:31  5-MIN KMKG 130120Z 10005KT 4SM BR CLR 01/01 A3037 220 100 -1400 110/05 RMK AO2
14840KMKG MKG20011112202509711/12/01 20:25:31  5-MIN KMKG 130125Z 10004KT 4SM BR CLR 01/01 A3037 220 100 -1400 110/04 RMK AO2
14840KMKG MKG20011112203009711/12/01 20:30:31  5-MIN KMKG 130130Z 11005KT 4SM BR CLR 01/01 A3037 220 100 -1400 110/05 RMK AO2
14840KMKG MKG20011112203509711/12/01 20:35:31  5-MIN KMKG 130135Z 11006KT 4SM BR CLR 01/01 A3037 220 100 -1300 120/06 RMK AO2
14840KMKG MKG20011112204009711/12/01 20:40:31  5-MIN KMKG 130140Z 11006KT 4SM BR CLR 01/01 A3037 220 100 -1300 120/06 RMK AO2
14840KMKG MKG20011112204509611/12/01 20:45:31  5-MIN KMKG 130145Z 12006KT 4SM BR CLR 02/01 A3037 220 96 -1300 120/06 RMK AO2
14840KMKG MKG20011112205011311/12/01 20:50:31  5-MIN KMKG 130150Z 12006KT 5SM BR CLR 02/02 A3037 220 96 -1200 130/06 RMK AO2 SLP290 T00220017
14840KMKG MKG20011112205511411/12/01 20:55:31  5-MIN KMKG 130155Z 13006KT 6SM BR CLR 02/02 A3037 220 100 -1200 130/06 RMK AO2 SLP290 T00220022
14840KMKG MKG20011112210009611/12/01 21:00:31  5-MIN KMKG 130200Z 13007KT 6SM BR CLR 03/02 A3037 220 96 -1100 140/07 RMK AO2
14840KMKG MKG20011112210509311/12/01 21:05:31  5-MIN KMKG 130205Z 13007KT 7SM CLR 03/02 A3036 220 92 -1100 130/07 RMK AO2
14840KMKG MKG20011112211009311/12/01 21:10:31  5-MIN KMKG 130210Z 13007KT 7SM CLR 03/02 A3036 220 92 -1100 130/07 RMK AO2
14840KMKG MKG20011112211509311/12/01 21:15:31  5-MIN KMKG 130215Z 13007KT 7SM CLR 03/02 A3036 220 92 -1000 130/07 RMK AO2
14840KMKG MKG20011112212009311/12/01 21:20:31  5-MIN KMKG 130220Z 13007KT 7SM CLR 03/02 A3036 230 96 -1100 140/07 RMK AO2
14840KMKG MKG20011112212509311/12/01 21:25:31  5-MIN KMKG 130225Z 14006KT 7SM CLR 03/02 A3036 220 96 -1100 140/06 RMK AO2
14840KMKG MKG20011112213009311/12/01 21:30:31  5-MIN KMKG 130230Z 14006KT 7SM CLR 03/02 A3036 220 92 -1100 140/06 RMK AO2
14840KMKG MKG20011112213509311/12/01 21:35:31  5-MIN KMKG 130235Z 14006KT 7SM CLR 03/02 A3036 220 92 -1100 140/06 RMK AO2
14840KMKG MKG20011112214009311/12/01 21:40:31  5-MIN KMKG 130240Z 14006KT 7SM CLR 03/02 A3036 220 92 -1100 140/06 RMK AO2
14840KMKG MKG20011112214509311/12/01 21:45:31  5-MIN KMKG 130245Z 14006KT 7SM CLR 02/02 A3036 220 96 -1200 150/06 RMK AO2
14840KMKG MKG20011112215011611/12/01 21:50:31  5-MIN KMKG 130250Z 14005KT 7SM CLR 02/01 A3036 220 92 -1200 150/05 RMK AO2 SLP288 T00220011 56009
14840KMKG MKG20011112215511611/12/01 21:55:31  5-MIN KMKG 130255Z 15005KT 7SM CLR 03/01 A3036 220 89 -1100 150/05 RMK AO2 SLP288 T00280011 58002
14840KMKG MKG20011112220009311/12/01 22:00:31  5-MIN KMKG 130300Z 15005KT 8SM CLR 03/01 A3036 220 89 -1100 160/05 RMK AO2
14840KMKG MKG20011112220509311/12/01 22:05:31  5-MIN KMKG 130305Z 15006KT 8SM CLR 03/02 A3036 220 92 -1100 160/06 RMK AO2
14840KMKG MKG20011112221009311/12/01 22:10:31  5-MIN KMKG 130310Z 16006KT 8SM CLR 03/02 A3036 220 89 -1100 160/06 RMK AO2
14840KMKG MKG20011112221509311/12/01 22:15:31  5-MIN KMKG 130315Z 15007KT 8SM CLR 03/02 A3036 220 89 -1000 150/07 RMK AO2
14840KMKG MKG20011112222009311/12/01 22:20:31  5-MIN KMKG 130320Z 14006KT 8SM CLR 03/01 A3036 220 85 -1000 150/06 RMK AO2
14840KMKG MKG20011112222509311/12/01 22:25:31  5-MIN KMKG 130325Z 13006KT 8SM CLR 02/01 A3036 220 92 -1200 140/06 RMK AO2
14840KMKG MKG20011112223009311/12/01 22:30:31  5-MIN KMKG 130330Z 13006KT 7SM CLR 02/01 A3036 220 92 -1300 130/06 RMK AO2
14840KMKG MKG20011112223509311/12/01 22:35:31  5-MIN KMKG 130335Z 13005KT 7SM CLR 01/00 A3036 220 92 -1300 140/05 RMK AO2
14840KMKG MKG20011112224009311/12/01 22:40:31  5-MIN KMKG 130340Z 14006KT 7SM CLR 02/00 A3036 230 89 -1300 140/06 RMK AO2
14840KMKG MKG20011112224509311/12/01 22:45:31  5-MIN KMKG 130345Z 13006KT 8SM CLR 02/01 A3036 230 92 -1300 140/06 RMK AO2
14840KMKG MKG20011112225011011/12/01 22:50:31  5-MIN KMKG 130350Z 14006KT 8SM CLR 01/00 A3036 230 92 -1300 140/06 RMK AO2 SLP285 T00110000
14840KMKG MKG20011112225511011/12/01 22:55:31  5-MIN KMKG 130355Z 15005KT 7SM CLR 02/00 A3036 230 89 -1300 150/05 RMK AO2 SLP285 T00170000
14840KMKG MKG20011112230009311/12/01 23:00:31  5-MIN KMKG 130400Z 15006KT 8SM CLR 02/01 A3035 230 89 -1200 150/06 RMK AO2
14840KMKG MKG20011112230509311/12/01 23:05:31  5-MIN KMKG 130405Z 14006KT 8SM CLR 02/00 A3035 230 89 -1200 150/06 RMK AO2
14840KMKG MKG20011112231009311/12/01 23:10:31  5-MIN KMKG 130410Z 14006KT 8SM CLR 02/00 A3035 230 89 -1200 150/06 RMK AO2
14840KMKG MKG20011112231509311/12/01 23:15:31  5-MIN KMKG 130415Z 14006KT 8SM CLR 02/00 A3035 240 89 -1200 150/06 RMK AO2
14840KMKG MKG20011112232009311/12/01 23:20:31  5-MIN KMKG 130420Z 14005KT 8SM CLR 02/00 A3035 240 89 -1200 140/05 RMK AO2
14840KMKG MKG20011112232509311/12/01 23:25:31  5-MIN KMKG 130425Z 14006KT 8SM CLR 01/00 A3035 240 92 -1300 140/06 RMK AO2
14840KMKG MKG20011112233009311/12/01 23:30:31  5-MIN KMKG 130430Z 14005KT 8SM CLR 01/00 A3035 240 92 -1300 140/05 RMK AO2
14840KMKG MKG20011112233509311/12/01 23:35:31  5-MIN KMKG 130435Z 14004KT 8SM CLR 01/00 A3034 240 92 -1300 150/04 RMK AO2
14840KMKG MKG20011112234009411/12/01 23:40:31  5-MIN KMKG 130440Z 14005KT 8SM CLR 01/M01 A3034 240 89 -1300 150/05 RMK AO2
14840KMKG MKG20011112234509311/12/01 23:45:31  5-MIN KMKG 130445Z 15004KT 8SM CLR 02/00 A3034 240 89 -1200 150/04 RMK AO2
14840KMKG MKG20011112235012011/12/01 23:50:31  5-MIN KMKG 130450Z 15004KT 9SM CLR 02/00 A3034 240 89 -1200 160/04 RMK AO2 SLP280 T00170000 401061039
14840KMKG MKG20011112235512011/12/01 23:55:31  5-MIN KMKG 130455Z 15004KT 9SM CLR 02/00 A3034 240 89 -1200 150/04 RMK AO2 SLP280 T00170000 401061039
14840KMKG MKG20011113000009411/13/01 00:00:31  5-MIN KMKG 130500Z 15004KT 9SM CLR 02/M01 A3034 240 85 -1200 160/04 RMK AO2
14840KMKG MKG20011113000509411/13/01 00:05:31  5-MIN KMKG 130505Z 15003KT 8SM CLR 02/M01 A3034 240 85 -1200 150/03 RMK AO2
14840KMKG MKG20011113001009411/13/01 00:10:31  5-MIN KMKG 130510Z 14004KT 8SM CLR 02/M01 A3034 240 85 -1200 150/04 RMK AO2
14840KMKG MKG20011113001509411/13/01 00:15:31  5-MIN KMKG 130515Z 14005KT 8SM CLR 01/M01 A3034 240 89 -1300 140/05 RMK AO2
14840KMKG MKG20011113002009411/13/01 00:20:31  5-MIN KMKG 130520Z 13004KT 8SM CLR 00/M01 A3034 240 92 -1400 130/04 RMK AO2
14840KMKG MKG20011113002509411/13/01 00:25:31  5-MIN KMKG 130525Z 13005KT 8SM CLR 00/M01 A3034 240 92 -1400 130/05 RMK AO2
14840KMKG MKG20011113003009411/13/01 00:30:31  5-MIN KMKG 130530Z 13005KT 8SM CLR 00/M01 A3034 250 92 -1400 130/05 RMK AO2
14840KMKG MKG20011113003509411/13/01 00:35:31  5-MIN KMKG 130535Z 13005KT 9SM CLR 00/M01 A3034 250 92 -1400 140/05 RMK AO2
14840KMKG MKG20011113004009411/13/01 00:40:31  5-MIN KMKG 130540Z 14004KT 9SM CLR 00/M01 A3033 250 92 -1400 150/04 RMK AO2
14840KMKG MKG20011113004509411/13/01 00:45:31  5-MIN KMKG 130545Z 14004KT 8SM CLR 01/M01 A3033 250 89 -1400 140/04 RMK AO2
14840KMKG MKG20011113005012911/13/01 00:50:31  5-MIN KMKG 130550Z 14005KT 8SM CLR 01/M01 A3033 250 89 -1300 140/05 RMK AO2 SLP276 T00111006 10050 20000 58002
14840KMKG MKG20011113005512911/13/01 00:55:31  5-MIN KMKG 130555Z 14005KT 8SM CLR 01/M01 A3033 250 89 -1300 150/05 RMK AO2 SLP276 T00111006 10050 20000 58011
14840KMKG MKG20011113010009411/13/01 01:00:31  5-MIN KMKG 130600Z 14005KT 9SM CLR 01/M01 A3033 250 89 -1400 150/05 RMK AO2
14840KMKG MKG20011113010509411/13/01 01:05:31  5-MIN KMKG 130605Z 14005KT 9SM CLR 01/M01 A3033 250 89 -1400 140/05 RMK AO2
14840KMKG MKG20011113011009411/13/01 01:10:31  5-MIN KMKG 130610Z 14005KT 9SM CLR 01/M01 A3033 250 89 -1400 140/05 RMK AO2
14840KMKG MKG20011113011509411/13/01 01:15:31  5-MIN KMKG 130615Z 14006KT 9SM CLR 00/M01 A3033 250 92 -1400 140/06 RMK AO2
14840KMKG MKG20011113012009511/13/01 01:20:31  5-MIN KMKG 130620Z 14006KT 10SM CLR 01/M01 A3033 260 85 -1300 140/06 RMK AO2
14840KMKG MKG20011113012509511/13/01 01:25:31  5-MIN KMKG 130625Z 14005KT 10SM CLR 01/M01 A3032 260 85 -1300 150/05 RMK AO2
14840KMKG MKG20011113013009511/13/01 01:30:31  5-MIN KMKG 130630Z 14005KT 10SM CLR 01/M01 A3032 260 85 -1300 150/05 RMK AO2
14840KMKG MKG20011113013509511/13/01 01:35:31  5-MIN KMKG 130635Z 14005KT 10SM CLR 01/M01 A3032 260 85 -1300 140/05 RMK AO2
14840KMKG MKG20011113014009511/13/01 01:40:31  5-MIN KMKG 130640Z 15005KT 10SM CLR 02/M01 A3032 260 82 -1200 150/05 RMK AO2
14840KMKG MKG20011113014509511/13/01 01:45:31  5-MIN KMKG 130645Z 16005KT 10SM CLR 02/M01 A3032 260 82 -1200 160/05 RMK AO2
14840KMKG MKG20011113015011211/13/01 01:50:31  5-MIN KMKG 130650Z 16005KT 10SM CLR 02/M01 A3032 260 82 -1100 160/05 RMK AO2 SLP273 T00221006
14840KMKG MKG20011113015511211/13/01 01:55:31  5-MIN KMKG 130655Z 15006KT 10SM CLR 02/M01 A3032 260 82 -1100 160/06 RMK AO2 SLP272 T00221006
14840KMKG MKG20011113020009511/13/01 02:00:31  5-MIN KMKG 130700Z 15006KT 10SM CLR 02/M01 A3032 260 82 -1100 150/06 RMK AO2
14840KMKG MKG20011113020509511/13/01 02:05:31  5-MIN KMKG 130705Z 14005KT 10SM CLR 02/M01 A3032 260 82 -1100 150/05 RMK AO2
14840KMKG MKG20011113021009511/13/01 02:10:31  5-MIN KMKG 130710Z 14004KT 10SM CLR 02/M01 A3032 260 82 -1100 150/04 RMK AO2
14840KMKG MKG20011113021509511/13/01 02:15:31  5-MIN KMKG 130715Z 14005KT 10SM CLR 01/M01 A3032 260 85 -1300 140/05 RMK AO2
14840KMKG MKG20011113022009511/13/01 02:20:31  5-MIN KMKG 130720Z 14005KT 10SM CLR 01/M02 A3032 260 85 -1300 140/05 RMK AO2
14840KMKG MKG20011113022509511/13/01 02:25:31  5-MIN KMKG 130725Z 14005KT 10SM CLR 01/M02 A3032 260 85 -1300 150/05 RMK AO2
14840KMKG MKG20011113023009411/13/01 02:30:31  5-MIN KMKG 130730Z 14005KT 9SM CLR 01/M01 A3032 260 89 -1300 150/05 RMK AO2
14840KMKG MKG20011113023509511/13/01 02:35:31  5-MIN KMKG 130735Z 14005KT 10SM CLR 01/M01 A3032 260 85 -1300 150/05 RMK AO2
14840KMKG MKG20011113024009511/13/01 02:40:31  5-MIN KMKG 130740Z 14005KT 10SM CLR 01/M01 A3032 270 85 -1300 150/05 RMK AO2
14840KMKG MKG20011113024509511/13/01 02:45:31  5-MIN KMKG 130745Z 14006KT 10SM CLR 01/M01 A3031 270 85 -1300 150/06 RMK AO2
14840KMKG MKG20011113025011211/13/01 02:50:31  5-MIN KMKG 130750Z 14005KT 10SM CLR 02/M01 A3031 270 82 -1200 150/05 RMK AO2 SLP270 T00171011
14840KMKG MKG20011113025511211/13/01 02:55:31  5-MIN KMKG 130755Z 15005KT 10SM CLR 02/M01 A3031 270 82 -1200 150/05 RMK AO2 SLP270 T00171011
14840KMKG MKG20011113030009511/13/01 03:00:31  5-MIN KMKG 130800Z 14006KT 10SM CLR 02/M01 A3031 270 85 -1200 150/06 RMK AO2
14840KMKG MKG20011113030509511/13/01 03:05:31  5-MIN KMKG 130805Z 15006KT 10SM CLR 02/M01 A3031 270 85 -1200 150/06 RMK AO2
14840KMKG MKG20011113031009511/13/01 03:10:31  5-MIN KMKG 130810Z 16006KT 10SM CLR 02/M01 A3031 280 82 -1100 160/06 RMK AO2
14840KMKG MKG20011113031509511/13/01 03:15:31  5-MIN KMKG 130815Z 16005KT 10SM CLR 03/M01 A3030 280 79 -1100 160/05 RMK AO2
14840KMKG MKG20011113032009411/13/01 03:20:31  5-MIN KMKG 130820Z 15006KT 10SM CLR 02/00 A3030 280 85 -1100 150/06 RMK AO2
14840KMKG MKG20011113032509411/13/01 03:25:31  5-MIN KMKG 130825Z 15006KT 10SM CLR 03/00 A3030 280 82 -1000 160/06 RMK AO2
14840KMKG MKG20011113033009411/13/01 03:30:31  5-MIN KMKG 130830Z 16006KT 10SM CLR 03/00 A3030 280 82 -1000 160/06 RMK AO2
14840KMKG MKG20011113033509411/13/01 03:35:31  5-MIN KMKG 130835Z 15006KT 10SM CLR 03/00 A3030 280 82 -1000 150/06 RMK AO2
14840KMKG MKG20011113034009711/13/01 03:40:31  5-MIN KMKG 130840Z 15006KT 10SM FEW120 03/00 A3030 280 82 -1000 160/06 RMK AO2
14840KMKG MKG20011113034509711/13/01 03:45:31  5-MIN KMKG 130845Z 15006KT 10SM SCT120 03/00 A3030 290 82 -1000 150/06 RMK AO2
14840KMKG MKG20011113035012011/13/01 03:50:31  5-MIN KMKG 130850Z 15006KT 10SM SCT120 03/00 A3029 290 82 -1000 160/06 RMK AO2 SLP263 T00280000 58011
14840KMKG MKG20011113035512011/13/01 03:55:31  5-MIN KMKG 130855Z 15006KT 10SM FEW120 03/00 A3029 290 82 -1000 150/06 RMK AO2 SLP262 T00280000 58014
14840KMKG MKG20011113040009711/13/01 04:00:31  5-MIN KMKG 130900Z 16006KT 10SM FEW120 03/00 A3029 290 82 -1000 160/06 RMK AO2
14840KMKG MKG20011113040509711/13/01 04:05:31  5-MIN KMKG 130905Z 16006KT 10SM FEW120 03/01 A3029 290 82 -1000 160/06 RMK AO2
14840KMKG MKG20011113041009711/13/01 04:10:31  5-MIN KMKG 130910Z 16006KT 10SM FEW120 03/01 A3029 290 82 -1000 160/06 RMK AO2
14840KMKG MKG20011113041509411/13/01 04:15:31  5-MIN KMKG 130915Z 16005KT 10SM CLR 03/01 A3029 290 82 -1000 160/05 RMK AO2
14840KMKG MKG20011113042009411/13/01 04:20:31  5-MIN KMKG 130920Z 15005KT 10SM CLR 03/01 A3029 290 82 -1000 150/05 RMK AO2
14840KMKG MKG20011113042509411/13/01 04:25:31  5-MIN KMKG 130925Z 14006KT 10SM CLR 03/00 A3028 300 82 -1000 140/06 RMK AO2
14840KMKG MKG20011113043009511/13/01 04:30:31  5-MIN KMKG 130930Z 14006KT 10SM CLR 02/M01 A3029 290 85 -1200 140/06 RMK AO2
14840KMKG MKG20011113043509511/13/01 04:35:31  5-MIN KMKG 130935Z 14006KT 10SM CLR 02/M01 A3028 300 85 -1200 140/06 RMK AO2
14840KMKG MKG20011113044009511/13/01 04:40:31  5-MIN KMKG 130940Z 14006KT 10SM CLR 02/M01 A3028 300 85 -1200 140/06 RMK AO2
14840KMKG MKG20011113044509511/13/01 04:45:31  5-MIN KMKG 130945Z 14005KT 10SM CLR 02/M01 A3028 300 85 -1200 140/05 RMK AO2
14840KMKG MKG20011113045011211/13/01 04:50:31  5-MIN KMKG 130950Z 13005KT 10SM CLR 02/M01 A3028 300 85 -1200 140/05 RMK AO2 SLP259 T00171006
14840KMKG MKG20011113045511211/13/01 04:55:31  5-MIN KMKG 130955Z 14006KT 10SM CLR 01/M01 A3028 300 85 -1200 140/06 RMK AO2 SLP258 T00111011
14840KMKG MKG20011113050009511/13/01 05:00:31  5-MIN KMKG 131000Z 14005KT 10SM CLR 01/M01 A3028 300 89 -1200 140/05 RMK AO2
14840KMKG MKG20011113050509511/13/01 05:05:31  5-MIN KMKG 131005Z 14005KT 10SM CLR 02/M01 A3028 300 85 -1200 150/05 RMK AO2
14840KMKG MKG20011113051009511/13/01 05:10:31  5-MIN KMKG 131010Z 14005KT 10SM CLR 02/M01 A3028 300 85 -1200 140/05 RMK AO2
14840KMKG MKG20011113051509511/13/01 05:15:31  5-MIN KMKG 131015Z 13005KT 10SM CLR 01/M01 A3028 300 85 -1200 140/05 RMK AO2
14840KMKG MKG20011113052009511/13/01 05:20:31  5-MIN KMKG 131020Z 13006KT 10SM CLR 01/M01 A3027 300 85 -1200 140/06 RMK AO2
14840KMKG MKG20011113052509511/13/01 05:25:31  5-MIN KMKG 131025Z 13005KT 10SM CLR 01/M01 A3027 300 85 -1200 130/05 RMK AO2
14840KMKG MKG20011113053009511/13/01 05:30:31  5-MIN KMKG 131030Z 13006KT 10SM CLR 01/M01 A3028 300 85 -1200 140/06 RMK AO2
14840KMKG MKG20011113053509511/13/01 05:35:31  5-MIN KMKG 131035Z 13006KT 10SM CLR 01/M01 A3027 310 85 -1200 140/06 RMK AO2
14840KMKG MKG20011113054009511/13/01 05:40:31  5-MIN KMKG 131040Z 14007KT 10SM CLR 02/M01 A3027 310 82 -1200 140/07 RMK AO2
14840KMKG MKG20011113054509511/13/01 05:45:31  5-MIN KMKG 131045Z 14005KT 10SM CLR 01/M01 A3027 310 85 -1200 150/05 RMK AO2
14840KMKG MKG20011113055011211/13/01 05:50:31  5-MIN KMKG 131050Z 14004KT 10SM CLR 02/M01 A3027 310 82 -1200 150/04 RMK AO2 SLP257 T00171011
14840KMKG MKG20011113055511211/13/01 05:55:31  5-MIN KMKG 131055Z 14005KT 10SM CLR 02/M01 A3027 310 78 -1100 140/05 RMK AO2 SLP257 T00221011
14840KMKG MKG20011113060009511/13/01 06:00:31  5-MIN KMKG 131100Z 13006KT 10SM CLR 02/M01 A3027 310 82 -1200 140/06 RMK AO2
14840KMKG MKG20011113060509511/13/01 06:05:31  5-MIN KMKG 131105Z 13005KT 10SM CLR 02/M01 A3027 310 82 -1200 140/05 RMK AO2
14840KMKG MKG20011113061009511/13/01 06:10:31  5-MIN KMKG 131110Z 14006KT 10SM CLR 02/M01 A3027 310 85 -1200 140/06 RMK AO2
14840KMKG MKG20011113061509511/13/01 06:15:31  5-MIN KMKG 131115Z 15007KT 10SM CLR 02/M01 A3027 310 85 -1100 150/07 RMK AO2
14840KMKG MKG20011113062009511/13/01 06:20:31  5-MIN KMKG 131120Z 14007KT 10SM CLR 02/M01 A3027 310 82 -1100 140/07 RMK AO2
14840KMKG MKG20011113062509511/13/01 06:25:31  5-MIN KMKG 131125Z 13007KT 10SM CLR 02/M01 A3027 310 82 -1100 140/07 RMK AO2
14840KMKG MKG20011113063009511/13/01 06:30:31  5-MIN KMKG 131130Z 13007KT 10SM CLR 02/M01 A3026 310 82 -1100 130/07 RMK AO2
14840KMKG MKG20011113063509511/13/01 06:35:31  5-MIN KMKG 131135Z 13007KT 10SM CLR 01/M01 A3027 310 85 -1200 130/07 RMK AO2
14840KMKG MKG20011113064009511/13/01 06:40:31  5-MIN KMKG 131140Z 13005KT 10SM CLR 01/M01 A3027 310 85 -1200 130/05 RMK AO2
14840KMKG MKG20011113064509511/13/01 06:45:31  5-MIN KMKG 131145Z 13006KT 10SM CLR 02/M01 A3027 310 82 -1100 140/06 RMK AO2
14840KMKG MKG20011113065013011/13/01 06:50:31  5-MIN KMKG 131150Z 13007KT 10SM CLR 02/M01 A3027 310 82 -1100 130/07 RMK AO2 SLP255 T00171011 10033 20000 58014
14840KMKG MKG20011113065513011/13/01 06:55:31  5-MIN KMKG 131155Z 14007KT 10SM CLR 02/M01 A3026 310 82 -1100 150/07 RMK AO2 SLP254 T00171011 10033 20000 56009
14840KMKG MKG20011113070009511/13/01 07:00:31  5-MIN KMKG 131200Z 15007KT 10SM CLR 01/M01 A3026 310 85 -1200 150/07 RMK AO2
14840KMKG MKG20011113070509511/13/01 07:05:31  5-MIN KMKG 131205Z 14007KT 10SM CLR 02/M01 A3026 310 85 -1100 150/07 RMK AO2
14840KMKG MKG20011113071009511/13/01 07:10:31  5-MIN KMKG 131210Z 15007KT 10SM CLR 02/M01 A3026 320 82 -1100 150/07 RMK AO2
14840KMKG MKG20011113071509511/13/01 07:15:31  5-MIN KMKG 131215Z 13007KT 10SM CLR 02/M01 A3026 310 85 -1100 140/07 RMK AO2
14840KMKG MKG20011113072009511/13/01 07:20:31  5-MIN KMKG 131220Z 14006KT 10SM CLR 02/M01 A3026 310 82 -1100 150/06 RMK AO2
14840KMKG MKG20011113072509511/13/01 07:25:31  5-MIN KMKG 131225Z 14008KT 10SM CLR 02/M01 A3026 320 82 -1100 150/08 RMK AO2
14840KMKG MKG20011113073009511/13/01 07:30:31  5-MIN KMKG 131230Z 14007KT 10SM CLR 02/M01 A3026 320 82 -1100 150/07 RMK AO2
14840KMKG MKG20011113073509511/13/01 07:35:31  5-MIN KMKG 131235Z 15006KT 10SM CLR 02/M01 A3026 310 82 -1100 150/06 RMK AO2
14840KMKG MKG20011113074009311/13/01 07:40:31  5-MIN KMKG 131240Z 16006KT 10SM CLR 03/01 A3027 310 82 -900 160/06 RMK AO2
14840KMKG MKG20011113074509911/13/01 07:45:31  5-MIN KMKG 131245Z 19010G14KT 10SM CLR 05/01 A3027 310 76 -700 190/10G14 RMK AO2
14840KMKG MKG20011113075011611/13/01 07:50:31  5-MIN KMKG 131250Z VRB06G14KT 10SM CLR 07/02 A3027 310 73 -500 VRB/06G14 RMK AO2 SLP254 T00670022
14840KMKG MKG20011113075511611/13/01 07:55:31  5-MIN KMKG 131255Z VRB06G14KT 10SM CLR 07/03 A3027 310 76 -500 VRB/06G14 RMK AO2 SLP254 T00670028
14840KMKG MKG20011113080009911/13/01 08:00:31  5-MIN KMKG 131300Z 17010G17KT 10SM CLR 06/02 A3026 310 76 -600 170/10G17 RMK AO2
14840KMKG MKG20011113080511511/13/01 08:05:31  5-MIN KMKG 131305Z 16009G17KT 120V200 10SM CLR 07/03 A3026 310 76 -500 170/09G17 120V200 RMK AO2
14840KMKG MKG20011113081009311/13/01 08:10:31  5-MIN KMKG 131310Z 15009KT 10SM CLR 06/02 A3026 320 76 -700 160/09 RMK AO2
14840KMKG MKG20011113081509311/13/01 08:15:31  5-MIN KMKG 131315Z 17007KT 10SM CLR 04/02 A3026 320 82 -800 170/07 RMK AO2
14840KMKG MKG20011113082009611/13/01 08:20:31  5-MIN KMKG 131320Z 18011KT 10SM SCT100 08/04 A3026 320 73 -300 190/11 RMK AO2
14840KMKG MKG20011113082509611/13/01 08:25:31  5-MIN KMKG 131325Z 18010KT 10SM BKN100 09/04 A3026 320 73 -200 180/10 RMK AO2
14840KMKG MKG20011113083009611/13/01 08:30:31  5-MIN KMKG 131330Z 18012KT 10SM BKN100 09/04 A3026 320 71 -200 180/12 RMK AO2
14840KMKG MKG20011113083509611/13/01 08:35:31  5-MIN KMKG 131335Z 18013KT 10SM BKN100 09/04 A3026 320 71 -200 190/13 RMK AO2
14840KMKG MKG20011113084009611/13/01 08:40:31  5-MIN KMKG 131340Z 18014KT 10SM BKN100 09/04 A3025 320 71 -200 180/14 RMK AO2
14840KMKG MKG20011113084509611/13/01 08:45:31  5-MIN KMKG 131345Z 18013KT 10SM BKN100 09/04 A3025 320 68 -200 190/13 RMK AO2
14840KMKG MKG20011113085011911/13/01 08:50:31  5-MIN KMKG 131350Z 18014G20KT 10SM BKN100 09/04 A3025 320 68 -200 180/14G20 RMK AO2 SLP250 T00940039
14840KMKG MKG20011113085511911/13/01 08:55:31  5-MIN KMKG 131355Z 18013G20KT 10SM SCT100 09/04 A3025 320 68 -200 190/13G20 RMK AO2 SLP250 T00940039
14840KMKG MKG20011113090010211/13/01 09:00:31  5-MIN KMKG 131400Z 18012G20KT 10SM SCT110 09/04 A3025 330 68 -200 190/12G20 RMK AO2
14840KMKG MKG20011113090509611/13/01 09:05:31  5-MIN KMKG 131405Z 18013KT 10SM BKN110 09/04 A3025 320 68 -200 190/13 RMK AO2
14840KMKG MKG20011113091009611/13/01 09:10:31  5-MIN KMKG 131410Z 19013KT 10SM BKN110 10/04 A3025 330 65 -100 190/13 RMK AO2
14840KMKG MKG20011113091509611/13/01 09:15:31  5-MIN KMKG 131415Z 19015KT 10SM BKN110 10/04 A3025 330 65 -100 200/15 RMK AO2
14840KMKG MKG20011113092009611/13/01 09:20:31  5-MIN KMKG 131420Z 19014KT 10SM BKN110 10/04 A3025 330 65 -100 200/14 RMK AO2
14840KMKG MKG20011113092509611/13/01 09:25:31  5-MIN KMKG 131425Z 19015KT 10SM OVC110 10/04 A3025 330 65 -100 190/15 RMK AO2
14840KMKG MKG20011113093009611/13/01 09:30:31  5-MIN KMKG 131430Z 18016KT 10SM OVC100 10/04 A3024 330 65 -100 190/16 RMK AO2
14840KMKG MKG20011113093510211/13/01 09:35:31  5-MIN KMKG 131435Z 18012G20KT 10SM BKN100 10/04 A3024 330 65 -100 190/12G20 RMK AO2
14840KMKG MKG20011113094009911/13/01 09:40:31  5-MIN KMKG 131440Z 19015G20KT 10SM BKN100 11/04 A3025 330 63 0 190/15G20 RMK AO2
14840KMKG MKG20011113094509911/13/01 09:45:31  5-MIN KMKG 131445Z 18016G22KT 10SM BKN100 11/04 A3024 330 63 0 190/16G22 RMK AO2
14840KMKG MKG20011113095012211/13/01 09:50:31  5-MIN KMKG 131450Z 19014G22KT 10SM SCT100 11/04 A3024 340 63 0 190/14G22 RMK AO2 SLP244 T01060039 56009
14840KMKG MKG20011113095512211/13/01 09:55:31  5-MIN KMKG 131455Z 18017G23KT 10SM SCT100 11/04 A3024 330 63 0 180/17G23 RMK AO2 SLP245 T01060039 58007
14840KMKG MKG20011113100009911/13/01 10:00:31  5-MIN KMKG 131500Z 18016G23KT 10SM FEW095 11/04 A3024 340 61 0 190/16G23 RMK AO2
14840KMKG MKG20011113100509911/13/01 10:05:31  5-MIN KMKG 131505Z 18015G23KT 10SM FEW095 11/04 A3024 340 61 0 180/15G23 RMK AO2
14840KMKG MKG20011113101009911/13/01 10:10:31  5-MIN KMKG 131510Z 18018G23KT 10SM FEW110 11/04 A3024 340 63 0 190/18G23 RMK AO2
14840KMKG MKG20011113101509911/13/01 10:15:31  5-MIN KMKG 131515Z 19018G23KT 10SM FEW110 11/04 A3024 340 63 0 190/18G23 RMK AO2
14840KMKG MKG20011113102009911/13/01 10:20:31  5-MIN KMKG 131520Z 19013G21KT 10SM FEW110 11/04 A3024 340 63 0 200/13G21 RMK AO2
14840KMKG MKG20011113102509311/13/01 10:25:31  5-MIN KMKG 131525Z 19016KT 10SM SCT100 11/04 A3024 340 63 0 190/16 RMK AO2
14840KMKG MKG20011113103009611/13/01 10:30:31  5-MIN KMKG 131530Z 19016KT 10SM BKN100 10/04 A3024 340 65 -100 190/16 RMK AO2
14840KMKG MKG20011113103510211/13/01 10:35:31  5-MIN KMKG 131535Z 18016G22KT 10SM BKN110 10/04 A3024 330 65 -100 190/16G22 RMK AO2
14840KMKG MKG20011113104010211/13/01 10:40:31  5-MIN KMKG 131540Z 19016G22KT 10SM BKN100 10/04 A3024 330 65 -100 190/16G22 RMK AO2
14840KMKG MKG20011113104509611/13/01 10:45:31  5-MIN KMKG 131545Z 19014KT 10SM BKN110 10/04 A3024 330 65 -100 190/14 RMK AO2
14840KMKG MKG20011113105011311/13/01 10:50:31  5-MIN KMKG 131550Z 18015KT 10SM BKN100 10/04 A3024 330 65 -100 190/15 RMK AO2 SLP246 T01000039
14840KMKG MKG20011113105511311/13/01 10:55:31  5-MIN KMKG 131555Z 18015KT 10SM SCT100 10/04 A3024 330 65 -100 180/15 RMK AO2 SLP245 T01000039
14840KMKG MKG20011113110009611/13/01 11:00:31  5-MIN KMKG 131600Z 18014KT 10SM BKN100 10/04 A3024 340 65 -100 180/14 RMK AO2
14840KMKG MKG20011113110509611/13/01 11:05:31  5-MIN KMKG 131605Z 18014KT 10SM SCT100 10/04 A3024 340 65 -100 180/14 RMK AO2
14840KMKG MKG20011113111010211/13/01 11:10:31  5-MIN KMKG 131610Z 19015G20KT 10SM SCT095 10/04 A3024 340 65 -100 190/15G20 RMK AO2
14840KMKG MKG20011113111509611/13/01 11:15:31  5-MIN KMKG 131615Z 18014KT 10SM SCT090 10/04 A3024 340 65 -100 190/14 RMK AO2
14840KMKG MKG20011113112011211/13/01 11:20:31  5-MIN KMKG 131620Z 19014KT 10SM -RA FEW070 10/04 A3024 340 65 -100 190/14 RMK AO2 RAB19 P0000
14840KMKG MKG20011113112512511/13/01 11:25:31  5-MIN KMKG 131625Z 19013G20KT 10SM -RA FEW065 SCT090 10/04 A3024 340 68 -100 190/13G20 RMK AO2 RAB19 P0000
14840KMKG MKG20011113113014711/13/01 11:30:31  5-MIN KMKG 131630Z 18013G20KT 10SM -RA FEW060 SCT075 BKN090 09/04 A3023 340 71 -200 190/13G20 RMK AO2 RAB19 CIG 065 RWY 14 P0000
14840KMKG MKG20011113113512611/13/01 11:35:31  5-MIN KMKG 131635Z 19012KT 10SM -RA SCT060 BKN075 BKN090 09/04 A3023 340 71 -200 190/12 RMK AO2 RAB19 P0000
14840KMKG MKG20011113114013411/13/01 11:40:31  5-MIN KMKG 131640Z 18014KT 10SM -RA SCT060 BKN075 09/04 A3023 350 71 -100 190/14 RMK AO2 RAB19 CIG 060 RWY 14 P0000
14840KMKG MKG20011113114513411/13/01 11:45:31  5-MIN KMKG 131645Z 18012KT 10SM -RA SCT060 BKN075 09/04 A3022 350 71 -100 180/12 RMK AO2 RAB19 CIG 060 RWY 14 P0000
14840KMKG MKG20011113115015611/13/01 11:50:31  5-MIN KMKG 131650Z 18013G19KT 10SM SCT055 BKN075 10/04 A3022 350 68 -100 180/13G19 RMK AO2 RAB19E49 CIG 060 RWY 14 SLP238 P0000 T01000044
14840KMKG MKG20011113115514211/13/01 11:55:31  5-MIN KMKG 131655Z 19012G19KT 10SM -RA BKN060 BKN075 10/04 A3021 360 68 -100 190/12G19 RMK AO2 RAB19 SLP236 P0000 T01000044
14840KMKG MKG20011113120011211/13/01 12:00:31  5-MIN KMKG 131700Z 19012G19KT 10SM -RA BKN060 10/04 A3021 360 65 -100 190/12G19 RMK AO2 P0000
14840KMKG MKG20011113120511411/13/01 12:05:31  5-MIN KMKG 131705Z 19013G19KT 10SM SCT065 10/04 A3021 360 65 -100 200/13G19 RMK AO2 RAE01 P0000
14840KMKG MKG20011113121010811/13/01 12:10:31  5-MIN KMKG 131710Z 19014KT 10SM SCT065 10/04 A3021 360 65 -100 200/14 RMK AO2 RAE01 P0000
14840KMKG MKG20011113121510811/13/01 12:15:31  5-MIN KMKG 131715Z 19015KT 10SM SCT070 10/04 A3021 360 65 -100 190/15 RMK AO2 RAE01 P0000
14840KMKG MKG20011113122011411/13/01 12:20:31  5-MIN KMKG 131720Z 19013G19KT 10SM SCT070 10/04 A3021 370 65 -100 190/13G19 RMK AO2 RAE01 P0000
14840KMKG MKG20011113122510811/13/01 12:25:31  5-MIN KMKG 131725Z 19012KT 10SM BKN070 10/04 A3021 370 65 -100 190/12 RMK AO2 RAE01 P0000
14840KMKG MKG20011113123012511/13/01 12:30:31  5-MIN KMKG 131730Z 18015G20KT 10SM -RA BKN060 BKN080 10/04 A3020 380 68 0 180/15G20 RMK AO2 RAE01B27 P0000
14840KMKG MKG20011113123512711/13/01 12:35:31  5-MIN KMKG 131735Z 18015G20KT 9SM -RA BKN060 BKN075 09/05 A3019 380 74 -100 180/15G20 RMK AO2 RAE01B27 P0000
14840KMKG MKG20011113124012811/13/01 12:40:31  5-MIN KMKG 131740Z 18013G20KT 10SM -RA BKN055 BKN070 09/05 A3019 380 74 -100 180/13G20 RMK AO2 RAE01B27 P0000
14840KMKG MKG20011113124512811/13/01 12:45:31  5-MIN KMKG 131745Z 19014G20KT 10SM -RA SCT055 OVC070 09/05 A3019 380 74 -100 190/14G20 RMK AO2 RAE01B27 P0001
14840KMKG MKG20011113125016811/13/01 12:50:31  5-MIN KMKG 131750Z 18014G20KT 8SM -RA SCT055 OVC070 09/05 A3019 380 74 -100 180/14G20 RMK AO2 RAE01B27 SLP227 P0001 60001 T00940050 10111 20011 58007
14840KMKG MKG20011113125516811/13/01 12:55:31  5-MIN KMKG 131755Z 18011G19KT 7SM -RA FEW050 OVC065 09/06 A3019 390 76 -100 190/11G19 RMK AO2 RAE01B27 SLP227 P0002 60002 T00940056 10111 20011 58019
14840KMKG MKG20011113130011811/13/01 13:00:31  5-MIN KMKG 131800Z 19014G19KT 6SM -RA SCT050 OVC065 09/06 A3019 380 76 -100 190/14G19 RMK AO2 P0000
14840KMKG MKG20011113130511111/13/01 13:05:31  5-MIN KMKG 131805Z 20015KT 4SM RA SCT045 OVC065 09/06 A3019 380 79 -200 200/15 RMK AO2 P0002
14840KMKG MKG20011113131011111/13/01 13:10:31  5-MIN KMKG 131810Z 20013KT 4SM RA FEW039 OVC060 09/06 A3019 380 79 -200 200/13 RMK AO2 P0003
14840KMKG MKG20011113131511111/13/01 13:15:31  5-MIN KMKG 131815Z 19012KT 4SM RA FEW039 OVC060 09/06 A3019 380 79 -200 200/12 RMK AO2 P0004
14840KMKG MKG20011113132011211/13/01 13:20:31  5-MIN KMKG 131820Z 19016KT 6SM -RA FEW044 OVC060 09/06 A3019 390 79 -200 200/16 RMK AO2 P0004
14840KMKG MKG20011113132511211/13/01 13:25:31  5-MIN KMKG 131825Z 18016KT 7SM -RA FEW044 OVC060 09/06 A3018 390 79 -200 180/16 RMK AO2 P0004
14840KMKG MKG20011113133011111/13/01 13:30:31  5-MIN KMKG 131830Z 18015KT 5SM RA FEW039 OVC060 09/06 A3018 400 79 -200 180/15 RMK AO2 P0005
14840KMKG MKG20011113133511811/13/01 13:35:31  5-MIN KMKG 131835Z 19013G20KT 6SM -RA FEW039 OVC060 08/06 A3018 390 82 -200 190/13G20 RMK AO2 P0006
14840KMKG MKG20011113134010411/13/01 13:40:31  5-MIN KMKG 131840Z 19011KT 5SM RA OVC060 08/06 A3018 390 82 -200 190/11 RMK AO2 P0007
14840KMKG MKG20011113134511111/13/01 13:45:31  5-MIN KMKG 131845Z 19012KT 5SM RA FEW047 OVC060 08/06 A3017 400 82 -200 190/12 RMK AO2 P0008
14840KMKG MKG20011113135012511/13/01 13:50:31  5-MIN KMKG 131850Z 19013KT 4SM -RA BR OVC060 08/06 A3018 400 86 -200 190/13 RMK AO2 SLP223 P0008 T00830061
14840KMKG MKG20011113135512111/13/01 13:55:31  5-MIN KMKG 131855Z 19012KT 4SM RA OVC060 08/06 A3018 390 82 -200 190/12 RMK AO2 SLP223 P0009 T00830056
14840KMKG MKG20011113140010711/13/01 14:00:31  5-MIN KMKG 131900Z 18011KT 4SM RA BR OVC055 08/06 A3017 400 86 -200 190/11 RMK AO2 P0001
14840KMKG MKG20011113140510811/13/01 14:05:31  5-MIN KMKG 131905Z 18010KT 5SM -RA BR OVC055 08/06 A3017 400 86 -200 190/10 RMK AO2 P0002
14840KMKG MKG20011113141010811/13/01 14:10:31  5-MIN KMKG 131910Z 19012KT 5SM -RA BR OVC055 08/06 A3017 400 86 -200 190/12 RMK AO2 P0002
14840KMKG MKG20011113141511411/13/01 14:15:31  5-MIN KMKG 131915Z 19011KT 4SM RA BR FEW037 OVC055 08/06 A3016 410 86 -200 190/11 RMK AO2 P0003
14840KMKG MKG20011113142011511/13/01 14:20:31  5-MIN KMKG 131920Z 18011KT 4SM -RA BR FEW037 OVC055 08/06 A3016 410 86 -200 190/11 RMK AO2 P0004
14840KMKG MKG20011113142511411/13/01 14:25:31  5-MIN KMKG 131925Z 18012KT 4SM RA BR FEW027 OVC055 08/06 A3015 410 86 -200 190/12 RMK AO2 P0006
14840KMKG MKG20011113143011511/13/01 14:30:31  5-MIN KMKG 131930Z 19012KT 4SM -RA BR SCT027 OVC055 08/06 A3016 410 86 -200 190/12 RMK AO2 P0006
14840KMKG MKG20011113143511511/13/01 14:35:31  5-MIN KMKG 131935Z 19011KT 5SM -RA BR BKN029 OVC055 08/06 A3016 410 86 -200 190/11 RMK AO2 P0007
14840KMKG MKG20011113144012111/13/01 14:40:31  5-MIN KMKG 131940Z 19013KT 4SM RA BR FEW026 BKN031 OVC050 08/06 A3015 410 86 -200 190/13 RMK AO2 P0008
14840KMKG MKG20011113144512211/13/01 14:45:31  5-MIN KMKG 131945Z 18012KT 5SM -RA BR FEW026 BKN031 OVC055 08/06 A3015 420 86 -200 190/12 RMK AO2 P0008
14840KMKG MKG20011113145013911/13/01 14:50:31  5-MIN KMKG 131950Z 19011KT 5SM -RA BR FEW026 BKN031 OVC070 08/06 A3015 420 86 -200 190/11 RMK AO2 SLP213 P0009 T00830061
14840KMKG MKG20011113145513911/13/01 14:55:31  5-MIN KMKG 131955Z 18011KT 4SM -RA BR FEW026 BKN033 OVC060 08/06 A3014 420 86 -200 190/11 RMK AO2 SLP212 P0010 T00830061
14840KMKG MKG20011113150012211/13/01 15:00:31  5-MIN KMKG 132000Z 19010KT 5SM -RA BR FEW024 BKN033 OVC060 08/06 A3015 420 86 -200 190/10 RMK AO2 P0000
14840KMKG MKG20011113150512211/13/01 15:05:31  5-MIN KMKG 132005Z 19010KT 6SM -RA BR FEW024 SCT033 OVC055 08/06 A3015 420 86 -200 200/10 RMK AO2 P0000
14840KMKG MKG20011113151012211/13/01 15:10:31  5-MIN KMKG 132010Z 19010KT 6SM -RA BR FEW024 SCT033 OVC060 08/06 A3015 420 86 -200 200/10 RMK AO2 P0001
14840KMKG MKG20011113151512211/13/01 15:15:31  5-MIN KMKG 132015Z 19009KT 5SM -RA BR FEW024 BKN042 OVC060 08/06 A3015 420 86 -200 190/09 RMK AO2 P0001
14840KMKG MKG20011113152012211/13/01 15:20:31  5-MIN KMKG 132020Z 19010KT 6SM -RA BR SCT026 BKN044 OVC060 08/06 A3014 420 86 -200 190/10 RMK AO2 P0001
14840KMKG MKG20011113152511911/13/01 15:25:31  5-MIN KMKG 132025Z 18011KT 8SM -RA FEW026 BKN044 OVC055 09/06 A3014 430 83 -100 190/11 RMK AO2 P0001
14840KMKG MKG20011113153013511/13/01 15:30:31  5-MIN KMKG 132030Z 18011KT 10SM -RA FEW024 SCT044 OVC055 09/06 A3014 430 83 -100 180/11 RMK AO2 CIG 046 RWY 14 P0001
14840KMKG MKG20011113153512011/13/01 15:35:31  5-MIN KMKG 132035Z 18012KT 10SM -RA FEW026 BKN047 OVC055 09/06 A3014 430 83 -100 190/12 RMK AO2 P0001
14840KMKG MKG20011113154011911/13/01 15:40:31  5-MIN KMKG 132040Z 18013KT 8SM -RA FEW026 BKN044 OVC080 09/06 A3013 440 83 -100 180/13 RMK AO2 P0002
14840KMKG MKG20011113154511911/13/01 15:45:31  5-MIN KMKG 132045Z 19014KT 6SM -RA SCT035 BKN047 OVC075 09/06 A3013 430 83 -100 190/14 RMK AO2 P0002
14840KMKG MKG20011113155014811/13/01 15:50:31  5-MIN KMKG 132050Z 18012KT 7SM -RA FEW037 BKN055 OVC075 09/06 A3013 430 83 -100 190/12 RMK AO2 SLP209 P0002 60021 T00890061 58019
14840KMKG MKG20011113155514911/13/01 15:55:31  5-MIN KMKG 132055Z 18011KT 10SM -RA FEW037 SCT055 OVC075 09/06 A3013 440 83 -100 190/11 RMK AO2 SLP208 P0002 60021 T00890061 58018
14840KMKG MKG20011113160011611/13/01 16:00:31  5-MIN KMKG 132100Z 18012KT 8SM -RA FEW039 SCT050 OVC075 09/06 A3013 440 79 0 190/12 RMK AO2 P0001
14840KMKG MKG20011113160510911/13/01 16:05:31  5-MIN KMKG 132105Z 18012KT 7SM -RA FEW037 OVC070 09/06 A3012 440 76 0 190/12 RMK AO2 P0001
14840KMKG MKG20011113161010911/13/01 16:10:31  5-MIN KMKG 132110Z 19012KT 7SM -RA FEW036 OVC070 09/06 A3013 440 76 0 190/12 RMK AO2 P0001
14840KMKG MKG20011113161510911/13/01 16:15:31  5-MIN KMKG 132115Z 19014KT 9SM -RA SCT049 OVC070 09/06 A3013 440 76 0 190/14 RMK AO2 P0001
14840KMKG MKG20011113162011011/13/01 16:20:31  5-MIN KMKG 132120Z 18014KT 10SM -RA BKN049 OVC070 10/06 A3012 440 74 0 190/14 RMK AO2 P0001
14840KMKG MKG20011113162511711/13/01 16:25:31  5-MIN KMKG 132125Z 19015KT 10SM -RA SCT045 BKN049 OVC070 10/06 A3013 440 74 0 190/15 RMK AO2 P0001
14840KMKG MKG20011113163011711/13/01 16:30:31  5-MIN KMKG 132130Z 19015KT 10SM -RA BKN045 BKN055 OVC070 10/06 A3013 440 74 0 190/15 RMK AO2 P0001
14840KMKG MKG20011113163511011/13/01 16:35:31  5-MIN KMKG 132135Z 19014KT 10SM -RA BKN045 OVC055 10/06 A3013 440 74 0 190/14 RMK AO2 P0001
14840KMKG MKG20011113164010811/13/01 16:40:31  5-MIN KMKG 132140Z 20012KT 5SM RA BKN045 OVC055 09/06 A3014 430 76 0 200/12 RMK AO2 P0002
14840KMKG MKG20011113164510211/13/01 16:45:31  5-MIN KMKG 132145Z 19011KT 5SM -RA OVC045 09/06 A3014 430 79 0 190/11 RMK AO2 P0002
14840KMKG MKG20011113165011911/13/01 16:50:31  5-MIN KMKG 132150Z 19010KT 9SM -RA OVC043 09/06 A3014 430 79 0 190/10 RMK AO2 SLP211 P0003 T00940061
14840KMKG MKG20011113165512011/13/01 16:55:31  5-MIN KMKG 132155Z 19008KT 10SM -RA OVC043 09/06 A3014 430 79 0 190/08 RMK AO2 SLP211 P0003 T00940061
14840KMKG MKG20011113170010211/13/01 17:00:31  5-MIN KMKG 132200Z 19012KT 9SM -RA OVC043 09/06 A3014 430 79 0 200/12 RMK AO2 P0000
14840KMKG MKG20011113170510211/13/01 17:05:31  5-MIN KMKG 132205Z 19010KT 8SM -RA OVC040 09/07 A3014 430 83 0 190/10 RMK AO2 P0000
14840KMKG MKG20011113171010211/13/01 17:10:31  5-MIN KMKG 132210Z 20011KT 8SM -RA OVC040 09/06 A3014 430 79 0 200/11 RMK AO2 P0000
14840KMKG MKG20011113171510911/13/01 17:15:31  5-MIN KMKG 132215Z 19011KT 8SM -RA BKN035 OVC043 09/06 A3014 430 79 0 200/11 RMK AO2 P0000
14840KMKG MKG20011113172010911/13/01 17:20:31  5-MIN KMKG 132220Z 18011KT 9SM -RA BKN035 OVC043 09/06 A3014 430 79 0 190/11 RMK AO2 P0000
14840KMKG MKG20011113172510911/13/01 17:25:31  5-MIN KMKG 132225Z 19012G18KT 10SM -RA OVC035 09/06 A3013 430 79 0 190/12G18 RMK AO2 P0000
14840KMKG MKG20011113173010311/13/01 17:30:31  5-MIN KMKG 132230Z 19012KT 10SM -RA OVC035 09/06 A3014 430 79 0 200/12 RMK AO2 P0000
14840KMKG MKG20011113173510311/13/01 17:35:31  5-MIN KMKG 132235Z 18011KT 10SM -RA OVC035 09/06 A3013 430 79 0 190/11 RMK AO2 P0000
14840KMKG MKG20011113174010311/13/01 17:40:31  5-MIN KMKG 132240Z 19013KT 10SM -RA OVC035 09/06 A3014 430 79 0 200/13 RMK AO2 P0000
14840KMKG MKG20011113174510811/13/01 17:45:31  5-MIN KMKG 132245Z 19011G18KT 6SM -RA OVC035 09/06 A3014 430 79 0 190/11G18 RMK AO2 P0001
14840KMKG MKG20011113175011911/13/01 17:50:31  5-MIN KMKG 132250Z 19011KT 4SM -RA OVC035 09/07 A3014 430 83 0 190/11 RMK AO2 SLP211 P0003 T00940067
14840KMKG MKG20011113175512511/13/01 17:55:31  5-MIN KMKG 132255Z 20008KT 3SM +RA BR OVC035 09/07 A3014 430 86 -100 200/08 RMK AO2 SLP212 P0005 T00890067
14840KMKG MKG20011113180010811/13/01 18:00:31  5-MIN KMKG 132300Z 20007KT 3SM -RA BR OVC033 09/07 A3014 430 86 -100 200/07 RMK AO2 P0001
14840KMKG MKG20011113180510511/13/01 18:05:31  5-MIN KMKG 132305Z 18008KT 8SM -RA OVC033 09/07 A3014 430 86 -100 190/08 RMK AO2 P0001
14840KMKG MKG20011113181010511/13/01 18:10:31  5-MIN KMKG 132310Z 18010KT 9SM -RA OVC033 09/07 A3013 430 86 -100 190/10 RMK AO2 P0001
14840KMKG MKG20011113181510511/13/01 18:15:31  5-MIN KMKG 132315Z 20009KT 8SM -RA OVC033 09/07 A3014 430 86 -100 200/09 RMK AO2 P0001
14840KMKG MKG20011113182010511/13/01 18:20:31  5-MIN KMKG 132320Z 19005KT 8SM -RA OVC033 09/07 A3014 430 86 -100 200/05 RMK AO2 P0001
14840KMKG MKG20011113182511211/13/01 18:25:31  5-MIN KMKG 132325Z 18007KT 7SM -RA BKN033 OVC060 09/07 A3013 440 86 -100 190/07 RMK AO2 P0002
14840KMKG MKG20011113183011411/13/01 18:30:31  5-MIN KMKG 132330Z 17005KT 3SM RA BR BKN033 OVC060 08/07 A3013 440 93 -200 170/05 RMK AO2 P0005
14840KMKG MKG20011113183512111/13/01 18:35:31  5-MIN KMKG 132335Z 00000KT 3SM RA BR BKN033 BKN050 OVC060 08/07 A3013 440 93 -200 000/00 RMK AO2 P0005
14840KMKG MKG20011113184012211/13/01 18:40:31  5-MIN KMKG 132340Z 00000KT 5SM -RA BR BKN033 BKN050 OVC060 08/07 A3013 440 93 -200 000/00 RMK AO2 P0005
14840KMKG MKG20011113184511911/13/01 18:45:31  5-MIN KMKG 132345Z 03003KT 7SM -RA BKN033 BKN045 OVC060 08/07 A3012 440 93 -200 030/03 RMK AO2 P0006
14840KMKG MKG20011113185016311/13/01 18:50:31  5-MIN KMKG 132350Z 00000KT 6SM -RA BR BKN035 BKN046 OVC055 08/08 A3012 450 96 -200 000/00 RMK AO2 SLP205 P0006 60035 T00830078 10100 20083 58018
14840KMKG MKG20011113185518011/13/01 18:55:31  5-MIN KMKG 132355Z 07003KT 6SM -RA BR BKN037 BKN046 OVC055 08/08 A3012 440 96 -200 070/03 RMK AO2 VIS 2 1/2 RWY 14 SLP206 P0006 60035 T00830078 10100 20083 58002
14840KMKG MKG20011113190014011/13/01 19:00:31  5-MIN KMKG 140000Z 11005KT 6SM -RA BR BKN037 BKN044 OVC055 08/08 A3012 440 100 -200 110/05 RMK AO2 VIS 2 1/2 RWY 14 P0000
14840KMKG MKG20011113190512111/13/01 19:05:31  5-MIN KMKG 140005Z 12006KT 7SM BKN037 BKN044 OVC055 08/08 A3012 450 96 -200 120/06 RMK AO2 RAE05 P0000
14840KMKG MKG20011113191012511/13/01 19:10:31  5-MIN KMKG 140010Z 13005KT 6SM BR BKN039 BKN055 OVC080 08/08 A3012 450 100 -200 140/05 RMK AO2 RAE05 P0000
14840KMKG MKG20011113191512211/13/01 19:15:31  5-MIN KMKG 140015Z 13004KT 6SM -RA BR BKN039 BKN055 OVC080 08/08 A3012 450 96 -200 130/04 RMK AO2 P0000
14840KMKG MKG20011113192011211/13/01 19:20:31  5-MIN KMKG 140020Z 00000KT 7SM -RA BKN039 OVC080 08/08 A3012 440 96 -200 000/00 RMK AO2 P0000
14840KMKG MKG20011113192510711/13/01 19:25:31  5-MIN KMKG 140025Z 00000KT 7SM OVC039 08/08 A3012 440 96 -200 000/00 RMK AO2 RAE21 P0001
14840KMKG MKG20011113193011611/13/01 19:30:31  5-MIN KMKG 140030Z 13003KT 5SM -RA BR BKN041 OVC047 08/08 A3012 450 100 -200 140/03 RMK AO2 P0001
14840KMKG MKG20011113193511611/13/01 19:35:31  5-MIN KMKG 140035Z 16005KT 5SM -RA BR BKN039 OVC046 08/08 A3012 450 100 -200 160/05 RMK AO2 P0001
14840KMKG MKG20011113194010811/13/01 19:40:31  5-MIN KMKG 140040Z 16006KT 6SM -RA BR OVC039 08/07 A3012 440 93 -200 170/06 RMK AO2 P0001
14840KMKG MKG20011113194511211/13/01 19:45:31  5-MIN KMKG 140045Z 18007KT 7SM -RA BKN037 OVC044 08/07 A3013 440 93 -200 180/07 RMK AO2 P0002
14840KMKG MKG20011113195013211/13/01 19:50:31  5-MIN KMKG 140050Z 18007KT 6SM -RA BR BKN035 OVC044 09/07 A3012 440 86 -100 180/07 RMK AO2 SLP204 P0002 T00890067
14840KMKG MKG20011113195513211/13/01 19:55:31  5-MIN KMKG 140055Z 18006KT 6SM -RA BR BKN035 OVC043 09/07 A3013 440 86 -100 190/06 RMK AO2 SLP205 P0002 T00890067
14840KMKG MKG20011113200011411/13/01 20:00:31  5-MIN KMKG 140100Z 18007KT 5SM RA BR BKN035 OVC045 08/07 A3012 440 93 -200 180/07 RMK AO2 P0001
14840KMKG MKG20011113200513011/13/01 20:05:31  5-MIN KMKG 140105Z 17007KT 6SM -RA BR SCT035 OVC045 08/07 A3012 450 89 -200 170/07 RMK AO2 CIG 035 RWY 14 P0001
14840KMKG MKG20011113201011911/13/01 20:10:31  5-MIN KMKG 140110Z 18009KT 8SM -RA SCT035 BKN045 OVC065 09/07 A3012 440 86 -100 190/09 RMK AO2 P0001
14840KMKG MKG20011113201511611/13/01 20:15:31  5-MIN KMKG 140115Z 18009KT 8SM -RA FEW035 BKN045 OVC070 09/07 A3012 450 83 0 180/09 RMK AO2 P0002
14840KMKG MKG20011113202012111/13/01 20:20:31  5-MIN KMKG 140120Z 16006KT 6SM RA BR FEW038 BKN047 OVC065 09/07 A3011 450 86 -100 160/06 RMK AO2 P0002
14840KMKG MKG20011113202511211/13/01 20:25:31  5-MIN KMKG 140125Z 13004KT 7SM -RA BKN047 OVC065 09/07 A3011 450 86 -100 130/04 RMK AO2 P0003
14840KMKG MKG20011113203011211/13/01 20:30:31  5-MIN KMKG 140130Z 10005KT 9SM -RA BKN047 OVC065 09/07 A3011 460 89 -100 110/05 RMK AO2 P0003
14840KMKG MKG20011113203511311/13/01 20:35:31  5-MIN KMKG 140135Z 10005KT 10SM -RA BKN047 OVC065 08/07 A3011 460 93 -100 100/05 RMK AO2 P0003
14840KMKG MKG20011113204010711/13/01 20:40:31  5-MIN KMKG 140140Z 11005KT 9SM OVC047 08/07 A3011 460 93 -100 110/05 RMK AO2 RAE37 P0003
14840KMKG MKG20011113204510711/13/01 20:45:31  5-MIN KMKG 140145Z 09003KT 8SM OVC047 08/07 A3011 450 93 -100 090/03 RMK AO2 RAE37 P0003
14840KMKG MKG20011113205012411/13/01 20:50:31  5-MIN KMKG 140150Z 06003KT 7SM OVC047 08/07 A3012 450 93 -200 060/03 RMK AO2 RAE37 SLP201 P0003 T00830072
14840KMKG MKG20011113205513711/13/01 20:55:31  5-MIN KMKG 140155Z 04004KT 7SM OVC047 08/07 A3012 450 93 -200 040/04 RMK AO2 VIS 2 RWY 14 RAE37 SLP202 P0003 T00830072
14840KMKG MKG20011113210010811/13/01 21:00:31  5-MIN KMKG 140200Z 05005KT 7SM OVC047 08/07 A3012 450 93 -200 060/05 RMK AO2 VIS 2 RWY 14
14840KMKG MKG20011113210510811/13/01 21:05:31  5-MIN KMKG 140205Z 07005KT 7SM OVC047 08/07 A3011 450 93 -200 070/05 RMK AO2 VIS 2 RWY 14
14840KMKG MKG20011113211009811/13/01 21:10:31  5-MIN KMKG 140210Z 09005KT 6SM BR OVC047 08/07 A3011 450 93 -100 100/05 RMK AO2
14840KMKG MKG20011113211509511/13/01 21:15:31  5-MIN KMKG 140215Z 11004KT 7SM OVC047 08/07 A3011 450 93 -200 120/04 RMK AO2
14840KMKG MKG20011113212009511/13/01 21:20:31  5-MIN KMKG 140220Z 12003KT 7SM OVC045 08/07 A3011 450 93 -200 120/03 RMK AO2
14840KMKG MKG20011113212509511/13/01 21:25:31  5-MIN KMKG 140225Z 14005KT 7SM OVC047 08/07 A3012 450 93 -200 150/05 RMK AO2
14840KMKG MKG20011113213009511/13/01 21:30:31  5-MIN KMKG 140230Z 15006KT 8SM OVC047 08/07 A3012 450 93 -200 150/06 RMK AO2
14840KMKG MKG20011113213509511/13/01 21:35:31  5-MIN KMKG 140235Z 16008KT 9SM OVC047 09/07 A3012 450 86 -100 170/08 RMK AO2
14840KMKG MKG20011113214009311/13/01 21:40:31  5-MIN KMKG 140240Z 17008KT 10SM OVC047 09/07 A3012 450 83 0 180/08 RMK AO2
14840KMKG MKG20011113214509311/13/01 21:45:31  5-MIN KMKG 140245Z 18007KT 10SM OVC049 10/07 A3012 450 80 0 180/07 RMK AO2
14840KMKG MKG20011113215012211/13/01 21:50:31  5-MIN KMKG 140250Z 17008KT 10SM OVC049 10/06 A3011 450 77 0 180/08 RMK AO2 SLP200 60005 T01000061 58002
14840KMKG MKG20011113215512411/13/01 21:55:31  5-MIN KMKG 140255Z 17009KT 10SM OVC049 11/06 A3011 460 74 100 180/09 RMK AO2 SLP199 60005 T01060061 58004
14840KMKG MKG20011113220009511/13/01 22:00:31  5-MIN KMKG 140300Z 17009KT 10SM OVC049 11/06 A3011 450 74 100 180/09 RMK AO2
14840KMKG MKG20011113220509511/13/01 22:05:31  5-MIN KMKG 140305Z 18009KT 10SM OVC049 11/06 A3011 450 71 100 180/09 RMK AO2
14840KMKG MKG20011113221009511/13/01 22:10:31  5-MIN KMKG 140310Z 18009KT 10SM OVC049 11/06 A3011 450 71 100 180/09 RMK AO2
14840KMKG MKG20011113221509511/13/01 22:15:31  5-MIN KMKG 140315Z 18009KT 10SM OVC047 11/07 A3011 450 74 100 180/09 RMK AO2
14840KMKG MKG20011113222009511/13/01 22:20:31  5-MIN KMKG 140320Z 19010KT 10SM OVC047 11/07 A3011 450 74 100 190/10 RMK AO2
14840KMKG MKG20011113222509511/13/01 22:25:31  5-MIN KMKG 140325Z 19011KT 10SM OVC047 11/07 A3011 450 77 100 190/11 RMK AO2
14840KMKG MKG20011113223009511/13/01 22:30:31  5-MIN KMKG 140330Z 19013KT 10SM OVC047 12/07 A3011 450 74 200 190/13 RMK AO2
14840KMKG MKG20011113223509511/13/01 22:35:31  5-MIN KMKG 140335Z 20012KT 10SM OVC047 12/07 A3011 450 74 200 200/12 RMK AO2
14840KMKG MKG20011113224009511/13/01 22:40:31  5-MIN KMKG 140340Z 19010KT 10SM OVC047 12/07 A3011 460 74 200 200/10 RMK AO2
14840KMKG MKG20011113224510111/13/01 22:45:31  5-MIN KMKG 140345Z 19012G17KT 10SM OVC047 12/07 A3011 460 74 200 200/12G17 RMK AO2
14840KMKG MKG20011113225011211/13/01 22:50:31  5-MIN KMKG 140350Z 19012KT 10SM OVC047 12/07 A3011 460 74 200 190/12 RMK AO2 SLP197 T01170072
14840KMKG MKG20011113225511211/13/01 22:55:31  5-MIN KMKG 140355Z 19013KT 10SM OVC047 12/07 A3011 460 74 200 190/13 RMK AO2 SLP197 T01170072
14840KMKG MKG20011113230009511/13/01 23:00:31  5-MIN KMKG 140400Z 19013KT 10SM OVC047 12/07 A3011 450 74 200 190/13 RMK AO2
14840KMKG MKG20011113230509511/13/01 23:05:31  5-MIN KMKG 140405Z 18013KT 10SM OVC047 12/07 A3011 460 71 200 190/13 RMK AO2
14840KMKG MKG20011113231010011/13/01 23:10:31  5-MIN KMKG 140410Z 19012G19KT 9SM OVC047 12/07 A3011 460 74 200 190/12G19 RMK AO2
14840KMKG MKG20011113231509411/13/01 23:15:31  5-MIN KMKG 140415Z 19012KT 9SM OVC047 12/07 A3011 460 71 200 190/12 RMK AO2
14840KMKG MKG20011113232010011/13/01 23:20:31  5-MIN KMKG 140420Z 19013G17KT 9SM OVC047 12/07 A3011 450 74 200 190/13G17 RMK AO2
14840KMKG MKG20011113232509411/13/01 23:25:31  5-MIN KMKG 140425Z 19012KT 9SM OVC045 12/07 A3011 460 74 200 200/12 RMK AO2
14840KMKG MKG20011113233010011/13/01 23:30:31  5-MIN KMKG 140430Z 19015G20KT 9SM OVC045 12/07 A3011 460 74 200 200/15G20 RMK AO2
14840KMKG MKG20011113233510011/13/01 23:35:31  5-MIN KMKG 140435Z 19015G20KT 9SM OVC045 12/07 A3011 460 74 200 200/15G20 RMK AO2
14840KMKG MKG20011113234009411/13/01 23:40:31  5-MIN KMKG 140440Z 20013KT 9SM OVC045 12/07 A3011 450 74 200 200/13 RMK AO2
14840KMKG MKG20011113234509411/13/01 23:45:31  5-MIN KMKG 140445Z 20015KT 9SM OVC045 12/07 A3011 450 74 200 200/15 RMK AO2
14840KMKG MKG20011113235012111/13/01 23:50:31  5-MIN KMKG 140450Z 20015KT 9SM OVC047 12/07 A3011 450 74 200 200/15 RMK AO2 SLP198 T01170072 401170000
14840KMKG MKG20011113235512111/13/01 23:55:31  5-MIN KMKG 140455Z 20015KT 9SM OVC047 12/07 A3011 450 74 200 200/15 RMK AO2 SLP198 T01170072 401170000
14840KMKG MKG20011114000009411/14/01 00:00:31  5-MIN KMKG 140500Z 20013KT 8SM OVC047 12/07 A3011 450 74 200 200/13 RMK AO2
14840KMKG MKG20011114000509411/14/01 00:05:31  5-MIN KMKG 140505Z 21013KT 8SM OVC047 12/07 A3012 450 74 200 210/13 RMK AO2
14840KMKG MKG20011114001011011/14/01 00:10:31  5-MIN KMKG 140510Z 20011KT 8SM -RA OVC047 12/08 A3011 450 77 200 200/11 RMK AO2 RAB07 P0000
14840KMKG MKG20011114001511611/14/01 00:15:31  5-MIN KMKG 140515Z 20013G18KT 8SM -RA OVC049 12/07 A3011 450 74 200 200/13G18 RMK AO2 RAB07 P0000
14840KMKG MKG20011114002011511/14/01 00:20:31  5-MIN KMKG 140520Z 20011G18KT 9SM OVC049 12/08 A3011 450 77 200 200/11G18 RMK AO2 RAB07E18 P0000
14840KMKG MKG20011114002510911/14/01 00:25:31  5-MIN KMKG 140525Z 20011KT 8SM OVC049 12/08 A3012 450 77 200 200/11 RMK AO2 RAB07E18 P0000
14840KMKG MKG20011114003010911/14/01 00:30:31  5-MIN KMKG 140530Z 19013KT 8SM OVC049 12/07 A3012 450 74 200 200/13 RMK AO2 RAB07E18 P0000
14840KMKG MKG20011114003511511/14/01 00:35:31  5-MIN KMKG 140535Z 20010G18KT 8SM OVC047 12/08 A3011 450 77 200 200/10G18 RMK AO2 RAB07E18 P0000
14840KMKG MKG20011114004010911/14/01 00:40:31  5-MIN KMKG 140540Z 20012KT 8SM OVC047 12/08 A3011 450 77 200 200/12 RMK AO2 RAB07E18 P0000
14840KMKG MKG20011114004511511/14/01 00:45:31  5-MIN KMKG 140545Z 20013G19KT 8SM OVC047 12/08 A3012 450 77 200 200/13G19 RMK AO2 RAB07E18 P0000
14840KMKG MKG20011114005015611/14/01 00:50:31  5-MIN KMKG 140550Z 20011G19KT 8SM OVC047 12/08 A3011 450 77 200 200/11G19 RMK AO2 RAB07E18 SLP200 P0000 60005 T01170078 10117 20078 58004
14840KMKG MKG20011114005515011/14/01 00:55:31  5-MIN KMKG 140555Z 19010KT 8SM OVC045 12/08 A3011 450 77 200 200/10 RMK AO2 RAB07E18 SLP200 P0000 60005 T01170078 10117 20078 53001
14840KMKG MKG20011114010009411/14/01 01:00:31  5-MIN KMKG 140600Z 20011KT 8SM OVC045 12/08 A3011 450 77 200 200/11 RMK AO2
14840KMKG MKG20011114010509411/14/01 01:05:31  5-MIN KMKG 140605Z 19012KT 8SM OVC045 12/08 A3012 450 77 200 200/12 RMK AO2
14840KMKG MKG20011114011009411/14/01 01:10:31  5-MIN KMKG 140610Z 20012KT 8SM OVC045 12/08 A3012 450 77 200 200/12 RMK AO2
14840KMKG MKG20011114011509411/14/01 01:15:31  5-MIN KMKG 140615Z 19012KT 8SM OVC045 12/08 A3011 450 77 200 200/12 RMK AO2
14840KMKG MKG20011114012009411/14/01 01:20:31  5-MIN KMKG 140620Z 19012KT 8SM OVC045 12/08 A3011 450 77 200 200/12 RMK AO2
14840KMKG MKG20011114012509411/14/01 01:25:31  5-MIN KMKG 140625Z 20013KT 8SM OVC045 12/08 A3011 450 77 200 200/13 RMK AO2
14840KMKG MKG20011114013009411/14/01 01:30:31  5-MIN KMKG 140630Z 19010KT 7SM OVC045 12/08 A3011 450 77 200 200/10 RMK AO2
14840KMKG MKG20011114013509411/14/01 01:35:31  5-MIN KMKG 140635Z 20010KT 7SM OVC045 12/08 A3011 460 77 200 210/10 RMK AO2
14840KMKG MKG20011114014009411/14/01 01:40:31  5-MIN KMKG 140640Z 20011KT 7SM OVC045 12/08 A3011 460 77 200 200/11 RMK AO2
14840KMKG MKG20011114014509411/14/01 01:45:31  5-MIN KMKG 140645Z 19009KT 7SM OVC045 12/08 A3011 460 77 200 200/09 RMK AO2
14840KMKG MKG20011114015011111/14/01 01:50:31  5-MIN KMKG 140650Z 19010KT 7SM OVC045 12/08 A3011 460 77 200 200/10 RMK AO2 SLP199 T01170078
14840KMKG MKG20011114015511111/14/01 01:55:31  5-MIN KMKG 140655Z 19011KT 7SM OVC045 12/08 A3011 460 77 200 200/11 RMK AO2 SLP199 T01170078
14840KMKG MKG20011114020009411/14/01 02:00:31  5-MIN KMKG 140700Z 19010KT 7SM OVC045 12/08 A3011 460 77 200 190/10 RMK AO2
14840KMKG MKG20011114020511011/14/01 02:05:31  5-MIN KMKG 140705Z 19011KT 6SM -RA OVC045 11/08 A3011 460 83 100 200/11 RMK AO2 RAB04 P0000
14840KMKG MKG20011114021011011/14/01 02:10:31  5-MIN KMKG 140710Z 20009KT 7SM -RA OVC045 11/08 A3011 460 83 100 210/09 RMK AO2 RAB04 P0000
14840KMKG MKG20011114021510911/14/01 02:15:31  5-MIN KMKG 140715Z 20012KT 7SM OVC045 11/08 A3011 460 83 100 200/12 RMK AO2 RAB04E13 P0000
14840KMKG MKG20011114022010911/14/01 02:20:31  5-MIN KMKG 140720Z 20009KT 7SM OVC045 12/08 A3011 460 77 200 200/09 RMK AO2 RAB04E13 P0000
14840KMKG MKG20011114022510911/14/01 02:25:31  5-MIN KMKG 140725Z 19011KT 7SM OVC045 12/08 A3011 460 77 200 200/11 RMK AO2 RAB04E13 P0000
14840KMKG MKG20011114023010911/14/01 02:30:31  5-MIN KMKG 140730Z 19012KT 7SM OVC045 12/08 A3010 460 77 200 190/12 RMK AO2 RAB04E13 P0000
14840KMKG MKG20011114023510911/14/01 02:35:31  5-MIN KMKG 140735Z 18010KT 7SM OVC045 12/08 A3010 460 77 200 180/10 RMK AO2 RAB04E13 P0000
14840KMKG MKG20011114024010911/14/01 02:40:31  5-MIN KMKG 140740Z 19013KT 7SM OVC047 12/08 A3011 460 80 200 200/13 RMK AO2 RAB04E13 P0000
14840KMKG MKG20011114024510911/14/01 02:45:31  5-MIN KMKG 140745Z 19012KT 7SM OVC047 12/08 A3011 460 80 200 200/12 RMK AO2 RAB04E13 P0000
14840KMKG MKG20011114025012611/14/01 02:50:31  5-MIN KMKG 140750Z 19011KT 7SM OVC047 12/08 A3011 460 80 200 200/11 RMK AO2 RAB04E13 SLP197 P0000 T01170083
14840KMKG MKG20011114025512611/14/01 02:55:31  5-MIN KMKG 140755Z 20012KT 7SM OVC047 12/08 A3011 460 77 200 200/12 RMK AO2 RAB04E13 SLP198 P0000 T01170078
14840KMKG MKG20011114030009411/14/01 03:00:31  5-MIN KMKG 140800Z 20012KT 7SM OVC047 12/08 A3011 460 77 200 200/12 RMK AO2
14840KMKG MKG20011114030509411/14/01 03:05:31  5-MIN KMKG 140805Z 19012KT 7SM OVC047 12/08 A3011 460 77 200 200/12 RMK AO2
14840KMKG MKG20011114031009411/14/01 03:10:31  5-MIN KMKG 140810Z 19011KT 7SM OVC047 12/08 A3011 460 80 200 200/11 RMK AO2
14840KMKG MKG20011114031509411/14/01 03:15:31  5-MIN KMKG 140815Z 19013KT 7SM OVC047 12/08 A3010 460 80 200 190/13 RMK AO2
14840KMKG MKG20011114032009411/14/01 03:20:31  5-MIN KMKG 140820Z 19011KT 7SM OVC045 12/08 A3010 460 80 200 190/11 RMK AO2
14840KMKG MKG20011114032510011/14/01 03:25:31  5-MIN KMKG 140825Z 20011G17KT 7SM OVC045 12/08 A3011 460 80 200 200/11G17 RMK AO2
14840KMKG MKG20011114033010311/14/01 03:30:31  5-MIN KMKG 140830Z 20012G17KT 6SM HZ OVC045 12/08 A3010 460 80 200 200/12G17 RMK AO2
14840KMKG MKG20011114033509711/14/01 03:35:31  5-MIN KMKG 140835Z 19012KT 6SM HZ OVC045 12/08 A3010 460 80 200 200/12 RMK AO2
14840KMKG MKG20011114034009711/14/01 03:40:31  5-MIN KMKG 140840Z 20011KT 6SM HZ OVC045 12/08 A3010 460 80 200 200/11 RMK AO2
14840KMKG MKG20011114034509711/14/01 03:45:31  5-MIN KMKG 140845Z 20012KT 6SM HZ OVC045 12/08 A3010 460 80 200 200/12 RMK AO2
14840KMKG MKG20011114035012611/14/01 03:50:31  5-MIN KMKG 140850Z 20012KT 6SM HZ OVC045 12/08 A3010 460 80 200 200/12 RMK AO2 SLP196 60000 T01170083 53001
14840KMKG MKG20011114035512611/14/01 03:55:31  5-MIN KMKG 140855Z 20012KT 6SM HZ OVC045 11/08 A3010 460 83 100 210/12 RMK AO2 SLP197 60000 T01110083 58003
14840KMKG MKG20011114040009711/14/01 04:00:31  5-MIN KMKG 140900Z 19013KT 6SM HZ OVC045 12/08 A3010 460 80 200 200/13 RMK AO2
14840KMKG MKG20011114040509711/14/01 04:05:31  5-MIN KMKG 140905Z 20012KT 6SM HZ OVC045 12/08 A3010 460 80 200 200/12 RMK AO2
14840KMKG MKG20011114041009711/14/01 04:10:31  5-MIN KMKG 140910Z 20012KT 6SM HZ OVC045 12/08 A3011 460 80 200 210/12 RMK AO2
14840KMKG MKG20011114041509711/14/01 04:15:31  5-MIN KMKG 140915Z 20013KT 6SM HZ OVC045 12/08 A3010 460 80 200 200/13 RMK AO2
14840KMKG MKG20011114042009711/14/01 04:20:31  5-MIN KMKG 140920Z 20012KT 6SM HZ OVC045 11/08 A3010 460 83 100 200/12 RMK AO2
14840KMKG MKG20011114042509711/14/01 04:25:31  5-MIN KMKG 140925Z 20013KT 6SM HZ OVC045 11/08 A3010 460 83 100 210/13 RMK AO2
14840KMKG MKG20011114043009711/14/01 04:30:31  5-MIN KMKG 140930Z 20014KT 6SM HZ OVC043 11/08 A3010 460 83 100 200/14 RMK AO2
14840KMKG MKG20011114043509711/14/01 04:35:31  5-MIN KMKG 140935Z 20011KT 6SM HZ OVC043 11/08 A3010 470 83 200 210/11 RMK AO2
14840KMKG MKG20011114044009711/14/01 04:40:31  5-MIN KMKG 140940Z 20014KT 6SM HZ OVC043 11/08 A3010 460 83 100 200/14 RMK AO2
14840KMKG MKG20011114044509711/14/01 04:45:31  5-MIN KMKG 140945Z 20015KT 6SM HZ OVC043 11/08 A3010 460 83 100 200/15 RMK AO2
14840KMKG MKG20011114045011411/14/01 04:50:31  5-MIN KMKG 140950Z 20013KT 6SM HZ OVC043 11/08 A3010 460 83 100 200/13 RMK AO2 SLP196 T01110083
14840KMKG MKG20011114045511411/14/01 04:55:31  5-MIN KMKG 140955Z 20013KT 6SM HZ OVC043 11/08 A3010 460 83 100 210/13 RMK AO2 SLP196 T01110083
14840KMKG MKG20011114050009711/14/01 05:00:31  5-MIN KMKG 141000Z 20013KT 6SM HZ OVC043 11/08 A3010 460 83 100 200/13 RMK AO2
14840KMKG MKG20011114050510411/14/01 05:05:31  5-MIN KMKG 141005Z 21013KT 6SM HZ BKN043 OVC055 11/08 A3010 460 83 100 210/13 RMK AO2
14840KMKG MKG20011114051010411/14/01 05:10:31  5-MIN KMKG 141010Z 20014KT 6SM HZ BKN043 OVC055 11/08 A3010 460 83 100 210/14 RMK AO2
14840KMKG MKG20011114051511111/14/01 05:15:31  5-MIN KMKG 141015Z 20011KT 6SM HZ BKN043 BKN055 OVC090 11/08 A3010 460 83 100 210/11 RMK AO2
14840KMKG MKG20011114052012611/14/01 05:20:31  5-MIN KMKG 141020Z 20011KT 6SM HZ SCT043 BKN055 OVC085 11/08 A3011 460 83 100 200/11 RMK AO2 CIG 045 RWY 14
14840KMKG MKG20011114052511111/14/01 05:25:31  5-MIN KMKG 141025Z 20012KT 6SM HZ BKN043 BKN055 OVC085 11/08 A3011 460 83 100 200/12 RMK AO2
14840KMKG MKG20011114053011111/14/01 05:30:31  5-MIN KMKG 141030Z 20012KT 6SM HZ BKN045 BKN055 OVC085 11/08 A3011 460 83 100 200/12 RMK AO2
14840KMKG MKG20011114053511111/14/01 05:35:31  5-MIN KMKG 141035Z 20011KT 6SM HZ BKN046 BKN055 OVC085 11/08 A3011 460 83 100 200/11 RMK AO2
14840KMKG MKG20011114054011111/14/01 05:40:31  5-MIN KMKG 141040Z 20010KT 6SM HZ BKN046 BKN055 OVC085 11/08 A3011 460 83 100 200/10 RMK AO2
14840KMKG MKG20011114054510411/14/01 05:45:31  5-MIN KMKG 141045Z 20009KT 5SM HZ BKN046 OVC085 11/08 A3011 460 83 100 210/09 RMK AO2
14840KMKG MKG20011114055012111/14/01 05:50:31  5-MIN KMKG 141050Z 19010KT 5SM HZ BKN044 OVC080 11/08 A3011 460 83 100 200/10 RMK AO2 SLP198 T01110083
14840KMKG MKG20011114055512111/14/01 05:55:31  5-MIN KMKG 141055Z 20010KT 5SM HZ BKN044 OVC050 11/08 A3011 460 83 100 210/10 RMK AO2 SLP198 T01110083
14840KMKG MKG20011114060010411/14/01 06:00:31  5-MIN KMKG 141100Z 20011KT 5SM HZ BKN042 OVC050 11/08 A3011 460 83 100 200/11 RMK AO2
14840KMKG MKG20011114060511111/14/01 06:05:31  5-MIN KMKG 141105Z 20011KT 5SM HZ BKN042 BKN065 OVC080 11/08 A3011 460 83 100 200/11 RMK AO2
14840KMKG MKG20011114061010411/14/01 06:10:31  5-MIN KMKG 141110Z 20011KT 5SM HZ BKN042 OVC065 11/08 A3011 460 83 100 200/11 RMK AO2
14840KMKG MKG20011114061510411/14/01 06:15:31  5-MIN KMKG 141115Z 20012KT 5SM HZ BKN044 OVC080 11/08 A3011 460 83 100 200/12 RMK AO2
14840KMKG MKG20011114062011111/14/01 06:20:31  5-MIN KMKG 141120Z 20012KT 5SM HZ BKN044 BKN050 OVC080 11/08 A3011 450 83 100 200/12 RMK AO2
14840KMKG MKG20011114062511111/14/01 06:25:31  5-MIN KMKG 141125Z 20012KT 5SM HZ BKN044 BKN050 OVC065 11/08 A3011 460 83 100 200/12 RMK AO2
14840KMKG MKG20011114063012611/14/01 06:30:31  5-MIN KMKG 141130Z 20010KT 5SM HZ SCT042 BKN049 OVC080 11/08 A3011 460 83 100 200/10 RMK AO2 CIG 042 RWY 14
14840KMKG MKG20011114063510411/14/01 06:35:31  5-MIN KMKG 141135Z 19011KT 5SM HZ BKN043 OVC050 11/08 A3011 450 83 100 190/11 RMK AO2
14840KMKG MKG20011114064011111/14/01 06:40:31  5-MIN KMKG 141140Z 19011KT 5SM HZ BKN041 BKN050 OVC075 11/08 A3011 450 83 100 200/11 RMK AO2
14840KMKG MKG20011114064511111/14/01 06:45:31  5-MIN KMKG 141145Z 19010KT 5SM HZ BKN043 BKN050 OVC070 11/08 A3011 450 83 100 190/10 RMK AO2
14840KMKG MKG20011114065015111/14/01 06:50:31  5-MIN KMKG 141150Z 19009KT 5SM HZ BKN043 OVC075 11/08 A3011 450 83 100 190/09 RMK AO2 SLP200 60000 70042 T01110083 10117 20111 58003
14840KMKG MKG20011114065515111/14/01 06:55:31  5-MIN KMKG 141155Z 20010KT 5SM BR BKN041 OVC075 11/09 A3011 450 86 100 200/10 RMK AO2 SLP200 60000 70042 T01110089 10117 20111 53003
14840KMKG MKG20011114070009711/14/01 07:00:31  5-MIN KMKG 141200Z 19010KT 5SM BR OVC041 11/09 A3011 450 86 100 200/10 RMK AO2
14840KMKG MKG20011114070509711/14/01 07:05:31  5-MIN KMKG 141205Z 20008KT 5SM BR OVC041 11/09 A3011 450 86 100 200/08 RMK AO2
14840KMKG MKG20011114071009711/14/01 07:10:31  5-MIN KMKG 141210Z 20008KT 5SM HZ OVC041 11/08 A3012 450 83 100 200/08 RMK AO2
14840KMKG MKG20011114071509711/14/01 07:15:31  5-MIN KMKG 141215Z 20009KT 5SM HZ OVC041 11/08 A3012 450 83 100 200/09 RMK AO2
14840KMKG MKG20011114072009711/14/01 07:20:31  5-MIN KMKG 141220Z 20008KT 5SM HZ OVC039 11/08 A3012 450 83 100 200/08 RMK AO2
14840KMKG MKG20011114072510411/14/01 07:25:31  5-MIN KMKG 141225Z 19009KT 5SM BR BKN036 OVC043 11/09 A3012 450 86 100 200/09 RMK AO2
14840KMKG MKG20011114073009711/14/01 07:30:31  5-MIN KMKG 141230Z 19008KT 5SM BR OVC036 11/09 A3012 450 86 100 200/08 RMK AO2
14840KMKG MKG20011114073509711/14/01 07:35:31  5-MIN KMKG 141235Z 19009KT 5SM BR OVC036 11/09 A3012 450 86 100 190/09 RMK AO2
14840KMKG MKG20011114074009711/14/01 07:40:31  5-MIN KMKG 141240Z 18007KT 5SM BR OVC036 11/09 A3012 440 86 100 190/07 RMK AO2
14840KMKG MKG20011114074511311/14/01 07:45:31  5-MIN KMKG 141245Z 18008KT 4SM -RA BR OVC036 11/09 A3012 440 86 100 190/08 RMK AO2 RAB43 P0000
14840KMKG MKG20011114075013011/14/01 07:50:31  5-MIN KMKG 141250Z 19007KT 4SM -RA BR OVC036 11/09 A3012 440 89 100 190/07 RMK AO2 RAB43 SLP204 P0000 T01060089
14840KMKG MKG20011114075512911/14/01 07:55:31  5-MIN KMKG 141255Z 18007KT 3SM BR OVC036 11/09 A3012 440 93 100 190/07 RMK AO2 RAB43E54 SLP204 P0000 T01060094
14840KMKG MKG20011114080009711/14/01 08:00:31  5-MIN KMKG 141300Z 19007KT 3SM BR OVC036 11/09 A3013 440 93 100 190/07 RMK AO2
14840KMKG MKG20011114080509711/14/01 08:05:31  5-MIN KMKG 141305Z 19007KT 3SM BR OVC038 11/09 A3013 440 89 100 200/07 RMK AO2
14840KMKG MKG20011114081010411/14/01 08:10:31  5-MIN KMKG 141310Z 19008KT 3SM BR BKN038 OVC048 11/09 A3013 440 86 100 190/08 RMK AO2
14840KMKG MKG20011114081509711/14/01 08:15:31  5-MIN KMKG 141315Z 19008KT 3SM BR OVC038 11/09 A3013 440 86 100 190/08 RMK AO2
14840KMKG MKG20011114082009711/14/01 08:20:31  5-MIN KMKG 141320Z 19008KT 3SM BR OVC038 11/09 A3013 440 86 100 190/08 RMK AO2
14840KMKG MKG20011114082509711/14/01 08:25:31  5-MIN KMKG 141325Z 19008KT 3SM BR OVC038 11/09 A3013 440 86 100 200/08 RMK AO2
14840KMKG MKG20011114083009711/14/01 08:30:31  5-MIN KMKG 141330Z 18008KT 3SM BR OVC038 11/09 A3013 440 86 100 190/08 RMK AO2
14840KMKG MKG20011114083509711/14/01 08:35:31  5-MIN KMKG 141335Z 19006KT 3SM BR OVC038 11/09 A3013 440 86 100 190/06 RMK AO2
14840KMKG MKG20011114084009711/14/01 08:40:31  5-MIN KMKG 141340Z 19007KT 3SM BR OVC038 11/09 A3013 430 86 100 200/07 RMK AO2
14840KMKG MKG20011114084509711/14/01 08:45:31  5-MIN KMKG 141345Z 19009KT 3SM BR OVC036 11/09 A3013 430 89 100 190/09 RMK AO2
14840KMKG MKG20011114085011411/14/01 08:50:31  5-MIN KMKG 141350Z 19009KT 3SM BR OVC035 11/09 A3013 430 89 100 200/09 RMK AO2 SLP207 T01110094
14840KMKG MKG20011114085511411/14/01 08:55:31  5-MIN KMKG 141355Z 19009KT 3SM BR OVC033 11/09 A3013 430 89 100 200/09 RMK AO2 SLP207 T01110094
14840KMKG MKG20011114090009711/14/01 09:00:31  5-MIN KMKG 141400Z 19009KT 3SM BR OVC033 11/09 A3013 430 89 100 200/09 RMK AO2
14840KMKG MKG20011114090509711/14/01 09:05:31  5-MIN KMKG 141405Z 19009KT 3SM BR OVC035 11/09 A3013 430 89 100 200/09 RMK AO2
14840KMKG MKG20011114091009711/14/01 09:10:31  5-MIN KMKG 141410Z 20009KT 3SM BR OVC035 11/09 A3013 430 89 100 200/09 RMK AO2
14840KMKG MKG20011114091509711/14/01 09:15:31  5-MIN KMKG 141415Z 20009KT 3SM BR OVC037 11/09 A3013 430 89 100 200/09 RMK AO2
14840KMKG MKG20011114092009711/14/01 09:20:31  5-MIN KMKG 141420Z 19010KT 3SM BR OVC037 11/09 A3013 430 89 100 200/10 RMK AO2
14840KMKG MKG20011114092509711/14/01 09:25:31  5-MIN KMKG 141425Z 19009KT 3SM BR OVC039 11/09 A3013 430 89 100 200/09 RMK AO2
14840KMKG MKG20011114093009711/14/01 09:30:31  5-MIN KMKG 141430Z 19008KT 3SM BR OVC039 12/09 A3013 430 86 200 190/08 RMK AO2
14840KMKG MKG20011114093509711/14/01 09:35:31  5-MIN KMKG 141435Z 19007KT 3SM BR OVC039 12/09 A3013 430 86 200 190/07 RMK AO2
14840KMKG MKG20011114094009711/14/01 09:40:31  5-MIN KMKG 141440Z 18009KT 3SM BR OVC039 12/09 A3013 430 86 200 190/09 RMK AO2
14840KMKG MKG20011114094509711/14/01 09:45:31  5-MIN KMKG 141445Z 18007KT 3SM BR OVC039 12/09 A3013 430 86 200 190/07 RMK AO2
14840KMKG MKG20011114095012611/14/01 09:50:31  5-MIN KMKG 141450Z 18008KT 3SM BR OVC039 11/09 A3013 440 89 100 190/08 RMK AO2 SLP206 60000 T01110094 53003
14840KMKG MKG20011114095512611/14/01 09:55:31  5-MIN KMKG 141455Z 18008KT 3SM BR OVC039 12/09 A3013 440 86 200 190/08 RMK AO2 SLP205 60000 T01170094 50006
14840KMKG MKG20011114100009711/14/01 10:00:31  5-MIN KMKG 141500Z 19008KT 3SM BR OVC039 12/10 A3013 440 89 200 200/08 RMK AO2
14840KMKG MKG20011114100509711/14/01 10:05:31  5-MIN KMKG 141505Z 20011KT 4SM BR OVC037 12/10 A3014 430 89 200 200/11 RMK AO2
14840KMKG MKG20011114101009711/14/01 10:10:31  5-MIN KMKG 141510Z 19012KT 4SM BR OVC037 12/10 A3014 430 89 200 200/12 RMK AO2
14840KMKG MKG20011114101509711/14/01 10:15:31  5-MIN KMKG 141515Z 19011KT 4SM BR OVC037 12/10 A3014 430 89 200 190/11 RMK AO2
14840KMKG MKG20011114102010411/14/01 10:20:31  5-MIN KMKG 141520Z 20011KT 4SM BR BKN037 OVC065 12/10 A3013 430 86 200 200/11 RMK AO2
14840KMKG MKG20011114102510411/14/01 10:25:31  5-MIN KMKG 141525Z 20012KT 4SM BR BKN037 OVC065 12/10 A3013 430 89 200 200/12 RMK AO2
14840KMKG MKG20011114103011911/14/01 10:30:31  5-MIN KMKG 141530Z 20012KT 4SM BR SCT037 OVC065 12/10 A3014 430 89 200 200/12 RMK AO2 CIG 037 RWY 14
14840KMKG MKG20011114103510411/14/01 10:35:31  5-MIN KMKG 141535Z 19012KT 3SM BR SCT037 OVC065 12/10 A3014 430 89 200 200/12 RMK AO2
14840KMKG MKG20011114104010411/14/01 10:40:31  5-MIN KMKG 141540Z 20012KT 3SM BR FEW035 OVC065 12/10 A3014 430 89 200 200/12 RMK AO2
14840KMKG MKG20011114104509711/14/01 10:45:31  5-MIN KMKG 141545Z 19012KT 3SM BR OVC065 12/10 A3014 420 89 200 200/12 RMK AO2
14840KMKG MKG20011114105012111/14/01 10:50:31  5-MIN KMKG 141550Z 19010KT 3SM BR FEW015 OVC065 12/10 A3014 420 89 200 200/10 RMK AO2 SLP209 T01170100
14840KMKG MKG20011114105512111/14/01 10:55:31  5-MIN KMKG 141555Z 20011KT 3SM BR SCT015 OVC060 12/10 A3014 420 89 200 200/11 RMK AO2 SLP210 T01170100
14840KMKG MKG20011114110010411/14/01 11:00:31  5-MIN KMKG 141600Z 18011KT 3SM BR BKN015 OVC060 12/10 A3015 420 89 200 190/11 RMK AO2
14840KMKG MKG20011114110511111/14/01 11:05:31  5-MIN KMKG 141605Z 19010KT 3SM BR FEW010 BKN015 OVC060 12/10 A3015 420 89 200 190/10 RMK AO2
14840KMKG MKG20011114111011111/14/01 11:10:31  5-MIN KMKG 141610Z 19011KT 3SM BR FEW010 BKN015 OVC060 12/11 A3015 420 93 200 200/11 RMK AO2
14840KMKG MKG20011114111510411/14/01 11:15:31  5-MIN KMKG 141615Z 19010KT 3SM BR FEW010 OVC015 12/11 A3015 420 93 200 190/10 RMK AO2
14840KMKG MKG20011114112010411/14/01 11:20:31  5-MIN KMKG 141620Z 18011KT 3SM BR FEW010 OVC015 12/11 A3015 420 93 200 190/11 RMK AO2
14840KMKG MKG20011114112510411/14/01 11:25:31  5-MIN KMKG 141625Z 19011KT 3SM BR FEW010 OVC015 12/11 A3015 420 93 200 190/11 RMK AO2
14840KMKG MKG20011114113010411/14/01 11:30:31  5-MIN KMKG 141630Z 19009KT 3SM BR SCT010 OVC015 12/11 A3015 420 93 200 190/09 RMK AO2
14840KMKG MKG20011114113510411/14/01 11:35:31  5-MIN KMKG 141635Z 18011KT 3SM BR SCT010 OVC015 12/11 A3015 420 93 200 190/11 RMK AO2
14840KMKG MKG20011114114010411/14/01 11:40:31  5-MIN KMKG 141640Z 20011KT 3SM BR BKN010 OVC015 12/11 A3015 420 93 200 200/11 RMK AO2
14840KMKG MKG20011114114510411/14/01 11:45:31  5-MIN KMKG 141645Z 19011KT 3SM BR BKN010 OVC015 12/11 A3015 420 93 200 190/11 RMK AO2
14840KMKG MKG20011114115013711/14/01 11:50:31  5-MIN KMKG 141650Z 19009KT 2 1/2SM BR BKN008 OVC015 12/11 A3014 420 93 200 190/09 RMK AO2 CIG 007V012 SLP209 T01170106
14840KMKG MKG20011114115513711/14/01 11:55:31  5-MIN KMKG 141655Z 19010KT 2 1/2SM BR BKN008 OVC013 12/11 A3014 420 93 200 190/10 RMK AO2 CIG 007V010 SLP209 T01170106
14840KMKG MKG20011114120011311/14/01 12:00:31  5-MIN KMKG 141700Z 20008KT 2 1/2SM BR OVC008 12/11 A3014 420 93 200 200/08 RMK AO2 CIG 007V012
14840KMKG MKG20011114120511311/14/01 12:05:31  5-MIN KMKG 141705Z 19010KT 2 1/2SM BR OVC008 12/11 A3014 430 93 200 190/10 RMK AO2 CIG 006V012
14840KMKG MKG20011114121010111/14/01 12:10:31  5-MIN KMKG 141710Z 19009KT 2 1/2SM BR OVC008 11/11 A3014 430 96 100 190/09 RMK AO2
14840KMKG MKG20011114121510911/14/01 12:15:31  5-MIN KMKG 141715Z 19009KT 2SM BR OVC006 11/11 A3014 430 96 100 190/09 RMK AO2 CIG 005V010
14840KMKG MKG20011114122010911/14/01 12:20:31  5-MIN KMKG 141720Z 19008KT 2SM BR OVC006 11/11 A3014 430 96 100 190/08 RMK AO2 CIG 005V010
14840KMKG MKG20011114122510911/14/01 12:25:31  5-MIN KMKG 141725Z 18007KT 2SM BR OVC006 11/11 A3013 430 96 100 190/07 RMK AO2 CIG 005V010
14840KMKG MKG20011114123010911/14/01 12:30:31  5-MIN KMKG 141730Z 18008KT 2SM BR OVC006 12/11 A3013 440 93 200 190/08 RMK AO2 CIG 005V009
14840KMKG MKG20011114123509711/14/01 12:35:31  5-MIN KMKG 141735Z 18006KT 2SM BR OVC006 12/11 A3013 440 93 200 180/06 RMK AO2
14840KMKG MKG20011114124010911/14/01 12:40:31  5-MIN KMKG 141740Z 18007KT 2SM BR OVC006 12/11 A3013 440 93 200 180/07 RMK AO2 CIG 005V009
14840KMKG MKG20011114124510911/14/01 12:45:31  5-MIN KMKG 141745Z 18006KT 2SM BR OVC006 12/11 A3012 450 96 200 180/06 RMK AO2 CIG 005V009
14840KMKG MKG20011114125013811/14/01 12:50:31  5-MIN KMKG 141750Z 17007KT 2SM BR OVC006 12/11 A3012 450 93 200 170/07 RMK AO2 SLP201 60000 T01170106 10122 20106 50006
14840KMKG MKG20011114125514211/14/01 12:55:31  5-MIN KMKG 141755Z 17007KT 2 1/2SM BR OVC006 12/11 A3012 450 96 200 170/07 RMK AO2 SLP201 60000 T01170111 10122 20106 58004
14840KMKG MKG20011114130010111/14/01 13:00:31  5-MIN KMKG 141800Z 19008KT 2 1/2SM BR OVC006 12/11 A3012 450 93 200 190/08 RMK AO2
14840KMKG MKG20011114130510111/14/01 13:05:31  5-MIN KMKG 141805Z 18009KT 2 1/2SM BR OVC006 12/11 A3012 450 93 200 180/09 RMK AO2
14840KMKG MKG20011114131010111/14/01 13:10:31  5-MIN KMKG 141810Z 19009KT 2 1/2SM BR OVC006 12/11 A3011 450 96 200 190/09 RMK AO2
14840KMKG MKG20011114131510111/14/01 13:15:31  5-MIN KMKG 141815Z 19012KT 2 1/2SM BR OVC006 12/11 A3011 450 93 200 190/12 RMK AO2
14840KMKG MKG20011114132010111/14/01 13:20:31  5-MIN KMKG 141820Z 19011KT 2 1/2SM BR OVC006 12/11 A3011 460 93 200 200/11 RMK AO2
14840KMKG MKG20011114132509711/14/01 13:25:31  5-MIN KMKG 141825Z 19010KT 2SM BR OVC006 12/11 A3011 460 93 200 200/10 RMK AO2
14840KMKG MKG20011114133009711/14/01 13:30:31  5-MIN KMKG 141830Z 19012KT 2SM BR OVC006 11/11 A3011 450 96 100 190/12 RMK AO2
14840KMKG MKG20011114133509711/14/01 13:35:31  5-MIN KMKG 141835Z 20010KT 2SM BR OVC006 11/11 A3011 450 96 100 200/10 RMK AO2
14840KMKG MKG20011114134009711/14/01 13:40:31  5-MIN KMKG 141840Z 19011KT 2SM BR OVC006 11/11 A3011 450 96 100 190/11 RMK AO2
14840KMKG MKG20011114134509711/14/01 13:45:31  5-MIN KMKG 141845Z 20010KT 2SM BR OVC006 11/11 A3011 450 96 100 200/10 RMK AO2
14840KMKG MKG20011114135011411/14/01 13:50:31  5-MIN KMKG 141850Z 20008KT 2SM BR OVC006 11/11 A3011 450 96 100 200/08 RMK AO2 SLP198 T01110106
14840KMKG MKG20011114135514011/14/01 13:55:31  5-MIN KMKG 141855Z 20012G16KT 1 3/4SM -RA BR OVC006 11/11 A3012 450 96 100 210/12G16 RMK AO2 RAB55 SLP200 P0000 T01110106
14840KMKG MKG20011114140011111/14/01 14:00:31  5-MIN KMKG 141900Z 19012KT 1 3/4SM -RA BR OVC006 11/11 A3010 460 96 100 190/12 RMK AO2 P0000
14840KMKG MKG20011114140511811/14/01 14:05:31  5-MIN KMKG 141905Z 17011KT 1 1/2SM -RA BR OVC006 11/11 A3009 470 96 200 180/11 RMK AO2 PRESFR P0000
14840KMKG MKG20011114141011111/14/01 14:10:31  5-MIN KMKG 141910Z 20008KT 1 1/4SM RA BR OVC006 11/11 A3010 460 100 100 210/08 RMK AO2 P0002
14840KMKG MKG20011114141510811/14/01 14:15:31  5-MIN KMKG 141915Z 21010KT 1SM -RA BR OVC004 11/11 A3011 450 100 100 220/10 RMK AO2 P0002
14840KMKG MKG20011114142011311/14/01 14:20:31  5-MIN KMKG 141920Z 21011G14KT 1SM RA BR OVC004 11/11 A3012 450 100 100 210/11G14 RMK AO2 P0003
14840KMKG MKG20011114142511411/14/01 14:25:31  5-MIN KMKG 141925Z 19010G17KT 1SM -RA BR OVC004 11/11 A3011 460 100 100 200/10G17 RMK AO2 P0004
14840KMKG MKG20011114143010711/14/01 14:30:31  5-MIN KMKG 141930Z 20011KT 1SM RA BR OVC004 11/11 A3011 450 100 100 210/11 RMK AO2 P0006
14840KMKG MKG20011114143510911/14/01 14:35:31  5-MIN KMKG 141935Z 18012KT 3/4SM RA BR OVC004 11/11 A3010 470 100 100 190/12 RMK AO2 P0009
14840KMKG MKG20011114144012311/14/01 14:40:31  5-MIN KMKG 141940Z 19009KT 3/4SM RA BR BKN004 BKN008 OVC017 11/11 A3010 460 100 100 190/09 RMK AO2 P0010
14840KMKG MKG20011114144511511/14/01 14:45:31  5-MIN KMKG 141945Z 20006KT 1SM -RA BR BKN004 OVC017 11/11 A3010 460 100 100 210/06 RMK AO2 P0011
14840KMKG MKG20011114145012911/14/01 14:50:31  5-MIN KMKG 141950Z 19008KT 1 1/4SM -RA BR OVC004 11/11 A3010 460 100 100 190/08 RMK AO2 SLP195 P0011 T01060106
14840KMKG MKG20011114145512911/14/01 14:55:31  5-MIN KMKG 141955Z 18009KT 1 1/4SM -RA BR OVC006 11/11 A3010 470 100 100 190/09 RMK AO2 SLP193 P0011 T01060106
14840KMKG MKG20011114150011911/14/01 15:00:31  5-MIN KMKG 142000Z 20011KT 1 1/4SM -RA BR BKN006 OVC017 11/11 A3011 460 100 100 210/11 RMK AO2 P0001
14840KMKG MKG20011114150512211/14/01 15:05:31  5-MIN KMKG 142005Z 19012KT 1SM +RA BR BKN006 BKN014 OVC049 11/11 A3010 470 100 100 190/12 RMK AO2 P0004
14840KMKG MKG20011114151013611/14/01 15:10:31  5-MIN KMKG 142010Z 20011KT 1SM -RA BR SCT006 BKN014 OVC050 11/11 A3010 470 96 200 200/11 RMK AO2 CIG 004 RWY 14 P0005
14840KMKG MKG20011114151512511/14/01 15:15:31  5-MIN KMKG 142015Z 20011KT 1 1/4SM -RA BR SCT006 SCT014 OVC043 11/11 A3010 470 96 200 210/11 RMK AO2 P0005
14840KMKG MKG20011114152012611/14/01 15:20:31  5-MIN KMKG 142020Z 19010KT 1 1/2SM -RA BR SCT006 BKN043 OVC055 11/11 A3010 470 100 200 200/10 RMK AO2 P0005
14840KMKG MKG20011114152514311/14/01 15:25:31  5-MIN KMKG 142025Z 19010KT 1 1/2SM BR FEW008 SCT043 OVC050 11/11 A3010 470 100 200 200/10 RMK AO2 RAE22 CIG 042 RWY 14 P0005
14840KMKG MKG20011114153012811/14/01 15:30:31  5-MIN KMKG 142030Z 20009KT 1 1/2SM BR SCT043 BKN050 OVC085 11/11 A3010 460 100 100 200/09 RMK AO2 RAE22 P0005
14840KMKG MKG20011114153512811/14/01 15:35:31  5-MIN KMKG 142035Z 20010KT 1 1/2SM BR SCT043 BKN050 OVC085 11/11 A3010 460 100 100 200/10 RMK AO2 RAE22 P0005
14840KMKG MKG20011114154012111/14/01 15:40:31  5-MIN KMKG 142040Z 19011KT 1 3/4SM BR FEW043 BKN050 11/11 A3010 460 100 200 200/11 RMK AO2 RAE22 P0005
14840KMKG MKG20011114154512111/14/01 15:45:31  5-MIN KMKG 142045Z 19011KT 1 3/4SM BR BKN050 BKN100 11/11 A3010 470 100 200 200/11 RMK AO2 RAE22 P0005
14840KMKG MKG20011114155015011/14/01 15:50:31  5-MIN KMKG 142050Z 19010KT 1 3/4SM BR BKN050 BKN090 11/11 A3010 460 100 100 200/10 RMK AO2 RAE22 SLP195 P0005 60016 T01110111 58004
14840KMKG MKG20011114155515011/14/01 15:55:31  5-MIN KMKG 142055Z 19010KT 1 3/4SM BR BKN050 BKN090 11/11 A3010 470 100 200 190/10 RMK AO2 RAE22 SLP194 P0005 60016 T01110111 55006
14840KMKG MKG20011114160010111/14/01 16:00:31  5-MIN KMKG 142100Z 19009KT 1 3/4SM BR BKN050 11/11 A3010 460 96 100 190/09 RMK AO2
14840KMKG MKG20011114160510111/14/01 16:05:31  5-MIN KMKG 142105Z 19011KT 1 3/4SM BR BKN050 11/11 A3010 470 96 200 190/11 RMK AO2
14840KMKG MKG20011114161010811/14/01 16:10:31  5-MIN KMKG 142110Z 19009KT 1 3/4SM BR BKN050 BKN090 11/11 A3010 460 96 100 190/09 RMK AO2
14840KMKG MKG20011114161511511/14/01 16:15:31  5-MIN KMKG 142115Z 19009KT 1 3/4SM BR FEW033 SCT050 BKN080 11/11 A3010 460 96 100 200/09 RMK AO2
14840KMKG MKG20011114162011511/14/01 16:20:31  5-MIN KMKG 142120Z 19008KT 1 3/4SM BR FEW033 BKN055 BKN080 11/11 A3011 460 96 100 190/08 RMK AO2
14840KMKG MKG20011114162511611/14/01 16:25:31  5-MIN KMKG 142125Z 18009KT 1 3/4SM BR SCT033 SCT048 BKN060 11/11 A3011 460 100 100 190/09 RMK AO2
14840KMKG MKG20011114163011611/14/01 16:30:31  5-MIN KMKG 142130Z 19009KT 1 3/4SM BR SCT033 BKN047 BKN080 11/11 A3011 460 100 100 190/09 RMK AO2
14840KMKG MKG20011114163513111/14/01 16:35:31  5-MIN KMKG 142135Z 18010KT 1 3/4SM -RA BR BKN031 BKN043 OVC080 11/11 A3010 460 96 100 180/10 RMK AO2 RAB32 P0000
14840KMKG MKG20011114164013111/14/01 16:40:31  5-MIN KMKG 142140Z 18012KT 1 3/4SM -RA BR BKN031 BKN043 BKN080 11/11 A3010 470 96 200 180/12 RMK AO2 RAB32 P0000
14840KMKG MKG20011114164512711/14/01 16:45:31  5-MIN KMKG 142145Z 18010KT 2SM -RA BR SCT031 BKN041 BKN080 11/11 A3010 460 96 100 180/10 RMK AO2 RAB32 P0000
14840KMKG MKG20011114165013711/14/01 16:50:31  5-MIN KMKG 142150Z 18009KT 2SM -RA BR SCT031 BKN041 11/11 A3010 460 96 100 180/09 RMK AO2 RAB32 SLP195 P0000 T01110106
14840KMKG MKG20011114165513711/14/01 16:55:31  5-MIN KMKG 142155Z 18010KT 2SM BR FEW031 BKN041 11/11 A3010 470 100 100 190/10 RMK AO2 RAB32E52 SLP194 P0000 T01060106
14840KMKG MKG20011114170010811/14/01 17:00:31  5-MIN KMKG 142200Z 18009KT 1 3/4SM BR FEW031 SCT041 11/10 A3010 470 96 100 180/09 RMK AO2
14840KMKG MKG20011114170510811/14/01 17:05:31  5-MIN KMKG 142205Z 18011KT 1 3/4SM BR FEW041 SCT055 11/10 A3010 470 96 100 180/11 RMK AO2
14840KMKG MKG20011114171010411/14/01 17:10:31  5-MIN KMKG 142210Z 18009KT 2SM BR FEW041 SCT055 11/10 A3009 470 96 100 180/09 RMK AO2
14840KMKG MKG20011114171511111/14/01 17:15:31  5-MIN KMKG 142215Z 19009KT 2SM BR FEW041 SCT055 SCT095 11/10 A3010 470 96 100 190/09 RMK AO2
14840KMKG MKG20011114172010411/14/01 17:20:31  5-MIN KMKG 142220Z 18009KT 2SM BR FEW055 SCT095 11/10 A3010 470 96 100 190/09 RMK AO2
14840KMKG MKG20011114172510411/14/01 17:25:31  5-MIN KMKG 142225Z 18009KT 2SM BR FEW055 BKN095 11/10 A3009 470 96 100 180/09 RMK AO2
14840KMKG MKG20011114173010811/14/01 17:30:31  5-MIN KMKG 142230Z 17010KT 2 1/2SM BR FEW055 BKN095 11/10 A3009 470 96 100 180/10 RMK AO2
14840KMKG MKG20011114173509711/14/01 17:35:31  5-MIN KMKG 142235Z 18008KT 3SM BR BKN095 11/10 A3009 470 96 100 190/08 RMK AO2
14840KMKG MKG20011114174010111/14/01 17:40:31  5-MIN KMKG 142240Z 18006KT 2 1/2SM BR BKN095 11/10 A3010 470 96 100 180/06 RMK AO2
14840KMKG MKG20011114174510111/14/01 17:45:31  5-MIN KMKG 142245Z 17007KT 2 1/2SM BR SCT095 11/10 A3010 470 96 100 170/07 RMK AO2
14840KMKG MKG20011114175011411/14/01 17:50:31  5-MIN KMKG 142250Z 17008KT 3SM BR SCT095 11/10 A3009 470 96 100 170/08 RMK AO2 SLP193 T01060100
14840KMKG MKG20011114175511411/14/01 17:55:31  5-MIN KMKG 142255Z 17007KT 3SM BR FEW095 11/10 A3010 470 96 100 170/07 RMK AO2 SLP193 T01060100
14840KMKG MKG20011114180009711/14/01 18:00:31  5-MIN KMKG 142300Z 18007KT 3SM BR FEW090 11/10 A3010 470 96 100 180/07 RMK AO2
14840KMKG MKG20011114180509411/14/01 18:05:31  5-MIN KMKG 142305Z 18008KT 3SM BR CLR 11/10 A3009 470 96 100 180/08 RMK AO2
14840KMKG MKG20011114181009411/14/01 18:10:31  5-MIN KMKG 142310Z 18010KT 4SM BR CLR 11/10 A3009 470 96 100 180/10 RMK AO2
14840KMKG MKG20011114181509411/14/01 18:15:31  5-MIN KMKG 142315Z 18011KT 4SM BR CLR 11/10 A3009 470 96 100 180/11 RMK AO2
14840KMKG MKG20011114182009411/14/01 18:20:31  5-MIN KMKG 142320Z 18012KT 4SM BR CLR 11/10 A3009 470 93 200 190/12 RMK AO2
14840KMKG MKG20011114182509411/14/01 18:25:31  5-MIN KMKG 142325Z 18013KT 4SM BR CLR 11/10 A3009 480 93 200 190/13 RMK AO2
14840KMKG MKG20011114183009411/14/01 18:30:31  5-MIN KMKG 142330Z 18013KT 4SM BR CLR 11/10 A3008 480 93 200 190/13 RMK AO2
14840KMKG MKG20011114183509711/14/01 18:35:31  5-MIN KMKG 142335Z 18012KT 4SM BR FEW120 11/10 A3008 480 93 200 190/12 RMK AO2
14840KMKG MKG20011114184010411/14/01 18:40:31  5-MIN KMKG 142340Z 18011KT 4SM BR FEW090 SCT120 11/10 A3008 480 93 200 190/11 RMK AO2
14840KMKG MKG20011114184510411/14/01 18:45:31  5-MIN KMKG 142345Z 19012KT 4SM BR BKN090 BKN120 12/10 A3009 480 89 200 190/12 RMK AO2
14840KMKG MKG20011114185013811/14/01 18:50:31  5-MIN KMKG 142350Z 19013KT 4SM BR BKN090 12/10 A3009 480 89 200 190/13 RMK AO2 SLP191 60016 T01170100 10117 20106 55006
14840KMKG MKG20011114185514411/14/01 18:55:31  5-MIN KMKG 142355Z 19015G20KT 4SM BR BKN090 12/10 A3009 480 89 200 190/15G20 RMK AO2 SLP190 60016 T01170100 10117 20106 58004
14840KMKG MKG20011114190010311/14/01 19:00:31  5-MIN KMKG 150000Z 19015G20KT 4SM BR OVC090 12/10 A3008 480 89 200 190/15G20 RMK AO2
14840KMKG MKG20011114190509711/14/01 19:05:31  5-MIN KMKG 150005Z 19016KT 4SM BR OVC095 12/10 A3009 480 89 200 200/16 RMK AO2
14840KMKG MKG20011114191009711/14/01 19:10:31  5-MIN KMKG 150010Z 19013KT 4SM BR OVC095 12/10 A3009 480 86 300 200/13 RMK AO2
14840KMKG MKG20011114191510311/14/01 19:15:31  5-MIN KMKG 150015Z 19016G20KT 4SM BR OVC100 12/10 A3009 480 86 300 200/16G20 RMK AO2
14840KMKG MKG20011114192010311/14/01 19:20:31  5-MIN KMKG 150020Z 19014G20KT 4SM BR OVC100 12/10 A3009 470 86 300 200/14G20 RMK AO2
14840KMKG MKG20011114192509711/14/01 19:25:31  5-MIN KMKG 150025Z 19012KT 4SM BR OVC100 12/11 A3009 480 89 300 190/12 RMK AO2
14840KMKG MKG20011114193009711/14/01 19:30:31  5-MIN KMKG 150030Z 19012KT 4SM BR OVC100 12/11 A3009 480 89 300 190/12 RMK AO2
14840KMKG MKG20011114193509711/14/01 19:35:31  5-MIN KMKG 150035Z 19013KT 4SM BR OVC100 12/11 A3008 480 89 300 190/13 RMK AO2
14840KMKG MKG20011114194009711/14/01 19:40:31  5-MIN KMKG 150040Z 19014KT 4SM BR OVC100 12/11 A3009 480 89 300 200/14 RMK AO2
14840KMKG MKG20011114194510411/14/01 19:45:31  5-MIN KMKG 150045Z 19012KT 4SM BR SCT060 OVC100 12/11 A3009 480 89 300 200/12 RMK AO2
14840KMKG MKG20011114195012811/14/01 19:50:31  5-MIN KMKG 150050Z 20012KT 4SM BR FEW045 BKN060 OVC100 12/11 A3009 480 89 300 200/12 RMK AO2 SLP191 T01220106
14840KMKG MKG20011114195514411/14/01 19:55:31  5-MIN KMKG 150055Z 19012KT 4SM -RA BR SCT049 BKN065 OVC100 12/11 A3009 470 89 300 200/12 RMK AO2 RAB55 SLP191 P0000 T01220106
14840KMKG MKG20011114200012111/14/01 20:00:31  5-MIN KMKG 150100Z 19013KT 4SM -RA BR BKN049 BKN060 OVC100 12/11 A3009 470 89 300 190/13 RMK AO2 P0000
14840KMKG MKG20011114200512111/14/01 20:05:31  5-MIN KMKG 150105Z 19013KT 4SM -RA BR FEW039 BKN049 OVC060 12/11 A3009 480 89 300 190/13 RMK AO2 P0000
14840KMKG MKG20011114201014211/14/01 20:10:31  5-MIN KMKG 150110Z 19016G22KT 3SM -RA BR FEW018 SCT049 OVC060 12/11 A3009 480 93 300 190/16G22 RMK AO2 CIG 048 RWY 14 P0003
14840KMKG MKG20011114201512411/14/01 20:15:31  5-MIN KMKG 150115Z 19015G22KT 2 1/2SM +RA BR FEW018 OVC050 12/11 A3009 480 93 300 200/15G22 RMK AO2 P0005
14840KMKG MKG20011114202012111/14/01 20:20:31  5-MIN KMKG 150120Z 19014KT 3SM -RA BR FEW018 SCT030 OVC050 12/11 A3009 480 93 300 190/14 RMK AO2 P0006
14840KMKG MKG20011114202512611/14/01 20:25:31  5-MIN KMKG 150125Z 19013G19KT 3SM RA BR BKN030 BKN037 OVC050 12/11 A3009 480 93 300 200/13G19 RMK AO2 P0006
14840KMKG MKG20011114203013611/14/01 20:30:31  5-MIN KMKG 150130Z 19012KT 4SM -RA BR SCT030 BKN055 BKN065 12/11 A3008 480 93 300 200/12 RMK AO2 CIG 029 RWY 14 P0006
14840KMKG MKG20011114203513111/14/01 20:35:31  5-MIN KMKG 150135Z 20011KT 4SM BR SCT030 BKN060 12/11 A3008 480 93 300 200/11 RMK AO2 RAE33 CIG 050 RWY 14 P0006
14840KMKG MKG20011114204012911/14/01 20:40:31  5-MIN KMKG 150140Z 20011KT 4SM -RA BR SCT030 BKN060 12/11 A3008 480 93 300 200/11 RMK AO2 CIG 038 RWY 14 P0006
14840KMKG MKG20011114204515111/14/01 20:45:31  5-MIN KMKG 150145Z 20011KT 4SM -TSRA BR BKN030 OVC060 12/11 A3009 480 93 300 200/11 RMK AO2 TSB45 OCNL LTGICCG TSB44 NW MOV SE P0006
14840KMKG MKG20011114205015911/14/01 20:50:31  5-MIN KMKG 150150Z 18010KT 4SM TS BR BKN032 OVC060 13/11 A3008 480 89 400 190/10 RMK AO2 SLP188 OCNL LTGICCG TSB45 NW MOV SE P0006 T01280111
14840KMKG MKG20011114205516611/14/01 20:55:31  5-MIN KMKG 150155Z 19011KT 4SM TS BR BKN032 OVC060 13/11 A3008 490 89 400 190/11 RMK AO2 OCNL LTGICCG TSB45RAE49 NW MOV SE SLP187 P0006 T01280111 $
14840KMKG MKG20011114210013511/14/01 21:00:31  5-MIN KMKG 150200Z 19011KT 4SM TS BR BKN032 OVC060 13/11 A3008 490 89 400 190/11 RMK AO2 OCNL LTGICCG TS NW MOV SE $
14840KMKG MKG20011114210512811/14/01 21:05:31  5-MIN KMKG 150205Z 19009KT 4SM TS BR OVC032 12/11 A3007 490 93 300 190/09 RMK AO2 OCNL LTGICCG TS NW MOV SE $
14840KMKG MKG20011114211013411/14/01 21:10:31  5-MIN KMKG 150210Z 19013G17KT 4SM TS BR OVC034 12/11 A3007 490 93 300 190/13G17 RMK AO2 OCNL LTGICCG TS NW MOV SE $
14840KMKG MKG20011114211512811/14/01 21:15:31  5-MIN KMKG 150215Z 19012KT 4SM TS BR OVC034 13/11 A3008 490 89 400 200/12 RMK AO2 OCNL LTGICCG TS NW MOV SE $
14840KMKG MKG20011114212014311/14/01 21:20:31  5-MIN KMKG 150220Z 18010KT 4SM -TSRA BR OVC034 13/11 A3007 490 89 400 190/10 RMK AO2 OCNL LTGICCG RAB16 TS NW MOV SE P0000 $
14840KMKG MKG20011114212514111/14/01 21:25:31  5-MIN KMKG 150225Z 19010KT 4SM -TSRA BR OVC036 13/11 A3007 490 89 400 190/10 RMK AO2 OCNL LTGICCG RAB16 TS NW MOV SE P0000
14840KMKG MKG20011114213015211/14/01 21:30:31  5-MIN KMKG 150230Z 19011KT 4SM TS BR BKN036 BKN043 OVC100 13/11 A3007 490 89 400 200/11 RMK AO2 OCNL LTGICCG RAB16 TS NW MOV SE P0000
14840KMKG MKG20011114213514111/14/01 21:35:31  5-MIN KMKG 150235Z 20011KT 4SM TS BR OVC038 13/11 A3007 490 86 400 200/11 RMK AO2 OCNL LTGICCG RAB16E26 TS NW MOV SE P0000
14840KMKG MKG20011114214014111/14/01 21:40:31  5-MIN KMKG 150240Z 19009KT 4SM TS BR OVC038 13/11 A3007 490 86 400 200/09 RMK AO2 OCNL LTGICCG RAB16E26 TS NW MOV SE P0000
14840KMKG MKG20011114214515011/14/01 21:45:31  5-MIN KMKG 150245Z 20012G18KT 4SM -TSRA BR OVC040 13/11 A3007 490 89 400 200/12G18 RMK AO2 OCNL LTGICCG RAB16E26 TS NW MOV SE P0000
14840KMKG MKG20011114215018311/14/01 21:50:31  5-MIN KMKG 150250Z 20011KT 3SM -TSRA BR BKN040 OVC047 13/11 A3008 490 89 400 210/11 RMK AO2 SLP186 OCNL LTGICCG RAB16E26B43 TS NW MOV SE P0001 60007 T01280111 58004
14840KMKG MKG20011114215518311/14/01 21:55:31  5-MIN KMKG 150255Z 21010KT 3SM TSRA BR BKN040 BKN047 OVC065 12/11 A3008 490 93 300 210/10 RMK AO2 OCNL LTGICCG RAB16E26B43 TS NW MOV SE SLP186 P0002 60008 T01220111
14840KMKG MKG20011114220015311/14/01 22:00:31  5-MIN KMKG 150300Z 22012KT 2 1/2SM -TSRA BR BKN040 BKN060 OVC075 12/11 A3008 480 93 300 220/12 RMK AO2 OCNL LTGICCG TS NW MOV SE P0001
14840KMKG MKG20011114220515311/14/01 22:05:31  5-MIN KMKG 150305Z 22011KT 2 1/2SM -TSRA BR FEW031 BKN040 OVC070 12/11 A3009 470 93 300 230/11 RMK AO2 OCNL LTGICCG TS NW MOV SE P0001
14840KMKG MKG20011114221016811/14/01 22:10:31  5-MIN KMKG 150310Z 21011KT 2 1/2SM -TSRA BR FEW029 BKN050 OVC070 12/11 A3009 470 93 300 210/11 RMK AO2 CIG 039 RWY 14 OCNL LTGICCG TS NW MOV SE P0002
14840KMKG MKG20011114221515311/14/01 22:15:31  5-MIN KMKG 150315Z 21011KT 2SM +TSRA BR FEW024 BKN043 OVC070 12/11 A3010 470 93 300 210/11 RMK AO2 OCNL LTGICCG TS NW-OHD MOV SE P0005
14840KMKG MKG20011114222017211/14/01 22:20:31  5-MIN KMKG 150320Z 23006KT 1 1/4SM +TSRA BR SCT024 BKN040 OVC070 12/11 A3010 470 93 300 230/06 RMK AO2 OCNL LTGICCG TS NW-OHD MOV SE CIG 039 RWY 14 P0008
14840KMKG MKG20011114222517011/14/01 22:25:31  5-MIN KMKG 150325Z 00000KT 1 1/4SM TSRA BR SCT024 BKN040 OVC070 12/11 A3010 470 93 300 000/00 RMK AO2 FRQ LTGICCG TS NW-OHD MOV SE CIG 023 RWY 14 P0009
14840KMKG MKG20011114223018811/14/01 22:30:31  5-MIN KMKG 150330Z VRB03KT 2 1/2SM -TSRA BR FEW024 BKN040 OVC048 12/12 A3010 470 96 300 VRB/03 RMK AO2 VIS 1 1/2 RWY 14 FRQ LTGICCG TS NW-OHD MOV SE CIG 023 RWY 14 P0010
14840KMKG MKG20011114223520011/14/01 22:35:31  5-MIN KMKG 150335Z 24009KT 190V280 2 1/2SM -TSRA BR FEW022 BKN040 OVC050 13/11 A3010 460 89 300 240/09 190V280 RMK AO2 VIS 1 RWY 14 FRQ LTGICCG TS NW-OHD MOV SE CIG 023 RWY 14 P0012
14840KMKG MKG20011114224016111/14/01 22:40:31  5-MIN KMKG 150340Z 17006KT 2SM +TSRA BR FEW024 OVC042 13/11 A3009 470 86 400 180/06 RMK AO2 VIS 1 RWY 14 FRQ LTGICCG TS NW-OHD-SE MOV SE P0018
14840KMKG MKG20011114224514811/14/01 22:45:31  5-MIN KMKG 150345Z 16006KT 2SM +TSRA BR FEW024 OVC042 13/11 A3009 480 89 400 160/06 RMK AO2 FRQ LTGICCG TS NW-OHD-SE MOV SE P0019
14840KMKG MKG20011114225015111/14/01 22:50:31  5-MIN KMKG 150350Z 00000KT 3SM -TSRA BR OVC042 13/11 A3009 470 86 400 000/00 RMK AO2 FRQ LTGICCG TS NW-OHD-SE MOV SE P0019 T01330111
14840KMKG MKG20011114225515611/14/01 22:55:31  5-MIN KMKG 150355Z 00000KT 4SM TS BR OVC042 13/11 A3010 470 89 400 000/00 RMK AO2 RAEMM FRQ LTGICCG TS SE MOV SE SLP191 P0019 T01280111 $
14840KMKG MKG20011114230011111/14/01 23:00:31  5-MIN KMKG 150400Z VRB03KT 4SM -TSRA BR OVC042 13/11 A3010 470 86 400 VRB/03 RMK AO2 P0000 $
14840KMKG MKG20011114230510911/14/01 23:05:31  5-MIN KMKG 150405Z 17006KT 4SM -TSRA BR OVC042 13/11 A3009 480 89 400 170/06 RMK AO2 P0000
14840KMKG MKG20011114231010911/14/01 23:10:31  5-MIN KMKG 150410Z 19006KT 4SM -TSRA BR OVC042 12/11 A3009 480 93 300 200/06 RMK AO2 P0000
14840KMKG MKG20011114231510711/14/01 23:15:31  5-MIN KMKG 150415Z 21011KT 4SM -RA BR OVC042 13/11 A3008 480 89 400 210/11 RMK AO2 P0000
14840KMKG MKG20011114232011311/14/01 23:20:31  5-MIN KMKG 150420Z 21013KT 4SM -RA BR OVC044 13/11 A3008 480 89 400 210/13 RMK AO2 TSE15 P0000
14840KMKG MKG20011114232512011/14/01 23:25:31  5-MIN KMKG 150425Z 22012KT 4SM -RA BR BKN042 OVC050 13/11 A3009 480 89 400 220/12 RMK AO2 TSE15 P0000
14840KMKG MKG20011114233011311/14/01 23:30:31  5-MIN KMKG 150430Z 20009KT 3SM -RA BR OVC042 13/11 A3008 480 89 400 210/09 RMK AO2 TSE15 P0001
14840KMKG MKG20011114233511311/14/01 23:35:31  5-MIN KMKG 150435Z 21012KT 3SM -RA BR OVC042 13/11 A3008 480 89 400 210/12 RMK AO2 TSE15 P0001
14840KMKG MKG20011114234011311/14/01 23:40:31  5-MIN KMKG 150440Z 20012KT 3SM -RA BR OVC042 13/11 A3008 480 89 400 200/12 RMK AO2 TSE15 P0002
14840KMKG MKG20011114234511311/14/01 23:45:31  5-MIN KMKG 150445Z 20012KT 3SM -RA BR OVC044 12/11 A3008 490 93 300 200/12 RMK AO2 TSE15 P0002
14840KMKG MKG20011114235014011/14/01 23:50:31  5-MIN KMKG 150450Z 20012KT 3SM -RA BR OVC042 12/11 A3008 480 93 300 200/12 RMK AO2 SLP187 TSE15 P0002 T01220111 401330106
14840KMKG MKG20011114235514011/14/01 23:55:31  5-MIN KMKG 150455Z 20012KT 3SM -RA BR OVC042 12/11 A3008 480 93 300 200/12 RMK AO2 SLP187 TSE15 P0002 T01220111 401330106
14840KMKG MKG20011115000010711/15/01 00:00:31  5-MIN KMKG 150500Z 21011KT 3SM -RA BR OVC042 12/11 A3008 480 93 300 210/11 RMK AO2 P0000
14840KMKG MKG20011115000511611/15/01 00:05:31  5-MIN KMKG 150505Z 20010KT 4SM BR FEW034 OVC042 12/11 A3008 480 93 300 200/10 RMK AO2 RAE04 P0000
14840KMKG MKG20011115001010711/15/01 00:10:31  5-MIN KMKG 150510Z 19010KT 3SM -RA BR OVC039 12/11 A3008 480 93 300 200/10 RMK AO2 P0001
14840KMKG MKG20011115001511111/15/01 00:15:31  5-MIN KMKG 150515Z 20010KT 2 1/2SM -RA BR OVC039 12/11 A3008 480 93 300 200/10 RMK AO2 P0001
14840KMKG MKG20011115002010711/15/01 00:20:31  5-MIN KMKG 150520Z 20009KT 3SM -RA BR OVC039 12/11 A3008 480 93 300 200/09 RMK AO2 P0001
14840KMKG MKG20011115002510711/15/01 00:25:31  5-MIN KMKG 150525Z 20011KT 3SM -RA BR OVC039 12/11 A3008 480 93 300 210/11 RMK AO2 P0001
14840KMKG MKG20011115003010711/15/01 00:30:31  5-MIN KMKG 150530Z 20009KT 3SM -RA BR OVC039 12/11 A3008 480 93 300 200/09 RMK AO2 P0001
14840KMKG MKG20011115003510711/15/01 00:35:31  5-MIN KMKG 150535Z 21009KT 3SM -RA BR OVC039 12/11 A3009 480 93 300 220/09 RMK AO2 P0003
14840KMKG MKG20011115004011011/15/01 00:40:31  5-MIN KMKG 150540Z 21009KT 2 1/2SM RA BR OVC039 12/11 A3009 480 93 300 210/09 RMK AO2 P0004
14840KMKG MKG20011115004511111/15/01 00:45:31  5-MIN KMKG 150545Z 20008KT 2 1/2SM -RA BR OVC039 12/11 A3008 480 93 300 210/08 RMK AO2 P0004
14840KMKG MKG20011115005014811/15/01 00:50:31  5-MIN KMKG 150550Z 20007KT 3SM -RA BR OVC039 12/11 A3009 480 93 300 210/07 RMK AO2 SLP190 P0004 60033 T01220111 10133 20117 58003
14840KMKG MKG20011115005514811/15/01 00:55:31  5-MIN KMKG 150555Z 20008KT 3SM -RA BR OVC039 12/11 A3009 480 96 200 210/08 RMK AO2 SLP189 P0005 60034 T01170111 10133 20117 51002
14840KMKG MKG20011115010011811/15/01 01:00:31  5-MIN KMKG 150600Z 21007KT 2 1/2SM -RA BR BKN039 OVC048 12/11 A3008 480 96 200 210/07 RMK AO2 P0001
14840KMKG MKG20011115010511811/15/01 01:05:31  5-MIN KMKG 150605Z 20007KT 2 1/2SM -RA BR BKN039 OVC049 12/11 A3008 480 96 200 210/07 RMK AO2 P0001
14840KMKG MKG20011115011011111/15/01 01:10:31  5-MIN KMKG 150610Z 21007KT 2 1/2SM -RA BR OVC039 12/11 A3008 480 96 200 210/07 RMK AO2 P0002
14840KMKG MKG20011115011510711/15/01 01:15:31  5-MIN KMKG 150615Z 20007KT 3SM -RA BR OVC039 12/11 A3008 480 96 200 210/07 RMK AO2 P0002
14840KMKG MKG20011115012010711/15/01 01:20:31  5-MIN KMKG 150620Z 20007KT 3SM -RA BR OVC039 12/11 A3008 480 96 200 210/07 RMK AO2 P0002
14840KMKG MKG20011115012510911/15/01 01:25:31  5-MIN KMKG 150625Z 20006KT 3SM BR OVC039 12/11 A3008 480 96 200 210/06 RMK AO2 RAE25 P0002
14840KMKG MKG20011115013010911/15/01 01:30:31  5-MIN KMKG 150630Z 20006KT 3SM BR OVC039 12/11 A3008 480 96 200 200/06 RMK AO2 RAE25 P0002
14840KMKG MKG20011115013510711/15/01 01:35:31  5-MIN KMKG 150635Z 19006KT 3SM -RA BR OVC039 12/11 A3008 490 96 200 200/06 RMK AO2 P0002
14840KMKG MKG20011115014010711/15/01 01:40:31  5-MIN KMKG 150640Z 20008KT 3SM -RA BR OVC039 12/11 A3008 490 96 200 200/08 RMK AO2 P0002
14840KMKG MKG20011115014511711/15/01 01:45:31  5-MIN KMKG 150645Z 19007KT 2 1/2SM RA BR BKN039 OVC049 12/11 A3007 490 96 200 200/07 RMK AO2 P0003
14840KMKG MKG20011115015013511/15/01 01:50:31  5-MIN KMKG 150650Z 20007KT 2 1/2SM -RA BR BKN039 OVC049 12/11 A3007 490 96 300 200/07 RMK AO2 SLP184 P0003 T01170111
14840KMKG MKG20011115015513111/15/01 01:55:31  5-MIN KMKG 150655Z 19009KT 3SM -RA BR BKN039 OVC050 12/11 A3007 490 96 300 200/09 RMK AO2 SLP184 P0003 T01170111
14840KMKG MKG20011115020011811/15/01 02:00:31  5-MIN KMKG 150700Z 20009KT 3SM BR BKN041 OVC050 12/11 A3007 490 93 300 200/09 RMK AO2 RAE0658 P0000
14840KMKG MKG20011115020511111/15/01 02:05:31  5-MIN KMKG 150705Z 20008KT 3SM BR OVC041 12/11 A3007 500 96 300 210/08 RMK AO2 RAE0658 P0000
14840KMKG MKG20011115021011111/15/01 02:10:31  5-MIN KMKG 150710Z 20008KT 3SM BR OVC041 12/11 A3006 500 93 300 210/08 RMK AO2 RAE0658 P0000
14840KMKG MKG20011115021511111/15/01 02:15:31  5-MIN KMKG 150715Z 21008KT 3SM BR OVC039 12/11 A3006 500 93 300 210/08 RMK AO2 RAE0658 P0000
14840KMKG MKG20011115022011811/15/01 02:20:31  5-MIN KMKG 150720Z 21009KT 3SM BR BKN040 OVC050 12/11 A3006 500 89 300 210/09 RMK AO2 RAE0658 P0000
14840KMKG MKG20011115022511811/15/01 02:25:31  5-MIN KMKG 150725Z 21009KT 3SM BR BKN040 OVC050 12/11 A3006 500 93 300 210/09 RMK AO2 RAE0658 P0000
14840KMKG MKG20011115023011811/15/01 02:30:31  5-MIN KMKG 150730Z 21010KT 3SM BR SCT040 OVC050 12/11 A3006 500 89 300 210/10 RMK AO2 RAE0658 P0000
14840KMKG MKG20011115023511811/15/01 02:35:31  5-MIN KMKG 150735Z 21011KT 3SM BR SCT038 OVC055 12/11 A3006 500 89 300 210/11 RMK AO2 RAE0658 P0000
14840KMKG MKG20011115024012511/15/01 02:40:31  5-MIN KMKG 150740Z 21011KT 4SM BR FEW040 BKN050 OVC060 12/11 A3006 500 89 300 210/11 RMK AO2 RAE0658 P0000
14840KMKG MKG20011115024512511/15/01 02:45:31  5-MIN KMKG 150745Z 21011KT 4SM BR SCT046 BKN055 OVC070 12/11 A3006 500 89 300 210/11 RMK AO2 RAE0658 P0000
14840KMKG MKG20011115025014211/15/01 02:50:31  5-MIN KMKG 150750Z 21010KT 4SM BR SCT049 BKN055 OVC090 12/11 A3006 500 89 300 210/10 RMK AO2 RAE0658 SLP180 P0000 T01220106
14840KMKG MKG20011115025514211/15/01 02:55:31  5-MIN KMKG 150755Z 21011KT 4SM BR FEW041 BKN050 OVC095 12/11 A3006 500 89 300 220/11 RMK AO2 RAE0658 SLP180 P0000 T01220106
14840KMKG MKG20011115030011111/15/01 03:00:31  5-MIN KMKG 150800Z 21012KT 4SM BR SCT041 BKN050 OVC095 12/11 A3006 500 89 300 220/12 RMK AO2
14840KMKG MKG20011115030511711/15/01 03:05:31  5-MIN KMKG 150805Z 22013G19KT 4SM BR BKN041 BKN050 OVC070 12/11 A3006 500 89 300 220/13G19 RMK AO2
14840KMKG MKG20011115031011711/15/01 03:10:31  5-MIN KMKG 150810Z 22012G19KT 4SM BR BKN041 BKN050 OVC065 12/11 A3005 510 89 300 220/12G19 RMK AO2
14840KMKG MKG20011115031511011/15/01 03:15:31  5-MIN KMKG 150815Z 22013G18KT 4SM BR BKN041 OVC048 12/11 A3005 510 89 300 220/13G18 RMK AO2
14840KMKG MKG20011115032010311/15/01 03:20:31  5-MIN KMKG 150820Z 22014G18KT 4SM BR OVC041 13/11 A3005 510 86 400 220/14G18 RMK AO2
14840KMKG MKG20011115032510411/15/01 03:25:31  5-MIN KMKG 150825Z 22015KT 4SM BR BKN041 OVC047 13/11 A3005 510 86 400 220/15 RMK AO2
14840KMKG MKG20011115033010411/15/01 03:30:31  5-MIN KMKG 150830Z 22014KT 4SM BR BKN041 OVC065 13/11 A3005 510 86 400 230/14 RMK AO2
14840KMKG MKG20011115033511111/15/01 03:35:31  5-MIN KMKG 150835Z 22015KT 4SM BR BKN041 BKN047 OVC065 13/11 A3004 520 86 400 220/15 RMK AO2
14840KMKG MKG20011115034011111/15/01 03:40:31  5-MIN KMKG 150840Z 22015KT 4SM BR BKN041 BKN047 OVC060 13/11 A3004 520 86 400 220/15 RMK AO2
14840KMKG MKG20011115034510411/15/01 03:45:31  5-MIN KMKG 150845Z 21015KT 4SM BR BKN039 OVC065 13/11 A3005 510 86 400 220/15 RMK AO2
14840KMKG MKG20011115035014011/15/01 03:50:31  5-MIN KMKG 150850Z 21015KT 4SM BR BKN039 BKN055 BKN070 13/11 A3005 510 86 400 220/15 RMK AO2 SLP176 60003 T01280106 51002
14840KMKG MKG20011115035514611/15/01 03:55:31  5-MIN KMKG 150855Z 22016G21KT 4SM BR BKN039 BKN050 OVC065 13/11 A3005 510 86 400 220/16G21 RMK AO2 SLP176 60003 T01280106 56013
14840KMKG MKG20011115040011011/15/01 04:00:31  5-MIN KMKG 150900Z 21013G21KT 4SM BR BKN039 OVC049 12/11 A3004 520 89 300 220/13G21 RMK AO2
14840KMKG MKG20011115040510411/15/01 04:05:31  5-MIN KMKG 150905Z 21015KT 4SM BR BKN041 OVC049 13/11 A3004 520 86 400 220/15 RMK AO2
14840KMKG MKG20011115041010411/15/01 04:10:31  5-MIN KMKG 150910Z 21015KT 4SM BR BKN041 OVC049 13/11 A3004 520 86 400 220/15 RMK AO2
14840KMKG MKG20011115041511111/15/01 04:15:31  5-MIN KMKG 150915Z 22014KT 4SM BR BKN041 BKN049 OVC090 13/11 A3004 520 86 400 220/14 RMK AO2
14840KMKG MKG20011115042010411/15/01 04:20:31  5-MIN KMKG 150920Z 21013KT 4SM BR BKN039 OVC049 12/11 A3004 520 89 400 220/13 RMK AO2
14840KMKG MKG20011115042510411/15/01 04:25:31  5-MIN KMKG 150925Z 21012KT 4SM BR BKN039 OVC049 13/11 A3004 520 86 400 220/12 RMK AO2
14840KMKG MKG20011115043010411/15/01 04:30:31  5-MIN KMKG 150930Z 21013KT 4SM BR BKN039 OVC049 13/11 A3004 520 86 400 220/13 RMK AO2
14840KMKG MKG20011115043510411/15/01 04:35:31  5-MIN KMKG 150935Z 21014KT 4SM BR BKN037 OVC047 13/11 A3004 520 86 400 220/14 RMK AO2
14840KMKG MKG20011115044011111/15/01 04:40:31  5-MIN KMKG 150940Z 21015KT 4SM BR BKN039 BKN047 OVC090 13/11 A3004 520 86 400 220/15 RMK AO2
14840KMKG MKG20011115044511111/15/01 04:45:31  5-MIN KMKG 150945Z 21013KT 4SM BR BKN039 BKN047 OVC090 12/11 A3004 520 89 400 220/13 RMK AO2
14840KMKG MKG20011115045014311/15/01 04:50:31  5-MIN KMKG 150950Z 21013KT 4SM BR SCT037 BKN047 OVC090 13/11 A3004 520 86 400 220/13 RMK AO2 CIG 039 RWY 14 SLP174 T01280106
14840KMKG MKG20011115045512811/15/01 04:55:31  5-MIN KMKG 150955Z 22013KT 5SM BR FEW034 BKN042 OVC090 13/11 A3004 520 86 400 220/13 RMK AO2 SLP174 T01280106
14840KMKG MKG20011115050011111/15/01 05:00:31  5-MIN KMKG 151000Z 21013KT 5SM BR FEW036 BKN044 OVC090 13/11 A3004 520 86 400 210/13 RMK AO2
14840KMKG MKG20011115050511111/15/01 05:05:31  5-MIN KMKG 151005Z 21014KT 5SM BR SCT036 BKN044 OVC090 13/11 A3004 520 86 400 210/14 RMK AO2
14840KMKG MKG20011115051011111/15/01 05:10:31  5-MIN KMKG 151010Z 21014KT 5SM BR SCT036 BKN044 OVC090 13/11 A3004 520 86 400 210/14 RMK AO2
14840KMKG MKG20011115051511111/15/01 05:15:31  5-MIN KMKG 151015Z 21013KT 5SM BR SCT034 BKN042 OVC095 13/11 A3004 520 86 400 210/13 RMK AO2
14840KMKG MKG20011115052011111/15/01 05:20:31  5-MIN KMKG 151020Z 20013KT 5SM BR FEW034 BKN044 OVC075 13/11 A3004 520 86 400 210/13 RMK AO2
14840KMKG MKG20011115052511111/15/01 05:25:31  5-MIN KMKG 151025Z 20013KT 5SM BR FEW034 BKN046 OVC070 12/10 A3004 520 86 400 210/13 RMK AO2
14840KMKG MKG20011115053011111/15/01 05:30:31  5-MIN KMKG 151030Z 20015KT 5SM HZ FEW034 BKN043 OVC070 13/10 A3004 520 83 400 200/15 RMK AO2
14840KMKG MKG20011115053511111/15/01 05:35:31  5-MIN KMKG 151035Z 20015KT 5SM BR BKN042 BKN050 OVC070 12/10 A3004 520 86 400 210/15 RMK AO2
14840KMKG MKG20011115054011111/15/01 05:40:31  5-MIN KMKG 151040Z 20013KT 5SM BR BKN045 BKN050 OVC095 12/10 A3004 520 86 400 200/13 RMK AO2
14840KMKG MKG20011115054511111/15/01 05:45:31  5-MIN KMKG 151045Z 20013KT 5SM BR BKN045 BKN065 OVC095 12/10 A3003 520 86 400 210/13 RMK AO2
14840KMKG MKG20011115055012111/15/01 05:50:31  5-MIN KMKG 151050Z 20013KT 5SM BR SCT045 OVC065 12/10 A3003 530 86 400 200/13 RMK AO2 SLP171 T01220100
14840KMKG MKG20011115055512811/15/01 05:55:31  5-MIN KMKG 151055Z 20013KT 5SM BR SCT043 BKN070 OVC100 12/10 A3003 530 86 400 200/13 RMK AO2 SLP172 T01220100
14840KMKG MKG20011115060011111/15/01 06:00:31  5-MIN KMKG 151100Z 21013KT 5SM BR FEW045 SCT065 OVC100 12/10 A3003 530 86 400 210/13 RMK AO2
14840KMKG MKG20011115060511111/15/01 06:05:31  5-MIN KMKG 151105Z 20013KT 5SM BR FEW045 SCT065 OVC100 12/10 A3003 530 86 400 210/13 RMK AO2
14840KMKG MKG20011115061010411/15/01 06:10:31  5-MIN KMKG 151110Z 21013KT 5SM BR FEW045 OVC100 12/10 A3003 530 86 400 210/13 RMK AO2
14840KMKG MKG20011115061510411/15/01 06:15:31  5-MIN KMKG 151115Z 21013KT 5SM BR FEW070 OVC100 12/10 A3003 530 86 400 210/13 RMK AO2
14840KMKG MKG20011115062009711/15/01 06:20:31  5-MIN KMKG 151120Z 21014KT 4SM BR BKN100 12/10 A3003 530 86 400 210/14 RMK AO2
14840KMKG MKG20011115062509711/15/01 06:25:31  5-MIN KMKG 151125Z 20011KT 4SM BR BKN100 12/10 A3003 530 89 300 210/11 RMK AO2
14840KMKG MKG20011115063010411/15/01 06:30:31  5-MIN KMKG 151130Z 21011KT 4SM BR FEW041 BKN100 12/10 A3003 530 89 300 220/11 RMK AO2
14840KMKG MKG20011115063511911/15/01 06:35:31  5-MIN KMKG 151135Z 20012KT 4SM BR FEW041 BKN100 12/10 A3004 520 89 300 210/12 RMK AO2 CIG 042 RWY 14
14840KMKG MKG20011115064012611/15/01 06:40:31  5-MIN KMKG 151140Z 20011KT 4SM BR SCT036 SCT043 BKN100 12/10 A3003 520 89 300 210/11 RMK AO2 CIG 045 RWY 14
14840KMKG MKG20011115064511111/15/01 06:45:31  5-MIN KMKG 151145Z 20010KT 4SM BR BKN036 BKN043 BKN100 12/10 A3004 520 89 300 210/10 RMK AO2
14840KMKG MKG20011115065015811/15/01 06:50:31  5-MIN KMKG 151150Z 20010KT 4SM BR BKN036 BKN043 BKN100 12/10 A3003 530 89 300 210/10 RMK AO2 SLP172 60003 70053 T01170100 10128 20117 56013
14840KMKG MKG20011115065514411/15/01 06:55:31  5-MIN KMKG 151155Z 21012KT 4SM BR BKN038 12/10 A3003 530 86 400 210/12 RMK AO2 SLP172 60003 70053 T01220100 10128 20117 56004
14840KMKG MKG20011115070009711/15/01 07:00:31  5-MIN KMKG 151200Z 20013KT 4SM BR OVC038 12/10 A3003 520 86 400 210/13 RMK AO2
14840KMKG MKG20011115070509711/15/01 07:05:31  5-MIN KMKG 151205Z 21012KT 4SM BR OVC038 12/10 A3004 520 86 400 210/12 RMK AO2
14840KMKG MKG20011115071009711/15/01 07:10:31  5-MIN KMKG 151210Z 21011KT 4SM BR OVC038 12/10 A3003 530 86 400 220/11 RMK AO2
14840KMKG MKG20011115071509711/15/01 07:15:31  5-MIN KMKG 151215Z 21011KT 4SM BR OVC038 12/10 A3004 520 86 400 210/11 RMK AO2
14840KMKG MKG20011115072009711/15/01 07:20:31  5-MIN KMKG 151220Z 21012KT 4SM BR OVC040 12/10 A3004 520 86 400 210/12 RMK AO2
14840KMKG MKG20011115072509711/15/01 07:25:31  5-MIN KMKG 151225Z 21012KT 4SM BR OVC040 12/10 A3003 530 86 400 210/12 RMK AO2
14840KMKG MKG20011115073009711/15/01 07:30:31  5-MIN KMKG 151230Z 22011KT 4SM BR OVC040 12/10 A3004 520 86 400 220/11 RMK AO2
14840KMKG MKG20011115073509711/15/01 07:35:31  5-MIN KMKG 151235Z 21012KT 4SM BR OVC042 12/10 A3004 520 89 300 210/12 RMK AO2
14840KMKG MKG20011115074009711/15/01 07:40:31  5-MIN KMKG 151240Z 21011KT 4SM BR OVC042 12/11 A3004 520 93 300 210/11 RMK AO2
14840KMKG MKG20011115074509711/15/01 07:45:31  5-MIN KMKG 151245Z 21012KT 4SM BR OVC042 12/10 A3004 520 89 300 210/12 RMK AO2
14840KMKG MKG20011115075011411/15/01 07:50:31  5-MIN KMKG 151250Z 21010KT 3SM BR OVC042 12/10 A3004 520 89 300 210/10 RMK AO2 SLP174 T01170100
14840KMKG MKG20011115075511411/15/01 07:55:31  5-MIN KMKG 151255Z 21012KT 3SM BR OVC042 12/11 A3004 520 93 300 220/12 RMK AO2 SLP174 T01170106
14840KMKG MKG20011115080009711/15/01 08:00:31  5-MIN KMKG 151300Z 21012KT 3SM BR OVC042 12/11 A3004 520 93 300 220/12 RMK AO2
14840KMKG MKG20011115080509711/15/01 08:05:31  5-MIN KMKG 151305Z 21012KT 3SM BR OVC040 12/11 A3004 520 89 300 210/12 RMK AO2
14840KMKG MKG20011115081010411/15/01 08:10:31  5-MIN KMKG 151310Z 21011KT 3SM BR BKN034 OVC042 12/11 A3005 510 89 300 220/11 RMK AO2
14840KMKG MKG20011115081510411/15/01 08:15:31  5-MIN KMKG 151315Z 21011KT 3SM BR BKN034 OVC042 12/11 A3005 510 89 300 210/11 RMK AO2
14840KMKG MKG20011115082010411/15/01 08:20:31  5-MIN KMKG 151320Z 21011KT 3SM BR BKN034 OVC042 12/11 A3005 510 89 300 210/11 RMK AO2
14840KMKG MKG20011115082510411/15/01 08:25:31  5-MIN KMKG 151325Z 21011KT 3SM BR BKN034 OVC042 12/11 A3005 510 89 300 210/11 RMK AO2
14840KMKG MKG20011115083011111/15/01 08:30:31  5-MIN KMKG 151330Z 21012KT 3SM BR BKN034 BKN044 OVC055 12/11 A3005 510 89 300 210/12 RMK AO2
14840KMKG MKG20011115083511111/15/01 08:35:31  5-MIN KMKG 151335Z 21010KT 3SM BR BKN034 BKN044 OVC050 12/11 A3004 520 89 300 210/10 RMK AO2
14840KMKG MKG20011115084010411/15/01 08:40:31  5-MIN KMKG 151340Z 21012KT 3SM BR SCT034 OVC044 12/11 A3005 510 89 300 210/12 RMK AO2
14840KMKG MKG20011115084510411/15/01 08:45:31  5-MIN KMKG 151345Z 21011KT 3SM BR SCT038 OVC046 12/11 A3005 510 89 300 210/11 RMK AO2
14840KMKG MKG20011115085012711/15/01 08:50:31  5-MIN KMKG 151350Z 21013G19KT 3SM BR FEW038 OVC046 12/11 A3005 510 89 300 220/13G19 RMK AO2 SLP177 T01220106
14840KMKG MKG20011115085511411/15/01 08:55:31  5-MIN KMKG 151355Z 21015KT 3SM BR OVC046 12/11 A3005 510 89 300 210/15 RMK AO2 SLP177 T01220106
14840KMKG MKG20011115090011111/15/01 09:00:31  5-MIN KMKG 151400Z 21013KT 3SM BR BKN046 BKN055 OVC070 12/11 A3005 510 89 300 220/13 RMK AO2
14840KMKG MKG20011115090511111/15/01 09:05:31  5-MIN KMKG 151405Z 21013KT 3SM BR SCT046 BKN055 BKN075 12/11 A3005 510 89 300 210/13 RMK AO2
14840KMKG MKG20011115091010411/15/01 09:10:31  5-MIN KMKG 151410Z 21013KT 3SM BR SCT046 BKN055 12/11 A3005 510 89 300 210/13 RMK AO2
14840KMKG MKG20011115091511111/15/01 09:15:31  5-MIN KMKG 151415Z 21012KT 3SM BR FEW046 BKN055 BKN075 12/11 A3005 520 89 300 210/12 RMK AO2
14840KMKG MKG20011115092011111/15/01 09:20:31  5-MIN KMKG 151420Z 21013KT 3SM BR FEW048 BKN060 BKN075 12/11 A3005 510 89 300 210/13 RMK AO2
14840KMKG MKG20011115092509711/15/01 09:25:31  5-MIN KMKG 151425Z 21012KT 3SM BR BKN060 12/11 A3004 520 89 400 210/12 RMK AO2
14840KMKG MKG20011115093009711/15/01 09:30:31  5-MIN KMKG 151430Z 21013KT 3SM BR BKN060 13/11 A3004 520 86 400 220/13 RMK AO2
14840KMKG MKG20011115093509711/15/01 09:35:31  5-MIN KMKG 151435Z 21014KT 3SM BR BKN060 13/11 A3004 520 86 400 220/14 RMK AO2
14840KMKG MKG20011115094011411/15/01 09:40:31  5-MIN KMKG 151440Z 21013KT 3SM BR BKN060 13/11 A3004 520 89 400 220/13 RMK AO2 VIS 1 1/4 RWY 14
14840KMKG MKG20011115094511411/15/01 09:45:31  5-MIN KMKG 151445Z 22013KT 3SM BR BKN065 13/11 A3004 520 89 400 220/13 RMK AO2 VIS 1 1/4 RWY 14
14840KMKG MKG20011115095012011/15/01 09:50:31  5-MIN KMKG 151450Z 21016KT 3SM BR BKN060 13/11 A3004 520 89 400 220/16 RMK AO2 SLP174 T01280111 56004
14840KMKG MKG20011115095512611/15/01 09:55:31  5-MIN KMKG 151455Z 22011G19KT 3SM BR BKN065 13/11 A3004 520 89 400 220/11G19 RMK AO2 SLP175 T01280111 50002
14840KMKG MKG20011115100009711/15/01 10:00:31  5-MIN KMKG 151500Z 22014KT 3SM BR BKN060 13/11 A3004 520 89 400 220/14 RMK AO2
14840KMKG MKG20011115100509711/15/01 10:05:31  5-MIN KMKG 151505Z 21013KT 3SM BR OVC060 13/11 A3004 520 89 400 220/13 RMK AO2
14840KMKG MKG20011115101009711/15/01 10:10:31  5-MIN KMKG 151510Z 22014KT 3SM BR OVC060 13/11 A3004 520 89 400 230/14 RMK AO2
14840KMKG MKG20011115101510311/15/01 10:15:31  5-MIN KMKG 151515Z 22015G20KT 3SM BR OVC060 13/11 A3004 520 89 400 220/15G20 RMK AO2
14840KMKG MKG20011115102010311/15/01 10:20:31  5-MIN KMKG 151520Z 22013G20KT 3SM BR OVC060 13/11 A3004 520 89 400 220/13G20 RMK AO2
14840KMKG MKG20011115102509711/15/01 10:25:31  5-MIN KMKG 151525Z 22013KT 3SM BR BKN060 13/11 A3004 520 89 400 230/13 RMK AO2
14840KMKG MKG20011115103009711/15/01 10:30:31  5-MIN KMKG 151530Z 22012KT 3SM BR BKN060 13/11 A3004 520 89 400 230/12 RMK AO2
14840KMKG MKG20011115103510411/15/01 10:35:31  5-MIN KMKG 151535Z 22014KT 3SM BR BKN060 BKN080 13/11 A3004 520 86 500 220/14 RMK AO2
14840KMKG MKG20011115104010411/15/01 10:40:31  5-MIN KMKG 151540Z 22012KT 3SM BR BKN065 BKN080 13/11 A3004 520 89 400 220/12 RMK AO2
14840KMKG MKG20011115104509711/15/01 10:45:31  5-MIN KMKG 151545Z 22013KT 3SM BR BKN065 13/11 A3004 520 86 500 230/13 RMK AO2
14840KMKG MKG20011115105011411/15/01 10:50:31  5-MIN KMKG 151550Z 23014KT 3SM BR BKN065 13/11 A3004 520 86 500 230/14 RMK AO2 SLP175 T01330111
14840KMKG MKG20011115105512711/15/01 10:55:31  5-MIN KMKG 151555Z 23012G19KT 3SM BR SCT060 BKN070 13/11 A3005 510 86 500 230/12G19 RMK AO2 SLP175 T01330111
14840KMKG MKG20011115110011111/15/01 11:00:31  5-MIN KMKG 151600Z 22013KT 3SM BR FEW021 BKN060 BKN070 13/11 A3005 510 86 500 230/13 RMK AO2
14840KMKG MKG20011115110511911/15/01 11:05:31  5-MIN KMKG 151605Z 22012KT 3SM BR SCT021 BKN065 13/11 A3005 510 86 500 230/12 RMK AO2 CIG 021 RWY 14
14840KMKG MKG20011115111010411/15/01 11:10:31  5-MIN KMKG 151610Z 22013KT 3SM BR SCT019 SCT060 13/11 A3005 510 86 500 230/13 RMK AO2
14840KMKG MKG20011115111510411/15/01 11:15:31  5-MIN KMKG 151615Z 22014KT 3SM BR BKN019 BKN060 13/11 A3004 520 89 400 220/14 RMK AO2
14840KMKG MKG20011115112011111/15/01 11:20:31  5-MIN KMKG 151620Z 22013KT 3SM BR BKN016 BKN021 BKN060 13/11 A3004 520 86 500 230/13 RMK AO2
14840KMKG MKG20011115112510411/15/01 11:25:31  5-MIN KMKG 151625Z 22012KT 3SM BR BKN016 BKN021 13/11 A3004 520 86 500 230/12 RMK AO2
14840KMKG MKG20011115113009711/15/01 11:30:31  5-MIN KMKG 151630Z 22013KT 3SM BR BKN016 13/11 A3003 520 86 500 220/13 RMK AO2
14840KMKG MKG20011115113509711/15/01 11:35:31  5-MIN KMKG 151635Z 22011KT 3SM BR BKN016 13/11 A3003 530 86 500 230/11 RMK AO2
14840KMKG MKG20011115114010411/15/01 11:40:31  5-MIN KMKG 151640Z 22014KT 3SM BR BKN016 BKN050 13/12 A3003 530 89 500 220/14 RMK AO2
14840KMKG MKG20011115114510411/15/01 11:45:31  5-MIN KMKG 151645Z 22012KT 3SM BR BKN016 BKN050 13/11 A3003 530 86 500 230/12 RMK AO2
14840KMKG MKG20011115115011411/15/01 11:50:31  5-MIN KMKG 151650Z 23012KT 3SM BR BKN014 13/11 A3003 530 86 500 230/12 RMK AO2 SLP170 T01330111
14840KMKG MKG20011115115511411/15/01 11:55:31  5-MIN KMKG 151655Z 22013KT 3SM BR BKN014 13/11 A3003 530 86 500 230/13 RMK AO2 SLP170 T01330111
14840KMKG MKG20011115120009711/15/01 12:00:31  5-MIN KMKG 151700Z 22012KT 3SM BR BKN014 13/11 A3003 530 89 400 230/12 RMK AO2
14840KMKG MKG20011115120509711/15/01 12:05:31  5-MIN KMKG 151705Z 22012KT 3SM BR BKN014 13/11 A3003 530 89 400 230/12 RMK AO2
14840KMKG MKG20011115121009711/15/01 12:10:31  5-MIN KMKG 151710Z 22011KT 3SM BR OVC014 13/11 A3003 530 89 400 230/11 RMK AO2
14840KMKG MKG20011115121509711/15/01 12:15:31  5-MIN KMKG 151715Z 22011KT 3SM BR OVC014 13/11 A3002 540 89 400 220/11 RMK AO2
14840KMKG MKG20011115122010111/15/01 12:20:31  5-MIN KMKG 151720Z 22011KT 2 1/2SM BR OVC014 13/11 A3003 530 89 400 230/11 RMK AO2
14840KMKG MKG20011115122510111/15/01 12:25:31  5-MIN KMKG 151725Z 23012KT 2 1/2SM BR OVC014 13/11 A3002 540 89 400 230/12 RMK AO2
14840KMKG MKG20011115123010111/15/01 12:30:31  5-MIN KMKG 151730Z 22011KT 2 1/2SM BR OVC012 12/11 A3002 540 93 400 220/11 RMK AO2
14840KMKG MKG20011115123510111/15/01 12:35:31  5-MIN KMKG 151735Z 23012KT 2 1/2SM BR OVC012 13/11 A3002 540 89 400 230/12 RMK AO2
14840KMKG MKG20011115124010111/15/01 12:40:31  5-MIN KMKG 151740Z 22010KT 2 1/2SM BR OVC012 13/11 A3002 540 89 400 230/10 RMK AO2
14840KMKG MKG20011115124510111/15/01 12:45:31  5-MIN KMKG 151745Z 22012KT 2 1/2SM BR OVC012 13/11 A3002 540 89 400 230/12 RMK AO2
14840KMKG MKG20011115125014811/15/01 12:50:31  5-MIN KMKG 151750Z 22012KT 2 1/2SM BR OVC010 13/11 A3001 540 89 400 230/12 RMK AO2 CIG 008V013 SLP165 T01280111 10133 20117 50002
14840KMKG MKG20011115125513611/15/01 12:55:31  5-MIN KMKG 151755Z 22011KT 2 1/2SM BR OVC010 13/11 A3001 550 89 500 220/11 RMK AO2 SLP164 T01280111 10133 20117 58010
14840KMKG MKG20011115130010111/15/01 13:00:31  5-MIN KMKG 151800Z 22009KT 2 1/2SM BR OVC010 13/12 A3001 550 93 500 220/09 RMK AO2
14840KMKG MKG20011115130510111/15/01 13:05:31  5-MIN KMKG 151805Z 22011KT 2 1/2SM BR OVC010 13/11 A3001 550 89 500 220/11 RMK AO2
14840KMKG MKG20011115131010111/15/01 13:10:31  5-MIN KMKG 151810Z 22012KT 2 1/2SM BR OVC010 12/11 A3001 550 93 400 220/12 RMK AO2
14840KMKG MKG20011115131510111/15/01 13:15:31  5-MIN KMKG 151815Z 22009KT 2 1/2SM BR OVC010 13/11 A3001 550 89 500 220/09 RMK AO2
14840KMKG MKG20011115132010111/15/01 13:20:31  5-MIN KMKG 151820Z 22012KT 2 1/2SM BR OVC010 13/11 A3000 550 89 500 220/12 RMK AO2
14840KMKG MKG20011115132510111/15/01 13:25:31  5-MIN KMKG 151825Z 22011KT 2 1/2SM BR OVC010 12/11 A3000 560 93 400 220/11 RMK AO2
14840KMKG MKG20011115133010111/15/01 13:30:31  5-MIN KMKG 151830Z 22012KT 2 1/2SM BR OVC012 13/11 A3000 560 89 500 230/12 RMK AO2
14840KMKG MKG20011115133510111/15/01 13:35:31  5-MIN KMKG 151835Z 22011KT 2 1/2SM BR OVC012 13/11 A3000 560 89 500 220/11 RMK AO2
14840KMKG MKG20011115134010111/15/01 13:40:31  5-MIN KMKG 151840Z 21010KT 2 1/2SM BR OVC012 13/11 A3000 560 89 500 220/10 RMK AO2
14840KMKG MKG20011115134510111/15/01 13:45:31  5-MIN KMKG 151845Z 22011KT 2 1/2SM BR OVC012 13/11 A3000 560 89 500 220/11 RMK AO2
14840KMKG MKG20011115135011811/15/01 13:50:31  5-MIN KMKG 151850Z 21011KT 2 1/2SM BR OVC012 13/11 A3000 560 89 500 210/11 RMK AO2 SLP160 T01280111
14840KMKG MKG20011115135511811/15/01 13:55:31  5-MIN KMKG 151855Z 22011KT 2 1/2SM BR OVC012 13/11 A3000 560 89 500 220/11 RMK AO2 SLP159 T01280111
14840KMKG MKG20011115140010111/15/01 14:00:31  5-MIN KMKG 151900Z 22011KT 2 1/2SM BR OVC012 13/11 A2999 560 89 500 230/11 RMK AO2
14840KMKG MKG20011115140510111/15/01 14:05:31  5-MIN KMKG 151905Z 22011KT 2 1/2SM BR OVC012 13/12 A2999 560 93 500 230/11 RMK AO2
14840KMKG MKG20011115141010111/15/01 14:10:31  5-MIN KMKG 151910Z 22011KT 2 1/2SM BR OVC012 13/12 A2999 560 93 500 220/11 RMK AO2
14840KMKG MKG20011115141510111/15/01 14:15:31  5-MIN KMKG 151915Z 21011KT 2 1/2SM BR OVC014 13/12 A2999 570 93 500 210/11 RMK AO2
14840KMKG MKG20011115142010111/15/01 14:20:31  5-MIN KMKG 151920Z 21009KT 2 1/2SM BR OVC014 13/12 A2998 570 93 500 210/09 RMK AO2
14840KMKG MKG20011115142510111/15/01 14:25:31  5-MIN KMKG 151925Z 21009KT 2 1/2SM BR OVC014 13/12 A2998 570 93 500 210/09 RMK AO2
14840KMKG MKG20011115143010111/15/01 14:30:31  5-MIN KMKG 151930Z 21010KT 2 1/2SM BR OVC014 13/12 A2998 570 93 500 210/10 RMK AO2
14840KMKG MKG20011115143510111/15/01 14:35:31  5-MIN KMKG 151935Z 20011KT 2 1/2SM BR OVC016 13/12 A2998 570 93 500 200/11 RMK AO2
14840KMKG MKG20011115144010811/15/01 14:40:31  5-MIN KMKG 151940Z 20010KT 2 1/2SM BR BKN016 OVC023 13/12 A2998 580 93 500 210/10 RMK AO2
14840KMKG MKG20011115144510811/15/01 14:45:31  5-MIN KMKG 151945Z 20010KT 2 1/2SM BR BKN016 OVC023 13/12 A2998 580 89 600 210/10 RMK AO2
14840KMKG MKG20011115145012511/15/01 14:50:31  5-MIN KMKG 151950Z 21008KT 2 1/2SM BR SCT018 OVC023 13/12 A2998 570 89 600 210/08 RMK AO2 SLP154 T01330117
14840KMKG MKG20011115145512511/15/01 14:55:31  5-MIN KMKG 151955Z 21009KT 2 1/2SM BR BKN020 OVC025 13/12 A2998 580 89 600 210/09 RMK AO2 SLP153 T01330117
14840KMKG MKG20011115150010811/15/01 15:00:31  5-MIN KMKG 152000Z 21010KT 2 1/2SM BR BKN020 OVC025 13/12 A2998 580 89 600 220/10 RMK AO2
14840KMKG MKG20011115150510811/15/01 15:05:31  5-MIN KMKG 152005Z 21010KT 2 1/2SM BR BKN018 OVC024 13/12 A2998 580 89 600 220/10 RMK AO2
14840KMKG MKG20011115151010811/15/01 15:10:31  5-MIN KMKG 152010Z 21010KT 2 1/2SM BR BKN018 OVC024 13/12 A2997 580 89 600 210/10 RMK AO2
14840KMKG MKG20011115151510811/15/01 15:15:31  5-MIN KMKG 152015Z 21010KT 2 1/2SM BR BKN020 OVC025 13/12 A2997 580 89 600 210/10 RMK AO2
14840KMKG MKG20011115152010811/15/01 15:20:31  5-MIN KMKG 152020Z 20011KT 2 1/2SM BR BKN020 OVC027 13/12 A2997 580 89 600 210/11 RMK AO2
14840KMKG MKG20011115152510811/15/01 15:25:31  5-MIN KMKG 152025Z 20011KT 2 1/2SM BR BKN020 OVC027 13/12 A2997 580 89 600 210/11 RMK AO2
14840KMKG MKG20011115153010811/15/01 15:30:31  5-MIN KMKG 152030Z 20009KT 2 1/2SM BR BKN020 OVC027 13/12 A2997 580 89 600 210/09 RMK AO2
14840KMKG MKG20011115153510811/15/01 15:35:31  5-MIN KMKG 152035Z 20010KT 2 1/2SM BR SCT020 OVC027 13/12 A2997 580 89 600 200/10 RMK AO2
14840KMKG MKG20011115154010811/15/01 15:40:31  5-MIN KMKG 152040Z 21010KT 2 1/2SM BR FEW020 OVC027 13/12 A2997 580 89 600 210/10 RMK AO2
14840KMKG MKG20011115154510811/15/01 15:45:31  5-MIN KMKG 152045Z 20009KT 2 1/2SM BR FEW020 BKN027 13/12 A2997 580 89 600 210/09 RMK AO2
14840KMKG MKG20011115155013111/15/01 15:50:31  5-MIN KMKG 152050Z 21009KT 2 1/2SM BR FEW020 BKN025 13/12 A2997 590 89 600 210/09 RMK AO2 SLP149 T01330117 58010
14840KMKG MKG20011115155512411/15/01 15:55:31  5-MIN KMKG 152055Z 20009KT 2 1/2SM BR BKN025 13/12 A2997 590 89 600 210/09 RMK AO2 SLP149 T01330117 56014
14840KMKG MKG20011115160010111/15/01 16:00:31  5-MIN KMKG 152100Z 21010KT 2 1/2SM BR SCT025 13/12 A2997 580 89 600 210/10 RMK AO2
14840KMKG MKG20011115160510111/15/01 16:05:31  5-MIN KMKG 152105Z 20011KT 2 1/2SM BR SCT025 13/12 A2997 590 89 600 210/11 RMK AO2
14840KMKG MKG20011115161010111/15/01 16:10:31  5-MIN KMKG 152110Z 20011KT 2 1/2SM BR FEW025 13/12 A2997 580 89 600 200/11 RMK AO2
14840KMKG MKG20011115161510111/15/01 16:15:31  5-MIN KMKG 152115Z 20009KT 2 1/2SM BR FEW025 13/12 A2997 590 89 600 200/09 RMK AO2
14840KMKG MKG20011115162009711/15/01 16:20:31  5-MIN KMKG 152120Z 20010KT 2SM BR FEW022 13/12 A2997 580 93 500 210/10 RMK AO2
14840KMKG MKG20011115162509711/15/01 16:25:31  5-MIN KMKG 152125Z 21009KT 2SM BR SCT020 13/12 A2998 580 93 600 220/09 RMK AO2
14840KMKG MKG20011115163009711/15/01 16:30:31  5-MIN KMKG 152130Z 21009KT 2SM BR BKN020 13/12 A2998 580 93 600 210/09 RMK AO2
14840KMKG MKG20011115163510111/15/01 16:35:31  5-MIN KMKG 152135Z 21010KT 2 1/2SM BR SCT020 13/12 A2998 580 93 600 210/10 RMK AO2
14840KMKG MKG20011115164009711/15/01 16:40:31  5-MIN KMKG 152140Z 21009KT 2SM BR SCT020 13/12 A2998 580 93 500 210/09 RMK AO2
14840KMKG MKG20011115164509711/15/01 16:45:31  5-MIN KMKG 152145Z 21010KT 2SM BR SCT020 13/12 A2998 570 93 500 210/10 RMK AO2
14840KMKG MKG20011115165011411/15/01 16:50:31  5-MIN KMKG 152150Z 21011KT 2SM BR FEW020 13/12 A2998 570 93 500 210/11 RMK AO2 SLP155 T01280117
14840KMKG MKG20011115165511411/15/01 16:55:31  5-MIN KMKG 152155Z 20010KT 2SM BR FEW020 13/12 A2998 570 93 500 210/10 RMK AO2 SLP155 T01280117
14840KMKG MKG20011115170009411/15/01 17:00:31  5-MIN KMKG 152200Z 21011KT 2SM BR CLR 12/12 A2998 570 96 400 210/11 RMK AO2
14840KMKG MKG20011115170509411/15/01 17:05:31  5-MIN KMKG 152205Z 21009KT 2SM BR CLR 12/12 A2999 570 96 400 210/09 RMK AO2
14840KMKG MKG20011115171009811/15/01 17:10:31  5-MIN KMKG 152210Z 20010KT 1 3/4SM BR CLR 12/12 A2999 570 96 400 210/10 RMK AO2
14840KMKG MKG20011115171510111/15/01 17:15:31  5-MIN KMKG 152215Z 21008KT 1 3/4SM BR FEW020 12/12 A2999 570 96 400 210/08 RMK AO2
14840KMKG MKG20011115172010111/15/01 17:20:31  5-MIN KMKG 152220Z 21009KT 1 3/4SM BR FEW020 12/12 A2999 570 96 400 210/09 RMK AO2
14840KMKG MKG20011115172510111/15/01 17:25:31  5-MIN KMKG 152225Z 19008KT 1 3/4SM BR FEW020 12/12 A2999 570 96 400 200/08 RMK AO2
14840KMKG MKG20011115173010111/15/01 17:30:31  5-MIN KMKG 152230Z 20007KT 1 3/4SM BR FEW020 12/12 A2999 560 96 400 200/07 RMK AO2
14840KMKG MKG20011115173510111/15/01 17:35:31  5-MIN KMKG 152235Z 20007KT 1 3/4SM BR FEW020 12/12 A2999 570 96 400 200/07 RMK AO2
14840KMKG MKG20011115174009411/15/01 17:40:31  5-MIN KMKG 152240Z 21007KT 2SM BR CLR 12/12 A2999 570 96 400 210/07 RMK AO2
14840KMKG MKG20011115174509811/15/01 17:45:31  5-MIN KMKG 152245Z 20009KT 2 1/2SM BR CLR 12/12 A2999 560 96 400 200/09 RMK AO2
14840KMKG MKG20011115175011111/15/01 17:50:31  5-MIN KMKG 152250Z 20006KT 3SM BR CLR 12/12 A2999 560 96 400 200/06 RMK AO2 SLP158 T01220117
14840KMKG MKG20011115175511511/15/01 17:55:31  5-MIN KMKG 152255Z 20008KT 2 1/2SM BR CLR 12/12 A2999 560 96 400 210/08 RMK AO2 SLP159 T01220117
14840KMKG MKG20011115180009811/15/01 18:00:31  5-MIN KMKG 152300Z 20009KT 2 1/2SM BR CLR 12/12 A2999 560 96 400 210/09 RMK AO2
14840KMKG MKG20011115180509811/15/01 18:05:31  5-MIN KMKG 152305Z 21008KT 2 1/2SM BR CLR 12/12 A3000 560 96 400 220/08 RMK AO2
14840KMKG MKG20011115181009811/15/01 18:10:31  5-MIN KMKG 152310Z 21009KT 2 1/2SM BR CLR 12/12 A2999 560 96 400 210/09 RMK AO2
14840KMKG MKG20011115181509811/15/01 18:15:31  5-MIN KMKG 152315Z 21009KT 2 1/2SM BR CLR 12/12 A2999 560 96 400 210/09 RMK AO2
14840KMKG MKG20011115182009811/15/01 18:20:31  5-MIN KMKG 152320Z 21008KT 2 1/2SM BR CLR 12/12 A2999 560 96 400 210/08 RMK AO2
14840KMKG MKG20011115182509911/15/01 18:25:31  5-MIN KMKG 152325Z 21007KT 2 1/2SM BR CLR 12/12 A3000 560 100 300 220/07 RMK AO2
14840KMKG MKG20011115183009911/15/01 18:30:31  5-MIN KMKG 152330Z 21008KT 2 1/2SM BR CLR 12/12 A2999 560 100 300 210/08 RMK AO2
14840KMKG MKG20011115183509911/15/01 18:35:31  5-MIN KMKG 152335Z 21008KT 2 1/2SM BR CLR 12/12 A2999 560 100 300 220/08 RMK AO2
14840KMKG MKG20011115184009811/15/01 18:40:31  5-MIN KMKG 152340Z 21008KT 2 1/2SM BR CLR 12/12 A2999 560 96 400 220/08 RMK AO2
14840KMKG MKG20011115184509811/15/01 18:45:31  5-MIN KMKG 152345Z 21008KT 2 1/2SM BR CLR 12/12 A2999 560 96 400 210/08 RMK AO2
14840KMKG MKG20011115185013311/15/01 18:50:31  5-MIN KMKG 152350Z 21007KT 2 1/2SM BR CLR 12/12 A2999 560 96 400 220/07 RMK AO2 SLP158 T01220117 10133 20117 56014
14840KMKG MKG20011115185513311/15/01 18:55:31  5-MIN KMKG 152355Z 22009KT 2 1/2SM BR CLR 12/12 A3000 560 96 400 230/09 RMK AO2 SLP159 T01220117 10133 20117 51009
14840KMKG MKG20011115190009811/15/01 19:00:31  5-MIN KMKG 160000Z 22009KT 2 1/2SM BR CLR 12/12 A3000 560 96 400 230/09 RMK AO2
14840KMKG MKG20011115190509811/15/01 19:05:31  5-MIN KMKG 160005Z 22009KT 2 1/2SM BR CLR 12/12 A3000 560 96 400 220/09 RMK AO2
14840KMKG MKG20011118235015311/18/01 23:50:31  5-MIN KMKG 190450Z 19015G21KT 3SM -RA BR BKN070 OVC085 13/12 A2994 610 89 600 200/15G21 RMK AO2 RAB39 SLP140 P0000 T01330117 401500094
14840KMKG MKG20011118235515211/18/01 23:55:31  5-MIN KMKG 190455Z 19016G21KT 3SM BR BKN070 OVC085 13/12 A2994 610 89 600 190/16G21 RMK AO2 RAB39E52 SLP139 P0000 T01330117 401500094
14840KMKG MKG20011119000009711/19/01 00:00:31  5-MIN KMKG 190500Z 19014KT 3SM BR OVC065 13/12 A2994 610 89 600 200/14 RMK AO2
14840KMKG MKG20011119000509711/19/01 00:05:31  5-MIN KMKG 190505Z 19016KT 3SM BR OVC065 13/12 A2994 620 89 600 200/16 RMK AO2
14840KMKG MKG20011119001009711/19/01 00:10:31  5-MIN KMKG 190510Z 20015KT 3SM BR OVC060 13/12 A2994 620 89 600 200/15 RMK AO2
14840KMKG MKG20011119001510311/19/01 00:15:31  5-MIN KMKG 190515Z 20017G22KT 3SM BR OVC065 13/12 A2993 620 89 600 200/17G22 RMK AO2
14840KMKG MKG20011119002010311/19/01 00:20:31  5-MIN KMKG 190520Z 20013G22KT 3SM BR OVC065 13/12 A2993 620 89 600 200/13G22 RMK AO2
14840KMKG MKG20011119002512611/19/01 00:25:31  5-MIN KMKG 190525Z 20015G22KT 3SM -RA BR BKN065 OVC080 13/12 A2993 620 89 600 200/15G22 RMK AO2 RAB22 P0000
14840KMKG MKG20011119003012611/19/01 00:30:31  5-MIN KMKG 190530Z 19014G22KT 3SM -RA BR FEW055 OVC075 13/12 A2993 620 89 600 200/14G22 RMK AO2 RAB22 P0000
14840KMKG MKG20011119003511311/19/01 00:35:31  5-MIN KMKG 190535Z 20013KT 4SM -RA BR OVC070 13/12 A2993 630 89 600 210/13 RMK AO2 RAB22 P0001
14840KMKG MKG20011119004011311/19/01 00:40:31  5-MIN KMKG 190540Z 20015KT 4SM -RA BR OVC075 13/12 A2992 630 93 500 200/15 RMK AO2 RAB22 P0001
14840KMKG MKG20011119004511311/19/01 00:45:31  5-MIN KMKG 190545Z 20015KT 4SM -RA BR OVC075 13/12 A2992 630 93 600 200/15 RMK AO2 RAB22 P0001
14840KMKG MKG20011119005016711/19/01 00:50:31  5-MIN KMKG 190550Z 20014KT 4SM BR SCT065 BKN080 OVC095 13/12 A2992 630 93 600 200/14 RMK AO2 RAB22E48 SLP132 P0001 60001 T01280117 10150 20128 58013
14840KMKG MKG20011119005516011/19/01 00:55:31  5-MIN KMKG 190555Z 19014KT 4SM BR BKN070 OVC095 13/12 A2992 630 93 600 200/14 RMK AO2 RAB22E48 SLP131 P0001 60001 T01280117 10150 20128 58018
14840KMKG MKG20011119010012011/19/01 01:00:31  5-MIN KMKG 190600Z 20013KT 4SM -RA BR BKN070 OVC080 13/12 A2991 640 89 600 200/13 RMK AO2 RAB00 P0000
14840KMKG MKG20011119010511311/19/01 01:05:31  5-MIN KMKG 190605Z 19013KT 4SM -RA BR OVC070 13/11 A2991 640 86 600 190/13 RMK AO2 RAB00 P0000
14840KMKG MKG20011119011012711/19/01 01:10:31  5-MIN KMKG 190610Z 19015KT 4SM -RA BR FEW055 BKN070 OVC100 13/11 A2991 640 86 600 200/15 RMK AO2 RAB00 P0000
14840KMKG MKG20011119011512011/19/01 01:15:31  5-MIN KMKG 190615Z 20015KT 4SM -RA BR BKN060 OVC075 13/12 A2991 640 89 600 200/15 RMK AO2 RAB00 P0000
14840KMKG MKG20011119012011911/19/01 01:20:31  5-MIN KMKG 190620Z 19016G21KT 4SM -RA BR OVC065 13/12 A2990 650 89 600 190/16G21 RMK AO2 RAB00 P0000
14840KMKG MKG20011119012512611/19/01 01:25:31  5-MIN KMKG 190625Z 19016G21KT 4SM -RA BR FEW050 OVC065 13/12 A2990 650 93 600 200/16G21 RMK AO2 RAB00 P0000
14840KMKG MKG20011119013011811/19/01 01:30:31  5-MIN KMKG 190630Z 19013G21KT 4SM BR OVC060 13/12 A2990 650 93 600 200/13G21 RMK AO2 RAB00E29 P0000
14840KMKG MKG20011119013511811/19/01 01:35:31  5-MIN KMKG 190635Z 19016G20KT 3SM BR OVC060 13/12 A2990 650 93 600 200/16G20 RMK AO2 RAB00E29 P0000
14840KMKG MKG20011119014012011/19/01 01:40:31  5-MIN KMKG 190640Z 20016KT 3SM -RA BR FEW048 OVC060 13/12 A2989 650 93 600 200/16 RMK AO2 RAB00 P0000
14840KMKG MKG20011119014512711/19/01 01:45:31  5-MIN KMKG 190645Z 19014KT 3SM -RA BR FEW027 SCT043 OVC060 13/12 A2989 660 93 600 200/14 RMK AO2 RAB00 P0000
14840KMKG MKG20011119015015011/19/01 01:50:31  5-MIN KMKG 190650Z 19016G21KT 3SM -RA BR FEW026 BKN042 OVC060 12/12 A2989 660 96 500 200/16G21 RMK AO2 RAB00 SLP123 P0001 T01220117
14840KMKG MKG20011119015515011/19/01 01:55:31  5-MIN KMKG 190655Z 20017G21KT 3SM -RA BR SCT028 BKN032 OVC060 12/12 A2989 660 96 500 200/17G21 RMK AO2 RAB00 SLP122 P0001 T01220117
14840KMKG MKG20011119020013111/19/01 02:00:31  5-MIN KMKG 190700Z 20015G21KT 2 1/2SM -RA BR FEW027 BKN035 OVC048 12/12 A2989 660 96 500 200/15G21 RMK AO2 P0000
14840KMKG MKG20011119020512711/19/01 02:05:31  5-MIN KMKG 190705Z 20015G21KT 3SM -RA BR FEW028 BKN035 OVC046 12/12 A2988 670 96 500 210/15G21 RMK AO2 P0000
14840KMKG MKG20011119021012011/19/01 02:10:31  5-MIN KMKG 190710Z 21016G21KT 3SM -RA BR FEW028 OVC035 12/12 A2988 670 96 500 210/16G21 RMK AO2 P0000
14840KMKG MKG20011119021511311/19/01 02:15:31  5-MIN KMKG 190715Z 20016G21KT 3SM -RA BR OVC033 12/12 A2988 670 96 500 200/16G21 RMK AO2 P0000
14840KMKG MKG20011119022012011/19/01 02:20:31  5-MIN KMKG 190720Z 20014G20KT 3SM -RA BR BKN033 OVC039 12/12 A2988 670 96 500 200/14G20 RMK AO2 P0000
14840KMKG MKG20011119022510711/19/01 02:25:31  5-MIN KMKG 190725Z 20014KT 3SM -RA BR OVC033 12/12 A2987 670 96 500 200/14 RMK AO2 P0000
14840KMKG MKG20011119023012011/19/01 02:30:31  5-MIN KMKG 190730Z 20013G20KT 3SM -RA BR BKN033 OVC044 12/12 A2987 670 96 500 200/13G20 RMK AO2 P0001
14840KMKG MKG20011119023511811/19/01 02:35:31  5-MIN KMKG 190735Z 20012KT 2 1/2SM -RA BR BKN033 OVC044 12/12 A2987 670 96 500 200/12 RMK AO2 P0001
14840KMKG MKG20011119024012711/19/01 02:40:31  5-MIN KMKG 190740Z 19013G19KT 2SM -RA BR SCT031 BKN038 OVC048 12/12 A2987 680 96 500 190/13G19 RMK AO2 P0001
14840KMKG MKG20011119024513111/19/01 02:45:31  5-MIN KMKG 190745Z 19015G19KT 2 1/2SM -RA BR BKN031 BKN038 OVC050 12/12 A2987 680 96 500 190/15G19 RMK AO2 P0001
14840KMKG MKG20011119025015711/19/01 02:50:31  5-MIN KMKG 190750Z 19016KT 2 1/2SM -RA BR FEW009 BKN042 OVC060 12/12 A2987 680 96 600 190/16 RMK AO2 CIG 032 RWY 14 SLP114 P0001 T01220117
14840KMKG MKG20011119025514211/19/01 02:55:31  5-MIN KMKG 190755Z 19013KT 2 1/2SM -RA BR FEW009 BKN048 OVC060 12/12 A2986 680 96 600 200/13 RMK AO2 SLP113 P0002 T01220117
14840KMKG MKG20011119030013111/19/01 03:00:31  5-MIN KMKG 190800Z 19013G20KT 2 1/2SM -RA BR SCT036 BKN048 OVC060 12/12 A2986 680 96 600 190/13G20 RMK AO2 P0000
14840KMKG MKG20011119030513111/19/01 03:05:31  5-MIN KMKG 190805Z 19016G21KT 2 1/2SM -RA BR FEW030 SCT039 OVC060 12/12 A2986 690 96 600 190/16G21 RMK AO2 P0001
14840KMKG MKG20011119031012411/19/01 03:10:31  5-MIN KMKG 190810Z 19013G21KT 2 1/2SM -RA BR FEW030 OVC060 12/12 A2986 690 96 600 190/13G21 RMK AO2 P0001
14840KMKG MKG20011119031512411/19/01 03:15:31  5-MIN KMKG 190815Z 19011G19KT 2 1/2SM -RA BR FEW040 OVC060 12/12 A2986 690 96 600 190/11G19 RMK AO2 P0001
14840KMKG MKG20011119032012011/19/01 03:20:31  5-MIN KMKG 190820Z 19012KT 2 1/2SM BR FEW040 OVC055 12/12 A2985 690 96 600 190/12 RMK AO2 RAE20 P0001
14840KMKG MKG20011119032511611/19/01 03:25:31  5-MIN KMKG 190825Z 19013KT 3SM BR FEW043 OVC055 12/12 A2985 690 96 600 200/13 RMK AO2 RAE20 P0001
14840KMKG MKG20011119033010911/19/01 03:30:31  5-MIN KMKG 190830Z 19011KT 3SM BR OVC055 12/12 A2985 700 96 600 190/11 RMK AO2 RAE20 P0001
14840KMKG MKG20011119033510911/19/01 03:35:31  5-MIN KMKG 190835Z 19012KT 3SM BR OVC050 12/12 A2984 700 96 600 200/12 RMK AO2 RAE20 P0001
14840KMKG MKG20011119034012011/19/01 03:40:31  5-MIN KMKG 190840Z 19012KT 2 1/2SM BR BKN050 OVC055 12/11 A2984 700 93 600 200/12 RMK AO2 RAE20 P0001
14840KMKG MKG20011119034512711/19/01 03:45:31  5-MIN KMKG 190845Z 19012KT 2 1/2SM -RA BR BKN047 OVC055 12/11 A2984 700 96 500 200/12 RMK AO2 RAE20B43 P0001
14840KMKG MKG20011119035015111/19/01 03:50:31  5-MIN KMKG 190850Z 19014G19KT 3SM -RA BR OVC047 12/11 A2984 700 93 600 200/14G19 RMK AO2 RAE20B43 SLP105 P0001 60004 T01220111 58018
14840KMKG MKG20011119035515011/19/01 03:55:31  5-MIN KMKG 190855Z 19012G19KT 3SM BR OVC045 12/11 A2984 710 96 500 200/12G19 RMK AO2 RAE20B43E53 SLP105 P0001 60004 T01170111 56026
14840KMKG MKG20011119040011411/19/01 04:00:31  5-MIN KMKG 190900Z 20012G19KT 2 1/2SM BR BKN045 OVC085 12/11 A2983 710 96 500 200/12G19 RMK AO2
14840KMKG MKG20011119040511511/19/01 04:05:31  5-MIN KMKG 190905Z 20015KT 2 1/2SM BR SCT038 BKN045 OVC085 12/11 A2983 710 96 500 200/15 RMK AO2
14840KMKG MKG20011119041011511/19/01 04:10:31  5-MIN KMKG 190910Z 19014KT 2 1/2SM BR SCT035 BKN043 OVC085 12/11 A2983 710 96 500 200/14 RMK AO2
14840KMKG MKG20011119041510411/19/01 04:15:31  5-MIN KMKG 190915Z 20014KT 3SM BR BKN035 OVC043 12/11 A2983 720 96 500 200/14 RMK AO2
14840KMKG MKG20011119042010411/19/01 04:20:31  5-MIN KMKG 190920Z 20015KT 3SM BR BKN032 OVC043 12/11 A2982 720 96 500 200/15 RMK AO2
14840KMKG MKG20011119042510411/19/01 04:25:31  5-MIN KMKG 190925Z 20014KT 3SM BR BKN032 OVC041 12/11 A2982 720 96 500 210/14 RMK AO2
14840KMKG MKG20011119043009711/19/01 04:30:31  5-MIN KMKG 190930Z 20014KT 3SM BR OVC032 12/11 A2982 720 96 500 210/14 RMK AO2
14840KMKG MKG20011119043511011/19/01 04:35:31  5-MIN KMKG 190935Z 21013G20KT 3SM BR BKN030 OVC035 12/11 A2982 720 96 500 210/13G20 RMK AO2
14840KMKG MKG20011119044011011/19/01 04:40:31  5-MIN KMKG 190940Z 20015G20KT 3SM BR BKN027 OVC033 12/11 A2982 720 96 500 210/15G20 RMK AO2
14840KMKG MKG20011119044509711/19/01 04:45:31  5-MIN KMKG 190945Z 20015KT 3SM BR OVC029 12/11 A2982 730 96 500 200/15 RMK AO2
14840KMKG MKG20011119045012111/19/01 04:50:31  5-MIN KMKG 190950Z 21015KT 3SM BR BKN027 OVC037 12/11 A2982 730 93 600 210/15 RMK AO2 SLP097 T01220111
14840KMKG MKG20011119045512811/19/01 04:55:31  5-MIN KMKG 190955Z 20014KT 3SM BR FEW022 BKN027 OVC039 12/11 A2982 730 93 600 210/14 RMK AO2 SLP098 T01220111
14840KMKG MKG20011119050010411/19/01 05:00:31  5-MIN KMKG 191000Z 21014KT 3SM BR SCT022 OVC027 12/11 A2981 730 93 600 210/14 RMK AO2
14840KMKG MKG20011119050511111/19/01 05:05:31  5-MIN KMKG 191005Z 20014KT 3SM BR FEW019 BKN025 OVC033 12/11 A2981 730 96 500 210/14 RMK AO2
14840KMKG MKG20011119051012011/19/01 05:10:31  5-MIN KMKG 191010Z 21014KT 3SM -RA BR FEW019 OVC025 12/11 A2981 730 93 600 210/14 RMK AO2 RAB09 P0000
14840KMKG MKG20011119051512611/19/01 05:15:31  5-MIN KMKG 191015Z 21016G21KT 4SM -RA BR BKN021 OVC027 12/11 A2981 730 96 500 210/16G21 RMK AO2 RAB09 P0000
14840KMKG MKG20011119052013211/19/01 05:20:31  5-MIN KMKG 191020Z 21014G21KT 4SM BR FEW015 BKN021 OVC025 12/11 A2981 740 93 600 220/14G21 RMK AO2 RAB09E19 P0000
14840KMKG MKG20011119052512611/19/01 05:25:31  5-MIN KMKG 191025Z 21016G20KT 4SM -RA BR BKN018 OVC025 12/11 A2981 740 96 600 220/16G20 RMK AO2 RAB09 P0000
14840KMKG MKG20011119053013311/19/01 05:30:31  5-MIN KMKG 191030Z 21013G20KT 4SM -RA BR SCT014 BKN018 OVC025 12/11 A2981 740 96 600 210/13G20 RMK AO2 RAB09 P0000
14840KMKG MKG20011119053512011/19/01 05:35:31  5-MIN KMKG 191035Z 21014KT 3SM -RA BR BKN014 OVC018 12/11 A2980 740 96 600 220/14 RMK AO2 RAB09 P0000
14840KMKG MKG20011119054012011/19/01 05:40:31  5-MIN KMKG 191040Z 21016KT 3SM -RA BR BKN012 OVC018 12/11 A2980 740 96 600 220/16 RMK AO2 RAB09 P0001
14840KMKG MKG20011119054512611/19/01 05:45:31  5-MIN KMKG 191045Z 22015KT 2SM RA BR FEW007 BKN012 OVC020 12/11 A2980 740 96 600 220/15 RMK AO2 RAB09 P0003
14840KMKG MKG20011119055014711/19/01 05:50:31  5-MIN KMKG 191050Z 22014KT 1 3/4SM RA BR FEW007 BKN012 OVC020 12/11 A2980 740 96 600 220/14 RMK AO2 RAB09 SLP091 P0005 T01170111
14840KMKG MKG20011119055513611/19/01 05:55:31  5-MIN KMKG 191055Z 22015KT 2SM RA BR FEW007 OVC012 12/11 A2980 750 96 600 220/15 RMK AO2 RAB09 SLP090 P0007 T01170111
14840KMKG MKG20011119060011311/19/01 06:00:31  5-MIN KMKG 191100Z 22015KT 2SM RA BR FEW007 OVC012 12/11 A2980 750 96 600 230/15 RMK AO2 P0001
14840KMKG MKG20011119060512011/19/01 06:05:31  5-MIN KMKG 191105Z 23015G21KT 2SM -RA BR SCT008 OVC012 12/11 A2979 750 96 600 230/15G21 RMK AO2 P0001
14840KMKG MKG20011119061014611/19/01 06:10:31  5-MIN KMKG 191110Z 23017G23KT 2SM -RA BR BKN008 OVC012 12/11 A2979 750 96 600 240/17G23 RMK AO2 SFC VIS 2 1/2 CIG 006V011 P0001
14840KMKG MKG20011119061514211/19/01 06:15:31  5-MIN KMKG 191115Z 25018G23KT 2SM -RA BR BKN008 OVC012 12/11 A2980 740 96 600 250/18G23 RMK AO2 SFC VIS 3 CIG 006V011 P0002
14840KMKG MKG20011119062014211/19/01 06:20:31  5-MIN KMKG 191120Z 25014G22KT 2SM -RA BR BKN008 OVC012 11/11 A2980 740 96 500 250/14G22 RMK AO2 SFC VIS 3 CIG 005V010 P0002
14840KMKG MKG20011119062513511/19/01 06:25:31  5-MIN KMKG 191125Z 29015G22KT 2SM -RA BR OVC008 11/10 A2980 740 96 400 290/15G22 RMK AO2 SFC VIS 4 CIG 005V010 P0002
14840KMKG MKG20011119063013211/19/01 06:30:31  5-MIN KMKG 191130Z 29009G19KT 2SM -RA OVC008 09/09 A2980 740 96 300 290/09G19 RMK AO2 SFC VIS 7 CIG 005V012 P0002
14840KMKG MKG20011119063514711/19/01 06:35:31  5-MIN KMKG 191135Z 30013G16KT 2SM -RA BKN008 BKN014 OVC021 09/08 A2981 740 96 200 310/13G16 RMK AO2 SFC VIS 10 CIG 005V011 P0002
14840KMKG MKG20011119064014711/19/01 06:40:31  5-MIN KMKG 191140Z 32014G19KT 2SM -RA BKN008 BKN012 OVC021 09/08 A2981 730 96 200 320/14G19 RMK AO2 SFC VIS 10 CIG 005V009 P0002
14840KMKG MKG20011119064514711/19/01 06:45:31  5-MIN KMKG 191145Z 33020G25KT 2SM -RA BKN008 BKN013 OVC021 09/08 A2982 730 93 200 330/20G25 RMK AO2 SFC VIS 10 CIG 005V011 P0002
14840KMKG MKG20011119065018411/19/01 06:50:31  5-MIN KMKG 191150Z 34015G25KT 10SM -RA BKN008 BKN021 08/07 A2983 720 93 100 340/15G25 RMK AO2 CIG 005V016 PRESRR SLP102 P0003 60014 70015 T00780067 10133 20078 56026
14840KMKG MKG20011119065517511/19/01 06:55:31  5-MIN KMKG 191155Z 33015G24KT 10SM -RA BKN010 BKN021 07/07 A2983 710 96 0 330/15G24 RMK AO2 CIG 007V016 SLP103 P0003 60014 70015 T00720067 10133 20072 55002
14840KMKG MKG20011119070012811/19/01 07:00:31  5-MIN KMKG 191200Z 34017G22KT 10SM -RA BKN008 OVC021 07/06 A2983 710 93 0 340/17G22 RMK AO2 CIG 007V014 P0000
14840KMKG MKG20011119070512111/19/01 07:05:31  5-MIN KMKG 191205Z 34012G22KT 10SM -RA OVC008 07/06 A2984 710 96 0 340/12G22 RMK AO2 CIG 007V014 P0000
14840KMKG MKG20011119071011511/19/01 07:10:31  5-MIN KMKG 191210Z 33014KT 10SM -RA OVC008 07/06 A2984 700 96 0 330/14 RMK AO2 CIG 007V013 P0000
14840KMKG MKG20011119071511611/19/01 07:15:31  5-MIN KMKG 191215Z 33013G24KT 10SM -RA BKN008 OVC012 07/06 A2984 700 93 0 340/13G24 RMK AO2 P0000
14840KMKG MKG20011119072013411/19/01 07:20:31  5-MIN KMKG 191220Z 34019G26KT 10SM -RA SCT008 OVC014 07/05 A2984 700 89 0 340/19G26 RMK AO2 PK WND 34026/1218 P0000
14840KMKG MKG20011119072513711/19/01 07:25:31  5-MIN KMKG 191225Z 33017G26KT 10SM -RA SCT008 OVC014 06/05 A2985 690 93 -100 340/17G26 RMK AO2 PK WND 34026/1218 P0000
14840KMKG MKG20011119073014411/19/01 07:30:31  5-MIN KMKG 191230Z 33020G26KT 10SM -RA FEW008 BKN012 OVC017 06/05 A2985 690 93 -100 340/20G26 RMK AO2 PK WND 35026/1229 P0000
14840KMKG MKG20011119073513711/19/01 07:35:31  5-MIN KMKG 191235Z 33018G26KT 10SM -RA BKN012 OVC017 06/05 A2986 690 93 -100 340/18G26 RMK AO2 PK WND 35026/1229 P0000
14840KMKG MKG20011119074013711/19/01 07:40:31  5-MIN KMKG 191240Z 34015G24KT 10SM -RA OVC012 06/05 A2987 680 93 -100 340/15G24 RMK AO2 PK WND 35026/1229 PRESRR P0000
14840KMKG MKG20011119074513711/19/01 07:45:31  5-MIN KMKG 191245Z 33018G25KT 10SM -RA BKN012 OVC018 06/04 A2987 670 89 -100 340/18G25 RMK AO2 PK WND 35026/1229 P0000
14840KMKG MKG20011119075014711/19/01 07:50:31  5-MIN KMKG 191250Z 33018G27KT 10SM -RA OVC014 06/04 A2988 670 89 -100 330/18G27 RMK AO2 PK WND 35027/1247 SLP119 P0000 T00610044
14840KMKG MKG20011119075516811/19/01 07:55:31  5-MIN KMKG 191255Z 34015G27KT 10SM -RA BKN014 BKN020 OVC035 06/04 A2989 660 89 -200 340/15G27 RMK AO2 PK WND 35027/1247 PRESRR SLP122 P0000 T00610044
14840KMKG MKG20011119080012611/19/01 08:00:31  5-MIN KMKG 191300Z 33016G24KT 10SM -RA SCT014 BKN020 OVC035 06/04 A2989 660 89 -200 330/16G24 RMK AO2 P0000
14840KMKG MKG20011119080512511/19/01 08:05:31  5-MIN KMKG 191305Z 34016G21KT 10SM RA BKN014 BKN020 OVC035 06/04 A2989 660 89 -200 340/16G21 RMK AO2 P0001
14840KMKG MKG20011119081011711/19/01 08:10:31  5-MIN KMKG 191310Z 33019G25KT 7SM RA BKN014 OVC020 06/04 A2988 660 92 -200 330/19G25 RMK AO2 P0003
14840KMKG MKG20011119081512011/19/01 08:15:31  5-MIN KMKG 191315Z 33014G25KT 6SM RA BR BKN014 OVC020 06/04 A2989 660 92 -200 330/14G25 RMK AO2 P0004
14840KMKG MKG20011119082012011/19/01 08:20:31  5-MIN KMKG 191320Z 32016G25KT 6SM RA BR BKN014 OVC020 06/04 A2989 660 92 -200 330/16G25 RMK AO2 P0005
14840KMKG MKG20011119082511811/19/01 08:25:31  5-MIN KMKG 191325Z 32016G25KT 8SM -RA BKN014 OVC020 06/04 A2989 660 92 -200 320/16G25 RMK AO2 P0005
14840KMKG MKG20011119083011911/19/01 08:30:31  5-MIN KMKG 191330Z 34017G23KT 10SM -RA BKN014 OVC020 05/04 A2990 650 92 -300 340/17G23 RMK AO2 P0005
14840KMKG MKG20011119083511211/19/01 08:35:31  5-MIN KMKG 191335Z 33018G23KT 10SM -RA OVC014 05/04 A2990 650 92 -300 340/18G23 RMK AO2 P0005
14840KMKG MKG20011119084011211/19/01 08:40:31  5-MIN KMKG 191340Z 33018G24KT 10SM -RA OVC012 05/04 A2991 640 92 -300 340/18G24 RMK AO2 P0005
14840KMKG MKG20011119084512111/19/01 08:45:31  5-MIN KMKG 191345Z 33020G24KT 10SM BKN012 OVC018 05/04 A2991 640 92 -300 330/20G24 RMK AO2 RAE41 P0005
14840KMKG MKG20011119085013811/19/01 08:50:31  5-MIN KMKG 191350Z 33017G24KT 10SM BKN012 OVC018 05/03 A2992 630 89 -300 340/17G24 RMK AO2 RAE41 SLP133 P0005 T00500033
14840KMKG MKG20011119085513811/19/01 08:55:31  5-MIN KMKG 191355Z 33015G22KT 10SM BKN012 OVC018 05/03 A2992 630 89 -300 340/15G22 RMK AO2 RAE41 SLP135 P0005 T00500033
14840KMKG MKG20011119090009611/19/01 09:00:31  5-MIN KMKG 191400Z 34017KT 10SM OVC012 05/03 A2992 630 89 -300 340/17 RMK AO2
14840KMKG MKG20011119090510211/19/01 09:05:31  5-MIN KMKG 191405Z 34014G22KT 10SM OVC014 05/03 A2993 620 89 -300 340/14G22 RMK AO2
14840KMKG MKG20011119091010911/19/01 09:10:31  5-MIN KMKG 191410Z 33016G22KT 10SM BKN014 OVC065 05/03 A2993 620 89 -300 340/16G22 RMK AO2
14840KMKG MKG20011119091510911/19/01 09:15:31  5-MIN KMKG 191415Z 33016G19KT 10SM BKN014 OVC065 05/03 A2993 620 89 -300 340/16G19 RMK AO2
14840KMKG MKG20011119092011011/19/01 09:20:31  5-MIN KMKG 191420Z 35013KT 10SM BKN014 BKN065 OVC085 04/03 A2992 630 92 -400 350/13 RMK AO2
14840KMKG MKG20011119092511011/19/01 09:25:31  5-MIN KMKG 191425Z 34012KT 10SM SCT014 BKN070 OVC085 04/03 A2993 620 92 -400 340/12 RMK AO2
14840KMKG MKG20011119093011011/19/01 09:30:31  5-MIN KMKG 191430Z 34009KT 10SM SCT014 BKN065 OVC085 04/03 A2993 620 89 -400 350/09 RMK AO2
14840KMKG MKG20011119093511011/19/01 09:35:31  5-MIN KMKG 191435Z 35012KT 10SM FEW014 BKN065 OVC085 05/03 A2993 630 89 -300 350/12 RMK AO2
14840KMKG MKG20011119094011011/19/01 09:40:31  5-MIN KMKG 191440Z 34013KT 10SM FEW014 BKN065 OVC080 04/03 A2992 630 89 -400 340/13 RMK AO2
14840KMKG MKG20011119094510311/19/01 09:45:31  5-MIN KMKG 191445Z 35013KT 10SM BKN065 OVC080 05/03 A2992 630 85 -300 350/13 RMK AO2
14840KMKG MKG20011119095013211/19/01 09:50:31  5-MIN KMKG 191450Z 34011KT 10SM BKN065 OVC080 05/03 A2993 630 85 -300 340/11 RMK AO2 SLP136 60005 T00500028 55002
14840KMKG MKG20011119095513911/19/01 09:55:31  5-MIN KMKG 191455Z 33011KT 10SM FEW017 BKN065 OVC080 05/03 A2993 620 89 -400 330/11 RMK AO2 SLP139 60005 T00500033 51034
14840KMKG MKG20011119100011011/19/01 10:00:31  5-MIN KMKG 191500Z 32010KT 10SM SCT017 BKN065 OVC080 05/03 A2994 620 89 -400 320/10 RMK AO2
14840KMKG MKG20011119100511011/19/01 10:05:31  5-MIN KMKG 191505Z 32011KT 10SM SCT017 BKN065 OVC080 05/03 A2994 610 89 -400 320/11 RMK AO2
14840KMKG MKG20011119101012511/19/01 10:10:31  5-MIN KMKG 191510Z 33011KT 10SM SCT017 BKN065 OVC080 05/03 A2994 610 85 -400 340/11 RMK AO2 CIG 032 RWY 14
14840KMKG MKG20011119101511011/19/01 10:15:31  5-MIN KMKG 191515Z 35010KT 10SM FEW017 BKN030 OVC065 05/03 A2994 610 85 -400 350/10 RMK AO2
14840KMKG MKG20011119102011011/19/01 10:20:31  5-MIN KMKG 191520Z 34009KT 10SM SCT017 BKN026 OVC070 05/03 A2994 610 85 -400 350/09 RMK AO2
14840KMKG MKG20011119102511011/19/01 10:25:31  5-MIN KMKG 191525Z 34011KT 10SM SCT017 BKN027 OVC070 05/03 A2994 610 85 -400 340/11 RMK AO2
14840KMKG MKG20011119103011011/19/01 10:30:31  5-MIN KMKG 191530Z 34009KT 10SM FEW017 BKN030 OVC070 05/03 A2995 610 85 -400 340/09 RMK AO2
14840KMKG MKG20011119103511011/19/01 10:35:31  5-MIN KMKG 191535Z 34009KT 10SM FEW017 BKN033 OVC070 05/03 A2995 600 85 -400 340/09 RMK AO2
14840KMKG MKG20011119104011011/19/01 10:40:31  5-MIN KMKG 191540Z 34008KT 10SM FEW017 BKN035 OVC070 05/03 A2995 600 85 -400 350/08 RMK AO2
14840KMKG MKG20011119104511011/19/01 10:45:31  5-MIN KMKG 191545Z 34009KT 10SM FEW017 BKN035 OVC070 05/03 A2995 610 89 -400 350/09 RMK AO2
14840KMKG MKG20011119105012711/19/01 10:50:31  5-MIN KMKG 191550Z 35009KT 10SM FEW017 BKN035 OVC070 05/03 A2994 610 85 -400 350/09 RMK AO2 SLP143 T00500028
14840KMKG MKG20011119105512011/19/01 10:55:31  5-MIN KMKG 191555Z 34008KT 10SM FEW017 OVC035 06/03 A2995 610 85 -300 340/08 RMK AO2 SLP143 T00560033
14840KMKG MKG20011119110010311/19/01 11:00:31  5-MIN KMKG 191600Z 33009KT 10SM FEW017 OVC033 06/03 A2995 610 85 -300 330/09 RMK AO2
14840KMKG MKG20011119110511011/19/01 11:05:31  5-MIN KMKG 191605Z 32012KT 10SM FEW017 BKN028 OVC035 06/03 A2995 610 82 -300 320/12 RMK AO2
14840KMKG MKG20011119111011011/19/01 11:10:31  5-MIN KMKG 191610Z 31011KT 10SM FEW017 BKN028 OVC035 06/03 A2995 610 82 -300 310/11 RMK AO2
14840KMKG MKG20011119111512511/19/01 11:15:31  5-MIN KMKG 191615Z 32011KT 10SM SCT019 BKN028 OVC035 06/03 A2995 600 82 -300 330/11 RMK AO2 CIG 021 RWY 14
14840KMKG MKG20011119112012511/19/01 11:20:31  5-MIN KMKG 191620Z 31012KT 10SM SCT019 BKN028 OVC035 06/03 A2995 600 82 -300 320/12 RMK AO2 CIG 021 RWY 14
14840KMKG MKG20011119112511611/19/01 11:25:31  5-MIN KMKG 191625Z 31013G20KT 10SM SCT019 BKN028 OVC035 06/03 A2995 600 79 -200 320/13G20 RMK AO2
14840KMKG MKG20011119113011611/19/01 11:30:31  5-MIN KMKG 191630Z 30014G21KT 10SM FEW019 SCT028 OVC037 06/02 A2995 600 76 -200 310/14G21 RMK AO2
14840KMKG MKG20011119113511611/19/01 11:35:31  5-MIN KMKG 191635Z 31016G21KT 10SM FEW021 SCT028 OVC037 06/02 A2995 600 76 -200 320/16G21 RMK AO2
14840KMKG MKG20011119114011611/19/01 11:40:31  5-MIN KMKG 191640Z 31014G21KT 10SM FEW021 SCT028 OVC037 06/02 A2995 600 73 -200 310/14G21 RMK AO2
14840KMKG MKG20011119114510911/19/01 11:45:31  5-MIN KMKG 191645Z 31017G22KT 10SM SCT028 OVC037 06/02 A2995 600 73 -200 310/17G22 RMK AO2
14840KMKG MKG20011119115012611/19/01 11:50:31  5-MIN KMKG 191650Z 31016G22KT 10SM FEW026 OVC037 06/01 A2995 600 70 -200 310/16G22 RMK AO2 SLP146 T00610011
14840KMKG MKG20011119115512011/19/01 11:55:31  5-MIN KMKG 191655Z 31017KT 10SM FEW026 OVC037 06/01 A2995 600 70 -200 310/17 RMK AO2 SLP145 T00610011
14840KMKG MKG20011119120012711/19/01 12:00:31  5-MIN KMKG 191700Z 31015G20KT 10SM -RA SCT026 OVC037 06/02 A2995 600 76 -300 320/15G20 RMK AO2 RAB1659 P0000
14840KMKG MKG20011119120513411/19/01 12:05:31  5-MIN KMKG 191705Z 32019G24KT 10SM -RA BKN026 BKN034 OVC041 06/02 A2995 600 76 -300 320/19G24 RMK AO2 RAB1659 P0000
14840KMKG MKG20011119121013411/19/01 12:10:31  5-MIN KMKG 191710Z 32015G24KT 10SM -RA FEW026 BKN032 OVC041 06/01 A2995 600 73 -300 320/15G24 RMK AO2 RAB1659 P0000
14840KMKG MKG20011119121514911/19/01 12:15:31  5-MIN KMKG 191715Z 32017G21KT 10SM -RA FEW026 SCT030 OVC036 06/01 A2995 600 73 -300 330/17G21 RMK AO2 RAB1659 CIG 030 RWY 14 P0000
14840KMKG MKG20011119122012611/19/01 12:20:31  5-MIN KMKG 191720Z 31015G21KT 10SM FEW026 OVC034 06/01 A2995 610 70 -300 310/15G21 RMK AO2 RAB1659E20 P0000
14840KMKG MKG20011119122512611/19/01 12:25:31  5-MIN KMKG 191725Z 33016G21KT 10SM FEW023 OVC034 06/01 A2995 600 70 -300 330/16G21 RMK AO2 RAB1659E20 P0000
14840KMKG MKG20011119123011911/19/01 12:30:31  5-MIN KMKG 191730Z 30015G21KT 10SM OVC036 06/01 A2994 610 67 -200 310/15G21 RMK AO2 RAB1659E20 P0000
14840KMKG MKG20011119123511311/19/01 12:35:31  5-MIN KMKG 191735Z 32014KT 10SM OVC036 06/01 A2995 610 67 -200 330/14 RMK AO2 RAB1659E20 P0000
14840KMKG MKG20011119124011311/19/01 12:40:31  5-MIN KMKG 191740Z 32015KT 10SM OVC036 06/01 A2995 610 67 -200 320/15 RMK AO2 RAB1659E20 P0000
14840KMKG MKG20011119124512611/19/01 12:45:31  5-MIN KMKG 191745Z 32016G21KT 10SM BKN036 OVC043 06/01 A2995 610 67 -200 330/16G21 RMK AO2 RAB1659E20 P0000
14840KMKG MKG20011119125016711/19/01 12:50:31  5-MIN KMKG 191750Z 32016G21KT 10SM BKN035 OVC043 06/01 A2994 610 67 -200 330/16G21 RMK AO2 RAB1659E20 SLP143 P0000 60005 T00610006 10072 20044 51034
14840KMKG MKG20011119125516111/19/01 12:55:31  5-MIN KMKG 191755Z 31014KT 10SM SCT030 BKN039 06/01 A2994 610 67 -200 320/14 RMK AO2 RAB1659E20 SLP140 P0000 60005 T00610006 10072 20044 50001
14840KMKG MKG20011119130010311/19/01 13:00:31  5-MIN KMKG 191800Z 32017KT 10SM BKN033 BKN044 06/01 A2994 610 67 -200 330/17 RMK AO2
14840KMKG MKG20011119130510911/19/01 13:05:31  5-MIN KMKG 191805Z 31019G23KT 10SM BKN033 BKN044 06/01 A2994 610 67 -200 320/19G23 RMK AO2
14840KMKG MKG20011119131010911/19/01 13:10:31  5-MIN KMKG 191810Z 32016G23KT 10SM BKN033 BKN044 06/01 A2994 610 67 -200 320/16G23 RMK AO2
14840KMKG MKG20011119131510911/19/01 13:15:31  5-MIN KMKG 191815Z 31016G23KT 10SM BKN034 BKN043 06/00 A2994 610 67 -300 320/16G23 RMK AO2
14840KMKG MKG20011119132010911/19/01 13:20:31  5-MIN KMKG 191820Z 32016G23KT 10SM BKN036 OVC043 06/01 A2994 610 70 -300 320/16G23 RMK AO2
14840KMKG MKG20011119132510911/19/01 13:25:31  5-MIN KMKG 191825Z 32017G21KT 10SM BKN036 OVC045 06/00 A2995 610 67 -300 320/17G21 RMK AO2
14840KMKG MKG20011119133010211/19/01 13:30:31  5-MIN KMKG 191830Z 32016G21KT 10SM OVC034 06/00 A2994 610 67 -300 330/16G21 RMK AO2
14840KMKG MKG20011119133510911/19/01 13:35:31  5-MIN KMKG 191835Z 32017G23KT 10SM BKN034 OVC041 06/00 A2995 610 67 -300 330/17G23 RMK AO2
14840KMKG MKG20011119134010911/19/01 13:40:31  5-MIN KMKG 191840Z 32015G23KT 10SM BKN034 OVC041 06/00 A2995 600 67 -300 320/15G23 RMK AO2
14840KMKG MKG20011119134510311/19/01 13:45:31  5-MIN KMKG 191845Z 31015KT 10SM BKN030 OVC040 06/00 A2995 600 67 -300 320/15 RMK AO2
14840KMKG MKG20011119135012611/19/01 13:50:31  5-MIN KMKG 191850Z 32016G22KT 10SM BKN030 OVC035 06/01 A2995 600 70 -300 320/16G22 RMK AO2 SLP144 T00560006
14840KMKG MKG20011119135512611/19/01 13:55:31  5-MIN KMKG 191855Z 31012G22KT 10SM BKN028 OVC042 06/01 A2996 600 67 -200 320/12G22 RMK AO2 SLP146 T00610006
14840KMKG MKG20011119140012511/19/01 14:00:31  5-MIN KMKG 191900Z 31016KT 10SM SCT028 SCT033 OVC044 06/00 A2995 600 65 -200 310/16 RMK AO2 CIG 037 RWY 14
14840KMKG MKG20011119140511711/19/01 14:05:31  5-MIN KMKG 191905Z 32014G22KT 10SM SCT028 SCT033 OVC044 06/M01 A2996 590 65 -300 320/14G22 RMK AO2
14840KMKG MKG20011119141010911/19/01 14:10:31  5-MIN KMKG 191910Z 31014G22KT 10SM SCT030 OVC044 06/00 A2996 590 67 -300 320/14G22 RMK AO2
14840KMKG MKG20011119141510911/19/01 14:15:31  5-MIN KMKG 191915Z 31014G23KT 10SM SCT030 OVC044 06/00 A2996 590 67 -300 320/14G23 RMK AO2
14840KMKG MKG20011119142011011/19/01 14:20:31  5-MIN KMKG 191920Z 32016G23KT 10SM SCT031 OVC044 06/M01 A2996 590 65 -300 320/16G23 RMK AO2
14840KMKG MKG20011119142511011/19/01 14:25:31  5-MIN KMKG 191925Z 30013G23KT 10SM BKN036 OVC044 06/M01 A2996 590 65 -300 310/13G23 RMK AO2
14840KMKG MKG20011119143011011/19/01 14:30:31  5-MIN KMKG 191930Z 31016G23KT 10SM BKN036 OVC044 06/M01 A2997 590 65 -300 320/16G23 RMK AO2
14840KMKG MKG20011119143511011/19/01 14:35:31  5-MIN KMKG 191935Z 31014G23KT 10SM BKN036 OVC046 06/M01 A2997 590 65 -300 320/14G23 RMK AO2
14840KMKG MKG20011119144010411/19/01 14:40:31  5-MIN KMKG 191940Z 31012KT 10SM BKN036 OVC046 06/M01 A2997 590 62 -300 320/12 RMK AO2
14840KMKG MKG20011119144510411/19/01 14:45:31  5-MIN KMKG 191945Z 31011KT 10SM BKN040 OVC048 06/M01 A2997 590 62 -300 310/11 RMK AO2
14840KMKG MKG20011119145012011/19/01 14:50:31  5-MIN KMKG 191950Z 32014G18KT 10SM OVC044 06/M02 A2997 590 59 -300 320/14G18 RMK AO2 SLP150 T00561017
14840KMKG MKG20011119145512011/19/01 14:55:31  5-MIN KMKG 191955Z 31014G20KT 10SM OVC045 06/M01 A2997 590 62 -300 320/14G20 RMK AO2 SLP150 T00561011
14840KMKG MKG20011119150010311/19/01 15:00:31  5-MIN KMKG 192000Z 31015G20KT 10SM OVC045 06/M02 A2997 590 59 -300 310/15G20 RMK AO2
14840KMKG MKG20011119150509711/19/01 15:05:31  5-MIN KMKG 192005Z 32015KT 10SM OVC045 06/M02 A2997 580 59 -300 320/15 RMK AO2
14840KMKG MKG20011119151010311/19/01 15:10:31  5-MIN KMKG 192010Z 31014G20KT 10SM OVC047 06/M01 A2997 580 62 -300 320/14G20 RMK AO2
14840KMKG MKG20011119151509711/19/01 15:15:31  5-MIN KMKG 192015Z 31015KT 10SM OVC047 06/M01 A2997 580 62 -300 320/15 RMK AO2
14840KMKG MKG20011119152010311/19/01 15:20:31  5-MIN KMKG 192020Z 31012G19KT 10SM OVC047 06/M01 A2997 580 62 -300 310/12G19 RMK AO2
14840KMKG MKG20011119152511011/19/01 15:25:31  5-MIN KMKG 192025Z 31014G19KT 10SM FEW026 OVC047 06/M01 A2997 580 65 -300 320/14G19 RMK AO2
14840KMKG MKG20011119153010911/19/01 15:30:31  5-MIN KMKG 192030Z 30012G20KT 10SM FEW026 OVC047 05/00 A2997 580 70 -400 310/12G20 RMK AO2
14840KMKG MKG20011119153510911/19/01 15:35:31  5-MIN KMKG 192035Z 31015G20KT 10SM FEW026 OVC049 05/00 A2998 580 70 -400 310/15G20 RMK AO2
14840KMKG MKG20011119154011611/19/01 15:40:31  5-MIN KMKG 192040Z 31010G19KT 10SM SCT026 SCT034 OVC049 06/00 A2998 570 67 -300 310/10G19 RMK AO2
14840KMKG MKG20011119154511011/19/01 15:45:31  5-MIN KMKG 192045Z 30009KT 10SM SCT026 BKN034 OVC049 06/00 A2998 570 67 -300 310/09 RMK AO2
14840KMKG MKG20011119155012611/19/01 15:50:31  5-MIN KMKG 192050Z 31012KT 10SM SCT028 BKN049 06/00 A2999 570 67 -300 320/12 RMK AO2 SLP156 T00560000 50001
14840KMKG MKG20011119155513411/19/01 15:55:31  5-MIN KMKG 192055Z 29013KT 10SM SCT028 SCT032 BKN049 05/M01 A2999 570 67 -400 300/13 RMK AO2 SLP158 T00501006 53016
14840KMKG MKG20011119160011711/19/01 16:00:31  5-MIN KMKG 192100Z 31013G21KT 10SM FEW028 SCT032 BKN049 06/M01 A2999 570 62 -300 310/13G21 RMK AO2
14840KMKG MKG20011119160511711/19/01 16:05:31  5-MIN KMKG 192105Z 31013G21KT 10SM FEW028 SCT037 BKN049 06/M01 A2999 570 62 -300 310/13G21 RMK AO2
14840KMKG MKG20011119161011011/19/01 16:10:31  5-MIN KMKG 192110Z 30013G18KT 10SM FEW028 BKN049 06/M01 A2999 570 62 -300 300/13G18 RMK AO2
14840KMKG MKG20011119161511111/19/01 16:15:31  5-MIN KMKG 192115Z 30013KT 10SM FEW028 SCT033 BKN049 06/M01 A2999 560 62 -400 300/13 RMK AO2
14840KMKG MKG20011119162011011/19/01 16:20:31  5-MIN KMKG 192120Z 30015G19KT 10SM FEW033 BKN049 05/M01 A3000 560 67 -400 300/15G19 RMK AO2
14840KMKG MKG20011119162511711/19/01 16:25:31  5-MIN KMKG 192125Z 30013G19KT 10SM SCT033 SCT043 BKN049 05/M01 A3000 560 67 -400 300/13G19 RMK AO2
14840KMKG MKG20011119163011011/19/01 16:30:31  5-MIN KMKG 192130Z 30013G20KT 10SM BKN033 OVC049 05/M01 A3000 560 64 -400 310/13G20 RMK AO2
14840KMKG MKG20011119163511011/19/01 16:35:31  5-MIN KMKG 192135Z 30015G21KT 10SM BKN033 OVC049 05/M01 A3001 550 64 -400 310/15G21 RMK AO2
14840KMKG MKG20011119164011011/19/01 16:40:31  5-MIN KMKG 192140Z 29015G21KT 10SM BKN033 OVC047 05/M02 A3000 550 62 -400 290/15G21 RMK AO2
14840KMKG MKG20011119164511711/19/01 16:45:31  5-MIN KMKG 192145Z 29012G19KT 10SM SCT033 BKN045 OVC050 04/M02 A3001 550 64 -500 290/12G19 RMK AO2
14840KMKG MKG20011119165013411/19/01 16:50:31  5-MIN KMKG 192150Z 30011G19KT 10SM SCT033 BKN045 OVC050 04/M02 A3001 540 62 -500 300/11G19 RMK AO2 SLP167 T00441022
14840KMKG MKG20011119165512111/19/01 16:55:31  5-MIN KMKG 192155Z 29012KT 10SM SCT033 OVC050 04/M02 A3002 540 62 -500 290/12 RMK AO2 SLP168 T00441022
14840KMKG MKG20011119170010411/19/01 17:00:31  5-MIN KMKG 192200Z 29011KT 10SM SCT037 OVC048 04/M02 A3002 540 62 -500 290/11 RMK AO2
14840KMKG MKG20011119170511011/19/01 17:05:31  5-MIN KMKG 192205Z 30013G18KT 10SM FEW037 OVC048 04/M02 A3002 540 62 -500 300/13G18 RMK AO2
14840KMKG MKG20011119171011011/19/01 17:10:31  5-MIN KMKG 192210Z 30011G18KT 10SM FEW037 OVC050 04/M03 A3002 540 59 -500 310/11G18 RMK AO2
14840KMKG MKG20011119171510411/19/01 17:15:31  5-MIN KMKG 192215Z 29015KT 10SM FEW039 OVC050 04/M03 A3002 530 59 -500 290/15 RMK AO2
14840KMKG MKG20011119172011011/19/01 17:20:31  5-MIN KMKG 192220Z 29012G17KT 10SM SCT039 OVC050 04/M02 A3003 530 62 -500 300/12G17 RMK AO2
14840KMKG MKG20011119172511011/19/01 17:25:31  5-MIN KMKG 192225Z 29015G20KT 10SM FEW039 OVC050 04/M02 A3003 530 62 -500 300/15G20 RMK AO2
14840KMKG MKG20011119173011011/19/01 17:30:31  5-MIN KMKG 192230Z 29014G17KT 10SM FEW039 OVC050 04/M02 A3002 540 62 -500 290/14G17 RMK AO2
14840KMKG MKG20011119173511011/19/01 17:35:31  5-MIN KMKG 192235Z 29012G17KT 10SM SCT039 OVC050 04/M03 A3003 530 59 -500 290/12G17 RMK AO2
14840KMKG MKG20011119174010411/19/01 17:40:31  5-MIN KMKG 192240Z 29011KT 10SM SCT039 OVC050 04/M03 A3003 530 59 -500 290/11 RMK AO2
14840KMKG MKG20011119174510411/19/01 17:45:31  5-MIN KMKG 192245Z 29012KT 10SM SCT039 OVC050 04/M03 A3004 520 57 -500 290/12 RMK AO2
14840KMKG MKG20011119175012111/19/01 17:50:31  5-MIN KMKG 192250Z 29009KT 10SM FEW037 OVC050 04/M03 A3004 520 59 -500 290/09 RMK AO2 SLP174 T00441028
14840KMKG MKG20011119175512111/19/01 17:55:31  5-MIN KMKG 192255Z 28011KT 10SM FEW037 OVC055 04/M03 A3004 520 59 -500 290/11 RMK AO2 SLP175 T00441028
14840KMKG MKG20011119180010411/19/01 18:00:31  5-MIN KMKG 192300Z 29011KT 10SM FEW039 OVC055 04/M03 A3004 520 57 -500 290/11 RMK AO2
14840KMKG MKG20011119180511011/19/01 18:05:31  5-MIN KMKG 192305Z 29013G18KT 10SM FEW042 OVC055 04/M04 A3004 520 55 -500 300/13G18 RMK AO2
14840KMKG MKG20011119181010411/19/01 18:10:31  5-MIN KMKG 192310Z 30015KT 10SM BKN049 OVC060 04/M04 A3004 520 55 -500 300/15 RMK AO2
14840KMKG MKG20011119181511011/19/01 18:15:31  5-MIN KMKG 192315Z 29012G19KT 10SM SCT047 OVC055 04/M04 A3004 520 52 -500 290/12G19 RMK AO2
14840KMKG MKG20011119182011011/19/01 18:20:31  5-MIN KMKG 192320Z 29011G19KT 10SM SCT047 OVC060 04/M04 A3005 510 55 -500 300/11G19 RMK AO2
14840KMKG MKG20011119182511811/19/01 18:25:31  5-MIN KMKG 192325Z 31014G18KT 10SM OVC055 04/M04 A3005 510 55 -600 320/14G18 RMK AO2 CIG 047 RWY 14
14840KMKG MKG20011119183011011/19/01 18:30:31  5-MIN KMKG 192330Z 31012G19KT 10SM FEW043 OVC055 04/M04 A3005 510 52 -600 320/12G19 RMK AO2
14840KMKG MKG20011119183510311/19/01 18:35:31  5-MIN KMKG 192335Z 31011G19KT 10SM OVC050 04/M04 A3005 510 52 -600 320/11G19 RMK AO2
14840KMKG MKG20011119184010411/19/01 18:40:31  5-MIN KMKG 192340Z 31013KT 10SM FEW043 OVC055 04/M04 A3005 510 52 -600 320/13 RMK AO2
14840KMKG MKG20011119184509711/19/01 18:45:31  5-MIN KMKG 192345Z 31013KT 10SM OVC050 04/M04 A3005 510 55 -600 310/13 RMK AO2
14840KMKG MKG20011119185016011/19/01 18:50:31  5-MIN KMKG 192350Z 31008G17KT 10SM SCT044 OVC055 04/M04 A3005 510 55 -600 310/08G17 RMK AO2 CIG 045 RWY 14 SLP180 T00441039 10061 20044 53016
14840KMKG MKG20011119185514511/19/01 18:55:31  5-MIN KMKG 192355Z 31014G20KT 10SM BKN046 OVC055 04/M03 A3005 510 57 -600 310/14G20 RMK AO2 SLP180 T00441033 10061 20044 51021
14840KMKG MKG20011119190011011/19/01 19:00:31  5-MIN KMKG 200000Z 31012G20KT 10SM BKN046 OVC055 04/M04 A3005 510 55 -600 320/12G20 RMK AO2
14840KMKG MKG20011119190511011/19/01 19:05:31  5-MIN KMKG 200005Z 32015G19KT 10SM BKN046 OVC060 04/M04 A3005 510 55 -600 320/15G19 RMK AO2
14840KMKG MKG20011119191010411/19/01 19:10:31  5-MIN KMKG 200010Z 31012KT 10SM SCT046 OVC060 04/M04 A3005 510 52 -600 310/12 RMK AO2
14840KMKG MKG20011119191512511/19/01 19:15:31  5-MIN KMKG 200015Z 31016G21KT 10SM SCT046 OVC060 04/M05 A3005 510 50 -600 320/16G21 RMK AO2 CIG 048 RWY 14
14840KMKG MKG20011119192012511/19/01 19:20:31  5-MIN KMKG 200020Z 31015G21KT 10SM FEW046 OVC060 04/M04 A3005 510 52 -600 320/15G21 RMK AO2 CIG 048 RWY 14
14840KMKG MKG20011119192510411/19/01 19:25:31  5-MIN KMKG 200025Z 32015KT 10SM FEW048 OVC060 04/M04 A3005 510 52 -600 320/15 RMK AO2
14840KMKG MKG20011119193011011/19/01 19:30:31  5-MIN KMKG 200030Z 31015G21KT 10SM FEW045 OVC060 04/M04 A3005 510 55 -600 320/15G21 RMK AO2
14840KMKG MKG20011119193511011/19/01 19:35:31  5-MIN KMKG 200035Z 31015G21KT 10SM FEW045 OVC060 04/M04 A3005 510 52 -600 310/15G21 RMK AO2
14840KMKG MKG20011119194011011/19/01 19:40:31  5-MIN KMKG 200040Z 31015G21KT 10SM FEW045 OVC060 04/M04 A3005 510 52 -600 320/15G21 RMK AO2
14840KMKG MKG20011119194511011/19/01 19:45:31  5-MIN KMKG 200045Z 31016G21KT 10SM FEW045 OVC060 04/M04 A3005 510 52 -600 320/16G21 RMK AO2
14840KMKG MKG20011119195011411/19/01 19:50:31  5-MIN KMKG 200050Z 32014KT 10SM OVC060 04/M04 A3006 500 52 -600 330/14 RMK AO2 SLP183 T00441044
14840KMKG MKG20011119195512011/19/01 19:55:31  5-MIN KMKG 200055Z 32015G22KT 10SM OVC060 04/M04 A3005 510 52 -600 320/15G22 RMK AO2 SLP182 T00441044
14840KMKG MKG20011119200010311/19/01 20:00:31  5-MIN KMKG 200100Z 31016G22KT 10SM OVC065 04/M05 A3006 500 50 -600 320/16G22 RMK AO2
14840KMKG MKG20011119200510311/19/01 20:05:31  5-MIN KMKG 200105Z 32011G21KT 10SM OVC065 04/M05 A3006 500 50 -600 320/11G21 RMK AO2
14840KMKG MKG20011119201010311/19/01 20:10:31  5-MIN KMKG 200110Z 31015G20KT 10SM OVC065 04/M05 A3005 510 50 -600 320/15G20 RMK AO2
14840KMKG MKG20011119201510311/19/01 20:15:31  5-MIN KMKG 200115Z 32019G22KT 10SM OVC070 04/M05 A3005 510 52 -600 320/19G22 RMK AO2
14840KMKG MKG20011119202010311/19/01 20:20:31  5-MIN KMKG 200120Z 31014G22KT 10SM OVC070 04/M04 A3005 510 54 -600 320/14G22 RMK AO2
14840KMKG MKG20011119202510311/19/01 20:25:31  5-MIN KMKG 200125Z 31016G23KT 10SM OVC070 04/M04 A3006 500 54 -600 310/16G23 RMK AO2
14840KMKG MKG20011119203010311/19/01 20:30:31  5-MIN KMKG 200130Z 32017G23KT 10SM OVC070 04/M05 A3006 510 52 -600 320/17G23 RMK AO2
14840KMKG MKG20011119203510311/19/01 20:35:31  5-MIN KMKG 200135Z 32015G22KT 10SM OVC070 04/M06 A3006 500 48 -600 320/15G22 RMK AO2
14840KMKG MKG20011119204010311/19/01 20:40:31  5-MIN KMKG 200140Z 32018G22KT 10SM OVC070 04/M08 A3006 500 42 -600 320/18G22 RMK AO2
14840KMKG MKG20011119204510311/19/01 20:45:31  5-MIN KMKG 200145Z 31018G22KT 10SM OVC070 04/M08 A3005 510 40 -600 310/18G22 RMK AO2
14840KMKG MKG20011119205012011/19/01 20:50:31  5-MIN KMKG 200150Z 31010G22KT 10SM OVC070 04/M08 A3006 500 42 -600 310/10G22 RMK AO2 SLP184 T00391078
14840KMKG MKG20011119205512011/19/01 20:55:31  5-MIN KMKG 200155Z 32014G18KT 10SM BKN070 04/M08 A3006 500 42 -600 320/14G18 RMK AO2 SLP186 T00391078
14840KMKG MKG20011119210011011/19/01 21:00:31  5-MIN KMKG 200200Z 31012G18KT 10SM FEW060 BKN070 04/M08 A3006 500 42 -600 310/12G18 RMK AO2
14840KMKG MKG20011119210511011/19/01 21:05:31  5-MIN KMKG 200205Z 30011G17KT 10SM FEW060 SCT070 03/M07 A3006 500 46 -700 310/11G17 RMK AO2
14840KMKG MKG20011119211009711/19/01 21:10:31  5-MIN KMKG 200210Z 31010KT 10SM FEW070 04/M07 A3006 500 44 -600 310/10 RMK AO2
14840KMKG MKG20011119211510311/19/01 21:15:31  5-MIN KMKG 200215Z 31014G20KT 10SM FEW055 04/M07 A3005 510 44 -600 310/14G20 RMK AO2
14840KMKG MKG20011119212011011/19/01 21:20:31  5-MIN KMKG 200220Z 32013G20KT 10SM SCT060 SCT075 04/M07 A3006 500 44 -600 320/13G20 RMK AO2
14840KMKG MKG20011119212510411/19/01 21:25:31  5-MIN KMKG 200225Z 33014KT 10SM SCT060 BKN075 04/M07 A3006 500 46 -600 330/14 RMK AO2
14840KMKG MKG20011119213010411/19/01 21:30:31  5-MIN KMKG 200230Z 32015KT 10SM SCT055 BKN070 04/M06 A3006 500 48 -600 320/15 RMK AO2
14840KMKG MKG20011119213510411/19/01 21:35:31  5-MIN KMKG 200235Z 33010KT 10SM FEW055 BKN070 04/M06 A3007 500 48 -600 330/10 RMK AO2
14840KMKG MKG20011119214011011/19/01 21:40:31  5-MIN KMKG 200240Z 31013G18KT 10SM SCT050 OVC065 04/M06 A3006 500 48 -600 320/13G18 RMK AO2
14840KMKG MKG20011119214511011/19/01 21:45:31  5-MIN KMKG 200245Z 32015G18KT 10SM FEW050 OVC070 04/M06 A3006 500 48 -600 320/15G18 RMK AO2
14840KMKG MKG20011119215013311/19/01 21:50:31  5-MIN KMKG 200250Z 33011G19KT 10SM FEW050 OVC070 04/M06 A3007 500 50 -600 330/11G19 RMK AO2 SLP187 T00391056 51021
14840KMKG MKG20011119215512711/19/01 21:55:31  5-MIN KMKG 200255Z 32013KT 10SM FEW050 OVC070 04/M06 A3006 500 50 -600 320/13 RMK AO2 SLP186 T00391056 51005
14840KMKG MKG20011119220010411/19/01 22:00:31  5-MIN KMKG 200300Z 31014KT 10SM FEW050 OVC070 04/M06 A3006 500 50 -600 320/14 RMK AO2
14840KMKG MKG20011119220511011/19/01 22:05:31  5-MIN KMKG 200305Z 31014G20KT 10SM FEW050 OVC070 04/M05 A3007 500 52 -600 320/14G20 RMK AO2
14840KMKG MKG20011119221010311/19/01 22:10:31  5-MIN KMKG 200310Z 32015G20KT 10SM OVC070 04/M05 A3007 500 52 -600 330/15G20 RMK AO2
14840KMKG MKG20011119221510411/19/01 22:15:31  5-MIN KMKG 200315Z 32013KT 10SM FEW050 OVC070 04/M05 A3007 500 52 -600 320/13 RMK AO2
14840KMKG MKG20011119222011011/19/01 22:20:31  5-MIN KMKG 200320Z 31020G24KT 10SM SCT055 OVC070 04/M05 A3007 500 52 -600 320/20G24 RMK AO2
14840KMKG MKG20011119222511711/19/01 22:25:31  5-MIN KMKG 200325Z 33018G24KT 10SM FEW042 SCT055 OVC070 03/M05 A3007 490 54 -700 330/18G24 RMK AO2
14840KMKG MKG20011119223011711/19/01 22:30:31  5-MIN KMKG 200330Z 33015G22KT 10SM FEW040 SCT055 OVC070 03/M04 A3007 490 57 -700 330/15G22 RMK AO2
14840KMKG MKG20011119223511111/19/01 22:35:31  5-MIN KMKG 200335Z 32016KT 10SM FEW040 SCT055 OVC070 03/M04 A3007 490 57 -700 320/16 RMK AO2
14840KMKG MKG20011119224010411/19/01 22:40:31  5-MIN KMKG 200340Z 32013KT 10SM FEW040 OVC070 03/M04 A3007 490 57 -700 330/13 RMK AO2
14840KMKG MKG20011119224511011/19/01 22:45:31  5-MIN KMKG 200345Z 32016G20KT 10SM FEW040 OVC070 03/M04 A3008 490 57 -700 320/16G20 RMK AO2
14840KMKG MKG20011119225012711/19/01 22:50:31  5-MIN KMKG 200350Z 32014G20KT 10SM FEW040 OVC070 03/M05 A3008 490 54 -700 330/14G20 RMK AO2 SLP191 T00331050
14840KMKG MKG20011119225512811/19/01 22:55:31  5-MIN KMKG 200355Z 32013KT 10SM FEW040 SCT060 OVC075 03/M05 A3008 480 54 -700 330/13 RMK AO2 SLP192 T00331050
14840KMKG MKG20011119230010411/19/01 23:00:31  5-MIN KMKG 200400Z 32013KT 10SM FEW047 OVC070 03/M04 A3008 480 57 -700 320/13 RMK AO2
14840KMKG MKG20011119230510411/19/01 23:05:31  5-MIN KMKG 200405Z 32011KT 10SM FEW043 OVC070 03/M04 A3008 480 57 -700 330/11 RMK AO2
14840KMKG MKG20011119231011111/19/01 23:10:31  5-MIN KMKG 200410Z 33012KT 10SM FEW043 SCT050 OVC065 03/M04 A3008 480 57 -700 330/12 RMK AO2
14840KMKG MKG20011119231511711/19/01 23:15:31  5-MIN KMKG 200415Z 32015G19KT 10SM FEW041 SCT050 OVC065 03/M04 A3008 480 57 -700 330/15G19 RMK AO2
14840KMKG MKG20011119232011111/19/01 23:20:31  5-MIN KMKG 200420Z 33013KT 10SM SCT041 BKN050 OVC065 03/M04 A3008 480 57 -700 340/13 RMK AO2
14840KMKG MKG20011119232510411/19/01 23:25:31  5-MIN KMKG 200425Z 31012KT 10SM FEW043 OVC060 03/M04 A3008 480 57 -700 320/12 RMK AO2
14840KMKG MKG20011119233011111/19/01 23:30:31  5-MIN KMKG 200430Z 33011KT 10SM FEW041 SCT050 OVC060 03/M04 A3008 480 57 -700 330/11 RMK AO2
14840KMKG MKG20011119233511111/19/01 23:35:31  5-MIN KMKG 200435Z 33012KT 10SM FEW041 SCT050 OVC060 03/M04 A3009 480 57 -700 330/12 RMK AO2
14840KMKG MKG20011119234010411/19/01 23:40:31  5-MIN KMKG 200440Z 31013KT 10SM FEW041 OVC060 03/M04 A3009 480 57 -700 320/13 RMK AO2
14840KMKG MKG20011119234510411/19/01 23:45:31  5-MIN KMKG 200445Z 34015KT 10SM FEW043 OVC060 03/M04 A3009 470 57 -700 340/15 RMK AO2
14840KMKG MKG20011119235013011/19/01 23:50:31  5-MIN KMKG 200450Z 32014G18KT 10SM OVC065 03/M04 A3009 480 59 -700 330/14G18 RMK AO2 SLP193 T00331039 401330033
14840KMKG MKG20011119235512411/19/01 23:55:31  5-MIN KMKG 200455Z 32016KT 10SM OVC065 03/M04 A3009 470 57 -700 320/16 RMK AO2 SLP194 T00331044 401330033
14840KMKG MKG20011120000009711/20/01 00:00:31  5-MIN KMKG 200500Z 32012KT 10SM OVC065 03/M04 A3009 470 59 -700 330/12 RMK AO2
14840KMKG MKG20011120000509711/20/01 00:05:31  5-MIN KMKG 200505Z 32013KT 10SM OVC065 03/M04 A3009 470 59 -700 330/13 RMK AO2
14840KMKG MKG20011120001009711/20/01 00:10:31  5-MIN KMKG 200510Z 32012KT 10SM OVC065 03/M04 A3009 470 59 -700 330/12 RMK AO2
14840KMKG MKG20011120001509711/20/01 00:15:31  5-MIN KMKG 200515Z 33009KT 10SM OVC060 03/M03 A3010 470 64 -800 330/09 RMK AO2
14840KMKG MKG20011120002009711/20/01 00:20:31  5-MIN KMKG 200520Z 33012KT 10SM OVC060 03/M03 A3010 470 64 -800 330/12 RMK AO2
14840KMKG MKG20011120002509711/20/01 00:25:31  5-MIN KMKG 200525Z 33011KT 10SM OVC060 03/M03 A3010 470 64 -800 330/11 RMK AO2
14840KMKG MKG20011120003011011/20/01 00:30:31  5-MIN KMKG 200530Z 31013G16KT 10SM FEW050 OVC060 03/M03 A3009 470 61 -700 320/13G16 RMK AO2
14840KMKG MKG20011120003510411/20/01 00:35:31  5-MIN KMKG 200535Z 31012KT 10SM FEW034 OVC060 03/M03 A3009 470 64 -800 320/12 RMK AO2
14840KMKG MKG20011120004011011/20/01 00:40:31  5-MIN KMKG 200540Z 33013G16KT 10SM FEW034 OVC060 03/M03 A3010 460 67 -800 330/13G16 RMK AO2
14840KMKG MKG20011120004510311/20/01 00:45:31  5-MIN KMKG 200545Z 33013G18KT 10SM OVC060 03/M03 A3010 460 67 -800 330/13G18 RMK AO2
14840KMKG MKG20011120005014511/20/01 00:50:31  5-MIN KMKG 200550Z 33013G18KT 10SM FEW049 OVC060 03/M03 A3010 460 64 -800 330/13G18 RMK AO2 SLP199 T00281033 10044 20028 51005
14840KMKG MKG20011120005513911/20/01 00:55:31  5-MIN KMKG 200555Z 34011KT 10SM FEW036 OVC055 03/M03 A3010 460 67 -800 340/11 RMK AO2 SLP199 T00281028 10044 20028 51013
14840KMKG MKG20011120010009711/20/01 01:00:31  5-MIN KMKG 200600Z 34010KT 10SM OVC055 03/M03 A3010 460 67 -800 340/10 RMK AO2
14840KMKG MKG20011120010509711/20/01 01:05:31  5-MIN KMKG 200605Z 34010KT 10SM OVC055 03/M03 A3010 460 67 -800 340/10 RMK AO2
14840KMKG MKG20011120011010411/20/01 01:10:31  5-MIN KMKG 200610Z 34015KT 10SM FEW031 OVC055 03/M03 A3010 460 67 -800 340/15 RMK AO2
14840KMKG MKG20011120011513211/20/01 01:15:31  5-MIN KMKG 200615Z 35012G20KT 9SM -SN FEW033 SCT044 OVC055 02/M03 A3011 460 69 -900 360/12G20 RMK AO2 SNB15 P0000
14840KMKG MKG20011120012012511/20/01 01:20:31  5-MIN KMKG 200620Z 35011G20KT 8SM -SN FEW033 OVC055 02/M02 A3011 460 72 -900 360/11G20 RMK AO2 SNB15 P0000
14840KMKG MKG20011120012512011/20/01 01:25:31  5-MIN KMKG 200625Z 35010KT 6SM -SN FEW033 OVC055 02/M02 A3010 460 75 -1000 350/10 RMK AO2 SNB15 P0000
14840KMKG MKG20011120013012711/20/01 01:30:31  5-MIN KMKG 200630Z 35011KT 6SM -SN FEW033 BKN049 OVC060 02/M02 A3010 460 75 -1000 350/11 RMK AO2 SNB15 P0000
14840KMKG MKG20011120013512711/20/01 01:35:31  5-MIN KMKG 200635Z 35009KT 8SM -SN FEW033 BKN049 OVC055 02/M02 A3010 470 75 -1000 360/09 RMK AO2 SNB15 P0000
14840KMKG MKG20011120014012511/20/01 01:40:31  5-MIN KMKG 200640Z 36007KT 9SM FEW033 SCT049 OVC060 02/M03 A3010 470 69 -900 360/07 RMK AO2 SNB15E39 P0000
14840KMKG MKG20011120014511911/20/01 01:45:31  5-MIN KMKG 200645Z 35007KT 10SM SCT049 OVC060 02/M02 A3010 470 72 -900 350/07 RMK AO2 SNB15E39 P0000
14840KMKG MKG20011120015012911/20/01 01:50:31  5-MIN KMKG 200650Z 33010KT 10SM OVC060 02/M03 A3010 470 69 -900 330/10 RMK AO2 SNB15E39 SLP198 P0000 T00221028
14840KMKG MKG20011120015513511/20/01 01:55:31  5-MIN KMKG 200655Z 34011G16KT 10SM OVC060 02/M03 A3010 460 69 -900 350/11G16 RMK AO2 SNB15E39 SLP199 P0000 T00221028
14840KMKG MKG20011120020010311/20/01 02:00:31  5-MIN KMKG 200700Z 35012G20KT 10SM OVC060 02/M03 A3010 460 69 -900 350/12G20 RMK AO2
14840KMKG MKG20011120020510311/20/01 02:05:31  5-MIN KMKG 200705Z 35011G20KT 10SM OVC060 02/M03 A3010 460 69 -900 360/11G20 RMK AO2
14840KMKG MKG20011120021010311/20/01 02:10:31  5-MIN KMKG 200710Z 34009G16KT 10SM OVC065 02/M03 A3010 460 69 -900 350/09G16 RMK AO2
14840KMKG MKG20011120021509711/20/01 02:15:31  5-MIN KMKG 200715Z 34009KT 10SM OVC065 02/M03 A3010 460 69 -900 340/09 RMK AO2
14840KMKG MKG20011120022010311/20/01 02:20:31  5-MIN KMKG 200720Z 33013G17KT 10SM OVC065 02/M03 A3010 470 69 -900 330/13G17 RMK AO2
14840KMKG MKG20011120022509711/20/01 02:25:31  5-MIN KMKG 200725Z 33010KT 10SM OVC065 02/M03 A3010 470 67 -900 340/10 RMK AO2
14840KMKG MKG20011120023009711/20/01 02:30:31  5-MIN KMKG 200730Z 33011KT 10SM OVC065 02/M03 A3010 460 67 -900 330/11 RMK AO2
14840KMKG MKG20011120023509711/20/01 02:35:31  5-MIN KMKG 200735Z 34011KT 10SM OVC065 02/M03 A3010 460 67 -900 340/11 RMK AO2
14840KMKG MKG20011120024009711/20/01 02:40:31  5-MIN KMKG 200740Z 33014KT 10SM OVC065 02/M03 A3010 460 67 -900 330/14 RMK AO2
14840KMKG MKG20011120024509711/20/01 02:45:31  5-MIN KMKG 200745Z 34012KT 10SM OVC065 02/M03 A3011 460 67 -900 350/12 RMK AO2
14840KMKG MKG20011120025012011/20/01 02:50:31  5-MIN KMKG 200750Z 34010G18KT 10SM OVC070 02/M03 A3011 460 67 -900 340/10G18 RMK AO2 SLP200 T00221033
14840KMKG MKG20011120025512011/20/01 02:55:31  5-MIN KMKG 200755Z 34011G18KT 10SM OVC070 02/M03 A3011 460 67 -900 340/11G18 RMK AO2 SLP201 T00221033
14840KMKG MKG20011120030009711/20/01 03:00:31  5-MIN KMKG 200800Z 34011KT 10SM OVC070 02/M03 A3011 460 67 -900 340/11 RMK AO2
14840KMKG MKG20011120030509711/20/01 03:05:31  5-MIN KMKG 200805Z 33009KT 10SM OVC065 02/M03 A3011 460 67 -900 340/09 RMK AO2
14840KMKG MKG20011120031009711/20/01 03:10:31  5-MIN KMKG 200810Z 34010KT 10SM OVC065 02/M03 A3011 460 67 -900 340/10 RMK AO2
14840KMKG MKG20011120031509711/20/01 03:15:31  5-MIN KMKG 200815Z 33011KT 10SM OVC070 02/M03 A3011 450 67 -900 340/11 RMK AO2
14840KMKG MKG20011120032009711/20/01 03:20:31  5-MIN KMKG 200820Z 34010KT 10SM OVC070 02/M03 A3011 450 67 -900 340/10 RMK AO2
14840KMKG MKG20011120032509711/20/01 03:25:31  5-MIN KMKG 200825Z 33011KT 10SM OVC070 02/M04 A3011 450 64 -900 340/11 RMK AO2
14840KMKG MKG20011120033009711/20/01 03:30:31  5-MIN KMKG 200830Z 34007KT 10SM OVC070 02/M03 A3011 450 67 -900 340/07 RMK AO2
14840KMKG MKG20011120033509711/20/01 03:35:31  5-MIN KMKG 200835Z 33009KT 10SM OVC070 02/M03 A3011 450 67 -900 340/09 RMK AO2
14840KMKG MKG20011120034009711/20/01 03:40:31  5-MIN KMKG 200840Z 34010KT 10SM OVC070 02/M03 A3011 450 67 -900 340/10 RMK AO2
14840KMKG MKG20011120034509711/20/01 03:45:31  5-MIN KMKG 200845Z 33009KT 10SM OVC070 02/M03 A3011 450 67 -900 340/09 RMK AO2
14840KMKG MKG20011120035012611/20/01 03:50:31  5-MIN KMKG 200850Z 34009KT 10SM OVC070 02/M03 A3012 450 67 -900 340/09 RMK AO2 SLP204 60000 T00221033 51013
14840KMKG MKG20011120035512611/20/01 03:55:31  5-MIN KMKG 200855Z 34009KT 10SM OVC070 02/M04 A3012 450 64 -900 340/09 RMK AO2 SLP204 60000 T00221039 53005
14840KMKG MKG20011120040009711/20/01 04:00:31  5-MIN KMKG 200900Z 33010KT 10SM OVC065 02/M04 A3012 450 64 -900 340/10 RMK AO2
14840KMKG MKG20011120040509711/20/01 04:05:31  5-MIN KMKG 200905Z 34011KT 10SM OVC065 02/M04 A3011 450 64 -900 340/11 RMK AO2
14840KMKG MKG20011120041009711/20/01 04:10:31  5-MIN KMKG 200910Z 35009KT 10SM OVC065 02/M04 A3011 450 64 -900 350/09 RMK AO2
14840KMKG MKG20011120041509811/20/01 04:15:31  5-MIN KMKG 200915Z 34009KT 10SM BKN065 02/M04 A3011 450 66 -1000 340/09 RMK AO2
14840KMKG MKG20011120042009811/20/01 04:20:31  5-MIN KMKG 200920Z 34010KT 10SM BKN065 02/M04 A3011 450 66 -1000 350/10 RMK AO2
14840KMKG MKG20011120042509811/20/01 04:25:31  5-MIN KMKG 200925Z 33009KT 10SM SCT065 02/M04 A3012 440 66 -1000 340/09 RMK AO2
14840KMKG MKG20011120043010511/20/01 04:30:31  5-MIN KMKG 200930Z 34009KT 10SM FEW048 SCT065 02/M04 A3012 440 66 -1000 340/09 RMK AO2
14840KMKG MKG20011120043510511/20/01 04:35:31  5-MIN KMKG 200935Z 33008KT 10SM FEW048 SCT060 02/M04 A3013 440 66 -1000 340/08 RMK AO2
14840KMKG MKG20011120044010511/20/01 04:40:31  5-MIN KMKG 200940Z 33008KT 10SM SCT045 BKN060 02/M04 A3013 440 66 -1000 340/08 RMK AO2
14840KMKG MKG20011120044510511/20/01 04:45:31  5-MIN KMKG 200945Z 34009KT 10SM SCT047 BKN060 02/M04 A3013 440 66 -1000 340/09 RMK AO2
14840KMKG MKG20011120045012211/20/01 04:50:31  5-MIN KMKG 200950Z 35007KT 10SM FEW047 SCT060 02/M04 A3013 440 66 -1000 350/07 RMK AO2 SLP209 T00171039
14840KMKG MKG20011120045512211/20/01 04:55:31  5-MIN KMKG 200955Z 34007KT 10SM FEW047 BKN060 02/M04 A3013 430 66 -1000 340/07 RMK AO2 SLP210 T00171039
14840KMKG MKG20011120050010411/20/01 05:00:31  5-MIN KMKG 201000Z 34008KT 10SM SCT047 BKN060 02/M04 A3014 430 64 -900 340/08 RMK AO2
14840KMKG MKG20011120050510511/20/01 05:05:31  5-MIN KMKG 201005Z 34008KT 10SM BKN049 BKN060 02/M04 A3014 430 66 -1000 350/08 RMK AO2
14840KMKG MKG20011120051010511/20/01 05:10:31  5-MIN KMKG 201010Z 34007KT 10SM SCT049 BKN060 02/M04 A3014 430 66 -1000 350/07 RMK AO2
14840KMKG MKG20011120051510511/20/01 05:15:31  5-MIN KMKG 201015Z 35009KT 10SM FEW048 BKN060 02/M04 A3014 430 64 -1000 350/09 RMK AO2
14840KMKG MKG20011120052010511/20/01 05:20:31  5-MIN KMKG 201020Z 35009KT 10SM SCT050 BKN060 02/M04 A3015 420 64 -1000 360/09 RMK AO2
14840KMKG MKG20011120052510511/20/01 05:25:31  5-MIN KMKG 201025Z 36008KT 10SM SCT050 BKN060 02/M04 A3014 420 64 -1000 360/08 RMK AO2
14840KMKG MKG20011120053009811/20/01 05:30:31  5-MIN KMKG 201030Z 35007KT 10SM BKN055 02/M04 A3015 420 64 -1000 360/07 RMK AO2
14840KMKG MKG20011120053509811/20/01 05:35:31  5-MIN KMKG 201035Z 35008KT 10SM BKN055 02/M04 A3015 420 64 -1000 350/08 RMK AO2
14840KMKG MKG20011120054009811/20/01 05:40:31  5-MIN KMKG 201040Z 34006KT 10SM BKN055 02/M04 A3015 420 64 -1000 340/06 RMK AO2
14840KMKG MKG20011120054509811/20/01 05:45:31  5-MIN KMKG 201045Z 33009KT 10SM BKN055 02/M04 A3016 410 64 -1000 340/09 RMK AO2
14840KMKG MKG20011120055011511/20/01 05:50:31  5-MIN KMKG 201050Z 34007KT 10SM BKN055 02/M04 A3015 410 64 -1000 340/07 RMK AO2 SLP217 T00171044
14840KMKG MKG20011120055511511/20/01 05:55:31  5-MIN KMKG 201055Z 34008KT 10SM BKN055 02/M04 A3015 420 64 -1000 340/08 RMK AO2 SLP215 T00171044
14840KMKG MKG20011120060009811/20/01 06:00:31  5-MIN KMKG 201100Z 33008KT 10SM BKN055 02/M04 A3016 410 64 -1000 330/08 RMK AO2
14840KMKG MKG20011120060512011/20/01 06:05:31  5-MIN KMKG 201105Z 33009KT 10SM SCT050 BKN060 02/M04 A3016 410 64 -1000 330/09 RMK AO2 CIG 050 RWY 14
14840KMKG MKG20011120061009811/20/01 06:10:31  5-MIN KMKG 201110Z 33007KT 10SM BKN050 02/M04 A3015 410 64 -1000 330/07 RMK AO2
14840KMKG MKG20011120061509811/20/01 06:15:31  5-MIN KMKG 201115Z 33008KT 10SM BKN050 02/M04 A3016 410 64 -1000 340/08 RMK AO2
14840KMKG MKG20011120062009811/20/01 06:20:31  5-MIN KMKG 201120Z 34008KT 10SM BKN050 02/M05 A3016 410 61 -1000 340/08 RMK AO2
14840KMKG MKG20011120062509811/20/01 06:25:31  5-MIN KMKG 201125Z 33006KT 10SM BKN050 02/M05 A3016 410 61 -1000 330/06 RMK AO2
14840KMKG MKG20011120063009811/20/01 06:30:31  5-MIN KMKG 201130Z 33007KT 10SM BKN050 02/M05 A3016 410 61 -1000 330/07 RMK AO2
14840KMKG MKG20011120063509811/20/01 06:35:31  5-MIN KMKG 201135Z 32008KT 10SM BKN050 02/M05 A3016 410 61 -1000 330/08 RMK AO2
14840KMKG MKG20011120064009811/20/01 06:40:31  5-MIN KMKG 201140Z 32007KT 10SM BKN050 02/M05 A3016 410 61 -1000 320/07 RMK AO2
14840KMKG MKG20011120064509811/20/01 06:45:31  5-MIN KMKG 201145Z 33007KT 10SM BKN048 01/M05 A3016 410 64 -1100 330/07 RMK AO2
14840KMKG MKG20011120065014511/20/01 06:50:31  5-MIN KMKG 201150Z 33007KT 10SM SCT048 01/M05 A3016 410 64 -1100 340/07 RMK AO2 SLP218 60000 70005 T00111050 10028 20011 53005
14840KMKG MKG20011120065514511/20/01 06:55:31  5-MIN KMKG 201155Z 33007KT 10SM SCT046 01/M05 A3016 410 64 -1100 340/07 RMK AO2 SLP219 60000 70005 T00111050 10028 20011 51015
14840KMKG MKG20011120070009811/20/01 07:00:31  5-MIN KMKG 201200Z 33006KT 10SM SCT046 01/M05 A3016 410 64 -1100 330/06 RMK AO2
14840KMKG MKG20011120070509811/20/01 07:05:31  5-MIN KMKG 201205Z 34007KT 10SM SCT046 01/M05 A3016 410 64 -1100 340/07 RMK AO2
14840KMKG MKG20011120071009811/20/01 07:10:31  5-MIN KMKG 201210Z 34005KT 10SM FEW046 01/M05 A3016 410 64 -1100 350/05 RMK AO2
14840KMKG MKG20011120071509811/20/01 07:15:31  5-MIN KMKG 201215Z 35005KT 10SM FEW046 01/M05 A3016 410 64 -1100 350/05 RMK AO2
14840KMKG MKG20011120072009811/20/01 07:20:31  5-MIN KMKG 201220Z 34006KT 10SM FEW046 01/M05 A3016 410 64 -1100 340/06 RMK AO2
14840KMKG MKG20011120072509811/20/01 07:25:31  5-MIN KMKG 201225Z 33006KT 10SM FEW044 01/M05 A3016 410 66 -1200 340/06 RMK AO2
14840KMKG MKG20011120073009511/20/01 07:30:31  5-MIN KMKG 201230Z 33006KT 10SM CLR 01/M04 A3017 400 66 -1100 330/06 RMK AO2
14840KMKG MKG20011120073509511/20/01 07:35:31  5-MIN KMKG 201235Z 33006KT 10SM CLR 01/M04 A3017 400 69 -1200 330/06 RMK AO2
14840KMKG MKG20011120074009811/20/01 07:40:31  5-MIN KMKG 201240Z 35004KT 10SM FEW042 01/M04 A3016 400 69 -1200 350/04 RMK AO2
14840KMKG MKG20011120074509811/20/01 07:45:31  5-MIN KMKG 201245Z 01005KT 10SM FEW042 01/M05 A3016 400 66 -1200 010/05 RMK AO2
14840KMKG MKG20011120075011511/20/01 07:50:31  5-MIN KMKG 201250Z 36005KT 10SM SCT042 01/M05 A3017 400 64 -1100 010/05 RMK AO2 SLP221 T00111050
14840KMKG MKG20011120075511511/20/01 07:55:31  5-MIN KMKG 201255Z 36005KT 10SM BKN042 01/M04 A3017 400 66 -1100 010/05 RMK AO2 SLP221 T00111044
14840KMKG MKG20011120080009811/20/01 08:00:31  5-MIN KMKG 201300Z 35006KT 10SM BKN042 02/M04 A3017 400 64 -1000 350/06 RMK AO2
14840KMKG MKG20011120080509811/20/01 08:05:31  5-MIN KMKG 201305Z 34004KT 10SM BKN042 02/M04 A3017 400 66 -1000 340/04 RMK AO2
14840KMKG MKG20011120081009811/20/01 08:10:31  5-MIN KMKG 201310Z 33005KT 10SM OVC042 02/M04 A3017 400 64 -1000 330/05 RMK AO2
14840KMKG MKG20011120081509811/20/01 08:15:31  5-MIN KMKG 201315Z 34005KT 10SM OVC040 02/M04 A3017 400 61 -1000 340/05 RMK AO2
14840KMKG MKG20011120082009811/20/01 08:20:31  5-MIN KMKG 201320Z 34006KT 10SM OVC040 02/M04 A3017 400 61 -1000 340/06 RMK AO2
14840KMKG MKG20011120082509811/20/01 08:25:31  5-MIN KMKG 201325Z 33007KT 10SM OVC040 02/M04 A3017 400 61 -1000 330/07 RMK AO2
14840KMKG MKG20011120083009811/20/01 08:30:31  5-MIN KMKG 201330Z 34008KT 10SM OVC040 02/M05 A3017 400 59 -1000 340/08 RMK AO2
14840KMKG MKG20011120083509811/20/01 08:35:31  5-MIN KMKG 201335Z 33007KT 10SM BKN040 02/M04 A3017 400 61 -1000 340/07 RMK AO2
14840KMKG MKG20011120084009811/20/01 08:40:31  5-MIN KMKG 201340Z 33006KT 10SM BKN040 02/M04 A3017 400 64 -1000 330/06 RMK AO2
14840KMKG MKG20011120084509811/20/01 08:45:31  5-MIN KMKG 201345Z 32006KT 10SM BKN040 02/M04 A3017 400 64 -1000 320/06 RMK AO2
14840KMKG MKG20011120085011511/20/01 08:50:31  5-MIN KMKG 201350Z 31005KT 10SM BKN040 02/M04 A3017 400 61 -1000 320/05 RMK AO2 SLP223 T00221044
14840KMKG MKG20011120085511511/20/01 08:55:31  5-MIN KMKG 201355Z 31004KT 10SM BKN040 02/M04 A3017 400 61 -1000 320/04 RMK AO2 SLP223 T00221044
14840KMKG MKG20011120090009711/20/01 09:00:31  5-MIN KMKG 201400Z 30003KT 10SM BKN040 03/M04 A3017 400 59 -900 300/03 RMK AO2
14840KMKG MKG20011120090509711/20/01 09:05:31  5-MIN KMKG 201405Z 30003KT 10SM BKN040 03/M04 A3017 400 59 -900 310/03 RMK AO2
14840KMKG MKG20011120091009711/20/01 09:10:31  5-MIN KMKG 201410Z 29003KT 10SM OVC040 03/M04 A3017 400 59 -900 290/03 RMK AO2
14840KMKG MKG20011120091509711/20/01 09:15:31  5-MIN KMKG 201415Z 28005KT 10SM OVC040 03/M04 A3017 400 57 -800 290/05 RMK AO2
14840KMKG MKG20011120092009711/20/01 09:20:31  5-MIN KMKG 201420Z 28006KT 10SM OVC040 03/M04 A3017 400 59 -900 290/06 RMK AO2
14840KMKG MKG20011120092509711/20/01 09:25:31  5-MIN KMKG 201425Z 29005KT 10SM OVC040 03/M04 A3017 400 57 -800 290/05 RMK AO2
14840KMKG MKG20011120093009711/20/01 09:30:31  5-MIN KMKG 201430Z 29006KT 10SM OVC040 03/M04 A3017 400 57 -800 300/06 RMK AO2
14840KMKG MKG20011120093509711/20/01 09:35:31  5-MIN KMKG 201435Z 31006KT 10SM OVC038 03/M04 A3017 400 57 -800 320/06 RMK AO2
14840KMKG MKG20011120094009711/20/01 09:40:31  5-MIN KMKG 201440Z 35003KT 10SM OVC038 03/M04 A3017 400 59 -900 360/03 RMK AO2
14840KMKG MKG20011120094509711/20/01 09:45:31  5-MIN KMKG 201445Z 34005KT 10SM OVC038 03/M04 A3017 400 57 -800 340/05 RMK AO2
14840KMKG MKG20011120095012011/20/01 09:50:31  5-MIN KMKG 201450Z 36005KT 10SM OVC038 03/M04 A3017 400 59 -800 360/05 RMK AO2 SLP222 T00331039 51015
14840KMKG MKG20011120095512011/20/01 09:55:31  5-MIN KMKG 201455Z 34004KT 10SM OVC038 03/M04 A3017 400 59 -800 340/04 RMK AO2 SLP221 T00331039 50002
14840KMKG MKG20011120100009711/20/01 10:00:31  5-MIN KMKG 201500Z 01005KT 10SM OVC038 03/M04 A3017 400 59 -800 010/05 RMK AO2
14840KMKG MKG20011120100509711/20/01 10:05:31  5-MIN KMKG 201505Z 33005KT 10SM OVC038 03/M04 A3017 400 57 -800 340/05 RMK AO2
14840KMKG MKG20011120101009711/20/01 10:10:31  5-MIN KMKG 201510Z 32005KT 10SM OVC038 03/M04 A3017 400 57 -800 320/05 RMK AO2
14840KMKG MKG20011120101509711/20/01 10:15:31  5-MIN KMKG 201515Z VRB04KT 10SM OVC038 03/M04 A3017 400 59 -800 VRB/04 RMK AO2
14840KMKG MKG20011120102009711/20/01 10:20:31  5-MIN KMKG 201520Z 31006KT 10SM OVC036 03/M04 A3017 400 59 -800 310/06 RMK AO2
14840KMKG MKG20011120102509711/20/01 10:25:31  5-MIN KMKG 201525Z 29008KT 10SM OVC036 03/M04 A3017 400 57 -800 290/08 RMK AO2
14840KMKG MKG20011120103009711/20/01 10:30:31  5-MIN KMKG 201530Z 29007KT 10SM OVC036 03/M04 A3017 400 59 -800 290/07 RMK AO2
14840KMKG MKG20011120103509711/20/01 10:35:31  5-MIN KMKG 201535Z 30008KT 10SM OVC036 03/M04 A3017 400 57 -800 300/08 RMK AO2
14840KMKG MKG20011120104009711/20/01 10:40:31  5-MIN KMKG 201540Z 27007KT 10SM OVC036 03/M04 A3017 400 57 -800 270/07 RMK AO2
14840KMKG MKG20011120104509711/20/01 10:45:31  5-MIN KMKG 201545Z 29007KT 10SM OVC036 03/M04 A3017 400 57 -800 300/07 RMK AO2
14840KMKG MKG20011120105011411/20/01 10:50:31  5-MIN KMKG 201550Z 31008KT 10SM OVC036 04/M03 A3017 400 59 -800 310/08 RMK AO2 SLP224 T00391033
14840KMKG MKG20011120105511411/20/01 10:55:31  5-MIN KMKG 201555Z 31008KT 10SM OVC036 03/M04 A3018 390 59 -800 310/08 RMK AO2 SLP224 T00331039
14840KMKG MKG20011120110009711/20/01 11:00:31  5-MIN KMKG 201600Z 28007KT 10SM OVC036 03/M04 A3017 400 59 -800 280/07 RMK AO2
14840KMKG MKG20011120110509711/20/01 11:05:31  5-MIN KMKG 201605Z 28005KT 10SM OVC034 03/M03 A3017 400 61 -800 280/05 RMK AO2
14840KMKG MKG20011120111009711/20/01 11:10:31  5-MIN KMKG 201610Z 25005KT 10SM OVC034 03/M03 A3017 400 61 -800 250/05 RMK AO2
14840KMKG MKG20011120111509711/20/01 11:15:31  5-MIN KMKG 201615Z 27009KT 10SM OVC034 03/M03 A3018 390 61 -800 280/09 RMK AO2
14840KMKG MKG20011120112009711/20/01 11:20:31  5-MIN KMKG 201620Z 26010KT 10SM OVC032 03/M03 A3018 390 61 -800 270/10 RMK AO2
14840KMKG MKG20011120112509711/20/01 11:25:31  5-MIN KMKG 201625Z 27010KT 10SM OVC032 03/M03 A3019 390 61 -800 280/10 RMK AO2
14840KMKG MKG20011120113009711/20/01 11:30:31  5-MIN KMKG 201630Z 26009KT 10SM OVC032 03/M03 A3018 390 61 -800 260/09 RMK AO2
14840KMKG MKG20011120113509711/20/01 11:35:31  5-MIN KMKG 201635Z 27008KT 10SM BKN032 04/M04 A3018 390 57 -800 280/08 RMK AO2
14840KMKG MKG20011120114009711/20/01 11:40:31  5-MIN KMKG 201640Z 28009KT 10SM BKN034 03/M04 A3017 400 59 -800 280/09 RMK AO2
14840KMKG MKG20011120114509711/20/01 11:45:31  5-MIN KMKG 201645Z 27010KT 10SM OVC034 03/M04 A3017 400 59 -800 280/10 RMK AO2
14840KMKG MKG20011120115011411/20/01 11:50:31  5-MIN KMKG 201650Z 27008KT 10SM OVC034 03/M04 A3017 400 59 -800 270/08 RMK AO2 SLP223 T00331039
14840KMKG MKG20011120115511411/20/01 11:55:31  5-MIN KMKG 201655Z 27007KT 10SM OVC034 03/M04 A3017 400 59 -800 280/07 RMK AO2 SLP222 T00331039
14840KMKG MKG20011120120009711/20/01 12:00:31  5-MIN KMKG 201700Z 27008KT 10SM OVC034 04/M03 A3017 400 57 -700 280/08 RMK AO2
14840KMKG MKG20011120120509711/20/01 12:05:31  5-MIN KMKG 201705Z 29010KT 10SM OVC034 04/M03 A3017 400 59 -700 290/10 RMK AO2
14840KMKG MKG20011120121009711/20/01 12:10:31  5-MIN KMKG 201710Z 27011KT 10SM OVC034 04/M03 A3017 400 59 -800 270/11 RMK AO2
14840KMKG MKG20011120121509711/20/01 12:15:31  5-MIN KMKG 201715Z 26010KT 10SM OVC034 03/M03 A3016 410 61 -800 260/10 RMK AO2
14840KMKG MKG20011120122009711/20/01 12:20:31  5-MIN KMKG 201720Z 28011KT 10SM OVC034 03/M03 A3016 410 61 -800 280/11 RMK AO2
14840KMKG MKG20011120122509711/20/01 12:25:31  5-MIN KMKG 201725Z 27010KT 10SM OVC034 03/M04 A3016 410 59 -800 270/10 RMK AO2
14840KMKG MKG20011120123009711/20/01 12:30:31  5-MIN KMKG 201730Z 30009KT 10SM OVC032 03/M03 A3016 410 61 -800 300/09 RMK AO2
14840KMKG MKG20011120123509711/20/01 12:35:31  5-MIN KMKG 201735Z 26010KT 10SM OVC032 03/M03 A3016 410 61 -800 270/10 RMK AO2
14840KMKG MKG20011120124009711/20/01 12:40:31  5-MIN KMKG 201740Z 26008KT 10SM OVC032 03/M03 A3015 420 61 -800 260/08 RMK AO2
14840KMKG MKG20011120124511311/20/01 12:45:31  5-MIN KMKG 201745Z 27007KT 250V310 10SM OVC032 03/M03 A3015 420 64 -800 280/07 250V310 RMK AO2
14840KMKG MKG20011120125014811/20/01 12:50:31  5-MIN KMKG 201750Z 25009KT 220V280 10SM OVC032 03/M03 A3015 420 64 -800 260/09 220V280 RMK AO2 SLP214 T00331028 10044 20006 50002
14840KMKG MKG20011120125513211/20/01 12:55:31  5-MIN KMKG 201755Z VRB06KT 10SM OVC032 04/M03 A3015 420 62 -700 VRB/06 RMK AO2 SLP214 T00391028 10044 20006 58007
14840KMKG MKG20011120130009711/20/01 13:00:31  5-MIN KMKG 201800Z 27009KT 10SM OVC032 03/M03 A3014 420 61 -800 270/09 RMK AO2
14840KMKG MKG20011120130509711/20/01 13:05:31  5-MIN KMKG 201805Z 27008KT 10SM OVC032 03/M03 A3015 420 61 -800 280/08 RMK AO2
14840KMKG MKG20011120131009711/20/01 13:10:31  5-MIN KMKG 201810Z 24008KT 10SM OVC032 03/M03 A3014 430 61 -800 250/08 RMK AO2
14840KMKG MKG20011120131509711/20/01 13:15:31  5-MIN KMKG 201815Z 28007KT 10SM OVC032 04/M03 A3013 430 62 -700 280/07 RMK AO2
14840KMKG MKG20011120132009711/20/01 13:20:31  5-MIN KMKG 201820Z 26008KT 10SM OVC032 04/M03 A3013 430 62 -700 270/08 RMK AO2
14840KMKG MKG20011120132509711/20/01 13:25:31  5-MIN KMKG 201825Z 23009KT 10SM BKN032 04/M03 A3013 430 59 -700 230/09 RMK AO2
14840KMKG MKG20011120133009711/20/01 13:30:31  5-MIN KMKG 201830Z 24007KT 10SM BKN032 04/M03 A3013 440 59 -700 250/07 RMK AO2
14840KMKG MKG20011120133509711/20/01 13:35:31  5-MIN KMKG 201835Z 27007KT 10SM SCT032 04/M03 A3013 440 57 -600 270/07 RMK AO2
14840KMKG MKG20011120134011311/20/01 13:40:31  5-MIN KMKG 201840Z 26008KT 210V280 10SM BKN032 04/M03 A3012 440 59 -700 260/08 210V280 RMK AO2
14840KMKG MKG20011120134509711/20/01 13:45:31  5-MIN KMKG 201845Z 26009KT 10SM BKN032 04/M03 A3012 440 59 -700 260/09 RMK AO2
14840KMKG MKG20011120135011411/20/01 13:50:31  5-MIN KMKG 201850Z 25009KT 10SM BKN032 04/M03 A3013 440 59 -700 260/09 RMK AO2 SLP207 T00391033
14840KMKG MKG20011120135511411/20/01 13:55:31  5-MIN KMKG 201855Z 23011KT 10SM SCT032 04/M03 A3012 450 59 -700 240/11 RMK AO2 SLP206 T00391033
14840KMKG MKG20011120140009711/20/01 14:00:31  5-MIN KMKG 201900Z 26010KT 10SM SCT032 04/M03 A3012 440 59 -700 260/10 RMK AO2
14840KMKG MKG20011120140509711/20/01 14:05:31  5-MIN KMKG 201905Z 22011KT 10SM SCT032 04/M03 A3012 440 59 -700 230/11 RMK AO2
14840KMKG MKG20011120141011311/20/01 14:10:31  5-MIN KMKG 201910Z 24007KT 220V280 10SM SCT032 04/M03 A3012 450 59 -700 250/07 220V280 RMK AO2
14840KMKG MKG20011120141509711/20/01 14:15:31  5-MIN KMKG 201915Z 25008KT 10SM SCT032 04/M02 A3011 450 62 -600 250/08 RMK AO2
14840KMKG MKG20011120142009711/20/01 14:20:31  5-MIN KMKG 201920Z 23011KT 10SM SCT030 04/M03 A3011 450 59 -700 240/11 RMK AO2
14840KMKG MKG20011120142509711/20/01 14:25:31  5-MIN KMKG 201925Z 23011KT 10SM FEW030 04/M03 A3011 450 62 -700 240/11 RMK AO2
14840KMKG MKG20011120143009711/20/01 14:30:31  5-MIN KMKG 201930Z 23009KT 10SM SCT030 04/M03 A3011 450 62 -700 240/09 RMK AO2
14840KMKG MKG20011120143509711/20/01 14:35:31  5-MIN KMKG 201935Z 23011KT 10SM SCT030 04/M03 A3012 450 62 -700 240/11 RMK AO2
14840KMKG MKG20011120144009711/20/01 14:40:31  5-MIN KMKG 201940Z 24010KT 10SM SCT030 03/M03 A3011 450 64 -800 240/10 RMK AO2
14840KMKG MKG20011120144509711/20/01 14:45:31  5-MIN KMKG 201945Z 23009KT 10SM SCT030 04/M03 A3011 450 62 -700 230/09 RMK AO2
14840KMKG MKG20011120145011411/20/01 14:50:31  5-MIN KMKG 201950Z 24009KT 10SM SCT030 04/M03 A3012 450 62 -700 240/09 RMK AO2 SLP204 T00391028
14840KMKG MKG20011120145511411/20/01 14:55:31  5-MIN KMKG 201955Z 24010KT 10SM SCT032 04/M03 A3011 450 62 -700 240/10 RMK AO2 SLP204 T00391028
14840KMKG MKG20011120150009711/20/01 15:00:31  5-MIN KMKG 202000Z 24007KT 10SM BKN030 04/M03 A3012 450 62 -700 240/07 RMK AO2
14840KMKG MKG20011120150509711/20/01 15:05:31  5-MIN KMKG 202005Z 24006KT 10SM BKN030 04/M02 A3012 450 64 -700 240/06 RMK AO2
14840KMKG MKG20011120151009711/20/01 15:10:31  5-MIN KMKG 202010Z 23009KT 10SM BKN030 03/M03 A3011 450 64 -800 230/09 RMK AO2
14840KMKG MKG20011120151509711/20/01 15:15:31  5-MIN KMKG 202015Z 26009KT 10SM OVC030 03/M02 A3011 460 67 -800 260/09 RMK AO2
14840KMKG MKG20011120152010311/20/01 15:20:31  5-MIN KMKG 202020Z 23008G14KT 10SM OVC030 03/M02 A3010 460 67 -800 230/08G14 RMK AO2
14840KMKG MKG20011120152509711/20/01 15:25:31  5-MIN KMKG 202025Z 24007KT 10SM OVC030 04/M02 A3010 460 64 -700 240/07 RMK AO2
14840KMKG MKG20011120153009711/20/01 15:30:31  5-MIN KMKG 202030Z 22008KT 10SM BKN030 04/M03 A3010 460 62 -700 220/08 RMK AO2
14840KMKG MKG20011120153509711/20/01 15:35:31  5-MIN KMKG 202035Z 22008KT 10SM BKN030 04/M02 A3010 460 64 -700 230/08 RMK AO2
14840KMKG MKG20011120154009711/20/01 15:40:31  5-MIN KMKG 202040Z 21010KT 10SM BKN030 04/M03 A3010 460 62 -700 220/10 RMK AO2
14840KMKG MKG20011120154509711/20/01 15:45:31  5-MIN KMKG 202045Z 23006KT 10SM SCT030 03/M03 A3010 460 64 -800 230/06 RMK AO2
14840KMKG MKG20011120155012011/20/01 15:50:31  5-MIN KMKG 202050Z 23010KT 10SM SCT030 03/M03 A3010 460 64 -700 230/10 RMK AO2 SLP198 T00331028 58007
14840KMKG MKG20011120155512011/20/01 15:55:31  5-MIN KMKG 202055Z 21011KT 10SM FEW030 03/M02 A3010 470 67 -700 210/11 RMK AO2 SLP198 T00331022 56016
14840KMKG MKG20011120160009711/20/01 16:00:31  5-MIN KMKG 202100Z 21012KT 10SM FEW030 03/M02 A3010 470 67 -700 220/12 RMK AO2
14840KMKG MKG20011120160509711/20/01 16:05:31  5-MIN KMKG 202105Z 22009KT 10SM SCT030 03/M02 A3010 460 67 -800 220/09 RMK AO2
14840KMKG MKG20011120161009711/20/01 16:10:31  5-MIN KMKG 202110Z 22010KT 10SM SCT030 03/M02 A3010 460 67 -800 220/10 RMK AO2
14840KMKG MKG20011120161509711/20/01 16:15:31  5-MIN KMKG 202115Z 23009KT 10SM SCT030 03/M02 A3010 460 67 -800 230/09 RMK AO2
14840KMKG MKG20011120162009711/20/01 16:20:31  5-MIN KMKG 202120Z 22009KT 10SM SCT030 03/M03 A3010 460 64 -800 220/09 RMK AO2
14840KMKG MKG20011120162509711/20/01 16:25:31  5-MIN KMKG 202125Z 22011KT 10SM FEW030 03/M03 A3010 460 64 -700 220/11 RMK AO2
14840KMKG MKG20011120163009711/20/01 16:30:31  5-MIN KMKG 202130Z 21012KT 10SM FEW030 03/M02 A3010 460 67 -700 220/12 RMK AO2
14840KMKG MKG20011120163509711/20/01 16:35:31  5-MIN KMKG 202135Z 21009KT 10SM FEW030 03/M02 A3010 470 67 -700 220/09 RMK AO2
14840KMKG MKG20011120164009711/20/01 16:40:31  5-MIN KMKG 202140Z 21008KT 10SM FEW030 03/M02 A3010 470 67 -700 210/08 RMK AO2
14840KMKG MKG20011120164509711/20/01 16:45:31  5-MIN KMKG 202145Z 21009KT 10SM FEW030 03/M02 A3010 470 67 -700 210/09 RMK AO2
14840KMKG MKG20011120165011411/20/01 16:50:31  5-MIN KMKG 202150Z 21010KT 10SM FEW030 03/M03 A3009 470 64 -700 210/10 RMK AO2 SLP196 T00331028
14840KMKG MKG20011120165511411/20/01 16:55:31  5-MIN KMKG 202155Z 20009KT 10SM FEW030 03/M03 A3009 470 64 -700 210/09 RMK AO2 SLP195 T00331028
14840KMKG MKG20011120170009711/20/01 17:00:31  5-MIN KMKG 202200Z 20013KT 10SM FEW030 03/M03 A3009 480 64 -700 210/13 RMK AO2
14840KMKG MKG20011120170509411/20/01 17:05:31  5-MIN KMKG 202205Z 21010KT 10SM CLR 03/M03 A3008 480 64 -700 210/10 RMK AO2
14840KMKG MKG20011120171009411/20/01 17:10:31  5-MIN KMKG 202210Z 20011KT 10SM CLR 03/M03 A3008 480 64 -700 200/11 RMK AO2
14840KMKG MKG20011120171509411/20/01 17:15:31  5-MIN KMKG 202215Z 21011KT 10SM CLR 03/M03 A3008 480 64 -700 210/11 RMK AO2
14840KMKG MKG20011120172009411/20/01 17:20:31  5-MIN KMKG 202220Z 21011KT 10SM CLR 03/M03 A3008 480 61 -700 210/11 RMK AO2
14840KMKG MKG20011120172509411/20/01 17:25:31  5-MIN KMKG 202225Z 21011KT 10SM CLR 03/M03 A3008 490 61 -700 210/11 RMK AO2
14840KMKG MKG20011120173009411/20/01 17:30:31  5-MIN KMKG 202230Z 20012KT 10SM CLR 03/M03 A3007 490 64 -700 210/12 RMK AO2
14840KMKG MKG20011120173509411/20/01 17:35:31  5-MIN KMKG 202235Z 21012KT 10SM CLR 03/M03 A3007 490 64 -700 210/12 RMK AO2
14840KMKG MKG20011120174010011/20/01 17:40:31  5-MIN KMKG 202240Z 20009G17KT 10SM CLR 03/M03 A3007 500 64 -700 210/09G17 RMK AO2
14840KMKG MKG20011120174509411/20/01 17:45:31  5-MIN KMKG 202245Z 20012KT 10SM CLR 04/M03 A3007 500 62 -600 210/12 RMK AO2
14840KMKG MKG20011120175011111/20/01 17:50:31  5-MIN KMKG 202250Z 21012KT 10SM CLR 04/M03 A3006 500 62 -600 210/12 RMK AO2 SLP186 T00391028
14840KMKG MKG20011120175511111/20/01 17:55:31  5-MIN KMKG 202255Z 20012KT 10SM CLR 04/M03 A3006 500 62 -600 210/12 RMK AO2 SLP184 T00391028
14840KMKG MKG20011120180009411/20/01 18:00:31  5-MIN KMKG 202300Z 21014KT 10SM CLR 04/M03 A3006 500 62 -600 210/14 RMK AO2
14840KMKG MKG20011120180509411/20/01 18:05:31  5-MIN KMKG 202305Z 20013KT 10SM CLR 04/M03 A3005 510 62 -600 210/13 RMK AO2
14840KMKG MKG20011120181009411/20/01 18:10:31  5-MIN KMKG 202310Z 20013KT 10SM CLR 04/M03 A3004 520 62 -600 210/13 RMK AO2
14840KMKG MKG20011120181509411/20/01 18:15:31  5-MIN KMKG 202315Z 20014KT 10SM CLR 04/M03 A3004 520 62 -600 200/14 RMK AO2
14840KMKG MKG20011120182009411/20/01 18:20:31  5-MIN KMKG 202320Z 21016KT 10SM CLR 04/M03 A3004 520 62 -600 210/16 RMK AO2
14840KMKG MKG20011120182509411/20/01 18:25:31  5-MIN KMKG 202325Z 21013KT 10SM CLR 04/M03 A3004 520 62 -600 210/13 RMK AO2
14840KMKG MKG20011120183009411/20/01 18:30:31  5-MIN KMKG 202330Z 21013KT 10SM CLR 04/M03 A3003 530 62 -600 210/13 RMK AO2
14840KMKG MKG20011120183509411/20/01 18:35:31  5-MIN KMKG 202335Z 21014KT 10SM CLR 04/M03 A3003 530 59 -500 210/14 RMK AO2
14840KMKG MKG20011120184009411/20/01 18:40:31  5-MIN KMKG 202340Z 21016KT 10SM CLR 04/M02 A3003 530 62 -500 210/16 RMK AO2
14840KMKG MKG20011120184509411/20/01 18:45:31  5-MIN KMKG 202345Z 20014KT 10SM CLR 04/M02 A3002 540 62 -500 210/14 RMK AO2
14840KMKG MKG20011120185014211/20/01 18:50:31  5-MIN KMKG 202350Z 21016G22KT 10SM CLR 04/M02 A3001 550 62 -500 210/16G22 RMK AO2 PRESFR SLP167 T00441022 10044 20033 56016
14840KMKG MKG20011120185513511/20/01 18:55:31  5-MIN KMKG 202355Z 20017G22KT 10SM CLR 04/M02 A3001 550 62 -500 200/17G22 RMK AO2 SLP168 T00441022 10044 20033 58030
14840KMKG MKG20011120190010011/20/01 19:00:31  5-MIN KMKG 210000Z 20015G24KT 10SM CLR 05/M02 A3000 560 59 -400 200/15G24 RMK AO2
14840KMKG MKG20011120190510011/20/01 19:05:31  5-MIN KMKG 210005Z 20016G24KT 10SM CLR 05/M02 A3000 560 62 -400 200/16G24 RMK AO2
14840KMKG MKG20011120191010011/20/01 19:10:31  5-MIN KMKG 210010Z 21017G22KT 10SM CLR 05/M02 A2999 560 62 -400 210/17G22 RMK AO2
14840KMKG MKG20011120191510011/20/01 19:15:31  5-MIN KMKG 210015Z 20015G22KT 10SM CLR 05/M02 A2999 560 62 -400 200/15G22 RMK AO2
14840KMKG MKG20011120192009411/20/01 19:20:31  5-MIN KMKG 210020Z 21016KT 10SM CLR 05/M02 A3000 560 62 -400 220/16 RMK AO2
14840KMKG MKG20011120192509411/20/01 19:25:31  5-MIN KMKG 210025Z 21018KT 10SM CLR 05/M02 A2999 570 62 -400 210/18 RMK AO2
14840KMKG MKG20011120193011811/20/01 19:30:31  5-MIN KMKG 210030Z 21020G26KT 10SM CLR 05/M02 A2999 570 62 -400 210/20G26 RMK AO2 PK WND 21026/0026
14840KMKG MKG20011120193511811/20/01 19:35:31  5-MIN KMKG 210035Z 21019G26KT 10SM CLR 05/M02 A2998 570 62 -400 210/19G26 RMK AO2 PK WND 21026/0026
14840KMKG MKG20011120194012511/20/01 19:40:31  5-MIN KMKG 210040Z 21018G26KT 10SM CLR 05/M02 A2997 590 59 -400 210/18G26 RMK AO2 PK WND 21026/0037 PRESFR
14840KMKG MKG20011120194512511/20/01 19:45:31  5-MIN KMKG 210045Z 20021G26KT 10SM CLR 05/M02 A2996 590 62 -400 210/21G26 RMK AO2 PK WND 21026/0043 PRESFR
14840KMKG MKG20011120195014211/20/01 19:50:31  5-MIN KMKG 210050Z 20021G26KT 10SM CLR 06/M02 A2995 610 59 -300 210/21G26 RMK AO2 PK WND 21026/0043 PRESFR SLP147 T00561017
14840KMKG MKG20011120195512911/20/01 19:55:31  5-MIN KMKG 210055Z 21018KT 10SM CLR 06/M02 A2996 590 57 -300 210/18 RMK AO2 PK WND 21026/0043 SLP151 T00561022
14840KMKG MKG20011120200010011/20/01 20:00:31  5-MIN KMKG 210100Z 21015G23KT 10SM CLR 06/M02 A2996 590 59 -300 210/15G23 RMK AO2
14840KMKG MKG20011120200510011/20/01 20:05:31  5-MIN KMKG 210105Z 21019G25KT 10SM CLR 06/M02 A2996 590 59 -300 210/19G25 RMK AO2
14840KMKG MKG20011120201010011/20/01 20:10:31  5-MIN KMKG 210110Z 21022G25KT 10SM CLR 06/M02 A2997 590 59 -300 220/22G25 RMK AO2
14840KMKG MKG20011120201510011/20/01 20:15:31  5-MIN KMKG 210115Z 21022G25KT 10SM CLR 06/M01 A2997 580 62 -300 210/22G25 RMK AO2
14840KMKG MKG20011120202011811/20/01 20:20:31  5-MIN KMKG 210120Z 20022G27KT 10SM CLR 06/M02 A2997 590 59 -300 210/22G27 RMK AO2 PK WND 20027/0119
14840KMKG MKG20011120202511811/20/01 20:25:31  5-MIN KMKG 210125Z 20020G27KT 10SM CLR 06/M02 A2996 590 59 -300 210/20G27 RMK AO2 PK WND 20027/0119
14840KMKG MKG20011120203011811/20/01 20:30:31  5-MIN KMKG 210130Z 21017G25KT 10SM CLR 06/M01 A2996 590 62 -300 210/17G25 RMK AO2 PK WND 20027/0119
14840KMKG MKG20011120203511811/20/01 20:35:31  5-MIN KMKG 210135Z 21022G27KT 10SM CLR 06/M01 A2996 590 62 -300 210/22G27 RMK AO2 PK WND 23027/0133
14840KMKG MKG20011120204011811/20/01 20:40:31  5-MIN KMKG 210140Z 21018G27KT 10SM CLR 06/M01 A2996 590 62 -300 220/18G27 RMK AO2 PK WND 23027/0133
14840KMKG MKG20011120204511811/20/01 20:45:31  5-MIN KMKG 210145Z 22022G28KT 10SM CLR 06/M01 A2996 590 60 -200 220/22G28 RMK AO2 PK WND 22028/0145
14840KMKG MKG20011120205013511/20/01 20:50:31  5-MIN KMKG 210150Z 21020G28KT 10SM CLR 06/M01 A2996 590 60 -200 210/20G28 RMK AO2 PK WND 22028/0145 SLP151 T00611011
14840KMKG MKG20011120205513511/20/01 20:55:31  5-MIN KMKG 210155Z 22018G27KT 10SM CLR 06/M01 A2996 590 60 -200 220/18G27 RMK AO2 PK WND 22028/0145 SLP152 T00611011
14840KMKG MKG20011120210011811/20/01 21:00:31  5-MIN KMKG 210200Z 21022G28KT 10SM CLR 06/M01 A2996 590 60 -200 220/22G28 RMK AO2 PK WND 21028/0200
14840KMKG MKG20011120210511811/20/01 21:05:31  5-MIN KMKG 210205Z 21020G29KT 10SM CLR 06/M01 A2996 590 60 -200 220/20G29 RMK AO2 PK WND 22029/0203
14840KMKG MKG20011120211011811/20/01 21:10:31  5-MIN KMKG 210210Z 22021G29KT 10SM CLR 06/M02 A2996 590 55 -200 220/21G29 RMK AO2 PK WND 21029/0210
14840KMKG MKG20011120211511811/20/01 21:15:31  5-MIN KMKG 210215Z 22024G29KT 10SM CLR 06/M01 A2996 590 60 -200 220/24G29 RMK AO2 PK WND 21029/0210
14840KMKG MKG20011120212011811/20/01 21:20:31  5-MIN KMKG 210220Z 22018G28KT 10SM CLR 06/M02 A2996 590 57 -300 230/18G28 RMK AO2 PK WND 21029/0210
14840KMKG MKG20011120212511811/20/01 21:25:31  5-MIN KMKG 210225Z 22019G25KT 10SM CLR 06/M02 A2997 580 57 -300 220/19G25 RMK AO2 PK WND 21029/0210
14840KMKG MKG20011120213011811/20/01 21:30:31  5-MIN KMKG 210230Z 22015G25KT 10SM CLR 06/M01 A2997 590 60 -300 220/15G25 RMK AO2 PK WND 21029/0210
14840KMKG MKG20011120213511811/20/01 21:35:31  5-MIN KMKG 210235Z 22021G24KT 10SM CLR 06/M02 A2997 580 57 -300 220/21G24 RMK AO2 PK WND 21029/0210
14840KMKG MKG20011120214011811/20/01 21:40:31  5-MIN KMKG 210240Z 22019G24KT 10SM CLR 06/M02 A2997 590 55 -300 220/19G24 RMK AO2 PK WND 21029/0210
14840KMKG MKG20011120214511811/20/01 21:45:31  5-MIN KMKG 210245Z 22015G22KT 10SM CLR 06/M02 A2997 590 59 -300 230/15G22 RMK AO2 PK WND 21029/0210
14840KMKG MKG20011120215014111/20/01 21:50:31  5-MIN KMKG 210250Z 22020G25KT 10SM CLR 06/M02 A2997 580 55 -300 220/20G25 RMK AO2 PK WND 21029/0210 SLP153 T00611022 58030
14840KMKG MKG20011120215514111/20/01 21:55:31  5-MIN KMKG 210255Z 21019G25KT 10SM CLR 06/M02 A2997 590 57 -300 220/19G25 RMK AO2 PK WND 21029/0210 SLP153 T00611017 55014
14840KMKG MKG20011120220011811/20/01 22:00:31  5-MIN KMKG 210300Z 22019G27KT 10SM CLR 06/M02 A2996 590 57 -300 220/19G27 RMK AO2 PK WND 21027/0258
14840KMKG MKG20011120220511811/20/01 22:05:31  5-MIN KMKG 210305Z 22017G27KT 10SM CLR 06/M02 A2996 590 57 -200 220/17G27 RMK AO2 PK WND 21027/0258
14840KMKG MKG20011120221011211/20/01 22:10:31  5-MIN KMKG 210310Z 22018KT 10SM CLR 06/M02 A2996 590 57 -200 220/18 RMK AO2 PK WND 21027/0258
14840KMKG MKG20011120221511811/20/01 22:15:31  5-MIN KMKG 210315Z 22022G26KT 10SM CLR 06/M02 A2996 590 55 -200 220/22G26 RMK AO2 PK WND 21027/0258
14840KMKG MKG20011120222011811/20/01 22:20:31  5-MIN KMKG 210320Z 22021G27KT 10SM CLR 06/M02 A2996 600 57 -200 230/21G27 RMK AO2 PK WND 22027/0319
14840KMKG MKG20011120222511811/20/01 22:25:31  5-MIN KMKG 210325Z 23021G27KT 10SM CLR 06/M02 A2996 600 57 -200 230/21G27 RMK AO2 PK WND 22027/0319
14840KMKG MKG20011120223011811/20/01 22:30:31  5-MIN KMKG 210330Z 21017G26KT 10SM CLR 06/M01 A2995 600 62 -300 220/17G26 RMK AO2 PK WND 22027/0319
14840KMKG MKG20011120223511811/20/01 22:35:31  5-MIN KMKG 210335Z 23021G26KT 10SM CLR 06/M01 A2995 600 62 -300 230/21G26 RMK AO2 PK WND 22027/0319
14840KMKG MKG20011120224011811/20/01 22:40:31  5-MIN KMKG 210340Z 22022G26KT 10SM CLR 06/M01 A2995 600 62 -300 220/22G26 RMK AO2 PK WND 22027/0319
14840KMKG MKG20011120224511811/20/01 22:45:31  5-MIN KMKG 210345Z 23019G26KT 10SM CLR 06/M01 A2995 600 60 -200 230/19G26 RMK AO2 PK WND 22027/0319
14840KMKG MKG20011120225012911/20/01 22:50:31  5-MIN KMKG 210350Z 21018KT 10SM CLR 06/M01 A2995 600 62 -300 220/18 RMK AO2 PK WND 22027/0319 SLP146 T00561011
14840KMKG MKG20011120225513511/20/01 22:55:31  5-MIN KMKG 210355Z 22022G31KT 10SM CLR 06/M02 A2995 600 59 -300 220/22G31 RMK AO2 PK WND 22031/0355 SLP147 T00561017
14840KMKG MKG20011120230011811/20/01 23:00:31  5-MIN KMKG 210400Z 21019G31KT 10SM CLR 06/M02 A2995 600 57 -200 220/19G31 RMK AO2 PK WND 20026/0358
14840KMKG MKG20011120230511811/20/01 23:05:31  5-MIN KMKG 210405Z 22017G26KT 10SM CLR 06/M01 A2995 600 62 -300 220/17G26 RMK AO2 PK WND 20026/0358
14840KMKG MKG20011120231011811/20/01 23:10:31  5-MIN KMKG 210410Z 22017G23KT 10SM CLR 06/M01 A2995 600 62 -300 230/17G23 RMK AO2 PK WND 20026/0358
14840KMKG MKG20011120231511811/20/01 23:15:31  5-MIN KMKG 210415Z 22020G26KT 10SM CLR 06/M01 A2994 610 60 -200 230/20G26 RMK AO2 PK WND 23026/0415
14840KMKG MKG20011120232011811/20/01 23:20:31  5-MIN KMKG 210420Z 22021G28KT 10SM CLR 06/M01 A2994 610 62 -300 230/21G28 RMK AO2 PK WND 20028/0420
14840KMKG MKG20011120232511811/20/01 23:25:31  5-MIN KMKG 210425Z 22019G28KT 10SM CLR 06/M01 A2994 610 62 -300 220/19G28 RMK AO2 PK WND 20028/0420
14840KMKG MKG20011120233011811/20/01 23:30:31  5-MIN KMKG 210430Z 23019G26KT 10SM CLR 06/M01 A2994 610 60 -200 230/19G26 RMK AO2 PK WND 20028/0420
14840KMKG MKG20011120233511811/20/01 23:35:31  5-MIN KMKG 210435Z 23017G25KT 10SM CLR 06/M01 A2994 610 60 -200 230/17G25 RMK AO2 PK WND 20028/0420
14840KMKG MKG20011120234011811/20/01 23:40:31  5-MIN KMKG 210440Z 23019G27KT 10SM CLR 06/M02 A2993 620 55 -200 230/19G27 RMK AO2 PK WND 20028/0420
14840KMKG MKG20011120234511811/20/01 23:45:31  5-MIN KMKG 210445Z 22020G27KT 10SM CLR 06/M02 A2993 620 55 -200 230/20G27 RMK AO2 PK WND 20028/0420
14840KMKG MKG20011120235014511/20/01 23:50:31  5-MIN KMKG 210450Z 22018G26KT 10SM CLR 06/M02 A2994 610 55 -200 220/18G26 RMK AO2 PK WND 20028/0420 SLP142 T00611022 400610006
14840KMKG MKG20011120235514511/20/01 23:55:31  5-MIN KMKG 210455Z 22017G23KT 10SM CLR 06/M02 A2993 620 59 -300 220/17G23 RMK AO2 PK WND 20028/0420 SLP141 T00561017 400610006
14840KMKG MKG20011121000010011/21/01 00:00:31  5-MIN KMKG 210500Z 22019G24KT 10SM CLR 06/M01 A2993 620 60 -200 220/19G24 RMK AO2
14840KMKG MKG20011121000510011/21/01 00:05:31  5-MIN KMKG 210505Z 22018G24KT 10SM CLR 06/M02 A2993 620 57 -200 220/18G24 RMK AO2
14840KMKG MKG20011121001011811/21/01 00:10:31  5-MIN KMKG 210510Z 23020G26KT 10SM CLR 06/M02 A2993 620 57 -200 230/20G26 RMK AO2 PK WND 22026/0507
14840KMKG MKG20011121001511811/21/01 00:15:31  5-MIN KMKG 210515Z 23017G26KT 10SM CLR 06/M02 A2993 620 55 -200 230/17G26 RMK AO2 PK WND 22026/0507
14840KMKG MKG20011121002011811/21/01 00:20:31  5-MIN KMKG 210520Z 22016G23KT 10SM CLR 06/M02 A2993 620 57 -200 220/16G23 RMK AO2 PK WND 22026/0507
14840KMKG MKG20011121002511811/21/01 00:25:31  5-MIN KMKG 210525Z 22020G23KT 10SM CLR 06/M02 A2993 630 59 -300 230/20G23 RMK AO2 PK WND 22026/0507
14840KMKG MKG20011121003011211/21/01 00:30:31  5-MIN KMKG 210530Z 22016KT 10SM CLR 06/M02 A2993 630 57 -200 230/16 RMK AO2 PK WND 22026/0507
14840KMKG MKG20011121003511211/21/01 00:35:31  5-MIN KMKG 210535Z 22018KT 10SM CLR 06/M01 A2992 630 62 -300 220/18 RMK AO2 PK WND 22026/0507
14840KMKG MKG20011121004011811/21/01 00:40:31  5-MIN KMKG 210540Z 22018G27KT 10SM CLR 06/M02 A2992 630 57 -200 230/18G27 RMK AO2 PK WND 22027/0537
14840KMKG MKG20011121004511811/21/01 00:45:31  5-MIN KMKG 210545Z 22015G27KT 10SM CLR 06/M02 A2992 630 57 -200 220/15G27 RMK AO2 PK WND 22027/0537
14840KMKG MKG20011121005014711/21/01 00:50:31  5-MIN KMKG 210550Z 21016KT 10SM CLR 06/M01 A2991 640 62 -300 220/16 RMK AO2 PK WND 22027/0537 SLP133 T00561011 10061 20044 55014
14840KMKG MKG20011121005515311/21/01 00:55:31  5-MIN KMKG 210555Z 22021G25KT 10SM CLR 06/M02 A2990 640 57 -200 220/21G25 RMK AO2 PK WND 22027/0537 SLP131 T00611017 10061 20044 58021
14840KMKG MKG20011121010011811/21/01 01:00:31  5-MIN KMKG 210600Z 22020G26KT 10SM CLR 06/M02 A2990 650 57 -200 220/20G26 RMK AO2 PK WND 22026/0558
14840KMKG MKG20011121010511811/21/01 01:05:31  5-MIN KMKG 210605Z 22020G26KT 10SM CLR 06/M02 A2990 650 57 -200 220/20G26 RMK AO2 PK WND 22026/0558
14840KMKG MKG20011121011011811/21/01 01:10:31  5-MIN KMKG 210610Z 22021G25KT 10SM CLR 06/M02 A2990 650 57 -200 220/21G25 RMK AO2 PK WND 22026/0558
14840KMKG MKG20011121011511811/21/01 01:15:31  5-MIN KMKG 210615Z 21018G25KT 10SM CLR 06/M02 A2990 650 57 -200 220/18G25 RMK AO2 PK WND 22026/0558
14840KMKG MKG20011121012011811/21/01 01:20:31  5-MIN KMKG 210620Z 21017G24KT 10SM CLR 06/M01 A2990 650 60 -200 220/17G24 RMK AO2 PK WND 22026/0558
14840KMKG MKG20011121012511811/21/01 01:25:31  5-MIN KMKG 210625Z 21018G24KT 10SM CLR 06/M01 A2990 650 60 -200 220/18G24 RMK AO2 PK WND 22026/0558
14840KMKG MKG20011121013011811/21/01 01:30:31  5-MIN KMKG 210630Z 22018G23KT 10SM CLR 06/M01 A2989 660 60 -200 220/18G23 RMK AO2 PK WND 22026/0558
14840KMKG MKG20011121013511811/21/01 01:35:31  5-MIN KMKG 210635Z 21020G24KT 10SM CLR 06/M01 A2989 660 60 -200 220/20G24 RMK AO2 PK WND 22026/0558
14840KMKG MKG20011121014011811/21/01 01:40:31  5-MIN KMKG 210640Z 21016G26KT 10SM CLR 06/M01 A2989 660 60 -200 220/16G26 RMK AO2 PK WND 20026/0637
14840KMKG MKG20011121014511811/21/01 01:45:31  5-MIN KMKG 210645Z 21018G26KT 10SM CLR 06/M01 A2989 660 60 -200 210/18G26 RMK AO2 PK WND 20026/0637
14840KMKG MKG20011121015013511/21/01 01:50:31  5-MIN KMKG 210650Z 21016G24KT 10SM CLR 06/M01 A2988 660 62 -200 210/16G24 RMK AO2 PK WND 20026/0637 SLP124 T00611006
14840KMKG MKG20011121015512911/21/01 01:55:31  5-MIN KMKG 210655Z 21016KT 10SM CLR 06/M01 A2988 670 62 -200 210/16 RMK AO2 PK WND 20026/0637 SLP123 T00611006
14840KMKG MKG20011121020011811/21/01 02:00:31  5-MIN KMKG 210700Z 20020G29KT 10SM CLR 06/M01 A2988 670 62 -200 210/20G29 RMK AO2 PK WND 21029/0700
14840KMKG MKG20011121020511811/21/01 02:05:31  5-MIN KMKG 210705Z 21017G29KT 10SM CLR 06/M01 A2988 670 62 -200 210/17G29 RMK AO2 PK WND 21029/0700
14840KMKG MKG20011121021011811/21/01 02:10:31  5-MIN KMKG 210710Z 21020G25KT 10SM CLR 06/M01 A2988 670 62 -200 210/20G25 RMK AO2 PK WND 21029/0700
14840KMKG MKG20011121021511811/21/01 02:15:31  5-MIN KMKG 210715Z 21018G25KT 10SM CLR 06/M01 A2988 670 62 -100 210/18G25 RMK AO2 PK WND 21029/0700
14840KMKG MKG20011121022011111/21/01 02:20:31  5-MIN KMKG 210720Z 21017KT 10SM CLR 06/00 A2987 670 65 -100 210/17 RMK AO2 PK WND 21029/0700
14840KMKG MKG20011121022511711/21/01 02:25:31  5-MIN KMKG 210725Z 21018G23KT 10SM CLR 07/00 A2987 670 62 -100 210/18G23 RMK AO2 PK WND 21029/0700
14840KMKG MKG20011121023011711/21/01 02:30:31  5-MIN KMKG 210730Z 21017G24KT 10SM CLR 07/00 A2987 680 62 -100 220/17G24 RMK AO2 PK WND 21029/0700
14840KMKG MKG20011121023511711/21/01 02:35:31  5-MIN KMKG 210735Z 21019G25KT 10SM CLR 07/00 A2987 680 62 -100 210/19G25 RMK AO2 PK WND 21029/0700
14840KMKG MKG20011121024011711/21/01 02:40:31  5-MIN KMKG 210740Z 21020G27KT 10SM CLR 07/00 A2987 680 62 -100 220/20G27 RMK AO2 PK WND 21029/0700
14840KMKG MKG20011121024511711/21/01 02:45:31  5-MIN KMKG 210745Z 21016G27KT 10SM CLR 07/00 A2987 680 62 -100 210/16G27 RMK AO2 PK WND 21029/0700
14840KMKG MKG20011121025013411/21/01 02:50:31  5-MIN KMKG 210750Z 21020G25KT 10SM CLR 07/00 A2987 680 62 -100 220/20G25 RMK AO2 PK WND 21029/0700 SLP118 T00670000
14840KMKG MKG20011121025513411/21/01 02:55:31  5-MIN KMKG 210755Z 21016G25KT 10SM CLR 07/00 A2987 680 62 -100 220/16G25 RMK AO2 PK WND 21029/0700 SLP118 T00670000
14840KMKG MKG20011121030009911/21/01 03:00:31  5-MIN KMKG 210800Z 21017G24KT 10SM CLR 07/00 A2986 680 62 -100 220/17G24 RMK AO2
14840KMKG MKG20011121030509311/21/01 03:05:31  5-MIN KMKG 210805Z 22018KT 10SM CLR 07/00 A2987 680 62 -100 220/18 RMK AO2
14840KMKG MKG20011121031009911/21/01 03:10:31  5-MIN KMKG 210810Z 21020G25KT 10SM CLR 07/00 A2986 680 62 -100 220/20G25 RMK AO2
14840KMKG MKG20011121031511711/21/01 03:15:31  5-MIN KMKG 210815Z 21017G26KT 10SM CLR 07/00 A2986 680 62 -100 210/17G26 RMK AO2 PK WND 20026/0815
14840KMKG MKG20011121032011711/21/01 03:20:31  5-MIN KMKG 210820Z 22020G26KT 10SM CLR 07/00 A2986 690 62 -100 220/20G26 RMK AO2 PK WND 21026/0818
14840KMKG MKG20011121032511711/21/01 03:25:31  5-MIN KMKG 210825Z 21022G29KT 10SM CLR 07/00 A2986 690 62 -100 210/22G29 RMK AO2 PK WND 21029/0825
14840KMKG MKG20011121033011711/21/01 03:30:31  5-MIN KMKG 210830Z 22019G29KT 10SM CLR 07/00 A2986 690 62 -100 220/19G29 RMK AO2 PK WND 21029/0825
14840KMKG MKG20011121033511711/21/01 03:35:31  5-MIN KMKG 210835Z 21019G25KT 10SM CLR 07/01 A2986 690 65 -100 220/19G25 RMK AO2 PK WND 21029/0825
14840KMKG MKG20011121034011711/21/01 03:40:31  5-MIN KMKG 210840Z 21017G25KT 10SM CLR 07/01 A2985 690 65 -100 210/17G25 RMK AO2 PK WND 21029/0825
14840KMKG MKG20011121034511711/21/01 03:45:31  5-MIN KMKG 210845Z 22020G27KT 10SM CLR 07/00 A2985 690 62 -100 220/20G27 RMK AO2 PK WND 21029/0825
14840KMKG MKG20011121035014011/21/01 03:50:31  5-MIN KMKG 210850Z 22015G27KT 10SM CLR 07/01 A2985 690 65 -100 220/15G27 RMK AO2 PK WND 21029/0825 SLP113 T00670006 58021
14840KMKG MKG20011121035514011/21/01 03:55:31  5-MIN KMKG 210855Z 22017G24KT 10SM CLR 06/01 A2985 700 67 -100 220/17G24 RMK AO2 PK WND 21029/0825 SLP111 T00610006 56019
14840KMKG MKG20011121040009611/21/01 04:00:31  5-MIN KMKG 210900Z 22018G24KT 10SM CLR 07/01 A2985 700 65 0 220/18G24 RMK AO2
14840KMKG MKG20011121040511411/21/01 04:05:31  5-MIN KMKG 210905Z 22019G26KT 10SM CLR 07/01 A2984 700 65 0 220/19G26 RMK AO2 PK WND 22026/0902
14840KMKG MKG20011121041011411/21/01 04:10:31  5-MIN KMKG 210910Z 22019G26KT 10SM CLR 07/01 A2984 700 65 0 220/19G26 RMK AO2 PK WND 22026/0902
14840KMKG MKG20011121041510811/21/01 04:15:31  5-MIN KMKG 210915Z 22015KT 10SM CLR 07/01 A2984 710 65 0 220/15 RMK AO2 PK WND 22026/0902
14840KMKG MKG20011121042011411/21/01 04:20:31  5-MIN KMKG 210920Z 22018G24KT 10SM CLR 07/01 A2984 710 65 0 230/18G24 RMK AO2 PK WND 22026/0902
14840KMKG MKG20011121042511411/21/01 04:25:31  5-MIN KMKG 210925Z 22019G24KT 10SM CLR 07/01 A2983 710 65 0 230/19G24 RMK AO2 PK WND 22026/0902
14840KMKG MKG20011121043011411/21/01 04:30:31  5-MIN KMKG 210930Z 22018G23KT 10SM CLR 07/01 A2983 710 65 0 230/18G23 RMK AO2 PK WND 22026/0902
14840KMKG MKG20011121043511411/21/01 04:35:31  5-MIN KMKG 210935Z 22018G23KT 10SM CLR 07/01 A2983 720 65 0 230/18G23 RMK AO2 PK WND 22026/0902
14840KMKG MKG20011121044011411/21/01 04:40:31  5-MIN KMKG 210940Z 22018G24KT 10SM CLR 07/01 A2983 720 65 0 230/18G24 RMK AO2 PK WND 22026/0902
14840KMKG MKG20011121044511411/21/01 04:45:31  5-MIN KMKG 210945Z 22016G24KT 10SM CLR 07/01 A2982 720 65 0 230/16G24 RMK AO2 PK WND 22026/0902
14840KMKG MKG20011121045013111/21/01 04:50:31  5-MIN KMKG 210950Z 22017G22KT 10SM CLR 07/01 A2983 720 65 0 230/17G22 RMK AO2 PK WND 22026/0902 SLP104 T00670006
14840KMKG MKG20011121045513111/21/01 04:55:31  5-MIN KMKG 210955Z 22017G23KT 10SM CLR 07/00 A2983 720 62 0 230/17G23 RMK AO2 PK WND 22026/0902 SLP105 T00670000
14840KMKG MKG20011121050009611/21/01 05:00:31  5-MIN KMKG 211000Z 23016G23KT 10SM CLR 07/00 A2983 720 62 0 230/16G23 RMK AO2
14840KMKG MKG20011121050509611/21/01 05:05:31  5-MIN KMKG 211005Z 22017G22KT 10SM CLR 07/01 A2982 720 65 0 230/17G22 RMK AO2
14840KMKG MKG20011121051011411/21/01 05:10:31  5-MIN KMKG 211010Z 22019G27KT 10SM CLR 07/00 A2982 720 62 0 230/19G27 RMK AO2 PK WND 22027/1009
14840KMKG MKG20011121051511411/21/01 05:15:31  5-MIN KMKG 211015Z 22015G27KT 10SM CLR 07/01 A2982 720 65 0 230/15G27 RMK AO2 PK WND 22027/1009
14840KMKG MKG20011121052011411/21/01 05:20:31  5-MIN KMKG 211020Z 23014G21KT 10SM CLR 07/01 A2982 720 65 0 230/14G21 RMK AO2 PK WND 22027/1009
14840KMKG MKG20011121052511411/21/01 05:25:31  5-MIN KMKG 211025Z 22015G21KT 10SM CLR 07/00 A2982 720 62 0 230/15G21 RMK AO2 PK WND 22027/1009
14840KMKG MKG20011121053010811/21/01 05:30:31  5-MIN KMKG 211030Z 22017KT 10SM CLR 07/01 A2982 720 65 0 230/17 RMK AO2 PK WND 22027/1009
14840KMKG MKG20011121053510811/21/01 05:35:31  5-MIN KMKG 211035Z 23014KT 10SM CLR 07/00 A2982 720 62 0 230/14 RMK AO2 PK WND 22027/1009
14840KMKG MKG20011121054011411/21/01 05:40:31  5-MIN KMKG 211040Z 23012G20KT 10SM CLR 07/00 A2982 720 62 0 230/12G20 RMK AO2 PK WND 22027/1009
14840KMKG MKG20011121054511411/21/01 05:45:31  5-MIN KMKG 211045Z 23016G22KT 10SM CLR 07/00 A2982 720 62 0 230/16G22 RMK AO2 PK WND 22027/1009
14840KMKG MKG20011121055013111/21/01 05:50:31  5-MIN KMKG 211050Z 22015G22KT 10SM CLR 07/00 A2982 720 62 0 230/15G22 RMK AO2 PK WND 22027/1009 SLP103 T00670000
14840KMKG MKG20011121055513111/21/01 05:55:31  5-MIN KMKG 211055Z 23015G22KT 10SM CLR 07/00 A2981 730 62 0 230/15G22 RMK AO2 PK WND 22027/1009 SLP100 T00670000
14840KMKG MKG20011121060009911/21/01 06:00:31  5-MIN KMKG 211100Z 22016G22KT 10SM CLR 06/00 A2981 730 65 -100 230/16G22 RMK AO2
14840KMKG MKG20011121060509611/21/01 06:05:31  5-MIN KMKG 211105Z 23016G24KT 10SM CLR 07/00 A2981 730 62 0 230/16G24 RMK AO2
14840KMKG MKG20011121061009611/21/01 06:10:31  5-MIN KMKG 211110Z 23018G24KT 10SM CLR 07/00 A2981 730 62 0 230/18G24 RMK AO2
14840KMKG MKG20011121061509611/21/01 06:15:31  5-MIN KMKG 211115Z 22014G23KT 10SM CLR 07/01 A2980 740 65 0 230/14G23 RMK AO2
14840KMKG MKG20011121062009911/21/01 06:20:31  5-MIN KMKG 211120Z 22012G19KT 10SM CLR 06/01 A2980 740 67 -100 220/12G19 RMK AO2
14840KMKG MKG20011121062509911/21/01 06:25:31  5-MIN KMKG 211125Z 22014G23KT 10SM CLR 06/01 A2980 740 67 -100 220/14G23 RMK AO2
14840KMKG MKG20011121063009611/21/01 06:30:31  5-MIN KMKG 211130Z 22014G23KT 10SM CLR 07/01 A2981 740 65 0 230/14G23 RMK AO2
14840KMKG MKG20011121063509911/21/01 06:35:31  5-MIN KMKG 211135Z 22017G23KT 10SM CLR 06/01 A2980 740 67 -100 220/17G23 RMK AO2
14840KMKG MKG20011121064009911/21/01 06:40:31  5-MIN KMKG 211140Z 22013G24KT 10SM CLR 06/01 A2980 740 67 -100 230/13G24 RMK AO2
14840KMKG MKG20011121064509911/21/01 06:45:31  5-MIN KMKG 211145Z 23016G24KT 10SM CLR 06/01 A2980 740 67 -100 230/16G24 RMK AO2
14840KMKG MKG20011121065013411/21/01 06:50:31  5-MIN KMKG 211150Z 22015G21KT 10SM CLR 06/01 A2980 740 67 -100 220/15G21 RMK AO2 SLP096 T00610006 10067 20061 56019
14840KMKG MKG20011121065513411/21/01 06:55:31  5-MIN KMKG 211155Z 23015G22KT 10SM CLR 06/01 A2980 740 67 -100 230/15G22 RMK AO2 SLP096 T00610006 10067 20061 56015
14840KMKG MKG20011121070009611/21/01 07:00:31  5-MIN KMKG 211200Z 23017G22KT 10SM CLR 07/01 A2980 740 65 0 230/17G22 RMK AO2
14840KMKG MKG20011121070509911/21/01 07:05:31  5-MIN KMKG 211205Z 23014G22KT 10SM CLR 06/01 A2980 740 67 -100 230/14G22 RMK AO2
14840KMKG MKG20011121071009911/21/01 07:10:31  5-MIN KMKG 211210Z 23015G21KT 10SM CLR 06/01 A2980 740 67 -100 230/15G21 RMK AO2
14840KMKG MKG20011121071509911/21/01 07:15:31  5-MIN KMKG 211215Z 23016G21KT 10SM CLR 06/01 A2981 740 67 -100 230/16G21 RMK AO2
14840KMKG MKG20011121072009911/21/01 07:20:31  5-MIN KMKG 211220Z 23015G21KT 10SM CLR 06/01 A2980 740 67 -100 230/15G21 RMK AO2
14840KMKG MKG20011121072509011/21/01 07:25:31  5-MIN KMKG 211225Z 23014KT 10SM CLR 07/01 A2980 740 65 0 230/14 RMK AO2
14840KMKG MKG20011121073009311/21/01 07:30:31  5-MIN KMKG 211230Z 23013KT 10SM CLR 06/01 A2980 740 67 -100 240/13 RMK AO2
14840KMKG MKG20011121073509911/21/01 07:35:31  5-MIN KMKG 211235Z 23014G19KT 10SM CLR 06/01 A2980 740 67 -100 230/14G19 RMK AO2
14840KMKG MKG20011121074009911/21/01 07:40:31  5-MIN KMKG 211240Z 23016G22KT 10SM CLR 06/01 A2980 740 67 -100 230/16G22 RMK AO2
14840KMKG MKG20011121074509911/21/01 07:45:31  5-MIN KMKG 211245Z 23015G22KT 10SM CLR 06/01 A2980 740 67 -100 230/15G22 RMK AO2
14840KMKG MKG20011121075011611/21/01 07:50:31  5-MIN KMKG 211250Z 23015G21KT 10SM CLR 06/01 A2980 740 67 -100 230/15G21 RMK AO2 SLP095 T00610006
14840KMKG MKG20011121075511611/21/01 07:55:31  5-MIN KMKG 211255Z 23012G21KT 10SM CLR 06/01 A2980 740 67 -100 230/12G21 RMK AO2 SLP096 T00610006
14840KMKG MKG20011121080009311/21/01 08:00:31  5-MIN KMKG 211300Z 23015KT 10SM CLR 06/01 A2980 740 67 -100 230/15 RMK AO2
14840KMKG MKG20011121080509911/21/01 08:05:31  5-MIN KMKG 211305Z 23014G20KT 10SM CLR 06/01 A2980 740 67 -100 240/14G20 RMK AO2
14840KMKG MKG20011121081009911/21/01 08:10:31  5-MIN KMKG 211310Z 23015G21KT 10SM CLR 06/01 A2980 750 67 -100 230/15G21 RMK AO2
14840KMKG MKG20011121081509911/21/01 08:15:31  5-MIN KMKG 211315Z 22013G21KT 10SM CLR 06/01 A2980 750 67 -100 230/13G21 RMK AO2
14840KMKG MKG20011121082009911/21/01 08:20:31  5-MIN KMKG 211320Z 23011G18KT 10SM CLR 06/01 A2980 740 67 -100 230/11G18 RMK AO2
14840KMKG MKG20011121082509911/21/01 08:25:31  5-MIN KMKG 211325Z 23013G18KT 10SM CLR 06/01 A2980 740 67 -100 240/13G18 RMK AO2
14840KMKG MKG20011121083009311/21/01 08:30:31  5-MIN KMKG 211330Z 24014KT 10SM CLR 06/01 A2981 730 67 -100 240/14 RMK AO2
14840KMKG MKG20011121083509011/21/01 08:35:31  5-MIN KMKG 211335Z 23010KT 10SM CLR 07/01 A2980 740 65 0 240/10 RMK AO2
14840KMKG MKG20011121084009011/21/01 08:40:31  5-MIN KMKG 211340Z 23010KT 10SM CLR 07/01 A2981 740 65 0 230/10 RMK AO2
14840KMKG MKG20011121084509611/21/01 08:45:31  5-MIN KMKG 211345Z 24014G18KT 10SM CLR 07/01 A2981 740 65 0 240/14G18 RMK AO2
14840KMKG MKG20011121085011311/21/01 08:50:31  5-MIN KMKG 211350Z 23013G20KT 10SM CLR 07/01 A2981 740 65 0 240/13G20 RMK AO2 SLP096 T00670006
14840KMKG MKG20011121085511311/21/01 08:55:31  5-MIN KMKG 211355Z 24014G20KT 10SM CLR 07/01 A2980 740 65 0 240/14G20 RMK AO2 SLP096 T00670006
14840KMKG MKG20011121090009611/21/01 09:00:31  5-MIN KMKG 211400Z 23012G19KT 10SM CLR 07/01 A2980 740 65 0 230/12G19 RMK AO2
14840KMKG MKG20011121090509611/21/01 09:05:31  5-MIN KMKG 211405Z 23012G18KT 10SM CLR 07/01 A2980 740 62 0 240/12G18 RMK AO2
14840KMKG MKG20011121091009611/21/01 09:10:31  5-MIN KMKG 211410Z 23013G19KT 10SM CLR 07/01 A2981 740 62 0 230/13G19 RMK AO2
14840KMKG MKG20011121091509611/21/01 09:15:31  5-MIN KMKG 211415Z 23014G20KT 10SM CLR 07/01 A2981 730 65 0 230/14G20 RMK AO2
14840KMKG MKG20011121092009611/21/01 09:20:31  5-MIN KMKG 211420Z 23014G20KT 10SM CLR 07/01 A2981 730 65 0 230/14G20 RMK AO2
14840KMKG MKG20011121092509011/21/01 09:25:31  5-MIN KMKG 211425Z 24013KT 10SM CLR 07/01 A2981 730 65 0 240/13 RMK AO2
14840KMKG MKG20011121093009011/21/01 09:30:31  5-MIN KMKG 211430Z 23009KT 10SM CLR 07/01 A2981 730 65 0 230/09 RMK AO2
14840KMKG MKG20011121093509611/21/01 09:35:31  5-MIN KMKG 211435Z 23012G17KT 10SM CLR 07/01 A2981 730 65 0 230/12G17 RMK AO2
14840KMKG MKG20011121094009611/21/01 09:40:31  5-MIN KMKG 211440Z 23013G20KT 10SM CLR 07/01 A2981 740 65 0 230/13G20 RMK AO2
14840KMKG MKG20011121094509611/21/01 09:45:31  5-MIN KMKG 211445Z 22012G20KT 10SM CLR 07/01 A2981 740 65 0 230/12G20 RMK AO2
14840KMKG MKG20011121095011911/21/01 09:50:31  5-MIN KMKG 211450Z 23016G21KT 10SM CLR 07/01 A2980 740 65 0 240/16G21 RMK AO2 SLP096 T00720011 56015
14840KMKG MKG20011121095512111/21/01 09:55:31  5-MIN KMKG 211455Z 23013G21KT 10SM CLR 08/01 A2980 740 62 100 230/13G21 RMK AO2 SLP096 T00780011 53001
14840KMKG MKG20011121100009811/21/01 10:00:31  5-MIN KMKG 211500Z 22017G20KT 10SM CLR 08/01 A2980 740 62 100 220/17G20 RMK AO2
14840KMKG MKG20011121100509811/21/01 10:05:31  5-MIN KMKG 211505Z 23012G20KT 10SM CLR 08/01 A2980 740 62 100 230/12G20 RMK AO2
14840KMKG MKG20011121101009811/21/01 10:10:31  5-MIN KMKG 211510Z 23015G20KT 10SM CLR 08/01 A2980 740 62 100 230/15G20 RMK AO2
14840KMKG MKG20011121101509811/21/01 10:15:31  5-MIN KMKG 211515Z 22015G20KT 10SM CLR 08/01 A2980 740 62 100 230/15G20 RMK AO2
14840KMKG MKG20011121102009811/21/01 10:20:31  5-MIN KMKG 211520Z 23016G20KT 10SM CLR 08/01 A2980 740 62 100 230/16G20 RMK AO2
14840KMKG MKG20011121102509811/21/01 10:25:31  5-MIN KMKG 211525Z 23012G20KT 10SM CLR 08/01 A2980 750 62 100 230/12G20 RMK AO2
14840KMKG MKG20011121103009811/21/01 10:30:31  5-MIN KMKG 211530Z 22011G20KT 10SM CLR 08/02 A2980 740 63 200 230/11G20 RMK AO2
14840KMKG MKG20011121103509811/21/01 10:35:31  5-MIN KMKG 211535Z 22012G20KT 10SM CLR 08/02 A2980 740 63 200 230/12G20 RMK AO2
14840KMKG MKG20011121104009811/21/01 10:40:31  5-MIN KMKG 211540Z 24013G18KT 10SM CLR 08/01 A2980 740 62 100 240/13G18 RMK AO2
14840KMKG MKG20011121104509211/21/01 10:45:31  5-MIN KMKG 211545Z 21016KT 10SM CLR 08/02 A2980 740 63 200 220/16 RMK AO2
14840KMKG MKG20011121105010911/21/01 10:50:31  5-MIN KMKG 211550Z 21015KT 10SM CLR 08/02 A2980 740 63 200 210/15 RMK AO2 SLP095 T00830017
14840KMKG MKG20011121105510911/21/01 10:55:31  5-MIN KMKG 211555Z 23016KT 10SM CLR 08/02 A2980 740 65 100 230/16 RMK AO2 SLP095 T00780017
14840KMKG MKG20011121110009811/21/01 11:00:31  5-MIN KMKG 211600Z 21016G21KT 10SM CLR 08/02 A2981 740 63 200 220/16G21 RMK AO2
14840KMKG MKG20011121110509811/21/01 11:05:31  5-MIN KMKG 211605Z 22016G21KT 10SM CLR 08/02 A2981 730 65 100 220/16G21 RMK AO2
14840KMKG MKG20011121111009211/21/01 11:10:31  5-MIN KMKG 211610Z 24011KT 10SM CLR 08/02 A2981 730 65 100 240/11 RMK AO2
14840KMKG MKG20011121111509211/21/01 11:15:31  5-MIN KMKG 211615Z 22012KT 10SM CLR 08/02 A2981 730 63 100 230/12 RMK AO2
14840KMKG MKG20011121112009211/21/01 11:20:31  5-MIN KMKG 211620Z 23011KT 10SM CLR 08/02 A2981 730 63 100 240/11 RMK AO2
14840KMKG MKG20011121112509811/21/01 11:25:31  5-MIN KMKG 211625Z 24014G19KT 10SM CLR 08/02 A2981 730 63 100 240/14G19 RMK AO2
14840KMKG MKG20011121113009211/21/01 11:30:31  5-MIN KMKG 211630Z 23015KT 10SM CLR 08/02 A2982 730 63 100 230/15 RMK AO2
14840KMKG MKG20011121113509211/21/01 11:35:31  5-MIN KMKG 211635Z 22015KT 10SM CLR 08/02 A2981 730 63 100 220/15 RMK AO2
14840KMKG MKG20011121114009211/21/01 11:40:31  5-MIN KMKG 211640Z 23015KT 10SM CLR 08/02 A2981 740 65 200 240/15 RMK AO2
14840KMKG MKG20011121114509211/21/01 11:45:31  5-MIN KMKG 211645Z 22015KT 10SM CLR 08/02 A2981 740 63 200 230/15 RMK AO2
14840KMKG MKG20011121115010911/21/01 11:50:31  5-MIN KMKG 211650Z 22014KT 10SM CLR 08/02 A2981 740 65 200 220/14 RMK AO2 SLP097 T00830022
14840KMKG MKG20011121115510911/21/01 11:55:31  5-MIN KMKG 211655Z 22012KT 10SM CLR 08/02 A2981 740 63 200 220/12 RMK AO2 SLP097 T00830017
14840KMKG MKG20011121120009211/21/01 12:00:31  5-MIN KMKG 211700Z 23014KT 10SM CLR 08/02 A2981 730 63 100 230/14 RMK AO2
14840KMKG MKG20011121120509811/21/01 12:05:31  5-MIN KMKG 211705Z 22015G18KT 10SM CLR 08/02 A2981 730 65 100 220/15G18 RMK AO2
14840KMKG MKG20011121121009811/21/01 12:10:31  5-MIN KMKG 211710Z 21016G19KT 10SM CLR 08/02 A2981 740 65 200 220/16G19 RMK AO2
14840KMKG MKG20011121121509811/21/01 12:15:31  5-MIN KMKG 211715Z 22014G19KT 10SM CLR 08/02 A2981 740 65 200 220/14G19 RMK AO2
14840KMKG MKG20011121122009211/21/01 12:20:31  5-MIN KMKG 211720Z 22015KT 10SM CLR 08/02 A2980 740 65 200 220/15 RMK AO2
14840KMKG MKG20011121122509211/21/01 12:25:31  5-MIN KMKG 211725Z 23015KT 10SM CLR 08/02 A2980 740 65 200 230/15 RMK AO2
14840KMKG MKG20011121123009211/21/01 12:30:31  5-MIN KMKG 211730Z 23013KT 10SM CLR 08/02 A2980 740 65 200 240/13 RMK AO2
14840KMKG MKG20011121123509211/21/01 12:35:31  5-MIN KMKG 211735Z 21012KT 10SM CLR 08/02 A2980 740 65 200 220/12 RMK AO2
14840KMKG MKG20011121124009211/21/01 12:40:31  5-MIN KMKG 211740Z 23013KT 10SM CLR 08/02 A2980 740 65 200 230/13 RMK AO2
14840KMKG MKG20011121124509211/21/01 12:45:31  5-MIN KMKG 211745Z 23013KT 10SM CLR 08/02 A2980 740 65 200 240/13 RMK AO2
14840KMKG MKG20011121125012711/21/01 12:50:31  5-MIN KMKG 211750Z 23013KT 10SM CLR 08/02 A2980 740 65 200 230/13 RMK AO2 SLP095 T00830022 10083 20061 53001
14840KMKG MKG20011121125512711/21/01 12:55:31  5-MIN KMKG 211755Z 22014KT 10SM CLR 08/03 A2980 740 68 200 220/14 RMK AO2 SLP095 T00830028 10083 20061 58001
14840KMKG MKG20011121130009211/21/01 13:00:31  5-MIN KMKG 211800Z 21011KT 10SM CLR 09/03 A2980 740 65 200 220/11 RMK AO2
14840KMKG MKG20011121130509211/21/01 13:05:31  5-MIN KMKG 211805Z 20011KT 10SM CLR 08/03 A2980 740 68 200 200/11 RMK AO2
14840KMKG MKG20011121131009211/21/01 13:10:31  5-MIN KMKG 211810Z 20016KT 10SM CLR 08/03 A2980 750 68 200 210/16 RMK AO2
14840KMKG MKG20011121131509211/21/01 13:15:31  5-MIN KMKG 211815Z 20014KT 10SM CLR 08/03 A2979 750 68 200 210/14 RMK AO2
14840KMKG MKG20011121132009211/21/01 13:20:31  5-MIN KMKG 211820Z 22013KT 10SM CLR 09/03 A2980 750 65 200 230/13 RMK AO2
14840KMKG MKG20011121132509211/21/01 13:25:31  5-MIN KMKG 211825Z 21013KT 10SM CLR 08/03 A2980 750 68 200 220/13 RMK AO2
14840KMKG MKG20011121133009211/21/01 13:30:31  5-MIN KMKG 211830Z 21015KT 10SM CLR 09/03 A2979 750 65 200 210/15 RMK AO2
14840KMKG MKG20011121133509211/21/01 13:35:31  5-MIN KMKG 211835Z 20014KT 10SM CLR 08/03 A2979 750 68 200 200/14 RMK AO2
14840KMKG MKG20011121134009211/21/01 13:40:31  5-MIN KMKG 211840Z 21011KT 10SM CLR 09/03 A2979 750 65 200 210/11 RMK AO2
14840KMKG MKG20011121134509211/21/01 13:45:31  5-MIN KMKG 211845Z 21014KT 10SM CLR 08/03 A2979 750 68 200 220/14 RMK AO2
14840KMKG MKG20011121135010911/21/01 13:50:31  5-MIN KMKG 211850Z 21014KT 10SM CLR 08/03 A2979 750 68 200 210/14 RMK AO2 SLP091 T00830028
14840KMKG MKG20011121135510911/21/01 13:55:31  5-MIN KMKG 211855Z 21014KT 10SM CLR 09/03 A2979 750 65 200 220/14 RMK AO2 SLP091 T00890028
14840KMKG MKG20011121140009211/21/01 14:00:31  5-MIN KMKG 211900Z 22015KT 10SM CLR 09/03 A2979 750 65 200 220/15 RMK AO2
14840KMKG MKG20011121140509211/21/01 14:05:31  5-MIN KMKG 211905Z 21014KT 10SM CLR 08/03 A2979 750 68 200 220/14 RMK AO2
14840KMKG MKG20011121141009211/21/01 14:10:31  5-MIN KMKG 211910Z 20015KT 10SM CLR 09/03 A2979 750 68 200 210/15 RMK AO2
14840KMKG MKG20011121141509211/21/01 14:15:31  5-MIN KMKG 211915Z 20013KT 10SM CLR 09/03 A2979 750 68 200 210/13 RMK AO2
14840KMKG MKG20011121142009811/21/01 14:20:31  5-MIN KMKG 211920Z 22014G19KT 10SM CLR 09/03 A2979 750 68 200 230/14G19 RMK AO2
14840KMKG MKG20011121142509811/21/01 14:25:31  5-MIN KMKG 211925Z 21013G19KT 10SM CLR 08/03 A2979 750 70 200 210/13G19 RMK AO2
14840KMKG MKG20011121143009811/21/01 14:30:31  5-MIN KMKG 211930Z 22015G19KT 10SM CLR 09/03 A2979 750 68 200 230/15G19 RMK AO2
14840KMKG MKG20011121143509211/21/01 14:35:31  5-MIN KMKG 211935Z 21014KT 10SM CLR 09/03 A2979 750 68 200 220/14 RMK AO2
14840KMKG MKG20011121144009211/21/01 14:40:31  5-MIN KMKG 211940Z 20015KT 10SM CLR 09/03 A2979 750 68 200 210/15 RMK AO2
14840KMKG MKG20011121144509211/21/01 14:45:31  5-MIN KMKG 211945Z 22015KT 10SM CLR 08/03 A2979 750 70 200 220/15 RMK AO2
14840KMKG MKG20011121145010911/21/01 14:50:31  5-MIN KMKG 211950Z 21014KT 10SM CLR 08/03 A2979 750 70 200 220/14 RMK AO2 SLP092 T00830033
14840KMKG MKG20011121145510911/21/01 14:55:31  5-MIN KMKG 211955Z 22013KT 10SM CLR 09/03 A2979 750 68 200 220/13 RMK AO2 SLP092 T00890033
14840KMKG MKG20011121150009211/21/01 15:00:31  5-MIN KMKG 212000Z 21013KT 10SM CLR 09/03 A2979 750 68 200 210/13 RMK AO2
14840KMKG MKG20011121150509211/21/01 15:05:31  5-MIN KMKG 212005Z 21015KT 10SM CLR 09/03 A2980 750 68 200 210/15 RMK AO2
14840KMKG MKG20011121151009211/21/01 15:10:31  5-MIN KMKG 212010Z 22014KT 10SM CLR 08/03 A2979 750 70 200 230/14 RMK AO2
14840KMKG MKG20011121151509211/21/01 15:15:31  5-MIN KMKG 212015Z 21016KT 10SM CLR 08/03 A2980 740 70 200 220/16 RMK AO2
14840KMKG MKG20011121152009211/21/01 15:20:31  5-MIN KMKG 212020Z 21015KT 10SM CLR 08/03 A2980 740 70 200 220/15 RMK AO2
14840KMKG MKG20011121152509211/21/01 15:25:31  5-MIN KMKG 212025Z 22013KT 10SM CLR 08/03 A2980 740 70 200 220/13 RMK AO2
14840KMKG MKG20011121153009811/21/01 15:30:31  5-MIN KMKG 212030Z 21014G19KT 10SM CLR 09/03 A2980 740 68 200 220/14G19 RMK AO2
14840KMKG MKG20011121153509811/21/01 15:35:31  5-MIN KMKG 212035Z 21014G19KT 10SM CLR 08/03 A2980 740 68 200 210/14G19 RMK AO2
14840KMKG MKG20011121154009211/21/01 15:40:31  5-MIN KMKG 212040Z 21013KT 10SM CLR 08/03 A2980 740 68 200 220/13 RMK AO2
14840KMKG MKG20011121154509211/21/01 15:45:31  5-MIN KMKG 212045Z 21014KT 10SM CLR 08/03 A2980 740 68 200 210/14 RMK AO2
14840KMKG MKG20011121155011511/21/01 15:50:31  5-MIN KMKG 212050Z 21013KT 10SM CLR 08/03 A2980 740 68 200 220/13 RMK AO2 SLP096 T00830028 58001
14840KMKG MKG20011121155511511/21/01 15:55:31  5-MIN KMKG 212055Z 20013KT 10SM CLR 08/03 A2981 740 68 200 210/13 RMK AO2 SLP096 T00830028 53001
14840KMKG MKG20011121160009211/21/01 16:00:31  5-MIN KMKG 212100Z 21011KT 10SM CLR 08/03 A2981 740 68 200 220/11 RMK AO2
14840KMKG MKG20011121160509211/21/01 16:05:31  5-MIN KMKG 212105Z 21012KT 10SM CLR 08/03 A2981 730 68 100 220/12 RMK AO2
14840KMKG MKG20011121161009211/21/01 16:10:31  5-MIN KMKG 212110Z 21013KT 10SM CLR 08/03 A2981 730 68 100 220/13 RMK AO2
14840KMKG MKG20011121161509211/21/01 16:15:31  5-MIN KMKG 212115Z 21013KT 10SM CLR 08/03 A2981 730 68 100 220/13 RMK AO2
14840KMKG MKG20011121162009211/21/01 16:20:31  5-MIN KMKG 212120Z 21010KT 10SM CLR 08/03 A2981 730 68 100 210/10 RMK AO2
14840KMKG MKG20011121162509211/21/01 16:25:31  5-MIN KMKG 212125Z 21011KT 10SM CLR 08/03 A2981 730 70 100 210/11 RMK AO2
14840KMKG MKG20011121163009211/21/01 16:30:31  5-MIN KMKG 212130Z 21010KT 10SM CLR 08/03 A2981 730 70 100 220/10 RMK AO2
14840KMKG MKG20011121163509211/21/01 16:35:31  5-MIN KMKG 212135Z 21010KT 10SM CLR 08/03 A2981 730 70 100 210/10 RMK AO2
14840KMKG MKG20011121164009211/21/01 16:40:31  5-MIN KMKG 212140Z 21011KT 10SM CLR 08/03 A2981 730 70 100 210/11 RMK AO2
14840KMKG MKG20011121164509211/21/01 16:45:31  5-MIN KMKG 212145Z 21013KT 10SM CLR 08/03 A2981 730 70 100 210/13 RMK AO2
14840KMKG MKG20011121165010911/21/01 16:50:31  5-MIN KMKG 212150Z 21013KT 10SM CLR 08/03 A2981 730 70 100 220/13 RMK AO2 SLP099 T00780028
14840KMKG MKG20011121165510911/21/01 16:55:31  5-MIN KMKG 212155Z 20009KT 10SM CLR 08/03 A2981 730 70 100 210/09 RMK AO2 SLP098 T00780028
14840KMKG MKG20011121170009211/21/01 17:00:31  5-MIN KMKG 212200Z 20011KT 10SM CLR 08/03 A2981 730 70 100 210/11 RMK AO2
14840KMKG MKG20011121170509011/21/01 17:05:31  5-MIN KMKG 212205Z 21009KT 10SM CLR 07/03 A2981 730 73 0 210/09 RMK AO2
14840KMKG MKG20011121171009011/21/01 17:10:31  5-MIN KMKG 212210Z 20011KT 10SM CLR 07/03 A2981 730 73 0 210/11 RMK AO2
14840KMKG MKG20011121171509211/21/01 17:15:31  5-MIN KMKG 212215Z 20010KT 10SM CLR 08/03 A2981 730 70 100 210/10 RMK AO2
14840KMKG MKG20011121172009011/21/01 17:20:31  5-MIN KMKG 212220Z 20010KT 10SM CLR 07/03 A2981 730 73 0 210/10 RMK AO2
14840KMKG MKG20011121172509011/21/01 17:25:31  5-MIN KMKG 212225Z 20010KT 10SM CLR 07/03 A2981 730 73 0 210/10 RMK AO2
14840KMKG MKG20011121173009011/21/01 17:30:31  5-MIN KMKG 212230Z 20009KT 10SM CLR 07/03 A2981 730 73 0 210/09 RMK AO2
14840KMKG MKG20011121173509011/21/01 17:35:31  5-MIN KMKG 212235Z 20009KT 10SM CLR 07/03 A2982 730 73 0 210/09 RMK AO2
14840KMKG MKG20011121174009011/21/01 17:40:31  5-MIN KMKG 212240Z 20008KT 10SM CLR 07/03 A2982 730 73 0 200/08 RMK AO2
14840KMKG MKG20011121174509011/21/01 17:45:31  5-MIN KMKG 212245Z 20007KT 10SM CLR 07/03 A2982 720 73 0 200/07 RMK AO2
14840KMKG MKG20011121175010711/21/01 17:50:31  5-MIN KMKG 212250Z 20009KT 10SM CLR 07/03 A2982 720 76 0 210/09 RMK AO2 SLP101 T00720033
14840KMKG MKG20011121175510711/21/01 17:55:31  5-MIN KMKG 212255Z 20010KT 10SM CLR 07/03 A2982 720 76 0 200/10 RMK AO2 SLP101 T00720033
14840KMKG MKG20011121180009211/21/01 18:00:31  5-MIN KMKG 212300Z 20011KT 10SM CLR 08/03 A2982 720 73 100 200/11 RMK AO2
14840KMKG MKG20011121180509211/21/01 18:05:31  5-MIN KMKG 212305Z 19010KT 10SM CLR 08/04 A2982 720 76 100 200/10 RMK AO2
14840KMKG MKG20011121181009211/21/01 18:10:31  5-MIN KMKG 212310Z 19010KT 10SM CLR 08/04 A2982 720 76 100 200/10 RMK AO2
14840KMKG MKG20011121181509211/21/01 18:15:31  5-MIN KMKG 212315Z 20010KT 10SM CLR 08/04 A2982 720 76 100 200/10 RMK AO2
14840KMKG MKG20011121182009211/21/01 18:20:31  5-MIN KMKG 212320Z 20012KT 10SM CLR 08/03 A2983 720 73 100 210/12 RMK AO2
14840KMKG MKG20011121182509211/21/01 18:25:31  5-MIN KMKG 212325Z 20011KT 10SM CLR 08/04 A2983 720 76 100 210/11 RMK AO2
14840KMKG MKG20011121190009211/21/01 19:00:31  5-MIN KMKG 220000Z 20010KT 10SM CLR 08/04 A2984 710 76 100 210/10 RMK AO2
14840KMKG MKG20011121190509211/21/01 19:05:31  5-MIN KMKG 220005Z 20011KT 10SM CLR 08/04 A2984 710 76 100 200/11 RMK AO2
14840KMKG MKG20011121191009211/21/01 19:10:31  5-MIN KMKG 220010Z 20009KT 10SM CLR 08/04 A2984 710 76 100 210/09 RMK AO2
14840KMKG MKG20011121191509211/21/01 19:15:31  5-MIN KMKG 220015Z 20011KT 10SM CLR 08/04 A2984 710 76 100 210/11 RMK AO2
14840KMKG MKG20011121192009211/21/01 19:20:31  5-MIN KMKG 220020Z 20009KT 10SM CLR 08/04 A2984 700 76 100 200/09 RMK AO2
14840KMKG MKG20011121192509211/21/01 19:25:31  5-MIN KMKG 220025Z 20010KT 10SM CLR 08/04 A2984 700 76 100 200/10 RMK AO2
14840KMKG MKG20011121193009211/21/01 19:30:31  5-MIN KMKG 220030Z 20010KT 10SM CLR 08/04 A2984 700 76 100 200/10 RMK AO2
14840KMKG MKG20011121193509211/21/01 19:35:31  5-MIN KMKG 220035Z 20007KT 10SM CLR 08/04 A2984 700 76 100 200/07 RMK AO2
14840KMKG MKG20011121194009211/21/01 19:40:31  5-MIN KMKG 220040Z 20009KT 10SM CLR 08/05 A2984 700 79 100 200/09 RMK AO2
14840KMKG MKG20011121194509211/21/01 19:45:31  5-MIN KMKG 220045Z 20009KT 10SM CLR 08/05 A2985 700 79 100 200/09 RMK AO2
14840KMKG MKG20011121195010911/21/01 19:50:31  5-MIN KMKG 220050Z 20008KT 10SM CLR 08/05 A2985 700 79 100 200/08 RMK AO2 SLP110 T00830050
14840KMKG MKG20011121195510911/21/01 19:55:31  5-MIN KMKG 220055Z 20008KT 10SM CLR 08/05 A2985 700 79 100 210/08 RMK AO2 SLP110 T00830050
14840KMKG MKG20011121200009211/21/01 20:00:31  5-MIN KMKG 220100Z 20009KT 10SM CLR 08/05 A2985 700 79 100 200/09 RMK AO2
14840KMKG MKG20011121200509011/21/01 20:05:31  5-MIN KMKG 220105Z 20008KT 10SM CLR 08/05 A2985 700 82 0 200/08 RMK AO2
14840KMKG MKG20011121201009211/21/01 20:10:31  5-MIN KMKG 220110Z 20010KT 10SM CLR 08/05 A2984 700 79 100 200/10 RMK AO2
14840KMKG MKG20011121201509211/21/01 20:15:31  5-MIN KMKG 220115Z 20008KT 10SM CLR 08/05 A2984 700 79 100 200/08 RMK AO2
14840KMKG MKG20011121202009211/21/01 20:20:31  5-MIN KMKG 220120Z 20010KT 10SM CLR 08/05 A2984 700 79 100 210/10 RMK AO2
14840KMKG MKG20011121202509211/21/01 20:25:31  5-MIN KMKG 220125Z 20008KT 10SM CLR 09/05 A2984 700 76 200 200/08 RMK AO2
14840KMKG MKG20011121203009211/21/01 20:30:31  5-MIN KMKG 220130Z 20010KT 10SM CLR 08/05 A2985 700 79 100 210/10 RMK AO2
14840KMKG MKG20011121203509211/21/01 20:35:31  5-MIN KMKG 220135Z 20009KT 10SM CLR 09/05 A2984 700 76 200 200/09 RMK AO2
14840KMKG MKG20011121204009211/21/01 20:40:31  5-MIN KMKG 220140Z 20010KT 10SM CLR 09/05 A2984 700 76 200 200/10 RMK AO2
14840KMKG MKG20011121204509211/21/01 20:45:31  5-MIN KMKG 220145Z 20008KT 10SM CLR 09/05 A2984 700 76 200 200/08 RMK AO2
14840KMKG MKG20011121205010911/21/01 20:50:31  5-MIN KMKG 220150Z 20009KT 10SM CLR 09/05 A2984 700 76 200 200/09 RMK AO2 SLP110 T00890050
14840KMKG MKG20011121205510911/21/01 20:55:31  5-MIN KMKG 220155Z 20009KT 10SM CLR 09/05 A2984 700 76 200 200/09 RMK AO2 SLP109 T00890050
14840KMKG MKG20011121210009211/21/01 21:00:31  5-MIN KMKG 220200Z 20009KT 10SM CLR 09/05 A2984 700 76 200 210/09 RMK AO2
14840KMKG MKG20011121210509211/21/01 21:05:31  5-MIN KMKG 220205Z 20008KT 10SM CLR 08/05 A2984 700 79 100 210/08 RMK AO2
14840KMKG MKG20011121211009211/21/01 21:10:31  5-MIN KMKG 220210Z 21009KT 10SM CLR 08/05 A2984 700 79 100 210/09 RMK AO2
14840KMKG MKG20011121211509211/21/01 21:15:31  5-MIN KMKG 220215Z 21009KT 10SM CLR 08/05 A2984 700 79 100 210/09 RMK AO2
14840KMKG MKG20011121212009211/21/01 21:20:31  5-MIN KMKG 220220Z 21009KT 10SM CLR 08/05 A2984 700 79 100 210/09 RMK AO2
14840KMKG MKG20011121212509211/21/01 21:25:31  5-MIN KMKG 220225Z 21008KT 10SM CLR 08/05 A2984 700 79 100 220/08 RMK AO2
14840KMKG MKG20011121213009211/21/01 21:30:31  5-MIN KMKG 220230Z 22008KT 10SM CLR 08/05 A2985 700 79 100 220/08 RMK AO2
14840KMKG MKG20011121213509011/21/01 21:35:31  5-MIN KMKG 220235Z 22008KT 10SM CLR 08/05 A2985 700 82 0 220/08 RMK AO2
14840KMKG MKG20011121214009011/21/01 21:40:31  5-MIN KMKG 220240Z 21008KT 10SM CLR 08/05 A2985 700 82 0 220/08 RMK AO2
14840KMKG MKG20011121214509011/21/01 21:45:31  5-MIN KMKG 220245Z 22007KT 10SM CLR 08/05 A2985 700 82 0 220/07 RMK AO2
14840KMKG MKG20011121215011311/21/01 21:50:31  5-MIN KMKG 220250Z 21008KT 10SM CLR 08/05 A2985 700 82 0 220/08 RMK AO2 SLP111 T00780050 53010
14840KMKG MKG20011121215511311/21/01 21:55:31  5-MIN KMKG 220255Z 21007KT 10SM CLR 08/05 A2985 700 82 0 210/07 RMK AO2 SLP111 T00780050 51004
14840KMKG MKG20011121220009011/21/01 22:00:31  5-MIN KMKG 220300Z 21007KT 10SM CLR 08/05 A2985 700 82 0 220/07 RMK AO2
14840KMKG MKG20011121220509011/21/01 22:05:31  5-MIN KMKG 220305Z 21008KT 10SM CLR 08/06 A2985 700 86 0 220/08 RMK AO2
14840KMKG MKG20011121221009211/21/01 22:10:31  5-MIN KMKG 220310Z 21007KT 10SM CLR 08/06 A2985 700 82 100 220/07 RMK AO2
14840KMKG MKG20011121221509011/21/01 22:15:31  5-MIN KMKG 220315Z 22008KT 10SM CLR 08/05 A2985 700 82 0 220/08 RMK AO2
14840KMKG MKG20011121222009011/21/01 22:20:31  5-MIN KMKG 220320Z 21008KT 10SM CLR 08/05 A2985 700 82 0 210/08 RMK AO2
14840KMKG MKG20011121222509011/21/01 22:25:31  5-MIN KMKG 220325Z 21008KT 10SM CLR 08/05 A2985 700 82 0 210/08 RMK AO2
14840KMKG MKG20011121223009011/21/01 22:30:31  5-MIN KMKG 220330Z 21007KT 10SM CLR 08/05 A2985 700 82 0 210/07 RMK AO2
14840KMKG MKG20011121223509011/21/01 22:35:31  5-MIN KMKG 220335Z 21007KT 10SM CLR 08/05 A2985 690 82 0 220/07 RMK AO2
14840KMKG MKG20011121224009011/21/01 22:40:31  5-MIN KMKG 220340Z 21005KT 10SM CLR 08/05 A2985 690 82 0 220/05 RMK AO2
14840KMKG MKG20011121224509011/21/01 22:45:31  5-MIN KMKG 220345Z 22005KT 10SM CLR 08/05 A2985 690 82 0 220/05 RMK AO2
14840KMKG MKG20011121225010711/21/01 22:50:31  5-MIN KMKG 220350Z 22006KT 10SM CLR 07/05 A2985 690 86 0 220/06 RMK AO2 SLP113 T00720050
14840KMKG MKG20011121225510711/21/01 22:55:31  5-MIN KMKG 220355Z 22005KT 10SM CLR 07/05 A2985 690 86 0 220/05 RMK AO2 SLP112 T00720050
14840KMKG MKG20011121230009011/21/01 23:00:31  5-MIN KMKG 220400Z 21006KT 10SM CLR 07/05 A2985 690 86 0 210/06 RMK AO2
14840KMKG MKG20011121230509011/21/01 23:05:31  5-MIN KMKG 220405Z 21006KT 10SM CLR 07/05 A2985 690 86 0 210/06 RMK AO2
14840KMKG MKG20011121231009011/21/01 23:10:31  5-MIN KMKG 220410Z 21005KT 10SM CLR 07/05 A2985 690 86 0 210/05 RMK AO2
14840KMKG MKG20011121231509011/21/01 23:15:31  5-MIN KMKG 220415Z 21004KT 10SM CLR 07/05 A2985 690 86 0 220/04 RMK AO2
14840KMKG MKG20011121232009011/21/01 23:20:31  5-MIN KMKG 220420Z 22004KT 10SM CLR 08/05 A2986 690 82 0 220/04 RMK AO2
14840KMKG MKG20011121232509011/21/01 23:25:31  5-MIN KMKG 220425Z 22004KT 10SM CLR 08/05 A2986 690 82 0 220/04 RMK AO2
14840KMKG MKG20011121233009011/21/01 23:30:31  5-MIN KMKG 220430Z 21004KT 10SM CLR 08/06 A2986 690 86 0 220/04 RMK AO2
14840KMKG MKG20011121233509011/21/01 23:35:31  5-MIN KMKG 220435Z 21003KT 10SM CLR 07/05 A2986 690 86 0 220/03 RMK AO2
14840KMKG MKG20011121234009011/21/01 23:40:31  5-MIN KMKG 220440Z 20003KT 10SM CLR 07/06 A2986 690 89 0 200/03 RMK AO2
14840KMKG MKG20011121234509011/21/01 23:45:31  5-MIN KMKG 220445Z 19003KT 10SM CLR 07/06 A2986 690 89 0 190/03 RMK AO2
14840KMKG MKG20011121235011711/21/01 23:50:31  5-MIN KMKG 220450Z 20003KT 10SM CLR 07/06 A2986 690 89 0 200/03 RMK AO2 SLP113 T00720056 400890056
14840KMKG MKG20011121235511711/21/01 23:55:31  5-MIN KMKG 220455Z 20003KT 10SM CLR 08/06 A2986 690 86 0 200/03 RMK AO2 SLP114 T00780056 400890056
14840KMKG MKG20011122000009011/22/01 00:00:31  5-MIN KMKG 220500Z 19003KT 10SM CLR 07/05 A2986 690 86 0 190/03 RMK AO2
14840KMKG MKG20011122000509311/22/01 00:05:31  5-MIN KMKG 220505Z 00000KT 10SM CLR 06/04 A2986 690 89 -100 000/00 RMK AO2
14840KMKG MKG20011122001009311/22/01 00:10:31  5-MIN KMKG 220510Z 00000KT 10SM CLR 06/04 A2986 690 89 -100 000/00 RMK AO2
14840KMKG MKG20011122001509311/22/01 00:15:31  5-MIN KMKG 220515Z 00000KT 10SM CLR 05/04 A2986 680 92 -300 000/00 RMK AO2
14840KMKG MKG20011122002009311/22/01 00:20:31  5-MIN KMKG 220520Z 00000KT 10SM CLR 05/04 A2986 680 92 -300 000/00 RMK AO2
14840KMKG MKG20011122002509311/22/01 00:25:31  5-MIN KMKG 220525Z 00000KT 10SM CLR 04/04 A2986 680 96 -300 000/00 RMK AO2
14840KMKG MKG20011122003009311/22/01 00:30:31  5-MIN KMKG 220530Z 00000KT 10SM CLR 04/04 A2986 680 96 -300 000/00 RMK AO2
14840KMKG MKG20011122003509311/22/01 00:35:31  5-MIN KMKG 220535Z 14003KT 10SM CLR 04/03 A2986 680 96 -400 140/03 RMK AO2
14840KMKG MKG20011122004009311/22/01 00:40:31  5-MIN KMKG 220540Z 14004KT 10SM CLR 04/03 A2986 680 96 -400 150/04 RMK AO2
14840KMKG MKG20011122004509311/22/01 00:45:31  5-MIN KMKG 220545Z 14003KT 10SM CLR 04/03 A2986 680 96 -400 140/03 RMK AO2
14840KMKG MKG20011122005012911/22/01 00:50:31  5-MIN KMKG 220550Z 16003KT 10SM CLR 03/03 A2987 680 100 -500 160/03 RMK AO2 SLP118 T00330033 10089 20033 51004
14840KMKG MKG20011122005512811/22/01 00:55:31  5-MIN KMKG 220555Z 00000KT 10SM CLR 04/03 A2987 680 96 -400 000/00 RMK AO2 SLP118 T00390033 10089 20033 53006
14840KMKG MKG20011122010009411/22/01 01:00:31  5-MIN KMKG 220600Z 16003KT 10SM CLR 03/03 A2987 680 100 -500 160/03 RMK AO2
14840KMKG MKG20011122010509311/22/01 01:05:31  5-MIN KMKG 220605Z 00000KT 10SM CLR 04/03 A2987 680 96 -400 000/00 RMK AO2
14840KMKG MKG20011122011009411/22/01 01:10:31  5-MIN KMKG 220610Z 13003KT 10SM CLR 04/04 A2986 680 100 -400 130/03 RMK AO2
14840KMKG MKG20011122011509311/22/01 01:15:31  5-MIN KMKG 220615Z 12005KT 10SM CLR 04/03 A2986 680 96 -400 120/05 RMK AO2
14840KMKG MKG20011122012009311/22/01 01:20:31  5-MIN KMKG 220620Z 12005KT 10SM CLR 03/02 A2986 680 96 -500 120/05 RMK AO2
14840KMKG MKG20011122012509311/22/01 01:25:31  5-MIN KMKG 220625Z 11005KT 10SM CLR 03/02 A2986 680 96 -500 110/05 RMK AO2
14840KMKG MKG20011122013009311/22/01 01:30:31  5-MIN KMKG 220630Z 12005KT 9SM CLR 02/02 A2986 680 100 -600 120/05 RMK AO2
14840KMKG MKG20011122013509311/22/01 01:35:31  5-MIN KMKG 220635Z 12005KT 8SM CLR 02/02 A2986 680 100 -600 120/05 RMK AO2
14840KMKG MKG20011122014009311/22/01 01:40:31  5-MIN KMKG 220640Z 12006KT 8SM CLR 02/02 A2986 680 100 -600 120/06 RMK AO2
14840KMKG MKG20011122014509211/22/01 01:45:31  5-MIN KMKG 220645Z 11004KT 8SM CLR 03/02 A2986 690 96 -500 110/04 RMK AO2
14840KMKG MKG20011122015011011/22/01 01:50:31  5-MIN KMKG 220650Z 13005KT 8SM CLR 03/03 A2986 690 100 -500 130/05 RMK AO2 SLP116 T00280028
14840KMKG MKG20011122015511011/22/01 01:55:31  5-MIN KMKG 220655Z 13005KT 8SM CLR 03/03 A2986 690 100 -500 140/05 RMK AO2 SLP116 T00280028
14840KMKG MKG20011122020009311/22/01 02:00:31  5-MIN KMKG 220700Z 13005KT 7SM CLR 02/02 A2986 690 100 -600 140/05 RMK AO2
14840KMKG MKG20011122020509611/22/01 02:05:31  5-MIN KMKG 220705Z 12004KT 6SM BR CLR 02/02 A2986 690 100 -600 120/04 RMK AO2
14840KMKG MKG20011122021009611/22/01 02:10:31  5-MIN KMKG 220710Z 13005KT 5SM BR CLR 02/02 A2986 690 100 -600 130/05 RMK AO2
14840KMKG MKG20011122021509611/22/01 02:15:31  5-MIN KMKG 220715Z 13005KT 6SM BR CLR 02/02 A2986 690 100 -600 130/05 RMK AO2
14840KMKG MKG20011122022009611/22/01 02:20:31  5-MIN KMKG 220720Z 13005KT 6SM BR CLR 02/02 A2986 690 100 -600 140/05 RMK AO2
14840KMKG MKG20011122022509611/22/01 02:25:31  5-MIN KMKG 220725Z 13005KT 5SM BR CLR 02/02 A2986 690 100 -600 140/05 RMK AO2
14840KMKG MKG20011122023009611/22/01 02:30:31  5-MIN KMKG 220730Z 13005KT 5SM BR CLR 02/02 A2986 690 100 -700 130/05 RMK AO2
14840KMKG MKG20011122023509611/22/01 02:35:31  5-MIN KMKG 220735Z 13005KT 5SM BR CLR 02/02 A2986 680 100 -700 130/05 RMK AO2
14840KMKG MKG20011122024009611/22/01 02:40:31  5-MIN KMKG 220740Z 12005KT 4SM BR CLR 02/02 A2986 680 100 -600 120/05 RMK AO2
14840KMKG MKG20011122024509611/22/01 02:45:31  5-MIN KMKG 220745Z 13005KT 4SM BR CLR 02/02 A2986 680 100 -600 130/05 RMK AO2
14840KMKG MKG20011122025011311/22/01 02:50:31  5-MIN KMKG 220750Z 13005KT 4SM BR CLR 03/03 A2986 680 100 -500 140/05 RMK AO2 SLP117 T00280028
14840KMKG MKG20011122025511311/22/01 02:55:31  5-MIN KMKG 220755Z 13005KT 5SM BR CLR 03/03 A2986 680 100 -500 140/05 RMK AO2 SLP117 T00280028
14840KMKG MKG20011122030009611/22/01 03:00:31  5-MIN KMKG 220800Z 13005KT 5SM BR CLR 02/02 A2986 680 100 -600 130/05 RMK AO2
14840KMKG MKG20011122030509611/22/01 03:05:31  5-MIN KMKG 220805Z 13005KT 5SM BR CLR 02/02 A2986 680 100 -700 130/05 RMK AO2
14840KMKG MKG20011122031009611/22/01 03:10:31  5-MIN KMKG 220810Z 13005KT 4SM BR CLR 02/02 A2987 680 100 -600 130/05 RMK AO2
14840KMKG MKG20011122031509611/22/01 03:15:31  5-MIN KMKG 220815Z 13004KT 4SM BR CLR 02/02 A2987 680 100 -600 130/04 RMK AO2
14840KMKG MKG20011122032009611/22/01 03:20:31  5-MIN KMKG 220820Z 13003KT 4SM BR CLR 02/02 A2987 680 100 -600 130/03 RMK AO2
14840KMKG MKG20011122032509611/22/01 03:25:31  5-MIN KMKG 220825Z 13003KT 4SM BR CLR 02/02 A2987 680 100 -600 140/03 RMK AO2
14840KMKG MKG20011122033009611/22/01 03:30:31  5-MIN KMKG 220830Z 13003KT 4SM BR CLR 02/02 A2987 680 100 -600 130/03 RMK AO2
14840KMKG MKG20011122033509611/22/01 03:35:31  5-MIN KMKG 220835Z 13004KT 4SM BR CLR 02/02 A2987 680 100 -600 130/04 RMK AO2
14840KMKG MKG20011122034009611/22/01 03:40:31  5-MIN KMKG 220840Z 12005KT 3SM BR CLR 02/02 A2987 680 100 -700 130/05 RMK AO2
14840KMKG MKG20011122034509611/22/01 03:45:31  5-MIN KMKG 220845Z 13006KT 3SM BR CLR 02/02 A2987 680 100 -700 130/06 RMK AO2
14840KMKG MKG20011122035011911/22/01 03:50:31  5-MIN KMKG 220850Z 13005KT 4SM BR CLR 02/02 A2986 680 100 -700 140/05 RMK AO2 SLP117 T00170017 53006
14840KMKG MKG20011122035511911/22/01 03:55:31  5-MIN KMKG 220855Z 13005KT 4SM BR CLR 02/02 A2986 680 100 -700 130/05 RMK AO2 SLP116 T00170017 56001
14840KMKG MKG20011122040009611/22/01 04:00:31  5-MIN KMKG 220900Z 13005KT 4SM BR CLR 02/02 A2986 680 100 -600 140/05 RMK AO2
14840KMKG MKG20011122040509611/22/01 04:05:31  5-MIN KMKG 220905Z 13005KT 4SM BR CLR 02/02 A2986 690 100 -600 140/05 RMK AO2
14840KMKG MKG20011122041009611/22/01 04:10:31  5-MIN KMKG 220910Z 13005KT 5SM BR CLR 02/02 A2986 690 100 -600 140/05 RMK AO2
14840KMKG MKG20011122041509611/22/01 04:15:31  5-MIN KMKG 220915Z 14004KT 4SM BR CLR 02/02 A2986 690 100 -600 140/04 RMK AO2
14840KMKG MKG20011122042009611/22/01 04:20:31  5-MIN KMKG 220920Z 14004KT 4SM BR CLR 02/02 A2986 690 100 -600 140/04 RMK AO2
14840KMKG MKG20011122042509611/22/01 04:25:31  5-MIN KMKG 220925Z 13004KT 3SM BR CLR 02/02 A2986 680 100 -600 140/04 RMK AO2
14840KMKG MKG20011122043009611/22/01 04:30:31  5-MIN KMKG 220930Z 13004KT 3SM BR CLR 02/02 A2986 690 100 -600 130/04 RMK AO2
14840KMKG MKG20011122043509611/22/01 04:35:31  5-MIN KMKG 220935Z 13005KT 3SM BR CLR 02/02 A2986 690 100 -600 130/05 RMK AO2
14840KMKG MKG20011122044009611/22/01 04:40:31  5-MIN KMKG 220940Z 14004KT 4SM BR CLR 02/02 A2986 680 100 -600 140/04 RMK AO2
14840KMKG MKG20011122044509611/22/01 04:45:31  5-MIN KMKG 220945Z 13006KT 4SM BR CLR 02/02 A2986 680 100 -600 130/06 RMK AO2
14840KMKG MKG20011122045011311/22/01 04:50:31  5-MIN KMKG 220950Z 13007KT 3SM BR CLR 02/02 A2986 680 100 -700 130/07 RMK AO2 SLP117 T00170017
14840KMKG MKG20011122045511311/22/01 04:55:31  5-MIN KMKG 220955Z 13006KT 3SM BR CLR 02/02 A2986 680 100 -600 140/06 RMK AO2 SLP117 T00220022
14840KMKG MKG20011122050009611/22/01 05:00:31  5-MIN KMKG 221000Z 13007KT 3SM BR CLR 02/02 A2986 680 100 -700 130/07 RMK AO2
14840KMKG MKG20011122050510011/22/01 05:05:31  5-MIN KMKG 221005Z 12007KT 2 1/2SM BR CLR 02/02 A2986 680 100 -700 130/07 RMK AO2
14840KMKG MKG20011122051009611/22/01 05:10:31  5-MIN KMKG 221010Z 12007KT 2SM BR CLR 02/02 A2986 680 100 -700 120/07 RMK AO2
14840KMKG MKG20011122051510011/22/01 05:15:31  5-MIN KMKG 221015Z 13007KT 2 1/2SM BR CLR 02/02 A2986 680 100 -700 130/07 RMK AO2
14840KMKG MKG20011122052009611/22/01 05:20:31  5-MIN KMKG 221020Z 13006KT 3SM BR CLR 02/02 A2987 680 100 -700 130/06 RMK AO2
14840KMKG MKG20011122052509611/22/01 05:25:31  5-MIN KMKG 221025Z 12007KT 3SM BR CLR 02/02 A2987 680 100 -700 130/07 RMK AO2
14840KMKG MKG20011122053009611/22/01 05:30:31  5-MIN KMKG 221030Z 12007KT 3SM BR CLR 02/02 A2987 680 100 -700 130/07 RMK AO2
14840KMKG MKG20011122053509611/22/01 05:35:31  5-MIN KMKG 221035Z 12006KT 3SM BR CLR 02/02 A2987 680 100 -700 130/06 RMK AO2
14840KMKG MKG20011122054010011/22/01 05:40:31  5-MIN KMKG 221040Z 12007KT 2 1/2SM BR CLR 02/02 A2987 670 100 -700 120/07 RMK AO2
14840KMKG MKG20011122054510011/22/01 05:45:31  5-MIN KMKG 221045Z 12007KT 2 1/2SM BR CLR 02/02 A2987 670 100 -700 130/07 RMK AO2
14840KMKG MKG20011122055011711/22/01 05:50:31  5-MIN KMKG 221050Z 13007KT 2 1/2SM BR CLR 02/02 A2987 680 100 -700 130/07 RMK AO2 SLP121 T00170017
14840KMKG MKG20011122055511311/22/01 05:55:31  5-MIN KMKG 221055Z 14006KT 3SM BR CLR 02/02 A2987 670 100 -700 140/06 RMK AO2 SLP121 T00170017
14840KMKG MKG20011122060009611/22/01 06:00:31  5-MIN KMKG 221100Z 14006KT 4SM BR CLR 02/02 A2987 670 100 -600 140/06 RMK AO2
14840KMKG MKG20011122060509611/22/01 06:05:31  5-MIN KMKG 221105Z 13007KT 4SM BR CLR 02/02 A2987 670 100 -600 130/07 RMK AO2
14840KMKG MKG20011122061009611/22/01 06:10:31  5-MIN KMKG 221110Z 13007KT 4SM BR CLR 02/02 A2987 670 100 -700 130/07 RMK AO2
14840KMKG MKG20011122061509611/22/01 06:15:31  5-MIN KMKG 221115Z 13007KT 4SM BR CLR 02/02 A2988 670 100 -600 130/07 RMK AO2
14840KMKG MKG20011122062009611/22/01 06:20:31  5-MIN KMKG 221120Z 13007KT 4SM BR CLR 02/02 A2988 670 100 -600 140/07 RMK AO2
14840KMKG MKG20011122062509611/22/01 06:25:31  5-MIN KMKG 221125Z 13007KT 4SM BR CLR 02/02 A2988 670 100 -600 130/07 RMK AO2
14840KMKG MKG20011122063009611/22/01 06:30:31  5-MIN KMKG 221130Z 13006KT 4SM BR CLR 02/02 A2988 670 100 -700 140/06 RMK AO2
14840KMKG MKG20011122063509611/22/01 06:35:31  5-MIN KMKG 221135Z 13006KT 4SM BR CLR 02/02 A2988 670 100 -700 140/06 RMK AO2
14840KMKG MKG20011122064009611/22/01 06:40:31  5-MIN KMKG 221140Z 12007KT 4SM BR CLR 02/02 A2988 670 100 -700 130/07 RMK AO2
14840KMKG MKG20011122064509611/22/01 06:45:31  5-MIN KMKG 221145Z 12007KT 4SM BR CLR 02/02 A2988 670 100 -700 130/07 RMK AO2
14840KMKG MKG20011122065013111/22/01 06:50:31  5-MIN KMKG 221150Z 13006KT 4SM BR CLR 02/02 A2988 670 100 -700 130/06 RMK AO2 SLP123 T00170017 10039 20017 56001
14840KMKG MKG20011122065513111/22/01 06:55:31  5-MIN KMKG 221155Z 13006KT 4SM BR CLR 02/02 A2988 670 100 -700 130/06 RMK AO2 SLP123 T00170017 10039 20017 53006
14840KMKG MKG20011122070009611/22/01 07:00:31  5-MIN KMKG 221200Z 13006KT 4SM BR CLR 02/02 A2988 660 100 -700 130/06 RMK AO2
14840KMKG MKG20011122070509611/22/01 07:05:31  5-MIN KMKG 221205Z 13006KT 4SM BR CLR 02/02 A2989 660 100 -700 140/06 RMK AO2
14840KMKG MKG20011122071009611/22/01 07:10:31  5-MIN KMKG 221210Z 13006KT 4SM BR CLR 02/02 A2989 660 100 -600 140/06 RMK AO2
14840KMKG MKG20011122071509611/22/01 07:15:31  5-MIN KMKG 221215Z 13007KT 4SM BR CLR 01/01 A2989 660 100 -800 130/07 RMK AO2
14840KMKG MKG20011122072009611/22/01 07:20:31  5-MIN KMKG 221220Z 12007KT 4SM BR CLR 02/02 A2989 660 100 -700 130/07 RMK AO2
14840KMKG MKG20011122072509611/22/01 07:25:31  5-MIN KMKG 221225Z 13007KT 4SM BR CLR 02/02 A2989 660 100 -700 130/07 RMK AO2
14840KMKG MKG20011122073009611/22/01 07:30:31  5-MIN KMKG 221230Z 13007KT 5SM BR CLR 02/02 A2989 660 100 -700 140/07 RMK AO2
14840KMKG MKG20011122073509611/22/01 07:35:31  5-MIN KMKG 221235Z 13008KT 6SM BR CLR 02/02 A2989 660 100 -600 140/08 RMK AO2
14840KMKG MKG20011122074009311/22/01 07:40:31  5-MIN KMKG 221240Z 13007KT 7SM CLR 02/02 A2989 660 100 -600 140/07 RMK AO2
14840KMKG MKG20011122074509311/22/01 07:45:31  5-MIN KMKG 221245Z 13007KT 7SM CLR 02/02 A2989 660 100 -600 130/07 RMK AO2
14840KMKG MKG20011122075010911/22/01 07:50:31  5-MIN KMKG 221250Z 13007KT 7SM CLR 02/02 A2989 660 96 -600 140/07 RMK AO2 SLP125 T00220017
14840KMKG MKG20011122075511211/22/01 07:55:31  5-MIN KMKG 221255Z 13006KT 6SM BR CLR 02/02 A2989 660 96 -600 140/06 RMK AO2 SLP125 T00220017
14840KMKG MKG20011122080009511/22/01 08:00:31  5-MIN KMKG 221300Z 14006KT 6SM BR CLR 02/02 A2989 660 96 -600 140/06 RMK AO2
14840KMKG MKG20011122080509211/22/01 08:05:31  5-MIN KMKG 221305Z 14006KT 7SM CLR 02/02 A2989 660 96 -600 140/06 RMK AO2
14840KMKG MKG20011122081009211/22/01 08:10:31  5-MIN KMKG 221310Z 13007KT 7SM CLR 02/02 A2989 660 96 -600 140/07 RMK AO2
14840KMKG MKG20011122081509211/22/01 08:15:31  5-MIN KMKG 221315Z 14007KT 8SM CLR 03/02 A2989 660 92 -600 140/07 RMK AO2
14840KMKG MKG20011122082009211/22/01 08:20:31  5-MIN KMKG 221320Z 13008KT 8SM CLR 03/02 A2989 660 92 -600 140/08 RMK AO2
14840KMKG MKG20011122082509211/22/01 08:25:31  5-MIN KMKG 221325Z 13008KT 8SM CLR 03/02 A2988 660 92 -600 140/08 RMK AO2
14840KMKG MKG20011122083009211/22/01 08:30:31  5-MIN KMKG 221330Z 13008KT 9SM CLR 03/02 A2989 660 92 -600 140/08 RMK AO2
14840KMKG MKG20011122083509311/22/01 08:35:31  5-MIN KMKG 221335Z 13007KT 10SM CLR 03/02 A2989 660 92 -600 140/07 RMK AO2
14840KMKG MKG20011122084009311/22/01 08:40:31  5-MIN KMKG 221340Z 13007KT 10SM CLR 03/02 A2989 660 92 -600 140/07 RMK AO2
14840KMKG MKG20011122084509311/22/01 08:45:31  5-MIN KMKG 221345Z 14007KT 10SM CLR 03/02 A2989 660 89 -500 140/07 RMK AO2
14840KMKG MKG20011122085011011/22/01 08:50:31  5-MIN KMKG 221350Z 14006KT 10SM CLR 03/02 A2989 660 89 -500 140/06 RMK AO2 SLP126 T00330017
14840KMKG MKG20011122085511011/22/01 08:55:31  5-MIN KMKG 221355Z 14006KT 10SM CLR 03/02 A2989 660 89 -500 140/06 RMK AO2 SLP127 T00330017
14840KMKG MKG20011122090009311/22/01 09:00:31  5-MIN KMKG 221400Z 14007KT 10SM CLR 03/02 A2989 660 89 -500 140/07 RMK AO2
14840KMKG MKG20011122090509311/22/01 09:05:31  5-MIN KMKG 221405Z 14006KT 10SM CLR 04/02 A2989 660 89 -400 140/06 RMK AO2
14840KMKG MKG20011122091009311/22/01 09:10:31  5-MIN KMKG 221410Z 14007KT 10SM CLR 04/02 A2989 660 89 -400 140/07 RMK AO2
14840KMKG MKG20011122091509311/22/01 09:15:31  5-MIN KMKG 221415Z 14007KT 10SM CLR 04/02 A2989 660 85 -400 150/07 RMK AO2
14840KMKG MKG20011122092009311/22/01 09:20:31  5-MIN KMKG 221420Z 15007KT 10SM CLR 04/02 A2989 660 85 -400 150/07 RMK AO2
14840KMKG MKG20011122092509311/22/01 09:25:31  5-MIN KMKG 221425Z 14007KT 10SM CLR 04/02 A2989 660 85 -400 150/07 RMK AO2
14840KMKG MKG20011122093009311/22/01 09:30:31  5-MIN KMKG 221430Z 15008KT 10SM CLR 04/02 A2989 660 85 -400 150/08 RMK AO2
14840KMKG MKG20011122093509311/22/01 09:35:31  5-MIN KMKG 221435Z 15007KT 10SM CLR 04/02 A2989 660 85 -400 150/07 RMK AO2
14840KMKG MKG20011122094009311/22/01 09:40:31  5-MIN KMKG 221440Z 15010KT 10SM CLR 04/02 A2989 660 85 -400 150/10 RMK AO2
14840KMKG MKG20011122094509311/22/01 09:45:31  5-MIN KMKG 221445Z 15009KT 10SM CLR 05/02 A2989 660 82 -300 150/09 RMK AO2
14840KMKG MKG20011122095011611/22/01 09:50:31  5-MIN KMKG 221450Z 16007KT 10SM CLR 05/02 A2989 660 82 -300 160/07 RMK AO2 SLP125 T00500022 53006
14840KMKG MKG20011122095511611/22/01 09:55:31  5-MIN KMKG 221455Z 15007KT 10SM CLR 05/02 A2989 660 82 -300 150/07 RMK AO2 SLP125 T00500022 50003
14840KMKG MKG20011122100009311/22/01 10:00:31  5-MIN KMKG 221500Z 16005KT 10SM CLR 05/02 A2989 660 82 -300 160/05 RMK AO2
14840KMKG MKG20011122100509311/22/01 10:05:31  5-MIN KMKG 221505Z 16006KT 10SM CLR 06/02 A2989 660 79 -200 160/06 RMK AO2
14840KMKG MKG20011122101009311/22/01 10:10:31  5-MIN KMKG 221510Z 16007KT 10SM CLR 06/02 A2989 650 79 -200 170/07 RMK AO2
14840KMKG MKG20011122101509311/22/01 10:15:31  5-MIN KMKG 221515Z 15006KT 10SM CLR 06/02 A2989 660 76 -200 160/06 RMK AO2
14840KMKG MKG20011122102009311/22/01 10:20:31  5-MIN KMKG 221520Z 17009KT 10SM CLR 06/02 A2989 660 76 -200 170/09 RMK AO2
14840KMKG MKG20011122102509311/22/01 10:25:31  5-MIN KMKG 221525Z 16007KT 10SM CLR 07/03 A2989 660 76 -100 170/07 RMK AO2
14840KMKG MKG20011122103009311/22/01 10:30:31  5-MIN KMKG 221530Z 16008KT 10SM CLR 07/03 A2989 660 76 -100 170/08 RMK AO2
14840KMKG MKG20011122103509311/22/01 10:35:31  5-MIN KMKG 221535Z 17009KT 10SM CLR 07/03 A2989 660 79 -100 180/09 RMK AO2
14840KMKG MKG20011122104009011/22/01 10:40:31  5-MIN KMKG 221540Z 18010KT 10SM CLR 07/03 A2989 660 76 0 180/10 RMK AO2
14840KMKG MKG20011122104509011/22/01 10:45:31  5-MIN KMKG 221545Z 17010KT 10SM CLR 07/03 A2989 660 76 0 180/10 RMK AO2
14840KMKG MKG20011122105010711/22/01 10:50:31  5-MIN KMKG 221550Z 17011KT 10SM CLR 07/03 A2989 660 76 0 170/11 RMK AO2 SLP125 T00720033
14840KMKG MKG20011122105510711/22/01 10:55:31  5-MIN KMKG 221555Z 17010KT 10SM CLR 08/03 A2989 660 73 0 180/10 RMK AO2 SLP125 T00780033
14840KMKG MKG20011122110009011/22/01 11:00:31  5-MIN KMKG 221600Z 16012KT 10SM CLR 08/03 A2989 660 73 0 170/12 RMK AO2
14840KMKG MKG20011122110509011/22/01 11:05:31  5-MIN KMKG 221605Z 16011KT 10SM CLR 08/04 A2989 660 76 0 170/11 RMK AO2
14840KMKG MKG20011122111009211/22/01 11:10:31  5-MIN KMKG 221610Z 16011KT 10SM CLR 08/04 A2989 660 73 100 170/11 RMK AO2
14840KMKG MKG20011122111509211/22/01 11:15:31  5-MIN KMKG 221615Z 18009KT 10SM CLR 08/04 A2989 660 73 100 180/09 RMK AO2
14840KMKG MKG20011122112009211/22/01 11:20:31  5-MIN KMKG 221620Z 18011KT 10SM CLR 08/04 A2988 660 73 100 190/11 RMK AO2
14840KMKG MKG20011122112509211/22/01 11:25:31  5-MIN KMKG 221625Z 17011KT 10SM CLR 09/04 A2988 670 71 100 170/11 RMK AO2
14840KMKG MKG20011122113009211/22/01 11:30:31  5-MIN KMKG 221630Z 16009KT 10SM CLR 09/04 A2988 670 71 100 160/09 RMK AO2
14840KMKG MKG20011122113509211/22/01 11:35:31  5-MIN KMKG 221635Z 16012KT 10SM CLR 09/04 A2988 670 71 100 170/12 RMK AO2
14840KMKG MKG20011122114009211/22/01 11:40:31  5-MIN KMKG 221640Z 16010KT 10SM CLR 09/04 A2987 670 68 200 160/10 RMK AO2
14840KMKG MKG20011122114509211/22/01 11:45:31  5-MIN KMKG 221645Z 17012KT 10SM CLR 09/03 A2987 680 65 200 170/12 RMK AO2
14840KMKG MKG20011122115010911/22/01 11:50:31  5-MIN KMKG 221650Z 17012KT 10SM CLR 10/03 A2987 680 63 300 180/12 RMK AO2 SLP116 T01000033
14840KMKG MKG20011122115510911/22/01 11:55:31  5-MIN KMKG 221655Z 17012KT 10SM CLR 09/03 A2986 680 63 200 180/12 RMK AO2 SLP115 T00940028
14840KMKG MKG20011122120009211/22/01 12:00:31  5-MIN KMKG 221700Z 17013KT 10SM CLR 09/03 A2986 680 63 200 170/13 RMK AO2
14840KMKG MKG20011122120509211/22/01 12:05:31  5-MIN KMKG 221705Z 17012KT 10SM CLR 09/03 A2986 690 63 200 170/12 RMK AO2
14840KMKG MKG20011122121009211/22/01 12:10:31  5-MIN KMKG 221710Z 17013KT 10SM CLR 10/02 A2986 690 58 300 180/13 RMK AO2
14840KMKG MKG20011122121509211/22/01 12:15:31  5-MIN KMKG 221715Z 18013KT 10SM CLR 10/02 A2986 690 58 300 180/13 RMK AO2
14840KMKG MKG20011122122009211/22/01 12:20:31  5-MIN KMKG 221720Z 17014KT 10SM CLR 10/02 A2985 690 58 300 170/14 RMK AO2
14840KMKG MKG20011122122509211/22/01 12:25:31  5-MIN KMKG 221725Z 16013KT 10SM CLR 09/02 A2985 700 58 200 170/13 RMK AO2
14840KMKG MKG20011122123009211/22/01 12:30:31  5-MIN KMKG 221730Z 17011KT 10SM CLR 10/02 A2985 700 58 300 170/11 RMK AO2
14840KMKG MKG20011122123509211/22/01 12:35:31  5-MIN KMKG 221735Z 18011KT 10SM CLR 10/02 A2985 700 58 300 180/11 RMK AO2
14840KMKG MKG20011122124009211/22/01 12:40:31  5-MIN KMKG 221740Z 17012KT 10SM CLR 10/02 A2985 700 58 300 170/12 RMK AO2
14840KMKG MKG20011122124509211/22/01 12:45:31  5-MIN KMKG 221745Z 18013KT 10SM CLR 10/02 A2984 700 56 300 190/13 RMK AO2
14840KMKG MKG20011122125012711/22/01 12:50:31  5-MIN KMKG 221750Z 17012KT 10SM CLR 10/02 A2984 700 58 300 170/12 RMK AO2 SLP108 T01000022 10100 20011 50003
14840KMKG MKG20011122125513311/22/01 12:55:31  5-MIN KMKG 221755Z 17013G18KT 10SM CLR 10/01 A2984 710 54 300 180/13G18 RMK AO2 SLP108 T01000011 10100 20011 58017
14840KMKG MKG20011122130009211/22/01 13:00:31  5-MIN KMKG 221800Z 16011KT 10SM CLR 10/01 A2983 710 54 300 170/11 RMK AO2
14840KMKG MKG20011122130509211/22/01 13:05:31  5-MIN KMKG 221805Z 18011KT 10SM CLR 10/01 A2983 710 52 300 180/11 RMK AO2
14840KMKG MKG20011122131009211/22/01 13:10:31  5-MIN KMKG 221810Z 18013KT 10SM CLR 11/01 A2983 710 50 400 180/13 RMK AO2
14840KMKG MKG20011122131509811/22/01 13:15:31  5-MIN KMKG 221815Z 18012G18KT 10SM CLR 11/01 A2983 710 50 400 180/12G18 RMK AO2
14840KMKG MKG20011122132009211/22/01 13:20:31  5-MIN KMKG 221820Z 19013KT 10SM CLR 11/01 A2983 710 50 400 190/13 RMK AO2
14840KMKG MKG20011122132509811/22/01 13:25:31  5-MIN KMKG 221825Z 18017G20KT 10SM CLR 11/01 A2983 710 50 400 180/17G20 RMK AO2
14840KMKG MKG20011122133009811/22/01 13:30:31  5-MIN KMKG 221830Z 18013G20KT 10SM CLR 11/00 A2983 720 48 400 180/13G20 RMK AO2
14840KMKG MKG20011122133509211/22/01 13:35:31  5-MIN KMKG 221835Z 18015KT 10SM CLR 11/00 A2983 720 48 400 180/15 RMK AO2
14840KMKG MKG20011122134009811/22/01 13:40:31  5-MIN KMKG 221840Z 18012G18KT 10SM CLR 11/00 A2982 720 48 400 180/12G18 RMK AO2
14840KMKG MKG20011122134509211/22/01 13:45:31  5-MIN KMKG 221845Z 19013KT 10SM CLR 11/00 A2983 720 48 400 190/13 RMK AO2
14840KMKG MKG20011122135011511/22/01 13:50:31  5-MIN KMKG 221850Z 18011G19KT 10SM CLR 11/00 A2982 720 48 400 180/11G19 RMK AO2 SLP102 T01060000
14840KMKG MKG20011122135511511/22/01 13:55:31  5-MIN KMKG 221855Z 18015G19KT 10SM CLR 11/00 A2982 720 48 400 190/15G19 RMK AO2 SLP102 T01060000
14840KMKG MKG20011122140009211/22/01 14:00:31  5-MIN KMKG 221900Z 18014KT 10SM CLR 11/00 A2982 720 46 500 180/14 RMK AO2
14840KMKG MKG20011122140509311/22/01 14:05:31  5-MIN KMKG 221905Z 18013KT 10SM CLR 11/M01 A2982 720 44 500 180/13 RMK AO2
14840KMKG MKG20011122141009311/22/01 14:10:31  5-MIN KMKG 221910Z 18014KT 10SM CLR 12/M01 A2982 730 42 500 180/14 RMK AO2
14840KMKG MKG20011122141509311/22/01 14:15:31  5-MIN KMKG 221915Z 18014KT 10SM CLR 12/M01 A2982 730 42 500 180/14 RMK AO2
14840KMKG MKG20011122142009311/22/01 14:20:31  5-MIN KMKG 221920Z 18013KT 10SM CLR 12/M01 A2981 730 42 500 190/13 RMK AO2
14840KMKG MKG20011122142509311/22/01 14:25:31  5-MIN KMKG 221925Z 18013KT 10SM CLR 12/M01 A2981 730 41 600 190/13 RMK AO2
14840KMKG MKG20011122143009811/22/01 14:30:31  5-MIN KMKG 221930Z 18014G18KT 10SM CLR 12/00 A2981 730 43 600 190/14G18 RMK AO2
14840KMKG MKG20011122143509811/22/01 14:35:31  5-MIN KMKG 221935Z 17012G18KT 10SM CLR 12/00 A2981 730 43 600 180/12G18 RMK AO2
14840KMKG MKG20011122144009211/22/01 14:40:31  5-MIN KMKG 221940Z 18013KT 10SM CLR 12/01 A2981 730 44 600 180/13 RMK AO2
14840KMKG MKG20011122144509211/22/01 14:45:31  5-MIN KMKG 221945Z 18014KT 10SM CLR 12/01 A2981 740 44 600 180/14 RMK AO2
14840KMKG MKG20011122145010911/22/01 14:50:31  5-MIN KMKG 221950Z 19014KT 10SM CLR 12/00 A2981 730 43 600 190/14 RMK AO2 SLP097 T01220000
14840KMKG MKG20011122145510911/22/01 14:55:31  5-MIN KMKG 221955Z 17014KT 10SM CLR 12/00 A2981 740 43 600 180/14 RMK AO2 SLP097 T01220000
14840KMKG MKG20011122150009811/22/01 15:00:31  5-MIN KMKG 222000Z 17018G22KT 10SM CLR 12/00 A2981 740 43 600 180/18G22 RMK AO2
14840KMKG MKG20011122150509911/22/01 15:05:31  5-MIN KMKG 222005Z 18013G22KT 10SM CLR 12/M01 A2980 740 41 600 180/13G22 RMK AO2
14840KMKG MKG20011122151009911/22/01 15:10:31  5-MIN KMKG 222010Z 17015G21KT 10SM CLR 12/M01 A2980 740 41 600 180/15G21 RMK AO2
14840KMKG MKG20011122151509811/22/01 15:15:31  5-MIN KMKG 222015Z 18016G21KT 10SM CLR 12/00 A2981 740 43 600 180/16G21 RMK AO2
14840KMKG MKG20011122152009911/22/01 15:20:31  5-MIN KMKG 222020Z 18014G21KT 10SM CLR 12/M01 A2981 740 41 600 180/14G21 RMK AO2
14840KMKG MKG20011122152509911/22/01 15:25:31  5-MIN KMKG 222025Z 17015G21KT 10SM CLR 12/M01 A2981 740 41 600 180/15G21 RMK AO2
14840KMKG MKG20011122153009311/22/01 15:30:31  5-MIN KMKG 222030Z 17015KT 10SM CLR 12/M01 A2981 740 41 600 180/15 RMK AO2
14840KMKG MKG20011122153509911/22/01 15:35:31  5-MIN KMKG 222035Z 17015G20KT 10SM CLR 12/M01 A2981 730 39 600 180/15G20 RMK AO2
14840KMKG MKG20011122154009311/22/01 15:40:31  5-MIN KMKG 222040Z 18016KT 10SM CLR 12/M01 A2981 730 39 600 190/16 RMK AO2
14840KMKG MKG20011122154509311/22/01 15:45:31  5-MIN KMKG 222045Z 17014KT 10SM CLR 12/M01 A2981 730 39 600 180/14 RMK AO2
14840KMKG MKG20011122155012211/22/01 15:50:31  5-MIN KMKG 222050Z 17016G19KT 10SM CLR 12/M01 A2981 730 41 600 180/16G19 RMK AO2 SLP099 T01221006 58017
14840KMKG MKG20011122155512211/22/01 15:55:31  5-MIN KMKG 222055Z 18016G19KT 10SM CLR 12/M01 A2981 730 41 600 190/16G19 RMK AO2 SLP099 T01221006 55009
14840KMKG MKG20011122160009311/22/01 16:00:31  5-MIN KMKG 222100Z 18014KT 10SM CLR 12/M01 A2981 730 41 600 180/14 RMK AO2
14840KMKG MKG20011122160509311/22/01 16:05:31  5-MIN KMKG 222105Z 18013KT 10SM CLR 12/M01 A2981 730 41 600 180/13 RMK AO2
14840KMKG MKG20011122161009211/22/01 16:10:31  5-MIN KMKG 222110Z 17012KT 10SM CLR 12/00 A2981 730 43 600 180/12 RMK AO2
14840KMKG MKG20011122161509311/22/01 16:15:31  5-MIN KMKG 222115Z 17015KT 10SM CLR 12/M01 A2981 730 41 600 170/15 RMK AO2
14840KMKG MKG20011122162009811/22/01 16:20:31  5-MIN KMKG 222120Z 17012G20KT 10SM CLR 12/00 A2981 730 44 600 170/12G20 RMK AO2
14840KMKG MKG20011122162509811/22/01 16:25:31  5-MIN KMKG 222125Z 17011G20KT 10SM CLR 12/00 A2981 730 44 500 170/11G20 RMK AO2
14840KMKG MKG20011122163009811/22/01 16:30:31  5-MIN KMKG 222130Z 17013G16KT 10SM CLR 12/00 A2981 730 44 500 180/13G16 RMK AO2
14840KMKG MKG20011122163509211/22/01 16:35:31  5-MIN KMKG 222135Z 17010KT 10SM CLR 11/00 A2981 730 46 500 180/10 RMK AO2
14840KMKG MKG20011122164009211/22/01 16:40:31  5-MIN KMKG 222140Z 17009KT 10SM CLR 11/00 A2981 730 46 500 180/09 RMK AO2
14840KMKG MKG20011122164509211/22/01 16:45:31  5-MIN KMKG 222145Z 18010KT 10SM CLR 11/00 A2982 720 46 500 180/10 RMK AO2
14840KMKG MKG20011122165010911/22/01 16:50:31  5-MIN KMKG 222150Z 17010KT 10SM CLR 11/00 A2982 720 46 500 180/10 RMK AO2 SLP101 T01110000
14840KMKG MKG20011122165510911/22/01 16:55:31  5-MIN KMKG 222155Z 18009KT 10SM CLR 11/00 A2982 720 46 500 180/09 RMK AO2 SLP102 T01110000
14840KMKG MKG20011122170009211/22/01 17:00:31  5-MIN KMKG 222200Z 17009KT 10SM CLR 11/00 A2982 720 48 400 170/09 RMK AO2
14840KMKG MKG20011122170509211/22/01 17:05:31  5-MIN KMKG 222205Z 17011KT 10SM CLR 11/01 A2982 720 50 400 170/11 RMK AO2
14840KMKG MKG20011122171009211/22/01 17:10:31  5-MIN KMKG 222210Z 18010KT 10SM CLR 11/01 A2982 720 50 400 180/10 RMK AO2
14840KMKG MKG20011122171509211/22/01 17:15:31  5-MIN KMKG 222215Z 17011KT 10SM CLR 11/01 A2982 720 52 400 170/11 RMK AO2
14840KMKG MKG20011122172009211/22/01 17:20:31  5-MIN KMKG 222220Z 17010KT 10SM CLR 11/01 A2982 720 52 400 180/10 RMK AO2
14840KMKG MKG20011122172509211/22/01 17:25:31  5-MIN KMKG 222225Z 17010KT 10SM CLR 11/01 A2982 720 52 400 180/10 RMK AO2
14840KMKG MKG20011122173009211/22/01 17:30:31  5-MIN KMKG 222230Z 17010KT 10SM CLR 11/01 A2982 720 50 400 170/10 RMK AO2
14840KMKG MKG20011122173509211/22/01 17:35:31  5-MIN KMKG 222235Z 17010KT 10SM CLR 11/01 A2982 730 50 400 170/10 RMK AO2
14840KMKG MKG20011122174009211/22/01 17:40:31  5-MIN KMKG 222240Z 17008KT 10SM CLR 11/01 A2982 730 50 400 170/08 RMK AO2
14840KMKG MKG20011122174509211/22/01 17:45:31  5-MIN KMKG 222245Z 17010KT 10SM CLR 10/01 A2982 730 52 300 170/10 RMK AO2
14840KMKG MKG20011122175010911/22/01 17:50:31  5-MIN KMKG 222250Z 17008KT 10SM CLR 10/01 A2982 730 52 300 170/08 RMK AO2 SLP101 T01000006
14840KMKG MKG20011122175510911/22/01 17:55:31  5-MIN KMKG 222255Z 17010KT 10SM CLR 10/01 A2982 720 52 300 170/10 RMK AO2 SLP102 T01000006
14840KMKG MKG20011122180009211/22/01 18:00:31  5-MIN KMKG 222300Z 16010KT 10SM CLR 10/01 A2982 720 52 300 170/10 RMK AO2
14840KMKG MKG20011122180509211/22/01 18:05:31  5-MIN KMKG 222305Z 17010KT 10SM CLR 10/01 A2982 720 52 300 170/10 RMK AO2
14840KMKG MKG20011122181009211/22/01 18:10:31  5-MIN KMKG 222310Z 17008KT 10SM CLR 10/01 A2982 720 52 300 170/08 RMK AO2
14840KMKG MKG20011122181509211/22/01 18:15:31  5-MIN KMKG 222315Z 16009KT 10SM CLR 10/01 A2982 720 52 300 170/09 RMK AO2
14840KMKG MKG20011122182009211/22/01 18:20:31  5-MIN KMKG 222320Z 17007KT 10SM CLR 09/01 A2982 720 53 300 170/07 RMK AO2
14840KMKG MKG20011122182509211/22/01 18:25:31  5-MIN KMKG 222325Z 16007KT 10SM CLR 09/00 A2982 720 51 300 170/07 RMK AO2
14840KMKG MKG20011122183009211/22/01 18:30:31  5-MIN KMKG 222330Z 15007KT 10SM CLR 09/00 A2982 720 51 300 150/07 RMK AO2
14840KMKG MKG20011122183509211/22/01 18:35:31  5-MIN KMKG 222335Z 14006KT 10SM CLR 09/00 A2982 720 53 200 140/06 RMK AO2
14840KMKG MKG20011122184009211/22/01 18:40:31  5-MIN KMKG 222340Z 15007KT 10SM CLR 08/00 A2982 720 55 100 150/07 RMK AO2
14840KMKG MKG20011122184509211/22/01 18:45:31  5-MIN KMKG 222345Z 14006KT 10SM CLR 09/00 A2982 720 53 200 150/06 RMK AO2
14840KMKG MKG20011122185012711/22/01 18:50:31  5-MIN KMKG 222350Z 15007KT 10SM CLR 09/00 A2982 720 53 200 150/07 RMK AO2 SLP103 T00890000 10122 20083 55009
14840KMKG MKG20011122185512711/22/01 18:55:31  5-MIN KMKG 222355Z 15008KT 10SM CLR 09/00 A2982 720 53 200 160/08 RMK AO2 SLP103 T00890000 10122 20083 51003
14840KMKG MKG20011122190009211/22/01 19:00:31  5-MIN KMKG 230000Z 16007KT 10SM CLR 09/00 A2982 720 53 200 160/07 RMK AO2
14840KMKG MKG20011122190509211/22/01 19:05:31  5-MIN KMKG 230005Z 15009KT 10SM CLR 09/00 A2982 720 53 200 150/09 RMK AO2
14840KMKG MKG20011122191009211/22/01 19:10:31  5-MIN KMKG 230010Z 16008KT 10SM CLR 09/00 A2982 720 53 200 160/08 RMK AO2
14840KMKG MKG20011122191509211/22/01 19:15:31  5-MIN KMKG 230015Z 16008KT 10SM CLR 09/00 A2982 720 53 200 160/08 RMK AO2
14840KMKG MKG20011122192009211/22/01 19:20:31  5-MIN KMKG 230020Z 16009KT 10SM CLR 08/00 A2982 720 55 100 160/09 RMK AO2
14840KMKG MKG20011122192509211/22/01 19:25:31  5-MIN KMKG 230025Z 16008KT 10SM CLR 08/00 A2982 720 55 100 160/08 RMK AO2
14840KMKG MKG20011122193009211/22/01 19:30:31  5-MIN KMKG 230030Z 15008KT 10SM CLR 08/00 A2982 720 55 100 160/08 RMK AO2
14840KMKG MKG20011122193509211/22/01 19:35:31  5-MIN KMKG 230035Z 15009KT 10SM CLR 08/00 A2982 720 55 100 160/09 RMK AO2
14840KMKG MKG20011122194009211/22/01 19:40:31  5-MIN KMKG 230040Z 15007KT 10SM CLR 08/00 A2982 720 55 100 160/07 RMK AO2
14840KMKG MKG20011122194509211/22/01 19:45:31  5-MIN KMKG 230045Z 15009KT 10SM CLR 08/00 A2982 720 55 100 160/09 RMK AO2
14840KMKG MKG20011122195010911/22/01 19:50:31  5-MIN KMKG 230050Z 15009KT 10SM CLR 08/00 A2982 720 55 100 160/09 RMK AO2 SLP103 T00830000
14840KMKG MKG20011122195510911/22/01 19:55:31  5-MIN KMKG 230055Z 15009KT 10SM CLR 08/00 A2982 720 55 100 160/09 RMK AO2 SLP104 T00830000
14840KMKG MKG20011122200009211/22/01 20:00:31  5-MIN KMKG 230100Z 15009KT 10SM CLR 08/00 A2983 720 55 100 160/09 RMK AO2
14840KMKG MKG20011122200509211/22/01 20:05:31  5-MIN KMKG 230105Z 16009KT 10SM CLR 08/00 A2983 720 55 100 160/09 RMK AO2
14840KMKG MKG20011122201009211/22/01 20:10:31  5-MIN KMKG 230110Z 15009KT 10SM CLR 08/00 A2982 720 55 100 150/09 RMK AO2
14840KMKG MKG20011122201509211/22/01 20:15:31  5-MIN KMKG 230115Z 14009KT 10SM CLR 08/00 A2982 720 55 100 150/09 RMK AO2
14840KMKG MKG20011122202009211/22/01 20:20:31  5-MIN KMKG 230120Z 14009KT 10SM CLR 08/00 A2982 720 58 100 150/09 RMK AO2
14840KMKG MKG20011122202509211/22/01 20:25:31  5-MIN KMKG 230125Z 14008KT 10SM CLR 08/00 A2982 720 58 100 150/08 RMK AO2
14840KMKG MKG20011122203009211/22/01 20:30:31  5-MIN KMKG 230130Z 15008KT 10SM CLR 08/00 A2983 720 58 100 150/08 RMK AO2
14840KMKG MKG20011122203509511/22/01 20:35:31  5-MIN KMKG 230135Z 15008KT 10SM FEW060 08/00 A2982 720 58 100 150/08 RMK AO2
14840KMKG MKG20011122204009511/22/01 20:40:31  5-MIN KMKG 230140Z 15008KT 10SM FEW060 08/00 A2982 720 58 100 150/08 RMK AO2
14840KMKG MKG20011122204509511/22/01 20:45:31  5-MIN KMKG 230145Z 15009KT 10SM SCT060 08/00 A2982 720 58 100 160/09 RMK AO2
14840KMKG MKG20011122205011211/22/01 20:50:31  5-MIN KMKG 230150Z 15009KT 10SM BKN060 08/00 A2982 720 55 100 150/09 RMK AO2 SLP102 T00830000
14840KMKG MKG20011122205511211/22/01 20:55:31  5-MIN KMKG 230155Z 16009KT 10SM BKN060 08/00 A2982 720 55 100 160/09 RMK AO2 SLP102 T00830000
14840KMKG MKG20011122210009511/22/01 21:00:31  5-MIN KMKG 230200Z 15010KT 10SM BKN060 08/00 A2982 730 55 100 160/10 RMK AO2
14840KMKG MKG20011122210509511/22/01 21:05:31  5-MIN KMKG 230205Z 15010KT 10SM BKN060 08/00 A2982 730 55 100 160/10 RMK AO2
14840KMKG MKG20011122211009511/22/01 21:10:31  5-MIN KMKG 230210Z 15008KT 10SM BKN060 08/00 A2981 730 55 100 160/08 RMK AO2
14840KMKG MKG20011122211509511/22/01 21:15:31  5-MIN KMKG 230215Z 15009KT 10SM BKN060 09/00 A2982 730 53 200 150/09 RMK AO2
14840KMKG MKG20011122212009511/22/01 21:20:31  5-MIN KMKG 230220Z 16008KT 10SM OVC060 09/00 A2982 730 53 200 160/08 RMK AO2
14840KMKG MKG20011122212509511/22/01 21:25:31  5-MIN KMKG 230225Z 15008KT 10SM OVC060 09/00 A2982 720 53 200 160/08 RMK AO2
14840KMKG MKG20011122213009511/22/01 21:30:31  5-MIN KMKG 230230Z 15008KT 10SM OVC060 09/00 A2982 730 53 200 150/08 RMK AO2
14840KMKG MKG20011122213509511/22/01 21:35:31  5-MIN KMKG 230235Z 16009KT 10SM OVC060 09/00 A2982 730 53 200 160/09 RMK AO2
14840KMKG MKG20011122214009511/22/01 21:40:31  5-MIN KMKG 230240Z 15009KT 10SM OVC060 09/00 A2982 730 53 200 160/09 RMK AO2
14840KMKG MKG20011122214509511/22/01 21:45:31  5-MIN KMKG 230245Z 15008KT 10SM OVC065 09/00 A2982 730 53 200 160/08 RMK AO2
14840KMKG MKG20011122215011811/22/01 21:50:31  5-MIN KMKG 230250Z 16009KT 10SM OVC065 09/00 A2982 720 53 200 160/09 RMK AO2 SLP101 T00890000 51003
14840KMKG MKG20011122215511811/22/01 21:55:31  5-MIN KMKG 230255Z 16008KT 10SM OVC065 09/00 A2982 720 51 300 160/08 RMK AO2 SLP101 T00940000 58001
14840KMKG MKG20011122220009511/22/01 22:00:31  5-MIN KMKG 230300Z 15007KT 10SM OVC065 09/00 A2982 720 51 300 160/07 RMK AO2
14840KMKG MKG20011122220509511/22/01 22:05:31  5-MIN KMKG 230305Z 16009KT 10SM OVC065 09/00 A2982 720 51 300 160/09 RMK AO2
14840KMKG MKG20011122221009511/22/01 22:10:31  5-MIN KMKG 230310Z 16008KT 10SM OVC060 10/00 A2982 720 49 300 170/08 RMK AO2
14840KMKG MKG20011122221509511/22/01 22:15:31  5-MIN KMKG 230315Z 16010KT 10SM OVC060 09/00 A2982 720 51 300 170/10 RMK AO2
14840KMKG MKG20011122222009511/22/01 22:20:31  5-MIN KMKG 230320Z 18011KT 10SM OVC060 10/01 A2982 720 52 300 180/11 RMK AO2
14840KMKG MKG20011122222509511/22/01 22:25:31  5-MIN KMKG 230325Z 17010KT 10SM OVC060 10/01 A2983 720 52 300 170/10 RMK AO2
14840KMKG MKG20011122223010111/22/01 22:30:31  5-MIN KMKG 230330Z 18010G17KT 10SM OVC060 10/01 A2982 720 54 300 180/10G17 RMK AO2
14840KMKG MKG20011122223509511/22/01 22:35:31  5-MIN KMKG 230335Z 18012KT 10SM OVC060 10/01 A2982 720 54 300 180/12 RMK AO2
14840KMKG MKG20011122224009511/22/01 22:40:31  5-MIN KMKG 230340Z 17012KT 10SM OVC060 10/01 A2983 720 54 300 180/12 RMK AO2
14840KMKG MKG20011122224509511/22/01 22:45:31  5-MIN KMKG 230345Z 17014KT 10SM OVC060 10/02 A2982 720 56 300 180/14 RMK AO2
14840KMKG MKG20011122225011211/22/01 22:50:31  5-MIN KMKG 230350Z 18011KT 10SM OVC065 10/02 A2982 720 56 300 180/11 RMK AO2 SLP101 T01000017
14840KMKG MKG20011122225511211/22/01 22:55:31  5-MIN KMKG 230355Z 18013KT 10SM OVC065 10/02 A2982 720 58 300 180/13 RMK AO2 SLP101 T01000022
14840KMKG MKG20011122230009511/22/01 23:00:31  5-MIN KMKG 230400Z 18013KT 10SM OVC065 10/02 A2982 720 58 300 190/13 RMK AO2
14840KMKG MKG20011122230510111/22/01 23:05:31  5-MIN KMKG 230405Z 18011G17KT 10SM OVC065 10/02 A2982 720 58 300 180/11G17 RMK AO2
14840KMKG MKG20011122231010111/22/01 23:10:31  5-MIN KMKG 230410Z 18013G17KT 10SM OVC065 10/02 A2982 730 58 300 180/13G17 RMK AO2
14840KMKG MKG20011122231509511/22/01 23:15:31  5-MIN KMKG 230415Z 18012KT 10SM OVC065 10/03 A2982 730 60 300 180/12 RMK AO2
14840KMKG MKG20011122232009511/22/01 23:20:31  5-MIN KMKG 230420Z 18012KT 10SM OVC070 10/03 A2981 730 60 300 190/12 RMK AO2
14840KMKG MKG20011122232510111/22/01 23:25:31  5-MIN KMKG 230425Z 18014G20KT 10SM BKN070 09/03 A2981 730 63 300 180/14G20 RMK AO2
14840KMKG MKG20011122233010111/22/01 23:30:31  5-MIN KMKG 230430Z 18011G20KT 10SM BKN070 09/03 A2981 730 63 300 190/11G20 RMK AO2
14840KMKG MKG20011122233510111/22/01 23:35:31  5-MIN KMKG 230435Z 18014G19KT 10SM BKN070 09/03 A2981 730 63 300 180/14G19 RMK AO2
14840KMKG MKG20011122234010111/22/01 23:40:31  5-MIN KMKG 230440Z 18016G19KT 10SM BKN070 09/03 A2982 730 63 300 180/16G19 RMK AO2
14840KMKG MKG20011122234510111/22/01 23:45:31  5-MIN KMKG 230445Z 18015G21KT 10SM BKN070 10/03 A2982 730 60 300 180/15G21 RMK AO2
14840KMKG MKG20011122235012811/22/01 23:50:31  5-MIN KMKG 230450Z 18014G21KT 10SM BKN070 10/03 A2982 730 60 300 190/14G21 RMK AO2 SLP099 T01000028 401220011
14840KMKG MKG20011122235512811/22/01 23:55:31  5-MIN KMKG 230455Z 18016G21KT 10SM BKN070 10/03 A2981 730 60 300 190/16G21 RMK AO2 SLP098 T01000028 401220011
14840KMKG MKG20011123000010111/23/01 00:00:31  5-MIN KMKG 230500Z 18015G21KT 10SM OVC070 10/03 A2982 730 60 300 190/15G21 RMK AO2
14840KMKG MKG20011123000510111/23/01 00:05:31  5-MIN KMKG 230505Z 18014G21KT 10SM OVC070 10/03 A2982 730 60 300 190/14G21 RMK AO2
14840KMKG MKG20011123001010111/23/01 00:10:31  5-MIN KMKG 230510Z 18015G22KT 10SM OVC070 10/03 A2982 730 60 300 180/15G22 RMK AO2
14840KMKG MKG20011123001510111/23/01 00:15:31  5-MIN KMKG 230515Z 18015G22KT 10SM OVC070 10/03 A2982 730 60 300 190/15G22 RMK AO2
14840KMKG MKG20011123002010111/23/01 00:20:31  5-MIN KMKG 230520Z 18015G22KT 10SM OVC070 10/03 A2982 730 60 300 180/15G22 RMK AO2
14840KMKG MKG20011123002510111/23/01 00:25:31  5-MIN KMKG 230525Z 18014G22KT 10SM OVC070 10/03 A2982 730 60 300 190/14G22 RMK AO2
14840KMKG MKG20011123003009511/23/01 00:30:31  5-MIN KMKG 230530Z 18014KT 10SM OVC070 10/03 A2981 730 63 300 190/14 RMK AO2
14840KMKG MKG20011123003510111/23/01 00:35:31  5-MIN KMKG 230535Z 18015G20KT 10SM OVC070 10/03 A2982 730 63 300 190/15G20 RMK AO2
14840KMKG MKG20011123004010111/23/01 00:40:31  5-MIN KMKG 230540Z 18014G20KT 10SM OVC070 10/03 A2982 730 63 300 180/14G20 RMK AO2
14840KMKG MKG20011123004510111/23/01 00:45:31  5-MIN KMKG 230545Z 17015G20KT 10SM OVC070 10/03 A2981 730 63 300 180/15G20 RMK AO2
14840KMKG MKG20011123005013711/23/01 00:50:31  5-MIN KMKG 230550Z 18013KT 10SM FEW050 OVC070 10/03 A2982 730 63 300 180/13 RMK AO2 SLP099 T01000033 10100 20078 58001
14840KMKG MKG20011123005513711/23/01 00:55:31  5-MIN KMKG 230555Z 17014KT 10SM FEW050 OVC070 10/03 A2982 730 63 300 180/14 RMK AO2 SLP099 T01000033 10100 20078 58001
14840KMKG MKG20011123010010211/23/01 01:00:31  5-MIN KMKG 230600Z 18015KT 10SM FEW050 OVC070 10/03 A2982 730 60 300 180/15 RMK AO2
14840KMKG MKG20011123010510811/23/01 01:05:31  5-MIN KMKG 230605Z 18015G20KT 10SM SCT048 OVC070 10/03 A2982 720 60 300 190/15G20 RMK AO2
14840KMKG MKG20011123011010811/23/01 01:10:31  5-MIN KMKG 230610Z 18015G20KT 10SM SCT048 OVC070 10/03 A2982 730 60 300 190/15G20 RMK AO2
14840KMKG MKG20011123011510211/23/01 01:15:31  5-MIN KMKG 230615Z 18014KT 10SM FEW048 OVC070 10/03 A2982 730 60 300 190/14 RMK AO2
14840KMKG MKG20011123012010211/23/01 01:20:31  5-MIN KMKG 230620Z 19013KT 10SM FEW048 OVC070 10/02 A2982 730 58 300 190/13 RMK AO2
14840KMKG MKG20011123012510811/23/01 01:25:31  5-MIN KMKG 230625Z 19015G20KT 10SM FEW046 OVC075 10/02 A2982 720 58 300 190/15G20 RMK AO2
14840KMKG MKG20011123013010811/23/01 01:30:31  5-MIN KMKG 230630Z 19014G20KT 10SM FEW046 BKN070 10/02 A2982 720 58 300 190/14G20 RMK AO2
14840KMKG MKG20011123013510111/23/01 01:35:31  5-MIN KMKG 230635Z 18013G20KT 10SM OVC075 10/02 A2982 720 58 300 190/13G20 RMK AO2
14840KMKG MKG20011123014010111/23/01 01:40:31  5-MIN KMKG 230640Z 18014G20KT 10SM OVC075 10/03 A2982 720 60 300 180/14G20 RMK AO2
14840KMKG MKG20011123014510111/23/01 01:45:31  5-MIN KMKG 230645Z 18012G19KT 10SM OVC075 10/03 A2982 720 60 300 180/12G19 RMK AO2
14840KMKG MKG20011123015011211/23/01 01:50:31  5-MIN KMKG 230650Z 18012KT 10SM OVC075 10/03 A2982 720 60 300 190/12 RMK AO2 SLP102 T01000028
14840KMKG MKG20011123015511211/23/01 01:55:31  5-MIN KMKG 230655Z 18011KT 10SM OVC080 09/03 A2983 720 63 300 180/11 RMK AO2 SLP103 T00940028
14840KMKG MKG20011123020009511/23/01 02:00:31  5-MIN KMKG 230700Z 18011KT 10SM OVC080 09/03 A2983 720 63 300 190/11 RMK AO2
14840KMKG MKG20011123020509511/23/01 02:05:31  5-MIN KMKG 230705Z 19011KT 10SM OVC080 09/03 A2983 710 63 300 190/11 RMK AO2
14840KMKG MKG20011123021009511/23/01 02:10:31  5-MIN KMKG 230710Z 18012KT 10SM OVC080 09/03 A2983 710 65 300 180/12 RMK AO2
14840KMKG MKG20011123021510211/23/01 02:15:31  5-MIN KMKG 230715Z 18011KT 10SM FEW046 OVC080 09/03 A2983 710 65 300 190/11 RMK AO2
14840KMKG MKG20011123022010811/23/01 02:20:31  5-MIN KMKG 230720Z 18011G17KT 10SM SCT046 OVC080 09/03 A2983 710 65 300 180/11G17 RMK AO2
14840KMKG MKG20011123022510811/23/01 02:25:31  5-MIN KMKG 230725Z 17014G18KT 10SM SCT046 OVC080 09/03 A2983 710 65 300 180/14G18 RMK AO2
14840KMKG MKG20011123023010811/23/01 02:30:31  5-MIN KMKG 230730Z 18012G18KT 10SM BKN044 OVC080 10/03 A2984 710 60 300 190/12G18 RMK AO2
14840KMKG MKG20011123023510811/23/01 02:35:31  5-MIN KMKG 230735Z 18009G17KT 10SM BKN044 OVC080 09/03 A2984 710 65 200 190/09G17 RMK AO2
14840KMKG MKG20011123024009511/23/01 02:40:31  5-MIN KMKG 230740Z 18011KT 10SM OVC044 09/03 A2984 700 65 200 180/11 RMK AO2
14840KMKG MKG20011123024509511/23/01 02:45:31  5-MIN KMKG 230745Z 17010KT 10SM OVC044 09/03 A2984 700 65 200 180/10 RMK AO2
14840KMKG MKG20011123025011211/23/01 02:50:31  5-MIN KMKG 230750Z 18010KT 10SM OVC044 09/03 A2984 700 63 200 180/10 RMK AO2 SLP108 T00940028
14840KMKG MKG20011123025511811/23/01 02:55:31  5-MIN KMKG 230755Z 18013G18KT 10SM OVC044 10/03 A2985 700 60 300 190/13G18 RMK AO2 SLP108 T01000028
14840KMKG MKG20011123030009511/23/01 03:00:31  5-MIN KMKG 230800Z 17012KT 10SM OVC046 09/03 A2985 700 63 200 180/12 RMK AO2
14840KMKG MKG20011123030510211/23/01 03:05:31  5-MIN KMKG 230805Z 18009KT 10SM BKN046 OVC075 09/03 A2985 700 63 200 180/09 RMK AO2
14840KMKG MKG20011123031010211/23/01 03:10:31  5-MIN KMKG 230810Z 17011KT 10SM BKN048 OVC075 09/03 A2985 700 63 200 180/11 RMK AO2
14840KMKG MKG20011123031510211/23/01 03:15:31  5-MIN KMKG 230815Z 18012KT 10SM BKN048 OVC075 09/03 A2985 690 63 200 190/12 RMK AO2
14840KMKG MKG20011123032010211/23/01 03:20:31  5-MIN KMKG 230820Z 18013KT 10SM BKN050 OVC075 09/03 A2985 690 63 200 180/13 RMK AO2
14840KMKG MKG20011123032510211/23/01 03:25:31  5-MIN KMKG 230825Z 18011KT 10SM BKN050 OVC075 09/03 A2985 690 63 200 190/11 RMK AO2
14840KMKG MKG20011123033010211/23/01 03:30:31  5-MIN KMKG 230830Z 18013KT 10SM BKN050 OVC075 09/03 A2985 690 63 200 180/13 RMK AO2
14840KMKG MKG20011123033509511/23/01 03:35:31  5-MIN KMKG 230835Z 18012KT 10SM OVC055 09/03 A2985 690 63 200 180/12 RMK AO2
14840KMKG MKG20011123034009511/23/01 03:40:31  5-MIN KMKG 230840Z 18011KT 10SM OVC050 09/03 A2985 700 63 200 180/11 RMK AO2
14840KMKG MKG20011123034509511/23/01 03:45:31  5-MIN KMKG 230845Z 18012KT 10SM OVC055 09/03 A2985 700 63 200 180/12 RMK AO2
14840KMKG MKG20011123035011811/23/01 03:50:31  5-MIN KMKG 230850Z 18011KT 10SM OVC050 09/03 A2985 700 65 200 180/11 RMK AO2 SLP109 T00940033 58001
14840KMKG MKG20011123035511811/23/01 03:55:31  5-MIN KMKG 230855Z 18010KT 10SM OVC050 09/03 A2985 700 65 200 180/10 RMK AO2 SLP109 T00940033 51011
14840KMKG MKG20011123040009511/23/01 04:00:31  5-MIN KMKG 230900Z 18011KT 10SM OVC050 09/03 A2985 700 65 200 180/11 RMK AO2
14840KMKG MKG20011123040509511/23/01 04:05:31  5-MIN KMKG 230905Z 17012KT 10SM OVC050 09/03 A2985 700 65 200 180/12 RMK AO2
14840KMKG MKG20011123041009511/23/01 04:10:31  5-MIN KMKG 230910Z 18012KT 10SM OVC050 09/03 A2985 700 65 200 180/12 RMK AO2
14840KMKG MKG20011123041509511/23/01 04:15:31  5-MIN KMKG 230915Z 18010KT 10SM OVC050 09/03 A2985 690 65 200 180/10 RMK AO2
14840KMKG MKG20011123042009511/23/01 04:20:31  5-MIN KMKG 230920Z 18009KT 10SM OVC050 09/03 A2985 690 65 200 180/09 RMK AO2
14840KMKG MKG20011123042509511/23/01 04:25:31  5-MIN KMKG 230925Z 18010KT 10SM OVC050 09/03 A2985 690 65 200 180/10 RMK AO2
14840KMKG MKG20011123043009511/23/01 04:30:31  5-MIN KMKG 230930Z 18011KT 10SM OVC050 10/03 A2985 690 63 300 190/11 RMK AO2
14840KMKG MKG20011123043509511/23/01 04:35:31  5-MIN KMKG 230935Z 18011KT 10SM OVC050 09/03 A2985 690 65 200 180/11 RMK AO2
14840KMKG MKG20011123044009511/23/01 04:40:31  5-MIN KMKG 230940Z 18009KT 10SM OVC050 09/03 A2986 690 65 200 180/09 RMK AO2
14840KMKG MKG20011123044509511/23/01 04:45:31  5-MIN KMKG 230945Z 18010KT 10SM OVC050 09/04 A2986 690 68 200 180/10 RMK AO2
14840KMKG MKG20011123045011211/23/01 04:50:31  5-MIN KMKG 230950Z 18010KT 10SM OVC050 09/04 A2986 690 68 200 180/10 RMK AO2 SLP113 T00940039
14840KMKG MKG20011123045511211/23/01 04:55:31  5-MIN KMKG 230955Z 18010KT 10SM OVC050 09/04 A2986 690 68 200 180/10 RMK AO2 SLP113 T00940039
14840KMKG MKG20011123050009511/23/01 05:00:31  5-MIN KMKG 231000Z 18010KT 10SM OVC050 09/04 A2986 690 68 200 180/10 RMK AO2
14840KMKG MKG20011123050509511/23/01 05:05:31  5-MIN KMKG 231005Z 18009KT 10SM OVC050 09/04 A2986 690 68 200 180/09 RMK AO2
14840KMKG MKG20011123051009511/23/01 05:10:31  5-MIN KMKG 231010Z 18010KT 10SM OVC050 09/04 A2986 690 68 200 180/10 RMK AO2
14840KMKG MKG20011123051509511/23/01 05:15:31  5-MIN KMKG 231015Z 17009KT 10SM OVC050 09/04 A2986 690 68 200 170/09 RMK AO2
14840KMKG MKG20011123052010211/23/01 05:20:31  5-MIN KMKG 231020Z 17009KT 10SM BKN050 OVC085 09/04 A2986 690 68 200 170/09 RMK AO2
14840KMKG MKG20011123052510211/23/01 05:25:31  5-MIN KMKG 231025Z 17009KT 10SM BKN050 OVC085 09/04 A2986 690 68 200 180/09 RMK AO2
14840KMKG MKG20011123053010211/23/01 05:30:31  5-MIN KMKG 231030Z 17011KT 10SM SCT050 OVC085 09/04 A2986 690 68 200 170/11 RMK AO2
14840KMKG MKG20011123053510211/23/01 05:35:31  5-MIN KMKG 231035Z 16011KT 10SM SCT050 OVC085 09/04 A2986 690 68 200 170/11 RMK AO2
14840KMKG MKG20011123054010911/23/01 05:40:31  5-MIN KMKG 231040Z 17008KT 10SM FEW050 SCT060 OVC090 09/04 A2986 690 68 200 170/08 RMK AO2
14840KMKG MKG20011123054510211/23/01 05:45:31  5-MIN KMKG 231045Z 17009KT 10SM SCT055 OVC085 09/04 A2986 690 68 200 170/09 RMK AO2
14840KMKG MKG20011123055011911/23/01 05:50:31  5-MIN KMKG 231050Z 17009KT 10SM BKN050 OVC085 09/04 A2986 690 68 200 170/09 RMK AO2 SLP114 T00940039
14840KMKG MKG20011123055511911/23/01 05:55:31  5-MIN KMKG 231055Z 17008KT 10SM BKN050 OVC090 09/04 A2986 680 68 200 170/08 RMK AO2 SLP115 T00940039
14840KMKG MKG20011123060010911/23/01 06:00:31  5-MIN KMKG 231100Z 16009KT 10SM BKN050 BKN060 OVC090 09/04 A2986 680 68 200 170/09 RMK AO2
14840KMKG MKG20011123060510211/23/01 06:05:31  5-MIN KMKG 231105Z 18008KT 10SM BKN050 OVC060 09/04 A2986 680 68 200 180/08 RMK AO2
14840KMKG MKG20011123061009511/23/01 06:10:31  5-MIN KMKG 231110Z 17008KT 10SM OVC050 09/03 A2987 680 65 200 170/08 RMK AO2
14840KMKG MKG20011123061511111/23/01 06:15:31  5-MIN KMKG 231115Z 17008KT 10SM -RA OVC050 09/04 A2986 680 68 200 170/08 RMK AO2 RAB13 P0000
14840KMKG MKG20011123062011811/23/01 06:20:31  5-MIN KMKG 231120Z 17007KT 10SM -RA BKN050 OVC055 09/04 A2986 680 68 200 170/07 RMK AO2 RAB13 P0000
14840KMKG MKG20011123062511811/23/01 06:25:31  5-MIN KMKG 231125Z 18008KT 10SM -RA BKN048 OVC060 09/04 A2986 680 73 200 180/08 RMK AO2 RAB13 P0000
14840KMKG MKG20011123063011111/23/01 06:30:31  5-MIN KMKG 231130Z 17006KT 10SM -RA OVC048 09/04 A2986 680 73 200 170/06 RMK AO2 RAB13 P0000
14840KMKG MKG20011123063511111/23/01 06:35:31  5-MIN KMKG 231135Z 17009KT 10SM -RA OVC048 09/04 A2987 680 73 200 180/09 RMK AO2 RAB13 P0000
14840KMKG MKG20011123064011111/23/01 06:40:31  5-MIN KMKG 231140Z 15007KT 10SM -RA OVC048 09/04 A2986 690 73 200 150/07 RMK AO2 RAB13 P0000
14840KMKG MKG20011123064511111/23/01 06:45:31  5-MIN KMKG 231145Z 14006KT 10SM -RA OVC050 09/04 A2986 690 73 200 150/06 RMK AO2 RAB13 P0000
14840KMKG MKG20011123065015111/23/01 06:50:31  5-MIN KMKG 231150Z 13006KT 10SM OVC050 08/04 A2986 690 76 100 140/06 RMK AO2 RAB13E47 SLP112 P0000 60000 T00830044 10100 20083 51011
14840KMKG MKG20011123065515611/23/01 06:55:31  5-MIN KMKG 231155Z 12006KT 10SM BKN048 OVC060 08/04 A2986 690 76 0 120/06 RMK AO2 RAB13E47 SLP114 P0000 60000 T00780039 10100 20078 50003
14840KMKG MKG20011123070010711/23/01 07:00:31  5-MIN KMKG 231200Z 12007KT 10SM BKN048 BKN060 OVC095 07/04 A2986 690 79 0 130/07 RMK AO2
14840KMKG MKG20011123070512211/23/01 07:05:31  5-MIN KMKG 231205Z 12006KT 10SM FEW045 BKN055 OVC095 07/03 A2986 690 76 0 120/06 RMK AO2 CIG 048 RWY 14
14840KMKG MKG20011123071010711/23/01 07:10:31  5-MIN KMKG 231210Z 12007KT 10SM SCT048 BKN060 OVC100 07/03 A2986 690 76 0 130/07 RMK AO2
14840KMKG MKG20011123071510711/23/01 07:15:31  5-MIN KMKG 231215Z 12006KT 10SM FEW048 BKN065 OVC100 07/03 A2986 690 73 0 130/06 RMK AO2
14840KMKG MKG20011123072010711/23/01 07:20:31  5-MIN KMKG 231220Z 14007KT 10SM FEW045 BKN065 OVC100 07/03 A2987 680 73 0 140/07 RMK AO2
14840KMKG MKG20011123072510711/23/01 07:25:31  5-MIN KMKG 231225Z 16007KT 10SM BKN065 BKN075 OVC100 07/02 A2988 670 70 0 160/07 RMK AO2
14840KMKG MKG20011123073010011/23/01 07:30:31  5-MIN KMKG 231230Z 15008KT 10SM BKN065 OVC100 07/02 A2988 670 68 0 160/08 RMK AO2
14840KMKG MKG20011123073510011/23/01 07:35:31  5-MIN KMKG 231235Z 15007KT 10SM BKN065 OVC100 07/02 A2988 670 68 0 160/07 RMK AO2
14840KMKG MKG20011123074010011/23/01 07:40:31  5-MIN KMKG 231240Z 15007KT 10SM BKN065 OVC100 07/01 A2988 670 65 0 150/07 RMK AO2
14840KMKG MKG20011123074510011/23/01 07:45:31  5-MIN KMKG 231245Z 15008KT 10SM BKN065 OVC100 07/01 A2988 670 65 0 150/08 RMK AO2
14840KMKG MKG20011123075011711/23/01 07:50:31  5-MIN KMKG 231250Z 14008KT 10SM BKN060 OVC100 08/01 A2987 670 62 0 150/08 RMK AO2 SLP120 T00780011
14840KMKG MKG20011123075511011/23/01 07:55:31  5-MIN KMKG 231255Z 15008KT 10SM OVC060 07/01 A2988 670 65 0 150/08 RMK AO2 SLP121 T00720011
14840KMKG MKG20011123080009311/23/01 08:00:31  5-MIN KMKG 231300Z 16008KT 10SM OVC060 08/01 A2988 670 60 0 160/08 RMK AO2
14840KMKG MKG20011123080509311/23/01 08:05:31  5-MIN KMKG 231305Z 15008KT 10SM OVC060 08/01 A2988 660 60 0 160/08 RMK AO2
14840KMKG MKG20011123081009311/23/01 08:10:31  5-MIN KMKG 231310Z 15008KT 10SM OVC060 07/01 A2989 660 65 0 150/08 RMK AO2
14840KMKG MKG20011123081509311/23/01 08:15:31  5-MIN KMKG 231315Z 15008KT 10SM OVC060 07/01 A2989 660 62 0 150/08 RMK AO2
14840KMKG MKG20011123082009311/23/01 08:20:31  5-MIN KMKG 231320Z 15007KT 10SM BKN060 07/01 A2989 660 62 0 150/07 RMK AO2
14840KMKG MKG20011123082510011/23/01 08:25:31  5-MIN KMKG 231325Z 15007KT 10SM BKN060 BKN100 07/01 A2988 660 62 0 160/07 RMK AO2
14840KMKG MKG20011123083011511/23/01 08:30:31  5-MIN KMKG 231330Z 15008KT 10SM SCT060 BKN100 07/01 A2988 660 62 0 150/08 RMK AO2 CIG 060 RWY 14
14840KMKG MKG20011123083510011/23/01 08:35:31  5-MIN KMKG 231335Z 15008KT 10SM SCT060 BKN100 08/01 A2989 660 60 0 150/08 RMK AO2
14840KMKG MKG20011123084010011/23/01 08:40:31  5-MIN KMKG 231340Z 15008KT 10SM FEW060 BKN100 08/01 A2989 660 60 0 160/08 RMK AO2
14840KMKG MKG20011123084510011/23/01 08:45:31  5-MIN KMKG 231345Z 15008KT 10SM FEW060 OVC100 08/01 A2989 660 60 0 150/08 RMK AO2
14840KMKG MKG20011123085011011/23/01 08:50:31  5-MIN KMKG 231350Z 15008KT 10SM OVC100 08/01 A2989 660 60 0 160/08 RMK AO2 SLP124 T00780006
14840KMKG MKG20011123085511011/23/01 08:55:31  5-MIN KMKG 231355Z 14009KT 10SM OVC100 08/01 A2988 660 60 0 150/09 RMK AO2 SLP123 T00780006
14840KMKG MKG20011123090009511/23/01 09:00:31  5-MIN KMKG 231400Z 14008KT 10SM OVC100 08/01 A2988 660 58 100 150/08 RMK AO2
14840KMKG MKG20011123090509511/23/01 09:05:31  5-MIN KMKG 231405Z 15009KT 10SM OVC100 08/01 A2989 660 58 100 160/09 RMK AO2
14840KMKG MKG20011123091009511/23/01 09:10:31  5-MIN KMKG 231410Z 15008KT 10SM OVC100 08/01 A2988 660 58 100 150/08 RMK AO2
14840KMKG MKG20011123091509511/23/01 09:15:31  5-MIN KMKG 231415Z 16007KT 10SM OVC100 08/01 A2989 660 58 100 170/07 RMK AO2
14840KMKG MKG20011123092009511/23/01 09:20:31  5-MIN KMKG 231420Z 15007KT 10SM OVC100 08/01 A2988 660 58 100 160/07 RMK AO2
14840KMKG MKG20011123092509511/23/01 09:25:31  5-MIN KMKG 231425Z 15008KT 10SM BKN100 08/01 A2988 660 58 100 160/08 RMK AO2
14840KMKG MKG20011123093009511/23/01 09:30:31  5-MIN KMKG 231430Z 16008KT 10SM OVC095 08/01 A2989 660 58 100 160/08 RMK AO2
14840KMKG MKG20011123093510211/23/01 09:35:31  5-MIN KMKG 231435Z 16007KT 10SM FEW075 OVC095 09/01 A2989 660 56 100 160/07 RMK AO2
14840KMKG MKG20011123094010211/23/01 09:40:31  5-MIN KMKG 231440Z 16007KT 10SM FEW075 OVC100 09/01 A2989 660 56 100 170/07 RMK AO2
14840KMKG MKG20011123094510911/23/01 09:45:31  5-MIN KMKG 231445Z 16008KT 10SM FEW075 BKN090 OVC110 09/01 A2989 660 56 100 160/08 RMK AO2
14840KMKG MKG20011123095013211/23/01 09:50:31  5-MIN KMKG 231450Z 17007KT 10SM FEW075 BKN090 OVC110 09/01 A2989 660 56 100 170/07 RMK AO2 SLP124 T00890006 50003
14840KMKG MKG20011123095512511/23/01 09:55:31  5-MIN KMKG 231455Z 15006KT 10SM FEW075 OVC095 09/01 A2989 660 56 200 160/06 RMK AO2 SLP124 T00940011 51011
14840KMKG MKG20011123100010211/23/01 10:00:31  5-MIN KMKG 231500Z 17008KT 10SM FEW075 OVC100 09/01 A2989 660 56 200 170/08 RMK AO2
14840KMKG MKG20011123100509511/23/01 10:05:31  5-MIN KMKG 231505Z 17007KT 10SM OVC095 09/01 A2989 660 56 200 170/07 RMK AO2
14840KMKG MKG20011123101010211/23/01 10:10:31  5-MIN KMKG 231510Z 16006KT 10SM BKN085 OVC100 09/01 A2989 660 56 200 170/06 RMK AO2
14840KMKG MKG20011123101510211/23/01 10:15:31  5-MIN KMKG 231515Z 15010KT 10SM BKN090 BKN100 10/01 A2989 660 54 300 160/10 RMK AO2
14840KMKG MKG20011123102010211/23/01 10:20:31  5-MIN KMKG 231520Z 16011KT 10SM SCT080 BKN100 10/01 A2989 650 54 300 160/11 RMK AO2
14840KMKG MKG20011123102510211/23/01 10:25:31  5-MIN KMKG 231525Z 18011KT 10SM SCT080 OVC100 10/01 A2989 650 54 300 180/11 RMK AO2
14840KMKG MKG20011123103010211/23/01 10:30:31  5-MIN KMKG 231530Z 16010KT 10SM SCT080 BKN100 10/01 A2989 660 54 300 170/10 RMK AO2
14840KMKG MKG20011123103510211/23/01 10:35:31  5-MIN KMKG 231535Z 16009KT 10SM SCT080 BKN100 10/02 A2988 660 56 300 160/09 RMK AO2
14840KMKG MKG20011123104010211/23/01 10:40:31  5-MIN KMKG 231540Z 17009KT 10SM FEW075 BKN100 10/02 A2988 660 56 300 170/09 RMK AO2
14840KMKG MKG20011123104510211/23/01 10:45:31  5-MIN KMKG 231545Z 17008KT 10SM SCT080 BKN100 10/02 A2988 670 56 300 170/08 RMK AO2
14840KMKG MKG20011123105011911/23/01 10:50:31  5-MIN KMKG 231550Z 17009KT 10SM SCT080 BKN100 11/02 A2988 670 54 300 170/09 RMK AO2 SLP121 T01060017
14840KMKG MKG20011123105511911/23/01 10:55:31  5-MIN KMKG 231555Z 16010KT 10SM SCT075 BKN095 11/02 A2988 670 54 300 160/10 RMK AO2 SLP120 T01060017
14840KMKG MKG20011123110010211/23/01 11:00:31  5-MIN KMKG 231600Z 14009KT 10SM SCT075 OVC095 11/02 A2988 670 54 300 140/09 RMK AO2
14840KMKG MKG20011123110510211/23/01 11:05:31  5-MIN KMKG 231605Z 15009KT 10SM SCT075 BKN095 11/02 A2987 670 54 300 150/09 RMK AO2
14840KMKG MKG20011123111011811/23/01 11:10:31  5-MIN KMKG 231610Z 16007KT 10SM -RA FEW065 BKN090 11/02 A2988 670 54 300 160/07 RMK AO2 RAB08 P0000
14840KMKG MKG20011123111511811/23/01 11:15:31  5-MIN KMKG 231615Z 17010KT 10SM -RA FEW050 BKN090 11/02 A2989 660 56 300 170/10 RMK AO2 RAB08 P0000
14840KMKG MKG20011123112011711/23/01 11:20:31  5-MIN KMKG 231620Z 16009KT 10SM FEW065 BKN095 11/02 A2988 660 54 400 160/09 RMK AO2 RAB08E18 P0000
14840KMKG MKG20011123112511711/23/01 11:25:31  5-MIN KMKG 231625Z 16007KT 10SM SCT080 BKN095 11/02 A2988 670 54 400 160/07 RMK AO2 RAB08E18 P0000
14840KMKG MKG20011123113011711/23/01 11:30:31  5-MIN KMKG 231630Z 14008KT 10SM SCT080 BKN100 11/02 A2988 660 54 400 150/08 RMK AO2 RAB08E18 P0000
14840KMKG MKG20011123113511011/23/01 11:35:31  5-MIN KMKG 231635Z 15010KT 10SM BKN095 11/02 A2988 670 54 400 150/10 RMK AO2 RAB08E18 P0000
14840KMKG MKG20011123114011711/23/01 11:40:31  5-MIN KMKG 231640Z 15010KT 10SM FEW080 OVC100 11/02 A2988 670 54 400 160/10 RMK AO2 RAB08E18 P0000
14840KMKG MKG20011123114511711/23/01 11:45:31  5-MIN KMKG 231645Z 13011KT 10SM FEW080 OVC100 11/02 A2987 670 54 400 130/11 RMK AO2 RAB08E18 P0000
14840KMKG MKG20011123115013411/23/01 11:50:31  5-MIN KMKG 231650Z 14009KT 10SM FEW080 OVC100 11/02 A2988 670 54 400 150/09 RMK AO2 RAB08E18 SLP120 P0000 T01110022
14840KMKG MKG20011123115512711/23/01 11:55:31  5-MIN KMKG 231655Z 16010KT 10SM OVC100 11/02 A2988 670 54 400 160/10 RMK AO2 RAB08E18 SLP119 P0000 T01110022
14840KMKG MKG20011123120009511/23/01 12:00:31  5-MIN KMKG 231700Z 15008KT 10SM OVC100 11/02 A2988 670 54 400 160/08 RMK AO2
14840KMKG MKG20011123120509511/23/01 12:05:31  5-MIN KMKG 231705Z 15010KT 10SM OVC100 12/02 A2987 670 52 500 150/10 RMK AO2
14840KMKG MKG20011123121009511/23/01 12:10:31  5-MIN KMKG 231710Z 15009KT 10SM OVC100 12/02 A2987 680 52 500 150/09 RMK AO2
14840KMKG MKG20011123121509511/23/01 12:15:31  5-MIN KMKG 231715Z 13009KT 10SM OVC100 12/03 A2986 690 52 600 130/09 RMK AO2
14840KMKG MKG20011123122009511/23/01 12:20:31  5-MIN KMKG 231720Z 15010KT 10SM BKN100 12/03 A2986 690 52 600 150/10 RMK AO2
14840KMKG MKG20011123122509511/23/01 12:25:31  5-MIN KMKG 231725Z 14010KT 10SM BKN100 12/03 A2986 690 52 600 150/10 RMK AO2
14840KMKG MKG20011123123009511/23/01 12:30:31  5-MIN KMKG 231730Z 14009KT 10SM SCT100 13/03 A2985 690 50 600 140/09 RMK AO2
14840KMKG MKG20011123123511111/23/01 12:35:31  5-MIN KMKG 231735Z 14008KT 110V180 10SM FEW100 12/03 A2986 690 52 600 150/08 110V180 RMK AO2
14840KMKG MKG20011123124009511/23/01 12:40:31  5-MIN KMKG 231740Z 17008KT 10SM FEW100 12/03 A2986 680 52 600 170/08 RMK AO2
14840KMKG MKG20011123124509211/23/01 12:45:31  5-MIN KMKG 231745Z 15009KT 10SM CLR 13/03 A2986 680 50 600 160/09 RMK AO2
14840KMKG MKG20011123125013311/23/01 12:50:31  5-MIN KMKG 231750Z 15008KT 10SM CLR 13/03 A2986 690 50 700 150/08 RMK AO2 SLP113 60000 T01330033 10133 20072 51011
14840KMKG MKG20011123125513311/23/01 12:55:31  5-MIN KMKG 231755Z 15006KT 10SM CLR 13/03 A2986 690 50 700 160/06 RMK AO2 SLP113 60000 T01330033 10133 20072 58010
14840KMKG MKG20011123130009211/23/01 13:00:31  5-MIN KMKG 231800Z 15007KT 10SM CLR 14/03 A2986 680 48 800 150/07 RMK AO2
14840KMKG MKG20011123130509211/23/01 13:05:31  5-MIN KMKG 231805Z 14009KT 10SM CLR 14/03 A2986 690 48 800 140/09 RMK AO2
14840KMKG MKG20011123131009211/23/01 13:10:31  5-MIN KMKG 231810Z 15011KT 10SM CLR 13/03 A2986 690 48 700 150/11 RMK AO2
14840KMKG MKG20011123131509211/23/01 13:15:31  5-MIN KMKG 231815Z 15007KT 10SM CLR 13/03 A2985 690 50 700 150/07 RMK AO2
14840KMKG MKG20011123132009211/23/01 13:20:31  5-MIN KMKG 231820Z 14008KT 10SM CLR 14/03 A2985 700 48 800 140/08 RMK AO2
14840KMKG MKG20011123132509211/23/01 13:25:31  5-MIN KMKG 231825Z 15008KT 10SM CLR 14/04 A2985 690 49 800 150/08 RMK AO2
14840KMKG MKG20011123133009211/23/01 13:30:31  5-MIN KMKG 231830Z 15009KT 10SM CLR 14/04 A2985 690 50 800 150/09 RMK AO2
14840KMKG MKG20011123133509211/23/01 13:35:31  5-MIN KMKG 231835Z 16009KT 10SM CLR 14/04 A2985 700 49 800 170/09 RMK AO2
14840KMKG MKG20011123134009211/23/01 13:40:31  5-MIN KMKG 231840Z 17009KT 10SM CLR 14/03 A2985 700 47 800 170/09 RMK AO2
14840KMKG MKG20011123134509211/23/01 13:45:31  5-MIN KMKG 231845Z 14010KT 10SM CLR 14/04 A2985 700 49 800 150/10 RMK AO2
14840KMKG MKG20011123135010911/23/01 13:50:31  5-MIN KMKG 231850Z 16009KT 10SM CLR 14/03 A2985 700 47 800 170/09 RMK AO2 SLP108 T01440033
14840KMKG MKG20011123135511211/23/01 13:55:31  5-MIN KMKG 231855Z 16009KT 10SM FEW100 14/03 A2984 700 47 800 170/09 RMK AO2 SLP107 T01440033
14840KMKG MKG20011123140009511/23/01 14:00:31  5-MIN KMKG 231900Z 16011KT 10SM FEW100 14/03 A2984 700 47 800 160/11 RMK AO2
14840KMKG MKG20011123140509511/23/01 14:05:31  5-MIN KMKG 231905Z 14010KT 10SM SCT100 14/03 A2984 710 47 800 150/10 RMK AO2
14840KMKG MKG20011123141009511/23/01 14:10:31  5-MIN KMKG 231910Z 14008KT 10SM BKN100 14/03 A2984 700 47 800 150/08 RMK AO2
14840KMKG MKG20011123141509511/23/01 14:15:31  5-MIN KMKG 231915Z 14010KT 10SM BKN095 14/04 A2984 700 50 800 140/10 RMK AO2
14840KMKG MKG20011123142009511/23/01 14:20:31  5-MIN KMKG 231920Z 13009KT 10SM BKN095 14/04 A2984 700 50 800 140/09 RMK AO2
14840KMKG MKG20011123142509511/23/01 14:25:31  5-MIN KMKG 231925Z 14009KT 10SM OVC095 14/04 A2984 700 50 800 140/09 RMK AO2
14840KMKG MKG20011123143009511/23/01 14:30:31  5-MIN KMKG 231930Z 13009KT 10SM BKN095 14/04 A2984 700 49 800 130/09 RMK AO2
14840KMKG MKG20011123143509511/23/01 14:35:31  5-MIN KMKG 231935Z 14010KT 10SM BKN095 14/04 A2984 710 49 800 140/10 RMK AO2
14840KMKG MKG20011123144009511/23/01 14:40:31  5-MIN KMKG 231940Z 13011KT 10SM BKN095 14/04 A2983 710 50 800 130/11 RMK AO2
14840KMKG MKG20011123144509511/23/01 14:45:31  5-MIN KMKG 231945Z 13012KT 10SM SCT100 14/04 A2983 710 50 800 130/12 RMK AO2
14840KMKG MKG20011123145011211/23/01 14:50:31  5-MIN KMKG 231950Z 13009KT 10SM SCT100 14/04 A2983 710 50 800 140/09 RMK AO2 SLP104 T01390039
14840KMKG MKG20011123145511211/23/01 14:55:31  5-MIN KMKG 231955Z 15011KT 10SM FEW100 14/04 A2984 710 49 800 150/11 RMK AO2 SLP105 T01440039
14840KMKG MKG20011123150009511/23/01 15:00:31  5-MIN KMKG 232000Z 15009KT 10SM SCT100 14/04 A2984 710 49 800 150/09 RMK AO2
14840KMKG MKG20011123150510211/23/01 15:05:31  5-MIN KMKG 232005Z 14009KT 10SM FEW060 SCT100 14/04 A2984 700 49 800 150/09 RMK AO2
14840KMKG MKG20011123151010911/23/01 15:10:31  5-MIN KMKG 232010Z 15009KT 10SM FEW041 SCT060 BKN100 14/04 A2984 710 49 800 150/09 RMK AO2
14840KMKG MKG20011123151510911/23/01 15:15:31  5-MIN KMKG 232015Z 15009KT 10SM SCT039 BKN060 BKN100 14/04 A2984 700 49 800 160/09 RMK AO2
14840KMKG MKG20011123152010911/23/01 15:20:31  5-MIN KMKG 232020Z 15009KT 10SM BKN039 BKN060 BKN100 14/04 A2984 710 49 800 150/09 RMK AO2
14840KMKG MKG20011123152510911/23/01 15:25:31  5-MIN KMKG 232025Z 15009KT 10SM BKN039 BKN060 OVC100 14/04 A2984 700 51 800 150/09 RMK AO2
14840KMKG MKG20011123153010211/23/01 15:30:31  5-MIN KMKG 232030Z 15009KT 10SM BKN039 BKN060 14/04 A2984 710 51 800 150/09 RMK AO2
14840KMKG MKG20011123153510211/23/01 15:35:31  5-MIN KMKG 232035Z 15009KT 10SM BKN039 BKN060 14/04 A2984 700 51 800 150/09 RMK AO2
14840KMKG MKG20011123154009511/23/01 15:40:31  5-MIN KMKG 232040Z 16007KT 10SM BKN039 14/04 A2984 700 51 800 160/07 RMK AO2
14840KMKG MKG20011123154509511/23/01 15:45:31  5-MIN KMKG 232045Z 15008KT 10SM SCT039 14/04 A2984 700 51 800 160/08 RMK AO2
14840KMKG MKG20011123155011811/23/01 15:50:31  5-MIN KMKG 232050Z 13010KT 10SM FEW039 14/04 A2983 710 51 800 140/10 RMK AO2 SLP104 T01440044 58010
14840KMKG MKG20011123155511811/23/01 15:55:31  5-MIN KMKG 232055Z 13012KT 10SM FEW039 14/04 A2983 710 51 900 140/12 RMK AO2 SLP104 T01440044 56009
14840KMKG MKG20011123160009211/23/01 16:00:31  5-MIN KMKG 232100Z 13010KT 10SM CLR 14/04 A2984 710 51 800 130/10 RMK AO2
14840KMKG MKG20011123160509211/23/01 16:05:31  5-MIN KMKG 232105Z 13011KT 10SM CLR 14/04 A2984 700 49 800 140/11 RMK AO2
14840KMKG MKG20011123161009211/23/01 16:10:31  5-MIN KMKG 232110Z 14009KT 10SM CLR 14/04 A2984 700 49 800 140/09 RMK AO2
14840KMKG MKG20011123161509211/23/01 16:15:31  5-MIN KMKG 232115Z 14008KT 10SM CLR 14/04 A2984 700 49 800 140/08 RMK AO2
14840KMKG MKG20011123162009211/23/01 16:20:31  5-MIN KMKG 232120Z 13011KT 10SM CLR 14/04 A2984 700 50 800 140/11 RMK AO2
14840KMKG MKG20011123162509211/23/01 16:25:31  5-MIN KMKG 232125Z 13010KT 10SM CLR 14/04 A2985 700 50 800 140/10 RMK AO2
14840KMKG MKG20011123163009511/23/01 16:30:31  5-MIN KMKG 232130Z 13009KT 10SM FEW050 14/04 A2984 700 50 800 140/09 RMK AO2
14840KMKG MKG20011123163509511/23/01 16:35:31  5-MIN KMKG 232135Z 12008KT 10SM SCT050 14/04 A2984 700 50 800 130/08 RMK AO2
14840KMKG MKG20011123164009511/23/01 16:40:31  5-MIN KMKG 232140Z 13009KT 10SM SCT050 14/04 A2984 700 52 800 130/09 RMK AO2
14840KMKG MKG20011123164510211/23/01 16:45:31  5-MIN KMKG 232145Z 12009KT 10SM FEW050 SCT110 13/04 A2984 700 54 700 120/09 RMK AO2
14840KMKG MKG20011123165011911/23/01 16:50:31  5-MIN KMKG 232150Z 11008KT 10SM FEW050 SCT110 13/04 A2984 700 54 700 120/08 RMK AO2 SLP107 T01330044
14840KMKG MKG20011123165511211/23/01 16:55:31  5-MIN KMKG 232155Z 12009KT 10SM FEW050 13/04 A2984 700 56 600 120/09 RMK AO2 SLP107 T01280044
14840KMKG MKG20011123170009511/23/01 17:00:31  5-MIN KMKG 232200Z 11008KT 10SM FEW050 13/04 A2984 700 56 600 120/08 RMK AO2
14840KMKG MKG20011123170509511/23/01 17:05:31  5-MIN KMKG 232205Z 12008KT 10SM FEW100 12/04 A2985 700 59 600 120/08 RMK AO2
14840KMKG MKG20011123171009511/23/01 17:10:31  5-MIN KMKG 232210Z 13008KT 10SM SCT100 12/04 A2985 700 59 600 130/08 RMK AO2
14840KMKG MKG20011123171509511/23/01 17:15:31  5-MIN KMKG 232215Z 12008KT 10SM BKN100 12/04 A2985 700 59 600 120/08 RMK AO2
14840KMKG MKG20011123172009511/23/01 17:20:31  5-MIN KMKG 232220Z 12008KT 10SM BKN100 12/04 A2985 700 59 600 130/08 RMK AO2
14840KMKG MKG20011123172509511/23/01 17:25:31  5-MIN KMKG 232225Z 13008KT 10SM BKN100 13/04 A2985 700 56 600 130/08 RMK AO2
14840KMKG MKG20011123173009511/23/01 17:30:31  5-MIN KMKG 232230Z 12008KT 10SM BKN100 13/04 A2985 700 56 600 130/08 RMK AO2
14840KMKG MKG20011123173511111/23/01 17:35:31  5-MIN KMKG 232235Z 12008KT 10SM -RA OVC095 13/04 A2985 700 56 600 130/08 RMK AO2 RAB33 P0000
14840KMKG MKG20011123174011811/23/01 17:40:31  5-MIN KMKG 232240Z 12010KT 10SM -RA BKN090 OVC110 13/05 A2985 690 59 600 130/10 RMK AO2 RAB33 P0000
14840KMKG MKG20011123174511811/23/01 17:45:31  5-MIN KMKG 232245Z 13008KT 10SM -RA BKN090 OVC110 13/06 A2986 690 61 600 130/08 RMK AO2 RAB33 P0000
14840KMKG MKG20011123175012811/23/01 17:50:31  5-MIN KMKG 232250Z 13009KT 10SM -RA OVC090 13/06 A2986 690 61 600 130/09 RMK AO2 RAB33 SLP112 P0000 T01280056
14840KMKG MKG20011123175512811/23/01 17:55:31  5-MIN KMKG 232255Z 13009KT 10SM -RA OVC090 12/06 A2986 690 63 600 130/09 RMK AO2 RAB33 SLP111 P0000 T01220056
14840KMKG MKG20011123180010911/23/01 18:00:31  5-MIN KMKG 232300Z 13011KT 10SM OVC085 13/05 A2985 690 59 600 130/11 RMK AO2 RAE2258 P0000
14840KMKG MKG20011123180511611/23/01 18:05:31  5-MIN KMKG 232305Z 13010KT 10SM BKN080 OVC095 13/05 A2985 690 59 600 130/10 RMK AO2 RAE2258 P0000
14840KMKG MKG20011123181010911/23/01 18:10:31  5-MIN KMKG 232310Z 13010KT 10SM OVC085 13/04 A2986 690 56 600 140/10 RMK AO2 RAE2258 P0000
14840KMKG MKG20011123181510911/23/01 18:15:31  5-MIN KMKG 232315Z 13010KT 10SM OVC085 13/04 A2986 690 54 700 140/10 RMK AO2 RAE2258 P0000
14840KMKG MKG20011123182010911/23/01 18:20:31  5-MIN KMKG 232320Z 13009KT 10SM OVC080 13/04 A2985 690 54 700 130/09 RMK AO2 RAE2258 P0000
14840KMKG MKG20011123182510911/23/01 18:25:31  5-MIN KMKG 232325Z 13010KT 10SM OVC080 13/04 A2985 690 54 700 130/10 RMK AO2 RAE2258 P0000
14840KMKG MKG20011123183011611/23/01 18:30:31  5-MIN KMKG 232330Z 13009KT 10SM BKN080 OVC120 13/04 A2986 690 54 700 130/09 RMK AO2 RAE2258 P0000
14840KMKG MKG20011123183511611/23/01 18:35:31  5-MIN KMKG 232335Z 13010KT 10SM BKN080 OVC120 13/04 A2986 690 56 600 130/10 RMK AO2 RAE2258 P0000
14840KMKG MKG20011123184011611/23/01 18:40:31  5-MIN KMKG 232340Z 12011KT 10SM BKN080 OVC120 13/04 A2985 700 54 700 130/11 RMK AO2 RAE2258 P0000
14840KMKG MKG20011123184511611/23/01 18:45:31  5-MIN KMKG 232345Z 13012KT 10SM BKN080 BKN120 13/04 A2985 690 56 600 130/12 RMK AO2 RAE2258 P0000
14840KMKG MKG20011123185015711/23/01 18:50:31  5-MIN KMKG 232350Z 13011KT 10SM BKN080 BKN120 13/04 A2985 690 52 700 140/11 RMK AO2 RAE2258 SLP110 P0000 60000 T01330039 10144 20122 56009
14840KMKG MKG20011123185515711/23/01 18:55:31  5-MIN KMKG 232355Z 13012KT 10SM BKN075 BKN110 13/04 A2985 690 52 700 130/12 RMK AO2 RAE2258 SLP111 P0000 60000 T01330039 10144 20122 50006
14840KMKG MKG20011123190010211/23/01 19:00:31  5-MIN KMKG 240000Z 13011KT 10SM SCT075 BKN110 13/04 A2985 690 54 600 140/11 RMK AO2
14840KMKG MKG20011123190510211/23/01 19:05:31  5-MIN KMKG 240005Z 13010KT 10SM SCT070 BKN110 13/04 A2986 690 52 700 140/10 RMK AO2
14840KMKG MKG20011123191011811/23/01 19:10:31  5-MIN KMKG 240010Z 13011KT 10SM -RA BKN070 OVC100 13/04 A2985 690 56 600 140/11 RMK AO2 RAB07 P0000
14840KMKG MKG20011123191511811/23/01 19:15:31  5-MIN KMKG 240015Z 13012KT 10SM -RA BKN070 OVC100 13/04 A2985 690 56 600 130/12 RMK AO2 RAB07 P0000
14840KMKG MKG20011123192012511/23/01 19:20:31  5-MIN KMKG 240020Z 14009KT 10SM -RA BKN070 BKN090 OVC110 13/04 A2986 690 56 600 140/09 RMK AO2 RAB07 P0000
14840KMKG MKG20011123192512511/23/01 19:25:31  5-MIN KMKG 240025Z 14011KT 10SM -RA FEW055 SCT070 OVC090 12/05 A2986 680 61 600 140/11 RMK AO2 RAB07 P0000
14840KMKG MKG20011123193014011/23/01 19:30:31  5-MIN KMKG 240030Z 14010KT 10SM -RA FEW055 SCT070 OVC085 13/05 A2986 680 59 600 140/10 RMK AO2 RAB07 CIG 070 RWY 14 P0000
14840KMKG MKG20011123193514011/23/01 19:35:31  5-MIN KMKG 240035Z 13010KT 10SM -RA SCT050 SCT065 OVC085 12/06 A2986 680 63 600 140/10 RMK AO2 RAB07 CIG 070 RWY 14 P0000
14840KMKG MKG20011123194012511/23/01 19:40:31  5-MIN KMKG 240040Z 14009KT 10SM -RA BKN050 BKN065 OVC080 12/06 A2987 680 63 500 140/09 RMK AO2 RAB07 P0000
14840KMKG MKG20011123194512511/23/01 19:45:31  5-MIN KMKG 240045Z 13012KT 10SM -RA BKN050 BKN065 OVC080 12/06 A2986 680 63 600 130/12 RMK AO2 RAB07 P0000
14840KMKG MKG20011123195015611/23/01 19:50:31  5-MIN KMKG 240050Z 13013KT 7SM -RA FEW030 BKN060 OVC080 11/07 A2986 680 74 400 130/13 RMK AO2 RAB07 CIG 047 RWY 14 SLP115 P0001 T01110067
14840KMKG MKG20011123195514011/23/01 19:55:31  5-MIN KMKG 240055Z 12013KT 5SM RA FEW036 BKN049 OVC085 11/07 A2985 690 80 400 120/13 RMK AO2 RAB07 SLP111 P0003 T01060072
14840KMKG MKG20011123200012111/23/01 20:00:31  5-MIN KMKG 240100Z 12010KT 5SM -RA BR SCT036 BKN047 OVC080 10/08 A2986 690 86 300 130/10 RMK AO2 P0000
14840KMKG MKG20011123200512111/23/01 20:05:31  5-MIN KMKG 240105Z 11008KT 6SM -RA BR FEW036 BKN050 OVC080 10/08 A2985 690 86 300 120/08 RMK AO2 P0000
14840KMKG MKG20011123201011811/23/01 20:10:31  5-MIN KMKG 240110Z 11009KT 8SM -RA FEW036 BKN060 OVC080 10/08 A2985 690 86 300 110/09 RMK AO2 P0000
14840KMKG MKG20011123201512111/23/01 20:15:31  5-MIN KMKG 240115Z 11009KT 10SM FEW036 BKN060 OVC075 10/08 A2985 690 86 300 120/09 RMK AO2 RAE14 P0000
14840KMKG MKG20011123202012111/23/01 20:20:31  5-MIN KMKG 240120Z 11009KT 10SM FEW041 BKN060 OVC075 10/08 A2985 690 86 300 110/09 RMK AO2 RAE14 P0000
14840KMKG MKG20011123202512111/23/01 20:25:31  5-MIN KMKG 240125Z 12008KT 10SM SCT060 BKN080 OVC095 10/08 A2985 690 86 300 120/08 RMK AO2 RAE14 P0000
14840KMKG MKG20011123203012111/23/01 20:30:31  5-MIN KMKG 240130Z 11009KT 10SM FEW050 BKN080 OVC090 10/08 A2985 690 86 300 120/09 RMK AO2 RAE14 P0000
14840KMKG MKG20011123203512111/23/01 20:35:31  5-MIN KMKG 240135Z 11009KT 10SM FEW050 BKN080 OVC090 10/08 A2985 700 86 300 110/09 RMK AO2 RAE14 P0000
14840KMKG MKG20011123204012111/23/01 20:40:31  5-MIN KMKG 240140Z 11010KT 10SM FEW060 BKN080 BKN090 10/07 A2985 700 83 300 120/10 RMK AO2 RAE14 P0000
14840KMKG MKG20011123204512111/23/01 20:45:31  5-MIN KMKG 240145Z 11010KT 10SM FEW060 SCT080 BKN095 10/07 A2985 700 83 300 120/10 RMK AO2 RAE14 P0000
14840KMKG MKG20011123205013111/23/01 20:50:31  5-MIN KMKG 240150Z 12009KT 10SM FEW065 BKN090 10/07 A2984 700 83 300 120/09 RMK AO2 RAE14 SLP108 P0000 T01000072
14840KMKG MKG20011123205513111/23/01 20:55:31  5-MIN KMKG 240155Z 11009KT 10SM FEW060 SCT090 10/07 A2984 700 80 300 110/09 RMK AO2 RAE14 SLP108 P0000 T01000067
14840KMKG MKG20011123210010211/23/01 21:00:31  5-MIN KMKG 240200Z 12009KT 10SM FEW060 SCT120 11/07 A2984 700 77 400 120/09 RMK AO2
14840KMKG MKG20011123210510211/23/01 21:05:31  5-MIN KMKG 240205Z 12009KT 10SM FEW095 BKN120 11/07 A2984 710 77 400 120/09 RMK AO2
14840KMKG MKG20011123211010211/23/01 21:10:31  5-MIN KMKG 240210Z 12013KT 10SM FEW095 BKN120 11/07 A2984 710 74 500 130/13 RMK AO2
14840KMKG MKG20011123211510211/23/01 21:15:31  5-MIN KMKG 240215Z 12011KT 10SM FEW060 BKN120 11/07 A2983 710 74 500 130/11 RMK AO2
14840KMKG MKG20011123212010211/23/01 21:20:31  5-MIN KMKG 240220Z 12012KT 10SM SCT060 BKN120 11/06 A2983 710 71 500 130/12 RMK AO2
14840KMKG MKG20011123212511811/23/01 21:25:31  5-MIN KMKG 240225Z 13010KT 10SM -RA SCT060 OVC120 12/06 A2984 710 68 500 130/10 RMK AO2 RAB24 P0000
14840KMKG MKG20011123213012511/23/01 21:30:31  5-MIN KMKG 240230Z 13011KT 10SM -RA BKN060 BKN085 OVC120 12/06 A2984 710 68 500 130/11 RMK AO2 RAB24 P0000
14840KMKG MKG20011123213512411/23/01 21:35:31  5-MIN KMKG 240235Z 13010KT 10SM BKN060 BKN090 OVC120 12/06 A2983 710 68 500 130/10 RMK AO2 RAB24E34 P0000
14840KMKG MKG20011123214011711/23/01 21:40:31  5-MIN KMKG 240240Z 13012KT 10SM BKN065 OVC110 12/06 A2983 710 66 600 130/12 RMK AO2 RAB24E34 P0000
14840KMKG MKG20011123214511711/23/01 21:45:31  5-MIN KMKG 240245Z 13011KT 10SM BKN065 OVC110 12/06 A2983 710 63 600 130/11 RMK AO2 RAB24E34 P0000
14840KMKG MKG20011123215013911/23/01 21:50:31  5-MIN KMKG 240250Z 13012KT 10SM OVC070 12/06 A2983 710 66 600 130/12 RMK AO2 RAB24E34 SLP103 P0000 60003 T01220061 50006
14840KMKG MKG20011123215514511/23/01 21:55:31  5-MIN KMKG 240255Z 12014G20KT 10SM OVC070 12/06 A2983 720 66 600 130/14G20 RMK AO2 RAB24E34 SLP101 P0000 60003 T01220061 58009
14840KMKG MKG20011123220010811/23/01 22:00:31  5-MIN KMKG 240300Z 13014G20KT 10SM BKN070 OVC085 12/06 A2983 720 63 600 140/14G20 RMK AO2
14840KMKG MKG20011123220510811/23/01 22:05:31  5-MIN KMKG 240305Z 14012G19KT 10SM BKN070 OVC085 12/06 A2983 720 63 600 140/12G19 RMK AO2
14840KMKG MKG20011123221010911/23/01 22:10:31  5-MIN KMKG 240310Z 13014KT 10SM SCT050 BKN070 OVC080 13/06 A2982 720 61 700 140/14 RMK AO2
14840KMKG MKG20011123221510811/23/01 22:15:31  5-MIN KMKG 240315Z 13015G20KT 10SM SCT050 OVC070 13/06 A2982 720 61 700 130/15G20 RMK AO2
14840KMKG MKG20011123222010811/23/01 22:20:31  5-MIN KMKG 240320Z 13013G20KT 10SM SCT050 OVC070 13/06 A2982 720 61 700 140/13G20 RMK AO2
14840KMKG MKG20011123222511711/23/01 22:25:31  5-MIN KMKG 240325Z 13012KT 9SM -RA FEW050 OVC075 12/06 A2982 720 63 600 130/12 RMK AO2 RAB21 P0001
14840KMKG MKG20011123223012411/23/01 22:30:31  5-MIN KMKG 240330Z 13014G20KT 10SM -RA FEW050 OVC075 12/06 A2982 730 63 600 140/14G20 RMK AO2 RAB21 P0001
14840KMKG MKG20011123223512311/23/01 22:35:31  5-MIN KMKG 240335Z 13013G20KT 10SM SCT055 OVC075 12/06 A2982 720 63 600 140/13G20 RMK AO2 RAB21E35 P0001
14840KMKG MKG20011123224012311/23/01 22:40:31  5-MIN KMKG 240340Z 13015G20KT 10SM FEW050 BKN075 12/06 A2982 730 63 600 140/15G20 RMK AO2 RAB21E35 P0001
14840KMKG MKG20011123224511611/23/01 22:45:31  5-MIN KMKG 240345Z 13014G20KT 10SM BKN070 13/06 A2982 720 61 700 140/14G20 RMK AO2 RAB21E35 P0001
14840KMKG MKG20011123225012711/23/01 22:50:31  5-MIN KMKG 240350Z 13016KT 10SM SCT070 13/05 A2981 730 59 700 140/16 RMK AO2 RAB21E35 SLP097 P0001 T01280050
14840KMKG MKG20011123225512711/23/01 22:55:31  5-MIN KMKG 240355Z 13013KT 10SM SCT070 13/05 A2981 730 59 700 140/13 RMK AO2 RAB21E35 SLP097 P0001 T01280050
14840KMKG MKG20011123230009511/23/01 23:00:31  5-MIN KMKG 240400Z 13015KT 10SM FEW065 12/05 A2982 730 61 600 130/15 RMK AO2
14840KMKG MKG20011123230509511/23/01 23:05:31  5-MIN KMKG 240405Z 13012KT 10SM FEW060 12/05 A2982 730 61 600 140/12 RMK AO2
14840KMKG MKG20011123231009511/23/01 23:10:31  5-MIN KMKG 240410Z 14013KT 10SM SCT055 12/05 A2982 730 61 600 140/13 RMK AO2
14840KMKG MKG20011123231510211/23/01 23:15:31  5-MIN KMKG 240415Z 13013KT 10SM FEW045 BKN055 13/05 A2982 730 59 700 130/13 RMK AO2
14840KMKG MKG20011123232009511/23/01 23:20:31  5-MIN KMKG 240420Z 13013KT 10SM BKN050 13/05 A2981 730 59 700 130/13 RMK AO2
14840KMKG MKG20011123232510211/23/01 23:25:31  5-MIN KMKG 240425Z 13011KT 10SM FEW045 BKN055 13/05 A2981 730 59 700 140/11 RMK AO2
14840KMKG MKG20011123233010911/23/01 23:30:31  5-MIN KMKG 240430Z 13011KT 10SM FEW045 BKN055 OVC120 13/05 A2981 730 59 700 140/11 RMK AO2
14840KMKG MKG20011123233510911/23/01 23:35:31  5-MIN KMKG 240435Z 14010KT 10SM FEW045 BKN055 OVC120 13/05 A2981 730 59 700 140/10 RMK AO2
14840KMKG MKG20011123234010911/23/01 23:40:31  5-MIN KMKG 240440Z 13012KT 10SM FEW045 BKN055 OVC120 13/05 A2981 730 59 700 130/12 RMK AO2
14840KMKG MKG20011123234510211/23/01 23:45:31  5-MIN KMKG 240445Z 14012KT 10SM BKN060 BKN120 13/05 A2982 720 59 700 140/12 RMK AO2
14840KMKG MKG20011123235012911/23/01 23:50:31  5-MIN KMKG 240450Z 14011KT 10SM BKN060 BKN120 13/05 A2982 730 59 700 140/11 RMK AO2 SLP099 T01280050 401440072
14840KMKG MKG20011123235513611/23/01 23:55:31  5-MIN KMKG 240455Z 14011KT 10SM BKN060 BKN075 OVC120 13/05 A2982 720 59 700 140/11 RMK AO2 SLP099 T01280050 401440072
14840KMKG MKG20011124000010911/24/01 00:00:31  5-MIN KMKG 240500Z 14010KT 10SM BKN060 BKN080 BKN120 13/06 A2982 720 61 700 140/10 RMK AO2
14840KMKG MKG20011124000510211/24/01 00:05:31  5-MIN KMKG 240505Z 14012KT 10SM SCT060 OVC075 13/05 A2982 730 57 700 140/12 RMK AO2
14840KMKG MKG20011124001010211/24/01 00:10:31  5-MIN KMKG 240510Z 13010KT 10SM SCT060 OVC075 13/06 A2981 730 61 700 140/10 RMK AO2
14840KMKG MKG20011124001509511/24/01 00:15:31  5-MIN KMKG 240515Z 14011KT 10SM OVC070 13/05 A2981 730 57 700 140/11 RMK AO2
14840KMKG MKG20011124002010111/24/01 00:20:31  5-MIN KMKG 240520Z 13011G19KT 10SM OVC070 13/05 A2981 730 57 700 140/11G19 RMK AO2
14840KMKG MKG20011124002510811/24/01 00:25:31  5-MIN KMKG 240525Z 13013G19KT 10SM BKN070 OVC085 13/05 A2981 730 57 700 140/13G19 RMK AO2
14840KMKG MKG20011124003009511/24/01 00:30:31  5-MIN KMKG 240530Z 14011KT 10SM OVC070 13/05 A2981 730 57 700 140/11 RMK AO2
14840KMKG MKG20011124003510211/24/01 00:35:31  5-MIN KMKG 240535Z 13012KT 10SM BKN070 BKN090 13/05 A2981 730 57 700 130/12 RMK AO2
14840KMKG MKG20011124004011711/24/01 00:40:31  5-MIN KMKG 240540Z 13011KT 10SM SCT070 BKN100 13/05 A2981 740 57 700 140/11 RMK AO2 CIG 070 RWY 14
14840KMKG MKG20011124004512411/24/01 00:45:31  5-MIN KMKG 240545Z 13013KT 10SM SCT070 SCT100 BKN120 13/05 A2980 740 57 800 140/13 RMK AO2 CIG 095 RWY 14
14840KMKG MKG20011124005015011/24/01 00:50:31  5-MIN KMKG 240550Z 13012KT 10SM SCT070 SCT095 SCT120 13/06 A2980 740 59 800 140/12 RMK AO2 SLP092 60004 T01330056 10133 20100 58009
14840KMKG MKG20011124005516511/24/01 00:55:31  5-MIN KMKG 240555Z 14011KT 10SM SCT070 SCT095 BKN120 13/06 A2980 740 59 800 140/11 RMK AO2 CIG 095 RWY 14 SLP092 60004 T01330056 10133 20100 58008
14840KMKG MKG20011124010011711/24/01 01:00:31  5-MIN KMKG 240600Z 13011KT 10SM SCT070 BKN120 13/06 A2980 740 59 800 140/11 RMK AO2 CIG 095 RWY 14
14840KMKG MKG20011124010510211/24/01 01:05:31  5-MIN KMKG 240605Z 13012KT 10SM FEW075 BKN120 13/06 A2980 740 59 800 130/12 RMK AO2
14840KMKG MKG20011124011010211/24/01 01:10:31  5-MIN KMKG 240610Z 13012KT 10SM SCT070 BKN120 13/06 A2980 750 59 800 130/12 RMK AO2
14840KMKG MKG20011124011510211/24/01 01:15:31  5-MIN KMKG 240615Z 14011KT 10SM BKN070 BKN120 13/06 A2979 750 59 800 140/11 RMK AO2
14840KMKG MKG20011124012010211/24/01 01:20:31  5-MIN KMKG 240620Z 13012KT 10SM SCT070 BKN120 13/06 A2979 750 59 800 140/12 RMK AO2
14840KMKG MKG20011124012510211/24/01 01:25:31  5-MIN KMKG 240625Z 13012KT 10SM SCT070 BKN120 13/06 A2979 750 59 800 130/12 RMK AO2
14840KMKG MKG20011124013010211/24/01 01:30:31  5-MIN KMKG 240630Z 13012KT 10SM SCT070 BKN110 13/06 A2978 760 63 700 130/12 RMK AO2
14840KMKG MKG20011124013510911/24/01 01:35:31  5-MIN KMKG 240635Z 13011KT 10SM FEW070 SCT080 BKN110 13/06 A2978 760 63 700 130/11 RMK AO2
14840KMKG MKG20011124014010911/24/01 01:40:31  5-MIN KMKG 240640Z 13012KT 10SM FEW070 SCT080 BKN110 13/06 A2978 760 61 800 130/12 RMK AO2
14840KMKG MKG20011124014510211/24/01 01:45:31  5-MIN KMKG 240645Z 14011KT 10SM SCT085 OVC110 13/06 A2978 760 61 800 140/11 RMK AO2
14840KMKG MKG20011124015013411/24/01 01:50:31  5-MIN KMKG 240650Z 13011KT 10SM SCT080 OVC110 13/06 A2978 760 61 800 130/11 RMK AO2 CIG 085 RWY 14 SLP085 T01330061
14840KMKG MKG20011124015513511/24/01 01:55:31  5-MIN KMKG 240655Z 13010KT 10SM -RA SCT080 OVC100 13/06 A2978 760 63 700 130/10 RMK AO2 RAB53 SLP085 P0000 T01280061
14840KMKG MKG20011124020010511/24/01 02:00:31  5-MIN KMKG 240700Z 13011KT 10SM -RA OVC095 13/07 A2978 760 66 700 130/11 RMK AO2 P0000
14840KMKG MKG20011124020511211/24/01 02:05:31  5-MIN KMKG 240705Z 13010KT 10SM -RA FEW080 OVC100 13/06 A2978 760 63 700 130/10 RMK AO2 P0000
14840KMKG MKG20011124021011411/24/01 02:10:31  5-MIN KMKG 240710Z 13010KT 10SM FEW080 OVC100 13/06 A2978 760 63 700 140/10 RMK AO2 RAE06 P0000
14840KMKG MKG20011124021512111/24/01 02:15:31  5-MIN KMKG 240715Z 13010KT 10SM FEW044 SCT075 OVC100 13/06 A2978 760 61 800 130/10 RMK AO2 RAE06 P0000
14840KMKG MKG20011124022011211/24/01 02:20:31  5-MIN KMKG 240720Z 13012KT 10SM -RA SCT042 OVC100 13/06 A2978 760 61 800 130/12 RMK AO2 P0000
14840KMKG MKG20011124022511411/24/01 02:25:31  5-MIN KMKG 240725Z 13012KT 10SM BKN044 OVC100 13/06 A2978 760 63 700 130/12 RMK AO2 RAE25 P0000
14840KMKG MKG20011124023012111/24/01 02:30:31  5-MIN KMKG 240730Z 12012KT 10SM BKN046 BKN055 OVC100 13/06 A2978 760 61 800 130/12 RMK AO2 RAE25 P0000
14840KMKG MKG20011124023512111/24/01 02:35:31  5-MIN KMKG 240735Z 13010KT 10SM BKN046 BKN055 OVC100 13/06 A2978 760 63 700 130/10 RMK AO2 RAE25 P0000
14840KMKG MKG20011124024011411/24/01 02:40:31  5-MIN KMKG 240740Z 13011KT 10SM BKN046 OVC055 13/06 A2979 750 61 800 130/11 RMK AO2 RAE25 P0000
14840KMKG MKG20011124024511411/24/01 02:45:31  5-MIN KMKG 240745Z 13011KT 10SM SCT041 OVC049 13/06 A2979 760 61 800 130/11 RMK AO2 RAE25 P0000
14840KMKG MKG20011124025013111/24/01 02:50:31  5-MIN KMKG 240750Z 13010KT 10SM SCT041 OVC049 13/06 A2979 750 61 800 130/10 RMK AO2 RAE25 SLP087 P0000 T01330061
14840KMKG MKG20011124025513111/24/01 02:55:31  5-MIN KMKG 240755Z 12011KT 10SM SCT041 OVC049 13/06 A2979 760 61 800 130/11 RMK AO2 RAE25 SLP087 P0000 T01330061
14840KMKG MKG20011124030010911/24/01 03:00:31  5-MIN KMKG 240800Z 13009KT 10SM SCT041 BKN049 OVC070 13/06 A2978 760 61 800 130/09 RMK AO2
14840KMKG MKG20011124030510911/24/01 03:05:31  5-MIN KMKG 240805Z 13011KT 10SM SCT044 BKN049 OVC070 13/06 A2978 760 61 800 130/11 RMK AO2
14840KMKG MKG20011124031010911/24/01 03:10:31  5-MIN KMKG 240810Z 12011KT 10SM SCT044 BKN055 OVC100 13/06 A2977 770 63 700 130/11 RMK AO2
14840KMKG MKG20011124031510911/24/01 03:15:31  5-MIN KMKG 240815Z 12011KT 10SM FEW038 BKN070 OVC100 13/06 A2977 770 63 700 130/11 RMK AO2
14840KMKG MKG20011124032010911/24/01 03:20:31  5-MIN KMKG 240820Z 12011KT 10SM FEW045 BKN070 OVC100 13/07 A2977 770 66 700 120/11 RMK AO2
14840KMKG MKG20011124032510911/24/01 03:25:31  5-MIN KMKG 240825Z 13011KT 10SM FEW050 BKN070 OVC100 13/06 A2977 770 61 800 130/11 RMK AO2
14840KMKG MKG20011124033013311/24/01 03:30:31  5-MIN KMKG 240830Z 13012KT 10SM -RA SCT070 BKN100 13/07 A2977 770 64 800 130/12 RMK AO2 RAB28 CIG 075 RWY 14 P0000
14840KMKG MKG20011124033513311/24/01 03:35:31  5-MIN KMKG 240835Z 12012KT 10SM -RA SCT070 OVC100 13/07 A2977 770 66 700 130/12 RMK AO2 RAB28 CIG 070 RWY 14 P0000
14840KMKG MKG20011124034014011/24/01 03:40:31  5-MIN KMKG 240840Z 12011KT 10SM -RA SCT070 BKN100 OVC120 13/07 A2976 780 69 700 120/11 RMK AO2 RAB28 CIG 070 RWY 14 P0000
14840KMKG MKG20011124034514011/24/01 03:45:31  5-MIN KMKG 240845Z 12011KT 10SM -RA FEW055 BKN095 OVC120 13/07 A2977 770 66 700 130/11 RMK AO2 RAB28 CIG 075 RWY 14 P0000
14840KMKG MKG20011124035016811/24/01 03:50:31  5-MIN KMKG 240850Z 12010KT 10SM FEW055 SCT075 BKN095 13/07 A2977 770 66 700 130/10 RMK AO2 RAB28E46 CIG 080 RWY 14 SLP080 P0000 60000 T01280067 58008
14840KMKG MKG20011124035515311/24/01 03:55:31  5-MIN KMKG 240855Z 12012KT 10SM SCT055 BKN075 OVC120 13/07 A2977 770 66 700 130/12 RMK AO2 RAB28E46 SLP080 P0000 60000 T01280067 56012
14840KMKG MKG20011124040012411/24/01 04:00:31  5-MIN KMKG 240900Z 13011KT 10SM SCT055 BKN095 OVC120 13/07 A2977 770 66 700 130/11 RMK AO2 CIG 070 RWY 14
14840KMKG MKG20011124040510911/24/01 04:05:31  5-MIN KMKG 240905Z 12012KT 10SM SCT060 BKN100 OVC120 13/07 A2976 780 66 700 130/12 RMK AO2
14840KMKG MKG20011124041010911/24/01 04:10:31  5-MIN KMKG 240910Z 13012KT 10SM FEW055 BKN080 OVC110 13/07 A2976 780 64 800 130/12 RMK AO2
14840KMKG MKG20011124041510911/24/01 04:15:31  5-MIN KMKG 240915Z 13011KT 10SM FEW055 BKN100 OVC110 13/07 A2976 770 64 800 130/11 RMK AO2
14840KMKG MKG20011124042010911/24/01 04:20:31  5-MIN KMKG 240920Z 12013KT 10SM FEW055 SCT070 OVC100 13/07 A2976 780 64 800 130/13 RMK AO2
14840KMKG MKG20011124042510211/24/01 04:25:31  5-MIN KMKG 240925Z 12013KT 10SM FEW070 OVC095 13/07 A2976 780 64 800 130/13 RMK AO2
14840KMKG MKG20011124043010911/24/01 04:30:31  5-MIN KMKG 240930Z 12012KT 10SM FEW060 SCT070 OVC100 13/07 A2976 780 64 800 130/12 RMK AO2
14840KMKG MKG20011124043510911/24/01 04:35:31  5-MIN KMKG 240935Z 13012KT 10SM FEW055 SCT070 OVC100 13/07 A2976 780 64 800 130/12 RMK AO2
14840KMKG MKG20011124044010211/24/01 04:40:31  5-MIN KMKG 240940Z 13011KT 10SM FEW060 BKN100 13/07 A2976 780 64 800 130/11 RMK AO2
14840KMKG MKG20011124044510911/24/01 04:45:31  5-MIN KMKG 240945Z 12012KT 10SM FEW060 SCT080 BKN100 13/07 A2976 780 66 700 130/12 RMK AO2
14840KMKG MKG20011124045012611/24/01 04:50:31  5-MIN KMKG 240950Z 13012KT 10SM FEW060 BKN080 BKN100 13/07 A2977 770 64 800 130/12 RMK AO2 SLP080 T01330067
14840KMKG MKG20011124045512611/24/01 04:55:31  5-MIN KMKG 240955Z 12011KT 10SM FEW055 BKN080 OVC100 13/07 A2976 770 64 800 130/11 RMK AO2 SLP079 T01330067
14840KMKG MKG20011124050010911/24/01 05:00:31  5-MIN KMKG 241000Z 12011KT 10SM FEW055 BKN080 OVC100 13/07 A2976 780 64 800 130/11 RMK AO2
14840KMKG MKG20011124050511711/24/01 05:05:31  5-MIN KMKG 241005Z 12010KT 10SM SCT080 BKN100 13/07 A2976 780 64 800 120/10 RMK AO2 CIG 080 RWY 14
14840KMKG MKG20011124051010211/24/01 05:10:31  5-MIN KMKG 241010Z 11011KT 10SM SCT080 BKN100 13/07 A2976 780 66 700 120/11 RMK AO2
14840KMKG MKG20011124051509511/24/01 05:15:31  5-MIN KMKG 241015Z 11010KT 10SM OVC095 13/07 A2976 780 66 700 120/10 RMK AO2
14840KMKG MKG20011124052009511/24/01 05:20:31  5-MIN KMKG 241020Z 12009KT 10SM OVC095 13/07 A2976 770 66 700 120/09 RMK AO2
14840KMKG MKG20011124052509511/24/01 05:25:31  5-MIN KMKG 241025Z 12009KT 10SM OVC095 13/07 A2976 780 66 700 120/09 RMK AO2
14840KMKG MKG20011124053009511/24/01 05:30:31  5-MIN KMKG 241030Z 12010KT 10SM OVC100 13/07 A2976 780 66 700 120/10 RMK AO2
14840KMKG MKG20011124053509511/24/01 05:35:31  5-MIN KMKG 241035Z 12010KT 10SM OVC100 13/07 A2976 780 66 700 120/10 RMK AO2
14840KMKG MKG20011124054009511/24/01 05:40:31  5-MIN KMKG 241040Z 12008KT 10SM OVC100 13/07 A2976 780 66 700 120/08 RMK AO2
14840KMKG MKG20011124054509511/24/01 05:45:31  5-MIN KMKG 241045Z 12008KT 10SM BKN100 13/07 A2976 780 66 700 120/08 RMK AO2
14840KMKG MKG20011124055011211/24/01 05:50:31  5-MIN KMKG 241050Z 11009KT 10SM BKN100 13/07 A2975 790 66 700 120/09 RMK AO2 SLP076 T01280067
14840KMKG MKG20011124055511911/24/01 05:55:31  5-MIN KMKG 241055Z 11009KT 10SM FEW033 BKN100 12/07 A2975 790 68 700 120/09 RMK AO2 SLP076 T01220067
14840KMKG MKG20011124060010211/24/01 06:00:31  5-MIN KMKG 241100Z 11009KT 10SM SCT033 BKN100 13/07 A2975 790 66 800 110/09 RMK AO2
14840KMKG MKG20011124060510211/24/01 06:05:31  5-MIN KMKG 241105Z 11010KT 10SM BKN033 BKN100 13/07 A2975 790 66 800 120/10 RMK AO2
14840KMKG MKG20011124061010211/24/01 06:10:31  5-MIN KMKG 241110Z 11009KT 10SM BKN033 BKN100 13/07 A2975 790 66 800 120/09 RMK AO2
14840KMKG MKG20011124061510211/24/01 06:15:31  5-MIN KMKG 241115Z 12010KT 10SM SCT033 BKN100 13/07 A2974 790 66 800 120/10 RMK AO2
14840KMKG MKG20011124062010211/24/01 06:20:31  5-MIN KMKG 241120Z 11009KT 10SM SCT033 OVC100 13/07 A2974 800 66 800 120/09 RMK AO2
14840KMKG MKG20011124062510211/24/01 06:25:31  5-MIN KMKG 241125Z 11008KT 10SM SCT033 OVC100 13/07 A2974 800 69 800 120/08 RMK AO2
14840KMKG MKG20011124063010211/24/01 06:30:31  5-MIN KMKG 241130Z 11009KT 10SM FEW033 OVC100 12/07 A2974 800 71 700 120/09 RMK AO2
14840KMKG MKG20011124063509511/24/01 06:35:31  5-MIN KMKG 241135Z 11008KT 10SM OVC100 13/07 A2974 800 69 800 110/08 RMK AO2
14840KMKG MKG20011124064009511/24/01 06:40:31  5-MIN KMKG 241140Z 11009KT 10SM OVC095 13/07 A2974 800 69 800 120/09 RMK AO2
14840KMKG MKG20011124064509511/24/01 06:45:31  5-MIN KMKG 241145Z 11008KT 10SM OVC095 13/07 A2973 800 69 800 120/08 RMK AO2
14840KMKG MKG20011124065014211/24/01 06:50:31  5-MIN KMKG 241150Z 11010KT 10SM OVC095 13/07 A2973 810 69 800 120/10 RMK AO2 SLP068 60000 70004 T01280072 10133 20122 56012
14840KMKG MKG20011124065514211/24/01 06:55:31  5-MIN KMKG 241155Z 12010KT 10SM OVC090 13/07 A2973 810 69 800 120/10 RMK AO2 SLP068 60000 70004 T01280072 10133 20122 58012
14840KMKG MKG20011124070009511/24/01 07:00:31  5-MIN KMKG 241200Z 12010KT 10SM OVC090 13/07 A2973 810 69 800 130/10 RMK AO2
14840KMKG MKG20011124070509511/24/01 07:05:31  5-MIN KMKG 241205Z 12012KT 10SM OVC090 13/07 A2973 810 69 800 130/12 RMK AO2
14840KMKG MKG20011124071009511/24/01 07:10:31  5-MIN KMKG 241210Z 12014KT 10SM OVC100 13/07 A2972 810 66 800 120/14 RMK AO2
14840KMKG MKG20011124071509511/24/01 07:15:31  5-MIN KMKG 241215Z 12012KT 10SM OVC100 13/08 A2972 810 71 800 120/12 RMK AO2
14840KMKG MKG20011124072009511/24/01 07:20:31  5-MIN KMKG 241220Z 13014KT 10SM BKN100 13/08 A2972 810 69 800 130/14 RMK AO2
14840KMKG MKG20011124072510211/24/01 07:25:31  5-MIN KMKG 241225Z 12015KT 10SM FEW022 BKN100 13/08 A2972 820 69 900 130/15 RMK AO2
14840KMKG MKG20011124073010911/24/01 07:30:31  5-MIN KMKG 241230Z 12014KT 10SM FEW022 SCT036 BKN100 13/08 A2972 820 69 900 130/14 RMK AO2
14840KMKG MKG20011124073510911/24/01 07:35:31  5-MIN KMKG 241235Z 12013KT 10SM FEW022 BKN034 BKN100 13/08 A2971 830 69 900 130/13 RMK AO2
14840KMKG MKG20011124074010911/24/01 07:40:31  5-MIN KMKG 241240Z 12013KT 10SM FEW022 BKN034 BKN100 13/08 A2971 830 71 900 120/13 RMK AO2
14840KMKG MKG20011124074510211/24/01 07:45:31  5-MIN KMKG 241245Z 12013KT 10SM FEW022 BKN034 13/08 A2970 830 71 900 120/13 RMK AO2
14840KMKG MKG20011124075011911/24/01 07:50:31  5-MIN KMKG 241250Z 12012KT 10SM FEW022 BKN034 13/08 A2971 830 71 900 120/12 RMK AO2 SLP061 T01330083
14840KMKG MKG20011124075511211/24/01 07:55:31  5-MIN KMKG 241255Z 12012KT 10SM SCT034 13/08 A2971 830 71 900 120/12 RMK AO2 SLP061 T01330083
14840KMKG MKG20011124080010211/24/01 08:00:31  5-MIN KMKG 241300Z 11013KT 10SM SCT034 SCT110 13/08 A2970 830 74 800 120/13 RMK AO2
14840KMKG MKG20011124080510911/24/01 08:05:31  5-MIN KMKG 241305Z 12014KT 10SM FEW034 SCT055 SCT110 13/08 A2970 830 71 900 130/14 RMK AO2
14840KMKG MKG20011124081010911/24/01 08:10:31  5-MIN KMKG 241310Z 11014KT 10SM FEW034 SCT060 SCT120 13/08 A2970 840 71 900 120/14 RMK AO2
14840KMKG MKG20011124081510211/24/01 08:15:31  5-MIN KMKG 241315Z 11014KT 10SM SCT055 BKN120 13/08 A2970 840 71 900 120/14 RMK AO2
14840KMKG MKG20011124082010811/24/01 08:20:31  5-MIN KMKG 241320Z 11016G21KT 10SM BKN055 BKN120 13/08 A2969 840 71 900 120/16G21 RMK AO2
14840KMKG MKG20011124082510811/24/01 08:25:31  5-MIN KMKG 241325Z 11015G21KT 10SM BKN050 BKN120 13/08 A2969 840 71 900 120/15G21 RMK AO2
14840KMKG MKG20011124083010811/24/01 08:30:31  5-MIN KMKG 241330Z 12013G20KT 10SM BKN050 OVC120 13/08 A2969 840 71 900 120/13G20 RMK AO2
14840KMKG MKG20011124083510811/24/01 08:35:31  5-MIN KMKG 241335Z 12016G20KT 10SM BKN050 OVC120 13/08 A2969 840 71 900 130/16G20 RMK AO2
14840KMKG MKG20011124084010111/24/01 08:40:31  5-MIN KMKG 241340Z 13012G20KT 10SM OVC050 13/09 A2970 840 74 900 140/12G20 RMK AO2
14840KMKG MKG20011124084509511/24/01 08:45:31  5-MIN KMKG 241345Z 13012KT 10SM OVC050 13/09 A2969 840 74 900 130/12 RMK AO2
14840KMKG MKG20011124085011311/24/01 08:50:31  5-MIN KMKG 241350Z 13014KT 10SM OVC048 14/09 A2969 840 71 1000 140/14 RMK AO2 SLP055 T01390089
14840KMKG MKG20011124085511911/24/01 08:55:31  5-MIN KMKG 241355Z 13016G20KT 10SM OVC048 14/09 A2969 850 71 1000 130/16G20 RMK AO2 SLP054 T01390089
14840KMKG MKG20011124090010211/24/01 09:00:31  5-MIN KMKG 241400Z 13015G22KT 10SM OVC048 14/09 A2969 850 71 1000 140/15G22 RMK AO2
14840KMKG MKG20011124090510211/24/01 09:05:31  5-MIN KMKG 241405Z 13015G22KT 10SM OVC048 14/09 A2969 850 71 1000 130/15G22 RMK AO2
14840KMKG MKG20011124091010211/24/01 09:10:31  5-MIN KMKG 241410Z 12017G23KT 10SM BKN048 14/09 A2968 850 71 1000 130/17G23 RMK AO2
14840KMKG MKG20011124091510911/24/01 09:15:31  5-MIN KMKG 241415Z 12017G23KT 10SM FEW025 BKN048 14/09 A2968 860 71 1000 120/17G23 RMK AO2
14840KMKG MKG20011124092010911/24/01 09:20:31  5-MIN KMKG 241420Z 12018G22KT 10SM SCT025 BKN048 14/09 A2968 860 71 1000 120/18G22 RMK AO2
14840KMKG MKG20011124092510911/24/01 09:25:31  5-MIN KMKG 241425Z 13016G22KT 10SM SCT025 BKN048 14/09 A2967 870 71 1000 130/16G22 RMK AO2
14840KMKG MKG20011124093010911/24/01 09:30:31  5-MIN KMKG 241430Z 12019G25KT 10SM FEW025 SCT048 14/09 A2967 870 74 1000 130/19G25 RMK AO2
14840KMKG MKG20011124093510211/24/01 09:35:31  5-MIN KMKG 241435Z 12020G25KT 10SM FEW025 14/09 A2966 870 74 1000 130/20G25 RMK AO2
14840KMKG MKG20011124094010211/24/01 09:40:31  5-MIN KMKG 241440Z 12018G24KT 10SM FEW025 14/09 A2966 870 74 1000 130/18G24 RMK AO2
14840KMKG MKG20011124094510211/24/01 09:45:31  5-MIN KMKG 241445Z 13017G25KT 10SM FEW025 14/09 A2966 870 74 1000 130/17G25 RMK AO2
14840KMKG MKG20011124095012511/24/01 09:50:31  5-MIN KMKG 241450Z 13017G25KT 10SM SCT023 14/10 A2966 870 77 1000 130/17G25 RMK AO2 SLP043 T01390100 58012
14840KMKG MKG20011124095512511/24/01 09:55:31  5-MIN KMKG 241455Z 13017G23KT 10SM SCT023 14/10 A2966 870 77 1000 140/17G23 RMK AO2 SLP044 T01390100 58024
14840KMKG MKG20011124100010211/24/01 10:00:31  5-MIN KMKG 241500Z 13017G23KT 10SM BKN023 14/10 A2966 870 74 1100 130/17G23 RMK AO2
14840KMKG MKG20011124100509611/24/01 10:05:31  5-MIN KMKG 241505Z 13019KT 10SM BKN023 14/10 A2965 880 74 1100 130/19 RMK AO2
14840KMKG MKG20011124101009611/24/01 10:10:31  5-MIN KMKG 241510Z 13017KT 10SM OVC023 14/11 A2965 880 77 1100 130/17 RMK AO2
14840KMKG MKG20011124101509611/24/01 10:15:31  5-MIN KMKG 241515Z 13015KT 10SM OVC023 14/11 A2965 880 77 1100 140/15 RMK AO2
14840KMKG MKG20011124102010211/24/01 10:20:31  5-MIN KMKG 241520Z 13014G22KT 10SM OVC023 14/11 A2965 880 77 1100 130/14G22 RMK AO2
14840KMKG MKG20011124102510211/24/01 10:25:31  5-MIN KMKG 241525Z 12014G22KT 10SM OVC023 14/11 A2965 880 77 1100 130/14G22 RMK AO2
14840KMKG MKG20011124103010211/24/01 10:30:31  5-MIN KMKG 241530Z 13018G22KT 10SM OVC023 14/11 A2964 890 77 1100 130/18G22 RMK AO2
14840KMKG MKG20011124103510211/24/01 10:35:31  5-MIN KMKG 241535Z 12017G22KT 10SM OVC023 14/11 A2964 890 77 1100 130/17G22 RMK AO2
14840KMKG MKG20011124104010211/24/01 10:40:31  5-MIN KMKG 241540Z 13020G25KT 10SM OVC023 14/11 A2964 890 77 1100 130/20G25 RMK AO2
14840KMKG MKG20011124104510211/24/01 10:45:31  5-MIN KMKG 241545Z 12020G25KT 10SM OVC023 14/11 A2964 890 77 1100 130/20G25 RMK AO2
14840KMKG MKG20011124105013711/24/01 10:50:31  5-MIN KMKG 241550Z 12021G27KT 10SM OVC023 14/11 A2964 890 77 1100 120/21G27 RMK AO2 PK WND 12027/1550 SLP037 T01440106
14840KMKG MKG20011124105513711/24/01 10:55:31  5-MIN KMKG 241555Z 12017G27KT 10SM OVC023 14/11 A2964 890 77 1100 130/17G27 RMK AO2 PK WND 12027/1550 SLP036 T01440106
14840KMKG MKG20011124110010211/24/01 11:00:31  5-MIN KMKG 241600Z 12019G25KT 10SM OVC023 14/11 A2963 900 77 1100 130/19G25 RMK AO2
14840KMKG MKG20011124110510211/24/01 11:05:31  5-MIN KMKG 241605Z 12018G25KT 10SM OVC023 14/11 A2962 910 77 1100 130/18G25 RMK AO2
14840KMKG MKG20011124111010211/24/01 11:10:31  5-MIN KMKG 241610Z 12017G25KT 10SM OVC023 14/11 A2962 910 80 1100 120/17G25 RMK AO2
14840KMKG MKG20011124111510211/24/01 11:15:31  5-MIN KMKG 241615Z 12019G23KT 10SM OVC023 14/11 A2962 910 80 1100 130/19G23 RMK AO2
14840KMKG MKG20011124112012711/24/01 11:20:31  5-MIN KMKG 241620Z 12020G27KT 10SM BKN023 14/11 A2960 930 80 1100 120/20G27 RMK AO2 PK WND 11027/1620 PRESFR
14840KMKG MKG20011124112512711/24/01 11:25:31  5-MIN KMKG 241625Z 12021G27KT 10SM BKN023 14/11 A2959 940 80 1100 120/21G27 RMK AO2 PK WND 11027/1620 PRESFR
14840KMKG MKG20011124113012011/24/01 11:30:31  5-MIN KMKG 241630Z 12020G25KT 10SM BKN023 14/11 A2959 940 80 1100 120/20G25 RMK AO2 PK WND 11027/1620
14840KMKG MKG20011124113512711/24/01 11:35:31  5-MIN KMKG 241635Z 12019G25KT 10SM SCT023 BKN085 15/11 A2960 930 77 1200 120/19G25 RMK AO2 PK WND 11027/1620
14840KMKG MKG20011124114014311/24/01 11:40:31  5-MIN KMKG 241640Z 13021G25KT 10SM -RA FEW023 BKN080 14/11 A2960 930 80 1100 130/21G25 RMK AO2 PK WND 11027/1620 RAB40 P0000
14840KMKG MKG20011124114515011/24/01 11:45:31  5-MIN KMKG 241645Z 13018G25KT 10SM -RA SCT023 SCT065 BKN080 14/11 A2960 930 80 1100 140/18G25 RMK AO2 PK WND 11027/1620 RAB40 P0000
14840KMKG MKG20011124115016011/24/01 11:50:31  5-MIN KMKG 241650Z 13016G25KT 10SM -RA SCT023 BKN080 14/11 A2960 930 80 1100 130/16G25 RMK AO2 PK WND 11027/1620 RAB40 SLP023 P0000 T01440111
14840KMKG MKG20011124115516711/24/01 11:55:31  5-MIN KMKG 241655Z 13021G25KT 10SM -RA BKN023 BKN060 BKN080 14/11 A2960 920 80 1100 140/21G25 RMK AO2 PK WND 11027/1620 RAB40 SLP025 P0000 T01440111
14840KMKG MKG20011124120012411/24/01 12:00:31  5-MIN KMKG 241700Z 14017G25KT 10SM BKN023 BKN060 OVC080 15/11 A2960 930 77 1200 150/17G25 RMK AO2 RAE1656
14840KMKG MKG20011124120511111/24/01 12:05:31  5-MIN KMKG 241705Z 14020KT 10SM BKN023 OVC080 15/11 A2960 930 77 1200 140/20 RMK AO2 RAE1656
14840KMKG MKG20011124121010611/24/01 12:10:31  5-MIN KMKG 241710Z 14014KT 10SM -RA OVC023 15/12 A2961 920 80 1200 150/14 RMK AO2 P0000
14840KMKG MKG20011124121510611/24/01 12:15:31  5-MIN KMKG 241715Z 14013KT 10SM -RA OVC023 14/12 A2961 920 83 1100 150/13 RMK AO2 P0000
14840KMKG MKG20011124122011211/24/01 12:20:31  5-MIN KMKG 241720Z 14015G21KT 10SM -RA OVC023 14/12 A2960 930 83 1100 140/15G21 RMK AO2 P0000
14840KMKG MKG20011124122511111/24/01 12:25:31  5-MIN KMKG 241725Z 14013G22KT 8SM -RA OVC023 14/12 A2959 930 83 1100 150/13G22 RMK AO2 P0000
14840KMKG MKG20011124123011411/24/01 12:30:31  5-MIN KMKG 241730Z 14013G21KT 4SM -RA BR OVC023 14/12 A2960 930 86 1100 140/13G21 RMK AO2 P0002
14840KMKG MKG20011124123511311/24/01 12:35:31  5-MIN KMKG 241735Z 14016G21KT 3SM RA BR OVC023 14/12 A2959 940 90 1100 140/16G21 RMK AO2 P0003
14840KMKG MKG20011124124014911/24/01 12:40:31  5-MIN KMKG 241740Z 13016G27KT 3SM -RA BR OVC023 14/12 A2958 940 90 1100 130/16G27 RMK AO2 PK WND 14027/1737 VIS 2 1/2 RWY 14 P0004
14840KMKG MKG20011124124514511/24/01 12:45:31  5-MIN KMKG 241745Z 13017G27KT 4SM RA BR FEW016 OVC023 14/12 A2957 950 90 1100 130/17G27 RMK AO2 PK WND 14027/1737 PRESFR P0005
14840KMKG MKG20011124125017911/24/01 12:50:31  5-MIN KMKG 241750Z 13016G23KT 4SM RA BR FEW016 OVC023 14/13 A2957 950 93 1100 130/16G23 RMK AO2 PK WND 14027/1737 SLP015 P0006 60006 T01390128 10150 20128 58024
14840KMKG MKG20011124125518711/24/01 12:55:31  5-MIN KMKG 241755Z 13016G23KT 6SM -RA BR FEW016 BKN023 OVC029 14/13 A2957 960 93 1100 130/16G23 RMK AO2 PK WND 14027/1737 SLP013 P0006 60006 T01390128 10150 20128 58030
14840KMKG MKG20011124130012911/24/01 13:00:31  5-MIN KMKG 241800Z 12015G23KT 9SM FEW016 BKN023 OVC065 14/13 A2956 960 93 1100 130/15G23 RMK AO2 RAE1759 P0000
14840KMKG MKG20011124130511911/24/01 13:05:31  5-MIN KMKG 241805Z 12014KT 7SM -RA SCT021 BKN030 OVC080 14/13 A2956 960 93 1100 120/14 RMK AO2 P0000
14840KMKG MKG20011124131011911/24/01 13:10:31  5-MIN KMKG 241810Z 13016KT 7SM -RA SCT021 BKN030 OVC080 14/13 A2956 960 93 1100 130/16 RMK AO2 P0000
14840KMKG MKG20011124131512711/24/01 13:15:31  5-MIN KMKG 241815Z 12015G20KT 9SM FEW022 BKN032 OVC080 14/13 A2956 960 93 1100 130/15G20 RMK AO2 RAE14 P0000
14840KMKG MKG20011124132012511/24/01 13:20:31  5-MIN KMKG 241820Z 13015KT 8SM -RA SCT025 BKN032 OVC080 14/13 A2956 960 93 1100 130/15 RMK AO2 RAB19 P0000
14840KMKG MKG20011124132512211/24/01 13:25:31  5-MIN KMKG 241825Z 13015KT 6SM -RA BR BKN025 BKN032 OVC080 14/13 A2956 970 93 1100 130/15 RMK AO2 P0001
14840KMKG MKG20011124133012211/24/01 13:30:31  5-MIN KMKG 241830Z 13015KT 5SM -RA BR BKN025 BKN032 OVC075 14/13 A2955 970 93 1100 130/15 RMK AO2 P0001
14840KMKG MKG20011124133512111/24/01 13:35:31  5-MIN KMKG 241835Z 13018G22KT 4SM -RA BR BKN025 OVC030 14/13 A2955 970 93 1100 130/18G22 RMK AO2 P0002
14840KMKG MKG20011124134012111/24/01 13:40:31  5-MIN KMKG 241840Z 13016G23KT 5SM -RA BR BKN025 OVC030 14/13 A2955 970 93 1100 130/16G23 RMK AO2 P0002
14840KMKG MKG20011124134512111/24/01 13:45:31  5-MIN KMKG 241845Z 13015G23KT 4SM -RA BR BKN025 OVC030 14/13 A2955 970 93 1100 130/15G23 RMK AO2 P0003
14840KMKG MKG20011124135016311/24/01 13:50:31  5-MIN KMKG 241850Z 12021G27KT 4SM -RA BR BKN023 BKN028 OVC033 14/13 A2955 980 93 1100 130/21G27 RMK AO2 PK WND 13027/1850 SLP006 P0003 T01390128
14840KMKG MKG20011124135516311/24/01 13:55:31  5-MIN KMKG 241855Z 13016G27KT 5SM -RA BR BKN023 BKN028 OVC033 14/13 A2955 980 93 1100 140/16G27 RMK AO2 PK WND 13027/1850 SLP005 P0004 T01390128
14840KMKG MKG20011124140012811/24/01 14:00:31  5-MIN KMKG 241900Z 15011G22KT 5SM -RA BR SCT020 BKN026 OVC033 14/13 A2955 970 93 1100 150/11G22 RMK AO2 P0000
14840KMKG MKG20011124140514311/24/01 14:05:31  5-MIN KMKG 241905Z 12015G20KT 5SM -RA BR SCT020 BKN026 OVC034 14/13 A2954 980 93 1100 120/15G20 RMK AO2 CIG 021 RWY 14 P0000
14840KMKG MKG20011124141012811/24/01 14:10:31  5-MIN KMKG 241910Z 12017G21KT 6SM -RA BR SCT022 BKN026 OVC036 14/13 A2954 980 93 1100 120/17G21 RMK AO2 P0000
14840KMKG MKG20011124141514011/24/01 14:15:31  5-MIN KMKG 241915Z 12014G21KT 7SM -RA SCT022 BKN026 OVC036 14/13 A2954 980 93 1100 130/14G21 RMK AO2 CIG 021 RWY 14 P0000
14840KMKG MKG20011124142011911/24/01 14:20:31  5-MIN KMKG 241920Z 12015KT 8SM -RA BKN020 BKN028 OVC036 14/13 A2954 980 93 1100 130/15 RMK AO2 P0000
14840KMKG MKG20011124142512711/24/01 14:25:31  5-MIN KMKG 241925Z 12012G22KT 9SM BKN020 BKN028 OVC036 14/13 A2954 990 93 1100 130/12G22 RMK AO2 RAE23 P0000
14840KMKG MKG20011124143012511/24/01 14:30:31  5-MIN KMKG 241930Z 13016G24KT 9SM -RA BKN020 BKN028 OVC036 14/13 A2954 990 93 1100 130/16G24 RMK AO2 P0000
14840KMKG MKG20011124143511811/24/01 14:35:31  5-MIN KMKG 241935Z 12017G25KT 8SM -RA BKN022 OVC028 14/13 A2953 990 93 1100 130/17G25 RMK AO2 P0001
14840KMKG MKG20011124144013711/24/01 14:40:31  5-MIN KMKG 241940Z 12016G25KT 6SM -RA BR SCT022 OVC028 14/13 A2953 1000 93 1100 130/16G25 RMK AO2 CIG 023 RWY 14 P0001
14840KMKG MKG20011124144512211/24/01 14:45:31  5-MIN KMKG 241945Z 12019G25KT 5SM -RA BR SCT020 OVC030 14/13 A2952 1010 96 1100 130/19G25 RMK AO2 P0001
14840KMKG MKG20011124145014311/24/01 14:50:31  5-MIN KMKG 241950Z 12017G22KT 7SM -RA SCT020 BKN032 OVC080 14/13 A2951 1010 96 1200 120/17G22 RMK AO2 SLP994 P0001 T01390133
14840KMKG MKG20011124145515211/24/01 14:55:31  5-MIN KMKG 241955Z 11017G22KT 8SM FEW020 BKN029 OVC095 14/13 A2951 1020 96 1200 120/17G22 RMK AO2 RAE52 PRESFR SLP991 P0001 T01390133
14840KMKG MKG20011124150012311/24/01 15:00:31  5-MIN KMKG 242000Z 12016G24KT 7SM FEW016 BKN033 OVC095 14/13 A2950 1030 96 1200 120/16G24 RMK AO2 PRESFR
14840KMKG MKG20011124150512311/24/01 15:05:31  5-MIN KMKG 242005Z 12018G24KT 8SM FEW019 SCT025 BKN034 14/13 A2949 1030 96 1200 120/18G24 RMK AO2 PRESFR
14840KMKG MKG20011124151015611/24/01 15:10:31  5-MIN KMKG 242010Z 12019G26KT 8SM SCT021 SCT034 BKN080 14/13 A2948 1040 96 1200 120/19G26 RMK AO2 PK WND 11026/2009 CIG 032 RWY 14 PRESFR
14840KMKG MKG20011124151515011/24/01 15:15:31  5-MIN KMKG 242015Z 12019G26KT 9SM -RA FEW021 SCT080 BKN100 14/13 A2947 1040 96 1200 120/19G26 RMK AO2 PK WND 11026/2009 RAB12 P0000
14840KMKG MKG20011124152015011/24/01 15:20:31  5-MIN KMKG 242020Z 11021G28KT 9SM -RA FEW019 BKN100 14/13 A2946 1060 96 1200 120/21G28 RMK AO2 PK WND 11028/2020 RAB12 PRESFR P0000
14840KMKG MKG20011124152514311/24/01 15:25:31  5-MIN KMKG 242025Z 12022G28KT 10SM FEW017 BKN100 14/13 A2946 1060 93 1300 120/22G28 RMK AO2 PK WND 12028/2022 RAB12E22 P0000
14840KMKG MKG20011124153014211/24/01 15:30:31  5-MIN KMKG 242030Z 12020G28KT 9SM FEW017 BKN100 14/13 A2947 1050 93 1300 120/20G28 RMK AO2 PK WND 12028/2022 RAB12E22 P0000
14840KMKG MKG20011124153515011/24/01 15:35:31  5-MIN KMKG 242035Z 11025G34KT 8SM -RA FEW017 BKN100 14/13 A2945 1070 93 1300 110/25G34 RMK AO2 PK WND 11034/2035 RAB12 PRESFR P0000
14840KMKG MKG20011124154015011/24/01 15:40:31  5-MIN KMKG 242040Z 11020G34KT 8SM -RA FEW017 SCT041 BKN100 14/13 A2945 1070 93 1300 120/20G34 RMK AO2 PK WND 11034/2035 RAB12 P0000
14840KMKG MKG20011124154514411/24/01 15:45:31  5-MIN KMKG 242045Z 12019G27KT 10SM -RA FEW017 SCT100 14/13 A2945 1070 93 1300 120/19G27 RMK AO2 PK WND 11034/2035 RAB12 P0000
14840KMKG MKG20011124155017911/24/01 15:50:31  5-MIN KMKG 242050Z 12018G27KT 10SM FEW017 SCT027 BKN100 14/13 A2946 1060 93 1300 120/18G27 RMK AO2 PK WND 11034/2035 RAB12E46 SLP974 P0000 60005 T01440133 58030
14840KMKG MKG20011124155517911/24/01 15:55:31  5-MIN KMKG 242055Z 12018G25KT 10SM SCT017 BKN025 BKN036 14/13 A2945 1070 93 1300 120/18G25 RMK AO2 PK WND 11034/2035 RAB12E46 SLP972 P0000 60005 T01440133 58039
14840KMKG MKG20011124160013511/24/01 16:00:31  5-MIN KMKG 242100Z 12021G27KT 10SM SCT017 BKN022 BKN036 14/13 A2946 1060 93 1300 130/21G27 RMK AO2 PK WND 12027/2059
14840KMKG MKG20011124160512811/24/01 16:05:31  5-MIN KMKG 242105Z 12019G27KT 10SM BKN017 BKN027 14/13 A2946 1060 93 1300 130/19G27 RMK AO2 PK WND 12027/2059
14840KMKG MKG20011124161012811/24/01 16:10:31  5-MIN KMKG 242110Z 12017G25KT 10SM BKN017 BKN022 14/13 A2946 1060 93 1300 130/17G25 RMK AO2 PK WND 12027/2059
14840KMKG MKG20011124161512811/24/01 16:15:31  5-MIN KMKG 242115Z 13017G24KT 10SM BKN017 OVC022 14/13 A2946 1060 93 1300 130/17G24 RMK AO2 PK WND 12027/2059
14840KMKG MKG20011124162012111/24/01 16:20:31  5-MIN KMKG 242120Z 13017G24KT 10SM OVC017 14/13 A2946 1060 93 1300 130/17G24 RMK AO2 PK WND 12027/2059
14840KMKG MKG20011124162512111/24/01 16:25:31  5-MIN KMKG 242125Z 13017G25KT 10SM OVC019 14/13 A2946 1060 93 1300 130/17G25 RMK AO2 PK WND 12027/2059
14840KMKG MKG20011124163012111/24/01 16:30:31  5-MIN KMKG 242130Z 13019G25KT 10SM OVC019 15/13 A2945 1070 90 1400 140/19G25 RMK AO2 PK WND 12027/2059
14840KMKG MKG20011124163512111/24/01 16:35:31  5-MIN KMKG 242135Z 13017G25KT 10SM OVC021 15/13 A2945 1070 90 1400 140/17G25 RMK AO2 PK WND 12027/2059
14840KMKG MKG20011124164012811/24/01 16:40:31  5-MIN KMKG 242140Z 13016G25KT 10SM BKN019 OVC025 15/13 A2945 1070 90 1400 130/16G25 RMK AO2 PK WND 12027/2059
14840KMKG MKG20011124164512811/24/01 16:45:31  5-MIN KMKG 242145Z 13018G25KT 10SM BKN019 OVC025 15/13 A2945 1070 90 1400 130/18G25 RMK AO2 PK WND 12027/2059
14840KMKG MKG20011124165013811/24/01 16:50:31  5-MIN KMKG 242150Z 13018G25KT 10SM OVC022 16/13 A2945 1070 86 1400 140/18G25 RMK AO2 PK WND 12027/2059 SLP971 T01560133
14840KMKG MKG20011124165514511/24/01 16:55:31  5-MIN KMKG 242155Z 13018G25KT 10SM BKN022 OVC065 16/13 A2945 1070 86 1400 130/18G25 RMK AO2 PK WND 12027/2059 SLP972 T01560133
14840KMKG MKG20011124170013511/24/01 17:00:31  5-MIN KMKG 242200Z 13017G26KT 10SM BKN022 BKN050 OVC065 16/13 A2945 1070 86 1400 140/17G26 RMK AO2 PK WND 15026/2158
14840KMKG MKG20011124170513511/24/01 17:05:31  5-MIN KMKG 242205Z 13022G27KT 10SM BKN022 BKN026 OVC065 16/13 A2945 1070 86 1400 140/22G27 RMK AO2 PK WND 14027/2204
14840KMKG MKG20011124171013511/24/01 17:10:31  5-MIN KMKG 242210Z 14017G27KT 10SM BKN022 BKN050 OVC060 16/13 A2944 1070 86 1400 140/17G27 RMK AO2 PK WND 14027/2204
14840KMKG MKG20011124171512811/24/01 17:15:31  5-MIN KMKG 242215Z 14017G25KT 10SM SCT022 OVC060 16/13 A2945 1070 86 1400 140/17G25 RMK AO2 PK WND 14027/2204
14840KMKG MKG20011124172013511/24/01 17:20:31  5-MIN KMKG 242220Z 15014G21KT 10SM FEW022 SCT044 OVC060 16/13 A2945 1060 86 1400 150/14G21 RMK AO2 PK WND 14027/2204
14840KMKG MKG20011124172513511/24/01 17:25:31  5-MIN KMKG 242225Z 14015G22KT 10SM FEW022 BKN042 OVC060 16/13 A2945 1070 86 1400 140/15G22 RMK AO2 PK WND 14027/2204
14840KMKG MKG20011124173013511/24/01 17:30:31  5-MIN KMKG 242230Z 14017G22KT 10SM SCT022 BKN036 OVC060 16/13 A2945 1070 86 1400 150/17G22 RMK AO2 PK WND 14027/2204
14840KMKG MKG20011124173515011/24/01 17:35:31  5-MIN KMKG 242235Z 14013G22KT 10SM FEW020 BKN039 OVC060 16/13 A2946 1060 86 1400 150/13G22 RMK AO2 PK WND 14027/2204 CIG 032 RWY 14
14840KMKG MKG20011124174015111/24/01 17:40:31  5-MIN KMKG 242240Z 14018G23KT 10SM -RA FEW020 BKN036 OVC044 16/13 A2946 1060 86 1400 140/18G23 RMK AO2 PK WND 14027/2204 RAB38 P0000
14840KMKG MKG20011124174515111/24/01 17:45:31  5-MIN KMKG 242245Z 14017G23KT 10SM -RA FEW020 BKN033 OVC040 16/13 A2946 1060 86 1400 140/17G23 RMK AO2 PK WND 14027/2204 RAB38 P0000
14840KMKG MKG20011124175016711/24/01 17:50:31  5-MIN KMKG 242250Z 14018G23KT 10SM FEW022 BKN032 OVC040 16/13 A2946 1060 86 1400 140/18G23 RMK AO2 PK WND 14027/2204 RAB38E47 SLP977 P0000 T01560133
14840KMKG MKG20011124175516711/24/01 17:55:31  5-MIN KMKG 242255Z 14018G23KT 10SM FEW022 BKN037 OVC050 16/13 A2946 1060 86 1400 140/18G23 RMK AO2 PK WND 14027/2204 RAB38E47 SLP975 P0000 T01560133
14840KMKG MKG20011124180011111/24/01 18:00:31  5-MIN KMKG 242300Z 14016KT 10SM FEW027 BKN033 OVC050 16/13 A2946 1060 86 1400 140/16 RMK AO2
14840KMKG MKG20011124180511111/24/01 18:05:31  5-MIN KMKG 242305Z 14014KT 10SM FEW027 BKN035 OVC050 16/13 A2945 1070 86 1400 140/14 RMK AO2
14840KMKG MKG20011124181011711/24/01 18:10:31  5-MIN KMKG 242310Z 14018G22KT 10SM FEW027 BKN040 OVC050 16/13 A2945 1070 86 1400 140/18G22 RMK AO2
14840KMKG MKG20011124181511711/24/01 18:15:31  5-MIN KMKG 242315Z 14016G22KT 10SM FEW027 BKN035 OVC050 16/13 A2944 1070 83 1500 140/16G22 RMK AO2
14840KMKG MKG20011124182011711/24/01 18:20:31  5-MIN KMKG 242320Z 14015G22KT 10SM SCT027 BKN034 OVC050 16/13 A2945 1070 83 1500 140/15G22 RMK AO2
14840KMKG MKG20011124182511711/24/01 18:25:31  5-MIN KMKG 242325Z 14015G22KT 10SM FEW022 BKN029 OVC047 16/13 A2944 1070 83 1500 140/15G22 RMK AO2
14840KMKG MKG20011124183012611/24/01 18:30:31  5-MIN KMKG 242330Z 14015KT 10SM SCT022 BKN029 OVC037 16/13 A2944 1080 83 1500 140/15 RMK AO2 CIG 023 RWY 14
14840KMKG MKG20011124183511711/24/01 18:35:31  5-MIN KMKG 242335Z 14014G21KT 10SM BKN023 BKN028 OVC035 16/14 A2944 1080 86 1500 150/14G21 RMK AO2
14840KMKG MKG20011124184011011/24/01 18:40:31  5-MIN KMKG 242340Z 13014G21KT 10SM BKN025 OVC030 16/14 A2944 1080 86 1500 140/14G21 RMK AO2
14840KMKG MKG20011124184510411/24/01 18:45:31  5-MIN KMKG 242345Z 13015KT 10SM BKN023 OVC030 16/14 A2944 1080 86 1500 140/15 RMK AO2
14840KMKG MKG20011124185014511/24/01 18:50:31  5-MIN KMKG 242350Z 14012KT 10SM BKN023 OVC030 16/14 A2944 1080 86 1500 140/12 RMK AO2 SLP968 60005 T01610139 10161 20139 58039
14840KMKG MKG20011124185514511/24/01 18:55:31  5-MIN KMKG 242355Z 14012KT 10SM BKN025 OVC030 16/14 A2943 1080 86 1500 140/12 RMK AO2 SLP967 60005 T01610139 10161 20139 58005
14840KMKG MKG20011124190010311/24/01 19:00:31  5-MIN KMKG 250000Z 14013G21KT 10SM OVC027 16/14 A2944 1080 86 1500 140/13G21 RMK AO2
14840KMKG MKG20011124190511011/24/01 19:05:31  5-MIN KMKG 250005Z 14012G21KT 10SM BKN027 OVC032 16/14 A2943 1080 86 1500 150/12G21 RMK AO2
14840KMKG MKG20011124191010311/24/01 19:10:31  5-MIN KMKG 250010Z 15014G18KT 10SM OVC027 16/14 A2944 1080 86 1500 150/14G18 RMK AO2
14840KMKG MKG20011124191509711/24/01 19:15:31  5-MIN KMKG 250015Z 15012KT 10SM OVC027 16/14 A2944 1080 86 1500 150/12 RMK AO2
14840KMKG MKG20011124192011011/24/01 19:20:31  5-MIN KMKG 250020Z 15016G20KT 10SM BKN027 OVC033 16/14 A2943 1090 86 1500 150/16G20 RMK AO2
14840KMKG MKG20011124192511011/24/01 19:25:31  5-MIN KMKG 250025Z 15013G20KT 10SM BKN025 OVC033 16/14 A2943 1090 86 1500 160/13G20 RMK AO2
14840KMKG MKG20011124193011011/24/01 19:30:31  5-MIN KMKG 250030Z 15014G22KT 10SM BKN027 OVC033 17/14 A2942 1090 83 1600 160/14G22 RMK AO2
14840KMKG MKG20011124193511011/24/01 19:35:31  5-MIN KMKG 250035Z 15015G22KT 10SM BKN027 OVC035 17/14 A2943 1090 83 1600 150/15G22 RMK AO2
14840KMKG MKG20011124194010411/24/01 19:40:31  5-MIN KMKG 250040Z 15013KT 10SM BKN027 BKN035 17/14 A2943 1090 83 1600 160/13 RMK AO2
14840KMKG MKG20011124194510411/24/01 19:45:31  5-MIN KMKG 250045Z 15015KT 10SM SCT028 BKN035 17/14 A2943 1090 83 1600 150/15 RMK AO2
14840KMKG MKG20011124195012711/24/01 19:50:31  5-MIN KMKG 250050Z 15018G22KT 10SM FEW028 SCT035 17/14 A2943 1090 83 1600 150/18G22 RMK AO2 SLP964 T01670139
14840KMKG MKG20011124195512011/24/01 19:55:31  5-MIN KMKG 250055Z 15015G22KT 10SM SCT032 17/14 A2943 1090 83 1600 150/15G22 RMK AO2 SLP965 T01670139
14840KMKG MKG20011124200010411/24/01 20:00:31  5-MIN KMKG 250100Z 15013KT 10SM FEW028 SCT034 17/14 A2943 1080 83 1600 160/13 RMK AO2
14840KMKG MKG20011124200511011/24/01 20:05:31  5-MIN KMKG 250105Z 16013G19KT 10SM SCT031 BKN038 17/14 A2943 1080 83 1600 160/13G19 RMK AO2
14840KMKG MKG20011124201011711/24/01 20:10:31  5-MIN KMKG 250110Z 16017G25KT 10SM SCT033 BKN040 BKN046 17/13 A2943 1090 80 1600 160/17G25 RMK AO2
14840KMKG MKG20011124201513211/24/01 20:15:31  5-MIN KMKG 250115Z 16013G25KT 10SM SCT031 BKN040 BKN048 17/13 A2943 1090 80 1600 160/13G25 RMK AO2 CIG 033 RWY 14
14840KMKG MKG20011124202011711/24/01 20:20:31  5-MIN KMKG 250120Z 16013G19KT 10SM SCT033 BKN041 BKN050 17/13 A2942 1090 80 1600 160/13G19 RMK AO2
14840KMKG MKG20011124202511711/24/01 20:25:31  5-MIN KMKG 250125Z 18016G23KT 10SM SCT031 BKN040 OVC100 17/13 A2943 1080 80 1600 180/16G23 RMK AO2
14840KMKG MKG20011124203019311/24/01 20:30:31  5-MIN KMKG 250130Z 19023G30KT 3SM TSRA BR FEW017 BKN031 OVC050 15/13 A2944 1080 86 1400 200/23G30 RMK AO2 PK WND 20030/0126 TSB29RAB29 OCNL LTGCCIC TSB2025 TS OHD MOV N P0007
14840KMKG MKG20011124203518911/24/01 20:35:31  5-MIN KMKG 250135Z 19015G30KT 2 1/2SM TSRA BR FEW017 BKN034 OVC047 14/13 A2944 1070 93 1200 190/15G30 RMK AO2 PK WND 20030/0126 TSB29RAB29 OCNL LTGCCIC TS OHD MOV N P0007
14840KMKG MKG20011124204018911/24/01 20:40:31  5-MIN KMKG 250140Z 19014G26KT 2 1/2SM TSRA BR FEW019 BKN034 OVC047 13/13 A2945 1070 96 1200 190/14G26 RMK AO2 PK WND 20030/0126 TSB29RAB29 OCNL LTGCCIC TS OHD MOV N P0007
14840KMKG MKG20011124204518911/24/01 20:45:31  5-MIN KMKG 250145Z 19014G21KT 2 1/2SM TSRA BR FEW019 SCT031 OVC045 14/13 A2944 1080 93 1200 190/14G21 RMK AO2 PK WND 20030/0126 TSB29RAB29 OCNL LTGCCIC TS OHD MOV N P0007
14840KMKG MKG20011124205020111/24/01 20:50:31  5-MIN KMKG 250150Z 18013G21KT 10SM TSRA FEW019 SCT031 BKN047 14/13 A2944 1080 93 1200 180/13G21 RMK AO2 PK WND 20030/0126 SLP968 OCNL LTGCCIC RAB29 TSB29 TS OHD MOV N P0007 T01390128
14840KMKG MKG20011124205519511/24/01 20:55:31  5-MIN KMKG 250155Z 18014G21KT 10SM TS FEW019 BKN047 13/13 A2944 1080 96 1200 180/14G21 RMK AO2 PK WND 20030/0126 SLP969 OCNL LTGCCIC RAB29E50 TSB29 TS OHD MOV N P0007 T01330128
14840KMKG MKG20011124210010711/24/01 21:00:31  5-MIN KMKG 250200Z 18013KT 10SM TS FEW027 SCT047 13/12 A2944 1070 93 1200 180/13 RMK AO2
14840KMKG MKG20011124210513311/24/01 21:05:31  5-MIN KMKG 250205Z 19014KT 10SM TS SCT047 SCT075 13/12 A2944 1080 93 1200 190/14 RMK AO2 OCNL LTGICCC TS N-E MOV N
14840KMKG MKG20011124211013911/24/01 21:10:31  5-MIN KMKG 250210Z 19016G22KT 10SM TS FEW049 SCT075 13/12 A2943 1080 93 1200 190/16G22 RMK AO2 OCNL LTGICCC TS N-E MOV N
14840KMKG MKG20011124211513211/24/01 21:15:31  5-MIN KMKG 250215Z 19012G22KT 10SM TS FEW055 13/12 A2944 1080 89 1200 190/12G22 RMK AO2 OCNL LTGICCC TS N-E MOV N
14840KMKG MKG20011124212013211/24/01 21:20:31  5-MIN KMKG 250220Z 19014G21KT 10SM TS FEW060 13/12 A2943 1090 89 1200 190/14G21 RMK AO2 OCNL LTGICCC TS N-E MOV N
14840KMKG MKG20011124212513911/24/01 21:25:31  5-MIN KMKG 250225Z 19015G20KT 10SM TS FEW060 SCT075 13/12 A2943 1090 89 1200 200/15G20 RMK AO2 OCNL LTGICCC TS N-E MOV N
14840KMKG MKG20011124213013911/24/01 21:30:31  5-MIN KMKG 250230Z 19013G20KT 10SM TS FEW060 SCT070 14/12 A2943 1090 86 1300 190/13G20 RMK AO2 OCNL LTGICCC TS N-E MOV N
14840KMKG MKG20011124213513211/24/01 21:35:31  5-MIN KMKG 250235Z 19016G22KT 10SM TS FEW060 13/12 A2943 1090 89 1200 190/16G22 RMK AO2 OCNL LTGICCC TS N-E MOV N
14840KMKG MKG20011124214013211/24/01 21:40:31  5-MIN KMKG 250240Z 18015G22KT 10SM TS FEW060 13/12 A2943 1090 89 1200 190/15G22 RMK AO2 OCNL LTGICCC TS N-E MOV N
14840KMKG MKG20011124214512211/24/01 21:45:31  5-MIN KMKG 250245Z 18015G21KT 10SM FEW060 13/11 A2943 1090 86 1200 190/15G21 RMK AO2 TSE45 DSNT LTG N-E
14840KMKG MKG20011124215015111/24/01 21:50:31  5-MIN KMKG 250250Z 19017G23KT 10SM FEW070 13/11 A2944 1080 86 1200 190/17G23 RMK AO2 TSE45 SLP968 DSNT LTG N-E 60007 T01330111 58005
14840KMKG MKG20011124215515111/24/01 21:55:31  5-MIN KMKG 250255Z 19014G23KT 10SM FEW070 13/11 A2944 1080 86 1200 190/14G23 RMK AO2 TSE45 SLP968 DSNT LTG N-E 60007 T01330111 53000
14840KMKG MKG20011124220010311/24/01 22:00:31  5-MIN KMKG 250300Z 18014G21KT 10SM FEW070 13/11 A2944 1080 86 1200 190/14G21 RMK AO2
14840KMKG MKG20011124220509711/24/01 22:05:31  5-MIN KMKG 250305Z 18014KT 10SM FEW070 13/11 A2944 1080 86 1200 190/14 RMK AO2
14840KMKG MKG20011124221009711/24/01 22:10:31  5-MIN KMKG 250310Z 18014KT 10SM SCT070 13/11 A2944 1080 89 1100 190/14 RMK AO2
14840KMKG MKG20011124221510311/24/01 22:15:31  5-MIN KMKG 250315Z 19013G20KT 10SM BKN070 13/11 A2944 1080 89 1100 190/13G20 RMK AO2
14840KMKG MKG20011124222010311/24/01 22:20:31  5-MIN KMKG 250320Z 19013G20KT 10SM BKN070 13/11 A2944 1080 89 1100 190/13G20 RMK AO2
14840KMKG MKG20011124222509711/24/01 22:25:31  5-MIN KMKG 250325Z 18013KT 10SM BKN070 13/11 A2944 1080 86 1100 190/13 RMK AO2
14840KMKG MKG20011124223009711/24/01 22:30:31  5-MIN KMKG 250330Z 19012KT 10SM SCT070 13/11 A2945 1070 86 1100 190/12 RMK AO2
14840KMKG MKG20011124223509711/24/01 22:35:31  5-MIN KMKG 250335Z 19012KT 10SM SCT070 13/11 A2944 1070 86 1100 190/12 RMK AO2
14840KMKG MKG20011124224009711/24/01 22:40:31  5-MIN KMKG 250340Z 19011KT 10SM FEW070 13/11 A2944 1070 86 1100 190/11 RMK AO2
14840KMKG MKG20011124224509711/24/01 22:45:31  5-MIN KMKG 250345Z 18013KT 10SM FEW070 13/11 A2945 1070 86 1100 180/13 RMK AO2
14840KMKG MKG20011124225011111/24/01 22:50:31  5-MIN KMKG 250350Z 18012KT 10SM CLR 13/11 A2944 1070 86 1100 180/12 RMK AO2 SLP971 T01280106
14840KMKG MKG20011124225511711/24/01 22:55:31  5-MIN KMKG 250355Z 18013G18KT 10SM CLR 12/11 A2945 1070 89 1000 190/13G18 RMK AO2 SLP971 T01220106
14840KMKG MKG20011124230010011/24/01 23:00:31  5-MIN KMKG 250400Z 18014G18KT 10SM CLR 13/11 A2945 1070 86 1100 180/14G18 RMK AO2
14840KMKG MKG20011124230510011/24/01 23:05:31  5-MIN KMKG 250405Z 18016G21KT 10SM CLR 13/11 A2945 1070 86 1100 180/16G21 RMK AO2
14840KMKG MKG20011124231010011/24/01 23:10:31  5-MIN KMKG 250410Z 18014G21KT 10SM CLR 13/11 A2945 1070 86 1100 180/14G21 RMK AO2
14840KMKG MKG20011124231510311/24/01 23:15:31  5-MIN KMKG 250415Z 18015G22KT 10SM FEW040 13/11 A2945 1070 86 1100 180/15G22 RMK AO2
14840KMKG MKG20011124232010311/24/01 23:20:31  5-MIN KMKG 250420Z 18016G22KT 10SM FEW040 13/11 A2945 1070 86 1100 190/16G22 RMK AO2
14840KMKG MKG20011124232510311/24/01 23:25:31  5-MIN KMKG 250425Z 18016G20KT 10SM FEW040 13/11 A2945 1070 86 1100 190/16G20 RMK AO2
14840KMKG MKG20011124233010311/24/01 23:30:31  5-MIN KMKG 250430Z 18017G22KT 10SM FEW040 13/11 A2945 1070 86 1100 190/17G22 RMK AO2
14840KMKG MKG20011124233513511/24/01 23:35:31  5-MIN KMKG 250435Z 20022G29KT 10SM SCT036 SCT045 13/11 A2947 1050 86 1100 200/22G29 RMK AO2 PK WND 23029/0434 PRESRR
14840KMKG MKG20011124234013511/24/01 23:40:31  5-MIN KMKG 250440Z 19018G29KT 10SM SCT036 SCT043 BKN050 13/10 A2947 1050 83 1100 200/18G29 RMK AO2 PK WND 20029/0438
14840KMKG MKG20011124234513511/24/01 23:45:31  5-MIN KMKG 250445Z 19017G29KT 10SM FEW038 SCT047 BKN055 13/10 A2947 1050 83 1100 200/17G29 RMK AO2 PK WND 20029/0438
14840KMKG MKG20011124235015611/24/01 23:50:31  5-MIN KMKG 250450Z 19014KT 10SM FEW036 SCT045 BKN055 13/10 A2947 1050 83 1100 190/14 RMK AO2 PK WND 20029/0438 SLP980 T01280100 401670122
14840KMKG MKG20011124235516211/24/01 23:55:31  5-MIN KMKG 250455Z 19014G22KT 10SM FEW036 BKN044 OVC070 12/10 A2947 1050 86 1000 190/14G22 RMK AO2 PK WND 20029/0438 SLP980 T01220100 401670122
14840KMKG MKG20011125000011711/25/01 00:00:31  5-MIN KMKG 250500Z 19016G22KT 10SM FEW036 BKN047 OVC065 12/10 A2947 1040 86 1000 200/16G22 RMK AO2
14840KMKG MKG20011125000511711/25/01 00:05:31  5-MIN KMKG 250505Z 19015G22KT 10SM SCT043 BKN050 OVC065 12/09 A2948 1040 83 1000 190/15G22 RMK AO2
14840KMKG MKG20011125001011711/25/01 00:10:31  5-MIN KMKG 250510Z 20017G22KT 10SM FEW044 BKN055 OVC070 12/09 A2948 1040 83 1000 200/17G22 RMK AO2
14840KMKG MKG20011125001511711/25/01 00:15:31  5-MIN KMKG 250515Z 19013G21KT 10SM FEW044 BKN055 OVC090 12/09 A2948 1040 80 1000 190/13G21 RMK AO2
14840KMKG MKG20011125002011711/25/01 00:20:31  5-MIN KMKG 250520Z 20015G22KT 10SM FEW044 BKN050 OVC070 12/09 A2948 1040 80 1000 200/15G22 RMK AO2
14840KMKG MKG20011125002510911/25/01 00:25:31  5-MIN KMKG 250525Z 19016G22KT 10SM FEW046 OVC055 12/08 A2948 1040 80 900 190/16G22 RMK AO2
14840KMKG MKG20011125003009611/25/01 00:30:31  5-MIN KMKG 250530Z 19016KT 10SM OVC055 12/08 A2948 1040 80 900 200/16 RMK AO2
14840KMKG MKG20011125003509611/25/01 00:35:31  5-MIN KMKG 250535Z 19013KT 10SM OVC055 12/08 A2948 1040 77 900 200/13 RMK AO2
14840KMKG MKG20011125004009611/25/01 00:40:31  5-MIN KMKG 250540Z 19011KT 10SM OVC055 12/08 A2948 1040 80 900 200/11 RMK AO2
14840KMKG MKG20011125004509611/25/01 00:45:31  5-MIN KMKG 250545Z 19013KT 10SM OVC060 12/08 A2948 1040 77 900 200/13 RMK AO2
14840KMKG MKG20011125005014311/25/01 00:50:31  5-MIN KMKG 250550Z 19013G22KT 10SM OVC060 12/08 A2948 1040 77 900 200/13G22 RMK AO2 SLP982 60007 T01170078 10167 20117 53000
14840KMKG MKG20011125005514311/25/01 00:55:31  5-MIN KMKG 250555Z 19012G22KT 10SM OVC060 11/08 A2948 1040 80 900 200/12G22 RMK AO2 SLP983 60007 T01110078 10167 20111 51014
14840KMKG MKG20011125010010211/25/01 01:00:31  5-MIN KMKG 250600Z 19011G18KT 10SM OVC055 11/08 A2948 1040 80 900 190/11G18 RMK AO2
14840KMKG MKG20011125010509611/25/01 01:05:31  5-MIN KMKG 250605Z 19012KT 10SM OVC055 11/08 A2948 1040 80 900 190/12 RMK AO2
14840KMKG MKG20011125011010311/25/01 01:10:31  5-MIN KMKG 250610Z 19012KT 10SM BKN050 OVC060 11/08 A2947 1050 80 900 200/12 RMK AO2
14840KMKG MKG20011125011510911/25/01 01:15:31  5-MIN KMKG 250615Z 19014G18KT 10SM BKN050 OVC060 11/08 A2948 1040 80 900 200/14G18 RMK AO2
14840KMKG MKG20011125012009611/25/01 01:20:31  5-MIN KMKG 250620Z 19014KT 10SM OVC050 12/08 A2948 1040 77 900 190/14 RMK AO2
14840KMKG MKG20011125012509611/25/01 01:25:31  5-MIN KMKG 250625Z 18013KT 10SM OVC050 12/08 A2948 1040 77 900 190/13 RMK AO2
14840KMKG MKG20011125013009611/25/01 01:30:31  5-MIN KMKG 250630Z 18013KT 10SM OVC050 12/08 A2947 1050 77 900 180/13 RMK AO2
14840KMKG MKG20011125013511911/25/01 01:35:31  5-MIN KMKG 250635Z 17013KT 10SM -RA BKN050 OVC060 11/08 A2947 1040 80 900 180/13 RMK AO2 RAB34 P0000
14840KMKG MKG20011125014011911/25/01 01:40:31  5-MIN KMKG 250640Z 18012KT 10SM -RA BKN050 OVC060 11/08 A2948 1040 80 900 180/12 RMK AO2 RAB34 P0000
14840KMKG MKG20011125014511911/25/01 01:45:31  5-MIN KMKG 250645Z 18014KT 10SM -RA SCT050 OVC060 11/08 A2948 1040 80 900 180/14 RMK AO2 RAB34 P0000
14840KMKG MKG20011125015014111/25/01 01:50:31  5-MIN KMKG 250650Z 18013G18KT 10SM SCT050 OVC060 11/08 A2948 1040 80 900 180/13G18 RMK AO2 RAB34E47 SLP983 P0000 T01110078
14840KMKG MKG20011125015513511/25/01 01:55:31  5-MIN KMKG 250655Z 18013G18KT 10SM -RA OVC055 11/08 A2948 1040 80 900 180/13G18 RMK AO2 RAB34 SLP984 P0000 T01110078
14840KMKG MKG20011125020012811/25/01 02:00:31  5-MIN KMKG 250700Z 19013KT 10SM -RA SCT047 OVC060 11/08 A2948 1040 86 800 190/13 RMK AO2 CIG 049 RWY 14 P0000
14840KMKG MKG20011125020511311/25/01 02:05:31  5-MIN KMKG 250705Z 18014KT 10SM -RA BKN047 OVC060 11/08 A2948 1040 83 900 180/14 RMK AO2 P0000
14840KMKG MKG20011125021011311/25/01 02:10:31  5-MIN KMKG 250710Z 17012KT 10SM -RA BKN045 OVC060 11/08 A2948 1040 86 800 170/12 RMK AO2 P0000
14840KMKG MKG20011125021511911/25/01 02:15:31  5-MIN KMKG 250715Z 16013G19KT 10SM -RA BKN047 OVC055 11/08 A2948 1040 86 800 170/13G19 RMK AO2 P0000
14840KMKG MKG20011125022011911/25/01 02:20:31  5-MIN KMKG 250720Z 16011G19KT 10SM -RA BKN045 OVC050 11/08 A2948 1040 86 800 170/11G19 RMK AO2 P0000
14840KMKG MKG20011125022511211/25/01 02:25:31  5-MIN KMKG 250725Z 17010G19KT 10SM -RA OVC045 11/08 A2948 1040 86 800 170/10G19 RMK AO2 P0000
14840KMKG MKG20011125023011911/25/01 02:30:31  5-MIN KMKG 250730Z 17014G17KT 10SM -RA BKN042 OVC049 11/08 A2947 1050 83 900 170/14G17 RMK AO2 P0000
14840KMKG MKG20011125023511911/25/01 02:35:31  5-MIN KMKG 250735Z 17014G19KT 10SM -RA BKN042 OVC049 11/08 A2947 1050 80 900 170/14G19 RMK AO2 P0000
14840KMKG MKG20011125024011911/25/01 02:40:31  5-MIN KMKG 250740Z 18017G24KT 10SM -RA BKN040 OVC049 11/08 A2947 1040 80 900 180/17G24 RMK AO2 P0001
14840KMKG MKG20011125024514311/25/01 02:45:31  5-MIN KMKG 250745Z 18018G26KT 9SM -RA FEW028 BKN037 OVC050 11/08 A2948 1040 86 800 180/18G26 RMK AO2 PK WND 17026/0744 P0001
14840KMKG MKG20011125025016011/25/01 02:50:31  5-MIN KMKG 250750Z 19015G26KT 7SM -RA FEW021 SCT028 OVC037 11/08 A2949 1030 86 800 190/15G26 RMK AO2 PK WND 17026/0744 SLP986 P0003 T01060083
14840KMKG MKG20011125025516911/25/01 02:55:31  5-MIN KMKG 250755Z 20020G33KT 5SM RA BR SCT021 BKN037 OVC050 10/08 A2950 1020 89 700 200/20G33 RMK AO2 PK WND 20033/0752 PRESRR SLP990 P0004 T01000083
14840KMKG MKG20011125030014611/25/01 03:00:31  5-MIN KMKG 250800Z 20020G33KT 6SM -RA BR FEW021 BKN035 OVC050 09/08 A2950 1020 89 600 200/20G33 RMK AO2 PK WND 19027/0757 P0001
14840KMKG MKG20011125030514311/25/01 03:05:31  5-MIN KMKG 250805Z 20018G27KT 9SM -RA FEW021 SCT034 OVC044 09/08 A2950 1020 89 600 200/18G27 RMK AO2 PK WND 19027/0757 P0001
14840KMKG MKG20011125031013811/25/01 03:10:31  5-MIN KMKG 250810Z 19016KT 10SM -RA FEW021 SCT034 OVC046 09/08 A2950 1020 89 600 200/16 RMK AO2 PK WND 19027/0757 P0002
14840KMKG MKG20011125031514411/25/01 03:15:31  5-MIN KMKG 250815Z 20016G25KT 10SM -RA FEW021 SCT029 OVC046 09/08 A2950 1020 89 600 200/16G25 RMK AO2 PK WND 19027/0757 P0002
14840KMKG MKG20011125032014411/25/01 03:20:31  5-MIN KMKG 250820Z 20015G25KT 10SM -RA FEW021 SCT029 OVC046 09/08 A2950 1020 89 600 200/15G25 RMK AO2 PK WND 19027/0757 P0002
14840KMKG MKG20011125032514411/25/01 03:25:31  5-MIN KMKG 250825Z 20015G23KT 10SM -RA FEW022 BKN043 OVC050 09/08 A2950 1020 89 600 200/15G23 RMK AO2 PK WND 19027/0757 P0002
14840KMKG MKG20011125033014411/25/01 03:30:31  5-MIN KMKG 250830Z 19018G25KT 10SM -RA FEW022 SCT031 OVC047 09/08 A2950 1020 89 600 200/18G25 RMK AO2 PK WND 19027/0757 P0002
14840KMKG MKG20011125033514411/25/01 03:35:31  5-MIN KMKG 250835Z 19016G25KT 10SM -RA FEW020 SCT040 OVC047 09/08 A2950 1020 89 600 200/16G25 RMK AO2 PK WND 19027/0757 P0002
14840KMKG MKG20011125034013711/25/01 03:40:31  5-MIN KMKG 250840Z 20017G22KT 10SM -RA FEW020 OVC049 09/08 A2950 1020 89 600 200/17G22 RMK AO2 PK WND 19027/0757 P0002
14840KMKG MKG20011125034513711/25/01 03:45:31  5-MIN KMKG 250845Z 20021G28KT 10SM -RA FEW020 OVC047 09/08 A2950 1020 89 600 200/21G28 RMK AO2 PK WND 19028/0844 P0003
14840KMKG MKG20011125035016611/25/01 03:50:31  5-MIN KMKG 250850Z 19020G28KT 10SM -RA FEW020 OVC047 09/08 A2950 1020 89 600 200/20G28 RMK AO2 PK WND 19028/0847 SLP990 P0003 60007 T00940078 51014
14840KMKG MKG20011125035516611/25/01 03:55:31  5-MIN KMKG 250855Z 19018G28KT 10SM -RA FEW037 OVC047 09/08 A2950 1030 89 600 190/18G28 RMK AO2 PK WND 19028/0847 SLP989 P0003 60007 T00940078 50006
14840KMKG MKG20011125040012611/25/01 04:00:31  5-MIN KMKG 250900Z 19017G25KT 10SM -RA FEW030 SCT039 OVC047 09/08 A2950 1030 89 600 200/17G25 RMK AO2 P0001
14840KMKG MKG20011125040511911/25/01 04:05:31  5-MIN KMKG 250905Z 19014G23KT 10SM -RA FEW029 OVC043 09/08 A2950 1020 89 600 200/14G23 RMK AO2 P0001
14840KMKG MKG20011125041011911/25/01 04:10:31  5-MIN KMKG 250910Z 18012G22KT 10SM -RA FEW029 OVC043 09/08 A2950 1020 96 600 190/12G22 RMK AO2 P0002
14840KMKG MKG20011125041511711/25/01 04:15:31  5-MIN KMKG 250915Z 18014G22KT 8SM RA FEW029 OVC043 09/08 A2950 1030 96 600 190/14G22 RMK AO2 P0003
14840KMKG MKG20011125042011111/25/01 04:20:31  5-MIN KMKG 250920Z 18014KT 8SM RA FEW029 OVC041 09/08 A2949 1030 93 600 180/14 RMK AO2 P0004
14840KMKG MKG20011125042512511/25/01 04:25:31  5-MIN KMKG 250925Z 18015G20KT 9SM -RA FEW029 BKN041 OVC050 09/08 A2949 1030 93 600 180/15G20 RMK AO2 P0005
14840KMKG MKG20011125043011911/25/01 04:30:31  5-MIN KMKG 250930Z 18012G20KT 10SM -RA BKN041 OVC050 09/08 A2949 1030 93 600 190/12G20 RMK AO2 P0005
14840KMKG MKG20011125043512611/25/01 04:35:31  5-MIN KMKG 250935Z 18013G21KT 10SM -RA BKN041 BKN050 OVC075 09/08 A2949 1030 93 600 180/13G21 RMK AO2 P0005
14840KMKG MKG20011125044012611/25/01 04:40:31  5-MIN KMKG 250940Z 17014G21KT 10SM -RA FEW021 BKN041 OVC075 09/08 A2949 1030 93 700 180/14G21 RMK AO2 P0005
14840KMKG MKG20011125044512011/25/01 04:45:31  5-MIN KMKG 250945Z 18014KT 10SM -RA FEW021 BKN041 OVC049 09/08 A2949 1030 93 700 190/14 RMK AO2 P0005
14840KMKG MKG20011125045014311/25/01 04:50:31  5-MIN KMKG 250950Z 18016G21KT 10SM -RA FEW021 BKN041 OVC049 09/08 A2949 1030 93 700 190/16G21 RMK AO2 SLP986 P0005 T00940083
14840KMKG MKG20011125045514311/25/01 04:55:31  5-MIN KMKG 250955Z 19017G23KT 10SM -RA SCT021 BKN041 OVC049 09/08 A2949 1030 93 700 190/17G23 RMK AO2 SLP986 P0006 T00940083
14840KMKG MKG20011125050014411/25/01 05:00:31  5-MIN KMKG 251000Z 19018G26KT 10SM -RA SCT019 BKN027 OVC070 09/08 A2949 1030 93 700 190/18G26 RMK AO2 PK WND 20026/0956 P0000
14840KMKG MKG20011125050514411/25/01 05:05:31  5-MIN KMKG 251005Z 19019G26KT 10SM -RA BKN019 BKN027 OVC048 09/08 A2949 1030 93 600 190/19G26 RMK AO2 PK WND 20026/0956 P0000
14840KMKG MKG20011125051014411/25/01 05:10:31  5-MIN KMKG 251010Z 19018G29KT 10SM -RA BKN019 BKN025 OVC050 09/08 A2949 1030 93 600 190/18G29 RMK AO2 PK WND 19029/1006 P0000
14840KMKG MKG20011125051514411/25/01 05:15:31  5-MIN KMKG 251015Z 19021G29KT 10SM -RA FEW014 BKN019 OVC043 09/08 A2950 1030 93 600 190/21G29 RMK AO2 PK WND 19029/1006 P0000
14840KMKG MKG20011125052014411/25/01 05:20:31  5-MIN KMKG 251020Z 20016G26KT 10SM -RA FEW014 BKN019 OVC046 09/08 A2950 1020 93 600 200/16G26 RMK AO2 PK WND 19029/1006 P0000
14840KMKG MKG20011125052514411/25/01 05:25:31  5-MIN KMKG 251025Z 19019G28KT 10SM -RA BKN017 BKN026 OVC050 09/08 A2950 1020 89 600 200/19G28 RMK AO2 PK WND 19029/1006 P0000
14840KMKG MKG20011125053014411/25/01 05:30:31  5-MIN KMKG 251030Z 20016G28KT 10SM -RA BKN017 BKN028 OVC037 09/08 A2950 1020 93 600 200/16G28 RMK AO2 PK WND 19029/1006 P0000
14840KMKG MKG20011125053513811/25/01 05:35:31  5-MIN KMKG 251035Z 20020KT 10SM -RA SCT017 BKN023 OVC035 09/07 A2950 1020 89 600 210/20 RMK AO2 PK WND 19029/1006 P0000
14840KMKG MKG20011125054013911/25/01 05:40:31  5-MIN KMKG 251040Z 21018G22KT 10SM SCT019 OVC035 09/07 A2950 1020 89 600 210/18G22 RMK AO2 PK WND 19029/1006 RAE40 P0000
14840KMKG MKG20011125054513711/25/01 05:45:31  5-MIN KMKG 251045Z 20019G24KT 10SM -RA SCT019 OVC035 09/07 A2951 1020 89 600 200/19G24 RMK AO2 PK WND 19029/1006 P0000
14840KMKG MKG20011125055016111/25/01 05:50:31  5-MIN KMKG 251050Z 20020G27KT 10SM -RA FEW020 BKN035 OVC043 09/07 A2951 1010 89 600 210/20G27 RMK AO2 PK WND 19029/1006 SLP993 P0000 T00890072
14840KMKG MKG20011125055516111/25/01 05:55:31  5-MIN KMKG 251055Z 20019G27KT 10SM -RA FEW019 BKN036 OVC043 09/07 A2951 1010 89 600 210/19G27 RMK AO2 PK WND 19029/1006 SLP993 P0000 T00890072
14840KMKG MKG20011125060011911/25/01 06:00:31  5-MIN KMKG 251100Z 21017G24KT 10SM -RA FEW023 OVC036 09/07 A2951 1010 89 600 210/17G24 RMK AO2 P0000
14840KMKG MKG20011125060512611/25/01 06:05:31  5-MIN KMKG 251105Z 20014G21KT 10SM -RA FEW019 SCT028 OVC036 09/08 A2951 1010 93 600 210/14G21 RMK AO2 P0001
14840KMKG MKG20011125061012711/25/01 06:10:31  5-MIN KMKG 251110Z 20018G25KT 6SM RA BR FEW015 BKN030 OVC036 09/08 A2952 1010 93 600 210/18G25 RMK AO2 P0001
14840KMKG MKG20011125061514311/25/01 06:15:31  5-MIN KMKG 251115Z 21021G25KT 5SM -RA BR FEW015 BKN030 OVC038 08/08 A2952 1000 96 500 210/21G25 RMK AO2 CIG 022 RWY 14 P0002
14840KMKG MKG20011125062012511/25/01 06:20:31  5-MIN KMKG 251120Z 20018G25KT 8SM -RA FEW015 SCT023 OVC038 09/08 A2952 1010 93 600 210/18G25 RMK AO2 P0002
14840KMKG MKG20011125062512811/25/01 06:25:31  5-MIN KMKG 251125Z 20016G25KT 10SM FEW015 SCT023 OVC038 09/08 A2952 1000 93 500 210/16G25 RMK AO2 RAE23 P0002
14840KMKG MKG20011125063012211/25/01 06:30:31  5-MIN KMKG 251130Z 20017KT 10SM FEW015 BKN030 OVC043 09/07 A2952 1000 89 500 210/17 RMK AO2 RAE23 P0002
14840KMKG MKG20011125063512811/25/01 06:35:31  5-MIN KMKG 251135Z 20016G23KT 10SM FEW015 BKN026 OVC045 09/07 A2953 1000 89 500 210/16G23 RMK AO2 RAE23 P0002
14840KMKG MKG20011125064014611/25/01 06:40:31  5-MIN KMKG 251140Z 20018G26KT 10SM FEW020 BKN028 OVC045 09/07 A2953 1000 89 500 210/18G26 RMK AO2 PK WND 20026/1138 RAE23 P0002
14840KMKG MKG20011125064514511/25/01 06:45:31  5-MIN KMKG 251145Z 21018G26KT 10SM FEW017 BKN028 OVC055 09/07 A2953 990 89 500 210/18G26 RMK AO2 PK WND 20026/1143 RAE23 P0002
14840KMKG MKG20011125065020711/25/01 06:50:31  5-MIN KMKG 251150Z 21021G28KT 10SM FEW017 BKN044 OVC055 09/07 A2953 990 89 500 210/21G28 RMK AO2 PK WND 21028/1146 RAE23 CIG 030 RWY 14 SLP001 P0002 60015 70033 T00890072 10117 20083 50006
14840KMKG MKG20011125065520711/25/01 06:55:31  5-MIN KMKG 251155Z 21022G28KT 10SM FEW017 BKN044 OVC055 09/07 A2953 990 89 500 210/22G28 RMK AO2 PK WND 21028/1146 RAE23 CIG 032 RWY 14 SLP002 P0002 60015 70033 T00890072 10117 20083 53013
14840KMKG MKG20011125070013011/25/01 07:00:31  5-MIN KMKG 251200Z 21019G26KT 10SM FEW017 SCT031 OVC055 09/07 A2954 990 89 500 210/19G26 RMK AO2 CIG 034 RWY 14
14840KMKG MKG20011125070510911/25/01 07:05:31  5-MIN KMKG 251205Z 21019KT 10SM SCT015 BKN031 OVC055 09/07 A2954 990 89 500 210/19 RMK AO2
14840KMKG MKG20011125071014811/25/01 07:10:31  5-MIN KMKG 251210Z 21019G27KT 10SM SCT015 SCT030 OVC055 09/07 A2954 980 89 500 210/19G27 RMK AO2 PK WND 21027/1208 CIG 032 RWY 14
14840KMKG MKG20011125071512611/25/01 07:15:31  5-MIN KMKG 251215Z 21023G27KT 10SM FEW015 OVC055 08/07 A2955 980 93 500 210/23G27 RMK AO2 PK WND 21027/1208
14840KMKG MKG20011125072013311/25/01 07:20:31  5-MIN KMKG 251220Z 21021G27KT 10SM FEW015 SCT042 OVC055 08/07 A2955 970 93 400 210/21G27 RMK AO2 PK WND 22027/1217
14840KMKG MKG20011125072513311/25/01 07:25:31  5-MIN KMKG 251225Z 21018G27KT 10SM FEW015 SCT039 OVC050 08/07 A2955 970 93 400 220/18G27 RMK AO2 PK WND 22027/1217
14840KMKG MKG20011125073013311/25/01 07:30:31  5-MIN KMKG 251230Z 21022G26KT 10SM FEW017 SCT039 OVC050 08/07 A2955 970 93 400 210/22G26 RMK AO2 PK WND 22027/1217
14840KMKG MKG20011125073513311/25/01 07:35:31  5-MIN KMKG 251235Z 21019G26KT 10SM FEW017 SCT039 OVC050 08/07 A2956 970 89 400 220/19G26 RMK AO2 PK WND 22027/1217
14840KMKG MKG20011125074013311/25/01 07:40:31  5-MIN KMKG 251240Z 21021G26KT 10SM SCT017 BKN039 OVC050 08/07 A2956 960 89 400 220/21G26 RMK AO2 PK WND 22027/1217
14840KMKG MKG20011125074513311/25/01 07:45:31  5-MIN KMKG 251245Z 21019G26KT 10SM BKN019 BKN039 OVC050 09/07 A2956 960 89 500 210/19G26 RMK AO2 PK WND 22027/1217
14840KMKG MKG20011125075015011/25/01 07:50:31  5-MIN KMKG 251250Z 21024G29KT 10SM SCT017 BKN037 OVC048 09/07 A2956 960 89 500 210/24G29 RMK AO2 PK WND 20029/1250 SLP012 T00890072
14840KMKG MKG20011125075515011/25/01 07:55:31  5-MIN KMKG 251255Z 21021G29KT 10SM SCT017 BKN022 OVC048 09/07 A2956 960 86 500 220/21G29 RMK AO2 PK WND 20029/1250 SLP012 T00890067
14840KMKG MKG20011125080013311/25/01 08:00:31  5-MIN KMKG 251300Z 22023G27KT 10SM SCT019 BKN024 OVC050 09/07 A2957 960 86 500 220/23G27 RMK AO2 PK WND 22027/1300
14840KMKG MKG20011125080513311/25/01 08:05:31  5-MIN KMKG 251305Z 21019G27KT 10SM SCT019 BKN023 OVC050 09/07 A2957 950 89 500 220/19G27 RMK AO2 PK WND 22027/1300
14840KMKG MKG20011125081013311/25/01 08:10:31  5-MIN KMKG 251310Z 21021G25KT 10SM SCT017 BKN023 OVC034 09/07 A2958 950 89 500 210/21G25 RMK AO2 PK WND 22027/1300
14840KMKG MKG20011125081513311/25/01 08:15:31  5-MIN KMKG 251315Z 21021G27KT 10SM BKN017 BKN023 OVC029 09/07 A2958 950 86 500 210/21G27 RMK AO2 PK WND 21027/1314
14840KMKG MKG20011125082013311/25/01 08:20:31  5-MIN KMKG 251320Z 21021G28KT 10SM BKN017 BKN023 OVC029 09/07 A2959 940 86 500 220/21G28 RMK AO2 PK WND 21028/1318
14840KMKG MKG20011125082511911/25/01 08:25:31  5-MIN KMKG 251325Z 21020G28KT 10SM OVC017 09/07 A2959 940 89 500 210/20G28 RMK AO2 PK WND 21028/1318
14840KMKG MKG20011125083012611/25/01 08:30:31  5-MIN KMKG 251330Z 21022G27KT 10SM BKN017 OVC022 09/07 A2959 940 89 500 210/22G27 RMK AO2 PK WND 21028/1318
14840KMKG MKG20011125083511911/25/01 08:35:31  5-MIN KMKG 251335Z 21023G28KT 10SM OVC017 09/07 A2960 930 89 500 210/23G28 RMK AO2 PK WND 21028/1334
14840KMKG MKG20011125084011911/25/01 08:40:31  5-MIN KMKG 251340Z 22020G28KT 10SM OVC017 09/07 A2960 930 89 500 220/20G28 RMK AO2 PK WND 21028/1334
14840KMKG MKG20011125084511911/25/01 08:45:31  5-MIN KMKG 251345Z 21022G27KT 10SM OVC015 09/07 A2960 920 89 500 220/22G27 RMK AO2 PK WND 21028/1334
14840KMKG MKG20011125085013611/25/01 08:50:31  5-MIN KMKG 251350Z 22021G27KT 10SM OVC015 09/07 A2961 920 89 400 220/21G27 RMK AO2 PK WND 21028/1334 SLP027 T00890072
14840KMKG MKG20011125085513611/25/01 08:55:31  5-MIN KMKG 251355Z 21018G26KT 10SM OVC015 09/07 A2961 920 89 400 220/18G26 RMK AO2 PK WND 21028/1334 SLP029 T00890072
14840KMKG MKG20011125090011911/25/01 09:00:31  5-MIN KMKG 251400Z 22021G27KT 10SM OVC015 09/07 A2962 910 89 400 220/21G27 RMK AO2 PK WND 22027/1359
14840KMKG MKG20011125090511911/25/01 09:05:31  5-MIN KMKG 251405Z 21019G27KT 10SM OVC015 09/08 A2962 910 93 400 220/19G27 RMK AO2 PK WND 22027/1359
14840KMKG MKG20011125091011911/25/01 09:10:31  5-MIN KMKG 251410Z 22022G33KT 10SM OVC015 09/07 A2963 900 89 400 220/22G33 RMK AO2 PK WND 22033/1410
14840KMKG MKG20011125091511911/25/01 09:15:31  5-MIN KMKG 251415Z 22017G33KT 10SM OVC015 09/07 A2963 900 89 400 220/17G33 RMK AO2 PK WND 22033/1410
14840KMKG MKG20011125092011911/25/01 09:20:31  5-MIN KMKG 251420Z 22023G28KT 10SM OVC015 09/07 A2963 900 89 400 220/23G28 RMK AO2 PK WND 22033/1410
14840KMKG MKG20011125092513411/25/01 09:25:31  5-MIN KMKG 251425Z 22022G31KT 8SM -RA OVC015 09/08 A2964 890 93 400 220/22G31 RMK AO2 PK WND 22033/1410 RAB25 P0000
14840KMKG MKG20011125093014411/25/01 09:30:31  5-MIN KMKG 251430Z 22022G32KT 6SM -RA BR BKN015 OVC024 09/08 A2963 900 93 400 220/22G32 RMK AO2 PK WND 22033/1410 RAB25 P0000
14840KMKG MKG20011125093514111/25/01 09:35:31  5-MIN KMKG 251435Z 21019G32KT 7SM -RA BKN015 OVC024 09/08 A2964 890 93 400 220/19G32 RMK AO2 PK WND 22033/1410 RAB25 P0000
14840KMKG MKG20011125094014111/25/01 09:40:31  5-MIN KMKG 251440Z 21022G29KT 10SM BKN015 OVC024 09/07 A2964 890 89 400 220/22G29 RMK AO2 PK WND 22033/1410 RAB25E37 P0000
14840KMKG MKG20011125094514111/25/01 09:45:31  5-MIN KMKG 251445Z 21020G29KT 10SM BKN015 OVC022 09/08 A2964 890 93 400 220/20G29 RMK AO2 PK WND 22033/1410 RAB25E37 P0000
14840KMKG MKG20011125095017011/25/01 09:50:31  5-MIN KMKG 251450Z 22019G25KT 10SM BKN015 OVC022 09/07 A2965 880 89 400 220/19G25 RMK AO2 PK WND 22033/1410 RAB25E37 SLP041 P0000 60000 T00890072 53013
14840KMKG MKG20011125095517011/25/01 09:55:31  5-MIN KMKG 251455Z 21021G27KT 10SM BKN015 OVC022 09/08 A2965 880 93 400 210/21G27 RMK AO2 PK WND 22033/1410 RAB25E37 SLP041 P0000 60000 T00890078 53038
14840KMKG MKG20011125100011911/25/01 10:00:31  5-MIN KMKG 251500Z 21024G28KT 10SM OVC017 09/07 A2965 880 89 400 210/24G28 RMK AO2 PK WND 20028/1456
14840KMKG MKG20011125100512611/25/01 10:05:31  5-MIN KMKG 251505Z 21020G29KT 10SM BKN017 OVC023 09/07 A2965 880 89 400 220/20G29 RMK AO2 PK WND 21029/1503
14840KMKG MKG20011125101012611/25/01 10:10:31  5-MIN KMKG 251510Z 21022G29KT 10SM BKN015 OVC023 09/07 A2965 880 89 400 220/22G29 RMK AO2 PK WND 21029/1503
14840KMKG MKG20011125101512611/25/01 10:15:31  5-MIN KMKG 251515Z 21023G28KT 10SM BKN015 OVC021 09/07 A2966 870 89 400 220/23G28 RMK AO2 PK WND 21029/1503
14840KMKG MKG20011125102013311/25/01 10:20:31  5-MIN KMKG 251520Z 21022G28KT 10SM BKN015 BKN021 OVC048 08/07 A2966 870 93 300 220/22G28 RMK AO2 PK WND 21029/1503
14840KMKG MKG20011125102513311/25/01 10:25:31  5-MIN KMKG 251525Z 22021G28KT 10SM BKN015 BKN022 OVC048 08/07 A2967 860 89 300 220/21G28 RMK AO2 PK WND 21029/1503
14840KMKG MKG20011125103012611/25/01 10:30:31  5-MIN KMKG 251530Z 23022G30KT 10SM BKN013 OVC048 09/07 A2968 860 89 400 230/22G30 RMK AO2 PK WND 23030/1529
14840KMKG MKG20011125103511911/25/01 10:35:31  5-MIN KMKG 251535Z 22022G30KT 10SM OVC013 08/07 A2968 850 89 300 220/22G30 RMK AO2 PK WND 23030/1529
14840KMKG MKG20011125104012611/25/01 10:40:31  5-MIN KMKG 251540Z 22020G29KT 10SM OVC015 08/07 A2969 850 89 300 220/20G29 RMK AO2 PK WND 23030/1529 PRESRR
14840KMKG MKG20011125104512611/25/01 10:45:31  5-MIN KMKG 251545Z 21020G27KT 10SM OVC015 08/07 A2969 840 89 300 220/20G27 RMK AO2 PK WND 23030/1529 PRESRR
14840KMKG MKG20011125105013611/25/01 10:50:31  5-MIN KMKG 251550Z 21023G30KT 10SM OVC015 08/06 A2969 840 86 300 210/23G30 RMK AO2 PK WND 22030/1550 SLP057 T00830061
14840KMKG MKG20011125105513611/25/01 10:55:31  5-MIN KMKG 251555Z 21018G30KT 10SM OVC015 08/06 A2970 840 82 300 210/18G30 RMK AO2 PK WND 22030/1550 SLP059 T00830056
14840KMKG MKG20011125110011911/25/01 11:00:31  5-MIN KMKG 251600Z 22018G26KT 10SM OVC015 08/06 A2970 830 86 200 220/18G26 RMK AO2 PK WND 22026/1557
14840KMKG MKG20011125110511911/25/01 11:05:31  5-MIN KMKG 251605Z 22021G26KT 10SM OVC015 08/06 A2971 830 86 200 220/21G26 RMK AO2 PK WND 22026/1557
14840KMKG MKG20011125111011911/25/01 11:10:31  5-MIN KMKG 251610Z 21018G25KT 10SM OVC015 08/06 A2971 820 86 200 210/18G25 RMK AO2 PK WND 22026/1557
14840KMKG MKG20011125111511911/25/01 11:15:31  5-MIN KMKG 251615Z 22022G27KT 10SM OVC015 08/06 A2971 830 86 200 220/22G27 RMK AO2 PK WND 21027/1614
14840KMKG MKG20011125112011911/25/01 11:20:31  5-MIN KMKG 251620Z 21018G27KT 10SM OVC017 08/06 A2971 820 86 200 220/18G27 RMK AO2 PK WND 21027/1614
14840KMKG MKG20011125112511911/25/01 11:25:31  5-MIN KMKG 251625Z 22023G26KT 10SM OVC017 07/05 A2972 820 86 100 220/23G26 RMK AO2 PK WND 22028/1623
14840KMKG MKG20011125113011911/25/01 11:30:31  5-MIN KMKG 251630Z 22023G31KT 10SM OVC017 07/05 A2972 810 86 100 230/23G31 RMK AO2 PK WND 21031/1628
14840KMKG MKG20011125113511911/25/01 11:35:31  5-MIN KMKG 251635Z 22019G31KT 10SM OVC017 07/04 A2972 810 82 100 220/19G31 RMK AO2 PK WND 21031/1628
14840KMKG MKG20011125114011911/25/01 11:40:31  5-MIN KMKG 251640Z 23019G26KT 10SM OVC017 07/04 A2972 810 82 100 230/19G26 RMK AO2 PK WND 21031/1628
14840KMKG MKG20011125114511911/25/01 11:45:31  5-MIN KMKG 251645Z 22018G24KT 10SM OVC017 07/04 A2973 810 82 100 230/18G24 RMK AO2 PK WND 21031/1628
14840KMKG MKG20011125115013611/25/01 11:50:31  5-MIN KMKG 251650Z 22015G24KT 10SM OVC017 07/05 A2973 810 86 100 230/15G24 RMK AO2 PK WND 21031/1628 SLP069 T00720050
14840KMKG MKG20011125115513611/25/01 11:55:31  5-MIN KMKG 251655Z 21020G27KT 10SM OVC017 07/05 A2973 810 86 100 220/20G27 RMK AO2 PK WND 21031/1628 SLP069 T00720050
14840KMKG MKG20011125120010111/25/01 12:00:31  5-MIN KMKG 251700Z 21017G27KT 10SM OVC017 07/05 A2973 810 86 100 220/17G27 RMK AO2
14840KMKG MKG20011125120510111/25/01 12:05:31  5-MIN KMKG 251705Z 21019G24KT 10SM OVC017 07/04 A2973 810 82 100 210/19G24 RMK AO2
14840KMKG MKG20011125121010111/25/01 12:10:31  5-MIN KMKG 251710Z 22017G24KT 10SM OVC017 07/05 A2973 810 86 100 220/17G24 RMK AO2
14840KMKG MKG20011125121511911/25/01 12:15:31  5-MIN KMKG 251715Z 20020G26KT 10SM OVC017 07/05 A2973 800 86 100 210/20G26 RMK AO2 PK WND 20026/1715
14840KMKG MKG20011125122011911/25/01 12:20:31  5-MIN KMKG 251720Z 20019G26KT 10SM OVC017 07/05 A2973 800 86 100 210/19G26 RMK AO2 PK WND 20026/1715
14840KMKG MKG20011125122511911/25/01 12:25:31  5-MIN KMKG 251725Z 22020G25KT 10SM OVC017 07/04 A2974 800 82 100 220/20G25 RMK AO2 PK WND 20026/1715
14840KMKG MKG20011125123011911/25/01 12:30:31  5-MIN KMKG 251730Z 22020G28KT 10SM OVC017 07/04 A2974 800 82 100 220/20G28 RMK AO2 PK WND 21028/1727
14840KMKG MKG20011125123511911/25/01 12:35:31  5-MIN KMKG 251735Z 22020G28KT 10SM OVC017 07/04 A2974 790 82 100 230/20G28 RMK AO2 PK WND 21028/1727
14840KMKG MKG20011125124011911/25/01 12:40:31  5-MIN KMKG 251740Z 22021G31KT 10SM OVC017 07/04 A2974 800 82 100 220/21G31 RMK AO2 PK WND 22031/1740
14840KMKG MKG20011125124511911/25/01 12:45:31  5-MIN KMKG 251745Z 23019G31KT 10SM OVC017 07/04 A2975 790 82 100 230/19G31 RMK AO2 PK WND 22031/1740
14840KMKG MKG20011125125016711/25/01 12:50:31  5-MIN KMKG 251750Z 22018G23KT 10SM BKN017 OVC024 07/04 A2975 790 82 100 220/18G23 RMK AO2 PK WND 22031/1740 SLP076 60000 T00720044 10089 20072 53038
14840KMKG MKG20011125125516711/25/01 12:55:31  5-MIN KMKG 251755Z 22015G25KT 10SM BKN017 OVC024 07/04 A2975 790 82 100 230/15G25 RMK AO2 PK WND 22031/1740 SLP077 60000 T00720044 10089 20072 51034
14840KMKG MKG20011125130010811/25/01 13:00:31  5-MIN KMKG 251800Z 22018G25KT 10SM BKN017 OVC024 07/04 A2976 780 82 100 230/18G25 RMK AO2
14840KMKG MKG20011125130511911/25/01 13:05:31  5-MIN KMKG 251805Z 22019G28KT 10SM OVC017 07/04 A2976 780 82 100 230/19G28 RMK AO2 PK WND 22028/1804
14840KMKG MKG20011125131011911/25/01 13:10:31  5-MIN KMKG 251810Z 22017G28KT 10SM OVC017 07/04 A2977 770 82 100 230/17G28 RMK AO2 PK WND 22028/1804
14840KMKG MKG20011125131512611/25/01 13:15:31  5-MIN KMKG 251815Z 22023G26KT 10SM BKN017 OVC025 07/04 A2977 770 79 100 220/23G26 RMK AO2 PK WND 22028/1804
14840KMKG MKG20011125132012611/25/01 13:20:31  5-MIN KMKG 251820Z 22019G26KT 10SM BKN017 OVC025 07/04 A2977 770 79 100 230/19G26 RMK AO2 PK WND 22028/1804
14840KMKG MKG20011125132511711/25/01 13:25:31  5-MIN KMKG 251825Z 23020G29KT 10SM OVC017 07/04 A2977 770 82 0 240/20G29 RMK AO2 PK WND 22029/1822
14840KMKG MKG20011125133011911/25/01 13:30:31  5-MIN KMKG 251830Z 23016G29KT 10SM OVC019 07/04 A2977 770 79 100 240/16G29 RMK AO2 PK WND 22029/1822
14840KMKG MKG20011125133511911/25/01 13:35:31  5-MIN KMKG 251835Z 21020G26KT 10SM OVC019 07/04 A2977 770 79 100 220/20G26 RMK AO2 PK WND 22029/1822
14840KMKG MKG20011125134011711/25/01 13:40:31  5-MIN KMKG 251840Z 23018G28KT 10SM OVC019 07/04 A2978 760 82 0 240/18G28 RMK AO2 PK WND 22029/1822
14840KMKG MKG20011125134512411/25/01 13:45:31  5-MIN KMKG 251845Z 24016G28KT 10SM BKN019 OVC024 07/04 A2978 760 82 0 240/16G28 RMK AO2 PK WND 22029/1822
14840KMKG MKG20011125135014711/25/01 13:50:31  5-MIN KMKG 251850Z 22018G26KT 9SM FEW013 BKN017 OVC024 07/04 A2978 760 86 0 230/18G26 RMK AO2 PK WND 22029/1822 SLP088 T00670044
14840KMKG MKG20011125135516911/25/01 13:55:31  5-MIN KMKG 251855Z 23017G26KT 6SM -RA BR SCT014 BKN019 OVC024 06/05 A2979 750 93 -100 230/17G26 RMK AO2 PK WND 22029/1822 RAB52 SLP090 P0000 T00610050
14840KMKG MKG20011125140013911/25/01 14:00:31  5-MIN KMKG 251900Z 22022G27KT 5SM -RA BR SCT014 OVC019 06/05 A2979 750 93 -100 220/22G27 RMK AO2 PK WND 21027/1900 P0000
14840KMKG MKG20011125140513911/25/01 14:05:31  5-MIN KMKG 251905Z 22020G30KT 6SM -RA BR FEW012 OVC018 06/05 A2979 750 93 -100 230/20G30 RMK AO2 PK WND 22030/1901 P0000
14840KMKG MKG20011125141012911/25/01 14:10:31  5-MIN KMKG 251910Z 22016G30KT 7SM -RA OVC016 06/05 A2980 740 93 -100 230/16G30 RMK AO2 PK WND 22030/1901 P0000
14840KMKG MKG20011125141512911/25/01 14:15:31  5-MIN KMKG 251915Z 23018G25KT 7SM -RA OVC016 06/05 A2980 750 93 -100 230/18G25 RMK AO2 PK WND 22030/1901 P0000
14840KMKG MKG20011125142013211/25/01 14:20:31  5-MIN KMKG 251920Z 23018G25KT 5SM -RA BR OVC016 06/05 A2980 740 93 -100 230/18G25 RMK AO2 PK WND 22030/1901 P0000
14840KMKG MKG20011125142513211/25/01 14:25:31  5-MIN KMKG 251925Z 23012G25KT 4SM -RA BR OVC018 06/05 A2980 740 93 -100 230/12G25 RMK AO2 PK WND 22030/1901 P0000
14840KMKG MKG20011125143013211/25/01 14:30:31  5-MIN KMKG 251930Z 24016G21KT 4SM -RA BR OVC018 06/05 A2980 740 93 -100 240/16G21 RMK AO2 PK WND 22030/1901 P0000
14840KMKG MKG20011125143513211/25/01 14:35:31  5-MIN KMKG 251935Z 23016G23KT 5SM -RA BR OVC018 06/05 A2980 740 93 -100 230/16G23 RMK AO2 PK WND 22030/1901 P0000
14840KMKG MKG20011125144013211/25/01 14:40:31  5-MIN KMKG 251940Z 23017G23KT 4SM -RA BR OVC018 06/05 A2980 740 93 -100 240/17G23 RMK AO2 PK WND 22030/1901 P0000
14840KMKG MKG20011125144513211/25/01 14:45:31  5-MIN KMKG 251945Z 23014G23KT 6SM -RA BR OVC018 06/04 A2980 740 89 -100 240/14G23 RMK AO2 PK WND 22030/1901 P0000
14840KMKG MKG20011125145014911/25/01 14:50:31  5-MIN KMKG 251950Z 24016G22KT 10SM OVC018 06/04 A2981 740 89 -100 240/16G22 RMK AO2 PK WND 22030/1901 RAE49 SLP096 P0000 T00610044
14840KMKG MKG20011125145514911/25/01 14:55:31  5-MIN KMKG 251955Z 23018G23KT 10SM OVC018 06/04 A2981 730 89 -100 240/18G23 RMK AO2 PK WND 22030/1901 RAE49 SLP098 P0000 T00610044
14840KMKG MKG20011125150010111/25/01 15:00:31  5-MIN KMKG 252000Z 22019G23KT 9SM OVC018 06/04 A2981 730 89 -100 230/19G23 RMK AO2
14840KMKG MKG20011125150510111/25/01 15:05:31  5-MIN KMKG 252005Z 23015G23KT 9SM OVC016 06/04 A2982 730 89 -100 240/15G23 RMK AO2
14840KMKG MKG20011125151010211/25/01 15:10:31  5-MIN KMKG 252010Z 24013G20KT 10SM OVC016 06/04 A2982 730 89 -100 240/13G20 RMK AO2
14840KMKG MKG20011125151509911/25/01 15:15:31  5-MIN KMKG 252015Z 23019G24KT 10SM OVC016 07/04 A2982 720 86 0 230/19G24 RMK AO2
14840KMKG MKG20011125152011711/25/01 15:20:31  5-MIN KMKG 252020Z 23019G29KT 10SM OVC016 07/04 A2982 720 82 0 240/19G29 RMK AO2 PK WND 21029/2016
14840KMKG MKG20011125152511711/25/01 15:25:31  5-MIN KMKG 252025Z 24018G29KT 10SM OVC016 07/04 A2983 710 82 0 250/18G29 RMK AO2 PK WND 21029/2016
14840KMKG MKG20011125153011711/25/01 15:30:31  5-MIN KMKG 252030Z 22018G26KT 10SM OVC016 07/04 A2983 710 82 0 230/18G26 RMK AO2 PK WND 21029/2016
14840KMKG MKG20011125153511711/25/01 15:35:31  5-MIN KMKG 252035Z 23017G27KT 10SM OVC016 07/04 A2984 710 86 0 230/17G27 RMK AO2 PK WND 21029/2016
14840KMKG MKG20011125154011711/25/01 15:40:31  5-MIN KMKG 252040Z 22020G27KT 10SM OVC016 07/04 A2984 710 86 0 230/20G27 RMK AO2 PK WND 21029/2016
14840KMKG MKG20011125154511711/25/01 15:45:31  5-MIN KMKG 252045Z 23015G25KT 10SM OVC016 07/04 A2984 700 82 0 230/15G25 RMK AO2 PK WND 21029/2016
14840KMKG MKG20011125155014611/25/01 15:50:31  5-MIN KMKG 252050Z 23020G23KT 10SM OVC016 07/04 A2984 700 82 0 240/20G23 RMK AO2 PK WND 21029/2016 SLP110 60000 T00670039 51034
14840KMKG MKG20011125155514911/25/01 15:55:31  5-MIN KMKG 252055Z 24014G23KT 10SM OVC016 07/04 A2985 700 82 -100 240/14G23 RMK AO2 PK WND 21029/2016 SLP111 60000 T00670039 52032
14840KMKG MKG20011125160009911/25/01 16:00:31  5-MIN KMKG 252100Z 23018G21KT 10SM OVC016 07/04 A2985 700 82 0 230/18G21 RMK AO2
14840KMKG MKG20011125160510211/25/01 16:05:31  5-MIN KMKG 252105Z 23017G22KT 10SM OVC018 07/04 A2985 690 82 -100 230/17G22 RMK AO2
14840KMKG MKG20011125161010211/25/01 16:10:31  5-MIN KMKG 252110Z 23017G25KT 10SM OVC018 07/04 A2986 690 82 -100 240/17G25 RMK AO2
14840KMKG MKG20011125161510211/25/01 16:15:31  5-MIN KMKG 252115Z 23019G25KT 10SM OVC018 06/03 A2986 690 82 -100 230/19G25 RMK AO2
14840KMKG MKG20011125162010211/25/01 16:20:31  5-MIN KMKG 252120Z 23016G23KT 10SM OVC018 06/03 A2986 680 82 -100 230/16G23 RMK AO2
14840KMKG MKG20011125162510211/25/01 16:25:31  5-MIN KMKG 252125Z 24018G22KT 10SM OVC018 06/03 A2987 680 82 -100 250/18G22 RMK AO2
14840KMKG MKG20011125163010211/25/01 16:30:31  5-MIN KMKG 252130Z 24014G24KT 10SM OVC018 06/03 A2987 680 82 -100 240/14G24 RMK AO2
14840KMKG MKG20011125163510211/25/01 16:35:31  5-MIN KMKG 252135Z 24016G24KT 10SM OVC018 06/03 A2987 680 82 -100 240/16G24 RMK AO2
14840KMKG MKG20011125164010211/25/01 16:40:31  5-MIN KMKG 252140Z 24013G21KT 10SM OVC018 06/03 A2988 670 82 -100 240/13G21 RMK AO2
14840KMKG MKG20011125164510211/25/01 16:45:31  5-MIN KMKG 252145Z 24013G21KT 10SM OVC018 06/04 A2988 670 86 -200 240/13G21 RMK AO2
14840KMKG MKG20011125165011911/25/01 16:50:31  5-MIN KMKG 252150Z 25015G23KT 10SM OVC018 06/03 A2988 660 82 -200 250/15G23 RMK AO2 SLP123 T00610033
14840KMKG MKG20011125165511911/25/01 16:55:31  5-MIN KMKG 252155Z 25016G23KT 10SM OVC018 06/03 A2988 660 82 -200 250/16G23 RMK AO2 SLP123 T00610033
14840KMKG MKG20011125170010211/25/01 17:00:31  5-MIN KMKG 252200Z 25013G22KT 10SM OVC018 06/03 A2989 660 82 -200 250/13G22 RMK AO2
14840KMKG MKG20011125170510211/25/01 17:05:31  5-MIN KMKG 252205Z 25017G23KT 10SM OVC020 06/03 A2989 660 82 -200 250/17G23 RMK AO2
14840KMKG MKG20011125171012011/25/01 17:10:31  5-MIN KMKG 252210Z 25016G26KT 10SM OVC020 06/03 A2989 650 82 -200 250/16G26 RMK AO2 PK WND 25026/2206
14840KMKG MKG20011125171512011/25/01 17:15:31  5-MIN KMKG 252215Z 24018G26KT 10SM OVC020 06/03 A2990 650 79 -200 250/18G26 RMK AO2 PK WND 24026/2214
14840KMKG MKG20011125172012011/25/01 17:20:31  5-MIN KMKG 252220Z 25019G26KT 10SM OVC020 06/03 A2991 640 79 -200 250/19G26 RMK AO2 PK WND 24026/2214
14840KMKG MKG20011125172512011/25/01 17:25:31  5-MIN KMKG 252225Z 24016G23KT 10SM OVC020 06/03 A2991 640 79 -200 240/16G23 RMK AO2 PK WND 24026/2214
14840KMKG MKG20011125173012711/25/01 17:30:31  5-MIN KMKG 252230Z 24017G25KT 10SM OVC020 06/03 A2992 630 79 -200 250/17G25 RMK AO2 PK WND 24026/2214 PRESRR
14840KMKG MKG20011125173512011/25/01 17:35:31  5-MIN KMKG 252235Z 24019G25KT 10SM OVC020 06/03 A2992 630 79 -200 250/19G25 RMK AO2 PK WND 24026/2214
14840KMKG MKG20011125174012011/25/01 17:40:31  5-MIN KMKG 252240Z 25014G25KT 10SM OVC020 06/03 A2992 630 79 -200 250/14G25 RMK AO2 PK WND 24026/2214
14840KMKG MKG20011125174512011/25/01 17:45:31  5-MIN KMKG 252245Z 23016G22KT 10SM OVC020 06/03 A2992 630 79 -200 240/16G22 RMK AO2 PK WND 24026/2214
14840KMKG MKG20011125175013711/25/01 17:50:31  5-MIN KMKG 252250Z 24012G22KT 10SM OVC020 06/03 A2992 630 82 -200 240/12G22 RMK AO2 PK WND 24026/2214 SLP137 T00610033
14840KMKG MKG20011125175513711/25/01 17:55:31  5-MIN KMKG 252255Z 24013G18KT 10SM OVC020 06/03 A2993 620 79 -200 240/13G18 RMK AO2 PK WND 24026/2214 SLP139 T00610028
14840KMKG MKG20011125180010211/25/01 18:00:31  5-MIN KMKG 252300Z 24015G22KT 10SM OVC018 06/03 A2993 620 79 -200 240/15G22 RMK AO2
14840KMKG MKG20011125180510211/25/01 18:05:31  5-MIN KMKG 252305Z 25015G22KT 10SM OVC018 06/03 A2993 620 79 -200 250/15G22 RMK AO2
14840KMKG MKG20011125181010211/25/01 18:10:31  5-MIN KMKG 252310Z 24011G22KT 10SM OVC018 06/03 A2994 610 79 -200 250/11G22 RMK AO2
14840KMKG MKG20011125181510211/25/01 18:15:31  5-MIN KMKG 252315Z 25016G20KT 10SM OVC018 06/03 A2994 610 79 -200 250/16G20 RMK AO2
14840KMKG MKG20011125182010211/25/01 18:20:31  5-MIN KMKG 252320Z 25014G20KT 10SM OVC018 06/03 A2994 610 82 -300 250/14G20 RMK AO2
14840KMKG MKG20011125182509611/25/01 18:25:31  5-MIN KMKG 252325Z 24013KT 10SM OVC018 06/03 A2995 610 79 -200 240/13 RMK AO2
14840KMKG MKG20011125183010211/25/01 18:30:31  5-MIN KMKG 252330Z 25016G23KT 10SM OVC018 06/03 A2995 600 82 -300 260/16G23 RMK AO2
14840KMKG MKG20011125183510211/25/01 18:35:31  5-MIN KMKG 252335Z 26014G23KT 10SM OVC018 06/02 A2995 600 79 -300 260/14G23 RMK AO2
14840KMKG MKG20011125184010211/25/01 18:40:31  5-MIN KMKG 252340Z 26015G19KT 10SM OVC020 06/02 A2995 600 79 -300 260/15G19 RMK AO2
14840KMKG MKG20011125184510211/25/01 18:45:31  5-MIN KMKG 252345Z 25016G21KT 10SM OVC020 06/02 A2996 590 79 -300 250/16G21 RMK AO2
14840KMKG MKG20011125185014311/25/01 18:50:31  5-MIN KMKG 252350Z 26011G21KT 10SM OVC020 06/02 A2996 590 79 -300 260/11G21 RMK AO2 SLP150 60000 T00560022 10072 20056 52032
14840KMKG MKG20011125185513711/25/01 18:55:31  5-MIN KMKG 252355Z 25013KT 10SM OVC020 06/02 A2996 590 79 -300 250/13 RMK AO2 SLP150 60000 T00560022 10072 20056 51038
14840KMKG MKG20011125190010211/25/01 19:00:31  5-MIN KMKG 260000Z 26014G20KT 10SM OVC020 06/02 A2997 590 79 -300 260/14G20 RMK AO2
14840KMKG MKG20011125190510211/25/01 19:05:31  5-MIN KMKG 260005Z 25014G20KT 10SM OVC020 06/02 A2997 580 79 -300 260/14G20 RMK AO2
14840KMKG MKG20011125191009611/25/01 19:10:31  5-MIN KMKG 260010Z 26011KT 10SM OVC020 06/02 A2998 580 76 -300 260/11 RMK AO2
14840KMKG MKG20011125191509611/25/01 19:15:31  5-MIN KMKG 260015Z 26013KT 10SM OVC020 06/02 A2998 570 79 -300 260/13 RMK AO2
14840KMKG MKG20011125192010211/25/01 19:20:31  5-MIN KMKG 260020Z 25016G20KT 10SM OVC020 06/02 A2998 570 79 -300 260/16G20 RMK AO2
14840KMKG MKG20011125192510211/25/01 19:25:31  5-MIN KMKG 260025Z 25013G20KT 10SM OVC022 06/02 A2998 570 79 -300 250/13G20 RMK AO2
14840KMKG MKG20011125193009611/25/01 19:30:31  5-MIN KMKG 260030Z 25013KT 10SM OVC022 06/02 A2999 570 79 -300 260/13 RMK AO2
14840KMKG MKG20011125193510211/25/01 19:35:31  5-MIN KMKG 260035Z 25012G19KT 10SM OVC022 06/02 A2999 560 79 -400 250/12G19 RMK AO2
14840KMKG MKG20011125194010211/25/01 19:40:31  5-MIN KMKG 260040Z 25012G22KT 10SM OVC020 06/02 A3000 560 79 -400 250/12G22 RMK AO2
14840KMKG MKG20011125194510211/25/01 19:45:31  5-MIN KMKG 260045Z 25015G22KT 10SM OVC020 06/02 A3000 560 79 -400 250/15G22 RMK AO2
14840KMKG MKG20011125195011911/25/01 19:50:31  5-MIN KMKG 260050Z 25014G21KT 10SM OVC020 06/02 A3000 560 79 -400 250/14G21 RMK AO2 SLP163 T00560022
14840KMKG MKG20011125195511311/25/01 19:55:31  5-MIN KMKG 260055Z 26013KT 10SM OVC020 06/02 A3001 550 79 -400 260/13 RMK AO2 SLP164 T00560022
14840KMKG MKG20011125200010211/25/01 20:00:31  5-MIN KMKG 260100Z 26013G20KT 10SM OVC020 06/02 A3001 550 79 -400 270/13G20 RMK AO2
14840KMKG MKG20011125200510211/25/01 20:05:31  5-MIN KMKG 260105Z 26014G20KT 10SM OVC020 06/02 A3001 550 79 -400 260/14G20 RMK AO2
14840KMKG MKG20011125201010211/25/01 20:10:31  5-MIN KMKG 260110Z 27014G20KT 10SM OVC020 06/02 A3001 540 79 -400 270/14G20 RMK AO2
14840KMKG MKG20011125201510211/25/01 20:15:31  5-MIN KMKG 260115Z 24012G20KT 10SM OVC020 06/02 A3002 540 79 -400 250/12G20 RMK AO2
14840KMKG MKG20011125202010211/25/01 20:20:31  5-MIN KMKG 260120Z 26012G18KT 10SM OVC020 06/02 A3002 540 79 -400 260/12G18 RMK AO2
14840KMKG MKG20011125202509611/25/01 20:25:31  5-MIN KMKG 260125Z 27013KT 10SM OVC020 06/02 A3002 540 76 -400 270/13 RMK AO2
14840KMKG MKG20011125203009611/25/01 20:30:31  5-MIN KMKG 260130Z 26012KT 10SM OVC020 06/02 A3002 540 76 -400 270/12 RMK AO2
14840KMKG MKG20011125203510211/25/01 20:35:31  5-MIN KMKG 260135Z 27016G19KT 10SM OVC022 06/02 A3002 540 76 -400 270/16G19 RMK AO2
14840KMKG MKG20011125204010211/25/01 20:40:31  5-MIN KMKG 260140Z 26012G19KT 10SM OVC022 06/02 A3002 540 76 -400 260/12G19 RMK AO2
14840KMKG MKG20011125204509611/25/01 20:45:31  5-MIN KMKG 260145Z 28013KT 10SM OVC022 06/02 A3002 540 76 -400 280/13 RMK AO2
14840KMKG MKG20011125205011311/25/01 20:50:31  5-MIN KMKG 260150Z 27014KT 10SM OVC022 06/02 A3001 550 76 -400 280/14 RMK AO2 SLP166 T00560017
14840KMKG MKG20011125205511311/25/01 20:55:31  5-MIN KMKG 260155Z 26011KT 10SM OVC022 06/02 A3001 540 76 -400 260/11 RMK AO2 SLP167 T00560017
14840KMKG MKG20011125210009611/25/01 21:00:31  5-MIN KMKG 260200Z 25012KT 10SM OVC022 06/02 A3002 540 76 -400 260/12 RMK AO2
14840KMKG MKG20011125210509611/25/01 21:05:31  5-MIN KMKG 260205Z 25011KT 10SM OVC022 06/02 A3002 540 76 -400 260/11 RMK AO2
14840KMKG MKG20011125211009611/25/01 21:10:31  5-MIN KMKG 260210Z 27010KT 10SM OVC022 06/02 A3001 550 76 -400 270/10 RMK AO2
14840KMKG MKG20011125211509611/25/01 21:15:31  5-MIN KMKG 260215Z 26012KT 10SM OVC022 06/02 A3001 550 76 -400 270/12 RMK AO2
14840KMKG MKG20011125212009611/25/01 21:20:31  5-MIN KMKG 260220Z 27010KT 10SM OVC022 06/02 A3001 550 76 -400 270/10 RMK AO2
14840KMKG MKG20011125212510211/25/01 21:25:31  5-MIN KMKG 260225Z 27008G15KT 10SM OVC022 06/02 A3001 550 76 -400 270/08G15 RMK AO2
14840KMKG MKG20011125213009611/25/01 21:30:31  5-MIN KMKG 260230Z 26010KT 10SM OVC022 06/02 A3001 550 76 -400 260/10 RMK AO2
14840KMKG MKG20011125213509611/25/01 21:35:31  5-MIN KMKG 260235Z 26010KT 10SM OVC022 06/02 A3001 550 76 -400 260/10 RMK AO2
14840KMKG MKG20011125214010211/25/01 21:40:31  5-MIN KMKG 260240Z 27009G16KT 10SM OVC022 06/02 A3001 550 76 -400 270/09G16 RMK AO2
14840KMKG MKG20011125214509611/25/01 21:45:31  5-MIN KMKG 260245Z 27009KT 10SM OVC022 06/02 A3002 540 76 -400 270/09 RMK AO2
14840KMKG MKG20011125215013511/25/01 21:50:31  5-MIN KMKG 260250Z 26007KT 220V290 10SM OVC022 06/02 A3002 540 76 -400 260/07 220V290 RMK AO2 SLP169 T00560017 51038
14840KMKG MKG20011125215511911/25/01 21:55:31  5-MIN KMKG 260255Z 27010KT 10SM OVC022 06/02 A3002 540 76 -400 280/10 RMK AO2 SLP170 T00560017 51020
14840KMKG MKG20011125220009611/25/01 22:00:31  5-MIN KMKG 260300Z 27007KT 10SM OVC022 06/02 A3002 540 76 -400 280/07 RMK AO2
14840KMKG MKG20011125220509611/25/01 22:05:31  5-MIN KMKG 260305Z 27009KT 10SM OVC022 06/02 A3003 530 76 -400 280/09 RMK AO2
14840KMKG MKG20011125221009611/25/01 22:10:31  5-MIN KMKG 260310Z 26011KT 10SM OVC022 06/02 A3003 530 76 -400 270/11 RMK AO2
14840KMKG MKG20011125221509611/25/01 22:15:31  5-MIN KMKG 260315Z 25010KT 10SM OVC022 06/01 A3004 520 73 -400 260/10 RMK AO2
14840KMKG MKG20011125222010311/25/01 22:20:31  5-MIN KMKG 260320Z 27010KT 10SM OVC024 06/01 A3005 510 73 -400 270/10 RMK AO2 PRESRR
14840KMKG MKG20011125222510311/25/01 22:25:31  5-MIN KMKG 260325Z 25011KT 10SM OVC024 06/01 A3006 500 73 -400 260/11 RMK AO2 PRESRR
14840KMKG MKG20011125223009611/25/01 22:30:31  5-MIN KMKG 260330Z 28009KT 10SM OVC024 06/01 A3006 500 73 -400 280/09 RMK AO2
14840KMKG MKG20011125223509611/25/01 22:35:31  5-MIN KMKG 260335Z 28012KT 10SM OVC024 06/01 A3006 500 73 -400 280/12 RMK AO2
14840KMKG MKG20011125224009611/25/01 22:40:31  5-MIN KMKG 260340Z 27009KT 10SM OVC024 06/01 A3006 500 73 -400 270/09 RMK AO2
14840KMKG MKG20011125224509611/25/01 22:45:31  5-MIN KMKG 260345Z 28008KT 10SM OVC024 06/01 A3006 510 73 -400 280/08 RMK AO2
14840KMKG MKG20011125225011311/25/01 22:50:31  5-MIN KMKG 260350Z 27008KT 10SM OVC024 06/01 A3005 510 73 -400 280/08 RMK AO2 SLP181 T00560011
14840KMKG MKG20011125225511311/25/01 22:55:31  5-MIN KMKG 260355Z 27010KT 10SM OVC022 06/02 A3005 510 76 -400 280/10 RMK AO2 SLP181 T00560017
14840KMKG MKG20011125230009611/25/01 23:00:31  5-MIN KMKG 260400Z 27008KT 10SM OVC022 06/02 A3005 510 76 -400 270/08 RMK AO2
14840KMKG MKG20011125230509611/25/01 23:05:31  5-MIN KMKG 260405Z 25008KT 10SM OVC022 06/02 A3005 510 76 -400 260/08 RMK AO2
14840KMKG MKG20011125231009611/25/01 23:10:31  5-MIN KMKG 260410Z 26006KT 10SM OVC022 06/02 A3006 500 76 -400 260/06 RMK AO2
14840KMKG MKG20011125231509611/25/01 23:15:31  5-MIN KMKG 260415Z 25009KT 10SM OVC022 06/02 A3005 510 76 -400 260/09 RMK AO2
14840KMKG MKG20011125232009611/25/01 23:20:31  5-MIN KMKG 260420Z 24006KT 10SM OVC022 06/02 A3005 510 76 -400 250/06 RMK AO2
14840KMKG MKG20011125232509611/25/01 23:25:31  5-MIN KMKG 260425Z 23007KT 10SM OVC022 05/02 A3006 510 79 -500 230/07 RMK AO2
14840KMKG MKG20011125233009611/25/01 23:30:31  5-MIN KMKG 260430Z 25006KT 10SM OVC022 06/02 A3006 500 76 -400 260/06 RMK AO2
14840KMKG MKG20011125233509611/25/01 23:35:31  5-MIN KMKG 260435Z 28008KT 10SM OVC022 06/02 A3006 500 76 -400 290/08 RMK AO2
14840KMKG MKG20011125234009611/25/01 23:40:31  5-MIN KMKG 260440Z 27010KT 10SM OVC022 06/02 A3006 500 76 -400 280/10 RMK AO2
14840KMKG MKG20011125234509611/25/01 23:45:31  5-MIN KMKG 260445Z 27009KT 10SM OVC022 06/02 A3007 500 76 -400 280/09 RMK AO2
14840KMKG MKG20011125235012311/25/01 23:50:31  5-MIN KMKG 260450Z 26006KT 10SM OVC022 06/02 A3007 500 76 -400 260/06 RMK AO2 SLP185 T00560017 401220050
14840KMKG MKG20011125235512311/25/01 23:55:31  5-MIN KMKG 260455Z 29008KT 10SM OVC022 06/01 A3006 500 73 -400 290/08 RMK AO2 SLP184 T00560011 401220050
14840KMKG MKG20011126000009611/26/01 00:00:31  5-MIN KMKG 260500Z 28009KT 10SM OVC022 06/01 A3006 500 73 -400 290/09 RMK AO2
14840KMKG MKG20011126000509611/26/01 00:05:31  5-MIN KMKG 260505Z 27007KT 10SM OVC022 06/01 A3006 500 73 -400 270/07 RMK AO2
14840KMKG MKG20011126001009611/26/01 00:10:31  5-MIN KMKG 260510Z 28008KT 10SM OVC022 05/02 A3006 500 79 -500 280/08 RMK AO2
14840KMKG MKG20011126001509611/26/01 00:15:31  5-MIN KMKG 260515Z 28006KT 10SM OVC022 06/02 A3006 500 76 -400 280/06 RMK AO2
14840KMKG MKG20011126002009611/26/01 00:20:31  5-MIN KMKG 260520Z 27008KT 10SM OVC022 05/02 A3007 490 79 -500 270/08 RMK AO2
14840KMKG MKG20011126002509611/26/01 00:25:31  5-MIN KMKG 260525Z 27006KT 10SM OVC022 06/02 A3007 500 76 -400 280/06 RMK AO2
14840KMKG MKG20011126003009611/26/01 00:30:31  5-MIN KMKG 260530Z 27006KT 10SM OVC022 06/01 A3006 500 73 -400 270/06 RMK AO2
14840KMKG MKG20011126003509611/26/01 00:35:31  5-MIN KMKG 260535Z 26005KT 10SM OVC022 06/02 A3006 500 76 -400 270/05 RMK AO2
14840KMKG MKG20011126004009611/26/01 00:40:31  5-MIN KMKG 260540Z 25007KT 10SM OVC022 05/02 A3007 490 79 -500 260/07 RMK AO2
14840KMKG MKG20011126004509611/26/01 00:45:31  5-MIN KMKG 260545Z 24008KT 10SM OVC022 06/02 A3009 480 76 -500 240/08 RMK AO2
14840KMKG MKG20011126005013111/26/01 00:50:31  5-MIN KMKG 260550Z 25007KT 10SM OVC022 06/02 A3008 480 76 -500 260/07 RMK AO2 SLP191 T00560017 10056 20050 51020
14840KMKG MKG20011126005513111/26/01 00:55:31  5-MIN KMKG 260555Z 25009KT 10SM OVC022 06/02 A3009 470 76 -500 250/09 RMK AO2 SLP193 T00560017 10056 20050 51023
14840KMKG MKG20011126010009611/26/01 01:00:31  5-MIN KMKG 260600Z 24007KT 10SM OVC022 06/02 A3009 470 76 -500 250/07 RMK AO2
14840KMKG MKG20011126010509611/26/01 01:05:31  5-MIN KMKG 260605Z 25009KT 10SM OVC022 06/02 A3009 470 76 -500 250/09 RMK AO2
14840KMKG MKG20011126011009611/26/01 01:10:31  5-MIN KMKG 260610Z 25009KT 10SM OVC022 06/02 A3010 470 76 -500 250/09 RMK AO2
14840KMKG MKG20011126011509611/26/01 01:15:31  5-MIN KMKG 260615Z 26007KT 10SM OVC022 06/02 A3010 470 76 -500 260/07 RMK AO2
14840KMKG MKG20011126012009611/26/01 01:20:31  5-MIN KMKG 260620Z 26008KT 10SM OVC022 06/02 A3009 470 76 -500 270/08 RMK AO2
14840KMKG MKG20011126012509611/26/01 01:25:31  5-MIN KMKG 260625Z 28010KT 10SM OVC022 06/02 A3009 470 76 -500 280/10 RMK AO2
14840KMKG MKG20011126013009611/26/01 01:30:31  5-MIN KMKG 260630Z 26008KT 10SM OVC022 06/02 A3009 470 76 -500 260/08 RMK AO2
14840KMKG MKG20011126013509611/26/01 01:35:31  5-MIN KMKG 260635Z 28007KT 10SM OVC022 06/02 A3010 470 76 -500 280/07 RMK AO2
14840KMKG MKG20011126014009611/26/01 01:40:31  5-MIN KMKG 260640Z 25008KT 10SM OVC022 06/02 A3010 470 76 -500 250/08 RMK AO2
14840KMKG MKG20011126014509611/26/01 01:45:31  5-MIN KMKG 260645Z 27007KT 10SM OVC022 06/02 A3010 470 76 -500 270/07 RMK AO2
14840KMKG MKG20011126015011311/26/01 01:50:31  5-MIN KMKG 260650Z 27008KT 10SM OVC022 06/02 A3010 470 76 -500 270/08 RMK AO2 SLP197 T00560017
14840KMKG MKG20011126015511311/26/01 01:55:31  5-MIN KMKG 260655Z 27007KT 10SM OVC022 06/02 A3010 470 76 -500 270/07 RMK AO2 SLP197 T00560017
14840KMKG MKG20011126020009611/26/01 02:00:31  5-MIN KMKG 260700Z 26007KT 10SM OVC024 06/01 A3010 460 73 -500 270/07 RMK AO2
14840KMKG MKG20011126020509611/26/01 02:05:31  5-MIN KMKG 260705Z 28010KT 10SM OVC024 06/01 A3010 460 73 -500 280/10 RMK AO2
14840KMKG MKG20011126021009611/26/01 02:10:31  5-MIN KMKG 260710Z 27010KT 10SM OVC024 06/01 A3010 460 73 -500 280/10 RMK AO2
14840KMKG MKG20011126021509611/26/01 02:15:31  5-MIN KMKG 260715Z 27006KT 10SM OVC024 06/01 A3011 460 73 -500 270/06 RMK AO2
14840KMKG MKG20011126022009611/26/01 02:20:31  5-MIN KMKG 260720Z 27006KT 10SM OVC024 06/01 A3011 460 73 -500 270/06 RMK AO2
14840KMKG MKG20011126022509611/26/01 02:25:31  5-MIN KMKG 260725Z 27006KT 10SM OVC024 06/02 A3011 460 76 -500 280/06 RMK AO2
14840KMKG MKG20011126023009611/26/01 02:30:31  5-MIN KMKG 260730Z 26005KT 10SM OVC024 06/02 A3011 460 76 -500 270/05 RMK AO2
14840KMKG MKG20011126023509611/26/01 02:35:31  5-MIN KMKG 260735Z VRB06KT 10SM OVC024 06/02 A3011 450 76 -500 VRB/06 RMK AO2
14840KMKG MKG20011126024009611/26/01 02:40:31  5-MIN KMKG 260740Z 27006KT 10SM OVC024 06/01 A3011 450 73 -500 270/06 RMK AO2
14840KMKG MKG20011126024509611/26/01 02:45:31  5-MIN KMKG 260745Z 26006KT 10SM OVC024 06/01 A3011 450 73 -500 270/06 RMK AO2
14840KMKG MKG20011126025011311/26/01 02:50:31  5-MIN KMKG 260750Z 25006KT 10SM OVC024 06/01 A3011 450 73 -500 250/06 RMK AO2 SLP202 T00560011
14840KMKG MKG20011126025511311/26/01 02:55:31  5-MIN KMKG 260755Z 25005KT 10SM OVC024 06/01 A3012 440 73 -500 250/05 RMK AO2 SLP205 T00560011
14840KMKG MKG20011126030009611/26/01 03:00:31  5-MIN KMKG 260800Z 26007KT 10SM OVC024 06/02 A3012 440 76 -500 270/07 RMK AO2
14840KMKG MKG20011126030509611/26/01 03:05:31  5-MIN KMKG 260805Z 26006KT 10SM OVC024 06/01 A3013 440 73 -500 260/06 RMK AO2
14840KMKG MKG20011126031009611/26/01 03:10:31  5-MIN KMKG 260810Z 25007KT 10SM OVC024 06/01 A3013 440 73 -500 250/07 RMK AO2
14840KMKG MKG20011126031509611/26/01 03:15:31  5-MIN KMKG 260815Z 25006KT 10SM OVC026 06/01 A3013 430 73 -500 260/06 RMK AO2
14840KMKG MKG20011126032009611/26/01 03:20:31  5-MIN KMKG 260820Z 26008KT 10SM OVC026 06/01 A3013 430 73 -500 270/08 RMK AO2
14840KMKG MKG20011126032509611/26/01 03:25:31  5-MIN KMKG 260825Z 27005KT 10SM OVC026 06/01 A3014 430 73 -500 270/05 RMK AO2
14840KMKG MKG20011126033009611/26/01 03:30:31  5-MIN KMKG 260830Z 26004KT 10SM OVC026 06/01 A3013 430 73 -500 260/04 RMK AO2
14840KMKG MKG20011126033509611/26/01 03:35:31  5-MIN KMKG 260835Z 27005KT 10SM OVC024 06/01 A3013 430 73 -500 270/05 RMK AO2
14840KMKG MKG20011126034009611/26/01 03:40:31  5-MIN KMKG 260840Z 28008KT 10SM OVC024 06/01 A3013 430 73 -500 280/08 RMK AO2
14840KMKG MKG20011126034509611/26/01 03:45:31  5-MIN KMKG 260845Z 26007KT 10SM OVC024 06/02 A3014 430 76 -500 260/07 RMK AO2
14840KMKG MKG20011126035011911/26/01 03:50:31  5-MIN KMKG 260850Z 24006KT 10SM OVC024 06/02 A3014 420 76 -500 250/06 RMK AO2 SLP213 T00560017 51023
14840KMKG MKG20011126035511911/26/01 03:55:31  5-MIN KMKG 260855Z 25008KT 10SM OVC022 06/02 A3014 430 76 -500 260/08 RMK AO2 SLP212 T00560017 53017
14840KMKG MKG20011126040009611/26/01 04:00:31  5-MIN KMKG 260900Z 27007KT 10SM OVC022 06/02 A3014 430 76 -500 270/07 RMK AO2
14840KMKG MKG20011126040509611/26/01 04:05:31  5-MIN KMKG 260905Z 26005KT 10SM OVC022 06/02 A3014 420 76 -500 270/05 RMK AO2
14840KMKG MKG20011126041009611/26/01 04:10:31  5-MIN KMKG 260910Z 25007KT 10SM OVC022 06/02 A3015 420 76 -500 250/07 RMK AO2
14840KMKG MKG20011126041509611/26/01 04:15:31  5-MIN KMKG 260915Z 26008KT 10SM OVC024 06/01 A3014 430 73 -500 260/08 RMK AO2
14840KMKG MKG20011126042009611/26/01 04:20:31  5-MIN KMKG 260920Z 26006KT 10SM OVC024 06/01 A3014 420 73 -500 260/06 RMK AO2
14840KMKG MKG20011126042509611/26/01 04:25:31  5-MIN KMKG 260925Z 26006KT 10SM OVC024 06/01 A3014 420 73 -500 260/06 RMK AO2
14840KMKG MKG20011126043009611/26/01 04:30:31  5-MIN KMKG 260930Z 27007KT 10SM OVC024 06/01 A3014 430 73 -500 280/07 RMK AO2
14840KMKG MKG20011126043509611/26/01 04:35:31  5-MIN KMKG 260935Z 27006KT 10SM OVC024 06/01 A3014 430 73 -500 270/06 RMK AO2
14840KMKG MKG20011126044009611/26/01 04:40:31  5-MIN KMKG 260940Z 25006KT 10SM OVC024 06/01 A3014 430 73 -500 250/06 RMK AO2
14840KMKG MKG20011126044509611/26/01 04:45:31  5-MIN KMKG 260945Z 23006KT 10SM OVC024 06/01 A3014 430 73 -500 230/06 RMK AO2
14840KMKG MKG20011126045011311/26/01 04:50:31  5-MIN KMKG 260950Z 25004KT 10SM OVC024 05/01 A3014 430 76 -600 250/04 RMK AO2 SLP211 T00500011
14840KMKG MKG20011126045511311/26/01 04:55:31  5-MIN KMKG 260955Z 24004KT 10SM OVC024 06/01 A3014 430 73 -500 240/04 RMK AO2 SLP212 T00560011
14840KMKG MKG20011126050009611/26/01 05:00:31  5-MIN KMKG 261000Z 25004KT 10SM OVC024 05/01 A3014 420 76 -600 250/04 RMK AO2
14840KMKG MKG20011126050509611/26/01 05:05:31  5-MIN KMKG 261005Z 26005KT 10SM OVC024 06/01 A3015 420 73 -500 260/05 RMK AO2
14840KMKG MKG20011126051009611/26/01 05:10:31  5-MIN KMKG 261010Z 25004KT 10SM OVC024 05/01 A3015 420 76 -600 250/04 RMK AO2
14840KMKG MKG20011126051509611/26/01 05:15:31  5-MIN KMKG 261015Z 25003KT 10SM OVC024 05/01 A3015 420 76 -600 260/03 RMK AO2
14840KMKG MKG20011126052009611/26/01 05:20:31  5-MIN KMKG 261020Z 27003KT 10SM OVC024 06/01 A3016 410 73 -500 280/03 RMK AO2
14840KMKG MKG20011126052509611/26/01 05:25:31  5-MIN KMKG 261025Z 29003KT 10SM OVC022 05/02 A3016 410 79 -600 290/03 RMK AO2
14840KMKG MKG20011126053009611/26/01 05:30:31  5-MIN KMKG 261030Z 28003KT 10SM OVC022 06/02 A3016 410 76 -500 290/03 RMK AO2
14840KMKG MKG20011126053509611/26/01 05:35:31  5-MIN KMKG 261035Z VRB03KT 10SM OVC022 05/02 A3016 410 79 -600 VRB/03 RMK AO2
14840KMKG MKG20011126054009611/26/01 05:40:31  5-MIN KMKG 261040Z 27003KT 10SM OVC022 06/02 A3016 410 76 -500 280/03 RMK AO2
14840KMKG MKG20011126054509611/26/01 05:45:31  5-MIN KMKG 261045Z 00000KT 10SM OVC022 06/02 A3016 410 76 -500 000/00 RMK AO2
14840KMKG MKG20011126055011311/26/01 05:50:31  5-MIN KMKG 261050Z 00000KT 10SM OVC022 06/02 A3016 410 76 -500 000/00 RMK AO2 SLP216 T00560017
14840KMKG MKG20011126055511311/26/01 05:55:31  5-MIN KMKG 261055Z 00000KT 10SM OVC022 06/02 A3016 410 76 -500 000/00 RMK AO2 SLP218 T00560017
14840KMKG MKG20011126060009611/26/01 06:00:31  5-MIN KMKG 261100Z 00000KT 10SM OVC022 06/02 A3016 410 76 -500 000/00 RMK AO2
14840KMKG MKG20011126060509611/26/01 06:05:31  5-MIN KMKG 261105Z 00000KT 10SM OVC022 06/02 A3016 410 79 -500 000/00 RMK AO2
14840KMKG MKG20011126061009611/26/01 06:10:31  5-MIN KMKG 261110Z 00000KT 10SM OVC022 06/02 A3016 410 76 -500 000/00 RMK AO2
14840KMKG MKG20011126061509611/26/01 06:15:31  5-MIN KMKG 261115Z 00000KT 10SM OVC022 06/02 A3017 400 76 -500 000/00 RMK AO2
14840KMKG MKG20011126062009611/26/01 06:20:31  5-MIN KMKG 261120Z 00000KT 10SM OVC022 06/02 A3017 400 76 -600 000/00 RMK AO2
14840KMKG MKG20011126062509611/26/01 06:25:31  5-MIN KMKG 261125Z 26003KT 10SM OVC022 05/02 A3017 400 82 -600 270/03 RMK AO2
14840KMKG MKG20011126063009611/26/01 06:30:31  5-MIN KMKG 261130Z 28003KT 10SM OVC022 06/02 A3017 400 76 -600 280/03 RMK AO2
14840KMKG MKG20011126063509611/26/01 06:35:31  5-MIN KMKG 261135Z 28004KT 10SM OVC022 06/02 A3017 400 76 -600 280/04 RMK AO2
14840KMKG MKG20011126064009611/26/01 06:40:31  5-MIN KMKG 261140Z 30004KT 10SM OVC022 06/02 A3017 400 76 -600 310/04 RMK AO2
14840KMKG MKG20011126064509611/26/01 06:45:31  5-MIN KMKG 261145Z 32004KT 10SM OVC022 06/02 A3017 400 76 -600 330/04 RMK AO2
14840KMKG MKG20011126065013111/26/01 06:50:31  5-MIN KMKG 261150Z 33004KT 10SM OVC022 06/02 A3017 400 76 -600 330/04 RMK AO2 SLP220 T00560017 10056 20050 53017
14840KMKG MKG20011126065513111/26/01 06:55:31  5-MIN KMKG 261155Z 33004KT 10SM OVC022 05/02 A3017 400 79 -600 330/04 RMK AO2 SLP221 T00500017 10056 20050 53009
14840KMKG MKG20011126070009611/26/01 07:00:31  5-MIN KMKG 261200Z 33004KT 10SM OVC022 05/02 A3017 400 82 -600 340/04 RMK AO2
14840KMKG MKG20011126070509611/26/01 07:05:31  5-MIN KMKG 261205Z 33005KT 10SM OVC022 05/02 A3017 400 79 -600 340/05 RMK AO2
14840KMKG MKG20011126071009611/26/01 07:10:31  5-MIN KMKG 261210Z 34005KT 10SM OVC022 05/02 A3018 390 79 -600 340/05 RMK AO2
14840KMKG MKG20011126071509611/26/01 07:15:31  5-MIN KMKG 261215Z 35004KT 10SM OVC022 05/02 A3018 400 79 -600 350/04 RMK AO2
14840KMKG MKG20011126072009611/26/01 07:20:31  5-MIN KMKG 261220Z 36004KT 10SM OVC022 05/02 A3018 390 79 -600 010/04 RMK AO2
14840KMKG MKG20011126072509611/26/01 07:25:31  5-MIN KMKG 261225Z 36004KT 10SM OVC022 05/02 A3018 400 79 -600 010/04 RMK AO2
14840KMKG MKG20011126073009611/26/01 07:30:31  5-MIN KMKG 261230Z 02003KT 10SM OVC022 05/02 A3018 390 79 -600 020/03 RMK AO2
14840KMKG MKG20011126073509611/26/01 07:35:31  5-MIN KMKG 261235Z 02004KT 10SM OVC022 05/02 A3018 390 79 -600 030/04 RMK AO2
14840KMKG MKG20011126074009611/26/01 07:40:31  5-MIN KMKG 261240Z 04004KT 10SM OVC022 05/02 A3017 400 79 -600 040/04 RMK AO2
14840KMKG MKG20011126074509611/26/01 07:45:31  5-MIN KMKG 261245Z 04005KT 10SM OVC022 05/02 A3017 400 79 -600 040/05 RMK AO2
14840KMKG MKG20011126075011311/26/01 07:50:31  5-MIN KMKG 261250Z 04004KT 10SM OVC022 05/02 A3017 400 79 -600 040/04 RMK AO2 SLP223 T00500017
14840KMKG MKG20011126075511311/26/01 07:55:31  5-MIN KMKG 261255Z 04003KT 10SM OVC022 05/02 A3018 390 79 -600 040/03 RMK AO2 SLP224 T00500017
14840KMKG MKG20011126080009611/26/01 08:00:31  5-MIN KMKG 261300Z 04004KT 10SM OVC022 05/02 A3018 390 79 -600 040/04 RMK AO2
14840KMKG MKG20011126080509611/26/01 08:05:31  5-MIN KMKG 261305Z 04004KT 10SM OVC022 05/02 A3017 400 79 -600 050/04 RMK AO2
14840KMKG MKG20011126081009611/26/01 08:10:31  5-MIN KMKG 261310Z 04004KT 10SM OVC022 05/02 A3017 400 79 -600 050/04 RMK AO2
14840KMKG MKG20011126081509611/26/01 08:15:31  5-MIN KMKG 261315Z 05005KT 10SM OVC022 05/02 A3017 400 79 -600 050/05 RMK AO2
14840KMKG MKG20011126082009611/26/01 08:20:31  5-MIN KMKG 261320Z 05004KT 10SM OVC022 05/02 A3017 400 79 -600 050/04 RMK AO2
14840KMKG MKG20011126082509611/26/01 08:25:31  5-MIN KMKG 261325Z 05004KT 10SM OVC022 05/02 A3017 400 79 -600 060/04 RMK AO2
14840KMKG MKG20011126083009611/26/01 08:30:31  5-MIN KMKG 261330Z 06005KT 10SM OVC022 05/02 A3018 390 79 -600 070/05 RMK AO2
14840KMKG MKG20011126083509611/26/01 08:35:31  5-MIN KMKG 261335Z 05004KT 10SM OVC022 05/02 A3018 390 79 -600 060/04 RMK AO2
14840KMKG MKG20011126084009611/26/01 08:40:31  5-MIN KMKG 261340Z 07004KT 10SM OVC022 05/02 A3018 390 79 -600 070/04 RMK AO2
14840KMKG MKG20011126084509611/26/01 08:45:31  5-MIN KMKG 261345Z 06004KT 10SM OVC022 05/02 A3018 400 79 -600 060/04 RMK AO2
14840KMKG MKG20011126085011311/26/01 08:50:31  5-MIN KMKG 261350Z 06004KT 10SM OVC022 05/02 A3018 390 79 -600 070/04 RMK AO2 SLP225 T00500017
14840KMKG MKG20011126085511311/26/01 08:55:31  5-MIN KMKG 261355Z 05004KT 10SM OVC022 05/02 A3018 390 79 -600 060/04 RMK AO2 SLP224 T00500017
14840KMKG MKG20011126090009611/26/01 09:00:31  5-MIN KMKG 261400Z 05005KT 10SM OVC022 05/02 A3018 390 79 -600 060/05 RMK AO2
14840KMKG MKG20011126090509611/26/01 09:05:31  5-MIN KMKG 261405Z 05004KT 10SM OVC022 05/02 A3018 390 79 -600 060/04 RMK AO2
14840KMKG MKG20011126091009611/26/01 09:10:31  5-MIN KMKG 261410Z 06005KT 10SM OVC022 05/02 A3018 390 79 -600 060/05 RMK AO2
14840KMKG MKG20011126091509611/26/01 09:15:31  5-MIN KMKG 261415Z 06004KT 10SM OVC022 05/02 A3018 390 79 -600 070/04 RMK AO2
14840KMKG MKG20011126092009611/26/01 09:20:31  5-MIN KMKG 261420Z 05005KT 10SM OVC022 05/02 A3017 400 79 -600 050/05 RMK AO2
14840KMKG MKG20011126092509611/26/01 09:25:31  5-MIN KMKG 261425Z 06006KT 10SM OVC022 05/02 A3017 400 79 -600 060/06 RMK AO2
14840KMKG MKG20011126093009611/26/01 09:30:31  5-MIN KMKG 261430Z 05006KT 10SM OVC022 05/02 A3017 400 79 -600 060/06 RMK AO2
14840KMKG MKG20011126093509611/26/01 09:35:31  5-MIN KMKG 261435Z 06007KT 10SM OVC022 05/02 A3017 400 79 -600 060/07 RMK AO2
14840KMKG MKG20011126094009611/26/01 09:40:31  5-MIN KMKG 261440Z 06008KT 10SM OVC022 05/02 A3016 410 79 -600 060/08 RMK AO2
14840KMKG MKG20011126094509611/26/01 09:45:31  5-MIN KMKG 261445Z 06009KT 10SM OVC022 05/02 A3016 410 79 -600 060/09 RMK AO2
14840KMKG MKG20011126095011911/26/01 09:50:31  5-MIN KMKG 261450Z 06007KT 10SM OVC022 05/02 A3016 410 79 -600 060/07 RMK AO2 SLP219 T00500017 53009
14840KMKG MKG20011126095511911/26/01 09:55:31  5-MIN KMKG 261455Z 06006KT 10SM OVC022 06/02 A3016 410 76 -500 060/06 RMK AO2 SLP219 T00560017 58002
14840KMKG MKG20011126100009611/26/01 10:00:31  5-MIN KMKG 261500Z 05005KT 10SM OVC022 06/02 A3016 410 76 -500 060/05 RMK AO2
14840KMKG MKG20011126100509611/26/01 10:05:31  5-MIN KMKG 261505Z 06006KT 10SM OVC022 06/02 A3016 410 76 -500 060/06 RMK AO2
14840KMKG MKG20011126101009611/26/01 10:10:31  5-MIN KMKG 261510Z 04005KT 10SM OVC022 06/02 A3016 410 76 -500 040/05 RMK AO2
14840KMKG MKG20011126101509611/26/01 10:15:31  5-MIN KMKG 261515Z 04006KT 10SM OVC022 06/02 A3016 410 76 -500 040/06 RMK AO2
14840KMKG MKG20011126102009611/26/01 10:20:31  5-MIN KMKG 261520Z 08007KT 10SM OVC022 06/02 A3016 410 73 -500 080/07 RMK AO2
14840KMKG MKG20011126102509611/26/01 10:25:31  5-MIN KMKG 261525Z 08008KT 10SM BKN022 06/02 A3016 410 73 -500 090/08 RMK AO2
14840KMKG MKG20011126103009611/26/01 10:30:31  5-MIN KMKG 261530Z 06007KT 10SM BKN022 06/02 A3016 410 73 -500 070/07 RMK AO2
14840KMKG MKG20011126103509611/26/01 10:35:31  5-MIN KMKG 261535Z 07007KT 10SM SCT022 06/02 A3016 410 73 -500 070/07 RMK AO2
14840KMKG MKG20011126104009611/26/01 10:40:31  5-MIN KMKG 261540Z 08007KT 10SM SCT022 06/02 A3016 410 73 -500 080/07 RMK AO2
14840KMKG MKG20011126104509611/26/01 10:45:31  5-MIN KMKG 261545Z 06008KT 10SM FEW022 06/02 A3016 410 73 -500 060/08 RMK AO2
14840KMKG MKG20011126105011011/26/01 10:50:31  5-MIN KMKG 261550Z 07007KT 10SM CLR 06/02 A3016 410 76 -500 070/07 RMK AO2 SLP218 T00610022
14840KMKG MKG20011126105511311/26/01 10:55:31  5-MIN KMKG 261555Z 08008KT 10SM FEW022 06/02 A3016 410 73 -500 090/08 RMK AO2 SLP217 T00610017
14840KMKG MKG20011126110009311/26/01 11:00:31  5-MIN KMKG 261600Z 07007KT 10SM CLR 06/02 A3016 410 73 -500 070/07 RMK AO2
14840KMKG MKG20011126110509311/26/01 11:05:31  5-MIN KMKG 261605Z 08007KT 10SM CLR 06/02 A3016 410 73 -500 090/07 RMK AO2
14840KMKG MKG20011126111009311/26/01 11:10:31  5-MIN KMKG 261610Z 08007KT 10SM CLR 06/02 A3016 410 73 -500 080/07 RMK AO2
14840KMKG MKG20011126111509311/26/01 11:15:31  5-MIN KMKG 261615Z 07006KT 10SM CLR 06/02 A3016 410 76 -500 080/06 RMK AO2
14840KMKG MKG20011126112009311/26/01 11:20:31  5-MIN KMKG 261620Z 07006KT 10SM CLR 06/02 A3016 410 73 -500 070/06 RMK AO2
14840KMKG MKG20011126112509311/26/01 11:25:31  5-MIN KMKG 261625Z 10008KT 10SM CLR 06/02 A3015 410 73 -500 100/08 RMK AO2
14840KMKG MKG20011126113009311/26/01 11:30:31  5-MIN KMKG 261630Z 09008KT 10SM CLR 06/02 A3015 420 76 -500 090/08 RMK AO2
14840KMKG MKG20011126113509311/26/01 11:35:31  5-MIN KMKG 261635Z 08007KT 10SM CLR 06/02 A3015 420 76 -500 080/07 RMK AO2
14840KMKG MKG20011126114009311/26/01 11:40:31  5-MIN KMKG 261640Z 09007KT 10SM CLR 06/02 A3015 420 76 -500 090/07 RMK AO2
14840KMKG MKG20011126114509311/26/01 11:45:31  5-MIN KMKG 261645Z 08009KT 10SM CLR 07/02 A3014 430 73 -400 080/09 RMK AO2
14840KMKG MKG20011126115011011/26/01 11:50:31  5-MIN KMKG 261650Z 07008KT 10SM CLR 07/02 A3014 430 73 -400 070/08 RMK AO2 SLP210 T00670022
14840KMKG MKG20011126115511311/26/01 11:55:31  5-MIN KMKG 261655Z 09008KT 10SM FEW024 07/02 A3013 440 73 -400 090/08 RMK AO2 SLP208 T00670022
14840KMKG MKG20011126120009311/26/01 12:00:31  5-MIN KMKG 261700Z 08008KT 10SM CLR 07/02 A3013 440 73 -400 090/08 RMK AO2
14840KMKG MKG20011126120509311/26/01 12:05:31  5-MIN KMKG 261705Z 08008KT 10SM CLR 07/02 A3012 440 73 -400 090/08 RMK AO2
14840KMKG MKG20011126121009311/26/01 12:10:31  5-MIN KMKG 261710Z 09009KT 10SM CLR 07/02 A3013 440 73 -400 090/09 RMK AO2
14840KMKG MKG20011126121509311/26/01 12:15:31  5-MIN KMKG 261715Z 09007KT 10SM CLR 07/02 A3013 440 73 -400 090/07 RMK AO2
14840KMKG MKG20011126122009311/26/01 12:20:31  5-MIN KMKG 261720Z 09008KT 10SM CLR 07/02 A3012 440 70 -300 100/08 RMK AO2
14840KMKG MKG20011126122509311/26/01 12:25:31  5-MIN KMKG 261725Z 09009KT 10SM CLR 08/03 A3012 450 70 -200 090/09 RMK AO2
14840KMKG MKG20011126123009311/26/01 12:30:31  5-MIN KMKG 261730Z 10007KT 10SM CLR 07/02 A3012 450 70 -300 100/07 RMK AO2
14840KMKG MKG20011126123509311/26/01 12:35:31  5-MIN KMKG 261735Z 08006KT 10SM CLR 07/02 A3012 440 70 -300 090/06 RMK AO2
14840KMKG MKG20011126124009311/26/01 12:40:31  5-MIN KMKG 261740Z 09006KT 10SM CLR 08/03 A3012 440 70 -200 090/06 RMK AO2
14840KMKG MKG20011126124509311/26/01 12:45:31  5-MIN KMKG 261745Z VRB05KT 10SM CLR 07/02 A3013 440 70 -300 VRB/05 RMK AO2
14840KMKG MKG20011126125013111/26/01 12:50:31  5-MIN KMKG 261750Z VRB04KT 10SM FEW023 08/03 A3012 440 70 -200 VRB/04 RMK AO2 SLP205 T00780028 10078 20050 58002
14840KMKG MKG20011126125513111/26/01 12:55:31  5-MIN KMKG 261755Z VRB06KT 10SM FEW023 08/02 A3012 450 68 -200 VRB/06 RMK AO2 SLP204 T00780022 10078 20050 58014
14840KMKG MKG20011126130009611/26/01 13:00:31  5-MIN KMKG 261800Z VRB04KT 10SM FEW023 07/02 A3012 440 70 -300 VRB/04 RMK AO2
14840KMKG MKG20011126130509611/26/01 13:05:31  5-MIN KMKG 261805Z 13004KT 10SM FEW023 07/02 A3013 440 70 -300 140/04 RMK AO2
14840KMKG MKG20011126131009611/26/01 13:10:31  5-MIN KMKG 261810Z 11007KT 10SM SCT023 08/03 A3013 440 70 -200 110/07 RMK AO2
14840KMKG MKG20011126131509611/26/01 13:15:31  5-MIN KMKG 261815Z 15006KT 10SM BKN023 07/02 A3013 440 70 -300 150/06 RMK AO2
14840KMKG MKG20011126132009611/26/01 13:20:31  5-MIN KMKG 261820Z 13006KT 10SM BKN025 07/02 A3013 440 70 -300 140/06 RMK AO2
14840KMKG MKG20011126132509611/26/01 13:25:31  5-MIN KMKG 261825Z 17003KT 10SM BKN025 07/02 A3013 440 70 -300 180/03 RMK AO2
14840KMKG MKG20011126133009611/26/01 13:30:31  5-MIN KMKG 261830Z 00000KT 10SM BKN025 08/02 A3013 440 68 -200 000/00 RMK AO2
14840KMKG MKG20011126133509611/26/01 13:35:31  5-MIN KMKG 261835Z 10005KT 10SM OVC025 08/02 A3013 440 68 -200 110/05 RMK AO2
14840KMKG MKG20011126134009611/26/01 13:40:31  5-MIN KMKG 261840Z 12005KT 10SM OVC025 08/03 A3013 440 70 -200 120/05 RMK AO2
14840KMKG MKG20011126134509611/26/01 13:45:31  5-MIN KMKG 261845Z 11004KT 10SM OVC025 08/02 A3013 440 68 -200 110/04 RMK AO2
14840KMKG MKG20011126135011311/26/01 13:50:31  5-MIN KMKG 261850Z 12005KT 10SM OVC025 08/03 A3013 440 70 -200 120/05 RMK AO2 SLP206 T00780028
14840KMKG MKG20011126135511311/26/01 13:55:31  5-MIN KMKG 261855Z 13006KT 10SM OVC025 08/03 A3012 440 70 -200 130/06 RMK AO2 SLP204 T00780028
14840KMKG MKG20011126140009611/26/01 14:00:31  5-MIN KMKG 261900Z 16005KT 10SM OVC025 08/03 A3012 440 70 -200 170/05 RMK AO2
14840KMKG MKG20011126140509611/26/01 14:05:31  5-MIN KMKG 261905Z 14005KT 10SM OVC025 08/03 A3012 440 70 -200 150/05 RMK AO2
14840KMKG MKG20011126141009611/26/01 14:10:31  5-MIN KMKG 261910Z VRB03KT 10SM OVC025 08/02 A3012 450 68 -200 VRB/03 RMK AO2
14840KMKG MKG20011126141509611/26/01 14:15:31  5-MIN KMKG 261915Z 10005KT 10SM OVC025 08/03 A3011 450 70 -200 100/05 RMK AO2
14840KMKG MKG20011126142009611/26/01 14:20:31  5-MIN KMKG 261920Z 08004KT 10SM OVC025 08/02 A3012 450 68 -200 090/04 RMK AO2
14840KMKG MKG20011126142509611/26/01 14:25:31  5-MIN KMKG 261925Z 08004KT 10SM OVC025 08/02 A3011 450 68 -200 080/04 RMK AO2
14840KMKG MKG20011126143009611/26/01 14:30:31  5-MIN KMKG 261930Z 10003KT 10SM OVC025 08/03 A3011 450 70 -200 100/03 RMK AO2
14840KMKG MKG20011126143509611/26/01 14:35:31  5-MIN KMKG 261935Z VRB03KT 10SM OVC025 08/03 A3011 450 70 -200 VRB/03 RMK AO2
14840KMKG MKG20011126144009611/26/01 14:40:31  5-MIN KMKG 261940Z 00000KT 10SM OVC025 08/03 A3011 450 70 -200 000/00 RMK AO2
14840KMKG MKG20011126144509611/26/01 14:45:31  5-MIN KMKG 261945Z 06004KT 10SM OVC025 08/03 A3011 460 70 -200 070/04 RMK AO2
14840KMKG MKG20011126145011311/26/01 14:50:31  5-MIN KMKG 261950Z 05005KT 10SM OVC025 08/03 A3011 460 70 -200 050/05 RMK AO2 SLP199 T00780028
14840KMKG MKG20011126145511311/26/01 14:55:31  5-MIN KMKG 261955Z 05006KT 10SM OVC025 08/03 A3010 460 70 -200 050/06 RMK AO2 SLP197 T00780028
14840KMKG MKG20011126150009611/26/01 15:00:31  5-MIN KMKG 262000Z 06006KT 10SM OVC025 08/03 A3011 460 70 -200 070/06 RMK AO2
14840KMKG MKG20011126150509611/26/01 15:05:31  5-MIN KMKG 262005Z 06005KT 10SM OVC025 08/03 A3011 460 70 -200 060/05 RMK AO2
14840KMKG MKG20011126151009611/26/01 15:10:31  5-MIN KMKG 262010Z 06005KT 10SM OVC025 08/03 A3011 460 70 -200 060/05 RMK AO2
14840KMKG MKG20011126151509611/26/01 15:15:31  5-MIN KMKG 262015Z 05006KT 10SM OVC025 08/03 A3010 460 70 -200 050/06 RMK AO2
14840KMKG MKG20011126152009611/26/01 15:20:31  5-MIN KMKG 262020Z 06006KT 10SM OVC025 08/03 A3011 460 70 -200 060/06 RMK AO2
14840KMKG MKG20011126152509611/26/01 15:25:31  5-MIN KMKG 262025Z 04007KT 10SM OVC025 08/03 A3011 450 70 -200 050/07 RMK AO2
14840KMKG MKG20011126153009611/26/01 15:30:31  5-MIN KMKG 262030Z 06007KT 10SM OVC025 08/03 A3011 450 70 -200 060/07 RMK AO2
14840KMKG MKG20011126153509611/26/01 15:35:31  5-MIN KMKG 262035Z 06006KT 10SM OVC025 08/03 A3011 450 70 -200 060/06 RMK AO2
14840KMKG MKG20011126154009611/26/01 15:40:31  5-MIN KMKG 262040Z 07007KT 10SM OVC025 08/03 A3011 460 70 -200 070/07 RMK AO2
14840KMKG MKG20011126154509611/26/01 15:45:31  5-MIN KMKG 262045Z 06010KT 10SM BKN025 08/03 A3010 470 70 -200 060/10 RMK AO2
14840KMKG MKG20011126155011911/26/01 15:50:31  5-MIN KMKG 262050Z 07010KT 10SM BKN025 07/03 A3010 470 73 -300 070/10 RMK AO2 SLP195 T00720028 58014
14840KMKG MKG20011126155511911/26/01 15:55:31  5-MIN KMKG 262055Z 08009KT 10SM SCT025 07/03 A3009 470 73 -300 080/09 RMK AO2 SLP195 T00720028 58009
14840KMKG MKG20011126160009611/26/01 16:00:31  5-MIN KMKG 262100Z 06009KT 10SM BKN025 07/03 A3009 470 73 -300 070/09 RMK AO2
14840KMKG MKG20011126160509611/26/01 16:05:31  5-MIN KMKG 262105Z 05008KT 10SM SCT025 07/03 A3009 470 73 -300 060/08 RMK AO2
14840KMKG MKG20011126161009611/26/01 16:10:31  5-MIN KMKG 262110Z 07008KT 10SM SCT025 07/03 A3010 460 73 -300 070/08 RMK AO2
14840KMKG MKG20011126161509611/26/01 16:15:31  5-MIN KMKG 262115Z 07007KT 10SM SCT025 07/03 A3010 470 73 -300 070/07 RMK AO2
14840KMKG MKG20011126162009611/26/01 16:20:31  5-MIN KMKG 262120Z 06009KT 10SM SCT025 07/03 A3010 470 73 -300 070/09 RMK AO2
14840KMKG MKG20011126162509611/26/01 16:25:31  5-MIN KMKG 262125Z 07007KT 10SM SCT025 07/03 A3011 460 73 -300 070/07 RMK AO2
14840KMKG MKG20011126163009611/26/01 16:30:31  5-MIN KMKG 262130Z 07007KT 10SM SCT025 07/03 A3010 460 73 -300 070/07 RMK AO2
14840KMKG MKG20011126163509611/26/01 16:35:31  5-MIN KMKG 262135Z 06007KT 10SM OVC025 07/03 A3010 460 73 -300 070/07 RMK AO2
14840KMKG MKG20011126164009611/26/01 16:40:31  5-MIN KMKG 262140Z 06010KT 10SM OVC025 07/03 A3009 470 73 -300 060/10 RMK AO2
14840KMKG MKG20011126164509611/26/01 16:45:31  5-MIN KMKG 262145Z 06008KT 10SM OVC025 07/03 A3009 470 73 -300 070/08 RMK AO2
14840KMKG MKG20011126165011311/26/01 16:50:31  5-MIN KMKG 262150Z 07010KT 10SM BKN025 07/03 A3009 470 73 -300 070/10 RMK AO2 SLP195 T00720028
14840KMKG MKG20011126165511311/26/01 16:55:31  5-MIN KMKG 262155Z 08008KT 10SM BKN025 07/03 A3010 460 73 -300 080/08 RMK AO2 SLP198 T00720028
14840KMKG MKG20011126170009611/26/01 17:00:31  5-MIN KMKG 262200Z 07009KT 10SM OVC025 07/03 A3010 460 73 -300 080/09 RMK AO2
14840KMKG MKG20011126170509611/26/01 17:05:31  5-MIN KMKG 262205Z 07009KT 10SM BKN025 07/03 A3010 470 73 -300 070/09 RMK AO2
14840KMKG MKG20011126171009611/26/01 17:10:31  5-MIN KMKG 262210Z 07008KT 10SM BKN025 07/03 A3010 470 76 -300 070/08 RMK AO2
14840KMKG MKG20011126171509611/26/01 17:15:31  5-MIN KMKG 262215Z 06008KT 10SM SCT025 07/03 A3009 470 76 -300 070/08 RMK AO2
14840KMKG MKG20011126172009611/26/01 17:20:31  5-MIN KMKG 262220Z 07009KT 10SM SCT025 07/03 A3008 480 76 -300 070/09 RMK AO2
14840KMKG MKG20011126172509611/26/01 17:25:31  5-MIN KMKG 262225Z 07010KT 10SM FEW025 07/03 A3008 480 76 -300 070/10 RMK AO2
14840KMKG MKG20011126173009611/26/01 17:30:31  5-MIN KMKG 262230Z 06010KT 10SM FEW025 07/03 A3008 490 76 -300 070/10 RMK AO2
14840KMKG MKG20011126173509611/26/01 17:35:31  5-MIN KMKG 262235Z 08011KT 10SM FEW120 07/03 A3008 480 76 -300 080/11 RMK AO2
14840KMKG MKG20011126174009611/26/01 17:40:31  5-MIN KMKG 262240Z 08011KT 10SM FEW120 07/03 A3008 490 76 -300 090/11 RMK AO2
14840KMKG MKG20011126174509611/26/01 17:45:31  5-MIN KMKG 262245Z 08010KT 10SM FEW120 07/03 A3007 490 76 -300 080/10 RMK AO2
14840KMKG MKG20011126175011011/26/01 17:50:31  5-MIN KMKG 262250Z 08009KT 10SM CLR 07/03 A3007 490 76 -300 080/09 RMK AO2 SLP188 T00670028
14840KMKG MKG20011126175511011/26/01 17:55:31  5-MIN KMKG 262255Z 07012KT 10SM CLR 07/03 A3007 490 76 -300 080/12 RMK AO2 SLP187 T00670028
14840KMKG MKG20011126180009311/26/01 18:00:31  5-MIN KMKG 262300Z 08012KT 10SM CLR 07/03 A3006 500 76 -300 080/12 RMK AO2
14840KMKG MKG20011126180509311/26/01 18:05:31  5-MIN KMKG 262305Z 07011KT 10SM CLR 07/03 A3006 500 76 -300 080/11 RMK AO2
14840KMKG MKG20011126181009311/26/01 18:10:31  5-MIN KMKG 262310Z 08010KT 10SM CLR 07/03 A3006 500 76 -300 090/10 RMK AO2
14840KMKG MKG20011126181509311/26/01 18:15:31  5-MIN KMKG 262315Z 08014KT 10SM CLR 07/03 A3006 500 76 -300 090/14 RMK AO2
14840KMKG MKG20011126182009611/26/01 18:20:31  5-MIN KMKG 262320Z 09010KT 10SM FEW120 07/03 A3007 490 76 -300 090/10 RMK AO2
14840KMKG MKG20011126182509611/26/01 18:25:31  5-MIN KMKG 262325Z 09010KT 10SM FEW120 07/03 A3008 480 76 -300 100/10 RMK AO2
14840KMKG MKG20011126183010211/26/01 18:30:31  5-MIN KMKG 262330Z 09007G16KT 10SM SCT120 06/03 A3008 480 79 -400 100/07G16 RMK AO2
14840KMKG MKG20011126183509611/26/01 18:35:31  5-MIN KMKG 262335Z 08010KT 10SM SCT120 06/03 A3008 490 79 -400 090/10 RMK AO2
14840KMKG MKG20011126184010211/26/01 18:40:31  5-MIN KMKG 262340Z 09013G17KT 10SM SCT110 06/03 A3007 490 79 -400 090/13G17 RMK AO2
14840KMKG MKG20011126184509611/26/01 18:45:31  5-MIN KMKG 262345Z 08012KT 10SM BKN110 06/03 A3006 500 79 -400 080/12 RMK AO2
14840KMKG MKG20011126185014411/26/01 18:50:31  5-MIN KMKG 262350Z 07016G20KT 10SM BKN110 06/03 A3005 510 79 -300 080/16G20 RMK AO2 PRESFR SLP180 T00610028 10078 20061 58009
14840KMKG MKG20011126185513711/26/01 18:55:31  5-MIN KMKG 262355Z 08012G20KT 10SM BKN110 06/03 A3006 500 79 -400 090/12G20 RMK AO2 SLP183 T00610028 10078 20061 58012
14840KMKG MKG20011126190010211/26/01 19:00:31  5-MIN KMKG 270000Z 09009G17KT 10SM BKN110 06/03 A3007 490 79 -400 090/09G17 RMK AO2
14840KMKG MKG20011126190509611/26/01 19:05:31  5-MIN KMKG 270005Z 10010KT 10SM BKN110 06/03 A3007 490 79 -400 100/10 RMK AO2
14840KMKG MKG20011126191009611/26/01 19:10:31  5-MIN KMKG 270010Z 09012KT 10SM SCT110 06/03 A3007 490 79 -400 100/12 RMK AO2
14840KMKG MKG20011126191509611/26/01 19:15:31  5-MIN KMKG 270015Z 08012KT 10SM SCT110 06/03 A3006 500 79 -400 090/12 RMK AO2
14840KMKG MKG20011126192009611/26/01 19:20:31  5-MIN KMKG 270020Z 09010KT 10SM FEW110 06/03 A3006 500 79 -400 090/10 RMK AO2
14840KMKG MKG20011126192509611/26/01 19:25:31  5-MIN KMKG 270025Z 09012KT 10SM FEW110 06/03 A3006 500 79 -400 090/12 RMK AO2
14840KMKG MKG20011126193009611/26/01 19:30:31  5-MIN KMKG 270030Z 09011KT 10SM FEW110 06/03 A3005 510 79 -400 090/11 RMK AO2
14840KMKG MKG20011126193510211/26/01 19:35:31  5-MIN KMKG 270035Z 09012G17KT 10SM SCT110 06/03 A3005 510 79 -400 090/12G17 RMK AO2
14840KMKG MKG20011126194009611/26/01 19:40:31  5-MIN KMKG 270040Z 08013KT 10SM BKN100 06/03 A3005 510 79 -300 090/13 RMK AO2
14840KMKG MKG20011126194510311/26/01 19:45:31  5-MIN KMKG 270045Z 08014KT 10SM BKN100 06/03 A3003 530 79 -300 080/14 RMK AO2 PRESFR
14840KMKG MKG20011126195011311/26/01 19:50:31  5-MIN KMKG 270050Z 11010KT 10SM BKN100 06/03 A3006 500 79 -400 110/10 RMK AO2 SLP184 T00610028
14840KMKG MKG20011126195511311/26/01 19:55:31  5-MIN KMKG 270055Z 09012KT 10SM BKN100 06/03 A3005 510 79 -400 090/12 RMK AO2 SLP182 T00610028
14840KMKG MKG20011126200009611/26/01 20:00:31  5-MIN KMKG 270100Z 09012KT 10SM BKN100 06/03 A3005 510 79 -300 090/12 RMK AO2
14840KMKG MKG20011126200510211/26/01 20:05:31  5-MIN KMKG 270105Z 08014G19KT 10SM OVC095 06/03 A3004 520 79 -300 090/14G19 RMK AO2
14840KMKG MKG20011126201011011/26/01 20:10:31  5-MIN KMKG 270110Z 08014KT 10SM BKN090 OVC110 06/03 A3003 530 79 -300 090/14 RMK AO2 PRESFR
14840KMKG MKG20011126201511011/26/01 20:15:31  5-MIN KMKG 270115Z 09013KT 10SM BKN095 OVC110 06/03 A3002 530 79 -300 090/13 RMK AO2 PRESFR
14840KMKG MKG20011126202010911/26/01 20:20:31  5-MIN KMKG 270120Z 07016G22KT 10SM OVC100 06/03 A3001 550 79 -300 070/16G22 RMK AO2 PRESFR
14840KMKG MKG20011126202510211/26/01 20:25:31  5-MIN KMKG 270125Z 09013G22KT 10SM BKN100 06/03 A3001 540 79 -300 090/13G22 RMK AO2
14840KMKG MKG20011126203010311/26/01 20:30:31  5-MIN KMKG 270130Z 09010KT 10SM BKN100 BKN110 06/03 A3001 540 79 -300 090/10 RMK AO2
14840KMKG MKG20011126203509611/26/01 20:35:31  5-MIN KMKG 270135Z 07015KT 10SM SCT100 06/03 A3000 550 82 -400 080/15 RMK AO2
14840KMKG MKG20011126204009611/26/01 20:40:31  5-MIN KMKG 270140Z 09012KT 10SM SCT100 06/03 A3001 550 82 -400 090/12 RMK AO2
14840KMKG MKG20011126204510311/26/01 20:45:31  5-MIN KMKG 270145Z 10011KT 10SM FEW100 SCT120 06/03 A3002 540 82 -400 100/11 RMK AO2
14840KMKG MKG20011126205011311/26/01 20:50:31  5-MIN KMKG 270150Z 10011KT 10SM SCT120 06/03 A3002 530 79 -300 100/11 RMK AO2 SLP172 T00610028
14840KMKG MKG20011126205511311/26/01 20:55:31  5-MIN KMKG 270155Z 10012KT 10SM BKN120 06/03 A3002 530 79 -300 100/12 RMK AO2 SLP172 T00610028
14840KMKG MKG20011126210009611/26/01 21:00:31  5-MIN KMKG 270200Z 09011KT 10SM BKN110 06/03 A3002 540 79 -300 100/11 RMK AO2
14840KMKG MKG20011126210510211/26/01 21:05:31  5-MIN KMKG 270205Z 10013G17KT 10SM BKN110 06/03 A3002 530 79 -300 100/13G17 RMK AO2
14840KMKG MKG20011126211010211/26/01 21:10:31  5-MIN KMKG 270210Z 10011G17KT 10SM OVC110 06/03 A3003 530 79 -300 100/11G17 RMK AO2
14840KMKG MKG20011126211509611/26/01 21:15:31  5-MIN KMKG 270215Z 09010KT 10SM OVC110 06/03 A3003 530 79 -300 090/10 RMK AO2
14840KMKG MKG20011126212009611/26/01 21:20:31  5-MIN KMKG 270220Z 09010KT 10SM OVC110 06/03 A3004 520 79 -300 100/10 RMK AO2
14840KMKG MKG20011126212509611/26/01 21:25:31  5-MIN KMKG 270225Z 09007KT 10SM OVC110 06/03 A3004 520 79 -300 100/07 RMK AO2
14840KMKG MKG20011126213009611/26/01 21:30:31  5-MIN KMKG 270230Z 09010KT 10SM OVC110 06/03 A3004 520 79 -300 090/10 RMK AO2
14840KMKG MKG20011126213509611/26/01 21:35:31  5-MIN KMKG 270235Z 09010KT 10SM OVC110 06/03 A3004 520 79 -300 090/10 RMK AO2
14840KMKG MKG20011126214010211/26/01 21:40:31  5-MIN KMKG 270240Z 08012G17KT 10SM OVC110 06/03 A3003 530 82 -400 090/12G17 RMK AO2
14840KMKG MKG20011126214510211/26/01 21:45:31  5-MIN KMKG 270245Z 08012G17KT 10SM OVC110 06/03 A3003 530 82 -400 080/12G17 RMK AO2
14840KMKG MKG20011126215011911/26/01 21:50:31  5-MIN KMKG 270250Z 09012KT 10SM OVC100 06/03 A3002 530 82 -400 090/12 RMK AO2 SLP172 T00560028 58012
14840KMKG MKG20011126215511911/26/01 21:55:31  5-MIN KMKG 270255Z 08012KT 10SM BKN100 06/03 A3002 540 82 -400 090/12 RMK AO2 SLP170 T00560028 58014
14840KMKG MKG20011126220009611/26/01 22:00:31  5-MIN KMKG 270300Z 08013KT 10SM BKN100 06/03 A3002 540 85 -400 090/13 RMK AO2
14840KMKG MKG20011126220510911/26/01 22:05:31  5-MIN KMKG 270305Z 09014G17KT 10SM BKN100 BKN120 06/03 A3001 550 85 -400 100/14G17 RMK AO2
14840KMKG MKG20011126221009611/26/01 22:10:31  5-MIN KMKG 270310Z 09013KT 10SM BKN100 06/03 A3001 550 85 -400 090/13 RMK AO2
14840KMKG MKG20011126221510311/26/01 22:15:31  5-MIN KMKG 270315Z 08012KT 10SM BKN090 OVC110 06/03 A3001 550 82 -400 080/12 RMK AO2
14840KMKG MKG20011126222010311/26/01 22:20:31  5-MIN KMKG 270320Z 08011KT 10SM BKN090 OVC110 06/03 A3001 540 82 -400 090/11 RMK AO2
14840KMKG MKG20011126222509611/26/01 22:25:31  5-MIN KMKG 270325Z 09012KT 10SM OVC095 06/03 A3002 540 82 -400 090/12 RMK AO2
14840KMKG MKG20011126223010311/26/01 22:30:31  5-MIN KMKG 270330Z 10009KT 10SM OVC095 06/03 A3003 530 82 -400 100/09 RMK AO2 PRESRR
14840KMKG MKG20011126223511011/26/01 22:35:31  5-MIN KMKG 270335Z 10010KT 10SM SCT080 OVC095 06/03 A3004 520 82 -400 100/10 RMK AO2 PRESRR
14840KMKG MKG20011126224010311/26/01 22:40:31  5-MIN KMKG 270340Z 10010KT 10SM BKN075 OVC095 06/03 A3004 520 82 -400 100/10 RMK AO2
14840KMKG MKG20011126224510311/26/01 22:45:31  5-MIN KMKG 270345Z 08012KT 10SM BKN065 OVC095 06/03 A3003 530 79 -300 090/12 RMK AO2
14840KMKG MKG20011126225013611/26/01 22:50:31  5-MIN KMKG 270350Z 08015KT 10SM -RA BKN060 OVC095 06/03 A3001 540 79 -300 080/15 RMK AO2 RAB50 SLP168 P0000 T00610028
14840KMKG MKG20011126225514311/26/01 22:55:31  5-MIN KMKG 270355Z 06015KT 10SM -RA BKN060 OVC095 06/03 A2999 560 85 -400 060/15 RMK AO2 RAB50 PRESFR SLP161 P0000 T00560033
14840KMKG MKG20011126230010511/26/01 23:00:31  5-MIN KMKG 270400Z 10011KT 9SM -RA OVC060 06/03 A3002 540 85 -400 100/11 RMK AO2 P0000
14840KMKG MKG20011126230511211/26/01 23:05:31  5-MIN KMKG 270405Z 09010KT 9SM -RA BKN055 OVC090 06/03 A3002 530 85 -400 090/10 RMK AO2 P0000
14840KMKG MKG20011126231011311/26/01 23:10:31  5-MIN KMKG 270410Z 08011KT 10SM -RA BKN055 OVC090 06/03 A3002 540 85 -400 080/11 RMK AO2 P0000
14840KMKG MKG20011126231512011/26/01 23:15:31  5-MIN KMKG 270415Z 07013KT 10SM -RA SCT050 SCT065 OVC090 06/03 A3000 560 85 -400 080/13 RMK AO2 P0000
14840KMKG MKG20011126232011511/26/01 23:20:31  5-MIN KMKG 270420Z 07012KT 10SM FEW060 OVC090 06/03 A3000 550 85 -400 080/12 RMK AO2 RAE20 P0000
14840KMKG MKG20011126232511511/26/01 23:25:31  5-MIN KMKG 270425Z 08013KT 10SM FEW070 OVC090 06/03 A3000 560 85 -400 090/13 RMK AO2 RAE20 P0000
14840KMKG MKG20011126233010811/26/01 23:30:31  5-MIN KMKG 270430Z 08011KT 10SM OVC095 06/03 A2999 560 85 -400 080/11 RMK AO2 RAE20 P0000
14840KMKG MKG20011126233510811/26/01 23:35:31  5-MIN KMKG 270435Z 07013KT 10SM OVC090 06/03 A2999 570 85 -300 070/13 RMK AO2 RAE20 P0000
14840KMKG MKG20011126234010811/26/01 23:40:31  5-MIN KMKG 270440Z 08010KT 10SM OVC085 06/03 A2999 570 85 -300 090/10 RMK AO2 RAE20 P0000
14840KMKG MKG20011126234510811/26/01 23:45:31  5-MIN KMKG 270445Z 08013KT 10SM OVC085 06/03 A2999 560 85 -400 090/13 RMK AO2 RAE20 P0000
14840KMKG MKG20011126235014111/26/01 23:50:31  5-MIN KMKG 270450Z 09013G20KT 10SM OVC085 06/03 A2998 580 82 -300 090/13G20 RMK AO2 RAE20 SLP157 P0000 T00560028 400780050
14840KMKG MKG20011126235514811/26/01 23:55:31  5-MIN KMKG 270455Z 09013G20KT 10SM BKN080 OVC100 06/03 A2997 580 79 -300 090/13G20 RMK AO2 RAE20 SLP153 P0000 T00610028 400780050
14840KMKG MKG20011127000010311/27/01 00:00:31  5-MIN KMKG 270500Z 09014KT 10SM OVC080 06/03 A2996 590 82 -200 090/14 RMK AO2 PRESFR
14840KMKG MKG20011127000510211/27/01 00:05:31  5-MIN KMKG 270505Z 09014G21KT 10SM OVC080 06/03 A2996 590 82 -200 090/14G21 RMK AO2
14840KMKG MKG20011127001010211/27/01 00:10:31  5-MIN KMKG 270510Z 08015G21KT 10SM OVC080 06/03 A2996 600 82 -200 080/15G21 RMK AO2
14840KMKG MKG20011127001510911/27/01 00:15:31  5-MIN KMKG 270515Z 08015G19KT 10SM FEW075 OVC090 06/03 A2995 600 82 -200 080/15G19 RMK AO2
14840KMKG MKG20011127002010911/27/01 00:20:31  5-MIN KMKG 270520Z 09015G19KT 10SM FEW070 OVC090 06/03 A2995 600 85 -300 090/15G19 RMK AO2
14840KMKG MKG20011127002510211/27/01 00:25:31  5-MIN KMKG 270525Z 09014G19KT 10SM BKN090 06/03 A2995 600 85 -300 100/14G19 RMK AO2
14840KMKG MKG20011127003010211/27/01 00:30:31  5-MIN KMKG 270530Z 09012G19KT 10SM BKN090 06/03 A2996 600 85 -300 090/12G19 RMK AO2
14840KMKG MKG20011127003510211/27/01 00:35:31  5-MIN KMKG 270535Z 10012G19KT 10SM OVC085 06/03 A2996 590 85 -300 100/12G19 RMK AO2
14840KMKG MKG20011127004010211/27/01 00:40:31  5-MIN KMKG 270540Z 08013G18KT 10SM OVC085 06/03 A2996 600 85 -300 090/13G18 RMK AO2
14840KMKG MKG20011127004510211/27/01 00:45:31  5-MIN KMKG 270545Z 09017G22KT 10SM BKN085 06/03 A2993 620 85 -300 090/17G22 RMK AO2
14840KMKG MKG20011127005014311/27/01 00:50:31  5-MIN KMKG 270550Z 09013G22KT 10SM BKN085 06/03 A2994 610 85 -300 100/13G22 RMK AO2 SLP142 60000 T00560033 10061 20056 58014
14840KMKG MKG20011127005515811/27/01 00:55:31  5-MIN KMKG 270555Z 09013G21KT 10SM OVC085 06/03 A2994 610 85 -300 100/13G21 RMK AO2 RAB52E54 SLP143 P0000 60000 T00560033 10061 20056 58025
14840KMKG MKG20011127010010211/27/01 01:00:31  5-MIN KMKG 270600Z 09014G21KT 10SM OVC080 06/03 A2994 620 85 -300 100/14G21 RMK AO2
14840KMKG MKG20011127010511611/27/01 01:05:31  5-MIN KMKG 270605Z 08014G22KT 10SM BKN085 OVC100 06/03 A2991 640 85 -300 080/14G22 RMK AO2 PRESFR
14840KMKG MKG20011127011010911/27/01 01:10:31  5-MIN KMKG 270610Z 08016G22KT 10SM BKN080 OVC100 06/03 A2990 650 85 -200 080/16G22 RMK AO2
14840KMKG MKG20011127011511811/27/01 01:15:31  5-MIN KMKG 270615Z 09015KT 9SM -RA BKN080 OVC100 06/03 A2990 650 85 -200 090/15 RMK AO2 RAB13 P0000
14840KMKG MKG20011127012012511/27/01 01:20:31  5-MIN KMKG 270620Z 08014KT 9SM -RA BKN080 BKN100 06/03 A2988 670 85 -200 080/14 RMK AO2 RAB13 PRESFR P0000
14840KMKG MKG20011127012512411/27/01 01:25:31  5-MIN KMKG 270625Z 10010G18KT 10SM BKN080 BKN100 06/03 A2991 640 85 -300 100/10G18 RMK AO2 RAB13E23 P0000
14840KMKG MKG20011127013013011/27/01 01:30:31  5-MIN KMKG 270630Z 10013G18KT 9SM BKN080 BKN100 06/03 A2993 620 85 -300 100/13G18 RMK AO2 RAB13E23 PRESRR P0000
14840KMKG MKG20011127013511711/27/01 01:35:31  5-MIN KMKG 270635Z 11011KT 9SM BKN080 BKN100 06/03 A2993 620 85 -300 110/11 RMK AO2 RAB13E23 P0000
14840KMKG MKG20011127014011611/27/01 01:40:31  5-MIN KMKG 270640Z 09014G17KT 9SM BKN080 06/03 A2991 640 85 -300 100/14G17 RMK AO2 RAB13E23 P0000
14840KMKG MKG20011127014511011/27/01 01:45:31  5-MIN KMKG 270645Z 09012KT 9SM BKN075 06/03 A2990 650 85 -200 100/12 RMK AO2 RAB13E23 P0000
14840KMKG MKG20011127015013311/27/01 01:50:31  5-MIN KMKG 270650Z 09013G20KT 9SM OVC075 06/03 A2990 650 85 -200 100/13G20 RMK AO2 RAB13E23 SLP130 P0000 T00560033
14840KMKG MKG20011127015513311/27/01 01:55:31  5-MIN KMKG 270655Z 10012G20KT 9SM OVC075 06/03 A2993 630 82 -200 100/12G20 RMK AO2 RAB13E23 SLP137 P0000 T00610033
14840KMKG MKG20011127020010211/27/01 02:00:31  5-MIN KMKG 270700Z 10013KT 9SM FEW018 OVC075 06/03 A2991 640 82 -200 100/13 RMK AO2
14840KMKG MKG20011127020510211/27/01 02:05:31  5-MIN KMKG 270705Z 09017KT 9SM FEW018 OVC070 06/03 A2989 660 82 -200 100/17 RMK AO2
14840KMKG MKG20011127021010211/27/01 02:10:31  5-MIN KMKG 270710Z 11014KT 9SM FEW018 OVC070 06/03 A2992 630 82 -200 110/14 RMK AO2
14840KMKG MKG20011127021510911/27/01 02:15:31  5-MIN KMKG 270715Z 10012KT 9SM SCT018 SCT046 OVC070 06/03 A2991 640 82 -200 110/12 RMK AO2
14840KMKG MKG20011127022011511/27/01 02:20:31  5-MIN KMKG 270720Z 09013G21KT 8SM SCT018 SCT046 OVC070 06/03 A2989 660 85 -200 100/13G21 RMK AO2
14840KMKG MKG20011127022511511/27/01 02:25:31  5-MIN KMKG 270725Z 10015G22KT 7SM FEW018 SCT044 OVC065 06/03 A2991 640 85 -300 100/15G22 RMK AO2
14840KMKG MKG20011127023010811/27/01 02:30:31  5-MIN KMKG 270730Z 10016G22KT 8SM FEW018 OVC060 06/03 A2990 650 85 -200 100/16G22 RMK AO2
14840KMKG MKG20011127023510811/27/01 02:35:31  5-MIN KMKG 270735Z 10016G22KT 8SM FEW018 OVC060 06/03 A2989 660 85 -200 100/16G22 RMK AO2
14840KMKG MKG20011127024010911/27/01 02:40:31  5-MIN KMKG 270740Z 10016KT 9SM FEW018 SCT049 OVC060 06/03 A2989 660 85 -200 110/16 RMK AO2
14840KMKG MKG20011127024510811/27/01 02:45:31  5-MIN KMKG 270745Z 11016G22KT 9SM FEW017 OVC055 06/03 A2990 650 82 -200 110/16G22 RMK AO2
14840KMKG MKG20011127025013211/27/01 02:50:31  5-MIN KMKG 270750Z 10017G22KT 8SM FEW017 SCT049 OVC060 06/03 A2990 650 85 -200 110/17G22 RMK AO2 SLP128 T00560033
14840KMKG MKG20011127025513211/27/01 02:55:31  5-MIN KMKG 270755Z 10018G21KT 8SM FEW039 BKN047 OVC060 06/03 A2990 650 85 -200 110/18G21 RMK AO2 SLP128 T00560033
14840KMKG MKG20011127030011511/27/01 03:00:31  5-MIN KMKG 270800Z 10015G22KT 7SM FEW020 BKN047 OVC060 06/03 A2989 660 85 -200 100/15G22 RMK AO2
14840KMKG MKG20011127030511811/27/01 03:05:31  5-MIN KMKG 270805Z 10014G22KT 6SM BR FEW017 SCT026 OVC047 06/04 A2989 660 89 -200 100/14G22 RMK AO2
14840KMKG MKG20011127031011811/27/01 03:10:31  5-MIN KMKG 270810Z 10016G20KT 6SM BR FEW017 BKN038 OVC046 06/04 A2989 660 89 -200 100/16G20 RMK AO2
14840KMKG MKG20011127031511211/27/01 03:15:31  5-MIN KMKG 270815Z 10011KT 6SM BR SCT017 BKN024 OVC046 06/04 A2989 660 89 -200 110/11 RMK AO2
14840KMKG MKG20011127032011811/27/01 03:20:31  5-MIN KMKG 270820Z 10014G19KT 6SM BR FEW013 BKN020 OVC046 06/04 A2989 660 89 -200 100/14G19 RMK AO2
14840KMKG MKG20011127032511811/27/01 03:25:31  5-MIN KMKG 270825Z 10012G19KT 5SM BR BKN016 BKN025 OVC046 06/04 A2989 660 89 -200 100/12G19 RMK AO2
14840KMKG MKG20011127033011211/27/01 03:30:31  5-MIN KMKG 270830Z 09013KT 6SM BR BKN016 BKN022 OVC033 06/04 A2988 660 89 -200 100/13 RMK AO2
14840KMKG MKG20011127033511111/27/01 03:35:31  5-MIN KMKG 270835Z 10016G25KT 5SM BR BKN016 OVC024 06/04 A2987 680 89 -200 100/16G25 RMK AO2
14840KMKG MKG20011127034011811/27/01 03:40:31  5-MIN KMKG 270840Z 10015G25KT 4SM BR BKN016 OVC027 06/04 A2986 690 89 -200 100/15G25 RMK AO2 PRESFR
14840KMKG MKG20011127034512711/27/01 03:45:31  5-MIN KMKG 270845Z 09015G22KT 3SM -RA BR BKN016 OVC027 05/04 A2986 690 92 -300 100/15G22 RMK AO2 RAB43 P0000
14840KMKG MKG20011127035015611/27/01 03:50:31  5-MIN KMKG 270850Z 10015G22KT 3SM -RA BR BKN016 OVC025 05/04 A2985 690 96 -300 100/15G22 RMK AO2 RAB43 SLP113 P0000 60000 T00500044 58025
14840KMKG MKG20011127035516011/27/01 03:55:31  5-MIN KMKG 270855Z 09014G21KT 2 1/2SM -RA BR BKN013 OVC025 05/04 A2986 690 96 -300 100/14G21 RMK AO2 RAB43 SLP115 P0000 60000 T00500044 58029
14840KMKG MKG20011127040011811/27/01 04:00:31  5-MIN KMKG 270900Z 10013G21KT 2 1/2SM -RA BR OVC013 05/04 A2986 690 96 -300 100/13G21 RMK AO2 P0000
14840KMKG MKG20011127040512511/27/01 04:05:31  5-MIN KMKG 270905Z 10014G21KT 2 1/2SM -RA BR BKN013 OVC018 05/04 A2985 690 96 -300 100/14G21 RMK AO2 P0000
14840KMKG MKG20011127041011911/27/01 04:10:31  5-MIN KMKG 270910Z 09014KT 2 1/2SM -RA BR BKN011 OVC017 05/04 A2986 690 96 -300 100/14 RMK AO2 P0000
14840KMKG MKG20011127041511511/27/01 04:15:31  5-MIN KMKG 270915Z 10012KT 3SM -RA BR BKN011 OVC017 05/04 A2985 690 96 -300 100/12 RMK AO2 P0000
14840KMKG MKG20011127042013711/27/01 04:20:31  5-MIN KMKG 270920Z 09011G18KT 2 1/2SM -RA BR BKN011 OVC015 05/04 A2985 690 96 -300 100/11G18 RMK AO2 CIG 008V012 P0000
14840KMKG MKG20011127042513311/27/01 04:25:31  5-MIN KMKG 270925Z 10014G18KT 2SM -RA BR BKN011 OVC015 05/04 A2985 700 96 -300 100/14G18 RMK AO2 CIG 007V012 P0000
14840KMKG MKG20011127043013711/27/01 04:30:31  5-MIN KMKG 270930Z 10012G18KT 1 3/4SM -RA BR BKN008 OVC011 05/04 A2984 700 96 -200 100/12G18 RMK AO2 CIG 006V010 P0000
14840KMKG MKG20011127043512011/27/01 04:35:31  5-MIN KMKG 270935Z 10012KT 2SM -RA BR OVC008 05/04 A2984 700 96 -200 100/12 RMK AO2 CIG 005V012 P0001
14840KMKG MKG20011127044013311/27/01 04:40:31  5-MIN KMKG 270940Z 09011G18KT 2SM -RA BR BKN008 OVC012 05/04 A2984 700 96 -200 100/11G18 RMK AO2 CIG 005V010 P0001
14840KMKG MKG20011127044513311/27/01 04:45:31  5-MIN KMKG 270945Z 09013G19KT 2SM -RA BR BKN008 OVC012 05/04 A2984 710 96 -200 100/13G19 RMK AO2 CIG 005V010 P0001
14840KMKG MKG20011127045014311/27/01 04:50:31  5-MIN KMKG 270950Z 09013G19KT 2SM -RA BR OVC008 05/04 A2984 710 96 -200 090/13G19 RMK AO2 CIG 005V010 SLP108 P0001 T00500044
14840KMKG MKG20011127045514711/27/01 04:55:31  5-MIN KMKG 270955Z 09012G18KT 2 1/2SM -RA BR OVC008 05/04 A2984 700 96 -200 100/12G18 RMK AO2 CIG 005V012 SLP109 P0001 T00500044
14840KMKG MKG20011127050012411/27/01 05:00:31  5-MIN KMKG 271000Z 09011KT 2 1/2SM -RA BR OVC008 05/04 A2984 710 96 -200 100/11 RMK AO2 CIG 005V011 P0000
14840KMKG MKG20011127050512011/27/01 05:05:31  5-MIN KMKG 271005Z 10010KT 3SM -RA BR OVC008 05/04 A2984 700 96 -200 100/10 RMK AO2 CIG 005V010 P0000
14840KMKG MKG20011127051012011/27/01 05:10:31  5-MIN KMKG 271010Z 09011KT 3SM -RA BR OVC008 05/04 A2984 710 96 -200 100/11 RMK AO2 CIG 005V011 P0000
14840KMKG MKG20011127051512011/27/01 05:15:31  5-MIN KMKG 271015Z 09009KT 3SM -RA BR OVC008 05/04 A2984 710 96 -200 100/09 RMK AO2 CIG 005V011 P0000
14840KMKG MKG20011127052012411/27/01 05:20:31  5-MIN KMKG 271020Z 09009KT 2 1/2SM -RA BR OVC008 05/04 A2984 710 96 -200 090/09 RMK AO2 CIG 005V011 P0000
14840KMKG MKG20011127052512511/27/01 05:25:31  5-MIN KMKG 271025Z 10009KT 2 1/2SM -RA BR OVC008 05/05 A2985 700 100 -300 100/09 RMK AO2 CIG 005V009 P0000
14840KMKG MKG20011127053012511/27/01 05:30:31  5-MIN KMKG 271030Z 09011KT 2 1/2SM -RA BR OVC008 05/05 A2984 700 100 -200 100/11 RMK AO2 CIG 005V009 P0000
14840KMKG MKG20011127053512111/27/01 05:35:31  5-MIN KMKG 271035Z 09012KT 2SM -RA BR OVC008 05/05 A2984 710 100 -200 090/12 RMK AO2 CIG 005V011 P0000
14840KMKG MKG20011127054012111/27/01 05:40:31  5-MIN KMKG 271040Z 09010KT 2SM -RA BR OVC008 05/05 A2984 710 100 -200 100/10 RMK AO2 CIG 005V011 P0000
14840KMKG MKG20011127054512111/27/01 05:45:31  5-MIN KMKG 271045Z 09010KT 2SM -RA BR OVC008 05/05 A2983 710 100 -200 090/10 RMK AO2 CIG 005V011 P0000
14840KMKG MKG20011127055013811/27/01 05:50:31  5-MIN KMKG 271050Z 09010KT 2SM -RA BR OVC008 05/05 A2983 710 100 -200 090/10 RMK AO2 CIG 004V011 SLP106 P0000 T00500050
14840KMKG MKG20011127055513811/27/01 05:55:31  5-MIN KMKG 271055Z 09011KT 2SM -RA BR OVC008 05/05 A2983 720 100 -200 090/11 RMK AO2 CIG 004V011 SLP105 P0000 T00500050
14840KMKG MKG20011127060012111/27/01 06:00:31  5-MIN KMKG 271100Z 10009KT 2SM -RA BR OVC008 05/05 A2983 710 100 -200 100/09 RMK AO2 CIG 004V011 P0000
14840KMKG MKG20011127060512711/27/01 06:05:31  5-MIN KMKG 271105Z 09012G16KT 2SM -RA BR OVC008 05/05 A2983 720 100 -200 100/12G16 RMK AO2 CIG 004V010 P0000
14840KMKG MKG20011127061012311/27/01 06:10:31  5-MIN KMKG 271110Z 10012KT 2SM BR OVC006 05/05 A2982 720 100 -200 100/12 RMK AO2 RAE09 CIG 004V010 P0000
14840KMKG MKG20011127061512311/27/01 06:15:31  5-MIN KMKG 271115Z 10012KT 2SM BR OVC006 05/05 A2982 720 100 -200 100/12 RMK AO2 RAE09 CIG 004V010 P0000
14840KMKG MKG20011127062012311/27/01 06:20:31  5-MIN KMKG 271120Z 10011KT 2SM BR OVC006 05/05 A2982 730 100 -200 100/11 RMK AO2 RAE09 CIG 004V010 P0000
14840KMKG MKG20011127062512311/27/01 06:25:31  5-MIN KMKG 271125Z 10008KT 2SM BR OVC006 05/05 A2981 730 100 -200 100/08 RMK AO2 RAE09 CIG 004V010 P0000
14840KMKG MKG20011127063012311/27/01 06:30:31  5-MIN KMKG 271130Z 10011KT 2SM BR OVC006 05/05 A2981 730 100 -200 100/11 RMK AO2 RAE09 CIG 004V010 P0000
14840KMKG MKG20011128153510211/28/01 15:35:31  5-MIN KMKG 282035Z 08010KT 7SM BKN011 OVC017 04/03 A3024 340 92 -800 080/10 RMK AO2
14840KMKG MKG20011128154010211/28/01 15:40:31  5-MIN KMKG 282040Z 08011KT 8SM BKN011 OVC017 04/03 A3024 340 92 -800 090/11 RMK AO2
14840KMKG MKG20011128154510211/28/01 15:45:31  5-MIN KMKG 282045Z 07010KT 8SM BKN011 OVC020 04/03 A3024 340 92 -800 080/10 RMK AO2
14840KMKG MKG20011128155013711/28/01 15:50:31  5-MIN KMKG 282050Z 08010KT 8SM BKN011 OVC018 04/03 A3024 340 96 -800 090/10 RMK AO2 CIG 008V013 SLP246 T00390033 58008
14840KMKG MKG20011128155513011/28/01 15:55:31  5-MIN KMKG 282055Z 07009KT 8SM OVC009 04/03 A3024 340 96 -800 080/09 RMK AO2 CIG 008V013 SLP246 T00390033 58001
14840KMKG MKG20011128160011011/28/01 16:00:31  5-MIN KMKG 282100Z 09009KT 6SM BR OVC009 04/03 A3024 330 96 -800 090/09 RMK AO2 CIG 008V013
14840KMKG MKG20011128160511011/28/01 16:05:31  5-MIN KMKG 282105Z 07008KT 5SM BR OVC009 04/03 A3025 330 96 -800 070/08 RMK AO2 CIG 008V013
14840KMKG MKG20011128161011011/28/01 16:10:31  5-MIN KMKG 282110Z 08009KT 4SM BR OVC009 04/03 A3025 330 96 -900 080/09 RMK AO2 CIG 008V014
14840KMKG MKG20011128161511411/28/01 16:15:31  5-MIN KMKG 282115Z 07008KT 3SM -DZ BR OVC011 04/03 A3025 320 96 -900 070/08 RMK AO2 DZB14 P0000
14840KMKG MKG20011128162011411/28/01 16:20:31  5-MIN KMKG 282120Z 08009KT 3SM -DZ BR OVC011 04/03 A3025 320 96 -900 090/09 RMK AO2 DZB14 P0000
14840KMKG MKG20011128162511811/28/01 16:25:31  5-MIN KMKG 282125Z 07008KT 2 1/2SM -DZ BR OVC011 04/03 A3025 320 96 -900 070/08 RMK AO2 DZB14 P0000
14840KMKG MKG20011128163011811/28/01 16:30:31  5-MIN KMKG 282130Z 08007KT 2 1/2SM -DZ BR OVC013 04/03 A3025 320 96 -900 080/07 RMK AO2 DZB14 P0000
14840KMKG MKG20011128163512711/28/01 16:35:31  5-MIN KMKG 282135Z 07008KT 3SM -DZ BR OVC013 04/03 A3026 320 96 -900 080/08 RMK AO2 VIS 2 RWY 14 DZB14 P0000
14840KMKG MKG20011128164011811/28/01 16:40:31  5-MIN KMKG 282140Z 07007KT 2 1/2SM -DZ BR OVC013 04/03 A3026 320 96 -900 080/07 RMK AO2 DZB14 P0000
14840KMKG MKG20011128164513711/28/01 16:45:31  5-MIN KMKG 282145Z 05006KT 2 1/2SM -DZ BR BKN010 OVC013 04/03 A3026 310 96 -900 060/06 RMK AO2 DZB14 CIG 007V012 P0000
14840KMKG MKG20011128165014511/28/01 16:50:31  5-MIN KMKG 282150Z 05007KT 2SM -DZ BR OVC010 04/03 A3026 310 96 -900 060/07 RMK AO2 SFC VIS 2 1/2 DZB14 SLP254 P0000 T00390033
14840KMKG MKG20011128165516411/28/01 16:55:31  5-MIN KMKG 282155Z 06008KT 2SM -DZ BR BKN007 OVC013 04/03 A3026 320 96 -900 070/08 RMK AO2 SFC VIS 2 1/2 DZB14 CIG 004V010 SLP252 P0000 T00390033
14840KMKG MKG20011128170012711/28/01 17:00:31  5-MIN KMKG 282200Z 07009KT 2SM -DZ BR BKN007 OVC013 04/03 A3025 330 96 -900 070/09 RMK AO2 CIG 004V009 P0000
14840KMKG MKG20011128170514211/28/01 17:05:31  5-MIN KMKG 282205Z 07008KT 2SM -DZ BR BKN007 OVC013 03/03 A3025 320 100 -900 070/08 RMK AO2 SFC VIS 2 1/2 CIG 004V010 P0001
14840KMKG MKG20011128171013811/28/01 17:10:31  5-MIN KMKG 282210Z 07008KT 2SM -DZ BR BKN007 OVC012 03/03 A3025 320 100 -900 070/08 RMK AO2 SFC VIS 3 CIG 004V010 P0001
14840KMKG MKG20011128171513811/28/01 17:15:31  5-MIN KMKG 282215Z 07007KT 2SM -DZ BR BKN007 OVC012 03/03 A3025 320 100 -900 070/07 RMK AO2 SFC VIS 3 CIG 004V010 P0001
14840KMKG MKG20011128172013811/28/01 17:20:31  5-MIN KMKG 282220Z 06009KT 2SM -DZ BR BKN007 OVC012 03/03 A3026 320 100 -900 070/09 RMK AO2 SFC VIS 3 CIG 004V009 P0001
14840KMKG MKG20011128172513811/28/01 17:25:31  5-MIN KMKG 282225Z 07007KT 2SM -DZ BR BKN007 OVC012 03/03 A3026 320 100 -900 070/07 RMK AO2 SFC VIS 3 CIG 004V010 P0001
14840KMKG MKG20011128173013811/28/01 17:30:31  5-MIN KMKG 282230Z 07008KT 2SM -DZ BR BKN007 OVC011 03/03 A3025 320 100 -900 070/08 RMK AO2 SFC VIS 3 CIG 004V008 P0001
14840KMKG MKG20011128173513811/28/01 17:35:31  5-MIN KMKG 282235Z 07008KT 2SM -DZ BR BKN007 OVC011 03/03 A3025 320 100 -900 080/08 RMK AO2 SFC VIS 4 CIG 004V009 P0001
14840KMKG MKG20011128174012611/28/01 17:40:31  5-MIN KMKG 282240Z 07008KT 2SM -DZ BR BKN005 OVC011 03/03 A3026 320 100 -900 080/08 RMK AO2 SFC VIS 4 P0001
14840KMKG MKG20011128174513111/28/01 17:45:31  5-MIN KMKG 282245Z 05006KT 2SM -DZ BR OVC007 03/03 A3026 310 100 -900 060/06 RMK AO2 SFC VIS 4 CIG 004V012 P0001
14840KMKG MKG20011128175015511/28/01 17:50:31  5-MIN KMKG 282250Z 06007KT 2SM -DZ BR BKN007 OVC011 03/03 A3026 310 100 -900 060/07 RMK AO2 SFC VIS 4 CIG 004V009 SLP254 P0001 T00330033
14840KMKG MKG20011128175514811/28/01 17:55:31  5-MIN KMKG 282255Z 06007KT 2SM -DZ BR OVC007 03/03 A3027 310 100 -900 070/07 RMK AO2 SFC VIS 3 CIG 005V011 SLP255 P0001 T00330033
14840KMKG MKG20011128180013811/28/01 18:00:31  5-MIN KMKG 282300Z 07008KT 2SM -DZ BR BKN007 OVC011 03/03 A3026 320 100 -900 080/08 RMK AO2 SFC VIS 3 CIG 005V009 P0000
14840KMKG MKG20011128180513111/28/01 18:05:31  5-MIN KMKG 282305Z 07008KT 2SM -DZ BR OVC007 03/03 A3026 320 100 -900 070/08 RMK AO2 SFC VIS 3 CIG 005V011 P0000
14840KMKG MKG20011128181013811/28/01 18:10:31  5-MIN KMKG 282310Z 06006KT 2SM -DZ BR BKN007 OVC010 03/03 A3026 320 100 -900 070/06 RMK AO2 SFC VIS 3 CIG 004V008 P0000
14840KMKG MKG20011128181513811/28/01 18:15:31  5-MIN KMKG 282315Z 06007KT 2SM -DZ BR BKN007 OVC010 03/03 A3026 320 100 -900 060/07 RMK AO2 SFC VIS 3 CIG 004V008 P0000
14840KMKG MKG20011128182013811/28/01 18:20:31  5-MIN KMKG 282320Z 07007KT 2SM -DZ BR BKN007 OVC013 03/03 A3027 310 100 -900 070/07 RMK AO2 SFC VIS 3 CIG 004V011 P0000
14840KMKG MKG20011128182513811/28/01 18:25:31  5-MIN KMKG 282325Z 06008KT 2SM -DZ BR BKN007 OVC011 03/03 A3027 310 100 -900 070/08 RMK AO2 SFC VIS 3 CIG 004V009 P0000
14840KMKG MKG20011128183013811/28/01 18:30:31  5-MIN KMKG 282330Z 07008KT 2SM -DZ BR BKN007 OVC011 03/03 A3026 320 100 -900 070/08 RMK AO2 SFC VIS 3 CIG 004V010 P0000
14840KMKG MKG20011128183512611/28/01 18:35:31  5-MIN KMKG 282335Z 07009KT 2SM -DZ BR SCT007 OVC011 03/03 A3026 320 100 -900 070/09 RMK AO2 SFC VIS 3 P0000
14840KMKG MKG20011128184012611/28/01 18:40:31  5-MIN KMKG 282340Z 07007KT 2SM -DZ BR SCT007 OVC013 03/03 A3026 320 100 -900 080/07 RMK AO2 SFC VIS 3 P0000
14840KMKG MKG20011128184513311/28/01 18:45:31  5-MIN KMKG 282345Z 07009KT 2SM -DZ BR SCT007 BKN010 OVC013 03/03 A3025 320 100 -900 070/09 RMK AO2 SFC VIS 3 P0000
14840KMKG MKG20011128185016711/28/01 18:50:31  5-MIN KMKG 282350Z 08007KT 2SM -DZ BR SCT007 OVC013 03/03 A3025 330 100 -900 080/07 RMK AO2 SFC VIS 3 SLP250 P0000 60001 T00330033 10056 20033 58001
14840KMKG MKG20011128185518611/28/01 18:55:31  5-MIN KMKG 282355Z 08008KT 2SM -DZ BR FEW005 BKN009 OVC013 03/03 A3025 330 100 -900 080/08 RMK AO2 SFC VIS 3 CIG 008V011 SLP250 P0000 60001 T00330033 10056 20033 50003
14840KMKG MKG20011128190014511/28/01 19:00:31  5-MIN KMKG 290000Z 08008KT 2SM -DZ BR FEW005 BKN010 OVC013 03/03 A3025 330 100 -900 080/08 RMK AO2 SFC VIS 3 CIG 006V013 P0000
14840KMKG MKG20011128190514111/28/01 19:05:31  5-MIN KMKG 290005Z 08009KT 2SM -DZ BR SCT007 OVC013 03/03 A3024 330 100 -900 080/09 RMK AO2 SFC VIS 3 CIG 007 RWY 14 P0000
14840KMKG MKG20011128191014111/28/01 19:10:31  5-MIN KMKG 290010Z 09011KT 2SM -DZ BR SCT007 OVC011 03/03 A3024 340 100 -900 090/11 RMK AO2 SFC VIS 3 CIG 007 RWY 14 P0000
14840KMKG MKG20011128191513811/28/01 19:15:31  5-MIN KMKG 290015Z 07009KT 2SM -DZ BR BKN009 OVC013 03/03 A3024 340 100 -900 080/09 RMK AO2 SFC VIS 3 CIG 004V011 P0000
14840KMKG MKG20011128192013811/28/01 19:20:31  5-MIN KMKG 290020Z 08008KT 2SM -DZ BR BKN007 OVC013 03/03 A3024 340 100 -900 080/08 RMK AO2 SFC VIS 3 CIG 004V011 P0000
14840KMKG MKG20011128192513811/28/01 19:25:31  5-MIN KMKG 290025Z 07010KT 2SM -DZ BR BKN007 OVC013 03/03 A3024 330 100 -900 070/10 RMK AO2 SFC VIS 4 CIG 005V010 P0000
14840KMKG MKG20011128193013811/28/01 19:30:31  5-MIN KMKG 290030Z 08010KT 2SM -DZ BR BKN007 OVC013 03/03 A3024 330 100 -900 090/10 RMK AO2 SFC VIS 4 CIG 005V010 P0000
14840KMKG MKG20011128193513811/28/01 19:35:31  5-MIN KMKG 290035Z 08009KT 2SM -DZ BR BKN007 OVC012 03/03 A3024 340 100 -900 080/09 RMK AO2 SFC VIS 4 CIG 005V010 P0000
14840KMKG MKG20011128194013811/28/01 19:40:31  5-MIN KMKG 290040Z 07012KT 2SM -DZ BR BKN007 OVC012 03/03 A3024 340 100 -900 080/12 RMK AO2 SFC VIS 4 CIG 005V010 P0000
14840KMKG MKG20011128194513711/28/01 19:45:31  5-MIN KMKG 290045Z 08010KT 2SM -DZ BR BKN007 OVC012 03/03 A3023 340 96 -900 080/10 RMK AO2 SFC VIS 5 CIG 005V010 P0000
14840KMKG MKG20011128195014711/28/01 19:50:31  5-MIN KMKG 290050Z 08008KT 2SM -DZ BR OVC009 03/03 A3023 340 96 -900 080/08 RMK AO2 SFC VIS 6 CIG 005V013 SLP243 P0000 T00330028
14840KMKG MKG20011128195514411/28/01 19:55:31  5-MIN KMKG 290055Z 08009KT 2SM -DZ OVC007 03/03 A3023 340 96 -900 090/09 RMK AO2 SFC VIS 8 CIG 005V010 SLP244 P0000 T00330028
14840KMKG MKG20011128200012211/28/01 20:00:31  5-MIN KMKG 290100Z 08010KT 10SM OVC009 03/03 A3024 340 96 -900 090/10 RMK AO2 DZE0059 CIG 005V010 P0000
14840KMKG MKG20011128200512211/28/01 20:05:31  5-MIN KMKG 290105Z 08009KT 10SM OVC007 03/03 A3023 350 96 -900 080/09 RMK AO2 DZE0059 CIG 005V010 P0000
14840KMKG MKG20011128201012211/28/01 20:10:31  5-MIN KMKG 290110Z 08009KT 10SM OVC007 03/03 A3023 350 96 -900 080/09 RMK AO2 DZE0059 CIG 005V012 P0000
14840KMKG MKG20011128201512211/28/01 20:15:31  5-MIN KMKG 290115Z 08011KT 10SM OVC007 03/03 A3022 350 96 -900 080/11 RMK AO2 DZE0059 CIG 005V012 P0000
14840KMKG MKG20011128202012211/28/01 20:20:31  5-MIN KMKG 290120Z 08009KT 10SM OVC007 03/03 A3022 350 96 -900 080/09 RMK AO2 DZE0059 CIG 005V012 P0000
14840KMKG MKG20011128202512211/28/01 20:25:31  5-MIN KMKG 290125Z 08009KT 10SM OVC007 03/03 A3022 350 96 -900 090/09 RMK AO2 DZE0059 CIG 006V011 P0000
14840KMKG MKG20011128203012211/28/01 20:30:31  5-MIN KMKG 290130Z 08008KT 10SM OVC007 03/03 A3022 350 96 -900 090/08 RMK AO2 DZE0059 CIG 006V011 P0000
14840KMKG MKG20011128203512211/28/01 20:35:31  5-MIN KMKG 290135Z 08008KT 10SM OVC007 03/03 A3022 360 96 -900 080/08 RMK AO2 DZE0059 CIG 006V011 P0000
14840KMKG MKG20011128204012211/28/01 20:40:31  5-MIN KMKG 290140Z 08008KT 10SM OVC007 03/03 A3022 360 96 -900 090/08 RMK AO2 DZE0059 CIG 006V011 P0000
14840KMKG MKG20011128204511011/28/01 20:45:31  5-MIN KMKG 290145Z 08008KT 10SM OVC007 03/03 A3022 350 96 -900 090/08 RMK AO2 DZE0059 P0000
14840KMKG MKG20011128205012711/28/01 20:50:31  5-MIN KMKG 290150Z 08008KT 10SM OVC007 03/03 A3022 360 96 -900 090/08 RMK AO2 DZE0059 SLP239 P0000 T00330028
14840KMKG MKG20011128205512711/28/01 20:55:31  5-MIN KMKG 290155Z 08009KT 10SM OVC007 03/03 A3021 360 96 -900 080/09 RMK AO2 DZE0059 SLP237 P0000 T00330028
14840KMKG MKG20011128210009611/28/01 21:00:31  5-MIN KMKG 290200Z 09008KT 10SM OVC007 03/03 A3022 360 96 -900 090/08 RMK AO2
14840KMKG MKG20011128210509611/28/01 21:05:31  5-MIN KMKG 290205Z 09009KT 10SM OVC007 03/03 A3022 360 96 -900 090/09 RMK AO2
14840KMKG MKG20011128211009511/28/01 21:10:31  5-MIN KMKG 290210Z 08008KT 9SM OVC007 03/03 A3022 360 96 -900 090/08 RMK AO2
14840KMKG MKG20011128211509511/28/01 21:15:31  5-MIN KMKG 290215Z 08006KT 8SM OVC007 03/03 A3022 360 96 -900 080/06 RMK AO2
14840KMKG MKG20011128212009511/28/01 21:20:31  5-MIN KMKG 290220Z 08009KT 8SM OVC007 03/03 A3022 360 96 -900 080/09 RMK AO2
14840KMKG MKG20011128212509511/28/01 21:25:31  5-MIN KMKG 290225Z 09008KT 8SM OVC007 03/03 A3021 360 96 -900 090/08 RMK AO2
14840KMKG MKG20011128213009511/28/01 21:30:31  5-MIN KMKG 290230Z 09006KT 8SM OVC007 03/03 A3022 360 96 -900 090/06 RMK AO2
14840KMKG MKG20011128213509511/28/01 21:35:31  5-MIN KMKG 290235Z 08008KT 8SM OVC007 03/03 A3021 360 96 -900 090/08 RMK AO2
14840KMKG MKG20011128214009511/28/01 21:40:31  5-MIN KMKG 290240Z 08007KT 7SM OVC007 03/03 A3021 360 96 -900 080/07 RMK AO2
14840KMKG MKG20011128214509511/28/01 21:45:31  5-MIN KMKG 290245Z 08008KT 7SM OVC007 03/03 A3021 360 96 -900 080/08 RMK AO2
14840KMKG MKG20011128215013611/28/01 21:50:31  5-MIN KMKG 290250Z 08008KT 7SM OVC007 03/03 A3021 360 96 -900 090/08 RMK AO2 CIG 005V010 SLP236 60000 T00330028 50003
14840KMKG MKG20011128215513611/28/01 21:55:31  5-MIN KMKG 290255Z 08008KT 8SM OVC007 03/03 A3021 360 96 -900 090/08 RMK AO2 CIG 005V010 SLP236 60000 T00330028 56013
14840KMKG MKG20011128220012511/28/01 22:00:31  5-MIN KMKG 290300Z 10008KT 8SM -RA OVC007 03/03 A3021 360 96 -900 100/08 RMK AO2 RAB0259 CIG 005V011 P0000
14840KMKG MKG20011128220512511/28/01 22:05:31  5-MIN KMKG 290305Z 09008KT 8SM -RA OVC007 03/03 A3021 370 96 -900 090/08 RMK AO2 RAB0259 CIG 005V011 P0000
14840KMKG MKG20011128221012511/28/01 22:10:31  5-MIN KMKG 290310Z 07007KT 8SM -RA OVC007 03/03 A3020 370 96 -900 070/07 RMK AO2 RAB0259 CIG 005V011 P0000
14840KMKG MKG20011128221512511/28/01 22:15:31  5-MIN KMKG 290315Z 07009KT 7SM -RA OVC007 03/03 A3020 380 96 -900 080/09 RMK AO2 RAB0259 CIG 006V011 P0000
14840KMKG MKG20011128222012511/28/01 22:20:31  5-MIN KMKG 290320Z 09008KT 7SM -RA OVC007 03/03 A3019 380 96 -900 090/08 RMK AO2 RAB0259 CIG 006V011 P0000
14840KMKG MKG20011128222512511/28/01 22:25:31  5-MIN KMKG 290325Z 08007KT 7SM -RA OVC009 03/03 A3019 380 96 -900 090/07 RMK AO2 RAB0259 CIG 006V012 P0000
14840KMKG MKG20011128223012511/28/01 22:30:31  5-MIN KMKG 290330Z 08008KT 7SM -RA OVC009 03/03 A3019 390 96 -800 080/08 RMK AO2 RAB0259 CIG 006V012 P0000
14840KMKG MKG20011128223512511/28/01 22:35:31  5-MIN KMKG 290335Z 08006KT 7SM -RA OVC009 03/03 A3018 390 96 -800 080/06 RMK AO2 RAB0259 CIG 006V012 P0000
14840KMKG MKG20011128224012511/28/01 22:40:31  5-MIN KMKG 290340Z 07008KT 7SM -RA OVC009 03/03 A3018 390 96 -800 080/08 RMK AO2 RAB0259 CIG 006V012 P0000
14840KMKG MKG20011128224512511/28/01 22:45:31  5-MIN KMKG 290345Z 08007KT 8SM -RA OVC009 03/03 A3018 390 96 -800 080/07 RMK AO2 RAB0259 CIG 007V013 P0000
14840KMKG MKG20011128225014211/28/01 22:50:31  5-MIN KMKG 290350Z 08009KT 8SM -RA OVC009 03/03 A3018 390 96 -800 080/09 RMK AO2 RAB0259 CIG 007V013 SLP224 P0000 T00330028
14840KMKG MKG20011128225513011/28/01 22:55:31  5-MIN KMKG 290355Z 08008KT 8SM -RA OVC011 03/03 A3017 400 96 -800 080/08 RMK AO2 RAB0259 SLP222 P0000 T00330028
14840KMKG MKG20011128230010511/28/01 23:00:31  5-MIN KMKG 290400Z 08006KT 8SM -RA OVC011 03/03 A3018 390 96 -800 080/06 RMK AO2 P0000
14840KMKG MKG20011128230510511/28/01 23:05:31  5-MIN KMKG 290405Z 07007KT 8SM -RA OVC011 03/03 A3017 400 96 -800 080/07 RMK AO2 P0000
14840KMKG MKG20011128231010511/28/01 23:10:31  5-MIN KMKG 290410Z 08009KT 8SM -RA OVC011 03/03 A3017 400 96 -800 090/09 RMK AO2 P0000
14840KMKG MKG20011128231510511/28/01 23:15:31  5-MIN KMKG 290415Z 08007KT 8SM -RA OVC011 03/02 A3018 390 92 -800 080/07 RMK AO2 P0001
14840KMKG MKG20011128232010511/28/01 23:20:31  5-MIN KMKG 290420Z 08009KT 7SM -RA OVC011 03/03 A3017 400 96 -800 080/09 RMK AO2 P0001
14840KMKG MKG20011128232510511/28/01 23:25:31  5-MIN KMKG 290425Z 08009KT 7SM -RA OVC011 03/02 A3016 410 92 -800 090/09 RMK AO2 P0001
14840KMKG MKG20011128233010811/28/01 23:30:31  5-MIN KMKG 290430Z 08009KT 6SM -RA BR OVC011 03/02 A3016 410 92 -800 080/09 RMK AO2 P0001
14840KMKG MKG20011128233510811/28/01 23:35:31  5-MIN KMKG 290435Z 08009KT 6SM -RA BR OVC011 03/02 A3015 420 96 -900 090/09 RMK AO2 P0002
14840KMKG MKG20011128234010511/28/01 23:40:31  5-MIN KMKG 290440Z 08009KT 7SM -RA OVC011 03/02 A3016 410 96 -900 080/09 RMK AO2 P0002
14840KMKG MKG20011128234510511/28/01 23:45:31  5-MIN KMKG 290445Z 08009KT 7SM -RA OVC011 03/02 A3015 420 96 -900 080/09 RMK AO2 P0002
14840KMKG MKG20011128235013211/28/01 23:50:31  5-MIN KMKG 290450Z 08008KT 8SM -RA OVC011 03/02 A3015 420 96 -900 080/08 RMK AO2 SLP217 P0002 T00280022 400560028
14840KMKG MKG20011128235513311/28/01 23:55:31  5-MIN KMKG 290455Z 07008KT 8SM -RA OVC011 03/03 A3015 420 100 -900 080/08 RMK AO2 SLP217 P0002 T00280028 400560028
14840KMKG MKG20011129000010511/29/01 00:00:31  5-MIN KMKG 290500Z 08008KT 8SM -RA OVC011 03/02 A3016 410 96 -900 080/08 RMK AO2 P0000
14840KMKG MKG20011129000510611/29/01 00:05:31  5-MIN KMKG 290505Z 08007KT 8SM -RA OVC011 03/03 A3015 410 100 -900 080/07 RMK AO2 P0000
14840KMKG MKG20011129001010711/29/01 00:10:31  5-MIN KMKG 290510Z 08009KT 8SM OVC011 03/02 A3015 420 96 -900 080/09 RMK AO2 RAE07 P0000
14840KMKG MKG20011129001510511/29/01 00:15:31  5-MIN KMKG 290515Z 08010KT 9SM -RA OVC011 03/02 A3014 420 96 -900 080/10 RMK AO2 P0000
14840KMKG MKG20011129002010511/29/01 00:20:31  5-MIN KMKG 290520Z 07009KT 9SM -RA OVC011 03/02 A3014 420 96 -900 070/09 RMK AO2 P0000
14840KMKG MKG20011129002510511/29/01 00:25:31  5-MIN KMKG 290525Z 07007KT 8SM -RA OVC011 03/02 A3015 420 96 -900 070/07 RMK AO2 P0000
14840KMKG MKG20011129003010511/29/01 00:30:31  5-MIN KMKG 290530Z 07009KT 8SM -RA OVC011 03/02 A3014 420 96 -900 070/09 RMK AO2 P0000
14840KMKG MKG20011129003511911/29/01 00:35:31  5-MIN KMKG 290535Z 07009KT 8SM -RA BKN011 BKN025 OVC055 03/02 A3014 430 96 -900 070/09 RMK AO2 P0000
14840KMKG MKG20011129004011911/29/01 00:40:31  5-MIN KMKG 290540Z 07007KT 7SM -RA BKN011 BKN042 OVC055 03/02 A3014 420 96 -900 070/07 RMK AO2 P0000
14840KMKG MKG20011129004513511/29/01 00:45:31  5-MIN KMKG 290545Z 06007KT 7SM -RA SCT011 BKN040 OVC055 03/03 A3014 420 100 -900 070/07 RMK AO2 CIG 026 RWY 14 P0001
14840KMKG MKG20011129005017911/29/01 00:50:31  5-MIN KMKG 290550Z 07006KT 6SM -RA BR FEW011 BKN040 OVC055 03/03 A3015 420 100 -900 070/06 RMK AO2 CIG 026 RWY 14 SLP214 P0001 60003 T00280028 10033 20028 56013
14840KMKG MKG20011129005516411/29/01 00:55:31  5-MIN KMKG 290555Z 06004KT 5SM -RA BR FEW011 BKN024 OVC040 03/03 A3015 420 100 -900 060/04 RMK AO2 SLP215 P0001 60003 T00280028 10033 20028 56021
14840KMKG MKG20011129010012311/29/01 01:00:31  5-MIN KMKG 290600Z 04004KT 4SM -RA BR SCT009 BKN024 OVC040 03/03 A3015 420 100 -900 040/04 RMK AO2 P0000
14840KMKG MKG20011129010513811/29/01 01:05:31  5-MIN KMKG 290605Z 04006KT 4SM -RA BR SCT009 BKN024 OVC040 03/03 A3015 420 100 -900 040/06 RMK AO2 CIG 009 RWY 14 P0001
14840KMKG MKG20011129011013811/29/01 01:10:31  5-MIN KMKG 290610Z 02004KT 3SM -RA BR SCT009 BKN012 OVC038 03/03 A3015 420 100 -900 030/04 RMK AO2 CIG 007 RWY 14 P0002
14840KMKG MKG20011129011512811/29/01 01:15:31  5-MIN KMKG 290615Z 02004KT 3SM -RA BR BKN009 OVC024 03/03 A3015 420 100 -900 030/04 RMK AO2 CIG 005V012 P0002
14840KMKG MKG20011129012013811/29/01 01:20:31  5-MIN KMKG 290620Z 04006KT 3SM -RA BR SCT009 BKN012 OVC022 03/03 A3014 420 100 -900 040/06 RMK AO2 CIG 007 RWY 14 P0003
14840KMKG MKG20011129012513811/29/01 01:25:31  5-MIN KMKG 290625Z 04006KT 3SM -RA BR SCT009 BKN012 OVC022 03/03 A3014 420 100 -900 040/06 RMK AO2 CIG 007 RWY 14 P0003
14840KMKG MKG20011129013012811/29/01 01:30:31  5-MIN KMKG 290630Z 03005KT 3SM -RA BR BKN009 OVC022 03/03 A3014 420 100 -900 030/05 RMK AO2 CIG 004V013 P0004
14840KMKG MKG20011129013515511/29/01 01:35:31  5-MIN KMKG 290635Z 03005KT 3SM -RA BR SCT007 BKN012 OVC022 03/03 A3014 430 100 -900 040/05 RMK AO2 VIS 2 1/2 RWY 14 CIG 007 RWY 14 P0004
14840KMKG MKG20011129014015511/29/01 01:40:31  5-MIN KMKG 290640Z 03004KT 3SM -RA BR FEW007 SCT012 OVC022 03/03 A3014 430 100 -900 030/04 RMK AO2 VIS 2 1/2 RWY 14 CIG 005 RWY 14 P0005
14840KMKG MKG20011129014513811/29/01 01:45:31  5-MIN KMKG 290645Z 04005KT 4SM -RA BR FEW005 BKN024 OVC028 03/03 A3014 430 100 -900 050/05 RMK AO2 CIG 005 RWY 14 P0005
14840KMKG MKG20011129015015411/29/01 01:50:31  5-MIN KMKG 290650Z 04007KT 4SM -RA BR FEW005 BKN022 OVC028 03/02 A3014 430 96 -900 040/07 RMK AO2 CIG 005 RWY 14 SLP213 P0006 T00280022
14840KMKG MKG20011129015513911/29/01 01:55:31  5-MIN KMKG 290655Z 04005KT 5SM -RA BR FEW005 BKN022 OVC028 03/02 A3014 430 96 -900 050/05 RMK AO2 SLP212 P0006 T00280022
14840KMKG MKG20011129020011511/29/01 02:00:31  5-MIN KMKG 290700Z 04005KT 6SM -RA BR BKN022 OVC028 03/02 A3014 430 96 -900 040/05 RMK AO2 P0000
14840KMKG MKG20011129020513711/29/01 02:05:31  5-MIN KMKG 290705Z 03004KT 6SM -RA BR FEW005 BKN024 OVC030 03/02 A3013 430 96 -900 040/04 RMK AO2 CIG 005 RWY 14 P0000
14840KMKG MKG20011129021013711/29/01 02:10:31  5-MIN KMKG 290710Z 03005KT 5SM -RA BR FEW005 BKN024 OVC030 03/02 A3013 430 96 -900 030/05 RMK AO2 CIG 005 RWY 14 P0001
14840KMKG MKG20011129021513711/29/01 02:15:31  5-MIN KMKG 290715Z 03005KT 5SM -RA BR FEW005 BKN024 OVC030 03/02 A3013 440 96 -900 030/05 RMK AO2 CIG 005 RWY 14 P0001
14840KMKG MKG20011129022013711/29/01 02:20:31  5-MIN KMKG 290720Z 03005KT 6SM -RA BR FEW005 BKN024 OVC043 03/02 A3013 440 96 -900 040/05 RMK AO2 CIG 005 RWY 14 P0001
14840KMKG MKG20011129022513711/29/01 02:25:31  5-MIN KMKG 290725Z 03005KT 5SM -RA BR FEW005 BKN029 OVC043 03/02 A3013 440 96 -900 030/05 RMK AO2 CIG 005 RWY 14 P0001
14840KMKG MKG20011129023013711/29/01 02:30:31  5-MIN KMKG 290730Z 03006KT 5SM -RA BR SCT005 SCT022 OVC029 03/02 A3013 440 96 -900 030/06 RMK AO2 CIG 005 RWY 14 P0001
14840KMKG MKG20011129023513711/29/01 02:35:31  5-MIN KMKG 290735Z 02006KT 6SM -RA BR SCT005 BKN022 OVC029 03/02 A3013 430 96 -900 020/06 RMK AO2 CIG 005 RWY 14 P0001
14840KMKG MKG20011129024013711/29/01 02:40:31  5-MIN KMKG 290740Z 02005KT 6SM -RA BR SCT005 BKN022 OVC029 03/02 A3014 430 96 -900 020/05 RMK AO2 CIG 005 RWY 14 P0001
14840KMKG MKG20011129024513711/29/01 02:45:31  5-MIN KMKG 290745Z 01005KT 6SM -RA BR FEW005 BKN023 OVC031 03/02 A3014 430 96 -900 020/05 RMK AO2 CIG 005 RWY 14 P0001
14840KMKG MKG20011129025013911/29/01 02:50:31  5-MIN KMKG 290750Z 02006KT 5SM -RA BR FEW005 BKN017 OVC031 03/02 A3014 430 96 -900 030/06 RMK AO2 SLP210 P0002 T00280022
14840KMKG MKG20011129025515411/29/01 02:55:31  5-MIN KMKG 290755Z 03005KT 4SM -RA BR FEW005 SCT017 OVC024 03/02 A3013 440 96 -900 030/05 RMK AO2 CIG 018 RWY 14 SLP209 P0002 T00280022
14840KMKG MKG20011129030013711/29/01 03:00:31  5-MIN KMKG 290800Z 01005KT 4SM -RA BR FEW005 SCT017 OVC024 03/02 A3013 440 96 -900 020/05 RMK AO2 CIG 018 RWY 14 P0000
14840KMKG MKG20011129031013711/29/01 03:10:31  5-MIN KMKG 290810Z 01007KT 5SM -RA BR SCT005 BKN017 OVC024 03/02 A3013 440 96 -900 010/07 RMK AO2 CIG 005 RWY 14 P0001
14840KMKG MKG20011129031513711/29/01 03:15:31  5-MIN KMKG 290815Z 01004KT 5SM -RA BR SCT007 BKN017 OVC024 03/02 A3013 430 96 -900 010/04 RMK AO2 CIG 005 RWY 14 P0001
14840KMKG MKG20011129032013411/29/01 03:20:31  5-MIN KMKG 290820Z 01006KT 5SM -RA BR BKN007 BKN017 OVC024 03/02 A3013 440 96 -900 010/06 RMK AO2 CIG 004V010 P0001
14840KMKG MKG20011129032513411/29/01 03:25:31  5-MIN KMKG 290825Z 01005KT 4SM -RA BR BKN007 BKN017 OVC024 03/02 A3012 440 96 -800 020/05 RMK AO2 CIG 004V010 P0001
14840KMKG MKG20011129033012811/29/01 03:30:31  5-MIN KMKG 290830Z 03006KT 4SM -RA BR BKN007 OVC017 02/02 A3012 440 100 -900 030/06 RMK AO2 CIG 004V010 P0001
14840KMKG MKG20011129033512811/29/01 03:35:31  5-MIN KMKG 290835Z 02007KT 4SM -RA BR BKN005 OVC019 02/02 A3012 440 100 -900 020/07 RMK AO2 CIG 004V010 P0001
14840KMKG MKG20011129034012311/29/01 03:40:31  5-MIN KMKG 290840Z 02006KT 4SM -RA BR BKN005 BKN009 OVC023 02/02 A3012 440 100 -900 020/06 RMK AO2 P0001
14840KMKG MKG20011129034512311/29/01 03:45:31  5-MIN KMKG 290845Z 02006KT 4SM -RA BR BKN005 BKN017 OVC023 02/02 A3012 450 100 -900 020/06 RMK AO2 P0001
14840KMKG MKG20011129035014511/29/01 03:50:31  5-MIN KMKG 290850Z 02007KT 4SM -RA BR BKN005 OVC017 02/02 A3011 450 100 -900 020/07 RMK AO2 SLP203 P0002 60010 T00220022 56021
14840KMKG MKG20011129035516711/29/01 03:55:31  5-MIN KMKG 290855Z 02006KT 5SM -RA BR SCT005 BKN017 OVC022 02/02 A3011 450 100 -900 020/06 RMK AO2 CIG 007 RWY 14 SLP203 P0002 60010 T00220022 58012
14840KMKG MKG20011129040013811/29/01 04:00:31  5-MIN KMKG 290900Z 02007KT 5SM -RA BR FEW005 BKN017 OVC022 02/02 A3011 450 100 -900 020/07 RMK AO2 CIG 007 RWY 14 P0000
14840KMKG MKG20011129040513811/29/01 04:05:31  5-MIN KMKG 290905Z 01006KT 5SM -RA BR FEW005 BKN017 OVC022 02/02 A3011 460 100 -900 020/06 RMK AO2 CIG 005 RWY 14 P0000
14840KMKG MKG20011129041013811/29/01 04:10:31  5-MIN KMKG 290910Z 02007KT 5SM -RA BR SCT005 BKN017 OVC030 02/02 A3010 460 100 -900 020/07 RMK AO2 CIG 005 RWY 14 P0001
14840KMKG MKG20011129041513811/29/01 04:15:31  5-MIN KMKG 290915Z 02005KT 5SM -RA BR SCT005 BKN017 OVC030 02/02 A3010 460 100 -900 020/05 RMK AO2 CIG 005 RWY 14 P0001
14840KMKG MKG20011129042013811/29/01 04:20:31  5-MIN KMKG 290920Z 02005KT 5SM -RA BR SCT005 BKN017 OVC030 02/02 A3010 460 100 -900 020/05 RMK AO2 CIG 005 RWY 14 P0001
14840KMKG MKG20011129042513811/29/01 04:25:31  5-MIN KMKG 290925Z 03007KT 6SM -RA BR SCT005 BKN017 OVC030 02/02 A3009 470 100 -900 040/07 RMK AO2 CIG 005 RWY 14 P0002
14840KMKG MKG20011129043013511/29/01 04:30:31  5-MIN KMKG 290930Z 02007KT 7SM -RA SCT005 BKN022 OVC065 02/02 A3009 470 100 -900 030/07 RMK AO2 CIG 005 RWY 14 P0002
14840KMKG MKG20011129043513411/29/01 04:35:31  5-MIN KMKG 290935Z 02007KT 8SM -RA SCT005 BKN025 OVC060 02/02 A3009 480 96 -900 030/07 RMK AO2 CIG 005 RWY 14 P0002
14840KMKG MKG20011129044013411/29/01 04:40:31  5-MIN KMKG 290940Z 02006KT 8SM -RA SCT005 BKN022 OVC030 02/02 A3008 480 96 -900 020/06 RMK AO2 CIG 005 RWY 14 P0002
14840KMKG MKG20011129044513511/29/01 04:45:31  5-MIN KMKG 290945Z 03004KT 9SM -RA SCT005 BKN030 OVC060 02/02 A3008 480 100 -900 030/04 RMK AO2 CIG 005 RWY 14 P0002
14840KMKG MKG20011129045015211/29/01 04:50:31  5-MIN KMKG 290950Z 04005KT 10SM -RA SCT005 BKN028 OVC060 02/02 A3008 490 96 -900 050/05 RMK AO2 CIG 005 RWY 14 SLP190 P0002 T00220017
14840KMKG MKG20011129045515211/29/01 04:55:31  5-MIN KMKG 290955Z 03005KT 10SM -RA SCT005 BKN028 OVC060 02/02 A3008 480 96 -900 040/05 RMK AO2 CIG 005 RWY 14 SLP192 P0002 T00220017
14840KMKG MKG20011129050012011/29/01 05:00:31  5-MIN KMKG 291000Z 05004KT 10SM -RA BKN005 BKN028 OVC065 02/02 A3008 490 96 -900 050/04 RMK AO2 P0000
14840KMKG MKG20011129050512011/29/01 05:05:31  5-MIN KMKG 291005Z 05006KT 10SM -RA BKN005 BKN028 OVC060 02/02 A3007 490 96 -900 050/06 RMK AO2 P0000
14840KMKG MKG20011129051011311/29/01 05:10:31  5-MIN KMKG 291010Z 05005KT 10SM -RA BKN005 OVC065 02/02 A3007 490 96 -900 050/05 RMK AO2 P0000
14840KMKG MKG20011129051512011/29/01 05:15:31  5-MIN KMKG 291015Z 05005KT 10SM -RA BKN005 BKN065 OVC090 02/02 A3007 500 96 -800 050/05 RMK AO2 P0000
14840KMKG MKG20011129052013411/29/01 05:20:31  5-MIN KMKG 291020Z 04006KT 9SM -RA SCT005 BKN070 OVC090 02/02 A3007 500 96 -800 040/06 RMK AO2 CIG 005 RWY 14 P0000
14840KMKG MKG20011129052513511/29/01 05:25:31  5-MIN KMKG 291025Z 04006KT 10SM -RA SCT005 BKN065 OVC090 02/02 A3007 500 96 -800 040/06 RMK AO2 CIG 028 RWY 14 P0000
14840KMKG MKG20011129053012211/29/01 05:30:31  5-MIN KMKG 291030Z 06004KT 10SM BKN005 BKN065 OVC090 02/02 A3007 500 96 -800 060/04 RMK AO2 RAE30 P0000
14840KMKG MKG20011129053513511/29/01 05:35:31  5-MIN KMKG 291035Z 04006KT 10SM -RA SCT005 BKN060 OVC090 02/02 A3006 500 96 -800 050/06 RMK AO2 CIG 005 RWY 14 P0000
14840KMKG MKG20011129054013511/29/01 05:40:31  5-MIN KMKG 291040Z 03005KT 10SM -RA SCT005 BKN060 OVC090 02/02 A3006 500 96 -800 040/05 RMK AO2 CIG 005 RWY 14 P0000
14840KMKG MKG20011129054512811/29/01 05:45:31  5-MIN KMKG 291045Z 04006KT 10SM -RA SCT005 OVC060 02/02 A3006 500 96 -800 050/06 RMK AO2 CIG 005 RWY 14 P0000
14840KMKG MKG20011129055014511/29/01 05:50:31  5-MIN KMKG 291050Z 04005KT 10SM -RA SCT005 OVC060 02/02 A3006 500 96 -800 040/05 RMK AO2 CIG 005 RWY 14 SLP184 P0000 T00220017
14840KMKG MKG20011129055514511/29/01 05:55:31  5-MIN KMKG 291055Z 04005KT 10SM -RA SCT005 OVC060 02/02 A3006 510 96 -800 050/05 RMK AO2 CIG 005 RWY 14 SLP183 P0000 T00220017
14840KMKG MKG20011129060012811/29/01 06:00:31  5-MIN KMKG 291100Z 04005KT 10SM -RA FEW005 OVC060 02/02 A3005 510 96 -800 050/05 RMK AO2 CIG 005 RWY 14 P0000
14840KMKG MKG20011129060513011/29/01 06:05:31  5-MIN KMKG 291105Z 05005KT 10SM FEW005 OVC060 02/02 A3005 510 96 -800 060/05 RMK AO2 RAE04 CIG 026 RWY 14 P0000
14840KMKG MKG20011129061013011/29/01 06:10:31  5-MIN KMKG 291110Z 05005KT 10SM FEW005 OVC060 02/02 A3006 500 96 -800 050/05 RMK AO2 RAE04 CIG 026 RWY 14 P0000
14840KMKG MKG20011129061513111/29/01 06:15:31  5-MIN KMKG 291115Z 06004KT 10SM FEW005 OVC060 02/02 A3005 510 100 -800 060/04 RMK AO2 RAE04 CIG 026 RWY 14 P0000
14840KMKG MKG20011129062011611/29/01 06:20:31  5-MIN KMKG 291120Z 05005KT 10SM FEW005 OVC060 02/02 A3005 510 100 -800 050/05 RMK AO2 RAE04 P0000
14840KMKG MKG20011129062511611/29/01 06:25:31  5-MIN KMKG 291125Z 04004KT 10SM FEW006 OVC060 02/02 A3005 510 100 -800 040/04 RMK AO2 RAE04 P0000
14840KMKG MKG20011129063011611/29/01 06:30:31  5-MIN KMKG 291130Z 04005KT 10SM FEW006 OVC060 02/02 A3005 510 100 -800 040/05 RMK AO2 RAE04 P0000
14840KMKG MKG20011129063513011/29/01 06:35:31  5-MIN KMKG 291135Z 04005KT 10SM SCT006 OVC060 02/02 A3005 510 96 -800 040/05 RMK AO2 RAE04 CIG 005 RWY 14 P0000
14840KMKG MKG20011129064011611/29/01 06:40:31  5-MIN KMKG 291140Z 04005KT 10SM BKN006 OVC060 02/02 A3005 510 100 -800 050/05 RMK AO2 RAE04 P0000
14840KMKG MKG20011129064513111/29/01 06:45:31  5-MIN KMKG 291145Z 06005KT 10SM SCT006 OVC060 02/02 A3005 510 100 -800 060/05 RMK AO2 RAE04 CIG 005 RWY 14 P0000
14840KMKG MKG20011129065017811/29/01 06:50:31  5-MIN KMKG 291150Z 07005KT 10SM SCT006 OVC060 02/02 A3005 510 100 -800 070/05 RMK AO2 RAE04 CIG 005 RWY 14 SLP182 P0000 60012 70016 T00220022 10028 20022 58012
14840KMKG MKG20011129065517811/29/01 06:55:31  5-MIN KMKG 291155Z 06004KT 10SM SCT006 OVC060 02/02 A3006 500 100 -800 060/04 RMK AO2 RAE04 CIG 005 RWY 14 SLP184 P0000 60012 70016 T00220022 10028 20022 55019
14840KMKG MKG20011129070011911/29/01 07:00:31  5-MIN KMKG 291200Z 03004KT 10SM SCT006 OVC060 02/02 A3006 500 100 -800 040/04 RMK AO2 CIG 005 RWY 14
14840KMKG MKG20011129070511911/29/01 07:05:31  5-MIN KMKG 291205Z 04005KT 10SM FEW006 OVC060 02/02 A3006 500 100 -800 040/05 RMK AO2 CIG 005 RWY 14
14840KMKG MKG20011129071011911/29/01 07:10:31  5-MIN KMKG 291210Z 03004KT 10SM FEW006 OVC060 02/02 A3006 500 100 -800 040/04 RMK AO2 CIG 005 RWY 14
14840KMKG MKG20011129071511911/29/01 07:15:31  5-MIN KMKG 291215Z 01004KT 10SM FEW006 OVC060 02/02 A3006 500 100 -800 010/04 RMK AO2 CIG 005 RWY 14
14840KMKG MKG20011129072010411/29/01 07:20:31  5-MIN KMKG 291220Z 01003KT 10SM FEW006 OVC060 02/02 A3006 500 100 -800 010/03 RMK AO2
14840KMKG MKG20011129072509711/29/01 07:25:31  5-MIN KMKG 291225Z 02003KT 10SM OVC060 02/02 A3006 500 100 -800 030/03 RMK AO2
14840KMKG MKG20011129073010411/29/01 07:30:31  5-MIN KMKG 291230Z 01004KT 10SM FEW005 OVC060 02/02 A3006 500 100 -800 010/04 RMK AO2
14840KMKG MKG20011129073510411/29/01 07:35:31  5-MIN KMKG 291235Z 02004KT 10SM FEW005 OVC060 02/02 A3007 500 100 -800 020/04 RMK AO2
14840KMKG MKG20011129074010411/29/01 07:40:31  5-MIN KMKG 291240Z 06005KT 10SM FEW005 OVC060 02/02 A3006 500 100 -800 070/05 RMK AO2
14840KMKG MKG20011129074510311/29/01 07:45:31  5-MIN KMKG 291245Z 07004KT 10SM FEW005 OVC060 03/02 A3006 500 96 -800 070/04 RMK AO2
14840KMKG MKG20011129075012711/29/01 07:50:31  5-MIN KMKG 291250Z 05004KT 10SM FEW005 SCT023 OVC060 03/02 A3006 500 96 -800 050/04 RMK AO2 SLP185 T00280022
14840KMKG MKG20011129075512711/29/01 07:55:31  5-MIN KMKG 291255Z 01005KT 10SM FEW005 BKN023 OVC060 03/02 A3006 500 96 -800 020/05 RMK AO2 SLP184 T00280022
14840KMKG MKG20011129080011011/29/01 08:00:31  5-MIN KMKG 291300Z 02004KT 10SM FEW005 BKN023 OVC060 03/02 A3006 510 96 -800 030/04 RMK AO2
14840KMKG MKG20011129080511011/29/01 08:05:31  5-MIN KMKG 291305Z 01005KT 10SM FEW005 BKN023 OVC060 03/02 A3007 500 96 -800 010/05 RMK AO2
14840KMKG MKG20011129081011011/29/01 08:10:31  5-MIN KMKG 291310Z 36004KT 10SM SCT005 SCT013 OVC023 03/02 A3007 490 96 -800 360/04 RMK AO2
14840KMKG MKG20011129081511011/29/01 08:15:31  5-MIN KMKG 291315Z 01005KT 10SM SCT005 BKN013 OVC023 03/02 A3006 500 96 -800 020/05 RMK AO2
14840KMKG MKG20011129082011011/29/01 08:20:31  5-MIN KMKG 291320Z 01003KT 10SM SCT005 BKN013 OVC036 03/02 A3006 500 96 -800 010/03 RMK AO2
14840KMKG MKG20011129082511011/29/01 08:25:31  5-MIN KMKG 291325Z 01003KT 10SM SCT005 BKN022 OVC036 03/02 A3006 500 96 -800 010/03 RMK AO2
14840KMKG MKG20011129083011011/29/01 08:30:31  5-MIN KMKG 291330Z 04004KT 10SM SCT005 BKN022 OVC036 03/02 A3005 510 96 -800 040/04 RMK AO2
14840KMKG MKG20011129083511011/29/01 08:35:31  5-MIN KMKG 291335Z 05003KT 10SM SCT005 BKN022 OVC036 03/02 A3006 500 96 -800 050/03 RMK AO2
14840KMKG MKG20011129084011011/29/01 08:40:31  5-MIN KMKG 291340Z 03004KT 10SM SCT005 BKN022 OVC036 03/02 A3006 500 96 -800 030/04 RMK AO2
14840KMKG MKG20011129084511011/29/01 08:45:31  5-MIN KMKG 291345Z 01004KT 10SM FEW005 BKN022 OVC036 03/02 A3006 500 96 -800 020/04 RMK AO2
14840KMKG MKG20011129085012711/29/01 08:50:31  5-MIN KMKG 291350Z 03005KT 10SM SCT005 BKN012 OVC022 03/02 A3006 500 96 -800 030/05 RMK AO2 SLP184 T00280022
14840KMKG MKG20011129085512711/29/01 08:55:31  5-MIN KMKG 291355Z 02006KT 10SM SCT005 BKN012 OVC022 03/02 A3006 500 96 -800 030/06 RMK AO2 SLP184 T00280022
14840KMKG MKG20011129090011111/29/01 09:00:31  5-MIN KMKG 291400Z 03005KT 10SM FEW005 BKN012 OVC022 03/03 A3005 510 100 -800 030/05 RMK AO2
14840KMKG MKG20011129090511111/29/01 09:05:31  5-MIN KMKG 291405Z 02004KT 10SM SCT005 BKN012 OVC022 03/03 A3005 510 100 -800 020/04 RMK AO2
14840KMKG MKG20011129091011111/29/01 09:10:31  5-MIN KMKG 291410Z 03006KT 10SM SCT005 BKN012 OVC016 03/03 A3005 510 100 -800 030/06 RMK AO2
14840KMKG MKG20011129091511111/29/01 09:15:31  5-MIN KMKG 291415Z 02005KT 10SM FEW005 BKN012 OVC022 03/03 A3006 500 100 -800 030/05 RMK AO2
14840KMKG MKG20011129092011111/29/01 09:20:31  5-MIN KMKG 291420Z 03005KT 10SM SCT007 BKN012 OVC020 03/03 A3005 510 100 -800 040/05 RMK AO2
14840KMKG MKG20011129092512311/29/01 09:25:31  5-MIN KMKG 291425Z 05005KT 10SM BKN007 BKN012 OVC020 03/03 A3005 510 100 -800 060/05 RMK AO2 CIG 004V009
14840KMKG MKG20011129093011111/29/01 09:30:31  5-MIN KMKG 291430Z 05004KT 10SM FEW004 BKN007 OVC020 03/03 A3005 510 100 -800 050/04 RMK AO2
14840KMKG MKG20011129093511111/29/01 09:35:31  5-MIN KMKG 291435Z 04005KT 10SM FEW004 BKN009 OVC020 03/03 A3005 510 100 -800 050/05 RMK AO2
14840KMKG MKG20011129094010311/29/01 09:40:31  5-MIN KMKG 291440Z 04004KT 10SM BKN009 OVC020 03/03 A3005 510 96 -700 050/04 RMK AO2
14840KMKG MKG20011129094509611/29/01 09:45:31  5-MIN KMKG 291445Z 05005KT 10SM OVC009 03/03 A3005 510 96 -700 060/05 RMK AO2
14840KMKG MKG20011129095012611/29/01 09:50:31  5-MIN KMKG 291450Z 04005KT 10SM BKN009 OVC014 03/03 A3004 520 96 -700 050/05 RMK AO2 SLP180 T00330028 55019
14840KMKG MKG20011129095514511/29/01 09:55:31  5-MIN KMKG 291455Z 03005KT 10SM FEW005 BKN009 OVC014 03/03 A3005 510 96 -700 030/05 RMK AO2 CIG 009V013 SLP182 T00330028 58002
14840KMKG MKG20011129100011811/29/01 10:00:31  5-MIN KMKG 291500Z 00000KT 10SM SCT005 OVC009 03/03 A3006 510 96 -700 000/00 RMK AO2 CIG 005 RWY 14
14840KMKG MKG20011129100510311/29/01 10:05:31  5-MIN KMKG 291505Z 00000KT 10SM BKN005 OVC011 03/03 A3006 500 96 -700 000/00 RMK AO2
14840KMKG MKG20011129101010311/29/01 10:10:31  5-MIN KMKG 291510Z 01003KT 10SM BKN005 OVC013 03/03 A3006 500 96 -700 010/03 RMK AO2
14840KMKG MKG20011129101510311/29/01 10:15:31  5-MIN KMKG 291515Z 36004KT 10SM BKN005 OVC013 03/03 A3006 500 96 -700 010/04 RMK AO2
14840KMKG MKG20011129102009611/29/01 10:20:31  5-MIN KMKG 291520Z 35004KT 10SM OVC005 03/03 A3006 500 96 -700 360/04 RMK AO2
14840KMKG MKG20011129102509711/29/01 10:25:31  5-MIN KMKG 291525Z 36005KT 10SM OVC005 03/03 A3006 500 100 -700 010/05 RMK AO2
14840KMKG MKG20011129103009611/29/01 10:30:31  5-MIN KMKG 291530Z 36004KT 9SM OVC005 03/03 A3006 500 100 -700 360/04 RMK AO2
14840KMKG MKG20011129103509611/29/01 10:35:31  5-MIN KMKG 291535Z 36006KT 9SM OVC005 03/03 A3007 490 100 -700 010/06 RMK AO2
14840KMKG MKG20011129104009511/29/01 10:40:31  5-MIN KMKG 291540Z 36005KT 9SM OVC005 04/03 A3007 490 96 -600 360/05 RMK AO2
14840KMKG MKG20011129104509511/29/01 10:45:31  5-MIN KMKG 291545Z 36006KT 9SM OVC005 04/03 A3007 490 96 -600 010/06 RMK AO2
14840KMKG MKG20011129105011311/29/01 10:50:31  5-MIN KMKG 291550Z 36004KT 10SM OVC005 04/03 A3007 490 96 -700 360/04 RMK AO2 SLP190 T00390033
14840KMKG MKG20011129105511311/29/01 10:55:31  5-MIN KMKG 291555Z 03006KT 10SM OVC005 04/03 A3007 500 96 -600 030/06 RMK AO2 SLP187 T00390033
14840KMKG MKG20011129110010311/29/01 11:00:31  5-MIN KMKG 291600Z 02005KT 10SM BKN005 OVC019 04/03 A3006 500 96 -600 020/05 RMK AO2
14840KMKG MKG20011129110510211/29/01 11:05:31  5-MIN KMKG 291605Z 01004KT 9SM BKN005 OVC019 04/03 A3007 490 96 -600 010/04 RMK AO2
14840KMKG MKG20011129111010211/29/01 11:10:31  5-MIN KMKG 291610Z 02005KT 8SM BKN005 OVC017 04/03 A3007 500 96 -600 030/05 RMK AO2
14840KMKG MKG20011129111510211/29/01 11:15:31  5-MIN KMKG 291615Z 03005KT 8SM BKN005 OVC017 04/03 A3006 500 96 -600 030/05 RMK AO2
14840KMKG MKG20011129112010211/29/01 11:20:31  5-MIN KMKG 291620Z 01005KT 9SM BKN005 OVC017 04/03 A3007 500 96 -600 020/05 RMK AO2
14840KMKG MKG20011129112510211/29/01 11:25:31  5-MIN KMKG 291625Z 02005KT 9SM BKN005 OVC017 04/03 A3006 500 96 -600 020/05 RMK AO2
14840KMKG MKG20011129113010311/29/01 11:30:31  5-MIN KMKG 291630Z 02005KT 10SM BKN005 OVC017 04/03 A3006 500 96 -600 020/05 RMK AO2
14840KMKG MKG20011129113510311/29/01 11:35:31  5-MIN KMKG 291635Z 03004KT 10SM BKN005 OVC017 04/03 A3006 500 96 -600 030/04 RMK AO2
14840KMKG MKG20011129114010311/29/01 11:40:31  5-MIN KMKG 291640Z 04005KT 10SM BKN005 OVC017 04/03 A3005 510 96 -600 040/05 RMK AO2
14840KMKG MKG20011129114511811/29/01 11:45:31  5-MIN KMKG 291645Z 01004KT 10SM SCT005 OVC017 04/03 A3005 510 96 -600 020/04 RMK AO2 CIG 005 RWY 14
14840KMKG MKG20011129115013511/29/01 11:50:31  5-MIN KMKG 291650Z 02004KT 10SM SCT005 OVC017 04/03 A3005 510 96 -600 020/04 RMK AO2 CIG 005 RWY 14 SLP182 T00390033
14840KMKG MKG20011129115513511/29/01 11:55:31  5-MIN KMKG 291655Z 04004KT 10SM SCT005 OVC017 04/03 A3005 510 92 -600 050/04 RMK AO2 CIG 005 RWY 14 SLP182 T00440033
14840KMKG MKG20011129120011711/29/01 12:00:31  5-MIN KMKG 291700Z 04004KT 9SM FEW005 OVC017 04/03 A3004 520 96 -600 040/04 RMK AO2 CIG 005 RWY 14
14840KMKG MKG20011129120510211/29/01 12:05:31  5-MIN KMKG 291705Z 03005KT 7SM FEW005 OVC017 04/03 A3004 520 96 -600 030/05 RMK AO2
14840KMKG MKG20011129121010211/29/01 12:10:31  5-MIN KMKG 291710Z 03003KT 8SM FEW005 OVC017 04/03 A3004 520 96 -600 040/03 RMK AO2
14840KMKG MKG20011129121510311/29/01 12:15:31  5-MIN KMKG 291715Z 04003KT 10SM SCT005 OVC017 04/04 A3004 520 96 -500 050/03 RMK AO2
14840KMKG MKG20011129122010311/29/01 12:20:31  5-MIN KMKG 291720Z 05004KT 10SM SCT005 OVC017 04/03 A3004 520 92 -500 050/04 RMK AO2
14840KMKG MKG20011129122510311/29/01 12:25:31  5-MIN KMKG 291725Z 04005KT 10SM BKN007 OVC017 04/04 A3003 530 96 -500 050/05 RMK AO2
14840KMKG MKG20011129123011011/29/01 12:30:31  5-MIN KMKG 291730Z 04005KT 10SM BKN007 OVC017 04/04 A3002 540 96 -500 040/05 RMK AO2 PRESFR
14840KMKG MKG20011129123510311/29/01 12:35:31  5-MIN KMKG 291735Z 03005KT 10SM BKN007 OVC017 04/04 A3002 540 96 -500 030/05 RMK AO2
14840KMKG MKG20011129124010311/29/01 12:40:31  5-MIN KMKG 291740Z 05004KT 10SM BKN007 OVC017 04/04 A3003 530 96 -500 060/04 RMK AO2
14840KMKG MKG20011129124510311/29/01 12:45:31  5-MIN KMKG 291745Z VRB03KT 10SM BKN007 OVC019 04/04 A3003 530 96 -500 VRB/03 RMK AO2
14840KMKG MKG20011129125013811/29/01 12:50:31  5-MIN KMKG 291750Z 05004KT 10SM BKN007 OVC019 05/04 A3003 530 92 -500 050/04 RMK AO2 SLP174 T00500039 10050 20022 58002
14840KMKG MKG20011129125513811/29/01 12:55:31  5-MIN KMKG 291755Z 04005KT 10SM BKN007 OVC019 04/04 A3002 540 96 -500 050/05 RMK AO2 SLP171 T00440039 10050 20022 58010
14840KMKG MKG20011129130010311/29/01 13:00:31  5-MIN KMKG 291800Z 02004KT 10SM BKN007 OVC019 05/04 A3002 540 92 -500 030/04 RMK AO2
14840KMKG MKG20011129130510311/29/01 13:05:31  5-MIN KMKG 291805Z 03006KT 10SM BKN007 OVC019 05/04 A3001 540 92 -400 030/06 RMK AO2
14840KMKG MKG20011129131010311/29/01 13:10:31  5-MIN KMKG 291810Z 03004KT 10SM BKN007 OVC019 05/04 A3001 540 92 -400 030/04 RMK AO2
14840KMKG MKG20011129131509611/29/01 13:15:31  5-MIN KMKG 291815Z 02006KT 10SM OVC007 05/04 A3001 550 92 -400 020/06 RMK AO2
14840KMKG MKG20011129132009611/29/01 13:20:31  5-MIN KMKG 291820Z 02004KT 10SM OVC007 05/04 A3001 540 92 -400 020/04 RMK AO2
14840KMKG MKG20011129132509611/29/01 13:25:31  5-MIN KMKG 291825Z 03005KT 10SM OVC007 05/04 A3001 550 92 -400 030/05 RMK AO2
14840KMKG MKG20011129133009611/29/01 13:30:31  5-MIN KMKG 291830Z 01004KT 10SM OVC007 05/04 A3001 550 96 -400 020/04 RMK AO2
14840KMKG MKG20011129133509611/29/01 13:35:31  5-MIN KMKG 291835Z 04005KT 10SM OVC007 05/04 A3002 540 92 -400 040/05 RMK AO2
14840KMKG MKG20011129134009611/29/01 13:40:31  5-MIN KMKG 291840Z 04005KT 10SM OVC007 05/04 A3002 540 92 -400 040/05 RMK AO2
14840KMKG MKG20011129134509611/29/01 13:45:31  5-MIN KMKG 291845Z 02004KT 10SM OVC007 05/04 A3001 540 92 -400 020/04 RMK AO2
14840KMKG MKG20011129135011311/29/01 13:50:31  5-MIN KMKG 291850Z 03004KT 10SM OVC007 05/04 A3001 550 96 -400 030/04 RMK AO2 SLP167 T00500044
14840KMKG MKG20011129135511311/29/01 13:55:31  5-MIN KMKG 291855Z 02005KT 10SM OVC007 05/04 A3000 550 92 -400 020/05 RMK AO2 SLP165 T00500039
14840KMKG MKG20011129140009611/29/01 14:00:31  5-MIN KMKG 291900Z 02006KT 10SM OVC007 05/04 A3000 550 96 -400 020/06 RMK AO2
14840KMKG MKG20011129140509611/29/01 14:05:31  5-MIN KMKG 291905Z 04005KT 10SM OVC007 05/04 A3000 550 96 -400 040/05 RMK AO2
14840KMKG MKG20011129141009611/29/01 14:10:31  5-MIN KMKG 291910Z 04004KT 10SM OVC007 05/04 A3001 550 96 -400 040/04 RMK AO2
14840KMKG MKG20011129141509611/29/01 14:15:31  5-MIN KMKG 291915Z 02006KT 10SM OVC007 05/04 A3001 550 96 -400 030/06 RMK AO2
14840KMKG MKG20011129142009611/29/01 14:20:31  5-MIN KMKG 291920Z 03004KT 10SM OVC007 05/04 A3001 550 92 -400 030/04 RMK AO2
14840KMKG MKG20011129142509611/29/01 14:25:31  5-MIN KMKG 291925Z 04004KT 10SM OVC007 05/04 A3000 560 92 -400 040/04 RMK AO2
14840KMKG MKG20011129143009611/29/01 14:30:31  5-MIN KMKG 291930Z 04005KT 10SM OVC007 05/04 A3000 560 96 -400 050/05 RMK AO2
14840KMKG MKG20011129143509611/29/01 14:35:31  5-MIN KMKG 291935Z 03005KT 10SM OVC007 06/04 A3000 560 92 -400 040/05 RMK AO2
14840KMKG MKG20011129144011211/29/01 14:40:31  5-MIN KMKG 291940Z 03006KT 10SM -RA OVC007 06/04 A2999 560 92 -400 030/06 RMK AO2 RAB37 P0000
14840KMKG MKG20011129144511211/29/01 14:45:31  5-MIN KMKG 291945Z 02006KT 10SM -RA OVC007 06/04 A2999 560 92 -400 030/06 RMK AO2 RAB37 P0000
14840KMKG MKG20011129145012911/29/01 14:50:31  5-MIN KMKG 291950Z 01004KT 10SM -RA OVC007 06/04 A3000 560 92 -400 020/04 RMK AO2 RAB37 SLP164 P0000 T00560044
14840KMKG MKG20011129145512811/29/01 14:55:31  5-MIN KMKG 291955Z 36006KT 10SM OVC007 06/04 A3000 560 92 -400 010/06 RMK AO2 RAB37E52 SLP164 P0000 T00560044
14840KMKG MKG20011129150009611/29/01 15:00:31  5-MIN KMKG 292000Z 02007KT 10SM OVC007 06/04 A3000 560 92 -400 020/07 RMK AO2
14840KMKG MKG20011129150509611/29/01 15:05:31  5-MIN KMKG 292005Z 03007KT 10SM OVC007 06/04 A3000 560 92 -400 030/07 RMK AO2
14840KMKG MKG20011129151009611/29/01 15:10:31  5-MIN KMKG 292010Z 02006KT 10SM OVC007 05/04 A2999 560 96 -400 030/06 RMK AO2
14840KMKG MKG20011129151509611/29/01 15:15:31  5-MIN KMKG 292015Z 03007KT 10SM OVC007 05/04 A2999 570 96 -400 030/07 RMK AO2
14840KMKG MKG20011129152009611/29/01 15:20:31  5-MIN KMKG 292020Z 02008KT 10SM OVC007 06/04 A2999 570 92 -300 020/08 RMK AO2
14840KMKG MKG20011129152509611/29/01 15:25:31  5-MIN KMKG 292025Z 02008KT 10SM OVC007 06/04 A2999 570 92 -300 020/08 RMK AO2
14840KMKG MKG20011129153009611/29/01 15:30:31  5-MIN KMKG 292030Z 04007KT 10SM OVC007 06/04 A2999 570 92 -300 040/07 RMK AO2
14840KMKG MKG20011129153509611/29/01 15:35:31  5-MIN KMKG 292035Z 03008KT 10SM OVC007 06/04 A2999 560 92 -400 030/08 RMK AO2
14840KMKG MKG20011129154009611/29/01 15:40:31  5-MIN KMKG 292040Z 02007KT 10SM OVC007 05/04 A2999 560 96 -400 020/07 RMK AO2
14840KMKG MKG20011129154509511/29/01 15:45:31  5-MIN KMKG 292045Z 01007KT 9SM OVC007 05/04 A2999 560 96 -400 010/07 RMK AO2
14840KMKG MKG20011129155012411/29/01 15:50:31  5-MIN KMKG 292050Z 03007KT 9SM OVC007 05/04 A3000 560 96 -400 030/07 RMK AO2 SLP163 60000 T00500044 58010
14840KMKG MKG20011129155512411/29/01 15:55:31  5-MIN KMKG 292055Z 03007KT 9SM OVC007 05/04 A2999 560 96 -400 030/07 RMK AO2 SLP162 60000 T00500044 56009
14840KMKG MKG20011129160009511/29/01 16:00:31  5-MIN KMKG 292100Z 02005KT 9SM OVC007 05/04 A2999 560 96 -400 020/05 RMK AO2
14840KMKG MKG20011129160509511/29/01 16:05:31  5-MIN KMKG 292105Z 02006KT 9SM OVC007 05/04 A2999 560 96 -400 030/06 RMK AO2
14840KMKG MKG20011129161009511/29/01 16:10:31  5-MIN KMKG 292110Z 03005KT 9SM OVC007 05/04 A2999 560 96 -400 030/05 RMK AO2
14840KMKG MKG20011129161509511/29/01 16:15:31  5-MIN KMKG 292115Z 02006KT 9SM OVC007 05/04 A3000 560 96 -400 030/06 RMK AO2
14840KMKG MKG20011129162009511/29/01 16:20:31  5-MIN KMKG 292120Z 02005KT 9SM OVC007 05/04 A3000 550 96 -400 020/05 RMK AO2
14840KMKG MKG20011129162509511/29/01 16:25:31  5-MIN KMKG 292125Z 03007KT 9SM OVC007 05/04 A3000 550 96 -400 030/07 RMK AO2
14840KMKG MKG20011129163009511/29/01 16:30:31  5-MIN KMKG 292130Z 03006KT 9SM OVC007 05/04 A3001 550 96 -400 030/06 RMK AO2
14840KMKG MKG20011129163509511/29/01 16:35:31  5-MIN KMKG 292135Z 04005KT 9SM OVC007 05/04 A3001 550 96 -400 050/05 RMK AO2
14840KMKG MKG20011129164009511/29/01 16:40:31  5-MIN KMKG 292140Z 03004KT 9SM OVC007 05/04 A3001 550 96 -400 030/04 RMK AO2
14840KMKG MKG20011129164509511/29/01 16:45:31  5-MIN KMKG 292145Z 03005KT 9SM OVC007 05/04 A3001 540 96 -400 030/05 RMK AO2
14840KMKG MKG20011129165011211/29/01 16:50:31  5-MIN KMKG 292150Z 04005KT 9SM OVC007 05/04 A3002 540 96 -400 040/05 RMK AO2 SLP170 T00500044
14840KMKG MKG20011129165511211/29/01 16:55:31  5-MIN KMKG 292155Z 04005KT 9SM OVC007 05/04 A3002 540 96 -500 050/05 RMK AO2 SLP171 T00500044
14840KMKG MKG20011129170009511/29/01 17:00:31  5-MIN KMKG 292200Z 04005KT 9SM OVC007 05/04 A3002 540 96 -500 040/05 RMK AO2
14840KMKG MKG20011129170509611/29/01 17:05:31  5-MIN KMKG 292205Z 04006KT 10SM OVC007 05/04 A3001 550 96 -400 040/06 RMK AO2
14840KMKG MKG20011129171009611/29/01 17:10:31  5-MIN KMKG 292210Z 03005KT 10SM OVC007 05/04 A3001 540 96 -400 030/05 RMK AO2
14840KMKG MKG20011129171509611/29/01 17:15:31  5-MIN KMKG 292215Z 03007KT 10SM OVC007 05/04 A3001 550 96 -400 040/07 RMK AO2
14840KMKG MKG20011129172009611/29/01 17:20:31  5-MIN KMKG 292220Z 03005KT 10SM OVC007 05/04 A3001 550 96 -400 030/05 RMK AO2
14840KMKG MKG20011129172509611/29/01 17:25:31  5-MIN KMKG 292225Z 03004KT 10SM OVC007 05/04 A3001 550 96 -400 040/04 RMK AO2
14840KMKG MKG20011129173009611/29/01 17:30:31  5-MIN KMKG 292230Z 03005KT 10SM OVC007 05/04 A3001 550 96 -400 030/05 RMK AO2
14840KMKG MKG20011129173509611/29/01 17:35:31  5-MIN KMKG 292235Z 03004KT 10SM OVC007 05/04 A3001 550 96 -400 040/04 RMK AO2
14840KMKG MKG20011129174009611/29/01 17:40:31  5-MIN KMKG 292240Z 02006KT 10SM OVC007 05/04 A3000 550 96 -400 020/06 RMK AO2
14840KMKG MKG20011129174509611/29/01 17:45:31  5-MIN KMKG 292245Z 02005KT 10SM OVC007 05/04 A3000 550 96 -400 030/05 RMK AO2
14840KMKG MKG20011129175011311/29/01 17:50:31  5-MIN KMKG 292250Z 02006KT 10SM OVC007 05/04 A3001 550 96 -400 030/06 RMK AO2 SLP167 T00500044
14840KMKG MKG20011129175511311/29/01 17:55:31  5-MIN KMKG 292255Z 03005KT 10SM OVC007 05/04 A3001 550 96 -400 030/05 RMK AO2 SLP168 T00500044
14840KMKG MKG20011129180009611/29/01 18:00:31  5-MIN KMKG 292300Z 02004KT 10SM OVC007 05/04 A3001 550 96 -400 030/04 RMK AO2
14840KMKG MKG20011129180509611/29/01 18:05:31  5-MIN KMKG 292305Z 03003KT 10SM OVC007 05/04 A3001 550 96 -400 040/03 RMK AO2
14840KMKG MKG20011129181009611/29/01 18:10:31  5-MIN KMKG 292310Z 03005KT 10SM OVC007 05/04 A3000 550 96 -400 040/05 RMK AO2
14840KMKG MKG20011129181509611/29/01 18:15:31  5-MIN KMKG 292315Z 02005KT 10SM OVC007 05/04 A3001 550 96 -400 020/05 RMK AO2
14840KMKG MKG20011129182009611/29/01 18:20:31  5-MIN KMKG 292320Z 03005KT 10SM OVC007 05/04 A3000 560 96 -400 030/05 RMK AO2
14840KMKG MKG20011129182509611/29/01 18:25:31  5-MIN KMKG 292325Z 05006KT 10SM OVC007 05/04 A3000 560 96 -400 050/06 RMK AO2
14840KMKG MKG20011129183009611/29/01 18:30:31  5-MIN KMKG 292330Z 05006KT 10SM OVC007 05/04 A3000 560 96 -400 050/06 RMK AO2
14840KMKG MKG20011129183509611/29/01 18:35:31  5-MIN KMKG 292335Z 05006KT 10SM OVC007 05/04 A2999 560 96 -400 050/06 RMK AO2
14840KMKG MKG20011129184009611/29/01 18:40:31  5-MIN KMKG 292340Z 05007KT 10SM OVC007 05/04 A2999 570 96 -400 050/07 RMK AO2
14840KMKG MKG20011129184509611/29/01 18:45:31  5-MIN KMKG 292345Z 05007KT 10SM OVC007 06/04 A2999 570 92 -300 060/07 RMK AO2
14840KMKG MKG20011129185013711/29/01 18:50:31  5-MIN KMKG 292350Z 06010KT 10SM OVC007 06/04 A2998 570 92 -300 060/10 RMK AO2 SLP159 60000 T00560044 10056 20044 56009
14840KMKG MKG20011129185513711/29/01 18:55:31  5-MIN KMKG 292355Z 06008KT 10SM OVC007 06/05 A2999 570 96 -300 070/08 RMK AO2 SLP160 60000 T00560050 10056 20044 58002
14840KMKG MKG20011129190009611/29/01 19:00:31  5-MIN KMKG 300000Z 07007KT 10SM OVC007 06/05 A2999 560 96 -400 070/07 RMK AO2
14840KMKG MKG20011129190509611/29/01 19:05:31  5-MIN KMKG 300005Z 07010KT 10SM OVC007 06/04 A2999 570 92 -300 070/10 RMK AO2
14840KMKG MKG20011129191009611/29/01 19:10:31  5-MIN KMKG 300010Z 07009KT 10SM OVC007 06/05 A2999 570 96 -300 080/09 RMK AO2
14840KMKG MKG20011129191509611/29/01 19:15:31  5-MIN KMKG 300015Z 06008KT 10SM OVC007 06/05 A2999 570 96 -300 070/08 RMK AO2
14840KMKG MKG20011129192009511/29/01 19:20:31  5-MIN KMKG 300020Z 08007KT 9SM OVC007 06/05 A2999 570 96 -300 080/07 RMK AO2
14840KMKG MKG20011129192509511/29/01 19:25:31  5-MIN KMKG 300025Z 09009KT 9SM OVC007 06/04 A2999 560 92 -400 090/09 RMK AO2
14840KMKG MKG20011129193009611/29/01 19:30:31  5-MIN KMKG 300030Z 09011KT 10SM OVC007 06/04 A2999 560 92 -400 090/11 RMK AO2
14840KMKG MKG20011129193509611/29/01 19:35:31  5-MIN KMKG 300035Z 08008KT 10SM OVC007 06/04 A2999 560 92 -400 080/08 RMK AO2
14840KMKG MKG20011129194009611/29/01 19:40:31  5-MIN KMKG 300040Z 08009KT 10SM OVC007 06/04 A2999 570 92 -300 080/09 RMK AO2
14840KMKG MKG20011129194509611/29/01 19:45:31  5-MIN KMKG 300045Z 07007KT 10SM OVC007 06/04 A2998 570 92 -300 080/07 RMK AO2
14840KMKG MKG20011129195011311/29/01 19:50:31  5-MIN KMKG 300050Z 07010KT 10SM OVC007 06/04 A2998 570 92 -300 080/10 RMK AO2 SLP159 T00560044
14840KMKG MKG20011129195511311/29/01 19:55:31  5-MIN KMKG 300055Z 07009KT 10SM OVC007 06/04 A2998 570 92 -300 080/09 RMK AO2 SLP158 T00560044
14840KMKG MKG20011129200009611/29/01 20:00:31  5-MIN KMKG 300100Z 07008KT 10SM OVC007 06/04 A2998 580 92 -300 070/08 RMK AO2
14840KMKG MKG20011129200509611/29/01 20:05:31  5-MIN KMKG 300105Z 07009KT 10SM OVC007 06/04 A2998 570 92 -300 070/09 RMK AO2
14840KMKG MKG20011129201010811/29/01 20:10:31  5-MIN KMKG 300110Z 08008KT 10SM OVC007 06/04 A2998 580 92 -300 080/08 RMK AO2 CIG 007V012
14840KMKG MKG20011129201510811/29/01 20:15:31  5-MIN KMKG 300115Z 07011KT 10SM OVC009 06/04 A2997 580 92 -300 070/11 RMK AO2 CIG 007V012
14840KMKG MKG20011129202012211/29/01 20:20:31  5-MIN KMKG 300120Z 07009KT 10SM BKN009 BKN014 OVC080 06/04 A2997 590 92 -300 080/09 RMK AO2 CIG 007V012
14840KMKG MKG20011129202512211/29/01 20:25:31  5-MIN KMKG 300125Z 08008KT 10SM BKN009 BKN014 OVC080 06/04 A2997 590 92 -300 080/08 RMK AO2 CIG 008V012
14840KMKG MKG20011129203011511/29/01 20:30:31  5-MIN KMKG 300130Z 08009KT 10SM BKN009 OVC014 06/04 A2997 590 92 -300 080/09 RMK AO2 CIG 008V012
14840KMKG MKG20011129203509611/29/01 20:35:31  5-MIN KMKG 300135Z 08012KT 10SM OVC012 06/04 A2996 590 92 -300 080/12 RMK AO2
14840KMKG MKG20011129204009611/29/01 20:40:31  5-MIN KMKG 300140Z 08009KT 10SM OVC012 06/04 A2996 590 92 -300 090/09 RMK AO2
14840KMKG MKG20011129204509611/29/01 20:45:31  5-MIN KMKG 300145Z 08011KT 10SM OVC014 06/04 A2995 600 92 -300 080/11 RMK AO2
14840KMKG MKG20011129205011311/29/01 20:50:31  5-MIN KMKG 300150Z 07009KT 10SM OVC014 06/04 A2995 600 92 -300 070/09 RMK AO2 SLP147 T00560044
14840KMKG MKG20011129205511311/29/01 20:55:31  5-MIN KMKG 300155Z 07009KT 10SM OVC014 06/04 A2995 600 92 -300 080/09 RMK AO2 SLP148 T00560044
14840KMKG MKG20011129210009611/29/01 21:00:31  5-MIN KMKG 300200Z 08009KT 10SM OVC014 06/04 A2994 610 92 -300 080/09 RMK AO2
14840KMKG MKG20011129210509611/29/01 21:05:31  5-MIN KMKG 300205Z 08012KT 10SM OVC014 06/04 A2994 610 92 -300 080/12 RMK AO2
14840KMKG MKG20011129211009611/29/01 21:10:31  5-MIN KMKG 300210Z 08008KT 10SM OVC014 06/04 A2994 620 89 -300 080/08 RMK AO2
14840KMKG MKG20011129211509611/29/01 21:15:31  5-MIN KMKG 300215Z 08009KT 10SM OVC014 06/04 A2994 610 92 -300 080/09 RMK AO2
14840KMKG MKG20011129212009611/29/01 21:20:31  5-MIN KMKG 300220Z 08010KT 10SM OVC014 06/04 A2994 620 92 -300 080/10 RMK AO2
14840KMKG MKG20011129212509611/29/01 21:25:31  5-MIN KMKG 300225Z 07010KT 10SM OVC014 06/04 A2994 620 89 -300 080/10 RMK AO2
14840KMKG MKG20011129213009611/29/01 21:30:31  5-MIN KMKG 300230Z 07011KT 10SM OVC014 06/04 A2993 620 89 -300 080/11 RMK AO2
14840KMKG MKG20011129213509611/29/01 21:35:31  5-MIN KMKG 300235Z 07011KT 10SM OVC014 06/04 A2993 620 92 -300 080/11 RMK AO2
14840KMKG MKG20011129214009611/29/01 21:40:31  5-MIN KMKG 300240Z 08013KT 10SM OVC012 06/04 A2993 620 92 -300 080/13 RMK AO2
14840KMKG MKG20011129214509611/29/01 21:45:31  5-MIN KMKG 300245Z 08012KT 10SM OVC012 06/04 A2992 630 89 -300 090/12 RMK AO2
14840KMKG MKG20011129215011911/29/01 21:50:31  5-MIN KMKG 300250Z 08012KT 10SM OVC012 06/04 A2993 620 89 -300 080/12 RMK AO2 SLP140 T00560039 58002
14840KMKG MKG20011129215511911/29/01 21:55:31  5-MIN KMKG 300255Z 08013KT 10SM OVC012 06/04 A2992 630 89 -300 090/13 RMK AO2 SLP139 T00560039 58021
14840KMKG MKG20011129220009611/29/01 22:00:31  5-MIN KMKG 300300Z 08011KT 10SM OVC012 06/04 A2992 630 92 -300 080/11 RMK AO2
14840KMKG MKG20011129220509611/29/01 22:05:31  5-MIN KMKG 300305Z 08015KT 10SM OVC014 06/04 A2991 640 92 -300 080/15 RMK AO2
14840KMKG MKG20011129221009611/29/01 22:10:31  5-MIN KMKG 300310Z 08012KT 10SM OVC014 06/04 A2992 630 89 -300 080/12 RMK AO2
14840KMKG MKG20011129221509611/29/01 22:15:31  5-MIN KMKG 300315Z 07012KT 10SM OVC014 06/04 A2992 630 89 -300 080/12 RMK AO2
14840KMKG MKG20011129222009611/29/01 22:20:31  5-MIN KMKG 300320Z 08011KT 10SM OVC014 06/04 A2992 630 89 -300 080/11 RMK AO2
14840KMKG MKG20011129222509611/29/01 22:25:31  5-MIN KMKG 300325Z 08011KT 10SM OVC014 06/04 A2992 630 89 -300 090/11 RMK AO2
14840KMKG MKG20011129223009611/29/01 22:30:31  5-MIN KMKG 300330Z 07012KT 10SM OVC014 06/04 A2992 630 89 -300 080/12 RMK AO2
14840KMKG MKG20011129223509611/29/01 22:35:31  5-MIN KMKG 300335Z 07012KT 10SM OVC014 06/04 A2991 640 89 -300 080/12 RMK AO2
14840KMKG MKG20011129224009611/29/01 22:40:31  5-MIN KMKG 300340Z 07012KT 10SM OVC014 06/04 A2991 640 89 -300 080/12 RMK AO2
14840KMKG MKG20011129224509611/29/01 22:45:31  5-MIN KMKG 300345Z 08012KT 10SM OVC014 06/04 A2991 640 89 -300 080/12 RMK AO2
14840KMKG MKG20011129225011311/29/01 22:50:31  5-MIN KMKG 300350Z 07011KT 10SM OVC014 06/04 A2990 650 89 -200 080/11 RMK AO2 SLP131 T00560039
14840KMKG MKG20011129225511311/29/01 22:55:31  5-MIN KMKG 300355Z 08010KT 10SM OVC014 06/04 A2991 640 89 -300 080/10 RMK AO2 SLP131 T00560039
14840KMKG MKG20011129230009611/29/01 23:00:31  5-MIN KMKG 300400Z 07012KT 10SM OVC014 06/04 A2990 640 89 -300 080/12 RMK AO2
14840KMKG MKG20011129230509611/29/01 23:05:31  5-MIN KMKG 300405Z 08010KT 10SM OVC014 06/04 A2990 650 89 -200 080/10 RMK AO2
14840KMKG MKG20011129231009611/29/01 23:10:31  5-MIN KMKG 300410Z 07009KT 10SM OVC012 06/04 A2990 650 89 -200 070/09 RMK AO2
14840KMKG MKG20011129231509611/29/01 23:15:31  5-MIN KMKG 300415Z 07014KT 10SM OVC012 06/04 A2989 660 89 -200 070/14 RMK AO2
14840KMKG MKG20011129232009611/29/01 23:20:31  5-MIN KMKG 300420Z 07012KT 10SM OVC012 06/04 A2989 660 89 -200 080/12 RMK AO2
14840KMKG MKG20011129232509611/29/01 23:25:31  5-MIN KMKG 300425Z 08013KT 10SM OVC012 06/04 A2988 660 89 -200 080/13 RMK AO2
14840KMKG MKG20011129233011211/29/01 23:30:31  5-MIN KMKG 300430Z 08011KT 10SM -RA OVC012 06/04 A2989 660 89 -200 080/11 RMK AO2 RAB28 P0000
14840KMKG MKG20011129233511211/29/01 23:35:31  5-MIN KMKG 300435Z 08011KT 10SM -RA OVC012 06/04 A2989 660 89 -200 080/11 RMK AO2 RAB28 P0000
14840KMKG MKG20011129234011811/29/01 23:40:31  5-MIN KMKG 300440Z 07014G18KT 10SM -RA OVC012 06/04 A2988 670 89 -200 080/14G18 RMK AO2 RAB28 P0000
14840KMKG MKG20011129234511211/29/01 23:45:31  5-MIN KMKG 300445Z 07012KT 10SM -RA OVC012 06/04 A2988 670 89 -200 070/12 RMK AO2 RAB28 P0000
14840KMKG MKG20011129235013911/29/01 23:50:31  5-MIN KMKG 300450Z 07012KT 10SM -RA OVC014 06/04 A2988 670 89 -200 070/12 RMK AO2 RAB28 SLP122 P0000 T00560039 400560022
14840KMKG MKG20011129235514411/29/01 23:55:31  5-MIN KMKG 300455Z 07012G17KT 8SM -RA OVC014 05/04 A2987 670 96 -300 080/12G17 RMK AO2 RAB28 SLP121 P0000 T00500044 400560022
14840KMKG MKG20011130000010811/30/01 00:00:31  5-MIN KMKG 300500Z 07013KT 6SM -RA BR OVC014 05/04 A2987 680 96 -300 070/13 RMK AO2 P0000
14840KMKG MKG20011130000510811/30/01 00:05:31  5-MIN KMKG 300505Z 07013KT 6SM -RA BR OVC014 05/04 A2986 680 96 -300 080/13 RMK AO2 P0000
14840KMKG MKG20011130001011811/30/01 00:10:31  5-MIN KMKG 300510Z 07014G19KT 8SM -RA OVC014 05/04 A2986 690 96 -300 080/14G19 RMK AO2 PRESFR P0001
14840KMKG MKG20011130001510511/30/01 00:15:31  5-MIN KMKG 300515Z 07012KT 9SM -RA OVC012 05/04 A2986 690 96 -300 070/12 RMK AO2 P0001
14840KMKG MKG20011130002010511/30/01 00:20:31  5-MIN KMKG 300520Z 08012KT 8SM -RA OVC012 05/04 A2985 690 96 -300 080/12 RMK AO2 P0001
14840KMKG MKG20011130002511111/30/01 00:25:31  5-MIN KMKG 300525Z 08015G20KT 7SM -RA OVC012 05/04 A2985 690 96 -300 080/15G20 RMK AO2 P0001
14840KMKG MKG20011130003013011/30/01 00:30:31  5-MIN KMKG 300530Z 07015G21KT 7SM -RA BKN010 OVC015 05/04 A2985 690 96 -300 080/15G21 RMK AO2 CIG 007V013 P0001
14840KMKG MKG20011130003512511/30/01 00:35:31  5-MIN KMKG 300535Z 08015G21KT 7SM OVC010 05/04 A2985 700 96 -300 080/15G21 RMK AO2 RAE31 CIG 007V013 P0001
14840KMKG MKG20011130004011911/30/01 00:40:31  5-MIN KMKG 300540Z 07014KT 7SM OVC010 05/04 A2984 700 96 -200 080/14 RMK AO2 RAE31 CIG 007V015 P0001
14840KMKG MKG20011130004511911/30/01 00:45:31  5-MIN KMKG 300545Z 07015KT 8SM OVC010 05/04 A2984 710 96 -200 070/15 RMK AO2 RAE31 CIG 007V015 P0001
14840KMKG MKG20011130005014811/30/01 00:50:31  5-MIN KMKG 300550Z 07015KT 8SM OVC010 05/04 A2983 710 96 -200 080/15 RMK AO2 RAE31 SLP107 P0001 60001 T00500044 10056 20050 58021
14840KMKG MKG20011130005516711/30/01 00:55:31  5-MIN KMKG 300555Z 07014KT 7SM -RA OVC010 05/04 A2983 720 96 -200 070/14 RMK AO2 RAE31B54 CIG 008V015 SLP105 P0001 60001 T00500044 10056 20050 58032
14840KMKG MKG20011130010012311/30/01 01:00:31  5-MIN KMKG 300600Z 07012G18KT 7SM -RA OVC010 05/04 A2982 720 96 -200 070/12G18 RMK AO2 CIG 008V014 P0000
14840KMKG MKG20011130010512611/30/01 01:05:31  5-MIN KMKG 300605Z 07013G18KT 6SM -RA BR OVC010 05/04 A2982 720 96 -200 070/13G18 RMK AO2 CIG 008V014 P0000
14840KMKG MKG20011130011013311/30/01 01:10:31  5-MIN KMKG 300610Z 07016G22KT 6SM -RA BR BKN010 OVC013 05/04 A2982 720 96 -200 070/16G22 RMK AO2 CIG 007V011 P0000
14840KMKG MKG20011130011512311/30/01 01:15:31  5-MIN KMKG 300615Z 07014G22KT 7SM -RA OVC010 05/04 A2982 730 96 -200 080/14G22 RMK AO2 CIG 007V014 P0000
14840KMKG MKG20011130012011711/30/01 01:20:31  5-MIN KMKG 300620Z 07014KT 9SM -RA OVC010 05/04 A2981 730 96 -200 070/14 RMK AO2 CIG 007V014 P0000
14840KMKG MKG20011130012511711/30/01 01:25:31  5-MIN KMKG 300625Z 07013KT 9SM -RA OVC010 05/04 A2981 730 96 -200 080/13 RMK AO2 CIG 007V014 P0000
14840KMKG MKG20011130013012311/30/01 01:30:31  5-MIN KMKG 300630Z 07015G20KT 8SM -RA OVC010 05/04 A2981 740 96 -200 080/15G20 RMK AO2 CIG 007V014 P0000
14840KMKG MKG20011130013512311/30/01 01:35:31  5-MIN KMKG 300635Z 07015G20KT 7SM -RA OVC010 05/04 A2980 740 96 -200 070/15G20 RMK AO2 CIG 007V014 P0001
14840KMKG MKG20011130014011711/30/01 01:40:31  5-MIN KMKG 300640Z 07013KT 7SM -RA OVC010 05/04 A2980 740 96 -200 070/13 RMK AO2 CIG 008V014 P0001
14840KMKG MKG20011130014511711/30/01 01:45:31  5-MIN KMKG 300645Z 07013KT 7SM -RA OVC010 05/04 A2980 750 96 -200 080/13 RMK AO2 CIG 008V014 P0001
14840KMKG MKG20011130015014011/30/01 01:50:31  5-MIN KMKG 300650Z 07017G20KT 7SM -RA OVC010 05/04 A2979 750 96 -200 080/17G20 RMK AO2 CIG 008V014 SLP093 P0002 T00500044
14840KMKG MKG20011130015514011/30/01 01:55:31  5-MIN KMKG 300655Z 07015G20KT 7SM -RA OVC010 05/04 A2979 750 96 -200 080/15G20 RMK AO2 CIG 007V014 SLP093 P0002 T00500044
14840KMKG MKG20011130020012311/30/01 02:00:31  5-MIN KMKG 300700Z 08016G22KT 7SM -RA OVC010 05/04 A2979 750 96 -200 080/16G22 RMK AO2 CIG 007V014 P0000
14840KMKG MKG20011130020512311/30/01 02:05:31  5-MIN KMKG 300705Z 08016G22KT 7SM -RA OVC010 05/04 A2979 760 96 -200 080/16G22 RMK AO2 CIG 007V013 P0001
14840KMKG MKG20011130021013311/30/01 02:10:31  5-MIN KMKG 300710Z 08013G21KT 6SM -RA BR BKN010 OVC014 05/04 A2979 750 96 -200 080/13G21 RMK AO2 CIG 007V012 P0001
14840KMKG MKG20011130021510811/30/01 02:15:31  5-MIN KMKG 300715Z 08016KT 6SM -RA BR OVC010 05/04 A2979 760 96 -200 080/16 RMK AO2 P0001
14840KMKG MKG20011130022010511/30/01 02:20:31  5-MIN KMKG 300720Z 07016KT 7SM -RA OVC010 05/04 A2978 760 96 -200 080/16 RMK AO2 P0001
14840KMKG MKG20011130022510511/30/01 02:25:31  5-MIN KMKG 300725Z 08015KT 7SM -RA OVC010 05/04 A2978 760 96 -200 080/15 RMK AO2 P0002
14840KMKG MKG20011130023010511/30/01 02:30:31  5-MIN KMKG 300730Z 08015KT 7SM -RA OVC010 05/04 A2977 770 96 -200 080/15 RMK AO2 P0002
14840KMKG MKG20011130023510811/30/01 02:35:31  5-MIN KMKG 300735Z 08015KT 5SM -RA BR OVC010 05/04 A2977 770 96 -200 080/15 RMK AO2 P0002
14840KMKG MKG20011130024012111/30/01 02:40:31  5-MIN KMKG 300740Z 07015G21KT 5SM -RA BR BKN010 OVC029 05/04 A2977 770 96 -200 080/15G21 RMK AO2 P0002
14840KMKG MKG20011130024512111/30/01 02:45:31  5-MIN KMKG 300745Z 07015G23KT 5SM -RA BR BKN010 OVC029 05/04 A2977 770 96 -200 080/15G23 RMK AO2 P0003
14840KMKG MKG20011130025013811/30/01 02:50:31  5-MIN KMKG 300750Z 07015G23KT 6SM -RA BR BKN010 OVC029 05/04 A2976 780 96 -200 070/15G23 RMK AO2 SLP083 P0003 T00500044
14840KMKG MKG20011130025515011/30/01 02:55:31  5-MIN KMKG 300755Z 07015G23KT 6SM -RA BR BKN010 OVC027 05/04 A2976 780 96 -200 080/15G23 RMK AO2 CIG 007V015 SLP081 P0003 T00500044
14840KMKG MKG20011130030012511/30/01 03:00:31  5-MIN KMKG 300800Z 07016G19KT 7SM -RA BKN010 BKN015 OVC027 05/04 A2975 780 96 -100 070/16G19 RMK AO2 P0000
14840KMKG MKG20011130030512211/30/01 03:05:31  5-MIN KMKG 300805Z 07015KT 6SM -RA BR BKN010 BKN013 OVC027 05/04 A2975 790 96 -100 070/15 RMK AO2 P0001
14840KMKG MKG20011130031012011/30/01 03:10:31  5-MIN KMKG 300810Z 07014G21KT 5SM RA BR BKN010 OVC027 05/04 A2975 790 96 -100 070/14G21 RMK AO2 P0002
14840KMKG MKG20011130031512711/30/01 03:15:31  5-MIN KMKG 300815Z 07015G20KT 4SM RA BR BKN010 BKN014 OVC027 05/04 A2974 790 96 -100 070/15G20 RMK AO2 P0003
14840KMKG MKG20011130032012111/30/01 03:20:31  5-MIN KMKG 300820Z 07015KT 4SM RA BR BKN010 BKN014 OVC025 05/04 A2974 800 96 -100 070/15 RMK AO2 P0004
14840KMKG MKG20011130032512711/30/01 03:25:31  5-MIN KMKG 300825Z 07017G23KT 4SM RA BR BKN010 BKN014 OVC025 05/04 A2974 800 96 -100 070/17G23 RMK AO2 P0005
14840KMKG MKG20011130033012811/30/01 03:30:31  5-MIN KMKG 300830Z 07014G23KT 5SM -RA BR BKN010 BKN014 OVC023 05/04 A2974 800 96 -100 070/14G23 RMK AO2 P0006
14840KMKG MKG20011130033512811/30/01 03:35:31  5-MIN KMKG 300835Z 06015G20KT 6SM -RA BR BKN010 BKN014 OVC023 05/04 A2973 810 96 -100 070/15G20 RMK AO2 P0006
14840KMKG MKG20011130034012011/30/01 03:40:31  5-MIN KMKG 300840Z 07015G20KT 6SM RA BR BKN012 OVC023 05/04 A2972 810 96 -100 070/15G20 RMK AO2 P0007
14840KMKG MKG20011130034511411/30/01 03:45:31  5-MIN KMKG 300845Z 07014KT 5SM RA BR BKN010 OVC023 05/04 A2972 820 96 -100 070/14 RMK AO2 P0008
14840KMKG MKG20011130035015011/30/01 03:50:31  5-MIN KMKG 300850Z 07016KT 4SM RA BR FEW008 BKN012 OVC023 05/04 A2972 820 96 -100 080/16 RMK AO2 SLP067 P0009 60014 T00500044 58032
14840KMKG MKG20011130035515611/30/01 03:55:31  5-MIN KMKG 300855Z 07016G21KT 4SM RA BR FEW008 BKN012 OVC023 05/04 A2971 820 96 -100 070/16G21 RMK AO2 SLP065 P0011 60016 T00500044 58039
14840KMKG MKG20011130040012811/30/01 04:00:31  5-MIN KMKG 300900Z 08014G21KT 5SM -RA BR FEW008 BKN012 OVC026 05/04 A2971 830 96 -100 080/14G21 RMK AO2 P0000
14840KMKG MKG20011130040514011/30/01 04:05:31  5-MIN KMKG 300905Z 07013G20KT 6SM -RA BR BKN010 BKN018 OVC030 05/04 A2970 830 96 -100 080/13G20 RMK AO2 CIG 007V013 P0001
14840KMKG MKG20011130041012211/30/01 04:10:31  5-MIN KMKG 300910Z 07015KT 6SM -RA BR SCT008 BKN012 OVC024 05/04 A2970 840 96 -100 080/15 RMK AO2 P0001
14840KMKG MKG20011130041512411/30/01 04:15:31  5-MIN KMKG 300915Z 07013KT 8SM -RA BKN010 OVC024 05/04 A2969 840 96 -100 070/13 RMK AO2 CIG 008V013 P0002
14840KMKG MKG20011130042013711/30/01 04:20:31  5-MIN KMKG 300920Z 08015G20KT 8SM -RA BKN010 BKN019 OVC024 05/04 A2969 840 96 -100 080/15G20 RMK AO2 CIG 008V013 P0002
14840KMKG MKG20011130042513011/30/01 04:25:31  5-MIN KMKG 300925Z 08015G21KT 9SM -RA BKN010 OVC022 05/04 A2969 840 96 -100 080/15G21 RMK AO2 CIG 007V014 P0002
14840KMKG MKG20011130043013111/30/01 04:30:31  5-MIN KMKG 300930Z 08015G21KT 10SM -RA BKN010 OVC022 05/04 A2969 850 96 -100 080/15G21 RMK AO2 CIG 007V014 P0002
14840KMKG MKG20011130043513111/30/01 04:35:31  5-MIN KMKG 300935Z 08015G20KT 10SM -RA BKN010 OVC022 05/04 A2968 850 96 -100 080/15G20 RMK AO2 CIG 007V014 P0003
14840KMKG MKG20011130044013711/30/01 04:40:31  5-MIN KMKG 300940Z 08014G20KT 9SM -RA BKN010 BKN022 OVC035 05/04 A2968 850 96 -100 080/14G20 RMK AO2 CIG 007V014 P0003
14840KMKG MKG20011130044513711/30/01 04:45:31  5-MIN KMKG 300945Z 08014G18KT 8SM -RA BKN010 BKN022 OVC035 05/04 A2968 850 96 -100 080/14G18 RMK AO2 CIG 007V014 P0004
14840KMKG MKG20011130045014211/30/01 04:50:31  5-MIN KMKG 300950Z 08014G22KT 9SM -RA BKN010 BKN022 OVC036 05/04 A2968 860 96 -100 080/14G22 RMK AO2 SLP053 P0005 T00500044
14840KMKG MKG20011130045515111/30/01 04:55:31  5-MIN KMKG 300955Z 07015G22KT 9SM -RA BKN010 BKN022 OVC037 05/04 A2967 860 96 0 080/15G22 RMK AO2 CIG 007V014 SLP051 P0005 T00500044
14840KMKG MKG20011130050013611/30/01 05:00:31  5-MIN KMKG 301000Z 07015G20KT 9SM RA SCT010 BKN022 OVC035 05/04 A2967 860 96 0 080/15G20 RMK AO2 CIG 010 RWY 14 P0001
14840KMKG MKG20011130050513311/30/01 05:05:31  5-MIN KMKG 301005Z 08014G20KT 7SM RA BKN010 BKN022 OVC035 05/04 A2966 870 96 0 080/14G20 RMK AO2 CIG 007V013 P0003
14840KMKG MKG20011130051013011/30/01 05:10:31  5-MIN KMKG 301010Z 08016KT 6SM RA BR BKN010 BKN022 OVC030 05/04 A2966 870 96 0 080/16 RMK AO2 CIG 008V012 P0004
14840KMKG MKG20011130051512411/30/01 05:15:31  5-MIN KMKG 301015Z 08014G22KT 6SM RA BR SCT010 BKN022 OVC039 05/04 A2966 870 96 0 080/14G22 RMK AO2 P0005
14840KMKG MKG20011130052012411/30/01 05:20:31  5-MIN KMKG 301020Z 08016G23KT 4SM RA BR SCT010 BKN024 OVC036 05/04 A2965 880 96 0 080/16G23 RMK AO2 P0006
14840KMKG MKG20011130052512411/30/01 05:25:31  5-MIN KMKG 301025Z 08014G23KT 3SM RA BR SCT010 BKN024 OVC032 05/04 A2965 880 96 0 080/14G23 RMK AO2 P0007
14840KMKG MKG20011130053012511/30/01 05:30:31  5-MIN KMKG 301030Z 08014G21KT 3SM -RA BR SCT010 BKN024 OVC030 05/04 A2965 880 96 0 090/14G21 RMK AO2 P0008
14840KMKG MKG20011130053512511/30/01 05:35:31  5-MIN KMKG 301035Z 08014G20KT 4SM -RA BR SCT010 BKN022 OVC030 05/04 A2965 880 96 0 090/14G20 RMK AO2 P0008
14840KMKG MKG20011130054012511/30/01 05:40:31  5-MIN KMKG 301040Z 08015G20KT 4SM -RA BR BKN010 BKN022 OVC028 05/04 A2965 880 96 0 090/15G20 RMK AO2 P0009
14840KMKG MKG20011130054511811/30/01 05:45:31  5-MIN KMKG 301045Z 07016G20KT 5SM -RA BR BKN010 OVC020 05/04 A2965 880 96 0 080/16G20 RMK AO2 P0009
14840KMKG MKG20011130055013511/30/01 05:50:31  5-MIN KMKG 301050Z 08013G20KT 6SM -RA BR BKN010 OVC020 05/04 A2965 880 96 0 090/13G20 RMK AO2 SLP043 P0009 T00500044
14840KMKG MKG20011130055515411/30/01 05:55:31  5-MIN KMKG 301055Z 08014G19KT 6SM -RA BR BKN010 BKN016 OVC020 05/04 A2965 880 96 0 090/14G19 RMK AO2 CIG 006V012 SLP044 P0009 T00500044
14840KMKG MKG20011130060013411/30/01 06:00:31  5-MIN KMKG 301100Z 09012G19KT 8SM -RA BKN008 BKN016 OVC020 05/04 A2964 890 96 0 090/12G19 RMK AO2 CIG 006V012 P0000
14840KMKG MKG20011130060512111/30/01 06:05:31  5-MIN KMKG 301105Z 09012KT 9SM -RA BKN008 OVC019 05/04 A2964 890 96 0 090/12 RMK AO2 CIG 006V012 P0000
14840KMKG MKG20011130061012111/30/01 06:10:31  5-MIN KMKG 301110Z 08013KT 9SM -RA BKN008 OVC016 05/04 A2964 890 96 0 090/13 RMK AO2 CIG 006V011 P0000
14840KMKG MKG20011130061512711/30/01 06:15:31  5-MIN KMKG 301115Z 09014G21KT 7SM -RA BKN008 OVC016 05/04 A2964 890 96 0 090/14G21 RMK AO2 CIG 006V011 P0001
14840KMKG MKG20011130062012911/30/01 06:20:31  5-MIN KMKG 301120Z 08018G21KT 4SM RA BR BKN008 OVC019 05/04 A2964 890 96 0 080/18G21 RMK AO2 CIG 006V011 P0002
14840KMKG MKG20011130062512911/30/01 06:25:31  5-MIN KMKG 301125Z 10012G21KT 3SM RA BR BKN008 OVC019 05/04 A2964 890 96 0 100/12G21 RMK AO2 CIG 005V011 P0003
14840KMKG MKG20011130063012311/30/01 06:30:31  5-MIN KMKG 301130Z 08012KT 3SM RA BR BKN008 OVC019 05/04 A2964 890 96 0 090/12 RMK AO2 CIG 005V011 P0004
14840KMKG MKG20011130063512411/30/01 06:35:31  5-MIN KMKG 301135Z 09011KT 3SM -RA BR BKN008 OVC019 05/04 A2964 890 96 0 090/11 RMK AO2 CIG 005V011 P0004
14840KMKG MKG20011130064013711/30/01 06:40:31  5-MIN KMKG 301140Z 09013G18KT 5SM -RA BR BKN008 BKN011 OVC017 05/04 A2964 890 96 0 090/13G18 RMK AO2 CIG 005V009 P0004
14840KMKG MKG20011130064513011/30/01 06:45:31  5-MIN KMKG 301145Z 09010G19KT 5SM -RA BR BKN008 OVC017 05/04 A2963 900 96 0 090/10G19 RMK AO2 CIG 005V013 P0004
14840KMKG MKG20011130065018511/30/01 06:50:31  5-MIN KMKG 301150Z 09011G18KT 6SM -RA BR BKN008 BKN011 OVC017 05/05 A2963 900 100 0 090/11G18 RMK AO2 CIG 005V009 SLP039 P0004 60034 70035 T00500050 10050 20050 58039
14840KMKG MKG20011130065517511/30/01 06:55:31  5-MIN KMKG 301155Z 08014G21KT 8SM -RA BKN008 OVC017 05/05 A2963 900 100 0 080/14G21 RMK AO2 CIG 006V011 SLP039 P0005 60035 70036 T00500050 10050 20050 56026
14840KMKG MKG20011130070013711/30/01 07:00:31  5-MIN KMKG 301200Z 10013G21KT 10SM BKN008 BKN011 OVC017 05/04 A2963 900 96 0 100/13G21 RMK AO2 RAE00 CIG 006V010 P0000
14840KMKG MKG20011130070512611/30/01 07:05:31  5-MIN KMKG 301205Z 09010G20KT 10SM BKN008 BKN011 OVC017 05/05 A2964 900 100 0 100/10G20 RMK AO2 RAE00 P0000
14840KMKG MKG20011130071012311/30/01 07:10:31  5-MIN KMKG 301210Z 09010KT 10SM -RA BKN008 OVC017 05/05 A2963 900 100 0 100/10 RMK AO2 CIG 006V012 P0000
14840KMKG MKG20011130071512311/30/01 07:15:31  5-MIN KMKG 301215Z 10010KT 10SM -RA BKN008 OVC015 05/05 A2964 890 100 0 100/10 RMK AO2 CIG 006V010 P0000
14840KMKG MKG20011130072011711/30/01 07:20:31  5-MIN KMKG 301220Z 09010KT 10SM OVC008 06/05 A2963 900 96 0 090/10 RMK AO2 RAE18 CIG 006V010 P0000
14840KMKG MKG20011130072511711/30/01 07:25:31  5-MIN KMKG 301225Z 09010KT 10SM OVC008 06/05 A2964 890 96 0 090/10 RMK AO2 RAE18 CIG 006V010 P0000
14840KMKG MKG20011130073011711/30/01 07:30:31  5-MIN KMKG 301230Z 09009KT 10SM OVC008 06/05 A2964 890 96 0 090/09 RMK AO2 RAE18 CIG 006V010 P0000
14840KMKG MKG20011130073511711/30/01 07:35:31  5-MIN KMKG 301235Z 10008KT 10SM OVC008 06/05 A2964 890 96 0 100/08 RMK AO2 RAE18 CIG 006V010 P0000
14840KMKG MKG20011130074011211/30/01 07:40:31  5-MIN KMKG 301240Z 10008KT 10SM -RA OVC008 06/05 A2965 890 96 0 100/08 RMK AO2 RAE18B36 P0000
14840KMKG MKG20011130074511211/30/01 07:45:31  5-MIN KMKG 301245Z 10009KT 10SM -RA OVC008 06/05 A2965 880 96 0 100/09 RMK AO2 RAE18B36 P0000
14840KMKG MKG20011130075012911/30/01 07:50:31  5-MIN KMKG 301250Z 09011KT 10SM -RA OVC008 06/05 A2965 880 96 0 090/11 RMK AO2 RAE18B36 SLP044 P0000 T00560050
14840KMKG MKG20011130075512811/30/01 07:55:31  5-MIN KMKG 301255Z 10009KT 10SM OVC008 06/05 A2965 880 96 0 100/09 RMK AO2 RAE18B36E52 SLP044 P0000 T00560050
14840KMKG MKG20011130080011111/30/01 08:00:31  5-MIN KMKG 301300Z 10007KT 10SM -RA OVC008 06/05 A2965 880 96 0 100/07 RMK AO2 RAB1256 P0000
14840KMKG MKG20011130080511111/30/01 08:05:31  5-MIN KMKG 301305Z 10009KT 10SM -RA OVC008 06/05 A2965 880 96 0 100/09 RMK AO2 RAB1256 P0000
14840KMKG MKG20011130081011811/30/01 08:10:31  5-MIN KMKG 301310Z 09009KT 10SM -RA BKN008 OVC012 06/05 A2964 890 96 0 100/09 RMK AO2 RAB1256 P0000
14840KMKG MKG20011130081511811/30/01 08:15:31  5-MIN KMKG 301315Z 10008KT 10SM -RA BKN008 OVC012 06/05 A2964 890 96 0 110/08 RMK AO2 RAB1256 P0001
14840KMKG MKG20011130082011811/30/01 08:20:31  5-MIN KMKG 301320Z 10008KT 10SM -RA BKN008 OVC012 06/05 A2964 890 96 0 100/08 RMK AO2 RAB1256 P0001
14840KMKG MKG20011130082513011/30/01 08:25:31  5-MIN KMKG 301325Z 10009KT 10SM -RA BKN008 OVC012 06/05 A2964 890 96 0 110/09 RMK AO2 RAB1256 CIG 006V010 P0001
14840KMKG MKG20011130083013011/30/01 08:30:31  5-MIN KMKG 301330Z 12006KT 10SM -RA BKN008 OVC012 06/05 A2964 890 96 0 120/06 RMK AO2 RAB1256 CIG 005V010 P0001
14840KMKG MKG20011130083512311/30/01 08:35:31  5-MIN KMKG 301335Z 10009KT 10SM -RA OVC008 06/05 A2964 890 96 0 110/09 RMK AO2 RAB1256 CIG 005V014 P0001
14840KMKG MKG20011130084012411/30/01 08:40:31  5-MIN KMKG 301340Z 11008KT 10SM -RA OVC008 06/06 A2964 890 100 0 120/08 RMK AO2 RAB1256 CIG 005V011 P0001
14840KMKG MKG20011130084513111/30/01 08:45:31  5-MIN KMKG 301345Z 10009KT 10SM -RA BKN008 OVC012 06/06 A2964 890 100 0 100/09 RMK AO2 RAB1256 CIG 005V010 P0001
14840KMKG MKG20011130085014011/30/01 08:50:31  5-MIN KMKG 301350Z 10007KT 10SM OVC008 06/06 A2963 900 100 0 100/07 RMK AO2 RAB1256E50 CIG 005V012 SLP039 P0001 T00560056
14840KMKG MKG20011130085514011/30/01 08:55:31  5-MIN KMKG 301355Z 11006KT 10SM OVC008 06/06 A2964 890 100 0 110/06 RMK AO2 RAB1256E50 CIG 005V010 SLP040 P0001 T00560056
14840KMKG MKG20011130090010611/30/01 09:00:31  5-MIN KMKG 301400Z 11005KT 10SM OVC008 06/06 A2964 890 100 0 120/05 RMK AO2 CIG 005V010
14840KMKG MKG20011130090510511/30/01 09:05:31  5-MIN KMKG 301405Z 13006KT 9SM OVC008 06/06 A2964 890 100 0 130/06 RMK AO2 CIG 005V010
14840KMKG MKG20011130091010511/30/01 09:10:31  5-MIN KMKG 301410Z 12006KT 9SM OVC008 06/06 A2965 880 100 0 130/06 RMK AO2 CIG 005V010
14840KMKG MKG20011130091509411/30/01 09:15:31  5-MIN KMKG 301415Z 11006KT 10SM OVC008 06/06 A2965 880 100 0 120/06 RMK AO2
14840KMKG MKG20011130092009411/30/01 09:20:31  5-MIN KMKG 301420Z 11007KT 10SM OVC008 06/06 A2965 880 100 0 110/07 RMK AO2
14840KMKG MKG20011130092510611/30/01 09:25:31  5-MIN KMKG 301425Z 11008KT 10SM OVC008 06/06 A2965 880 100 0 120/08 RMK AO2 CIG 005V010
14840KMKG MKG20011130093009311/30/01 09:30:31  5-MIN KMKG 301430Z 11008KT 7SM OVC008 06/06 A2965 880 100 0 110/08 RMK AO2
14840KMKG MKG20011130093510911/30/01 09:35:31  5-MIN KMKG 301435Z 12008KT 4SM BR OVC006 06/06 A2965 880 96 100 120/08 RMK AO2 CIG 004V009
14840KMKG MKG20011130094011211/30/01 09:40:31  5-MIN KMKG 301440Z 11010KT 2 1/2SM BR OVC006 06/06 A2964 890 100 0 110/10 RMK AO2 CIG 004V009
14840KMKG MKG20011130094512311/30/01 09:45:31  5-MIN KMKG 301445Z 10009KT 3SM BR OVC006 06/06 A2963 900 100 100 110/09 RMK AO2 VIS 2 RWY 14 CIG 004V008
14840KMKG MKG20011130095015611/30/01 09:50:31  5-MIN KMKG 301450Z 11010KT 3SM BR BKN006 OVC011 06/06 A2964 900 100 100 110/10 RMK AO2 SFC VIS 4 CIG 004V009 SLP039 60001 T00610061 56026
14840KMKG MKG20011130095515611/30/01 09:55:31  5-MIN KMKG 301455Z 12008KT 3SM BR BKN006 OVC009 06/06 A2965 880 100 100 130/08 RMK AO2 SFC VIS 4 CIG 004V007 SLP043 60001 T00610061 51004
14840KMKG MKG20011130100012711/30/01 10:00:31  5-MIN KMKG 301500Z 15005KT 3SM BR BKN006 OVC009 06/06 A2965 880 100 100 150/05 RMK AO2 SFC VIS 5 CIG 003V007
14840KMKG MKG20011130100512711/30/01 10:05:31  5-MIN KMKG 301505Z 11009KT 3SM BR BKN006 OVC009 06/06 A2965 880 100 100 110/09 RMK AO2 SFC VIS 6 CIG 003V007
14840KMKG MKG20011130101012411/30/01 10:10:31  5-MIN KMKG 301510Z 13006KT 3SM BKN006 OVC011 06/06 A2966 880 100 100 130/06 RMK AO2 SFC VIS 7 CIG 003V009
14840KMKG MKG20011130101512211/30/01 10:15:31  5-MIN KMKG 301515Z 14006KT 3SM BKN006 OVC011 06/06 A2966 870 100 0 150/06 RMK AO2 SFC VIS 9 CIG 003V009
14840KMKG MKG20011130102012411/30/01 10:20:31  5-MIN KMKG 301520Z 13006KT 3SM BKN006 OVC010 06/06 A2965 880 100 100 140/06 RMK AO2 SFC VIS 9 CIG 003V008
14840KMKG MKG20011130102512411/30/01 10:25:31  5-MIN KMKG 301525Z 16006KT 3SM BKN006 OVC011 07/07 A2966 870 100 100 160/06 RMK AO2 SFC VIS 8 CIG 003V010
14840KMKG MKG20011130103012711/30/01 10:30:31  5-MIN KMKG 301530Z 17006KT 3SM BR BKN006 OVC011 07/07 A2966 870 100 100 170/06 RMK AO2 SFC VIS 5 CIG 004V009
14840KMKG MKG20011130103513311/30/01 10:35:31  5-MIN KMKG 301535Z 18007KT 3SM -RA BR BKN008 OVC011 07/07 A2967 860 100 100 180/07 RMK AO2 RAB35 CIG 004V010 P0000
14840KMKG MKG20011130104013311/30/01 10:40:31  5-MIN KMKG 301540Z 18008KT 3SM -RA BR BKN008 OVC011 07/07 A2967 860 100 200 190/08 RMK AO2 RAB35 CIG 004V010 P0001
14840KMKG MKG20011130104514711/30/01 10:45:31  5-MIN KMKG 301545Z 20013G18KT 3SM SCT008 OVC011 08/07 A2967 860 96 200 200/13G18 RMK AO2 SFC VIS 7 RAB35E45 CIG 007 RWY 14 P0001
14840KMKG MKG20011130105014511/30/01 10:50:31  5-MIN KMKG 301550Z 20016G23KT 3SM BR OVC011 08/07 A2966 870 93 300 200/16G23 RMK AO2 SFC VIS 6 RAB35E45 SLP048 P0001 T00830072
14840KMKG MKG20011130105515211/30/01 10:55:31  5-MIN KMKG 301555Z 20013G23KT 3SM BR BKN011 OVC016 08/08 A2966 870 96 300 210/13G23 RMK AO2 SFC VIS 6 RAB35E45 SLP048 P0001 T00830078
14840KMKG MKG20011130110010711/30/01 11:00:31  5-MIN KMKG 301600Z 20014KT 3SM BR OVC011 08/08 A2966 870 96 300 210/14 RMK AO2 SFC VIS 5
14840KMKG MKG20011130110511411/30/01 11:05:31  5-MIN KMKG 301605Z 19012KT 3SM BR FEW007 OVC011 08/08 A2966 870 96 300 190/12 RMK AO2 SFC VIS 5
14840KMKG MKG20011130111012611/30/01 11:10:31  5-MIN KMKG 301610Z 19012KT 3SM BR BKN009 OVC013 08/08 A2966 870 96 300 200/12 RMK AO2 SFC VIS 4 CIG 006V011
14840KMKG MKG20011130111512611/30/01 11:15:31  5-MIN KMKG 301615Z 19014KT 3SM BR BKN009 OVC013 08/08 A2966 870 96 300 200/14 RMK AO2 SFC VIS 6 CIG 006V012
14840KMKG MKG20011130112013011/30/01 11:20:31  5-MIN KMKG 301620Z 20017G20KT 3SM BKN009 OVC015 08/08 A2966 870 96 300 200/17G20 RMK AO2 SFC VIS 10 CIG 006V012
14840KMKG MKG20011130112512011/30/01 11:25:31  5-MIN KMKG 301625Z 20016G21KT 10SM BKN009 OVC015 08/08 A2966 880 96 300 200/16G21 RMK AO2 CIG 006V013
14840KMKG MKG20011130113012011/30/01 11:30:31  5-MIN KMKG 301630Z 19013G21KT 10SM BKN009 OVC012 08/08 A2966 870 96 300 190/13G21 RMK AO2 CIG 006V010
14840KMKG MKG20011130113512011/30/01 11:35:31  5-MIN KMKG 301635Z 19015G19KT 10SM BKN009 OVC015 08/07 A2966 870 93 300 190/15G19 RMK AO2 CIG 006V012
14840KMKG MKG20011130114011411/30/01 11:40:31  5-MIN KMKG 301640Z 19011KT 10SM BKN011 OVC016 08/07 A2966 880 93 300 190/11 RMK AO2 CIG 007V013
14840KMKG MKG20011130114511411/30/01 11:45:31  5-MIN KMKG 301645Z 18012KT 10SM BKN011 OVC016 08/07 A2966 870 93 300 180/12 RMK AO2 CIG 007V013
14840KMKG MKG20011130115012411/30/01 11:50:31  5-MIN KMKG 301650Z 18014KT 10SM OVC011 08/07 A2965 880 93 300 180/14 RMK AO2 CIG 007V015 SLP044 T00830072
14840KMKG MKG20011130115511811/30/01 11:55:31  5-MIN KMKG 301655Z 18017G22KT 10SM OVC011 08/07 A2965 880 93 300 190/17G22 RMK AO2 SLP045 T00830072
14840KMKG MKG20011130120010111/30/01 12:00:31  5-MIN KMKG 301700Z 18014G22KT 10SM OVC011 08/07 A2965 890 96 300 180/14G22 RMK AO2
14840KMKG MKG20011130120510111/30/01 12:05:31  5-MIN KMKG 301705Z 18014G22KT 10SM OVC011 08/07 A2965 880 93 300 190/14G22 RMK AO2
14840KMKG MKG20011130121009511/30/01 12:10:31  5-MIN KMKG 301710Z 18013KT 10SM OVC011 08/07 A2965 880 96 300 190/13 RMK AO2
14840KMKG MKG20011130121510111/30/01 12:15:31  5-MIN KMKG 301715Z 19015G20KT 10SM OVC011 08/07 A2964 890 96 300 190/15G20 RMK AO2
14840KMKG MKG20011130122010111/30/01 12:20:31  5-MIN KMKG 301720Z 19014G20KT 10SM OVC011 08/07 A2965 880 93 300 190/14G20 RMK AO2
14840KMKG MKG20011130122511911/30/01 12:25:31  5-MIN KMKG 301725Z 19017G24KT 8SM BKN011 OVC014 08/07 A2965 880 96 300 190/17G24 RMK AO2 CIG 008V013
14840KMKG MKG20011130123013111/30/01 12:30:31  5-MIN KMKG 301730Z 19017G24KT 4SM -RA BR OVC011 08/07 A2966 870 96 300 190/17G24 RMK AO2 RAB30 CIG 008V013 P0000
14840KMKG MKG20011130123513811/30/01 12:35:31  5-MIN KMKG 301735Z 20014G23KT 3SM -RA BR BKN011 OVC014 08/07 A2966 870 96 300 200/14G23 RMK AO2 RAB30 CIG 007V012 P0000
14840KMKG MKG20011130124015611/30/01 12:40:31  5-MIN KMKG 301740Z 20019G26KT 5SM -RA BR BKN011 OVC014 08/07 A2966 870 96 200 200/19G26 RMK AO2 PK WND 19026/1737 RAB30 CIG 007V012 P0000
14840KMKG MKG20011130124515611/30/01 12:45:31  5-MIN KMKG 301745Z 20018G26KT 4SM -RA BR BKN011 OVC014 08/07 A2966 870 96 300 200/18G26 RMK AO2 PK WND 19026/1742 RAB30 CIG 007V012 P0000
14840KMKG MKG20011130125019711/30/01 12:50:31  5-MIN KMKG 301750Z 19020G26KT 3SM -RA BR BKN009 OVC016 08/07 A2966 870 96 300 190/20G26 RMK AO2 PK WND 19026/1750 RAB30 CIG 007V012 SLP047 P0000 60002 T00780072 10083 20050 51004
14840KMKG MKG20011130125519711/30/01 12:55:31  5-MIN KMKG 301755Z 20020G26KT 3SM -RA BR BKN009 OVC016 08/07 A2966 870 96 200 200/20G26 RMK AO2 PK WND 19026/1750 RAB30 CIG 007V012 SLP048 P0000 60002 T00780072 10083 20050 51006
14840KMKG MKG20011130130013511/30/01 13:00:31  5-MIN KMKG 301800Z 19016G24KT 4SM -RA BR SCT009 OVC016 08/07 A2966 870 96 300 200/16G24 RMK AO2 CIG 009 RWY 14 P0000
14840KMKG MKG20011130130513211/30/01 13:05:31  5-MIN KMKG 301805Z 18016G22KT 4SM -RA BR BKN009 OVC014 08/07 A2965 880 96 300 190/16G22 RMK AO2 CIG 006V010 P0000
14840KMKG MKG20011130131013211/30/01 13:10:31  5-MIN KMKG 301810Z 20016G24KT 4SM -RA BR BKN009 OVC016 08/07 A2965 880 96 300 200/16G24 RMK AO2 CIG 006V012 P0000
14840KMKG MKG20011130131513211/30/01 13:15:31  5-MIN KMKG 301815Z 20015G24KT 4SM -RA BR BKN009 OVC016 08/07 A2966 880 96 300 200/15G24 RMK AO2 CIG 006V012 P0000
14840KMKG MKG20011130132013211/30/01 13:20:31  5-MIN KMKG 301820Z 19016G22KT 4SM -RA BR BKN009 OVC013 08/07 A2965 880 96 300 190/16G22 RMK AO2 CIG 006V010 P0000
14840KMKG MKG20011130132513311/30/01 13:25:31  5-MIN KMKG 301825Z 18017G20KT 3SM -RA BR BKN009 OVC013 07/07 A2965 880 100 200 180/17G20 RMK AO2 CIG 006V011 P0000
14840KMKG MKG20011130133013211/30/01 13:30:31  5-MIN KMKG 301830Z 19015G20KT 4SM -RA BR BKN009 OVC013 08/07 A2965 880 96 300 190/15G20 RMK AO2 CIG 006V011 P0000
14840KMKG MKG20011130133512911/30/01 13:35:31  5-MIN KMKG 301835Z 18013G19KT 8SM -RA BKN007 OVC013 08/07 A2965 880 96 300 190/13G19 RMK AO2 CIG 006V012 P0000
14840KMKG MKG20011130134013211/30/01 13:40:31  5-MIN KMKG 301840Z 20015G21KT 10SM BKN007 OVC013 08/07 A2965 880 96 300 200/15G21 RMK AO2 RAE37 CIG 006V011 P0000
14840KMKG MKG20011130134513111/30/01 13:45:31  5-MIN KMKG 301845Z 18017G21KT 8SM BKN009 OVC013 08/07 A2964 890 93 300 190/17G21 RMK AO2 RAE37 CIG 006V010 P0000
14840KMKG MKG20011130135014411/30/01 13:50:31  5-MIN KMKG 301850Z 18013G21KT 5SM BR OVC009 08/07 A2964 890 93 300 190/13G21 RMK AO2 RAE37 CIG 006V013 SLP039 P0000 T00780067
14840KMKG MKG20011130135514411/30/01 13:55:31  5-MIN KMKG 301855Z 18016G21KT 5SM BR OVC009 08/07 A2964 890 93 300 190/16G21 RMK AO2 RAE37 CIG 006V013 SLP039 P0000 T00780067
14840KMKG MKG20011130140011511/30/01 14:00:31  5-MIN KMKG 301900Z 17013G21KT 6SM BR OVC009 08/07 A2963 900 96 300 180/13G21 RMK AO2 CIG 007V013
14840KMKG MKG20011130140511911/30/01 14:05:31  5-MIN KMKG 301905Z 18015G20KT 8SM BKN009 OVC012 08/07 A2963 900 96 300 180/15G20 RMK AO2 CIG 007V011
14840KMKG MKG20011130141012011/30/01 14:10:31  5-MIN KMKG 301910Z 18015G20KT 10SM BKN009 OVC012 08/07 A2963 900 96 300 180/15G20 RMK AO2 CIG 007V012
14840KMKG MKG20011130141511411/30/01 14:15:31  5-MIN KMKG 301915Z 19012KT 10SM BKN009 OVC014 08/07 A2964 890 96 300 190/12 RMK AO2 CIG 007V011
14840KMKG MKG20011130142011411/30/01 14:20:31  5-MIN KMKG 301920Z 19013KT 10SM BKN007 OVC014 08/07 A2965 880 96 300 190/13 RMK AO2 CIG 006V011
14840KMKG MKG20011130142511411/30/01 14:25:31  5-MIN KMKG 301925Z 19013KT 10SM BKN007 OVC014 08/07 A2965 880 96 300 200/13 RMK AO2 CIG 006V012
14840KMKG MKG20011130143012011/30/01 14:30:31  5-MIN KMKG 301930Z 19016G21KT 10SM BKN007 OVC014 08/07 A2965 880 96 300 200/16G21 RMK AO2 CIG 006V011
14840KMKG MKG20011130143512011/30/01 14:35:31  5-MIN KMKG 301935Z 19014G21KT 10SM BKN007 OVC014 08/07 A2965 880 96 300 190/14G21 RMK AO2 CIG 006V012
14840KMKG MKG20011130144011311/30/01 14:40:31  5-MIN KMKG 301940Z 19012G19KT 10SM OVC007 08/07 A2965 880 96 300 190/12G19 RMK AO2 CIG 006V012
14840KMKG MKG20011130144510711/30/01 14:45:31  5-MIN KMKG 301945Z 19012KT 10SM OVC007 08/07 A2965 880 96 300 190/12 RMK AO2 CIG 006V012
14840KMKG MKG20011130145012911/30/01 14:50:31  5-MIN KMKG 301950Z 18016G21KT 9SM OVC007 08/07 A2964 890 96 300 180/16G21 RMK AO2 CIG 006V012 SLP041 T00780072
14840KMKG MKG20011130145512911/30/01 14:55:31  5-MIN KMKG 301955Z 18010G21KT 8SM OVC007 08/07 A2964 890 96 300 190/10G21 RMK AO2 CIG 006V012 SLP041 T00780072
14840KMKG MKG20011130150010011/30/01 15:00:31  5-MIN KMKG 302000Z 18011G21KT 7SM OVC007 08/07 A2964 890 96 300 180/11G21 RMK AO2
14840KMKG MKG20011130150510911/30/01 15:05:31  5-MIN KMKG 302005Z 19013KT 4SM BR OVC007 08/07 A2965 880 96 300 190/13 RMK AO2 CIG 005V011
14840KMKG MKG20011130151013311/30/01 15:10:31  5-MIN KMKG 302010Z 19016G23KT 2 1/2SM -RA BR OVC007 08/07 A2966 880 96 300 190/16G23 RMK AO2 SFC VIS 3 RAB06 P0000
14840KMKG MKG20011130151514511/30/01 15:15:31  5-MIN KMKG 302015Z 19011G23KT 1 1/2SM -RA BR OVC007 08/07 A2965 880 96 300 190/11G23 RMK AO2 SFC VIS 2 RAB06 CIG 005V008 P0000
14840KMKG MKG20011130152013211/30/01 15:20:31  5-MIN KMKG 302020Z 18012KT 1 1/2SM -RA BR OVC007 08/08 A2965 880 100 300 190/12 RMK AO2 SFC VIS 1 3/4 RAB06 P0000
14840KMKG MKG20011130152513611/30/01 15:25:31  5-MIN KMKG 302025Z 19012G19KT 1 1/2SM -RA BR OVC005 08/08 A2965 880 100 300 190/12G19 RMK AO2 RAB06 CIG 004V009 P0000
14840KMKG MKG20011130153015011/30/01 15:30:31  5-MIN KMKG 302030Z 19012G19KT 1 1/2SM -RA BR OVC005 08/08 A2965 880 100 300 190/12G19 RMK AO2 SFC VIS 1 3/4 RAB06 CIG 003V009 P0000
14840KMKG MKG20011130153514411/30/01 15:35:31  5-MIN KMKG 302035Z 19011KT 1 1/2SM -RA BR OVC005 08/08 A2966 870 100 300 190/11 RMK AO2 SFC VIS 1 3/4 RAB06 CIG 003V009 P0000
14840KMKG MKG20011130154013211/30/01 15:40:31  5-MIN KMKG 302040Z 18011KT 1 1/2SM -RA BR OVC005 08/08 A2965 880 100 300 190/11 RMK AO2 SFC VIS 1 3/4 RAB06 P0000
14840KMKG MKG20011130154513811/30/01 15:45:31  5-MIN KMKG 302045Z 19012G17KT 1 1/2SM -RA BR OVC005 08/08 A2965 880 100 300 190/12G17 RMK AO2 SFC VIS 1 3/4 RAB06 P0001
14840KMKG MKG20011130155016711/30/01 15:50:31  5-MIN KMKG 302050Z 21012G17KT 1 1/2SM -RA BR OVC005 08/08 A2966 870 100 300 210/12G17 RMK AO2 SFC VIS 1 3/4 RAB06 SLP046 P0001 60001 T00780078 51006
14840KMKG MKG20011130155514711/30/01 15:55:31  5-MIN KMKG 302055Z 21011KT 1 3/4SM -RA BR OVC005 08/08 A2966 870 100 300 220/11 RMK AO2 RAB06 SLP046 P0001 60001 T00830083 55002
14840KMKG MKG20011130160013311/30/01 16:00:31  5-MIN KMKG 302100Z 22015KT 1 3/4SM -RA BR OVC005 08/08 A2966 880 96 300 220/15 RMK AO2 SFC VIS 2 CIG 003V007 P0000
14840KMKG MKG20011130160514011/30/01 16:05:31  5-MIN KMKG 302105Z 21013KT 1 3/4SM -RA BR BKN005 OVC010 08/08 A2966 880 96 300 220/13 RMK AO2 SFC VIS 4 CIG 003V007 P0001
14840KMKG MKG20011130161014011/30/01 16:10:31  5-MIN KMKG 302110Z 22013KT 1 3/4SM -RA BR BKN005 OVC012 08/08 A2966 870 96 300 220/13 RMK AO2 SFC VIS 6 CIG 003V009 P0001
14840KMKG MKG20011130161515011/30/01 16:15:31  5-MIN KMKG 302115Z 22014KT 1 3/4SM -RA BR SCT005 BKN010 OVC014 08/08 A2966 870 96 300 220/14 RMK AO2 SFC VIS 6 CIG 006 RWY 14 P0001
14840KMKG MKG20011130162014011/30/01 16:20:31  5-MIN KMKG 302120Z 23011KT 1 3/4SM -RA BR BKN007 OVC014 08/08 A2966 870 96 300 230/11 RMK AO2 SFC VIS 4 CIG 003V011 P0001
14840KMKG MKG20011130162514011/30/01 16:25:31  5-MIN KMKG 302125Z 22013KT 1 3/4SM -RA BR BKN007 OVC014 08/08 A2966 870 96 300 230/13 RMK AO2 SFC VIS 5 CIG 005V010 P0001
14840KMKG MKG20011130163014211/30/01 16:30:31  5-MIN KMKG 302130Z 22010KT 1 3/4SM BR BKN007 OVC014 08/08 A2966 870 96 300 220/10 RMK AO2 SFC VIS 6 RAE26 CIG 006V011 P0001
14840KMKG MKG20011130163513111/30/01 16:35:31  5-MIN KMKG 302135Z 22012G17KT 8SM BKN007 OVC014 08/08 A2966 870 96 300 220/12G17 RMK AO2 RAE26 CIG 006V010 P0001
14840KMKG MKG20011130164012711/30/01 16:40:31  5-MIN KMKG 302140Z 22012KT 10SM BKN007 OVC014 08/08 A2966 870 100 200 230/12 RMK AO2 RAE26 CIG 006V010 P0001
14840KMKG MKG20011130164512611/30/01 16:45:31  5-MIN KMKG 302145Z 22013KT 10SM BKN007 OVC014 08/08 A2967 870 96 300 230/13 RMK AO2 RAE26 CIG 006V010 P0001
14840KMKG MKG20011130165014311/30/01 16:50:31  5-MIN KMKG 302150Z 22014G18KT 10SM OVC007 08/08 A2967 860 100 200 220/14G18 RMK AO2 RAE26 CIG 006V013 SLP050 P0001 T00780078
14840KMKG MKG20011130165514211/30/01 16:55:31  5-MIN KMKG 302155Z 22015G20KT 10SM OVC007 08/08 A2967 860 96 300 220/15G20 RMK AO2 RAE26 CIG 006V012 SLP051 P0001 T00830078
14840KMKG MKG20011130170011311/30/01 17:00:31  5-MIN KMKG 302200Z 22013G22KT 10SM OVC007 08/07 A2968 850 96 200 230/13G22 RMK AO2 CIG 006V011
14840KMKG MKG20011130170510211/30/01 17:05:31  5-MIN KMKG 302205Z 23013G22KT 10SM OVC007 08/08 A2968 850 100 200 240/13G22 RMK AO2
14840KMKG MKG20011130171010711/30/01 17:10:31  5-MIN KMKG 302210Z 23013KT 10SM OVC005 08/07 A2968 850 96 200 230/13 RMK AO2 CIG 004V008
14840KMKG MKG20011130171511311/30/01 17:15:31  5-MIN KMKG 302215Z 23011G17KT 10SM OVC005 08/07 A2969 850 96 200 230/11G17 RMK AO2 CIG 004V011
14840KMKG MKG20011130172011311/30/01 17:20:31  5-MIN KMKG 302220Z 23014G17KT 10SM OVC007 08/07 A2969 840 96 200 240/14G17 RMK AO2 CIG 004V010
14840KMKG MKG20011130172511411/30/01 17:25:31  5-MIN KMKG 302225Z 23012KT 10SM BKN007 OVC011 08/07 A2970 840 96 200 240/12 RMK AO2 CIG 004V010
14840KMKG MKG20011130173012011/30/01 17:30:31  5-MIN KMKG 302230Z 24013G19KT 10SM BKN007 OVC011 08/07 A2970 830 96 200 240/13G19 RMK AO2 CIG 004V010
14840KMKG MKG20011130173512011/30/01 17:35:31  5-MIN KMKG 302235Z 24017G21KT 10SM BKN007 OVC011 08/07 A2970 830 93 200 240/17G21 RMK AO2 CIG 004V009
14840KMKG MKG20011130174011311/30/01 17:40:31  5-MIN KMKG 302240Z 24014G21KT 10SM OVC009 07/07 A2971 830 96 100 250/14G21 RMK AO2 CIG 004V012
14840KMKG MKG20011130174510711/30/01 17:45:31  5-MIN KMKG 302245Z 25015KT 10SM OVC009 07/07 A2971 820 96 100 250/15 RMK AO2 CIG 006V012
14840KMKG MKG20011130175013011/30/01 17:50:31  5-MIN KMKG 302250Z 24013G20KT 10SM OVC009 07/07 A2972 820 96 100 250/13G20 RMK AO2 CIG 006V012 SLP066 T00720067
14840KMKG MKG20011130175513011/30/01 17:55:31  5-MIN KMKG 302255Z 25013G20KT 10SM OVC009 07/07 A2972 820 96 100 250/13G20 RMK AO2 CIG 006V012 SLP068 T00720067
14840KMKG MKG20011130180011311/30/01 18:00:31  5-MIN KMKG 302300Z 24016G21KT 10SM OVC009 07/07 A2972 820 96 100 240/16G21 RMK AO2 CIG 006V011
14840KMKG MKG20011130180512911/30/01 18:05:31  5-MIN KMKG 302305Z 25013G21KT 10SM -RA OVC009 07/06 A2972 810 93 100 250/13G21 RMK AO2 RAB04 CIG 006V011 P0000
14840KMKG MKG20011130181012811/30/01 18:10:31  5-MIN KMKG 302310Z 24013G20KT 9SM -RA OVC009 07/07 A2972 810 96 100 250/13G20 RMK AO2 RAB04 CIG 006V011 P0000
14840KMKG MKG20011130181512811/30/01 18:15:31  5-MIN KMKG 302315Z 24012G20KT 9SM -RA OVC009 07/07 A2972 810 96 100 240/12G20 RMK AO2 RAB04 CIG 006V011 P0000
14840KMKG MKG20011130182012211/30/01 18:20:31  5-MIN KMKG 302320Z 24013KT 10SM OVC009 07/07 A2973 810 96 100 240/13 RMK AO2 RAB04E20 CIG 007V013 P0000
14840KMKG MKG20011130182512811/30/01 18:25:31  5-MIN KMKG 302325Z 24014G21KT 9SM -RA OVC009 07/06 A2973 810 93 100 240/14G21 RMK AO2 RAB04 CIG 007V012 P0000
14840KMKG MKG20011130183012911/30/01 18:30:31  5-MIN KMKG 302330Z 24011G21KT 10SM -RA OVC009 07/07 A2973 810 96 100 240/11G21 RMK AO2 RAB04 CIG 007V014 P0000
14840KMKG MKG20011130183511711/30/01 18:35:31  5-MIN KMKG 302335Z 24012G19KT 10SM -RA OVC011 07/06 A2973 810 93 100 240/12G19 RMK AO2 RAB04 P0000
14840KMKG MKG20011130184011611/30/01 18:40:31  5-MIN KMKG 302340Z 24013G19KT 10SM OVC011 07/06 A2973 810 93 100 250/13G19 RMK AO2 RAB04E36 P0000
14840KMKG MKG20011130184512811/30/01 18:45:31  5-MIN KMKG 302345Z 24012G18KT 10SM OVC011 07/06 A2973 810 93 100 240/12G18 RMK AO2 RAB04E36 CIG 009V015 P0000
14840KMKG MKG20011130185015711/30/01 18:50:31  5-MIN KMKG 302350Z 24013G17KT 10SM OVC011 07/06 A2973 810 93 100 240/13G17 RMK AO2 RAB04E36 SLP072 P0000 60002 T00720061 10083 20072 55002
14840KMKG MKG20011130185515711/30/01 18:55:31  5-MIN KMKG 302355Z 23013G18KT 10SM OVC011 07/06 A2973 810 93 100 230/13G18 RMK AO2 RAB04E36 SLP071 P0000 60002 T00720061 10083 20072 51024
14840KMKG MKG20011130190010111/30/01 19:00:31  5-MIN KMKG 010000Z 23014G19KT 10SM OVC013 07/06 A2973 810 93 100 240/14G19 RMK AO2
14840KMKG MKG20011130190510111/30/01 19:05:31  5-MIN KMKG 010005Z 22014G19KT 10SM OVC013 07/06 A2973 800 93 100 230/14G19 RMK AO2
14840KMKG MKG20011130191010111/30/01 19:10:31  5-MIN KMKG 010010Z 23013G18KT 10SM OVC013 07/06 A2973 800 93 100 230/13G18 RMK AO2
14840KMKG MKG20011130191510111/30/01 19:15:31  5-MIN KMKG 010015Z 24016G23KT 10SM OVC013 07/06 A2973 800 93 100 240/16G23 RMK AO2
14840KMKG MKG20011130192010111/30/01 19:20:31  5-MIN KMKG 010020Z 25014G23KT 10SM OVC015 07/06 A2974 800 89 100 250/14G23 RMK AO2
14840KMKG MKG20011130192510111/30/01 19:25:31  5-MIN KMKG 010025Z 23014G19KT 10SM OVC015 07/06 A2974 800 89 100 240/14G19 RMK AO2
14840KMKG MKG20011130193009511/30/01 19:30:31  5-MIN KMKG 010030Z 23014KT 10SM OVC013 07/06 A2974 800 89 100 230/14 RMK AO2
14840KMKG MKG20011130193510111/30/01 19:35:31  5-MIN KMKG 010035Z 23015G21KT 10SM OVC013 07/06 A2974 800 89 100 230/15G21 RMK AO2
14840KMKG MKG20011130194010111/30/01 19:40:31  5-MIN KMKG 010040Z 23014G21KT 10SM OVC013 07/06 A2974 790 89 100 230/14G21 RMK AO2
14840KMKG MKG20011130194509511/30/01 19:45:31  5-MIN KMKG 010045Z 24012KT 10SM OVC013 07/06 A2975 790 89 100 250/12 RMK AO2
14840KMKG MKG20011130195011211/30/01 19:50:31  5-MIN KMKG 010050Z 23013KT 10SM OVC013 07/06 A2974 790 89 100 240/13 RMK AO2 SLP075 T00720056
14840KMKG MKG20011130195511811/30/01 19:55:31  5-MIN KMKG 010055Z 23014G20KT 10SM OVC015 07/06 A2974 790 89 100 230/14G20 RMK AO2 SLP075 T00720056
14840KMKG MKG20011130200010111/30/01 20:00:31  5-MIN KMKG 010100Z 23014G20KT 10SM OVC015 07/06 A2974 790 89 100 240/14G20 RMK AO2
14840KMKG MKG20011130200510111/30/01 20:05:31  5-MIN KMKG 010105Z 25013G19KT 10SM OVC017 07/06 A2974 790 89 100 250/13G19 RMK AO2
14840KMKG MKG20011130201010111/30/01 20:10:31  5-MIN KMKG 010110Z 23013G18KT 10SM OVC017 07/06 A2975 790 89 100 230/13G18 RMK AO2
14840KMKG MKG20011130201510111/30/01 20:15:31  5-MIN KMKG 010115Z 23015G19KT 10SM OVC017 07/06 A2975 790 89 100 240/15G19 RMK AO2
14840KMKG MKG20011130202009511/30/01 20:20:31  5-MIN KMKG 010120Z 24013KT 10SM OVC017 07/06 A2975 790 89 100 240/13 RMK AO2
14840KMKG MKG20011130202510211/30/01 20:25:31  5-MIN KMKG 010125Z 23012KT 10SM BKN017 OVC023 07/06 A2975 790 89 100 230/12 RMK AO2
14840KMKG MKG20011130203011511/30/01 20:30:31  5-MIN KMKG 010130Z 23012G18KT 10SM SCT015 BKN020 OVC024 07/06 A2975 790 89 100 230/12G18 RMK AO2
14840KMKG MKG20011130203510211/30/01 20:35:31  5-MIN KMKG 010135Z 23013KT 10SM BKN018 OVC023 07/06 A2975 790 89 100 230/13 RMK AO2
14840KMKG MKG20011130204010811/30/01 20:40:31  5-MIN KMKG 010140Z 22014G20KT 10SM BKN015 OVC021 07/06 A2975 790 93 100 230/14G20 RMK AO2
14840KMKG MKG20011130204510811/30/01 20:45:31  5-MIN KMKG 010145Z 23015G20KT 10SM BKN017 OVC024 07/06 A2975 790 89 100 230/15G20 RMK AO2
14840KMKG MKG20011130205011811/30/01 20:50:31  5-MIN KMKG 010150Z 23014G21KT 10SM OVC017 07/06 A2975 790 89 100 230/14G21 RMK AO2 SLP078 T00720056
14840KMKG MKG20011130205512511/30/01 20:55:31  5-MIN KMKG 010155Z 22014G21KT 10SM BKN017 OVC021 08/06 A2976 780 86 100 230/14G21 RMK AO2 SLP079 T00780056
14840KMKG MKG20011130210010211/30/01 21:00:31  5-MIN KMKG 010200Z 23013KT 10SM BKN017 OVC022 08/06 A2976 780 86 100 240/13 RMK AO2
14840KMKG MKG20011130210510211/30/01 21:05:31  5-MIN KMKG 010205Z 23012KT 10SM BKN017 OVC026 07/06 A2976 780 89 100 240/12 RMK AO2
14840KMKG MKG20011130211010811/30/01 21:10:31  5-MIN KMKG 010210Z 23016G20KT 10SM BKN015 OVC024 08/06 A2976 780 86 100 240/16G20 RMK AO2
14840KMKG MKG20011130211511711/30/01 21:15:31  5-MIN KMKG 010215Z 23015KT 10SM SCT017 OVC024 08/06 A2976 780 86 100 230/15 RMK AO2 CIG 019 RWY 14
14840KMKG MKG20011130212010811/30/01 21:20:31  5-MIN KMKG 010220Z 24012G20KT 10SM SCT017 OVC024 08/06 A2976 780 86 100 240/12G20 RMK AO2
14840KMKG MKG20011130212511411/30/01 21:25:31  5-MIN KMKG 010225Z 23018G25KT 9SM FEW012 BKN017 OVC024 08/06 A2977 770 86 100 230/18G25 RMK AO2
14840KMKG MKG20011130213013011/30/01 21:30:31  5-MIN KMKG 010230Z 22017G25KT 8SM -RA FEW012 BKN017 OVC024 07/06 A2977 770 93 100 220/17G25 RMK AO2 RAB26 P0000
14840KMKG MKG20011130213512711/30/01 21:35:31  5-MIN KMKG 010235Z 22016KT 6SM -RA BR BKN012 BKN019 OVC024 07/06 A2977 770 93 100 230/16 RMK AO2 RAB26 P0000
14840KMKG MKG20011130214014411/30/01 21:40:31  5-MIN KMKG 010240Z 22019G26KT 6SM -RA BR BKN012 OVC017 07/06 A2977 770 93 100 230/19G26 RMK AO2 PK WND 23026/0240 RAB26 P0000
14840KMKG MKG20011130214514411/30/01 21:45:31  5-MIN KMKG 010245Z 23015G26KT 5SM -RA BR BKN014 OVC024 07/06 A2977 770 93 100 230/15G26 RMK AO2 PK WND 23026/0240 RAB26 P0000
14840KMKG MKG20011130215016411/30/01 21:50:31  5-MIN KMKG 010250Z 22017G23KT 5SM -RA BR OVC012 07/06 A2977 770 96 0 220/17G23 RMK AO2 PK WND 23026/0240 RAB26 SLP085 P0000 60000 T00670061 51024
14840KMKG MKG20011130215516311/30/01 21:55:31  5-MIN KMKG 010255Z 22016G26KT 8SM -RA OVC012 07/06 A2978 760 93 100 230/16G26 RMK AO2 PK WND 23026/0252 RAB26 SLP086 P0000 60000 T00720061 53016
14840KMKG MKG20011130220011311/30/01 22:00:31  5-MIN KMKG 010300Z 23019G26KT 10SM OVC012 07/06 A2977 770 93 100 230/19G26 RMK AO2 RAE00 P0000
14840KMKG MKG20011130220511311/30/01 22:05:31  5-MIN KMKG 010305Z 23014G23KT 10SM OVC012 07/06 A2978 760 93 100 240/14G23 RMK AO2 RAE00 P0000
14840KMKG MKG20011130221011111/30/01 22:10:31  5-MIN KMKG 010310Z 22019G23KT 10SM OVC012 07/06 A2978 760 89 0 230/19G23 RMK AO2 RAE00 P0000
14840KMKG MKG20011130221511111/30/01 22:15:31  5-MIN KMKG 010315Z 23017G24KT 10SM OVC012 07/06 A2978 760 89 0 230/17G24 RMK AO2 RAE00 P0000
14840KMKG MKG20011130222011111/30/01 22:20:31  5-MIN KMKG 010320Z 23014G24KT 10SM OVC012 07/06 A2978 760 93 0 230/14G24 RMK AO2 RAE00 P0000
14840KMKG MKG20011130222511111/30/01 22:25:31  5-MIN KMKG 010325Z 23015G21KT 10SM OVC012 07/06 A2978 760 89 0 240/15G21 RMK AO2 RAE00 P0000
14840KMKG MKG20011130223011111/30/01 22:30:31  5-MIN KMKG 010330Z 23016G21KT 10SM OVC012 07/06 A2979 750 89 0 230/16G21 RMK AO2 RAE00 P0000
14840KMKG MKG20011130223511111/30/01 22:35:31  5-MIN KMKG 010335Z 22020G23KT 10SM OVC012 07/06 A2979 760 89 0 230/20G23 RMK AO2 RAE00 P0000
14840KMKG MKG20011130224011111/30/01 22:40:31  5-MIN KMKG 010340Z 22019G24KT 10SM OVC012 07/06 A2979 750 93 0 230/19G24 RMK AO2 RAE00 P0000
14840KMKG MKG20011130224511111/30/01 22:45:31  5-MIN KMKG 010345Z 23014G24KT 10SM OVC012 07/06 A2979 760 93 0 230/14G24 RMK AO2 RAE00 P0000
14840KMKG MKG20011130225013411/30/01 22:50:31  5-MIN KMKG 010350Z 22017G23KT 9SM -RA OVC012 07/06 A2979 750 93 0 220/17G23 RMK AO2 RAE00B46 SLP090 P0000 T00670056
14840KMKG MKG20011130225513411/30/01 22:55:31  5-MIN KMKG 010355Z 22021G25KT 8SM -RA OVC012 07/06 A2978 760 93 0 230/21G25 RMK AO2 RAE00B46 SLP088 P0000 T00670056
14840KMKG MKG20011130230010811/30/01 23:00:31  5-MIN KMKG 010400Z 22016G25KT 9SM -RA OVC012 07/06 A2979 750 93 0 220/16G25 RMK AO2 P0000
14840KMKG MKG20011130230510911/30/01 23:05:31  5-MIN KMKG 010405Z 23016G22KT 10SM -RA OVC012 07/06 A2979 750 93 0 230/16G22 RMK AO2 P0000
14840KMKG MKG20011130231012911/30/01 23:10:31  5-MIN KMKG 010410Z 23015G28KT 10SM OVC012 07/06 A2978 760 93 0 230/15G28 RMK AO2 PK WND 22028/0406 RAE06 P0000
14840KMKG MKG20011130231512911/30/01 23:15:31  5-MIN KMKG 010415Z 23017G28KT 10SM OVC012 07/06 A2979 760 93 0 230/17G28 RMK AO2 PK WND 22028/0406 RAE06 P0000
14840KMKG MKG20011130232012911/30/01 23:20:31  5-MIN KMKG 010420Z 22017G24KT 10SM OVC012 07/06 A2979 750 93 0 220/17G24 RMK AO2 PK WND 22028/0406 RAE06 P0000
14840KMKG MKG20011130232512911/30/01 23:25:31  5-MIN KMKG 010425Z 22019G24KT 10SM OVC012 07/06 A2979 750 93 0 230/19G24 RMK AO2 PK WND 22028/0406 RAE06 P0000
14840KMKG MKG20011130233012911/30/01 23:30:31  5-MIN KMKG 010430Z 22019G24KT 10SM OVC012 07/06 A2979 760 93 0 230/19G24 RMK AO2 PK WND 22028/0406 RAE06 P0000
14840KMKG MKG20011130233512811/30/01 23:35:31  5-MIN KMKG 010435Z 23016G22KT 8SM OVC014 07/06 A2979 750 93 0 230/16G22 RMK AO2 PK WND 22028/0406 RAE06 P0000
14840KMKG MKG20011130234014511/30/01 23:40:31  5-MIN KMKG 010440Z 23019G26KT 6SM -RA BR BKN014 OVC018 07/06 A2979 750 93 0 230/19G26 RMK AO2 PK WND 22028/0406 RAE06B38 P0000
14840KMKG MKG20011130234514511/30/01 23:45:31  5-MIN KMKG 010445Z 22014G26KT 6SM -RA BR BKN014 OVC018 07/06 A2979 750 93 0 230/14G26 RMK AO2 PK WND 22028/0406 RAE06B38 P0000
14840KMKG MKG20011130235017211/30/01 23:50:31  5-MIN KMKG 010450Z 23017G22KT 5SM -RA BR BKN013 OVC018 07/06 A2979 750 93 0 230/17G22 RMK AO2 PK WND 22028/0406 RAE06B38 SLP090 P0000 T00670056 400830050
14840KMKG MKG20011130235517211/30/01 23:55:31  5-MIN KMKG 010455Z 24016G22KT 6SM -RA BR BKN013 OVC018 07/06 A2979 750 93 0 240/16G22 RMK AO2 PK WND 22028/0406 RAE06B38 SLP091 P0000 T00670056 400830050
