14840KMKG MKG20070501000014605/01/07 00:00:35  5-MIN KMKG 010500Z 09009KT 10SM -TSRA SCT024 BKN110 11/09 A2991 640 89 400 090/09 RMK AO2 PRESRR OCNL LTGICCC TS SE MOV W P0000
14840KMKG MKG20070501000514605/01/07 00:05:31  5-MIN KMKG 010505Z 04008KT 10SM -TSRA FEW022 BKN110 11/09 A2992 630 89 400 040/08 RMK AO2 PRESRR OCNL LTGICCC TS SE MOV W P0000
14840KMKG MKG20070501001011205/01/07 00:10:31  5-MIN KMKG 010510Z 06010KT 10SM -RA SCT060 BKN110 11/09 A2991 640 89 400 060/10 RMK AO2 P0000
14840KMKG MKG20070501001512705/01/07 00:15:31  5-MIN KMKG 010515Z 07006KT 10SM -RA SCT065 BKN110 11/09 A2992 630 89 400 070/06 RMK AO2 RAE08B10 TSE09 P0000
14840KMKG MKG20070501002014205/01/07 00:20:31  5-MIN KMKG 010520Z 07007KT 10SM -RA SCT080 BKN110 11/09 A2992 630 89 400 070/07 RMK AO2 CIG 085 RWY 14 RAE08B10 TSE09 P0000
14840KMKG MKG20070501002512705/01/07 00:25:31  5-MIN KMKG 010525Z 09008KT 10SM -RA BKN100 BKN110 11/09 A2991 640 89 400 090/08 RMK AO2 RAE08B10 TSE09 P0000
14840KMKG MKG20070501003014205/01/07 00:30:31  5-MIN KMKG 010530Z 08007KT 10SM -RA SCT100 BKN120 11/09 A2991 640 89 400 080/07 RMK AO2 CIG 100 RWY 14 RAE08B10 TSE09 P0000
14840KMKG MKG20070501003512705/01/07 00:35:31  5-MIN KMKG 010535Z 08008KT 10SM -RA SCT090 BKN110 11/09 A2992 630 89 400 090/08 RMK AO2 RAE08B10 TSE09 P0000
14840KMKG MKG20070501004011605/01/07 00:40:31  5-MIN KMKG 010540Z 08006KT 10SM BKN110 11/09 A2993 620 89 300 080/06 RMK AO2 RAE08B10 TSE09 P0000
14840KMKG MKG20070501004512305/01/07 00:45:31  5-MIN KMKG 010545Z 07006KT 10SM OVC110 11/09 A2993 620 89 300 080/06 RMK AO2 PRESRR RAE08B10 TSE09 P0000
14840KMKG MKG20070501005015905/01/07 00:50:31  5-MIN KMKG 010550Z 07006KT 10SM OVC110 11/09 A2993 620 89 300 070/06 RMK AO2 SLP136 RAE08B1036 TSE09 P0000 60033 T01110094 10122 20111 55008
14840KMKG MKG20070501005516805/01/07 00:55:31  5-MIN KMKG 010555Z 07007KT 10SM -RA FEW070 OVC110 11/09 A2993 620 89 300 080/07 RMK AO2 SLP135 RAE08B36 TSE09 P0000 60033 T01110094 10122 20111 55008
14840KMKG MKG20070501010011205/01/07 01:00:31  5-MIN KMKG 010600Z 08007KT 10SM -RA SCT050 OVC110 11/09 A2992 630 89 400 080/07 RMK AO2 P0001
14840KMKG MKG20070501010511105/01/07 01:05:31  5-MIN KMKG 010605Z 09006KT 7SM -RA SCT044 OVC100 11/09 A2992 630 89 400 090/06 RMK AO2 P0001
14840KMKG MKG20070501011011105/01/07 01:10:31  5-MIN KMKG 010610Z 09006KT 7SM -RA BKN038 OVC110 11/09 A2992 630 89 400 090/06 RMK AO2 P0002
14840KMKG MKG20070501011511105/01/07 01:15:31  5-MIN KMKG 010615Z 09006KT 7SM -RA BKN032 OVC100 11/09 A2991 640 89 400 090/06 RMK AO2 P0003
14840KMKG MKG20070501012011105/01/07 01:20:31  5-MIN KMKG 010620Z 08006KT 7SM -RA BKN032 OVC100 11/09 A2992 630 89 400 090/06 RMK AO2 P0004
14840KMKG MKG20070501012511105/01/07 01:25:31  5-MIN KMKG 010625Z 09006KT 8SM -RA BKN032 OVC100 11/09 A2991 640 89 400 090/06 RMK AO2 P0004
14840KMKG MKG20070501013011205/01/07 01:30:31  5-MIN KMKG 010630Z 08005KT 10SM -RA BKN028 OVC100 11/09 A2991 640 89 400 090/05 RMK AO2 P0004
14840KMKG MKG20070501013511205/01/07 01:35:31  5-MIN KMKG 010635Z 07005KT 10SM -RA SCT026 OVC100 11/09 A2992 630 89 400 070/05 RMK AO2 P0004
14840KMKG MKG20070501014011205/01/07 01:40:31  5-MIN KMKG 010640Z 06007KT 10SM -RA SCT024 OVC100 11/09 A2992 630 89 400 070/07 RMK AO2 P0004
14840KMKG MKG20070501014511205/01/07 01:45:31  5-MIN KMKG 010645Z 06007KT 10SM -RA FEW027 OVC100 11/09 A2992 630 89 400 060/07 RMK AO2 P0004
14840KMKG MKG20070501015012905/01/07 01:50:31  5-MIN KMKG 010650Z 04005KT 10SM -RA FEW030 OVC100 11/09 A2993 620 89 300 050/05 RMK AO2 SLP135 P0004 T01110094
14840KMKG MKG20070501015512205/01/07 01:55:31  5-MIN KMKG 010655Z 06005KT 10SM -RA OVC100 11/09 A2992 630 89 400 070/05 RMK AO2 SLP134 P0004 T01110094
14840KMKG MKG20070501020010505/01/07 02:00:31  5-MIN KMKG 010700Z 06006KT 10SM -RA OVC095 11/10 A2992 630 93 400 070/06 RMK AO2 P0000
14840KMKG MKG20070501020511205/01/07 02:05:31  5-MIN KMKG 010705Z 05005KT 10SM -RA FEW060 OVC095 11/10 A2993 620 93 300 050/05 RMK AO2 P0000
14840KMKG MKG20070501021011205/01/07 02:10:31  5-MIN KMKG 010710Z 05004KT 10SM -RA SCT060 OVC095 11/10 A2993 620 93 300 050/04 RMK AO2 P0000
14840KMKG MKG20070501021511205/01/07 02:15:31  5-MIN KMKG 010715Z 02003KT 10SM -RA BKN060 OVC095 11/10 A2994 610 93 300 030/03 RMK AO2 P0000
14840KMKG MKG20070501022011205/01/07 02:20:31  5-MIN KMKG 010720Z 03003KT 10SM -RA BKN055 OVC095 11/10 A2994 610 93 300 040/03 RMK AO2 P0000
14840KMKG MKG20070501022511205/01/07 02:25:31  5-MIN KMKG 010725Z 03004KT 10SM -RA BKN055 OVC100 11/10 A2994 610 93 300 030/04 RMK AO2 P0000
14840KMKG MKG20070501023010505/01/07 02:30:31  5-MIN KMKG 010730Z 02004KT 10SM -RA OVC055 11/09 A2994 610 89 300 030/04 RMK AO2 P0000
14840KMKG MKG20070501023510505/01/07 02:35:31  5-MIN KMKG 010735Z 36004KT 10SM -RA OVC055 11/10 A2995 610 93 300 360/04 RMK AO2 P0000
14840KMKG MKG20070501024010505/01/07 02:40:31  5-MIN KMKG 010740Z 02004KT 10SM -RA OVC055 11/10 A2994 610 93 300 020/04 RMK AO2 P0000
14840KMKG MKG20070501024510405/01/07 02:45:31  5-MIN KMKG 010745Z 05004KT 9SM -RA OVC050 11/10 A2994 610 93 300 060/04 RMK AO2 P0001
14840KMKG MKG20070501025012105/01/07 02:50:31  5-MIN KMKG 010750Z 05004KT 9SM -RA OVC050 11/10 A2994 610 93 300 050/04 RMK AO2 SLP140 P0001 T01110100
14840KMKG MKG20070501025512905/01/07 02:55:31  5-MIN KMKG 010755Z 06004KT 10SM -RA BKN050 OVC055 11/10 A2994 610 93 300 060/04 RMK AO2 SLP139 P0001 T01110100
14840KMKG MKG20070501030010505/01/07 03:00:31  5-MIN KMKG 010800Z 04004KT 10SM -RA OVC048 11/10 A2993 620 93 300 050/04 RMK AO2 P0000
14840KMKG MKG20070501030510505/01/07 03:05:31  5-MIN KMKG 010805Z 07006KT 10SM -RA OVC048 11/10 A2992 630 93 400 080/06 RMK AO2 P0000
14840KMKG MKG20070501031011205/01/07 03:10:31  5-MIN KMKG 010810Z 06006KT 10SM -RA BKN048 OVC085 11/10 A2992 630 93 400 060/06 RMK AO2 P0000
14840KMKG MKG20070501031511805/01/07 03:15:31  5-MIN KMKG 010815Z 09007KT 8SM -RA SCT048 OVC085 11/10 A2991 640 93 400 090/07 RMK AO2 PRESFR P0001
14840KMKG MKG20070501032011805/01/07 03:20:31  5-MIN KMKG 010820Z 09006KT 9SM -RA SCT048 OVC085 11/10 A2990 650 93 400 090/06 RMK AO2 PRESFR P0001
14840KMKG MKG20070501032511205/01/07 03:25:31  5-MIN KMKG 010825Z 08007KT 10SM -RA FEW048 OVC085 11/10 A2990 650 93 400 090/07 RMK AO2 P0001
14840KMKG MKG20070501033011205/01/07 03:30:31  5-MIN KMKG 010830Z 09008KT 10SM -RA FEW048 OVC085 11/10 A2989 650 93 400 100/08 RMK AO2 P0001
14840KMKG MKG20070501033510505/01/07 03:35:31  5-MIN KMKG 010835Z 10007KT 10SM -RA OVC085 11/10 A2989 650 93 400 100/07 RMK AO2 P0001
14840KMKG MKG20070501034010505/01/07 03:40:31  5-MIN KMKG 010840Z 09006KT 10SM -RA OVC085 11/10 A2990 650 93 400 090/06 RMK AO2 P0001
14840KMKG MKG20070501034510505/01/07 03:45:31  5-MIN KMKG 010845Z 06005KT 10SM -RA OVC085 11/10 A2990 650 93 400 070/05 RMK AO2 P0001
14840KMKG MKG20070501035013405/01/07 03:50:31  5-MIN KMKG 010850Z 09005KT 10SM -RA OVC090 11/10 A2990 650 93 400 090/05 RMK AO2 SLP127 P0001 60006 T01110100 55008
14840KMKG MKG20070501035513405/01/07 03:55:31  5-MIN KMKG 010855Z 11004KT 10SM -RA OVC090 11/10 A2990 650 93 400 110/04 RMK AO2 SLP128 P0001 60006 T01110100 58008
14840KMKG MKG20070501040010505/01/07 04:00:31  5-MIN KMKG 010900Z 10006KT 10SM -RA OVC090 11/10 A2989 660 93 400 100/06 RMK AO2 P0000
14840KMKG MKG20070501040510505/01/07 04:05:31  5-MIN KMKG 010905Z 10007KT 10SM -RA OVC095 11/10 A2988 670 93 400 100/07 RMK AO2 P0000
14840KMKG MKG20070501041011105/01/07 04:10:31  5-MIN KMKG 010910Z 11008KT 9SM -RA OVC095 11/10 A2988 670 93 400 110/08 RMK AO2 PRESFR P0000
14840KMKG MKG20070501041510405/01/07 04:15:31  5-MIN KMKG 010915Z 10005KT 9SM -RA OVC100 11/10 A2988 670 93 400 110/05 RMK AO2 P0000
14840KMKG MKG20070501042010405/01/07 04:20:31  5-MIN KMKG 010920Z 12007KT 9SM -RA OVC100 11/10 A2987 680 93 400 130/07 RMK AO2 P0000
14840KMKG MKG20070501042510405/01/07 04:25:31  5-MIN KMKG 010925Z 12007KT 8SM -RA BKN100 11/10 A2987 680 93 400 120/07 RMK AO2 P0000
14840KMKG MKG20070501043010405/01/07 04:30:31  5-MIN KMKG 010930Z 12006KT 8SM -RA BKN100 11/10 A2987 680 93 400 120/06 RMK AO2 P0000
14840KMKG MKG20070501043510405/01/07 04:35:31  5-MIN KMKG 010935Z 12008KT 8SM -RA BKN100 11/10 A2986 680 93 400 130/08 RMK AO2 P0000
14840KMKG MKG20070501044010405/01/07 04:40:31  5-MIN KMKG 010940Z 13009KT 8SM -RA BKN100 11/10 A2986 690 93 400 130/09 RMK AO2 P0000
14840KMKG MKG20070501044510405/01/07 04:45:31  5-MIN KMKG 010945Z 12009KT 9SM -RA BKN100 11/10 A2986 690 93 400 130/09 RMK AO2 P0000
14840KMKG MKG20070501045012205/01/07 04:50:31  5-MIN KMKG 010950Z 12010KT 10SM -RA BKN100 11/10 A2985 690 93 400 130/10 RMK AO2 SLP110 P0000 T01110100
14840KMKG MKG20070501045512205/01/07 04:55:31  5-MIN KMKG 010955Z 12008KT 10SM -RA BKN100 11/10 A2986 690 93 400 130/08 RMK AO2 SLP113 P0000 T01110100
14840KMKG MKG20070501050010505/01/07 05:00:31  5-MIN KMKG 011000Z 12007KT 10SM -RA BKN095 11/10 A2986 690 93 400 120/07 RMK AO2 P0000
14840KMKG MKG20070501050510505/01/07 05:05:31  5-MIN KMKG 011005Z 11008KT 10SM -RA BKN095 11/10 A2986 690 93 400 110/08 RMK AO2 P0000
14840KMKG MKG20070501051010505/01/07 05:10:31  5-MIN KMKG 011010Z 11008KT 10SM -RA SCT095 11/10 A2986 690 93 400 120/08 RMK AO2 P0000
14840KMKG MKG20070501051510505/01/07 05:15:31  5-MIN KMKG 011015Z 11008KT 10SM -RA SCT095 11/10 A2986 690 93 400 120/08 RMK AO2 P0000
14840KMKG MKG20070501052010505/01/07 05:20:31  5-MIN KMKG 011020Z 11004KT 10SM -RA SCT095 11/10 A2987 670 93 400 110/04 RMK AO2 P0000
14840KMKG MKG20070501052510505/01/07 05:25:31  5-MIN KMKG 011025Z 08003KT 10SM -RA BKN090 11/10 A2988 670 93 400 080/03 RMK AO2 P0000
14840KMKG MKG20070501053010505/01/07 05:30:31  5-MIN KMKG 011030Z 09003KT 10SM -RA BKN090 11/10 A2988 670 93 400 090/03 RMK AO2 P0000
14840KMKG MKG20070501053510505/01/07 05:35:31  5-MIN KMKG 011035Z 10005KT 10SM -RA BKN090 11/10 A2988 670 93 400 100/05 RMK AO2 P0000
14840KMKG MKG20070501054010505/01/07 05:40:31  5-MIN KMKG 011040Z 10005KT 10SM -RA BKN090 11/10 A2988 670 93 400 100/05 RMK AO2 P0000
14840KMKG MKG20070501054510405/01/07 05:45:31  5-MIN KMKG 011045Z 07003KT 9SM -RA OVC090 11/10 A2988 670 93 400 080/03 RMK AO2 P0000
14840KMKG MKG20070501055012105/01/07 05:50:31  5-MIN KMKG 011050Z 07003KT 9SM -RA OVC090 11/10 A2988 670 93 400 070/03 RMK AO2 SLP120 P0000 T01110100
14840KMKG MKG20070501055512105/01/07 05:55:31  5-MIN KMKG 011055Z 07005KT 9SM -RA OVC090 11/10 A2988 660 93 400 080/05 RMK AO2 SLP121 P0000 T01110100
14840KMKG MKG20070501060010405/01/07 06:00:31  5-MIN KMKG 011100Z 08006KT 9SM -RA OVC085 12/10 A2988 670 89 500 080/06 RMK AO2 P0000
14840KMKG MKG20070501060510405/01/07 06:05:31  5-MIN KMKG 011105Z 10006KT 8SM -RA OVC085 11/10 A2988 670 93 400 100/06 RMK AO2 P0000
14840KMKG MKG20070501061010405/01/07 06:10:31  5-MIN KMKG 011110Z 12008KT 8SM -RA OVC085 11/10 A2987 670 93 400 120/08 RMK AO2 P0000
14840KMKG MKG20070501061510405/01/07 06:15:31  5-MIN KMKG 011115Z VRB05KT 8SM -RA OVC085 11/10 A2989 660 93 400 VRB/05 RMK AO2 P0000
14840KMKG MKG20070501062011105/01/07 06:20:31  5-MIN KMKG 011120Z 36010KT 8SM -RA OVC085 12/10 A2992 630 89 400 360/10 RMK AO2 PRESRR P0000
14840KMKG MKG20070501062510405/01/07 06:25:31  5-MIN KMKG 011125Z 02006KT 9SM -RA OVC085 12/10 A2991 640 89 400 030/06 RMK AO2 P0000
14840KMKG MKG20070501063010405/01/07 06:30:31  5-MIN KMKG 011130Z 04007KT 8SM -RA OVC085 12/10 A2991 640 89 400 040/07 RMK AO2 P0000
14840KMKG MKG20070501063511105/01/07 06:35:31  5-MIN KMKG 011135Z 04006KT 8SM -RA BKN090 OVC110 12/10 A2992 630 89 400 050/06 RMK AO2 P0000
14840KMKG MKG20070501064011305/01/07 06:40:31  5-MIN KMKG 011140Z 06007KT 9SM BKN090 OVC110 12/10 A2991 640 89 400 060/07 RMK AO2 RAE40 P0000
14840KMKG MKG20070501064511305/01/07 06:45:31  5-MIN KMKG 011145Z 07009KT 8SM BKN090 OVC110 12/10 A2990 650 89 400 070/09 RMK AO2 RAE40 P0000
14840KMKG MKG20070501065015805/01/07 06:50:31  5-MIN KMKG 011150Z 09008KT 8SM -RA BKN090 BKN110 12/10 A2989 660 89 500 090/08 RMK AO2 SLP124 P0000 60006 70044 T01170100 10117 20111 58008
14840KMKG MKG20070501065515805/01/07 06:55:31  5-MIN KMKG 011155Z 10010KT 8SM -RA SCT090 BKN110 12/10 A2988 670 89 500 100/10 RMK AO2 SLP118 P0000 60006 70044 T01170100 10117 20111 56009
14840KMKG MKG20070501070011805/01/07 07:00:31  5-MIN KMKG 011200Z 12012KT 8SM -RA BKN095 BKN110 12/10 A2987 680 89 500 130/12 RMK AO2 PRESFR P0000
14840KMKG MKG20070501070511105/01/07 07:05:31  5-MIN KMKG 011205Z 11011KT 8SM -RA BKN095 BKN110 11/10 A2986 680 93 400 120/11 RMK AO2 P0000
14840KMKG MKG20070501071011805/01/07 07:10:31  5-MIN KMKG 011210Z 12013KT 7SM -RA BKN090 BKN110 11/09 A2985 700 89 400 120/13 RMK AO2 PRESFR P0000
14840KMKG MKG20070501071511105/01/07 07:15:31  5-MIN KMKG 011215Z 13018KT 7SM -RA BKN085 11/09 A2982 720 89 500 130/18 RMK AO2 PRESFR P0000
14840KMKG MKG20070501072011405/01/07 07:20:31  5-MIN KMKG 011220Z 12015KT 6SM -RA BR BKN080 BKN100 11/09 A2982 720 89 500 120/15 RMK AO2 P0000
14840KMKG MKG20070501072511405/01/07 07:25:31  5-MIN KMKG 011225Z 10013KT 6SM -RA BR BKN070 OVC095 11/09 A2981 730 89 500 100/13 RMK AO2 P0000
14840KMKG MKG20070501073014405/01/07 07:30:31  5-MIN KMKG 011230Z 10010G18KT 5SM -RA BR FEW050 BKN060 OVC095 11/09 A2982 720 89 500 100/10G18 RMK AO2 VIS 2 1/2 RWY 14 P0000
14840KMKG MKG20070501073512705/01/07 07:35:31  5-MIN KMKG 011235Z 11007G18KT 6SM -RA BR FEW043 BKN055 BKN095 11/09 A2984 710 89 500 110/07G18 RMK AO2 P0000
14840KMKG MKG20070501074011805/01/07 07:40:31  5-MIN KMKG 011240Z 12006KT 7SM -RA SCT055 SCT095 11/09 A2985 690 89 400 130/06 RMK AO2 PRESRR P0000
14840KMKG MKG20070501074511105/01/07 07:45:31  5-MIN KMKG 011245Z 10005KT 8SM -RA SCT050 SCT100 12/09 A2985 700 86 500 100/05 RMK AO2 P0000
14840KMKG MKG20070501075012105/01/07 07:50:31  5-MIN KMKG 011250Z 10007KT 7SM -RA FEW045 12/09 A2985 690 86 500 100/07 RMK AO2 SLP111 P0000 T01170094
14840KMKG MKG20070501075512305/01/07 07:55:31  5-MIN KMKG 011255Z 11007KT 7SM FEW090 12/09 A2985 690 86 500 120/07 RMK AO2 RAE51 SLP110 P0000 T01170094
14840KMKG MKG20070501080009405/01/07 08:00:31  5-MIN KMKG 011300Z 12011KT 7SM SCT085 12/09 A2984 700 86 500 120/11 RMK AO2
14840KMKG MKG20070501080509405/01/07 08:05:31  5-MIN KMKG 011305Z 11014KT 7SM SCT090 12/09 A2983 710 86 500 120/14 RMK AO2
14840KMKG MKG20070501081010105/01/07 08:10:31  5-MIN KMKG 011310Z 12014KT 7SM SCT090 12/09 A2981 730 86 500 120/14 RMK AO2 PRESFR
14840KMKG MKG20070501081509405/01/07 08:15:31  5-MIN KMKG 011315Z 12014KT 7SM SCT090 12/09 A2981 730 86 500 130/14 RMK AO2
14840KMKG MKG20070501082009405/01/07 08:20:31  5-MIN KMKG 011320Z 13014KT 7SM BKN095 12/09 A2981 730 86 500 130/14 RMK AO2
14840KMKG MKG20070501082509405/01/07 08:25:31  5-MIN KMKG 011325Z 14013KT 7SM BKN095 12/09 A2982 720 83 600 140/13 RMK AO2
14840KMKG MKG20070501083010005/01/07 08:30:31  5-MIN KMKG 011330Z 13010G17KT 8SM BKN090 12/09 A2983 720 86 500 140/10G17 RMK AO2
14840KMKG MKG20070501083511405/01/07 08:35:31  5-MIN KMKG 011335Z 12009G17KT 9SM FEW075 BKN090 12/09 A2985 700 83 500 120/09G17 RMK AO2 PRESRR
14840KMKG MKG20070501084012305/01/07 08:40:31  5-MIN KMKG 011340Z 06006KT 9SM SCT075 BKN090 12/09 A2986 680 83 500 070/06 RMK AO2 CIG 075 RWY 14 PRESRR
14840KMKG MKG20070501084511905/01/07 08:45:31  5-MIN KMKG 011345Z 03009KT 9SM BKN070 OVC090 12/09 A2987 670 83 500 030/09 RMK AO2 PRESRR DSNT LTG N
14840KMKG MKG20070501085012305/01/07 08:50:31  5-MIN KMKG 011350Z 03005KT 9SM TS BKN070 OVC090 12/09 A2987 680 83 500 030/05 RMK AO2 TSB46 OCNL LTGICCA
14840KMKG MKG20070501085517905/01/07 08:55:31  5-MIN KMKG 011355Z 29006KT 8SM -TSRA BKN070 OVC085 12/09 A2990 650 83 400 300/06 RMK AO2 VIS 2 1/2 RWY 14 TSB46RAB52 FRQ LTGICCA TS OHD-N SLP119 P0001 T01170089
14840KMKG MKG20070501090013705/01/07 09:00:31  5-MIN KMKG 011400Z 18007KT 2 1/2SM -TSRA BR FEW014 OVC070 12/09 A2988 670 86 500 180/07 RMK AO2 VIS 1 1/2 RWY 14 P0000
14840KMKG MKG20070501090514005/01/07 09:05:31  5-MIN KMKG 011405Z 15008KT 1 1/4SM +TSRA BR SCT011 OVC070 11/09 A2986 690 89 400 150/08 RMK AO2 OCNL LTGICCA TS OHD P0013
14840KMKG MKG20070501091015205/01/07 09:10:31  5-MIN KMKG 011410Z 07003KT 1 1/4SM +TSRA BR SCT008 BKN065 OVC090 11/09 A2987 680 89 400 080/03 RMK AO2 FRQ LTGICCA TS OHD MOV E P0020
14840KMKG MKG20070501091516905/01/07 09:15:31  5-MIN KMKG 011415Z 11011KT 1 1/4SM -TSRA BR SCT025 BKN070 OVC085 11/09 A2983 710 89 500 120/11 RMK AO2 VIS 1/4V3 PRESFR FRQ LTGICCA TS OHD MOV E P0021
14840KMKG MKG20070501092015205/01/07 09:20:31  5-MIN KMKG 011420Z 12010KT 1 1/2SM -TSRA BR SCT028 BKN065 OVC080 11/09 A2984 700 89 400 120/10 RMK AO2 FRQ LTGICCA TS OHD MOV E P0022
14840KMKG MKG20070501092515405/01/07 09:25:31  5-MIN KMKG 011425Z 12010KT 3SM -TSRA BR BKN025 OVC080 11/09 A2983 720 89 500 120/10 RMK AO2 VIS 2 RWY 14 FRQ LTGICCA TS OHD MOV E P0022
14840KMKG MKG20070501093015805/01/07 09:30:31  5-MIN KMKG 011430Z VRB05KT 2 1/2SM +TSRA BR BKN025 OVC080 11/10 A2985 700 93 400 VRB/05 RMK AO2 VIS 1 RWY 14 FRQ LTGICCA TS OHD MOV E P0024
14840KMKG MKG20070501093517405/01/07 09:35:31  5-MIN KMKG 011435Z 36003KT 2 1/2SM -TSRA BR BKN025 BKN070 OVC085 11/09 A2986 690 89 400 360/03 RMK AO2 VIS 3/4 RWY 14 PRESRR FRQ LTGICCA TS OHD MOV E P0027
14840KMKG MKG20070501094016405/01/07 09:40:31  5-MIN KMKG 011440Z 11005KT 4SM -TSRA BR SCT031 BKN070 OVC080 11/10 A2984 710 93 500 110/05 RMK AO2 VIS 1 1/4 RWY 14 OCNL LTGICCA TS E MOV E P0027
14840KMKG MKG20070501094516005/01/07 09:45:31  5-MIN KMKG 011445Z 11007KT 4SM -TSRA BR SCT027 SCT050 OVC070 12/10 A2983 710 89 500 110/07 RMK AO2 VIS 2 RWY 14 OCNL LTGICCA TS E MOV E P0028
14840KMKG MKG20070501095019005/01/07 09:50:31  5-MIN KMKG 011450Z 11008KT 4SM -TSRA BR SCT027 BKN050 OVC085 12/10 A2983 710 89 500 120/08 RMK AO2 VIS 2 RWY 14 SLP103 OCNL LTGICCA TS NE MOV E P0028 60029 T01170100 56009
14840KMKG MKG20070501095519405/01/07 09:55:31  5-MIN KMKG 011455Z 11008KT 5SM -TSRA BR FEW024 BKN070 OVC080 12/10 A2983 710 89 500 110/08 RMK AO2 VIS 2 1/2 RWY 14 OCNL LTGICCA TS NE MOV E 56009 SLP103 P0028 60029 T01170100
14840KMKG MKG20070501100014805/01/07 10:00:31  5-MIN KMKG 011500Z 10008KT 6SM -TSRA BR FEW028 BKN070 OVC085 11/09 A2983 710 89 500 110/08 RMK AO2 OCNL LTGICCA TS NE MOV E P0000
14840KMKG MKG20070501100515805/01/07 10:05:31  5-MIN KMKG 011505Z 09005KT 6SM -TSRA BR FEW030 OVC075 11/09 A2984 700 89 400 100/05 RMK AO2 VIS 2 1/2 RWY 14 OCNL LTGICCA TS NE MOV E P0000
14840KMKG MKG20070501101015105/01/07 10:10:31  5-MIN KMKG 011510Z 05004KT 6SM -RA BR FEW030 BKN070 OVC080 11/09 A2986 690 89 400 060/04 RMK AO2 VIS 2 1/2 RWY 14 TSE08 PRESRR P0000
14840KMKG MKG20070501101514205/01/07 10:15:31  5-MIN KMKG 011515Z 09006KT 6SM -TSRA BR BKN070 OVC080 11/09 A2984 700 89 400 090/06 RMK AO2 VIS 2 1/2 RWY 14 TSE08B15 P0000
14840KMKG MKG20070501102014105/01/07 10:20:31  5-MIN KMKG 011520Z 12008KT 7SM -TSRA OVC065 11/09 A2983 710 89 500 130/08 RMK AO2 TSE08B15 OCNL LTGICCA TS OHD MOV E P0000
14840KMKG MKG20070501102515305/01/07 10:25:31  5-MIN KMKG 011525Z 13010KT 6SM TS BR OVC065 11/09 A2982 720 89 500 140/10 RMK AO2 TSE08B15RAE24 PRESFR OCNL LTGICCA TS OHD MOV E P0000
14840KMKG MKG20070501103015105/01/07 10:30:31  5-MIN KMKG 011530Z 13013KT 6SM -TSRA BR OVC065 12/10 A2980 740 89 600 130/13 RMK AO2 TSE08B15 PRESFR OCNL LTGICCA TS OHD MOV E P0000
14840KMKG MKG20070501103516805/01/07 10:35:31  5-MIN KMKG 011535Z 12010KT 5SM -TSRA BR FEW018 OVC060 12/10 A2982 720 89 500 120/10 RMK AO2 VIS 2 1/2 RWY 14 TSE08B15 OCNL LTGICCA TS OHD MOV E P0001
14840KMKG MKG20070501104016805/01/07 10:40:31  5-MIN KMKG 011540Z 01007KT 6SM -TSRA BR FEW015 OVC060 12/10 A2985 700 89 500 020/07 RMK AO2 VIS 2 1/2 RWY 14 TSE08B15 OCNL LTGICCA TS OHD MOV E P0001
14840KMKG MKG20070501104514405/01/07 10:45:31  5-MIN KMKG 011545Z VRB05KT 6SM -TSRA BR OVC060 12/10 A2983 710 89 500 VRB/05 RMK AO2 TSE08B15 OCNL LTGICCA TS OHD MOV E P0001
14840KMKG MKG20070501105015805/01/07 10:50:31  5-MIN KMKG 011550Z 14010KT 7SM -TSRA BKN060 12/11 A2980 740 89 600 140/10 RMK AO2 TSE08B15 SLP094 OCNL LTGICCA TS OHD MOV E P0001 T01220106
14840KMKG MKG20070501105515805/01/07 10:55:31  5-MIN KMKG 011555Z 12008KT 7SM -TSRA BKN060 13/11 A2981 730 89 700 130/08 RMK AO2 TSE08B15 OCNL LTGICCA TS OHD MOV E SLP094 P0001 T01280111
14840KMKG MKG20070501110011105/01/07 11:00:31  5-MIN KMKG 011600Z 10007KT 7SM TS OVC055 12/11 A2982 730 89 600 110/07 RMK AO2 RAE1558 P0000
14840KMKG MKG20070501110511305/01/07 11:05:31  5-MIN KMKG 011605Z 10008KT 7SM OVC055 12/10 A2981 730 86 600 110/08 RMK AO2 TSE03RAE1558 P0000
14840KMKG MKG20070501111011305/01/07 11:10:31  5-MIN KMKG 011610Z 12009KT 8SM OVC050 12/10 A2981 740 86 600 120/09 RMK AO2 TSE03RAE1558 P0000
14840KMKG MKG20070501111511305/01/07 11:15:31  5-MIN KMKG 011615Z 12009KT 8SM OVC050 12/10 A2980 740 86 600 120/09 RMK AO2 TSE03RAE1558 P0000
14840KMKG MKG20070501112011305/01/07 11:20:31  5-MIN KMKG 011620Z 10009KT 8SM OVC050 12/11 A2980 740 89 600 100/09 RMK AO2 TSE03RAE1558 P0000
14840KMKG MKG20070501112511305/01/07 11:25:31  5-MIN KMKG 011625Z 10008KT 8SM OVC050 12/11 A2980 740 89 600 100/08 RMK AO2 TSE03RAE1558 P0000
14840KMKG MKG20070501113011305/01/07 11:30:31  5-MIN KMKG 011630Z 11008KT 8SM OVC050 12/11 A2980 740 89 600 120/08 RMK AO2 TSE03RAE1558 P0000
14840KMKG MKG20070501113511305/01/07 11:35:31  5-MIN KMKG 011635Z 09008KT 9SM OVC050 12/11 A2980 740 89 600 090/08 RMK AO2 TSE03RAE1558 P0000
14840KMKG MKG20070501114011305/01/07 11:40:31  5-MIN KMKG 011640Z 08006KT 9SM OVC050 13/11 A2980 740 86 700 080/06 RMK AO2 TSE03RAE1558 P0000
14840KMKG MKG20070501114511305/01/07 11:45:31  5-MIN KMKG 011645Z 11007KT 9SM OVC048 13/11 A2980 740 86 700 110/07 RMK AO2 TSE03RAE1558 P0000
14840KMKG MKG20070501115013005/01/07 11:50:31  5-MIN KMKG 011650Z 10007KT 9SM OVC048 13/11 A2980 740 86 700 100/07 RMK AO2 TSE03RAE1558 SLP092 P0000 T01280106
14840KMKG MKG20070501115513005/01/07 11:55:31  5-MIN KMKG 011655Z 07006KT 9SM OVC048 13/11 A2980 740 86 700 070/06 RMK AO2 TSE03RAE1558 SLP094 P0000 T01280106
14840KMKG MKG20070501120009405/01/07 12:00:31  5-MIN KMKG 011700Z 07007KT 9SM OVC046 13/11 A2980 740 86 700 070/07 RMK AO2
14840KMKG MKG20070501120509405/01/07 12:05:31  5-MIN KMKG 011705Z 06007KT 8SM OVC046 13/11 A2980 740 86 700 070/07 RMK AO2
14840KMKG MKG20070501121009405/01/07 12:10:31  5-MIN KMKG 011710Z 07007KT 8SM OVC046 13/11 A2980 740 89 700 070/07 RMK AO2
14840KMKG MKG20070501121509405/01/07 12:15:31  5-MIN KMKG 011715Z 09006KT 9SM OVC046 13/11 A2980 740 86 700 090/06 RMK AO2
14840KMKG MKG20070501122009405/01/07 12:20:31  5-MIN KMKG 011720Z 10005KT 9SM OVC046 13/11 A2980 740 89 700 110/05 RMK AO2
14840KMKG MKG20070501122509405/01/07 12:25:31  5-MIN KMKG 011725Z 09005KT 9SM OVC046 13/11 A2980 740 86 800 100/05 RMK AO2
14840KMKG MKG20070501123009405/01/07 12:30:31  5-MIN KMKG 011730Z 09005KT 9SM OVC046 13/11 A2980 740 86 800 090/05 RMK AO2
14840KMKG MKG20070501123509405/01/07 12:35:31  5-MIN KMKG 011735Z 07005KT 9SM OVC046 13/11 A2981 740 86 800 070/05 RMK AO2
14840KMKG MKG20070501124009405/01/07 12:40:31  5-MIN KMKG 011740Z 08004KT 9SM OVC046 13/11 A2980 740 86 800 080/04 RMK AO2
14840KMKG MKG20070501124509405/01/07 12:45:31  5-MIN KMKG 011745Z 08004KT 9SM OVC046 13/11 A2980 740 86 800 080/04 RMK AO2
14840KMKG MKG20070501125013505/01/07 12:50:31  5-MIN KMKG 011750Z 07005KT 9SM OVC044 13/11 A2981 740 86 700 080/05 RMK AO2 SLP095 60030 T01330111 10133 20111 58007
14840KMKG MKG20070501125513505/01/07 12:55:31  5-MIN KMKG 011755Z 07006KT 9SM OVC044 13/11 A2981 740 86 800 080/06 RMK AO2 SLP094 60030 T01330111 10133 20111 55009
14840KMKG MKG20070501130009405/01/07 13:00:31  5-MIN KMKG 011800Z 07005KT 9SM OVC044 13/11 A2981 730 86 700 070/05 RMK AO2
14840KMKG MKG20070501130509405/01/07 13:05:31  5-MIN KMKG 011805Z 07005KT 9SM OVC044 13/11 A2981 730 86 700 080/05 RMK AO2
14840KMKG MKG20070501131009405/01/07 13:10:31  5-MIN KMKG 011810Z 08005KT 9SM OVC044 13/11 A2981 740 86 800 090/05 RMK AO2
14840KMKG MKG20070501131509405/01/07 13:15:31  5-MIN KMKG 011815Z 09005KT 9SM OVC044 13/11 A2980 740 86 800 100/05 RMK AO2
14840KMKG MKG20070501132009405/01/07 13:20:31  5-MIN KMKG 011820Z 10005KT 9SM OVC044 13/11 A2980 740 86 800 100/05 RMK AO2
14840KMKG MKG20070501132509405/01/07 13:25:31  5-MIN KMKG 011825Z 09004KT 9SM OVC044 13/11 A2980 740 86 800 090/04 RMK AO2
14840KMKG MKG20070501133009405/01/07 13:30:31  5-MIN KMKG 011830Z 08006KT 9SM OVC044 13/11 A2980 740 86 800 080/06 RMK AO2
14840KMKG MKG20070501133509405/01/07 13:35:31  5-MIN KMKG 011835Z 07006KT 9SM OVC044 13/11 A2980 740 86 800 070/06 RMK AO2
14840KMKG MKG20070501134009405/01/07 13:40:31  5-MIN KMKG 011840Z 07005KT 9SM OVC044 13/11 A2980 740 86 800 080/05 RMK AO2
14840KMKG MKG20070501134509405/01/07 13:45:31  5-MIN KMKG 011845Z 08005KT 9SM OVC042 14/11 A2980 740 83 800 080/05 RMK AO2
14840KMKG MKG20070501135011205/01/07 13:50:31  5-MIN KMKG 011850Z 06006KT 10SM OVC042 14/12 A2980 740 86 800 060/06 RMK AO2 SLP094 T01390117
14840KMKG MKG20070501135511205/01/07 13:55:31  5-MIN KMKG 011855Z 07006KT 10SM OVC042 14/11 A2981 740 83 800 070/06 RMK AO2 SLP094 T01390111
14840KMKG MKG20070501140009505/01/07 14:00:31  5-MIN KMKG 011900Z 07007KT 10SM OVC040 14/12 A2980 740 83 900 070/07 RMK AO2
14840KMKG MKG20070501140509505/01/07 14:05:31  5-MIN KMKG 011905Z 06006KT 10SM OVC040 14/12 A2981 730 83 900 060/06 RMK AO2
14840KMKG MKG20070501141009505/01/07 14:10:31  5-MIN KMKG 011910Z 03006KT 10SM OVC040 14/12 A2981 730 83 900 040/06 RMK AO2
14840KMKG MKG20070501141509505/01/07 14:15:31  5-MIN KMKG 011915Z 03005KT 10SM OVC040 14/11 A2981 730 80 900 040/05 RMK AO2
14840KMKG MKG20070501142009405/01/07 14:20:31  5-MIN KMKG 011920Z 03006KT 9SM OVC040 14/12 A2981 730 83 900 030/06 RMK AO2
14840KMKG MKG20070501142509405/01/07 14:25:31  5-MIN KMKG 011925Z 03006KT 9SM OVC040 14/11 A2981 740 80 900 030/06 RMK AO2
14840KMKG MKG20070501143009405/01/07 14:30:31  5-MIN KMKG 011930Z 04005KT 9SM OVC040 14/12 A2981 740 83 900 050/05 RMK AO2
14840KMKG MKG20070501143509405/01/07 14:35:31  5-MIN KMKG 011935Z 03006KT 9SM OVC040 14/11 A2981 730 80 900 030/06 RMK AO2
14840KMKG MKG20070501144009505/01/07 14:40:31  5-MIN KMKG 011940Z 05005KT 10SM OVC040 14/11 A2981 740 80 900 060/05 RMK AO2
14840KMKG MKG20070501144509505/01/07 14:45:31  5-MIN KMKG 011945Z 04005KT 10SM OVC040 14/11 A2981 740 80 900 050/05 RMK AO2
14840KMKG MKG20070501145011205/01/07 14:50:31  5-MIN KMKG 011950Z 05005KT 10SM OVC040 14/11 A2980 740 80 900 060/05 RMK AO2 SLP093 T01440111
14840KMKG MKG20070501145511205/01/07 14:55:31  5-MIN KMKG 011955Z 03006KT 10SM OVC040 14/11 A2981 740 80 900 030/06 RMK AO2 SLP094 T01440111
14840KMKG MKG20070501150009605/01/07 15:00:31  5-MIN KMKG 012000Z 04004KT 10SM OVC040 15/11 A2980 740 77 1000 050/04 RMK AO2
14840KMKG MKG20070501150509505/01/07 15:05:31  5-MIN KMKG 012005Z 07005KT 10SM OVC040 14/11 A2980 740 80 900 080/05 RMK AO2
14840KMKG MKG20070501151009505/01/07 15:10:31  5-MIN KMKG 012010Z 06005KT 10SM OVC040 14/11 A2981 740 80 900 060/05 RMK AO2
14840KMKG MKG20070501151509505/01/07 15:15:31  5-MIN KMKG 012015Z 03005KT 10SM OVC040 14/11 A2981 730 80 900 030/05 RMK AO2
14840KMKG MKG20070501152009505/01/07 15:20:31  5-MIN KMKG 012020Z 04005KT 10SM OVC040 15/11 A2981 730 77 900 050/05 RMK AO2
14840KMKG MKG20070501152509505/01/07 15:25:31  5-MIN KMKG 012025Z 03005KT 10SM OVC040 14/11 A2981 730 80 900 030/05 RMK AO2
14840KMKG MKG20070501153009505/01/07 15:30:31  5-MIN KMKG 012030Z 04004KT 10SM OVC040 15/11 A2981 730 77 900 050/04 RMK AO2
14840KMKG MKG20070501153509505/01/07 15:35:31  5-MIN KMKG 012035Z 00000KT 10SM OVC040 15/11 A2981 730 77 900 000/00 RMK AO2
14840KMKG MKG20070501154009505/01/07 15:40:31  5-MIN KMKG 012040Z 06004KT 10SM OVC040 15/12 A2981 730 80 900 060/04 RMK AO2
14840KMKG MKG20070501154509505/01/07 15:45:31  5-MIN KMKG 012045Z 04005KT 10SM OVC040 15/12 A2981 740 80 900 040/05 RMK AO2
14840KMKG MKG20070501155011905/01/07 15:50:31  5-MIN KMKG 012050Z 03004KT 10SM OVC040 16/12 A2981 740 77 1000 030/04 RMK AO2 SLP094 T01560117 55009
14840KMKG MKG20070501155511905/01/07 15:55:31  5-MIN KMKG 012055Z 03006KT 10SM OVC040 16/12 A2981 730 77 1000 040/06 RMK AO2 SLP094 T01560117 53001
14840KMKG MKG20070501160009605/01/07 16:00:31  5-MIN KMKG 012100Z 03004KT 10SM OVC040 16/11 A2981 730 74 1000 030/04 RMK AO2
14840KMKG MKG20070501160509605/01/07 16:05:31  5-MIN KMKG 012105Z VRB04KT 10SM OVC040 16/12 A2981 730 75 1100 VRB/04 RMK AO2
14840KMKG MKG20070501161009605/01/07 16:10:31  5-MIN KMKG 012110Z 36006KT 10SM OVC040 16/12 A2981 730 75 1100 010/06 RMK AO2
14840KMKG MKG20070501161509605/01/07 16:15:31  5-MIN KMKG 012115Z 36005KT 10SM OVC040 16/12 A2981 730 75 1100 360/05 RMK AO2
14840KMKG MKG20070501162009605/01/07 16:20:31  5-MIN KMKG 012120Z 03006KT 10SM OVC040 16/12 A2981 730 75 1100 030/06 RMK AO2
14840KMKG MKG20070501162509605/01/07 16:25:31  5-MIN KMKG 012125Z 04006KT 10SM BKN042 16/12 A2981 730 75 1100 040/06 RMK AO2
14840KMKG MKG20070501163009605/01/07 16:30:31  5-MIN KMKG 012130Z 03006KT 10SM BKN042 17/12 A2981 730 72 1100 040/06 RMK AO2
14840KMKG MKG20070501163509605/01/07 16:35:31  5-MIN KMKG 012135Z 05003KT 10SM SCT042 17/12 A2981 730 72 1100 050/03 RMK AO2
14840KMKG MKG20070501164009605/01/07 16:40:31  5-MIN KMKG 012140Z VRB05KT 10SM SCT042 17/12 A2981 730 72 1100 VRB/05 RMK AO2
14840KMKG MKG20070501164509605/01/07 16:45:31  5-MIN KMKG 012145Z 06006KT 10SM FEW042 17/12 A2981 730 72 1100 070/06 RMK AO2
14840KMKG MKG20070501165011005/01/07 16:50:31  5-MIN KMKG 012150Z VRB04KT 10SM CLR 17/12 A2981 730 69 1200 VRB/04 RMK AO2 SLP096 T01720117
14840KMKG MKG20070501165511305/01/07 16:55:31  5-MIN KMKG 012155Z 03005KT 10SM FEW040 17/12 A2981 730 72 1200 030/05 RMK AO2 SLP096 T01720122
14840KMKG MKG20070501170009305/01/07 17:00:31  5-MIN KMKG 012200Z 02004KT 10SM CLR 17/12 A2981 730 72 1200 020/04 RMK AO2
14840KMKG MKG20070501170509305/01/07 17:05:31  5-MIN KMKG 012205Z 01005KT 10SM CLR 17/12 A2982 730 69 1200 020/05 RMK AO2
14840KMKG MKG20070501171009305/01/07 17:10:31  5-MIN KMKG 012210Z 03004KT 10SM CLR 17/12 A2982 730 69 1200 040/04 RMK AO2
14840KMKG MKG20070501171509305/01/07 17:15:31  5-MIN KMKG 012215Z 34005KT 10SM CLR 17/12 A2982 720 69 1200 340/05 RMK AO2
14840KMKG MKG20070501172010705/01/07 17:20:31  5-MIN KMKG 012220Z 33005KT 10SM CLR 17/12 A2982 730 72 1200 340/05 RMK AO2 (ACFT MISHAP)
14840KMKG MKG20070501172510705/01/07 17:25:31  5-MIN KMKG 012225Z VRB03KT 10SM CLR 17/12 A2982 720 72 1200 VRB/03 RMK AO2 (ACFT MISHAP)
14840KMKG MKG20070501173010705/01/07 17:30:31  5-MIN KMKG 012230Z 35005KT 10SM CLR 18/12 A2982 720 67 1300 360/05 RMK AO2 (ACFT MISHAP)
14840KMKG MKG20070501173510705/01/07 17:35:31  5-MIN KMKG 012235Z 04005KT 10SM CLR 18/12 A2982 720 67 1300 040/05 RMK AO2 (ACFT MISHAP)
14840KMKG MKG20070501174010705/01/07 17:40:31  5-MIN KMKG 012240Z 04005KT 10SM CLR 17/12 A2982 720 69 1200 040/05 RMK AO2 (ACFT MISHAP)
14840KMKG MKG20070501174510705/01/07 17:45:31  5-MIN KMKG 012245Z 04004KT 10SM CLR 18/12 A2982 720 67 1300 040/04 RMK AO2 (ACFT MISHAP)
14840KMKG MKG20070501175012405/01/07 17:50:31  5-MIN KMKG 012250Z 03005KT 10SM CLR 18/12 A2982 730 67 1300 040/05 RMK AO2 SLP097 (ACFT MISHAP) T01780117
14840KMKG MKG20070501175512405/01/07 17:55:31  5-MIN KMKG 012255Z 02004KT 10SM CLR 18/12 A2982 730 67 1300 020/04 RMK AO2 SLP097 (ACFT MISHAP) T01780117
14840KMKG MKG20070501180009305/01/07 18:00:31  5-MIN KMKG 012300Z 03005KT 10SM CLR 18/12 A2982 730 67 1300 030/05 RMK AO2
14840KMKG MKG20070501180509305/01/07 18:05:31  5-MIN KMKG 012305Z 01003KT 10SM CLR 18/12 A2982 720 67 1300 020/03 RMK AO2
14840KMKG MKG20070501181009305/01/07 18:10:31  5-MIN KMKG 012310Z 05004KT 10SM CLR 18/12 A2982 720 67 1300 050/04 RMK AO2
14840KMKG MKG20070501181509305/01/07 18:15:31  5-MIN KMKG 012315Z 02003KT 10SM CLR 18/12 A2982 720 67 1300 020/03 RMK AO2
14840KMKG MKG20070501182009305/01/07 18:20:31  5-MIN KMKG 012320Z 04003KT 10SM CLR 18/12 A2982 720 67 1300 050/03 RMK AO2
14840KMKG MKG20070501182509305/01/07 18:25:31  5-MIN KMKG 012325Z 00000KT 10SM CLR 18/12 A2982 720 67 1300 000/00 RMK AO2
14840KMKG MKG20070501183009305/01/07 18:30:31  5-MIN KMKG 012330Z 05003KT 10SM CLR 18/12 A2982 720 69 1300 050/03 RMK AO2
14840KMKG MKG20070501183509305/01/07 18:35:31  5-MIN KMKG 012335Z 00000KT 10SM CLR 18/12 A2982 720 67 1300 000/00 RMK AO2
14840KMKG MKG20070501184009305/01/07 18:40:31  5-MIN KMKG 012340Z 03003KT 10SM CLR 18/12 A2982 720 67 1300 030/03 RMK AO2
14840KMKG MKG20070501184509305/01/07 18:45:31  5-MIN KMKG 012345Z 03004KT 10SM CLR 18/12 A2983 720 67 1200 030/04 RMK AO2
14840KMKG MKG20070501185012805/01/07 18:50:31  5-MIN KMKG 012350Z 01004KT 10SM CLR 18/12 A2983 710 67 1200 010/04 RMK AO2 SLP101 T01780117 10178 20133 53001
14840KMKG MKG20070501185512805/01/07 18:55:31  5-MIN KMKG 012355Z 28005KT 10SM CLR 17/12 A2983 710 72 1100 290/05 RMK AO2 SLP102 T01670117 10178 20133 53008
14840KMKG MKG20070501190009305/01/07 19:00:31  5-MIN KMKG 020000Z 29003KT 10SM CLR 16/12 A2983 710 75 1000 290/03 RMK AO2
14840KMKG MKG20070501190509305/01/07 19:05:31  5-MIN KMKG 020005Z 29004KT 10SM CLR 16/12 A2984 710 75 1000 300/04 RMK AO2
14840KMKG MKG20070501191009305/01/07 19:10:31  5-MIN KMKG 020010Z 31005KT 10SM CLR 16/12 A2984 710 75 1000 310/05 RMK AO2
14840KMKG MKG20070501191509305/01/07 19:15:31  5-MIN KMKG 020015Z 30005KT 10SM CLR 16/11 A2984 710 74 1000 310/05 RMK AO2
14840KMKG MKG20070501192009305/01/07 19:20:31  5-MIN KMKG 020020Z 30004KT 10SM CLR 16/11 A2984 710 74 1000 310/04 RMK AO2
14840KMKG MKG20070501192509205/01/07 19:25:31  5-MIN KMKG 020025Z 31004KT 10SM CLR 15/11 A2984 710 77 900 310/04 RMK AO2
14840KMKG MKG20070501193009205/01/07 19:30:31  5-MIN KMKG 020030Z 30004KT 10SM CLR 15/11 A2984 700 77 900 310/04 RMK AO2
14840KMKG MKG20070501193509205/01/07 19:35:31  5-MIN KMKG 020035Z 30003KT 10SM CLR 15/11 A2985 700 77 900 310/03 RMK AO2
14840KMKG MKG20070501194009205/01/07 19:40:31  5-MIN KMKG 020040Z 28003KT 10SM CLR 14/11 A2985 700 80 800 280/03 RMK AO2
14840KMKG MKG20070501194509205/01/07 19:45:31  5-MIN KMKG 020045Z 00000KT 10SM CLR 14/11 A2985 690 83 800 000/00 RMK AO2
14840KMKG MKG20070501195010905/01/07 19:50:31  5-MIN KMKG 020050Z 00000KT 10SM CLR 14/11 A2985 690 83 800 000/00 RMK AO2 SLP110 T01390111
14840KMKG MKG20070501195510905/01/07 19:55:31  5-MIN KMKG 020055Z 00000KT 10SM CLR 14/11 A2985 690 80 800 000/00 RMK AO2 SLP109 T01440111
14840KMKG MKG20070501200009205/01/07 20:00:31  5-MIN KMKG 020100Z 18003KT 10SM CLR 14/11 A2985 700 83 800 190/03 RMK AO2
14840KMKG MKG20070501200509205/01/07 20:05:31  5-MIN KMKG 020105Z 17004KT 10SM CLR 13/11 A2985 690 86 700 180/04 RMK AO2
14840KMKG MKG20070501201009205/01/07 20:10:31  5-MIN KMKG 020110Z 19003KT 10SM CLR 13/11 A2986 690 86 700 190/03 RMK AO2
14840KMKG MKG20070501201509205/01/07 20:15:31  5-MIN KMKG 020115Z 00000KT 10SM CLR 13/11 A2986 690 86 700 000/00 RMK AO2
14840KMKG MKG20070501202009205/01/07 20:20:31  5-MIN KMKG 020120Z 00000KT 10SM CLR 13/11 A2986 690 86 700 000/00 RMK AO2
14840KMKG MKG20070501202509205/01/07 20:25:31  5-MIN KMKG 020125Z 00000KT 10SM CLR 13/11 A2986 680 89 600 000/00 RMK AO2
14840KMKG MKG20070501203009205/01/07 20:30:31  5-MIN KMKG 020130Z 00000KT 10SM CLR 13/11 A2987 680 89 600 000/00 RMK AO2
14840KMKG MKG20070501203509205/01/07 20:35:31  5-MIN KMKG 020135Z 00000KT 10SM CLR 13/11 A2987 680 89 600 000/00 RMK AO2
14840KMKG MKG20070501204009205/01/07 20:40:31  5-MIN KMKG 020140Z 00000KT 10SM CLR 13/11 A2988 670 89 600 000/00 RMK AO2
14840KMKG MKG20070501204509205/01/07 20:45:31  5-MIN KMKG 020145Z 00000KT 10SM CLR 13/11 A2988 670 86 700 000/00 RMK AO2
14840KMKG MKG20070501205010905/01/07 20:50:31  5-MIN KMKG 020150Z 07003KT 10SM CLR 13/11 A2988 670 89 600 070/03 RMK AO2 SLP120 T01280111
14840KMKG MKG20070501205510905/01/07 20:55:31  5-MIN KMKG 020155Z 00000KT 10SM CLR 12/11 A2988 660 93 500 000/00 RMK AO2 SLP121 T01220111
14840KMKG MKG20070501210009205/01/07 21:00:31  5-MIN KMKG 020200Z 00000KT 10SM CLR 12/11 A2989 660 93 500 000/00 RMK AO2
14840KMKG MKG20070501210509205/01/07 21:05:31  5-MIN KMKG 020205Z 00000KT 10SM CLR 13/11 A2989 660 89 600 000/00 RMK AO2
14840KMKG MKG20070501211009205/01/07 21:10:31  5-MIN KMKG 020210Z 00000KT 10SM CLR 12/11 A2989 660 93 500 000/00 RMK AO2
14840KMKG MKG20070501211509205/01/07 21:15:31  5-MIN KMKG 020215Z 00000KT 10SM CLR 12/11 A2989 660 93 500 000/00 RMK AO2
14840KMKG MKG20070501212009205/01/07 21:20:31  5-MIN KMKG 020220Z 00000KT 10SM CLR 12/11 A2989 660 89 500 000/00 RMK AO2
14840KMKG MKG20070501212509205/01/07 21:25:31  5-MIN KMKG 020225Z 00000KT 10SM CLR 12/11 A2990 650 93 400 000/00 RMK AO2
14840KMKG MKG20070501213009105/01/07 21:30:31  5-MIN KMKG 020230Z 14003KT 9SM CLR 12/11 A2990 650 93 400 140/03 RMK AO2
14840KMKG MKG20070501213509405/01/07 21:35:31  5-MIN KMKG 020235Z 00000KT 9SM FEW090 12/11 A2990 650 93 400 000/00 RMK AO2
14840KMKG MKG20070501214009405/01/07 21:40:31  5-MIN KMKG 020240Z 14003KT 8SM SCT090 12/11 A2990 650 93 400 140/03 RMK AO2
14840KMKG MKG20070501214509705/01/07 21:45:31  5-MIN KMKG 020245Z 00000KT 6SM BR BKN090 11/11 A2990 650 96 400 000/00 RMK AO2
14840KMKG MKG20070501215012005/01/07 21:50:31  5-MIN KMKG 020250Z 00000KT 6SM BR SCT090 12/11 A2990 650 93 400 000/00 RMK AO2 SLP125 T01170106 53008
14840KMKG MKG20070501215512005/01/07 21:55:31  5-MIN KMKG 020255Z 13003KT 6SM BR SCT090 12/11 A2990 650 93 400 140/03 RMK AO2 SLP125 T01170106 51022
14840KMKG MKG20070501220009405/01/07 22:00:31  5-MIN KMKG 020300Z 12003KT 7SM SCT090 12/11 A2990 650 93 400 120/03 RMK AO2
14840KMKG MKG20070501220509405/01/07 22:05:31  5-MIN KMKG 020305Z 00000KT 8SM SCT090 12/11 A2990 650 93 400 000/00 RMK AO2
14840KMKG MKG20070501221009405/01/07 22:10:31  5-MIN KMKG 020310Z 00000KT 8SM FEW090 12/11 A2990 650 93 400 000/00 RMK AO2
14840KMKG MKG20070501221509405/01/07 22:15:31  5-MIN KMKG 020315Z 00000KT 8SM SCT090 12/11 A2991 640 93 400 000/00 RMK AO2
14840KMKG MKG20070501222009405/01/07 22:20:31  5-MIN KMKG 020320Z 00000KT 7SM BKN090 12/11 A2991 640 93 400 000/00 RMK AO2
14840KMKG MKG20070501222509405/01/07 22:25:31  5-MIN KMKG 020325Z 36003KT 7SM BKN085 12/11 A2991 640 93 400 360/03 RMK AO2
14840KMKG MKG20070501223009705/01/07 22:30:31  5-MIN KMKG 020330Z 00000KT 5SM BR BKN085 12/11 A2991 640 93 400 000/00 RMK AO2
14840KMKG MKG20070501223511405/01/07 22:35:31  5-MIN KMKG 020335Z 00000KT 5SM BR BKN085 12/11 A2991 640 93 400 000/00 RMK AO2 VIS 2 1/2 RWY 14
14840KMKG MKG20070501224011405/01/07 22:40:31  5-MIN KMKG 020340Z 00000KT 5SM BR SCT085 12/11 A2991 640 93 500 000/00 RMK AO2 VIS 2 1/2 RWY 14
14840KMKG MKG20070501224511005/01/07 22:45:31  5-MIN KMKG 020345Z 00000KT 4SM BR SCT085 11/11 A2991 640 96 400 000/00 RMK AO2 VIS 2 RWY 14
14840KMKG MKG20070501225013105/01/07 22:50:31  5-MIN KMKG 020350Z 00000KT 4SM BR FEW085 11/11 A2991 640 96 400 000/00 RMK AO2 VIS 2 1/2 RWY 14 SLP128 T01110106
14840KMKG MKG20070501225511805/01/07 22:55:31  5-MIN KMKG 020355Z 00000KT 2 1/2SM BR FEW085 11/10 A2991 640 96 300 000/00 RMK AO2 SLP130 T01060100
14840KMKG MKG20070501230009705/01/07 23:00:31  5-MIN KMKG 020400Z 00000KT 2SM BR FEW085 11/10 A2991 640 96 300 000/00 RMK AO2
14840KMKG MKG20070501230509705/01/07 23:05:31  5-MIN KMKG 020405Z 00000KT 3SM BR FEW048 11/10 A2992 630 96 300 000/00 RMK AO2
14840KMKG MKG20070501231009705/01/07 23:10:31  5-MIN KMKG 020410Z 00000KT 3SM BR FEW027 11/10 A2992 630 96 300 000/00 RMK AO2
14840KMKG MKG20070501231512405/01/07 23:15:31  5-MIN KMKG 020415Z 34009KT 3SM BR FEW020 SCT025 SCT046 11/10 A2992 630 96 300 340/09 RMK AO2 VIS 2 RWY 14
14840KMKG MKG20070501232012805/01/07 23:20:31  5-MIN KMKG 020420Z 36008KT 4SM BR SCT020 BKN025 BKN046 12/11 A2993 620 93 500 360/08 RMK AO2 VIS 2 1/2 RWY 14
14840KMKG MKG20070501232512605/01/07 23:25:31  5-MIN KMKG 020425Z 36006KT 6SM BR SCT016 BKN023 BKN046 13/12 A2993 620 93 500 360/06 RMK AO2 CIG 018 RWY 14
14840KMKG MKG20070501233010105/01/07 23:30:31  5-MIN KMKG 020430Z 01003KT 7SM BKN016 BKN025 13/12 A2993 620 89 600 010/03 RMK AO2
14840KMKG MKG20070501233510105/01/07 23:35:31  5-MIN KMKG 020435Z 00000KT 8SM BKN018 OVC025 13/12 A2993 620 93 600 000/00 RMK AO2
14840KMKG MKG20070501234010105/01/07 23:40:31  5-MIN KMKG 020440Z 00000KT 7SM BKN018 OVC027 13/12 A2993 620 89 600 000/00 RMK AO2
14840KMKG MKG20070501234510105/01/07 23:45:31  5-MIN KMKG 020445Z 00000KT 7SM BKN018 OVC027 13/12 A2993 620 89 600 000/00 RMK AO2
14840KMKG MKG20070501235012805/01/07 23:50:31  5-MIN KMKG 020450Z 00000KT 7SM SCT018 OVC029 13/12 A2993 620 89 600 000/00 RMK AO2 SLP136 T01330117 401780100
14840KMKG MKG20070501235513105/01/07 23:55:31  5-MIN KMKG 020455Z 00000KT 6SM BR FEW018 OVC031 13/12 A2993 620 89 600 000/00 RMK AO2 SLP136 T01330117 401780100
14840KMKG MKG20070502000010405/02/07 00:00:32  5-MIN KMKG 020500Z 00000KT 6SM BR FEW018 OVC031 13/12 A2993 620 89 600 000/00 RMK AO2
14840KMKG MKG20070502000509405/02/07 00:05:31  5-MIN KMKG 020505Z 00000KT 7SM OVC031 13/12 A2994 620 89 600 000/00 RMK AO2
14840KMKG MKG20070502001009405/02/07 00:10:31  5-MIN KMKG 020510Z 00000KT 7SM OVC033 13/12 A2994 620 93 500 000/00 RMK AO2
14840KMKG MKG20070502001509705/02/07 00:15:31  5-MIN KMKG 020515Z 00000KT 5SM BR OVC033 13/12 A2994 610 93 500 000/00 RMK AO2
14840KMKG MKG20070502002009705/02/07 00:20:31  5-MIN KMKG 020520Z 00000KT 4SM BR OVC035 12/12 A2994 610 96 500 000/00 RMK AO2
14840KMKG MKG20070502002509705/02/07 00:25:31  5-MIN KMKG 020525Z 13003KT 5SM BR OVC037 13/12 A2994 610 93 500 140/03 RMK AO2
14840KMKG MKG20070502003009705/02/07 00:30:31  5-MIN KMKG 020530Z 15004KT 5SM BR OVC037 12/12 A2994 610 96 500 150/04 RMK AO2
14840KMKG MKG20070502003509705/02/07 00:35:31  5-MIN KMKG 020535Z 16003KT 5SM BR OVC037 12/12 A2994 610 96 500 170/03 RMK AO2
14840KMKG MKG20070502004009705/02/07 00:40:31  5-MIN KMKG 020540Z 00000KT 5SM BR OVC039 13/12 A2994 610 93 500 000/00 RMK AO2
14840KMKG MKG20070502004509705/02/07 00:45:31  5-MIN KMKG 020545Z 00000KT 5SM BR OVC041 12/11 A2995 610 93 500 000/00 RMK AO2
14840KMKG MKG20070502005013205/02/07 00:50:31  5-MIN KMKG 020550Z 00000KT 6SM BR OVC043 13/12 A2995 600 93 500 000/00 RMK AO2 SLP142 T01280117 10167 20100 51022
14840KMKG MKG20070502005512905/02/07 00:55:31  5-MIN KMKG 020555Z 01005KT 8SM OVC043 13/11 A2995 600 86 600 010/05 RMK AO2 SLP143 T01330111 10167 20100 53018
14840KMKG MKG20070502010009505/02/07 01:00:31  5-MIN KMKG 020600Z 01006KT 10SM OVC045 13/11 A2995 600 86 600 010/06 RMK AO2
14840KMKG MKG20070502010510205/02/07 01:05:31  5-MIN KMKG 020605Z 36005KT 10SM FEW015 OVC045 13/11 A2995 600 86 600 010/05 RMK AO2
14840KMKG MKG20070502011010205/02/07 01:10:31  5-MIN KMKG 020610Z 02005KT 10SM SCT015 OVC047 13/11 A2996 600 83 600 020/05 RMK AO2
14840KMKG MKG20070502011510205/02/07 01:15:31  5-MIN KMKG 020615Z 36005KT 10SM BKN015 OVC047 13/11 A2996 590 83 600 360/05 RMK AO2
14840KMKG MKG20070502012010205/02/07 01:20:31  5-MIN KMKG 020620Z 36006KT 10SM BKN015 OVC047 13/11 A2996 590 83 600 360/06 RMK AO2
14840KMKG MKG20070502012510205/02/07 01:25:31  5-MIN KMKG 020625Z 02009KT 10SM BKN015 OVC047 13/11 A2997 590 83 600 020/09 RMK AO2
14840KMKG MKG20070502013009505/02/07 01:30:31  5-MIN KMKG 020630Z 02006KT 10SM OVC015 13/11 A2997 580 86 500 020/06 RMK AO2
14840KMKG MKG20070502013509505/02/07 01:35:31  5-MIN KMKG 020635Z 36009KT 10SM OVC013 13/11 A2997 580 86 500 010/09 RMK AO2
14840KMKG MKG20070502014009505/02/07 01:40:31  5-MIN KMKG 020640Z 01007KT 10SM OVC013 13/11 A2997 580 86 500 020/07 RMK AO2
14840KMKG MKG20070502014509505/02/07 01:45:31  5-MIN KMKG 020645Z 02007KT 10SM OVC013 13/11 A2997 580 86 500 020/07 RMK AO2
14840KMKG MKG20070502015011205/02/07 01:50:31  5-MIN KMKG 020650Z 02006KT 10SM OVC011 13/10 A2997 580 83 500 020/06 RMK AO2 SLP151 T01280100
14840KMKG MKG20070502015511205/02/07 01:55:31  5-MIN KMKG 020655Z 02008KT 10SM OVC011 13/10 A2998 580 83 500 020/08 RMK AO2 SLP151 T01280100
14840KMKG MKG20070502020009505/02/07 02:00:31  5-MIN KMKG 020700Z 01007KT 10SM OVC011 12/10 A2998 580 86 400 010/07 RMK AO2
14840KMKG MKG20070502020509505/02/07 02:05:31  5-MIN KMKG 020705Z 36006KT 10SM OVC011 12/10 A2998 570 86 400 010/06 RMK AO2
14840KMKG MKG20070502021009505/02/07 02:10:31  5-MIN KMKG 020710Z 01008KT 10SM OVC013 12/10 A2998 570 86 400 010/08 RMK AO2
14840KMKG MKG20070502021509505/02/07 02:15:31  5-MIN KMKG 020715Z 01008KT 10SM BKN013 12/09 A2999 570 83 400 020/08 RMK AO2
14840KMKG MKG20070502022010205/02/07 02:20:31  5-MIN KMKG 020720Z 01006KT 10SM BKN013 BKN021 12/09 A2998 570 83 400 020/06 RMK AO2
14840KMKG MKG20070502022510205/02/07 02:25:31  5-MIN KMKG 020725Z 01006KT 10SM SCT013 BKN021 12/09 A2999 570 86 300 010/06 RMK AO2
14840KMKG MKG20070502023009505/02/07 02:30:31  5-MIN KMKG 020730Z 01006KT 10SM SCT013 12/09 A2999 570 86 300 020/06 RMK AO2
14840KMKG MKG20070502023509505/02/07 02:35:31  5-MIN KMKG 020735Z 01006KT 10SM FEW013 12/09 A2999 570 86 300 020/06 RMK AO2
14840KMKG MKG20070502024009205/02/07 02:40:31  5-MIN KMKG 020740Z 01006KT 10SM CLR 12/09 A2999 570 86 300 020/06 RMK AO2
14840KMKG MKG20070502024509205/02/07 02:45:31  5-MIN KMKG 020745Z 02007KT 10SM CLR 12/09 A2999 570 86 300 020/07 RMK AO2
14840KMKG MKG20070502025010905/02/07 02:50:31  5-MIN KMKG 020750Z 01006KT 10SM CLR 11/09 A2999 560 89 300 020/06 RMK AO2 SLP158 T01110094
14840KMKG MKG20070502025510905/02/07 02:55:31  5-MIN KMKG 020755Z 01009KT 10SM CLR 11/09 A3000 560 89 300 010/09 RMK AO2 SLP159 T01110094
14840KMKG MKG20070502030009205/02/07 03:00:31  5-MIN KMKG 020800Z 36009KT 10SM CLR 11/09 A3000 560 86 300 010/09 RMK AO2
14840KMKG MKG20070502030509205/02/07 03:05:31  5-MIN KMKG 020805Z 01007KT 10SM CLR 11/09 A3000 560 86 300 010/07 RMK AO2
14840KMKG MKG20070502031009205/02/07 03:10:31  5-MIN KMKG 020810Z 36010KT 10SM CLR 11/09 A3000 560 86 300 010/10 RMK AO2
14840KMKG MKG20070502031509205/02/07 03:15:31  5-MIN KMKG 020815Z 36009KT 10SM CLR 11/08 A3000 550 86 200 360/09 RMK AO2
14840KMKG MKG20070502032009205/02/07 03:20:31  5-MIN KMKG 020820Z 36009KT 10SM CLR 11/08 A3000 550 86 200 010/09 RMK AO2
14840KMKG MKG20070502032509205/02/07 03:25:31  5-MIN KMKG 020825Z 01010KT 10SM CLR 11/08 A3000 550 86 200 020/10 RMK AO2
14840KMKG MKG20070502033009205/02/07 03:30:31  5-MIN KMKG 020830Z 36011KT 10SM CLR 11/08 A3001 550 83 200 010/11 RMK AO2
14840KMKG MKG20070502033509205/02/07 03:35:31  5-MIN KMKG 020835Z 01009KT 10SM CLR 11/08 A3001 550 83 200 020/09 RMK AO2
14840KMKG MKG20070502034009205/02/07 03:40:31  5-MIN KMKG 020840Z 02009KT 10SM CLR 11/07 A3001 550 80 200 020/09 RMK AO2
14840KMKG MKG20070502034509205/02/07 03:45:31  5-MIN KMKG 020845Z 02008KT 10SM CLR 11/07 A3001 550 77 200 020/08 RMK AO2
14840KMKG MKG20070502035011505/02/07 03:50:31  5-MIN KMKG 020850Z 02010KT 10SM CLR 11/07 A3001 550 77 200 020/10 RMK AO2 SLP163 T01060067 53018
14840KMKG MKG20070502035511505/02/07 03:55:31  5-MIN KMKG 020855Z 02010KT 10SM CLR 11/06 A3001 550 74 200 030/10 RMK AO2 SLP163 T01060061 51019
14840KMKG MKG20070502040009205/02/07 04:00:31  5-MIN KMKG 020900Z 02009KT 10SM CLR 11/06 A3001 550 74 200 030/09 RMK AO2
14840KMKG MKG20070502040509205/02/07 04:05:31  5-MIN KMKG 020905Z 02009KT 10SM CLR 11/06 A3001 550 74 200 020/09 RMK AO2
14840KMKG MKG20070502041009205/02/07 04:10:31  5-MIN KMKG 020910Z 02009KT 10SM CLR 10/06 A3001 540 77 100 020/09 RMK AO2
14840KMKG MKG20070502041509205/02/07 04:15:31  5-MIN KMKG 020915Z 03006KT 10SM CLR 10/06 A3001 540 77 100 030/06 RMK AO2
14840KMKG MKG20070502042009205/02/07 04:20:31  5-MIN KMKG 020920Z 02007KT 10SM CLR 10/06 A3001 540 77 100 020/07 RMK AO2
14840KMKG MKG20070502042509205/02/07 04:25:31  5-MIN KMKG 020925Z 02006KT 10SM CLR 10/06 A3002 540 77 100 030/06 RMK AO2
14840KMKG MKG20070502043009205/02/07 04:30:31  5-MIN KMKG 020930Z 03005KT 10SM CLR 10/06 A3002 540 77 100 030/05 RMK AO2
14840KMKG MKG20070502043509005/02/07 04:35:31  5-MIN KMKG 020935Z 03007KT 10SM CLR 09/06 A3002 540 79 0 030/07 RMK AO2
14840KMKG MKG20070502044009205/02/07 04:40:31  5-MIN KMKG 020940Z 02006KT 10SM CLR 10/06 A3002 540 77 100 030/06 RMK AO2
14840KMKG MKG20070502044509005/02/07 04:45:31  5-MIN KMKG 020945Z 03005KT 10SM CLR 09/06 A3002 540 79 0 030/05 RMK AO2
14840KMKG MKG20070502045010705/02/07 04:50:31  5-MIN KMKG 020950Z 03004KT 10SM CLR 09/06 A3002 540 79 0 040/04 RMK AO2 SLP167 T00940061
14840KMKG MKG20070502045510705/02/07 04:55:31  5-MIN KMKG 020955Z 03004KT 10SM CLR 09/06 A3003 530 79 0 040/04 RMK AO2 SLP168 T00940061
14840KMKG MKG20070502050009005/02/07 05:00:31  5-MIN KMKG 021000Z 04006KT 10SM CLR 09/06 A3003 530 79 0 040/06 RMK AO2
14840KMKG MKG20070502050509005/02/07 05:05:31  5-MIN KMKG 021005Z 03004KT 10SM CLR 09/06 A3003 530 79 0 030/04 RMK AO2
14840KMKG MKG20070502051009005/02/07 05:10:31  5-MIN KMKG 021010Z 03005KT 10SM CLR 09/06 A3003 530 83 0 040/05 RMK AO2
14840KMKG MKG20070502051509005/02/07 05:15:31  5-MIN KMKG 021015Z 04006KT 10SM CLR 09/06 A3003 530 79 0 040/06 RMK AO2
14840KMKG MKG20070502052009005/02/07 05:20:31  5-MIN KMKG 021020Z 04004KT 10SM CLR 09/06 A3004 520 83 0 040/04 RMK AO2
14840KMKG MKG20070502052509005/02/07 05:25:31  5-MIN KMKG 021025Z 03005KT 10SM CLR 09/06 A3004 520 83 0 040/05 RMK AO2
14840KMKG MKG20070502053009005/02/07 05:30:31  5-MIN KMKG 021030Z 04005KT 10SM CLR 09/06 A3004 520 83 0 040/05 RMK AO2
14840KMKG MKG20070502053509005/02/07 05:35:31  5-MIN KMKG 021035Z 03006KT 10SM CLR 09/06 A3004 520 83 0 030/06 RMK AO2
14840KMKG MKG20070502054009005/02/07 05:40:31  5-MIN KMKG 021040Z 03006KT 10SM CLR 09/06 A3004 520 83 0 040/06 RMK AO2
14840KMKG MKG20070502054509005/02/07 05:45:31  5-MIN KMKG 021045Z 03006KT 10SM CLR 09/06 A3004 520 83 0 040/06 RMK AO2
14840KMKG MKG20070502055010705/02/07 05:50:31  5-MIN KMKG 021050Z 03007KT 10SM CLR 09/06 A3004 520 83 0 040/07 RMK AO2 SLP174 T00890061
14840KMKG MKG20070502055510705/02/07 05:55:31  5-MIN KMKG 021055Z 04007KT 10SM CLR 09/06 A3004 520 83 0 040/07 RMK AO2 SLP175 T00890061
14840KMKG MKG20070502060009005/02/07 06:00:31  5-MIN KMKG 021100Z 04004KT 10SM CLR 09/06 A3005 510 83 0 040/04 RMK AO2
14840KMKG MKG20070502060509005/02/07 06:05:31  5-MIN KMKG 021105Z 04005KT 10SM CLR 09/06 A3005 510 83 0 040/05 RMK AO2
14840KMKG MKG20070502061009005/02/07 06:10:31  5-MIN KMKG 021110Z 03003KT 10SM CLR 09/06 A3005 510 83 0 030/03 RMK AO2
14840KMKG MKG20070502061509005/02/07 06:15:31  5-MIN KMKG 021115Z 02003KT 10SM CLR 09/06 A3005 510 83 0 030/03 RMK AO2
14840KMKG MKG20070502062009005/02/07 06:20:31  5-MIN KMKG 021120Z 02005KT 10SM CLR 09/06 A3005 510 83 0 030/05 RMK AO2
14840KMKG MKG20070502062509005/02/07 06:25:31  5-MIN KMKG 021125Z 02005KT 10SM CLR 09/06 A3006 500 83 0 030/05 RMK AO2
14840KMKG MKG20070502063009005/02/07 06:30:31  5-MIN KMKG 021130Z 02006KT 10SM CLR 09/06 A3006 500 79 0 030/06 RMK AO2
14840KMKG MKG20070502063509005/02/07 06:35:31  5-MIN KMKG 021135Z 03008KT 10SM CLR 09/06 A3006 500 79 0 030/08 RMK AO2
14840KMKG MKG20070502064009005/02/07 06:40:31  5-MIN KMKG 021140Z 03007KT 10SM CLR 09/06 A3007 500 79 0 040/07 RMK AO2
14840KMKG MKG20070502064509005/02/07 06:45:31  5-MIN KMKG 021145Z 02008KT 10SM CLR 09/06 A3007 500 79 0 030/08 RMK AO2
14840KMKG MKG20070502065013305/02/07 06:50:31  5-MIN KMKG 021150Z 03007KT 10SM CLR 10/06 A3007 490 77 100 030/07 RMK AO2 SLP183 70030 T01000061 10133 20089 51019
14840KMKG MKG20070502065513105/02/07 06:55:31  5-MIN KMKG 021155Z 03007KT 10SM CLR 10/06 A3007 490 77 0 030/07 RMK AO2 SLP184 70030 T01000061 10133 20089 53020
14840KMKG MKG20070502070009005/02/07 07:00:31  5-MIN KMKG 021200Z 03008KT 10SM CLR 10/06 A3007 490 77 0 030/08 RMK AO2
14840KMKG MKG20070502070509005/02/07 07:05:31  5-MIN KMKG 021205Z 05007KT 10SM CLR 10/06 A3007 490 77 0 050/07 RMK AO2
14840KMKG MKG20070502071009005/02/07 07:10:31  5-MIN KMKG 021210Z 04007KT 10SM CLR 10/06 A3008 490 77 0 040/07 RMK AO2
14840KMKG MKG20070502071509005/02/07 07:15:31  5-MIN KMKG 021215Z 03008KT 10SM CLR 10/06 A3008 480 77 0 040/08 RMK AO2
14840KMKG MKG20070502072009205/02/07 07:20:31  5-MIN KMKG 021220Z 03007KT 10SM CLR 11/06 A3008 480 74 100 040/07 RMK AO2
14840KMKG MKG20070502072509005/02/07 07:25:31  5-MIN KMKG 021225Z 03011KT 10SM CLR 10/06 A3009 480 77 0 040/11 RMK AO2
14840KMKG MKG20070502073009205/02/07 07:30:31  5-MIN KMKG 021230Z 03008KT 10SM CLR 11/06 A3009 470 74 100 040/08 RMK AO2
14840KMKG MKG20070502073509205/02/07 07:35:31  5-MIN KMKG 021235Z 03009KT 10SM CLR 11/06 A3009 470 74 100 030/09 RMK AO2
14840KMKG MKG20070502074009205/02/07 07:40:31  5-MIN KMKG 021240Z 04010KT 10SM CLR 11/06 A3009 470 74 100 040/10 RMK AO2
14840KMKG MKG20070502074509505/02/07 07:45:31  5-MIN KMKG 021245Z 04011KT 10SM FEW018 11/06 A3010 470 74 100 040/11 RMK AO2
14840KMKG MKG20070502075011805/02/07 07:50:31  5-MIN KMKG 021250Z 04007G15KT 10SM FEW018 11/06 A3010 460 74 100 050/07G15 RMK AO2 SLP195 T01060061
14840KMKG MKG20070502075511205/02/07 07:55:31  5-MIN KMKG 021255Z 03006KT 10SM FEW018 11/07 A3010 460 74 100 030/06 RMK AO2 SLP195 T01110067
14840KMKG MKG20070502080009505/02/07 08:00:31  5-MIN KMKG 021300Z 04008KT 10SM FEW018 11/06 A3010 460 71 100 040/08 RMK AO2
14840KMKG MKG20070502080509505/02/07 08:05:31  5-MIN KMKG 021305Z 03009KT 10SM FEW018 11/06 A3010 460 71 100 030/09 RMK AO2
14840KMKG MKG20070502081009505/02/07 08:10:31  5-MIN KMKG 021310Z 03010KT 10SM FEW018 11/06 A3010 460 71 100 040/10 RMK AO2
14840KMKG MKG20070502081509505/02/07 08:15:31  5-MIN KMKG 021315Z 03006KT 10SM FEW018 11/06 A3010 460 71 100 030/06 RMK AO2
14840KMKG MKG20070502082009205/02/07 08:20:31  5-MIN KMKG 021320Z 02007KT 10SM CLR 12/06 A3011 460 68 200 030/07 RMK AO2
14840KMKG MKG20070502082509205/02/07 08:25:31  5-MIN KMKG 021325Z 01007KT 10SM CLR 12/06 A3011 460 68 200 010/07 RMK AO2
14840KMKG MKG20070502083009205/02/07 08:30:31  5-MIN KMKG 021330Z 02005KT 10SM CLR 12/07 A3011 450 71 200 020/05 RMK AO2
14840KMKG MKG20070502083509205/02/07 08:35:31  5-MIN KMKG 021335Z 02006KT 10SM CLR 12/07 A3011 450 68 300 030/06 RMK AO2
14840KMKG MKG20070502084009205/02/07 08:40:31  5-MIN KMKG 021340Z VRB05KT 10SM CLR 12/07 A3011 450 68 300 VRB/05 RMK AO2
14840KMKG MKG20070502084509205/02/07 08:45:31  5-MIN KMKG 021345Z VRB04KT 10SM CLR 12/06 A3011 460 66 300 VRB/04 RMK AO2
14840KMKG MKG20070502085011205/02/07 08:50:31  5-MIN KMKG 021350Z 36007KT 10SM FEW018 12/07 A3011 460 68 300 010/07 RMK AO2 SLP198 T01220067
14840KMKG MKG20070502085511205/02/07 08:55:31  5-MIN KMKG 021355Z 02005KT 10SM FEW018 13/07 A3011 460 66 300 030/05 RMK AO2 SLP198 T01280067
14840KMKG MKG20070502090009505/02/07 09:00:31  5-MIN KMKG 021400Z VRB03KT 10SM FEW018 13/07 A3011 460 66 300 VRB/03 RMK AO2
14840KMKG MKG20070502090509505/02/07 09:05:31  5-MIN KMKG 021405Z 07005KT 10SM FEW018 13/07 A3011 460 66 300 070/05 RMK AO2
14840KMKG MKG20070502091009505/02/07 09:10:31  5-MIN KMKG 021410Z VRB03KT 10SM FEW018 12/06 A3011 460 66 300 VRB/03 RMK AO2
14840KMKG MKG20070502091509505/02/07 09:15:31  5-MIN KMKG 021415Z 36003KT 10SM FEW018 13/07 A3011 460 66 300 360/03 RMK AO2
14840KMKG MKG20070502092009505/02/07 09:20:31  5-MIN KMKG 021420Z VRB03KT 10SM FEW018 13/06 A3011 460 63 300 VRB/03 RMK AO2
14840KMKG MKG20070502092509505/02/07 09:25:31  5-MIN KMKG 021425Z VRB04KT 10SM FEW018 13/07 A3011 460 64 400 VRB/04 RMK AO2
14840KMKG MKG20070502093009505/02/07 09:30:31  5-MIN KMKG 021430Z 00000KT 10SM FEW018 13/07 A3011 460 64 400 000/00 RMK AO2
14840KMKG MKG20070502093509505/02/07 09:35:31  5-MIN KMKG 021435Z VRB05KT 10SM FEW027 13/07 A3011 460 64 400 VRB/05 RMK AO2
14840KMKG MKG20070502094010105/02/07 09:40:31  5-MIN KMKG 021440Z 01008G14KT 10SM FEW031 14/07 A3011 460 59 500 010/08G14 RMK AO2
14840KMKG MKG20070502094510105/02/07 09:45:31  5-MIN KMKG 021445Z 36007G14KT 10SM SCT031 14/07 A3011 450 61 500 360/07G14 RMK AO2
14840KMKG MKG20070502095011805/02/07 09:50:31  5-MIN KMKG 021450Z 36008KT 10SM SCT031 14/07 A3011 450 59 500 010/08 RMK AO2 SLP198 T01440067 53020
14840KMKG MKG20070502095512505/02/07 09:55:31  5-MIN KMKG 021455Z 35006KT 10SM SCT031 SCT038 14/07 A3012 450 59 500 350/06 RMK AO2 SLP199 T01440067 51015
14840KMKG MKG20070502100010205/02/07 10:00:31  5-MIN KMKG 021500Z VRB04KT 10SM SCT031 BKN035 14/07 A3012 450 59 500 VRB/04 RMK AO2
14840KMKG MKG20070502100509505/02/07 10:05:31  5-MIN KMKG 021505Z 01005KT 10SM BKN031 15/07 A3012 450 57 600 020/05 RMK AO2
14840KMKG MKG20070502101009505/02/07 10:10:31  5-MIN KMKG 021510Z VRB06KT 10SM BKN031 15/07 A3012 450 57 600 VRB/06 RMK AO2
14840KMKG MKG20070502101510805/02/07 10:15:31  5-MIN KMKG 021515Z 33005G15KT 10SM BKN031 OVC041 14/07 A3012 450 59 500 340/05G15 RMK AO2
14840KMKG MKG20070502102010105/02/07 10:20:31  5-MIN KMKG 021520Z VRB04G15KT 10SM OVC031 14/07 A3012 440 59 500 VRB/04G15 RMK AO2
14840KMKG MKG20070502102509505/02/07 10:25:31  5-MIN KMKG 021525Z 01007KT 10SM OVC031 14/07 A3012 440 61 500 010/07 RMK AO2
14840KMKG MKG20070502103009505/02/07 10:30:31  5-MIN KMKG 021530Z 01005KT 10SM OVC031 13/06 A3013 440 61 400 020/05 RMK AO2
14840KMKG MKG20070502103509505/02/07 10:35:31  5-MIN KMKG 021535Z 35007KT 10SM OVC033 13/06 A3013 440 61 400 360/07 RMK AO2
14840KMKG MKG20070502104010205/02/07 10:40:31  5-MIN KMKG 021540Z 36007KT 10SM BKN033 OVC040 13/06 A3013 440 61 400 010/07 RMK AO2
14840KMKG MKG20070502104510205/02/07 10:45:31  5-MIN KMKG 021545Z 01008KT 10SM SCT033 OVC040 14/06 A3013 440 59 500 010/08 RMK AO2
14840KMKG MKG20070502105011905/02/07 10:50:31  5-MIN KMKG 021550Z 35009KT 10SM SCT033 OVC042 14/06 A3013 440 59 400 350/09 RMK AO2 SLP204 T01390061
14840KMKG MKG20070502105511905/02/07 10:55:31  5-MIN KMKG 021555Z 31006KT 10SM SCT033 BKN042 14/07 A3013 440 61 500 310/06 RMK AO2 SLP204 T01390067
14840KMKG MKG20070502110009505/02/07 11:00:31  5-MIN KMKG 021600Z VRB06KT 10SM BKN038 14/08 A3013 440 64 500 VRB/06 RMK AO2
14840KMKG MKG20070502110511805/02/07 11:05:31  5-MIN KMKG 021605Z 35007KT 320V040 10SM SCT034 BKN042 14/08 A3013 440 64 500 360/07 320V040 RMK AO2
14840KMKG MKG20070502111010205/02/07 11:10:31  5-MIN KMKG 021610Z 01008KT 10SM SCT034 BKN042 15/06 A3013 440 55 600 020/08 RMK AO2
14840KMKG MKG20070502111510205/02/07 11:15:31  5-MIN KMKG 021615Z 01008KT 10SM FEW034 SCT042 16/06 A3013 440 53 600 020/08 RMK AO2
14840KMKG MKG20070502112009505/02/07 11:20:31  5-MIN KMKG 021620Z 04007KT 10SM FEW034 16/06 A3013 440 53 600 040/07 RMK AO2
14840KMKG MKG20070502112509505/02/07 11:25:31  5-MIN KMKG 021625Z 03005KT 10SM SCT034 16/06 A3013 440 51 600 040/05 RMK AO2
14840KMKG MKG20070502113010105/02/07 11:30:31  5-MIN KMKG 021630Z 06010G14KT 10SM SCT034 16/06 A3013 440 51 700 060/10G14 RMK AO2
14840KMKG MKG20070502113510105/02/07 11:35:31  5-MIN KMKG 021635Z 02005G14KT 10SM SCT034 16/06 A3013 440 51 600 020/05G14 RMK AO2
14840KMKG MKG20070502114009505/02/07 11:40:31  5-MIN KMKG 021640Z 35008KT 10SM SCT034 16/06 A3013 440 51 600 360/08 RMK AO2
14840KMKG MKG20070502114509505/02/07 11:45:31  5-MIN KMKG 021645Z 00000KT 10SM SCT034 15/06 A3013 440 53 600 000/00 RMK AO2
14840KMKG MKG20070502115011205/02/07 11:50:31  5-MIN KMKG 021650Z 07006KT 10SM SCT038 16/06 A3013 430 53 600 080/06 RMK AO2 SLP204 T01560061
14840KMKG MKG20070502115512805/02/07 11:55:31  5-MIN KMKG 021655Z 06007KT 350V080 10SM SCT038 16/06 A3013 440 51 600 070/07 350V080 RMK AO2 SLP204 T01560056
14840KMKG MKG20070502120009505/02/07 12:00:31  5-MIN KMKG 021700Z 35008KT 10SM SCT038 16/06 A3013 440 49 700 360/08 RMK AO2
14840KMKG MKG20070502120509505/02/07 12:05:31  5-MIN KMKG 021705Z 01007KT 10SM SCT038 16/05 A3013 440 49 600 020/07 RMK AO2
14840KMKG MKG20070502121009505/02/07 12:10:31  5-MIN KMKG 021710Z 36008KT 10SM SCT038 16/06 A3013 440 49 700 010/08 RMK AO2
14840KMKG MKG20070502121509505/02/07 12:15:31  5-MIN KMKG 021715Z 36008KT 10SM SCT038 16/06 A3013 440 49 700 360/08 RMK AO2
14840KMKG MKG20070502122009505/02/07 12:20:31  5-MIN KMKG 021720Z 34011KT 10SM SCT038 17/06 A3013 440 47 800 350/11 RMK AO2
14840KMKG MKG20070502122509505/02/07 12:25:31  5-MIN KMKG 021725Z VRB06KT 10SM SCT038 16/06 A3013 440 51 700 VRB/06 RMK AO2
14840KMKG MKG20070502123009505/02/07 12:30:31  5-MIN KMKG 021730Z 28010KT 10SM BKN041 15/07 A3013 440 57 600 290/10 RMK AO2
14840KMKG MKG20070502123509505/02/07 12:35:31  5-MIN KMKG 021735Z 29011KT 10SM BKN041 14/07 A3013 440 61 500 290/11 RMK AO2
14840KMKG MKG20070502124009505/02/07 12:40:31  5-MIN KMKG 021740Z 27012KT 10SM BKN041 14/07 A3013 440 61 400 280/12 RMK AO2
14840KMKG MKG20070502124510605/02/07 12:45:31  5-MIN KMKG 021745Z 27010KT 10SM SCT041 14/07 A3013 440 61 400 270/10 RMK AO2 WSHFT 1729
14840KMKG MKG20070502125010605/02/07 12:50:31  5-MIN KMKG 021750Z 27009KT 10SM SCT041 14/07 A3013 440 61 500 280/09 RMK AO2 WSHFT 1729
14840KMKG MKG20070502125514105/02/07 12:55:31  5-MIN KMKG 021755Z 27010KT 10SM SCT043 14/07 A3013 440 61 400 280/10 RMK AO2 WSHFT 1729 SLP203 T01390067 10167 20111 50004
14840KMKG MKG20070502130009505/02/07 13:00:31  5-MIN KMKG 021800Z 28010KT 10SM SCT043 14/07 A3013 440 64 400 290/10 RMK AO2
14840KMKG MKG20070502130509505/02/07 13:05:31  5-MIN KMKG 021805Z 27010KT 10SM SCT043 14/07 A3013 440 61 400 270/10 RMK AO2
14840KMKG MKG20070502131009505/02/07 13:10:31  5-MIN KMKG 021810Z 27010KT 10SM SCT043 15/07 A3013 440 59 600 270/10 RMK AO2
14840KMKG MKG20070502131509505/02/07 13:15:31  5-MIN KMKG 021815Z 28010KT 10SM SCT043 16/07 A3013 440 57 600 290/10 RMK AO2
14840KMKG MKG20070502132009505/02/07 13:20:31  5-MIN KMKG 021820Z 29011KT 10SM SCT043 15/07 A3013 440 59 600 300/11 RMK AO2
14840KMKG MKG20070502132509505/02/07 13:25:31  5-MIN KMKG 021825Z 29011KT 10SM SCT045 14/07 A3012 440 61 500 290/11 RMK AO2
14840KMKG MKG20070502133009505/02/07 13:30:31  5-MIN KMKG 021830Z 29013KT 10SM FEW045 14/07 A3013 440 59 500 290/13 RMK AO2
14840KMKG MKG20070502133509505/02/07 13:35:31  5-MIN KMKG 021835Z 29010KT 10SM FEW045 14/07 A3012 440 59 500 290/10 RMK AO2
14840KMKG MKG20070502134009505/02/07 13:40:31  5-MIN KMKG 021840Z 31010KT 10SM SCT045 14/07 A3012 440 59 500 320/10 RMK AO2
14840KMKG MKG20070502134509505/02/07 13:45:31  5-MIN KMKG 021845Z 31011KT 10SM SCT045 15/07 A3012 440 57 600 320/11 RMK AO2
14840KMKG MKG20070502135011205/02/07 13:50:31  5-MIN KMKG 021850Z 31010KT 10SM SCT045 14/06 A3012 440 57 500 310/10 RMK AO2 SLP202 T01440061
14840KMKG MKG20070502135511205/02/07 13:55:31  5-MIN KMKG 021855Z 29011KT 10SM SCT045 14/06 A3012 440 59 500 300/11 RMK AO2 SLP201 T01390061
14840KMKG MKG20070502140009505/02/07 14:00:31  5-MIN KMKG 021900Z 30009KT 10SM SCT045 14/06 A3012 440 57 500 300/09 RMK AO2
14840KMKG MKG20070502140509505/02/07 14:05:31  5-MIN KMKG 021905Z 30009KT 10SM SCT045 15/06 A3012 450 55 600 300/09 RMK AO2
14840KMKG MKG20070502141009505/02/07 14:10:31  5-MIN KMKG 021910Z 29010KT 10SM SCT045 14/06 A3012 450 55 500 300/10 RMK AO2
14840KMKG MKG20070502141509505/02/07 14:15:31  5-MIN KMKG 021915Z 30008KT 10SM SCT045 14/06 A3012 450 55 500 300/08 RMK AO2
14840KMKG MKG20070502142009505/02/07 14:20:31  5-MIN KMKG 021920Z 29010KT 10SM SCT045 14/06 A3012 450 55 500 300/10 RMK AO2
14840KMKG MKG20070502142509505/02/07 14:25:31  5-MIN KMKG 021925Z 29009KT 10SM SCT045 15/05 A3012 440 51 600 300/09 RMK AO2
14840KMKG MKG20070502143009505/02/07 14:30:31  5-MIN KMKG 021930Z 30010KT 10SM SCT045 15/05 A3012 450 51 600 300/10 RMK AO2
14840KMKG MKG20070502143509505/02/07 14:35:31  5-MIN KMKG 021935Z 29011KT 10SM SCT045 15/04 A3012 450 49 600 300/11 RMK AO2
14840KMKG MKG20070502144009505/02/07 14:40:31  5-MIN KMKG 021940Z 29010KT 10SM SCT045 15/04 A3012 450 47 600 290/10 RMK AO2
14840KMKG MKG20070502144509505/02/07 14:45:31  5-MIN KMKG 021945Z 30008KT 10SM SCT045 15/04 A3012 450 49 600 300/08 RMK AO2
14840KMKG MKG20070502145011205/02/07 14:50:31  5-MIN KMKG 021950Z 31009KT 10SM SCT045 15/04 A3012 450 49 600 310/09 RMK AO2 SLP200 T01500044
14840KMKG MKG20070502145511205/02/07 14:55:31  5-MIN KMKG 021955Z 30010KT 10SM SCT045 16/04 A3012 450 47 700 310/10 RMK AO2 SLP199 T01560044
14840KMKG MKG20070502150009505/02/07 15:00:31  5-MIN KMKG 022000Z 30008KT 10SM FEW045 16/04 A3012 450 47 700 300/08 RMK AO2
14840KMKG MKG20070502150509505/02/07 15:05:31  5-MIN KMKG 022005Z 30008KT 10SM FEW045 15/04 A3011 450 49 600 310/08 RMK AO2
14840KMKG MKG20070502151009505/02/07 15:10:31  5-MIN KMKG 022010Z 30008KT 10SM FEW045 16/05 A3011 450 49 700 300/08 RMK AO2
14840KMKG MKG20070502151509505/02/07 15:15:31  5-MIN KMKG 022015Z 30010KT 10SM FEW045 15/05 A3011 450 51 600 310/10 RMK AO2
14840KMKG MKG20070502152009505/02/07 15:20:31  5-MIN KMKG 022020Z 31007KT 10SM FEW045 15/05 A3011 450 51 600 310/07 RMK AO2
14840KMKG MKG20070502152509505/02/07 15:25:31  5-MIN KMKG 022025Z 31009KT 10SM FEW045 16/05 A3011 450 49 700 310/09 RMK AO2
14840KMKG MKG20070502153009505/02/07 15:30:31  5-MIN KMKG 022030Z 30011KT 10SM FEW045 15/04 A3011 450 49 600 300/11 RMK AO2
14840KMKG MKG20070502153509505/02/07 15:35:31  5-MIN KMKG 022035Z 29010KT 10SM FEW045 15/05 A3011 450 51 600 300/10 RMK AO2
14840KMKG MKG20070502154009505/02/07 15:40:31  5-MIN KMKG 022040Z 29008KT 10SM FEW045 15/05 A3012 450 51 600 300/08 RMK AO2
14840KMKG MKG20070502154509505/02/07 15:45:31  5-MIN KMKG 022045Z 28008KT 10SM FEW045 15/05 A3011 450 51 600 290/08 RMK AO2
14840KMKG MKG20070502155011805/02/07 15:50:31  5-MIN KMKG 022050Z 29008KT 10SM FEW045 15/06 A3011 450 53 600 290/08 RMK AO2 SLP199 T01500056 50004
14840KMKG MKG20070502155511805/02/07 15:55:31  5-MIN KMKG 022055Z 29008KT 10SM FEW045 14/06 A3012 450 55 500 300/08 RMK AO2 SLP200 T01440056 56005
14840KMKG MKG20070502160009505/02/07 16:00:31  5-MIN KMKG 022100Z 29009KT 10SM FEW045 14/06 A3011 450 55 500 290/09 RMK AO2
14840KMKG MKG20070502160509505/02/07 16:05:31  5-MIN KMKG 022105Z 31008KT 10SM FEW045 14/06 A3011 450 55 500 310/08 RMK AO2
14840KMKG MKG20070502161009505/02/07 16:10:31  5-MIN KMKG 022110Z 28007KT 10SM FEW045 14/06 A3011 450 57 500 290/07 RMK AO2
14840KMKG MKG20070502161509505/02/07 16:15:31  5-MIN KMKG 022115Z 27007KT 10SM FEW045 14/06 A3011 450 57 500 270/07 RMK AO2
14840KMKG MKG20070502162009505/02/07 16:20:31  5-MIN KMKG 022120Z 29007KT 10SM FEW045 14/06 A3011 450 57 500 290/07 RMK AO2
14840KMKG MKG20070502162509505/02/07 16:25:31  5-MIN KMKG 022125Z 30007KT 10SM FEW045 14/06 A3011 450 57 500 300/07 RMK AO2
14840KMKG MKG20070502163009505/02/07 16:30:31  5-MIN KMKG 022130Z 29008KT 10SM FEW045 14/06 A3011 450 57 500 300/08 RMK AO2
14840KMKG MKG20070502163509505/02/07 16:35:31  5-MIN KMKG 022135Z 29008KT 10SM FEW045 14/06 A3011 450 57 500 300/08 RMK AO2
14840KMKG MKG20070502164009505/02/07 16:40:31  5-MIN KMKG 022140Z 30006KT 10SM FEW045 14/06 A3011 450 57 500 300/06 RMK AO2
14840KMKG MKG20070502164509505/02/07 16:45:31  5-MIN KMKG 022145Z 31007KT 10SM FEW045 15/06 A3011 460 55 600 310/07 RMK AO2
14840KMKG MKG20070502165011205/02/07 16:50:31  5-MIN KMKG 022150Z 29007KT 10SM FEW045 15/06 A3011 460 55 600 300/07 RMK AO2 SLP198 T01500061
14840KMKG MKG20070502165511205/02/07 16:55:31  5-MIN KMKG 022155Z 29008KT 10SM FEW045 15/06 A3011 450 55 600 290/08 RMK AO2 SLP198 T01500061
14840KMKG MKG20070502170009505/02/07 17:00:31  5-MIN KMKG 022200Z 27007KT 10SM FEW043 15/07 A3011 450 57 600 280/07 RMK AO2
14840KMKG MKG20070502170509505/02/07 17:05:31  5-MIN KMKG 022205Z 28008KT 10SM FEW043 15/06 A3011 450 55 600 290/08 RMK AO2
14840KMKG MKG20070502171009505/02/07 17:10:31  5-MIN KMKG 022210Z 28006KT 10SM FEW043 15/07 A3011 450 57 600 290/06 RMK AO2
14840KMKG MKG20070502171509505/02/07 17:15:31  5-MIN KMKG 022215Z 27007KT 10SM FEW043 14/07 A3011 450 59 500 270/07 RMK AO2
14840KMKG MKG20070502172009505/02/07 17:20:31  5-MIN KMKG 022220Z 29007KT 10SM FEW043 14/07 A3012 450 59 500 290/07 RMK AO2
14840KMKG MKG20070502172509505/02/07 17:25:31  5-MIN KMKG 022225Z 28007KT 10SM FEW043 14/06 A3012 450 59 500 280/07 RMK AO2
14840KMKG MKG20070502173009505/02/07 17:30:31  5-MIN KMKG 022230Z 28007KT 10SM FEW043 14/06 A3012 450 59 500 290/07 RMK AO2
14840KMKG MKG20070502173509505/02/07 17:35:31  5-MIN KMKG 022235Z 29007KT 10SM FEW043 14/06 A3012 450 59 500 290/07 RMK AO2
14840KMKG MKG20070502174009505/02/07 17:40:31  5-MIN KMKG 022240Z 26006KT 10SM FEW043 13/06 A3012 450 61 400 270/06 RMK AO2
14840KMKG MKG20070502174509505/02/07 17:45:31  5-MIN KMKG 022245Z 28006KT 10SM FEW043 13/06 A3012 450 61 400 280/06 RMK AO2
14840KMKG MKG20070502175011205/02/07 17:50:31  5-MIN KMKG 022250Z 29005KT 10SM FEW043 13/07 A3012 450 64 400 300/05 RMK AO2 SLP201 T01330067
14840KMKG MKG20070502175511205/02/07 17:55:31  5-MIN KMKG 022255Z 29006KT 10SM FEW043 14/07 A3012 450 61 500 300/06 RMK AO2 SLP201 T01390067
14840KMKG MKG20070502180009205/02/07 18:00:31  5-MIN KMKG 022300Z 28004KT 10SM CLR 13/07 A3012 450 64 400 280/04 RMK AO2
14840KMKG MKG20070502180509205/02/07 18:05:31  5-MIN KMKG 022305Z 28003KT 10SM CLR 13/06 A3012 440 61 400 280/03 RMK AO2
14840KMKG MKG20070502181009505/02/07 18:10:31  5-MIN KMKG 022310Z 26004KT 10SM FEW043 13/06 A3012 450 61 400 270/04 RMK AO2
14840KMKG MKG20070502181509505/02/07 18:15:31  5-MIN KMKG 022315Z 28003KT 10SM FEW055 13/07 A3012 440 64 400 290/03 RMK AO2
14840KMKG MKG20070502182009505/02/07 18:20:31  5-MIN KMKG 022320Z 27003KT 10SM FEW055 13/07 A3012 450 64 400 280/03 RMK AO2
14840KMKG MKG20070502182509505/02/07 18:25:31  5-MIN KMKG 022325Z 00000KT 10SM FEW055 13/07 A3012 450 64 400 000/00 RMK AO2
14840KMKG MKG20070502183009505/02/07 18:30:31  5-MIN KMKG 022330Z 00000KT 10SM FEW055 13/07 A3012 450 64 400 000/00 RMK AO2
14840KMKG MKG20070502183509505/02/07 18:35:31  5-MIN KMKG 022335Z 27003KT 10SM FEW055 13/07 A3012 440 64 400 280/03 RMK AO2
14840KMKG MKG20070502184009505/02/07 18:40:31  5-MIN KMKG 022340Z 27003KT 10SM FEW055 13/07 A3012 440 64 400 280/03 RMK AO2
14840KMKG MKG20070502184509505/02/07 18:45:31  5-MIN KMKG 022345Z 00000KT 10SM FEW055 13/07 A3012 440 64 400 000/00 RMK AO2
14840KMKG MKG20070502185013005/02/07 18:50:31  5-MIN KMKG 022350Z 00000KT 10SM FEW055 13/07 A3013 440 66 400 000/00 RMK AO2 SLP203 T01330072 10156 20133 56005
14840KMKG MKG20070502185513005/02/07 18:55:31  5-MIN KMKG 022355Z 00000KT 10SM FEW055 13/07 A3013 440 64 400 000/00 RMK AO2 SLP204 T01330067 10156 20133 53004
14840KMKG MKG20070502190009505/02/07 19:00:31  5-MIN KMKG 030000Z 00000KT 10SM FEW055 13/07 A3013 440 64 400 000/00 RMK AO2
14840KMKG MKG20070502190509505/02/07 19:05:31  5-MIN KMKG 030005Z 00000KT 10SM FEW055 13/07 A3013 440 69 300 000/00 RMK AO2
14840KMKG MKG20070502191009505/02/07 19:10:31  5-MIN KMKG 030010Z 00000KT 10SM FEW055 13/07 A3013 430 69 300 000/00 RMK AO2
14840KMKG MKG20070502191509505/02/07 19:15:31  5-MIN KMKG 030015Z 00000KT 10SM FEW055 12/07 A3013 430 71 200 000/00 RMK AO2
14840KMKG MKG20070502192009505/02/07 19:20:31  5-MIN KMKG 030020Z 00000KT 10SM FEW055 12/07 A3013 440 68 200 000/00 RMK AO2
14840KMKG MKG20070502192509505/02/07 19:25:31  5-MIN KMKG 030025Z 00000KT 10SM FEW055 13/07 A3013 430 66 300 000/00 RMK AO2
14840KMKG MKG20070502193009505/02/07 19:30:31  5-MIN KMKG 030030Z 00000KT 10SM FEW055 13/07 A3013 430 66 300 000/00 RMK AO2
14840KMKG MKG20070502193509505/02/07 19:35:31  5-MIN KMKG 030035Z 00000KT 10SM FEW055 13/07 A3014 430 66 300 000/00 RMK AO2
14840KMKG MKG20070502194009505/02/07 19:40:31  5-MIN KMKG 030040Z 00000KT 10SM FEW055 13/07 A3014 430 66 300 000/00 RMK AO2
14840KMKG MKG20070502194509505/02/07 19:45:31  5-MIN KMKG 030045Z 00000KT 10SM FEW055 12/07 A3014 430 68 200 000/00 RMK AO2
14840KMKG MKG20070502195011205/02/07 19:50:31  5-MIN KMKG 030050Z 00000KT 10SM FEW055 12/07 A3014 430 68 200 000/00 RMK AO2 SLP208 T01220067
14840KMKG MKG20070502195511205/02/07 19:55:31  5-MIN KMKG 030055Z 00000KT 10SM FEW055 12/07 A3014 430 68 200 000/00 RMK AO2 SLP209 T01220067
14840KMKG MKG20070502200009205/02/07 20:00:31  5-MIN KMKG 030100Z 00000KT 10SM CLR 12/07 A3014 430 71 200 000/00 RMK AO2
14840KMKG MKG20070502200509205/02/07 20:05:31  5-MIN KMKG 030105Z 00000KT 10SM CLR 12/07 A3014 420 74 200 000/00 RMK AO2
14840KMKG MKG20070502201009205/02/07 20:10:31  5-MIN KMKG 030110Z 00000KT 10SM CLR 11/07 A3015 420 77 100 000/00 RMK AO2
14840KMKG MKG20070502201509205/02/07 20:15:31  5-MIN KMKG 030115Z 09005KT 10SM CLR 12/07 A3015 420 71 200 100/05 RMK AO2
14840KMKG MKG20070502202009205/02/07 20:20:31  5-MIN KMKG 030120Z 10005KT 10SM CLR 13/06 A3015 420 61 400 100/05 RMK AO2
14840KMKG MKG20070502202509205/02/07 20:25:31  5-MIN KMKG 030125Z 09006KT 10SM CLR 13/06 A3015 420 61 400 100/06 RMK AO2
14840KMKG MKG20070502203009205/02/07 20:30:31  5-MIN KMKG 030130Z 09005KT 10SM CLR 13/06 A3015 420 61 400 090/05 RMK AO2
14840KMKG MKG20070502203509205/02/07 20:35:31  5-MIN KMKG 030135Z 09006KT 10SM CLR 13/06 A3015 420 61 400 100/06 RMK AO2
14840KMKG MKG20070502204009205/02/07 20:40:31  5-MIN KMKG 030140Z 09006KT 10SM CLR 13/06 A3016 410 61 400 090/06 RMK AO2
14840KMKG MKG20070502204509205/02/07 20:45:31  5-MIN KMKG 030145Z 09005KT 10SM CLR 13/06 A3016 410 61 300 100/05 RMK AO2
14840KMKG MKG20070502205010905/02/07 20:50:31  5-MIN KMKG 030150Z 09005KT 10SM CLR 13/06 A3016 410 61 300 090/05 RMK AO2 SLP216 T01330061
14840KMKG MKG20070502205510905/02/07 20:55:31  5-MIN KMKG 030155Z 10006KT 10SM CLR 13/06 A3017 400 61 300 100/06 RMK AO2 SLP216 T01330061
14840KMKG MKG20070502210009205/02/07 21:00:31  5-MIN KMKG 030200Z 09006KT 10SM CLR 13/06 A3017 400 61 300 100/06 RMK AO2
14840KMKG MKG20070502210509205/02/07 21:05:31  5-MIN KMKG 030205Z 09005KT 10SM CLR 13/06 A3017 400 63 300 100/05 RMK AO2
14840KMKG MKG20070502211009205/02/07 21:10:31  5-MIN KMKG 030210Z 09005KT 10SM CLR 13/06 A3017 400 63 300 100/05 RMK AO2
14840KMKG MKG20070502211509205/02/07 21:15:31  5-MIN KMKG 030215Z 09006KT 10SM CLR 13/06 A3017 400 63 300 090/06 RMK AO2
14840KMKG MKG20070502212009205/02/07 21:20:31  5-MIN KMKG 030220Z 09007KT 10SM CLR 13/06 A3017 400 63 300 090/07 RMK AO2
14840KMKG MKG20070502212509205/02/07 21:25:31  5-MIN KMKG 030225Z 09006KT 10SM CLR 13/06 A3017 400 63 300 090/06 RMK AO2
14840KMKG MKG20070502213009205/02/07 21:30:31  5-MIN KMKG 030230Z 09006KT 10SM CLR 13/06 A3017 400 63 300 090/06 RMK AO2
14840KMKG MKG20070502213509205/02/07 21:35:31  5-MIN KMKG 030235Z 09006KT 10SM CLR 13/06 A3018 390 63 300 100/06 RMK AO2
14840KMKG MKG20070502214009205/02/07 21:40:31  5-MIN KMKG 030240Z 09006KT 10SM CLR 13/06 A3018 390 63 300 100/06 RMK AO2
14840KMKG MKG20070502214509205/02/07 21:45:31  5-MIN KMKG 030245Z 09006KT 10SM CLR 13/06 A3018 390 63 300 100/06 RMK AO2
14840KMKG MKG20070502215011505/02/07 21:50:31  5-MIN KMKG 030250Z 09007KT 10SM CLR 13/06 A3018 390 63 300 100/07 RMK AO2 SLP220 T01280061 53004
14840KMKG MKG20070502215511505/02/07 21:55:31  5-MIN KMKG 030255Z 09008KT 10SM CLR 12/06 A3018 390 66 200 100/08 RMK AO2 SLP221 T01220061 52017
14840KMKG MKG20070502220009205/02/07 22:00:31  5-MIN KMKG 030300Z 10007KT 10SM CLR 13/06 A3018 390 63 300 100/07 RMK AO2
14840KMKG MKG20070502220509205/02/07 22:05:31  5-MIN KMKG 030305Z 09007KT 10SM CLR 12/06 A3018 390 66 200 090/07 RMK AO2
14840KMKG MKG20070502221009205/02/07 22:10:31  5-MIN KMKG 030310Z 09007KT 10SM CLR 12/06 A3018 390 66 200 100/07 RMK AO2
14840KMKG MKG20070502221509205/02/07 22:15:31  5-MIN KMKG 030315Z 09009KT 10SM CLR 12/06 A3018 390 66 200 100/09 RMK AO2
14840KMKG MKG20070502222009205/02/07 22:20:31  5-MIN KMKG 030320Z 09008KT 10SM CLR 12/06 A3018 390 63 200 090/08 RMK AO2
14840KMKG MKG20070502222509205/02/07 22:25:31  5-MIN KMKG 030325Z 09008KT 10SM CLR 12/06 A3019 390 63 200 100/08 RMK AO2
14840KMKG MKG20070502223009205/02/07 22:30:31  5-MIN KMKG 030330Z 09010KT 10SM CLR 12/06 A3019 380 63 200 100/10 RMK AO2
14840KMKG MKG20070502223509205/02/07 22:35:31  5-MIN KMKG 030335Z 10008KT 10SM CLR 12/06 A3019 380 63 200 100/08 RMK AO2
14840KMKG MKG20070502224009205/02/07 22:40:31  5-MIN KMKG 030340Z 09008KT 10SM CLR 12/05 A3019 380 61 200 100/08 RMK AO2
14840KMKG MKG20070502224509205/02/07 22:45:31  5-MIN KMKG 030345Z 09007KT 10SM CLR 12/05 A3019 380 63 100 100/07 RMK AO2
14840KMKG MKG20070502225010905/02/07 22:50:31  5-MIN KMKG 030350Z 09009KT 10SM CLR 12/05 A3019 380 63 100 090/09 RMK AO2 SLP225 T01170050
14840KMKG MKG20070502225510905/02/07 22:55:31  5-MIN KMKG 030355Z 09010KT 10SM CLR 12/04 A3019 380 61 100 100/10 RMK AO2 SLP226 T01170044
14840KMKG MKG20070502230009205/02/07 23:00:31  5-MIN KMKG 030400Z 09009KT 10SM CLR 12/04 A3019 380 61 100 090/09 RMK AO2
14840KMKG MKG20070502230509205/02/07 23:05:31  5-MIN KMKG 030405Z 09009KT 10SM CLR 12/04 A3019 380 61 100 090/09 RMK AO2
14840KMKG MKG20070502231009005/02/07 23:10:31  5-MIN KMKG 030410Z 08010KT 10SM CLR 11/04 A3019 380 61 0 090/10 RMK AO2
14840KMKG MKG20070502231509005/02/07 23:15:31  5-MIN KMKG 030415Z 09008KT 10SM CLR 11/04 A3019 380 61 0 090/08 RMK AO2
14840KMKG MKG20070502232009005/02/07 23:20:31  5-MIN KMKG 030420Z 08009KT 10SM CLR 11/03 A3020 380 58 0 090/09 RMK AO2
14840KMKG MKG20070502232509005/02/07 23:25:31  5-MIN KMKG 030425Z 08008KT 10SM CLR 11/04 A3019 380 63 0 080/08 RMK AO2
14840KMKG MKG20070502233009005/02/07 23:30:31  5-MIN KMKG 030430Z 08008KT 10SM CLR 11/05 A3020 370 68 0 090/08 RMK AO2
14840KMKG MKG20070502233509005/02/07 23:35:31  5-MIN KMKG 030435Z 09009KT 10SM CLR 11/04 A3020 370 63 0 090/09 RMK AO2
14840KMKG MKG20070502234009005/02/07 23:40:31  5-MIN KMKG 030440Z 08009KT 10SM CLR 11/03 A3020 370 61 0 080/09 RMK AO2
14840KMKG MKG20070502234509005/02/07 23:45:31  5-MIN KMKG 030445Z 09008KT 10SM CLR 11/03 A3020 370 58 0 090/08 RMK AO2
14840KMKG MKG20070502235012305/02/07 23:50:31  5-MIN KMKG 030450Z 08010G17KT 10SM CLR 11/02 A3020 370 56 0 090/10G17 RMK AO2 SLP228 T01060022 401670089
14840KMKG MKG20070502235512305/02/07 23:55:31  5-MIN KMKG 030455Z 08008G17KT 10SM CLR 11/02 A3020 370 56 0 080/08G17 RMK AO2 SLP228 T01060022 401670089
14840KMKG MKG20070503000009005/03/07 00:00:32  5-MIN KMKG 030500Z 07010KT 10SM CLR 11/02 A3020 370 56 0 080/10 RMK AO2
14840KMKG MKG20070503000509005/03/07 00:05:31  5-MIN KMKG 030505Z 08011KT 10SM CLR 11/02 A3020 370 56 0 080/11 RMK AO2
14840KMKG MKG20070503001009005/03/07 00:10:31  5-MIN KMKG 030510Z 07008KT 10SM CLR 10/02 A3020 370 58 0 070/08 RMK AO2
14840KMKG MKG20070503001509905/03/07 00:15:31  5-MIN KMKG 030515Z 07012G17KT 10SM CLR 10/02 A3020 370 58 -100 070/12G17 RMK AO2
14840KMKG MKG20070503002009905/03/07 00:20:31  5-MIN KMKG 030520Z 07010G17KT 10SM CLR 10/01 A3020 370 54 -100 080/10G17 RMK AO2
14840KMKG MKG20070503002509305/03/07 00:25:31  5-MIN KMKG 030525Z 07009KT 10SM CLR 10/01 A3020 370 54 -100 080/09 RMK AO2
14840KMKG MKG20070503003009305/03/07 00:30:31  5-MIN KMKG 030530Z 07011KT 10SM CLR 10/02 A3021 370 56 -100 080/11 RMK AO2
14840KMKG MKG20070503003509305/03/07 00:35:31  5-MIN KMKG 030535Z 07008KT 10SM CLR 09/01 A3021 360 56 -100 080/08 RMK AO2
14840KMKG MKG20070503004009305/03/07 00:40:31  5-MIN KMKG 030540Z 08008KT 10SM CLR 09/01 A3021 360 56 -100 080/08 RMK AO2
14840KMKG MKG20070503004509305/03/07 00:45:31  5-MIN KMKG 030545Z 08009KT 10SM CLR 09/01 A3021 360 53 -100 080/09 RMK AO2
14840KMKG MKG20070503005012805/03/07 00:50:31  5-MIN KMKG 030550Z 09008KT 10SM CLR 09/01 A3021 360 53 -100 090/08 RMK AO2 SLP232 T00940006 10133 20094 52017
14840KMKG MKG20070503005512805/03/07 00:55:31  5-MIN KMKG 030555Z 08007KT 10SM CLR 09/01 A3021 360 53 -100 090/07 RMK AO2 SLP233 T00940006 10133 20094 51010
14840KMKG MKG20070503010009305/03/07 01:00:31  5-MIN KMKG 030600Z 08008KT 10SM CLR 09/01 A3021 360 53 -100 080/08 RMK AO2
14840KMKG MKG20070503010509305/03/07 01:05:31  5-MIN KMKG 030605Z 08007KT 10SM CLR 09/01 A3021 360 56 -200 080/07 RMK AO2
14840KMKG MKG20070503011009305/03/07 01:10:31  5-MIN KMKG 030610Z 08008KT 10SM CLR 09/01 A3021 360 53 -100 080/08 RMK AO2
14840KMKG MKG20070503011509305/03/07 01:15:31  5-MIN KMKG 030615Z 08008KT 10SM CLR 09/01 A3021 360 56 -200 080/08 RMK AO2
14840KMKG MKG20070503012009305/03/07 01:20:31  5-MIN KMKG 030620Z 08009KT 10SM CLR 09/01 A3021 360 56 -200 080/09 RMK AO2
14840KMKG MKG20070503012509305/03/07 01:25:31  5-MIN KMKG 030625Z 08008KT 10SM CLR 09/01 A3022 360 56 -200 090/08 RMK AO2
14840KMKG MKG20070503013009305/03/07 01:30:31  5-MIN KMKG 030630Z 08008KT 10SM CLR 09/01 A3021 360 56 -200 080/08 RMK AO2
14840KMKG MKG20070503013509305/03/07 01:35:31  5-MIN KMKG 030635Z 08007KT 10SM CLR 09/01 A3021 360 58 -200 080/07 RMK AO2
14840KMKG MKG20070503014009305/03/07 01:40:31  5-MIN KMKG 030640Z 08008KT 10SM CLR 08/01 A3021 360 60 -300 080/08 RMK AO2
14840KMKG MKG20070503014509305/03/07 01:45:31  5-MIN KMKG 030645Z 08008KT 10SM CLR 09/01 A3021 360 58 -200 090/08 RMK AO2
14840KMKG MKG20070503015011005/03/07 01:50:31  5-MIN KMKG 030650Z 08007KT 10SM CLR 08/01 A3021 360 60 -300 080/07 RMK AO2 SLP233 T00830011
14840KMKG MKG20070503015511005/03/07 01:55:31  5-MIN KMKG 030655Z 07006KT 10SM CLR 08/01 A3021 360 60 -300 080/06 RMK AO2 SLP233 T00830011
14840KMKG MKG20070503020009305/03/07 02:00:31  5-MIN KMKG 030700Z 07007KT 10SM CLR 08/01 A3021 360 62 -300 080/07 RMK AO2
14840KMKG MKG20070503020509305/03/07 02:05:31  5-MIN KMKG 030705Z 08006KT 10SM CLR 08/01 A3021 360 62 -300 080/06 RMK AO2
14840KMKG MKG20070503021009305/03/07 02:10:31  5-MIN KMKG 030710Z 08006KT 10SM CLR 08/01 A3021 360 62 -300 080/06 RMK AO2
14840KMKG MKG20070503021509305/03/07 02:15:31  5-MIN KMKG 030715Z 07006KT 10SM CLR 08/01 A3021 360 62 -300 080/06 RMK AO2
14840KMKG MKG20070503022009305/03/07 02:20:31  5-MIN KMKG 030720Z 08005KT 10SM CLR 08/01 A3021 360 62 -300 080/05 RMK AO2
14840KMKG MKG20070503022509305/03/07 02:25:31  5-MIN KMKG 030725Z 09005KT 10SM CLR 08/01 A3021 360 62 -300 090/05 RMK AO2
14840KMKG MKG20070503023009305/03/07 02:30:31  5-MIN KMKG 030730Z 08006KT 10SM CLR 08/01 A3021 360 62 -300 090/06 RMK AO2
14840KMKG MKG20070503023509305/03/07 02:35:31  5-MIN KMKG 030735Z 08006KT 10SM CLR 08/01 A3022 360 62 -300 090/06 RMK AO2
14840KMKG MKG20070503024009305/03/07 02:40:31  5-MIN KMKG 030740Z 07007KT 10SM CLR 08/01 A3022 360 62 -300 080/07 RMK AO2
14840KMKG MKG20070503024509305/03/07 02:45:31  5-MIN KMKG 030745Z 07006KT 10SM CLR 07/01 A3022 360 65 -400 070/06 RMK AO2
14840KMKG MKG20070503025011005/03/07 02:50:31  5-MIN KMKG 030750Z 07006KT 10SM CLR 07/01 A3022 360 67 -500 070/06 RMK AO2 SLP234 T00670011
14840KMKG MKG20070503025511005/03/07 02:55:31  5-MIN KMKG 030755Z 07006KT 10SM CLR 07/01 A3022 360 67 -500 080/06 RMK AO2 SLP234 T00670011
14840KMKG MKG20070503030009305/03/07 03:00:31  5-MIN KMKG 030800Z 07006KT 10SM CLR 07/01 A3022 360 67 -500 070/06 RMK AO2
14840KMKG MKG20070503030509305/03/07 03:05:31  5-MIN KMKG 030805Z 06007KT 10SM CLR 07/01 A3022 360 67 -500 070/07 RMK AO2
14840KMKG MKG20070503031009305/03/07 03:10:31  5-MIN KMKG 030810Z 07007KT 10SM CLR 07/02 A3022 360 70 -500 070/07 RMK AO2
14840KMKG MKG20070503031509305/03/07 03:15:31  5-MIN KMKG 030815Z 07007KT 10SM CLR 07/01 A3022 360 67 -500 070/07 RMK AO2
14840KMKG MKG20070503032009305/03/07 03:20:31  5-MIN KMKG 030820Z 06007KT 10SM CLR 07/02 A3022 360 70 -500 070/07 RMK AO2
14840KMKG MKG20070503032509305/03/07 03:25:31  5-MIN KMKG 030825Z 07007KT 10SM CLR 07/02 A3022 360 70 -500 070/07 RMK AO2
14840KMKG MKG20070503033009305/03/07 03:30:31  5-MIN KMKG 030830Z 07006KT 10SM CLR 07/02 A3022 350 70 -500 080/06 RMK AO2
14840KMKG MKG20070503033509305/03/07 03:35:31  5-MIN KMKG 030835Z 07006KT 10SM CLR 07/01 A3022 350 67 -500 070/06 RMK AO2
14840KMKG MKG20070503034009305/03/07 03:40:31  5-MIN KMKG 030840Z 07006KT 10SM CLR 06/02 A3022 350 73 -500 070/06 RMK AO2
14840KMKG MKG20070503034509305/03/07 03:45:31  5-MIN KMKG 030845Z 07007KT 10SM CLR 07/02 A3022 350 70 -500 070/07 RMK AO2
14840KMKG MKG20070503035011605/03/07 03:50:31  5-MIN KMKG 030850Z 07007KT 10SM CLR 07/02 A3022 350 70 -500 070/07 RMK AO2 SLP237 T00670017 51010
14840KMKG MKG20070503035511605/03/07 03:55:31  5-MIN KMKG 030855Z 07006KT 10SM CLR 07/02 A3023 350 70 -500 080/06 RMK AO2 SLP238 T00670017 53004
14840KMKG MKG20070503040009305/03/07 04:00:31  5-MIN KMKG 030900Z 07007KT 10SM CLR 06/02 A3023 350 73 -500 080/07 RMK AO2
14840KMKG MKG20070503040509305/03/07 04:05:31  5-MIN KMKG 030905Z 07007KT 10SM CLR 06/02 A3023 350 73 -500 080/07 RMK AO2
14840KMKG MKG20070503041009305/03/07 04:10:31  5-MIN KMKG 030910Z 08007KT 10SM CLR 07/02 A3023 350 70 -500 080/07 RMK AO2
14840KMKG MKG20070503041509305/03/07 04:15:31  5-MIN KMKG 030915Z 08007KT 10SM CLR 06/02 A3023 350 73 -600 080/07 RMK AO2
14840KMKG MKG20070503042009305/03/07 04:20:31  5-MIN KMKG 030920Z 07007KT 10SM CLR 06/02 A3023 350 73 -600 080/07 RMK AO2
14840KMKG MKG20070503042509305/03/07 04:25:31  5-MIN KMKG 030925Z 07007KT 10SM CLR 06/02 A3023 350 73 -600 070/07 RMK AO2
14840KMKG MKG20070503043009305/03/07 04:30:31  5-MIN KMKG 030930Z 07006KT 10SM CLR 06/02 A3023 350 73 -600 080/06 RMK AO2
14840KMKG MKG20070503043509305/03/07 04:35:31  5-MIN KMKG 030935Z 07006KT 10SM CLR 06/02 A3023 350 73 -600 080/06 RMK AO2
14840KMKG MKG20070503044009305/03/07 04:40:31  5-MIN KMKG 030940Z 08007KT 10SM CLR 06/02 A3023 350 73 -600 080/07 RMK AO2
14840KMKG MKG20070503044509305/03/07 04:45:31  5-MIN KMKG 030945Z 08007KT 10SM CLR 06/02 A3023 350 73 -600 080/07 RMK AO2
14840KMKG MKG20070503045011005/03/07 04:50:31  5-MIN KMKG 030950Z 07006KT 10SM CLR 06/02 A3023 350 73 -600 080/06 RMK AO2 SLP239 T00610017
14840KMKG MKG20070503045511005/03/07 04:55:31  5-MIN KMKG 030955Z 07006KT 10SM CLR 06/02 A3023 350 73 -600 080/06 RMK AO2 SLP239 T00610017
14840KMKG MKG20070503050009305/03/07 05:00:31  5-MIN KMKG 031000Z 07005KT 10SM CLR 06/02 A3023 350 76 -600 080/05 RMK AO2
14840KMKG MKG20070503050509305/03/07 05:05:31  5-MIN KMKG 031005Z 07005KT 10SM CLR 06/02 A3023 350 76 -600 070/05 RMK AO2
14840KMKG MKG20070503051009305/03/07 05:10:31  5-MIN KMKG 031010Z 07005KT 10SM CLR 06/02 A3023 350 76 -600 070/05 RMK AO2
14840KMKG MKG20070503051509305/03/07 05:15:31  5-MIN KMKG 031015Z 07006KT 10SM CLR 06/02 A3023 340 76 -600 070/06 RMK AO2
14840KMKG MKG20070503052009305/03/07 05:20:31  5-MIN KMKG 031020Z 07007KT 10SM CLR 06/02 A3023 350 76 -600 070/07 RMK AO2
14840KMKG MKG20070503052509305/03/07 05:25:31  5-MIN KMKG 031025Z 07006KT 10SM CLR 06/02 A3023 350 76 -600 070/06 RMK AO2
14840KMKG MKG20070503053009305/03/07 05:30:31  5-MIN KMKG 031030Z 07006KT 10SM CLR 06/02 A3023 340 79 -600 070/06 RMK AO2
14840KMKG MKG20070503053509305/03/07 05:35:31  5-MIN KMKG 031035Z 07006KT 10SM CLR 06/02 A3023 340 79 -600 070/06 RMK AO2
14840KMKG MKG20070503054009305/03/07 05:40:31  5-MIN KMKG 031040Z 07006KT 10SM CLR 06/02 A3023 340 79 -600 070/06 RMK AO2
14840KMKG MKG20070503054509305/03/07 05:45:31  5-MIN KMKG 031045Z 07005KT 10SM CLR 06/02 A3023 340 79 -600 080/05 RMK AO2
14840KMKG MKG20070503055011005/03/07 05:50:31  5-MIN KMKG 031050Z 07005KT 10SM CLR 06/02 A3023 340 79 -600 080/05 RMK AO2 SLP241 T00560022
14840KMKG MKG20070503055511005/03/07 05:55:31  5-MIN KMKG 031055Z 07006KT 10SM CLR 06/03 A3024 340 82 -600 080/06 RMK AO2 SLP241 T00560028
14840KMKG MKG20070503060009305/03/07 06:00:31  5-MIN KMKG 031100Z 07006KT 10SM CLR 06/03 A3024 340 79 -600 070/06 RMK AO2
14840KMKG MKG20070503060509305/03/07 06:05:31  5-MIN KMKG 031105Z 07006KT 10SM CLR 06/03 A3024 340 79 -600 070/06 RMK AO2
14840KMKG MKG20070503061009305/03/07 06:10:31  5-MIN KMKG 031110Z 07006KT 10SM CLR 06/03 A3024 340 79 -600 080/06 RMK AO2
14840KMKG MKG20070503061509305/03/07 06:15:31  5-MIN KMKG 031115Z 07006KT 10SM CLR 07/03 A3024 340 79 -500 080/06 RMK AO2
14840KMKG MKG20070503062009305/03/07 06:20:31  5-MIN KMKG 031120Z 07006KT 10SM CLR 07/03 A3024 330 79 -500 080/06 RMK AO2
14840KMKG MKG20070503062509305/03/07 06:25:31  5-MIN KMKG 031125Z 07006KT 10SM CLR 07/03 A3025 330 79 -500 080/06 RMK AO2
14840KMKG MKG20070503063009305/03/07 06:30:31  5-MIN KMKG 031130Z 07007KT 10SM CLR 07/03 A3025 330 76 -400 080/07 RMK AO2
14840KMKG MKG20070503063509305/03/07 06:35:31  5-MIN KMKG 031135Z 07008KT 10SM CLR 07/03 A3025 330 76 -400 080/08 RMK AO2
14840KMKG MKG20070503064009305/03/07 06:40:31  5-MIN KMKG 031140Z 07008KT 10SM CLR 08/03 A3025 330 73 -400 080/08 RMK AO2
14840KMKG MKG20070503064509305/03/07 06:45:31  5-MIN KMKG 031145Z 08009KT 10SM CLR 08/03 A3025 330 73 -400 080/09 RMK AO2
14840KMKG MKG20070503065012805/03/07 06:50:31  5-MIN KMKG 031150Z 07008KT 10SM CLR 08/03 A3025 330 73 -400 080/08 RMK AO2 SLP246 T00780033 10094 20056 53004
14840KMKG MKG20070503065512805/03/07 06:55:31  5-MIN KMKG 031155Z 08009KT 10SM CLR 08/03 A3025 330 70 -300 080/09 RMK AO2 SLP246 T00830033 10094 20056 53008
14840KMKG MKG20070503070009305/03/07 07:00:31  5-MIN KMKG 031200Z 08010KT 10SM CLR 08/03 A3025 320 70 -300 080/10 RMK AO2
14840KMKG MKG20070503070509305/03/07 07:05:31  5-MIN KMKG 031205Z 07009KT 10SM CLR 09/03 A3025 320 68 -200 080/09 RMK AO2
14840KMKG MKG20070503071009305/03/07 07:10:31  5-MIN KMKG 031210Z 08010KT 10SM CLR 09/03 A3025 320 68 -200 080/10 RMK AO2
14840KMKG MKG20070503071509305/03/07 07:15:31  5-MIN KMKG 031215Z 08008KT 10SM CLR 09/03 A3026 320 65 -200 080/08 RMK AO2
14840KMKG MKG20070503072009305/03/07 07:20:31  5-MIN KMKG 031220Z 07009KT 10SM CLR 09/03 A3026 320 65 -200 080/09 RMK AO2
14840KMKG MKG20070503072509305/03/07 07:25:31  5-MIN KMKG 031225Z 08010KT 10SM CLR 09/03 A3026 320 65 -200 080/10 RMK AO2
14840KMKG MKG20070503073009305/03/07 07:30:31  5-MIN KMKG 031230Z 08010KT 10SM CLR 10/03 A3026 320 63 -100 080/10 RMK AO2
14840KMKG MKG20070503073509305/03/07 07:35:31  5-MIN KMKG 031235Z 07009KT 10SM CLR 10/03 A3026 320 63 -100 080/09 RMK AO2
14840KMKG MKG20070503074009005/03/07 07:40:31  5-MIN KMKG 031240Z 09010KT 10SM CLR 11/03 A3026 320 61 0 090/10 RMK AO2
14840KMKG MKG20070503074509005/03/07 07:45:31  5-MIN KMKG 031245Z 09010KT 10SM CLR 11/03 A3026 320 61 0 090/10 RMK AO2
14840KMKG MKG20070503075010705/03/07 07:50:31  5-MIN KMKG 031250Z 08010KT 10SM CLR 11/03 A3026 320 58 0 090/10 RMK AO2 SLP248 T01060028
14840KMKG MKG20070503075511305/03/07 07:55:31  5-MIN KMKG 031255Z 08012G17KT 10SM CLR 11/03 A3026 320 56 0 080/12G17 RMK AO2 SLP249 T01110028
14840KMKG MKG20070503080009005/03/07 08:00:31  5-MIN KMKG 031300Z 09009KT 10SM CLR 11/03 A3026 320 56 0 090/09 RMK AO2
14840KMKG MKG20070503080509605/03/07 08:05:31  5-MIN KMKG 031305Z 09010G16KT 10SM CLR 12/03 A3026 310 56 0 090/10G16 RMK AO2
14840KMKG MKG20070503081009605/03/07 08:10:31  5-MIN KMKG 031310Z 09014G20KT 10SM CLR 11/03 A3026 310 56 0 100/14G20 RMK AO2
14840KMKG MKG20070503081509605/03/07 08:15:31  5-MIN KMKG 031315Z 09011G20KT 10SM CLR 11/03 A3026 310 56 0 090/11G20 RMK AO2
14840KMKG MKG20070503082009005/03/07 08:20:31  5-MIN KMKG 031320Z 08012KT 10SM CLR 12/03 A3026 320 54 0 080/12 RMK AO2
14840KMKG MKG20070503082509805/03/07 08:25:31  5-MIN KMKG 031325Z 08014G18KT 10SM CLR 12/03 A3026 320 52 100 080/14G18 RMK AO2
14840KMKG MKG20070503083009805/03/07 08:30:31  5-MIN KMKG 031330Z 10011G18KT 10SM CLR 12/03 A3026 320 52 100 100/11G18 RMK AO2
14840KMKG MKG20070503083509205/03/07 08:35:31  5-MIN KMKG 031335Z 09010KT 10SM CLR 12/03 A3026 320 54 100 090/10 RMK AO2
14840KMKG MKG20070503084009805/03/07 08:40:31  5-MIN KMKG 031340Z 09014G19KT 10SM CLR 12/03 A3026 320 54 100 100/14G19 RMK AO2
14840KMKG MKG20070503084509805/03/07 08:45:31  5-MIN KMKG 031345Z 08013G19KT 10SM CLR 12/03 A3026 320 54 100 080/13G19 RMK AO2
14840KMKG MKG20070503085010905/03/07 08:50:31  5-MIN KMKG 031350Z 08012KT 10SM CLR 12/03 A3026 320 54 100 090/12 RMK AO2 SLP248 T01220033
14840KMKG MKG20070503085510905/03/07 08:55:31  5-MIN KMKG 031355Z 08012KT 10SM CLR 13/03 A3026 320 52 200 080/12 RMK AO2 SLP247 T01280033
14840KMKG MKG20070503090009205/03/07 09:00:31  5-MIN KMKG 031400Z 08012KT 10SM CLR 13/03 A3026 320 52 200 090/12 RMK AO2
14840KMKG MKG20070503090509205/03/07 09:05:31  5-MIN KMKG 031405Z 08011KT 10SM CLR 13/03 A3026 320 52 200 080/11 RMK AO2
14840KMKG MKG20070503091009205/03/07 09:10:31  5-MIN KMKG 031410Z 09010KT 10SM CLR 13/04 A3026 320 52 200 100/10 RMK AO2
14840KMKG MKG20070503091509805/03/07 09:15:31  5-MIN KMKG 031415Z 09010G17KT 10SM CLR 14/04 A3025 320 50 300 100/10G17 RMK AO2
14840KMKG MKG20070503092009805/03/07 09:20:31  5-MIN KMKG 031420Z 09011G17KT 10SM CLR 13/04 A3025 330 52 200 100/11G17 RMK AO2
14840KMKG MKG20070503092509805/03/07 09:25:31  5-MIN KMKG 031425Z 10010G17KT 10SM CLR 14/04 A3025 320 50 300 100/10G17 RMK AO2
14840KMKG MKG20070503093009205/03/07 09:30:31  5-MIN KMKG 031430Z 09011KT 10SM CLR 14/04 A3025 320 50 300 090/11 RMK AO2
14840KMKG MKG20070503093509205/03/07 09:35:31  5-MIN KMKG 031435Z 09011KT 10SM CLR 14/04 A3026 320 50 300 090/11 RMK AO2
14840KMKG MKG20070503094009205/03/07 09:40:31  5-MIN KMKG 031440Z 08011KT 10SM CLR 14/04 A3025 320 50 300 090/11 RMK AO2
14840KMKG MKG20070503094509205/03/07 09:45:31  5-MIN KMKG 031445Z 07012KT 10SM CLR 14/04 A3026 320 51 400 070/12 RMK AO2
14840KMKG MKG20070503095011505/03/07 09:50:31  5-MIN KMKG 031450Z 08011KT 10SM CLR 15/04 A3025 320 49 400 090/11 RMK AO2 SLP245 T01500044 53008
14840KMKG MKG20070503095511505/03/07 09:55:31  5-MIN KMKG 031455Z 09010KT 10SM CLR 15/04 A3025 320 49 400 090/10 RMK AO2 SLP245 T01500044 50001
14840KMKG MKG20070503100009205/03/07 10:00:31  5-MIN KMKG 031500Z 11009KT 10SM CLR 15/04 A3025 330 49 400 110/09 RMK AO2
14840KMKG MKG20070503100509205/03/07 10:05:31  5-MIN KMKG 031505Z 08007KT 10SM CLR 15/05 A3025 330 51 400 080/07 RMK AO2
14840KMKG MKG20070503101009205/03/07 10:10:31  5-MIN KMKG 031510Z 07011KT 10SM CLR 16/05 A3025 330 49 500 070/11 RMK AO2
14840KMKG MKG20070503101509205/03/07 10:15:31  5-MIN KMKG 031515Z 08008KT 10SM CLR 16/05 A3025 330 49 500 090/08 RMK AO2
14840KMKG MKG20070503102009205/03/07 10:20:31  5-MIN KMKG 031520Z 08010KT 10SM CLR 16/05 A3025 330 49 500 080/10 RMK AO2
14840KMKG MKG20070503102509805/03/07 10:25:31  5-MIN KMKG 031525Z 08010G16KT 10SM CLR 16/05 A3025 330 47 600 080/10G16 RMK AO2
14840KMKG MKG20070503103009205/03/07 10:30:31  5-MIN KMKG 031530Z 09009KT 10SM CLR 16/04 A3025 330 45 600 090/09 RMK AO2
14840KMKG MKG20070503103509205/03/07 10:35:31  5-MIN KMKG 031535Z 08009KT 10SM CLR 16/05 A3025 330 47 600 080/09 RMK AO2
14840KMKG MKG20070503104009805/03/07 10:40:31  5-MIN KMKG 031540Z 11013G18KT 10SM CLR 17/05 A3025 330 45 600 110/13G18 RMK AO2
14840KMKG MKG20070503104509805/03/07 10:45:31  5-MIN KMKG 031545Z 12014G18KT 10SM CLR 16/04 A3025 330 45 600 120/14G18 RMK AO2
14840KMKG MKG20070503105010905/03/07 10:50:31  5-MIN KMKG 031550Z 10011KT 10SM CLR 17/05 A3025 330 45 600 100/11 RMK AO2 SLP244 T01670050
14840KMKG MKG20070503105511505/03/07 10:55:31  5-MIN KMKG 031555Z 10013G19KT 10SM CLR 17/05 A3025 330 44 700 100/13G19 RMK AO2 SLP244 T01720050
14840KMKG MKG20070503110009805/03/07 11:00:31  5-MIN KMKG 031600Z 13013G19KT 10SM CLR 17/05 A3024 330 45 600 130/13G19 RMK AO2
14840KMKG MKG20070503110509805/03/07 11:05:31  5-MIN KMKG 031605Z 12010G18KT 10SM CLR 17/05 A3024 330 45 600 120/10G18 RMK AO2
14840KMKG MKG20070503111009805/03/07 11:10:31  5-MIN KMKG 031610Z 13013G20KT 10SM CLR 17/06 A3024 330 46 700 130/13G20 RMK AO2
14840KMKG MKG20070503111509805/03/07 11:15:31  5-MIN KMKG 031615Z 11010G20KT 10SM CLR 17/05 A3024 340 44 700 120/10G20 RMK AO2
14840KMKG MKG20070503112009805/03/07 11:20:31  5-MIN KMKG 031620Z 09012G19KT 10SM CLR 17/06 A3024 340 46 700 100/12G19 RMK AO2
14840KMKG MKG20070503112509205/03/07 11:25:31  5-MIN KMKG 031625Z 10012KT 10SM CLR 17/05 A3024 340 44 700 110/12 RMK AO2
14840KMKG MKG20070503113009805/03/07 11:30:31  5-MIN KMKG 031630Z 10009G18KT 10SM CLR 17/06 A3024 340 46 700 110/09G18 RMK AO2
14840KMKG MKG20070503113509805/03/07 11:35:31  5-MIN KMKG 031635Z 10011G17KT 10SM CLR 18/05 A3023 340 42 800 100/11G17 RMK AO2
14840KMKG MKG20070503114009805/03/07 11:40:31  5-MIN KMKG 031640Z 11014G19KT 10SM CLR 18/05 A3023 340 42 800 110/14G19 RMK AO2
14840KMKG MKG20070503114509805/03/07 11:45:31  5-MIN KMKG 031645Z 11014G22KT 10SM CLR 18/05 A3023 350 42 800 120/14G22 RMK AO2
14840KMKG MKG20070503115011805/03/07 11:50:31  5-MIN KMKG 031650Z 11015G22KT 10SM FEW055 18/04 A3023 340 41 800 120/15G22 RMK AO2 SLP238 T01780044
14840KMKG MKG20070503115511805/03/07 11:55:31  5-MIN KMKG 031655Z 12012G21KT 10SM FEW055 18/04 A3023 340 41 800 120/12G21 RMK AO2 SLP238 T01780044
14840KMKG MKG20070503120010105/03/07 12:00:31  5-MIN KMKG 031700Z 08014G21KT 10SM FEW055 18/04 A3023 340 41 800 090/14G21 RMK AO2
14840KMKG MKG20070503120510105/03/07 12:05:31  5-MIN KMKG 031705Z 10012G20KT 10SM FEW055 18/04 A3023 350 41 800 110/12G20 RMK AO2
14840KMKG MKG20070503121010105/03/07 12:10:31  5-MIN KMKG 031710Z 08016G20KT 10SM FEW055 18/04 A3023 340 39 900 080/16G20 RMK AO2
14840KMKG MKG20070503121510105/03/07 12:15:31  5-MIN KMKG 031715Z 12017G20KT 10SM FEW055 18/04 A3023 350 38 900 130/17G20 RMK AO2
14840KMKG MKG20070503122010105/03/07 12:20:31  5-MIN KMKG 031720Z 09013G22KT 10SM FEW055 18/04 A3023 340 39 900 090/13G22 RMK AO2
14840KMKG MKG20070503122511905/03/07 12:25:31  5-MIN KMKG 031725Z 09014G27KT 10SM FEW055 18/03 A3023 350 36 900 090/14G27 RMK AO2 PK WND 10027/1721
14840KMKG MKG20070503123011905/03/07 12:30:31  5-MIN KMKG 031730Z 10013G27KT 10SM FEW055 19/04 A3022 350 36 900 110/13G27 RMK AO2 PK WND 10027/1721
14840KMKG MKG20070503123511905/03/07 12:35:31  5-MIN KMKG 031735Z 10014G20KT 10SM FEW055 18/04 A3022 350 38 900 110/14G20 RMK AO2 PK WND 10027/1721
14840KMKG MKG20070503124011905/03/07 12:40:31  5-MIN KMKG 031740Z 10013G21KT 10SM FEW055 19/04 A3023 350 36 900 100/13G21 RMK AO2 PK WND 10027/1721
14840KMKG MKG20070503124511905/03/07 12:45:31  5-MIN KMKG 031745Z 11016G21KT 10SM FEW055 19/04 A3022 350 36 900 110/16G21 RMK AO2 PK WND 10027/1721
14840KMKG MKG20070503125015105/03/07 12:50:31  5-MIN KMKG 031750Z 12011G21KT 10SM CLR 19/03 A3022 360 35 900 120/11G21 RMK AO2 PK WND 10027/1721 SLP234 T01890033 10189 20083 50001
14840KMKG MKG20070503125515105/03/07 12:55:31  5-MIN KMKG 031755Z 07011G19KT 10SM CLR 19/03 A3022 360 35 900 080/11G19 RMK AO2 PK WND 10027/1721 SLP234 T01890033 10189 20083 58012
14840KMKG MKG20070503130009905/03/07 13:00:31  5-MIN KMKG 031800Z 10016G20KT 10SM CLR 19/04 A3022 350 35 1000 100/16G20 RMK AO2
14840KMKG MKG20070503130509905/03/07 13:05:31  5-MIN KMKG 031805Z 08013G21KT 10SM CLR 19/03 A3022 360 34 1000 090/13G21 RMK AO2
14840KMKG MKG20070503131009905/03/07 13:10:31  5-MIN KMKG 031810Z 09015G21KT 10SM CLR 19/03 A3022 350 34 1000 100/15G21 RMK AO2
14840KMKG MKG20070503131509205/03/07 13:15:31  5-MIN KMKG 031815Z 10015KT 10SM CLR 19/03 A3022 360 35 900 100/15 RMK AO2
14840KMKG MKG20070503132009805/03/07 13:20:31  5-MIN KMKG 031820Z 12013G19KT 10SM CLR 19/03 A3022 360 35 900 130/13G19 RMK AO2
14840KMKG MKG20070503132509805/03/07 13:25:31  5-MIN KMKG 031825Z 10016G20KT 10SM CLR 19/03 A3022 360 35 900 100/16G20 RMK AO2
14840KMKG MKG20070503133009905/03/07 13:30:31  5-MIN KMKG 031830Z 09011G20KT 10SM CLR 19/04 A3021 360 35 1000 090/11G20 RMK AO2
14840KMKG MKG20070503133509905/03/07 13:35:31  5-MIN KMKG 031835Z 10011G22KT 10SM CLR 19/03 A3021 360 34 1000 100/11G22 RMK AO2
14840KMKG MKG20070503134009805/03/07 13:40:31  5-MIN KMKG 031840Z 13012G22KT 10SM CLR 19/03 A3021 360 35 900 130/12G22 RMK AO2
14840KMKG MKG20070503134509905/03/07 13:45:31  5-MIN KMKG 031845Z 11013G19KT 10SM CLR 19/04 A3021 360 35 1000 120/13G19 RMK AO2
14840KMKG MKG20070503135011605/03/07 13:50:31  5-MIN KMKG 031850Z 12015G21KT 10SM CLR 19/04 A3021 360 35 1000 120/15G21 RMK AO2 SLP231 T01940039
14840KMKG MKG20070503135511605/03/07 13:55:31  5-MIN KMKG 031855Z 09010G21KT 10SM CLR 19/03 A3021 360 34 1000 100/10G21 RMK AO2 SLP230 T01940033
14840KMKG MKG20070503140009905/03/07 14:00:31  5-MIN KMKG 031900Z 07009G18KT 10SM CLR 20/04 A3021 360 34 1100 080/09G18 RMK AO2
14840KMKG MKG20070503140509905/03/07 14:05:31  5-MIN KMKG 031905Z 13013G19KT 10SM CLR 19/04 A3021 360 35 1000 130/13G19 RMK AO2
14840KMKG MKG20070503141009905/03/07 14:10:31  5-MIN KMKG 031910Z 07009G19KT 10SM CLR 19/04 A3021 360 35 1000 070/09G19 RMK AO2
14840KMKG MKG20070503141509905/03/07 14:15:31  5-MIN KMKG 031915Z 09014G20KT 10SM CLR 20/04 A3021 370 35 1100 090/14G20 RMK AO2
14840KMKG MKG20070503142009905/03/07 14:20:31  5-MIN KMKG 031920Z 09013G20KT 10SM CLR 19/04 A3021 370 35 1000 100/13G20 RMK AO2
14840KMKG MKG20070503142509905/03/07 14:25:31  5-MIN KMKG 031925Z 08013G21KT 10SM CLR 20/04 A3021 370 34 1100 080/13G21 RMK AO2
14840KMKG MKG20070503143009905/03/07 14:30:31  5-MIN KMKG 031930Z 07015G22KT 10SM CLR 20/04 A3021 370 34 1100 070/15G22 RMK AO2
14840KMKG MKG20070503145511905/03/07 14:55:31  5-MIN KMKG 031955Z 09011G20KT 10SM FEW090 19/04 A3020 370 35 1000 100/11G20 RMK AO2 SLP229 T01940039
14840KMKG MKG20070503150009305/03/07 15:00:31  5-MIN KMKG 032000Z 09008KT 10SM CLR 20/04 A3020 370 35 1100 100/08 RMK AO2
14840KMKG MKG20070503150509905/03/07 15:05:31  5-MIN KMKG 032005Z 09014G20KT 10SM CLR 20/04 A3020 380 34 1100 100/14G20 RMK AO2
14840KMKG MKG20070503151009905/03/07 15:10:31  5-MIN KMKG 032010Z 09010G20KT 10SM CLR 20/04 A3020 380 34 1100 090/10G20 RMK AO2
14840KMKG MKG20070503151509905/03/07 15:15:31  5-MIN KMKG 032015Z 11013G18KT 10SM CLR 20/04 A3019 380 35 1100 110/13G18 RMK AO2
14840KMKG MKG20070503152011505/03/07 15:20:31  5-MIN KMKG 032020Z 10012G18KT 050V130 10SM CLR 20/04 A3019 380 35 1100 100/12G18 050V130 RMK AO2
14840KMKG MKG20070503152509305/03/07 15:25:31  5-MIN KMKG 032025Z 09013KT 10SM CLR 19/04 A3019 380 35 1000 090/13 RMK AO2
14840KMKG MKG20070503153009905/03/07 15:30:31  5-MIN KMKG 032030Z 11011G17KT 10SM CLR 20/04 A3018 390 35 1100 120/11G17 RMK AO2
14840KMKG MKG20070503153509905/03/07 15:35:31  5-MIN KMKG 032035Z 07010G19KT 10SM CLR 20/04 A3019 390 35 1100 070/10G19 RMK AO2
14840KMKG MKG20070503154009905/03/07 15:40:31  5-MIN KMKG 032040Z 07010G20KT 10SM CLR 20/04 A3018 390 35 1100 070/10G20 RMK AO2
14840KMKG MKG20070503154509905/03/07 15:45:31  5-MIN KMKG 032045Z 09012G20KT 10SM CLR 20/04 A3018 390 35 1100 090/12G20 RMK AO2
14840KMKG MKG20070503155012205/03/07 15:50:31  5-MIN KMKG 032050Z 08012G19KT 10SM CLR 20/04 A3018 390 35 1100 080/12G19 RMK AO2 SLP221 T02000044 58012
14840KMKG MKG20070503155512205/03/07 15:55:31  5-MIN KMKG 032055Z 08016G20KT 10SM CLR 20/04 A3018 390 34 1100 080/16G20 RMK AO2 SLP221 T02000039 58013
14840KMKG MKG20070503160009905/03/07 16:00:31  5-MIN KMKG 032100Z 06014G20KT 10SM CLR 20/04 A3018 390 35 1100 060/14G20 RMK AO2
14840KMKG MKG20070503160509305/03/07 16:05:31  5-MIN KMKG 032105Z 08010KT 10SM CLR 20/04 A3018 390 35 1100 080/10 RMK AO2
14840KMKG MKG20070503161009305/03/07 16:10:31  5-MIN KMKG 032110Z 07011KT 10SM CLR 20/04 A3018 390 34 1100 070/11 RMK AO2
14840KMKG MKG20070503161509905/03/07 16:15:31  5-MIN KMKG 032115Z 07015G21KT 10SM CLR 20/04 A3018 400 34 1100 070/15G21 RMK AO2
14840KMKG MKG20070503162009905/03/07 16:20:31  5-MIN KMKG 032120Z 08014G21KT 10SM CLR 20/04 A3017 400 34 1100 080/14G21 RMK AO2
14840KMKG MKG20070503162509905/03/07 16:25:31  5-MIN KMKG 032125Z 08014G19KT 10SM CLR 20/04 A3017 400 34 1100 080/14G19 RMK AO2
14840KMKG MKG20070503163009305/03/07 16:30:31  5-MIN KMKG 032130Z 07009KT 10SM CLR 20/04 A3017 400 34 1100 070/09 RMK AO2
14840KMKG MKG20070503163509305/03/07 16:35:31  5-MIN KMKG 032135Z 06009KT 10SM CLR 20/03 A3017 400 33 1100 070/09 RMK AO2
14840KMKG MKG20070503164009905/03/07 16:40:31  5-MIN KMKG 032140Z 10011G17KT 10SM CLR 20/04 A3017 400 34 1100 100/11G17 RMK AO2
14840KMKG MKG20070503164509905/03/07 16:45:31  5-MIN KMKG 032145Z 07015G20KT 10SM CLR 20/03 A3017 400 33 1100 070/15G20 RMK AO2
14840KMKG MKG20070503165011605/03/07 16:50:31  5-MIN KMKG 032150Z 08008G20KT 10SM CLR 20/03 A3017 400 33 1100 090/08G20 RMK AO2 SLP216 T02000033
14840KMKG MKG20070503165511605/03/07 16:55:31  5-MIN KMKG 032155Z 08014G18KT 10SM CLR 20/03 A3017 400 33 1100 080/14G18 RMK AO2 SLP216 T02000033
14840KMKG MKG20070503170009905/03/07 17:00:31  5-MIN KMKG 032200Z 08013G19KT 10SM CLR 19/03 A3017 400 33 1100 090/13G19 RMK AO2
14840KMKG MKG20070503170509905/03/07 17:05:31  5-MIN KMKG 032205Z 07012G19KT 10SM CLR 20/03 A3017 400 33 1100 070/12G19 RMK AO2
14840KMKG MKG20070503171009905/03/07 17:10:31  5-MIN KMKG 032210Z 07011G20KT 10SM CLR 20/03 A3016 410 31 1100 080/11G20 RMK AO2
14840KMKG MKG20070503171509905/03/07 17:15:31  5-MIN KMKG 032215Z 11011G20KT 10SM CLR 20/03 A3016 410 31 1100 110/11G20 RMK AO2
14840KMKG MKG20070503172009905/03/07 17:20:31  5-MIN KMKG 032220Z 09011G20KT 10SM CLR 20/03 A3016 410 31 1100 090/11G20 RMK AO2
14840KMKG MKG20070503172509905/03/07 17:25:31  5-MIN KMKG 032225Z 08012G20KT 10SM CLR 19/03 A3016 410 33 1100 090/12G20 RMK AO2
14840KMKG MKG20070503173009905/03/07 17:30:31  5-MIN KMKG 032230Z 08014G20KT 10SM CLR 19/03 A3016 410 33 1100 090/14G20 RMK AO2
14840KMKG MKG20070503173509905/03/07 17:35:31  5-MIN KMKG 032235Z 09012G19KT 10SM CLR 19/03 A3016 410 33 1100 100/12G19 RMK AO2
14840KMKG MKG20070503174009305/03/07 17:40:31  5-MIN KMKG 032240Z 10010KT 10SM CLR 19/03 A3016 410 33 1100 100/10 RMK AO2
14840KMKG MKG20070503174509905/03/07 17:45:31  5-MIN KMKG 032245Z 07012G18KT 10SM CLR 19/03 A3016 410 33 1100 070/12G18 RMK AO2
14840KMKG MKG20070503175011605/03/07 17:50:31  5-MIN KMKG 032250Z 08012G19KT 10SM CLR 19/02 A3016 410 31 1100 090/12G19 RMK AO2 SLP214 T01940022
14840KMKG MKG20070503175511005/03/07 17:55:31  5-MIN KMKG 032255Z 06012KT 10SM CLR 19/02 A3016 410 31 1100 070/12 RMK AO2 SLP215 T01940022
14840KMKG MKG20070503180009305/03/07 18:00:31  5-MIN KMKG 032300Z 10011KT 10SM CLR 19/02 A3015 410 31 1100 110/11 RMK AO2
14840KMKG MKG20070503180509905/03/07 18:05:31  5-MIN KMKG 032305Z 09013G21KT 10SM CLR 19/02 A3016 410 31 1100 090/13G21 RMK AO2
14840KMKG MKG20070503181009905/03/07 18:10:31  5-MIN KMKG 032310Z 09012G21KT 10SM CLR 19/02 A3016 410 32 1000 090/12G21 RMK AO2
14840KMKG MKG20070503181509305/03/07 18:15:31  5-MIN KMKG 032315Z 07013KT 10SM CLR 19/02 A3016 410 31 1000 080/13 RMK AO2
14840KMKG MKG20070503182009905/03/07 18:20:31  5-MIN KMKG 032320Z 10010G18KT 10SM CLR 19/02 A3015 410 31 1000 100/10G18 RMK AO2
14840KMKG MKG20070503182509305/03/07 18:25:31  5-MIN KMKG 032325Z 09010KT 10SM CLR 19/02 A3015 420 31 1000 090/10 RMK AO2
14840KMKG MKG20070503183009305/03/07 18:30:31  5-MIN KMKG 032330Z 07010KT 10SM CLR 19/02 A3015 420 31 1000 080/10 RMK AO2
14840KMKG MKG20070503183509205/03/07 18:35:31  5-MIN KMKG 032335Z 08010KT 10SM CLR 18/02 A3015 420 32 900 080/10 RMK AO2
14840KMKG MKG20070503184009805/03/07 18:40:31  5-MIN KMKG 032340Z 08014G20KT 10SM CLR 18/02 A3015 420 32 900 080/14G20 RMK AO2
14840KMKG MKG20070503184509805/03/07 18:45:31  5-MIN KMKG 032345Z 08012G20KT 10SM CLR 18/02 A3015 420 32 900 090/12G20 RMK AO2
14840KMKG MKG20070503185012705/03/07 18:50:31  5-MIN KMKG 032350Z 09011KT 10SM CLR 18/02 A3015 420 32 900 100/11 RMK AO2 SLP212 T01830017 10200 20183 58013
14840KMKG MKG20070503185513305/03/07 18:55:31  5-MIN KMKG 032355Z 09011G17KT 10SM CLR 18/02 A3015 410 32 900 090/11G17 RMK AO2 SLP212 T01830017 10200 20183 56008
14840KMKG MKG20070503190009205/03/07 19:00:31  5-MIN KMKG 040000Z 08008KT 10SM CLR 18/02 A3015 410 32 900 080/08 RMK AO2
14840KMKG MKG20070503190509805/03/07 19:05:31  5-MIN KMKG 040005Z 08011G16KT 10SM CLR 18/02 A3015 420 35 900 080/11G16 RMK AO2
14840KMKG MKG20070503191009805/03/07 19:10:31  5-MIN KMKG 040010Z 07011G16KT 10SM CLR 18/02 A3016 410 33 900 070/11G16 RMK AO2
14840KMKG MKG20070503191509805/03/07 19:15:31  5-MIN KMKG 040015Z 08015G20KT 10SM CLR 17/01 A3016 410 33 800 080/15G20 RMK AO2
14840KMKG MKG20070503192009805/03/07 19:20:31  5-MIN KMKG 040020Z 08013G20KT 10SM CLR 17/01 A3016 410 33 800 090/13G20 RMK AO2
14840KMKG MKG20070503192509205/03/07 19:25:31  5-MIN KMKG 040025Z 08012KT 10SM CLR 17/01 A3016 410 33 800 080/12 RMK AO2
14840KMKG MKG20070503193009205/03/07 19:30:31  5-MIN KMKG 040030Z 08009KT 10SM CLR 17/01 A3016 410 34 700 090/09 RMK AO2
14840KMKG MKG20070503193509205/03/07 19:35:31  5-MIN KMKG 040035Z 08009KT 10SM CLR 17/02 A3016 410 36 700 090/09 RMK AO2
14840KMKG MKG20070503194009205/03/07 19:40:31  5-MIN KMKG 040040Z 08010KT 10SM CLR 16/02 A3016 410 37 700 080/10 RMK AO2
14840KMKG MKG20070503194509205/03/07 19:45:31  5-MIN KMKG 040045Z 08012KT 10SM CLR 17/01 A3016 410 34 700 080/12 RMK AO2
14840KMKG MKG20070503195010905/03/07 19:50:31  5-MIN KMKG 040050Z 07011KT 10SM CLR 16/01 A3016 410 36 700 080/11 RMK AO2 SLP215 T01610011
14840KMKG MKG20070503195510905/03/07 19:55:31  5-MIN KMKG 040055Z 08011KT 10SM CLR 16/01 A3016 400 37 600 080/11 RMK AO2 SLP216 T01560011
14840KMKG MKG20070503200009205/03/07 20:00:31  5-MIN KMKG 040100Z 08011KT 10SM CLR 16/01 A3017 400 34 700 080/11 RMK AO2
14840KMKG MKG20070503200509205/03/07 20:05:31  5-MIN KMKG 040105Z 07008KT 10SM CLR 16/01 A3017 400 36 600 080/08 RMK AO2
14840KMKG MKG20070503201009205/03/07 20:10:31  5-MIN KMKG 040110Z 08011KT 10SM CLR 16/01 A3017 400 36 600 080/11 RMK AO2
14840KMKG MKG20070503201509205/03/07 20:15:31  5-MIN KMKG 040115Z 08010KT 10SM CLR 16/01 A3017 400 36 600 080/10 RMK AO2
14840KMKG MKG20070503202009205/03/07 20:20:31  5-MIN KMKG 040120Z 08011KT 10SM CLR 16/00 A3017 400 34 600 080/11 RMK AO2
14840KMKG MKG20070503202509205/03/07 20:25:31  5-MIN KMKG 040125Z 08010KT 10SM CLR 15/00 A3018 390 35 500 090/10 RMK AO2
14840KMKG MKG20070503203009205/03/07 20:30:31  5-MIN KMKG 040130Z 08010KT 10SM CLR 15/00 A3018 390 35 500 080/10 RMK AO2
14840KMKG MKG20070503203509205/03/07 20:35:31  5-MIN KMKG 040135Z 07012KT 10SM CLR 15/00 A3018 390 35 500 080/12 RMK AO2
14840KMKG MKG20070503204009305/03/07 20:40:31  5-MIN KMKG 040140Z 07013KT 10SM CLR 15/M01 A3019 390 34 500 080/13 RMK AO2
14840KMKG MKG20070503204509305/03/07 20:45:31  5-MIN KMKG 040145Z 08012KT 10SM CLR 15/M01 A3019 380 33 500 080/12 RMK AO2
14840KMKG MKG20070503205011005/03/07 20:50:31  5-MIN KMKG 040150Z 08012KT 10SM CLR 14/M01 A3019 380 34 400 090/12 RMK AO2 SLP224 T01441011
14840KMKG MKG20070503205511605/03/07 20:55:31  5-MIN KMKG 040155Z 09013G19KT 10SM CLR 15/M02 A3019 380 31 500 090/13G19 RMK AO2 SLP224 T01501017
14840KMKG MKG20070503210009305/03/07 21:00:31  5-MIN KMKG 040200Z 08012KT 10SM CLR 14/M02 A3019 380 33 400 080/12 RMK AO2
14840KMKG MKG20070503210509305/03/07 21:05:31  5-MIN KMKG 040205Z 08011KT 10SM CLR 14/M02 A3019 380 33 400 090/11 RMK AO2
14840KMKG MKG20070503211009305/03/07 21:10:31  5-MIN KMKG 040210Z 09011KT 10SM CLR 14/M02 A3020 380 34 400 090/11 RMK AO2
14840KMKG MKG20070503211509305/03/07 21:15:31  5-MIN KMKG 040215Z 08008KT 10SM CLR 14/M02 A3020 370 34 400 090/08 RMK AO2
14840KMKG MKG20070503212009305/03/07 21:20:31  5-MIN KMKG 040220Z 09008KT 10SM CLR 13/M01 A3020 370 36 300 090/08 RMK AO2
14840KMKG MKG20070503212509905/03/07 21:25:31  5-MIN KMKG 040225Z 09011G17KT 10SM CLR 14/M02 A3020 370 34 400 090/11G17 RMK AO2
14840KMKG MKG20070503213009905/03/07 21:30:31  5-MIN KMKG 040230Z 08011G17KT 10SM CLR 14/M02 A3020 370 34 400 090/11G17 RMK AO2
14840KMKG MKG20070503213509305/03/07 21:35:31  5-MIN KMKG 040235Z 08010KT 10SM CLR 13/M02 A3020 370 34 300 090/10 RMK AO2
14840KMKG MKG20070503214009305/03/07 21:40:31  5-MIN KMKG 040240Z 08011KT 10SM CLR 13/M02 A3020 370 34 300 080/11 RMK AO2
14840KMKG MKG20070503214509305/03/07 21:45:31  5-MIN KMKG 040245Z 08009KT 10SM CLR 13/M02 A3020 370 36 200 090/09 RMK AO2
14840KMKG MKG20070503215011605/03/07 21:50:31  5-MIN KMKG 040250Z 08007KT 10SM CLR 13/M02 A3020 370 36 200 090/07 RMK AO2 SLP227 T01281017 56008
14840KMKG MKG20070503215511605/03/07 21:55:31  5-MIN KMKG 040255Z 09010KT 10SM CLR 13/M02 A3020 380 35 200 090/10 RMK AO2 SLP226 T01281022 51014
14840KMKG MKG20070503220009305/03/07 22:00:31  5-MIN KMKG 040300Z 08009KT 10SM CLR 13/M02 A3020 370 35 200 090/09 RMK AO2
14840KMKG MKG20070503220509305/03/07 22:05:31  5-MIN KMKG 040305Z 09009KT 10SM CLR 12/M02 A3020 370 36 200 090/09 RMK AO2
14840KMKG MKG20070503221009305/03/07 22:10:31  5-MIN KMKG 040310Z 09008KT 10SM CLR 12/M02 A3020 370 36 200 090/08 RMK AO2
14840KMKG MKG20070503221509305/03/07 22:15:31  5-MIN KMKG 040315Z 09007KT 10SM CLR 12/M02 A3020 370 36 200 090/07 RMK AO2
14840KMKG MKG20070503222009305/03/07 22:20:31  5-MIN KMKG 040320Z 08008KT 10SM CLR 12/M02 A3020 370 36 200 090/08 RMK AO2
14840KMKG MKG20070503222509305/03/07 22:25:31  5-MIN KMKG 040325Z 08009KT 10SM CLR 12/M02 A3020 370 38 100 090/09 RMK AO2
14840KMKG MKG20070503223009305/03/07 22:30:31  5-MIN KMKG 040330Z 08009KT 10SM CLR 12/M02 A3020 370 38 100 090/09 RMK AO2
14840KMKG MKG20070503223509305/03/07 22:35:31  5-MIN KMKG 040335Z 08010KT 10SM CLR 12/M03 A3020 370 36 100 090/10 RMK AO2
14840KMKG MKG20070503224009305/03/07 22:40:31  5-MIN KMKG 040340Z 09009KT 10SM CLR 12/M03 A3020 370 35 100 090/09 RMK AO2
14840KMKG MKG20070503224509305/03/07 22:45:31  5-MIN KMKG 040345Z 08010KT 10SM CLR 12/M03 A3020 370 35 100 090/10 RMK AO2
14840KMKG MKG20070503225011005/03/07 22:50:31  5-MIN KMKG 040350Z 09012KT 10SM CLR 12/M04 A3020 370 33 100 090/12 RMK AO2 SLP227 T01171039
14840KMKG MKG20070503225511605/03/07 22:55:31  5-MIN KMKG 040355Z 09009G17KT 10SM CLR 12/M04 A3020 370 33 100 090/09G17 RMK AO2 SLP227 T01171039
14840KMKG MKG20070503230009105/03/07 23:00:31  5-MIN KMKG 040400Z 08009KT 10SM CLR 11/M04 A3020 370 34 0 090/09 RMK AO2
14840KMKG MKG20070503230509105/03/07 23:05:31  5-MIN KMKG 040405Z 09007KT 10SM CLR 11/M04 A3020 370 34 0 090/07 RMK AO2
14840KMKG MKG20070503231009105/03/07 23:10:31  5-MIN KMKG 040410Z 09009KT 10SM CLR 11/M04 A3020 370 34 0 090/09 RMK AO2
14840KMKG MKG20070503231509105/03/07 23:15:31  5-MIN KMKG 040415Z 08008KT 10SM CLR 11/M04 A3020 370 36 0 090/08 RMK AO2
14840KMKG MKG20070503232009705/03/07 23:20:31  5-MIN KMKG 040420Z 08010G15KT 10SM CLR 11/M04 A3020 370 34 0 080/10G15 RMK AO2
14840KMKG MKG20070503232509105/03/07 23:25:31  5-MIN KMKG 040425Z 08011KT 10SM CLR 11/M04 A3020 370 36 0 080/11 RMK AO2
14840KMKG MKG20070503233009105/03/07 23:30:31  5-MIN KMKG 040430Z 08011KT 10SM CLR 11/M04 A3020 370 34 0 080/11 RMK AO2
14840KMKG MKG20070503233509105/03/07 23:35:31  5-MIN KMKG 040435Z 09011KT 10SM CLR 11/M04 A3020 370 36 0 090/11 RMK AO2
14840KMKG MKG20070503234009105/03/07 23:40:31  5-MIN KMKG 040440Z 08012KT 10SM CLR 11/M04 A3020 370 36 0 080/12 RMK AO2
14840KMKG MKG20070503234509105/03/07 23:45:31  5-MIN KMKG 040445Z 08010KT 10SM CLR 11/M04 A3020 370 36 0 090/10 RMK AO2
14840KMKG MKG20070503235011805/03/07 23:50:31  5-MIN KMKG 040450Z 08009KT 10SM CLR 10/M04 A3020 370 37 0 090/09 RMK AO2 SLP228 T01001039 402000056
14840KMKG MKG20070503235512105/03/07 23:55:31  5-MIN KMKG 040455Z 08012KT 10SM CLR 10/M04 A3020 370 37 -100 080/12 RMK AO2 SLP228 T01001039 402000056
14840KMKG MKG20070504000009105/04/07 00:00:32  5-MIN KMKG 040500Z 08010KT 10SM CLR 10/M04 A3020 370 37 0 090/10 RMK AO2
14840KMKG MKG20070504000509105/04/07 00:05:31  5-MIN KMKG 040505Z 08010KT 10SM CLR 10/M04 A3020 370 37 0 080/10 RMK AO2
14840KMKG MKG20070504001009405/04/07 00:10:31  5-MIN KMKG 040510Z 08012KT 10SM CLR 10/M04 A3020 370 37 -100 080/12 RMK AO2
14840KMKG MKG20070504001509405/04/07 00:15:31  5-MIN KMKG 040515Z 08012KT 10SM CLR 10/M04 A3020 370 37 -100 090/12 RMK AO2
14840KMKG MKG20070504002010005/04/07 00:20:31  5-MIN KMKG 040520Z 09013G18KT 10SM CLR 10/M04 A3020 370 37 -100 090/13G18 RMK AO2
14840KMKG MKG20070504002509405/04/07 00:25:31  5-MIN KMKG 040525Z 08011KT 10SM CLR 09/M04 A3020 370 39 -100 080/11 RMK AO2
14840KMKG MKG20070504003009405/04/07 00:30:31  5-MIN KMKG 040530Z 08013KT 10SM CLR 09/M04 A3020 370 39 -100 080/13 RMK AO2
14840KMKG MKG20070504003509405/04/07 00:35:31  5-MIN KMKG 040535Z 08012KT 10SM CLR 09/M04 A3020 370 39 -100 090/12 RMK AO2
14840KMKG MKG20070504004009405/04/07 00:40:31  5-MIN KMKG 040540Z 08011KT 10SM CLR 09/M04 A3020 370 39 -100 090/11 RMK AO2
14840KMKG MKG20070504004509405/04/07 00:45:31  5-MIN KMKG 040545Z 09009KT 10SM CLR 09/M04 A3020 370 39 -100 090/09 RMK AO2
14840KMKG MKG20070504005012905/04/07 00:50:31  5-MIN KMKG 040550Z 08012KT 10SM CLR 09/M04 A3020 370 39 -100 090/12 RMK AO2 SLP228 T00941039 10183 20094 51014
14840KMKG MKG20070504005512905/04/07 00:55:31  5-MIN KMKG 040555Z 08011KT 10SM CLR 09/M04 A3020 370 39 -100 090/11 RMK AO2 SLP228 T00941039 10183 20094 50001
14840KMKG MKG20070504010009405/04/07 01:00:31  5-MIN KMKG 040600Z 08010KT 10SM CLR 09/M04 A3020 370 39 -100 080/10 RMK AO2
14840KMKG MKG20070504010509405/04/07 01:05:31  5-MIN KMKG 040605Z 08009KT 10SM CLR 09/M04 A3020 370 40 -200 090/09 RMK AO2
14840KMKG MKG20070504011009405/04/07 01:10:31  5-MIN KMKG 040610Z 08009KT 10SM CLR 09/M04 A3020 370 40 -200 090/09 RMK AO2
14840KMKG MKG20070504011509405/04/07 01:15:31  5-MIN KMKG 040615Z 08009KT 10SM CLR 09/M04 A3020 370 40 -200 090/09 RMK AO2
14840KMKG MKG20070504012009405/04/07 01:20:31  5-MIN KMKG 040620Z 08009KT 10SM CLR 09/M03 A3020 370 42 -200 080/09 RMK AO2
14840KMKG MKG20070504012509405/04/07 01:25:31  5-MIN KMKG 040625Z 08009KT 10SM CLR 09/M03 A3020 370 42 -200 090/09 RMK AO2
14840KMKG MKG20070504013009405/04/07 01:30:31  5-MIN KMKG 040630Z 08008KT 10SM CLR 09/M03 A3020 370 42 -200 090/08 RMK AO2
14840KMKG MKG20070504013509405/04/07 01:35:31  5-MIN KMKG 040635Z 08009KT 10SM CLR 09/M03 A3020 370 42 -200 090/09 RMK AO2
14840KMKG MKG20070504014009405/04/07 01:40:31  5-MIN KMKG 040640Z 08008KT 10SM CLR 09/M03 A3020 370 42 -200 080/08 RMK AO2
14840KMKG MKG20070504014509405/04/07 01:45:31  5-MIN KMKG 040645Z 08009KT 10SM CLR 08/M03 A3020 380 43 -200 080/09 RMK AO2
14840KMKG MKG20070504015011105/04/07 01:50:31  5-MIN KMKG 040650Z 07010KT 10SM CLR 08/M03 A3019 380 43 -200 080/10 RMK AO2 SLP226 T00831033
14840KMKG MKG20070504015511105/04/07 01:55:31  5-MIN KMKG 040655Z 08008KT 10SM CLR 08/M03 A3019 380 43 -200 080/08 RMK AO2 SLP225 T00831033
14840KMKG MKG20070504020009405/04/07 02:00:31  5-MIN KMKG 040700Z 08009KT 10SM CLR 08/M03 A3019 380 43 -200 080/09 RMK AO2
14840KMKG MKG20070504020509405/04/07 02:05:31  5-MIN KMKG 040705Z 08007KT 10SM CLR 08/M03 A3019 380 43 -200 090/07 RMK AO2
14840KMKG MKG20070504021009405/04/07 02:10:31  5-MIN KMKG 040710Z 08009KT 10SM CLR 08/M03 A3020 380 43 -200 080/09 RMK AO2
14840KMKG MKG20070504021509405/04/07 02:15:31  5-MIN KMKG 040715Z 08009KT 10SM CLR 08/M03 A3020 380 43 -200 080/09 RMK AO2
14840KMKG MKG20070504022009405/04/07 02:20:31  5-MIN KMKG 040720Z 08008KT 10SM CLR 08/M03 A3020 380 45 -300 080/08 RMK AO2
14840KMKG MKG20070504022509405/04/07 02:25:31  5-MIN KMKG 040725Z 09008KT 10SM CLR 08/M03 A3020 370 45 -300 090/08 RMK AO2
14840KMKG MKG20070504023009405/04/07 02:30:31  5-MIN KMKG 040730Z 08007KT 10SM CLR 08/M03 A3020 380 45 -300 090/07 RMK AO2
14840KMKG MKG20070504023509405/04/07 02:35:31  5-MIN KMKG 040735Z 08007KT 10SM CLR 08/M03 A3019 380 47 -300 090/07 RMK AO2
14840KMKG MKG20070504024009405/04/07 02:40:31  5-MIN KMKG 040740Z 09006KT 10SM CLR 08/M03 A3019 380 47 -300 090/06 RMK AO2
14840KMKG MKG20070504024509405/04/07 02:45:31  5-MIN KMKG 040745Z 08007KT 10SM CLR 08/M03 A3019 380 47 -300 090/07 RMK AO2
14840KMKG MKG20070504025011105/04/07 02:50:31  5-MIN KMKG 040750Z 08007KT 10SM CLR 07/M03 A3019 380 49 -400 090/07 RMK AO2 SLP225 T00721028
14840KMKG MKG20070504025511105/04/07 02:55:31  5-MIN KMKG 040755Z 08008KT 10SM CLR 07/M03 A3019 380 49 -400 080/08 RMK AO2 SLP224 T00721028
14840KMKG MKG20070504030009405/04/07 03:00:31  5-MIN KMKG 040800Z 09007KT 10SM CLR 07/M03 A3019 380 49 -400 090/07 RMK AO2
14840KMKG MKG20070504030509405/04/07 03:05:31  5-MIN KMKG 040805Z 09007KT 10SM CLR 07/M03 A3019 380 49 -400 090/07 RMK AO2
14840KMKG MKG20070504031009405/04/07 03:10:31  5-MIN KMKG 040810Z 09007KT 10SM CLR 07/M03 A3019 380 49 -400 090/07 RMK AO2
14840KMKG MKG20070504031509405/04/07 03:15:31  5-MIN KMKG 040815Z 09007KT 10SM CLR 07/M03 A3019 380 49 -400 090/07 RMK AO2
14840KMKG MKG20070504032009405/04/07 03:20:31  5-MIN KMKG 040820Z 08008KT 10SM CLR 07/M03 A3019 380 49 -400 090/08 RMK AO2
14840KMKG MKG20070504032509405/04/07 03:25:31  5-MIN KMKG 040825Z 07008KT 10SM CLR 07/M03 A3019 380 49 -400 080/08 RMK AO2
14840KMKG MKG20070504033009405/04/07 03:30:31  5-MIN KMKG 040830Z 07009KT 10SM CLR 07/M02 A3019 380 53 -400 080/09 RMK AO2
14840KMKG MKG20070504033509405/04/07 03:35:31  5-MIN KMKG 040835Z 07008KT 10SM CLR 07/M02 A3019 380 53 -400 070/08 RMK AO2
14840KMKG MKG20070504034009405/04/07 03:40:31  5-MIN KMKG 040840Z 08008KT 10SM CLR 07/M02 A3019 380 53 -400 080/08 RMK AO2
14840KMKG MKG20070504034509405/04/07 03:45:31  5-MIN KMKG 040845Z 08007KT 10SM CLR 07/M02 A3019 380 53 -400 080/07 RMK AO2
14840KMKG MKG20070504035011705/04/07 03:50:31  5-MIN KMKG 040850Z 07008KT 10SM CLR 07/M02 A3019 380 53 -400 080/08 RMK AO2 SLP224 T00671022 50001
14840KMKG MKG20070504035511705/04/07 03:55:31  5-MIN KMKG 040855Z 07008KT 10SM CLR 07/M02 A3019 380 53 -400 080/08 RMK AO2 SLP224 T00671022 56003
14840KMKG MKG20070504040009405/04/07 04:00:31  5-MIN KMKG 040900Z 07008KT 10SM CLR 07/M02 A3019 380 53 -400 080/08 RMK AO2
14840KMKG MKG20070504040509405/04/07 04:05:31  5-MIN KMKG 040905Z 08007KT 10SM CLR 07/M02 A3019 380 53 -400 080/07 RMK AO2
14840KMKG MKG20070504041009405/04/07 04:10:31  5-MIN KMKG 040910Z 07008KT 10SM CLR 07/M02 A3019 380 53 -400 080/08 RMK AO2
14840KMKG MKG20070504041509405/04/07 04:15:31  5-MIN KMKG 040915Z 07008KT 10SM CLR 07/M02 A3019 380 53 -400 070/08 RMK AO2
14840KMKG MKG20070504042009405/04/07 04:20:31  5-MIN KMKG 040920Z 07009KT 10SM CLR 07/M02 A3019 380 53 -400 070/09 RMK AO2
14840KMKG MKG20070504042509405/04/07 04:25:31  5-MIN KMKG 040925Z 07008KT 10SM CLR 07/M02 A3019 380 53 -400 070/08 RMK AO2
14840KMKG MKG20070504043009405/04/07 04:30:31  5-MIN KMKG 040930Z 07009KT 10SM CLR 07/M02 A3019 390 53 -400 070/09 RMK AO2
14840KMKG MKG20070504043509405/04/07 04:35:31  5-MIN KMKG 040935Z 07010KT 10SM CLR 07/M02 A3019 390 53 -400 070/10 RMK AO2
14840KMKG MKG20070504044009405/04/07 04:40:31  5-MIN KMKG 040940Z 08009KT 10SM CLR 07/M02 A3019 380 53 -400 080/09 RMK AO2
14840KMKG MKG20070504044509405/04/07 04:45:31  5-MIN KMKG 040945Z 08007KT 10SM CLR 07/M02 A3019 380 53 -400 090/07 RMK AO2
14840KMKG MKG20070504045011105/04/07 04:50:31  5-MIN KMKG 040950Z 08007KT 10SM CLR 07/M02 A3019 380 53 -400 090/07 RMK AO2 SLP224 T00671022
14840KMKG MKG20070504045511105/04/07 04:55:31  5-MIN KMKG 040955Z 08006KT 10SM CLR 07/M02 A3019 380 53 -400 090/06 RMK AO2 SLP225 T00671022
14840KMKG MKG20070504050009405/04/07 05:00:31  5-MIN KMKG 041000Z 09007KT 10SM CLR 07/M02 A3019 380 53 -400 090/07 RMK AO2
14840KMKG MKG20070504050509405/04/07 05:05:31  5-MIN KMKG 041005Z 09006KT 10SM CLR 07/M02 A3019 380 53 -400 100/06 RMK AO2
14840KMKG MKG20070504051009405/04/07 05:10:31  5-MIN KMKG 041010Z 09007KT 10SM CLR 07/M02 A3019 380 53 -400 090/07 RMK AO2
14840KMKG MKG20070504051509405/04/07 05:15:31  5-MIN KMKG 041015Z 08008KT 10SM CLR 07/M02 A3019 380 53 -400 090/08 RMK AO2
14840KMKG MKG20070504052009405/04/07 05:20:31  5-MIN KMKG 041020Z 08008KT 10SM CLR 06/M02 A3020 380 55 -500 090/08 RMK AO2
14840KMKG MKG20070504052509405/04/07 05:25:31  5-MIN KMKG 041025Z 09006KT 10SM CLR 07/M02 A3020 370 53 -400 100/06 RMK AO2
14840KMKG MKG20070504053009405/04/07 05:30:31  5-MIN KMKG 041030Z 08007KT 10SM CLR 06/M02 A3020 370 55 -500 080/07 RMK AO2
14840KMKG MKG20070504053509405/04/07 05:35:31  5-MIN KMKG 041035Z 08009KT 10SM CLR 06/M02 A3020 370 55 -500 080/09 RMK AO2
14840KMKG MKG20070504054009405/04/07 05:40:31  5-MIN KMKG 041040Z 07008KT 10SM CLR 06/M02 A3020 370 55 -500 080/08 RMK AO2
14840KMKG MKG20070504054509405/04/07 05:45:31  5-MIN KMKG 041045Z 08007KT 10SM CLR 06/M02 A3020 370 55 -500 080/07 RMK AO2
14840KMKG MKG20070504055011105/04/07 05:50:31  5-MIN KMKG 041050Z 08008KT 10SM CLR 06/M02 A3020 370 55 -500 080/08 RMK AO2 SLP229 T00611022
14840KMKG MKG20070504055511105/04/07 05:55:31  5-MIN KMKG 041055Z 08008KT 10SM CLR 06/M02 A3020 370 55 -500 080/08 RMK AO2 SLP229 T00611022
14840KMKG MKG20070504060009405/04/07 06:00:31  5-MIN KMKG 041100Z 07007KT 10SM CLR 06/M02 A3020 370 55 -500 080/07 RMK AO2
14840KMKG MKG20070504060509405/04/07 06:05:31  5-MIN KMKG 041105Z 07008KT 10SM CLR 06/M02 A3020 370 57 -500 070/08 RMK AO2
14840KMKG MKG20070504061009405/04/07 06:10:31  5-MIN KMKG 041110Z 07008KT 10SM CLR 07/M02 A3020 370 53 -500 070/08 RMK AO2
14840KMKG MKG20070504061509405/04/07 06:15:31  5-MIN KMKG 041115Z 07009KT 10SM CLR 07/M02 A3020 370 53 -500 070/09 RMK AO2
14840KMKG MKG20070504062009405/04/07 06:20:31  5-MIN KMKG 041120Z 07008KT 10SM CLR 07/M02 A3020 370 51 -400 080/08 RMK AO2
14840KMKG MKG20070504062509405/04/07 06:25:31  5-MIN KMKG 041125Z 07009KT 10SM CLR 07/M02 A3020 370 51 -400 080/09 RMK AO2
14840KMKG MKG20070504063009405/04/07 06:30:31  5-MIN KMKG 041130Z 08008KT 10SM CLR 08/M03 A3020 370 47 -300 080/08 RMK AO2
14840KMKG MKG20070504063509405/04/07 06:35:31  5-MIN KMKG 041135Z 07010KT 10SM CLR 08/M03 A3020 370 47 -300 080/10 RMK AO2
14840KMKG MKG20070504064009405/04/07 06:40:31  5-MIN KMKG 041140Z 08009KT 10SM CLR 08/M03 A3020 370 47 -300 090/09 RMK AO2
14840KMKG MKG20070504064509405/04/07 06:45:31  5-MIN KMKG 041145Z 08007KT 10SM CLR 08/M03 A3020 370 45 -300 080/07 RMK AO2
14840KMKG MKG20070504065012905/04/07 06:50:31  5-MIN KMKG 041150Z 09010KT 10SM CLR 08/M03 A3020 370 43 -300 090/10 RMK AO2 SLP228 T00831033 10094 20061 56003
14840KMKG MKG20070504065512905/04/07 06:55:31  5-MIN KMKG 041155Z 08009KT 10SM CLR 09/M03 A3020 370 42 -200 090/09 RMK AO2 SLP228 T00891033 10094 20061 51004
14840KMKG MKG20070504070009405/04/07 07:00:31  5-MIN KMKG 041200Z 08011KT 10SM CLR 09/M03 A3020 370 40 -100 090/11 RMK AO2
14840KMKG MKG20070504070509405/04/07 07:05:31  5-MIN KMKG 041205Z 08010KT 10SM CLR 09/M04 A3020 370 39 -100 090/10 RMK AO2
14840KMKG MKG20070504071009405/04/07 07:10:31  5-MIN KMKG 041210Z 09010KT 10SM CLR 09/M04 A3020 370 39 -100 090/10 RMK AO2
14840KMKG MKG20070504071509405/04/07 07:15:31  5-MIN KMKG 041215Z 09009KT 10SM CLR 09/M03 A3020 370 40 -100 090/09 RMK AO2
14840KMKG MKG20070504072009105/04/07 07:20:31  5-MIN KMKG 041220Z 09010KT 10SM CLR 10/M03 A3020 370 39 0 090/10 RMK AO2
14840KMKG MKG20070504072509105/04/07 07:25:31  5-MIN KMKG 041225Z 09010KT 10SM CLR 10/M04 A3020 370 37 0 100/10 RMK AO2
14840KMKG MKG20070504073009105/04/07 07:30:31  5-MIN KMKG 041230Z 09011KT 10SM CLR 11/M04 A3020 370 36 0 090/11 RMK AO2
14840KMKG MKG20070504073509105/04/07 07:35:31  5-MIN KMKG 041235Z 09010KT 10SM CLR 11/M04 A3020 370 34 0 090/10 RMK AO2
14840KMKG MKG20070504074009105/04/07 07:40:31  5-MIN KMKG 041240Z 08010KT 10SM CLR 11/M04 A3020 370 34 0 090/10 RMK AO2
14840KMKG MKG20070504074509105/04/07 07:45:31  5-MIN KMKG 041245Z 08009KT 10SM CLR 11/M04 A3020 380 34 0 090/09 RMK AO2
14840KMKG MKG20070504075011005/04/07 07:50:31  5-MIN KMKG 041250Z 09011KT 10SM CLR 12/M04 A3020 380 33 100 090/11 RMK AO2 SLP226 T01171039
14840KMKG MKG20070504075511005/04/07 07:55:31  5-MIN KMKG 041255Z 09010KT 10SM CLR 12/M04 A3020 380 33 100 090/10 RMK AO2 SLP226 T01171039
14840KMKG MKG20070504080009905/04/07 08:00:31  5-MIN KMKG 041300Z 08013G17KT 10SM CLR 12/M05 A3019 380 29 200 090/13G17 RMK AO2
14840KMKG MKG20070504080509905/04/07 08:05:31  5-MIN KMKG 041305Z 09009G17KT 10SM CLR 12/M04 A3019 380 31 200 100/09G17 RMK AO2
14840KMKG MKG20070504081009905/04/07 08:10:31  5-MIN KMKG 041310Z 10013G18KT 10SM CLR 13/M05 A3019 380 28 200 100/13G18 RMK AO2
14840KMKG MKG20070504081509905/04/07 08:15:31  5-MIN KMKG 041315Z 09010G18KT 10SM CLR 13/M05 A3019 380 28 200 100/10G18 RMK AO2
14840KMKG MKG20070504082009305/04/07 08:20:31  5-MIN KMKG 041320Z 09012KT 10SM CLR 13/M05 A3019 380 27 300 090/12 RMK AO2
14840KMKG MKG20070504082509905/04/07 08:25:31  5-MIN KMKG 041325Z 09013G19KT 10SM CLR 13/M05 A3019 380 27 300 090/13G19 RMK AO2
14840KMKG MKG20070504083009905/04/07 08:30:31  5-MIN KMKG 041330Z 09011G19KT 10SM CLR 14/M05 A3019 390 26 400 090/11G19 RMK AO2
14840KMKG MKG20070504083509305/04/07 08:35:31  5-MIN KMKG 041335Z 08010KT 10SM CLR 14/M04 A3019 390 27 400 090/10 RMK AO2
14840KMKG MKG20070504084009905/04/07 08:40:31  5-MIN KMKG 041340Z 08013G20KT 10SM CLR 14/M04 A3018 390 26 500 090/13G20 RMK AO2
14840KMKG MKG20070504084509905/04/07 08:45:31  5-MIN KMKG 041345Z 08013G20KT 10SM CLR 14/M05 A3018 390 25 500 080/13G20 RMK AO2
14840KMKG MKG20070504085011605/04/07 08:50:31  5-MIN KMKG 041350Z 08010G19KT 10SM CLR 14/M04 A3018 390 26 500 090/10G19 RMK AO2 SLP222 T01441044
14840KMKG MKG20070504085511005/04/07 08:55:31  5-MIN KMKG 041355Z 08012KT 10SM CLR 15/M04 A3018 390 25 500 080/12 RMK AO2 SLP221 T01501044
14840KMKG MKG20070504090009905/04/07 09:00:31  5-MIN KMKG 041400Z 08013G18KT 10SM CLR 15/M04 A3018 390 25 500 080/13G18 RMK AO2
14840KMKG MKG20070504090509905/04/07 09:05:31  5-MIN KMKG 041405Z 09011G20KT 10SM CLR 16/M04 A3018 390 26 600 090/11G20 RMK AO2
14840KMKG MKG20070504091009905/04/07 09:10:31  5-MIN KMKG 041410Z 08011G20KT 10SM CLR 16/M04 A3019 390 25 600 090/11G20 RMK AO2
14840KMKG MKG20070504091509905/04/07 09:15:31  5-MIN KMKG 041415Z 08012G17KT 10SM CLR 16/M04 A3018 390 26 600 080/12G17 RMK AO2
14840KMKG MKG20070504092009905/04/07 09:20:31  5-MIN KMKG 041420Z 09012G19KT 10SM CLR 16/M04 A3019 390 26 600 090/12G19 RMK AO2
14840KMKG MKG20070504092509905/04/07 09:25:31  5-MIN KMKG 041425Z 09009G19KT 10SM CLR 16/M03 A3018 390 26 700 090/09G19 RMK AO2
14840KMKG MKG20070504093009905/04/07 09:30:31  5-MIN KMKG 041430Z 09012G21KT 10SM CLR 17/M03 A3018 390 26 700 100/12G21 RMK AO2
14840KMKG MKG20070504093509905/04/07 09:35:31  5-MIN KMKG 041435Z 09010G21KT 10SM CLR 16/M03 A3018 390 26 700 100/10G21 RMK AO2
14840KMKG MKG20070504094009305/04/07 09:40:31  5-MIN KMKG 041440Z 10012KT 10SM CLR 17/M03 A3018 390 26 700 100/12 RMK AO2
14840KMKG MKG20070504094509905/04/07 09:45:31  5-MIN KMKG 041445Z 09012G18KT 10SM CLR 17/M03 A3018 390 25 700 090/12G18 RMK AO2
14840KMKG MKG20070504095012205/04/07 09:50:31  5-MIN KMKG 041450Z 08011G18KT 10SM CLR 17/M02 A3018 390 26 800 080/11G18 RMK AO2 SLP219 T01721022 51004
14840KMKG MKG20070504095512205/04/07 09:55:31  5-MIN KMKG 041455Z 09010G18KT 10SM CLR 17/M03 A3017 400 25 800 100/10G18 RMK AO2 SLP218 T01721028 58009
14840KMKG MKG20070504100009905/04/07 10:00:31  5-MIN KMKG 041500Z 07012G18KT 10SM CLR 17/M02 A3018 390 26 800 080/12G18 RMK AO2
14840KMKG MKG20070504100509305/04/07 10:05:31  5-MIN KMKG 041505Z 09009KT 10SM CLR 17/M03 A3018 390 25 800 090/09 RMK AO2
14840KMKG MKG20070504101009305/04/07 10:10:31  5-MIN KMKG 041510Z 08011KT 10SM CLR 18/M02 A3017 400 26 900 090/11 RMK AO2
14840KMKG MKG20070504101509905/04/07 10:15:31  5-MIN KMKG 041515Z 09012G18KT 10SM CLR 18/M02 A3018 400 25 900 090/12G18 RMK AO2
14840KMKG MKG20070504102009905/04/07 10:20:31  5-MIN KMKG 041520Z 09013G18KT 10SM CLR 18/M02 A3017 400 26 900 090/13G18 RMK AO2
14840KMKG MKG20070504102509905/04/07 10:25:31  5-MIN KMKG 041525Z 08015G18KT 10SM CLR 18/M02 A3017 400 25 900 080/15G18 RMK AO2
14840KMKG MKG20070504103009905/04/07 10:30:31  5-MIN KMKG 041530Z 09011G18KT 10SM CLR 18/M02 A3017 400 25 900 090/11G18 RMK AO2
14840KMKG MKG20070504103509305/04/07 10:35:31  5-MIN KMKG 041535Z 08013KT 10SM CLR 18/M02 A3017 400 25 900 080/13 RMK AO2
14840KMKG MKG20070504104009405/04/07 10:40:31  5-MIN KMKG 041540Z 09010KT 10SM CLR 19/M01 A3017 400 25 1000 100/10 RMK AO2
14840KMKG MKG20070504104509405/04/07 10:45:31  5-MIN KMKG 041545Z 09010KT 10SM CLR 19/M01 A3017 400 25 1000 100/10 RMK AO2
14840KMKG MKG20070504105011705/04/07 10:50:31  5-MIN KMKG 041550Z 10015G20KT 10SM CLR 19/M01 A3017 400 26 1100 110/15G20 RMK AO2 SLP216 T01941006
14840KMKG MKG20070504105511705/04/07 10:55:31  5-MIN KMKG 041555Z 08013G20KT 10SM CLR 19/M01 A3017 400 26 1000 090/13G20 RMK AO2 SLP215 T01891006
14840KMKG MKG20070504110010005/04/07 11:00:31  5-MIN KMKG 041600Z 08013G20KT 10SM CLR 19/M01 A3016 410 26 1000 080/13G20 RMK AO2
14840KMKG MKG20070504110509905/04/07 11:05:31  5-MIN KMKG 041605Z 08013G20KT 10SM CLR 19/00 A3017 400 27 1100 080/13G20 RMK AO2
14840KMKG MKG20070504111010005/04/07 11:10:31  5-MIN KMKG 041610Z 08012G20KT 10SM CLR 19/M01 A3017 400 26 1100 090/12G20 RMK AO2
14840KMKG MKG20070504111510005/04/07 11:15:31  5-MIN KMKG 041615Z 08017G21KT 10SM CLR 20/M01 A3016 410 25 1100 090/17G21 RMK AO2
14840KMKG MKG20070504112010005/04/07 11:20:31  5-MIN KMKG 041620Z 08011G21KT 10SM CLR 20/M01 A3016 410 25 1100 090/11G21 RMK AO2
14840KMKG MKG20070504112510005/04/07 11:25:31  5-MIN KMKG 041625Z 09016G20KT 10SM CLR 20/M01 A3016 410 25 1100 100/16G20 RMK AO2
14840KMKG MKG20070504113009905/04/07 11:30:31  5-MIN KMKG 041630Z 08012G20KT 10SM CLR 20/00 A3016 410 26 1100 090/12G20 RMK AO2
14840KMKG MKG20070504113509905/04/07 11:35:31  5-MIN KMKG 041635Z 09014G20KT 10SM CLR 20/00 A3016 410 26 1100 090/14G20 RMK AO2
14840KMKG MKG20070504114010005/04/07 11:40:31  5-MIN KMKG 041640Z 09015G21KT 10SM CLR 20/M01 A3015 420 25 1100 100/15G21 RMK AO2
14840KMKG MKG20070504114509405/04/07 11:45:31  5-MIN KMKG 041645Z 10015KT 10SM CLR 20/M01 A3015 420 25 1100 100/15 RMK AO2
14840KMKG MKG20070504115011005/04/07 11:50:31  5-MIN KMKG 041650Z 10017KT 10SM CLR 21/00 A3015 420 25 1200 110/17 RMK AO2 SLP209 T02060000
14840KMKG MKG20070504115511605/04/07 11:55:31  5-MIN KMKG 041655Z 11015G21KT 10SM CLR 21/00 A3015 420 25 1200 110/15G21 RMK AO2 SLP209 T02060000
14840KMKG MKG20070504120009905/04/07 12:00:31  5-MIN KMKG 041700Z 09014G21KT 10SM CLR 21/01 A3014 430 26 1200 090/14G21 RMK AO2
14840KMKG MKG20070504120509905/04/07 12:05:31  5-MIN KMKG 041705Z 07016G21KT 10SM CLR 21/00 A3014 420 24 1300 080/16G21 RMK AO2
14840KMKG MKG20070504121009305/04/07 12:10:31  5-MIN KMKG 041710Z 09016KT 10SM CLR 21/01 A3014 420 26 1200 090/16 RMK AO2
14840KMKG MKG20070504121509305/04/07 12:15:31  5-MIN KMKG 041715Z 10015KT 10SM CLR 21/00 A3014 430 25 1200 100/15 RMK AO2
14840KMKG MKG20070504122009905/04/07 12:20:31  5-MIN KMKG 041720Z 09014G20KT 10SM CLR 21/01 A3014 430 26 1200 100/14G20 RMK AO2
14840KMKG MKG20070504122509905/04/07 12:25:31  5-MIN KMKG 041725Z 10011G20KT 10SM CLR 21/01 A3013 440 26 1300 100/11G20 RMK AO2
14840KMKG MKG20070504123009905/04/07 12:30:31  5-MIN KMKG 041730Z 10012G19KT 10SM CLR 21/01 A3013 430 26 1300 100/12G19 RMK AO2
14840KMKG MKG20070504123509905/04/07 12:35:31  5-MIN KMKG 041735Z 09012G17KT 10SM CLR 21/02 A3013 430 27 1300 090/12G17 RMK AO2
14840KMKG MKG20070504124009905/04/07 12:40:31  5-MIN KMKG 041740Z 08011G18KT 10SM CLR 22/02 A3013 440 26 1400 090/11G18 RMK AO2
14840KMKG MKG20070504124509905/04/07 12:45:31  5-MIN KMKG 041745Z 07015G19KT 10SM CLR 22/02 A3013 440 26 1400 070/15G19 RMK AO2
14840KMKG MKG20070504125013405/04/07 12:50:31  5-MIN KMKG 041750Z 11012G21KT 10SM CLR 21/02 A3013 440 27 1300 110/12G21 RMK AO2 SLP203 T02110017 10217 20089 58009
14840KMKG MKG20070504125513405/04/07 12:55:31  5-MIN KMKG 041755Z 10015G21KT 10SM CLR 21/02 A3013 440 27 1300 100/15G21 RMK AO2 SLP202 T02110017 10217 20089 58015
14840KMKG MKG20070504130009905/04/07 13:00:31  5-MIN KMKG 041800Z 10011G21KT 10SM CLR 21/02 A3013 440 27 1300 110/11G21 RMK AO2
14840KMKG MKG20070504130509905/04/07 13:05:31  5-MIN KMKG 041805Z 10015G21KT 10SM CLR 21/02 A3013 440 27 1300 100/15G21 RMK AO2
14840KMKG MKG20070504131009905/04/07 13:10:31  5-MIN KMKG 041810Z 11014G20KT 10SM CLR 21/02 A3012 440 28 1200 110/14G20 RMK AO2
14840KMKG MKG20070504131509305/04/07 13:15:31  5-MIN KMKG 041815Z 11014KT 10SM CLR 21/02 A3012 450 28 1300 120/14 RMK AO2
14840KMKG MKG20070504132009905/04/07 13:20:31  5-MIN KMKG 041820Z 09011G20KT 10SM CLR 21/02 A3011 450 28 1300 100/11G20 RMK AO2
14840KMKG MKG20070504132509905/04/07 13:25:31  5-MIN KMKG 041825Z 11018G22KT 10SM CLR 21/02 A3012 450 28 1300 120/18G22 RMK AO2
14840KMKG MKG20070504133009905/04/07 13:30:31  5-MIN KMKG 041830Z 11015G22KT 10SM CLR 21/02 A3012 450 29 1200 120/15G22 RMK AO2
14840KMKG MKG20070504133509305/04/07 13:35:31  5-MIN KMKG 041835Z 09012KT 10SM CLR 21/03 A3011 450 29 1300 100/12 RMK AO2
14840KMKG MKG20070504134009905/04/07 13:40:31  5-MIN KMKG 041840Z 10015G22KT 10SM CLR 21/03 A3011 450 29 1300 100/15G22 RMK AO2
14840KMKG MKG20070504134509905/04/07 13:45:31  5-MIN KMKG 041845Z 11015G22KT 10SM CLR 21/03 A3011 450 29 1300 110/15G22 RMK AO2
14840KMKG MKG20070504135011005/04/07 13:50:31  5-MIN KMKG 041850Z 10013KT 10SM CLR 21/03 A3011 460 29 1300 110/13 RMK AO2 SLP195 T02110028
14840KMKG MKG20070504135511005/04/07 13:55:31  5-MIN KMKG 041855Z 10014KT 10SM CLR 22/03 A3010 460 29 1400 110/14 RMK AO2 SLP194 T02170033
14840KMKG MKG20070504140009905/04/07 14:00:31  5-MIN KMKG 041900Z 09011G20KT 10SM CLR 22/03 A3011 460 29 1400 090/11G20 RMK AO2
14840KMKG MKG20070504140509905/04/07 14:05:31  5-MIN KMKG 041905Z 11016G19KT 10SM CLR 22/03 A3011 460 29 1400 110/16G19 RMK AO2
14840KMKG MKG20070504141009905/04/07 14:10:31  5-MIN KMKG 041910Z 10016G22KT 10SM CLR 22/03 A3010 460 28 1400 100/16G22 RMK AO2
14840KMKG MKG20070504141509905/04/07 14:15:31  5-MIN KMKG 041915Z 10013G22KT 10SM CLR 22/03 A3011 460 29 1400 110/13G22 RMK AO2
14840KMKG MKG20070504142009905/04/07 14:20:31  5-MIN KMKG 041920Z 11015G22KT 10SM CLR 22/03 A3010 460 28 1400 110/15G22 RMK AO2
14840KMKG MKG20070504142509305/04/07 14:25:31  5-MIN KMKG 041925Z 08015KT 10SM CLR 22/03 A3010 460 29 1400 090/15 RMK AO2
14840KMKG MKG20070504143009905/04/07 14:30:31  5-MIN KMKG 041930Z 08013G22KT 10SM CLR 22/03 A3010 460 27 1400 080/13G22 RMK AO2
14840KMKG MKG20070504143509905/04/07 14:35:31  5-MIN KMKG 041935Z 10016G22KT 10SM CLR 22/03 A3010 460 29 1400 110/16G22 RMK AO2
14840KMKG MKG20070504144009905/04/07 14:40:31  5-MIN KMKG 041940Z 10015G21KT 10SM CLR 21/03 A3010 470 30 1300 110/15G21 RMK AO2
14840KMKG MKG20070504144509905/04/07 14:45:31  5-MIN KMKG 041945Z 11016G24KT 10SM CLR 22/03 A3010 460 29 1400 110/16G24 RMK AO2
14840KMKG MKG20070504145011605/04/07 14:50:31  5-MIN KMKG 041950Z 10013G24KT 10SM CLR 22/03 A3010 470 29 1400 110/13G24 RMK AO2 SLP193 T02170033
14840KMKG MKG20070504145511605/04/07 14:55:31  5-MIN KMKG 041955Z 11015G21KT 10SM CLR 21/03 A3010 470 30 1300 110/15G21 RMK AO2 SLP193 T02110033
14840KMKG MKG20070504150009905/04/07 15:00:31  5-MIN KMKG 042000Z 11015G23KT 10SM CLR 21/03 A3010 460 29 1300 110/15G23 RMK AO2
14840KMKG MKG20070504150509905/04/07 15:05:31  5-MIN KMKG 042005Z 09015G23KT 10SM CLR 22/03 A3010 460 28 1400 090/15G23 RMK AO2
14840KMKG MKG20070504151009905/04/07 15:10:31  5-MIN KMKG 042010Z 10014G22KT 10SM CLR 22/03 A3010 460 28 1400 110/14G22 RMK AO2
14840KMKG MKG20070504151509905/04/07 15:15:31  5-MIN KMKG 042015Z 09016G20KT 10SM CLR 22/03 A3010 470 29 1400 100/16G20 RMK AO2
14840KMKG MKG20070504152009905/04/07 15:20:31  5-MIN KMKG 042020Z 09012G20KT 10SM CLR 22/03 A3009 470 28 1400 100/12G20 RMK AO2
14840KMKG MKG20070504152509905/04/07 15:25:31  5-MIN KMKG 042025Z 09015G22KT 10SM CLR 22/03 A3009 470 28 1400 090/15G22 RMK AO2
14840KMKG MKG20070504153009905/04/07 15:30:31  5-MIN KMKG 042030Z 10013G22KT 10SM CLR 22/03 A3009 470 28 1400 110/13G22 RMK AO2
14840KMKG MKG20070504153509905/04/07 15:35:31  5-MIN KMKG 042035Z 09014G18KT 10SM CLR 23/03 A3009 470 27 1500 100/14G18 RMK AO2
14840KMKG MKG20070504154009905/04/07 15:40:31  5-MIN KMKG 042040Z 10015G21KT 10SM CLR 22/03 A3009 480 27 1500 100/15G21 RMK AO2
14840KMKG MKG20070504154509905/04/07 15:45:31  5-MIN KMKG 042045Z 10016G21KT 10SM CLR 22/03 A3009 470 27 1500 100/16G21 RMK AO2
14840KMKG MKG20070504155012205/04/07 15:50:31  5-MIN KMKG 042050Z 11015G20KT 10SM CLR 22/03 A3009 480 27 1500 110/15G20 RMK AO2 SLP189 T02220028 58015
14840KMKG MKG20070504155512205/04/07 15:55:31  5-MIN KMKG 042055Z 10014G22KT 10SM CLR 23/03 A3009 480 27 1500 110/14G22 RMK AO2 SLP188 T02280033 56014
14840KMKG MKG20070504160009905/04/07 16:00:31  5-MIN KMKG 042100Z 08017G22KT 10SM CLR 23/03 A3008 480 26 1500 080/17G22 RMK AO2
14840KMKG MKG20070504160509905/04/07 16:05:31  5-MIN KMKG 042105Z 08015G23KT 10SM CLR 23/03 A3008 480 26 1500 080/15G23 RMK AO2
14840KMKG MKG20070504161009905/04/07 16:10:31  5-MIN KMKG 042110Z 09015G23KT 10SM CLR 23/03 A3008 480 26 1500 090/15G23 RMK AO2
14840KMKG MKG20070504161509905/04/07 16:15:31  5-MIN KMKG 042115Z 12018G24KT 10SM CLR 23/03 A3008 480 26 1500 120/18G24 RMK AO2
14840KMKG MKG20070504162009905/04/07 16:20:31  5-MIN KMKG 042120Z 09009G24KT 10SM CLR 23/03 A3008 480 26 1500 100/09G24 RMK AO2
14840KMKG MKG20070504162509905/04/07 16:25:31  5-MIN KMKG 042125Z 11016G20KT 10SM CLR 23/03 A3008 480 27 1500 110/16G20 RMK AO2
14840KMKG MKG20070504163009905/04/07 16:30:31  5-MIN KMKG 042130Z 10013G21KT 10SM CLR 22/03 A3008 480 27 1500 100/13G21 RMK AO2
14840KMKG MKG20070504163509905/04/07 16:35:31  5-MIN KMKG 042135Z 12014G21KT 10SM CLR 22/03 A3008 480 28 1400 120/14G21 RMK AO2
14840KMKG MKG20070504164009305/04/07 16:40:31  5-MIN KMKG 042140Z 11013KT 10SM CLR 22/03 A3008 480 28 1400 120/13 RMK AO2
14840KMKG MKG20070504164509905/04/07 16:45:31  5-MIN KMKG 042145Z 11011G17KT 10SM CLR 22/03 A3007 490 28 1400 120/11G17 RMK AO2
14840KMKG MKG20070504165011605/04/07 16:50:31  5-MIN KMKG 042150Z 08013G19KT 10SM CLR 22/03 A3007 490 28 1400 080/13G19 RMK AO2 SLP184 T02170028
14840KMKG MKG20070504165511605/04/07 16:55:31  5-MIN KMKG 042155Z 09012G19KT 10SM CLR 22/02 A3007 490 27 1400 090/12G19 RMK AO2 SLP185 T02170022
14840KMKG MKG20070504170009305/04/07 17:00:31  5-MIN KMKG 042200Z 08014KT 10SM CLR 22/02 A3007 490 27 1400 090/14 RMK AO2
14840KMKG MKG20070504170509305/04/07 17:05:31  5-MIN KMKG 042205Z 08011KT 10SM CLR 22/03 A3007 490 28 1400 090/11 RMK AO2
14840KMKG MKG20070504171009905/04/07 17:10:31  5-MIN KMKG 042210Z 08014G19KT 10SM CLR 22/03 A3007 490 28 1400 080/14G19 RMK AO2
14840KMKG MKG20070504171509305/04/07 17:15:31  5-MIN KMKG 042215Z 08012KT 10SM CLR 22/03 A3007 490 28 1400 090/12 RMK AO2
14840KMKG MKG20070504172009305/04/07 17:20:31  5-MIN KMKG 042220Z 08012KT 10SM CLR 22/03 A3007 490 28 1400 090/12 RMK AO2
14840KMKG MKG20070504172509905/04/07 17:25:31  5-MIN KMKG 042225Z 09009G18KT 10SM CLR 22/03 A3007 500 28 1500 100/09G18 RMK AO2
14840KMKG MKG20070504173009905/04/07 17:30:31  5-MIN KMKG 042230Z 08016G19KT 10SM CLR 22/03 A3006 500 27 1500 080/16G19 RMK AO2
14840KMKG MKG20070504173509905/04/07 17:35:31  5-MIN KMKG 042235Z 09014G21KT 10SM CLR 22/03 A3006 500 28 1400 090/14G21 RMK AO2
14840KMKG MKG20070504174009905/04/07 17:40:31  5-MIN KMKG 042240Z 08012G21KT 10SM CLR 22/03 A3006 500 28 1400 080/12G21 RMK AO2
14840KMKG MKG20070504174509905/04/07 17:45:31  5-MIN KMKG 042245Z 07015G21KT 10SM CLR 22/03 A3006 500 28 1500 080/15G21 RMK AO2
14840KMKG MKG20070504175011605/04/07 17:50:31  5-MIN KMKG 042250Z 08013G22KT 10SM CLR 22/02 A3006 500 27 1400 080/13G22 RMK AO2 SLP179 T02170022
14840KMKG MKG20070504175511605/04/07 17:55:31  5-MIN KMKG 042255Z 08012G22KT 10SM CLR 22/02 A3006 500 27 1400 080/12G22 RMK AO2 SLP179 T02170022
14840KMKG MKG20070504180009905/04/07 18:00:31  5-MIN KMKG 042300Z 08014G20KT 10SM CLR 22/03 A3006 510 28 1400 080/14G20 RMK AO2
14840KMKG MKG20070504180509905/04/07 18:05:31  5-MIN KMKG 042305Z 09010G18KT 10SM CLR 22/03 A3006 500 28 1400 100/10G18 RMK AO2
14840KMKG MKG20070504181009305/04/07 18:10:31  5-MIN KMKG 042310Z 08013KT 10SM CLR 22/03 A3005 510 28 1400 090/13 RMK AO2
14840KMKG MKG20070504181509905/04/07 18:15:31  5-MIN KMKG 042315Z 08013G20KT 10SM CLR 21/03 A3006 500 29 1400 080/13G20 RMK AO2
14840KMKG MKG20070504182009905/04/07 18:20:31  5-MIN KMKG 042320Z 08015G20KT 10SM CLR 21/03 A3006 500 29 1400 080/15G20 RMK AO2
14840KMKG MKG20070504182509905/04/07 18:25:31  5-MIN KMKG 042325Z 08013G19KT 10SM CLR 21/02 A3006 500 28 1400 090/13G19 RMK AO2
14840KMKG MKG20070504183009905/04/07 18:30:31  5-MIN KMKG 042330Z 09011G20KT 10SM CLR 21/02 A3006 500 28 1400 100/11G20 RMK AO2
14840KMKG MKG20070504183509905/04/07 18:35:31  5-MIN KMKG 042335Z 08015G20KT 10SM CLR 21/02 A3006 500 29 1300 080/15G20 RMK AO2
14840KMKG MKG20070504184009905/04/07 18:40:31  5-MIN KMKG 042340Z 09010G19KT 10SM CLR 21/02 A3006 500 29 1300 100/10G19 RMK AO2
14840KMKG MKG20070504184509905/04/07 18:45:31  5-MIN KMKG 042345Z 09011G18KT 10SM CLR 21/02 A3006 500 29 1300 090/11G18 RMK AO2
14840KMKG MKG20070504185012805/04/07 18:50:31  5-MIN KMKG 042350Z 09011KT 10SM CLR 21/03 A3006 500 30 1300 090/11 RMK AO2 SLP179 T02060028 10228 20206 56014
14840KMKG MKG20070504185512805/04/07 18:55:31  5-MIN KMKG 042355Z 08011KT 10SM CLR 20/02 A3006 500 30 1200 090/11 RMK AO2 SLP179 T02000022 10228 20200 55009
14840KMKG MKG20070504190009305/04/07 19:00:31  5-MIN KMKG 050000Z 08009KT 10SM CLR 20/02 A3006 500 30 1200 090/09 RMK AO2
14840KMKG MKG20070504190509305/04/07 19:05:31  5-MIN KMKG 050005Z 08008KT 10SM CLR 19/03 A3006 500 33 1200 090/08 RMK AO2
14840KMKG MKG20070504191009305/04/07 19:10:31  5-MIN KMKG 050010Z 09009KT 10SM CLR 19/03 A3006 500 33 1200 090/09 RMK AO2
14840KMKG MKG20070504191509305/04/07 19:15:31  5-MIN KMKG 050015Z 08008KT 10SM CLR 19/03 A3006 500 33 1200 090/08 RMK AO2
14840KMKG MKG20070504192009305/04/07 19:20:31  5-MIN KMKG 050020Z 08007KT 10SM CLR 19/03 A3006 500 34 1100 090/07 RMK AO2
14840KMKG MKG20070504192509305/04/07 19:25:31  5-MIN KMKG 050025Z 08008KT 10SM CLR 19/03 A3006 500 35 1100 080/08 RMK AO2
14840KMKG MKG20070504193009305/04/07 19:30:31  5-MIN KMKG 050030Z 08008KT 10SM CLR 19/03 A3006 500 34 1100 090/08 RMK AO2
14840KMKG MKG20070504193509305/04/07 19:35:31  5-MIN KMKG 050035Z 08008KT 10SM CLR 19/03 A3007 500 34 1100 080/08 RMK AO2
14840KMKG MKG20070504194009305/04/07 19:40:31  5-MIN KMKG 050040Z 08008KT 10SM CLR 18/03 A3007 500 35 1000 080/08 RMK AO2
14840KMKG MKG20070504194509305/04/07 19:45:31  5-MIN KMKG 050045Z 08007KT 10SM CLR 18/03 A3007 500 35 1000 080/07 RMK AO2
14840KMKG MKG20070504195011005/04/07 19:50:31  5-MIN KMKG 050050Z 08008KT 10SM CLR 18/03 A3007 500 36 1000 080/08 RMK AO2 SLP181 T01780028
14840KMKG MKG20070504195511005/04/07 19:55:31  5-MIN KMKG 050055Z 08008KT 10SM CLR 18/03 A3007 500 36 1000 080/08 RMK AO2 SLP181 T01780028
14840KMKG MKG20070504200009305/04/07 20:00:31  5-MIN KMKG 050100Z 08009KT 10SM CLR 18/02 A3006 500 35 1000 090/09 RMK AO2
14840KMKG MKG20070504200509305/04/07 20:05:31  5-MIN KMKG 050105Z 08010KT 10SM CLR 18/02 A3007 500 35 1000 080/10 RMK AO2
14840KMKG MKG20070504201009305/04/07 20:10:31  5-MIN KMKG 050110Z 08009KT 10SM CLR 18/02 A3007 490 35 1000 090/09 RMK AO2
14840KMKG MKG20070504201509305/04/07 20:15:31  5-MIN KMKG 050115Z 08009KT 10SM CLR 18/02 A3007 490 35 1000 090/09 RMK AO2
14840KMKG MKG20070504202009305/04/07 20:20:31  5-MIN KMKG 050120Z 08009KT 10SM CLR 18/02 A3007 490 35 1000 090/09 RMK AO2
14840KMKG MKG20070504202509305/04/07 20:25:31  5-MIN KMKG 050125Z 09009KT 10SM CLR 18/02 A3007 490 33 1000 090/09 RMK AO2
14840KMKG MKG20070504203009205/04/07 20:30:31  5-MIN KMKG 050130Z 08008KT 10SM CLR 17/02 A3007 490 35 900 090/08 RMK AO2
14840KMKG MKG20070504203509205/04/07 20:35:31  5-MIN KMKG 050135Z 08009KT 10SM CLR 17/02 A3007 490 35 900 090/09 RMK AO2
14840KMKG MKG20070504204009205/04/07 20:40:31  5-MIN KMKG 050140Z 09008KT 10SM CLR 17/02 A3008 490 35 900 090/08 RMK AO2
14840KMKG MKG20070504204509205/04/07 20:45:31  5-MIN KMKG 050145Z 08008KT 10SM CLR 17/02 A3008 480 35 900 090/08 RMK AO2
14840KMKG MKG20070504205010905/04/07 20:50:31  5-MIN KMKG 050150Z 09008KT 10SM CLR 17/02 A3008 480 35 900 090/08 RMK AO2 SLP186 T01720017
14840KMKG MKG20070504205510905/04/07 20:55:31  5-MIN KMKG 050155Z 09009KT 10SM CLR 17/02 A3008 480 35 900 090/09 RMK AO2 SLP187 T01720017
14840KMKG MKG20070504210009205/04/07 21:00:31  5-MIN KMKG 050200Z 09009KT 10SM CLR 17/02 A3008 480 35 900 090/09 RMK AO2
14840KMKG MKG20070504210509205/04/07 21:05:31  5-MIN KMKG 050205Z 09009KT 10SM CLR 17/02 A3008 480 36 800 090/09 RMK AO2
14840KMKG MKG20070504211009205/04/07 21:10:31  5-MIN KMKG 050210Z 09008KT 10SM CLR 17/01 A3009 480 33 900 090/08 RMK AO2
14840KMKG MKG20070504211509205/04/07 21:15:31  5-MIN KMKG 050215Z 09008KT 10SM CLR 17/02 A3009 480 36 800 090/08 RMK AO2
14840KMKG MKG20070504212009205/04/07 21:20:31  5-MIN KMKG 050220Z 09008KT 10SM CLR 17/02 A3009 470 36 800 090/08 RMK AO2
14840KMKG MKG20070504212509205/04/07 21:25:31  5-MIN KMKG 050225Z 09010KT 10SM CLR 17/01 A3009 470 34 800 100/10 RMK AO2
14840KMKG MKG20070504213009205/04/07 21:30:31  5-MIN KMKG 050230Z 09008KT 10SM CLR 17/01 A3009 470 34 800 090/08 RMK AO2
14840KMKG MKG20070504213509205/04/07 21:35:31  5-MIN KMKG 050235Z 09008KT 10SM CLR 17/01 A3009 470 34 800 090/08 RMK AO2
14840KMKG MKG20070504214009205/04/07 21:40:31  5-MIN KMKG 050240Z 09008KT 10SM CLR 17/01 A3009 470 34 800 090/08 RMK AO2
14840KMKG MKG20070504214509205/04/07 21:45:31  5-MIN KMKG 050245Z 08009KT 10SM CLR 17/01 A3010 470 34 800 090/09 RMK AO2
14840KMKG MKG20070504215011505/04/07 21:50:31  5-MIN KMKG 050250Z 07009KT 10SM CLR 16/02 A3010 460 39 700 080/09 RMK AO2 SLP193 T01560017 55009
14840KMKG MKG20070504215511505/04/07 21:55:31  5-MIN KMKG 050255Z 07007KT 10SM CLR 15/02 A3010 460 40 600 080/07 RMK AO2 SLP193 T01500017 53015
14840KMKG MKG20070504220009205/04/07 22:00:31  5-MIN KMKG 050300Z 08008KT 10SM CLR 15/02 A3010 460 40 600 080/08 RMK AO2
14840KMKG MKG20070504220509205/04/07 22:05:31  5-MIN KMKG 050305Z 08010KT 10SM CLR 16/02 A3010 460 39 700 090/10 RMK AO2
14840KMKG MKG20070504221009205/04/07 22:10:31  5-MIN KMKG 050310Z 08011KT 10SM CLR 16/01 A3010 460 37 700 090/11 RMK AO2
14840KMKG MKG20070504221509205/04/07 22:15:31  5-MIN KMKG 050315Z 08010KT 10SM CLR 16/01 A3010 460 37 700 090/10 RMK AO2
14840KMKG MKG20070504222009205/04/07 22:20:31  5-MIN KMKG 050320Z 08008KT 10SM CLR 16/01 A3010 460 37 700 080/08 RMK AO2
14840KMKG MKG20070504222509205/04/07 22:25:31  5-MIN KMKG 050325Z 08009KT 10SM CLR 15/02 A3011 460 40 600 080/09 RMK AO2
14840KMKG MKG20070504223009205/04/07 22:30:31  5-MIN KMKG 050330Z 08010KT 10SM CLR 15/02 A3011 460 40 600 080/10 RMK AO2
14840KMKG MKG20070504223509205/04/07 22:35:31  5-MIN KMKG 050335Z 07010KT 10SM CLR 14/02 A3011 460 41 500 080/10 RMK AO2
14840KMKG MKG20070504224009205/04/07 22:40:31  5-MIN KMKG 050340Z 08009KT 10SM CLR 14/02 A3011 460 41 500 090/09 RMK AO2
14840KMKG MKG20070504224509205/04/07 22:45:31  5-MIN KMKG 050345Z 08011KT 10SM CLR 14/02 A3011 460 41 500 080/11 RMK AO2
14840KMKG MKG20070504225010905/04/07 22:50:31  5-MIN KMKG 050350Z 08009KT 10SM CLR 14/02 A3011 460 41 500 080/09 RMK AO2 SLP194 T01440017
14840KMKG MKG20070504225510905/04/07 22:55:31  5-MIN KMKG 050355Z 08009KT 10SM CLR 14/01 A3011 460 40 500 080/09 RMK AO2 SLP194 T01440011
14840KMKG MKG20070504230009205/04/07 23:00:31  5-MIN KMKG 050400Z 08011KT 10SM CLR 14/01 A3011 460 41 500 080/11 RMK AO2
14840KMKG MKG20070504230509205/04/07 23:05:31  5-MIN KMKG 050405Z 08011KT 10SM CLR 14/01 A3011 460 41 500 080/11 RMK AO2
14840KMKG MKG20070504231009205/04/07 23:10:31  5-MIN KMKG 050410Z 08009KT 10SM CLR 14/01 A3011 460 41 500 080/09 RMK AO2
14840KMKG MKG20070504231509805/04/07 23:15:31  5-MIN KMKG 050415Z 08012G18KT 10SM CLR 14/01 A3011 460 41 500 090/12G18 RMK AO2
14840KMKG MKG20070504232009805/04/07 23:20:31  5-MIN KMKG 050420Z 08010G18KT 10SM CLR 13/01 A3011 460 43 400 080/10G18 RMK AO2
14840KMKG MKG20070504232509205/04/07 23:25:31  5-MIN KMKG 050425Z 08010KT 10SM CLR 13/01 A3011 450 43 400 080/10 RMK AO2
14840KMKG MKG20070504233009205/04/07 23:30:31  5-MIN KMKG 050430Z 08009KT 10SM CLR 13/01 A3011 460 43 400 080/09 RMK AO2
14840KMKG MKG20070504233509205/04/07 23:35:31  5-MIN KMKG 050435Z 08011KT 10SM CLR 13/01 A3011 450 43 400 080/11 RMK AO2
14840KMKG MKG20070504234009205/04/07 23:40:31  5-MIN KMKG 050440Z 08009KT 10SM CLR 13/01 A3011 450 44 300 080/09 RMK AO2
14840KMKG MKG20070504235011905/04/07 23:50:31  5-MIN KMKG 050450Z 07010KT 10SM CLR 13/01 A3011 460 44 300 080/10 RMK AO2 SLP196 T01280011 402280061
14840KMKG MKG20070504235511905/04/07 23:55:31  5-MIN KMKG 050455Z 08010KT 10SM CLR 13/01 A3011 460 44 300 090/10 RMK AO2 SLP196 T01280011 402280061
14840KMKG MKG20070505000009205/05/07 00:00:32  5-MIN KMKG 050500Z 08010KT 10SM CLR 13/01 A3011 460 44 300 080/10 RMK AO2
14840KMKG MKG20070505000509205/05/07 00:05:31  5-MIN KMKG 050505Z 08010KT 10SM CLR 13/01 A3011 460 44 300 080/10 RMK AO2
14840KMKG MKG20070505001009205/05/07 00:10:31  5-MIN KMKG 050510Z 08009KT 10SM CLR 12/01 A3011 450 46 300 080/09 RMK AO2
14840KMKG MKG20070505001509205/05/07 00:15:31  5-MIN KMKG 050515Z 08011KT 10SM CLR 12/01 A3011 460 46 300 090/11 RMK AO2
14840KMKG MKG20070505002009205/05/07 00:20:31  5-MIN KMKG 050520Z 08010KT 10SM CLR 12/01 A3011 460 46 300 090/10 RMK AO2
14840KMKG MKG20070505002509205/05/07 00:25:31  5-MIN KMKG 050525Z 08009KT 10SM CLR 12/01 A3011 460 46 300 090/09 RMK AO2
14840KMKG MKG20070505003009205/05/07 00:30:31  5-MIN KMKG 050530Z 08011KT 10SM CLR 12/01 A3011 460 44 300 080/11 RMK AO2
14840KMKG MKG20070505003509205/05/07 00:35:31  5-MIN KMKG 050535Z 08011KT 10SM CLR 12/01 A3011 460 44 300 080/11 RMK AO2
14840KMKG MKG20070505004009205/05/07 00:40:31  5-MIN KMKG 050540Z 08009KT 10SM CLR 12/01 A3011 460 44 300 080/09 RMK AO2
14840KMKG MKG20070505004509205/05/07 00:45:31  5-MIN KMKG 050545Z 08011KT 10SM CLR 12/01 A3011 460 44 300 090/11 RMK AO2
14840KMKG MKG20070505005012705/05/07 00:50:31  5-MIN KMKG 050550Z 08011KT 10SM CLR 12/01 A3011 460 44 300 090/11 RMK AO2 SLP194 T01220006 10200 20122 53015
14840KMKG MKG20070505005512705/05/07 00:55:31  5-MIN KMKG 050555Z 08011KT 10SM CLR 12/01 A3011 460 44 300 090/11 RMK AO2 SLP195 T01220006 10200 20122 50001
14840KMKG MKG20070505010009205/05/07 01:00:31  5-MIN KMKG 050600Z 08011KT 10SM CLR 12/01 A3011 460 44 300 090/11 RMK AO2
14840KMKG MKG20070505010509205/05/07 01:05:31  5-MIN KMKG 050605Z 08013KT 10SM CLR 12/01 A3011 460 44 300 090/13 RMK AO2
14840KMKG MKG20070505011009205/05/07 01:10:31  5-MIN KMKG 050610Z 08011KT 10SM CLR 12/01 A3011 460 44 300 090/11 RMK AO2
14840KMKG MKG20070505011509205/05/07 01:15:31  5-MIN KMKG 050615Z 08012KT 10SM CLR 12/01 A3011 460 44 300 090/12 RMK AO2
14840KMKG MKG20070505012009205/05/07 01:20:31  5-MIN KMKG 050620Z 08010KT 10SM CLR 12/01 A3011 460 44 300 090/10 RMK AO2
14840KMKG MKG20070505012509205/05/07 01:25:31  5-MIN KMKG 050625Z 09009KT 10SM CLR 12/01 A3010 460 46 200 090/09 RMK AO2
14840KMKG MKG20070505013009205/05/07 01:30:31  5-MIN KMKG 050630Z 09011KT 10SM CLR 12/01 A3010 460 46 200 090/11 RMK AO2
14840KMKG MKG20070505013509205/05/07 01:35:31  5-MIN KMKG 050635Z 09009KT 10SM CLR 12/01 A3010 460 46 200 090/09 RMK AO2
14840KMKG MKG20070505014009805/05/07 01:40:31  5-MIN KMKG 050640Z 08009G17KT 10SM CLR 12/01 A3010 460 46 200 090/09G17 RMK AO2
14840KMKG MKG20070505014509205/05/07 01:45:31  5-MIN KMKG 050645Z 09009KT 10SM CLR 12/01 A3010 460 46 200 090/09 RMK AO2
14840KMKG MKG20070505015010905/05/07 01:50:31  5-MIN KMKG 050650Z 08010KT 10SM CLR 12/01 A3010 460 46 200 090/10 RMK AO2 SLP193 T01170006
14840KMKG MKG20070505015510905/05/07 01:55:31  5-MIN KMKG 050655Z 08011KT 10SM CLR 12/00 A3010 460 44 200 090/11 RMK AO2 SLP193 T01170000
14840KMKG MKG20070505020009205/05/07 02:00:31  5-MIN KMKG 050700Z 08011KT 10SM CLR 12/00 A3010 460 44 200 090/11 RMK AO2
14840KMKG MKG20070505020509205/05/07 02:05:31  5-MIN KMKG 050705Z 09009KT 10SM CLR 12/00 A3010 470 44 200 090/09 RMK AO2
14840KMKG MKG20070505021009205/05/07 02:10:31  5-MIN KMKG 050710Z 09009KT 10SM CLR 12/00 A3010 470 44 200 090/09 RMK AO2
14840KMKG MKG20070505021509205/05/07 02:15:31  5-MIN KMKG 050715Z 08010KT 10SM CLR 12/00 A3010 470 44 200 090/10 RMK AO2
14840KMKG MKG20070505022009205/05/07 02:20:31  5-MIN KMKG 050720Z 08010KT 10SM CLR 12/00 A3009 470 44 200 090/10 RMK AO2
14840KMKG MKG20070505022509205/05/07 02:25:31  5-MIN KMKG 050725Z 08010KT 10SM CLR 12/00 A3009 470 44 200 080/10 RMK AO2
14840KMKG MKG20070505023009205/05/07 02:30:31  5-MIN KMKG 050730Z 08011KT 10SM CLR 12/00 A3009 470 44 200 090/11 RMK AO2
14840KMKG MKG20070505023509205/05/07 02:35:31  5-MIN KMKG 050735Z 09010KT 10SM CLR 12/00 A3009 470 44 200 090/10 RMK AO2
14840KMKG MKG20070505024009205/05/07 02:40:31  5-MIN KMKG 050740Z 08011KT 10SM CLR 12/00 A3009 470 44 200 090/11 RMK AO2
14840KMKG MKG20070505024509205/05/07 02:45:31  5-MIN KMKG 050745Z 09010KT 10SM CLR 12/00 A3009 470 44 200 100/10 RMK AO2
14840KMKG MKG20070505025010905/05/07 02:50:31  5-MIN KMKG 050750Z 09009KT 10SM CLR 12/00 A3009 470 44 200 090/09 RMK AO2 SLP190 T01170000
14840KMKG MKG20070505025510905/05/07 02:55:31  5-MIN KMKG 050755Z 09009KT 10SM CLR 12/00 A3009 470 44 200 090/09 RMK AO2 SLP189 T01170000
14840KMKG MKG20070505030009205/05/07 03:00:31  5-MIN KMKG 050800Z 08010KT 10SM CLR 12/00 A3009 470 44 200 090/10 RMK AO2
14840KMKG MKG20070505030509305/05/07 03:05:31  5-MIN KMKG 050805Z 09010KT 10SM CLR 12/M01 A3009 470 42 200 090/10 RMK AO2
14840KMKG MKG20070505031009205/05/07 03:10:31  5-MIN KMKG 050810Z 09009KT 10SM CLR 12/00 A3009 470 44 200 090/09 RMK AO2
14840KMKG MKG20070505031509205/05/07 03:15:31  5-MIN KMKG 050815Z 08010KT 10SM CLR 11/00 A3009 470 46 200 090/10 RMK AO2
14840KMKG MKG20070505032009205/05/07 03:20:31  5-MIN KMKG 050820Z 09009KT 10SM CLR 11/00 A3009 470 46 200 090/09 RMK AO2
14840KMKG MKG20070505032509205/05/07 03:25:31  5-MIN KMKG 050825Z 09009KT 10SM CLR 11/00 A3009 470 46 200 090/09 RMK AO2
14840KMKG MKG20070505033009205/05/07 03:30:31  5-MIN KMKG 050830Z 08010KT 10SM CLR 11/00 A3009 470 46 200 090/10 RMK AO2
14840KMKG MKG20070505033509205/05/07 03:35:31  5-MIN KMKG 050835Z 09008KT 10SM CLR 11/00 A3009 470 46 200 090/08 RMK AO2
14840KMKG MKG20070505034009205/05/07 03:40:31  5-MIN KMKG 050840Z 09008KT 10SM CLR 11/00 A3009 470 46 200 090/08 RMK AO2
14840KMKG MKG20070505034509205/05/07 03:45:31  5-MIN KMKG 050845Z 09008KT 10SM CLR 11/00 A3009 470 46 200 090/08 RMK AO2
14840KMKG MKG20070505035011505/05/07 03:50:31  5-MIN KMKG 050850Z 08009KT 10SM CLR 11/00 A3009 470 46 200 090/09 RMK AO2 SLP190 T01110000 50001
14840KMKG MKG20070505035511505/05/07 03:55:31  5-MIN KMKG 050855Z 08009KT 10SM CLR 11/00 A3009 480 46 200 090/09 RMK AO2 SLP188 T01110000 56006
14840KMKG MKG20070505040009205/05/07 04:00:31  5-MIN KMKG 050900Z 08009KT 10SM CLR 11/00 A3009 480 48 100 090/09 RMK AO2
14840KMKG MKG20070505040509205/05/07 04:05:31  5-MIN KMKG 050905Z 08008KT 10SM CLR 11/00 A3009 470 48 100 090/08 RMK AO2
14840KMKG MKG20070505041009205/05/07 04:10:31  5-MIN KMKG 050910Z 09008KT 10SM CLR 11/00 A3009 470 48 100 090/08 RMK AO2
14840KMKG MKG20070505041509205/05/07 04:15:31  5-MIN KMKG 050915Z 08010KT 10SM CLR 11/00 A3009 470 48 100 090/10 RMK AO2
14840KMKG MKG20070505042009205/05/07 04:20:31  5-MIN KMKG 050920Z 08009KT 10SM CLR 11/00 A3009 470 48 100 090/09 RMK AO2
14840KMKG MKG20070505042509205/05/07 04:25:31  5-MIN KMKG 050925Z 09008KT 10SM CLR 11/00 A3009 470 48 100 090/08 RMK AO2
14840KMKG MKG20070505043009205/05/07 04:30:31  5-MIN KMKG 050930Z 08008KT 10SM CLR 11/00 A3009 470 48 100 090/08 RMK AO2
14840KMKG MKG20070505043509205/05/07 04:35:31  5-MIN KMKG 050935Z 09008KT 10SM CLR 11/00 A3009 470 48 100 090/08 RMK AO2
14840KMKG MKG20070505044009305/05/07 04:40:31  5-MIN KMKG 050940Z 08009KT 10SM CLR 11/M01 A3009 470 46 100 090/09 RMK AO2
14840KMKG MKG20070505044509305/05/07 04:45:31  5-MIN KMKG 050945Z 09008KT 10SM CLR 11/M01 A3009 470 46 100 090/08 RMK AO2
14840KMKG MKG20070505045010905/05/07 04:50:31  5-MIN KMKG 050950Z 08008KT 10SM CLR 11/00 A3009 470 48 100 090/08 RMK AO2 SLP189 T01060000
14840KMKG MKG20070505045510705/05/07 04:55:31  5-MIN KMKG 050955Z 09007KT 10SM CLR 10/00 A3009 470 49 0 090/07 RMK AO2 SLP189 T01000000
14840KMKG MKG20070505050009005/05/07 05:00:31  5-MIN KMKG 051000Z 08007KT 10SM CLR 10/00 A3009 470 49 0 090/07 RMK AO2
14840KMKG MKG20070505050509005/05/07 05:05:31  5-MIN KMKG 051005Z 08008KT 10SM CLR 10/00 A3009 470 49 0 090/08 RMK AO2
14840KMKG MKG20070505051009205/05/07 05:10:31  5-MIN KMKG 051010Z 08009KT 10SM CLR 11/00 A3009 470 48 100 090/09 RMK AO2
14840KMKG MKG20070505051509205/05/07 05:15:31  5-MIN KMKG 051015Z 09008KT 10SM CLR 11/00 A3009 470 48 100 090/08 RMK AO2
14840KMKG MKG20070505052009205/05/07 05:20:31  5-MIN KMKG 051020Z 08008KT 10SM CLR 11/00 A3009 470 48 100 090/08 RMK AO2
14840KMKG MKG20070505052509305/05/07 05:25:31  5-MIN KMKG 051025Z 09008KT 10SM CLR 11/M01 A3009 470 46 100 090/08 RMK AO2
14840KMKG MKG20070505053009205/05/07 05:30:31  5-MIN KMKG 051030Z 09009KT 10SM CLR 11/00 A3009 470 48 100 090/09 RMK AO2
14840KMKG MKG20070505053509305/05/07 05:35:31  5-MIN KMKG 051035Z 08009KT 10SM CLR 11/M01 A3009 470 46 100 090/09 RMK AO2
14840KMKG MKG20070505054009205/05/07 05:40:31  5-MIN KMKG 051040Z 09009KT 10SM CLR 11/00 A3009 470 48 100 090/09 RMK AO2
14840KMKG MKG20070505054509205/05/07 05:45:31  5-MIN KMKG 051045Z 08010KT 10SM CLR 11/00 A3009 470 48 100 090/10 RMK AO2
14840KMKG MKG20070505055011005/05/07 05:50:31  5-MIN KMKG 051050Z 09009KT 10SM CLR 11/M01 A3010 470 46 100 090/09 RMK AO2 SLP191 T01061006
14840KMKG MKG20070505055511005/05/07 05:55:31  5-MIN KMKG 051055Z 09009KT 10SM CLR 11/M01 A3010 470 46 100 090/09 RMK AO2 SLP191 T01061006
14840KMKG MKG20070505060009305/05/07 06:00:31  5-MIN KMKG 051100Z 09010KT 10SM CLR 11/M01 A3010 470 46 100 090/10 RMK AO2
14840KMKG MKG20070505060509305/05/07 06:05:31  5-MIN KMKG 051105Z 09010KT 10SM CLR 11/M01 A3009 470 46 100 090/10 RMK AO2
14840KMKG MKG20070505061009205/05/07 06:10:31  5-MIN KMKG 051110Z 08010KT 10SM CLR 11/00 A3010 470 48 100 090/10 RMK AO2
14840KMKG MKG20070505061509305/05/07 06:15:31  5-MIN KMKG 051115Z 08010KT 10SM CLR 11/M01 A3010 470 46 100 080/10 RMK AO2
14840KMKG MKG20070505062009305/05/07 06:20:31  5-MIN KMKG 051120Z 09010KT 10SM CLR 11/M01 A3010 470 46 100 090/10 RMK AO2
14840KMKG MKG20070505062509305/05/07 06:25:31  5-MIN KMKG 051125Z 09010KT 10SM CLR 11/M01 A3010 470 44 200 090/10 RMK AO2
14840KMKG MKG20070505063009305/05/07 06:30:31  5-MIN KMKG 051130Z 09010KT 10SM CLR 11/M01 A3010 460 44 100 090/10 RMK AO2
14840KMKG MKG20070505063509205/05/07 06:35:31  5-MIN KMKG 051135Z 08009KT 10SM CLR 11/00 A3010 460 46 100 090/09 RMK AO2
14840KMKG MKG20070505064009305/05/07 06:40:31  5-MIN KMKG 051140Z 08009KT 10SM CLR 11/M01 A3010 460 44 100 090/09 RMK AO2
14840KMKG MKG20070505064509205/05/07 06:45:31  5-MIN KMKG 051145Z 08010KT 10SM CLR 11/00 A3011 460 46 100 080/10 RMK AO2
14840KMKG MKG20070505065012805/05/07 06:50:31  5-MIN KMKG 051150Z 08010KT 10SM CLR 11/M01 A3011 460 44 100 080/10 RMK AO2 SLP196 T01111006 10122 20100 56006
14840KMKG MKG20070505065512805/05/07 06:55:31  5-MIN KMKG 051155Z 08010KT 10SM CLR 11/M01 A3011 460 44 100 090/10 RMK AO2 SLP196 T01111006 10122 20100 53007
14840KMKG MKG20070505070009205/05/07 07:00:31  5-MIN KMKG 051200Z 08011KT 10SM CLR 12/00 A3011 450 44 200 090/11 RMK AO2
14840KMKG MKG20070505070509305/05/07 07:05:31  5-MIN KMKG 051205Z 08010KT 10SM CLR 12/M01 A3011 450 42 200 090/10 RMK AO2
14840KMKG MKG20070505071009305/05/07 07:10:31  5-MIN KMKG 051210Z 08011KT 10SM CLR 12/M01 A3011 450 42 200 090/11 RMK AO2
14840KMKG MKG20070505071509205/05/07 07:15:31  5-MIN KMKG 051215Z 08011KT 10SM CLR 12/00 A3011 450 44 200 080/11 RMK AO2
14840KMKG MKG20070505072009205/05/07 07:20:31  5-MIN KMKG 051220Z 08012KT 10SM CLR 12/00 A3011 450 44 200 080/12 RMK AO2
14840KMKG MKG20070505072509205/05/07 07:25:31  5-MIN KMKG 051225Z 08010KT 10SM CLR 12/00 A3011 450 44 200 080/10 RMK AO2
14840KMKG MKG20070505073009205/05/07 07:30:31  5-MIN KMKG 051230Z 08010KT 10SM CLR 12/00 A3012 450 43 300 080/10 RMK AO2
14840KMKG MKG20070505073509305/05/07 07:35:31  5-MIN KMKG 051235Z 08012KT 10SM CLR 12/M01 A3012 440 41 300 080/12 RMK AO2
14840KMKG MKG20070505074009305/05/07 07:40:31  5-MIN KMKG 051240Z 08011KT 10SM CLR 12/M01 A3012 440 41 300 080/11 RMK AO2
14840KMKG MKG20070505074509305/05/07 07:45:31  5-MIN KMKG 051245Z 08010KT 10SM CLR 12/M01 A3013 440 41 300 080/10 RMK AO2
14840KMKG MKG20070505075011005/05/07 07:50:31  5-MIN KMKG 051250Z 07008KT 10SM CLR 12/M01 A3013 440 41 300 080/08 RMK AO2 SLP202 T01221006
14840KMKG MKG20070505075511005/05/07 07:55:31  5-MIN KMKG 051255Z 08011KT 10SM CLR 13/M01 A3013 440 39 300 080/11 RMK AO2 SLP201 T01281006
14840KMKG MKG20070505080009305/05/07 08:00:31  5-MIN KMKG 051300Z 08010KT 10SM CLR 13/M01 A3013 440 39 300 080/10 RMK AO2
14840KMKG MKG20070505080509305/05/07 08:05:31  5-MIN KMKG 051305Z 08009KT 10SM CLR 13/M01 A3013 440 39 300 080/09 RMK AO2
14840KMKG MKG20070505081009305/05/07 08:10:31  5-MIN KMKG 051310Z 08010KT 10SM CLR 13/M01 A3013 440 39 300 080/10 RMK AO2
14840KMKG MKG20070505081509305/05/07 08:15:31  5-MIN KMKG 051315Z 08010KT 10SM CLR 13/M01 A3013 440 38 400 090/10 RMK AO2
14840KMKG MKG20070505082009305/05/07 08:20:31  5-MIN KMKG 051320Z 08012KT 10SM CLR 13/M01 A3013 440 38 400 080/12 RMK AO2
14840KMKG MKG20070505082509305/05/07 08:25:31  5-MIN KMKG 051325Z 08011KT 10SM CLR 13/M01 A3013 440 38 400 080/11 RMK AO2
14840KMKG MKG20070505083009905/05/07 08:30:31  5-MIN KMKG 051330Z 07013G18KT 10SM CLR 13/M01 A3013 440 38 400 080/13G18 RMK AO2
14840KMKG MKG20070505083509305/05/07 08:35:31  5-MIN KMKG 051335Z 08013KT 10SM CLR 13/M01 A3013 440 38 400 080/13 RMK AO2
14840KMKG MKG20070505084009905/05/07 08:40:31  5-MIN KMKG 051340Z 08016G22KT 10SM CLR 14/M01 A3012 440 37 500 080/16G22 RMK AO2
14840KMKG MKG20070505084509905/05/07 08:45:31  5-MIN KMKG 051345Z 08016G22KT 10SM CLR 14/M01 A3012 440 37 500 080/16G22 RMK AO2
14840KMKG MKG20070505085011605/05/07 08:50:31  5-MIN KMKG 051350Z 08014G21KT 10SM CLR 14/M01 A3012 440 37 500 080/14G21 RMK AO2 SLP200 T01391006
14840KMKG MKG20070505085510905/05/07 08:55:31  5-MIN KMKG 051355Z 07014KT 10SM CLR 14/00 A3012 440 37 500 080/14 RMK AO2 SLP201 T01440000
14840KMKG MKG20070505090009305/05/07 09:00:31  5-MIN KMKG 051400Z 08014KT 10SM CLR 14/M01 A3012 440 35 500 090/14 RMK AO2
14840KMKG MKG20070505090509805/05/07 09:05:31  5-MIN KMKG 051405Z 07015G21KT 10SM CLR 14/00 A3012 440 37 500 080/15G21 RMK AO2
14840KMKG MKG20070505091009805/05/07 09:10:31  5-MIN KMKG 051410Z 08013G21KT 10SM CLR 14/00 A3013 440 37 500 080/13G21 RMK AO2
14840KMKG MKG20070505091509805/05/07 09:15:31  5-MIN KMKG 051415Z 08015G21KT 10SM CLR 14/00 A3013 440 37 500 080/15G21 RMK AO2
14840KMKG MKG20070505092009205/05/07 09:20:31  5-MIN KMKG 051420Z 07016KT 10SM CLR 14/00 A3013 440 37 500 080/16 RMK AO2
14840KMKG MKG20070505092509805/05/07 09:25:31  5-MIN KMKG 051425Z 08011G20KT 10SM CLR 15/00 A3013 440 35 600 080/11G20 RMK AO2
14840KMKG MKG20070505093009805/05/07 09:30:31  5-MIN KMKG 051430Z 08017G20KT 10SM CLR 15/00 A3013 440 35 600 090/17G20 RMK AO2
14840KMKG MKG20070505093509305/05/07 09:35:31  5-MIN KMKG 051435Z 07016KT 10SM CLR 15/M01 A3013 440 34 600 080/16 RMK AO2
14840KMKG MKG20070505094009805/05/07 09:40:31  5-MIN KMKG 051440Z 08015G22KT 10SM CLR 16/00 A3013 440 34 600 080/15G22 RMK AO2
14840KMKG MKG20070505094509805/05/07 09:45:31  5-MIN KMKG 051445Z 08014G22KT 10SM CLR 16/00 A3013 440 34 600 080/14G22 RMK AO2
14840KMKG MKG20070505095012105/05/07 09:50:31  5-MIN KMKG 051450Z 07015G21KT 10SM CLR 16/00 A3013 430 34 600 080/15G21 RMK AO2 SLP204 T01560000 53007
14840KMKG MKG20070505095512105/05/07 09:55:31  5-MIN KMKG 051455Z 07019G23KT 10SM CLR 16/00 A3014 430 33 700 080/19G23 RMK AO2 SLP205 T01610000 51009
14840KMKG MKG20070505100009805/05/07 10:00:31  5-MIN KMKG 051500Z 07017G23KT 10SM CLR 17/00 A3014 430 32 800 080/17G23 RMK AO2
14840KMKG MKG20070505100509805/05/07 10:05:31  5-MIN KMKG 051505Z 08016G23KT 10SM CLR 17/00 A3014 430 32 800 080/16G23 RMK AO2
14840KMKG MKG20070505101009805/05/07 10:10:31  5-MIN KMKG 051510Z 07013G23KT 10SM CLR 17/01 A3014 430 33 800 070/13G23 RMK AO2
14840KMKG MKG20070505101509205/05/07 10:15:31  5-MIN KMKG 051515Z 08015KT 10SM CLR 17/01 A3014 430 33 800 080/15 RMK AO2
14840KMKG MKG20070505102009805/05/07 10:20:31  5-MIN KMKG 051520Z 08016G25KT 10SM CLR 17/01 A3014 430 33 800 090/16G25 RMK AO2
14840KMKG MKG20070505102509805/05/07 10:25:31  5-MIN KMKG 051525Z 07017G25KT 10SM CLR 17/01 A3014 430 33 800 080/17G25 RMK AO2
14840KMKG MKG20070505103009805/05/07 10:30:31  5-MIN KMKG 051530Z 07020G24KT 10SM CLR 17/01 A3015 420 32 800 070/20G24 RMK AO2
14840KMKG MKG20070505103509805/05/07 10:35:31  5-MIN KMKG 051535Z 08017G24KT 10SM CLR 17/01 A3015 420 32 800 080/17G24 RMK AO2
14840KMKG MKG20070505104009805/05/07 10:40:31  5-MIN KMKG 051540Z 07016G23KT 10SM CLR 17/01 A3014 420 33 800 080/16G23 RMK AO2
14840KMKG MKG20070505104509805/05/07 10:45:31  5-MIN KMKG 051545Z 07015G23KT 10SM CLR 17/01 A3015 420 32 800 080/15G23 RMK AO2
14840KMKG MKG20070505105011505/05/07 10:50:31  5-MIN KMKG 051550Z 07017G23KT 10SM CLR 17/01 A3015 410 32 800 080/17G23 RMK AO2 SLP211 T01720006
14840KMKG MKG20070505105511505/05/07 10:55:31  5-MIN KMKG 051555Z 08013G23KT 10SM CLR 17/01 A3016 410 33 800 080/13G23 RMK AO2 SLP212 T01720011
14840KMKG MKG20070505110009805/05/07 11:00:31  5-MIN KMKG 051600Z 08016G22KT 10SM CLR 18/01 A3015 420 32 900 080/16G22 RMK AO2
14840KMKG MKG20070505110509205/05/07 11:05:31  5-MIN KMKG 051605Z 08014KT 10SM CLR 18/01 A3016 410 32 900 080/14 RMK AO2
14840KMKG MKG20070505111009205/05/07 11:10:31  5-MIN KMKG 051610Z 09013KT 10SM CLR 18/01 A3017 400 31 900 090/13 RMK AO2
14840KMKG MKG20070505111509805/05/07 11:15:31  5-MIN KMKG 051615Z 09016G21KT 10SM CLR 18/00 A3016 410 30 900 090/16G21 RMK AO2
14840KMKG MKG20070505112009805/05/07 11:20:31  5-MIN KMKG 051620Z 08013G21KT 10SM CLR 18/00 A3017 400 30 900 080/13G21 RMK AO2
14840KMKG MKG20070505112509805/05/07 11:25:31  5-MIN KMKG 051625Z 09016G21KT 10SM CLR 18/00 A3017 400 29 900 090/16G21 RMK AO2
14840KMKG MKG20070505113009205/05/07 11:30:31  5-MIN KMKG 051630Z 08015KT 10SM CLR 18/00 A3017 400 29 900 080/15 RMK AO2
14840KMKG MKG20070505113509205/05/07 11:35:31  5-MIN KMKG 051635Z 09016KT 10SM CLR 18/00 A3017 400 29 900 090/16 RMK AO2
14840KMKG MKG20070505114011705/05/07 11:40:31  5-MIN KMKG 051640Z 07020G27KT 10SM CLR 19/00 A3016 400 28 1000 080/20G27 RMK AO2 PK WND 07027/1639
14840KMKG MKG20070505114511705/05/07 11:45:31  5-MIN KMKG 051645Z 08017G27KT 10SM CLR 19/00 A3017 400 28 1000 090/17G27 RMK AO2 PK WND 07027/1639
14840KMKG MKG20070505115013405/05/07 11:50:31  5-MIN KMKG 051650Z 08017G24KT 10SM CLR 19/01 A3016 410 29 1000 090/17G24 RMK AO2 PK WND 07027/1639 SLP214 T01890006
14840KMKG MKG20070505115513505/05/07 11:55:31  5-MIN KMKG 051655Z 10019G27KT 10SM CLR 19/M01 A3016 410 26 1000 100/19G27 RMK AO2 PK WND 08027/1653 SLP214 T01891006
14840KMKG MKG20070505120009905/05/07 12:00:31  5-MIN KMKG 051700Z 09015G27KT 10SM CLR 19/00 A3016 410 28 1000 090/15G27 RMK AO2
14840KMKG MKG20070505120511805/05/07 12:05:31  5-MIN KMKG 051705Z 09021G26KT 10SM CLR 19/M01 A3016 410 26 1100 100/21G26 RMK AO2 PK WND 10026/1704
14840KMKG MKG20070505121011705/05/07 12:10:31  5-MIN KMKG 051710Z 08022G29KT 10SM CLR 20/00 A3017 400 26 1100 090/22G29 RMK AO2 PK WND 09029/1710
14840KMKG MKG20070505121511805/05/07 12:15:31  5-MIN KMKG 051715Z 09017G29KT 10SM CLR 20/M01 A3017 400 24 1100 090/17G29 RMK AO2 PK WND 09029/1710
14840KMKG MKG20070505122011805/05/07 12:20:31  5-MIN KMKG 051720Z 09020G28KT 10SM CLR 21/M01 A3017 400 23 1200 090/20G28 RMK AO2 PK WND 09029/1710
14840KMKG MKG20070505122511805/05/07 12:25:31  5-MIN KMKG 051725Z 09017G27KT 10SM CLR 21/M02 A3017 400 21 1200 090/17G27 RMK AO2 PK WND 09029/1710
14840KMKG MKG20070505123011805/05/07 12:30:31  5-MIN KMKG 051730Z 09017G28KT 10SM CLR 21/M01 A3017 400 22 1200 100/17G28 RMK AO2 PK WND 09029/1710
14840KMKG MKG20070505123511805/05/07 12:35:31  5-MIN KMKG 051735Z 07016G28KT 10SM CLR 21/M01 A3017 400 24 1200 080/16G28 RMK AO2 PK WND 09029/1710
14840KMKG MKG20070505124011805/05/07 12:40:31  5-MIN KMKG 051740Z 09017G26KT 10SM CLR 21/M01 A3017 400 24 1200 100/17G26 RMK AO2 PK WND 09029/1710
14840KMKG MKG20070505124511805/05/07 12:45:31  5-MIN KMKG 051745Z 08020G28KT 10SM CLR 20/M01 A3017 400 25 1100 080/20G28 RMK AO2 PK WND 09029/1710
14840KMKG MKG20070505125015305/05/07 12:50:31  5-MIN KMKG 051750Z 08021G28KT 10SM CLR 20/M01 A3017 400 24 1100 080/21G28 RMK AO2 PK WND 09029/1710 SLP218 T02001011 10211 20111 51009
14840KMKG MKG20070505125515305/05/07 12:55:31  5-MIN KMKG 051755Z 07018G27KT 10SM CLR 20/M01 A3018 390 25 1100 070/18G27 RMK AO2 PK WND 09029/1710 SLP219 T02001006 10211 20111 51014
14840KMKG MKG20070505130011805/05/07 13:00:31  5-MIN KMKG 051800Z 07019G27KT 10SM CLR 20/M01 A3018 390 25 1100 080/19G27 RMK AO2 PK WND 06026/1758
14840KMKG MKG20070505130511805/05/07 13:05:31  5-MIN KMKG 051805Z 08019G26KT 10SM CLR 20/M01 A3017 400 24 1100 080/19G26 RMK AO2 PK WND 06026/1758
14840KMKG MKG20070505131011805/05/07 13:10:31  5-MIN KMKG 051810Z 09019G25KT 10SM CLR 20/M01 A3017 400 25 1100 100/19G25 RMK AO2 PK WND 06026/1758
14840KMKG MKG20070505131511805/05/07 13:15:31  5-MIN KMKG 051815Z 07013G25KT 10SM CLR 21/M01 A3017 400 24 1200 080/13G25 RMK AO2 PK WND 06026/1758
14840KMKG MKG20070505132011805/05/07 13:20:31  5-MIN KMKG 051820Z 07020G30KT 10SM CLR 21/M01 A3018 400 23 1200 070/20G30 RMK AO2 PK WND 06030/1816
14840KMKG MKG20070505132511805/05/07 13:25:31  5-MIN KMKG 051825Z 07018G30KT 10SM CLR 20/M01 A3018 390 24 1100 080/18G30 RMK AO2 PK WND 06030/1816
14840KMKG MKG20070505133011805/05/07 13:30:31  5-MIN KMKG 051830Z 09019G25KT 10SM CLR 21/M02 A3018 390 22 1200 090/19G25 RMK AO2 PK WND 06030/1816
14840KMKG MKG20070505133511805/05/07 13:35:31  5-MIN KMKG 051835Z 09015G25KT 10SM CLR 21/M01 A3018 390 23 1200 100/15G25 RMK AO2 PK WND 06030/1816
14840KMKG MKG20070505134011805/05/07 13:40:31  5-MIN KMKG 051840Z 07019G28KT 10SM CLR 21/M01 A3018 390 24 1200 070/19G28 RMK AO2 PK WND 06030/1816
14840KMKG MKG20070505134511805/05/07 13:45:31  5-MIN KMKG 051845Z 08017G29KT 10SM CLR 21/M01 A3019 380 23 1200 080/17G29 RMK AO2 PK WND 06030/1816
14840KMKG MKG20070505135013505/05/07 13:50:31  5-MIN KMKG 051850Z 08018G29KT 10SM CLR 20/M02 A3018 390 23 1100 080/18G29 RMK AO2 PK WND 06030/1816 SLP220 T02001017
14840KMKG MKG20070505135513505/05/07 13:55:31  5-MIN KMKG 051855Z 09015G25KT 10SM CLR 21/M01 A3018 390 24 1200 100/15G25 RMK AO2 PK WND 06030/1816 SLP220 T02061006
14840KMKG MKG20070505140011805/05/07 14:00:31  5-MIN KMKG 051900Z 09022G28KT 10SM CLR 20/M01 A3019 380 24 1100 100/22G28 RMK AO2 PK WND 10028/1900
14840KMKG MKG20070505140511805/05/07 14:05:31  5-MIN KMKG 051905Z 07020G28KT 10SM CLR 20/M01 A3018 390 24 1100 080/20G28 RMK AO2 PK WND 10028/1900
14840KMKG MKG20070505141011805/05/07 14:10:31  5-MIN KMKG 051910Z 08018G27KT 10SM CLR 20/M01 A3018 390 24 1100 080/18G27 RMK AO2 PK WND 10028/1900
14840KMKG MKG20070505141511805/05/07 14:15:31  5-MIN KMKG 051915Z 08020G27KT 10SM CLR 21/M01 A3018 390 24 1200 090/20G27 RMK AO2 PK WND 10028/1900
14840KMKG MKG20070505142011805/05/07 14:20:31  5-MIN KMKG 051920Z 08018G27KT 10SM CLR 20/M01 A3019 390 25 1100 080/18G27 RMK AO2 PK WND 10028/1900
14840KMKG MKG20070505142511805/05/07 14:25:31  5-MIN KMKG 051925Z 08017G27KT 10SM CLR 20/M01 A3019 390 25 1100 090/17G27 RMK AO2 PK WND 10028/1900
14840KMKG MKG20070505143011805/05/07 14:30:31  5-MIN KMKG 051930Z 07023G29KT 10SM CLR 20/M01 A3019 380 25 1100 070/23G29 RMK AO2 PK WND 06029/1930
14840KMKG MKG20070505143511805/05/07 14:35:31  5-MIN KMKG 051935Z 09019G29KT 10SM CLR 19/M01 A3019 380 26 1000 090/19G29 RMK AO2 PK WND 06029/1931
14840KMKG MKG20070505144011805/05/07 14:40:31  5-MIN KMKG 051940Z 09020G29KT 10SM CLR 19/M01 A3020 380 26 1000 090/20G29 RMK AO2 PK WND 10029/1939
14840KMKG MKG20070505144511805/05/07 14:45:31  5-MIN KMKG 051945Z 08018G29KT 10SM CLR 19/M01 A3020 370 26 1000 080/18G29 RMK AO2 PK WND 10029/1939
14840KMKG MKG20070505145013505/05/07 14:50:31  5-MIN KMKG 051950Z 10015G23KT 10SM CLR 19/M01 A3019 380 26 1000 100/15G23 RMK AO2 PK WND 10029/1939 SLP224 T01941006
14840KMKG MKG20070505145513505/05/07 14:55:31  5-MIN KMKG 051955Z 09018G26KT 10SM CLR 19/M01 A3020 370 26 1000 100/18G26 RMK AO2 PK WND 10029/1939 SLP227 T01941006
14840KMKG MKG20070505150010005/05/07 15:00:31  5-MIN KMKG 052000Z 08014G26KT 10SM CLR 19/M01 A3021 370 26 1000 090/14G26 RMK AO2
14840KMKG MKG20070505150509905/05/07 15:05:31  5-MIN KMKG 052005Z 09016G23KT 10SM CLR 19/00 A3021 370 27 1000 090/16G23 RMK AO2
14840KMKG MKG20070505151011705/05/07 15:10:31  5-MIN KMKG 052010Z 09015G28KT 10SM CLR 19/00 A3021 370 27 1000 090/15G28 RMK AO2 PK WND 09028/2007
14840KMKG MKG20070505151511705/05/07 15:15:31  5-MIN KMKG 052015Z 08019G28KT 10SM CLR 19/00 A3021 360 27 1000 080/19G28 RMK AO2 PK WND 09028/2007
14840KMKG MKG20070505152011905/05/07 15:20:31  5-MIN KMKG 052020Z 08019G26KT 10SM FEW090 19/00 A3022 360 28 900 090/19G26 RMK AO2 PK WND 09028/2007
14840KMKG MKG20070505152511905/05/07 15:25:31  5-MIN KMKG 052025Z 09017G26KT 10SM FEW090 19/00 A3021 360 28 900 090/17G26 RMK AO2 PK WND 09028/2007
14840KMKG MKG20070505153011905/05/07 15:30:31  5-MIN KMKG 052030Z 08016G22KT 10SM FEW090 19/00 A3021 360 28 900 090/16G22 RMK AO2 PK WND 09028/2007
14840KMKG MKG20070505153511905/05/07 15:35:31  5-MIN KMKG 052035Z 08015G21KT 10SM FEW090 19/00 A3021 360 28 900 080/15G21 RMK AO2 PK WND 09028/2007
14840KMKG MKG20070505154011905/05/07 15:40:31  5-MIN KMKG 052040Z 08015G24KT 10SM FEW090 19/00 A3021 360 28 900 080/15G24 RMK AO2 PK WND 09028/2007
14840KMKG MKG20070505154511905/05/07 15:45:31  5-MIN KMKG 052045Z 08019G27KT 10SM FEW090 19/00 A3022 360 28 900 090/19G27 RMK AO2 PK WND 09028/2007
14840KMKG MKG20070505155014905/05/07 15:50:31  5-MIN KMKG 052050Z 08019G27KT 10SM FEW090 SCT120 18/00 A3022 360 29 900 080/19G27 RMK AO2 PK WND 09028/2007 SLP232 T01830000 51014
14840KMKG MKG20070505155514905/05/07 15:55:31  5-MIN KMKG 052055Z 08015G23KT 10SM FEW090 SCT120 18/00 A3022 350 29 900 090/15G23 RMK AO2 PK WND 09028/2007 SLP234 T01830000 53015
14840KMKG MKG20070505160012705/05/07 16:00:31  5-MIN KMKG 052100Z 08018G28KT 10SM FEW090 SCT120 18/M01 A3022 350 27 900 080/18G28 RMK AO2 PK WND 08028/2057
14840KMKG MKG20070505160512705/05/07 16:05:31  5-MIN KMKG 052105Z 07016G29KT 10SM FEW090 SCT120 18/M01 A3023 350 28 800 080/16G29 RMK AO2 PK WND 07029/2101
14840KMKG MKG20070505161012705/05/07 16:10:31  5-MIN KMKG 052110Z 09016G29KT 10SM FEW090 SCT120 18/M01 A3023 350 28 800 090/16G29 RMK AO2 PK WND 07029/2101
14840KMKG MKG20070505161512705/05/07 16:15:31  5-MIN KMKG 052115Z 07014G23KT 10SM FEW090 SCT120 18/M01 A3023 350 28 800 080/14G23 RMK AO2 PK WND 07029/2101
14840KMKG MKG20070505162012705/05/07 16:20:31  5-MIN KMKG 052120Z 07016G23KT 10SM FEW090 SCT120 17/M01 A3022 350 29 700 080/16G23 RMK AO2 PK WND 07029/2101
14840KMKG MKG20070505162512705/05/07 16:25:31  5-MIN KMKG 052125Z 08015G24KT 10SM FEW090 SCT120 17/M01 A3023 350 28 700 090/15G24 RMK AO2 PK WND 07029/2101
14840KMKG MKG20070505163012705/05/07 16:30:31  5-MIN KMKG 052130Z 09016G24KT 10SM FEW090 SCT120 17/M01 A3022 350 28 700 090/16G24 RMK AO2 PK WND 07029/2101
14840KMKG MKG20070505163512705/05/07 16:35:31  5-MIN KMKG 052135Z 08015G22KT 10SM FEW090 SCT120 17/M01 A3023 350 28 700 090/15G22 RMK AO2 PK WND 07029/2101
14840KMKG MKG20070505164012705/05/07 16:40:31  5-MIN KMKG 052140Z 08014G22KT 10SM FEW090 SCT120 17/M01 A3023 350 28 700 090/14G22 RMK AO2 PK WND 07029/2101
14840KMKG MKG20070505164512705/05/07 16:45:31  5-MIN KMKG 052145Z 09015G22KT 10SM FEW095 SCT120 17/M01 A3023 340 28 700 090/15G22 RMK AO2 PK WND 07029/2101
14840KMKG MKG20070505165014405/05/07 16:50:31  5-MIN KMKG 052150Z 08019G23KT 10SM FEW095 SCT120 17/M02 A3023 350 28 700 080/19G23 RMK AO2 PK WND 07029/2101 SLP237 T01671017
14840KMKG MKG20070505165514405/05/07 16:55:31  5-MIN KMKG 052155Z 08015G23KT 10SM FEW095 SCT120 17/M02 A3023 350 28 700 080/15G23 RMK AO2 PK WND 07029/2101 SLP237 T01671017
14840KMKG MKG20070505170010905/05/07 17:00:31  5-MIN KMKG 052200Z 09018G24KT 10SM FEW095 SCT120 17/M02 A3023 350 28 700 090/18G24 RMK AO2
14840KMKG MKG20070505170510905/05/07 17:05:31  5-MIN KMKG 052205Z 08014G24KT 10SM FEW095 SCT120 17/M01 A3023 350 29 700 090/14G24 RMK AO2
14840KMKG MKG20070505171010905/05/07 17:10:31  5-MIN KMKG 052210Z 08014G23KT 10SM FEW095 SCT120 17/M01 A3023 350 28 700 080/14G23 RMK AO2
14840KMKG MKG20070505171510905/05/07 17:15:31  5-MIN KMKG 052215Z 07016G23KT 10SM FEW095 SCT120 17/M02 A3023 340 28 700 080/16G23 RMK AO2
14840KMKG MKG20070505172010905/05/07 17:20:31  5-MIN KMKG 052220Z 07016G21KT 10SM FEW095 SCT120 16/M02 A3023 340 29 600 080/16G21 RMK AO2
14840KMKG MKG20070505172510905/05/07 17:25:31  5-MIN KMKG 052225Z 08017G22KT 10SM FEW095 SCT120 16/M02 A3023 340 29 600 080/17G22 RMK AO2
14840KMKG MKG20070505173010905/05/07 17:30:31  5-MIN KMKG 052230Z 08018G23KT 10SM FEW095 SCT120 16/M02 A3023 340 28 600 080/18G23 RMK AO2
14840KMKG MKG20070505173514305/05/07 17:35:31  5-MIN KMKG 052235Z 08019G29KT 10SM -RA FEW095 SCT120 16/M02 A3023 340 28 600 090/19G29 RMK AO2 PK WND 07029/2232 RAB33 P0000
14840KMKG MKG20070505174014305/05/07 17:40:31  5-MIN KMKG 052240Z 07015G29KT 10SM -RA FEW095 SCT120 16/M02 A3024 340 28 600 070/15G29 RMK AO2 PK WND 07029/2232 RAB33 P0000
14840KMKG MKG20070505174514305/05/07 17:45:31  5-MIN KMKG 052245Z 07016G24KT 10SM -RA FEW095 SCT120 16/M02 A3023 340 29 500 070/16G24 RMK AO2 PK WND 07029/2232 RAB33 P0000
14840KMKG MKG20070505175016005/05/07 17:50:31  5-MIN KMKG 052250Z 08015G21KT 10SM -RA FEW095 SCT120 16/M02 A3023 350 29 500 080/15G21 RMK AO2 PK WND 07029/2232 RAB33 SLP237 P0000 T01561022
14840KMKG MKG20070505175515905/05/07 17:55:31  5-MIN KMKG 052255Z 08015G24KT 10SM FEW095 SCT120 16/M02 A3023 340 29 500 080/15G24 RMK AO2 PK WND 07029/2232 RAB33E53 SLP239 P0000 T01561022
14840KMKG MKG20070505180010905/05/07 18:00:31  5-MIN KMKG 052300Z 08016G24KT 10SM FEW070 SCT120 16/M02 A3023 340 29 500 080/16G24 RMK AO2
14840KMKG MKG20070505180510905/05/07 18:05:31  5-MIN KMKG 052305Z 07018G24KT 10SM FEW070 SCT120 16/M03 A3023 340 28 500 080/18G24 RMK AO2
14840KMKG MKG20070505181010905/05/07 18:10:31  5-MIN KMKG 052310Z 08015G24KT 10SM FEW070 SCT120 16/M03 A3023 340 28 500 080/15G24 RMK AO2
14840KMKG MKG20070505181512705/05/07 18:15:31  5-MIN KMKG 052315Z 08016G28KT 10SM FEW070 SCT120 16/M03 A3023 340 27 500 080/16G28 RMK AO2 PK WND 08028/2312
14840KMKG MKG20070505182012705/05/07 18:20:31  5-MIN KMKG 052320Z 08019G28KT 10SM FEW070 SCT120 16/M04 A3024 340 26 500 080/19G28 RMK AO2 PK WND 08028/2318
14840KMKG MKG20070505182512705/05/07 18:25:31  5-MIN KMKG 052325Z 07014G28KT 10SM FEW070 SCT120 15/M03 A3024 340 28 500 080/14G28 RMK AO2 PK WND 08028/2318
14840KMKG MKG20070505183012705/05/07 18:30:31  5-MIN KMKG 052330Z 07018G24KT 10SM FEW070 SCT120 15/M03 A3024 330 28 400 070/18G24 RMK AO2 PK WND 08028/2318
14840KMKG MKG20070505183512705/05/07 18:35:31  5-MIN KMKG 052335Z 08018G24KT 10SM FEW070 SCT120 15/M03 A3024 330 28 400 080/18G24 RMK AO2 PK WND 08028/2318
14840KMKG MKG20070505184012705/05/07 18:40:31  5-MIN KMKG 052340Z 07014G24KT 10SM FEW070 SCT120 15/M03 A3024 330 29 400 080/14G24 RMK AO2 PK WND 08028/2318
14840KMKG MKG20070505184512705/05/07 18:45:31  5-MIN KMKG 052345Z 08018G22KT 10SM FEW070 SCT120 15/M03 A3024 330 28 500 080/18G22 RMK AO2 PK WND 08028/2318
14840KMKG MKG20070505185016805/05/07 18:50:31  5-MIN KMKG 052350Z 07017G24KT 10SM FEW070 SCT120 15/M03 A3025 330 28 400 080/17G24 RMK AO2 PK WND 08028/2318 SLP244 60000 T01501033 10211 20150 53015
14840KMKG MKG20070505185516805/05/07 18:55:31  5-MIN KMKG 052355Z 07018G25KT 10SM FEW070 SCT120 14/M03 A3025 330 29 400 070/18G25 RMK AO2 PK WND 08028/2318 SLP245 60000 T01441033 10211 20144 53008
14840KMKG MKG20070505190012705/05/07 19:00:31  5-MIN KMKG 060000Z 07021G28KT 10SM FEW070 SCT120 14/M04 A3025 330 28 400 070/21G28 RMK AO2 PK WND 07028/2358
14840KMKG MKG20070505190512705/05/07 19:05:31  5-MIN KMKG 060005Z 08020G28KT 10SM FEW070 SCT120 14/M04 A3025 330 26 400 080/20G28 RMK AO2 PK WND 07028/2358
14840KMKG MKG20070505191012705/05/07 19:10:31  5-MIN KMKG 060010Z 08015G26KT 10SM FEW070 SCT120 14/M05 A3025 330 25 400 080/15G26 RMK AO2 PK WND 07028/2358
14840KMKG MKG20070505191512705/05/07 19:15:31  5-MIN KMKG 060015Z 08013G23KT 10SM FEW070 SCT120 14/M05 A3025 330 25 400 080/13G23 RMK AO2 PK WND 07028/2358
14840KMKG MKG20070505192012705/05/07 19:20:31  5-MIN KMKG 060020Z 07014G23KT 10SM FEW070 SCT120 14/M05 A3026 320 25 400 080/14G23 RMK AO2 PK WND 07028/2358
14840KMKG MKG20070505192512705/05/07 19:25:31  5-MIN KMKG 060025Z 07013G22KT 10SM FEW070 SCT120 14/M05 A3026 320 26 300 080/13G22 RMK AO2 PK WND 07028/2358
14840KMKG MKG20070505193012705/05/07 19:30:31  5-MIN KMKG 060030Z 07017G21KT 10SM FEW070 SCT120 14/M05 A3026 310 26 300 080/17G21 RMK AO2 PK WND 07028/2358
14840KMKG MKG20070505193512705/05/07 19:35:31  5-MIN KMKG 060035Z 08014G22KT 10SM FEW070 SCT120 14/M06 A3027 310 25 300 080/14G22 RMK AO2 PK WND 07028/2358
14840KMKG MKG20070505194012705/05/07 19:40:31  5-MIN KMKG 060040Z 08014G22KT 10SM FEW070 SCT120 14/M06 A3027 310 24 300 090/14G22 RMK AO2 PK WND 07028/2358
14840KMKG MKG20070505194511705/05/07 19:45:31  5-MIN KMKG 060045Z 08013G22KT 10SM CLR 14/M06 A3027 310 24 300 090/13G22 RMK AO2 PK WND 07028/2358
14840KMKG MKG20070505195013405/05/07 19:50:31  5-MIN KMKG 060050Z 07013G24KT 10SM CLR 14/M07 A3027 310 22 300 080/13G24 RMK AO2 PK WND 07028/2358 SLP252 T01391072
14840KMKG MKG20070505195514405/05/07 19:55:31  5-MIN KMKG 060055Z 09014G24KT 10SM FEW085 SCT120 13/M08 A3028 300 22 200 090/14G24 RMK AO2 PK WND 07028/2358 SLP254 T01331078
14840KMKG MKG20070505200009905/05/07 20:00:31  5-MIN KMKG 060100Z 08013G22KT 10SM CLR 13/M08 A3027 310 21 200 080/13G22 RMK AO2
14840KMKG MKG20070505200509905/05/07 20:05:31  5-MIN KMKG 060105Z 08013G22KT 10SM CLR 13/M08 A3027 300 21 200 090/13G22 RMK AO2
14840KMKG MKG20070505201009905/05/07 20:10:31  5-MIN KMKG 060110Z 08012G21KT 10SM CLR 13/M08 A3027 300 21 200 080/12G21 RMK AO2
14840KMKG MKG20070505201509905/05/07 20:15:31  5-MIN KMKG 060115Z 08014G21KT 10SM CLR 13/M08 A3028 300 21 200 080/14G21 RMK AO2
14840KMKG MKG20070505202009905/05/07 20:20:31  5-MIN KMKG 060120Z 09012G21KT 10SM CLR 13/M08 A3028 300 22 100 090/12G21 RMK AO2
14840KMKG MKG20070505202509905/05/07 20:25:31  5-MIN KMKG 060125Z 08018G24KT 10SM CLR 13/M09 A3028 300 21 100 080/18G24 RMK AO2
14840KMKG MKG20070505203009905/05/07 20:30:31  5-MIN KMKG 060130Z 08016G24KT 10SM CLR 13/M09 A3028 300 20 100 090/16G24 RMK AO2
14840KMKG MKG20070505203509905/05/07 20:35:31  5-MIN KMKG 060135Z 08014G25KT 10SM CLR 13/M09 A3028 300 20 100 080/14G25 RMK AO2
14840KMKG MKG20070505204011705/05/07 20:40:31  5-MIN KMKG 060140Z 08018G26KT 10SM CLR 13/M10 A3028 300 19 100 080/18G26 RMK AO2 PK WND 07026/0139
14840KMKG MKG20070505204511705/05/07 20:45:31  5-MIN KMKG 060145Z 08014G26KT 10SM CLR 13/M10 A3029 290 19 100 080/14G26 RMK AO2 PK WND 07026/0139
14840KMKG MKG20070505205013705/05/07 20:50:31  5-MIN KMKG 060150Z 08013G21KT 10SM FEW120 12/M10 A3029 290 20 100 080/13G21 RMK AO2 PK WND 07026/0139 SLP258 T01221100
14840KMKG MKG20070505205513705/05/07 20:55:31  5-MIN KMKG 060155Z 07013G21KT 10SM FEW120 12/M10 A3030 280 20 100 080/13G21 RMK AO2 PK WND 07026/0139 SLP260 T01221100
14840KMKG MKG20070505210009905/05/07 21:00:31  5-MIN KMKG 060200Z 08016G22KT 10SM CLR 12/M11 A3030 280 19 100 090/16G22 RMK AO2
14840KMKG MKG20070505210509905/05/07 21:05:31  5-MIN KMKG 060205Z 08018G23KT 10SM CLR 12/M11 A3030 280 19 100 080/18G23 RMK AO2
14840KMKG MKG20070505211009905/05/07 21:10:31  5-MIN KMKG 060210Z 08015G23KT 10SM CLR 12/M11 A3030 280 18 100 080/15G23 RMK AO2
14840KMKG MKG20070505211509705/05/07 21:15:31  5-MIN KMKG 060215Z 09016G22KT 10SM CLR 12/M11 A3031 280 19 0 090/16G22 RMK AO2
14840KMKG MKG20070505212009705/05/07 21:20:31  5-MIN KMKG 060220Z 08014G21KT 10SM CLR 12/M11 A3031 270 20 0 090/14G21 RMK AO2
14840KMKG MKG20070505212509105/05/07 21:25:31  5-MIN KMKG 060225Z 08010KT 10SM CLR 12/M10 A3031 270 21 0 090/10 RMK AO2
14840KMKG MKG20070505213009105/05/07 21:30:31  5-MIN KMKG 060230Z 07012KT 10SM CLR 12/M10 A3032 270 21 0 080/12 RMK AO2
14840KMKG MKG20070505213509705/05/07 21:35:31  5-MIN KMKG 060235Z 08012G20KT 10SM CLR 12/M09 A3031 270 22 0 080/12G20 RMK AO2
14840KMKG MKG20070505214009705/05/07 21:40:31  5-MIN KMKG 060240Z 08010G20KT 10SM CLR 11/M09 A3032 270 22 0 090/10G20 RMK AO2
14840KMKG MKG20070505214509705/05/07 21:45:31  5-MIN KMKG 060245Z 08012G19KT 10SM CLR 11/M09 A3032 270 23 0 090/12G19 RMK AO2
14840KMKG MKG20070505215012005/05/07 21:50:31  5-MIN KMKG 060250Z 08012G21KT 10SM CLR 11/M08 A3032 260 25 0 090/12G21 RMK AO2 SLP267 T01111083 53008
14840KMKG MKG20070505215512305/05/07 21:55:31  5-MIN KMKG 060255Z 08015G21KT 10SM CLR 11/M08 A3032 260 25 -100 090/15G21 RMK AO2 SLP269 T01111083 51025
14840KMKG MKG20070505220010005/05/07 22:00:31  5-MIN KMKG 060300Z 08012G21KT 10SM CLR 11/M08 A3032 260 26 -100 090/12G21 RMK AO2
14840KMKG MKG20070505220510005/05/07 22:05:31  5-MIN KMKG 060305Z 08011G20KT 10SM CLR 11/M08 A3033 260 26 -100 090/11G20 RMK AO2
14840KMKG MKG20070505221010005/05/07 22:10:31  5-MIN KMKG 060310Z 08013G20KT 10SM CLR 11/M08 A3033 260 27 -100 090/13G20 RMK AO2
14840KMKG MKG20070505221510005/05/07 22:15:31  5-MIN KMKG 060315Z 08011G19KT 10SM CLR 11/M07 A3033 260 28 -100 090/11G19 RMK AO2
14840KMKG MKG20070505222010005/05/07 22:20:31  5-MIN KMKG 060320Z 08012G18KT 10SM CLR 11/M07 A3033 250 28 -100 090/12G18 RMK AO2
14840KMKG MKG20070505222509405/05/07 22:25:31  5-MIN KMKG 060325Z 08012KT 10SM CLR 11/M07 A3034 250 28 -100 080/12 RMK AO2
14840KMKG MKG20070505223009405/05/07 22:30:31  5-MIN KMKG 060330Z 08012KT 10SM CLR 11/M07 A3034 240 28 -100 090/12 RMK AO2
14840KMKG MKG20070505223509405/05/07 22:35:31  5-MIN KMKG 060335Z 09011KT 10SM CLR 10/M07 A3034 240 30 -200 090/11 RMK AO2
14840KMKG MKG20070505224009405/05/07 22:40:31  5-MIN KMKG 060340Z 08011KT 10SM CLR 10/M07 A3035 240 30 -200 090/11 RMK AO2
14840KMKG MKG20070505224509405/05/07 22:45:31  5-MIN KMKG 060345Z 08011KT 10SM CLR 10/M07 A3035 240 30 -200 090/11 RMK AO2
14840KMKG MKG20070505225011105/05/07 22:50:31  5-MIN KMKG 060350Z 08013KT 10SM CLR 10/M07 A3035 240 30 -200 090/13 RMK AO2 SLP277 T01001067
14840KMKG MKG20070505225511105/05/07 22:55:31  5-MIN KMKG 060355Z 08012KT 10SM CLR 11/M07 A3035 240 29 -100 080/12 RMK AO2 SLP278 T01061067
14840KMKG MKG20070505230010005/05/07 23:00:31  5-MIN KMKG 060400Z 08013G21KT 10SM CLR 11/M07 A3035 230 29 -200 090/13G21 RMK AO2
14840KMKG MKG20070505230510005/05/07 23:05:31  5-MIN KMKG 060405Z 08013G21KT 10SM CLR 10/M07 A3035 230 30 -200 090/13G21 RMK AO2
14840KMKG MKG20070505231009405/05/07 23:10:31  5-MIN KMKG 060410Z 08012KT 10SM CLR 10/M07 A3036 230 30 -200 090/12 RMK AO2
14840KMKG MKG20070505231510005/05/07 23:15:31  5-MIN KMKG 060415Z 08014G20KT 10SM CLR 10/M07 A3036 230 30 -200 080/14G20 RMK AO2
14840KMKG MKG20070505232010005/05/07 23:20:31  5-MIN KMKG 060420Z 08009G20KT 10SM CLR 10/M07 A3036 230 30 -200 090/09G20 RMK AO2
14840KMKG MKG20070505232509405/05/07 23:25:31  5-MIN KMKG 060425Z 09010KT 10SM CLR 10/M07 A3036 230 30 -200 090/10 RMK AO2
14840KMKG MKG20070505233009405/05/07 23:30:31  5-MIN KMKG 060430Z 09011KT 10SM CLR 10/M07 A3036 230 30 -200 090/11 RMK AO2
14840KMKG MKG20070505233510005/05/07 23:35:31  5-MIN KMKG 060435Z 09009G17KT 10SM CLR 10/M07 A3036 230 30 -200 090/09G17 RMK AO2
14840KMKG MKG20070505234010005/05/07 23:40:31  5-MIN KMKG 060440Z 09013G17KT 10SM CLR 10/M07 A3036 230 30 -200 090/13G17 RMK AO2
14840KMKG MKG20070505234510005/05/07 23:45:31  5-MIN KMKG 060445Z 09011G17KT 10SM CLR 10/M07 A3036 230 30 -200 090/11G17 RMK AO2
14840KMKG MKG20070505235012705/05/07 23:50:31  5-MIN KMKG 060450Z 08013G18KT 10SM CLR 10/M07 A3036 230 30 -200 080/13G18 RMK AO2 SLP282 T01001067 402110100
14840KMKG MKG20070505235512705/05/07 23:55:31  5-MIN KMKG 060455Z 08011G19KT 10SM CLR 10/M07 A3036 220 30 -200 090/11G19 RMK AO2 SLP283 T01001067 402110100
14840KMKG MKG20070506000010005/06/07 00:00:32  5-MIN KMKG 060500Z 09011G19KT 10SM CLR 10/M06 A3037 220 31 -200 090/11G19 RMK AO2
14840KMKG MKG20070506000510005/06/07 00:05:31  5-MIN KMKG 060505Z 08013G18KT 10SM CLR 10/M06 A3037 220 31 -200 080/13G18 RMK AO2
14840KMKG MKG20070506001009405/06/07 00:10:31  5-MIN KMKG 060510Z 08010KT 10SM CLR 10/M06 A3037 210 31 -200 090/10 RMK AO2
14840KMKG MKG20070506001509405/06/07 00:15:31  5-MIN KMKG 060515Z 08012KT 10SM CLR 10/M06 A3037 210 31 -200 080/12 RMK AO2
14840KMKG MKG20070506002010005/06/07 00:20:31  5-MIN KMKG 060520Z 08013G18KT 10SM CLR 10/M06 A3037 210 31 -200 080/13G18 RMK AO2
14840KMKG MKG20070506002509405/06/07 00:25:31  5-MIN KMKG 060525Z 08012KT 10SM CLR 09/M06 A3038 210 34 -300 090/12 RMK AO2
14840KMKG MKG20070506003009405/06/07 00:30:31  5-MIN KMKG 060530Z 09011KT 10SM CLR 09/M06 A3038 210 34 -300 090/11 RMK AO2
14840KMKG MKG20070506003509405/06/07 00:35:31  5-MIN KMKG 060535Z 08011KT 10SM CLR 09/M06 A3039 200 34 -300 090/11 RMK AO2
14840KMKG MKG20070506004009405/06/07 00:40:31  5-MIN KMKG 060540Z 09010KT 10SM CLR 09/M06 A3039 200 34 -300 090/10 RMK AO2
14840KMKG MKG20070506004509405/06/07 00:45:31  5-MIN KMKG 060545Z 08010KT 10SM CLR 09/M06 A3039 200 34 -300 090/10 RMK AO2
14840KMKG MKG20070506005012905/06/07 00:50:31  5-MIN KMKG 060550Z 09009KT 10SM CLR 09/M05 A3039 200 35 -300 090/09 RMK AO2 SLP292 T00941050 10144 20094 51025
14840KMKG MKG20070506005512905/06/07 00:55:31  5-MIN KMKG 060555Z 08008KT 10SM CLR 09/M05 A3039 200 37 -400 090/08 RMK AO2 SLP293 T00891050 10144 20089 52023
14840KMKG MKG20070506010009405/06/07 01:00:31  5-MIN KMKG 060600Z 08009KT 10SM CLR 09/M05 A3039 200 37 -400 090/09 RMK AO2
14840KMKG MKG20070506010509405/06/07 01:05:31  5-MIN KMKG 060605Z 08008KT 10SM CLR 09/M05 A3039 200 37 -400 090/08 RMK AO2
14840KMKG MKG20070506011009405/06/07 01:10:31  5-MIN KMKG 060610Z 09009KT 10SM CLR 09/M05 A3039 200 37 -400 090/09 RMK AO2
14840KMKG MKG20070506011509405/06/07 01:15:31  5-MIN KMKG 060615Z 08009KT 10SM CLR 09/M05 A3039 200 37 -400 090/09 RMK AO2
14840KMKG MKG20070506012009405/06/07 01:20:31  5-MIN KMKG 060620Z 09010KT 10SM CLR 09/M04 A3038 200 38 -400 090/10 RMK AO2
14840KMKG MKG20070506012509405/06/07 01:25:31  5-MIN KMKG 060625Z 09009KT 10SM CLR 09/M04 A3038 200 38 -400 090/09 RMK AO2
14840KMKG MKG20070506013009405/06/07 01:30:31  5-MIN KMKG 060630Z 09009KT 10SM CLR 09/M04 A3039 200 38 -400 090/09 RMK AO2
14840KMKG MKG20070506013509405/06/07 01:35:31  5-MIN KMKG 060635Z 09009KT 10SM CLR 09/M04 A3039 200 38 -400 090/09 RMK AO2
14840KMKG MKG20070506014009405/06/07 01:40:31  5-MIN KMKG 060640Z 09009KT 10SM CLR 09/M04 A3039 200 38 -400 100/09 RMK AO2
14840KMKG MKG20070506014509405/06/07 01:45:31  5-MIN KMKG 060645Z 09009KT 10SM CLR 09/M04 A3039 200 38 -400 090/09 RMK AO2
14840KMKG MKG20070506015011105/06/07 01:50:31  5-MIN KMKG 060650Z 09010KT 10SM CLR 09/M04 A3039 200 38 -400 090/10 RMK AO2 SLP292 T00891044
14840KMKG MKG20070506015511105/06/07 01:55:31  5-MIN KMKG 060655Z 09009KT 10SM CLR 09/M04 A3039 200 38 -400 090/09 RMK AO2 SLP291 T00891044
14840KMKG MKG20070506020009405/06/07 02:00:31  5-MIN KMKG 060700Z 09010KT 10SM CLR 09/M04 A3039 200 38 -400 090/10 RMK AO2
14840KMKG MKG20070506020509405/06/07 02:05:31  5-MIN KMKG 060705Z 08011KT 10SM CLR 09/M04 A3038 200 38 -400 090/11 RMK AO2
14840KMKG MKG20070506021009405/06/07 02:10:31  5-MIN KMKG 060710Z 08012KT 10SM CLR 09/M04 A3038 210 38 -400 090/12 RMK AO2
14840KMKG MKG20070506021509405/06/07 02:15:31  5-MIN KMKG 060715Z 09011KT 10SM CLR 09/M04 A3038 210 38 -400 090/11 RMK AO2
14840KMKG MKG20070506022009405/06/07 02:20:31  5-MIN KMKG 060720Z 09011KT 10SM CLR 09/M04 A3038 210 38 -400 090/11 RMK AO2
14840KMKG MKG20070506022509405/06/07 02:25:31  5-MIN KMKG 060725Z 09011KT 10SM CLR 09/M05 A3037 210 37 -400 090/11 RMK AO2
14840KMKG MKG20070506023009405/06/07 02:30:31  5-MIN KMKG 060730Z 09012KT 10SM CLR 09/M05 A3037 220 37 -400 090/12 RMK AO2
14840KMKG MKG20070506023510005/06/07 02:35:31  5-MIN KMKG 060735Z 09012G18KT 10SM CLR 09/M05 A3037 220 37 -400 090/12G18 RMK AO2
14840KMKG MKG20070506024010005/06/07 02:40:31  5-MIN KMKG 060740Z 09013G20KT 10SM CLR 09/M05 A3036 230 37 -400 090/13G20 RMK AO2
14840KMKG MKG20070506024510005/06/07 02:45:31  5-MIN KMKG 060745Z 09014G20KT 10SM CLR 09/M05 A3036 230 37 -400 090/14G20 RMK AO2
14840KMKG MKG20070506025011705/06/07 02:50:31  5-MIN KMKG 060750Z 08013G20KT 10SM CLR 09/M06 A3036 230 35 -400 090/13G20 RMK AO2 SLP281 T00891056
14840KMKG MKG20070506025511705/06/07 02:55:31  5-MIN KMKG 060755Z 09013G20KT 10SM CLR 09/M06 A3036 230 35 -400 090/13G20 RMK AO2 SLP281 T00891056
14840KMKG MKG20070506030010005/06/07 03:00:31  5-MIN KMKG 060800Z 09013G20KT 10SM CLR 09/M06 A3036 230 35 -400 090/13G20 RMK AO2
14840KMKG MKG20070506030510005/06/07 03:05:31  5-MIN KMKG 060805Z 09014G21KT 10SM CLR 09/M06 A3036 230 35 -400 090/14G21 RMK AO2
14840KMKG MKG20070506031010005/06/07 03:10:31  5-MIN KMKG 060810Z 09012G21KT 10SM CLR 09/M06 A3035 230 35 -400 090/12G21 RMK AO2
14840KMKG MKG20070506031510005/06/07 03:15:31  5-MIN KMKG 060815Z 09012G21KT 10SM CLR 09/M06 A3035 230 35 -400 090/12G21 RMK AO2
14840KMKG MKG20070506032010005/06/07 03:20:31  5-MIN KMKG 060820Z 09013G21KT 10SM CLR 09/M06 A3035 230 34 -400 090/13G21 RMK AO2
14840KMKG MKG20070506032510005/06/07 03:25:31  5-MIN KMKG 060825Z 09014G20KT 10SM CLR 09/M06 A3035 240 34 -300 090/14G20 RMK AO2
14840KMKG MKG20070506033010005/06/07 03:30:31  5-MIN KMKG 060830Z 09014G21KT 10SM CLR 09/M06 A3034 240 34 -300 090/14G21 RMK AO2
14840KMKG MKG20070506033510005/06/07 03:35:31  5-MIN KMKG 060835Z 09015G21KT 10SM CLR 09/M06 A3034 240 34 -300 090/15G21 RMK AO2
14840KMKG MKG20070506034010005/06/07 03:40:31  5-MIN KMKG 060840Z 09014G21KT 10SM CLR 09/M06 A3034 250 34 -300 090/14G21 RMK AO2
14840KMKG MKG20070506034510005/06/07 03:45:31  5-MIN KMKG 060845Z 09015G21KT 10SM CLR 09/M06 A3033 250 34 -300 100/15G21 RMK AO2
14840KMKG MKG20070506035012305/06/07 03:50:31  5-MIN KMKG 060850Z 09013G21KT 10SM CLR 09/M07 A3034 250 32 -300 090/13G21 RMK AO2 SLP274 T00891067 52023
14840KMKG MKG20070506035512305/06/07 03:55:31  5-MIN KMKG 060855Z 09015G21KT 10SM CLR 09/M07 A3034 250 32 -300 090/15G21 RMK AO2 SLP274 T00891067 58018
14840KMKG MKG20070506040010005/06/07 04:00:31  5-MIN KMKG 060900Z 09014G20KT 10SM CLR 09/M07 A3034 250 32 -300 090/14G20 RMK AO2
14840KMKG MKG20070506040510005/06/07 04:05:31  5-MIN KMKG 060905Z 09014G20KT 10SM CLR 09/M07 A3034 250 32 -300 090/14G20 RMK AO2
14840KMKG MKG20070506041009405/06/07 04:10:31  5-MIN KMKG 060910Z 09014KT 10SM CLR 09/M07 A3033 250 31 -300 090/14 RMK AO2
14840KMKG MKG20070506041510005/06/07 04:15:31  5-MIN KMKG 060915Z 09015G22KT 10SM CLR 09/M07 A3033 250 30 -300 100/15G22 RMK AO2
14840KMKG MKG20070506042010005/06/07 04:20:31  5-MIN KMKG 060920Z 09016G24KT 10SM CLR 09/M07 A3033 250 30 -300 090/16G24 RMK AO2
14840KMKG MKG20070506042510005/06/07 04:25:31  5-MIN KMKG 060925Z 10014G24KT 10SM CLR 09/M07 A3033 250 30 -300 100/14G24 RMK AO2
14840KMKG MKG20070506043010005/06/07 04:30:31  5-MIN KMKG 060930Z 09018G24KT 10SM CLR 09/M07 A3033 260 30 -300 100/18G24 RMK AO2
14840KMKG MKG20070506043510005/06/07 04:35:31  5-MIN KMKG 060935Z 09015G24KT 10SM CLR 09/M07 A3033 250 30 -300 100/15G24 RMK AO2
14840KMKG MKG20070506044011805/06/07 04:40:31  5-MIN KMKG 060940Z 10016G26KT 10SM CLR 09/M07 A3034 250 30 -300 110/16G26 RMK AO2 PK WND 10026/0936
14840KMKG MKG20070506044511805/06/07 04:45:31  5-MIN KMKG 060945Z 10013G26KT 10SM CLR 09/M07 A3034 250 30 -300 100/13G26 RMK AO2 PK WND 10026/0942
14840KMKG MKG20070506045013505/06/07 04:50:31  5-MIN KMKG 060950Z 10015G26KT 10SM CLR 09/M07 A3035 240 30 -300 100/15G26 RMK AO2 PK WND 10026/0942 SLP277 T00941072
14840KMKG MKG20070506045513505/06/07 04:55:31  5-MIN KMKG 060955Z 10016G24KT 10SM CLR 09/M08 A3035 230 29 -300 110/16G24 RMK AO2 PK WND 10026/0942 SLP279 T00941078
14840KMKG MKG20070506050010005/06/07 05:00:31  5-MIN KMKG 061000Z 10016G24KT 10SM CLR 09/M08 A3035 230 29 -300 110/16G24 RMK AO2
14840KMKG MKG20070506050510005/06/07 05:05:31  5-MIN KMKG 061005Z 09016G24KT 10SM CLR 09/M08 A3035 230 29 -300 100/16G24 RMK AO2
14840KMKG MKG20070506051010005/06/07 05:10:31  5-MIN KMKG 061010Z 10015G23KT 10SM CLR 09/M07 A3036 230 30 -300 100/15G23 RMK AO2
14840KMKG MKG20070506051509405/06/07 05:15:31  5-MIN KMKG 061015Z 10016KT 10SM CLR 09/M07 A3036 220 30 -300 100/16 RMK AO2
14840KMKG MKG20070506052010005/06/07 05:20:31  5-MIN KMKG 061020Z 10015G21KT 10SM CLR 09/M07 A3037 220 30 -300 110/15G21 RMK AO2
14840KMKG MKG20070506052510105/06/07 05:25:31  5-MIN KMKG 061025Z 10014KT 10SM CLR 09/M07 A3038 210 31 -400 100/14 RMK AO2 PRESRR
14840KMKG MKG20070506053009405/06/07 05:30:31  5-MIN KMKG 061030Z 09014KT 10SM CLR 09/M07 A3038 200 31 -400 100/14 RMK AO2
14840KMKG MKG20070506053510005/06/07 05:35:31  5-MIN KMKG 061035Z 09014G20KT 10SM CLR 09/M07 A3039 200 31 -400 100/14G20 RMK AO2
14840KMKG MKG20070506054010005/06/07 05:40:31  5-MIN KMKG 061040Z 10012G20KT 10SM CLR 09/M07 A3039 190 31 -400 100/12G20 RMK AO2
14840KMKG MKG20070506054509405/06/07 05:45:31  5-MIN KMKG 061045Z 10012KT 10SM CLR 09/M07 A3040 190 31 -400 110/12 RMK AO2
14840KMKG MKG20070506055011805/06/07 05:50:31  5-MIN KMKG 061050Z 10012KT 10SM CLR 09/M07 A3041 180 31 -400 110/12 RMK AO2 PRESRR SLP299 T00891072
14840KMKG MKG20070506055511805/06/07 05:55:31  5-MIN KMKG 061055Z 11012KT 10SM CLR 09/M07 A3042 170 31 -400 110/12 RMK AO2 PRESRR SLP302 T00891072
14840KMKG MKG20070506060010705/06/07 06:00:31  5-MIN KMKG 061100Z 11008G17KT 10SM CLR 08/M07 A3043 160 34 -500 120/08G17 RMK AO2 PRESRR
14840KMKG MKG20070506060510105/06/07 06:05:31  5-MIN KMKG 061105Z 11008KT 10SM CLR 08/M07 A3044 150 34 -500 120/08 RMK AO2 PRESRR
14840KMKG MKG20070506061010105/06/07 06:10:31  5-MIN KMKG 061110Z 12008KT 10SM CLR 08/M06 A3045 140 35 -500 120/08 RMK AO2 PRESRR
14840KMKG MKG20070506061510005/06/07 06:15:31  5-MIN KMKG 061115Z 10010G15KT 10SM CLR 09/M07 A3045 140 32 -500 110/10G15 RMK AO2
14840KMKG MKG20070506062009405/06/07 06:20:31  5-MIN KMKG 061120Z 10010KT 10SM CLR 09/M07 A3046 140 32 -500 110/10 RMK AO2
14840KMKG MKG20070506062509405/06/07 06:25:31  5-MIN KMKG 061125Z 10008KT 10SM CLR 09/M07 A3046 140 32 -500 110/08 RMK AO2
14840KMKG MKG20070506063009405/06/07 06:30:31  5-MIN KMKG 061130Z 09010KT 10SM CLR 09/M07 A3046 140 32 -500 100/10 RMK AO2
14840KMKG MKG20070506063509405/06/07 06:35:31  5-MIN KMKG 061135Z 09010KT 10SM CLR 09/M07 A3046 140 31 -400 100/10 RMK AO2
14840KMKG MKG20070506064009405/06/07 06:40:31  5-MIN KMKG 061140Z 10009KT 10SM CLR 09/M06 A3045 140 33 -400 100/09 RMK AO2
14840KMKG MKG20070506064509405/06/07 06:45:31  5-MIN KMKG 061145Z 10011KT 10SM CLR 09/M06 A3046 140 33 -400 110/11 RMK AO2
14840KMKG MKG20070506065012905/06/07 06:50:31  5-MIN KMKG 061150Z 10011KT 10SM CLR 09/M06 A3046 130 33 -400 110/11 RMK AO2 SLP318 T00941061 10094 20083 58018
14840KMKG MKG20070506065512905/06/07 06:55:31  5-MIN KMKG 061155Z 10012KT 10SM CLR 10/M06 A3046 130 31 -300 100/12 RMK AO2 SLP318 T01001061 10100 20083 53042
14840KMKG MKG20070506070009405/06/07 07:00:31  5-MIN KMKG 061200Z 11012KT 10SM CLR 10/M06 A3046 140 31 -300 110/12 RMK AO2
14840KMKG MKG20070506070509405/06/07 07:05:31  5-MIN KMKG 061205Z 11012KT 10SM CLR 10/M06 A3046 130 31 -300 110/12 RMK AO2
14840KMKG MKG20070506071009405/06/07 07:10:31  5-MIN KMKG 061210Z 11015KT 10SM CLR 10/M06 A3046 140 31 -300 110/15 RMK AO2
14840KMKG MKG20070506071509405/06/07 07:15:31  5-MIN KMKG 061215Z 11012KT 10SM CLR 10/M06 A3046 140 31 -300 120/12 RMK AO2
14840KMKG MKG20070506072010005/06/07 07:20:31  5-MIN KMKG 061220Z 11015G22KT 10SM CLR 11/M06 A3045 140 30 -300 120/15G22 RMK AO2
14840KMKG MKG20070506072510005/06/07 07:25:31  5-MIN KMKG 061225Z 11015G22KT 10SM CLR 11/M06 A3045 140 31 -300 110/15G22 RMK AO2
14840KMKG MKG20070506073010005/06/07 07:30:31  5-MIN KMKG 061230Z 10017G22KT 10SM CLR 11/M06 A3044 150 30 -300 110/17G22 RMK AO2
14840KMKG MKG20070506073510005/06/07 07:35:31  5-MIN KMKG 061235Z 10016G24KT 10SM CLR 11/M06 A3044 150 29 -200 100/16G24 RMK AO2
14840KMKG MKG20070506074010005/06/07 07:40:31  5-MIN KMKG 061240Z 11016G24KT 10SM CLR 11/M06 A3043 160 29 -200 110/16G24 RMK AO2
14840KMKG MKG20070506074511805/06/07 07:45:31  5-MIN KMKG 061245Z 11018G27KT 10SM CLR 11/M07 A3043 160 28 -200 110/18G27 RMK AO2 PK WND 11027/1242
14840KMKG MKG20070506075013505/06/07 07:50:31  5-MIN KMKG 061250Z 11018G27KT 10SM CLR 11/M06 A3043 160 29 -200 110/18G27 RMK AO2 PK WND 11027/1242 SLP307 T01111061
14840KMKG MKG20070506075513505/06/07 07:55:31  5-MIN KMKG 061255Z 11018G25KT 10SM CLR 12/M06 A3043 160 28 -100 110/18G25 RMK AO2 PK WND 11027/1242 SLP307 T01171061
14840KMKG MKG20070506080011805/06/07 08:00:31  5-MIN KMKG 061300Z 10021G28KT 10SM CLR 12/M06 A3044 160 28 -100 110/21G28 RMK AO2 PK WND 10028/1300
14840KMKG MKG20070506080511805/06/07 08:05:31  5-MIN KMKG 061305Z 11017G28KT 10SM CLR 12/M06 A3044 150 28 -100 110/17G28 RMK AO2 PK WND 10028/1300
14840KMKG MKG20070506081011505/06/07 08:10:31  5-MIN KMKG 061310Z 12016G24KT 10SM CLR 12/M06 A3044 160 27 0 120/16G24 RMK AO2 PK WND 10028/1300
14840KMKG MKG20070506081511805/06/07 08:15:31  5-MIN KMKG 061315Z 11016G24KT 10SM CLR 12/M06 A3044 150 28 -100 110/16G24 RMK AO2 PK WND 10028/1300
14840KMKG MKG20070506082011805/06/07 08:20:31  5-MIN KMKG 061320Z 11019G28KT 10SM CLR 12/M06 A3045 150 27 -100 120/19G28 RMK AO2 PK WND 13028/1316
14840KMKG MKG20070506082511805/06/07 08:25:31  5-MIN KMKG 061325Z 11019G28KT 10SM CLR 12/M07 A3045 150 26 -100 120/19G28 RMK AO2 PK WND 13028/1316
14840KMKG MKG20070506083011805/06/07 08:30:31  5-MIN KMKG 061330Z 13021G27KT 10SM CLR 12/M06 A3045 140 27 -100 130/21G27 RMK AO2 PK WND 13028/1316
14840KMKG MKG20070506083511805/06/07 08:35:31  5-MIN KMKG 061335Z 12020G29KT 10SM CLR 12/M07 A3046 140 26 -100 120/20G29 RMK AO2 PK WND 12029/1333
14840KMKG MKG20070506084011805/06/07 08:40:31  5-MIN KMKG 061340Z 12017G29KT 10SM CLR 12/M07 A3046 140 26 -100 120/17G29 RMK AO2 PK WND 12029/1333
14840KMKG MKG20070506084511505/06/07 08:45:31  5-MIN KMKG 061345Z 12023G30KT 10SM CLR 13/M07 A3045 140 25 0 120/23G30 RMK AO2 PK WND 12030/1344
14840KMKG MKG20070506085013205/06/07 08:50:31  5-MIN KMKG 061350Z 11021G30KT 10SM CLR 13/M07 A3045 140 25 0 110/21G30 RMK AO2 PK WND 12030/1344 SLP314 T01281067
14840KMKG MKG20070506085513205/06/07 08:55:31  5-MIN KMKG 061355Z 12022G28KT 10SM CLR 13/M07 A3044 150 25 0 120/22G28 RMK AO2 PK WND 12030/1344 SLP310 T01281067
14840KMKG MKG20070506090011505/06/07 09:00:31  5-MIN KMKG 061400Z 12019G28KT 10SM CLR 13/M06 A3044 160 26 0 120/19G28 RMK AO2 PK WND 11027/1356
14840KMKG MKG20070506090511505/06/07 09:05:31  5-MIN KMKG 061405Z 11019G29KT 10SM CLR 13/M06 A3043 160 26 0 110/19G29 RMK AO2 PK WND 12029/1401
14840KMKG MKG20070506091011505/06/07 09:10:31  5-MIN KMKG 061410Z 12019G29KT 10SM CLR 13/M06 A3043 160 25 0 120/19G29 RMK AO2 PK WND 12029/1401
14840KMKG MKG20070506091511505/06/07 09:15:31  5-MIN KMKG 061415Z 10020G30KT 10SM CLR 13/M06 A3043 160 26 0 100/20G30 RMK AO2 PK WND 10030/1415
14840KMKG MKG20070506092011505/06/07 09:20:31  5-MIN KMKG 061420Z 12021G30KT 10SM CLR 13/M06 A3043 160 26 0 120/21G30 RMK AO2 PK WND 10030/1416
14840KMKG MKG20070506092511505/06/07 09:25:31  5-MIN KMKG 061425Z 11015G30KT 10SM CLR 13/M06 A3043 160 26 0 120/15G30 RMK AO2 PK WND 10030/1416
14840KMKG MKG20070506093011505/06/07 09:30:31  5-MIN KMKG 061430Z 11017G25KT 10SM CLR 13/M06 A3044 160 26 0 110/17G25 RMK AO2 PK WND 10030/1416
14840KMKG MKG20070506093511505/06/07 09:35:31  5-MIN KMKG 061435Z 10018G25KT 10SM CLR 13/M06 A3045 150 26 0 110/18G25 RMK AO2 PK WND 10030/1416
14840KMKG MKG20070506094011505/06/07 09:40:31  5-MIN KMKG 061440Z 10020G25KT 10SM CLR 13/M07 A3045 140 24 0 100/20G25 RMK AO2 PK WND 10030/1416
14840KMKG MKG20070506094511505/06/07 09:45:31  5-MIN KMKG 061445Z 11019G26KT 10SM CLR 13/M06 A3045 150 25 0 110/19G26 RMK AO2 PK WND 10030/1416
14840KMKG MKG20070506095013805/06/07 09:50:31  5-MIN KMKG 061450Z 10019G26KT 10SM CLR 13/M06 A3045 150 25 0 100/19G26 RMK AO2 PK WND 10030/1416 SLP313 T01331061 53042
14840KMKG MKG20070506095514005/06/07 09:55:31  5-MIN KMKG 061455Z 11016G25KT 10SM CLR 14/M06 A3045 140 25 100 120/16G25 RMK AO2 PK WND 10030/1416 SLP314 T01391056 55004
14840KMKG MKG20070506100009905/06/07 10:00:31  5-MIN KMKG 061500Z 10017G24KT 10SM CLR 14/M06 A3045 150 25 100 100/17G24 RMK AO2
14840KMKG MKG20070506100509905/06/07 10:05:31  5-MIN KMKG 061505Z 10016G24KT 10SM CLR 14/M06 A3045 150 25 100 100/16G24 RMK AO2
14840KMKG MKG20070506101009905/06/07 10:10:31  5-MIN KMKG 061510Z 11015G24KT 10SM CLR 14/M05 A3044 150 25 200 120/15G24 RMK AO2
14840KMKG MKG20070506101509905/06/07 10:15:31  5-MIN KMKG 061515Z 11018G25KT 10SM CLR 14/M05 A3044 150 25 200 110/18G25 RMK AO2
14840KMKG MKG20070506102009905/06/07 10:20:31  5-MIN KMKG 061520Z 11019G25KT 10SM CLR 14/M05 A3043 160 25 200 120/19G25 RMK AO2
14840KMKG MKG20070506102509905/06/07 10:25:31  5-MIN KMKG 061525Z 11015G23KT 10SM CLR 14/M04 A3044 160 28 200 110/15G23 RMK AO2
14840KMKG MKG20070506103009905/06/07 10:30:31  5-MIN KMKG 061530Z 11013G23KT 10SM CLR 16/M04 A3044 160 26 300 120/13G23 RMK AO2
14840KMKG MKG20070506103509905/06/07 10:35:31  5-MIN KMKG 061535Z 10014G23KT 10SM CLR 16/M03 A3044 160 26 400 110/14G23 RMK AO2
14840KMKG MKG20070506104009905/06/07 10:40:31  5-MIN KMKG 061540Z 10012G22KT 10SM CLR 16/M04 A3043 160 25 300 100/12G22 RMK AO2
14840KMKG MKG20070506104509905/06/07 10:45:31  5-MIN KMKG 061545Z 10017G22KT 10SM CLR 16/M04 A3043 160 25 300 100/17G22 RMK AO2
14840KMKG MKG20070506105011605/06/07 10:50:31  5-MIN KMKG 061550Z 10016G25KT 10SM CLR 16/M05 A3043 160 24 300 100/16G25 RMK AO2 SLP308 T01561050
14840KMKG MKG20070506105513405/06/07 10:55:31  5-MIN KMKG 061555Z 10017G28KT 10SM CLR 16/M05 A3043 160 23 400 100/17G28 RMK AO2 PK WND 10028/1555 SLP306 T01611050
14840KMKG MKG20070506110009905/06/07 11:00:31  5-MIN KMKG 061600Z 09016G28KT 10SM CLR 17/M05 A3043 160 22 400 100/16G28 RMK AO2
14840KMKG MKG20070506110511705/06/07 11:05:31  5-MIN KMKG 061605Z 11016G26KT 10SM CLR 16/M06 A3044 160 22 400 110/16G26 RMK AO2 PK WND 10026/1604
14840KMKG MKG20070506111011705/06/07 11:10:31  5-MIN KMKG 061610Z 12017G26KT 10SM CLR 17/M05 A3043 160 22 400 120/17G26 RMK AO2 PK WND 10026/1604
14840KMKG MKG20070506111511705/06/07 11:15:31  5-MIN KMKG 061615Z 10016G24KT 10SM CLR 17/M05 A3043 160 22 400 100/16G24 RMK AO2 PK WND 10026/1604
14840KMKG MKG20070506112011705/06/07 11:20:31  5-MIN KMKG 061620Z 12019G23KT 10SM CLR 17/M05 A3044 160 22 400 130/19G23 RMK AO2 PK WND 10026/1604
14840KMKG MKG20070506112511705/06/07 11:25:31  5-MIN KMKG 061625Z 10017G23KT 10SM CLR 17/M05 A3043 160 21 500 100/17G23 RMK AO2 PK WND 10026/1604
14840KMKG MKG20070506113011705/06/07 11:30:31  5-MIN KMKG 061630Z 09016G24KT 10SM CLR 17/M06 A3043 160 19 500 100/16G24 RMK AO2 PK WND 10026/1604
14840KMKG MKG20070506113511705/06/07 11:35:31  5-MIN KMKG 061635Z 11016G24KT 10SM CLR 17/M06 A3043 160 20 500 110/16G24 RMK AO2 PK WND 10026/1604
14840KMKG MKG20070506114011705/06/07 11:40:31  5-MIN KMKG 061640Z 10014G21KT 10SM CLR 17/M05 A3043 160 21 500 100/14G21 RMK AO2 PK WND 10026/1604
14840KMKG MKG20070506114511705/06/07 11:45:31  5-MIN KMKG 061645Z 11021G25KT 10SM CLR 17/M06 A3043 160 19 500 110/21G25 RMK AO2 PK WND 10026/1604
14840KMKG MKG20070506115013405/06/07 11:50:31  5-MIN KMKG 061650Z 10014G25KT 10SM CLR 17/M06 A3043 160 19 500 100/14G25 RMK AO2 PK WND 10026/1604 SLP305 T01721061
14840KMKG MKG20070506115513405/06/07 11:55:31  5-MIN KMKG 061655Z 10013G22KT 10SM CLR 18/M04 A3043 170 21 600 100/13G22 RMK AO2 PK WND 10026/1604 SLP305 T01781044
14840KMKG MKG20070506120009905/06/07 12:00:31  5-MIN KMKG 061700Z 11016G23KT 10SM CLR 18/M06 A3043 170 20 600 110/16G23 RMK AO2
14840KMKG MKG20070506120509905/06/07 12:05:31  5-MIN KMKG 061705Z 11017G23KT 10SM CLR 18/M06 A3043 170 20 600 120/17G23 RMK AO2
14840KMKG MKG20070506121009905/06/07 12:10:31  5-MIN KMKG 061710Z 11017G25KT 10SM CLR 18/M06 A3043 160 20 600 120/17G25 RMK AO2
14840KMKG MKG20070506121509905/06/07 12:15:31  5-MIN KMKG 061715Z 12017G25KT 10SM CLR 18/M06 A3042 170 20 600 120/17G25 RMK AO2
14840KMKG MKG20070506122011705/06/07 12:20:31  5-MIN KMKG 061720Z 13017G28KT 10SM CLR 18/M06 A3042 170 18 600 130/17G28 RMK AO2 PK WND 12028/1717
14840KMKG MKG20070506122511705/06/07 12:25:31  5-MIN KMKG 061725Z 12018G28KT 10SM CLR 18/M06 A3042 170 19 600 120/18G28 RMK AO2 PK WND 12028/1717
14840KMKG MKG20070506123011705/06/07 12:30:31  5-MIN KMKG 061730Z 11015G23KT 10SM CLR 18/M06 A3042 170 19 600 110/15G23 RMK AO2 PK WND 12028/1717
14840KMKG MKG20070506123511705/06/07 12:35:31  5-MIN KMKG 061735Z 10014G21KT 10SM CLR 18/M05 A3042 170 20 600 110/14G21 RMK AO2 PK WND 12028/1717
14840KMKG MKG20070506124011705/06/07 12:40:31  5-MIN KMKG 061740Z 12016G24KT 10SM CLR 18/M06 A3042 170 19 600 120/16G24 RMK AO2 PK WND 12028/1717
14840KMKG MKG20070506124511705/06/07 12:45:31  5-MIN KMKG 061745Z 12018G27KT 10SM CLR 18/M05 A3041 180 20 700 130/18G27 RMK AO2 PK WND 12028/1717
14840KMKG MKG20070506125015205/06/07 12:50:31  5-MIN KMKG 061750Z 12016G27KT 10SM CLR 18/M05 A3041 180 20 600 120/16G27 RMK AO2 PK WND 12028/1717 SLP300 T01831050 10183 20100 55004
14840KMKG MKG20070506125515205/06/07 12:55:31  5-MIN KMKG 061755Z 13016G23KT 10SM CLR 18/M04 A3041 180 21 700 130/16G23 RMK AO2 PK WND 12028/1717 SLP298 T01831044 10183 20100 57014
14840KMKG MKG20070506130009905/06/07 13:00:31  5-MIN KMKG 061800Z 12018G25KT 10SM CLR 19/M04 A3040 190 20 700 130/18G25 RMK AO2
14840KMKG MKG20070506130509905/06/07 13:05:31  5-MIN KMKG 061805Z 11016G25KT 10SM CLR 19/M04 A3041 180 20 700 110/16G25 RMK AO2
14840KMKG MKG20070506131009905/06/07 13:10:31  5-MIN KMKG 061810Z 11016G24KT 10SM CLR 18/M06 A3041 180 19 700 110/16G24 RMK AO2
14840KMKG MKG20070506131511705/06/07 13:15:31  5-MIN KMKG 061815Z 12019G27KT 10SM CLR 19/M06 A3041 180 18 700 120/19G27 RMK AO2 PK WND 09027/1812
14840KMKG MKG20070506132011705/06/07 13:20:31  5-MIN KMKG 061820Z 12016G27KT 10SM CLR 18/M05 A3041 180 20 700 120/16G27 RMK AO2 PK WND 09027/1812
14840KMKG MKG20070506132511705/06/07 13:25:31  5-MIN KMKG 061825Z 11020G25KT 10SM CLR 19/M06 A3040 190 18 700 120/20G25 RMK AO2 PK WND 09027/1812
14840KMKG MKG20070506133011705/06/07 13:30:31  5-MIN KMKG 061830Z 12019G26KT 10SM CLR 19/M06 A3040 190 18 700 120/19G26 RMK AO2 PK WND 09027/1812
14840KMKG MKG20070506133511705/06/07 13:35:31  5-MIN KMKG 061835Z 11018G26KT 10SM CLR 19/M05 A3040 190 19 700 120/18G26 RMK AO2 PK WND 09027/1812
14840KMKG MKG20070506134012405/06/07 13:40:31  5-MIN KMKG 061840Z 11019G25KT 10SM CLR 19/M06 A3039 200 18 700 110/19G25 RMK AO2 PK WND 09027/1812 PRESFR
14840KMKG MKG20070506134512405/06/07 13:45:31  5-MIN KMKG 061845Z 11015G24KT 10SM CLR 19/M05 A3038 210 19 700 110/15G24 RMK AO2 PK WND 09027/1812 PRESFR
14840KMKG MKG20070506135013405/06/07 13:50:31  5-MIN KMKG 061850Z 14017G24KT 10SM CLR 19/M05 A3039 200 18 800 140/17G24 RMK AO2 PK WND 09027/1812 SLP291 T01941050
14840KMKG MKG20070506135513405/06/07 13:55:31  5-MIN KMKG 061855Z 13021G25KT 10SM CLR 19/M05 A3039 200 18 800 130/21G25 RMK AO2 PK WND 09027/1812 SLP291 T01941050
14840KMKG MKG20070506140009905/06/07 14:00:31  5-MIN KMKG 061900Z 10020G25KT 10SM CLR 19/M05 A3038 210 19 800 110/20G25 RMK AO2
14840KMKG MKG20070506140509905/06/07 14:05:31  5-MIN KMKG 061905Z 11018G24KT 10SM CLR 19/M04 A3038 210 19 800 120/18G24 RMK AO2
14840KMKG MKG20070506141009905/06/07 14:10:31  5-MIN KMKG 061910Z 12018G24KT 10SM CLR 19/M06 A3039 200 18 700 120/18G24 RMK AO2
14840KMKG MKG20070506141509905/06/07 14:15:31  5-MIN KMKG 061915Z 11014G24KT 10SM CLR 19/M05 A3039 200 19 700 110/14G24 RMK AO2
14840KMKG MKG20070506142009905/06/07 14:20:31  5-MIN KMKG 061920Z 10018G25KT 10SM CLR 19/M06 A3038 210 18 800 110/18G25 RMK AO2
14840KMKG MKG20070506142509905/06/07 14:25:31  5-MIN KMKG 061925Z 12018G25KT 10SM CLR 19/M06 A3038 210 18 800 120/18G25 RMK AO2
14840KMKG MKG20070506143009905/06/07 14:30:31  5-MIN KMKG 061930Z 12016G25KT 10SM CLR 20/M05 A3038 210 18 900 130/16G25 RMK AO2
14840KMKG MKG20070506143509905/06/07 14:35:31  5-MIN KMKG 061935Z 13016G22KT 10SM CLR 19/M06 A3038 210 18 800 130/16G22 RMK AO2
14840KMKG MKG20070506144009905/06/07 14:40:31  5-MIN KMKG 061940Z 12014G22KT 10SM CLR 19/M05 A3038 210 19 800 120/14G22 RMK AO2
14840KMKG MKG20070506144509905/06/07 14:45:31  5-MIN KMKG 061945Z 12012G21KT 10SM CLR 19/M05 A3038 210 19 800 120/12G21 RMK AO2
14840KMKG MKG20070506145011605/06/07 14:50:31  5-MIN KMKG 061950Z 11016G19KT 10SM CLR 19/M05 A3038 210 19 800 120/16G19 RMK AO2 SLP287 T01891050
14840KMKG MKG20070506145511605/06/07 14:55:31  5-MIN KMKG 061955Z 10014G19KT 10SM CLR 19/M04 A3037 210 19 800 110/14G19 RMK AO2 SLP287 T01941044
14840KMKG MKG20070506150009905/06/07 15:00:31  5-MIN KMKG 062000Z 11016G22KT 10SM CLR 19/M06 A3037 210 18 800 120/16G22 RMK AO2
14840KMKG MKG20070506150509905/06/07 15:05:31  5-MIN KMKG 062005Z 10015G22KT 10SM CLR 19/M06 A3038 210 18 800 100/15G22 RMK AO2
14840KMKG MKG20070506151009905/06/07 15:10:31  5-MIN KMKG 062010Z 10014G20KT 10SM CLR 19/M06 A3038 210 18 800 100/14G20 RMK AO2
14840KMKG MKG20070506151509905/06/07 15:15:31  5-MIN KMKG 062015Z 10012G20KT 10SM CLR 19/M05 A3038 210 19 700 110/12G20 RMK AO2
14840KMKG MKG20070506152009905/06/07 15:20:31  5-MIN KMKG 062020Z 13015G20KT 10SM CLR 19/M05 A3038 210 19 800 130/15G20 RMK AO2
14840KMKG MKG20070506152509905/06/07 15:25:31  5-MIN KMKG 062025Z 12015G20KT 10SM CLR 19/M06 A3038 210 18 800 130/15G20 RMK AO2
14840KMKG MKG20070506153009905/06/07 15:30:31  5-MIN KMKG 062030Z 13012G20KT 10SM CLR 19/M04 A3038 200 19 800 130/12G20 RMK AO2
14840KMKG MKG20070506153509305/06/07 15:35:31  5-MIN KMKG 062035Z 13012KT 10SM CLR 19/M04 A3038 210 20 700 140/12 RMK AO2
14840KMKG MKG20070506154009905/06/07 15:40:31  5-MIN KMKG 062040Z 15014G20KT 10SM CLR 19/M05 A3038 210 18 800 150/14G20 RMK AO2
14840KMKG MKG20070506154509905/06/07 15:45:31  5-MIN KMKG 062045Z 11010G20KT 10SM CLR 19/M04 A3038 210 19 800 120/10G20 RMK AO2
14840KMKG MKG20070506155012205/06/07 15:50:31  5-MIN KMKG 062050Z 14014G17KT 10SM CLR 19/M05 A3038 210 18 800 140/14G17 RMK AO2 SLP289 T01941050 57014
14840KMKG MKG20070506155511605/06/07 15:55:31  5-MIN KMKG 062055Z 14013KT 10SM CLR 19/M06 A3038 210 18 800 140/13 RMK AO2 SLP287 T01891056 55010
14840KMKG MKG20070506160009305/06/07 16:00:31  5-MIN KMKG 062100Z 11012KT 10SM CLR 19/M05 A3037 210 19 800 110/12 RMK AO2
14840KMKG MKG20070506160509305/06/07 16:05:31  5-MIN KMKG 062105Z 11012KT 10SM CLR 19/M05 A3037 210 19 800 110/12 RMK AO2
14840KMKG MKG20070506161009305/06/07 16:10:31  5-MIN KMKG 062110Z 12013KT 10SM CLR 19/M05 A3036 220 19 800 120/13 RMK AO2
14840KMKG MKG20070506161509305/06/07 16:15:31  5-MIN KMKG 062115Z 12011KT 10SM CLR 19/M04 A3036 220 20 800 120/11 RMK AO2
14840KMKG MKG20070506162009305/06/07 16:20:31  5-MIN KMKG 062120Z 11011KT 10SM CLR 18/M04 A3037 220 21 700 110/11 RMK AO2
14840KMKG MKG20070506162509305/06/07 16:25:31  5-MIN KMKG 062125Z 09011KT 10SM CLR 18/M04 A3036 220 21 700 100/11 RMK AO2
14840KMKG MKG20070506163009905/06/07 16:30:31  5-MIN KMKG 062130Z 10014G19KT 10SM CLR 18/M04 A3036 230 21 700 100/14G19 RMK AO2
14840KMKG MKG20070506163509905/06/07 16:35:31  5-MIN KMKG 062135Z 11017G20KT 10SM CLR 18/M05 A3036 220 20 700 110/17G20 RMK AO2
14840KMKG MKG20070506164009305/06/07 16:40:31  5-MIN KMKG 062140Z 12012KT 10SM CLR 18/M05 A3036 220 20 700 120/12 RMK AO2
14840KMKG MKG20070506164509305/06/07 16:45:31  5-MIN KMKG 062145Z 11013KT 10SM CLR 18/M05 A3036 230 20 700 120/13 RMK AO2
14840KMKG MKG20070506165011005/06/07 16:50:31  5-MIN KMKG 062150Z 12013KT 10SM CLR 18/M04 A3036 230 21 700 120/13 RMK AO2 SLP281 T01831044
14840KMKG MKG20070506165511605/06/07 16:55:31  5-MIN KMKG 062155Z 13013G20KT 10SM CLR 18/M05 A3035 230 20 700 130/13G20 RMK AO2 SLP280 T01831050
14840KMKG MKG20070506170009905/06/07 17:00:31  5-MIN KMKG 062200Z 11014G20KT 10SM CLR 18/M04 A3035 230 21 700 120/14G20 RMK AO2
14840KMKG MKG20070506170509905/06/07 17:05:31  5-MIN KMKG 062205Z 11012G19KT 10SM CLR 18/M04 A3035 240 21 700 110/12G19 RMK AO2
14840KMKG MKG20070506171009905/06/07 17:10:31  5-MIN KMKG 062210Z 12014G19KT 10SM CLR 18/M04 A3034 240 21 700 120/14G19 RMK AO2
14840KMKG MKG20070506171509905/06/07 17:15:31  5-MIN KMKG 062215Z 12011G19KT 10SM CLR 18/M03 A3034 240 22 700 130/11G19 RMK AO2
14840KMKG MKG20070506172009305/06/07 17:20:31  5-MIN KMKG 062220Z 12016KT 10SM CLR 18/M04 A3034 240 21 700 130/16 RMK AO2
14840KMKG MKG20070506172509905/06/07 17:25:31  5-MIN KMKG 062225Z 12011G20KT 10SM CLR 18/M04 A3034 250 21 700 120/11G20 RMK AO2
14840KMKG MKG20070506173009905/06/07 17:30:31  5-MIN KMKG 062230Z 13014G20KT 10SM CLR 18/M04 A3033 250 21 700 130/14G20 RMK AO2
14840KMKG MKG20070506173509905/06/07 17:35:31  5-MIN KMKG 062235Z 11014G19KT 10SM CLR 18/M04 A3033 250 21 700 110/14G19 RMK AO2
14840KMKG MKG20070506174009905/06/07 17:40:31  5-MIN KMKG 062240Z 12013G18KT 10SM CLR 18/M04 A3033 250 21 700 120/13G18 RMK AO2
14840KMKG MKG20070506174509305/06/07 17:45:31  5-MIN KMKG 062245Z 12014KT 10SM CLR 18/M04 A3033 260 21 700 120/14 RMK AO2
14840KMKG MKG20070506175011605/06/07 17:50:31  5-MIN KMKG 062250Z 12016G23KT 10SM CLR 18/M04 A3033 260 21 700 120/16G23 RMK AO2 SLP271 T01831039
14840KMKG MKG20070506175511605/06/07 17:55:31  5-MIN KMKG 062255Z 12014G23KT 10SM CLR 18/M04 A3033 260 21 700 130/14G23 RMK AO2 SLP271 T01831039
14840KMKG MKG20070506180009905/06/07 18:00:31  5-MIN KMKG 062300Z 12012G22KT 10SM CLR 19/M03 A3033 260 22 800 120/12G22 RMK AO2
14840KMKG MKG20070506180509905/06/07 18:05:31  5-MIN KMKG 062305Z 12015G20KT 10SM CLR 18/M03 A3032 260 22 800 130/15G20 RMK AO2
14840KMKG MKG20070506181009905/06/07 18:10:31  5-MIN KMKG 062310Z 12013G21KT 10SM CLR 18/M04 A3032 270 21 800 120/13G21 RMK AO2
14840KMKG MKG20070506181509905/06/07 18:15:31  5-MIN KMKG 062315Z 12014G21KT 10SM CLR 18/M03 A3031 270 22 800 130/14G21 RMK AO2
14840KMKG MKG20070506182009905/06/07 18:20:31  5-MIN KMKG 062320Z 12010G18KT 10SM CLR 18/M03 A3032 260 23 700 120/10G18 RMK AO2
14840KMKG MKG20070506182509905/06/07 18:25:31  5-MIN KMKG 062325Z 10009G17KT 10SM CLR 18/M03 A3032 260 23 700 110/09G17 RMK AO2
14840KMKG MKG20070506183009905/06/07 18:30:31  5-MIN KMKG 062330Z 12017G22KT 10SM CLR 18/M04 A3032 260 22 700 130/17G22 RMK AO2
14840KMKG MKG20070506183509905/06/07 18:35:31  5-MIN KMKG 062335Z 11016G22KT 10SM CLR 18/M04 A3031 270 21 700 120/16G22 RMK AO2
14840KMKG MKG20070506184009905/06/07 18:40:31  5-MIN KMKG 062340Z 12017G23KT 10SM CLR 17/M05 A3032 270 21 600 120/17G23 RMK AO2
14840KMKG MKG20070506184509905/06/07 18:45:31  5-MIN KMKG 062345Z 11017G23KT 10SM CLR 17/M05 A3032 260 21 600 120/17G23 RMK AO2
14840KMKG MKG20070506185013405/06/07 18:50:31  5-MIN KMKG 062350Z 11013G22KT 10SM CLR 17/M05 A3032 260 21 600 110/13G22 RMK AO2 SLP268 T01721050 10200 20172 55010
14840KMKG MKG20070506185513405/06/07 18:55:31  5-MIN KMKG 062355Z 12014G22KT 10SM CLR 17/M05 A3032 260 21 600 120/14G22 RMK AO2 SLP268 T01721050 10200 20172 56019
14840KMKG MKG20070506190009305/06/07 19:00:31  5-MIN KMKG 070000Z 12015KT 10SM CLR 17/M04 A3032 260 23 600 120/15 RMK AO2
14840KMKG MKG20070506190509305/06/07 19:05:31  5-MIN KMKG 070005Z 12014KT 10SM CLR 17/M04 A3032 260 23 600 120/14 RMK AO2
14840KMKG MKG20070506191009305/06/07 19:10:31  5-MIN KMKG 070010Z 12011KT 10SM CLR 17/M04 A3032 260 23 600 120/11 RMK AO2
14840KMKG MKG20070506191509905/06/07 19:15:31  5-MIN KMKG 070015Z 11012G18KT 10SM CLR 17/M04 A3033 260 24 600 120/12G18 RMK AO2
14840KMKG MKG20070506192009905/06/07 19:20:31  5-MIN KMKG 070020Z 12011G18KT 10SM CLR 17/M04 A3032 260 23 600 120/11G18 RMK AO2
14840KMKG MKG20070506192509305/06/07 19:25:31  5-MIN KMKG 070025Z 11011KT 10SM CLR 16/M04 A3032 260 24 500 120/11 RMK AO2
14840KMKG MKG20070506193009305/06/07 19:30:31  5-MIN KMKG 070030Z 11011KT 10SM CLR 16/M04 A3033 260 24 500 120/11 RMK AO2
14840KMKG MKG20070506193509305/06/07 19:35:31  5-MIN KMKG 070035Z 11010KT 10SM CLR 16/M04 A3032 260 24 500 110/10 RMK AO2
14840KMKG MKG20070506194009305/06/07 19:40:31  5-MIN KMKG 070040Z 11011KT 10SM CLR 16/M04 A3032 260 25 400 110/11 RMK AO2
14840KMKG MKG20070506194509305/06/07 19:45:31  5-MIN KMKG 070045Z 11010KT 10SM CLR 16/M04 A3033 260 25 400 110/10 RMK AO2
14840KMKG MKG20070506195011005/06/07 19:50:31  5-MIN KMKG 070050Z 11009KT 10SM CLR 16/M04 A3033 250 25 400 120/09 RMK AO2 SLP271 T01561044
14840KMKG MKG20070506195511005/06/07 19:55:31  5-MIN KMKG 070055Z 11008KT 10SM CLR 15/M04 A3033 250 25 400 110/08 RMK AO2 SLP272 T01501044
14840KMKG MKG20070506200009305/06/07 20:00:31  5-MIN KMKG 070100Z 11009KT 10SM CLR 15/M04 A3033 250 25 300 120/09 RMK AO2
14840KMKG MKG20070506200509305/06/07 20:05:31  5-MIN KMKG 070105Z 12008KT 10SM CLR 14/M04 A3034 250 26 300 120/08 RMK AO2
14840KMKG MKG20070506201009305/06/07 20:10:31  5-MIN KMKG 070110Z 12009KT 10SM CLR 14/M04 A3033 250 26 300 120/09 RMK AO2
14840KMKG MKG20070506201509305/06/07 20:15:31  5-MIN KMKG 070115Z 12008KT 10SM CLR 14/M04 A3033 250 27 200 120/08 RMK AO2
14840KMKG MKG20070506202009305/06/07 20:20:31  5-MIN KMKG 070120Z 12009KT 10SM CLR 14/M04 A3033 250 26 300 130/09 RMK AO2
14840KMKG MKG20070506202509305/06/07 20:25:31  5-MIN KMKG 070125Z 12010KT 10SM CLR 14/M04 A3033 250 29 200 120/10 RMK AO2
14840KMKG MKG20070506203009305/06/07 20:30:31  5-MIN KMKG 070130Z 12010KT 10SM CLR 14/M04 A3033 260 29 200 120/10 RMK AO2
14840KMKG MKG20070506203509305/06/07 20:35:31  5-MIN KMKG 070135Z 12010KT 10SM CLR 14/M04 A3033 250 29 200 120/10 RMK AO2
14840KMKG MKG20070506204009305/06/07 20:40:31  5-MIN KMKG 070140Z 11009KT 10SM CLR 13/M04 A3033 250 30 200 120/09 RMK AO2
14840KMKG MKG20070506204509305/06/07 20:45:31  5-MIN KMKG 070145Z 12009KT 10SM CLR 13/M04 A3033 250 30 200 120/09 RMK AO2
14840KMKG MKG20070506205011005/06/07 20:50:31  5-MIN KMKG 070150Z 12011KT 10SM CLR 13/M04 A3034 250 30 100 120/11 RMK AO2 SLP274 T01331039
14840KMKG MKG20070506205511005/06/07 20:55:31  5-MIN KMKG 070155Z 12010KT 10SM CLR 13/M04 A3034 250 28 100 120/10 RMK AO2 SLP273 T01331044
14840KMKG MKG20070506210009305/06/07 21:00:31  5-MIN KMKG 070200Z 11008KT 10SM CLR 13/M04 A3034 250 28 100 120/08 RMK AO2
14840KMKG MKG20070506210509305/06/07 21:05:31  5-MIN KMKG 070205Z 12008KT 10SM CLR 13/M04 A3034 240 28 100 130/08 RMK AO2
14840KMKG MKG20070506211009305/06/07 21:10:31  5-MIN KMKG 070210Z 13009KT 10SM CLR 13/M04 A3034 240 28 100 130/09 RMK AO2
14840KMKG MKG20070506211509305/06/07 21:15:31  5-MIN KMKG 070215Z 12008KT 10SM CLR 13/M04 A3034 240 30 100 130/08 RMK AO2
14840KMKG MKG20070506212009105/06/07 21:20:31  5-MIN KMKG 070220Z 12009KT 10SM CLR 12/M04 A3034 240 31 0 120/09 RMK AO2
14840KMKG MKG20070506212509105/06/07 21:25:31  5-MIN KMKG 070225Z 12008KT 10SM CLR 12/M04 A3034 240 31 0 120/08 RMK AO2
14840KMKG MKG20070506213009105/06/07 21:30:31  5-MIN KMKG 070230Z 12008KT 10SM CLR 12/M04 A3035 240 31 0 120/08 RMK AO2
14840KMKG MKG20070506213509105/06/07 21:35:31  5-MIN KMKG 070235Z 11006KT 10SM CLR 12/M04 A3035 240 32 0 120/06 RMK AO2
14840KMKG MKG20070506214009105/06/07 21:40:31  5-MIN KMKG 070240Z 11006KT 10SM CLR 12/M04 A3035 230 32 0 110/06 RMK AO2
14840KMKG MKG20070506214509105/06/07 21:45:31  5-MIN KMKG 070245Z 11006KT 10SM CLR 12/M04 A3035 240 31 0 110/06 RMK AO2
14840KMKG MKG20070506215011405/06/07 21:50:31  5-MIN KMKG 070250Z 12009KT 10SM CLR 12/M04 A3034 240 31 0 120/09 RMK AO2 SLP277 T01221044 56019
14840KMKG MKG20070506215511705/06/07 21:55:31  5-MIN KMKG 070255Z 12009KT 10SM CLR 11/M04 A3034 250 33 -100 120/09 RMK AO2 SLP276 T01111044 51006
14840KMKG MKG20070506220009405/06/07 22:00:31  5-MIN KMKG 070300Z 11009KT 10SM CLR 11/M04 A3033 250 34 -100 120/09 RMK AO2
14840KMKG MKG20070506220509105/06/07 22:05:31  5-MIN KMKG 070305Z 11009KT 10SM CLR 12/M04 A3033 250 32 0 120/09 RMK AO2
14840KMKG MKG20070506221009105/06/07 22:10:31  5-MIN KMKG 070310Z 12007KT 10SM CLR 12/M04 A3034 240 32 0 130/07 RMK AO2
14840KMKG MKG20070506221509405/06/07 22:15:31  5-MIN KMKG 070315Z 12009KT 10SM CLR 11/M04 A3033 250 36 -100 120/09 RMK AO2
14840KMKG MKG20070506222009405/06/07 22:20:31  5-MIN KMKG 070320Z 11010KT 10SM CLR 11/M04 A3032 260 36 -100 120/10 RMK AO2
14840KMKG MKG20070506222509405/06/07 22:25:31  5-MIN KMKG 070325Z 12009KT 10SM CLR 11/M04 A3033 260 34 -100 120/09 RMK AO2
14840KMKG MKG20070506223009405/06/07 22:30:31  5-MIN KMKG 070330Z 12009KT 10SM CLR 11/M04 A3032 260 34 -100 120/09 RMK AO2
14840KMKG MKG20070506223509405/06/07 22:35:31  5-MIN KMKG 070335Z 12008KT 10SM CLR 11/M04 A3032 260 34 -100 130/08 RMK AO2
14840KMKG MKG20070506224009405/06/07 22:40:31  5-MIN KMKG 070340Z 12007KT 10SM CLR 11/M04 A3033 260 34 -100 130/07 RMK AO2
14840KMKG MKG20070506224509405/06/07 22:45:31  5-MIN KMKG 070345Z 13006KT 10SM CLR 11/M04 A3033 250 36 -100 130/06 RMK AO2
14840KMKG MKG20070506225011105/06/07 22:50:31  5-MIN KMKG 070350Z 12009KT 10SM CLR 11/M03 A3032 260 37 -100 120/09 RMK AO2 SLP270 T01061033
14840KMKG MKG20070506225511105/06/07 22:55:31  5-MIN KMKG 070355Z 12008KT 10SM CLR 11/M04 A3032 260 36 -100 120/08 RMK AO2 SLP270 T01061039
14840KMKG MKG20070506230009405/06/07 23:00:31  5-MIN KMKG 070400Z 12006KT 10SM CLR 11/M04 A3033 260 36 -100 120/06 RMK AO2
14840KMKG MKG20070506230509405/06/07 23:05:31  5-MIN KMKG 070405Z 12005KT 10SM CLR 10/M04 A3033 250 37 -200 130/05 RMK AO2
14840KMKG MKG20070506231009405/06/07 23:10:31  5-MIN KMKG 070410Z 12005KT 10SM CLR 10/M04 A3033 250 37 -200 120/05 RMK AO2
14840KMKG MKG20070506231509405/06/07 23:15:31  5-MIN KMKG 070415Z 13004KT 10SM CLR 10/M04 A3034 240 37 -200 130/04 RMK AO2
14840KMKG MKG20070506232009405/06/07 23:20:31  5-MIN KMKG 070420Z 12005KT 10SM CLR 10/M03 A3033 250 39 -200 130/05 RMK AO2
14840KMKG MKG20070506232509405/06/07 23:25:31  5-MIN KMKG 070425Z 12006KT 10SM CLR 09/M03 A3033 250 40 -300 120/06 RMK AO2
14840KMKG MKG20070506233009405/06/07 23:30:31  5-MIN KMKG 070430Z 12006KT 10SM CLR 09/M03 A3033 250 40 -300 120/06 RMK AO2
14840KMKG MKG20070506233509405/06/07 23:35:31  5-MIN KMKG 070435Z 12006KT 10SM CLR 10/M03 A3033 250 39 -200 120/06 RMK AO2
14840KMKG MKG20070506234009405/06/07 23:40:31  5-MIN KMKG 070440Z 12007KT 10SM CLR 10/M03 A3033 260 39 -200 120/07 RMK AO2
14840KMKG MKG20070506234509405/06/07 23:45:31  5-MIN KMKG 070445Z 12007KT 10SM CLR 10/M03 A3033 260 39 -200 130/07 RMK AO2
14840KMKG MKG20070506235012105/06/07 23:50:31  5-MIN KMKG 070450Z 12006KT 10SM CLR 10/M03 A3033 250 39 -200 130/06 RMK AO2 SLP271 T01001033 402000083
14840KMKG MKG20070506235512105/06/07 23:55:31  5-MIN KMKG 070455Z 13006KT 10SM CLR 10/M03 A3033 250 39 -200 140/06 RMK AO2 SLP272 T01001033 402000083
14840KMKG MKG20070507000009405/07/07 00:00:32  5-MIN KMKG 070500Z 12007KT 10SM CLR 10/M03 A3033 250 39 -200 130/07 RMK AO2
14840KMKG MKG20070507000509405/07/07 00:05:31  5-MIN KMKG 070505Z 13005KT 10SM CLR 10/M03 A3034 250 39 -200 130/05 RMK AO2
14840KMKG MKG20070507001009405/07/07 00:10:31  5-MIN KMKG 070510Z 13006KT 10SM CLR 10/M03 A3034 250 39 -200 140/06 RMK AO2
14840KMKG MKG20070507001509405/07/07 00:15:31  5-MIN KMKG 070515Z 13008KT 10SM CLR 11/M03 A3033 250 37 -100 130/08 RMK AO2
14840KMKG MKG20070507002009405/07/07 00:20:31  5-MIN KMKG 070520Z 13009KT 10SM CLR 10/M03 A3033 250 39 -200 130/09 RMK AO2
14840KMKG MKG20070507002509405/07/07 00:25:31  5-MIN KMKG 070525Z 13008KT 10SM CLR 10/M03 A3033 250 40 -200 130/08 RMK AO2
14840KMKG MKG20070507003009405/07/07 00:30:31  5-MIN KMKG 070530Z 13008KT 10SM CLR 10/M03 A3033 250 40 -200 130/08 RMK AO2
14840KMKG MKG20070507003509405/07/07 00:35:31  5-MIN KMKG 070535Z 12008KT 10SM CLR 11/M03 A3033 250 39 -100 130/08 RMK AO2
14840KMKG MKG20070507004009405/07/07 00:40:31  5-MIN KMKG 070540Z 12009KT 10SM CLR 10/M03 A3033 250 40 -200 120/09 RMK AO2
14840KMKG MKG20070507004509405/07/07 00:45:31  5-MIN KMKG 070545Z 12008KT 10SM CLR 11/M03 A3033 260 39 -100 120/08 RMK AO2
14840KMKG MKG20070507005012905/07/07 00:50:31  5-MIN KMKG 070550Z 12007KT 10SM CLR 11/M03 A3033 250 37 -100 120/07 RMK AO2 SLP271 T01061033 10172 20094 51006
14840KMKG MKG20070507005512905/07/07 00:55:31  5-MIN KMKG 070555Z 12006KT 10SM CLR 10/M03 A3033 260 39 -200 120/06 RMK AO2 SLP270 T01001033 10172 20094 56004
14840KMKG MKG20070507010009405/07/07 01:00:31  5-MIN KMKG 070600Z 11005KT 10SM CLR 09/M03 A3033 260 42 -300 120/05 RMK AO2
14840KMKG MKG20070507010509405/07/07 01:05:31  5-MIN KMKG 070605Z 12004KT 10SM CLR 09/M03 A3033 250 40 -300 130/04 RMK AO2
14840KMKG MKG20070507011009405/07/07 01:10:31  5-MIN KMKG 070610Z 12005KT 10SM CLR 09/M03 A3032 260 43 -300 120/05 RMK AO2
14840KMKG MKG20070507011509405/07/07 01:15:31  5-MIN KMKG 070615Z 11004KT 10SM CLR 09/M03 A3032 260 43 -300 120/04 RMK AO2
14840KMKG MKG20070507012009405/07/07 01:20:31  5-MIN KMKG 070620Z 12003KT 10SM CLR 09/M03 A3033 260 43 -300 130/03 RMK AO2
14840KMKG MKG20070507012509405/07/07 01:25:31  5-MIN KMKG 070625Z 13004KT 10SM CLR 09/M03 A3032 260 42 -300 130/04 RMK AO2
14840KMKG MKG20070507013009405/07/07 01:30:31  5-MIN KMKG 070630Z 13003KT 10SM CLR 09/M03 A3032 260 42 -300 130/03 RMK AO2
14840KMKG MKG20070507013509405/07/07 01:35:31  5-MIN KMKG 070635Z 14003KT 10SM CLR 09/M03 A3033 260 43 -300 140/03 RMK AO2
14840KMKG MKG20070507014009405/07/07 01:40:31  5-MIN KMKG 070640Z 14003KT 10SM CLR 09/M03 A3033 260 43 -300 140/03 RMK AO2
14840KMKG MKG20070507014509405/07/07 01:45:31  5-MIN KMKG 070645Z 12004KT 10SM CLR 08/M03 A3032 260 45 -400 130/04 RMK AO2
14840KMKG MKG20070507015011105/07/07 01:50:31  5-MIN KMKG 070650Z 10004KT 10SM CLR 08/M03 A3032 270 47 -400 110/04 RMK AO2 SLP267 T00781028
14840KMKG MKG20070507015511105/07/07 01:55:31  5-MIN KMKG 070655Z 00000KT 10SM CLR 07/M03 A3032 260 49 -500 000/00 RMK AO2 SLP268 T00721028
14840KMKG MKG20070507020009405/07/07 02:00:31  5-MIN KMKG 070700Z 00000KT 10SM CLR 07/M03 A3032 260 49 -500 000/00 RMK AO2
14840KMKG MKG20070507020509405/07/07 02:05:31  5-MIN KMKG 070705Z 00000KT 10SM CLR 07/M03 A3031 270 49 -500 000/00 RMK AO2
14840KMKG MKG20070507021009405/07/07 02:10:31  5-MIN KMKG 070710Z 10004KT 10SM CLR 08/M03 A3031 280 47 -400 100/04 RMK AO2
14840KMKG MKG20070507021509405/07/07 02:15:31  5-MIN KMKG 070715Z 09003KT 10SM CLR 07/M03 A3031 270 49 -500 090/03 RMK AO2
14840KMKG MKG20070507022009405/07/07 02:20:31  5-MIN KMKG 070720Z 09003KT 10SM CLR 07/M02 A3031 270 53 -600 090/03 RMK AO2
14840KMKG MKG20070507022509405/07/07 02:25:31  5-MIN KMKG 070725Z 09003KT 10SM CLR 08/M03 A3031 270 47 -400 090/03 RMK AO2
14840KMKG MKG20070507023009405/07/07 02:30:31  5-MIN KMKG 070730Z 00000KT 10SM CLR 08/M03 A3031 270 47 -400 000/00 RMK AO2
14840KMKG MKG20070507023509405/07/07 02:35:31  5-MIN KMKG 070735Z 00000KT 10SM CLR 07/M02 A3031 270 53 -600 000/00 RMK AO2
14840KMKG MKG20070507024009405/07/07 02:40:31  5-MIN KMKG 070740Z 00000KT 10SM CLR 07/M02 A3031 270 53 -600 000/00 RMK AO2
14840KMKG MKG20070507024509405/07/07 02:45:31  5-MIN KMKG 070745Z 00000KT 10SM CLR 06/M02 A3031 270 55 -600 000/00 RMK AO2
14840KMKG MKG20070507025011105/07/07 02:50:31  5-MIN KMKG 070750Z 00000KT 10SM CLR 07/M02 A3031 270 53 -600 000/00 RMK AO2 SLP266 T00671022
14840KMKG MKG20070507025511105/07/07 02:55:31  5-MIN KMKG 070755Z 00000KT 10SM CLR 06/M02 A3032 270 55 -700 000/00 RMK AO2 SLP268 T00611022
14840KMKG MKG20070507030009405/07/07 03:00:31  5-MIN KMKG 070800Z 00000KT 10SM CLR 06/M02 A3032 260 57 -700 000/00 RMK AO2
14840KMKG MKG20070507030509405/07/07 03:05:31  5-MIN KMKG 070805Z 00000KT 10SM CLR 06/M02 A3032 260 57 -700 000/00 RMK AO2
14840KMKG MKG20070507031009405/07/07 03:10:31  5-MIN KMKG 070810Z 00000KT 10SM CLR 06/M02 A3032 270 55 -700 000/00 RMK AO2
14840KMKG MKG20070507031509405/07/07 03:15:31  5-MIN KMKG 070815Z 09006KT 10SM CLR 06/M02 A3030 280 57 -700 090/06 RMK AO2
14840KMKG MKG20070507032009405/07/07 03:20:31  5-MIN KMKG 070820Z 09004KT 10SM CLR 04/M02 A3031 270 64 -800 090/04 RMK AO2
14840KMKG MKG20070507032509405/07/07 03:25:31  5-MIN KMKG 070825Z 08004KT 10SM CLR 04/M02 A3031 280 67 -900 090/04 RMK AO2
14840KMKG MKG20070507033009405/07/07 03:30:31  5-MIN KMKG 070830Z 08004KT 10SM CLR 04/M02 A3031 270 64 -900 090/04 RMK AO2
14840KMKG MKG20070507033509405/07/07 03:35:31  5-MIN KMKG 070835Z 10006KT 10SM CLR 05/M02 A3030 280 62 -800 100/06 RMK AO2
14840KMKG MKG20070507034009505/07/07 03:40:31  5-MIN KMKG 070840Z 10005KT 10SM CLR 03/M02 A3030 280 70 -1000 100/05 RMK AO2
14840KMKG MKG20070507034509405/07/07 03:45:31  5-MIN KMKG 070845Z 11006KT 10SM CLR 04/M02 A3030 280 67 -900 110/06 RMK AO2
14840KMKG MKG20070507035011705/07/07 03:50:31  5-MIN KMKG 070850Z 10007KT 10SM CLR 04/M02 A3030 290 67 -900 110/07 RMK AO2 SLP261 T00391017 56004
14840KMKG MKG20070507035511705/07/07 03:55:31  5-MIN KMKG 070855Z 11006KT 10SM CLR 04/M02 A3029 290 67 -900 110/06 RMK AO2 SLP261 T00391017 58010
14840KMKG MKG20070507040009405/07/07 04:00:31  5-MIN KMKG 070900Z 11006KT 10SM CLR 05/M02 A3029 290 62 -800 120/06 RMK AO2
14840KMKG MKG20070507040509405/07/07 04:05:31  5-MIN KMKG 070905Z 12005KT 10SM CLR 05/M02 A3029 290 62 -800 120/05 RMK AO2
14840KMKG MKG20070507041009405/07/07 04:10:31  5-MIN KMKG 070910Z 12006KT 10SM CLR 05/M02 A3029 290 62 -800 120/06 RMK AO2
14840KMKG MKG20070507041509405/07/07 04:15:31  5-MIN KMKG 070915Z 11007KT 10SM CLR 05/M02 A3029 290 62 -800 120/07 RMK AO2
14840KMKG MKG20070507042009405/07/07 04:20:31  5-MIN KMKG 070920Z 12006KT 10SM CLR 04/M02 A3029 290 64 -800 120/06 RMK AO2
14840KMKG MKG20070507042509405/07/07 04:25:31  5-MIN KMKG 070925Z 13004KT 10SM CLR 04/M02 A3030 280 64 -800 140/04 RMK AO2
14840KMKG MKG20070507043009405/07/07 04:30:31  5-MIN KMKG 070930Z 13004KT 10SM CLR 06/M02 A3029 290 59 -700 140/04 RMK AO2
14840KMKG MKG20070507043509405/07/07 04:35:31  5-MIN KMKG 070935Z 14004KT 10SM CLR 06/M02 A3030 280 59 -700 140/04 RMK AO2
14840KMKG MKG20070507044009405/07/07 04:40:31  5-MIN KMKG 070940Z 13006KT 10SM CLR 05/M02 A3029 290 62 -800 130/06 RMK AO2
14840KMKG MKG20070507044509405/07/07 04:45:31  5-MIN KMKG 070945Z 13006KT 10SM CLR 04/M02 A3029 290 64 -800 130/06 RMK AO2
14840KMKG MKG20070507045011105/07/07 04:50:31  5-MIN KMKG 070950Z 13005KT 10SM CLR 04/M02 A3030 280 64 -800 130/05 RMK AO2 SLP262 T00441017
14840KMKG MKG20070507045511105/07/07 04:55:31  5-MIN KMKG 070955Z 11003KT 10SM CLR 04/M02 A3030 280 64 -800 120/03 RMK AO2 SLP264 T00441017
14840KMKG MKG20070507050009405/07/07 05:00:31  5-MIN KMKG 071000Z 09003KT 10SM CLR 06/M02 A3031 280 59 -700 100/03 RMK AO2
14840KMKG MKG20070507050509405/07/07 05:05:31  5-MIN KMKG 071005Z 10005KT 10SM CLR 05/M02 A3030 280 62 -800 100/05 RMK AO2
14840KMKG MKG20070507051009405/07/07 05:10:31  5-MIN KMKG 071010Z 11007KT 10SM CLR 04/M02 A3029 290 64 -800 110/07 RMK AO2
14840KMKG MKG20070507051509405/07/07 05:15:31  5-MIN KMKG 071015Z 11007KT 10SM CLR 04/M02 A3029 290 64 -800 120/07 RMK AO2
14840KMKG MKG20070507052009405/07/07 05:20:31  5-MIN KMKG 071020Z 11007KT 10SM CLR 04/M02 A3029 290 64 -800 110/07 RMK AO2
14840KMKG MKG20070507052509405/07/07 05:25:31  5-MIN KMKG 071025Z 11007KT 10SM CLR 04/M02 A3029 290 64 -800 110/07 RMK AO2
14840KMKG MKG20070507053009405/07/07 05:30:31  5-MIN KMKG 071030Z 12007KT 10SM CLR 05/M02 A3029 290 62 -800 120/07 RMK AO2
14840KMKG MKG20070507053509405/07/07 05:35:31  5-MIN KMKG 071035Z 11009KT 10SM CLR 05/M02 A3029 290 62 -800 110/09 RMK AO2
14840KMKG MKG20070507054009405/07/07 05:40:31  5-MIN KMKG 071040Z 11008KT 10SM CLR 06/M01 A3029 290 62 -700 120/08 RMK AO2
14840KMKG MKG20070507054509405/07/07 05:45:31  5-MIN KMKG 071045Z 13005KT 10SM CLR 06/M01 A3030 280 62 -700 130/05 RMK AO2
14840KMKG MKG20070507055011105/07/07 05:50:31  5-MIN KMKG 071050Z 14005KT 10SM CLR 06/M01 A3030 280 62 -700 140/05 RMK AO2 SLP262 T00561011
14840KMKG MKG20070507055511105/07/07 05:55:31  5-MIN KMKG 071055Z 13005KT 10SM CLR 06/M01 A3030 280 62 -700 130/05 RMK AO2 SLP262 T00561011
14840KMKG MKG20070507060009405/07/07 06:00:31  5-MIN KMKG 071100Z 13005KT 10SM CLR 06/M01 A3030 280 65 -700 130/05 RMK AO2
14840KMKG MKG20070507060509405/07/07 06:05:31  5-MIN KMKG 071105Z 13005KT 10SM CLR 06/M01 A3031 280 62 -600 130/05 RMK AO2
14840KMKG MKG20070507061009305/07/07 06:10:31  5-MIN KMKG 071110Z 12004KT 10SM CLR 07/00 A3030 280 62 -600 130/04 RMK AO2
14840KMKG MKG20070507061509305/07/07 06:15:31  5-MIN KMKG 071115Z 13006KT 10SM CLR 07/00 A3030 280 60 -500 130/06 RMK AO2
14840KMKG MKG20070507062009305/07/07 06:20:31  5-MIN KMKG 071120Z 14006KT 10SM CLR 08/00 A3031 280 58 -400 140/06 RMK AO2
14840KMKG MKG20070507062509405/07/07 06:25:31  5-MIN KMKG 071125Z 13004KT 10SM CLR 08/M01 A3031 280 53 -400 140/04 RMK AO2
14840KMKG MKG20070507063009405/07/07 06:30:31  5-MIN KMKG 071130Z 15007KT 10SM CLR 09/M01 A3031 270 51 -300 150/07 RMK AO2
14840KMKG MKG20070507063509405/07/07 06:35:31  5-MIN KMKG 071135Z 15007KT 10SM CLR 09/M01 A3031 270 51 -300 150/07 RMK AO2
14840KMKG MKG20070507064009405/07/07 06:40:31  5-MIN KMKG 071140Z 14009KT 10SM CLR 09/M01 A3030 280 49 -200 150/09 RMK AO2
14840KMKG MKG20070507224009605/07/07 22:40:31  5-MIN KMKG 080340Z 16007KT 10SM SCT075 20/03 A3004 520 33 1300 160/07 RMK AO2
14840KMKG MKG20070507224509605/07/07 22:45:31  5-MIN KMKG 080345Z 16007KT 10SM FEW075 20/03 A3004 520 33 1300 160/07 RMK AO2
14840KMKG MKG20070507225011305/07/07 22:50:31  5-MIN KMKG 080350Z 16009KT 10SM FEW075 20/03 A3004 520 33 1300 160/09 RMK AO2 SLP169 T02000033
14840KMKG MKG20070507225511005/07/07 22:55:31  5-MIN KMKG 080355Z 15008KT 10SM CLR 20/03 A3004 520 33 1300 160/08 RMK AO2 SLP168 T02000033
14840KMKG MKG20070507230009305/07/07 23:00:31  5-MIN KMKG 080400Z 15009KT 10SM CLR 20/03 A3003 530 33 1300 160/09 RMK AO2
14840KMKG MKG20070507230509305/07/07 23:05:31  5-MIN KMKG 080405Z 16011KT 10SM CLR 20/03 A3003 530 33 1300 160/11 RMK AO2
14840KMKG MKG20070507231009305/07/07 23:10:31  5-MIN KMKG 080410Z 16010KT 10SM CLR 20/03 A3003 530 33 1300 160/10 RMK AO2
14840KMKG MKG20070507231509305/07/07 23:15:31  5-MIN KMKG 080415Z 15010KT 10SM CLR 20/03 A3003 530 33 1300 160/10 RMK AO2
14840KMKG MKG20070507232009305/07/07 23:20:31  5-MIN KMKG 080420Z 15010KT 10SM CLR 20/03 A3002 530 33 1300 160/10 RMK AO2
14840KMKG MKG20070507232509305/07/07 23:25:31  5-MIN KMKG 080425Z 16011KT 10SM CLR 20/03 A3002 530 33 1300 160/11 RMK AO2
14840KMKG MKG20070507233009305/07/07 23:30:31  5-MIN KMKG 080430Z 15010KT 10SM CLR 20/03 A3002 540 33 1300 150/10 RMK AO2
14840KMKG MKG20070507233509305/07/07 23:35:31  5-MIN KMKG 080435Z 15009KT 10SM CLR 20/03 A3002 540 33 1300 160/09 RMK AO2
14840KMKG MKG20070507234009305/07/07 23:40:31  5-MIN KMKG 080440Z 16010KT 10SM CLR 20/03 A3002 540 33 1300 160/10 RMK AO2
14840KMKG MKG20070507234509305/07/07 23:45:31  5-MIN KMKG 080445Z 16010KT 10SM CLR 20/03 A3002 540 33 1300 160/10 RMK AO2
14840KMKG MKG20070507235012305/07/07 23:50:31  5-MIN KMKG 080450Z 16010KT 10SM FEW070 20/04 A3002 540 34 1300 160/10 RMK AO2 SLP162 T02000039 402440033
14840KMKG MKG20070507235512305/07/07 23:55:31  5-MIN KMKG 080455Z 16011KT 10SM SCT070 20/04 A3002 540 34 1300 160/11 RMK AO2 SLP162 T02000039 402440033
14840KMKG MKG20070508000009605/08/07 00:00:32  5-MIN KMKG 080500Z 16011KT 10SM FEW070 21/04 A3002 540 33 1400 170/11 RMK AO2
14840KMKG MKG20070508000509605/08/07 00:05:31  5-MIN KMKG 080505Z 16010KT 10SM FEW070 21/04 A3002 540 34 1400 160/10 RMK AO2
14840KMKG MKG20070508001010205/08/07 00:10:31  5-MIN KMKG 080510Z 16009G17KT 10SM FEW070 21/04 A3002 540 34 1400 160/09G17 RMK AO2
14840KMKG MKG20070508001509605/08/07 00:15:31  5-MIN KMKG 080515Z 17011KT 10SM FEW070 21/04 A3002 540 34 1400 170/11 RMK AO2
14840KMKG MKG20070508002009305/08/07 00:20:31  5-MIN KMKG 080520Z 16010KT 10SM CLR 21/05 A3001 540 35 1400 170/10 RMK AO2
14840KMKG MKG20070508002509305/08/07 00:25:31  5-MIN KMKG 080525Z 17009KT 10SM CLR 21/06 A3001 550 37 1400 170/09 RMK AO2
14840KMKG MKG20070508003009305/08/07 00:30:31  5-MIN KMKG 080530Z 17011KT 10SM CLR 21/06 A3001 550 36 1400 170/11 RMK AO2
14840KMKG MKG20070508003509305/08/07 00:35:31  5-MIN KMKG 080535Z 18011KT 10SM CLR 21/06 A3001 550 37 1400 180/11 RMK AO2
14840KMKG MKG20070508004009905/08/07 00:40:31  5-MIN KMKG 080540Z 18015G20KT 10SM CLR 22/06 A3001 550 36 1500 190/15G20 RMK AO2
14840KMKG MKG20070508004511705/08/07 00:45:31  5-MIN KMKG 080545Z 18016G26KT 10SM CLR 22/06 A3001 550 36 1500 180/16G26 RMK AO2 PK WND 18026/0543
14840KMKG MKG20070508005015205/08/07 00:50:31  5-MIN KMKG 080550Z 20015G26KT 10SM CLR 22/07 A3001 550 37 1500 200/15G26 RMK AO2 PK WND 18026/0543 SLP159 T02170067 10217 20167 58001
14840KMKG MKG20070508005515205/08/07 00:55:31  5-MIN KMKG 080555Z 19020G25KT 10SM CLR 22/07 A3001 550 37 1500 200/20G25 RMK AO2 PK WND 18026/0543 SLP160 T02170067 10217 20167 56009
14840KMKG MKG20070508010009905/08/07 01:00:31  5-MIN KMKG 080600Z 19018G25KT 10SM CLR 22/07 A3001 540 37 1500 200/18G25 RMK AO2
14840KMKG MKG20070508010509905/08/07 01:05:31  5-MIN KMKG 080605Z 20017G25KT 10SM CLR 21/07 A3001 540 38 1400 200/17G25 RMK AO2
14840KMKG MKG20070508011009905/08/07 01:10:31  5-MIN KMKG 080610Z 19016G24KT 10SM CLR 21/07 A3001 550 38 1400 200/16G24 RMK AO2
14840KMKG MKG20070508011509905/08/07 01:15:31  5-MIN KMKG 080615Z 19017G23KT 10SM CLR 21/07 A3001 550 40 1400 200/17G23 RMK AO2
14840KMKG MKG20070508012009905/08/07 01:20:31  5-MIN KMKG 080620Z 19016G23KT 10SM CLR 21/07 A3002 540 40 1400 200/16G23 RMK AO2
14840KMKG MKG20070508012509905/08/07 01:25:31  5-MIN KMKG 080625Z 20015G23KT 10SM CLR 20/07 A3002 540 41 1300 200/15G23 RMK AO2
14840KMKG MKG20070508013009905/08/07 01:30:31  5-MIN KMKG 080630Z 20017G24KT 10SM CLR 20/07 A3001 540 41 1300 200/17G24 RMK AO2
14840KMKG MKG20070508013509905/08/07 01:35:31  5-MIN KMKG 080635Z 20014G24KT 10SM CLR 20/07 A3002 540 41 1300 210/14G24 RMK AO2
14840KMKG MKG20070508014009905/08/07 01:40:31  5-MIN KMKG 080640Z 20015G24KT 10SM CLR 19/07 A3002 540 43 1200 210/15G24 RMK AO2
14840KMKG MKG20070508014509905/08/07 01:45:31  5-MIN KMKG 080645Z 20013G21KT 10SM CLR 19/07 A3002 540 44 1200 210/13G21 RMK AO2
14840KMKG MKG20070508015011605/08/07 01:50:31  5-MIN KMKG 080650Z 21014G21KT 10SM CLR 18/07 A3002 540 46 1100 210/14G21 RMK AO2 SLP162 T01830067
14840KMKG MKG20070508015511005/08/07 01:55:31  5-MIN KMKG 080655Z 21014KT 10SM CLR 17/07 A3002 540 49 1000 210/14 RMK AO2 SLP162 T01720067
14840KMKG MKG20070508020009305/08/07 02:00:31  5-MIN KMKG 080700Z 21014KT 10SM CLR 17/07 A3002 540 49 1000 210/14 RMK AO2
14840KMKG MKG20070508020509205/08/07 02:05:31  5-MIN KMKG 080705Z 21012KT 10SM CLR 17/07 A3002 540 51 900 210/12 RMK AO2
14840KMKG MKG20070508021009805/08/07 02:10:31  5-MIN KMKG 080710Z 20010G20KT 10SM CLR 17/07 A3002 540 51 900 210/10G20 RMK AO2
14840KMKG MKG20070508021509205/08/07 02:15:31  5-MIN KMKG 080715Z 20010KT 10SM CLR 16/07 A3002 540 55 800 210/10 RMK AO2
14840KMKG MKG20070508022009205/08/07 02:20:31  5-MIN KMKG 080720Z 21009KT 10SM CLR 16/07 A3002 540 55 800 220/09 RMK AO2
14840KMKG MKG20070508022509205/08/07 02:25:31  5-MIN KMKG 080725Z 21010KT 10SM CLR 16/07 A3002 540 55 800 220/10 RMK AO2
14840KMKG MKG20070508023009205/08/07 02:30:31  5-MIN KMKG 080730Z 21009KT 10SM CLR 16/08 A3002 540 57 800 210/09 RMK AO2
14840KMKG MKG20070508023509205/08/07 02:35:31  5-MIN KMKG 080735Z 21011KT 10SM CLR 16/08 A3002 540 59 800 210/11 RMK AO2
14840KMKG MKG20070508024009205/08/07 02:40:31  5-MIN KMKG 080740Z 21008KT 10SM CLR 16/08 A3002 540 59 800 210/08 RMK AO2
14840KMKG MKG20070508024509205/08/07 02:45:31  5-MIN KMKG 080745Z 21010KT 10SM CLR 16/08 A3002 540 59 800 210/10 RMK AO2
14840KMKG MKG20070508025010905/08/07 02:50:31  5-MIN KMKG 080750Z 21010KT 10SM CLR 16/08 A3002 540 59 800 210/10 RMK AO2 SLP163 T01560078
14840KMKG MKG20070508025510905/08/07 02:55:31  5-MIN KMKG 080755Z 21007KT 10SM CLR 15/08 A3002 540 62 700 210/07 RMK AO2 SLP164 T01500078
14840KMKG MKG20070508030009205/08/07 03:00:31  5-MIN KMKG 080800Z 21008KT 10SM CLR 14/08 A3002 540 64 600 210/08 RMK AO2
14840KMKG MKG20070508030509205/08/07 03:05:31  5-MIN KMKG 080805Z 22006KT 10SM CLR 14/08 A3002 530 64 600 220/06 RMK AO2
14840KMKG MKG20070508031009205/08/07 03:10:31  5-MIN KMKG 080810Z 22005KT 10SM CLR 14/08 A3003 530 66 600 220/05 RMK AO2
14840KMKG MKG20070508031509205/08/07 03:15:31  5-MIN KMKG 080815Z 22003KT 10SM CLR 13/08 A3003 530 69 500 230/03 RMK AO2
14840KMKG MKG20070508032009205/08/07 03:20:31  5-MIN KMKG 080820Z 22004KT 10SM CLR 13/08 A3003 530 69 500 230/04 RMK AO2
14840KMKG MKG20070508032509205/08/07 03:25:31  5-MIN KMKG 080825Z 24004KT 10SM CLR 13/08 A3003 520 71 400 240/04 RMK AO2
14840KMKG MKG20070508033009205/08/07 03:30:31  5-MIN KMKG 080830Z 23003KT 10SM CLR 13/08 A3004 520 71 400 230/03 RMK AO2
14840KMKG MKG20070508033509205/08/07 03:35:31  5-MIN KMKG 080835Z 23004KT 10SM CLR 13/07 A3004 520 69 400 240/04 RMK AO2
14840KMKG MKG20070508034009205/08/07 03:40:31  5-MIN KMKG 080840Z 22006KT 10SM CLR 12/07 A3004 520 71 400 230/06 RMK AO2
14840KMKG MKG20070508034509205/08/07 03:45:31  5-MIN KMKG 080845Z 23005KT 10SM CLR 12/07 A3004 520 71 300 240/05 RMK AO2
14840KMKG MKG20070508035011505/08/07 03:50:31  5-MIN KMKG 080850Z 24004KT 10SM CLR 12/07 A3004 520 71 300 240/04 RMK AO2 SLP173 T01220072 56009
14840KMKG MKG20070508035511505/08/07 03:55:31  5-MIN KMKG 080855Z 24003KT 10SM CLR 12/07 A3004 520 71 300 250/03 RMK AO2 SLP173 T01220072 53010
14840KMKG MKG20070508040009205/08/07 04:00:31  5-MIN KMKG 080900Z 22003KT 10SM CLR 12/07 A3005 510 71 300 220/03 RMK AO2
14840KMKG MKG20070508040509205/08/07 04:05:31  5-MIN KMKG 080905Z 22004KT 10SM CLR 12/07 A3005 510 74 300 220/04 RMK AO2
14840KMKG MKG20070508041009205/08/07 04:10:31  5-MIN KMKG 080910Z 23003KT 10SM CLR 12/07 A3005 510 74 300 240/03 RMK AO2
14840KMKG MKG20070508041509205/08/07 04:15:31  5-MIN KMKG 080915Z 22003KT 10SM CLR 12/07 A3005 510 74 300 230/03 RMK AO2
14840KMKG MKG20070508042009205/08/07 04:20:31  5-MIN KMKG 080920Z 22003KT 10SM CLR 12/07 A3005 510 74 300 220/03 RMK AO2
14840KMKG MKG20070508042509205/08/07 04:25:31  5-MIN KMKG 080925Z 00000KT 10SM CLR 11/07 A3005 510 77 200 000/00 RMK AO2
14840KMKG MKG20070508043009205/08/07 04:30:31  5-MIN KMKG 080930Z 00000KT 10SM CLR 12/07 A3005 510 74 300 000/00 RMK AO2
14840KMKG MKG20070508043509205/08/07 04:35:31  5-MIN KMKG 080935Z 00000KT 10SM CLR 12/07 A3005 510 74 300 000/00 RMK AO2
14840KMKG MKG20070508044009205/08/07 04:40:31  5-MIN KMKG 080940Z 20003KT 10SM CLR 12/07 A3005 510 74 300 200/03 RMK AO2
14840KMKG MKG20070508044509205/08/07 04:45:31  5-MIN KMKG 080945Z 19003KT 10SM CLR 12/07 A3005 510 74 300 200/03 RMK AO2
14840KMKG MKG20070508045010905/08/07 04:50:31  5-MIN KMKG 080950Z 19003KT 10SM CLR 12/07 A3005 510 74 300 200/03 RMK AO2 SLP176 T01170072
14840KMKG MKG20070508045510905/08/07 04:55:31  5-MIN KMKG 080955Z 00000KT 10SM CLR 11/07 A3005 510 77 200 000/00 RMK AO2 SLP175 T01110072
14840KMKG MKG20070508050009205/08/07 05:00:31  5-MIN KMKG 081000Z 00000KT 10SM CLR 11/07 A3005 510 77 200 000/00 RMK AO2
14840KMKG MKG20070508050509205/08/07 05:05:31  5-MIN KMKG 081005Z 00000KT 10SM CLR 11/07 A3005 510 77 200 000/00 RMK AO2
14840KMKG MKG20070508051009205/08/07 05:10:31  5-MIN KMKG 081010Z 00000KT 10SM CLR 11/07 A3005 510 77 200 000/00 RMK AO2
14840KMKG MKG20070508051509205/08/07 05:15:31  5-MIN KMKG 081015Z 00000KT 10SM CLR 11/07 A3005 510 77 200 000/00 RMK AO2
14840KMKG MKG20070508052009205/08/07 05:20:31  5-MIN KMKG 081020Z 00000KT 10SM CLR 11/07 A3005 510 77 200 000/00 RMK AO2
14840KMKG MKG20070508052509205/08/07 05:25:31  5-MIN KMKG 081025Z 00000KT 10SM CLR 11/07 A3005 510 77 200 000/00 RMK AO2
14840KMKG MKG20070508053009105/08/07 05:30:31  5-MIN KMKG 081030Z 00000KT 9SM CLR 11/07 A3006 500 77 200 000/00 RMK AO2
14840KMKG MKG20070508053509105/08/07 05:35:31  5-MIN KMKG 081035Z 00000KT 8SM CLR 11/07 A3005 510 77 200 000/00 RMK AO2
14840KMKG MKG20070508054009105/08/07 05:40:31  5-MIN KMKG 081040Z 00000KT 8SM CLR 11/07 A3006 500 80 100 000/00 RMK AO2
14840KMKG MKG20070508054509105/08/07 05:45:31  5-MIN KMKG 081045Z 00000KT 8SM CLR 10/07 A3006 500 83 100 000/00 RMK AO2
14840KMKG MKG20070508055010805/08/07 05:50:31  5-MIN KMKG 081050Z 17003KT 8SM CLR 11/07 A3006 500 80 100 180/03 RMK AO2 SLP179 T01060072
14840KMKG MKG20070508055510805/08/07 05:55:31  5-MIN KMKG 081055Z 18003KT 8SM CLR 11/07 A3006 500 80 100 190/03 RMK AO2 SLP178 T01060072
14840KMKG MKG20070508060009105/08/07 06:00:31  5-MIN KMKG 081100Z 00000KT 8SM CLR 10/07 A3006 500 83 100 000/00 RMK AO2
14840KMKG MKG20070508060509105/08/07 06:05:31  5-MIN KMKG 081105Z 00000KT 7SM CLR 10/07 A3006 500 83 100 000/00 RMK AO2
14840KMKG MKG20070508061009105/08/07 06:10:31  5-MIN KMKG 081110Z 00000KT 7SM CLR 10/07 A3006 500 83 100 000/00 RMK AO2
14840KMKG MKG20070508061509105/08/07 06:15:31  5-MIN KMKG 081115Z 00000KT 7SM CLR 10/07 A3006 500 83 100 000/00 RMK AO2
14840KMKG MKG20070508062009105/08/07 06:20:31  5-MIN KMKG 081120Z 15003KT 7SM CLR 11/08 A3006 500 83 100 150/03 RMK AO2
14840KMKG MKG20070508062509105/08/07 06:25:31  5-MIN KMKG 081125Z 00000KT 7SM CLR 11/08 A3007 500 83 200 000/00 RMK AO2
14840KMKG MKG20070508063009105/08/07 06:30:31  5-MIN KMKG 081130Z 00000KT 7SM CLR 12/08 A3007 490 80 300 000/00 RMK AO2
14840KMKG MKG20070508063509105/08/07 06:35:31  5-MIN KMKG 081135Z 00000KT 7SM CLR 12/08 A3007 490 80 200 000/00 RMK AO2
14840KMKG MKG20070508064009105/08/07 06:40:31  5-MIN KMKG 081140Z 00000KT 7SM CLR 12/08 A3008 490 77 300 000/00 RMK AO2
14840KMKG MKG20070508064509105/08/07 06:45:31  5-MIN KMKG 081145Z 00000KT 7SM CLR 12/08 A3008 480 77 300 000/00 RMK AO2
14840KMKG MKG20070508065012605/08/07 06:50:31  5-MIN KMKG 081150Z 00000KT 7SM CLR 12/08 A3008 480 77 300 000/00 RMK AO2 SLP185 T01220083 10217 20100 53010
14840KMKG MKG20070508065512605/08/07 06:55:31  5-MIN KMKG 081155Z 00000KT 7SM CLR 12/08 A3008 480 77 300 000/00 RMK AO2 SLP185 T01220083 10217 20100 53012
14840KMKG MKG20070508070009105/08/07 07:00:31  5-MIN KMKG 081200Z 00000KT 7SM CLR 13/08 A3008 480 74 400 000/00 RMK AO2
14840KMKG MKG20070508070509105/08/07 07:05:31  5-MIN KMKG 081205Z 00000KT 7SM CLR 13/08 A3008 480 74 400 000/00 RMK AO2
14840KMKG MKG20070508071009105/08/07 07:10:31  5-MIN KMKG 081210Z 00000KT 7SM CLR 13/09 A3008 480 74 400 000/00 RMK AO2
14840KMKG MKG20070508071509105/08/07 07:15:31  5-MIN KMKG 081215Z 00000KT 7SM CLR 13/09 A3008 480 74 400 000/00 RMK AO2
14840KMKG MKG20070508072009105/08/07 07:20:31  5-MIN KMKG 081220Z 00000KT 7SM CLR 14/09 A3008 480 71 500 000/00 RMK AO2
14840KMKG MKG20070508072509105/08/07 07:25:31  5-MIN KMKG 081225Z 00000KT 8SM CLR 14/09 A3008 480 71 500 000/00 RMK AO2
14840KMKG MKG20070508073009105/08/07 07:30:31  5-MIN KMKG 081230Z 00000KT 8SM CLR 14/09 A3009 480 69 600 000/00 RMK AO2
14840KMKG MKG20070508073509105/08/07 07:35:31  5-MIN KMKG 081235Z 00000KT 8SM CLR 14/09 A3009 480 72 600 000/00 RMK AO2
14840KMKG MKG20070508074009105/08/07 07:40:31  5-MIN KMKG 081240Z 00000KT 8SM CLR 15/09 A3009 480 69 600 000/00 RMK AO2
14840KMKG MKG20070508074509105/08/07 07:45:31  5-MIN KMKG 081245Z 00000KT 8SM CLR 15/09 A3009 480 69 600 000/00 RMK AO2
14840KMKG MKG20070508075010805/08/07 07:50:31  5-MIN KMKG 081250Z 00000KT 8SM CLR 16/10 A3009 470 69 700 000/00 RMK AO2 SLP188 T01560100
14840KMKG MKG20070508075510805/08/07 07:55:31  5-MIN KMKG 081255Z 21003KT 8SM CLR 16/10 A3009 470 69 700 220/03 RMK AO2 SLP188 T01560100
14840KMKG MKG20070508080009105/08/07 08:00:31  5-MIN KMKG 081300Z 00000KT 8SM CLR 16/10 A3009 470 67 800 000/00 RMK AO2
14840KMKG MKG20070508080509105/08/07 08:05:31  5-MIN KMKG 081305Z 23003KT 8SM CLR 16/10 A3009 470 67 800 230/03 RMK AO2
14840KMKG MKG20070508081009105/08/07 08:10:31  5-MIN KMKG 081310Z VRB04KT 8SM CLR 16/10 A3009 470 67 800 VRB/04 RMK AO2
14840KMKG MKG20070508081509105/08/07 08:15:31  5-MIN KMKG 081315Z 00000KT 8SM CLR 17/11 A3009 470 67 800 000/00 RMK AO2
14840KMKG MKG20070508082009105/08/07 08:20:31  5-MIN KMKG 081320Z 00000KT 8SM CLR 17/11 A3009 470 67 800 000/00 RMK AO2
14840KMKG MKG20070508082509105/08/07 08:25:31  5-MIN KMKG 081325Z 00000KT 8SM CLR 17/11 A3009 470 64 900 000/00 RMK AO2
14840KMKG MKG20070508083009105/08/07 08:30:31  5-MIN KMKG 081330Z 00000KT 8SM CLR 17/11 A3009 470 67 900 000/00 RMK AO2
14840KMKG MKG20070508083509105/08/07 08:35:31  5-MIN KMKG 081335Z 00000KT 8SM CLR 17/11 A3009 470 67 900 000/00 RMK AO2
14840KMKG MKG20070508084009105/08/07 08:40:31  5-MIN KMKG 081340Z 00000KT 8SM CLR 18/11 A3009 470 64 900 000/00 RMK AO2
14840KMKG MKG20070508084509105/08/07 08:45:31  5-MIN KMKG 081345Z 00000KT 8SM CLR 18/11 A3010 470 64 900 000/00 RMK AO2
14840KMKG MKG20070508085010905/08/07 08:50:31  5-MIN KMKG 081350Z 00000KT 8SM CLR 18/11 A3010 470 62 1000 000/00 RMK AO2 SLP191 T01830111
14840KMKG MKG20070508085510905/08/07 08:55:31  5-MIN KMKG 081355Z 00000KT 8SM CLR 18/11 A3010 460 62 1000 000/00 RMK AO2 SLP192 T01830111
14840KMKG MKG20070508090009205/08/07 09:00:31  5-MIN KMKG 081400Z 00000KT 8SM CLR 19/12 A3010 460 62 1100 000/00 RMK AO2
14840KMKG MKG20070508090509205/08/07 09:05:31  5-MIN KMKG 081405Z 00000KT 8SM CLR 19/12 A3010 470 62 1100 000/00 RMK AO2
14840KMKG MKG20070508091009205/08/07 09:10:31  5-MIN KMKG 081410Z 26003KT 7SM CLR 19/12 A3010 470 62 1100 270/03 RMK AO2
14840KMKG MKG20070508091509205/08/07 09:15:31  5-MIN KMKG 081415Z 00000KT 7SM CLR 19/12 A3010 470 62 1100 000/00 RMK AO2
14840KMKG MKG20070508092009205/08/07 09:20:31  5-MIN KMKG 081420Z 00000KT 7SM CLR 19/12 A3010 470 62 1100 000/00 RMK AO2
14840KMKG MKG20070508092509205/08/07 09:25:31  5-MIN KMKG 081425Z VRB03KT 7SM CLR 20/13 A3010 470 63 1200 VRB/03 RMK AO2
14840KMKG MKG20070508093009205/08/07 09:30:31  5-MIN KMKG 081430Z 00000KT 7SM CLR 21/13 A3010 470 60 1300 000/00 RMK AO2
14840KMKG MKG20070508093509205/08/07 09:35:31  5-MIN KMKG 081435Z 26003KT 7SM CLR 21/13 A3010 470 60 1300 260/03 RMK AO2
14840KMKG MKG20070508094009205/08/07 09:40:31  5-MIN KMKG 081440Z 26003KT 7SM CLR 20/13 A3010 470 63 1200 270/03 RMK AO2
14840KMKG MKG20070508094509205/08/07 09:45:31  5-MIN KMKG 081445Z 27003KT 7SM CLR 21/13 A3010 470 60 1300 280/03 RMK AO2
14840KMKG MKG20070508095011505/08/07 09:50:31  5-MIN KMKG 081450Z VRB03KT 7SM CLR 21/13 A3010 470 60 1300 VRB/03 RMK AO2 SLP190 T02060128 53012
14840KMKG MKG20070508095511505/08/07 09:55:31  5-MIN KMKG 081455Z 25003KT 7SM CLR 21/13 A3010 460 63 1300 260/03 RMK AO2 SLP191 T02060133 51007
14840KMKG MKG20070508100009205/08/07 10:00:31  5-MIN KMKG 081500Z 27004KT 7SM CLR 20/13 A3010 460 65 1200 280/04 RMK AO2
14840KMKG MKG20070508100509205/08/07 10:05:31  5-MIN KMKG 081505Z 27003KT 7SM CLR 20/13 A3010 460 63 1200 280/03 RMK AO2
14840KMKG MKG20070508101009205/08/07 10:10:31  5-MIN KMKG 081510Z VRB04KT 7SM CLR 21/13 A3010 470 63 1300 VRB/04 RMK AO2
14840KMKG MKG20070508101509205/08/07 10:15:31  5-MIN KMKG 081515Z 22005KT 7SM CLR 21/13 A3010 460 61 1300 220/05 RMK AO2
14840KMKG MKG20070508102009205/08/07 10:20:31  5-MIN KMKG 081520Z 23004KT 7SM CLR 21/13 A3010 470 61 1300 230/04 RMK AO2
14840KMKG MKG20070508102509505/08/07 10:25:31  5-MIN KMKG 081525Z 23005KT 6SM HZ CLR 21/13 A3010 470 61 1300 230/05 RMK AO2
14840KMKG MKG20070508103009505/08/07 10:30:31  5-MIN KMKG 081530Z 25003KT 6SM HZ CLR 21/13 A3010 470 61 1300 260/03 RMK AO2
14840KMKG MKG20070508103511205/08/07 10:35:31  5-MIN KMKG 081535Z 27003KT 7SM FEW090 21/14 A3009 470 63 1300 270/03 RMK AO2 VIS 2 1/2 RWY 14
14840KMKG MKG20070508104010905/08/07 10:40:31  5-MIN KMKG 081540Z 28004KT 7SM CLR 22/14 A3010 470 61 1400 290/04 RMK AO2 VIS 2 1/2 RWY 14
14840KMKG MKG20070508104510905/08/07 10:45:31  5-MIN KMKG 081545Z 27005KT 8SM CLR 22/14 A3010 470 59 1500 280/05 RMK AO2 VIS 2 1/2 RWY 14
14840KMKG MKG20070508105010905/08/07 10:50:31  5-MIN KMKG 081550Z 26004KT 8SM CLR 22/14 A3010 470 61 1400 260/04 RMK AO2 SLP189 T02170139
14840KMKG MKG20070508105510905/08/07 10:55:31  5-MIN KMKG 081555Z 27006KT 8SM CLR 22/14 A3010 470 61 1400 280/06 RMK AO2 SLP189 T02170139
14840KMKG MKG20070508110009205/08/07 11:00:31  5-MIN KMKG 081600Z 27005KT 9SM CLR 22/14 A3010 470 61 1500 280/05 RMK AO2
14840KMKG MKG20070508110509205/08/07 11:05:31  5-MIN KMKG 081605Z 27006KT 9SM CLR 22/14 A3009 470 61 1400 270/06 RMK AO2
14840KMKG MKG20070508111009205/08/07 11:10:31  5-MIN KMKG 081610Z 27005KT 9SM CLR 22/14 A3009 470 61 1400 280/05 RMK AO2
14840KMKG MKG20070508111509205/08/07 11:15:31  5-MIN KMKG 081615Z 25005KT 7SM CLR 22/14 A3009 470 61 1400 260/05 RMK AO2
14840KMKG MKG20070508112009505/08/07 11:20:31  5-MIN KMKG 081620Z 26006KT 6SM HZ CLR 22/14 A3009 470 61 1400 260/06 RMK AO2
14840KMKG MKG20070508112509505/08/07 11:25:31  5-MIN KMKG 081625Z 24006KT 5SM HZ CLR 22/14 A3009 470 61 1400 250/06 RMK AO2
14840KMKG MKG20070508113009505/08/07 11:30:31  5-MIN KMKG 081630Z 22007KT 5SM HZ CLR 22/14 A3009 480 61 1400 220/07 RMK AO2
14840KMKG MKG20070508113509505/08/07 11:35:31  5-MIN KMKG 081635Z 22007KT 6SM HZ CLR 22/14 A3009 480 61 1400 230/07 RMK AO2
14840KMKG MKG20070508114009205/08/07 11:40:31  5-MIN KMKG 081640Z 22007KT 7SM CLR 21/14 A3009 480 63 1300 220/07 RMK AO2
14840KMKG MKG20070508114509205/08/07 11:45:31  5-MIN KMKG 081645Z 22006KT 7SM CLR 22/14 A3008 480 61 1400 220/06 RMK AO2
14840KMKG MKG20070508115010905/08/07 11:50:31  5-MIN KMKG 081650Z 22006KT 7SM CLR 22/14 A3008 480 61 1400 220/06 RMK AO2 SLP185 T02170139
14840KMKG MKG20070508115510905/08/07 11:55:31  5-MIN KMKG 081655Z 27004KT 7SM CLR 22/14 A3008 480 61 1500 280/04 RMK AO2 SLP184 T02220144
14840KMKG MKG20070508120009205/08/07 12:00:31  5-MIN KMKG 081700Z 27004KT 7SM CLR 22/14 A3008 480 61 1500 280/04 RMK AO2
14840KMKG MKG20070508120509205/08/07 12:05:31  5-MIN KMKG 081705Z 27005KT 8SM CLR 23/14 A3008 480 59 1500 270/05 RMK AO2
14840KMKG MKG20070508121009205/08/07 12:10:31  5-MIN KMKG 081710Z 28005KT 9SM CLR 23/15 A3008 480 61 1500 280/05 RMK AO2
14840KMKG MKG20070508121509305/08/07 12:15:31  5-MIN KMKG 081715Z 26006KT 10SM CLR 23/14 A3008 480 59 1500 260/06 RMK AO2
14840KMKG MKG20070508122009305/08/07 12:20:31  5-MIN KMKG 081720Z 24005KT 10SM CLR 22/14 A3008 480 61 1500 250/05 RMK AO2
14840KMKG MKG20070508122509305/08/07 12:25:31  5-MIN KMKG 081725Z 26007KT 10SM CLR 23/15 A3008 490 59 1600 270/07 RMK AO2
14840KMKG MKG20070508123009305/08/07 12:30:31  5-MIN KMKG 081730Z 25005KT 10SM CLR 23/15 A3008 490 61 1500 250/05 RMK AO2
14840KMKG MKG20070508123509305/08/07 12:35:31  5-MIN KMKG 081735Z 22007KT 10SM CLR 23/14 A3007 490 59 1500 230/07 RMK AO2
14840KMKG MKG20070508124009305/08/07 12:40:31  5-MIN KMKG 081740Z 23007KT 10SM CLR 23/14 A3007 490 57 1600 230/07 RMK AO2
14840KMKG MKG20070508124509605/08/07 12:45:31  5-MIN KMKG 081745Z 24006KT 10SM FEW100 23/14 A3007 490 59 1500 240/06 RMK AO2
14840KMKG MKG20070508125013105/08/07 12:50:31  5-MIN KMKG 081750Z 23007KT 10SM FEW100 22/14 A3007 490 61 1500 240/07 RMK AO2 SLP180 T02220144 10233 20122 51007
14840KMKG MKG20070508125513105/08/07 12:55:31  5-MIN KMKG 081755Z 24006KT 10SM FEW100 23/14 A3007 490 59 1500 250/06 RMK AO2 SLP181 T02280144 10233 20122 58009
14840KMKG MKG20070508130009305/08/07 13:00:31  5-MIN KMKG 081800Z 26007KT 10SM CLR 23/15 A3008 490 61 1500 270/07 RMK AO2
14840KMKG MKG20070508130510905/08/07 13:05:31  5-MIN KMKG 081805Z 26006KT 9SM CLR 22/14 A3008 490 61 1500 260/06 RMK AO2 VIS 2 1/2 RWY 14
14840KMKG MKG20070508131010905/08/07 13:10:31  5-MIN KMKG 081810Z 26007KT 9SM CLR 22/14 A3008 480 61 1500 270/07 RMK AO2 VIS 2 1/2 RWY 14
14840KMKG MKG20070508131509205/08/07 13:15:31  5-MIN KMKG 081815Z 26008KT 9SM CLR 22/14 A3008 480 61 1500 270/08 RMK AO2
14840KMKG MKG20070508132009205/08/07 13:20:31  5-MIN KMKG 081820Z 25008KT 9SM CLR 22/14 A3008 480 61 1500 250/08 RMK AO2
14840KMKG MKG20070508132509205/08/07 13:25:31  5-MIN KMKG 081825Z 24008KT 9SM CLR 22/14 A3008 480 61 1500 240/08 RMK AO2
14840KMKG MKG20070508133009205/08/07 13:30:31  5-MIN KMKG 081830Z 26006KT 9SM CLR 22/14 A3008 480 61 1500 260/06 RMK AO2
14840KMKG MKG20070508133509205/08/07 13:35:31  5-MIN KMKG 081835Z 27006KT 9SM CLR 22/14 A3008 480 61 1500 270/06 RMK AO2
14840KMKG MKG20070508134009505/08/07 13:40:31  5-MIN KMKG 081840Z 25006KT 8SM FEW100 22/14 A3008 480 63 1400 260/06 RMK AO2
14840KMKG MKG20070508134509505/08/07 13:45:31  5-MIN KMKG 081845Z 26006KT 9SM FEW100 22/15 A3008 490 63 1500 260/06 RMK AO2
14840KMKG MKG20070508135011305/08/07 13:50:31  5-MIN KMKG 081850Z 24006KT 10SM FEW100 23/15 A3008 490 61 1500 250/06 RMK AO2 SLP183 T02280150
14840KMKG MKG20070508135511305/08/07 13:55:31  5-MIN KMKG 081855Z 25006KT 10SM FEW100 23/15 A3007 490 61 1500 250/06 RMK AO2 SLP182 T02280150
14840KMKG MKG20070508140009305/08/07 14:00:31  5-MIN KMKG 081900Z 24006KT 10SM CLR 23/15 A3007 490 61 1500 240/06 RMK AO2
14840KMKG MKG20070508140509305/08/07 14:05:31  5-MIN KMKG 081905Z 24006KT 10SM CLR 23/15 A3007 490 61 1500 240/06 RMK AO2
14840KMKG MKG20070508141009305/08/07 14:10:31  5-MIN KMKG 081910Z 22007KT 10SM CLR 22/14 A3007 490 61 1500 230/07 RMK AO2
14840KMKG MKG20070508141509305/08/07 14:15:31  5-MIN KMKG 081915Z 23007KT 10SM CLR 22/14 A3007 490 61 1500 230/07 RMK AO2
14840KMKG MKG20070508142009305/08/07 14:20:31  5-MIN KMKG 081920Z 23006KT 10SM CLR 23/15 A3007 490 61 1500 230/06 RMK AO2
14840KMKG MKG20070508142509305/08/07 14:25:31  5-MIN KMKG 081925Z 23006KT 10SM CLR 23/15 A3007 490 61 1600 240/06 RMK AO2
14840KMKG MKG20070508143009305/08/07 14:30:31  5-MIN KMKG 081930Z VRB05KT 10SM CLR 23/15 A3007 490 61 1600 VRB/05 RMK AO2
14840KMKG MKG20070508143509305/08/07 14:35:31  5-MIN KMKG 081935Z 25005KT 10SM CLR 23/15 A3007 500 61 1600 250/05 RMK AO2
14840KMKG MKG20070508144009305/08/07 14:40:31  5-MIN KMKG 081940Z 26006KT 10SM CLR 23/15 A3007 500 59 1600 260/06 RMK AO2
14840KMKG MKG20070508144509305/08/07 14:45:31  5-MIN KMKG 081945Z 25005KT 10SM CLR 23/15 A3006 500 59 1600 250/05 RMK AO2
14840KMKG MKG20070508145011305/08/07 14:50:31  5-MIN KMKG 081950Z 24006KT 10SM FEW100 23/15 A3006 500 59 1600 240/06 RMK AO2 SLP178 T02330150
14840KMKG MKG20070508145511305/08/07 14:55:31  5-MIN KMKG 081955Z 23007KT 10SM FEW100 23/15 A3006 500 59 1600 240/07 RMK AO2 SLP177 T02330150
14840KMKG MKG20070508150009305/08/07 15:00:31  5-MIN KMKG 082000Z 22007KT 10SM CLR 23/15 A3006 500 59 1600 230/07 RMK AO2
14840KMKG MKG20070508150509305/08/07 15:05:31  5-MIN KMKG 082005Z 23007KT 10SM CLR 23/15 A3006 500 59 1600 240/07 RMK AO2
14840KMKG MKG20070508151009305/08/07 15:10:31  5-MIN KMKG 082010Z 23008KT 10SM CLR 23/15 A3006 510 61 1600 240/08 RMK AO2
14840KMKG MKG20070508151509305/08/07 15:15:31  5-MIN KMKG 082015Z 24008KT 10SM CLR 23/15 A3006 500 59 1600 240/08 RMK AO2
14840KMKG MKG20070508152009305/08/07 15:20:31  5-MIN KMKG 082020Z 24009KT 10SM CLR 23/15 A3005 510 59 1600 240/09 RMK AO2
14840KMKG MKG20070508152509305/08/07 15:25:31  5-MIN KMKG 082025Z 23009KT 10SM CLR 22/15 A3005 510 63 1500 240/09 RMK AO2
14840KMKG MKG20070508153009305/08/07 15:30:31  5-MIN KMKG 082030Z 26008KT 10SM CLR 23/15 A3006 510 61 1600 270/08 RMK AO2
14840KMKG MKG20070508153509305/08/07 15:35:31  5-MIN KMKG 082035Z 25007KT 10SM CLR 22/15 A3005 510 63 1500 260/07 RMK AO2
14840KMKG MKG20070508154009305/08/07 15:40:31  5-MIN KMKG 082040Z 24007KT 10SM CLR 22/15 A3006 510 63 1500 250/07 RMK AO2
14840KMKG MKG20070508154509305/08/07 15:45:31  5-MIN KMKG 082045Z 24005KT 10SM CLR 22/14 A3006 510 63 1400 240/05 RMK AO2
14840KMKG MKG20070508155011905/08/07 15:50:31  5-MIN KMKG 082050Z 24006KT 10SM FEW100 22/15 A3006 510 65 1400 250/06 RMK AO2 SLP177 T02170150 58009
14840KMKG MKG20070508155511905/08/07 15:55:31  5-MIN KMKG 082055Z 27005KT 10SM FEW100 22/15 A3005 510 63 1500 270/05 RMK AO2 SLP176 T02220150 58007
14840KMKG MKG20070508160009305/08/07 16:00:31  5-MIN KMKG 082100Z 27004KT 10SM CLR 22/15 A3005 510 63 1500 270/04 RMK AO2
14840KMKG MKG20070508160509305/08/07 16:05:31  5-MIN KMKG 082105Z 27006KT 10SM CLR 22/15 A3005 510 63 1500 270/06 RMK AO2
14840KMKG MKG20070508161009305/08/07 16:10:31  5-MIN KMKG 082110Z 26004KT 10SM CLR 22/14 A3005 510 61 1500 270/04 RMK AO2
14840KMKG MKG20070508161509305/08/07 16:15:31  5-MIN KMKG 082115Z 24005KT 10SM CLR 22/15 A3005 510 63 1500 240/05 RMK AO2
14840KMKG MKG20070508162009305/08/07 16:20:31  5-MIN KMKG 082120Z 25004KT 10SM CLR 22/15 A3005 510 63 1500 250/04 RMK AO2
14840KMKG MKG20070508162509305/08/07 16:25:31  5-MIN KMKG 082125Z VRB05KT 10SM CLR 22/15 A3005 510 63 1500 VRB/05 RMK AO2
14840KMKG MKG20070508163009305/08/07 16:30:31  5-MIN KMKG 082130Z 27006KT 10SM CLR 22/15 A3005 510 63 1500 270/06 RMK AO2
14840KMKG MKG20070508163509305/08/07 16:35:31  5-MIN KMKG 082135Z VRB05KT 10SM CLR 22/15 A3005 510 63 1500 VRB/05 RMK AO2
14840KMKG MKG20070508164009305/08/07 16:40:31  5-MIN KMKG 082140Z 27006KT 10SM CLR 22/14 A3005 510 63 1400 280/06 RMK AO2
14840KMKG MKG20070508164509305/08/07 16:45:31  5-MIN KMKG 082145Z 26005KT 10SM CLR 22/15 A3005 510 65 1400 260/05 RMK AO2
14840KMKG MKG20070508165011005/08/07 16:50:31  5-MIN KMKG 082150Z 29005KT 10SM CLR 22/14 A3005 510 63 1400 290/05 RMK AO2 SLP176 T02170144
14840KMKG MKG20070508165511005/08/07 16:55:31  5-MIN KMKG 082155Z 29006KT 10SM CLR 22/14 A3005 510 63 1400 290/06 RMK AO2 SLP175 T02170144
14840KMKG MKG20070508170009305/08/07 17:00:31  5-MIN KMKG 082200Z 26006KT 10SM CLR 22/14 A3005 510 63 1400 260/06 RMK AO2
14840KMKG MKG20070508170509305/08/07 17:05:31  5-MIN KMKG 082205Z 25006KT 10SM CLR 22/14 A3005 510 63 1400 250/06 RMK AO2
14840KMKG MKG20070508171009305/08/07 17:10:31  5-MIN KMKG 082210Z 26005KT 10SM CLR 22/15 A3005 510 63 1500 260/05 RMK AO2
14840KMKG MKG20070508171509305/08/07 17:15:31  5-MIN KMKG 082215Z 24006KT 10SM CLR 22/15 A3005 510 63 1500 240/06 RMK AO2
14840KMKG MKG20070508172009305/08/07 17:20:31  5-MIN KMKG 082220Z 24005KT 10SM CLR 22/14 A3004 520 63 1500 240/05 RMK AO2
14840KMKG MKG20070508172509305/08/07 17:25:31  5-MIN KMKG 082225Z 24005KT 10SM CLR 21/14 A3005 510 65 1400 240/05 RMK AO2
14840KMKG MKG20070508173009205/08/07 17:30:31  5-MIN KMKG 082230Z 22005KT 9SM CLR 21/14 A3004 520 65 1400 220/05 RMK AO2
14840KMKG MKG20070508173509305/08/07 17:35:31  5-MIN KMKG 082235Z 21005KT 10SM CLR 21/14 A3004 520 65 1400 220/05 RMK AO2
14840KMKG MKG20070508174009305/08/07 17:40:31  5-MIN KMKG 082240Z 22004KT 10SM CLR 21/14 A3004 520 65 1400 230/04 RMK AO2
14840KMKG MKG20070508174509305/08/07 17:45:31  5-MIN KMKG 082245Z 21003KT 10SM CLR 21/14 A3004 520 65 1400 210/03 RMK AO2
14840KMKG MKG20070508175011005/08/07 17:50:31  5-MIN KMKG 082250Z 22005KT 10SM CLR 21/14 A3004 520 65 1400 230/05 RMK AO2 SLP172 T02110144
14840KMKG MKG20070508175511005/08/07 17:55:31  5-MIN KMKG 082255Z 23004KT 10SM CLR 21/14 A3004 520 65 1300 230/04 RMK AO2 SLP171 T02060139
14840KMKG MKG20070508180009305/08/07 18:00:31  5-MIN KMKG 082300Z 22004KT 10SM CLR 21/14 A3004 520 65 1400 230/04 RMK AO2
14840KMKG MKG20070508180509305/08/07 18:05:31  5-MIN KMKG 082305Z 21005KT 10SM CLR 21/14 A3003 520 65 1400 220/05 RMK AO2
14840KMKG MKG20070508181009305/08/07 18:10:31  5-MIN KMKG 082310Z 23004KT 10SM CLR 21/14 A3003 530 65 1300 230/04 RMK AO2
14840KMKG MKG20070508181509305/08/07 18:15:31  5-MIN KMKG 082315Z 22004KT 10SM CLR 21/14 A3003 530 65 1300 220/04 RMK AO2
14840KMKG MKG20070508182009305/08/07 18:20:31  5-MIN KMKG 082320Z 22003KT 10SM CLR 21/14 A3003 530 67 1300 220/03 RMK AO2
14840KMKG MKG20070508182509305/08/07 18:25:31  5-MIN KMKG 082325Z 24003KT 10SM CLR 21/14 A3003 530 67 1300 240/03 RMK AO2
14840KMKG MKG20070508183009205/08/07 18:30:31  5-MIN KMKG 082330Z 23003KT 9SM CLR 21/14 A3003 530 67 1300 240/03 RMK AO2
14840KMKG MKG20070508183509205/08/07 18:35:31  5-MIN KMKG 082335Z 24003KT 9SM CLR 21/14 A3003 530 67 1300 240/03 RMK AO2
14840KMKG MKG20070508184009305/08/07 18:40:31  5-MIN KMKG 082340Z 21004KT 10SM CLR 21/14 A3002 530 67 1300 220/04 RMK AO2
14840KMKG MKG20070508184509305/08/07 18:45:31  5-MIN KMKG 082345Z 00000KT 10SM CLR 21/14 A3002 540 67 1400 000/00 RMK AO2
14840KMKG MKG20070508185012805/08/07 18:50:31  5-MIN KMKG 082350Z 00000KT 10SM CLR 21/14 A3002 540 67 1400 000/00 RMK AO2 SLP164 T02060144 10233 20206 58007
14840KMKG MKG20070508185512805/08/07 18:55:31  5-MIN KMKG 082355Z 00000KT 10SM CLR 21/14 A3002 540 67 1400 000/00 RMK AO2 SLP164 T02060144 10233 20206 58013
14840KMKG MKG20070508190009305/08/07 19:00:31  5-MIN KMKG 090000Z 00000KT 10SM CLR 21/14 A3001 540 67 1400 000/00 RMK AO2
14840KMKG MKG20070508190509305/08/07 19:05:31  5-MIN KMKG 090005Z 00000KT 10SM CLR 21/14 A3001 540 65 1400 000/00 RMK AO2
14840KMKG MKG20070508191009305/08/07 19:10:31  5-MIN KMKG 090010Z 00000KT 10SM CLR 21/14 A3001 540 67 1400 000/00 RMK AO2
14840KMKG MKG20070508191509305/08/07 19:15:31  5-MIN KMKG 090015Z 22003KT 10SM CLR 21/15 A3001 540 70 1400 230/03 RMK AO2
14840KMKG MKG20070508192009305/08/07 19:20:31  5-MIN KMKG 090020Z 23004KT 10SM CLR 20/15 A3001 540 72 1300 230/04 RMK AO2
14840KMKG MKG20070508192509205/08/07 19:25:31  5-MIN KMKG 090025Z 24004KT 9SM CLR 20/15 A3001 540 72 1300 240/04 RMK AO2
14840KMKG MKG20070508193009205/08/07 19:30:31  5-MIN KMKG 090030Z 23003KT 9SM CLR 20/15 A3001 540 72 1300 240/03 RMK AO2
14840KMKG MKG20070508193509205/08/07 19:35:31  5-MIN KMKG 090035Z 22003KT 9SM CLR 20/15 A3002 540 72 1300 220/03 RMK AO2
14840KMKG MKG20070508194009305/08/07 19:40:31  5-MIN KMKG 090040Z 22004KT 10SM CLR 19/15 A3002 540 75 1200 230/04 RMK AO2
14840KMKG MKG20070508194509305/08/07 19:45:31  5-MIN KMKG 090045Z 22004KT 10SM CLR 19/14 A3002 540 72 1200 230/04 RMK AO2
14840KMKG MKG20070508195011005/08/07 19:50:31  5-MIN KMKG 090050Z 22004KT 10SM CLR 19/14 A3002 540 75 1200 220/04 RMK AO2 SLP163 T01890144
14840KMKG MKG20070508195511005/08/07 19:55:31  5-MIN KMKG 090055Z 21003KT 10SM CLR 19/14 A3002 540 75 1200 210/03 RMK AO2 SLP163 T01890144
14840KMKG MKG20070508200009305/08/07 20:00:31  5-MIN KMKG 090100Z 21003KT 10SM CLR 19/14 A3002 540 75 1200 210/03 RMK AO2
14840KMKG MKG20070508200509305/08/07 20:05:31  5-MIN KMKG 090105Z 22003KT 10SM CLR 18/14 A3002 540 78 1100 220/03 RMK AO2
14840KMKG MKG20070508201009305/08/07 20:10:31  5-MIN KMKG 090110Z 00000KT 10SM CLR 18/14 A3002 540 78 1100 000/00 RMK AO2
14840KMKG MKG20070508201509305/08/07 20:15:31  5-MIN KMKG 090115Z 23003KT 10SM CLR 18/14 A3002 540 78 1100 230/03 RMK AO2
14840KMKG MKG20070508202009305/08/07 20:20:31  5-MIN KMKG 090120Z 23003KT 10SM CLR 18/14 A3002 540 78 1100 240/03 RMK AO2
14840KMKG MKG20070508202509305/08/07 20:25:31  5-MIN KMKG 090125Z 23003KT 10SM CLR 18/14 A3002 540 75 1100 230/03 RMK AO2
14840KMKG MKG20070508203009305/08/07 20:30:31  5-MIN KMKG 090130Z 00000KT 10SM CLR 18/14 A3002 540 75 1100 000/00 RMK AO2
14840KMKG MKG20070508203509305/08/07 20:35:31  5-MIN KMKG 090135Z 00000KT 10SM CLR 18/14 A3002 540 75 1100 000/00 RMK AO2
14840KMKG MKG20070508204009305/08/07 20:40:31  5-MIN KMKG 090140Z 00000KT 10SM CLR 18/14 A3002 540 75 1100 000/00 RMK AO2
14840KMKG MKG20070508204509305/08/07 20:45:31  5-MIN KMKG 090145Z 00000KT 10SM CLR 18/14 A3002 540 78 1000 000/00 RMK AO2
14840KMKG MKG20070508205011005/08/07 20:50:31  5-MIN KMKG 090150Z 22003KT 10SM CLR 18/14 A3002 540 78 1000 220/03 RMK AO2 SLP164 T01780139
14840KMKG MKG20070508205511005/08/07 20:55:31  5-MIN KMKG 090155Z 00000KT 10SM CLR 17/14 A3002 540 80 1000 000/00 RMK AO2 SLP164 T01720139
14840KMKG MKG20070508210009305/08/07 21:00:31  5-MIN KMKG 090200Z 00000KT 10SM CLR 17/14 A3002 540 80 1000 000/00 RMK AO2
14840KMKG MKG20070508210509305/08/07 21:05:31  5-MIN KMKG 090205Z 00000KT 10SM CLR 17/14 A3002 540 80 1000 000/00 RMK AO2
14840KMKG MKG20070508211009305/08/07 21:10:31  5-MIN KMKG 090210Z 00000KT 10SM CLR 17/14 A3002 540 80 1000 000/00 RMK AO2
14840KMKG MKG20070508211509305/08/07 21:15:31  5-MIN KMKG 090215Z 00000KT 10SM CLR 17/14 A3002 540 80 1000 000/00 RMK AO2
14840KMKG MKG20070508212009205/08/07 21:20:31  5-MIN KMKG 090220Z 00000KT 10SM CLR 17/14 A3002 540 83 900 000/00 RMK AO2
14840KMKG MKG20070508212509205/08/07 21:25:31  5-MIN KMKG 090225Z 00000KT 10SM CLR 17/14 A3002 540 83 900 000/00 RMK AO2
14840KMKG MKG20070508213009205/08/07 21:30:31  5-MIN KMKG 090230Z 00000KT 10SM CLR 16/14 A3002 540 86 800 000/00 RMK AO2
14840KMKG MKG20070508213509205/08/07 21:35:31  5-MIN KMKG 090235Z 00000KT 10SM CLR 16/14 A3002 540 86 800 000/00 RMK AO2
14840KMKG MKG20070508214009205/08/07 21:40:31  5-MIN KMKG 090240Z 00000KT 10SM CLR 16/13 A3001 540 86 800 000/00 RMK AO2
14840KMKG MKG20070508214509205/08/07 21:45:31  5-MIN KMKG 090245Z 00000KT 10SM CLR 16/14 A3001 540 86 800 000/00 RMK AO2
14840KMKG MKG20070508215011505/08/07 21:50:31  5-MIN KMKG 090250Z 00000KT 10SM CLR 17/14 A3001 540 83 900 000/00 RMK AO2 SLP162 T01670139 58013
14840KMKG MKG20070508215511505/08/07 21:55:31  5-MIN KMKG 090255Z 00000KT 10SM CLR 16/14 A3002 540 86 800 000/00 RMK AO2 SLP163 T01610139 50000
14840KMKG MKG20070508220009105/08/07 22:00:31  5-MIN KMKG 090300Z 23003KT 9SM CLR 16/13 A3001 540 86 800 230/03 RMK AO2
14840KMKG MKG20070508220509105/08/07 22:05:31  5-MIN KMKG 090305Z 23003KT 9SM CLR 15/14 A3001 550 93 700 230/03 RMK AO2
14840KMKG MKG20070508221009105/08/07 22:10:31  5-MIN KMKG 090310Z 23003KT 9SM CLR 15/14 A3001 550 93 700 230/03 RMK AO2
14840KMKG MKG20070508221509105/08/07 22:15:31  5-MIN KMKG 090315Z 00000KT 8SM CLR 14/13 A3001 550 93 600 000/00 RMK AO2
14840KMKG MKG20070508222009105/08/07 22:20:31  5-MIN KMKG 090320Z 00000KT 8SM CLR 14/13 A3001 550 90 700 000/00 RMK AO2
14840KMKG MKG20070508222509105/08/07 22:25:31  5-MIN KMKG 090325Z 00000KT 9SM CLR 16/14 A3001 550 86 900 000/00 RMK AO2
14840KMKG MKG20070508223009205/08/07 22:30:31  5-MIN KMKG 090330Z 00000KT 10SM CLR 16/14 A3001 550 86 800 000/00 RMK AO2
14840KMKG MKG20070508223509205/08/07 22:35:31  5-MIN KMKG 090335Z 00000KT 10SM CLR 14/13 A3000 550 90 700 000/00 RMK AO2
14840KMKG MKG20070508224009205/08/07 22:40:31  5-MIN KMKG 090340Z 00000KT 10SM CLR 16/13 A3000 550 86 800 000/00 RMK AO2
14840KMKG MKG20070508224509205/08/07 22:45:31  5-MIN KMKG 090345Z 03003KT 10SM CLR 16/14 A3000 560 90 800 030/03 RMK AO2
14840KMKG MKG20070508225010905/08/07 22:50:31  5-MIN KMKG 090350Z 00000KT 10SM CLR 16/14 A3000 560 90 800 000/00 RMK AO2 SLP158 T01560139
14840KMKG MKG20070508225510905/08/07 22:55:31  5-MIN KMKG 090355Z 00000KT 10SM CLR 16/14 A3000 560 86 900 000/00 RMK AO2 SLP157 T01610139
14840KMKG MKG20070508230009105/08/07 23:00:31  5-MIN KMKG 090400Z 05003KT 9SM CLR 16/14 A3000 560 90 900 050/03 RMK AO2
14840KMKG MKG20070508230509105/08/07 23:05:31  5-MIN KMKG 090405Z 00000KT 9SM CLR 16/14 A3000 560 93 800 000/00 RMK AO2
14840KMKG MKG20070508231009105/08/07 23:10:31  5-MIN KMKG 090410Z 00000KT 8SM CLR 16/14 A3000 560 90 800 000/00 RMK AO2
14840KMKG MKG20070508231509105/08/07 23:15:31  5-MIN KMKG 090415Z 00000KT 7SM CLR 15/14 A3000 560 93 700 000/00 RMK AO2
14840KMKG MKG20070508232009105/08/07 23:20:31  5-MIN KMKG 090420Z 00000KT 7SM CLR 16/14 A3000 560 90 800 000/00 RMK AO2
14840KMKG MKG20070508232509105/08/07 23:25:31  5-MIN KMKG 090425Z 00000KT 7SM CLR 16/14 A3000 560 90 800 000/00 RMK AO2
14840KMKG MKG20070508233009105/08/07 23:30:31  5-MIN KMKG 090430Z 00000KT 7SM CLR 16/14 A3000 560 90 800 000/00 RMK AO2
14840KMKG MKG20070508233509105/08/07 23:35:31  5-MIN KMKG 090435Z 00000KT 7SM CLR 16/14 A3000 560 90 800 000/00 RMK AO2
14840KMKG MKG20070508234009105/08/07 23:40:31  5-MIN KMKG 090440Z 00000KT 7SM CLR 16/14 A2999 560 90 800 000/00 RMK AO2
14840KMKG MKG20070508234509405/08/07 23:45:31  5-MIN KMKG 090445Z 00000KT 6SM BR CLR 16/14 A2999 560 90 800 000/00 RMK AO2
14840KMKG MKG20070508235012105/08/07 23:50:31  5-MIN KMKG 090450Z 00000KT 6SM BR CLR 15/14 A2999 570 93 700 000/00 RMK AO2 SLP154 T01500139 402330100
14840KMKG MKG20070508235513805/08/07 23:55:31  5-MIN KMKG 090455Z 00000KT 6SM BR CLR 15/14 A2999 570 93 700 000/00 RMK AO2 VIS 2 1/2 RWY 14 SLP153 T01500139 402330100
14840KMKG MKG20070509000011105/09/07 00:00:32  5-MIN KMKG 090500Z 00000KT 5SM BR CLR 15/14 A2999 570 93 700 000/00 RMK AO2 VIS 2 1/2 RWY 14
14840KMKG MKG20070509000511105/09/07 00:05:31  5-MIN KMKG 090505Z 00000KT 6SM BR CLR 15/14 A2999 570 93 700 000/00 RMK AO2 VIS 2 1/2 RWY 14
14840KMKG MKG20070509001009105/09/07 00:10:31  5-MIN KMKG 090510Z 00000KT 7SM CLR 15/14 A2998 570 93 700 000/00 RMK AO2
14840KMKG MKG20070509001509405/09/07 00:15:31  5-MIN KMKG 090515Z 00000KT 6SM BR CLR 16/14 A2998 570 90 800 000/00 RMK AO2
14840KMKG MKG20070509002009405/09/07 00:20:31  5-MIN KMKG 090520Z 00000KT 6SM BR CLR 15/14 A2998 570 93 700 000/00 RMK AO2
14840KMKG MKG20070509002509405/09/07 00:25:31  5-MIN KMKG 090525Z 00000KT 5SM BR CLR 14/13 A2998 570 93 700 000/00 RMK AO2
14840KMKG MKG20070509003009405/09/07 00:30:31  5-MIN KMKG 090530Z 00000KT 5SM BR CLR 15/13 A2998 570 90 700 000/00 RMK AO2
14840KMKG MKG20070509003511105/09/07 00:35:31  5-MIN KMKG 090535Z 00000KT 4SM BR CLR 15/14 A2998 570 93 700 000/00 RMK AO2 VIS 2 1/2 RWY 14
14840KMKG MKG20070509004011105/09/07 00:40:31  5-MIN KMKG 090540Z 00000KT 4SM BR CLR 14/13 A2998 570 93 700 000/00 RMK AO2 VIS 2 1/2 RWY 14
14840KMKG MKG20070509004511105/09/07 00:45:31  5-MIN KMKG 090545Z 00000KT 5SM BR CLR 14/13 A2998 570 93 700 000/00 RMK AO2 VIS 2 1/2 RWY 14
14840KMKG MKG20070509005014205/09/07 00:50:31  5-MIN KMKG 090550Z 00000KT 5SM BR CLR 14/13 A2998 570 90 700 000/00 RMK AO2 VIS 2 RWY 14 SLP151 T01440128 10211 20144 50000
14840KMKG MKG20070509005514605/09/07 00:55:31  5-MIN KMKG 090555Z 00000KT 5SM BR CLR 14/13 A2998 570 90 700 000/00 RMK AO2 VIS 1 3/4 RWY 14 SLP151 T01440128 10211 20144 56012
14840KMKG MKG20070509010011105/09/07 01:00:31  5-MIN KMKG 090600Z 00000KT 5SM BR CLR 14/13 A2998 580 93 600 000/00 RMK AO2 VIS 1 1/2 RWY 14
14840KMKG MKG20070509010511105/09/07 01:05:31  5-MIN KMKG 090605Z 00000KT 5SM BR CLR 14/13 A2998 580 93 700 000/00 RMK AO2 VIS 1 1/2 RWY 14
14840KMKG MKG20070509011011105/09/07 01:10:31  5-MIN KMKG 090610Z 00000KT 5SM BR CLR 14/13 A2997 580 93 700 000/00 RMK AO2 VIS 1 3/4 RWY 14
14840KMKG MKG20070509011511105/09/07 01:15:31  5-MIN KMKG 090615Z 00000KT 5SM BR CLR 15/13 A2997 580 90 800 000/00 RMK AO2 VIS 1 3/4 RWY 14
14840KMKG MKG20070509012011105/09/07 01:20:31  5-MIN KMKG 090620Z 00000KT 4SM BR CLR 14/13 A2997 580 93 700 000/00 RMK AO2 VIS 1 3/4 RWY 14
14840KMKG MKG20070509012511105/09/07 01:25:31  5-MIN KMKG 090625Z 00000KT 3SM BR CLR 14/14 A2997 580 96 700 000/00 RMK AO2 VIS 1 1/2 RWY 14
14840KMKG MKG20070509013011505/09/07 01:30:31  5-MIN KMKG 090630Z 00000KT 2 1/2SM BR CLR 14/14 A2997 590 96 700 000/00 RMK AO2 VIS 1 1/4 RWY 14
14840KMKG MKG20070509013511105/09/07 01:35:31  5-MIN KMKG 090635Z 00000KT 3SM BR CLR 15/14 A2997 590 93 800 000/00 RMK AO2 VIS 1 1/4 RWY 14
14840KMKG MKG20070509014011105/09/07 01:40:31  5-MIN KMKG 090640Z 00000KT 4SM BR CLR 15/14 A2996 590 93 800 000/00 RMK AO2 VIS 1 3/4 RWY 14
14840KMKG MKG20070509014510705/09/07 01:45:31  5-MIN KMKG 090645Z 00000KT 4SM BR CLR 15/14 A2996 590 93 800 000/00 RMK AO2 VIS 2 RWY 14
14840KMKG MKG20070509015012805/09/07 01:50:31  5-MIN KMKG 090650Z 00000KT 5SM BR CLR 15/14 A2996 590 93 800 000/00 RMK AO2 VIS 2 1/2 RWY 14 SLP145 T01500139
14840KMKG MKG20070509015511105/09/07 01:55:31  5-MIN KMKG 090655Z 07004KT 5SM BR CLR 15/14 A2996 590 93 800 070/04 RMK AO2 SLP144 T01500139
14840KMKG MKG20070509020009405/09/07 02:00:31  5-MIN KMKG 090700Z 07005KT 5SM BR CLR 16/14 A2996 600 93 800 080/05 RMK AO2
14840KMKG MKG20070509020509405/09/07 02:05:31  5-MIN KMKG 090705Z 00000KT 5SM BR CLR 16/14 A2996 590 93 800 000/00 RMK AO2
14840KMKG MKG20070509021009405/09/07 02:10:31  5-MIN KMKG 090710Z 00000KT 5SM BR CLR 16/14 A2996 590 93 800 000/00 RMK AO2
14840KMKG MKG20070509021509405/09/07 02:15:31  5-MIN KMKG 090715Z 07003KT 5SM BR CLR 16/14 A2995 600 90 900 080/03 RMK AO2
14840KMKG MKG20070509022009405/09/07 02:20:31  5-MIN KMKG 090720Z 09003KT 6SM BR CLR 16/14 A2995 600 90 900 090/03 RMK AO2
14840KMKG MKG20070509022509405/09/07 02:25:31  5-MIN KMKG 090725Z 00000KT 6SM BR CLR 16/14 A2995 600 90 900 000/00 RMK AO2
14840KMKG MKG20070509023009405/09/07 02:30:31  5-MIN KMKG 090730Z 00000KT 6SM BR CLR 16/14 A2995 610 90 900 000/00 RMK AO2
14840KMKG MKG20070509023509105/09/07 02:35:31  5-MIN KMKG 090735Z 11003KT 7SM CLR 16/14 A2995 610 90 900 120/03 RMK AO2
14840KMKG MKG20070509024009405/09/07 02:40:31  5-MIN KMKG 090740Z 13004KT 6SM BR CLR 16/14 A2995 600 90 900 130/04 RMK AO2
14840KMKG MKG20070509024509405/09/07 02:45:31  5-MIN KMKG 090745Z 12004KT 6SM BR CLR 16/14 A2995 600 90 900 130/04 RMK AO2
14840KMKG MKG20070509025011105/09/07 02:50:31  5-MIN KMKG 090750Z 10005KT 7SM FEW090 16/14 A2995 610 90 900 110/05 RMK AO2 SLP138 T01610144
14840KMKG MKG20070509025511405/09/07 02:55:31  5-MIN KMKG 090755Z 11004KT 6SM BR SCT090 16/14 A2995 610 90 900 110/04 RMK AO2 SLP138 T01610144
14840KMKG MKG20070509030009405/09/07 03:00:31  5-MIN KMKG 090800Z 14003KT 7SM SCT090 16/14 A2995 600 90 900 140/03 RMK AO2
14840KMKG MKG20070509030509705/09/07 03:05:31  5-MIN KMKG 090805Z 21004KT 6SM BR BKN090 16/14 A2996 590 90 900 220/04 RMK AO2
14840KMKG MKG20070509031011005/09/07 03:10:31  5-MIN KMKG 090810Z 22018G22KT 6SM BR BKN085 16/14 A2999 570 90 900 230/18G22 RMK AO2 PRESRR
14840KMKG MKG20070509031511905/09/07 03:15:31  5-MIN KMKG 090815Z 20013G29KT 7SM BKN085 17/14 A2999 570 83 1000 200/13G29 RMK AO2 PK WND 22029/0812
14840KMKG MKG20070509032012605/09/07 03:20:31  5-MIN KMKG 090820Z 20012G29KT 9SM BKN080 OVC090 17/14 A3000 560 83 1000 210/12G29 RMK AO2 PK WND 22029/0812
14840KMKG MKG20070509032517305/09/07 03:25:31  5-MIN KMKG 090825Z 19007G18KT 7SM TSRA FEW038 OVC080 17/14 A2999 560 86 900 190/07G18 RMK AO2 PK WND 22029/0812 TSB23RAB21 OCNL LTGICCA TS OHD MOV E P0000
14840KMKG MKG20070509033017105/09/07 03:30:31  5-MIN KMKG 090830Z 18008KT 5SM -TSRA BR SCT038 OVC080 17/15 A2999 570 90 900 180/08 RMK AO2 PK WND 22029/0812 OCNL LTGICCA TSB23RAB21 TS OHD MOV E P0002
14840KMKG MKG20070509033517105/09/07 03:35:31  5-MIN KMKG 090835Z 19004KT 4SM -TSRA BR BKN034 OVC080 17/15 A2999 570 90 900 190/04 RMK AO2 PK WND 22029/0812 OCNL LTGICCA TSB23RAB21 TS OHD MOV E P0002
14840KMKG MKG20070509034018805/09/07 03:40:31  5-MIN KMKG 090840Z 21003KT 4SM -TSRA BR BKN034 OVC080 17/15 A2999 570 90 900 210/03 RMK AO2 PK WND 22029/0812 VIS 2 1/2 RWY 14 OCNL LTGICCA TSB23RAB21 TS OHD MOV E P0003
14840KMKG MKG20070509034518305/09/07 03:45:31  5-MIN KMKG 090845Z 25003KT 3SM TSRA BR BKN030 OVC080 16/15 A2999 570 93 900 250/03 RMK AO2 PK WND 22029/0812 VIS 2 RWY 14 OCNL LTGICCA TSB23RAB21 TS OHD MOV E P0004
14840KMKG MKG20070509035021305/09/07 03:50:31  5-MIN KMKG 090850Z 00000KT 2 1/2SM TSRA BR OVC028 16/15 A2999 570 93 900 000/00 RMK AO2 PK WND 22029/0812 VIS 1 3/4 RWY 14 SLP154 OCNL LTGICCA TSB23RAB21 TS OHD MOV E P0005 60005 T01610150 56012
14840KMKG MKG20070509035520705/09/07 03:55:31  5-MIN KMKG 090855Z 00000KT 2 1/2SM TSRA BR OVC026 16/15 A2999 570 93 900 000/00 RMK AO2 PK WND 22029/0812 VIS 1 1/2 RWY 14 OCNL LTGICCA TSB23RAB21 TS OHD MOV E SLP154 P0006 60006 T01610150
14840KMKG MKG20070509040015505/09/07 04:00:31  5-MIN KMKG 090900Z 00000KT 2 1/2SM TSRA BR OVC020 16/15 A2998 570 93 900 000/00 RMK AO2 VIS 1 1/4 RWY 14 OCNL LTGICCA TS OHD MOV E P0001
14840KMKG MKG20070509040515505/09/07 04:05:31  5-MIN KMKG 090905Z 31003KT 3SM -TSRA BR BKN020 OVC100 16/15 A2998 570 93 900 320/03 RMK AO2 VIS 1 RWY 14 OCNL LTGICCA TS OHD MOV E P0002
14840KMKG MKG20070509041013705/09/07 04:10:31  5-MIN KMKG 090910Z 34005KT 2 1/2SM -RA BR BKN020 OVC100 16/15 A2998 570 93 900 340/05 RMK AO2 VIS 1 RWY 14 TSE10 P0002
14840KMKG MKG20070509041513605/09/07 04:15:31  5-MIN KMKG 090915Z 29004KT 2 1/2SM RA BR BKN020 OVC080 16/15 A2998 570 93 900 300/04 RMK AO2 VIS 1 RWY 14 TSE10 P0003
14840KMKG MKG20070509042014705/09/07 04:20:31  5-MIN KMKG 090920Z 27007KT 2 1/2SM RA BR BKN016 BKN080 OVC100 16/15 A2999 570 93 900 270/07 RMK AO2 VIS 1 1/4 RWY 14 TSE10 P0004
14840KMKG MKG20070509042514805/09/07 04:25:31  5-MIN KMKG 090925Z 24009KT 2 1/2SM -RA BR SCT003 BKN016 OVC080 15/14 A2999 570 96 700 240/09 RMK AO2 VIS 1 1/2 RWY 14 TSE10 P0005
14840KMKG MKG20070509043014805/09/07 04:30:31  5-MIN KMKG 090930Z 24004KT 2 1/2SM -RA BR BKN003 BKN018 OVC100 14/13 A2999 570 93 700 240/04 RMK AO2 VIS 1 1/2 RWY 14 TSE10 P0005
14840KMKG MKG20070509043514405/09/07 04:35:31  5-MIN KMKG 090935Z 26005KT 3SM -RA BR SCT003 BKN016 OVC100 14/13 A2999 570 93 700 270/05 RMK AO2 VIS 1 1/2 RWY 14 TSE10 P0006
14840KMKG MKG20070509044013705/09/07 04:40:31  5-MIN KMKG 090940Z 00000KT 3SM -RA BR BKN003 OVC022 14/13 A2998 580 93 700 000/00 RMK AO2 VIS 1 1/2 RWY 14 TSE10 P0006
14840KMKG MKG20070509044513705/09/07 04:45:31  5-MIN KMKG 090945Z 00000KT 3SM -RA BR BKN003 OVC020 14/14 A2997 580 96 700 000/00 RMK AO2 VIS 1 1/4 RWY 14 TSE10 P0007
14840KMKG MKG20070509045014005/09/07 04:50:31  5-MIN KMKG 090950Z 34005KT 2 1/2SM RA BR BKN003 OVC020 14/14 A2997 580 96 700 340/05 RMK AO2 VIS 1 1/4 RWY 14 TSE10 P0008
14840KMKG MKG20070509045516505/09/07 04:55:31  5-MIN KMKG 090955Z 35004KT 2 1/2SM -RA BR BKN003 BKN017 OVC110 14/13 A2997 590 93 700 350/04 RMK AO2 VIS 1 1/4 RWY 14 TSE10 SLP147 P0009 T01440133
14840KMKG MKG20070509050012505/09/07 05:00:31  5-MIN KMKG 091000Z 00000KT 2 1/2SM -RA BR BKN003 BKN017 OVC110 14/14 A2998 580 96 700 000/00 RMK AO2 P0000
14840KMKG MKG20070509050513805/09/07 05:05:31  5-MIN KMKG 091005Z 24005KT 3SM -RA BR BKN003 BKN012 OVC110 14/14 A2998 580 96 700 250/05 RMK AO2 VIS 1 1/2 RWY 14 P0000
14840KMKG MKG20070509051013605/09/07 05:10:31  5-MIN KMKG 091010Z 27003KT 3SM BR BKN003 BKN012 OVC090 14/14 A2997 580 96 700 280/03 RMK AO2 VIS 2 RWY 14 RAE10 P0000
14840KMKG MKG20070509051513605/09/07 05:15:31  5-MIN KMKG 091015Z 29004KT 3SM BR BKN003 BKN012 OVC090 14/14 A2997 580 96 700 290/04 RMK AO2 VIS 2 RWY 14 RAE10 P0000
14840KMKG MKG20070509052014005/09/07 05:20:31  5-MIN KMKG 091020Z 31005KT 3SM BR BKN003 BKN014 OVC085 14/13 A2998 580 93 700 310/05 RMK AO2 VIS 1 3/4 RWY 14 RAE10 P0000
14840KMKG MKG20070509052515305/09/07 05:25:31  5-MIN KMKG 091025Z 31005KT 3SM -RA BR SCT003 SCT055 OVC085 14/13 A2998 580 93 700 320/05 RMK AO2 VIS 1 3/4 RWY 14 CIG 003 RWY 14 P0000
14840KMKG MKG20070509053015205/09/07 05:30:31  5-MIN KMKG 091030Z 33005KT 3SM RA BR SCT003 BKN032 OVC085 14/13 A2998 580 93 700 330/05 RMK AO2 VIS 1 1/4 RWY 14 CIG 003 RWY 14 P0000
14840KMKG MKG20070509053513405/09/07 05:35:31  5-MIN KMKG 091035Z 32004KT 2SM +RA BR FEW003 BKN022 OVC085 14/14 A2998 570 96 700 320/04 RMK AO2 VIS 1 RWY 14 P0003
14840KMKG MKG20070509054012405/09/07 05:40:31  5-MIN KMKG 091040Z 31004KT 2 1/2SM RA BR FEW003 BKN022 OVC080 14/14 A2998 570 96 700 310/04 RMK AO2 P0006
14840KMKG MKG20070509054515605/09/07 05:45:31  5-MIN KMKG 091045Z 30005KT 2 1/2SM RA BR SCT026 BKN065 OVC085 15/14 A2999 570 93 700 300/05 RMK AO2 VIS 1 3/4 RWY 14 CIG 025 RWY 14 P0006
14840KMKG MKG20070509055015605/09/07 05:50:31  5-MIN KMKG 091050Z 30005KT 2 1/2SM RA BR SCT026 BKN043 OVC065 15/14 A2999 560 96 700 310/05 RMK AO2 VIS 1 3/4 RWY 14 CIG 025 RWY 14 P0008
14840KMKG MKG20070509055517305/09/07 05:55:31  5-MIN KMKG 091055Z 29006KT 2 1/2SM RA BR SCT023 BKN041 OVC065 15/14 A3000 560 96 700 300/06 RMK AO2 VIS 1 1/2 RWY 14 CIG 023 RWY 14 SLP157 P0008 T01500144
14840KMKG MKG20070509060015305/09/07 06:00:31  5-MIN KMKG 091100Z 30005KT 2SM +RA BR SCT006 BKN023 OVC060 15/14 A3000 560 93 700 300/05 RMK AO2 VIS 1 1/4 RWY 14 CIG 005 RWY 14 P0003
14840KMKG MKG20070509060515205/09/07 06:05:31  5-MIN KMKG 091105Z 31004KT 2SM RA BR SCT006 BKN021 OVC065 15/14 A3000 560 96 700 320/04 RMK AO2 VIS 1 1/4 RWY 14 CIG 005 RWY 14 P0006
14840KMKG MKG20070509061014105/09/07 06:10:31  5-MIN KMKG 091110Z 30004KT 2 1/2SM RA BR BKN006 BKN021 OVC060 15/14 A3000 550 96 700 300/04 RMK AO2 VIS 1 1/4 RWY 14 P0008
14840KMKG MKG20070509061513805/09/07 06:15:31  5-MIN KMKG 091115Z 31005KT 3SM -RA BR BKN006 BKN023 OVC060 15/14 A3001 550 96 700 320/05 RMK AO2 VIS 1 1/2 RWY 14 P0009
14840KMKG MKG20070509062013705/09/07 06:20:31  5-MIN KMKG 091120Z 34005KT 3SM RA BR BKN006 BKN023 OVC047 16/14 A3000 550 93 800 340/05 RMK AO2 VIS 1 1/2 RWY 14 P0011
14840KMKG MKG20070509062515305/09/07 06:25:31  5-MIN KMKG 091125Z 01005KT 3SM +RA BR SCT006 BKN011 OVC047 16/14 A3000 560 93 800 010/05 RMK AO2 VIS 1 1/4 RWY 14 CIG 005 RWY 14 P0014
14840KMKG MKG20070509063014205/09/07 06:30:31  5-MIN KMKG 091130Z 36007KT 2 1/2SM +RA BR SCT006 BKN013 OVC038 16/14 A2999 560 93 800 010/07 RMK AO2 VIS 1 1/4 RWY 14 P0017
14840KMKG MKG20070509063513805/09/07 06:35:31  5-MIN KMKG 091135Z 01007KT 2 1/2SM +RA BR SCT006 BKN013 OVC038 16/14 A2999 560 93 800 010/07 RMK AO2 VIS 1 RWY 14 P0020
14840KMKG MKG20070509064013805/09/07 06:40:31  5-MIN KMKG 091140Z 35007KT 2 1/2SM +RA BR FEW004 BKN013 OVC038 16/14 A3000 560 93 800 350/07 RMK AO2 VIS 1 RWY 14 P0022
14840KMKG MKG20070509064514205/09/07 06:45:31  5-MIN KMKG 091145Z 35007KT 2 1/2SM +RA BR FEW004 BKN013 OVC048 16/15 A3000 550 96 800 350/07 RMK AO2 VIS 1 1/4 RWY 14 P0025
14840KMKG MKG20070509065018605/09/07 06:50:31  5-MIN KMKG 091150Z 35006KT 2 1/2SM RA BR FEW004 BKN013 OVC048 16/15 A3000 550 96 800 360/06 RMK AO2 VIS 3/4 RWY 14 SLP159 P0027 60050 70050 T01560150 10178 20144 53002
14840KMKG MKG20070509065518605/09/07 06:55:31  5-MIN KMKG 091155Z 34004KT 2 1/2SM RA BR FEW004 BKN015 OVC047 16/15 A3001 550 96 800 350/04 RMK AO2 VIS 3/4 RWY 14 SLP160 P0029 60052 70052 T01560150 10178 20144 53013
14840KMKG MKG20070509070013705/09/07 07:00:31  5-MIN KMKG 091200Z 35006KT 2 1/2SM RA BR FEW004 BKN015 OVC045 16/15 A3000 550 96 800 360/06 RMK AO2 VIS 1 RWY 14 P0001
14840KMKG MKG20070509070513705/09/07 07:05:31  5-MIN KMKG 091205Z 01005KT 2 1/2SM RA BR FEW004 BKN015 OVC045 16/15 A3000 560 96 800 010/05 RMK AO2 VIS 1 RWY 14 P0003
14840KMKG MKG20070509071013705/09/07 07:10:31  5-MIN KMKG 091210Z 36006KT 2 1/2SM RA BR FEW004 BKN017 OVC045 16/15 A3000 560 96 800 360/06 RMK AO2 VIS 1 RWY 14 P0004
14840KMKG MKG20070509071513705/09/07 07:15:31  5-MIN KMKG 091215Z 36006KT 2 1/2SM RA BR FEW004 BKN017 OVC043 16/15 A3000 560 96 800 010/06 RMK AO2 VIS 1 RWY 14 P0005
14840KMKG MKG20070509072013705/09/07 07:20:31  5-MIN KMKG 091220Z 01005KT 2 1/2SM RA BR FEW004 BKN017 OVC043 16/15 A3000 560 96 800 020/05 RMK AO2 VIS 1 RWY 14 P0007
14840KMKG MKG20070509072513805/09/07 07:25:31  5-MIN KMKG 091225Z 35005KT 2 1/2SM -RA BR FEW004 BKN018 OVC043 16/15 A3000 550 96 800 360/05 RMK AO2 VIS 1 RWY 14 P0008
14840KMKG MKG20070509073013805/09/07 07:30:31  5-MIN KMKG 091230Z 01004KT 4SM -RA BR SCT004 BKN018 OVC043 16/15 A3000 560 96 800 020/04 RMK AO2 VIS 1 1/2 RWY 14 P0009
14840KMKG MKG20070509073513805/09/07 07:35:31  5-MIN KMKG 091235Z 01005KT 4SM -RA BR BKN004 BKN018 OVC043 16/15 A3000 550 96 800 010/05 RMK AO2 VIS 1 3/4 RWY 14 P0009
14840KMKG MKG20070509074013805/09/07 07:40:31  5-MIN KMKG 091240Z 01007KT 5SM -RA BR BKN004 BKN018 OVC043 16/15 A3000 560 96 800 010/07 RMK AO2 VIS 2 1/2 RWY 14 P0009
14840KMKG MKG20070509074513805/09/07 07:45:31  5-MIN KMKG 091245Z 36008KT 6SM -RA BR BKN004 BKN015 OVC043 16/15 A3000 560 96 800 360/08 RMK AO2 VIS 2 1/2 RWY 14 P0009
14840KMKG MKG20070509075014805/09/07 07:50:31  5-MIN KMKG 091250Z 36007KT 6SM -RA BR BKN004 OVC021 16/15 A3000 560 96 800 360/07 RMK AO2 VIS 2 1/2 RWY 14 SLP158 P0009 T01560150
14840KMKG MKG20070509075514805/09/07 07:55:31  5-MIN KMKG 091255Z 35007KT 5SM -RA BR SCT004 OVC021 16/15 A3001 550 96 800 360/07 RMK AO2 VIS 2 1/2 RWY 14 SLP160 P0009 T01560150
14840KMKG MKG20070509080012705/09/07 08:00:31  5-MIN KMKG 091300Z 35007KT 4SM -RA BR SCT006 OVC023 16/15 A3001 550 96 800 360/07 RMK AO2 VIS 2 RWY 14 P0000
14840KMKG MKG20070509080514505/09/07 08:05:31  5-MIN KMKG 091305Z 35005KT 4SM RA BR SCT006 OVC023 16/15 A3001 550 96 800 350/05 RMK AO2 VIS 1 3/4 RWY 14 CIG 006 RWY 14 P0001
14840KMKG MKG20070509081014505/09/07 08:10:31  5-MIN KMKG 091310Z 35008KT 3SM RA BR SCT006 OVC023 16/14 A3002 540 93 800 350/08 RMK AO2 VIS 1 1/4 RWY 14 CIG 006 RWY 14 P0002
14840KMKG MKG20070509081513905/09/07 08:15:31  5-MIN KMKG 091315Z 35007KT 2SM +RA BR BKN006 OVC023 16/15 A3002 540 96 800 350/07 RMK AO2 VIS 1 RWY 14 CIG 005V009 P0005
14840KMKG MKG20070509082014005/09/07 08:20:31  5-MIN KMKG 091320Z 36008KT 1 1/2SM +RA BR BKN006 BKN023 OVC029 16/15 A3002 540 96 800 010/08 RMK AO2 VIS 3/4 RWY 14 P0008
14840KMKG MKG20070509082514005/09/07 08:25:31  5-MIN KMKG 091325Z 01007KT 1 3/4SM +RA BR BKN008 BKN012 OVC023 16/15 A3002 540 96 800 010/07 RMK AO2 VIS 3/4 RWY 14 P0013
14840KMKG MKG20070509083013405/09/07 08:30:31  5-MIN KMKG 091330Z 35008KT 2 1/2SM RA BR BKN008 OVC018 16/14 A3002 540 93 800 360/08 RMK AO2 VIS 1 1/4 RWY 14 P0014
14840KMKG MKG20070509083512705/09/07 08:35:31  5-MIN KMKG 091335Z 35008KT 4SM -RA BR BKN008 OVC020 16/14 A3002 540 93 800 350/08 RMK AO2 VIS 2 RWY 14 P0014
14840KMKG MKG20070509084011805/09/07 08:40:31  5-MIN KMKG 091340Z 36008KT 7SM -RA SCT008 SCT011 OVC022 16/14 A3002 540 93 800 360/08 RMK AO2 P0014
14840KMKG MKG20070509084511805/09/07 08:45:31  5-MIN KMKG 091345Z 35010KT 7SM -RA SCT008 BKN019 OVC029 16/14 A3002 540 93 800 350/10 RMK AO2 P0015
14840KMKG MKG20070509085015505/09/07 08:50:31  5-MIN KMKG 091350Z 35009KT 5SM -RA BR SCT008 BKN021 OVC029 16/14 A3002 540 93 800 360/09 RMK AO2 VIS 2 1/2 RWY 14 SLP166 P0015 T01560144
14840KMKG MKG20070509085515505/09/07 08:55:31  5-MIN KMKG 091355Z 36008KT 4SM -RA BR SCT010 BKN021 OVC032 16/14 A3002 540 93 800 360/08 RMK AO2 VIS 1 3/4 RWY 14 SLP166 P0015 T01560144
14840KMKG MKG20070509090013805/09/07 09:00:31  5-MIN KMKG 091400Z 01007KT 4SM -RA BR SCT010 BKN023 OVC034 16/14 A3002 540 93 800 020/07 RMK AO2 VIS 1 3/4 RWY 14 P0000
14840KMKG MKG20070509090513805/09/07 09:05:31  5-MIN KMKG 091405Z 36007KT 5SM -RA BR FEW010 SCT028 OVC034 16/14 A3002 540 90 800 010/07 RMK AO2 VIS 2 1/2 RWY 14 P0001
14840KMKG MKG20070509091011805/09/07 09:10:31  5-MIN KMKG 091410Z 01007KT 7SM -RA FEW010 SCT031 OVC039 16/14 A3002 540 93 800 010/07 RMK AO2 P0001
14840KMKG MKG20070509091511805/09/07 09:15:31  5-MIN KMKG 091415Z 01008KT 9SM -RA FEW010 BKN037 OVC055 16/14 A3002 540 93 800 020/08 RMK AO2 P0001
14840KMKG MKG20070509092012105/09/07 09:20:31  5-MIN KMKG 091420Z 04007KT 10SM FEW010 BKN043 OVC055 16/14 A3001 550 90 800 040/07 RMK AO2 RAE17 P0001
14840KMKG MKG20070509092511205/09/07 09:25:31  5-MIN KMKG 091425Z 03008KT 10SM -RA BKN038 OVC055 16/14 A3001 550 90 800 040/08 RMK AO2 P0001
14840KMKG MKG20070509093011905/09/07 09:30:31  5-MIN KMKG 091430Z 04007KT 10SM -RA BKN038 BKN055 OVC075 16/14 A3001 550 90 900 050/07 RMK AO2 P0001
14840KMKG MKG20070509093511905/09/07 09:35:31  5-MIN KMKG 091435Z 05007KT 10SM -RA SCT043 BKN055 OVC090 16/14 A3000 550 90 900 050/07 RMK AO2 P0001
14840KMKG MKG20070509094012105/09/07 09:40:31  5-MIN KMKG 091440Z 06006KT 10SM FEW045 BKN055 OVC090 17/14 A3000 560 83 900 060/06 RMK AO2 RAE36 P0001
14840KMKG MKG20070509094512105/09/07 09:45:31  5-MIN KMKG 091445Z 05008KT 10SM FEW043 BKN055 OVC080 17/14 A3000 560 83 900 050/08 RMK AO2 RAE36 P0001
14840KMKG MKG20070509095016505/09/07 09:50:31  5-MIN KMKG 091450Z 05008KT 10SM FEW043 BKN075 OVC085 17/14 A3000 560 83 900 050/08 RMK AO2 RAE36 CIG 060 RWY 14 SLP158 P0001 60025 T01670139 53013
14840KMKG MKG20070509095515005/09/07 09:55:31  5-MIN KMKG 091455Z 05008KT 10SM -RA BKN060 OVC075 17/13 A2999 560 80 900 060/08 RMK AO2 RAE36B53 SLP157 P0001 60025 T01670133 58004
14840KMKG MKG20070509100011205/09/07 10:00:31  5-MIN KMKG 091500Z 08008KT 10SM -RA BKN065 OVC080 17/13 A2999 570 80 900 080/08 RMK AO2 P0000
14840KMKG MKG20070509100511405/09/07 10:05:31  5-MIN KMKG 091505Z 07009KT 10SM BKN065 OVC080 17/14 A2998 570 83 900 070/09 RMK AO2 RAE05 P0000
14840KMKG MKG20070509101012905/09/07 10:10:31  5-MIN KMKG 091510Z 09007KT 10SM SCT065 OVC085 17/14 A2998 580 83 900 090/07 RMK AO2 RAE05 CIG 065 RWY 14 P0000
14840KMKG MKG20070509101511405/09/07 10:15:31  5-MIN KMKG 091515Z 07006KT 10SM SCT065 OVC090 17/14 A2998 580 83 900 070/06 RMK AO2 RAE05 P0000
14840KMKG MKG20070509102011405/09/07 10:20:31  5-MIN KMKG 091520Z 06006KT 10SM FEW065 OVC095 17/14 A2998 580 83 900 060/06 RMK AO2 RAE05 P0000
14840KMKG MKG20070509102512105/09/07 10:25:31  5-MIN KMKG 091525Z 07006KT 10SM FEW065 BKN090 OVC110 17/14 A2998 580 83 900 070/06 RMK AO2 RAE05 P0000
14840KMKG MKG20070509103011405/09/07 10:30:31  5-MIN KMKG 091530Z 07005KT 10SM SCT090 OVC110 17/14 A2998 580 83 900 070/05 RMK AO2 RAE05 P0000
14840KMKG MKG20070509103510805/09/07 10:35:31  5-MIN KMKG 091535Z 07006KT 10SM BKN100 17/14 A2997 580 83 1000 080/06 RMK AO2 RAE05 P0000
14840KMKG MKG20070509104011505/09/07 10:40:31  5-MIN KMKG 091540Z 07007KT 10SM -RA BKN100 17/14 A2997 580 83 1000 070/07 RMK AO2 RAE05B39 P0000
14840KMKG MKG20070509104511505/09/07 10:45:31  5-MIN KMKG 091545Z 06010KT 10SM -RA SCT100 17/14 A2997 590 83 1000 060/10 RMK AO2 RAE05B39 P0000
14840KMKG MKG20070509105013205/09/07 10:50:31  5-MIN KMKG 091550Z 07009KT 10SM -RA BKN100 17/14 A2997 590 83 1000 070/09 RMK AO2 RAE05B39 SLP147 P0000 T01670139
14840KMKG MKG20070509105513105/09/07 10:55:31  5-MIN KMKG 091555Z 08006KT 10SM BKN100 17/14 A2997 580 80 1000 080/06 RMK AO2 RAE05B39E52 SLP148 P0000 T01720139
14840KMKG MKG20070509110009305/09/07 11:00:31  5-MIN KMKG 091600Z 10004KT 10SM CLR 17/14 A2997 580 80 1000 110/04 RMK AO2
14840KMKG MKG20070509110509605/09/07 11:05:31  5-MIN KMKG 091605Z 08007KT 10SM SCT085 18/14 A2997 580 81 1100 090/07 RMK AO2
14840KMKG MKG20070509111009605/09/07 11:10:31  5-MIN KMKG 091610Z 08008KT 10SM SCT085 18/14 A2997 580 78 1100 090/08 RMK AO2
14840KMKG MKG20070509111509605/09/07 11:15:31  5-MIN KMKG 091615Z 08007KT 10SM SCT085 18/14 A2997 580 81 1100 090/07 RMK AO2
14840KMKG MKG20070509112009605/09/07 11:20:31  5-MIN KMKG 091620Z 08008KT 10SM SCT085 18/14 A2997 580 78 1100 090/08 RMK AO2
14840KMKG MKG20070509112509605/09/07 11:25:31  5-MIN KMKG 091625Z 08006KT 10SM SCT085 18/14 A2998 580 78 1100 090/06 RMK AO2
14840KMKG MKG20070509113009605/09/07 11:30:31  5-MIN KMKG 091630Z VRB05KT 10SM SCT085 19/15 A2998 580 78 1200 VRB/05 RMK AO2
14840KMKG MKG20070509113509605/09/07 11:35:31  5-MIN KMKG 091635Z 10007KT 10SM SCT085 19/14 A2998 570 72 1300 110/07 RMK AO2
14840KMKG MKG20070509114009605/09/07 11:40:31  5-MIN KMKG 091640Z 09007KT 10SM SCT085 19/14 A2998 570 72 1300 100/07 RMK AO2
14840KMKG MKG20070509114509605/09/07 11:45:31  5-MIN KMKG 091645Z 08006KT 10SM SCT085 19/14 A2998 570 72 1300 090/06 RMK AO2
14840KMKG MKG20070509115011305/09/07 11:50:31  5-MIN KMKG 091650Z 11007KT 10SM SCT085 19/14 A2998 580 72 1300 110/07 RMK AO2 SLP150 T01940144
14840KMKG MKG20070509115511305/09/07 11:55:31  5-MIN KMKG 091655Z 11007KT 10SM SCT085 19/14 A2998 580 72 1300 110/07 RMK AO2 SLP150 T01940144
14840KMKG MKG20070509120009605/09/07 12:00:31  5-MIN KMKG 091700Z 10007KT 10SM SCT085 19/14 A2997 580 72 1300 100/07 RMK AO2
14840KMKG MKG20070509120509605/09/07 12:05:31  5-MIN KMKG 091705Z 09007KT 10SM SCT085 20/14 A2998 580 70 1300 090/07 RMK AO2
14840KMKG MKG20070509121009605/09/07 12:10:31  5-MIN KMKG 091710Z 11005KT 10SM SCT085 20/14 A2998 580 70 1300 110/05 RMK AO2
14840KMKG MKG20070509121509605/09/07 12:15:31  5-MIN KMKG 091715Z 12006KT 10SM SCT085 21/15 A2998 580 70 1400 120/06 RMK AO2
14840KMKG MKG20070509122009605/09/07 12:20:31  5-MIN KMKG 091720Z 10005KT 10SM SCT085 21/14 A2998 580 67 1400 100/05 RMK AO2
14840KMKG MKG20070509122509605/09/07 12:25:31  5-MIN KMKG 091725Z 11006KT 10SM SCT085 21/14 A2998 580 67 1400 110/06 RMK AO2
14840KMKG MKG20070509123009605/09/07 12:30:31  5-MIN KMKG 091730Z VRB04KT 10SM SCT085 21/14 A2997 580 67 1400 VRB/04 RMK AO2
14840KMKG MKG20070509123509605/09/07 12:35:31  5-MIN KMKG 091735Z 13006KT 10SM SCT085 21/14 A2997 580 67 1400 140/06 RMK AO2
14840KMKG MKG20070509124009605/09/07 12:40:31  5-MIN KMKG 091740Z 15006KT 10SM FEW100 21/14 A2997 580 65 1500 150/06 RMK AO2
14840KMKG MKG20070509124509605/09/07 12:45:31  5-MIN KMKG 091745Z 13005KT 10SM FEW100 21/14 A2997 580 65 1500 140/05 RMK AO2
14840KMKG MKG20070509125013705/09/07 12:50:31  5-MIN KMKG 091750Z 14006KT 10SM FEW100 21/14 A2997 590 65 1500 150/06 RMK AO2 SLP147 60025 T02110144 10211 20156 58004
14840KMKG MKG20070509125513705/09/07 12:55:31  5-MIN KMKG 091755Z 13004KT 10SM FEW100 21/14 A2997 590 63 1500 140/04 RMK AO2 SLP147 60025 T02110139 10211 20156 56009
14840KMKG MKG20070509130009605/09/07 13:00:31  5-MIN KMKG 091800Z 10003KT 10SM FEW100 21/13 A2997 590 61 1500 100/03 RMK AO2
14840KMKG MKG20070509130509605/09/07 13:05:31  5-MIN KMKG 091805Z 00000KT 10SM SCT075 22/13 A2997 580 56 1600 000/00 RMK AO2
14840KMKG MKG20070509131009605/09/07 13:10:31  5-MIN KMKG 091810Z 00000KT 10SM BKN075 22/13 A2997 580 58 1500 000/00 RMK AO2
14840KMKG MKG20070509131509605/09/07 13:15:31  5-MIN KMKG 091815Z 00000KT 10SM BKN075 22/14 A2997 580 61 1500 000/00 RMK AO2
14840KMKG MKG20070509132009605/09/07 13:20:31  5-MIN KMKG 091820Z 13003KT 10SM BKN075 22/14 A2997 580 59 1600 130/03 RMK AO2
14840KMKG MKG20070509132509605/09/07 13:25:31  5-MIN KMKG 091825Z 11003KT 10SM BKN080 22/14 A2997 580 61 1500 120/03 RMK AO2
14840KMKG MKG20070509133009605/09/07 13:30:31  5-MIN KMKG 091830Z 00000KT 10SM BKN075 23/14 A2997 590 59 1700 000/00 RMK AO2
14840KMKG MKG20070509133509605/09/07 13:35:31  5-MIN KMKG 091835Z 08003KT 10SM BKN080 22/14 A2997 580 61 1600 080/03 RMK AO2
14840KMKG MKG20070509134009605/09/07 13:40:31  5-MIN KMKG 091840Z 00000KT 10SM BKN080 23/14 A2997 580 57 1700 000/00 RMK AO2
14840KMKG MKG20070509134509605/09/07 13:45:31  5-MIN KMKG 091845Z 25005KT 10SM BKN075 22/14 A2997 590 61 1500 250/05 RMK AO2
14840KMKG MKG20070509135011305/09/07 13:50:31  5-MIN KMKG 091850Z 00000KT 10SM SCT075 22/15 A2996 590 63 1600 000/00 RMK AO2 SLP145 T02220150
14840KMKG MKG20070509135511305/09/07 13:55:31  5-MIN KMKG 091855Z 23006KT 10SM SCT075 22/15 A2996 590 63 1600 240/06 RMK AO2 SLP145 T02220150
14840KMKG MKG20070509140009605/09/07 14:00:31  5-MIN KMKG 091900Z 24005KT 10SM FEW075 22/15 A2996 590 63 1600 240/05 RMK AO2
14840KMKG MKG20070509140509605/09/07 14:05:31  5-MIN KMKG 091905Z 26004KT 10SM SCT070 22/15 A2996 590 63 1600 260/04 RMK AO2
14840KMKG MKG20070509141009605/09/07 14:10:31  5-MIN KMKG 091910Z 26007KT 10SM BKN070 22/15 A2996 590 63 1600 270/07 RMK AO2
14840KMKG MKG20070509141509605/09/07 14:15:31  5-MIN KMKG 091915Z 25006KT 10SM SCT070 23/15 A2996 590 61 1700 260/06 RMK AO2
14840KMKG MKG20070509142009605/09/07 14:20:31  5-MIN KMKG 091920Z 24006KT 10SM SCT070 22/15 A2996 590 63 1600 250/06 RMK AO2
14840KMKG MKG20070509142509605/09/07 14:25:31  5-MIN KMKG 091925Z 25007KT 10SM SCT075 22/15 A2996 590 63 1600 260/07 RMK AO2
14840KMKG MKG20070509143009605/09/07 14:30:31  5-MIN KMKG 091930Z 25006KT 10SM SCT075 22/15 A2996 590 63 1600 250/06 RMK AO2
14840KMKG MKG20070509143509605/09/07 14:35:31  5-MIN KMKG 091935Z 23007KT 10SM SCT080 22/15 A2996 590 63 1600 240/07 RMK AO2
14840KMKG MKG20070509144009605/09/07 14:40:31  5-MIN KMKG 091940Z 23007KT 10SM BKN080 22/14 A2996 590 63 1500 240/07 RMK AO2
14840KMKG MKG20070509144509605/09/07 14:45:31  5-MIN KMKG 091945Z 27007KT 10SM BKN075 22/14 A2996 590 61 1600 270/07 RMK AO2
14840KMKG MKG20070509145011305/09/07 14:50:31  5-MIN KMKG 091950Z 27007KT 10SM BKN080 22/14 A2996 590 61 1600 270/07 RMK AO2 SLP143 T02220144
14840KMKG MKG20070509145511305/09/07 14:55:31  5-MIN KMKG 091955Z 24006KT 10SM BKN075 22/14 A2996 600 61 1600 240/06 RMK AO2 SLP142 T02220144
14840KMKG MKG20070509150009605/09/07 15:00:31  5-MIN KMKG 092000Z 24006KT 10SM BKN075 23/15 A2996 600 61 1700 240/06 RMK AO2
14840KMKG MKG20070509150509605/09/07 15:05:31  5-MIN KMKG 092005Z 23008KT 10SM BKN075 22/14 A2995 600 61 1600 230/08 RMK AO2
14840KMKG MKG20070509151009605/09/07 15:10:31  5-MIN KMKG 092010Z 24008KT 10SM SCT080 22/14 A2995 600 61 1600 250/08 RMK AO2
14840KMKG MKG20070509151509605/09/07 15:15:31  5-MIN KMKG 092015Z 22008KT 10SM FEW080 22/14 A2995 600 59 1600 230/08 RMK AO2
14840KMKG MKG20070509152009605/09/07 15:20:31  5-MIN KMKG 092020Z 23006KT 10SM FEW075 22/13 A2995 600 56 1600 240/06 RMK AO2
14840KMKG MKG20070509152509605/09/07 15:25:31  5-MIN KMKG 092025Z 27007KT 10SM FEW080 22/13 A2995 610 54 1600 270/07 RMK AO2
14840KMKG MKG20070509153009305/09/07 15:30:31  5-MIN KMKG 092030Z 25007KT 10SM CLR 22/13 A2995 600 54 1600 260/07 RMK AO2
14840KMKG MKG20070509153509305/09/07 15:35:31  5-MIN KMKG 092035Z 25007KT 10SM CLR 22/14 A2995 610 59 1600 260/07 RMK AO2
14840KMKG MKG20070509154009305/09/07 15:40:31  5-MIN KMKG 092040Z 25008KT 10SM CLR 22/14 A2995 610 61 1600 260/08 RMK AO2
14840KMKG MKG20070509154509305/09/07 15:45:31  5-MIN KMKG 092045Z 27006KT 10SM CLR 21/14 A2995 610 65 1500 270/06 RMK AO2
14840KMKG MKG20070509155011905/09/07 15:50:31  5-MIN KMKG 092050Z 26007KT 10SM FEW065 21/14 A2994 610 65 1500 270/07 RMK AO2 SLP138 T02110144 56009
14840KMKG MKG20070509155511905/09/07 15:55:31  5-MIN KMKG 092055Z 25006KT 10SM FEW065 21/14 A2994 610 65 1400 250/06 RMK AO2 SLP137 T02060139 58009
14840KMKG MKG20070509160009305/09/07 16:00:31  5-MIN KMKG 092100Z 27007KT 10SM CLR 20/14 A2994 610 67 1400 270/07 RMK AO2
14840KMKG MKG20070509160509305/09/07 16:05:31  5-MIN KMKG 092105Z 26007KT 10SM CLR 19/14 A2994 610 70 1300 260/07 RMK AO2
14840KMKG MKG20070509161009305/09/07 16:10:31  5-MIN KMKG 092110Z 29005KT 10SM CLR 19/14 A2994 610 70 1300 290/05 RMK AO2
14840KMKG MKG20070509161509305/09/07 16:15:31  5-MIN KMKG 092115Z 29007KT 10SM CLR 20/14 A2995 610 67 1400 290/07 RMK AO2
14840KMKG MKG20070509162009305/09/07 16:20:31  5-MIN KMKG 092120Z 27007KT 10SM CLR 20/14 A2995 610 67 1400 280/07 RMK AO2
14840KMKG MKG20070509162509305/09/07 16:25:31  5-MIN KMKG 092125Z 26006KT 10SM CLR 19/13 A2995 610 67 1300 260/06 RMK AO2
14840KMKG MKG20070509163009605/09/07 16:30:31  5-MIN KMKG 092130Z 27005KT 10SM FEW110 19/13 A2994 610 70 1200 280/05 RMK AO2
14840KMKG MKG20070509163509605/09/07 16:35:31  5-MIN KMKG 092135Z 29005KT 10SM FEW110 19/14 A2994 610 70 1300 290/05 RMK AO2
14840KMKG MKG20070509164009605/09/07 16:40:31  5-MIN KMKG 092140Z 27004KT 10SM FEW110 19/14 A2994 610 70 1300 270/04 RMK AO2
14840KMKG MKG20070509164509605/09/07 16:45:31  5-MIN KMKG 092145Z 22006KT 10SM FEW110 19/14 A2994 610 72 1200 230/06 RMK AO2
14840KMKG MKG20070509165011305/09/07 16:50:31  5-MIN KMKG 092150Z 23006KT 10SM FEW110 19/13 A2994 610 70 1200 240/06 RMK AO2 SLP138 T01890133
14840KMKG MKG20070509165512005/09/07 16:55:31  5-MIN KMKG 092155Z 26005KT 10SM FEW065 SCT110 19/13 A2994 610 70 1200 260/05 RMK AO2 SLP139 T01890133
14840KMKG MKG20070509170010305/09/07 17:00:31  5-MIN KMKG 092200Z 26005KT 10SM FEW065 SCT110 18/13 A2994 610 72 1200 260/05 RMK AO2
14840KMKG MKG20070509170510305/09/07 17:05:31  5-MIN KMKG 092205Z 27005KT 10SM FEW065 SCT110 18/13 A2994 610 72 1200 270/05 RMK AO2
14840KMKG MKG20070509171010305/09/07 17:10:31  5-MIN KMKG 092210Z 24006KT 10SM FEW065 SCT110 18/13 A2994 610 72 1200 240/06 RMK AO2
14840KMKG MKG20070509171510305/09/07 17:15:31  5-MIN KMKG 092215Z 26006KT 10SM FEW065 SCT110 18/13 A2994 610 75 1100 260/06 RMK AO2
14840KMKG MKG20070509172010305/09/07 17:20:31  5-MIN KMKG 092220Z 26005KT 10SM FEW065 SCT110 18/13 A2994 610 75 1100 260/05 RMK AO2
14840KMKG MKG20070509172510305/09/07 17:25:31  5-MIN KMKG 092225Z 24004KT 10SM FEW065 SCT110 19/14 A2994 610 72 1300 240/04 RMK AO2
14840KMKG MKG20070509173010305/09/07 17:30:31  5-MIN KMKG 092230Z 24005KT 10SM FEW065 SCT110 18/14 A2994 610 75 1200 240/05 RMK AO2
14840KMKG MKG20070509173510305/09/07 17:35:31  5-MIN KMKG 092235Z 25006KT 10SM FEW065 SCT110 18/14 A2994 610 75 1200 250/06 RMK AO2
14840KMKG MKG20070509174010305/09/07 17:40:31  5-MIN KMKG 092240Z 26005KT 10SM FEW065 SCT110 19/14 A2994 610 72 1200 270/05 RMK AO2
14840KMKG MKG20070509174510305/09/07 17:45:31  5-MIN KMKG 092245Z 26004KT 10SM FEW065 SCT110 19/13 A2994 610 70 1200 260/04 RMK AO2
14840KMKG MKG20070509175012005/09/07 17:50:31  5-MIN KMKG 092250Z 25004KT 10SM FEW065 SCT100 18/13 A2994 610 72 1200 260/04 RMK AO2 SLP139 T01830133
14840KMKG MKG20070509175512005/09/07 17:55:31  5-MIN KMKG 092255Z 27003KT 10SM FEW065 SCT100 18/13 A2994 610 75 1100 270/03 RMK AO2 SLP138 T01780133
14840KMKG MKG20070509180010305/09/07 18:00:31  5-MIN KMKG 092300Z 24003KT 10SM FEW065 SCT100 18/13 A2994 610 75 1100 240/03 RMK AO2
14840KMKG MKG20070509180510305/09/07 18:05:31  5-MIN KMKG 092305Z 23004KT 10SM FEW065 SCT100 18/13 A2994 610 75 1100 240/04 RMK AO2
14840KMKG MKG20070509181010305/09/07 18:10:31  5-MIN KMKG 092310Z 24003KT 10SM FEW065 SCT100 18/13 A2994 620 75 1100 240/03 RMK AO2
14840KMKG MKG20070509181510305/09/07 18:15:31  5-MIN KMKG 092315Z 00000KT 10SM FEW065 SCT100 18/13 A2994 620 75 1100 000/00 RMK AO2
14840KMKG MKG20070509182010305/09/07 18:20:31  5-MIN KMKG 092320Z 22003KT 10SM FEW065 SCT100 18/13 A2994 620 75 1100 220/03 RMK AO2
14840KMKG MKG20070509182510305/09/07 18:25:31  5-MIN KMKG 092325Z 00000KT 10SM FEW065 SCT100 18/14 A2994 620 78 1100 000/00 RMK AO2
14840KMKG MKG20070509183010305/09/07 18:30:31  5-MIN KMKG 092330Z 00000KT 10SM FEW065 SCT100 18/14 A2994 610 75 1200 000/00 RMK AO2
14840KMKG MKG20070509183510305/09/07 18:35:31  5-MIN KMKG 092335Z 00000KT 10SM FEW065 SCT100 18/14 A2994 610 75 1200 000/00 RMK AO2
14840KMKG MKG20070509184010305/09/07 18:40:31  5-MIN KMKG 092340Z 00000KT 10SM FEW065 SCT100 18/14 A2994 610 78 1100 000/00 RMK AO2
14840KMKG MKG20070509184510305/09/07 18:45:31  5-MIN KMKG 092345Z 00000KT 10SM FEW065 SCT100 18/14 A2994 620 75 1200 000/00 RMK AO2
14840KMKG MKG20070509185013805/09/07 18:50:31  5-MIN KMKG 092350Z 00000KT 10SM FEW065 SCT100 18/14 A2994 620 78 1100 000/00 RMK AO2 SLP137 T01780139 10228 20178 58009
14840KMKG MKG20070509185513805/09/07 18:55:31  5-MIN KMKG 092355Z 28003KT 10SM FEW065 BKN110 18/14 A2993 620 78 1100 280/03 RMK AO2 SLP136 T01780139 10228 20178 58002
14840KMKG MKG20070509190009605/09/07 19:00:31  5-MIN KMKG 100000Z 27004KT 10SM OVC110 18/13 A2993 620 75 1100 280/04 RMK AO2
14840KMKG MKG20070509190509605/09/07 19:05:31  5-MIN KMKG 100005Z 27003KT 10SM OVC110 18/13 A2993 620 75 1100 280/03 RMK AO2
14840KMKG MKG20070509191009605/09/07 19:10:31  5-MIN KMKG 100010Z 26003KT 10SM OVC110 17/13 A2994 620 78 1100 270/03 RMK AO2
14840KMKG MKG20070509191509605/09/07 19:15:31  5-MIN KMKG 100015Z 26003KT 10SM OVC110 17/14 A2994 610 80 1100 260/03 RMK AO2
14840KMKG MKG20070509192009605/09/07 19:20:31  5-MIN KMKG 100020Z 00000KT 10SM OVC110 17/14 A2994 620 80 1100 000/00 RMK AO2
14840KMKG MKG20070509192509605/09/07 19:25:31  5-MIN KMKG 100025Z 00000KT 10SM OVC110 17/14 A2994 620 80 1100 000/00 RMK AO2
14840KMKG MKG20070509193009605/09/07 19:30:31  5-MIN KMKG 100030Z 24003KT 10SM OVC110 17/14 A2993 620 80 1100 250/03 RMK AO2
14840KMKG MKG20070509193509605/09/07 19:35:31  5-MIN KMKG 100035Z 00000KT 10SM OVC110 17/14 A2993 620 80 1100 000/00 RMK AO2
14840KMKG MKG20070509194009605/09/07 19:40:31  5-MIN KMKG 100040Z 00000KT 10SM OVC120 17/14 A2993 620 83 1000 000/00 RMK AO2
14840KMKG MKG20070509194509605/09/07 19:45:31  5-MIN KMKG 100045Z 30003KT 10SM BKN110 17/14 A2994 620 83 1000 300/03 RMK AO2
14840KMKG MKG20070509195011305/09/07 19:50:31  5-MIN KMKG 100050Z 00000KT 10SM BKN110 17/14 A2994 620 83 1000 000/00 RMK AO2 SLP137 T01670139
14840KMKG MKG20070509195511305/09/07 19:55:31  5-MIN KMKG 100055Z 00000KT 10SM BKN110 17/13 A2993 620 80 1000 000/00 RMK AO2 SLP136 T01670133
14840KMKG MKG20070509200009605/09/07 20:00:31  5-MIN KMKG 100100Z 35003KT 10SM BKN110 17/14 A2993 620 83 1000 350/03 RMK AO2
14840KMKG MKG20070509200509605/09/07 20:05:31  5-MIN KMKG 100105Z 00000KT 10SM BKN110 17/14 A2993 620 83 1000 000/00 RMK AO2
14840KMKG MKG20070509201009605/09/07 20:10:31  5-MIN KMKG 100110Z 00000KT 10SM BKN110 17/14 A2994 620 83 1000 000/00 RMK AO2
14840KMKG MKG20070509201509505/09/07 20:15:31  5-MIN KMKG 100115Z 27003KT 10SM BKN110 16/14 A2993 620 86 900 270/03 RMK AO2
14840KMKG MKG20070509202009505/09/07 20:20:31  5-MIN KMKG 100120Z 27003KT 10SM BKN110 16/13 A2993 620 86 900 280/03 RMK AO2
14840KMKG MKG20070509202509505/09/07 20:25:31  5-MIN KMKG 100125Z 00000KT 10SM SCT110 16/13 A2993 620 86 900 000/00 RMK AO2
14840KMKG MKG20070509203009505/09/07 20:30:31  5-MIN KMKG 100130Z 27003KT 10SM SCT110 16/14 A2994 620 86 900 280/03 RMK AO2
14840KMKG MKG20070509203509505/09/07 20:35:31  5-MIN KMKG 100135Z 26003KT 10SM FEW110 16/13 A2994 620 86 900 260/03 RMK AO2
14840KMKG MKG20070509204009505/09/07 20:40:31  5-MIN KMKG 100140Z 27003KT 10SM FEW110 15/13 A2994 620 90 800 270/03 RMK AO2
14840KMKG MKG20070509204509205/09/07 20:45:31  5-MIN KMKG 100145Z 28003KT 10SM CLR 15/13 A2994 610 90 800 280/03 RMK AO2
14840KMKG MKG20070509205010905/09/07 20:50:31  5-MIN KMKG 100150Z 00000KT 10SM CLR 15/13 A2994 610 90 800 000/00 RMK AO2 SLP137 T01500133
14840KMKG MKG20070509205511205/09/07 20:55:31  5-MIN KMKG 100155Z 00000KT 10SM SCT110 14/13 A2994 610 93 700 000/00 RMK AO2 SLP138 T01440133
14840KMKG MKG20070509210009205/09/07 21:00:31  5-MIN KMKG 100200Z 00000KT 10SM CLR 15/13 A2994 610 90 800 000/00 RMK AO2
14840KMKG MKG20070509210509505/09/07 21:05:31  5-MIN KMKG 100205Z 36004KT 10SM FEW090 15/13 A2994 610 90 800 360/04 RMK AO2
14840KMKG MKG20070509211009505/09/07 21:10:31  5-MIN KMKG 100210Z 00000KT 10SM SCT090 15/13 A2994 610 90 800 000/00 RMK AO2
14840KMKG MKG20070509211509505/09/07 21:15:31  5-MIN KMKG 100215Z 35003KT 10SM BKN090 16/13 A2994 610 86 900 350/03 RMK AO2
14840KMKG MKG20070509212009505/09/07 21:20:31  5-MIN KMKG 100220Z 34003KT 10SM BKN090 16/13 A2995 600 86 800 350/03 RMK AO2
14840KMKG MKG20070509212509505/09/07 21:25:31  5-MIN KMKG 100225Z 34003KT 10SM BKN090 16/14 A2995 600 90 800 340/03 RMK AO2
14840KMKG MKG20070509213009505/09/07 21:30:31  5-MIN KMKG 100230Z 33003KT 10SM BKN090 16/14 A2995 600 90 800 340/03 RMK AO2
14840KMKG MKG20070509213509505/09/07 21:35:31  5-MIN KMKG 100235Z 00000KT 10SM BKN085 16/14 A2995 600 90 800 000/00 RMK AO2
14840KMKG MKG20070509214009505/09/07 21:40:31  5-MIN KMKG 100240Z 00000KT 10SM OVC085 16/14 A2995 600 86 900 000/00 RMK AO2
14840KMKG MKG20070509214509505/09/07 21:45:31  5-MIN KMKG 100245Z 00000KT 10SM OVC080 16/14 A2995 600 86 900 000/00 RMK AO2
14840KMKG MKG20070509215012505/09/07 21:50:31  5-MIN KMKG 100250Z 00000KT 10SM BKN080 OVC100 16/14 A2995 600 86 900 000/00 RMK AO2 SLP142 T01610139 58002
14840KMKG MKG20070509215512505/09/07 21:55:31  5-MIN KMKG 100255Z 00000KT 10SM BKN080 OVC100 16/13 A2995 600 86 800 000/00 RMK AO2 SLP142 T01560133 53005
14840KMKG MKG20070509220009505/09/07 22:00:31  5-MIN KMKG 100300Z 00000KT 10SM OVC090 16/13 A2995 600 83 900 000/00 RMK AO2
14840KMKG MKG20070509220509505/09/07 22:05:31  5-MIN KMKG 100305Z 00000KT 10SM OVC095 16/13 A2995 610 83 900 000/00 RMK AO2
14840KMKG MKG20070509221009505/09/07 22:10:31  5-MIN KMKG 100310Z 00000KT 10SM OVC095 16/13 A2995 600 83 900 000/00 RMK AO2
14840KMKG MKG20070509221509505/09/07 22:15:31  5-MIN KMKG 100315Z 34003KT 10SM OVC095 16/14 A2995 600 86 900 350/03 RMK AO2
14840KMKG MKG20070509222009505/09/07 22:20:31  5-MIN KMKG 100320Z 00000KT 10SM OVC095 16/14 A2995 600 86 900 000/00 RMK AO2
14840KMKG MKG20070509222509505/09/07 22:25:31  5-MIN KMKG 100325Z 00000KT 10SM OVC100 16/14 A2995 600 86 900 000/00 RMK AO2
14840KMKG MKG20070509223009505/09/07 22:30:31  5-MIN KMKG 100330Z 00000KT 10SM OVC100 16/14 A2995 600 90 800 000/00 RMK AO2
14840KMKG MKG20070509223509505/09/07 22:35:31  5-MIN KMKG 100335Z 00000KT 10SM OVC100 16/14 A2995 600 86 900 000/00 RMK AO2
14840KMKG MKG20070509224009505/09/07 22:40:31  5-MIN KMKG 100340Z 00000KT 10SM OVC100 16/13 A2995 600 83 900 000/00 RMK AO2
14840KMKG MKG20070509224509505/09/07 22:45:31  5-MIN KMKG 100345Z 00000KT 10SM OVC095 16/13 A2995 600 83 900 000/00 RMK AO2
14840KMKG MKG20070509225011205/09/07 22:50:31  5-MIN KMKG 100350Z 00000KT 10SM OVC095 16/13 A2995 600 83 900 000/00 RMK AO2 SLP141 T01610133
14840KMKG MKG20070509225511205/09/07 22:55:31  5-MIN KMKG 100355Z 00000KT 10SM OVC095 16/13 A2995 600 86 800 000/00 RMK AO2 SLP141 T01560133
14840KMKG MKG20070509230009505/09/07 23:00:31  5-MIN KMKG 100400Z 00000KT 10SM OVC095 15/13 A2995 600 90 800 000/00 RMK AO2
14840KMKG MKG20070509230509505/09/07 23:05:31  5-MIN KMKG 100405Z 00000KT 10SM BKN095 14/13 A2995 610 93 700 000/00 RMK AO2
14840KMKG MKG20070509231009505/09/07 23:10:31  5-MIN KMKG 100410Z 00000KT 10SM BKN095 14/13 A2994 610 93 700 000/00 RMK AO2
14840KMKG MKG20070509231509505/09/07 23:15:31  5-MIN KMKG 100415Z 00000KT 10SM BKN095 14/13 A2995 610 93 700 000/00 RMK AO2
14840KMKG MKG20070509232009505/09/07 23:20:31  5-MIN KMKG 100420Z 00000KT 10SM BKN095 14/13 A2995 610 93 700 000/00 RMK AO2
14840KMKG MKG20070509232509505/09/07 23:25:31  5-MIN KMKG 100425Z 00000KT 10SM BKN090 16/13 A2995 610 86 900 000/00 RMK AO2
14840KMKG MKG20070509233009505/09/07 23:30:31  5-MIN KMKG 100430Z 00000KT 10SM BKN090 16/13 A2995 600 86 900 000/00 RMK AO2
14840KMKG MKG20070509233509505/09/07 23:35:31  5-MIN KMKG 100435Z 00000KT 10SM BKN090 16/13 A2995 610 86 900 000/00 RMK AO2
14840KMKG MKG20070509234009505/09/07 23:40:31  5-MIN KMKG 100440Z 00000KT 10SM BKN090 16/13 A2995 600 86 900 000/00 RMK AO2
14840KMKG MKG20070509234509505/09/07 23:45:31  5-MIN KMKG 100445Z 00000KT 10SM BKN090 16/13 A2995 600 86 800 000/00 RMK AO2
14840KMKG MKG20070509235012205/09/07 23:50:31  5-MIN KMKG 100450Z 00000KT 10SM BKN090 16/14 A2995 600 90 800 000/00 RMK AO2 SLP141 T01560139 402280139
14840KMKG MKG20070509235512205/09/07 23:55:31  5-MIN KMKG 100455Z 00000KT 10SM BKN090 15/13 A2995 600 90 800 000/00 RMK AO2 SLP141 T01500133 402280139
14840KMKG MKG20070510000009505/10/07 00:00:32  5-MIN KMKG 100500Z 35003KT 10SM BKN090 15/13 A2995 600 90 800 350/03 RMK AO2
14840KMKG MKG20070510000509505/10/07 00:05:31  5-MIN KMKG 100505Z 35003KT 10SM BKN090 14/13 A2995 600 90 700 350/03 RMK AO2
14840KMKG MKG20070510001009505/10/07 00:10:31  5-MIN KMKG 100510Z 35003KT 10SM BKN090 14/13 A2995 600 90 700 350/03 RMK AO2
14840KMKG MKG20070510001509505/10/07 00:15:31  5-MIN KMKG 100515Z 00000KT 10SM BKN090 14/13 A2995 600 90 700 000/00 RMK AO2
14840KMKG MKG20070510002009505/10/07 00:20:31  5-MIN KMKG 100520Z 00000KT 10SM BKN090 15/13 A2995 600 86 800 000/00 RMK AO2
14840KMKG MKG20070510002509505/10/07 00:25:31  5-MIN KMKG 100525Z 00000KT 10SM BKN090 15/13 A2995 600 86 800 000/00 RMK AO2
14840KMKG MKG20070510003009505/10/07 00:30:31  5-MIN KMKG 100530Z 00000KT 10SM BKN090 16/13 A2995 600 86 800 000/00 RMK AO2
14840KMKG MKG20070510003509505/10/07 00:35:31  5-MIN KMKG 100535Z 00000KT 10SM SCT090 16/13 A2995 600 86 800 000/00 RMK AO2
14840KMKG MKG20070510004009505/10/07 00:40:31  5-MIN KMKG 100540Z 00000KT 10SM FEW090 14/13 A2995 600 93 700 000/00 RMK AO2
14840KMKG MKG20070510004509505/10/07 00:45:31  5-MIN KMKG 100545Z 00000KT 10SM FEW085 14/13 A2995 610 93 700 000/00 RMK AO2
14840KMKG MKG20070510005013005/10/07 00:50:31  5-MIN KMKG 100550Z 00000KT 10SM SCT085 14/13 A2995 610 93 700 000/00 RMK AO2 SLP140 T01390128 10178 20139 53005
14840KMKG MKG20070510005513005/10/07 00:55:31  5-MIN KMKG 100555Z 00000KT 10SM SCT085 14/13 A2995 600 93 700 000/00 RMK AO2 SLP140 T01390128 10178 20139 58001
14840KMKG MKG20070510010010205/10/07 01:00:31  5-MIN KMKG 100600Z 00000KT 10SM FEW065 SCT085 14/13 A2995 600 90 700 000/00 RMK AO2
14840KMKG MKG20070510010510205/10/07 01:05:31  5-MIN KMKG 100605Z 00000KT 10SM FEW065 BKN085 14/13 A2995 600 93 700 000/00 RMK AO2
14840KMKG MKG20070510011010205/10/07 01:10:31  5-MIN KMKG 100610Z 00000KT 10SM FEW065 BKN085 14/13 A2995 600 93 700 000/00 RMK AO2
14840KMKG MKG20070510011510205/10/07 01:15:31  5-MIN KMKG 100615Z 00000KT 10SM SCT070 BKN085 14/13 A2995 600 93 600 000/00 RMK AO2
14840KMKG MKG20070510012010205/10/07 01:20:31  5-MIN KMKG 100620Z 00000KT 10SM SCT065 BKN085 14/13 A2995 600 93 600 000/00 RMK AO2
14840KMKG MKG20070510012510205/10/07 01:25:31  5-MIN KMKG 100625Z 00000KT 10SM SCT065 BKN085 14/13 A2995 600 93 600 000/00 RMK AO2
14840KMKG MKG20070510013010205/10/07 01:30:31  5-MIN KMKG 100630Z 00000KT 10SM FEW065 BKN085 14/13 A2995 600 93 700 000/00 RMK AO2
14840KMKG MKG20070510013510205/10/07 01:35:31  5-MIN KMKG 100635Z 00000KT 10SM SCT070 OVC085 14/13 A2995 600 90 700 000/00 RMK AO2
14840KMKG MKG20070510014010205/10/07 01:40:31  5-MIN KMKG 100640Z 00000KT 10SM FEW065 BKN085 14/13 A2995 600 90 700 000/00 RMK AO2
14840KMKG MKG20070510014510205/10/07 01:45:31  5-MIN KMKG 100645Z 00000KT 10SM FEW065 BKN085 14/13 A2995 600 90 700 000/00 RMK AO2
14840KMKG MKG20070510015011205/10/07 01:50:31  5-MIN KMKG 100650Z 00000KT 10SM BKN085 14/13 A2995 600 90 700 000/00 RMK AO2 SLP141 T01440128
14840KMKG MKG20070510015511205/10/07 01:55:31  5-MIN KMKG 100655Z 00000KT 10SM BKN085 14/13 A2995 600 90 700 000/00 RMK AO2 SLP141 T01440128
14840KMKG MKG20070510020009505/10/07 02:00:31  5-MIN KMKG 100700Z 00000KT 10SM BKN085 14/13 A2995 600 90 700 000/00 RMK AO2
14840KMKG MKG20070510020509505/10/07 02:05:31  5-MIN KMKG 100705Z 00000KT 10SM BKN080 14/13 A2995 600 93 600 000/00 RMK AO2
14840KMKG MKG20070510021010205/10/07 02:10:31  5-MIN KMKG 100710Z 00000KT 10SM FEW070 BKN085 14/13 A2995 600 90 700 000/00 RMK AO2
14840KMKG MKG20070510021510205/10/07 02:15:31  5-MIN KMKG 100715Z 00000KT 10SM FEW070 BKN085 14/13 A2995 600 90 700 000/00 RMK AO2
14840KMKG MKG20070510022010205/10/07 02:20:31  5-MIN KMKG 100720Z 00000KT 10SM FEW070 OVC085 14/13 A2995 600 90 700 000/00 RMK AO2
14840KMKG MKG20070510022510205/10/07 02:25:31  5-MIN KMKG 100725Z 00000KT 10SM FEW070 BKN085 14/13 A2995 600 90 700 000/00 RMK AO2
14840KMKG MKG20070510023010205/10/07 02:30:31  5-MIN KMKG 100730Z 00000KT 10SM FEW070 BKN085 14/13 A2995 600 90 700 000/00 RMK AO2
14840KMKG MKG20070510023510205/10/07 02:35:31  5-MIN KMKG 100735Z 00000KT 10SM FEW070 BKN085 14/13 A2995 600 90 700 000/00 RMK AO2
14840KMKG MKG20070510024010205/10/07 02:40:31  5-MIN KMKG 100740Z 00000KT 10SM FEW070 OVC085 14/13 A2995 600 90 700 000/00 RMK AO2
14840KMKG MKG20070510024510205/10/07 02:45:31  5-MIN KMKG 100745Z 00000KT 10SM SCT070 OVC085 14/13 A2995 600 90 700 000/00 RMK AO2
14840KMKG MKG20070510025011905/10/07 02:50:31  5-MIN KMKG 100750Z 00000KT 10SM SCT070 OVC085 14/13 A2995 600 90 700 000/00 RMK AO2 SLP142 T01440128
14840KMKG MKG20070510025511905/10/07 02:55:31  5-MIN KMKG 100755Z 00000KT 10SM SCT070 OVC085 14/13 A2995 600 90 700 000/00 RMK AO2 SLP141 T01440128
14840KMKG MKG20070510030010205/10/07 03:00:31  5-MIN KMKG 100800Z 00000KT 10SM FEW070 BKN085 14/13 A2995 600 90 700 000/00 RMK AO2
14840KMKG MKG20070510030510205/10/07 03:05:31  5-MIN KMKG 100805Z 00000KT 10SM SCT065 BKN085 14/13 A2995 600 90 700 000/00 RMK AO2
14840KMKG MKG20070510031010205/10/07 03:10:31  5-MIN KMKG 100810Z 00000KT 10SM SCT065 BKN085 14/12 A2995 600 86 700 000/00 RMK AO2
14840KMKG MKG20070510031510205/10/07 03:15:31  5-MIN KMKG 100815Z 00000KT 10SM FEW065 SCT085 13/12 A2995 600 93 600 000/00 RMK AO2
14840KMKG MKG20070510032010205/10/07 03:20:31  5-MIN KMKG 100820Z 00000KT 10SM SCT065 SCT085 13/12 A2995 600 93 600 000/00 RMK AO2
14840KMKG MKG20070510032509405/10/07 03:25:31  5-MIN KMKG 100825Z 00000KT 9SM BKN065 13/12 A2996 600 96 500 000/00 RMK AO2
14840KMKG MKG20070510033009405/10/07 03:30:31  5-MIN KMKG 100830Z 00000KT 8SM BKN070 13/12 A2996 600 96 500 000/00 RMK AO2
14840KMKG MKG20070510033511605/10/07 03:35:31  5-MIN KMKG 100835Z 00000KT 8SM SCT065 BKN080 13/12 A2996 600 96 500 000/00 RMK AO2 CIG 065 RWY 14
14840KMKG MKG20070510034010105/10/07 03:40:31  5-MIN KMKG 100840Z 00000KT 9SM BKN070 BKN085 13/12 A2996 600 93 600 000/00 RMK AO2
14840KMKG MKG20070510034510205/10/07 03:45:31  5-MIN KMKG 100845Z 00000KT 10SM BKN065 BKN080 13/12 A2995 600 93 600 000/00 RMK AO2
14840KMKG MKG20070510035013205/10/07 03:50:31  5-MIN KMKG 100850Z 00000KT 10SM FEW055 BKN070 BKN085 13/12 A2995 600 93 600 000/00 RMK AO2 SLP142 T01330122 58001
14840KMKG MKG20070510035512505/10/07 03:55:31  5-MIN KMKG 100855Z 00000KT 10SM SCT055 BKN075 13/12 A2995 600 93 600 000/00 RMK AO2 SLP141 T01330122 51001
14840KMKG MKG20070510040010205/10/07 04:00:31  5-MIN KMKG 100900Z 00000KT 10SM SCT055 SCT080 13/12 A2995 600 93 600 000/00 RMK AO2
14840KMKG MKG20070510040510205/10/07 04:05:31  5-MIN KMKG 100905Z 00000KT 10SM FEW050 SCT080 13/12 A2995 600 93 600 000/00 RMK AO2
14840KMKG MKG20070510041009505/10/07 04:10:31  5-MIN KMKG 100910Z 00000KT 10SM FEW050 13/12 A2995 600 93 600 000/00 RMK AO2
14840KMKG MKG20070510041509505/10/07 04:15:31  5-MIN KMKG 100915Z 00000KT 10SM FEW050 13/12 A2995 600 93 600 000/00 RMK AO2
14840KMKG MKG20070510042009505/10/07 04:20:31  5-MIN KMKG 100920Z 00000KT 10SM FEW050 13/12 A2995 610 93 600 000/00 RMK AO2
14840KMKG MKG20070510042509505/10/07 04:25:31  5-MIN KMKG 100925Z 00000KT 10SM FEW070 13/12 A2995 610 93 600 000/00 RMK AO2
14840KMKG MKG20070510043009505/10/07 04:30:31  5-MIN KMKG 100930Z 00000KT 10SM FEW070 13/12 A2995 610 93 500 000/00 RMK AO2
14840KMKG MKG20070510043509505/10/07 04:35:31  5-MIN KMKG 100935Z 00000KT 10SM FEW070 13/12 A2995 610 93 500 000/00 RMK AO2
14840KMKG MKG20070510044009505/10/07 04:40:31  5-MIN KMKG 100940Z 00000KT 10SM FEW050 13/12 A2995 610 93 500 000/00 RMK AO2
14840KMKG MKG20070510044509505/10/07 04:45:31  5-MIN KMKG 100945Z 00000KT 10SM FEW070 13/12 A2995 610 93 600 000/00 RMK AO2
14840KMKG MKG20070510045011205/10/07 04:50:31  5-MIN KMKG 100950Z 00000KT 10SM FEW070 13/12 A2995 610 93 600 000/00 RMK AO2 SLP140 T01330122
14840KMKG MKG20070510045511205/10/07 04:55:31  5-MIN KMKG 100955Z 00000KT 10SM FEW070 13/12 A2995 610 93 600 000/00 RMK AO2 SLP140 T01330122
14840KMKG MKG20070510050009205/10/07 05:00:31  5-MIN KMKG 101000Z 00000KT 10SM CLR 13/12 A2994 610 93 500 000/00 RMK AO2
14840KMKG MKG20070510050509405/10/07 05:05:31  5-MIN KMKG 101005Z 00000KT 8SM FEW065 13/12 A2994 610 93 500 000/00 RMK AO2
14840KMKG MKG20070510051009405/10/07 05:10:31  5-MIN KMKG 101010Z 00000KT 7SM FEW065 13/12 A2994 610 93 500 000/00 RMK AO2
14840KMKG MKG20070510051509105/10/07 05:15:31  5-MIN KMKG 101015Z 00000KT 7SM CLR 13/12 A2994 610 93 500 000/00 RMK AO2
14840KMKG MKG20070510052009105/10/07 05:20:31  5-MIN KMKG 101020Z 00000KT 8SM CLR 13/12 A2994 610 93 500 000/00 RMK AO2
14840KMKG MKG20070510052509105/10/07 05:25:31  5-MIN KMKG 101025Z 00000KT 7SM CLR 13/12 A2994 610 93 500 000/00 RMK AO2
14840KMKG MKG20070510053010805/10/07 05:30:31  5-MIN KMKG 101030Z 00000KT 7SM CLR 13/12 A2994 610 93 500 000/00 RMK AO2 VIS 2 1/2 RWY 14
14840KMKG MKG20070510053510805/10/07 05:35:31  5-MIN KMKG 101035Z 00000KT 9SM CLR 13/12 A2994 610 93 500 000/00 RMK AO2 VIS 2 1/2 RWY 14
14840KMKG MKG20070510054010805/10/07 05:40:31  5-MIN KMKG 101040Z 00000KT 9SM CLR 13/12 A2994 610 93 500 000/00 RMK AO2 VIS 2 1/2 RWY 14
14840KMKG MKG20070510054510805/10/07 05:45:31  5-MIN KMKG 101045Z 00000KT 8SM CLR 12/12 A2994 610 96 500 000/00 RMK AO2 VIS 2 1/2 RWY 14
14840KMKG MKG20070510055012805/10/07 05:50:31  5-MIN KMKG 101050Z 00000KT 6SM BR CLR 12/12 A2994 610 96 500 000/00 RMK AO2 VIS 2 1/2 RWY 14 SLP138 T01220117
14840KMKG MKG20070510055512405/10/07 05:55:31  5-MIN KMKG 101055Z 00000KT 4SM BR CLR 12/11 A2994 610 96 400 000/00 RMK AO2 VIS 2 RWY 14 SLP139 T01170111
14840KMKG MKG20070510060011105/10/07 06:00:31  5-MIN KMKG 101100Z 00000KT 4SM BR CLR 12/11 A2994 610 93 400 000/00 RMK AO2 VIS 2 1/2 RWY 14
14840KMKG MKG20070510060511105/10/07 06:05:31  5-MIN KMKG 101105Z 00000KT 5SM BR CLR 12/11 A2994 610 96 400 000/00 RMK AO2 VIS 2 1/2 RWY 14
14840KMKG MKG20070510061010405/10/07 06:10:31  5-MIN KMKG 101110Z 00000KT 9SM CLR 12/11 A2995 610 96 400 000/00 RMK AO2 VIS 2 RWY 14
14840KMKG MKG20070510061510505/10/07 06:15:31  5-MIN KMKG 101115Z 00000KT 10SM CLR 12/11 A2995 610 96 400 000/00 RMK AO2 VIS 2 RWY 14
14840KMKG MKG20070510062009205/10/07 06:20:31  5-MIN KMKG 101120Z 00000KT 10SM CLR 12/11 A2995 600 89 500 000/00 RMK AO2
14840KMKG MKG20070510062509205/10/07 06:25:31  5-MIN KMKG 101125Z 00000KT 10SM CLR 12/11 A2995 600 93 500 000/00 RMK AO2
14840KMKG MKG20070510063009405/10/07 06:30:31  5-MIN KMKG 101130Z 00000KT 9SM FEW060 12/11 A2995 600 93 500 000/00 RMK AO2
14840KMKG MKG20070510063509405/10/07 06:35:31  5-MIN KMKG 101135Z 00000KT 9SM FEW060 13/12 A2995 600 93 600 000/00 RMK AO2
14840KMKG MKG20070510064009405/10/07 06:40:31  5-MIN KMKG 101140Z 00000KT 8SM SCT060 14/13 A2995 600 93 700 000/00 RMK AO2
14840KMKG MKG20070510064509405/10/07 06:45:31  5-MIN KMKG 101145Z 00000KT 9SM SCT060 14/13 A2995 600 93 700 000/00 RMK AO2
14840KMKG MKG20070510065013505/10/07 06:50:31  5-MIN KMKG 101150Z 00000KT 9SM SCT060 14/13 A2995 600 90 700 000/00 RMK AO2 SLP142 70025 T01440128 10144 20117 51001
14840KMKG MKG20070510065513605/10/07 06:55:31  5-MIN KMKG 101155Z 00000KT 10SM SCT060 14/13 A2995 600 90 700 000/00 RMK AO2 SLP143 70025 T01440128 10144 20117 53001
14840KMKG MKG20070510070009505/10/07 07:00:31  5-MIN KMKG 101200Z 00000KT 10SM BKN060 14/13 A2995 600 90 700 000/00 RMK AO2
14840KMKG MKG20070510070509505/10/07 07:05:31  5-MIN KMKG 101205Z 00000KT 10SM BKN060 15/13 A2995 600 90 800 000/00 RMK AO2
14840KMKG MKG20070510071009505/10/07 07:10:31  5-MIN KMKG 101210Z 08003KT 10SM SCT060 16/13 A2996 600 86 800 080/03 RMK AO2
14840KMKG MKG20070510071509505/10/07 07:15:31  5-MIN KMKG 101215Z 00000KT 10SM FEW060 16/13 A2996 600 83 800 000/00 RMK AO2
14840KMKG MKG20070510072009505/10/07 07:20:31  5-MIN KMKG 101220Z 00000KT 10SM FEW060 16/13 A2996 600 80 900 000/00 RMK AO2
14840KMKG MKG20070510072509505/10/07 07:25:31  5-MIN KMKG 101225Z 10003KT 10SM FEW060 16/13 A2996 600 80 900 100/03 RMK AO2
14840KMKG MKG20070510073009505/10/07 07:30:31  5-MIN KMKG 101230Z 10003KT 10SM FEW060 16/13 A2996 590 80 900 110/03 RMK AO2
14840KMKG MKG20070510073509305/10/07 07:35:31  5-MIN KMKG 101235Z 12003KT 10SM CLR 17/13 A2996 590 77 1000 130/03 RMK AO2
14840KMKG MKG20070510074009305/10/07 07:40:31  5-MIN KMKG 101240Z 14003KT 10SM CLR 17/13 A2996 600 80 1000 140/03 RMK AO2
14840KMKG MKG20070510074509305/10/07 07:45:31  5-MIN KMKG 101245Z 13003KT 10SM CLR 17/13 A2996 600 80 1000 130/03 RMK AO2
14840KMKG MKG20070510075011005/10/07 07:50:31  5-MIN KMKG 101250Z 11003KT 10SM CLR 17/13 A2996 600 77 1000 120/03 RMK AO2 SLP144 T01670128
14840KMKG MKG20070510075511005/10/07 07:55:31  5-MIN KMKG 101255Z 13003KT 10SM CLR 17/13 A2995 600 78 1000 130/03 RMK AO2 SLP142 T01720133
14840KMKG MKG20070510080009305/10/07 08:00:31  5-MIN KMKG 101300Z 00000KT 10SM CLR 17/13 A2995 600 78 1000 000/00 RMK AO2
14840KMKG MKG20070510080509305/10/07 08:05:31  5-MIN KMKG 101305Z 12003KT 10SM CLR 18/13 A2995 600 75 1100 120/03 RMK AO2
14840KMKG MKG20070510081009305/10/07 08:10:31  5-MIN KMKG 101310Z 00000KT 10SM CLR 18/13 A2995 600 72 1200 000/00 RMK AO2
14840KMKG MKG20070510081509305/10/07 08:15:31  5-MIN KMKG 101315Z 00000KT 10SM CLR 19/13 A2995 600 70 1200 000/00 RMK AO2
14840KMKG MKG20070510082009305/10/07 08:20:31  5-MIN KMKG 101320Z 00000KT 10SM CLR 18/13 A2995 600 72 1200 000/00 RMK AO2
14840KMKG MKG20070510082509305/10/07 08:25:31  5-MIN KMKG 101325Z 00000KT 10SM CLR 19/13 A2995 600 67 1200 000/00 RMK AO2
14840KMKG MKG20070510083009305/10/07 08:30:31  5-MIN KMKG 101330Z 14003KT 10SM CLR 19/13 A2995 600 70 1200 140/03 RMK AO2
14840KMKG MKG20070510083509305/10/07 08:35:31  5-MIN KMKG 101335Z 14003KT 10SM CLR 19/13 A2995 600 70 1200 150/03 RMK AO2
14840KMKG MKG20070510084009305/10/07 08:40:31  5-MIN KMKG 101340Z 00000KT 10SM CLR 19/13 A2995 600 67 1300 000/00 RMK AO2
14840KMKG MKG20070510084509305/10/07 08:45:31  5-MIN KMKG 101345Z 14003KT 10SM CLR 19/13 A2995 600 65 1300 140/03 RMK AO2
14840KMKG MKG20070510085011005/10/07 08:50:31  5-MIN KMKG 101350Z 14003KT 10SM CLR 19/13 A2995 600 65 1300 140/03 RMK AO2 SLP141 T01940128
14840KMKG MKG20070510085511005/10/07 08:55:31  5-MIN KMKG 101355Z 12003KT 10SM CLR 20/13 A2995 600 63 1400 120/03 RMK AO2 SLP141 T02000128
14840KMKG MKG20070510090009305/10/07 09:00:31  5-MIN KMKG 101400Z 00000KT 10SM CLR 20/13 A2995 600 63 1400 000/00 RMK AO2
14840KMKG MKG20070510090509305/10/07 09:05:31  5-MIN KMKG 101405Z 00000KT 10SM CLR 20/13 A2996 600 63 1400 000/00 RMK AO2
14840KMKG MKG20070510091009305/10/07 09:10:31  5-MIN KMKG 101410Z 00000KT 10SM CLR 21/13 A2996 600 60 1400 000/00 RMK AO2
14840KMKG MKG20070510091509305/10/07 09:15:31  5-MIN KMKG 101415Z VRB03KT 10SM CLR 21/13 A2996 600 61 1500 VRB/03 RMK AO2
14840KMKG MKG20070510092009605/10/07 09:20:31  5-MIN KMKG 101420Z 00000KT 10SM FEW085 21/13 A2996 600 58 1500 000/00 RMK AO2
14840KMKG MKG20070510092509305/10/07 09:25:31  5-MIN KMKG 101425Z 22003KT 10SM CLR 21/13 A2995 600 61 1500 220/03 RMK AO2
14840KMKG MKG20070510093009305/10/07 09:30:31  5-MIN KMKG 101430Z 21004KT 10SM CLR 21/13 A2996 600 58 1500 210/04 RMK AO2
14840KMKG MKG20070510093509305/10/07 09:35:31  5-MIN KMKG 101435Z 23003KT 10SM CLR 21/13 A2996 600 58 1500 230/03 RMK AO2
14840KMKG MKG20070510094009305/10/07 09:40:31  5-MIN KMKG 101440Z 24003KT 10SM CLR 22/12 A2996 600 54 1600 250/03 RMK AO2
14840KMKG MKG20070510094509305/10/07 09:45:31  5-MIN KMKG 101445Z 19004KT 10SM CLR 22/13 A2996 600 56 1600 200/04 RMK AO2
14840KMKG MKG20070510095011605/10/07 09:50:31  5-MIN KMKG 101450Z 00000KT 10SM CLR 22/12 A2996 600 54 1600 000/00 RMK AO2 SLP143 T02170122 53001
14840KMKG MKG20070510095511605/10/07 09:55:31  5-MIN KMKG 101455Z 22007KT 10SM CLR 22/13 A2995 600 58 1600 220/07 RMK AO2 SLP142 T02170133 53000
14840KMKG MKG20070510100009305/10/07 10:00:31  5-MIN KMKG 101500Z 24007KT 10SM CLR 22/13 A2995 600 58 1600 240/07 RMK AO2
14840KMKG MKG20070510100509305/10/07 10:05:31  5-MIN KMKG 101505Z 23007KT 10SM CLR 22/13 A2995 600 56 1600 230/07 RMK AO2
14840KMKG MKG20070510101009305/10/07 10:10:31  5-MIN KMKG 101510Z 23005KT 10SM CLR 21/13 A2996 600 61 1500 240/05 RMK AO2
14840KMKG MKG20070510101509305/10/07 10:15:31  5-MIN KMKG 101515Z 23005KT 10SM CLR 22/13 A2996 600 58 1500 240/05 RMK AO2
14840KMKG MKG20070510102009305/10/07 10:20:31  5-MIN KMKG 101520Z 23006KT 10SM CLR 22/13 A2996 590 58 1500 230/06 RMK AO2
14840KMKG MKG20070510102509305/10/07 10:25:31  5-MIN KMKG 101525Z 24008KT 10SM CLR 22/13 A2996 590 56 1600 250/08 RMK AO2
14840KMKG MKG20070510103009305/10/07 10:30:31  5-MIN KMKG 101530Z 23008KT 10SM CLR 22/13 A2996 590 56 1500 240/08 RMK AO2
14840KMKG MKG20070510103509305/10/07 10:35:31  5-MIN KMKG 101535Z 23008KT 10SM CLR 21/13 A2996 590 61 1500 230/08 RMK AO2
14840KMKG MKG20070510104009305/10/07 10:40:31  5-MIN KMKG 101540Z 24007KT 10SM CLR 21/13 A2996 590 63 1400 240/07 RMK AO2
14840KMKG MKG20070510104509605/10/07 10:45:31  5-MIN KMKG 101545Z 25007KT 10SM FEW080 21/13 A2996 590 63 1400 260/07 RMK AO2
14840KMKG MKG20070510105011305/10/07 10:50:31  5-MIN KMKG 101550Z 26008KT 10SM FEW080 21/13 A2996 590 61 1500 260/08 RMK AO2 SLP145 T02110133
14840KMKG MKG20070510105511305/10/07 10:55:31  5-MIN KMKG 101555Z 25007KT 10SM FEW080 21/13 A2997 590 60 1400 250/07 RMK AO2 SLP146 T02060128
14840KMKG MKG20070510110009605/10/07 11:00:31  5-MIN KMKG 101600Z 25008KT 10SM FEW080 21/13 A2997 590 63 1400 260/08 RMK AO2
14840KMKG MKG20070510110509605/10/07 11:05:31  5-MIN KMKG 101605Z 25006KT 10SM FEW080 21/13 A2996 590 63 1400 260/06 RMK AO2
14840KMKG MKG20070510111009605/10/07 11:10:31  5-MIN KMKG 101610Z 26007KT 10SM FEW080 21/13 A2996 590 61 1500 260/07 RMK AO2
14840KMKG MKG20070510111509605/10/07 11:15:31  5-MIN KMKG 101615Z 25007KT 10SM FEW080 21/13 A2996 590 60 1400 250/07 RMK AO2
14840KMKG MKG20070510112009605/10/07 11:20:31  5-MIN KMKG 101620Z 24006KT 10SM FEW080 21/13 A2997 590 58 1500 250/06 RMK AO2
14840KMKG MKG20070510112509605/10/07 11:25:31  5-MIN KMKG 101625Z 27008KT 10SM FEW080 21/13 A2996 590 61 1500 270/08 RMK AO2
14840KMKG MKG20070510113009605/10/07 11:30:31  5-MIN KMKG 101630Z 27007KT 10SM FEW080 21/13 A2996 590 61 1500 270/07 RMK AO2
14840KMKG MKG20070510113509605/10/07 11:35:31  5-MIN KMKG 101635Z 25007KT 10SM FEW080 21/13 A2996 590 61 1500 260/07 RMK AO2
14840KMKG MKG20070510114009605/10/07 11:40:31  5-MIN KMKG 101640Z 28008KT 10SM FEW080 21/13 A2996 590 61 1500 280/08 RMK AO2
14840KMKG MKG20070510114509605/10/07 11:45:31  5-MIN KMKG 101645Z 25008KT 10SM FEW080 22/14 A2997 590 61 1500 250/08 RMK AO2
14840KMKG MKG20070510115011305/10/07 11:50:31  5-MIN KMKG 101650Z 26007KT 10SM FEW080 21/14 A2997 590 65 1400 260/07 RMK AO2 SLP146 T02060139
14840KMKG MKG20070510115511305/10/07 11:55:31  5-MIN KMKG 101655Z 25008KT 10SM FEW080 21/14 A2996 590 65 1400 250/08 RMK AO2 SLP145 T02060139
14840KMKG MKG20070510120009605/10/07 12:00:31  5-MIN KMKG 101700Z 28006KT 10SM FEW080 21/14 A2996 590 63 1500 280/06 RMK AO2
14840KMKG MKG20070510120509605/10/07 12:05:31  5-MIN KMKG 101705Z 28006KT 10SM FEW080 21/14 A2996 590 65 1400 280/06 RMK AO2
14840KMKG MKG20070510121009605/10/07 12:10:31  5-MIN KMKG 101710Z 28006KT 10SM FEW080 21/14 A2996 590 63 1500 280/06 RMK AO2
14840KMKG MKG20070510121509605/10/07 12:15:31  5-MIN KMKG 101715Z 27005KT 10SM FEW080 21/13 A2996 600 61 1500 270/05 RMK AO2
14840KMKG MKG20070510122009605/10/07 12:20:31  5-MIN KMKG 101720Z 27007KT 10SM FEW080 22/14 A2995 600 61 1600 280/07 RMK AO2
14840KMKG MKG20070510122509605/10/07 12:25:31  5-MIN KMKG 101725Z 26007KT 10SM FEW080 21/14 A2996 600 63 1500 260/07 RMK AO2
14840KMKG MKG20070510123009605/10/07 12:30:31  5-MIN KMKG 101730Z VRB05KT 10SM FEW080 21/14 A2995 600 63 1500 VRB/05 RMK AO2
14840KMKG MKG20070510123509605/10/07 12:35:31  5-MIN KMKG 101735Z 26007KT 10SM FEW080 22/14 A2995 600 63 1600 270/07 RMK AO2
14840KMKG MKG20070510124009605/10/07 12:40:31  5-MIN KMKG 101740Z 29008KT 10SM FEW080 21/14 A2995 600 63 1500 300/08 RMK AO2
14840KMKG MKG20070510124509605/10/07 12:45:31  5-MIN KMKG 101745Z 28007KT 10SM FEW080 21/13 A2995 600 61 1500 290/07 RMK AO2
14840KMKG MKG20070510125013105/10/07 12:50:31  5-MIN KMKG 101750Z 25006KT 10SM FEW080 22/13 A2995 600 58 1600 260/06 RMK AO2 SLP141 T02170133 10222 20144 53000
14840KMKG MKG20070510125513105/10/07 12:55:31  5-MIN KMKG 101755Z 27006KT 10SM FEW080 22/13 A2995 600 58 1600 270/06 RMK AO2 SLP140 T02170133 10222 20144 58002
14840KMKG MKG20070510130009605/10/07 13:00:31  5-MIN KMKG 101800Z VRB06KT 10SM FEW080 22/13 A2995 600 56 1600 VRB/06 RMK AO2
14840KMKG MKG20070510130509605/10/07 13:05:31  5-MIN KMKG 101805Z 27007KT 10SM FEW080 22/13 A2995 600 56 1600 270/07 RMK AO2
14840KMKG MKG20070510131009605/10/07 13:10:31  5-MIN KMKG 101810Z 28006KT 10SM FEW080 22/13 A2995 600 56 1600 280/06 RMK AO2
14840KMKG MKG20070510131509605/10/07 13:15:31  5-MIN KMKG 101815Z 28008KT 10SM FEW080 22/13 A2995 610 58 1600 290/08 RMK AO2
14840KMKG MKG20070510132009605/10/07 13:20:31  5-MIN KMKG 101820Z 30007KT 10SM FEW080 22/13 A2994 610 58 1600 300/07 RMK AO2
14840KMKG MKG20070510132509605/10/07 13:25:31  5-MIN KMKG 101825Z 28008KT 10SM FEW080 22/13 A2994 610 58 1600 290/08 RMK AO2
14840KMKG MKG20070510133009805/10/07 13:30:31  5-MIN KMKG 101830Z 27006KT 10SM FEW080 22/13 A2994 610 58 1600 280/06 RMK AO2 $
14840KMKG MKG20070510133509805/10/07 13:35:31  5-MIN KMKG 101835Z 29007KT 10SM FEW080 21/13 A2994 610 58 1500 290/07 RMK AO2 $
14840KMKG MKG20070510134009805/10/07 13:40:31  5-MIN KMKG 101840Z 26007KT 10SM FEW080 21/13 A2994 610 58 1500 260/07 RMK AO2 $
14840KMKG MKG20070510134509805/10/07 13:45:31  5-MIN KMKG 101845Z 26006KT 10SM FEW080 21/13 A2994 610 58 1500 260/06 RMK AO2 $
14840KMKG MKG20070510135011505/10/07 13:50:31  5-MIN KMKG 101850Z 27006KT 10SM FEW080 22/13 A2994 610 56 1600 270/06 RMK AO2 SLP137 T02170128 $
14840KMKG MKG20070510135511505/10/07 13:55:31  5-MIN KMKG 101855Z 29005KT 10SM FEW080 22/13 A2994 610 56 1600 290/05 RMK AO2 SLP137 T02220133 $
14840KMKG MKG20070510140009805/10/07 14:00:31  5-MIN KMKG 101900Z 25007KT 10SM FEW080 22/13 A2994 610 54 1600 260/07 RMK AO2 $
14840KMKG MKG20070510140509805/10/07 14:05:31  5-MIN KMKG 101905Z 25007KT 10SM FEW080 22/12 A2994 610 54 1600 260/07 RMK AO2 $
14840KMKG MKG20070510141009805/10/07 14:10:31  5-MIN KMKG 101910Z 25007KT 10SM FEW080 22/12 A2994 610 54 1600 250/07 RMK AO2 $
14840KMKG MKG20070510141509605/10/07 14:15:31  5-MIN KMKG 101915Z 26006KT 10SM FEW080 22/12 A2994 610 52 1600 260/06 RMK AO2
14840KMKG MKG20070510142009605/10/07 14:20:31  5-MIN KMKG 101920Z 28007KT 10SM FEW080 22/13 A2994 610 54 1600 290/07 RMK AO2
14840KMKG MKG20070510142509605/10/07 14:25:31  5-MIN KMKG 101925Z 28006KT 10SM FEW080 23/12 A2994 620 51 1700 280/06 RMK AO2
14840KMKG MKG20070510143009605/10/07 14:30:31  5-MIN KMKG 101930Z 26005KT 10SM FEW080 22/12 A2993 620 52 1600 260/05 RMK AO2
14840KMKG MKG20070510143509605/10/07 14:35:31  5-MIN KMKG 101935Z 28006KT 10SM FEW080 23/12 A2993 620 51 1700 280/06 RMK AO2
14840KMKG MKG20070510144009605/10/07 14:40:31  5-MIN KMKG 101940Z 24005KT 10SM FEW080 23/12 A2993 620 51 1700 250/05 RMK AO2
14840KMKG MKG20070510144509605/10/07 14:45:31  5-MIN KMKG 101945Z VRB05KT 10SM FEW080 23/13 A2993 620 53 1700 VRB/05 RMK AO2
14840KMKG MKG20070510145011305/10/07 14:50:31  5-MIN KMKG 101950Z 26006KT 10SM FEW080 23/13 A2993 620 53 1700 270/06 RMK AO2 SLP135 T02280128
14840KMKG MKG20070510145511305/10/07 14:55:31  5-MIN KMKG 101955Z 28004KT 10SM FEW080 23/13 A2993 620 53 1700 280/04 RMK AO2 SLP134 T02280128
14840KMKG MKG20070510150009605/10/07 15:00:31  5-MIN KMKG 102000Z 29006KT 10SM FEW080 22/12 A2993 620 52 1600 290/06 RMK AO2
14840KMKG MKG20070510150509605/10/07 15:05:31  5-MIN KMKG 102005Z 28006KT 10SM FEW080 23/12 A2993 620 51 1700 280/06 RMK AO2
14840KMKG MKG20070510151009605/10/07 15:10:31  5-MIN KMKG 102010Z 23007KT 10SM FEW080 23/13 A2993 620 53 1700 240/07 RMK AO2
14840KMKG MKG20070510151509605/10/07 15:15:31  5-MIN KMKG 102015Z 24007KT 10SM FEW080 22/12 A2993 620 51 1600 250/07 RMK AO2
14840KMKG MKG20070510152009605/10/07 15:20:31  5-MIN KMKG 102020Z 26007KT 10SM FEW080 22/12 A2993 620 51 1600 260/07 RMK AO2
14840KMKG MKG20070510152509605/10/07 15:25:31  5-MIN KMKG 102025Z 24010KT 10SM FEW080 22/12 A2993 620 52 1600 250/10 RMK AO2
14840KMKG MKG20070510153009605/10/07 15:30:31  5-MIN KMKG 102030Z 24010KT 10SM FEW080 21/12 A2993 620 54 1500 240/10 RMK AO2
14840KMKG MKG20070510153509605/10/07 15:35:31  5-MIN KMKG 102035Z 26010KT 10SM FEW080 21/12 A2993 620 56 1500 260/10 RMK AO2
14840KMKG MKG20070510154009605/10/07 15:40:31  5-MIN KMKG 102040Z 26012KT 10SM FEW080 21/12 A2993 620 56 1500 260/12 RMK AO2
14840KMKG MKG20070510154509605/10/07 15:45:31  5-MIN KMKG 102045Z 26011KT 10SM FEW080 20/12 A2993 620 60 1400 260/11 RMK AO2
14840KMKG MKG20070510155011905/10/07 15:50:31  5-MIN KMKG 102050Z 26008KT 10SM FEW080 20/12 A2993 620 58 1400 260/08 RMK AO2 SLP134 T02000117 58002
14840KMKG MKG20070510155511905/10/07 15:55:31  5-MIN KMKG 102055Z 25008KT 10SM FEW080 20/12 A2993 620 58 1400 260/08 RMK AO2 SLP134 T02000117 56007
14840KMKG MKG20070510160009305/10/07 16:00:31  5-MIN KMKG 102100Z 26007KT 10SM CLR 20/12 A2993 630 58 1400 270/07 RMK AO2
14840KMKG MKG20070510160509305/10/07 16:05:31  5-MIN KMKG 102105Z 24006KT 10SM CLR 21/12 A2992 630 56 1500 250/06 RMK AO2
14840KMKG MKG20070510161009305/10/07 16:10:31  5-MIN KMKG 102110Z 26008KT 10SM CLR 21/12 A2992 630 56 1500 260/08 RMK AO2
14840KMKG MKG20070510161509305/10/07 16:15:31  5-MIN KMKG 102115Z 25006KT 10SM CLR 21/12 A2992 630 56 1500 260/06 RMK AO2
14840KMKG MKG20070510162009305/10/07 16:20:31  5-MIN KMKG 102120Z 25005KT 10SM CLR 21/12 A2992 630 54 1500 250/05 RMK AO2
14840KMKG MKG20070510162509305/10/07 16:25:31  5-MIN KMKG 102125Z 25005KT 10SM CLR 21/12 A2992 630 54 1500 250/05 RMK AO2
14840KMKG MKG20070510163009305/10/07 16:30:31  5-MIN KMKG 102130Z 25006KT 10SM CLR 22/12 A2992 630 52 1600 250/06 RMK AO2
14840KMKG MKG20070510163509305/10/07 16:35:31  5-MIN KMKG 102135Z 27006KT 10SM CLR 21/12 A2992 630 54 1500 270/06 RMK AO2
14840KMKG MKG20070510164009305/10/07 16:40:31  5-MIN KMKG 102140Z 28005KT 10SM CLR 21/12 A2992 630 54 1500 280/05 RMK AO2
14840KMKG MKG20070510164509305/10/07 16:45:31  5-MIN KMKG 102145Z 26007KT 10SM CLR 21/12 A2992 630 54 1500 260/07 RMK AO2
14840KMKG MKG20070510165011005/10/07 16:50:31  5-MIN KMKG 102150Z 25006KT 10SM CLR 21/11 A2991 640 54 1500 260/06 RMK AO2 SLP128 T02060111
14840KMKG MKG20070510165511305/10/07 16:55:31  5-MIN KMKG 102155Z 25005KT 10SM FEW090 21/11 A2991 640 54 1500 250/05 RMK AO2 SLP128 T02060111
14840KMKG MKG20070510170009305/10/07 17:00:31  5-MIN KMKG 102200Z 24005KT 10SM CLR 21/11 A2991 640 52 1500 240/05 RMK AO2
14840KMKG MKG20070510170509305/10/07 17:05:31  5-MIN KMKG 102205Z 25006KT 10SM CLR 21/12 A2991 640 54 1500 250/06 RMK AO2
14840KMKG MKG20070510171009305/10/07 17:10:31  5-MIN KMKG 102210Z 25006KT 10SM CLR 21/11 A2991 640 54 1500 260/06 RMK AO2
14840KMKG MKG20070510171509305/10/07 17:15:31  5-MIN KMKG 102215Z 26005KT 10SM CLR 21/11 A2991 640 54 1500 260/05 RMK AO2
14840KMKG MKG20070510172009305/10/07 17:20:31  5-MIN KMKG 102220Z 25005KT 10SM CLR 21/11 A2991 640 54 1500 260/05 RMK AO2
14840KMKG MKG20070510172509305/10/07 17:25:31  5-MIN KMKG 102225Z 25004KT 10SM CLR 21/11 A2991 640 54 1500 250/04 RMK AO2
14840KMKG MKG20070510173009305/10/07 17:30:31  5-MIN KMKG 102230Z 23004KT 10SM CLR 21/11 A2991 640 54 1500 240/04 RMK AO2
14840KMKG MKG20070510173509305/10/07 17:35:31  5-MIN KMKG 102235Z 24004KT 10SM CLR 21/11 A2991 640 54 1500 250/04 RMK AO2
14840KMKG MKG20070510174009305/10/07 17:40:31  5-MIN KMKG 102240Z 25004KT 10SM CLR 21/12 A2991 640 56 1500 250/04 RMK AO2
14840KMKG MKG20070510174509305/10/07 17:45:31  5-MIN KMKG 102245Z 24004KT 10SM CLR 21/11 A2990 650 54 1500 240/04 RMK AO2
14840KMKG MKG20070510175011005/10/07 17:50:31  5-MIN KMKG 102250Z 24005KT 10SM CLR 21/11 A2990 650 54 1500 240/05 RMK AO2 SLP125 T02060111
14840KMKG MKG20070510175511005/10/07 17:55:31  5-MIN KMKG 102255Z 25004KT 10SM CLR 21/11 A2990 650 54 1500 250/04 RMK AO2 SLP124 T02060111
14840KMKG MKG20070510180009305/10/07 18:00:31  5-MIN KMKG 102300Z 25004KT 10SM CLR 20/11 A2990 650 56 1400 250/04 RMK AO2
14840KMKG MKG20070510180509305/10/07 18:05:31  5-MIN KMKG 102305Z 25005KT 10SM CLR 20/11 A2990 650 56 1400 260/05 RMK AO2
14840KMKG MKG20070510181009305/10/07 18:10:31  5-MIN KMKG 102310Z 26006KT 10SM CLR 19/11 A2990 650 58 1400 270/06 RMK AO2
14840KMKG MKG20070510181509305/10/07 18:15:31  5-MIN KMKG 102315Z 25005KT 10SM CLR 19/11 A2990 650 60 1300 250/05 RMK AO2
14840KMKG MKG20070510182009305/10/07 18:20:31  5-MIN KMKG 102320Z 24005KT 10SM CLR 19/11 A2989 650 60 1300 250/05 RMK AO2
14840KMKG MKG20070510182509305/10/07 18:25:31  5-MIN KMKG 102325Z 25005KT 10SM CLR 18/11 A2989 650 60 1200 250/05 RMK AO2
14840KMKG MKG20070510183009305/10/07 18:30:31  5-MIN KMKG 102330Z 25003KT 10SM CLR 18/11 A2989 650 62 1200 260/03 RMK AO2
14840KMKG MKG20070510183509305/10/07 18:35:31  5-MIN KMKG 102335Z 24004KT 10SM CLR 18/12 A2989 660 65 1200 240/04 RMK AO2
14840KMKG MKG20070510184009305/10/07 18:40:31  5-MIN KMKG 102340Z 24003KT 10SM CLR 18/11 A2989 660 64 1200 240/03 RMK AO2
14840KMKG MKG20070510184509305/10/07 18:45:31  5-MIN KMKG 102345Z 24004KT 10SM CLR 18/11 A2989 660 64 1200 240/04 RMK AO2
14840KMKG MKG20070510185012805/10/07 18:50:31  5-MIN KMKG 102350Z 23004KT 10SM CLR 18/12 A2989 660 67 1200 240/04 RMK AO2 SLP122 T01780117 10233 20178 56007
14840KMKG MKG20070510185512805/10/07 18:55:31  5-MIN KMKG 102355Z 24004KT 10SM CLR 18/12 A2989 660 67 1200 250/04 RMK AO2 SLP122 T01780117 10233 20178 56012
14840KMKG MKG20070510190009305/10/07 19:00:31  5-MIN KMKG 110000Z 24005KT 10SM CLR 17/11 A2989 650 67 1100 240/05 RMK AO2
14840KMKG MKG20070510190509305/10/07 19:05:31  5-MIN KMKG 110005Z 24004KT 10SM CLR 17/12 A2989 650 69 1100 250/04 RMK AO2
14840KMKG MKG20070510191009305/10/07 19:10:31  5-MIN KMKG 110010Z 23004KT 10SM CLR 17/12 A2989 650 72 1000 230/04 RMK AO2
14840KMKG MKG20070510191509305/10/07 19:15:31  5-MIN KMKG 110015Z 00000KT 10SM CLR 16/12 A2989 650 75 1000 000/00 RMK AO2
14840KMKG MKG20070510192009305/10/07 19:20:31  5-MIN KMKG 110020Z 21003KT 10SM CLR 16/12 A2989 650 75 1000 220/03 RMK AO2
14840KMKG MKG20070510192509305/10/07 19:25:31  5-MIN KMKG 110025Z 21003KT 10SM CLR 16/12 A2989 650 75 1000 220/03 RMK AO2
14840KMKG MKG20070510193009205/10/07 19:30:31  5-MIN KMKG 110030Z 23003KT 10SM CLR 16/12 A2990 650 77 900 240/03 RMK AO2
14840KMKG MKG20070510193509205/10/07 19:35:31  5-MIN KMKG 110035Z 24003KT 10SM CLR 16/12 A2990 650 77 900 240/03 RMK AO2
14840KMKG MKG20070510194009205/10/07 19:40:31  5-MIN KMKG 110040Z 22003KT 10SM CLR 15/12 A2990 650 80 800 230/03 RMK AO2
14840KMKG MKG20070510194509205/10/07 19:45:31  5-MIN KMKG 110045Z 23004KT 10SM CLR 14/11 A2990 650 80 800 240/04 RMK AO2
14840KMKG MKG20070510195010905/10/07 19:50:31  5-MIN KMKG 110050Z 25004KT 10SM CLR 14/11 A2990 650 80 800 250/04 RMK AO2 SLP124 T01440111
14840KMKG MKG20070510195510905/10/07 19:55:31  5-MIN KMKG 110055Z 24003KT 10SM CLR 14/11 A2990 650 83 700 250/03 RMK AO2 SLP125 T01390111
14840KMKG MKG20070510200009205/10/07 20:00:31  5-MIN KMKG 110100Z 22004KT 10SM CLR 13/11 A2990 650 83 600 220/04 RMK AO2
14840KMKG MKG20070510200509205/10/07 20:05:31  5-MIN KMKG 110105Z 21004KT 10SM CLR 13/10 A2990 650 83 600 220/04 RMK AO2
14840KMKG MKG20070510201009205/10/07 20:10:31  5-MIN KMKG 110110Z 21004KT 10SM CLR 13/10 A2990 650 83 600 220/04 RMK AO2
14840KMKG MKG20070510201509205/10/07 20:15:31  5-MIN KMKG 110115Z 23005KT 10SM CLR 12/10 A2991 640 86 500 230/05 RMK AO2
14840KMKG MKG20070510202009205/10/07 20:20:31  5-MIN KMKG 110120Z 22004KT 10SM CLR 12/10 A2991 640 86 500 230/04 RMK AO2
14840KMKG MKG20070510202509205/10/07 20:25:31  5-MIN KMKG 110125Z 22005KT 10SM CLR 12/10 A2991 640 89 400 220/05 RMK AO2
14840KMKG MKG20070510203009205/10/07 20:30:31  5-MIN KMKG 110130Z 22004KT 10SM CLR 12/10 A2991 640 89 400 230/04 RMK AO2
14840KMKG MKG20070510203509205/10/07 20:35:31  5-MIN KMKG 110135Z 23004KT 10SM CLR 11/09 A2991 640 89 400 230/04 RMK AO2
14840KMKG MKG20070510204009205/10/07 20:40:31  5-MIN KMKG 110140Z 22003KT 10SM CLR 11/09 A2991 640 89 400 220/03 RMK AO2
14840KMKG MKG20070510204509205/10/07 20:45:31  5-MIN KMKG 110145Z 00000KT 10SM CLR 11/09 A2991 640 89 400 000/00 RMK AO2
14840KMKG MKG20070510205010905/10/07 20:50:31  5-MIN KMKG 110150Z 00000KT 10SM CLR 11/09 A2992 630 89 400 000/00 RMK AO2 SLP130 T01110094
14840KMKG MKG20070510205510905/10/07 20:55:31  5-MIN KMKG 110155Z 00000KT 10SM CLR 11/09 A2992 630 89 400 000/00 RMK AO2 SLP130 T01110094
14840KMKG MKG20070510210009205/10/07 21:00:31  5-MIN KMKG 110200Z 00000KT 10SM CLR 11/09 A2992 630 89 400 000/00 RMK AO2
14840KMKG MKG20070510210509205/10/07 21:05:31  5-MIN KMKG 110205Z 00000KT 10SM CLR 11/09 A2992 630 89 400 000/00 RMK AO2
14840KMKG MKG20070510211009205/10/07 21:10:31  5-MIN KMKG 110210Z 00000KT 10SM CLR 11/09 A2992 630 89 400 000/00 RMK AO2
14840KMKG MKG20070510211509205/10/07 21:15:31  5-MIN KMKG 110215Z 00000KT 10SM CLR 11/09 A2993 620 89 300 000/00 RMK AO2
14840KMKG MKG20070510212009205/10/07 21:20:31  5-MIN KMKG 110220Z 00000KT 10SM CLR 11/09 A2993 620 89 300 000/00 RMK AO2
14840KMKG MKG20070510212509205/10/07 21:25:31  5-MIN KMKG 110225Z 00000KT 10SM CLR 11/09 A2993 620 89 300 000/00 RMK AO2
14840KMKG MKG20070510213009205/10/07 21:30:31  5-MIN KMKG 110230Z 00000KT 10SM CLR 11/09 A2993 620 89 300 000/00 RMK AO2
14840KMKG MKG20070510213509205/10/07 21:35:31  5-MIN KMKG 110235Z 24003KT 10SM CLR 11/09 A2993 620 89 300 240/03 RMK AO2
14840KMKG MKG20070510214009205/10/07 21:40:31  5-MIN KMKG 110240Z 00000KT 10SM CLR 11/09 A2993 620 89 300 000/00 RMK AO2
14840KMKG MKG20070510214509205/10/07 21:45:31  5-MIN KMKG 110245Z 00000KT 10SM CLR 11/09 A2993 620 89 300 000/00 RMK AO2
14840KMKG MKG20070510215011505/10/07 21:50:31  5-MIN KMKG 110250Z 00000KT 10SM CLR 11/09 A2993 620 89 300 000/00 RMK AO2 SLP135 T01110094 56012
14840KMKG MKG20070510215511505/10/07 21:55:31  5-MIN KMKG 110255Z 00000KT 10SM CLR 11/09 A2993 620 89 300 000/00 RMK AO2 SLP135 T01110094 53013
14840KMKG MKG20070510220009205/10/07 22:00:31  5-MIN KMKG 110300Z 00000KT 10SM CLR 11/09 A2993 620 93 300 000/00 RMK AO2
14840KMKG MKG20070510220509205/10/07 22:05:31  5-MIN KMKG 110305Z 23003KT 10SM CLR 11/09 A2993 620 93 300 230/03 RMK AO2
14840KMKG MKG20070510221009205/10/07 22:10:31  5-MIN KMKG 110310Z 00000KT 10SM CLR 11/09 A2993 620 93 300 000/00 RMK AO2
14840KMKG MKG20070510221509205/10/07 22:15:31  5-MIN KMKG 110315Z 00000KT 10SM CLR 11/09 A2993 620 93 300 000/00 RMK AO2
14840KMKG MKG20070510222009205/10/07 22:20:31  5-MIN KMKG 110320Z 00000KT 10SM CLR 11/09 A2993 620 93 300 000/00 RMK AO2
14840KMKG MKG20070510222509205/10/07 22:25:31  5-MIN KMKG 110325Z 00000KT 10SM CLR 11/09 A2993 620 93 300 000/00 RMK AO2
14840KMKG MKG20070510223009205/10/07 22:30:31  5-MIN KMKG 110330Z 00000KT 10SM CLR 11/09 A2993 620 93 300 000/00 RMK AO2
14840KMKG MKG20070510223509205/10/07 22:35:31  5-MIN KMKG 110335Z 00000KT 10SM CLR 11/09 A2993 620 89 300 000/00 RMK AO2
14840KMKG MKG20070510224009205/10/07 22:40:31  5-MIN KMKG 110340Z 00000KT 10SM CLR 11/09 A2993 620 93 300 000/00 RMK AO2
14840KMKG MKG20070510224509205/10/07 22:45:31  5-MIN KMKG 110345Z 00000KT 10SM CLR 11/09 A2993 620 93 300 000/00 RMK AO2
14840KMKG MKG20070510225010905/10/07 22:50:31  5-MIN KMKG 110350Z 00000KT 10SM CLR 11/09 A2993 620 93 300 000/00 RMK AO2 SLP134 T01060094
14840KMKG MKG20070510225510905/10/07 22:55:31  5-MIN KMKG 110355Z 00000KT 10SM CLR 11/09 A2993 620 93 300 000/00 RMK AO2 SLP134 T01060094
14840KMKG MKG20070510230009205/10/07 23:00:31  5-MIN KMKG 110400Z 00000KT 10SM CLR 11/09 A2993 620 93 300 000/00 RMK AO2
14840KMKG MKG20070510230509205/10/07 23:05:31  5-MIN KMKG 110405Z 00000KT 10SM CLR 11/09 A2993 620 93 300 000/00 RMK AO2
14840KMKG MKG20070510231009205/10/07 23:10:31  5-MIN KMKG 110410Z 00000KT 10SM CLR 11/09 A2993 620 93 300 000/00 RMK AO2
14840KMKG MKG20070510231509205/10/07 23:15:31  5-MIN KMKG 110415Z 00000KT 10SM CLR 11/09 A2993 620 93 300 000/00 RMK AO2
14840KMKG MKG20070510232009205/10/07 23:20:31  5-MIN KMKG 110420Z 00000KT 10SM CLR 11/09 A2993 620 93 300 000/00 RMK AO2
14840KMKG MKG20070510232509205/10/07 23:25:31  5-MIN KMKG 110425Z 00000KT 10SM CLR 11/09 A2993 620 93 300 000/00 RMK AO2
14840KMKG MKG20070510233009205/10/07 23:30:31  5-MIN KMKG 110430Z 00000KT 10SM CLR 11/09 A2993 620 93 300 000/00 RMK AO2
14840KMKG MKG20070510233509205/10/07 23:35:31  5-MIN KMKG 110435Z 00000KT 10SM CLR 11/09 A2992 630 93 300 000/00 RMK AO2
14840KMKG MKG20070510234009205/10/07 23:40:31  5-MIN KMKG 110440Z 00000KT 10SM CLR 11/09 A2993 630 93 300 000/00 RMK AO2
14840KMKG MKG20070510234509205/10/07 23:45:31  5-MIN KMKG 110445Z 00000KT 10SM CLR 11/09 A2993 620 93 300 000/00 RMK AO2
14840KMKG MKG20070510235011905/10/07 23:50:31  5-MIN KMKG 110450Z 00000KT 10SM CLR 11/09 A2993 620 93 300 000/00 RMK AO2 SLP134 T01060094 402330106
14840KMKG MKG20070510235511905/10/07 23:55:31  5-MIN KMKG 110455Z 00000KT 10SM CLR 11/09 A2993 620 93 300 000/00 RMK AO2 SLP134 T01060094 402330106
14840KMKG MKG20070511000009105/11/07 00:00:32  5-MIN KMKG 110500Z 00000KT 9SM CLR 11/10 A2993 620 96 300 000/00 RMK AO2
14840KMKG MKG20070511000509205/11/07 00:05:31  5-MIN KMKG 110505Z 00000KT 10SM CLR 11/09 A2993 620 93 300 000/00 RMK AO2
14840KMKG MKG20070511001009205/11/07 00:10:31  5-MIN KMKG 110510Z 00000KT 10SM CLR 11/09 A2993 620 93 300 000/00 RMK AO2
14840KMKG MKG20070511001509205/11/07 00:15:31  5-MIN KMKG 110515Z 24003KT 10SM CLR 11/09 A2994 620 93 300 240/03 RMK AO2
14840KMKG MKG20070511002009205/11/07 00:20:31  5-MIN KMKG 110520Z 00000KT 10SM CLR 11/09 A2994 620 93 300 000/00 RMK AO2
14840KMKG MKG20070511002509205/11/07 00:25:31  5-MIN KMKG 110525Z 00000KT 10SM CLR 10/09 A2994 620 96 200 000/00 RMK AO2
14840KMKG MKG20070511003009205/11/07 00:30:31  5-MIN KMKG 110530Z 00000KT 10SM CLR 10/09 A2994 620 96 200 000/00 RMK AO2
14840KMKG MKG20070511003509205/11/07 00:35:31  5-MIN KMKG 110535Z 00000KT 10SM CLR 10/09 A2994 610 96 200 000/00 RMK AO2
14840KMKG MKG20070511004009205/11/07 00:40:31  5-MIN KMKG 110540Z 00000KT 10SM CLR 10/09 A2994 610 96 200 000/00 RMK AO2
14840KMKG MKG20070511004509205/11/07 00:45:31  5-MIN KMKG 110545Z 00000KT 10SM CLR 10/09 A2994 610 93 200 000/00 RMK AO2
14840KMKG MKG20070511005012705/11/07 00:50:31  5-MIN KMKG 110550Z 00000KT 10SM CLR 10/09 A2994 610 96 200 000/00 RMK AO2 SLP137 T01000094 10178 20100 53013
14840KMKG MKG20070511005512705/11/07 00:55:31  5-MIN KMKG 110555Z 00000KT 10SM CLR 11/09 A2994 620 93 300 000/00 RMK AO2 SLP137 T01060094 10178 20100 53002
14840KMKG MKG20070511010009205/11/07 01:00:31  5-MIN KMKG 110600Z 00000KT 10SM CLR 11/09 A2994 620 93 300 000/00 RMK AO2
14840KMKG MKG20070511010509205/11/07 01:05:31  5-MIN KMKG 110605Z 00000KT 10SM CLR 11/09 A2993 620 93 300 000/00 RMK AO2
14840KMKG MKG20070511011009205/11/07 01:10:31  5-MIN KMKG 110610Z 00000KT 10SM CLR 11/09 A2993 620 93 300 000/00 RMK AO2
14840KMKG MKG20070511011509205/11/07 01:15:31  5-MIN KMKG 110615Z 00000KT 10SM CLR 10/09 A2993 620 96 200 000/00 RMK AO2
14840KMKG MKG20070511012009205/11/07 01:20:31  5-MIN KMKG 110620Z 00000KT 10SM CLR 11/09 A2993 620 93 300 000/00 RMK AO2
14840KMKG MKG20070511012509205/11/07 01:25:31  5-MIN KMKG 110625Z 00000KT 10SM CLR 11/09 A2993 620 93 300 000/00 RMK AO2
14840KMKG MKG20070511013009205/11/07 01:30:31  5-MIN KMKG 110630Z 00000KT 10SM CLR 11/09 A2993 620 93 300 000/00 RMK AO2
14840KMKG MKG20070511013509205/11/07 01:35:31  5-MIN KMKG 110635Z 00000KT 10SM CLR 11/09 A2993 620 93 300 000/00 RMK AO2
14840KMKG MKG20070511014009205/11/07 01:40:31  5-MIN KMKG 110640Z 00000KT 10SM CLR 11/09 A2993 620 93 300 000/00 RMK AO2
14840KMKG MKG20070511014509205/11/07 01:45:31  5-MIN KMKG 110645Z 00000KT 10SM CLR 11/09 A2993 620 93 300 000/00 RMK AO2
14840KMKG MKG20070511015010905/11/07 01:50:31  5-MIN KMKG 110650Z 00000KT 10SM CLR 11/09 A2993 630 93 300 000/00 RMK AO2 SLP133 T01060094
14840KMKG MKG20070511015510905/11/07 01:55:31  5-MIN KMKG 110655Z 00000KT 10SM CLR 11/09 A2992 630 93 300 000/00 RMK AO2 SLP133 T01060094
14840KMKG MKG20070511020009205/11/07 02:00:31  5-MIN KMKG 110700Z 00000KT 10SM CLR 11/09 A2992 630 93 300 000/00 RMK AO2
14840KMKG MKG20070511020509205/11/07 02:05:31  5-MIN KMKG 110705Z 00000KT 10SM CLR 11/09 A2992 630 93 300 000/00 RMK AO2
14840KMKG MKG20070511021009205/11/07 02:10:31  5-MIN KMKG 110710Z 00000KT 10SM CLR 11/09 A2992 630 93 300 000/00 RMK AO2
14840KMKG MKG20070511021509205/11/07 02:15:31  5-MIN KMKG 110715Z 00000KT 10SM CLR 11/09 A2992 630 93 300 000/00 RMK AO2
14840KMKG MKG20070511022009205/11/07 02:20:31  5-MIN KMKG 110720Z 00000KT 10SM CLR 11/09 A2992 630 93 300 000/00 RMK AO2
14840KMKG MKG20070511022509205/11/07 02:25:31  5-MIN KMKG 110725Z 00000KT 10SM CLR 11/09 A2992 630 89 400 000/00 RMK AO2
14840KMKG MKG20070511023009105/11/07 02:30:31  5-MIN KMKG 110730Z 00000KT 9SM CLR 11/09 A2992 630 89 400 000/00 RMK AO2
14840KMKG MKG20070511023509105/11/07 02:35:31  5-MIN KMKG 110735Z 00000KT 8SM CLR 11/09 A2993 630 93 300 000/00 RMK AO2
14840KMKG MKG20070511024009105/11/07 02:40:31  5-MIN KMKG 110740Z 00000KT 9SM CLR 11/09 A2992 630 89 300 000/00 RMK AO2
14840KMKG MKG20070511024509105/11/07 02:45:31  5-MIN KMKG 110745Z 00000KT 9SM CLR 11/09 A2992 630 93 300 000/00 RMK AO2
14840KMKG MKG20070511025010805/11/07 02:50:31  5-MIN KMKG 110750Z 00000KT 9SM CLR 10/09 A2993 630 93 200 000/00 RMK AO2 SLP133 T01000089
14840KMKG MKG20070511025510905/11/07 02:55:31  5-MIN KMKG 110755Z 00000KT 10SM CLR 10/09 A2993 630 93 200 000/00 RMK AO2 SLP133 T01000089
14840KMKG MKG20070511030009205/11/07 03:00:31  5-MIN KMKG 110800Z 00000KT 10SM CLR 10/09 A2993 630 93 200 000/00 RMK AO2
14840KMKG MKG20070511030509205/11/07 03:05:31  5-MIN KMKG 110805Z 00000KT 10SM CLR 11/09 A2993 620 89 300 000/00 RMK AO2
14840KMKG MKG20070511031009105/11/07 03:10:31  5-MIN KMKG 110810Z 00000KT 8SM CLR 11/09 A2993 620 93 300 000/00 RMK AO2
14840KMKG MKG20070511031510805/11/07 03:15:31  5-MIN KMKG 110815Z 00000KT 7SM CLR 11/09 A2993 620 93 300 000/00 RMK AO2 VIS 2 1/2 RWY 14
14840KMKG MKG20070511032010805/11/07 03:20:31  5-MIN KMKG 110820Z 00000KT 7SM CLR 11/09 A2993 620 89 300 000/00 RMK AO2 VIS 2 1/2 RWY 14
14840KMKG MKG20070511032510805/11/07 03:25:31  5-MIN KMKG 110825Z 00000KT 7SM CLR 11/09 A2993 620 93 300 000/00 RMK AO2 VIS 2 1/2 RWY 14
14840KMKG MKG20070511033010805/11/07 03:30:31  5-MIN KMKG 110830Z 00000KT 7SM CLR 11/09 A2993 620 89 300 000/00 RMK AO2 VIS 2 1/2 RWY 14
14840KMKG MKG20070511033510405/11/07 03:35:31  5-MIN KMKG 110835Z 00000KT 7SM CLR 11/09 A2993 620 89 300 000/00 RMK AO2 VIS 2 RWY 14
14840KMKG MKG20070511034010805/11/07 03:40:31  5-MIN KMKG 110840Z 00000KT 7SM CLR 11/09 A2993 620 93 300 000/00 RMK AO2 VIS 1 3/4 RWY 14
14840KMKG MKG20070511034510405/11/07 03:45:31  5-MIN KMKG 110845Z 00000KT 8SM CLR 11/09 A2993 620 93 300 000/00 RMK AO2 VIS 2 RWY 14
14840KMKG MKG20070511035013105/11/07 03:50:31  5-MIN KMKG 110850Z 00000KT 9SM CLR 10/09 A2993 620 93 200 000/00 RMK AO2 VIS 2 1/2 RWY 14 SLP136 T01000089 53002
14840KMKG MKG20070511035513205/11/07 03:55:31  5-MIN KMKG 110855Z 00000KT 10SM CLR 10/08 A2993 620 89 200 000/00 RMK AO2 VIS 2 1/2 RWY 14 SLP136 T01000083 55001
14840KMKG MKG20070511040009205/11/07 04:00:31  5-MIN KMKG 110900Z 00000KT 10SM CLR 10/08 A2993 620 89 200 000/00 RMK AO2
14840KMKG MKG20070511040509205/11/07 04:05:31  5-MIN KMKG 110905Z 14003KT 10SM CLR 11/09 A2993 620 89 300 140/03 RMK AO2
14840KMKG MKG20070511041009105/11/07 04:10:31  5-MIN KMKG 110910Z 00000KT 9SM CLR 10/09 A2993 620 93 200 000/00 RMK AO2
14840KMKG MKG20070511041509105/11/07 04:15:31  5-MIN KMKG 110915Z 00000KT 8SM CLR 11/09 A2993 620 89 300 000/00 RMK AO2
14840KMKG MKG20070511042009105/11/07 04:20:31  5-MIN KMKG 110920Z 13003KT 7SM CLR 10/09 A2993 620 93 200 140/03 RMK AO2
14840KMKG MKG20070511042510805/11/07 04:25:31  5-MIN KMKG 110925Z 12003KT 7SM CLR 11/09 A2993 620 93 300 130/03 RMK AO2 VIS 2 1/2 RWY 14
14840KMKG MKG20070511043010405/11/07 04:30:31  5-MIN KMKG 110930Z 00000KT 7SM CLR 11/09 A2993 620 93 300 000/00 RMK AO2 VIS 2 RWY 14
14840KMKG MKG20070511043510405/11/07 04:35:31  5-MIN KMKG 110935Z 13003KT 7SM CLR 11/10 A2993 620 93 300 130/03 RMK AO2 VIS 2 RWY 14
14840KMKG MKG20070511044010805/11/07 04:40:31  5-MIN KMKG 110940Z 00000KT 7SM CLR 11/10 A2993 620 93 300 000/00 RMK AO2 VIS 1 3/4 RWY 14
14840KMKG MKG20070511044510405/11/07 04:45:31  5-MIN KMKG 110945Z 14003KT 7SM CLR 11/10 A2993 620 93 300 150/03 RMK AO2 VIS 2 RWY 14
14840KMKG MKG20070511045010805/11/07 04:50:31  5-MIN KMKG 110950Z 00000KT 7SM CLR 10/09 A2993 620 96 200 000/00 RMK AO2 SLP135 T01000094
14840KMKG MKG20070511045510805/11/07 04:55:31  5-MIN KMKG 110955Z 00000KT 7SM CLR 11/09 A2993 620 93 300 000/00 RMK AO2 SLP135 T01060094
14840KMKG MKG20070511050009405/11/07 05:00:31  5-MIN KMKG 111000Z 00000KT 6SM BR CLR 11/09 A2993 620 93 300 000/00 RMK AO2
14840KMKG MKG20070511050509105/11/07 05:05:31  5-MIN KMKG 111005Z 00000KT 7SM CLR 11/09 A2994 610 93 300 000/00 RMK AO2
14840KMKG MKG20070511051009105/11/07 05:10:31  5-MIN KMKG 111010Z 00000KT 8SM CLR 10/09 A2994 610 93 200 000/00 RMK AO2
14840KMKG MKG20070511051509105/11/07 05:15:31  5-MIN KMKG 111015Z 00000KT 7SM CLR 11/09 A2994 610 93 300 000/00 RMK AO2
14840KMKG MKG20070511052009405/11/07 05:20:31  5-MIN KMKG 111020Z 00000KT 6SM BR CLR 11/09 A2994 610 93 300 000/00 RMK AO2
14840KMKG MKG20070511052509405/11/07 05:25:31  5-MIN KMKG 111025Z 00000KT 5SM BR CLR 11/10 A2994 610 93 300 000/00 RMK AO2
14840KMKG MKG20070511053011105/11/07 05:30:31  5-MIN KMKG 111030Z 00000KT 5SM BR CLR 11/10 A2994 610 96 300 000/00 RMK AO2 VIS 2 1/2 RWY 14
14840KMKG MKG20070511053511105/11/07 05:35:31  5-MIN KMKG 111035Z 00000KT 5SM BR CLR 11/09 A2994 610 93 300 000/00 RMK AO2 VIS 2 1/2 RWY 14
14840KMKG MKG20070511054011105/11/07 05:40:31  5-MIN KMKG 111040Z 00000KT 5SM BR CLR 11/10 A2994 610 96 300 000/00 RMK AO2 VIS 2 1/2 RWY 14
14840KMKG MKG20070511054511105/11/07 05:45:31  5-MIN KMKG 111045Z 00000KT 5SM BR CLR 11/09 A2994 610 89 300 000/00 RMK AO2 VIS 1 3/4 RWY 14
14840KMKG MKG20070511055012805/11/07 05:50:31  5-MIN KMKG 111050Z 00000KT 5SM BR CLR 11/09 A2994 610 93 300 000/00 RMK AO2 VIS 1 1/4 RWY 14 SLP139 T01060094
14840KMKG MKG20070511055512805/11/07 05:55:31  5-MIN KMKG 111055Z 00000KT 5SM BR CLR 11/10 A2994 610 93 300 000/00 RMK AO2 VIS 1 1/4 RWY 14 SLP139 T01110100
14840KMKG MKG20070511060011105/11/07 06:00:31  5-MIN KMKG 111100Z 00000KT 4SM BR CLR 11/10 A2994 610 93 300 000/00 RMK AO2 VIS 1 1/4 RWY 14
14840KMKG MKG20070511060511105/11/07 06:05:31  5-MIN KMKG 111105Z 00000KT 4SM BR CLR 11/10 A2995 610 93 300 000/00 RMK AO2 VIS 1 1/4 RWY 14
14840KMKG MKG20070511061011105/11/07 06:10:31  5-MIN KMKG 111110Z 00000KT 4SM BR CLR 12/11 A2995 600 93 400 000/00 RMK AO2 VIS 1 1/4 RWY 14
14840KMKG MKG20070511061511105/11/07 06:15:31  5-MIN KMKG 111115Z 00000KT 4SM BR CLR 12/11 A2995 600 93 400 000/00 RMK AO2 VIS 1 1/4 RWY 14
14840KMKG MKG20070511062011105/11/07 06:20:31  5-MIN KMKG 111120Z 00000KT 4SM BR CLR 12/11 A2995 600 93 500 000/00 RMK AO2 VIS 1 1/4 RWY 14
14840KMKG MKG20070511062511105/11/07 06:25:31  5-MIN KMKG 111125Z 00000KT 5SM BR CLR 12/11 A2995 600 93 500 000/00 RMK AO2 VIS 1 3/4 RWY 14
14840KMKG MKG20070511063010705/11/07 06:30:31  5-MIN KMKG 111130Z 00000KT 4SM BR CLR 13/11 A2995 600 89 500 000/00 RMK AO2 VIS 2 RWY 14
14840KMKG MKG20070511063510705/11/07 06:35:31  5-MIN KMKG 111135Z 00000KT 4SM BR CLR 13/11 A2995 600 89 500 000/00 RMK AO2 VIS 2 RWY 14
14840KMKG MKG20070511064010705/11/07 06:40:31  5-MIN KMKG 111140Z 00000KT 5SM BR CLR 13/11 A2995 600 86 600 000/00 RMK AO2 VIS 2 RWY 14
14840KMKG MKG20070511064510705/11/07 06:45:31  5-MIN KMKG 111145Z 00000KT 5SM BR CLR 13/12 A2995 600 89 600 000/00 RMK AO2 VIS 2 RWY 14
14840KMKG MKG20070511065014605/11/07 06:50:31  5-MIN KMKG 111150Z 00000KT 5SM BR CLR 14/12 A2995 600 86 600 000/00 RMK AO2 VIS 2 1/2 RWY 14 SLP143 T01390117 10139 20100 55001
14840KMKG MKG20070511065514605/11/07 06:55:31  5-MIN KMKG 111155Z 00000KT 5SM BR CLR 14/12 A2995 600 86 600 000/00 RMK AO2 VIS 2 1/2 RWY 14 SLP143 T01390117 10139 20100 53006
14840KMKG MKG20070511070011105/11/07 07:00:31  5-MIN KMKG 111200Z 00000KT 5SM BR CLR 14/12 A2995 600 90 600 000/00 RMK AO2 VIS 2 1/2 RWY 14
14840KMKG MKG20070511070511105/11/07 07:05:31  5-MIN KMKG 111205Z 00000KT 5SM BR CLR 14/12 A2996 600 86 700 000/00 RMK AO2 VIS 2 1/2 RWY 14
14840KMKG MKG20070511071011105/11/07 07:10:31  5-MIN KMKG 111210Z 00000KT 5SM HZ CLR 14/12 A2996 600 83 700 000/00 RMK AO2 VIS 2 1/2 RWY 14
14840KMKG MKG20070511071511105/11/07 07:15:31  5-MIN KMKG 111215Z 00000KT 6SM HZ CLR 14/12 A2996 600 83 700 000/00 RMK AO2 VIS 2 1/2 RWY 14
14840KMKG MKG20070511072009405/11/07 07:20:31  5-MIN KMKG 111220Z 22003KT 6SM HZ CLR 15/12 A2996 600 83 800 230/03 RMK AO2
14840KMKG MKG20070511072509405/11/07 07:25:31  5-MIN KMKG 111225Z 22004KT 6SM HZ CLR 15/12 A2996 590 83 800 230/04 RMK AO2
14840KMKG MKG20070511073009405/11/07 07:30:31  5-MIN KMKG 111230Z 21005KT 6SM HZ CLR 15/12 A2996 600 83 800 220/05 RMK AO2
14840KMKG MKG20070511073509405/11/07 07:35:31  5-MIN KMKG 111235Z 23004KT 6SM HZ CLR 16/12 A2996 590 80 800 240/04 RMK AO2
14840KMKG MKG20070511074009405/11/07 07:40:31  5-MIN KMKG 111240Z 23004KT 6SM HZ CLR 16/12 A2996 590 77 800 230/04 RMK AO2
14840KMKG MKG20070511074509405/11/07 07:45:31  5-MIN KMKG 111245Z 26004KT 6SM HZ CLR 16/12 A2996 590 77 900 260/04 RMK AO2
14840KMKG MKG20070511075011105/11/07 07:50:31  5-MIN KMKG 111250Z 26003KT 6SM HZ CLR 16/12 A2996 590 75 900 270/03 RMK AO2 SLP146 T01610117
14840KMKG MKG20070511075511105/11/07 07:55:31  5-MIN KMKG 111255Z 27003KT 6SM HZ CLR 16/12 A2996 590 77 800 270/03 RMK AO2 SLP147 T01560117
14840KMKG MKG20070511080009405/11/07 08:00:31  5-MIN KMKG 111300Z 26003KT 6SM HZ CLR 16/12 A2997 590 75 900 260/03 RMK AO2
14840KMKG MKG20070511080509405/11/07 08:05:31  5-MIN KMKG 111305Z 00000KT 6SM HZ CLR 16/12 A2997 590 75 900 000/00 RMK AO2
14840KMKG MKG20070511081009405/11/07 08:10:31  5-MIN KMKG 111310Z 00000KT 6SM HZ CLR 16/12 A2997 590 75 900 000/00 RMK AO2
14840KMKG MKG20070511081509105/11/07 08:15:31  5-MIN KMKG 111315Z 00000KT 7SM CLR 16/12 A2997 590 75 900 000/00 RMK AO2
14840KMKG MKG20070511082009205/11/07 08:20:31  5-MIN KMKG 111320Z 00000KT 7SM CLR 17/12 A2997 590 72 1000 000/00 RMK AO2
14840KMKG MKG20070511082509505/11/07 08:25:31  5-MIN KMKG 111325Z 00000KT 7SM FEW085 17/12 A2997 590 75 1000 000/00 RMK AO2
14840KMKG MKG20070511083009505/11/07 08:30:31  5-MIN KMKG 111330Z 00000KT 7SM FEW085 17/12 A2997 590 69 1000 000/00 RMK AO2
14840KMKG MKG20070511083509205/11/07 08:35:31  5-MIN KMKG 111335Z 00000KT 7SM CLR 18/12 A2997 580 69 1100 000/00 RMK AO2
14840KMKG MKG20070511084009205/11/07 08:40:31  5-MIN KMKG 111340Z 00000KT 7SM CLR 18/12 A2997 580 69 1100 000/00 RMK AO2
14840KMKG MKG20070511084509205/11/07 08:45:31  5-MIN KMKG 111345Z 00000KT 7SM CLR 18/12 A2997 580 69 1100 000/00 RMK AO2
14840KMKG MKG20070511085010905/11/07 08:50:31  5-MIN KMKG 111350Z 00000KT 7SM CLR 18/12 A2997 580 67 1100 000/00 RMK AO2 SLP149 T01830122
14840KMKG MKG20070511085510905/11/07 08:55:31  5-MIN KMKG 111355Z 32003KT 7SM CLR 18/12 A2997 580 67 1100 320/03 RMK AO2 SLP150 T01830122
14840KMKG MKG20070511090009205/11/07 09:00:31  5-MIN KMKG 111400Z 33004KT 8SM CLR 18/12 A2998 580 67 1100 330/04 RMK AO2
14840KMKG MKG20070511090509205/11/07 09:05:31  5-MIN KMKG 111405Z 31005KT 7SM CLR 18/12 A2998 580 67 1100 320/05 RMK AO2
14840KMKG MKG20070511091009205/11/07 09:10:31  5-MIN KMKG 111410Z 31004KT 8SM CLR 18/12 A2998 580 67 1100 310/04 RMK AO2
14840KMKG MKG20070511091509205/11/07 09:15:31  5-MIN KMKG 111415Z 31004KT 8SM CLR 18/12 A2998 580 67 1100 310/04 RMK AO2
14840KMKG MKG20070511092009205/11/07 09:20:31  5-MIN KMKG 111420Z 31004KT 8SM CLR 19/12 A2998 570 65 1200 320/04 RMK AO2
14840KMKG MKG20070511092509205/11/07 09:25:31  5-MIN KMKG 111425Z 32003KT 8SM CLR 19/12 A2998 570 65 1200 330/03 RMK AO2
14840KMKG MKG20070511093009205/11/07 09:30:31  5-MIN KMKG 111430Z 32005KT 8SM CLR 19/12 A2998 570 65 1200 330/05 RMK AO2
14840KMKG MKG20070511093509205/11/07 09:35:31  5-MIN KMKG 111435Z 33004KT 8SM CLR 19/12 A2998 570 65 1200 330/04 RMK AO2
14840KMKG MKG20070511094009205/11/07 09:40:31  5-MIN KMKG 111440Z 32005KT 7SM CLR 19/12 A2998 570 65 1200 320/05 RMK AO2
14840KMKG MKG20070511094509205/11/07 09:45:31  5-MIN KMKG 111445Z 31004KT 7SM CLR 19/12 A2998 570 65 1200 310/04 RMK AO2
14840KMKG MKG20070511095011505/11/07 09:50:31  5-MIN KMKG 111450Z VRB03KT 7SM CLR 19/13 A2998 570 65 1300 VRB/03 RMK AO2 SLP153 T01940128 53006
14840KMKG MKG20070511095511505/11/07 09:55:31  5-MIN KMKG 111455Z 31003KT 8SM CLR 19/13 A2998 570 65 1300 310/03 RMK AO2 SLP152 T01940128 51009
14840KMKG MKG20070511100009205/11/07 10:00:31  5-MIN KMKG 111500Z 31004KT 8SM CLR 19/13 A2998 570 65 1300 320/04 RMK AO2
14840KMKG MKG20070511100509205/11/07 10:05:31  5-MIN KMKG 111505Z 00000KT 8SM CLR 19/13 A2998 570 65 1300 000/00 RMK AO2
14840KMKG MKG20070511101009205/11/07 10:10:31  5-MIN KMKG 111510Z 31004KT 9SM CLR 20/13 A2999 570 65 1300 310/04 RMK AO2
14840KMKG MKG20070511101509205/11/07 10:15:31  5-MIN KMKG 111515Z 30003KT 9SM CLR 21/13 A2999 570 60 1400 300/03 RMK AO2
14840KMKG MKG20070511102009205/11/07 10:20:31  5-MIN KMKG 111520Z 00000KT 9SM CLR 20/13 A2999 570 63 1300 000/00 RMK AO2
14840KMKG MKG20070511102509205/11/07 10:25:31  5-MIN KMKG 111525Z 00000KT 9SM CLR 21/13 A2999 570 58 1500 000/00 RMK AO2
14840KMKG MKG20070511103009305/11/07 10:30:31  5-MIN KMKG 111530Z VRB03KT 10SM CLR 21/13 A2999 570 58 1500 VRB/03 RMK AO2
14840KMKG MKG20070511103509305/11/07 10:35:31  5-MIN KMKG 111535Z 00000KT 10SM CLR 21/13 A2999 570 61 1500 000/00 RMK AO2
14840KMKG MKG20070511104009305/11/07 10:40:31  5-MIN KMKG 111540Z VRB03KT 10SM CLR 22/13 A2999 570 58 1500 VRB/03 RMK AO2
14840KMKG MKG20070511104509305/11/07 10:45:31  5-MIN KMKG 111545Z 30003KT 10SM CLR 22/14 A2999 570 59 1600 300/03 RMK AO2
14840KMKG MKG20070511105011205/11/07 10:50:31  5-MIN KMKG 111550Z 35003KT 10SM CLR 22/13 A2999 570 56 1600 360/03 RMK AO2 SLP155 T02220133 $
14840KMKG MKG20070511105511205/11/07 10:55:31  5-MIN KMKG 111555Z 00000KT 10SM CLR 22/13 A2999 570 56 1600 000/00 RMK AO2 SLP155 T02220133 $
14840KMKG MKG20070511110009505/11/07 11:00:31  5-MIN KMKG 111600Z 31004KT 10SM CLR 22/13 A2999 570 56 1600 310/04 RMK AO2 $
14840KMKG MKG20070511110509505/11/07 11:05:31  5-MIN KMKG 111605Z VRB03KT 10SM CLR 23/13 A2999 560 55 1600 VRB/03 RMK AO2 $
14840KMKG MKG20070511111009505/11/07 11:10:31  5-MIN KMKG 111610Z 32004KT 10SM CLR 23/14 A2999 560 55 1700 320/04 RMK AO2 $
14840KMKG MKG20070511111509305/11/07 11:15:31  5-MIN KMKG 111615Z 31005KT 10SM CLR 23/13 A2999 560 55 1600 320/05 RMK AO2
14840KMKG MKG20070511112009305/11/07 11:20:31  5-MIN KMKG 111620Z 33004KT 10SM CLR 23/13 A2999 560 53 1700 330/04 RMK AO2
14840KMKG MKG20070511112509305/11/07 11:25:31  5-MIN KMKG 111625Z 34006KT 10SM CLR 24/13 A2999 560 51 1800 340/06 RMK AO2
14840KMKG MKG20070511113009305/11/07 11:30:31  5-MIN KMKG 111630Z 00000KT 10SM CLR 23/13 A2999 560 51 1700 000/00 RMK AO2
14840KMKG MKG20070511113509305/11/07 11:35:31  5-MIN KMKG 111635Z 02006KT 10SM CLR 24/13 A2999 560 49 1800 020/06 RMK AO2
14840KMKG MKG20070511114009305/11/07 11:40:31  5-MIN KMKG 111640Z 01006KT 10SM CLR 24/13 A2999 560 49 1800 020/06 RMK AO2
14840KMKG MKG20070511114509305/11/07 11:45:31  5-MIN KMKG 111645Z 00000KT 10SM CLR 24/12 A2999 560 47 1800 000/00 RMK AO2
14840KMKG MKG20070511115011005/11/07 11:50:31  5-MIN KMKG 111650Z VRB03KT 10SM CLR 24/13 A2999 560 49 1800 VRB/03 RMK AO2 SLP155 T02390128
14840KMKG MKG20070511115511005/11/07 11:55:31  5-MIN KMKG 111655Z VRB03KT 10SM CLR 24/13 A2999 560 47 1800 VRB/03 RMK AO2 SLP155 T02440128
14840KMKG MKG20070511120009305/11/07 12:00:31  5-MIN KMKG 111700Z 00000KT 10SM CLR 25/13 A2999 570 48 1900 000/00 RMK AO2
14840KMKG MKG20070511120509305/11/07 12:05:31  5-MIN KMKG 111705Z VRB03KT 10SM CLR 24/13 A2999 570 49 1800 VRB/03 RMK AO2
14840KMKG MKG20070511121009305/11/07 12:10:31  5-MIN KMKG 111710Z 00000KT 10SM CLR 24/13 A2999 570 49 1800 000/00 RMK AO2
14840KMKG MKG20070511121509305/11/07 12:15:31  5-MIN KMKG 111715Z 31004KT 10SM CLR 24/13 A2999 570 49 1800 310/04 RMK AO2
14840KMKG MKG20070511122009305/11/07 12:20:31  5-MIN KMKG 111720Z VRB03KT 10SM CLR 24/14 A2999 570 51 1800 VRB/03 RMK AO2
14840KMKG MKG20070511122509305/11/07 12:25:31  5-MIN KMKG 111725Z 29005KT 10SM CLR 24/14 A2999 570 51 1800 290/05 RMK AO2
14840KMKG MKG20070511123009305/11/07 12:30:31  5-MIN KMKG 111730Z 28005KT 10SM CLR 24/14 A2999 570 53 1800 280/05 RMK AO2
14840KMKG MKG20070511123509305/11/07 12:35:31  5-MIN KMKG 111735Z 27005KT 10SM CLR 24/14 A2999 570 53 1800 280/05 RMK AO2
14840KMKG MKG20070511124009305/11/07 12:40:31  5-MIN KMKG 111740Z 32003KT 10SM CLR 24/14 A2998 570 51 1800 320/03 RMK AO2
14840KMKG MKG20070511124509305/11/07 12:45:31  5-MIN KMKG 111745Z VRB03KT 10SM CLR 25/14 A2998 570 49 1900 VRB/03 RMK AO2
14840KMKG MKG20070511125012805/11/07 12:50:31  5-MIN KMKG 111750Z 33004KT 10SM CLR 26/14 A2998 570 48 2000 330/04 RMK AO2 SLP151 T02560139 10256 20139 51009
14840KMKG MKG20070511125512805/11/07 12:55:31  5-MIN KMKG 111755Z 31006KT 10SM CLR 26/14 A2998 570 46 2000 320/06 RMK AO2 SLP152 T02610139 10261 20139 50000
14840KMKG MKG20070511130009305/11/07 13:00:31  5-MIN KMKG 111800Z VRB03KT 10SM CLR 26/14 A2998 570 48 2000 VRB/03 RMK AO2
14840KMKG MKG20070511130509305/11/07 13:05:31  5-MIN KMKG 111805Z 02003KT 10SM CLR 27/14 A2998 570 45 2100 020/03 RMK AO2
14840KMKG MKG20070511131009305/11/07 13:10:31  5-MIN KMKG 111810Z VRB04KT 10SM CLR 27/13 A2998 570 43 2100 VRB/04 RMK AO2
14840KMKG MKG20070511131509305/11/07 13:15:31  5-MIN KMKG 111815Z 33003KT 10SM CLR 27/13 A2998 570 41 2100 330/03 RMK AO2
14840KMKG MKG20070511132009305/11/07 13:20:31  5-MIN KMKG 111820Z VRB04KT 10SM CLR 27/13 A2998 570 43 2100 VRB/04 RMK AO2
14840KMKG MKG20070511132509305/11/07 13:25:31  5-MIN KMKG 111825Z 03004KT 10SM CLR 27/12 A2998 570 39 2100 040/04 RMK AO2
14840KMKG MKG20070511133009305/11/07 13:30:31  5-MIN KMKG 111830Z VRB06KT 10SM CLR 27/13 A2998 570 40 2200 VRB/06 RMK AO2
14840KMKG MKG20070511133509305/11/07 13:35:31  5-MIN KMKG 111835Z 33004KT 10SM CLR 27/13 A2998 570 43 2100 340/04 RMK AO2
14840KMKG MKG20070511134009305/11/07 13:40:31  5-MIN KMKG 111840Z 00000KT 10SM CLR 27/13 A2998 580 43 2100 000/00 RMK AO2
14840KMKG MKG20070511134509305/11/07 13:45:31  5-MIN KMKG 111845Z VRB05KT 10SM CLR 26/14 A2998 580 48 2000 VRB/05 RMK AO2
14840KMKG MKG20070511135011005/11/07 13:50:31  5-MIN KMKG 111850Z 25007KT 10SM CLR 26/13 A2998 580 46 2000 260/07 RMK AO2 SLP151 T02560133
14840KMKG MKG20070511135511005/11/07 13:55:31  5-MIN KMKG 111855Z 26006KT 10SM CLR 24/13 A2998 580 49 1800 260/06 RMK AO2 SLP150 T02440133
14840KMKG MKG20070511140009305/11/07 14:00:31  5-MIN KMKG 111900Z 26007KT 10SM CLR 24/13 A2998 580 47 1800 260/07 RMK AO2
14840KMKG MKG20070511140509305/11/07 14:05:31  5-MIN KMKG 111905Z 28009KT 10SM CLR 24/13 A2998 570 47 1800 280/09 RMK AO2
14840KMKG MKG20070511141009305/11/07 14:10:31  5-MIN KMKG 111910Z 28009KT 10SM CLR 23/12 A2998 570 49 1700 290/09 RMK AO2
14840KMKG MKG20070511141509305/11/07 14:15:31  5-MIN KMKG 111915Z 27009KT 10SM CLR 23/13 A2998 570 51 1700 280/09 RMK AO2
14840KMKG MKG20070511142009305/11/07 14:20:31  5-MIN KMKG 111920Z 27007KT 10SM CLR 23/12 A2999 570 49 1700 280/07 RMK AO2
14840KMKG MKG20070511142509605/11/07 14:25:31  5-MIN KMKG 111925Z 26006KT 10SM FEW110 23/12 A2999 570 49 1600 270/06 RMK AO2
14840KMKG MKG20070511143009605/11/07 14:30:31  5-MIN KMKG 111930Z 26005KT 10SM FEW110 23/12 A2999 570 51 1600 260/05 RMK AO2
14840KMKG MKG20070511143509605/11/07 14:35:31  5-MIN KMKG 111935Z 25003KT 10SM FEW110 23/12 A2998 570 51 1600 260/03 RMK AO2
14840KMKG MKG20070511144009605/11/07 14:40:31  5-MIN KMKG 111940Z 26005KT 10SM FEW110 23/13 A2998 570 51 1700 260/05 RMK AO2
14840KMKG MKG20070511144509605/11/07 14:45:31  5-MIN KMKG 111945Z 27005KT 10SM FEW110 23/13 A2998 570 51 1700 270/05 RMK AO2
14840KMKG MKG20070511145011305/11/07 14:50:31  5-MIN KMKG 111950Z 27005KT 10SM FEW110 24/12 A2999 570 47 1800 270/05 RMK AO2 SLP152 T02390122
14840KMKG MKG20070511145511005/11/07 14:55:31  5-MIN KMKG 111955Z 26004KT 10SM CLR 23/12 A2998 570 49 1700 260/04 RMK AO2 SLP153 T02330122
14840KMKG MKG20070511150009305/11/07 15:00:31  5-MIN KMKG 112000Z VRB05KT 10SM CLR 23/12 A2998 570 49 1700 VRB/05 RMK AO2
14840KMKG MKG20070511150509305/11/07 15:05:31  5-MIN KMKG 112005Z 29004KT 10SM CLR 24/13 A2998 570 47 1800 290/04 RMK AO2
14840KMKG MKG20070511151009305/11/07 15:10:31  5-MIN KMKG 112010Z 29005KT 10SM CLR 26/13 A2998 570 44 2000 300/05 RMK AO2
14840KMKG MKG20070511151509305/11/07 15:15:31  5-MIN KMKG 112015Z 30006KT 10SM CLR 26/13 A2998 570 44 2000 310/06 RMK AO2
14840KMKG MKG20070511152009305/11/07 15:20:31  5-MIN KMKG 112020Z 30004KT 10SM CLR 26/12 A2998 570 43 2000 310/04 RMK AO2
14840KMKG MKG20070511152509305/11/07 15:25:31  5-MIN KMKG 112025Z 29006KT 10SM CLR 24/12 A2998 570 46 1800 290/06 RMK AO2
14840KMKG MKG20070511153009305/11/07 15:30:31  5-MIN KMKG 112030Z 29006KT 10SM CLR 24/12 A2998 570 44 1800 290/06 RMK AO2
14840KMKG MKG20070511153509305/11/07 15:35:31  5-MIN KMKG 112035Z 29005KT 10SM CLR 25/12 A2998 570 44 1900 290/05 RMK AO2
14840KMKG MKG20070511154009305/11/07 15:40:31  5-MIN KMKG 112040Z 31006KT 10SM CLR 25/12 A2998 570 44 1900 320/06 RMK AO2
14840KMKG MKG20070511154509305/11/07 15:45:31  5-MIN KMKG 112045Z 29005KT 10SM CLR 25/13 A2998 570 46 1900 290/05 RMK AO2
14840KMKG MKG20070511155011605/11/07 15:50:31  5-MIN KMKG 112050Z 32006KT 10SM CLR 25/13 A2998 570 46 1900 330/06 RMK AO2 SLP151 T02500128 50000
14840KMKG MKG20070511155511905/11/07 15:55:31  5-MIN KMKG 112055Z 29007KT 10SM FEW090 25/12 A2998 580 44 1900 290/07 RMK AO2 SLP151 T02500122 57001
14840KMKG MKG20070511160009305/11/07 16:00:31  5-MIN KMKG 112100Z 31005KT 10SM CLR 24/12 A2998 570 46 1800 310/05 RMK AO2
14840KMKG MKG20070511160509305/11/07 16:05:31  5-MIN KMKG 112105Z 31007KT 10SM CLR 24/12 A2998 570 47 1800 310/07 RMK AO2
14840KMKG MKG20070511161009305/11/07 16:10:31  5-MIN KMKG 112110Z 29005KT 10SM CLR 23/12 A2998 580 47 1700 290/05 RMK AO2
14840KMKG MKG20070511161509305/11/07 16:15:31  5-MIN KMKG 112115Z 30006KT 10SM CLR 24/12 A2998 580 47 1800 310/06 RMK AO2
14840KMKG MKG20070511162009305/11/07 16:20:31  5-MIN KMKG 112120Z 30007KT 10SM CLR 24/12 A2998 580 46 1800 310/07 RMK AO2
14840KMKG MKG20070511162509305/11/07 16:25:31  5-MIN KMKG 112125Z 31006KT 10SM CLR 24/12 A2998 580 46 1800 310/06 RMK AO2
14840KMKG MKG20070511163009305/11/07 16:30:31  5-MIN KMKG 112130Z 31006KT 10SM CLR 24/12 A2998 570 46 1800 320/06 RMK AO2
14840KMKG MKG20070511163509305/11/07 16:35:31  5-MIN KMKG 112135Z 30007KT 10SM CLR 24/12 A2998 570 46 1800 300/07 RMK AO2
14840KMKG MKG20070511164009305/11/07 16:40:31  5-MIN KMKG 112140Z 31006KT 10SM CLR 24/12 A2998 570 44 1800 310/06 RMK AO2
14840KMKG MKG20070511164509305/11/07 16:45:31  5-MIN KMKG 112145Z 30007KT 10SM CLR 24/12 A2998 570 44 1800 310/07 RMK AO2
14840KMKG MKG20070511165011005/11/07 16:50:31  5-MIN KMKG 112150Z 31007KT 10SM CLR 24/12 A2998 570 44 1800 320/07 RMK AO2 SLP152 T02440117
14840KMKG MKG20070511165511305/11/07 16:55:31  5-MIN KMKG 112155Z 30007KT 10SM FEW090 24/12 A2998 570 46 1800 310/07 RMK AO2 SLP152 T02390117
14840KMKG MKG20070511170009305/11/07 17:00:31  5-MIN KMKG 112200Z 29007KT 10SM CLR 23/12 A2998 570 47 1700 300/07 RMK AO2
14840KMKG MKG20070511170509305/11/07 17:05:31  5-MIN KMKG 112205Z 31004KT 10SM CLR 23/12 A2998 570 47 1700 320/04 RMK AO2
14840KMKG MKG20070511171009305/11/07 17:10:31  5-MIN KMKG 112210Z 34009KT 10SM CLR 24/12 A2999 570 47 1800 350/09 RMK AO2
14840KMKG MKG20070511171509305/11/07 17:15:31  5-MIN KMKG 112215Z 35008KT 10SM CLR 24/12 A2999 570 46 1800 360/08 RMK AO2
14840KMKG MKG20070511172009305/11/07 17:20:31  5-MIN KMKG 112220Z 36007KT 10SM CLR 25/12 A2999 570 44 1900 010/07 RMK AO2
14840KMKG MKG20070511172509305/11/07 17:25:31  5-MIN KMKG 112225Z 35010KT 10SM CLR 26/12 A2999 570 43 2000 360/10 RMK AO2
14840KMKG MKG20070511173009905/11/07 17:30:31  5-MIN KMKG 112230Z 35010G16KT 10SM CLR 26/12 A2999 570 43 2000 350/10G16 RMK AO2
14840KMKG MKG20070511173509905/11/07 17:35:31  5-MIN KMKG 112235Z 36010G16KT 10SM CLR 25/12 A2999 560 43 1900 360/10G16 RMK AO2
14840KMKG MKG20070511174009305/11/07 17:40:31  5-MIN KMKG 112240Z 36008KT 10SM CLR 25/12 A2999 560 44 1900 360/08 RMK AO2
14840KMKG MKG20070511174509305/11/07 17:45:31  5-MIN KMKG 112245Z 02010KT 10SM CLR 25/12 A3000 560 44 1900 020/10 RMK AO2
14840KMKG MKG20070511175011005/11/07 17:50:31  5-MIN KMKG 112250Z 35010KT 10SM CLR 25/12 A2999 560 43 1900 360/10 RMK AO2 SLP156 T02500117
14840KMKG MKG20070511175511305/11/07 17:55:31  5-MIN KMKG 112255Z 36009KT 10SM FEW090 25/12 A3000 560 43 1900 010/09 RMK AO2 SLP156 T02500117
14840KMKG MKG20070511180009305/11/07 18:00:31  5-MIN KMKG 112300Z 02009KT 10SM CLR 25/12 A2999 560 44 1900 020/09 RMK AO2
14840KMKG MKG20070511180509305/11/07 18:05:31  5-MIN KMKG 112305Z 36011KT 10SM CLR 25/13 A2999 560 46 1900 010/11 RMK AO2
14840KMKG MKG20070511181009305/11/07 18:10:31  5-MIN KMKG 112310Z 02008KT 10SM CLR 25/13 A2999 560 46 1900 030/08 RMK AO2
14840KMKG MKG20070511181509905/11/07 18:15:31  5-MIN KMKG 112315Z 03011G19KT 10SM CLR 25/13 A3000 560 48 1900 040/11G19 RMK AO2
14840KMKG MKG20070511182009905/11/07 18:20:31  5-MIN KMKG 112320Z 05015G21KT 10SM CLR 24/14 A3000 560 51 1800 060/15G21 RMK AO2
14840KMKG MKG20070511182510205/11/07 18:25:31  5-MIN KMKG 112325Z 04016G21KT 10SM FEW048 24/13 A3000 560 51 1800 050/16G21 RMK AO2
14840KMKG MKG20070511183009605/11/07 18:30:31  5-MIN KMKG 112330Z 06012KT 10SM FEW048 24/14 A3000 550 53 1800 070/12 RMK AO2
14840KMKG MKG20070511183509605/11/07 18:35:31  5-MIN KMKG 112335Z 08013KT 10SM FEW048 24/14 A3001 550 53 1700 080/13 RMK AO2
14840KMKG MKG20070511184010205/11/07 18:40:31  5-MIN KMKG 112340Z 08011G19KT 10SM FEW048 23/14 A3001 550 55 1700 090/11G19 RMK AO2
14840KMKG MKG20070511184510205/11/07 18:45:31  5-MIN KMKG 112345Z 08012G19KT 10SM FEW048 23/14 A3001 550 55 1700 090/12G19 RMK AO2
14840KMKG MKG20070511185013705/11/07 18:50:31  5-MIN KMKG 112350Z 10009G17KT 10SM FEW048 23/14 A3001 550 57 1600 100/09G17 RMK AO2 SLP162 T02280139 10272 20228 57001
14840KMKG MKG20070511185513105/11/07 18:55:31  5-MIN KMKG 112355Z 09012KT 10SM FEW048 23/14 A3001 540 57 1600 090/12 RMK AO2 SLP162 T02280139 10272 20228 53011
14840KMKG MKG20070511190010205/11/07 19:00:31  5-MIN KMKG 120000Z 08013G17KT 10SM FEW055 23/14 A3002 540 57 1600 090/13G17 RMK AO2
14840KMKG MKG20070511190510205/11/07 19:05:31  5-MIN KMKG 120005Z 08009G17KT 10SM FEW055 23/13 A3002 540 55 1600 090/09G17 RMK AO2
14840KMKG MKG20070511191010205/11/07 19:10:31  5-MIN KMKG 120010Z 07008G17KT 10SM FEW055 22/13 A3002 540 56 1500 070/08G17 RMK AO2
14840KMKG MKG20070511191510205/11/07 19:15:31  5-MIN KMKG 120015Z 08009G17KT 10SM SCT055 22/13 A3002 540 56 1500 080/09G17 RMK AO2
14840KMKG MKG20070511192010205/11/07 19:20:31  5-MIN KMKG 120020Z 07009G17KT 10SM SCT055 22/13 A3002 540 56 1500 070/09G17 RMK AO2
14840KMKG MKG20070511192510205/11/07 19:25:31  5-MIN KMKG 120025Z 06012G17KT 10SM SCT055 22/13 A3002 540 56 1500 060/12G17 RMK AO2
14840KMKG MKG20070511193010205/11/07 19:30:31  5-MIN KMKG 120030Z 06009G17KT 10SM SCT050 22/13 A3003 530 56 1500 060/09G17 RMK AO2
14840KMKG MKG20070511193509605/11/07 19:35:31  5-MIN KMKG 120035Z 06013KT 10SM BKN050 22/13 A3003 530 56 1500 070/13 RMK AO2
14840KMKG MKG20070511194009605/11/07 19:40:31  5-MIN KMKG 120040Z 05013KT 10SM BKN050 21/12 A3003 530 56 1400 060/13 RMK AO2
14840KMKG MKG20070511194510205/11/07 19:45:31  5-MIN KMKG 120045Z 07009G17KT 10SM BKN050 21/12 A3003 530 56 1400 070/09G17 RMK AO2
14840KMKG MKG20070511195011305/11/07 19:50:31  5-MIN KMKG 120050Z 07009KT 10SM SCT050 21/13 A3003 530 58 1400 070/09 RMK AO2 SLP169 T02110128
14840KMKG MKG20070511195511305/11/07 19:55:31  5-MIN KMKG 120055Z 07011KT 10SM SCT050 21/12 A3004 520 58 1300 080/11 RMK AO2 SLP170 T02060122
14840KMKG MKG20070511200010305/11/07 20:00:31  5-MIN KMKG 120100Z 07011KT 10SM BKN050 BKN060 21/12 A3004 520 58 1300 070/11 RMK AO2
14840KMKG MKG20070511200509605/11/07 20:05:31  5-MIN KMKG 120105Z 07009KT 10SM BKN055 21/12 A3004 520 58 1300 080/09 RMK AO2
14840KMKG MKG20070511201010305/11/07 20:10:31  5-MIN KMKG 120110Z 07007KT 10SM SCT050 SCT060 20/12 A3005 510 60 1300 080/07 RMK AO2
14840KMKG MKG20070511201510305/11/07 20:15:31  5-MIN KMKG 120115Z 08007KT 10SM FEW050 SCT060 20/12 A3005 510 58 1300 080/07 RMK AO2
14840KMKG MKG20070511202009605/11/07 20:20:31  5-MIN KMKG 120120Z 08009KT 10SM FEW050 20/12 A3005 510 58 1300 090/09 RMK AO2
14840KMKG MKG20070511202509605/11/07 20:25:31  5-MIN KMKG 120125Z 08009KT 10SM FEW050 19/12 A3005 510 60 1200 080/09 RMK AO2
14840KMKG MKG20070511203009305/11/07 20:30:31  5-MIN KMKG 120130Z 08007KT 10SM CLR 19/12 A3006 500 60 1200 090/07 RMK AO2
14840KMKG MKG20070511203509305/11/07 20:35:31  5-MIN KMKG 120135Z 10009KT 10SM CLR 19/12 A3006 500 60 1200 100/09 RMK AO2
14840KMKG MKG20070511204009605/11/07 20:40:31  5-MIN KMKG 120140Z 09010KT 10SM FEW050 19/12 A3006 500 60 1200 090/10 RMK AO2
14840KMKG MKG20070511204509605/11/07 20:45:31  5-MIN KMKG 120145Z 09008KT 10SM FEW050 19/11 A3006 500 58 1200 090/08 RMK AO2
14840KMKG MKG20070511205011305/11/07 20:50:31  5-MIN KMKG 120150Z 09008KT 10SM FEW050 19/11 A3006 500 60 1100 100/08 RMK AO2 SLP180 T01890111
14840KMKG MKG20070511205511305/11/07 20:55:31  5-MIN KMKG 120155Z 10008KT 10SM SCT050 19/12 A3007 500 62 1100 100/08 RMK AO2 SLP180 T01890117
14840KMKG MKG20070511210009605/11/07 21:00:31  5-MIN KMKG 120200Z 09007KT 10SM BKN050 18/12 A3007 490 65 1000 090/07 RMK AO2
14840KMKG MKG20070511210509605/11/07 21:05:31  5-MIN KMKG 120205Z 08008KT 10SM BKN050 18/11 A3007 490 62 1000 090/08 RMK AO2
14840KMKG MKG20070511211009605/11/07 21:10:31  5-MIN KMKG 120210Z 08007KT 10SM BKN050 18/11 A3008 490 62 1000 080/07 RMK AO2
14840KMKG MKG20070511211509605/11/07 21:15:31  5-MIN KMKG 120215Z 07008KT 10SM BKN050 18/11 A3008 480 62 1000 080/08 RMK AO2
14840KMKG MKG20070511212009605/11/07 21:20:31  5-MIN KMKG 120220Z 08006KT 10SM BKN050 18/11 A3008 480 62 1000 090/06 RMK AO2
14840KMKG MKG20070511212509605/11/07 21:25:31  5-MIN KMKG 120225Z 08006KT 10SM SCT050 18/11 A3009 480 64 1000 080/06 RMK AO2
14840KMKG MKG20070511213010305/11/07 21:30:31  5-MIN KMKG 120230Z 09010KT 10SM SCT050 SCT060 18/11 A3009 480 64 1000 090/10 RMK AO2
14840KMKG MKG20070511213510305/11/07 21:35:31  5-MIN KMKG 120235Z 08006KT 10SM FEW050 SCT060 18/11 A3009 480 62 1000 090/06 RMK AO2
14840KMKG MKG20070511214009605/11/07 21:40:31  5-MIN KMKG 120240Z 08009KT 10SM FEW060 18/11 A3009 480 62 1000 090/09 RMK AO2
14840KMKG MKG20070511214509505/11/07 21:45:31  5-MIN KMKG 120245Z 07010KT 10SM FEW060 18/11 A3009 470 62 900 080/10 RMK AO2
14840KMKG MKG20070511215011805/11/07 21:50:31  5-MIN KMKG 120250Z 08012KT 10SM BKN060 18/10 A3009 470 60 900 080/12 RMK AO2 SLP189 T01780100 53011
14840KMKG MKG20070511215511805/11/07 21:55:31  5-MIN KMKG 120255Z 08011KT 10SM BKN060 17/09 A3010 470 60 900 080/11 RMK AO2 SLP190 T01720094 53027
14840KMKG MKG20070511220009505/11/07 22:00:31  5-MIN KMKG 120300Z 09009KT 10SM BKN060 17/09 A3009 470 60 900 090/09 RMK AO2
14840KMKG MKG20070511220509505/11/07 22:05:31  5-MIN KMKG 120305Z 09008KT 10SM BKN060 17/09 A3009 470 60 900 090/08 RMK AO2
14840KMKG MKG20070511221009505/11/07 22:10:31  5-MIN KMKG 120310Z 08009KT 10SM BKN060 17/09 A3010 470 60 900 090/09 RMK AO2
14840KMKG MKG20070511221509505/11/07 22:15:31  5-MIN KMKG 120315Z 09011KT 10SM BKN060 17/09 A3010 460 57 900 090/11 RMK AO2
14840KMKG MKG20070511222009505/11/07 22:20:31  5-MIN KMKG 120320Z 09011KT 10SM BKN060 16/09 A3010 460 62 700 100/11 RMK AO2
14840KMKG MKG20070511222510105/11/07 22:25:31  5-MIN KMKG 120325Z 09014G20KT 10SM BKN060 17/08 A3010 460 57 800 100/14G20 RMK AO2
14840KMKG MKG20070511223010105/11/07 22:30:31  5-MIN KMKG 120330Z 09011G20KT 10SM BKN060 17/08 A3010 460 55 800 090/11G20 RMK AO2
14840KMKG MKG20070511223510105/11/07 22:35:31  5-MIN KMKG 120335Z 09011G18KT 10SM BKN060 16/08 A3011 460 57 700 090/11G18 RMK AO2
14840KMKG MKG20070511224010805/11/07 22:40:31  5-MIN KMKG 120340Z 08012G18KT 10SM FEW050 BKN060 16/08 A3011 460 57 700 090/12G18 RMK AO2
14840KMKG MKG20070511224510205/11/07 22:45:31  5-MIN KMKG 120345Z 09011KT 10SM SCT050 OVC060 16/08 A3011 450 57 700 090/11 RMK AO2
14840KMKG MKG20070511225011905/11/07 22:50:31  5-MIN KMKG 120350Z 09013KT 10SM SCT050 BKN060 16/07 A3011 460 55 700 090/13 RMK AO2 SLP194 T01610072
14840KMKG MKG20070511225511905/11/07 22:55:31  5-MIN KMKG 120355Z 09010KT 10SM FEW050 BKN060 16/07 A3011 460 57 700 090/10 RMK AO2 SLP195 T01560072
14840KMKG MKG20070511230010205/11/07 23:00:31  5-MIN KMKG 120400Z 08009KT 10SM FEW050 BKN060 16/07 A3011 450 57 700 080/09 RMK AO2
14840KMKG MKG20070511230510205/11/07 23:05:31  5-MIN KMKG 120405Z 07011KT 10SM FEW050 BKN060 15/07 A3011 450 59 600 070/11 RMK AO2
14840KMKG MKG20070511231010205/11/07 23:10:31  5-MIN KMKG 120410Z 06010KT 10SM FEW050 SCT060 15/07 A3012 450 57 600 070/10 RMK AO2
14840KMKG MKG20070511231509505/11/07 23:15:31  5-MIN KMKG 120415Z 06010KT 10SM SCT060 14/07 A3012 450 59 500 070/10 RMK AO2
14840KMKG MKG20070511232009505/11/07 23:20:31  5-MIN KMKG 120420Z 07012KT 10SM FEW060 14/06 A3012 450 57 500 070/12 RMK AO2
14840KMKG MKG20070511232510105/11/07 23:25:31  5-MIN KMKG 120425Z 05010G16KT 10SM FEW060 14/06 A3012 440 57 500 050/10G16 RMK AO2
14840KMKG MKG20070511233009505/11/07 23:30:31  5-MIN KMKG 120430Z 06011KT 10SM FEW055 14/06 A3013 440 55 500 060/11 RMK AO2
14840KMKG MKG20070511233510105/11/07 23:35:31  5-MIN KMKG 120435Z 06012G17KT 10SM SCT060 14/05 A3013 440 55 500 070/12G17 RMK AO2
14840KMKG MKG20070511234010105/11/07 23:40:31  5-MIN KMKG 120440Z 07010G17KT 10SM BKN060 14/04 A3013 440 52 500 080/10G17 RMK AO2
14840KMKG MKG20070511234509505/11/07 23:45:31  5-MIN KMKG 120445Z 07013KT 10SM BKN060 14/04 A3012 440 50 500 070/13 RMK AO2
14840KMKG MKG20070511235012205/11/07 23:50:31  5-MIN KMKG 120450Z 07011KT 10SM SCT060 14/04 A3012 440 50 500 080/11 RMK AO2 SLP199 T01390039 402720100
14840KMKG MKG20070511235512205/11/07 23:55:31  5-MIN KMKG 120455Z 08009KT 10SM SCT060 13/04 A3012 440 52 400 080/09 RMK AO2 SLP200 T01330039 402720100
14840KMKG MKG20070512000009505/12/07 00:00:32  5-MIN KMKG 120500Z 07011KT 10SM SCT060 13/03 A3012 440 50 400 070/11 RMK AO2
14840KMKG MKG20070512000509505/12/07 00:05:31  5-MIN KMKG 120505Z 07009KT 10SM FEW060 13/03 A3012 440 50 400 070/09 RMK AO2
14840KMKG MKG20070512001009205/12/07 00:10:31  5-MIN KMKG 120510Z 08010KT 10SM CLR 13/03 A3012 440 50 400 090/10 RMK AO2
14840KMKG MKG20070512001509205/12/07 00:15:31  5-MIN KMKG 120515Z 08008KT 10SM CLR 13/03 A3012 440 52 300 090/08 RMK AO2
14840KMKG MKG20070512002009205/12/07 00:20:31  5-MIN KMKG 120520Z 07008KT 10SM CLR 13/03 A3013 440 52 300 070/08 RMK AO2
14840KMKG MKG20070512002509205/12/07 00:25:31  5-MIN KMKG 120525Z 06007KT 10SM CLR 13/03 A3013 440 52 300 070/07 RMK AO2
14840KMKG MKG20070512003009205/12/07 00:30:31  5-MIN KMKG 120530Z 07009KT 10SM CLR 13/03 A3013 440 52 300 070/09 RMK AO2
14840KMKG MKG20070512003509205/12/07 00:35:31  5-MIN KMKG 120535Z 07009KT 10SM CLR 13/03 A3013 440 52 300 080/09 RMK AO2
14840KMKG MKG20070512004009205/12/07 00:40:31  5-MIN KMKG 120540Z 07006KT 10SM CLR 13/03 A3013 430 52 300 070/06 RMK AO2
14840KMKG MKG20070512004509505/12/07 00:45:31  5-MIN KMKG 120545Z 06008KT 10SM FEW055 13/03 A3014 430 52 300 060/08 RMK AO2
14840KMKG MKG20070512005013005/12/07 00:50:31  5-MIN KMKG 120550Z 07009KT 10SM BKN055 13/03 A3014 430 52 300 070/09 RMK AO2 SLP203 T01280033 10228 20128 53027
14840KMKG MKG20070512005513005/12/07 00:55:31  5-MIN KMKG 120555Z 07006KT 10SM BKN055 13/03 A3013 430 52 300 080/06 RMK AO2 SLP202 T01280033 10228 20128 51013
14840KMKG MKG20070512010009505/12/07 01:00:31  5-MIN KMKG 120600Z 07007KT 10SM BKN055 13/04 A3013 430 54 300 080/07 RMK AO2
14840KMKG MKG20070512010509505/12/07 01:05:31  5-MIN KMKG 120605Z 07008KT 10SM BKN055 12/04 A3013 440 56 200 070/08 RMK AO2
14840KMKG MKG20070512011009505/12/07 01:10:31  5-MIN KMKG 120610Z 07006KT 10SM BKN055 12/04 A3013 440 56 200 070/06 RMK AO2
14840KMKG MKG20070512011509505/12/07 01:15:31  5-MIN KMKG 120615Z 06006KT 10SM SCT055 12/04 A3013 430 56 200 070/06 RMK AO2
14840KMKG MKG20070512012009505/12/07 01:20:31  5-MIN KMKG 120620Z 06008KT 10SM BKN055 12/04 A3013 440 56 200 070/08 RMK AO2
14840KMKG MKG20070512012509505/12/07 01:25:31  5-MIN KMKG 120625Z 06007KT 10SM BKN055 12/03 A3013 440 54 200 060/07 RMK AO2
14840KMKG MKG20070512013009505/12/07 01:30:31  5-MIN KMKG 120630Z 05009KT 10SM BKN055 12/03 A3013 440 54 200 060/09 RMK AO2
14840KMKG MKG20070512013509505/12/07 01:35:31  5-MIN KMKG 120635Z 06009KT 10SM BKN055 12/03 A3013 440 54 200 060/09 RMK AO2
14840KMKG MKG20070512014009505/12/07 01:40:31  5-MIN KMKG 120640Z 06007KT 10SM BKN055 12/03 A3013 440 54 200 070/07 RMK AO2
14840KMKG MKG20070512014509505/12/07 01:45:31  5-MIN KMKG 120645Z 06007KT 10SM OVC050 12/03 A3013 430 54 200 060/07 RMK AO2
14840KMKG MKG20070512015011205/12/07 01:50:31  5-MIN KMKG 120650Z 05007KT 10SM OVC050 13/03 A3014 430 52 300 050/07 RMK AO2 SLP203 T01280033
14840KMKG MKG20070512015511205/12/07 01:55:31  5-MIN KMKG 120655Z 06007KT 10SM OVC055 13/03 A3014 430 52 300 060/07 RMK AO2 SLP205 T01280033
14840KMKG MKG20070512020009505/12/07 02:00:31  5-MIN KMKG 120700Z 06009KT 10SM OVC055 13/03 A3013 430 52 300 060/09 RMK AO2
14840KMKG MKG20070512020510205/12/07 02:05:31  5-MIN KMKG 120705Z 06008KT 10SM BKN050 OVC060 13/03 A3013 440 50 300 070/08 RMK AO2
14840KMKG MKG20070512021010205/12/07 02:10:31  5-MIN KMKG 120710Z 08008KT 10SM BKN050 OVC060 13/03 A3013 440 50 300 080/08 RMK AO2
14840KMKG MKG20070512021510205/12/07 02:15:31  5-MIN KMKG 120715Z 08007KT 10SM BKN050 OVC060 13/03 A3013 440 50 300 080/07 RMK AO2
14840KMKG MKG20070512022010205/12/07 02:20:31  5-MIN KMKG 120720Z 08007KT 10SM BKN050 BKN060 12/03 A3013 440 52 300 080/07 RMK AO2
14840KMKG MKG20070512022509505/12/07 02:25:31  5-MIN KMKG 120725Z 08009KT 10SM BKN055 13/03 A3013 440 50 300 080/09 RMK AO2
14840KMKG MKG20070512023009505/12/07 02:30:31  5-MIN KMKG 120730Z 08008KT 10SM BKN055 12/03 A3012 440 52 300 090/08 RMK AO2
14840KMKG MKG20070512030009205/12/07 03:00:31  5-MIN KMKG 120800Z 05007KT 10SM CLR 12/03 A3013 440 52 300 060/07 RMK AO2
14840KMKG MKG20070512030509205/12/07 03:05:31  5-MIN KMKG 120805Z 05007KT 10SM CLR 12/03 A3013 440 52 300 050/07 RMK AO2
14840KMKG MKG20070512031009205/12/07 03:10:31  5-MIN KMKG 120810Z 06006KT 10SM CLR 12/03 A3013 440 52 300 060/06 RMK AO2
14840KMKG MKG20070512031509205/12/07 03:15:31  5-MIN KMKG 120815Z 05006KT 10SM CLR 12/03 A3013 440 54 200 060/06 RMK AO2
14840KMKG MKG20070512032009205/12/07 03:20:31  5-MIN KMKG 120820Z 06006KT 10SM CLR 12/03 A3012 440 54 200 060/06 RMK AO2
14840KMKG MKG20070512032509205/12/07 03:25:31  5-MIN KMKG 120825Z 06006KT 10SM CLR 12/03 A3012 440 54 200 060/06 RMK AO2
14840KMKG MKG20070512033009205/12/07 03:30:31  5-MIN KMKG 120830Z 07006KT 10SM CLR 11/03 A3013 440 56 100 070/06 RMK AO2
14840KMKG MKG20070512033509205/12/07 03:35:31  5-MIN KMKG 120835Z 07006KT 10SM CLR 11/03 A3013 440 56 100 070/06 RMK AO2
14840KMKG MKG20070512034009205/12/07 03:40:31  5-MIN KMKG 120840Z 05005KT 10SM CLR 11/03 A3013 440 56 100 060/05 RMK AO2
14840KMKG MKG20070512034509205/12/07 03:45:31  5-MIN KMKG 120845Z 04006KT 10SM CLR 12/03 A3013 440 54 200 050/06 RMK AO2
14840KMKG MKG20070512035011505/12/07 03:50:31  5-MIN KMKG 120850Z 06006KT 10SM CLR 12/03 A3013 440 54 200 060/06 RMK AO2 SLP202 T01170028 51013
14840KMKG MKG20070512035511505/12/07 03:55:31  5-MIN KMKG 120855Z 07006KT 10SM CLR 12/03 A3012 440 54 200 080/06 RMK AO2 SLP200 T01170028 58003
14840KMKG MKG20070512040009205/12/07 04:00:31  5-MIN KMKG 120900Z 05004KT 10SM CLR 11/03 A3013 440 56 100 050/04 RMK AO2
14840KMKG MKG20070512040509205/12/07 04:05:31  5-MIN KMKG 120905Z 03005KT 10SM CLR 11/03 A3014 430 56 100 040/05 RMK AO2
14840KMKG MKG20070512041009205/12/07 04:10:31  5-MIN KMKG 120910Z 04004KT 10SM CLR 12/03 A3014 430 54 200 040/04 RMK AO2
14840KMKG MKG20070512041509205/12/07 04:15:31  5-MIN KMKG 120915Z 06006KT 10SM CLR 12/03 A3014 430 54 200 060/06 RMK AO2
14840KMKG MKG20070512042009505/12/07 04:20:31  5-MIN KMKG 120920Z 05006KT 10SM FEW055 12/03 A3014 430 54 200 050/06 RMK AO2
14840KMKG MKG20070512042509505/12/07 04:25:31  5-MIN KMKG 120925Z 04006KT 10SM FEW060 12/03 A3014 430 54 200 050/06 RMK AO2
14840KMKG MKG20070512043009505/12/07 04:30:31  5-MIN KMKG 120930Z 03005KT 10SM FEW055 12/03 A3014 430 54 200 030/05 RMK AO2
14840KMKG MKG20070512043509505/12/07 04:35:31  5-MIN KMKG 120935Z 02006KT 10SM FEW055 11/03 A3015 420 58 100 020/06 RMK AO2
14840KMKG MKG20070512044009505/12/07 04:40:31  5-MIN KMKG 120940Z 02006KT 10SM FEW055 11/03 A3015 420 58 100 020/06 RMK AO2
14840KMKG MKG20070512044509505/12/07 04:45:31  5-MIN KMKG 120945Z 03006KT 10SM SCT055 12/03 A3015 420 54 200 040/06 RMK AO2
14840KMKG MKG20070512045011205/12/07 04:50:31  5-MIN KMKG 120950Z 04005KT 10SM SCT055 12/03 A3015 420 56 200 050/05 RMK AO2 SLP208 T01170033
14840KMKG MKG20070512045511205/12/07 04:55:31  5-MIN KMKG 120955Z 05006KT 10SM SCT060 11/03 A3015 420 58 100 060/06 RMK AO2 SLP207 T01110033
14840KMKG MKG20070512050009505/12/07 05:00:31  5-MIN KMKG 121000Z 04006KT 10SM SCT055 11/03 A3015 420 58 100 050/06 RMK AO2
14840KMKG MKG20070512050509505/12/07 05:05:31  5-MIN KMKG 121005Z 03006KT 10SM FEW055 11/03 A3016 410 58 100 030/06 RMK AO2
14840KMKG MKG20070512051009505/12/07 05:10:31  5-MIN KMKG 121010Z 02004KT 10SM SCT055 11/03 A3016 410 58 100 020/04 RMK AO2
14840KMKG MKG20070512051509505/12/07 05:15:31  5-MIN KMKG 121015Z 02005KT 10SM BKN055 11/03 A3017 400 58 100 020/05 RMK AO2
14840KMKG MKG20070512052009505/12/07 05:20:31  5-MIN KMKG 121020Z 02004KT 10SM BKN055 12/03 A3017 400 56 100 020/04 RMK AO2
14840KMKG MKG20070512052509505/12/07 05:25:31  5-MIN KMKG 121025Z 02006KT 10SM BKN055 12/03 A3017 400 56 100 020/06 RMK AO2
14840KMKG MKG20070512053009505/12/07 05:30:31  5-MIN KMKG 121030Z 02007KT 10SM BKN055 12/03 A3017 400 56 100 030/07 RMK AO2
14840KMKG MKG20070512053509505/12/07 05:35:31  5-MIN KMKG 121035Z 03005KT 10SM BKN060 11/03 A3017 400 58 100 040/05 RMK AO2
14840KMKG MKG20070512054009505/12/07 05:40:31  5-MIN KMKG 121040Z 04005KT 10SM BKN060 11/03 A3017 400 58 100 040/05 RMK AO2
14840KMKG MKG20070512054509505/12/07 05:45:31  5-MIN KMKG 121045Z 05005KT 10SM BKN060 11/04 A3017 400 61 100 050/05 RMK AO2
14840KMKG MKG20070512055011205/12/07 05:50:31  5-MIN KMKG 121050Z 05007KT 10SM BKN060 11/04 A3017 400 61 100 060/07 RMK AO2 SLP214 T01110039
14840KMKG MKG20070512055511205/12/07 05:55:31  5-MIN KMKG 121055Z 04007KT 10SM BKN060 11/03 A3017 400 58 100 050/07 RMK AO2 SLP216 T01110033
14840KMKG MKG20070512060010205/12/07 06:00:31  5-MIN KMKG 121100Z 05005KT 10SM FEW060 SCT120 11/04 A3018 390 61 100 050/05 RMK AO2
14840KMKG MKG20070512060509505/12/07 06:05:31  5-MIN KMKG 121105Z 04005KT 10SM FEW120 11/04 A3018 390 61 100 050/05 RMK AO2
14840KMKG MKG20070512061009505/12/07 06:10:31  5-MIN KMKG 121110Z 04007KT 10SM FEW120 11/04 A3018 390 61 100 050/07 RMK AO2
14840KMKG MKG20070512061509505/12/07 06:15:31  5-MIN KMKG 121115Z 05008KT 10SM BKN120 11/03 A3018 390 58 100 050/08 RMK AO2
14840KMKG MKG20070512062010205/12/07 06:20:31  5-MIN KMKG 121120Z 06006KT 10SM FEW060 BKN120 11/04 A3018 390 61 100 060/06 RMK AO2
14840KMKG MKG20070512062510205/12/07 06:25:31  5-MIN KMKG 121125Z 06006KT 10SM FEW060 BKN120 11/04 A3017 400 61 100 060/06 RMK AO2
14840KMKG MKG20070512063010205/12/07 06:30:31  5-MIN KMKG 121130Z 06008KT 10SM FEW060 BKN120 11/03 A3018 390 58 100 060/08 RMK AO2
14840KMKG MKG20070512063510205/12/07 06:35:31  5-MIN KMKG 121135Z 04006KT 10SM FEW065 BKN120 11/04 A3018 390 61 100 050/06 RMK AO2
14840KMKG MKG20070512064010205/12/07 06:40:31  5-MIN KMKG 121140Z 05007KT 10SM FEW065 BKN120 11/04 A3018 390 61 100 050/07 RMK AO2
14840KMKG MKG20070512064509505/12/07 06:45:31  5-MIN KMKG 121145Z 05006KT 10SM BKN120 11/04 A3018 390 61 100 050/06 RMK AO2
14840KMKG MKG20070512065013005/12/07 06:50:31  5-MIN KMKG 121150Z 05006KT 10SM BKN120 11/04 A3018 390 61 100 060/06 RMK AO2 SLP219 T01110039 10128 20111 58003
14840KMKG MKG20070512065513005/12/07 06:55:31  5-MIN KMKG 121155Z 05007KT 10SM BKN120 11/04 A3019 390 61 100 050/07 RMK AO2 SLP220 T01110039 10128 20111 51020
14840KMKG MKG20070512070009205/12/07 07:00:31  5-MIN KMKG 121200Z 05008KT 10SM CLR 11/04 A3018 390 61 100 060/08 RMK AO2
14840KMKG MKG20070512070509505/12/07 07:05:31  5-MIN KMKG 121205Z 05008KT 10SM FEW120 12/04 A3019 380 58 100 060/08 RMK AO2
14840KMKG MKG20070512071009505/12/07 07:10:31  5-MIN KMKG 121210Z 05008KT 10SM FEW120 12/04 A3019 380 58 100 050/08 RMK AO2
14840KMKG MKG20070512071509305/12/07 07:15:31  5-MIN KMKG 121215Z 06009KT 10SM FEW120 11/04 A3019 380 61 0 060/09 RMK AO2
14840KMKG MKG20070512072009505/12/07 07:20:31  5-MIN KMKG 121220Z 05007KT 10SM FEW120 12/04 A3019 380 58 100 050/07 RMK AO2
14840KMKG MKG20070512072509505/12/07 07:25:31  5-MIN KMKG 121225Z 06007KT 10SM FEW120 12/04 A3019 380 58 100 070/07 RMK AO2
14840KMKG MKG20070512073009305/12/07 07:30:31  5-MIN KMKG 121230Z 06007KT 10SM FEW110 11/04 A3020 380 61 0 060/07 RMK AO2
14840KMKG MKG20070512073509505/12/07 07:35:31  5-MIN KMKG 121235Z 06008KT 10SM FEW110 12/04 A3020 370 58 100 060/08 RMK AO2
14840KMKG MKG20070512074009505/12/07 07:40:31  5-MIN KMKG 121240Z 06010KT 10SM SCT049 12/04 A3020 370 56 200 060/10 RMK AO2
14840KMKG MKG20070512074509505/12/07 07:45:31  5-MIN KMKG 121245Z 05008KT 10SM BKN049 12/04 A3020 370 56 200 060/08 RMK AO2
14840KMKG MKG20070512075011205/12/07 07:50:31  5-MIN KMKG 121250Z 06008KT 10SM BKN049 12/04 A3020 370 56 200 070/08 RMK AO2 SLP228 T01220039
14840KMKG MKG20070512075511205/12/07 07:55:31  5-MIN KMKG 121255Z 06009KT 10SM BKN049 13/04 A3020 370 54 200 060/09 RMK AO2 SLP228 T01280039
14840KMKG MKG20070512080009505/12/07 08:00:31  5-MIN KMKG 121300Z 04007KT 10SM BKN049 13/04 A3021 370 54 200 050/07 RMK AO2
14840KMKG MKG20070512080510105/12/07 08:05:31  5-MIN KMKG 121305Z 06009G15KT 10SM BKN049 13/04 A3021 370 52 300 070/09G15 RMK AO2
14840KMKG MKG20070512081009705/12/07 08:10:31  5-MIN KMKG 121310Z 07008KT 10SM BKN049 13/04 A3021 360 52 300 080/08 RMK AO2 $
14840KMKG MKG20070512081509705/12/07 08:15:31  5-MIN KMKG 121315Z 07010KT 10SM SCT049 13/03 A3021 360 50 300 070/10 RMK AO2 $
14840KMKG MKG20070512082009705/12/07 08:20:31  5-MIN KMKG 121320Z 06011KT 10SM SCT049 13/03 A3021 370 52 200 070/11 RMK AO2 $
14840KMKG MKG20070512082510305/12/07 08:25:31  5-MIN KMKG 121325Z 05008G16KT 10SM FEW049 13/03 A3021 370 50 300 060/08G16 RMK AO2 $
14840KMKG MKG20070512083009705/12/07 08:30:31  5-MIN KMKG 121330Z 07008KT 10SM FEW049 14/04 A3021 370 50 400 080/08 RMK AO2 $
14840KMKG MKG20070512083509405/12/07 08:35:31  5-MIN KMKG 121335Z 07009KT 10SM CLR 13/03 A3021 370 50 300 080/09 RMK AO2 $
14840KMKG MKG20070512084009405/12/07 08:40:31  5-MIN KMKG 121340Z 07013KT 10SM CLR 14/03 A3021 370 48 400 080/13 RMK AO2 $
14840KMKG MKG20070512084509405/12/07 08:45:31  5-MIN KMKG 121345Z 06010KT 10SM CLR 13/03 A3021 360 50 300 060/10 RMK AO2 $
14840KMKG MKG20070512085011105/12/07 08:50:31  5-MIN KMKG 121350Z 08011KT 10SM CLR 14/03 A3021 360 48 400 080/11 RMK AO2 SLP230 T01390033 $
14840KMKG MKG20070512085511105/12/07 08:55:31  5-MIN KMKG 121355Z 06009KT 10SM CLR 13/03 A3021 360 50 300 060/09 RMK AO2 SLP231 T01330033 $
14840KMKG MKG20070512090009405/12/07 09:00:31  5-MIN KMKG 121400Z 08012KT 10SM CLR 13/03 A3021 360 48 300 080/12 RMK AO2 $
14840KMKG MKG20070512090509405/12/07 09:05:31  5-MIN KMKG 121405Z 08010KT 10SM CLR 14/03 A3022 360 47 400 080/10 RMK AO2 $
14840KMKG MKG20070512091009405/12/07 09:10:31  5-MIN KMKG 121410Z 07011KT 10SM CLR 14/03 A3022 360 47 400 070/11 RMK AO2 $
14840KMKG MKG20070512091509405/12/07 09:15:31  5-MIN KMKG 121415Z 06007KT 10SM CLR 14/03 A3021 360 47 400 060/07 RMK AO2 $
14840KMKG MKG20070512092009405/12/07 09:20:31  5-MIN KMKG 121420Z 08008KT 10SM CLR 15/04 A3022 360 47 500 080/08 RMK AO2 $
14840KMKG MKG20070512092510805/12/07 09:25:31  5-MIN KMKG 121425Z 06009KT 030V090 10SM CLR 16/04 A3022 350 45 500 060/09 030V090 RMK AO2
14840KMKG MKG20070512093009205/12/07 09:30:31  5-MIN KMKG 121430Z 05007KT 10SM CLR 15/03 A3022 350 45 500 050/07 RMK AO2
14840KMKG MKG20070512093509205/12/07 09:35:31  5-MIN KMKG 121435Z 05007KT 10SM CLR 16/03 A3022 350 43 500 050/07 RMK AO2
14840KMKG MKG20070512094009205/12/07 09:40:31  5-MIN KMKG 121440Z 06007KT 10SM CLR 15/03 A3022 350 45 500 060/07 RMK AO2
14840KMKG MKG20070512094509205/12/07 09:45:31  5-MIN KMKG 121445Z 04010KT 10SM CLR 16/04 A3022 350 45 500 050/10 RMK AO2
14840KMKG MKG20070512095011505/12/07 09:50:31  5-MIN KMKG 121450Z 04010KT 10SM CLR 15/03 A3022 350 45 500 040/10 RMK AO2 SLP235 T01500033 51020
14840KMKG MKG20070512095511505/12/07 09:55:31  5-MIN KMKG 121455Z 03009KT 10SM CLR 16/03 A3023 350 43 500 030/09 RMK AO2 SLP235 T01560033 51014
14840KMKG MKG20070512100009805/12/07 10:00:31  5-MIN KMKG 121500Z 06010G16KT 10SM CLR 16/03 A3023 350 42 500 070/10G16 RMK AO2
14840KMKG MKG20070512100509805/12/07 10:05:31  5-MIN KMKG 121505Z 05009G16KT 10SM CLR 16/03 A3023 340 42 500 060/09G16 RMK AO2
14840KMKG MKG20070512101009205/12/07 10:10:31  5-MIN KMKG 121510Z 08008KT 10SM CLR 16/03 A3023 340 42 500 090/08 RMK AO2
14840KMKG MKG20070512101509205/12/07 10:15:31  5-MIN KMKG 121515Z 06009KT 10SM CLR 16/03 A3023 350 42 600 060/09 RMK AO2
14840KMKG MKG20070512102009205/12/07 10:20:31  5-MIN KMKG 121520Z 03008KT 10SM CLR 16/03 A3023 350 40 600 040/08 RMK AO2
14840KMKG MKG20070512102509205/12/07 10:25:31  5-MIN KMKG 121525Z 06008KT 10SM CLR 17/03 A3023 340 40 700 060/08 RMK AO2
14840KMKG MKG20070512103009205/12/07 10:30:31  5-MIN KMKG 121530Z 07006KT 10SM CLR 17/03 A3023 350 40 700 070/06 RMK AO2
14840KMKG MKG20070512103510805/12/07 10:35:31  5-MIN KMKG 121535Z 07007KT 040V120 10SM CLR 17/04 A3023 350 41 700 070/07 040V120 RMK AO2
14840KMKG MKG20070512104009205/12/07 10:40:31  5-MIN KMKG 121540Z 05008KT 10SM CLR 17/03 A3023 340 39 700 060/08 RMK AO2
14840KMKG MKG20070512104509205/12/07 10:45:31  5-MIN KMKG 121545Z 04007KT 10SM CLR 17/03 A3023 340 37 700 040/07 RMK AO2
14840KMKG MKG20070512105010905/12/07 10:50:31  5-MIN KMKG 121550Z 05008KT 10SM CLR 17/03 A3023 340 37 700 050/08 RMK AO2 SLP237 T01720028
14840KMKG MKG20070512105510905/12/07 10:55:31  5-MIN KMKG 121555Z 02006KT 10SM CLR 17/03 A3023 350 37 700 030/06 RMK AO2 SLP236 T01720028
14840KMKG MKG20070512110009205/12/07 11:00:31  5-MIN KMKG 121600Z 01009KT 10SM CLR 18/03 A3023 350 38 800 020/09 RMK AO2
14840KMKG MKG20070512110509805/12/07 11:05:31  5-MIN KMKG 121605Z 03008G15KT 10SM CLR 18/03 A3023 340 36 800 030/08G15 RMK AO2
14840KMKG MKG20070512111009805/12/07 11:10:31  5-MIN KMKG 121610Z 03010G15KT 10SM CLR 18/03 A3023 340 36 800 030/10G15 RMK AO2
14840KMKG MKG20070512111509205/12/07 11:15:31  5-MIN KMKG 121615Z 04011KT 10SM CLR 18/02 A3023 350 35 800 050/11 RMK AO2
14840KMKG MKG20070512112009805/12/07 11:20:31  5-MIN KMKG 121620Z 03008G16KT 10SM CLR 18/02 A3023 350 35 800 030/08G16 RMK AO2
14840KMKG MKG20070512112509205/12/07 11:25:31  5-MIN KMKG 121625Z 03011KT 10SM CLR 18/02 A3023 350 34 900 030/11 RMK AO2
14840KMKG MKG20070512113009205/12/07 11:30:31  5-MIN KMKG 121630Z 01009KT 10SM CLR 18/02 A3022 350 34 900 010/09 RMK AO2
14840KMKG MKG20070512113510805/12/07 11:35:31  5-MIN KMKG 121635Z 02009KT 340V060 10SM CLR 18/02 A3022 350 34 900 020/09 340V060 RMK AO2
14840KMKG MKG20070512114009205/12/07 11:40:31  5-MIN KMKG 121640Z VRB06KT 10SM CLR 18/02 A3023 350 34 900 VRB/06 RMK AO2
14840KMKG MKG20070512114509205/12/07 11:45:31  5-MIN KMKG 121645Z 03008KT 10SM CLR 18/02 A3023 350 34 900 030/08 RMK AO2
14840KMKG MKG20070512115011505/12/07 11:50:31  5-MIN KMKG 121650Z 34006G14KT 10SM CLR 18/02 A3023 350 34 900 340/06G14 RMK AO2 SLP235 T01830022
14840KMKG MKG20070512115510905/12/07 11:55:31  5-MIN KMKG 121655Z 01008KT 10SM CLR 19/02 A3022 350 32 900 010/08 RMK AO2 SLP234 T01890022
14840KMKG MKG20070512120009205/12/07 12:00:31  5-MIN KMKG 121700Z 02009KT 10SM CLR 19/02 A3023 350 32 900 020/09 RMK AO2
14840KMKG MKG20070512120509205/12/07 12:05:31  5-MIN KMKG 121705Z 03009KT 10SM CLR 18/01 A3023 350 31 900 040/09 RMK AO2
14840KMKG MKG20070512121009205/12/07 12:10:31  5-MIN KMKG 121710Z 06011KT 10SM CLR 19/02 A3023 350 31 900 060/11 RMK AO2
14840KMKG MKG20070512121509205/12/07 12:15:31  5-MIN KMKG 121715Z VRB06KT 10SM CLR 18/02 A3022 350 34 900 VRB/06 RMK AO2
14840KMKG MKG20070512122009605/12/07 12:20:31  5-MIN KMKG 121720Z 03007KT 10SM FEW090 19/03 A3022 350 34 1000 030/07 RMK AO2
14840KMKG MKG20070512122510205/12/07 12:25:31  5-MIN KMKG 121725Z 03006G14KT 10SM FEW090 19/02 A3022 350 31 1000 030/06G14 RMK AO2
14840KMKG MKG20070512123010205/12/07 12:30:31  5-MIN KMKG 121730Z 07008G14KT 10SM FEW085 19/02 A3022 350 30 1000 070/08G14 RMK AO2
14840KMKG MKG20070512123509205/12/07 12:35:31  5-MIN KMKG 121735Z 05008KT 10SM CLR 19/02 A3022 350 32 900 050/08 RMK AO2
14840KMKG MKG20070512124009205/12/07 12:40:31  5-MIN KMKG 121740Z VRB04KT 10SM CLR 19/02 A3022 360 32 900 VRB/04 RMK AO2
14840KMKG MKG20070512124510905/12/07 12:45:31  5-MIN KMKG 121745Z 03008KT 330V070 10SM CLR 19/03 A3021 360 33 1000 030/08 330V070 RMK AO2
14840KMKG MKG20070512125012805/12/07 12:50:31  5-MIN KMKG 121750Z 05008KT 10SM CLR 19/03 A3022 360 33 1000 060/08 RMK AO2 SLP232 T01940028 10194 20111 51014
14840KMKG MKG20070512125512805/12/07 12:55:31  5-MIN KMKG 121755Z 02008KT 10SM CLR 19/02 A3021 360 30 1000 030/08 RMK AO2 SLP231 T01940017 10194 20111 58004
14840KMKG MKG20070512130009905/12/07 13:00:31  5-MIN KMKG 121800Z 01008G16KT 10SM CLR 19/02 A3021 360 31 1000 010/08G16 RMK AO2
14840KMKG MKG20070512130509905/12/07 13:05:31  5-MIN KMKG 121805Z 01009G16KT 10SM CLR 19/02 A3021 360 31 1000 020/09G16 RMK AO2
14840KMKG MKG20070512131009305/12/07 13:10:31  5-MIN KMKG 121810Z 02007KT 10SM CLR 19/02 A3021 360 30 1000 030/07 RMK AO2
14840KMKG MKG20070512131509305/12/07 13:15:31  5-MIN KMKG 121815Z VRB06KT 10SM CLR 19/03 A3021 360 34 1000 VRB/06 RMK AO2
14840KMKG MKG20070512132009205/12/07 13:20:31  5-MIN KMKG 121820Z 28009KT 10SM CLR 18/06 A3021 360 42 900 280/09 RMK AO2
14840KMKG MKG20070512132509205/12/07 13:25:31  5-MIN KMKG 121825Z 28010KT 10SM CLR 18/05 A3021 370 42 800 280/10 RMK AO2
14840KMKG MKG20070512133009205/12/07 13:30:31  5-MIN KMKG 121830Z 27008KT 10SM CLR 18/05 A3020 370 42 800 270/08 RMK AO2
14840KMKG MKG20070512133509205/12/07 13:35:31  5-MIN KMKG 121835Z 27007KT 10SM CLR 18/05 A3020 370 42 800 270/07 RMK AO2
14840KMKG MKG20070512134009205/12/07 13:40:31  5-MIN KMKG 121840Z 27009KT 10SM CLR 18/06 A3021 370 44 900 270/09 RMK AO2
14840KMKG MKG20070512134509205/12/07 13:45:31  5-MIN KMKG 121845Z 26009KT 10SM CLR 18/06 A3020 370 42 900 270/09 RMK AO2
14840KMKG MKG20070512135010905/12/07 13:50:31  5-MIN KMKG 121850Z 26007KT 10SM CLR 18/05 A3020 370 41 900 260/07 RMK AO2 SLP227 T01830050
14840KMKG MKG20070512135510905/12/07 13:55:31  5-MIN KMKG 121855Z 25009KT 10SM CLR 18/06 A3020 370 42 900 260/09 RMK AO2 SLP227 T01830056
14840KMKG MKG20070512140009305/12/07 14:00:31  5-MIN KMKG 121900Z 27009KT 10SM CLR 19/06 A3020 370 41 1000 280/09 RMK AO2
14840KMKG MKG20070512140509305/12/07 14:05:31  5-MIN KMKG 121905Z 27007KT 10SM CLR 19/05 A3020 370 39 1000 280/07 RMK AO2
14840KMKG MKG20070512141009305/12/07 14:10:31  5-MIN KMKG 121910Z 25009KT 10SM CLR 19/05 A3020 380 39 1000 260/09 RMK AO2
14840KMKG MKG20070512141509205/12/07 14:15:31  5-MIN KMKG 121915Z 25007KT 10SM CLR 18/05 A3020 380 41 900 250/07 RMK AO2
14840KMKG MKG20070512142009305/12/07 14:20:31  5-MIN KMKG 121920Z 25008KT 10SM CLR 19/05 A3019 380 39 1000 260/08 RMK AO2
14840KMKG MKG20070512142509305/12/07 14:25:31  5-MIN KMKG 121925Z 27009KT 10SM CLR 19/06 A3019 380 40 1000 280/09 RMK AO2
14840KMKG MKG20070512143009305/12/07 14:30:31  5-MIN KMKG 121930Z 27009KT 10SM CLR 19/04 A3019 380 38 1000 270/09 RMK AO2
14840KMKG MKG20070512143509305/12/07 14:35:31  5-MIN KMKG 121935Z 26009KT 10SM CLR 19/06 A3019 380 40 1000 270/09 RMK AO2
14840KMKG MKG20070512144009305/12/07 14:40:31  5-MIN KMKG 121940Z 28007KT 10SM CLR 19/05 A3019 380 39 1000 280/07 RMK AO2
14840KMKG MKG20070512144509305/12/07 14:45:31  5-MIN KMKG 121945Z 27008KT 10SM CLR 19/05 A3018 390 39 1000 280/08 RMK AO2
14840KMKG MKG20070512145011005/12/07 14:50:31  5-MIN KMKG 121950Z 25008KT 10SM CLR 19/05 A3018 390 39 1000 260/08 RMK AO2 SLP221 T01890050
14840KMKG MKG20070512145511005/12/07 14:55:31  5-MIN KMKG 121955Z 27008KT 10SM CLR 19/06 A3018 390 43 1000 270/08 RMK AO2 SLP221 T01890061
14840KMKG MKG20070512150009305/12/07 15:00:31  5-MIN KMKG 122000Z 28008KT 10SM CLR 19/06 A3018 390 41 1000 280/08 RMK AO2
14840KMKG MKG20070512150509205/12/07 15:05:31  5-MIN KMKG 122005Z 27009KT 10SM CLR 18/06 A3018 390 42 900 280/09 RMK AO2
14840KMKG MKG20070512151009205/12/07 15:10:31  5-MIN KMKG 122010Z 28012KT 10SM CLR 18/06 A3018 390 42 900 290/12 RMK AO2
14840KMKG MKG20070512151509205/12/07 15:15:31  5-MIN KMKG 122015Z 27009KT 10SM CLR 18/06 A3018 390 42 900 280/09 RMK AO2
14840KMKG MKG20070512152009205/12/07 15:20:31  5-MIN KMKG 122020Z 29007KT 10SM CLR 18/05 A3018 390 41 900 300/07 RMK AO2
14840KMKG MKG20070512152509205/12/07 15:25:31  5-MIN KMKG 122025Z 29009KT 10SM CLR 18/05 A3018 390 41 900 300/09 RMK AO2
14840KMKG MKG20070512153009305/12/07 15:30:31  5-MIN KMKG 122030Z 29009KT 10SM CLR 19/05 A3018 390 39 1000 300/09 RMK AO2
14840KMKG MKG20070512153509305/12/07 15:35:31  5-MIN KMKG 122035Z 29010KT 10SM CLR 19/06 A3018 390 41 1000 300/10 RMK AO2
14840KMKG MKG20070512154009305/12/07 15:40:31  5-MIN KMKG 122040Z 28009KT 10SM CLR 19/05 A3018 390 39 1000 290/09 RMK AO2
14840KMKG MKG20070512154509605/12/07 15:45:31  5-MIN KMKG 122045Z 29009KT 10SM FEW065 19/06 A3018 390 41 1000 290/09 RMK AO2
14840KMKG MKG20070512155011805/12/07 15:50:31  5-MIN KMKG 122050Z 29010KT 10SM FEW065 18/05 A3018 390 41 900 290/10 RMK AO2 SLP220 T01830050 58004
14840KMKG MKG20070512155511805/12/07 15:55:31  5-MIN KMKG 122055Z 27011KT 10SM FEW085 18/06 A3018 390 42 900 280/11 RMK AO2 SLP220 T01830056 56011
14840KMKG MKG20070512160009205/12/07 16:00:31  5-MIN KMKG 122100Z 28009KT 10SM CLR 18/06 A3018 390 42 900 290/09 RMK AO2
14840KMKG MKG20070512160509205/12/07 16:05:31  5-MIN KMKG 122105Z 28009KT 10SM CLR 18/06 A3018 390 42 900 290/09 RMK AO2
14840KMKG MKG20070512161009205/12/07 16:10:31  5-MIN KMKG 122110Z 27008KT 10SM CLR 18/06 A3018 390 42 900 270/08 RMK AO2
14840KMKG MKG20070512161509205/12/07 16:15:31  5-MIN KMKG 122115Z 28009KT 10SM CLR 18/06 A3018 390 42 900 290/09 RMK AO2
14840KMKG MKG20070512162009305/12/07 16:20:31  5-MIN KMKG 122120Z 28009KT 10SM CLR 19/06 A3018 400 41 1000 290/09 RMK AO2
14840KMKG MKG20070512162509305/12/07 16:25:31  5-MIN KMKG 122125Z 28008KT 10SM CLR 19/06 A3018 400 41 1000 280/08 RMK AO2
14840KMKG MKG20070512163009305/12/07 16:30:31  5-MIN KMKG 122130Z 27010KT 10SM CLR 19/06 A3018 390 41 1000 280/10 RMK AO2
14840KMKG MKG20070512163509305/12/07 16:35:31  5-MIN KMKG 122135Z 28011KT 10SM CLR 19/05 A3017 400 39 1000 290/11 RMK AO2
14840KMKG MKG20070512164009305/12/07 16:40:31  5-MIN KMKG 122140Z 28011KT 10SM CLR 19/06 A3017 400 41 1000 280/11 RMK AO2
14840KMKG MKG20070512164509605/12/07 16:45:31  5-MIN KMKG 122145Z 27009KT 10SM FEW085 19/05 A3017 400 39 1000 270/09 RMK AO2
14840KMKG MKG20070512165011305/12/07 16:50:31  5-MIN KMKG 122150Z 28011KT 10SM FEW085 19/05 A3017 400 39 1000 290/11 RMK AO2 SLP218 T01890050
14840KMKG MKG20070512165511305/12/07 16:55:31  5-MIN KMKG 122155Z 29013KT 10SM FEW085 19/05 A3017 400 39 1000 300/13 RMK AO2 SLP217 T01890050
14840KMKG MKG20070512170009905/12/07 17:00:31  5-MIN KMKG 122200Z 29011G18KT 10SM CLR 19/05 A3017 400 39 1000 290/11G18 RMK AO2
14840KMKG MKG20070512170509905/12/07 17:05:31  5-MIN KMKG 122205Z 30010G18KT 10SM CLR 19/04 A3017 400 38 1000 300/10G18 RMK AO2
14840KMKG MKG20070512171009305/12/07 17:10:31  5-MIN KMKG 122210Z 31010KT 10SM CLR 19/05 A3018 400 39 1000 320/10 RMK AO2
14840KMKG MKG20070512171509905/12/07 17:15:31  5-MIN KMKG 122215Z 31011G17KT 10SM CLR 19/05 A3017 400 39 1000 310/11G17 RMK AO2
14840KMKG MKG20070512172009905/12/07 17:20:31  5-MIN KMKG 122220Z 33012G17KT 10SM CLR 19/05 A3018 390 38 1000 340/12G17 RMK AO2
14840KMKG MKG20070512172509905/12/07 17:25:31  5-MIN KMKG 122225Z 32011G17KT 10SM CLR 19/04 A3017 400 38 1000 320/11G17 RMK AO2
14840KMKG MKG20070512173009305/12/07 17:30:31  5-MIN KMKG 122230Z 32011KT 10SM CLR 19/04 A3018 390 38 1000 330/11 RMK AO2
14840KMKG MKG20070512173509305/12/07 17:35:31  5-MIN KMKG 122235Z 32010KT 10SM CLR 19/04 A3018 400 37 1000 320/10 RMK AO2
14840KMKG MKG20070512174009305/12/07 17:40:31  5-MIN KMKG 122240Z 33011KT 10SM CLR 19/04 A3018 390 38 1000 340/11 RMK AO2
14840KMKG MKG20070512174509305/12/07 17:45:31  5-MIN KMKG 122245Z 33012KT 10SM CLR 19/04 A3018 390 38 1000 330/12 RMK AO2
14840KMKG MKG20070512175011305/12/07 17:50:31  5-MIN KMKG 122250Z 32011KT 10SM FEW085 19/04 A3018 390 38 1000 330/11 RMK AO2 SLP219 T01890044
14840KMKG MKG20070512175511305/12/07 17:55:31  5-MIN KMKG 122255Z 34011KT 10SM FEW085 19/04 A3018 390 38 1000 340/11 RMK AO2 SLP220 T01890044
14840KMKG MKG20070512180009305/12/07 18:00:31  5-MIN KMKG 122300Z 34013KT 10SM CLR 19/04 A3018 390 38 1000 340/13 RMK AO2
14840KMKG MKG20070512180509305/12/07 18:05:31  5-MIN KMKG 122305Z 33011KT 10SM CLR 19/04 A3018 390 38 1000 330/11 RMK AO2
14840KMKG MKG20070512181009205/12/07 18:10:31  5-MIN KMKG 122310Z 32013KT 10SM CLR 18/04 A3018 390 39 900 330/13 RMK AO2
14840KMKG MKG20070512181509205/12/07 18:15:31  5-MIN KMKG 122315Z 33014KT 10SM CLR 18/04 A3019 390 39 900 340/14 RMK AO2
14840KMKG MKG20070512182009205/12/07 18:20:31  5-MIN KMKG 122320Z 34012KT 10SM CLR 18/04 A3019 390 39 900 340/12 RMK AO2
14840KMKG MKG20070512182509805/12/07 18:25:31  5-MIN KMKG 122325Z 34010G17KT 10SM CLR 18/04 A3018 390 38 900 340/10G17 RMK AO2
14840KMKG MKG20070512183009805/12/07 18:30:31  5-MIN KMKG 122330Z 34013G17KT 10SM CLR 18/04 A3019 390 39 900 340/13G17 RMK AO2
14840KMKG MKG20070512183509205/12/07 18:35:31  5-MIN KMKG 122335Z 34011KT 10SM CLR 18/04 A3019 380 39 900 340/11 RMK AO2
14840KMKG MKG20070512184009205/12/07 18:40:31  5-MIN KMKG 122340Z 32012KT 10SM CLR 18/04 A3019 390 41 800 330/12 RMK AO2
14840KMKG MKG20070512184509205/12/07 18:45:31  5-MIN KMKG 122345Z 33009KT 10SM CLR 18/04 A3019 380 41 800 340/09 RMK AO2
14840KMKG MKG20070512185013005/12/07 18:50:31  5-MIN KMKG 122350Z 32010KT 10SM FEW085 18/04 A3019 380 41 800 330/10 RMK AO2 SLP225 T01780044 10200 20178 56011
14840KMKG MKG20070512185513005/12/07 18:55:31  5-MIN KMKG 122355Z 33007KT 10SM FEW085 18/04 A3020 370 41 800 330/07 RMK AO2 SLP227 T01780044 10200 20178 53006
14840KMKG MKG20070512190009805/12/07 19:00:31  5-MIN KMKG 130000Z 33006G14KT 10SM CLR 18/04 A3020 380 41 800 330/06G14 RMK AO2
14840KMKG MKG20070512190509805/12/07 19:05:31  5-MIN KMKG 130005Z 33008G14KT 10SM CLR 18/04 A3020 370 41 800 330/08G14 RMK AO2
14840KMKG MKG20070512191009205/12/07 19:10:31  5-MIN KMKG 130010Z 34008KT 10SM CLR 17/04 A3020 370 42 800 340/08 RMK AO2
14840KMKG MKG20070512191509205/12/07 19:15:31  5-MIN KMKG 130015Z 34009KT 10SM CLR 17/04 A3020 370 41 800 350/09 RMK AO2
14840KMKG MKG20070512192009205/12/07 19:20:31  5-MIN KMKG 130020Z 34008KT 10SM CLR 17/04 A3020 370 41 800 340/08 RMK AO2
14840KMKG MKG20070512192509205/12/07 19:25:31  5-MIN KMKG 130025Z 35007KT 10SM CLR 17/04 A3020 370 41 800 350/07 RMK AO2
14840KMKG MKG20070512193009205/12/07 19:30:31  5-MIN KMKG 130030Z 34009KT 10SM CLR 17/04 A3021 370 42 700 340/09 RMK AO2
14840KMKG MKG20070512193509205/12/07 19:35:31  5-MIN KMKG 130035Z 36006KT 10SM CLR 17/04 A3021 360 42 700 360/06 RMK AO2
14840KMKG MKG20070512194009205/12/07 19:40:31  5-MIN KMKG 130040Z 01009KT 10SM CLR 17/03 A3021 360 39 700 010/09 RMK AO2
14840KMKG MKG20070512194509205/12/07 19:45:31  5-MIN KMKG 130045Z 36011KT 10SM CLR 17/02 A3021 360 36 700 010/11 RMK AO2
14840KMKG MKG20070512195010905/12/07 19:50:31  5-MIN KMKG 130050Z 36007KT 10SM CLR 17/02 A3021 360 36 700 010/07 RMK AO2 SLP232 T01670017
14840KMKG MKG20070512195510905/12/07 19:55:31  5-MIN KMKG 130055Z 36008KT 10SM CLR 17/02 A3022 360 36 700 360/08 RMK AO2 SLP232 T01670017
14840KMKG MKG20070512200009205/12/07 20:00:31  5-MIN KMKG 130100Z 36010KT 10SM CLR 16/02 A3022 360 37 600 010/10 RMK AO2
14840KMKG MKG20070512200509205/12/07 20:05:31  5-MIN KMKG 130105Z 01008KT 10SM CLR 16/01 A3022 350 36 600 020/08 RMK AO2
14840KMKG MKG20070512201009205/12/07 20:10:31  5-MIN KMKG 130110Z 01008KT 10SM CLR 16/01 A3022 350 36 600 010/08 RMK AO2
14840KMKG MKG20070512201509205/12/07 20:15:31  5-MIN KMKG 130115Z 01006KT 10SM CLR 16/01 A3022 350 36 600 020/06 RMK AO2
14840KMKG MKG20070512202009205/12/07 20:20:31  5-MIN KMKG 130120Z 02006KT 10SM CLR 16/01 A3022 350 36 600 020/06 RMK AO2
14840KMKG MKG20070512202509205/12/07 20:25:31  5-MIN KMKG 130125Z 07010KT 10SM CLR 16/01 A3023 340 37 500 080/10 RMK AO2
14840KMKG MKG20070512203009205/12/07 20:30:31  5-MIN KMKG 130130Z 06007KT 10SM CLR 15/02 A3023 340 40 500 060/07 RMK AO2
14840KMKG MKG20070512203509205/12/07 20:35:31  5-MIN KMKG 130135Z 06007KT 10SM CLR 16/02 A3024 340 40 500 070/07 RMK AO2
14840KMKG MKG20070512204009205/12/07 20:40:31  5-MIN KMKG 130140Z 10007KT 10SM CLR 15/03 A3024 340 43 500 100/07 RMK AO2
14840KMKG MKG20070512204509205/12/07 20:45:31  5-MIN KMKG 130145Z 09005KT 10SM CLR 15/03 A3024 330 45 500 090/05 RMK AO2
14840KMKG MKG20070512205010905/12/07 20:50:31  5-MIN KMKG 130150Z 08007KT 10SM CLR 14/03 A3025 330 47 400 090/07 RMK AO2 SLP244 T01440033
14840KMKG MKG20070512205510905/12/07 20:55:31  5-MIN KMKG 130155Z 08008KT 10SM CLR 15/03 A3025 330 45 400 080/08 RMK AO2 SLP245 T01500033
14840KMKG MKG20070512210009205/12/07 21:00:31  5-MIN KMKG 130200Z 08005KT 10SM CLR 14/03 A3025 320 47 400 080/05 RMK AO2
14840KMKG MKG20070512210509205/12/07 21:05:31  5-MIN KMKG 130205Z 09007KT 10SM CLR 14/03 A3026 320 47 400 090/07 RMK AO2
14840KMKG MKG20070512211009205/12/07 21:10:31  5-MIN KMKG 130210Z 08008KT 10SM CLR 14/03 A3026 320 47 400 080/08 RMK AO2
14840KMKG MKG20070512211509205/12/07 21:15:31  5-MIN KMKG 130215Z 08008KT 10SM CLR 14/03 A3026 310 47 400 080/08 RMK AO2
14840KMKG MKG20070512212009205/12/07 21:20:31  5-MIN KMKG 130220Z 09008KT 10SM CLR 14/03 A3027 310 45 400 090/08 RMK AO2
14840KMKG MKG20070512212509205/12/07 21:25:31  5-MIN KMKG 130225Z 09007KT 10SM CLR 14/03 A3027 310 48 300 090/07 RMK AO2
14840KMKG MKG20070512213009205/12/07 21:30:31  5-MIN KMKG 130230Z 08009KT 10SM CLR 14/03 A3027 310 48 300 080/09 RMK AO2
14840KMKG MKG20070512213509205/12/07 21:35:31  5-MIN KMKG 130235Z 08007KT 10SM CLR 14/03 A3027 310 48 300 090/07 RMK AO2
14840KMKG MKG20070512214009205/12/07 21:40:31  5-MIN KMKG 130240Z 08009KT 10SM CLR 13/03 A3027 300 50 200 080/09 RMK AO2
14840KMKG MKG20070512214509205/12/07 21:45:31  5-MIN KMKG 130245Z 09009KT 10SM CLR 13/03 A3027 300 48 200 090/09 RMK AO2
14840KMKG MKG20070512215011505/12/07 21:50:31  5-MIN KMKG 130250Z 08008KT 10SM CLR 13/03 A3028 300 48 200 090/08 RMK AO2 SLP254 T01330028 53006
14840KMKG MKG20070512215511505/12/07 21:55:31  5-MIN KMKG 130255Z 08010KT 10SM CLR 13/03 A3028 300 50 100 080/10 RMK AO2 SLP254 T01280028 53027
14840KMKG MKG20070512220009205/12/07 22:00:31  5-MIN KMKG 130300Z 08008KT 10SM CLR 13/03 A3028 300 50 100 090/08 RMK AO2
14840KMKG MKG20070512220509205/12/07 22:05:31  5-MIN KMKG 130305Z 08008KT 10SM CLR 13/03 A3028 300 50 100 080/08 RMK AO2
14840KMKG MKG20070512221009205/12/07 22:10:31  5-MIN KMKG 130310Z 08007KT 10SM CLR 12/03 A3028 300 52 100 080/07 RMK AO2
14840KMKG MKG20070512221509205/12/07 22:15:31  5-MIN KMKG 130315Z 08008KT 10SM CLR 12/02 A3028 300 50 100 090/08 RMK AO2
14840KMKG MKG20070512222009205/12/07 22:20:31  5-MIN KMKG 130320Z 08008KT 10SM CLR 12/02 A3028 300 50 100 090/08 RMK AO2
14840KMKG MKG20070512222509205/12/07 22:25:31  5-MIN KMKG 130325Z 08009KT 10SM CLR 12/02 A3028 300 50 100 090/09 RMK AO2
14840KMKG MKG20070512223009005/12/07 22:30:31  5-MIN KMKG 130330Z 08009KT 10SM CLR 12/02 A3028 300 52 0 090/09 RMK AO2
14840KMKG MKG20070512223509005/12/07 22:35:31  5-MIN KMKG 130335Z 09009KT 10SM CLR 12/02 A3028 300 50 0 090/09 RMK AO2
14840KMKG MKG20070512224009005/12/07 22:40:31  5-MIN KMKG 130340Z 09008KT 10SM CLR 12/02 A3028 300 50 0 090/08 RMK AO2
14840KMKG MKG20070512224509005/12/07 22:45:31  5-MIN KMKG 130345Z 09008KT 10SM CLR 12/01 A3028 290 48 0 090/08 RMK AO2
14840KMKG MKG20070512225010705/12/07 22:50:31  5-MIN KMKG 130350Z 08009KT 10SM CLR 11/01 A3028 300 50 0 080/09 RMK AO2 SLP256 T01110011
14840KMKG MKG20070512225510705/12/07 22:55:31  5-MIN KMKG 130355Z 08008KT 10SM CLR 11/01 A3028 300 50 0 080/08 RMK AO2 SLP256 T01110011
14840KMKG MKG20070512230009005/12/07 23:00:31  5-MIN KMKG 130400Z 09009KT 10SM CLR 11/01 A3029 290 50 0 090/09 RMK AO2
14840KMKG MKG20070512230509005/12/07 23:05:31  5-MIN KMKG 130405Z 09007KT 10SM CLR 11/01 A3029 290 50 0 090/07 RMK AO2
14840KMKG MKG20070512231009305/12/07 23:10:31  5-MIN KMKG 130410Z 08008KT 10SM CLR 11/01 A3029 290 52 -100 090/08 RMK AO2
14840KMKG MKG20070512231509305/12/07 23:15:31  5-MIN KMKG 130415Z 09008KT 10SM CLR 11/01 A3029 290 52 -100 090/08 RMK AO2
14840KMKG MKG20070512232009305/12/07 23:20:31  5-MIN KMKG 130420Z 09008KT 10SM CLR 11/01 A3029 290 50 -100 090/08 RMK AO2
14840KMKG MKG20070512232509305/12/07 23:25:31  5-MIN KMKG 130425Z 08008KT 10SM CLR 11/01 A3029 290 50 -100 090/08 RMK AO2
14840KMKG MKG20070512233009305/12/07 23:30:31  5-MIN KMKG 130430Z 08007KT 10SM CLR 11/01 A3029 290 50 -100 090/07 RMK AO2
14840KMKG MKG20070512233509305/12/07 23:35:31  5-MIN KMKG 130435Z 08008KT 10SM CLR 10/01 A3030 290 52 -200 090/08 RMK AO2
14840KMKG MKG20070512234009305/12/07 23:40:31  5-MIN KMKG 130440Z 08010KT 10SM CLR 10/01 A3030 280 52 -200 090/10 RMK AO2
14840KMKG MKG20070512234509305/12/07 23:45:31  5-MIN KMKG 130445Z 08009KT 10SM CLR 10/01 A3030 280 52 -200 080/09 RMK AO2
14840KMKG MKG20070512235012005/12/07 23:50:31  5-MIN KMKG 130450Z 09008KT 10SM CLR 10/01 A3030 280 52 -200 100/08 RMK AO2 SLP260 T01000006 402000100
14840KMKG MKG20070512235512005/12/07 23:55:31  5-MIN KMKG 130455Z 08009KT 10SM CLR 10/01 A3030 280 52 -200 090/09 RMK AO2 SLP261 T01000006 402000100
14840KMKG MKG20070513000009305/13/07 00:00:32  5-MIN KMKG 130500Z 08008KT 10SM CLR 10/00 A3030 280 49 -200 080/08 RMK AO2
14840KMKG MKG20070513000509305/13/07 00:05:31  5-MIN KMKG 130505Z 09009KT 10SM CLR 10/00 A3030 280 49 -200 100/09 RMK AO2
14840KMKG MKG20070513001009305/13/07 00:10:31  5-MIN KMKG 130510Z 09007KT 10SM CLR 09/00 A3030 280 51 -200 100/07 RMK AO2
14840KMKG MKG20070513001509305/13/07 00:15:31  5-MIN KMKG 130515Z 09007KT 10SM CLR 09/00 A3030 280 51 -200 090/07 RMK AO2
14840KMKG MKG20070513002009305/13/07 00:20:31  5-MIN KMKG 130520Z 10008KT 10SM CLR 09/00 A3030 280 51 -200 100/08 RMK AO2
14840KMKG MKG20070513002509305/13/07 00:25:31  5-MIN KMKG 130525Z 10006KT 10SM CLR 09/00 A3030 280 53 -300 100/06 RMK AO2
14840KMKG MKG20070513003009305/13/07 00:30:31  5-MIN KMKG 130530Z 09006KT 10SM CLR 09/00 A3030 280 53 -300 100/06 RMK AO2
14840KMKG MKG20070513003509305/13/07 00:35:31  5-MIN KMKG 130535Z 09005KT 10SM CLR 09/01 A3030 280 56 -300 090/05 RMK AO2
14840KMKG MKG20070513004009305/13/07 00:40:31  5-MIN KMKG 130540Z 09006KT 10SM CLR 08/01 A3030 280 58 -400 090/06 RMK AO2
14840KMKG MKG20070513004509305/13/07 00:45:31  5-MIN KMKG 130545Z 09005KT 10SM CLR 08/01 A3030 280 58 -400 090/05 RMK AO2
14840KMKG MKG20070513005012805/13/07 00:50:31  5-MIN KMKG 130550Z 09005KT 10SM CLR 08/01 A3030 280 58 -400 090/05 RMK AO2 SLP263 T00830006 10178 20083 53027
14840KMKG MKG20070513005512805/13/07 00:55:31  5-MIN KMKG 130555Z 09005KT 10SM CLR 08/01 A3030 280 58 -400 090/05 RMK AO2 SLP262 T00830006 10178 20083 52008
14840KMKG MKG20070513010009305/13/07 01:00:31  5-MIN KMKG 130600Z 08006KT 10SM CLR 08/01 A3030 280 60 -400 090/06 RMK AO2
14840KMKG MKG20070513010509305/13/07 01:05:31  5-MIN KMKG 130605Z 08006KT 10SM CLR 08/01 A3030 280 60 -400 080/06 RMK AO2
14840KMKG MKG20070513011009305/13/07 01:10:31  5-MIN KMKG 130610Z 09005KT 10SM CLR 08/01 A3030 280 60 -400 090/05 RMK AO2
14840KMKG MKG20070513011509305/13/07 01:15:31  5-MIN KMKG 130615Z 08006KT 10SM CLR 08/01 A3030 280 60 -400 090/06 RMK AO2
14840KMKG MKG20070513012009305/13/07 01:20:31  5-MIN KMKG 130620Z 09005KT 10SM CLR 08/01 A3030 280 60 -400 090/05 RMK AO2
14840KMKG MKG20070513012509305/13/07 01:25:31  5-MIN KMKG 130625Z 08005KT 10SM CLR 07/01 A3030 280 62 -500 090/05 RMK AO2
14840KMKG MKG20070513013009305/13/07 01:30:31  5-MIN KMKG 130630Z 08005KT 10SM CLR 07/01 A3030 280 62 -500 090/05 RMK AO2
14840KMKG MKG20070513013509305/13/07 01:35:31  5-MIN KMKG 130635Z 09005KT 10SM CLR 07/01 A3030 280 62 -500 090/05 RMK AO2
14840KMKG MKG20070513014009305/13/07 01:40:31  5-MIN KMKG 130640Z 09005KT 10SM CLR 07/01 A3030 280 62 -500 100/05 RMK AO2
14840KMKG MKG20070513014509305/13/07 01:45:31  5-MIN KMKG 130645Z 09006KT 10SM CLR 07/01 A3030 280 62 -500 090/06 RMK AO2
14840KMKG MKG20070513015011005/13/07 01:50:31  5-MIN KMKG 130650Z 08006KT 10SM CLR 07/01 A3030 280 62 -500 090/06 RMK AO2 SLP263 T00720006
14840KMKG MKG20070513015511005/13/07 01:55:31  5-MIN KMKG 130655Z 09004KT 10SM CLR 07/01 A3030 280 65 -600 090/04 RMK AO2 SLP263 T00670006
14840KMKG MKG20070513020009305/13/07 02:00:31  5-MIN KMKG 130700Z 09004KT 10SM CLR 07/01 A3030 280 65 -600 090/04 RMK AO2
14840KMKG MKG20070513020509305/13/07 02:05:31  5-MIN KMKG 130705Z 09004KT 10SM CLR 07/01 A3030 280 65 -600 090/04 RMK AO2
14840KMKG MKG20070513021009305/13/07 02:10:31  5-MIN KMKG 130710Z 09004KT 10SM CLR 06/01 A3030 280 67 -600 090/04 RMK AO2
14840KMKG MKG20070513021509305/13/07 02:15:31  5-MIN KMKG 130715Z 09004KT 10SM CLR 06/01 A3030 280 67 -600 090/04 RMK AO2
14840KMKG MKG20070513022009305/13/07 02:20:31  5-MIN KMKG 130720Z 08005KT 10SM CLR 06/01 A3031 280 70 -700 090/05 RMK AO2
14840KMKG MKG20070513022509305/13/07 02:25:31  5-MIN KMKG 130725Z 08005KT 10SM CLR 06/01 A3031 270 70 -700 090/05 RMK AO2
14840KMKG MKG20070513023009305/13/07 02:30:31  5-MIN KMKG 130730Z 08005KT 10SM CLR 06/01 A3030 280 70 -700 080/05 RMK AO2
14840KMKG MKG20070513023509305/13/07 02:35:31  5-MIN KMKG 130735Z 08006KT 10SM CLR 06/01 A3031 280 70 -700 080/06 RMK AO2
14840KMKG MKG20070513024009305/13/07 02:40:31  5-MIN KMKG 130740Z 07005KT 10SM CLR 06/01 A3030 280 70 -700 080/05 RMK AO2
14840KMKG MKG20070513024509305/13/07 02:45:31  5-MIN KMKG 130745Z 07006KT 10SM CLR 05/01 A3030 280 73 -800 080/06 RMK AO2
14840KMKG MKG20070513025011005/13/07 02:50:31  5-MIN KMKG 130750Z 08005KT 10SM CLR 05/01 A3031 280 73 -800 090/05 RMK AO2 SLP264 T00500006
14840KMKG MKG20070513025511005/13/07 02:55:31  5-MIN KMKG 130755Z 08006KT 10SM CLR 06/01 A3031 280 70 -700 090/06 RMK AO2 SLP265 T00560006
14840KMKG MKG20070513030009305/13/07 03:00:31  5-MIN KMKG 130800Z 08005KT 10SM CLR 06/01 A3031 270 70 -700 090/05 RMK AO2
14840KMKG MKG20070513030509305/13/07 03:05:31  5-MIN KMKG 130805Z 08006KT 10SM CLR 06/01 A3031 280 70 -700 080/06 RMK AO2
14840KMKG MKG20070513031009305/13/07 03:10:31  5-MIN KMKG 130810Z 08006KT 10SM CLR 06/01 A3031 270 70 -700 080/06 RMK AO2
14840KMKG MKG20070513031509305/13/07 03:15:31  5-MIN KMKG 130815Z 09005KT 10SM CLR 06/01 A3031 270 70 -700 090/05 RMK AO2
14840KMKG MKG20070513032009305/13/07 03:20:31  5-MIN KMKG 130820Z 09005KT 10SM CLR 06/01 A3031 270 70 -700 100/05 RMK AO2
14840KMKG MKG20070513032509305/13/07 03:25:31  5-MIN KMKG 130825Z 10005KT 10SM CLR 06/01 A3031 270 70 -700 100/05 RMK AO2
14840KMKG MKG20070513033009305/13/07 03:30:31  5-MIN KMKG 130830Z 09004KT 10SM CLR 06/01 A3031 270 70 -700 090/04 RMK AO2
14840KMKG MKG20070513033509305/13/07 03:35:31  5-MIN KMKG 130835Z 08005KT 10SM CLR 05/01 A3031 270 73 -800 080/05 RMK AO2
14840KMKG MKG20070513034009305/13/07 03:40:31  5-MIN KMKG 130840Z 08006KT 10SM CLR 05/01 A3031 270 73 -800 090/06 RMK AO2
14840KMKG MKG20070513034509305/13/07 03:45:31  5-MIN KMKG 130845Z 09005KT 10SM CLR 04/01 A3031 270 76 -800 100/05 RMK AO2
14840KMKG MKG20070513035011605/13/07 03:50:31  5-MIN KMKG 130850Z 10005KT 10SM CLR 05/01 A3031 270 73 -800 100/05 RMK AO2 SLP265 T00500006 52008
14840KMKG MKG20070513035511605/13/07 03:55:31  5-MIN KMKG 130855Z 10006KT 10SM CLR 05/01 A3031 270 73 -800 100/06 RMK AO2 SLP265 T00500006 53001
14840KMKG MKG20070513040009305/13/07 04:00:31  5-MIN KMKG 130900Z 10005KT 10SM CLR 05/01 A3031 270 73 -800 100/05 RMK AO2
14840KMKG MKG20070513040509305/13/07 04:05:31  5-MIN KMKG 130905Z 10004KT 10SM CLR 04/01 A3031 270 76 -800 110/04 RMK AO2
14840KMKG MKG20070513041009305/13/07 04:10:31  5-MIN KMKG 130910Z 11003KT 10SM CLR 04/01 A3031 270 79 -900 120/03 RMK AO2
14840KMKG MKG20070513041509305/13/07 04:15:31  5-MIN KMKG 130915Z 12004KT 10SM CLR 04/01 A3032 270 79 -900 130/04 RMK AO2
14840KMKG MKG20070513042009305/13/07 04:20:31  5-MIN KMKG 130920Z 11005KT 10SM CLR 04/01 A3031 270 79 -900 110/05 RMK AO2
14840KMKG MKG20070513042509305/13/07 04:25:31  5-MIN KMKG 130925Z 10005KT 10SM CLR 04/01 A3031 270 79 -900 100/05 RMK AO2
14840KMKG MKG20070513043009305/13/07 04:30:31  5-MIN KMKG 130930Z 09006KT 10SM CLR 04/01 A3031 270 79 -900 100/06 RMK AO2
14840KMKG MKG20070513043509305/13/07 04:35:31  5-MIN KMKG 130935Z 10005KT 10SM CLR 04/01 A3031 270 76 -900 110/05 RMK AO2
14840KMKG MKG20070513044009305/13/07 04:40:31  5-MIN KMKG 130940Z 11003KT 10SM CLR 04/01 A3032 260 79 -900 120/03 RMK AO2
14840KMKG MKG20070513044509305/13/07 04:45:31  5-MIN KMKG 130945Z 10004KT 10SM CLR 04/01 A3032 260 79 -900 110/04 RMK AO2
14840KMKG MKG20070513045011105/13/07 04:50:31  5-MIN KMKG 130950Z 10004KT 10SM CLR 03/00 A3032 260 79 -1000 110/04 RMK AO2 SLP269 T00330000
14840KMKG MKG20070513045511005/13/07 04:55:31  5-MIN KMKG 130955Z 10005KT 10SM CLR 04/00 A3032 260 76 -900 100/05 RMK AO2 SLP269 T00390000
14840KMKG MKG20070513050009305/13/07 05:00:31  5-MIN KMKG 131000Z 10005KT 10SM CLR 04/00 A3032 260 76 -900 100/05 RMK AO2
14840KMKG MKG20070513050509305/13/07 05:05:31  5-MIN KMKG 131005Z 10004KT 10SM CLR 04/00 A3032 260 76 -900 110/04 RMK AO2
14840KMKG MKG20070513051009405/13/07 05:10:31  5-MIN KMKG 131010Z 11004KT 10SM CLR 04/M01 A3032 260 73 -900 110/04 RMK AO2
14840KMKG MKG20070513051509405/13/07 05:15:31  5-MIN KMKG 131015Z 11004KT 10SM CLR 04/M01 A3033 260 73 -900 120/04 RMK AO2
14840KMKG MKG20070513052009405/13/07 05:20:31  5-MIN KMKG 131020Z 11005KT 10SM CLR 04/M01 A3033 250 73 -900 120/05 RMK AO2
14840KMKG MKG20070513052509705/13/07 05:25:31  5-MIN KMKG 131025Z 11005KT 10SM CLR 03/M01 A3033 260 76 -1000 110/05 RMK AO2 $
14840KMKG MKG20070513053009605/13/07 05:30:31  5-MIN KMKG 131030Z 11005KT 10SM CLR 04/M01 A3033 250 73 -900 110/05 RMK AO2 $
14840KMKG MKG20070513053509605/13/07 05:35:31  5-MIN KMKG 131035Z 11004KT 10SM CLR 04/M01 A3034 250 73 -900 120/04 RMK AO2 $
14840KMKG MKG20070513054009705/13/07 05:40:31  5-MIN KMKG 131040Z 11004KT 10SM CLR 03/M01 A3034 250 76 -1000 120/04 RMK AO2 $
14840KMKG MKG20070513054509705/13/07 05:45:31  5-MIN KMKG 131045Z 11003KT 10SM CLR 04/M01 A3034 240 73 -1000 120/03 RMK AO2 $
14840KMKG MKG20070513055011405/13/07 05:50:31  5-MIN KMKG 131050Z 10003KT 10SM CLR 04/M01 A3034 240 73 -1000 100/03 RMK AO2 SLP276 T00391006 $
14840KMKG MKG20070513055511305/13/07 05:55:31  5-MIN KMKG 131055Z 10004KT 10SM CLR 04/M01 A3034 240 67 -900 100/04 RMK AO2 SLP277 T00441011 $
14840KMKG MKG20070513060009605/13/07 06:00:31  5-MIN KMKG 131100Z 10004KT 10SM CLR 04/M01 A3034 240 67 -900 110/04 RMK AO2 $
14840KMKG MKG20070513060509605/13/07 06:05:31  5-MIN KMKG 131105Z 11005KT 10SM CLR 04/M01 A3035 240 67 -900 110/05 RMK AO2 $
14840KMKG MKG20070513061009605/13/07 06:10:31  5-MIN KMKG 131110Z 11004KT 10SM CLR 05/M01 A3035 240 64 -800 110/04 RMK AO2 $
14840KMKG MKG20070513061509605/13/07 06:15:31  5-MIN KMKG 131115Z 11005KT 10SM CLR 05/M01 A3035 230 64 -800 110/05 RMK AO2 $
14840KMKG MKG20070513062009605/13/07 06:20:31  5-MIN KMKG 131120Z 10006KT 10SM CLR 05/M01 A3035 230 64 -800 110/06 RMK AO2 $
14840KMKG MKG20070513062509605/13/07 06:25:31  5-MIN KMKG 131125Z 10006KT 10SM CLR 06/M01 A3035 230 62 -800 110/06 RMK AO2 $
14840KMKG MKG20070513063009605/13/07 06:30:31  5-MIN KMKG 131130Z 10006KT 10SM CLR 06/M01 A3035 230 62 -800 110/06 RMK AO2 $
14840KMKG MKG20070513063509605/13/07 06:35:31  5-MIN KMKG 131135Z 11005KT 10SM CLR 06/M01 A3035 230 60 -700 110/05 RMK AO2 $
14840KMKG MKG20070513064009605/13/07 06:40:31  5-MIN KMKG 131140Z 11005KT 10SM CLR 06/M02 A3036 230 57 -700 120/05 RMK AO2 $
14840KMKG MKG20070513064509605/13/07 06:45:31  5-MIN KMKG 131145Z 11005KT 10SM CLR 06/M02 A3036 230 57 -700 120/05 RMK AO2 $
14840KMKG MKG20070513065013105/13/07 06:50:31  5-MIN KMKG 131150Z 11005KT 10SM CLR 07/M02 A3036 230 55 -600 120/05 RMK AO2 SLP283 T00671017 10078 20033 53001 $
14840KMKG MKG20070513065513105/13/07 06:55:31  5-MIN KMKG 131155Z 12005KT 10SM CLR 07/M02 A3036 220 55 -600 120/05 RMK AO2 SLP283 T00671017 10078 20033 53018 $
14840KMKG MKG20070513070009605/13/07 07:00:31  5-MIN KMKG 131200Z 12005KT 10SM CLR 07/M02 A3036 220 53 -600 130/05 RMK AO2 $
14840KMKG MKG20070513070509605/13/07 07:05:31  5-MIN KMKG 131205Z 13005KT 10SM CLR 07/M02 A3036 220 51 -600 130/05 RMK AO2 $
14840KMKG MKG20070513071009605/13/07 07:10:31  5-MIN KMKG 131210Z 12006KT 10SM CLR 08/M02 A3037 220 49 -500 130/06 RMK AO2 $
14840KMKG MKG20070513071509605/13/07 07:15:31  5-MIN KMKG 131215Z 13008KT 10SM CLR 08/M02 A3037 220 47 -400 130/08 RMK AO2 $
14840KMKG MKG20070513072009605/13/07 07:20:31  5-MIN KMKG 131220Z 13007KT 10SM CLR 08/M03 A3037 220 45 -400 130/07 RMK AO2 $
14840KMKG MKG20070513072509605/13/07 07:25:31  5-MIN KMKG 131225Z 13008KT 10SM CLR 08/M03 A3037 220 43 -400 130/08 RMK AO2 $
14840KMKG MKG20070513073009605/13/07 07:30:31  5-MIN KMKG 131230Z 12008KT 10SM CLR 09/M03 A3037 220 42 -400 120/08 RMK AO2 $
14840KMKG MKG20070513073509605/13/07 07:35:31  5-MIN KMKG 131235Z 12007KT 10SM CLR 09/M03 A3037 220 43 -400 120/07 RMK AO2 $
14840KMKG MKG20070513074009605/13/07 07:40:31  5-MIN KMKG 131240Z 12007KT 10SM CLR 09/M03 A3037 220 42 -300 120/07 RMK AO2 $
14840KMKG MKG20070513074509605/13/07 07:45:31  5-MIN KMKG 131245Z 12007KT 10SM CLR 09/M03 A3037 210 42 -300 130/07 RMK AO2 $
14840KMKG MKG20070513075011305/13/07 07:50:31  5-MIN KMKG 131250Z 12008KT 10SM CLR 10/M03 A3038 210 40 -200 120/08 RMK AO2 SLP288 T01001028 $
14840KMKG MKG20070513075511305/13/07 07:55:31  5-MIN KMKG 131255Z 12012KT 10SM CLR 10/M03 A3038 210 39 -200 130/12 RMK AO2 SLP287 T01001033 $
14840KMKG MKG20070513080009605/13/07 08:00:31  5-MIN KMKG 131300Z 12009KT 10SM CLR 10/M04 A3038 210 37 -200 130/09 RMK AO2 $
14840KMKG MKG20070513080509605/13/07 08:05:31  5-MIN KMKG 131305Z 13009KT 10SM CLR 11/M04 A3038 210 36 -200 130/09 RMK AO2 $
14840KMKG MKG20070513081010205/13/07 08:10:31  5-MIN KMKG 131310Z 12013G18KT 10SM CLR 11/M04 A3038 210 36 -200 130/13G18 RMK AO2 $
14840KMKG MKG20070513081509605/13/07 08:15:31  5-MIN KMKG 131315Z 13012KT 10SM CLR 11/M05 A3038 210 33 -200 130/12 RMK AO2 $
14840KMKG MKG20070513082009605/13/07 08:20:31  5-MIN KMKG 131320Z 12011KT 10SM CLR 11/M04 A3038 210 33 -100 130/11 RMK AO2 $
14840KMKG MKG20070513082509605/13/07 08:25:31  5-MIN KMKG 131325Z 13012KT 10SM CLR 11/M04 A3038 210 33 -100 140/12 RMK AO2 $
14840KMKG MKG20070513083009605/13/07 08:30:31  5-MIN KMKG 131330Z 13012KT 10SM CLR 12/M05 A3038 210 30 -100 140/12 RMK AO2 $
14840KMKG MKG20070513083509605/13/07 08:35:31  5-MIN KMKG 131335Z 14010KT 10SM CLR 12/M04 A3038 210 32 -100 140/10 RMK AO2 $
14840KMKG MKG20070513084009605/13/07 08:40:31  5-MIN KMKG 131340Z 13012KT 10SM CLR 12/M04 A3039 200 32 -100 130/12 RMK AO2 $
14840KMKG MKG20070513084509305/13/07 08:45:31  5-MIN KMKG 131345Z 13012KT 10SM CLR 12/M06 A3039 200 28 0 130/12 RMK AO2 $
14840KMKG MKG20070513085011005/13/07 08:50:31  5-MIN KMKG 131350Z 13009KT 10SM CLR 12/M05 A3038 200 29 0 140/09 RMK AO2 SLP290 T01221050 $
14840KMKG MKG20070513085511005/13/07 08:55:31  5-MIN KMKG 131355Z 14011KT 10SM CLR 12/M05 A3038 200 29 0 140/11 RMK AO2 SLP290 T01221050 $
14840KMKG MKG20070513090009305/13/07 09:00:31  5-MIN KMKG 131400Z 12012KT 10SM CLR 13/M05 A3039 200 28 0 120/12 RMK AO2 $
14840KMKG MKG20070513090509305/13/07 09:05:31  5-MIN KMKG 131405Z 12011KT 10SM CLR 12/M05 A3039 200 29 0 120/11 RMK AO2 $
14840KMKG MKG20070513091009305/13/07 09:10:31  5-MIN KMKG 131410Z 12010KT 10SM CLR 13/M05 A3039 200 28 0 120/10 RMK AO2 $
14840KMKG MKG20070513091509305/13/07 09:15:31  5-MIN KMKG 131415Z 13009KT 10SM CLR 13/M05 A3039 200 28 0 130/09 RMK AO2 $
14840KMKG MKG20070513092009505/13/07 09:20:31  5-MIN KMKG 131420Z 11012KT 10SM CLR 13/M05 A3039 200 27 100 120/12 RMK AO2 $
14840KMKG MKG20070513092509505/13/07 09:25:31  5-MIN KMKG 131425Z 11010KT 10SM CLR 13/M05 A3039 200 27 100 110/10 RMK AO2 $
14840KMKG MKG20070513093009505/13/07 09:30:31  5-MIN KMKG 131430Z 10012KT 10SM CLR 13/M05 A3039 200 27 100 110/12 RMK AO2 $
14840KMKG MKG20070513093509505/13/07 09:35:31  5-MIN KMKG 131435Z 12011KT 10SM CLR 14/M05 A3039 200 26 200 120/11 RMK AO2 $
14840KMKG MKG20070513094009505/13/07 09:40:31  5-MIN KMKG 131440Z 12010KT 10SM CLR 14/M05 A3039 200 26 200 120/10 RMK AO2 $
14840KMKG MKG20070513094509505/13/07 09:45:31  5-MIN KMKG 131445Z 12011KT 10SM CLR 14/M05 A3039 200 26 200 120/11 RMK AO2 $
14840KMKG MKG20070513095012405/13/07 09:50:31  5-MIN KMKG 131450Z 10013G16KT 10SM CLR 14/M06 A3039 200 25 200 110/13G16 RMK AO2 SLP291 T01391056 53018 $
14840KMKG MKG20070513095511805/13/07 09:55:31  5-MIN KMKG 131455Z 10010KT 10SM CLR 14/M06 A3039 200 25 200 110/10 RMK AO2 SLP291 T01391056 51008 $
14840KMKG MKG20070513100009505/13/07 10:00:31  5-MIN KMKG 131500Z 10012KT 10SM CLR 14/M05 A3038 200 26 200 100/12 RMK AO2 $
14840KMKG MKG20070513100509505/13/07 10:05:31  5-MIN KMKG 131505Z 11009KT 10SM CLR 14/M06 A3039 200 25 200 120/09 RMK AO2 $
14840KMKG MKG20070513101009505/13/07 10:10:31  5-MIN KMKG 131510Z 13009KT 10SM CLR 14/M06 A3038 210 25 200 140/09 RMK AO2 $
14840KMKG MKG20070513101509505/13/07 10:15:31  5-MIN KMKG 131515Z 11010KT 10SM CLR 14/M04 A3038 210 26 200 110/10 RMK AO2 $
14840KMKG MKG20070513102009505/13/07 10:20:31  5-MIN KMKG 131520Z 10009KT 10SM CLR 14/M05 A3038 210 25 200 100/09 RMK AO2 $
14840KMKG MKG20070513102509505/13/07 10:25:31  5-MIN KMKG 131525Z 09008KT 10SM CLR 14/M06 A3038 210 24 200 100/08 RMK AO2 $
14840KMKG MKG20070513103009505/13/07 10:30:31  5-MIN KMKG 131530Z 13008KT 10SM CLR 15/M05 A3038 210 24 300 130/08 RMK AO2 $
14840KMKG MKG20070513103509505/13/07 10:35:31  5-MIN KMKG 131535Z 10008KT 10SM CLR 15/M05 A3038 210 24 300 100/08 RMK AO2 $
14840KMKG MKG20070513104011105/13/07 10:40:31  5-MIN KMKG 131540Z 11007KT 080V150 10SM CLR 15/M05 A3038 210 24 300 110/07 080V150 RMK AO2 $
14840KMKG MKG20070513104509505/13/07 10:45:31  5-MIN KMKG 131545Z 10007KT 10SM CLR 15/M05 A3038 210 24 300 110/07 RMK AO2 $
14840KMKG MKG20070513105011805/13/07 10:50:31  5-MIN KMKG 131550Z 12009G14KT 10SM CLR 16/M04 A3038 210 25 400 120/09G14 RMK AO2 SLP288 T01561044 $
14840KMKG MKG20070513105511205/13/07 10:55:31  5-MIN KMKG 131555Z 11005KT 10SM CLR 15/M06 A3038 210 23 300 120/05 RMK AO2 SLP288 T01501056 $
14840KMKG MKG20070513110009505/13/07 11:00:31  5-MIN KMKG 131600Z VRB05KT 10SM CLR 16/M05 A3038 210 24 400 VRB/05 RMK AO2 $
14840KMKG MKG20070513110509505/13/07 11:05:31  5-MIN KMKG 131605Z VRB04KT 10SM CLR 16/M04 A3038 210 25 400 VRB/04 RMK AO2 $
14840KMKG MKG20070513111009505/13/07 11:10:31  5-MIN KMKG 131610Z 15005KT 10SM CLR 16/M04 A3038 210 25 400 160/05 RMK AO2 $
14840KMKG MKG20070513111509505/13/07 11:15:31  5-MIN KMKG 131615Z 12005KT 10SM CLR 16/M04 A3037 210 25 400 130/05 RMK AO2 $
14840KMKG MKG20070513112009505/13/07 11:20:31  5-MIN KMKG 131620Z VRB05KT 10SM CLR 16/M05 A3037 210 23 400 VRB/05 RMK AO2 $
14840KMKG MKG20070513112511105/13/07 11:25:31  5-MIN KMKG 131625Z 12007KT 090V150 10SM CLR 16/M05 A3037 210 23 400 130/07 090V150 RMK AO2 $
14840KMKG MKG20070513113009505/13/07 11:30:31  5-MIN KMKG 131630Z VRB05KT 10SM CLR 16/M04 A3037 220 24 400 VRB/05 RMK AO2 $
14840KMKG MKG20070513113509505/13/07 11:35:31  5-MIN KMKG 131635Z 06003KT 10SM CLR 17/M04 A3037 220 23 500 060/03 RMK AO2 $
14840KMKG MKG20070513114011105/13/07 11:40:31  5-MIN KMKG 131640Z 15007KT 110V180 10SM CLR 17/M04 A3036 220 23 500 160/07 110V180 RMK AO2 $
14840KMKG MKG20070513114509505/13/07 11:45:31  5-MIN KMKG 131645Z VRB04KT 10SM CLR 17/M04 A3036 220 24 500 VRB/04 RMK AO2 $
14840KMKG MKG20070513115011205/13/07 11:50:31  5-MIN KMKG 131650Z 09005KT 10SM CLR 16/M05 A3036 230 23 500 100/05 RMK AO2 SLP281 T01611050 $
14840KMKG MKG20070513115511205/13/07 11:55:31  5-MIN KMKG 131655Z 12008KT 10SM CLR 17/M04 A3035 240 23 500 120/08 RMK AO2 SLP278 T01671044 $
14840KMKG MKG20070513120009505/13/07 12:00:31  5-MIN KMKG 131700Z VRB05KT 10SM CLR 17/M03 A3034 240 25 500 VRB/05 RMK AO2 $
14840KMKG MKG20070513120509405/13/07 12:05:31  5-MIN KMKG 131705Z VRB03KT 10SM CLR 16/00 A3035 240 33 500 VRB/03 RMK AO2 $
14840KMKG MKG20070513121009405/13/07 12:10:31  5-MIN KMKG 131710Z VRB04KT 10SM CLR 16/01 A3034 240 37 400 VRB/04 RMK AO2 $
14840KMKG MKG20070513121509405/13/07 12:15:31  5-MIN KMKG 131715Z 25007KT 10SM CLR 15/00 A3034 250 35 300 250/07 RMK AO2 $
14840KMKG MKG20070513122009405/13/07 12:20:31  5-MIN KMKG 131720Z 25006KT 10SM CLR 16/00 A3033 250 34 400 250/06 RMK AO2 $
14840KMKG MKG20070513122509405/13/07 12:25:31  5-MIN KMKG 131725Z 26007KT 10SM CLR 16/01 A3033 250 36 500 260/07 RMK AO2 $
14840KMKG MKG20070513123009405/13/07 12:30:31  5-MIN KMKG 131730Z 25007KT 10SM CLR 16/01 A3033 250 34 500 250/07 RMK AO2 $
14840KMKG MKG20070513123509405/13/07 12:35:31  5-MIN KMKG 131735Z 28005KT 10SM CLR 16/00 A3033 260 34 400 280/05 RMK AO2 $
14840KMKG MKG20070513124009405/13/07 12:40:31  5-MIN KMKG 131740Z 26006KT 10SM CLR 16/01 A3033 260 36 400 270/06 RMK AO2 $
14840KMKG MKG20070513124509505/13/07 12:45:31  5-MIN KMKG 131745Z 27006KT 10SM CLR 16/M01 A3032 260 32 500 280/06 RMK AO2 $
14840KMKG MKG20070513125012905/13/07 12:50:31  5-MIN KMKG 131750Z VRB04KT 10SM CLR 17/00 A3032 260 32 600 VRB/04 RMK AO2 SLP270 T01670000 10172 20072 51008 $
14840KMKG MKG20070513125512905/13/07 12:55:31  5-MIN KMKG 131755Z 28006KT 10SM CLR 16/00 A3032 270 33 500 290/06 RMK AO2 SLP268 T01610000 10172 20072 58023 $
14840KMKG MKG20070513130009505/13/07 13:00:31  5-MIN KMKG 131800Z 22005KT 10SM CLR 17/M01 A3031 270 29 600 230/05 RMK AO2 $
14840KMKG MKG20070513130509505/13/07 13:05:31  5-MIN KMKG 131805Z 00000KT 10SM CLR 17/M02 A3031 270 28 600 000/00 RMK AO2 $
14840KMKG MKG20070513131009505/13/07 13:10:31  5-MIN KMKG 131810Z 00000KT 10SM CLR 17/M02 A3030 280 27 600 000/00 RMK AO2 $
14840KMKG MKG20070513131509505/13/07 13:15:31  5-MIN KMKG 131815Z VRB06KT 10SM CLR 17/M01 A3030 280 28 600 VRB/06 RMK AO2 $
14840KMKG MKG20070513132009505/13/07 13:20:31  5-MIN KMKG 131820Z 23004KT 10SM CLR 17/M01 A3030 280 29 600 240/04 RMK AO2 $
14840KMKG MKG20070513132509505/13/07 13:25:31  5-MIN KMKG 131825Z VRB04KT 10SM CLR 17/M02 A3029 290 28 600 VRB/04 RMK AO2 $
14840KMKG MKG20070513133009505/13/07 13:30:31  5-MIN KMKG 131830Z 22004KT 10SM CLR 17/M02 A3030 290 28 600 220/04 RMK AO2 $
14840KMKG MKG20070513133509505/13/07 13:35:31  5-MIN KMKG 131835Z 28004KT 10SM CLR 17/M01 A3030 280 28 700 280/04 RMK AO2 $
14840KMKG MKG20070513134009505/13/07 13:40:31  5-MIN KMKG 131840Z 30004KT 10SM CLR 17/M02 A3030 280 27 700 310/04 RMK AO2 $
14840KMKG MKG20070513134509505/13/07 13:45:31  5-MIN KMKG 131845Z 29006KT 10SM CLR 17/M01 A3029 290 29 700 290/06 RMK AO2 $
14840KMKG MKG20070513135011205/13/07 13:50:31  5-MIN KMKG 131850Z VRB03KT 10SM CLR 18/M01 A3029 290 28 700 VRB/03 RMK AO2 SLP258 T01781006 $
14840KMKG MKG20070513135511205/13/07 13:55:31  5-MIN KMKG 131855Z 00000KT 10SM CLR 17/M01 A3029 290 29 700 000/00 RMK AO2 SLP258 T01721006 $
14840KMKG MKG20070513140009505/13/07 14:00:31  5-MIN KMKG 131900Z VRB03KT 10SM CLR 17/M02 A3029 290 27 700 VRB/03 RMK AO2 $
14840KMKG MKG20070513140509505/13/07 14:05:31  5-MIN KMKG 131905Z 26005KT 10SM CLR 18/M01 A3029 290 28 700 260/05 RMK AO2 $
14840KMKG MKG20070513141009505/13/07 14:10:31  5-MIN KMKG 131910Z VRB04KT 10SM CLR 17/M01 A3028 300 28 700 VRB/04 RMK AO2 $
14840KMKG MKG20070513141509505/13/07 14:15:31  5-MIN KMKG 131915Z VRB04KT 10SM CLR 17/M01 A3028 300 28 700 VRB/04 RMK AO2 $
14840KMKG MKG20070513142009505/13/07 14:20:31  5-MIN KMKG 131920Z 20004KT 10SM CLR 18/M01 A3028 300 28 700 200/04 RMK AO2 $
14840KMKG MKG20070513142509505/13/07 14:25:31  5-MIN KMKG 131925Z VRB04KT 10SM CLR 18/M01 A3027 310 27 700 VRB/04 RMK AO2 $
14840KMKG MKG20070513143010205/13/07 14:30:31  5-MIN KMKG 131930Z 21006KT 10SM CLR 18/M02 A3026 310 26 800 220/06 RMK AO2 PRESFR $
14840KMKG MKG20070513143510205/13/07 14:35:31  5-MIN KMKG 131935Z VRB03KT 10SM CLR 18/M02 A3026 320 26 800 VRB/03 RMK AO2 PRESFR $
14840KMKG MKG20070513144009505/13/07 14:40:31  5-MIN KMKG 131940Z VRB05KT 10SM CLR 18/M01 A3025 320 27 800 VRB/05 RMK AO2 $
14840KMKG MKG20070513144509605/13/07 14:45:31  5-MIN KMKG 131945Z 14008KT 10SM CLR 19/M02 A3025 330 23 1000 150/08 RMK AO2 $
14840KMKG MKG20070513145011305/13/07 14:50:31  5-MIN KMKG 131950Z 12010KT 10SM CLR 20/M02 A3025 330 22 1000 120/10 RMK AO2 SLP246 T02001022 $
14840KMKG MKG20070513145511205/13/07 14:55:31  5-MIN KMKG 131955Z VRB04KT 10SM CLR 19/M04 A3025 330 21 900 VRB/04 RMK AO2 SLP245 T01891039 $
14840KMKG MKG20070513150011205/13/07 15:00:31  5-MIN KMKG 132000Z 13008KT 100V170 10SM CLR 19/M02 A3025 330 23 1000 140/08 100V170 RMK AO2 $
14840KMKG MKG20070513150510205/13/07 15:05:31  5-MIN KMKG 132005Z 12009G15KT 10SM CLR 20/M03 A3025 330 20 1000 120/09G15 RMK AO2 $
14840KMKG MKG20070513151010205/13/07 15:10:31  5-MIN KMKG 132010Z 16008G15KT 10SM CLR 19/M03 A3024 330 21 1000 160/08G15 RMK AO2 $
14840KMKG MKG20070513151509605/13/07 15:15:31  5-MIN KMKG 132015Z VRB04KT 10SM CLR 19/M03 A3024 330 21 1000 VRB/04 RMK AO2 $
14840KMKG MKG20070513152009605/13/07 15:20:31  5-MIN KMKG 132020Z 16009KT 10SM CLR 20/M03 A3024 330 21 1000 160/09 RMK AO2 $
14840KMKG MKG20070513152509505/13/07 15:25:31  5-MIN KMKG 132025Z 24009KT 10SM CLR 19/M02 A3024 340 24 900 240/09 RMK AO2 $
14840KMKG MKG20070513153009505/13/07 15:30:31  5-MIN KMKG 132030Z 25010KT 10SM CLR 17/M01 A3024 340 31 700 250/10 RMK AO2 $
14840KMKG MKG20070513153509405/13/07 15:35:31  5-MIN KMKG 132035Z 26007KT 10SM CLR 16/00 A3024 340 33 600 270/07 RMK AO2 $
14840KMKG MKG20070513154009505/13/07 15:40:31  5-MIN KMKG 132040Z 25006KT 10SM CLR 16/M01 A3024 340 33 500 250/06 RMK AO2 $
14840KMKG MKG20070513154509405/13/07 15:45:31  5-MIN KMKG 132045Z 26005KT 10SM CLR 16/00 A3024 340 34 500 260/05 RMK AO2 $
14840KMKG MKG20070513155011705/13/07 15:50:31  5-MIN KMKG 132050Z 27007KT 10SM CLR 16/00 A3024 330 34 500 270/07 RMK AO2 SLP244 T01560000 58023 $
14840KMKG MKG20070513155511805/13/07 15:55:31  5-MIN KMKG 132055Z 26008KT 10SM CLR 16/M01 A3024 340 31 500 260/08 RMK AO2 SLP243 T01561011 56026 $
14840KMKG MKG20070513160009505/13/07 16:00:31  5-MIN KMKG 132100Z 27008KT 10SM CLR 15/M02 A3024 340 31 500 270/08 RMK AO2 $
14840KMKG MKG20070513160509505/13/07 16:05:31  5-MIN KMKG 132105Z 26008KT 10SM CLR 14/M02 A3024 340 31 400 260/08 RMK AO2 $
14840KMKG MKG20070513161009505/13/07 16:10:31  5-MIN KMKG 132110Z 28007KT 10SM CLR 15/M02 A3024 340 31 500 290/07 RMK AO2 $
14840KMKG MKG20070513161509505/13/07 16:15:31  5-MIN KMKG 132115Z 28006KT 10SM CLR 14/M02 A3024 330 31 400 280/06 RMK AO2 $
14840KMKG MKG20070513162009505/13/07 16:20:31  5-MIN KMKG 132120Z 26006KT 10SM CLR 14/M03 A3024 330 29 400 270/06 RMK AO2 $
14840KMKG MKG20070513162509505/13/07 16:25:31  5-MIN KMKG 132125Z 25007KT 10SM CLR 14/M03 A3023 340 30 400 250/07 RMK AO2 $
14840KMKG MKG20070513163009505/13/07 16:30:31  5-MIN KMKG 132130Z 24008KT 10SM CLR 14/M03 A3023 340 30 300 250/08 RMK AO2 $
14840KMKG MKG20070513163509505/13/07 16:35:31  5-MIN KMKG 132135Z 26006KT 10SM CLR 14/M03 A3023 350 30 400 270/06 RMK AO2 $
14840KMKG MKG20070513164009505/13/07 16:40:31  5-MIN KMKG 132140Z 24007KT 10SM CLR 14/M03 A3023 350 31 300 240/07 RMK AO2 $
14840KMKG MKG20070513164509505/13/07 16:45:31  5-MIN KMKG 132145Z 26006KT 10SM CLR 14/M03 A3023 350 30 400 260/06 RMK AO2 $
14840KMKG MKG20070513165011205/13/07 16:50:31  5-MIN KMKG 132150Z 24006KT 10SM CLR 14/M03 A3023 340 30 400 240/06 RMK AO2 SLP240 T01441028 $
14840KMKG MKG20070513165511205/13/07 16:55:31  5-MIN KMKG 132155Z 26006KT 10SM CLR 14/M03 A3023 350 30 400 260/06 RMK AO2 SLP240 T01441028 $
14840KMKG MKG20070513170009505/13/07 17:00:31  5-MIN KMKG 132200Z 24004KT 10SM CLR 14/M03 A3023 350 29 400 240/04 RMK AO2 $
14840KMKG MKG20070513170509505/13/07 17:05:31  5-MIN KMKG 132205Z 25005KT 10SM CLR 14/M03 A3023 350 29 400 250/05 RMK AO2 $
14840KMKG MKG20070513171009505/13/07 17:10:31  5-MIN KMKG 132210Z 25006KT 10SM CLR 14/M03 A3023 350 29 400 250/06 RMK AO2 $
14840KMKG MKG20070513171509505/13/07 17:15:31  5-MIN KMKG 132215Z 22005KT 10SM CLR 14/M03 A3023 350 29 400 230/05 RMK AO2 $
14840KMKG MKG20070513172009505/13/07 17:20:31  5-MIN KMKG 132220Z VRB03KT 10SM CLR 15/M03 A3022 350 29 500 VRB/03 RMK AO2 $
14840KMKG MKG20070513172509505/13/07 17:25:31  5-MIN KMKG 132225Z 21006KT 10SM CLR 15/M03 A3022 350 28 500 220/06 RMK AO2 $
14840KMKG MKG20070513173009505/13/07 17:30:31  5-MIN KMKG 132230Z 23005KT 10SM CLR 16/M03 A3022 360 27 500 230/05 RMK AO2 $
14840KMKG MKG20070513173509505/13/07 17:35:31  5-MIN KMKG 132235Z 24005KT 10SM CLR 16/M04 A3022 360 26 500 240/05 RMK AO2 $
14840KMKG MKG20070513174009505/13/07 17:40:31  5-MIN KMKG 132240Z 26006KT 10SM CLR 16/M04 A3022 360 26 500 260/06 RMK AO2 $
14840KMKG MKG20070513174509505/13/07 17:45:31  5-MIN KMKG 132245Z 27006KT 10SM CLR 15/M04 A3022 360 27 500 270/06 RMK AO2 $
14840KMKG MKG20070513175011205/13/07 17:50:31  5-MIN KMKG 132250Z 25004KT 10SM CLR 15/M03 A3022 360 28 500 260/04 RMK AO2 SLP235 T01501033 $
14840KMKG MKG20070513175511105/13/07 17:55:31  5-MIN KMKG 132255Z 24004KT 9SM CLR 14/M04 A3022 360 28 400 240/04 RMK AO2 SLP235 T01441039 $
14840KMKG MKG20070513180009405/13/07 18:00:31  5-MIN KMKG 132300Z 24003KT 9SM CLR 14/M04 A3022 360 26 400 240/03 RMK AO2 $
14840KMKG MKG20070513180509505/13/07 18:05:31  5-MIN KMKG 132305Z 27004KT 10SM CLR 14/M03 A3022 360 30 400 270/04 RMK AO2 $
14840KMKG MKG20070513181009505/13/07 18:10:31  5-MIN KMKG 132310Z 26005KT 10SM CLR 14/M03 A3022 360 30 300 260/05 RMK AO2 $
14840KMKG MKG20070513181509805/13/07 18:15:31  5-MIN KMKG 132315Z 23003KT 10SM FEW100 14/M04 A3021 360 29 400 240/03 RMK AO2 $
14840KMKG MKG20070513182009805/13/07 18:20:31  5-MIN KMKG 132320Z 00000KT 10SM FEW100 14/M03 A3022 360 31 300 000/00 RMK AO2 $
14840KMKG MKG20070513182509805/13/07 18:25:31  5-MIN KMKG 132325Z 26003KT 10SM FEW110 14/M02 A3022 360 32 300 260/03 RMK AO2 $
14840KMKG MKG20070513183009805/13/07 18:30:31  5-MIN KMKG 132330Z 26005KT 10SM FEW110 13/M04 A3022 350 30 300 260/05 RMK AO2 $
14840KMKG MKG20070513183509805/13/07 18:35:31  5-MIN KMKG 132335Z 25003KT 10SM FEW100 13/M03 A3022 350 31 300 250/03 RMK AO2 $
14840KMKG MKG20070513184009805/13/07 18:40:31  5-MIN KMKG 132340Z 24005KT 10SM FEW100 13/M03 A3022 360 32 300 240/05 RMK AO2 $
14840KMKG MKG20070513184509805/13/07 18:45:31  5-MIN KMKG 132345Z 24003KT 10SM FEW100 13/M03 A3022 350 31 300 250/03 RMK AO2 $
14840KMKG MKG20070513185013005/13/07 18:50:31  5-MIN KMKG 132350Z 24004KT 10SM CLR 13/M04 A3022 360 30 300 250/04 RMK AO2 SLP236 T01331039 10200 20133 56026 $
14840KMKG MKG20070513185513005/13/07 18:55:31  5-MIN KMKG 132355Z 25003KT 10SM CLR 13/M04 A3022 350 31 200 260/03 RMK AO2 SLP236 T01281039 10200 20128 55006 $
14840KMKG MKG20070513190009505/13/07 19:00:31  5-MIN KMKG 140000Z 24003KT 10SM CLR 13/M03 A3022 360 32 200 240/03 RMK AO2 $
14840KMKG MKG20070513190509805/13/07 19:05:31  5-MIN KMKG 140005Z 24003KT 10SM SCT065 13/M03 A3022 360 32 200 240/03 RMK AO2 $
14840KMKG MKG20070513191009805/13/07 19:10:31  5-MIN KMKG 140010Z 22003KT 10SM SCT065 13/M03 A3021 360 32 200 220/03 RMK AO2 $
14840KMKG MKG20070513191509805/13/07 19:15:31  5-MIN KMKG 140015Z 19003KT 10SM SCT065 13/M03 A3020 370 32 200 200/03 RMK AO2 $
14840KMKG MKG20070513192010505/13/07 19:20:31  5-MIN KMKG 140020Z 00000KT 10SM SCT065 13/M04 A3019 380 31 200 000/00 RMK AO2 PRESFR $
14840KMKG MKG20070513192510505/13/07 19:25:31  5-MIN KMKG 140025Z 12004KT 10SM SCT065 13/M03 A3019 390 33 300 120/04 RMK AO2 PRESFR $
14840KMKG MKG20070513193010505/13/07 19:30:31  5-MIN KMKG 140030Z 12006KT 10SM SCT065 13/M03 A3018 390 32 300 130/06 RMK AO2 PRESFR $
14840KMKG MKG20070513193509805/13/07 19:35:31  5-MIN KMKG 140035Z 13006KT 10SM SCT065 13/M03 A3018 390 33 300 130/06 RMK AO2 $
14840KMKG MKG20070513194009805/13/07 19:40:31  5-MIN KMKG 140040Z 00000KT 10SM SCT065 13/M04 A3020 380 31 200 000/00 RMK AO2 $
14840KMKG MKG20070513194509805/13/07 19:45:31  5-MIN KMKG 140045Z 00000KT 10SM SCT110 13/M03 A3020 370 32 200 000/00 RMK AO2 $
14840KMKG MKG20070513195011505/13/07 19:50:31  5-MIN KMKG 140050Z 17004KT 10SM SCT110 12/M02 A3018 390 36 200 170/04 RMK AO2 SLP222 T01221022 $
14840KMKG MKG20070513195511505/13/07 19:55:31  5-MIN KMKG 140055Z 24004KT 10SM SCT110 12/M02 A3019 380 36 200 250/04 RMK AO2 SLP227 T01221022 $
14840KMKG MKG20070513200009805/13/07 20:00:31  5-MIN KMKG 140100Z 29003KT 10SM SCT110 12/M02 A3020 370 36 200 290/03 RMK AO2 $
14840KMKG MKG20070513200509805/13/07 20:05:31  5-MIN KMKG 140105Z 27003KT 10SM SCT110 12/M02 A3020 380 36 200 270/03 RMK AO2 $
14840KMKG MKG20070513201009805/13/07 20:10:31  5-MIN KMKG 140110Z 32004KT 10SM BKN110 12/M02 A3021 370 36 200 330/04 RMK AO2 $
14840KMKG MKG20070513201510505/13/07 20:15:31  5-MIN KMKG 140115Z 13004KT 10SM SCT090 BKN110 12/M02 A3018 390 36 200 130/04 RMK AO2 $
14840KMKG MKG20070513202011205/13/07 20:20:31  5-MIN KMKG 140120Z 14005KT 10SM SCT085 SCT110 12/M02 A3017 400 36 200 140/05 RMK AO2 PRESFR $
14840KMKG MKG20070513202509805/13/07 20:25:31  5-MIN KMKG 140125Z 00000KT 10SM FEW090 12/M02 A3018 390 38 200 000/00 RMK AO2 $
14840KMKG MKG20070513203009805/13/07 20:30:31  5-MIN KMKG 140130Z 00000KT 10SM FEW090 12/M01 A3019 390 39 200 000/00 RMK AO2 $
14840KMKG MKG20070513203509805/13/07 20:35:31  5-MIN KMKG 140135Z 05003KT 10SM FEW090 12/M01 A3019 380 39 200 050/03 RMK AO2 $
14840KMKG MKG20070513204009805/13/07 20:40:31  5-MIN KMKG 140140Z 00000KT 10SM FEW085 12/M01 A3019 380 39 200 000/00 RMK AO2 $
14840KMKG MKG20070513204509805/13/07 20:45:31  5-MIN KMKG 140145Z 11003KT 10SM FEW110 12/M01 A3019 390 39 200 110/03 RMK AO2 $
14840KMKG MKG20070513205011505/13/07 20:50:31  5-MIN KMKG 140150Z 12004KT 10SM FEW110 13/M02 A3018 390 36 300 120/04 RMK AO2 SLP223 T01281017 $
14840KMKG MKG20070513205511505/13/07 20:55:31  5-MIN KMKG 140155Z 14003KT 10SM FEW110 12/M01 A3018 390 39 200 140/03 RMK AO2 SLP223 T01221011 $
14840KMKG MKG20070513210009505/13/07 21:00:31  5-MIN KMKG 140200Z 13003KT 10SM CLR 12/M01 A3018 390 41 200 140/03 RMK AO2 $
14840KMKG MKG20070513210509505/13/07 21:05:31  5-MIN KMKG 140205Z 15003KT 10SM CLR 12/M01 A3018 390 39 200 150/03 RMK AO2 $
14840KMKG MKG20070513211009505/13/07 21:10:31  5-MIN KMKG 140210Z 16003KT 10SM CLR 12/M01 A3018 390 39 200 170/03 RMK AO2 $
14840KMKG MKG20070513211509505/13/07 21:15:31  5-MIN KMKG 140215Z 16005KT 10SM CLR 12/M01 A3017 400 39 200 160/05 RMK AO2 $
14840KMKG MKG20070513212009505/13/07 21:20:31  5-MIN KMKG 140220Z 13004KT 10SM CLR 12/M02 A3018 400 38 200 140/04 RMK AO2 $
14840KMKG MKG20070513212509505/13/07 21:25:31  5-MIN KMKG 140225Z 13005KT 10SM CLR 12/M01 A3017 400 39 200 140/05 RMK AO2 $
14840KMKG MKG20070513213009505/13/07 21:30:31  5-MIN KMKG 140230Z 13005KT 10SM CLR 12/M01 A3017 400 42 100 130/05 RMK AO2 $
14840KMKG MKG20070513213509405/13/07 21:35:31  5-MIN KMKG 140235Z 11005KT 10SM CLR 11/00 A3018 390 46 100 110/05 RMK AO2 $
14840KMKG MKG20070513214009405/13/07 21:40:31  5-MIN KMKG 140240Z 10004KT 10SM CLR 11/01 A3018 390 48 100 100/04 RMK AO2 $
14840KMKG MKG20070513214509405/13/07 21:45:31  5-MIN KMKG 140245Z 11004KT 10SM CLR 11/00 A3018 390 46 100 110/04 RMK AO2 $
14840KMKG MKG20070513215011705/13/07 21:50:31  5-MIN KMKG 140250Z 11005KT 10SM CLR 12/00 A3018 390 44 100 110/05 RMK AO2 SLP221 T01170000 55006 $
14840KMKG MKG20070513215511705/13/07 21:55:31  5-MIN KMKG 140255Z 11004KT 10SM CLR 12/00 A3018 390 44 100 110/04 RMK AO2 SLP221 T01170000 56014 $
14840KMKG MKG20070513220009405/13/07 22:00:31  5-MIN KMKG 140300Z 11004KT 10SM CLR 12/00 A3018 390 44 100 110/04 RMK AO2 $
14840KMKG MKG20070513220509405/13/07 22:05:31  5-MIN KMKG 140305Z 10003KT 10SM CLR 12/00 A3018 390 44 100 110/03 RMK AO2 $
14840KMKG MKG20070513221009405/13/07 22:10:31  5-MIN KMKG 140310Z 11003KT 10SM CLR 12/00 A3018 400 44 100 110/03 RMK AO2 $
14840KMKG MKG20070513221509405/13/07 22:15:31  5-MIN KMKG 140315Z 11004KT 10SM CLR 11/00 A3017 400 46 100 110/04 RMK AO2 $
14840KMKG MKG20070513222009405/13/07 22:20:31  5-MIN KMKG 140320Z 11005KT 10SM CLR 11/00 A3017 400 46 100 110/05 RMK AO2 $
14840KMKG MKG20070513222509405/13/07 22:25:31  5-MIN KMKG 140325Z 11005KT 10SM CLR 11/01 A3017 400 48 100 120/05 RMK AO2 $
14840KMKG MKG20070513223009205/13/07 22:30:31  5-MIN KMKG 140330Z 12006KT 10SM CLR 11/01 A3016 410 50 0 130/06 RMK AO2 $
14840KMKG MKG20070513223509205/13/07 22:35:31  5-MIN KMKG 140335Z 12006KT 10SM CLR 11/01 A3016 410 52 0 130/06 RMK AO2 $
14840KMKG MKG20070513224009205/13/07 22:40:31  5-MIN KMKG 140340Z 12006KT 10SM CLR 10/01 A3016 410 54 0 130/06 RMK AO2 $
14840KMKG MKG20070513224509205/13/07 22:45:31  5-MIN KMKG 140345Z 13007KT 10SM CLR 11/02 A3016 410 54 0 130/07 RMK AO2 $
14840KMKG MKG20070513225010905/13/07 22:50:31  5-MIN KMKG 140350Z 14006KT 10SM CLR 11/02 A3015 410 54 0 150/06 RMK AO2 SLP212 T01060017 $
14840KMKG MKG20070513225511105/13/07 22:55:31  5-MIN KMKG 140355Z 15006KT 10SM CLR 12/01 A3015 420 46 200 150/06 RMK AO2 SLP211 T01170006 $
14840KMKG MKG20070513230009505/13/07 23:00:31  5-MIN KMKG 140400Z 15008KT 10SM CLR 12/M01 A3015 420 42 200 160/08 RMK AO2 $
14840KMKG MKG20070513230509405/13/07 23:05:31  5-MIN KMKG 140405Z 15008KT 10SM CLR 12/00 A3014 430 43 200 160/08 RMK AO2 $
14840KMKG MKG20070513231009505/13/07 23:10:31  5-MIN KMKG 140410Z 16007KT 10SM CLR 12/M01 A3015 420 41 200 160/07 RMK AO2 $
14840KMKG MKG20070513231509405/13/07 23:15:31  5-MIN KMKG 140415Z 16006KT 10SM CLR 12/00 A3015 420 43 200 160/06 RMK AO2 $
14840KMKG MKG20070513232009405/13/07 23:20:31  5-MIN KMKG 140420Z 16007KT 10SM CLR 12/00 A3015 420 43 200 160/07 RMK AO2 $
14840KMKG MKG20070513232509405/13/07 23:25:31  5-MIN KMKG 140425Z 14005KT 10SM CLR 12/00 A3015 410 43 200 140/05 RMK AO2 $
14840KMKG MKG20070513233009405/13/07 23:30:31  5-MIN KMKG 140430Z 14006KT 10SM CLR 12/00 A3015 420 43 200 140/06 RMK AO2 $
14840KMKG MKG20070513233509405/13/07 23:35:31  5-MIN KMKG 140435Z 14005KT 10SM CLR 12/01 A3015 420 46 200 140/05 RMK AO2 $
14840KMKG MKG20070513234009405/13/07 23:40:31  5-MIN KMKG 140440Z 13005KT 10SM CLR 11/01 A3015 420 48 100 140/05 RMK AO2 $
14840KMKG MKG20070513234509405/13/07 23:45:31  5-MIN KMKG 140445Z 13005KT 10SM CLR 12/01 A3015 420 46 200 140/05 RMK AO2 $
14840KMKG MKG20070513235012105/13/07 23:50:31  5-MIN KMKG 140450Z 14007KT 10SM CLR 12/01 A3015 420 46 200 140/07 RMK AO2 SLP210 T01170006 402000033 $
14840KMKG MKG20070513235512105/13/07 23:55:31  5-MIN KMKG 140455Z 14006KT 10SM CLR 12/01 A3014 420 44 200 140/06 RMK AO2 SLP208 T01220006 402000033 $
14840KMKG MKG20070514000009405/14/07 00:00:32  5-MIN KMKG 140500Z 14007KT 10SM CLR 13/01 A3014 430 44 300 140/07 RMK AO2 $
14840KMKG MKG20070514000509405/14/07 00:05:31  5-MIN KMKG 140505Z 13007KT 10SM CLR 13/01 A3014 430 44 300 140/07 RMK AO2 $
14840KMKG MKG20070514001009405/14/07 00:10:31  5-MIN KMKG 140510Z 13006KT 10SM CLR 13/01 A3014 430 44 300 140/06 RMK AO2 $
14840KMKG MKG20070514001509405/14/07 00:15:31  5-MIN KMKG 140515Z 14006KT 10SM CLR 12/01 A3014 430 46 200 140/06 RMK AO2 $
14840KMKG MKG20070514002009405/14/07 00:20:31  5-MIN KMKG 140520Z 14007KT 10SM CLR 12/02 A3014 430 48 200 140/07 RMK AO2 $
14840KMKG MKG20070514002509405/14/07 00:25:31  5-MIN KMKG 140525Z 15007KT 10SM CLR 13/01 A3014 430 44 300 150/07 RMK AO2 $
14840KMKG MKG20070514003009405/14/07 00:30:31  5-MIN KMKG 140530Z 15007KT 10SM CLR 13/01 A3013 430 44 300 150/07 RMK AO2 $
14840KMKG MKG20070514003509405/14/07 00:35:31  5-MIN KMKG 140535Z 15007KT 10SM CLR 13/02 A3013 440 46 300 150/07 RMK AO2 $
14840KMKG MKG20070514004009405/14/07 00:40:31  5-MIN KMKG 140540Z 15007KT 10SM CLR 13/02 A3013 440 46 300 150/07 RMK AO2 $
14840KMKG MKG20070514004509405/14/07 00:45:31  5-MIN KMKG 140545Z 14006KT 10SM CLR 13/02 A3013 430 46 300 150/06 RMK AO2 $
14840KMKG MKG20070514005012905/14/07 00:50:31  5-MIN KMKG 140550Z 14007KT 10SM CLR 12/02 A3013 440 48 200 150/07 RMK AO2 SLP204 T01220017 10128 20100 56014 $
14840KMKG MKG20070514005512905/14/07 00:55:31  5-MIN KMKG 140555Z 14007KT 10SM CLR 13/02 A3013 440 46 300 140/07 RMK AO2 SLP203 T01280017 10128 20100 56017 $
14840KMKG MKG20070514010009405/14/07 01:00:31  5-MIN KMKG 140600Z 13006KT 10SM CLR 12/02 A3013 440 50 300 140/06 RMK AO2 $
14840KMKG MKG20070514010509405/14/07 01:05:31  5-MIN KMKG 140605Z 13006KT 10SM CLR 12/02 A3013 440 50 300 140/06 RMK AO2 $
14840KMKG MKG20070514011009405/14/07 01:10:31  5-MIN KMKG 140610Z 14007KT 10SM CLR 12/02 A3012 440 52 200 140/07 RMK AO2 $
14840KMKG MKG20070514011509405/14/07 01:15:31  5-MIN KMKG 140615Z 14007KT 10SM CLR 12/02 A3012 440 50 300 140/07 RMK AO2 $
14840KMKG MKG20070514012009405/14/07 01:20:31  5-MIN KMKG 140620Z 14007KT 10SM CLR 12/02 A3012 440 50 300 150/07 RMK AO2 $
14840KMKG MKG20070514012509405/14/07 01:25:31  5-MIN KMKG 140625Z 14007KT 10SM CLR 12/02 A3012 440 50 300 140/07 RMK AO2 $
14840KMKG MKG20070514013009405/14/07 01:30:31  5-MIN KMKG 140630Z 14006KT 10SM CLR 12/02 A3012 440 50 300 140/06 RMK AO2 $
14840KMKG MKG20070514013509405/14/07 01:35:31  5-MIN KMKG 140635Z 14006KT 10SM CLR 12/02 A3012 440 52 200 150/06 RMK AO2 $
14840KMKG MKG20070514014009405/14/07 01:40:31  5-MIN KMKG 140640Z 15008KT 10SM CLR 12/02 A3012 450 50 300 150/08 RMK AO2 $
14840KMKG MKG20070514014509405/14/07 01:45:31  5-MIN KMKG 140645Z 14007KT 10SM CLR 12/02 A3011 450 50 300 150/07 RMK AO2 $
14840KMKG MKG20070514015011105/14/07 01:50:31  5-MIN KMKG 140650Z 15007KT 10SM CLR 12/02 A3011 450 50 300 150/07 RMK AO2 SLP196 T01220022 $
14840KMKG MKG20070514015511105/14/07 01:55:31  5-MIN KMKG 140655Z 15006KT 10SM CLR 12/02 A3011 450 50 300 150/06 RMK AO2 SLP197 T01220022 $
14840KMKG MKG20070514020009405/14/07 02:00:31  5-MIN KMKG 140700Z 15008KT 10SM CLR 12/02 A3011 450 50 300 150/08 RMK AO2 $
14840KMKG MKG20070514020509405/14/07 02:05:31  5-MIN KMKG 140705Z 15008KT 10SM CLR 12/02 A3011 460 50 300 150/08 RMK AO2 $
14840KMKG MKG20070514021009405/14/07 02:10:31  5-MIN KMKG 140710Z 15007KT 10SM CLR 12/02 A3011 460 50 300 150/07 RMK AO2 $
14840KMKG MKG20070514021509405/14/07 02:15:31  5-MIN KMKG 140715Z 14007KT 10SM CLR 12/02 A3011 450 50 300 140/07 RMK AO2 $
14840KMKG MKG20070514022009405/14/07 02:20:31  5-MIN KMKG 140720Z 14008KT 10SM CLR 12/02 A3011 450 50 300 140/08 RMK AO2 $
14840KMKG MKG20070514022509405/14/07 02:25:31  5-MIN KMKG 140725Z 15008KT 10SM CLR 13/02 A3011 450 48 300 150/08 RMK AO2 $
14840KMKG MKG20070514023009405/14/07 02:30:31  5-MIN KMKG 140730Z 15008KT 10SM CLR 13/02 A3011 450 48 300 150/08 RMK AO2 $
14840KMKG MKG20070514023509405/14/07 02:35:31  5-MIN KMKG 140735Z 14008KT 10SM CLR 12/02 A3011 460 50 300 150/08 RMK AO2 $
14840KMKG MKG20070514024009405/14/07 02:40:31  5-MIN KMKG 140740Z 14008KT 10SM CLR 12/02 A3011 460 50 300 140/08 RMK AO2 $
14840KMKG MKG20070514024509405/14/07 02:45:31  5-MIN KMKG 140745Z 14007KT 10SM CLR 12/02 A3011 450 50 300 140/07 RMK AO2 $
14840KMKG MKG20070514025011105/14/07 02:50:31  5-MIN KMKG 140750Z 13006KT 10SM CLR 12/02 A3011 460 50 300 140/06 RMK AO2 SLP196 T01220022 $
14840KMKG MKG20070514025511105/14/07 02:55:31  5-MIN KMKG 140755Z 14006KT 10SM CLR 12/02 A3011 460 52 200 140/06 RMK AO2 SLP195 T01170022 $
14840KMKG MKG20070514030009405/14/07 03:00:31  5-MIN KMKG 140800Z 14007KT 10SM CLR 12/02 A3011 460 52 200 140/07 RMK AO2 $
14840KMKG MKG20070514030509405/14/07 03:05:31  5-MIN KMKG 140805Z 14007KT 10SM CLR 12/02 A3010 460 50 300 150/07 RMK AO2 $
14840KMKG MKG20070514031009405/14/07 03:10:31  5-MIN KMKG 140810Z 14007KT 10SM CLR 12/02 A3010 460 50 300 150/07 RMK AO2 $
14840KMKG MKG20070514031509405/14/07 03:15:31  5-MIN KMKG 140815Z 15007KT 10SM CLR 12/02 A3010 470 48 300 150/07 RMK AO2 $
14840KMKG MKG20070514032009405/14/07 03:20:31  5-MIN KMKG 140820Z 15007KT 10SM CLR 12/02 A3010 470 48 300 150/07 RMK AO2 $
14840KMKG MKG20070514032509405/14/07 03:25:31  5-MIN KMKG 140825Z 14008KT 10SM CLR 12/02 A3010 470 48 300 150/08 RMK AO2 $
14840KMKG MKG20070514033009405/14/07 03:30:31  5-MIN KMKG 140830Z 14008KT 10SM CLR 12/02 A3010 460 48 300 150/08 RMK AO2 $
14840KMKG MKG20070514033509405/14/07 03:35:31  5-MIN KMKG 140835Z 14008KT 10SM CLR 12/02 A3010 470 48 300 140/08 RMK AO2 $
14840KMKG MKG20070514034009405/14/07 03:40:31  5-MIN KMKG 140840Z 15009KT 10SM CLR 12/01 A3009 470 46 300 160/09 RMK AO2 $
14840KMKG MKG20070514034509405/14/07 03:45:31  5-MIN KMKG 140845Z 16008KT 10SM CLR 13/01 A3009 470 44 400 170/08 RMK AO2 $
14840KMKG MKG20070514035011705/14/07 03:50:31  5-MIN KMKG 140850Z 16009KT 10SM CLR 13/01 A3009 470 44 400 160/09 RMK AO2 SLP191 T01280011 56017 $
14840KMKG MKG20070514035511705/14/07 03:55:31  5-MIN KMKG 140855Z 15009KT 10SM CLR 13/01 A3009 470 43 400 160/09 RMK AO2 SLP191 T01280006 58012 $
14840KMKG MKG20070514040009405/14/07 04:00:31  5-MIN KMKG 140900Z 16009KT 10SM CLR 13/01 A3009 470 43 400 160/09 RMK AO2 $
14840KMKG MKG20070514040509405/14/07 04:05:31  5-MIN KMKG 140905Z 15010KT 10SM CLR 13/01 A3009 470 43 400 160/10 RMK AO2 $
14840KMKG MKG20070514041009405/14/07 04:10:31  5-MIN KMKG 140910Z 15008KT 10SM CLR 12/01 A3009 470 44 300 160/08 RMK AO2 $
14840KMKG MKG20070514041509405/14/07 04:15:31  5-MIN KMKG 140915Z 15008KT 10SM CLR 12/01 A3009 470 44 300 150/08 RMK AO2 $
14840KMKG MKG20070514042009405/14/07 04:20:31  5-MIN KMKG 140920Z 15008KT 10SM CLR 12/01 A3009 480 44 300 160/08 RMK AO2 $
14840KMKG MKG20070514042509405/14/07 04:25:31  5-MIN KMKG 140925Z 15008KT 10SM CLR 13/01 A3009 480 43 400 150/08 RMK AO2 $
14840KMKG MKG20070514043009705/14/07 04:30:31  5-MIN KMKG 140930Z 15008KT 10SM FEW090 12/01 A3009 470 44 300 150/08 RMK AO2 $
14840KMKG MKG20070514043509705/14/07 04:35:31  5-MIN KMKG 140935Z 16008KT 10SM SCT090 13/01 A3009 470 43 400 170/08 RMK AO2 $
14840KMKG MKG20070514044009705/14/07 04:40:31  5-MIN KMKG 140940Z 16010KT 10SM BKN090 13/00 A3009 470 40 400 160/10 RMK AO2 $
14840KMKG MKG20070514044510305/14/07 04:45:31  5-MIN KMKG 140945Z 16011G16KT 10SM BKN090 14/00 A3009 480 38 500 160/11G16 RMK AO2 $
14840KMKG MKG20070514045011505/14/07 04:50:31  5-MIN KMKG 140950Z 16009KT 10SM BKN090 14/M01 A3009 480 37 500 170/09 RMK AO2 SLP189 T01391006 $
14840KMKG MKG20070514045511505/14/07 04:55:31  5-MIN KMKG 140955Z 16011KT 10SM OVC090 14/M01 A3009 480 37 500 160/11 RMK AO2 SLP189 T01391006 $
14840KMKG MKG20070514050010405/14/07 05:00:31  5-MIN KMKG 141000Z 16011G17KT 10SM OVC090 14/M01 A3009 480 37 500 170/11G17 RMK AO2 $
14840KMKG MKG20070514050511105/14/07 05:05:31  5-MIN KMKG 141005Z 16012G18KT 10SM BKN090 OVC100 14/M01 A3009 480 34 600 170/12G18 RMK AO2 $
14840KMKG MKG20070514051011105/14/07 05:10:31  5-MIN KMKG 141010Z 17012G18KT 10SM BKN090 OVC100 14/M01 A3008 480 34 600 170/12G18 RMK AO2 $
14840KMKG MKG20070514051511105/14/07 05:15:31  5-MIN KMKG 141015Z 17014G21KT 10SM BKN090 OVC100 15/M01 A3008 490 33 600 180/14G21 RMK AO2 $
14840KMKG MKG20070514052011105/14/07 05:20:31  5-MIN KMKG 141020Z 18012G21KT 10SM BKN090 OVC100 14/M01 A3007 490 34 600 180/12G21 RMK AO2 $
14840KMKG MKG20070514052510505/14/07 05:25:31  5-MIN KMKG 141025Z 18015KT 10SM BKN085 BKN100 14/M01 A3007 490 34 600 180/15 RMK AO2 $
14840KMKG MKG20070514053010505/14/07 05:30:31  5-MIN KMKG 141030Z 18015KT 10SM BKN085 BKN100 14/M01 A3007 490 34 600 180/15 RMK AO2 $
14840KMKG MKG20070514053511805/14/07 05:35:31  5-MIN KMKG 141035Z 18015G21KT 10SM SCT080 BKN090 BKN110 14/M01 A3006 500 34 600 180/15G21 RMK AO2 $
14840KMKG MKG20070514054011105/14/07 05:40:31  5-MIN KMKG 141040Z 18014G22KT 10SM BKN080 BKN100 14/M01 A3006 500 34 600 190/14G22 RMK AO2 $
14840KMKG MKG20070514054512605/14/07 05:45:31  5-MIN KMKG 141045Z 18018G25KT 10SM SCT080 BKN100 14/M01 A3006 500 34 600 180/18G25 RMK AO2 CIG 080 RWY 14 $
14840KMKG MKG20070514055012805/14/07 05:50:31  5-MIN KMKG 141050Z 18014G25KT 10SM BKN080 BKN100 14/M01 A3006 500 34 600 190/14G25 RMK AO2 SLP180 T01441011 $
14840KMKG MKG20070514055512805/14/07 05:55:31  5-MIN KMKG 141055Z 18016G22KT 10SM BKN080 BKN090 14/M01 A3006 500 34 600 190/16G22 RMK AO2 SLP181 T01441011 $
14840KMKG MKG20070514060011105/14/07 06:00:31  5-MIN KMKG 141100Z 18015G23KT 10SM BKN080 BKN100 14/M01 A3006 500 34 600 180/15G23 RMK AO2 $
14840KMKG MKG20070514060511105/14/07 06:05:31  5-MIN KMKG 141105Z 18015G23KT 10SM BKN075 BKN095 14/M01 A3006 500 34 600 180/15G23 RMK AO2 $
14840KMKG MKG20070514061011105/14/07 06:10:31  5-MIN KMKG 141110Z 18014G23KT 10SM BKN075 OVC090 15/M01 A3007 500 34 700 190/14G23 RMK AO2 $
14840KMKG MKG20070514061510405/14/07 06:15:31  5-MIN KMKG 141115Z 18016G22KT 10SM OVC075 15/M01 A3007 500 33 700 180/16G22 RMK AO2 $
14840KMKG MKG20070514062010405/14/07 06:20:31  5-MIN KMKG 141120Z 17017G24KT 10SM OVC070 15/M01 A3007 500 34 700 180/17G24 RMK AO2 $
14840KMKG MKG20070514062510405/14/07 06:25:31  5-MIN KMKG 141125Z 18013G24KT 10SM OVC070 15/M01 A3007 490 34 600 180/13G24 RMK AO2 $
14840KMKG MKG20070514063010405/14/07 06:30:31  5-MIN KMKG 141130Z 17014G21KT 10SM OVC070 15/M01 A3007 490 34 600 180/14G21 RMK AO2 $
14840KMKG MKG20070514063510405/14/07 06:35:31  5-MIN KMKG 141135Z 18013G21KT 10SM OVC070 15/M01 A3007 490 34 600 180/13G21 RMK AO2 $
14840KMKG MKG20070514064010405/14/07 06:40:31  5-MIN KMKG 141140Z 17015G20KT 10SM OVC070 15/M01 A3007 490 34 600 180/15G20 RMK AO2 $
14840KMKG MKG20070514064509705/14/07 06:45:31  5-MIN KMKG 141145Z 18014KT 10SM OVC070 15/00 A3007 490 35 600 180/14 RMK AO2 $
14840KMKG MKG20070514065013805/14/07 06:50:31  5-MIN KMKG 141150Z 17012G19KT 10SM OVC070 15/00 A3008 480 35 600 170/12G19 RMK AO2 SLP186 T01500000 10150 20117 58012 $
14840KMKG MKG20070514065513805/14/07 06:55:31  5-MIN KMKG 141155Z 17012G19KT 10SM OVC070 15/00 A3008 480 35 600 170/12G19 RMK AO2 SLP186 T01500000 10150 20117 55004 $
14840KMKG MKG20070514070010305/14/07 07:00:31  5-MIN KMKG 141200Z 18012G19KT 10SM OVC070 15/00 A3008 480 35 600 180/12G19 RMK AO2 $
14840KMKG MKG20070514070510305/14/07 07:05:31  5-MIN KMKG 141205Z 17014G19KT 10SM OVC070 15/00 A3008 480 35 600 180/14G19 RMK AO2 $
14840KMKG MKG20070514071010305/14/07 07:10:31  5-MIN KMKG 141210Z 17012G21KT 10SM OVC070 15/01 A3008 480 37 600 170/12G21 RMK AO2 $
14840KMKG MKG20070514071510305/14/07 07:15:31  5-MIN KMKG 141215Z 18015G21KT 10SM BKN070 16/01 A3008 480 36 700 180/15G21 RMK AO2 $
14840KMKG MKG20070514072010305/14/07 07:20:31  5-MIN KMKG 141220Z 18014G19KT 10SM BKN070 16/01 A3008 480 36 700 180/14G19 RMK AO2 $
14840KMKG MKG20070514072511005/14/07 07:25:31  5-MIN KMKG 141225Z 17014G21KT 10SM BKN070 OVC090 16/01 A3008 480 36 700 180/14G21 RMK AO2 $
14840KMKG MKG20070514073011705/14/07 07:30:31  5-MIN KMKG 141230Z 18015G21KT 10SM BKN070 BKN085 BKN110 16/01 A3008 480 37 700 190/15G21 RMK AO2 $
14840KMKG MKG20070514073511005/14/07 07:35:31  5-MIN KMKG 141235Z 19012G21KT 10SM BKN075 BKN090 16/01 A3009 480 37 700 190/12G21 RMK AO2 $
14840KMKG MKG20070514074011005/14/07 07:40:31  5-MIN KMKG 141240Z 18012G18KT 10SM BKN075 BKN090 16/01 A3009 480 37 700 180/12G18 RMK AO2 $
14840KMKG MKG20070514074511005/14/07 07:45:31  5-MIN KMKG 141245Z 17013G20KT 10SM BKN075 BKN100 16/02 A3009 480 39 700 180/13G20 RMK AO2 $
14840KMKG MKG20070514075012705/14/07 07:50:31  5-MIN KMKG 141250Z 18010G20KT 10SM BKN080 BKN100 16/02 A3009 480 39 700 190/10G20 RMK AO2 SLP190 T01560017 $
14840KMKG MKG20070514075512705/14/07 07:55:31  5-MIN KMKG 141255Z 18012G19KT 10SM BKN080 BKN100 16/02 A3009 480 39 700 180/12G19 RMK AO2 SLP190 T01560017 $
14840KMKG MKG20070514080011005/14/07 08:00:31  5-MIN KMKG 141300Z 18014G20KT 10SM BKN075 BKN100 16/02 A3009 470 39 800 190/14G20 RMK AO2 $
14840KMKG MKG20070514080511005/14/07 08:05:31  5-MIN KMKG 141305Z 18014G23KT 10SM BKN075 BKN100 16/02 A3009 470 39 800 180/14G23 RMK AO2 $
14840KMKG MKG20070514081010305/14/07 08:10:31  5-MIN KMKG 141310Z 18011G23KT 10SM BKN075 16/02 A3010 470 39 700 180/11G23 RMK AO2 $
14840KMKG MKG20070514081510305/14/07 08:15:31  5-MIN KMKG 141315Z 16012G19KT 10SM BKN075 16/02 A3010 470 39 700 170/12G19 RMK AO2 $
14840KMKG MKG20070514082011005/14/07 08:20:31  5-MIN KMKG 141320Z 16013G21KT 10SM BKN075 BKN090 16/02 A3009 470 39 800 160/13G21 RMK AO2 $
14840KMKG MKG20070514082510305/14/07 08:25:31  5-MIN KMKG 141325Z 17013G23KT 10SM BKN075 16/02 A3010 470 39 700 180/13G23 RMK AO2 $
14840KMKG MKG20070514083010305/14/07 08:30:31  5-MIN KMKG 141330Z 16010G23KT 10SM BKN080 16/02 A3009 470 39 800 160/10G23 RMK AO2 $
14840KMKG MKG20070514083510105/14/07 08:35:31  5-MIN KMKG 141335Z 17015G22KT 10SM BKN080 17/03 A3009 470 39 800 170/15G22 RMK AO2
14840KMKG MKG20070514084010105/14/07 08:40:31  5-MIN KMKG 141340Z 17012G22KT 10SM BKN080 17/03 A3009 470 37 900 170/12G22 RMK AO2
14840KMKG MKG20070514084512305/14/07 08:45:31  5-MIN KMKG 141345Z 16016G23KT 10SM SCT080 BKN095 17/03 A3009 480 37 900 170/16G23 RMK AO2 CIG 080 RWY 14
14840KMKG MKG20070514085012505/14/07 08:50:31  5-MIN KMKG 141350Z 16016G24KT 10SM BKN080 BKN095 17/03 A3009 480 39 800 160/16G24 RMK AO2 SLP189 T01670028
14840KMKG MKG20070514085511805/14/07 08:55:31  5-MIN KMKG 141355Z 18012G25KT 10SM BKN080 17/03 A3009 470 37 900 190/12G25 RMK AO2 SLP189 T01720028
14840KMKG MKG20070514090010105/14/07 09:00:31  5-MIN KMKG 141400Z 17014G25KT 10SM BKN080 17/03 A3009 480 37 900 170/14G25 RMK AO2
14840KMKG MKG20070514090510105/14/07 09:05:31  5-MIN KMKG 141405Z 18014G22KT 10SM BKN080 17/03 A3009 480 37 900 180/14G22 RMK AO2
14840KMKG MKG20070514091010105/14/07 09:10:31  5-MIN KMKG 141410Z 18014G18KT 10SM BKN080 17/03 A3009 480 37 900 180/14G18 RMK AO2
14840KMKG MKG20070514091510105/14/07 09:15:31  5-MIN KMKG 141415Z 17015G24KT 10SM BKN080 17/03 A3008 480 37 900 180/15G24 RMK AO2
14840KMKG MKG20070514092010105/14/07 09:20:31  5-MIN KMKG 141420Z 17016G24KT 10SM BKN080 17/03 A3008 480 37 900 170/16G24 RMK AO2
14840KMKG MKG20070514092510105/14/07 09:25:31  5-MIN KMKG 141425Z 17015G22KT 10SM BKN080 17/03 A3008 480 39 800 170/15G22 RMK AO2
14840KMKG MKG20070514093010105/14/07 09:30:31  5-MIN KMKG 141430Z 17015G23KT 10SM BKN080 17/03 A3008 480 39 800 180/15G23 RMK AO2
14840KMKG MKG20070514093510805/14/07 09:35:31  5-MIN KMKG 141435Z 19011G23KT 10SM BKN080 BKN095 17/03 A3008 480 39 800 190/11G23 RMK AO2
14840KMKG MKG20070514094010305/14/07 09:40:31  5-MIN KMKG 141440Z 17011KT 10SM BKN080 BKN095 18/04 A3008 490 39 1000 170/11 RMK AO2
14840KMKG MKG20070514094510205/14/07 09:45:31  5-MIN KMKG 141445Z 18013G22KT 10SM BKN080 18/04 A3008 490 39 1000 180/13G22 RMK AO2
14840KMKG MKG20070514095012505/14/07 09:50:31  5-MIN KMKG 141450Z 17016G23KT 10SM SCT080 18/04 A3007 490 39 1000 180/16G23 RMK AO2 SLP184 T01780039 55004
14840KMKG MKG20070514095512505/14/07 09:55:31  5-MIN KMKG 141455Z 18014G23KT 10SM SCT080 18/04 A3007 490 38 1000 190/14G23 RMK AO2 SLP183 T01830039 58003
14840KMKG MKG20070514100010205/14/07 10:00:31  5-MIN KMKG 141500Z 17014G20KT 10SM SCT080 18/04 A3007 490 39 1000 180/14G20 RMK AO2
14840KMKG MKG20070514100510205/14/07 10:05:31  5-MIN KMKG 141505Z 17012G19KT 10SM SCT075 18/04 A3006 500 39 1000 180/12G19 RMK AO2
14840KMKG MKG20070514101010205/14/07 10:10:31  5-MIN KMKG 141510Z 18015G21KT 10SM FEW075 18/04 A3007 500 38 1000 180/15G21 RMK AO2
14840KMKG MKG20070514101510205/14/07 10:15:31  5-MIN KMKG 141515Z 17014G21KT 10SM FEW080 18/04 A3006 500 38 1000 180/14G21 RMK AO2
14840KMKG MKG20070514102010205/14/07 10:20:31  5-MIN KMKG 141520Z 19014G21KT 10SM FEW080 18/04 A3006 500 38 1000 190/14G21 RMK AO2
14840KMKG MKG20070514102510205/14/07 10:25:31  5-MIN KMKG 141525Z 17016G23KT 10SM FEW080 18/04 A3006 500 38 1000 180/16G23 RMK AO2
14840KMKG MKG20070514103010205/14/07 10:30:31  5-MIN KMKG 141530Z 18016G23KT 10SM FEW090 18/04 A3006 500 38 1000 180/16G23 RMK AO2
14840KMKG MKG20070514103510205/14/07 10:35:31  5-MIN KMKG 141535Z 17015G23KT 10SM FEW090 19/04 A3005 510 36 1100 180/15G23 RMK AO2
14840KMKG MKG20070514104010205/14/07 10:40:31  5-MIN KMKG 141540Z 17016G23KT 10SM FEW075 19/04 A3005 510 36 1100 180/16G23 RMK AO2
14840KMKG MKG20070514104510205/14/07 10:45:31  5-MIN KMKG 141545Z 17019G24KT 10SM SCT075 19/04 A3005 510 36 1100 180/19G24 RMK AO2
14840KMKG MKG20070514105011905/14/07 10:50:31  5-MIN KMKG 141550Z 18016G25KT 10SM FEW075 19/04 A3005 510 35 1200 180/16G25 RMK AO2 SLP175 T01940039
14840KMKG MKG20070514105511905/14/07 10:55:31  5-MIN KMKG 141555Z 18016G25KT 10SM SCT075 19/04 A3004 520 36 1100 180/16G25 RMK AO2 SLP174 T01890039
14840KMKG MKG20070514110010205/14/07 11:00:31  5-MIN KMKG 141600Z 18017G24KT 10SM SCT075 19/04 A3004 520 36 1100 180/17G24 RMK AO2
14840KMKG MKG20070514110512005/14/07 11:05:31  5-MIN KMKG 141605Z 18013G26KT 10SM FEW075 19/04 A3004 520 35 1200 190/13G26 RMK AO2 PK WND 19026/1603
14840KMKG MKG20070514111012005/14/07 11:10:31  5-MIN KMKG 141610Z 17016G26KT 10SM FEW075 20/04 A3004 520 35 1300 180/16G26 RMK AO2 PK WND 19026/1603
14840KMKG MKG20070514111512005/14/07 11:15:31  5-MIN KMKG 141615Z 18020G26KT 10SM SCT080 19/04 A3004 520 35 1200 180/20G26 RMK AO2 PK WND 18026/1615
14840KMKG MKG20070514112012005/14/07 11:20:31  5-MIN KMKG 141620Z 18017G27KT 10SM SCT075 19/04 A3004 520 35 1200 180/17G27 RMK AO2 PK WND 17027/1617
14840KMKG MKG20070514112512005/14/07 11:25:31  5-MIN KMKG 141625Z 18014G27KT 10SM SCT080 19/04 A3003 530 35 1200 190/14G27 RMK AO2 PK WND 17027/1617
14840KMKG MKG20070514113012005/14/07 11:30:31  5-MIN KMKG 141630Z 18016G24KT 10SM SCT080 21/04 A3003 520 34 1300 190/16G24 RMK AO2 PK WND 17027/1617
14840KMKG MKG20070514113512005/14/07 11:35:31  5-MIN KMKG 141635Z 18021G29KT 10SM SCT080 20/04 A3003 530 34 1300 190/21G29 RMK AO2 PK WND 18029/1634
14840KMKG MKG20070514114012005/14/07 11:40:31  5-MIN KMKG 141640Z 18019G29KT 10SM SCT080 20/04 A3002 530 34 1300 180/19G29 RMK AO2 PK WND 18029/1634
14840KMKG MKG20070514114512005/14/07 11:45:31  5-MIN KMKG 141645Z 18019G28KT 10SM SCT080 20/04 A3002 530 35 1300 180/19G28 RMK AO2 PK WND 18029/1634
14840KMKG MKG20070514115013705/14/07 11:50:31  5-MIN KMKG 141650Z 18018G28KT 10SM SCT080 21/05 A3002 540 35 1300 180/18G28 RMK AO2 PK WND 18029/1634 SLP166 T02060050
14840KMKG MKG20070514115513705/14/07 11:55:31  5-MIN KMKG 141655Z 19019G25KT 10SM FEW075 21/04 A3002 540 34 1400 190/19G25 RMK AO2 PK WND 18029/1634 SLP165 T02060044
14840KMKG MKG20070514120012005/14/07 12:00:31  5-MIN KMKG 141700Z 18020G28KT 10SM FEW080 21/04 A3002 540 34 1400 190/20G28 RMK AO2 PK WND 16028/1700
14840KMKG MKG20070514120512005/14/07 12:05:31  5-MIN KMKG 141705Z 18017G28KT 10SM FEW075 21/05 A3001 540 34 1400 180/17G28 RMK AO2 PK WND 16028/1700
14840KMKG MKG20070514121012005/14/07 12:10:31  5-MIN KMKG 141710Z 19020G27KT 10SM FEW080 21/05 A3001 550 34 1400 190/20G27 RMK AO2 PK WND 16028/1700
14840KMKG MKG20070514121511705/14/07 12:15:31  5-MIN KMKG 141715Z 19017G27KT 10SM CLR 21/05 A3001 550 34 1400 190/17G27 RMK AO2 PK WND 16028/1700
14840KMKG MKG20070514122011705/14/07 12:20:31  5-MIN KMKG 141720Z 18018G26KT 10SM CLR 22/05 A3001 550 33 1500 190/18G26 RMK AO2 PK WND 16028/1700
14840KMKG MKG20070514122511705/14/07 12:25:31  5-MIN KMKG 141725Z 19017G27KT 10SM CLR 22/05 A3000 550 33 1500 190/17G27 RMK AO2 PK WND 16028/1700
14840KMKG MKG20070514123011705/14/07 12:30:31  5-MIN KMKG 141730Z 19021G29KT 10SM CLR 22/05 A3000 560 33 1500 200/21G29 RMK AO2 PK WND 20029/1730
14840KMKG MKG20070514123511705/14/07 12:35:31  5-MIN KMKG 141735Z 19017G29KT 10SM CLR 22/05 A3000 560 33 1500 190/17G29 RMK AO2 PK WND 20029/1730
14840KMKG MKG20070514124011705/14/07 12:40:31  5-MIN KMKG 141740Z 20021G30KT 10SM CLR 22/04 A2999 560 32 1500 200/21G30 RMK AO2 PK WND 21030/1740
14840KMKG MKG20070514124511705/14/07 12:45:31  5-MIN KMKG 141745Z 19020G30KT 10SM CLR 22/04 A2999 560 32 1500 200/20G30 RMK AO2 PK WND 21030/1740
14840KMKG MKG20070514125015205/14/07 12:50:31  5-MIN KMKG 141750Z 20020G29KT 10SM CLR 22/04 A2999 570 31 1600 200/20G29 RMK AO2 PK WND 21030/1740 SLP154 T02220044 10222 20150 58003
14840KMKG MKG20070514125515205/14/07 12:55:31  5-MIN KMKG 141755Z 19020G29KT 10SM CLR 22/05 A2999 570 32 1600 200/20G29 RMK AO2 PK WND 21030/1740 SLP153 T02220050 10222 20150 58028
14840KMKG MKG20070514130011705/14/07 13:00:31  5-MIN KMKG 141800Z 20021G29KT 10SM CLR 22/04 A2999 570 31 1600 200/21G29 RMK AO2 PK WND 19029/1759
14840KMKG MKG20070514130511705/14/07 13:05:31  5-MIN KMKG 141805Z 19017G32KT 10SM CLR 22/05 A2999 570 32 1600 200/17G32 RMK AO2 PK WND 21032/1802
14840KMKG MKG20070514131011705/14/07 13:10:31  5-MIN KMKG 141810Z 20018G32KT 10SM CLR 22/05 A2998 570 32 1600 200/18G32 RMK AO2 PK WND 21032/1802
14840KMKG MKG20070514131511705/14/07 13:15:31  5-MIN KMKG 141815Z 20020G30KT 10SM CLR 22/05 A2998 570 32 1600 200/20G30 RMK AO2 PK WND 21032/1802
14840KMKG MKG20070514132011705/14/07 13:20:31  5-MIN KMKG 141820Z 20019G30KT 10SM CLR 22/05 A2998 570 32 1600 200/19G30 RMK AO2 PK WND 21032/1802
14840KMKG MKG20070514132511705/14/07 13:25:31  5-MIN KMKG 141825Z 19021G28KT 10SM CLR 23/05 A2998 580 31 1700 200/21G28 RMK AO2 PK WND 21032/1802
14840KMKG MKG20070514133011705/14/07 13:30:31  5-MIN KMKG 141830Z 20019G30KT 10SM CLR 23/05 A2997 580 31 1700 200/19G30 RMK AO2 PK WND 21032/1802
14840KMKG MKG20070514133511705/14/07 13:35:31  5-MIN KMKG 141835Z 19019G33KT 10SM CLR 23/05 A2997 580 31 1700 190/19G33 RMK AO2 PK WND 19033/1833
14840KMKG MKG20070514134011705/14/07 13:40:31  5-MIN KMKG 141840Z 19020G33KT 10SM CLR 23/05 A2997 590 31 1700 200/20G33 RMK AO2 PK WND 19033/1833
14840KMKG MKG20070514134511705/14/07 13:45:31  5-MIN KMKG 141845Z 19019G31KT 10SM CLR 23/05 A2997 590 31 1700 200/19G31 RMK AO2 PK WND 19033/1833
14840KMKG MKG20070514135013405/14/07 13:50:31  5-MIN KMKG 141850Z 20021G31KT 10SM CLR 23/06 A2996 590 31 1700 200/21G31 RMK AO2 PK WND 19033/1833 SLP146 T02330056
14840KMKG MKG20070514135513405/14/07 13:55:31  5-MIN KMKG 141855Z 19023G34KT 10SM CLR 23/05 A2996 590 31 1700 190/23G34 RMK AO2 PK WND 18034/1854 SLP145 T02280050
14840KMKG MKG20070514140011705/14/07 14:00:31  5-MIN KMKG 141900Z 19022G34KT 10SM CLR 23/06 A2996 590 31 1700 190/22G34 RMK AO2 PK WND 19027/1900
14840KMKG MKG20070514140511705/14/07 14:05:31  5-MIN KMKG 141905Z 19022G31KT 10SM CLR 23/06 A2996 590 31 1700 200/22G31 RMK AO2 PK WND 20031/1904
14840KMKG MKG20070514141011705/14/07 14:10:31  5-MIN KMKG 141910Z 19019G31KT 10SM CLR 23/06 A2996 600 32 1700 200/19G31 RMK AO2 PK WND 20031/1904
14840KMKG MKG20070514141511705/14/07 14:15:31  5-MIN KMKG 141915Z 20021G27KT 10SM CLR 23/06 A2996 600 31 1700 200/21G27 RMK AO2 PK WND 20031/1904
14840KMKG MKG20070514142011705/14/07 14:20:31  5-MIN KMKG 141920Z 19018G27KT 10SM CLR 24/06 A2995 600 31 1800 200/18G27 RMK AO2 PK WND 20031/1904
14840KMKG MKG20070514142511705/14/07 14:25:31  5-MIN KMKG 141925Z 19020G28KT 10SM CLR 24/06 A2995 600 29 1900 190/20G28 RMK AO2 PK WND 20031/1904
14840KMKG MKG20070514143011705/14/07 14:30:31  5-MIN KMKG 141930Z 19018G28KT 10SM CLR 24/06 A2995 600 29 1900 200/18G28 RMK AO2 PK WND 20031/1904
14840KMKG MKG20070514143511705/14/07 14:35:31  5-MIN KMKG 141935Z 19020G30KT 10SM CLR 24/06 A2995 610 31 1800 200/20G30 RMK AO2 PK WND 20031/1904
14840KMKG MKG20070514144011705/14/07 14:40:31  5-MIN KMKG 141940Z 20021G30KT 10SM CLR 24/06 A2994 610 31 1800 200/21G30 RMK AO2 PK WND 20031/1904
14840KMKG MKG20070514144511705/14/07 14:45:31  5-MIN KMKG 141945Z 20019G29KT 10SM CLR 24/06 A2994 610 31 1800 200/19G29 RMK AO2 PK WND 20031/1904
14840KMKG MKG20070514145013405/14/07 14:50:31  5-MIN KMKG 141950Z 20022G32KT 10SM CLR 24/06 A2994 610 30 1900 200/22G32 RMK AO2 PK WND 19032/1950 SLP136 T02440061
14840KMKG MKG20070514145513405/14/07 14:55:31  5-MIN KMKG 141955Z 19020G32KT 10SM CLR 24/06 A2994 620 30 1900 200/20G32 RMK AO2 PK WND 19032/1950 SLP136 T02440061
14840KMKG MKG20070514150011705/14/07 15:00:31  5-MIN KMKG 142000Z 20019G30KT 10SM CLR 24/07 A2993 620 31 1900 200/19G30 RMK AO2 PK WND 21030/1958
14840KMKG MKG20070514150511705/14/07 15:05:31  5-MIN KMKG 142005Z 19021G30KT 10SM CLR 24/07 A2993 620 31 1900 200/21G30 RMK AO2 PK WND 21030/1958
14840KMKG MKG20070514151011705/14/07 15:10:31  5-MIN KMKG 142010Z 20020G29KT 10SM CLR 24/07 A2993 620 31 1900 200/20G29 RMK AO2 PK WND 21030/1958
14840KMKG MKG20070514151511705/14/07 15:15:31  5-MIN KMKG 142015Z 19022G30KT 10SM CLR 24/07 A2993 620 31 1900 200/22G30 RMK AO2 PK WND 21030/2015
14840KMKG MKG20070514152011705/14/07 15:20:31  5-MIN KMKG 142020Z 20019G31KT 10SM CLR 24/07 A2992 630 31 1900 200/19G31 RMK AO2 PK WND 19031/2017
14840KMKG MKG20070514152511705/14/07 15:25:31  5-MIN KMKG 142025Z 20020G31KT 10SM CLR 25/07 A2992 630 31 2000 200/20G31 RMK AO2 PK WND 19031/2017
14840KMKG MKG20070514153011705/14/07 15:30:31  5-MIN KMKG 142030Z 20021G28KT 10SM CLR 25/07 A2992 630 30 2000 200/21G28 RMK AO2 PK WND 19031/2017
14840KMKG MKG20070514153511705/14/07 15:35:31  5-MIN KMKG 142035Z 20021G30KT 10SM CLR 25/07 A2991 640 30 2000 200/21G30 RMK AO2 PK WND 19031/2017
14840KMKG MKG20070514154011705/14/07 15:40:31  5-MIN KMKG 142040Z 19018G30KT 10SM CLR 25/07 A2991 640 31 2000 190/18G30 RMK AO2 PK WND 19031/2017
14840KMKG MKG20070514154511705/14/07 15:45:31  5-MIN KMKG 142045Z 19019G28KT 10SM CLR 26/07 A2991 640 30 2000 200/19G28 RMK AO2 PK WND 19031/2017
14840KMKG MKG20070514155014005/14/07 15:50:31  5-MIN KMKG 142050Z 19019G28KT 10SM CLR 25/07 A2990 650 31 2000 200/19G28 RMK AO2 PK WND 19031/2017 SLP124 T02500072 58028
14840KMKG MKG20070514155514005/14/07 15:55:31  5-MIN KMKG 142055Z 19018G27KT 10SM CLR 25/07 A2990 650 31 2000 200/18G27 RMK AO2 PK WND 19031/2017 SLP124 T02500072 58029
14840KMKG MKG20070514160011705/14/07 16:00:31  5-MIN KMKG 142100Z 19019G29KT 10SM CLR 26/08 A2990 650 32 2100 190/19G29 RMK AO2 PK WND 19029/2100
14840KMKG MKG20070514160511705/14/07 16:05:31  5-MIN KMKG 142105Z 19017G29KT 10SM CLR 26/08 A2989 660 32 2100 190/17G29 RMK AO2 PK WND 19029/2100
14840KMKG MKG20070514161011705/14/07 16:10:31  5-MIN KMKG 142110Z 19018G28KT 10SM CLR 26/08 A2989 660 32 2100 190/18G28 RMK AO2 PK WND 19029/2100
14840KMKG MKG20070514161511705/14/07 16:15:31  5-MIN KMKG 142115Z 19016G25KT 10SM CLR 26/08 A2989 660 32 2100 200/16G25 RMK AO2 PK WND 19029/2100
14840KMKG MKG20070514162011705/14/07 16:20:31  5-MIN KMKG 142120Z 19020G28KT 10SM CLR 26/08 A2988 660 32 2100 190/20G28 RMK AO2 PK WND 19029/2100
14840KMKG MKG20070514162511705/14/07 16:25:31  5-MIN KMKG 142125Z 19018G28KT 10SM CLR 26/08 A2988 660 31 2100 190/18G28 RMK AO2 PK WND 19029/2100
14840KMKG MKG20070514163011705/14/07 16:30:31  5-MIN KMKG 142130Z 19018G28KT 10SM CLR 26/08 A2988 670 31 2100 200/18G28 RMK AO2 PK WND 19029/2100
14840KMKG MKG20070514163511705/14/07 16:35:31  5-MIN KMKG 142135Z 19019G29KT 10SM CLR 26/08 A2988 670 31 2100 200/19G29 RMK AO2 PK WND 20029/2134
14840KMKG MKG20070514164011705/14/07 16:40:31  5-MIN KMKG 142140Z 19019G29KT 10SM CLR 26/08 A2988 670 32 2100 190/19G29 RMK AO2 PK WND 20029/2134
14840KMKG MKG20070514164511705/14/07 16:45:31  5-MIN KMKG 142145Z 19017G27KT 10SM CLR 26/08 A2988 670 32 2100 190/17G27 RMK AO2 PK WND 20029/2134
14840KMKG MKG20070514165013405/14/07 16:50:31  5-MIN KMKG 142150Z 19017G25KT 10SM CLR 26/08 A2988 670 32 2100 190/17G25 RMK AO2 PK WND 20029/2134 SLP115 T02610083
14840KMKG MKG20070514165513405/14/07 16:55:31  5-MIN KMKG 142155Z 19020G28KT 10SM CLR 26/08 A2988 670 32 2100 200/20G28 RMK AO2 PK WND 20029/2134 SLP114 T02610083
14840KMKG MKG20070514170009905/14/07 17:00:31  5-MIN KMKG 142200Z 19019G28KT 10SM CLR 26/08 A2987 670 32 2100 200/19G28 RMK AO2
14840KMKG MKG20070514170511705/14/07 17:05:31  5-MIN KMKG 142205Z 19018G27KT 10SM CLR 27/08 A2987 670 31 2200 190/18G27 RMK AO2 PK WND 18027/2201
14840KMKG MKG20070514171011705/14/07 17:10:31  5-MIN KMKG 142210Z 19017G27KT 10SM CLR 27/08 A2987 680 31 2200 190/17G27 RMK AO2 PK WND 18027/2201
14840KMKG MKG20070514171511705/14/07 17:15:31  5-MIN KMKG 142215Z 19017G25KT 10SM CLR 27/09 A2987 680 32 2200 200/17G25 RMK AO2 PK WND 18027/2201
14840KMKG MKG20070514172011705/14/07 17:20:31  5-MIN KMKG 142220Z 19020G25KT 10SM CLR 27/08 A2987 680 31 2200 190/20G25 RMK AO2 PK WND 18027/2201
14840KMKG MKG20070514172511705/14/07 17:25:31  5-MIN KMKG 142225Z 19019G28KT 10SM CLR 27/09 A2986 680 32 2200 190/19G28 RMK AO2 PK WND 18028/2224
14840KMKG MKG20070514173011705/14/07 17:30:31  5-MIN KMKG 142230Z 19017G28KT 10SM CLR 27/09 A2986 680 31 2300 190/17G28 RMK AO2 PK WND 18028/2224
14840KMKG MKG20070514173511705/14/07 17:35:31  5-MIN KMKG 142235Z 19017G27KT 10SM CLR 27/09 A2986 690 31 2300 190/17G27 RMK AO2 PK WND 18028/2224
14840KMKG MKG20070514174011705/14/07 17:40:31  5-MIN KMKG 142240Z 19017G28KT 10SM CLR 27/09 A2985 690 31 2300 190/17G28 RMK AO2 PK WND 18028/2237
14840KMKG MKG20070514174511705/14/07 17:45:31  5-MIN KMKG 142245Z 19018G28KT 10SM CLR 27/09 A2985 700 31 2300 190/18G28 RMK AO2 PK WND 18028/2237
14840KMKG MKG20070514175013405/14/07 17:50:31  5-MIN KMKG 142250Z 19019G28KT 10SM CLR 27/09 A2985 700 31 2300 200/19G28 RMK AO2 PK WND 20028/2247 SLP105 T02720089
14840KMKG MKG20070514175513405/14/07 17:55:31  5-MIN KMKG 142255Z 19017G28KT 10SM CLR 27/09 A2985 700 32 2300 190/17G28 RMK AO2 PK WND 20028/2247 SLP105 T02720094
14840KMKG MKG20070514180009905/14/07 18:00:31  5-MIN KMKG 142300Z 19018G25KT 10SM CLR 27/09 A2984 700 33 2200 190/18G25 RMK AO2
14840KMKG MKG20070514180509905/14/07 18:05:31  5-MIN KMKG 142305Z 20015G24KT 10SM CLR 27/09 A2985 700 33 2200 200/15G24 RMK AO2
14840KMKG MKG20070514181011705/14/07 18:10:31  5-MIN KMKG 142310Z 19016G26KT 10SM CLR 26/09 A2984 700 34 2200 200/16G26 RMK AO2 PK WND 19026/2308
14840KMKG MKG20070514181511705/14/07 18:15:31  5-MIN KMKG 142315Z 19017G26KT 10SM CLR 26/09 A2984 700 34 2200 200/17G26 RMK AO2 PK WND 19026/2308
14840KMKG MKG20070514182011705/14/07 18:20:31  5-MIN KMKG 142320Z 20016G23KT 10SM CLR 26/09 A2984 700 34 2200 200/16G23 RMK AO2 PK WND 19026/2308
14840KMKG MKG20070514182511705/14/07 18:25:31  5-MIN KMKG 142325Z 20016G22KT 10SM CLR 26/09 A2984 710 34 2200 200/16G22 RMK AO2 PK WND 19026/2308
14840KMKG MKG20070514183011705/14/07 18:30:31  5-MIN KMKG 142330Z 20019G26KT 10SM CLR 26/10 A2984 710 36 2200 210/19G26 RMK AO2 PK WND 20026/2330
14840KMKG MKG20070514183511705/14/07 18:35:31  5-MIN KMKG 142335Z 20018G28KT 10SM CLR 26/09 A2984 710 34 2200 200/18G28 RMK AO2 PK WND 20028/2333
14840KMKG MKG20070514184011705/14/07 18:40:31  5-MIN KMKG 142340Z 20016G28KT 10SM CLR 26/09 A2983 710 35 2100 210/16G28 RMK AO2 PK WND 20028/2333
14840KMKG MKG20070514184511705/14/07 18:45:31  5-MIN KMKG 142345Z 21017G23KT 10SM CLR 26/09 A2983 710 35 2100 210/17G23 RMK AO2 PK WND 20028/2333
14840KMKG MKG20070514185015205/14/07 18:50:31  5-MIN KMKG 142350Z 20015G23KT 10SM CLR 25/09 A2983 710 37 2100 210/15G23 RMK AO2 PK WND 20028/2333 SLP100 T02500094 10272 20222 58029
14840KMKG MKG20070514185515205/14/07 18:55:31  5-MIN KMKG 142355Z 21018G27KT 10SM CLR 24/09 A2983 710 38 2000 210/18G27 RMK AO2 PK WND 20028/2333 SLP099 T02440094 10272 20222 56023
14840KMKG MKG20070514190009905/14/07 19:00:31  5-MIN KMKG 150000Z 21019G27KT 10SM CLR 24/09 A2983 710 38 2000 210/19G27 RMK AO2
14840KMKG MKG20070514190511705/14/07 19:05:31  5-MIN KMKG 150005Z 21018G26KT 10SM CLR 24/09 A2983 720 38 2000 210/18G26 RMK AO2 PK WND 20026/0002
14840KMKG MKG20070514191011705/14/07 19:10:31  5-MIN KMKG 150010Z 21021G29KT 10SM CLR 24/09 A2983 710 36 2000 210/21G29 RMK AO2 PK WND 22029/0008
14840KMKG MKG20070514191511705/14/07 19:15:31  5-MIN KMKG 150015Z 21017G29KT 10SM CLR 24/09 A2983 720 38 2000 210/17G29 RMK AO2 PK WND 22029/0008
14840KMKG MKG20070514192011705/14/07 19:20:31  5-MIN KMKG 150020Z 21015G25KT 10SM CLR 24/09 A2982 720 38 2000 210/15G25 RMK AO2 PK WND 22029/0008
14840KMKG MKG20070514192511705/14/07 19:25:31  5-MIN KMKG 150025Z 21018G25KT 10SM CLR 23/09 A2982 720 39 1900 210/18G25 RMK AO2 PK WND 22029/0008
14840KMKG MKG20070514193011705/14/07 19:30:31  5-MIN KMKG 150030Z 21017G25KT 10SM CLR 23/09 A2982 720 39 1900 210/17G25 RMK AO2 PK WND 22029/0008
14840KMKG MKG20070514193511705/14/07 19:35:31  5-MIN KMKG 150035Z 21017G22KT 10SM CLR 23/09 A2982 720 39 1900 210/17G22 RMK AO2 PK WND 22029/0008
14840KMKG MKG20070514194011705/14/07 19:40:31  5-MIN KMKG 150040Z 21015G23KT 10SM CLR 23/09 A2982 720 40 1800 210/15G23 RMK AO2 PK WND 22029/0008
14840KMKG MKG20070514194511705/14/07 19:45:31  5-MIN KMKG 150045Z 21014G23KT 10SM CLR 22/08 A2982 720 40 1800 210/14G23 RMK AO2 PK WND 22029/0008
14840KMKG MKG20070514195013405/14/07 19:50:31  5-MIN KMKG 150050Z 21015G24KT 10SM CLR 23/09 A2982 720 40 1800 220/15G24 RMK AO2 PK WND 22029/0008 SLP095 T02280089
14840KMKG MKG20070514195513405/14/07 19:55:31  5-MIN KMKG 150055Z 21017G24KT 10SM CLR 23/09 A2982 720 40 1800 210/17G24 RMK AO2 PK WND 22029/0008 SLP096 T02280089
14840KMKG MKG20070514200011705/14/07 20:00:31  5-MIN KMKG 150100Z 22019G27KT 10SM CLR 23/09 A2982 730 40 1800 220/19G27 RMK AO2 PK WND 22027/0100
14840KMKG MKG20070514200511705/14/07 20:05:31  5-MIN KMKG 150105Z 22017G27KT 10SM CLR 23/09 A2982 720 39 1900 220/17G27 RMK AO2 PK WND 22027/0100
14840KMKG MKG20070514201011705/14/07 20:10:31  5-MIN KMKG 150110Z 21015G26KT 10SM CLR 23/08 A2982 730 39 1800 220/15G26 RMK AO2 PK WND 22027/0100
14840KMKG MKG20070514201511105/14/07 20:15:31  5-MIN KMKG 150115Z 21016KT 10SM CLR 22/08 A2982 730 40 1800 220/16 RMK AO2 PK WND 22027/0100
14840KMKG MKG20070514202011705/14/07 20:20:31  5-MIN KMKG 150120Z 22015G22KT 10SM CLR 22/08 A2982 720 40 1800 220/15G22 RMK AO2 PK WND 22027/0100
14840KMKG MKG20070514202511705/14/07 20:25:31  5-MIN KMKG 150125Z 21015G25KT 10SM CLR 23/08 A2981 730 39 1800 210/15G25 RMK AO2 PK WND 22027/0100
14840KMKG MKG20070515233511405/15/07 23:35:31  5-MIN KMKG 160435Z 34007KT 10SM BKN008 OVC095 12/10 A2984 710 89 500 340/07 RMK AO2 CIG 006V012
14840KMKG MKG20070515234011405/15/07 23:40:31  5-MIN KMKG 160440Z 34010KT 10SM BKN010 OVC095 12/10 A2984 700 89 500 340/10 RMK AO2 CIG 006V012
14840KMKG MKG20070515234510205/15/07 23:45:31  5-MIN KMKG 160445Z 34008KT 10SM SCT010 OVC095 11/09 A2984 700 89 400 340/08 RMK AO2
14840KMKG MKG20070515235012905/15/07 23:50:31  5-MIN KMKG 160450Z 31009KT 10SM SCT010 OVC095 11/09 A2984 700 89 400 320/09 RMK AO2 SLP105 T01110094 402110111
14840KMKG MKG20070515235512905/15/07 23:55:31  5-MIN KMKG 160455Z 32008KT 10SM SCT010 OVC095 11/09 A2985 700 89 400 330/08 RMK AO2 SLP107 T01060089 402110106
14840KMKG MKG20070516000010205/16/07 00:00:32  5-MIN KMKG 160500Z 34010KT 10SM SCT010 OVC095 10/09 A2985 690 93 300 340/10 RMK AO2
14840KMKG MKG20070516000510205/16/07 00:05:31  5-MIN KMKG 160505Z 34009KT 10SM SCT010 OVC095 10/08 A2985 690 89 300 340/09 RMK AO2
14840KMKG MKG20070516001010205/16/07 00:10:31  5-MIN KMKG 160510Z 35010KT 10SM SCT010 BKN095 10/08 A2985 690 89 300 350/10 RMK AO2
14840KMKG MKG20070516001511405/16/07 00:15:31  5-MIN KMKG 160515Z 34006KT 10SM BKN010 BKN100 10/08 A2986 690 86 300 350/06 RMK AO2 CIG 007V011
14840KMKG MKG20070516002011405/16/07 00:20:31  5-MIN KMKG 160520Z 33007KT 10SM BKN008 OVC100 10/08 A2986 680 89 300 330/07 RMK AO2 CIG 006V011
14840KMKG MKG20070516002511405/16/07 00:25:31  5-MIN KMKG 160525Z 32009KT 10SM BKN008 OVC095 09/08 A2986 690 93 200 330/09 RMK AO2 CIG 006V011
14840KMKG MKG20070516003011405/16/07 00:30:31  5-MIN KMKG 160530Z 32008KT 10SM BKN008 OVC100 09/08 A2986 690 89 200 330/08 RMK AO2 CIG 006V011
14840KMKG MKG20070516003510705/16/07 00:35:31  5-MIN KMKG 160535Z 35008KT 10SM OVC008 09/08 A2986 690 89 200 350/08 RMK AO2 CIG 006V011
14840KMKG MKG20070516004010705/16/07 00:40:31  5-MIN KMKG 160540Z 35011KT 10SM OVC006 09/08 A2986 680 89 200 350/11 RMK AO2 CIG 006V011
14840KMKG MKG20070516004510705/16/07 00:45:31  5-MIN KMKG 160545Z 35009KT 10SM OVC006 09/07 A2987 670 89 100 360/09 RMK AO2 CIG 006V010
14840KMKG MKG20070516005014805/16/07 00:50:31  5-MIN KMKG 160550Z 35007KT 10SM OVC006 09/07 A2988 670 86 100 350/07 RMK AO2 CIG 006V009 SLP118 60001 T00890067 10144 20089 53012
14840KMKG MKG20070516005513605/16/07 00:55:31  5-MIN KMKG 160555Z 34007KT 10SM OVC006 09/07 A2987 670 86 100 340/07 RMK AO2 SLP117 60001 T00890067 10144 20089 53011
14840KMKG MKG20070516010010105/16/07 01:00:31  5-MIN KMKG 160600Z 35012G16KT 10SM OVC008 09/07 A2987 670 86 100 360/12G16 RMK AO2
14840KMKG MKG20070516010509505/16/07 01:05:31  5-MIN KMKG 160605Z 35011KT 10SM OVC008 08/07 A2987 680 89 100 360/11 RMK AO2
14840KMKG MKG20070516011009505/16/07 01:10:31  5-MIN KMKG 160610Z 35009KT 10SM OVC008 08/07 A2988 670 89 100 360/09 RMK AO2
14840KMKG MKG20070516011509505/16/07 01:15:31  5-MIN KMKG 160615Z 35007KT 10SM OVC008 08/07 A2987 680 89 100 360/07 RMK AO2
14840KMKG MKG20070516012009505/16/07 01:20:31  5-MIN KMKG 160620Z 35008KT 10SM OVC008 08/07 A2987 680 89 100 360/08 RMK AO2
14840KMKG MKG20070516012509505/16/07 01:25:31  5-MIN KMKG 160625Z 01006KT 10SM OVC008 08/07 A2987 680 89 100 010/06 RMK AO2
14840KMKG MKG20070516013009505/16/07 01:30:31  5-MIN KMKG 160630Z 34005KT 10SM OVC008 08/07 A2987 680 89 100 350/05 RMK AO2
14840KMKG MKG20070516013509505/16/07 01:35:31  5-MIN KMKG 160635Z 36008KT 10SM OVC008 08/07 A2987 670 89 100 360/08 RMK AO2
14840KMKG MKG20070516014009505/16/07 01:40:31  5-MIN KMKG 160640Z 34009KT 10SM OVC008 08/07 A2987 680 89 100 340/09 RMK AO2
14840KMKG MKG20070516014510105/16/07 01:45:31  5-MIN KMKG 160645Z 33012G15KT 10SM OVC008 08/07 A2987 680 89 100 340/12G15 RMK AO2
14840KMKG MKG20070516015011205/16/07 01:50:31  5-MIN KMKG 160650Z 35009KT 10SM OVC008 08/07 A2987 670 89 100 350/09 RMK AO2 SLP118 T00830067
14840KMKG MKG20070516015511205/16/07 01:55:31  5-MIN KMKG 160655Z 35010KT 10SM OVC008 08/07 A2987 680 89 100 350/10 RMK AO2 SLP117 T00830067
14840KMKG MKG20070516020009505/16/07 02:00:31  5-MIN KMKG 160700Z 35010KT 10SM OVC008 08/07 A2987 670 89 100 360/10 RMK AO2
14840KMKG MKG20070516020510705/16/07 02:05:31  5-MIN KMKG 160705Z 33007KT 10SM OVC008 08/06 A2987 670 86 100 330/07 RMK AO2 CIG 007V012
14840KMKG MKG20070516021010705/16/07 02:10:31  5-MIN KMKG 160710Z 33007KT 10SM OVC008 08/07 A2987 680 89 100 340/07 RMK AO2 CIG 007V012
14840KMKG MKG20070516021509505/16/07 02:15:31  5-MIN KMKG 160715Z 34006KT 10SM OVC008 08/07 A2987 680 89 100 340/06 RMK AO2
14840KMKG MKG20070516022010705/16/07 02:20:31  5-MIN KMKG 160720Z 32008KT 10SM OVC008 08/07 A2987 680 89 100 320/08 RMK AO2 CIG 006V012
14840KMKG MKG20070516022510705/16/07 02:25:31  5-MIN KMKG 160725Z 33008KT 10SM OVC008 08/07 A2987 680 89 100 340/08 RMK AO2 CIG 006V012
14840KMKG MKG20070516023010505/16/07 02:30:31  5-MIN KMKG 160730Z 32008KT 10SM OVC008 08/07 A2987 670 93 0 320/08 RMK AO2 CIG 006V012
14840KMKG MKG20070516023509305/16/07 02:35:31  5-MIN KMKG 160735Z 31008KT 10SM OVC008 08/07 A2988 670 93 0 310/08 RMK AO2
14840KMKG MKG20070516024009305/16/07 02:40:31  5-MIN KMKG 160740Z 32009KT 10SM OVC008 08/06 A2987 680 89 0 320/09 RMK AO2
14840KMKG MKG20070516024509305/16/07 02:45:31  5-MIN KMKG 160745Z 34009KT 10SM OVC008 08/06 A2987 680 89 0 340/09 RMK AO2
14840KMKG MKG20070516025011005/16/07 02:50:31  5-MIN KMKG 160750Z 31009KT 10SM OVC006 08/06 A2987 680 89 0 320/09 RMK AO2 SLP116 T00780061
14840KMKG MKG20070516025511005/16/07 02:55:31  5-MIN KMKG 160755Z 31009KT 10SM OVC006 08/06 A2987 680 89 0 310/09 RMK AO2 SLP116 T00780061
14840KMKG MKG20070516030009305/16/07 03:00:31  5-MIN KMKG 160800Z 33012KT 10SM OVC006 08/06 A2987 670 89 0 330/12 RMK AO2
14840KMKG MKG20070516030509305/16/07 03:05:31  5-MIN KMKG 160805Z 31008KT 10SM OVC006 08/06 A2987 680 89 0 320/08 RMK AO2
14840KMKG MKG20070516031009305/16/07 03:10:31  5-MIN KMKG 160810Z 32009KT 10SM OVC006 07/06 A2987 680 93 0 320/09 RMK AO2
14840KMKG MKG20070516031509305/16/07 03:15:31  5-MIN KMKG 160815Z 33011KT 10SM OVC006 07/06 A2987 680 89 0 330/11 RMK AO2
14840KMKG MKG20070516032009305/16/07 03:20:31  5-MIN KMKG 160820Z 32010KT 10SM OVC006 07/06 A2987 680 93 0 330/10 RMK AO2
14840KMKG MKG20070516032509905/16/07 03:25:31  5-MIN KMKG 160825Z 33012G18KT 10SM OVC006 07/06 A2986 680 93 0 340/12G18 RMK AO2
14840KMKG MKG20070516033009905/16/07 03:30:31  5-MIN KMKG 160830Z 34011G18KT 10SM OVC006 07/06 A2986 680 89 0 340/11G18 RMK AO2
14840KMKG MKG20070516033509905/16/07 03:35:31  5-MIN KMKG 160835Z 32013G17KT 10SM OVC006 07/06 A2986 690 93 0 330/13G17 RMK AO2
14840KMKG MKG20070516034009905/16/07 03:40:31  5-MIN KMKG 160840Z 32012G17KT 10SM OVC006 07/06 A2987 680 89 0 320/12G17 RMK AO2
14840KMKG MKG20070516034509305/16/07 03:45:31  5-MIN KMKG 160845Z 33013KT 10SM OVC006 07/06 A2987 670 89 0 330/13 RMK AO2
14840KMKG MKG20070516035011605/16/07 03:50:31  5-MIN KMKG 160850Z 33012KT 10SM OVC006 07/06 A2987 670 89 0 330/12 RMK AO2 SLP117 T00720056 53011
14840KMKG MKG20070516035511605/16/07 03:55:31  5-MIN KMKG 160855Z 32011KT 10SM OVC006 07/06 A2987 670 89 0 320/11 RMK AO2 SLP118 T00720056 53001
14840KMKG MKG20070516040009305/16/07 04:00:31  5-MIN KMKG 160900Z 32013KT 10SM OVC006 07/06 A2988 670 89 0 330/13 RMK AO2
14840KMKG MKG20070516040509305/16/07 04:05:31  5-MIN KMKG 160905Z 33011KT 10SM OVC006 07/06 A2988 670 89 0 340/11 RMK AO2
14840KMKG MKG20070516041009305/16/07 04:10:31  5-MIN KMKG 160910Z 32011KT 10SM OVC006 07/06 A2988 670 89 0 320/11 RMK AO2
14840KMKG MKG20070516041509305/16/07 04:15:31  5-MIN KMKG 160915Z 31010KT 10SM OVC006 07/06 A2988 670 89 0 320/10 RMK AO2
14840KMKG MKG20070516042009305/16/07 04:20:31  5-MIN KMKG 160920Z 33011KT 10SM OVC006 07/06 A2988 670 89 0 330/11 RMK AO2
14840KMKG MKG20070516042510205/16/07 04:25:31  5-MIN KMKG 160925Z 32016G19KT 10SM OVC006 07/06 A2988 670 93 -100 330/16G19 RMK AO2
14840KMKG MKG20070516043010205/16/07 04:30:31  5-MIN KMKG 160930Z 32014G19KT 10SM OVC006 07/06 A2988 670 93 -100 320/14G19 RMK AO2
14840KMKG MKG20070516043510205/16/07 04:35:31  5-MIN KMKG 160935Z 34013G19KT 10SM OVC006 07/06 A2988 670 93 -100 340/13G19 RMK AO2
14840KMKG MKG20070516044010205/16/07 04:40:31  5-MIN KMKG 160940Z 33012G19KT 10SM OVC006 07/06 A2988 670 93 -100 330/12G19 RMK AO2
14840KMKG MKG20070516044509605/16/07 04:45:31  5-MIN KMKG 160945Z 32013KT 10SM OVC006 07/06 A2988 670 93 -100 320/13 RMK AO2
14840KMKG MKG20070516045011305/16/07 04:50:31  5-MIN KMKG 160950Z 33014KT 10SM OVC006 07/06 A2988 670 93 -100 330/14 RMK AO2 SLP120 T00670056
14840KMKG MKG20070516045511905/16/07 04:55:31  5-MIN KMKG 160955Z 33011G19KT 10SM OVC006 07/06 A2989 660 93 -100 340/11G19 RMK AO2 SLP122 T00670056
14840KMKG MKG20070516050011405/16/07 05:00:31  5-MIN KMKG 161000Z 33013G19KT 10SM OVC006 07/06 A2988 660 93 -100 330/13G19 RMK AO2 CIG 005V009
14840KMKG MKG20070516050510205/16/07 05:05:31  5-MIN KMKG 161005Z 33011G19KT 10SM OVC006 07/06 A2989 660 93 -100 340/11G19 RMK AO2
14840KMKG MKG20070516051010205/16/07 05:10:31  5-MIN KMKG 161010Z 32013G20KT 10SM OVC006 07/05 A2989 660 89 -100 330/13G20 RMK AO2
14840KMKG MKG20070516051510205/16/07 05:15:31  5-MIN KMKG 161015Z 33012G20KT 10SM OVC006 07/05 A2990 650 89 -100 340/12G20 RMK AO2
14840KMKG MKG20070516052009605/16/07 05:20:31  5-MIN KMKG 161020Z 33011KT 10SM OVC006 07/05 A2989 660 89 -100 330/11 RMK AO2
14840KMKG MKG20070516052509605/16/07 05:25:31  5-MIN KMKG 161025Z 33011KT 10SM OVC006 07/05 A2990 650 89 -100 330/11 RMK AO2
14840KMKG MKG20070516053009605/16/07 05:30:31  5-MIN KMKG 161030Z 32009KT 10SM OVC006 07/05 A2989 660 89 -100 330/09 RMK AO2
14840KMKG MKG20070516053510205/16/07 05:35:31  5-MIN KMKG 161035Z 33015G18KT 10SM OVC006 07/05 A2989 660 89 -100 330/15G18 RMK AO2
14840KMKG MKG20070516054009605/16/07 05:40:31  5-MIN KMKG 161040Z 33012KT 10SM OVC006 07/05 A2989 650 89 -100 340/12 RMK AO2
14840KMKG MKG20070516054510205/16/07 05:45:31  5-MIN KMKG 161045Z 32014G20KT 10SM OVC006 07/05 A2989 660 89 -100 330/14G20 RMK AO2
14840KMKG MKG20070516055011905/16/07 05:50:31  5-MIN KMKG 161050Z 33015G20KT 10SM OVC006 07/05 A2990 650 89 -100 340/15G20 RMK AO2 SLP128 T00670050
14840KMKG MKG20070516055511905/16/07 05:55:31  5-MIN KMKG 161055Z 32015G24KT 10SM OVC006 06/05 A2990 650 93 -200 320/15G24 RMK AO2 SLP126 T00610050
14840KMKG MKG20070516060010205/16/07 06:00:31  5-MIN KMKG 161100Z 33015G24KT 10SM OVC006 06/05 A2990 650 93 -200 330/15G24 RMK AO2
14840KMKG MKG20070516060510205/16/07 06:05:31  5-MIN KMKG 161105Z 33012G21KT 10SM OVC006 06/05 A2991 640 93 -200 340/12G21 RMK AO2
14840KMKG MKG20070516061010205/16/07 06:10:31  5-MIN KMKG 161110Z 32013G20KT 10SM OVC006 06/05 A2991 640 93 -200 330/13G20 RMK AO2
14840KMKG MKG20070516061510205/16/07 06:15:31  5-MIN KMKG 161115Z 34013G20KT 10SM OVC006 06/05 A2991 640 93 -200 340/13G20 RMK AO2
14840KMKG MKG20070516062009605/16/07 06:20:31  5-MIN KMKG 161120Z 34013KT 10SM OVC006 07/05 A2991 640 89 -100 340/13 RMK AO2
14840KMKG MKG20070516062510205/16/07 06:25:31  5-MIN KMKG 161125Z 34015G21KT 10SM OVC006 07/04 A2992 630 86 -100 340/15G21 RMK AO2
14840KMKG MKG20070516063010205/16/07 06:30:31  5-MIN KMKG 161130Z 32010G21KT 10SM OVC006 07/05 A2992 640 89 -100 320/10G21 RMK AO2
14840KMKG MKG20070516063509605/16/07 06:35:31  5-MIN KMKG 161135Z 34012KT 10SM OVC006 07/05 A2992 630 89 -100 340/12 RMK AO2
14840KMKG MKG20070516064010205/16/07 06:40:31  5-MIN KMKG 161140Z 33014G20KT 10SM OVC006 06/04 A2992 630 89 -200 330/14G20 RMK AO2
14840KMKG MKG20070516064510205/16/07 06:45:31  5-MIN KMKG 161145Z 32014G20KT 10SM OVC006 06/04 A2992 630 89 -200 330/14G20 RMK AO2
14840KMKG MKG20070516065013705/16/07 06:50:31  5-MIN KMKG 161150Z 33013KT 10SM OVC006 06/05 A2992 630 93 -200 340/13 RMK AO2 SLP136 70019 T00610050 10089 20061 53001
14840KMKG MKG20070516065514305/16/07 06:55:31  5-MIN KMKG 161155Z 33015G19KT 10SM OVC006 07/05 A2992 630 89 -100 330/15G19 RMK AO2 SLP135 70019 T00670050 10089 20061 53016
14840KMKG MKG20070516070010205/16/07 07:00:31  5-MIN KMKG 161200Z 33011G20KT 10SM OVC006 06/04 A2992 630 89 -200 330/11G20 RMK AO2
14840KMKG MKG20070516070510205/16/07 07:05:31  5-MIN KMKG 161205Z 33010G20KT 10SM OVC006 07/05 A2993 620 89 -100 330/10G20 RMK AO2
14840KMKG MKG20070516071010205/16/07 07:10:31  5-MIN KMKG 161210Z 33014G19KT 10SM OVC006 07/05 A2993 620 89 -100 340/14G19 RMK AO2
14840KMKG MKG20070516071510205/16/07 07:15:31  5-MIN KMKG 161215Z 33011G19KT 10SM OVC006 07/05 A2993 620 89 -100 330/11G19 RMK AO2
14840KMKG MKG20070516072010205/16/07 07:20:31  5-MIN KMKG 161220Z 34012G19KT 10SM OVC006 07/05 A2993 620 89 -100 340/12G19 RMK AO2
14840KMKG MKG20070516072510205/16/07 07:25:31  5-MIN KMKG 161225Z 33012G19KT 10SM OVC006 07/05 A2993 620 89 -100 330/12G19 RMK AO2
14840KMKG MKG20070516073010205/16/07 07:30:31  5-MIN KMKG 161230Z 33014G19KT 10SM OVC006 07/05 A2994 620 89 -200 340/14G19 RMK AO2
14840KMKG MKG20070516073510805/16/07 07:35:31  5-MIN KMKG 161235Z 32013KT 10SM OVC006 07/04 A2993 620 86 -100 320/13 RMK AO2 CIG 006V011
14840KMKG MKG20070516074011405/16/07 07:40:31  5-MIN KMKG 161240Z 33014G19KT 10SM OVC006 07/04 A2994 620 86 -200 330/14G19 RMK AO2 CIG 006V012
14840KMKG MKG20070516074510205/16/07 07:45:31  5-MIN KMKG 161245Z 34013G19KT 10SM OVC008 07/04 A2994 610 86 -200 340/13G19 RMK AO2
14840KMKG MKG20070516075012505/16/07 07:50:31  5-MIN KMKG 161250Z 34010KT 10SM OVC008 07/05 A2994 610 89 -200 350/10 RMK AO2 CIG 006V012 SLP142 T00670050
14840KMKG MKG20070516075511305/16/07 07:55:31  5-MIN KMKG 161255Z 34012KT 10SM OVC008 07/05 A2994 610 86 -100 340/12 RMK AO2 SLP142 T00720050
14840KMKG MKG20070516080010205/16/07 08:00:31  5-MIN KMKG 161300Z 33010G18KT 10SM OVC008 07/05 A2995 610 89 -200 340/10G18 RMK AO2
14840KMKG MKG20070516080511405/16/07 08:05:31  5-MIN KMKG 161305Z 33012G18KT 10SM OVC008 07/05 A2995 600 86 -100 340/12G18 RMK AO2 CIG 008V013
14840KMKG MKG20070516081011405/16/07 08:10:31  5-MIN KMKG 161310Z 33013G18KT 10SM OVC008 07/04 A2995 600 82 -100 330/13G18 RMK AO2 CIG 008V013
14840KMKG MKG20070516081510805/16/07 08:15:31  5-MIN KMKG 161315Z 33013KT 10SM OVC010 07/05 A2995 600 86 -100 330/13 RMK AO2 CIG 008V013
14840KMKG MKG20070516082011505/16/07 08:20:31  5-MIN KMKG 161320Z 34012KT 10SM BKN010 OVC014 07/04 A2995 600 82 -100 340/12 RMK AO2 CIG 009V012
14840KMKG MKG20070516082510205/16/07 08:25:31  5-MIN KMKG 161325Z 33010G19KT 10SM OVC012 07/05 A2995 600 86 -100 340/10G19 RMK AO2
14840KMKG MKG20070516083009905/16/07 08:30:31  5-MIN KMKG 161330Z 33010G19KT 10SM OVC012 08/05 A2995 600 82 0 330/10G19 RMK AO2
14840KMKG MKG20070516083509905/16/07 08:35:31  5-MIN KMKG 161335Z 32011G19KT 10SM OVC012 08/05 A2996 600 82 0 330/11G19 RMK AO2
14840KMKG MKG20070516084009305/16/07 08:40:31  5-MIN KMKG 161340Z 33013KT 10SM OVC012 08/05 A2995 600 82 0 330/13 RMK AO2
14840KMKG MKG20070516084509305/16/07 08:45:31  5-MIN KMKG 161345Z 33012KT 10SM OVC012 08/05 A2995 600 82 0 340/12 RMK AO2
14840KMKG MKG20070516085011005/16/07 08:50:31  5-MIN KMKG 161350Z 33012KT 10SM OVC012 08/05 A2995 600 79 0 330/12 RMK AO2 SLP145 T00830050
14840KMKG MKG20070516085511005/16/07 08:55:31  5-MIN KMKG 161355Z 32013KT 10SM OVC012 08/05 A2996 590 79 0 330/13 RMK AO2 SLP147 T00830050
14840KMKG MKG20070516090009905/16/07 09:00:31  5-MIN KMKG 161400Z 33014G20KT 10SM OVC012 08/05 A2996 590 79 0 330/14G20 RMK AO2
14840KMKG MKG20070516090509905/16/07 09:05:31  5-MIN KMKG 161405Z 33014G20KT 10SM OVC014 08/04 A2996 590 79 0 330/14G20 RMK AO2
14840KMKG MKG20070516091009905/16/07 09:10:31  5-MIN KMKG 161410Z 33013G19KT 10SM OVC014 08/04 A2997 590 76 0 340/13G19 RMK AO2
14840KMKG MKG20070516091509905/16/07 09:15:31  5-MIN KMKG 161415Z 33014G21KT 10SM OVC014 08/04 A2997 590 76 0 340/14G21 RMK AO2
14840KMKG MKG20070516092009905/16/07 09:20:31  5-MIN KMKG 161420Z 34012G21KT 10SM OVC014 08/04 A2997 580 76 0 340/12G21 RMK AO2
14840KMKG MKG20070516092509305/16/07 09:25:31  5-MIN KMKG 161425Z 34015KT 10SM OVC014 08/04 A2997 580 76 0 340/15 RMK AO2
14840KMKG MKG20070516093009305/16/07 09:30:31  5-MIN KMKG 161430Z 34015KT 10SM OVC014 08/04 A2998 580 76 0 340/15 RMK AO2
14840KMKG MKG20070516093509905/16/07 09:35:31  5-MIN KMKG 161435Z 34012G21KT 10SM OVC016 09/04 A2998 570 73 0 340/12G21 RMK AO2
14840KMKG MKG20070516094010205/16/07 09:40:31  5-MIN KMKG 161440Z 35012KT 10SM BKN016 OVC021 09/04 A2998 570 71 100 350/12 RMK AO2
14840KMKG MKG20070516094510205/16/07 09:45:31  5-MIN KMKG 161445Z 34014KT 10SM BKN016 BKN021 10/04 A2998 570 68 100 350/14 RMK AO2
14840KMKG MKG20070516095011805/16/07 09:50:31  5-MIN KMKG 161450Z 34010KT 10SM BKN019 10/04 A2998 570 68 200 340/10 RMK AO2 SLP154 T01000044 53016
14840KMKG MKG20070516095513105/16/07 09:55:31  5-MIN KMKG 161455Z 33014G18KT 10SM BKN019 BKN025 09/04 A2998 570 71 100 330/14G18 RMK AO2 SLP155 T00940044 53020
14840KMKG MKG20070516100009905/16/07 10:00:31  5-MIN KMKG 161500Z 34013G20KT 10SM BKN021 09/04 A2999 570 71 0 350/13G20 RMK AO2
14840KMKG MKG20070516100510105/16/07 10:05:31  5-MIN KMKG 161505Z 34016G22KT 10SM BKN021 10/04 A2999 570 68 100 350/16G22 RMK AO2
14840KMKG MKG20070516101010105/16/07 10:10:31  5-MIN KMKG 161510Z 34013G22KT 10SM BKN023 10/04 A2999 570 65 100 340/13G22 RMK AO2
14840KMKG MKG20070516101510105/16/07 10:15:31  5-MIN KMKG 161515Z 34011G21KT 10SM BKN023 11/04 A2999 560 63 200 340/11G21 RMK AO2
14840KMKG MKG20070516102009505/16/07 10:20:31  5-MIN KMKG 161520Z 32016KT 10SM SCT025 11/04 A2999 570 63 200 320/16 RMK AO2
14840KMKG MKG20070516102510105/16/07 10:25:31  5-MIN KMKG 161525Z 32013G19KT 10SM BKN025 10/04 A2999 570 65 100 330/13G19 RMK AO2
14840KMKG MKG20070516103009505/16/07 10:30:31  5-MIN KMKG 161530Z 34012KT 10SM SCT027 11/04 A2999 560 63 200 340/12 RMK AO2
14840KMKG MKG20070516103509505/16/07 10:35:31  5-MIN KMKG 161535Z 35013KT 10SM SCT027 11/04 A3000 560 61 300 350/13 RMK AO2
14840KMKG MKG20070516104010105/16/07 10:40:31  5-MIN KMKG 161540Z 32013G19KT 10SM SCT027 11/04 A3000 560 63 200 320/13G19 RMK AO2
14840KMKG MKG20070516104510105/16/07 10:45:31  5-MIN KMKG 161545Z 34011G20KT 10SM SCT027 11/03 A3000 560 58 300 350/11G20 RMK AO2
14840KMKG MKG20070516105011805/16/07 10:50:31  5-MIN KMKG 161550Z 33012G20KT 10SM FEW027 11/04 A3000 560 61 300 340/12G20 RMK AO2 SLP159 T01110039
14840KMKG MKG20070516105511805/16/07 10:55:31  5-MIN KMKG 161555Z 33010G18KT 10SM SCT027 12/04 A3000 560 58 300 330/10G18 RMK AO2 SLP160 T01170039
14840KMKG MKG20070516110010105/16/07 11:00:31  5-MIN KMKG 161600Z 33011G17KT 10SM SCT029 11/04 A3000 560 61 300 340/11G17 RMK AO2
14840KMKG MKG20070516110510105/16/07 11:05:31  5-MIN KMKG 161605Z 33014G17KT 10SM SCT029 11/04 A3000 550 61 300 330/14G17 RMK AO2
14840KMKG MKG20070516111010105/16/07 11:10:31  5-MIN KMKG 161610Z 33015G18KT 10SM SCT029 11/04 A3000 550 61 300 330/15G18 RMK AO2
14840KMKG MKG20070516111510105/16/07 11:15:31  5-MIN KMKG 161615Z 31012G18KT 10SM SCT029 11/04 A3000 560 61 300 310/12G18 RMK AO2
14840KMKG MKG20070516112010105/16/07 11:20:31  5-MIN KMKG 161620Z 31011G18KT 10SM SCT029 11/04 A3000 560 61 300 320/11G18 RMK AO2
14840KMKG MKG20070516112509505/16/07 11:25:31  5-MIN KMKG 161625Z 32013KT 10SM SCT029 11/04 A3000 550 61 300 320/13 RMK AO2
14840KMKG MKG20070516113009505/16/07 11:30:31  5-MIN KMKG 161630Z 29012KT 10SM SCT029 11/04 A3001 550 63 200 300/12 RMK AO2
14840KMKG MKG20070516113510105/16/07 11:35:31  5-MIN KMKG 161635Z 28013G20KT 10SM SCT029 10/04 A3001 550 65 100 280/13G20 RMK AO2
14840KMKG MKG20070516114010105/16/07 11:40:31  5-MIN KMKG 161640Z 30011G21KT 10SM SCT029 11/04 A3001 550 63 200 300/11G21 RMK AO2
14840KMKG MKG20070516114510105/16/07 11:45:31  5-MIN KMKG 161645Z 30014G21KT 10SM SCT029 11/04 A3001 550 63 200 300/14G21 RMK AO2
14840KMKG MKG20070516115011805/16/07 11:50:31  5-MIN KMKG 161650Z 30014G21KT 10SM SCT029 10/04 A3001 550 65 100 300/14G21 RMK AO2 SLP165 T01000039
14840KMKG MKG20070516115511805/16/07 11:55:31  5-MIN KMKG 161655Z 30012G22KT 10SM SCT029 11/04 A3001 550 63 200 300/12G22 RMK AO2 SLP165 T01060039
14840KMKG MKG20070516120010105/16/07 12:00:31  5-MIN KMKG 161700Z 31012G22KT 10SM SCT029 11/04 A3001 550 63 200 320/12G22 RMK AO2
14840KMKG MKG20070516120510105/16/07 12:05:31  5-MIN KMKG 161705Z 29011G17KT 10SM SCT029 11/04 A3001 550 63 200 300/11G17 RMK AO2
14840KMKG MKG20070516121010105/16/07 12:10:31  5-MIN KMKG 161710Z 29012G17KT 10SM SCT029 11/04 A3001 550 61 300 300/12G17 RMK AO2
14840KMKG MKG20070516121509505/16/07 12:15:31  5-MIN KMKG 161715Z 29013KT 10SM SCT029 11/04 A3001 550 63 200 300/13 RMK AO2
14840KMKG MKG20070516122010105/16/07 12:20:31  5-MIN KMKG 161720Z 30012G20KT 10SM SCT029 11/04 A3001 550 63 200 300/12G20 RMK AO2
14840KMKG MKG20070516122510105/16/07 12:25:31  5-MIN KMKG 161725Z 29014G20KT 10SM SCT029 11/04 A3001 550 63 200 290/14G20 RMK AO2
14840KMKG MKG20070516123010105/16/07 12:30:31  5-MIN KMKG 161730Z 28015G19KT 10SM SCT029 11/04 A3001 550 61 300 290/15G19 RMK AO2
14840KMKG MKG20070516123510105/16/07 12:35:31  5-MIN KMKG 161735Z 29014G21KT 10SM SCT029 11/04 A3001 550 61 200 300/14G21 RMK AO2
14840KMKG MKG20070516124010105/16/07 12:40:31  5-MIN KMKG 161740Z 29015G21KT 10SM SCT029 11/04 A3001 550 63 200 290/15G21 RMK AO2
14840KMKG MKG20070516124510105/16/07 12:45:31  5-MIN KMKG 161745Z 29011G20KT 10SM SCT029 11/04 A3001 550 63 300 300/11G20 RMK AO2
14840KMKG MKG20070516125013005/16/07 12:50:31  5-MIN KMKG 161750Z 29014KT 10SM SCT029 11/04 A3001 540 63 200 290/14 RMK AO2 SLP166 T01060039 10117 20061 53020
14840KMKG MKG20070516125513005/16/07 12:55:31  5-MIN KMKG 161755Z 29012KT 10SM SCT029 11/04 A3001 540 63 200 290/12 RMK AO2 SLP166 T01060039 10117 20061 51010
14840KMKG MKG20070516130009505/16/07 13:00:31  5-MIN KMKG 161800Z 31011KT 10SM SCT029 11/04 A3001 540 63 200 310/11 RMK AO2
14840KMKG MKG20070516130510105/16/07 13:05:31  5-MIN KMKG 161805Z 29013G17KT 10SM SCT029 11/04 A3002 540 63 200 290/13G17 RMK AO2
14840KMKG MKG20070516131009505/16/07 13:10:31  5-MIN KMKG 161810Z 29012KT 10SM SCT029 11/04 A3002 540 63 200 300/12 RMK AO2
14840KMKG MKG20070516131510105/16/07 13:15:31  5-MIN KMKG 161815Z 29012G21KT 10SM SCT029 11/04 A3002 540 61 200 300/12G21 RMK AO2
14840KMKG MKG20070516132010105/16/07 13:20:31  5-MIN KMKG 161820Z 30011G21KT 10SM SCT029 11/04 A3001 540 63 200 300/11G21 RMK AO2
14840KMKG MKG20070516132510105/16/07 13:25:31  5-MIN KMKG 161825Z 29012G17KT 10SM SCT029 11/04 A3002 540 63 200 300/12G17 RMK AO2
14840KMKG MKG20070516133009505/16/07 13:30:31  5-MIN KMKG 161830Z 31012KT 10SM SCT029 11/04 A3001 540 63 200 310/12 RMK AO2
14840KMKG MKG20070516133510105/16/07 13:35:31  5-MIN KMKG 161835Z 30012G18KT 10SM SCT029 11/04 A3002 540 63 200 300/12G18 RMK AO2
14840KMKG MKG20070516134010105/16/07 13:40:31  5-MIN KMKG 161840Z 29016G20KT 10SM SCT029 11/04 A3002 540 66 200 300/16G20 RMK AO2
14840KMKG MKG20070516134510105/16/07 13:45:31  5-MIN KMKG 161845Z 30010G20KT 10SM SCT029 11/04 A3002 540 63 200 300/10G20 RMK AO2
14840KMKG MKG20070516135011805/16/07 13:50:31  5-MIN KMKG 161850Z 30012G18KT 10SM SCT029 11/04 A3002 540 63 200 310/12G18 RMK AO2 SLP169 T01060039
14840KMKG MKG20070516135511805/16/07 13:55:31  5-MIN KMKG 161855Z 30010G18KT 10SM SCT029 11/04 A3002 540 61 200 300/10G18 RMK AO2 SLP168 T01110039
14840KMKG MKG20070516140010105/16/07 14:00:31  5-MIN KMKG 161900Z 29011G15KT 10SM SCT029 12/04 A3002 540 61 300 300/11G15 RMK AO2
14840KMKG MKG20070516140510105/16/07 14:05:31  5-MIN KMKG 161905Z 29013G16KT 10SM SCT029 12/04 A3002 540 61 300 290/13G16 RMK AO2
14840KMKG MKG20070516141009505/16/07 14:10:31  5-MIN KMKG 161910Z 28013KT 10SM SCT029 12/04 A3002 540 61 300 290/13 RMK AO2
14840KMKG MKG20070516141509505/16/07 14:15:31  5-MIN KMKG 161915Z 28013KT 10SM SCT029 12/04 A3002 540 61 300 280/13 RMK AO2
14840KMKG MKG20070516142009505/16/07 14:20:31  5-MIN KMKG 161920Z 28011KT 10SM SCT029 12/04 A3002 540 61 300 280/11 RMK AO2
14840KMKG MKG20070516142509505/16/07 14:25:31  5-MIN KMKG 161925Z 29011KT 10SM SCT032 12/04 A3002 540 59 400 290/11 RMK AO2
14840KMKG MKG20070516143010105/16/07 14:30:31  5-MIN KMKG 161930Z 30010G15KT 10SM SCT032 12/04 A3002 540 59 400 300/10G15 RMK AO2
14840KMKG MKG20070516143510105/16/07 14:35:31  5-MIN KMKG 161935Z 28011G15KT 10SM SCT032 12/04 A3002 540 56 400 280/11G15 RMK AO2
14840KMKG MKG20070516144009505/16/07 14:40:31  5-MIN KMKG 161940Z 33011KT 10SM SCT032 12/04 A3003 530 56 400 330/11 RMK AO2
14840KMKG MKG20070516144510105/16/07 14:45:31  5-MIN KMKG 161945Z 34012G18KT 10SM SCT032 13/03 A3002 530 52 400 340/12G18 RMK AO2
14840KMKG MKG20070516145011805/16/07 14:50:31  5-MIN KMKG 161950Z 34013G17KT 10SM SCT032 13/03 A3002 530 52 400 340/13G17 RMK AO2 SLP170 T01280033
14840KMKG MKG20070516145511805/16/07 14:55:31  5-MIN KMKG 161955Z 33013G19KT 10SM SCT032 13/03 A3003 530 52 400 330/13G19 RMK AO2 SLP171 T01280033
14840KMKG MKG20070516150010105/16/07 15:00:31  5-MIN KMKG 162000Z 33014G20KT 10SM SCT032 12/03 A3002 530 52 400 330/14G20 RMK AO2
14840KMKG MKG20070516150510105/16/07 15:05:31  5-MIN KMKG 162005Z 34011G20KT 10SM SCT032 12/03 A3003 530 52 400 350/11G20 RMK AO2
14840KMKG MKG20070516151010105/16/07 15:10:31  5-MIN KMKG 162010Z 34014G20KT 10SM SCT032 13/03 A3003 530 52 400 340/14G20 RMK AO2
14840KMKG MKG20070516151510105/16/07 15:15:31  5-MIN KMKG 162015Z 34011G20KT 10SM SCT032 13/03 A3003 530 50 400 340/11G20 RMK AO2
14840KMKG MKG20070516152009505/16/07 15:20:31  5-MIN KMKG 162020Z 34013KT 10SM SCT032 13/03 A3003 530 52 400 350/13 RMK AO2
14840KMKG MKG20070516152510105/16/07 15:25:31  5-MIN KMKG 162025Z 33012G16KT 10SM SCT032 13/03 A3003 530 50 500 340/12G16 RMK AO2
14840KMKG MKG20070516153011105/16/07 15:30:31  5-MIN KMKG 162030Z 31008KT 280V340 10SM SCT032 13/04 A3002 540 54 400 320/08 280V340 RMK AO2
14840KMKG MKG20070516153509505/16/07 15:35:31  5-MIN KMKG 162035Z 31009KT 10SM SCT032 13/04 A3002 540 54 400 320/09 RMK AO2
14840KMKG MKG20070516154010105/16/07 15:40:31  5-MIN KMKG 162040Z 31009G19KT 10SM SCT032 13/03 A3002 530 52 400 320/09G19 RMK AO2
14840KMKG MKG20070516154510105/16/07 15:45:31  5-MIN KMKG 162045Z 33014G19KT 10SM SCT032 13/03 A3003 530 50 400 330/14G19 RMK AO2
14840KMKG MKG20070516155011805/16/07 15:50:31  5-MIN KMKG 162050Z 33017KT 10SM FEW032 13/02 A3003 530 46 400 330/17 RMK AO2 SLP172 T01280017 51010
14840KMKG MKG20070516155512405/16/07 15:55:31  5-MIN KMKG 162055Z 32012G23KT 10SM FEW032 13/02 A3003 530 48 400 330/12G23 RMK AO2 SLP171 T01280022 51005
14840KMKG MKG20070516160009805/16/07 16:00:31  5-MIN KMKG 162100Z 33013G23KT 10SM CLR 13/02 A3003 530 48 400 340/13G23 RMK AO2
14840KMKG MKG20070516160509805/16/07 16:05:31  5-MIN KMKG 162105Z 34015G23KT 10SM CLR 13/02 A3003 520 46 400 340/15G23 RMK AO2
14840KMKG MKG20070516161010105/16/07 16:10:31  5-MIN KMKG 162110Z 33013G23KT 10SM FEW032 13/02 A3004 520 46 400 340/13G23 RMK AO2
14840KMKG MKG20070516161510105/16/07 16:15:31  5-MIN KMKG 162115Z 35013G20KT 10SM FEW032 13/02 A3003 530 46 400 350/13G20 RMK AO2
14840KMKG MKG20070516162010105/16/07 16:20:31  5-MIN KMKG 162120Z 34016G24KT 10SM FEW032 13/01 A3003 530 44 400 340/16G24 RMK AO2
14840KMKG MKG20070516162510105/16/07 16:25:31  5-MIN KMKG 162125Z 34015G24KT 10SM FEW032 13/01 A3004 520 43 500 350/15G24 RMK AO2
14840KMKG MKG20070516163010105/16/07 16:30:31  5-MIN KMKG 162130Z 33015G24KT 10SM FEW032 13/01 A3003 530 43 500 340/15G24 RMK AO2
14840KMKG MKG20070516163510105/16/07 16:35:31  5-MIN KMKG 162135Z 34013G24KT 10SM FEW032 13/01 A3003 530 43 500 350/13G24 RMK AO2
14840KMKG MKG20070516164010105/16/07 16:40:31  5-MIN KMKG 162140Z 35012G20KT 10SM FEW032 13/01 A3004 520 43 500 350/12G20 RMK AO2
14840KMKG MKG20070516164510105/16/07 16:45:31  5-MIN KMKG 162145Z 34015G20KT 10SM FEW032 13/01 A3003 530 43 500 350/15G20 RMK AO2
14840KMKG MKG20070516165011805/16/07 16:50:31  5-MIN KMKG 162150Z 33010G20KT 10SM FEW032 13/01 A3003 520 43 500 330/10G20 RMK AO2 SLP173 T01330011
14840KMKG MKG20070516165511805/16/07 16:55:31  5-MIN KMKG 162155Z 34015G21KT 10SM FEW032 13/01 A3003 530 41 500 340/15G21 RMK AO2 SLP172 T01330006
14840KMKG MKG20070516170009805/16/07 17:00:31  5-MIN KMKG 162200Z 34012G21KT 10SM CLR 13/01 A3003 530 43 500 340/12G21 RMK AO2
14840KMKG MKG20070516170509805/16/07 17:05:31  5-MIN KMKG 162205Z 34016G20KT 10SM CLR 13/01 A3003 530 43 500 340/16G20 RMK AO2
14840KMKG MKG20070516171009805/16/07 17:10:31  5-MIN KMKG 162210Z 34013G21KT 10SM CLR 13/01 A3003 530 43 500 340/13G21 RMK AO2
14840KMKG MKG20070516171510105/16/07 17:15:31  5-MIN KMKG 162215Z 34011G21KT 10SM FEW032 13/01 A3003 530 43 500 350/11G21 RMK AO2
14840KMKG MKG20070516172010105/16/07 17:20:31  5-MIN KMKG 162220Z 35015G20KT 10SM FEW032 13/01 A3003 520 43 500 350/15G20 RMK AO2
14840KMKG MKG20070516172510105/16/07 17:25:31  5-MIN KMKG 162225Z 36011G20KT 10SM FEW032 13/01 A3003 530 43 500 360/11G20 RMK AO2
14840KMKG MKG20070516173010105/16/07 17:30:31  5-MIN KMKG 162230Z 35012G21KT 10SM FEW032 13/01 A3003 530 43 500 360/12G21 RMK AO2
14840KMKG MKG20070516173510105/16/07 17:35:31  5-MIN KMKG 162235Z 33015G21KT 10SM FEW032 13/01 A3002 540 43 500 330/15G21 RMK AO2
14840KMKG MKG20070516174009505/16/07 17:40:31  5-MIN KMKG 162240Z 33012KT 10SM FEW032 13/01 A3002 540 43 500 330/12 RMK AO2
14840KMKG MKG20070516174509505/16/07 17:45:31  5-MIN KMKG 162245Z 33011KT 10SM FEW032 13/01 A3002 540 43 500 330/11 RMK AO2
14840KMKG MKG20070516175011205/16/07 17:50:31  5-MIN KMKG 162250Z 34011KT 10SM FEW032 13/01 A3003 530 43 500 350/11 RMK AO2 SLP170 T01330011
14840KMKG MKG20070516175511805/16/07 17:55:31  5-MIN KMKG 162255Z 33013G19KT 10SM FEW032 13/01 A3002 540 41 500 330/13G19 RMK AO2 SLP168 T01330006
14840KMKG MKG20070516180010105/16/07 18:00:31  5-MIN KMKG 162300Z 34012G19KT 10SM FEW032 13/01 A3002 540 43 500 340/12G19 RMK AO2
14840KMKG MKG20070516180510105/16/07 18:05:31  5-MIN KMKG 162305Z 33012G17KT 10SM FEW032 13/01 A3002 540 41 500 330/12G17 RMK AO2
14840KMKG MKG20070516181009505/16/07 18:10:31  5-MIN KMKG 162310Z 31011KT 10SM FEW032 13/01 A3002 540 43 500 320/11 RMK AO2
14840KMKG MKG20070516181509505/16/07 18:15:31  5-MIN KMKG 162315Z 32010KT 10SM FEW032 13/01 A3002 530 41 500 330/10 RMK AO2
14840KMKG MKG20070516182009505/16/07 18:20:31  5-MIN KMKG 162320Z 34008KT 10SM FEW032 13/01 A3002 530 43 500 350/08 RMK AO2
14840KMKG MKG20070516182509505/16/07 18:25:31  5-MIN KMKG 162325Z 35010KT 10SM FEW032 13/01 A3002 530 43 500 360/10 RMK AO2
14840KMKG MKG20070516183009505/16/07 18:30:31  5-MIN KMKG 162330Z 36010KT 10SM FEW032 13/01 A3002 540 43 400 360/10 RMK AO2
14840KMKG MKG20070516183509505/16/07 18:35:31  5-MIN KMKG 162335Z 35011KT 10SM FEW032 13/01 A3002 540 43 400 360/11 RMK AO2
14840KMKG MKG20070516184009505/16/07 18:40:31  5-MIN KMKG 162340Z 35010KT 10SM FEW032 12/01 A3002 540 44 400 360/10 RMK AO2
14840KMKG MKG20070516184509505/16/07 18:45:31  5-MIN KMKG 162345Z 34010KT 10SM FEW032 12/01 A3002 540 44 400 350/10 RMK AO2
14840KMKG MKG20070516185013005/16/07 18:50:31  5-MIN KMKG 162350Z 34011KT 10SM FEW032 13/01 A3002 540 44 400 350/11 RMK AO2 SLP168 T01280011 10139 20106 51005
14840KMKG MKG20070516185513005/16/07 18:55:31  5-MIN KMKG 162355Z 36007KT 10SM FEW031 13/01 A3002 530 44 400 010/07 RMK AO2 SLP170 T01280011 10139 20106 55001
14840KMKG MKG20070516190010805/16/07 19:00:31  5-MIN KMKG 170000Z 36008KT 330V030 10SM CLR 13/01 A3003 530 44 400 360/08 330V030 RMK AO2
14840KMKG MKG20070516190509205/16/07 19:05:31  5-MIN KMKG 170005Z 34008KT 10SM CLR 12/01 A3003 530 46 400 340/08 RMK AO2
14840KMKG MKG20070516191009205/16/07 19:10:31  5-MIN KMKG 170010Z 34010KT 10SM CLR 12/02 A3003 530 48 400 340/10 RMK AO2
14840KMKG MKG20070516191509205/16/07 19:15:31  5-MIN KMKG 170015Z 35007KT 10SM CLR 12/02 A3004 520 50 300 350/07 RMK AO2
14840KMKG MKG20070516192009205/16/07 19:20:31  5-MIN KMKG 170020Z 36007KT 10SM CLR 12/01 A3004 520 48 300 010/07 RMK AO2
14840KMKG MKG20070516192509205/16/07 19:25:31  5-MIN KMKG 170025Z 35006KT 10SM CLR 12/01 A3004 520 48 300 350/06 RMK AO2
14840KMKG MKG20070516193009205/16/07 19:30:31  5-MIN KMKG 170030Z 01008KT 10SM CLR 12/01 A3004 520 48 300 010/08 RMK AO2
14840KMKG MKG20070516193509205/16/07 19:35:31  5-MIN KMKG 170035Z 36008KT 10SM CLR 12/01 A3005 520 46 300 360/08 RMK AO2
14840KMKG MKG20070516194009205/16/07 19:40:31  5-MIN KMKG 170040Z 36006KT 10SM CLR 11/01 A3005 510 50 200 360/06 RMK AO2
14840KMKG MKG20070516194509205/16/07 19:45:31  5-MIN KMKG 170045Z 35008KT 10SM CLR 11/01 A3005 510 50 200 350/08 RMK AO2
14840KMKG MKG20070516195010905/16/07 19:50:31  5-MIN KMKG 170050Z 35007KT 10SM CLR 11/01 A3005 510 50 200 350/07 RMK AO2 SLP178 T01110011
14840KMKG MKG20070516195510905/16/07 19:55:31  5-MIN KMKG 170055Z 35007KT 10SM CLR 11/01 A3005 510 50 200 360/07 RMK AO2 SLP179 T01110011
14840KMKG MKG20070516200009205/16/07 20:00:31  5-MIN KMKG 170100Z 36006KT 10SM CLR 11/01 A3005 510 50 200 360/06 RMK AO2
14840KMKG MKG20070516200509205/16/07 20:05:31  5-MIN KMKG 170105Z 02007KT 10SM CLR 11/02 A3006 500 54 100 020/07 RMK AO2
14840KMKG MKG20070516201009205/16/07 20:10:31  5-MIN KMKG 170110Z 01006KT 10SM CLR 11/01 A3006 500 52 100 020/06 RMK AO2
14840KMKG MKG20070516201509205/16/07 20:15:31  5-MIN KMKG 170115Z 01007KT 10SM CLR 11/01 A3006 500 52 100 010/07 RMK AO2
14840KMKG MKG20070516202009205/16/07 20:20:31  5-MIN KMKG 170120Z 36008KT 10SM CLR 11/01 A3006 500 52 100 010/08 RMK AO2
14840KMKG MKG20070516202509205/16/07 20:25:31  5-MIN KMKG 170125Z 01005KT 10SM CLR 11/02 A3006 500 54 100 010/05 RMK AO2
14840KMKG MKG20070516203009205/16/07 20:30:31  5-MIN KMKG 170130Z 35007KT 10SM CLR 11/02 A3006 500 54 100 360/07 RMK AO2
14840KMKG MKG20070516203509205/16/07 20:35:31  5-MIN KMKG 170135Z 34007KT 10SM CLR 10/02 A3007 500 58 100 350/07 RMK AO2
14840KMKG MKG20070516204009205/16/07 20:40:31  5-MIN KMKG 170140Z 35006KT 10SM CLR 10/02 A3007 500 58 100 350/06 RMK AO2
14840KMKG MKG20070516204509205/16/07 20:45:31  5-MIN KMKG 170145Z 36006KT 10SM CLR 10/02 A3007 490 58 100 360/06 RMK AO2
14840KMKG MKG20070516205010905/16/07 20:50:31  5-MIN KMKG 170150Z 34007KT 10SM CLR 10/02 A3007 490 56 100 340/07 RMK AO2 SLP184 T01000017
14840KMKG MKG20070516205510905/16/07 20:55:31  5-MIN KMKG 170155Z 35009KT 10SM CLR 10/02 A3007 490 56 100 350/09 RMK AO2 SLP185 T01000017
14840KMKG MKG20070516210009205/16/07 21:00:31  5-MIN KMKG 170200Z 35007KT 10SM CLR 10/02 A3007 490 56 100 350/07 RMK AO2
14840KMKG MKG20070516210509205/16/07 21:05:31  5-MIN KMKG 170205Z 32005KT 10SM CLR 10/02 A3007 490 58 100 330/05 RMK AO2
14840KMKG MKG20070516211009505/16/07 21:10:31  5-MIN KMKG 170210Z 32007KT 10SM FEW120 10/02 A3007 490 58 100 330/07 RMK AO2
14840KMKG MKG20070516211509305/16/07 21:15:31  5-MIN KMKG 170215Z 33008KT 10SM FEW120 10/02 A3007 490 56 0 330/08 RMK AO2
14840KMKG MKG20070516212009305/16/07 21:20:31  5-MIN KMKG 170220Z 33008KT 10SM FEW120 10/02 A3007 490 56 0 330/08 RMK AO2
14840KMKG MKG20070516212509305/16/07 21:25:31  5-MIN KMKG 170225Z 33009KT 10SM FEW120 10/02 A3008 490 56 0 330/09 RMK AO2
14840KMKG MKG20070516213009305/16/07 21:30:31  5-MIN KMKG 170230Z 32007KT 10SM FEW120 10/02 A3008 480 56 0 330/07 RMK AO2
14840KMKG MKG20070516213509305/16/07 21:35:31  5-MIN KMKG 170235Z 33009KT 10SM SCT110 10/01 A3008 480 54 0 330/09 RMK AO2
14840KMKG MKG20070516214009305/16/07 21:40:31  5-MIN KMKG 170240Z 33007KT 10SM SCT110 10/02 A3008 480 56 0 330/07 RMK AO2
14840KMKG MKG20070516214509305/16/07 21:45:31  5-MIN KMKG 170245Z 33007KT 10SM BKN100 10/01 A3008 480 54 0 340/07 RMK AO2
14840KMKG MKG20070516215012305/16/07 21:50:31  5-MIN KMKG 170250Z 32007KT 10SM SCT090 BKN110 10/01 A3008 480 54 0 330/07 RMK AO2 SLP190 T01000011 55001
14840KMKG MKG20070516215512305/16/07 21:55:31  5-MIN KMKG 170255Z 33008KT 10SM SCT090 BKN110 10/01 A3008 480 54 0 340/08 RMK AO2 SLP190 T01000011 51019
14840KMKG MKG20070516220010005/16/07 22:00:31  5-MIN KMKG 170300Z 33007KT 10SM FEW090 BKN110 09/02 A3008 480 58 0 330/07 RMK AO2
14840KMKG MKG20070516220510005/16/07 22:05:31  5-MIN KMKG 170305Z 30005KT 10SM FEW090 SCT110 09/02 A3008 480 58 0 300/05 RMK AO2
14840KMKG MKG20070516221010305/16/07 22:10:31  5-MIN KMKG 170310Z 29008KT 10SM FEW090 SCT120 09/03 A3009 480 68 -100 290/08 RMK AO2
14840KMKG MKG20070516221509605/16/07 22:15:31  5-MIN KMKG 170315Z 29006KT 10SM FEW090 09/03 A3009 480 68 -100 290/06 RMK AO2
14840KMKG MKG20070516222009605/16/07 22:20:31  5-MIN KMKG 170320Z 29006KT 10SM FEW120 08/04 A3009 480 73 -100 290/06 RMK AO2
14840KMKG MKG20070516222509605/16/07 22:25:31  5-MIN KMKG 170325Z 30005KT 10SM FEW120 08/04 A3009 480 73 -100 300/05 RMK AO2
14840KMKG MKG20070516223009605/16/07 22:30:31  5-MIN KMKG 170330Z 30005KT 10SM BKN120 08/04 A3009 480 73 -100 300/05 RMK AO2
14840KMKG MKG20070516223509605/16/07 22:35:31  5-MIN KMKG 170335Z 29006KT 10SM SCT120 08/04 A3009 470 73 -100 290/06 RMK AO2
14840KMKG MKG20070516224009605/16/07 22:40:31  5-MIN KMKG 170340Z 30004KT 10SM SCT120 08/04 A3009 470 73 -100 310/04 RMK AO2
14840KMKG MKG20070516234509305/16/07 23:45:31  5-MIN KMKG 170445Z 01008KT 10SM CLR 07/03 A3010 470 76 -300 010/08 RMK AO2
14840KMKG MKG20070516235012005/16/07 23:50:31  5-MIN KMKG 170450Z 01007KT 10SM CLR 07/03 A3010 470 76 -300 010/07 RMK AO2 SLP196 T00670028 401390061
14840KMKG MKG20070516235512005/16/07 23:55:31  5-MIN KMKG 170455Z 36009KT 10SM CLR 07/03 A3010 460 76 -300 010/09 RMK AO2 SLP196 T00670028 401390061
14840KMKG MKG20070517000009305/17/07 00:00:32  5-MIN KMKG 170500Z 01008KT 10SM CLR 07/03 A3010 460 76 -300 010/08 RMK AO2
14840KMKG MKG20070517000509305/17/07 00:05:31  5-MIN KMKG 170505Z 36006KT 10SM CLR 06/03 A3010 460 79 -400 010/06 RMK AO2
14840KMKG MKG20070517001009605/17/07 00:10:31  5-MIN KMKG 170510Z 01006KT 10SM FEW025 06/03 A3011 460 79 -400 010/06 RMK AO2
14840KMKG MKG20070517001509605/17/07 00:15:31  5-MIN KMKG 170515Z 35006KT 10SM FEW025 06/03 A3011 460 79 -400 360/06 RMK AO2
14840KMKG MKG20070517002009605/17/07 00:20:31  5-MIN KMKG 170520Z 36006KT 10SM FEW025 06/03 A3011 460 79 -400 360/06 RMK AO2
14840KMKG MKG20070517002509605/17/07 00:25:31  5-MIN KMKG 170525Z 36007KT 10SM SCT027 06/03 A3011 460 79 -400 360/07 RMK AO2
14840KMKG MKG20070517003009605/17/07 00:30:31  5-MIN KMKG 170530Z 36006KT 10SM BKN027 07/03 A3011 460 79 -300 360/06 RMK AO2
14840KMKG MKG20070517003509605/17/07 00:35:31  5-MIN KMKG 170535Z 36006KT 10SM BKN029 07/03 A3011 460 79 -300 010/06 RMK AO2
14840KMKG MKG20070517004009605/17/07 00:40:31  5-MIN KMKG 170540Z 01008KT 10SM BKN029 07/03 A3011 450 76 -400 010/08 RMK AO2
14840KMKG MKG20070517004509605/17/07 00:45:31  5-MIN KMKG 170545Z 36007KT 10SM OVC029 07/03 A3011 450 76 -400 010/07 RMK AO2
14840KMKG MKG20070517005009605/17/07 00:50:31  5-MIN KMKG 170550Z 01007KT 10SM OVC031 07/03 A3011 450 76 -400 010/07 RMK AO2
14840KMKG MKG20070517005513105/17/07 00:55:31  5-MIN KMKG 170555Z 01008KT 10SM OVC031 07/03 A3011 450 76 -400 010/08 RMK AO2 SLP201 T00670028 10128 20061 51006
14840KMKG MKG20070517010009605/17/07 01:00:31  5-MIN KMKG 170600Z 01008KT 10SM OVC031 07/03 A3012 450 76 -400 020/08 RMK AO2
14840KMKG MKG20070517010510305/17/07 01:05:31  5-MIN KMKG 170605Z 01007KT 10SM FEW026 OVC033 07/03 A3012 450 76 -400 010/07 RMK AO2
14840KMKG MKG20070517011010305/17/07 01:10:31  5-MIN KMKG 170610Z 01007KT 10SM SCT026 OVC033 07/03 A3011 450 73 -300 020/07 RMK AO2
14840KMKG MKG20070517011510305/17/07 01:15:31  5-MIN KMKG 170615Z 03005KT 10SM BKN026 OVC033 07/03 A3012 450 73 -300 030/05 RMK AO2
14840KMKG MKG20070517012010305/17/07 01:20:31  5-MIN KMKG 170620Z 01006KT 10SM BKN026 OVC033 07/03 A3012 450 73 -300 010/06 RMK AO2
14840KMKG MKG20070517012509605/17/07 01:25:31  5-MIN KMKG 170625Z 36007KT 10SM OVC026 07/03 A3012 450 73 -300 360/07 RMK AO2
14840KMKG MKG20070517013009605/17/07 01:30:31  5-MIN KMKG 170630Z 36007KT 10SM OVC026 07/03 A3012 450 73 -300 010/07 RMK AO2
14840KMKG MKG20070517013509605/17/07 01:35:31  5-MIN KMKG 170635Z 36009KT 10SM OVC028 07/03 A3012 450 73 -300 360/09 RMK AO2
14840KMKG MKG20070517014009605/17/07 01:40:31  5-MIN KMKG 170640Z 35010KT 10SM OVC028 07/03 A3012 450 73 -300 360/10 RMK AO2
14840KMKG MKG20070517014509605/17/07 01:45:31  5-MIN KMKG 170645Z 35008KT 10SM OVC028 07/03 A3012 440 76 -300 350/08 RMK AO2
14840KMKG MKG20070517015011305/17/07 01:50:31  5-MIN KMKG 170650Z 35009KT 10SM OVC028 07/03 A3012 440 76 -300 350/09 RMK AO2 SLP204 T00720033
14840KMKG MKG20070517015511305/17/07 01:55:31  5-MIN KMKG 170655Z 01008KT 10SM OVC030 07/03 A3012 440 79 -400 010/08 RMK AO2 SLP204 T00670033
14840KMKG MKG20070517020010305/17/07 02:00:31  5-MIN KMKG 170700Z 36007KT 10SM BKN030 OVC035 07/03 A3012 440 79 -400 010/07 RMK AO2
14840KMKG MKG20070517020510305/17/07 02:05:31  5-MIN KMKG 170705Z 36006KT 10SM BKN030 OVC035 07/03 A3013 440 79 -400 360/06 RMK AO2
14840KMKG MKG20070517021009605/17/07 02:10:31  5-MIN KMKG 170710Z 36006KT 10SM OVC033 07/03 A3012 440 79 -400 360/06 RMK AO2
14840KMKG MKG20070517021509605/17/07 02:15:31  5-MIN KMKG 170715Z 35006KT 10SM OVC035 07/03 A3013 440 79 -400 360/06 RMK AO2
14840KMKG MKG20070517022010305/17/07 02:20:31  5-MIN KMKG 170720Z 35008KT 10SM BKN035 BKN085 07/03 A3012 440 79 -400 350/08 RMK AO2
14840KMKG MKG20070517022510305/17/07 02:25:31  5-MIN KMKG 170725Z 35008KT 10SM SCT035 BKN085 07/03 A3013 440 79 -400 350/08 RMK AO2
14840KMKG MKG20070517023010305/17/07 02:30:31  5-MIN KMKG 170730Z 35010KT 10SM SCT035 BKN085 07/03 A3013 440 79 -400 360/10 RMK AO2
14840KMKG MKG20070517023510305/17/07 02:35:31  5-MIN KMKG 170735Z 35008KT 10SM FEW035 BKN090 07/03 A3013 440 79 -400 360/08 RMK AO2
14840KMKG MKG20070517024010305/17/07 02:40:31  5-MIN KMKG 170740Z 35008KT 10SM FEW035 BKN090 07/03 A3013 430 79 -400 350/08 RMK AO2
14840KMKG MKG20070517024509605/17/07 02:45:31  5-MIN KMKG 170745Z 36009KT 10SM BKN090 07/03 A3013 430 79 -400 010/09 RMK AO2
14840KMKG MKG20070517025012005/17/07 02:50:31  5-MIN KMKG 170750Z 01009KT 10SM FEW039 BKN090 07/03 A3014 430 79 -400 010/09 RMK AO2 SLP208 T00670033
14840KMKG MKG20070517025512005/17/07 02:55:31  5-MIN KMKG 170755Z 36008KT 10SM FEW039 OVC090 07/03 A3014 430 79 -400 360/08 RMK AO2 SLP208 T00670033
14840KMKG MKG20070517030010305/17/07 03:00:31  5-MIN KMKG 170800Z 01007KT 10SM FEW039 OVC090 07/03 A3014 430 79 -400 010/07 RMK AO2
14840KMKG MKG20070517030510305/17/07 03:05:31  5-MIN KMKG 170805Z 36005KT 10SM FEW039 OVC095 07/03 A3014 430 79 -400 360/05 RMK AO2
14840KMKG MKG20070517031010305/17/07 03:10:31  5-MIN KMKG 170810Z 01005KT 10SM FEW039 OVC090 07/03 A3014 420 79 -400 010/05 RMK AO2
14840KMKG MKG20070517031510305/17/07 03:15:31  5-MIN KMKG 170815Z 36007KT 10SM FEW039 OVC090 07/03 A3014 420 79 -400 360/07 RMK AO2
14840KMKG MKG20070517032010205/17/07 03:20:31  5-MIN KMKG 170820Z 01007G14KT 10SM OVC095 07/03 A3014 420 79 -400 010/07G14 RMK AO2
14840KMKG MKG20070517032510205/17/07 03:25:31  5-MIN KMKG 170825Z 01006G14KT 10SM OVC095 07/03 A3015 420 79 -400 010/06G14 RMK AO2
14840KMKG MKG20070517033010305/17/07 03:30:31  5-MIN KMKG 170830Z 01007KT 10SM FEW024 OVC100 07/03 A3015 420 79 -400 010/07 RMK AO2
14840KMKG MKG20070517033510305/17/07 03:35:31  5-MIN KMKG 170835Z 36007KT 10SM SCT024 OVC095 07/03 A3015 420 79 -400 360/07 RMK AO2
14840KMKG MKG20070517034012505/17/07 03:40:31  5-MIN KMKG 170840Z 01005KT 10SM FEW020 SCT024 OVC100 07/04 A3015 420 82 -400 010/05 RMK AO2 CIG 025 RWY 14
14840KMKG MKG20070517034512605/17/07 03:45:31  5-MIN KMKG 170845Z 01007KT 10SM -RA SCT024 SCT060 OVC100 07/04 A3015 420 82 -400 020/07 RMK AO2 RAB42 P0000
14840KMKG MKG20070517035015505/17/07 03:50:31  5-MIN KMKG 170850Z 36004KT 10SM -RA SCT024 BKN060 OVC100 07/04 A3015 420 82 -400 010/04 RMK AO2 RAB42 SLP213 P0000 60000 T00670039 51006
14840KMKG MKG20070517035517005/17/07 03:55:31  5-MIN KMKG 170855Z 35007KT 330V040 10SM FEW014 BKN060 OVC095 07/04 A3015 420 82 -400 360/07 330V040 RMK AO2 RAB42E52 SLP213 P0000 60000 T00670039 53012
14840KMKG MKG20070517040011005/17/07 04:00:31  5-MIN KMKG 170900Z 36006KT 10SM FEW014 SCT024 OVC095 07/04 A3015 420 82 -400 360/06 RMK AO2
14840KMKG MKG20070517040510305/17/07 04:05:31  5-MIN KMKG 170905Z 36006KT 10SM FEW014 OVC095 07/04 A3016 410 82 -400 360/06 RMK AO2
14840KMKG MKG20070517041012505/17/07 04:10:31  5-MIN KMKG 170910Z 36006KT 10SM SCT014 SCT060 OVC095 07/04 A3016 410 82 -400 010/06 RMK AO2 CIG 075 RWY 14
14840KMKG MKG20070517041511005/17/07 04:15:31  5-MIN KMKG 170915Z 36005KT 10SM SCT014 BKN019 OVC090 07/04 A3016 410 82 -400 360/05 RMK AO2
14840KMKG MKG20070517042011005/17/07 04:20:31  5-MIN KMKG 170920Z 36006KT 10SM FEW014 BKN019 OVC090 07/04 A3016 410 82 -400 010/06 RMK AO2
14840KMKG MKG20070517042511005/17/07 04:25:31  5-MIN KMKG 170925Z 35008KT 10SM FEW014 BKN060 OVC090 07/04 A3017 400 82 -400 360/08 RMK AO2
14840KMKG MKG20070517043012505/17/07 04:30:31  5-MIN KMKG 170930Z 36008KT 10SM FEW014 BKN050 OVC065 07/04 A3017 400 82 -400 010/08 RMK AO2 CIG 017 RWY 14
14840KMKG MKG20070517043511005/17/07 04:35:31  5-MIN KMKG 170935Z 36007KT 10SM FEW014 BKN050 OVC065 07/04 A3017 400 82 -400 360/07 RMK AO2
14840KMKG MKG20070517044012505/17/07 04:40:31  5-MIN KMKG 170940Z 01007KT 10SM FEW014 BKN050 OVC065 07/04 A3017 400 82 -400 010/07 RMK AO2 CIG 019 RWY 14
14840KMKG MKG20070517044511005/17/07 04:45:31  5-MIN KMKG 170945Z 36007KT 10SM FEW014 BKN020 OVC065 07/04 A3017 400 82 -400 010/07 RMK AO2
14840KMKG MKG20070517045012505/17/07 04:50:31  5-MIN KMKG 170950Z 36007KT 10SM SCT014 BKN020 OVC065 07/04 A3018 390 82 -400 010/07 RMK AO2 CIG 015 RWY 14
14840KMKG MKG20070517045514205/17/07 04:55:31  5-MIN KMKG 170955Z 36011KT 10SM SCT014 BKN020 OVC065 07/04 A3018 390 82 -400 360/11 RMK AO2 CIG 015 RWY 14 SLP222 T00670039
14840KMKG MKG20070517050011005/17/07 05:00:31  5-MIN KMKG 171000Z 01010KT 10SM FEW016 BKN022 OVC065 07/04 A3018 390 82 -400 010/10 RMK AO2
14840KMKG MKG20070517050511005/17/07 05:05:31  5-MIN KMKG 171005Z 36009KT 10SM FEW016 BKN022 OVC034 07/04 A3018 390 82 -400 360/09 RMK AO2
14840KMKG MKG20070517051011005/17/07 05:10:31  5-MIN KMKG 171010Z 01009KT 10SM FEW016 BKN022 OVC034 07/04 A3018 390 82 -400 010/09 RMK AO2
14840KMKG MKG20070517051511005/17/07 05:15:31  5-MIN KMKG 171015Z 36009KT 10SM FEW016 SCT022 OVC034 07/04 A3018 390 82 -400 010/09 RMK AO2
14840KMKG MKG20070517052010305/17/07 05:20:31  5-MIN KMKG 171020Z 36008KT 10SM FEW022 BKN034 06/04 A3019 390 86 -500 360/08 RMK AO2
14840KMKG MKG20070517052510305/17/07 05:25:31  5-MIN KMKG 171025Z 01008KT 10SM FEW022 BKN034 06/04 A3019 380 86 -500 010/08 RMK AO2
14840KMKG MKG20070517053009605/17/07 05:30:31  5-MIN KMKG 171030Z 01008KT 10SM SCT034 06/03 A3019 380 82 -500 010/08 RMK AO2
14840KMKG MKG20070517053509605/17/07 05:35:31  5-MIN KMKG 171035Z 01007KT 10SM FEW034 06/03 A3019 380 82 -500 020/07 RMK AO2
14840KMKG MKG20070517054009605/17/07 05:40:31  5-MIN KMKG 171040Z 02006KT 10SM FEW034 06/03 A3020 380 82 -500 020/06 RMK AO2
14840KMKG MKG20070517054509305/17/07 05:45:31  5-MIN KMKG 171045Z 03007KT 10SM CLR 06/03 A3020 380 82 -500 030/07 RMK AO2
14840KMKG MKG20070517055011005/17/07 05:50:31  5-MIN KMKG 171050Z 01006KT 10SM CLR 06/03 A3020 370 82 -500 010/06 RMK AO2 SLP229 T00610033
14840KMKG MKG20070517055511005/17/07 05:55:31  5-MIN KMKG 171055Z 36007KT 10SM CLR 06/04 A3020 370 86 -500 010/07 RMK AO2 SLP230 T00610039
14840KMKG MKG20070517060009305/17/07 06:00:31  5-MIN KMKG 171100Z 01007KT 10SM CLR 06/04 A3021 370 86 -500 010/07 RMK AO2
14840KMKG MKG20070517060509305/17/07 06:05:31  5-MIN KMKG 171105Z 01007KT 10SM CLR 06/04 A3021 370 86 -500 020/07 RMK AO2
14840KMKG MKG20070517061009305/17/07 06:10:31  5-MIN KMKG 171110Z 01007KT 10SM CLR 06/04 A3021 370 86 -500 010/07 RMK AO2
14840KMKG MKG20070517061509305/17/07 06:15:31  5-MIN KMKG 171115Z 02008KT 10SM CLR 07/03 A3021 360 79 -500 020/08 RMK AO2
14840KMKG MKG20070517062009305/17/07 06:20:31  5-MIN KMKG 171120Z 01006KT 10SM CLR 07/04 A3022 360 82 -500 010/06 RMK AO2
14840KMKG MKG20070517062509305/17/07 06:25:31  5-MIN KMKG 171125Z 01006KT 10SM CLR 07/03 A3022 360 79 -500 020/06 RMK AO2
14840KMKG MKG20070517063009605/17/07 06:30:31  5-MIN KMKG 171130Z 01007KT 10SM FEW100 07/03 A3022 350 79 -500 020/07 RMK AO2
14840KMKG MKG20070517063509605/17/07 06:35:31  5-MIN KMKG 171135Z 01006KT 10SM SCT100 07/03 A3022 350 79 -500 010/06 RMK AO2
14840KMKG MKG20070517064009605/17/07 06:40:31  5-MIN KMKG 171140Z 36007KT 10SM BKN100 07/03 A3023 350 79 -500 010/07 RMK AO2
14840KMKG MKG20070517064509605/17/07 06:45:31  5-MIN KMKG 171145Z 36006KT 10SM BKN100 07/04 A3023 350 82 -500 010/06 RMK AO2
14840KMKG MKG20070517065013705/17/07 06:50:31  5-MIN KMKG 171150Z 36005KT 10SM BKN100 07/04 A3023 340 82 -500 360/05 RMK AO2 SLP240 60000 T00670039 10072 20061 53012
14840KMKG MKG20070517065513705/17/07 06:55:31  5-MIN KMKG 171155Z 36007KT 10SM SCT080 07/04 A3023 340 82 -500 010/07 RMK AO2 SLP241 60000 T00670039 10072 20061 53019
14840KMKG MKG20070517070010305/17/07 07:00:31  5-MIN KMKG 171200Z 01006KT 10SM FEW060 OVC090 07/04 A3023 340 82 -500 010/06 RMK AO2
14840KMKG MKG20070517070511805/17/07 07:05:31  5-MIN KMKG 171205Z 36007KT 10SM SCT060 OVC090 07/04 A3024 340 79 -400 360/07 RMK AO2 CIG 065 RWY 14
14840KMKG MKG20070517071012505/17/07 07:10:31  5-MIN KMKG 171210Z 36006KT 10SM SCT060 SCT075 OVC095 07/04 A3024 340 79 -400 360/06 RMK AO2 CIG 075 RWY 14
14840KMKG MKG20070517071512505/17/07 07:15:31  5-MIN KMKG 171215Z 36007KT 10SM FEW060 SCT075 OVC095 07/04 A3024 340 79 -400 360/07 RMK AO2 CIG 075 RWY 14
14840KMKG MKG20070517072011005/17/07 07:20:31  5-MIN KMKG 171220Z 01006KT 10SM SCT060 SCT075 OVC090 07/04 A3024 340 79 -400 010/06 RMK AO2
14840KMKG MKG20070517072512505/17/07 07:25:31  5-MIN KMKG 171225Z 36005KT 10SM FEW060 SCT075 OVC095 08/04 A3024 340 76 -400 360/05 RMK AO2 CIG 075 RWY 14
14840KMKG MKG20070517073011805/17/07 07:30:31  5-MIN KMKG 171230Z 36006KT 10SM FEW060 OVC100 08/04 A3024 340 73 -300 360/06 RMK AO2 CIG 075 RWY 14
14840KMKG MKG20070517073510305/17/07 07:35:31  5-MIN KMKG 171235Z 02005KT 10SM FEW075 OVC100 08/03 A3024 340 70 -300 030/05 RMK AO2
14840KMKG MKG20070517074009605/17/07 07:40:31  5-MIN KMKG 171240Z 01004KT 10SM BKN095 09/03 A3024 330 68 -200 010/04 RMK AO2
14840KMKG MKG20070517074509605/17/07 07:45:31  5-MIN KMKG 171245Z 02006KT 10SM BKN095 09/03 A3024 330 68 -200 020/06 RMK AO2
14840KMKG MKG20070517075011305/17/07 07:50:31  5-MIN KMKG 171250Z 02008KT 10SM SCT100 09/03 A3024 330 65 -200 020/08 RMK AO2 SLP244 T00940033
14840KMKG MKG20070517075511305/17/07 07:55:31  5-MIN KMKG 171255Z 02005KT 10SM SCT100 09/03 A3025 330 65 -200 020/05 RMK AO2 SLP245 T00940033
14840KMKG MKG20070517080009605/17/07 08:00:31  5-MIN KMKG 171300Z 03010KT 10SM FEW095 10/03 A3025 330 60 -100 030/10 RMK AO2
14840KMKG MKG20070517080509605/17/07 08:05:31  5-MIN KMKG 171305Z 04004KT 10SM FEW095 10/03 A3024 330 60 -100 050/04 RMK AO2
14840KMKG MKG20070517081009005/17/07 08:10:31  5-MIN KMKG 171310Z 05004KT 10SM CLR 11/03 A3025 330 58 0 050/04 RMK AO2
14840KMKG MKG20070517081509005/17/07 08:15:31  5-MIN KMKG 171315Z 04008KT 10SM CLR 11/02 A3024 330 56 0 040/08 RMK AO2
14840KMKG MKG20070517082009005/17/07 08:20:31  5-MIN KMKG 171320Z 03007KT 10SM CLR 11/02 A3025 330 54 0 040/07 RMK AO2
14840KMKG MKG20070517082509005/17/07 08:25:31  5-MIN KMKG 171325Z 02008KT 10SM CLR 11/02 A3025 330 52 0 020/08 RMK AO2
14840KMKG MKG20070517083009005/17/07 08:30:31  5-MIN KMKG 171330Z 02008KT 10SM CLR 12/02 A3025 320 50 0 020/08 RMK AO2
14840KMKG MKG20070517083509005/17/07 08:35:31  5-MIN KMKG 171335Z 01009KT 10SM CLR 12/02 A3025 320 50 0 020/09 RMK AO2
14840KMKG MKG20070517084009805/17/07 08:40:31  5-MIN KMKG 171340Z 02010G15KT 10SM CLR 12/02 A3025 320 48 100 030/10G15 RMK AO2
14840KMKG MKG20070517084509005/17/07 08:45:31  5-MIN KMKG 171345Z 03010KT 10SM CLR 12/01 A3026 320 48 0 030/10 RMK AO2
14840KMKG MKG20070517085010905/17/07 08:50:31  5-MIN KMKG 171350Z 01009KT 10SM CLR 12/01 A3026 320 46 100 020/09 RMK AO2 SLP249 T01220011
14840KMKG MKG20070517085510905/17/07 08:55:31  5-MIN KMKG 171355Z 02010KT 10SM CLR 13/02 A3026 310 46 200 020/10 RMK AO2 SLP250 T01280017
14840KMKG MKG20070517090010805/17/07 09:00:31  5-MIN KMKG 171400Z 03008KT 360V060 10SM CLR 12/01 A3027 310 46 100 030/08 360V060 RMK AO2
14840KMKG MKG20070517090509805/17/07 09:05:31  5-MIN KMKG 171405Z 36011G15KT 10SM CLR 13/02 A3027 310 46 200 360/11G15 RMK AO2
14840KMKG MKG20070517091009805/17/07 09:10:31  5-MIN KMKG 171410Z 36013G17KT 10SM CLR 12/01 A3026 310 46 100 010/13G17 RMK AO2
14840KMKG MKG20070517091509805/17/07 09:15:31  5-MIN KMKG 171415Z 36010G17KT 10SM CLR 13/01 A3026 320 44 200 360/10G17 RMK AO2
14840KMKG MKG20070517092009205/17/07 09:20:31  5-MIN KMKG 171420Z 04008KT 10SM CLR 13/01 A3026 310 44 200 050/08 RMK AO2
14840KMKG MKG20070517092511405/17/07 09:25:31  5-MIN KMKG 171425Z 03008G15KT 360V060 10SM CLR 13/01 A3026 310 43 200 040/08G15 360V060 RMK AO2
14840KMKG MKG20070517093009805/17/07 09:30:31  5-MIN KMKG 171430Z 05009G16KT 10SM CLR 13/01 A3027 310 43 200 060/09G16 RMK AO2
14840KMKG MKG20070517093510105/17/07 09:35:31  5-MIN KMKG 171435Z 01013G16KT 10SM FEW050 13/01 A3027 310 44 200 010/13G16 RMK AO2
14840KMKG MKG20070517094010105/17/07 09:40:31  5-MIN KMKG 171440Z 03008G16KT 10SM FEW050 13/01 A3027 310 43 200 030/08G16 RMK AO2
14840KMKG MKG20070517094509505/17/07 09:45:31  5-MIN KMKG 171445Z 03009KT 10SM FEW085 13/01 A3027 310 43 200 040/09 RMK AO2
14840KMKG MKG20070517095012405/17/07 09:50:31  5-MIN KMKG 171450Z 36011G16KT 10SM FEW050 13/01 A3027 310 41 200 360/11G16 RMK AO2 SLP252 T01330006 53019
14840KMKG MKG20070517095512405/17/07 09:55:31  5-MIN KMKG 171455Z 01009G16KT 10SM FEW090 14/01 A3027 310 40 300 010/09G16 RMK AO2 SLP251 T01390006 51011
14840KMKG MKG20070517100009505/17/07 10:00:31  5-MIN KMKG 171500Z 36009KT 10SM FEW090 14/01 A3026 310 41 300 360/09 RMK AO2
14840KMKG MKG20070517100509505/17/07 10:05:31  5-MIN KMKG 171505Z 01007KT 10SM FEW090 14/01 A3026 310 41 300 010/07 RMK AO2
14840KMKG MKG20070517101011105/17/07 10:10:31  5-MIN KMKG 171510Z 01008KT 360V060 10SM FEW090 14/01 A3027 310 40 300 010/08 360V060 RMK AO2
14840KMKG MKG20070517101509805/17/07 10:15:31  5-MIN KMKG 171515Z 02010G15KT 10SM CLR 14/01 A3027 310 38 400 020/10G15 RMK AO2
14840KMKG MKG20070517102009805/17/07 10:20:31  5-MIN KMKG 171520Z 05008G15KT 10SM CLR 14/00 A3027 310 37 400 060/08G15 RMK AO2
14840KMKG MKG20070517102509205/17/07 10:25:31  5-MIN KMKG 171525Z 03008KT 10SM CLR 15/01 A3027 310 37 400 030/08 RMK AO2
14840KMKG MKG20070517103009905/17/07 10:30:31  5-MIN KMKG 171530Z 05008G16KT 10SM CLR 14/M01 A3027 300 35 300 050/08G16 RMK AO2
14840KMKG MKG20070517103509805/17/07 10:35:31  5-MIN KMKG 171535Z 05007G16KT 10SM CLR 14/00 A3027 310 37 400 060/07G16 RMK AO2
14840KMKG MKG20070517104011705/17/07 10:40:31  5-MIN KMKG 171540Z 02010G17KT 350V050 10SM FEW065 15/00 A3027 300 35 400 020/10G17 350V050 RMK AO2
14840KMKG MKG20070517104510205/17/07 10:45:31  5-MIN KMKG 171545Z 36010G18KT 10SM FEW065 15/M01 A3027 310 34 400 360/10G18 RMK AO2
14840KMKG MKG20070517105011905/17/07 10:50:31  5-MIN KMKG 171550Z 01008G18KT 10SM FEW065 15/M01 A3027 310 34 400 020/08G18 RMK AO2 SLP253 T01501006
14840KMKG MKG20070517105511805/17/07 10:55:31  5-MIN KMKG 171555Z 35011G15KT 10SM FEW060 16/01 A3027 310 36 500 350/11G15 RMK AO2 SLP253 T01560006
14840KMKG MKG20070517110009805/17/07 11:00:31  5-MIN KMKG 171600Z 35011G17KT 10SM CLR 15/00 A3028 300 35 400 350/11G17 RMK AO2
14840KMKG MKG20070517110509905/17/07 11:05:31  5-MIN KMKG 171605Z 36012G18KT 10SM CLR 15/M01 A3028 300 34 400 010/12G18 RMK AO2
14840KMKG MKG20070517111009905/17/07 11:10:31  5-MIN KMKG 171610Z 36010G18KT 10SM CLR 15/M01 A3027 300 34 400 360/10G18 RMK AO2
14840KMKG MKG20070517111509805/17/07 11:15:31  5-MIN KMKG 171615Z 32013G17KT 10SM CLR 16/00 A3027 300 34 500 330/13G17 RMK AO2
14840KMKG MKG20070517112009805/17/07 11:20:31  5-MIN KMKG 171620Z 30010G17KT 10SM CLR 14/02 A3028 300 45 300 310/10G17 RMK AO2
14840KMKG MKG20070517112509805/17/07 11:25:31  5-MIN KMKG 171625Z 29012G21KT 10SM CLR 14/02 A3027 310 45 300 300/12G21 RMK AO2
14840KMKG MKG20070517113010105/17/07 11:30:31  5-MIN KMKG 171630Z 29010G21KT 10SM FEW070 14/02 A3027 310 45 300 290/10G21 RMK AO2
14840KMKG MKG20070517113510105/17/07 11:35:31  5-MIN KMKG 171635Z 30013G19KT 10SM FEW070 14/02 A3027 310 43 300 300/13G19 RMK AO2
14840KMKG MKG20070517114009805/17/07 11:40:31  5-MIN KMKG 171640Z 31008G19KT 10SM CLR 14/02 A3028 300 43 300 310/08G19 RMK AO2
14840KMKG MKG20070517120010105/17/07 12:00:31  5-MIN KMKG 171700Z 32014G18KT 10SM FEW070 15/02 A3027 310 40 400 320/14G18 RMK AO2
14840KMKG MKG20070517120510105/17/07 12:05:31  5-MIN KMKG 171705Z 29013G18KT 10SM FEW075 15/01 A3027 310 38 400 300/13G18 RMK AO2
14840KMKG MKG20070517121010105/17/07 12:10:31  5-MIN KMKG 171710Z 29009G18KT 10SM FEW080 16/02 A3026 310 39 500 290/09G18 RMK AO2
14840KMKG MKG20070517121510105/17/07 12:15:31  5-MIN KMKG 171715Z 29014G19KT 10SM FEW080 15/01 A3026 310 38 400 290/14G19 RMK AO2
14840KMKG MKG20070517122010105/17/07 12:20:31  5-MIN KMKG 171720Z 30011G19KT 10SM FEW080 15/02 A3026 310 40 400 300/11G19 RMK AO2
14840KMKG MKG20070517122510105/17/07 12:25:31  5-MIN KMKG 171725Z 27013G17KT 10SM FEW075 15/03 A3027 310 43 400 280/13G17 RMK AO2
14840KMKG MKG20070517123009505/17/07 12:30:31  5-MIN KMKG 171730Z 28010KT 10SM FEW075 14/03 A3027 310 47 400 290/10 RMK AO2
14840KMKG MKG20070517123509505/17/07 12:35:31  5-MIN KMKG 171735Z 28012KT 10SM SCT075 14/03 A3026 310 47 400 290/12 RMK AO2
14840KMKG MKG20070517124010105/17/07 12:40:31  5-MIN KMKG 171740Z 29011G17KT 10SM SCT070 13/02 A3027 310 48 200 300/11G17 RMK AO2
14840KMKG MKG20070517124510805/17/07 12:45:31  5-MIN KMKG 171745Z 29010G17KT 10SM SCT070 SCT090 13/02 A3027 310 46 200 300/10G17 RMK AO2
14840KMKG MKG20070517125013005/17/07 12:50:31  5-MIN KMKG 171750Z 32009KT 10SM SCT075 14/02 A3027 310 43 400 320/09 RMK AO2 SLP252 T01440022 10156 20067 51011
14840KMKG MKG20070517125513605/17/07 12:55:31  5-MIN KMKG 171755Z 29008G14KT 10SM SCT070 16/02 A3027 310 40 500 290/08G14 RMK AO2 SLP251 T01560022 10156 20067 50000
14840KMKG MKG20070517130010805/17/07 13:00:31  5-MIN KMKG 171800Z 32011G16KT 10SM SCT075 SCT090 16/02 A3026 320 40 500 320/11G16 RMK AO2
14840KMKG MKG20070517130510205/17/07 13:05:31  5-MIN KMKG 171805Z 30010KT 10SM SCT075 SCT090 16/02 A3026 320 39 600 300/10 RMK AO2
14840KMKG MKG20070517131009505/17/07 13:10:31  5-MIN KMKG 171810Z 29011KT 10SM SCT080 15/02 A3026 320 40 400 290/11 RMK AO2
14840KMKG MKG20070517131510105/17/07 13:15:31  5-MIN KMKG 171815Z 28013G18KT 10SM SCT080 16/02 A3026 320 39 600 290/13G18 RMK AO2
14840KMKG MKG20070517132010105/17/07 13:20:31  5-MIN KMKG 171820Z 29014G20KT 10SM SCT080 16/02 A3026 320 39 600 300/14G20 RMK AO2
14840KMKG MKG20070517132510105/17/07 13:25:31  5-MIN KMKG 171825Z 29010G20KT 10SM SCT080 16/02 A3026 320 40 500 290/10G20 RMK AO2
14840KMKG MKG20070517133010105/17/07 13:30:31  5-MIN KMKG 171830Z 28012G17KT 10SM BKN080 15/02 A3026 320 42 400 290/12G17 RMK AO2
14840KMKG MKG20070517133509505/17/07 13:35:31  5-MIN KMKG 171835Z 29012KT 10SM BKN080 15/02 A3026 320 42 400 290/12 RMK AO2
14840KMKG MKG20070517134010105/17/07 13:40:31  5-MIN KMKG 171840Z 30011G17KT 10SM SCT080 15/02 A3026 320 40 400 300/11G17 RMK AO2
14840KMKG MKG20070517134509505/17/07 13:45:31  5-MIN KMKG 171845Z 30009KT 10SM SCT080 15/02 A3026 320 40 400 300/09 RMK AO2
14840KMKG MKG20070517135011805/17/07 13:50:31  5-MIN KMKG 171850Z 30010G16KT 10SM SCT080 16/02 A3026 320 39 600 300/10G16 RMK AO2 SLP248 T01610022
14840KMKG MKG20070517135511205/17/07 13:55:31  5-MIN KMKG 171855Z 29009KT 10SM SCT080 16/02 A3026 320 40 500 290/09 RMK AO2 SLP247 T01560022
14840KMKG MKG20070517140010105/17/07 14:00:31  5-MIN KMKG 171900Z 30012G18KT 10SM FEW080 16/03 A3025 320 40 600 300/12G18 RMK AO2
14840KMKG MKG20070517140510105/17/07 14:05:31  5-MIN KMKG 171905Z 29012G18KT 10SM FEW085 16/02 A3025 330 39 600 300/12G18 RMK AO2
14840KMKG MKG20070517141010105/17/07 14:10:31  5-MIN KMKG 171910Z 30008G18KT 10SM FEW085 15/02 A3026 320 40 400 300/08G18 RMK AO2
14840KMKG MKG20070517141511705/17/07 14:15:31  5-MIN KMKG 171915Z 31009G16KT 280V350 10SM FEW085 16/02 A3025 320 40 500 320/09G16 280V350 RMK AO2
14840KMKG MKG20070517142010105/17/07 14:20:31  5-MIN KMKG 171920Z 30012G15KT 10SM FEW085 16/02 A3025 330 39 600 310/12G15 RMK AO2
14840KMKG MKG20070517142509505/17/07 14:25:31  5-MIN KMKG 171925Z 29012KT 10SM FEW080 16/02 A3025 330 39 500 290/12 RMK AO2
14840KMKG MKG20070517143009505/17/07 14:30:31  5-MIN KMKG 171930Z 31012KT 10SM SCT080 16/02 A3025 330 40 500 310/12 RMK AO2
14840KMKG MKG20070517143510105/17/07 14:35:31  5-MIN KMKG 171935Z 31008G17KT 10SM SCT080 16/02 A3025 330 40 500 310/08G17 RMK AO2
14840KMKG MKG20070517144010105/17/07 14:40:31  5-MIN KMKG 171940Z 31010G17KT 10SM SCT085 17/02 A3025 330 37 600 310/10G17 RMK AO2
14840KMKG MKG20070517144510105/17/07 14:45:31  5-MIN KMKG 171945Z 30012G20KT 10SM SCT085 16/02 A3025 330 37 600 300/12G20 RMK AO2
14840KMKG MKG20070517145011805/17/07 14:50:31  5-MIN KMKG 171950Z 30013G20KT 10SM SCT085 17/02 A3024 330 37 600 300/13G20 RMK AO2 SLP243 T01670022
14840KMKG MKG20070517145511805/17/07 14:55:31  5-MIN KMKG 171955Z 30011G20KT 10SM SCT085 16/02 A3024 330 39 600 310/11G20 RMK AO2 SLP244 T01610022
14840KMKG MKG20070517150009505/17/07 15:00:31  5-MIN KMKG 172000Z 31012KT 10SM SCT080 16/02 A3024 330 37 600 310/12 RMK AO2
14840KMKG MKG20070517150510105/17/07 15:05:31  5-MIN KMKG 172005Z 29015G19KT 10SM FEW085 17/02 A3024 340 36 700 290/15G19 RMK AO2
14840KMKG MKG20070517151010105/17/07 15:10:31  5-MIN KMKG 172010Z 30012G19KT 10SM SCT085 17/02 A3024 340 36 700 310/12G19 RMK AO2
14840KMKG MKG20070517151510105/17/07 15:15:31  5-MIN KMKG 172015Z 32016G20KT 10SM SCT085 17/01 A3024 340 34 700 320/16G20 RMK AO2
14840KMKG MKG20070517152010105/17/07 15:20:31  5-MIN KMKG 172020Z 30015G21KT 10SM SCT085 17/01 A3023 340 33 700 300/15G21 RMK AO2
14840KMKG MKG20070517152510105/17/07 15:25:31  5-MIN KMKG 172025Z 30013G21KT 10SM SCT085 17/01 A3024 340 33 700 310/13G21 RMK AO2
14840KMKG MKG20070517153010105/17/07 15:30:31  5-MIN KMKG 172030Z 31013G19KT 10SM SCT085 17/01 A3024 340 34 700 310/13G19 RMK AO2
14840KMKG MKG20070517153510105/17/07 15:35:31  5-MIN KMKG 172035Z 31011G19KT 10SM SCT085 17/01 A3024 340 33 700 310/11G19 RMK AO2
14840KMKG MKG20070517154009505/17/07 15:40:31  5-MIN KMKG 172040Z 30010KT 10SM FEW085 17/02 A3024 340 35 700 300/10 RMK AO2
14840KMKG MKG20070517154509505/17/07 15:45:31  5-MIN KMKG 172045Z 30010KT 10SM FEW090 17/02 A3024 340 36 600 300/10 RMK AO2
14840KMKG MKG20070517155012405/17/07 15:50:31  5-MIN KMKG 172050Z 30012G17KT 10SM SCT090 17/01 A3024 340 34 700 300/12G17 RMK AO2 SLP242 T01670011 50000
14840KMKG MKG20070517155512405/17/07 15:55:31  5-MIN KMKG 172055Z 31011G17KT 10SM SCT090 17/01 A3024 340 33 700 310/11G17 RMK AO2 SLP242 T01720011 56009
14840KMKG MKG20070517160010105/17/07 16:00:31  5-MIN KMKG 172100Z 30011G17KT 10SM FEW090 17/01 A3024 340 33 700 310/11G17 RMK AO2
14840KMKG MKG20070517160509505/17/07 16:05:31  5-MIN KMKG 172105Z 30011KT 10SM FEW090 17/01 A3024 340 33 700 300/11 RMK AO2
14840KMKG MKG20070517161009505/17/07 16:10:31  5-MIN KMKG 172110Z 29011KT 10SM FEW090 17/01 A3024 340 33 700 300/11 RMK AO2
14840KMKG MKG20070517161510105/17/07 16:15:31  5-MIN KMKG 172115Z 30012G17KT 10SM FEW090 17/01 A3024 340 33 700 300/12G17 RMK AO2
14840KMKG MKG20070517162010105/17/07 16:20:31  5-MIN KMKG 172120Z 31012G20KT 10SM FEW090 17/01 A3024 340 34 700 320/12G20 RMK AO2
14840KMKG MKG20070517162510105/17/07 16:25:31  5-MIN KMKG 172125Z 32014G20KT 10SM FEW090 17/01 A3024 340 34 700 330/14G20 RMK AO2
14840KMKG MKG20070517163009205/17/07 16:30:31  5-MIN KMKG 172130Z 32013KT 10SM CLR 17/01 A3024 340 33 700 320/13 RMK AO2
14840KMKG MKG20070517163509305/17/07 16:35:31  5-MIN KMKG 172135Z 29013KT 10SM CLR 17/M01 A3024 340 31 700 300/13 RMK AO2
14840KMKG MKG20070517164009905/17/07 16:40:31  5-MIN KMKG 172140Z 29012G22KT 10SM CLR 17/M01 A3024 340 31 700 290/12G22 RMK AO2
14840KMKG MKG20070517164509805/17/07 16:45:31  5-MIN KMKG 172145Z 32011G22KT 10SM CLR 17/01 A3024 330 32 700 330/11G22 RMK AO2
14840KMKG MKG20070517165011905/17/07 16:50:31  5-MIN KMKG 172150Z 33016G22KT 10SM FEW090 17/M01 A3024 330 28 700 330/16G22 RMK AO2 SLP243 T01721011
14840KMKG MKG20070517165511905/17/07 16:55:31  5-MIN KMKG 172155Z 32011G22KT 10SM FEW090 17/M01 A3024 330 28 700 330/11G22 RMK AO2 SLP243 T01721011
14840KMKG MKG20070517170009805/17/07 17:00:31  5-MIN KMKG 172200Z 30011G18KT 10SM CLR 17/01 A3024 330 33 600 300/11G18 RMK AO2
14840KMKG MKG20070517170509805/17/07 17:05:31  5-MIN KMKG 172205Z 32011G16KT 10SM CLR 17/01 A3024 330 33 600 330/11G16 RMK AO2
14840KMKG MKG20070517171009805/17/07 17:10:31  5-MIN KMKG 172210Z 32011G16KT 10SM CLR 17/01 A3025 330 33 600 320/11G16 RMK AO2
14840KMKG MKG20070517171509805/17/07 17:15:31  5-MIN KMKG 172215Z 30009G17KT 10SM CLR 17/01 A3025 330 33 600 310/09G17 RMK AO2
14840KMKG MKG20070517172009805/17/07 17:20:31  5-MIN KMKG 172220Z 32016G21KT 10SM CLR 17/00 A3025 330 32 600 320/16G21 RMK AO2
14840KMKG MKG20070517172509905/17/07 17:25:31  5-MIN KMKG 172225Z 33012G21KT 10SM CLR 17/M01 A3025 330 28 700 330/12G21 RMK AO2
14840KMKG MKG20070517173009305/17/07 17:30:31  5-MIN KMKG 172230Z 32012KT 10SM CLR 17/M01 A3025 330 29 700 320/12 RMK AO2
14840KMKG MKG20070517173509905/17/07 17:35:31  5-MIN KMKG 172235Z 34013G20KT 10SM CLR 17/M01 A3025 330 29 600 340/13G20 RMK AO2
14840KMKG MKG20070517174009905/17/07 17:40:31  5-MIN KMKG 172240Z 32015G22KT 10SM CLR 17/M02 A3025 330 28 600 330/15G22 RMK AO2
14840KMKG MKG20070517174509905/17/07 17:45:31  5-MIN KMKG 172245Z 32013G22KT 10SM CLR 16/M01 A3025 330 30 600 320/13G22 RMK AO2
14840KMKG MKG20070517175011605/17/07 17:50:31  5-MIN KMKG 172250Z 32013G19KT 10SM CLR 16/M02 A3025 330 29 600 320/13G19 RMK AO2 SLP245 T01611017
14840KMKG MKG20070517175511005/17/07 17:55:31  5-MIN KMKG 172255Z 32014KT 10SM CLR 16/M02 A3025 330 28 600 320/14 RMK AO2 SLP245 T01611022
14840KMKG MKG20070517180009905/17/07 18:00:31  5-MIN KMKG 172300Z 32017G21KT 10SM CLR 16/M03 A3025 330 27 600 320/17G21 RMK AO2
14840KMKG MKG20070517180509905/17/07 18:05:31  5-MIN KMKG 172305Z 33015G21KT 10SM CLR 16/M02 A3025 330 28 600 330/15G21 RMK AO2
14840KMKG MKG20070517181009905/17/07 18:10:31  5-MIN KMKG 172310Z 32012G21KT 10SM CLR 16/M02 A3025 330 28 600 320/12G21 RMK AO2
14840KMKG MKG20070517181509905/17/07 18:15:31  5-MIN KMKG 172315Z 33013G20KT 10SM CLR 16/M02 A3025 330 28 600 340/13G20 RMK AO2
14840KMKG MKG20070517182009905/17/07 18:20:31  5-MIN KMKG 172320Z 33012G19KT 10SM CLR 16/M02 A3025 330 28 600 330/12G19 RMK AO2
14840KMKG MKG20070517182509305/17/07 18:25:31  5-MIN KMKG 172325Z 32013KT 10SM CLR 16/M03 A3025 330 28 500 320/13 RMK AO2
14840KMKG MKG20070517183009905/17/07 18:30:31  5-MIN KMKG 172330Z 34015G20KT 10SM CLR 16/M02 A3025 330 28 600 340/15G20 RMK AO2
14840KMKG MKG20070517183509905/17/07 18:35:31  5-MIN KMKG 172335Z 34015G20KT 10SM CLR 16/M02 A3025 320 29 500 340/15G20 RMK AO2
14840KMKG MKG20070517184009905/17/07 18:40:31  5-MIN KMKG 172340Z 32012G20KT 10SM CLR 16/M03 A3025 330 28 500 330/12G20 RMK AO2
14840KMKG MKG20070517184509305/17/07 18:45:31  5-MIN KMKG 172345Z 33011KT 10SM CLR 16/M02 A3025 330 29 500 330/11 RMK AO2
14840KMKG MKG20070517185013105/17/07 18:50:31  5-MIN KMKG 172350Z 33013KT 10SM FEW095 16/M03 A3025 320 28 500 330/13 RMK AO2 SLP246 T01561028 10172 20144 56009
14840KMKG MKG20070517185513705/17/07 18:55:31  5-MIN KMKG 172355Z 32012G18KT 10SM FEW095 15/M03 A3025 320 29 400 330/12G18 RMK AO2 SLP246 T01501028 10172 20144 51004
14840KMKG MKG20070517190009905/17/07 19:00:31  5-MIN KMKG 180000Z 34014G18KT 10SM CLR 15/M02 A3025 320 30 400 340/14G18 RMK AO2
14840KMKG MKG20070517190509305/17/07 19:05:31  5-MIN KMKG 180005Z 33013KT 10SM CLR 15/M03 A3025 320 29 400 330/13 RMK AO2
14840KMKG MKG20070517191009305/17/07 19:10:31  5-MIN KMKG 180010Z 33010KT 10SM CLR 15/M02 A3026 320 30 400 340/10 RMK AO2
14840KMKG MKG20070517191509305/17/07 19:15:31  5-MIN KMKG 180015Z 34008KT 10SM CLR 15/M03 A3026 320 29 400 350/08 RMK AO2
14840KMKG MKG20070517192009305/17/07 19:20:31  5-MIN KMKG 180020Z 34008KT 10SM CLR 14/M02 A3026 320 31 400 340/08 RMK AO2
14840KMKG MKG20070517192509305/17/07 19:25:31  5-MIN KMKG 180025Z 34009KT 10SM CLR 14/M02 A3026 320 31 400 340/09 RMK AO2
14840KMKG MKG20070517193009305/17/07 19:30:31  5-MIN KMKG 180030Z 33007KT 10SM CLR 14/M02 A3026 320 31 400 340/07 RMK AO2
14840KMKG MKG20070517193509905/17/07 19:35:31  5-MIN KMKG 180035Z 34012G16KT 10SM CLR 14/M03 A3026 320 31 300 340/12G16 RMK AO2
14840KMKG MKG20070517194009905/17/07 19:40:31  5-MIN KMKG 180040Z 34008G16KT 10SM CLR 14/M03 A3026 320 31 300 340/08G16 RMK AO2
14840KMKG MKG20070517194509305/17/07 19:45:31  5-MIN KMKG 180045Z 34008KT 10SM CLR 14/M03 A3026 310 31 300 350/08 RMK AO2
14840KMKG MKG20070517195011005/17/07 19:50:31  5-MIN KMKG 180050Z 34011KT 10SM CLR 13/M03 A3026 320 32 200 340/11 RMK AO2 SLP250 T01331028
14840KMKG MKG20070517195511005/17/07 19:55:31  5-MIN KMKG 180055Z 35010KT 10SM CLR 13/M03 A3026 320 31 200 350/10 RMK AO2 SLP250 T01331033
14840KMKG MKG20070517200009305/17/07 20:00:31  5-MIN KMKG 180100Z 35008KT 10SM CLR 13/M03 A3026 320 32 200 350/08 RMK AO2
14840KMKG MKG20070517200509305/17/07 20:05:31  5-MIN KMKG 180105Z 35009KT 10SM CLR 13/M03 A3026 320 31 200 350/09 RMK AO2
14840KMKG MKG20070517201009305/17/07 20:10:31  5-MIN KMKG 180110Z 35008KT 10SM CLR 13/M03 A3026 320 31 200 350/08 RMK AO2
14840KMKG MKG20070517201509305/17/07 20:15:31  5-MIN KMKG 180115Z 34008KT 10SM CLR 13/M03 A3026 310 32 200 350/08 RMK AO2
14840KMKG MKG20070517202009305/17/07 20:20:31  5-MIN KMKG 180120Z 34010KT 10SM CLR 13/M03 A3027 310 32 200 350/10 RMK AO2
14840KMKG MKG20070517202509305/17/07 20:25:31  5-MIN KMKG 180125Z 34009KT 10SM CLR 13/M04 A3026 310 31 200 350/09 RMK AO2
14840KMKG MKG20070517203009305/17/07 20:30:31  5-MIN KMKG 180130Z 35007KT 10SM CLR 13/M03 A3026 310 32 200 350/07 RMK AO2
14840KMKG MKG20070517203509305/17/07 20:35:31  5-MIN KMKG 180135Z 36006KT 10SM CLR 13/M03 A3026 310 32 200 360/06 RMK AO2
14840KMKG MKG20070517204009305/17/07 20:40:31  5-MIN KMKG 180140Z 36009KT 10SM CLR 13/M04 A3026 310 31 200 360/09 RMK AO2
14840KMKG MKG20070517204509305/17/07 20:45:31  5-MIN KMKG 180145Z 35007KT 10SM CLR 13/M04 A3027 310 31 200 360/07 RMK AO2
14840KMKG MKG20070517205011005/17/07 20:50:31  5-MIN KMKG 180150Z 35006KT 10SM CLR 12/M03 A3027 310 33 100 350/06 RMK AO2 SLP251 T01221033
14840KMKG MKG20070517205511005/17/07 20:55:31  5-MIN KMKG 180155Z 36007KT 10SM CLR 12/M03 A3027 310 33 100 360/07 RMK AO2 SLP252 T01221033
14840KMKG MKG20070517210009305/17/07 21:00:31  5-MIN KMKG 180200Z 36006KT 10SM CLR 12/M04 A3027 310 32 100 360/06 RMK AO2
14840KMKG MKG20070517210509305/17/07 21:05:31  5-MIN KMKG 180205Z 36006KT 10SM CLR 12/M04 A3027 310 32 100 360/06 RMK AO2
14840KMKG MKG20070517211009105/17/07 21:10:31  5-MIN KMKG 180210Z 36006KT 10SM CLR 12/M03 A3027 310 35 0 360/06 RMK AO2
14840KMKG MKG20070517211509105/17/07 21:15:31  5-MIN KMKG 180215Z 36006KT 10SM CLR 12/M03 A3027 310 35 0 360/06 RMK AO2
14840KMKG MKG20070517212009105/17/07 21:20:31  5-MIN KMKG 180220Z 36005KT 10SM CLR 12/M03 A3028 300 35 0 010/05 RMK AO2
14840KMKG MKG20070517212509105/17/07 21:25:31  5-MIN KMKG 180225Z 01007KT 10SM CLR 12/M04 A3028 300 33 0 010/07 RMK AO2
14840KMKG MKG20070517213009105/17/07 21:30:31  5-MIN KMKG 180230Z 01007KT 10SM CLR 12/M04 A3028 300 33 0 010/07 RMK AO2
14840KMKG MKG20070517213509105/17/07 21:35:31  5-MIN KMKG 180235Z 01006KT 10SM CLR 11/M04 A3028 300 34 0 010/06 RMK AO2
14840KMKG MKG20070517214009105/17/07 21:40:31  5-MIN KMKG 180240Z 36005KT 10SM CLR 11/M04 A3028 300 34 0 010/05 RMK AO2
14840KMKG MKG20070517214509105/17/07 21:45:31  5-MIN KMKG 180245Z 36005KT 10SM CLR 11/M04 A3028 300 34 0 360/05 RMK AO2
14840KMKG MKG20070517215011405/17/07 21:50:31  5-MIN KMKG 180250Z 36006KT 10SM CLR 11/M03 A3028 300 36 0 360/06 RMK AO2 SLP256 T01111033 51004
14840KMKG MKG20070517215511405/17/07 21:55:31  5-MIN KMKG 180255Z 36006KT 10SM CLR 11/M03 A3028 300 36 0 360/06 RMK AO2 SLP257 T01111033 53010
14840KMKG MKG20070517220009405/17/07 22:00:31  5-MIN KMKG 180300Z 36004KT 10SM CLR 11/M03 A3028 290 37 -100 010/04 RMK AO2
14840KMKG MKG20070517220509405/17/07 22:05:31  5-MIN KMKG 180305Z 01005KT 10SM CLR 11/M03 A3028 290 37 -100 010/05 RMK AO2
14840KMKG MKG20070517221009405/17/07 22:10:31  5-MIN KMKG 180310Z 01004KT 10SM CLR 11/M03 A3028 290 37 -100 010/04 RMK AO2
14840KMKG MKG20070517221509405/17/07 22:15:31  5-MIN KMKG 180315Z 01004KT 10SM CLR 10/M03 A3029 290 39 -100 020/04 RMK AO2
14840KMKG MKG20070517222009405/17/07 22:20:31  5-MIN KMKG 180320Z 01004KT 10SM CLR 10/M03 A3029 290 39 -100 010/04 RMK AO2
14840KMKG MKG20070517222509405/17/07 22:25:31  5-MIN KMKG 180325Z 01005KT 10SM CLR 10/M03 A3029 290 39 -100 010/05 RMK AO2
14840KMKG MKG20070517223009405/17/07 22:30:31  5-MIN KMKG 180330Z 02004KT 10SM CLR 10/M03 A3029 290 39 -100 030/04 RMK AO2
14840KMKG MKG20070517223509405/17/07 22:35:31  5-MIN KMKG 180335Z 04004KT 10SM CLR 10/M03 A3029 290 39 -100 050/04 RMK AO2
14840KMKG MKG20070517224009405/17/07 22:40:31  5-MIN KMKG 180340Z 06006KT 10SM CLR 09/M03 A3029 290 42 -200 060/06 RMK AO2
14840KMKG MKG20070517224509405/17/07 22:45:31  5-MIN KMKG 180345Z 06006KT 10SM CLR 09/M02 A3029 290 45 -300 060/06 RMK AO2
14840KMKG MKG20070517225011105/17/07 22:50:31  5-MIN KMKG 180350Z 04004KT 10SM CLR 09/M02 A3029 290 44 -200 050/04 RMK AO2 SLP259 T00941022
14840KMKG MKG20070517225511105/17/07 22:55:31  5-MIN KMKG 180355Z 04005KT 10SM CLR 09/M02 A3029 290 44 -200 040/05 RMK AO2 SLP259 T00941022
14840KMKG MKG20070517230009405/17/07 23:00:31  5-MIN KMKG 180400Z 03004KT 10SM CLR 09/M02 A3029 290 45 -300 030/04 RMK AO2
14840KMKG MKG20070517230509405/17/07 23:05:31  5-MIN KMKG 180405Z 03004KT 10SM CLR 09/M02 A3029 290 44 -200 040/04 RMK AO2
14840KMKG MKG20070517231009405/17/07 23:10:31  5-MIN KMKG 180410Z 04004KT 10SM CLR 09/M02 A3029 290 45 -300 040/04 RMK AO2
14840KMKG MKG20070517231509405/17/07 23:15:31  5-MIN KMKG 180415Z 03004KT 10SM CLR 09/M02 A3029 290 47 -300 040/04 RMK AO2
14840KMKG MKG20070517232009405/17/07 23:20:31  5-MIN KMKG 180420Z 03004KT 10SM CLR 09/M02 A3029 290 47 -300 030/04 RMK AO2
14840KMKG MKG20070517232509405/17/07 23:25:31  5-MIN KMKG 180425Z 03005KT 10SM CLR 09/M02 A3029 290 47 -300 030/05 RMK AO2
14840KMKG MKG20070517233009405/17/07 23:30:31  5-MIN KMKG 180430Z 04005KT 10SM CLR 08/M02 A3029 290 49 -300 040/05 RMK AO2
14840KMKG MKG20070517233509405/17/07 23:35:31  5-MIN KMKG 180435Z 04004KT 10SM CLR 09/M02 A3029 290 47 -300 050/04 RMK AO2
14840KMKG MKG20070517234009405/17/07 23:40:31  5-MIN KMKG 180440Z 05005KT 10SM CLR 08/M02 A3029 290 49 -300 050/05 RMK AO2
14840KMKG MKG20070517234509405/17/07 23:45:31  5-MIN KMKG 180445Z 05004KT 10SM CLR 08/M02 A3029 290 49 -400 060/04 RMK AO2
14840KMKG MKG20070517235012105/17/07 23:50:31  5-MIN KMKG 180450Z 06005KT 10SM CLR 08/M01 A3029 290 53 -400 060/05 RMK AO2 SLP259 T00781011 401720061
14840KMKG MKG20070517235512105/17/07 23:55:31  5-MIN KMKG 180455Z 06005KT 10SM CLR 08/M01 A3029 290 53 -400 060/05 RMK AO2 SLP258 T00781011 401720061
14840KMKG MKG20070518000009405/18/07 00:00:32  5-MIN KMKG 180500Z 06004KT 10SM CLR 08/M01 A3029 290 53 -400 060/04 RMK AO2
14840KMKG MKG20070518000509405/18/07 00:05:31  5-MIN KMKG 180505Z 06004KT 10SM CLR 07/M01 A3029 290 55 -500 070/04 RMK AO2
14840KMKG MKG20070518001009405/18/07 00:10:31  5-MIN KMKG 180510Z 08003KT 10SM CLR 07/M01 A3029 290 57 -600 080/03 RMK AO2
14840KMKG MKG20070518001509405/18/07 00:15:31  5-MIN KMKG 180515Z 08003KT 10SM CLR 07/M01 A3029 290 57 -600 080/03 RMK AO2
14840KMKG MKG20070518002009405/18/07 00:20:31  5-MIN KMKG 180520Z 00000KT 10SM CLR 07/M01 A3029 290 55 -500 000/00 RMK AO2
14840KMKG MKG20070518002509405/18/07 00:25:31  5-MIN KMKG 180525Z 00000KT 10SM CLR 08/M01 A3029 290 53 -400 000/00 RMK AO2
14840KMKG MKG20070518003009405/18/07 00:30:31  5-MIN KMKG 180530Z 07003KT 10SM CLR 08/M01 A3029 290 51 -300 080/03 RMK AO2
14840KMKG MKG20070518003509405/18/07 00:35:31  5-MIN KMKG 180535Z 07003KT 10SM CLR 08/M01 A3029 290 53 -300 070/03 RMK AO2
14840KMKG MKG20070518004009405/18/07 00:40:31  5-MIN KMKG 180540Z 00000KT 10SM CLR 08/M01 A3029 290 55 -400 000/00 RMK AO2
14840KMKG MKG20070518004509405/18/07 00:45:31  5-MIN KMKG 180545Z 00000KT 10SM CLR 08/M01 A3029 290 55 -400 000/00 RMK AO2
14840KMKG MKG20070518005012905/18/07 00:50:31  5-MIN KMKG 180550Z 00000KT 10SM CLR 08/M01 A3029 290 55 -400 000/00 RMK AO2 SLP258 T00781006 10150 20067 53010
14840KMKG MKG20070518005512905/18/07 00:55:31  5-MIN KMKG 180555Z 00000KT 10SM CLR 08/M01 A3029 290 55 -400 000/00 RMK AO2 SLP258 T00781006 10150 20067 50001
14840KMKG MKG20070518010009405/18/07 01:00:31  5-MIN KMKG 180600Z 00000KT 10SM CLR 07/M01 A3029 290 57 -500 000/00 RMK AO2
14840KMKG MKG20070518010509405/18/07 01:05:31  5-MIN KMKG 180605Z 00000KT 10SM CLR 07/M01 A3029 290 60 -600 000/00 RMK AO2
14840KMKG MKG20070518011009305/18/07 01:10:31  5-MIN KMKG 180610Z 00000KT 10SM CLR 07/00 A3029 290 62 -600 000/00 RMK AO2
14840KMKG MKG20070518011509305/18/07 01:15:31  5-MIN KMKG 180615Z 00000KT 10SM CLR 07/00 A3029 290 62 -600 000/00 RMK AO2
14840KMKG MKG20070518012009305/18/07 01:20:31  5-MIN KMKG 180620Z 00000KT 10SM CLR 06/00 A3029 290 65 -600 000/00 RMK AO2
14840KMKG MKG20070518012509305/18/07 01:25:31  5-MIN KMKG 180625Z 00000KT 10SM CLR 07/00 A3029 290 62 -600 000/00 RMK AO2
14840KMKG MKG20070518013009305/18/07 01:30:31  5-MIN KMKG 180630Z 00000KT 10SM CLR 07/00 A3029 290 62 -600 000/00 RMK AO2
14840KMKG MKG20070518013509305/18/07 01:35:31  5-MIN KMKG 180635Z 00000KT 10SM CLR 06/00 A3029 290 65 -600 000/00 RMK AO2
14840KMKG MKG20070518014009305/18/07 01:40:31  5-MIN KMKG 180640Z 00000KT 10SM CLR 06/00 A3029 290 65 -600 000/00 RMK AO2
14840KMKG MKG20070518014509305/18/07 01:45:31  5-MIN KMKG 180645Z 08003KT 10SM CLR 06/00 A3029 290 65 -600 080/03 RMK AO2
14840KMKG MKG20070518015011005/18/07 01:50:31  5-MIN KMKG 180650Z 08003KT 10SM CLR 06/00 A3029 290 65 -600 080/03 RMK AO2 SLP260 T00610000
14840KMKG MKG20070518015511005/18/07 01:55:31  5-MIN KMKG 180655Z 07003KT 10SM CLR 06/01 A3029 290 70 -700 070/03 RMK AO2 SLP260 T00560006
14840KMKG MKG20070518020009305/18/07 02:00:31  5-MIN KMKG 180700Z 00000KT 10SM CLR 05/01 A3029 290 73 -800 000/00 RMK AO2
14840KMKG MKG20070518020509305/18/07 02:05:31  5-MIN KMKG 180705Z 00000KT 10SM CLR 06/00 A3029 290 67 -700 000/00 RMK AO2
14840KMKG MKG20070518021009305/18/07 02:10:31  5-MIN KMKG 180710Z 00000KT 10SM CLR 06/00 A3029 290 67 -700 000/00 RMK AO2
14840KMKG MKG20070518021509305/18/07 02:15:31  5-MIN KMKG 180715Z 00000KT 10SM CLR 06/00 A3029 290 65 -600 000/00 RMK AO2
14840KMKG MKG20070518022009305/18/07 02:20:31  5-MIN KMKG 180720Z 00000KT 10SM CLR 06/00 A3030 290 67 -700 000/00 RMK AO2
14840KMKG MKG20070518022509305/18/07 02:25:31  5-MIN KMKG 180725Z 00000KT 10SM CLR 05/01 A3030 280 73 -800 000/00 RMK AO2
14840KMKG MKG20070518023009305/18/07 02:30:31  5-MIN KMKG 180730Z 00000KT 10SM CLR 04/01 A3030 280 76 -800 000/00 RMK AO2
14840KMKG MKG20070518023509305/18/07 02:35:31  5-MIN KMKG 180735Z 00000KT 10SM CLR 04/00 A3030 280 73 -800 000/00 RMK AO2
14840KMKG MKG20070518024009305/18/07 02:40:31  5-MIN KMKG 180740Z 00000KT 10SM CLR 04/01 A3030 280 76 -800 000/00 RMK AO2
14840KMKG MKG20070518024509305/18/07 02:45:31  5-MIN KMKG 180745Z 00000KT 10SM CLR 04/01 A3030 280 76 -800 000/00 RMK AO2
14840KMKG MKG20070518025011005/18/07 02:50:31  5-MIN KMKG 180750Z 00000KT 10SM CLR 04/01 A3030 280 76 -800 000/00 RMK AO2 SLP264 T00440006
14840KMKG MKG20070518025511005/18/07 02:55:31  5-MIN KMKG 180755Z 00000KT 10SM CLR 04/01 A3030 280 76 -800 000/00 RMK AO2 SLP264 T00440006
14840KMKG MKG20070518030009305/18/07 03:00:31  5-MIN KMKG 180800Z 00000KT 10SM CLR 04/01 A3030 280 79 -900 000/00 RMK AO2
14840KMKG MKG20070518030509405/18/07 03:05:31  5-MIN KMKG 180805Z 00000KT 10SM CLR 03/01 A3031 280 82 -1000 000/00 RMK AO2
14840KMKG MKG20070518031009405/18/07 03:10:31  5-MIN KMKG 180810Z 00000KT 10SM CLR 03/01 A3031 270 82 -1000 000/00 RMK AO2
14840KMKG MKG20070518031509305/18/07 03:15:31  5-MIN KMKG 180815Z 00000KT 10SM CLR 04/01 A3031 270 79 -900 000/00 RMK AO2
14840KMKG MKG20070518032009405/18/07 03:20:31  5-MIN KMKG 180820Z 00000KT 10SM CLR 03/01 A3031 270 82 -1000 000/00 RMK AO2
14840KMKG MKG20070518032509405/18/07 03:25:31  5-MIN KMKG 180825Z 00000KT 10SM CLR 03/01 A3031 270 82 -1000 000/00 RMK AO2
14840KMKG MKG20070518033009405/18/07 03:30:31  5-MIN KMKG 180830Z 00000KT 10SM CLR 03/01 A3031 270 82 -1000 000/00 RMK AO2
14840KMKG MKG20070518033509405/18/07 03:35:31  5-MIN KMKG 180835Z 00000KT 10SM CLR 03/01 A3031 270 82 -1000 000/00 RMK AO2
14840KMKG MKG20070518034009405/18/07 03:40:31  5-MIN KMKG 180840Z 00000KT 10SM CLR 03/01 A3031 270 82 -1000 000/00 RMK AO2
14840KMKG MKG20070518034509405/18/07 03:45:31  5-MIN KMKG 180845Z 00000KT 10SM CLR 03/01 A3031 270 82 -1000 000/00 RMK AO2
14840KMKG MKG20070518035011705/18/07 03:50:31  5-MIN KMKG 180850Z 00000KT 10SM CLR 03/01 A3032 270 82 -1000 000/00 RMK AO2 SLP269 T00330006 50001
14840KMKG MKG20070518035511705/18/07 03:55:31  5-MIN KMKG 180855Z 00000KT 10SM CLR 03/01 A3032 270 82 -1000 000/00 RMK AO2 SLP269 T00330006 53010
14840KMKG MKG20070518040009405/18/07 04:00:31  5-MIN KMKG 180900Z 00000KT 10SM CLR 03/01 A3032 270 82 -1000 000/00 RMK AO2
14840KMKG MKG20070518040509405/18/07 04:05:31  5-MIN KMKG 180905Z 00000KT 10SM CLR 03/01 A3032 270 82 -1000 000/00 RMK AO2
14840KMKG MKG20070518041009405/18/07 04:10:31  5-MIN KMKG 180910Z 00000KT 10SM CLR 03/01 A3032 270 82 -1000 000/00 RMK AO2
14840KMKG MKG20070518041509405/18/07 04:15:31  5-MIN KMKG 180915Z 00000KT 10SM CLR 03/01 A3032 270 82 -1000 000/00 RMK AO2
14840KMKG MKG20070518042009405/18/07 04:20:31  5-MIN KMKG 180920Z 00000KT 10SM CLR 03/01 A3032 260 82 -1000 000/00 RMK AO2
14840KMKG MKG20070518042509405/18/07 04:25:31  5-MIN KMKG 180925Z 00000KT 10SM CLR 03/01 A3032 260 82 -1000 000/00 RMK AO2
14840KMKG MKG20070518043009405/18/07 04:30:31  5-MIN KMKG 180930Z 00000KT 10SM CLR 03/01 A3032 260 85 -1100 000/00 RMK AO2
14840KMKG MKG20070518043509405/18/07 04:35:31  5-MIN KMKG 180935Z 00000KT 10SM CLR 03/01 A3032 260 85 -1100 000/00 RMK AO2
14840KMKG MKG20070518044009405/18/07 04:40:31  5-MIN KMKG 180940Z 00000KT 10SM CLR 03/01 A3032 260 85 -1100 000/00 RMK AO2
14840KMKG MKG20070518044509405/18/07 04:45:31  5-MIN KMKG 180945Z 00000KT 10SM CLR 03/01 A3032 260 85 -1100 000/00 RMK AO2
14840KMKG MKG20070518045011105/18/07 04:50:31  5-MIN KMKG 180950Z 00000KT 10SM CLR 02/01 A3032 260 89 -1100 000/00 RMK AO2 SLP271 T00220006
14840KMKG MKG20070518045511105/18/07 04:55:31  5-MIN KMKG 180955Z 00000KT 10SM CLR 02/00 A3032 260 85 -1100 000/00 RMK AO2 SLP270 T00220000
14840KMKG MKG20070518050009405/18/07 05:00:31  5-MIN KMKG 181000Z 00000KT 10SM CLR 02/00 A3032 260 85 -1100 000/00 RMK AO2
14840KMKG MKG20070518050509405/18/07 05:05:31  5-MIN KMKG 181005Z 00000KT 10SM CLR 02/00 A3032 260 85 -1100 000/00 RMK AO2
14840KMKG MKG20070518051009405/18/07 05:10:31  5-MIN KMKG 181010Z 00000KT 10SM CLR 03/01 A3033 260 85 -1100 000/00 RMK AO2
14840KMKG MKG20070518051509405/18/07 05:15:31  5-MIN KMKG 181015Z 00000KT 10SM CLR 03/01 A3033 260 89 -1100 000/00 RMK AO2
14840KMKG MKG20070518052009405/18/07 05:20:31  5-MIN KMKG 181020Z 00000KT 10SM CLR 03/01 A3033 260 89 -1100 000/00 RMK AO2
14840KMKG MKG20070518052509405/18/07 05:25:31  5-MIN KMKG 181025Z 00000KT 10SM CLR 02/01 A3033 250 89 -1100 000/00 RMK AO2
14840KMKG MKG20070518053009405/18/07 05:30:31  5-MIN KMKG 181030Z 00000KT 10SM CLR 02/01 A3033 250 92 -1200 000/00 RMK AO2
14840KMKG MKG20070518053509405/18/07 05:35:31  5-MIN KMKG 181035Z 00000KT 10SM CLR 02/01 A3033 250 92 -1200 000/00 RMK AO2
14840KMKG MKG20070518054009405/18/07 05:40:31  5-MIN KMKG 181040Z 00000KT 10SM CLR 02/00 A3033 250 89 -1200 000/00 RMK AO2
14840KMKG MKG20070518054509405/18/07 05:45:31  5-MIN KMKG 181045Z 00000KT 10SM CLR 02/01 A3033 250 89 -1200 000/00 RMK AO2
14840KMKG MKG20070518055011105/18/07 05:50:31  5-MIN KMKG 181050Z 00000KT 10SM CLR 02/00 A3034 250 85 -1200 000/00 RMK AO2 SLP276 T00220000
14840KMKG MKG20070518055511105/18/07 05:55:31  5-MIN KMKG 181055Z 00000KT 10SM CLR 03/01 A3034 250 85 -1100 000/00 RMK AO2 SLP276 T00280006
14840KMKG MKG20070518060009405/18/07 06:00:31  5-MIN KMKG 181100Z 00000KT 10SM CLR 03/01 A3034 250 85 -1100 000/00 RMK AO2
14840KMKG MKG20070518060509405/18/07 06:05:31  5-MIN KMKG 181105Z 00000KT 10SM CLR 03/01 A3034 250 85 -1100 000/00 RMK AO2
14840KMKG MKG20070518061009405/18/07 06:10:31  5-MIN KMKG 181110Z 00000KT 10SM CLR 03/01 A3034 250 85 -1000 000/00 RMK AO2
14840KMKG MKG20070518061509405/18/07 06:15:31  5-MIN KMKG 181115Z 00000KT 10SM CLR 03/01 A3034 240 85 -1000 000/00 RMK AO2
14840KMKG MKG20070518062009405/18/07 06:20:31  5-MIN KMKG 181120Z 00000KT 10SM CLR 04/02 A3034 250 85 -1000 000/00 RMK AO2
14840KMKG MKG20070518062509405/18/07 06:25:31  5-MIN KMKG 181125Z 00000KT 10SM CLR 04/02 A3034 250 89 -1000 000/00 RMK AO2
14840KMKG MKG20070518063009305/18/07 06:30:31  5-MIN KMKG 181130Z 00000KT 10SM CLR 04/03 A3034 250 89 -900 000/00 RMK AO2
14840KMKG MKG20070518063509305/18/07 06:35:31  5-MIN KMKG 181135Z 00000KT 10SM CLR 05/03 A3034 240 85 -800 000/00 RMK AO2
14840KMKG MKG20070518064009305/18/07 06:40:31  5-MIN KMKG 181140Z 12003KT 10SM CLR 06/03 A3034 240 82 -700 120/03 RMK AO2
14840KMKG MKG20070518064509305/18/07 06:45:31  5-MIN KMKG 181145Z 13003KT 10SM CLR 06/03 A3034 250 82 -700 130/03 RMK AO2
14840KMKG MKG20070518065012805/18/07 06:50:31  5-MIN KMKG 181150Z 00000KT 10SM CLR 07/03 A3034 250 79 -600 000/00 RMK AO2 SLP276 T00670033 10072 20017 53010
14840KMKG MKG20070518065512805/18/07 06:55:31  5-MIN KMKG 181155Z 12003KT 10SM CLR 07/03 A3034 250 79 -600 130/03 RMK AO2 SLP276 T00670033 10072 20017 52007
14840KMKG MKG20070518070009305/18/07 07:00:31  5-MIN KMKG 181200Z 00000KT 10SM CLR 07/03 A3034 250 76 -500 000/00 RMK AO2
14840KMKG MKG20070518070509305/18/07 07:05:31  5-MIN KMKG 181205Z 00000KT 10SM CLR 08/03 A3034 240 73 -500 000/00 RMK AO2
14840KMKG MKG20070518071009305/18/07 07:10:31  5-MIN KMKG 181210Z 00000KT 10SM CLR 08/03 A3034 240 70 -400 000/00 RMK AO2
14840KMKG MKG20070518071509305/18/07 07:15:31  5-MIN KMKG 181215Z 00000KT 10SM CLR 08/04 A3034 240 73 -400 000/00 RMK AO2
14840KMKG MKG20070518072009305/18/07 07:20:31  5-MIN KMKG 181220Z 00000KT 10SM CLR 09/03 A3034 240 68 -300 000/00 RMK AO2
14840KMKG MKG20070518072509305/18/07 07:25:31  5-MIN KMKG 181225Z 00000KT 10SM CLR 09/03 A3034 240 65 -300 000/00 RMK AO2
14840KMKG MKG20070518073009305/18/07 07:30:31  5-MIN KMKG 181230Z 00000KT 10SM CLR 10/03 A3034 240 63 -200 000/00 RMK AO2
14840KMKG MKG20070518073509305/18/07 07:35:31  5-MIN KMKG 181235Z 00000KT 10SM CLR 10/03 A3034 250 63 -200 000/00 RMK AO2
14840KMKG MKG20070518074009305/18/07 07:40:31  5-MIN KMKG 181240Z 00000KT 10SM CLR 11/03 A3034 250 61 -100 000/00 RMK AO2
14840KMKG MKG20070518074509305/18/07 07:45:31  5-MIN KMKG 181245Z 00000KT 10SM CLR 11/03 A3034 250 58 -100 000/00 RMK AO2
14840KMKG MKG20070518075011005/18/07 07:50:31  5-MIN KMKG 181250Z 00000KT 10SM CLR 11/03 A3034 250 58 -100 000/00 RMK AO2 SLP275 T01110033
14840KMKG MKG20070518075510705/18/07 07:55:31  5-MIN KMKG 181255Z 00000KT 10SM CLR 12/03 A3034 250 54 0 000/00 RMK AO2 SLP275 T01170028
14840KMKG MKG20070518080009005/18/07 08:00:31  5-MIN KMKG 181300Z 00000KT 10SM CLR 12/03 A3034 250 54 0 000/00 RMK AO2
14840KMKG MKG20070518080509005/18/07 08:05:31  5-MIN KMKG 181305Z 19003KT 10SM CLR 12/03 A3034 250 52 0 190/03 RMK AO2
14840KMKG MKG20070518081009005/18/07 08:10:31  5-MIN KMKG 181310Z 21003KT 10SM CLR 12/02 A3033 250 50 0 220/03 RMK AO2
14840KMKG MKG20070518081509205/18/07 08:15:31  5-MIN KMKG 181315Z 21003KT 10SM CLR 13/03 A3033 250 50 100 210/03 RMK AO2
14840KMKG MKG20070518082009205/18/07 08:20:31  5-MIN KMKG 181320Z 21004KT 10SM CLR 13/03 A3033 250 50 200 210/04 RMK AO2
14840KMKG MKG20070518082509205/18/07 08:25:31  5-MIN KMKG 181325Z 22003KT 10SM CLR 13/03 A3033 250 48 200 230/03 RMK AO2
14840KMKG MKG20070518083009205/18/07 08:30:31  5-MIN KMKG 181330Z 21003KT 10SM CLR 14/03 A3033 250 47 200 210/03 RMK AO2
14840KMKG MKG20070518083509205/18/07 08:35:31  5-MIN KMKG 181335Z 23003KT 10SM CLR 14/03 A3033 260 45 300 230/03 RMK AO2
14840KMKG MKG20070518084009205/18/07 08:40:31  5-MIN KMKG 181340Z 25003KT 10SM CLR 14/02 A3033 250 43 300 250/03 RMK AO2
14840KMKG MKG20070518084509205/18/07 08:45:31  5-MIN KMKG 181345Z 26004KT 10SM CLR 14/03 A3033 250 45 300 270/04 RMK AO2
14840KMKG MKG20070518085010905/18/07 08:50:31  5-MIN KMKG 181350Z 26004KT 10SM CLR 15/01 A3033 250 38 400 260/04 RMK AO2 SLP271 T01500011
14840KMKG MKG20070518085510905/18/07 08:55:31  5-MIN KMKG 181355Z 26004KT 10SM CLR 15/01 A3033 250 37 400 260/04 RMK AO2 SLP271 T01500006
14840KMKG MKG20070518090009205/18/07 09:00:31  5-MIN KMKG 181400Z 26003KT 10SM CLR 15/01 A3033 250 37 400 260/03 RMK AO2
14840KMKG MKG20070518090509205/18/07 09:05:31  5-MIN KMKG 181405Z 25004KT 10SM CLR 16/01 A3033 250 36 400 250/04 RMK AO2
14840KMKG MKG20070518091009205/18/07 09:10:31  5-MIN KMKG 181410Z 25005KT 10SM CLR 16/00 A3033 260 34 400 250/05 RMK AO2
14840KMKG MKG20070518091509305/18/07 09:15:31  5-MIN KMKG 181415Z VRB03KT 10SM CLR 16/M01 A3033 260 31 400 VRB/03 RMK AO2
14840KMKG MKG20070518092009605/18/07 09:20:31  5-MIN KMKG 181420Z 28004KT 10SM FEW085 16/M01 A3033 260 33 400 290/04 RMK AO2
14840KMKG MKG20070518092509305/18/07 09:25:31  5-MIN KMKG 181425Z VRB03KT 10SM CLR 16/M01 A3033 260 33 400 VRB/03 RMK AO2
14840KMKG MKG20070518093009205/18/07 09:30:31  5-MIN KMKG 181430Z 27005KT 10SM CLR 16/00 A3033 260 33 500 270/05 RMK AO2
14840KMKG MKG20070518093509605/18/07 09:35:31  5-MIN KMKG 181435Z 27005KT 10SM FEW085 16/M01 A3033 260 33 400 280/05 RMK AO2
14840KMKG MKG20070518094009505/18/07 09:40:31  5-MIN KMKG 181440Z 25005KT 10SM FEW085 16/00 A3033 260 33 500 250/05 RMK AO2
14840KMKG MKG20070518094509205/18/07 09:45:31  5-MIN KMKG 181445Z VRB04KT 10SM CLR 16/00 A3032 260 33 500 VRB/04 RMK AO2
14840KMKG MKG20070518095011505/18/07 09:50:31  5-MIN KMKG 181450Z 25005KT 10SM CLR 16/00 A3032 260 33 500 260/05 RMK AO2 SLP269 T01610000 52007
14840KMKG MKG20070518095511505/18/07 09:55:31  5-MIN KMKG 181455Z VRB04KT 10SM CLR 16/00 A3032 260 33 500 VRB/04 RMK AO2 SLP269 T01610000 58006
14840KMKG MKG20070518100009605/18/07 10:00:31  5-MIN KMKG 181500Z 24003KT 10SM FEW080 16/M01 A3032 260 32 500 240/03 RMK AO2
14840KMKG MKG20070518100509205/18/07 10:05:31  5-MIN KMKG 181505Z 25006KT 10SM CLR 17/00 A3032 260 32 600 250/06 RMK AO2
14840KMKG MKG20070518101009205/18/07 10:10:31  5-MIN KMKG 181510Z VRB06KT 10SM CLR 17/00 A3032 260 32 600 VRB/06 RMK AO2
14840KMKG MKG20070518101509305/18/07 10:15:31  5-MIN KMKG 181515Z 26006KT 10SM CLR 17/M01 A3032 260 31 600 260/06 RMK AO2
14840KMKG MKG20070518102009205/18/07 10:20:31  5-MIN KMKG 181520Z 26005KT 10SM CLR 17/00 A3032 260 32 600 270/05 RMK AO2
14840KMKG MKG20070518102509205/18/07 10:25:31  5-MIN KMKG 181525Z 24007KT 10SM CLR 17/00 A3032 260 31 600 240/07 RMK AO2
14840KMKG MKG20070518103009305/18/07 10:30:31  5-MIN KMKG 181530Z 26007KT 10SM CLR 17/M01 A3032 260 31 600 260/07 RMK AO2
14840KMKG MKG20070518103509305/18/07 10:35:31  5-MIN KMKG 181535Z 25006KT 10SM CLR 17/M01 A3032 260 31 600 260/06 RMK AO2
14840KMKG MKG20070518104009205/18/07 10:40:31  5-MIN KMKG 181540Z 23006KT 10SM CLR 17/00 A3032 270 32 600 240/06 RMK AO2
14840KMKG MKG20070518104509205/18/07 10:45:31  5-MIN KMKG 181545Z 26007KT 10SM CLR 17/00 A3031 270 32 600 260/07 RMK AO2
14840KMKG MKG20070518105010905/18/07 10:50:31  5-MIN KMKG 181550Z 26007KT 10SM CLR 17/00 A3031 270 32 600 260/07 RMK AO2 SLP266 T01670000
14840KMKG MKG20070518105511005/18/07 10:55:31  5-MIN KMKG 181555Z 23006KT 10SM CLR 17/M01 A3031 270 31 600 240/06 RMK AO2 SLP265 T01671006
14840KMKG MKG20070518110009205/18/07 11:00:31  5-MIN KMKG 181600Z 25005KT 10SM CLR 17/01 A3031 270 32 600 250/05 RMK AO2
14840KMKG MKG20070518110509205/18/07 11:05:31  5-MIN KMKG 181605Z 23006KT 10SM CLR 17/00 A3031 270 32 600 230/06 RMK AO2
14840KMKG MKG20070518111009205/18/07 11:10:31  5-MIN KMKG 181610Z 25008KT 10SM CLR 17/01 A3031 270 32 600 260/08 RMK AO2
14840KMKG MKG20070518111509205/18/07 11:15:31  5-MIN KMKG 181615Z 25008KT 10SM CLR 17/00 A3031 270 32 600 260/08 RMK AO2
14840KMKG MKG20070518112009205/18/07 11:20:31  5-MIN KMKG 181620Z 25008KT 10SM CLR 17/01 A3031 270 33 600 250/08 RMK AO2
14840KMKG MKG20070518112509205/18/07 11:25:31  5-MIN KMKG 181625Z 25007KT 10SM CLR 17/01 A3031 270 33 600 250/07 RMK AO2
14840KMKG MKG20070518113009205/18/07 11:30:31  5-MIN KMKG 181630Z 23008KT 10SM CLR 17/01 A3031 280 34 600 240/08 RMK AO2
14840KMKG MKG20070518113509205/18/07 11:35:31  5-MIN KMKG 181635Z 23008KT 10SM CLR 17/01 A3031 280 33 600 230/08 RMK AO2
14840KMKG MKG20070518114009205/18/07 11:40:31  5-MIN KMKG 181640Z 23009KT 10SM CLR 17/01 A3031 280 33 600 230/09 RMK AO2
14840KMKG MKG20070518114509205/18/07 11:45:31  5-MIN KMKG 181645Z 22009KT 10SM CLR 17/01 A3030 280 33 600 230/09 RMK AO2
14840KMKG MKG20070518115010905/18/07 11:50:31  5-MIN KMKG 181650Z 22009KT 10SM CLR 17/01 A3030 280 33 600 230/09 RMK AO2 SLP264 T01670006
14840KMKG MKG20070518115510905/18/07 11:55:31  5-MIN KMKG 181655Z 23010KT 10SM CLR 17/00 A3030 280 32 600 230/10 RMK AO2 SLP264 T01670000
14840KMKG MKG20070518120009205/18/07 12:00:31  5-MIN KMKG 181700Z 23010KT 10SM CLR 17/00 A3030 280 32 600 230/10 RMK AO2
14840KMKG MKG20070518120509205/18/07 12:05:31  5-MIN KMKG 181705Z 24009KT 10SM CLR 17/01 A3030 280 33 600 240/09 RMK AO2
14840KMKG MKG20070518121009205/18/07 12:10:31  5-MIN KMKG 181710Z 22010KT 10SM CLR 17/01 A3030 280 33 600 220/10 RMK AO2
14840KMKG MKG20070518121509205/18/07 12:15:31  5-MIN KMKG 181715Z 23008KT 10SM CLR 17/00 A3030 280 31 600 240/08 RMK AO2
14840KMKG MKG20070518122009305/18/07 12:20:31  5-MIN KMKG 181720Z 24009KT 10SM CLR 17/M01 A3030 280 31 600 240/09 RMK AO2
14840KMKG MKG20070518122509205/18/07 12:25:31  5-MIN KMKG 181725Z 25007KT 10SM CLR 17/01 A3030 280 32 600 260/07 RMK AO2
14840KMKG MKG20070518123009205/18/07 12:30:31  5-MIN KMKG 181730Z 25008KT 10SM CLR 17/01 A3030 280 32 600 260/08 RMK AO2
14840KMKG MKG20070518123509305/18/07 12:35:31  5-MIN KMKG 181735Z 24010KT 10SM CLR 16/M01 A3030 280 32 500 250/10 RMK AO2
14840KMKG MKG20070518124009205/18/07 12:40:31  5-MIN KMKG 181740Z 25009KT 10SM CLR 16/00 A3030 290 33 500 250/09 RMK AO2
14840KMKG MKG20070518124509205/18/07 12:45:31  5-MIN KMKG 181745Z 23008KT 10SM CLR 16/00 A3029 290 33 500 240/08 RMK AO2
14840KMKG MKG20070518125012705/18/07 12:50:31  5-MIN KMKG 181750Z 25009KT 10SM CLR 16/00 A3029 290 33 500 260/09 RMK AO2 SLP260 T01610000 10172 20067 58006
14840KMKG MKG20070518125512705/18/07 12:55:31  5-MIN KMKG 181755Z 24009KT 10SM CLR 16/00 A3029 290 33 500 240/09 RMK AO2 SLP260 T01610000 10172 20067 58010
14840KMKG MKG20070518130009205/18/07 13:00:31  5-MIN KMKG 181800Z 24008KT 10SM CLR 17/01 A3029 290 34 600 250/08 RMK AO2
14840KMKG MKG20070518130509205/18/07 13:05:31  5-MIN KMKG 181805Z 23009KT 10SM CLR 17/01 A3029 290 34 600 240/09 RMK AO2
14840KMKG MKG20070518131009205/18/07 13:10:31  5-MIN KMKG 181810Z 24009KT 10SM CLR 16/01 A3029 290 34 500 250/09 RMK AO2
14840KMKG MKG20070518131509205/18/07 13:15:31  5-MIN KMKG 181815Z 26008KT 10SM CLR 16/01 A3029 290 36 500 260/08 RMK AO2
14840KMKG MKG20070518132009205/18/07 13:20:31  5-MIN KMKG 181820Z 24008KT 10SM CLR 17/01 A3029 290 34 600 240/08 RMK AO2
14840KMKG MKG20070518132509205/18/07 13:25:31  5-MIN KMKG 181825Z 25007KT 10SM CLR 16/01 A3029 290 34 500 250/07 RMK AO2
14840KMKG MKG20070518133011105/18/07 13:30:31  5-MIN KMKG 181830Z 23007KT 210V280 10SM FEW090 17/02 A3029 290 36 600 240/07 210V280 RMK AO2
14840KMKG MKG20070518133509505/18/07 13:35:31  5-MIN KMKG 181835Z 24008KT 10SM FEW090 17/01 A3029 290 33 700 240/08 RMK AO2
14840KMKG MKG20070518134009205/18/07 13:40:31  5-MIN KMKG 181840Z 23008KT 10SM CLR 17/01 A3028 300 34 600 240/08 RMK AO2
14840KMKG MKG20070518134509205/18/07 13:45:31  5-MIN KMKG 181845Z 24008KT 10SM CLR 17/01 A3028 300 34 600 240/08 RMK AO2
14840KMKG MKG20070518135010905/18/07 13:50:31  5-MIN KMKG 181850Z 24009KT 10SM CLR 16/01 A3028 300 34 500 240/09 RMK AO2 SLP256 T01610006
14840KMKG MKG20070518135510905/18/07 13:55:31  5-MIN KMKG 181855Z 23009KT 10SM CLR 17/01 A3028 300 33 600 240/09 RMK AO2 SLP255 T01670006
14840KMKG MKG20070518140009205/18/07 14:00:31  5-MIN KMKG 181900Z 24009KT 10SM CLR 17/01 A3028 300 33 600 240/09 RMK AO2
14840KMKG MKG20070518140509205/18/07 14:05:31  5-MIN KMKG 181905Z 25008KT 10SM CLR 17/01 A3028 300 33 600 250/08 RMK AO2
14840KMKG MKG20070518141009205/18/07 14:10:31  5-MIN KMKG 181910Z 24009KT 10SM CLR 17/01 A3027 300 34 600 240/09 RMK AO2
14840KMKG MKG20070518141509205/18/07 14:15:31  5-MIN KMKG 181915Z 22009KT 10SM CLR 17/01 A3027 310 33 600 220/09 RMK AO2
14840KMKG MKG20070518142009205/18/07 14:20:31  5-MIN KMKG 181920Z 23010KT 10SM CLR 16/00 A3027 310 33 500 230/10 RMK AO2
14840KMKG MKG20070518142509205/18/07 14:25:31  5-MIN KMKG 181925Z 23009KT 10SM CLR 16/01 A3027 310 34 500 230/09 RMK AO2
14840KMKG MKG20070518143009205/18/07 14:30:31  5-MIN KMKG 181930Z 22010KT 10SM CLR 17/01 A3027 310 33 600 220/10 RMK AO2
14840KMKG MKG20070518143509205/18/07 14:35:31  5-MIN KMKG 181935Z 22010KT 10SM CLR 17/00 A3027 310 32 600 230/10 RMK AO2
14840KMKG MKG20070518144009205/18/07 14:40:31  5-MIN KMKG 181940Z 23009KT 10SM CLR 17/01 A3027 310 34 600 240/09 RMK AO2
14840KMKG MKG20070518144509205/18/07 14:45:31  5-MIN KMKG 181945Z 24007KT 10SM CLR 17/02 A3027 310 35 700 240/07 RMK AO2
14840KMKG MKG20070518145010905/18/07 14:50:31  5-MIN KMKG 181950Z 22010KT 10SM CLR 17/01 A3027 310 33 600 230/10 RMK AO2 SLP252 T01670006
14840KMKG MKG20070518145510905/18/07 14:55:31  5-MIN KMKG 181955Z 22009KT 10SM CLR 16/00 A3027 310 33 600 230/09 RMK AO2 SLP252 T01610000
14840KMKG MKG20070518150009205/18/07 15:00:31  5-MIN KMKG 182000Z 25009KT 10SM CLR 17/01 A3027 310 34 600 250/09 RMK AO2
14840KMKG MKG20070518150509205/18/07 15:05:31  5-MIN KMKG 182005Z 24009KT 10SM CLR 17/01 A3026 320 33 600 240/09 RMK AO2
14840KMKG MKG20070518151009205/18/07 15:10:31  5-MIN KMKG 182010Z 23009KT 10SM CLR 16/00 A3026 320 33 600 240/09 RMK AO2
14840KMKG MKG20070518151509205/18/07 15:15:31  5-MIN KMKG 182015Z 25009KT 10SM CLR 16/00 A3026 320 33 600 250/09 RMK AO2
14840KMKG MKG20070518152009205/18/07 15:20:31  5-MIN KMKG 182020Z 24010KT 10SM CLR 16/00 A3026 320 33 600 240/10 RMK AO2
14840KMKG MKG20070518152509205/18/07 15:25:31  5-MIN KMKG 182025Z 24007KT 10SM CLR 17/00 A3026 320 32 600 240/07 RMK AO2
14840KMKG MKG20070518153009205/18/07 15:30:31  5-MIN KMKG 182030Z 24006KT 10SM CLR 17/01 A3026 320 33 700 250/06 RMK AO2
14840KMKG MKG20070518153509205/18/07 15:35:31  5-MIN KMKG 182035Z 25007KT 10SM CLR 17/01 A3026 320 33 600 250/07 RMK AO2
14840KMKG MKG20070518154009205/18/07 15:40:31  5-MIN KMKG 182040Z 24008KT 10SM CLR 17/00 A3026 320 32 600 240/08 RMK AO2
14840KMKG MKG20070518154509205/18/07 15:45:31  5-MIN KMKG 182045Z 24007KT 10SM CLR 17/00 A3025 320 32 600 250/07 RMK AO2
14840KMKG MKG20070518155011505/18/07 15:50:31  5-MIN KMKG 182050Z 23008KT 10SM CLR 17/00 A3025 330 32 600 240/08 RMK AO2 SLP247 T01670000 58010
14840KMKG MKG20070518155511605/18/07 15:55:31  5-MIN KMKG 182055Z 24009KT 10SM CLR 17/M01 A3025 330 31 600 240/09 RMK AO2 SLP246 T01671006 58015
14840KMKG MKG20070518160009305/18/07 16:00:31  5-MIN KMKG 182100Z 23007KT 10SM CLR 17/M01 A3025 330 31 600 230/07 RMK AO2
14840KMKG MKG20070518160509305/18/07 16:05:31  5-MIN KMKG 182105Z 24009KT 10SM CLR 17/M01 A3024 330 29 700 250/09 RMK AO2
14840KMKG MKG20070518161009305/18/07 16:10:31  5-MIN KMKG 182110Z 22011KT 10SM CLR 17/M01 A3024 330 29 700 220/11 RMK AO2
14840KMKG MKG20070518161509305/18/07 16:15:31  5-MIN KMKG 182115Z 23009KT 10SM CLR 17/M01 A3024 330 31 600 230/09 RMK AO2
14840KMKG MKG20070518162009305/18/07 16:20:31  5-MIN KMKG 182120Z 24009KT 10SM CLR 17/M01 A3024 330 31 600 240/09 RMK AO2
14840KMKG MKG20070518162509305/18/07 16:25:31  5-MIN KMKG 182125Z 24008KT 10SM CLR 17/M01 A3024 340 31 700 240/08 RMK AO2
14840KMKG MKG20070518163009305/18/07 16:30:31  5-MIN KMKG 182130Z 23009KT 10SM CLR 17/M01 A3024 340 29 700 230/09 RMK AO2
14840KMKG MKG20070518163509305/18/07 16:35:31  5-MIN KMKG 182135Z 23010KT 10SM CLR 17/M01 A3024 340 29 600 230/10 RMK AO2
14840KMKG MKG20070518164009305/18/07 16:40:31  5-MIN KMKG 182140Z 23009KT 10SM CLR 17/M02 A3024 340 28 600 240/09 RMK AO2
14840KMKG MKG20070518164509305/18/07 16:45:31  5-MIN KMKG 182145Z 24008KT 10SM CLR 17/M01 A3024 340 29 700 250/08 RMK AO2
14840KMKG MKG20070518165011005/18/07 16:50:31  5-MIN KMKG 182150Z 23008KT 10SM CLR 17/M01 A3024 340 29 700 240/08 RMK AO2 SLP243 T01671011
14840KMKG MKG20070518165511005/18/07 16:55:31  5-MIN KMKG 182155Z 21010KT 10SM CLR 17/M01 A3024 340 29 700 220/10 RMK AO2 SLP243 T01671011
14840KMKG MKG20070518170009305/18/07 17:00:31  5-MIN KMKG 182200Z 23008KT 10SM CLR 17/M01 A3023 340 29 700 230/08 RMK AO2
14840KMKG MKG20070518170509305/18/07 17:05:31  5-MIN KMKG 182205Z 23011KT 10SM CLR 17/M02 A3023 340 28 700 230/11 RMK AO2
14840KMKG MKG20070518171009305/18/07 17:10:31  5-MIN KMKG 182210Z 22010KT 10SM CLR 16/M02 A3024 340 29 600 230/10 RMK AO2
14840KMKG MKG20070518171509305/18/07 17:15:31  5-MIN KMKG 182215Z 23009KT 10SM CLR 16/M02 A3023 340 29 600 230/09 RMK AO2
14840KMKG MKG20070518172009305/18/07 17:20:31  5-MIN KMKG 182220Z 23009KT 10SM CLR 16/M02 A3023 340 29 600 230/09 RMK AO2
14840KMKG MKG20070518172509305/18/07 17:25:31  5-MIN KMKG 182225Z 23009KT 10SM CLR 16/M02 A3023 340 29 600 230/09 RMK AO2
14840KMKG MKG20070518173009305/18/07 17:30:31  5-MIN KMKG 182230Z 23008KT 10SM CLR 16/M01 A3023 350 30 600 230/08 RMK AO2
14840KMKG MKG20070518173509305/18/07 17:35:31  5-MIN KMKG 182235Z 23007KT 10SM CLR 16/M02 A3023 350 29 600 240/07 RMK AO2
14840KMKG MKG20070518174009305/18/07 17:40:31  5-MIN KMKG 182240Z 21005KT 10SM CLR 16/M02 A3022 350 29 600 210/05 RMK AO2
14840KMKG MKG20070518174509305/18/07 17:45:31  5-MIN KMKG 182245Z 21006KT 10SM CLR 16/M02 A3022 350 29 600 210/06 RMK AO2
14840KMKG MKG20070518175011005/18/07 17:50:31  5-MIN KMKG 182250Z 20006KT 10SM CLR 16/M01 A3022 360 30 600 200/06 RMK AO2 SLP236 T01611011
14840KMKG MKG20070518175511005/18/07 17:55:31  5-MIN KMKG 182255Z 19008KT 10SM CLR 16/M01 A3022 360 30 600 190/08 RMK AO2 SLP235 T01611011
14840KMKG MKG20070518180009305/18/07 18:00:31  5-MIN KMKG 182300Z 20007KT 10SM CLR 16/M02 A3021 360 29 600 210/07 RMK AO2
14840KMKG MKG20070518180509305/18/07 18:05:31  5-MIN KMKG 182305Z 20006KT 10SM CLR 16/M02 A3021 360 28 600 200/06 RMK AO2
14840KMKG MKG20070518181009305/18/07 18:10:31  5-MIN KMKG 182310Z 18006KT 10SM CLR 16/M01 A3021 360 30 600 180/06 RMK AO2
14840KMKG MKG20070518181509305/18/07 18:15:31  5-MIN KMKG 182315Z 17007KT 10SM CLR 16/M02 A3021 370 29 600 180/07 RMK AO2
14840KMKG MKG20070518182009305/18/07 18:20:31  5-MIN KMKG 182320Z 19009KT 10SM CLR 16/M02 A3021 370 28 600 190/09 RMK AO2
14840KMKG MKG20070518182509305/18/07 18:25:31  5-MIN KMKG 182325Z 18006KT 10SM CLR 16/M02 A3020 370 30 600 190/06 RMK AO2
14840KMKG MKG20070518183009305/18/07 18:30:31  5-MIN KMKG 182330Z 18005KT 10SM CLR 16/M02 A3020 370 30 600 190/05 RMK AO2
14840KMKG MKG20070518183509305/18/07 18:35:31  5-MIN KMKG 182335Z 18005KT 10SM CLR 16/M02 A3020 370 30 600 180/05 RMK AO2
14840KMKG MKG20070518184009305/18/07 18:40:31  5-MIN KMKG 182340Z 18006KT 10SM CLR 16/M02 A3020 370 29 600 180/06 RMK AO2
14840KMKG MKG20070518184509305/18/07 18:45:31  5-MIN KMKG 182345Z 17006KT 10SM CLR 16/M03 A3020 370 28 600 180/06 RMK AO2
14840KMKG MKG20070518185012805/18/07 18:50:31  5-MIN KMKG 182350Z 17008KT 10SM CLR 16/M03 A3019 380 28 600 170/08 RMK AO2 SLP226 T01561028 10172 20156 58015
14840KMKG MKG20070518185512805/18/07 18:55:31  5-MIN KMKG 182355Z 18007KT 10SM CLR 16/M03 A3019 380 27 600 180/07 RMK AO2 SLP226 T01561033 10172 20156 58018
14840KMKG MKG20070518190009305/18/07 19:00:31  5-MIN KMKG 190000Z 17006KT 10SM CLR 15/M02 A3019 380 30 500 180/06 RMK AO2
14840KMKG MKG20070518190509305/18/07 19:05:31  5-MIN KMKG 190005Z 18006KT 10SM CLR 15/M03 A3019 380 29 500 180/06 RMK AO2
14840KMKG MKG20070518191009305/18/07 19:10:31  5-MIN KMKG 190010Z 18006KT 10SM CLR 15/M03 A3019 380 29 500 180/06 RMK AO2
14840KMKG MKG20070518191509305/18/07 19:15:31  5-MIN KMKG 190015Z 17006KT 10SM CLR 14/M03 A3019 380 30 400 170/06 RMK AO2
14840KMKG MKG20070518192009305/18/07 19:20:31  5-MIN KMKG 190020Z 18007KT 10SM CLR 14/M03 A3018 390 29 500 180/07 RMK AO2
14840KMKG MKG20070518192509605/18/07 19:25:31  5-MIN KMKG 190025Z 18006KT 10SM FEW085 14/M03 A3018 390 29 500 180/06 RMK AO2
14840KMKG MKG20070518193009605/18/07 19:30:31  5-MIN KMKG 190030Z 18004KT 10SM FEW085 14/M03 A3018 390 31 400 190/04 RMK AO2
14840KMKG MKG20070518193509605/18/07 19:35:31  5-MIN KMKG 190035Z 18005KT 10SM FEW085 14/M03 A3018 390 31 400 190/05 RMK AO2
14840KMKG MKG20070518194009605/18/07 19:40:31  5-MIN KMKG 190040Z 18004KT 10SM FEW085 13/M03 A3018 390 32 300 180/04 RMK AO2
14840KMKG MKG20070518194509605/18/07 19:45:31  5-MIN KMKG 190045Z 18004KT 10SM FEW085 13/M03 A3018 390 32 300 180/04 RMK AO2
14840KMKG MKG20070518195011305/18/07 19:50:31  5-MIN KMKG 190050Z 17004KT 10SM FEW085 13/M03 A3018 390 32 300 180/04 RMK AO2 SLP222 T01331028
14840KMKG MKG20070518195511305/18/07 19:55:31  5-MIN KMKG 190055Z 18005KT 10SM FEW085 13/M02 A3018 390 34 300 180/05 RMK AO2 SLP222 T01331022
14840KMKG MKG20070518200009605/18/07 20:00:31  5-MIN KMKG 190100Z 17005KT 10SM FEW085 13/M02 A3018 390 34 300 180/05 RMK AO2
14840KMKG MKG20070518200509605/18/07 20:05:31  5-MIN KMKG 190105Z 18005KT 10SM FEW085 13/M02 A3018 390 34 300 180/05 RMK AO2
14840KMKG MKG20070518201009605/18/07 20:10:31  5-MIN KMKG 190110Z 18004KT 10SM FEW085 13/M02 A3018 390 35 300 190/04 RMK AO2
14840KMKG MKG20070518201509605/18/07 20:15:31  5-MIN KMKG 190115Z 18006KT 10SM FEW100 13/M02 A3018 400 35 300 190/06 RMK AO2
14840KMKG MKG20070518202009605/18/07 20:20:31  5-MIN KMKG 190120Z 18006KT 10SM SCT110 13/M02 A3018 400 36 300 180/06 RMK AO2
14840KMKG MKG20070518202509605/18/07 20:25:31  5-MIN KMKG 190125Z 18006KT 10SM BKN110 13/M02 A3018 400 35 300 180/06 RMK AO2
14840KMKG MKG20070518203009605/18/07 20:30:31  5-MIN KMKG 190130Z 18006KT 10SM BKN110 13/M02 A3017 400 34 300 190/06 RMK AO2
14840KMKG MKG20070520234509205/20/07 23:45:31  5-MIN KMKG 210445Z 11009KT 10SM CLR 11/07 A3013 440 74 100 110/09 RMK AO2
14840KMKG MKG20070520235012205/20/07 23:50:31  5-MIN KMKG 210450Z 10009KT 10SM FEW055 11/07 A3012 440 74 100 110/09 RMK AO2 SLP203 T01110067 401890094
14840KMKG MKG20070520235512205/20/07 23:55:31  5-MIN KMKG 210455Z 11009KT 10SM SCT055 11/07 A3013 440 74 100 110/09 RMK AO2 SLP203 T01110067 401890094
14840KMKG MKG20070521000009505/21/07 00:00:32  5-MIN KMKG 210500Z 11010KT 10SM BKN055 11/07 A3013 440 74 100 110/10 RMK AO2
14840KMKG MKG20070521000509505/21/07 00:05:31  5-MIN KMKG 210505Z 10010KT 10SM BKN055 11/07 A3013 440 74 100 110/10 RMK AO2
14840KMKG MKG20070521001010105/21/07 00:10:31  5-MIN KMKG 210510Z 11010G17KT 10SM BKN055 11/07 A3013 440 74 100 110/10G17 RMK AO2
14840KMKG MKG20070521001510105/21/07 00:15:31  5-MIN KMKG 210515Z 11011G17KT 10SM OVC055 11/07 A3013 440 74 100 110/11G17 RMK AO2
14840KMKG MKG20070521002009505/21/07 00:20:31  5-MIN KMKG 210520Z 11012KT 10SM OVC055 11/06 A3013 440 71 100 120/12 RMK AO2
14840KMKG MKG20070521002509505/21/07 00:25:31  5-MIN KMKG 210525Z 10014KT 10SM OVC055 11/06 A3013 440 71 100 110/14 RMK AO2
14840KMKG MKG20070521003009505/21/07 00:30:31  5-MIN KMKG 210530Z 11011KT 10SM OVC055 11/06 A3013 440 71 100 110/11 RMK AO2
14840KMKG MKG20070521003509505/21/07 00:35:31  5-MIN KMKG 210535Z 11012KT 10SM OVC055 11/06 A3013 440 71 100 110/12 RMK AO2
14840KMKG MKG20070521004009505/21/07 00:40:31  5-MIN KMKG 210540Z 11009KT 10SM OVC055 11/06 A3013 430 71 100 110/09 RMK AO2
14840KMKG MKG20070521004509505/21/07 00:45:31  5-MIN KMKG 210545Z 11010KT 10SM OVC055 11/06 A3013 440 71 100 110/10 RMK AO2
14840KMKG MKG20070521005013005/21/07 00:50:31  5-MIN KMKG 210550Z 11012KT 10SM OVC055 11/06 A3013 440 68 100 110/12 RMK AO2 SLP203 T01110056 10139 20111 53009
14840KMKG MKG20070521005512805/21/07 00:55:31  5-MIN KMKG 210555Z 11008KT 10SM BKN055 11/06 A3013 440 71 0 110/08 RMK AO2 SLP204 T01060056 10139 20106 51007
14840KMKG MKG20070521010009305/21/07 01:00:31  5-MIN KMKG 210600Z 10010KT 10SM BKN055 11/06 A3014 430 71 0 100/10 RMK AO2
14840KMKG MKG20070521010509305/21/07 01:05:31  5-MIN KMKG 210605Z 10010KT 10SM SCT055 11/05 A3014 430 68 0 110/10 RMK AO2
14840KMKG MKG20070521011009905/21/07 01:10:31  5-MIN KMKG 210610Z 10013G19KT 10SM FEW055 11/05 A3013 430 68 0 110/13G19 RMK AO2
14840KMKG MKG20070521011509905/21/07 01:15:31  5-MIN KMKG 210615Z 11010G19KT 10SM FEW055 11/04 A3013 430 66 0 110/10G19 RMK AO2
14840KMKG MKG20070521012009005/21/07 01:20:31  5-MIN KMKG 210620Z 10010KT 10SM CLR 11/04 A3013 430 66 0 110/10 RMK AO2
14840KMKG MKG20070521012509005/21/07 01:25:31  5-MIN KMKG 210625Z 10010KT 10SM CLR 11/04 A3013 430 66 0 100/10 RMK AO2
14840KMKG MKG20070521013009005/21/07 01:30:31  5-MIN KMKG 210630Z 10009KT 10SM CLR 10/04 A3014 430 68 0 100/09 RMK AO2
14840KMKG MKG20070521013509005/21/07 01:35:31  5-MIN KMKG 210635Z 10008KT 10SM CLR 10/04 A3013 430 68 0 100/08 RMK AO2
14840KMKG MKG20070521014009005/21/07 01:40:31  5-MIN KMKG 210640Z 10007KT 10SM CLR 10/04 A3013 430 68 0 100/07 RMK AO2
14840KMKG MKG20070521014509005/21/07 01:45:31  5-MIN KMKG 210645Z 10009KT 10SM CLR 10/04 A3013 430 68 0 100/09 RMK AO2
14840KMKG MKG20070521015010705/21/07 01:50:31  5-MIN KMKG 210650Z 10010KT 10SM CLR 10/04 A3013 430 65 0 100/10 RMK AO2 SLP205 T01000039
14840KMKG MKG20070521015510705/21/07 01:55:31  5-MIN KMKG 210655Z 10010KT 10SM CLR 10/04 A3013 430 65 0 100/10 RMK AO2 SLP205 T01000039
14840KMKG MKG20070521020009605/21/07 02:00:31  5-MIN KMKG 210700Z 10008G15KT 10SM CLR 10/04 A3013 430 65 0 110/08G15 RMK AO2
14840KMKG MKG20070521020509305/21/07 02:05:31  5-MIN KMKG 210705Z 11008KT 10SM FEW055 10/04 A3013 430 65 0 110/08 RMK AO2
14840KMKG MKG20070521021009305/21/07 02:10:31  5-MIN KMKG 210710Z 10010KT 10SM SCT055 10/04 A3014 430 65 0 110/10 RMK AO2
14840KMKG MKG20070521021509305/21/07 02:15:31  5-MIN KMKG 210715Z 10009KT 10SM SCT055 10/04 A3014 430 65 0 110/09 RMK AO2
14840KMKG MKG20070521022009305/21/07 02:20:31  5-MIN KMKG 210720Z 10009KT 10SM SCT055 10/04 A3014 430 65 0 110/09 RMK AO2
14840KMKG MKG20070521022509305/21/07 02:25:31  5-MIN KMKG 210725Z 10010KT 10SM SCT055 10/04 A3014 430 65 0 110/10 RMK AO2
14840KMKG MKG20070521023009305/21/07 02:30:31  5-MIN KMKG 210730Z 10009KT 10SM SCT055 10/04 A3014 430 65 0 100/09 RMK AO2
14840KMKG MKG20070521023510005/21/07 02:35:31  5-MIN KMKG 210735Z 10010KT 10SM FEW055 SCT070 10/04 A3014 430 65 0 110/10 RMK AO2
14840KMKG MKG20070521024010005/21/07 02:40:31  5-MIN KMKG 210740Z 11008KT 10SM FEW055 SCT070 10/04 A3014 430 65 0 110/08 RMK AO2
14840KMKG MKG20070521024509305/21/07 02:45:31  5-MIN KMKG 210745Z 10010KT 10SM BKN070 10/04 A3014 430 65 0 110/10 RMK AO2
14840KMKG MKG20070521025011005/21/07 02:50:31  5-MIN KMKG 210750Z 10009KT 10SM BKN075 10/03 A3014 430 63 0 100/09 RMK AO2 SLP208 T01000033
14840KMKG MKG20070521025511005/21/07 02:55:31  5-MIN KMKG 210755Z 10009KT 10SM BKN075 10/03 A3014 430 63 0 100/09 RMK AO2 SLP208 T01000033
14840KMKG MKG20070521030010005/21/07 03:00:31  5-MIN KMKG 210800Z 10009KT 10SM BKN075 BKN095 10/03 A3014 430 63 0 100/09 RMK AO2
14840KMKG MKG20070521030510005/21/07 03:05:31  5-MIN KMKG 210805Z 10009KT 10SM BKN075 BKN095 10/03 A3014 430 63 0 110/09 RMK AO2
14840KMKG MKG20070521031011505/21/07 03:10:31  5-MIN KMKG 210810Z 09010KT 10SM SCT075 BKN095 10/03 A3014 430 60 0 100/10 RMK AO2 CIG 075 RWY 14
14840KMKG MKG20070521031512205/21/07 03:15:31  5-MIN KMKG 210815Z 09010KT 10SM FEW055 SCT080 BKN095 10/03 A3014 430 60 0 100/10 RMK AO2 CIG 075 RWY 14
14840KMKG MKG20070521032010705/21/07 03:20:31  5-MIN KMKG 210820Z 11009KT 10SM SCT060 BKN080 BKN095 10/03 A3014 430 60 0 110/09 RMK AO2
14840KMKG MKG20070521032510005/21/07 03:25:31  5-MIN KMKG 210825Z 10009KT 10SM SCT060 OVC090 10/02 A3014 420 58 0 110/09 RMK AO2
14840KMKG MKG20070521033010005/21/07 03:30:31  5-MIN KMKG 210830Z 09009KT 10SM SCT060 OVC090 10/02 A3014 430 58 0 100/09 RMK AO2
14840KMKG MKG20070521033510005/21/07 03:35:31  5-MIN KMKG 210835Z 09010KT 10SM BKN060 OVC090 10/02 A3014 430 58 0 100/10 RMK AO2
14840KMKG MKG20070521034010705/21/07 03:40:31  5-MIN KMKG 210840Z 10009KT 10SM BKN060 BKN090 OVC100 10/02 A3014 430 58 0 110/09 RMK AO2
14840KMKG MKG20070521034511305/21/07 03:45:31  5-MIN KMKG 210845Z 10008G15KT 10SM SCT060 BKN085 OVC100 10/02 A3014 430 58 0 110/08G15 RMK AO2
14840KMKG MKG20070521035013005/21/07 03:50:31  5-MIN KMKG 210850Z 10010KT 10SM SCT060 SCT080 BKN100 10/02 A3014 430 58 0 100/10 RMK AO2 SLP205 T01000022 51007
14840KMKG MKG20070521035512305/21/07 03:55:31  5-MIN KMKG 210855Z 10009KT 10SM FEW065 SCT100 10/02 A3014 430 56 0 100/09 RMK AO2 SLP206 T01000017 50001
14840KMKG MKG20070521040010005/21/07 04:00:31  5-MIN KMKG 210900Z 10009KT 10SM FEW065 BKN100 10/02 A3013 430 58 0 110/09 RMK AO2
14840KMKG MKG20070521040510005/21/07 04:05:31  5-MIN KMKG 210905Z 10007KT 10SM FEW065 BKN100 10/02 A3014 430 56 0 110/07 RMK AO2
14840KMKG MKG20070521041010005/21/07 04:10:31  5-MIN KMKG 210910Z 11008KT 10SM SCT060 BKN100 10/02 A3014 430 56 0 110/08 RMK AO2
14840KMKG MKG20070521041510005/21/07 04:15:31  5-MIN KMKG 210915Z 11009KT 10SM SCT060 BKN100 10/02 A3014 430 56 0 110/09 RMK AO2
14840KMKG MKG20070521042011505/21/07 04:20:31  5-MIN KMKG 210920Z 10009KT 10SM SCT060 BKN100 10/02 A3014 430 56 0 110/09 RMK AO2 CIG 060 RWY 14
14840KMKG MKG20070521042511505/21/07 04:25:31  5-MIN KMKG 210925Z 11009KT 10SM SCT060 BKN100 10/02 A3014 430 56 0 110/09 RMK AO2 CIG 070 RWY 14
14840KMKG MKG20070521043010005/21/07 04:30:31  5-MIN KMKG 210930Z 10009KT 10SM SCT055 SCT100 09/02 A3014 430 58 0 110/09 RMK AO2
14840KMKG MKG20070521043509305/21/07 04:35:31  5-MIN KMKG 210935Z 10009KT 10SM SCT050 09/02 A3014 430 58 0 110/09 RMK AO2
14840KMKG MKG20070521044009605/21/07 04:40:31  5-MIN KMKG 210940Z 11007KT 10SM BKN055 09/02 A3014 420 58 -100 120/07 RMK AO2
14840KMKG MKG20070521044509305/21/07 04:45:31  5-MIN KMKG 210945Z 12006KT 10SM BKN055 10/02 A3015 420 56 0 120/06 RMK AO2
14840KMKG MKG20070521045011005/21/07 04:50:31  5-MIN KMKG 210950Z 11008KT 10SM BKN050 10/02 A3014 420 56 0 110/08 RMK AO2 SLP210 T01000017
14840KMKG MKG20070521045511005/21/07 04:55:31  5-MIN KMKG 210955Z 11009KT 10SM BKN050 10/02 A3014 420 56 0 110/09 RMK AO2 SLP209 T01000017
14840KMKG MKG20070521050009305/21/07 05:00:31  5-MIN KMKG 211000Z 11008KT 10SM OVC050 10/02 A3014 430 56 0 110/08 RMK AO2
14840KMKG MKG20070521050509305/21/07 05:05:31  5-MIN KMKG 211005Z 11009KT 10SM OVC055 10/02 A3014 430 56 0 110/09 RMK AO2
14840KMKG MKG20070521051009305/21/07 05:10:31  5-MIN KMKG 211010Z 11008KT 10SM OVC050 10/02 A3014 430 56 0 110/08 RMK AO2
14840KMKG MKG20070521051510005/21/07 05:15:31  5-MIN KMKG 211015Z 11008KT 10SM BKN055 OVC065 10/02 A3014 420 58 0 110/08 RMK AO2
14840KMKG MKG20070521052009305/21/07 05:20:31  5-MIN KMKG 211020Z 11009KT 10SM OVC060 10/02 A3014 430 58 0 120/09 RMK AO2
14840KMKG MKG20070521052510005/21/07 05:25:31  5-MIN KMKG 211025Z 12008KT 10SM BKN060 OVC075 10/02 A3014 420 58 0 120/08 RMK AO2
14840KMKG MKG20070521053010005/21/07 05:30:31  5-MIN KMKG 211030Z 11007KT 10SM BKN060 OVC075 10/02 A3015 420 58 0 120/07 RMK AO2
14840KMKG MKG20070521053510005/21/07 05:35:31  5-MIN KMKG 211035Z 11007KT 10SM SCT055 OVC075 10/02 A3015 420 58 0 120/07 RMK AO2
14840KMKG MKG20070521054010005/21/07 05:40:31  5-MIN KMKG 211040Z 11007KT 10SM BKN060 OVC075 10/02 A3015 420 58 0 120/07 RMK AO2
14840KMKG MKG20070521054510705/21/07 05:45:31  5-MIN KMKG 211045Z 11007KT 10SM FEW027 BKN060 OVC075 10/02 A3016 410 58 0 110/07 RMK AO2
14840KMKG MKG20070521055012405/21/07 05:50:31  5-MIN KMKG 211050Z 11009KT 10SM SCT025 BKN060 OVC075 10/02 A3016 410 58 0 110/09 RMK AO2 SLP214 T01000022
14840KMKG MKG20070521055512405/21/07 05:55:31  5-MIN KMKG 211055Z 11009KT 10SM BKN025 BKN060 OVC075 10/02 A3016 410 58 0 110/09 RMK AO2 SLP214 T01000022
14840KMKG MKG20070521060010705/21/07 06:00:31  5-MIN KMKG 211100Z 10009KT 10SM BKN025 BKN060 OVC075 10/02 A3016 410 58 0 110/09 RMK AO2
14840KMKG MKG20070521060510005/21/07 06:05:31  5-MIN KMKG 211105Z 11009KT 10SM BKN023 OVC060 10/02 A3016 410 58 0 110/09 RMK AO2
14840KMKG MKG20070521061009305/21/07 06:10:31  5-MIN KMKG 211110Z 11007KT 10SM OVC023 10/03 A3016 410 60 0 110/07 RMK AO2
14840KMKG MKG20070521061509305/21/07 06:15:31  5-MIN KMKG 211115Z 10008KT 10SM OVC023 10/03 A3016 410 60 0 110/08 RMK AO2
14840KMKG MKG20070521062010005/21/07 06:20:31  5-MIN KMKG 211120Z 10008KT 10SM BKN021 OVC026 10/03 A3017 400 60 0 110/08 RMK AO2
14840KMKG MKG20070521062509305/21/07 06:25:31  5-MIN KMKG 211125Z 10010KT 10SM OVC021 10/03 A3017 400 60 0 110/10 RMK AO2
14840KMKG MKG20070521063009305/21/07 06:30:31  5-MIN KMKG 211130Z 10008KT 10SM OVC023 10/03 A3017 400 60 0 100/08 RMK AO2
14840KMKG MKG20070521063509305/21/07 06:35:31  5-MIN KMKG 211135Z 10007KT 10SM OVC023 10/03 A3017 400 60 0 100/07 RMK AO2
14840KMKG MKG20070521064009305/21/07 06:40:31  5-MIN KMKG 211140Z 10007KT 10SM OVC023 10/03 A3017 400 60 0 100/07 RMK AO2
14840KMKG MKG20070521064509305/21/07 06:45:31  5-MIN KMKG 211145Z 10007KT 10SM OVC023 10/03 A3017 400 60 0 110/07 RMK AO2
14840KMKG MKG20070521065012805/21/07 06:50:31  5-MIN KMKG 211150Z 11008KT 10SM OVC023 11/03 A3017 400 58 0 110/08 RMK AO2 SLP219 T01060028 10106 20094 50001
14840KMKG MKG20070521065512805/21/07 06:55:31  5-MIN KMKG 211155Z 10007KT 10SM OVC023 11/03 A3017 400 58 0 100/07 RMK AO2 SLP219 T01060028 10106 20094 53012
14840KMKG MKG20070521070009305/21/07 07:00:31  5-MIN KMKG 211200Z 10007KT 10SM OVC023 11/03 A3017 400 58 0 110/07 RMK AO2
14840KMKG MKG20070521070510005/21/07 07:05:31  5-MIN KMKG 211205Z 10008KT 10SM BKN023 OVC055 11/03 A3017 400 58 0 100/08 RMK AO2
14840KMKG MKG20070521071010005/21/07 07:10:31  5-MIN KMKG 211210Z 09008KT 10SM BKN023 OVC055 11/03 A3017 400 58 0 090/08 RMK AO2
14840KMKG MKG20070521071511505/21/07 07:15:31  5-MIN KMKG 211215Z 09009KT 10SM SCT023 BKN055 11/03 A3018 390 58 0 100/09 RMK AO2 CIG 023 RWY 14
14840KMKG MKG20070521072010005/21/07 07:20:31  5-MIN KMKG 211220Z 09007KT 10SM BKN021 BKN055 11/03 A3018 390 61 0 090/07 RMK AO2
14840KMKG MKG20070521072510005/21/07 07:25:31  5-MIN KMKG 211225Z 08008KT 10SM BKN021 BKN055 11/03 A3018 390 61 0 090/08 RMK AO2
14840KMKG MKG20070521073010005/21/07 07:30:31  5-MIN KMKG 211230Z 08007KT 10SM BKN021 BKN055 11/03 A3018 390 61 0 090/07 RMK AO2
14840KMKG MKG20070521073510005/21/07 07:35:31  5-MIN KMKG 211235Z 09007KT 10SM BKN021 OVC060 11/03 A3018 390 61 0 100/07 RMK AO2
14840KMKG MKG20070521074009305/21/07 07:40:31  5-MIN KMKG 211240Z 09008KT 10SM OVC021 11/03 A3017 400 61 0 090/08 RMK AO2
14840KMKG MKG20070521074509305/21/07 07:45:31  5-MIN KMKG 211245Z 09009KT 10SM OVC021 11/03 A3017 400 61 0 100/09 RMK AO2
14840KMKG MKG20070521075011005/21/07 07:50:31  5-MIN KMKG 211250Z 10009KT 10SM OVC021 11/03 A3017 400 61 0 100/09 RMK AO2 SLP218 T01060033
14840KMKG MKG20070521075511005/21/07 07:55:31  5-MIN KMKG 211255Z 11009KT 10SM OVC021 11/03 A3017 400 61 0 110/09 RMK AO2 SLP218 T01060033
14840KMKG MKG20070521080009305/21/07 08:00:31  5-MIN KMKG 211300Z 11010KT 10SM OVC021 11/03 A3017 400 61 0 110/10 RMK AO2
14840KMKG MKG20070521080509305/21/07 08:05:31  5-MIN KMKG 211305Z 11010KT 10SM OVC021 11/03 A3017 400 61 0 110/10 RMK AO2
14840KMKG MKG20070521081009305/21/07 08:10:31  5-MIN KMKG 211310Z 12010KT 10SM OVC023 11/03 A3017 400 61 0 120/10 RMK AO2
14840KMKG MKG20070521081509505/21/07 08:15:31  5-MIN KMKG 211315Z 11011KT 10SM OVC023 11/04 A3017 400 61 100 110/11 RMK AO2
14840KMKG MKG20070521082009505/21/07 08:20:31  5-MIN KMKG 211320Z 11011KT 10SM OVC023 11/03 A3017 400 58 100 110/11 RMK AO2
14840KMKG MKG20070521082509505/21/07 08:25:31  5-MIN KMKG 211325Z 11011KT 10SM OVC023 11/04 A3017 400 61 100 110/11 RMK AO2
14840KMKG MKG20070521083009505/21/07 08:30:31  5-MIN KMKG 211330Z 11011KT 10SM OVC023 11/04 A3016 410 61 100 120/11 RMK AO2
14840KMKG MKG20070521083509505/21/07 08:35:31  5-MIN KMKG 211335Z 11008KT 10SM OVC023 11/04 A3016 410 61 100 110/08 RMK AO2
14840KMKG MKG20070521084009505/21/07 08:40:31  5-MIN KMKG 211340Z 11011KT 10SM OVC023 12/04 A3016 410 58 200 110/11 RMK AO2
14840KMKG MKG20070521084509505/21/07 08:45:31  5-MIN KMKG 211345Z 10010KT 10SM BKN023 12/04 A3016 410 61 200 110/10 RMK AO2
14840KMKG MKG20070521085011205/21/07 08:50:31  5-MIN KMKG 211350Z 10011KT 10SM BKN023 12/04 A3015 410 61 200 110/11 RMK AO2 SLP213 T01170044
14840KMKG MKG20070521085511205/21/07 08:55:31  5-MIN KMKG 211355Z 11010KT 10SM SCT023 12/04 A3015 420 59 200 120/10 RMK AO2 SLP213 T01220044
14840KMKG MKG20070521090009505/21/07 09:00:31  5-MIN KMKG 211400Z 11010KT 10SM FEW023 13/05 A3015 420 59 300 110/10 RMK AO2
14840KMKG MKG20070521090509505/21/07 09:05:31  5-MIN KMKG 211405Z 12011KT 10SM FEW023 13/05 A3015 420 59 300 130/11 RMK AO2
14840KMKG MKG20070521091009205/21/07 09:10:31  5-MIN KMKG 211410Z 11007KT 10SM CLR 13/05 A3015 420 59 300 110/07 RMK AO2
14840KMKG MKG20070521091509205/21/07 09:15:31  5-MIN KMKG 211415Z 12009KT 10SM CLR 13/05 A3015 420 59 300 120/09 RMK AO2
14840KMKG MKG20070521092009205/21/07 09:20:31  5-MIN KMKG 211420Z 10009KT 10SM CLR 13/06 A3015 420 59 400 110/09 RMK AO2
14840KMKG MKG20070521092509205/21/07 09:25:31  5-MIN KMKG 211425Z 12009KT 10SM CLR 14/06 A3015 420 55 500 130/09 RMK AO2
14840KMKG MKG20070521093009205/21/07 09:30:31  5-MIN KMKG 211430Z 13008KT 10SM CLR 14/06 A3015 420 57 500 130/08 RMK AO2
14840KMKG MKG20070521093509205/21/07 09:35:31  5-MIN KMKG 211435Z 11010KT 10SM CLR 14/06 A3015 420 57 500 120/10 RMK AO2
14840KMKG MKG20070521094009205/21/07 09:40:31  5-MIN KMKG 211440Z 13011KT 10SM CLR 14/06 A3015 420 57 500 130/11 RMK AO2
14840KMKG MKG20070521094509205/21/07 09:45:31  5-MIN KMKG 211445Z 11011KT 10SM CLR 14/06 A3015 420 57 500 120/11 RMK AO2
14840KMKG MKG20070521095011505/21/07 09:50:31  5-MIN KMKG 211450Z 11009KT 10SM CLR 14/06 A3015 420 59 400 120/09 RMK AO2 SLP210 T01390061 53012
14840KMKG MKG20070521095511505/21/07 09:55:31  5-MIN KMKG 211455Z 10010KT 10SM CLR 14/06 A3015 410 59 400 110/10 RMK AO2 SLP212 T01390061 55006
14840KMKG MKG20070521100009205/21/07 10:00:31  5-MIN KMKG 211500Z 11008KT 10SM CLR 14/06 A3016 410 59 400 120/08 RMK AO2
14840KMKG MKG20070521100509205/21/07 10:05:31  5-MIN KMKG 211505Z 11010KT 10SM CLR 14/07 A3016 410 59 500 120/10 RMK AO2
14840KMKG MKG20070521101009205/21/07 10:10:31  5-MIN KMKG 211510Z 12010KT 10SM CLR 15/07 A3015 420 57 600 130/10 RMK AO2
14840KMKG MKG20070521101509205/21/07 10:15:31  5-MIN KMKG 211515Z 12010KT 10SM CLR 16/07 A3015 420 57 600 120/10 RMK AO2
14840KMKG MKG20070521102009205/21/07 10:20:31  5-MIN KMKG 211520Z 13008KT 10SM CLR 15/07 A3015 410 59 600 130/08 RMK AO2
14840KMKG MKG20070521102509505/21/07 10:25:31  5-MIN KMKG 211525Z 10009KT 10SM FEW095 15/07 A3016 410 59 600 110/09 RMK AO2
14840KMKG MKG20070521103009505/21/07 10:30:31  5-MIN KMKG 211530Z 10007KT 10SM FEW100 15/07 A3015 420 59 600 100/07 RMK AO2
14840KMKG MKG20070521103509505/21/07 10:35:31  5-MIN KMKG 211535Z 11007KT 10SM FEW100 16/07 A3015 410 57 600 110/07 RMK AO2
14840KMKG MKG20070521104009505/21/07 10:40:31  5-MIN KMKG 211540Z 11007KT 10SM FEW100 15/07 A3015 420 59 600 120/07 RMK AO2
14840KMKG MKG20070521104509505/21/07 10:45:31  5-MIN KMKG 211545Z 11007KT 10SM FEW095 16/08 A3015 420 59 600 110/07 RMK AO2
14840KMKG MKG20070521105011205/21/07 10:50:31  5-MIN KMKG 211550Z 10011KT 10SM FEW100 16/08 A3015 420 57 700 100/11 RMK AO2 SLP211 T01610078
14840KMKG MKG20070521105511205/21/07 10:55:31  5-MIN KMKG 211555Z 10007KT 10SM FEW100 16/08 A3015 420 59 600 100/07 RMK AO2 SLP211 T01560078
14840KMKG MKG20070521110009205/21/07 11:00:31  5-MIN KMKG 211600Z 12010KT 10SM CLR 17/08 A3015 420 57 800 130/10 RMK AO2
14840KMKG MKG20070521110509205/21/07 11:05:31  5-MIN KMKG 211605Z 10009KT 10SM CLR 16/08 A3015 420 59 700 110/09 RMK AO2
14840KMKG MKG20070521111009205/21/07 11:10:31  5-MIN KMKG 211610Z 10005KT 10SM CLR 17/08 A3015 420 57 700 100/05 RMK AO2
14840KMKG MKG20070521111509205/21/07 11:15:31  5-MIN KMKG 211615Z 10008KT 10SM CLR 17/09 A3015 420 57 800 100/08 RMK AO2
14840KMKG MKG20070521112009205/21/07 11:20:31  5-MIN KMKG 211620Z 13009KT 10SM CLR 17/09 A3015 420 57 800 140/09 RMK AO2
14840KMKG MKG20070521112509205/21/07 11:25:31  5-MIN KMKG 211625Z 11008KT 10SM CLR 17/09 A3015 420 57 800 120/08 RMK AO2
14840KMKG MKG20070521113009205/21/07 11:30:31  5-MIN KMKG 211630Z 13009KT 10SM CLR 18/09 A3015 420 56 900 140/09 RMK AO2
14840KMKG MKG20070521113509305/21/07 11:35:31  5-MIN KMKG 211635Z 11008KT 10SM CLR 19/09 A3015 420 54 1000 110/08 RMK AO2
14840KMKG MKG20070521114009205/21/07 11:40:31  5-MIN KMKG 211640Z 13011KT 10SM CLR 18/09 A3015 420 56 900 130/11 RMK AO2
14840KMKG MKG20070521114509205/21/07 11:45:31  5-MIN KMKG 211645Z 12006KT 10SM CLR 18/09 A3015 420 56 900 120/06 RMK AO2
14840KMKG MKG20070521115010905/21/07 11:50:31  5-MIN KMKG 211650Z 13008KT 10SM CLR 18/09 A3015 420 56 900 130/08 RMK AO2 SLP209 T01830094
14840KMKG MKG20070521115510905/21/07 11:55:31  5-MIN KMKG 211655Z 12008KT 10SM CLR 18/09 A3015 420 56 900 130/08 RMK AO2 SLP209 T01830094
14840KMKG MKG20070521120009305/21/07 12:00:31  5-MIN KMKG 211700Z 12007KT 10SM CLR 18/09 A3015 420 56 1000 130/07 RMK AO2
14840KMKG MKG20070521120509305/21/07 12:05:31  5-MIN KMKG 211705Z 15008KT 10SM CLR 19/10 A3014 420 54 1100 160/08 RMK AO2
14840KMKG MKG20070521121009305/21/07 12:10:31  5-MIN KMKG 211710Z 13009KT 10SM CLR 19/09 A3014 430 54 1000 130/09 RMK AO2
14840KMKG MKG20070521121509305/21/07 12:15:31  5-MIN KMKG 211715Z VRB06KT 10SM CLR 19/09 A3014 430 54 1000 VRB/06 RMK AO2
14840KMKG MKG20070521122009905/21/07 12:20:31  5-MIN KMKG 211720Z 11009G14KT 10SM CLR 19/10 A3014 430 54 1100 110/09G14 RMK AO2
14840KMKG MKG20070521122509905/21/07 12:25:31  5-MIN KMKG 211725Z 12008G14KT 10SM CLR 19/10 A3014 430 54 1100 120/08G14 RMK AO2
14840KMKG MKG20070521123009305/21/07 12:30:31  5-MIN KMKG 211730Z 13007KT 10SM CLR 19/10 A3013 430 54 1100 130/07 RMK AO2
14840KMKG MKG20070521123509305/21/07 12:35:31  5-MIN KMKG 211735Z 13006KT 10SM CLR 19/10 A3013 430 56 1000 140/06 RMK AO2
14840KMKG MKG20070521124009905/21/07 12:40:31  5-MIN KMKG 211740Z 13009G15KT 10SM CLR 19/10 A3013 430 56 1000 130/09G15 RMK AO2
14840KMKG MKG20070521124509905/21/07 12:45:31  5-MIN KMKG 211745Z 13008G15KT 10SM CLR 19/10 A3013 440 56 1000 140/08G15 RMK AO2
14840KMKG MKG20070521125013105/21/07 12:50:31  5-MIN KMKG 211750Z 15009KT 10SM FEW090 19/10 A3013 430 54 1100 160/09 RMK AO2 SLP204 T01940100 10194 20106 55006
14840KMKG MKG20070521125513105/21/07 12:55:31  5-MIN KMKG 211755Z 15007KT 10SM FEW090 19/10 A3013 430 54 1100 150/07 RMK AO2 SLP204 T01940100 10194 20106 58006
14840KMKG MKG20070521130009605/21/07 13:00:31  5-MIN KMKG 211800Z 12008KT 10SM FEW090 19/11 A3013 430 56 1100 130/08 RMK AO2
14840KMKG MKG20070521130509605/21/07 13:05:31  5-MIN KMKG 211805Z 11008KT 10SM FEW090 20/10 A3013 440 52 1200 110/08 RMK AO2
14840KMKG MKG20070521131009605/21/07 13:10:31  5-MIN KMKG 211810Z 10007KT 10SM FEW090 19/10 A3013 440 54 1100 110/07 RMK AO2
14840KMKG MKG20070521131509605/21/07 13:15:31  5-MIN KMKG 211815Z 13006KT 10SM FEW090 20/10 A3013 440 52 1200 140/06 RMK AO2
14840KMKG MKG20070521132009605/21/07 13:20:31  5-MIN KMKG 211820Z 11009KT 10SM FEW090 21/11 A3013 440 52 1200 120/09 RMK AO2
14840KMKG MKG20070521132509305/21/07 13:25:31  5-MIN KMKG 211825Z 11008KT 10SM CLR 21/11 A3013 440 52 1200 120/08 RMK AO2
14840KMKG MKG20070521133009305/21/07 13:30:31  5-MIN KMKG 211830Z 13009KT 10SM CLR 21/11 A3012 440 52 1200 130/09 RMK AO2
14840KMKG MKG20070521133509305/21/07 13:35:31  5-MIN KMKG 211835Z 12007KT 10SM CLR 21/11 A3012 440 52 1200 130/07 RMK AO2
14840KMKG MKG20070521134009305/21/07 13:40:31  5-MIN KMKG 211840Z 08008KT 10SM CLR 21/11 A3012 450 52 1200 090/08 RMK AO2
14840KMKG MKG20070521134509905/21/07 13:45:31  5-MIN KMKG 211845Z 10008G17KT 10SM CLR 21/11 A3012 450 50 1300 110/08G17 RMK AO2
14840KMKG MKG20070521135011605/21/07 13:50:31  5-MIN KMKG 211850Z 11008G17KT 10SM CLR 21/11 A3012 450 52 1200 120/08G17 RMK AO2 SLP199 T02060106
14840KMKG MKG20070521135512605/21/07 13:55:31  5-MIN KMKG 211855Z 11009KT 070V130 10SM CLR 21/11 A3012 450 50 1300 120/09 070V130 RMK AO2 SLP198 T02110106
14840KMKG MKG20070521140009305/21/07 14:00:31  5-MIN KMKG 211900Z 11008KT 10SM CLR 21/11 A3011 450 50 1300 110/08 RMK AO2
14840KMKG MKG20070521140509905/21/07 14:05:31  5-MIN KMKG 211905Z 11010G14KT 10SM CLR 21/11 A3011 450 50 1300 110/10G14 RMK AO2
14840KMKG MKG20070521141009305/21/07 14:10:31  5-MIN KMKG 211910Z 10007KT 10SM CLR 21/11 A3011 450 50 1300 100/07 RMK AO2
14840KMKG MKG20070521141509305/21/07 14:15:31  5-MIN KMKG 211915Z 10009KT 10SM CLR 22/11 A3011 450 49 1400 110/09 RMK AO2
14840KMKG MKG20070521142009305/21/07 14:20:31  5-MIN KMKG 211920Z 11011KT 10SM CLR 22/11 A3012 450 49 1400 120/11 RMK AO2
14840KMKG MKG20070521142509305/21/07 14:25:31  5-MIN KMKG 211925Z 10008KT 10SM CLR 22/11 A3012 450 50 1400 100/08 RMK AO2
14840KMKG MKG20070521143009305/21/07 14:30:31  5-MIN KMKG 211930Z 11007KT 10SM CLR 21/11 A3012 450 50 1300 110/07 RMK AO2
14840KMKG MKG20070521143509305/21/07 14:35:31  5-MIN KMKG 211935Z 11009KT 10SM CLR 22/11 A3011 450 50 1400 120/09 RMK AO2
14840KMKG MKG20070521144009305/21/07 14:40:31  5-MIN KMKG 211940Z 10009KT 10SM CLR 22/11 A3011 450 49 1400 100/09 RMK AO2
14840KMKG MKG20070521144509305/21/07 14:45:31  5-MIN KMKG 211945Z 12011KT 10SM CLR 22/11 A3011 450 49 1400 130/11 RMK AO2
14840KMKG MKG20070521145011005/21/07 14:50:31  5-MIN KMKG 211950Z 12007KT 10SM CLR 22/11 A3011 450 49 1400 120/07 RMK AO2 SLP196 T02170106
14840KMKG MKG20070521145511005/21/07 14:55:31  5-MIN KMKG 211955Z 14010KT 10SM CLR 22/11 A3011 450 49 1400 140/10 RMK AO2 SLP197 T02220111
14840KMKG MKG20070521150009305/21/07 15:00:31  5-MIN KMKG 212000Z VRB06KT 10SM CLR 22/11 A3011 450 50 1400 VRB/06 RMK AO2
14840KMKG MKG20070521150509305/21/07 15:05:31  5-MIN KMKG 212005Z 11008KT 10SM CLR 22/11 A3011 450 50 1400 110/08 RMK AO2
14840KMKG MKG20070521151009305/21/07 15:10:31  5-MIN KMKG 212010Z VRB04KT 10SM CLR 22/11 A3011 460 50 1400 VRB/04 RMK AO2
14840KMKG MKG20070521151509305/21/07 15:15:31  5-MIN KMKG 212015Z 10008KT 10SM CLR 22/11 A3011 460 49 1400 100/08 RMK AO2
14840KMKG MKG20070521152009305/21/07 15:20:31  5-MIN KMKG 212020Z 11010KT 10SM CLR 22/11 A3011 460 49 1400 110/10 RMK AO2
14840KMKG MKG20070521152509305/21/07 15:25:31  5-MIN KMKG 212025Z 10009KT 10SM CLR 22/11 A3011 460 49 1400 110/09 RMK AO2
14840KMKG MKG20070521153009305/21/07 15:30:31  5-MIN KMKG 212030Z 10009KT 10SM CLR 22/11 A3011 460 49 1400 100/09 RMK AO2
14840KMKG MKG20070521153509905/21/07 15:35:31  5-MIN KMKG 212035Z 12010G14KT 10SM CLR 22/11 A3011 460 49 1400 120/10G14 RMK AO2
14840KMKG MKG20070521154010205/21/07 15:40:31  5-MIN KMKG 212040Z 09006G14KT 10SM FEW080 22/11 A3011 460 50 1400 100/06G14 RMK AO2
14840KMKG MKG20070521154509605/21/07 15:45:31  5-MIN KMKG 212045Z 11008KT 10SM FEW080 22/11 A3010 460 49 1400 110/08 RMK AO2
14840KMKG MKG20070521155011905/21/07 15:50:31  5-MIN KMKG 212050Z 13009KT 10SM FEW075 22/12 A3010 460 51 1400 130/09 RMK AO2 SLP194 T02220117 58006
14840KMKG MKG20070521155511905/21/07 15:55:31  5-MIN KMKG 212055Z 13005KT 10SM FEW080 22/12 A3010 460 51 1400 140/05 RMK AO2 SLP193 T02220117 56011
14840KMKG MKG20070521160009605/21/07 16:00:31  5-MIN KMKG 212100Z 10007KT 10SM FEW080 22/12 A3010 460 51 1500 110/07 RMK AO2
14840KMKG MKG20070521160509605/21/07 16:05:31  5-MIN KMKG 212105Z 11010KT 10SM FEW080 22/12 A3010 460 51 1500 110/10 RMK AO2
14840KMKG MKG20070521161009605/21/07 16:10:31  5-MIN KMKG 212110Z 12007KT 10SM FEW075 22/11 A3010 470 49 1500 130/07 RMK AO2
14840KMKG MKG20070521161509305/21/07 16:15:31  5-MIN KMKG 212115Z 13008KT 10SM CLR 22/12 A3010 470 51 1500 140/08 RMK AO2
14840KMKG MKG20070521162009305/21/07 16:20:31  5-MIN KMKG 212120Z 12006KT 10SM CLR 22/12 A3010 470 51 1500 120/06 RMK AO2
14840KMKG MKG20070521162509305/21/07 16:25:31  5-MIN KMKG 212125Z 13009KT 10SM CLR 23/12 A3010 470 49 1500 130/09 RMK AO2
14840KMKG MKG20070521163009305/21/07 16:30:31  5-MIN KMKG 212130Z 11009KT 10SM CLR 22/12 A3010 470 51 1500 110/09 RMK AO2
14840KMKG MKG20070521163509305/21/07 16:35:31  5-MIN KMKG 212135Z 11007KT 10SM CLR 22/12 A3010 470 51 1500 110/07 RMK AO2
14840KMKG MKG20070521164010905/21/07 16:40:31  5-MIN KMKG 212140Z 13008KT 090V160 10SM CLR 23/12 A3010 470 49 1500 130/08 090V160 RMK AO2
14840KMKG MKG20070521164509305/21/07 16:45:31  5-MIN KMKG 212145Z 12010KT 10SM CLR 23/12 A3009 470 49 1500 120/10 RMK AO2
14840KMKG MKG20070521165011005/21/07 16:50:31  5-MIN KMKG 212150Z 10008KT 10SM CLR 23/12 A3009 470 49 1500 110/08 RMK AO2 SLP190 T02280117
14840KMKG MKG20070521165511005/21/07 16:55:31  5-MIN KMKG 212155Z 12009KT 10SM CLR 22/12 A3009 470 51 1500 120/09 RMK AO2 SLP189 T02220117
14840KMKG MKG20070521170009305/21/07 17:00:31  5-MIN KMKG 212200Z 12009KT 10SM CLR 22/12 A3009 470 51 1500 120/09 RMK AO2
14840KMKG MKG20070521170509305/21/07 17:05:31  5-MIN KMKG 212205Z 12008KT 10SM CLR 23/12 A3009 470 49 1500 130/08 RMK AO2
14840KMKG MKG20070521171009305/21/07 17:10:31  5-MIN KMKG 212210Z 10009KT 10SM CLR 22/12 A3009 480 51 1500 110/09 RMK AO2
14840KMKG MKG20070521171509305/21/07 17:15:31  5-MIN KMKG 212215Z 13006KT 10SM CLR 22/12 A3009 470 51 1500 130/06 RMK AO2
14840KMKG MKG20070521172009905/21/07 17:20:31  5-MIN KMKG 212220Z 13011G15KT 10SM CLR 22/12 A3009 470 51 1500 140/11G15 RMK AO2
14840KMKG MKG20070521172509305/21/07 17:25:31  5-MIN KMKG 212225Z 10008KT 10SM CLR 22/12 A3009 480 51 1500 100/08 RMK AO2
14840KMKG MKG20070521173009305/21/07 17:30:31  5-MIN KMKG 212230Z 12009KT 10SM CLR 22/12 A3009 480 51 1500 130/09 RMK AO2
14840KMKG MKG20070521173509305/21/07 17:35:31  5-MIN KMKG 212235Z 10010KT 10SM CLR 22/12 A3009 480 51 1500 100/10 RMK AO2
14840KMKG MKG20070521174009305/21/07 17:40:31  5-MIN KMKG 212240Z 11011KT 10SM CLR 22/12 A3008 480 51 1500 120/11 RMK AO2
14840KMKG MKG20070521174509305/21/07 17:45:31  5-MIN KMKG 212245Z 11011KT 10SM CLR 22/12 A3008 480 52 1500 110/11 RMK AO2
14840KMKG MKG20070521175011005/21/07 17:50:31  5-MIN KMKG 212250Z 10008KT 10SM CLR 22/12 A3008 480 52 1500 110/08 RMK AO2 SLP187 T02220122
14840KMKG MKG20070521175511005/21/07 17:55:31  5-MIN KMKG 212255Z 11011KT 10SM CLR 22/12 A3008 480 52 1500 110/11 RMK AO2 SLP187 T02220122
14840KMKG MKG20070521180009305/21/07 18:00:31  5-MIN KMKG 212300Z 12010KT 10SM CLR 22/12 A3008 480 52 1500 120/10 RMK AO2
14840KMKG MKG20070521180509305/21/07 18:05:31  5-MIN KMKG 212305Z 12009KT 10SM CLR 22/12 A3008 480 52 1500 130/09 RMK AO2
14840KMKG MKG20070521181009305/21/07 18:10:31  5-MIN KMKG 212310Z 13012KT 10SM CLR 22/12 A3008 480 52 1500 130/12 RMK AO2
14840KMKG MKG20070521181509605/21/07 18:15:31  5-MIN KMKG 212315Z 11011KT 10SM FEW090 22/12 A3008 480 52 1500 120/11 RMK AO2
14840KMKG MKG20070521182009305/21/07 18:20:31  5-MIN KMKG 212320Z 11011KT 10SM CLR 22/12 A3008 480 54 1400 110/11 RMK AO2
14840KMKG MKG20070521182509305/21/07 18:25:31  5-MIN KMKG 212325Z 10011KT 10SM CLR 22/12 A3008 480 54 1400 110/11 RMK AO2
14840KMKG MKG20070521183009305/21/07 18:30:31  5-MIN KMKG 212330Z 12011KT 10SM CLR 22/12 A3008 480 54 1400 130/11 RMK AO2
14840KMKG MKG20070521183509605/21/07 18:35:31  5-MIN KMKG 212335Z 13010KT 10SM FEW090 22/12 A3008 490 54 1400 130/10 RMK AO2
14840KMKG MKG20070521184009305/21/07 18:40:31  5-MIN KMKG 212340Z 13011KT 10SM CLR 22/12 A3008 480 54 1400 130/11 RMK AO2
14840KMKG MKG20070521184509305/21/07 18:45:31  5-MIN KMKG 212345Z 11011KT 10SM CLR 22/12 A3008 490 54 1400 120/11 RMK AO2
14840KMKG MKG20070521185012805/21/07 18:50:31  5-MIN KMKG 212350Z 11009KT 10SM CLR 22/12 A3008 490 54 1400 120/09 RMK AO2 SLP184 T02170122 10228 20194 56011
14840KMKG MKG20070521185512805/21/07 18:55:31  5-MIN KMKG 212355Z 11011KT 10SM CLR 22/12 A3007 490 54 1400 120/11 RMK AO2 SLP184 T02170122 10228 20194 56009
14840KMKG MKG20070521190009305/21/07 19:00:31  5-MIN KMKG 220000Z 12011KT 10SM CLR 22/12 A3008 490 54 1400 120/11 RMK AO2
14840KMKG MKG20070521190509305/21/07 19:05:31  5-MIN KMKG 220005Z 11011KT 10SM CLR 22/12 A3007 490 54 1400 120/11 RMK AO2
14840KMKG MKG20070521191009305/21/07 19:10:31  5-MIN KMKG 220010Z 11009KT 10SM CLR 22/12 A3007 490 54 1400 120/09 RMK AO2
14840KMKG MKG20070521191509305/21/07 19:15:31  5-MIN KMKG 220015Z 11011KT 10SM CLR 21/12 A3007 490 56 1400 110/11 RMK AO2
14840KMKG MKG20070521192009305/21/07 19:20:31  5-MIN KMKG 220020Z 11011KT 10SM CLR 21/12 A3007 490 56 1400 110/11 RMK AO2
14840KMKG MKG20070521192509305/21/07 19:25:31  5-MIN KMKG 220025Z 11009KT 10SM CLR 21/12 A3007 490 56 1400 110/09 RMK AO2
14840KMKG MKG20070521193009305/21/07 19:30:31  5-MIN KMKG 220030Z 10009KT 10SM CLR 21/12 A3007 490 58 1300 110/09 RMK AO2
14840KMKG MKG20070521193509905/21/07 19:35:31  5-MIN KMKG 220035Z 11010G15KT 10SM CLR 21/12 A3007 490 58 1300 110/10G15 RMK AO2
14840KMKG MKG20070521194009905/21/07 19:40:31  5-MIN KMKG 220040Z 11009G15KT 10SM CLR 21/12 A3007 490 58 1300 110/09G15 RMK AO2
14840KMKG MKG20070521194509305/21/07 19:45:31  5-MIN KMKG 220045Z 11008KT 10SM CLR 21/12 A3007 490 58 1300 110/08 RMK AO2
14840KMKG MKG20070521195011005/21/07 19:50:31  5-MIN KMKG 220050Z 10008KT 10SM CLR 20/12 A3007 490 60 1200 110/08 RMK AO2 SLP183 T02000122
14840KMKG MKG20070521195511005/21/07 19:55:31  5-MIN KMKG 220055Z 11007KT 10SM CLR 20/12 A3007 490 60 1200 110/07 RMK AO2 SLP183 T02000122
14840KMKG MKG20070521200009305/21/07 20:00:31  5-MIN KMKG 220100Z 11006KT 10SM CLR 20/12 A3007 490 60 1200 110/06 RMK AO2
14840KMKG MKG20070521200509305/21/07 20:05:31  5-MIN KMKG 220105Z 10008KT 10SM CLR 19/12 A3008 490 62 1200 110/08 RMK AO2
14840KMKG MKG20070521201009305/21/07 20:10:31  5-MIN KMKG 220110Z 11007KT 10SM CLR 19/12 A3008 490 62 1200 110/07 RMK AO2
14840KMKG MKG20070521201509305/21/07 20:15:31  5-MIN KMKG 220115Z 10007KT 10SM CLR 19/12 A3008 490 62 1200 110/07 RMK AO2
14840KMKG MKG20070521202009305/21/07 20:20:31  5-MIN KMKG 220120Z 10006KT 10SM CLR 19/12 A3008 490 62 1200 110/06 RMK AO2
14840KMKG MKG20070521202509305/21/07 20:25:31  5-MIN KMKG 220125Z 10007KT 10SM CLR 19/12 A3008 480 65 1100 110/07 RMK AO2
14840KMKG MKG20070521203009305/21/07 20:30:31  5-MIN KMKG 220130Z 11007KT 10SM CLR 19/12 A3008 480 65 1100 110/07 RMK AO2
14840KMKG MKG20070521203509305/21/07 20:35:31  5-MIN KMKG 220135Z 10008KT 10SM CLR 19/12 A3008 480 65 1100 110/08 RMK AO2
14840KMKG MKG20070521204009305/21/07 20:40:31  5-MIN KMKG 220140Z 10008KT 10SM CLR 19/12 A3008 480 65 1100 110/08 RMK AO2
14840KMKG MKG20070521204509305/21/07 20:45:31  5-MIN KMKG 220145Z 10008KT 10SM CLR 18/12 A3008 480 67 1000 110/08 RMK AO2
14840KMKG MKG20070521205011005/21/07 20:50:31  5-MIN KMKG 220150Z 10008KT 10SM CLR 18/12 A3008 480 67 1000 100/08 RMK AO2 SLP187 T01830122
14840KMKG MKG20070521205511005/21/07 20:55:31  5-MIN KMKG 220155Z 10007KT 10SM CLR 18/12 A3008 480 67 1000 100/07 RMK AO2 SLP187 T01830122
14840KMKG MKG20070521210009305/21/07 21:00:31  5-MIN KMKG 220200Z 10007KT 10SM CLR 18/12 A3009 480 67 1000 110/07 RMK AO2
14840KMKG MKG20070521210509305/21/07 21:05:31  5-MIN KMKG 220205Z 11008KT 10SM CLR 18/12 A3009 480 67 1000 110/08 RMK AO2
14840KMKG MKG20070521211009305/21/07 21:10:31  5-MIN KMKG 220210Z 11007KT 10SM CLR 18/12 A3009 470 67 1000 110/07 RMK AO2
14840KMKG MKG20070521211509305/21/07 21:15:31  5-MIN KMKG 220215Z 10008KT 10SM CLR 18/12 A3009 470 67 1000 110/08 RMK AO2
14840KMKG MKG20070521212009205/21/07 21:20:31  5-MIN KMKG 220220Z 11008KT 10SM CLR 18/12 A3009 470 69 900 110/08 RMK AO2
14840KMKG MKG20070521212509205/21/07 21:25:31  5-MIN KMKG 220225Z 11007KT 10SM CLR 18/12 A3009 470 69 900 110/07 RMK AO2
14840KMKG MKG20070521213009205/21/07 21:30:31  5-MIN KMKG 220230Z 10007KT 10SM CLR 18/12 A3009 470 69 900 100/07 RMK AO2
14840KMKG MKG20070521213509205/21/07 21:35:31  5-MIN KMKG 220235Z 10008KT 10SM CLR 18/12 A3009 470 69 900 100/08 RMK AO2
14840KMKG MKG20070521214009205/21/07 21:40:31  5-MIN KMKG 220240Z 11008KT 10SM CLR 18/12 A3009 470 69 900 110/08 RMK AO2
14840KMKG MKG20070521214509205/21/07 21:45:31  5-MIN KMKG 220245Z 11007KT 10SM CLR 17/12 A3009 470 72 900 110/07 RMK AO2
14840KMKG MKG20070521215011505/21/07 21:50:31  5-MIN KMKG 220250Z 11007KT 10SM CLR 17/12 A3009 470 72 900 110/07 RMK AO2 SLP190 T01720122 56009
14840KMKG MKG20070521215511505/21/07 21:55:31  5-MIN KMKG 220255Z 10008KT 10SM CLR 17/12 A3009 470 72 900 110/08 RMK AO2 SLP190 T01720122 53006
14840KMKG MKG20070521220009205/21/07 22:00:31  5-MIN KMKG 220300Z 11009KT 10SM CLR 17/12 A3009 470 69 900 110/09 RMK AO2
14840KMKG MKG20070521220509205/21/07 22:05:31  5-MIN KMKG 220305Z 11008KT 10SM CLR 17/12 A3009 470 69 900 110/08 RMK AO2
14840KMKG MKG20070521221009205/21/07 22:10:31  5-MIN KMKG 220310Z 11007KT 10SM CLR 17/12 A3009 470 69 900 110/07 RMK AO2
14840KMKG MKG20070521221509205/21/07 22:15:31  5-MIN KMKG 220315Z 11007KT 10SM CLR 17/12 A3009 470 72 800 110/07 RMK AO2
14840KMKG MKG20070521222009205/21/07 22:20:31  5-MIN KMKG 220320Z 11008KT 10SM CLR 17/12 A3009 470 72 800 110/08 RMK AO2
14840KMKG MKG20070521222509205/21/07 22:25:31  5-MIN KMKG 220325Z 11007KT 10SM CLR 17/12 A3009 470 72 800 110/07 RMK AO2
14840KMKG MKG20070521223009205/21/07 22:30:31  5-MIN KMKG 220330Z 11007KT 10SM CLR 17/12 A3009 470 72 800 110/07 RMK AO2
14840KMKG MKG20070521223509205/21/07 22:35:31  5-MIN KMKG 220335Z 11007KT 10SM CLR 17/12 A3009 470 72 800 110/07 RMK AO2
14840KMKG MKG20070521224009205/21/07 22:40:31  5-MIN KMKG 220340Z 11007KT 10SM CLR 17/12 A3009 470 72 800 110/07 RMK AO2
14840KMKG MKG20070521224509205/21/07 22:45:31  5-MIN KMKG 220345Z 11009KT 10SM CLR 17/12 A3009 470 72 800 110/09 RMK AO2
14840KMKG MKG20070521225010905/21/07 22:50:31  5-MIN KMKG 220350Z 11008KT 10SM CLR 17/12 A3009 470 72 800 110/08 RMK AO2 SLP190 T01670117
14840KMKG MKG20070521225510905/21/07 22:55:31  5-MIN KMKG 220355Z 11008KT 10SM CLR 16/12 A3009 470 75 800 110/08 RMK AO2 SLP190 T01610117
14840KMKG MKG20070521230009205/21/07 23:00:31  5-MIN KMKG 220400Z 11008KT 10SM CLR 17/12 A3009 470 72 800 110/08 RMK AO2
14840KMKG MKG20070521230509205/21/07 23:05:31  5-MIN KMKG 220405Z 11008KT 10SM CLR 17/12 A3009 470 72 800 110/08 RMK AO2
14840KMKG MKG20070521231009205/21/07 23:10:31  5-MIN KMKG 220410Z 11009KT 10SM CLR 17/12 A3009 470 72 800 110/09 RMK AO2
14840KMKG MKG20070521231509205/21/07 23:15:31  5-MIN KMKG 220415Z 11008KT 10SM CLR 16/12 A3009 470 75 800 110/08 RMK AO2
14840KMKG MKG20070521232009205/21/07 23:20:31  5-MIN KMKG 220420Z 11008KT 10SM CLR 16/12 A3009 470 75 800 110/08 RMK AO2
14840KMKG MKG20070521232509205/21/07 23:25:31  5-MIN KMKG 220425Z 11008KT 10SM CLR 16/12 A3009 470 75 800 120/08 RMK AO2
14840KMKG MKG20070522041011705/22/07 04:10:31  5-MIN KMKG 220910Z AUTO 12006KT A3010 M M M 120/06 RMK AO2 FZRANO TSNO CHINO RWY 14 VISNO RWY 14 $
14840KMKG MKG20070522041509405/22/07 04:15:31  5-MIN KMKG 220915Z 11006KT 10SM CLR 13/09 A3010 460 77 400 120/06 RMK AO2 $
14840KMKG MKG20070522042009405/22/07 04:20:31  5-MIN KMKG 220920Z 12005KT 10SM CLR 13/09 A3010 460 80 300 130/05 RMK AO2 $
14840KMKG MKG20070522042509405/22/07 04:25:31  5-MIN KMKG 220925Z 14004KT 10SM CLR 13/09 A3011 460 80 300 150/04 RMK AO2 $
14840KMKG MKG20070522043009405/22/07 04:30:31  5-MIN KMKG 220930Z 12006KT 10SM CLR 12/09 A3010 460 83 300 120/06 RMK AO2 $
14840KMKG MKG20070522043509405/22/07 04:35:31  5-MIN KMKG 220935Z 12006KT 10SM CLR 13/09 A3010 460 80 300 130/06 RMK AO2 $
14840KMKG MKG20070522044009405/22/07 04:40:31  5-MIN KMKG 220940Z 12006KT 10SM CLR 13/09 A3010 460 80 300 130/06 RMK AO2 $
14840KMKG MKG20070522044509405/22/07 04:45:31  5-MIN KMKG 220945Z 13006KT 10SM CLR 12/09 A3011 460 83 300 130/06 RMK AO2 $
14840KMKG MKG20070522045011005/22/07 04:50:31  5-MIN KMKG 220950Z 13006KT 9SM CLR 12/09 A3011 460 83 300 130/06 RMK AO2 SLP195 T01220094 $
14840KMKG MKG20070522045511005/22/07 04:55:31  5-MIN KMKG 220955Z 13007KT 9SM CLR 12/09 A3011 460 83 300 140/07 RMK AO2 SLP196 T01220094 $
14840KMKG MKG20070522050009305/22/07 05:00:31  5-MIN KMKG 221000Z 13007KT 9SM CLR 13/09 A3011 460 80 300 140/07 RMK AO2 $
14840KMKG MKG20070522050509305/22/07 05:05:31  5-MIN KMKG 221005Z 13006KT 9SM CLR 13/09 A3011 450 80 300 140/06 RMK AO2 $
14840KMKG MKG20070522051009305/22/07 05:10:31  5-MIN KMKG 221010Z 12006KT 9SM CLR 12/09 A3012 450 83 300 130/06 RMK AO2 $
14840KMKG MKG20070522051509305/22/07 05:15:31  5-MIN KMKG 221015Z 12006KT 8SM CLR 12/09 A3012 450 83 300 120/06 RMK AO2 $
14840KMKG MKG20070522052009305/22/07 05:20:31  5-MIN KMKG 221020Z 12005KT 8SM CLR 12/09 A3012 440 83 200 120/05 RMK AO2 $
14840KMKG MKG20070522052509305/22/07 05:25:31  5-MIN KMKG 221025Z 12004KT 7SM CLR 12/09 A3012 440 83 200 120/04 RMK AO2 $
14840KMKG MKG20070522053009305/22/07 05:30:31  5-MIN KMKG 221030Z 12005KT 7SM CLR 12/09 A3013 440 83 200 120/05 RMK AO2 $
14840KMKG MKG20070522053509305/22/07 05:35:31  5-MIN KMKG 221035Z 11004KT 7SM CLR 12/09 A3013 440 86 200 120/04 RMK AO2 $
14840KMKG MKG20070522054009305/22/07 05:40:31  5-MIN KMKG 221040Z 12004KT 7SM CLR 12/09 A3013 440 83 200 120/04 RMK AO2 $
14840KMKG MKG20070522054509305/22/07 05:45:31  5-MIN KMKG 221045Z 12005KT 7SM CLR 12/09 A3013 440 86 200 120/05 RMK AO2 $
14840KMKG MKG20070522055011005/22/07 05:50:31  5-MIN KMKG 221050Z 11005KT 7SM CLR 12/09 A3013 430 83 200 110/05 RMK AO2 SLP204 T01220094 $
14840KMKG MKG20070522055511005/22/07 05:55:31  5-MIN KMKG 221055Z 12005KT 7SM CLR 12/09 A3014 430 83 200 120/05 RMK AO2 SLP205 T01220094 $
14840KMKG MKG20070522060009305/22/07 06:00:31  5-MIN KMKG 221100Z 12006KT 7SM CLR 12/09 A3014 430 83 200 120/06 RMK AO2 $
14840KMKG MKG20070522060509305/22/07 06:05:31  5-MIN KMKG 221105Z 12006KT 7SM CLR 13/09 A3014 430 80 300 130/06 RMK AO2 $
14840KMKG MKG20070522061009305/22/07 06:10:31  5-MIN KMKG 221110Z 12005KT 7SM CLR 13/10 A3014 430 83 300 130/05 RMK AO2 $
14840KMKG MKG20070522061509305/22/07 06:15:31  5-MIN KMKG 221115Z 13005KT 7SM CLR 13/10 A3014 420 80 400 130/05 RMK AO2 $
14840KMKG MKG20070522062009305/22/07 06:20:31  5-MIN KMKG 221120Z 12006KT 7SM CLR 13/10 A3015 420 80 400 130/06 RMK AO2 $
14840KMKG MKG20070522062509305/22/07 06:25:31  5-MIN KMKG 221125Z 12006KT 7SM CLR 14/10 A3015 420 77 400 130/06 RMK AO2 $
14840KMKG MKG20070522063009305/22/07 06:30:31  5-MIN KMKG 221130Z 13005KT 8SM CLR 14/10 A3015 420 77 400 130/05 RMK AO2 $
14840KMKG MKG20070522063509305/22/07 06:35:31  5-MIN KMKG 221135Z 13004KT 8SM CLR 14/10 A3015 420 77 400 130/04 RMK AO2 $
14840KMKG MKG20070522064009305/22/07 06:40:31  5-MIN KMKG 221140Z 12005KT 8SM CLR 14/10 A3015 420 74 500 130/05 RMK AO2 $
14840KMKG MKG20070522064509305/22/07 06:45:31  5-MIN KMKG 221145Z 13004KT 8SM CLR 14/10 A3015 420 74 500 130/04 RMK AO2 $
14840KMKG MKG20070522065012205/22/07 06:50:31  5-MIN KMKG 221150Z 14005KT 8SM CLR 15/10 A3015 410 72 600 140/05 RMK AO2 SLP210 T01500100 10200 20117 $
14840KMKG MKG20070522065512205/22/07 06:55:31  5-MIN KMKG 221155Z 13006KT 8SM CLR 15/10 A3015 410 72 600 130/06 RMK AO2 SLP210 T01500100 10200 20117 $
14840KMKG MKG20070522070009305/22/07 07:00:31  5-MIN KMKG 221200Z 13006KT 8SM CLR 16/11 A3015 410 72 600 140/06 RMK AO2 $
14840KMKG MKG20070522070509305/22/07 07:05:31  5-MIN KMKG 221205Z 13006KT 8SM CLR 16/11 A3015 420 72 600 130/06 RMK AO2 $
14840KMKG MKG20070522071009305/22/07 07:10:31  5-MIN KMKG 221210Z 13006KT 8SM CLR 16/11 A3015 420 72 600 140/06 RMK AO2 $
14840KMKG MKG20070522071509305/22/07 07:15:31  5-MIN KMKG 221215Z 13008KT 8SM CLR 16/11 A3015 410 69 700 130/08 RMK AO2 $
14840KMKG MKG20070522072009305/22/07 07:20:31  5-MIN KMKG 221220Z 13006KT 8SM CLR 16/11 A3016 410 69 700 130/06 RMK AO2 $
14840KMKG MKG20070522072509305/22/07 07:25:31  5-MIN KMKG 221225Z 13006KT 8SM CLR 17/11 A3016 410 67 700 130/06 RMK AO2 $
14840KMKG MKG20070522073009305/22/07 07:30:31  5-MIN KMKG 221230Z 12006KT 8SM CLR 17/11 A3016 410 67 700 120/06 RMK AO2 $
14840KMKG MKG20070522073509305/22/07 07:35:31  5-MIN KMKG 221235Z 13006KT 8SM CLR 17/11 A3016 410 64 800 130/06 RMK AO2 $
14840KMKG MKG20070522074009305/22/07 07:40:31  5-MIN KMKG 221240Z 14005KT 8SM CLR 17/11 A3016 410 64 800 140/05 RMK AO2 $
14840KMKG MKG20070522074509305/22/07 07:45:31  5-MIN KMKG 221245Z 13006KT 8SM CLR 17/11 A3016 410 64 800 140/06 RMK AO2 $
14840KMKG MKG20070522075010805/22/07 07:50:31  5-MIN KMKG 221250Z 14005KT 8SM CLR 18/11 A3016 410 62 900 140/05 RMK AO2 SLP212 T01780106
14840KMKG MKG20070522075510805/22/07 07:55:31  5-MIN KMKG 221255Z 14006KT 9SM CLR 18/11 A3016 410 62 900 140/06 RMK AO2 SLP212 T01780106
14840KMKG MKG20070522080009105/22/07 08:00:31  5-MIN KMKG 221300Z 14005KT 9SM CLR 18/11 A3016 400 60 900 140/05 RMK AO2
14840KMKG MKG20070522080509105/22/07 08:05:31  5-MIN KMKG 221305Z 14005KT 8SM CLR 18/11 A3017 400 62 900 140/05 RMK AO2
14840KMKG MKG20070522081009205/22/07 08:10:31  5-MIN KMKG 221310Z 14004KT 7SM CLR 19/11 A3017 400 60 1000 150/04 RMK AO2
14840KMKG MKG20070522081509205/22/07 08:15:31  5-MIN KMKG 221315Z 14007KT 8SM CLR 19/11 A3017 400 58 1100 140/07 RMK AO2
14840KMKG MKG20070522082009305/22/07 08:20:31  5-MIN KMKG 221320Z 15006KT 10SM CLR 19/11 A3016 410 56 1100 150/06 RMK AO2
14840KMKG MKG20070522082509305/22/07 08:25:31  5-MIN KMKG 221325Z 17003KT 10SM CLR 20/11 A3016 410 56 1100 170/03 RMK AO2
14840KMKG MKG20070522083009305/22/07 08:30:31  5-MIN KMKG 221330Z 17005KT 10SM CLR 20/11 A3016 410 56 1100 170/05 RMK AO2
14840KMKG MKG20070522083509305/22/07 08:35:31  5-MIN KMKG 221335Z 17005KT 10SM CLR 21/11 A3016 410 54 1200 170/05 RMK AO2
14840KMKG MKG20070522084009305/22/07 08:40:31  5-MIN KMKG 221340Z 17006KT 10SM CLR 21/11 A3016 410 52 1200 170/06 RMK AO2
14840KMKG MKG20070522084509305/22/07 08:45:31  5-MIN KMKG 221345Z 18008KT 10SM CLR 21/11 A3016 410 50 1300 180/08 RMK AO2
14840KMKG MKG20070522085011005/22/07 08:50:31  5-MIN KMKG 221350Z 18006KT 10SM CLR 21/11 A3016 410 50 1300 180/06 RMK AO2 SLP211 T02110106
14840KMKG MKG20070522085511005/22/07 08:55:31  5-MIN KMKG 221355Z 18006KT 10SM CLR 22/11 A3016 410 49 1300 180/06 RMK AO2 SLP211 T02170106
14840KMKG MKG20070522090009305/22/07 09:00:31  5-MIN KMKG 221400Z 17006KT 10SM CLR 22/11 A3016 410 49 1300 180/06 RMK AO2
14840KMKG MKG20070522090509305/22/07 09:05:31  5-MIN KMKG 221405Z 16005KT 10SM CLR 22/11 A3016 410 49 1300 170/05 RMK AO2
14840KMKG MKG20070522091009305/22/07 09:10:31  5-MIN KMKG 221410Z 20009KT 10SM CLR 23/11 A3016 410 45 1400 200/09 RMK AO2
14840KMKG MKG20070522091509305/22/07 09:15:31  5-MIN KMKG 221415Z 20009KT 10SM CLR 23/10 A3016 410 42 1500 210/09 RMK AO2
14840KMKG MKG20070522092009305/22/07 09:20:31  5-MIN KMKG 221420Z 17010KT 10SM CLR 23/09 A3016 410 41 1500 170/10 RMK AO2
14840KMKG MKG20070522092509305/22/07 09:25:31  5-MIN KMKG 221425Z 19010KT 10SM CLR 24/09 A3016 410 39 1600 200/10 RMK AO2
14840KMKG MKG20070522093009305/22/07 09:30:31  5-MIN KMKG 221430Z 20008KT 10SM CLR 24/09 A3016 410 38 1600 200/08 RMK AO2
14840KMKG MKG20070522093509305/22/07 09:35:31  5-MIN KMKG 221435Z 17009KT 10SM CLR 24/09 A3016 410 38 1600 180/09 RMK AO2
14840KMKG MKG20070522094009305/22/07 09:40:31  5-MIN KMKG 221440Z 19011KT 10SM CLR 24/08 A3016 410 36 1600 190/11 RMK AO2
14840KMKG MKG20070522094509305/22/07 09:45:31  5-MIN KMKG 221445Z 18010KT 10SM CLR 24/08 A3016 410 36 1600 180/10 RMK AO2
14840KMKG MKG20070522095011005/22/07 09:50:31  5-MIN KMKG 221450Z 16008KT 10SM CLR 24/08 A3016 410 36 1600 170/08 RMK AO2 SLP210 T02390083
14840KMKG MKG20070522095511605/22/07 09:55:31  5-MIN KMKG 221455Z 19011KT 10SM CLR 24/08 A3016 410 35 1600 200/11 RMK AO2 SLP210 T02440083 50002
14840KMKG MKG20070522100009305/22/07 10:00:31  5-MIN KMKG 221500Z 19008KT 10SM CLR 24/08 A3016 410 36 1600 200/08 RMK AO2
14840KMKG MKG20070522100509305/22/07 10:05:31  5-MIN KMKG 221505Z 18008KT 10SM CLR 24/08 A3016 410 36 1600 180/08 RMK AO2
14840KMKG MKG20070522101009305/22/07 10:10:31  5-MIN KMKG 221510Z 19010KT 10SM CLR 24/08 A3016 410 35 1600 200/10 RMK AO2
14840KMKG MKG20070522101509305/22/07 10:15:31  5-MIN KMKG 221515Z 20010KT 10SM CLR 24/08 A3016 410 34 1600 200/10 RMK AO2
14840KMKG MKG20070522102009305/22/07 10:20:31  5-MIN KMKG 221520Z 20010KT 10SM CLR 24/08 A3016 410 35 1600 200/10 RMK AO2
14840KMKG MKG20070522102509305/22/07 10:25:31  5-MIN KMKG 221525Z 20009KT 10SM CLR 24/08 A3016 410 34 1600 210/09 RMK AO2
14840KMKG MKG20070522103009305/22/07 10:30:31  5-MIN KMKG 221530Z 20011KT 10SM CLR 25/08 A3016 410 33 1700 210/11 RMK AO2
14840KMKG MKG20070522103509305/22/07 10:35:31  5-MIN KMKG 221535Z 19008KT 10SM CLR 25/08 A3015 420 33 1700 200/08 RMK AO2
14840KMKG MKG20070522104009305/22/07 10:40:31  5-MIN KMKG 221540Z 20007KT 10SM CLR 26/08 A3015 420 32 1800 200/07 RMK AO2
14840KMKG MKG20070522104509305/22/07 10:45:31  5-MIN KMKG 221545Z 19010KT 10SM CLR 26/08 A3015 420 32 1800 190/10 RMK AO2
14840KMKG MKG20070522105011005/22/07 10:50:31  5-MIN KMKG 221550Z 18010KT 10SM CLR 26/07 A3015 420 30 1800 180/10 RMK AO2 SLP206 T02560072
14840KMKG MKG20070522105511005/22/07 10:55:31  5-MIN KMKG 221555Z 18010KT 10SM CLR 26/08 A3015 420 31 1800 180/10 RMK AO2 SLP206 T02610078
14840KMKG MKG20070522110009305/22/07 11:00:31  5-MIN KMKG 221600Z 18009KT 10SM CLR 26/07 A3015 420 30 1800 190/09 RMK AO2
14840KMKG MKG20070522110509305/22/07 11:05:31  5-MIN KMKG 221605Z 19010KT 10SM CLR 26/07 A3014 420 29 1800 190/10 RMK AO2
14840KMKG MKG20070522111009305/22/07 11:10:31  5-MIN KMKG 221610Z 18010KT 10SM CLR 26/07 A3014 430 29 1800 180/10 RMK AO2
14840KMKG MKG20070522111509305/22/07 11:15:31  5-MIN KMKG 221615Z 19009KT 10SM CLR 26/07 A3014 430 28 1800 200/09 RMK AO2
14840KMKG MKG20070522112009305/22/07 11:20:31  5-MIN KMKG 221620Z 18010KT 10SM CLR 27/07 A3014 430 27 1900 190/10 RMK AO2
14840KMKG MKG20070522112509305/22/07 11:25:31  5-MIN KMKG 221625Z 19009KT 10SM CLR 27/07 A3014 430 28 1900 200/09 RMK AO2
14840KMKG MKG20070522113009305/22/07 11:30:31  5-MIN KMKG 221630Z 19010KT 10SM CLR 27/07 A3014 430 27 1900 200/10 RMK AO2
14840KMKG MKG20070522113509305/22/07 11:35:31  5-MIN KMKG 221635Z 19012KT 10SM CLR 27/06 A3014 430 25 2000 190/12 RMK AO2
14840KMKG MKG20070522114009305/22/07 11:40:31  5-MIN KMKG 221640Z 18011KT 10SM CLR 27/06 A3014 430 25 2000 180/11 RMK AO2
14840KMKG MKG20070522114509305/22/07 11:45:31  5-MIN KMKG 221645Z 18011KT 10SM CLR 27/06 A3013 430 24 2000 180/11 RMK AO2
14840KMKG MKG20070522115011005/22/07 11:50:31  5-MIN KMKG 221650Z 19013KT 10SM CLR 27/06 A3013 430 24 2000 200/13 RMK AO2 SLP200 T02720056
14840KMKG MKG20070522115511005/22/07 11:55:31  5-MIN KMKG 221655Z 18012KT 10SM CLR 28/06 A3013 440 24 2000 190/12 RMK AO2 SLP199 T02780056
14840KMKG MKG20070522120009305/22/07 12:00:31  5-MIN KMKG 221700Z 19011KT 10SM CLR 28/06 A3013 430 24 2000 190/11 RMK AO2
14840KMKG MKG20070522120509305/22/07 12:05:31  5-MIN KMKG 221705Z 18012KT 10SM CLR 27/05 A3013 440 24 2000 190/12 RMK AO2
14840KMKG MKG20070522121009305/22/07 12:10:31  5-MIN KMKG 221710Z 19009KT 10SM CLR 28/06 A3013 440 25 2000 190/09 RMK AO2
14840KMKG MKG20070522121509305/22/07 12:15:31  5-MIN KMKG 221715Z 19012KT 10SM CLR 28/06 A3013 440 24 2000 190/12 RMK AO2
14840KMKG MKG20070522122009305/22/07 12:20:31  5-MIN KMKG 221720Z 20012KT 10SM CLR 28/06 A3013 440 24 2100 200/12 RMK AO2
14840KMKG MKG20070522122509305/22/07 12:25:31  5-MIN KMKG 221725Z 20010KT 10SM CLR 27/06 A3013 440 24 2000 200/10 RMK AO2
14840KMKG MKG20070522123009905/22/07 12:30:31  5-MIN KMKG 221730Z 19011G17KT 10SM CLR 28/06 A3012 440 24 2100 190/11G17 RMK AO2
14840KMKG MKG20070522123509905/22/07 12:35:31  5-MIN KMKG 221735Z 18011G17KT 10SM CLR 28/06 A3012 440 24 2100 180/11G17 RMK AO2
14840KMKG MKG20070522124009905/22/07 12:40:31  5-MIN KMKG 221740Z 17014G20KT 10SM CLR 28/06 A3012 440 23 2100 180/14G20 RMK AO2
14840KMKG MKG20070522124509905/22/07 12:45:31  5-MIN KMKG 221745Z 19010G20KT 10SM CLR 28/05 A3012 450 22 2100 190/10G20 RMK AO2
14840KMKG MKG20070522125013405/22/07 12:50:31  5-MIN KMKG 221750Z 20014G19KT 10SM CLR 28/06 A3012 450 23 2100 210/14G19 RMK AO2 SLP196 T02830056 10283 20150 50002
14840KMKG MKG20070522125513405/22/07 12:55:31  5-MIN KMKG 221755Z 19013G21KT 10SM CLR 28/05 A3012 450 23 2100 200/13G21 RMK AO2 SLP196 T02780050 10283 20150 57014
14840KMKG MKG20070522130009905/22/07 13:00:31  5-MIN KMKG 221800Z 19012G21KT 10SM CLR 28/05 A3012 450 22 2100 190/12G21 RMK AO2
14840KMKG MKG20070522130509905/22/07 13:05:31  5-MIN KMKG 221805Z 18013G20KT 10SM CLR 28/05 A3012 450 23 2100 190/13G20 RMK AO2
14840KMKG MKG20070522131009905/22/07 13:10:31  5-MIN KMKG 221810Z 21012G20KT 10SM CLR 28/05 A3012 450 23 2100 210/12G20 RMK AO2
14840KMKG MKG20070522131509905/22/07 13:15:31  5-MIN KMKG 221815Z 21015G20KT 10SM CLR 28/05 A3011 450 22 2100 210/15G20 RMK AO2
14840KMKG MKG20070522132009305/22/07 13:20:31  5-MIN KMKG 221820Z 18012KT 10SM CLR 28/05 A3011 450 22 2100 190/12 RMK AO2
14840KMKG MKG20070522132509905/22/07 13:25:31  5-MIN KMKG 221825Z 21015G21KT 10SM CLR 28/05 A3011 450 23 2100 220/15G21 RMK AO2
14840KMKG MKG20070522133009905/22/07 13:30:31  5-MIN KMKG 221830Z 20014G21KT 10SM CLR 28/05 A3011 460 23 2100 210/14G21 RMK AO2
14840KMKG MKG20070522133509305/22/07 13:35:31  5-MIN KMKG 221835Z 20014KT 10SM CLR 28/05 A3011 450 23 2100 200/14 RMK AO2
14840KMKG MKG20070522134009905/22/07 13:40:31  5-MIN KMKG 221840Z 19011G19KT 10SM CLR 28/06 A3011 460 23 2100 200/11G19 RMK AO2
14840KMKG MKG20070522134509905/22/07 13:45:31  5-MIN KMKG 221845Z 21015G20KT 10SM CLR 28/05 A3011 460 22 2100 210/15G20 RMK AO2
14840KMKG MKG20070522135011605/22/07 13:50:31  5-MIN KMKG 221850Z 22016G22KT 10SM CLR 28/05 A3011 450 22 2100 220/16G22 RMK AO2 SLP194 T02830050
14840KMKG MKG20070522135511605/22/07 13:55:31  5-MIN KMKG 221855Z 20015G22KT 10SM CLR 28/05 A3011 450 23 2100 210/15G22 RMK AO2 SLP194 T02780050
14840KMKG MKG20070522140009305/22/07 14:00:31  5-MIN KMKG 221900Z 22016KT 10SM CLR 28/05 A3011 450 23 2100 220/16 RMK AO2
14840KMKG MKG20070522140509305/22/07 14:05:31  5-MIN KMKG 221905Z 21015KT 10SM CLR 28/05 A3011 450 23 2100 210/15 RMK AO2
14840KMKG MKG20070522141009305/22/07 14:10:31  5-MIN KMKG 221910Z 22016KT 10SM CLR 28/06 A3011 450 23 2100 220/16 RMK AO2
14840KMKG MKG20070522141509905/22/07 14:15:31  5-MIN KMKG 221915Z 21011G20KT 10SM CLR 28/06 A3012 450 24 2100 210/11G20 RMK AO2
14840KMKG MKG20070522142009905/22/07 14:20:31  5-MIN KMKG 221920Z 21011G20KT 10SM CLR 28/07 A3011 450 25 2100 210/11G20 RMK AO2
14840KMKG MKG20070522142509905/22/07 14:25:31  5-MIN KMKG 221925Z 21013G20KT 10SM CLR 28/06 A3011 450 25 2100 220/13G20 RMK AO2
14840KMKG MKG20070522143010205/22/07 14:30:31  5-MIN KMKG 221930Z 20013G20KT 10SM FEW090 28/07 A3012 450 25 2100 200/13G20 RMK AO2
14840KMKG MKG20070522143510205/22/07 14:35:31  5-MIN KMKG 221935Z 20013G20KT 10SM FEW085 28/06 A3011 450 25 2100 210/13G20 RMK AO2
14840KMKG MKG20070522144010205/22/07 14:40:31  5-MIN KMKG 221940Z 20013G20KT 10SM FEW085 28/07 A3011 450 26 2100 200/13G20 RMK AO2
14840KMKG MKG20070522144509905/22/07 14:45:31  5-MIN KMKG 221945Z 20014G19KT 10SM CLR 28/07 A3012 450 26 2100 200/14G19 RMK AO2
14840KMKG MKG20070522145011605/22/07 14:50:31  5-MIN KMKG 221950Z 21011G19KT 10SM CLR 28/07 A3012 450 26 2100 210/11G19 RMK AO2 SLP195 T02780067
14840KMKG MKG20070522145511605/22/07 14:55:31  5-MIN KMKG 221955Z 21013G20KT 10SM CLR 28/07 A3012 450 26 2100 220/13G20 RMK AO2 SLP195 T02780067
14840KMKG MKG20070522150009905/22/07 15:00:31  5-MIN KMKG 222000Z 22013G20KT 10SM CLR 28/07 A3011 450 26 2100 220/13G20 RMK AO2
14840KMKG MKG20070522150509905/22/07 15:05:31  5-MIN KMKG 222005Z 21014G19KT 10SM CLR 28/07 A3011 450 25 2100 220/14G19 RMK AO2
14840KMKG MKG20070522151009305/22/07 15:10:31  5-MIN KMKG 222010Z 22012KT 10SM CLR 28/07 A3011 450 26 2100 230/12 RMK AO2
14840KMKG MKG20070522151509305/22/07 15:15:31  5-MIN KMKG 222015Z 23012KT 10SM CLR 28/06 A3011 450 25 2100 230/12 RMK AO2
14840KMKG MKG20070522152009305/22/07 15:20:31  5-MIN KMKG 222020Z 23013KT 10SM CLR 28/06 A3011 460 25 2100 230/13 RMK AO2
14840KMKG MKG20070522152509905/22/07 15:25:31  5-MIN KMKG 222025Z 23012G18KT 10SM CLR 28/06 A3011 460 24 2100 230/12G18 RMK AO2
14840KMKG MKG20070522153009905/22/07 15:30:31  5-MIN KMKG 222030Z 23012G18KT 10SM CLR 28/06 A3011 460 24 2100 240/12G18 RMK AO2
14840KMKG MKG20070522153509305/22/07 15:35:31  5-MIN KMKG 222035Z 23011KT 10SM CLR 28/06 A3011 460 24 2100 240/11 RMK AO2
14840KMKG MKG20070522154009305/22/07 15:40:31  5-MIN KMKG 222040Z 23011KT 10SM CLR 28/06 A3011 460 24 2100 230/11 RMK AO2
14840KMKG MKG20070522154509305/22/07 15:45:31  5-MIN KMKG 222045Z 22010KT 10SM CLR 28/06 A3011 460 24 2100 220/10 RMK AO2
14840KMKG MKG20070522155011605/22/07 15:50:31  5-MIN KMKG 222050Z 22011KT 10SM CLR 28/05 A3010 460 22 2100 230/11 RMK AO2 SLP190 T02830050 57014
14840KMKG MKG20070522155511605/22/07 15:55:31  5-MIN KMKG 222055Z 22010KT 10SM CLR 28/04 A3010 460 22 2100 220/10 RMK AO2 SLP190 T02780044 58006
14840KMKG MKG20070522160009905/22/07 16:00:31  5-MIN KMKG 222100Z 23011G16KT 10SM CLR 28/06 A3010 460 23 2100 230/11G16 RMK AO2
14840KMKG MKG20070522160509305/22/07 16:05:31  5-MIN KMKG 222105Z 22011KT 10SM CLR 28/05 A3010 460 23 2100 220/11 RMK AO2
14840KMKG MKG20070522161009305/22/07 16:10:31  5-MIN KMKG 222110Z 23009KT 10SM CLR 28/05 A3010 460 22 2100 230/09 RMK AO2
14840KMKG MKG20070522161509305/22/07 16:15:31  5-MIN KMKG 222115Z 22010KT 10SM CLR 28/06 A3010 470 23 2100 220/10 RMK AO2
14840KMKG MKG20070522162009305/22/07 16:20:31  5-MIN KMKG 222120Z 23010KT 10SM CLR 28/06 A3010 470 24 2100 230/10 RMK AO2
14840KMKG MKG20070522162509305/22/07 16:25:31  5-MIN KMKG 222125Z 23009KT 10SM CLR 28/06 A3010 470 23 2100 230/09 RMK AO2
14840KMKG MKG20070522163009305/22/07 16:30:31  5-MIN KMKG 222130Z 22009KT 10SM CLR 28/06 A3010 470 24 2100 220/09 RMK AO2
14840KMKG MKG20070522163509305/22/07 16:35:31  5-MIN KMKG 222135Z 21008KT 10SM CLR 28/06 A3010 470 24 2100 220/08 RMK AO2
14840KMKG MKG20070522164009305/22/07 16:40:31  5-MIN KMKG 222140Z 21009KT 10SM CLR 28/06 A3010 470 23 2100 220/09 RMK AO2
14840KMKG MKG20070522164509305/22/07 16:45:31  5-MIN KMKG 222145Z 23010KT 10SM CLR 28/05 A3010 470 22 2100 230/10 RMK AO2
14840KMKG MKG20070522165011305/22/07 16:50:31  5-MIN KMKG 222150Z 21010KT 10SM FEW085 28/06 A3010 470 24 2100 210/10 RMK AO2 SLP190 T02780056
14840KMKG MKG20070522165511305/22/07 16:55:31  5-MIN KMKG 222155Z 21008KT 10SM FEW085 28/05 A3010 470 23 2100 220/08 RMK AO2 SLP189 T02780050
14840KMKG MKG20070522170009305/22/07 17:00:31  5-MIN KMKG 222200Z 22009KT 10SM CLR 28/06 A3009 470 24 2100 230/09 RMK AO2
14840KMKG MKG20070522170509305/22/07 17:05:31  5-MIN KMKG 222205Z 22010KT 10SM CLR 28/06 A3009 470 24 2100 230/10 RMK AO2
14840KMKG MKG20070522171009305/22/07 17:10:31  5-MIN KMKG 222210Z 23008KT 10SM CLR 28/06 A3009 470 24 2100 230/08 RMK AO2
14840KMKG MKG20070522171509305/22/07 17:15:31  5-MIN KMKG 222215Z 23009KT 10SM CLR 28/06 A3009 470 24 2100 230/09 RMK AO2
14840KMKG MKG20070522172009305/22/07 17:20:31  5-MIN KMKG 222220Z 22007KT 10SM CLR 28/06 A3009 470 24 2100 220/07 RMK AO2
14840KMKG MKG20070522172509305/22/07 17:25:31  5-MIN KMKG 222225Z 21007KT 10SM CLR 28/06 A3009 470 24 2100 220/07 RMK AO2
14840KMKG MKG20070522173009305/22/07 17:30:31  5-MIN KMKG 222230Z 20007KT 10SM CLR 28/06 A3009 470 24 2100 200/07 RMK AO2
14840KMKG MKG20070522173509305/22/07 17:35:31  5-MIN KMKG 222235Z 20009KT 10SM CLR 28/05 A3009 470 23 2100 200/09 RMK AO2
14840KMKG MKG20070522174009305/22/07 17:40:31  5-MIN KMKG 222240Z 20005KT 10SM CLR 27/06 A3009 470 24 2000 210/05 RMK AO2
14840KMKG MKG20070522174509305/22/07 17:45:31  5-MIN KMKG 222245Z 21006KT 10SM CLR 28/06 A3009 470 24 2100 210/06 RMK AO2
14840KMKG MKG20070522175011005/22/07 17:50:31  5-MIN KMKG 222250Z 19005KT 10SM CLR 28/06 A3009 480 24 2100 190/05 RMK AO2 SLP187 T02780056
14840KMKG MKG20070522175511005/22/07 17:55:31  5-MIN KMKG 222255Z 18005KT 10SM CLR 27/06 A3009 470 24 2000 180/05 RMK AO2 SLP187 T02720056
14840KMKG MKG20070522180009305/22/07 18:00:31  5-MIN KMKG 222300Z 19004KT 10SM CLR 27/06 A3009 470 24 2000 190/04 RMK AO2
14840KMKG MKG20070522180509305/22/07 18:05:31  5-MIN KMKG 222305Z 19005KT 10SM CLR 27/06 A3009 480 24 2000 190/05 RMK AO2
14840KMKG MKG20070522181009305/22/07 18:10:31  5-MIN KMKG 222310Z 19006KT 10SM CLR 27/06 A3009 480 24 2000 190/06 RMK AO2
14840KMKG MKG20070522181509305/22/07 18:15:31  5-MIN KMKG 222315Z 16006KT 10SM CLR 27/06 A3008 480 24 2000 170/06 RMK AO2
14840KMKG MKG20070522182009305/22/07 18:20:31  5-MIN KMKG 222320Z 17006KT 10SM CLR 27/06 A3008 480 24 2000 180/06 RMK AO2
14840KMKG MKG20070522182509305/22/07 18:25:31  5-MIN KMKG 222325Z 17005KT 10SM CLR 27/06 A3008 480 24 2000 170/05 RMK AO2
14840KMKG MKG20070522183009305/22/07 18:30:31  5-MIN KMKG 222330Z 16005KT 10SM CLR 27/06 A3008 480 24 2000 160/05 RMK AO2
14840KMKG MKG20070522183509305/22/07 18:35:31  5-MIN KMKG 222335Z 16004KT 10SM CLR 27/06 A3008 480 26 2000 170/04 RMK AO2
14840KMKG MKG20070522184009305/22/07 18:40:31  5-MIN KMKG 222340Z 17005KT 10SM CLR 27/06 A3008 480 26 2000 170/05 RMK AO2
14840KMKG MKG20070522184509305/22/07 18:45:31  5-MIN KMKG 222345Z 17005KT 10SM CLR 27/06 A3008 480 25 2000 180/05 RMK AO2
14840KMKG MKG20070522185012805/22/07 18:50:31  5-MIN KMKG 222350Z 15005KT 10SM CLR 27/06 A3008 480 26 2000 150/05 RMK AO2 SLP185 T02670061 10289 20267 58006
14840KMKG MKG20070522185512805/22/07 18:55:31  5-MIN KMKG 222355Z 16005KT 10SM CLR 27/06 A3008 480 26 2000 160/05 RMK AO2 SLP185 T02670061 10289 20267 56005
14840KMKG MKG20070522190009305/22/07 19:00:31  5-MIN KMKG 230000Z 16004KT 10SM CLR 27/06 A3008 480 26 2000 160/04 RMK AO2
14840KMKG MKG20070522190509305/22/07 19:05:31  5-MIN KMKG 230005Z 14005KT 10SM CLR 26/06 A3008 480 27 1900 150/05 RMK AO2
14840KMKG MKG20070522191009305/22/07 19:10:31  5-MIN KMKG 230010Z 15004KT 10SM CLR 26/07 A3009 480 28 1900 150/04 RMK AO2
14840KMKG MKG20070522191509305/22/07 19:15:31  5-MIN KMKG 230015Z 15004KT 10SM CLR 26/07 A3009 480 28 1900 150/04 RMK AO2
14840KMKG MKG20070522192009305/22/07 19:20:31  5-MIN KMKG 230020Z 14005KT 10SM CLR 26/07 A3009 480 29 1800 140/05 RMK AO2
14840KMKG MKG20070522192509305/22/07 19:25:31  5-MIN KMKG 230025Z 14005KT 10SM CLR 26/07 A3009 480 29 1800 150/05 RMK AO2
14840KMKG MKG20070522193009305/22/07 19:30:31  5-MIN KMKG 230030Z 14005KT 10SM CLR 25/07 A3009 480 30 1800 150/05 RMK AO2
14840KMKG MKG20070522193509305/22/07 19:35:31  5-MIN KMKG 230035Z 13004KT 10SM CLR 25/07 A3009 480 30 1800 140/04 RMK AO2
14840KMKG MKG20070522194009305/22/07 19:40:31  5-MIN KMKG 230040Z 13004KT 10SM CLR 24/08 A3009 480 35 1700 140/04 RMK AO2
14840KMKG MKG20070522194509305/22/07 19:45:31  5-MIN KMKG 230045Z 13004KT 10SM CLR 24/08 A3009 480 35 1700 140/04 RMK AO2
14840KMKG MKG20070522195011005/22/07 19:50:31  5-MIN KMKG 230050Z 13004KT 10SM CLR 23/08 A3009 470 39 1500 140/04 RMK AO2 SLP187 T02280083
14840KMKG MKG20070522195511005/22/07 19:55:31  5-MIN KMKG 230055Z 13004KT 10SM CLR 23/08 A3009 470 39 1500 130/04 RMK AO2 SLP187 T02280083
14840KMKG MKG20070522200009305/22/07 20:00:31  5-MIN KMKG 230100Z 13004KT 10SM CLR 23/08 A3009 480 39 1500 130/04 RMK AO2
14840KMKG MKG20070522200509305/22/07 20:05:31  5-MIN KMKG 230105Z 12004KT 10SM CLR 22/08 A3009 480 40 1500 130/04 RMK AO2
14840KMKG MKG20070522201009305/22/07 20:10:31  5-MIN KMKG 230110Z 12005KT 10SM CLR 23/08 A3009 480 39 1500 120/05 RMK AO2
14840KMKG MKG20070522201509305/22/07 20:15:31  5-MIN KMKG 230115Z 12004KT 10SM CLR 23/08 A3009 480 39 1500 120/04 RMK AO2
14840KMKG MKG20070522202009305/22/07 20:20:31  5-MIN KMKG 230120Z 11004KT 10SM CLR 22/08 A3009 480 42 1400 120/04 RMK AO2
14840KMKG MKG20070522202509305/22/07 20:25:31  5-MIN KMKG 230125Z 11004KT 10SM CLR 21/09 A3009 480 45 1300 120/04 RMK AO2
14840KMKG MKG20070522203009305/22/07 20:30:31  5-MIN KMKG 230130Z 12004KT 10SM CLR 21/09 A3009 480 45 1300 120/04 RMK AO2
14840KMKG MKG20070522203509305/22/07 20:35:31  5-MIN KMKG 230135Z 11004KT 10SM CLR 22/08 A3009 470 42 1400 110/04 RMK AO2
14840KMKG MKG20070522204009305/22/07 20:40:31  5-MIN KMKG 230140Z 12005KT 10SM CLR 21/08 A3009 470 43 1300 120/05 RMK AO2
14840KMKG MKG20070522204509305/22/07 20:45:31  5-MIN KMKG 230145Z 11006KT 10SM CLR 21/08 A3009 470 43 1300 120/06 RMK AO2
14840KMKG MKG20070522205011005/22/07 20:50:31  5-MIN KMKG 230150Z 11006KT 10SM CLR 21/09 A3009 470 45 1300 120/06 RMK AO2 SLP188 T02110089
14840KMKG MKG20070522205511005/22/07 20:55:31  5-MIN KMKG 230155Z 12006KT 10SM CLR 21/09 A3009 470 46 1300 120/06 RMK AO2 SLP188 T02060089
14840KMKG MKG20070522210009305/22/07 21:00:31  5-MIN KMKG 230200Z 12005KT 10SM CLR 20/09 A3010 470 48 1200 120/05 RMK AO2
14840KMKG MKG20070522210509305/22/07 21:05:31  5-MIN KMKG 230205Z 12005KT 10SM CLR 20/09 A3010 470 50 1200 120/05 RMK AO2
14840KMKG MKG20070522211009305/22/07 21:10:31  5-MIN KMKG 230210Z 12005KT 10SM CLR 21/09 A3010 470 46 1300 120/05 RMK AO2
14840KMKG MKG20070522211509305/22/07 21:15:31  5-MIN KMKG 230215Z 11004KT 10SM CLR 20/09 A3010 470 48 1200 120/04 RMK AO2
14840KMKG MKG20070522212009305/22/07 21:20:31  5-MIN KMKG 230220Z 11004KT 10SM CLR 21/09 A3010 460 46 1300 120/04 RMK AO2
14840KMKG MKG20070522212509305/22/07 21:25:31  5-MIN KMKG 230225Z 12005KT 10SM CLR 19/09 A3010 460 52 1100 120/05 RMK AO2
14840KMKG MKG20070522213009305/22/07 21:30:31  5-MIN KMKG 230230Z 12004KT 10SM CLR 20/09 A3010 460 50 1200 120/04 RMK AO2
14840KMKG MKG20070522213509305/22/07 21:35:31  5-MIN KMKG 230235Z 11004KT 10SM CLR 19/09 A3010 460 52 1100 120/04 RMK AO2
14840KMKG MKG20070522214009305/22/07 21:40:31  5-MIN KMKG 230240Z 11005KT 10SM CLR 19/09 A3010 460 54 1100 120/05 RMK AO2
14840KMKG MKG20070522214509305/22/07 21:45:31  5-MIN KMKG 230245Z 11005KT 10SM CLR 18/09 A3010 460 56 1000 120/05 RMK AO2
14840KMKG MKG20070522215011605/22/07 21:50:31  5-MIN KMKG 230250Z 11005KT 10SM CLR 18/09 A3010 460 56 1000 110/05 RMK AO2 SLP192 T01830094 56005
14840KMKG MKG20070522215511605/22/07 21:55:31  5-MIN KMKG 230255Z 11005KT 10SM CLR 18/09 A3010 460 56 1000 110/05 RMK AO2 SLP191 T01830094 53006
14840KMKG MKG20070522220009305/22/07 22:00:31  5-MIN KMKG 230300Z 11005KT 10SM CLR 18/09 A3010 460 54 1000 120/05 RMK AO2
14840KMKG MKG20070522220509205/22/07 22:05:31  5-MIN KMKG 230305Z 11005KT 10SM CLR 18/09 A3010 460 55 900 120/05 RMK AO2
14840KMKG MKG20070522221009205/22/07 22:10:31  5-MIN KMKG 230310Z 12006KT 10SM CLR 18/09 A3010 460 58 900 120/06 RMK AO2
14840KMKG MKG20070522221509205/22/07 22:15:31  5-MIN KMKG 230315Z 11006KT 10SM CLR 18/09 A3010 460 58 900 120/06 RMK AO2
14840KMKG MKG20070522222009205/22/07 22:20:31  5-MIN KMKG 230320Z 11006KT 10SM CLR 17/09 A3010 460 60 900 120/06 RMK AO2
14840KMKG MKG20070522222509205/22/07 22:25:31  5-MIN KMKG 230325Z 12006KT 10SM CLR 18/09 A3010 460 58 900 120/06 RMK AO2
14840KMKG MKG20070522223009205/22/07 22:30:31  5-MIN KMKG 230330Z 11006KT 10SM CLR 18/09 A3010 460 58 900 120/06 RMK AO2
14840KMKG MKG20070522223509205/22/07 22:35:31  5-MIN KMKG 230335Z 12005KT 10SM CLR 17/09 A3010 460 60 900 120/05 RMK AO2
14840KMKG MKG20070522224009205/22/07 22:40:31  5-MIN KMKG 230340Z 12006KT 10SM CLR 17/09 A3010 460 60 900 120/06 RMK AO2
14840KMKG MKG20070522224509205/22/07 22:45:31  5-MIN KMKG 230345Z 12005KT 10SM CLR 17/09 A3010 460 60 900 130/05 RMK AO2
14840KMKG MKG20070522225010905/22/07 22:50:31  5-MIN KMKG 230350Z 12006KT 10SM CLR 17/09 A3010 460 60 900 130/06 RMK AO2 SLP191 T01720094
14840KMKG MKG20070522225510905/22/07 22:55:31  5-MIN KMKG 230355Z 12005KT 10SM CLR 17/09 A3010 460 60 900 130/05 RMK AO2 SLP191 T01720094
14840KMKG MKG20070522230009205/22/07 23:00:31  5-MIN KMKG 230400Z 13004KT 10SM CLR 17/09 A3011 460 60 900 130/04 RMK AO2
14840KMKG MKG20070522230509205/22/07 23:05:31  5-MIN KMKG 230405Z 13004KT 10SM CLR 18/09 A3011 460 58 900 140/04 RMK AO2
14840KMKG MKG20070522231009205/22/07 23:10:31  5-MIN KMKG 230410Z 13003KT 10SM CLR 18/09 A3011 460 58 900 140/03 RMK AO2
14840KMKG MKG20070522231509205/22/07 23:15:31  5-MIN KMKG 230415Z 11004KT 10SM CLR 18/09 A3011 460 58 900 120/04 RMK AO2
14840KMKG MKG20070522232009205/22/07 23:20:31  5-MIN KMKG 230420Z 12003KT 10SM CLR 17/09 A3011 460 60 900 120/03 RMK AO2
14840KMKG MKG20070522232509205/22/07 23:25:31  5-MIN KMKG 230425Z 12003KT 10SM CLR 17/09 A3011 460 62 800 120/03 RMK AO2
14840KMKG MKG20070522233009205/22/07 23:30:31  5-MIN KMKG 230430Z 11004KT 10SM CLR 17/09 A3011 460 57 900 110/04 RMK AO2
14840KMKG MKG20070522233509205/22/07 23:35:31  5-MIN KMKG 230435Z 11005KT 10SM CLR 16/09 A3011 460 62 700 110/05 RMK AO2
14840KMKG MKG20070522234009205/22/07 23:40:31  5-MIN KMKG 230440Z 11006KT 10SM CLR 16/09 A3011 460 64 700 110/06 RMK AO2
14840KMKG MKG20070522234509205/22/07 23:45:31  5-MIN KMKG 230445Z 12006KT 10SM CLR 16/09 A3011 460 64 700 120/06 RMK AO2
14840KMKG MKG20070522235011905/22/07 23:50:31  5-MIN KMKG 230450Z 12006KT 10SM CLR 16/09 A3011 460 62 700 120/06 RMK AO2 SLP192 T01610089 402890094
14840KMKG MKG20070522235511905/22/07 23:55:31  5-MIN KMKG 230455Z 12006KT 10SM CLR 16/09 A3011 460 64 700 120/06 RMK AO2 SLP191 T01610094 402890094
14840KMKG MKG20070523000009205/23/07 00:00:32  5-MIN KMKG 230500Z 12006KT 10SM CLR 16/09 A3011 460 64 700 130/06 RMK AO2
14840KMKG MKG20070523000509205/23/07 00:05:31  5-MIN KMKG 230505Z 14005KT 10SM CLR 17/09 A3011 460 62 800 140/05 RMK AO2
14840KMKG MKG20070523001009205/23/07 00:10:31  5-MIN KMKG 230510Z 14005KT 10SM CLR 17/09 A3011 460 62 800 150/05 RMK AO2
14840KMKG MKG20070523001509205/23/07 00:15:31  5-MIN KMKG 230515Z 15005KT 10SM CLR 17/09 A3011 460 57 900 150/05 RMK AO2
14840KMKG MKG20070523002009205/23/07 00:20:31  5-MIN KMKG 230520Z 16004KT 10SM CLR 17/08 A3011 460 55 900 160/04 RMK AO2
14840KMKG MKG20070523002509205/23/07 00:25:31  5-MIN KMKG 230525Z 15005KT 10SM CLR 17/08 A3011 460 55 900 150/05 RMK AO2
14840KMKG MKG20070523003009205/23/07 00:30:31  5-MIN KMKG 230530Z 15005KT 10SM CLR 17/08 A3011 460 55 900 150/05 RMK AO2
14840KMKG MKG20070523003509205/23/07 00:35:31  5-MIN KMKG 230535Z 15005KT 10SM CLR 17/08 A3011 460 57 800 160/05 RMK AO2
14840KMKG MKG20070523004009205/23/07 00:40:31  5-MIN KMKG 230540Z 15004KT 10SM CLR 16/09 A3011 460 62 700 160/04 RMK AO2
14840KMKG MKG20070523004509205/23/07 00:45:31  5-MIN KMKG 230545Z 16004KT 10SM CLR 16/08 A3011 460 59 700 160/04 RMK AO2
14840KMKG MKG20070523005012705/23/07 00:50:31  5-MIN KMKG 230550Z 16004KT 10SM CLR 16/08 A3011 460 59 700 160/04 RMK AO2 SLP191 T01610083 10267 20156 53006
14840KMKG MKG20070523005512705/23/07 00:55:31  5-MIN KMKG 230555Z 16003KT 10SM CLR 16/08 A3011 460 59 700 160/03 RMK AO2 SLP191 T01610083 10267 20156 51001
14840KMKG MKG20070523010009205/23/07 01:00:31  5-MIN KMKG 230600Z 15004KT 10SM CLR 16/08 A3011 460 59 700 150/04 RMK AO2
14840KMKG MKG20070523010509205/23/07 01:05:31  5-MIN KMKG 230605Z 13005KT 10SM CLR 16/08 A3011 460 62 700 130/05 RMK AO2
14840KMKG MKG20070523011009205/23/07 01:10:31  5-MIN KMKG 230610Z 12006KT 10SM CLR 16/08 A3011 460 59 700 130/06 RMK AO2
14840KMKG MKG20070523011509205/23/07 01:15:31  5-MIN KMKG 230615Z 12005KT 10SM CLR 15/08 A3011 460 64 600 120/05 RMK AO2
14840KMKG MKG20070523012009205/23/07 01:20:31  5-MIN KMKG 230620Z 12005KT 10SM CLR 15/09 A3011 460 66 600 120/05 RMK AO2
14840KMKG MKG20070523012509205/23/07 01:25:31  5-MIN KMKG 230625Z 13005KT 10SM CLR 16/09 A3011 460 64 700 130/05 RMK AO2
14840KMKG MKG20070523013009205/23/07 01:30:31  5-MIN KMKG 230630Z 13005KT 10SM CLR 16/08 A3011 460 62 700 130/05 RMK AO2
14840KMKG MKG20070523013509205/23/07 01:35:31  5-MIN KMKG 230635Z 13005KT 10SM CLR 16/08 A3011 460 62 700 130/05 RMK AO2
14840KMKG MKG20070523014009205/23/07 01:40:31  5-MIN KMKG 230640Z 13006KT 10SM CLR 16/08 A3011 460 62 700 130/06 RMK AO2
14840KMKG MKG20070523014509205/23/07 01:45:31  5-MIN KMKG 230645Z 12006KT 10SM CLR 16/08 A3011 460 62 700 130/06 RMK AO2
14840KMKG MKG20070523015010905/23/07 01:50:31  5-MIN KMKG 230650Z 12006KT 10SM CLR 16/08 A3011 460 62 700 130/06 RMK AO2 SLP192 T01560083
14840KMKG MKG20070523015510905/23/07 01:55:31  5-MIN KMKG 230655Z 13006KT 10SM CLR 16/08 A3011 460 62 700 140/06 RMK AO2 SLP192 T01560083
14840KMKG MKG20070523020009205/23/07 02:00:31  5-MIN KMKG 230700Z 13005KT 10SM CLR 16/08 A3011 460 62 700 140/05 RMK AO2
14840KMKG MKG20070523020509205/23/07 02:05:31  5-MIN KMKG 230705Z 13005KT 10SM CLR 16/08 A3011 460 62 700 140/05 RMK AO2
14840KMKG MKG20070523021009205/23/07 02:10:31  5-MIN KMKG 230710Z 13006KT 10SM CLR 16/08 A3011 460 62 700 130/06 RMK AO2
14840KMKG MKG20070523021509205/23/07 02:15:31  5-MIN KMKG 230715Z 12006KT 10SM CLR 15/08 A3011 450 64 600 130/06 RMK AO2
14840KMKG MKG20070523022009205/23/07 02:20:31  5-MIN KMKG 230720Z 12005KT 10SM CLR 15/08 A3011 450 64 600 120/05 RMK AO2
14840KMKG MKG20070523022509205/23/07 02:25:31  5-MIN KMKG 230725Z 12007KT 10SM CLR 14/08 A3011 450 66 500 120/07 RMK AO2
14840KMKG MKG20070523023009205/23/07 02:30:31  5-MIN KMKG 230730Z 12006KT 10SM CLR 14/08 A3011 450 66 500 120/06 RMK AO2
14840KMKG MKG20070523023509205/23/07 02:35:31  5-MIN KMKG 230735Z 12006KT 10SM CLR 14/08 A3011 450 66 500 120/06 RMK AO2
14840KMKG MKG20070523024009205/23/07 02:40:31  5-MIN KMKG 230740Z 13005KT 10SM CLR 15/08 A3011 450 64 600 130/05 RMK AO2
14840KMKG MKG20070523024509205/23/07 02:45:31  5-MIN KMKG 230745Z 00000KT 10SM CLR 14/08 A3012 450 66 500 000/00 RMK AO2
14840KMKG MKG20070523025010905/23/07 02:50:31  5-MIN KMKG 230750Z 11003KT 10SM CLR 15/08 A3012 450 64 600 120/03 RMK AO2 SLP196 T01500083
14840KMKG MKG20070523025510905/23/07 02:55:31  5-MIN KMKG 230755Z 12006KT 10SM CLR 14/08 A3012 450 69 500 120/06 RMK AO2 SLP197 T01390083
14840KMKG MKG20070523030009205/23/07 03:00:31  5-MIN KMKG 230800Z 12006KT 10SM CLR 14/08 A3012 450 66 500 120/06 RMK AO2
14840KMKG MKG20070523030509205/23/07 03:05:31  5-MIN KMKG 230805Z 12007KT 10SM CLR 14/08 A3012 450 66 500 120/07 RMK AO2
14840KMKG MKG20070523031009205/23/07 03:10:31  5-MIN KMKG 230810Z 13004KT 10SM CLR 14/08 A3012 450 69 500 130/04 RMK AO2
14840KMKG MKG20070523031509205/23/07 03:15:31  5-MIN KMKG 230815Z 13005KT 10SM CLR 14/08 A3012 450 66 500 140/05 RMK AO2
14840KMKG MKG20070523032009205/23/07 03:20:31  5-MIN KMKG 230820Z 14003KT 10SM CLR 14/08 A3012 450 66 500 150/03 RMK AO2
14840KMKG MKG20070523032509205/23/07 03:25:31  5-MIN KMKG 230825Z 13004KT 10SM CLR 14/08 A3012 450 69 500 130/04 RMK AO2
14840KMKG MKG20070523033009205/23/07 03:30:31  5-MIN KMKG 230830Z 12004KT 10SM CLR 14/08 A3012 450 66 500 130/04 RMK AO2
14840KMKG MKG20070523033509205/23/07 03:35:31  5-MIN KMKG 230835Z 13004KT 10SM CLR 14/08 A3012 450 66 500 130/04 RMK AO2
14840KMKG MKG20070523034009205/23/07 03:40:31  5-MIN KMKG 230840Z 12005KT 10SM CLR 14/08 A3012 450 66 500 130/05 RMK AO2
14840KMKG MKG20070523034509205/23/07 03:45:31  5-MIN KMKG 230845Z 13005KT 10SM CLR 14/08 A3012 450 66 500 130/05 RMK AO2
14840KMKG MKG20070523035011505/23/07 03:50:31  5-MIN KMKG 230850Z 12005KT 10SM CLR 14/08 A3012 440 66 500 130/05 RMK AO2 SLP197 T01440083 51001
14840KMKG MKG20070523035511505/23/07 03:55:31  5-MIN KMKG 230855Z 13005KT 10SM CLR 14/09 A3012 440 71 500 130/05 RMK AO2 SLP199 T01390089 53006
14840KMKG MKG20070523040009205/23/07 04:00:31  5-MIN KMKG 230900Z 12004KT 10SM CLR 14/09 A3013 440 71 500 130/04 RMK AO2
14840KMKG MKG20070523040509205/23/07 04:05:31  5-MIN KMKG 230905Z 13004KT 10SM CLR 13/09 A3013 440 74 400 130/04 RMK AO2
14840KMKG MKG20070523041009205/23/07 04:10:31  5-MIN KMKG 230910Z 12004KT 10SM CLR 14/09 A3013 440 71 500 130/04 RMK AO2
14840KMKG MKG20070523041509205/23/07 04:15:31  5-MIN KMKG 230915Z 12004KT 10SM CLR 14/09 A3013 440 71 500 130/04 RMK AO2
14840KMKG MKG20070523042009205/23/07 04:20:31  5-MIN KMKG 230920Z 12004KT 10SM CLR 14/09 A3013 440 71 500 130/04 RMK AO2
14840KMKG MKG20070523042509205/23/07 04:25:31  5-MIN KMKG 230925Z 12004KT 10SM CLR 14/09 A3013 440 71 400 130/04 RMK AO2
14840KMKG MKG20070523043009205/23/07 04:30:31  5-MIN KMKG 230930Z 12003KT 10SM CLR 13/09 A3013 440 74 400 120/03 RMK AO2
14840KMKG MKG20070523043509205/23/07 04:35:31  5-MIN KMKG 230935Z 12004KT 10SM CLR 13/09 A3013 430 74 400 120/04 RMK AO2
14840KMKG MKG20070523044009205/23/07 04:40:31  5-MIN KMKG 230940Z 12004KT 10SM CLR 14/09 A3013 430 71 400 120/04 RMK AO2
14840KMKG MKG20070523044509205/23/07 04:45:31  5-MIN KMKG 230945Z 11003KT 10SM CLR 14/09 A3013 430 69 500 120/03 RMK AO2
14840KMKG MKG20070523045010905/23/07 04:50:31  5-MIN KMKG 230950Z 00000KT 10SM CLR 14/08 A3013 430 66 500 000/00 RMK AO2 SLP202 T01440083
14840KMKG MKG20070523045510905/23/07 04:55:31  5-MIN KMKG 230955Z 00000KT 10SM CLR 14/08 A3014 430 66 500 000/00 RMK AO2 SLP203 T01440083
14840KMKG MKG20070523050009205/23/07 05:00:31  5-MIN KMKG 231000Z 00000KT 10SM CLR 15/08 A3014 430 64 600 000/00 RMK AO2
14840KMKG MKG20070523050509205/23/07 05:05:31  5-MIN KMKG 231005Z 00000KT 10SM CLR 15/08 A3014 430 64 600 000/00 RMK AO2
14840KMKG MKG20070523051009205/23/07 05:10:31  5-MIN KMKG 231010Z 00000KT 10SM CLR 14/09 A3014 430 69 500 000/00 RMK AO2
14840KMKG MKG20070523051509205/23/07 05:15:31  5-MIN KMKG 231015Z 11003KT 10SM CLR 14/09 A3014 430 69 500 110/03 RMK AO2
14840KMKG MKG20070523052009205/23/07 05:20:31  5-MIN KMKG 231020Z 11003KT 10SM CLR 14/09 A3014 430 69 500 110/03 RMK AO2
14840KMKG MKG20070523052509205/23/07 05:25:31  5-MIN KMKG 231025Z 11003KT 10SM CLR 15/09 A3014 430 66 600 110/03 RMK AO2
14840KMKG MKG20070523053009205/23/07 05:30:31  5-MIN KMKG 231030Z 11004KT 10SM CLR 15/09 A3014 430 66 600 120/04 RMK AO2
14840KMKG MKG20070523053509205/23/07 05:35:31  5-MIN KMKG 231035Z 00000KT 10SM CLR 15/09 A3014 420 69 600 000/00 RMK AO2
14840KMKG MKG20070523054009205/23/07 05:40:31  5-MIN KMKG 231040Z 11003KT 10SM CLR 16/09 A3015 420 67 600 120/03 RMK AO2
14840KMKG MKG20070523054509205/23/07 05:45:31  5-MIN KMKG 231045Z 12004KT 10SM CLR 16/09 A3015 420 67 600 130/04 RMK AO2
14840KMKG MKG20070523055010905/23/07 05:50:31  5-MIN KMKG 231050Z 13004KT 10SM CLR 16/09 A3015 420 67 600 130/04 RMK AO2 SLP207 T01560094
14840KMKG MKG20070523055510905/23/07 05:55:31  5-MIN KMKG 231055Z 13005KT 10SM CLR 16/10 A3015 410 69 600 130/05 RMK AO2 SLP208 T01560100
14840KMKG MKG20070523060009205/23/07 06:00:31  5-MIN KMKG 231100Z 13006KT 10SM CLR 16/10 A3015 410 67 700 130/06 RMK AO2
14840KMKG MKG20070523060509205/23/07 06:05:31  5-MIN KMKG 231105Z 13006KT 10SM CLR 16/10 A3016 410 67 700 130/06 RMK AO2
14840KMKG MKG20070523061009205/23/07 06:10:31  5-MIN KMKG 231110Z 13005KT 10SM CLR 17/10 A3016 410 64 700 140/05 RMK AO2
14840KMKG MKG20070523061509205/23/07 06:15:31  5-MIN KMKG 231115Z 14004KT 10SM CLR 17/10 A3016 410 64 700 140/04 RMK AO2
14840KMKG MKG20070523062009205/23/07 06:20:31  5-MIN KMKG 231120Z 14004KT 10SM CLR 17/09 A3016 410 60 800 150/04 RMK AO2
14840KMKG MKG20070523062509205/23/07 06:25:31  5-MIN KMKG 231125Z 15004KT 10SM CLR 17/09 A3017 400 60 800 150/04 RMK AO2
14840KMKG MKG20070523063009205/23/07 06:30:31  5-MIN KMKG 231130Z 14004KT 10SM CLR 17/09 A3017 400 60 800 140/04 RMK AO2
14840KMKG MKG20070523063509205/23/07 06:35:31  5-MIN KMKG 231135Z 14005KT 10SM CLR 17/09 A3017 400 60 800 140/05 RMK AO2
14840KMKG MKG20070523064009205/23/07 06:40:31  5-MIN KMKG 231140Z 14004KT 10SM CLR 17/09 A3017 400 60 800 150/04 RMK AO2
14840KMKG MKG20070523064509205/23/07 06:45:31  5-MIN KMKG 231145Z 15005KT 10SM CLR 18/09 A3017 400 58 900 160/05 RMK AO2
14840KMKG MKG20070523065012705/23/07 06:50:31  5-MIN KMKG 231150Z 15004KT 10SM CLR 18/09 A3017 400 56 900 150/04 RMK AO2 SLP213 T01830094 10183 20133 53006
14840KMKG MKG20070523065512805/23/07 06:55:31  5-MIN KMKG 231155Z 14004KT 10SM CLR 19/10 A3017 400 56 1000 140/04 RMK AO2 SLP214 T01890100 10189 20133 53016
14840KMKG MKG20070523070009305/23/07 07:00:31  5-MIN KMKG 231200Z 13005KT 10SM CLR 19/10 A3017 400 56 1000 130/05 RMK AO2
14840KMKG MKG20070523070509305/23/07 07:05:31  5-MIN KMKG 231205Z 13005KT 10SM CLR 19/10 A3017 400 54 1100 140/05 RMK AO2
14840KMKG MKG20070523071009305/23/07 07:10:31  5-MIN KMKG 231210Z 14005KT 10SM CLR 19/10 A3017 400 54 1000 140/05 RMK AO2
14840KMKG MKG20070523071509305/23/07 07:15:31  5-MIN KMKG 231215Z 16004KT 10SM CLR 20/10 A3018 390 52 1100 160/04 RMK AO2
14840KMKG MKG20070523072009305/23/07 07:20:31  5-MIN KMKG 231220Z 15004KT 10SM CLR 21/10 A3017 400 50 1200 150/04 RMK AO2
14840KMKG MKG20070523072509305/23/07 07:25:31  5-MIN KMKG 231225Z 15005KT 10SM CLR 21/10 A3017 400 48 1200 160/05 RMK AO2
14840KMKG MKG20070523073009305/23/07 07:30:31  5-MIN KMKG 231230Z 15005KT 10SM CLR 22/10 A3018 390 47 1300 160/05 RMK AO2
14840KMKG MKG20070523073509605/23/07 07:35:31  5-MIN KMKG 231235Z 17006KT 10SM FEW090 22/09 A3018 390 45 1300 170/06 RMK AO2
14840KMKG MKG20070523074009605/23/07 07:40:31  5-MIN KMKG 231240Z 17007KT 10SM FEW095 22/10 A3018 390 45 1400 180/07 RMK AO2
14840KMKG MKG20070523074510205/23/07 07:45:31  5-MIN KMKG 231245Z 19009G15KT 10SM FEW095 23/09 A3018 390 41 1500 190/09G15 RMK AO2
14840KMKG MKG20070523075011905/23/07 07:50:31  5-MIN KMKG 231250Z 18011G18KT 10SM FEW095 23/09 A3018 390 39 1500 190/11G18 RMK AO2 SLP217 T02330089
14840KMKG MKG20070523075511905/23/07 07:55:31  5-MIN KMKG 231255Z 19012G18KT 10SM FEW095 24/08 A3018 390 36 1600 190/12G18 RMK AO2 SLP217 T02390083
14840KMKG MKG20070523080009605/23/07 08:00:31  5-MIN KMKG 231300Z 19011KT 10SM SCT095 23/08 A3018 390 38 1500 190/11 RMK AO2
14840KMKG MKG20070523080509605/23/07 08:05:31  5-MIN KMKG 231305Z 19012KT 10SM SCT095 23/08 A3018 390 38 1500 190/12 RMK AO2
14840KMKG MKG20070523081009605/23/07 08:10:31  5-MIN KMKG 231310Z 19012KT 10SM SCT090 23/08 A3018 390 39 1400 190/12 RMK AO2
14840KMKG MKG20070523081509605/23/07 08:15:31  5-MIN KMKG 231315Z 18009KT 10SM FEW095 23/08 A3018 390 38 1500 190/09 RMK AO2
14840KMKG MKG20070523082010205/23/07 08:20:31  5-MIN KMKG 231320Z 19010G17KT 10SM FEW080 23/08 A3019 390 38 1500 190/10G17 RMK AO2
14840KMKG MKG20070523082509605/23/07 08:25:31  5-MIN KMKG 231325Z 19011KT 10SM SCT085 23/08 A3019 390 38 1500 190/11 RMK AO2
14840KMKG MKG20070523083009605/23/07 08:30:31  5-MIN KMKG 231330Z 19012KT 10SM SCT080 23/08 A3019 380 38 1500 200/12 RMK AO2
14840KMKG MKG20070523083510205/23/07 08:35:31  5-MIN KMKG 231335Z 19010G18KT 10SM SCT080 24/08 A3019 380 36 1500 200/10G18 RMK AO2
14840KMKG MKG20070523084010205/23/07 08:40:31  5-MIN KMKG 231340Z 20012G17KT 10SM BKN080 24/08 A3019 380 36 1500 200/12G17 RMK AO2
14840KMKG MKG20070523084509605/23/07 08:45:31  5-MIN KMKG 231345Z 19011KT 10SM BKN085 24/08 A3019 380 35 1600 200/11 RMK AO2
14840KMKG MKG20070523085011905/23/07 08:50:31  5-MIN KMKG 231350Z 20012G20KT 10SM BKN085 24/08 A3019 380 35 1600 200/12G20 RMK AO2 SLP221 T02440083
14840KMKG MKG20070523085511905/23/07 08:55:31  5-MIN KMKG 231355Z 20014G20KT 10SM BKN085 24/08 A3019 380 36 1500 200/14G20 RMK AO2 SLP221 T02390083
14840KMKG MKG20070523090009605/23/07 09:00:31  5-MIN KMKG 231400Z 19013KT 10SM SCT085 24/08 A3019 380 36 1500 200/13 RMK AO2
14840KMKG MKG20070523090509605/23/07 09:05:31  5-MIN KMKG 231405Z 20012KT 10SM SCT090 24/08 A3019 380 36 1500 200/12 RMK AO2
14840KMKG MKG20070523091010205/23/07 09:10:31  5-MIN KMKG 231410Z 19014G19KT 10SM FEW090 24/08 A3019 380 36 1500 190/14G19 RMK AO2
14840KMKG MKG20070523091509605/23/07 09:15:31  5-MIN KMKG 231415Z 20014KT 10SM FEW090 24/08 A3019 380 35 1600 200/14 RMK AO2
14840KMKG MKG20070523092009605/23/07 09:20:31  5-MIN KMKG 231420Z 20011KT 10SM FEW090 24/08 A3019 380 35 1600 200/11 RMK AO2
14840KMKG MKG20070523092510205/23/07 09:25:31  5-MIN KMKG 231425Z 20014G20KT 10SM FEW090 24/08 A3019 380 35 1600 200/14G20 RMK AO2
14840KMKG MKG20070523093009905/23/07 09:30:31  5-MIN KMKG 231430Z 20013G20KT 10SM CLR 24/08 A3020 380 35 1600 200/13G20 RMK AO2
14840KMKG MKG20070523093509905/23/07 09:35:31  5-MIN KMKG 231435Z 21013G19KT 10SM CLR 24/08 A3020 370 35 1600 210/13G19 RMK AO2
14840KMKG MKG20070523094009905/23/07 09:40:31  5-MIN KMKG 231440Z 20012G19KT 10SM CLR 24/08 A3020 380 35 1600 200/12G19 RMK AO2
14840KMKG MKG20070523094509305/23/07 09:45:31  5-MIN KMKG 231445Z 19011KT 10SM CLR 25/09 A3020 380 35 1700 200/11 RMK AO2
14840KMKG MKG20070523095011605/23/07 09:50:31  5-MIN KMKG 231450Z 19009KT 10SM CLR 25/09 A3019 380 35 1700 200/09 RMK AO2 SLP222 T02500089 53016
14840KMKG MKG20070523095512205/23/07 09:55:31  5-MIN KMKG 231455Z 19013G17KT 10SM CLR 25/09 A3020 380 35 1700 200/13G17 RMK AO2 SLP222 T02500089 51008
14840KMKG MKG20070523100009905/23/07 10:00:31  5-MIN KMKG 231500Z 20010G17KT 10SM CLR 25/09 A3020 370 35 1700 210/10G17 RMK AO2
14840KMKG MKG20070523100509905/23/07 10:05:31  5-MIN KMKG 231505Z 20012G18KT 10SM CLR 25/09 A3020 370 35 1700 200/12G18 RMK AO2
14840KMKG MKG20070523101009905/23/07 10:10:31  5-MIN KMKG 231510Z 20011G18KT 10SM CLR 25/09 A3020 370 35 1700 210/11G18 RMK AO2
14840KMKG MKG20070523101509305/23/07 10:15:31  5-MIN KMKG 231515Z 21012KT 10SM CLR 25/09 A3020 370 35 1700 210/12 RMK AO2
14840KMKG MKG20070523102009305/23/07 10:20:31  5-MIN KMKG 231520Z 20012KT 10SM CLR 25/09 A3020 370 35 1700 200/12 RMK AO2
14840KMKG MKG20070523102509905/23/07 10:25:31  5-MIN KMKG 231525Z 20013G18KT 10SM CLR 25/08 A3020 370 34 1700 200/13G18 RMK AO2
14840KMKG MKG20070523103010205/23/07 10:30:31  5-MIN KMKG 231530Z 21012G19KT 10SM FEW085 25/09 A3020 370 35 1700 210/12G19 RMK AO2
14840KMKG MKG20070523103510205/23/07 10:35:31  5-MIN KMKG 231535Z 20012G19KT 10SM FEW090 24/09 A3020 370 36 1600 200/12G19 RMK AO2
14840KMKG MKG20070523104009605/23/07 10:40:31  5-MIN KMKG 231540Z 20011KT 10SM FEW090 25/09 A3020 370 35 1700 210/11 RMK AO2
14840KMKG MKG20070523104509605/23/07 10:45:31  5-MIN KMKG 231545Z 20013KT 10SM FEW090 25/09 A3020 370 35 1700 200/13 RMK AO2
14840KMKG MKG20070523105011905/23/07 10:50:31  5-MIN KMKG 231550Z 20009G17KT 10SM FEW090 25/09 A3020 370 35 1700 200/09G17 RMK AO2 SLP226 T02500089
14840KMKG MKG20070523105511205/23/07 10:55:31  5-MIN KMKG 231555Z 20013KT 9SM FEW090 25/09 A3020 370 35 1700 200/13 RMK AO2 SLP225 T02500089
14840KMKG MKG20070523110009505/23/07 11:00:31  5-MIN KMKG 231600Z 20009KT 9SM FEW090 25/09 A3020 370 35 1700 210/09 RMK AO2
14840KMKG MKG20070523110509305/23/07 11:05:31  5-MIN KMKG 231605Z 20010KT 10SM CLR 26/09 A3020 370 35 1700 210/10 RMK AO2
14840KMKG MKG20070523111009305/23/07 11:10:31  5-MIN KMKG 231610Z 21010KT 10SM CLR 26/09 A3020 380 34 1700 210/10 RMK AO2
14840KMKG MKG20070523111509305/23/07 11:15:31  5-MIN KMKG 231615Z 20007KT 10SM CLR 26/09 A3020 380 34 1800 210/07 RMK AO2
14840KMKG MKG20070523112010905/23/07 11:20:31  5-MIN KMKG 231620Z 20009KT 160V220 10SM CLR 26/10 A3020 370 36 1800 200/09 160V220 RMK AO2
14840KMKG MKG20070523112509305/23/07 11:25:31  5-MIN KMKG 231625Z 21010KT 10SM CLR 26/09 A3020 380 34 1800 210/10 RMK AO2
14840KMKG MKG20070523113009305/23/07 11:30:31  5-MIN KMKG 231630Z 22010KT 10SM CLR 26/09 A3020 370 34 1800 220/10 RMK AO2
14840KMKG MKG20070523113509305/23/07 11:35:31  5-MIN KMKG 231635Z 19009KT 10SM CLR 27/09 A3020 380 33 1800 200/09 RMK AO2
14840KMKG MKG20070523114009305/23/07 11:40:31  5-MIN KMKG 231640Z 19010KT 10SM CLR 26/09 A3020 370 34 1800 190/10 RMK AO2
14840KMKG MKG20070523114509305/23/07 11:45:31  5-MIN KMKG 231645Z 21010KT 10SM CLR 26/09 A3020 380 34 1800 210/10 RMK AO2
14840KMKG MKG20070523115011005/23/07 11:50:31  5-MIN KMKG 231650Z 22010KT 10SM CLR 26/09 A3020 380 34 1800 220/10 RMK AO2 SLP223 T02610094
14840KMKG MKG20070523115511005/23/07 11:55:31  5-MIN KMKG 231655Z 21009KT 10SM CLR 27/09 A3020 380 33 1800 210/09 RMK AO2 SLP222 T02670094
14840KMKG MKG20070523120009305/23/07 12:00:31  5-MIN KMKG 231700Z 20008KT 10SM CLR 27/09 A3020 380 33 1800 200/08 RMK AO2
14840KMKG MKG20070523120509305/23/07 12:05:31  5-MIN KMKG 231705Z 20008KT 10SM CLR 27/09 A3020 380 33 1800 200/08 RMK AO2
14840KMKG MKG20070523121009305/23/07 12:10:31  5-MIN KMKG 231710Z 22009KT 10SM CLR 27/09 A3019 380 32 1900 220/09 RMK AO2
14840KMKG MKG20070523121509305/23/07 12:15:31  5-MIN KMKG 231715Z 21010KT 10SM CLR 27/09 A3019 380 33 1900 210/10 RMK AO2
14840KMKG MKG20070523122009305/23/07 12:20:31  5-MIN KMKG 231720Z 20009KT 10SM CLR 27/09 A3019 380 33 1900 210/09 RMK AO2
14840KMKG MKG20070523122509305/23/07 12:25:31  5-MIN KMKG 231725Z 21010KT 10SM CLR 27/09 A3019 380 33 1900 220/10 RMK AO2
14840KMKG MKG20070523123009305/23/07 12:30:31  5-MIN KMKG 231730Z 22008KT 10SM CLR 27/09 A3019 380 33 1900 220/08 RMK AO2
14840KMKG MKG20070523123509305/23/07 12:35:31  5-MIN KMKG 231735Z 18008KT 10SM CLR 28/10 A3019 380 32 2000 180/08 RMK AO2
14840KMKG MKG20070523124009305/23/07 12:40:31  5-MIN KMKG 231740Z 18010KT 10SM CLR 27/10 A3019 380 33 1900 180/10 RMK AO2
14840KMKG MKG20070523124509305/23/07 12:45:31  5-MIN KMKG 231745Z 19009KT 10SM CLR 27/09 A3019 380 32 1900 200/09 RMK AO2
14840KMKG MKG20070523125012805/23/07 12:50:31  5-MIN KMKG 231750Z 18008KT 10SM CLR 27/09 A3019 380 32 1900 180/08 RMK AO2 SLP220 T02720094 10278 20189 51008
14840KMKG MKG20070523125512805/23/07 12:55:31  5-MIN KMKG 231755Z 17011KT 10SM CLR 28/10 A3019 380 32 2000 180/11 RMK AO2 SLP220 T02780100 10278 20189 58002
14840KMKG MKG20070523130009305/23/07 13:00:31  5-MIN KMKG 231800Z 17009KT 10SM CLR 28/10 A3019 380 32 2000 170/09 RMK AO2
14840KMKG MKG20070523130509305/23/07 13:05:31  5-MIN KMKG 231805Z 19008KT 10SM CLR 28/09 A3019 390 31 2000 190/08 RMK AO2
14840KMKG MKG20070523131009305/23/07 13:10:31  5-MIN KMKG 231810Z 19010KT 10SM CLR 28/09 A3018 390 31 2000 200/10 RMK AO2
14840KMKG MKG20070523131509305/23/07 13:15:31  5-MIN KMKG 231815Z 20011KT 10SM CLR 28/09 A3018 390 31 2000 200/11 RMK AO2
14840KMKG MKG20070523132009305/23/07 13:20:31  5-MIN KMKG 231820Z 19010KT 10SM CLR 28/09 A3018 390 31 2000 200/10 RMK AO2
14840KMKG MKG20070523132509305/23/07 13:25:31  5-MIN KMKG 231825Z 20010KT 10SM CLR 28/09 A3018 390 31 2000 200/10 RMK AO2
14840KMKG MKG20070523133009305/23/07 13:30:31  5-MIN KMKG 231830Z 19010KT 10SM CLR 28/09 A3018 390 30 2000 200/10 RMK AO2
14840KMKG MKG20070523133509305/23/07 13:35:31  5-MIN KMKG 231835Z 19011KT 10SM CLR 28/09 A3017 400 30 2000 190/11 RMK AO2
14840KMKG MKG20070523134009305/23/07 13:40:31  5-MIN KMKG 231840Z 18011KT 10SM CLR 28/09 A3018 390 29 2100 180/11 RMK AO2
14840KMKG MKG20070523134509905/23/07 13:45:31  5-MIN KMKG 231845Z 20012G18KT 10SM CLR 28/09 A3018 390 30 2000 200/12G18 RMK AO2
14840KMKG MKG20070523135011605/23/07 13:50:31  5-MIN KMKG 231850Z 19012G19KT 10SM CLR 28/09 A3018 390 30 2000 190/12G19 RMK AO2 SLP215 T02780089
14840KMKG MKG20070523135511605/23/07 13:55:31  5-MIN KMKG 231855Z 18012G19KT 10SM CLR 28/09 A3018 400 31 2000 180/12G19 RMK AO2 SLP215 T02780094
14840KMKG MKG20070523140009905/23/07 14:00:31  5-MIN KMKG 231900Z 18011G17KT 10SM CLR 28/09 A3017 400 31 2000 180/11G17 RMK AO2
14840KMKG MKG20070523140509305/23/07 14:05:31  5-MIN KMKG 231905Z 18011KT 10SM CLR 27/09 A3017 400 32 1900 190/11 RMK AO2
14840KMKG MKG20070523141009905/23/07 14:10:31  5-MIN KMKG 231910Z 19009G16KT 10SM CLR 27/09 A3017 400 33 1900 190/09G16 RMK AO2
14840KMKG MKG20070523141509305/23/07 14:15:31  5-MIN KMKG 231915Z 19009KT 10SM CLR 27/10 A3017 400 34 1900 200/09 RMK AO2
14840KMKG MKG20070523142009305/23/07 14:20:31  5-MIN KMKG 231920Z 20009KT 10SM CLR 27/10 A3017 400 34 1900 200/09 RMK AO2
14840KMKG MKG20070523142509305/23/07 14:25:31  5-MIN KMKG 231925Z 19008KT 10SM CLR 27/10 A3017 400 33 1900 200/08 RMK AO2
14840KMKG MKG20070523143009305/23/07 14:30:31  5-MIN KMKG 231930Z 20009KT 10SM CLR 27/10 A3017 400 33 1900 200/09 RMK AO2
14840KMKG MKG20070523143509305/23/07 14:35:31  5-MIN KMKG 231935Z 19008KT 10SM CLR 28/11 A3016 400 33 2000 200/08 RMK AO2
14840KMKG MKG20070523144009305/23/07 14:40:31  5-MIN KMKG 231940Z 21006KT 10SM CLR 28/11 A3016 410 32 2100 210/06 RMK AO2
14840KMKG MKG20070523144509305/23/07 14:45:31  5-MIN KMKG 231945Z 20010KT 10SM CLR 28/10 A3016 410 32 2000 200/10 RMK AO2
14840KMKG MKG20070523145011005/23/07 14:50:31  5-MIN KMKG 231950Z 21009KT 10SM CLR 27/10 A3016 410 33 1900 220/09 RMK AO2 SLP212 T02720100
14840KMKG MKG20070523145511005/23/07 14:55:31  5-MIN KMKG 231955Z 19007KT 10SM CLR 27/10 A3016 410 33 2000 200/07 RMK AO2 SLP211 T02720100
14840KMKG MKG20070523150009305/23/07 15:00:31  5-MIN KMKG 232000Z 21007KT 10SM CLR 27/10 A3016 410 33 2000 210/07 RMK AO2
14840KMKG MKG20070523150509305/23/07 15:05:31  5-MIN KMKG 232005Z 21005KT 10SM CLR 27/11 A3016 410 34 2000 210/05 RMK AO2
14840KMKG MKG20070523151009305/23/07 15:10:31  5-MIN KMKG 232010Z 21007KT 10SM CLR 27/11 A3016 410 34 2000 210/07 RMK AO2
14840KMKG MKG20070523151509305/23/07 15:15:31  5-MIN KMKG 232015Z 22007KT 10SM CLR 27/10 A3016 410 33 2000 230/07 RMK AO2
14840KMKG MKG20070523152009305/23/07 15:20:31  5-MIN KMKG 232020Z 21007KT 10SM CLR 28/10 A3016 410 32 2000 210/07 RMK AO2
14840KMKG MKG20070523152509305/23/07 15:25:31  5-MIN KMKG 232025Z 20007KT 10SM CLR 27/10 A3015 420 33 2000 200/07 RMK AO2
14840KMKG MKG20070523153009305/23/07 15:30:31  5-MIN KMKG 232030Z 20006KT 10SM CLR 27/10 A3015 420 33 2000 210/06 RMK AO2
14840KMKG MKG20070523153509305/23/07 15:35:31  5-MIN KMKG 232035Z 19009KT 10SM CLR 27/10 A3015 420 33 2000 200/09 RMK AO2
14840KMKG MKG20070523154009305/23/07 15:40:31  5-MIN KMKG 232040Z 19009KT 10SM CLR 28/10 A3015 420 32 2000 200/09 RMK AO2
14840KMKG MKG20070523154509305/23/07 15:45:31  5-MIN KMKG 232045Z 19008KT 10SM CLR 28/10 A3015 420 32 2000 200/08 RMK AO2
14840KMKG MKG20070523155011605/23/07 15:50:31  5-MIN KMKG 232050Z 19008KT 10SM CLR 28/10 A3015 420 32 2000 190/08 RMK AO2 SLP206 T02780100 58002
14840KMKG MKG20070523155511605/23/07 15:55:31  5-MIN KMKG 232055Z 18009KT 10SM CLR 28/10 A3014 420 31 2100 180/09 RMK AO2 SLP206 T02830100 58015
14840KMKG MKG20070523160009305/23/07 16:00:31  5-MIN KMKG 232100Z 19008KT 10SM CLR 28/10 A3014 420 31 2100 200/08 RMK AO2
14840KMKG MKG20070523160509305/23/07 16:05:31  5-MIN KMKG 232105Z 19010KT 10SM CLR 28/10 A3014 420 31 2100 190/10 RMK AO2
14840KMKG MKG20070523161009305/23/07 16:10:31  5-MIN KMKG 232110Z 18011KT 10SM CLR 29/10 A3014 430 30 2200 190/11 RMK AO2
14840KMKG MKG20070523161509305/23/07 16:15:31  5-MIN KMKG 232115Z 19009KT 10SM CLR 29/10 A3014 430 29 2200 190/09 RMK AO2
14840KMKG MKG20070523162009305/23/07 16:20:31  5-MIN KMKG 232120Z 19011KT 10SM CLR 29/09 A3014 430 28 2200 190/11 RMK AO2
14840KMKG MKG20070523162509305/23/07 16:25:31  5-MIN KMKG 232125Z 18011KT 10SM CLR 29/09 A3014 430 29 2200 180/11 RMK AO2
14840KMKG MKG20070523163009905/23/07 16:30:31  5-MIN KMKG 232130Z 19010G17KT 10SM CLR 29/09 A3014 430 29 2200 190/10G17 RMK AO2
14840KMKG MKG20070523163509905/23/07 16:35:31  5-MIN KMKG 232135Z 18010G17KT 10SM CLR 29/09 A3014 430 28 2200 190/10G17 RMK AO2
14840KMKG MKG20070523164009905/23/07 16:40:31  5-MIN KMKG 232140Z 18010G17KT 10SM CLR 30/09 A3013 430 27 2300 180/10G17 RMK AO2
14840KMKG MKG20070523164509305/23/07 16:45:31  5-MIN KMKG 232145Z 18011KT 10SM CLR 29/09 A3013 430 28 2200 190/11 RMK AO2
14840KMKG MKG20070523165011005/23/07 16:50:31  5-MIN KMKG 232150Z 18010KT 10SM CLR 29/09 A3013 440 28 2200 190/10 RMK AO2 SLP200 T02940094
14840KMKG MKG20070523165511005/23/07 16:55:31  5-MIN KMKG 232155Z 18010KT 10SM CLR 30/09 A3013 440 27 2300 180/10 RMK AO2 SLP199 T03000094
14840KMKG MKG20070523170009905/23/07 17:00:31  5-MIN KMKG 232200Z 19010G17KT 10SM CLR 29/09 A3013 440 28 2200 190/10G17 RMK AO2
14840KMKG MKG20070523170509805/23/07 17:05:31  5-MIN KMKG 232205Z 18012G17KT 9SM CLR 30/09 A3013 440 26 2300 180/12G17 RMK AO2
14840KMKG MKG20070523171009805/23/07 17:10:31  5-MIN KMKG 232210Z 18008G17KT 9SM CLR 29/09 A3013 440 28 2200 190/08G17 RMK AO2
14840KMKG MKG20070523171510105/23/07 17:15:31  5-MIN KMKG 232215Z 18011G18KT 9SM FEW085 29/09 A3013 440 28 2200 180/11G18 RMK AO2
14840KMKG MKG20070523172010105/23/07 17:20:31  5-MIN KMKG 232220Z 19009G18KT 9SM FEW085 28/09 A3013 440 29 2100 190/09G18 RMK AO2
14840KMKG MKG20070523172509505/23/07 17:25:31  5-MIN KMKG 232225Z 18009KT 9SM FEW085 29/09 A3012 440 28 2200 190/09 RMK AO2
14840KMKG MKG20070523173009205/23/07 17:30:31  5-MIN KMKG 232230Z 18009KT 9SM CLR 29/09 A3012 440 28 2200 190/09 RMK AO2
14840KMKG MKG20070523173509205/23/07 17:35:31  5-MIN KMKG 232235Z 18009KT 9SM CLR 29/09 A3012 440 28 2200 180/09 RMK AO2
14840KMKG MKG20070523174009205/23/07 17:40:31  5-MIN KMKG 232240Z 18010KT 9SM CLR 29/09 A3012 440 28 2200 190/10 RMK AO2
14840KMKG MKG20070523174509205/23/07 17:45:31  5-MIN KMKG 232245Z 17010KT 9SM CLR 29/09 A3012 450 28 2200 170/10 RMK AO2
14840KMKG MKG20070523175010905/23/07 17:50:31  5-MIN KMKG 232250Z 18009KT 9SM CLR 29/09 A3012 450 27 2200 190/09 RMK AO2 SLP196 T02940089
14840KMKG MKG20070523175510905/23/07 17:55:31  5-MIN KMKG 232255Z 18009KT 9SM CLR 29/09 A3012 450 28 2200 180/09 RMK AO2 SLP196 T02940094
14840KMKG MKG20070523180009805/23/07 18:00:31  5-MIN KMKG 232300Z 19007G15KT 9SM CLR 29/09 A3012 450 27 2200 190/07G15 RMK AO2
14840KMKG MKG20070523180509805/23/07 18:05:31  5-MIN KMKG 232305Z 18011G15KT 9SM CLR 29/09 A3012 450 28 2200 180/11G15 RMK AO2
14840KMKG MKG20070523181009205/23/07 18:10:31  5-MIN KMKG 232310Z 18008KT 9SM CLR 29/09 A3011 450 28 2200 190/08 RMK AO2
14840KMKG MKG20070523181509205/23/07 18:15:31  5-MIN KMKG 232315Z 18009KT 9SM CLR 29/09 A3011 450 28 2200 190/09 RMK AO2
14840KMKG MKG20070523182009505/23/07 18:20:31  5-MIN KMKG 232320Z 18009KT 9SM FEW085 29/09 A3011 450 28 2200 190/09 RMK AO2
14840KMKG MKG20070523182510105/23/07 18:25:31  5-MIN KMKG 232325Z 18008G15KT 9SM FEW085 29/09 A3011 450 28 2200 190/08G15 RMK AO2
14840KMKG MKG20070523183009505/23/07 18:30:31  5-MIN KMKG 232330Z 18010KT 8SM FEW085 29/09 A3011 450 28 2200 180/10 RMK AO2
14840KMKG MKG20070523183509505/23/07 18:35:31  5-MIN KMKG 232335Z 18009KT 8SM FEW085 28/08 A3011 460 28 2100 180/09 RMK AO2
14840KMKG MKG20070523184009205/23/07 18:40:31  5-MIN KMKG 232340Z 18009KT 9SM CLR 28/09 A3011 460 29 2100 190/09 RMK AO2
14840KMKG MKG20070523184509205/23/07 18:45:31  5-MIN KMKG 232345Z 17008KT 8SM CLR 28/09 A3011 460 29 2100 180/08 RMK AO2
14840KMKG MKG20070523185012705/23/07 18:50:31  5-MIN KMKG 232350Z 18008KT 8SM CLR 28/09 A3011 460 29 2100 190/08 RMK AO2 SLP192 T02830089 10300 20267 58015
14840KMKG MKG20070523185512705/23/07 18:55:31  5-MIN KMKG 232355Z 18009KT 8SM CLR 28/08 A3011 460 28 2100 180/09 RMK AO2 SLP192 T02830083 10300 20267 56012
14840KMKG MKG20070523190009205/23/07 19:00:31  5-MIN KMKG 240000Z 17008KT 8SM CLR 28/08 A3011 460 29 2100 180/08 RMK AO2
14840KMKG MKG20070523190509205/23/07 19:05:31  5-MIN KMKG 240005Z 17007KT 8SM CLR 28/08 A3010 460 29 2100 180/07 RMK AO2
14840KMKG MKG20070523191009205/23/07 19:10:31  5-MIN KMKG 240010Z 17007KT 8SM CLR 28/08 A3010 460 29 2100 170/07 RMK AO2
14840KMKG MKG20070523191509205/23/07 19:15:31  5-MIN KMKG 240015Z 17006KT 8SM CLR 28/08 A3011 460 29 2100 170/06 RMK AO2
14840KMKG MKG20070523192009205/23/07 19:20:31  5-MIN KMKG 240020Z 17008KT 8SM CLR 27/08 A3011 460 30 2000 180/08 RMK AO2
14840KMKG MKG20070523192509205/23/07 19:25:31  5-MIN KMKG 240025Z 17006KT 8SM CLR 27/08 A3011 460 30 2000 170/06 RMK AO2
14840KMKG MKG20070523193009205/23/07 19:30:31  5-MIN KMKG 240030Z 17006KT 8SM CLR 27/08 A3011 460 31 1900 170/06 RMK AO2
14840KMKG MKG20070523193509205/23/07 19:35:31  5-MIN KMKG 240035Z 17006KT 8SM CLR 27/08 A3011 460 31 1900 170/06 RMK AO2
14840KMKG MKG20070523194009205/23/07 19:40:31  5-MIN KMKG 240040Z 17006KT 8SM CLR 27/08 A3011 460 31 1900 170/06 RMK AO2
14840KMKG MKG20070523194509205/23/07 19:45:31  5-MIN KMKG 240045Z 16007KT 8SM CLR 27/08 A3011 460 31 1900 170/07 RMK AO2
14840KMKG MKG20070523195010905/23/07 19:50:31  5-MIN KMKG 240050Z 16006KT 8SM CLR 27/08 A3011 460 31 1900 160/06 RMK AO2 SLP191 T02670083
14840KMKG MKG20070523195510905/23/07 19:55:31  5-MIN KMKG 240055Z 16005KT 8SM CLR 26/08 A3011 460 32 1900 170/05 RMK AO2 SLP191 T02610083
14840KMKG MKG20070523200009205/23/07 20:00:31  5-MIN KMKG 240100Z 16004KT 8SM CLR 26/08 A3011 460 33 1800 160/04 RMK AO2
14840KMKG MKG20070523200509205/23/07 20:05:31  5-MIN KMKG 240105Z 15004KT 8SM CLR 25/08 A3011 460 34 1800 160/04 RMK AO2
14840KMKG MKG20070523201009205/23/07 20:10:31  5-MIN KMKG 240110Z 15005KT 8SM CLR 25/09 A3011 460 35 1800 160/05 RMK AO2
14840KMKG MKG20070523201509205/23/07 20:15:31  5-MIN KMKG 240115Z 16005KT 8SM CLR 25/09 A3011 460 35 1800 160/05 RMK AO2
14840KMKG MKG20070523202009205/23/07 20:20:31  5-MIN KMKG 240120Z 16005KT 8SM CLR 25/09 A3011 450 35 1800 160/05 RMK AO2
14840KMKG MKG20070523202509205/23/07 20:25:31  5-MIN KMKG 240125Z 16005KT 8SM CLR 25/09 A3011 450 37 1800 160/05 RMK AO2
14840KMKG MKG20070523203009205/23/07 20:30:31  5-MIN KMKG 240130Z 16006KT 9SM CLR 24/09 A3011 450 38 1700 160/06 RMK AO2
14840KMKG MKG20070523203509205/23/07 20:35:31  5-MIN KMKG 240135Z 16006KT 9SM CLR 24/09 A3012 450 38 1700 170/06 RMK AO2
14840KMKG MKG20070523204009205/23/07 20:40:31  5-MIN KMKG 240140Z 16006KT 9SM CLR 24/09 A3012 450 38 1700 170/06 RMK AO2
14840KMKG MKG20070523204509205/23/07 20:45:31  5-MIN KMKG 240145Z 17006KT 9SM CLR 24/09 A3012 450 38 1700 170/06 RMK AO2
14840KMKG MKG20070523205010905/23/07 20:50:31  5-MIN KMKG 240150Z 16005KT 9SM CLR 24/09 A3012 450 39 1600 170/05 RMK AO2 SLP196 T02390094
14840KMKG MKG20070523205510905/23/07 20:55:31  5-MIN KMKG 240155Z 17005KT 9SM CLR 24/09 A3012 440 39 1600 170/05 RMK AO2 SLP198 T02390094
14840KMKG MKG20070523210009205/23/07 21:00:31  5-MIN KMKG 240200Z 17006KT 9SM CLR 24/09 A3013 440 39 1600 170/06 RMK AO2
14840KMKG MKG20070523210509205/23/07 21:05:31  5-MIN KMKG 240205Z 16007KT 9SM CLR 24/09 A3013 440 39 1600 170/07 RMK AO2
14840KMKG MKG20070523211009205/23/07 21:10:31  5-MIN KMKG 240210Z 17006KT 9SM CLR 24/09 A3013 440 38 1700 170/06 RMK AO2
14840KMKG MKG20070523211509205/23/07 21:15:31  5-MIN KMKG 240215Z 16006KT 9SM CLR 24/09 A3013 440 39 1600 170/06 RMK AO2
14840KMKG MKG20070523212009205/23/07 21:20:31  5-MIN KMKG 240220Z 17006KT 9SM CLR 24/09 A3013 430 39 1600 170/06 RMK AO2
14840KMKG MKG20070523212509205/23/07 21:25:31  5-MIN KMKG 240225Z 17006KT 9SM CLR 24/09 A3013 430 39 1600 170/06 RMK AO2
14840KMKG MKG20070523213009205/23/07 21:30:31  5-MIN KMKG 240230Z 17006KT 9SM CLR 24/09 A3014 430 39 1600 170/06 RMK AO2
14840KMKG MKG20070523213509205/23/07 21:35:31  5-MIN KMKG 240235Z 18006KT 9SM CLR 24/09 A3014 430 38 1600 180/06 RMK AO2
14840KMKG MKG20070523214009205/23/07 21:40:31  5-MIN KMKG 240240Z 18006KT 9SM CLR 24/09 A3014 430 38 1600 180/06 RMK AO2
14840KMKG MKG20070523214509205/23/07 21:45:31  5-MIN KMKG 240245Z 17005KT 9SM CLR 23/09 A3014 430 39 1500 170/05 RMK AO2
14840KMKG MKG20070523215011505/23/07 21:50:31  5-MIN KMKG 240250Z 17004KT 9SM CLR 23/09 A3014 430 40 1500 170/04 RMK AO2 SLP204 T02280089 56012
14840KMKG MKG20070523215511505/23/07 21:55:31  5-MIN KMKG 240255Z 16003KT 9SM CLR 23/09 A3014 430 40 1500 160/03 RMK AO2 SLP204 T02280089 53012
14840KMKG MKG20070523220009205/23/07 22:00:31  5-MIN KMKG 240300Z 15003KT 9SM CLR 21/10 A3015 420 48 1300 150/03 RMK AO2
14840KMKG MKG20070523220509205/23/07 22:05:31  5-MIN KMKG 240305Z 15003KT 8SM CLR 21/11 A3015 420 52 1200 150/03 RMK AO2
14840KMKG MKG20070523221009205/23/07 22:10:31  5-MIN KMKG 240310Z 15004KT 8SM CLR 20/11 A3015 420 54 1100 150/04 RMK AO2
14840KMKG MKG20070523221509205/23/07 22:15:31  5-MIN KMKG 240315Z 17003KT 8SM CLR 19/11 A3015 420 56 1100 180/03 RMK AO2
14840KMKG MKG20070523222009205/23/07 22:20:31  5-MIN KMKG 240320Z 00000KT 8SM CLR 21/11 A3015 420 52 1200 000/00 RMK AO2
14840KMKG MKG20070523222509205/23/07 22:25:31  5-MIN KMKG 240325Z 16003KT 8SM CLR 20/10 A3015 420 52 1100 170/03 RMK AO2
14840KMKG MKG20070523223009205/23/07 22:30:31  5-MIN KMKG 240330Z 17006KT 8SM CLR 21/10 A3015 420 48 1300 180/06 RMK AO2
14840KMKG MKG20070523223509205/23/07 22:35:31  5-MIN KMKG 240335Z 18008KT 8SM CLR 23/09 A3015 420 41 1500 180/08 RMK AO2
14840KMKG MKG20070523224009205/23/07 22:40:31  5-MIN KMKG 240340Z 19009KT 8SM CLR 24/09 A3015 420 38 1600 190/09 RMK AO2
14840KMKG MKG20070523224509205/23/07 22:45:31  5-MIN KMKG 240345Z 18010KT 8SM CLR 24/09 A3015 420 38 1600 190/10 RMK AO2
14840KMKG MKG20070523225010905/23/07 22:50:31  5-MIN KMKG 240350Z 19009KT 8SM CLR 24/09 A3015 420 38 1600 190/09 RMK AO2 SLP206 T02440094
14840KMKG MKG20070523225510905/23/07 22:55:31  5-MIN KMKG 240355Z 18010KT 8SM CLR 24/09 A3015 420 38 1600 190/10 RMK AO2 SLP206 T02440094
14840KMKG MKG20070523230009205/23/07 23:00:31  5-MIN KMKG 240400Z 18009KT 8SM CLR 24/09 A3015 420 38 1600 190/09 RMK AO2
14840KMKG MKG20070523230509205/23/07 23:05:31  5-MIN KMKG 240405Z 19010KT 8SM CLR 24/09 A3015 420 36 1600 190/10 RMK AO2
14840KMKG MKG20070523231009205/23/07 23:10:31  5-MIN KMKG 240410Z 18011KT 8SM CLR 24/09 A3015 420 36 1600 190/11 RMK AO2
14840KMKG MKG20070523231509205/23/07 23:15:31  5-MIN KMKG 240415Z 19010KT 8SM CLR 24/09 A3016 410 38 1600 190/10 RMK AO2
14840KMKG MKG20070523232009205/23/07 23:20:31  5-MIN KMKG 240420Z 19011KT 8SM CLR 24/09 A3016 410 36 1600 190/11 RMK AO2
14840KMKG MKG20070523232509205/23/07 23:25:31  5-MIN KMKG 240425Z 19012KT 8SM CLR 24/09 A3016 410 36 1600 190/12 RMK AO2
14840KMKG MKG20070523233009805/23/07 23:30:31  5-MIN KMKG 240430Z 19013G18KT 8SM CLR 24/09 A3016 410 36 1600 190/13G18 RMK AO2
14840KMKG MKG20070523233509805/23/07 23:35:31  5-MIN KMKG 240435Z 19014G21KT 8SM CLR 25/09 A3016 410 35 1700 190/14G21 RMK AO2
14840KMKG MKG20070523234009805/23/07 23:40:31  5-MIN KMKG 240440Z 19013G21KT 8SM CLR 25/09 A3016 410 35 1700 200/13G21 RMK AO2
14840KMKG MKG20070523234509805/23/07 23:45:31  5-MIN KMKG 240445Z 19014G22KT 8SM CLR 25/09 A3017 400 35 1700 200/14G22 RMK AO2
14840KMKG MKG20070523235012505/23/07 23:50:31  5-MIN KMKG 240450Z 19013G22KT 8SM CLR 25/09 A3017 400 35 1700 200/13G22 RMK AO2 SLP212 T02500089 403000133
14840KMKG MKG20070523235512505/23/07 23:55:31  5-MIN KMKG 240455Z 19013G19KT 8SM CLR 25/09 A3017 400 35 1700 200/13G19 RMK AO2 SLP212 T02500089 403000133
14840KMKG MKG20070524000009805/24/07 00:00:32  5-MIN KMKG 240500Z 19013G19KT 8SM CLR 25/09 A3017 400 35 1700 200/13G19 RMK AO2
14840KMKG MKG20070524000509805/24/07 00:05:31  5-MIN KMKG 240505Z 19013G20KT 8SM CLR 25/09 A3017 400 35 1700 190/13G20 RMK AO2
14840KMKG MKG20070524001009805/24/07 00:10:31  5-MIN KMKG 240510Z 19013G20KT 8SM CLR 25/09 A3017 400 35 1700 200/13G20 RMK AO2
14840KMKG MKG20070524001509805/24/07 00:15:31  5-MIN KMKG 240515Z 19013G20KT 8SM CLR 25/09 A3017 400 35 1700 190/13G20 RMK AO2
14840KMKG MKG20070524002009805/24/07 00:20:31  5-MIN KMKG 240520Z 19015G19KT 8SM CLR 25/09 A3017 400 35 1700 200/15G19 RMK AO2
14840KMKG MKG20070524002509805/24/07 00:25:31  5-MIN KMKG 240525Z 19013G20KT 8SM CLR 25/09 A3017 400 37 1700 190/13G20 RMK AO2
14840KMKG MKG20070524003009805/24/07 00:30:31  5-MIN KMKG 240530Z 19012G20KT 8SM CLR 24/09 A3018 390 38 1600 200/12G20 RMK AO2
14840KMKG MKG20070524003509805/24/07 00:35:31  5-MIN KMKG 240535Z 19012G21KT 8SM CLR 25/09 A3018 390 37 1700 190/12G21 RMK AO2
14840KMKG MKG20070524004009805/24/07 00:40:31  5-MIN KMKG 240540Z 19015G21KT 8SM CLR 24/09 A3018 390 38 1600 190/15G21 RMK AO2
14840KMKG MKG20070524004509205/24/07 00:45:31  5-MIN KMKG 240545Z 19013KT 8SM CLR 24/09 A3018 390 38 1600 200/13 RMK AO2
14840KMKG MKG20070524005513305/24/07 00:55:31  5-MIN KMKG 240555Z 20015G20KT 8SM CLR 24/09 A3018 390 38 1600 200/15G20 RMK AO2 SLP216 T02440094 10283 20194 52013
14840KMKG MKG20070524010009805/24/07 01:00:31  5-MIN KMKG 240600Z 20014G20KT 8SM CLR 24/09 A3018 390 38 1600 200/14G20 RMK AO2
14840KMKG MKG20070524010509805/24/07 01:05:31  5-MIN KMKG 240605Z 19012G20KT 8SM CLR 24/09 A3018 390 39 1600 200/12G20 RMK AO2
14840KMKG MKG20070524011009805/24/07 01:10:31  5-MIN KMKG 240610Z 19013G21KT 8SM CLR 24/09 A3018 390 39 1600 200/13G21 RMK AO2
14840KMKG MKG20070524011509805/24/07 01:15:31  5-MIN KMKG 240615Z 19014G21KT 8SM CLR 24/09 A3018 390 38 1600 200/14G21 RMK AO2
14840KMKG MKG20070524012009805/24/07 01:20:31  5-MIN KMKG 240620Z 19013G20KT 8SM CLR 24/10 A3018 390 41 1500 200/13G20 RMK AO2
14840KMKG MKG20070524012509805/24/07 01:25:31  5-MIN KMKG 240625Z 20016G21KT 8SM CLR 24/10 A3018 390 41 1500 200/16G21 RMK AO2
14840KMKG MKG20070524013009805/24/07 01:30:31  5-MIN KMKG 240630Z 20011G22KT 8SM CLR 24/10 A3018 390 41 1600 200/11G22 RMK AO2
14840KMKG MKG20070524013509805/24/07 01:35:31  5-MIN KMKG 240635Z 19014G22KT 8SM CLR 24/10 A3018 390 41 1600 200/14G22 RMK AO2
14840KMKG MKG20070524014009205/24/07 01:40:31  5-MIN KMKG 240640Z 20012KT 8SM CLR 24/10 A3018 390 41 1600 200/12 RMK AO2
14840KMKG MKG20070524014509805/24/07 01:45:31  5-MIN KMKG 240645Z 19013G19KT 8SM CLR 23/10 A3018 390 42 1500 200/13G19 RMK AO2
14840KMKG MKG20070524015011505/24/07 01:50:31  5-MIN KMKG 240650Z 19012G19KT 8SM CLR 24/10 A3018 390 41 1600 200/12G19 RMK AO2 SLP215 T02390100
14840KMKG MKG20070524015510905/24/07 01:55:31  5-MIN KMKG 240655Z 19014KT 8SM CLR 23/10 A3018 390 42 1500 200/14 RMK AO2 SLP215 T02330100
14840KMKG MKG20070524020009205/24/07 02:00:31  5-MIN KMKG 240700Z 20013KT 8SM CLR 23/10 A3017 400 42 1500 200/13 RMK AO2
14840KMKG MKG20070524020509805/24/07 02:05:31  5-MIN KMKG 240705Z 19013G19KT 8SM CLR 23/10 A3017 400 42 1500 190/13G19 RMK AO2
14840KMKG MKG20070524021009805/24/07 02:10:31  5-MIN KMKG 240710Z 19014G21KT 8SM CLR 23/10 A3017 400 42 1500 190/14G21 RMK AO2
14840KMKG MKG20070524021509805/24/07 02:15:31  5-MIN KMKG 240715Z 19014G21KT 8SM CLR 23/10 A3017 400 42 1500 190/14G21 RMK AO2
14840KMKG MKG20070524022009805/24/07 02:20:31  5-MIN KMKG 240720Z 19014G19KT 8SM CLR 23/10 A3017 400 42 1500 200/14G19 RMK AO2
14840KMKG MKG20070524022509205/24/07 02:25:31  5-MIN KMKG 240725Z 19013KT 8SM CLR 23/10 A3017 400 42 1500 190/13 RMK AO2
14840KMKG MKG20070524023009805/24/07 02:30:31  5-MIN KMKG 240730Z 19015G19KT 8SM CLR 23/10 A3017 400 42 1500 200/15G19 RMK AO2
14840KMKG MKG20070524023509805/24/07 02:35:31  5-MIN KMKG 240735Z 19014G19KT 8SM CLR 23/10 A3017 400 42 1500 200/14G19 RMK AO2
14840KMKG MKG20070524024009805/24/07 02:40:31  5-MIN KMKG 240740Z 19013G19KT 8SM CLR 23/10 A3017 400 42 1500 200/13G19 RMK AO2
14840KMKG MKG20070524024509205/24/07 02:45:31  5-MIN KMKG 240745Z 19014KT 8SM CLR 23/10 A3018 390 42 1500 200/14 RMK AO2
14840KMKG MKG20070524025011505/24/07 02:50:31  5-MIN KMKG 240750Z 20013G19KT 8SM CLR 23/10 A3018 390 44 1400 200/13G19 RMK AO2 SLP214 T02280100
14840KMKG MKG20070524025510905/24/07 02:55:31  5-MIN KMKG 240755Z 19013KT 8SM CLR 23/10 A3018 390 44 1400 200/13 RMK AO2 SLP215 T02280100
14840KMKG MKG20070524030009805/24/07 03:00:31  5-MIN KMKG 240800Z 19015G20KT 8SM CLR 23/10 A3018 390 44 1400 200/15G20 RMK AO2
14840KMKG MKG20070524030509805/24/07 03:05:31  5-MIN KMKG 240805Z 20014G20KT 8SM CLR 23/10 A3018 390 44 1400 200/14G20 RMK AO2
14840KMKG MKG20070524031009805/24/07 03:10:31  5-MIN KMKG 240810Z 19015G20KT 8SM CLR 23/10 A3018 390 44 1400 200/15G20 RMK AO2
14840KMKG MKG20070524031509805/24/07 03:15:31  5-MIN KMKG 240815Z 19014G20KT 8SM CLR 23/10 A3018 400 44 1400 190/14G20 RMK AO2
14840KMKG MKG20070524032009205/24/07 03:20:31  5-MIN KMKG 240820Z 19012KT 8SM CLR 23/10 A3018 390 44 1400 200/12 RMK AO2
14840KMKG MKG20070524032509805/24/07 03:25:31  5-MIN KMKG 240825Z 19014G20KT 8SM CLR 23/10 A3018 390 44 1400 190/14G20 RMK AO2
14840KMKG MKG20070524033009805/24/07 03:30:31  5-MIN KMKG 240830Z 20012G20KT 8SM CLR 23/10 A3018 390 44 1400 200/12G20 RMK AO2
14840KMKG MKG20070524033509805/24/07 03:35:31  5-MIN KMKG 240835Z 20014G23KT 8SM CLR 23/10 A3018 400 44 1400 200/14G23 RMK AO2
14840KMKG MKG20070524034009805/24/07 03:40:31  5-MIN KMKG 240840Z 19014G23KT 8SM CLR 23/10 A3017 400 44 1400 200/14G23 RMK AO2
14840KMKG MKG20070524034509805/24/07 03:45:31  5-MIN KMKG 240845Z 19014G21KT 8SM CLR 22/10 A3017 400 45 1400 200/14G21 RMK AO2
14840KMKG MKG20070524035012105/24/07 03:50:31  5-MIN KMKG 240850Z 19013G19KT 8SM CLR 22/10 A3017 400 45 1400 200/13G19 RMK AO2 SLP214 T02220100 52013
14840KMKG MKG20070524035511505/24/07 03:55:31  5-MIN KMKG 240855Z 19012KT 8SM CLR 22/10 A3018 390 45 1400 200/12 RMK AO2 SLP215 T02220100 56001
14840KMKG MKG20070524040009205/24/07 04:00:31  5-MIN KMKG 240900Z 19013KT 8SM CLR 22/10 A3018 390 45 1400 200/13 RMK AO2
14840KMKG MKG20070524040509805/24/07 04:05:31  5-MIN KMKG 240905Z 19014G20KT 9SM CLR 22/10 A3018 390 45 1400 200/14G20 RMK AO2
14840KMKG MKG20070524041009805/24/07 04:10:31  5-MIN KMKG 240910Z 20013G20KT 9SM CLR 22/10 A3018 390 45 1400 200/13G20 RMK AO2
14840KMKG MKG20070524041509205/24/07 04:15:31  5-MIN KMKG 240915Z 19012KT 9SM CLR 22/10 A3018 390 45 1400 200/12 RMK AO2
14840KMKG MKG20070524042009205/24/07 04:20:31  5-MIN KMKG 240920Z 19012KT 9SM CLR 22/10 A3018 390 45 1400 200/12 RMK AO2
14840KMKG MKG20070524042509205/24/07 04:25:31  5-MIN KMKG 240925Z 19012KT 9SM CLR 22/10 A3018 390 45 1400 190/12 RMK AO2
14840KMKG MKG20070524043009805/24/07 04:30:31  5-MIN KMKG 240930Z 19013G18KT 9SM CLR 22/10 A3018 390 45 1400 200/13G18 RMK AO2
14840KMKG MKG20070524043509805/24/07 04:35:31  5-MIN KMKG 240935Z 19012G18KT 9SM CLR 22/10 A3018 390 45 1400 200/12G18 RMK AO2
14840KMKG MKG20070524044009805/24/07 04:40:31  5-MIN KMKG 240940Z 19013G18KT 9SM CLR 22/10 A3018 390 47 1300 200/13G18 RMK AO2
14840KMKG MKG20070524044509805/24/07 04:45:31  5-MIN KMKG 240945Z 19013G19KT 9SM CLR 22/10 A3018 390 45 1400 190/13G19 RMK AO2
14840KMKG MKG20070524045011505/24/07 04:50:31  5-MIN KMKG 240950Z 19013G19KT 9SM CLR 22/10 A3018 390 45 1400 190/13G19 RMK AO2 SLP217 T02220100
14840KMKG MKG20070524045510905/24/07 04:55:31  5-MIN KMKG 240955Z 19013KT 9SM CLR 22/10 A3018 390 45 1400 190/13 RMK AO2 SLP217 T02220100
14840KMKG MKG20070524050009805/24/07 05:00:31  5-MIN KMKG 241000Z 19012G20KT 9SM CLR 22/10 A3018 390 45 1400 190/12G20 RMK AO2
14840KMKG MKG20070524050509805/24/07 05:05:31  5-MIN KMKG 241005Z 19014G20KT 9SM CLR 22/10 A3018 390 45 1400 200/14G20 RMK AO2
14840KMKG MKG20070524051009805/24/07 05:10:31  5-MIN KMKG 241010Z 19012G20KT 8SM CLR 22/10 A3019 390 45 1400 200/12G20 RMK AO2
14840KMKG MKG20070524051509205/24/07 05:15:31  5-MIN KMKG 241015Z 19011KT 7SM CLR 22/11 A3018 390 47 1400 190/11 RMK AO2
14840KMKG MKG20070524052009205/24/07 05:20:31  5-MIN KMKG 241020Z 19013KT 7SM CLR 22/11 A3018 390 49 1300 190/13 RMK AO2
14840KMKG MKG20070524052509205/24/07 05:25:31  5-MIN KMKG 241025Z 19013KT 7SM CLR 22/11 A3018 390 47 1400 200/13 RMK AO2
14840KMKG MKG20070524053009805/24/07 05:30:31  5-MIN KMKG 241030Z 19013G18KT 7SM CLR 22/11 A3019 390 47 1400 190/13G18 RMK AO2
14840KMKG MKG20070524053509205/24/07 05:35:31  5-MIN KMKG 241035Z 19011KT 7SM CLR 22/11 A3019 380 47 1400 200/11 RMK AO2
14840KMKG MKG20070524054009805/24/07 05:40:31  5-MIN KMKG 241040Z 19012G17KT 7SM CLR 22/11 A3019 380 49 1300 200/12G17 RMK AO2
14840KMKG MKG20070524054509805/24/07 05:45:31  5-MIN KMKG 241045Z 20013G20KT 7SM CLR 22/11 A3019 380 47 1300 200/13G20 RMK AO2
14840KMKG MKG20070524055011505/24/07 05:50:31  5-MIN KMKG 241050Z 20014G20KT 7SM CLR 22/11 A3019 380 47 1300 210/14G20 RMK AO2 SLP220 T02220106
14840KMKG MKG20070524055511505/24/07 05:55:31  5-MIN KMKG 241055Z 20011G20KT 7SM CLR 22/11 A3019 380 47 1300 200/11G20 RMK AO2 SLP220 T02220106
14840KMKG MKG20070524060009805/24/07 06:00:31  5-MIN KMKG 241100Z 20013G20KT 7SM CLR 22/10 A3019 380 45 1300 200/13G20 RMK AO2
14840KMKG MKG20070524060509805/24/07 06:05:31  5-MIN KMKG 241105Z 20014G20KT 8SM CLR 22/10 A3020 380 45 1300 200/14G20 RMK AO2
14840KMKG MKG20070524061009205/24/07 06:10:31  5-MIN KMKG 241110Z 20014KT 8SM CLR 22/11 A3020 380 47 1300 200/14 RMK AO2
14840KMKG MKG20070524061509805/24/07 06:15:31  5-MIN KMKG 241115Z 19013G19KT 7SM CLR 22/11 A3020 380 49 1300 200/13G19 RMK AO2
14840KMKG MKG20070524062009205/24/07 06:20:31  5-MIN KMKG 241120Z 19011KT 8SM CLR 22/10 A3020 370 47 1300 200/11 RMK AO2
14840KMKG MKG20070524062509205/24/07 06:25:31  5-MIN KMKG 241125Z 19013KT 8SM CLR 22/10 A3020 370 47 1300 190/13 RMK AO2
14840KMKG MKG20070524063009205/24/07 06:30:31  5-MIN KMKG 241130Z 19014KT 9SM CLR 22/10 A3020 370 45 1300 190/14 RMK AO2
14840KMKG MKG20070524063509805/24/07 06:35:31  5-MIN KMKG 241135Z 19015G19KT 9SM CLR 22/10 A3021 370 45 1300 190/15G19 RMK AO2
14840KMKG MKG20070524064009805/24/07 06:40:31  5-MIN KMKG 241140Z 19012G19KT 9SM CLR 22/10 A3021 370 45 1300 190/12G19 RMK AO2
14840KMKG MKG20070524064509805/24/07 06:45:31  5-MIN KMKG 241145Z 19012G20KT 9SM CLR 22/10 A3021 370 45 1300 190/12G20 RMK AO2
14840KMKG MKG20070524065013305/24/07 06:50:31  5-MIN KMKG 241150Z 19014G20KT 9SM CLR 23/11 A3021 360 45 1400 190/14G20 RMK AO2 SLP226 T02280106 10244 20217 56001
14840KMKG MKG20070524065513305/24/07 06:55:31  5-MIN KMKG 241155Z 19014G19KT 8SM CLR 23/11 A3021 360 45 1400 190/14G19 RMK AO2 SLP226 T02280106 10244 20217 53011
14840KMKG MKG20070524070009805/24/07 07:00:31  5-MIN KMKG 241200Z 19014G19KT 8SM CLR 23/11 A3021 360 45 1400 190/14G19 RMK AO2
14840KMKG MKG20070524070509205/24/07 07:05:31  5-MIN KMKG 241205Z 19013KT 8SM CLR 23/11 A3021 360 45 1400 200/13 RMK AO2
14840KMKG MKG20070524071009805/24/07 07:10:31  5-MIN KMKG 241210Z 19014G19KT 8SM CLR 23/11 A3021 360 47 1400 200/14G19 RMK AO2
14840KMKG MKG20070524071509805/24/07 07:15:31  5-MIN KMKG 241215Z 19014G19KT 7SM CLR 23/11 A3021 360 47 1400 200/14G19 RMK AO2
14840KMKG MKG20070524072009805/24/07 07:20:31  5-MIN KMKG 241220Z 19012G19KT 7SM CLR 23/11 A3021 360 47 1400 200/12G19 RMK AO2
14840KMKG MKG20070524072509205/24/07 07:25:31  5-MIN KMKG 241225Z 20016KT 7SM CLR 23/11 A3021 360 47 1400 200/16 RMK AO2
14840KMKG MKG20070524073009205/24/07 07:30:31  5-MIN KMKG 241230Z 19013KT 7SM CLR 23/11 A3021 360 45 1500 200/13 RMK AO2
14840KMKG MKG20070524073509805/24/07 07:35:31  5-MIN KMKG 241235Z 19013G21KT 7SM CLR 23/11 A3021 360 45 1400 200/13G21 RMK AO2
14840KMKG MKG20070524074009805/24/07 07:40:31  5-MIN KMKG 241240Z 19011G21KT 7SM CLR 23/11 A3022 360 45 1400 200/11G21 RMK AO2
14840KMKG MKG20070524074509805/24/07 07:45:31  5-MIN KMKG 241245Z 20013G20KT 7SM CLR 23/11 A3022 360 45 1400 200/13G20 RMK AO2
14840KMKG MKG20070524075011505/24/07 07:50:31  5-MIN KMKG 241250Z 19012G20KT 7SM CLR 23/11 A3022 360 45 1400 200/12G20 RMK AO2 SLP228 T02330111
14840KMKG MKG20070524075511505/24/07 07:55:31  5-MIN KMKG 241255Z 20014G20KT 7SM CLR 23/11 A3021 360 45 1400 200/14G20 RMK AO2 SLP228 T02330111
14840KMKG MKG20070524080009805/24/07 08:00:31  5-MIN KMKG 241300Z 19015G19KT 7SM CLR 23/11 A3022 360 45 1400 190/15G19 RMK AO2
14840KMKG MKG20070524080509805/24/07 08:05:31  5-MIN KMKG 241305Z 19014G20KT 7SM CLR 23/11 A3022 360 45 1400 190/14G20 RMK AO2
14840KMKG MKG20070524081009805/24/07 08:10:31  5-MIN KMKG 241310Z 19014G20KT 7SM CLR 23/11 A3022 360 45 1400 190/14G20 RMK AO2
14840KMKG MKG20070524081509805/24/07 08:15:31  5-MIN KMKG 241315Z 19013G19KT 7SM CLR 23/12 A3021 360 47 1500 190/13G19 RMK AO2
14840KMKG MKG20070524082009805/24/07 08:20:31  5-MIN KMKG 241320Z 19015G22KT 7SM CLR 23/12 A3021 360 47 1500 200/15G22 RMK AO2
14840KMKG MKG20070524082509805/24/07 08:25:31  5-MIN KMKG 241325Z 19013G22KT 7SM CLR 23/12 A3021 360 47 1500 200/13G22 RMK AO2
14840KMKG MKG20070524083009805/24/07 08:30:31  5-MIN KMKG 241330Z 19014G22KT 7SM CLR 23/12 A3021 360 47 1500 200/14G22 RMK AO2
14840KMKG MKG20070524083509805/24/07 08:35:31  5-MIN KMKG 241335Z 19014G19KT 7SM CLR 24/12 A3021 360 46 1500 200/14G19 RMK AO2
14840KMKG MKG20070524084009205/24/07 08:40:31  5-MIN KMKG 241340Z 19015KT 7SM CLR 24/12 A3021 360 46 1500 200/15 RMK AO2
14840KMKG MKG20070524084510105/24/07 08:45:31  5-MIN KMKG 241345Z 19017G22KT 6SM HZ CLR 24/12 A3021 360 46 1500 190/17G22 RMK AO2
14840KMKG MKG20070524085011805/24/07 08:50:31  5-MIN KMKG 241350Z 19016G23KT 6SM HZ CLR 24/12 A3021 360 46 1500 200/16G23 RMK AO2 SLP228 T02390117
14840KMKG MKG20070524085511805/24/07 08:55:31  5-MIN KMKG 241355Z 19015G23KT 6SM HZ CLR 24/12 A3021 360 46 1500 190/15G23 RMK AO2 SLP228 T02390117
14840KMKG MKG20070524090010105/24/07 09:00:31  5-MIN KMKG 241400Z 19014G19KT 6SM HZ CLR 24/12 A3021 360 46 1500 190/14G19 RMK AO2
14840KMKG MKG20070524090510105/24/07 09:05:31  5-MIN KMKG 241405Z 18014G19KT 6SM HZ CLR 24/12 A3021 360 44 1600 190/14G19 RMK AO2
14840KMKG MKG20070524091009505/24/07 09:10:31  5-MIN KMKG 241410Z 19012KT 6SM HZ CLR 24/12 A3021 360 44 1600 190/12 RMK AO2
14840KMKG MKG20070524091509505/24/07 09:15:31  5-MIN KMKG 241415Z 19014KT 6SM HZ CLR 24/12 A3021 360 44 1600 200/14 RMK AO2
14840KMKG MKG20070524092010105/24/07 09:20:31  5-MIN KMKG 241420Z 19013G20KT 6SM HZ CLR 24/12 A3021 360 44 1600 190/13G20 RMK AO2
14840KMKG MKG20070524092510105/24/07 09:25:31  5-MIN KMKG 241425Z 19015G21KT 6SM HZ CLR 24/12 A3021 360 44 1600 200/15G21 RMK AO2
14840KMKG MKG20070524093011805/24/07 09:30:31  5-MIN KMKG 241430Z 19015G21KT 6SM HZ CLR 24/12 A3021 360 44 1600 200/15G21 RMK AO2 VIS 2 1/2 RWY 14
14840KMKG MKG20070524093511805/24/07 09:35:31  5-MIN KMKG 241435Z 19014G21KT 6SM HZ CLR 25/12 A3021 360 43 1600 190/14G21 RMK AO2 VIS 2 1/2 RWY 14
14840KMKG MKG20070524094010105/24/07 09:40:31  5-MIN KMKG 241440Z 19016G24KT 6SM HZ CLR 25/12 A3021 360 43 1600 190/16G24 RMK AO2
14840KMKG MKG20070524094510105/24/07 09:45:31  5-MIN KMKG 241445Z 20013G24KT 6SM HZ CLR 25/12 A3021 360 43 1600 200/13G24 RMK AO2
14840KMKG MKG20070524095014105/24/07 09:50:31  5-MIN KMKG 241450Z 19015G22KT 6SM HZ CLR 25/12 A3021 360 43 1600 190/15G22 RMK AO2 VIS 2 1/2 RWY 14 SLP227 T02500117 53011
14840KMKG MKG20070524095512405/24/07 09:55:31  5-MIN KMKG 241455Z 19015G21KT 6SM HZ CLR 25/12 A3021 360 43 1600 200/15G21 RMK AO2 SLP227 T02500117 50000
14840KMKG MKG20070524100011805/24/07 10:00:31  5-MIN KMKG 241500Z 19016G21KT 6SM HZ CLR 25/12 A3021 360 43 1600 200/16G21 RMK AO2 VIS 2 1/2 RWY 14
14840KMKG MKG20070524100511805/24/07 10:05:31  5-MIN KMKG 241505Z 19014G24KT 6SM HZ CLR 26/12 A3021 360 41 1700 200/14G24 RMK AO2 VIS 2 1/2 RWY 14
14840KMKG MKG20070524101011805/24/07 10:10:31  5-MIN KMKG 241510Z 19017G24KT 6SM HZ CLR 26/11 A3021 370 40 1700 200/17G24 RMK AO2 VIS 2 1/2 RWY 14
14840KMKG MKG20070524101511805/24/07 10:15:31  5-MIN KMKG 241515Z 19016G24KT 6SM HZ CLR 26/11 A3021 360 38 1800 200/16G24 RMK AO2 VIS 2 1/2 RWY 14
14840KMKG MKG20070524102011805/24/07 10:20:31  5-MIN KMKG 241520Z 19016G22KT 6SM HZ CLR 26/11 A3021 360 40 1700 200/16G22 RMK AO2 VIS 2 1/2 RWY 14
14840KMKG MKG20070524102511805/24/07 10:25:31  5-MIN KMKG 241525Z 19016G22KT 6SM HZ CLR 26/11 A3021 370 40 1700 190/16G22 RMK AO2 VIS 2 1/2 RWY 14
14840KMKG MKG20070524103013605/24/07 10:30:31  5-MIN KMKG 241530Z 20015G26KT 6SM HZ CLR 26/11 A3020 370 38 1700 200/15G26 RMK AO2 PK WND 19026/1529 VIS 2 1/2 RWY 14
14840KMKG MKG20070524103513605/24/07 10:35:31  5-MIN KMKG 241535Z 19016G26KT 6SM HZ CLR 26/11 A3021 370 37 1800 200/16G26 RMK AO2 PK WND 19026/1529 VIS 2 1/2 RWY 14
14840KMKG MKG20070524104013605/24/07 10:40:31  5-MIN KMKG 241540Z 19017G22KT 6SM HZ CLR 26/11 A3021 370 37 1800 190/17G22 RMK AO2 PK WND 19026/1529 VIS 2 1/2 RWY 14
14840KMKG MKG20070524104513605/24/07 10:45:31  5-MIN KMKG 241545Z 19018G25KT 5SM HZ CLR 26/11 A3021 370 37 1800 190/18G25 RMK AO2 PK WND 19026/1529 VIS 2 1/2 RWY 14
14840KMKG MKG20070524105015305/24/07 10:50:31  5-MIN KMKG 241550Z 19019G25KT 6SM HZ CLR 26/11 A3020 370 37 1800 190/19G25 RMK AO2 PK WND 19026/1529 VIS 2 1/2 RWY 14 SLP224 T02610106
14840KMKG MKG20070524105513605/24/07 10:55:31  5-MIN KMKG 241555Z 19016G27KT 6SM HZ CLR 26/11 A3020 370 37 1800 190/16G27 RMK AO2 PK WND 21027/1552 SLP223 T02610106
14840KMKG MKG20070524110011805/24/07 11:00:31  5-MIN KMKG 241600Z 20015G27KT 6SM HZ CLR 27/11 A3020 370 36 1800 200/15G27 RMK AO2 VIS 2 1/2 RWY 14
14840KMKG MKG20070524110511805/24/07 11:05:31  5-MIN KMKG 241605Z 19016G23KT 6SM HZ CLR 27/11 A3020 370 36 1800 190/16G23 RMK AO2 VIS 2 1/2 RWY 14
14840KMKG MKG20070524111011805/24/07 11:10:31  5-MIN KMKG 241610Z 19017G24KT 6SM HZ CLR 27/11 A3020 370 36 1800 190/17G24 RMK AO2 VIS 2 1/2 RWY 14
14840KMKG MKG20070524111510105/24/07 11:15:31  5-MIN KMKG 241615Z 19016G24KT 6SM HZ CLR 27/11 A3020 370 36 1800 200/16G24 RMK AO2
14840KMKG MKG20070524112010105/24/07 11:20:31  5-MIN KMKG 241620Z 19012G23KT 6SM HZ CLR 27/11 A3020 370 36 1800 200/12G23 RMK AO2
14840KMKG MKG20070524112510105/24/07 11:25:31  5-MIN KMKG 241625Z 19017G24KT 6SM HZ CLR 27/11 A3020 370 34 1900 200/17G24 RMK AO2
14840KMKG MKG20070524113010105/24/07 11:30:31  5-MIN KMKG 241630Z 19018G24KT 6SM HZ CLR 27/11 A3020 370 36 1800 200/18G24 RMK AO2
14840KMKG MKG20070524113510105/24/07 11:35:31  5-MIN KMKG 241635Z 19016G23KT 6SM HZ CLR 27/11 A3020 370 36 1800 190/16G23 RMK AO2
14840KMKG MKG20070524114010105/24/07 11:40:31  5-MIN KMKG 241640Z 19016G23KT 6SM HZ CLR 27/11 A3020 370 36 1800 200/16G23 RMK AO2
14840KMKG MKG20070524114510105/24/07 11:45:31  5-MIN KMKG 241645Z 20016G23KT 6SM HZ CLR 27/11 A3020 370 34 1900 200/16G23 RMK AO2
14840KMKG MKG20070524115011805/24/07 11:50:31  5-MIN KMKG 241650Z 19018G23KT 6SM HZ CLR 27/11 A3020 380 34 1900 200/18G23 RMK AO2 SLP221 T02720106
14840KMKG MKG20070524115513605/24/07 11:55:31  5-MIN KMKG 241655Z 19019G27KT 6SM HZ CLR 27/11 A3019 380 34 1900 200/19G27 RMK AO2 PK WND 19027/1654 SLP221 T02720106
14840KMKG MKG20070524120011905/24/07 12:00:31  5-MIN KMKG 241700Z 19017G27KT 6SM HZ CLR 27/11 A3019 380 34 1900 200/17G27 RMK AO2 PK WND 20026/1657
14840KMKG MKG20070524120511905/24/07 12:05:31  5-MIN KMKG 241705Z 19015G26KT 6SM HZ CLR 28/11 A3019 380 33 2000 200/15G26 RMK AO2 PK WND 20026/1657
14840KMKG MKG20070524121011905/24/07 12:10:31  5-MIN KMKG 241710Z 19015G25KT 6SM HZ CLR 28/11 A3019 380 33 2000 200/15G25 RMK AO2 PK WND 20026/1657
14840KMKG MKG20070524121511905/24/07 12:15:31  5-MIN KMKG 241715Z 19015G25KT 6SM HZ CLR 28/11 A3019 380 32 2000 190/15G25 RMK AO2 PK WND 20026/1657
14840KMKG MKG20070524122011905/24/07 12:20:31  5-MIN KMKG 241720Z 19015G23KT 6SM HZ CLR 28/11 A3019 390 32 2000 190/15G23 RMK AO2 PK WND 20026/1657
14840KMKG MKG20070524122511905/24/07 12:25:31  5-MIN KMKG 241725Z 19016G23KT 6SM HZ CLR 28/11 A3019 390 33 2000 190/16G23 RMK AO2 PK WND 20026/1657
14840KMKG MKG20070524123011905/24/07 12:30:31  5-MIN KMKG 241730Z 19014G22KT 6SM HZ CLR 29/11 A3018 390 32 2100 200/14G22 RMK AO2 PK WND 20026/1657
14840KMKG MKG20070524123511905/24/07 12:35:31  5-MIN KMKG 241735Z 19017G23KT 6SM HZ CLR 28/11 A3018 390 32 2100 200/17G23 RMK AO2 PK WND 20026/1657
14840KMKG MKG20070524124011905/24/07 12:40:31  5-MIN KMKG 241740Z 18016G26KT 6SM HZ CLR 29/11 A3018 390 31 2100 190/16G26 RMK AO2 PK WND 20026/1736
14840KMKG MKG20070524124511905/24/07 12:45:31  5-MIN KMKG 241745Z 18018G26KT 6SM HZ CLR 29/11 A3018 390 31 2100 190/18G26 RMK AO2 PK WND 18026/1745
14840KMKG MKG20070524125015405/24/07 12:50:31  5-MIN KMKG 241750Z 19017G26KT 6SM HZ CLR 29/11 A3017 400 31 2100 190/17G26 RMK AO2 PK WND 18026/1745 SLP213 T02890106 10294 20228 50000
14840KMKG MKG20070524125515405/24/07 12:55:31  5-MIN KMKG 241755Z 19015G25KT 6SM HZ CLR 29/10 A3017 400 30 2100 190/15G25 RMK AO2 PK WND 18026/1745 SLP212 T02890100 10294 20228 58013
14840KMKG MKG20070524130010105/24/07 13:00:31  5-MIN KMKG 241800Z 19017G24KT 6SM HZ CLR 29/10 A3017 400 29 2200 190/17G24 RMK AO2
14840KMKG MKG20070524130511905/24/07 13:05:31  5-MIN KMKG 241805Z 19019G27KT 6SM HZ CLR 29/09 A3016 410 29 2100 200/19G27 RMK AO2 PK WND 20027/1801
14840KMKG MKG20070524131011905/24/07 13:10:31  5-MIN KMKG 241810Z 19018G27KT 6SM HZ CLR 29/09 A3016 410 28 2200 200/18G27 RMK AO2 PK WND 19027/1807
14840KMKG MKG20070524131511905/24/07 13:15:31  5-MIN KMKG 241815Z 18013G27KT 6SM HZ CLR 30/09 A3016 410 27 2300 190/13G27 RMK AO2 PK WND 19027/1807
14840KMKG MKG20070524132011605/24/07 13:20:31  5-MIN KMKG 241820Z 19015G24KT 7SM CLR 30/09 A3016 410 27 2300 190/15G24 RMK AO2 PK WND 19027/1807
14840KMKG MKG20070524132511605/24/07 13:25:31  5-MIN KMKG 241825Z 18017G24KT 7SM CLR 30/09 A3016 410 27 2300 190/17G24 RMK AO2 PK WND 19027/1807
14840KMKG MKG20070524133011605/24/07 13:30:31  5-MIN KMKG 241830Z 19016G22KT 7SM CLR 30/09 A3016 410 26 2300 190/16G22 RMK AO2 PK WND 19027/1807
14840KMKG MKG20070524133511605/24/07 13:35:31  5-MIN KMKG 241835Z 19015G22KT 7SM CLR 31/09 A3015 420 26 2300 190/15G22 RMK AO2 PK WND 19027/1807
14840KMKG MKG20070524134011605/24/07 13:40:31  5-MIN KMKG 241840Z 19017G26KT 8SM CLR 30/09 A3015 420 26 2300 190/17G26 RMK AO2 PK WND 19027/1807
14840KMKG MKG20070524134511605/24/07 13:45:31  5-MIN KMKG 241845Z 19016G26KT 8SM CLR 30/09 A3015 420 26 2300 190/16G26 RMK AO2 PK WND 19027/1807
14840KMKG MKG20070524135013305/24/07 13:50:31  5-MIN KMKG 241850Z 18016G25KT 8SM CLR 31/08 A3015 420 24 2300 190/16G25 RMK AO2 PK WND 19027/1807 SLP203 T03060083
14840KMKG MKG20070524135513305/24/07 13:55:31  5-MIN KMKG 241855Z 19017G25KT 8SM CLR 31/08 A3015 420 24 2300 200/17G25 RMK AO2 PK WND 19027/1807 SLP204 T03060083
14840KMKG MKG20070524140009805/24/07 14:00:31  5-MIN KMKG 241900Z 19016G23KT 9SM CLR 30/08 A3015 420 25 2300 190/16G23 RMK AO2
14840KMKG MKG20070524140511605/24/07 14:05:31  5-MIN KMKG 241905Z 19015G26KT 9SM CLR 30/08 A3014 420 25 2300 190/15G26 RMK AO2 PK WND 19026/1902
14840KMKG MKG20070524141011605/24/07 14:10:31  5-MIN KMKG 241910Z 19014G26KT 9SM CLR 31/09 A3014 430 25 2300 190/14G26 RMK AO2 PK WND 19026/1902
14840KMKG MKG20070524141511605/24/07 14:15:31  5-MIN KMKG 241915Z 18015G23KT 9SM CLR 31/09 A3014 430 25 2300 190/15G23 RMK AO2 PK WND 19026/1902
14840KMKG MKG20070524142011605/24/07 14:20:31  5-MIN KMKG 241920Z 19015G23KT 9SM CLR 31/09 A3014 430 25 2300 200/15G23 RMK AO2 PK WND 19026/1902
14840KMKG MKG20070524142511605/24/07 14:25:31  5-MIN KMKG 241925Z 19017G23KT 9SM CLR 31/09 A3013 430 25 2400 190/17G23 RMK AO2 PK WND 19026/1902
14840KMKG MKG20070524143011605/24/07 14:30:31  5-MIN KMKG 241930Z 19014G23KT 9SM CLR 31/09 A3013 440 25 2400 200/14G23 RMK AO2 PK WND 19026/1902
14840KMKG MKG20070524143511605/24/07 14:35:31  5-MIN KMKG 241935Z 19012G22KT 9SM CLR 31/09 A3013 440 26 2400 200/12G22 RMK AO2 PK WND 19026/1902
14840KMKG MKG20070524144011605/24/07 14:40:31  5-MIN KMKG 241940Z 18014G22KT 9SM CLR 31/09 A3012 440 26 2400 190/14G22 RMK AO2 PK WND 19026/1902
14840KMKG MKG20070524144511605/24/07 14:45:31  5-MIN KMKG 241945Z 18014G22KT 9SM CLR 31/09 A3012 440 26 2400 190/14G22 RMK AO2 PK WND 19026/1902
14840KMKG MKG20070524145013305/24/07 14:50:31  5-MIN KMKG 241950Z 18015G21KT 9SM CLR 31/09 A3012 450 26 2400 190/15G21 RMK AO2 PK WND 19026/1902 SLP195 T03060094
14840KMKG MKG20070524145513405/24/07 14:55:31  5-MIN KMKG 241955Z 19013G22KT 10SM CLR 31/09 A3012 450 26 2400 190/13G22 RMK AO2 PK WND 19026/1902 SLP194 T03060094
14840KMKG MKG20070524150009905/24/07 15:00:31  5-MIN KMKG 242000Z 19013G22KT 10SM CLR 30/09 A3011 450 27 2300 190/13G22 RMK AO2
14840KMKG MKG20070524150509905/24/07 15:05:31  5-MIN KMKG 242005Z 19016G22KT 10SM CLR 31/09 A3011 450 26 2400 190/16G22 RMK AO2
14840KMKG MKG20070524151009905/24/07 15:10:31  5-MIN KMKG 242010Z 19015G21KT 10SM CLR 31/09 A3011 460 26 2400 190/15G21 RMK AO2
14840KMKG MKG20070524151509905/24/07 15:15:31  5-MIN KMKG 242015Z 19012G21KT 10SM CLR 31/09 A3011 460 26 2400 200/12G21 RMK AO2
14840KMKG MKG20070524152009905/24/07 15:20:31  5-MIN KMKG 242020Z 20015G23KT 10SM CLR 31/09 A3011 460 26 2400 210/15G23 RMK AO2
14840KMKG MKG20070524152509905/24/07 15:25:31  5-MIN KMKG 242025Z 19015G23KT 10SM CLR 30/09 A3011 460 27 2300 200/15G23 RMK AO2
14840KMKG MKG20070524153009905/24/07 15:30:31  5-MIN KMKG 242030Z 19014G23KT 10SM CLR 30/09 A3011 460 27 2300 190/14G23 RMK AO2
14840KMKG MKG20070524153509905/24/07 15:35:31  5-MIN KMKG 242035Z 19015G23KT 10SM CLR 30/10 A3010 460 28 2300 190/15G23 RMK AO2
14840KMKG MKG20070524154009905/24/07 15:40:31  5-MIN KMKG 242040Z 19014G20KT 10SM CLR 30/10 A3010 460 28 2300 200/14G20 RMK AO2
14840KMKG MKG20070524154509905/24/07 15:45:31  5-MIN KMKG 242045Z 19017G22KT 10SM CLR 30/10 A3010 470 28 2300 190/17G22 RMK AO2
14840KMKG MKG20070524155012205/24/07 15:50:31  5-MIN KMKG 242050Z 19014G22KT 10SM CLR 30/09 A3010 470 27 2300 190/14G22 RMK AO2 SLP188 T03000094 58013
14840KMKG MKG20070524155512205/24/07 15:55:31  5-MIN KMKG 242055Z 19013G22KT 10SM CLR 31/10 A3010 470 27 2400 190/13G22 RMK AO2 SLP187 T03060100 56024
14840KMKG MKG20070524160009905/24/07 16:00:31  5-MIN KMKG 242100Z 18015G23KT 10SM CLR 31/10 A3009 470 27 2400 190/15G23 RMK AO2
14840KMKG MKG20070524160510205/24/07 16:05:31  5-MIN KMKG 242105Z 19015G23KT 10SM FEW095 30/10 A3009 470 28 2300 200/15G23 RMK AO2
14840KMKG MKG20070524161009905/24/07 16:10:31  5-MIN KMKG 242110Z 19016G21KT 10SM CLR 30/10 A3009 470 28 2300 200/16G21 RMK AO2
14840KMKG MKG20070524161509905/24/07 16:15:31  5-MIN KMKG 242115Z 20013G21KT 10SM CLR 30/10 A3009 480 28 2300 200/13G21 RMK AO2
14840KMKG MKG20070524162009905/24/07 16:20:31  5-MIN KMKG 242120Z 19017G21KT 10SM CLR 30/10 A3009 480 28 2300 190/17G21 RMK AO2
14840KMKG MKG20070524162509905/24/07 16:25:31  5-MIN KMKG 242125Z 19016G21KT 10SM CLR 30/10 A3008 480 28 2300 190/16G21 RMK AO2
14840KMKG MKG20070524163009905/24/07 16:30:31  5-MIN KMKG 242130Z 20017G22KT 10SM CLR 30/10 A3008 480 28 2300 200/17G22 RMK AO2
14840KMKG MKG20070524163509905/24/07 16:35:31  5-MIN KMKG 242135Z 20014G22KT 10SM CLR 30/11 A3008 480 29 2300 200/14G22 RMK AO2
14840KMKG MKG20070524164009905/24/07 16:40:31  5-MIN KMKG 242140Z 20016G21KT 10SM CLR 29/11 A3008 480 30 2300 200/16G21 RMK AO2
14840KMKG MKG20070524164510205/24/07 16:45:31  5-MIN KMKG 242145Z 20013G21KT 10SM FEW090 29/11 A3008 490 30 2300 200/13G21 RMK AO2
14840KMKG MKG20070524165011605/24/07 16:50:31  5-MIN KMKG 242150Z 20015G21KT 10SM CLR 29/11 A3008 490 31 2300 200/15G21 RMK AO2 SLP180 T02940111
14840KMKG MKG20070524165511605/24/07 16:55:31  5-MIN KMKG 242155Z 19018G25KT 10SM CLR 29/11 A3008 490 30 2300 200/18G25 RMK AO2 SLP180 T02940106
14840KMKG MKG20070524170009905/24/07 17:00:31  5-MIN KMKG 242200Z 20013G25KT 10SM CLR 29/11 A3007 490 31 2300 200/13G25 RMK AO2
14840KMKG MKG20070524170510205/24/07 17:05:31  5-MIN KMKG 242205Z 19014G20KT 10SM FEW090 29/11 A3007 490 31 2300 200/14G20 RMK AO2
14840KMKG MKG20070524171009905/24/07 17:10:31  5-MIN KMKG 242210Z 20016G22KT 10SM CLR 29/11 A3007 490 32 2200 200/16G22 RMK AO2
14840KMKG MKG20070524171510205/24/07 17:15:31  5-MIN KMKG 242215Z 20016G24KT 10SM FEW085 29/11 A3007 490 31 2200 200/16G24 RMK AO2
14840KMKG MKG20070524172010205/24/07 17:20:31  5-MIN KMKG 242220Z 20020G24KT 10SM FEW085 29/10 A3007 490 30 2200 210/20G24 RMK AO2
14840KMKG MKG20070524172509905/24/07 17:25:31  5-MIN KMKG 242225Z 19016G24KT 10SM CLR 29/10 A3007 490 30 2200 200/16G24 RMK AO2
14840KMKG MKG20070524173009905/24/07 17:30:31  5-MIN KMKG 242230Z 19017G25KT 10SM CLR 29/10 A3007 490 30 2200 200/17G25 RMK AO2
14840KMKG MKG20070524173511705/24/07 17:35:31  5-MIN KMKG 242235Z 20017G26KT 10SM CLR 28/10 A3007 490 31 2200 200/17G26 RMK AO2 PK WND 19026/2233
14840KMKG MKG20070524174011705/24/07 17:40:31  5-MIN KMKG 242240Z 20016G26KT 10SM CLR 28/10 A3007 490 31 2200 200/16G26 RMK AO2 PK WND 19026/2233
14840KMKG MKG20070524174511705/24/07 17:45:31  5-MIN KMKG 242245Z 19015G25KT 10SM CLR 28/09 A3007 490 30 2200 200/15G25 RMK AO2 PK WND 19026/2233
14840KMKG MKG20070524175013405/24/07 17:50:31  5-MIN KMKG 242250Z 19017G24KT 10SM CLR 28/09 A3007 490 31 2100 200/17G24 RMK AO2 PK WND 19026/2233 SLP178 T02780094
14840KMKG MKG20070524175513405/24/07 17:55:31  5-MIN KMKG 242255Z 19018G25KT 10SM CLR 28/09 A3007 490 31 2100 200/18G25 RMK AO2 PK WND 19026/2233 SLP179 T02780094
14840KMKG MKG20070524180011705/24/07 18:00:31  5-MIN KMKG 242300Z 20016G28KT 10SM CLR 27/09 A3007 490 32 2100 200/16G28 RMK AO2 PK WND 20028/2258
14840KMKG MKG20070524180511705/24/07 18:05:31  5-MIN KMKG 242305Z 20015G28KT 10SM CLR 27/09 A3007 490 32 2100 200/15G28 RMK AO2 PK WND 20028/2258
14840KMKG MKG20070524181011705/24/07 18:10:31  5-MIN KMKG 242310Z 20016G25KT 10SM CLR 27/09 A3007 490 33 2000 200/16G25 RMK AO2 PK WND 20028/2258
14840KMKG MKG20070524181511705/24/07 18:15:31  5-MIN KMKG 242315Z 20016G28KT 10SM CLR 27/09 A3007 490 32 2000 200/16G28 RMK AO2 PK WND 20028/2313
14840KMKG MKG20070524182011705/24/07 18:20:31  5-MIN KMKG 242320Z 20013G28KT 10SM CLR 26/09 A3007 490 33 1900 200/13G28 RMK AO2 PK WND 20028/2313
14840KMKG MKG20070524182511705/24/07 18:25:31  5-MIN KMKG 242325Z 19016G23KT 10SM CLR 26/09 A3007 490 33 1900 200/16G23 RMK AO2 PK WND 20028/2313
14840KMKG MKG20070524183011705/24/07 18:30:31  5-MIN KMKG 242330Z 20015G24KT 10SM CLR 26/09 A3007 500 34 1900 200/15G24 RMK AO2 PK WND 20028/2313
14840KMKG MKG20070524183511605/24/07 18:35:31  5-MIN KMKG 242335Z 20017G24KT 9SM CLR 26/09 A3007 490 33 1900 210/17G24 RMK AO2 PK WND 20028/2313
14840KMKG MKG20070524184011605/24/07 18:40:31  5-MIN KMKG 242340Z 20018G26KT 9SM CLR 26/09 A3007 490 33 1900 200/18G26 RMK AO2 PK WND 20028/2313
14840KMKG MKG20070524184511705/24/07 18:45:31  5-MIN KMKG 242345Z 20018G27KT 10SM CLR 26/09 A3007 490 34 1900 210/18G27 RMK AO2 PK WND 20028/2313
14840KMKG MKG20070524185015205/24/07 18:50:31  5-MIN KMKG 242350Z 20017G27KT 10SM CLR 26/09 A3007 490 34 1900 200/17G27 RMK AO2 PK WND 20028/2313 SLP178 T02560089 10306 20256 56024
14840KMKG MKG20070524185515205/24/07 18:55:31  5-MIN KMKG 242355Z 20018G25KT 10SM CLR 26/09 A3007 490 34 1900 200/18G25 RMK AO2 PK WND 20028/2313 SLP178 T02560089 10306 20256 56009
14840KMKG MKG20070524190011705/24/07 19:00:31  5-MIN KMKG 250000Z 20019G26KT 10SM CLR 26/09 A3007 490 34 1900 200/19G26 RMK AO2 PK WND 21026/0000
14840KMKG MKG20070524190511705/24/07 19:05:31  5-MIN KMKG 250005Z 20016G26KT 10SM CLR 26/08 A3007 490 33 1900 200/16G26 RMK AO2 PK WND 21026/0000
14840KMKG MKG20070524191011705/24/07 19:10:31  5-MIN KMKG 250010Z 20017G23KT 10SM CLR 26/08 A3007 490 33 1900 210/17G23 RMK AO2 PK WND 21026/0000
14840KMKG MKG20070524191511705/24/07 19:15:31  5-MIN KMKG 250015Z 20017G23KT 10SM CLR 25/08 A3007 490 34 1800 210/17G23 RMK AO2 PK WND 21026/0000
14840KMKG MKG20070524192011705/24/07 19:20:31  5-MIN KMKG 250020Z 20016G23KT 10SM CLR 25/08 A3007 490 34 1800 210/16G23 RMK AO2 PK WND 21026/0000
14840KMKG MKG20070524192511705/24/07 19:25:31  5-MIN KMKG 250025Z 20018G24KT 10SM CLR 24/09 A3007 490 36 1700 210/18G24 RMK AO2 PK WND 21026/0000
14840KMKG MKG20070524193011705/24/07 19:30:31  5-MIN KMKG 250030Z 20016G25KT 10SM CLR 24/09 A3007 490 36 1700 210/16G25 RMK AO2 PK WND 21026/0000
14840KMKG MKG20070524193512005/24/07 19:35:31  5-MIN KMKG 250035Z 20018G25KT 10SM FEW085 24/09 A3007 490 36 1700 210/18G25 RMK AO2 PK WND 21026/0000
14840KMKG MKG20070524194012705/24/07 19:40:31  5-MIN KMKG 250040Z 20018G28KT 10SM FEW085 SCT120 25/08 A3007 490 34 1800 200/18G28 RMK AO2 PK WND 20028/0036
14840KMKG MKG20070524194512705/24/07 19:45:31  5-MIN KMKG 250045Z 20017G28KT 10SM FEW085 SCT120 25/09 A3007 490 35 1800 210/17G28 RMK AO2 PK WND 20028/0036
14840KMKG MKG20070524195014405/24/07 19:50:31  5-MIN KMKG 250050Z 20015G23KT 10SM FEW085 SCT120 25/09 A3007 490 35 1800 210/15G23 RMK AO2 PK WND 20028/0036 SLP179 T02500089
14840KMKG MKG20070524195514405/24/07 19:55:31  5-MIN KMKG 250055Z 20017G23KT 10SM FEW085 SCT120 25/08 A3007 490 34 1800 200/17G23 RMK AO2 PK WND 20028/0036 SLP179 T02500083
14840KMKG MKG20070524200009605/24/07 20:00:31  5-MIN KMKG 250100Z 20018KT 10SM FEW120 25/08 A3007 490 34 1800 200/18 RMK AO2
14840KMKG MKG20070524200509905/24/07 20:05:31  5-MIN KMKG 250105Z 20017G23KT 10SM CLR 25/08 A3007 490 34 1800 200/17G23 RMK AO2
14840KMKG MKG20070524201010205/24/07 20:10:31  5-MIN KMKG 250110Z 20017G21KT 10SM SCT120 25/09 A3007 490 35 1800 200/17G21 RMK AO2
14840KMKG MKG20070524201510205/24/07 20:15:31  5-MIN KMKG 250115Z 20018G23KT 10SM SCT120 25/08 A3007 490 34 1800 210/18G23 RMK AO2
14840KMKG MKG20070524202012005/24/07 20:20:31  5-MIN KMKG 250120Z 20018G28KT 10SM BKN110 25/08 A3007 500 34 1800 200/18G28 RMK AO2 PK WND 19028/0118
14840KMKG MKG20070524202512005/24/07 20:25:31  5-MIN KMKG 250125Z 20017G28KT 10SM BKN110 25/08 A3007 490 34 1800 200/17G28 RMK AO2 PK WND 19028/0118
14840KMKG MKG20070524203012005/24/07 20:30:31  5-MIN KMKG 250130Z 20016G26KT 10SM BKN110 25/08 A3007 490 34 1800 210/16G26 RMK AO2 PK WND 19028/0118
14840KMKG MKG20070524203512005/24/07 20:35:31  5-MIN KMKG 250135Z 20016G23KT 10SM BKN110 25/08 A3007 490 34 1800 210/16G23 RMK AO2 PK WND 19028/0118
14840KMKG MKG20070524204012005/24/07 20:40:31  5-MIN KMKG 250140Z 20018G23KT 10SM BKN110 25/08 A3007 490 34 1800 210/18G23 RMK AO2 PK WND 19028/0118
14840KMKG MKG20070524204512005/24/07 20:45:31  5-MIN KMKG 250145Z 20019G28KT 10SM BKN110 25/08 A3007 490 34 1800 210/19G28 RMK AO2 PK WND 20028/0143
14840KMKG MKG20070524205013705/24/07 20:50:31  5-MIN KMKG 250150Z 20017G28KT 10SM BKN110 25/08 A3008 490 34 1800 210/17G28 RMK AO2 PK WND 20028/0146 SLP180 T02500083
14840KMKG MKG20070524205513705/24/07 20:55:31  5-MIN KMKG 250155Z 21017G28KT 10SM BKN100 24/08 A3008 490 35 1700 210/17G28 RMK AO2 PK WND 20028/0146 SLP180 T02440083
14840KMKG MKG20070524210010205/24/07 21:00:31  5-MIN KMKG 250200Z 20019G25KT 10SM BKN100 24/08 A3008 490 35 1700 210/19G25 RMK AO2
14840KMKG MKG20070524210510205/24/07 21:05:31  5-MIN KMKG 250205Z 20016G25KT 10SM BKN100 24/08 A3008 480 35 1700 210/16G25 RMK AO2
14840KMKG MKG20070524211010205/24/07 21:10:31  5-MIN KMKG 250210Z 21018G24KT 10SM BKN100 24/08 A3008 480 35 1700 210/18G24 RMK AO2
14840KMKG MKG20070524211510205/24/07 21:15:31  5-MIN KMKG 250215Z 21018G24KT 10SM BKN100 24/09 A3008 480 36 1700 210/18G24 RMK AO2
14840KMKG MKG20070524212010205/24/07 21:20:31  5-MIN KMKG 250220Z 21019G25KT 10SM OVC100 24/09 A3008 480 36 1700 210/19G25 RMK AO2
14840KMKG MKG20070524212510205/24/07 21:25:31  5-MIN KMKG 250225Z 21019G25KT 10SM OVC100 24/09 A3008 480 38 1700 210/19G25 RMK AO2
14840KMKG MKG20070524213010205/24/07 21:30:31  5-MIN KMKG 250230Z 21018G25KT 10SM OVC100 24/09 A3008 480 38 1700 220/18G25 RMK AO2
14840KMKG MKG20070524213510205/24/07 21:35:31  5-MIN KMKG 250235Z 21017G25KT 10SM OVC095 23/09 A3008 480 39 1600 210/17G25 RMK AO2
14840KMKG MKG20070524214010205/24/07 21:40:31  5-MIN KMKG 250240Z 21019G24KT 10SM OVC095 23/09 A3009 470 41 1600 210/19G24 RMK AO2
14840KMKG MKG20070524214512005/24/07 21:45:31  5-MIN KMKG 250245Z 21017G26KT 10SM OVC095 23/09 A3009 470 42 1500 220/17G26 RMK AO2 PK WND 21026/0243
14840KMKG MKG20070524215014305/24/07 21:50:31  5-MIN KMKG 250250Z 21016G26KT 10SM OVC095 23/09 A3009 470 42 1500 210/16G26 RMK AO2 PK WND 21026/0243 SLP186 T02280094 56009
14840KMKG MKG20070524215514305/24/07 21:55:31  5-MIN KMKG 250255Z 21018G25KT 10SM BKN090 23/09 A3009 470 42 1500 220/18G25 RMK AO2 PK WND 21026/0243 SLP186 T02280094 53007
14840KMKG MKG20070524220010205/24/07 22:00:31  5-MIN KMKG 250300Z 21017G24KT 10SM BKN090 22/09 A3009 470 43 1500 210/17G24 RMK AO2
14840KMKG MKG20070524220510205/24/07 22:05:31  5-MIN KMKG 250305Z 21015G23KT 10SM OVC090 22/09 A3009 470 45 1400 210/15G23 RMK AO2
14840KMKG MKG20070524221010205/24/07 22:10:31  5-MIN KMKG 250310Z 22019G23KT 10SM OVC090 22/09 A3011 460 45 1400 230/19G23 RMK AO2
14840KMKG MKG20070524221512705/24/07 22:15:31  5-MIN KMKG 250315Z 24020G31KT 10SM OVC090 21/09 A3012 450 48 1200 240/20G31 RMK AO2 PK WND 24031/0312 PRESRR
14840KMKG MKG20070524222012705/24/07 22:20:31  5-MIN KMKG 250320Z 23016G31KT 10SM BKN090 18/09 A3012 440 56 1000 240/16G31 RMK AO2 PK WND 24031/0312 PRESRR
14840KMKG MKG20070524222511905/24/07 22:25:31  5-MIN KMKG 250325Z 25011G26KT 10SM BKN090 18/10 A3012 450 60 900 250/11G26 RMK AO2 PK WND 24031/0312
14840KMKG MKG20070524223011905/24/07 22:30:31  5-MIN KMKG 250330Z 25010G18KT 10SM BKN090 17/10 A3012 450 62 800 250/10G18 RMK AO2 PK WND 24031/0312
14840KMKG MKG20070524223511905/24/07 22:35:31  5-MIN KMKG 250335Z 25010G18KT 10SM BKN085 17/10 A3012 440 62 800 260/10G18 RMK AO2 PK WND 24031/0312
14840KMKG MKG20070524224011305/24/07 22:40:31  5-MIN KMKG 250340Z 25012KT 10SM BKN085 17/10 A3013 440 64 800 250/12 RMK AO2 PK WND 24031/0312
14840KMKG MKG20070524224512605/24/07 22:45:31  5-MIN KMKG 250345Z 25007G16KT 10SM BKN085 BKN110 17/11 A3013 440 67 800 260/07G16 RMK AO2 PK WND 24031/0312
14840KMKG MKG20070524225013605/24/07 22:50:31  5-MIN KMKG 250350Z 26009G15KT 10SM OVC085 17/11 A3013 440 69 800 260/09G15 RMK AO2 PK WND 24031/0312 SLP198 T01670111
14840KMKG MKG20070524225513005/24/07 22:55:31  5-MIN KMKG 250355Z 27008KT 10SM OVC085 17/11 A3013 440 69 800 270/08 RMK AO2 PK WND 24031/0312 SLP199 T01670111
14840KMKG MKG20070524230009505/24/07 23:00:31  5-MIN KMKG 250400Z 26007KT 10SM OVC085 16/12 A3013 430 75 700 260/07 RMK AO2
14840KMKG MKG20070524230510205/24/07 23:05:31  5-MIN KMKG 250405Z 26006KT 10SM BKN080 OVC100 17/12 A3013 430 75 800 260/06 RMK AO2
14840KMKG MKG20070524231010905/24/07 23:10:31  5-MIN KMKG 250410Z 23004KT 10SM BKN080 BKN095 OVC120 17/12 A3013 440 75 800 240/04 RMK AO2
14840KMKG MKG20070524231510205/24/07 23:15:31  5-MIN KMKG 250415Z 22005KT 10SM BKN085 OVC120 17/12 A3014 430 75 800 220/05 RMK AO2
14840KMKG MKG20070524232009505/24/07 23:20:31  5-MIN KMKG 250420Z 23006KT 10SM OVC085 17/12 A3014 430 75 800 230/06 RMK AO2
14840KMKG MKG20070524232510205/24/07 23:25:31  5-MIN KMKG 250425Z 26008KT 10SM BKN080 OVC090 17/13 A3014 430 77 800 260/08 RMK AO2
14840KMKG MKG20070524233010205/24/07 23:30:31  5-MIN KMKG 250430Z 26009KT 10SM BKN085 OVC120 17/13 A3014 430 78 800 270/09 RMK AO2
14840KMKG MKG20070524233509505/24/07 23:35:31  5-MIN KMKG 250435Z 26006KT 10SM OVC090 17/13 A3013 430 78 800 260/06 RMK AO2
14840KMKG MKG20070524234009505/24/07 23:40:31  5-MIN KMKG 250440Z 27007KT 10SM OVC085 17/13 A3014 430 78 800 270/07 RMK AO2
14840KMKG MKG20070524234512405/24/07 23:45:31  5-MIN KMKG 250445Z 27009G14KT 10SM -RA BKN080 OVC095 17/14 A3014 430 80 800 280/09G14 RMK AO2 RAB44 P0000
14840KMKG MKG20070524235014505/24/07 23:50:31  5-MIN KMKG 250450Z 26008KT 10SM -RA SCT070 OVC090 17/13 A3014 420 80 800 270/08 RMK AO2 RAB44 SLP204 P0000 T01670133 403060161
14840KMKG MKG20070524235516005/24/07 23:55:31  5-MIN KMKG 250455Z 24006KT 10SM -RA SCT065 OVC090 16/13 A3014 420 83 700 240/06 RMK AO2 RAB44 CIG 070 RWY 14 SLP204 P0000 T01610133 403060161
14840KMKG MKG20070525000011205/25/07 00:00:32  5-MIN KMKG 250500Z 25008KT 10SM -RA BKN065 OVC085 16/13 A3014 430 83 700 260/08 RMK AO2 P0000
14840KMKG MKG20070525000511205/25/07 00:05:31  5-MIN KMKG 250505Z 26010KT 10SM -RA BKN070 OVC090 16/13 A3014 430 83 700 260/10 RMK AO2 P0000
14840KMKG MKG20070525001012005/25/07 00:10:31  5-MIN KMKG 250510Z 27010G16KT 10SM BKN065 OVC090 16/14 A3014 430 86 700 270/10G16 RMK AO2 RAE07 P0000
14840KMKG MKG20070525001512005/25/07 00:15:31  5-MIN KMKG 250515Z 26010G16KT 10SM BKN065 OVC090 16/13 A3014 420 83 700 270/10G16 RMK AO2 RAE07 P0000
14840KMKG MKG20070525002011105/25/07 00:20:31  5-MIN KMKG 250520Z 27009G15KT 10SM -RA OVC065 16/13 A3015 420 83 700 270/09G15 RMK AO2 P0000
14840KMKG MKG20070525002511105/25/07 00:25:31  5-MIN KMKG 250525Z 26007G18KT 10SM -RA OVC065 16/14 A3015 420 86 700 270/07G18 RMK AO2 P0000
14840KMKG MKG20070525003011105/25/07 00:30:31  5-MIN KMKG 250530Z 27006G18KT 10SM -RA OVC065 16/14 A3015 420 90 600 270/06G18 RMK AO2 P0000
14840KMKG MKG20070525003511205/25/07 00:35:31  5-MIN KMKG 250535Z 27008KT 10SM -RA BKN065 OVC085 16/14 A3015 420 86 700 270/08 RMK AO2 P0000
14840KMKG MKG20070525004011805/25/07 00:40:31  5-MIN KMKG 250540Z 27006KT 9SM -RA BKN065 BKN080 OVC100 16/14 A3015 420 86 700 270/06 RMK AO2 P0000
14840KMKG MKG20070525004512405/25/07 00:45:31  5-MIN KMKG 250545Z 27009G14KT 9SM -RA FEW008 BKN065 OVC090 16/14 A3015 410 90 700 270/09G14 RMK AO2 P0000
14840KMKG MKG20070525005011805/25/07 00:50:31  5-MIN KMKG 250550Z 28012KT 9SM -RA SCT006 BKN065 OVC090 16/14 A3016 410 90 600 290/12 RMK AO2 P0000
14840KMKG MKG20070525005518105/25/07 00:55:31  5-MIN KMKG 250555Z 28011G17KT 240V300 8SM -RA BKN006 BKN060 OVC085 15/13 A3016 410 90 500 280/11G17 240V300 RMK AO2 SLP211 P0000 60000 T01500133 10256 20150 51013
14840KMKG MKG20070525010012405/25/07 01:00:31  5-MIN KMKG 250600Z 27010G18KT 8SM -RA BKN006 BKN080 OVC095 14/13 A3017 400 93 500 280/10G18 RMK AO2 P0000
14840KMKG MKG20070525010514105/25/07 01:05:31  5-MIN KMKG 250605Z 29012G19KT 8SM SCT006 BKN013 OVC090 14/13 A3017 400 93 400 290/12G19 RMK AO2 RAE01 CIG 006 RWY 14 P0000
14840KMKG MKG20070525011013805/25/07 01:10:31  5-MIN KMKG 250610Z 29010G19KT 9SM BKN008 BKN016 OVC055 13/12 A3017 400 93 300 290/10G19 RMK AO2 RAE01 CIG 005V012 P0000
14840KMKG MKG20070525011511805/25/07 01:15:31  5-MIN KMKG 250615Z 30009G16KT 10SM -RA SCT006 OVC014 13/12 A3017 400 89 300 310/09G16 RMK AO2 P0000
14840KMKG MKG20070525012011905/25/07 01:20:31  5-MIN KMKG 250620Z 31009KT 10SM -RA FEW006 BKN014 OVC021 13/11 A3017 400 86 300 320/09 RMK AO2 P0000
14840KMKG MKG20070525012512705/25/07 01:25:31  5-MIN KMKG 250625Z 31011G15KT 10SM FEW009 BKN014 OVC050 13/11 A3017 400 86 300 320/11G15 RMK AO2 RAE24 P0000
14840KMKG MKG20070525013012505/25/07 01:30:31  5-MIN KMKG 250630Z 31011G16KT 10SM -RA FEW009 BKN017 OVC050 13/11 A3017 400 89 300 310/11G16 RMK AO2 P0000
14840KMKG MKG20070525013512505/25/07 01:35:31  5-MIN KMKG 250635Z 32010G18KT 10SM -RA FEW009 BKN017 OVC050 13/11 A3018 390 89 300 320/10G18 RMK AO2 P0000
14840KMKG MKG20070525014012705/25/07 01:40:31  5-MIN KMKG 250640Z 32009G18KT 10SM FEW009 BKN017 OVC050 13/11 A3018 400 89 300 320/09G18 RMK AO2 RAE37 P0000
14840KMKG MKG20070525014512105/25/07 01:45:31  5-MIN KMKG 250645Z 33011KT 10SM FEW009 BKN017 OVC050 13/11 A3018 390 89 300 330/11 RMK AO2 RAE37 P0000
14840KMKG MKG20070525015013605/25/07 01:50:31  5-MIN KMKG 250650Z 32009KT 10SM -RA FEW009 BKN019 OVC050 13/11 A3018 390 89 300 320/09 RMK AO2 SLP217 P0000 T01280111
14840KMKG MKG20070525015513005/25/07 01:55:31  5-MIN KMKG 250655Z 32012KT 6SM RA BR FEW009 OVC019 13/11 A3018 390 89 300 330/12 RMK AO2 SLP216 P0000 T01280111
14840KMKG MKG20070525020011905/25/07 02:00:31  5-MIN KMKG 250700Z 32009KT 5SM RA BR OVC019 13/11 A3018 390 89 300 320/09 RMK AO2 VIS 2 RWY 14 P0004
14840KMKG MKG20070525020511005/25/07 02:05:31  5-MIN KMKG 250705Z 33009G17KT 8SM -RA OVC019 13/11 A3018 390 89 300 340/09G17 RMK AO2 P0004
14840KMKG MKG20070525021011105/25/07 02:10:31  5-MIN KMKG 250710Z 33008G17KT 10SM -RA OVC021 13/11 A3018 390 89 300 330/08G17 RMK AO2 P0004
14840KMKG MKG20070525021510305/25/07 02:15:31  5-MIN KMKG 250715Z 32012KT 7SM RA OVC019 13/11 A3018 390 89 300 320/12 RMK AO2 P0005
14840KMKG MKG20070525022010405/25/07 02:20:31  5-MIN KMKG 250720Z 32012KT 8SM -RA OVC019 13/11 A3018 390 86 300 320/12 RMK AO2 P0005
14840KMKG MKG20070525022511205/25/07 02:25:31  5-MIN KMKG 250725Z 32008KT 10SM -RA BKN016 OVC022 13/11 A3019 390 86 300 330/08 RMK AO2 P0005
14840KMKG MKG20070525023011405/25/07 02:30:31  5-MIN KMKG 250730Z 33010KT 10SM BKN016 OVC022 13/11 A3019 380 89 200 330/10 RMK AO2 RAE28 P0005
14840KMKG MKG20070525023510505/25/07 02:35:31  5-MIN KMKG 250735Z 31009KT 10SM -RA OVC016 13/11 A3019 380 86 200 320/09 RMK AO2 P0005
14840KMKG MKG20070525024011105/25/07 02:40:31  5-MIN KMKG 250740Z 33009KT 8SM -RA BKN016 OVC024 12/11 A3019 380 89 200 330/09 RMK AO2 P0005
14840KMKG MKG20070525024510605/25/07 02:45:31  5-MIN KMKG 250745Z 33010KT 6SM RA BR OVC016 12/11 A3020 380 89 200 330/10 RMK AO2 P0006
14840KMKG MKG20070525025012405/25/07 02:50:31  5-MIN KMKG 250750Z 34009KT 6SM -RA BR OVC018 12/11 A3019 380 89 200 340/09 RMK AO2 SLP221 P0007 T01220106
14840KMKG MKG20070525025512105/25/07 02:55:31  5-MIN KMKG 250755Z 34008KT 9SM -RA OVC018 12/11 A3019 380 89 200 340/08 RMK AO2 SLP220 P0007 T01220106
14840KMKG MKG20070525030010505/25/07 03:00:31  5-MIN KMKG 250800Z 33008KT 10SM -RA OVC018 12/11 A3020 380 89 200 340/08 RMK AO2 P0000
14840KMKG MKG20070525030510705/25/07 03:05:31  5-MIN KMKG 250805Z 34007KT 10SM OVC018 12/11 A3020 370 89 200 340/07 RMK AO2 RAE03 P0000
14840KMKG MKG20070525031010705/25/07 03:10:31  5-MIN KMKG 250810Z 32006KT 10SM OVC020 12/11 A3020 370 89 200 330/06 RMK AO2 RAE03 P0000
14840KMKG MKG20070525031510705/25/07 03:15:31  5-MIN KMKG 250815Z 33006KT 10SM OVC020 12/11 A3020 370 89 200 330/06 RMK AO2 RAE03 P0000
14840KMKG MKG20070525032010705/25/07 03:20:31  5-MIN KMKG 250820Z 32007KT 10SM OVC020 12/11 A3020 370 89 200 330/07 RMK AO2 RAE03 P0000
14840KMKG MKG20070525032511405/25/07 03:25:31  5-MIN KMKG 250825Z 33008KT 10SM BKN020 OVC031 12/11 A3020 370 89 200 340/08 RMK AO2 RAE03 P0000
14840KMKG MKG20070525033011405/25/07 03:30:31  5-MIN KMKG 250830Z 33006KT 10SM BKN020 OVC031 12/10 A3021 370 86 200 330/06 RMK AO2 RAE03 P0000
14840KMKG MKG20070525033511405/25/07 03:35:31  5-MIN KMKG 250835Z 34008KT 10SM BKN022 OVC031 12/10 A3021 370 86 200 340/08 RMK AO2 RAE03 P0000
14840KMKG MKG20070525034011405/25/07 03:40:31  5-MIN KMKG 250840Z 33007KT 10SM BKN022 OVC031 12/10 A3021 370 86 200 330/07 RMK AO2 RAE03 P0000
14840KMKG MKG20070525034511405/25/07 03:45:31  5-MIN KMKG 250845Z 33008KT 10SM BKN022 OVC031 12/10 A3021 360 86 200 330/08 RMK AO2 RAE03 P0000
14840KMKG MKG20070525035014305/25/07 03:50:31  5-MIN KMKG 250850Z 33005KT 10SM BKN022 OVC031 12/10 A3022 360 86 100 330/05 RMK AO2 RAE03 SLP231 P0000 60007 T01220100 51013
14840KMKG MKG20070525035514305/25/07 03:55:31  5-MIN KMKG 250855Z 31005KT 10SM BKN022 OVC031 12/10 A3022 350 86 100 310/05 RMK AO2 RAE03 SLP231 P0000 60007 T01220100 53019
14840KMKG MKG20070525040010205/25/07 04:00:31  5-MIN KMKG 250900Z 32007KT 10SM BKN022 OVC033 12/09 A3022 350 83 100 320/07 RMK AO2
14840KMKG MKG20070525040509505/25/07 04:05:31  5-MIN KMKG 250905Z 32010KT 10SM OVC022 12/09 A3023 350 83 100 330/10 RMK AO2
14840KMKG MKG20070525041009505/25/07 04:10:31  5-MIN KMKG 250910Z 31007KT 10SM OVC022 12/10 A3023 350 86 100 310/07 RMK AO2
14840KMKG MKG20070525041509505/25/07 04:15:31  5-MIN KMKG 250915Z 32008KT 10SM OVC022 12/09 A3023 350 83 100 330/08 RMK AO2
14840KMKG MKG20070525042009505/25/07 04:20:31  5-MIN KMKG 250920Z 32006KT 10SM OVC022 12/09 A3023 340 83 100 320/06 RMK AO2
14840KMKG MKG20070525042509505/25/07 04:25:31  5-MIN KMKG 250925Z 32006KT 10SM OVC022 12/09 A3023 340 83 100 330/06 RMK AO2
14840KMKG MKG20070525043009505/25/07 04:30:31  5-MIN KMKG 250930Z 31007KT 10SM OVC022 12/09 A3024 340 83 100 320/07 RMK AO2
14840KMKG MKG20070525043509505/25/07 04:35:31  5-MIN KMKG 250935Z 32005KT 10SM OVC022 12/09 A3023 340 83 100 320/05 RMK AO2
14840KMKG MKG20070525044010205/25/07 04:40:31  5-MIN KMKG 250940Z 32006KT 10SM BKN024 OVC095 12/09 A3023 340 86 100 320/06 RMK AO2
14840KMKG MKG20070525044510905/25/07 04:45:31  5-MIN KMKG 250945Z 32006KT 10SM BKN024 BKN075 BKN095 12/09 A3024 340 86 100 320/06 RMK AO2
14840KMKG MKG20070525045010205/25/07 04:50:31  5-MIN KMKG 250950Z 29004KT 10SM SCT024 BKN075 12/09 A3024 330 86 100 300/04 RMK AO2
14840KMKG MKG20070525045511905/25/07 04:55:31  5-MIN KMKG 250955Z 30005KT 10SM SCT024 SCT090 12/09 A3024 330 83 100 310/05 RMK AO2 SLP239 T01170089
14840KMKG MKG20070525050010205/25/07 05:00:31  5-MIN KMKG 251000Z 31007KT 10SM FEW024 SCT090 12/09 A3024 340 86 100 320/07 RMK AO2
14840KMKG MKG20070525050509505/25/07 05:05:31  5-MIN KMKG 251005Z 32009KT 10SM FEW090 12/09 A3025 330 83 100 320/09 RMK AO2
14840KMKG MKG20070525051009505/25/07 05:10:31  5-MIN KMKG 251010Z 32007KT 10SM FEW090 12/09 A3025 330 83 100 330/07 RMK AO2
14840KMKG MKG20070525051509505/25/07 05:15:31  5-MIN KMKG 251015Z 33010KT 10SM FEW090 12/09 A3024 330 83 100 330/10 RMK AO2
14840KMKG MKG20070525052009305/25/07 05:20:31  5-MIN KMKG 251020Z 33009KT 10SM SCT085 12/09 A3025 330 83 0 330/09 RMK AO2
14840KMKG MKG20070525052509305/25/07 05:25:31  5-MIN KMKG 251025Z 33005KT 10SM SCT085 12/08 A3025 320 80 0 330/05 RMK AO2
14840KMKG MKG20070525053009305/25/07 05:30:31  5-MIN KMKG 251030Z 32007KT 10SM SCT085 11/08 A3026 320 80 0 320/07 RMK AO2
14840KMKG MKG20070525053509305/25/07 05:35:31  5-MIN KMKG 251035Z 32006KT 10SM SCT085 12/08 A3026 320 77 0 330/06 RMK AO2
14840KMKG MKG20070525054009305/25/07 05:40:31  5-MIN KMKG 251040Z 32006KT 10SM SCT085 11/07 A3026 310 77 0 320/06 RMK AO2
14840KMKG MKG20070525054509305/25/07 05:45:31  5-MIN KMKG 251045Z 32006KT 10SM FEW085 11/07 A3026 320 77 0 330/06 RMK AO2
14840KMKG MKG20070525055011005/25/07 05:50:31  5-MIN KMKG 251050Z 32008KT 10SM FEW085 11/07 A3026 320 77 0 330/08 RMK AO2 SLP245 T01110072
14840KMKG MKG20070525055510705/25/07 05:55:31  5-MIN KMKG 251055Z 33007KT 10SM CLR 11/07 A3026 320 77 0 340/07 RMK AO2 SLP245 T01110072
14840KMKG MKG20070525060009005/25/07 06:00:31  5-MIN KMKG 251100Z 33007KT 10SM CLR 11/07 A3027 310 77 0 340/07 RMK AO2
14840KMKG MKG20070525060509005/25/07 06:05:31  5-MIN KMKG 251105Z 32006KT 10SM CLR 11/07 A3027 310 77 0 320/06 RMK AO2
14840KMKG MKG20070525061009005/25/07 06:10:31  5-MIN KMKG 251110Z 31009KT 10SM CLR 11/07 A3027 310 77 0 320/09 RMK AO2
14840KMKG MKG20070525061509005/25/07 06:15:31  5-MIN KMKG 251115Z 33008KT 10SM CLR 11/07 A3027 310 74 0 330/08 RMK AO2
14840KMKG MKG20070525062009005/25/07 06:20:31  5-MIN KMKG 251120Z 32006KT 10SM CLR 11/07 A3027 310 77 0 330/06 RMK AO2
14840KMKG MKG20070525062509005/25/07 06:25:31  5-MIN KMKG 251125Z 32006KT 10SM CLR 11/07 A3027 310 74 0 320/06 RMK AO2
14840KMKG MKG20070525063009005/25/07 06:30:31  5-MIN KMKG 251130Z 33007KT 10SM CLR 11/07 A3027 310 74 0 330/07 RMK AO2
14840KMKG MKG20070525063509005/25/07 06:35:31  5-MIN KMKG 251135Z 33007KT 10SM CLR 11/07 A3027 310 74 0 330/07 RMK AO2
14840KMKG MKG20070525064009005/25/07 06:40:31  5-MIN KMKG 251140Z 33010KT 10SM CLR 12/07 A3027 310 74 0 330/10 RMK AO2
14840KMKG MKG20070525064509005/25/07 06:45:31  5-MIN KMKG 251145Z 32009KT 10SM CLR 12/07 A3027 310 71 0 330/09 RMK AO2
14840KMKG MKG20070525065013705/25/07 06:50:31  5-MIN KMKG 251150Z 33008KT 10SM CLR 12/07 A3027 310 74 0 330/08 RMK AO2 SLP248 60007 70007 T01170072 10144 20111 53019
14840KMKG MKG20070525065513705/25/07 06:55:31  5-MIN KMKG 251155Z 33006KT 10SM CLR 12/07 A3027 310 74 0 340/06 RMK AO2 SLP249 60007 70007 T01170072 10144 20111 51016
14840KMKG MKG20070525070009205/25/07 07:00:31  5-MIN KMKG 251200Z 32008KT 10SM CLR 12/07 A3027 310 68 100 330/08 RMK AO2
14840KMKG MKG20070525070509205/25/07 07:05:31  5-MIN KMKG 251205Z 33009KT 10SM CLR 12/07 A3027 310 68 100 340/09 RMK AO2
14840KMKG MKG20070525071009205/25/07 07:10:31  5-MIN KMKG 251210Z 33010KT 10SM CLR 12/07 A3028 300 68 100 330/10 RMK AO2
14840KMKG MKG20070525071509205/25/07 07:15:31  5-MIN KMKG 251215Z 32010KT 10SM CLR 12/06 A3028 300 66 100 330/10 RMK AO2
14840KMKG MKG20070525072009205/25/07 07:20:31  5-MIN KMKG 251220Z 33011KT 10SM CLR 12/06 A3028 300 66 100 330/11 RMK AO2
14840KMKG MKG20070525072509205/25/07 07:25:31  5-MIN KMKG 251225Z 33010KT 10SM CLR 12/06 A3028 300 66 100 330/10 RMK AO2
14840KMKG MKG20070525073009205/25/07 07:30:31  5-MIN KMKG 251230Z 32008KT 10SM CLR 13/06 A3028 300 63 100 330/08 RMK AO2
14840KMKG MKG20070525073509205/25/07 07:35:31  5-MIN KMKG 251235Z 32007KT 10SM CLR 13/06 A3028 300 63 100 320/07 RMK AO2
14840KMKG MKG20070525074009505/25/07 07:40:31  5-MIN KMKG 251240Z 31009KT 10SM FEW085 13/06 A3028 300 63 100 310/09 RMK AO2
14840KMKG MKG20070525074509505/25/07 07:45:31  5-MIN KMKG 251245Z 30008KT 10SM FEW085 13/06 A3028 300 61 200 310/08 RMK AO2
14840KMKG MKG20070525075011205/25/07 07:50:31  5-MIN KMKG 251250Z 31008KT 10SM FEW085 13/07 A3028 300 64 200 310/08 RMK AO2 SLP251 T01330067
14840KMKG MKG20070525075510905/25/07 07:55:31  5-MIN KMKG 251255Z 31009KT 10SM CLR 13/06 A3028 300 61 100 310/09 RMK AO2 SLP253 T01280056
14840KMKG MKG20070525080009205/25/07 08:00:31  5-MIN KMKG 251300Z 31012KT 10SM CLR 13/06 A3028 300 61 200 320/12 RMK AO2
14840KMKG MKG20070525080509205/25/07 08:05:31  5-MIN KMKG 251305Z 31007KT 10SM CLR 13/06 A3029 290 61 200 320/07 RMK AO2
14840KMKG MKG20070525081009205/25/07 08:10:31  5-MIN KMKG 251310Z 32010KT 10SM CLR 13/06 A3029 290 61 200 330/10 RMK AO2
14840KMKG MKG20070525081509805/25/07 08:15:31  5-MIN KMKG 251315Z 32008G15KT 10SM CLR 13/06 A3029 290 61 200 330/08G15 RMK AO2
14840KMKG MKG20070525082009805/25/07 08:20:31  5-MIN KMKG 251320Z 33010G15KT 10SM CLR 14/06 A3029 290 59 300 330/10G15 RMK AO2
14840KMKG MKG20070525082509205/25/07 08:25:31  5-MIN KMKG 251325Z 32009KT 10SM CLR 14/07 A3028 300 61 300 330/09 RMK AO2
14840KMKG MKG20070525083009205/25/07 08:30:31  5-MIN KMKG 251330Z 32011KT 10SM CLR 13/06 A3028 300 61 200 320/11 RMK AO2
14840KMKG MKG20070525083509205/25/07 08:35:31  5-MIN KMKG 251335Z 31011KT 10SM CLR 13/06 A3028 300 59 200 310/11 RMK AO2
14840KMKG MKG20070525084009205/25/07 08:40:31  5-MIN KMKG 251340Z 30009KT 10SM CLR 13/06 A3028 300 59 200 300/09 RMK AO2
14840KMKG MKG20070525084509205/25/07 08:45:31  5-MIN KMKG 251345Z 30009KT 10SM CLR 13/06 A3028 300 61 200 310/09 RMK AO2
14840KMKG MKG20070525085010905/25/07 08:50:31  5-MIN KMKG 251350Z 31011KT 10SM CLR 13/06 A3028 300 61 200 320/11 RMK AO2 SLP250 T01330061
14840KMKG MKG20070525085511505/25/07 08:55:31  5-MIN KMKG 251355Z 29009G16KT 10SM CLR 14/06 A3028 300 59 300 300/09G16 RMK AO2 SLP251 T01390061
14840KMKG MKG20070525090009205/25/07 09:00:31  5-MIN KMKG 251400Z 29010KT 10SM CLR 14/06 A3028 300 59 300 300/10 RMK AO2
14840KMKG MKG20070525090509805/25/07 09:05:31  5-MIN KMKG 251405Z 31007G15KT 10SM CLR 14/07 A3028 300 61 300 310/07G15 RMK AO2
14840KMKG MKG20070525091009805/25/07 09:10:31  5-MIN KMKG 251410Z 29010G15KT 10SM CLR 14/06 A3028 290 59 300 300/10G15 RMK AO2
14840KMKG MKG20070525091509205/25/07 09:15:31  5-MIN KMKG 251415Z 30009KT 10SM CLR 13/06 A3029 290 61 200 300/09 RMK AO2
14840KMKG MKG20070525092009205/25/07 09:20:31  5-MIN KMKG 251420Z 30007KT 10SM CLR 13/06 A3029 290 61 200 300/07 RMK AO2
14840KMKG MKG20070525092509205/25/07 09:25:31  5-MIN KMKG 251425Z 30009KT 10SM CLR 14/07 A3028 290 61 300 310/09 RMK AO2
14840KMKG MKG20070525093009205/25/07 09:30:31  5-MIN KMKG 251430Z 31009KT 10SM CLR 14/06 A3029 290 59 300 320/09 RMK AO2
14840KMKG MKG20070525093509205/25/07 09:35:31  5-MIN KMKG 251435Z 30009KT 10SM CLR 14/06 A3028 300 57 300 300/09 RMK AO2
14840KMKG MKG20070525094009805/25/07 09:40:31  5-MIN KMKG 251440Z 28011G16KT 10SM CLR 14/06 A3029 290 59 300 290/11G16 RMK AO2
14840KMKG MKG20070525094509805/25/07 09:45:31  5-MIN KMKG 251445Z 29007G16KT 10SM CLR 14/06 A3029 290 57 300 300/07G16 RMK AO2
14840KMKG MKG20070525095011505/25/07 09:50:31  5-MIN KMKG 251450Z 29008KT 10SM CLR 14/06 A3028 300 59 300 290/08 RMK AO2 SLP254 T01390061 51016
14840KMKG MKG20070525095511505/25/07 09:55:31  5-MIN KMKG 251455Z 29010KT 10SM CLR 14/07 A3028 300 61 300 290/10 RMK AO2 SLP253 T01390067 51004
14840KMKG MKG20070525100009205/25/07 10:00:31  5-MIN KMKG 251500Z 30007KT 10SM CLR 14/07 A3028 300 59 300 300/07 RMK AO2
14840KMKG MKG20070525100509205/25/07 10:05:31  5-MIN KMKG 251505Z 30007KT 10SM CLR 14/07 A3028 300 59 300 300/07 RMK AO2
14840KMKG MKG20070525101009205/25/07 10:10:31  5-MIN KMKG 251510Z 29008KT 10SM CLR 14/07 A3028 300 59 300 290/08 RMK AO2
14840KMKG MKG20070525101509205/25/07 10:15:31  5-MIN KMKG 251515Z 29009KT 10SM CLR 14/07 A3028 300 59 300 290/09 RMK AO2
14840KMKG MKG20070525102009205/25/07 10:20:31  5-MIN KMKG 251520Z 27008KT 10SM CLR 14/07 A3028 290 59 300 280/08 RMK AO2
14840KMKG MKG20070525102509205/25/07 10:25:31  5-MIN KMKG 251525Z 29009KT 10SM CLR 14/07 A3028 300 59 300 300/09 RMK AO2
14840KMKG MKG20070525103010805/25/07 10:30:31  5-MIN KMKG 251530Z 29008KT 250V330 10SM CLR 14/07 A3028 300 59 300 300/08 250V330 RMK AO2
14840KMKG MKG20070525103509805/25/07 10:35:31  5-MIN KMKG 251535Z 27010G14KT 10SM CLR 15/07 A3028 300 57 400 270/10G14 RMK AO2
14840KMKG MKG20070525104009805/25/07 10:40:31  5-MIN KMKG 251540Z 27011G14KT 10SM CLR 14/06 A3029 290 57 300 270/11G14 RMK AO2
14840KMKG MKG20070525104509205/25/07 10:45:31  5-MIN KMKG 251545Z 28008KT 10SM CLR 15/06 A3029 290 55 400 280/08 RMK AO2
14840KMKG MKG20070525105010905/25/07 10:50:31  5-MIN KMKG 251550Z 27010KT 10SM CLR 14/06 A3029 290 57 300 280/10 RMK AO2 SLP258 T01440061
14840KMKG MKG20070525105510905/25/07 10:55:31  5-MIN KMKG 251555Z 29011KT 10SM CLR 14/06 A3029 290 57 300 290/11 RMK AO2 SLP259 T01440061
14840KMKG MKG20070525110009205/25/07 11:00:31  5-MIN KMKG 251600Z 30010KT 10SM CLR 14/06 A3029 290 59 300 310/10 RMK AO2
14840KMKG MKG20070525110509205/25/07 11:05:31  5-MIN KMKG 251605Z 27010KT 10SM CLR 14/07 A3029 290 59 300 270/10 RMK AO2
14840KMKG MKG20070525111009205/25/07 11:10:31  5-MIN KMKG 251610Z 28010KT 10SM CLR 14/07 A3029 290 59 300 280/10 RMK AO2
14840KMKG MKG20070525111509805/25/07 11:15:31  5-MIN KMKG 251615Z 28009G15KT 10SM CLR 14/07 A3030 280 59 300 280/09G15 RMK AO2
14840KMKG MKG20070525112009805/25/07 11:20:31  5-MIN KMKG 251620Z 29008G15KT 10SM CLR 14/07 A3029 290 59 300 290/08G15 RMK AO2
14840KMKG MKG20070525112509205/25/07 11:25:31  5-MIN KMKG 251625Z 30009KT 10SM CLR 14/07 A3030 280 59 300 300/09 RMK AO2
14840KMKG MKG20070525113009205/25/07 11:30:31  5-MIN KMKG 251630Z 30011KT 10SM CLR 14/06 A3030 280 57 300 310/11 RMK AO2
14840KMKG MKG20070525113509205/25/07 11:35:31  5-MIN KMKG 251635Z 29011KT 10SM CLR 14/07 A3030 280 59 300 290/11 RMK AO2
14840KMKG MKG20070525114009205/25/07 11:40:31  5-MIN KMKG 251640Z 29010KT 10SM CLR 14/07 A3030 280 59 300 300/10 RMK AO2
14840KMKG MKG20070525114509205/25/07 11:45:31  5-MIN KMKG 251645Z 30010KT 10SM CLR 14/07 A3030 280 59 300 300/10 RMK AO2
14840KMKG MKG20070525115010905/25/07 11:50:31  5-MIN KMKG 251650Z 28010KT 10SM CLR 15/07 A3030 280 57 400 290/10 RMK AO2 SLP262 T01500067
14840KMKG MKG20070525115510905/25/07 11:55:31  5-MIN KMKG 251655Z 27010KT 10SM CLR 14/06 A3030 280 57 300 270/10 RMK AO2 SLP262 T01440061
14840KMKG MKG20070525120009205/25/07 12:00:31  5-MIN KMKG 251700Z 27011KT 10SM CLR 15/06 A3030 280 55 400 280/11 RMK AO2
14840KMKG MKG20070525120509205/25/07 12:05:31  5-MIN KMKG 251705Z 29008KT 10SM CLR 15/07 A3030 280 57 400 300/08 RMK AO2
14840KMKG MKG20070525121010805/25/07 12:10:31  5-MIN KMKG 251710Z 29008KT 250V310 10SM CLR 16/07 A3030 280 55 500 290/08 250V310 RMK AO2
14840KMKG MKG20070525121509205/25/07 12:15:31  5-MIN KMKG 251715Z 30008KT 10SM CLR 14/06 A3029 290 57 300 300/08 RMK AO2
14840KMKG MKG20070525122009205/25/07 12:20:31  5-MIN KMKG 251720Z 29007KT 10SM CLR 15/06 A3029 290 55 400 290/07 RMK AO2
14840KMKG MKG20070525122509205/25/07 12:25:31  5-MIN KMKG 251725Z 28009KT 10SM CLR 15/06 A3030 290 55 400 290/09 RMK AO2
14840KMKG MKG20070525123009205/25/07 12:30:31  5-MIN KMKG 251730Z 25009KT 10SM CLR 15/06 A3029 290 55 400 250/09 RMK AO2
14840KMKG MKG20070525123509205/25/07 12:35:31  5-MIN KMKG 251735Z 28011KT 10SM CLR 16/06 A3029 290 53 500 290/11 RMK AO2
14840KMKG MKG20070525124009205/25/07 12:40:31  5-MIN KMKG 251740Z 27010KT 10SM CLR 15/06 A3029 290 53 400 270/10 RMK AO2
14840KMKG MKG20070525124509205/25/07 12:45:31  5-MIN KMKG 251745Z 29009KT 10SM CLR 15/06 A3029 290 55 400 300/09 RMK AO2
14840KMKG MKG20070525125012705/25/07 12:50:31  5-MIN KMKG 251750Z 29011KT 10SM CLR 15/06 A3029 290 53 400 290/11 RMK AO2 SLP257 T01500056 10156 20117 51004
14840KMKG MKG20070525125512705/25/07 12:55:31  5-MIN KMKG 251755Z 28010KT 10SM CLR 16/06 A3029 290 53 500 280/10 RMK AO2 SLP257 T01560061 10156 20117 50003
14840KMKG MKG20070525130009205/25/07 13:00:31  5-MIN KMKG 251800Z 27011KT 10SM CLR 15/06 A3029 290 55 400 280/11 RMK AO2
14840KMKG MKG20070525130509205/25/07 13:05:31  5-MIN KMKG 251805Z 27011KT 10SM CLR 16/06 A3029 290 53 500 270/11 RMK AO2
14840KMKG MKG20070525131009205/25/07 13:10:31  5-MIN KMKG 251810Z 29010KT 10SM CLR 16/06 A3029 290 53 500 290/10 RMK AO2
14840KMKG MKG20070525131509205/25/07 13:15:31  5-MIN KMKG 251815Z 30009KT 10SM CLR 16/06 A3028 300 53 500 300/09 RMK AO2
14840KMKG MKG20070525132009205/25/07 13:20:31  5-MIN KMKG 251820Z 29009KT 10SM CLR 16/06 A3028 300 53 500 290/09 RMK AO2
14840KMKG MKG20070525132509205/25/07 13:25:31  5-MIN KMKG 251825Z 28010KT 10SM CLR 16/06 A3028 300 53 500 280/10 RMK AO2
14840KMKG MKG20070525133009205/25/07 13:30:31  5-MIN KMKG 251830Z 28010KT 10SM CLR 16/06 A3028 300 53 500 280/10 RMK AO2
14840KMKG MKG20070525133509205/25/07 13:35:31  5-MIN KMKG 251835Z 27011KT 10SM CLR 16/06 A3028 300 53 500 280/11 RMK AO2
14840KMKG MKG20070525134009805/25/07 13:40:31  5-MIN KMKG 251840Z 28010G16KT 10SM CLR 16/06 A3028 300 53 500 280/10G16 RMK AO2
14840KMKG MKG20070525134509205/25/07 13:45:31  5-MIN KMKG 251845Z 27010KT 10SM CLR 16/06 A3028 300 53 500 280/10 RMK AO2
14840KMKG MKG20070525135010905/25/07 13:50:31  5-MIN KMKG 251850Z 29010KT 10SM CLR 16/06 A3028 300 51 500 290/10 RMK AO2 SLP254 T01610061
14840KMKG MKG20070525135510905/25/07 13:55:31  5-MIN KMKG 251855Z 28009KT 10SM CLR 16/06 A3028 300 53 500 290/09 RMK AO2 SLP254 T01560061
14840KMKG MKG20070525140009205/25/07 14:00:31  5-MIN KMKG 251900Z 29010KT 10SM CLR 16/06 A3028 300 53 500 290/10 RMK AO2
14840KMKG MKG20070525140509205/25/07 14:05:31  5-MIN KMKG 251905Z 28009KT 10SM CLR 16/06 A3028 300 51 500 280/09 RMK AO2
14840KMKG MKG20070525141009205/25/07 14:10:31  5-MIN KMKG 251910Z 29009KT 10SM CLR 17/06 A3028 300 49 600 290/09 RMK AO2
14840KMKG MKG20070525141509205/25/07 14:15:31  5-MIN KMKG 251915Z 27011KT 10SM CLR 16/06 A3028 300 51 500 270/11 RMK AO2
14840KMKG MKG20070525142009205/25/07 14:20:31  5-MIN KMKG 251920Z 26010KT 10SM CLR 16/06 A3028 300 49 500 270/10 RMK AO2
14840KMKG MKG20070525142509205/25/07 14:25:31  5-MIN KMKG 251925Z 27009KT 10SM CLR 16/06 A3028 300 51 500 280/09 RMK AO2
14840KMKG MKG20070525143010805/25/07 14:30:31  5-MIN KMKG 251930Z 28007KT 240V320 10SM CLR 16/06 A3028 300 49 500 290/07 240V320 RMK AO2
14840KMKG MKG20070525143509205/25/07 14:35:31  5-MIN KMKG 251935Z 27008KT 10SM CLR 16/05 A3027 310 49 500 270/08 RMK AO2
14840KMKG MKG20070525144009205/25/07 14:40:31  5-MIN KMKG 251940Z 28009KT 10SM CLR 16/05 A3027 310 49 500 290/09 RMK AO2
14840KMKG MKG20070525144509205/25/07 14:45:31  5-MIN KMKG 251945Z 27009KT 10SM CLR 16/04 A3026 310 47 500 270/09 RMK AO2
14840KMKG MKG20070525145010905/25/07 14:50:31  5-MIN KMKG 251950Z 29008KT 10SM CLR 16/05 A3026 320 47 600 290/08 RMK AO2 SLP248 T01610050
14840KMKG MKG20070525145510905/25/07 14:55:31  5-MIN KMKG 251955Z 28009KT 10SM CLR 16/05 A3026 320 47 600 280/09 RMK AO2 SLP248 T01610050
14840KMKG MKG20070525150009205/25/07 15:00:31  5-MIN KMKG 252000Z 28007KT 10SM CLR 17/05 A3026 320 45 600 280/07 RMK AO2
14840KMKG MKG20070525150509205/25/07 15:05:31  5-MIN KMKG 252005Z 27008KT 10SM CLR 16/05 A3026 320 47 600 270/08 RMK AO2
14840KMKG MKG20070525151009205/25/07 15:10:31  5-MIN KMKG 252010Z 28009KT 10SM CLR 16/05 A3025 320 47 600 280/09 RMK AO2
14840KMKG MKG20070525151509205/25/07 15:15:31  5-MIN KMKG 252015Z 28008KT 10SM CLR 16/05 A3025 320 47 600 290/08 RMK AO2
14840KMKG MKG20070525152009205/25/07 15:20:31  5-MIN KMKG 252020Z 28007KT 10SM CLR 17/05 A3025 320 45 600 290/07 RMK AO2
14840KMKG MKG20070525152509205/25/07 15:25:31  5-MIN KMKG 252025Z 26010KT 10SM CLR 17/04 A3025 320 44 600 270/10 RMK AO2
14840KMKG MKG20070525153009205/25/07 15:30:31  5-MIN KMKG 252030Z 27008KT 10SM CLR 16/04 A3025 320 45 500 270/08 RMK AO2
14840KMKG MKG20070525153509205/25/07 15:35:31  5-MIN KMKG 252035Z 27009KT 10SM CLR 16/04 A3025 330 44 600 270/09 RMK AO2
14840KMKG MKG20070525154009205/25/07 15:40:31  5-MIN KMKG 252040Z 26009KT 10SM CLR 17/04 A3025 330 42 600 270/09 RMK AO2
14840KMKG MKG20070525154509205/25/07 15:45:31  5-MIN KMKG 252045Z 28010KT 10SM CLR 16/04 A3025 330 44 600 280/10 RMK AO2
14840KMKG MKG20070525155011505/25/07 15:50:31  5-MIN KMKG 252050Z 27009KT 10SM CLR 16/04 A3025 330 44 600 280/09 RMK AO2 SLP243 T01610039 50003
14840KMKG MKG20070525155511505/25/07 15:55:31  5-MIN KMKG 252055Z 27010KT 10SM CLR 16/04 A3025 330 44 600 270/10 RMK AO2 SLP243 T01610039 58014
14840KMKG MKG20070525160009205/25/07 16:00:31  5-MIN KMKG 252100Z 28009KT 10SM CLR 16/04 A3025 330 44 600 280/09 RMK AO2
14840KMKG MKG20070525160509205/25/07 16:05:31  5-MIN KMKG 252105Z 28008KT 10SM CLR 17/04 A3024 330 42 600 280/08 RMK AO2
14840KMKG MKG20070525161009205/25/07 16:10:31  5-MIN KMKG 252110Z 29008KT 10SM CLR 17/04 A3024 340 42 700 290/08 RMK AO2
14840KMKG MKG20070525161509205/25/07 16:15:31  5-MIN KMKG 252115Z 29006KT 10SM CLR 17/04 A3024 340 42 700 290/06 RMK AO2
14840KMKG MKG20070525162009205/25/07 16:20:31  5-MIN KMKG 252120Z 28009KT 10SM CLR 17/04 A3024 340 41 700 280/09 RMK AO2
14840KMKG MKG20070525162509205/25/07 16:25:31  5-MIN KMKG 252125Z 28008KT 10SM CLR 17/04 A3024 340 41 700 290/08 RMK AO2
14840KMKG MKG20070525163009205/25/07 16:30:31  5-MIN KMKG 252130Z 29007KT 10SM CLR 17/03 A3023 340 39 700 290/07 RMK AO2
14840KMKG MKG20070525163509205/25/07 16:35:31  5-MIN KMKG 252135Z 29007KT 10SM CLR 17/03 A3023 340 39 700 290/07 RMK AO2
14840KMKG MKG20070525164009205/25/07 16:40:31  5-MIN KMKG 252140Z 29007KT 10SM CLR 17/03 A3023 340 37 700 290/07 RMK AO2
14840KMKG MKG20070525164509205/25/07 16:45:31  5-MIN KMKG 252145Z 29007KT 10SM CLR 17/02 A3023 350 36 700 290/07 RMK AO2
14840KMKG MKG20070525165011205/25/07 16:50:31  5-MIN KMKG 252150Z 28006KT 10SM FEW075 17/02 A3023 350 36 700 280/06 RMK AO2 SLP237 T01720022
14840KMKG MKG20070525165511205/25/07 16:55:31  5-MIN KMKG 252155Z 30007KT 10SM FEW075 17/03 A3023 350 37 700 300/07 RMK AO2 SLP237 T01720028
14840KMKG MKG20070525170009205/25/07 17:00:31  5-MIN KMKG 252200Z 28006KT 10SM CLR 17/03 A3023 350 37 700 290/06 RMK AO2
14840KMKG MKG20070525170509205/25/07 17:05:31  5-MIN KMKG 252205Z 28007KT 10SM CLR 17/03 A3023 350 37 700 290/07 RMK AO2
14840KMKG MKG20070525171009205/25/07 17:10:31  5-MIN KMKG 252210Z 29005KT 10SM CLR 17/03 A3022 350 37 700 290/05 RMK AO2
14840KMKG MKG20070525171509205/25/07 17:15:31  5-MIN KMKG 252215Z 29006KT 10SM CLR 17/03 A3023 350 37 700 300/06 RMK AO2
14840KMKG MKG20070525172009205/25/07 17:20:31  5-MIN KMKG 252220Z 29005KT 10SM CLR 17/03 A3022 350 37 700 300/05 RMK AO2
14840KMKG MKG20070525172509205/25/07 17:25:31  5-MIN KMKG 252225Z 26005KT 10SM CLR 17/03 A3022 350 39 700 260/05 RMK AO2
14840KMKG MKG20070525173009205/25/07 17:30:31  5-MIN KMKG 252230Z 28004KT 10SM CLR 17/03 A3022 350 40 700 290/04 RMK AO2
14840KMKG MKG20070525173509205/25/07 17:35:31  5-MIN KMKG 252235Z 28006KT 10SM CLR 17/04 A3022 350 41 700 290/06 RMK AO2
14840KMKG MKG20070525174009205/25/07 17:40:31  5-MIN KMKG 252240Z 30005KT 10SM CLR 17/04 A3022 360 42 700 300/05 RMK AO2
14840KMKG MKG20070525174509205/25/07 17:45:31  5-MIN KMKG 252245Z 29005KT 10SM CLR 17/04 A3022 350 41 700 290/05 RMK AO2
14840KMKG MKG20070525175010905/25/07 17:50:31  5-MIN KMKG 252250Z 26005KT 10SM CLR 17/04 A3022 360 41 700 270/05 RMK AO2 SLP233 T01720039
14840KMKG MKG20070525175511205/25/07 17:55:31  5-MIN KMKG 252255Z 27004KT 10SM FEW085 17/03 A3022 360 40 700 270/04 RMK AO2 SLP233 T01670033
14840KMKG MKG20070525180009205/25/07 18:00:31  5-MIN KMKG 252300Z VRB04KT 10SM CLR 17/04 A3022 360 42 700 VRB/04 RMK AO2
14840KMKG MKG20070525180509205/25/07 18:05:31  5-MIN KMKG 252305Z VRB05KT 10SM CLR 17/04 A3022 360 42 700 VRB/05 RMK AO2
14840KMKG MKG20070525181009205/25/07 18:10:31  5-MIN KMKG 252310Z 25004KT 10SM CLR 17/04 A3022 360 42 700 250/04 RMK AO2
14840KMKG MKG20070525181509205/25/07 18:15:31  5-MIN KMKG 252315Z VRB04KT 10SM CLR 17/04 A3022 360 42 700 VRB/04 RMK AO2
14840KMKG MKG20070525182009205/25/07 18:20:31  5-MIN KMKG 252320Z 25005KT 10SM CLR 17/04 A3021 360 42 700 260/05 RMK AO2
14840KMKG MKG20070525182509205/25/07 18:25:31  5-MIN KMKG 252325Z 25004KT 10SM CLR 16/04 A3022 360 45 600 250/04 RMK AO2
14840KMKG MKG20070525183009205/25/07 18:30:31  5-MIN KMKG 252330Z 24005KT 10SM CLR 16/05 A3021 360 47 600 250/05 RMK AO2
14840KMKG MKG20070525183509205/25/07 18:35:31  5-MIN KMKG 252335Z 23007KT 10SM CLR 16/06 A3022 360 51 500 230/07 RMK AO2
14840KMKG MKG20070525184009205/25/07 18:40:31  5-MIN KMKG 252340Z 24006KT 10SM CLR 15/06 A3022 360 53 500 240/06 RMK AO2
14840KMKG MKG20070525184509205/25/07 18:45:31  5-MIN KMKG 252345Z 25005KT 10SM CLR 14/06 A3022 360 55 400 250/05 RMK AO2
14840KMKG MKG20070525185012705/25/07 18:50:31  5-MIN KMKG 252350Z 25005KT 10SM CLR 14/06 A3022 360 55 400 250/05 RMK AO2 SLP234 T01440056 10178 20144 58014
14840KMKG MKG20070525185512705/25/07 18:55:31  5-MIN KMKG 252355Z 25004KT 10SM CLR 14/06 A3022 350 57 400 250/04 RMK AO2 SLP234 T01440061 10178 20144 55009
14840KMKG MKG20070525190009205/25/07 19:00:31  5-MIN KMKG 260000Z 25005KT 10SM CLR 14/06 A3022 360 59 300 260/05 RMK AO2
14840KMKG MKG20070525190509205/25/07 19:05:31  5-MIN KMKG 260005Z 26005KT 10SM CLR 14/06 A3022 360 59 300 270/05 RMK AO2
14840KMKG MKG20070525191009205/25/07 19:10:31  5-MIN KMKG 260010Z 27004KT 10SM CLR 14/06 A3022 360 59 300 270/04 RMK AO2
14840KMKG MKG20070525191509205/25/07 19:15:31  5-MIN KMKG 260015Z 27005KT 10SM CLR 14/06 A3022 350 59 300 270/05 RMK AO2
14840KMKG MKG20070525192009205/25/07 19:20:31  5-MIN KMKG 260020Z 25003KT 10SM CLR 13/06 A3022 350 61 300 250/03 RMK AO2
14840KMKG MKG20070525192509205/25/07 19:25:31  5-MIN KMKG 260025Z 25003KT 10SM CLR 13/06 A3023 350 63 200 260/03 RMK AO2
14840KMKG MKG20070525193009205/25/07 19:30:31  5-MIN KMKG 260030Z 28004KT 10SM CLR 13/06 A3022 350 63 200 280/04 RMK AO2
14840KMKG MKG20070525193509205/25/07 19:35:31  5-MIN KMKG 260035Z 28003KT 10SM CLR 13/06 A3023 350 63 200 290/03 RMK AO2
14840KMKG MKG20070525194009205/25/07 19:40:31  5-MIN KMKG 260040Z 29003KT 10SM CLR 13/06 A3023 350 63 200 290/03 RMK AO2
14840KMKG MKG20070525194509205/25/07 19:45:31  5-MIN KMKG 260045Z 27003KT 10SM CLR 12/06 A3023 350 66 100 270/03 RMK AO2
14840KMKG MKG20070525195010905/25/07 19:50:31  5-MIN KMKG 260050Z 00000KT 10SM CLR 12/06 A3023 340 66 100 000/00 RMK AO2 SLP239 T01220061
14840KMKG MKG20070525195510905/25/07 19:55:31  5-MIN KMKG 260055Z 00000KT 10SM CLR 12/06 A3023 340 66 100 000/00 RMK AO2 SLP239 T01220061
14840KMKG MKG20070525200009205/25/07 20:00:31  5-MIN KMKG 260100Z 00000KT 10SM CLR 12/06 A3023 340 68 100 000/00 RMK AO2
14840KMKG MKG20070525200509205/25/07 20:05:31  5-MIN KMKG 260105Z 21003KT 10SM CLR 12/06 A3023 350 68 100 220/03 RMK AO2
14840KMKG MKG20070525201009005/25/07 20:10:31  5-MIN KMKG 260110Z 23004KT 10SM CLR 11/06 A3023 340 71 0 230/04 RMK AO2
14840KMKG MKG20070525201509005/25/07 20:15:31  5-MIN KMKG 260115Z 22004KT 10SM CLR 11/06 A3023 340 74 0 230/04 RMK AO2
14840KMKG MKG20070525202009305/25/07 20:20:31  5-MIN KMKG 260120Z 22005KT 10SM CLR 10/06 A3023 340 77 -100 230/05 RMK AO2
14840KMKG MKG20070525202509305/25/07 20:25:31  5-MIN KMKG 260125Z 22004KT 10SM CLR 10/06 A3023 340 77 -100 230/04 RMK AO2
14840KMKG MKG20070525203009305/25/07 20:30:31  5-MIN KMKG 260130Z 23004KT 10SM CLR 09/06 A3023 340 79 -200 230/04 RMK AO2
14840KMKG MKG20070525203509305/25/07 20:35:31  5-MIN KMKG 260135Z 23004KT 10SM CLR 09/06 A3023 340 79 -200 230/04 RMK AO2
14840KMKG MKG20070525204009305/25/07 20:40:31  5-MIN KMKG 260140Z 22004KT 10SM CLR 09/06 A3023 340 79 -200 220/04 RMK AO2
14840KMKG MKG20070525204509305/25/07 20:45:31  5-MIN KMKG 260145Z 22004KT 10SM CLR 09/06 A3023 340 79 -200 230/04 RMK AO2
14840KMKG MKG20070525205011005/25/07 20:50:31  5-MIN KMKG 260150Z 22004KT 10SM CLR 09/06 A3024 340 79 -200 220/04 RMK AO2 SLP241 T00940061
14840KMKG MKG20070525205511005/25/07 20:55:31  5-MIN KMKG 260155Z 23003KT 10SM CLR 09/06 A3024 340 79 -200 230/03 RMK AO2 SLP241 T00940061
14840KMKG MKG20070525210009305/25/07 21:00:31  5-MIN KMKG 260200Z 00000KT 10SM CLR 09/07 A3024 340 83 -200 000/00 RMK AO2
14840KMKG MKG20070525210509305/25/07 21:05:31  5-MIN KMKG 260205Z 23003KT 10SM CLR 09/06 A3024 340 79 -200 230/03 RMK AO2
14840KMKG MKG20070525211009305/25/07 21:10:31  5-MIN KMKG 260210Z 00000KT 10SM CLR 09/07 A3024 340 83 -200 000/00 RMK AO2
14840KMKG MKG20070525211509305/25/07 21:15:31  5-MIN KMKG 260215Z 00000KT 10SM CLR 09/07 A3024 340 86 -200 000/00 RMK AO2
14840KMKG MKG20070525212009305/25/07 21:20:31  5-MIN KMKG 260220Z 00000KT 10SM CLR 09/07 A3024 340 86 -200 000/00 RMK AO2
14840KMKG MKG20070525212509305/25/07 21:25:31  5-MIN KMKG 260225Z 00000KT 10SM CLR 09/07 A3024 340 86 -200 000/00 RMK AO2
14840KMKG MKG20070525213009305/25/07 21:30:31  5-MIN KMKG 260230Z 00000KT 10SM CLR 09/07 A3023 340 83 -200 000/00 RMK AO2
14840KMKG MKG20070525213509305/25/07 21:35:31  5-MIN KMKG 260235Z 00000KT 10SM CLR 09/07 A3023 340 83 -200 000/00 RMK AO2
14840KMKG MKG20070525214009305/25/07 21:40:31  5-MIN KMKG 260240Z 00000KT 10SM CLR 09/07 A3023 340 83 -200 000/00 RMK AO2
14840KMKG MKG20070525214509305/25/07 21:45:31  5-MIN KMKG 260245Z 00000KT 10SM CLR 09/07 A3024 340 83 -200 000/00 RMK AO2
14840KMKG MKG20070525215011605/25/07 21:50:31  5-MIN KMKG 260250Z 00000KT 10SM CLR 09/07 A3024 340 83 -200 000/00 RMK AO2 SLP241 T00940067 55009
14840KMKG MKG20070525215511605/25/07 21:55:31  5-MIN KMKG 260255Z 00000KT 10SM CLR 09/07 A3024 340 83 -200 000/00 RMK AO2 SLP241 T00940067 51006
14840KMKG MKG20070525220009305/25/07 22:00:31  5-MIN KMKG 260300Z 20003KT 10SM CLR 10/07 A3024 340 80 -100 210/03 RMK AO2
14840KMKG MKG20070525220509305/25/07 22:05:31  5-MIN KMKG 260305Z 21003KT 10SM CLR 09/07 A3024 340 83 -200 210/03 RMK AO2
14840KMKG MKG20070525221009305/25/07 22:10:31  5-MIN KMKG 260310Z 21003KT 10SM CLR 09/07 A3024 340 83 -200 220/03 RMK AO2
14840KMKG MKG20070525221509305/25/07 22:15:31  5-MIN KMKG 260315Z 21003KT 10SM CLR 09/07 A3024 340 86 -200 220/03 RMK AO2
14840KMKG MKG20070525222009305/25/07 22:20:31  5-MIN KMKG 260320Z 22003KT 10SM CLR 09/07 A3024 330 86 -200 230/03 RMK AO2
14840KMKG MKG20070525222509305/25/07 22:25:31  5-MIN KMKG 260325Z 00000KT 10SM CLR 09/07 A3024 340 86 -200 000/00 RMK AO2
14840KMKG MKG20070525223009305/25/07 22:30:31  5-MIN KMKG 260330Z 00000KT 10SM CLR 09/07 A3024 340 86 -200 000/00 RMK AO2
14840KMKG MKG20070525223509305/25/07 22:35:31  5-MIN KMKG 260335Z 19003KT 10SM CLR 09/07 A3024 340 86 -200 200/03 RMK AO2
14840KMKG MKG20070525224009305/25/07 22:40:31  5-MIN KMKG 260340Z 20003KT 10SM CLR 09/07 A3024 340 86 -200 200/03 RMK AO2
14840KMKG MKG20070525224509305/25/07 22:45:31  5-MIN KMKG 260345Z 00000KT 10SM CLR 09/07 A3024 340 86 -200 000/00 RMK AO2
14840KMKG MKG20070525225011005/25/07 22:50:31  5-MIN KMKG 260350Z 00000KT 10SM CLR 09/06 A3024 340 83 -200 000/00 RMK AO2 SLP241 T00890061
14840KMKG MKG20070525225511005/25/07 22:55:31  5-MIN KMKG 260355Z 00000KT 10SM CLR 08/06 A3024 340 86 -300 000/00 RMK AO2 SLP241 T00830061
14840KMKG MKG20070525230009305/25/07 23:00:31  5-MIN KMKG 260400Z 00000KT 10SM CLR 09/07 A3024 340 86 -200 000/00 RMK AO2
14840KMKG MKG20070525230509305/25/07 23:05:31  5-MIN KMKG 260405Z 00000KT 10SM CLR 09/07 A3023 340 86 -200 000/00 RMK AO2
14840KMKG MKG20070525231009305/25/07 23:10:31  5-MIN KMKG 260410Z 00000KT 10SM CLR 09/07 A3023 340 86 -200 000/00 RMK AO2
14840KMKG MKG20070525231509305/25/07 23:15:31  5-MIN KMKG 260415Z 00000KT 10SM CLR 09/07 A3023 350 86 -200 000/00 RMK AO2
14840KMKG MKG20070525232009305/25/07 23:20:31  5-MIN KMKG 260420Z 00000KT 10SM CLR 09/07 A3023 350 86 -200 000/00 RMK AO2
14840KMKG MKG20070525232509305/25/07 23:25:31  5-MIN KMKG 260425Z 00000KT 10SM CLR 09/07 A3023 350 83 -100 000/00 RMK AO2
14840KMKG MKG20070525233009305/25/07 23:30:31  5-MIN KMKG 260430Z 00000KT 10SM CLR 09/07 A3023 350 83 -100 000/00 RMK AO2
14840KMKG MKG20070525233509305/25/07 23:35:31  5-MIN KMKG 260435Z 00000KT 10SM CLR 09/07 A3023 350 83 -100 000/00 RMK AO2
14840KMKG MKG20070525234009305/25/07 23:40:31  5-MIN KMKG 260440Z 00000KT 10SM CLR 09/07 A3023 350 83 -100 000/00 RMK AO2
14840KMKG MKG20070525234509305/25/07 23:45:31  5-MIN KMKG 260445Z 00000KT 10SM CLR 09/07 A3023 350 83 -100 000/00 RMK AO2
14840KMKG MKG20070525235012005/25/07 23:50:31  5-MIN KMKG 260450Z 00000KT 10SM CLR 09/07 A3023 350 86 -200 000/00 RMK AO2 SLP238 T00890067 401780083
14840KMKG MKG20070525235512005/25/07 23:55:31  5-MIN KMKG 260455Z 00000KT 10SM CLR 08/07 A3023 350 89 -300 000/00 RMK AO2 SLP238 T00830067 401780083
14840KMKG MKG20070526000009605/26/07 00:00:32  5-MIN KMKG 260500Z 00000KT 10SM FEW100 08/06 A3023 350 86 -300 000/00 RMK AO2
14840KMKG MKG20070526000509605/26/07 00:05:31  5-MIN KMKG 260505Z 00000KT 10SM FEW100 08/07 A3022 350 89 -300 000/00 RMK AO2
14840KMKG MKG20070526001009605/26/07 00:10:31  5-MIN KMKG 260510Z 22003KT 10SM FEW100 08/06 A3023 350 89 -300 230/03 RMK AO2
14840KMKG MKG20070526001509605/26/07 00:15:31  5-MIN KMKG 260515Z 00000KT 10SM SCT100 08/06 A3023 350 89 -300 000/00 RMK AO2
14840KMKG MKG20070526002009605/26/07 00:20:31  5-MIN KMKG 260520Z 00000KT 10SM SCT110 08/06 A3022 350 89 -300 000/00 RMK AO2
14840KMKG MKG20070526002509605/26/07 00:25:31  5-MIN KMKG 260525Z 00000KT 10SM FEW110 08/07 A3022 350 89 -300 000/00 RMK AO2
14840KMKG MKG20070526003009605/26/07 00:30:31  5-MIN KMKG 260530Z 00000KT 10SM FEW110 08/07 A3022 350 89 -300 000/00 RMK AO2
14840KMKG MKG20070526003509605/26/07 00:35:31  5-MIN KMKG 260535Z 00000KT 10SM FEW110 08/07 A3022 350 89 -300 000/00 RMK AO2
14840KMKG MKG20070526004009605/26/07 00:40:31  5-MIN KMKG 260540Z 00000KT 10SM FEW110 08/07 A3022 350 89 -300 000/00 RMK AO2
14840KMKG MKG20070526004509305/26/07 00:45:31  5-MIN KMKG 260545Z 00000KT 10SM CLR 08/07 A3022 350 89 -300 000/00 RMK AO2
14840KMKG MKG20070526005013105/26/07 00:50:31  5-MIN KMKG 260550Z 00000KT 10SM FEW110 08/07 A3022 350 89 -300 000/00 RMK AO2 SLP235 T00830067 10144 20078 51006
14840KMKG MKG20070526005513105/26/07 00:55:31  5-MIN KMKG 260555Z 00000KT 10SM FEW110 09/07 A3022 360 86 -200 000/00 RMK AO2 SLP234 T00890067 10144 20078 58007
14840KMKG MKG20070526010009605/26/07 01:00:31  5-MIN KMKG 260600Z 00000KT 10SM FEW110 09/07 A3021 360 86 -200 000/00 RMK AO2
14840KMKG MKG20070526010509605/26/07 01:05:31  5-MIN KMKG 260605Z 00000KT 10SM FEW110 09/07 A3022 360 83 -100 000/00 RMK AO2
14840KMKG MKG20070526011009605/26/07 01:10:31  5-MIN KMKG 260610Z 00000KT 10SM FEW110 09/07 A3022 360 86 -100 000/00 RMK AO2
14840KMKG MKG20070526011509605/26/07 01:15:31  5-MIN KMKG 260615Z 00000KT 10SM FEW110 09/07 A3022 350 86 -100 000/00 RMK AO2
14840KMKG MKG20070526012009305/26/07 01:20:31  5-MIN KMKG 260620Z 00000KT 10SM CLR 09/07 A3022 350 86 -100 000/00 RMK AO2
14840KMKG MKG20070526012509305/26/07 01:25:31  5-MIN KMKG 260625Z 00000KT 10SM CLR 09/07 A3022 350 86 -100 000/00 RMK AO2
14840KMKG MKG20070526013009305/26/07 01:30:31  5-MIN KMKG 260630Z 00000KT 10SM CLR 09/07 A3022 360 86 -100 000/00 RMK AO2
14840KMKG MKG20070526013509305/26/07 01:35:31  5-MIN KMKG 260635Z 00000KT 10SM CLR 09/07 A3022 350 86 -100 000/00 RMK AO2
14840KMKG MKG20070526014009305/26/07 01:40:31  5-MIN KMKG 260640Z 00000KT 10SM CLR 09/07 A3022 350 86 -100 000/00 RMK AO2
14840KMKG MKG20070526014509305/26/07 01:45:31  5-MIN KMKG 260645Z 00000KT 10SM CLR 09/07 A3023 350 89 -200 000/00 RMK AO2
14840KMKG MKG20070526015011305/26/07 01:50:31  5-MIN KMKG 260650Z 00000KT 10SM SCT110 09/07 A3023 350 89 -200 000/00 RMK AO2 SLP237 T00890072
14840KMKG MKG20070526015511305/26/07 01:55:31  5-MIN KMKG 260655Z 00000KT 10SM BKN110 09/07 A3022 350 89 -200 000/00 RMK AO2 SLP236 T00890072
14840KMKG MKG20070526020009605/26/07 02:00:31  5-MIN KMKG 260700Z 00000KT 10SM BKN110 09/08 A3022 350 93 -200 000/00 RMK AO2
14840KMKG MKG20070526020509605/26/07 02:05:31  5-MIN KMKG 260705Z 00000KT 10SM SCT110 09/08 A3022 350 89 -100 000/00 RMK AO2
14840KMKG MKG20070526021009605/26/07 02:10:31  5-MIN KMKG 260710Z 00000KT 10SM BKN110 10/08 A3022 350 86 -100 000/00 RMK AO2
14840KMKG MKG20070526021509605/26/07 02:15:31  5-MIN KMKG 260715Z 00000KT 10SM BKN110 10/08 A3022 360 89 -100 000/00 RMK AO2
14840KMKG MKG20070526022009305/26/07 02:20:31  5-MIN KMKG 260720Z 00000KT 10SM BKN110 11/08 A3022 360 86 0 000/00 RMK AO2
14840KMKG MKG20070526022509305/26/07 02:25:31  5-MIN KMKG 260725Z 00000KT 10SM BKN110 11/08 A3022 350 86 0 000/00 RMK AO2
14840KMKG MKG20070526023009605/26/07 02:30:31  5-MIN KMKG 260730Z 00000KT 10SM BKN110 10/08 A3022 350 89 -100 000/00 RMK AO2
14840KMKG MKG20070526023510305/26/07 02:35:31  5-MIN KMKG 260735Z 00000KT 10SM SCT085 BKN110 10/08 A3022 350 89 -100 000/00 RMK AO2
14840KMKG MKG20070526024010305/26/07 02:40:31  5-MIN KMKG 260740Z 00000KT 10SM BKN080 BKN110 10/08 A3023 350 89 -100 000/00 RMK AO2
14840KMKG MKG20070526024510005/26/07 02:45:31  5-MIN KMKG 260745Z 00000KT 10SM BKN080 BKN110 11/09 A3023 350 89 0 000/00 RMK AO2
14840KMKG MKG20070526025013305/26/07 02:50:31  5-MIN KMKG 260750Z 00000KT 10SM -RA BKN080 BKN110 11/09 A3022 350 89 0 000/00 RMK AO2 RAB47 SLP236 P0000 T01060089
14840KMKG MKG20070526025513305/26/07 02:55:31  5-MIN KMKG 260755Z 00000KT 10SM -RA BKN080 OVC100 11/09 A3022 350 89 0 000/00 RMK AO2 RAB47 SLP235 P0000 T01060089
14840KMKG MKG20070526030011005/26/07 03:00:31  5-MIN KMKG 260800Z 00000KT 10SM -RA BKN080 OVC100 11/09 A3022 350 89 0 000/00 RMK AO2 P0000
14840KMKG MKG20070526030511005/26/07 03:05:31  5-MIN KMKG 260805Z 17003KT 10SM -RA BKN075 OVC095 11/09 A3022 350 89 0 180/03 RMK AO2 P0000
14840KMKG MKG20070526031011005/26/07 03:10:31  5-MIN KMKG 260810Z 00000KT 10SM -RA BKN075 OVC100 11/09 A3022 350 89 0 000/00 RMK AO2 P0000
14840KMKG MKG20070526031511005/26/07 03:15:31  5-MIN KMKG 260815Z 00000KT 10SM -RA SCT080 OVC100 11/09 A3023 350 89 0 000/00 RMK AO2 P0000
14840KMKG MKG20070526032011005/26/07 03:20:31  5-MIN KMKG 260820Z 15003KT 10SM -RA BKN080 OVC095 11/09 A3022 350 89 0 160/03 RMK AO2 P0000
14840KMKG MKG20070526032511005/26/07 03:25:31  5-MIN KMKG 260825Z 11004KT 10SM -RA BKN080 OVC095 11/09 A3021 360 89 0 120/04 RMK AO2 P0000
14840KMKG MKG20070526033011005/26/07 03:30:31  5-MIN KMKG 260830Z 10005KT 10SM -RA BKN080 OVC095 11/09 A3021 370 89 0 100/05 RMK AO2 P0000
14840KMKG MKG20070526033511005/26/07 03:35:31  5-MIN KMKG 260835Z 08004KT 10SM -RA BKN080 OVC095 11/09 A3020 370 89 0 090/04 RMK AO2 P0001
14840KMKG MKG20070526034010305/26/07 03:40:31  5-MIN KMKG 260840Z 10004KT 10SM -RA OVC080 11/09 A3020 370 89 0 110/04 RMK AO2 P0001
14840KMKG MKG20070526034510305/26/07 03:45:31  5-MIN KMKG 260845Z 10003KT 10SM -RA OVC075 11/09 A3020 370 86 0 100/03 RMK AO2 P0001
14840KMKG MKG20070526035013405/26/07 03:50:31  5-MIN KMKG 260850Z 00000KT 10SM -RA OVC075 12/09 A3020 370 83 100 000/00 RMK AO2 SLP228 P0001 60001 T01170089 58007
14840KMKG MKG20070526035513405/26/07 03:55:31  5-MIN KMKG 260855Z 08003KT 10SM -RA OVC075 12/09 A3020 380 83 100 080/03 RMK AO2 SLP226 P0001 60001 T01170089 58006
14840KMKG MKG20070526040010305/26/07 04:00:31  5-MIN KMKG 260900Z 10004KT 10SM -RA OVC075 11/09 A3020 370 86 0 100/04 RMK AO2 P0001
14840KMKG MKG20070526040511005/26/07 04:05:31  5-MIN KMKG 260905Z 00000KT 10SM -RA FEW055 OVC075 11/08 A3021 370 83 0 000/00 RMK AO2 P0001
14840KMKG MKG20070526041011005/26/07 04:10:31  5-MIN KMKG 260910Z 11003KT 10SM -RA SCT050 OVC075 11/08 A3021 360 83 0 110/03 RMK AO2 P0001
14840KMKG MKG20070526041510905/26/07 04:15:31  5-MIN KMKG 260915Z 11003KT 9SM -RA SCT048 OVC075 11/08 A3021 360 83 0 110/03 RMK AO2 P0002
14840KMKG MKG20070526042011705/26/07 04:20:31  5-MIN KMKG 260920Z 00000KT 10SM -RA SCT050 BKN075 OVC110 11/08 A3020 370 83 0 000/00 RMK AO2 P0002
14840KMKG MKG20070526042511705/26/07 04:25:31  5-MIN KMKG 260925Z 09003KT 10SM -RA FEW047 BKN070 OVC110 11/08 A3020 370 83 0 090/03 RMK AO2 P0002
14840KMKG MKG20070526043011705/26/07 04:30:31  5-MIN KMKG 260930Z 00000KT 10SM -RA FEW047 BKN065 OVC110 11/08 A3021 360 83 0 000/00 RMK AO2 P0002
14840KMKG MKG20070526043511605/26/07 04:35:31  5-MIN KMKG 260935Z 00000KT 7SM -RA BKN060 BKN080 OVC110 11/09 A3022 360 86 0 000/00 RMK AO2 P0002
14840KMKG MKG20070526044010905/26/07 04:40:31  5-MIN KMKG 260940Z 00000KT 7SM -RA BKN065 OVC110 11/09 A3022 360 86 0 000/00 RMK AO2 P0003
14840KMKG MKG20070526044511005/26/07 04:45:31  5-MIN KMKG 260945Z 00000KT 10SM -RA BKN070 OVC100 11/09 A3021 360 86 0 000/00 RMK AO2 P0004
14840KMKG MKG20070526045013405/26/07 04:50:31  5-MIN KMKG 260950Z 10003KT 10SM -RA SCT065 BKN075 OVC100 11/09 A3021 370 86 0 110/03 RMK AO2 SLP230 P0004 T01110089
14840KMKG MKG20070526045513405/26/07 04:55:31  5-MIN KMKG 260955Z 11004KT 10SM -RA SCT048 BKN065 OVC100 11/09 A3021 370 86 0 110/04 RMK AO2 SLP230 P0004 T01110089
14840KMKG MKG20070526050011505/26/07 05:00:31  5-MIN KMKG 261000Z 12004KT 8SM RA BKN030 BKN065 OVC100 11/09 A3021 370 86 0 120/04 RMK AO2 P0001
14840KMKG MKG20070526050511805/26/07 05:05:31  5-MIN KMKG 261005Z 13007KT 6SM RA BR BKN023 BKN065 OVC100 11/09 A3020 370 86 0 130/07 RMK AO2 P0002
14840KMKG MKG20070526051011205/26/07 05:10:31  5-MIN KMKG 261010Z 13007KT 6SM -RA BR BKN025 OVC100 11/09 A3020 370 86 0 140/07 RMK AO2 P0003
14840KMKG MKG20070526051510905/26/07 05:15:31  5-MIN KMKG 261015Z 15006KT 8SM -RA BKN028 OVC100 11/09 A3022 360 89 0 150/06 RMK AO2 P0004
14840KMKG MKG20070526052010105/26/07 05:20:31  5-MIN KMKG 261020Z 17007KT 7SM RA OVC025 11/09 A3022 350 89 0 170/07 RMK AO2 P0005
14840KMKG MKG20070526052510805/26/07 05:25:31  5-MIN KMKG 261025Z 17007KT 7SM RA BKN023 OVC065 11/09 A3023 350 89 0 170/07 RMK AO2 P0006
14840KMKG MKG20070526053010905/26/07 05:30:31  5-MIN KMKG 261030Z 16007KT 9SM -RA BKN023 OVC065 11/09 A3023 350 89 0 170/07 RMK AO2 P0006
14840KMKG MKG20070526053511005/26/07 05:35:31  5-MIN KMKG 261035Z 14009KT 10SM -RA SCT027 OVC065 11/09 A3022 350 89 0 150/09 RMK AO2 P0006
14840KMKG MKG20070526054011705/26/07 05:40:31  5-MIN KMKG 261040Z 14009KT 10SM -RA SCT027 BKN065 OVC095 11/09 A3022 350 89 0 150/09 RMK AO2 P0006
14840KMKG MKG20070526054511705/26/07 05:45:31  5-MIN KMKG 261045Z 14008KT 10SM -RA FEW022 BKN065 OVC100 11/09 A3022 350 89 0 150/08 RMK AO2 P0006
14840KMKG MKG20070526055012705/26/07 05:50:31  5-MIN KMKG 261050Z 13007KT 10SM -RA SCT065 OVC100 11/09 A3022 360 89 0 130/07 RMK AO2 SLP233 P0006 T01110094
14840KMKG MKG20070526055512705/26/07 05:55:31  5-MIN KMKG 261055Z 14005KT 10SM -RA SCT060 OVC100 11/09 A3022 360 89 0 140/05 RMK AO2 SLP234 P0006 T01110094
14840KMKG MKG20070526060011005/26/07 06:00:31  5-MIN KMKG 261100Z 14005KT 10SM -RA SCT055 OVC100 11/10 A3022 350 93 0 140/05 RMK AO2 P0001
14840KMKG MKG20070526060511005/26/07 06:05:31  5-MIN KMKG 261105Z 16003KT 10SM -RA SCT050 OVC100 11/10 A3023 340 93 0 160/03 RMK AO2 P0001
14840KMKG MKG20070526061011205/26/07 06:10:31  5-MIN KMKG 261110Z 16003KT 10SM -RA BKN055 OVC100 12/10 A3023 340 89 100 160/03 RMK AO2 P0001
14840KMKG MKG20070526061511105/26/07 06:15:31  5-MIN KMKG 261115Z 00000KT 9SM -RA BKN055 OVC100 12/10 A3023 340 89 100 000/00 RMK AO2 P0001
14840KMKG MKG20070526062011105/26/07 06:20:31  5-MIN KMKG 261120Z 15003KT 8SM -RA BKN055 OVC100 12/10 A3024 340 89 100 150/03 RMK AO2 P0002
14840KMKG MKG20070526062511105/26/07 06:25:31  5-MIN KMKG 261125Z 15006KT 9SM -RA BKN055 OVC100 12/10 A3024 340 89 100 150/06 RMK AO2 P0002
14840KMKG MKG20070526063010405/26/07 06:30:31  5-MIN KMKG 261130Z 15006KT 9SM -RA OVC060 12/10 A3023 340 89 100 160/06 RMK AO2 P0002
14840KMKG MKG20070526063510405/26/07 06:35:31  5-MIN KMKG 261135Z 15007KT 8SM -RA OVC055 12/10 A3023 340 89 100 150/07 RMK AO2 P0002
14840KMKG MKG20070526064010405/26/07 06:40:31  5-MIN KMKG 261140Z 13008KT 7SM -RA OVC055 12/10 A3022 350 89 100 130/08 RMK AO2 P0002
14840KMKG MKG20070526064511105/26/07 06:45:31  5-MIN KMKG 261145Z 12008KT 8SM -RA FEW046 OVC055 12/11 A3022 350 93 100 120/08 RMK AO2 P0003
14840KMKG MKG20070526065016505/26/07 06:50:31  5-MIN KMKG 261150Z 11007KT 7SM -RA FEW030 BKN055 OVC090 12/11 A3022 350 93 100 110/07 RMK AO2 SLP236 P0003 60014 70014 T01170106 10117 20089 58006
14840KMKG MKG20070526065516805/26/07 06:55:31  5-MIN KMKG 261155Z 12006KT 6SM -RA BR SCT028 BKN055 OVC090 12/11 A3023 340 93 100 120/06 RMK AO2 SLP238 P0003 60014 70014 T01170106 10117 20089 53011
14840KMKG MKG20070526070011805/26/07 07:00:31  5-MIN KMKG 261200Z 12007KT 7SM -RA SCT030 BKN055 OVC090 12/11 A3023 350 93 100 130/07 RMK AO2 P0001
14840KMKG MKG20070526070511805/26/07 07:05:31  5-MIN KMKG 261205Z 12006KT 8SM -RA SCT030 BKN055 OVC090 12/11 A3023 350 93 100 130/06 RMK AO2 P0001
14840KMKG MKG20070526071011805/26/07 07:10:31  5-MIN KMKG 261210Z 12006KT 9SM -RA SCT027 BKN050 OVC090 12/11 A3023 350 93 100 120/06 RMK AO2 P0001
14840KMKG MKG20070526071511205/26/07 07:15:31  5-MIN KMKG 261215Z 11005KT 10SM -RA SCT027 OVC050 12/11 A3023 350 93 100 110/05 RMK AO2 P0001
14840KMKG MKG20070526072011905/26/07 07:20:31  5-MIN KMKG 261220Z 10004KT 10SM -RA FEW027 SCT040 OVC050 12/11 A3023 340 93 100 110/04 RMK AO2 P0001
14840KMKG MKG20070526072512105/26/07 07:25:31  5-MIN KMKG 261225Z 11004KT 10SM FEW027 SCT040 OVC050 12/11 A3023 340 89 100 110/04 RMK AO2 RAE24 P0001
14840KMKG MKG20070526073012105/26/07 07:30:31  5-MIN KMKG 261230Z 09004KT 10SM FEW025 SCT040 OVC050 12/11 A3023 350 93 100 090/04 RMK AO2 RAE24 P0001
14840KMKG MKG20070526073512105/26/07 07:35:31  5-MIN KMKG 261235Z 08005KT 10SM FEW040 BKN050 BKN100 12/11 A3023 350 93 100 080/05 RMK AO2 RAE24 P0001
14840KMKG MKG20070526074012105/26/07 07:40:31  5-MIN KMKG 261240Z 09006KT 10SM FEW040 BKN050 BKN100 12/11 A3022 350 93 100 090/06 RMK AO2 RAE24 P0001
14840KMKG MKG20070526074512105/26/07 07:45:31  5-MIN KMKG 261245Z 10006KT 10SM FEW040 BKN048 BKN100 12/11 A3022 360 93 200 110/06 RMK AO2 RAE24 P0001
14840KMKG MKG20070526075013805/26/07 07:50:31  5-MIN KMKG 261250Z 11007KT 10SM FEW040 BKN048 BKN100 13/11 A3021 360 89 200 110/07 RMK AO2 RAE24 SLP232 P0001 T01280111
14840KMKG MKG20070526075513105/26/07 07:55:31  5-MIN KMKG 261255Z 09004KT 10SM BKN048 BKN100 12/11 A3021 360 93 200 090/04 RMK AO2 RAE24 SLP233 P0001 T01220111
14840KMKG MKG20070526080010205/26/07 08:00:31  5-MIN KMKG 261300Z 07004KT 10SM BKN046 BKN100 13/11 A3021 360 89 200 080/04 RMK AO2
14840KMKG MKG20070526080509505/26/07 08:05:31  5-MIN KMKG 261305Z 08007KT 10SM OVC046 13/11 A3021 360 89 200 080/07 RMK AO2
14840KMKG MKG20070526081009505/26/07 08:10:31  5-MIN KMKG 261310Z 07007KT 10SM OVC044 13/11 A3021 360 89 200 070/07 RMK AO2
14840KMKG MKG20070526081509505/26/07 08:15:31  5-MIN KMKG 261315Z 08007KT 10SM OVC044 13/12 A3021 360 89 300 080/07 RMK AO2
14840KMKG MKG20070526082009505/26/07 08:20:31  5-MIN KMKG 261320Z 09006KT 10SM BKN042 13/11 A3021 360 86 300 090/06 RMK AO2
14840KMKG MKG20070526082509505/26/07 08:25:31  5-MIN KMKG 261325Z 08008KT 10SM BKN042 13/12 A3022 360 89 300 090/08 RMK AO2
14840KMKG MKG20070526083009505/26/07 08:30:31  5-MIN KMKG 261330Z 10006KT 10SM BKN042 13/11 A3022 350 86 300 100/06 RMK AO2
14840KMKG MKG20070526083510205/26/07 08:35:31  5-MIN KMKG 261335Z 10006KT 10SM BKN035 BKN042 13/11 A3022 350 86 300 100/06 RMK AO2
14840KMKG MKG20070526084010205/26/07 08:40:31  5-MIN KMKG 261340Z 09006KT 10SM SCT035 BKN042 13/11 A3022 350 86 300 090/06 RMK AO2
14840KMKG MKG20070526084510205/26/07 08:45:31  5-MIN KMKG 261345Z 09006KT 10SM SCT035 BKN042 13/12 A3022 350 89 300 100/06 RMK AO2
14840KMKG MKG20070526085011905/26/07 08:50:31  5-MIN KMKG 261350Z 09006KT 10SM SCT035 BKN042 13/12 A3022 360 89 300 090/06 RMK AO2 SLP234 T01330117
14840KMKG MKG20070526085511205/26/07 08:55:31  5-MIN KMKG 261355Z 08007KT 10SM BKN032 13/12 A3021 360 89 300 090/07 RMK AO2 SLP234 T01330117
14840KMKG MKG20070526090009505/26/07 09:00:31  5-MIN KMKG 261400Z 09007KT 10SM OVC032 13/12 A3021 360 89 300 090/07 RMK AO2
14840KMKG MKG20070526090509505/26/07 09:05:31  5-MIN KMKG 261405Z 08006KT 10SM BKN032 13/12 A3021 370 89 300 090/06 RMK AO2
14840KMKG MKG20070526091009505/26/07 09:10:31  5-MIN KMKG 261410Z 08007KT 10SM BKN032 14/12 A3021 370 86 400 090/07 RMK AO2
14840KMKG MKG20070526091509505/26/07 09:15:31  5-MIN KMKG 261415Z 08008KT 10SM BKN032 14/12 A3020 370 90 400 090/08 RMK AO2
14840KMKG MKG20070526092009505/26/07 09:20:31  5-MIN KMKG 261420Z 09007KT 10SM BKN032 14/12 A3020 370 90 400 090/07 RMK AO2
14840KMKG MKG20070526092510205/26/07 09:25:31  5-MIN KMKG 261425Z 09007KT 10SM FEW008 OVC032 14/12 A3020 370 90 400 090/07 RMK AO2
14840KMKG MKG20070526093010205/26/07 09:30:31  5-MIN KMKG 261430Z 10007KT 10SM SCT008 OVC032 14/12 A3020 370 86 400 100/07 RMK AO2
14840KMKG MKG20070526093510205/26/07 09:35:31  5-MIN KMKG 261435Z 08009KT 10SM SCT008 OVC032 14/12 A3020 370 86 400 090/09 RMK AO2
14840KMKG MKG20070526094010205/26/07 09:40:31  5-MIN KMKG 261440Z 11012KT 10SM FEW008 OVC032 14/12 A3019 380 83 400 110/12 RMK AO2
14840KMKG MKG20070526094510205/26/07 09:45:31  5-MIN KMKG 261445Z 10010KT 10SM FEW008 OVC032 14/12 A3019 380 86 400 100/10 RMK AO2
14840KMKG MKG20070526095013105/26/07 09:50:31  5-MIN KMKG 261450Z 09009KT 10SM FEW008 OVC030 14/12 A3020 380 83 400 100/09 RMK AO2 SLP227 60001 T01440117 53011
14840KMKG MKG20070526095513105/26/07 09:55:31  5-MIN KMKG 261455Z 10010KT 10SM FEW008 OVC030 14/12 A3019 380 83 400 100/10 RMK AO2 SLP227 60001 T01440117 58012
14840KMKG MKG20070526100009505/26/07 10:00:31  5-MIN KMKG 261500Z 09008KT 10SM OVC030 14/12 A3019 380 83 400 100/08 RMK AO2
14840KMKG MKG20070526100509505/26/07 10:05:31  5-MIN KMKG 261505Z 11011KT 10SM OVC030 15/12 A3019 380 80 500 110/11 RMK AO2
14840KMKG MKG20070526101010205/26/07 10:10:31  5-MIN KMKG 261510Z 10010KT 10SM FEW013 OVC030 15/12 A3019 380 80 500 110/10 RMK AO2
14840KMKG MKG20070526101510205/26/07 10:15:31  5-MIN KMKG 261515Z 10008KT 10SM FEW013 OVC030 16/12 A3019 380 80 600 100/08 RMK AO2
14840KMKG MKG20070526102010205/26/07 10:20:31  5-MIN KMKG 261520Z 11010KT 10SM SCT013 OVC030 16/12 A3018 390 80 600 110/10 RMK AO2
14840KMKG MKG20070526102510205/26/07 10:25:31  5-MIN KMKG 261525Z 09010KT 10SM SCT013 OVC030 16/12 A3018 390 80 600 100/10 RMK AO2
14840KMKG MKG20070526103010205/26/07 10:30:31  5-MIN KMKG 261530Z 09011KT 10SM SCT013 OVC030 16/12 A3018 390 77 600 100/11 RMK AO2
14840KMKG MKG20070526103510205/26/07 10:35:31  5-MIN KMKG 261535Z 09011KT 10SM BKN013 OVC030 16/12 A3018 390 80 600 090/11 RMK AO2
14840KMKG MKG20070526104010205/26/07 10:40:31  5-MIN KMKG 261540Z 08010KT 10SM BKN013 OVC028 16/12 A3018 400 77 600 090/10 RMK AO2
14840KMKG MKG20070526104510205/26/07 10:45:31  5-MIN KMKG 261545Z 09011KT 10SM BKN013 OVC028 16/12 A3017 400 80 600 090/11 RMK AO2
14840KMKG MKG20070526105011905/26/07 10:50:31  5-MIN KMKG 261550Z 11010KT 10SM BKN013 OVC028 16/12 A3017 400 77 700 110/10 RMK AO2 SLP220 T01610122
14840KMKG MKG20070526105511905/26/07 10:55:31  5-MIN KMKG 261555Z 09014KT 10SM BKN013 OVC028 16/12 A3017 400 77 700 100/14 RMK AO2 SLP219 T01610122
14840KMKG MKG20070526110010805/26/07 11:00:31  5-MIN KMKG 261600Z 09012G19KT 10SM BKN013 OVC028 16/12 A3017 400 75 700 090/12G19 RMK AO2
14840KMKG MKG20070526110510805/26/07 11:05:31  5-MIN KMKG 261605Z 11014G19KT 10SM BKN013 OVC028 16/12 A3017 400 75 700 120/14G19 RMK AO2
14840KMKG MKG20070526111010805/26/07 11:10:31  5-MIN KMKG 261610Z 10012G19KT 10SM BKN013 OVC028 16/12 A3017 400 77 700 100/12G19 RMK AO2
14840KMKG MKG20070526111510205/26/07 11:15:31  5-MIN KMKG 261615Z 11013KT 10SM BKN013 OVC028 16/12 A3017 400 77 700 110/13 RMK AO2
14840KMKG MKG20070526112009505/26/07 11:20:31  5-MIN KMKG 261620Z 11010KT 10SM OVC013 16/12 A3017 400 77 700 120/10 RMK AO2
14840KMKG MKG20070526112509505/26/07 11:25:31  5-MIN KMKG 261625Z 11010KT 10SM OVC013 16/12 A3017 400 77 700 120/10 RMK AO2
14840KMKG MKG20070526113009505/26/07 11:30:31  5-MIN KMKG 261630Z 12011KT 10SM OVC013 16/12 A3017 400 77 700 120/11 RMK AO2
14840KMKG MKG20070526113509505/26/07 11:35:31  5-MIN KMKG 261635Z 10012KT 10SM OVC013 16/12 A3017 400 77 700 100/12 RMK AO2
14840KMKG MKG20070526114009505/26/07 11:40:31  5-MIN KMKG 261640Z 11012KT 10SM OVC013 16/12 A3017 400 77 700 110/12 RMK AO2
14840KMKG MKG20070526114509505/26/07 11:45:31  5-MIN KMKG 261645Z 12009KT 10SM OVC013 16/12 A3017 400 77 700 130/09 RMK AO2
14840KMKG MKG20070526115011205/26/07 11:50:31  5-MIN KMKG 261650Z 10009KT 10SM OVC013 16/13 A3017 400 80 700 110/09 RMK AO2 SLP217 T01610128
14840KMKG MKG20070526115511205/26/07 11:55:31  5-MIN KMKG 261655Z 11010KT 10SM OVC013 16/13 A3017 400 80 700 120/10 RMK AO2 SLP217 T01610128
14840KMKG MKG20070526120009505/26/07 12:00:31  5-MIN KMKG 261700Z 10008KT 10SM OVC013 16/13 A3016 410 80 700 110/08 RMK AO2
14840KMKG MKG20070526120509505/26/07 12:05:31  5-MIN KMKG 261705Z 11011KT 10SM OVC013 16/13 A3016 410 80 700 110/11 RMK AO2
14840KMKG MKG20070526121009505/26/07 12:10:31  5-MIN KMKG 261710Z 13011KT 10SM OVC013 16/13 A3016 410 80 700 130/11 RMK AO2
14840KMKG MKG20070526121509505/26/07 12:15:31  5-MIN KMKG 261715Z 12011KT 10SM OVC013 16/13 A3015 420 80 700 120/11 RMK AO2
14840KMKG MKG20070526122009505/26/07 12:20:31  5-MIN KMKG 261720Z 12011KT 10SM OVC013 16/13 A3015 420 80 700 120/11 RMK AO2
14840KMKG MKG20070526122509505/26/07 12:25:31  5-MIN KMKG 261725Z 11010KT 10SM OVC013 16/13 A3015 420 80 700 110/10 RMK AO2
14840KMKG MKG20070526123009505/26/07 12:30:31  5-MIN KMKG 261730Z 12009KT 10SM OVC013 16/13 A3015 420 80 700 120/09 RMK AO2
14840KMKG MKG20070526123509505/26/07 12:35:31  5-MIN KMKG 261735Z 12009KT 10SM OVC013 16/13 A3015 420 80 700 120/09 RMK AO2
14840KMKG MKG20070526124009505/26/07 12:40:31  5-MIN KMKG 261740Z 12008KT 10SM OVC013 16/13 A3015 420 80 700 130/08 RMK AO2
14840KMKG MKG20070526124509505/26/07 12:45:31  5-MIN KMKG 261745Z 10010KT 10SM OVC013 16/13 A3015 420 80 700 110/10 RMK AO2
14840KMKG MKG20070526125013605/26/07 12:50:31  5-MIN KMKG 261750Z 12010KT 10SM OVC013 17/13 A3015 420 80 800 120/10 RMK AO2 SLP211 60001 T01670133 10167 20117 58012
14840KMKG MKG20070526125513605/26/07 12:55:31  5-MIN KMKG 261755Z 13010KT 10SM OVC013 17/13 A3015 420 80 800 130/10 RMK AO2 SLP210 60001 T01670133 10167 20117 56016
14840KMKG MKG20070526130009505/26/07 13:00:31  5-MIN KMKG 261800Z 10010KT 10SM OVC013 17/13 A3015 420 78 800 100/10 RMK AO2
14840KMKG MKG20070526130509505/26/07 13:05:31  5-MIN KMKG 261805Z 11011KT 10SM OVC013 17/13 A3014 430 80 800 110/11 RMK AO2
14840KMKG MKG20070526131009505/26/07 13:10:31  5-MIN KMKG 261810Z 11010KT 10SM OVC013 17/13 A3014 430 80 800 110/10 RMK AO2
14840KMKG MKG20070526131509505/26/07 13:15:31  5-MIN KMKG 261815Z 10011KT 10SM OVC013 17/13 A3014 430 78 800 110/11 RMK AO2
14840KMKG MKG20070526132010205/26/07 13:20:31  5-MIN KMKG 261820Z 11012KT 10SM BKN013 OVC024 17/13 A3013 430 78 800 110/12 RMK AO2
14840KMKG MKG20070526132510205/26/07 13:25:31  5-MIN KMKG 261825Z 11010KT 10SM BKN013 OVC024 17/13 A3013 430 78 800 120/10 RMK AO2
14840KMKG MKG20070526133010205/26/07 13:30:31  5-MIN KMKG 261830Z 12010KT 10SM BKN013 OVC024 17/13 A3013 440 80 800 120/10 RMK AO2
14840KMKG MKG20070526133510205/26/07 13:35:31  5-MIN KMKG 261835Z 12009KT 10SM BKN013 OVC024 17/13 A3013 430 80 800 120/09 RMK AO2
14840KMKG MKG20070526134010205/26/07 13:40:31  5-MIN KMKG 261840Z 10011KT 10SM BKN013 OVC024 17/13 A3013 440 80 800 110/11 RMK AO2
14840KMKG MKG20070526134510205/26/07 13:45:31  5-MIN KMKG 261845Z 11008KT 10SM BKN013 OVC024 17/13 A3013 440 78 800 110/08 RMK AO2
14840KMKG MKG20070526135011205/26/07 13:50:31  5-MIN KMKG 261850Z 12009KT 10SM OVC013 17/14 A3013 440 80 800 130/09 RMK AO2 SLP203 T01720139
14840KMKG MKG20070526135511205/26/07 13:55:31  5-MIN KMKG 261855Z 12008KT 10SM OVC013 17/14 A3013 440 80 800 120/08 RMK AO2 SLP203 T01720139
14840KMKG MKG20070526140009505/26/07 14:00:31  5-MIN KMKG 261900Z 11008KT 10SM OVC013 17/14 A3013 440 80 800 120/08 RMK AO2
14840KMKG MKG20070526140509505/26/07 14:05:31  5-MIN KMKG 261905Z 12009KT 10SM OVC013 17/14 A3012 440 80 800 130/09 RMK AO2
14840KMKG MKG20070526141009505/26/07 14:10:31  5-MIN KMKG 261910Z 11008KT 10SM OVC013 17/14 A3012 440 80 800 120/08 RMK AO2
14840KMKG MKG20070526141509505/26/07 14:15:31  5-MIN KMKG 261915Z 11007KT 10SM OVC013 17/14 A3012 450 80 900 110/07 RMK AO2
14840KMKG MKG20070526142009505/26/07 14:20:31  5-MIN KMKG 261920Z 12009KT 10SM OVC013 17/14 A3012 450 80 900 130/09 RMK AO2
14840KMKG MKG20070526142511005/26/07 14:25:31  5-MIN KMKG 261925Z 12007KT 8SM -RA OVC013 17/14 A3012 450 80 900 130/07 RMK AO2 RAB23 P0000
14840KMKG MKG20070526143011005/26/07 14:30:31  5-MIN KMKG 261930Z 12008KT 8SM -RA OVC013 17/14 A3012 450 86 800 130/08 RMK AO2 RAB23 P0000
14840KMKG MKG20070526143510905/26/07 14:35:31  5-MIN KMKG 261935Z 13008KT 9SM OVC013 17/14 A3011 450 86 800 140/08 RMK AO2 RAB23E35 P0000
14840KMKG MKG20070526144011005/26/07 14:40:31  5-MIN KMKG 261940Z 11007KT 9SM -RA OVC013 17/14 A3011 460 83 900 120/07 RMK AO2 RAB23 P0000
14840KMKG MKG20070526144511005/26/07 14:45:31  5-MIN KMKG 261945Z 10006KT 9SM -RA OVC013 17/14 A3011 460 83 900 110/06 RMK AO2 RAB23 P0000
14840KMKG MKG20070526145012605/26/07 14:50:31  5-MIN KMKG 261950Z 10007KT 9SM OVC013 17/14 A3010 460 83 900 100/07 RMK AO2 RAB23E48 SLP194 P0000 T01720144
14840KMKG MKG20070526145512605/26/07 14:55:31  5-MIN KMKG 261955Z 11007KT 9SM OVC013 17/14 A3010 460 83 900 110/07 RMK AO2 RAB23E48 SLP194 P0000 T01720144
14840KMKG MKG20070526150009405/26/07 15:00:31  5-MIN KMKG 262000Z 11007KT 8SM OVC013 17/14 A3010 470 83 900 110/07 RMK AO2
14840KMKG MKG20070526150509405/26/07 15:05:31  5-MIN KMKG 262005Z 11007KT 8SM OVC013 17/14 A3009 470 83 900 110/07 RMK AO2
14840KMKG MKG20070526151009405/26/07 15:10:31  5-MIN KMKG 262010Z 10008KT 8SM OVC013 17/14 A3009 470 80 900 110/08 RMK AO2
14840KMKG MKG20070526151509405/26/07 15:15:31  5-MIN KMKG 262015Z 12008KT 8SM OVC013 17/14 A3009 480 83 900 130/08 RMK AO2
14840KMKG MKG20070526152009405/26/07 15:20:31  5-MIN KMKG 262020Z 12008KT 7SM OVC013 17/14 A3009 480 83 900 130/08 RMK AO2
14840KMKG MKG20070526152509405/26/07 15:25:31  5-MIN KMKG 262025Z 12007KT 7SM OVC013 17/14 A3008 480 83 900 120/07 RMK AO2
14840KMKG MKG20070526153009405/26/07 15:30:31  5-MIN KMKG 262030Z 12007KT 7SM OVC011 17/14 A3008 480 83 900 130/07 RMK AO2
14840KMKG MKG20070526153511005/26/07 15:35:31  5-MIN KMKG 262035Z 13006KT 7SM -RA OVC011 17/14 A3008 480 83 900 130/06 RMK AO2 RAB35 P0000
14840KMKG MKG20070526154013005/26/07 15:40:31  5-MIN KMKG 262040Z 12006KT 5SM -RA BR OVC011 17/14 A3008 480 86 800 130/06 RMK AO2 VIS 2 1/2 RWY 14 RAB35 P0000
14840KMKG MKG20070526154512605/26/07 15:45:31  5-MIN KMKG 262045Z 18006KT 3SM -RA BR OVC011 17/15 A3010 470 90 800 190/06 RMK AO2 VIS 2 RWY 14 RAB35 P0000
14840KMKG MKG20070526155017305/26/07 15:50:31  5-MIN KMKG 262050Z 22007KT 1 3/4SM -RA BR OVC011 17/15 A3010 460 90 800 220/07 RMK AO2 VIS 1V4 RAB35 CIG 009V014 PRESRR SLP195 P0001 60001 T01670150 56016
14840KMKG MKG20070526155514205/26/07 15:55:31  5-MIN KMKG 262055Z VRB03KT 1SM +RA BR OVC011 16/15 A3010 470 93 700 VRB/03 RMK AO2 RAB35 SLP192 P0007 60007 T01610150 56017
14840KMKG MKG20070526160011305/26/07 16:00:31  5-MIN KMKG 262100Z 15004KT 1SM RA BR BKN011 OVC036 16/16 A3009 470 96 800 150/04 RMK AO2 P0002
14840KMKG MKG20070526160512105/26/07 16:05:31  5-MIN KMKG 262105Z 14003KT 1SM +RA BR BKN011 BKN027 OVC046 16/16 A3009 470 96 800 150/03 RMK AO2 P0006
14840KMKG MKG20070526161012405/26/07 16:10:31  5-MIN KMKG 262110Z 13003KT 1 1/4SM RA BR BKN011 BKN026 OVC047 16/16 A3009 480 96 800 140/03 RMK AO2 P0009
14840KMKG MKG20070526161513305/26/07 16:15:31  5-MIN KMKG 262115Z 12004KT 2SM RA BR BKN009 BKN013 OVC026 17/16 A3008 480 93 800 120/04 RMK AO2 VIS 1 RWY 14 P0011
14840KMKG MKG20070526162013105/26/07 16:20:31  5-MIN KMKG 262120Z 12003KT 2 1/2SM -RA BR BKN007 BKN011 17/16 A3008 480 93 800 130/03 RMK AO2 VIS 1 RWY 14 P0011
14840KMKG MKG20070526162512005/26/07 16:25:31  5-MIN KMKG 262125Z 09004KT 3SM -RA BR BKN007 17/16 A3007 490 93 800 100/04 RMK AO2 VIS 1 RWY 14 P0012
14840KMKG MKG20070526163012005/26/07 16:30:31  5-MIN KMKG 262130Z 09004KT 3SM -RA BR OVC007 17/16 A3007 490 93 800 100/04 RMK AO2 VIS 1 RWY 14 P0013
14840KMKG MKG20070526163513605/26/07 16:35:31  5-MIN KMKG 262135Z 11004KT 3SM -RA BR OVC007 17/16 A3007 490 93 800 110/04 RMK AO2 VIS 1 1/4 RWY 14 CIG 004V010 P0013
14840KMKG MKG20070526164014005/26/07 16:40:31  5-MIN KMKG 262140Z 10004KT 2 1/2SM -RA BR OVC007 17/16 A3007 500 93 800 100/04 RMK AO2 VIS 1 1/4 RWY 14 CIG 004V009 P0014
14840KMKG MKG20070526164513605/26/07 16:45:31  5-MIN KMKG 262145Z 10004KT 3SM -RA BR OVC005 17/16 A3006 500 93 900 110/04 RMK AO2 VIS 1 1/4 RWY 14 CIG 004V008 P0014
14840KMKG MKG20070526165014105/26/07 16:50:31  5-MIN KMKG 262150Z 11005KT 3SM -RA BR OVC005 17/16 A3006 500 93 900 110/05 RMK AO2 VIS 1 1/4 RWY 14 SLP180 P0014 T01670156
14840KMKG MKG20070526165515305/26/07 16:55:31  5-MIN KMKG 262155Z 14005KT 3SM -RA BR OVC005 17/16 A3006 500 93 900 140/05 RMK AO2 VIS 1 1/4 RWY 14 CIG 004V008 SLP180 P0014 T01670156
14840KMKG MKG20070526170013605/26/07 17:00:31  5-MIN KMKG 262200Z 14006KT 3SM -RA BR OVC005 17/16 A3006 510 96 900 140/06 RMK AO2 VIS 1 1/4 RWY 14 CIG 004V008 P0001
14840KMKG MKG20070526170513605/26/07 17:05:31  5-MIN KMKG 262205Z 14007KT 3SM -RA BR OVC005 17/16 A3005 510 93 900 140/07 RMK AO2 VIS 1 1/2 RWY 14 CIG 004V008 P0001
14840KMKG MKG20070526171013605/26/07 17:10:31  5-MIN KMKG 262210Z 14007KT 3SM -RA BR OVC005 17/16 A3005 510 93 900 150/07 RMK AO2 VIS 1 1/2 RWY 14 CIG 004V009 P0001
14840KMKG MKG20070526171513605/26/07 17:15:31  5-MIN KMKG 262215Z 15006KT 4SM -RA BR OVC005 17/16 A3005 510 93 900 160/06 RMK AO2 VIS 1 3/4 RWY 14 CIG 004V009 P0001
14840KMKG MKG20070526172013605/26/07 17:20:31  5-MIN KMKG 262220Z 16007KT 4SM -RA BR OVC005 17/16 A3005 510 93 900 160/07 RMK AO2 VIS 1 3/4 RWY 14 CIG 004V009 P0001
14840KMKG MKG20070526172513205/26/07 17:25:31  5-MIN KMKG 262225Z 14009KT 4SM -RA BR OVC005 17/16 A3004 520 93 900 150/09 RMK AO2 VIS 2 RWY 14 CIG 004V009 P0001
14840KMKG MKG20070526173013205/26/07 17:30:31  5-MIN KMKG 262230Z 15009KT 4SM -RA BR OVC005 17/16 A3004 520 93 900 160/09 RMK AO2 VIS 2 RWY 14 CIG 005V009 P0001
14840KMKG MKG20070526173513605/26/07 17:35:31  5-MIN KMKG 262235Z 16008KT 5SM -RA BR OVC005 17/16 A3004 520 93 900 170/08 RMK AO2 VIS 2 1/2 RWY 14 CIG 005V009 P0001
14840KMKG MKG20070526174013805/26/07 17:40:31  5-MIN KMKG 262240Z 16006KT 4SM BR OVC005 17/16 A3004 520 93 900 170/06 RMK AO2 VIS 2 1/2 RWY 14 RAE36 CIG 004V009 P0001
14840KMKG MKG20070526174513905/26/07 17:45:31  5-MIN KMKG 262245Z 16010KT 4SM BR OVC005 17/16 A3003 530 93 1000 160/10 RMK AO2 VIS 2 1/2 RWY 14 RAE36 CIG 004V009 P0001
14840KMKG MKG20070526175015605/26/07 17:50:31  5-MIN KMKG 262250Z 16010KT 4SM BR OVC005 17/16 A3003 530 93 1000 170/10 RMK AO2 VIS 2 1/2 RWY 14 RAE36 CIG 004V008 SLP169 P0001 T01720161
14840KMKG MKG20070526175516305/26/07 17:55:31  5-MIN KMKG 262255Z 17008KT 5SM -RA BR OVC005 17/16 A3003 530 93 1000 170/08 RMK AO2 VIS 2 1/2 RWY 14 RAE36B54 CIG 004V008 SLP169 P0001 T01720161
14840KMKG MKG20070526180012505/26/07 18:00:31  5-MIN KMKG 262300Z 17008KT 5SM -RA BR OVC005 17/16 A3003 530 93 1000 170/08 RMK AO2 VIS 2 1/2 RWY 14 P0000
14840KMKG MKG20070526180512505/26/07 18:05:31  5-MIN KMKG 262305Z 17009KT 6SM -RA BR OVC005 17/16 A3003 530 93 1000 170/09 RMK AO2 VIS 2 1/2 RWY 14 P0000
14840KMKG MKG20070526181010805/26/07 18:10:31  5-MIN KMKG 262310Z 18006KT 5SM -RA BR OVC005 17/16 A3003 530 93 1000 190/06 RMK AO2 P0000
14840KMKG MKG20070526181513705/26/07 18:15:31  5-MIN KMKG 262315Z 18007KT 5SM -RA BR OVC005 17/16 A3003 530 93 1000 190/07 RMK AO2 VIS 2 1/2 RWY 14 CIG 004V007 P0000
14840KMKG MKG20070526182013905/26/07 18:20:31  5-MIN KMKG 262320Z 18007KT 4SM BR OVC005 17/16 A3003 530 93 1000 190/07 RMK AO2 VIS 2 1/2 RWY 14 RAE16 CIG 004V008 P0000
14840KMKG MKG20070526182513405/26/07 18:25:31  5-MIN KMKG 262325Z 18008KT 4SM BR OVC005 17/16 A3003 530 96 900 180/08 RMK AO2 VIS 2 RWY 14 RAE16 CIG 004V008 P0000
14840KMKG MKG20070526183013405/26/07 18:30:31  5-MIN KMKG 262330Z 18008KT 4SM BR OVC005 17/16 A3003 530 93 900 190/08 RMK AO2 VIS 2 RWY 14 RAE16 CIG 004V008 P0000
14840KMKG MKG20070526183512205/26/07 18:35:31  5-MIN KMKG 262335Z 20007KT 4SM BR OVC005 17/16 A3004 520 93 900 200/07 RMK AO2 VIS 2 RWY 14 RAE16 P0000
14840KMKG MKG20070526184012605/26/07 18:40:31  5-MIN KMKG 262340Z 21004KT 3SM BR OVC005 17/16 A3004 520 93 900 210/04 RMK AO2 VIS 1 3/4 RWY 14 RAE16 P0000
14840KMKG MKG20070526200512905/26/07 20:05:31  5-MIN KMKG 270105Z 15003KT 3SM BR BKN019 BKN024 OVC065 17/16 A3002 540 90 1000 150/03 RMK AO2 VIS 1 1/2 RWY 14
14840KMKG MKG20070526201014805/26/07 20:10:31  5-MIN KMKG 270110Z 15003KT 2 1/2SM BR SCT019 SCT024 OVC065 17/16 A3002 540 90 1000 160/03 RMK AO2 VIS 1 1/2 RWY 14 CIG 019 RWY 14
14840KMKG MKG20070526201513205/26/07 20:15:31  5-MIN KMKG 270115Z 15003KT 2 1/2SM BR SCT019 SCT050 BKN065 17/16 A3002 540 93 900 150/03 RMK AO2 VIS 1 1/2 RWY 14
14840KMKG MKG20070526202012905/26/07 20:20:31  5-MIN KMKG 270120Z 16004KT 3SM BR FEW011 BKN049 OVC065 17/16 A3002 540 90 1000 170/04 RMK AO2 VIS 1 1/2 RWY 14
14840KMKG MKG20070526202512505/26/07 20:25:31  5-MIN KMKG 270125Z 17005KT 4SM BR SCT011 BKN017 OVC065 17/16 A3002 540 90 1000 170/05 RMK AO2 VIS 2 RWY 14
14840KMKG MKG20070526203012505/26/07 20:30:31  5-MIN KMKG 270130Z 16005KT 4SM BR BKN011 BKN049 OVC065 17/16 A3002 540 93 1000 170/05 RMK AO2 VIS 2 RWY 14
14840KMKG MKG20070526203514105/26/07 20:35:31  5-MIN KMKG 270135Z 17006KT 4SM BR BKN011 BKN049 OVC065 17/16 A3001 550 93 1000 180/06 RMK AO2 VIS 2 1/2 RWY 14 CIG 008V014
14840KMKG MKG20070526204013405/26/07 20:40:31  5-MIN KMKG 270140Z 17006KT 4SM BR BKN011 OVC049 17/16 A3001 550 93 1000 170/06 RMK AO2 VIS 2 1/2 RWY 14 CIG 008V014
14840KMKG MKG20070526204512705/26/07 20:45:31  5-MIN KMKG 270145Z 17006KT 4SM BR OVC011 17/16 A3001 550 93 1000 170/06 RMK AO2 VIS 2 1/2 RWY 14 CIG 008V014
14840KMKG MKG20070526205015105/26/07 20:50:31  5-MIN KMKG 270150Z 17009KT 4SM BR BKN011 OVC055 17/16 A3001 550 93 1000 180/09 RMK AO2 VIS 2 1/2 RWY 14 CIG 008V014 SLP162 T01720161
14840KMKG MKG20070526205515105/26/07 20:55:31  5-MIN KMKG 270155Z 18008KT 4SM BR BKN009 OVC055 17/16 A3001 550 93 1000 180/08 RMK AO2 VIS 2 1/2 RWY 14 CIG 007V014 SLP161 T01720161
14840KMKG MKG20070526210013405/26/07 21:00:31  5-MIN KMKG 270200Z 18011KT 4SM BR BKN009 OVC050 17/16 A3001 550 93 1000 180/11 RMK AO2 VIS 2 1/2 RWY 14 CIG 007V014
14840KMKG MKG20070526210514105/26/07 21:05:31  5-MIN KMKG 270205Z 19011KT 4SM BR BKN009 BKN048 OVC055 17/16 A3001 550 93 1000 190/11 RMK AO2 VIS 2 1/2 RWY 14 CIG 005V013
14840KMKG MKG20070526211012905/26/07 21:10:31  5-MIN KMKG 270210Z 19010KT 4SM BR BKN007 BKN010 OVC055 17/16 A3001 550 93 1000 190/10 RMK AO2 VIS 2 1/2 RWY 14
14840KMKG MKG20070526211514105/26/07 21:15:31  5-MIN KMKG 270215Z 19010KT 4SM BR BKN007 BKN028 OVC055 17/16 A3001 550 93 1000 190/10 RMK AO2 VIS 2 1/2 RWY 14 CIG 005V010
14840KMKG MKG20070526212014105/26/07 21:20:31  5-MIN KMKG 270220Z 19010KT 4SM BR BKN007 BKN028 OVC055 17/16 A3001 550 93 1000 190/10 RMK AO2 VIS 2 1/2 RWY 14 CIG 005V010
14840KMKG MKG20070526212513705/26/07 21:25:31  5-MIN KMKG 270225Z 19011KT 5SM BR SCT007 OVC028 17/16 A3001 550 93 1000 190/11 RMK AO2 VIS 2 1/2 RWY 14 CIG 006 RWY 14
14840KMKG MKG20070526213012205/26/07 21:30:31  5-MIN KMKG 270230Z 19009KT 5SM BR SCT007 OVC028 17/16 A3001 550 93 1000 200/09 RMK AO2 VIS 2 1/2 RWY 14
14840KMKG MKG20070526213511205/26/07 21:35:31  5-MIN KMKG 270235Z 18010KT 5SM BR FEW007 BKN027 OVC033 17/16 A3000 550 93 1000 180/10 RMK AO2
14840KMKG MKG20070526214011205/26/07 21:40:31  5-MIN KMKG 270240Z 20011KT 6SM BR FEW007 BKN029 OVC035 17/16 A3001 550 90 1000 200/11 RMK AO2
14840KMKG MKG20070526214511705/26/07 21:45:31  5-MIN KMKG 270245Z 18011KT 7SM SCT026 OVC035 17/16 A3000 550 90 1000 190/11 RMK AO2 CIG 029 RWY 14
14840KMKG MKG20070526215010905/26/07 21:50:31  5-MIN KMKG 270250Z 18011KT 7SM SCT027 BKN037 OVC060 17/16 A3000 550 90 1000 190/11 RMK AO2
14840KMKG MKG20070526215513205/26/07 21:55:31  5-MIN KMKG 270255Z 19010KT 8SM FEW025 BKN037 OVC070 17/16 A3001 550 90 1000 190/10 RMK AO2 SLP161 T01720156 56012
14840KMKG MKG20070526220010905/26/07 22:00:31  5-MIN KMKG 270300Z 19009KT 8SM FEW023 BKN034 OVC070 17/16 A3001 550 90 1000 200/09 RMK AO2
14840KMKG MKG20070526220511505/26/07 22:05:31  5-MIN KMKG 270305Z 19010G17KT 9SM SCT030 BKN036 OVC070 17/15 A3001 550 87 1000 200/10G17 RMK AO2
14840KMKG MKG20070526221011605/26/07 22:10:31  5-MIN KMKG 270310Z 20009G17KT 10SM FEW022 BKN038 OVC070 17/15 A3001 550 87 1000 200/09G17 RMK AO2
14840KMKG MKG20070526221511005/26/07 22:15:31  5-MIN KMKG 270315Z 20012KT 10SM SCT022 BKN030 OVC070 17/16 A3001 550 90 1000 200/12 RMK AO2
14840KMKG MKG20070526222011605/26/07 22:20:31  5-MIN KMKG 270320Z 19011G18KT 10SM BKN022 BKN030 OVC039 17/16 A3001 550 90 1000 200/11G18 RMK AO2
14840KMKG MKG20070526222510305/26/07 22:25:31  5-MIN KMKG 270325Z 19013KT 10SM BKN020 OVC030 17/16 A3001 550 90 1000 200/13 RMK AO2
14840KMKG MKG20070526223010805/26/07 22:30:31  5-MIN KMKG 270330Z 19012G20KT 9SM BKN020 OVC030 17/16 A3001 550 90 1000 200/12G20 RMK AO2
14840KMKG MKG20070526223510105/26/07 22:35:31  5-MIN KMKG 270335Z 19014G20KT 8SM OVC020 17/16 A3001 550 90 1000 200/14G20 RMK AO2
14840KMKG MKG20070526224009505/26/07 22:40:31  5-MIN KMKG 270340Z 19013KT 8SM OVC020 17/16 A3001 550 90 1000 200/13 RMK AO2
14840KMKG MKG20070526224509505/26/07 22:45:31  5-MIN KMKG 270345Z 20013KT 8SM OVC020 17/16 A3001 540 90 1000 200/13 RMK AO2
14840KMKG MKG20070526225011205/26/07 22:50:31  5-MIN KMKG 270350Z 20012KT 8SM OVC020 17/15 A3001 540 87 1000 210/12 RMK AO2 SLP163 T01720150
14840KMKG MKG20070526225511805/26/07 22:55:31  5-MIN KMKG 270355Z 20012G20KT 9SM OVC022 17/15 A3001 540 87 1000 210/12G20 RMK AO2 SLP163 T01720150
14840KMKG MKG20070526230010205/26/07 23:00:31  5-MIN KMKG 270400Z 20012G20KT 10SM OVC024 17/15 A3002 540 87 1000 210/12G20 RMK AO2
14840KMKG MKG20070526230509605/26/07 23:05:31  5-MIN KMKG 270405Z 20013KT 10SM OVC024 17/14 A3001 540 83 1000 210/13 RMK AO2
14840KMKG MKG20070526231009505/26/07 23:10:31  5-MIN KMKG 270410Z 20012KT 10SM BKN024 17/14 A3001 540 86 900 210/12 RMK AO2
14840KMKG MKG20070526231510105/26/07 23:15:31  5-MIN KMKG 270415Z 20014G20KT 10SM BKN024 17/15 A3001 540 90 900 210/14G20 RMK AO2
14840KMKG MKG20070526232010105/26/07 23:20:31  5-MIN KMKG 270420Z 19013G20KT 10SM BKN026 17/15 A3001 550 90 900 200/13G20 RMK AO2
14840KMKG MKG20070526232510205/26/07 23:25:31  5-MIN KMKG 270425Z 20013KT 10SM BKN026 BKN032 17/15 A3001 550 90 900 200/13 RMK AO2
14840KMKG MKG20070526233010105/26/07 23:30:31  5-MIN KMKG 270430Z 19013G19KT 10SM BKN028 17/15 A3001 550 90 900 200/13G19 RMK AO2
14840KMKG MKG20070526233509505/26/07 23:35:31  5-MIN KMKG 270435Z 20011KT 10SM SCT028 17/15 A3001 550 90 900 200/11 RMK AO2
14840KMKG MKG20070526234011705/26/07 23:40:31  5-MIN KMKG 270440Z 20012KT 10SM SCT028 BKN044 17/15 A3001 550 90 900 210/12 RMK AO2 CIG 028 RWY 14
14840KMKG MKG20070526234512305/26/07 23:45:31  5-MIN KMKG 270445Z 20014G19KT 10SM FEW030 BKN044 17/15 A3001 550 90 900 210/14G19 RMK AO2 CIG 031 RWY 14
14840KMKG MKG20070526235014405/26/07 23:50:31  5-MIN KMKG 270450Z 20014KT 10SM FEW030 BKN044 17/15 A3000 550 90 900 210/14 RMK AO2 CIG 033 RWY 14 SLP160 T01670150 401720078
14840KMKG MKG20070526235513505/26/07 23:55:31  5-MIN KMKG 270455Z 20011G20KT 10SM FEW030 SCT044 17/14 A3000 550 86 900 200/11G20 RMK AO2 SLP159 T01670144 401720078
14840KMKG MKG20070527000010105/27/07 00:00:32  5-MIN KMKG 270500Z 20010G20KT 10SM FEW044 17/15 A3000 560 90 900 200/10G20 RMK AO2
14840KMKG MKG20070527000509505/27/07 00:05:31  5-MIN KMKG 270505Z 20013KT 10SM FEW044 17/14 A3000 560 86 900 200/13 RMK AO2
14840KMKG MKG20070527001010105/27/07 00:10:31  5-MIN KMKG 270510Z 20013G18KT 10SM FEW044 17/14 A3000 560 86 900 200/13G18 RMK AO2
14840KMKG MKG20070527001509205/27/07 00:15:31  5-MIN KMKG 270515Z 20013KT 10SM CLR 17/14 A2999 560 86 900 200/13 RMK AO2
14840KMKG MKG20070527002009205/27/07 00:20:31  5-MIN KMKG 270520Z 20012KT 10SM CLR 17/14 A2999 560 86 900 200/12 RMK AO2
14840KMKG MKG20070527002509805/27/07 00:25:31  5-MIN KMKG 270525Z 19013G20KT 10SM CLR 17/14 A2999 570 86 900 200/13G20 RMK AO2
14840KMKG MKG20070527003009805/27/07 00:30:31  5-MIN KMKG 270530Z 19016G21KT 10SM CLR 17/14 A2999 570 86 900 200/16G21 RMK AO2
14840KMKG MKG20070527003509805/27/07 00:35:31  5-MIN KMKG 270535Z 19015G21KT 10SM CLR 17/15 A2998 570 90 900 200/15G21 RMK AO2
14840KMKG MKG20070527004009805/27/07 00:40:31  5-MIN KMKG 270540Z 20015G21KT 10SM CLR 17/14 A2998 570 86 900 200/15G21 RMK AO2
14840KMKG MKG20070527004509805/27/07 00:45:31  5-MIN KMKG 270545Z 19016G21KT 10SM CLR 17/14 A2998 570 86 900 190/16G21 RMK AO2
14840KMKG MKG20070527005013305/27/07 00:50:31  5-MIN KMKG 270550Z 20015G21KT 10SM CLR 17/14 A2998 580 86 900 200/15G21 RMK AO2 SLP151 T01670144 10172 20167 56012
14840KMKG MKG20070527005513605/27/07 00:55:31  5-MIN KMKG 270555Z 20014G23KT 10SM FEW110 17/14 A2998 570 86 900 200/14G23 RMK AO2 SLP152 T01670144 10172 20167 58009
14840KMKG MKG20070527010010105/27/07 01:00:31  5-MIN KMKG 270600Z 20016G23KT 10SM SCT100 17/14 A2998 580 86 900 200/16G23 RMK AO2
14840KMKG MKG20070527010509505/27/07 01:05:31  5-MIN KMKG 270605Z 20016KT 10SM BKN100 17/15 A2998 580 90 900 200/16 RMK AO2
14840KMKG MKG20070527011009505/27/07 01:10:31  5-MIN KMKG 270610Z 20018KT 10SM BKN100 17/15 A2998 570 90 900 210/18 RMK AO2
14840KMKG MKG20070527011511905/27/07 01:15:31  5-MIN KMKG 270615Z 20017G26KT 10SM BKN100 17/15 A2998 580 90 900 200/17G26 RMK AO2 PK WND 19026/0613
14840KMKG MKG20070527012011905/27/07 01:20:31  5-MIN KMKG 270620Z 19017G26KT 10SM BKN100 17/15 A2998 580 90 900 200/17G26 RMK AO2 PK WND 19026/0613
14840KMKG MKG20070527012512005/27/07 01:25:31  5-MIN KMKG 270625Z 20015G23KT 10SM BKN100 17/15 A2997 580 90 1000 200/15G23 RMK AO2 PK WND 19026/0613
14840KMKG MKG20070527013011905/27/07 01:30:31  5-MIN KMKG 270630Z 20017G23KT 10SM BKN100 16/15 A2998 580 93 900 200/17G23 RMK AO2 PK WND 19026/0613
14840KMKG MKG20070527013512705/27/07 01:35:31  5-MIN KMKG 270635Z 20015G23KT 10SM FEW070 BKN100 17/15 A2997 580 90 1000 200/15G23 RMK AO2 PK WND 19026/0613
14840KMKG MKG20070527014012705/27/07 01:40:31  5-MIN KMKG 270640Z 19018G29KT 10SM FEW070 BKN100 17/15 A2997 580 90 1000 200/18G29 RMK AO2 PK WND 20029/0640
14840KMKG MKG20070527014512605/27/07 01:45:31  5-MIN KMKG 270645Z 20017G29KT 10SM FEW008 SCT100 16/14 A2997 580 90 900 200/17G29 RMK AO2 PK WND 20029/0640
14840KMKG MKG20070527015015005/27/07 01:50:31  5-MIN KMKG 270650Z 20017G27KT 10SM FEW008 SCT070 SCT100 16/14 A2997 580 90 900 200/17G27 RMK AO2 PK WND 20029/0640 SLP148 T01610144
14840KMKG MKG20070527015515005/27/07 01:55:31  5-MIN KMKG 270655Z 20018G27KT 10SM FEW008 SCT070 SCT100 16/14 A2997 580 90 900 200/18G27 RMK AO2 PK WND 20029/0640 SLP148 T01610144
14840KMKG MKG20070527020013005/27/07 02:00:31  5-MIN KMKG 270700Z 20019G27KT 10SM SCT008 SCT043 BKN070 16/14 A2997 590 93 800 200/19G27 RMK AO2 CIG 043 RWY 14
14840KMKG MKG20070527020513005/27/07 02:05:31  5-MIN KMKG 270705Z 20016G25KT 10SM SCT008 SCT043 BKN060 16/14 A2997 590 93 800 210/16G25 RMK AO2 CIG 043 RWY 14
14840KMKG MKG20070527021011505/27/07 02:10:31  5-MIN KMKG 270710Z 20017G24KT 10SM FEW008 SCT043 BKN060 16/14 A2997 580 93 800 210/17G24 RMK AO2
14840KMKG MKG20070527021510805/27/07 02:15:31  5-MIN KMKG 270715Z 20017G24KT 10SM FEW008 BKN060 16/14 A2997 590 93 800 210/17G24 RMK AO2
14840KMKG MKG20070527022013305/27/07 02:20:31  5-MIN KMKG 270720Z 21018G27KT 10SM FEW008 SCT019 OVC060 16/14 A2997 590 93 800 220/18G27 RMK AO2 PK WND 21027/0718
14840KMKG MKG20070527022513305/27/07 02:25:31  5-MIN KMKG 270725Z 20016G27KT 10SM FEW008 SCT019 OVC065 16/14 A2997 590 93 800 210/16G27 RMK AO2 PK WND 21027/0718
14840KMKG MKG20070527023012605/27/07 02:30:31  5-MIN KMKG 270730Z 21016G25KT 10SM FEW008 OVC065 16/14 A2997 590 93 800 210/16G25 RMK AO2 PK WND 21027/0718
14840KMKG MKG20070527023512605/27/07 02:35:31  5-MIN KMKG 270735Z 21017G25KT 10SM FEW026 OVC065 16/14 A2997 580 93 800 210/17G25 RMK AO2 PK WND 21027/0718
14840KMKG MKG20070527024013205/27/07 02:40:31  5-MIN KMKG 270740Z 21017G24KT 9SM FEW006 BKN026 OVC070 16/14 A2997 590 93 800 210/17G24 RMK AO2 PK WND 21027/0718
14840KMKG MKG20070527024513205/27/07 02:45:31  5-MIN KMKG 270745Z 21017G24KT 9SM FEW006 BKN026 OVC070 16/14 A2997 590 93 800 210/17G24 RMK AO2 PK WND 21027/0718
14840KMKG MKG20070527025014905/27/07 02:50:31  5-MIN KMKG 270750Z 21014G23KT 9SM FEW006 BKN020 OVC070 16/14 A2996 590 93 800 210/14G23 RMK AO2 PK WND 21027/0718 SLP146 T01560144
14840KMKG MKG20070527025514905/27/07 02:55:31  5-MIN KMKG 270755Z 21014G21KT 9SM FEW006 BKN020 OVC070 16/14 A2996 590 93 800 210/14G21 RMK AO2 PK WND 21027/0718 SLP147 T01560144
14840KMKG MKG20070527030011405/27/07 03:00:31  5-MIN KMKG 270800Z 21016G21KT 8SM FEW006 BKN020 OVC026 16/14 A2996 590 90 800 210/16G21 RMK AO2
14840KMKG MKG20070527030510705/27/07 03:05:31  5-MIN KMKG 270805Z 21014G23KT 8SM FEW006 OVC018 16/14 A2996 590 90 800 210/14G23 RMK AO2
14840KMKG MKG20070527031010705/27/07 03:10:31  5-MIN KMKG 270810Z 21016G23KT 8SM FEW006 OVC018 16/14 A2996 590 90 800 220/16G23 RMK AO2
14840KMKG MKG20070527031510705/27/07 03:15:31  5-MIN KMKG 270815Z 21013G22KT 8SM FEW006 OVC018 15/14 A2996 590 93 800 210/13G22 RMK AO2
14840KMKG MKG20070527032010705/27/07 03:20:31  5-MIN KMKG 270820Z 21014G22KT 8SM SCT006 OVC018 15/14 A2996 590 93 800 210/14G22 RMK AO2
14840KMKG MKG20070527032510105/27/07 03:25:31  5-MIN KMKG 270825Z 21014KT 7SM SCT006 OVC018 14/13 A2996 590 93 700 220/14 RMK AO2
14840KMKG MKG20070527033010705/27/07 03:30:31  5-MIN KMKG 270830Z 21017G22KT 7SM BKN006 OVC016 14/13 A2996 590 93 700 210/17G22 RMK AO2
14840KMKG MKG20070527033510705/27/07 03:35:31  5-MIN KMKG 270835Z 21016G23KT 7SM BKN006 OVC016 14/13 A2996 590 93 700 220/16G23 RMK AO2
14840KMKG MKG20070527034010705/27/07 03:40:31  5-MIN KMKG 270840Z 21015G23KT 7SM BKN006 OVC016 14/13 A2996 590 93 700 220/15G23 RMK AO2
14840KMKG MKG20070527034510705/27/07 03:45:31  5-MIN KMKG 270845Z 21015G21KT 7SM BKN006 OVC016 14/13 A2996 590 93 700 220/15G21 RMK AO2
14840KMKG MKG20070527035010705/27/07 03:50:31  5-MIN KMKG 270850Z 22015G24KT 7SM SCT006 OVC016 15/13 A2996 590 90 800 220/15G24 RMK AO2
14840KMKG MKG20070527035513005/27/07 03:55:31  5-MIN KMKG 270855Z 21017G24KT 7SM SCT006 OVC014 15/14 A2996 590 93 800 220/17G24 RMK AO2 SLP146 T01500139 58002
14840KMKG MKG20070527040010705/27/07 04:00:31  5-MIN KMKG 270900Z 22018G25KT 7SM SCT006 OVC014 15/14 A2996 590 93 800 220/18G25 RMK AO2
14840KMKG MKG20070527040510705/27/07 04:05:31  5-MIN KMKG 270905Z 22018G25KT 7SM SCT006 OVC014 15/14 A2996 590 93 800 230/18G25 RMK AO2
14840KMKG MKG20070527041010705/27/07 04:10:31  5-MIN KMKG 270910Z 22017G25KT 7SM FEW006 OVC014 15/13 A2996 590 90 800 220/17G25 RMK AO2
14840KMKG MKG20070527041512505/27/07 04:15:31  5-MIN KMKG 270915Z 23018G26KT 7SM FEW006 OVC014 15/13 A2996 590 90 800 230/18G26 RMK AO2 PK WND 21026/0912
14840KMKG MKG20070527042013205/27/07 04:20:31  5-MIN KMKG 270920Z 23014G26KT 7SM FEW006 BKN014 OVC070 14/13 A2996 590 93 700 230/14G26 RMK AO2 PK WND 21026/0912
14840KMKG MKG20070527042513505/27/07 04:25:31  5-MIN KMKG 270925Z 23017G21KT 6SM BR FEW006 BKN014 OVC070 14/13 A2996 590 93 700 240/17G21 RMK AO2 PK WND 21026/0912
14840KMKG MKG20070527043013505/27/07 04:30:31  5-MIN KMKG 270930Z 22017G22KT 6SM BR FEW006 BKN014 OVC070 14/13 A2996 590 93 700 230/17G22 RMK AO2 PK WND 21026/0912
14840KMKG MKG20070527043513505/27/07 04:35:31  5-MIN KMKG 270935Z 23017G24KT 6SM BR FEW006 SCT014 OVC070 14/13 A2996 590 93 700 230/17G24 RMK AO2 PK WND 21026/0912
14840KMKG MKG20070527044013505/27/07 04:40:31  5-MIN KMKG 270940Z 23017G26KT 6SM BR SCT006 SCT014 OVC070 15/13 A2996 590 90 800 230/17G26 RMK AO2 PK WND 22026/0938
14840KMKG MKG20070527044512805/27/07 04:45:31  5-MIN KMKG 270945Z 23015G26KT 6SM BR SCT006 OVC070 14/13 A2996 590 93 700 230/15G26 RMK AO2 PK WND 22026/0938
14840KMKG MKG20070527045014505/27/07 04:50:31  5-MIN KMKG 270950Z 23014G22KT 6SM BR SCT006 OVC070 14/13 A2997 590 93 600 230/14G22 RMK AO2 PK WND 22026/0938 SLP147 T01390128
14840KMKG MKG20070527045514505/27/07 04:55:31  5-MIN KMKG 270955Z 22013G22KT 6SM BR SCT006 OVC070 14/13 A2997 590 96 600 230/13G22 RMK AO2 PK WND 22026/0938 SLP147 T01390133
14840KMKG MKG20070527050011005/27/07 05:00:31  5-MIN KMKG 271000Z 23013G20KT 6SM BR BKN006 OVC070 14/13 A2997 590 93 700 240/13G20 RMK AO2
14840KMKG MKG20070527050511005/27/07 05:05:31  5-MIN KMKG 271005Z 23014G21KT 6SM BR BKN006 OVC070 14/13 A2996 590 93 700 230/14G21 RMK AO2
14840KMKG MKG20070527051011005/27/07 05:10:31  5-MIN KMKG 271010Z 23012G21KT 5SM BR BKN006 OVC070 14/13 A2996 590 93 700 230/12G21 RMK AO2
14840KMKG MKG20070527051510405/27/07 05:15:31  5-MIN KMKG 271015Z 23014KT 5SM BR BKN006 OVC070 14/13 A2997 590 93 700 230/14 RMK AO2
14840KMKG MKG20070527052010405/27/07 05:20:31  5-MIN KMKG 271020Z 23014KT 5SM BR BKN004 OVC070 14/13 A2997 590 96 600 230/14 RMK AO2
14840KMKG MKG20070527052511005/27/07 05:25:31  5-MIN KMKG 271025Z 22015G20KT 5SM BR BKN004 OVC070 14/13 A2997 590 96 600 230/15G20 RMK AO2
14840KMKG MKG20070527053012405/27/07 05:30:31  5-MIN KMKG 271030Z 23011KT 4SM BR BKN004 BKN050 OVC070 14/13 A2997 590 93 700 230/11 RMK AO2 VIS 2 RWY 14
14840KMKG MKG20070527053512405/27/07 05:35:31  5-MIN KMKG 271035Z 23014KT 4SM BR BKN004 BKN050 OVC070 14/13 A2997 580 93 700 230/14 RMK AO2 VIS 2 RWY 14
14840KMKG MKG20070527054012405/27/07 05:40:31  5-MIN KMKG 271040Z 23015KT 4SM BR BKN004 BKN050 OVC070 14/13 A2997 580 96 600 230/15 RMK AO2 VIS 2 RWY 14
14840KMKG MKG20070527054512405/27/07 05:45:31  5-MIN KMKG 271045Z 23016KT 4SM BR BKN004 BKN050 OVC070 14/13 A2997 580 96 600 230/16 RMK AO2 VIS 2 RWY 14
14840KMKG MKG20070527055014105/27/07 05:50:31  5-MIN KMKG 271050Z 23013KT 4SM BR BKN004 BKN050 OVC070 14/13 A2998 580 93 700 230/13 RMK AO2 VIS 2 RWY 14 SLP150 T01440133
14840KMKG MKG20070527055513405/27/07 05:55:31  5-MIN KMKG 271055Z 23011KT 4SM BR BKN004 OVC070 14/13 A2998 580 93 700 240/11 RMK AO2 VIS 2 RWY 14 SLP151 T01440133
14840KMKG MKG20070527060011705/27/07 06:00:31  5-MIN KMKG 271100Z 23014KT 4SM BR BKN004 OVC070 14/13 A2998 580 93 700 230/14 RMK AO2 VIS 2 RWY 14
14840KMKG MKG20070527060512305/27/07 06:05:31  5-MIN KMKG 271105Z 23014G19KT 4SM BR BKN004 OVC070 14/13 A2998 570 93 700 230/14G19 RMK AO2 VIS 2 RWY 14
14840KMKG MKG20070527061013905/27/07 06:10:31  5-MIN KMKG 271110Z 23013G19KT 4SM -RA BR BKN004 OVC065 14/13 A2998 580 96 600 240/13G19 RMK AO2 VIS 2 RWY 14 RAB06 P0000
14840KMKG MKG20070527061513305/27/07 06:15:31  5-MIN KMKG 271115Z 23011KT 4SM -RA BR BKN004 OVC070 14/13 A2998 570 96 600 240/11 RMK AO2 VIS 2 RWY 14 RAB06 P0000
14840KMKG MKG20070527062013705/27/07 06:20:31  5-MIN KMKG 271120Z 24013KT 3SM -RA BR BKN004 OVC065 14/13 A2999 570 96 600 240/13 RMK AO2 VIS 1 3/4 RWY 14 RAB06 P0000
14840KMKG MKG20070527062514005/27/07 06:25:31  5-MIN KMKG 271125Z 24013G17KT 2 1/2SM -RA BR OVC004 14/13 A2999 570 96 600 240/13G17 RMK AO2 VIS 1 1/2 RWY 14 RAB06 P0000
14840KMKG MKG20070527063013705/27/07 06:30:31  5-MIN KMKG 271130Z 24011KT 3SM -RA BR BKN004 OVC060 14/13 A2999 570 96 600 250/11 RMK AO2 VIS 1 1/2 RWY 14 RAB06 P0000
14840KMKG MKG20070527063513005/27/07 06:35:31  5-MIN KMKG 271135Z 24011KT 3SM -RA BR OVC004 14/13 A2999 570 96 600 250/11 RMK AO2 VIS 1 3/4 RWY 14 RAB06 P0001
14840KMKG MKG20070527064012905/27/07 06:40:31  5-MIN KMKG 271140Z 24010KT 3SM BR OVC004 14/13 A2999 570 96 600 240/10 RMK AO2 VIS 1 3/4 RWY 14 RAB06E39 P0001
14840KMKG MKG20070527064512905/27/07 06:45:31  5-MIN KMKG 271145Z 24010KT 3SM BR OVC004 14/13 A2999 570 96 600 240/10 RMK AO2 VIS 1 3/4 RWY 14 RAB06E39 P0001
14840KMKG MKG20070527065017705/27/07 06:50:31  5-MIN KMKG 271150Z 24009KT 3SM -RA BR OVC004 14/13 A2999 570 96 600 250/09 RMK AO2 VIS 1 3/4 RWY 14 RAB06 SLP155 P0001 60001 70024 T01390133 10167 20139 58002
14840KMKG MKG20070527065517605/27/07 06:55:31  5-MIN KMKG 271155Z 25010KT 3SM BR OVC004 14/13 A2999 560 96 600 250/10 RMK AO2 VIS 1 3/4 RWY 14 RAB06E53 SLP156 P0001 60001 70024 T01390133 10167 20139 53009
14840KMKG MKG20070527070011405/27/07 07:00:31  5-MIN KMKG 271200Z 25010KT 3SM BR OVC002 14/13 A2999 560 96 600 250/10 RMK AO2 VIS 1 1/2 RWY 14
14840KMKG MKG20070527070511405/27/07 07:05:31  5-MIN KMKG 271205Z 25010KT 3SM BR OVC002 14/13 A3000 560 96 600 250/10 RMK AO2 VIS 1 1/2 RWY 14
14840KMKG MKG20070527071012005/27/07 07:10:31  5-MIN KMKG 271210Z 25010G18KT 3SM BR OVC002 14/13 A3000 560 96 600 260/10G18 RMK AO2 VIS 1 1/2 RWY 14
14840KMKG MKG20070527071512005/27/07 07:15:31  5-MIN KMKG 271215Z 25008G18KT 3SM BR OVC002 14/13 A3000 560 93 600 260/08G18 RMK AO2 VIS 1 3/4 RWY 14
14840KMKG MKG20070527072011405/27/07 07:20:31  5-MIN KMKG 271220Z 25010KT 3SM BR OVC002 13/13 A3000 550 96 500 250/10 RMK AO2 VIS 1 3/4 RWY 14
14840KMKG MKG20070527072511405/27/07 07:25:31  5-MIN KMKG 271225Z 25009KT 3SM BR OVC002 13/13 A3001 550 96 500 250/09 RMK AO2 VIS 1 3/4 RWY 14
14840KMKG MKG20070527073011405/27/07 07:30:31  5-MIN KMKG 271230Z 25009KT 3SM BR OVC002 13/13 A3001 550 96 500 260/09 RMK AO2 VIS 1 3/4 RWY 14
14840KMKG MKG20070527073511405/27/07 07:35:31  5-MIN KMKG 271235Z 26010KT 3SM BR OVC002 13/12 A3001 550 96 400 260/10 RMK AO2 VIS 1 3/4 RWY 14
14840KMKG MKG20070527074012105/27/07 07:40:31  5-MIN KMKG 271240Z 26010KT 4SM BR BKN002 OVC065 13/12 A3002 540 96 400 270/10 RMK AO2 VIS 1 3/4 RWY 14
14840KMKG MKG20070527074512805/27/07 07:45:31  5-MIN KMKG 271245Z 27009KT 5SM BR SCT002 BKN021 BKN065 13/12 A3002 540 96 400 280/09 RMK AO2 VIS 2 1/2 RWY 14
14840KMKG MKG20070527075012805/27/07 07:50:31  5-MIN KMKG 271250Z 28010KT 6SM BR SCT002 BKN023 BKN065 13/12 A3002 540 93 400 280/10 RMK AO2 SLP164 T01280117
14840KMKG MKG20070527075512505/27/07 07:55:31  5-MIN KMKG 271255Z 27009KT 9SM SCT002 BKN023 BKN065 13/12 A3002 540 93 400 270/09 RMK AO2 SLP165 T01280117
14840KMKG MKG20070527080010905/27/07 08:00:31  5-MIN KMKG 271300Z 27009KT 10SM FEW002 BKN023 BKN065 13/12 A3002 540 93 400 280/09 RMK AO2
14840KMKG MKG20070527080510905/27/07 08:05:31  5-MIN KMKG 271305Z 27009KT 10SM FEW004 BKN023 BKN065 13/11 A3002 540 89 400 280/09 RMK AO2
14840KMKG MKG20070527081009505/27/07 08:10:31  5-MIN KMKG 271310Z 28011KT 10SM BKN065 13/11 A3002 540 83 500 280/11 RMK AO2
14840KMKG MKG20070527081510105/27/07 08:15:31  5-MIN KMKG 271315Z 29011G18KT 10SM BKN065 14/09 A3002 540 74 600 300/11G18 RMK AO2
14840KMKG MKG20070527082010105/27/07 08:20:31  5-MIN KMKG 271320Z 29010G18KT 10SM BKN065 14/09 A3002 540 71 600 300/10G18 RMK AO2
14840KMKG MKG20070527082510105/27/07 08:25:31  5-MIN KMKG 271325Z 29010G18KT 10SM BKN065 14/08 A3002 540 69 600 290/10G18 RMK AO2
14840KMKG MKG20070527083010105/27/07 08:30:31  5-MIN KMKG 271330Z 30012G18KT 10SM BKN065 14/08 A3002 530 66 600 300/12G18 RMK AO2
14840KMKG MKG20070527083510105/27/07 08:35:31  5-MIN KMKG 271335Z 29011G17KT 10SM BKN065 14/08 A3002 530 66 600 290/11G17 RMK AO2
14840KMKG MKG20070527084010105/27/07 08:40:31  5-MIN KMKG 271340Z 28013G17KT 10SM BKN065 14/08 A3003 530 66 600 290/13G17 RMK AO2
14840KMKG MKG20070527084510105/27/07 08:45:31  5-MIN KMKG 271345Z 29013G17KT 10SM FEW065 14/07 A3003 530 64 600 290/13G17 RMK AO2
14840KMKG MKG20070527085011205/27/07 08:50:31  5-MIN KMKG 271350Z 29012KT 10SM FEW065 14/07 A3002 530 61 600 290/12 RMK AO2 SLP167 T01440072
14840KMKG MKG20070527085511205/27/07 08:55:31  5-MIN KMKG 271355Z 29011KT 10SM FEW065 14/07 A3003 530 61 600 300/11 RMK AO2 SLP167 T01440072
14840KMKG MKG20070527090009205/27/07 09:00:31  5-MIN KMKG 271400Z 29009KT 10SM CLR 14/07 A3003 530 59 600 300/09 RMK AO2
14840KMKG MKG20070527090509205/27/07 09:05:31  5-MIN KMKG 271405Z 29011KT 10SM CLR 15/07 A3003 530 59 700 290/11 RMK AO2
14840KMKG MKG20070527091009205/27/07 09:10:31  5-MIN KMKG 271410Z 29010KT 10SM CLR 14/07 A3003 530 59 600 290/10 RMK AO2
14840KMKG MKG20070527091509205/27/07 09:15:31  5-MIN KMKG 271415Z 29010KT 10SM CLR 14/07 A3003 530 59 600 290/10 RMK AO2
14840KMKG MKG20070527092009205/27/07 09:20:31  5-MIN KMKG 271420Z 29010KT 10SM CLR 15/07 A3003 530 57 700 290/10 RMK AO2
14840KMKG MKG20070527092509205/27/07 09:25:31  5-MIN KMKG 271425Z 29009KT 10SM CLR 15/07 A3003 530 57 700 290/09 RMK AO2
14840KMKG MKG20070527093009205/27/07 09:30:31  5-MIN KMKG 271430Z 29012KT 10SM CLR 14/07 A3003 530 59 600 300/12 RMK AO2
14840KMKG MKG20070527093509805/27/07 09:35:31  5-MIN KMKG 271435Z 30009G16KT 10SM CLR 15/07 A3003 530 57 700 300/09G16 RMK AO2
14840KMKG MKG20070527094009505/27/07 09:40:31  5-MIN KMKG 271440Z 30009KT 10SM FEW090 15/07 A3003 530 57 700 300/09 RMK AO2
14840KMKG MKG20070527094510805/27/07 09:45:31  5-MIN KMKG 271445Z 30008KT 260V320 10SM CLR 15/07 A3003 520 57 700 300/08 260V320 RMK AO2
14840KMKG MKG20070527095011505/27/07 09:50:31  5-MIN KMKG 271450Z 29014KT 10SM CLR 16/07 A3004 520 57 800 300/14 RMK AO2 SLP171 T01560072 53009
14840KMKG MKG20070527095511505/27/07 09:55:31  5-MIN KMKG 271455Z 30010KT 10SM CLR 15/07 A3004 520 57 700 310/10 RMK AO2 SLP171 T01500067 53006
14840KMKG MKG20070527100009205/27/07 10:00:31  5-MIN KMKG 271500Z 29011KT 10SM CLR 14/07 A3003 520 59 600 300/11 RMK AO2
14840KMKG MKG20070527100509205/27/07 10:05:31  5-MIN KMKG 271505Z 30007KT 10SM CLR 15/07 A3004 520 59 700 310/07 RMK AO2
14840KMKG MKG20070527101009805/27/07 10:10:31  5-MIN KMKG 271510Z 31010G15KT 10SM CLR 14/07 A3004 520 59 600 310/10G15 RMK AO2
14840KMKG MKG20070527101509205/27/07 10:15:31  5-MIN KMKG 271515Z 30010KT 10SM CLR 14/07 A3004 520 59 600 310/10 RMK AO2
14840KMKG MKG20070527102009205/27/07 10:20:31  5-MIN KMKG 271520Z 29009KT 10SM CLR 14/07 A3004 520 59 600 300/09 RMK AO2
14840KMKG MKG20070527102509205/27/07 10:25:31  5-MIN KMKG 271525Z 30010KT 10SM CLR 14/07 A3004 520 59 600 300/10 RMK AO2
14840KMKG MKG20070527103011405/27/07 10:30:31  5-MIN KMKG 271530Z 29007G16KT 260V320 10SM CLR 15/07 A3005 510 57 700 290/07G16 260V320 RMK AO2
14840KMKG MKG20070527103509805/27/07 10:35:31  5-MIN KMKG 271535Z 28009G16KT 10SM CLR 15/07 A3005 510 57 700 290/09G16 RMK AO2
14840KMKG MKG20070527104009205/27/07 10:40:31  5-MIN KMKG 271540Z 29007KT 10SM CLR 15/07 A3005 510 57 700 290/07 RMK AO2
14840KMKG MKG20070527104509205/27/07 10:45:31  5-MIN KMKG 271545Z 29007KT 10SM CLR 15/07 A3005 510 59 700 290/07 RMK AO2
14840KMKG MKG20070527105011505/27/07 10:50:31  5-MIN KMKG 271550Z 26011G14KT 10SM CLR 15/07 A3005 510 59 700 270/11G14 RMK AO2 SLP176 T01500072
14840KMKG MKG20070527105510905/27/07 10:55:31  5-MIN KMKG 271555Z 28011KT 10SM CLR 15/07 A3005 510 59 700 280/11 RMK AO2 SLP176 T01500072
14840KMKG MKG20070527110009205/27/07 11:00:31  5-MIN KMKG 271600Z 28012KT 10SM CLR 15/07 A3005 510 59 700 280/12 RMK AO2
14840KMKG MKG20070527110509205/27/07 11:05:31  5-MIN KMKG 271605Z 28009KT 10SM CLR 16/07 A3005 510 55 700 280/09 RMK AO2
14840KMKG MKG20070527111009205/27/07 11:10:31  5-MIN KMKG 271610Z 27012KT 10SM CLR 15/07 A3005 510 57 700 280/12 RMK AO2
14840KMKG MKG20070527111509205/27/07 11:15:31  5-MIN KMKG 271615Z 28011KT 10SM CLR 15/07 A3006 510 57 700 280/11 RMK AO2
14840KMKG MKG20070527112009205/27/07 11:20:31  5-MIN KMKG 271620Z 29010KT 10SM CLR 15/07 A3005 510 59 700 300/10 RMK AO2
14840KMKG MKG20070527112509205/27/07 11:25:31  5-MIN KMKG 271625Z 28008KT 10SM CLR 16/07 A3006 500 57 700 280/08 RMK AO2
14840KMKG MKG20070527113009205/27/07 11:30:31  5-MIN KMKG 271630Z 26009KT 10SM CLR 16/08 A3006 510 57 800 260/09 RMK AO2
14840KMKG MKG20070527113509205/27/07 11:35:31  5-MIN KMKG 271635Z 26010KT 10SM CLR 15/07 A3006 510 59 700 260/10 RMK AO2
14840KMKG MKG20070527114009205/27/07 11:40:31  5-MIN KMKG 271640Z 26008KT 10SM CLR 16/07 A3006 510 55 800 260/08 RMK AO2
14840KMKG MKG20070527114509805/27/07 11:45:31  5-MIN KMKG 271645Z 28010G16KT 10SM CLR 16/07 A3006 500 55 700 280/10G16 RMK AO2
14840KMKG MKG20070527115011505/27/07 11:50:31  5-MIN KMKG 271650Z 27010G16KT 10SM CLR 16/07 A3006 500 55 700 270/10G16 RMK AO2 SLP178 T01560067
14840KMKG MKG20070527115510905/27/07 11:55:31  5-MIN KMKG 271655Z 28011KT 10SM CLR 16/07 A3006 500 55 700 280/11 RMK AO2 SLP178 T01560067
14840KMKG MKG20070527120009205/27/07 12:00:31  5-MIN KMKG 271700Z 28010KT 10SM CLR 16/07 A3006 500 55 700 280/10 RMK AO2
14840KMKG MKG20070527120509205/27/07 12:05:31  5-MIN KMKG 271705Z 28007KT 10SM CLR 16/07 A3006 500 57 700 280/07 RMK AO2
14840KMKG MKG20070527121009805/27/07 12:10:31  5-MIN KMKG 271710Z 27011G14KT 10SM CLR 16/07 A3006 500 55 700 280/11G14 RMK AO2
14840KMKG MKG20070527121509205/27/07 12:15:31  5-MIN KMKG 271715Z 27011KT 10SM CLR 16/07 A3006 500 55 700 270/11 RMK AO2
14840KMKG MKG20070527122009205/27/07 12:20:31  5-MIN KMKG 271720Z 27008KT 10SM CLR 16/07 A3006 500 53 800 270/08 RMK AO2
14840KMKG MKG20070527122509805/27/07 12:25:31  5-MIN KMKG 271725Z 25011G15KT 10SM CLR 16/07 A3006 500 53 800 250/11G15 RMK AO2
14840KMKG MKG20070527123009805/27/07 12:30:31  5-MIN KMKG 271730Z 26011G15KT 10SM CLR 16/07 A3006 500 55 700 260/11G15 RMK AO2
14840KMKG MKG20070527123509205/27/07 12:35:31  5-MIN KMKG 271735Z 27008KT 10SM CLR 16/07 A3006 500 53 800 270/08 RMK AO2
14840KMKG MKG20070527124009805/27/07 12:40:31  5-MIN KMKG 271740Z 26011G15KT 10SM CLR 16/07 A3006 500 53 800 260/11G15 RMK AO2
14840KMKG MKG20070527124509205/27/07 12:45:31  5-MIN KMKG 271745Z 26008KT 10SM CLR 16/07 A3006 500 55 700 260/08 RMK AO2
14840KMKG MKG20070527125012705/27/07 12:50:31  5-MIN KMKG 271750Z 24009KT 10SM CLR 17/07 A3006 500 51 900 250/09 RMK AO2 SLP179 T01670067 10167 20128 53006
14840KMKG MKG20070527125512705/27/07 12:55:31  5-MIN KMKG 271755Z 24010KT 10SM CLR 16/06 A3006 500 53 700 250/10 RMK AO2 SLP179 T01560061 10167 20128 51008
14840KMKG MKG20070527130009205/27/07 13:00:31  5-MIN KMKG 271800Z 26009KT 10SM CLR 16/07 A3006 500 55 700 260/09 RMK AO2
14840KMKG MKG20070527130509205/27/07 13:05:31  5-MIN KMKG 271805Z 26008KT 10SM CLR 16/07 A3006 500 55 700 260/08 RMK AO2
14840KMKG MKG20070527131009205/27/07 13:10:31  5-MIN KMKG 271810Z 25008KT 10SM CLR 16/07 A3006 500 53 800 250/08 RMK AO2
14840KMKG MKG20070527131509205/27/07 13:15:31  5-MIN KMKG 271815Z 22011KT 10SM CLR 17/07 A3006 510 51 900 230/11 RMK AO2
14840KMKG MKG20070527132009205/27/07 13:20:31  5-MIN KMKG 271820Z 25011KT 10SM CLR 16/07 A3006 510 55 700 250/11 RMK AO2
14840KMKG MKG20070527132509205/27/07 13:25:31  5-MIN KMKG 271825Z 24009KT 10SM CLR 16/07 A3006 510 53 800 250/09 RMK AO2
14840KMKG MKG20070527133009205/27/07 13:30:31  5-MIN KMKG 271830Z 23010KT 10SM CLR 16/07 A3005 510 53 800 230/10 RMK AO2
14840KMKG MKG20070527133509805/27/07 13:35:31  5-MIN KMKG 271835Z 24009G16KT 10SM CLR 16/07 A3005 510 53 800 240/09G16 RMK AO2
14840KMKG MKG20070527134009205/27/07 13:40:31  5-MIN KMKG 271840Z 24009KT 10SM CLR 16/06 A3005 510 51 800 240/09 RMK AO2
14840KMKG MKG20070527134509205/27/07 13:45:31  5-MIN KMKG 271845Z 23010KT 10SM CLR 16/07 A3006 510 53 800 230/10 RMK AO2
14840KMKG MKG20070527135010905/27/07 13:50:31  5-MIN KMKG 271850Z 24010KT 10SM CLR 17/07 A3006 500 51 900 250/10 RMK AO2 SLP178 T01670067
14840KMKG MKG20070527135510905/27/07 13:55:31  5-MIN KMKG 271855Z 23010KT 10SM CLR 17/07 A3005 510 51 900 230/10 RMK AO2 SLP177 T01670067
14840KMKG MKG20070527140009805/27/07 14:00:31  5-MIN KMKG 271900Z 22011G17KT 10SM CLR 17/07 A3005 510 51 900 230/11G17 RMK AO2
14840KMKG MKG20070527140509205/27/07 14:05:31  5-MIN KMKG 271905Z 22011KT 10SM CLR 17/07 A3006 510 51 900 230/11 RMK AO2
14840KMKG MKG20070527141009205/27/07 14:10:31  5-MIN KMKG 271910Z 23010KT 10SM CLR 17/07 A3006 510 51 900 230/10 RMK AO2
14840KMKG MKG20070527141509205/27/07 14:15:31  5-MIN KMKG 271915Z 23010KT 10SM CLR 17/07 A3006 510 51 900 240/10 RMK AO2
14840KMKG MKG20070527142009205/27/07 14:20:31  5-MIN KMKG 271920Z 23011KT 10SM CLR 17/07 A3006 510 51 900 240/11 RMK AO2
14840KMKG MKG20070527142509205/27/07 14:25:31  5-MIN KMKG 271925Z 22011KT 10SM CLR 17/07 A3005 510 51 900 220/11 RMK AO2
14840KMKG MKG20070527143009205/27/07 14:30:31  5-MIN KMKG 271930Z 22011KT 10SM CLR 17/07 A3005 510 49 900 220/11 RMK AO2
14840KMKG MKG20070527143509305/27/07 14:35:31  5-MIN KMKG 271935Z 22011KT 10SM CLR 18/07 A3005 510 49 1000 220/11 RMK AO2
14840KMKG MKG20070527144009205/27/07 14:40:31  5-MIN KMKG 271940Z 22011KT 10SM CLR 17/07 A3006 500 49 900 230/11 RMK AO2
14840KMKG MKG20070527144509305/27/07 14:45:31  5-MIN KMKG 271945Z 21012KT 10SM CLR 18/07 A3006 500 49 1000 220/12 RMK AO2
14840KMKG MKG20070527145010905/27/07 14:50:31  5-MIN KMKG 271950Z 22013KT 10SM CLR 17/07 A3006 510 51 900 230/13 RMK AO2 SLP177 T01720072
14840KMKG MKG20070527145511005/27/07 14:55:31  5-MIN KMKG 271955Z 23013KT 10SM CLR 18/07 A3006 510 49 1000 230/13 RMK AO2 SLP177 T01780072
14840KMKG MKG20070527150009205/27/07 15:00:31  5-MIN KMKG 272000Z 23013KT 10SM CLR 17/07 A3005 510 51 900 230/13 RMK AO2
14840KMKG MKG20070527150509205/27/07 15:05:31  5-MIN KMKG 272005Z 22014KT 10SM CLR 17/07 A3005 510 51 900 230/14 RMK AO2
14840KMKG MKG20070527151009305/27/07 15:10:31  5-MIN KMKG 272010Z 23012KT 10SM CLR 18/08 A3005 510 51 1000 230/12 RMK AO2
14840KMKG MKG20070527151509205/27/07 15:15:31  5-MIN KMKG 272015Z 21012KT 10SM CLR 17/08 A3005 510 53 900 220/12 RMK AO2
14840KMKG MKG20070527152009305/27/07 15:20:31  5-MIN KMKG 272020Z 22013KT 10SM CLR 18/08 A3005 510 51 1000 220/13 RMK AO2
14840KMKG MKG20070527152509305/27/07 15:25:31  5-MIN KMKG 272025Z 21013KT 10SM CLR 18/08 A3005 510 51 1000 220/13 RMK AO2
14840KMKG MKG20070527153009305/27/07 15:30:31  5-MIN KMKG 272030Z 21012KT 10SM CLR 18/07 A3005 510 49 1000 210/12 RMK AO2
14840KMKG MKG20070527153509305/27/07 15:35:31  5-MIN KMKG 272035Z 22013KT 10SM CLR 18/08 A3005 510 51 1000 230/13 RMK AO2
14840KMKG MKG20070527154009305/27/07 15:40:31  5-MIN KMKG 272040Z 21013KT 10SM CLR 18/07 A3005 510 49 1000 220/13 RMK AO2
14840KMKG MKG20070527154509305/27/07 15:45:31  5-MIN KMKG 272045Z 22012KT 10SM CLR 18/07 A3005 510 49 1000 230/12 RMK AO2
14840KMKG MKG20070527155011605/27/07 15:50:31  5-MIN KMKG 272050Z 21011KT 10SM CLR 18/07 A3005 510 49 1000 220/11 RMK AO2 SLP174 T01780072 51008
14840KMKG MKG20070527155511605/27/07 15:55:31  5-MIN KMKG 272055Z 22012KT 10SM CLR 18/07 A3004 520 48 1100 220/12 RMK AO2 SLP174 T01830072 58005
14840KMKG MKG20070527160009305/27/07 16:00:31  5-MIN KMKG 272100Z 22012KT 10SM CLR 18/07 A3004 520 48 1100 220/12 RMK AO2
14840KMKG MKG20070527160509305/27/07 16:05:31  5-MIN KMKG 272105Z 23012KT 10SM CLR 18/07 A3004 520 48 1100 230/12 RMK AO2
14840KMKG MKG20070527161009905/27/07 16:10:31  5-MIN KMKG 272110Z 23010G17KT 10SM CLR 18/07 A3004 520 48 1100 230/10G17 RMK AO2
14840KMKG MKG20070527161509905/27/07 16:15:31  5-MIN KMKG 272115Z 24010G17KT 10SM CLR 18/07 A3004 520 48 1100 240/10G17 RMK AO2
14840KMKG MKG20070527162009905/27/07 16:20:31  5-MIN KMKG 272120Z 22010G17KT 10SM CLR 18/07 A3004 520 48 1100 220/10G17 RMK AO2
14840KMKG MKG20070527162509305/27/07 16:25:31  5-MIN KMKG 272125Z 21011KT 10SM CLR 18/07 A3004 520 46 1100 220/11 RMK AO2
14840KMKG MKG20070527163009305/27/07 16:30:31  5-MIN KMKG 272130Z 23009KT 10SM CLR 18/07 A3004 520 46 1100 240/09 RMK AO2
14840KMKG MKG20070527163509305/27/07 16:35:31  5-MIN KMKG 272135Z 23007KT 10SM CLR 18/08 A3004 520 50 1100 230/07 RMK AO2
14840KMKG MKG20070527164009305/27/07 16:40:31  5-MIN KMKG 272140Z 22009KT 10SM CLR 18/07 A3004 520 49 1000 220/09 RMK AO2
14840KMKG MKG20070528024509305/28/07 02:45:31  5-MIN KMKG 280745Z 00000KT 10SM CLR 07/06 A3013 440 93 -400 000/00 RMK AO2
14840KMKG MKG20070528025011005/28/07 02:50:31  5-MIN KMKG 280750Z 00000KT 10SM CLR 07/05 A3013 440 89 -400 000/00 RMK AO2 SLP205 T00670050
14840KMKG MKG20070528025511005/28/07 02:55:31  5-MIN KMKG 280755Z 00000KT 10SM CLR 07/05 A3013 440 89 -400 000/00 RMK AO2 SLP205 T00670050
14840KMKG MKG20070528030009305/28/07 03:00:31  5-MIN KMKG 280800Z 00000KT 10SM CLR 07/05 A3013 440 89 -400 000/00 RMK AO2
14840KMKG MKG20070528030509305/28/07 03:05:31  5-MIN KMKG 280805Z 00000KT 10SM CLR 07/05 A3013 430 89 -400 000/00 RMK AO2
14840KMKG MKG20070528031009305/28/07 03:10:31  5-MIN KMKG 280810Z 00000KT 10SM CLR 07/05 A3014 430 89 -400 000/00 RMK AO2
14840KMKG MKG20070528031509305/28/07 03:15:31  5-MIN KMKG 280815Z 00000KT 10SM CLR 07/05 A3014 430 89 -400 000/00 RMK AO2
14840KMKG MKG20070528032009305/28/07 03:20:31  5-MIN KMKG 280820Z 00000KT 10SM CLR 06/05 A3014 430 93 -500 000/00 RMK AO2
14840KMKG MKG20070528032509305/28/07 03:25:31  5-MIN KMKG 280825Z 00000KT 10SM CLR 07/04 A3014 430 86 -400 000/00 RMK AO2
14840KMKG MKG20070528033009305/28/07 03:30:31  5-MIN KMKG 280830Z 00000KT 10SM CLR 06/04 A3014 430 89 -400 000/00 RMK AO2
14840KMKG MKG20070528033509305/28/07 03:35:31  5-MIN KMKG 280835Z 00000KT 10SM CLR 06/04 A3014 430 89 -500 000/00 RMK AO2
14840KMKG MKG20070528034009305/28/07 03:40:31  5-MIN KMKG 280840Z 00000KT 10SM CLR 07/04 A3014 430 86 -400 000/00 RMK AO2
14840KMKG MKG20070528034509305/28/07 03:45:31  5-MIN KMKG 280845Z 00000KT 10SM CLR 07/05 A3014 430 89 -400 000/00 RMK AO2
14840KMKG MKG20070528035011605/28/07 03:50:31  5-MIN KMKG 280850Z 00000KT 10SM CLR 07/05 A3014 430 89 -400 000/00 RMK AO2 SLP208 T00670050 53008
14840KMKG MKG20070528035511605/28/07 03:55:31  5-MIN KMKG 280855Z 00000KT 10SM CLR 07/06 A3014 430 89 -300 000/00 RMK AO2 SLP209 T00720056 51009
14840KMKG MKG20070528040009305/28/07 04:00:31  5-MIN KMKG 280900Z 00000KT 10SM CLR 07/05 A3014 430 86 -300 000/00 RMK AO2
14840KMKG MKG20070528040509305/28/07 04:05:31  5-MIN KMKG 280905Z 00000KT 10SM CLR 07/05 A3014 420 86 -300 000/00 RMK AO2
14840KMKG MKG20070528041009305/28/07 04:10:31  5-MIN KMKG 280910Z 00000KT 10SM CLR 07/05 A3015 420 89 -400 000/00 RMK AO2
14840KMKG MKG20070528041509305/28/07 04:15:31  5-MIN KMKG 280915Z 00000KT 10SM CLR 07/05 A3015 420 89 -400 000/00 RMK AO2
14840KMKG MKG20070528042009305/28/07 04:20:31  5-MIN KMKG 280920Z 00000KT 10SM CLR 07/05 A3014 420 89 -400 000/00 RMK AO2
14840KMKG MKG20070528042509305/28/07 04:25:31  5-MIN KMKG 280925Z 00000KT 10SM CLR 07/05 A3015 420 86 -300 000/00 RMK AO2
14840KMKG MKG20070528043009305/28/07 04:30:31  5-MIN KMKG 280930Z 00000KT 10SM CLR 07/05 A3015 420 86 -300 000/00 RMK AO2
14840KMKG MKG20070528043509305/28/07 04:35:31  5-MIN KMKG 280935Z 00000KT 10SM CLR 07/05 A3015 420 86 -300 000/00 RMK AO2
14840KMKG MKG20070528044009305/28/07 04:40:31  5-MIN KMKG 280940Z 00000KT 10SM CLR 07/05 A3015 420 86 -300 000/00 RMK AO2
14840KMKG MKG20070528044509305/28/07 04:45:31  5-MIN KMKG 280945Z 00000KT 10SM CLR 07/05 A3015 420 89 -400 000/00 RMK AO2
14840KMKG MKG20070528045011005/28/07 04:50:31  5-MIN KMKG 280950Z 00000KT 10SM CLR 07/05 A3016 410 86 -300 000/00 RMK AO2 SLP213 T00720050
14840KMKG MKG20070528045511005/28/07 04:55:31  5-MIN KMKG 280955Z 00000KT 10SM CLR 07/05 A3016 410 89 -400 000/00 RMK AO2 SLP214 T00670050
14840KMKG MKG20070528050009305/28/07 05:00:31  5-MIN KMKG 281000Z 00000KT 10SM CLR 07/06 A3016 410 89 -300 000/00 RMK AO2
14840KMKG MKG20070528050509605/28/07 05:05:31  5-MIN KMKG 281005Z 00000KT 10SM SCT100 06/05 A3016 410 93 -500 000/00 RMK AO2
14840KMKG MKG20070528051009605/28/07 05:10:31  5-MIN KMKG 281010Z 00000KT 10SM BKN100 06/04 A3016 410 89 -500 000/00 RMK AO2
14840KMKG MKG20070528051509505/28/07 05:15:31  5-MIN KMKG 281015Z 00000KT 9SM BKN100 06/04 A3016 410 89 -500 000/00 RMK AO2
14840KMKG MKG20070528052009505/28/07 05:20:31  5-MIN KMKG 281020Z 00000KT 9SM BKN100 07/05 A3016 410 89 -400 000/00 RMK AO2
14840KMKG MKG20070528052509605/28/07 05:25:31  5-MIN KMKG 281025Z 00000KT 10SM OVC100 07/06 A3016 410 89 -300 000/00 RMK AO2
14840KMKG MKG20070528053009605/28/07 05:30:31  5-MIN KMKG 281030Z 00000KT 10SM OVC100 07/06 A3016 400 93 -300 000/00 RMK AO2
14840KMKG MKG20070528053509605/28/07 05:35:31  5-MIN KMKG 281035Z 00000KT 10SM OVC100 08/06 A3017 400 89 -300 000/00 RMK AO2
14840KMKG MKG20070528054009605/28/07 05:40:31  5-MIN KMKG 281040Z 00000KT 10SM OVC110 08/06 A3017 400 89 -300 000/00 RMK AO2
14840KMKG MKG20070528054509605/28/07 05:45:31  5-MIN KMKG 281045Z 00000KT 10SM OVC110 08/06 A3017 400 86 -200 000/00 RMK AO2
14840KMKG MKG20070528055011305/28/07 05:50:31  5-MIN KMKG 281050Z 00000KT 10SM OVC110 08/06 A3017 400 86 -200 000/00 RMK AO2 SLP218 T00830061
14840KMKG MKG20070528055511305/28/07 05:55:31  5-MIN KMKG 281055Z 00000KT 10SM OVC110 08/07 A3018 400 89 -200 000/00 RMK AO2 SLP220 T00830067
14840KMKG MKG20070528060009605/28/07 06:00:31  5-MIN KMKG 281100Z 00000KT 10SM OVC110 09/07 A3018 390 86 -200 000/00 RMK AO2
14840KMKG MKG20070528060509605/28/07 06:05:31  5-MIN KMKG 281105Z 00000KT 10SM OVC110 09/07 A3018 390 86 -200 000/00 RMK AO2
14840KMKG MKG20070528061009605/28/07 06:10:31  5-MIN KMKG 281110Z 00000KT 10SM OVC110 09/07 A3018 390 89 -200 000/00 RMK AO2
14840KMKG MKG20070528061509605/28/07 06:15:31  5-MIN KMKG 281115Z 00000KT 10SM OVC110 09/07 A3019 390 89 -200 000/00 RMK AO2
14840KMKG MKG20070528062009605/28/07 06:20:31  5-MIN KMKG 281120Z 00000KT 10SM OVC120 09/07 A3018 390 89 -200 000/00 RMK AO2
14840KMKG MKG20070528062509605/28/07 06:25:31  5-MIN KMKG 281125Z 00000KT 10SM OVC120 09/08 A3019 380 93 -200 000/00 RMK AO2
14840KMKG MKG20070528063009605/28/07 06:30:31  5-MIN KMKG 281130Z 00000KT 10SM OVC120 09/08 A3019 380 89 -100 000/00 RMK AO2
14840KMKG MKG20070528063509305/28/07 06:35:31  5-MIN KMKG 281135Z 00000KT 10SM BKN120 10/08 A3019 380 89 0 000/00 RMK AO2
14840KMKG MKG20070528064009305/28/07 06:40:31  5-MIN KMKG 281140Z 00000KT 10SM BKN120 10/08 A3019 380 89 0 000/00 RMK AO2
14840KMKG MKG20070528064509305/28/07 06:45:31  5-MIN KMKG 281145Z 00000KT 10SM BKN120 10/08 A3019 380 89 0 000/00 RMK AO2
14840KMKG MKG20070528065012805/28/07 06:50:31  5-MIN KMKG 281150Z 00000KT 10SM BKN120 10/08 A3020 380 89 0 000/00 RMK AO2 SLP227 T01000083 10100 20061 51009
14840KMKG MKG20070528065512805/28/07 06:55:31  5-MIN KMKG 281155Z 00000KT 10SM SCT120 11/09 A3020 370 86 0 000/00 RMK AO2 SLP227 T01110089 10111 20061 53019
14840KMKG MKG20070528070009305/28/07 07:00:31  5-MIN KMKG 281200Z 00000KT 10SM SCT120 11/09 A3020 370 86 0 000/00 RMK AO2
14840KMKG MKG20070528070509505/28/07 07:05:31  5-MIN KMKG 281205Z 00000KT 10SM SCT110 12/09 A3020 370 83 100 000/00 RMK AO2
14840KMKG MKG20070528071009505/28/07 07:10:31  5-MIN KMKG 281210Z 00000KT 10SM SCT110 12/09 A3020 370 83 100 000/00 RMK AO2
14840KMKG MKG20070528071509505/28/07 07:15:31  5-MIN KMKG 281215Z 00000KT 10SM BKN110 12/09 A3020 370 80 200 000/00 RMK AO2
14840KMKG MKG20070528072009505/28/07 07:20:31  5-MIN KMKG 281220Z 00000KT 10SM BKN110 13/09 A3021 370 77 200 000/00 RMK AO2
14840KMKG MKG20070528072509505/28/07 07:25:31  5-MIN KMKG 281225Z 00000KT 10SM BKN110 13/09 A3021 370 77 200 000/00 RMK AO2
14840KMKG MKG20070528073009505/28/07 07:30:31  5-MIN KMKG 281230Z 00000KT 10SM BKN110 13/09 A3021 370 77 200 000/00 RMK AO2
14840KMKG MKG20070528073509505/28/07 07:35:31  5-MIN KMKG 281235Z 00000KT 10SM BKN110 13/09 A3021 360 74 300 000/00 RMK AO2
14840KMKG MKG20070528074009505/28/07 07:40:31  5-MIN KMKG 281240Z 00000KT 10SM BKN110 13/09 A3021 360 77 300 000/00 RMK AO2
14840KMKG MKG20070528074509505/28/07 07:45:31  5-MIN KMKG 281245Z 00000KT 10SM SCT120 14/09 A3021 360 74 400 000/00 RMK AO2
14840KMKG MKG20070528075011205/28/07 07:50:31  5-MIN KMKG 281250Z 00000KT 10SM FEW120 14/09 A3021 360 74 400 000/00 RMK AO2 SLP232 T01390094
14840KMKG MKG20070528075511205/28/07 07:55:31  5-MIN KMKG 281255Z 00000KT 10SM FEW120 14/09 A3022 360 72 400 000/00 RMK AO2 SLP233 T01440094
14840KMKG MKG20070528080009505/28/07 08:00:31  5-MIN KMKG 281300Z 00000KT 10SM FEW120 14/09 A3022 360 72 400 000/00 RMK AO2
14840KMKG MKG20070528080509205/28/07 08:05:31  5-MIN KMKG 281305Z 00000KT 10SM CLR 15/09 A3022 350 69 500 000/00 RMK AO2
14840KMKG MKG20070528081009205/28/07 08:10:31  5-MIN KMKG 281310Z 00000KT 10SM CLR 15/09 A3022 350 69 500 000/00 RMK AO2
14840KMKG MKG20070528081509205/28/07 08:15:31  5-MIN KMKG 281315Z 00000KT 10SM CLR 16/09 A3022 350 64 500 000/00 RMK AO2
14840KMKG MKG20070528082009205/28/07 08:20:31  5-MIN KMKG 281320Z 00000KT 10SM CLR 16/09 A3022 350 62 600 000/00 RMK AO2
14840KMKG MKG20070528082509205/28/07 08:25:31  5-MIN KMKG 281325Z 00000KT 10SM CLR 16/09 A3022 350 62 600 000/00 RMK AO2
14840KMKG MKG20070528083009205/28/07 08:30:31  5-MIN KMKG 281330Z 00000KT 10SM CLR 17/09 A3022 350 60 700 000/00 RMK AO2
14840KMKG MKG20070528083509205/28/07 08:35:31  5-MIN KMKG 281335Z 00000KT 10SM CLR 17/09 A3022 350 62 700 000/00 RMK AO2
14840KMKG MKG20070528084009205/28/07 08:40:31  5-MIN KMKG 281340Z 00000KT 10SM CLR 17/09 A3022 350 60 700 000/00 RMK AO2
14840KMKG MKG20070528084509205/28/07 08:45:31  5-MIN KMKG 281345Z 00000KT 10SM CLR 17/09 A3023 350 60 700 000/00 RMK AO2
14840KMKG MKG20070528085010905/28/07 08:50:31  5-MIN KMKG 281350Z 00000KT 10SM CLR 17/09 A3023 350 60 700 000/00 RMK AO2 SLP237 T01720094
14840KMKG MKG20070528085510905/28/07 08:55:31  5-MIN KMKG 281355Z 00000KT 10SM CLR 17/09 A3023 350 57 700 000/00 RMK AO2 SLP237 T01720089
14840KMKG MKG20070528090009205/28/07 09:00:31  5-MIN KMKG 281400Z 00000KT 10SM CLR 18/08 A3023 350 53 800 000/00 RMK AO2
14840KMKG MKG20070528090509205/28/07 09:05:31  5-MIN KMKG 281405Z 00000KT 10SM CLR 18/08 A3023 350 52 900 000/00 RMK AO2
14840KMKG MKG20070528091009205/28/07 09:10:31  5-MIN KMKG 281410Z 00000KT 10SM CLR 18/08 A3023 340 50 900 000/00 RMK AO2
14840KMKG MKG20070528091509205/28/07 09:15:31  5-MIN KMKG 281415Z 00000KT 10SM CLR 19/09 A3023 340 52 900 000/00 RMK AO2
14840KMKG MKG20070528092009205/28/07 09:20:31  5-MIN KMKG 281420Z 00000KT 10SM CLR 19/08 A3023 340 48 900 000/00 RMK AO2
14840KMKG MKG20070528092509205/28/07 09:25:31  5-MIN KMKG 281425Z 00000KT 10SM CLR 19/07 A3023 340 46 900 000/00 RMK AO2
14840KMKG MKG20070528093009305/28/07 09:30:31  5-MIN KMKG 281430Z 00000KT 10SM CLR 19/07 A3023 340 44 1000 000/00 RMK AO2
14840KMKG MKG20070528093509305/28/07 09:35:31  5-MIN KMKG 281435Z 00000KT 10SM CLR 19/08 A3023 340 46 1000 000/00 RMK AO2
14840KMKG MKG20070528094009305/28/07 09:40:31  5-MIN KMKG 281440Z 00000KT 10SM CLR 20/08 A3023 340 45 1000 000/00 RMK AO2
14840KMKG MKG20070528094509305/28/07 09:45:31  5-MIN KMKG 281445Z 00000KT 10SM CLR 20/06 A3023 340 40 1000 000/00 RMK AO2
14840KMKG MKG20070528095011605/28/07 09:50:31  5-MIN KMKG 281450Z 00000KT 10SM CLR 20/06 A3023 340 38 1000 000/00 RMK AO2 SLP237 T02000056 53019
14840KMKG MKG20070528095511605/28/07 09:55:31  5-MIN KMKG 281455Z 00000KT 10SM CLR 20/06 A3023 340 38 1000 000/00 RMK AO2 SLP237 T02000056 51011
14840KMKG MKG20070528100009305/28/07 10:00:31  5-MIN KMKG 281500Z 00000KT 10SM CLR 20/06 A3023 340 38 1000 000/00 RMK AO2
14840KMKG MKG20070528100509305/28/07 10:05:31  5-MIN KMKG 281505Z 00000KT 10SM CLR 20/06 A3023 340 38 1000 000/00 RMK AO2
14840KMKG MKG20070528101009305/28/07 10:10:31  5-MIN KMKG 281510Z VRB04KT 10SM CLR 21/06 A3023 340 37 1100 VRB/04 RMK AO2
14840KMKG MKG20070528101509305/28/07 10:15:31  5-MIN KMKG 281515Z 00000KT 10SM CLR 20/06 A3023 340 38 1000 000/00 RMK AO2
14840KMKG MKG20070528102009305/28/07 10:20:31  5-MIN KMKG 281520Z 00000KT 10SM CLR 21/07 A3023 340 40 1100 000/00 RMK AO2
14840KMKG MKG20070528102509305/28/07 10:25:31  5-MIN KMKG 281525Z 00000KT 10SM CLR 21/06 A3023 340 37 1100 000/00 RMK AO2
14840KMKG MKG20070528103009305/28/07 10:30:31  5-MIN KMKG 281530Z 00000KT 10SM CLR 20/06 A3023 340 38 1000 000/00 RMK AO2
14840KMKG MKG20070528103509305/28/07 10:35:31  5-MIN KMKG 281535Z 00000KT 10SM CLR 21/06 A3023 340 37 1100 000/00 RMK AO2
14840KMKG MKG20070528104009305/28/07 10:40:31  5-MIN KMKG 281540Z VRB03KT 10SM CLR 21/06 A3023 350 36 1200 VRB/03 RMK AO2
14840KMKG MKG20070528104509305/28/07 10:45:31  5-MIN KMKG 281545Z 00000KT 10SM CLR 21/06 A3023 350 36 1200 000/00 RMK AO2
14840KMKG MKG20070528105011005/28/07 10:50:31  5-MIN KMKG 281550Z 00000KT 10SM CLR 22/05 A3023 350 33 1200 000/00 RMK AO2 SLP236 T02170050
14840KMKG MKG20070528105511005/28/07 10:55:31  5-MIN KMKG 281555Z VRB03KT 10SM CLR 21/07 A3023 350 40 1200 VRB/03 RMK AO2 SLP236 T02110072
14840KMKG MKG20070528110009305/28/07 11:00:31  5-MIN KMKG 281600Z 30004KT 10SM CLR 21/08 A3023 350 43 1200 310/04 RMK AO2
14840KMKG MKG20070528110509305/28/07 11:05:31  5-MIN KMKG 281605Z VRB03KT 10SM CLR 21/08 A3023 350 43 1200 VRB/03 RMK AO2
14840KMKG MKG20070528111009305/28/07 11:10:31  5-MIN KMKG 281610Z VRB03KT 10SM CLR 21/08 A3023 350 43 1200 VRB/03 RMK AO2
14840KMKG MKG20070528111509305/28/07 11:15:31  5-MIN KMKG 281615Z VRB06KT 10SM CLR 21/08 A3023 350 43 1200 VRB/06 RMK AO2
14840KMKG MKG20070528112009305/28/07 11:20:31  5-MIN KMKG 281620Z 24006KT 10SM CLR 21/08 A3023 350 43 1200 250/06 RMK AO2
14840KMKG MKG20070528112509305/28/07 11:25:31  5-MIN KMKG 281625Z 25006KT 10SM CLR 22/08 A3023 350 42 1200 250/06 RMK AO2
14840KMKG MKG20070528113009305/28/07 11:30:31  5-MIN KMKG 281630Z 26008KT 10SM CLR 22/08 A3023 350 42 1200 260/08 RMK AO2
14840KMKG MKG20070528113509305/28/07 11:35:31  5-MIN KMKG 281635Z 25008KT 10SM CLR 21/08 A3023 350 42 1200 250/08 RMK AO2
14840KMKG MKG20070528114009305/28/07 11:40:31  5-MIN KMKG 281640Z 25007KT 10SM CLR 22/07 A3023 350 39 1200 260/07 RMK AO2
14840KMKG MKG20070528114509305/28/07 11:45:31  5-MIN KMKG 281645Z 24008KT 10SM CLR 21/08 A3023 350 42 1200 240/08 RMK AO2
14840KMKG MKG20070528115011005/28/07 11:50:31  5-MIN KMKG 281650Z 26007KT 10SM CLR 21/07 A3023 350 40 1100 260/07 RMK AO2 SLP237 T02060067
14840KMKG MKG20070528115511005/28/07 11:55:31  5-MIN KMKG 281655Z 25007KT 10SM CLR 21/07 A3023 350 38 1200 250/07 RMK AO2 SLP237 T02110067
14840KMKG MKG20070528120009305/28/07 12:00:31  5-MIN KMKG 281700Z 25008KT 10SM CLR 21/06 A3023 350 37 1200 250/08 RMK AO2
14840KMKG MKG20070528120509305/28/07 12:05:31  5-MIN KMKG 281705Z 25007KT 10SM CLR 21/07 A3023 350 38 1200 250/07 RMK AO2
14840KMKG MKG20070528121009305/28/07 12:10:31  5-MIN KMKG 281710Z 23009KT 10SM CLR 21/07 A3023 350 38 1200 240/09 RMK AO2
14840KMKG MKG20070528121509305/28/07 12:15:31  5-MIN KMKG 281715Z 23008KT 10SM CLR 22/06 A3023 350 36 1200 240/08 RMK AO2
14840KMKG MKG20070528122009305/28/07 12:20:31  5-MIN KMKG 281720Z 23008KT 10SM CLR 21/06 A3023 350 36 1200 240/08 RMK AO2
14840KMKG MKG20070528122509305/28/07 12:25:31  5-MIN KMKG 281725Z 26007KT 10SM CLR 21/06 A3023 350 36 1200 260/07 RMK AO2
14840KMKG MKG20070528123009305/28/07 12:30:31  5-MIN KMKG 281730Z 24007KT 10SM CLR 22/06 A3022 350 36 1200 240/07 RMK AO2
14840KMKG MKG20070528123509305/28/07 12:35:31  5-MIN KMKG 281735Z 25008KT 10SM CLR 22/06 A3022 350 33 1300 260/08 RMK AO2
14840KMKG MKG20070528124009305/28/07 12:40:31  5-MIN KMKG 281740Z VRB06KT 10SM CLR 22/05 A3022 350 33 1300 VRB/06 RMK AO2
14840KMKG MKG20070528124509305/28/07 12:45:31  5-MIN KMKG 281745Z VRB06KT 10SM CLR 22/06 A3022 360 34 1300 VRB/06 RMK AO2
14840KMKG MKG20070528125012805/28/07 12:50:31  5-MIN KMKG 281750Z 24007KT 10SM CLR 21/04 A3022 360 32 1200 250/07 RMK AO2 SLP233 T02110039 10222 20111 51011
14840KMKG MKG20070528125512805/28/07 12:55:31  5-MIN KMKG 281755Z 26006KT 10SM CLR 22/04 A3022 360 31 1300 260/06 RMK AO2 SLP232 T02170039 10222 20111 58005
14840KMKG MKG20070528130009305/28/07 13:00:31  5-MIN KMKG 281800Z 22008KT 10SM CLR 22/04 A3021 360 31 1300 220/08 RMK AO2
14840KMKG MKG20070528130509305/28/07 13:05:31  5-MIN KMKG 281805Z 25006KT 10SM CLR 22/04 A3021 360 30 1300 250/06 RMK AO2
14840KMKG MKG20070528131009305/28/07 13:10:31  5-MIN KMKG 281810Z 23008KT 10SM CLR 22/04 A3021 360 31 1300 230/08 RMK AO2
14840KMKG MKG20070528131509305/28/07 13:15:31  5-MIN KMKG 281815Z 26009KT 10SM CLR 22/04 A3021 360 31 1300 260/09 RMK AO2
14840KMKG MKG20070528132009305/28/07 13:20:31  5-MIN KMKG 281820Z 23008KT 10SM CLR 22/04 A3021 370 31 1300 230/08 RMK AO2
14840KMKG MKG20070528132509305/28/07 13:25:31  5-MIN KMKG 281825Z 23007KT 10SM CLR 22/03 A3021 370 29 1300 240/07 RMK AO2
14840KMKG MKG20070528133009305/28/07 13:30:31  5-MIN KMKG 281830Z VRB06KT 10SM CLR 22/03 A3021 370 29 1300 VRB/06 RMK AO2
14840KMKG MKG20070528133509305/28/07 13:35:31  5-MIN KMKG 281835Z 23005KT 10SM CLR 22/03 A3020 370 29 1300 230/05 RMK AO2
14840KMKG MKG20070528134009305/28/07 13:40:31  5-MIN KMKG 281840Z 27006KT 10SM CLR 22/04 A3020 370 30 1300 270/06 RMK AO2
14840KMKG MKG20070528134509305/28/07 13:45:31  5-MIN KMKG 281845Z 24007KT 10SM CLR 22/04 A3020 370 31 1300 250/07 RMK AO2
14840KMKG MKG20070528135011005/28/07 13:50:31  5-MIN KMKG 281850Z 25006KT 10SM CLR 22/04 A3020 370 31 1300 250/06 RMK AO2 SLP227 T02170039
14840KMKG MKG20070528135511005/28/07 13:55:31  5-MIN KMKG 281855Z VRB04KT 10SM CLR 22/03 A3020 370 29 1300 VRB/04 RMK AO2 SLP228 T02170033
14840KMKG MKG20070528140009305/28/07 14:00:31  5-MIN KMKG 281900Z 23005KT 10SM CLR 22/04 A3020 370 30 1300 240/05 RMK AO2
14840KMKG MKG20070528140509305/28/07 14:05:31  5-MIN KMKG 281905Z 24005KT 10SM CLR 22/03 A3020 370 29 1300 250/05 RMK AO2
14840KMKG MKG20070528141009305/28/07 14:10:31  5-MIN KMKG 281910Z 22005KT 10SM CLR 22/03 A3020 370 28 1300 220/05 RMK AO2
14840KMKG MKG20070528141509305/28/07 14:15:31  5-MIN KMKG 281915Z 18004KT 10SM CLR 22/04 A3020 370 30 1300 180/04 RMK AO2
14840KMKG MKG20070528142009305/28/07 14:20:31  5-MIN KMKG 281920Z VRB03KT 10SM CLR 22/03 A3020 370 29 1300 VRB/03 RMK AO2
14840KMKG MKG20070528142509305/28/07 14:25:31  5-MIN KMKG 281925Z VRB05KT 10SM CLR 22/04 A3020 370 30 1300 VRB/05 RMK AO2
14840KMKG MKG20070528143009305/28/07 14:30:31  5-MIN KMKG 281930Z VRB04KT 10SM CLR 22/04 A3020 370 30 1300 VRB/04 RMK AO2
14840KMKG MKG20070528143509305/28/07 14:35:31  5-MIN KMKG 281935Z VRB03KT 10SM CLR 22/04 A3020 370 31 1300 VRB/03 RMK AO2
14840KMKG MKG20070528144009305/28/07 14:40:31  5-MIN KMKG 281940Z VRB05KT 10SM CLR 22/04 A3020 370 31 1300 VRB/05 RMK AO2
14840KMKG MKG20070528144509305/28/07 14:45:31  5-MIN KMKG 281945Z VRB05KT 10SM CLR 22/04 A3020 380 30 1300 VRB/05 RMK AO2
14840KMKG MKG20070528145011005/28/07 14:50:31  5-MIN KMKG 281950Z VRB04KT 10SM CLR 23/04 A3020 380 30 1400 VRB/04 RMK AO2 SLP226 T02280044
14840KMKG MKG20070528145511005/28/07 14:55:31  5-MIN KMKG 281955Z VRB05KT 10SM CLR 23/04 A3020 380 30 1400 VRB/05 RMK AO2 SLP225 T02280044
14840KMKG MKG20070528150009305/28/07 15:00:31  5-MIN KMKG 282000Z 26005KT 10SM CLR 22/04 A3020 380 30 1300 260/05 RMK AO2
14840KMKG MKG20070528150509305/28/07 15:05:31  5-MIN KMKG 282005Z VRB04KT 10SM CLR 23/04 A3020 380 30 1400 VRB/04 RMK AO2
14840KMKG MKG20070528151009305/28/07 15:10:31  5-MIN KMKG 282010Z 25005KT 10SM CLR 23/04 A3020 370 30 1400 260/05 RMK AO2
14840KMKG MKG20070528151509305/28/07 15:15:31  5-MIN KMKG 282015Z 25005KT 10SM CLR 23/04 A3020 380 29 1400 260/05 RMK AO2
14840KMKG MKG20070528152009305/28/07 15:20:31  5-MIN KMKG 282020Z 27007KT 10SM CLR 22/04 A3020 380 30 1300 270/07 RMK AO2
14840KMKG MKG20070528152509305/28/07 15:25:31  5-MIN KMKG 282025Z 25005KT 10SM CLR 22/04 A3020 380 30 1300 260/05 RMK AO2
14840KMKG MKG20070528153009305/28/07 15:30:31  5-MIN KMKG 282030Z 25007KT 10SM CLR 23/04 A3020 370 29 1400 250/07 RMK AO2
14840KMKG MKG20070528153509305/28/07 15:35:31  5-MIN KMKG 282035Z 26007KT 10SM CLR 22/04 A3020 370 30 1300 260/07 RMK AO2
14840KMKG MKG20070528154009305/28/07 15:40:31  5-MIN KMKG 282040Z 25007KT 10SM CLR 22/04 A3020 370 30 1300 250/07 RMK AO2
14840KMKG MKG20070528154509305/28/07 15:45:31  5-MIN KMKG 282045Z 28006KT 10SM CLR 22/04 A3020 370 30 1300 280/06 RMK AO2
14840KMKG MKG20070528155011605/28/07 15:50:31  5-MIN KMKG 282050Z 29007KT 10SM CLR 23/03 A3020 370 27 1400 290/07 RMK AO2 SLP227 T02280033 58005
14840KMKG MKG20070528155511605/28/07 15:55:31  5-MIN KMKG 282055Z 29007KT 10SM CLR 22/03 A3020 370 28 1300 290/07 RMK AO2 SLP226 T02220033 55006
14840KMKG MKG20070528160009305/28/07 16:00:31  5-MIN KMKG 282100Z 29007KT 10SM CLR 22/03 A3020 370 28 1300 290/07 RMK AO2
14840KMKG MKG20070528160509605/28/07 16:05:31  5-MIN KMKG 282105Z 26007KT 10SM FEW095 22/03 A3019 380 28 1300 270/07 RMK AO2
14840KMKG MKG20070528161009605/28/07 16:10:31  5-MIN KMKG 282110Z 29006KT 10SM FEW090 22/04 A3019 380 30 1300 290/06 RMK AO2
14840KMKG MKG20070528161509605/28/07 16:15:31  5-MIN KMKG 282115Z 28007KT 10SM SCT085 22/04 A3020 380 31 1300 280/07 RMK AO2
14840KMKG MKG20070528162009605/28/07 16:20:31  5-MIN KMKG 282120Z 28007KT 10SM BKN085 22/04 A3020 380 31 1300 280/07 RMK AO2
14840KMKG MKG20070528162509605/28/07 16:25:31  5-MIN KMKG 282125Z 28006KT 10SM BKN080 21/03 A3019 380 29 1200 280/06 RMK AO2
14840KMKG MKG20070528163009605/28/07 16:30:31  5-MIN KMKG 282130Z 28005KT 10SM BKN080 22/03 A3019 380 29 1300 280/05 RMK AO2
14840KMKG MKG20070528163509605/28/07 16:35:31  5-MIN KMKG 282135Z 28006KT 10SM BKN080 22/03 A3019 380 28 1300 280/06 RMK AO2
14840KMKG MKG20070528164009605/28/07 16:40:31  5-MIN KMKG 282140Z 27005KT 10SM BKN080 22/03 A3019 380 28 1300 280/05 RMK AO2
14840KMKG MKG20070528164509605/28/07 16:45:31  5-MIN KMKG 282145Z 25004KT 10SM SCT080 22/03 A3019 380 29 1300 250/04 RMK AO2
14840KMKG MKG20070528165011305/28/07 16:50:31  5-MIN KMKG 282150Z 27005KT 10SM SCT080 22/03 A3019 380 29 1300 270/05 RMK AO2 SLP224 T02170033
14840KMKG MKG20070528165511305/28/07 16:55:31  5-MIN KMKG 282155Z 25005KT 10SM FEW080 22/03 A3019 380 28 1300 250/05 RMK AO2 SLP224 T02170028
14840KMKG MKG20070528170009305/28/07 17:00:31  5-MIN KMKG 282200Z 29004KT 10SM CLR 22/03 A3019 380 29 1300 300/04 RMK AO2
14840KMKG MKG20070528170509605/28/07 17:05:31  5-MIN KMKG 282205Z 28003KT 10SM FEW085 22/03 A3019 380 28 1400 290/03 RMK AO2
14840KMKG MKG20070528171009305/28/07 17:10:31  5-MIN KMKG 282210Z 30004KT 10SM CLR 22/03 A3019 380 28 1400 300/04 RMK AO2
14840KMKG MKG20070528171509305/28/07 17:15:31  5-MIN KMKG 282215Z 27004KT 10SM CLR 22/02 A3019 390 27 1300 270/04 RMK AO2
14840KMKG MKG20070528172009305/28/07 17:20:31  5-MIN KMKG 282220Z 29003KT 10SM CLR 22/03 A3018 390 28 1300 300/03 RMK AO2
14840KMKG MKG20070528172509305/28/07 17:25:31  5-MIN KMKG 282225Z VRB04KT 10SM CLR 22/03 A3018 390 28 1300 VRB/04 RMK AO2
14840KMKG MKG20070528173009305/28/07 17:30:31  5-MIN KMKG 282230Z 25003KT 10SM CLR 22/03 A3018 390 28 1300 260/03 RMK AO2
14840KMKG MKG20070528173509305/28/07 17:35:31  5-MIN KMKG 282235Z 27004KT 10SM CLR 22/03 A3018 390 28 1300 270/04 RMK AO2
14840KMKG MKG20070528174009305/28/07 17:40:31  5-MIN KMKG 282240Z 00000KT 10SM CLR 22/03 A3018 390 28 1300 000/00 RMK AO2
14840KMKG MKG20070528174509305/28/07 17:45:31  5-MIN KMKG 282245Z 24004KT 10SM CLR 22/03 A3018 390 28 1300 250/04 RMK AO2
14840KMKG MKG20070528175011005/28/07 17:50:31  5-MIN KMKG 282250Z 00000KT 10SM CLR 22/03 A3018 390 28 1300 000/00 RMK AO2 SLP219 T02170028
14840KMKG MKG20070528175511005/28/07 17:55:31  5-MIN KMKG 282255Z 00000KT 10SM CLR 22/02 A3018 390 26 1300 000/00 RMK AO2 SLP219 T02170017
14840KMKG MKG20070528180009305/28/07 18:00:31  5-MIN KMKG 282300Z 00000KT 10SM CLR 22/02 A3018 390 26 1400 000/00 RMK AO2
14840KMKG MKG20070528180509305/28/07 18:05:31  5-MIN KMKG 282305Z VRB04KT 10SM CLR 22/02 A3018 390 26 1400 VRB/04 RMK AO2
14840KMKG MKG20070528181009305/28/07 18:10:31  5-MIN KMKG 282310Z 00000KT 10SM CLR 22/03 A3017 400 27 1400 000/00 RMK AO2
14840KMKG MKG20070528181509305/28/07 18:15:31  5-MIN KMKG 282315Z 00000KT 10SM CLR 22/02 A3017 400 27 1300 000/00 RMK AO2
14840KMKG MKG20070528182009305/28/07 18:20:31  5-MIN KMKG 282320Z 00000KT 10SM CLR 22/02 A3017 400 26 1400 000/00 RMK AO2
14840KMKG MKG20070528182509305/28/07 18:25:31  5-MIN KMKG 282325Z 00000KT 10SM CLR 22/02 A3017 400 26 1400 000/00 RMK AO2
14840KMKG MKG20070528183009305/28/07 18:30:31  5-MIN KMKG 282330Z 00000KT 10SM CLR 22/02 A3017 400 26 1400 000/00 RMK AO2
14840KMKG MKG20070528183509305/28/07 18:35:31  5-MIN KMKG 282335Z 00000KT 10SM CLR 22/03 A3017 400 27 1400 000/00 RMK AO2
14840KMKG MKG20070528184009305/28/07 18:40:31  5-MIN KMKG 282340Z 00000KT 10SM CLR 22/03 A3017 400 27 1400 000/00 RMK AO2
14840KMKG MKG20070528184509305/28/07 18:45:31  5-MIN KMKG 282345Z 00000KT 10SM CLR 22/02 A3017 400 25 1400 000/00 RMK AO2
14840KMKG MKG20070528185012805/28/07 18:50:31  5-MIN KMKG 282350Z 00000KT 10SM CLR 23/03 A3017 400 26 1400 000/00 RMK AO2 SLP216 T02280028 10228 20211 55006
14840KMKG MKG20070528185512805/28/07 18:55:31  5-MIN KMKG 282355Z 00000KT 10SM CLR 23/03 A3017 400 26 1400 000/00 RMK AO2 SLP215 T02280028 10228 20211 56010
14840KMKG MKG20070528190009305/28/07 19:00:31  5-MIN KMKG 290000Z 00000KT 10SM CLR 22/01 A3017 400 24 1400 000/00 RMK AO2
14840KMKG MKG20070528190509305/28/07 19:05:31  5-MIN KMKG 290005Z 00000KT 10SM CLR 22/01 A3017 400 24 1400 000/00 RMK AO2
14840KMKG MKG20070528191009305/28/07 19:10:31  5-MIN KMKG 290010Z 00000KT 10SM CLR 22/03 A3017 400 28 1300 000/00 RMK AO2
14840KMKG MKG20070528191509305/28/07 19:15:31  5-MIN KMKG 290015Z 00000KT 10SM CLR 22/01 A3017 400 25 1300 000/00 RMK AO2
14840KMKG MKG20070528192009305/28/07 19:20:31  5-MIN KMKG 290020Z 00000KT 10SM CLR 22/03 A3017 400 28 1300 000/00 RMK AO2
14840KMKG MKG20070528192509305/28/07 19:25:31  5-MIN KMKG 290025Z 00000KT 10SM CLR 21/03 A3017 400 30 1300 000/00 RMK AO2
14840KMKG MKG20070528193009305/28/07 19:30:31  5-MIN KMKG 290030Z 00000KT 10SM CLR 21/03 A3016 410 29 1300 000/00 RMK AO2
14840KMKG MKG20070528193509305/28/07 19:35:31  5-MIN KMKG 290035Z 00000KT 10SM CLR 21/03 A3016 410 29 1300 000/00 RMK AO2
14840KMKG MKG20070528194009305/28/07 19:40:31  5-MIN KMKG 290040Z 00000KT 10SM CLR 21/03 A3016 410 30 1300 000/00 RMK AO2
14840KMKG MKG20070528194509305/28/07 19:45:31  5-MIN KMKG 290045Z 00000KT 10SM CLR 21/04 A3016 410 32 1300 000/00 RMK AO2
14840KMKG MKG20070528195011005/28/07 19:50:31  5-MIN KMKG 290050Z 22003KT 10SM CLR 20/04 A3016 410 35 1100 230/03 RMK AO2 SLP214 T02000044
14840KMKG MKG20070528195511005/28/07 19:55:31  5-MIN KMKG 290055Z 22003KT 10SM CLR 19/04 A3016 410 37 1100 230/03 RMK AO2 SLP213 T01940044
14840KMKG MKG20070528200009305/28/07 20:00:31  5-MIN KMKG 290100Z 23003KT 10SM CLR 19/06 A3016 410 43 1000 230/03 RMK AO2
14840KMKG MKG20070528200509305/28/07 20:05:31  5-MIN KMKG 290105Z 00000KT 10SM CLR 19/06 A3016 410 43 1000 000/00 RMK AO2
14840KMKG MKG20070528201009205/28/07 20:10:31  5-MIN KMKG 290110Z 00000KT 10SM CLR 18/06 A3016 410 44 900 000/00 RMK AO2
14840KMKG MKG20070528201509205/28/07 20:15:31  5-MIN KMKG 290115Z 00000KT 10SM CLR 18/07 A3016 410 46 900 000/00 RMK AO2
14840KMKG MKG20070528202009205/28/07 20:20:31  5-MIN KMKG 290120Z 00000KT 10SM CLR 18/06 A3016 410 46 900 000/00 RMK AO2
14840KMKG MKG20070528202509205/28/07 20:25:31  5-MIN KMKG 290125Z 00000KT 10SM CLR 18/06 A3016 410 42 900 000/00 RMK AO2
14840KMKG MKG20070528203009205/28/07 20:30:31  5-MIN KMKG 290130Z 00000KT 10SM CLR 18/06 A3016 410 46 900 000/00 RMK AO2
14840KMKG MKG20070528203509205/28/07 20:35:31  5-MIN KMKG 290135Z 00000KT 10SM CLR 18/06 A3016 410 46 900 000/00 RMK AO2
14840KMKG MKG20070528204009205/28/07 20:40:31  5-MIN KMKG 290140Z 00000KT 10SM CLR 18/06 A3016 410 46 900 000/00 RMK AO2
14840KMKG MKG20070528204509205/28/07 20:45:31  5-MIN KMKG 290145Z 00000KT 10SM CLR 18/06 A3016 410 46 900 000/00 RMK AO2
14840KMKG MKG20070528205010905/28/07 20:50:31  5-MIN KMKG 290150Z 00000KT 10SM CLR 18/07 A3017 400 48 900 000/00 RMK AO2 SLP214 T01780067
14840KMKG MKG20070528205510905/28/07 20:55:31  5-MIN KMKG 290155Z 00000KT 10SM CLR 17/07 A3017 400 49 800 000/00 RMK AO2 SLP214 T01720067
14840KMKG MKG20070528210009205/28/07 21:00:31  5-MIN KMKG 290200Z 00000KT 10SM CLR 16/07 A3017 400 55 700 000/00 RMK AO2
14840KMKG MKG20070528210509205/28/07 21:05:31  5-MIN KMKG 290205Z 00000KT 10SM CLR 17/07 A3017 400 53 700 000/00 RMK AO2
14840KMKG MKG20070528211009205/28/07 21:10:31  5-MIN KMKG 290210Z 00000KT 10SM CLR 17/07 A3017 400 53 700 000/00 RMK AO2
14840KMKG MKG20070528211509205/28/07 21:15:31  5-MIN KMKG 290215Z 00000KT 10SM CLR 17/07 A3017 400 53 700 000/00 RMK AO2
14840KMKG MKG20070528212009205/28/07 21:20:31  5-MIN KMKG 290220Z 00000KT 10SM CLR 17/07 A3017 400 51 700 000/00 RMK AO2
14840KMKG MKG20070528212509205/28/07 21:25:31  5-MIN KMKG 290225Z 00000KT 10SM CLR 17/07 A3017 400 51 700 000/00 RMK AO2
14840KMKG MKG20070528213009205/28/07 21:30:31  5-MIN KMKG 290230Z 00000KT 10SM CLR 17/07 A3017 400 53 700 000/00 RMK AO2
14840KMKG MKG20070528213509205/28/07 21:35:31  5-MIN KMKG 290235Z 00000KT 10SM CLR 17/07 A3017 400 53 700 000/00 RMK AO2
14840KMKG MKG20070528214009205/28/07 21:40:31  5-MIN KMKG 290240Z 00000KT 10SM CLR 16/08 A3017 400 57 700 000/00 RMK AO2
14840KMKG MKG20070528214509205/28/07 21:45:31  5-MIN KMKG 290245Z 00000KT 10SM CLR 16/08 A3017 400 57 700 000/00 RMK AO2
14840KMKG MKG20070528215011505/28/07 21:50:31  5-MIN KMKG 290250Z 00000KT 10SM CLR 16/08 A3017 400 57 700 000/00 RMK AO2 SLP216 T01610078 56010
14840KMKG MKG20070528215511505/28/07 21:55:31  5-MIN KMKG 290255Z 00000KT 10SM CLR 16/07 A3017 400 55 700 000/00 RMK AO2 SLP216 T01610072 53001
14840KMKG MKG20070528220009205/28/07 22:00:31  5-MIN KMKG 290300Z 00000KT 10SM CLR 16/08 A3017 400 57 700 000/00 RMK AO2
14840KMKG MKG20070528220509205/28/07 22:05:31  5-MIN KMKG 290305Z 00000KT 10SM CLR 16/07 A3017 400 55 700 000/00 RMK AO2
14840KMKG MKG20070528221009205/28/07 22:10:31  5-MIN KMKG 290310Z 00000KT 10SM CLR 16/07 A3017 400 55 700 000/00 RMK AO2
14840KMKG MKG20070528221509205/28/07 22:15:31  5-MIN KMKG 290315Z 00000KT 10SM CLR 16/07 A3017 400 57 600 000/00 RMK AO2
14840KMKG MKG20070528222009205/28/07 22:20:31  5-MIN KMKG 290320Z 00000KT 10SM CLR 16/07 A3017 400 57 600 000/00 RMK AO2
14840KMKG MKG20070528222509205/28/07 22:25:31  5-MIN KMKG 290325Z 00000KT 10SM CLR 16/07 A3017 400 53 700 000/00 RMK AO2
14840KMKG MKG20070528223009205/28/07 22:30:31  5-MIN KMKG 290330Z 00000KT 10SM CLR 16/07 A3017 400 53 700 000/00 RMK AO2
14840KMKG MKG20070528223509205/28/07 22:35:31  5-MIN KMKG 290335Z 00000KT 10SM CLR 16/07 A3017 400 55 700 000/00 RMK AO2
14840KMKG MKG20070528224009205/28/07 22:40:31  5-MIN KMKG 290340Z 00000KT 10SM CLR 16/08 A3017 400 57 700 000/00 RMK AO2
14840KMKG MKG20070528224509205/28/07 22:45:31  5-MIN KMKG 290345Z 00000KT 10SM CLR 16/08 A3017 400 59 600 000/00 RMK AO2
14840KMKG MKG20070528225010905/28/07 22:50:31  5-MIN KMKG 290350Z 00000KT 10SM CLR 16/07 A3017 400 57 600 000/00 RMK AO2 SLP216 T01560072
14840KMKG MKG20070528225510905/28/07 22:55:31  5-MIN KMKG 290355Z 00000KT 10SM CLR 16/06 A3017 400 51 700 000/00 RMK AO2 SLP217 T01610061
14840KMKG MKG20070528230009205/28/07 23:00:31  5-MIN KMKG 290400Z 00000KT 10SM CLR 16/07 A3017 400 55 600 000/00 RMK AO2
14840KMKG MKG20070528230509205/28/07 23:05:31  5-MIN KMKG 290405Z 00000KT 10SM CLR 16/07 A3017 400 57 600 000/00 RMK AO2
14840KMKG MKG20070528231009205/28/07 23:10:31  5-MIN KMKG 290410Z 00000KT 10SM CLR 16/08 A3017 400 59 600 000/00 RMK AO2
14840KMKG MKG20070528231509205/28/07 23:15:31  5-MIN KMKG 290415Z 00000KT 10SM CLR 16/08 A3018 390 62 600 000/00 RMK AO2
14840KMKG MKG20070528232009205/28/07 23:20:31  5-MIN KMKG 290420Z 00000KT 10SM CLR 16/08 A3018 390 59 600 000/00 RMK AO2
14840KMKG MKG20070528232509205/28/07 23:25:31  5-MIN KMKG 290425Z 00000KT 10SM CLR 16/08 A3018 390 59 600 000/00 RMK AO2
14840KMKG MKG20070528233009205/28/07 23:30:31  5-MIN KMKG 290430Z 00000KT 10SM CLR 16/08 A3018 390 62 600 000/00 RMK AO2
14840KMKG MKG20070528233509205/28/07 23:35:31  5-MIN KMKG 290435Z 00000KT 10SM CLR 16/08 A3018 390 62 600 000/00 RMK AO2
14840KMKG MKG20070528234009205/28/07 23:40:31  5-MIN KMKG 290440Z 00000KT 10SM CLR 16/09 A3018 390 64 600 000/00 RMK AO2
14840KMKG MKG20070528234509205/28/07 23:45:31  5-MIN KMKG 290445Z 00000KT 10SM CLR 15/09 A3018 390 66 500 000/00 RMK AO2
14840KMKG MKG20070528235011905/28/07 23:50:31  5-MIN KMKG 290450Z 00000KT 10SM CLR 15/08 A3018 390 64 500 000/00 RMK AO2 SLP219 T01500083 402280061
14840KMKG MKG20070528235511905/28/07 23:55:31  5-MIN KMKG 290455Z 00000KT 10SM CLR 16/08 A3018 390 62 600 000/00 RMK AO2 SLP219 T01560083 402280061
14840KMKG MKG20070529000009205/29/07 00:00:32  5-MIN KMKG 290500Z 00000KT 10SM CLR 16/08 A3018 390 62 600 000/00 RMK AO2
14840KMKG MKG20070529000509205/29/07 00:05:31  5-MIN KMKG 290505Z 00000KT 10SM CLR 16/08 A3018 390 62 600 000/00 RMK AO2
14840KMKG MKG20070529001009205/29/07 00:10:31  5-MIN KMKG 290510Z 00000KT 10SM CLR 16/08 A3018 390 62 600 000/00 RMK AO2
14840KMKG MKG20070529001509205/29/07 00:15:31  5-MIN KMKG 290515Z 00000KT 10SM CLR 15/08 A3018 390 64 500 000/00 RMK AO2
14840KMKG MKG20070529002009205/29/07 00:20:31  5-MIN KMKG 290520Z 00000KT 10SM CLR 14/09 A3018 390 69 500 000/00 RMK AO2
14840KMKG MKG20070529002509205/29/07 00:25:31  5-MIN KMKG 290525Z 00000KT 10SM CLR 14/09 A3018 390 69 500 000/00 RMK AO2
14840KMKG MKG20070529003009205/29/07 00:30:31  5-MIN KMKG 290530Z 00000KT 10SM CLR 15/08 A3018 390 64 500 000/00 RMK AO2
14840KMKG MKG20070529003509205/29/07 00:35:31  5-MIN KMKG 290535Z 00000KT 10SM CLR 15/08 A3018 390 62 500 000/00 RMK AO2
14840KMKG MKG20070529004009205/29/07 00:40:31  5-MIN KMKG 290540Z 00000KT 10SM CLR 15/07 A3018 390 59 500 000/00 RMK AO2
14840KMKG MKG20070529004509205/29/07 00:45:31  5-MIN KMKG 290545Z 00000KT 10SM CLR 15/08 A3018 390 62 500 000/00 RMK AO2
14840KMKG MKG20070529005012705/29/07 00:50:31  5-MIN KMKG 290550Z 00000KT 10SM CLR 14/08 A3018 390 64 500 000/00 RMK AO2 SLP218 T01440078 10222 20144 53001
14840KMKG MKG20070529005512705/29/07 00:55:31  5-MIN KMKG 290555Z 00000KT 10SM CLR 14/08 A3018 390 64 500 000/00 RMK AO2 SLP218 T01440078 10222 20144 50001
14840KMKG MKG20070529010009205/29/07 01:00:31  5-MIN KMKG 290600Z 00000KT 10SM CLR 14/08 A3017 400 64 500 000/00 RMK AO2
14840KMKG MKG20070529010509205/29/07 01:05:31  5-MIN KMKG 290605Z 13003KT 10SM CLR 14/08 A3017 400 66 500 130/03 RMK AO2
14840KMKG MKG20070529011009205/29/07 01:10:31  5-MIN KMKG 290610Z 11003KT 10SM CLR 14/08 A3017 400 69 400 110/03 RMK AO2
14840KMKG MKG20070529011509205/29/07 01:15:31  5-MIN KMKG 290615Z 00000KT 10SM CLR 14/09 A3017 400 71 400 000/00 RMK AO2
14840KMKG MKG20070529012009205/29/07 01:20:31  5-MIN KMKG 290620Z 00000KT 10SM CLR 14/09 A3017 400 69 500 000/00 RMK AO2
14840KMKG MKG20070529012509205/29/07 01:25:31  5-MIN KMKG 290625Z 00000KT 10SM CLR 14/09 A3017 400 71 400 000/00 RMK AO2
14840KMKG MKG20070529013009205/29/07 01:30:31  5-MIN KMKG 290630Z 00000KT 10SM CLR 14/09 A3016 400 71 400 000/00 RMK AO2
14840KMKG MKG20070529013509205/29/07 01:35:31  5-MIN KMKG 290635Z 00000KT 10SM CLR 14/09 A3017 400 71 400 000/00 RMK AO2
14840KMKG MKG20070529014009205/29/07 01:40:31  5-MIN KMKG 290640Z 00000KT 10SM CLR 14/08 A3017 400 69 400 000/00 RMK AO2
14840KMKG MKG20070529014509205/29/07 01:45:31  5-MIN KMKG 290645Z 00000KT 10SM CLR 14/08 A3017 400 69 400 000/00 RMK AO2
14840KMKG MKG20070529015010905/29/07 01:50:31  5-MIN KMKG 290650Z 00000KT 10SM CLR 14/08 A3017 400 66 500 000/00 RMK AO2 SLP214 T01440083
14840KMKG MKG20070529015511205/29/07 01:55:31  5-MIN KMKG 290655Z 00000KT 10SM SCT060 14/08 A3017 400 66 500 000/00 RMK AO2 SLP214 T01440083
14840KMKG MKG20070529020009505/29/07 02:00:31  5-MIN KMKG 290700Z 00000KT 10SM BKN060 14/09 A3017 400 69 500 000/00 RMK AO2
14840KMKG MKG20070529020509505/29/07 02:05:31  5-MIN KMKG 290705Z 00000KT 10SM BKN060 14/09 A3017 400 69 500 000/00 RMK AO2
14840KMKG MKG20070529021009505/29/07 02:10:31  5-MIN KMKG 290710Z 00000KT 10SM BKN060 14/09 A3017 400 69 500 000/00 RMK AO2
14840KMKG MKG20070529021509505/29/07 02:15:31  5-MIN KMKG 290715Z 00000KT 10SM OVC060 15/09 A3017 400 66 500 000/00 RMK AO2
14840KMKG MKG20070529022009505/29/07 02:20:31  5-MIN KMKG 290720Z 00000KT 10SM BKN060 14/09 A3017 400 72 500 000/00 RMK AO2
14840KMKG MKG20070529022509505/29/07 02:25:31  5-MIN KMKG 290725Z 11003KT 10SM BKN060 14/09 A3017 400 69 500 120/03 RMK AO2
14840KMKG MKG20070529023009505/29/07 02:30:31  5-MIN KMKG 290730Z 11003KT 10SM SCT060 14/09 A3017 400 69 500 110/03 RMK AO2
14840KMKG MKG20070529023509505/29/07 02:35:31  5-MIN KMKG 290735Z 11003KT 10SM FEW060 14/09 A3017 400 72 500 110/03 RMK AO2
14840KMKG MKG20070529024009505/29/07 02:40:31  5-MIN KMKG 290740Z 11003KT 10SM FEW060 14/09 A3017 400 69 500 110/03 RMK AO2
14840KMKG MKG20070529024509205/29/07 02:45:31  5-MIN KMKG 290745Z 12004KT 10SM CLR 14/09 A3017 400 69 500 120/04 RMK AO2
14840KMKG MKG20070529025010905/29/07 02:50:31  5-MIN KMKG 290750Z 12004KT 10SM CLR 14/09 A3017 400 72 500 120/04 RMK AO2 SLP214 T01440094
14840KMKG MKG20070529025510905/29/07 02:55:31  5-MIN KMKG 290755Z 12005KT 10SM CLR 14/09 A3017 400 72 500 130/05 RMK AO2 SLP214 T01440094
14840KMKG MKG20070529030009205/29/07 03:00:31  5-MIN KMKG 290800Z 12005KT 10SM CLR 14/09 A3017 400 72 500 130/05 RMK AO2
14840KMKG MKG20070529030509505/29/07 03:05:31  5-MIN KMKG 290805Z 13004KT 10SM FEW120 14/09 A3017 400 72 500 130/04 RMK AO2
14840KMKG MKG20070529031009505/29/07 03:10:31  5-MIN KMKG 290810Z 12004KT 10SM SCT120 15/09 A3017 400 69 500 120/04 RMK AO2
14840KMKG MKG20070529031509505/29/07 03:15:31  5-MIN KMKG 290815Z 12004KT 10SM SCT120 15/09 A3017 400 69 500 120/04 RMK AO2
14840KMKG MKG20070529032009505/29/07 03:20:31  5-MIN KMKG 290820Z 12004KT 10SM FEW120 15/09 A3017 400 69 500 120/04 RMK AO2
14840KMKG MKG20070529032509505/29/07 03:25:31  5-MIN KMKG 290825Z 12004KT 10SM SCT120 15/09 A3017 400 69 500 120/04 RMK AO2
14840KMKG MKG20070529033009505/29/07 03:30:31  5-MIN KMKG 290830Z 12004KT 10SM SCT120 15/09 A3017 400 69 500 120/04 RMK AO2
14840KMKG MKG20070529033509505/29/07 03:35:31  5-MIN KMKG 290835Z 13004KT 10SM FEW120 15/09 A3017 400 69 500 130/04 RMK AO2
14840KMKG MKG20070529034009505/29/07 03:40:31  5-MIN KMKG 290840Z 12004KT 10SM SCT120 15/09 A3017 400 69 500 130/04 RMK AO2
14840KMKG MKG20070529034509505/29/07 03:45:31  5-MIN KMKG 290845Z 12004KT 10SM BKN120 15/09 A3017 400 69 500 120/04 RMK AO2
14840KMKG MKG20070529035011805/29/07 03:50:31  5-MIN KMKG 290850Z 11004KT 10SM BKN120 15/10 A3017 400 72 500 120/04 RMK AO2 SLP215 T01500100 50001
14840KMKG MKG20070529035511805/29/07 03:55:31  5-MIN KMKG 290855Z 00000KT 10SM BKN120 15/10 A3017 400 72 500 000/00 RMK AO2 SLP216 T01500100 55001
14840KMKG MKG20070529040009505/29/07 04:00:31  5-MIN KMKG 290900Z 00000KT 10SM BKN120 16/09 A3017 400 67 600 000/00 RMK AO2
14840KMKG MKG20070529040509505/29/07 04:05:31  5-MIN KMKG 290905Z 00000KT 10SM BKN120 16/09 A3017 400 67 600 000/00 RMK AO2
14840KMKG MKG20070529041009505/29/07 04:10:31  5-MIN KMKG 290910Z 00000KT 10SM BKN120 16/09 A3018 390 67 600 000/00 RMK AO2
14840KMKG MKG20070529041509505/29/07 04:15:31  5-MIN KMKG 290915Z 00000KT 10SM SCT120 16/09 A3018 390 67 600 000/00 RMK AO2
14840KMKG MKG20070529042009505/29/07 04:20:31  5-MIN KMKG 290920Z 11003KT 10SM FEW120 16/09 A3018 390 67 600 110/03 RMK AO2
14840KMKG MKG20070529042509505/29/07 04:25:31  5-MIN KMKG 290925Z 11003KT 10SM FEW120 15/09 A3018 390 69 500 110/03 RMK AO2
14840KMKG MKG20070529043009205/29/07 04:30:31  5-MIN KMKG 290930Z 00000KT 10SM CLR 15/09 A3018 390 69 500 000/00 RMK AO2
14840KMKG MKG20070529043509205/29/07 04:35:31  5-MIN KMKG 290935Z 12003KT 10SM CLR 15/09 A3018 390 69 500 130/03 RMK AO2
14840KMKG MKG20070529044009205/29/07 04:40:31  5-MIN KMKG 290940Z 13003KT 10SM CLR 15/09 A3018 390 69 500 130/03 RMK AO2
14840KMKG MKG20070529044509205/29/07 04:45:31  5-MIN KMKG 290945Z 00000KT 10SM CLR 15/10 A3018 390 72 500 000/00 RMK AO2
14840KMKG MKG20070529045010905/29/07 04:50:31  5-MIN KMKG 290950Z 00000KT 10SM CLR 15/10 A3018 390 72 500 000/00 RMK AO2 SLP219 T01500100
14840KMKG MKG20070529045510905/29/07 04:55:31  5-MIN KMKG 290955Z 12003KT 10SM CLR 15/10 A3018 390 72 500 130/03 RMK AO2 SLP219 T01500100
14840KMKG MKG20070529050009205/29/07 05:00:31  5-MIN KMKG 291000Z 12003KT 10SM CLR 15/10 A3018 390 72 500 130/03 RMK AO2
14840KMKG MKG20070529050509205/29/07 05:05:31  5-MIN KMKG 291005Z 11003KT 10SM CLR 15/10 A3018 390 72 500 120/03 RMK AO2
14840KMKG MKG20070529051009205/29/07 05:10:31  5-MIN KMKG 291010Z 11003KT 10SM CLR 15/10 A3018 390 72 500 110/03 RMK AO2
14840KMKG MKG20070529051509205/29/07 05:15:31  5-MIN KMKG 291015Z 00000KT 10SM CLR 15/10 A3018 390 72 500 000/00 RMK AO2
14840KMKG MKG20070529052009205/29/07 05:20:31  5-MIN KMKG 291020Z 00000KT 10SM CLR 15/09 A3018 390 69 500 000/00 RMK AO2
14840KMKG MKG20070529052509205/29/07 05:25:31  5-MIN KMKG 291025Z 00000KT 10SM CLR 15/09 A3019 390 69 500 000/00 RMK AO2
14840KMKG MKG20070529053009205/29/07 05:30:31  5-MIN KMKG 291030Z 00000KT 10SM CLR 15/10 A3019 390 72 500 000/00 RMK AO2
14840KMKG MKG20070529053509205/29/07 05:35:31  5-MIN KMKG 291035Z 00000KT 10SM CLR 15/10 A3019 380 72 500 000/00 RMK AO2
14840KMKG MKG20070529054009205/29/07 05:40:31  5-MIN KMKG 291040Z 00000KT 10SM CLR 15/10 A3019 380 72 500 000/00 RMK AO2
14840KMKG MKG20070529054509505/29/07 05:45:31  5-MIN KMKG 291045Z 00000KT 10SM FEW100 15/10 A3019 380 72 500 000/00 RMK AO2
14840KMKG MKG20070529055011205/29/07 05:50:31  5-MIN KMKG 291050Z 00000KT 10SM SCT100 15/10 A3019 380 72 500 000/00 RMK AO2 SLP223 T01500100
14840KMKG MKG20070529055511205/29/07 05:55:31  5-MIN KMKG 291055Z 00000KT 10SM BKN100 15/10 A3019 380 72 500 000/00 RMK AO2 SLP224 T01500100
14840KMKG MKG20070529060009505/29/07 06:00:31  5-MIN KMKG 291100Z 00000KT 10SM BKN100 15/11 A3020 380 74 500 000/00 RMK AO2
14840KMKG MKG20070529060509505/29/07 06:05:31  5-MIN KMKG 291105Z 00000KT 10SM BKN100 16/11 A3020 380 72 600 000/00 RMK AO2
14840KMKG MKG20070529061009505/29/07 06:10:31  5-MIN KMKG 291110Z 00000KT 10SM OVC100 16/11 A3020 370 72 600 000/00 RMK AO2
14840KMKG MKG20070529061509505/29/07 06:15:31  5-MIN KMKG 291115Z 00000KT 10SM OVC100 16/11 A3020 370 72 600 000/00 RMK AO2
14840KMKG MKG20070529062009505/29/07 06:20:31  5-MIN KMKG 291120Z 00000KT 10SM OVC100 16/11 A3020 370 72 600 000/00 RMK AO2
14840KMKG MKG20070529062509505/29/07 06:25:31  5-MIN KMKG 291125Z 12003KT 10SM BKN100 16/11 A3020 370 72 600 130/03 RMK AO2
14840KMKG MKG20070529063009505/29/07 06:30:31  5-MIN KMKG 291130Z 12003KT 10SM BKN100 16/11 A3020 370 72 600 120/03 RMK AO2
14840KMKG MKG20070529063509505/29/07 06:35:31  5-MIN KMKG 291135Z 13004KT 10SM BKN100 16/11 A3020 370 72 600 130/04 RMK AO2
14840KMKG MKG20070529064009505/29/07 06:40:31  5-MIN KMKG 291140Z 12004KT 10SM BKN110 16/11 A3020 370 72 600 130/04 RMK AO2
14840KMKG MKG20070529064509505/29/07 06:45:31  5-MIN KMKG 291145Z 13004KT 10SM BKN110 17/11 A3020 370 69 700 140/04 RMK AO2
14840KMKG MKG20070529065013005/29/07 06:50:31  5-MIN KMKG 291150Z 12003KT 10SM BKN110 17/11 A3021 370 69 700 130/03 RMK AO2 SLP226 T01670111 10167 20139 55001
14840KMKG MKG20070529065513005/29/07 06:55:31  5-MIN KMKG 291155Z 13003KT 10SM BKN110 17/11 A3021 370 69 700 130/03 RMK AO2 SLP227 T01670111 10167 20139 53012
14840KMKG MKG20070529070009505/29/07 07:00:31  5-MIN KMKG 291200Z 13003KT 10SM BKN110 17/11 A3021 370 69 700 140/03 RMK AO2
14840KMKG MKG20070529070509505/29/07 07:05:31  5-MIN KMKG 291205Z 14004KT 10SM BKN120 17/12 A3021 370 69 800 140/04 RMK AO2
14840KMKG MKG20070529071009505/29/07 07:10:31  5-MIN KMKG 291210Z 14003KT 10SM SCT120 17/11 A3021 360 67 700 140/03 RMK AO2
14840KMKG MKG20070529071509505/29/07 07:15:31  5-MIN KMKG 291215Z 13003KT 10SM SCT120 17/12 A3021 360 69 700 130/03 RMK AO2
14840KMKG MKG20070529072009505/29/07 07:20:31  5-MIN KMKG 291220Z 12004KT 10SM SCT120 18/12 A3021 360 67 800 120/04 RMK AO2
14840KMKG MKG20070529072509505/29/07 07:25:31  5-MIN KMKG 291225Z 13005KT 10SM SCT120 18/12 A3021 360 69 800 130/05 RMK AO2
14840KMKG MKG20070529073009505/29/07 07:30:31  5-MIN KMKG 291230Z 14005KT 10SM FEW120 18/12 A3022 360 67 800 150/05 RMK AO2
14840KMKG MKG20070529073509505/29/07 07:35:31  5-MIN KMKG 291235Z 14004KT 10SM FEW120 18/12 A3022 360 67 900 150/04 RMK AO2
14840KMKG MKG20070529074009505/29/07 07:40:31  5-MIN KMKG 291240Z 13005KT 10SM BKN120 18/12 A3022 360 67 900 140/05 RMK AO2
14840KMKG MKG20070529074509505/29/07 07:45:31  5-MIN KMKG 291245Z 14003KT 10SM BKN120 18/12 A3022 350 67 900 140/03 RMK AO2
14840KMKG MKG20070529075011205/29/07 07:50:31  5-MIN KMKG 291250Z 12003KT 10SM BKN120 19/13 A3022 360 67 900 130/03 RMK AO2 SLP231 T01890128
14840KMKG MKG20070529075511205/29/07 07:55:31  5-MIN KMKG 291255Z 13004KT 10SM BKN120 19/13 A3022 360 67 900 130/04 RMK AO2 SLP231 T01890128
14840KMKG MKG20070529080009505/29/07 08:00:31  5-MIN KMKG 291300Z 12004KT 10SM FEW120 19/13 A3022 360 67 900 130/04 RMK AO2
14840KMKG MKG20070529080509605/29/07 08:05:31  5-MIN KMKG 291305Z 13004KT 10SM FEW110 19/13 A3022 350 67 1000 130/04 RMK AO2
14840KMKG MKG20070529081009605/29/07 08:10:31  5-MIN KMKG 291310Z 12004KT 10SM FEW110 19/13 A3022 350 67 1000 130/04 RMK AO2
14840KMKG MKG20070529081509605/29/07 08:15:31  5-MIN KMKG 291315Z 13005KT 10SM FEW110 19/13 A3022 350 67 1000 130/05 RMK AO2
14840KMKG MKG20070529082009605/29/07 08:20:31  5-MIN KMKG 291320Z 13005KT 10SM FEW110 19/13 A3022 350 67 1000 130/05 RMK AO2
14840KMKG MKG20070529082509605/29/07 08:25:31  5-MIN KMKG 291325Z 13005KT 10SM FEW110 19/13 A3022 350 67 1000 130/05 RMK AO2
14840KMKG MKG20070529083009305/29/07 08:30:31  5-MIN KMKG 291330Z 13005KT 10SM CLR 20/14 A3022 350 67 1100 130/05 RMK AO2
14840KMKG MKG20070529083509305/29/07 08:35:31  5-MIN KMKG 291335Z 13004KT 10SM CLR 20/14 A3022 350 67 1100 130/04 RMK AO2
14840KMKG MKG20070529084009605/29/07 08:40:31  5-MIN KMKG 291340Z 13003KT 10SM BKN120 20/14 A3022 350 67 1100 140/03 RMK AO2
14840KMKG MKG20070529084509605/29/07 08:45:31  5-MIN KMKG 291345Z 14003KT 10SM BKN120 20/14 A3023 350 67 1100 140/03 RMK AO2
14840KMKG MKG20070529085011305/29/07 08:50:31  5-MIN KMKG 291350Z 16003KT 10SM BKN120 21/14 A3023 350 65 1100 160/03 RMK AO2 SLP233 T02060139
14840KMKG MKG20070529085511305/29/07 08:55:31  5-MIN KMKG 291355Z 00000KT 10SM BKN120 21/14 A3023 350 65 1100 000/00 RMK AO2 SLP235 T02060139
14840KMKG MKG20070529090009305/29/07 09:00:31  5-MIN KMKG 291400Z 15003KT 10SM CLR 21/14 A3023 350 67 1100 150/03 RMK AO2
14840KMKG MKG20070529090509305/29/07 09:05:31  5-MIN KMKG 291405Z 00000KT 10SM CLR 21/14 A3023 350 67 1100 000/00 RMK AO2
14840KMKG MKG20070529091009305/29/07 09:10:31  5-MIN KMKG 291410Z 15004KT 10SM CLR 21/14 A3023 350 65 1200 150/04 RMK AO2
14840KMKG MKG20070529091509305/29/07 09:15:31  5-MIN KMKG 291415Z 15005KT 10SM CLR 21/15 A3023 350 68 1200 150/05 RMK AO2
14840KMKG MKG20070529092009305/29/07 09:20:31  5-MIN KMKG 291420Z 17005KT 10SM CLR 21/15 A3022 350 68 1200 170/05 RMK AO2
14840KMKG MKG20070529092509305/29/07 09:25:31  5-MIN KMKG 291425Z 16004KT 10SM CLR 22/15 A3022 350 65 1200 170/04 RMK AO2
14840KMKG MKG20070529093009305/29/07 09:30:31  5-MIN KMKG 291430Z 17004KT 10SM CLR 22/15 A3022 350 65 1200 170/04 RMK AO2
14840KMKG MKG20070529093509305/29/07 09:35:31  5-MIN KMKG 291435Z 16004KT 10SM CLR 22/16 A3022 350 65 1300 170/04 RMK AO2
14840KMKG MKG20070529094009305/29/07 09:40:31  5-MIN KMKG 291440Z 18006KT 10SM CLR 23/16 A3022 350 63 1400 180/06 RMK AO2
14840KMKG MKG20070529094509305/29/07 09:45:31  5-MIN KMKG 291445Z 18006KT 10SM CLR 22/16 A3022 350 65 1300 190/06 RMK AO2
14840KMKG MKG20070529095011605/29/07 09:50:31  5-MIN KMKG 291450Z 17004KT 10SM CLR 23/16 A3022 350 63 1400 170/04 RMK AO2 SLP232 T02280156 53012
14840KMKG MKG20070529095511605/29/07 09:55:31  5-MIN KMKG 291455Z 17005KT 10SM CLR 24/16 A3022 360 61 1500 170/05 RMK AO2 SLP231 T02390161 50004
14840KMKG MKG20070529100009305/29/07 10:00:31  5-MIN KMKG 291500Z 17005KT 10SM CLR 23/16 A3022 360 61 1400 170/05 RMK AO2
14840KMKG MKG20070529100509305/29/07 10:05:31  5-MIN KMKG 291505Z VRB04KT 10SM CLR 23/16 A3022 360 61 1400 VRB/04 RMK AO2
14840KMKG MKG20070529101009305/29/07 10:10:31  5-MIN KMKG 291510Z 16003KT 10SM CLR 24/16 A3021 360 61 1500 170/03 RMK AO2
14840KMKG MKG20070529101509305/29/07 10:15:31  5-MIN KMKG 291515Z 15005KT 10SM CLR 24/16 A3021 360 61 1500 160/05 RMK AO2
14840KMKG MKG20070529102009305/29/07 10:20:31  5-MIN KMKG 291520Z 17005KT 10SM CLR 24/16 A3021 360 59 1600 170/05 RMK AO2
14840KMKG MKG20070529102509305/29/07 10:25:31  5-MIN KMKG 291525Z 20007KT 10SM CLR 25/16 A3021 360 57 1600 210/07 RMK AO2
14840KMKG MKG20070529103009305/29/07 10:30:31  5-MIN KMKG 291530Z 19010KT 10SM CLR 26/16 A3021 370 53 1700 200/10 RMK AO2
14840KMKG MKG20070529103509305/29/07 10:35:31  5-MIN KMKG 291535Z 20010KT 10SM CLR 26/16 A3021 370 53 1700 210/10 RMK AO2
14840KMKG MKG20070529104009305/29/07 10:40:31  5-MIN KMKG 291540Z 19008KT 10SM CLR 26/16 A3020 370 53 1700 190/08 RMK AO2
14840KMKG MKG20070529104509305/29/07 10:45:31  5-MIN KMKG 291545Z 19008KT 10SM CLR 25/16 A3021 370 55 1600 200/08 RMK AO2
14840KMKG MKG20070529105011005/29/07 10:50:31  5-MIN KMKG 291550Z 19007KT 10SM CLR 25/15 A3021 370 53 1600 190/07 RMK AO2 SLP227 T02500150
14840KMKG MKG20070529105511005/29/07 10:55:31  5-MIN KMKG 291555Z 21009KT 10SM CLR 26/16 A3021 370 51 1800 210/09 RMK AO2 SLP227 T02610156
14840KMKG MKG20070529110009305/29/07 11:00:31  5-MIN KMKG 291600Z 19008KT 10SM CLR 26/15 A3021 360 51 1700 200/08 RMK AO2
14840KMKG MKG20070529110509305/29/07 11:05:31  5-MIN KMKG 291605Z 18008KT 10SM CLR 26/15 A3021 360 51 1700 180/08 RMK AO2
14840KMKG MKG20070529111009305/29/07 11:10:31  5-MIN KMKG 291610Z 19009KT 10SM CLR 26/14 A3021 370 48 1800 190/09 RMK AO2
14840KMKG MKG20070529111509305/29/07 11:15:31  5-MIN KMKG 291615Z 18010KT 10SM CLR 26/15 A3021 370 51 1700 190/10 RMK AO2
14840KMKG MKG20070529112009305/29/07 11:20:31  5-MIN KMKG 291620Z 18008KT 10SM CLR 26/15 A3020 370 51 1700 180/08 RMK AO2
14840KMKG MKG20070529112509305/29/07 11:25:31  5-MIN KMKG 291625Z 19008KT 10SM CLR 26/16 A3020 370 51 1800 190/08 RMK AO2
14840KMKG MKG20070529113009905/29/07 11:30:31  5-MIN KMKG 291630Z 20011G15KT 10SM CLR 26/15 A3020 370 50 1800 200/11G15 RMK AO2
14840KMKG MKG20070529113509305/29/07 11:35:31  5-MIN KMKG 291635Z 19010KT 10SM CLR 26/16 A3020 370 51 1800 190/10 RMK AO2
14840KMKG MKG20070529114009305/29/07 11:40:31  5-MIN KMKG 291640Z 19010KT 10SM CLR 27/15 A3020 370 48 1800 190/10 RMK AO2
14840KMKG MKG20070529114509305/29/07 11:45:31  5-MIN KMKG 291645Z 18011KT 10SM CLR 27/15 A3020 370 48 1800 180/11 RMK AO2
14840KMKG MKG20070529115011005/29/07 11:50:31  5-MIN KMKG 291650Z 18010KT 10SM CLR 27/15 A3020 380 48 1800 190/10 RMK AO2 SLP224 T02670150
14840KMKG MKG20070529115511005/29/07 11:55:31  5-MIN KMKG 291655Z 17010KT 10SM CLR 27/15 A3020 380 48 1800 170/10 RMK AO2 SLP223 T02670150
14840KMKG MKG20070529120009305/29/07 12:00:31  5-MIN KMKG 291700Z 17011KT 10SM CLR 27/16 A3020 380 50 1800 180/11 RMK AO2
14840KMKG MKG20070529120509305/29/07 12:05:31  5-MIN KMKG 291705Z 18010KT 10SM CLR 27/16 A3020 380 48 1900 190/10 RMK AO2
14840KMKG MKG20070529121009205/29/07 12:10:31  5-MIN KMKG 291710Z 18011KT 9SM CLR 27/16 A3019 380 50 1900 180/11 RMK AO2
14840KMKG MKG20070529121509205/29/07 12:15:31  5-MIN KMKG 291715Z 18010KT 9SM CLR 27/16 A3019 380 52 1900 180/10 RMK AO2
14840KMKG MKG20070529122009205/29/07 12:20:31  5-MIN KMKG 291720Z 18011KT 8SM CLR 27/16 A3019 380 50 1900 180/11 RMK AO2
14840KMKG MKG20070529122509205/29/07 12:25:31  5-MIN KMKG 291725Z 18011KT 8SM CLR 28/16 A3019 380 48 2000 180/11 RMK AO2
14840KMKG MKG20070529123009205/29/07 12:30:31  5-MIN KMKG 291730Z 17012KT 8SM CLR 28/16 A3019 380 48 2000 180/12 RMK AO2
14840KMKG MKG20070529123509205/29/07 12:35:31  5-MIN KMKG 291735Z 18010KT 8SM CLR 27/16 A3019 380 50 1900 180/10 RMK AO2
14840KMKG MKG20070529124009205/29/07 12:40:31  5-MIN KMKG 291740Z 17011KT 8SM CLR 28/16 A3019 390 48 2000 180/11 RMK AO2
14840KMKG MKG20070529124509205/29/07 12:45:31  5-MIN KMKG 291745Z 20012KT 8SM CLR 28/16 A3018 390 48 2000 200/12 RMK AO2
14840KMKG MKG20070529125012705/29/07 12:50:31  5-MIN KMKG 291750Z 19010KT 8SM CLR 28/16 A3018 390 47 2100 190/10 RMK AO2 SLP218 T02830161 10283 20167 50004
14840KMKG MKG20070529125513305/29/07 12:55:31  5-MIN KMKG 291755Z 20013G17KT 8SM CLR 28/16 A3018 390 47 2100 210/13G17 RMK AO2 SLP217 T02830161 10283 20167 58013
14840KMKG MKG20070529130009805/29/07 13:00:31  5-MIN KMKG 291800Z 18012G17KT 8SM CLR 28/16 A3018 390 47 2100 190/12G17 RMK AO2
14840KMKG MKG20070529130509805/29/07 13:05:31  5-MIN KMKG 291805Z 19012G17KT 8SM CLR 28/16 A3018 390 48 2000 190/12G17 RMK AO2
14840KMKG MKG20070529131009205/29/07 13:10:31  5-MIN KMKG 291810Z 20012KT 9SM CLR 28/16 A3018 390 48 2000 200/12 RMK AO2
14840KMKG MKG20070529131509205/29/07 13:15:31  5-MIN KMKG 291815Z 18009KT 8SM CLR 28/16 A3017 400 47 2100 190/09 RMK AO2
14840KMKG MKG20070529132009205/29/07 13:20:31  5-MIN KMKG 291820Z 19011KT 8SM CLR 28/16 A3017 400 47 2100 190/11 RMK AO2
14840KMKG MKG20070529132509205/29/07 13:25:31  5-MIN KMKG 291825Z 19011KT 8SM CLR 28/16 A3017 400 47 2100 190/11 RMK AO2
14840KMKG MKG20070529133009205/29/07 13:30:31  5-MIN KMKG 291830Z 18011KT 8SM CLR 28/16 A3017 400 48 2000 180/11 RMK AO2
14840KMKG MKG20070529133509205/29/07 13:35:31  5-MIN KMKG 291835Z 19009KT 8SM CLR 28/16 A3018 400 47 2100 190/09 RMK AO2
14840KMKG MKG20070529134009205/29/07 13:40:31  5-MIN KMKG 291840Z 20012KT 8SM CLR 29/16 A3017 400 45 2100 210/12 RMK AO2
14840KMKG MKG20070529134509205/29/07 13:45:31  5-MIN KMKG 291845Z 20012KT 8SM CLR 28/16 A3017 400 45 2100 210/12 RMK AO2
14840KMKG MKG20070529135010905/29/07 13:50:31  5-MIN KMKG 291850Z 20014KT 8SM CLR 28/16 A3017 400 45 2100 200/14 RMK AO2 SLP215 T02830156
14840KMKG MKG20070529135510905/29/07 13:55:31  5-MIN KMKG 291855Z 20012KT 8SM CLR 28/16 A3017 400 45 2100 200/12 RMK AO2 SLP214 T02830156
14840KMKG MKG20070529140009205/29/07 14:00:31  5-MIN KMKG 291900Z 19012KT 7SM CLR 28/16 A3017 400 45 2100 200/12 RMK AO2
14840KMKG MKG20070529140509205/29/07 14:05:31  5-MIN KMKG 291905Z 20010KT 7SM CLR 28/16 A3017 400 45 2100 200/10 RMK AO2
14840KMKG MKG20070529141009205/29/07 14:10:31  5-MIN KMKG 291910Z 20011KT 7SM CLR 29/16 A3017 400 44 2100 200/11 RMK AO2
14840KMKG MKG20070529141509205/29/07 14:15:31  5-MIN KMKG 291915Z 19011KT 7SM CLR 28/16 A3016 400 45 2100 190/11 RMK AO2
14840KMKG MKG20070529142009205/29/07 14:20:31  5-MIN KMKG 291920Z 19008KT 7SM CLR 28/16 A3017 400 45 2100 190/08 RMK AO2
14840KMKG MKG20070529142509205/29/07 14:25:31  5-MIN KMKG 291925Z 23012KT 7SM CLR 28/16 A3016 410 47 2100 230/12 RMK AO2
14840KMKG MKG20070529143009205/29/07 14:30:31  5-MIN KMKG 291930Z 23012KT 7SM CLR 28/16 A3016 410 45 2100 230/12 RMK AO2
14840KMKG MKG20070529143509805/29/07 14:35:31  5-MIN KMKG 291935Z 22012G17KT 7SM CLR 28/16 A3016 400 45 2100 230/12G17 RMK AO2
14840KMKG MKG20070529144009205/29/07 14:40:31  5-MIN KMKG 291940Z 22010KT 7SM CLR 28/16 A3016 410 45 2100 220/10 RMK AO2
14840KMKG MKG20070529144509205/29/07 14:45:31  5-MIN KMKG 291945Z 21010KT 7SM CLR 28/16 A3016 410 48 2000 220/10 RMK AO2
14840KMKG MKG20070529145010905/29/07 14:50:31  5-MIN KMKG 291950Z 22011KT 7SM CLR 28/16 A3016 410 47 2100 220/11 RMK AO2 SLP211 T02830161
14840KMKG MKG20070529145511205/29/07 14:55:31  5-MIN KMKG 291955Z 22011KT 6SM HZ CLR 28/16 A3016 410 45 2100 220/11 RMK AO2 SLP210 T02830156
14840KMKG MKG20070529150009505/29/07 15:00:31  5-MIN KMKG 292000Z 22009KT 6SM HZ CLR 28/16 A3016 410 48 2000 220/09 RMK AO2
14840KMKG MKG20070529150509505/29/07 15:05:31  5-MIN KMKG 292005Z 19009KT 6SM HZ CLR 28/16 A3016 410 47 2100 200/09 RMK AO2
14840KMKG MKG20070529151009505/29/07 15:10:31  5-MIN KMKG 292010Z 18009KT 6SM HZ CLR 28/16 A3016 410 47 2100 190/09 RMK AO2
14840KMKG MKG20070529151509505/29/07 15:15:31  5-MIN KMKG 292015Z 22009KT 6SM HZ CLR 28/16 A3015 420 45 2100 220/09 RMK AO2
14840KMKG MKG20070529152009505/29/07 15:20:31  5-MIN KMKG 292020Z 22009KT 6SM HZ CLR 28/16 A3015 420 46 2000 220/09 RMK AO2
14840KMKG MKG20070529152509505/29/07 15:25:31  5-MIN KMKG 292025Z 22010KT 6SM HZ CLR 28/16 A3015 420 45 2100 220/10 RMK AO2
14840KMKG MKG20070529153009505/29/07 15:30:31  5-MIN KMKG 292030Z 22008KT 6SM HZ CLR 28/16 A3015 420 45 2100 220/08 RMK AO2
14840KMKG MKG20070529153509505/29/07 15:35:31  5-MIN KMKG 292035Z 22008KT 6SM HZ CLR 28/16 A3015 420 45 2100 220/08 RMK AO2
14840KMKG MKG20070529154009505/29/07 15:40:31  5-MIN KMKG 292040Z 20008KT 6SM HZ CLR 28/16 A3014 420 45 2100 200/08 RMK AO2
14840KMKG MKG20070529154509505/29/07 15:45:31  5-MIN KMKG 292045Z 20006KT 6SM HZ CLR 28/16 A3014 420 45 2100 210/06 RMK AO2
14840KMKG MKG20070529155011805/29/07 15:50:31  5-MIN KMKG 292050Z 20006KT 6SM HZ CLR 28/16 A3014 430 45 2100 210/06 RMK AO2 SLP204 T02830156 58013
14840KMKG MKG20070529155511805/29/07 15:55:31  5-MIN KMKG 292055Z 21008KT 6SM HZ CLR 28/16 A3014 430 45 2100 220/08 RMK AO2 SLP203 T02830156 58014
14840KMKG MKG20070529160010105/29/07 16:00:31  5-MIN KMKG 292100Z 22010G16KT 6SM HZ CLR 28/15 A3014 430 43 2100 220/10G16 RMK AO2
14840KMKG MKG20070529160510105/29/07 16:05:31  5-MIN KMKG 292105Z 21010G16KT 6SM HZ CLR 28/15 A3014 430 43 2100 210/10G16 RMK AO2
14840KMKG MKG20070529161009505/29/07 16:10:31  5-MIN KMKG 292110Z 21009KT 6SM HZ CLR 28/15 A3014 430 43 2100 210/09 RMK AO2
14840KMKG MKG20070529161509505/29/07 16:15:31  5-MIN KMKG 292115Z 20009KT 6SM HZ CLR 28/15 A3014 430 43 2100 200/09 RMK AO2
14840KMKG MKG20070529162009505/29/07 16:20:31  5-MIN KMKG 292120Z 20008KT 6SM HZ CLR 28/15 A3013 430 43 2100 210/08 RMK AO2
14840KMKG MKG20070529162509505/29/07 16:25:31  5-MIN KMKG 292125Z 20007KT 6SM HZ CLR 28/15 A3013 430 43 2100 200/07 RMK AO2
14840KMKG MKG20070529163009505/29/07 16:30:31  5-MIN KMKG 292130Z 21008KT 6SM HZ CLR 28/15 A3013 440 43 2100 210/08 RMK AO2
14840KMKG MKG20070529163509505/29/07 16:35:31  5-MIN KMKG 292135Z 20008KT 6SM HZ CLR 29/15 A3013 440 42 2200 200/08 RMK AO2
14840KMKG MKG20070529164009805/29/07 16:40:31  5-MIN KMKG 292140Z 19007KT 6SM HZ FEW085 28/15 A3013 440 43 2100 200/07 RMK AO2
14840KMKG MKG20070529164509505/29/07 16:45:31  5-MIN KMKG 292145Z 21008KT 6SM HZ CLR 28/15 A3013 440 43 2100 210/08 RMK AO2
14840KMKG MKG20070529165011505/29/07 16:50:31  5-MIN KMKG 292150Z 20008KT 6SM HZ FEW085 28/16 A3013 440 45 2100 210/08 RMK AO2 SLP199 T02830156
14840KMKG MKG20070529165511505/29/07 16:55:31  5-MIN KMKG 292155Z 21007KT 6SM HZ FEW085 28/15 A3013 440 43 2100 210/07 RMK AO2 SLP199 T02830150
14840KMKG MKG20070529170009805/29/07 17:00:31  5-MIN KMKG 292200Z 19007KT 6SM HZ FEW085 28/16 A3012 440 45 2100 200/07 RMK AO2
14840KMKG MKG20070529170509805/29/07 17:05:31  5-MIN KMKG 292205Z 21009KT 6SM HZ FEW085 29/16 A3012 440 44 2200 210/09 RMK AO2
14840KMKG MKG20070529171009505/29/07 17:10:31  5-MIN KMKG 292210Z 21008KT 6SM HZ CLR 28/16 A3012 450 46 2100 210/08 RMK AO2
14840KMKG MKG20070529171509805/29/07 17:15:31  5-MIN KMKG 292215Z VRB06KT 6SM HZ FEW085 28/16 A3012 450 45 2100 VRB/06 RMK AO2
14840KMKG MKG20070529172009505/29/07 17:20:31  5-MIN KMKG 292220Z 17007KT 6SM HZ CLR 28/16 A3012 450 45 2100 170/07 RMK AO2
14840KMKG MKG20070529172509505/29/07 17:25:31  5-MIN KMKG 292225Z 19008KT 6SM HZ CLR 28/16 A3012 450 45 2100 190/08 RMK AO2
14840KMKG MKG20070529173009505/29/07 17:30:31  5-MIN KMKG 292230Z 17008KT 6SM HZ CLR 28/16 A3011 450 45 2100 180/08 RMK AO2
14840KMKG MKG20070529173509505/29/07 17:35:31  5-MIN KMKG 292235Z 18007KT 6SM HZ CLR 28/16 A3011 450 46 2100 190/07 RMK AO2
14840KMKG MKG20070529174009505/29/07 17:40:31  5-MIN KMKG 292240Z 19007KT 6SM HZ CLR 28/16 A3011 460 46 2100 190/07 RMK AO2
14840KMKG MKG20070529174509505/29/07 17:45:31  5-MIN KMKG 292245Z 19006KT 6SM HZ CLR 28/16 A3011 460 46 2100 200/06 RMK AO2
14840KMKG MKG20070529175011205/29/07 17:50:31  5-MIN KMKG 292250Z 20006KT 6SM HZ CLR 28/16 A3011 460 46 2100 200/06 RMK AO2 SLP192 T02780156
14840KMKG MKG20070529175511205/29/07 17:55:31  5-MIN KMKG 292255Z 20005KT 6SM HZ CLR 28/16 A3011 460 48 2100 200/05 RMK AO2 SLP192 T02780161
14840KMKG MKG20070529180009505/29/07 18:00:31  5-MIN KMKG 292300Z 19005KT 6SM HZ CLR 28/16 A3010 460 48 2100 190/05 RMK AO2
14840KMKG MKG20070529180509505/29/07 18:05:31  5-MIN KMKG 292305Z 18005KT 6SM HZ CLR 28/16 A3010 460 48 2100 190/05 RMK AO2
14840KMKG MKG20070529181009505/29/07 18:10:31  5-MIN KMKG 292310Z 19005KT 6SM HZ CLR 28/16 A3010 460 48 2100 200/05 RMK AO2
14840KMKG MKG20070529181509505/29/07 18:15:31  5-MIN KMKG 292315Z 19005KT 6SM HZ CLR 27/16 A3010 460 50 2000 190/05 RMK AO2
14840KMKG MKG20070529182009505/29/07 18:20:31  5-MIN KMKG 292320Z 19005KT 6SM HZ CLR 28/16 A3010 460 48 2100 200/05 RMK AO2
14840KMKG MKG20070529182509505/29/07 18:25:31  5-MIN KMKG 292325Z 19005KT 6SM HZ CLR 27/16 A3010 460 50 2000 200/05 RMK AO2
14840KMKG MKG20070529183009505/29/07 18:30:31  5-MIN KMKG 292330Z 19004KT 6SM HZ CLR 27/16 A3010 460 50 2000 200/04 RMK AO2
14840KMKG MKG20070529183509505/29/07 18:35:31  5-MIN KMKG 292335Z 20005KT 6SM HZ CLR 27/16 A3010 460 50 2000 200/05 RMK AO2
14840KMKG MKG20070529184009505/29/07 18:40:31  5-MIN KMKG 292340Z 19005KT 6SM HZ CLR 27/16 A3010 460 50 2000 190/05 RMK AO2
14840KMKG MKG20070529184509505/29/07 18:45:31  5-MIN KMKG 292345Z 19005KT 6SM HZ CLR 27/16 A3010 460 50 2000 190/05 RMK AO2
14840KMKG MKG20070529185013005/29/07 18:50:31  5-MIN KMKG 292350Z 18005KT 6SM HZ CLR 27/16 A3010 460 52 2000 180/05 RMK AO2 SLP190 T02670161 10289 20267 58014
14840KMKG MKG20070529185513005/29/07 18:55:31  5-MIN KMKG 292355Z 17005KT 6SM HZ CLR 27/16 A3010 470 52 2000 180/05 RMK AO2 SLP189 T02670161 10289 20267 56014
14840KMKG MKG20070529190009505/29/07 19:00:31  5-MIN KMKG 300000Z 17005KT 6SM HZ CLR 27/16 A3010 470 52 2000 180/05 RMK AO2
14840KMKG MKG20070529190509505/29/07 19:05:31  5-MIN KMKG 300005Z 17004KT 6SM HZ CLR 27/16 A3010 470 52 2000 180/04 RMK AO2
14840KMKG MKG20070529191009505/29/07 19:10:31  5-MIN KMKG 300010Z 18004KT 6SM HZ CLR 27/16 A3010 470 52 2000 180/04 RMK AO2
14840KMKG MKG20070529191509505/29/07 19:15:31  5-MIN KMKG 300015Z 17004KT 6SM HZ CLR 26/16 A3010 470 53 1900 180/04 RMK AO2
14840KMKG MKG20070529192011205/29/07 19:20:31  5-MIN KMKG 300020Z 17003KT 6SM HZ CLR 26/16 A3010 470 53 1900 180/03 RMK AO2 VIS 2 1/2 RWY 14
14840KMKG MKG20070529192511205/29/07 19:25:31  5-MIN KMKG 300025Z 17003KT 6SM HZ CLR 26/16 A3010 470 53 1900 180/03 RMK AO2 VIS 2 1/2 RWY 14
14840KMKG MKG20070529193011205/29/07 19:30:31  5-MIN KMKG 300030Z 18003KT 6SM HZ CLR 26/16 A3010 460 53 1900 180/03 RMK AO2 VIS 2 1/2 RWY 14
14840KMKG MKG20070529193511205/29/07 19:35:31  5-MIN KMKG 300035Z 00000KT 6SM HZ CLR 26/16 A3010 460 53 1900 000/00 RMK AO2 VIS 2 1/2 RWY 14
14840KMKG MKG20070529194011205/29/07 19:40:31  5-MIN KMKG 300040Z 00000KT 6SM HZ CLR 26/16 A3010 460 55 1800 000/00 RMK AO2 VIS 2 1/2 RWY 14
14840KMKG MKG20070529194511205/29/07 19:45:31  5-MIN KMKG 300045Z 00000KT 6SM HZ CLR 26/16 A3010 460 55 1800 000/00 RMK AO2 VIS 2 1/2 RWY 14
14840KMKG MKG20070529195012905/29/07 19:50:31  5-MIN KMKG 300050Z 00000KT 5SM HZ CLR 26/16 A3011 460 55 1800 000/00 RMK AO2 VIS 2 1/2 RWY 14 SLP192 T02560161
14840KMKG MKG20070529195512905/29/07 19:55:31  5-MIN KMKG 300055Z 00000KT 5SM HZ CLR 25/16 A3011 460 57 1800 000/00 RMK AO2 VIS 2 1/2 RWY 14 SLP192 T02500161
14840KMKG MKG20070529200011205/29/07 20:00:31  5-MIN KMKG 300100Z 00000KT 5SM HZ CLR 25/16 A3011 460 57 1800 000/00 RMK AO2 VIS 2 1/2 RWY 14
14840KMKG MKG20070529200511205/29/07 20:05:31  5-MIN KMKG 300105Z 00000KT 5SM HZ CLR 25/17 A3011 460 59 1800 000/00 RMK AO2 VIS 2 1/2 RWY 14
14840KMKG MKG20070529201011205/29/07 20:10:31  5-MIN KMKG 300110Z 00000KT 5SM HZ CLR 24/17 A3011 460 63 1600 000/00 RMK AO2 VIS 2 1/2 RWY 14
14840KMKG MKG20070529201511205/29/07 20:15:31  5-MIN KMKG 300115Z 00000KT 5SM HZ CLR 24/17 A3011 460 61 1700 000/00 RMK AO2 VIS 2 1/2 RWY 14
14840KMKG MKG20070529202011205/29/07 20:20:31  5-MIN KMKG 300120Z 00000KT 5SM HZ CLR 23/17 A3011 460 66 1600 000/00 RMK AO2 VIS 2 1/2 RWY 14
14840KMKG MKG20070529202511205/29/07 20:25:31  5-MIN KMKG 300125Z 00000KT 5SM HZ CLR 24/17 A3011 450 63 1600 000/00 RMK AO2 VIS 2 1/2 RWY 14
14840KMKG MKG20070529203011205/29/07 20:30:31  5-MIN KMKG 300130Z 00000KT 5SM HZ CLR 23/17 A3011 450 66 1600 000/00 RMK AO2 VIS 2 1/2 RWY 14
14840KMKG MKG20070529203509505/29/07 20:35:31  5-MIN KMKG 300135Z 00000KT 5SM HZ CLR 23/17 A3011 450 66 1600 000/00 RMK AO2
14840KMKG MKG20070529204009505/29/07 20:40:31  5-MIN KMKG 300140Z 00000KT 6SM HZ CLR 23/17 A3011 460 66 1600 000/00 RMK AO2
14840KMKG MKG20070529204509505/29/07 20:45:31  5-MIN KMKG 300145Z 00000KT 6SM HZ CLR 24/17 A3011 460 63 1600 000/00 RMK AO2
14840KMKG MKG20070529205011205/29/07 20:50:31  5-MIN KMKG 300150Z 00000KT 6SM HZ CLR 24/17 A3011 450 63 1600 000/00 RMK AO2 SLP193 T02390167
14840KMKG MKG20070529205511205/29/07 20:55:31  5-MIN KMKG 300155Z 00000KT 6SM HZ CLR 23/17 A3011 450 66 1600 000/00 RMK AO2 SLP193 T02330167
14840KMKG MKG20070529210009505/29/07 21:00:31  5-MIN KMKG 300200Z 00000KT 6SM HZ CLR 23/17 A3011 450 68 1500 000/00 RMK AO2
14840KMKG MKG20070529210509505/29/07 21:05:31  5-MIN KMKG 300205Z 00000KT 6SM HZ CLR 23/17 A3011 450 68 1500 000/00 RMK AO2
14840KMKG MKG20070529211009505/29/07 21:10:31  5-MIN KMKG 300210Z 00000KT 5SM HZ CLR 22/17 A3011 450 73 1400 000/00 RMK AO2
14840KMKG MKG20070529211509505/29/07 21:15:31  5-MIN KMKG 300215Z 00000KT 5SM HZ CLR 22/17 A3012 450 73 1400 000/00 RMK AO2
14840KMKG MKG20070529212009505/29/07 21:20:31  5-MIN KMKG 300220Z 00000KT 5SM HZ CLR 22/17 A3012 450 73 1400 000/00 RMK AO2
14840KMKG MKG20070529212509505/29/07 21:25:31  5-MIN KMKG 300225Z 00000KT 5SM HZ CLR 23/17 A3012 450 70 1500 000/00 RMK AO2
14840KMKG MKG20070529213009505/29/07 21:30:31  5-MIN KMKG 300230Z 00000KT 5SM HZ CLR 23/17 A3012 450 70 1500 000/00 RMK AO2
14840KMKG MKG20070529213509505/29/07 21:35:31  5-MIN KMKG 300235Z 00000KT 5SM HZ CLR 23/17 A3012 450 70 1500 000/00 RMK AO2
14840KMKG MKG20070529214009505/29/07 21:40:31  5-MIN KMKG 300240Z 00000KT 5SM HZ CLR 23/17 A3012 450 70 1500 000/00 RMK AO2
14840KMKG MKG20070529214509505/29/07 21:45:31  5-MIN KMKG 300245Z 00000KT 5SM HZ CLR 22/17 A3012 450 73 1400 000/00 RMK AO2
14840KMKG MKG20070529215011805/29/07 21:50:31  5-MIN KMKG 300250Z 00000KT 5SM HZ CLR 22/17 A3012 450 73 1400 000/00 RMK AO2 SLP196 T02220172 56014
14840KMKG MKG20070529215511805/29/07 21:55:31  5-MIN KMKG 300255Z 12003KT 5SM HZ CLR 21/17 A3012 450 78 1300 120/03 RMK AO2 SLP196 T02110172 51007
14840KMKG MKG20070529220009505/29/07 22:00:31  5-MIN KMKG 300300Z 12003KT 5SM HZ CLR 21/17 A3012 450 81 1200 130/03 RMK AO2
14840KMKG MKG20070529220509505/29/07 22:05:31  5-MIN KMKG 300305Z 12004KT 4SM HZ CLR 21/17 A3012 450 81 1200 130/04 RMK AO2
14840KMKG MKG20070529221011205/29/07 22:10:31  5-MIN KMKG 300310Z 12004KT 4SM HZ CLR 21/17 A3012 450 78 1300 130/04 RMK AO2 VIS 2 1/2 RWY 14
14840KMKG MKG20070529221511205/29/07 22:15:31  5-MIN KMKG 300315Z 13004KT 4SM HZ CLR 21/17 A3012 450 78 1300 130/04 RMK AO2 VIS 2 1/2 RWY 14
14840KMKG MKG20070529222011205/29/07 22:20:31  5-MIN KMKG 300320Z 13004KT 4SM HZ CLR 21/18 A3012 450 81 1300 130/04 RMK AO2 VIS 2 1/2 RWY 14
14840KMKG MKG20070529222511205/29/07 22:25:31  5-MIN KMKG 300325Z 13004KT 4SM HZ CLR 21/18 A3012 450 81 1300 140/04 RMK AO2 VIS 2 1/2 RWY 14
14840KMKG MKG20070529223011205/29/07 22:30:31  5-MIN KMKG 300330Z 14004KT 5SM HZ CLR 21/18 A3012 450 81 1300 140/04 RMK AO2 VIS 2 1/2 RWY 14
14840KMKG MKG20070529223511205/29/07 22:35:31  5-MIN KMKG 300335Z 14004KT 5SM HZ CLR 21/18 A3012 450 81 1300 150/04 RMK AO2 VIS 2 1/2 RWY 14
14840KMKG MKG20070529224011205/29/07 22:40:31  5-MIN KMKG 300340Z 14004KT 5SM HZ CLR 21/17 A3012 450 78 1300 140/04 RMK AO2 VIS 2 1/2 RWY 14
14840KMKG MKG20070529224511205/29/07 22:45:31  5-MIN KMKG 300345Z 14005KT 5SM HZ CLR 21/17 A3012 450 78 1300 140/05 RMK AO2 VIS 2 1/2 RWY 14
14840KMKG MKG20070529225012905/29/07 22:50:31  5-MIN KMKG 300350Z 14005KT 5SM HZ CLR 21/17 A3012 450 78 1300 140/05 RMK AO2 VIS 2 1/2 RWY 14 SLP195 T02110172
14840KMKG MKG20070529225512905/29/07 22:55:31  5-MIN KMKG 300355Z 14005KT 5SM HZ CLR 21/17 A3012 450 78 1300 140/05 RMK AO2 VIS 2 1/2 RWY 14 SLP196 T02110172
14840KMKG MKG20070529230009505/29/07 23:00:31  5-MIN KMKG 300400Z 14005KT 5SM HZ CLR 21/17 A3012 450 78 1300 140/05 RMK AO2
14840KMKG MKG20070529230509505/29/07 23:05:31  5-MIN KMKG 300405Z 14004KT 5SM HZ CLR 21/17 A3012 450 78 1300 140/04 RMK AO2
14840KMKG MKG20070529231009505/29/07 23:10:31  5-MIN KMKG 300410Z 13005KT 5SM HZ CLR 21/17 A3012 450 78 1300 140/05 RMK AO2
14840KMKG MKG20070529231509505/29/07 23:15:31  5-MIN KMKG 300415Z 13004KT 5SM HZ CLR 21/17 A3012 450 78 1300 140/04 RMK AO2
14840KMKG MKG20070529232009505/29/07 23:20:31  5-MIN KMKG 300420Z 13004KT 5SM HZ CLR 21/17 A3012 450 78 1300 130/04 RMK AO2
14840KMKG MKG20070529232509505/29/07 23:25:31  5-MIN KMKG 300425Z 13004KT 5SM HZ CLR 21/17 A3012 450 78 1300 130/04 RMK AO2
14840KMKG MKG20070529233009505/29/07 23:30:31  5-MIN KMKG 300430Z 12004KT 5SM HZ CLR 21/17 A3012 450 78 1300 130/04 RMK AO2
14840KMKG MKG20070529233509505/29/07 23:35:31  5-MIN KMKG 300435Z 13003KT 5SM HZ CLR 22/17 A3012 450 75 1400 130/03 RMK AO2
14840KMKG MKG20070529234009505/29/07 23:40:31  5-MIN KMKG 300440Z 13003KT 5SM HZ CLR 21/17 A3012 450 78 1300 140/03 RMK AO2
14840KMKG MKG20070529234511205/29/07 23:45:31  5-MIN KMKG 300445Z 14004KT 5SM HZ CLR 21/17 A3012 450 81 1200 140/04 RMK AO2 VIS 2 1/2 RWY 14
14840KMKG MKG20070529235013905/29/07 23:50:31  5-MIN KMKG 300450Z 14004KT 5SM HZ CLR 21/17 A3012 450 78 1300 150/04 RMK AO2 VIS 2 1/2 RWY 14 SLP197 T02110172 402890139
14840KMKG MKG20070529235513905/29/07 23:55:31  5-MIN KMKG 300455Z 14005KT 5SM HZ CLR 21/17 A3012 450 75 1300 150/05 RMK AO2 VIS 2 1/2 RWY 14 SLP196 T02110167 402890139
14840KMKG MKG20070530000011205/30/07 00:00:32  5-MIN KMKG 300500Z 14005KT 5SM HZ CLR 21/17 A3012 450 75 1300 150/05 RMK AO2 VIS 2 1/2 RWY 14
14840KMKG MKG20070530000511205/30/07 00:05:31  5-MIN KMKG 300505Z 15005KT 5SM HZ CLR 21/17 A3012 450 75 1300 150/05 RMK AO2 VIS 2 1/2 RWY 14
14840KMKG MKG20070530001009505/30/07 00:10:31  5-MIN KMKG 300510Z 15005KT 5SM HZ CLR 21/17 A3012 440 75 1300 150/05 RMK AO2
14840KMKG MKG20070530001509505/30/07 00:15:31  5-MIN KMKG 300515Z 15006KT 5SM HZ CLR 21/17 A3012 450 75 1300 150/06 RMK AO2
14840KMKG MKG20070530002009505/30/07 00:20:31  5-MIN KMKG 300520Z 15005KT 5SM HZ CLR 21/17 A3012 450 75 1300 150/05 RMK AO2
14840KMKG MKG20070530002509505/30/07 00:25:31  5-MIN KMKG 300525Z 15005KT 5SM HZ CLR 21/17 A3012 450 75 1300 150/05 RMK AO2
14840KMKG MKG20070530003009505/30/07 00:30:31  5-MIN KMKG 300530Z 15006KT 5SM HZ CLR 21/17 A3012 450 75 1300 150/06 RMK AO2
14840KMKG MKG20070530003509505/30/07 00:35:31  5-MIN KMKG 300535Z 15006KT 5SM HZ CLR 21/17 A3012 440 75 1300 150/06 RMK AO2
14840KMKG MKG20070530004009505/30/07 00:40:31  5-MIN KMKG 300540Z 15006KT 5SM HZ CLR 22/17 A3012 440 73 1400 150/06 RMK AO2
14840KMKG MKG20070530004509505/30/07 00:45:31  5-MIN KMKG 300545Z 15006KT 5SM HZ CLR 22/17 A3012 440 73 1400 150/06 RMK AO2
14840KMKG MKG20070530005013005/30/07 00:50:31  5-MIN KMKG 300550Z 15006KT 5SM HZ CLR 22/17 A3012 440 73 1400 160/06 RMK AO2 SLP196 T02170167 10267 20206 51007
14840KMKG MKG20070530005513005/30/07 00:55:31  5-MIN KMKG 300555Z 15005KT 5SM HZ CLR 22/17 A3012 440 73 1400 160/05 RMK AO2 SLP196 T02170167 10267 20206 53001
14840KMKG MKG20070530010009505/30/07 01:00:31  5-MIN KMKG 300600Z 15006KT 5SM HZ CLR 22/17 A3012 440 73 1400 150/06 RMK AO2
14840KMKG MKG20070530010509505/30/07 01:05:31  5-MIN KMKG 300605Z 14006KT 5SM HZ CLR 21/17 A3012 450 75 1300 150/06 RMK AO2
14840KMKG MKG20070530011009505/30/07 01:10:31  5-MIN KMKG 300610Z 14006KT 5SM HZ CLR 21/17 A3012 450 75 1300 150/06 RMK AO2
14840KMKG MKG20070530011509505/30/07 01:15:31  5-MIN KMKG 300615Z 14006KT 5SM HZ CLR 21/17 A3012 450 75 1300 150/06 RMK AO2
14840KMKG MKG20070530012009505/30/07 01:20:31  5-MIN KMKG 300620Z 14006KT 5SM HZ CLR 21/17 A3012 450 75 1300 150/06 RMK AO2
14840KMKG MKG20070530012509505/30/07 01:25:31  5-MIN KMKG 300625Z 14006KT 5SM HZ CLR 21/17 A3012 450 75 1300 150/06 RMK AO2
14840KMKG MKG20070530013011205/30/07 01:30:31  5-MIN KMKG 300630Z 15006KT 5SM HZ CLR 21/17 A3012 450 75 1300 150/06 RMK AO2 VIS 2 1/2 RWY 14
14840KMKG MKG20070530013511205/30/07 01:35:31  5-MIN KMKG 300635Z 15006KT 5SM HZ CLR 21/17 A3012 450 75 1300 150/06 RMK AO2 VIS 2 1/2 RWY 14
14840KMKG MKG20070530014011505/30/07 01:40:31  5-MIN KMKG 300640Z 15006KT 5SM HZ FEW120 21/16 A3012 450 73 1300 150/06 RMK AO2 VIS 2 1/2 RWY 14
14840KMKG MKG20070530014509805/30/07 01:45:31  5-MIN KMKG 300645Z 15006KT 5SM HZ FEW120 21/16 A3012 450 73 1300 150/06 RMK AO2
14840KMKG MKG20070530015011505/30/07 01:50:31  5-MIN KMKG 300650Z 14006KT 5SM HZ FEW120 21/16 A3012 450 73 1300 150/06 RMK AO2 SLP194 T02110161
14840KMKG MKG20070530015511505/30/07 01:55:31  5-MIN KMKG 300655Z 14007KT 5SM HZ FEW120 21/16 A3011 450 73 1300 150/07 RMK AO2 SLP193 T02110161
14840KMKG MKG20070530020011505/30/07 02:00:31  5-MIN KMKG 300700Z 14007KT 5SM HZ FEW120 21/16 A3011 450 73 1300 150/07 RMK AO2 VIS 2 1/2 RWY 14
14840KMKG MKG20070530020511505/30/07 02:05:31  5-MIN KMKG 300705Z 15007KT 5SM HZ FEW120 21/16 A3011 450 73 1300 150/07 RMK AO2 VIS 2 1/2 RWY 14
14840KMKG MKG20070530021011505/30/07 02:10:31  5-MIN KMKG 300710Z 14006KT 5SM HZ FEW120 21/16 A3011 450 73 1300 150/06 RMK AO2 VIS 2 1/2 RWY 14
14840KMKG MKG20070530021511205/30/07 02:15:31  5-MIN KMKG 300715Z 15007KT 5SM HZ CLR 21/16 A3011 450 73 1300 150/07 RMK AO2 VIS 2 1/2 RWY 14
14840KMKG MKG20070530022009505/30/07 02:20:31  5-MIN KMKG 300720Z 15007KT 5SM HZ CLR 21/16 A3011 450 73 1300 150/07 RMK AO2
14840KMKG MKG20070530022509505/30/07 02:25:31  5-MIN KMKG 300725Z 14007KT 5SM HZ CLR 21/16 A3011 450 75 1200 150/07 RMK AO2
14840KMKG MKG20070530023009505/30/07 02:30:31  5-MIN KMKG 300730Z 14006KT 5SM HZ CLR 21/16 A3011 460 75 1200 140/06 RMK AO2
14840KMKG MKG20070530023509505/30/07 02:35:31  5-MIN KMKG 300735Z 14006KT 5SM HZ CLR 20/16 A3011 450 78 1200 140/06 RMK AO2
14840KMKG MKG20070530024009505/30/07 02:40:31  5-MIN KMKG 300740Z 13006KT 5SM HZ CLR 19/16 A3011 460 81 1100 140/06 RMK AO2
14840KMKG MKG20070530024509505/30/07 02:45:31  5-MIN KMKG 300745Z 13006KT 5SM HZ CLR 19/16 A3011 450 81 1100 140/06 RMK AO2
14840KMKG MKG20070530025011205/30/07 02:50:31  5-MIN KMKG 300750Z 13006KT 5SM HZ CLR 19/16 A3011 460 81 1100 130/06 RMK AO2 SLP193 T01940161
14840KMKG MKG20070530025511205/30/07 02:55:31  5-MIN KMKG 300755Z 13006KT 5SM HZ CLR 19/16 A3011 460 81 1100 130/06 RMK AO2 SLP193 T01940161
14840KMKG MKG20070530030009505/30/07 03:00:31  5-MIN KMKG 300800Z 12005KT 5SM HZ CLR 19/16 A3011 460 84 1100 130/05 RMK AO2
14840KMKG MKG20070530030509505/30/07 03:05:31  5-MIN KMKG 300805Z 13006KT 5SM HZ CLR 19/16 A3011 460 84 1100 130/06 RMK AO2
14840KMKG MKG20070530031009505/30/07 03:10:31  5-MIN KMKG 300810Z 13006KT 5SM HZ CLR 19/16 A3011 460 84 1100 130/06 RMK AO2
14840KMKG MKG20070530031509505/30/07 03:15:31  5-MIN KMKG 300815Z 13005KT 5SM HZ CLR 19/16 A3011 460 84 1100 130/05 RMK AO2
14840KMKG MKG20070530032009505/30/07 03:20:31  5-MIN KMKG 300820Z 13006KT 5SM HZ CLR 19/16 A3011 460 84 1100 140/06 RMK AO2
14840KMKG MKG20070530032509505/30/07 03:25:31  5-MIN KMKG 300825Z 14005KT 5SM HZ CLR 19/16 A3011 460 84 1100 140/05 RMK AO2
14840KMKG MKG20070530033009505/30/07 03:30:31  5-MIN KMKG 300830Z 14006KT 5SM HZ CLR 19/16 A3011 460 81 1100 140/06 RMK AO2
14840KMKG MKG20070530033509505/30/07 03:35:31  5-MIN KMKG 300835Z 14006KT 5SM HZ CLR 19/16 A3010 460 81 1100 140/06 RMK AO2
14840KMKG MKG20070530034009505/30/07 03:40:31  5-MIN KMKG 300840Z 14006KT 5SM HZ CLR 19/16 A3010 460 81 1100 140/06 RMK AO2
14840KMKG MKG20070530034509505/30/07 03:45:31  5-MIN KMKG 300845Z 14006KT 5SM HZ CLR 19/16 A3011 460 81 1100 150/06 RMK AO2
14840KMKG MKG20070530035011805/30/07 03:50:31  5-MIN KMKG 300850Z 14006KT 5SM HZ CLR 19/16 A3011 460 78 1100 140/06 RMK AO2 SLP191 T01940156 53001
14840KMKG MKG20070530035511805/30/07 03:55:31  5-MIN KMKG 300855Z 14007KT 5SM HZ CLR 19/16 A3011 460 81 1100 150/07 RMK AO2 SLP192 T01940161 56005
14840KMKG MKG20070530040009505/30/07 04:00:31  5-MIN KMKG 300900Z 14006KT 5SM HZ CLR 19/16 A3011 460 81 1100 150/06 RMK AO2
14840KMKG MKG20070530040509505/30/07 04:05:31  5-MIN KMKG 300905Z 15006KT 6SM HZ CLR 19/16 A3011 460 78 1100 150/06 RMK AO2
14840KMKG MKG20070530041009505/30/07 04:10:31  5-MIN KMKG 300910Z 14006KT 6SM HZ CLR 19/16 A3011 460 78 1100 150/06 RMK AO2
14840KMKG MKG20070530041509505/30/07 04:15:31  5-MIN KMKG 300915Z 14006KT 6SM HZ CLR 19/16 A3011 460 78 1100 150/06 RMK AO2
14840KMKG MKG20070530042009505/30/07 04:20:31  5-MIN KMKG 300920Z 15005KT 6SM HZ CLR 19/16 A3011 460 78 1100 150/05 RMK AO2
14840KMKG MKG20070530042509505/30/07 04:25:31  5-MIN KMKG 300925Z 14007KT 6SM HZ CLR 19/16 A3011 460 78 1100 140/07 RMK AO2
14840KMKG MKG20070530043009505/30/07 04:30:31  5-MIN KMKG 300930Z 14005KT 6SM HZ CLR 19/16 A3011 460 78 1100 140/05 RMK AO2
14840KMKG MKG20070530043509505/30/07 04:35:31  5-MIN KMKG 300935Z 14006KT 5SM HZ CLR 19/16 A3011 460 81 1100 140/06 RMK AO2
14840KMKG MKG20070530044009505/30/07 04:40:31  5-MIN KMKG 300940Z 14005KT 5SM HZ CLR 19/16 A3011 460 81 1100 150/05 RMK AO2
14840KMKG MKG20070530044509505/30/07 04:45:31  5-MIN KMKG 300945Z 15004KT 5SM HZ CLR 19/16 A3011 460 81 1100 160/04 RMK AO2
14840KMKG MKG20070530045011205/30/07 04:50:31  5-MIN KMKG 300950Z 16004KT 5SM HZ CLR 19/16 A3011 450 78 1100 160/04 RMK AO2 SLP193 T01940156
14840KMKG MKG20070530045511205/30/07 04:55:31  5-MIN KMKG 300955Z 16004KT 5SM HZ CLR 19/16 A3011 450 78 1100 160/04 RMK AO2 SLP194 T01940156
14840KMKG MKG20070530050009505/30/07 05:00:31  5-MIN KMKG 301000Z 15004KT 5SM HZ CLR 19/16 A3011 450 78 1100 160/04 RMK AO2
14840KMKG MKG20070530050509505/30/07 05:05:31  5-MIN KMKG 301005Z 15003KT 5SM HZ CLR 19/16 A3011 450 78 1100 160/03 RMK AO2
14840KMKG MKG20070530051011205/30/07 05:10:31  5-MIN KMKG 301010Z 00000KT 5SM HZ CLR 19/16 A3011 450 78 1100 000/00 RMK AO2 VIS 2 1/2 RWY 14
14840KMKG MKG20070530051510805/30/07 05:15:31  5-MIN KMKG 301015Z 00000KT 4SM HZ CLR 18/16 A3011 450 84 1000 000/00 RMK AO2 VIS 2 RWY 14
14840KMKG MKG20070530052010805/30/07 05:20:31  5-MIN KMKG 301020Z 13003KT 4SM HZ CLR 18/16 A3012 450 84 1000 130/03 RMK AO2 VIS 2 RWY 14
14840KMKG MKG20070530052510705/30/07 05:25:31  5-MIN KMKG 301025Z 14003KT 3SM HZ CLR 18/15 A3012 450 83 900 140/03 RMK AO2 VIS 2 RWY 14
14840KMKG MKG20070530053010705/30/07 05:30:31  5-MIN KMKG 301030Z 00000KT 3SM HZ CLR 18/15 A3012 450 83 900 000/00 RMK AO2 VIS 2 RWY 14
14840KMKG MKG20070530053510805/30/07 05:35:31  5-MIN KMKG 301035Z 00000KT 3SM HZ CLR 18/16 A3012 450 84 1000 000/00 RMK AO2 VIS 2 RWY 14
14840KMKG MKG20070530054010805/30/07 05:40:31  5-MIN KMKG 301040Z 15003KT 4SM HZ CLR 18/16 A3012 440 84 1000 160/03 RMK AO2 VIS 2 RWY 14
14840KMKG MKG20070530054510805/30/07 05:45:31  5-MIN KMKG 301045Z 14003KT 4SM HZ CLR 19/16 A3012 450 81 1000 150/03 RMK AO2 VIS 2 RWY 14
14840KMKG MKG20070530055012505/30/07 05:50:31  5-MIN KMKG 301050Z 15003KT 4SM HZ CLR 19/16 A3012 440 81 1000 160/03 RMK AO2 VIS 2 RWY 14 SLP197 T01890156
14840KMKG MKG20070530055512905/30/07 05:55:31  5-MIN KMKG 301055Z 16003KT 4SM HZ CLR 19/16 A3012 440 81 1000 170/03 RMK AO2 VIS 1 3/4 RWY 14 SLP198 T01890156
14840KMKG MKG20070530060011205/30/07 06:00:31  5-MIN KMKG 301100Z 00000KT 4SM HZ CLR 19/16 A3012 440 78 1100 000/00 RMK AO2 VIS 1 3/4 RWY 14
14840KMKG MKG20070530060511205/30/07 06:05:31  5-MIN KMKG 301105Z 16003KT 4SM HZ CLR 19/16 A3013 440 81 1100 170/03 RMK AO2 VIS 1 3/4 RWY 14
14840KMKG MKG20070530061011205/30/07 06:10:31  5-MIN KMKG 301110Z 16003KT 4SM HZ CLR 19/16 A3013 440 81 1100 170/03 RMK AO2 VIS 1 3/4 RWY 14
14840KMKG MKG20070530061511205/30/07 06:15:31  5-MIN KMKG 301115Z 16003KT 4SM HZ CLR 19/16 A3013 440 81 1100 160/03 RMK AO2 VIS 1 3/4 RWY 14
14840KMKG MKG20070530062011205/30/07 06:20:31  5-MIN KMKG 301120Z 00000KT 4SM HZ CLR 20/16 A3013 440 78 1200 000/00 RMK AO2 VIS 1 3/4 RWY 14
14840KMKG MKG20070530062511205/30/07 06:25:31  5-MIN KMKG 301125Z 16004KT 4SM HZ CLR 20/16 A3013 440 78 1200 170/04 RMK AO2 VIS 1 3/4 RWY 14
14840KMKG MKG20070530063010805/30/07 06:30:31  5-MIN KMKG 301130Z 17003KT 4SM HZ CLR 21/16 A3013 440 75 1200 170/03 RMK AO2 VIS 2 RWY 14
14840KMKG MKG20070530063510805/30/07 06:35:31  5-MIN KMKG 301135Z 17003KT 4SM HZ CLR 21/16 A3013 440 75 1200 170/03 RMK AO2 VIS 2 RWY 14
14840KMKG MKG20070530064010805/30/07 06:40:31  5-MIN KMKG 301140Z 17004KT 4SM HZ CLR 21/16 A3013 440 73 1300 170/04 RMK AO2 VIS 2 RWY 14
14840KMKG MKG20070530064510805/30/07 06:45:31  5-MIN KMKG 301145Z 16003KT 4SM HZ CLR 21/16 A3013 430 73 1300 160/03 RMK AO2 VIS 2 RWY 14
14840KMKG MKG20070530065014305/30/07 06:50:31  5-MIN KMKG 301150Z 15003KT 4SM HZ CLR 22/16 A3013 430 70 1400 160/03 RMK AO2 VIS 2 RWY 14 SLP200 T02170161 10217 20178 56005
14840KMKG MKG20070530065514305/30/07 06:55:31  5-MIN KMKG 301155Z 16004KT 4SM HZ CLR 22/16 A3013 440 70 1400 170/04 RMK AO2 VIS 2 RWY 14 SLP199 T02170161 10217 20178 52008
14840KMKG MKG20070530070010805/30/07 07:00:31  5-MIN KMKG 301200Z 17004KT 4SM HZ CLR 22/16 A3013 430 70 1400 170/04 RMK AO2 VIS 2 RWY 14
14840KMKG MKG20070530070510805/30/07 07:05:31  5-MIN KMKG 301205Z 17004KT 4SM HZ CLR 22/16 A3013 440 68 1400 180/04 RMK AO2 VIS 2 RWY 14
14840KMKG MKG20070530071010805/30/07 07:10:31  5-MIN KMKG 301210Z 17005KT 4SM HZ CLR 22/16 A3013 440 68 1400 180/05 RMK AO2 VIS 2 RWY 14
14840KMKG MKG20070530071510805/30/07 07:15:31  5-MIN KMKG 301215Z 18004KT 4SM HZ CLR 22/16 A3013 440 68 1400 190/04 RMK AO2 VIS 2 RWY 14
14840KMKG MKG20070530072010805/30/07 07:20:31  5-MIN KMKG 301220Z 18004KT 4SM HZ CLR 23/16 A3013 440 65 1500 190/04 RMK AO2 VIS 2 RWY 14
14840KMKG MKG20070530072510805/30/07 07:25:31  5-MIN KMKG 301225Z 17005KT 4SM HZ CLR 23/17 A3013 440 68 1500 180/05 RMK AO2 VIS 2 RWY 14
14840KMKG MKG20070530073010805/30/07 07:30:31  5-MIN KMKG 301230Z 18003KT 4SM HZ CLR 23/17 A3013 440 66 1500 180/03 RMK AO2 VIS 2 RWY 14
14840KMKG MKG20070530073510805/30/07 07:35:31  5-MIN KMKG 301235Z 18004KT 4SM HZ CLR 23/17 A3013 440 66 1500 180/04 RMK AO2 VIS 2 RWY 14
14840KMKG MKG20070530074010805/30/07 07:40:31  5-MIN KMKG 301240Z 19006KT 4SM HZ CLR 23/17 A3013 440 66 1500 200/06 RMK AO2 VIS 2 RWY 14
14840KMKG MKG20070530074510805/30/07 07:45:31  5-MIN KMKG 301245Z 20007KT 4SM HZ CLR 24/17 A3013 440 63 1600 200/07 RMK AO2 VIS 2 RWY 14
14840KMKG MKG20070530075012505/30/07 07:50:31  5-MIN KMKG 301250Z 19006KT 4SM HZ CLR 24/16 A3013 440 61 1600 200/06 RMK AO2 VIS 2 RWY 14 SLP199 T02390161
14840KMKG MKG20070530075512505/30/07 07:55:31  5-MIN KMKG 301255Z 19006KT 4SM HZ CLR 24/16 A3013 440 61 1600 200/06 RMK AO2 VIS 2 RWY 14 SLP199 T02390161
14840KMKG MKG20070530080010805/30/07 08:00:31  5-MIN KMKG 301300Z 19005KT 4SM HZ CLR 24/17 A3013 440 61 1700 190/05 RMK AO2 VIS 2 RWY 14
14840KMKG MKG20070530080511205/30/07 08:05:31  5-MIN KMKG 301305Z 19006KT 5SM HZ CLR 24/16 A3013 440 59 1700 190/06 RMK AO2 VIS 2 1/2 RWY 14
14840KMKG MKG20070530081011205/30/07 08:10:31  5-MIN KMKG 301310Z 20006KT 5SM HZ CLR 24/16 A3013 440 59 1700 210/06 RMK AO2 VIS 2 1/2 RWY 14
14840KMKG MKG20070530081511205/30/07 08:15:31  5-MIN KMKG 301315Z 20006KT 5SM HZ CLR 24/16 A3013 430 59 1700 200/06 RMK AO2 VIS 2 1/2 RWY 14
14840KMKG MKG20070530082011205/30/07 08:20:31  5-MIN KMKG 301320Z 19008KT 5SM HZ CLR 24/16 A3013 430 59 1700 190/08 RMK AO2 VIS 2 1/2 RWY 14
14840KMKG MKG20070530082511205/30/07 08:25:31  5-MIN KMKG 301325Z 20008KT 5SM HZ CLR 25/16 A3013 430 57 1700 200/08 RMK AO2 VIS 2 1/2 RWY 14
14840KMKG MKG20070530083011205/30/07 08:30:31  5-MIN KMKG 301330Z 20009KT 5SM HZ CLR 25/16 A3014 430 57 1700 200/09 RMK AO2 VIS 2 1/2 RWY 14
14840KMKG MKG20070530083511205/30/07 08:35:31  5-MIN KMKG 301335Z 19011KT 5SM HZ CLR 25/16 A3014 430 57 1700 200/11 RMK AO2 VIS 2 1/2 RWY 14
14840KMKG MKG20070530084011205/30/07 08:40:31  5-MIN KMKG 301340Z 19009KT 5SM HZ CLR 25/16 A3014 430 57 1700 200/09 RMK AO2 VIS 2 1/2 RWY 14
14840KMKG MKG20070530084511205/30/07 08:45:31  5-MIN KMKG 301345Z 19010KT 5SM HZ CLR 25/16 A3014 430 57 1700 200/10 RMK AO2 VIS 2 1/2 RWY 14
14840KMKG MKG20070530085012905/30/07 08:50:31  5-MIN KMKG 301350Z 20008KT 5SM HZ CLR 25/16 A3014 430 57 1700 200/08 RMK AO2 VIS 2 1/2 RWY 14 SLP202 T02500161
14840KMKG MKG20070530085512905/30/07 08:55:31  5-MIN KMKG 301355Z 20010KT 5SM HZ CLR 26/16 A3014 430 55 1800 200/10 RMK AO2 VIS 2 1/2 RWY 14 SLP201 T02560161
14840KMKG MKG20070530090011205/30/07 09:00:31  5-MIN KMKG 301400Z 20009KT 5SM HZ CLR 26/16 A3014 430 53 1800 200/09 RMK AO2 VIS 2 1/2 RWY 14
14840KMKG MKG20070530090511205/30/07 09:05:31  5-MIN KMKG 301405Z 20009KT 6SM HZ CLR 26/16 A3014 430 53 1800 210/09 RMK AO2 VIS 2 1/2 RWY 14
14840KMKG MKG20070530091009505/30/07 09:10:31  5-MIN KMKG 301410Z 20010KT 6SM HZ CLR 26/16 A3014 430 51 1900 200/10 RMK AO2
14840KMKG MKG20070530091509505/30/07 09:15:31  5-MIN KMKG 301415Z 20010KT 6SM HZ CLR 26/16 A3014 430 51 1900 210/10 RMK AO2
14840KMKG MKG20070530092010105/30/07 09:20:31  5-MIN KMKG 301420Z 19010G17KT 6SM HZ CLR 26/15 A3014 430 50 1900 200/10G17 RMK AO2
14840KMKG MKG20070530092510105/30/07 09:25:31  5-MIN KMKG 301425Z 20011G17KT 6SM HZ CLR 26/16 A3013 430 51 1900 210/11G17 RMK AO2
14840KMKG MKG20070530093009505/30/07 09:30:31  5-MIN KMKG 301430Z 20010KT 6SM HZ CLR 26/16 A3014 430 51 1900 200/10 RMK AO2
14840KMKG MKG20070530093509505/30/07 09:35:31  5-MIN KMKG 301435Z 21009KT 6SM HZ CLR 26/16 A3013 430 51 1900 210/09 RMK AO2
14840KMKG MKG20070530094009505/30/07 09:40:31  5-MIN KMKG 301440Z 20012KT 6SM HZ CLR 26/15 A3013 430 50 1900 200/12 RMK AO2
14840KMKG MKG20070530094509505/30/07 09:45:31  5-MIN KMKG 301445Z 20010KT 6SM HZ CLR 26/15 A3013 430 50 1900 200/10 RMK AO2
14840KMKG MKG20070530095011805/30/07 09:50:31  5-MIN KMKG 301450Z 20009KT 6SM HZ CLR 26/15 A3013 430 50 1900 210/09 RMK AO2 SLP200 T02610150 52008
14840KMKG MKG20070530095511805/30/07 09:55:31  5-MIN KMKG 301455Z 20010KT 6SM HZ CLR 26/15 A3013 440 50 1900 200/10 RMK AO2 SLP200 T02610150 50000
14840KMKG MKG20070530100009505/30/07 10:00:31  5-MIN KMKG 301500Z 20010KT 6SM HZ CLR 27/15 A3013 440 48 1900 210/10 RMK AO2
14840KMKG MKG20070530100509505/30/07 10:05:31  5-MIN KMKG 301505Z 21010KT 6SM HZ CLR 27/15 A3013 440 48 1900 210/10 RMK AO2
14840KMKG MKG20070530101009505/30/07 10:10:31  5-MIN KMKG 301510Z 20009KT 6SM HZ CLR 27/15 A3013 440 48 1900 210/09 RMK AO2
14840KMKG MKG20070530101509205/30/07 10:15:31  5-MIN KMKG 301515Z 20010KT 7SM CLR 27/15 A3013 440 48 1900 210/10 RMK AO2
14840KMKG MKG20070530102009205/30/07 10:20:31  5-MIN KMKG 301520Z 21008KT 7SM CLR 27/14 A3013 440 46 1900 210/08 RMK AO2
14840KMKG MKG20070530102509205/30/07 10:25:31  5-MIN KMKG 301525Z 21009KT 7SM CLR 27/15 A3013 440 46 2000 220/09 RMK AO2
14840KMKG MKG20070530103009205/30/07 10:30:31  5-MIN KMKG 301530Z 20010KT 7SM CLR 27/15 A3013 440 48 1900 200/10 RMK AO2
14840KMKG MKG20070530103509205/30/07 10:35:31  5-MIN KMKG 301535Z 21008KT 7SM CLR 27/14 A3013 440 45 2000 210/08 RMK AO2
14840KMKG MKG20070530104009205/30/07 10:40:31  5-MIN KMKG 301540Z 20008KT 7SM CLR 27/14 A3013 440 45 2000 210/08 RMK AO2
14840KMKG MKG20070530104509205/30/07 10:45:31  5-MIN KMKG 301545Z 19008KT 7SM CLR 27/15 A3013 440 46 2000 200/08 RMK AO2
14840KMKG MKG20070530105010905/30/07 10:50:31  5-MIN KMKG 301550Z 21010KT 7SM CLR 27/14 A3013 440 45 2000 220/10 RMK AO2 SLP199 T02720144
14840KMKG MKG20070530105510905/30/07 10:55:31  5-MIN KMKG 301555Z 20009KT 7SM CLR 27/14 A3013 440 45 2000 200/09 RMK AO2 SLP199 T02720144
14840KMKG MKG20070530110009205/30/07 11:00:31  5-MIN KMKG 301600Z 20009KT 8SM CLR 27/14 A3013 440 45 2000 200/09 RMK AO2
14840KMKG MKG20070530110509205/30/07 11:05:31  5-MIN KMKG 301605Z 20010KT 8SM CLR 27/14 A3013 440 45 2000 210/10 RMK AO2
14840KMKG MKG20070530111009205/30/07 11:10:31  5-MIN KMKG 301610Z 21009KT 8SM CLR 28/14 A3013 440 43 2000 210/09 RMK AO2
14840KMKG MKG20070530111509205/30/07 11:15:31  5-MIN KMKG 301615Z 20009KT 9SM CLR 28/14 A3013 440 43 2000 200/09 RMK AO2
14840KMKG MKG20070530112009205/30/07 11:20:31  5-MIN KMKG 301620Z 20010KT 9SM CLR 28/14 A3013 440 43 2000 210/10 RMK AO2
14840KMKG MKG20070530112509205/30/07 11:25:31  5-MIN KMKG 301625Z 19008KT 9SM CLR 28/14 A3013 440 43 2000 200/08 RMK AO2
14840KMKG MKG20070530113009205/30/07 11:30:31  5-MIN KMKG 301630Z 19008KT 9SM CLR 28/14 A3013 440 42 2100 190/08 RMK AO2
14840KMKG MKG20070530113509205/30/07 11:35:31  5-MIN KMKG 301635Z 19007KT 9SM CLR 28/14 A3013 440 42 2100 200/07 RMK AO2
14840KMKG MKG20070530114009305/30/07 11:40:31  5-MIN KMKG 301640Z 22008KT 10SM CLR 28/14 A3013 440 40 2100 220/08 RMK AO2
14840KMKG MKG20070530114509305/30/07 11:45:31  5-MIN KMKG 301645Z 19008KT 10SM CLR 28/14 A3013 440 42 2100 200/08 RMK AO2
14840KMKG MKG20070530115011005/30/07 11:50:31  5-MIN KMKG 301650Z 18009KT 10SM CLR 28/14 A3012 440 42 2100 190/09 RMK AO2 SLP197 T02830144
14840KMKG MKG20070530115511005/30/07 11:55:31  5-MIN KMKG 301655Z 19009KT 10SM CLR 29/14 A3012 440 39 2200 190/09 RMK AO2 SLP196 T02890139
14840KMKG MKG20070530120009305/30/07 12:00:31  5-MIN KMKG 301700Z 21010KT 10SM CLR 29/14 A3012 440 39 2200 220/10 RMK AO2
14840KMKG MKG20070530120509305/30/07 12:05:31  5-MIN KMKG 301705Z 20009KT 10SM CLR 29/14 A3012 450 39 2200 210/09 RMK AO2
14840KMKG MKG20070530121009305/30/07 12:10:31  5-MIN KMKG 301710Z 19011KT 10SM CLR 28/14 A3012 450 40 2100 200/11 RMK AO2
14840KMKG MKG20070530121509205/30/07 12:15:31  5-MIN KMKG 301715Z 21011KT 9SM CLR 28/14 A3012 450 42 2100 220/11 RMK AO2
14840KMKG MKG20070530122009205/30/07 12:20:31  5-MIN KMKG 301720Z 19011KT 8SM CLR 28/14 A3012 450 42 2100 190/11 RMK AO2
14840KMKG MKG20070530122509205/30/07 12:25:31  5-MIN KMKG 301725Z 19011KT 9SM CLR 28/14 A3012 450 40 2100 190/11 RMK AO2
14840KMKG MKG20070530123009205/30/07 12:30:31  5-MIN KMKG 301730Z 19010KT 9SM CLR 28/14 A3012 450 42 2100 190/10 RMK AO2
14840KMKG MKG20070530123509205/30/07 12:35:31  5-MIN KMKG 301735Z 19009KT 9SM CLR 28/14 A3012 450 40 2100 190/09 RMK AO2
14840KMKG MKG20070530124009305/30/07 12:40:31  5-MIN KMKG 301740Z 19008KT 10SM CLR 28/14 A3012 450 40 2100 200/08 RMK AO2
14840KMKG MKG20070530124509305/30/07 12:45:31  5-MIN KMKG 301745Z 22010KT 10SM CLR 28/14 A3012 450 40 2100 220/10 RMK AO2
14840KMKG MKG20070530125012805/30/07 12:50:31  5-MIN KMKG 301750Z 21009KT 10SM CLR 28/14 A3012 450 40 2100 210/09 RMK AO2 SLP195 T02830139 10289 20217 50000
14840KMKG MKG20070530125512805/30/07 12:55:31  5-MIN KMKG 301755Z 21009KT 10SM CLR 29/14 A3012 450 39 2200 210/09 RMK AO2 SLP195 T02890139 10289 20217 58004
14840KMKG MKG20070530130009305/30/07 13:00:31  5-MIN KMKG 301800Z 22009KT 10SM CLR 28/13 A3012 450 39 2100 220/09 RMK AO2
14840KMKG MKG20070530130509305/30/07 13:05:31  5-MIN KMKG 301805Z 21010KT 10SM CLR 28/13 A3012 450 39 2100 210/10 RMK AO2
14840KMKG MKG20070530131009305/30/07 13:10:31  5-MIN KMKG 301810Z 20009KT 10SM CLR 28/13 A3012 450 39 2100 210/09 RMK AO2
14840KMKG MKG20070530131509305/30/07 13:15:31  5-MIN KMKG 301815Z 21008KT 10SM CLR 28/14 A3012 450 40 2100 220/08 RMK AO2
14840KMKG MKG20070530132009305/30/07 13:20:31  5-MIN KMKG 301820Z 22008KT 10SM CLR 28/13 A3012 450 39 2100 220/08 RMK AO2
14840KMKG MKG20070530132509305/30/07 13:25:31  5-MIN KMKG 301825Z 21010KT 10SM CLR 28/13 A3012 450 39 2100 210/10 RMK AO2
14840KMKG MKG20070530133009305/30/07 13:30:31  5-MIN KMKG 301830Z 21008KT 10SM CLR 28/13 A3012 450 40 2100 210/08 RMK AO2
14840KMKG MKG20070530133509305/30/07 13:35:31  5-MIN KMKG 301835Z 20008KT 10SM CLR 28/13 A3012 450 40 2100 200/08 RMK AO2
14840KMKG MKG20070530134009305/30/07 13:40:31  5-MIN KMKG 301840Z 20009KT 10SM CLR 28/13 A3012 450 40 2100 200/09 RMK AO2
14840KMKG MKG20070530134509305/30/07 13:45:31  5-MIN KMKG 301845Z 20008KT 10SM CLR 28/13 A3012 450 40 2100 210/08 RMK AO2
14840KMKG MKG20070530135011005/30/07 13:50:31  5-MIN KMKG 301850Z VRB05KT 10SM CLR 28/14 A3011 450 40 2100 VRB/05 RMK AO2 SLP193 T02830139
14840KMKG MKG20070530135511005/30/07 13:55:31  5-MIN KMKG 301855Z 20006KT 10SM CLR 28/13 A3011 450 39 2100 200/06 RMK AO2 SLP193 T02830133
14840KMKG MKG20070530140009305/30/07 14:00:31  5-MIN KMKG 301900Z 20007KT 10SM CLR 29/13 A3011 450 38 2200 200/07 RMK AO2
14840KMKG MKG20070530140509305/30/07 14:05:31  5-MIN KMKG 301905Z 18008KT 10SM CLR 28/13 A3011 460 39 2100 180/08 RMK AO2
14840KMKG MKG20070530141009305/30/07 14:10:31  5-MIN KMKG 301910Z 18008KT 10SM CLR 29/13 A3011 460 38 2200 180/08 RMK AO2
14840KMKG MKG20070530141509305/30/07 14:15:31  5-MIN KMKG 301915Z 19007KT 10SM CLR 28/13 A3011 460 37 2100 200/07 RMK AO2
14840KMKG MKG20070530142009305/30/07 14:20:31  5-MIN KMKG 301920Z 21007KT 10SM CLR 28/13 A3011 460 37 2100 210/07 RMK AO2
14840KMKG MKG20070530142509305/30/07 14:25:31  5-MIN KMKG 301925Z VRB06KT 10SM CLR 29/13 A3011 460 36 2200 VRB/06 RMK AO2
14840KMKG MKG20070530143009305/30/07 14:30:31  5-MIN KMKG 301930Z 21007KT 10SM CLR 28/13 A3011 460 37 2100 210/07 RMK AO2
14840KMKG MKG20070530143509305/30/07 14:35:31  5-MIN KMKG 301935Z 20007KT 10SM CLR 28/13 A3011 460 37 2100 210/07 RMK AO2
14840KMKG MKG20070530144009305/30/07 14:40:31  5-MIN KMKG 301940Z 18005KT 10SM CLR 29/13 A3010 460 38 2200 190/05 RMK AO2
14840KMKG MKG20070530144509305/30/07 14:45:31  5-MIN KMKG 301945Z 18005KT 10SM CLR 29/13 A3010 460 36 2300 180/05 RMK AO2
14840KMKG MKG20070530145011005/30/07 14:50:31  5-MIN KMKG 301950Z 20008KT 10SM CLR 30/13 A3010 460 34 2300 210/08 RMK AO2 SLP189 T03000128
14840KMKG MKG20070530145511005/30/07 14:55:31  5-MIN KMKG 301955Z 20009KT 10SM CLR 29/12 A3010 470 34 2300 210/09 RMK AO2 SLP188 T02940122
14840KMKG MKG20070530150009305/30/07 15:00:31  5-MIN KMKG 302000Z 18010KT 10SM CLR 29/12 A3010 470 33 2300 190/10 RMK AO2
14840KMKG MKG20070530150509305/30/07 15:05:31  5-MIN KMKG 302005Z 21010KT 10SM CLR 29/12 A3010 470 33 2300 220/10 RMK AO2
14840KMKG MKG20070530151009305/30/07 15:10:31  5-MIN KMKG 302010Z 19006KT 10SM CLR 29/12 A3009 470 33 2300 200/06 RMK AO2
14840KMKG MKG20070530151509305/30/07 15:15:31  5-MIN KMKG 302015Z 20008KT 10SM CLR 29/12 A3009 470 33 2300 210/08 RMK AO2
14840KMKG MKG20070530152009305/30/07 15:20:31  5-MIN KMKG 302020Z 21008KT 10SM CLR 30/12 A3009 470 31 2300 210/08 RMK AO2
14840KMKG MKG20070530152509305/30/07 15:25:31  5-MIN KMKG 302025Z 20008KT 10SM CLR 30/12 A3009 470 31 2300 200/08 RMK AO2
14840KMKG MKG20070530153009305/30/07 15:30:31  5-MIN KMKG 302030Z 20008KT 10SM CLR 29/12 A3009 470 33 2300 200/08 RMK AO2
14840KMKG MKG20070530153509305/30/07 15:35:31  5-MIN KMKG 302035Z 19009KT 10SM CLR 29/11 A3009 470 31 2300 200/09 RMK AO2
14840KMKG MKG20070530154009305/30/07 15:40:31  5-MIN KMKG 302040Z 21009KT 10SM CLR 30/11 A3009 480 30 2300 210/09 RMK AO2
14840KMKG MKG20070530154509305/30/07 15:45:31  5-MIN KMKG 302045Z 20009KT 10SM CLR 29/11 A3009 480 31 2300 200/09 RMK AO2
14840KMKG MKG20070530155011605/30/07 15:50:31  5-MIN KMKG 302050Z 21009KT 10SM CLR 30/12 A3009 480 31 2300 210/09 RMK AO2 SLP184 T03000117 58004
14840KMKG MKG20070530155511605/30/07 15:55:31  5-MIN KMKG 302055Z 21008KT 10SM CLR 30/11 A3009 480 30 2300 220/08 RMK AO2 SLP184 T03000111 58012
14840KMKG MKG20070530160009305/30/07 16:00:31  5-MIN KMKG 302100Z 21009KT 10SM CLR 29/11 A3008 480 31 2300 210/09 RMK AO2
14840KMKG MKG20070530160509305/30/07 16:05:31  5-MIN KMKG 302105Z 21009KT 10SM CLR 29/11 A3008 480 31 2300 210/09 RMK AO2
14840KMKG MKG20070530161009305/30/07 16:10:31  5-MIN KMKG 302110Z 21008KT 10SM CLR 29/11 A3008 480 31 2300 220/08 RMK AO2
14840KMKG MKG20070530161509305/30/07 16:15:31  5-MIN KMKG 302115Z 20009KT 10SM CLR 29/11 A3008 480 32 2200 210/09 RMK AO2
14840KMKG MKG20070530162009305/30/07 16:20:31  5-MIN KMKG 302120Z 22008KT 10SM CLR 30/12 A3008 490 31 2400 230/08 RMK AO2
14840KMKG MKG20070530162509305/30/07 16:25:31  5-MIN KMKG 302125Z 22008KT 10SM CLR 30/12 A3008 490 31 2400 220/08 RMK AO2
14840KMKG MKG20070530163009305/30/07 16:30:31  5-MIN KMKG 302130Z 21006KT 10SM CLR 29/11 A3008 490 31 2300 220/06 RMK AO2
14840KMKG MKG20070530163509305/30/07 16:35:31  5-MIN KMKG 302135Z 23007KT 10SM CLR 29/12 A3007 490 33 2300 230/07 RMK AO2
14840KMKG MKG20070530164009305/30/07 16:40:31  5-MIN KMKG 302140Z 23007KT 10SM CLR 29/12 A3007 490 33 2300 230/07 RMK AO2
14840KMKG MKG20070530164509305/30/07 16:45:31  5-MIN KMKG 302145Z 23006KT 10SM CLR 29/12 A3007 490 33 2300 230/06 RMK AO2
14840KMKG MKG20070530165011005/30/07 16:50:31  5-MIN KMKG 302150Z 21007KT 10SM CLR 29/12 A3007 490 33 2300 220/07 RMK AO2 SLP179 T02940117
14840KMKG MKG20070530165511005/30/07 16:55:31  5-MIN KMKG 302155Z 20008KT 10SM CLR 29/12 A3007 490 33 2300 200/08 RMK AO2 SLP178 T02940117
14840KMKG MKG20070530170009305/30/07 17:00:31  5-MIN KMKG 302200Z 22008KT 10SM CLR 29/12 A3007 490 33 2300 220/08 RMK AO2
14840KMKG MKG20070530170509305/30/07 17:05:31  5-MIN KMKG 302205Z 20007KT 10SM CLR 29/12 A3007 490 33 2300 200/07 RMK AO2
14840KMKG MKG20070530171009305/30/07 17:10:31  5-MIN KMKG 302210Z 21007KT 10SM CLR 29/12 A3007 490 34 2300 210/07 RMK AO2
14840KMKG MKG20070530171509305/30/07 17:15:31  5-MIN KMKG 302215Z 20006KT 10SM CLR 29/12 A3007 490 34 2300 210/06 RMK AO2
14840KMKG MKG20070530172009305/30/07 17:20:31  5-MIN KMKG 302220Z 18006KT 10SM CLR 29/12 A3007 500 34 2300 180/06 RMK AO2
14840KMKG MKG20070530172509305/30/07 17:25:31  5-MIN KMKG 302225Z 18006KT 10SM CLR 29/13 A3006 500 35 2300 180/06 RMK AO2
14840KMKG MKG20070530173009305/30/07 17:30:31  5-MIN KMKG 302230Z 18005KT 10SM CLR 30/13 A3006 500 34 2400 190/05 RMK AO2
14840KMKG MKG20070530173509305/30/07 17:35:31  5-MIN KMKG 302235Z 18007KT 10SM CLR 29/13 A3006 500 35 2300 180/07 RMK AO2
14840KMKG MKG20070530174009305/30/07 17:40:31  5-MIN KMKG 302240Z 18007KT 10SM CLR 29/13 A3006 500 35 2300 180/07 RMK AO2
14840KMKG MKG20070530174509305/30/07 17:45:31  5-MIN KMKG 302245Z 18005KT 10SM CLR 29/13 A3006 500 36 2300 180/05 RMK AO2
14840KMKG MKG20070530175011005/30/07 17:50:31  5-MIN KMKG 302250Z 17007KT 10SM CLR 29/13 A3006 510 36 2300 170/07 RMK AO2 SLP174 T02890128
14840KMKG MKG20070530175511005/30/07 17:55:31  5-MIN KMKG 302255Z 17007KT 10SM CLR 29/13 A3005 510 36 2300 170/07 RMK AO2 SLP173 T02890128
14840KMKG MKG20070530180009305/30/07 18:00:31  5-MIN KMKG 302300Z 18007KT 10SM CLR 29/13 A3005 510 36 2300 180/07 RMK AO2
14840KMKG MKG20070530180509305/30/07 18:05:31  5-MIN KMKG 302305Z 18005KT 10SM CLR 29/13 A3005 510 38 2300 180/05 RMK AO2
14840KMKG MKG20070530181009305/30/07 18:10:31  5-MIN KMKG 302310Z 19005KT 10SM CLR 29/13 A3005 510 38 2300 190/05 RMK AO2
14840KMKG MKG20070530181509305/30/07 18:15:31  5-MIN KMKG 302315Z 19006KT 10SM CLR 29/13 A3005 510 38 2300 190/06 RMK AO2
14840KMKG MKG20070530182009305/30/07 18:20:31  5-MIN KMKG 302320Z 19006KT 10SM CLR 29/13 A3005 510 38 2300 190/06 RMK AO2
14840KMKG MKG20070530182509305/30/07 18:25:31  5-MIN KMKG 302325Z 18005KT 10SM CLR 29/13 A3005 510 38 2300 180/05 RMK AO2
14840KMKG MKG20070530183009305/30/07 18:30:31  5-MIN KMKG 302330Z 18006KT 10SM CLR 28/13 A3004 520 39 2200 190/06 RMK AO2
14840KMKG MKG20070530183509305/30/07 18:35:31  5-MIN KMKG 302335Z 18004KT 10SM CLR 28/13 A3004 520 39 2200 180/04 RMK AO2
14840KMKG MKG20070530184009605/30/07 18:40:31  5-MIN KMKG 302340Z 17005KT 10SM FEW080 28/13 A3004 520 39 2200 170/05 RMK AO2
14840KMKG MKG20070530184509305/30/07 18:45:31  5-MIN KMKG 302345Z 18005KT 10SM CLR 28/13 A3004 520 39 2200 180/05 RMK AO2
14840KMKG MKG20070530185012805/30/07 18:50:31  5-MIN KMKG 302350Z 18004KT 10SM CLR 28/13 A3004 520 39 2200 190/04 RMK AO2 SLP169 T02830133 10300 20278 58012
14840KMKG MKG20070530185512805/30/07 18:55:31  5-MIN KMKG 302355Z 17006KT 10SM CLR 28/13 A3004 520 39 2200 180/06 RMK AO2 SLP169 T02830133 10300 20278 56014
14840KMKG MKG20070530190009305/30/07 19:00:31  5-MIN KMKG 310000Z 17005KT 10SM CLR 28/13 A3004 520 37 2200 170/05 RMK AO2
14840KMKG MKG20070530190509305/30/07 19:05:31  5-MIN KMKG 310005Z 17004KT 10SM CLR 28/13 A3004 520 40 2100 170/04 RMK AO2
14840KMKG MKG20070530191009305/30/07 19:10:31  5-MIN KMKG 310010Z 15004KT 10SM CLR 28/13 A3004 520 40 2200 160/04 RMK AO2
14840KMKG MKG20070530191509305/30/07 19:15:31  5-MIN KMKG 310015Z 16005KT 10SM CLR 27/13 A3004 520 42 2100 160/05 RMK AO2
14840KMKG MKG20070530192009305/30/07 19:20:31  5-MIN KMKG 310020Z 15005KT 10SM CLR 28/13 A3003 530 39 2200 150/05 RMK AO2
14840KMKG MKG20070530192509305/30/07 19:25:31  5-MIN KMKG 310025Z 15005KT 10SM CLR 27/13 A3003 530 42 2100 150/05 RMK AO2
14840KMKG MKG20070530193009305/30/07 19:30:31  5-MIN KMKG 310030Z 16005KT 10SM CLR 27/13 A3003 520 40 2100 160/05 RMK AO2
14840KMKG MKG20070530193509305/30/07 19:35:31  5-MIN KMKG 310035Z 15005KT 10SM CLR 27/13 A3003 530 41 2000 150/05 RMK AO2
14840KMKG MKG20070530194009305/30/07 19:40:31  5-MIN KMKG 310040Z 14005KT 10SM CLR 27/13 A3003 520 41 2000 140/05 RMK AO2
14840KMKG MKG20070530194509305/30/07 19:45:31  5-MIN KMKG 310045Z 14005KT 10SM CLR 27/13 A3003 520 41 2000 150/05 RMK AO2
14840KMKG MKG20070530195011005/30/07 19:50:31  5-MIN KMKG 310050Z 15004KT 10SM CLR 27/13 A3003 520 41 2000 150/04 RMK AO2 SLP166 T02670128
14840KMKG MKG20070530195511005/30/07 19:55:31  5-MIN KMKG 310055Z 14005KT 10SM CLR 26/13 A3004 520 43 2000 150/05 RMK AO2 SLP167 T02610128
14840KMKG MKG20070530200009305/30/07 20:00:31  5-MIN KMKG 310100Z 14005KT 10SM CLR 26/13 A3004 520 43 2000 150/05 RMK AO2
14840KMKG MKG20070530200509305/30/07 20:05:31  5-MIN KMKG 310105Z 14005KT 10SM CLR 26/13 A3004 520 43 2000 150/05 RMK AO2
14840KMKG MKG20070530201009305/30/07 20:10:31  5-MIN KMKG 310110Z 14004KT 10SM CLR 26/13 A3004 520 44 1900 140/04 RMK AO2
14840KMKG MKG20070530201509305/30/07 20:15:31  5-MIN KMKG 310115Z 13004KT 10SM CLR 25/13 A3004 520 48 1800 140/04 RMK AO2
14840KMKG MKG20070530202009305/30/07 20:20:31  5-MIN KMKG 310120Z 13003KT 10SM CLR 25/14 A3003 530 49 1800 130/03 RMK AO2
14840KMKG MKG20070530202509205/30/07 20:25:31  5-MIN KMKG 310125Z 13003KT 9SM CLR 25/14 A3003 530 49 1800 130/03 RMK AO2
14840KMKG MKG20070530203009205/30/07 20:30:31  5-MIN KMKG 310130Z 13003KT 9SM CLR 25/13 A3003 530 48 1800 140/03 RMK AO2
14840KMKG MKG20070530203509305/30/07 20:35:31  5-MIN KMKG 310135Z 12003KT 10SM CLR 25/13 A3003 520 48 1800 130/03 RMK AO2
14840KMKG MKG20070530204009305/30/07 20:40:31  5-MIN KMKG 310140Z 12003KT 10SM CLR 24/13 A3004 520 49 1800 120/03 RMK AO2
14840KMKG MKG20070530204509205/30/07 20:45:31  5-MIN KMKG 310145Z 12003KT 8SM CLR 23/14 A3004 520 55 1700 130/03 RMK AO2
14840KMKG MKG20070530205010905/30/07 20:50:31  5-MIN KMKG 310150Z 12003KT 8SM CLR 23/14 A3004 520 57 1700 130/03 RMK AO2 SLP167 T02330144
14840KMKG MKG20070530205510905/30/07 20:55:31  5-MIN KMKG 310155Z 12004KT 9SM CLR 23/14 A3003 520 57 1700 120/04 RMK AO2 SLP166 T02330144
14840KMKG MKG20070530210009305/30/07 21:00:31  5-MIN KMKG 310200Z 12004KT 10SM CLR 23/14 A3003 520 59 1600 120/04 RMK AO2
14840KMKG MKG20070530210509305/30/07 21:05:31  5-MIN KMKG 310205Z 12003KT 10SM CLR 22/14 A3004 520 61 1500 130/03 RMK AO2
14840KMKG MKG20070530211009305/30/07 21:10:31  5-MIN KMKG 310210Z 13003KT 10SM CLR 23/14 A3004 520 57 1600 130/03 RMK AO2
14840KMKG MKG20070530211509305/30/07 21:15:31  5-MIN KMKG 310215Z 13004KT 10SM CLR 24/14 A3004 520 55 1700 130/04 RMK AO2
14840KMKG MKG20070530212009305/30/07 21:20:31  5-MIN KMKG 310220Z 12004KT 10SM CLR 23/14 A3004 520 57 1600 130/04 RMK AO2
14840KMKG MKG20070530212509305/30/07 21:25:31  5-MIN KMKG 310225Z 12004KT 10SM CLR 23/15 A3005 510 61 1600 120/04 RMK AO2
14840KMKG MKG20070530213009305/30/07 21:30:31  5-MIN KMKG 310230Z 12005KT 10SM CLR 23/15 A3005 510 61 1600 120/05 RMK AO2
14840KMKG MKG20070530213509305/30/07 21:35:31  5-MIN KMKG 310235Z 12005KT 10SM CLR 22/15 A3005 510 63 1500 120/05 RMK AO2
14840KMKG MKG20070530214009205/30/07 21:40:31  5-MIN KMKG 310240Z 12005KT 8SM CLR 22/15 A3005 510 65 1400 120/05 RMK AO2
14840KMKG MKG20070530214509205/30/07 21:45:31  5-MIN KMKG 310245Z 12005KT 7SM CLR 22/15 A3005 510 63 1500 120/05 RMK AO2
14840KMKG MKG20070530215011505/30/07 21:50:31  5-MIN KMKG 310250Z 12004KT 7SM CLR 22/15 A3005 510 63 1500 120/04 RMK AO2 SLP172 T02220150 56014
14840KMKG MKG20070530215511505/30/07 21:55:31  5-MIN KMKG 310255Z 12004KT 7SM CLR 22/15 A3005 510 63 1500 120/04 RMK AO2 SLP172 T02220150 53003
14840KMKG MKG20070530220009205/30/07 22:00:31  5-MIN KMKG 310300Z 12004KT 8SM CLR 22/15 A3005 510 63 1500 120/04 RMK AO2
14840KMKG MKG20070530220509205/30/07 22:05:31  5-MIN KMKG 310305Z 12004KT 9SM CLR 22/15 A3005 510 63 1500 130/04 RMK AO2
14840KMKG MKG20070530221009305/30/07 22:10:31  5-MIN KMKG 310310Z 13004KT 10SM CLR 22/15 A3005 510 65 1400 130/04 RMK AO2
14840KMKG MKG20070530221509205/30/07 22:15:31  5-MIN KMKG 310315Z 14004KT 9SM CLR 22/15 A3006 510 65 1400 150/04 RMK AO2
14840KMKG MKG20070530222009205/30/07 22:20:31  5-MIN KMKG 310320Z 00000KT 9SM CLR 22/14 A3006 500 63 1400 000/00 RMK AO2
14840KMKG MKG20070530222509305/30/07 22:25:31  5-MIN KMKG 310325Z 00000KT 10SM CLR 22/14 A3006 500 61 1500 000/00 RMK AO2
14840KMKG MKG20070530223009305/30/07 22:30:31  5-MIN KMKG 310330Z 00000KT 10SM CLR 22/14 A3006 500 63 1400 000/00 RMK AO2
14840KMKG MKG20070530223509305/30/07 22:35:31  5-MIN KMKG 310335Z 00000KT 10SM CLR 22/14 A3006 500 63 1400 000/00 RMK AO2
14840KMKG MKG20070530224009305/30/07 22:40:31  5-MIN KMKG 310340Z 00000KT 10SM CLR 22/14 A3006 500 63 1400 000/00 RMK AO2
14840KMKG MKG20070530224509305/30/07 22:45:31  5-MIN KMKG 310345Z 00000KT 10SM CLR 21/15 A3006 500 70 1300 000/00 RMK AO2
14840KMKG MKG20070530225011005/30/07 22:50:31  5-MIN KMKG 310350Z 00000KT 10SM CLR 21/15 A3006 500 70 1300 000/00 RMK AO2 SLP176 T02060150
14840KMKG MKG20070530225511005/30/07 22:55:31  5-MIN KMKG 310355Z 00000KT 10SM CLR 21/14 A3006 500 67 1300 000/00 RMK AO2 SLP176 T02060144
14840KMKG MKG20070530230009305/30/07 23:00:31  5-MIN KMKG 310400Z 00000KT 10SM CLR 21/15 A3006 500 68 1400 000/00 RMK AO2
14840KMKG MKG20070530230509305/30/07 23:05:31  5-MIN KMKG 310405Z 22003KT 10SM CLR 20/15 A3006 500 72 1200 230/03 RMK AO2
14840KMKG MKG20070530231009305/30/07 23:10:31  5-MIN KMKG 310410Z 00000KT 10SM CLR 20/15 A3006 500 72 1200 000/00 RMK AO2
14840KMKG MKG20070530231509305/30/07 23:15:31  5-MIN KMKG 310415Z 00000KT 10SM CLR 20/15 A3006 500 72 1200 000/00 RMK AO2
14840KMKG MKG20070530232009305/30/07 23:20:31  5-MIN KMKG 310420Z 00000KT 10SM CLR 21/15 A3006 500 68 1400 000/00 RMK AO2
14840KMKG MKG20070530232509305/30/07 23:25:31  5-MIN KMKG 310425Z 00000KT 10SM CLR 21/15 A3006 500 68 1400 000/00 RMK AO2
14840KMKG MKG20070530233009305/30/07 23:30:31  5-MIN KMKG 310430Z 00000KT 10SM CLR 20/14 A3006 500 70 1200 000/00 RMK AO2
14840KMKG MKG20070530233509205/30/07 23:35:31  5-MIN KMKG 310435Z 00000KT 9SM CLR 21/14 A3006 500 67 1300 000/00 RMK AO2
14840KMKG MKG20070530234009205/30/07 23:40:31  5-MIN KMKG 310440Z 00000KT 9SM CLR 20/14 A3006 500 70 1200 000/00 RMK AO2
14840KMKG MKG20070530234509205/30/07 23:45:31  5-MIN KMKG 310445Z 00000KT 9SM CLR 21/15 A3006 500 70 1300 000/00 RMK AO2
14840KMKG MKG20070530235011905/30/07 23:50:31  5-MIN KMKG 310450Z 00000KT 9SM CLR 19/15 A3006 500 75 1200 000/00 RMK AO2 SLP175 T01940150 403000178
14840KMKG MKG20070530235511905/30/07 23:55:31  5-MIN KMKG 310455Z 11003KT 8SM CLR 20/15 A3006 500 72 1200 120/03 RMK AO2 SLP175 T02000150 403000178
14840KMKG MKG20070531000009205/31/07 00:00:32  5-MIN KMKG 310500Z 12003KT 8SM CLR 19/15 A3006 500 75 1200 130/03 RMK AO2
14840KMKG MKG20070531000509205/31/07 00:05:31  5-MIN KMKG 310505Z 14004KT 8SM CLR 19/15 A3006 500 75 1200 150/04 RMK AO2
14840KMKG MKG20070531001009205/31/07 00:10:31  5-MIN KMKG 310510Z 00000KT 8SM CLR 19/15 A3006 500 78 1100 000/00 RMK AO2
14840KMKG MKG20070531001509205/31/07 00:15:31  5-MIN KMKG 310515Z 21003KT 8SM CLR 19/15 A3006 500 78 1100 210/03 RMK AO2
14840KMKG MKG20070531002009205/31/07 00:20:31  5-MIN KMKG 310520Z 16004KT 8SM CLR 18/14 A3006 500 78 1000 170/04 RMK AO2
14840KMKG MKG20070531002509205/31/07 00:25:31  5-MIN KMKG 310525Z 18003KT 8SM CLR 19/14 A3006 500 75 1100 180/03 RMK AO2
14840KMKG MKG20070531003009205/31/07 00:30:31  5-MIN KMKG 310530Z 16005KT 8SM CLR 18/14 A3006 500 78 1100 170/05 RMK AO2
14840KMKG MKG20070531003509205/31/07 00:35:31  5-MIN KMKG 310535Z 17004KT 8SM CLR 21/15 A3006 500 70 1300 170/04 RMK AO2
14840KMKG MKG20070531004009205/31/07 00:40:31  5-MIN KMKG 310540Z 18004KT 9SM CLR 20/15 A3006 500 72 1200 180/04 RMK AO2
14840KMKG MKG20070531004509205/31/07 00:45:31  5-MIN KMKG 310545Z 00000KT 8SM CLR 19/15 A3006 500 75 1200 000/00 RMK AO2
14840KMKG MKG20070531005012705/31/07 00:50:31  5-MIN KMKG 310550Z 20003KT 8SM CLR 19/15 A3006 500 75 1200 200/03 RMK AO2 SLP175 T01940150 10283 20183 53003
14840KMKG MKG20070531005512705/31/07 00:55:31  5-MIN KMKG 310555Z 18003KT 8SM CLR 19/15 A3006 500 75 1200 180/03 RMK AO2 SLP175 T01940150 10283 20183 51002
14840KMKG MKG20070531010009205/31/07 01:00:31  5-MIN KMKG 310600Z 18004KT 8SM CLR 20/15 A3006 500 72 1200 190/04 RMK AO2
14840KMKG MKG20070531010509205/31/07 01:05:31  5-MIN KMKG 310605Z 18003KT 8SM CLR 19/15 A3006 500 75 1200 180/03 RMK AO2
14840KMKG MKG20070531011009205/31/07 01:10:31  5-MIN KMKG 310610Z 18003KT 8SM CLR 19/15 A3006 500 75 1200 190/03 RMK AO2
14840KMKG MKG20070531011509205/31/07 01:15:31  5-MIN KMKG 310615Z 00000KT 8SM CLR 19/15 A3006 500 75 1200 000/00 RMK AO2
14840KMKG MKG20070531012009205/31/07 01:20:31  5-MIN KMKG 310620Z 00000KT 8SM CLR 20/15 A3006 500 72 1200 000/00 RMK AO2
14840KMKG MKG20070531012509205/31/07 01:25:31  5-MIN KMKG 310625Z 00000KT 8SM CLR 20/15 A3006 500 72 1200 000/00 RMK AO2
14840KMKG MKG20070531013009205/31/07 01:30:31  5-MIN KMKG 310630Z 00000KT 8SM CLR 21/15 A3006 500 70 1300 000/00 RMK AO2
14840KMKG MKG20070531013509205/31/07 01:35:31  5-MIN KMKG 310635Z 19003KT 8SM CLR 20/14 A3006 500 70 1200 190/03 RMK AO2
14840KMKG MKG20070531014009205/31/07 01:40:31  5-MIN KMKG 310640Z 00000KT 9SM CLR 20/14 A3005 510 70 1200 000/00 RMK AO2
14840KMKG MKG20070531014509205/31/07 01:45:31  5-MIN KMKG 310645Z 19003KT 9SM CLR 20/14 A3005 510 70 1200 190/03 RMK AO2
14840KMKG MKG20070531015010905/31/07 01:50:31  5-MIN KMKG 310650Z 20003KT 9SM CLR 19/14 A3005 510 72 1200 210/03 RMK AO2 SLP173 T01940144
14840KMKG MKG20070531015510905/31/07 01:55:31  5-MIN KMKG 310655Z 20003KT 9SM CLR 20/14 A3005 510 70 1300 200/03 RMK AO2 SLP172 T02000144
14840KMKG MKG20070531020009205/31/07 02:00:31  5-MIN KMKG 310700Z 20003KT 9SM CLR 19/14 A3005 510 72 1200 200/03 RMK AO2
14840KMKG MKG20070531020509205/31/07 02:05:31  5-MIN KMKG 310705Z 20004KT 9SM CLR 19/14 A3005 510 72 1200 210/04 RMK AO2
14840KMKG MKG20070531021009505/31/07 02:10:31  5-MIN KMKG 310710Z 21003KT 9SM FEW110 20/14 A3005 510 67 1300 210/03 RMK AO2
14840KMKG MKG20070531021509505/31/07 02:15:31  5-MIN KMKG 310715Z 00000KT 9SM SCT110 20/14 A3005 510 67 1300 000/00 RMK AO2
14840KMKG MKG20070531022009505/31/07 02:20:31  5-MIN KMKG 310720Z 00000KT 9SM BKN100 19/14 A3005 510 70 1200 000/00 RMK AO2
14840KMKG MKG20070531022509505/31/07 02:25:31  5-MIN KMKG 310725Z 00000KT 8SM BKN100 19/15 A3005 510 75 1200 000/00 RMK AO2
14840KMKG MKG20070531023009505/31/07 02:30:31  5-MIN KMKG 310730Z 00000KT 8SM SCT100 19/14 A3005 510 75 1100 000/00 RMK AO2
14840KMKG MKG20070531023509505/31/07 02:35:31  5-MIN KMKG 310735Z 00000KT 8SM SCT100 19/14 A3005 510 72 1200 000/00 RMK AO2
14840KMKG MKG20070531024009505/31/07 02:40:31  5-MIN KMKG 310740Z 11003KT 8SM SCT100 19/14 A3005 510 75 1100 110/03 RMK AO2
14840KMKG MKG20070531024509505/31/07 02:45:31  5-MIN KMKG 310745Z 12003KT 8SM FEW100 19/15 A3005 510 78 1100 120/03 RMK AO2
14840KMKG MKG20070531025011205/31/07 02:50:31  5-MIN KMKG 310750Z 12003KT 7SM FEW095 18/15 A3005 510 81 1100 120/03 RMK AO2 SLP173 T01830150
14840KMKG MKG20070531025510905/31/07 02:55:31  5-MIN KMKG 310755Z 11003KT 7SM CLR 19/15 A3005 510 78 1100 110/03 RMK AO2 SLP172 T01890150
14840KMKG MKG20070531030009505/31/07 03:00:31  5-MIN KMKG 310800Z 12003KT 8SM FEW100 19/15 A3005 510 78 1100 120/03 RMK AO2
14840KMKG MKG20070531030509505/31/07 03:05:31  5-MIN KMKG 310805Z 12003KT 7SM SCT110 19/15 A3005 510 78 1100 120/03 RMK AO2
14840KMKG MKG20070531031009505/31/07 03:10:31  5-MIN KMKG 310810Z 13003KT 7SM SCT110 19/15 A3005 510 78 1100 130/03 RMK AO2
14840KMKG MKG20070531031509505/31/07 03:15:31  5-MIN KMKG 310815Z 12003KT 7SM BKN110 18/15 A3005 510 81 1100 130/03 RMK AO2
14840KMKG MKG20070531032009505/31/07 03:20:31  5-MIN KMKG 310820Z 13003KT 7SM BKN110 19/15 A3005 510 78 1100 130/03 RMK AO2
14840KMKG MKG20070531032509505/31/07 03:25:31  5-MIN KMKG 310825Z 13003KT 7SM SCT110 19/15 A3005 510 78 1100 130/03 RMK AO2
14840KMKG MKG20070531033009505/31/07 03:30:31  5-MIN KMKG 310830Z 13003KT 7SM SCT110 19/15 A3005 510 78 1100 140/03 RMK AO2
14840KMKG MKG20070531033509505/31/07 03:35:31  5-MIN KMKG 310835Z 13003KT 7SM SCT110 19/15 A3005 510 78 1100 140/03 RMK AO2
14840KMKG MKG20070531034009505/31/07 03:40:31  5-MIN KMKG 310840Z 00000KT 7SM FEW110 19/15 A3005 510 78 1100 000/00 RMK AO2
14840KMKG MKG20070531034509505/31/07 03:45:31  5-MIN KMKG 310845Z 00000KT 7SM FEW110 18/15 A3005 510 81 1100 000/00 RMK AO2
14840KMKG MKG20070531035011805/31/07 03:50:31  5-MIN KMKG 310850Z 00000KT 7SM FEW110 19/15 A3005 520 78 1100 000/00 RMK AO2 SLP170 T01890150 51002
14840KMKG MKG20070531035511805/31/07 03:55:31  5-MIN KMKG 310855Z 00000KT 7SM FEW110 18/15 A3005 510 81 1100 000/00 RMK AO2 SLP170 T01830150 56004
14840KMKG MKG20070531040009505/31/07 04:00:31  5-MIN KMKG 310900Z 00000KT 7SM FEW110 18/15 A3005 510 81 1100 000/00 RMK AO2
14840KMKG MKG20070531040509505/31/07 04:05:31  5-MIN KMKG 310905Z 12003KT 7SM SCT110 18/15 A3005 510 81 1100 130/03 RMK AO2
14840KMKG MKG20070531041009505/31/07 04:10:31  5-MIN KMKG 310910Z 13003KT 7SM SCT110 18/15 A3005 510 81 1100 130/03 RMK AO2
14840KMKG MKG20070531041509505/31/07 04:15:31  5-MIN KMKG 310915Z 12004KT 7SM FEW110 18/15 A3005 510 81 1100 120/04 RMK AO2
14840KMKG MKG20070531042009505/31/07 04:20:31  5-MIN KMKG 310920Z 12003KT 7SM SCT110 18/15 A3005 510 83 1000 120/03 RMK AO2
14840KMKG MKG20070531042509505/31/07 04:25:31  5-MIN KMKG 310925Z 12003KT 7SM SCT110 18/15 A3005 510 81 1100 120/03 RMK AO2
14840KMKG MKG20070531043009505/31/07 04:30:31  5-MIN KMKG 310930Z 12003KT 7SM BKN110 18/15 A3005 510 83 1000 130/03 RMK AO2
14840KMKG MKG20070531043509505/31/07 04:35:31  5-MIN KMKG 310935Z 00000KT 7SM SCT110 18/15 A3005 510 83 1000 000/00 RMK AO2
14840KMKG MKG20070531044009505/31/07 04:40:31  5-MIN KMKG 310940Z 13003KT 7SM FEW100 18/15 A3005 510 83 1000 130/03 RMK AO2
14840KMKG MKG20070531044509505/31/07 04:45:31  5-MIN KMKG 310945Z 12004KT 7SM SCT100 18/15 A3005 510 83 1000 120/04 RMK AO2
14840KMKG MKG20070531045011205/31/07 04:50:31  5-MIN KMKG 310950Z 12005KT 7SM SCT100 18/15 A3005 510 83 1000 130/05 RMK AO2 SLP172 T01780150
14840KMKG MKG20070531045511405/31/07 04:55:31  5-MIN KMKG 310955Z 13004KT 6SM BR FEW100 17/15 A3005 510 87 900 130/04 RMK AO2 SLP172 T01720150
14840KMKG MKG20070531050009705/31/07 05:00:31  5-MIN KMKG 311000Z 13005KT 6SM BR FEW100 17/15 A3005 510 87 900 130/05 RMK AO2
14840KMKG MKG20070531050509705/31/07 05:05:31  5-MIN KMKG 311005Z 13004KT 6SM HZ FEW100 17/14 A3005 510 83 900 140/04 RMK AO2
14840KMKG MKG20070531051009705/31/07 05:10:31  5-MIN KMKG 311010Z 00000KT 6SM BR FEW100 17/14 A3005 510 86 900 000/00 RMK AO2
14840KMKG MKG20070531051509405/31/07 05:15:31  5-MIN KMKG 311015Z 00000KT 5SM HZ CLR 17/14 A3005 510 83 900 000/00 RMK AO2
14840KMKG MKG20070531052011205/31/07 05:20:31  5-MIN KMKG 311020Z 00000KT 5SM HZ CLR 18/15 A3005 510 83 1000 000/00 RMK AO2 VIS 2 1/2 RWY 14
14840KMKG MKG20070531052511105/31/07 05:25:31  5-MIN KMKG 311025Z 00000KT 5SM HZ CLR 17/14 A3005 510 83 900 000/00 RMK AO2 VIS 2 1/2 RWY 14
14840KMKG MKG20070531053011105/31/07 05:30:31  5-MIN KMKG 311030Z 11003KT 5SM HZ CLR 17/14 A3005 510 83 900 120/03 RMK AO2 VIS 2 1/2 RWY 14
14840KMKG MKG20070531053511105/31/07 05:35:31  5-MIN KMKG 311035Z 12004KT 5SM HZ CLR 17/14 A3005 510 83 900 120/04 RMK AO2 VIS 2 1/2 RWY 14
14840KMKG MKG20070531054011105/31/07 05:40:31  5-MIN KMKG 311040Z 13004KT 5SM BR CLR 17/15 A3005 510 87 900 130/04 RMK AO2 VIS 2 1/2 RWY 14
14840KMKG MKG20070531054511105/31/07 05:45:31  5-MIN KMKG 311045Z 12004KT 5SM BR CLR 17/15 A3005 510 87 900 120/04 RMK AO2 VIS 2 1/2 RWY 14
14840KMKG MKG20070531055012805/31/07 05:50:31  5-MIN KMKG 311050Z 12005KT 5SM BR CLR 17/15 A3005 510 87 900 130/05 RMK AO2 VIS 2 1/2 RWY 14 SLP174 T01720150
14840KMKG MKG20070531055512905/31/07 05:55:31  5-MIN KMKG 311055Z 12004KT 5SM HZ CLR 18/15 A3005 510 83 1000 120/04 RMK AO2 VIS 2 1/2 RWY 14 SLP173 T01780150
14840KMKG MKG20070531060011505/31/07 06:00:31  5-MIN KMKG 311100Z 00000KT 5SM HZ FEW100 18/15 A3005 510 83 1000 000/00 RMK AO2 VIS 2 1/2 RWY 14
14840KMKG MKG20070531060511505/31/07 06:05:31  5-MIN KMKG 311105Z 00000KT 5SM HZ FEW095 18/16 A3006 500 84 1100 000/00 RMK AO2 VIS 2 1/2 RWY 14
14840KMKG MKG20070531061011505/31/07 06:10:31  5-MIN KMKG 311110Z 13003KT 5SM HZ FEW095 18/15 A3006 500 81 1100 130/03 RMK AO2 VIS 2 1/2 RWY 14
14840KMKG MKG20070531061511505/31/07 06:15:31  5-MIN KMKG 311115Z 14003KT 5SM HZ FEW095 18/16 A3006 500 84 1100 150/03 RMK AO2 VIS 2 1/2 RWY 14
14840KMKG MKG20070531062011505/31/07 06:20:31  5-MIN KMKG 311120Z 13004KT 5SM HZ FEW095 19/15 A3006 500 78 1100 140/04 RMK AO2 VIS 2 1/2 RWY 14
14840KMKG MKG20070531062511505/31/07 06:25:31  5-MIN KMKG 311125Z 13004KT 5SM HZ FEW095 19/15 A3006 500 75 1200 140/04 RMK AO2 VIS 2 1/2 RWY 14
14840KMKG MKG20070531063011205/31/07 06:30:31  5-MIN KMKG 311130Z 13003KT 5SM HZ CLR 19/16 A3006 500 78 1200 130/03 RMK AO2 VIS 2 1/2 RWY 14
14840KMKG MKG20070531063511205/31/07 06:35:31  5-MIN KMKG 311135Z 11004KT 5SM HZ CLR 19/16 A3005 510 78 1200 110/04 RMK AO2 VIS 2 1/2 RWY 14
14840KMKG MKG20070531064011205/31/07 06:40:31  5-MIN KMKG 311140Z 12005KT 5SM HZ CLR 19/16 A3006 500 78 1200 130/05 RMK AO2 VIS 2 1/2 RWY 14
14840KMKG MKG20070531064511505/31/07 06:45:31  5-MIN KMKG 311145Z 13005KT 5SM HZ FEW080 19/15 A3006 500 75 1200 130/05 RMK AO2 VIS 2 1/2 RWY 14
14840KMKG MKG20070531065013005/31/07 06:50:31  5-MIN KMKG 311150Z 15006KT 6SM HZ CLR 20/15 A3006 500 72 1200 150/06 RMK AO2 SLP175 T02000150 10206 20167 56004
14840KMKG MKG20070531065513005/31/07 06:55:31  5-MIN KMKG 311155Z 16005KT 6SM HZ CLR 21/15 A3006 500 70 1300 160/05 RMK AO2 SLP174 T02060150 10206 20167 53004
14840KMKG MKG20070531070009505/31/07 07:00:31  5-MIN KMKG 311200Z 16006KT 6SM HZ CLR 21/15 A3006 500 70 1300 160/06 RMK AO2
14840KMKG MKG20070531070509505/31/07 07:05:31  5-MIN KMKG 311205Z 16006KT 6SM HZ CLR 21/15 A3006 500 70 1300 160/06 RMK AO2
14840KMKG MKG20070531071009505/31/07 07:10:31  5-MIN KMKG 311210Z 15005KT 6SM HZ CLR 21/15 A3006 500 70 1300 160/05 RMK AO2
14840KMKG MKG20070531071509505/31/07 07:15:31  5-MIN KMKG 311215Z 15005KT 6SM HZ CLR 21/15 A3006 510 68 1400 150/05 RMK AO2
14840KMKG MKG20070531072009505/31/07 07:20:31  5-MIN KMKG 311220Z 15006KT 6SM HZ CLR 21/15 A3006 510 68 1400 160/06 RMK AO2
14840KMKG MKG20070531072509505/31/07 07:25:31  5-MIN KMKG 311225Z 15006KT 6SM HZ CLR 22/15 A3006 500 65 1400 160/06 RMK AO2
14840KMKG MKG20070531073009205/31/07 07:30:31  5-MIN KMKG 311230Z 15007KT 7SM CLR 22/15 A3006 510 65 1400 150/07 RMK AO2
14840KMKG MKG20070531073509205/31/07 07:35:31  5-MIN KMKG 311235Z 16006KT 7SM CLR 22/15 A3006 510 65 1400 160/06 RMK AO2
14840KMKG MKG20070531074009205/31/07 07:40:31  5-MIN KMKG 311240Z 16006KT 7SM CLR 22/16 A3006 500 65 1500 160/06 RMK AO2
14840KMKG MKG20070531074509205/31/07 07:45:31  5-MIN KMKG 311245Z 17007KT 7SM CLR 22/15 A3006 500 63 1500 170/07 RMK AO2
14840KMKG MKG20070531075010905/31/07 07:50:31  5-MIN KMKG 311250Z 16006KT 7SM CLR 22/16 A3006 500 65 1500 170/06 RMK AO2 SLP175 T02220156
14840KMKG MKG20070531075510905/31/07 07:55:31  5-MIN KMKG 311255Z 17007KT 7SM CLR 22/15 A3006 500 63 1500 180/07 RMK AO2 SLP175 T02220150
14840KMKG MKG20070531080009205/31/07 08:00:31  5-MIN KMKG 311300Z 16006KT 7SM CLR 23/15 A3006 500 61 1600 170/06 RMK AO2
14840KMKG MKG20070531080509205/31/07 08:05:31  5-MIN KMKG 311305Z 15006KT 7SM CLR 23/16 A3006 500 61 1600 160/06 RMK AO2
14840KMKG MKG20070531081009205/31/07 08:10:31  5-MIN KMKG 311310Z 15006KT 7SM CLR 23/15 A3006 500 59 1600 160/06 RMK AO2
14840KMKG MKG20070531081509205/31/07 08:15:31  5-MIN KMKG 311315Z 16007KT 7SM CLR 23/16 A3006 500 61 1600 160/07 RMK AO2
14840KMKG MKG20070531082009205/31/07 08:20:31  5-MIN KMKG 311320Z 17006KT 7SM CLR 23/16 A3006 500 61 1600 170/06 RMK AO2
14840KMKG MKG20070531082509205/31/07 08:25:31  5-MIN KMKG 311325Z 14006KT 7SM CLR 24/16 A3006 500 59 1700 140/06 RMK AO2
14840KMKG MKG20070531083009205/31/07 08:30:31  5-MIN KMKG 311330Z 16007KT 7SM CLR 24/16 A3006 500 57 1700 160/07 RMK AO2
14840KMKG MKG20070531084009205/31/07 08:40:31  5-MIN KMKG 311340Z 20007KT 7SM CLR 24/16 A3006 500 57 1700 200/07 RMK AO2
14840KMKG MKG20070531084509205/31/07 08:45:31  5-MIN KMKG 311345Z 17005KT 7SM CLR 24/16 A3006 500 57 1700 170/05 RMK AO2
14840KMKG MKG20070531085010905/31/07 08:50:31  5-MIN KMKG 311350Z 18004KT 7SM CLR 25/16 A3006 500 55 1800 180/04 RMK AO2 SLP176 T02500156
14840KMKG MKG20070531085510905/31/07 08:55:31  5-MIN KMKG 311355Z 19009KT 7SM CLR 25/16 A3006 500 55 1800 190/09 RMK AO2 SLP176 T02500156
14840KMKG MKG20070531090009205/31/07 09:00:31  5-MIN KMKG 311400Z 19011KT 7SM CLR 25/16 A3006 500 55 1800 190/11 RMK AO2
14840KMKG MKG20070531090509805/31/07 09:05:31  5-MIN KMKG 311405Z 18010G17KT 7SM CLR 25/15 A3006 500 53 1800 180/10G17 RMK AO2
14840KMKG MKG20070531091009805/31/07 09:10:31  5-MIN KMKG 311410Z 18009G17KT 7SM CLR 26/15 A3006 500 51 1900 180/09G17 RMK AO2
14840KMKG MKG20070531091509205/31/07 09:15:31  5-MIN KMKG 311415Z 18009KT 7SM CLR 26/16 A3006 500 53 1900 180/09 RMK AO2
14840KMKG MKG20070531092009205/31/07 09:20:31  5-MIN KMKG 311420Z 19009KT 7SM CLR 26/16 A3006 500 53 1900 200/09 RMK AO2
14840KMKG MKG20070531092509205/31/07 09:25:31  5-MIN KMKG 311425Z 19007KT 7SM CLR 26/15 A3006 500 51 1900 190/07 RMK AO2
14840KMKG MKG20070531093009205/31/07 09:30:31  5-MIN KMKG 311430Z 18009KT 8SM CLR 26/16 A3006 500 51 1900 190/09 RMK AO2
14840KMKG MKG20070531093509205/31/07 09:35:31  5-MIN KMKG 311435Z 18008KT 8SM CLR 26/15 A3006 500 51 1900 190/08 RMK AO2
14840KMKG MKG20070531094009205/31/07 09:40:31  5-MIN KMKG 311440Z 19009KT 8SM CLR 26/15 A3006 500 50 1900 200/09 RMK AO2
14840KMKG MKG20070531094509805/31/07 09:45:31  5-MIN KMKG 311445Z 21013G19KT 8SM CLR 26/16 A3007 500 51 1900 210/13G19 RMK AO2
14840KMKG MKG20070531095012105/31/07 09:50:31  5-MIN KMKG 311450Z 19015G19KT 8SM CLR 26/15 A3006 500 50 1900 200/15G19 RMK AO2 SLP177 T02610150 53004
14840KMKG MKG20070531095511505/31/07 09:55:31  5-MIN KMKG 311455Z 19011KT 7SM CLR 26/15 A3006 500 51 1900 200/11 RMK AO2 SLP177 T02560150 53002
14840KMKG MKG20070531100009205/31/07 10:00:31  5-MIN KMKG 311500Z 19012KT 7SM CLR 26/15 A3007 500 50 1900 190/12 RMK AO2
14840KMKG MKG20070531100509205/31/07 10:05:31  5-MIN KMKG 311505Z 19013KT 7SM CLR 26/14 A3006 500 48 1900 200/13 RMK AO2
14840KMKG MKG20070531101009805/31/07 10:10:31  5-MIN KMKG 311510Z 19012G18KT 8SM CLR 26/14 A3006 500 46 1900 190/12G18 RMK AO2
14840KMKG MKG20070531101509805/31/07 10:15:31  5-MIN KMKG 311515Z 19010G18KT 8SM CLR 27/14 A3006 500 45 2000 190/10G18 RMK AO2
14840KMKG MKG20070531102009805/31/07 10:20:31  5-MIN KMKG 311520Z 18009G16KT 8SM CLR 27/14 A3006 500 45 2000 190/09G16 RMK AO2
14840KMKG MKG20070531102509805/31/07 10:25:31  5-MIN KMKG 311525Z 19013G18KT 8SM CLR 26/13 A3006 500 44 1900 200/13G18 RMK AO2
14840KMKG MKG20070531103009805/31/07 10:30:31  5-MIN KMKG 311530Z 19011G18KT 8SM CLR 26/13 A3006 500 44 1900 190/11G18 RMK AO2
14840KMKG MKG20070531103509205/31/07 10:35:31  5-MIN KMKG 311535Z 19010KT 8SM CLR 26/13 A3006 500 44 1900 190/10 RMK AO2
14840KMKG MKG20070531104009205/31/07 10:40:31  5-MIN KMKG 311540Z 20011KT 8SM CLR 26/13 A3007 490 46 1900 200/11 RMK AO2
14840KMKG MKG20070531104509205/31/07 10:45:31  5-MIN KMKG 311545Z 20011KT 8SM CLR 26/13 A3007 500 44 1900 200/11 RMK AO2
14840KMKG MKG20070531105010905/31/07 10:50:31  5-MIN KMKG 311550Z 19012KT 8SM CLR 26/13 A3007 500 44 1900 190/12 RMK AO2 SLP178 T02560128
14840KMKG MKG20070531105510905/31/07 10:55:31  5-MIN KMKG 311555Z 20009KT 8SM CLR 26/13 A3007 500 44 1900 200/09 RMK AO2 SLP178 T02560128
14840KMKG MKG20070531110009805/31/07 11:00:31  5-MIN KMKG 311600Z 19011G16KT 8SM CLR 26/13 A3007 500 44 1900 200/11G16 RMK AO2
14840KMKG MKG20070531110509805/31/07 11:05:31  5-MIN KMKG 311605Z 20009G16KT 8SM CLR 26/13 A3007 500 44 1900 200/09G16 RMK AO2
14840KMKG MKG20070531111009205/31/07 11:10:31  5-MIN KMKG 311610Z 19011KT 8SM CLR 26/13 A3006 500 44 1900 190/11 RMK AO2
14840KMKG MKG20070531111509805/31/07 11:15:31  5-MIN KMKG 311615Z 20010G16KT 8SM CLR 26/13 A3006 500 43 1900 200/10G16 RMK AO2
14840KMKG MKG20070531112009205/31/07 11:20:31  5-MIN KMKG 311620Z 18009KT 8SM CLR 26/12 A3006 500 41 1900 190/09 RMK AO2
14840KMKG MKG20070531112509805/31/07 11:25:31  5-MIN KMKG 311625Z 19015G20KT 8SM CLR 27/12 A3006 500 39 2100 190/15G20 RMK AO2
14840KMKG MKG20070531113009805/31/07 11:30:31  5-MIN KMKG 311630Z 19010G20KT 8SM CLR 27/12 A3006 500 39 2100 190/10G20 RMK AO2
14840KMKG MKG20070531113509205/31/07 11:35:31  5-MIN KMKG 311635Z 19011KT 9SM CLR 27/12 A3006 500 37 2100 200/11 RMK AO2
14840KMKG MKG20070531114009805/31/07 11:40:31  5-MIN KMKG 311640Z 20014G18KT 9SM CLR 27/11 A3006 500 37 2000 210/14G18 RMK AO2
14840KMKG MKG20070531114509205/31/07 11:45:31  5-MIN KMKG 311645Z 20015KT 9SM CLR 27/11 A3006 500 36 2100 200/15 RMK AO2
14840KMKG MKG20070531115011505/31/07 11:50:31  5-MIN KMKG 311650Z 19011G18KT 9SM CLR 28/11 A3006 500 35 2100 200/11G18 RMK AO2 SLP177 T02780111
14840KMKG MKG20070531115511505/31/07 11:55:31  5-MIN KMKG 311655Z 20012G18KT 9SM CLR 28/11 A3006 500 35 2100 200/12G18 RMK AO2 SLP176 T02780111
14840KMKG MKG20070531120009205/31/07 12:00:31  5-MIN KMKG 311700Z 20012KT 9SM CLR 28/12 A3006 500 36 2100 210/12 RMK AO2
14840KMKG MKG20070531120509205/31/07 12:05:31  5-MIN KMKG 311705Z 21015KT 9SM CLR 28/11 A3006 500 35 2100 210/15 RMK AO2
14840KMKG MKG20070531121009805/31/07 12:10:31  5-MIN KMKG 311710Z 19014G21KT 9SM CLR 28/11 A3006 500 35 2100 200/14G21 RMK AO2
14840KMKG MKG20070531121509805/31/07 12:15:31  5-MIN KMKG 311715Z 20013G21KT 9SM CLR 27/11 A3006 510 36 2100 200/13G21 RMK AO2
14840KMKG MKG20070531122009805/31/07 12:20:31  5-MIN KMKG 311720Z 20012G21KT 9SM CLR 28/11 A3006 500 35 2100 200/12G21 RMK AO2
14840KMKG MKG20070531122509805/31/07 12:25:31  5-MIN KMKG 311725Z 20012G21KT 9SM CLR 28/11 A3006 510 35 2100 210/12G21 RMK AO2
14840KMKG MKG20070531123009805/31/07 12:30:31  5-MIN KMKG 311730Z 19010G20KT 9SM CLR 28/12 A3006 500 36 2100 200/10G20 RMK AO2
14840KMKG MKG20070531123509805/31/07 12:35:31  5-MIN KMKG 311735Z 20014G20KT 9SM CLR 28/11 A3005 510 35 2100 200/14G20 RMK AO2
14840KMKG MKG20070531124009805/31/07 12:40:31  5-MIN KMKG 311740Z 20013G19KT 9SM CLR 27/11 A3005 510 36 2100 200/13G19 RMK AO2
14840KMKG MKG20070531124509805/31/07 12:45:31  5-MIN KMKG 311745Z 20015G20KT 8SM CLR 27/11 A3005 510 36 2100 200/15G20 RMK AO2
14840KMKG MKG20070531125013305/31/07 12:50:31  5-MIN KMKG 311750Z 19015G20KT 9SM CLR 28/11 A3005 510 35 2100 200/15G20 RMK AO2 SLP174 T02780111 10283 20206 53002
14840KMKG MKG20070531125512705/31/07 12:55:31  5-MIN KMKG 311755Z 20013KT 8SM CLR 28/11 A3005 510 35 2100 210/13 RMK AO2 SLP174 T02780111 10283 20206 58004
14840KMKG MKG20070531130009205/31/07 13:00:31  5-MIN KMKG 311800Z 20012KT 8SM CLR 28/11 A3005 510 33 2100 200/12 RMK AO2
14840KMKG MKG20070531130509205/31/07 13:05:31  5-MIN KMKG 311805Z 20013KT 8SM CLR 28/11 A3005 510 33 2200 200/13 RMK AO2
14840KMKG MKG20070531131009205/31/07 13:10:31  5-MIN KMKG 311810Z 19014KT 8SM CLR 28/11 A3005 510 35 2100 190/14 RMK AO2
14840KMKG MKG20070531131509205/31/07 13:15:31  5-MIN KMKG 311815Z 20013KT 9SM CLR 28/11 A3004 520 35 2100 200/13 RMK AO2
14840KMKG MKG20070531132009205/31/07 13:20:31  5-MIN KMKG 311820Z 18009KT 9SM CLR 27/12 A3004 520 37 2100 190/09 RMK AO2
14840KMKG MKG20070531132509205/31/07 13:25:31  5-MIN KMKG 311825Z 20009KT 9SM CLR 28/12 A3004 520 36 2200 200/09 RMK AO2
14840KMKG MKG20070531133009805/31/07 13:30:31  5-MIN KMKG 311830Z 20014G17KT 9SM CLR 28/12 A3004 520 36 2200 200/14G17 RMK AO2
14840KMKG MKG20070531133509805/31/07 13:35:31  5-MIN KMKG 311835Z 21016G19KT 8SM CLR 28/12 A3004 520 36 2100 210/16G19 RMK AO2
14840KMKG MKG20070531134009805/31/07 13:40:31  5-MIN KMKG 311840Z 20011G19KT 8SM CLR 27/12 A3004 520 37 2100 210/11G19 RMK AO2
14840KMKG MKG20070531134509205/31/07 13:45:31  5-MIN KMKG 311845Z 19012KT 8SM CLR 27/12 A3004 520 39 2100 200/12 RMK AO2
14840KMKG MKG20070531135011505/31/07 13:50:31  5-MIN KMKG 311850Z 19010G18KT 8SM CLR 27/12 A3004 520 37 2100 200/10G18 RMK AO2 SLP169 T02720117
14840KMKG MKG20070531135510905/31/07 13:55:31  5-MIN KMKG 311855Z 20010KT 8SM CLR 27/12 A3004 520 39 2100 200/10 RMK AO2 SLP168 T02720122
14840KMKG MKG20070531140009805/31/07 14:00:31  5-MIN KMKG 311900Z 20008G16KT 8SM CLR 27/12 A3004 520 40 2000 200/08G16 RMK AO2
14840KMKG MKG20070531140509205/31/07 14:05:31  5-MIN KMKG 311905Z 20011KT 7SM CLR 27/12 A3003 520 37 2100 210/11 RMK AO2
14840KMKG MKG20070531141009205/31/07 14:10:31  5-MIN KMKG 311910Z 21009KT 7SM CLR 28/12 A3003 530 37 2200 210/09 RMK AO2
14840KMKG MKG20070531141509205/31/07 14:15:31  5-MIN KMKG 311915Z 21011KT 7SM CLR 28/12 A3003 530 36 2200 210/11 RMK AO2
14840KMKG MKG20070531142009205/31/07 14:20:31  5-MIN KMKG 311920Z 20012KT 7SM CLR 27/12 A3003 530 37 2100 210/12 RMK AO2
14840KMKG MKG20070531142509205/31/07 14:25:31  5-MIN KMKG 311925Z 20008KT 7SM CLR 28/12 A3003 530 37 2200 200/08 RMK AO2
14840KMKG MKG20070531143009205/31/07 14:30:31  5-MIN KMKG 311930Z 21012KT 7SM CLR 28/12 A3003 530 35 2200 220/12 RMK AO2
14840KMKG MKG20070531143509205/31/07 14:35:31  5-MIN KMKG 311935Z 22011KT 7SM CLR 28/12 A3003 530 36 2200 230/11 RMK AO2
14840KMKG MKG20070531144009205/31/07 14:40:31  5-MIN KMKG 311940Z 23012KT 7SM CLR 28/12 A3003 530 36 2200 230/12 RMK AO2
14840KMKG MKG20070531144509205/31/07 14:45:31  5-MIN KMKG 311945Z 22012KT 7SM CLR 27/12 A3002 530 40 2000 220/12 RMK AO2
14840KMKG MKG20070531145010905/31/07 14:50:31  5-MIN KMKG 311950Z 23011KT 7SM CLR 27/13 A3002 530 41 2000 230/11 RMK AO2 SLP164 T02670128
14840KMKG MKG20070531145510905/31/07 14:55:31  5-MIN KMKG 311955Z 23011KT 7SM CLR 26/13 A3003 530 44 1900 230/11 RMK AO2 SLP164 T02560128
14840KMKG MKG20070531150009205/31/07 15:00:31  5-MIN KMKG 312000Z 21010KT 7SM CLR 26/13 A3003 530 44 1900 220/10 RMK AO2
14840KMKG MKG20070531150509205/31/07 15:05:31  5-MIN KMKG 312005Z 23010KT 7SM CLR 27/13 A3002 540 43 2000 230/10 RMK AO2
14840KMKG MKG20070531151009205/31/07 15:10:31  5-MIN KMKG 312010Z 23010KT 7SM CLR 26/13 A3002 540 44 2000 230/10 RMK AO2
14840KMKG MKG20070531151509205/31/07 15:15:31  5-MIN KMKG 312015Z 23009KT 7SM CLR 26/13 A3002 540 44 2000 230/09 RMK AO2
14840KMKG MKG20070531152009205/31/07 15:20:31  5-MIN KMKG 312020Z 22009KT 7SM CLR 26/13 A3002 540 44 2000 220/09 RMK AO2
14840KMKG MKG20070531152509205/31/07 15:25:31  5-MIN KMKG 312025Z 23008KT 7SM CLR 26/13 A3002 540 44 2000 230/08 RMK AO2
14840KMKG MKG20070531153009205/31/07 15:30:31  5-MIN KMKG 312030Z 23010KT 7SM CLR 26/13 A3002 540 44 2000 240/10 RMK AO2
14840KMKG MKG20070531153509205/31/07 15:35:31  5-MIN KMKG 312035Z 23009KT 7SM CLR 26/13 A3002 540 46 1900 230/09 RMK AO2
14840KMKG MKG20070531154009205/31/07 15:40:31  5-MIN KMKG 312040Z 22008KT 7SM CLR 25/13 A3002 540 48 1900 230/08 RMK AO2
14840KMKG MKG20070531154509205/31/07 15:45:31  5-MIN KMKG 312045Z 22008KT 7SM CLR 26/14 A3002 540 48 1900 230/08 RMK AO2
14840KMKG MKG20070531155011805/31/07 15:50:31  5-MIN KMKG 312050Z 23007KT 7SM FEW080 25/14 A3002 540 49 1900 230/07 RMK AO2 SLP162 T02500139 58004
14840KMKG MKG20070531155511505/31/07 15:55:31  5-MIN KMKG 312055Z 25007KT 7SM CLR 26/14 A3002 540 49 1900 250/07 RMK AO2 SLP162 T02560144 56012
14840KMKG MKG20070531160009205/31/07 16:00:31  5-MIN KMKG 312100Z 23007KT 7SM CLR 25/14 A3002 540 51 1900 230/07 RMK AO2
14840KMKG MKG20070531160509205/31/07 16:05:31  5-MIN KMKG 312105Z 24008KT 7SM CLR 25/14 A3002 540 49 1900 250/08 RMK AO2
14840KMKG MKG20070531161009505/31/07 16:10:31  5-MIN KMKG 312110Z 24005KT 7SM FEW080 24/14 A3002 540 53 1800 240/05 RMK AO2
14840KMKG MKG20070531161509205/31/07 16:15:31  5-MIN KMKG 312115Z 23005KT 7SM CLR 24/14 A3002 540 53 1800 240/05 RMK AO2
14840KMKG MKG20070531162009205/31/07 16:20:31  5-MIN KMKG 312120Z 25007KT 7SM CLR 24/14 A3002 540 53 1800 250/07 RMK AO2
14840KMKG MKG20070531162509205/31/07 16:25:31  5-MIN KMKG 312125Z 24006KT 7SM CLR 24/14 A3002 540 51 1800 250/06 RMK AO2
14840KMKG MKG20070531163009205/31/07 16:30:31  5-MIN KMKG 312130Z 25006KT 7SM CLR 24/14 A3001 540 51 1800 250/06 RMK AO2
14840KMKG MKG20070531163509205/31/07 16:35:31  5-MIN KMKG 312135Z 23007KT 7SM CLR 24/14 A3001 540 51 1800 240/07 RMK AO2
14840KMKG MKG20070531164009205/31/07 16:40:31  5-MIN KMKG 312140Z 24004KT 7SM CLR 24/14 A3002 540 51 1800 240/04 RMK AO2
14840KMKG MKG20070531164509205/31/07 16:45:31  5-MIN KMKG 312145Z 26005KT 7SM CLR 24/14 A3002 540 51 1800 260/05 RMK AO2
14840KMKG MKG20070531165010905/31/07 16:50:31  5-MIN KMKG 312150Z 26004KT 7SM CLR 24/14 A3002 540 51 1800 260/04 RMK AO2 SLP162 T02440139
14840KMKG MKG20070531165510905/31/07 16:55:31  5-MIN KMKG 312155Z 24005KT 7SM CLR 24/14 A3002 540 51 1800 240/05 RMK AO2 SLP162 T02440139
14840KMKG MKG20070531170009205/31/07 17:00:31  5-MIN KMKG 312200Z 24005KT 7SM CLR 24/14 A3002 540 51 1800 250/05 RMK AO2
14840KMKG MKG20070531170509505/31/07 17:05:31  5-MIN KMKG 312205Z 26004KT 6SM HZ CLR 24/14 A3001 540 53 1800 270/04 RMK AO2
14840KMKG MKG20070531171009505/31/07 17:10:31  5-MIN KMKG 312210Z 26004KT 6SM HZ CLR 24/14 A3001 540 53 1700 260/04 RMK AO2
14840KMKG MKG20070531171509505/31/07 17:15:31  5-MIN KMKG 312215Z 27003KT 6SM HZ CLR 24/14 A3001 540 53 1700 270/03 RMK AO2
14840KMKG MKG20070531172009805/31/07 17:20:31  5-MIN KMKG 312220Z 25005KT 6SM HZ FEW090 24/14 A3001 550 53 1700 260/05 RMK AO2
14840KMKG MKG20070531172509805/31/07 17:25:31  5-MIN KMKG 312225Z 26005KT 6SM HZ FEW090 24/14 A3001 550 55 1700 260/05 RMK AO2
14840KMKG MKG20070531173009805/31/07 17:30:31  5-MIN KMKG 312230Z 00000KT 6SM HZ FEW085 24/14 A3001 540 55 1700 000/00 RMK AO2
14840KMKG MKG20070531173509805/31/07 17:35:31  5-MIN KMKG 312235Z 00000KT 6SM HZ SCT085 24/14 A3001 550 55 1700 000/00 RMK AO2
14840KMKG MKG20070531174009805/31/07 17:40:31  5-MIN KMKG 312240Z 29004KT 6SM HZ SCT085 24/14 A3001 550 55 1700 300/04 RMK AO2
14840KMKG MKG20070531174509805/31/07 17:45:31  5-MIN KMKG 312245Z 27003KT 6SM HZ SCT085 23/14 A3001 550 57 1700 270/03 RMK AO2
14840KMKG MKG20070531175011505/31/07 17:50:31  5-MIN KMKG 312250Z 28003KT 6SM HZ FEW080 23/14 A3001 550 55 1700 290/03 RMK AO2 SLP161 T02330139
14840KMKG MKG20070531175511505/31/07 17:55:31  5-MIN KMKG 312255Z 27005KT 6SM HZ SCT080 23/14 A3002 540 55 1700 270/05 RMK AO2 SLP162 T02330139
14840KMKG MKG20070531180010505/31/07 18:00:31  5-MIN KMKG 312300Z 23010KT 6SM HZ BKN075 23/14 A3003 530 57 1700 230/10 RMK AO2 PRESRR
14840KMKG MKG20070531180509805/31/07 18:05:31  5-MIN KMKG 312305Z 23009KT 6SM HZ BKN075 23/14 A3004 520 59 1600 230/09 RMK AO2
14840KMKG MKG20070531181011105/31/07 18:10:31  5-MIN KMKG 312310Z 24011G14KT 6SM HZ SCT075 SCT100 22/14 A3004 520 59 1500 240/11G14 RMK AO2
14840KMKG MKG20070531181510505/31/07 18:15:31  5-MIN KMKG 312315Z 24012KT 6SM HZ SCT075 SCT100 22/14 A3004 520 61 1500 240/12 RMK AO2
14840KMKG MKG20070531182011105/31/07 18:20:31  5-MIN KMKG 312320Z 24014G21KT 6SM HZ FEW075 SCT100 21/14 A3005 510 65 1300 250/14G21 RMK AO2
14840KMKG MKG20070531182510405/31/07 18:25:31  5-MIN KMKG 312325Z 23012G21KT 6SM HZ FEW070 21/14 A3005 510 67 1300 240/12G21 RMK AO2
14840KMKG MKG20070531183010405/31/07 18:30:31  5-MIN KMKG 312330Z 23011G18KT 6SM HZ FEW080 20/14 A3005 510 70 1300 240/11G18 RMK AO2
14840KMKG MKG20070531183509505/31/07 18:35:31  5-MIN KMKG 312335Z 24010KT 6SM HZ CLR 19/14 A3005 510 72 1200 250/10 RMK AO2
14840KMKG MKG20070531184010105/31/07 18:40:31  5-MIN KMKG 312340Z 25010G18KT 6SM HZ CLR 19/15 A3004 520 75 1200 260/10G18 RMK AO2
14840KMKG MKG20070531184509805/31/07 18:45:31  5-MIN KMKG 312345Z 26009G18KT 7SM CLR 19/15 A3004 520 75 1200 260/09G18 RMK AO2
14840KMKG MKG20070531185012705/31/07 18:50:31  5-MIN KMKG 312350Z 25006KT 7SM CLR 19/15 A3004 520 75 1200 260/06 RMK AO2 SLP171 T01940150 10283 20194 56012
14840KMKG MKG20070531185513005/31/07 18:55:31  5-MIN KMKG 312355Z 25006KT 7SM FEW095 19/15 A3004 520 75 1200 250/06 RMK AO2 SLP171 T01940150 10283 20194 53008
14840KMKG MKG20070531190009505/31/07 19:00:31  5-MIN KMKG 010000Z VRB04KT 7SM SCT095 19/15 A3004 520 75 1200 VRB/04 RMK AO2
14840KMKG MKG20070531190509505/31/07 19:05:31  5-MIN KMKG 010005Z 26004KT 7SM SCT095 19/15 A3004 520 75 1200 270/04 RMK AO2
14840KMKG MKG20070531191010205/31/07 19:10:31  5-MIN KMKG 010010Z 24003KT 7SM FEW050 BKN095 19/15 A3005 510 75 1200 250/03 RMK AO2
14840KMKG MKG20070531191510205/31/07 19:15:31  5-MIN KMKG 010015Z 25003KT 7SM FEW050 BKN095 19/15 A3004 520 75 1200 250/03 RMK AO2
14840KMKG MKG20070531192010205/31/07 19:20:31  5-MIN KMKG 010020Z 23004KT 7SM FEW050 BKN095 19/15 A3004 520 75 1200 240/04 RMK AO2
14840KMKG MKG20070531192510205/31/07 19:25:31  5-MIN KMKG 010025Z 24003KT 7SM FEW050 SCT095 19/15 A3004 520 75 1200 250/03 RMK AO2
14840KMKG MKG20070531193010905/31/07 19:30:31  5-MIN KMKG 010030Z 25004KT 7SM FEW050 SCT080 SCT095 19/15 A3004 520 75 1200 250/04 RMK AO2
14840KMKG MKG20070531193510205/31/07 19:35:31  5-MIN KMKG 010035Z 26004KT 7SM FEW050 BKN095 19/15 A3004 520 75 1200 270/04 RMK AO2
14840KMKG MKG20070531194010205/31/07 19:40:31  5-MIN KMKG 010040Z 25003KT 7SM FEW080 SCT100 19/15 A3004 520 78 1100 260/03 RMK AO2
14840KMKG MKG20070531194510505/31/07 19:45:31  5-MIN KMKG 010045Z 28004KT 6SM HZ FEW080 SCT100 19/14 A3004 520 75 1100 280/04 RMK AO2
14840KMKG MKG20070531195012205/31/07 19:50:31  5-MIN KMKG 010050Z 25003KT 6SM HZ FEW080 SCT100 19/14 A3004 520 75 1100 250/03 RMK AO2 SLP171 T01890144
14840KMKG MKG20070531195511505/31/07 19:55:31  5-MIN KMKG 010055Z 25003KT 6SM HZ FEW080 19/15 A3004 520 78 1100 250/03 RMK AO2 SLP171 T01890150
14840KMKG MKG20070531200009805/31/07 20:00:31  5-MIN KMKG 010100Z 00000KT 6SM HZ FEW100 18/15 A3004 520 81 1100 000/00 RMK AO2
14840KMKG MKG20070531200509505/31/07 20:05:31  5-MIN KMKG 010105Z 00000KT 6SM HZ CLR 18/15 A3004 520 81 1100 000/00 RMK AO2
14840KMKG MKG20070531201009505/31/07 20:10:31  5-MIN KMKG 010110Z 00000KT 6SM HZ CLR 18/15 A3004 520 81 1100 000/00 RMK AO2
14840KMKG MKG20070531201509505/31/07 20:15:31  5-MIN KMKG 010115Z 00000KT 6SM HZ CLR 18/15 A3004 520 81 1100 000/00 RMK AO2
14840KMKG MKG20070531202009505/31/07 20:20:31  5-MIN KMKG 010120Z 00000KT 6SM HZ CLR 18/15 A3004 520 81 1100 000/00 RMK AO2
14840KMKG MKG20070531202509805/31/07 20:25:31  5-MIN KMKG 010125Z 00000KT 6SM HZ FEW110 18/15 A3003 530 81 1100 000/00 RMK AO2
14840KMKG MKG20070531203009505/31/07 20:30:31  5-MIN KMKG 010130Z 00000KT 7SM SCT120 19/15 A3003 530 78 1100 000/00 RMK AO2
14840KMKG MKG20070531203509505/31/07 20:35:31  5-MIN KMKG 010135Z 00000KT 7SM SCT120 19/15 A3003 530 78 1100 000/00 RMK AO2
14840KMKG MKG20070531204009505/31/07 20:40:31  5-MIN KMKG 010140Z 09003KT 8SM SCT120 19/15 A3003 530 78 1100 090/03 RMK AO2
14840KMKG MKG20070531204509505/31/07 20:45:31  5-MIN KMKG 010145Z 10003KT 8SM FEW120 19/15 A3003 530 78 1100 100/03 RMK AO2
14840KMKG MKG20070531205011205/31/07 20:50:31  5-MIN KMKG 010150Z 00000KT 8SM FEW120 19/15 A3003 530 78 1100 000/00 RMK AO2 SLP165 T01890150
14840KMKG MKG20070531205511205/31/07 20:55:31  5-MIN KMKG 010155Z 00000KT 8SM SCT120 19/15 A3003 530 78 1200 000/00 RMK AO2 SLP165 T01890150
14840KMKG MKG20070531210009505/31/07 21:00:31  5-MIN KMKG 010200Z 10003KT 8SM SCT110 19/15 A3003 530 78 1200 110/03 RMK AO2
14840KMKG MKG20070531210509505/31/07 21:05:31  5-MIN KMKG 010205Z 10004KT 8SM SCT110 19/15 A3003 530 78 1200 100/04 RMK AO2
14840KMKG MKG20070531211009505/31/07 21:10:31  5-MIN KMKG 010210Z 10003KT 7SM SCT110 19/15 A3003 530 78 1200 110/03 RMK AO2
14840KMKG MKG20070531211509505/31/07 21:15:31  5-MIN KMKG 010215Z 11003KT 7SM BKN110 19/15 A3003 530 78 1200 110/03 RMK AO2
14840KMKG MKG20070531212009505/31/07 21:20:31  5-MIN KMKG 010220Z 12003KT 7SM BKN110 19/15 A3003 530 78 1200 120/03 RMK AO2
14840KMKG MKG20070531212509505/31/07 21:25:31  5-MIN KMKG 010225Z 12004KT 7SM BKN100 19/15 A3003 530 78 1100 120/04 RMK AO2
14840KMKG MKG20070531213009505/31/07 21:30:31  5-MIN KMKG 010230Z 12004KT 7SM SCT110 19/15 A3003 530 78 1100 120/04 RMK AO2
14840KMKG MKG20070531213509505/31/07 21:35:31  5-MIN KMKG 010235Z 10004KT 7SM SCT100 18/15 A3003 530 81 1100 110/04 RMK AO2
14840KMKG MKG20070531214009505/31/07 21:40:31  5-MIN KMKG 010240Z 11004KT 7SM FEW100 18/15 A3003 530 81 1100 110/04 RMK AO2
14840KMKG MKG20070531214509505/31/07 21:45:31  5-MIN KMKG 010245Z 12003KT 7SM FEW100 18/15 A3003 530 81 1100 120/03 RMK AO2
14840KMKG MKG20070531215011805/31/07 21:50:31  5-MIN KMKG 010250Z 12003KT 7SM FEW095 18/15 A3003 530 81 1100 130/03 RMK AO2 SLP167 T01830150 53008
14840KMKG MKG20070531215511805/31/07 21:55:31  5-MIN KMKG 010255Z 00000KT 7SM SCT095 18/15 A3003 530 81 1100 000/00 RMK AO2 SLP167 T01830150 55003
14840KMKG MKG20070531220009505/31/07 22:00:31  5-MIN KMKG 010300Z 11003KT 7SM BKN095 18/15 A3003 530 81 1100 110/03 RMK AO2
14840KMKG MKG20070531220509505/31/07 22:05:31  5-MIN KMKG 010305Z 12004KT 7SM BKN095 18/15 A3003 530 81 1100 120/04 RMK AO2
14840KMKG MKG20070531221009505/31/07 22:10:31  5-MIN KMKG 010310Z 11003KT 7SM BKN095 18/15 A3003 530 81 1100 110/03 RMK AO2
14840KMKG MKG20070531221509505/31/07 22:15:31  5-MIN KMKG 010315Z 11005KT 7SM BKN095 18/15 A3003 530 81 1100 120/05 RMK AO2
14840KMKG MKG20070531222009505/31/07 22:20:31  5-MIN KMKG 010320Z 12005KT 7SM BKN095 18/15 A3003 530 81 1100 130/05 RMK AO2
14840KMKG MKG20070531222509505/31/07 22:25:31  5-MIN KMKG 010325Z 12004KT 7SM BKN100 18/15 A3003 530 81 1100 120/04 RMK AO2
14840KMKG MKG20070531223009505/31/07 22:30:31  5-MIN KMKG 010330Z 11004KT 7SM BKN100 18/15 A3003 530 81 1100 120/04 RMK AO2
14840KMKG MKG20070531223509505/31/07 22:35:31  5-MIN KMKG 010335Z 11004KT 7SM BKN100 18/15 A3003 530 81 1100 120/04 RMK AO2
14840KMKG MKG20070531224009505/31/07 22:40:31  5-MIN KMKG 010340Z 12005KT 7SM BKN100 19/15 A3003 530 78 1100 120/05 RMK AO2
14840KMKG MKG20070531224509505/31/07 22:45:31  5-MIN KMKG 010345Z 11004KT 7SM OVC100 19/15 A3003 520 78 1100 120/04 RMK AO2
14840KMKG MKG20070531225011205/31/07 22:50:31  5-MIN KMKG 010350Z 12004KT 7SM OVC100 19/15 A3004 520 78 1100 120/04 RMK AO2 SLP168 T01890150
14840KMKG MKG20070531225511205/31/07 22:55:31  5-MIN KMKG 010355Z 11004KT 7SM OVC095 19/16 A3004 520 81 1100 120/04 RMK AO2 SLP168 T01890156
14840KMKG MKG20070531230009505/31/07 23:00:31  5-MIN KMKG 010400Z 12004KT 7SM OVC090 19/16 A3003 520 81 1100 130/04 RMK AO2
14840KMKG MKG20070531230509505/31/07 23:05:31  5-MIN KMKG 010405Z 13004KT 7SM OVC095 19/16 A3004 520 81 1100 140/04 RMK AO2
14840KMKG MKG20070531231010205/31/07 23:10:31  5-MIN KMKG 010410Z 15004KT 7SM SCT080 OVC100 19/16 A3004 520 81 1100 150/04 RMK AO2
14840KMKG MKG20070531231510205/31/07 23:15:31  5-MIN KMKG 010415Z 16004KT 8SM BKN080 OVC095 19/16 A3004 520 81 1100 160/04 RMK AO2
14840KMKG MKG20070531232010205/31/07 23:20:31  5-MIN KMKG 010420Z 15003KT 8SM BKN080 OVC095 19/16 A3004 520 81 1100 160/03 RMK AO2
14840KMKG MKG20070531232510205/31/07 23:25:31  5-MIN KMKG 010425Z 16004KT 7SM BKN080 OVC100 19/16 A3004 520 81 1100 160/04 RMK AO2
14840KMKG MKG20070531233010205/31/07 23:30:31  5-MIN KMKG 010430Z 16004KT 7SM BKN080 OVC100 19/16 A3004 520 81 1100 170/04 RMK AO2
14840KMKG MKG20070531233509505/31/07 23:35:31  5-MIN KMKG 010435Z 17003KT 7SM OVC080 19/16 A3004 520 81 1100 170/03 RMK AO2
14840KMKG MKG20070531234009505/31/07 23:40:31  5-MIN KMKG 010440Z 16003KT 7SM OVC080 19/16 A3003 520 81 1100 160/03 RMK AO2
14840KMKG MKG20070531234510205/31/07 23:45:31  5-MIN KMKG 010445Z 15003KT 7SM BKN080 OVC110 19/16 A3004 520 81 1100 160/03 RMK AO2
14840KMKG MKG20070531235012905/31/07 23:50:31  5-MIN KMKG 010450Z 14004KT 7SM BKN085 OVC110 19/16 A3004 520 81 1100 150/04 RMK AO2 SLP167 T01890156 402830167
14840KMKG MKG20070531235512905/31/07 23:55:31  5-MIN KMKG 010455Z 14005KT 7SM SCT080 OVC110 19/16 A3003 520 81 1100 140/05 RMK AO2 SLP167 T01890156 402830167
