14840KMKG MKG20021104224009511/04/02 22:40:31  5-MIN KMKG 050340Z 00000KT 8SM CLR M02/M03 A3015 420 92 -1500 000/00 RMK AO2
14840KMKG MKG20021104224509511/04/02 22:45:31  5-MIN KMKG 050345Z 00000KT 9SM CLR M02/M04 A3015 420 88 -1500 000/00 RMK AO2
14840KMKG MKG20021104225011211/04/02 22:50:31  5-MIN KMKG 050350Z 00000KT 9SM CLR M03/M04 A3014 430 92 -1600 000/00 RMK AO2 SLP214 T10281039
14840KMKG MKG20021104225511211/04/02 22:55:31  5-MIN KMKG 050355Z 05003KT 9SM CLR M02/M03 A3014 420 92 -1500 060/03 RMK AO2 SLP214 T10221033
14840KMKG MKG20021104230009511/04/02 23:00:31  5-MIN KMKG 050400Z 06004KT 8SM CLR M02/M03 A3014 430 92 -1500 060/04 RMK AO2
14840KMKG MKG20021104230509511/04/02 23:05:31  5-MIN KMKG 050405Z 06003KT 8SM CLR M03/M04 A3014 430 96 -1600 060/03 RMK AO2
14840KMKG MKG20021104231009511/04/02 23:10:31  5-MIN KMKG 050410Z 07003KT 8SM CLR M03/M04 A3014 430 92 -1600 070/03 RMK AO2
14840KMKG MKG20021104231509511/04/02 23:15:31  5-MIN KMKG 050415Z 07003KT 9SM CLR M02/M04 A3014 430 88 -1500 070/03 RMK AO2
14840KMKG MKG20021104232009511/04/02 23:20:31  5-MIN KMKG 050420Z 06003KT 9SM CLR M03/M04 A3014 430 92 -1600 070/03 RMK AO2
14840KMKG MKG20021104232509511/04/02 23:25:31  5-MIN KMKG 050425Z 00000KT 9SM CLR M02/M04 A3014 430 88 -1500 000/00 RMK AO2
14840KMKG MKG20021104233009511/04/02 23:30:31  5-MIN KMKG 050430Z 06003KT 9SM CLR M02/M04 A3014 430 88 -1500 060/03 RMK AO2
14840KMKG MKG20021104233509611/04/02 23:35:31  5-MIN KMKG 050435Z 00000KT 10SM CLR M02/M03 A3014 430 92 -1500 000/00 RMK AO2
14840KMKG MKG20021104234009611/04/02 23:40:31  5-MIN KMKG 050440Z 00000KT 10SM CLR M02/M03 A3014 430 92 -1500 000/00 RMK AO2
14840KMKG MKG20021104234509611/04/02 23:45:31  5-MIN KMKG 050445Z 00000KT 10SM CLR M02/M03 A3014 430 92 -1500 000/00 RMK AO2
14840KMKG MKG20021104235012311/04/02 23:50:31  5-MIN KMKG 050450Z 00000KT 10SM CLR M02/M03 A3013 430 88 -1400 000/00 RMK AO2 SLP210 T10171033 400781033
14840KMKG MKG20021104235512311/04/02 23:55:31  5-MIN KMKG 050455Z 08003KT 10SM CLR M02/M03 A3013 440 88 -1400 090/03 RMK AO2 SLP209 T10171033 400781033
14840KMKG MKG20021105000009611/05/02 00:00:31  5-MIN KMKG 050500Z 08003KT 10SM CLR M02/M03 A3013 440 88 -1400 080/03 RMK AO2
14840KMKG MKG20021105000509611/05/02 00:05:31  5-MIN KMKG 050505Z 07005KT 10SM CLR M02/M04 A3013 440 85 -1400 080/05 RMK AO2
14840KMKG MKG20021105001009611/05/02 00:10:31  5-MIN KMKG 050510Z 08006KT 10SM CLR M02/M04 A3013 440 85 -1400 080/06 RMK AO2
14840KMKG MKG20021105001509611/05/02 00:15:31  5-MIN KMKG 050515Z 08006KT 10SM CLR M01/M04 A3013 440 81 -1300 080/06 RMK AO2
14840KMKG MKG20021105002009611/05/02 00:20:31  5-MIN KMKG 050520Z 08006KT 10SM CLR M01/M03 A3013 440 85 -1300 090/06 RMK AO2
14840KMKG MKG20021105002509611/05/02 00:25:31  5-MIN KMKG 050525Z 09004KT 10SM CLR M01/M03 A3012 440 85 -1300 090/04 RMK AO2
14840KMKG MKG20021105003009611/05/02 00:30:31  5-MIN KMKG 050530Z 08006KT 10SM CLR M01/M04 A3013 440 81 -1300 090/06 RMK AO2
14840KMKG MKG20021105003509611/05/02 00:35:31  5-MIN KMKG 050535Z 08006KT 10SM CLR M01/M03 A3012 440 85 -1300 080/06 RMK AO2
14840KMKG MKG20021105004009611/05/02 00:40:31  5-MIN KMKG 050540Z 08007KT 10SM CLR M01/M03 A3012 450 85 -1300 090/07 RMK AO2
14840KMKG MKG20021105004509611/05/02 00:45:31  5-MIN KMKG 050545Z 08008KT 10SM CLR M01/M03 A3012 450 81 -1300 080/08 RMK AO2
14840KMKG MKG20021105005013111/05/02 00:50:31  5-MIN KMKG 050550Z 08009KT 10SM CLR M01/M03 A3012 450 81 -1300 080/09 RMK AO2 SLP204 T10061033 10022 21033 51006
14840KMKG MKG20021105005513111/05/02 00:55:31  5-MIN KMKG 050555Z 08007KT 10SM CLR M01/M03 A3011 450 81 -1300 090/07 RMK AO2 SLP203 T10061033 10022 21033 58010
14840KMKG MKG20021105010009611/05/02 01:00:31  5-MIN KMKG 050600Z 08007KT 10SM CLR M01/M03 A3012 450 81 -1300 090/07 RMK AO2
14840KMKG MKG20021105010509611/05/02 01:05:31  5-MIN KMKG 050605Z 09006KT 10SM CLR M01/M03 A3012 450 81 -1300 090/06 RMK AO2
14840KMKG MKG20021105011009611/05/02 01:10:31  5-MIN KMKG 050610Z 09007KT 10SM CLR M01/M03 A3012 450 81 -1300 090/07 RMK AO2
14840KMKG MKG20021105011509611/05/02 01:15:31  5-MIN KMKG 050615Z 07006KT 10SM CLR M01/M03 A3012 440 81 -1300 080/06 RMK AO2
14840KMKG MKG20021105012009611/05/02 01:20:31  5-MIN KMKG 050620Z 08006KT 10SM CLR M01/M03 A3012 440 81 -1300 090/06 RMK AO2
14840KMKG MKG20021105012509611/05/02 01:25:31  5-MIN KMKG 050625Z 08006KT 10SM CLR M01/M03 A3012 450 81 -1300 090/06 RMK AO2
14840KMKG MKG20021105013009611/05/02 01:30:31  5-MIN KMKG 050630Z 08007KT 10SM CLR M01/M03 A3012 450 81 -1300 090/07 RMK AO2
14840KMKG MKG20021105013509611/05/02 01:35:31  5-MIN KMKG 050635Z 08008KT 10SM CLR M01/M03 A3011 460 81 -1200 080/08 RMK AO2
14840KMKG MKG20021105014009611/05/02 01:40:31  5-MIN KMKG 050640Z 08008KT 10SM CLR M01/M03 A3011 460 85 -1200 080/08 RMK AO2
14840KMKG MKG20021105014509611/05/02 01:45:31  5-MIN KMKG 050645Z 07008KT 10SM CLR M01/M03 A3010 460 85 -1200 080/08 RMK AO2
14840KMKG MKG20021105015011311/05/02 01:50:31  5-MIN KMKG 050650Z 08008KT 10SM CLR M01/M03 A3010 460 85 -1200 080/08 RMK AO2 SLP200 T10061028
14840KMKG MKG20021105015511211/05/02 01:55:31  5-MIN KMKG 050655Z 09007KT 10SM CLR 00/M03 A3011 460 81 -1200 090/07 RMK AO2 SLP201 T00001028
14840KMKG MKG20021105020009511/05/02 02:00:31  5-MIN KMKG 050700Z 09007KT 10SM CLR 00/M03 A3010 460 81 -1200 090/07 RMK AO2
14840KMKG MKG20021105020509511/05/02 02:05:31  5-MIN KMKG 050705Z 09006KT 10SM CLR 00/M03 A3010 460 81 -1200 100/06 RMK AO2
14840KMKG MKG20021105021009511/05/02 02:10:31  5-MIN KMKG 050710Z 11006KT 10SM CLR 00/M03 A3010 460 81 -1200 110/06 RMK AO2
14840KMKG MKG20021105021509511/05/02 02:15:31  5-MIN KMKG 050715Z 10006KT 10SM CLR 00/M03 A3010 460 81 -1200 110/06 RMK AO2
14840KMKG MKG20021105022009611/05/02 02:20:31  5-MIN KMKG 050720Z 10005KT 10SM CLR M01/M03 A3010 460 85 -1200 110/05 RMK AO2
14840KMKG MKG20021105022509611/05/02 02:25:31  5-MIN KMKG 050725Z 10005KT 10SM CLR M01/M03 A3010 460 85 -1200 110/05 RMK AO2
14840KMKG MKG20021105023009911/05/02 02:30:31  5-MIN KMKG 050730Z 10004KT 10SM FEW036 M01/M03 A3010 460 85 -1200 110/04 RMK AO2
14840KMKG MKG20021105023509911/05/02 02:35:31  5-MIN KMKG 050735Z 09005KT 10SM FEW036 M01/M03 A3010 460 85 -1200 090/05 RMK AO2
14840KMKG MKG20021105024009611/05/02 02:40:31  5-MIN KMKG 050740Z 09005KT 10SM CLR M01/M03 A3010 460 85 -1200 100/05 RMK AO2
14840KMKG MKG20021105024509611/05/02 02:45:31  5-MIN KMKG 050745Z 10005KT 10SM CLR M01/M03 A3010 460 85 -1200 100/05 RMK AO2
14840KMKG MKG20021105025011611/05/02 02:50:31  5-MIN KMKG 050750Z 11004KT 10SM FEW037 M01/M03 A3010 460 85 -1200 110/04 RMK AO2 SLP198 T10061028
14840KMKG MKG20021105025511611/05/02 02:55:31  5-MIN KMKG 050755Z 11005KT 10SM SCT037 M01/M03 A3010 470 85 -1200 110/05 RMK AO2 SLP198 T10061028
14840KMKG MKG20021105030009911/05/02 03:00:31  5-MIN KMKG 050800Z 12004KT 10SM BKN037 M01/M03 A3010 460 85 -1200 120/04 RMK AO2
14840KMKG MKG20021105030509911/05/02 03:05:31  5-MIN KMKG 050805Z 13004KT 10SM BKN037 M01/M03 A3011 460 85 -1200 130/04 RMK AO2
14840KMKG MKG20021105031009811/05/02 03:10:31  5-MIN KMKG 050810Z 13004KT 10SM BKN037 00/M03 A3011 460 81 -1200 130/04 RMK AO2
14840KMKG MKG20021105031509811/05/02 03:15:31  5-MIN KMKG 050815Z 14003KT 10SM OVC037 00/M02 A3011 450 85 -1200 140/03 RMK AO2
14840KMKG MKG20021105032009811/05/02 03:20:31  5-MIN KMKG 050820Z 13005KT 10SM OVC037 00/M02 A3011 460 85 -1200 130/05 RMK AO2
14840KMKG MKG20021105032509811/05/02 03:25:31  5-MIN KMKG 050825Z 12005KT 10SM OVC037 01/M02 A3010 460 82 -1100 120/05 RMK AO2
14840KMKG MKG20021105033009811/05/02 03:30:31  5-MIN KMKG 050830Z 11005KT 10SM OVC037 01/M02 A3010 460 82 -1100 110/05 RMK AO2
14840KMKG MKG20021105033509811/05/02 03:35:31  5-MIN KMKG 050835Z 11005KT 10SM OVC037 01/M02 A3010 460 85 -1100 110/05 RMK AO2
14840KMKG MKG20021105034009811/05/02 03:40:31  5-MIN KMKG 050840Z 11005KT 10SM OVC037 01/M02 A3010 470 82 -1100 110/05 RMK AO2
14840KMKG MKG20021105034509811/05/02 03:45:31  5-MIN KMKG 050845Z 11006KT 10SM OVC037 01/M02 A3010 470 85 -1100 110/06 RMK AO2
14840KMKG MKG20021105035012111/05/02 03:50:31  5-MIN KMKG 050850Z 10005KT 10SM OVC037 01/M02 A3009 470 85 -1100 100/05 RMK AO2 SLP196 T00061017 58010
14840KMKG MKG20021105035512111/05/02 03:55:31  5-MIN KMKG 050855Z 09005KT 10SM OVC037 01/M02 A3009 470 78 -1000 100/05 RMK AO2 SLP195 T00111022 58008
14840KMKG MKG20021105040009811/05/02 04:00:31  5-MIN KMKG 050900Z 10006KT 10SM OVC037 01/M02 A3009 480 82 -1000 100/06 RMK AO2
14840KMKG MKG20021105040509811/05/02 04:05:31  5-MIN KMKG 050905Z 10006KT 10SM OVC037 01/M02 A3009 480 82 -1000 100/06 RMK AO2
14840KMKG MKG20021105041009811/05/02 04:10:31  5-MIN KMKG 050910Z 11006KT 10SM OVC037 01/M02 A3009 480 82 -1000 110/06 RMK AO2
14840KMKG MKG20021105041509811/05/02 04:15:31  5-MIN KMKG 050915Z 10006KT 10SM OVC037 01/M02 A3008 480 82 -1000 100/06 RMK AO2
14840KMKG MKG20021105042009811/05/02 04:20:31  5-MIN KMKG 050920Z 10007KT 10SM OVC037 01/M02 A3007 490 82 -1000 100/07 RMK AO2
14840KMKG MKG20021105042509811/05/02 04:25:31  5-MIN KMKG 050925Z 10008KT 10SM OVC037 01/M02 A3007 490 82 -1000 110/08 RMK AO2
14840KMKG MKG20021105043009711/05/02 04:30:31  5-MIN KMKG 050930Z 10007KT 10SM OVC037 02/M02 A3007 490 78 -900 110/07 RMK AO2
14840KMKG MKG20021105043509711/05/02 04:35:31  5-MIN KMKG 050935Z 10008KT 10SM OVC037 02/M02 A3007 490 78 -900 110/08 RMK AO2
14840KMKG MKG20021105044009711/05/02 04:40:31  5-MIN KMKG 050940Z 10008KT 10SM OVC037 02/M02 A3007 490 78 -900 100/08 RMK AO2
14840KMKG MKG20021105044509711/05/02 04:45:31  5-MIN KMKG 050945Z 10007KT 10SM OVC037 02/M02 A3007 490 78 -900 110/07 RMK AO2
14840KMKG MKG20021105045011411/05/02 04:50:31  5-MIN KMKG 050950Z 10007KT 10SM OVC037 02/M02 A3007 490 78 -900 110/07 RMK AO2 SLP188 T00171017
14840KMKG MKG20021105045511411/05/02 04:55:31  5-MIN KMKG 050955Z 10007KT 10SM OVC037 02/M02 A3007 490 78 -900 110/07 RMK AO2 SLP189 T00171017
14840KMKG MKG20021105050009711/05/02 05:00:31  5-MIN KMKG 051000Z 10007KT 10SM OVC037 02/M02 A3007 500 78 -900 100/07 RMK AO2
14840KMKG MKG20021105050509711/05/02 05:05:31  5-MIN KMKG 051005Z 10007KT 10SM OVC037 02/M02 A3007 490 78 -900 100/07 RMK AO2
14840KMKG MKG20021105051009711/05/02 05:10:31  5-MIN KMKG 051010Z 10007KT 10SM OVC037 02/M02 A3007 490 78 -900 110/07 RMK AO2
14840KMKG MKG20021105051509711/05/02 05:15:31  5-MIN KMKG 051015Z 11006KT 10SM OVC037 02/M02 A3008 490 78 -900 110/06 RMK AO2
14840KMKG MKG20021105052009711/05/02 05:20:31  5-MIN KMKG 051020Z 10006KT 10SM OVC037 02/M02 A3007 490 78 -900 110/06 RMK AO2
14840KMKG MKG20021105052509711/05/02 05:25:31  5-MIN KMKG 051025Z 10008KT 10SM OVC037 02/M02 A3006 500 78 -900 110/08 RMK AO2
14840KMKG MKG20021105053009711/05/02 05:30:31  5-MIN KMKG 051030Z 10008KT 10SM OVC037 02/M02 A3006 510 78 -900 100/08 RMK AO2
14840KMKG MKG20021105053510411/05/02 05:35:31  5-MIN KMKG 051035Z 10011KT 10SM OVC037 02/M02 A3005 510 78 -900 110/11 RMK AO2 PRESFR
14840KMKG MKG20021105054010411/05/02 05:40:31  5-MIN KMKG 051040Z 09011KT 10SM OVC037 02/M02 A3003 530 78 -900 100/11 RMK AO2 PRESFR
14840KMKG MKG20021105054509711/05/02 05:45:31  5-MIN KMKG 051045Z 10009KT 10SM OVC037 02/M02 A3003 530 78 -900 100/09 RMK AO2
14840KMKG MKG20021105055011411/05/02 05:50:31  5-MIN KMKG 051050Z 10009KT 10SM OVC037 02/M02 A3003 530 78 -900 100/09 RMK AO2 SLP175 T00171017
14840KMKG MKG20021105055511411/05/02 05:55:31  5-MIN KMKG 051055Z 11009KT 10SM OVC037 02/M02 A3004 520 78 -900 110/09 RMK AO2 SLP178 T00171017
14840KMKG MKG20021105060009711/05/02 06:00:31  5-MIN KMKG 051100Z 11009KT 10SM OVC037 02/M02 A3004 520 78 -900 120/09 RMK AO2
14840KMKG MKG20021105060509711/05/02 06:05:31  5-MIN KMKG 051105Z 11008KT 10SM OVC035 02/M02 A3004 520 78 -900 110/08 RMK AO2
14840KMKG MKG20021105061009711/05/02 06:10:31  5-MIN KMKG 051110Z 11009KT 10SM OVC035 02/M02 A3003 530 78 -900 110/09 RMK AO2
14840KMKG MKG20021105061510411/05/02 06:15:31  5-MIN KMKG 051115Z 10010KT 10SM OVC035 02/M02 A3002 540 78 -900 100/10 RMK AO2 PRESFR
14840KMKG MKG20021105062009711/05/02 06:20:31  5-MIN KMKG 051120Z 11009KT 10SM OVC035 02/M02 A3002 540 78 -900 110/09 RMK AO2
14840KMKG MKG20021105062509711/05/02 06:25:31  5-MIN KMKG 051125Z 11008KT 10SM OVC033 02/M02 A3003 530 78 -900 110/08 RMK AO2
14840KMKG MKG20021105063009711/05/02 06:30:31  5-MIN KMKG 051130Z 11008KT 10SM OVC033 02/M01 A3002 530 82 -900 110/08 RMK AO2
14840KMKG MKG20021105063509711/05/02 06:35:31  5-MIN KMKG 051135Z 10008KT 10SM OVC033 02/M01 A3002 540 82 -900 100/08 RMK AO2
14840KMKG MKG20021105064009711/05/02 06:40:31  5-MIN KMKG 051140Z 11008KT 10SM OVC033 02/M01 A3001 540 82 -900 110/08 RMK AO2
14840KMKG MKG20021105064509711/05/02 06:45:31  5-MIN KMKG 051145Z 11008KT 10SM OVC033 02/M01 A3001 550 82 -900 110/08 RMK AO2
14840KMKG MKG20021105065013211/05/02 06:50:31  5-MIN KMKG 051150Z 11007KT 10SM OVC033 02/M01 A3001 550 82 -900 110/07 RMK AO2 SLP169 T00171011 10017 21006 58008
14840KMKG MKG20021105065513211/05/02 06:55:31  5-MIN KMKG 051155Z 10007KT 10SM OVC035 02/M01 A3000 550 82 -800 100/07 RMK AO2 SLP166 T00171011 10017 21006 58029
14840KMKG MKG20021105070009711/05/02 07:00:31  5-MIN KMKG 051200Z 11007KT 10SM OVC035 02/M01 A3000 560 82 -800 110/07 RMK AO2
14840KMKG MKG20021105070509711/05/02 07:05:31  5-MIN KMKG 051205Z 10007KT 10SM OVC035 02/M01 A3000 550 82 -800 110/07 RMK AO2
14840KMKG MKG20021105071009711/05/02 07:10:31  5-MIN KMKG 051210Z 10007KT 10SM OVC035 02/M01 A3000 550 82 -800 100/07 RMK AO2
14840KMKG MKG20021105071509711/05/02 07:15:31  5-MIN KMKG 051215Z 09007KT 10SM OVC035 02/M01 A3000 560 82 -800 100/07 RMK AO2
14840KMKG MKG20021105072009711/05/02 07:20:31  5-MIN KMKG 051220Z 09008KT 10SM OVC035 02/M01 A3000 560 82 -800 100/08 RMK AO2
14840KMKG MKG20021105072509711/05/02 07:25:31  5-MIN KMKG 051225Z 10008KT 10SM OVC035 02/M01 A3000 560 82 -800 100/08 RMK AO2
14840KMKG MKG20021105073009711/05/02 07:30:31  5-MIN KMKG 051230Z 10009KT 10SM OVC035 02/M01 A2999 560 82 -800 100/09 RMK AO2
14840KMKG MKG20021105073509711/05/02 07:35:31  5-MIN KMKG 051235Z 10010KT 10SM OVC035 02/M01 A2999 570 82 -800 100/10 RMK AO2
14840KMKG MKG20021105074009611/05/02 07:40:31  5-MIN KMKG 051240Z 09007KT 9SM OVC035 02/M01 A2998 570 82 -800 090/07 RMK AO2
14840KMKG MKG20021105074509611/05/02 07:45:31  5-MIN KMKG 051245Z 10008KT 9SM OVC035 02/M01 A2998 570 82 -800 100/08 RMK AO2
14840KMKG MKG20021105075011311/05/02 07:50:31  5-MIN KMKG 051250Z 10007KT 9SM OVC035 02/M01 A2998 570 82 -800 110/07 RMK AO2 SLP160 T00171011
14840KMKG MKG20021105075511311/05/02 07:55:31  5-MIN KMKG 051255Z 11008KT 9SM OVC035 02/M01 A3000 560 82 -800 120/08 RMK AO2 SLP164 T00171011
14840KMKG MKG20021105080009611/05/02 08:00:31  5-MIN KMKG 051300Z 11007KT 9SM OVC035 02/M01 A3000 560 82 -800 110/07 RMK AO2
14840KMKG MKG20021105080509611/05/02 08:05:31  5-MIN KMKG 051305Z 11008KT 9SM OVC035 02/M01 A2999 570 82 -800 110/08 RMK AO2
14840KMKG MKG20021105081009611/05/02 08:10:31  5-MIN KMKG 051310Z 10006KT 9SM OVC035 02/M01 A3000 560 82 -800 100/06 RMK AO2
14840KMKG MKG20021105081509611/05/02 08:15:31  5-MIN KMKG 051315Z 10007KT 9SM OVC035 02/M01 A2999 560 82 -800 110/07 RMK AO2
14840KMKG MKG20021105082009611/05/02 08:20:31  5-MIN KMKG 051320Z 11006KT 9SM OVC035 02/M01 A2999 560 82 -800 110/06 RMK AO2
14840KMKG MKG20021105082509611/05/02 08:25:31  5-MIN KMKG 051325Z 10006KT 9SM OVC033 02/M01 A2999 560 82 -800 100/06 RMK AO2
14840KMKG MKG20021105083009611/05/02 08:30:31  5-MIN KMKG 051330Z 10007KT 9SM OVC033 02/M01 A2999 560 82 -800 100/07 RMK AO2
14840KMKG MKG20021105083509611/05/02 08:35:31  5-MIN KMKG 051335Z 11008KT 9SM OVC033 02/M01 A2999 560 82 -800 110/08 RMK AO2
14840KMKG MKG20021105084009611/05/02 08:40:31  5-MIN KMKG 051340Z 10008KT 9SM OVC033 02/M01 A2999 560 78 -800 100/08 RMK AO2
14840KMKG MKG20021105084509611/05/02 08:45:31  5-MIN KMKG 051345Z 10008KT 9SM OVC033 02/M01 A2999 570 78 -800 100/08 RMK AO2
14840KMKG MKG20021105085011311/05/02 08:50:31  5-MIN KMKG 051350Z 09008KT 9SM OVC033 02/M01 A2998 570 78 -800 100/08 RMK AO2 SLP160 T00221011
14840KMKG MKG20021105085511311/05/02 08:55:31  5-MIN KMKG 051355Z 10007KT 9SM OVC033 02/M01 A2998 570 78 -800 100/07 RMK AO2 SLP161 T00221011
14840KMKG MKG20021105090009611/05/02 09:00:31  5-MIN KMKG 051400Z 10008KT 9SM OVC033 02/M01 A2998 570 78 -800 100/08 RMK AO2
14840KMKG MKG20021105090509611/05/02 09:05:31  5-MIN KMKG 051405Z 11007KT 8SM OVC033 02/M01 A2998 570 78 -700 110/07 RMK AO2
14840KMKG MKG20021105091009611/05/02 09:10:31  5-MIN KMKG 051410Z 10009KT 8SM OVC033 02/M01 A2997 580 78 -700 100/09 RMK AO2
14840KMKG MKG20021105091509611/05/02 09:15:31  5-MIN KMKG 051415Z 10008KT 8SM OVC033 02/M01 A2997 580 78 -700 100/08 RMK AO2
14840KMKG MKG20021105092009611/05/02 09:20:31  5-MIN KMKG 051420Z 10008KT 8SM OVC033 02/M01 A2997 580 78 -700 100/08 RMK AO2
14840KMKG MKG20021105092509611/05/02 09:25:31  5-MIN KMKG 051425Z 10008KT 8SM OVC035 02/M01 A2997 590 82 -700 100/08 RMK AO2
14840KMKG MKG20021105093009611/05/02 09:30:31  5-MIN KMKG 051430Z 10009KT 8SM OVC035 02/M01 A2997 590 82 -700 100/09 RMK AO2
14840KMKG MKG20021105093509611/05/02 09:35:31  5-MIN KMKG 051435Z 11009KT 8SM OVC035 02/M01 A2997 590 82 -700 110/09 RMK AO2
14840KMKG MKG20021105094009611/05/02 09:40:31  5-MIN KMKG 051440Z 11009KT 8SM OVC035 02/M01 A2998 580 82 -700 120/09 RMK AO2
14840KMKG MKG20021105094509611/05/02 09:45:31  5-MIN KMKG 051445Z 11010KT 8SM OVC035 03/M01 A2997 580 79 -700 110/10 RMK AO2
14840KMKG MKG20021105095011911/05/02 09:50:31  5-MIN KMKG 051450Z 11011KT 8SM OVC035 03/M01 A2997 580 79 -700 110/11 RMK AO2 SLP157 T00281006 58029
14840KMKG MKG20021105095511911/05/02 09:55:31  5-MIN KMKG 051455Z 10010KT 8SM OVC035 03/M01 A2997 580 79 -700 110/10 RMK AO2 SLP156 T00281006 58011
14840KMKG MKG20021105100009611/05/02 10:00:31  5-MIN KMKG 051500Z 10010KT 8SM OVC035 03/M01 A2996 590 79 -700 100/10 RMK AO2
14840KMKG MKG20021105100509611/05/02 10:05:31  5-MIN KMKG 051505Z 10010KT 7SM OVC035 03/M01 A2996 590 79 -700 100/10 RMK AO2
14840KMKG MKG20021105101009611/05/02 10:10:31  5-MIN KMKG 051510Z 09011KT 7SM OVC035 03/M01 A2996 600 79 -700 100/11 RMK AO2
14840KMKG MKG20021105101509611/05/02 10:15:31  5-MIN KMKG 051515Z 10011KT 7SM OVC035 03/M01 A2995 600 79 -600 100/11 RMK AO2
14840KMKG MKG20021105102009611/05/02 10:20:31  5-MIN KMKG 051520Z 10011KT 7SM BKN035 03/M01 A2994 610 79 -600 100/11 RMK AO2
14840KMKG MKG20021105102509611/05/02 10:25:31  5-MIN KMKG 051525Z 10010KT 7SM BKN035 03/M01 A2994 610 79 -600 110/10 RMK AO2
14840KMKG MKG20021105103009611/05/02 10:30:31  5-MIN KMKG 051530Z 10009KT 7SM BKN037 03/M01 A2993 620 79 -600 100/09 RMK AO2
14840KMKG MKG20021105103510311/05/02 10:35:31  5-MIN KMKG 051535Z 10010KT 7SM BKN037 03/M01 A2993 630 79 -600 100/10 RMK AO2 PRESFR
14840KMKG MKG20021105115516011/05/02 11:55:31  5-MIN KMKG 051655Z 12012KT 1 3/4SM -SN BR BKN008 OVC015 02/02 A2988 670 96 -600 130/12 RMK AO2 TWR VIS 2 RAB20E47SNB47 SLP126 P0001 T00220017
14840KMKG MKG20021105120014411/05/02 12:00:31  5-MIN KMKG 051700Z 12010KT 1 3/4SM -RA BR BKN006 OVC010 02/02 A2988 670 96 -600 130/10 RMK AO2 TWR VIS 2 RAB1658SNE1658 P0000
14840KMKG MKG20021105120513211/05/02 12:05:31  5-MIN KMKG 051705Z 12012KT 1SM -RASN BR OVC006 02/01 A2987 680 96 -700 130/12 RMK AO2 SFC VIS 1 3/4 RAB1658 P0000
14840KMKG MKG20021105121014011/05/02 12:10:31  5-MIN KMKG 051710Z 13010KT 1SM -SN BR BKN006 OVC009 02/01 A2987 680 96 -700 130/10 RMK AO2 SFC VIS 1 3/4 RAB1658E10 P0000
14840KMKG MKG20021105121514511/05/02 12:15:31  5-MIN KMKG 051715Z 12011KT 1SM -SN BR OVC006 02/01 A2986 680 96 -700 130/11 RMK AO2 SFC VIS 1 1/2 RAB1658E10 CIG 004V009 P0001
14840KMKG MKG20021105122014011/05/02 12:20:31  5-MIN KMKG 051720Z 12011KT 1SM -SN BR OVC006 02/01 A2986 690 96 -700 120/11 RMK AO2 SFC VIS 1 1/4 RAB1658E10 PRESFR P0001
14840KMKG MKG20021105122513311/05/02 12:25:31  5-MIN KMKG 051725Z 12010KT 1SM -SN BR OVC006 02/01 A2986 690 96 -700 130/10 RMK AO2 SFC VIS 1 1/2 RAB1658E10 P0001
14840KMKG MKG20021105123013311/05/02 12:30:31  5-MIN KMKG 051730Z 12010KT 1SM -SN BR OVC006 02/01 A2986 690 96 -700 120/10 RMK AO2 SFC VIS 1 1/2 RAB1658E10 P0002
14840KMKG MKG20021105123513311/05/02 12:35:31  5-MIN KMKG 051735Z 12010KT 1SM -SN BR OVC006 02/01 A2986 690 96 -700 120/10 RMK AO2 SFC VIS 1 1/2 RAB1658E10 P0002
14840KMKG MKG20021105124014511/05/02 12:40:31  5-MIN KMKG 051740Z 12009KT 1SM -SN BR OVC006 02/01 A2985 700 96 -700 120/09 RMK AO2 SFC VIS 1 3/4 RAB1658E10 CIG 004V008 P0002
14840KMKG MKG20021105124514611/05/02 12:45:31  5-MIN KMKG 051745Z 12009KT 1SM -SN BR OVC006 02/02 A2985 700 100 -700 120/09 RMK AO2 SFC VIS 1 3/4 RAB1658E10 CIG 004V009 P0002
14840KMKG MKG20021105125018711/05/02 12:50:31  5-MIN KMKG 051750Z 12012KT 1SM -SN BR OVC006 02/02 A2984 700 100 -700 120/12 RMK AO2 SFC VIS 1 3/4 RAB1658E10 CIG 004V009 SLP113 P0002 60003 T00170017 10039 20017 58011
14840KMKG MKG20021105125518611/05/02 12:55:31  5-MIN KMKG 051755Z 12009KT 1SM -SN BR OVC006 02/01 A2984 700 96 -700 120/09 RMK AO2 SFC VIS 1 1/2 RAB1658E10 CIG 004V009 SLP114 P0003 60004 T00170011 10039 20017 56042
14840KMKG MKG20021105130013411/05/02 13:00:31  5-MIN KMKG 051800Z 12011KT 1SM -SN BR OVC006 02/01 A2984 700 96 -700 120/11 RMK AO2 SFC VIS 1 1/2 CIG 004V009 P0000
14840KMKG MKG20021105130513411/05/02 13:05:31  5-MIN KMKG 051805Z 12009KT 1SM -SN BR OVC006 02/01 A2984 710 96 -700 120/09 RMK AO2 SFC VIS 1 1/2 CIG 004V009 P0000
14840KMKG MKG20021105131013411/05/02 13:10:31  5-MIN KMKG 051810Z 12010KT 1SM -SN BR OVC006 02/01 A2983 720 96 -600 120/10 RMK AO2 SFC VIS 1 1/2 CIG 005V009 P0001
14840KMKG MKG20021105131514111/05/02 13:15:31  5-MIN KMKG 051815Z 11010KT 1SM -SN BR OVC006 02/01 A2982 730 96 -600 110/10 RMK AO2 SFC VIS 1 1/2 CIG 005V009 PRESFR P0001
14840KMKG MKG20021105132013411/05/02 13:20:31  5-MIN KMKG 051820Z 11010KT 1SM -SN BR OVC006 02/01 A2982 730 96 -600 120/10 RMK AO2 SFC VIS 1 1/2 CIG 005V009 P0001
14840KMKG MKG20021105132512211/05/02 13:25:31  5-MIN KMKG 051825Z 11009KT 1SM -SN BR OVC006 02/01 A2982 720 96 -600 110/09 RMK AO2 SFC VIS 1 1/2 P0002
14840KMKG MKG20021105133013411/05/02 13:30:31  5-MIN KMKG 051830Z 12009KT 1SM -SN BR OVC006 02/01 A2982 730 96 -600 120/09 RMK AO2 SFC VIS 1 1/4 CIG 004V009 P0002
14840KMKG MKG20021105133513411/05/02 13:35:31  5-MIN KMKG 051835Z 11009KT 1SM -SN BR OVC006 02/01 A2981 730 96 -600 110/09 RMK AO2 SFC VIS 1 1/4 CIG 004V009 P0002
14840KMKG MKG20021105134013411/05/02 13:40:31  5-MIN KMKG 051840Z 11009KT 1SM -SN BR OVC006 02/01 A2981 740 96 -600 110/09 RMK AO2 SFC VIS 1 1/4 CIG 004V009 P0002
14840KMKG MKG20021105134513411/05/02 13:45:31  5-MIN KMKG 051845Z 10007KT 1SM -SN BR OVC006 02/01 A2980 740 96 -600 100/07 RMK AO2 SFC VIS 1 1/2 CIG 004V009 P0003
14840KMKG MKG20021105135015811/05/02 13:50:31  5-MIN KMKG 051850Z 09006KT 1SM -SN BR OVC006 02/01 A2979 750 96 -600 090/06 RMK AO2 SFC VIS 1 1/2 CIG 004V009 PRESFR SLP096 P0003 T00170011
14840KMKG MKG20021105135515111/05/02 13:55:31  5-MIN KMKG 051855Z 09007KT 1SM -SN BR OVC006 02/01 A2979 750 96 -600 090/07 RMK AO2 SFC VIS 1 1/4 CIG 004V009 SLP095 P0003 T00170011
14840KMKG MKG20021105140013411/05/02 14:00:31  5-MIN KMKG 051900Z 09006KT 1SM -SN BR OVC006 02/01 A2979 750 96 -600 090/06 RMK AO2 SFC VIS 1 1/4 CIG 004V009 P0000
14840KMKG MKG20021105140513411/05/02 14:05:31  5-MIN KMKG 051905Z 08007KT 1SM -SN BR OVC006 02/01 A2978 760 96 -600 090/07 RMK AO2 SFC VIS 1 1/4 CIG 003V008 P0001
14840KMKG MKG20021105141013411/05/02 14:10:31  5-MIN KMKG 051910Z 09007KT 1SM -SN BR OVC006 02/01 A2978 760 96 -600 090/07 RMK AO2 SFC VIS 1 1/4 CIG 003V008 P0001
14840KMKG MKG20021105141512211/05/02 14:15:31  5-MIN KMKG 051915Z 09006KT 1SM -SN BR OVC004 02/01 A2978 760 96 -600 090/06 RMK AO2 SFC VIS 1 1/2 P0001
14840KMKG MKG20021105142012211/05/02 14:20:31  5-MIN KMKG 051920Z 09006KT 1SM -SN BR OVC004 02/01 A2978 760 96 -600 090/06 RMK AO2 SFC VIS 1 1/2 P0001
14840KMKG MKG20021105142513411/05/02 14:25:31  5-MIN KMKG 051925Z 08005KT 1SM -SN BR OVC004 02/01 A2978 760 96 -600 090/05 RMK AO2 SFC VIS 1 1/2 CIG 003V009 P0002
14840KMKG MKG20021105143012211/05/02 14:30:31  5-MIN KMKG 051930Z 08006KT 1SM -SN BR OVC004 02/01 A2978 760 96 -600 080/06 RMK AO2 SFC VIS 1 1/2 P0002
14840KMKG MKG20021105143512211/05/02 14:35:31  5-MIN KMKG 051935Z 08005KT 1SM -SN BR OVC004 02/01 A2977 770 96 -600 090/05 RMK AO2 SFC VIS 1 1/2 P0002
14840KMKG MKG20021105144012211/05/02 14:40:31  5-MIN KMKG 051940Z 08006KT 1SM -SN BR OVC004 02/01 A2977 770 96 -600 080/06 RMK AO2 SFC VIS 1 1/2 P0003
14840KMKG MKG20021105144512211/05/02 14:45:31  5-MIN KMKG 051945Z 08006KT 1SM -SN BR OVC004 02/01 A2977 770 96 -600 080/06 RMK AO2 SFC VIS 1 3/4 P0003
14840KMKG MKG20021105145015011/05/02 14:50:31  5-MIN KMKG 051950Z 08007KT 1SM -RA BR OVC004 02/01 A2977 770 96 -600 090/07 RMK AO2 SFC VIS 1 3/4 RAB48SNE48 SLP087 P0003 T00170011
14840KMKG MKG20021105145515011/05/02 14:55:31  5-MIN KMKG 051955Z 08006KT 1SM -RA BR OVC004 02/01 A2976 780 96 -600 080/06 RMK AO2 SFC VIS 1 3/4 RAB48SNE48 SLP085 P0004 T00170011
14840KMKG MKG20021105150011811/05/02 15:00:31  5-MIN KMKG 052000Z 08006KT 1SM -RA BR OVC004 02/01 A2976 780 96 -600 080/06 RMK AO2 SFC VIS 2 P0000
14840KMKG MKG20021105150511811/05/02 15:05:31  5-MIN KMKG 052005Z 08007KT 1SM -RA BR OVC004 02/01 A2976 780 96 -600 080/07 RMK AO2 SFC VIS 2 P0001
14840KMKG MKG20021105151011811/05/02 15:10:31  5-MIN KMKG 052010Z 07007KT 1SM -RA BR OVC004 02/01 A2975 780 96 -600 080/07 RMK AO2 SFC VIS 2 P0001
14840KMKG MKG20021105151511811/05/02 15:15:31  5-MIN KMKG 052015Z 07006KT 1SM -RA BR OVC004 02/01 A2976 780 96 -600 080/06 RMK AO2 SFC VIS 2 P0001
14840KMKG MKG20021105152011811/05/02 15:20:31  5-MIN KMKG 052020Z 08007KT 1SM -RA BR OVC004 02/01 A2975 790 96 -600 080/07 RMK AO2 SFC VIS 2 P0002
14840KMKG MKG20021105152512511/05/02 15:25:31  5-MIN KMKG 052025Z 08006KT 1SM -RA BR BKN004 OVC023 02/01 A2975 790 96 -600 080/06 RMK AO2 SFC VIS 2 P0002
14840KMKG MKG20021105153012511/05/02 15:30:31  5-MIN KMKG 052030Z 08006KT 1SM -RA BR BKN004 OVC023 02/01 A2976 780 96 -600 080/06 RMK AO2 SFC VIS 2 P0002
14840KMKG MKG20021105153512511/05/02 15:35:31  5-MIN KMKG 052035Z 08007KT 1SM -RA BR BKN004 OVC023 02/01 A2975 790 96 -600 090/07 RMK AO2 SFC VIS 2 P0002
14840KMKG MKG20021105154012911/05/02 15:40:31  5-MIN KMKG 052040Z 08006KT 1SM -RA BR BKN004 OVC023 02/01 A2975 790 96 -600 090/06 RMK AO2 SFC VIS 2 1/2 P0002
14840KMKG MKG20021105154512911/05/02 15:45:31  5-MIN KMKG 052045Z 08009KT 1SM -RA BR BKN004 OVC025 02/01 A2975 790 96 -600 080/09 RMK AO2 SFC VIS 2 1/2 P0002
14840KMKG MKG20021105155015811/05/02 15:50:31  5-MIN KMKG 052050Z 08007KT 1SM -RA BR BKN004 OVC022 02/01 A2975 790 96 -600 080/07 RMK AO2 SFC VIS 2 1/2 SLP079 P0003 60010 T00170011 56042
14840KMKG MKG20021105155515911/05/02 15:55:31  5-MIN KMKG 052055Z 07008KT 1SM -RA BR BKN004 OVC019 02/02 A2974 790 100 -500 080/08 RMK AO2 SFC VIS 2 1/2 SLP078 P0003 60010 T00170017 56034
14840KMKG MKG20021105160013011/05/02 16:00:31  5-MIN KMKG 052100Z 07007KT 1SM -RA BR BKN004 OVC019 02/02 A2974 790 100 -500 070/07 RMK AO2 SFC VIS 2 1/2 P0000
14840KMKG MKG20021105160513011/05/02 16:05:31  5-MIN KMKG 052105Z 06007KT 1SM -RA BR BKN004 OVC019 02/02 A2975 790 100 -500 070/07 RMK AO2 SFC VIS 2 1/2 P0000
14840KMKG MKG20021105161012611/05/02 16:10:31  5-MIN KMKG 052110Z 05006KT 1SM -RA BR BKN004 OVC019 02/02 A2975 790 100 -600 060/06 RMK AO2 SFC VIS 3 P0000
14840KMKG MKG20021105161513311/05/02 16:15:31  5-MIN KMKG 052115Z 05005KT 1SM -RA BR BKN004 BKN019 OVC030 02/02 A2975 790 100 -600 060/05 RMK AO2 SFC VIS 3 P0000
14840KMKG MKG20021105162013311/05/02 16:20:31  5-MIN KMKG 052120Z 07006KT 1SM -RA BR BKN004 BKN019 OVC030 02/02 A2975 790 100 -500 070/06 RMK AO2 SFC VIS 3 P0000
14840KMKG MKG20021105162513311/05/02 16:25:31  5-MIN KMKG 052125Z 06007KT 1SM -RA BR BKN004 BKN019 OVC030 02/02 A2974 790 100 -500 070/07 RMK AO2 SFC VIS 3 P0001
14840KMKG MKG20021105163012611/05/02 16:30:31  5-MIN KMKG 052130Z 07006KT 1SM -RA BR BKN004 OVC030 02/02 A2974 790 100 -500 070/06 RMK AO2 SFC VIS 3 P0001
14840KMKG MKG20021105163512611/05/02 16:35:31  5-MIN KMKG 052135Z 07007KT 1SM -RA BR BKN006 OVC030 02/02 A2974 790 100 -500 070/07 RMK AO2 SFC VIS 3 P0001
14840KMKG MKG20021105164013111/05/02 16:40:31  5-MIN KMKG 052140Z 06005KT 1SM -RA BR OVC006 02/02 A2975 790 100 -500 060/05 RMK AO2 SFC VIS 3 CIG 004V008 P0001
14840KMKG MKG20021105164513511/05/02 16:45:31  5-MIN KMKG 052145Z 06006KT 2SM -RA BR OVC006 02/02 A2974 790 100 -500 070/06 RMK AO2 SFC VIS 2 1/2 CIG 004V008 P0001
14840KMKG MKG20021105165018811/05/02 16:50:31  5-MIN KMKG 052150Z 07007KT 2SM -SN BR OVC006 02/02 A2974 800 100 -500 070/07 RMK AO2 SFC VIS 2 1/2 VIS 1 3/4 RWY 14 RAE48UPB48E49SNB49 CIG 004V008 SLP078 P0001 T00170017
14840KMKG MKG20021105165517011/05/02 16:55:31  5-MIN KMKG 052155Z 07006KT 1SM -SN BR OVC006 02/01 A2974 800 96 -500 070/06 RMK AO2 SFC VIS 2 1/2 RAE48UPB48E49SNB49 CIG 004V008 SLP077 P0001 T00170011
14840KMKG MKG20021105170013011/05/02 17:00:31  5-MIN KMKG 052200Z 07007KT 1SM -SN BR OVC006 02/01 A2974 800 96 -500 080/07 RMK AO2 SFC VIS 2 CIG 004V008 P0000
14840KMKG MKG20021105170514511/05/02 17:05:31  5-MIN KMKG 052205Z 07007KT 1SM -RA BR OVC004 02/01 A2974 800 96 -500 080/07 RMK AO2 SFC VIS 2 1/2 RAB02SNE02 CIG 004V007 P0000
14840KMKG MKG20021105171013311/05/02 17:10:31  5-MIN KMKG 052210Z 07006KT 1SM -RA BR OVC004 02/01 A2974 800 96 -500 080/06 RMK AO2 SFC VIS 2 1/2 RAB02SNE02 P0000
14840KMKG MKG20021105171513311/05/02 17:15:31  5-MIN KMKG 052215Z 07006KT 1SM -RA BR OVC004 02/01 A2974 800 96 -500 080/06 RMK AO2 SFC VIS 2 1/2 RAB02SNE02 P0000
14840KMKG MKG20021105172014011/05/02 17:20:31  5-MIN KMKG 052220Z 07005KT 1SM UP BR OVC004 02/01 A2974 800 96 -500 080/05 RMK AO2 SFC VIS 2 1/2 RAB02E19UPB19SNE02 P0000
14840KMKG MKG20021105172514011/05/02 17:25:31  5-MIN KMKG 052225Z 07005KT 1SM UP BR OVC004 02/01 A2974 800 96 -500 080/05 RMK AO2 SFC VIS 2 1/2 RAB02E19UPB19SNE02 P0000
14840KMKG MKG20021105173014011/05/02 17:30:31  5-MIN KMKG 052230Z 07005KT 1SM UP BR OVC004 02/01 A2974 800 96 -500 070/05 RMK AO2 SFC VIS 2 1/2 RAB02E19UPB19SNE02 P0000
14840KMKG MKG20021105173514311/05/02 17:35:31  5-MIN KMKG 052235Z 07005KT 1SM -RA BR OVC004 02/01 A2974 800 96 -500 070/05 RMK AO2 SFC VIS 3 RAB02E19B35UPB19E35SNE02 P0000
14840KMKG MKG20021105174014211/05/02 17:40:31  5-MIN KMKG 052240Z 06005KT 1SM UP BR OVC004 02/01 A2974 800 96 -500 070/05 RMK AO2 SFC VIS 4 RAB02E19B35E40UPB19SNE02 P0000
14840KMKG MKG20021105174514211/05/02 17:45:31  5-MIN KMKG 052245Z 06005KT 1SM UP BR OVC004 02/01 A2974 800 96 -500 070/05 RMK AO2 SFC VIS 4 RAB02E19B35E45UPB19SNE02 P0001
14840KMKG MKG20021105175016011/05/02 17:50:31  5-MIN KMKG 052250Z 06005KT 1SM -RA BR OVC004 02/01 A2974 800 96 -500 060/05 RMK AO2 SFC VIS 4 RAB02E19B35UPB19E46SNE02 SLP076 P0001 T00170011
14840KMKG MKG20021105175516411/05/02 17:55:31  5-MIN KMKG 052255Z 06006KT 1 1/2SM -RA BR OVC004 02/01 A2974 800 96 -500 070/06 RMK AO2 SFC VIS 4 RAB02E19B35UPB19E46SNE02 SLP077 P0001 T00170011
14840KMKG MKG20021105180013211/05/02 18:00:31  5-MIN KMKG 052300Z 07006KT 1SM UP BR OVC004 02/01 A2974 800 96 -500 070/06 RMK AO2 SFC VIS 4 RAE2259UPB2259 P0000
14840KMKG MKG20021105180513211/05/02 18:05:31  5-MIN KMKG 052305Z 07006KT 1SM UP BR OVC004 02/01 A2974 800 96 -500 070/06 RMK AO2 SFC VIS 4 RAE2259UPB2259 P0000
14840KMKG MKG20021105181013211/05/02 18:10:31  5-MIN KMKG 052310Z 07005KT 1SM UP BR OVC004 02/01 A2974 800 96 -500 070/05 RMK AO2 SFC VIS 3 RAE2259UPB2259 P0000
14840KMKG MKG20021105181513211/05/02 18:15:31  5-MIN KMKG 052315Z 07006KT 1SM UP BR OVC004 02/01 A2974 800 96 -500 070/06 RMK AO2 SFC VIS 3 RAE2259UPB2259 P0000
14840KMKG MKG20021105182013911/05/02 18:20:31  5-MIN KMKG 052320Z 06005KT 1SM -RA BR OVC004 02/01 A2973 800 96 -500 060/05 RMK AO2 SFC VIS 3 RAE2259B19UPB2259E19 P0000
14840KMKG MKG20021105182514311/05/02 18:25:31  5-MIN KMKG 052325Z 07004KT 1 1/2SM -RA BR OVC004 02/01 A2973 800 96 -500 070/04 RMK AO2 SFC VIS 3 RAE2259B19UPB2259E19 P0000
14840KMKG MKG20021105183014311/05/02 18:30:31  5-MIN KMKG 052330Z 06004KT 1 1/2SM -RA BR OVC004 02/01 A2974 800 96 -500 060/04 RMK AO2 SFC VIS 4 RAE2259B19UPB2259E19 P0000
14840KMKG MKG20021105183514311/05/02 18:35:31  5-MIN KMKG 052335Z 06004KT 1 1/2SM -RA BR OVC004 02/01 A2974 800 96 -500 070/04 RMK AO2 SFC VIS 4 RAE2259B19UPB2259E19 P0000
14840KMKG MKG20021105184014311/05/02 18:40:31  5-MIN KMKG 052340Z 06004KT 1 1/2SM -RA BR OVC004 02/01 A2974 800 96 -500 070/04 RMK AO2 SFC VIS 3 RAE2259B19UPB2259E19 P0000
14840KMKG MKG20021105184514311/05/02 18:45:31  5-MIN KMKG 052345Z 06003KT 1 1/2SM -RA BR OVC004 02/01 A2974 800 96 -500 060/03 RMK AO2 SFC VIS 4 RAE2259B19UPB2259E19 P0000
14840KMKG MKG20021105185018411/05/02 18:50:31  5-MIN KMKG 052350Z 07004KT 1 1/2SM -RA BR OVC004 02/01 A2974 800 96 -500 080/04 RMK AO2 SFC VIS 4 RAE2259B19UPB2259E19 SLP075 P0000 60012 T00170011 10022 20011 56034
14840KMKG MKG20021105185516311/05/02 18:55:31  5-MIN KMKG 052355Z 07004KT 1 1/2SM -RA BR OVC004 02/01 A2973 800 96 -500 070/04 RMK AO2 SFC VIS 4 SLP075 P0000 60012 T00170011 10022 20011 56003
14840KMKG MKG20021105190012911/05/02 19:00:31  5-MIN KMKG 060000Z 06004KT 1 1/2SM -RA BR BKN004 OVC017 02/01 A2973 810 96 -500 060/04 RMK AO2 SFC VIS 4 P0000
14840KMKG MKG20021105190512911/05/02 19:05:31  5-MIN KMKG 060005Z 06004KT 1 1/2SM -RA BR BKN004 OVC017 02/01 A2973 810 96 -500 070/04 RMK AO2 SFC VIS 4 P0000
14840KMKG MKG20021105191012911/05/02 19:10:31  5-MIN KMKG 060010Z 06003KT 1 1/2SM -RA BR BKN004 OVC019 02/01 A2973 800 96 -500 060/03 RMK AO2 SFC VIS 4 P0000
14840KMKG MKG20021105191512911/05/02 19:15:31  5-MIN KMKG 060015Z 03003KT 1 1/2SM -RA BR BKN004 OVC019 02/01 A2973 800 96 -500 030/03 RMK AO2 SFC VIS 4 P0000
14840KMKG MKG20021105192012911/05/02 19:20:31  5-MIN KMKG 060020Z 05003KT 1 1/2SM -RA BR BKN004 OVC019 02/01 A2973 810 96 -500 050/03 RMK AO2 SFC VIS 4 P0000
14840KMKG MKG20021105192512911/05/02 19:25:31  5-MIN KMKG 060025Z 00000KT 1 1/2SM -RA BR BKN004 OVC019 02/01 A2973 810 96 -500 000/00 RMK AO2 SFC VIS 4 P0000
14840KMKG MKG20021105193012911/05/02 19:30:31  5-MIN KMKG 060030Z 05004KT 1 1/2SM -RA BR BKN004 OVC019 02/01 A2973 810 96 -500 050/04 RMK AO2 SFC VIS 4 P0001
14840KMKG MKG20021105193512911/05/02 19:35:31  5-MIN KMKG 060035Z 05004KT 1 1/2SM -RA BR BKN004 OVC021 02/01 A2973 810 96 -500 050/04 RMK AO2 SFC VIS 4 P0001
14840KMKG MKG20021105194012911/05/02 19:40:31  5-MIN KMKG 060040Z 04004KT 1 1/2SM -RA BR BKN004 OVC021 02/01 A2973 810 96 -500 040/04 RMK AO2 SFC VIS 4 P0001
14840KMKG MKG20021105194514411/05/02 19:45:31  5-MIN KMKG 060045Z 03005KT 1 1/2SM -RA BR SCT004 OVC023 02/01 A2973 810 96 -500 040/05 RMK AO2 SFC VIS 4 CIG 005 RWY 14 P0001
14840KMKG MKG20021105195016811/05/02 19:50:31  5-MIN KMKG 060050Z 04005KT 1 1/2SM -RA BR FEW004 BKN023 OVC031 02/01 A2973 810 96 -500 040/05 RMK AO2 SFC VIS 4 CIG 005 RWY 14 SLP073 P0001 T00170011
14840KMKG MKG20021105195515311/05/02 19:55:31  5-MIN KMKG 060055Z 04004KT 1 1/2SM -RA BR FEW004 BKN023 OVC031 02/01 A2973 810 96 -500 040/04 RMK AO2 SFC VIS 4 SLP073 P0001 T00170011
14840KMKG MKG20021105200012211/05/02 20:00:31  5-MIN KMKG 060100Z 04005KT 4SM -RA BR FEW004 BKN023 OVC033 02/01 A2973 810 96 -500 040/05 RMK AO2 P0000
14840KMKG MKG20021105200513711/05/02 20:05:31  5-MIN KMKG 060105Z 03003KT 4SM -RA BR FEW004 SCT023 OVC033 02/01 A2973 810 96 -500 030/03 RMK AO2 CIG 022 RWY 14 P0000
14840KMKG MKG20021105201013711/05/02 20:10:31  5-MIN KMKG 060110Z 03004KT 4SM -RA BR FEW004 SCT023 OVC033 02/01 A2973 810 96 -500 030/04 RMK AO2 CIG 005 RWY 14 P0000
14840KMKG MKG20021105201513711/05/02 20:15:31  5-MIN KMKG 060115Z 03003KT 4SM -RA BR FEW004 SCT023 OVC033 02/01 A2973 810 96 -500 030/03 RMK AO2 CIG 005 RWY 14 P0000
14840KMKG MKG20021105202013711/05/02 20:20:31  5-MIN KMKG 060120Z 01005KT 4SM -RA BR SCT004 BKN023 OVC033 02/01 A2973 810 96 -500 010/05 RMK AO2 CIG 005 RWY 14 P0000
14840KMKG MKG20021105202513711/05/02 20:25:31  5-MIN KMKG 060125Z 02003KT 4SM -RA BR SCT004 BKN023 OVC033 02/01 A2973 810 96 -500 020/03 RMK AO2 CIG 005 RWY 14 P0000
14840KMKG MKG20021105203012211/05/02 20:30:31  5-MIN KMKG 060130Z 36003KT 4SM -RA BR BKN004 BKN025 OVC033 02/01 A2972 810 96 -500 010/03 RMK AO2 P0000
14840KMKG MKG20021105203511511/05/02 20:35:31  5-MIN KMKG 060135Z 36004KT 4SM -RA BR BKN004 OVC023 02/01 A2973 810 96 -500 010/04 RMK AO2 P0000
14840KMKG MKG20021105204011711/05/02 20:40:31  5-MIN KMKG 060140Z 36003KT 4SM BR BKN004 OVC023 02/01 A2973 810 96 -500 010/03 RMK AO2 RAE37 P0000
14840KMKG MKG20021105204511711/05/02 20:45:31  5-MIN KMKG 060145Z 02004KT 4SM BR BKN004 OVC023 02/01 A2973 810 96 -500 020/04 RMK AO2 RAE44 P0000
14840KMKG MKG20021105205013411/05/02 20:50:31  5-MIN KMKG 060150Z 02004KT 4SM BR BKN004 OVC023 02/01 A2973 810 96 -500 030/04 RMK AO2 RAE44 SLP072 P0000 T00170011
14840KMKG MKG20021105205514911/05/02 20:55:31  5-MIN KMKG 060155Z 02004KT 4SM BR SCT004 OVC021 02/01 A2973 810 96 -500 030/04 RMK AO2 RAE44 CIG 005 RWY 14 SLP072 P0000 T00170011
14840KMKG MKG20021105210010511/05/02 21:00:31  5-MIN KMKG 060200Z 02003KT 4SM BR SCT004 OVC021 02/01 A2973 810 96 -500 020/03 RMK AO2
14840KMKG MKG20021105210510511/05/02 21:05:31  5-MIN KMKG 060205Z 04005KT 4SM BR FEW004 OVC021 02/01 A2973 810 96 -500 040/05 RMK AO2
14840KMKG MKG20021105211010511/05/02 21:10:31  5-MIN KMKG 060210Z 03004KT 4SM BR FEW004 OVC021 02/01 A2973 810 96 -500 040/04 RMK AO2
14840KMKG MKG20021105211510511/05/02 21:15:31  5-MIN KMKG 060215Z 04004KT 4SM BR FEW004 OVC021 02/01 A2973 810 96 -500 040/04 RMK AO2
14840KMKG MKG20021105212010511/05/02 21:20:31  5-MIN KMKG 060220Z 03003KT 4SM BR FEW004 OVC021 02/01 A2973 810 96 -500 040/03 RMK AO2
14840KMKG MKG20021105212510511/05/02 21:25:31  5-MIN KMKG 060225Z 03003KT 4SM BR BKN021 OVC033 02/01 A2973 810 96 -500 030/03 RMK AO2
14840KMKG MKG20021105213010511/05/02 21:30:31  5-MIN KMKG 060230Z 02004KT 4SM BR FEW004 OVC021 02/01 A2973 810 96 -500 030/04 RMK AO2
14840KMKG MKG20021105213510511/05/02 21:35:31  5-MIN KMKG 060235Z 03004KT 4SM BR FEW004 OVC021 02/01 A2973 810 96 -500 030/04 RMK AO2
14840KMKG MKG20021105214010511/05/02 21:40:31  5-MIN KMKG 060240Z 02004KT 4SM BR BKN021 OVC033 02/01 A2973 810 96 -500 030/04 RMK AO2
14840KMKG MKG20021105214510511/05/02 21:45:31  5-MIN KMKG 060245Z 02003KT 4SM BR BKN023 OVC033 02/01 A2973 810 96 -500 030/03 RMK AO2
14840KMKG MKG20021105215013411/05/02 21:50:31  5-MIN KMKG 060250Z 00000KT 4SM BR BKN023 OVC033 02/01 A2973 800 96 -500 000/00 RMK AO2 SLP075 60001 T00170011 56003
14840KMKG MKG20021105215513411/05/02 21:55:31  5-MIN KMKG 060255Z 01003KT 4SM BR BKN023 OVC033 02/01 A2973 800 96 -500 010/03 RMK AO2 SLP074 60001 T00170011 55001
14840KMKG MKG20021105220010511/05/02 22:00:31  5-MIN KMKG 060300Z 02003KT 4SM BR BKN023 OVC031 02/01 A2973 810 96 -500 030/03 RMK AO2
14840KMKG MKG20021105220512711/05/02 22:05:31  5-MIN KMKG 060305Z 03003KT 4SM BR SCT023 BKN031 OVC039 02/01 A2973 810 96 -500 040/03 RMK AO2 CIG 022 RWY 14
14840KMKG MKG20021105221012711/05/02 22:10:31  5-MIN KMKG 060310Z 02003KT 4SM BR SCT023 BKN031 OVC046 02/01 A2973 810 96 -500 030/03 RMK AO2 CIG 022 RWY 14
14840KMKG MKG20021105221512711/05/02 22:15:31  5-MIN KMKG 060315Z 00000KT 4SM BR FEW023 BKN029 OVC042 02/01 A2973 810 96 -500 000/00 RMK AO2 CIG 022 RWY 14
14840KMKG MKG20021105222011211/05/02 22:20:31  5-MIN KMKG 060320Z 00000KT 4SM BR FEW004 BKN029 OVC039 02/01 A2973 810 96 -500 000/00 RMK AO2
14840KMKG MKG20021105222511211/05/02 22:25:31  5-MIN KMKG 060325Z 02003KT 4SM BR FEW004 BKN027 OVC042 02/01 A2973 810 96 -500 020/03 RMK AO2
14840KMKG MKG20021105223011211/05/02 22:30:31  5-MIN KMKG 060330Z 00000KT 4SM BR FEW004 BKN025 OVC042 02/01 A2973 810 96 -500 000/00 RMK AO2
14840KMKG MKG20021105223511211/05/02 22:35:31  5-MIN KMKG 060335Z 00000KT 4SM BR FEW004 SCT018 OVC025 02/01 A2973 800 96 -500 000/00 RMK AO2
14840KMKG MKG20021105224011211/05/02 22:40:31  5-MIN KMKG 060340Z 02003KT 4SM BR FEW004 SCT018 OVC025 02/01 A2973 800 96 -500 030/03 RMK AO2
14840KMKG MKG20021105224511211/05/02 22:45:31  5-MIN KMKG 060345Z 02003KT 4SM BR FEW018 BKN025 OVC039 02/01 A2973 810 96 -500 030/03 RMK AO2
14840KMKG MKG20021105225012911/05/02 22:50:31  5-MIN KMKG 060350Z 00000KT 4SM BR FEW018 BKN025 OVC050 02/01 A2973 810 96 -500 000/00 RMK AO2 SLP073 T00170011
14840KMKG MKG20021105225512911/05/02 22:55:31  5-MIN KMKG 060355Z 00000KT 4SM BR FEW018 BKN041 OVC050 02/01 A2973 810 96 -500 000/00 RMK AO2 SLP073 T00170011
14840KMKG MKG20021105230011211/05/02 23:00:31  5-MIN KMKG 060400Z 00000KT 4SM BR FEW018 BKN041 OVC050 02/01 A2973 810 96 -500 000/00 RMK AO2
14840KMKG MKG20021105230511211/05/02 23:05:31  5-MIN KMKG 060405Z 00000KT 4SM BR FEW023 BKN041 OVC050 02/01 A2973 810 96 -500 000/00 RMK AO2
14840KMKG MKG20021105231011211/05/02 23:10:31  5-MIN KMKG 060410Z 00000KT 4SM BR FEW023 BKN041 OVC050 02/01 A2973 810 96 -500 000/00 RMK AO2
14840KMKG MKG20021105231510511/05/02 23:15:31  5-MIN KMKG 060415Z 00000KT 4SM BR BKN041 OVC050 02/01 A2973 810 96 -500 000/00 RMK AO2
14840KMKG MKG20021105232010511/05/02 23:20:31  5-MIN KMKG 060420Z 00000KT 4SM BR BKN043 OVC050 02/01 A2973 810 96 -500 000/00 RMK AO2
14840KMKG MKG20021105232510511/05/02 23:25:31  5-MIN KMKG 060425Z 00000KT 4SM BR BKN043 OVC050 02/01 A2972 810 96 -500 000/00 RMK AO2
14840KMKG MKG20021105233010511/05/02 23:30:31  5-MIN KMKG 060430Z 01003KT 4SM BR BKN043 OVC050 02/01 A2972 810 96 -500 010/03 RMK AO2
14840KMKG MKG20021105233510511/05/02 23:35:31  5-MIN KMKG 060435Z 00000KT 4SM BR SCT043 OVC050 02/01 A2972 820 96 -500 000/00 RMK AO2
14840KMKG MKG20021105234010511/05/02 23:40:31  5-MIN KMKG 060440Z 00000KT 4SM BR FEW043 OVC050 02/01 A2972 820 96 -500 000/00 RMK AO2
14840KMKG MKG20021105234509811/05/02 23:45:31  5-MIN KMKG 060445Z 00000KT 4SM BR OVC050 02/01 A2972 820 96 -500 000/00 RMK AO2
14840KMKG MKG20021105235012511/05/02 23:50:31  5-MIN KMKG 060450Z 00000KT 4SM BR OVC055 02/01 A2972 810 96 -500 000/00 RMK AO2 SLP071 T00170011 400391017
14840KMKG MKG20021105235512511/05/02 23:55:31  5-MIN KMKG 060455Z 00000KT 4SM BR OVC055 02/01 A2972 810 96 -500 000/00 RMK AO2 SLP071 T00170011 400391017
14840KMKG MKG20021106000011511/06/02 00:00:31  5-MIN KMKG 060500Z 00000KT 4SM BR OVC055 02/01 A2972 810 96 -500 000/00 RMK AO2 VIS 2 1/2 RWY 14
14840KMKG MKG20021106000511111/06/02 00:05:31  5-MIN KMKG 060505Z 00000KT 4SM BR OVC050 02/01 A2973 810 96 -500 000/00 RMK AO2 VIS 2 RWY 14
14840KMKG MKG20021106001011511/06/02 00:10:31  5-MIN KMKG 060510Z 00000KT 3SM BR OVC050 02/01 A2973 810 96 -500 000/00 RMK AO2 VIS 1 3/4 RWY 14
14840KMKG MKG20021106001510311/06/02 00:15:31  5-MIN KMKG 060515Z 31003KT 2 1/2SM BR OVC050 02/02 A2973 810 100 -500 310/03 RMK AO2
14840KMKG MKG20021106002013411/06/02 00:20:31  5-MIN KMKG 060520Z 00000KT 3SM BR FEW030 OVC050 02/02 A2973 810 100 -500 000/00 RMK AO2 VIS 2 RWY 14 CIG 003 RWY 14
14840KMKG MKG20021106002514111/06/02 00:25:31  5-MIN KMKG 060525Z 00000KT 3SM BR FEW025 SCT030 OVC050 02/02 A2973 810 100 -500 000/00 RMK AO2 VIS 2 RWY 14 CIG 003 RWY 14
14840KMKG MKG20021106003014511/06/02 00:30:31  5-MIN KMKG 060530Z 32003KT 3SM BR SCT025 BKN030 OVC050 02/02 A2973 810 100 -500 330/03 RMK AO2 VIS 2 1/2 RWY 14 CIG 003 RWY 14
14840KMKG MKG20021106003513011/06/02 00:35:31  5-MIN KMKG 060535Z 34003KT 4SM BR BKN025 BKN030 OVC050 02/02 A2973 810 100 -500 340/03 RMK AO2 VIS 2 1/2 RWY 14
14840KMKG MKG20021106004012511/06/02 00:40:31  5-MIN KMKG 060540Z 00000KT 4SM BR BKN025 BKN030 OVC050 02/02 A2973 810 96 -500 000/00 RMK AO2 VIS 2 RWY 14
14840KMKG MKG20021106004512211/06/02 00:45:31  5-MIN KMKG 060545Z 00000KT 4SM BR BKN025 OVC032 02/02 A2973 810 96 -500 000/00 RMK AO2 VIS 2 1/2 RWY 14
14840KMKG MKG20021106005016311/06/02 00:50:31  5-MIN KMKG 060550Z 00000KT 4SM BR BKN027 OVC035 02/02 A2973 810 96 -500 000/00 RMK AO2 VIS 2 1/2 RWY 14 SLP073 60001 T00220017 10022 20017 55001
14840KMKG MKG20021106005516011/06/02 00:55:31  5-MIN KMKG 060555Z 00000KT 4SM BR BKN027 OVC035 02/02 A2973 810 100 -500 000/00 RMK AO2 VIS 2 RWY 14 SLP074 60001 T00170017 10022 20017 55000
14840KMKG MKG20021106010011911/06/02 01:00:31  5-MIN KMKG 060600Z 00000KT 3SM BR BKN027 OVC035 02/02 A2973 810 100 -500 000/00 RMK AO2 VIS 2 RWY 14
14840KMKG MKG20021106010512211/06/02 01:05:31  5-MIN KMKG 060605Z 00000KT 3SM BR BKN027 OVC034 02/02 A2973 810 96 -500 000/00 RMK AO2 VIS 2 1/2 RWY 14
14840KMKG MKG20021106011011211/06/02 01:10:31  5-MIN KMKG 060610Z 00000KT 3SM BR BKN025 BKN030 OVC037 02/02 A2973 810 96 -500 000/00 RMK AO2
14840KMKG MKG20021106011511211/06/02 01:15:31  5-MIN KMKG 060615Z 00000KT 3SM BR BKN025 BKN030 OVC037 02/02 A2973 810 96 -500 000/00 RMK AO2
14840KMKG MKG20021106012009811/06/02 01:20:31  5-MIN KMKG 060620Z 00000KT 3SM BR OVC025 02/02 A2973 810 96 -500 000/00 RMK AO2
14840KMKG MKG20021106012509811/06/02 01:25:31  5-MIN KMKG 060625Z 00000KT 3SM BR OVC025 02/02 A2973 810 96 -500 000/00 RMK AO2
14840KMKG MKG20021106013009811/06/02 01:30:31  5-MIN KMKG 060630Z 00000KT 3SM BR OVC023 02/02 A2973 810 96 -500 000/00 RMK AO2
14840KMKG MKG20021106013509811/06/02 01:35:31  5-MIN KMKG 060635Z 00000KT 3SM BR OVC020 02/02 A2973 810 96 -500 000/00 RMK AO2
14840KMKG MKG20021106014009811/06/02 01:40:31  5-MIN KMKG 060640Z 00000KT 3SM BR OVC020 02/02 A2973 810 96 -500 000/00 RMK AO2
14840KMKG MKG20021106014510511/06/02 01:45:31  5-MIN KMKG 060645Z 00000KT 3SM BR BKN020 OVC025 02/02 A2973 810 96 -500 000/00 RMK AO2
14840KMKG MKG20021106015012811/06/02 01:50:31  5-MIN KMKG 060650Z 00000KT 3SM BR OVC020 02/02 A2973 810 96 -500 000/00 RMK AO2 VIS 2 RWY 14 SLP074 T00220017
14840KMKG MKG20021106015513511/06/02 01:55:31  5-MIN KMKG 060655Z 00000KT 3SM BR BKN020 OVC026 02/02 A2973 810 96 -500 000/00 RMK AO2 VIS 2 RWY 14 SLP074 T00220017
14840KMKG MKG20021106020011811/06/02 02:00:31  5-MIN KMKG 060700Z 00000KT 3SM BR BKN020 OVC025 02/02 A2973 810 96 -500 000/00 RMK AO2 VIS 2 RWY 14
14840KMKG MKG20021106020510511/06/02 02:05:31  5-MIN KMKG 060705Z 00000KT 3SM BR BKN020 OVC025 02/02 A2973 810 96 -500 000/00 RMK AO2
14840KMKG MKG20021106021010511/06/02 02:10:31  5-MIN KMKG 060710Z 00000KT 3SM BR SCT020 OVC025 02/02 A2973 800 96 -500 000/00 RMK AO2
14840KMKG MKG20021106021510511/06/02 02:15:31  5-MIN KMKG 060715Z 00000KT 3SM BR SCT020 OVC025 02/02 A2973 800 96 -500 000/00 RMK AO2
14840KMKG MKG20021106022010511/06/02 02:20:31  5-MIN KMKG 060720Z 00000KT 3SM BR FEW016 OVC025 02/02 A2973 800 96 -500 000/00 RMK AO2
14840KMKG MKG20021106022510511/06/02 02:25:31  5-MIN KMKG 060725Z 00000KT 3SM BR FEW017 OVC025 02/02 A2974 800 96 -500 000/00 RMK AO2
14840KMKG MKG20021106023009811/06/02 02:30:31  5-MIN KMKG 060730Z 00000KT 3SM BR OVC027 02/02 A2973 800 96 -500 000/00 RMK AO2
14840KMKG MKG20021106023509811/06/02 02:35:31  5-MIN KMKG 060735Z 15003KT 3SM BR OVC027 02/02 A2974 800 96 -500 160/03 RMK AO2
14840KMKG MKG20021106024010511/06/02 02:40:31  5-MIN KMKG 060740Z 00000KT 3SM BR BKN027 OVC031 02/02 A2974 800 96 -500 000/00 RMK AO2
14840KMKG MKG20021106024509811/06/02 02:45:31  5-MIN KMKG 060745Z 00000KT 3SM BR OVC030 02/02 A2974 800 96 -500 000/00 RMK AO2
14840KMKG MKG20021106025011511/06/02 02:50:31  5-MIN KMKG 060750Z 21003KT 3SM BR OVC028 02/02 A2974 800 96 -500 220/03 RMK AO2 SLP076 T00220017
14840KMKG MKG20021106025512611/06/02 02:55:31  5-MIN KMKG 060755Z 00000KT 2 1/2SM BR FEW025 OVC030 02/02 A2974 800 96 -500 000/00 RMK AO2 SLP076 T00220017
14840KMKG MKG20021106030010911/06/02 03:00:31  5-MIN KMKG 060800Z 00000KT 2 1/2SM BR SCT019 OVC030 02/02 A2974 800 96 -500 000/00 RMK AO2
14840KMKG MKG20021106030510911/06/02 03:05:31  5-MIN KMKG 060805Z 00000KT 2 1/2SM BR SCT019 OVC030 02/02 A2974 800 96 -500 000/00 RMK AO2
14840KMKG MKG20021106031010911/06/02 03:10:31  5-MIN KMKG 060810Z 00000KT 2 1/2SM BR FEW019 OVC030 02/02 A2974 800 96 -500 000/00 RMK AO2
14840KMKG MKG20021106031510911/06/02 03:15:31  5-MIN KMKG 060815Z 00000KT 2 1/2SM BR FEW019 OVC030 02/02 A2974 800 96 -500 000/00 RMK AO2
14840KMKG MKG20021106032010911/06/02 03:20:31  5-MIN KMKG 060820Z 00000KT 2 1/2SM BR FEW019 OVC030 02/02 A2974 800 96 -500 000/00 RMK AO2
14840KMKG MKG20021106032511711/06/02 03:25:31  5-MIN KMKG 060825Z 00000KT 2 1/2SM BR FEW019 BKN027 OVC033 02/02 A2974 800 100 -500 000/00 RMK AO2
14840KMKG MKG20021106033010611/06/02 03:30:31  5-MIN KMKG 060830Z 00000KT 3SM BR FEW023 OVC030 02/02 A2974 800 100 -500 000/00 RMK AO2
14840KMKG MKG20021106033511111/06/02 03:35:31  5-MIN KMKG 060835Z 00000KT 3SM BR OVC030 02/02 A2974 800 96 -500 000/00 RMK AO2 VIS 2 RWY 14
14840KMKG MKG20021106034011511/06/02 03:40:31  5-MIN KMKG 060840Z 00000KT 3SM BR OVC032 02/02 A2974 800 96 -500 000/00 RMK AO2 VIS 1 3/4 RWY 14
14840KMKG MKG20021106034512311/06/02 03:45:31  5-MIN KMKG 060845Z 00000KT 3SM BR BKN029 OVC035 02/02 A2974 800 100 -500 000/00 RMK AO2 VIS 1 3/4 RWY 14
14840KMKG MKG20021106035014611/06/02 03:50:31  5-MIN KMKG 060850Z 00000KT 3SM BR BKN030 OVC035 02/02 A2974 800 100 -500 000/00 RMK AO2 VIS 1 3/4 RWY 14 SLP076 T00220022 55000
14840KMKG MKG20021106035515011/06/02 03:55:31  5-MIN KMKG 060855Z 00000KT 2 1/2SM BR BKN030 OVC035 02/02 A2974 800 100 -500 000/00 RMK AO2 VIS 1 3/4 RWY 14 SLP077 T00220022 53003
14840KMKG MKG20021106040011011/06/02 04:00:31  5-MIN KMKG 060900Z 00000KT 2 1/2SM BR BKN028 OVC035 02/02 A2974 800 100 -500 000/00 RMK AO2
14840KMKG MKG20021106040512611/06/02 04:05:31  5-MIN KMKG 060905Z 00000KT 3SM BR SCT017 BKN028 OVC035 02/02 A2974 790 100 -500 000/00 RMK AO2 VIS 2 RWY 14
14840KMKG MKG20021106041012611/06/02 04:10:31  5-MIN KMKG 060910Z 00000KT 3SM BR SCT017 SCT021 OVC028 02/02 A2975 790 100 -500 000/00 RMK AO2 VIS 2 RWY 14
14840KMKG MKG20021106041512611/06/02 04:15:31  5-MIN KMKG 060915Z 00000KT 3SM BR SCT017 BKN021 OVC028 02/02 A2975 790 100 -500 000/00 RMK AO2 VIS 2 RWY 14
14840KMKG MKG20021106042012611/06/02 04:20:31  5-MIN KMKG 060920Z 00000KT 3SM BR SCT017 BKN021 OVC030 02/02 A2975 790 100 -500 000/00 RMK AO2 VIS 2 RWY 14
14840KMKG MKG20021106042512611/06/02 04:25:31  5-MIN KMKG 060925Z 00000KT 3SM BR SCT017 BKN023 OVC030 02/02 A2975 790 100 -500 000/00 RMK AO2 VIS 2 RWY 14
14840KMKG MKG20021106043012611/06/02 04:30:31  5-MIN KMKG 060930Z 00000KT 3SM BR SCT017 BKN023 OVC032 02/02 A2975 790 100 -500 000/00 RMK AO2 VIS 2 RWY 14
14840KMKG MKG20021106043512611/06/02 04:35:31  5-MIN KMKG 060935Z 00000KT 3SM BR FEW017 BKN023 OVC031 02/02 A2975 780 100 -500 000/00 RMK AO2 VIS 2 RWY 14
14840KMKG MKG20021106044012311/06/02 04:40:31  5-MIN KMKG 060940Z 00000KT 3SM BR FEW017 OVC023 02/02 A2975 790 100 -500 000/00 RMK AO2 VIS 1 1/2 RWY 14
14840KMKG MKG20021106044512211/06/02 04:45:31  5-MIN KMKG 060945Z 00000KT 3SM BR BKN023 OVC031 03/02 A2976 780 96 -400 000/00 RMK AO2 VIS 1 3/4 RWY 14
14840KMKG MKG20021106045013911/06/02 04:50:31  5-MIN KMKG 060950Z 00000KT 4SM BR BKN023 OVC030 03/02 A2976 780 96 -400 000/00 RMK AO2 VIS 2 1/2 RWY 14 SLP083 T00280022
14840KMKG MKG20021106045512211/06/02 04:55:31  5-MIN KMKG 060955Z 00000KT 4SM BR BKN023 OVC030 03/02 A2976 780 96 -400 000/00 RMK AO2 SLP084 T00280022
14840KMKG MKG20021106050010511/06/02 05:00:31  5-MIN KMKG 061000Z 00000KT 5SM BR BKN023 OVC030 03/02 A2976 780 92 -400 000/00 RMK AO2
14840KMKG MKG20021106050510511/06/02 05:05:31  5-MIN KMKG 061005Z 29005KT 5SM BR BKN023 OVC030 03/03 A2976 780 96 -400 300/05 RMK AO2
14840KMKG MKG20021106051010211/06/02 05:10:31  5-MIN KMKG 061010Z 29007KT 7SM SCT021 OVC026 04/03 A2976 780 89 -200 300/07 RMK AO2
14840KMKG MKG20021106051510211/06/02 05:15:31  5-MIN KMKG 061015Z 28009KT 9SM BKN021 OVC029 04/03 A2976 780 89 -200 280/09 RMK AO2
14840KMKG MKG20021106052010311/06/02 05:20:31  5-MIN KMKG 061020Z 30008KT 10SM BKN021 OVC029 04/02 A2977 770 85 -200 300/08 RMK AO2
14840KMKG MKG20021106052510311/06/02 05:25:31  5-MIN KMKG 061025Z 29009KT 10SM BKN021 OVC029 04/02 A2977 770 85 -200 290/09 RMK AO2
14840KMKG MKG20021106053009611/06/02 05:30:31  5-MIN KMKG 061030Z 29010KT 10SM OVC021 04/02 A2977 770 85 -200 300/10 RMK AO2
14840KMKG MKG20021106053509611/06/02 05:35:31  5-MIN KMKG 061035Z 30011KT 10SM OVC021 04/02 A2977 770 85 -200 310/11 RMK AO2
14840KMKG MKG20021106054010211/06/02 05:40:31  5-MIN KMKG 061040Z 29008G16KT 10SM OVC021 04/02 A2977 770 82 -200 300/08G16 RMK AO2
14840KMKG MKG20021106054509611/06/02 05:45:31  5-MIN KMKG 061045Z 29007KT 10SM OVC019 04/02 A2977 770 82 -200 300/07 RMK AO2
14840KMKG MKG20021106055011311/06/02 05:50:31  5-MIN KMKG 061050Z 29008KT 10SM OVC019 04/02 A2978 760 85 -200 290/08 RMK AO2 SLP088 T00440022
14840KMKG MKG20021106055511311/06/02 05:55:31  5-MIN KMKG 061055Z 29009KT 10SM OVC019 04/02 A2978 760 85 -200 300/09 RMK AO2 SLP089 T00440022
14840KMKG MKG20021106060009611/06/02 06:00:31  5-MIN KMKG 061100Z 30008KT 10SM OVC019 04/02 A2978 760 85 -200 300/08 RMK AO2
14840KMKG MKG20021106060509511/06/02 06:05:31  5-MIN KMKG 061105Z 30009KT 9SM OVC019 04/02 A2978 760 85 -200 310/09 RMK AO2
14840KMKG MKG20021106061009511/06/02 06:10:31  5-MIN KMKG 061110Z 31008KT 9SM OVC017 04/02 A2979 760 85 -200 310/08 RMK AO2
14840KMKG MKG20021106061509511/06/02 06:15:31  5-MIN KMKG 061115Z 29009KT 9SM OVC017 04/02 A2979 750 85 -300 290/09 RMK AO2
14840KMKG MKG20021106062009511/06/02 06:20:31  5-MIN KMKG 061120Z 29013KT 9SM OVC017 04/02 A2979 750 85 -300 300/13 RMK AO2
14840KMKG MKG20021106062510111/06/02 06:25:31  5-MIN KMKG 061125Z 29008G15KT 9SM OVC017 04/02 A2979 750 82 -300 300/08G15 RMK AO2
14840KMKG MKG20021106063009511/06/02 06:30:31  5-MIN KMKG 061130Z 29006KT 9SM OVC017 04/02 A2979 750 82 -300 290/06 RMK AO2
14840KMKG MKG20021106063509511/06/02 06:35:31  5-MIN KMKG 061135Z 30006KT 9SM OVC019 04/02 A2979 750 85 -300 300/06 RMK AO2
14840KMKG MKG20021106064009511/06/02 06:40:31  5-MIN KMKG 061140Z 29008KT 8SM OVC019 04/02 A2979 750 82 -300 290/08 RMK AO2
14840KMKG MKG20021106064509511/06/02 06:45:31  5-MIN KMKG 061145Z 30007KT 8SM OVC019 04/02 A2980 750 85 -300 310/07 RMK AO2
14840KMKG MKG20021106065013611/06/02 06:50:31  5-MIN KMKG 061150Z 30008KT 8SM OVC017 04/02 A2980 740 82 -300 300/08 RMK AO2 SLP095 70017 T00440017 10044 20017 53003
14840KMKG MKG20021106065513611/06/02 06:55:31  5-MIN KMKG 061155Z 29006KT 7SM OVC017 04/02 A2980 740 85 -300 290/06 RMK AO2 SLP096 70017 T00390017 10044 20017 51020
14840KMKG MKG20021106070009511/06/02 07:00:31  5-MIN KMKG 061200Z 29009KT 7SM OVC017 04/02 A2980 740 85 -300 290/09 RMK AO2
14840KMKG MKG20021106070510111/06/02 07:05:31  5-MIN KMKG 061205Z 31010G16KT 7SM OVC017 04/02 A2980 740 85 -300 320/10G16 RMK AO2
14840KMKG MKG20021106071010111/06/02 07:10:31  5-MIN KMKG 061210Z 28008G16KT 7SM OVC017 04/02 A2980 740 85 -300 290/08G16 RMK AO2
14840KMKG MKG20021106071509511/06/02 07:15:31  5-MIN KMKG 061215Z 29010KT 7SM OVC017 04/02 A2980 740 85 -300 290/10 RMK AO2
14840KMKG MKG20021106072009511/06/02 07:20:31  5-MIN KMKG 061220Z 29009KT 8SM OVC017 04/02 A2980 740 85 -300 300/09 RMK AO2
14840KMKG MKG20021106072509511/06/02 07:25:31  5-MIN KMKG 061225Z 29007KT 8SM OVC019 04/01 A2981 730 82 -300 290/07 RMK AO2
14840KMKG MKG20021106073010211/06/02 07:30:31  5-MIN KMKG 061230Z 30009KT 8SM BKN019 OVC025 04/01 A2981 730 82 -300 300/09 RMK AO2
14840KMKG MKG20021106073510211/06/02 07:35:31  5-MIN KMKG 061235Z 30008KT 8SM BKN019 OVC025 04/01 A2981 730 79 -300 300/08 RMK AO2
14840KMKG MKG20021106074009511/06/02 07:40:31  5-MIN KMKG 061240Z 29009KT 9SM OVC022 04/01 A2982 730 79 -300 290/09 RMK AO2
14840KMKG MKG20021106074509511/06/02 07:45:31  5-MIN KMKG 061245Z 29006KT 9SM OVC022 04/01 A2982 720 79 -300 290/06 RMK AO2
14840KMKG MKG20021106075011211/06/02 07:50:31  5-MIN KMKG 061250Z 29008KT 8SM OVC022 04/01 A2982 720 82 -400 290/08 RMK AO2 SLP105 T00390011
14840KMKG MKG20021106075511911/06/02 07:55:31  5-MIN KMKG 061255Z 29007KT 8SM BKN022 OVC027 04/01 A2982 720 79 -300 300/07 RMK AO2 SLP105 T00440011
14840KMKG MKG20021106080010811/06/02 08:00:31  5-MIN KMKG 061300Z 29011G16KT 8SM BKN022 OVC027 04/01 A2983 720 79 -300 300/11G16 RMK AO2
14840KMKG MKG20021106080510111/06/02 08:05:31  5-MIN KMKG 061305Z 29009G16KT 7SM OVC022 04/01 A2983 720 79 -300 290/09G16 RMK AO2
14840KMKG MKG20021106081010211/06/02 08:10:31  5-MIN KMKG 061310Z 29010KT 7SM BKN022 OVC027 04/01 A2983 720 79 -300 300/10 RMK AO2
14840KMKG MKG20021106081509511/06/02 08:15:31  5-MIN KMKG 061315Z 30009KT 8SM OVC024 04/01 A2983 710 76 -300 300/09 RMK AO2
14840KMKG MKG20021106082009511/06/02 08:20:31  5-MIN KMKG 061320Z 29008KT 8SM OVC024 04/01 A2983 710 76 -300 290/08 RMK AO2
14840KMKG MKG20021106082509511/06/02 08:25:31  5-MIN KMKG 061325Z 29009KT 9SM OVC024 04/01 A2983 710 76 -300 290/09 RMK AO2
14840KMKG MKG20021106083009511/06/02 08:30:31  5-MIN KMKG 061330Z 29010KT 8SM OVC024 04/01 A2984 710 76 -300 300/10 RMK AO2
14840KMKG MKG20021106083509511/06/02 08:35:31  5-MIN KMKG 061335Z 29008KT 8SM OVC024 04/01 A2984 700 76 -300 300/08 RMK AO2
14840KMKG MKG20021106084009511/06/02 08:40:31  5-MIN KMKG 061340Z 29010KT 8SM OVC024 04/01 A2984 710 76 -300 290/10 RMK AO2
14840KMKG MKG20021106084509511/06/02 08:45:31  5-MIN KMKG 061345Z 28011KT 8SM OVC024 04/01 A2984 700 79 -400 290/11 RMK AO2
14840KMKG MKG20021106085011811/06/02 08:50:31  5-MIN KMKG 061350Z 29008G16KT 7SM OVC022 04/01 A2985 700 79 -400 290/08G16 RMK AO2 SLP113 T00390006
14840KMKG MKG20021106085511211/06/02 08:55:31  5-MIN KMKG 061355Z 29010KT 7SM OVC022 04/01 A2985 700 79 -400 290/10 RMK AO2 SLP113 T00390006
14840KMKG MKG20021106090009511/06/02 09:00:31  5-MIN KMKG 061400Z 29009KT 7SM OVC022 04/01 A2985 690 79 -400 290/09 RMK AO2
14840KMKG MKG20021106090509511/06/02 09:05:31  5-MIN KMKG 061405Z 30008KT 7SM OVC022 04/01 A2985 690 79 -400 300/08 RMK AO2
14840KMKG MKG20021106091009511/06/02 09:10:31  5-MIN KMKG 061410Z 29011KT 7SM OVC022 04/01 A2986 690 79 -400 290/11 RMK AO2
14840KMKG MKG20021106091510111/06/02 09:15:31  5-MIN KMKG 061415Z 30010G18KT 7SM OVC022 04/01 A2986 690 76 -300 300/10G18 RMK AO2
14840KMKG MKG20021106092010411/06/02 09:20:31  5-MIN KMKG 061420Z 30008G18KT 6SM HZ OVC022 04/01 A2986 690 76 -300 300/08G18 RMK AO2
14840KMKG MKG20021106092509811/06/02 09:25:31  5-MIN KMKG 061425Z 29011KT 6SM HZ OVC022 04/01 A2986 680 76 -300 290/11 RMK AO2
14840KMKG MKG20021106093010411/06/02 09:30:31  5-MIN KMKG 061430Z 29009G15KT 6SM HZ OVC022 04/01 A2986 690 76 -300 300/09G15 RMK AO2
14840KMKG MKG20021106093509811/06/02 09:35:31  5-MIN KMKG 061435Z 29007KT 6SM HZ OVC022 04/01 A2986 680 76 -300 300/07 RMK AO2
14840KMKG MKG20021106094009811/06/02 09:40:31  5-MIN KMKG 061440Z 28009KT 6SM HZ OVC022 04/01 A2986 680 76 -300 290/09 RMK AO2
14840KMKG MKG20021106094509811/06/02 09:45:31  5-MIN KMKG 061445Z 28009KT 6SM HZ OVC020 04/01 A2987 680 79 -300 280/09 RMK AO2
14840KMKG MKG20021106095012111/06/02 09:50:31  5-MIN KMKG 061450Z 29011KT 6SM HZ OVC020 04/01 A2987 680 76 -300 290/11 RMK AO2 SLP119 T00440006 51020
14840KMKG MKG20021106095512111/06/02 09:55:31  5-MIN KMKG 061455Z 28008KT 6SM HZ OVC020 04/01 A2987 680 79 -300 280/08 RMK AO2 SLP119 T00440011 51023
14840KMKG MKG20021106100009811/06/02 10:00:31  5-MIN KMKG 061500Z 28010KT 6SM HZ OVC020 04/01 A2987 680 79 -300 290/10 RMK AO2
14840KMKG MKG20021106100509811/06/02 10:05:31  5-MIN KMKG 061505Z 28009KT 6SM HZ OVC020 04/01 A2987 680 79 -300 290/09 RMK AO2
14840KMKG MKG20021106101009811/06/02 10:10:31  5-MIN KMKG 061510Z 28009KT 6SM HZ OVC020 04/01 A2987 680 79 -300 290/09 RMK AO2
14840KMKG MKG20021106101509811/06/02 10:15:31  5-MIN KMKG 061515Z 29011KT 6SM HZ OVC020 04/01 A2987 680 79 -300 290/11 RMK AO2
14840KMKG MKG20021106102009811/06/02 10:20:31  5-MIN KMKG 061520Z 27009KT 6SM HZ OVC020 04/01 A2987 670 79 -400 270/09 RMK AO2
14840KMKG MKG20021106102509811/06/02 10:25:31  5-MIN KMKG 061525Z 28011KT 6SM HZ OVC020 04/01 A2987 670 79 -400 280/11 RMK AO2
14840KMKG MKG20021106103009811/06/02 10:30:31  5-MIN KMKG 061530Z 28010KT 6SM HZ OVC018 04/01 A2987 670 79 -300 290/10 RMK AO2
14840KMKG MKG20021106103509811/06/02 10:35:31  5-MIN KMKG 061535Z 30007KT 6SM HZ OVC018 04/01 A2987 680 79 -300 300/07 RMK AO2
14840KMKG MKG20021106104009511/06/02 10:40:31  5-MIN KMKG 061540Z 29007KT 7SM OVC018 04/01 A2987 670 79 -400 300/07 RMK AO2
14840KMKG MKG20021106104509511/06/02 10:45:31  5-MIN KMKG 061545Z 29008KT 7SM OVC018 04/01 A2987 670 79 -400 300/08 RMK AO2
14840KMKG MKG20021106105011211/06/02 10:50:31  5-MIN KMKG 061550Z 29010KT 7SM OVC018 04/01 A2988 670 79 -400 290/10 RMK AO2 SLP123 T00440011
14840KMKG MKG20021106105511511/06/02 10:55:31  5-MIN KMKG 061555Z 29009KT 6SM HZ OVC018 04/01 A2988 670 79 -400 290/09 RMK AO2 SLP122 T00440011
14840KMKG MKG20021106110009811/06/02 11:00:31  5-MIN KMKG 061600Z 29010KT 6SM HZ OVC018 04/01 A2987 680 79 -300 290/10 RMK AO2
14840KMKG MKG20021106110509811/06/02 11:05:31  5-MIN KMKG 061605Z 29008KT 6SM HZ OVC018 04/01 A2987 670 79 -400 290/08 RMK AO2
14840KMKG MKG20021106111009811/06/02 11:10:31  5-MIN KMKG 061610Z 30008KT 6SM HZ OVC018 04/02 A2987 670 82 -400 300/08 RMK AO2
14840KMKG MKG20021106111509811/06/02 11:15:31  5-MIN KMKG 061615Z 29008KT 6SM HZ OVC018 04/02 A2987 670 82 -400 290/08 RMK AO2
14840KMKG MKG20021106112009811/06/02 11:20:31  5-MIN KMKG 061620Z 28006KT 6SM HZ OVC018 05/02 A2988 670 79 -300 290/06 RMK AO2
14840KMKG MKG20021106112509811/06/02 11:25:31  5-MIN KMKG 061625Z 28009KT 5SM HZ OVC018 05/02 A2988 670 79 -300 280/09 RMK AO2
14840KMKG MKG20021106113009811/06/02 11:30:31  5-MIN KMKG 061630Z 29010KT 5SM HZ OVC018 05/02 A2988 670 79 -300 290/10 RMK AO2
14840KMKG MKG20021106113509811/06/02 11:35:31  5-MIN KMKG 061635Z 27011KT 6SM HZ OVC020 05/02 A2988 670 79 -300 280/11 RMK AO2
14840KMKG MKG20021106114009811/06/02 11:40:31  5-MIN KMKG 061640Z 28011KT 6SM HZ OVC020 05/01 A2988 670 76 -300 280/11 RMK AO2
14840KMKG MKG20021106114509811/06/02 11:45:31  5-MIN KMKG 061645Z 28009KT 6SM HZ OVC020 05/01 A2988 670 76 -300 280/09 RMK AO2
14840KMKG MKG20021106115011211/06/02 11:50:31  5-MIN KMKG 061650Z 28009KT 7SM OVC022 05/02 A2988 670 79 -300 280/09 RMK AO2 SLP124 T00500017
14840KMKG MKG20021106115511211/06/02 11:55:31  5-MIN KMKG 061655Z 28013KT 7SM OVC022 05/01 A2988 670 76 -300 280/13 RMK AO2 SLP124 T00500011
14840KMKG MKG20021106120009511/06/02 12:00:31  5-MIN KMKG 061700Z 28011KT 7SM OVC022 05/01 A2988 670 76 -300 290/11 RMK AO2
14840KMKG MKG20021106120510211/06/02 12:05:31  5-MIN KMKG 061705Z 28010KT 7SM BKN022 OVC026 05/02 A2988 670 79 -300 290/10 RMK AO2
14840KMKG MKG20021106121010211/06/02 12:10:31  5-MIN KMKG 061710Z 27010KT 7SM BKN019 OVC026 05/02 A2988 670 79 -300 270/10 RMK AO2
14840KMKG MKG20021106121510211/06/02 12:15:31  5-MIN KMKG 061715Z 28014KT 7SM BKN019 OVC026 05/02 A2988 670 79 -300 280/14 RMK AO2
14840KMKG MKG20021106122010211/06/02 12:20:31  5-MIN KMKG 061720Z 27012KT 7SM BKN021 OVC025 05/02 A2988 670 79 -300 280/12 RMK AO2
14840KMKG MKG20021106122510811/06/02 12:25:31  5-MIN KMKG 061725Z 28008G16KT 8SM BKN021 OVC025 05/02 A2988 670 79 -300 280/08G16 RMK AO2
14840KMKG MKG20021106123010111/06/02 12:30:31  5-MIN KMKG 061730Z 27012G16KT 8SM OVC021 05/02 A2988 670 79 -300 270/12G16 RMK AO2
14840KMKG MKG20021106123510111/06/02 12:35:31  5-MIN KMKG 061735Z 29010G16KT 8SM OVC021 05/02 A2988 670 79 -300 290/10G16 RMK AO2
14840KMKG MKG20021106124010211/06/02 12:40:31  5-MIN KMKG 061740Z 27010KT 9SM BKN021 OVC027 05/02 A2988 670 79 -300 280/10 RMK AO2
14840KMKG MKG20021106124510211/06/02 12:45:31  5-MIN KMKG 061745Z 27009KT 9SM BKN021 OVC027 05/02 A2988 670 79 -300 270/09 RMK AO2
14840KMKG MKG20021106125013011/06/02 12:50:31  5-MIN KMKG 061750Z 27011KT 9SM OVC021 05/02 A2988 670 79 -300 270/11 RMK AO2 SLP123 T00500017 10050 20039 51023
14840KMKG MKG20021106125513011/06/02 12:55:31  5-MIN KMKG 061755Z 27011KT 9SM OVC021 05/02 A2988 670 79 -300 270/11 RMK AO2 SLP122 T00500017 10050 20039 50004
14840KMKG MKG20021106130009511/06/02 13:00:31  5-MIN KMKG 061800Z 28009KT 9SM OVC021 05/02 A2988 670 79 -300 280/09 RMK AO2
14840KMKG MKG20021106130509611/06/02 13:05:31  5-MIN KMKG 061805Z 27009KT 10SM OVC021 05/02 A2988 670 79 -300 270/09 RMK AO2
14840KMKG MKG20021106131009611/06/02 13:10:31  5-MIN KMKG 061810Z 28012KT 10SM OVC021 05/02 A2988 670 79 -300 280/12 RMK AO2
14840KMKG MKG20021106131509611/06/02 13:15:31  5-MIN KMKG 061815Z 26009KT 10SM OVC021 05/02 A2988 670 79 -300 270/09 RMK AO2
14840KMKG MKG20021106132010211/06/02 13:20:31  5-MIN KMKG 061820Z 27009G16KT 10SM OVC021 05/02 A2987 670 79 -300 280/09G16 RMK AO2
14840KMKG MKG20021106132510211/06/02 13:25:31  5-MIN KMKG 061825Z 27008G16KT 10SM OVC021 05/02 A2988 670 79 -300 280/08G16 RMK AO2
14840KMKG MKG20021106133009611/06/02 13:30:31  5-MIN KMKG 061830Z 28011KT 10SM OVC021 05/02 A2988 670 79 -300 280/11 RMK AO2
14840KMKG MKG20021106133510211/06/02 13:35:31  5-MIN KMKG 061835Z 28012G17KT 10SM OVC021 05/02 A2987 670 79 -300 280/12G17 RMK AO2
14840KMKG MKG20021106134010211/06/02 13:40:31  5-MIN KMKG 061840Z 28012KT 9SM BKN021 OVC026 05/01 A2988 670 76 -300 280/12 RMK AO2
14840KMKG MKG20021106134509511/06/02 13:45:31  5-MIN KMKG 061845Z 27011KT 9SM OVC021 05/02 A2987 680 79 -300 270/11 RMK AO2
14840KMKG MKG20021106135011211/06/02 13:50:31  5-MIN KMKG 061850Z 27011KT 9SM OVC021 05/01 A2987 680 76 -300 270/11 RMK AO2 SLP119 T00500011
14840KMKG MKG20021106135511911/06/02 13:55:31  5-MIN KMKG 061855Z 28009KT 9SM BKN021 OVC026 05/02 A2987 680 79 -300 280/09 RMK AO2 SLP119 T00500017
14840KMKG MKG20021106140010211/06/02 14:00:31  5-MIN KMKG 061900Z 27012KT 9SM BKN021 OVC026 05/02 A2987 680 79 -300 270/12 RMK AO2
14840KMKG MKG20021106140509511/06/02 14:05:31  5-MIN KMKG 061905Z 27009KT 9SM OVC021 05/02 A2987 680 79 -300 280/09 RMK AO2
14840KMKG MKG20021106141009511/06/02 14:10:31  5-MIN KMKG 061910Z 28010KT 8SM OVC021 05/02 A2987 680 79 -300 290/10 RMK AO2
14840KMKG MKG20021106141510111/06/02 14:15:31  5-MIN KMKG 061915Z 28011G19KT 8SM OVC021 05/02 A2987 680 79 -300 280/11G19 RMK AO2
14840KMKG MKG20021106142010111/06/02 14:20:31  5-MIN KMKG 061920Z 28012G19KT 8SM OVC021 05/01 A2987 670 76 -300 290/12G19 RMK AO2
14840KMKG MKG20021106142510111/06/02 14:25:31  5-MIN KMKG 061925Z 27011G19KT 8SM OVC021 06/01 A2987 670 73 -200 270/11G19 RMK AO2
14840KMKG MKG20021106143010111/06/02 14:30:31  5-MIN KMKG 061930Z 27013G19KT 9SM OVC023 06/01 A2987 670 73 -200 270/13G19 RMK AO2
14840KMKG MKG20021106143509511/06/02 14:35:31  5-MIN KMKG 061935Z 28011KT 9SM OVC023 06/01 A2988 670 73 -200 290/11 RMK AO2
14840KMKG MKG20021106144010211/06/02 14:40:31  5-MIN KMKG 061940Z 27010G19KT 10SM OVC025 06/01 A2988 670 70 -200 280/10G19 RMK AO2
14840KMKG MKG20021106144510211/06/02 14:45:31  5-MIN KMKG 061945Z 27010G19KT 10SM OVC025 06/01 A2988 670 70 -200 280/10G19 RMK AO2
14840KMKG MKG20021106145011811/06/02 14:50:31  5-MIN KMKG 061950Z 27012G18KT 8SM OVC025 06/01 A2988 670 73 -200 270/12G18 RMK AO2 SLP123 T00560011
14840KMKG MKG20021106145511811/06/02 14:55:31  5-MIN KMKG 061955Z 28009G18KT 7SM OVC025 06/01 A2988 670 73 -200 280/09G18 RMK AO2 SLP123 T00560011
14840KMKG MKG20021106150010411/06/02 15:00:31  5-MIN KMKG 062000Z 28012G18KT 6SM HZ OVC025 06/01 A2988 670 73 -200 290/12G18 RMK AO2
14840KMKG MKG20021106150510411/06/02 15:05:31  5-MIN KMKG 062005Z 28009G18KT 6SM HZ OVC025 06/01 A2988 670 73 -200 290/09G18 RMK AO2
14840KMKG MKG20021106151010211/06/02 15:10:31  5-MIN KMKG 062010Z 29012KT 7SM BKN023 OVC028 06/01 A2988 670 73 -200 290/12 RMK AO2
14840KMKG MKG20021106151509511/06/02 15:15:31  5-MIN KMKG 062015Z 28011KT 7SM OVC025 06/01 A2988 670 73 -200 280/11 RMK AO2
14840KMKG MKG20021106152009511/06/02 15:20:31  5-MIN KMKG 062020Z 28010KT 7SM OVC025 06/01 A2988 660 73 -200 280/10 RMK AO2
14840KMKG MKG20021106152509511/06/02 15:25:31  5-MIN KMKG 062025Z 29009KT 7SM OVC025 06/01 A2989 660 73 -200 290/09 RMK AO2
14840KMKG MKG20021106153009511/06/02 15:30:31  5-MIN KMKG 062030Z 29010KT 7SM OVC025 06/01 A2989 660 73 -200 290/10 RMK AO2
14840KMKG MKG20021106153509511/06/02 15:35:31  5-MIN KMKG 062035Z 29008KT 8SM OVC025 06/01 A2989 660 73 -200 290/08 RMK AO2
14840KMKG MKG20021106154009511/06/02 15:40:31  5-MIN KMKG 062040Z 29009KT 7SM OVC025 06/02 A2989 660 76 -200 290/09 RMK AO2
14840KMKG MKG20021106154509811/06/02 15:45:31  5-MIN KMKG 062045Z 29012KT 6SM HZ OVC025 06/02 A2989 660 76 -200 290/12 RMK AO2
14840KMKG MKG20021106155012111/06/02 15:50:31  5-MIN KMKG 062050Z 28011KT 6SM HZ OVC025 06/02 A2989 650 76 -200 280/11 RMK AO2 SLP129 T00560017 50004
14840KMKG MKG20021106155512111/06/02 15:55:31  5-MIN KMKG 062055Z 27007KT 6SM HZ OVC025 06/02 A2989 660 76 -200 270/07 RMK AO2 SLP128 T00560017 53005
14840KMKG MKG20021106160010111/06/02 16:00:31  5-MIN KMKG 062100Z 27010G15KT 7SM OVC025 06/01 A2990 650 73 -200 280/10G15 RMK AO2
14840KMKG MKG20021106160510211/06/02 16:05:31  5-MIN KMKG 062105Z 27009KT 7SM BKN025 OVC034 06/01 A2990 650 70 -200 270/09 RMK AO2
14840KMKG MKG20021106161010211/06/02 16:10:31  5-MIN KMKG 062110Z 28010KT 7SM BKN025 OVC034 06/01 A2990 650 70 -200 290/10 RMK AO2
14840KMKG MKG20021106161510811/06/02 16:15:31  5-MIN KMKG 062115Z 29010G17KT 8SM BKN028 OVC035 06/01 A2990 650 73 -200 300/10G17 RMK AO2
14840KMKG MKG20021106162010811/06/02 16:20:31  5-MIN KMKG 062120Z 29009G17KT 8SM FEW024 OVC032 06/01 A2990 650 73 -200 290/09G17 RMK AO2
14840KMKG MKG20021106162510211/06/02 16:25:31  5-MIN KMKG 062125Z 28011KT 8SM FEW024 OVC032 06/01 A2990 650 73 -200 280/11 RMK AO2
14840KMKG MKG20021106163009511/06/02 16:30:31  5-MIN KMKG 062130Z 28009KT 8SM OVC032 06/01 A2990 650 73 -200 280/09 RMK AO2
14840KMKG MKG20021106163509511/06/02 16:35:31  5-MIN KMKG 062135Z 29010KT 8SM OVC032 06/01 A2991 640 73 -300 290/10 RMK AO2
14840KMKG MKG20021106164010211/06/02 16:40:31  5-MIN KMKG 062140Z 29013KT 8SM BKN029 OVC035 06/01 A2991 640 73 -300 290/13 RMK AO2
14840KMKG MKG20021106164510111/06/02 16:45:31  5-MIN KMKG 062145Z 29013G18KT 8SM OVC031 06/01 A2991 640 70 -300 290/13G18 RMK AO2
14840KMKG MKG20021106165011811/06/02 16:50:31  5-MIN KMKG 062150Z 29011G18KT 9SM OVC031 06/01 A2991 640 70 -300 290/11G18 RMK AO2 SLP134 T00560006
14840KMKG MKG20021106165511911/06/02 16:55:31  5-MIN KMKG 062155Z 28009KT 9SM FEW026 OVC031 06/01 A2991 640 73 -300 290/09 RMK AO2 SLP135 T00560011
14840KMKG MKG20021106170010211/06/02 17:00:31  5-MIN KMKG 062200Z 30010KT 9SM SCT026 OVC033 06/01 A2992 630 73 -300 300/10 RMK AO2
14840KMKG MKG20021106170510211/06/02 17:05:31  5-MIN KMKG 062205Z 28010KT 8SM BKN028 OVC034 06/01 A2992 630 73 -300 290/10 RMK AO2
14840KMKG MKG20021106171010211/06/02 17:10:31  5-MIN KMKG 062210Z 29007KT 8SM BKN026 OVC033 06/01 A2992 630 73 -300 290/07 RMK AO2
14840KMKG MKG20021106171511711/06/02 17:15:31  5-MIN KMKG 062215Z 29011KT 8SM SCT024 OVC032 06/01 A2992 630 73 -300 290/11 RMK AO2 CIG 027 RWY 14
14840KMKG MKG20021106172010211/06/02 17:20:31  5-MIN KMKG 062220Z 29010KT 8SM BKN028 OVC034 06/01 A2992 630 73 -300 290/10 RMK AO2
14840KMKG MKG20021106172511711/06/02 17:25:31  5-MIN KMKG 062225Z 28007KT 8SM FEW024 OVC032 06/01 A2992 630 70 -200 290/07 RMK AO2 CIG 027 RWY 14
14840KMKG MKG20021106173010211/06/02 17:30:31  5-MIN KMKG 062230Z 29007KT 8SM SCT027 OVC035 06/01 A2993 630 70 -200 290/07 RMK AO2
14840KMKG MKG20021106173510211/06/02 17:35:31  5-MIN KMKG 062235Z 29008KT 9SM FEW024 OVC032 06/01 A2993 620 70 -200 290/08 RMK AO2
14840KMKG MKG20021106174009511/06/02 17:40:31  5-MIN KMKG 062240Z 29009KT 9SM OVC032 06/01 A2993 620 70 -200 290/09 RMK AO2
14840KMKG MKG20021106174510211/06/02 17:45:31  5-MIN KMKG 062245Z 29009KT 9SM FEW025 OVC032 06/01 A2993 620 70 -200 290/09 RMK AO2
14840KMKG MKG20021106175011911/06/02 17:50:31  5-MIN KMKG 062250Z 29009KT 9SM FEW027 OVC032 06/01 A2993 620 70 -200 290/09 RMK AO2 SLP140 T00610011
14840KMKG MKG20021106175511811/06/02 17:55:31  5-MIN KMKG 062255Z 29013G17KT 9SM OVC030 06/02 A2993 620 73 -200 290/13G17 RMK AO2 SLP140 T00610017
14840KMKG MKG20021106180010111/06/02 18:00:31  5-MIN KMKG 062300Z 30007G17KT 9SM OVC030 06/02 A2993 620 73 -200 300/07G17 RMK AO2
14840KMKG MKG20021106180510811/06/02 18:05:31  5-MIN KMKG 062305Z 29014G18KT 9SM BKN028 OVC033 06/01 A2994 620 70 -200 300/14G18 RMK AO2
14840KMKG MKG20021106181010811/06/02 18:10:31  5-MIN KMKG 062310Z 29011G18KT 9SM FEW025 OVC032 06/01 A2994 620 70 -200 300/11G18 RMK AO2
14840KMKG MKG20021106181509511/06/02 18:15:31  5-MIN KMKG 062315Z 31012KT 9SM OVC029 06/01 A2994 610 70 -200 310/12 RMK AO2
14840KMKG MKG20021106182009511/06/02 18:20:31  5-MIN KMKG 062320Z 30009KT 9SM OVC030 06/01 A2994 610 70 -200 300/09 RMK AO2
14840KMKG MKG20021106182510211/06/02 18:25:31  5-MIN KMKG 062325Z 29010KT 9SM FEW027 OVC033 06/01 A2994 610 70 -200 300/10 RMK AO2
14840KMKG MKG20021106183010211/06/02 18:30:31  5-MIN KMKG 062330Z 30010KT 9SM FEW025 OVC035 06/01 A2995 600 70 -200 300/10 RMK AO2
14840KMKG MKG20021106183509511/06/02 18:35:31  5-MIN KMKG 062335Z 29011KT 9SM OVC035 06/01 A2995 600 70 -200 300/11 RMK AO2
14840KMKG MKG20021106184009511/06/02 18:40:31  5-MIN KMKG 062340Z 30008KT 9SM OVC037 06/01 A2996 600 70 -200 310/08 RMK AO2
14840KMKG MKG20021106184509511/06/02 18:45:31  5-MIN KMKG 062345Z 30009KT 9SM OVC037 06/02 A2996 600 73 -200 300/09 RMK AO2
14840KMKG MKG20021106185013011/06/02 18:50:31  5-MIN KMKG 062350Z 29008KT 9SM OVC039 06/02 A2996 600 73 -200 300/08 RMK AO2 SLP149 T00610017 10061 20050 53005
14840KMKG MKG20021106185513611/06/02 18:55:31  5-MIN KMKG 062355Z 29006G15KT 9SM OVC039 06/02 A2996 590 73 -200 300/06G15 RMK AO2 SLP149 T00610017 10061 20050 53022
14840KMKG MKG20021106190010111/06/02 19:00:31  5-MIN KMKG 070000Z 29010G15KT 9SM OVC041 07/02 A2996 590 70 -200 300/10G15 RMK AO2
14840KMKG MKG20021106190509511/06/02 19:05:31  5-MIN KMKG 070005Z 29009KT 9SM OVC041 07/02 A2996 590 70 -200 290/09 RMK AO2
14840KMKG MKG20021106191009511/06/02 19:10:31  5-MIN KMKG 070010Z 28010KT 9SM OVC041 07/01 A2996 590 67 -200 290/10 RMK AO2
14840KMKG MKG20021106191509511/06/02 19:15:31  5-MIN KMKG 070015Z 29010KT 9SM OVC041 07/01 A2996 590 67 -200 300/10 RMK AO2
14840KMKG MKG20021106192009511/06/02 19:20:31  5-MIN KMKG 070020Z 29008KT 9SM OVC041 07/01 A2997 590 67 -200 300/08 RMK AO2
14840KMKG MKG20021106192509511/06/02 19:25:31  5-MIN KMKG 070025Z 30009KT 9SM OVC039 07/01 A2997 590 67 -200 300/09 RMK AO2
14840KMKG MKG20021106193009511/06/02 19:30:31  5-MIN KMKG 070030Z 29010KT 9SM OVC037 07/01 A2997 590 67 -200 300/10 RMK AO2
14840KMKG MKG20021106193510211/06/02 19:35:31  5-MIN KMKG 070035Z 28010KT 9SM BKN030 OVC039 07/02 A2997 580 70 -200 290/10 RMK AO2
14840KMKG MKG20021106194010211/06/02 19:40:31  5-MIN KMKG 070040Z 28009KT 9SM BKN030 OVC039 07/02 A2997 580 70 -200 290/09 RMK AO2
14840KMKG MKG20021106194510811/06/02 19:45:31  5-MIN KMKG 070045Z 29009G16KT 9SM BKN029 OVC038 07/02 A2997 580 70 -200 300/09G16 RMK AO2
14840KMKG MKG20021106195012511/06/02 19:50:31  5-MIN KMKG 070050Z 29012G20KT 8SM BKN029 OVC036 07/02 A2998 580 70 -200 300/12G20 RMK AO2 SLP156 T00670017
14840KMKG MKG20021106195512511/06/02 19:55:31  5-MIN KMKG 070055Z 31012G20KT 9SM BKN029 OVC033 07/02 A2998 580 70 -200 320/12G20 RMK AO2 SLP156 T00670017
14840KMKG MKG20021106200010211/06/02 20:00:31  5-MIN KMKG 070100Z 31012KT 9SM BKN029 OVC035 07/02 A2998 570 70 -200 310/12 RMK AO2
14840KMKG MKG20021106200510311/06/02 20:05:31  5-MIN KMKG 070105Z 32009KT 10SM SCT027 OVC035 07/02 A2998 570 70 -200 320/09 RMK AO2
14840KMKG MKG20021106201010211/06/02 20:10:31  5-MIN KMKG 070110Z 31016KT 9SM FEW027 OVC035 06/02 A2999 570 73 -300 320/16 RMK AO2
14840KMKG MKG20021106201510911/06/02 20:15:31  5-MIN KMKG 070115Z 32012G16KT 10SM FEW027 OVC035 06/02 A2999 570 73 -300 320/12G16 RMK AO2
14840KMKG MKG20021106202009611/06/02 20:20:31  5-MIN KMKG 070120Z 32012KT 10SM OVC035 06/01 A2999 560 70 -300 330/12 RMK AO2
14840KMKG MKG20021106202509611/06/02 20:25:31  5-MIN KMKG 070125Z 32012KT 10SM OVC035 06/01 A2999 570 70 -300 330/12 RMK AO2
14840KMKG MKG20021106203009611/06/02 20:30:31  5-MIN KMKG 070130Z 32011KT 10SM OVC037 06/01 A3000 560 70 -300 320/11 RMK AO2
14840KMKG MKG20021106203509611/06/02 20:35:31  5-MIN KMKG 070135Z 31012KT 10SM OVC037 06/01 A3000 560 70 -300 320/12 RMK AO2
14840KMKG MKG20021106204009611/06/02 20:40:31  5-MIN KMKG 070140Z 32010KT 10SM OVC039 06/01 A3000 560 67 -300 320/10 RMK AO2
14840KMKG MKG20021106204509611/06/02 20:45:31  5-MIN KMKG 070145Z 31008KT 10SM OVC041 06/01 A3000 560 67 -300 320/08 RMK AO2
14840KMKG MKG20021106205011311/06/02 20:50:31  5-MIN KMKG 070150Z 32009KT 10SM OVC041 06/01 A3000 560 67 -300 320/09 RMK AO2 SLP164 T00610006
14840KMKG MKG20021106205511311/06/02 20:55:31  5-MIN KMKG 070155Z 31011KT 10SM OVC041 06/01 A3000 550 67 -300 320/11 RMK AO2 SLP165 T00610006
14840KMKG MKG20021106210009611/06/02 21:00:31  5-MIN KMKG 070200Z 33011KT 10SM OVC041 06/01 A3001 550 67 -300 330/11 RMK AO2
14840KMKG MKG20021106210509611/06/02 21:05:31  5-MIN KMKG 070205Z 32012KT 10SM OVC041 06/01 A3001 550 67 -300 330/12 RMK AO2
14840KMKG MKG20021106211010311/06/02 21:10:31  5-MIN KMKG 070210Z 32011KT 10SM FEW030 OVC041 06/01 A3001 550 67 -300 320/11 RMK AO2
14840KMKG MKG20021106211510911/06/02 21:15:31  5-MIN KMKG 070215Z 33013G17KT 10SM SCT032 OVC041 06/01 A3001 540 67 -300 330/13G17 RMK AO2
14840KMKG MKG20021106212010911/06/02 21:20:31  5-MIN KMKG 070220Z 32010G17KT 10SM BKN032 OVC041 06/01 A3001 540 67 -300 320/10G17 RMK AO2
14840KMKG MKG20021106212510311/06/02 21:25:31  5-MIN KMKG 070225Z 31011KT 10SM BKN032 OVC041 06/01 A3001 540 67 -300 320/11 RMK AO2
14840KMKG MKG20021106213009611/06/02 21:30:31  5-MIN KMKG 070230Z 32009KT 10SM OVC036 06/00 A3001 540 65 -300 320/09 RMK AO2
14840KMKG MKG20021106213509611/06/02 21:35:31  5-MIN KMKG 070235Z 31011KT 10SM OVC036 06/00 A3001 550 65 -300 310/11 RMK AO2
14840KMKG MKG20021106214009611/06/02 21:40:31  5-MIN KMKG 070240Z 31010KT 10SM OVC036 06/00 A3001 540 65 -300 320/10 RMK AO2
14840KMKG MKG20021106214509611/06/02 21:45:31  5-MIN KMKG 070245Z 31007KT 10SM OVC036 06/00 A3001 550 65 -300 310/07 RMK AO2
14840KMKG MKG20021106215011911/06/02 21:50:31  5-MIN KMKG 070250Z 31010KT 10SM OVC036 06/01 A3001 540 70 -300 320/10 RMK AO2 SLP168 T00610011 53022
14840KMKG MKG20021106215511911/06/02 21:55:31  5-MIN KMKG 070255Z 31011KT 10SM OVC036 06/01 A3001 540 70 -300 310/11 RMK AO2 SLP168 T00610011 51018
14840KMKG MKG20021106220009711/06/02 22:00:31  5-MIN KMKG 070300Z 31010KT 10SM OVC038 06/M01 A3001 540 62 -300 310/10 RMK AO2
14840KMKG MKG20021106220510411/06/02 22:05:31  5-MIN KMKG 070305Z 31010KT 10SM BKN040 OVC048 06/M01 A3001 550 62 -300 310/10 RMK AO2
14840KMKG MKG20021106221010311/06/02 22:10:31  5-MIN KMKG 070310Z 32009KT 10SM BKN040 OVC050 06/00 A3001 540 65 -300 320/09 RMK AO2
14840KMKG MKG20021106221510311/06/02 22:15:31  5-MIN KMKG 070315Z 33010KT 10SM BKN040 OVC050 06/00 A3002 540 67 -400 330/10 RMK AO2
14840KMKG MKG20021106222010311/06/02 22:20:31  5-MIN KMKG 070320Z 33012KT 10SM BKN042 OVC050 06/00 A3002 540 67 -400 340/12 RMK AO2
14840KMKG MKG20021106222510911/06/02 22:25:31  5-MIN KMKG 070325Z 35015G19KT 10SM BKN042 OVC049 05/01 A3003 530 73 -500 350/15G19 RMK AO2
14840KMKG MKG20021106223010911/06/02 22:30:31  5-MIN KMKG 070330Z 36012G20KT 10SM BKN042 OVC049 05/01 A3003 530 73 -500 360/12G20 RMK AO2
14840KMKG MKG20021106223510311/06/02 22:35:31  5-MIN KMKG 070335Z 35010KT 10SM BKN042 OVC049 04/01 A3004 520 76 -500 360/10 RMK AO2
14840KMKG MKG20021106224009611/06/02 22:40:31  5-MIN KMKG 070340Z 36010KT 10SM OVC042 04/01 A3004 520 79 -600 360/10 RMK AO2
14840KMKG MKG20021106224509611/06/02 22:45:31  5-MIN KMKG 070345Z 36010KT 10SM OVC042 04/01 A3005 510 79 -600 360/10 RMK AO2
14840KMKG MKG20021106225011311/06/02 22:50:31  5-MIN KMKG 070350Z 01012KT 10SM OVC040 04/01 A3005 510 79 -600 010/12 RMK AO2 SLP180 T00390006
14840KMKG MKG20021106225511311/06/02 22:55:31  5-MIN KMKG 070355Z 36010KT 10SM OVC040 04/01 A3005 510 79 -600 010/10 RMK AO2 SLP181 T00390006
14840KMKG MKG20021106230009611/06/02 23:00:31  5-MIN KMKG 070400Z 36011KT 10SM OVC038 04/01 A3005 510 79 -600 010/11 RMK AO2
14840KMKG MKG20021106230509611/06/02 23:05:31  5-MIN KMKG 070405Z 36009KT 10SM OVC038 03/01 A3006 500 82 -700 010/09 RMK AO2
14840KMKG MKG20021106231009611/06/02 23:10:31  5-MIN KMKG 070410Z 01012KT 10SM OVC038 03/01 A3006 500 82 -700 010/12 RMK AO2
14840KMKG MKG20021106231509611/06/02 23:15:31  5-MIN KMKG 070415Z 01010KT 10SM OVC038 03/01 A3006 500 82 -700 020/10 RMK AO2
14840KMKG MKG20021106232009611/06/02 23:20:31  5-MIN KMKG 070420Z 01009KT 10SM OVC036 03/01 A3006 500 82 -700 010/09 RMK AO2
14840KMKG MKG20021106232509611/06/02 23:25:31  5-MIN KMKG 070425Z 01011KT 10SM OVC036 03/01 A3006 500 82 -700 010/11 RMK AO2
14840KMKG MKG20021106233009611/06/02 23:30:31  5-MIN KMKG 070430Z 36007KT 10SM OVC036 03/01 A3006 500 82 -700 360/07 RMK AO2
14840KMKG MKG20021106233509611/06/02 23:35:31  5-MIN KMKG 070435Z 35009KT 10SM OVC036 03/01 A3006 500 82 -700 350/09 RMK AO2
14840KMKG MKG20021106234009611/06/02 23:40:31  5-MIN KMKG 070440Z 35009KT 10SM OVC036 03/01 A3006 500 82 -700 360/09 RMK AO2
14840KMKG MKG20021106234509611/06/02 23:45:31  5-MIN KMKG 070445Z 01006KT 10SM OVC036 03/01 A3006 500 82 -700 020/06 RMK AO2
14840KMKG MKG20021106235012311/06/02 23:50:31  5-MIN KMKG 070450Z 01007KT 10SM OVC036 03/01 A3006 500 82 -700 020/07 RMK AO2 SLP184 T00330006 400670017
14840KMKG MKG20021106235513011/06/02 23:55:31  5-MIN KMKG 070455Z 36006KT 10SM FEW016 OVC036 03/01 A3006 500 82 -700 010/06 RMK AO2 SLP184 T00330006 400670017
14840KMKG MKG20021107000010311/07/02 00:00:31  5-MIN KMKG 070500Z 02005KT 10SM FEW016 OVC036 03/01 A3006 500 82 -700 020/05 RMK AO2
14840KMKG MKG20021107000511811/07/02 00:05:31  5-MIN KMKG 070505Z 02008KT 10SM SCT016 OVC036 03/01 A3006 500 82 -700 020/08 RMK AO2 CIG 015 RWY 14
14840KMKG MKG20021107001010911/07/02 00:10:31  5-MIN KMKG 070510Z 03012G15KT 10SM BKN014 OVC036 03/01 A3007 500 82 -700 040/12G15 RMK AO2
14840KMKG MKG20021107001510311/07/02 00:15:31  5-MIN KMKG 070515Z 05011KT 10SM BKN014 OVC036 02/00 A3007 490 85 -900 050/11 RMK AO2
14840KMKG MKG20021107002010311/07/02 00:20:31  5-MIN KMKG 070520Z 04008KT 10SM BKN014 OVC022 02/00 A3007 490 85 -900 040/08 RMK AO2
14840KMKG MKG20021107002510411/07/02 00:25:31  5-MIN KMKG 070525Z 02009KT 10SM BKN014 OVC021 02/M01 A3008 480 82 -900 030/09 RMK AO2
14840KMKG MKG20021107003012611/07/02 00:30:31  5-MIN KMKG 070530Z 03009KT 10SM SCT014 BKN021 OVC027 02/M01 A3008 490 82 -900 030/09 RMK AO2 CIG 013 RWY 14
14840KMKG MKG20021107003512611/07/02 00:35:31  5-MIN KMKG 070535Z 02009KT 10SM SCT014 BKN019 OVC035 02/M01 A3008 480 82 -900 030/09 RMK AO2 CIG 013 RWY 14
14840KMKG MKG20021107004011111/07/02 00:40:31  5-MIN KMKG 070540Z 02009KT 10SM FEW014 BKN018 OVC035 02/M01 A3008 480 82 -900 020/09 RMK AO2
14840KMKG MKG20021107004511111/07/02 00:45:31  5-MIN KMKG 070545Z 02008KT 10SM BKN018 BKN024 OVC035 02/M01 A3009 480 78 -900 020/08 RMK AO2
14840KMKG MKG20021107005014611/07/02 00:50:31  5-MIN KMKG 070550Z 02007KT 10SM BKN018 BKN024 OVC037 02/M01 A3009 470 78 -900 030/07 RMK AO2 SLP195 T00221011 10067 20022 51018
14840KMKG MKG20021107005513911/07/02 00:55:31  5-MIN KMKG 070555Z 03007KT 10SM BKN021 OVC037 02/M02 A3009 470 75 -900 030/07 RMK AO2 SLP195 T00221017 10067 20022 51026
14840KMKG MKG20021107010010411/07/02 01:00:31  5-MIN KMKG 070600Z 01006KT 10SM BKN021 OVC037 02/M02 A3009 470 75 -900 020/06 RMK AO2
14840KMKG MKG20021107010511111/07/02 01:05:31  5-MIN KMKG 070605Z 02006KT 10SM BKN021 BKN037 OVC050 02/M02 A3009 470 75 -900 030/06 RMK AO2
14840KMKG MKG20021107011011111/07/02 01:10:31  5-MIN KMKG 070610Z 02005KT 10SM SCT021 SCT037 OVC050 02/M02 A3010 470 72 -900 020/05 RMK AO2
14840KMKG MKG20021107011510411/07/02 01:15:31  5-MIN KMKG 070615Z 01006KT 10SM SCT021 OVC050 02/M02 A3010 470 75 -900 020/06 RMK AO2
14840KMKG MKG20021107012010411/07/02 01:20:31  5-MIN KMKG 070620Z 02006KT 10SM FEW021 OVC048 02/M02 A3010 470 72 -900 020/06 RMK AO2
14840KMKG MKG20021107012510411/07/02 01:25:31  5-MIN KMKG 070625Z 03006KT 10SM FEW021 OVC048 02/M02 A3009 470 75 -900 030/06 RMK AO2
14840KMKG MKG20021107013009711/07/02 01:30:31  5-MIN KMKG 070630Z 03004KT 10SM OVC048 02/M02 A3009 480 75 -900 040/04 RMK AO2
14840KMKG MKG20021107013509711/07/02 01:35:31  5-MIN KMKG 070635Z 04005KT 10SM OVC050 02/M02 A3009 480 75 -900 040/05 RMK AO2
14840KMKG MKG20021107014009711/07/02 01:40:31  5-MIN KMKG 070640Z 03006KT 10SM OVC050 02/M02 A3009 480 75 -900 040/06 RMK AO2
14840KMKG MKG20021107014509711/07/02 01:45:31  5-MIN KMKG 070645Z 04005KT 10SM OVC050 02/M02 A3009 480 75 -900 040/05 RMK AO2
14840KMKG MKG20021107015011411/07/02 01:50:31  5-MIN KMKG 070650Z 03004KT 10SM OVC050 02/M03 A3009 480 72 -900 030/04 RMK AO2 SLP195 T00171028
14840KMKG MKG20021107015511411/07/02 01:55:31  5-MIN KMKG 070655Z 03005KT 10SM OVC050 02/M03 A3009 470 72 -900 040/05 RMK AO2 SLP195 T00171028
14840KMKG MKG20021107020009711/07/02 02:00:31  5-MIN KMKG 070700Z VRB03KT 10SM OVC050 02/M03 A3009 470 69 -900 VRB/03 RMK AO2
14840KMKG MKG20021107020509711/07/02 02:05:31  5-MIN KMKG 070705Z 01004KT 10SM OVC050 02/M03 A3009 470 69 -900 020/04 RMK AO2
14840KMKG MKG20021107021009711/07/02 02:10:31  5-MIN KMKG 070710Z 02005KT 10SM OVC050 02/M03 A3009 470 69 -900 020/05 RMK AO2
14840KMKG MKG20021107021509811/07/02 02:15:31  5-MIN KMKG 070715Z 02005KT 10SM OVC050 02/M03 A3009 470 69 -1000 020/05 RMK AO2
14840KMKG MKG20021107022009811/07/02 02:20:31  5-MIN KMKG 070720Z 02008KT 10SM OVC050 02/M04 A3010 470 66 -1000 020/08 RMK AO2
14840KMKG MKG20021107022509811/07/02 02:25:31  5-MIN KMKG 070725Z 02006KT 10SM OVC055 02/M04 A3010 470 66 -1000 030/06 RMK AO2
14840KMKG MKG20021107023009811/07/02 02:30:31  5-MIN KMKG 070730Z 02005KT 10SM OVC055 02/M04 A3010 460 66 -1000 030/05 RMK AO2
14840KMKG MKG20021107023509811/07/02 02:35:31  5-MIN KMKG 070735Z 01005KT 10SM OVC055 02/M04 A3010 470 66 -1000 020/05 RMK AO2
14840KMKG MKG20021107024009811/07/02 02:40:31  5-MIN KMKG 070740Z 02006KT 10SM OVC055 02/M04 A3010 460 66 -1000 030/06 RMK AO2
14840KMKG MKG20021107024509811/07/02 02:45:31  5-MIN KMKG 070745Z 01005KT 10SM OVC055 02/M04 A3010 460 66 -1000 020/05 RMK AO2
14840KMKG MKG20021107025011511/07/02 02:50:31  5-MIN KMKG 070750Z 01005KT 10SM OVC055 02/M04 A3010 460 66 -1000 020/05 RMK AO2 SLP199 T00171039
14840KMKG MKG20021107025511511/07/02 02:55:31  5-MIN KMKG 070755Z 02005KT 10SM OVC055 02/M04 A3010 460 66 -1000 030/05 RMK AO2 SLP198 T00171039
14840KMKG MKG20021107030009811/07/02 03:00:31  5-MIN KMKG 070800Z 03005KT 10SM OVC055 01/M04 A3010 460 69 -1000 040/05 RMK AO2
14840KMKG MKG20021107030509811/07/02 03:05:31  5-MIN KMKG 070805Z 03005KT 10SM OVC055 01/M04 A3010 470 69 -1000 040/05 RMK AO2
14840KMKG MKG20021107031009811/07/02 03:10:31  5-MIN KMKG 070810Z 04004KT 10SM OVC055 01/M04 A3009 470 69 -1000 050/04 RMK AO2
14840KMKG MKG20021107031509811/07/02 03:15:31  5-MIN KMKG 070815Z 05003KT 10SM OVC055 01/M04 A3009 470 69 -1000 050/03 RMK AO2
14840KMKG MKG20021107032009811/07/02 03:20:31  5-MIN KMKG 070820Z 05004KT 10SM BKN055 01/M04 A3009 470 69 -1000 050/04 RMK AO2
14840KMKG MKG20021107032509811/07/02 03:25:31  5-MIN KMKG 070825Z 00000KT 10SM BKN055 01/M04 A3009 470 72 -1100 000/00 RMK AO2
14840KMKG MKG20021107033009811/07/02 03:30:31  5-MIN KMKG 070830Z 00000KT 10SM BKN055 01/M04 A3009 470 72 -1100 000/00 RMK AO2
14840KMKG MKG20021107033509811/07/02 03:35:31  5-MIN KMKG 070835Z 00000KT 10SM BKN055 01/M04 A3009 470 72 -1100 000/00 RMK AO2
14840KMKG MKG20021107034009811/07/02 03:40:31  5-MIN KMKG 070840Z 00000KT 10SM BKN055 01/M04 A3009 470 72 -1100 000/00 RMK AO2
14840KMKG MKG20021107034509811/07/02 03:45:31  5-MIN KMKG 070845Z 10003KT 10SM SCT055 00/M04 A3009 470 75 -1200 100/03 RMK AO2
14840KMKG MKG20021107035012211/07/02 03:50:31  5-MIN KMKG 070850Z 00000KT 10SM FEW055 M01/M04 A3010 470 78 -1200 000/00 RMK AO2 SLP198 T10061039 51026
14840KMKG MKG20021107035512211/07/02 03:55:31  5-MIN KMKG 070855Z 00000KT 10SM FEW055 M01/M04 A3010 460 78 -1200 000/00 RMK AO2 SLP198 T10061039 50003
14840KMKG MKG20021107040009611/07/02 04:00:31  5-MIN KMKG 070900Z 00000KT 10SM CLR M01/M04 A3010 460 78 -1200 000/00 RMK AO2
14840KMKG MKG20021107040509611/07/02 04:05:31  5-MIN KMKG 070905Z 00000KT 10SM CLR M01/M04 A3010 460 81 -1300 000/00 RMK AO2
14840KMKG MKG20021107041009611/07/02 04:10:31  5-MIN KMKG 070910Z 00000KT 10SM CLR M01/M04 A3010 460 81 -1300 000/00 RMK AO2
14840KMKG MKG20021107041509611/07/02 04:15:31  5-MIN KMKG 070915Z 05003KT 10SM CLR M01/M04 A3010 460 81 -1300 050/03 RMK AO2
14840KMKG MKG20021107042009611/07/02 04:20:31  5-MIN KMKG 070920Z 04004KT 10SM CLR M02/M04 A3010 460 85 -1400 050/04 RMK AO2
14840KMKG MKG20021107042509611/07/02 04:25:31  5-MIN KMKG 070925Z 06003KT 10SM CLR M02/M04 A3010 460 85 -1400 060/03 RMK AO2
14840KMKG MKG20021107043009611/07/02 04:30:31  5-MIN KMKG 070930Z 00000KT 10SM CLR M02/M04 A3010 460 88 -1400 000/00 RMK AO2
14840KMKG MKG20021107043509611/07/02 04:35:31  5-MIN KMKG 070935Z 17003KT 10SM CLR M02/M04 A3010 460 85 -1400 180/03 RMK AO2
14840KMKG MKG20021107044009611/07/02 04:40:31  5-MIN KMKG 070940Z 19003KT 10SM CLR M03/M04 A3010 470 88 -1500 190/03 RMK AO2
14840KMKG MKG20021107044509611/07/02 04:45:31  5-MIN KMKG 070945Z 00000KT 10SM CLR M02/M04 A3010 460 88 -1400 000/00 RMK AO2
14840KMKG MKG20021107045011311/07/02 04:50:31  5-MIN KMKG 070950Z 00000KT 10SM CLR M03/M04 A3010 460 88 -1500 000/00 RMK AO2 SLP201 T10281044
14840KMKG MKG20021107045511311/07/02 04:55:31  5-MIN KMKG 070955Z 00000KT 10SM CLR M03/M04 A3010 460 88 -1500 000/00 RMK AO2 SLP200 T10281044
14840KMKG MKG20021107050009611/07/02 05:00:31  5-MIN KMKG 071000Z 00000KT 10SM CLR M02/M04 A3011 460 88 -1500 000/00 RMK AO2
14840KMKG MKG20021107050509611/07/02 05:05:31  5-MIN KMKG 071005Z 00000KT 10SM CLR M02/M04 A3011 460 88 -1500 000/00 RMK AO2
14840KMKG MKG20021107051009611/07/02 05:10:31  5-MIN KMKG 071010Z 00000KT 10SM CLR M02/M04 A3011 450 88 -1500 000/00 RMK AO2
14840KMKG MKG20021107051509611/07/02 05:15:31  5-MIN KMKG 071015Z 00000KT 10SM CLR M02/M04 A3011 450 88 -1500 000/00 RMK AO2
14840KMKG MKG20021107052009611/07/02 05:20:31  5-MIN KMKG 071020Z 00000KT 10SM CLR M02/M04 A3011 450 88 -1500 000/00 RMK AO2
14840KMKG MKG20021107052509611/07/02 05:25:31  5-MIN KMKG 071025Z 06003KT 10SM CLR M02/M04 A3011 450 88 -1500 060/03 RMK AO2
14840KMKG MKG20021107053009611/07/02 05:30:31  5-MIN KMKG 071030Z 07003KT 10SM CLR M03/M04 A3011 450 88 -1500 070/03 RMK AO2
14840KMKG MKG20021107053509611/07/02 05:35:31  5-MIN KMKG 071035Z 06003KT 10SM CLR M03/M04 A3011 450 92 -1500 070/03 RMK AO2
14840KMKG MKG20021107054009611/07/02 05:40:31  5-MIN KMKG 071040Z 08003KT 10SM CLR M03/M04 A3011 450 92 -1500 080/03 RMK AO2
14840KMKG MKG20021107054509611/07/02 05:45:31  5-MIN KMKG 071045Z 07003KT 10SM CLR M02/M04 A3011 460 88 -1500 070/03 RMK AO2
14840KMKG MKG20021107055011311/07/02 05:50:31  5-MIN KMKG 071050Z 07003KT 10SM CLR M02/M04 A3011 460 88 -1500 070/03 RMK AO2 SLP203 T10221039
14840KMKG MKG20021107055511311/07/02 05:55:31  5-MIN KMKG 071055Z 00000KT 10SM CLR M02/M04 A3011 460 88 -1500 000/00 RMK AO2 SLP202 T10221039
14840KMKG MKG20021107060009611/07/02 06:00:31  5-MIN KMKG 071100Z 00000KT 10SM CLR M02/M04 A3011 450 88 -1500 000/00 RMK AO2
14840KMKG MKG20021107060509611/07/02 06:05:31  5-MIN KMKG 071105Z 00000KT 10SM CLR M03/M04 A3012 450 92 -1600 000/00 RMK AO2
14840KMKG MKG20021107061009611/07/02 06:10:31  5-MIN KMKG 071110Z 00000KT 10SM CLR M03/M04 A3012 450 88 -1500 000/00 RMK AO2
14840KMKG MKG20021107061509611/07/02 06:15:31  5-MIN KMKG 071115Z 00000KT 10SM CLR M03/M04 A3012 450 88 -1500 000/00 RMK AO2
14840KMKG MKG20021107062009611/07/02 06:20:31  5-MIN KMKG 071120Z 00000KT 10SM CLR M03/M04 A3012 450 88 -1500 000/00 RMK AO2
14840KMKG MKG20021107062509611/07/02 06:25:31  5-MIN KMKG 071125Z 00000KT 10SM CLR M03/M04 A3011 450 88 -1500 000/00 RMK AO2
14840KMKG MKG20021107063009611/07/02 06:30:31  5-MIN KMKG 071130Z 00000KT 10SM CLR M03/M04 A3011 450 92 -1500 000/00 RMK AO2
14840KMKG MKG20021107063509611/07/02 06:35:31  5-MIN KMKG 071135Z 00000KT 10SM CLR M02/M04 A3011 460 88 -1500 000/00 RMK AO2
14840KMKG MKG20021107064009611/07/02 06:40:31  5-MIN KMKG 071140Z 12003KT 10SM CLR M02/M04 A3011 460 88 -1500 120/03 RMK AO2
14840KMKG MKG20021107064509611/07/02 06:45:31  5-MIN KMKG 071145Z 12003KT 10SM CLR M03/M04 A3010 460 92 -1600 120/03 RMK AO2
14840KMKG MKG20021107065013111/07/02 06:50:31  5-MIN KMKG 071150Z 12004KT 10SM CLR M03/M05 A3010 460 88 -1600 120/04 RMK AO2 SLP199 T10331050 10022 21033 50003
14840KMKG MKG20021107065513111/07/02 06:55:31  5-MIN KMKG 071155Z 11003KT 10SM CLR M03/M05 A3010 460 88 -1600 110/03 RMK AO2 SLP201 T10331050 10022 21033 50001
14840KMKG MKG20021107070009611/07/02 07:00:31  5-MIN KMKG 071200Z 00000KT 10SM CLR M04/M06 A3011 460 88 -1700 000/00 RMK AO2
14840KMKG MKG20021107070509611/07/02 07:05:31  5-MIN KMKG 071205Z 10003KT 10SM CLR M03/M05 A3010 460 88 -1600 100/03 RMK AO2
14840KMKG MKG20021107071009611/07/02 07:10:31  5-MIN KMKG 071210Z 00000KT 10SM CLR M03/M05 A3010 460 88 -1600 000/00 RMK AO2
14840KMKG MKG20021107071509611/07/02 07:15:31  5-MIN KMKG 071215Z 00000KT 10SM CLR M03/M04 A3011 460 88 -1500 000/00 RMK AO2
14840KMKG MKG20021107072009611/07/02 07:20:31  5-MIN KMKG 071220Z 00000KT 10SM CLR M03/M05 A3012 450 88 -1600 000/00 RMK AO2
14840KMKG MKG20021107072509611/07/02 07:25:31  5-MIN KMKG 071225Z 05003KT 10SM CLR M03/M04 A3012 450 92 -1600 050/03 RMK AO2
14840KMKG MKG20021107073009611/07/02 07:30:31  5-MIN KMKG 071230Z 00000KT 10SM CLR M03/M04 A3012 450 92 -1600 000/00 RMK AO2
14840KMKG MKG20021107073509611/07/02 07:35:31  5-MIN KMKG 071235Z 06003KT 10SM CLR M03/M04 A3012 450 92 -1600 060/03 RMK AO2
14840KMKG MKG20021107074009611/07/02 07:40:31  5-MIN KMKG 071240Z 08003KT 10SM CLR M03/M04 A3012 450 88 -1500 080/03 RMK AO2
14840KMKG MKG20021107074509611/07/02 07:45:31  5-MIN KMKG 071245Z 09003KT 10SM CLR M03/M04 A3011 450 92 -1600 090/03 RMK AO2
14840KMKG MKG20021107075011311/07/02 07:50:31  5-MIN KMKG 071250Z 11004KT 10SM CLR M03/M04 A3011 450 92 -1600 110/04 RMK AO2 SLP204 T10331044
14840KMKG MKG20021107075511311/07/02 07:55:31  5-MIN KMKG 071255Z 12004KT 10SM CLR M03/M04 A3011 450 92 -1600 120/04 RMK AO2 SLP203 T10331044
14840KMKG MKG20021107080009611/07/02 08:00:31  5-MIN KMKG 071300Z 12005KT 10SM CLR M03/M04 A3011 460 88 -1500 120/05 RMK AO2
14840KMKG MKG20021107080509611/07/02 08:05:31  5-MIN KMKG 071305Z 12006KT 10SM CLR M02/M04 A3011 460 88 -1500 130/06 RMK AO2
14840KMKG MKG20021107081009611/07/02 08:10:31  5-MIN KMKG 071310Z 12006KT 10SM CLR M02/M04 A3011 460 88 -1500 130/06 RMK AO2
14840KMKG MKG20021107081509611/07/02 08:15:31  5-MIN KMKG 071315Z 11005KT 10SM CLR M02/M04 A3011 460 88 -1500 110/05 RMK AO2
14840KMKG MKG20021107082009611/07/02 08:20:31  5-MIN KMKG 071320Z 12004KT 10SM CLR M02/M03 A3011 460 92 -1500 120/04 RMK AO2
14840KMKG MKG20021107082509611/07/02 08:25:31  5-MIN KMKG 071325Z 12005KT 10SM CLR M02/M03 A3011 460 88 -1400 120/05 RMK AO2
14840KMKG MKG20021107083009611/07/02 08:30:31  5-MIN KMKG 071330Z 12006KT 10SM CLR M02/M03 A3011 460 88 -1400 120/06 RMK AO2
14840KMKG MKG20021107083509611/07/02 08:35:31  5-MIN KMKG 071335Z 11006KT 10SM CLR M01/M03 A3011 460 88 -1300 120/06 RMK AO2
14840KMKG MKG20021107084009611/07/02 08:40:31  5-MIN KMKG 071340Z 11007KT 10SM CLR M01/M03 A3010 460 88 -1300 120/07 RMK AO2
14840KMKG MKG20021107084509611/07/02 08:45:31  5-MIN KMKG 071345Z 11007KT 10SM CLR M01/M03 A3010 470 85 -1200 120/07 RMK AO2
14840KMKG MKG20021107085011311/07/02 08:50:31  5-MIN KMKG 071350Z 11009KT 10SM CLR M01/M02 A3010 470 88 -1200 120/09 RMK AO2 SLP197 T10061022
14840KMKG MKG20021107085511311/07/02 08:55:31  5-MIN KMKG 071355Z 12008KT 10SM CLR M01/M02 A3009 470 88 -1200 120/08 RMK AO2 SLP197 T10061022
14840KMKG MKG20021107090009511/07/02 09:00:31  5-MIN KMKG 071400Z 12008KT 10SM CLR 00/M02 A3010 470 85 -1200 120/08 RMK AO2
14840KMKG MKG20021107090509511/07/02 09:05:31  5-MIN KMKG 071405Z 12008KT 10SM CLR 00/M02 A3010 460 85 -1200 120/08 RMK AO2
14840KMKG MKG20021107091009511/07/02 09:10:31  5-MIN KMKG 071410Z 12010KT 10SM CLR 01/M02 A3010 470 82 -1100 130/10 RMK AO2
14840KMKG MKG20021107091509511/07/02 09:15:31  5-MIN KMKG 071415Z 13008KT 10SM CLR 01/M02 A3009 470 82 -1100 130/08 RMK AO2
14840KMKG MKG20021107092009511/07/02 09:20:31  5-MIN KMKG 071420Z 13009KT 10SM CLR 01/M02 A3009 470 78 -1000 130/09 RMK AO2
14840KMKG MKG20021107092510211/07/02 09:25:31  5-MIN KMKG 071425Z 14009KT 10SM CLR 01/M02 A3008 480 78 -1000 140/09 RMK AO2 PRESFR
14840KMKG MKG20021107093009511/07/02 09:30:31  5-MIN KMKG 071430Z 14009KT 10SM CLR 01/M02 A3009 480 78 -1000 140/09 RMK AO2
14840KMKG MKG20021107093509411/07/02 09:35:31  5-MIN KMKG 071435Z 13009KT 10SM CLR 02/M02 A3008 480 75 -900 130/09 RMK AO2
14840KMKG MKG20021107094009411/07/02 09:40:31  5-MIN KMKG 071440Z 13010KT 10SM CLR 02/M02 A3008 480 75 -900 130/10 RMK AO2
14840KMKG MKG20021107094509411/07/02 09:45:31  5-MIN KMKG 071445Z 13011KT 10SM CLR 02/M02 A3008 480 75 -900 130/11 RMK AO2
14840KMKG MKG20021107095011711/07/02 09:50:31  5-MIN KMKG 071450Z 13010KT 10SM CLR 02/M02 A3008 490 72 -900 130/10 RMK AO2 SLP191 T00221022 50001
14840KMKG MKG20021107095511711/07/02 09:55:31  5-MIN KMKG 071455Z 14010KT 10SM CLR 03/M02 A3007 490 72 -800 140/10 RMK AO2 SLP190 T00281017 58009
14840KMKG MKG20021107100009411/07/02 10:00:31  5-MIN KMKG 071500Z 14010KT 10SM CLR 03/M02 A3007 490 69 -800 140/10 RMK AO2
14840KMKG MKG20021107100509411/07/02 10:05:31  5-MIN KMKG 071505Z 15008KT 10SM CLR 03/M02 A3007 490 69 -800 150/08 RMK AO2
14840KMKG MKG20021107101009411/07/02 10:10:31  5-MIN KMKG 071510Z 15010KT 10SM CLR 03/M02 A3007 490 69 -800 160/10 RMK AO2
14840KMKG MKG20021107101509711/07/02 10:15:31  5-MIN KMKG 071515Z 14009KT 10SM FEW028 03/M02 A3007 490 67 -700 150/09 RMK AO2
14840KMKG MKG20021107102009711/07/02 10:20:31  5-MIN KMKG 071520Z 14009KT 10SM SCT026 03/M03 A3007 490 64 -700 140/09 RMK AO2
14840KMKG MKG20021107102509711/07/02 10:25:31  5-MIN KMKG 071525Z 15007KT 10SM BKN026 03/M02 A3007 490 67 -700 150/07 RMK AO2
14840KMKG MKG20021107103009711/07/02 10:30:31  5-MIN KMKG 071530Z 15007KT 10SM BKN026 04/M02 A3008 490 64 -700 150/07 RMK AO2
14840KMKG MKG20021107103509711/07/02 10:35:31  5-MIN KMKG 071535Z 15007KT 10SM BKN026 04/M02 A3008 490 64 -700 150/07 RMK AO2
14840KMKG MKG20021107104009711/07/02 10:40:31  5-MIN KMKG 071540Z 13010KT 10SM OVC026 04/M02 A3008 490 62 -600 130/10 RMK AO2
14840KMKG MKG20021107104509711/07/02 10:45:31  5-MIN KMKG 071545Z 14009KT 10SM OVC026 04/M02 A3007 490 62 -600 150/09 RMK AO2
14840KMKG MKG20021107105011411/07/02 10:50:31  5-MIN KMKG 071550Z 15008KT 10SM OVC026 04/M02 A3006 500 64 -600 150/08 RMK AO2 SLP186 T00441017
14840KMKG MKG20021107105511411/07/02 10:55:31  5-MIN KMKG 071555Z 16010KT 10SM OVC026 05/M02 A3006 500 62 -500 160/10 RMK AO2 SLP185 T00501017
14840KMKG MKG20021107110009711/07/02 11:00:31  5-MIN KMKG 071600Z 15010KT 10SM OVC028 05/M02 A3005 510 62 -500 160/10 RMK AO2
14840KMKG MKG20021107110509711/07/02 11:05:31  5-MIN KMKG 071605Z 15008KT 10SM OVC028 05/M02 A3005 510 62 -500 150/08 RMK AO2
14840KMKG MKG20021107111009711/07/02 11:10:31  5-MIN KMKG 071610Z 14012KT 10SM OVC028 05/M02 A3005 510 62 -500 150/12 RMK AO2
14840KMKG MKG20021107111509711/07/02 11:15:31  5-MIN KMKG 071615Z 14010KT 10SM OVC028 05/M02 A3005 510 62 -500 150/10 RMK AO2
14840KMKG MKG20021107112009711/07/02 11:20:31  5-MIN KMKG 071620Z 16008KT 10SM OVC028 06/M01 A3005 510 62 -400 160/08 RMK AO2
14840KMKG MKG20021107112509711/07/02 11:25:31  5-MIN KMKG 071625Z 15010KT 10SM OVC028 06/M01 A3005 510 62 -400 160/10 RMK AO2
14840KMKG MKG20021107113009711/07/02 11:30:31  5-MIN KMKG 071630Z 17010KT 10SM OVC028 06/M01 A3005 510 65 -400 170/10 RMK AO2
14840KMKG MKG20021107113509711/07/02 11:35:31  5-MIN KMKG 071635Z 16009KT 10SM OVC028 06/M01 A3005 510 62 -300 160/09 RMK AO2
14840KMKG MKG20021107114010211/07/02 11:40:31  5-MIN KMKG 071640Z 17012G16KT 10SM OVC028 06/00 A3005 510 65 -300 180/12G16 RMK AO2
14840KMKG MKG20021107114510211/07/02 11:45:31  5-MIN KMKG 071645Z 17011G16KT 10SM OVC028 06/00 A3004 520 65 -300 180/11G16 RMK AO2
14840KMKG MKG20021107115011311/07/02 11:50:31  5-MIN KMKG 071650Z 18012KT 10SM OVC028 07/01 A3003 530 65 -300 180/12 RMK AO2 SLP175 T00670006
14840KMKG MKG20021107115511311/07/02 11:55:31  5-MIN KMKG 071655Z 17013KT 10SM OVC028 07/01 A3003 530 67 -300 170/13 RMK AO2 SLP175 T00670011
14840KMKG MKG20021107120010211/07/02 12:00:31  5-MIN KMKG 071700Z 17010G18KT 10SM OVC028 07/01 A3003 530 67 -300 180/10G18 RMK AO2
14840KMKG MKG20021107120509611/07/02 12:05:31  5-MIN KMKG 071705Z 17015KT 10SM OVC026 07/02 A3002 540 70 -200 180/15 RMK AO2
14840KMKG MKG20021107121010311/07/02 12:10:31  5-MIN KMKG 071710Z 17013KT 10SM SCT022 OVC028 07/02 A3002 540 73 -200 180/13 RMK AO2
14840KMKG MKG20021107121510311/07/02 12:15:31  5-MIN KMKG 071715Z 18013KT 10SM BKN024 OVC029 07/02 A3002 540 73 -200 180/13 RMK AO2
14840KMKG MKG20021107122010311/07/02 12:20:31  5-MIN KMKG 071720Z 18011KT 10SM BKN021 OVC028 07/02 A3001 540 73 -200 180/11 RMK AO2
14840KMKG MKG20021107122510311/07/02 12:25:31  5-MIN KMKG 071725Z 18010KT 10SM BKN021 OVC028 07/03 A3001 550 76 -200 180/10 RMK AO2
14840KMKG MKG20021107123010311/07/02 12:30:31  5-MIN KMKG 071730Z 18011KT 10SM BKN023 OVC028 07/03 A3001 550 76 -200 180/11 RMK AO2
14840KMKG MKG20021107123510311/07/02 12:35:31  5-MIN KMKG 071735Z 18011KT 10SM SCT019 OVC026 08/03 A3001 550 73 -100 190/11 RMK AO2
14840KMKG MKG20021107124010911/07/02 12:40:31  5-MIN KMKG 071740Z 17015G19KT 10SM SCT019 OVC026 08/04 A3000 550 76 -100 180/15G19 RMK AO2
14840KMKG MKG20021107124512411/07/02 12:45:31  5-MIN KMKG 071745Z 18014G19KT 10SM SCT019 OVC026 08/04 A3000 560 79 -100 180/14G19 RMK AO2 CIG 020 RWY 14
14840KMKG MKG20021107125013811/07/02 12:50:31  5-MIN KMKG 071750Z 18013KT 10SM BKN019 OVC026 08/04 A2999 570 79 -100 190/13 RMK AO2 SLP160 T00780044 10078 21039 58009
14840KMKG MKG20021107125514211/07/02 12:55:31  5-MIN KMKG 071755Z 19012KT 10SM BKN021 BKN026 08/04 A2998 570 76 0 190/12 RMK AO2 PRESFR SLP157 T00830044 10083 21039 58031
14840KMKG MKG20021107130010011/07/02 13:00:31  5-MIN KMKG 071800Z 20012KT 10SM SCT021 BKN026 09/04 A2999 570 71 0 200/12 RMK AO2
14840KMKG MKG20021107130510611/07/02 13:05:31  5-MIN KMKG 071805Z 20015G20KT 10SM SCT021 BKN026 09/03 A2999 570 68 0 210/15G20 RMK AO2
14840KMKG MKG20021107131009911/07/02 13:10:31  5-MIN KMKG 071810Z 21015G21KT 10SM BKN023 09/03 A2999 570 68 0 210/15G21 RMK AO2
14840KMKG MKG20021107131509911/07/02 13:15:31  5-MIN KMKG 071815Z 20016G23KT 10SM BKN023 09/03 A2998 570 68 0 200/16G23 RMK AO2
14840KMKG MKG20021107132009911/07/02 13:20:31  5-MIN KMKG 071820Z 20018G23KT 10SM BKN023 09/03 A2998 570 68 0 200/18G23 RMK AO2
14840KMKG MKG20021107132510111/07/02 13:25:31  5-MIN KMKG 071825Z 20014G22KT 10SM BKN023 09/03 A2997 580 65 100 200/14G22 RMK AO2
14840KMKG MKG20021107133010611/07/02 13:30:31  5-MIN KMKG 071830Z 19017G22KT 10SM SCT023 09/03 A2996 590 68 0 200/17G22 RMK AO2 PRESFR
14840KMKG MKG20021107133510711/07/02 13:35:31  5-MIN KMKG 071835Z 20019G24KT 9SM SCT023 09/04 A2995 600 71 100 200/19G24 RMK AO2 PRESFR
14840KMKG MKG20021107134010011/07/02 13:40:31  5-MIN KMKG 071840Z 19015G24KT 9SM FEW023 09/04 A2995 600 71 100 200/15G24 RMK AO2
14840KMKG MKG20021107134510011/07/02 13:45:31  5-MIN KMKG 071845Z 20017G24KT 9SM FEW023 09/04 A2995 610 71 100 200/17G24 RMK AO2
14840KMKG MKG20021107135011711/07/02 13:50:31  5-MIN KMKG 071850Z 20019G22KT 8SM SCT021 09/04 A2994 610 68 100 200/19G22 RMK AO2 SLP144 T00940039
14840KMKG MKG20021107135511711/07/02 13:55:31  5-MIN KMKG 071855Z 19017G22KT 7SM SCT021 09/04 A2994 610 71 100 190/17G22 RMK AO2 SLP142 T00940044
14840KMKG MKG20021107140010311/07/02 14:00:31  5-MIN KMKG 071900Z 19016G25KT 6SM HZ SCT019 09/04 A2993 620 73 100 190/16G25 RMK AO2
14840KMKG MKG20021107140510311/07/02 14:05:31  5-MIN KMKG 071905Z 19017G25KT 6SM HZ SCT019 09/04 A2993 620 73 100 190/17G25 RMK AO2
14840KMKG MKG20021107141010311/07/02 14:10:31  5-MIN KMKG 071910Z 18019G25KT 6SM HZ SCT019 09/04 A2993 620 73 100 190/19G25 RMK AO2
14840KMKG MKG20021107141510311/07/02 14:15:31  5-MIN KMKG 071915Z 19019G25KT 6SM HZ SCT019 09/04 A2992 630 71 200 200/19G25 RMK AO2
14840KMKG MKG20021107142010311/07/02 14:20:31  5-MIN KMKG 071920Z 18019G24KT 6SM HZ SCT019 09/04 A2991 640 71 200 190/19G24 RMK AO2
14840KMKG MKG20021107142512111/07/02 14:25:31  5-MIN KMKG 071925Z 18020G27KT 6SM HZ SCT019 09/04 A2992 630 73 100 180/20G27 RMK AO2 PK WND 19027/1923
14840KMKG MKG20021107143012111/07/02 14:30:31  5-MIN KMKG 071930Z 19016G27KT 6SM HZ FEW019 09/05 A2991 640 74 200 190/16G27 RMK AO2 PK WND 19027/1923
14840KMKG MKG20021107143512111/07/02 14:35:31  5-MIN KMKG 071935Z 18018G24KT 6SM HZ FEW019 10/05 A2990 640 71 200 180/18G24 RMK AO2 PK WND 19027/1923
14840KMKG MKG20021107144012111/07/02 14:40:31  5-MIN KMKG 071940Z 18016G24KT 6SM HZ FEW017 10/05 A2990 650 71 200 190/16G24 RMK AO2 PK WND 19027/1923
14840KMKG MKG20021107144512111/07/02 14:45:31  5-MIN KMKG 071945Z 19018G24KT 6SM HZ FEW017 10/05 A2990 650 71 200 190/18G24 RMK AO2 PK WND 19027/1923
14840KMKG MKG20021107145013511/07/02 14:50:31  5-MIN KMKG 071950Z 19015G23KT 6SM HZ CLR 09/05 A2990 650 74 200 190/15G23 RMK AO2 PK WND 19027/1923 SLP129 T00940050
14840KMKG MKG20021107145513811/07/02 14:55:31  5-MIN KMKG 071955Z 19017G22KT 6SM HZ FEW120 09/05 A2989 650 74 200 190/17G22 RMK AO2 PK WND 19027/1923 SLP128 T00940050
14840KMKG MKG20021107150010311/07/02 15:00:31  5-MIN KMKG 072000Z 19012G22KT 6SM HZ FEW120 09/05 A2989 660 74 200 190/12G22 RMK AO2
14840KMKG MKG20021107150510311/07/02 15:05:31  5-MIN KMKG 072005Z 18018G25KT 6SM HZ FEW120 09/05 A2989 660 74 200 180/18G25 RMK AO2
14840KMKG MKG20021107151010011/07/02 15:10:31  5-MIN KMKG 072010Z 19017G25KT 6SM HZ CLR 09/05 A2989 660 74 200 190/17G25 RMK AO2
14840KMKG MKG20021107151510011/07/02 15:15:31  5-MIN KMKG 072015Z 18019G25KT 6SM HZ CLR 09/05 A2988 670 74 200 180/19G25 RMK AO2
14840KMKG MKG20021107152010311/07/02 15:20:31  5-MIN KMKG 072020Z 18017G25KT 6SM HZ FEW120 09/05 A2988 670 74 200 180/17G25 RMK AO2
14840KMKG MKG20021107152510311/07/02 15:25:31  5-MIN KMKG 072025Z 18018G25KT 6SM HZ FEW120 09/05 A2987 680 74 200 180/18G25 RMK AO2
14840KMKG MKG20021107153011811/07/02 15:30:31  5-MIN KMKG 072030Z 18020G26KT 6SM HZ CLR 09/05 A2987 680 74 200 180/20G26 RMK AO2 PK WND 18026/2027
14840KMKG MKG20021107153511811/07/02 15:35:31  5-MIN KMKG 072035Z 18018G26KT 6SM HZ CLR 09/05 A2986 680 74 200 190/18G26 RMK AO2 PK WND 18026/2027
14840KMKG MKG20021107154011811/07/02 15:40:31  5-MIN KMKG 072040Z 18017G23KT 6SM HZ CLR 09/05 A2987 680 74 200 190/17G23 RMK AO2 PK WND 18026/2027
14840KMKG MKG20021107154511511/07/02 15:45:31  5-MIN KMKG 072045Z 18017G22KT 7SM CLR 10/05 A2986 680 71 300 190/17G22 RMK AO2 PK WND 18026/2027
14840KMKG MKG20021107155013811/07/02 15:50:31  5-MIN KMKG 072050Z 19018G26KT 7SM CLR 10/05 A2986 690 71 300 190/18G26 RMK AO2 PK WND 19026/2048 SLP116 T01000050 58031
14840KMKG MKG20021107155513811/07/02 15:55:31  5-MIN KMKG 072055Z 19018G26KT 7SM CLR 10/05 A2986 690 71 300 190/18G26 RMK AO2 PK WND 19026/2048 SLP116 T01000050 56041
14840KMKG MKG20021107160011511/07/02 16:00:31  5-MIN KMKG 072100Z 19018G26KT 8SM CLR 10/05 A2986 690 71 300 190/18G26 RMK AO2 PK WND 19026/2100
14840KMKG MKG20021107160511511/07/02 16:05:31  5-MIN KMKG 072105Z 19017G26KT 8SM CLR 10/04 A2986 690 68 300 200/17G26 RMK AO2 PK WND 19026/2100
14840KMKG MKG20021107161011511/07/02 16:10:31  5-MIN KMKG 072110Z 19018G28KT 8SM CLR 10/04 A2985 690 68 300 190/18G28 RMK AO2 PK WND 19028/2110
14840KMKG MKG20021107161511511/07/02 16:15:31  5-MIN KMKG 072115Z 19018G28KT 9SM CLR 10/04 A2985 700 68 300 190/18G28 RMK AO2 PK WND 18028/2112
14840KMKG MKG20021107162011511/07/02 16:20:31  5-MIN KMKG 072120Z 19020G28KT 9SM CLR 10/04 A2984 700 68 300 190/20G28 RMK AO2 PK WND 18028/2112
14840KMKG MKG20021107162511511/07/02 16:25:31  5-MIN KMKG 072125Z 18018G25KT 9SM CLR 10/04 A2984 710 68 300 190/18G25 RMK AO2 PK WND 18028/2112
14840KMKG MKG20021107163011511/07/02 16:30:31  5-MIN KMKG 072130Z 19018G23KT 9SM CLR 10/04 A2983 710 68 300 190/18G23 RMK AO2 PK WND 18028/2112
14840KMKG MKG20021107163511511/07/02 16:35:31  5-MIN KMKG 072135Z 18017G24KT 9SM CLR 10/04 A2983 710 68 300 190/17G24 RMK AO2 PK WND 18028/2112
14840KMKG MKG20021107164011511/07/02 16:40:31  5-MIN KMKG 072140Z 19020G28KT 9SM CLR 10/04 A2983 710 68 300 190/20G28 RMK AO2 PK WND 19028/2138
14840KMKG MKG20021107164511611/07/02 16:45:31  5-MIN KMKG 072145Z 19018G28KT 10SM CLR 10/04 A2983 720 68 300 190/18G28 RMK AO2 PK WND 19028/2138
14840KMKG MKG20021107165013311/07/02 16:50:31  5-MIN KMKG 072150Z 19018G22KT 10SM CLR 10/04 A2982 720 68 300 190/18G22 RMK AO2 PK WND 19028/2138 SLP104 T01000044
14840KMKG MKG20021107165513311/07/02 16:55:31  5-MIN KMKG 072155Z 18020G26KT 10SM CLR 10/04 A2982 720 68 300 190/20G26 RMK AO2 PK WND 19028/2138 SLP103 T01000044
14840KMKG MKG20021107170011611/07/02 17:00:31  5-MIN KMKG 072200Z 19017G26KT 10SM CLR 10/04 A2982 730 68 300 190/17G26 RMK AO2 PK WND 19026/2157
14840KMKG MKG20021107170511611/07/02 17:05:31  5-MIN KMKG 072205Z 19019G26KT 10SM CLR 10/04 A2981 730 68 300 190/19G26 RMK AO2 PK WND 19026/2157
14840KMKG MKG20021107171011611/07/02 17:10:31  5-MIN KMKG 072210Z 19015G24KT 10SM CLR 10/04 A2981 730 68 300 190/15G24 RMK AO2 PK WND 19026/2157
14840KMKG MKG20021107171511611/07/02 17:15:31  5-MIN KMKG 072215Z 19018G25KT 10SM CLR 10/04 A2981 730 68 400 190/18G25 RMK AO2 PK WND 19026/2157
14840KMKG MKG20021107172011611/07/02 17:20:31  5-MIN KMKG 072220Z 19018G25KT 10SM CLR 10/04 A2981 740 68 400 200/18G25 RMK AO2 PK WND 19026/2157
14840KMKG MKG20021107172511611/07/02 17:25:31  5-MIN KMKG 072225Z 19016G22KT 10SM CLR 10/04 A2980 740 68 400 190/16G22 RMK AO2 PK WND 19026/2157
14840KMKG MKG20021107173011611/07/02 17:30:31  5-MIN KMKG 072230Z 19018G24KT 10SM CLR 10/04 A2980 740 68 400 200/18G24 RMK AO2 PK WND 19026/2157
14840KMKG MKG20021107173511611/07/02 17:35:31  5-MIN KMKG 072235Z 19016G24KT 10SM CLR 10/04 A2980 740 68 400 190/16G24 RMK AO2 PK WND 19026/2157
14840KMKG MKG20021107174011611/07/02 17:40:31  5-MIN KMKG 072240Z 19016G24KT 10SM CLR 10/05 A2980 740 71 400 200/16G24 RMK AO2 PK WND 19026/2157
14840KMKG MKG20021107174511611/07/02 17:45:31  5-MIN KMKG 072245Z 19017G24KT 10SM CLR 10/05 A2980 750 71 400 200/17G24 RMK AO2 PK WND 19026/2157
14840KMKG MKG20021107175013311/07/02 17:50:31  5-MIN KMKG 072250Z 19016G24KT 10SM CLR 10/05 A2980 750 71 400 200/16G24 RMK AO2 PK WND 19026/2157 SLP095 T01000050
14840KMKG MKG20021107175513311/07/02 17:55:31  5-MIN KMKG 072255Z 19017G22KT 10SM CLR 10/05 A2979 750 71 400 200/17G22 RMK AO2 PK WND 19026/2157 SLP094 T01000050
14840KMKG MKG20021107180009811/07/02 18:00:31  5-MIN KMKG 072300Z 19015G22KT 10SM CLR 11/05 A2979 750 68 400 190/15G22 RMK AO2
14840KMKG MKG20021107180509811/07/02 18:05:31  5-MIN KMKG 072305Z 19016G23KT 10SM CLR 10/05 A2979 750 71 400 200/16G23 RMK AO2
14840KMKG MKG20021107181009811/07/02 18:10:31  5-MIN KMKG 072310Z 19015G23KT 10SM CLR 11/05 A2979 750 68 400 200/15G23 RMK AO2
14840KMKG MKG20021107181509811/07/02 18:15:31  5-MIN KMKG 072315Z 18015G22KT 10SM CLR 11/05 A2979 750 68 400 190/15G22 RMK AO2
14840KMKG MKG20021107182009211/07/02 18:20:31  5-MIN KMKG 072320Z 19015KT 10SM CLR 10/06 A2979 750 74 400 190/15 RMK AO2
14840KMKG MKG20021107182509811/07/02 18:25:31  5-MIN KMKG 072325Z 19017G22KT 10SM CLR 11/06 A2979 750 71 400 190/17G22 RMK AO2
14840KMKG MKG20021107183009811/07/02 18:30:31  5-MIN KMKG 072330Z 19018G24KT 10SM CLR 11/06 A2979 750 71 400 190/18G24 RMK AO2
14840KMKG MKG20021107183509811/07/02 18:35:31  5-MIN KMKG 072335Z 19017G24KT 10SM CLR 11/06 A2978 760 71 400 190/17G24 RMK AO2
14840KMKG MKG20021107184009811/07/02 18:40:31  5-MIN KMKG 072340Z 19017G24KT 10SM CLR 11/06 A2978 760 71 400 190/17G24 RMK AO2
14840KMKG MKG20021107184509811/07/02 18:45:31  5-MIN KMKG 072345Z 19016G24KT 10SM CLR 11/06 A2978 760 71 400 200/16G24 RMK AO2
14840KMKG MKG20021107185013311/07/02 18:50:31  5-MIN KMKG 072350Z 19017G23KT 10SM CLR 11/06 A2978 760 71 400 190/17G23 RMK AO2 SLP091 T01060056 10106 20083 56041
14840KMKG MKG20021107185515111/07/02 18:55:31  5-MIN KMKG 072355Z 19019G26KT 10SM CLR 11/06 A2978 760 68 500 190/19G26 RMK AO2 PK WND 20026/2355 SLP091 T01110056 10111 20083 56025
14840KMKG MKG20021107190009811/07/02 19:00:31  5-MIN KMKG 080000Z 19017G26KT 10SM CLR 11/06 A2978 760 71 500 200/17G26 RMK AO2
14840KMKG MKG20021107190509811/07/02 19:05:31  5-MIN KMKG 080005Z 19017G25KT 10SM CLR 11/06 A2978 760 71 500 200/17G25 RMK AO2
14840KMKG MKG20021107191009811/07/02 19:10:31  5-MIN KMKG 080010Z 19019G25KT 10SM CLR 11/06 A2978 760 71 500 190/19G25 RMK AO2
14840KMKG MKG20021107191511611/07/02 19:15:31  5-MIN KMKG 080015Z 19021G26KT 10SM CLR 11/06 A2978 760 71 500 190/21G26 RMK AO2 PK WND 19026/0014
14840KMKG MKG20021107192011611/07/02 19:20:31  5-MIN KMKG 080020Z 19018G26KT 10SM CLR 11/06 A2978 760 71 500 200/18G26 RMK AO2 PK WND 19026/0014
14840KMKG MKG20021107192511611/07/02 19:25:31  5-MIN KMKG 080025Z 19019G25KT 10SM CLR 11/06 A2978 760 71 500 190/19G25 RMK AO2 PK WND 19026/0014
14840KMKG MKG20021107193011611/07/02 19:30:31  5-MIN KMKG 080030Z 19018G24KT 10SM CLR 11/06 A2978 760 71 500 190/18G24 RMK AO2 PK WND 19026/0014
14840KMKG MKG20021107193511611/07/02 19:35:31  5-MIN KMKG 080035Z 19017G24KT 10SM CLR 11/06 A2978 760 71 500 190/17G24 RMK AO2 PK WND 19026/0014
14840KMKG MKG20021107194011611/07/02 19:40:31  5-MIN KMKG 080040Z 19019G25KT 10SM CLR 11/06 A2978 760 71 500 190/19G25 RMK AO2 PK WND 19026/0014
14840KMKG MKG20021107194511611/07/02 19:45:31  5-MIN KMKG 080045Z 19019G25KT 10SM CLR 11/06 A2977 770 71 500 190/19G25 RMK AO2 PK WND 19026/0014
14840KMKG MKG20021107195013311/07/02 19:50:31  5-MIN KMKG 080050Z 19020G25KT 10SM CLR 11/06 A2977 770 71 500 190/20G25 RMK AO2 PK WND 19026/0014 SLP087 T01110061
14840KMKG MKG20021107195513311/07/02 19:55:31  5-MIN KMKG 080055Z 19022G27KT 10SM CLR 11/06 A2977 770 71 500 190/22G27 RMK AO2 PK WND 19027/0054 SLP086 T01110061
14840KMKG MKG20021107200011611/07/02 20:00:31  5-MIN KMKG 080100Z 19019G27KT 10SM CLR 11/07 A2977 770 74 500 190/19G27 RMK AO2 PK WND 18027/0057
14840KMKG MKG20021107200511611/07/02 20:05:31  5-MIN KMKG 080105Z 19019G27KT 10SM CLR 11/07 A2977 770 74 500 200/19G27 RMK AO2 PK WND 18027/0057
14840KMKG MKG20021107201011611/07/02 20:10:31  5-MIN KMKG 080110Z 19017G27KT 10SM CLR 11/07 A2976 780 74 500 200/17G27 RMK AO2 PK WND 20027/0107
14840KMKG MKG20021107201511611/07/02 20:15:31  5-MIN KMKG 080115Z 20021G27KT 10SM CLR 11/07 A2976 780 74 500 200/21G27 RMK AO2 PK WND 20027/0107
14840KMKG MKG20021107202011611/07/02 20:20:31  5-MIN KMKG 080120Z 19018G27KT 10SM CLR 11/07 A2976 780 74 500 190/18G27 RMK AO2 PK WND 18027/0118
14840KMKG MKG20021107202511611/07/02 20:25:31  5-MIN KMKG 080125Z 19021G27KT 10SM CLR 11/07 A2976 780 74 500 200/21G27 RMK AO2 PK WND 18027/0118
14840KMKG MKG20021107203011611/07/02 20:30:31  5-MIN KMKG 080130Z 19018G25KT 10SM CLR 11/07 A2976 780 74 500 200/18G25 RMK AO2 PK WND 18027/0118
14840KMKG MKG20021107203511611/07/02 20:35:31  5-MIN KMKG 080135Z 19020G27KT 10SM CLR 11/07 A2976 780 74 500 200/20G27 RMK AO2 PK WND 18027/0135
14840KMKG MKG20021107204011611/07/02 20:40:31  5-MIN KMKG 080140Z 19021G28KT 10SM CLR 11/07 A2977 770 74 500 200/21G28 RMK AO2 PK WND 18028/0140
14840KMKG MKG20021107204511611/07/02 20:45:31  5-MIN KMKG 080145Z 19019G29KT 10SM CLR 11/07 A2976 780 74 500 200/19G29 RMK AO2 PK WND 18029/0141
14840KMKG MKG20021107205013311/07/02 20:50:31  5-MIN KMKG 080150Z 19017G29KT 10SM CLR 11/06 A2976 780 71 500 200/17G29 RMK AO2 PK WND 19029/0147 SLP082 T01110061
14840KMKG MKG20021107205513311/07/02 20:55:31  5-MIN KMKG 080155Z 19020G29KT 10SM CLR 11/06 A2976 780 71 500 200/20G29 RMK AO2 PK WND 19029/0147 SLP082 T01110061
14840KMKG MKG20021107210009811/07/02 21:00:31  5-MIN KMKG 080200Z 19019G28KT 10SM CLR 11/06 A2976 780 71 500 200/19G28 RMK AO2
14840KMKG MKG20021107210511611/07/02 21:05:31  5-MIN KMKG 080205Z 20020G27KT 10SM CLR 11/06 A2976 780 71 500 200/20G27 RMK AO2 PK WND 20027/0204
14840KMKG MKG20021107211011611/07/02 21:10:31  5-MIN KMKG 080210Z 19020G27KT 10SM CLR 11/06 A2975 790 71 500 200/20G27 RMK AO2 PK WND 20027/0204
14840KMKG MKG20021107211511611/07/02 21:15:31  5-MIN KMKG 080215Z 20020G27KT 10SM CLR 11/07 A2975 790 74 500 200/20G27 RMK AO2 PK WND 19027/0215
14840KMKG MKG20021107212011611/07/02 21:20:31  5-MIN KMKG 080220Z 20019G27KT 10SM CLR 11/07 A2975 790 74 500 200/19G27 RMK AO2 PK WND 19027/0215
14840KMKG MKG20021107212511611/07/02 21:25:31  5-MIN KMKG 080225Z 20019G29KT 10SM CLR 11/06 A2975 780 71 500 200/19G29 RMK AO2 PK WND 19029/0223
14840KMKG MKG20021107213011611/07/02 21:30:31  5-MIN KMKG 080230Z 20020G29KT 10SM CLR 11/06 A2975 790 71 500 210/20G29 RMK AO2 PK WND 19029/0223
14840KMKG MKG20021107213511611/07/02 21:35:31  5-MIN KMKG 080235Z 20020G26KT 10SM CLR 11/06 A2975 780 71 500 200/20G26 RMK AO2 PK WND 19029/0223
14840KMKG MKG20021107214011611/07/02 21:40:31  5-MIN KMKG 080240Z 20021G28KT 10SM CLR 11/06 A2975 790 71 500 200/21G28 RMK AO2 PK WND 19029/0223
14840KMKG MKG20021107214511611/07/02 21:45:31  5-MIN KMKG 080245Z 20021G28KT 10SM CLR 11/06 A2975 780 71 500 200/21G28 RMK AO2 PK WND 19029/0223
14840KMKG MKG20021107215013911/07/02 21:50:31  5-MIN KMKG 080250Z 20022G34KT 10SM CLR 12/06 A2975 790 68 600 200/22G34 RMK AO2 PK WND 19034/0247 SLP078 T01170061 56025
14840KMKG MKG20021107215513911/07/02 21:55:31  5-MIN KMKG 080255Z 20020G34KT 10SM CLR 11/06 A2975 790 71 600 200/20G34 RMK AO2 PK WND 19034/0247 SLP077 T01110061 56011
14840KMKG MKG20021107220011611/07/02 22:00:31  5-MIN KMKG 080300Z 19019G30KT 10SM CLR 11/06 A2975 790 71 600 200/19G30 RMK AO2 PK WND 19030/0256
14840KMKG MKG20021107220511611/07/02 22:05:31  5-MIN KMKG 080305Z 20020G30KT 10SM CLR 11/06 A2975 790 71 600 200/20G30 RMK AO2 PK WND 19030/0256
14840KMKG MKG20021107221011611/07/02 22:10:31  5-MIN KMKG 080310Z 20020G29KT 10SM CLR 11/06 A2975 790 71 600 200/20G29 RMK AO2 PK WND 19030/0256
14840KMKG MKG20021107221511611/07/02 22:15:31  5-MIN KMKG 080315Z 20021G28KT 10SM CLR 11/06 A2975 790 71 600 200/21G28 RMK AO2 PK WND 19030/0256
14840KMKG MKG20021107222011611/07/02 22:20:31  5-MIN KMKG 080320Z 19021G28KT 10SM CLR 11/06 A2975 790 71 600 200/21G28 RMK AO2 PK WND 19030/0256
14840KMKG MKG20021107222511611/07/02 22:25:31  5-MIN KMKG 080325Z 19020G28KT 10SM CLR 11/06 A2975 790 71 600 200/20G28 RMK AO2 PK WND 19030/0256
14840KMKG MKG20021107223011611/07/02 22:30:31  5-MIN KMKG 080330Z 20021G29KT 10SM CLR 11/06 A2975 790 71 600 200/21G29 RMK AO2 PK WND 19030/0256
14840KMKG MKG20021107223511611/07/02 22:35:31  5-MIN KMKG 080335Z 20020G29KT 10SM CLR 11/06 A2975 790 71 600 200/20G29 RMK AO2 PK WND 19030/0256
14840KMKG MKG20021107224011611/07/02 22:40:31  5-MIN KMKG 080340Z 19018G26KT 10SM CLR 11/06 A2975 790 71 600 200/18G26 RMK AO2 PK WND 19030/0256
14840KMKG MKG20021107224511611/07/02 22:45:31  5-MIN KMKG 080345Z 20018G25KT 10SM CLR 11/06 A2975 790 71 600 210/18G25 RMK AO2 PK WND 19030/0256
14840KMKG MKG20021107225013311/07/02 22:50:31  5-MIN KMKG 080350Z 20018G25KT 10SM CLR 11/06 A2974 790 71 600 210/18G25 RMK AO2 PK WND 19030/0256 SLP076 T01110061
14840KMKG MKG20021107225513311/07/02 22:55:31  5-MIN KMKG 080355Z 20020G25KT 10SM CLR 11/06 A2975 790 71 600 200/20G25 RMK AO2 PK WND 19030/0256 SLP076 T01110061
14840KMKG MKG20021107230011611/07/02 23:00:31  5-MIN KMKG 080400Z 20019G27KT 10SM CLR 11/06 A2974 800 71 600 200/19G27 RMK AO2 PK WND 19027/0359
14840KMKG MKG20021107230511611/07/02 23:05:31  5-MIN KMKG 080405Z 20018G27KT 10SM CLR 11/06 A2974 800 71 600 200/18G27 RMK AO2 PK WND 19027/0359
14840KMKG MKG20021107231011611/07/02 23:10:31  5-MIN KMKG 080410Z 20019G24KT 10SM CLR 11/06 A2974 800 71 600 200/19G24 RMK AO2 PK WND 19027/0359
14840KMKG MKG20021107231511611/07/02 23:15:31  5-MIN KMKG 080415Z 20017G24KT 10SM CLR 11/06 A2973 800 71 600 200/17G24 RMK AO2 PK WND 19027/0359
14840KMKG MKG20021107232011611/07/02 23:20:31  5-MIN KMKG 080420Z 20018G24KT 10SM CLR 11/06 A2973 800 71 600 200/18G24 RMK AO2 PK WND 19027/0359
14840KMKG MKG20021107232511611/07/02 23:25:31  5-MIN KMKG 080425Z 20019G25KT 10SM CLR 11/06 A2973 800 71 600 200/19G25 RMK AO2 PK WND 19027/0359
14840KMKG MKG20021107233011611/07/02 23:30:31  5-MIN KMKG 080430Z 20021G29KT 10SM CLR 11/06 A2973 800 71 600 200/21G29 RMK AO2 PK WND 20029/0429
14840KMKG MKG20021107233511611/07/02 23:35:31  5-MIN KMKG 080435Z 20019G29KT 10SM CLR 11/06 A2973 800 71 600 200/19G29 RMK AO2 PK WND 20029/0429
14840KMKG MKG20021107234011611/07/02 23:40:31  5-MIN KMKG 080440Z 20017G25KT 10SM CLR 11/06 A2973 810 71 600 210/17G25 RMK AO2 PK WND 20029/0429
14840KMKG MKG20021107234511611/07/02 23:45:31  5-MIN KMKG 080445Z 20020G25KT 10SM CLR 11/06 A2973 810 71 600 200/20G25 RMK AO2 PK WND 20029/0429
14840KMKG MKG20021107235014311/07/02 23:50:31  5-MIN KMKG 080450Z 20019G25KT 10SM CLR 11/06 A2973 810 71 600 200/19G25 RMK AO2 PK WND 20029/0429 SLP069 T01110061 401171039
14840KMKG MKG20021107235514311/07/02 23:55:31  5-MIN KMKG 080455Z 20020G26KT 10SM CLR 11/06 A2972 810 71 600 210/20G26 RMK AO2 PK WND 20029/0429 SLP068 T01110061 401171039
14840KMKG MKG20021108000009811/08/02 00:00:31  5-MIN KMKG 080500Z 20015G26KT 10SM CLR 11/06 A2972 810 71 600 210/15G26 RMK AO2
14840KMKG MKG20021108000511611/08/02 00:05:31  5-MIN KMKG 080505Z 20019G27KT 10SM CLR 11/06 A2972 810 71 600 200/19G27 RMK AO2 PK WND 21027/0503
14840KMKG MKG20021108001011611/08/02 00:10:31  5-MIN KMKG 080510Z 20018G27KT 10SM CLR 11/06 A2973 810 71 600 210/18G27 RMK AO2 PK WND 21027/0503
14840KMKG MKG20021108001511611/08/02 00:15:31  5-MIN KMKG 080515Z 20015G23KT 10SM CLR 11/06 A2972 810 71 600 210/15G23 RMK AO2 PK WND 21027/0503
14840KMKG MKG20021108002011611/08/02 00:20:31  5-MIN KMKG 080520Z 20019G23KT 10SM CLR 11/06 A2972 810 71 600 200/19G23 RMK AO2 PK WND 21027/0503
14840KMKG MKG20021108002511011/08/02 00:25:31  5-MIN KMKG 080525Z 20018KT 10SM CLR 11/06 A2972 810 71 600 200/18 RMK AO2 PK WND 21027/0503
14840KMKG MKG20021108003011611/08/02 00:30:31  5-MIN KMKG 080530Z 20018G23KT 10SM CLR 11/06 A2972 820 71 600 200/18G23 RMK AO2 PK WND 21027/0503
14840KMKG MKG20021108003511611/08/02 00:35:31  5-MIN KMKG 080535Z 20018G25KT 10SM CLR 11/06 A2972 820 71 600 200/18G25 RMK AO2 PK WND 21027/0503
14840KMKG MKG20021108004011611/08/02 00:40:31  5-MIN KMKG 080540Z 20017G25KT 10SM CLR 11/06 A2972 820 71 600 200/17G25 RMK AO2 PK WND 21027/0503
14840KMKG MKG20021108004511611/08/02 00:45:31  5-MIN KMKG 080545Z 20018G23KT 10SM CLR 11/06 A2972 820 74 500 200/18G23 RMK AO2 PK WND 21027/0503
14840KMKG MKG20021108005015111/08/02 00:50:31  5-MIN KMKG 080550Z 20020G24KT 10SM CLR 11/06 A2971 820 71 600 200/20G24 RMK AO2 PK WND 21027/0503 SLP064 T01110061 10117 20106 56011
14840KMKG MKG20021108005515111/08/02 00:55:31  5-MIN KMKG 080555Z 20018G24KT 10SM CLR 11/06 A2971 830 71 600 210/18G24 RMK AO2 PK WND 21027/0503 SLP063 T01110061 10117 20106 58013
14840KMKG MKG20021108010009811/08/02 01:00:31  5-MIN KMKG 080600Z 20017G23KT 10SM CLR 11/06 A2971 830 71 600 200/17G23 RMK AO2
14840KMKG MKG20021108010509811/08/02 01:05:31  5-MIN KMKG 080605Z 19017G23KT 10SM CLR 11/06 A2971 830 71 600 200/17G23 RMK AO2
14840KMKG MKG20021108011009811/08/02 01:10:31  5-MIN KMKG 080610Z 20016G23KT 10SM CLR 11/06 A2971 830 74 500 200/16G23 RMK AO2
14840KMKG MKG20021108011509811/08/02 01:15:31  5-MIN KMKG 080615Z 20017G23KT 10SM CLR 11/06 A2970 830 71 600 200/17G23 RMK AO2
14840KMKG MKG20021108012009811/08/02 01:20:31  5-MIN KMKG 080620Z 20019G23KT 10SM CLR 11/06 A2970 830 71 600 200/19G23 RMK AO2
14840KMKG MKG20021108012509811/08/02 01:25:31  5-MIN KMKG 080625Z 20018G23KT 10SM CLR 11/06 A2970 830 74 500 200/18G23 RMK AO2
14840KMKG MKG20021108013009811/08/02 01:30:31  5-MIN KMKG 080630Z 20014G22KT 10SM CLR 11/06 A2970 830 74 500 200/14G22 RMK AO2
14840KMKG MKG20021108013509811/08/02 01:35:31  5-MIN KMKG 080635Z 20018G22KT 10SM CLR 11/06 A2970 830 71 600 200/18G22 RMK AO2
14840KMKG MKG20021108014009211/08/02 01:40:31  5-MIN KMKG 080640Z 20018KT 10SM CLR 11/06 A2970 840 74 500 200/18 RMK AO2
14840KMKG MKG20021108014509211/08/02 01:45:31  5-MIN KMKG 080645Z 20016KT 10SM CLR 11/07 A2970 840 77 500 200/16 RMK AO2
14840KMKG MKG20021108015010911/08/02 01:50:31  5-MIN KMKG 080650Z 20017KT 10SM CLR 11/07 A2970 840 77 500 200/17 RMK AO2 SLP058 T01060067
14840KMKG MKG20021108015511511/08/02 01:55:31  5-MIN KMKG 080655Z 19016G23KT 10SM CLR 11/06 A2969 840 74 500 200/16G23 RMK AO2 SLP057 T01060061
14840KMKG MKG20021108020009811/08/02 02:00:31  5-MIN KMKG 080700Z 20018G23KT 10SM CLR 11/06 A2969 840 74 600 200/18G23 RMK AO2
14840KMKG MKG20021108020509811/08/02 02:05:31  5-MIN KMKG 080705Z 20017G22KT 10SM CLR 11/06 A2969 840 74 500 200/17G22 RMK AO2
14840KMKG MKG20021108021009211/08/02 02:10:31  5-MIN KMKG 080710Z 20015KT 10SM CLR 11/06 A2969 850 74 600 200/15 RMK AO2
14840KMKG MKG20021108021509211/08/02 02:15:31  5-MIN KMKG 080715Z 20016KT 10SM CLR 11/07 A2969 850 77 600 210/16 RMK AO2
14840KMKG MKG20021108022009211/08/02 02:20:31  5-MIN KMKG 080720Z 20018KT 10SM CLR 11/07 A2968 850 77 600 200/18 RMK AO2
14840KMKG MKG20021108022509811/08/02 02:25:31  5-MIN KMKG 080725Z 20017G21KT 10SM CLR 11/07 A2968 850 77 600 210/17G21 RMK AO2
14840KMKG MKG20021108023009811/08/02 02:30:31  5-MIN KMKG 080730Z 20015G21KT 10SM CLR 11/07 A2968 850 77 600 200/15G21 RMK AO2
14840KMKG MKG20021108023509211/08/02 02:35:31  5-MIN KMKG 080735Z 20016KT 10SM CLR 11/07 A2968 860 77 600 210/16 RMK AO2
14840KMKG MKG20021108024009811/08/02 02:40:31  5-MIN KMKG 080740Z 20017G25KT 10SM CLR 11/07 A2968 860 77 600 210/17G25 RMK AO2
14840KMKG MKG20021108024509811/08/02 02:45:31  5-MIN KMKG 080745Z 20016G25KT 10SM CLR 11/07 A2967 860 77 600 210/16G25 RMK AO2
14840KMKG MKG20021108025011511/08/02 02:50:31  5-MIN KMKG 080750Z 21019G24KT 10SM CLR 11/07 A2967 860 77 600 210/19G24 RMK AO2 SLP050 T01060067
14840KMKG MKG20021108025511511/08/02 02:55:31  5-MIN KMKG 080755Z 20017G24KT 10SM CLR 11/07 A2967 860 77 600 210/17G24 RMK AO2 SLP050 T01060067
14840KMKG MKG20021108030009211/08/02 03:00:31  5-MIN KMKG 080800Z 20016KT 10SM CLR 11/07 A2967 860 77 600 200/16 RMK AO2
14840KMKG MKG20021108030509811/08/02 03:05:31  5-MIN KMKG 080805Z 20018G24KT 10SM CLR 11/07 A2967 870 77 600 210/18G24 RMK AO2
14840KMKG MKG20021108031009811/08/02 03:10:31  5-MIN KMKG 080810Z 20019G24KT 10SM CLR 11/07 A2967 860 77 600 200/19G24 RMK AO2
14840KMKG MKG20021108031509811/08/02 03:15:31  5-MIN KMKG 080815Z 20019G25KT 10SM CLR 11/07 A2967 870 74 600 200/19G25 RMK AO2
14840KMKG MKG20021108032009811/08/02 03:20:31  5-MIN KMKG 080820Z 20017G25KT 10SM CLR 11/07 A2967 870 74 600 200/17G25 RMK AO2
14840KMKG MKG20021108032511611/08/02 03:25:31  5-MIN KMKG 080825Z 20017G27KT 10SM CLR 11/07 A2966 870 74 700 210/17G27 RMK AO2 PK WND 21027/0821
14840KMKG MKG20021108033011611/08/02 03:30:31  5-MIN KMKG 080830Z 20017G27KT 10SM CLR 11/06 A2966 870 71 700 210/17G27 RMK AO2 PK WND 21027/0821
14840KMKG MKG20021108033511611/08/02 03:35:31  5-MIN KMKG 080835Z 20018G24KT 10SM CLR 11/06 A2966 870 71 700 210/18G24 RMK AO2 PK WND 21027/0821
14840KMKG MKG20021108034011611/08/02 03:40:31  5-MIN KMKG 080840Z 20019G26KT 10SM CLR 11/06 A2966 870 71 700 210/19G26 RMK AO2 PK WND 21027/0821
14840KMKG MKG20021108034511611/08/02 03:45:31  5-MIN KMKG 080845Z 21017G26KT 10SM CLR 11/07 A2966 870 74 700 210/17G26 RMK AO2 PK WND 21027/0821
14840KMKG MKG20021108035013911/08/02 03:50:31  5-MIN KMKG 080850Z 20020G25KT 10SM CLR 11/07 A2966 880 74 700 210/20G25 RMK AO2 PK WND 21027/0821 SLP045 T01110067 58013
14840KMKG MKG20021108035513911/08/02 03:55:31  5-MIN KMKG 080855Z 21018G25KT 10SM CLR 11/06 A2966 880 71 700 210/18G25 RMK AO2 PK WND 21027/0821 SLP044 T01110061 58018
14840KMKG MKG20021108040011611/08/02 04:00:31  5-MIN KMKG 080900Z 21020G27KT 10SM CLR 11/06 A2965 880 71 700 210/20G27 RMK AO2 PK WND 22027/0859
14840KMKG MKG20021108040511611/08/02 04:05:31  5-MIN KMKG 080905Z 20020G27KT 10SM CLR 11/06 A2965 880 71 700 210/20G27 RMK AO2 PK WND 22027/0859
14840KMKG MKG20021108041011611/08/02 04:10:31  5-MIN KMKG 080910Z 21018G26KT 10SM CLR 11/06 A2965 880 71 700 210/18G26 RMK AO2 PK WND 22027/0859
14840KMKG MKG20021108041511611/08/02 04:15:31  5-MIN KMKG 080915Z 20020G26KT 10SM CLR 11/06 A2965 880 71 700 210/20G26 RMK AO2 PK WND 22027/0859
14840KMKG MKG20021108042011611/08/02 04:20:31  5-MIN KMKG 080920Z 20017G26KT 10SM CLR 11/06 A2965 880 71 700 210/17G26 RMK AO2 PK WND 22027/0859
14840KMKG MKG20021108042511611/08/02 04:25:31  5-MIN KMKG 080925Z 20019G25KT 10SM CLR 11/07 A2965 880 74 700 210/19G25 RMK AO2 PK WND 22027/0859
14840KMKG MKG20021108043011611/08/02 04:30:31  5-MIN KMKG 080930Z 21017G25KT 10SM CLR 11/07 A2965 880 74 700 210/17G25 RMK AO2 PK WND 22027/0859
14840KMKG MKG20021108043511611/08/02 04:35:31  5-MIN KMKG 080935Z 20018G23KT 10SM CLR 11/07 A2965 880 74 700 210/18G23 RMK AO2 PK WND 22027/0859
14840KMKG MKG20021108044011611/08/02 04:40:31  5-MIN KMKG 080940Z 21020G23KT 10SM CLR 11/07 A2965 880 74 700 210/20G23 RMK AO2 PK WND 22027/0859
14840KMKG MKG20021108044511611/08/02 04:45:31  5-MIN KMKG 080945Z 20017G23KT 10SM CLR 11/07 A2965 880 74 700 210/17G23 RMK AO2 PK WND 22027/0859
14840KMKG MKG20021108045012711/08/02 04:50:31  5-MIN KMKG 080950Z 20020KT 10SM CLR 11/07 A2965 880 74 700 210/20 RMK AO2 PK WND 22027/0859 SLP042 T01110067
14840KMKG MKG20021108045512711/08/02 04:55:31  5-MIN KMKG 080955Z 21020KT 10SM CLR 11/07 A2965 880 74 700 210/20 RMK AO2 PK WND 22027/0859 SLP042 T01110067
14840KMKG MKG20021108050009811/08/02 05:00:31  5-MIN KMKG 081000Z 20017G25KT 10SM CLR 11/07 A2965 880 74 700 210/17G25 RMK AO2
14840KMKG MKG20021108050511611/08/02 05:05:31  5-MIN KMKG 081005Z 20019G26KT 10SM CLR 11/07 A2965 890 74 700 210/19G26 RMK AO2 PK WND 21026/1004
14840KMKG MKG20021108051011611/08/02 05:10:31  5-MIN KMKG 081010Z 20020G26KT 10SM CLR 11/07 A2964 890 74 700 210/20G26 RMK AO2 PK WND 21026/1004
14840KMKG MKG20021108051511611/08/02 05:15:31  5-MIN KMKG 081015Z 21018G27KT 10SM CLR 11/07 A2964 890 74 700 210/18G27 RMK AO2 PK WND 21027/1013
14840KMKG MKG20021108052011611/08/02 05:20:31  5-MIN KMKG 081020Z 21018G27KT 10SM CLR 11/07 A2964 890 77 600 210/18G27 RMK AO2 PK WND 21027/1013
14840KMKG MKG20021108052511611/08/02 05:25:31  5-MIN KMKG 081025Z 21018G25KT 10SM CLR 11/07 A2964 890 74 700 210/18G25 RMK AO2 PK WND 21027/1013
14840KMKG MKG20021108053011611/08/02 05:30:31  5-MIN KMKG 081030Z 21018G27KT 10SM CLR 11/07 A2964 890 77 600 210/18G27 RMK AO2 PK WND 22027/1027
14840KMKG MKG20021108053511611/08/02 05:35:31  5-MIN KMKG 081035Z 20019G27KT 10SM CLR 11/07 A2964 890 74 700 210/19G27 RMK AO2 PK WND 22027/1027
14840KMKG MKG20021108054011611/08/02 05:40:31  5-MIN KMKG 081040Z 21021G27KT 10SM CLR 11/07 A2964 890 74 700 210/21G27 RMK AO2 PK WND 20027/1037
14840KMKG MKG20021108054511611/08/02 05:45:31  5-MIN KMKG 081045Z 20019G27KT 10SM CLR 11/07 A2964 890 74 700 210/19G27 RMK AO2 PK WND 20027/1037
14840KMKG MKG20021108055013311/08/02 05:50:31  5-MIN KMKG 081050Z 21020G28KT 10SM CLR 11/07 A2964 890 74 700 210/20G28 RMK AO2 PK WND 21028/1047 SLP039 T01110067
14840KMKG MKG20021108055513311/08/02 05:55:31  5-MIN KMKG 081055Z 21019G28KT 10SM CLR 11/07 A2964 890 77 600 210/19G28 RMK AO2 PK WND 21028/1047 SLP039 T01060067
14840KMKG MKG20021108060009811/08/02 06:00:31  5-MIN KMKG 081100Z 21017G24KT 10SM CLR 11/07 A2964 890 74 700 210/17G24 RMK AO2
14840KMKG MKG20021108060509811/08/02 06:05:31  5-MIN KMKG 081105Z 20018G24KT 10SM CLR 11/07 A2964 890 77 600 210/18G24 RMK AO2
14840KMKG MKG20021108061009811/08/02 06:10:31  5-MIN KMKG 081110Z 20019G24KT 10SM CLR 11/07 A2964 890 77 600 200/19G24 RMK AO2
14840KMKG MKG20021108061509811/08/02 06:15:31  5-MIN KMKG 081115Z 20018G24KT 10SM CLR 11/07 A2964 890 77 600 210/18G24 RMK AO2
14840KMKG MKG20021108062009811/08/02 06:20:31  5-MIN KMKG 081120Z 20017G24KT 10SM CLR 11/07 A2964 890 77 600 210/17G24 RMK AO2
14840KMKG MKG20021108062509211/08/02 06:25:31  5-MIN KMKG 081125Z 20017KT 10SM CLR 11/07 A2964 890 77 600 210/17 RMK AO2
14840KMKG MKG20021108063009811/08/02 06:30:31  5-MIN KMKG 081130Z 20017G23KT 10SM CLR 11/07 A2964 890 77 600 200/17G23 RMK AO2
14840KMKG MKG20021108063509811/08/02 06:35:31  5-MIN KMKG 081135Z 20018G25KT 10SM CLR 11/07 A2964 890 77 600 200/18G25 RMK AO2
14840KMKG MKG20021108064009811/08/02 06:40:31  5-MIN KMKG 081140Z 20020G25KT 10SM CLR 11/07 A2964 890 77 600 200/20G25 RMK AO2
14840KMKG MKG20021108064511611/08/02 06:45:31  5-MIN KMKG 081145Z 20019G26KT 10SM CLR 11/07 A2964 890 77 600 200/19G26 RMK AO2 PK WND 20026/1141
14840KMKG MKG20021108065015111/08/02 06:50:31  5-MIN KMKG 081150Z 21019G26KT 10SM CLR 11/07 A2964 890 77 600 210/19G26 RMK AO2 PK WND 20026/1141 SLP039 T01060067 10111 20106 58018
14840KMKG MKG20021108065515111/08/02 06:55:31  5-MIN KMKG 081155Z 21019G26KT 10SM CLR 11/07 A2964 890 77 600 210/19G26 RMK AO2 PK WND 20026/1152 SLP037 T01060067 10111 20106 56006
14840KMKG MKG20021108070009811/08/02 07:00:31  5-MIN KMKG 081200Z 21020G26KT 10SM CLR 11/07 A2964 890 77 600 210/20G26 RMK AO2
14840KMKG MKG20021108070509811/08/02 07:05:31  5-MIN KMKG 081205Z 20020G24KT 10SM CLR 11/07 A2964 890 77 600 200/20G24 RMK AO2
14840KMKG MKG20021108071009211/08/02 07:10:31  5-MIN KMKG 081210Z 21020KT 10SM CLR 11/07 A2964 890 77 600 210/20 RMK AO2
14840KMKG MKG20021108071511611/08/02 07:15:31  5-MIN KMKG 081215Z 20020G26KT 10SM CLR 11/07 A2964 890 77 600 210/20G26 RMK AO2 PK WND 21026/1214
14840KMKG MKG20021108072011611/08/02 07:20:31  5-MIN KMKG 081220Z 21020G26KT 10SM CLR 11/07 A2964 890 77 600 210/20G26 RMK AO2 PK WND 21026/1214
14840KMKG MKG20021108072511611/08/02 07:25:31  5-MIN KMKG 081225Z 20019G25KT 10SM CLR 11/07 A2964 890 77 600 210/19G25 RMK AO2 PK WND 21026/1214
14840KMKG MKG20021108073011611/08/02 07:30:31  5-MIN KMKG 081230Z 20020G25KT 10SM CLR 11/07 A2964 890 77 600 200/20G25 RMK AO2 PK WND 21026/1214
14840KMKG MKG20021108073511611/08/02 07:35:31  5-MIN KMKG 081235Z 21020G25KT 10SM CLR 11/06 A2964 890 74 600 210/20G25 RMK AO2 PK WND 21026/1214
14840KMKG MKG20021108074011611/08/02 07:40:31  5-MIN KMKG 081240Z 20018G25KT 10SM CLR 11/07 A2964 890 77 600 210/18G25 RMK AO2 PK WND 21026/1214
14840KMKG MKG20021108074511611/08/02 07:45:31  5-MIN KMKG 081245Z 21020G26KT 10SM CLR 11/07 A2964 890 77 600 210/20G26 RMK AO2 PK WND 21026/1245
14840KMKG MKG20021108075013311/08/02 07:50:31  5-MIN KMKG 081250Z 21020G26KT 10SM CLR 11/07 A2965 880 77 600 210/20G26 RMK AO2 PK WND 21026/1249 SLP040 T01060067
14840KMKG MKG20021108075513311/08/02 07:55:31  5-MIN KMKG 081255Z 21019G26KT 10SM CLR 11/06 A2965 880 74 600 210/19G26 RMK AO2 PK WND 21026/1251 SLP041 T01060061
14840KMKG MKG20021108080009811/08/02 08:00:31  5-MIN KMKG 081300Z 20019G26KT 10SM CLR 11/07 A2965 880 77 600 210/19G26 RMK AO2
14840KMKG MKG20021108080509811/08/02 08:05:31  5-MIN KMKG 081305Z 20020G24KT 10SM CLR 11/07 A2965 880 77 600 210/20G24 RMK AO2
14840KMKG MKG20021108081011611/08/02 08:10:31  5-MIN KMKG 081310Z 20018G26KT 10SM CLR 11/07 A2966 880 74 700 210/18G26 RMK AO2 PK WND 21026/1307
14840KMKG MKG20021108081511611/08/02 08:15:31  5-MIN KMKG 081315Z 20018G26KT 10SM CLR 11/07 A2966 870 77 600 200/18G26 RMK AO2 PK WND 19026/1315
14840KMKG MKG20021108082011611/08/02 08:20:31  5-MIN KMKG 081320Z 21020G26KT 10SM CLR 11/07 A2966 870 74 700 210/20G26 RMK AO2 PK WND 22026/1319
14840KMKG MKG20021108082511611/08/02 08:25:31  5-MIN KMKG 081325Z 21021G26KT 10SM CLR 11/07 A2966 870 74 600 210/21G26 RMK AO2 PK WND 21026/1324
14840KMKG MKG20021108083011611/08/02 08:30:31  5-MIN KMKG 081330Z 20019G26KT 10SM CLR 11/07 A2967 870 74 600 210/19G26 RMK AO2 PK WND 21026/1324
14840KMKG MKG20021108083511611/08/02 08:35:31  5-MIN KMKG 081335Z 21019G24KT 10SM CLR 11/07 A2966 870 74 700 210/19G24 RMK AO2 PK WND 21026/1324
14840KMKG MKG20021108084011611/08/02 08:40:31  5-MIN KMKG 081340Z 20019G24KT 10SM CLR 11/07 A2966 870 74 600 200/19G24 RMK AO2 PK WND 21026/1324
14840KMKG MKG20021108084511611/08/02 08:45:31  5-MIN KMKG 081345Z 20020G26KT 10SM CLR 11/07 A2966 870 74 700 200/20G26 RMK AO2 PK WND 19026/1345
14840KMKG MKG20021108085013311/08/02 08:50:31  5-MIN KMKG 081350Z 20017G26KT 10SM CLR 11/07 A2967 870 74 600 200/17G26 RMK AO2 PK WND 19026/1345 SLP047 T01110067
14840KMKG MKG20021108085513311/08/02 08:55:31  5-MIN KMKG 081355Z 20018G23KT 10SM CLR 11/07 A2967 860 74 600 210/18G23 RMK AO2 PK WND 19026/1345 SLP048 T01110067
14840KMKG MKG20021108090009211/08/02 09:00:31  5-MIN KMKG 081400Z 20019KT 10SM CLR 12/07 A2967 860 71 700 200/19 RMK AO2
14840KMKG MKG20021108090509211/08/02 09:05:31  5-MIN KMKG 081405Z 21019KT 10SM CLR 12/07 A2967 860 71 700 210/19 RMK AO2
14840KMKG MKG20021108091009211/08/02 09:10:31  5-MIN KMKG 081410Z 21017KT 10SM CLR 12/07 A2967 860 71 700 210/17 RMK AO2
14840KMKG MKG20021108091509811/08/02 09:15:31  5-MIN KMKG 081415Z 21019G25KT 10SM CLR 12/07 A2967 860 71 700 210/19G25 RMK AO2
14840KMKG MKG20021108092011611/08/02 09:20:31  5-MIN KMKG 081420Z 21019G27KT 10SM CLR 12/07 A2967 870 71 700 210/19G27 RMK AO2 PK WND 21027/1417
14840KMKG MKG20021108092511611/08/02 09:25:31  5-MIN KMKG 081425Z 21022G29KT 10SM CLR 12/07 A2967 860 71 700 210/22G29 RMK AO2 PK WND 20029/1422
14840KMKG MKG20021108093011611/08/02 09:30:31  5-MIN KMKG 081430Z 21019G29KT 10SM CLR 12/07 A2967 860 71 700 210/19G29 RMK AO2 PK WND 20029/1422
14840KMKG MKG20021108093511611/08/02 09:35:31  5-MIN KMKG 081435Z 21020G26KT 10SM CLR 12/07 A2967 860 71 700 210/20G26 RMK AO2 PK WND 20029/1422
14840KMKG MKG20021108094011611/08/02 09:40:31  5-MIN KMKG 081440Z 21019G26KT 10SM CLR 12/07 A2967 860 71 700 210/19G26 RMK AO2 PK WND 20029/1422
14840KMKG MKG20021108094511611/08/02 09:45:31  5-MIN KMKG 081445Z 20020G25KT 10SM CLR 12/07 A2967 860 71 700 210/20G25 RMK AO2 PK WND 20029/1422
14840KMKG MKG20021108095013911/08/02 09:50:31  5-MIN KMKG 081450Z 21019G26KT 10SM CLR 12/07 A2967 860 68 800 210/19G26 RMK AO2 PK WND 20029/1422 SLP050 T01220067 56006
14840KMKG MKG20021108095513911/08/02 09:55:31  5-MIN KMKG 081455Z 20019G26KT 10SM CLR 12/07 A2967 860 68 800 210/19G26 RMK AO2 PK WND 20029/1422 SLP050 T01220067 51013
14840KMKG MKG20021108100009811/08/02 10:00:31  5-MIN KMKG 081500Z 20018G24KT 10SM CLR 12/07 A2967 860 68 800 200/18G24 RMK AO2
14840KMKG MKG20021108100511611/08/02 10:05:31  5-MIN KMKG 081505Z 20020G26KT 10SM CLR 12/07 A2968 860 68 800 210/20G26 RMK AO2 PK WND 22026/1501
14840KMKG MKG20021108101011611/08/02 10:10:31  5-MIN KMKG 081510Z 21019G26KT 10SM CLR 12/07 A2968 860 68 800 210/19G26 RMK AO2 PK WND 22026/1501
14840KMKG MKG20021108101511611/08/02 10:15:31  5-MIN KMKG 081515Z 21019G25KT 10SM CLR 12/07 A2967 860 68 800 210/19G25 RMK AO2 PK WND 22026/1501
14840KMKG MKG20021108102011611/08/02 10:20:31  5-MIN KMKG 081520Z 20020G26KT 10SM CLR 12/07 A2968 860 68 800 210/20G26 RMK AO2 PK WND 20026/1518
14840KMKG MKG20021108102511611/08/02 10:25:31  5-MIN KMKG 081525Z 20019G26KT 10SM CLR 12/07 A2968 860 68 800 200/19G26 RMK AO2 PK WND 19026/1523
14840KMKG MKG20021108103011611/08/02 10:30:31  5-MIN KMKG 081530Z 20019G26KT 10SM CLR 12/07 A2968 850 68 800 210/19G26 RMK AO2 PK WND 19026/1523
14840KMKG MKG20021108103511611/08/02 10:35:31  5-MIN KMKG 081535Z 20019G27KT 10SM CLR 12/07 A2968 850 68 800 210/19G27 RMK AO2 PK WND 20027/1531
14840KMKG MKG20021108104011611/08/02 10:40:31  5-MIN KMKG 081540Z 20021G27KT 10SM CLR 12/07 A2968 850 68 800 200/21G27 RMK AO2 PK WND 20027/1538
14840KMKG MKG20021108104511611/08/02 10:45:31  5-MIN KMKG 081545Z 20022G28KT 10SM CLR 12/07 A2968 850 71 700 210/22G28 RMK AO2 PK WND 20028/1543
14840KMKG MKG20021108105013311/08/02 10:50:31  5-MIN KMKG 081550Z 20022G28KT 10SM CLR 12/07 A2969 850 71 700 200/22G28 RMK AO2 PK WND 20028/1543 SLP053 T01170067
14840KMKG MKG20021108105513311/08/02 10:55:31  5-MIN KMKG 081555Z 20020G27KT 10SM CLR 11/07 A2969 850 74 600 200/20G27 RMK AO2 PK WND 20028/1543 SLP054 T01110067
14840KMKG MKG20021108110011611/08/02 11:00:31  5-MIN KMKG 081600Z 21018G28KT 10SM CLR 12/07 A2969 850 71 700 210/18G28 RMK AO2 PK WND 22028/1556
14840KMKG MKG20021108110511611/08/02 11:05:31  5-MIN KMKG 081605Z 20019G28KT 10SM CLR 12/07 A2969 850 68 800 210/19G28 RMK AO2 PK WND 22028/1556
14840KMKG MKG20021108111011611/08/02 11:10:31  5-MIN KMKG 081610Z 20023G27KT 10SM CLR 12/07 A2969 840 68 800 200/23G27 RMK AO2 PK WND 22028/1556
14840KMKG MKG20021108111511611/08/02 11:15:31  5-MIN KMKG 081615Z 20022G29KT 10SM CLR 12/07 A2969 840 68 800 210/22G29 RMK AO2 PK WND 21029/1614
14840KMKG MKG20021108112011611/08/02 11:20:31  5-MIN KMKG 081620Z 21021G29KT 10SM CLR 12/06 A2969 840 66 800 210/21G29 RMK AO2 PK WND 21029/1614
14840KMKG MKG20021108112511611/08/02 11:25:31  5-MIN KMKG 081625Z 20019G31KT 10SM CLR 12/06 A2969 850 66 800 210/19G31 RMK AO2 PK WND 21031/1621
14840KMKG MKG20021108113011611/08/02 11:30:31  5-MIN KMKG 081630Z 20019G31KT 10SM CLR 13/07 A2969 840 66 800 210/19G31 RMK AO2 PK WND 21031/1621
14840KMKG MKG20021108113511611/08/02 11:35:31  5-MIN KMKG 081635Z 20018G25KT 10SM CLR 13/07 A2969 850 66 800 200/18G25 RMK AO2 PK WND 21031/1621
14840KMKG MKG20021108114011611/08/02 11:40:31  5-MIN KMKG 081640Z 20021G29KT 10SM CLR 13/06 A2969 850 63 800 200/21G29 RMK AO2 PK WND 21031/1621
14840KMKG MKG20021108114511611/08/02 11:45:31  5-MIN KMKG 081645Z 19024G29KT 10SM CLR 12/06 A2968 850 66 800 200/24G29 RMK AO2 PK WND 21031/1621
14840KMKG MKG20021108115013311/08/02 11:50:31  5-MIN KMKG 081650Z 20020G29KT 10SM CLR 13/06 A2968 850 63 800 210/20G29 RMK AO2 PK WND 21031/1621 SLP053 T01280061
14840KMKG MKG20021108115513311/08/02 11:55:31  5-MIN KMKG 081655Z 20019G25KT 10SM CLR 13/07 A2968 850 66 800 200/19G25 RMK AO2 PK WND 21031/1621 SLP052 T01280067
14840KMKG MKG20021108120011611/08/02 12:00:31  5-MIN KMKG 081700Z 20021G27KT 10SM CLR 13/06 A2968 850 63 800 200/21G27 RMK AO2 PK WND 21027/1700
14840KMKG MKG20021108120511611/08/02 12:05:31  5-MIN KMKG 081705Z 20023G30KT 10SM CLR 13/06 A2968 850 63 800 200/23G30 RMK AO2 PK WND 20030/1702
14840KMKG MKG20021108121011611/08/02 12:10:31  5-MIN KMKG 081710Z 20023G30KT 10SM CLR 13/06 A2968 860 63 800 200/23G30 RMK AO2 PK WND 20030/1702
14840KMKG MKG20021108121511611/08/02 12:15:31  5-MIN KMKG 081715Z 20018G28KT 10SM CLR 13/07 A2967 860 66 800 210/18G28 RMK AO2 PK WND 20030/1702
14840KMKG MKG20021108122011611/08/02 12:20:31  5-MIN KMKG 081720Z 20019G26KT 10SM CLR 13/07 A2967 860 66 800 210/19G26 RMK AO2 PK WND 20030/1702
14840KMKG MKG20021108122511611/08/02 12:25:31  5-MIN KMKG 081725Z 20018G27KT 10SM CLR 13/07 A2967 860 66 800 200/18G27 RMK AO2 PK WND 20030/1702
14840KMKG MKG20021108123011611/08/02 12:30:31  5-MIN KMKG 081730Z 20020G28KT 10SM CLR 13/07 A2967 870 66 800 200/20G28 RMK AO2 PK WND 20030/1702
14840KMKG MKG20021108123511611/08/02 12:35:31  5-MIN KMKG 081735Z 19023G28KT 10SM CLR 13/07 A2967 860 66 800 200/23G28 RMK AO2 PK WND 20030/1702
14840KMKG MKG20021108124011611/08/02 12:40:31  5-MIN KMKG 081740Z 19019G28KT 10SM CLR 13/07 A2967 860 66 800 200/19G28 RMK AO2 PK WND 20030/1702
14840KMKG MKG20021108124511611/08/02 12:45:31  5-MIN KMKG 081745Z 19022G28KT 10SM CLR 13/07 A2967 860 66 800 200/22G28 RMK AO2 PK WND 20030/1702
14840KMKG MKG20021108125015111/08/02 12:50:31  5-MIN KMKG 081750Z 19023G29KT 10SM CLR 13/07 A2967 870 64 900 200/23G29 RMK AO2 PK WND 20030/1702 SLP047 T01330067 10133 20106 51013
14840KMKG MKG20021108125515111/08/02 12:55:31  5-MIN KMKG 081755Z 19021G29KT 10SM CLR 13/07 A2967 860 66 800 200/21G29 RMK AO2 PK WND 20030/1702 SLP048 T01280067 10133 20106 58002
14840KMKG MKG20021108130011611/08/02 13:00:31  5-MIN KMKG 081800Z 19022G27KT 10SM CLR 13/07 A2967 870 66 800 200/22G27 RMK AO2 PK WND 19027/1759
14840KMKG MKG20021108130511611/08/02 13:05:31  5-MIN KMKG 081805Z 19021G28KT 10SM CLR 13/07 A2967 860 66 800 200/21G28 RMK AO2 PK WND 18028/1801
14840KMKG MKG20021108131011611/08/02 13:10:31  5-MIN KMKG 081810Z 19022G28KT 10SM CLR 13/07 A2967 870 66 800 200/22G28 RMK AO2 PK WND 18028/1801
14840KMKG MKG20021108131511611/08/02 13:15:31  5-MIN KMKG 081815Z 19020G27KT 10SM CLR 13/07 A2966 870 66 800 200/20G27 RMK AO2 PK WND 18028/1801
14840KMKG MKG20021108132011611/08/02 13:20:31  5-MIN KMKG 081820Z 19020G28KT 10SM CLR 13/07 A2966 870 66 900 200/20G28 RMK AO2 PK WND 21028/1819
14840KMKG MKG20021108132511611/08/02 13:25:31  5-MIN KMKG 081825Z 20020G28KT 10SM CLR 13/07 A2966 870 66 900 200/20G28 RMK AO2 PK WND 21028/1825
14840KMKG MKG20021108133011611/08/02 13:30:31  5-MIN KMKG 081830Z 19018G28KT 10SM CLR 12/07 A2966 870 68 800 190/18G28 RMK AO2 PK WND 21028/1825
14840KMKG MKG20021108133511611/08/02 13:35:31  5-MIN KMKG 081835Z 19020G27KT 10SM CLR 13/07 A2966 870 66 900 200/20G27 RMK AO2 PK WND 21028/1825
14840KMKG MKG20021108134011611/08/02 13:40:31  5-MIN KMKG 081840Z 20019G26KT 10SM CLR 13/07 A2966 870 66 900 200/19G26 RMK AO2 PK WND 21028/1825
14840KMKG MKG20021108134511611/08/02 13:45:31  5-MIN KMKG 081845Z 19019G26KT 10SM CLR 13/07 A2966 880 64 900 200/19G26 RMK AO2 PK WND 21028/1825
14840KMKG MKG20021108135013311/08/02 13:50:31  5-MIN KMKG 081850Z 20022G29KT 10SM CLR 13/07 A2966 870 66 900 200/22G29 RMK AO2 PK WND 20029/1850 SLP044 T01280067
14840KMKG MKG20021108135513311/08/02 13:55:31  5-MIN KMKG 081855Z 19020G29KT 10SM CLR 13/07 A2966 870 66 900 200/20G29 RMK AO2 PK WND 20029/1850 SLP044 T01280067
14840KMKG MKG20021108140011611/08/02 14:00:31  5-MIN KMKG 081900Z 20018G28KT 10SM CLR 13/07 A2966 880 66 900 200/18G28 RMK AO2 PK WND 19028/1858
14840KMKG MKG20021108140511611/08/02 14:05:31  5-MIN KMKG 081905Z 19017G28KT 10SM CLR 13/07 A2966 870 64 900 200/17G28 RMK AO2 PK WND 19028/1858
14840KMKG MKG20021108141011611/08/02 14:10:31  5-MIN KMKG 081910Z 20018G25KT 10SM CLR 13/07 A2966 880 66 900 200/18G25 RMK AO2 PK WND 19028/1858
14840KMKG MKG20021108141511611/08/02 14:15:31  5-MIN KMKG 081915Z 19017G25KT 10SM CLR 13/07 A2965 880 66 900 200/17G25 RMK AO2 PK WND 19028/1858
14840KMKG MKG20021108142011611/08/02 14:20:31  5-MIN KMKG 081920Z 20017G25KT 10SM CLR 13/07 A2965 880 66 900 200/17G25 RMK AO2 PK WND 19028/1858
14840KMKG MKG20021108142511611/08/02 14:25:31  5-MIN KMKG 081925Z 19019G25KT 10SM CLR 13/07 A2965 880 66 900 200/19G25 RMK AO2 PK WND 19028/1858
14840KMKG MKG20021108143011611/08/02 14:30:31  5-MIN KMKG 081930Z 19018G27KT 10SM CLR 13/07 A2965 880 64 900 200/18G27 RMK AO2 PK WND 19028/1858
14840KMKG MKG20021108143511611/08/02 14:35:31  5-MIN KMKG 081935Z 20017G27KT 10SM CLR 13/07 A2965 880 64 900 200/17G27 RMK AO2 PK WND 19028/1858
14840KMKG MKG20021108144011611/08/02 14:40:31  5-MIN KMKG 081940Z 19017G24KT 10SM CLR 13/07 A2965 880 64 900 200/17G24 RMK AO2 PK WND 19028/1858
14840KMKG MKG20021108144511611/08/02 14:45:31  5-MIN KMKG 081945Z 20018G24KT 10SM CLR 13/07 A2965 880 64 900 200/18G24 RMK AO2 PK WND 19028/1858
14840KMKG MKG20021108145013311/08/02 14:50:31  5-MIN KMKG 081950Z 19014G23KT 10SM CLR 13/07 A2965 880 64 900 190/14G23 RMK AO2 PK WND 19028/1858 SLP041 T01330067
14840KMKG MKG20021108145513311/08/02 14:55:31  5-MIN KMKG 081955Z 19018G23KT 10SM CLR 13/07 A2965 880 64 900 190/18G23 RMK AO2 PK WND 19028/1858 SLP041 T01330067
14840KMKG MKG20021108150009811/08/02 15:00:31  5-MIN KMKG 082000Z 19017G23KT 10SM CLR 13/07 A2965 880 64 900 200/17G23 RMK AO2
14840KMKG MKG20021108150509811/08/02 15:05:31  5-MIN KMKG 082005Z 19017G22KT 10SM CLR 13/07 A2965 880 66 900 200/17G22 RMK AO2
14840KMKG MKG20021108151009811/08/02 15:10:31  5-MIN KMKG 082010Z 18018G23KT 10SM CLR 13/07 A2965 880 66 900 190/18G23 RMK AO2
14840KMKG MKG20021108151509811/08/02 15:15:31  5-MIN KMKG 082015Z 19019G23KT 10SM CLR 13/07 A2965 880 69 900 200/19G23 RMK AO2
14840KMKG MKG20021108152009811/08/02 15:20:31  5-MIN KMKG 082020Z 19017G23KT 10SM CLR 13/07 A2965 880 69 900 190/17G23 RMK AO2
14840KMKG MKG20021108152509811/08/02 15:25:31  5-MIN KMKG 082025Z 19017G25KT 10SM CLR 13/07 A2965 880 66 900 190/17G25 RMK AO2
14840KMKG MKG20021108153011611/08/02 15:30:31  5-MIN KMKG 082030Z 20019G26KT 10SM CLR 13/07 A2965 880 66 900 200/19G26 RMK AO2 PK WND 19026/2029
14840KMKG MKG20021108153511611/08/02 15:35:31  5-MIN KMKG 082035Z 19015G26KT 10SM CLR 13/07 A2965 880 66 900 190/15G26 RMK AO2 PK WND 19026/2029
14840KMKG MKG20021108154011611/08/02 15:40:31  5-MIN KMKG 082040Z 20014G23KT 10SM CLR 13/07 A2965 880 66 900 200/14G23 RMK AO2 PK WND 19026/2029
14840KMKG MKG20021108154511611/08/02 15:45:31  5-MIN KMKG 082045Z 19016G21KT 10SM CLR 13/07 A2965 880 66 900 200/16G21 RMK AO2 PK WND 19026/2029
14840KMKG MKG20021108155013311/08/02 15:50:31  5-MIN KMKG 082050Z 19015KT 10SM CLR 13/07 A2965 880 66 900 200/15 RMK AO2 PK WND 19026/2029 SLP041 T01330072 58002
14840KMKG MKG20021108155513911/08/02 15:55:31  5-MIN KMKG 082055Z 19018G23KT 10SM CLR 13/07 A2965 890 69 900 190/18G23 RMK AO2 PK WND 19026/2029 SLP040 T01280072 56007
14840KMKG MKG20021108160009811/08/02 16:00:31  5-MIN KMKG 082100Z 19016G23KT 10SM CLR 13/07 A2964 890 69 900 190/16G23 RMK AO2
14840KMKG MKG20021108160509211/08/02 16:05:31  5-MIN KMKG 082105Z 19014KT 10SM CLR 13/07 A2964 890 69 900 200/14 RMK AO2
14840KMKG MKG20021108161009811/08/02 16:10:31  5-MIN KMKG 082110Z 19015G21KT 10SM CLR 13/07 A2964 890 69 900 200/15G21 RMK AO2
14840KMKG MKG20021108161509811/08/02 16:15:31  5-MIN KMKG 082115Z 19015G21KT 10SM CLR 13/07 A2965 890 66 900 190/15G21 RMK AO2
14840KMKG MKG20021108162009811/08/02 16:20:31  5-MIN KMKG 082120Z 19015G21KT 10SM CLR 13/07 A2965 880 66 900 200/15G21 RMK AO2
14840KMKG MKG20021108162509811/08/02 16:25:31  5-MIN KMKG 082125Z 19016G21KT 10SM CLR 13/07 A2965 880 66 900 200/16G21 RMK AO2
14840KMKG MKG20021108163009811/08/02 16:30:31  5-MIN KMKG 082130Z 19012G19KT 10SM CLR 13/07 A2965 880 66 900 200/12G19 RMK AO2
14840KMKG MKG20021108163509211/08/02 16:35:31  5-MIN KMKG 082135Z 19013KT 10SM CLR 13/07 A2965 890 66 900 200/13 RMK AO2
14840KMKG MKG20021108164009811/08/02 16:40:31  5-MIN KMKG 082140Z 19013G19KT 10SM CLR 13/07 A2965 880 66 900 200/13G19 RMK AO2
14840KMKG MKG20021108164509811/08/02 16:45:31  5-MIN KMKG 082145Z 19013G19KT 10SM CLR 13/07 A2965 880 66 900 190/13G19 RMK AO2
14840KMKG MKG20021108165011511/08/02 16:50:31  5-MIN KMKG 082150Z 19013G19KT 10SM CLR 13/07 A2965 890 66 900 200/13G19 RMK AO2 SLP040 T01280067
14840KMKG MKG20021108165511511/08/02 16:55:31  5-MIN KMKG 082155Z 19013G19KT 10SM CLR 13/07 A2965 890 66 900 190/13G19 RMK AO2 SLP040 T01280067
14840KMKG MKG20021108170009811/08/02 17:00:31  5-MIN KMKG 082200Z 19011G19KT 10SM CLR 13/07 A2965 890 66 900 200/11G19 RMK AO2
14840KMKG MKG20021108170509811/08/02 17:05:31  5-MIN KMKG 082205Z 19012G20KT 10SM CLR 13/07 A2965 890 66 900 200/12G20 RMK AO2
14840KMKG MKG20021108171009811/08/02 17:10:31  5-MIN KMKG 082210Z 19012G20KT 10SM CLR 13/07 A2965 880 66 900 190/12G20 RMK AO2
14840KMKG MKG20021108171509211/08/02 17:15:31  5-MIN KMKG 082215Z 20011KT 10SM CLR 13/07 A2965 880 66 900 200/11 RMK AO2
14840KMKG MKG20021108172009211/08/02 17:20:31  5-MIN KMKG 082220Z 19011KT 10SM CLR 13/07 A2965 890 66 900 200/11 RMK AO2
14840KMKG MKG20021108172509211/08/02 17:25:31  5-MIN KMKG 082225Z 19011KT 10SM CLR 13/07 A2965 890 66 900 200/11 RMK AO2
14840KMKG MKG20021108173009211/08/02 17:30:31  5-MIN KMKG 082230Z 19011KT 10SM CLR 13/07 A2965 880 66 900 190/11 RMK AO2
14840KMKG MKG20021108173509211/08/02 17:35:31  5-MIN KMKG 082235Z 19008KT 10SM CLR 12/07 A2965 880 68 800 200/08 RMK AO2
14840KMKG MKG20021108174009211/08/02 17:40:31  5-MIN KMKG 082240Z 20008KT 10SM CLR 12/07 A2965 880 71 800 200/08 RMK AO2
14840KMKG MKG20021108174509211/08/02 17:45:31  5-MIN KMKG 082245Z 20007KT 10SM CLR 12/07 A2965 880 74 700 210/07 RMK AO2
14840KMKG MKG20021108175010911/08/02 17:50:31  5-MIN KMKG 082250Z 20007KT 10SM CLR 12/07 A2965 880 74 700 200/07 RMK AO2 SLP041 T01170072
14840KMKG MKG20021108175510911/08/02 17:55:31  5-MIN KMKG 082255Z 19007KT 10SM CLR 12/07 A2965 880 74 700 200/07 RMK AO2 SLP041 T01170072
14840KMKG MKG20021108180009211/08/02 18:00:31  5-MIN KMKG 082300Z 18005KT 10SM CLR 12/07 A2965 890 74 700 190/05 RMK AO2
14840KMKG MKG20021108180509211/08/02 18:05:31  5-MIN KMKG 082305Z 17006KT 10SM CLR 12/07 A2965 880 74 700 170/06 RMK AO2
14840KMKG MKG20021108181009211/08/02 18:10:31  5-MIN KMKG 082310Z 17006KT 10SM CLR 11/07 A2965 880 77 700 170/06 RMK AO2
14840KMKG MKG20021108181509211/08/02 18:15:31  5-MIN KMKG 082315Z 17006KT 10SM CLR 11/07 A2965 880 77 700 170/06 RMK AO2
14840KMKG MKG20021108182009211/08/02 18:20:31  5-MIN KMKG 082320Z 17005KT 10SM CLR 11/07 A2965 880 77 700 180/05 RMK AO2
14840KMKG MKG20021108182509211/08/02 18:25:31  5-MIN KMKG 082325Z 17005KT 10SM CLR 11/07 A2965 880 80 600 170/05 RMK AO2
14840KMKG MKG20021108183009211/08/02 18:30:31  5-MIN KMKG 082330Z 17005KT 10SM CLR 11/07 A2965 880 77 700 170/05 RMK AO2
14840KMKG MKG20021108183509211/08/02 18:35:31  5-MIN KMKG 082335Z 16005KT 10SM CLR 11/07 A2965 880 80 600 160/05 RMK AO2
14840KMKG MKG20021108184009211/08/02 18:40:31  5-MIN KMKG 082340Z 15005KT 10SM CLR 11/07 A2965 880 80 600 150/05 RMK AO2
14840KMKG MKG20021108184509211/08/02 18:45:31  5-MIN KMKG 082345Z 14004KT 10SM CLR 11/07 A2965 880 80 600 150/04 RMK AO2
14840KMKG MKG20021108185012711/08/02 18:50:31  5-MIN KMKG 082350Z 15006KT 10SM CLR 10/07 A2965 880 83 500 150/06 RMK AO2 SLP043 T01000072 10133 20100 56007
14840KMKG MKG20021108185512711/08/02 18:55:31  5-MIN KMKG 082355Z 15006KT 10SM CLR 10/07 A2965 880 83 500 150/06 RMK AO2 SLP043 T01000072 10133 20100 53002
14840KMKG MKG20021108190009211/08/02 19:00:31  5-MIN KMKG 090000Z 16006KT 10SM CLR 11/07 A2965 880 80 600 160/06 RMK AO2
14840KMKG MKG20021108190509211/08/02 19:05:31  5-MIN KMKG 090005Z 16006KT 10SM CLR 11/08 A2965 880 80 700 170/06 RMK AO2
14840KMKG MKG20021108191009211/08/02 19:10:31  5-MIN KMKG 090010Z 16007KT 10SM CLR 11/08 A2966 880 80 700 160/07 RMK AO2
14840KMKG MKG20021108191509211/08/02 19:15:31  5-MIN KMKG 090015Z 16008KT 10SM CLR 11/08 A2966 880 80 700 160/08 RMK AO2
14840KMKG MKG20021108192009211/08/02 19:20:31  5-MIN KMKG 090020Z 16007KT 10SM CLR 11/08 A2966 880 80 700 160/07 RMK AO2
14840KMKG MKG20021108192509211/08/02 19:25:31  5-MIN KMKG 090025Z 16007KT 10SM CLR 11/08 A2966 880 80 700 170/07 RMK AO2
14840KMKG MKG20021108193009211/08/02 19:30:31  5-MIN KMKG 090030Z 17007KT 10SM CLR 11/07 A2965 880 80 600 170/07 RMK AO2
14840KMKG MKG20021108193509211/08/02 19:35:31  5-MIN KMKG 090035Z 17007KT 10SM CLR 11/08 A2965 880 80 700 170/07 RMK AO2
14840KMKG MKG20021108194009211/08/02 19:40:31  5-MIN KMKG 090040Z 16007KT 10SM CLR 11/08 A2965 880 80 700 170/07 RMK AO2
14840KMKG MKG20021108194509211/08/02 19:45:31  5-MIN KMKG 090045Z 16008KT 10SM CLR 11/08 A2965 880 80 700 170/08 RMK AO2
14840KMKG MKG20021108195010911/08/02 19:50:31  5-MIN KMKG 090050Z 16007KT 10SM CLR 11/08 A2965 880 80 700 160/07 RMK AO2 SLP041 T01110078
14840KMKG MKG20021108195510911/08/02 19:55:31  5-MIN KMKG 090055Z 16007KT 10SM CLR 11/08 A2965 880 80 700 160/07 RMK AO2 SLP040 T01110078
14840KMKG MKG20021108200009211/08/02 20:00:31  5-MIN KMKG 090100Z 16007KT 10SM CLR 11/08 A2965 880 80 700 170/07 RMK AO2
14840KMKG MKG20021108200509211/08/02 20:05:31  5-MIN KMKG 090105Z 17006KT 10SM CLR 11/08 A2965 880 80 700 170/06 RMK AO2
14840KMKG MKG20021108201009211/08/02 20:10:31  5-MIN KMKG 090110Z 18007KT 10SM CLR 11/08 A2965 880 80 700 180/07 RMK AO2
14840KMKG MKG20021108201509211/08/02 20:15:31  5-MIN KMKG 090115Z 17007KT 10SM CLR 11/07 A2965 880 77 700 180/07 RMK AO2
14840KMKG MKG20021108202009211/08/02 20:20:31  5-MIN KMKG 090120Z 18007KT 10SM CLR 12/07 A2965 880 74 700 180/07 RMK AO2
14840KMKG MKG20021108202509211/08/02 20:25:31  5-MIN KMKG 090125Z 18008KT 10SM CLR 12/08 A2965 880 77 700 180/08 RMK AO2
14840KMKG MKG20021108203009211/08/02 20:30:31  5-MIN KMKG 090130Z 18008KT 10SM CLR 12/08 A2965 880 77 700 180/08 RMK AO2
14840KMKG MKG20021108203509211/08/02 20:35:31  5-MIN KMKG 090135Z 18008KT 10SM CLR 12/07 A2965 880 71 800 180/08 RMK AO2
14840KMKG MKG20021108204009211/08/02 20:40:31  5-MIN KMKG 090140Z 18009KT 10SM CLR 12/07 A2965 880 71 800 190/09 RMK AO2
14840KMKG MKG20021108204509211/08/02 20:45:31  5-MIN KMKG 090145Z 18009KT 10SM CLR 12/07 A2965 880 71 800 190/09 RMK AO2
14840KMKG MKG20021108205010911/08/02 20:50:31  5-MIN KMKG 090150Z 18010KT 10SM CLR 12/07 A2965 880 71 800 190/10 RMK AO2 SLP042 T01220072
14840KMKG MKG20021108205510911/08/02 20:55:31  5-MIN KMKG 090155Z 19010KT 10SM CLR 13/07 A2965 880 66 900 190/10 RMK AO2 SLP042 T01280067
14840KMKG MKG20021108210009211/08/02 21:00:31  5-MIN KMKG 090200Z 19011KT 10SM CLR 13/07 A2965 880 66 900 190/11 RMK AO2
14840KMKG MKG20021108210509211/08/02 21:05:31  5-MIN KMKG 090205Z 19010KT 10SM CLR 13/07 A2965 880 66 900 190/10 RMK AO2
14840KMKG MKG20021108211009211/08/02 21:10:31  5-MIN KMKG 090210Z 19011KT 10SM CLR 13/07 A2965 880 66 900 190/11 RMK AO2
14840KMKG MKG20021108211509211/08/02 21:15:31  5-MIN KMKG 090215Z 19012KT 10SM CLR 13/07 A2965 880 66 900 190/12 RMK AO2
14840KMKG MKG20021108212009211/08/02 21:20:31  5-MIN KMKG 090220Z 19011KT 10SM CLR 13/07 A2966 880 66 900 200/11 RMK AO2
14840KMKG MKG20021108212509211/08/02 21:25:31  5-MIN KMKG 090225Z 20013KT 10SM CLR 13/07 A2966 880 66 900 200/13 RMK AO2
14840KMKG MKG20021108213009811/08/02 21:30:31  5-MIN KMKG 090230Z 19012G18KT 10SM CLR 13/07 A2966 870 66 900 190/12G18 RMK AO2
14840KMKG MKG20021108213509211/08/02 21:35:31  5-MIN KMKG 090235Z 19013KT 10SM CLR 13/07 A2966 870 66 900 200/13 RMK AO2
14840KMKG MKG20021108214009811/08/02 21:40:31  5-MIN KMKG 090240Z 19015G21KT 10SM CLR 13/07 A2966 870 64 900 200/15G21 RMK AO2
14840KMKG MKG20021108214509811/08/02 21:45:31  5-MIN KMKG 090245Z 19013G21KT 10SM CLR 13/07 A2966 870 64 900 200/13G21 RMK AO2
14840KMKG MKG20021108215011511/08/02 21:50:31  5-MIN KMKG 090250Z 20014KT 10SM CLR 13/07 A2966 870 64 900 200/14 RMK AO2 SLP045 T01330067 53002
14840KMKG MKG20021108215511511/08/02 21:55:31  5-MIN KMKG 090255Z 19014KT 10SM CLR 13/07 A2966 870 64 900 200/14 RMK AO2 SLP045 T01330067 53003
14840KMKG MKG20021108220009211/08/02 22:00:31  5-MIN KMKG 090300Z 19013KT 10SM CLR 13/07 A2966 870 64 900 190/13 RMK AO2
14840KMKG MKG20021108220509211/08/02 22:05:31  5-MIN KMKG 090305Z 18013KT 10SM CLR 13/07 A2966 870 64 900 190/13 RMK AO2
14840KMKG MKG20021108221009211/08/02 22:10:31  5-MIN KMKG 090310Z 19011KT 10SM CLR 13/07 A2966 870 66 800 190/11 RMK AO2
14840KMKG MKG20021108221509211/08/02 22:15:31  5-MIN KMKG 090315Z 19011KT 10SM CLR 13/07 A2966 870 66 800 190/11 RMK AO2
14840KMKG MKG20021108222009211/08/02 22:20:31  5-MIN KMKG 090320Z 19012KT 10SM CLR 13/07 A2966 870 66 900 190/12 RMK AO2
14840KMKG MKG20021108222509211/08/02 22:25:31  5-MIN KMKG 090325Z 18011KT 10SM CLR 13/07 A2966 870 66 900 190/11 RMK AO2
14840KMKG MKG20021108223009211/08/02 22:30:31  5-MIN KMKG 090330Z 18011KT 10SM CLR 13/06 A2966 870 63 900 180/11 RMK AO2
14840KMKG MKG20021108223509211/08/02 22:35:31  5-MIN KMKG 090335Z 18010KT 10SM CLR 13/06 A2966 870 63 900 190/10 RMK AO2
14840KMKG MKG20021108224009211/08/02 22:40:31  5-MIN KMKG 090340Z 17011KT 10SM CLR 13/06 A2966 870 63 900 180/11 RMK AO2
14840KMKG MKG20021108224509211/08/02 22:45:31  5-MIN KMKG 090345Z 17009KT 10SM CLR 13/06 A2966 870 61 900 180/09 RMK AO2
14840KMKG MKG20021108225010911/08/02 22:50:31  5-MIN KMKG 090350Z 17010KT 10SM CLR 13/06 A2966 880 61 900 180/10 RMK AO2 SLP044 T01280056
14840KMKG MKG20021108225510911/08/02 22:55:31  5-MIN KMKG 090355Z 17010KT 10SM CLR 13/06 A2966 880 61 900 180/10 RMK AO2 SLP043 T01280056
14840KMKG MKG20021108230009211/08/02 23:00:31  5-MIN KMKG 090400Z 17011KT 10SM CLR 12/06 A2965 880 63 800 170/11 RMK AO2
14840KMKG MKG20021108230509211/08/02 23:05:31  5-MIN KMKG 090405Z 18011KT 10SM CLR 13/06 A2965 880 61 900 180/11 RMK AO2
14840KMKG MKG20021108231009211/08/02 23:10:31  5-MIN KMKG 090410Z 18010KT 10SM CLR 13/06 A2966 880 61 900 180/10 RMK AO2
14840KMKG MKG20021108231509211/08/02 23:15:31  5-MIN KMKG 090415Z 17010KT 10SM CLR 13/06 A2965 880 61 900 180/10 RMK AO2
14840KMKG MKG20021108232009211/08/02 23:20:31  5-MIN KMKG 090420Z 18010KT 10SM CLR 13/06 A2965 880 61 900 180/10 RMK AO2
14840KMKG MKG20021108232509211/08/02 23:25:31  5-MIN KMKG 090425Z 17010KT 10SM CLR 12/06 A2965 880 63 800 180/10 RMK AO2
14840KMKG MKG20021108233009211/08/02 23:30:31  5-MIN KMKG 090430Z 17009KT 10SM CLR 12/06 A2965 880 63 800 180/09 RMK AO2
14840KMKG MKG20021108233509211/08/02 23:35:31  5-MIN KMKG 090435Z 18011KT 10SM CLR 12/06 A2964 890 66 800 180/11 RMK AO2
14840KMKG MKG20021108234009211/08/02 23:40:31  5-MIN KMKG 090440Z 18010KT 10SM CLR 12/06 A2964 890 66 800 180/10 RMK AO2
14840KMKG MKG20021108234509211/08/02 23:45:31  5-MIN KMKG 090445Z 17009KT 10SM CLR 12/06 A2964 890 66 800 180/09 RMK AO2
14840KMKG MKG20021108235011911/08/02 23:50:31  5-MIN KMKG 090450Z 17011KT 10SM CLR 12/06 A2964 890 66 800 180/11 RMK AO2 SLP037 T01220061 401330100
14840KMKG MKG20021108235511911/08/02 23:55:31  5-MIN KMKG 090455Z 18011KT 10SM CLR 13/06 A2964 890 63 900 180/11 RMK AO2 SLP037 T01280061 401330100
14840KMKG MKG20021109000009211/09/02 00:00:31  5-MIN KMKG 090500Z 18011KT 10SM CLR 12/06 A2964 890 66 800 180/11 RMK AO2
14840KMKG MKG20021109000509211/09/02 00:05:31  5-MIN KMKG 090505Z 17010KT 10SM CLR 12/06 A2964 890 66 800 170/10 RMK AO2
14840KMKG MKG20021109001009211/09/02 00:10:31  5-MIN KMKG 090510Z 17013KT 10SM CLR 12/07 A2964 890 68 800 180/13 RMK AO2
14840KMKG MKG20021109001509211/09/02 00:15:31  5-MIN KMKG 090515Z 18011KT 10SM CLR 12/07 A2963 900 68 800 180/11 RMK AO2
14840KMKG MKG20021109002009211/09/02 00:20:31  5-MIN KMKG 090520Z 18011KT 10SM CLR 12/07 A2963 900 68 800 180/11 RMK AO2
14840KMKG MKG20021109002509211/09/02 00:25:31  5-MIN KMKG 090525Z 18012KT 10SM CLR 12/07 A2964 890 68 800 180/12 RMK AO2
14840KMKG MKG20021109003009211/09/02 00:30:31  5-MIN KMKG 090530Z 18012KT 10SM CLR 12/07 A2963 900 68 800 190/12 RMK AO2
14840KMKG MKG20021109003509211/09/02 00:35:31  5-MIN KMKG 090535Z 18013KT 10SM CLR 12/07 A2963 900 68 800 190/13 RMK AO2
14840KMKG MKG20021109004009211/09/02 00:40:31  5-MIN KMKG 090540Z 18013KT 10SM CLR 12/07 A2963 900 71 800 190/13 RMK AO2
14840KMKG MKG20021109004509211/09/02 00:45:31  5-MIN KMKG 090545Z 19012KT 10SM CLR 12/07 A2963 900 71 800 190/12 RMK AO2
14840KMKG MKG20021109005012711/09/02 00:50:31  5-MIN KMKG 090550Z 19014KT 10SM CLR 12/07 A2963 900 71 800 190/14 RMK AO2 SLP034 T01220072 10133 20100 53003
14840KMKG MKG20021109005512711/09/02 00:55:31  5-MIN KMKG 090555Z 18013KT 10SM CLR 12/07 A2963 900 74 800 190/13 RMK AO2 SLP034 T01170072 10133 20100 58011
14840KMKG MKG20021109010009211/09/02 01:00:31  5-MIN KMKG 090600Z 18013KT 10SM CLR 12/07 A2963 900 71 800 190/13 RMK AO2
14840KMKG MKG20021109010509211/09/02 01:05:31  5-MIN KMKG 090605Z 18015KT 10SM CLR 12/07 A2963 900 74 800 190/15 RMK AO2
14840KMKG MKG20021109011009211/09/02 01:10:31  5-MIN KMKG 090610Z 18013KT 10SM CLR 12/07 A2963 900 71 800 190/13 RMK AO2
14840KMKG MKG20021109011509511/09/02 01:15:31  5-MIN KMKG 090615Z 18013KT 10SM FEW080 12/07 A2963 900 71 800 180/13 RMK AO2
14840KMKG MKG20021109012009511/09/02 01:20:31  5-MIN KMKG 090620Z 18012KT 10SM FEW080 12/07 A2963 900 71 800 190/12 RMK AO2
14840KMKG MKG20021109012509511/09/02 01:25:31  5-MIN KMKG 090625Z 18013KT 10SM SCT080 12/07 A2963 900 74 800 180/13 RMK AO2
14840KMKG MKG20021109013009511/09/02 01:30:31  5-MIN KMKG 090630Z 18012KT 10SM SCT080 12/07 A2963 900 74 800 180/12 RMK AO2
14840KMKG MKG20021109013509511/09/02 01:35:31  5-MIN KMKG 090635Z 19012KT 10SM BKN080 12/07 A2963 900 74 800 190/12 RMK AO2
14840KMKG MKG20021109014009511/09/02 01:40:31  5-MIN KMKG 090640Z 18012KT 10SM BKN080 12/07 A2963 900 74 800 180/12 RMK AO2
14840KMKG MKG20021109014509511/09/02 01:45:31  5-MIN KMKG 090645Z 18012KT 10SM BKN080 12/07 A2962 900 74 800 190/12 RMK AO2
14840KMKG MKG20021109015011211/09/02 01:50:31  5-MIN KMKG 090650Z 18012KT 10SM BKN080 12/07 A2962 910 74 800 190/12 RMK AO2 SLP033 T01170072
14840KMKG MKG20021109015511211/09/02 01:55:31  5-MIN KMKG 090655Z 18013KT 10SM SCT080 12/07 A2962 910 74 800 190/13 RMK AO2 SLP032 T01170072
14840KMKG MKG20021109020009511/09/02 02:00:31  5-MIN KMKG 090700Z 18011KT 10SM SCT080 12/07 A2962 910 74 800 190/11 RMK AO2
14840KMKG MKG20021109020509511/09/02 02:05:31  5-MIN KMKG 090705Z 18010KT 10SM FEW080 11/07 A2962 910 77 700 190/10 RMK AO2
14840KMKG MKG20021109021010111/09/02 02:10:31  5-MIN KMKG 090710Z 18012G18KT 10SM FEW080 12/07 A2962 910 74 800 190/12G18 RMK AO2
14840KMKG MKG20021109021509811/09/02 02:15:31  5-MIN KMKG 090715Z 18011G18KT 10SM CLR 11/07 A2962 910 77 700 190/11G18 RMK AO2
14840KMKG MKG20021109022009211/09/02 02:20:31  5-MIN KMKG 090720Z 18012KT 10SM CLR 11/07 A2962 910 77 700 190/12 RMK AO2
14840KMKG MKG20021109022509211/09/02 02:25:31  5-MIN KMKG 090725Z 18011KT 10SM CLR 11/07 A2962 910 77 700 190/11 RMK AO2
14840KMKG MKG20021109023009211/09/02 02:30:31  5-MIN KMKG 090730Z 18011KT 10SM CLR 11/07 A2962 910 77 700 190/11 RMK AO2
14840KMKG MKG20021109023509511/09/02 02:35:31  5-MIN KMKG 090735Z 18011KT 10SM SCT080 11/08 A2962 910 80 700 190/11 RMK AO2
14840KMKG MKG20021109024009511/09/02 02:40:31  5-MIN KMKG 090740Z 18011KT 10SM BKN080 12/08 A2962 910 77 800 190/11 RMK AO2
14840KMKG MKG20021109024509511/09/02 02:45:31  5-MIN KMKG 090745Z 18013KT 10SM BKN080 12/08 A2962 910 77 800 190/13 RMK AO2
14840KMKG MKG20021109025011811/09/02 02:50:31  5-MIN KMKG 090750Z 19012G18KT 10SM BKN080 12/08 A2962 910 77 800 190/12G18 RMK AO2 SLP031 T01170078
14840KMKG MKG20021109025511811/09/02 02:55:31  5-MIN KMKG 090755Z 18015G18KT 10SM OVC080 12/08 A2962 910 77 800 190/15G18 RMK AO2 SLP030 T01170078
14840KMKG MKG20021109030010111/09/02 03:00:31  5-MIN KMKG 090800Z 18011G18KT 10SM OVC080 12/08 A2962 910 77 800 190/11G18 RMK AO2
14840KMKG MKG20021109030509511/09/02 03:05:31  5-MIN KMKG 090805Z 19014KT 10SM OVC080 12/08 A2961 920 77 800 190/14 RMK AO2
14840KMKG MKG20021109031010111/09/02 03:10:31  5-MIN KMKG 090810Z 19014G19KT 10SM OVC080 12/08 A2961 920 77 800 190/14G19 RMK AO2
14840KMKG MKG20021109031510111/09/02 03:15:31  5-MIN KMKG 090815Z 18013G19KT 10SM OVC080 12/08 A2961 920 77 800 190/13G19 RMK AO2
14840KMKG MKG20021109032009511/09/02 03:20:31  5-MIN KMKG 090820Z 18013KT 10SM OVC080 12/08 A2961 920 77 800 180/13 RMK AO2
14840KMKG MKG20021109032509511/09/02 03:25:31  5-MIN KMKG 090825Z 18014KT 10SM OVC080 12/08 A2961 920 77 800 190/14 RMK AO2
14840KMKG MKG20021109033010111/09/02 03:30:31  5-MIN KMKG 090830Z 18015G19KT 10SM OVC080 12/08 A2961 920 77 800 190/15G19 RMK AO2
14840KMKG MKG20021109033510111/09/02 03:35:31  5-MIN KMKG 090835Z 19014G19KT 10SM OVC080 12/08 A2961 920 77 800 190/14G19 RMK AO2
14840KMKG MKG20021109034009511/09/02 03:40:31  5-MIN KMKG 090840Z 19013KT 10SM OVC080 12/08 A2960 920 77 800 190/13 RMK AO2
14840KMKG MKG20021109034509511/09/02 03:45:31  5-MIN KMKG 090845Z 18015KT 10SM OVC080 12/08 A2961 920 77 800 190/15 RMK AO2
14840KMKG MKG20021109035011811/09/02 03:50:31  5-MIN KMKG 090850Z 18014KT 10SM OVC080 12/08 A2961 920 77 800 190/14 RMK AO2 SLP027 T01170078 58011
14840KMKG MKG20021109035511811/09/02 03:55:31  5-MIN KMKG 090855Z 19014KT 10SM OVC080 12/08 A2961 920 80 800 200/14 RMK AO2 SLP026 T01170083 58008
14840KMKG MKG20021109040010111/09/02 04:00:31  5-MIN KMKG 090900Z 19015G20KT 10SM OVC080 12/08 A2960 930 80 800 190/15G20 RMK AO2
14840KMKG MKG20021109040510111/09/02 04:05:31  5-MIN KMKG 090905Z 19014G20KT 10SM OVC080 12/08 A2960 930 80 800 190/14G20 RMK AO2
14840KMKG MKG20021109041009511/09/02 04:10:31  5-MIN KMKG 090910Z 19013KT 10SM OVC080 12/08 A2960 930 80 800 200/13 RMK AO2
14840KMKG MKG20021109041510111/09/02 04:15:31  5-MIN KMKG 090915Z 19014G22KT 10SM OVC080 12/08 A2960 930 80 800 200/14G22 RMK AO2
14840KMKG MKG20021109042010111/09/02 04:20:31  5-MIN KMKG 090920Z 19013G22KT 10SM OVC080 12/08 A2960 930 80 800 190/13G22 RMK AO2
14840KMKG MKG20021109042509511/09/02 04:25:31  5-MIN KMKG 090925Z 19014KT 10SM BKN080 12/08 A2960 930 80 800 190/14 RMK AO2
14840KMKG MKG20021109043010111/09/02 04:30:31  5-MIN KMKG 090930Z 19014G20KT 10SM BKN080 12/08 A2960 930 80 800 190/14G20 RMK AO2
14840KMKG MKG20021109043510111/09/02 04:35:31  5-MIN KMKG 090935Z 18014G21KT 10SM BKN080 12/08 A2960 930 80 800 190/14G21 RMK AO2
14840KMKG MKG20021109044010111/09/02 04:40:31  5-MIN KMKG 090940Z 18016G21KT 10SM OVC080 12/08 A2959 940 80 800 180/16G21 RMK AO2
14840KMKG MKG20021109044510111/09/02 04:45:31  5-MIN KMKG 090945Z 19014G20KT 10SM OVC080 12/09 A2959 940 83 800 190/14G20 RMK AO2
14840KMKG MKG20021109045011211/09/02 04:50:31  5-MIN KMKG 090950Z 19015KT 10SM OVC080 12/09 A2959 940 83 800 190/15 RMK AO2 SLP021 T01170089
14840KMKG MKG20021109045511811/09/02 04:55:31  5-MIN KMKG 090955Z 18016G21KT 10SM OVC080 12/09 A2959 940 83 800 190/16G21 RMK AO2 SLP021 T01170089
14840KMKG MKG20021109050010111/09/02 05:00:31  5-MIN KMKG 091000Z 19014G21KT 10SM OVC080 12/09 A2959 940 83 800 190/14G21 RMK AO2
14840KMKG MKG20021109050510111/09/02 05:05:31  5-MIN KMKG 091005Z 19013G19KT 10SM OVC080 12/09 A2959 940 83 800 190/13G19 RMK AO2
14840KMKG MKG20021109051009511/09/02 05:10:31  5-MIN KMKG 091010Z 18013KT 10SM OVC080 12/09 A2959 930 83 800 180/13 RMK AO2
14840KMKG MKG20021109051509511/09/02 05:15:31  5-MIN KMKG 091015Z 18012KT 10SM OVC080 12/09 A2959 940 83 800 180/12 RMK AO2
14840KMKG MKG20021109052009511/09/02 05:20:31  5-MIN KMKG 091020Z 18012KT 10SM OVC080 12/09 A2959 940 83 800 180/12 RMK AO2
14840KMKG MKG20021109052509511/09/02 05:25:31  5-MIN KMKG 091025Z 18013KT 10SM BKN080 12/09 A2959 940 83 800 180/13 RMK AO2
14840KMKG MKG20021109053009511/09/02 05:30:31  5-MIN KMKG 091030Z 18013KT 10SM BKN080 12/09 A2959 940 83 800 190/13 RMK AO2
14840KMKG MKG20021109053509511/09/02 05:35:31  5-MIN KMKG 091035Z 18013KT 10SM BKN080 12/09 A2959 940 83 800 180/13 RMK AO2
14840KMKG MKG20021109054009511/09/02 05:40:31  5-MIN KMKG 091040Z 18014KT 10SM BKN075 12/09 A2959 940 83 800 190/14 RMK AO2
14840KMKG MKG20021109054509511/09/02 05:45:31  5-MIN KMKG 091045Z 18013KT 10SM BKN075 12/09 A2959 940 83 800 190/13 RMK AO2
14840KMKG MKG20021109055011211/09/02 05:50:31  5-MIN KMKG 091050Z 18013KT 10SM BKN075 11/09 A2959 940 86 700 180/13 RMK AO2 SLP020 T01110089
14840KMKG MKG20021109055511211/09/02 05:55:31  5-MIN KMKG 091055Z 18012KT 10SM BKN075 12/09 A2959 940 83 800 190/12 RMK AO2 SLP020 T01170089
14840KMKG MKG20021109060009511/09/02 06:00:31  5-MIN KMKG 091100Z 18014KT 10SM BKN075 12/09 A2958 940 83 800 190/14 RMK AO2
14840KMKG MKG20021109060510111/09/02 06:05:31  5-MIN KMKG 091105Z 18015G20KT 10SM BKN075 12/09 A2958 940 83 800 190/15G20 RMK AO2
14840KMKG MKG20021109061010111/09/02 06:10:31  5-MIN KMKG 091110Z 18014G20KT 10SM BKN075 12/09 A2958 950 83 800 190/14G20 RMK AO2
14840KMKG MKG20021109061509511/09/02 06:15:31  5-MIN KMKG 091115Z 18014KT 10SM BKN075 12/09 A2958 940 83 800 190/14 RMK AO2
14840KMKG MKG20021109062010111/09/02 06:20:31  5-MIN KMKG 091120Z 18015G21KT 10SM BKN075 12/09 A2958 950 83 800 180/15G21 RMK AO2
14840KMKG MKG20021109062510111/09/02 06:25:31  5-MIN KMKG 091125Z 18015G21KT 10SM BKN075 12/09 A2958 950 86 800 190/15G21 RMK AO2
14840KMKG MKG20021109063010111/09/02 06:30:31  5-MIN KMKG 091130Z 18016G21KT 10SM OVC075 12/09 A2958 950 86 800 180/16G21 RMK AO2
14840KMKG MKG20021109063510111/09/02 06:35:31  5-MIN KMKG 091135Z 18015G21KT 10SM OVC075 12/09 A2958 940 86 800 190/15G21 RMK AO2
14840KMKG MKG20021109064010111/09/02 06:40:31  5-MIN KMKG 091140Z 18018G23KT 10SM OVC075 12/09 A2958 940 86 800 180/18G23 RMK AO2
14840KMKG MKG20021109064510111/09/02 06:45:31  5-MIN KMKG 091145Z 18012G23KT 10SM OVC075 12/09 A2958 940 86 800 190/12G23 RMK AO2
14840KMKG MKG20021109065013011/09/02 06:50:31  5-MIN KMKG 091150Z 18015KT 10SM OVC070 12/09 A2958 940 86 800 190/15 RMK AO2 SLP018 T01170094 10122 20111 58008
14840KMKG MKG20021109065513611/09/02 06:55:31  5-MIN KMKG 091155Z 18016G20KT 10SM OVC070 12/09 A2958 950 86 800 190/16G20 RMK AO2 SLP018 T01170094 10122 20111 56008
14840KMKG MKG20021109070010111/09/02 07:00:31  5-MIN KMKG 091200Z 18015G20KT 10SM BKN070 12/09 A2958 940 86 800 180/15G20 RMK AO2
14840KMKG MKG20021109070509511/09/02 07:05:31  5-MIN KMKG 091205Z 19014KT 10SM BKN070 12/09 A2958 940 86 800 190/14 RMK AO2
14840KMKG MKG20021109071010111/09/02 07:10:31  5-MIN KMKG 091210Z 18014G20KT 10SM SCT070 12/09 A2958 950 86 800 180/14G20 RMK AO2
14840KMKG MKG20021109071510111/09/02 07:15:31  5-MIN KMKG 091215Z 18014G19KT 10SM SCT070 12/09 A2958 950 86 800 190/14G19 RMK AO2
14840KMKG MKG20021109072009511/09/02 07:20:31  5-MIN KMKG 091220Z 18015KT 10SM FEW070 12/09 A2958 950 86 800 180/15 RMK AO2
14840KMKG MKG20021109072509211/09/02 07:25:31  5-MIN KMKG 091225Z 18015KT 10SM CLR 12/09 A2958 940 86 800 190/15 RMK AO2
14840KMKG MKG20021109073009211/09/02 07:30:31  5-MIN KMKG 091230Z 18013KT 10SM CLR 12/09 A2958 940 86 800 180/13 RMK AO2
14840KMKG MKG20021109073509811/09/02 07:35:31  5-MIN KMKG 091235Z 18015G22KT 10SM CLR 12/09 A2959 940 86 800 190/15G22 RMK AO2
14840KMKG MKG20021109074009811/09/02 07:40:31  5-MIN KMKG 091240Z 18014G22KT 10SM CLR 12/09 A2959 940 86 800 180/14G22 RMK AO2
14840KMKG MKG20021109074509811/09/02 07:45:31  5-MIN KMKG 091245Z 18014G20KT 10SM CLR 12/09 A2959 940 86 800 180/14G20 RMK AO2
14840KMKG MKG20021109075011811/09/02 07:50:31  5-MIN KMKG 091250Z 18014G21KT 10SM FEW060 12/09 A2959 940 86 800 180/14G21 RMK AO2 SLP020 T01170094
14840KMKG MKG20021109075511811/09/02 07:55:31  5-MIN KMKG 091255Z 18015G21KT 10SM SCT060 12/09 A2959 940 86 800 180/15G21 RMK AO2 SLP020 T01170094
14840KMKG MKG20021109080010111/09/02 08:00:31  5-MIN KMKG 091300Z 18017G22KT 10SM FEW060 12/09 A2959 940 86 800 180/17G22 RMK AO2
14840KMKG MKG20021109080510111/09/02 08:05:31  5-MIN KMKG 091305Z 18017G22KT 10SM FEW060 12/09 A2959 940 86 800 190/17G22 RMK AO2
14840KMKG MKG20021109081010111/09/02 08:10:31  5-MIN KMKG 091310Z 18015G21KT 10SM FEW060 12/09 A2959 930 86 800 190/15G21 RMK AO2
14840KMKG MKG20021109081510111/09/02 08:15:31  5-MIN KMKG 091315Z 18015G21KT 10SM FEW060 12/09 A2959 930 86 800 180/15G21 RMK AO2
14840KMKG MKG20021109082009211/09/02 08:20:31  5-MIN KMKG 091320Z 18015KT 10SM CLR 12/09 A2959 930 86 800 180/15 RMK AO2
14840KMKG MKG20021109082509811/09/02 08:25:31  5-MIN KMKG 091325Z 19015G25KT 10SM CLR 12/09 A2959 930 86 800 190/15G25 RMK AO2
14840KMKG MKG20021109083009811/09/02 08:30:31  5-MIN KMKG 091330Z 18014G25KT 10SM CLR 12/09 A2960 930 83 900 190/14G25 RMK AO2
14840KMKG MKG20021109083509811/09/02 08:35:31  5-MIN KMKG 091335Z 19016G22KT 10SM CLR 12/09 A2960 930 83 900 190/16G22 RMK AO2
14840KMKG MKG20021109084009811/09/02 08:40:31  5-MIN KMKG 091340Z 18015G23KT 10SM CLR 12/09 A2960 930 83 900 180/15G23 RMK AO2
14840KMKG MKG20021109084509811/09/02 08:45:31  5-MIN KMKG 091345Z 18018G23KT 10SM CLR 12/09 A2960 930 83 900 180/18G23 RMK AO2
14840KMKG MKG20021109085010911/09/02 08:50:31  5-MIN KMKG 091350Z 18017KT 10SM CLR 12/09 A2960 930 83 900 180/17 RMK AO2 SLP024 T01220094
14840KMKG MKG20021109085511511/09/02 08:55:31  5-MIN KMKG 091355Z 18015G22KT 10SM CLR 12/09 A2960 930 83 900 190/15G22 RMK AO2 SLP023 T01220094
14840KMKG MKG20021109090009811/09/02 09:00:31  5-MIN KMKG 091400Z 19017G23KT 10SM CLR 12/09 A2959 930 83 900 190/17G23 RMK AO2
14840KMKG MKG20021109090509811/09/02 09:05:31  5-MIN KMKG 091405Z 19016G25KT 10SM CLR 12/09 A2960 930 83 900 190/16G25 RMK AO2
14840KMKG MKG20021109091009811/09/02 09:10:31  5-MIN KMKG 091410Z 19019G25KT 10SM CLR 12/10 A2959 930 86 900 190/19G25 RMK AO2
14840KMKG MKG20021109091509811/09/02 09:15:31  5-MIN KMKG 091415Z 19019G25KT 10SM CLR 12/10 A2960 930 86 900 190/19G25 RMK AO2
14840KMKG MKG20021109092009811/09/02 09:20:31  5-MIN KMKG 091420Z 19018G24KT 10SM CLR 12/10 A2960 930 86 900 190/18G24 RMK AO2
14840KMKG MKG20021109092509811/09/02 09:25:31  5-MIN KMKG 091425Z 19019G25KT 10SM CLR 12/10 A2959 930 86 900 190/19G25 RMK AO2
14840KMKG MKG20021109093009811/09/02 09:30:31  5-MIN KMKG 091430Z 18017G25KT 10SM CLR 12/10 A2959 930 86 900 190/17G25 RMK AO2
14840KMKG MKG20021109093509811/09/02 09:35:31  5-MIN KMKG 091435Z 18018G25KT 10SM CLR 12/10 A2959 940 86 900 190/18G25 RMK AO2
14840KMKG MKG20021109094009811/09/02 09:40:31  5-MIN KMKG 091440Z 19018G25KT 10SM CLR 13/10 A2959 940 83 900 190/18G25 RMK AO2
14840KMKG MKG20021109094509811/09/02 09:45:31  5-MIN KMKG 091445Z 19015G23KT 10SM CLR 13/10 A2958 940 83 900 190/15G23 RMK AO2
14840KMKG MKG20021109095013911/09/02 09:50:31  5-MIN KMKG 091450Z 19020G28KT 10SM CLR 13/10 A2959 940 83 900 190/20G28 RMK AO2 PK WND 19028/1449 SLP019 T01280100 56008
14840KMKG MKG20021109095513911/09/02 09:55:31  5-MIN KMKG 091455Z 18017G28KT 10SM CLR 13/10 A2958 940 83 900 190/17G28 RMK AO2 PK WND 19028/1449 SLP018 T01280100 50001
14840KMKG MKG20021109100011611/09/02 10:00:31  5-MIN KMKG 091500Z 18021G29KT 10SM CLR 13/10 A2959 940 83 900 190/21G29 RMK AO2 PK WND 20029/1500
14840KMKG MKG20021109100511611/09/02 10:05:31  5-MIN KMKG 091505Z 19018G29KT 10SM CLR 13/10 A2959 940 83 900 190/18G29 RMK AO2 PK WND 19029/1501
14840KMKG MKG20021109101011611/09/02 10:10:31  5-MIN KMKG 091510Z 19018G29KT 10SM CLR 13/10 A2959 940 83 900 190/18G29 RMK AO2 PK WND 19029/1501
14840KMKG MKG20021109101511711/09/02 10:15:31  5-MIN KMKG 091515Z 19017G28KT 10SM CLR 13/10 A2958 940 80 1000 190/17G28 RMK AO2 PK WND 19029/1501
14840KMKG MKG20021109102011711/09/02 10:20:31  5-MIN KMKG 091520Z 18017G23KT 10SM CLR 13/10 A2958 940 80 1000 180/17G23 RMK AO2 PK WND 19029/1501
14840KMKG MKG20021109102511711/09/02 10:25:31  5-MIN KMKG 091525Z 18019G27KT 10SM CLR 13/10 A2958 950 80 1000 190/19G27 RMK AO2 PK WND 19029/1501
14840KMKG MKG20021109103011711/09/02 10:30:31  5-MIN KMKG 091530Z 19016G27KT 10SM CLR 13/10 A2958 940 80 1000 190/16G27 RMK AO2 PK WND 19029/1501
14840KMKG MKG20021109103511711/09/02 10:35:31  5-MIN KMKG 091535Z 19018G22KT 10SM CLR 13/10 A2958 940 80 1000 190/18G22 RMK AO2 PK WND 19029/1501
14840KMKG MKG20021109104012011/09/02 10:40:31  5-MIN KMKG 091540Z 19019G25KT 10SM FEW021 14/10 A2958 950 77 1100 200/19G25 RMK AO2 PK WND 19029/1501
14840KMKG MKG20021109104512011/09/02 10:45:31  5-MIN KMKG 091545Z 18019G28KT 10SM FEW023 14/10 A2957 950 77 1100 180/19G28 RMK AO2 PK WND 19029/1501
14840KMKG MKG20021109105013711/09/02 10:50:31  5-MIN KMKG 091550Z 19017G28KT 10SM FEW023 14/10 A2959 940 77 1100 190/17G28 RMK AO2 PK WND 19029/1501 SLP019 T01390100
14840KMKG MKG20021109105513711/09/02 10:55:31  5-MIN KMKG 091555Z 19020G26KT 10SM SCT023 14/11 A2959 940 80 1100 200/20G26 RMK AO2 PK WND 19029/1501 SLP020 T01390106
14840KMKG MKG20021109110010211/09/02 11:00:31  5-MIN KMKG 091600Z 19016G26KT 10SM BKN023 14/11 A2959 940 80 1100 190/16G26 RMK AO2
14840KMKG MKG20021109110512011/09/02 11:05:31  5-MIN KMKG 091605Z 19019G26KT 10SM BKN023 14/10 A2958 950 77 1100 190/19G26 RMK AO2 PK WND 20026/1601
14840KMKG MKG20021109111012011/09/02 11:10:31  5-MIN KMKG 091610Z 18020G26KT 10SM SCT023 14/11 A2958 940 80 1100 190/20G26 RMK AO2 PK WND 20026/1601
14840KMKG MKG20021109111512011/09/02 11:15:31  5-MIN KMKG 091615Z 19018G25KT 10SM SCT023 14/11 A2958 950 80 1100 190/18G25 RMK AO2 PK WND 20026/1601
14840KMKG MKG20021109112012011/09/02 11:20:31  5-MIN KMKG 091620Z 19018G26KT 10SM SCT023 14/11 A2957 950 77 1100 190/18G26 RMK AO2 PK WND 18026/1617
14840KMKG MKG20021109112512011/09/02 11:25:31  5-MIN KMKG 091625Z 18019G26KT 10SM FEW023 14/11 A2957 950 77 1100 190/19G26 RMK AO2 PK WND 18026/1617
14840KMKG MKG20021109113012711/09/02 11:30:31  5-MIN KMKG 091630Z 18020G28KT 10SM FEW023 14/11 A2956 960 77 1200 180/20G28 RMK AO2 PK WND 18028/1629 PRESFR
14840KMKG MKG20021109113511711/09/02 11:35:31  5-MIN KMKG 091635Z 19018G28KT 10SM CLR 14/11 A2957 960 77 1200 190/18G28 RMK AO2 PK WND 18028/1633
14840KMKG MKG20021109114012011/09/02 11:40:31  5-MIN KMKG 091640Z 18019G28KT 10SM FEW022 14/11 A2957 950 77 1200 190/19G28 RMK AO2 PK WND 18028/1633
14840KMKG MKG20021109114512011/09/02 11:45:31  5-MIN KMKG 091645Z 18017G26KT 10SM FEW022 14/11 A2957 960 77 1200 190/17G26 RMK AO2 PK WND 18028/1633
14840KMKG MKG20021109115013411/09/02 11:50:31  5-MIN KMKG 091650Z 19019G25KT 10SM CLR 14/11 A2957 960 77 1200 190/19G25 RMK AO2 PK WND 18028/1633 SLP012 T01440106
14840KMKG MKG20021109115513711/09/02 11:55:31  5-MIN KMKG 091655Z 19019G27KT 10SM SCT025 14/11 A2957 960 77 1200 190/19G27 RMK AO2 PK WND 18028/1633 SLP012 T01440106
14840KMKG MKG20021109120012011/09/02 12:00:31  5-MIN KMKG 091700Z 18022G28KT 10SM FEW021 14/11 A2957 960 77 1200 190/22G28 RMK AO2 PK WND 19028/1658
14840KMKG MKG20021109120512011/09/02 12:05:31  5-MIN KMKG 091705Z 19018G28KT 10SM SCT021 14/11 A2957 960 77 1200 190/18G28 RMK AO2 PK WND 19028/1658
14840KMKG MKG20021109121012011/09/02 12:10:31  5-MIN KMKG 091710Z 19017G23KT 10SM BKN021 14/11 A2957 960 77 1200 190/17G23 RMK AO2 PK WND 19028/1658
14840KMKG MKG20021109121512011/09/02 12:15:31  5-MIN KMKG 091715Z 18017G28KT 10SM BKN021 14/11 A2957 960 77 1200 190/17G28 RMK AO2 PK WND 19028/1713
14840KMKG MKG20021109122012011/09/02 12:20:31  5-MIN KMKG 091720Z 19016G28KT 10SM BKN021 14/11 A2957 960 77 1200 200/16G28 RMK AO2 PK WND 19028/1713
14840KMKG MKG20021109122512011/09/02 12:25:31  5-MIN KMKG 091725Z 19019G25KT 10SM OVC021 14/11 A2957 960 77 1200 200/19G25 RMK AO2 PK WND 19028/1713
14840KMKG MKG20021109123012011/09/02 12:30:31  5-MIN KMKG 091730Z 19019G25KT 10SM OVC021 14/11 A2957 960 77 1200 190/19G25 RMK AO2 PK WND 19028/1713
14840KMKG MKG20021109123512011/09/02 12:35:31  5-MIN KMKG 091735Z 19020G29KT 10SM OVC021 14/11 A2956 970 77 1200 190/20G29 RMK AO2 PK WND 18029/1732
14840KMKG MKG20021109124012011/09/02 12:40:31  5-MIN KMKG 091740Z 19021G29KT 10SM BKN021 14/11 A2956 970 77 1200 200/21G29 RMK AO2 PK WND 18029/1732
14840KMKG MKG20021109124512011/09/02 12:45:31  5-MIN KMKG 091745Z 19020G25KT 10SM BKN021 15/11 A2956 970 74 1200 190/20G25 RMK AO2 PK WND 18029/1732
14840KMKG MKG20021109125015511/09/02 12:50:31  5-MIN KMKG 091750Z 19022G28KT 10SM BKN021 15/11 A2955 970 74 1200 200/22G28 RMK AO2 PK WND 18029/1732 SLP007 T01500106 10150 20117 50001
14840KMKG MKG20021109125515511/09/02 12:55:31  5-MIN KMKG 091755Z 19020G28KT 10SM SCT021 16/11 A2955 970 72 1300 190/20G28 RMK AO2 PK WND 18029/1732 SLP007 T01560106 10156 20117 58010
14840KMKG MKG20021109130012011/09/02 13:00:31  5-MIN KMKG 091800Z 19020G28KT 10SM SCT021 16/11 A2955 980 72 1300 200/20G28 RMK AO2 PK WND 19026/1757
14840KMKG MKG20021109130512011/09/02 13:05:31  5-MIN KMKG 091805Z 19020G27KT 10SM FEW021 16/11 A2954 980 74 1300 200/20G27 RMK AO2 PK WND 19027/1804
14840KMKG MKG20021109131012011/09/02 13:10:31  5-MIN KMKG 091810Z 18017G27KT 10SM FEW021 16/11 A2954 980 74 1300 190/17G27 RMK AO2 PK WND 19027/1807
14840KMKG MKG20021109131511711/09/02 13:15:31  5-MIN KMKG 091815Z 18021G27KT 10SM CLR 16/11 A2954 980 74 1300 190/21G27 RMK AO2 PK WND 19027/1807
14840KMKG MKG20021109132011711/09/02 13:20:31  5-MIN KMKG 091820Z 19019G27KT 10SM CLR 16/11 A2954 980 74 1300 190/19G27 RMK AO2 PK WND 19027/1818
14840KMKG MKG20021109132511711/09/02 13:25:31  5-MIN KMKG 091825Z 19019G28KT 10SM CLR 16/11 A2954 980 74 1300 200/19G28 RMK AO2 PK WND 19028/1822
14840KMKG MKG20021109133011711/09/02 13:30:31  5-MIN KMKG 091830Z 19019G28KT 10SM CLR 16/11 A2954 990 74 1300 190/19G28 RMK AO2 PK WND 19028/1822
14840KMKG MKG20021109133511711/09/02 13:35:31  5-MIN KMKG 091835Z 19019G27KT 10SM CLR 16/11 A2953 990 74 1300 190/19G27 RMK AO2 PK WND 19028/1822
14840KMKG MKG20021109134011711/09/02 13:40:31  5-MIN KMKG 091840Z 19020G27KT 10SM CLR 16/11 A2953 990 74 1300 190/20G27 RMK AO2 PK WND 19028/1822
14840KMKG MKG20021109134511711/09/02 13:45:31  5-MIN KMKG 091845Z 19020G28KT 10SM CLR 16/11 A2954 990 72 1400 200/20G28 RMK AO2 PK WND 18028/1843
14840KMKG MKG20021109135013411/09/02 13:50:31  5-MIN KMKG 091850Z 19020G28KT 10SM CLR 16/11 A2954 990 74 1300 190/20G28 RMK AO2 PK WND 18028/1843 SLP002 T01560111
14840KMKG MKG20021109135513411/09/02 13:55:31  5-MIN KMKG 091855Z 19020G27KT 10SM CLR 16/11 A2954 990 72 1400 200/20G27 RMK AO2 PK WND 18028/1843 SLP001 T01610111
14840KMKG MKG20021109140009911/09/02 14:00:31  5-MIN KMKG 091900Z 19018G26KT 10SM CLR 16/11 A2953 990 72 1400 200/18G26 RMK AO2
14840KMKG MKG20021109140510011/09/02 14:05:31  5-MIN KMKG 091905Z 19018G25KT 10SM CLR 16/11 A2953 1000 74 1300 200/18G25 RMK AO2
14840KMKG MKG20021109141010011/09/02 14:10:31  5-MIN KMKG 091910Z 18018G25KT 10SM CLR 16/11 A2952 1000 74 1300 190/18G25 RMK AO2
14840KMKG MKG20021109141510011/09/02 14:15:31  5-MIN KMKG 091915Z 19019G24KT 10SM CLR 16/11 A2953 1000 74 1300 190/19G24 RMK AO2
14840KMKG MKG20021109142010011/09/02 14:20:31  5-MIN KMKG 091920Z 19017G24KT 10SM CLR 16/11 A2952 1000 74 1300 190/17G24 RMK AO2
14840KMKG MKG20021109142510011/09/02 14:25:31  5-MIN KMKG 091925Z 18018G24KT 10SM CLR 16/11 A2952 1010 74 1300 190/18G24 RMK AO2
14840KMKG MKG20021109143011811/09/02 14:30:31  5-MIN KMKG 091930Z 18019G26KT 10SM CLR 16/12 A2951 1010 77 1300 180/19G26 RMK AO2 PK WND 17026/1926
14840KMKG MKG20021109143511811/09/02 14:35:31  5-MIN KMKG 091935Z 18019G26KT 10SM CLR 16/12 A2951 1010 77 1400 190/19G26 RMK AO2 PK WND 17026/1926
14840KMKG MKG20021109144011811/09/02 14:40:31  5-MIN KMKG 091940Z 19019G25KT 10SM CLR 16/12 A2951 1010 77 1400 190/19G25 RMK AO2 PK WND 17026/1926
14840KMKG MKG20021109144511811/09/02 14:45:31  5-MIN KMKG 091945Z 18017G25KT 10SM CLR 16/12 A2951 1010 77 1400 190/17G25 RMK AO2 PK WND 17026/1926
14840KMKG MKG20021109145012911/09/02 14:50:31  5-MIN KMKG 091950Z 18017KT 10SM CLR 16/12 A2951 1010 75 1400 190/17 RMK AO2 PK WND 17026/1926 SLP992 T01610117
14840KMKG MKG20021109145513511/09/02 14:55:31  5-MIN KMKG 091955Z 18017G24KT 10SM CLR 16/12 A2951 1020 75 1400 190/17G24 RMK AO2 PK WND 17026/1926 SLP991 T01610117
14840KMKG MKG20021109150010011/09/02 15:00:31  5-MIN KMKG 092000Z 18018G24KT 10SM CLR 16/12 A2950 1020 75 1400 190/18G24 RMK AO2
14840KMKG MKG20021109150510011/09/02 15:05:31  5-MIN KMKG 092005Z 18017G25KT 10SM CLR 16/12 A2950 1020 75 1400 190/17G25 RMK AO2
14840KMKG MKG20021109151010011/09/02 15:10:31  5-MIN KMKG 092010Z 18018G25KT 10SM CLR 16/12 A2950 1020 75 1400 190/18G25 RMK AO2
14840KMKG MKG20021109151510011/09/02 15:15:31  5-MIN KMKG 092015Z 18017G25KT 10SM CLR 16/12 A2950 1020 75 1400 190/17G25 RMK AO2
14840KMKG MKG20021109152010011/09/02 15:20:31  5-MIN KMKG 092020Z 18018G24KT 10SM CLR 16/12 A2950 1020 75 1400 180/18G24 RMK AO2
14840KMKG MKG20021109152510011/09/02 15:25:31  5-MIN KMKG 092025Z 18016G24KT 10SM CLR 17/12 A2950 1020 72 1500 180/16G24 RMK AO2
14840KMKG MKG20021109153010011/09/02 15:30:31  5-MIN KMKG 092030Z 18016G24KT 10SM CLR 17/12 A2950 1020 69 1600 190/16G24 RMK AO2
14840KMKG MKG20021109153510011/09/02 15:35:31  5-MIN KMKG 092035Z 18017G22KT 10SM CLR 17/12 A2951 1020 69 1600 180/17G22 RMK AO2
14840KMKG MKG20021109154009711/09/02 15:40:31  5-MIN KMKG 092040Z 19017KT 10SM FEW032 17/12 A2951 1010 69 1600 190/17 RMK AO2
14840KMKG MKG20021109154510311/09/02 15:45:31  5-MIN KMKG 092045Z 18015G24KT 10SM SCT032 17/12 A2951 1010 72 1500 190/15G24 RMK AO2
14840KMKG MKG20021109155012611/09/02 15:50:31  5-MIN KMKG 092050Z 18016G24KT 10SM SCT032 16/12 A2951 1010 75 1400 180/16G24 RMK AO2 SLP993 T01610117 58010
14840KMKG MKG20021109155512611/09/02 15:55:31  5-MIN KMKG 092055Z 18015G23KT 10SM BKN032 16/12 A2951 1010 75 1400 190/15G23 RMK AO2 SLP993 T01610117 55014
14840KMKG MKG20021109160010311/09/02 16:00:31  5-MIN KMKG 092100Z 18017G23KT 10SM BKN032 16/12 A2951 1010 75 1400 180/17G23 RMK AO2
14840KMKG MKG20021109160510311/09/02 16:05:31  5-MIN KMKG 092105Z 18016G23KT 10SM OVC032 16/12 A2951 1010 75 1400 180/16G23 RMK AO2
14840KMKG MKG20021109161010311/09/02 16:10:31  5-MIN KMKG 092110Z 18014G23KT 10SM OVC032 16/12 A2951 1010 75 1400 190/14G23 RMK AO2
14840KMKG MKG20021109161510311/09/02 16:15:31  5-MIN KMKG 092115Z 17016G23KT 10SM OVC034 16/12 A2951 1010 75 1400 180/16G23 RMK AO2
14840KMKG MKG20021109162010311/09/02 16:20:31  5-MIN KMKG 092120Z 18014G23KT 10SM OVC034 16/12 A2951 1010 75 1400 180/14G23 RMK AO2
14840KMKG MKG20021109162510311/09/02 16:25:31  5-MIN KMKG 092125Z 18013G23KT 10SM OVC034 16/12 A2951 1010 75 1400 180/13G23 RMK AO2
14840KMKG MKG20021109163010311/09/02 16:30:31  5-MIN KMKG 092130Z 18015G20KT 10SM OVC034 16/12 A2950 1020 75 1400 180/15G20 RMK AO2
14840KMKG MKG20021109163510311/09/02 16:35:31  5-MIN KMKG 092135Z 18015G20KT 10SM OVC036 16/12 A2950 1020 75 1400 180/15G20 RMK AO2
14840KMKG MKG20021109164010311/09/02 16:40:31  5-MIN KMKG 092140Z 18015G20KT 10SM OVC036 16/12 A2951 1020 75 1400 180/15G20 RMK AO2
14840KMKG MKG20021109164510311/09/02 16:45:31  5-MIN KMKG 092145Z 17017G23KT 10SM OVC036 16/12 A2951 1020 75 1400 170/17G23 RMK AO2
14840KMKG MKG20021109165012711/09/02 16:50:31  5-MIN KMKG 092150Z 17018G23KT 10SM FEW029 OVC036 16/12 A2951 1020 75 1400 180/18G23 RMK AO2 SLP992 T01610117
14840KMKG MKG20021109165512011/09/02 16:55:31  5-MIN KMKG 092155Z 17016G25KT 10SM OVC034 16/12 A2950 1020 75 1400 180/16G25 RMK AO2 SLP990 T01610117
14840KMKG MKG20021109170010311/09/02 17:00:31  5-MIN KMKG 092200Z 17014G25KT 10SM OVC034 16/12 A2950 1020 75 1400 180/14G25 RMK AO2
14840KMKG MKG20021109170511011/09/02 17:05:31  5-MIN KMKG 092205Z 18014G24KT 10SM BKN030 OVC037 16/12 A2950 1020 75 1400 180/14G24 RMK AO2
14840KMKG MKG20021109171011011/09/02 17:10:31  5-MIN KMKG 092210Z 17016G24KT 10SM BKN030 OVC035 16/12 A2950 1020 75 1400 180/16G24 RMK AO2
14840KMKG MKG20021109171510311/09/02 17:15:31  5-MIN KMKG 092215Z 17016G23KT 10SM OVC030 16/12 A2949 1030 75 1400 180/16G23 RMK AO2
14840KMKG MKG20021109172009711/09/02 17:20:31  5-MIN KMKG 092220Z 17014KT 10SM OVC030 16/12 A2949 1030 75 1400 180/14 RMK AO2
14840KMKG MKG20021109172510311/09/02 17:25:31  5-MIN KMKG 092225Z 17014G23KT 10SM OVC030 16/12 A2949 1030 75 1400 170/14G23 RMK AO2
14840KMKG MKG20021109173010311/09/02 17:30:31  5-MIN KMKG 092230Z 17015G23KT 10SM OVC030 16/12 A2949 1030 75 1400 170/15G23 RMK AO2
14840KMKG MKG20021109173510311/09/02 17:35:31  5-MIN KMKG 092235Z 17014G22KT 10SM OVC030 16/12 A2949 1030 75 1400 170/14G22 RMK AO2
14840KMKG MKG20021109174010311/09/02 17:40:31  5-MIN KMKG 092240Z 18017G21KT 10SM OVC029 16/12 A2949 1030 75 1400 180/17G21 RMK AO2
14840KMKG MKG20021109174510311/09/02 17:45:31  5-MIN KMKG 092245Z 17014G23KT 10SM OVC029 16/12 A2949 1030 75 1400 180/14G23 RMK AO2
14840KMKG MKG20021109175012011/09/02 17:50:31  5-MIN KMKG 092250Z 17013G23KT 10SM OVC029 16/12 A2949 1030 75 1400 170/13G23 RMK AO2 SLP986 T01610117
14840KMKG MKG20021109175512011/09/02 17:55:31  5-MIN KMKG 092255Z 17016G25KT 10SM OVC029 16/12 A2949 1030 75 1400 170/16G25 RMK AO2 SLP986 T01610117
14840KMKG MKG20021109180010311/09/02 18:00:31  5-MIN KMKG 092300Z 17014G25KT 10SM OVC029 16/12 A2949 1030 75 1400 180/14G25 RMK AO2
14840KMKG MKG20021109180510311/09/02 18:05:31  5-MIN KMKG 092305Z 18014G23KT 10SM OVC029 16/12 A2949 1030 75 1400 180/14G23 RMK AO2
14840KMKG MKG20021109181010311/09/02 18:10:31  5-MIN KMKG 092310Z 17015G23KT 10SM OVC029 16/12 A2949 1030 75 1400 180/15G23 RMK AO2
14840KMKG MKG20021109181510311/09/02 18:15:31  5-MIN KMKG 092315Z 17015G22KT 10SM OVC029 16/12 A2949 1030 75 1400 170/15G22 RMK AO2
14840KMKG MKG20021109182010311/09/02 18:20:31  5-MIN KMKG 092320Z 17013G21KT 10SM OVC029 16/12 A2949 1030 75 1400 170/13G21 RMK AO2
14840KMKG MKG20021109182510311/09/02 18:25:31  5-MIN KMKG 092325Z 17015G21KT 10SM OVC029 16/12 A2949 1030 75 1400 170/15G21 RMK AO2
14840KMKG MKG20021109183010311/09/02 18:30:31  5-MIN KMKG 092330Z 17014G19KT 10SM OVC029 16/12 A2949 1030 75 1400 180/14G19 RMK AO2
14840KMKG MKG20021109183509711/09/02 18:35:31  5-MIN KMKG 092335Z 17015KT 10SM OVC029 16/12 A2949 1040 75 1400 180/15 RMK AO2
14840KMKG MKG20021109184010311/09/02 18:40:31  5-MIN KMKG 092340Z 17012G19KT 10SM OVC029 16/12 A2948 1040 75 1400 170/12G19 RMK AO2
14840KMKG MKG20021109184509711/09/02 18:45:31  5-MIN KMKG 092345Z 17017KT 10SM OVC031 16/12 A2948 1040 75 1400 180/17 RMK AO2
14840KMKG MKG20021109185013211/09/02 18:50:31  5-MIN KMKG 092350Z 17016KT 10SM OVC032 16/12 A2948 1040 77 1400 180/16 RMK AO2 SLP984 T01610122 10172 20156 55014
14840KMKG MKG20021109185513911/09/02 18:55:31  5-MIN KMKG 092355Z 17014KT 10SM FEW025 OVC033 16/12 A2948 1040 77 1400 170/14 RMK AO2 SLP984 T01610122 10172 20156 56009
14840KMKG MKG20021109190010311/09/02 19:00:31  5-MIN KMKG 100000Z 16014G23KT 10SM OVC031 16/12 A2948 1040 77 1400 170/14G23 RMK AO2
14840KMKG MKG20021109190510311/09/02 19:05:31  5-MIN KMKG 100005Z 17015G24KT 10SM OVC031 16/12 A2948 1040 77 1500 170/15G24 RMK AO2
14840KMKG MKG20021109191010311/09/02 19:10:31  5-MIN KMKG 100010Z 17014G25KT 10SM OVC033 16/12 A2948 1040 77 1500 170/14G25 RMK AO2
14840KMKG MKG20021109191511011/09/02 19:15:31  5-MIN KMKG 100015Z 16014G25KT 10SM FEW026 OVC031 16/12 A2948 1040 77 1500 170/14G25 RMK AO2
14840KMKG MKG20021109192011011/09/02 19:20:31  5-MIN KMKG 100020Z 17013G21KT 10SM FEW026 OVC031 16/12 A2948 1040 77 1500 170/13G21 RMK AO2
14840KMKG MKG20021109192511011/09/02 19:25:31  5-MIN KMKG 100025Z 16013G21KT 10SM SCT026 OVC033 16/12 A2947 1050 77 1500 170/13G21 RMK AO2
14840KMKG MKG20021109193012511/09/02 19:30:31  5-MIN KMKG 100030Z 17012G21KT 10SM SCT026 OVC033 16/12 A2947 1050 77 1500 170/12G21 RMK AO2 CIG 026 RWY 14
14840KMKG MKG20021109193511011/09/02 19:35:31  5-MIN KMKG 100035Z 15011G21KT 10SM BKN028 OVC035 16/12 A2947 1050 77 1500 160/11G21 RMK AO2
14840KMKG MKG20021109194010411/09/02 19:40:31  5-MIN KMKG 100040Z 16009KT 10SM BKN026 OVC033 16/12 A2947 1050 77 1500 160/09 RMK AO2
14840KMKG MKG20021109194510411/09/02 19:45:31  5-MIN KMKG 100045Z 13009KT 10SM BKN026 OVC034 16/12 A2947 1050 77 1500 140/09 RMK AO2
14840KMKG MKG20021109195012711/09/02 19:50:31  5-MIN KMKG 100050Z 16013G17KT 10SM BKN026 OVC034 16/12 A2946 1050 77 1500 160/13G17 RMK AO2 SLP977 T01610122
14840KMKG MKG20021109195512011/09/02 19:55:31  5-MIN KMKG 100055Z 14010G17KT 10SM OVC026 16/12 A2946 1060 77 1500 140/10G17 RMK AO2 SLP977 T01610122
14840KMKG MKG20021109200010311/09/02 20:00:31  5-MIN KMKG 100100Z 15015G20KT 10SM OVC026 16/12 A2946 1060 77 1500 150/15G20 RMK AO2
14840KMKG MKG20021109200510311/09/02 20:05:31  5-MIN KMKG 100105Z 15009G20KT 10SM OVC026 16/12 A2946 1050 77 1500 160/09G20 RMK AO2
14840KMKG MKG20021109201010411/09/02 20:10:31  5-MIN KMKG 100110Z 15013KT 10SM BKN026 OVC031 16/12 A2946 1050 77 1500 160/13 RMK AO2
14840KMKG MKG20021109201510411/09/02 20:15:31  5-MIN KMKG 100115Z 16011KT 10SM BKN024 OVC029 16/12 A2947 1050 77 1500 160/11 RMK AO2
14840KMKG MKG20021109202010411/09/02 20:20:31  5-MIN KMKG 100120Z 16012KT 10SM BKN022 OVC029 16/12 A2947 1050 77 1500 160/12 RMK AO2
14840KMKG MKG20021109202511911/09/02 20:25:31  5-MIN KMKG 100125Z 16009KT 9SM -RA BKN022 OVC029 16/13 A2946 1050 83 1400 160/09 RMK AO2 RAB23 P0000
14840KMKG MKG20021109203011311/09/02 20:30:31  5-MIN KMKG 100130Z 16010KT 10SM -RA OVC022 16/13 A2946 1060 83 1400 160/10 RMK AO2 RAB23 P0000
14840KMKG MKG20021109203511211/09/02 20:35:31  5-MIN KMKG 100135Z 16011KT 10SM OVC022 16/13 A2946 1060 80 1500 160/11 RMK AO2 RAB23E32 P0000
14840KMKG MKG20021109204011211/09/02 20:40:31  5-MIN KMKG 100140Z 17012KT 10SM OVC022 16/13 A2946 1060 80 1500 170/12 RMK AO2 RAB23E32 P0000
14840KMKG MKG20021109204511911/09/02 20:45:31  5-MIN KMKG 100145Z 17012G17KT 10SM -RA OVC022 16/13 A2945 1070 80 1500 170/12G17 RMK AO2 RAB23 P0000
14840KMKG MKG20021109205013511/09/02 20:50:31  5-MIN KMKG 100150Z 15011G17KT 7SM -RA OVC022 16/13 A2945 1070 83 1500 160/11G17 RMK AO2 RAB23 SLP972 P0000 T01610133
14840KMKG MKG20021109205513811/09/02 20:55:31  5-MIN KMKG 100155Z 16013G19KT 6SM -RA BR OVC024 16/13 A2945 1070 86 1400 170/13G19 RMK AO2 RAB23 SLP973 P0000 T01560133
14840KMKG MKG20021109210011211/09/02 21:00:31  5-MIN KMKG 100200Z 15011G19KT 7SM -RA OVC024 16/14 A2945 1070 90 1400 160/11G19 RMK AO2 P0000
14840KMKG MKG20021109210510611/09/02 21:05:31  5-MIN KMKG 100205Z 15010KT 8SM -RA OVC024 15/14 A2945 1070 93 1400 150/10 RMK AO2 P0000
14840KMKG MKG20021109211010611/09/02 21:10:31  5-MIN KMKG 100210Z 15012KT 7SM -RA OVC026 15/14 A2945 1070 93 1400 160/12 RMK AO2 P0000
14840KMKG MKG20021109211511311/09/02 21:15:31  5-MIN KMKG 100215Z 15011KT 7SM -RA FEW019 OVC026 15/14 A2944 1070 93 1400 160/11 RMK AO2 P0000
14840KMKG MKG20021109212010611/09/02 21:20:31  5-MIN KMKG 100220Z 15011KT 7SM -RA OVC026 15/14 A2945 1070 93 1400 160/11 RMK AO2 P0001
14840KMKG MKG20021109212510911/09/02 21:25:31  5-MIN KMKG 100225Z 15010KT 6SM -RA BR OVC026 15/14 A2944 1070 93 1400 150/10 RMK AO2 P0001
14840KMKG MKG20021109213011511/09/02 21:30:31  5-MIN KMKG 100230Z 15012G17KT 6SM -RA BR OVC026 15/14 A2944 1080 93 1400 150/12G17 RMK AO2 P0001
14840KMKG MKG20021109213511511/09/02 21:35:31  5-MIN KMKG 100235Z 16013G18KT 5SM -RA BR OVC026 15/14 A2944 1080 93 1400 170/13G18 RMK AO2 P0002
14840KMKG MKG20021109214011511/09/02 21:40:31  5-MIN KMKG 100240Z 16013G18KT 5SM -RA BR OVC024 15/14 A2944 1080 93 1400 170/13G18 RMK AO2 P0002
14840KMKG MKG20021109214511511/09/02 21:45:31  5-MIN KMKG 100245Z 17014G19KT 5SM -RA BR OVC024 15/14 A2944 1080 96 1400 170/14G19 RMK AO2 P0003
14840KMKG MKG20021109215014411/09/02 21:50:31  5-MIN KMKG 100250Z 17014G19KT 5SM -RA BR OVC024 15/14 A2943 1080 96 1400 170/14G19 RMK AO2 SLP966 P0003 60003 T01500144 56009
14840KMKG MKG20021109215513811/09/02 21:55:31  5-MIN KMKG 100255Z 17013KT 5SM -RA BR OVC024 15/14 A2943 1090 93 1400 170/13 RMK AO2 SLP965 P0004 60004 T01500139 58018
14840KMKG MKG20021109220011511/09/02 22:00:31  5-MIN KMKG 100300Z 17013G18KT 6SM -RA BR OVC024 15/14 A2943 1090 93 1400 170/13G18 RMK AO2 P0000
14840KMKG MKG20021109220511611/09/02 22:05:31  5-MIN KMKG 100305Z 16011KT 6SM -RA BR BKN022 OVC027 15/14 A2942 1100 96 1400 170/11 RMK AO2 P0000
14840KMKG MKG20021109221012311/09/02 22:10:31  5-MIN KMKG 100310Z 17013KT 5SM -RA BR FEW016 BKN022 OVC027 15/14 A2942 1100 96 1400 170/13 RMK AO2 P0001
14840KMKG MKG20021109221512311/09/02 22:15:31  5-MIN KMKG 100315Z 15011KT 4SM -RA BR FEW016 BKN022 OVC027 15/14 A2941 1100 96 1400 160/11 RMK AO2 P0003
14840KMKG MKG20021109222012311/09/02 22:20:31  5-MIN KMKG 100320Z 16009KT 4SM -RA BR FEW016 BKN022 OVC027 15/14 A2941 1110 96 1400 160/09 RMK AO2 P0003
14840KMKG MKG20021109222513811/09/02 22:25:31  5-MIN KMKG 100325Z 15011KT 5SM -RA BR SCT017 BKN022 OVC027 15/14 A2941 1110 96 1400 160/11 RMK AO2 CIG 017 RWY 14 P0003
14840KMKG MKG20021109223013811/09/02 22:30:31  5-MIN KMKG 100330Z 16012KT 5SM -RA BR SCT015 BKN022 OVC031 15/14 A2941 1110 96 1400 160/12 RMK AO2 CIG 015 RWY 14 P0005
14840KMKG MKG20021109223514111/09/02 22:35:31  5-MIN KMKG 100335Z 15007G17KT 2 1/2SM +RA BR SCT014 OVC021 15/14 A2940 1120 96 1400 160/07G17 RMK AO2 CIG 013 RWY 14 P0010
14840KMKG MKG20021109224014311/09/02 22:40:31  5-MIN KMKG 100340Z 16009KT 120V190 2 1/2SM +RA BR FEW008 BKN016 OVC021 15/14 A2939 1120 96 1400 160/09 120V190 RMK AO2 P0012
14840KMKG MKG20021109224512711/09/02 22:45:31  5-MIN KMKG 100345Z 15008KT 2 1/2SM -RA BR FEW008 BKN016 OVC021 15/14 A2939 1130 96 1400 150/08 RMK AO2 P0012
14840KMKG MKG20021109225014611/09/02 22:50:31  5-MIN KMKG 100350Z 17010G18KT 4SM -RA BR FEW008 BKN014 OVC021 15/14 A2939 1130 96 1400 170/10G18 RMK AO2 SLP951 P0013 T01500144
14840KMKG MKG20021109225514611/09/02 22:55:31  5-MIN KMKG 100355Z 17018G25KT 5SM -RA BR FEW008 BKN014 OVC023 15/14 A2938 1130 96 1400 180/18G25 RMK AO2 SLP950 P0013 T01500144
14840KMKG MKG20021109230012911/09/02 23:00:31  5-MIN KMKG 100400Z 18017G25KT 6SM -RA BR FEW008 BKN016 OVC023 16/14 A2938 1130 93 1500 180/17G25 RMK AO2 P0000
14840KMKG MKG20021109230512611/09/02 23:05:31  5-MIN KMKG 100405Z 17015G21KT 7SM -RA FEW008 BKN014 OVC023 16/14 A2938 1130 93 1500 180/15G21 RMK AO2 P0000
14840KMKG MKG20021109231012611/09/02 23:10:31  5-MIN KMKG 100410Z 17017G22KT 8SM -RA FEW008 BKN014 OVC023 15/14 A2938 1140 96 1400 170/17G22 RMK AO2 P0000
14840KMKG MKG20021109231512811/09/02 23:15:31  5-MIN KMKG 100415Z 17017G22KT 8SM FEW008 BKN014 OVC023 15/14 A2937 1140 96 1400 170/17G22 RMK AO2 RAE15 P0000
14840KMKG MKG20021109232012811/09/02 23:20:31  5-MIN KMKG 100420Z 17017G22KT 7SM FEW008 BKN014 OVC023 15/14 A2937 1140 96 1500 170/17G22 RMK AO2 RAE15 P0000
14840KMKG MKG20021109232512611/09/02 23:25:31  5-MIN KMKG 100425Z 17018G22KT 7SM -RA FEW008 BKN014 OVC023 15/14 A2936 1150 96 1500 170/18G22 RMK AO2 P0000
14840KMKG MKG20021109233012611/09/02 23:30:31  5-MIN KMKG 100430Z 18016G23KT 7SM -RA FEW008 BKN014 OVC023 15/14 A2937 1150 96 1500 180/16G23 RMK AO2 P0000
14840KMKG MKG20021109233512611/09/02 23:35:31  5-MIN KMKG 100435Z 18017G23KT 7SM -RA FEW010 BKN020 OVC026 15/14 A2936 1150 96 1500 190/17G23 RMK AO2 P0000
14840KMKG MKG20021109234012611/09/02 23:40:31  5-MIN KMKG 100440Z 18016G22KT 7SM -RA FEW010 BKN020 OVC026 15/14 A2936 1150 96 1500 180/16G22 RMK AO2 P0000
14840KMKG MKG20021109234512611/09/02 23:45:31  5-MIN KMKG 100445Z 18015G22KT 7SM -RA FEW007 BKN020 OVC026 15/14 A2936 1150 96 1500 190/15G22 RMK AO2 P0000
14840KMKG MKG20021109235015711/09/02 23:50:31  5-MIN KMKG 100450Z 18012G21KT 6SM -RA BR FEW008 BKN020 OVC026 14/14 A2936 1150 100 1400 180/12G21 RMK AO2 SLP942 P0001 T01440144 401720111
14840KMKG MKG20021109235515711/09/02 23:55:31  5-MIN KMKG 100455Z 18014G19KT 5SM -RA BR FEW007 BKN020 OVC026 14/14 A2936 1150 100 1400 180/14G19 RMK AO2 SLP941 P0001 T01440144 401720111
14840KMKG MKG20021110000013011/10/02 00:00:31  5-MIN KMKG 100500Z 18015G20KT 5SM -RA BR FEW007 BKN018 OVC024 14/14 A2936 1160 100 1400 190/15G20 RMK AO2 P0000
14840KMKG MKG20021110000512311/10/02 00:05:31  5-MIN KMKG 100505Z 18015G20KT 6SM -RA BR FEW007 OVC018 14/14 A2936 1160 100 1400 190/15G20 RMK AO2 P0000
14840KMKG MKG20021110001011711/10/02 00:10:31  5-MIN KMKG 100510Z 18013KT 6SM -RA BR FEW008 OVC018 14/14 A2935 1160 100 1400 190/13 RMK AO2 P0000
14840KMKG MKG20021110001511711/10/02 00:15:31  5-MIN KMKG 100515Z 18015KT 6SM -RA BR FEW008 OVC018 14/14 A2935 1160 100 1400 180/15 RMK AO2 P0001
14840KMKG MKG20021110002011411/10/02 00:20:31  5-MIN KMKG 100520Z 18013KT 7SM -RA FEW008 OVC016 14/14 A2935 1160 100 1400 180/13 RMK AO2 P0001
14840KMKG MKG20021110002512011/10/02 00:25:31  5-MIN KMKG 100525Z 18010G19KT 7SM -RA SCT008 OVC016 14/14 A2935 1160 100 1400 180/10G19 RMK AO2 P0001
14840KMKG MKG20021110003011711/10/02 00:30:31  5-MIN KMKG 100530Z 18013KT 6SM -RA BR SCT008 OVC016 14/14 A2935 1160 100 1400 180/13 RMK AO2 P0001
14840KMKG MKG20021110003512811/10/02 00:35:31  5-MIN KMKG 100535Z 18012KT 6SM -RA BR BKN008 OVC016 14/14 A2935 1160 96 1400 180/12 RMK AO2 CIG 006V011 P0002
14840KMKG MKG20021110004013511/10/02 00:40:31  5-MIN KMKG 100540Z 18011G17KT 6SM -RA BR BKN008 OVC014 14/14 A2935 1160 100 1300 180/11G17 RMK AO2 CIG 005V010 P0002
14840KMKG MKG20021110004512611/10/02 00:45:31  5-MIN KMKG 100545Z 18013KT 7SM -RA BKN008 OVC014 14/14 A2934 1170 100 1400 180/13 RMK AO2 CIG 005V010 P0002
14840KMKG MKG20021110005016211/10/02 00:50:31  5-MIN KMKG 100550Z 19014KT 7SM OVC006 14/14 A2934 1170 100 1400 190/14 RMK AO2 RAE48 CIG 005V010 SLP936 P0002 60020 T01390139 10161 20139 58018
14840KMKG MKG20021110005516111/10/02 00:55:31  5-MIN KMKG 100555Z 19012KT 7SM OVC006 14/14 A2934 1170 96 1400 190/12 RMK AO2 RAE48 CIG 005V010 SLP935 P0002 60020 T01440139 10161 20139 56029
14840KMKG MKG20021110010010911/10/02 01:00:31  5-MIN KMKG 100600Z 19015KT 7SM OVC006 14/14 A2934 1170 100 1400 190/15 RMK AO2 CIG 005V010
14840KMKG MKG20021110010510911/10/02 01:05:31  5-MIN KMKG 100605Z 19014KT 7SM OVC006 14/14 A2934 1170 100 1400 190/14 RMK AO2 CIG 005V010
14840KMKG MKG20021110011010911/10/02 01:10:31  5-MIN KMKG 100610Z 19014KT 8SM OVC006 14/14 A2934 1170 100 1400 190/14 RMK AO2 CIG 005V010
14840KMKG MKG20021110011510911/10/02 01:15:31  5-MIN KMKG 100615Z 19012KT 8SM OVC006 14/14 A2934 1170 100 1400 190/12 RMK AO2 CIG 005V010
14840KMKG MKG20021110012010811/10/02 01:20:31  5-MIN KMKG 100620Z 19013KT 8SM OVC006 14/14 A2933 1180 96 1400 190/13 RMK AO2 CIG 005V009
14840KMKG MKG20021110012511511/10/02 01:25:31  5-MIN KMKG 100625Z 19013G18KT 8SM OVC006 14/14 A2933 1180 100 1400 190/13G18 RMK AO2 CIG 004V010
14840KMKG MKG20021110013011511/10/02 01:30:31  5-MIN KMKG 100630Z 18014G18KT 8SM OVC006 14/14 A2933 1180 100 1400 180/14G18 RMK AO2 CIG 004V010
14840KMKG MKG20021110013510911/10/02 01:35:31  5-MIN KMKG 100635Z 19012KT 8SM OVC006 14/14 A2933 1180 100 1400 190/12 RMK AO2 CIG 004V010
14840KMKG MKG20021110014013211/10/02 01:40:31  5-MIN KMKG 100640Z 19011KT 8SM -RA BKN006 OVC011 14/14 A2933 1180 100 1400 190/11 RMK AO2 RAB36 CIG 004V009 P0000
14840KMKG MKG20021110014513211/10/02 01:45:31  5-MIN KMKG 100645Z 18013KT 9SM -RA BKN006 OVC010 14/14 A2933 1180 100 1400 190/13 RMK AO2 RAB36 CIG 004V009 P0000
14840KMKG MKG20021110015014911/10/02 01:50:31  5-MIN KMKG 100650Z 19011KT 10SM BKN006 OVC010 14/14 A2933 1180 100 1400 190/11 RMK AO2 RAB36E46 CIG 004V008 SLP930 P0000 T01390139
14840KMKG MKG20021110015514811/10/02 01:55:31  5-MIN KMKG 100655Z 18010KT 9SM BKN004 OVC010 14/14 A2933 1190 100 1400 190/10 RMK AO2 RAB36E46 CIG 004V008 SLP929 P0000 T01440144
14840KMKG MKG20021110020011011/10/02 02:00:31  5-MIN KMKG 100700Z 19010G17KT 9SM BKN004 OVC010 14/14 A2932 1190 100 1400 190/10G17 RMK AO2
14840KMKG MKG20021110020509711/10/02 02:05:31  5-MIN KMKG 100705Z 19012KT 9SM OVC004 14/14 A2932 1190 100 1400 190/12 RMK AO2
14840KMKG MKG20021110021009811/10/02 02:10:31  5-MIN KMKG 100710Z 18011KT 10SM OVC004 14/14 A2932 1190 100 1400 190/11 RMK AO2
14840KMKG MKG20021110021509711/10/02 02:15:31  5-MIN KMKG 100715Z 19012KT 9SM OVC004 14/14 A2932 1190 100 1400 190/12 RMK AO2
14840KMKG MKG20021110022009711/10/02 02:20:31  5-MIN KMKG 100720Z 18013KT 8SM OVC004 14/14 A2932 1190 100 1400 190/13 RMK AO2
14840KMKG MKG20021110022509711/10/02 02:25:31  5-MIN KMKG 100725Z 18010KT 7SM OVC004 14/14 A2932 1190 100 1400 180/10 RMK AO2
14840KMKG MKG20021110023009711/10/02 02:30:31  5-MIN KMKG 100730Z 18012KT 7SM OVC004 14/14 A2932 1190 100 1400 180/12 RMK AO2
14840KMKG MKG20021110023509711/10/02 02:35:31  5-MIN KMKG 100735Z 18012KT 7SM OVC004 14/14 A2932 1190 100 1400 180/12 RMK AO2
14840KMKG MKG20021110024009711/10/02 02:40:31  5-MIN KMKG 100740Z 18011KT 7SM OVC004 14/14 A2932 1190 100 1400 190/11 RMK AO2
14840KMKG MKG20021110024509711/10/02 02:45:31  5-MIN KMKG 100745Z 18011KT 7SM OVC004 14/14 A2932 1190 100 1400 180/11 RMK AO2
14840KMKG MKG20021110025011711/10/02 02:50:31  5-MIN KMKG 100750Z 18011KT 6SM BR OVC004 14/14 A2932 1190 100 1400 180/11 RMK AO2 SLP926 T01390139
14840KMKG MKG20021110025511711/10/02 02:55:31  5-MIN KMKG 100755Z 18012KT 6SM BR OVC004 14/14 A2932 1190 100 1400 190/12 RMK AO2 SLP926 T01390139
14840KMKG MKG20021110030010011/10/02 03:00:31  5-MIN KMKG 100800Z 18010KT 5SM BR OVC004 14/14 A2931 1200 100 1400 190/10 RMK AO2
14840KMKG MKG20021110030510011/10/02 03:05:31  5-MIN KMKG 100805Z 19012KT 5SM BR OVC004 14/14 A2931 1200 100 1500 190/12 RMK AO2
14840KMKG MKG20021110031011211/10/02 03:10:31  5-MIN KMKG 100810Z 19013KT 5SM BR OVC004 14/14 A2931 1200 100 1500 190/13 RMK AO2 CIG 003V008
14840KMKG MKG20021110031510011/10/02 03:15:31  5-MIN KMKG 100815Z 19012KT 5SM BR OVC004 14/14 A2931 1200 100 1500 190/12 RMK AO2
14840KMKG MKG20021110032011811/10/02 03:20:31  5-MIN KMKG 100820Z 19013G18KT 4SM BR OVC004 14/14 A2931 1200 100 1500 190/13G18 RMK AO2 CIG 004V008
14840KMKG MKG20021110032511811/10/02 03:25:31  5-MIN KMKG 100825Z 19015G19KT 4SM BR OVC004 14/14 A2931 1200 100 1500 190/15G19 RMK AO2 CIG 004V008
14840KMKG MKG20021110033010011/10/02 03:30:31  5-MIN KMKG 100830Z 19015KT 5SM BR OVC004 14/14 A2931 1200 100 1500 190/15 RMK AO2
14840KMKG MKG20021110033510011/10/02 03:35:31  5-MIN KMKG 100835Z 19015KT 5SM BR OVC004 14/14 A2930 1210 100 1400 190/15 RMK AO2
14840KMKG MKG20021110034010611/10/02 03:40:31  5-MIN KMKG 100840Z 18012G20KT 5SM BR OVC004 14/14 A2930 1210 100 1400 190/12G20 RMK AO2
14840KMKG MKG20021110034510611/10/02 03:45:31  5-MIN KMKG 100845Z 18013G21KT 6SM BR OVC004 14/14 A2930 1210 100 1400 190/13G21 RMK AO2
14840KMKG MKG20021110035013511/10/02 03:50:31  5-MIN KMKG 100850Z 18016G21KT 6SM BR OVC004 14/14 A2930 1210 100 1400 190/16G21 RMK AO2 SLP919 60000 T01390139 56029
14840KMKG MKG20021110035514711/10/02 03:55:31  5-MIN KMKG 100855Z 18012G21KT 6SM BR OVC006 14/14 A2929 1220 100 1400 180/12G21 RMK AO2 CIG 004V010 SLP918 60000 T01390139 58017
14840KMKG MKG20021110040010411/10/02 04:00:31  5-MIN KMKG 100900Z 18013KT 7SM BKN006 OVC009 14/14 A2929 1220 100 1400 190/13 RMK AO2
14840KMKG MKG20021110040511011/10/02 04:05:31  5-MIN KMKG 100905Z 18013G21KT 7SM BKN006 OVC009 14/14 A2929 1220 100 1400 190/13G21 RMK AO2
14840KMKG MKG20021110041011011/10/02 04:10:31  5-MIN KMKG 100910Z 18015G21KT 7SM BKN006 OVC009 14/14 A2929 1220 100 1400 190/15G21 RMK AO2
14840KMKG MKG20021110041511011/10/02 04:15:31  5-MIN KMKG 100915Z 18013G21KT 7SM BKN006 OVC009 14/14 A2929 1220 100 1400 190/13G21 RMK AO2
14840KMKG MKG20021110042011011/10/02 04:20:31  5-MIN KMKG 100920Z 19015G20KT 7SM BKN006 OVC009 14/14 A2929 1220 100 1400 190/15G20 RMK AO2
14840KMKG MKG20021110042510911/10/02 04:25:31  5-MIN KMKG 100925Z 19012G20KT 7SM BKN006 OVC009 14/13 A2929 1220 96 1400 190/12G20 RMK AO2
14840KMKG MKG20021110043011011/10/02 04:30:31  5-MIN KMKG 100930Z 17015G19KT 7SM BKN006 OVC009 14/14 A2929 1220 100 1400 180/15G19 RMK AO2
14840KMKG MKG20021110043510911/10/02 04:35:31  5-MIN KMKG 100935Z 18013G19KT 7SM BKN006 OVC009 14/13 A2928 1230 96 1400 180/13G19 RMK AO2
14840KMKG MKG20021110044009611/10/02 04:40:31  5-MIN KMKG 100940Z 18014KT 7SM OVC006 14/13 A2928 1230 96 1400 190/14 RMK AO2
14840KMKG MKG20021110044510411/10/02 04:45:31  5-MIN KMKG 100945Z 18014KT 7SM BKN006 OVC009 14/14 A2928 1230 100 1400 190/14 RMK AO2
14840KMKG MKG20021110045012111/10/02 04:50:31  5-MIN KMKG 100950Z 18014KT 7SM BKN006 OVC009 14/14 A2928 1230 100 1400 190/14 RMK AO2 SLP913 T01390139
14840KMKG MKG20021110045512711/10/02 04:55:31  5-MIN KMKG 100955Z 18013G20KT 7SM BKN006 OVC010 14/14 A2927 1230 100 1400 190/13G20 RMK AO2 SLP911 T01390139
14840KMKG MKG20021110050012211/10/02 05:00:31  5-MIN KMKG 101000Z 18013G21KT 7SM BKN006 OVC010 14/14 A2927 1230 100 1400 190/13G21 RMK AO2 CIG 004V009
14840KMKG MKG20021110050512211/10/02 05:05:31  5-MIN KMKG 101005Z 18016G21KT 7SM BKN006 OVC012 14/14 A2928 1230 100 1400 190/16G21 RMK AO2 CIG 005V009
14840KMKG MKG20021110051012211/10/02 05:10:31  5-MIN KMKG 101010Z 19017G25KT 8SM BKN006 OVC012 14/14 A2927 1230 100 1400 190/17G25 RMK AO2 CIG 005V009
14840KMKG MKG20021110051510911/10/02 05:15:31  5-MIN KMKG 101015Z 18016G25KT 8SM BKN006 OVC012 14/14 A2927 1230 96 1500 190/16G25 RMK AO2
14840KMKG MKG20021110052012111/10/02 05:20:31  5-MIN KMKG 101020Z 18015G21KT 8SM BKN008 OVC012 14/14 A2927 1230 96 1500 180/15G21 RMK AO2 CIG 005V011
14840KMKG MKG20021110052510311/10/02 05:25:31  5-MIN KMKG 101025Z 18014KT 8SM SCT008 OVC014 14/14 A2927 1230 96 1500 190/14 RMK AO2
14840KMKG MKG20021110053010911/10/02 05:30:31  5-MIN KMKG 101030Z 18015G21KT 8SM SCT008 OVC014 14/14 A2927 1240 96 1500 190/15G21 RMK AO2
14840KMKG MKG20021110053510911/10/02 05:35:31  5-MIN KMKG 101035Z 18014G21KT 8SM SCT008 OVC014 14/14 A2927 1240 96 1500 190/14G21 RMK AO2
14840KMKG MKG20021110054010911/10/02 05:40:31  5-MIN KMKG 101040Z 18017G21KT 8SM FEW008 OVC014 14/14 A2927 1240 96 1500 180/17G21 RMK AO2
14840KMKG MKG20021110054511611/10/02 05:45:31  5-MIN KMKG 101045Z 18017G23KT 8SM FEW008 BKN014 OVC041 14/14 A2927 1240 96 1500 190/17G23 RMK AO2
14840KMKG MKG20021110055013311/10/02 05:50:31  5-MIN KMKG 101050Z 18016G23KT 8SM FEW008 BKN014 OVC021 14/14 A2927 1240 96 1500 180/16G23 RMK AO2 SLP910 T01440139
14840KMKG MKG20021110055513311/10/02 05:55:31  5-MIN KMKG 101055Z 18018G23KT 8SM FEW008 BKN014 OVC021 14/14 A2927 1240 96 1500 190/18G23 RMK AO2 SLP910 T01440139
14840KMKG MKG20021110060010911/10/02 06:00:31  5-MIN KMKG 101100Z 18017G23KT 8SM FEW008 OVC014 14/14 A2927 1240 96 1500 190/17G23 RMK AO2
14840KMKG MKG20021110060510911/10/02 06:05:31  5-MIN KMKG 101105Z 18016G21KT 8SM FEW008 OVC016 14/14 A2927 1240 96 1500 190/16G21 RMK AO2
14840KMKG MKG20021110061010911/10/02 06:10:31  5-MIN KMKG 101110Z 18017G21KT 8SM FEW008 OVC016 14/14 A2927 1240 96 1500 190/17G21 RMK AO2
14840KMKG MKG20021110061510911/10/02 06:15:31  5-MIN KMKG 101115Z 18015G21KT 8SM FEW008 OVC016 14/14 A2927 1240 96 1500 190/15G21 RMK AO2
14840KMKG MKG20021110062010911/10/02 06:20:31  5-MIN KMKG 101120Z 18013G23KT 8SM FEW008 OVC016 14/14 A2927 1230 96 1500 190/13G23 RMK AO2
14840KMKG MKG20021110062510911/10/02 06:25:31  5-MIN KMKG 101125Z 18018G23KT 8SM FEW008 OVC016 14/14 A2927 1240 96 1500 190/18G23 RMK AO2
14840KMKG MKG20021110063010911/10/02 06:30:31  5-MIN KMKG 101130Z 18015G23KT 8SM FEW008 OVC016 14/14 A2927 1240 96 1500 190/15G23 RMK AO2
14840KMKG MKG20021110063510211/10/02 06:35:31  5-MIN KMKG 101135Z 18015G23KT 8SM OVC016 14/14 A2927 1240 96 1500 180/15G23 RMK AO2
14840KMKG MKG20021110064010211/10/02 06:40:31  5-MIN KMKG 101140Z 18015G20KT 8SM OVC016 14/14 A2927 1240 96 1500 190/15G20 RMK AO2
14840KMKG MKG20021110064510211/10/02 06:45:31  5-MIN KMKG 101145Z 18015G20KT 8SM OVC014 14/14 A2927 1240 96 1500 190/15G20 RMK AO2
14840KMKG MKG20021110065014911/10/02 06:50:31  5-MIN KMKG 101150Z 18013G20KT 8SM OVC014 14/14 A2926 1240 96 1500 180/13G20 RMK AO2 SLP908 60000 70020 T01440139 10144 20139 58017
14840KMKG MKG20021110065514911/10/02 06:55:31  5-MIN KMKG 101155Z 18016G20KT 8SM OVC014 14/14 A2927 1240 96 1500 180/16G20 RMK AO2 SLP909 60000 70020 T01440139 10144 20139 56009
14840KMKG MKG20021110070010211/10/02 07:00:31  5-MIN KMKG 101200Z 18014G19KT 8SM OVC014 14/14 A2927 1240 96 1500 190/14G19 RMK AO2
14840KMKG MKG20021110070510311/10/02 07:05:31  5-MIN KMKG 101205Z 18016KT 8SM BKN011 OVC016 15/14 A2927 1240 96 1600 190/16 RMK AO2
14840KMKG MKG20021110071010211/10/02 07:10:31  5-MIN KMKG 101210Z 19014G21KT 8SM OVC011 15/14 A2927 1240 96 1600 190/14G21 RMK AO2
14840KMKG MKG20021110071511411/10/02 07:15:31  5-MIN KMKG 101215Z 19014G21KT 8SM OVC011 15/14 A2927 1240 96 1600 190/14G21 RMK AO2 CIG 007V012
14840KMKG MKG20021110072010811/10/02 07:20:31  5-MIN KMKG 101220Z 19016KT 8SM OVC009 15/14 A2927 1230 96 1600 200/16 RMK AO2 CIG 007V014
14840KMKG MKG20021110072511411/10/02 07:25:31  5-MIN KMKG 101225Z 19015G22KT 7SM OVC009 15/14 A2928 1230 96 1600 190/15G22 RMK AO2 CIG 007V013
14840KMKG MKG20021110073011411/10/02 07:30:31  5-MIN KMKG 101230Z 19017G22KT 7SM OVC009 14/14 A2928 1230 96 1500 190/17G22 RMK AO2 CIG 007V013
14840KMKG MKG20021110073511411/10/02 07:35:31  5-MIN KMKG 101235Z 20016G22KT 7SM OVC009 14/14 A2928 1230 96 1500 200/16G22 RMK AO2 CIG 007V013
14840KMKG MKG20021110074010811/10/02 07:40:31  5-MIN KMKG 101240Z 19017KT 7SM OVC009 14/14 A2928 1230 96 1500 190/17 RMK AO2 CIG 007V013
14840KMKG MKG20021110074511411/10/02 07:45:31  5-MIN KMKG 101245Z 19016G25KT 8SM OVC009 14/14 A2929 1220 96 1500 190/16G25 RMK AO2 CIG 007V013
14840KMKG MKG20021110075013111/10/02 07:50:31  5-MIN KMKG 101250Z 19016G25KT 8SM OVC009 14/14 A2929 1220 96 1500 190/16G25 RMK AO2 CIG 007V011 SLP916 T01440139
14840KMKG MKG20021110075511911/10/02 07:55:31  5-MIN KMKG 101255Z 19017G22KT 8SM OVC009 14/14 A2929 1220 96 1500 200/17G22 RMK AO2 SLP918 T01440139
14840KMKG MKG20021110080011411/10/02 08:00:31  5-MIN KMKG 101300Z 19016G22KT 8SM OVC009 14/14 A2929 1220 96 1500 190/16G22 RMK AO2 CIG 006V012
14840KMKG MKG20021110080511411/10/02 08:05:31  5-MIN KMKG 101305Z 18017G23KT 7SM OVC009 14/14 A2929 1220 96 1500 190/17G23 RMK AO2 CIG 006V012
14840KMKG MKG20021110081011011/10/02 08:10:31  5-MIN KMKG 101310Z 19014G23KT 7SM SCT007 OVC011 14/14 A2929 1220 100 1400 190/14G23 RMK AO2
14840KMKG MKG20021110081510711/10/02 08:15:31  5-MIN KMKG 101315Z 19014KT 6SM BR SCT007 OVC011 14/14 A2929 1220 100 1400 190/14 RMK AO2
14840KMKG MKG20021110082011311/10/02 08:20:31  5-MIN KMKG 101320Z 18016G20KT 6SM BR SCT007 OVC011 14/14 A2929 1220 100 1400 190/16G20 RMK AO2
14840KMKG MKG20021110082511311/10/02 08:25:31  5-MIN KMKG 101325Z 18015G22KT 6SM BR BKN007 OVC011 14/14 A2929 1220 100 1400 190/15G22 RMK AO2
14840KMKG MKG20021110083012811/10/02 08:30:31  5-MIN KMKG 101330Z 18014G22KT 6SM BR SCT007 OVC013 14/14 A2928 1220 100 1400 190/14G22 RMK AO2 CIG 008 RWY 14
14840KMKG MKG20021110083512111/10/02 08:35:31  5-MIN KMKG 101335Z 19016KT 6SM BR SCT007 OVC013 14/14 A2929 1220 96 1500 190/16 RMK AO2 CIG 008 RWY 14
14840KMKG MKG20021110084012111/10/02 08:40:31  5-MIN KMKG 101340Z 18015KT 6SM BR SCT007 OVC013 14/14 A2929 1220 96 1500 190/15 RMK AO2 CIG 008 RWY 14
14840KMKG MKG20021110084512111/10/02 08:45:31  5-MIN KMKG 101345Z 19015KT 6SM BR SCT007 OVC013 14/14 A2929 1220 96 1500 190/15 RMK AO2 CIG 008 RWY 14
14840KMKG MKG20021110085012911/10/02 08:50:31  5-MIN KMKG 101350Z 19018G23KT 6SM BR FEW007 OVC013 14/14 A2929 1220 96 1500 190/18G23 RMK AO2 SLP917 T01440139
14840KMKG MKG20021110085512911/10/02 08:55:31  5-MIN KMKG 101355Z 19015G23KT 6SM BR FEW007 OVC013 14/14 A2929 1220 96 1500 200/15G23 RMK AO2 SLP916 T01440139
14840KMKG MKG20021110090011211/10/02 09:00:31  5-MIN KMKG 101400Z 18017G23KT 6SM BR FEW007 OVC015 14/14 A2928 1230 96 1500 190/17G23 RMK AO2
14840KMKG MKG20021110090511211/10/02 09:05:31  5-MIN KMKG 101405Z 18015G21KT 6SM BR FEW007 OVC015 15/14 A2928 1230 96 1600 190/15G21 RMK AO2
14840KMKG MKG20021110091011211/10/02 09:10:31  5-MIN KMKG 101410Z 19014G21KT 6SM BR FEW007 OVC015 15/14 A2928 1230 96 1600 190/14G21 RMK AO2
14840KMKG MKG20021110091510311/10/02 09:15:31  5-MIN KMKG 101415Z 18012KT 7SM FEW007 OVC015 15/14 A2928 1230 96 1600 190/12 RMK AO2
14840KMKG MKG20021110092010911/10/02 09:20:31  5-MIN KMKG 101420Z 19015G22KT 7SM FEW007 OVC015 15/14 A2928 1230 96 1600 190/15G22 RMK AO2
14840KMKG MKG20021110092510911/10/02 09:25:31  5-MIN KMKG 101425Z 19015G22KT 7SM SCT007 OVC015 15/14 A2928 1230 96 1600 190/15G22 RMK AO2
14840KMKG MKG20021110093010911/10/02 09:30:31  5-MIN KMKG 101430Z 19014G22KT 7SM SCT007 OVC015 15/14 A2928 1230 96 1600 190/14G22 RMK AO2
14840KMKG MKG20021110093510911/10/02 09:35:31  5-MIN KMKG 101435Z 19016G22KT 7SM BKN007 OVC015 15/14 A2928 1230 96 1600 190/16G22 RMK AO2
14840KMKG MKG20021110094010911/10/02 09:40:31  5-MIN KMKG 101440Z 19016G21KT 7SM BKN007 OVC017 15/14 A2927 1230 96 1600 190/16G21 RMK AO2
14840KMKG MKG20021110094510611/10/02 09:45:31  5-MIN KMKG 101445Z 19015KT 6SM BR BKN007 OVC017 15/14 A2927 1240 96 1600 190/15 RMK AO2
14840KMKG MKG20021110095013511/10/02 09:50:31  5-MIN KMKG 101450Z 19016G22KT 6SM BR BKN007 OVC019 15/14 A2927 1230 96 1600 190/16G22 RMK AO2 SLP911 T01500144 56009
14840KMKG MKG20021110095513511/10/02 09:55:31  5-MIN KMKG 101455Z 18015G22KT 6SM BR BKN007 OVC019 15/14 A2927 1240 96 1600 180/15G22 RMK AO2 SLP910 T01500144 50001
14840KMKG MKG20021110100010611/10/02 10:00:31  5-MIN KMKG 101500Z 18017KT 6SM BR BKN007 OVC019 15/14 A2927 1230 96 1600 190/17 RMK AO2
14840KMKG MKG20021110100511211/10/02 10:05:31  5-MIN KMKG 101505Z 19017G23KT 6SM BR BKN007 OVC019 15/14 A2928 1230 96 1600 190/17G23 RMK AO2
14840KMKG MKG20021110101011211/10/02 10:10:31  5-MIN KMKG 101510Z 19016G23KT 6SM BR BKN007 OVC021 15/14 A2928 1230 96 1600 190/16G23 RMK AO2
14840KMKG MKG20021110101512711/10/02 10:15:31  5-MIN KMKG 101515Z 19019G23KT 6SM BR SCT007 OVC021 15/14 A2928 1230 96 1600 200/19G23 RMK AO2 CIG 007 RWY 14
14840KMKG MKG20021110102012711/10/02 10:20:31  5-MIN KMKG 101520Z 20017G23KT 6SM BR SCT007 OVC021 15/14 A2929 1220 96 1500 200/17G23 RMK AO2 CIG 007 RWY 14
14840KMKG MKG20021110102511211/10/02 10:25:31  5-MIN KMKG 101525Z 19016G21KT 6SM BR BKN007 OVC021 15/14 A2929 1220 96 1500 200/16G21 RMK AO2
14840KMKG MKG20021110103012811/10/02 10:30:31  5-MIN KMKG 101530Z 19015KT 5SM BR SCT007 BKN011 OVC024 15/14 A2929 1220 96 1500 190/15 RMK AO2 CIG 007 RWY 14
14840KMKG MKG20021110103513411/10/02 10:35:31  5-MIN KMKG 101535Z 19016G22KT 5SM BR SCT007 BKN011 OVC024 14/14 A2928 1220 96 1500 190/16G22 RMK AO2 CIG 007 RWY 14
14840KMKG MKG20021110104014911/10/02 10:40:31  5-MIN KMKG 101540Z 19015G22KT 2 1/2SM BR SCT007 SCT010 OVC022 14/14 A2929 1220 100 1500 200/15G22 RMK AO2 SFC VIS 5 CIG 007 RWY 14
14840KMKG MKG20021110104514211/10/02 10:45:31  5-MIN KMKG 101545Z 18014KT 2 1/2SM BR SCT007 BKN022 OVC028 14/14 A2928 1220 96 1500 180/14 RMK AO2 SFC VIS 5 CIG 007 RWY 14
14840KMKG MKG20021110105014011/10/02 10:50:31  5-MIN KMKG 101550Z 19014KT 3SM BR FEW007 BKN022 OVC030 14/14 A2929 1220 96 1500 190/14 RMK AO2 SFC VIS 5 SLP916 T01440139
14840KMKG MKG20021110105516111/10/02 10:55:31  5-MIN KMKG 101555Z 19014G20KT 3SM BR SCT005 BKN022 OVC032 14/14 A2929 1220 96 1500 190/14G20 RMK AO2 SFC VIS 5 CIG 007 RWY 14 SLP916 T01440139
14840KMKG MKG20021110110014711/10/02 11:00:31  5-MIN KMKG 101600Z 19013G21KT 3SM -RA BR BKN005 BKN022 OVC032 14/14 A2928 1220 96 1500 190/13G21 RMK AO2 SFC VIS 5 RAB1556 P0000
14840KMKG MKG20021110110514611/10/02 11:05:31  5-MIN KMKG 101605Z 19016G21KT 3SM BR BKN005 BKN022 OVC032 15/14 A2929 1220 96 1500 200/16G21 RMK AO2 SFC VIS 5 RAB1556E05 P0000
14840KMKG MKG20021110111014011/10/02 11:10:31  5-MIN KMKG 101610Z 19015KT 3SM BR BKN005 BKN022 OVC032 15/14 A2929 1220 96 1500 200/15 RMK AO2 SFC VIS 5 RAB1556E05 P0000
14840KMKG MKG20021110111514011/10/02 11:15:31  5-MIN KMKG 101615Z 20013KT 3SM BR BKN005 BKN010 OVC032 15/14 A2929 1220 96 1500 200/13 RMK AO2 SFC VIS 5 RAB1556E05 P0000
14840KMKG MKG20021110112013911/10/02 11:20:31  5-MIN KMKG 101620Z 20015G20KT 3SM BR BKN005 OVC010 15/14 A2928 1220 96 1500 200/15G20 RMK AO2 SFC VIS 5 RAB1556E05 P0000
14840KMKG MKG20021110112513311/10/02 11:25:31  5-MIN KMKG 101625Z 19014KT 3SM BR BKN005 OVC010 15/14 A2929 1220 93 1500 200/14 RMK AO2 SFC VIS 5 RAB1556E05 P0000
14840KMKG MKG20021110113012611/10/02 11:30:31  5-MIN KMKG 101630Z 19014KT 3SM BR OVC005 14/14 A2929 1220 96 1500 200/14 RMK AO2 SFC VIS 5 RAB1556E05 P0000
14840KMKG MKG20021110113513811/10/02 11:35:31  5-MIN KMKG 101635Z 20015KT 3SM BR OVC005 14/14 A2929 1220 96 1500 200/15 RMK AO2 SFC VIS 4 RAB1556E05 CIG 005V011 P0000
14840KMKG MKG20021110114013311/10/02 11:40:31  5-MIN KMKG 101640Z 20014KT 3SM BR BKN005 OVC014 14/14 A2929 1220 96 1500 200/14 RMK AO2 SFC VIS 4 RAB1556E05 P0000
14840KMKG MKG20021110114513311/10/02 11:45:31  5-MIN KMKG 101645Z 20015KT 3SM BR BKN005 OVC017 14/14 A2929 1220 96 1500 200/15 RMK AO2 SFC VIS 4 RAB1556E05 P0000
14840KMKG MKG20021110115015711/10/02 11:50:31  5-MIN KMKG 101650Z 20013KT 3SM BR BKN005 BKN014 OVC019 14/14 A2929 1220 96 1500 200/13 RMK AO2 SFC VIS 4 RAB1556E05 SLP917 P0000 T01440139
14840KMKG MKG20021110115515711/10/02 11:55:31  5-MIN KMKG 101655Z 19013KT 3SM BR BKN005 BKN014 OVC019 14/14 A2928 1220 96 1500 200/13 RMK AO2 SFC VIS 4 RAB1556E05 SLP916 P0000 T01440139
14840KMKG MKG20021110120011311/10/02 12:00:31  5-MIN KMKG 101700Z 19013KT 4SM BR BKN005 BKN014 OVC021 15/14 A2929 1220 96 1500 200/13 RMK AO2
14840KMKG MKG20021110120511311/10/02 12:05:31  5-MIN KMKG 101705Z 19014KT 5SM BR BKN005 BKN019 OVC043 15/14 A2928 1230 96 1600 190/14 RMK AO2
14840KMKG MKG20021110121011311/10/02 12:10:31  5-MIN KMKG 101710Z 20013KT 5SM BR BKN005 BKN019 OVC041 16/14 A2928 1230 93 1600 200/13 RMK AO2
14840KMKG MKG20021110121511311/10/02 12:15:31  5-MIN KMKG 101715Z 20014KT 5SM BR BKN005 BKN019 OVC038 16/14 A2928 1230 93 1600 200/14 RMK AO2
14840KMKG MKG20021110122012811/10/02 12:20:31  5-MIN KMKG 101720Z 20014KT 5SM BR SCT005 BKN023 OVC036 16/14 A2928 1220 93 1600 200/14 RMK AO2 CIG 005 RWY 14
14840KMKG MKG20021110122511911/10/02 12:25:31  5-MIN KMKG 101725Z 20016G20KT 5SM BR SCT005 BKN023 OVC038 16/14 A2929 1220 93 1600 200/16G20 RMK AO2
14840KMKG MKG20021110123011911/10/02 12:30:31  5-MIN KMKG 101730Z 20015G21KT 5SM BR SCT005 BKN023 OVC036 16/14 A2929 1220 93 1600 200/15G21 RMK AO2
14840KMKG MKG20021110123511911/10/02 12:35:31  5-MIN KMKG 101735Z 21016G21KT 4SM BR FEW005 BKN023 OVC036 15/14 A2929 1220 93 1500 210/16G21 RMK AO2
14840KMKG MKG20021110124011311/10/02 12:40:31  5-MIN KMKG 101740Z 21016KT 4SM BR FEW005 BKN023 OVC036 14/14 A2929 1220 96 1500 210/16 RMK AO2
14840KMKG MKG20021110124511311/10/02 12:45:31  5-MIN KMKG 101745Z 21014KT 4SM BR FEW005 BKN021 OVC036 14/14 A2929 1220 96 1500 210/14 RMK AO2
14840KMKG MKG20021110125015411/10/02 12:50:31  5-MIN KMKG 101750Z 21013KT 4SM BR FEW005 BKN021 OVC034 14/14 A2929 1220 96 1500 210/13 RMK AO2 SLP917 60000 T01440139 10156 20139 50001
14840KMKG MKG20021110125516011/10/02 12:55:31  5-MIN KMKG 101755Z 21014G20KT 4SM BR FEW005 BKN021 BKN027 15/14 A2929 1220 93 1500 210/14G20 RMK AO2 SLP917 60000 T01500139 10156 20139 51006
14840KMKG MKG20021110130011311/10/02 13:00:31  5-MIN KMKG 101800Z 21016KT 4SM BR BKN021 BKN027 BKN034 15/14 A2929 1220 93 1500 210/16 RMK AO2
14840KMKG MKG20021110130511311/10/02 13:05:31  5-MIN KMKG 101805Z 21015KT 4SM BR FEW015 BKN021 BKN027 14/14 A2929 1210 96 1500 210/15 RMK AO2
14840KMKG MKG20021110131011311/10/02 13:10:31  5-MIN KMKG 101810Z 22016KT 4SM BR BKN015 BKN020 BKN025 14/14 A2930 1210 96 1500 220/16 RMK AO2
14840KMKG MKG20021110131511211/10/02 13:15:31  5-MIN KMKG 101815Z 22016G20KT 4SM BR BKN015 BKN020 14/14 A2930 1210 96 1500 230/16G20 RMK AO2
14840KMKG MKG20021110132011211/10/02 13:20:31  5-MIN KMKG 101820Z 22014G20KT 4SM BR BKN015 BKN022 14/14 A2929 1210 96 1500 230/14G20 RMK AO2
14840KMKG MKG20021110132510611/10/02 13:25:31  5-MIN KMKG 101825Z 22015KT 3SM BR BKN015 OVC022 14/14 A2930 1210 96 1500 230/15 RMK AO2
14840KMKG MKG20021110133011311/10/02 13:30:31  5-MIN KMKG 101830Z 22013KT 3SM BR BKN015 BKN022 OVC031 14/13 A2930 1210 96 1400 220/13 RMK AO2
14840KMKG MKG20021110133511311/10/02 13:35:31  5-MIN KMKG 101835Z 22013KT 3SM BR FEW008 BKN013 OVC031 14/13 A2930 1210 96 1400 230/13 RMK AO2
14840KMKG MKG20021110134011911/10/02 13:40:31  5-MIN KMKG 101840Z 23011G19KT 3SM BR SCT008 BKN013 OVC022 14/13 A2930 1210 96 1400 230/11G19 RMK AO2
14840KMKG MKG20021110134512811/10/02 13:45:31  5-MIN KMKG 101845Z 22012KT 3SM BR SCT008 BKN013 OVC022 14/13 A2930 1210 96 1400 220/12 RMK AO2 CIG 006 RWY 14
14840KMKG MKG20021110135013011/10/02 13:50:31  5-MIN KMKG 101850Z 23012KT 3SM BR BKN006 BKN013 OVC022 14/13 A2931 1200 96 1400 230/12 RMK AO2 SLP924 T01390133
14840KMKG MKG20021110135512311/10/02 13:55:31  5-MIN KMKG 101855Z 23011KT 3SM BR BKN006 OVC013 13/13 A2931 1200 96 1300 240/11 RMK AO2 SLP924 T01330128
14840KMKG MKG20021110140011011/10/02 14:00:31  5-MIN KMKG 101900Z 23011KT 2 1/2SM BR BKN006 OVC009 13/13 A2931 1200 96 1300 230/11 RMK AO2
14840KMKG MKG20021110140510311/10/02 14:05:31  5-MIN KMKG 101905Z 23012KT 2 1/2SM BR OVC006 13/13 A2931 1200 96 1300 240/12 RMK AO2
14840KMKG MKG20021110141010311/10/02 14:10:31  5-MIN KMKG 101910Z 23010KT 2 1/2SM BR OVC006 13/13 A2930 1210 96 1300 240/10 RMK AO2
14840KMKG MKG20021110141510311/10/02 14:15:31  5-MIN KMKG 101915Z 23009KT 2 1/2SM BR OVC006 13/13 A2931 1200 96 1300 240/09 RMK AO2
14840KMKG MKG20021110142010311/10/02 14:20:31  5-MIN KMKG 101920Z 23008KT 2 1/2SM BR OVC006 13/13 A2931 1200 96 1300 230/08 RMK AO2
14840KMKG MKG20021110142511011/10/02 14:25:31  5-MIN KMKG 101925Z 24009KT 2 1/2SM BR BKN006 OVC016 13/13 A2931 1200 96 1300 240/09 RMK AO2
14840KMKG MKG20021110143011011/10/02 14:30:31  5-MIN KMKG 101930Z 24010KT 2 1/2SM BR BKN006 OVC016 13/13 A2931 1200 96 1300 250/10 RMK AO2
14840KMKG MKG20021110143510311/10/02 14:35:31  5-MIN KMKG 101935Z 24008KT 2 1/2SM BR OVC006 13/13 A2931 1200 96 1300 250/08 RMK AO2
14840KMKG MKG20021110144011911/10/02 14:40:31  5-MIN KMKG 101940Z 26008KT 2 1/2SM -RA BR OVC006 13/12 A2930 1210 96 1300 260/08 RMK AO2 RAB39 P0000
14840KMKG MKG20021110144511911/10/02 14:45:31  5-MIN KMKG 101945Z 26007KT 2 1/2SM -RA BR OVC006 13/12 A2929 1210 96 1300 270/07 RMK AO2 RAB39 P0000
14840KMKG MKG20021110145015311/10/02 14:50:31  5-MIN KMKG 101950Z 25006KT 2 1/2SM -RA BR OVC006 13/12 A2930 1210 96 1300 250/06 RMK AO2 VIS 1 3/4 RWY 14 RAB39 SLP920 P0000 T01280122
14840KMKG MKG20021110145513611/10/02 14:55:31  5-MIN KMKG 101955Z 25006KT 2 1/2SM -RA BR OVC006 13/12 A2929 1220 96 1300 250/06 RMK AO2 RAB39 SLP918 P0000 T01280122
14840KMKG MKG20021110150013111/10/02 15:00:31  5-MIN KMKG 102000Z 26005KT 2 1/2SM -RA BR BKN006 13/13 A2929 1220 100 1300 270/05 RMK AO2 VIS 1 3/4 RWY 14 P0000
14840KMKG MKG20021110150513111/10/02 15:05:31  5-MIN KMKG 102005Z 24006KT 2 1/2SM -RA BR BKN006 13/13 A2929 1220 100 1300 250/06 RMK AO2 VIS 1 3/4 RWY 14 P0000
14840KMKG MKG20021110151013811/10/02 15:10:31  5-MIN KMKG 102010Z 24005KT 2 1/2SM -RA BR BKN006 BKN055 13/13 A2928 1220 100 1300 240/05 RMK AO2 VIS 1 3/4 RWY 14 P0000
14840KMKG MKG20021110151513811/10/02 15:15:31  5-MIN KMKG 102015Z VRB03KT 2 1/2SM -RA BR BKN006 BKN010 13/13 A2928 1220 100 1300 VRB/03 RMK AO2 VIS 1 3/4 RWY 14 P0000
14840KMKG MKG20021110152012311/10/02 15:20:31  5-MIN KMKG 102020Z 21004KT 2 1/2SM BR BKN006 BKN010 13/13 A2929 1220 100 1300 210/04 RMK AO2 RAE19 P0000
14840KMKG MKG20021110152511611/10/02 15:25:31  5-MIN KMKG 102025Z 20005KT 2 1/2SM BR BKN006 13/13 A2929 1220 100 1300 200/05 RMK AO2 RAE19 P0000
14840KMKG MKG20021110153013211/10/02 15:30:31  5-MIN KMKG 102030Z 21004KT 2SM BR BKN006 OVC010 13/12 A2929 1220 96 1300 210/04 RMK AO2 TWR VIS 2 1/2 RAE19 P0000
14840KMKG MKG20021110153513311/10/02 15:35:31  5-MIN KMKG 102035Z 20004KT 2SM BR BKN006 OVC010 13/13 A2929 1220 100 1300 200/04 RMK AO2 TWR VIS 2 1/2 RAE19 P0000
14840KMKG MKG20021110154013811/10/02 15:40:31  5-MIN KMKG 102040Z 19004KT 2SM BR OVC006 13/13 A2929 1220 100 1300 200/04 RMK AO2 TWR VIS 2 1/2 RAE19 CIG 004V009 P0000
14840KMKG MKG20021110154512611/10/02 15:45:31  5-MIN KMKG 102045Z 19004KT 2SM BR OVC006 13/13 A2929 1220 100 1300 200/04 RMK AO2 TWR VIS 2 1/2 RAE19 P0000
14840KMKG MKG20021110155015411/10/02 15:50:31  5-MIN KMKG 102050Z 20005KT 2SM BR OVC006 13/12 A2930 1210 96 1300 200/05 RMK AO2 TWR VIS 2 1/2 RAE19 SLP920 P0000 60000 T01280122 51006
14840KMKG MKG20021110155514111/10/02 15:55:31  5-MIN KMKG 102055Z 22004KT 2SM BR OVC006 13/13 A2930 1210 100 1300 220/04 RMK AO2 RAE19 SLP921 P0000 60000 T01280128 51003
14840KMKG MKG20021110160010011/10/02 16:00:31  5-MIN KMKG 102100Z 22004KT 2SM BR OVC006 13/13 A2930 1210 100 1300 230/04 RMK AO2
14840KMKG MKG20021110160511111/10/02 16:05:31  5-MIN KMKG 102105Z 22005KT 2SM BR OVC006 13/12 A2931 1200 96 1300 230/05 RMK AO2 CIG 004V009
14840KMKG MKG20021110161011111/10/02 16:10:31  5-MIN KMKG 102110Z 23004KT 2SM BR OVC006 13/12 A2930 1210 96 1300 240/04 RMK AO2 CIG 004V010
14840KMKG MKG20021110161511111/10/02 16:15:31  5-MIN KMKG 102115Z 24004KT 2SM BR OVC006 13/12 A2930 1210 96 1300 250/04 RMK AO2 CIG 004V010
14840KMKG MKG20021110162011111/10/02 16:20:31  5-MIN KMKG 102120Z 22004KT 2SM BR OVC006 13/12 A2930 1200 96 1300 230/04 RMK AO2 CIG 004V011
14840KMKG MKG20021110162511111/10/02 16:25:31  5-MIN KMKG 102125Z 21007KT 2SM BR OVC006 13/12 A2932 1190 96 1200 220/07 RMK AO2 CIG 005V011
14840KMKG MKG20021110163011211/10/02 16:30:31  5-MIN KMKG 102130Z 21007KT 2SM BR OVC006 12/12 A2932 1190 100 1200 220/07 RMK AO2 CIG 004V011
14840KMKG MKG20021110163513311/10/02 16:35:31  5-MIN KMKG 102135Z 22007KT 1 3/4SM BR OVC006 12/12 A2933 1180 100 1200 220/07 RMK AO2 TWR VIS 2 CIG 004V008 PRESRR
14840KMKG MKG20021110164013311/10/02 16:40:31  5-MIN KMKG 102140Z 22007KT 1 3/4SM BR OVC006 12/12 A2934 1170 100 1200 220/07 RMK AO2 TWR VIS 2 CIG 004V008 PRESRR
14840KMKG MKG20021110164512611/10/02 16:45:31  5-MIN KMKG 102145Z 21007KT 1 3/4SM BR OVC006 12/12 A2934 1170 100 1200 210/07 RMK AO2 TWR VIS 2 CIG 004V008
14840KMKG MKG20021110165012411/10/02 16:50:31  5-MIN KMKG 102150Z 21007KT 2SM BR OVC006 12/12 A2935 1160 100 1100 210/07 RMK AO2 PRESRR SLP939 T01220122
14840KMKG MKG20021110165511711/10/02 16:55:31  5-MIN KMKG 102155Z 22006KT 2SM BR OVC006 12/12 A2935 1170 100 1200 230/06 RMK AO2 SLP937 T01220122
14840KMKG MKG20021110170010011/10/02 17:00:31  5-MIN KMKG 102200Z 22005KT 2SM BR OVC006 12/12 A2934 1170 100 1200 220/05 RMK AO2
14840KMKG MKG20021110170510011/10/02 17:05:31  5-MIN KMKG 102205Z 22005KT 2SM BR OVC006 12/12 A2934 1170 100 1200 230/05 RMK AO2
14840KMKG MKG20021110171010011/10/02 17:10:31  5-MIN KMKG 102210Z 23006KT 2SM BR OVC006 12/12 A2934 1180 100 1200 240/06 RMK AO2
14840KMKG MKG20021110171511411/10/02 17:15:31  5-MIN KMKG 102215Z 25006KT 2SM BR OVC006 12/12 A2934 1170 100 1200 260/06 RMK AO2 SFC VIS 2 1/2
14840KMKG MKG20021110172010911/10/02 17:20:31  5-MIN KMKG 102220Z 27004KT 2SM BR OVC006 12/12 A2933 1180 96 1200 270/04 RMK AO2 SFC VIS 3
14840KMKG MKG20021110172511311/10/02 17:25:31  5-MIN KMKG 102225Z VRB05KT 2SM BR OVC006 12/12 A2932 1190 96 1200 VRB/05 RMK AO2 SFC VIS 2 1/2
14840KMKG MKG20021110173011411/10/02 17:30:31  5-MIN KMKG 102230Z 27008KT 2SM BR OVC006 12/12 A2933 1180 100 1100 270/08 RMK AO2 SFC VIS 2 1/2
14840KMKG MKG20021110173511411/10/02 17:35:31  5-MIN KMKG 102235Z 27005KT 2SM BR OVC004 12/12 A2933 1180 100 1100 270/05 RMK AO2 SFC VIS 2 1/2
14840KMKG MKG20021110174011411/10/02 17:40:31  5-MIN KMKG 102240Z 00000KT 2SM BR OVC004 12/12 A2933 1180 100 1100 000/00 RMK AO2 SFC VIS 2 1/2
14840KMKG MKG20021110174511311/10/02 17:45:31  5-MIN KMKG 102245Z 00000KT 2SM BR OVC004 12/11 A2933 1180 96 1100 000/00 RMK AO2 SFC VIS 2 1/2
14840KMKG MKG20021110175014211/10/02 17:50:31  5-MIN KMKG 102250Z 00000KT 2SM BR OVC004 12/11 A2933 1180 96 1100 000/00 RMK AO2 SFC VIS 2 1/2 CIG 003V007 SLP933 T01170111
14840KMKG MKG20021110175514311/10/02 17:55:31  5-MIN KMKG 102255Z 24004KT 2SM BR OVC004 11/11 A2933 1180 100 1000 250/04 RMK AO2 SFC VIS 2 1/2 CIG 003V007 SLP934 T01110111
14840KMKG MKG20021110180011211/10/02 18:00:31  5-MIN KMKG 102300Z 25005KT 2SM BR OVC004 11/11 A2933 1180 100 1000 260/05 RMK AO2 CIG 003V006
14840KMKG MKG20021110180511211/10/02 18:05:31  5-MIN KMKG 102305Z 26007KT 2SM BR OVC004 11/11 A2934 1170 100 1000 260/07 RMK AO2 CIG 003V006
14840KMKG MKG20021110181011211/10/02 18:10:31  5-MIN KMKG 102310Z 26006KT 2SM BR OVC004 11/11 A2935 1160 100 1000 270/06 RMK AO2 CIG 002V007
14840KMKG MKG20021110181510611/10/02 18:15:31  5-MIN KMKG 102315Z 28007KT 2SM BR OVC002 11/11 A2936 1150 100 900 280/07 RMK AO2 PRESRR
14840KMKG MKG20021110182009911/10/02 18:20:31  5-MIN KMKG 102320Z 30005KT 2SM BR OVC002 11/11 A2936 1150 100 900 310/05 RMK AO2
14840KMKG MKG20021110182514211/10/02 18:25:31  5-MIN KMKG 102325Z 31006KT 2SM BR OVC002 11/11 A2937 1150 100 900 310/06 RMK AO2 SFC VIS 2 1/2 VIS 1 3/4 RWY 14 CIG 002V006
14840KMKG MKG20021110183012111/10/02 18:30:31  5-MIN KMKG 102330Z 31008KT 2SM BR OVC004 11/11 A2936 1150 100 900 320/08 RMK AO2 SFC VIS 3 CIG 002V005
14840KMKG MKG20021110183512111/10/02 18:35:31  5-MIN KMKG 102335Z 32011KT 2SM BR OVC004 11/11 A2936 1160 100 900 320/11 RMK AO2 SFC VIS 4 CIG 002V005
14840KMKG MKG20021110184012111/10/02 18:40:31  5-MIN KMKG 102340Z 32012KT 2SM BR OVC004 11/11 A2936 1150 100 900 330/12 RMK AO2 SFC VIS 5 CIG 002V006
14840KMKG MKG20021110184511711/10/02 18:45:31  5-MIN KMKG 102345Z 32012KT 2SM OVC004 11/10 A2936 1150 96 900 320/12 RMK AO2 SFC VIS 7 CIG 002V006
14840KMKG MKG20021110185014711/10/02 18:50:31  5-MIN KMKG 102350Z 32012KT 2SM OVC006 10/10 A2936 1150 100 900 320/12 RMK AO2 SFC VIS 9 SLP942 60000 T01000100 10150 20100 51003
14840KMKG MKG20021110185514711/10/02 18:55:31  5-MIN KMKG 102355Z 33013KT 2SM OVC006 10/09 A2936 1150 96 900 330/13 RMK AO2 SFC VIS 10 SLP944 60000 T01000094 10150 20100 51022
14840KMKG MKG20021110190010811/10/02 19:00:31  5-MIN KMKG 110000Z 32011KT 10SM OVC006 10/09 A2937 1150 96 900 320/11 RMK AO2 CIG 005V010
14840KMKG MKG20021110190510811/10/02 19:05:31  5-MIN KMKG 110005Z 32013KT 10SM OVC006 10/09 A2936 1150 96 900 320/13 RMK AO2 CIG 005V010
14840KMKG MKG20021110191010811/10/02 19:10:31  5-MIN KMKG 110010Z 33012KT 10SM OVC008 10/09 A2935 1160 93 900 330/12 RMK AO2 CIG 006V010
14840KMKG MKG20021110191510911/10/02 19:15:31  5-MIN KMKG 110015Z 33014G18KT 10SM OVC008 10/09 A2934 1170 93 900 330/14G18 RMK AO2 PRESFR
14840KMKG MKG20021110192010211/10/02 19:20:31  5-MIN KMKG 110020Z 33012G18KT 10SM OVC008 10/09 A2933 1180 93 900 340/12G18 RMK AO2
14840KMKG MKG20021110192510211/10/02 19:25:31  5-MIN KMKG 110025Z 33012G19KT 10SM OVC008 10/09 A2935 1160 93 900 330/12G19 RMK AO2
14840KMKG MKG20021110193010211/10/02 19:30:31  5-MIN KMKG 110030Z 33011G19KT 10SM OVC008 10/09 A2936 1150 93 900 330/11G19 RMK AO2
14840KMKG MKG20021110193510311/10/02 19:35:31  5-MIN KMKG 110035Z 32010KT 10SM OVC008 10/09 A2936 1150 93 900 330/10 RMK AO2 PRESRR
14840KMKG MKG20021110194010311/10/02 19:40:31  5-MIN KMKG 110040Z 34011KT 10SM OVC008 10/09 A2937 1140 93 900 340/11 RMK AO2 PRESRR
14840KMKG MKG20021110194509611/10/02 19:45:31  5-MIN KMKG 110045Z 35011KT 10SM OVC008 10/09 A2937 1140 93 900 360/11 RMK AO2
14840KMKG MKG20021110195011311/10/02 19:50:31  5-MIN KMKG 110050Z 33009KT 10SM OVC008 09/09 A2938 1140 96 800 340/09 RMK AO2 SLP948 T00940089
14840KMKG MKG20021110195511311/10/02 19:55:31  5-MIN KMKG 110055Z 35010KT 10SM OVC008 09/09 A2938 1130 96 800 360/10 RMK AO2 SLP951 T00940089
14840KMKG MKG20021110200010311/10/02 20:00:31  5-MIN KMKG 110100Z 33010KT 10SM OVC008 09/09 A2939 1120 96 800 340/10 RMK AO2 PRESRR
14840KMKG MKG20021110200510911/10/02 20:05:31  5-MIN KMKG 110105Z 32013G16KT 10SM OVC008 09/09 A2940 1120 96 800 330/13G16 RMK AO2 PRESRR
14840KMKG MKG20021110201010211/10/02 20:10:31  5-MIN KMKG 110110Z 33012G16KT 10SM OVC008 09/09 A2940 1110 96 800 340/12G16 RMK AO2
14840KMKG MKG20021110201510311/10/02 20:15:31  5-MIN KMKG 110115Z 33012KT 10SM OVC008 09/09 A2941 1110 96 700 330/12 RMK AO2 PRESRR
14840KMKG MKG20021110202009611/10/02 20:20:31  5-MIN KMKG 110120Z 33016KT 10SM OVC008 09/08 A2940 1110 93 800 330/16 RMK AO2
14840KMKG MKG20021110202509611/10/02 20:25:31  5-MIN KMKG 110125Z 34013KT 10SM OVC008 09/08 A2940 1110 93 700 350/13 RMK AO2
14840KMKG MKG20021110203010811/10/02 20:30:31  5-MIN KMKG 110130Z 35012KT 10SM OVC008 09/08 A2942 1100 93 700 350/12 RMK AO2 CIG 007V010
14840KMKG MKG20021110203511411/10/02 20:35:31  5-MIN KMKG 110135Z 35012G18KT 10SM OVC008 09/08 A2941 1100 93 700 360/12G18 RMK AO2 CIG 007V010
14840KMKG MKG20021110204009611/10/02 20:40:31  5-MIN KMKG 110140Z 34012KT 10SM OVC008 09/08 A2942 1100 93 700 350/12 RMK AO2
14840KMKG MKG20021110204509611/10/02 20:45:31  5-MIN KMKG 110145Z 34010KT 10SM OVC008 09/08 A2942 1090 93 700 350/10 RMK AO2
14840KMKG MKG20021110205011311/10/02 20:50:31  5-MIN KMKG 110150Z 34009KT 10SM OVC010 09/08 A2943 1090 93 700 350/09 RMK AO2 SLP967 T00940083
14840KMKG MKG20021110205513211/10/02 20:55:31  5-MIN KMKG 110155Z 34009KT 10SM OVC010 09/08 A2944 1080 93 700 340/09 RMK AO2 CIG 009V013 PRESRR SLP969 T00940083
14840KMKG MKG20021110210010811/10/02 21:00:31  5-MIN KMKG 110200Z 33009KT 10SM OVC010 09/08 A2944 1080 89 700 340/09 RMK AO2 CIG 009V013
14840KMKG MKG20021110210509611/10/02 21:05:31  5-MIN KMKG 110205Z 34009KT 10SM OVC012 09/08 A2944 1070 89 700 350/09 RMK AO2
14840KMKG MKG20021110211009611/10/02 21:10:31  5-MIN KMKG 110210Z 34010KT 10SM OVC012 09/08 A2945 1070 89 700 340/10 RMK AO2
14840KMKG MKG20021110211509611/10/02 21:15:31  5-MIN KMKG 110215Z 34008KT 10SM OVC012 09/08 A2945 1070 89 700 340/08 RMK AO2
14840KMKG MKG20021110212009611/10/02 21:20:31  5-MIN KMKG 110220Z 35010KT 10SM OVC012 09/08 A2944 1080 89 700 350/10 RMK AO2
14840KMKG MKG20021110212509611/10/02 21:25:31  5-MIN KMKG 110225Z 35009KT 10SM OVC012 09/08 A2944 1080 89 700 360/09 RMK AO2
14840KMKG MKG20021110213009611/10/02 21:30:31  5-MIN KMKG 110230Z 35010KT 10SM OVC014 09/08 A2944 1080 89 700 350/10 RMK AO2
14840KMKG MKG20021110213510311/10/02 21:35:31  5-MIN KMKG 110235Z 34010KT 10SM BKN014 OVC036 09/08 A2944 1080 89 700 350/10 RMK AO2
14840KMKG MKG20021110214009611/10/02 21:40:31  5-MIN KMKG 110240Z 33013KT 10SM OVC014 09/08 A2944 1080 89 700 330/13 RMK AO2
14840KMKG MKG20021110214509611/10/02 21:45:31  5-MIN KMKG 110245Z 33009KT 10SM OVC014 09/08 A2944 1080 89 700 340/09 RMK AO2
14840KMKG MKG20021110215011911/10/02 21:50:31  5-MIN KMKG 110250Z 33008KT 10SM OVC014 09/08 A2944 1070 89 700 340/08 RMK AO2 SLP972 T00940078 51022
14840KMKG MKG20021110215511911/10/02 21:55:31  5-MIN KMKG 110255Z 33009KT 10SM OVC014 09/08 A2944 1070 89 700 330/09 RMK AO2 SLP971 T00940078 51026
14840KMKG MKG20021110220009611/10/02 22:00:31  5-MIN KMKG 110300Z 33012KT 10SM OVC014 09/08 A2944 1070 89 700 340/12 RMK AO2
14840KMKG MKG20021110220509611/10/02 22:05:31  5-MIN KMKG 110305Z 35013KT 10SM OVC014 09/07 A2945 1070 86 700 350/13 RMK AO2
14840KMKG MKG20021110221009611/10/02 22:10:31  5-MIN KMKG 110310Z 33012KT 10SM OVC012 09/07 A2945 1070 89 600 330/12 RMK AO2
14840KMKG MKG20021110221509611/10/02 22:15:31  5-MIN KMKG 110315Z 33011KT 10SM OVC012 09/07 A2945 1070 89 600 330/11 RMK AO2
14840KMKG MKG20021110222009611/10/02 22:20:31  5-MIN KMKG 110320Z 33010KT 10SM OVC012 09/07 A2945 1070 89 600 340/10 RMK AO2
14840KMKG MKG20021110222510311/10/02 22:25:31  5-MIN KMKG 110325Z 33009KT 10SM BKN012 OVC033 09/07 A2946 1060 89 600 340/09 RMK AO2
14840KMKG MKG20021110223010311/10/02 22:30:31  5-MIN KMKG 110330Z 34010KT 10SM BKN014 OVC033 09/07 A2946 1050 89 600 340/10 RMK AO2
14840KMKG MKG20021110223511811/10/02 22:35:31  5-MIN KMKG 110335Z 35009KT 10SM SCT014 OVC033 08/07 A2947 1050 89 500 350/09 RMK AO2 CIG 013 RWY 14
14840KMKG MKG20021110224010311/10/02 22:40:31  5-MIN KMKG 110340Z 34010KT 10SM SCT014 OVC033 08/07 A2947 1050 89 500 340/10 RMK AO2
14840KMKG MKG20021110224510311/10/02 22:45:31  5-MIN KMKG 110345Z 35007KT 10SM FEW014 OVC033 08/06 A2947 1050 86 500 350/07 RMK AO2
14840KMKG MKG20021110225012011/10/02 22:50:31  5-MIN KMKG 110350Z 34009KT 10SM FEW014 OVC033 08/06 A2947 1050 86 500 340/09 RMK AO2 SLP981 T00830061
14840KMKG MKG20021110225511311/10/02 22:55:31  5-MIN KMKG 110355Z 34007KT 10SM OVC033 08/06 A2948 1040 86 500 350/07 RMK AO2 SLP982 T00830061
14840KMKG MKG20021110230009611/10/02 23:00:31  5-MIN KMKG 110400Z 35008KT 10SM OVC033 08/06 A2948 1040 86 500 350/08 RMK AO2
14840KMKG MKG20021110230509611/10/02 23:05:31  5-MIN KMKG 110405Z 33006KT 10SM OVC033 08/06 A2948 1040 86 500 330/06 RMK AO2
14840KMKG MKG20021110231009611/10/02 23:10:31  5-MIN KMKG 110410Z 34008KT 10SM OVC033 08/06 A2948 1040 86 500 340/08 RMK AO2
14840KMKG MKG20021110231509611/10/02 23:15:31  5-MIN KMKG 110415Z 32008KT 10SM OVC033 08/06 A2949 1030 86 500 330/08 RMK AO2
14840KMKG MKG20021110232009611/10/02 23:20:31  5-MIN KMKG 110420Z 33008KT 10SM OVC033 08/06 A2949 1030 82 500 330/08 RMK AO2
14840KMKG MKG20021110232509611/10/02 23:25:31  5-MIN KMKG 110425Z 34008KT 10SM OVC033 08/06 A2949 1030 82 500 340/08 RMK AO2
14840KMKG MKG20021110233009611/10/02 23:30:31  5-MIN KMKG 110430Z 34007KT 10SM OVC033 08/06 A2949 1030 82 500 340/07 RMK AO2
14840KMKG MKG20021110233509611/10/02 23:35:31  5-MIN KMKG 110435Z 34009KT 10SM OVC033 08/06 A2950 1030 82 500 340/09 RMK AO2
14840KMKG MKG20021110234009611/10/02 23:40:31  5-MIN KMKG 110440Z 33008KT 10SM OVC033 08/06 A2950 1020 82 500 340/08 RMK AO2
14840KMKG MKG20021110234509611/10/02 23:45:31  5-MIN KMKG 110445Z 34009KT 10SM OVC033 08/06 A2950 1020 82 500 350/09 RMK AO2
14840KMKG MKG20021110235012311/10/02 23:50:31  5-MIN KMKG 110450Z 34008KT 10SM OVC033 08/06 A2950 1020 82 500 340/08 RMK AO2 SLP990 T00830056 401560083
14840KMKG MKG20021110235512311/10/02 23:55:31  5-MIN KMKG 110455Z 35010KT 10SM OVC031 08/06 A2949 1030 82 500 350/10 RMK AO2 SLP987 T00830056 401560083
14840KMKG MKG20021111000009611/11/02 00:00:31  5-MIN KMKG 110500Z 35009KT 10SM OVC031 08/06 A2949 1030 82 500 350/09 RMK AO2
14840KMKG MKG20021111000509611/11/02 00:05:31  5-MIN KMKG 110505Z 35009KT 10SM OVC029 08/06 A2949 1040 82 500 350/09 RMK AO2
14840KMKG MKG20021111001009611/11/02 00:10:31  5-MIN KMKG 110510Z 35007KT 10SM OVC029 08/06 A2949 1030 82 500 350/07 RMK AO2
14840KMKG MKG20021111001509611/11/02 00:15:31  5-MIN KMKG 110515Z 34008KT 10SM OVC029 08/06 A2949 1030 82 500 350/08 RMK AO2
14840KMKG MKG20021111002009611/11/02 00:20:31  5-MIN KMKG 110520Z 34008KT 10SM OVC029 08/06 A2949 1030 82 500 340/08 RMK AO2
14840KMKG MKG20021111002509611/11/02 00:25:31  5-MIN KMKG 110525Z 35007KT 10SM OVC029 08/06 A2950 1030 86 400 360/07 RMK AO2
14840KMKG MKG20021111003009611/11/02 00:30:31  5-MIN KMKG 110530Z 36006KT 10SM BKN029 08/06 A2950 1020 86 400 360/06 RMK AO2
14840KMKG MKG20021111003509611/11/02 00:35:31  5-MIN KMKG 110535Z 36006KT 10SM OVC029 08/06 A2951 1010 86 400 360/06 RMK AO2
14840KMKG MKG20021111004009611/11/02 00:40:31  5-MIN KMKG 110540Z 01006KT 10SM OVC029 08/06 A2951 1010 86 400 020/06 RMK AO2
14840KMKG MKG20021111004509611/11/02 00:45:31  5-MIN KMKG 110545Z 36006KT 10SM OVC029 08/06 A2951 1010 86 400 010/06 RMK AO2
14840KMKG MKG20021111005013111/11/02 00:50:31  5-MIN KMKG 110550Z 36005KT 10SM OVC029 08/06 A2952 1000 86 400 360/05 RMK AO2 SLP997 T00780056 10100 20078 51026
14840KMKG MKG20021111005513111/11/02 00:55:31  5-MIN KMKG 110555Z 36004KT 10SM OVC029 08/06 A2952 1000 86 400 360/04 RMK AO2 SLP998 T00780056 10100 20078 53026
14840KMKG MKG20021111010009611/11/02 01:00:31  5-MIN KMKG 110600Z 36003KT 10SM OVC029 08/06 A2953 1000 86 400 010/03 RMK AO2
14840KMKG MKG20021111010509611/11/02 01:05:31  5-MIN KMKG 110605Z 02003KT 10SM OVC029 08/06 A2953 1000 86 400 020/03 RMK AO2
14840KMKG MKG20021111011009511/11/02 01:10:31  5-MIN KMKG 110610Z 36003KT 10SM OVC029 08/06 A2953 990 86 400 360/03 RMK AO2
14840KMKG MKG20021111011509511/11/02 01:15:31  5-MIN KMKG 110615Z 01004KT 10SM OVC029 08/06 A2953 990 86 400 010/04 RMK AO2
14840KMKG MKG20021111012009511/11/02 01:20:31  5-MIN KMKG 110620Z 02004KT 10SM OVC029 08/06 A2953 990 86 400 020/04 RMK AO2
14840KMKG MKG20021111012509611/11/02 01:25:31  5-MIN KMKG 110625Z 36005KT 10SM OVC031 08/06 A2953 1000 86 400 360/05 RMK AO2
14840KMKG MKG20021111013009511/11/02 01:30:31  5-MIN KMKG 110630Z 35005KT 10SM OVC031 08/06 A2953 990 86 400 350/05 RMK AO2
14840KMKG MKG20021111013509611/11/02 01:35:31  5-MIN KMKG 110635Z 36005KT 10SM OVC031 07/06 A2953 1000 89 300 360/05 RMK AO2
14840KMKG MKG20021111014009611/11/02 01:40:31  5-MIN KMKG 110640Z 01005KT 10SM OVC031 07/05 A2953 1000 86 300 010/05 RMK AO2
14840KMKG MKG20021111014509511/11/02 01:45:31  5-MIN KMKG 110645Z 01005KT 10SM BKN031 07/05 A2953 990 86 300 010/05 RMK AO2
14840KMKG MKG20021111015011211/11/02 01:50:31  5-MIN KMKG 110650Z 36004KT 10SM BKN031 07/05 A2953 990 86 300 010/04 RMK AO2 SLP002 T00720050
14840KMKG MKG20021111015511211/11/02 01:55:31  5-MIN KMKG 110655Z 36004KT 10SM BKN029 07/05 A2953 990 86 300 010/04 RMK AO2 SLP003 T00720050
14840KMKG MKG20021111020009511/11/02 02:00:31  5-MIN KMKG 110700Z 36004KT 10SM BKN029 07/05 A2954 990 86 300 360/04 RMK AO2
14840KMKG MKG20021111020509511/11/02 02:05:31  5-MIN KMKG 110705Z 34003KT 10SM BKN029 07/05 A2954 980 89 300 350/03 RMK AO2
14840KMKG MKG20021111021009511/11/02 02:10:31  5-MIN KMKG 110710Z 31003KT 10SM BKN029 07/05 A2955 980 89 200 320/03 RMK AO2
14840KMKG MKG20021111021509511/11/02 02:15:31  5-MIN KMKG 110715Z 32003KT 10SM OVC029 07/06 A2955 980 89 300 330/03 RMK AO2
14840KMKG MKG20021111022009511/11/02 02:20:31  5-MIN KMKG 110720Z 34003KT 10SM OVC029 07/06 A2955 980 89 300 340/03 RMK AO2
14840KMKG MKG20021111022509511/11/02 02:25:31  5-MIN KMKG 110725Z 33003KT 10SM OVC029 07/06 A2955 970 89 300 330/03 RMK AO2
14840KMKG MKG20021111023009511/11/02 02:30:31  5-MIN KMKG 110730Z 36005KT 10SM OVC027 07/06 A2955 980 89 300 010/05 RMK AO2
14840KMKG MKG20021111023509511/11/02 02:35:31  5-MIN KMKG 110735Z 01004KT 10SM OVC027 07/06 A2955 980 89 300 010/04 RMK AO2
14840KMKG MKG20021111024009511/11/02 02:40:31  5-MIN KMKG 110740Z 01007KT 10SM BKN027 07/05 A2955 980 86 300 020/07 RMK AO2
14840KMKG MKG20021111024509511/11/02 02:45:31  5-MIN KMKG 110745Z 02004KT 10SM SCT027 07/05 A2955 970 89 200 020/04 RMK AO2
14840KMKG MKG20021111025011211/11/02 02:50:31  5-MIN KMKG 110750Z 01004KT 10SM SCT027 07/05 A2956 970 89 200 010/04 RMK AO2 SLP011 T00670050
14840KMKG MKG20021111025511211/11/02 02:55:31  5-MIN KMKG 110755Z 36004KT 10SM FEW027 07/05 A2956 970 89 200 360/04 RMK AO2 SLP011 T00670050
14840KMKG MKG20021111030009511/11/02 03:00:31  5-MIN KMKG 110800Z 36004KT 10SM FEW027 07/05 A2956 960 89 200 010/04 RMK AO2
14840KMKG MKG20021111030509211/11/02 03:05:31  5-MIN KMKG 110805Z 03003KT 10SM CLR 07/05 A2956 960 89 200 030/03 RMK AO2
14840KMKG MKG20021111031009511/11/02 03:10:31  5-MIN KMKG 110810Z 03004KT 10SM FEW110 07/05 A2956 960 89 200 030/04 RMK AO2
14840KMKG MKG20021111031510211/11/02 03:15:31  5-MIN KMKG 110815Z 00000KT 10SM FEW075 SCT110 07/05 A2957 960 89 200 000/00 RMK AO2
14840KMKG MKG20021111032010211/11/02 03:20:31  5-MIN KMKG 110820Z 00000KT 10SM FEW075 BKN110 07/05 A2957 960 89 200 000/00 RMK AO2
14840KMKG MKG20021111032510211/11/02 03:25:31  5-MIN KMKG 110825Z 06004KT 10SM SCT075 BKN110 07/05 A2957 960 89 200 060/04 RMK AO2
14840KMKG MKG20021111033010211/11/02 03:30:31  5-MIN KMKG 110830Z 06005KT 10SM BKN080 BKN110 06/05 A2957 960 93 200 070/05 RMK AO2
14840KMKG MKG20021111033510911/11/02 03:35:31  5-MIN KMKG 110835Z 05005KT 10SM BKN080 BKN100 OVC110 06/05 A2957 950 93 100 050/05 RMK AO2
14840KMKG MKG20021111034010211/11/02 03:40:31  5-MIN KMKG 110840Z 02004KT 10SM BKN080 OVC100 06/05 A2958 950 93 100 020/04 RMK AO2
14840KMKG MKG20021111034510211/11/02 03:45:31  5-MIN KMKG 110845Z 36004KT 10SM BKN080 OVC100 07/05 A2958 940 89 200 360/04 RMK AO2
14840KMKG MKG20021111035012511/11/02 03:50:31  5-MIN KMKG 110850Z 35004KT 10SM BKN080 OVC100 07/05 A2959 940 89 200 360/04 RMK AO2 SLP021 T00670050 53026
14840KMKG MKG20021111035512511/11/02 03:55:31  5-MIN KMKG 110855Z 34004KT 10SM BKN085 OVC100 07/04 A2959 940 86 200 350/04 RMK AO2 SLP022 T00670044 53022
14840KMKG MKG20021111040010211/11/02 04:00:31  5-MIN KMKG 110900Z 33004KT 10SM BKN080 OVC095 06/05 A2960 930 93 100 340/04 RMK AO2
14840KMKG MKG20021111040510211/11/02 04:05:31  5-MIN KMKG 110905Z 33005KT 10SM BKN080 OVC100 06/04 A2960 930 89 100 330/05 RMK AO2
14840KMKG MKG20021111041010211/11/02 04:10:31  5-MIN KMKG 110910Z 34007KT 10SM BKN080 OVC095 06/04 A2961 920 89 100 350/07 RMK AO2
14840KMKG MKG20021111041510211/11/02 04:15:31  5-MIN KMKG 110915Z 36008KT 10SM BKN080 OVC100 06/04 A2961 920 89 100 360/08 RMK AO2
14840KMKG MKG20021111042010211/11/02 04:20:31  5-MIN KMKG 110920Z 35008KT 10SM BKN080 OVC095 06/04 A2961 920 86 100 350/08 RMK AO2
14840KMKG MKG20021111042510911/11/02 04:25:31  5-MIN KMKG 110925Z 35008KT 10SM SCT060 BKN080 OVC100 06/04 A2961 920 86 100 350/08 RMK AO2
14840KMKG MKG20021111043010211/11/02 04:30:31  5-MIN KMKG 110930Z 35008KT 10SM BKN060 OVC080 06/04 A2962 910 86 100 350/08 RMK AO2
14840KMKG MKG20021111043510211/11/02 04:35:31  5-MIN KMKG 110935Z 36007KT 10SM BKN060 OVC085 06/04 A2962 910 86 100 360/07 RMK AO2
14840KMKG MKG20021111044010211/11/02 04:40:31  5-MIN KMKG 110940Z 35006KT 10SM BKN060 OVC085 06/04 A2963 900 86 100 360/06 RMK AO2
14840KMKG MKG20021111044509511/11/02 04:45:31  5-MIN KMKG 110945Z 35007KT 10SM OVC060 06/04 A2963 900 86 100 360/07 RMK AO2
14840KMKG MKG20021111045011011/11/02 04:50:31  5-MIN KMKG 110950Z 36009KT 10SM OVC060 06/04 A2963 900 89 0 010/09 RMK AO2 SLP036 T00560039
14840KMKG MKG20021111045511011/11/02 04:55:31  5-MIN KMKG 110955Z 01012KT 10SM OVC060 06/03 A2963 900 85 0 010/12 RMK AO2 SLP035 T00560033
14840KMKG MKG20021111050009311/11/02 05:00:31  5-MIN KMKG 111000Z 36013KT 10SM OVC060 06/03 A2963 900 82 0 010/13 RMK AO2
14840KMKG MKG20021111050509311/11/02 05:05:31  5-MIN KMKG 111005Z 36010KT 10SM OVC060 05/03 A2963 900 85 0 010/10 RMK AO2
14840KMKG MKG20021111051010011/11/02 05:10:31  5-MIN KMKG 111010Z 35008KT 10SM FEW017 OVC060 05/02 A2964 890 82 0 360/08 RMK AO2
14840KMKG MKG20021111051510011/11/02 05:15:31  5-MIN KMKG 111015Z 36007KT 10SM FEW017 BKN060 05/02 A2964 890 82 0 360/07 RMK AO2
14840KMKG MKG20021111052010311/11/02 05:20:31  5-MIN KMKG 111020Z 36009KT 10SM FEW017 BKN060 04/02 A2964 890 85 -100 010/09 RMK AO2
14840KMKG MKG20021111052510311/11/02 05:25:31  5-MIN KMKG 111025Z 36008KT 10SM FEW017 BKN060 04/02 A2964 890 85 -100 010/08 RMK AO2
14840KMKG MKG20021111053010311/11/02 05:30:31  5-MIN KMKG 111030Z 36009KT 10SM FEW017 SCT060 04/02 A2964 890 85 -100 360/09 RMK AO2
14840KMKG MKG20021111053509611/11/02 05:35:31  5-MIN KMKG 111035Z 36007KT 10SM FEW017 04/02 A2964 890 85 -100 010/07 RMK AO2
14840KMKG MKG20021111054009611/11/02 05:40:31  5-MIN KMKG 111040Z 36007KT 10SM FEW055 04/02 A2964 890 85 -100 010/07 RMK AO2
14840KMKG MKG20021111054509311/11/02 05:45:31  5-MIN KMKG 111045Z 01006KT 10SM CLR 04/02 A2965 880 85 -100 010/06 RMK AO2
14840KMKG MKG20021111055011011/11/02 05:50:31  5-MIN KMKG 111050Z 02004KT 10SM CLR 04/02 A2965 880 89 -200 020/04 RMK AO2 SLP044 T00390022
14840KMKG MKG20021111055511011/11/02 05:55:31  5-MIN KMKG 111055Z 02005KT 10SM CLR 04/02 A2965 880 85 -200 020/05 RMK AO2 SLP044 T00390017
14840KMKG MKG20021111060009311/11/02 06:00:31  5-MIN KMKG 111100Z VRB04KT 10SM CLR 04/02 A2965 880 89 -200 VRB/04 RMK AO2
14840KMKG MKG20021111060509611/11/02 06:05:31  5-MIN KMKG 111105Z 35003KT 10SM FEW030 04/02 A2966 870 89 -200 360/03 RMK AO2
14840KMKG MKG20021111061009611/11/02 06:10:31  5-MIN KMKG 111110Z 01003KT 10SM SCT030 04/02 A2966 870 89 -200 010/03 RMK AO2
14840KMKG MKG20021111061509611/11/02 06:15:31  5-MIN KMKG 111115Z 01005KT 10SM BKN028 04/02 A2966 870 89 -200 020/05 RMK AO2
14840KMKG MKG20021111062009611/11/02 06:20:31  5-MIN KMKG 111120Z 01004KT 10SM BKN028 04/02 A2966 870 89 -200 010/04 RMK AO2
14840KMKG MKG20021111062509611/11/02 06:25:31  5-MIN KMKG 111125Z 01006KT 10SM BKN028 04/02 A2967 870 85 -100 010/06 RMK AO2
14840KMKG MKG20021111063009611/11/02 06:30:31  5-MIN KMKG 111130Z 36004KT 10SM OVC028 04/02 A2967 860 85 -100 360/04 RMK AO2
14840KMKG MKG20021111063509611/11/02 06:35:31  5-MIN KMKG 111135Z 02004KT 10SM OVC028 04/02 A2967 860 85 -100 020/04 RMK AO2
14840KMKG MKG20021111064009611/11/02 06:40:31  5-MIN KMKG 111140Z 02005KT 10SM OVC028 04/02 A2967 860 85 -100 030/05 RMK AO2
14840KMKG MKG20021111064509611/11/02 06:45:31  5-MIN KMKG 111145Z 01008KT 10SM OVC028 04/02 A2968 860 85 -100 010/08 RMK AO2
14840KMKG MKG20021111065013111/11/02 06:50:31  5-MIN KMKG 111150Z 02008KT 10SM OVC028 04/02 A2968 850 82 -100 020/08 RMK AO2 SLP053 T00440017 10078 20039 53022
14840KMKG MKG20021111065513111/11/02 06:55:31  5-MIN KMKG 111155Z 01009KT 10SM OVC028 04/02 A2968 850 82 -100 010/09 RMK AO2 SLP054 T00440017 10078 20039 51030
14840KMKG MKG20021111070009611/11/02 07:00:31  5-MIN KMKG 111200Z 01007KT 10SM OVC028 04/02 A2968 850 82 -100 020/07 RMK AO2
14840KMKG MKG20021111070509611/11/02 07:05:31  5-MIN KMKG 111205Z 01008KT 10SM OVC028 04/02 A2969 850 82 -100 020/08 RMK AO2
14840KMKG MKG20021111071009611/11/02 07:10:31  5-MIN KMKG 111210Z 03006KT 10SM OVC028 04/02 A2969 850 82 -100 030/06 RMK AO2
14840KMKG MKG20021111071509611/11/02 07:15:31  5-MIN KMKG 111215Z 03009KT 10SM OVC028 04/02 A2969 840 82 -100 030/09 RMK AO2
14840KMKG MKG20021111072009611/11/02 07:20:31  5-MIN KMKG 111220Z 03007KT 10SM OVC028 04/02 A2969 840 82 -100 030/07 RMK AO2
14840KMKG MKG20021111072509611/11/02 07:25:31  5-MIN KMKG 111225Z 03008KT 10SM OVC028 04/02 A2969 840 82 -100 030/08 RMK AO2
14840KMKG MKG20021111073009611/11/02 07:30:31  5-MIN KMKG 111230Z 03008KT 10SM OVC028 04/02 A2969 840 82 -100 040/08 RMK AO2
14840KMKG MKG20021111073509611/11/02 07:35:31  5-MIN KMKG 111235Z 02008KT 10SM OVC030 04/02 A2970 840 82 -100 020/08 RMK AO2
14840KMKG MKG20021111074009611/11/02 07:40:31  5-MIN KMKG 111240Z 03006KT 10SM OVC030 04/02 A2970 840 82 -200 030/06 RMK AO2
14840KMKG MKG20021111074509611/11/02 07:45:31  5-MIN KMKG 111245Z 04007KT 10SM OVC030 04/02 A2970 830 82 -200 040/07 RMK AO2
14840KMKG MKG20021111075011311/11/02 07:50:31  5-MIN KMKG 111250Z 03006KT 10SM OVC030 04/02 A2971 830 82 -200 030/06 RMK AO2 SLP064 T00440017
14840KMKG MKG20021111075511311/11/02 07:55:31  5-MIN KMKG 111255Z 02006KT 10SM OVC030 04/02 A2971 820 82 -200 020/06 RMK AO2 SLP065 T00440017
14840KMKG MKG20021111080009611/11/02 08:00:31  5-MIN KMKG 111300Z 03007KT 10SM OVC032 04/02 A2972 820 82 -200 030/07 RMK AO2
14840KMKG MKG20021111080509611/11/02 08:05:31  5-MIN KMKG 111305Z 04006KT 10SM OVC032 04/02 A2972 810 82 -200 040/06 RMK AO2
14840KMKG MKG20021111081009611/11/02 08:10:31  5-MIN KMKG 111310Z 02005KT 10SM OVC032 04/02 A2972 810 82 -200 020/05 RMK AO2
14840KMKG MKG20021111081509611/11/02 08:15:31  5-MIN KMKG 111315Z 02005KT 10SM OVC032 04/02 A2972 810 85 -200 020/05 RMK AO2
14840KMKG MKG20021111082009611/11/02 08:20:31  5-MIN KMKG 111320Z 02007KT 10SM OVC032 04/02 A2973 810 82 -200 020/07 RMK AO2
14840KMKG MKG20021111082509611/11/02 08:25:31  5-MIN KMKG 111325Z 04008KT 10SM OVC032 04/02 A2973 810 82 -200 040/08 RMK AO2
14840KMKG MKG20021111083009611/11/02 08:30:31  5-MIN KMKG 111330Z 04008KT 10SM OVC032 04/02 A2973 810 82 -200 050/08 RMK AO2
14840KMKG MKG20021111083509611/11/02 08:35:31  5-MIN KMKG 111335Z 02008KT 10SM OVC032 05/02 A2973 800 79 -100 030/08 RMK AO2
14840KMKG MKG20021111084009611/11/02 08:40:31  5-MIN KMKG 111340Z 02010KT 10SM OVC032 04/02 A2974 800 82 -200 020/10 RMK AO2
14840KMKG MKG20021111084509611/11/02 08:45:31  5-MIN KMKG 111345Z 03007KT 10SM OVC032 04/02 A2974 800 82 -200 030/07 RMK AO2
14840KMKG MKG20021111085011311/11/02 08:50:31  5-MIN KMKG 111350Z 03007KT 10SM OVC032 05/02 A2975 790 79 -100 040/07 RMK AO2 SLP076 T00500017
14840KMKG MKG20021111085511311/11/02 08:55:31  5-MIN KMKG 111355Z 02007KT 10SM OVC032 05/02 A2975 790 79 -100 020/07 RMK AO2 SLP077 T00500017
14840KMKG MKG20021111090009611/11/02 09:00:31  5-MIN KMKG 111400Z 02007KT 10SM OVC032 05/02 A2975 790 79 -100 020/07 RMK AO2
14840KMKG MKG20021111090509611/11/02 09:05:31  5-MIN KMKG 111405Z 03006KT 10SM OVC032 05/02 A2975 790 79 -100 040/06 RMK AO2
14840KMKG MKG20021111091009611/11/02 09:10:31  5-MIN KMKG 111410Z 05006KT 10SM OVC032 05/02 A2976 780 79 -100 050/06 RMK AO2
14840KMKG MKG20021111091510311/11/02 09:15:31  5-MIN KMKG 111415Z 06007KT 10SM FEW018 OVC032 05/02 A2976 780 79 -200 060/07 RMK AO2
14840KMKG MKG20021111092010311/11/02 09:20:31  5-MIN KMKG 111420Z 03005KT 10SM SCT018 OVC032 05/02 A2977 770 79 -200 040/05 RMK AO2
14840KMKG MKG20021111092510311/11/02 09:25:31  5-MIN KMKG 111425Z 04006KT 10SM BKN018 OVC032 05/02 A2977 770 79 -200 040/06 RMK AO2
14840KMKG MKG20021111093010311/11/02 09:30:31  5-MIN KMKG 111430Z 04007KT 10SM BKN018 OVC032 05/02 A2977 770 82 -200 040/07 RMK AO2
14840KMKG MKG20021111093510311/11/02 09:35:31  5-MIN KMKG 111435Z 05005KT 10SM BKN018 OVC032 05/02 A2978 760 79 -200 050/05 RMK AO2
14840KMKG MKG20021111094009611/11/02 09:40:31  5-MIN KMKG 111440Z 04005KT 10SM OVC018 05/02 A2978 760 79 -200 040/05 RMK AO2
14840KMKG MKG20021111094509611/11/02 09:45:31  5-MIN KMKG 111445Z 04007KT 10SM OVC018 05/02 A2978 760 79 -200 040/07 RMK AO2
14840KMKG MKG20021111095011911/11/02 09:50:31  5-MIN KMKG 111450Z 05007KT 10SM OVC018 05/02 A2978 760 79 -200 050/07 RMK AO2 SLP089 T00500017 51030
14840KMKG MKG20021111095512611/11/02 09:55:31  5-MIN KMKG 111455Z 03007KT 10SM BKN018 OVC037 05/02 A2979 750 79 -200 040/07 RMK AO2 SLP091 T00500017 53036
14840KMKG MKG20021111100010311/11/02 10:00:31  5-MIN KMKG 111500Z 05005KT 10SM BKN018 OVC037 05/02 A2979 750 79 -200 050/05 RMK AO2
14840KMKG MKG20021111100511811/11/02 10:05:31  5-MIN KMKG 111505Z VRB06KT 10SM SCT018 OVC037 05/02 A2980 740 79 -200 VRB/06 RMK AO2 CIG 024 RWY 14
14840KMKG MKG20021111101010311/11/02 10:10:31  5-MIN KMKG 111510Z 02008KT 10SM SCT018 OVC037 05/01 A2980 740 76 -200 030/08 RMK AO2
14840KMKG MKG20021111101510311/11/02 10:15:31  5-MIN KMKG 111515Z 01007KT 10SM FEW018 OVC037 05/01 A2980 740 76 -200 010/07 RMK AO2
14840KMKG MKG20021111102010311/11/02 10:20:31  5-MIN KMKG 111520Z 01008KT 10SM FEW020 OVC037 05/01 A2981 740 76 -200 020/08 RMK AO2
14840KMKG MKG20021111102510311/11/02 10:25:31  5-MIN KMKG 111525Z 01008KT 10SM FEW020 OVC037 04/02 A2981 730 82 -300 010/08 RMK AO2
14840KMKG MKG20021111103010311/11/02 10:30:31  5-MIN KMKG 111530Z 01008KT 10SM FEW022 OVC037 04/02 A2982 730 82 -300 010/08 RMK AO2
14840KMKG MKG20021111103511911/11/02 10:35:31  5-MIN KMKG 111535Z 36007KT 10SM -RA FEW022 OVC037 04/02 A2982 720 82 -300 010/07 RMK AO2 RAB34 P0000
14840KMKG MKG20021111104011911/11/02 10:40:31  5-MIN KMKG 111540Z 36008KT 10SM -RA FEW022 OVC037 04/02 A2983 720 89 -400 360/08 RMK AO2 RAB34 P0000
14840KMKG MKG20021111104511911/11/02 10:45:31  5-MIN KMKG 111545Z 36008KT 10SM -RA FEW022 OVC037 04/02 A2983 720 85 -400 360/08 RMK AO2 RAB34 P0000
14840KMKG MKG20021111105012911/11/02 10:50:31  5-MIN KMKG 111550Z 36008KT 10SM -RA OVC037 04/02 A2983 710 89 -400 360/08 RMK AO2 RAB34 SLP106 P0000 T00390022
14840KMKG MKG20021111105512811/11/02 10:55:31  5-MIN KMKG 111555Z 01007KT 9SM -RA OVC037 03/02 A2984 710 92 -400 020/07 RMK AO2 RAB34 SLP108 P0000 T00330022
14840KMKG MKG20021111110010511/11/02 11:00:31  5-MIN KMKG 111600Z 35006KT 8SM -RA OVC037 03/02 A2984 700 92 -500 350/06 RMK AO2 P0000
14840KMKG MKG20021111110511511/11/02 11:05:31  5-MIN KMKG 111605Z 36007KT 5SM -RA BR FEW009 OVC035 03/02 A2985 700 92 -500 360/07 RMK AO2 P0001
14840KMKG MKG20021111111011411/11/02 11:10:31  5-MIN KMKG 111610Z 01006KT 4SM RA BR FEW009 OVC035 03/02 A2985 700 92 -500 010/06 RMK AO2 P0001
14840KMKG MKG20021111111511411/11/02 11:15:31  5-MIN KMKG 111615Z 36006KT 4SM RA BR FEW009 OVC035 03/02 A2985 690 92 -500 010/06 RMK AO2 P0002
14840KMKG MKG20021111112012911/11/02 11:20:31  5-MIN KMKG 111620Z 35007KT 4SM RA BR FEW009 OVC035 03/02 A2986 690 96 -500 350/07 RMK AO2 CIG 016 RWY 14 P0002
14840KMKG MKG20021111112513711/11/02 11:25:31  5-MIN KMKG 111625Z 35006KT 4SM -RA BR FEW009 SCT017 OVC035 03/02 A2986 690 96 -500 350/06 RMK AO2 CIG 016 RWY 14 P0003
14840KMKG MKG20021111113013711/11/02 11:30:31  5-MIN KMKG 111630Z 01006KT 5SM -RA BR FEW009 BKN028 OVC035 03/02 A2986 680 96 -500 010/06 RMK AO2 CIG 016 RWY 14 P0003
14840KMKG MKG20021111113513711/11/02 11:35:31  5-MIN KMKG 111635Z 01006KT 6SM -RA BR FEW017 BKN028 OVC035 03/02 A2986 680 96 -500 020/06 RMK AO2 CIG 016 RWY 14 P0004
14840KMKG MKG20021111114013711/11/02 11:40:31  5-MIN KMKG 111640Z 01006KT 6SM -RA BR FEW017 BKN028 OVC035 03/02 A2987 680 96 -500 020/06 RMK AO2 CIG 016 RWY 14 P0004
14840KMKG MKG20021111114513411/11/02 11:45:31  5-MIN KMKG 111645Z 01005KT 7SM -RA FEW017 BKN026 OVC035 03/02 A2987 680 96 -600 010/05 RMK AO2 CIG 016 RWY 14 P0004
14840KMKG MKG20021111115013611/11/02 11:50:31  5-MIN KMKG 111650Z 01005KT 7SM -RA FEW017 BKN026 OVC037 03/02 A2987 680 96 -600 020/05 RMK AO2 SLP119 P0004 T00280022
14840KMKG MKG20021111115515111/11/02 11:55:31  5-MIN KMKG 111655Z 01004KT 7SM -RA SCT023 BKN028 OVC042 03/02 A2987 670 96 -600 020/04 RMK AO2 CIG 023 RWY 14 SLP120 P0005 T00280022
14840KMKG MKG20021111120011911/11/02 12:00:31  5-MIN KMKG 111700Z 03005KT 7SM -RA BKN026 BKN035 OVC042 03/02 A2987 670 96 -600 040/05 RMK AO2 P0000
14840KMKG MKG20021111120511211/11/02 12:05:31  5-MIN KMKG 111705Z 05004KT 8SM -RA BKN024 OVC039 03/03 A2987 670 96 -500 050/04 RMK AO2 P0000
14840KMKG MKG20021111121012011/11/02 12:10:31  5-MIN KMKG 111710Z 05004KT 10SM -RA BKN024 BKN035 OVC042 03/02 A2987 670 96 -600 050/04 RMK AO2 P0000
14840KMKG MKG20021111121512011/11/02 12:15:31  5-MIN KMKG 111715Z 03004KT 10SM -RA SCT022 BKN035 OVC042 03/02 A2987 670 92 -500 040/04 RMK AO2 P0000
14840KMKG MKG20021111122012211/11/02 12:20:31  5-MIN KMKG 111720Z 03003KT 10SM SCT022 BKN035 OVC042 03/03 A2988 670 96 -500 030/03 RMK AO2 RAE18 P0000
14840KMKG MKG20021111122512211/11/02 12:25:31  5-MIN KMKG 111725Z 00000KT 10SM SCT022 BKN035 OVC043 03/03 A2988 670 96 -500 000/00 RMK AO2 RAE18 P0000
14840KMKG MKG20021111123012211/11/02 12:30:31  5-MIN KMKG 111730Z 00000KT 10SM FEW022 BKN035 OVC043 03/03 A2988 670 96 -500 000/00 RMK AO2 RAE18 P0000
14840KMKG MKG20021111123512211/11/02 12:35:31  5-MIN KMKG 111735Z 04003KT 10SM FEW022 SCT035 OVC043 03/03 A2988 670 96 -500 040/03 RMK AO2 RAE18 P0000
14840KMKG MKG20021111124011511/11/02 12:40:31  5-MIN KMKG 111740Z 07003KT 10SM SCT035 OVC045 03/02 A2988 670 92 -500 070/03 RMK AO2 RAE18 P0000
14840KMKG MKG20021111124511511/11/02 12:45:31  5-MIN KMKG 111745Z 07003KT 10SM FEW035 OVC045 04/03 A2988 660 92 -400 070/03 RMK AO2 RAE18 P0000
14840KMKG MKG20021111125015611/11/02 12:50:31  5-MIN KMKG 111750Z 00000KT 10SM FEW035 OVC045 04/03 A2988 660 92 -400 000/00 RMK AO2 RAE18 SLP124 P0000 60005 T00390028 10050 20028 53036
14840KMKG MKG20021111125514911/11/02 12:55:31  5-MIN KMKG 111755Z 00000KT 10SM OVC045 04/03 A2989 660 92 -400 000/00 RMK AO2 RAE18 SLP125 P0000 60005 T00390028 10050 20028 51032
14840KMKG MKG20021111130009611/11/02 13:00:31  5-MIN KMKG 111800Z 00000KT 10SM OVC045 04/03 A2989 660 92 -400 000/00 RMK AO2
14840KMKG MKG20021111130509611/11/02 13:05:31  5-MIN KMKG 111805Z 00000KT 10SM OVC045 04/03 A2989 660 92 -400 000/00 RMK AO2
14840KMKG MKG20021111131009611/11/02 13:10:31  5-MIN KMKG 111810Z 00000KT 10SM OVC047 04/03 A2989 660 92 -400 000/00 RMK AO2
14840KMKG MKG20021111131509611/11/02 13:15:31  5-MIN KMKG 111815Z 00000KT 10SM OVC047 04/03 A2989 660 92 -400 000/00 RMK AO2
14840KMKG MKG20021111132009611/11/02 13:20:31  5-MIN KMKG 111820Z 00000KT 10SM OVC047 04/03 A2990 650 92 -400 000/00 RMK AO2
14840KMKG MKG20021111132509611/11/02 13:25:31  5-MIN KMKG 111825Z 00000KT 10SM OVC047 04/03 A2990 650 92 -400 000/00 RMK AO2
14840KMKG MKG20021111133011211/11/02 13:30:31  5-MIN KMKG 111830Z 00000KT 10SM -RA OVC047 04/03 A2990 650 89 -400 000/00 RMK AO2 RAB30 P0000
14840KMKG MKG20021111133511911/11/02 13:35:31  5-MIN KMKG 111835Z 00000KT 10SM -RA BKN050 OVC065 04/03 A2990 650 92 -500 000/00 RMK AO2 RAB30 P0000
14840KMKG MKG20021111134012611/11/02 13:40:31  5-MIN KMKG 111840Z 31004KT 10SM -RA BKN047 BKN055 OVC065 04/03 A2990 650 92 -400 320/04 RMK AO2 RAB30 P0000
14840KMKG MKG20021111134512611/11/02 13:45:31  5-MIN KMKG 111845Z 30003KT 10SM -RA SCT035 BKN049 OVC065 04/03 A2990 650 89 -400 310/03 RMK AO2 RAB30 P0000
14840KMKG MKG20021111135014311/11/02 13:50:31  5-MIN KMKG 111850Z 00000KT 10SM -RA SCT033 BKN049 OVC070 04/03 A2991 640 92 -400 000/00 RMK AO2 RAB30 SLP131 P0000 T00440033
14840KMKG MKG20021111135514311/11/02 13:55:31  5-MIN KMKG 111855Z 01004KT 10SM -RA SCT033 BKN049 OVC070 04/03 A2991 640 92 -400 010/04 RMK AO2 RAB30 SLP131 P0000 T00440033
14840KMKG MKG20021111140011311/11/02 14:00:31  5-MIN KMKG 111900Z 02005KT 10SM -RA SCT036 OVC070 04/03 A2991 640 89 -400 020/05 RMK AO2 P0000
14840KMKG MKG20021111140511511/11/02 14:05:31  5-MIN KMKG 111905Z 36005KT 10SM SCT034 OVC070 04/03 A2991 640 89 -400 010/05 RMK AO2 RAE05 P0000
14840KMKG MKG20021111141011511/11/02 14:10:31  5-MIN KMKG 111910Z 36006KT 10SM FEW032 OVC065 04/03 A2991 640 89 -400 010/06 RMK AO2 RAE05 P0000
14840KMKG MKG20021111141511511/11/02 14:15:31  5-MIN KMKG 111915Z 02005KT 10SM FEW039 OVC065 04/02 A2992 630 85 -400 030/05 RMK AO2 RAE05 P0000
14840KMKG MKG20021111142011511/11/02 14:20:31  5-MIN KMKG 111920Z 36005KT 10SM FEW044 OVC065 04/02 A2992 630 85 -400 360/05 RMK AO2 RAE05 P0000
14840KMKG MKG20021111142511511/11/02 14:25:31  5-MIN KMKG 111925Z 36005KT 10SM FEW041 OVC060 04/02 A2992 630 85 -400 010/05 RMK AO2 RAE05 P0000
14840KMKG MKG20021111143011511/11/02 14:30:31  5-MIN KMKG 111930Z 01004KT 10SM FEW046 OVC060 04/02 A2992 630 85 -400 020/04 RMK AO2 RAE05 P0000
14840KMKG MKG20021111143511511/11/02 14:35:31  5-MIN KMKG 111935Z 02004KT 10SM SCT046 OVC060 04/03 A2993 630 89 -400 030/04 RMK AO2 RAE05 P0000
14840KMKG MKG20021111144011511/11/02 14:40:31  5-MIN KMKG 111940Z 02004KT 10SM SCT050 OVC060 04/02 A2993 620 85 -400 020/04 RMK AO2 RAE05 P0000
14840KMKG MKG20021111144511511/11/02 14:45:31  5-MIN KMKG 111945Z 01004KT 10SM BKN050 OVC060 04/02 A2993 620 85 -400 010/04 RMK AO2 RAE05 P0000
14840KMKG MKG20021111145013211/11/02 14:50:31  5-MIN KMKG 111950Z 01004KT 10SM BKN048 OVC060 04/02 A2993 620 85 -400 010/04 RMK AO2 RAE05 SLP141 P0000 T00440022
14840KMKG MKG20021111145513211/11/02 14:55:31  5-MIN KMKG 111955Z 36004KT 10SM BKN048 OVC065 04/02 A2994 610 85 -400 360/04 RMK AO2 RAE05 SLP142 P0000 T00440022
14840KMKG MKG20021111150011411/11/02 15:00:31  5-MIN KMKG 112000Z 36004KT 10SM -RA OVC048 04/02 A2994 610 85 -400 360/04 RMK AO2 RAB1956 P0000
14840KMKG MKG20021111150511411/11/02 15:05:31  5-MIN KMKG 112005Z 00000KT 10SM -RA OVC048 04/02 A2994 610 85 -400 000/00 RMK AO2 RAB1956 P0000
14840KMKG MKG20021111151011411/11/02 15:10:31  5-MIN KMKG 112010Z 00000KT 10SM -RA OVC048 04/02 A2994 610 85 -400 000/00 RMK AO2 RAB1956 P0000
14840KMKG MKG20021111151511411/11/02 15:15:31  5-MIN KMKG 112015Z 01003KT 10SM -RA OVC048 04/03 A2995 610 89 -400 010/03 RMK AO2 RAB1956 P0000
14840KMKG MKG20021111152012111/11/02 15:20:31  5-MIN KMKG 112020Z 35003KT 10SM -RA BKN048 OVC055 05/02 A2995 600 82 -400 350/03 RMK AO2 RAB1956 P0000
14840KMKG MKG20021111152512711/11/02 15:25:31  5-MIN KMKG 112025Z 00000KT 10SM BKN048 BKN060 OVC080 05/02 A2995 600 82 -400 000/00 RMK AO2 RAB1956E25 P0000
14840KMKG MKG20021111153012711/11/02 15:30:31  5-MIN KMKG 112030Z 00000KT 10SM SCT048 BKN060 OVC080 05/02 A2995 600 82 -400 000/00 RMK AO2 RAB1956E25 P0000
14840KMKG MKG20021111153512711/11/02 15:35:31  5-MIN KMKG 112035Z 00000KT 10SM FEW048 SCT060 BKN080 05/03 A2996 600 85 -400 000/00 RMK AO2 RAB1956E25 P0000
14840KMKG MKG20021111154012011/11/02 15:40:31  5-MIN KMKG 112040Z 00000KT 10SM FEW048 BKN080 05/03 A2996 590 85 -400 000/00 RMK AO2 RAB1956E25 P0000
14840KMKG MKG20021111154512711/11/02 15:45:31  5-MIN KMKG 112045Z 34003KT 10SM SCT035 SCT060 BKN080 05/03 A2996 590 85 -400 350/03 RMK AO2 RAB1956E25 P0000
14840KMKG MKG20021111155014911/11/02 15:50:31  5-MIN KMKG 112050Z 33003KT 10SM BKN035 BKN080 06/03 A2997 590 82 -300 340/03 RMK AO2 RAB1956E25 SLP152 P0000 60000 T00560028 51032
14840KMKG MKG20021111155514911/11/02 15:55:31  5-MIN KMKG 112055Z 32003KT 10SM BKN033 BKN080 05/02 A2997 580 82 -400 320/03 RMK AO2 RAB1956E25 SLP154 P0000 60000 T00500022 53028
14840KMKG MKG20021111160010311/11/02 16:00:31  5-MIN KMKG 112100Z 00000KT 10SM BKN033 BKN080 05/02 A2997 580 82 -400 000/00 RMK AO2
14840KMKG MKG20021111160509611/11/02 16:05:31  5-MIN KMKG 112105Z 00000KT 10SM OVC033 05/02 A2998 580 82 -400 000/00 RMK AO2
14840KMKG MKG20021111161009611/11/02 16:10:31  5-MIN KMKG 112110Z 00000KT 10SM OVC033 05/02 A2998 580 82 -400 000/00 RMK AO2
14840KMKG MKG20021111161509611/11/02 16:15:31  5-MIN KMKG 112115Z 27004KT 10SM OVC033 05/02 A2998 570 82 -400 280/04 RMK AO2
14840KMKG MKG20021111162009611/11/02 16:20:31  5-MIN KMKG 112120Z 26003KT 10SM OVC033 05/03 A2998 570 85 -400 260/03 RMK AO2
14840KMKG MKG20021111162509611/11/02 16:25:31  5-MIN KMKG 112125Z 00000KT 10SM OVC033 05/03 A2999 570 85 -400 000/00 RMK AO2
14840KMKG MKG20021111163009611/11/02 16:30:31  5-MIN KMKG 112130Z 00000KT 10SM OVC031 05/03 A2999 570 85 -400 000/00 RMK AO2
14840KMKG MKG20021111163509611/11/02 16:35:31  5-MIN KMKG 112135Z 00000KT 10SM OVC031 05/03 A2999 560 85 -400 000/00 RMK AO2
14840KMKG MKG20021111164009611/11/02 16:40:31  5-MIN KMKG 112140Z 00000KT 10SM OVC029 05/03 A3000 560 85 -400 000/00 RMK AO2
14840KMKG MKG20021111164509611/11/02 16:45:31  5-MIN KMKG 112145Z 00000KT 10SM BKN029 05/03 A3000 560 85 -400 000/00 RMK AO2
14840KMKG MKG20021111165011311/11/02 16:50:31  5-MIN KMKG 112150Z 00000KT 10SM OVC027 05/03 A3000 560 85 -400 000/00 RMK AO2 SLP163 T00500028
14840KMKG MKG20021111165511311/11/02 16:55:31  5-MIN KMKG 112155Z 33004KT 10SM OVC027 05/02 A3000 560 82 -400 330/04 RMK AO2 SLP164 T00500022
14840KMKG MKG20021111170009611/11/02 17:00:31  5-MIN KMKG 112200Z 33003KT 10SM OVC027 06/02 A3000 550 79 -400 330/03 RMK AO2
14840KMKG MKG20021111170509611/11/02 17:05:31  5-MIN KMKG 112205Z 00000KT 10SM OVC027 06/02 A3000 550 79 -400 000/00 RMK AO2
14840KMKG MKG20021111171009611/11/02 17:10:31  5-MIN KMKG 112210Z 35004KT 10SM OVC029 06/03 A3001 550 82 -400 350/04 RMK AO2
14840KMKG MKG20021111171509611/11/02 17:15:31  5-MIN KMKG 112215Z 00000KT 10SM OVC029 06/02 A3001 550 79 -400 000/00 RMK AO2
14840KMKG MKG20021111172009611/11/02 17:20:31  5-MIN KMKG 112220Z 34003KT 10SM OVC029 06/02 A3001 550 79 -400 340/03 RMK AO2
14840KMKG MKG20021111172509611/11/02 17:25:31  5-MIN KMKG 112225Z 32004KT 10SM BKN031 05/02 A3001 540 82 -400 320/04 RMK AO2
14840KMKG MKG20021111173009611/11/02 17:30:31  5-MIN KMKG 112230Z 30003KT 10SM BKN033 05/02 A3002 540 82 -400 300/03 RMK AO2
14840KMKG MKG20021111173510311/11/02 17:35:31  5-MIN KMKG 112235Z 31006KT 10SM SCT033 BKN038 05/02 A3002 540 79 -400 310/06 RMK AO2
14840KMKG MKG20021111174010311/11/02 17:40:31  5-MIN KMKG 112240Z 31005KT 10SM SCT033 BKN038 04/02 A3002 540 82 -500 310/05 RMK AO2
14840KMKG MKG20021111174510311/11/02 17:45:31  5-MIN KMKG 112245Z 31004KT 10SM SCT033 BKN038 04/02 A3002 530 82 -500 320/04 RMK AO2
14840KMKG MKG20021111175012011/11/02 17:50:31  5-MIN KMKG 112250Z 31006KT 10SM SCT033 BKN038 04/02 A3003 530 82 -500 310/06 RMK AO2 SLP174 T00440017
14840KMKG MKG20021111175512011/11/02 17:55:31  5-MIN KMKG 112255Z 32005KT 10SM SCT030 BKN038 04/02 A3003 530 82 -500 320/05 RMK AO2 SLP175 T00440017
14840KMKG MKG20021111180009611/11/02 18:00:31  5-MIN KMKG 112300Z 32008KT 10SM OVC038 04/02 A3003 530 82 -500 320/08 RMK AO2
14840KMKG MKG20021111180509611/11/02 18:05:31  5-MIN KMKG 112305Z 32007KT 10SM BKN038 04/02 A3004 520 82 -500 330/07 RMK AO2
14840KMKG MKG20021111181009611/11/02 18:10:31  5-MIN KMKG 112310Z 31008KT 10SM BKN038 04/02 A3004 520 85 -600 320/08 RMK AO2
14840KMKG MKG20021111181509611/11/02 18:15:31  5-MIN KMKG 112315Z 31006KT 10SM BKN038 04/02 A3005 510 85 -600 310/06 RMK AO2
14840KMKG MKG20021111182009611/11/02 18:20:31  5-MIN KMKG 112320Z 31009KT 10SM BKN038 04/02 A3005 510 82 -600 310/09 RMK AO2
14840KMKG MKG20021111182509611/11/02 18:25:31  5-MIN KMKG 112325Z 31007KT 10SM BKN038 04/02 A3005 510 82 -600 320/07 RMK AO2
14840KMKG MKG20021111183009611/11/02 18:30:31  5-MIN KMKG 112330Z 32009KT 10SM BKN038 04/02 A3006 500 82 -600 320/09 RMK AO2
14840KMKG MKG20021111183509611/11/02 18:35:31  5-MIN KMKG 112335Z 32007KT 10SM BKN038 04/02 A3006 500 82 -600 320/07 RMK AO2
14840KMKG MKG20021111184009611/11/02 18:40:31  5-MIN KMKG 112340Z 31007KT 10SM BKN038 04/01 A3006 500 82 -600 320/07 RMK AO2
14840KMKG MKG20021111184509611/11/02 18:45:31  5-MIN KMKG 112345Z 32008KT 10SM BKN038 04/01 A3006 500 82 -600 320/08 RMK AO2
14840KMKG MKG20021111185013711/11/02 18:50:31  5-MIN KMKG 112350Z 31009KT 10SM BKN038 04/01 A3007 500 82 -600 320/09 RMK AO2 SLP187 60000 T00390011 10056 20039 53028
14840KMKG MKG20021111185513711/11/02 18:55:31  5-MIN KMKG 112355Z 32010KT 10SM BKN038 04/01 A3007 490 82 -600 320/10 RMK AO2 SLP188 60000 T00390011 10056 20039 53033
14840KMKG MKG20021111190009611/11/02 19:00:31  5-MIN KMKG 120000Z 33008KT 10SM OVC038 04/01 A3007 490 82 -600 330/08 RMK AO2
14840KMKG MKG20021111190509611/11/02 19:05:31  5-MIN KMKG 120005Z 32008KT 10SM BKN038 04/01 A3007 490 82 -600 330/08 RMK AO2
14840KMKG MKG20021111191009611/11/02 19:10:31  5-MIN KMKG 120010Z 33007KT 10SM BKN038 03/01 A3007 490 85 -700 330/07 RMK AO2
14840KMKG MKG20021111191509611/11/02 19:15:31  5-MIN KMKG 120015Z 33006KT 10SM BKN038 03/01 A3008 490 85 -700 330/06 RMK AO2
14840KMKG MKG20021111192009611/11/02 19:20:31  5-MIN KMKG 120020Z 32007KT 10SM BKN038 03/01 A3008 480 85 -700 330/07 RMK AO2
14840KMKG MKG20021111192509611/11/02 19:25:31  5-MIN KMKG 120025Z 32008KT 10SM BKN038 04/02 A3008 480 85 -700 320/08 RMK AO2
14840KMKG MKG20021111193009611/11/02 19:30:31  5-MIN KMKG 120030Z 32008KT 10SM BKN036 04/01 A3009 480 82 -700 320/08 RMK AO2
14840KMKG MKG20021111193510311/11/02 19:35:31  5-MIN KMKG 120035Z 32008KT 10SM FEW030 BKN036 04/02 A3009 470 85 -700 320/08 RMK AO2
14840KMKG MKG20021111194010311/11/02 19:40:31  5-MIN KMKG 120040Z 32009KT 10SM FEW030 BKN036 04/02 A3009 470 85 -700 320/09 RMK AO2
14840KMKG MKG20021111194510311/11/02 19:45:31  5-MIN KMKG 120045Z 31007KT 10SM SCT030 OVC036 04/02 A3009 470 85 -700 320/07 RMK AO2
14840KMKG MKG20021111195012011/11/02 19:50:31  5-MIN KMKG 120050Z 32008KT 10SM BKN030 OVC036 04/02 A3010 470 85 -700 330/08 RMK AO2 SLP197 T00390017
14840KMKG MKG20021111195512011/11/02 19:55:31  5-MIN KMKG 120055Z 33007KT 10SM BKN028 OVC036 04/02 A3010 470 85 -700 330/07 RMK AO2 SLP198 T00390017
14840KMKG MKG20021111200010311/11/02 20:00:31  5-MIN KMKG 120100Z 33007KT 10SM BKN030 OVC036 04/02 A3010 460 85 -700 330/07 RMK AO2
14840KMKG MKG20021111200510311/11/02 20:05:31  5-MIN KMKG 120105Z 35007KT 10SM SCT028 OVC036 04/02 A3010 460 85 -700 350/07 RMK AO2
14840KMKG MKG20021111201010311/11/02 20:10:31  5-MIN KMKG 120110Z 35009KT 10SM SCT028 OVC036 04/02 A3011 460 85 -700 350/09 RMK AO2
14840KMKG MKG20021111201510311/11/02 20:15:31  5-MIN KMKG 120115Z 35007KT 10SM FEW028 OVC036 04/02 A3010 460 85 -700 350/07 RMK AO2
14840KMKG MKG20021111202011911/11/02 20:20:31  5-MIN KMKG 120120Z 36007KT 10SM -RA FEW028 OVC036 04/02 A3010 460 85 -700 360/07 RMK AO2 RAB16 P0000
14840KMKG MKG20021111202511211/11/02 20:25:31  5-MIN KMKG 120125Z 35009KT 10SM -RA OVC036 04/02 A3011 460 85 -700 350/09 RMK AO2 RAB16 P0000
14840KMKG MKG20021111203011211/11/02 20:30:31  5-MIN KMKG 120130Z 34009KT 10SM -RA OVC036 03/02 A3011 460 89 -800 350/09 RMK AO2 RAB16 P0000
14840KMKG MKG20021111203511211/11/02 20:35:31  5-MIN KMKG 120135Z 35007KT 10SM -RA OVC038 03/02 A3011 460 89 -800 350/07 RMK AO2 RAB16 P0000
14840KMKG MKG20021111204011211/11/02 20:40:31  5-MIN KMKG 120140Z 34008KT 10SM -RA OVC038 03/02 A3011 460 89 -800 350/08 RMK AO2 RAB16 P0000
14840KMKG MKG20021111204511811/11/02 20:45:31  5-MIN KMKG 120145Z 34007KT 10SM FEW030 OVC038 03/02 A3011 450 89 -800 340/07 RMK AO2 RAB16E42 P0000
14840KMKG MKG20021111205013611/11/02 20:50:31  5-MIN KMKG 120150Z 33008KT 10SM -RA FEW028 OVC038 03/02 A3012 450 89 -800 330/08 RMK AO2 RAB16 SLP204 P0000 T00330017
14840KMKG MKG20021111205513611/11/02 20:55:31  5-MIN KMKG 120155Z 33007KT 10SM -RA FEW028 OVC038 04/02 A3012 450 85 -700 330/07 RMK AO2 RAB16 SLP205 P0000 T00390017
14840KMKG MKG20021111210011711/11/02 21:00:31  5-MIN KMKG 120200Z 33006KT 10SM FEW028 OVC038 04/02 A3012 440 85 -700 340/06 RMK AO2 RAE0157 P0000
14840KMKG MKG20021111210511711/11/02 21:05:31  5-MIN KMKG 120205Z 34007KT 10SM FEW028 OVC040 03/02 A3012 440 89 -800 340/07 RMK AO2 RAE0157 P0000
14840KMKG MKG20021111211011711/11/02 21:10:31  5-MIN KMKG 120210Z 34007KT 10SM SCT028 OVC040 03/02 A3013 440 89 -800 340/07 RMK AO2 RAE0157 P0000
14840KMKG MKG20021111211513111/11/02 21:15:31  5-MIN KMKG 120215Z 33007KT 10SM -RA SCT028 SCT035 OVC042 03/02 A3013 440 89 -800 330/07 RMK AO2 RAE0157B15 P0000
14840KMKG MKG20021111212012411/11/02 21:20:31  5-MIN KMKG 120220Z 33008KT 10SM -RA FEW028 OVC042 03/02 A3013 440 89 -800 330/08 RMK AO2 RAE0157B15 P0000
14840KMKG MKG20021111212512311/11/02 21:25:31  5-MIN KMKG 120225Z 34006KT 10SM FEW026 OVC042 03/02 A3013 440 89 -800 340/06 RMK AO2 RAE0157B15E25 P0000
14840KMKG MKG20021111213012311/11/02 21:30:31  5-MIN KMKG 120230Z 36006KT 10SM FEW026 OVC042 03/02 A3013 440 89 -800 010/06 RMK AO2 RAE0157B15E25 P0000
14840KMKG MKG20021111213512311/11/02 21:35:31  5-MIN KMKG 120235Z 35007KT 10SM FEW026 OVC042 03/02 A3013 440 89 -800 360/07 RMK AO2 RAE0157B15E25 P0000
14840KMKG MKG20021111214011611/11/02 21:40:31  5-MIN KMKG 120240Z 36007KT 10SM OVC042 03/02 A3013 440 89 -800 360/07 RMK AO2 RAE0157B15E25 P0000
14840KMKG MKG20021111214511611/11/02 21:45:31  5-MIN KMKG 120245Z 35007KT 10SM OVC042 03/02 A3013 430 92 -800 360/07 RMK AO2 RAE0157B15E25 P0000
14840KMKG MKG20021111215015211/11/02 21:50:31  5-MIN KMKG 120250Z 35008KT 10SM FEW028 OVC040 03/02 A3013 430 92 -800 350/08 RMK AO2 RAE0157B15E25 SLP210 P0000 60000 T00330022 53033
14840KMKG MKG20021111215517411/11/02 21:55:31  5-MIN KMKG 120255Z 36007KT 10SM -RA SCT027 OVC040 03/02 A3014 430 89 -800 360/07 RMK AO2 RAE0157B15E25B51 CIG 026 RWY 14 SLP211 P0000 60000 T00330017 51022
14840KMKG MKG20021111220011711/11/02 22:00:31  5-MIN KMKG 120300Z 36007KT 10SM BKN027 OVC040 03/02 A3014 430 89 -800 010/07 RMK AO2 RAE0257 P0000
14840KMKG MKG20021111220511711/11/02 22:05:31  5-MIN KMKG 120305Z 36005KT 10SM BKN029 OVC040 03/02 A3014 420 89 -800 360/05 RMK AO2 RAE0257 P0000
14840KMKG MKG20021111221011711/11/02 22:10:31  5-MIN KMKG 120310Z 34006KT 10SM BKN029 OVC040 03/02 A3015 420 89 -800 340/06 RMK AO2 RAE0257 P0000
14840KMKG MKG20021111221511011/11/02 22:15:31  5-MIN KMKG 120315Z 35006KT 10SM OVC027 03/02 A3015 420 89 -800 360/06 RMK AO2 RAE0257 P0000
14840KMKG MKG20021111222011011/11/02 22:20:31  5-MIN KMKG 120320Z 36005KT 10SM OVC027 03/02 A3015 420 89 -800 010/05 RMK AO2 RAE0257 P0000
14840KMKG MKG20021111222511011/11/02 22:25:31  5-MIN KMKG 120325Z 35004KT 10SM OVC027 03/02 A3015 420 89 -800 360/04 RMK AO2 RAE0257 P0000
14840KMKG MKG20021111223011011/11/02 22:30:31  5-MIN KMKG 120330Z 35005KT 10SM OVC027 03/02 A3015 420 89 -800 350/05 RMK AO2 RAE0257 P0000
14840KMKG MKG20021111223511011/11/02 22:35:31  5-MIN KMKG 120335Z 35005KT 10SM OVC025 03/02 A3015 420 89 -800 350/05 RMK AO2 RAE0257 P0000
14840KMKG MKG20021111224011011/11/02 22:40:31  5-MIN KMKG 120340Z 34004KT 10SM OVC025 03/02 A3015 410 89 -800 340/04 RMK AO2 RAE0257 P0000
14840KMKG MKG20021111224511711/11/02 22:45:31  5-MIN KMKG 120345Z 35005KT 10SM -RA OVC025 03/02 A3016 410 89 -800 350/05 RMK AO2 RAE0257B41 P0000
14840KMKG MKG20021111225013411/11/02 22:50:31  5-MIN KMKG 120350Z 36005KT 10SM -RA OVC025 03/02 A3016 410 89 -800 360/05 RMK AO2 RAE0257B41 SLP218 P0000 T00330017
14840KMKG MKG20021111225514111/11/02 22:55:31  5-MIN KMKG 120355Z 01005KT 10SM -RA BKN025 OVC033 03/02 A3016 410 89 -800 020/05 RMK AO2 RAE0257B41 SLP218 P0000 T00330017
14840KMKG MKG20021111230011311/11/02 23:00:31  5-MIN KMKG 120400Z 02006KT 10SM -RA BKN025 OVC033 03/02 A3016 410 89 -800 030/06 RMK AO2 P0000
14840KMKG MKG20021111230511311/11/02 23:05:31  5-MIN KMKG 120405Z 02005KT 10SM -RA BKN028 OVC036 03/02 A3016 410 89 -800 020/05 RMK AO2 P0000
14840KMKG MKG20021111231011311/11/02 23:10:31  5-MIN KMKG 120410Z 02005KT 10SM -RA BKN028 OVC036 03/02 A3016 410 89 -800 020/05 RMK AO2 P0000
14840KMKG MKG20021111231511511/11/02 23:15:31  5-MIN KMKG 120415Z 02005KT 10SM BKN029 OVC036 03/02 A3016 410 89 -800 020/05 RMK AO2 RAE15 P0000
14840KMKG MKG20021111232012211/11/02 23:20:31  5-MIN KMKG 120420Z 02005KT 10SM FEW023 BKN030 OVC037 03/02 A3016 410 89 -800 020/05 RMK AO2 RAE15 P0000
14840KMKG MKG20021111232512011/11/02 23:25:31  5-MIN KMKG 120425Z 01005KT 10SM -RA SCT023 BKN030 OVC037 03/02 A3016 410 89 -800 010/05 RMK AO2 P0000
14840KMKG MKG20021111233011311/11/02 23:30:31  5-MIN KMKG 120430Z 01003KT 10SM -RA BKN023 OVC033 03/02 A3016 410 89 -800 010/03 RMK AO2 P0000
14840KMKG MKG20021111233511311/11/02 23:35:31  5-MIN KMKG 120435Z 01004KT 10SM -RA BKN023 OVC033 03/02 A3016 410 89 -800 010/04 RMK AO2 P0000
14840KMKG MKG20021111234011311/11/02 23:40:31  5-MIN KMKG 120440Z 01004KT 10SM -RA BKN023 OVC031 03/02 A3016 410 89 -800 020/04 RMK AO2 P0000
14840KMKG MKG20021111234511311/11/02 23:45:31  5-MIN KMKG 120445Z 02004KT 10SM -RA BKN023 OVC031 03/02 A3016 410 89 -800 020/04 RMK AO2 P0000
14840KMKG MKG20021111235014011/11/02 23:50:31  5-MIN KMKG 120450Z 03004KT 10SM -RA BKN024 OVC030 03/02 A3016 410 89 -800 030/04 RMK AO2 SLP219 P0000 T00330017 400830028
14840KMKG MKG20021111235514011/11/02 23:55:31  5-MIN KMKG 120455Z 36004KT 10SM -RA SCT021 OVC027 03/02 A3016 410 89 -800 360/04 RMK AO2 SLP220 P0000 T00330017 400830028
14840KMKG MKG20021112000011311/12/02 00:00:31  5-MIN KMKG 120500Z 01005KT 10SM -RA FEW021 OVC027 03/02 A3016 410 89 -800 010/05 RMK AO2 P0000
14840KMKG MKG20021112000512011/12/02 00:05:31  5-MIN KMKG 120505Z 02005KT 10SM -RA FEW021 BKN027 OVC033 03/02 A3017 400 92 -900 020/05 RMK AO2 P0000
14840KMKG MKG20021112001012211/12/02 00:10:31  5-MIN KMKG 120510Z 36004KT 10SM FEW020 BKN025 OVC031 03/02 A3017 400 92 -900 360/04 RMK AO2 RAE06 P0000
14840KMKG MKG20021112001511511/12/02 00:15:31  5-MIN KMKG 120515Z 01004KT 10SM FEW020 OVC025 03/02 A3017 400 92 -900 010/04 RMK AO2 RAE06 P0000
14840KMKG MKG20021112002011511/12/02 00:20:31  5-MIN KMKG 120520Z 36004KT 10SM BKN025 OVC033 03/02 A3017 400 92 -900 010/04 RMK AO2 RAE06 P0000
14840KMKG MKG20021112002512211/12/02 00:25:31  5-MIN KMKG 120525Z 36005KT 10SM BKN025 BKN033 OVC042 03/02 A3017 400 89 -800 360/05 RMK AO2 RAE06 P0000
14840KMKG MKG20021112003012211/12/02 00:30:31  5-MIN KMKG 120530Z 36003KT 10SM BKN025 BKN033 OVC042 03/02 A3017 400 89 -800 360/03 RMK AO2 RAE06 P0000
14840KMKG MKG20021112003512211/12/02 00:35:31  5-MIN KMKG 120535Z 36003KT 10SM BKN025 BKN033 OVC042 03/02 A3017 400 89 -800 360/03 RMK AO2 RAE06 P0000
14840KMKG MKG20021112004012211/12/02 00:40:31  5-MIN KMKG 120540Z 00000KT 10SM BKN025 BKN033 OVC042 03/02 A3017 400 89 -800 000/00 RMK AO2 RAE06 P0000
14840KMKG MKG20021112004512211/12/02 00:45:31  5-MIN KMKG 120545Z 00000KT 10SM BKN025 BKN035 OVC042 03/02 A3017 400 89 -800 000/00 RMK AO2 RAE06 P0000
14840KMKG MKG20021112005016311/12/02 00:50:31  5-MIN KMKG 120550Z 00000KT 10SM BKN023 BKN035 OVC042 03/02 A3017 400 89 -800 000/00 RMK AO2 RAE06 SLP223 P0000 60000 T00330017 10039 20028 51022
14840KMKG MKG20021112005515611/12/02 00:55:31  5-MIN KMKG 120555Z 00000KT 10SM BKN023 OVC037 03/02 A3017 400 89 -800 000/00 RMK AO2 RAE06 SLP223 P0000 60000 T00330017 10039 20028 51012
14840KMKG MKG20021112010010311/12/02 01:00:31  5-MIN KMKG 120600Z 00000KT 10SM BKN023 OVC028 03/02 A3017 400 92 -800 000/00 RMK AO2
14840KMKG MKG20021112010511011/12/02 01:05:31  5-MIN KMKG 120605Z 00000KT 10SM BKN023 BKN028 OVC035 03/02 A3018 400 89 -800 000/00 RMK AO2
14840KMKG MKG20021112011011011/12/02 01:10:31  5-MIN KMKG 120610Z 00000KT 10SM BKN021 BKN031 OVC035 03/02 A3018 390 89 -800 000/00 RMK AO2
14840KMKG MKG20021112011510311/12/02 01:15:31  5-MIN KMKG 120615Z 00000KT 10SM BKN021 OVC031 03/02 A3018 390 89 -800 000/00 RMK AO2
14840KMKG MKG20021112012010311/12/02 01:20:31  5-MIN KMKG 120620Z 00000KT 10SM BKN021 OVC031 03/02 A3018 390 92 -800 000/00 RMK AO2
14840KMKG MKG20021112012512511/12/02 01:25:31  5-MIN KMKG 120625Z 00000KT 10SM SCT021 BKN025 OVC031 03/02 A3018 390 89 -800 000/00 RMK AO2 CIG 019 RWY 14
14840KMKG MKG20021112013011911/12/02 01:30:31  5-MIN KMKG 120630Z 00000KT 10SM -RA BKN023 OVC031 03/02 A3018 400 92 -800 000/00 RMK AO2 RAB28 P0000
14840KMKG MKG20021112013511211/12/02 01:35:31  5-MIN KMKG 120635Z 05003KT 10SM -RA OVC023 03/02 A3018 390 89 -800 050/03 RMK AO2 RAB28 P0000
14840KMKG MKG20021112014011111/12/02 01:40:31  5-MIN KMKG 120640Z 05004KT 10SM OVC023 03/02 A3018 390 92 -800 050/04 RMK AO2 RAB28E37 P0000
14840KMKG MKG20021112014511111/12/02 01:45:31  5-MIN KMKG 120645Z 04003KT 10SM OVC025 03/02 A3018 390 89 -800 050/03 RMK AO2 RAB28E37 P0000
14840KMKG MKG20021112015012811/12/02 01:50:31  5-MIN KMKG 120650Z 05003KT 10SM OVC025 03/02 A3018 390 92 -800 050/03 RMK AO2 RAB28E37 SLP226 P0000 T00330022
14840KMKG MKG20021112015512811/12/02 01:55:31  5-MIN KMKG 120655Z 00000KT 10SM OVC025 03/02 A3018 390 89 -800 000/00 RMK AO2 RAB28E37 SLP226 P0000 T00330017
14840KMKG MKG20021112020009611/12/02 02:00:31  5-MIN KMKG 120700Z 00000KT 10SM OVC025 03/02 A3018 390 92 -800 000/00 RMK AO2
14840KMKG MKG20021112020509611/12/02 02:05:31  5-MIN KMKG 120705Z 00000KT 10SM OVC025 03/02 A3018 390 92 -800 000/00 RMK AO2
14840KMKG MKG20021112021011111/12/02 02:10:31  5-MIN KMKG 120710Z 03004KT 9SM -RA OVC025 03/02 A3018 390 92 -800 030/04 RMK AO2 RAB10 P0000
14840KMKG MKG20021112021511111/12/02 02:15:31  5-MIN KMKG 120715Z 06004KT 9SM -RA OVC025 03/02 A3019 390 89 -800 060/04 RMK AO2 RAB10 P0000
14840KMKG MKG20021112022011211/12/02 02:20:31  5-MIN KMKG 120720Z 05004KT 10SM -RA OVC025 03/02 A3018 390 92 -900 060/04 RMK AO2 RAB10 P0000
14840KMKG MKG20021112022511111/12/02 02:25:31  5-MIN KMKG 120725Z 06004KT 10SM OVC025 03/02 A3019 380 92 -900 060/04 RMK AO2 RAB10E21 P0000
14840KMKG MKG20021112023011111/12/02 02:30:31  5-MIN KMKG 120730Z 05005KT 10SM OVC023 03/02 A3019 380 92 -900 060/05 RMK AO2 RAB10E21 P0000
14840KMKG MKG20021112023511111/12/02 02:35:31  5-MIN KMKG 120735Z 06005KT 10SM OVC025 03/02 A3019 380 92 -900 060/05 RMK AO2 RAB10E21 P0000
14840KMKG MKG20021112024011111/12/02 02:40:31  5-MIN KMKG 120740Z 05005KT 10SM OVC025 03/02 A3019 380 92 -900 060/05 RMK AO2 RAB10E21 P0000
14840KMKG MKG20021112024511111/12/02 02:45:31  5-MIN KMKG 120745Z 05005KT 10SM OVC027 03/02 A3019 390 92 -900 060/05 RMK AO2 RAB10E21 P0000
14840KMKG MKG20021112025012811/12/02 02:50:31  5-MIN KMKG 120750Z 05005KT 10SM OVC027 03/02 A3019 390 92 -900 060/05 RMK AO2 RAB10E21 SLP228 P0000 T00280017
14840KMKG MKG20021112025512811/12/02 02:55:31  5-MIN KMKG 120755Z 05005KT 10SM OVC027 03/02 A3019 380 92 -900 060/05 RMK AO2 RAB10E21 SLP228 P0000 T00280017
14840KMKG MKG20021112030009611/12/02 03:00:31  5-MIN KMKG 120800Z 05005KT 10SM OVC027 03/02 A3019 380 92 -900 050/05 RMK AO2
14840KMKG MKG20021112030509611/12/02 03:05:31  5-MIN KMKG 120805Z 05005KT 10SM OVC027 03/02 A3019 380 92 -900 060/05 RMK AO2
14840KMKG MKG20021112031009611/12/02 03:10:31  5-MIN KMKG 120810Z 06004KT 10SM OVC027 03/02 A3019 380 92 -900 060/04 RMK AO2
14840KMKG MKG20021112031509611/12/02 03:15:31  5-MIN KMKG 120815Z 08004KT 10SM OVC027 03/02 A3019 380 92 -900 080/04 RMK AO2
14840KMKG MKG20021112032009611/12/02 03:20:31  5-MIN KMKG 120820Z 10003KT 10SM OVC027 03/02 A3019 380 92 -900 100/03 RMK AO2
14840KMKG MKG20021112032509611/12/02 03:25:31  5-MIN KMKG 120825Z 11003KT 10SM OVC025 03/02 A3019 380 92 -900 110/03 RMK AO2
14840KMKG MKG20021112033009611/12/02 03:30:31  5-MIN KMKG 120830Z 12004KT 10SM OVC025 03/02 A3019 380 92 -900 120/04 RMK AO2
14840KMKG MKG20021112033509611/12/02 03:35:31  5-MIN KMKG 120835Z 12003KT 10SM OVC025 03/02 A3019 380 92 -900 130/03 RMK AO2
14840KMKG MKG20021112034009611/12/02 03:40:31  5-MIN KMKG 120840Z 12004KT 10SM OVC023 03/02 A3019 380 92 -900 120/04 RMK AO2
14840KMKG MKG20021112034509611/12/02 03:45:31  5-MIN KMKG 120845Z 10003KT 10SM OVC021 03/02 A3019 380 92 -900 100/03 RMK AO2
14840KMKG MKG20021112035012511/12/02 03:50:31  5-MIN KMKG 120850Z 11004KT 10SM OVC021 03/02 A3019 380 92 -900 110/04 RMK AO2 SLP229 60000 T00280017 51012
14840KMKG MKG20021112035512511/12/02 03:55:31  5-MIN KMKG 120855Z 10004KT 10SM OVC021 03/02 A3019 380 92 -900 110/04 RMK AO2 SLP228 60000 T00280017 50005
14840KMKG MKG20021112040009611/12/02 04:00:31  5-MIN KMKG 120900Z 10003KT 10SM OVC021 03/02 A3019 390 92 -900 110/03 RMK AO2
14840KMKG MKG20021112040509611/12/02 04:05:31  5-MIN KMKG 120905Z 11003KT 10SM OVC021 03/02 A3019 380 92 -900 110/03 RMK AO2
14840KMKG MKG20021112041009611/12/02 04:10:31  5-MIN KMKG 120910Z 11004KT 10SM OVC019 03/02 A3019 380 92 -900 110/04 RMK AO2
14840KMKG MKG20021112041509611/12/02 04:15:31  5-MIN KMKG 120915Z 11004KT 10SM OVC019 03/02 A3019 380 96 -900 120/04 RMK AO2
14840KMKG MKG20021112042009511/12/02 04:20:31  5-MIN KMKG 120920Z 11004KT 9SM OVC019 03/02 A3019 390 96 -900 110/04 RMK AO2
14840KMKG MKG20021112042509611/12/02 04:25:31  5-MIN KMKG 120925Z 11004KT 10SM OVC019 03/02 A3019 390 92 -900 110/04 RMK AO2
14840KMKG MKG20021112043009611/12/02 04:30:31  5-MIN KMKG 120930Z 12003KT 10SM OVC019 03/02 A3019 380 92 -900 120/03 RMK AO2
14840KMKG MKG20021112043509611/12/02 04:35:31  5-MIN KMKG 120935Z 12004KT 10SM OVC019 03/02 A3019 380 96 -900 130/04 RMK AO2
14840KMKG MKG20021112044009611/12/02 04:40:31  5-MIN KMKG 120940Z 12003KT 10SM OVC019 03/02 A3019 380 92 -900 120/03 RMK AO2
14840KMKG MKG20021112044509611/12/02 04:45:31  5-MIN KMKG 120945Z 11003KT 10SM OVC017 03/02 A3019 390 92 -900 120/03 RMK AO2
14840KMKG MKG20021112045011311/12/02 04:50:31  5-MIN KMKG 120950Z 11003KT 10SM OVC017 03/02 A3019 390 92 -900 120/03 RMK AO2 SLP228 T00280017
14840KMKG MKG20021112045511311/12/02 04:55:31  5-MIN KMKG 120955Z 11003KT 10SM OVC017 03/02 A3019 380 92 -900 120/03 RMK AO2 SLP228 T00280017
14840KMKG MKG20021112050009611/12/02 05:00:31  5-MIN KMKG 121000Z 11003KT 10SM OVC017 03/02 A3019 380 92 -900 120/03 RMK AO2
14840KMKG MKG20021112050509611/12/02 05:05:31  5-MIN KMKG 121005Z 00000KT 10SM OVC017 03/02 A3019 380 92 -900 000/00 RMK AO2
14840KMKG MKG20021112051009611/12/02 05:10:31  5-MIN KMKG 121010Z 00000KT 10SM OVC015 03/02 A3019 380 96 -900 000/00 RMK AO2
14840KMKG MKG20021112051509611/12/02 05:15:31  5-MIN KMKG 121015Z 00000KT 10SM OVC015 03/02 A3019 380 96 -900 000/00 RMK AO2
14840KMKG MKG20021112052009611/12/02 05:20:31  5-MIN KMKG 121020Z 13003KT 10SM OVC015 03/02 A3020 380 96 -900 140/03 RMK AO2
14840KMKG MKG20021112052509611/12/02 05:25:31  5-MIN KMKG 121025Z 10003KT 10SM OVC015 03/02 A3020 380 96 -900 100/03 RMK AO2
14840KMKG MKG20021112053010311/12/02 05:30:31  5-MIN KMKG 121030Z 11003KT 10SM BKN015 OVC024 03/02 A3020 380 96 -900 110/03 RMK AO2
14840KMKG MKG20021112053510311/12/02 05:35:31  5-MIN KMKG 121035Z 00000KT 10SM BKN015 OVC024 03/02 A3020 380 96 -900 000/00 RMK AO2
14840KMKG MKG20021112054009611/12/02 05:40:31  5-MIN KMKG 121040Z 00000KT 10SM OVC015 03/02 A3020 380 96 -900 000/00 RMK AO2
14840KMKG MKG20021112054510311/12/02 05:45:31  5-MIN KMKG 121045Z 00000KT 10SM BKN015 OVC024 03/02 A3020 380 96 -900 000/00 RMK AO2
14840KMKG MKG20021112055012011/12/02 05:50:31  5-MIN KMKG 121050Z 00000KT 10SM BKN015 OVC024 03/02 A3020 380 96 -900 000/00 RMK AO2 SLP231 T00280022
14840KMKG MKG20021112055512011/12/02 05:55:31  5-MIN KMKG 121055Z 00000KT 10SM BKN015 OVC022 03/02 A3020 370 96 -900 000/00 RMK AO2 SLP232 T00280022
14840KMKG MKG20021112060010311/12/02 06:00:31  5-MIN KMKG 121100Z 00000KT 10SM BKN017 OVC022 03/02 A3020 370 96 -900 000/00 RMK AO2
14840KMKG MKG20021112060510311/12/02 06:05:31  5-MIN KMKG 121105Z 08003KT 10SM BKN017 OVC024 03/02 A3019 380 96 -900 080/03 RMK AO2
14840KMKG MKG20021112061010311/12/02 06:10:31  5-MIN KMKG 121110Z 11003KT 10SM BKN017 OVC024 03/02 A3019 380 96 -900 110/03 RMK AO2
14840KMKG MKG20021112061510311/12/02 06:15:31  5-MIN KMKG 121115Z 08003KT 10SM BKN017 OVC026 03/02 A3019 380 96 -900 090/03 RMK AO2
14840KMKG MKG20021112062010311/12/02 06:20:31  5-MIN KMKG 121120Z 12003KT 10SM SCT019 OVC027 03/02 A3019 380 96 -900 120/03 RMK AO2
14840KMKG MKG20021112062511011/12/02 06:25:31  5-MIN KMKG 121125Z 12003KT 10SM SCT017 BKN024 OVC029 03/02 A3019 380 96 -900 130/03 RMK AO2
14840KMKG MKG20021112063010311/12/02 06:30:31  5-MIN KMKG 121130Z 11003KT 10SM SCT017 OVC027 03/02 A3020 380 96 -900 110/03 RMK AO2
14840KMKG MKG20021112063510311/12/02 06:35:31  5-MIN KMKG 121135Z 11003KT 10SM FEW017 OVC027 03/02 A3019 380 96 -900 110/03 RMK AO2
14840KMKG MKG20021112064010311/12/02 06:40:31  5-MIN KMKG 121140Z 00000KT 10SM FEW017 OVC027 03/02 A3019 380 96 -900 000/00 RMK AO2
14840KMKG MKG20021112064510311/12/02 06:45:31  5-MIN KMKG 121145Z 10004KT 10SM FEW017 OVC029 03/02 A3019 380 96 -900 110/04 RMK AO2
14840KMKG MKG20021112065015011/12/02 06:50:31  5-MIN KMKG 121150Z 11004KT 10SM FEW017 OVC029 03/02 A3019 380 96 -900 110/04 RMK AO2 SLP231 60000 70005 T00280022 10033 20028 50005
14840KMKG MKG20021112065514311/12/02 06:55:31  5-MIN KMKG 121155Z 09003KT 10SM OVC029 03/02 A3020 380 96 -900 100/03 RMK AO2 SLP231 60000 70005 T00280022 10033 20028 50003
14840KMKG MKG20021112070010311/12/02 07:00:31  5-MIN KMKG 121200Z 12003KT 10SM BKN024 OVC030 03/02 A3020 380 96 -900 130/03 RMK AO2
14840KMKG MKG20021112070510311/12/02 07:05:31  5-MIN KMKG 121205Z 11004KT 10SM BKN022 OVC028 03/02 A3020 370 96 -900 120/04 RMK AO2
14840KMKG MKG20021112071011811/12/02 07:10:31  5-MIN KMKG 121210Z 10003KT 10SM SCT020 OVC028 03/02 A3020 370 96 -900 110/03 RMK AO2 CIG 021 RWY 14
14840KMKG MKG20021112071511811/12/02 07:15:31  5-MIN KMKG 121215Z 11003KT 10SM FEW020 OVC028 03/02 A3020 380 96 -900 110/03 RMK AO2 CIG 021 RWY 14
14840KMKG MKG20021112072009611/12/02 07:20:31  5-MIN KMKG 121220Z 00000KT 10SM OVC025 03/02 A3020 370 96 -900 000/00 RMK AO2
14840KMKG MKG20021112072509611/12/02 07:25:31  5-MIN KMKG 121225Z 00000KT 10SM OVC024 03/02 A3020 370 96 -900 000/00 RMK AO2
14840KMKG MKG20021112073009611/12/02 07:30:31  5-MIN KMKG 121230Z 00000KT 10SM OVC024 03/02 A3020 370 96 -900 000/00 RMK AO2
14840KMKG MKG20021112073510311/12/02 07:35:31  5-MIN KMKG 121235Z 00000KT 10SM BKN022 OVC028 03/02 A3020 370 92 -900 000/00 RMK AO2
14840KMKG MKG20021112074009611/12/02 07:40:31  5-MIN KMKG 121240Z 10003KT 10SM OVC022 03/02 A3020 370 96 -900 110/03 RMK AO2
14840KMKG MKG20021112074509611/12/02 07:45:31  5-MIN KMKG 121245Z 10004KT 10SM OVC022 03/02 A3020 370 96 -900 110/04 RMK AO2
14840KMKG MKG20021112075011311/12/02 07:50:31  5-MIN KMKG 121250Z 11004KT 10SM OVC024 03/02 A3020 370 96 -900 110/04 RMK AO2 SLP233 T00280022
14840KMKG MKG20021112075511311/12/02 07:55:31  5-MIN KMKG 121255Z 09003KT 10SM OVC024 03/02 A3020 370 96 -900 100/03 RMK AO2 SLP233 T00280022
14840KMKG MKG20021112080009611/12/02 08:00:31  5-MIN KMKG 121300Z 00000KT 10SM OVC024 03/02 A3020 370 92 -900 000/00 RMK AO2
14840KMKG MKG20021112080509611/12/02 08:05:31  5-MIN KMKG 121305Z 00000KT 10SM OVC024 03/02 A3020 370 92 -900 000/00 RMK AO2
14840KMKG MKG20021112081009611/12/02 08:10:31  5-MIN KMKG 121310Z 00000KT 10SM OVC024 03/02 A3020 370 92 -900 000/00 RMK AO2
14840KMKG MKG20021112081509611/12/02 08:15:31  5-MIN KMKG 121315Z 00000KT 10SM OVC024 03/02 A3020 370 92 -900 000/00 RMK AO2
14840KMKG MKG20021112082009611/12/02 08:20:31  5-MIN KMKG 121320Z 00000KT 10SM OVC024 03/02 A3020 370 92 -900 000/00 RMK AO2
14840KMKG MKG20021112082509611/12/02 08:25:31  5-MIN KMKG 121325Z 00000KT 10SM OVC022 03/02 A3020 370 92 -900 000/00 RMK AO2
14840KMKG MKG20021112083009611/12/02 08:30:31  5-MIN KMKG 121330Z 00000KT 10SM OVC022 03/02 A3020 370 92 -900 000/00 RMK AO2
14840KMKG MKG20021112083509611/12/02 08:35:31  5-MIN KMKG 121335Z 00000KT 10SM OVC022 03/02 A3020 370 92 -900 000/00 RMK AO2
14840KMKG MKG20021112084009611/12/02 08:40:31  5-MIN KMKG 121340Z 10003KT 10SM OVC022 03/02 A3020 370 92 -900 100/03 RMK AO2
14840KMKG MKG20021112084509611/12/02 08:45:31  5-MIN KMKG 121345Z 08003KT 10SM OVC022 03/02 A3020 370 92 -900 090/03 RMK AO2
14840KMKG MKG20021112085011311/12/02 08:50:31  5-MIN KMKG 121350Z 00000KT 10SM OVC022 03/03 A3020 370 96 -900 000/00 RMK AO2 SLP232 T00330028
14840KMKG MKG20021112085511311/12/02 08:55:31  5-MIN KMKG 121355Z 00000KT 10SM OVC022 03/03 A3020 370 96 -900 000/00 RMK AO2 SLP233 T00330028
14840KMKG MKG20021112090009611/12/02 09:00:31  5-MIN KMKG 121400Z 00000KT 10SM OVC022 03/03 A3020 370 96 -900 000/00 RMK AO2
14840KMKG MKG20021112090509611/12/02 09:05:31  5-MIN KMKG 121405Z 00000KT 10SM OVC022 03/03 A3020 370 96 -900 000/00 RMK AO2
14840KMKG MKG20021112091009611/12/02 09:10:31  5-MIN KMKG 121410Z 11003KT 10SM OVC022 03/03 A3020 370 96 -900 110/03 RMK AO2
14840KMKG MKG20021112091509611/12/02 09:15:31  5-MIN KMKG 121415Z 12003KT 10SM OVC022 03/02 A3020 370 92 -900 120/03 RMK AO2
14840KMKG MKG20021112092009611/12/02 09:20:31  5-MIN KMKG 121420Z 11003KT 10SM OVC022 03/03 A3020 370 96 -900 110/03 RMK AO2
14840KMKG MKG20021112092509611/12/02 09:25:31  5-MIN KMKG 121425Z 12003KT 10SM OVC022 03/03 A3020 370 96 -900 120/03 RMK AO2
14840KMKG MKG20021112093009611/12/02 09:30:31  5-MIN KMKG 121430Z 11003KT 10SM OVC022 03/03 A3020 370 96 -900 110/03 RMK AO2
14840KMKG MKG20021112093509611/12/02 09:35:31  5-MIN KMKG 121435Z 09003KT 10SM OVC022 03/03 A3020 370 96 -900 090/03 RMK AO2
14840KMKG MKG20021112094009611/12/02 09:40:31  5-MIN KMKG 121440Z 11004KT 10SM OVC022 03/03 A3020 370 96 -900 110/04 RMK AO2
14840KMKG MKG20021112094509611/12/02 09:45:31  5-MIN KMKG 121445Z 00000KT 10SM OVC022 03/03 A3020 370 96 -900 000/00 RMK AO2
14840KMKG MKG20021112095011911/12/02 09:50:31  5-MIN KMKG 121450Z 00000KT 10SM OVC022 03/03 A3020 370 96 -900 000/00 RMK AO2 SLP232 T00330028 50003
14840KMKG MKG20021112095511911/12/02 09:55:31  5-MIN KMKG 121455Z 00000KT 10SM OVC022 04/03 A3020 380 92 -800 000/00 RMK AO2 SLP231 T00390028 50000
14840KMKG MKG20021112100009611/12/02 10:00:31  5-MIN KMKG 121500Z 00000KT 10SM OVC022 04/03 A3020 380 92 -800 000/00 RMK AO2
14840KMKG MKG20021112100509611/12/02 10:05:31  5-MIN KMKG 121505Z 00000KT 10SM OVC022 04/03 A3020 380 92 -800 000/00 RMK AO2
14840KMKG MKG20021112101009611/12/02 10:10:31  5-MIN KMKG 121510Z 00000KT 10SM OVC022 04/03 A3019 380 92 -800 000/00 RMK AO2
14840KMKG MKG20021112101509611/12/02 10:15:31  5-MIN KMKG 121515Z 00000KT 10SM OVC022 04/03 A3019 380 92 -800 000/00 RMK AO2
14840KMKG MKG20021112102009611/12/02 10:20:31  5-MIN KMKG 121520Z 00000KT 10SM OVC022 04/03 A3019 380 92 -800 000/00 RMK AO2
14840KMKG MKG20021112102509611/12/02 10:25:31  5-MIN KMKG 121525Z 26005KT 10SM OVC022 04/02 A3019 380 89 -800 270/05 RMK AO2
14840KMKG MKG20021112103009611/12/02 10:30:31  5-MIN KMKG 121530Z 26004KT 10SM OVC022 04/02 A3019 380 82 -700 270/04 RMK AO2
14840KMKG MKG20021112103509611/12/02 10:35:31  5-MIN KMKG 121535Z 27005KT 10SM OVC022 04/02 A3019 380 82 -700 270/05 RMK AO2
14840KMKG MKG20021112104009611/12/02 10:40:31  5-MIN KMKG 121540Z 26006KT 10SM OVC022 04/02 A3019 380 82 -700 260/06 RMK AO2
14840KMKG MKG20021112104509611/12/02 10:45:31  5-MIN KMKG 121545Z 26008KT 10SM OVC024 04/01 A3019 380 79 -700 270/08 RMK AO2
14840KMKG MKG20021112105011311/12/02 10:50:31  5-MIN KMKG 121550Z 26009KT 10SM OVC024 04/01 A3019 380 79 -700 270/09 RMK AO2 SLP230 T00440011
14840KMKG MKG20021112105511311/12/02 10:55:31  5-MIN KMKG 121555Z 28008KT 10SM OVC024 04/01 A3019 380 79 -700 280/08 RMK AO2 SLP229 T00440011
14840KMKG MKG20021112110009611/12/02 11:00:31  5-MIN KMKG 121600Z 27008KT 10SM OVC024 04/01 A3019 380 79 -700 270/08 RMK AO2
14840KMKG MKG20021112110509611/12/02 11:05:31  5-MIN KMKG 121605Z 26007KT 10SM OVC024 04/01 A3019 380 79 -700 260/07 RMK AO2
14840KMKG MKG20021112111009611/12/02 11:10:31  5-MIN KMKG 121610Z 26009KT 10SM OVC024 04/01 A3019 380 79 -700 270/09 RMK AO2
14840KMKG MKG20021112111509611/12/02 11:15:31  5-MIN KMKG 121615Z 26008KT 10SM OVC024 04/01 A3019 380 76 -700 270/08 RMK AO2
14840KMKG MKG20021112112009611/12/02 11:20:31  5-MIN KMKG 121620Z 27010KT 10SM OVC024 04/01 A3019 380 76 -700 270/10 RMK AO2
14840KMKG MKG20021112112509611/12/02 11:25:31  5-MIN KMKG 121625Z 26007KT 10SM OVC024 04/01 A3019 380 79 -700 260/07 RMK AO2
14840KMKG MKG20021112113009611/12/02 11:30:31  5-MIN KMKG 121630Z 25007KT 10SM OVC024 04/01 A3019 380 76 -700 260/07 RMK AO2
14840KMKG MKG20021112113509611/12/02 11:35:31  5-MIN KMKG 121635Z 26010KT 10SM OVC024 04/01 A3019 380 76 -700 260/10 RMK AO2
14840KMKG MKG20021112114009611/12/02 11:40:31  5-MIN KMKG 121640Z 26011KT 10SM OVC024 04/01 A3019 380 79 -800 270/11 RMK AO2
14840KMKG MKG20021112114509611/12/02 11:45:31  5-MIN KMKG 121645Z 25009KT 10SM OVC024 04/00 A3018 390 76 -800 250/09 RMK AO2
14840KMKG MKG20021112115011311/12/02 11:50:31  5-MIN KMKG 121650Z 26007KT 10SM OVC024 04/00 A3018 390 76 -800 260/07 RMK AO2 SLP226 T00390000
14840KMKG MKG20021112115511311/12/02 11:55:31  5-MIN KMKG 121655Z 24007KT 10SM OVC024 04/01 A3018 390 76 -700 250/07 RMK AO2 SLP225 T00440006
14840KMKG MKG20021112120009611/12/02 12:00:31  5-MIN KMKG 121700Z 24007KT 10SM OVC024 04/00 A3018 390 73 -700 250/07 RMK AO2
14840KMKG MKG20021112120509611/12/02 12:05:31  5-MIN KMKG 121705Z 25009KT 10SM OVC024 04/00 A3018 400 73 -700 250/09 RMK AO2
14840KMKG MKG20021112121009611/12/02 12:10:31  5-MIN KMKG 121710Z 23010KT 10SM OVC026 04/00 A3017 400 73 -700 230/10 RMK AO2
14840KMKG MKG20021112121510211/12/02 12:15:31  5-MIN KMKG 121715Z 25011G15KT 10SM OVC026 04/00 A3017 400 73 -700 250/11G15 RMK AO2
14840KMKG MKG20021112122010311/12/02 12:20:31  5-MIN KMKG 121720Z 25007G15KT 10SM OVC026 04/M01 A3017 400 70 -700 250/07G15 RMK AO2
14840KMKG MKG20021112122509611/12/02 12:25:31  5-MIN KMKG 121725Z 25008KT 10SM OVC026 04/00 A3017 400 73 -700 260/08 RMK AO2
14840KMKG MKG20021112123009711/12/02 12:30:31  5-MIN KMKG 121730Z 25007KT 10SM OVC026 04/M01 A3017 400 73 -800 250/07 RMK AO2
14840KMKG MKG20021112123509611/12/02 12:35:31  5-MIN KMKG 121735Z 26009KT 10SM OVC026 04/00 A3017 400 73 -700 260/09 RMK AO2
14840KMKG MKG20021112124009611/12/02 12:40:31  5-MIN KMKG 121740Z 23009KT 10SM OVC026 04/00 A3017 400 73 -700 230/09 RMK AO2
14840KMKG MKG20021112124509611/12/02 12:45:31  5-MIN KMKG 121745Z 24008KT 10SM OVC026 04/00 A3016 410 73 -700 240/08 RMK AO2
14840KMKG MKG20021112125013111/12/02 12:50:31  5-MIN KMKG 121750Z 24007KT 10SM OVC026 04/00 A3016 410 73 -700 250/07 RMK AO2 SLP219 T00440000 10044 20028 50000
14840KMKG MKG20021112125513111/12/02 12:55:31  5-MIN KMKG 121755Z 24009KT 10SM OVC026 04/00 A3016 410 73 -700 240/09 RMK AO2 SLP219 T00440000 10044 20028 58012
14840KMKG MKG20021112130009611/12/02 13:00:31  5-MIN KMKG 121800Z 22011KT 10SM OVC026 04/00 A3016 410 73 -700 230/11 RMK AO2
14840KMKG MKG20021112130509611/12/02 13:05:31  5-MIN KMKG 121805Z 25009KT 10SM OVC026 04/00 A3016 410 73 -700 250/09 RMK AO2
14840KMKG MKG20021112131009611/12/02 13:10:31  5-MIN KMKG 121810Z 25009KT 10SM OVC026 04/00 A3016 410 73 -700 250/09 RMK AO2
14840KMKG MKG20021112131509611/12/02 13:15:31  5-MIN KMKG 121815Z 25006KT 10SM OVC026 04/00 A3015 410 73 -700 250/06 RMK AO2
14840KMKG MKG20021112132009611/12/02 13:20:31  5-MIN KMKG 121820Z 23008KT 10SM OVC026 04/00 A3015 420 73 -700 230/08 RMK AO2
14840KMKG MKG20021112132509611/12/02 13:25:31  5-MIN KMKG 121825Z 24008KT 10SM OVC024 04/01 A3015 420 76 -700 240/08 RMK AO2
14840KMKG MKG20021112133009611/12/02 13:30:31  5-MIN KMKG 121830Z 25008KT 10SM OVC024 04/01 A3015 420 76 -700 250/08 RMK AO2
14840KMKG MKG20021112133509611/12/02 13:35:31  5-MIN KMKG 121835Z 25009KT 10SM OVC024 04/00 A3015 420 73 -700 250/09 RMK AO2
14840KMKG MKG20021112134009611/12/02 13:40:31  5-MIN KMKG 121840Z 23010KT 10SM OVC024 04/00 A3014 420 73 -700 240/10 RMK AO2
14840KMKG MKG20021112134509611/12/02 13:45:31  5-MIN KMKG 121845Z 25007KT 10SM OVC024 04/01 A3014 430 76 -700 250/07 RMK AO2
14840KMKG MKG20021112135011311/12/02 13:50:31  5-MIN KMKG 121850Z 23010KT 10SM OVC024 04/01 A3014 430 76 -700 240/10 RMK AO2 SLP212 T00440006
14840KMKG MKG20021112135511311/12/02 13:55:31  5-MIN KMKG 121855Z 23008KT 10SM OVC026 05/00 A3014 430 70 -600 230/08 RMK AO2 SLP212 T00500000
14840KMKG MKG20021112140009611/12/02 14:00:31  5-MIN KMKG 121900Z 23009KT 10SM OVC026 05/00 A3014 430 70 -600 240/09 RMK AO2
14840KMKG MKG20021112140509611/12/02 14:05:31  5-MIN KMKG 121905Z 24009KT 10SM OVC026 04/00 A3014 430 73 -700 240/09 RMK AO2
14840KMKG MKG20021112141009611/12/02 14:10:31  5-MIN KMKG 121910Z 23009KT 10SM OVC026 05/01 A3013 430 73 -600 230/09 RMK AO2
14840KMKG MKG20021112141509611/12/02 14:15:31  5-MIN KMKG 121915Z 23009KT 10SM OVC026 04/01 A3013 430 76 -700 230/09 RMK AO2
14840KMKG MKG20021112142009611/12/02 14:20:31  5-MIN KMKG 121920Z 24009KT 10SM OVC026 05/01 A3013 430 73 -600 250/09 RMK AO2
14840KMKG MKG20021112142509611/12/02 14:25:31  5-MIN KMKG 121925Z 23010KT 10SM OVC026 05/00 A3013 440 70 -600 230/10 RMK AO2
14840KMKG MKG20021112143009611/12/02 14:30:31  5-MIN KMKG 121930Z 23009KT 10SM OVC026 05/01 A3013 440 73 -600 240/09 RMK AO2
14840KMKG MKG20021112143509611/12/02 14:35:31  5-MIN KMKG 121935Z 23007KT 10SM OVC026 05/01 A3013 440 73 -600 230/07 RMK AO2
14840KMKG MKG20021112144009611/12/02 14:40:31  5-MIN KMKG 121940Z 24010KT 10SM OVC026 05/01 A3013 440 73 -600 250/10 RMK AO2
14840KMKG MKG20021112144509611/12/02 14:45:31  5-MIN KMKG 121945Z 24011KT 10SM OVC026 05/01 A3013 440 73 -600 250/11 RMK AO2
14840KMKG MKG20021112145011311/12/02 14:50:31  5-MIN KMKG 121950Z 24011KT 10SM OVC026 04/01 A3012 440 76 -600 250/11 RMK AO2 SLP207 T00440006
14840KMKG MKG20021112145511311/12/02 14:55:31  5-MIN KMKG 121955Z 24008KT 10SM OVC026 04/01 A3012 440 76 -600 240/08 RMK AO2 SLP207 T00440006
14840KMKG MKG20021112150009611/12/02 15:00:31  5-MIN KMKG 122000Z 25010KT 10SM OVC026 04/00 A3012 440 73 -600 250/10 RMK AO2
14840KMKG MKG20021112150509611/12/02 15:05:31  5-MIN KMKG 122005Z 24009KT 10SM OVC026 04/00 A3012 440 73 -600 240/09 RMK AO2
14840KMKG MKG20021112151010411/12/02 15:10:31  5-MIN KMKG 122010Z 22010KT 10SM BKN026 OVC032 04/M01 A3013 440 70 -600 230/10 RMK AO2
14840KMKG MKG20021112151509711/12/02 15:15:31  5-MIN KMKG 122015Z 24009KT 10SM OVC026 04/M01 A3012 440 70 -600 250/09 RMK AO2
14840KMKG MKG20021112152009711/12/02 15:20:31  5-MIN KMKG 122020Z 22009KT 10SM OVC028 04/M01 A3012 440 70 -600 230/09 RMK AO2
14840KMKG MKG20021112152509711/12/02 15:25:31  5-MIN KMKG 122025Z 24010KT 10SM OVC028 04/M01 A3012 450 70 -600 240/10 RMK AO2
14840KMKG MKG20021112153010311/12/02 15:30:31  5-MIN KMKG 122030Z 23009KT 10SM BKN028 OVC033 05/00 A3012 450 70 -600 230/09 RMK AO2
14840KMKG MKG20021112153509611/12/02 15:35:31  5-MIN KMKG 122035Z 23008KT 10SM OVC028 05/00 A3012 450 70 -600 240/08 RMK AO2
14840KMKG MKG20021112154009611/12/02 15:40:31  5-MIN KMKG 122040Z 22009KT 10SM OVC028 05/00 A3012 450 70 -600 230/09 RMK AO2
14840KMKG MKG20021112154509611/12/02 15:45:31  5-MIN KMKG 122045Z 23011KT 10SM OVC028 05/00 A3012 450 70 -600 240/11 RMK AO2
14840KMKG MKG20021112155011911/12/02 15:50:31  5-MIN KMKG 122050Z 23010KT 10SM OVC030 05/00 A3012 450 70 -600 230/10 RMK AO2 SLP204 T00500000 58012
14840KMKG MKG20021112155512011/12/02 15:55:31  5-MIN KMKG 122055Z 24009KT 10SM OVC030 05/M01 A3012 450 67 -600 240/09 RMK AO2 SLP204 T00501006 56015
14840KMKG MKG20021112160009611/12/02 16:00:31  5-MIN KMKG 122100Z 24007KT 10SM OVC032 05/00 A3012 450 70 -600 250/07 RMK AO2
14840KMKG MKG20021112160509611/12/02 16:05:31  5-MIN KMKG 122105Z 22010KT 10SM OVC032 05/00 A3012 450 70 -600 220/10 RMK AO2
14840KMKG MKG20021112161009611/12/02 16:10:31  5-MIN KMKG 122110Z 23009KT 10SM OVC030 05/00 A3012 450 70 -600 240/09 RMK AO2
14840KMKG MKG20021112161509611/12/02 16:15:31  5-MIN KMKG 122115Z 22009KT 10SM OVC030 05/00 A3011 450 70 -600 220/09 RMK AO2
14840KMKG MKG20021112162009611/12/02 16:20:31  5-MIN KMKG 122120Z 23008KT 10SM OVC030 05/00 A3011 450 70 -600 240/08 RMK AO2
14840KMKG MKG20021112162509611/12/02 16:25:31  5-MIN KMKG 122125Z 24008KT 10SM OVC030 05/00 A3011 450 70 -600 250/08 RMK AO2
14840KMKG MKG20021112163009611/12/02 16:30:31  5-MIN KMKG 122130Z 22010KT 10SM OVC030 05/00 A3011 450 70 -600 230/10 RMK AO2
14840KMKG MKG20021112163509611/12/02 16:35:31  5-MIN KMKG 122135Z 23009KT 10SM OVC030 05/00 A3011 450 70 -600 230/09 RMK AO2
14840KMKG MKG20021112164010211/12/02 16:40:31  5-MIN KMKG 122140Z 22011G17KT 10SM OVC030 05/00 A3012 450 70 -600 230/11G17 RMK AO2
14840KMKG MKG20021112164509611/12/02 16:45:31  5-MIN KMKG 122145Z 22010KT 10SM OVC030 05/00 A3012 450 70 -600 220/10 RMK AO2
14840KMKG MKG20021112165011311/12/02 16:50:31  5-MIN KMKG 122150Z 22012KT 10SM BKN030 05/00 A3012 450 70 -600 230/12 RMK AO2 SLP205 T00500000
14840KMKG MKG20021112165511411/12/02 16:55:31  5-MIN KMKG 122155Z 22010KT 10SM BKN030 05/M01 A3011 450 67 -600 220/10 RMK AO2 SLP203 T00501006
14840KMKG MKG20021112170009611/12/02 17:00:31  5-MIN KMKG 122200Z 22009KT 10SM OVC030 05/00 A3012 450 70 -600 220/09 RMK AO2
14840KMKG MKG20021112170509611/12/02 17:05:31  5-MIN KMKG 122205Z 22010KT 10SM OVC030 05/00 A3012 450 70 -600 220/10 RMK AO2
14840KMKG MKG20021112171009611/12/02 17:10:31  5-MIN KMKG 122210Z 23010KT 10SM BKN030 04/00 A3012 450 73 -600 240/10 RMK AO2
14840KMKG MKG20021112171509711/12/02 17:15:31  5-MIN KMKG 122215Z 23009KT 10SM BKN030 05/M01 A3011 450 67 -600 230/09 RMK AO2
14840KMKG MKG20021112172010311/12/02 17:20:31  5-MIN KMKG 122220Z 22007KT 10SM BKN030 BKN034 05/00 A3011 450 70 -600 230/07 RMK AO2
14840KMKG MKG20021112172509611/12/02 17:25:31  5-MIN KMKG 122225Z 22011KT 10SM BKN030 05/00 A3011 450 70 -600 230/11 RMK AO2
14840KMKG MKG20021112173010311/12/02 17:30:31  5-MIN KMKG 122230Z 23012KT 10SM BKN030 BKN034 05/00 A3011 450 70 -600 230/12 RMK AO2
14840KMKG MKG20021112173510311/12/02 17:35:31  5-MIN KMKG 122235Z 22012KT 10SM SCT030 BKN034 04/00 A3011 450 73 -600 220/12 RMK AO2
14840KMKG MKG20021112174009611/12/02 17:40:31  5-MIN KMKG 122240Z 23012KT 10SM SCT030 04/00 A3011 450 73 -600 230/12 RMK AO2
14840KMKG MKG20021112174509611/12/02 17:45:31  5-MIN KMKG 122245Z 22012KT 10SM SCT030 04/00 A3011 450 73 -600 220/12 RMK AO2
14840KMKG MKG20021112175011311/12/02 17:50:31  5-MIN KMKG 122250Z 22011KT 10SM SCT030 04/00 A3012 450 73 -600 230/11 RMK AO2 SLP204 T00440000
14840KMKG MKG20021112175511311/12/02 17:55:31  5-MIN KMKG 122255Z 23010KT 10SM SCT030 04/00 A3011 450 73 -600 230/10 RMK AO2 SLP203 T00440000
14840KMKG MKG20021113223510111/13/02 22:35:31  5-MIN KMKG 140335Z 19018G24KT 10SM OVC110 11/07 A2984 710 77 400 190/18G24 RMK AO2
14840KMKG MKG20021113224010111/13/02 22:40:31  5-MIN KMKG 140340Z 19018G23KT 10SM OVC110 11/07 A2984 710 77 400 190/18G23 RMK AO2
14840KMKG MKG20021113224510111/13/02 22:45:31  5-MIN KMKG 140345Z 19019G25KT 10SM OVC110 11/07 A2983 710 77 500 190/19G25 RMK AO2
14840KMKG MKG20021113225011811/13/02 22:50:31  5-MIN KMKG 140350Z 19020G25KT 10SM OVC110 11/07 A2983 710 77 500 190/20G25 RMK AO2 SLP105 T01110072
14840KMKG MKG20021113225513611/13/02 22:55:31  5-MIN KMKG 140355Z 18020G27KT 10SM OVC110 12/07 A2983 720 74 500 190/20G27 RMK AO2 PK WND 19027/0354 SLP103 T01170072
14840KMKG MKG20021113230011911/13/02 23:00:31  5-MIN KMKG 140400Z 18020G27KT 10SM OVC110 11/07 A2983 720 77 500 190/20G27 RMK AO2 PK WND 17026/0400
14840KMKG MKG20021113230511911/13/02 23:05:31  5-MIN KMKG 140405Z 19020G28KT 10SM OVC110 12/07 A2982 720 74 500 190/20G28 RMK AO2 PK WND 18028/0401
14840KMKG MKG20021113231011911/13/02 23:10:31  5-MIN KMKG 140410Z 18018G28KT 10SM OVC110 11/07 A2982 720 77 500 190/18G28 RMK AO2 PK WND 18028/0401
14840KMKG MKG20021113231511911/13/02 23:15:31  5-MIN KMKG 140415Z 19017G24KT 10SM BKN110 11/07 A2982 720 77 500 190/17G24 RMK AO2 PK WND 18028/0401
14840KMKG MKG20021113232011911/13/02 23:20:31  5-MIN KMKG 140420Z 19019G26KT 10SM BKN110 11/07 A2982 720 77 500 190/19G26 RMK AO2 PK WND 18028/0401
14840KMKG MKG20021113232511911/13/02 23:25:31  5-MIN KMKG 140425Z 19018G26KT 10SM OVC100 11/07 A2982 730 74 500 190/18G26 RMK AO2 PK WND 18028/0401
14840KMKG MKG20021113233011911/13/02 23:30:31  5-MIN KMKG 140430Z 18019G25KT 10SM OVC100 11/07 A2981 730 74 500 190/19G25 RMK AO2 PK WND 18028/0401
14840KMKG MKG20021113233511911/13/02 23:35:31  5-MIN KMKG 140435Z 19019G26KT 10SM OVC100 11/07 A2981 730 74 500 190/19G26 RMK AO2 PK WND 18028/0401
14840KMKG MKG20021113234011911/13/02 23:40:31  5-MIN KMKG 140440Z 19023G29KT 10SM OVC100 12/07 A2981 730 71 500 190/23G29 RMK AO2 PK WND 19029/0440
14840KMKG MKG20021113234511911/13/02 23:45:31  5-MIN KMKG 140445Z 19020G29KT 10SM OVC100 12/07 A2981 730 71 500 200/20G29 RMK AO2 PK WND 19029/0440
14840KMKG MKG20021113235014611/13/02 23:50:31  5-MIN KMKG 140450Z 19018G28KT 10SM OVC100 12/07 A2981 730 71 500 190/18G28 RMK AO2 PK WND 19029/0440 SLP097 T01170067 401170044
14840KMKG MKG20021113235514611/13/02 23:55:31  5-MIN KMKG 140455Z 19023G28KT 10SM OVC100 11/07 A2981 730 74 500 200/23G28 RMK AO2 PK WND 19029/0440 SLP096 T01110067 401170044
14840KMKG MKG20021114000011911/14/02 00:00:31  5-MIN KMKG 140500Z 19023G28KT 10SM OVC100 11/07 A2981 740 74 500 200/23G28 RMK AO2 PK WND 19028/0459
14840KMKG MKG20021114000511911/14/02 00:05:31  5-MIN KMKG 140505Z 19021G28KT 10SM OVC100 12/07 A2980 740 71 600 190/21G28 RMK AO2 PK WND 19028/0459
14840KMKG MKG20021114001011911/14/02 00:10:31  5-MIN KMKG 140510Z 19018G26KT 10SM OVC100 12/07 A2980 740 71 600 190/18G26 RMK AO2 PK WND 19028/0459
14840KMKG MKG20021114001511911/14/02 00:15:31  5-MIN KMKG 140515Z 20019G27KT 10SM OVC100 12/07 A2980 740 71 600 200/19G27 RMK AO2 PK WND 19028/0459
14840KMKG MKG20021114002011911/14/02 00:20:31  5-MIN KMKG 140520Z 19019G27KT 10SM OVC100 11/07 A2980 740 74 500 200/19G27 RMK AO2 PK WND 19028/0459
14840KMKG MKG20021114002511911/14/02 00:25:31  5-MIN KMKG 140525Z 19021G26KT 10SM OVC100 11/07 A2980 740 74 500 190/21G26 RMK AO2 PK WND 19028/0459
14840KMKG MKG20021114003011911/14/02 00:30:31  5-MIN KMKG 140530Z 19017G26KT 10SM OVC095 11/07 A2980 740 74 500 200/17G26 RMK AO2 PK WND 19028/0459
14840KMKG MKG20021114003511911/14/02 00:35:31  5-MIN KMKG 140535Z 19022G29KT 10SM OVC095 11/07 A2980 740 74 500 200/22G29 RMK AO2 PK WND 20029/0534
14840KMKG MKG20021114004011911/14/02 00:40:31  5-MIN KMKG 140540Z 20018G29KT 10SM OVC095 12/07 A2979 750 71 600 200/18G29 RMK AO2 PK WND 20029/0534
14840KMKG MKG20021114004511911/14/02 00:45:31  5-MIN KMKG 140545Z 19020G27KT 10SM OVC095 11/07 A2979 750 74 500 200/20G27 RMK AO2 PK WND 20029/0534
14840KMKG MKG20021114005015411/14/02 00:50:31  5-MIN KMKG 140550Z 20021G27KT 10SM OVC095 12/07 A2980 750 71 600 200/21G27 RMK AO2 PK WND 20029/0534 SLP092 T01170067 10117 20067 56026
14840KMKG MKG20021114005515411/14/02 00:55:31  5-MIN KMKG 140555Z 19020G27KT 10SM OVC090 12/06 A2980 750 68 600 200/20G27 RMK AO2 PK WND 20029/0534 SLP092 T01170061 10117 20067 56022
14840KMKG MKG20021114010010111/14/02 01:00:31  5-MIN KMKG 140600Z 20018G26KT 10SM OVC090 12/06 A2980 750 68 600 200/18G26 RMK AO2
14840KMKG MKG20021114010510111/14/02 01:05:31  5-MIN KMKG 140605Z 19020G25KT 10SM OVC090 12/06 A2979 750 68 600 200/20G25 RMK AO2
14840KMKG MKG20021114011011911/14/02 01:10:31  5-MIN KMKG 140610Z 19021G28KT 10SM OVC090 11/06 A2979 750 71 500 200/21G28 RMK AO2 PK WND 20028/0609
14840KMKG MKG20021114011511911/14/02 01:15:31  5-MIN KMKG 140615Z 20021G28KT 10SM OVC090 11/06 A2979 750 71 500 200/21G28 RMK AO2 PK WND 20028/0609
14840KMKG MKG20021114012011911/14/02 01:20:31  5-MIN KMKG 140620Z 20020G31KT 10SM OVC090 12/06 A2979 750 68 600 200/20G31 RMK AO2 PK WND 20031/0616
14840KMKG MKG20021114012511911/14/02 01:25:31  5-MIN KMKG 140625Z 20018G31KT 10SM OVC085 11/06 A2979 750 71 500 210/18G31 RMK AO2 PK WND 20031/0616
14840KMKG MKG20021114013011911/14/02 01:30:31  5-MIN KMKG 140630Z 20018G23KT 10SM BKN085 11/06 A2979 750 71 500 210/18G23 RMK AO2 PK WND 20031/0616
14840KMKG MKG20021114013511911/14/02 01:35:31  5-MIN KMKG 140635Z 20020G25KT 10SM BKN085 11/06 A2979 750 71 500 200/20G25 RMK AO2 PK WND 20031/0616
14840KMKG MKG20021114014012611/14/02 01:40:31  5-MIN KMKG 140640Z 20017G25KT 10SM SCT085 BKN110 11/06 A2979 750 71 500 200/17G25 RMK AO2 PK WND 20031/0616
14840KMKG MKG20021114014512611/14/02 01:45:31  5-MIN KMKG 140645Z 20018G25KT 10SM SCT080 BKN110 11/06 A2979 760 71 500 210/18G25 RMK AO2 PK WND 20031/0616
14840KMKG MKG20021114015013611/14/02 01:50:31  5-MIN KMKG 140650Z 21016G25KT 10SM BKN080 11/07 A2979 750 74 500 210/16G25 RMK AO2 PK WND 20031/0616 SLP090 T01110067
14840KMKG MKG20021114015515811/14/02 01:55:31  5-MIN KMKG 140655Z 20021G24KT 10SM SCT080 BKN100 11/07 A2979 750 74 500 210/21G24 RMK AO2 PK WND 20031/0616 CIG 080 RWY 14 SLP090 T01110067
14840KMKG MKG20021114020010811/14/02 02:00:31  5-MIN KMKG 140700Z 20019G25KT 10SM SCT080 BKN100 11/07 A2979 750 74 500 210/19G25 RMK AO2
14840KMKG MKG20021114020510811/14/02 02:05:31  5-MIN KMKG 140705Z 21020G25KT 10SM FEW080 BKN100 11/06 A2979 750 71 500 210/20G25 RMK AO2
14840KMKG MKG20021114021012611/14/02 02:10:31  5-MIN KMKG 140710Z 21020G27KT 10SM FEW080 OVC100 11/06 A2979 750 71 500 210/20G27 RMK AO2 PK WND 20027/0706
14840KMKG MKG20021114021512611/14/02 02:15:31  5-MIN KMKG 140715Z 21021G29KT 10SM FEW080 OVC100 12/06 A2979 750 66 600 210/21G29 RMK AO2 PK WND 20029/0715
14840KMKG MKG20021114022012611/14/02 02:20:31  5-MIN KMKG 140720Z 21021G29KT 10SM FEW080 OVC100 12/06 A2978 760 68 600 210/21G29 RMK AO2 PK WND 20029/0715
14840KMKG MKG20021114022511911/14/02 02:25:31  5-MIN KMKG 140725Z 21017G28KT 10SM OVC100 11/06 A2978 760 71 500 210/17G28 RMK AO2 PK WND 20029/0715
14840KMKG MKG20021114023011911/14/02 02:30:31  5-MIN KMKG 140730Z 21019G25KT 10SM BKN100 11/06 A2978 760 71 500 210/19G25 RMK AO2 PK WND 20029/0715
14840KMKG MKG20021114023511911/14/02 02:35:31  5-MIN KMKG 140735Z 21018G24KT 10SM BKN100 11/06 A2978 760 68 500 210/18G24 RMK AO2 PK WND 20029/0715
14840KMKG MKG20021114024011911/14/02 02:40:31  5-MIN KMKG 140740Z 21020G25KT 10SM BKN100 11/06 A2978 760 68 500 220/20G25 RMK AO2 PK WND 20029/0715
14840KMKG MKG20021114024511911/14/02 02:45:31  5-MIN KMKG 140745Z 21017G25KT 10SM BKN100 11/06 A2978 760 71 500 210/17G25 RMK AO2 PK WND 20029/0715
14840KMKG MKG20021114025013611/14/02 02:50:31  5-MIN KMKG 140750Z 22017G25KT 10SM BKN100 11/06 A2978 760 71 500 220/17G25 RMK AO2 PK WND 20029/0715 SLP087 T01110061
14840KMKG MKG20021114025513011/14/02 02:55:31  5-MIN KMKG 140755Z 21016KT 10SM SCT100 11/06 A2978 760 71 500 220/16 RMK AO2 PK WND 20029/0715 SLP087 T01110061
14840KMKG MKG20021114030009511/14/02 03:00:31  5-MIN KMKG 140800Z 21016KT 10SM BKN100 11/06 A2978 760 71 500 220/16 RMK AO2
14840KMKG MKG20021114030510111/14/02 03:05:31  5-MIN KMKG 140805Z 21016G23KT 10SM BKN100 11/06 A2978 760 71 500 220/16G23 RMK AO2
14840KMKG MKG20021114031010111/14/02 03:10:31  5-MIN KMKG 140810Z 21016G23KT 10SM SCT100 11/06 A2978 760 71 500 220/16G23 RMK AO2
14840KMKG MKG20021114031510111/14/02 03:15:31  5-MIN KMKG 140815Z 21019G23KT 10SM FEW100 11/06 A2978 760 71 500 210/19G23 RMK AO2
14840KMKG MKG20021114032009511/14/02 03:20:31  5-MIN KMKG 140820Z 21015KT 10SM FEW100 11/06 A2978 760 71 500 220/15 RMK AO2
14840KMKG MKG20021114032509511/14/02 03:25:31  5-MIN KMKG 140825Z 21016KT 10SM FEW100 11/07 A2978 760 77 400 220/16 RMK AO2
14840KMKG MKG20021114033009211/14/02 03:30:31  5-MIN KMKG 140830Z 21016KT 10SM CLR 11/07 A2979 760 77 400 210/16 RMK AO2
14840KMKG MKG20021114033509211/14/02 03:35:31  5-MIN KMKG 140835Z 22016KT 10SM CLR 11/07 A2978 760 77 400 220/16 RMK AO2
14840KMKG MKG20021114034009211/14/02 03:40:31  5-MIN KMKG 140840Z 22017KT 10SM CLR 11/06 A2978 760 74 400 220/17 RMK AO2
14840KMKG MKG20021114034509211/14/02 03:45:31  5-MIN KMKG 140845Z 22017KT 10SM CLR 11/06 A2978 760 74 400 220/17 RMK AO2
14840KMKG MKG20021114035011511/14/02 03:50:31  5-MIN KMKG 140850Z 22018KT 10SM CLR 11/06 A2978 760 74 400 220/18 RMK AO2 SLP088 T01060061 56022
14840KMKG MKG20021114035511511/14/02 03:55:31  5-MIN KMKG 140855Z 22015KT 10SM CLR 11/07 A2978 760 77 400 230/15 RMK AO2 SLP088 T01060067 55004
14840KMKG MKG20021114040009211/14/02 04:00:31  5-MIN KMKG 140900Z 22015KT 10SM CLR 11/07 A2979 760 77 400 230/15 RMK AO2
14840KMKG MKG20021114040509811/14/02 04:05:31  5-MIN KMKG 140905Z 22015G21KT 10SM CLR 11/07 A2979 750 77 400 230/15G21 RMK AO2
14840KMKG MKG20021114041009811/14/02 04:10:31  5-MIN KMKG 140910Z 23014G21KT 10SM CLR 11/07 A2979 750 74 500 230/14G21 RMK AO2
14840KMKG MKG20021114041509211/14/02 04:15:31  5-MIN KMKG 140915Z 22013KT 10SM CLR 11/07 A2979 750 77 400 230/13 RMK AO2
14840KMKG MKG20021114042009811/14/02 04:20:31  5-MIN KMKG 140920Z 22017G24KT 10SM CLR 11/07 A2979 750 74 500 230/17G24 RMK AO2
14840KMKG MKG20021114042509811/14/02 04:25:31  5-MIN KMKG 140925Z 22014G24KT 10SM CLR 11/07 A2979 750 80 400 230/14G24 RMK AO2
14840KMKG MKG20021114043009811/14/02 04:30:31  5-MIN KMKG 140930Z 22015G22KT 10SM CLR 11/07 A2979 750 77 400 230/15G22 RMK AO2
14840KMKG MKG20021114043510111/14/02 04:35:31  5-MIN KMKG 140935Z 23012G22KT 10SM FEW085 11/07 A2979 750 77 400 230/12G22 RMK AO2
14840KMKG MKG20021114044010111/14/02 04:40:31  5-MIN KMKG 140940Z 23015G20KT 10SM FEW090 11/07 A2979 750 74 500 240/15G20 RMK AO2
14840KMKG MKG20021114044510111/14/02 04:45:31  5-MIN KMKG 140945Z 23011G20KT 10SM SCT090 11/07 A2979 750 77 400 230/11G20 RMK AO2
14840KMKG MKG20021114045011811/14/02 04:50:31  5-MIN KMKG 140950Z 23015G20KT 10SM FEW090 11/07 A2979 750 74 500 230/15G20 RMK AO2 SLP091 T01110067
14840KMKG MKG20021114045511211/14/02 04:55:31  5-MIN KMKG 140955Z 23014KT 10SM FEW090 11/06 A2979 750 71 500 230/14 RMK AO2 SLP091 T01110061
14840KMKG MKG20021114050009511/14/02 05:00:31  5-MIN KMKG 141000Z 23014KT 10SM FEW090 11/06 A2979 750 74 400 230/14 RMK AO2
14840KMKG MKG20021114050509511/14/02 05:05:31  5-MIN KMKG 141005Z 23013KT 10SM FEW090 11/06 A2979 750 71 500 230/13 RMK AO2
14840KMKG MKG20021114051009211/14/02 05:10:31  5-MIN KMKG 141010Z 23015KT 10SM CLR 11/06 A2979 750 74 400 230/15 RMK AO2
14840KMKG MKG20021114051509211/14/02 05:15:31  5-MIN KMKG 141015Z 23014KT 10SM CLR 11/06 A2979 750 74 400 230/14 RMK AO2
14840KMKG MKG20021114052009211/14/02 05:20:31  5-MIN KMKG 141020Z 23012KT 10SM CLR 11/06 A2979 750 71 500 240/12 RMK AO2
14840KMKG MKG20021114052509211/14/02 05:25:31  5-MIN KMKG 141025Z 23012KT 10SM CLR 11/06 A2979 750 74 400 230/12 RMK AO2
14840KMKG MKG20021114053009811/14/02 05:30:31  5-MIN KMKG 141030Z 23013G18KT 10SM CLR 11/06 A2979 750 74 400 230/13G18 RMK AO2
14840KMKG MKG20021114053509811/14/02 05:35:31  5-MIN KMKG 141035Z 23011G18KT 10SM CLR 11/06 A2980 750 74 400 240/11G18 RMK AO2
14840KMKG MKG20021114054009811/14/02 05:40:31  5-MIN KMKG 141040Z 23010G17KT 10SM CLR 11/06 A2980 750 74 400 240/10G17 RMK AO2
14840KMKG MKG20021114054509811/14/02 05:45:31  5-MIN KMKG 141045Z 23011G16KT 10SM CLR 11/06 A2980 740 74 400 240/11G16 RMK AO2
14840KMKG MKG20021114055010911/14/02 05:50:31  5-MIN KMKG 141050Z 24009KT 10SM CLR 11/06 A2980 740 74 400 240/09 RMK AO2 SLP093 T01060061
14840KMKG MKG20021114055510911/14/02 05:55:31  5-MIN KMKG 141055Z 24009KT 10SM CLR 11/06 A2980 740 74 400 240/09 RMK AO2 SLP093 T01060061
14840KMKG MKG20021114060009211/14/02 06:00:31  5-MIN KMKG 141100Z 24010KT 10SM CLR 11/06 A2980 740 74 400 240/10 RMK AO2
14840KMKG MKG20021114060509211/14/02 06:05:31  5-MIN KMKG 141105Z 23011KT 10SM CLR 11/06 A2980 740 74 400 240/11 RMK AO2
14840KMKG MKG20021114061009211/14/02 06:10:31  5-MIN KMKG 141110Z 24011KT 10SM CLR 11/06 A2980 740 74 400 240/11 RMK AO2
14840KMKG MKG20021114061509211/14/02 06:15:31  5-MIN KMKG 141115Z 24011KT 10SM CLR 11/06 A2980 750 74 400 240/11 RMK AO2
14840KMKG MKG20021114062009211/14/02 06:20:31  5-MIN KMKG 141120Z 24009KT 10SM CLR 11/06 A2980 750 74 400 240/09 RMK AO2
14840KMKG MKG20021114062509211/14/02 06:25:31  5-MIN KMKG 141125Z 24010KT 10SM CLR 10/06 A2980 740 77 400 250/10 RMK AO2
14840KMKG MKG20021114063009211/14/02 06:30:31  5-MIN KMKG 141130Z 24010KT 10SM CLR 11/06 A2980 740 74 400 240/10 RMK AO2
14840KMKG MKG20021114063509211/14/02 06:35:31  5-MIN KMKG 141135Z 25010KT 10SM CLR 11/06 A2980 750 74 400 250/10 RMK AO2
14840KMKG MKG20021114064009211/14/02 06:40:31  5-MIN KMKG 141140Z 25009KT 10SM CLR 10/06 A2980 750 77 400 250/09 RMK AO2
14840KMKG MKG20021114064509211/14/02 06:45:31  5-MIN KMKG 141145Z 24010KT 10SM CLR 10/06 A2980 740 77 400 250/10 RMK AO2
14840KMKG MKG20021114065012711/14/02 06:50:31  5-MIN KMKG 141150Z 25010KT 10SM CLR 10/06 A2980 740 77 400 260/10 RMK AO2 SLP093 T01000061 10117 20100 55004
14840KMKG MKG20021114065512711/14/02 06:55:31  5-MIN KMKG 141155Z 25011KT 10SM CLR 10/06 A2980 740 77 400 250/11 RMK AO2 SLP094 T01000061 10117 20100 50005
14840KMKG MKG20021114070009211/14/02 07:00:31  5-MIN KMKG 141200Z 25010KT 10SM CLR 10/06 A2980 740 77 400 250/10 RMK AO2
14840KMKG MKG20021114070509211/14/02 07:05:31  5-MIN KMKG 141205Z 25010KT 10SM CLR 10/06 A2980 750 77 400 250/10 RMK AO2
14840KMKG MKG20021114071009211/14/02 07:10:31  5-MIN KMKG 141210Z 25009KT 10SM CLR 10/06 A2980 750 77 400 250/09 RMK AO2
14840KMKG MKG20021114071509211/14/02 07:15:31  5-MIN KMKG 141215Z 25009KT 10SM CLR 10/06 A2980 750 77 400 260/09 RMK AO2
14840KMKG MKG20021114072009211/14/02 07:20:31  5-MIN KMKG 141220Z 26008KT 10SM CLR 10/06 A2980 750 77 400 260/08 RMK AO2
14840KMKG MKG20021114072509211/14/02 07:25:31  5-MIN KMKG 141225Z 26009KT 10SM CLR 09/06 A2980 740 79 300 260/09 RMK AO2
14840KMKG MKG20021114073009211/14/02 07:30:31  5-MIN KMKG 141230Z 26009KT 10SM CLR 10/06 A2980 740 77 400 260/09 RMK AO2
14840KMKG MKG20021114073509211/14/02 07:35:31  5-MIN KMKG 141235Z 25008KT 10SM CLR 10/06 A2980 740 77 400 260/08 RMK AO2
14840KMKG MKG20021114074009211/14/02 07:40:31  5-MIN KMKG 141240Z 25011KT 10SM CLR 10/06 A2980 740 77 400 250/11 RMK AO2
14840KMKG MKG20021114074509211/14/02 07:45:31  5-MIN KMKG 141245Z 26008KT 10SM CLR 10/06 A2980 740 77 400 260/08 RMK AO2
14840KMKG MKG20021114075010911/14/02 07:50:31  5-MIN KMKG 141250Z 26009KT 10SM CLR 10/06 A2980 740 77 400 260/09 RMK AO2 SLP095 T01000061
14840KMKG MKG20021114075510911/14/02 07:55:31  5-MIN KMKG 141255Z 26009KT 10SM CLR 10/06 A2980 740 77 400 270/09 RMK AO2 SLP095 T01000061
14840KMKG MKG20021114080009211/14/02 08:00:31  5-MIN KMKG 141300Z 27010KT 10SM CLR 10/06 A2981 740 77 400 270/10 RMK AO2
14840KMKG MKG20021114080509211/14/02 08:05:31  5-MIN KMKG 141305Z 27008KT 10SM CLR 09/06 A2981 730 79 300 270/08 RMK AO2
14840KMKG MKG20021114081009211/14/02 08:10:31  5-MIN KMKG 141310Z 26009KT 10SM CLR 10/06 A2981 730 77 300 260/09 RMK AO2
14840KMKG MKG20021114081509211/14/02 08:15:31  5-MIN KMKG 141315Z 26006KT 10SM CLR 10/06 A2981 730 77 300 270/06 RMK AO2
14840KMKG MKG20021114082009211/14/02 08:20:31  5-MIN KMKG 141320Z 26007KT 10SM CLR 10/06 A2982 730 77 300 260/07 RMK AO2
14840KMKG MKG20021114082509211/14/02 08:25:31  5-MIN KMKG 141325Z 26007KT 10SM CLR 10/06 A2982 720 74 300 260/07 RMK AO2
14840KMKG MKG20021114083009211/14/02 08:30:31  5-MIN KMKG 141330Z 27006KT 10SM CLR 10/06 A2982 720 74 300 270/06 RMK AO2
14840KMKG MKG20021114083509211/14/02 08:35:31  5-MIN KMKG 141335Z 28006KT 10SM CLR 10/06 A2982 720 74 300 280/06 RMK AO2
14840KMKG MKG20021114084009211/14/02 08:40:31  5-MIN KMKG 141340Z 29007KT 10SM CLR 10/06 A2982 720 74 300 290/07 RMK AO2
14840KMKG MKG20021114084509211/14/02 08:45:31  5-MIN KMKG 141345Z 28008KT 10SM CLR 10/06 A2983 720 74 300 290/08 RMK AO2
14840KMKG MKG20021114085010911/14/02 08:50:31  5-MIN KMKG 141350Z 29007KT 10SM CLR 10/05 A2982 720 71 300 290/07 RMK AO2 SLP102 T01000050
14840KMKG MKG20021114085510911/14/02 08:55:31  5-MIN KMKG 141355Z 28009KT 10SM CLR 10/05 A2983 720 71 300 290/09 RMK AO2 SLP102 T01000050
14840KMKG MKG20021114090009211/14/02 09:00:31  5-MIN KMKG 141400Z 28006KT 10SM CLR 10/05 A2982 720 71 300 290/06 RMK AO2
14840KMKG MKG20021114090509211/14/02 09:05:31  5-MIN KMKG 141405Z 28009KT 10SM CLR 10/04 A2982 720 68 300 280/09 RMK AO2
14840KMKG MKG20021114091009211/14/02 09:10:31  5-MIN KMKG 141410Z 30007KT 10SM CLR 10/04 A2982 720 68 300 300/07 RMK AO2
14840KMKG MKG20021114091509211/14/02 09:15:31  5-MIN KMKG 141415Z 30008KT 10SM CLR 10/04 A2982 720 68 300 310/08 RMK AO2
14840KMKG MKG20021114092009211/14/02 09:20:31  5-MIN KMKG 141420Z 28009KT 10SM CLR 10/04 A2983 720 65 300 290/09 RMK AO2
14840KMKG MKG20021114092509211/14/02 09:25:31  5-MIN KMKG 141425Z 30008KT 10SM CLR 10/04 A2983 720 65 300 300/08 RMK AO2
14840KMKG MKG20021114093009211/14/02 09:30:31  5-MIN KMKG 141430Z 30009KT 10SM CLR 10/04 A2983 720 65 300 310/09 RMK AO2
14840KMKG MKG20021114093509211/14/02 09:35:31  5-MIN KMKG 141435Z 28009KT 10SM CLR 10/04 A2983 720 65 300 290/09 RMK AO2
14840KMKG MKG20021114094009211/14/02 09:40:31  5-MIN KMKG 141440Z 29007KT 10SM CLR 10/04 A2983 710 65 300 290/07 RMK AO2
14840KMKG MKG20021114094509211/14/02 09:45:31  5-MIN KMKG 141445Z 30006KT 10SM CLR 10/04 A2983 710 65 300 300/06 RMK AO2
14840KMKG MKG20021114095011511/14/02 09:50:31  5-MIN KMKG 141450Z 29009KT 10SM CLR 10/04 A2983 710 65 300 290/09 RMK AO2 SLP104 T01000039 50005
14840KMKG MKG20021114095511511/14/02 09:55:31  5-MIN KMKG 141455Z 28008KT 10SM CLR 10/04 A2983 710 65 300 280/08 RMK AO2 SLP104 T01000039 52011
14840KMKG MKG20021114100009211/14/02 10:00:31  5-MIN KMKG 141500Z 30009KT 10SM CLR 10/04 A2983 710 65 300 300/09 RMK AO2
14840KMKG MKG20021114100509211/14/02 10:05:31  5-MIN KMKG 141505Z 30008KT 10SM CLR 10/04 A2983 710 65 300 300/08 RMK AO2
14840KMKG MKG20021114101009211/14/02 10:10:31  5-MIN KMKG 141510Z 30008KT 10SM CLR 10/04 A2983 710 65 300 310/08 RMK AO2
14840KMKG MKG20021114101509211/14/02 10:15:31  5-MIN KMKG 141515Z 29010KT 10SM CLR 10/04 A2983 710 65 300 290/10 RMK AO2
14840KMKG MKG20021114102009211/14/02 10:20:31  5-MIN KMKG 141520Z 29006KT 10SM CLR 10/04 A2983 710 68 300 300/06 RMK AO2
14840KMKG MKG20021114102509211/14/02 10:25:31  5-MIN KMKG 141525Z 31008KT 10SM CLR 10/04 A2983 710 68 300 310/08 RMK AO2
14840KMKG MKG20021114103009211/14/02 10:30:31  5-MIN KMKG 141530Z 30008KT 10SM CLR 10/04 A2983 710 68 300 310/08 RMK AO2
14840KMKG MKG20021114103509211/14/02 10:35:31  5-MIN KMKG 141535Z 31006KT 10SM CLR 10/04 A2983 710 68 300 310/06 RMK AO2
14840KMKG MKG20021114104009211/14/02 10:40:31  5-MIN KMKG 141540Z 32005KT 10SM CLR 10/04 A2983 710 68 300 320/05 RMK AO2
14840KMKG MKG20021114104509211/14/02 10:45:31  5-MIN KMKG 141545Z 32007KT 10SM CLR 10/04 A2984 710 68 300 330/07 RMK AO2
14840KMKG MKG20021114105010911/14/02 10:50:31  5-MIN KMKG 141550Z 32007KT 10SM CLR 10/04 A2984 710 68 300 330/07 RMK AO2 SLP106 T01000044
14840KMKG MKG20021114105510911/14/02 10:55:31  5-MIN KMKG 141555Z 32007KT 10SM CLR 11/04 A2983 710 66 400 320/07 RMK AO2 SLP104 T01060044
14840KMKG MKG20021114110009211/14/02 11:00:31  5-MIN KMKG 141600Z 36005KT 10SM CLR 11/04 A2983 710 66 400 010/05 RMK AO2
14840KMKG MKG20021114110509211/14/02 11:05:31  5-MIN KMKG 141605Z 33008KT 10SM CLR 11/05 A2983 710 68 400 330/08 RMK AO2
14840KMKG MKG20021114111009211/14/02 11:10:31  5-MIN KMKG 141610Z 34008KT 10SM CLR 10/05 A2983 710 71 300 340/08 RMK AO2
14840KMKG MKG20021114111509211/14/02 11:15:31  5-MIN KMKG 141615Z 33009KT 10SM CLR 10/05 A2984 710 71 300 330/09 RMK AO2
14840KMKG MKG20021114112009111/14/02 11:20:31  5-MIN KMKG 141620Z 32009KT 9SM CLR 10/05 A2984 710 71 300 320/09 RMK AO2
14840KMKG MKG20021114112509111/14/02 11:25:31  5-MIN KMKG 141625Z 32008KT 8SM CLR 10/05 A2984 700 71 300 320/08 RMK AO2
14840KMKG MKG20021114113009111/14/02 11:30:31  5-MIN KMKG 141630Z 32008KT 8SM CLR 10/05 A2984 700 71 300 330/08 RMK AO2
14840KMKG MKG20021114113509111/14/02 11:35:31  5-MIN KMKG 141635Z 33008KT 8SM CLR 10/05 A2984 700 71 300 340/08 RMK AO2
14840KMKG MKG20021114114009111/14/02 11:40:31  5-MIN KMKG 141640Z 33009KT 8SM CLR 10/05 A2984 700 71 300 340/09 RMK AO2
14840KMKG MKG20021114114509111/14/02 11:45:31  5-MIN KMKG 141645Z 33010KT 8SM CLR 10/05 A2984 700 71 300 330/10 RMK AO2
14840KMKG MKG20021114115010811/14/02 11:50:31  5-MIN KMKG 141650Z 32010KT 8SM CLR 10/04 A2984 700 68 300 330/10 RMK AO2 SLP108 T01000044
14840KMKG MKG20021114115511111/14/02 11:55:31  5-MIN KMKG 141655Z 34009KT 7SM FEW075 09/04 A2985 700 71 200 350/09 RMK AO2 SLP110 T00940044
14840KMKG MKG20021114120009411/14/02 12:00:31  5-MIN KMKG 141700Z 35009KT 7SM SCT075 09/04 A2985 700 71 200 350/09 RMK AO2
14840KMKG MKG20021114120509411/14/02 12:05:31  5-MIN KMKG 141705Z 33007KT 7SM SCT075 09/04 A2985 700 71 200 340/07 RMK AO2
14840KMKG MKG20021114121009411/14/02 12:10:31  5-MIN KMKG 141710Z 35009KT 7SM BKN075 09/04 A2985 690 71 200 360/09 RMK AO2
14840KMKG MKG20021114121509411/14/02 12:15:31  5-MIN KMKG 141715Z 33007KT 7SM BKN075 09/04 A2985 690 71 200 340/07 RMK AO2
14840KMKG MKG20021114122009411/14/02 12:20:31  5-MIN KMKG 141720Z 31009KT 7SM OVC075 09/04 A2985 690 73 200 310/09 RMK AO2
14840KMKG MKG20021114122509411/14/02 12:25:31  5-MIN KMKG 141725Z 32008KT 7SM OVC075 09/04 A2985 690 71 200 320/08 RMK AO2
14840KMKG MKG20021114123009411/14/02 12:30:31  5-MIN KMKG 141730Z 32008KT 7SM OVC075 09/04 A2985 690 71 200 320/08 RMK AO2
14840KMKG MKG20021114123509411/14/02 12:35:31  5-MIN KMKG 141735Z 33007KT 8SM OVC070 09/04 A2985 690 71 200 340/07 RMK AO2
14840KMKG MKG20021114124009411/14/02 12:40:31  5-MIN KMKG 141740Z 35009KT 8SM OVC070 09/04 A2986 690 71 200 350/09 RMK AO2
14840KMKG MKG20021114124509411/14/02 12:45:31  5-MIN KMKG 141745Z 33009KT 8SM OVC070 09/04 A2985 690 71 200 330/09 RMK AO2
14840KMKG MKG20021114125012911/14/02 12:50:31  5-MIN KMKG 141750Z 33007KT 8SM OVC070 09/04 A2985 690 71 200 330/07 RMK AO2 SLP111 T00890039 10106 20089 52011
14840KMKG MKG20021114125512911/14/02 12:55:31  5-MIN KMKG 141755Z 34008KT 8SM OVC070 09/04 A2985 690 71 200 340/08 RMK AO2 SLP111 T00890039 10106 20089 53007
14840KMKG MKG20021114130009411/14/02 13:00:31  5-MIN KMKG 141800Z 33008KT 7SM OVC070 09/04 A2985 700 71 200 340/08 RMK AO2
14840KMKG MKG20021114130509411/14/02 13:05:31  5-MIN KMKG 141805Z 33008KT 8SM OVC070 09/03 A2985 700 68 200 340/08 RMK AO2
14840KMKG MKG20021114131009411/14/02 13:10:31  5-MIN KMKG 141810Z 34006KT 7SM OVC070 09/03 A2985 700 68 200 340/06 RMK AO2
14840KMKG MKG20021114131509411/14/02 13:15:31  5-MIN KMKG 141815Z 33008KT 7SM OVC070 09/04 A2985 700 71 200 330/08 RMK AO2
14840KMKG MKG20021114132009411/14/02 13:20:31  5-MIN KMKG 141820Z 35007KT 7SM OVC070 09/03 A2985 700 68 200 350/07 RMK AO2
14840KMKG MKG20021114132510111/14/02 13:25:31  5-MIN KMKG 141825Z 33006KT 7SM FEW027 OVC070 09/03 A2985 700 68 200 340/06 RMK AO2
14840KMKG MKG20021114133010111/14/02 13:30:31  5-MIN KMKG 141830Z 36008KT 7SM FEW027 OVC070 09/03 A2985 700 68 200 360/08 RMK AO2
14840KMKG MKG20021114133511611/14/02 13:35:31  5-MIN KMKG 141835Z 35008KT 7SM SCT027 OVC070 08/03 A2985 700 70 100 350/08 RMK AO2 CIG 047 RWY 14
14840KMKG MKG20021114134011611/14/02 13:40:31  5-MIN KMKG 141840Z 34006KT 7SM SCT027 BKN070 08/03 A2985 700 70 100 340/06 RMK AO2 CIG 032 RWY 14
14840KMKG MKG20021114134510111/14/02 13:45:31  5-MIN KMKG 141845Z 32006KT 7SM BKN027 OVC070 08/03 A2985 700 70 100 330/06 RMK AO2
14840KMKG MKG20021114135011811/14/02 13:50:31  5-MIN KMKG 141850Z 31008KT 7SM BKN027 OVC070 08/03 A2984 700 70 100 320/08 RMK AO2 SLP108 T00830033
14840KMKG MKG20021114135511811/14/02 13:55:31  5-MIN KMKG 141855Z 30006KT 7SM BKN027 OVC070 08/03 A2984 700 70 100 300/06 RMK AO2 SLP108 T00830033
14840KMKG MKG20021114140009411/14/02 14:00:31  5-MIN KMKG 141900Z 34006KT 7SM OVC027 08/03 A2984 700 70 100 340/06 RMK AO2
14840KMKG MKG20021114140509411/14/02 14:05:31  5-MIN KMKG 141905Z 33008KT 7SM OVC027 08/03 A2984 700 70 100 330/08 RMK AO2
14840KMKG MKG20021114141009411/14/02 14:10:31  5-MIN KMKG 141910Z 33010KT 7SM OVC027 08/03 A2984 700 70 100 340/10 RMK AO2
14840KMKG MKG20021114141509411/14/02 14:15:31  5-MIN KMKG 141915Z 34009KT 8SM OVC027 08/03 A2984 700 70 100 350/09 RMK AO2
14840KMKG MKG20021114142009411/14/02 14:20:31  5-MIN KMKG 141920Z 32009KT 8SM OVC027 08/03 A2984 700 70 100 330/09 RMK AO2
14840KMKG MKG20021114142509211/14/02 14:25:31  5-MIN KMKG 141925Z 32009KT 8SM OVC027 08/03 A2984 700 73 0 330/09 RMK AO2
14840KMKG MKG20021114143009211/14/02 14:30:31  5-MIN KMKG 141930Z 33009KT 8SM OVC027 08/03 A2984 700 73 0 330/09 RMK AO2
14840KMKG MKG20021114143509211/14/02 14:35:31  5-MIN KMKG 141935Z 32009KT 8SM OVC027 08/03 A2984 710 73 0 330/09 RMK AO2
14840KMKG MKG20021114144009211/14/02 14:40:31  5-MIN KMKG 141940Z 33008KT 8SM OVC027 08/03 A2984 710 73 0 330/08 RMK AO2
14840KMKG MKG20021114144509211/14/02 14:45:31  5-MIN KMKG 141945Z 33007KT 8SM OVC027 08/03 A2984 710 73 0 340/07 RMK AO2
14840KMKG MKG20021114145010911/14/02 14:50:31  5-MIN KMKG 141950Z 34009KT 8SM OVC029 08/03 A2984 700 73 0 340/09 RMK AO2 SLP107 T00780033
14840KMKG MKG20021114145510911/14/02 14:55:31  5-MIN KMKG 141955Z 32008KT 8SM OVC029 08/03 A2984 700 73 0 320/08 RMK AO2 SLP107 T00780033
14840KMKG MKG20021114150009211/14/02 15:00:31  5-MIN KMKG 142000Z 33009KT 8SM OVC027 08/03 A2984 700 70 0 330/09 RMK AO2
14840KMKG MKG20021114150509211/14/02 15:05:31  5-MIN KMKG 142005Z 32007KT 8SM OVC027 08/03 A2984 700 70 0 320/07 RMK AO2
14840KMKG MKG20021114151009211/14/02 15:10:31  5-MIN KMKG 142010Z 32008KT 8SM OVC027 08/03 A2984 700 70 0 320/08 RMK AO2
14840KMKG MKG20021114151509211/14/02 15:15:31  5-MIN KMKG 142015Z 32008KT 9SM OVC027 08/03 A2984 700 70 0 320/08 RMK AO2
14840KMKG MKG20021114152009211/14/02 15:20:31  5-MIN KMKG 142020Z 33008KT 8SM OVC027 08/03 A2984 700 73 0 330/08 RMK AO2
14840KMKG MKG20021114152509211/14/02 15:25:31  5-MIN KMKG 142025Z 34008KT 8SM OVC027 08/03 A2984 700 73 0 340/08 RMK AO2
14840KMKG MKG20021114153009211/14/02 15:30:31  5-MIN KMKG 142030Z 35008KT 8SM OVC027 07/03 A2984 700 76 0 350/08 RMK AO2
14840KMKG MKG20021114153509211/14/02 15:35:31  5-MIN KMKG 142035Z 01008KT 8SM OVC025 07/03 A2984 700 76 0 010/08 RMK AO2
14840KMKG MKG20021114154009211/14/02 15:40:31  5-MIN KMKG 142040Z 36010KT 9SM OVC025 07/03 A2985 700 73 0 010/10 RMK AO2
14840KMKG MKG20021114154509311/14/02 15:45:31  5-MIN KMKG 142045Z 35011KT 10SM OVC023 07/03 A2985 700 73 0 350/11 RMK AO2
14840KMKG MKG20021114155011911/14/02 15:50:31  5-MIN KMKG 142050Z 36009KT 10SM OVC023 07/03 A2985 700 76 -100 360/09 RMK AO2 SLP110 T00670028 53007
14840KMKG MKG20021114155511911/14/02 15:55:31  5-MIN KMKG 142055Z 36011KT 10SM OVC023 07/03 A2986 690 76 -100 360/11 RMK AO2 SLP113 T00670028 53001
14840KMKG MKG20021114160009611/14/02 16:00:31  5-MIN KMKG 142100Z 35011KT 10SM OVC023 07/03 A2986 690 76 -100 350/11 RMK AO2
14840KMKG MKG20021114160509611/14/02 16:05:31  5-MIN KMKG 142105Z 36009KT 10SM OVC023 07/03 A2986 680 76 -100 360/09 RMK AO2
14840KMKG MKG20021114161009611/14/02 16:10:31  5-MIN KMKG 142110Z 36009KT 10SM OVC023 06/03 A2986 680 79 -100 360/09 RMK AO2
14840KMKG MKG20021114161509611/14/02 16:15:31  5-MIN KMKG 142115Z 36009KT 10SM OVC023 06/02 A2987 680 76 -100 010/09 RMK AO2
14840KMKG MKG20021114162009611/14/02 16:20:31  5-MIN KMKG 142120Z 36011KT 10SM OVC023 06/02 A2986 680 76 -100 360/11 RMK AO2
14840KMKG MKG20021114162509611/14/02 16:25:31  5-MIN KMKG 142125Z 36009KT 10SM OVC025 06/02 A2987 680 76 -100 360/09 RMK AO2
14840KMKG MKG20021114163009611/14/02 16:30:31  5-MIN KMKG 142130Z 35008KT 10SM OVC025 06/02 A2987 680 76 -100 350/08 RMK AO2
14840KMKG MKG20021114163509611/14/02 16:35:31  5-MIN KMKG 142135Z 36006KT 10SM OVC025 06/02 A2987 670 76 -100 360/06 RMK AO2
14840KMKG MKG20021114164009611/14/02 16:40:31  5-MIN KMKG 142140Z 35008KT 10SM OVC027 06/02 A2988 670 76 -100 350/08 RMK AO2
14840KMKG MKG20021114164509611/14/02 16:45:31  5-MIN KMKG 142145Z 36008KT 10SM OVC027 06/02 A2988 670 76 -100 360/08 RMK AO2
14840KMKG MKG20021114165011311/14/02 16:50:31  5-MIN KMKG 142150Z 36007KT 10SM OVC027 06/02 A2988 670 76 -200 360/07 RMK AO2 SLP120 T00610022
14840KMKG MKG20021114165511311/14/02 16:55:31  5-MIN KMKG 142155Z 33008KT 10SM OVC027 06/02 A2988 670 76 -200 340/08 RMK AO2 SLP120 T00610022
14840KMKG MKG20021114170009611/14/02 17:00:31  5-MIN KMKG 142200Z 33008KT 10SM OVC029 06/02 A2988 670 76 -200 330/08 RMK AO2
14840KMKG MKG20021114170509611/14/02 17:05:31  5-MIN KMKG 142205Z 33007KT 10SM OVC029 06/02 A2988 670 76 -200 340/07 RMK AO2
14840KMKG MKG20021114171009611/14/02 17:10:31  5-MIN KMKG 142210Z 33006KT 10SM OVC029 06/02 A2988 660 76 -200 340/06 RMK AO2
14840KMKG MKG20021114171509611/14/02 17:15:31  5-MIN KMKG 142215Z 33007KT 10SM OVC031 06/02 A2988 660 76 -200 330/07 RMK AO2
14840KMKG MKG20021114172009611/14/02 17:20:31  5-MIN KMKG 142220Z 33006KT 10SM OVC031 06/02 A2989 660 79 -200 330/06 RMK AO2
14840KMKG MKG20021114172509611/14/02 17:25:31  5-MIN KMKG 142225Z 34006KT 10SM OVC031 06/02 A2989 660 79 -200 340/06 RMK AO2
14840KMKG MKG20021114173009611/14/02 17:30:31  5-MIN KMKG 142230Z 32007KT 10SM OVC031 06/02 A2989 660 79 -200 330/07 RMK AO2
14840KMKG MKG20021114173509611/14/02 17:35:31  5-MIN KMKG 142235Z 32008KT 10SM OVC031 06/02 A2989 660 79 -200 330/08 RMK AO2
14840KMKG MKG20021114174010311/14/02 17:40:31  5-MIN KMKG 142240Z 33007KT 10SM BKN031 OVC110 06/02 A2989 660 79 -200 330/07 RMK AO2
14840KMKG MKG20021114174510311/14/02 17:45:31  5-MIN KMKG 142245Z 33007KT 10SM BKN031 OVC110 06/02 A2989 660 79 -200 340/07 RMK AO2
14840KMKG MKG20021114175012011/14/02 17:50:31  5-MIN KMKG 142250Z 35009KT 10SM SCT031 OVC110 06/02 A2989 660 79 -200 350/09 RMK AO2 SLP126 T00560022
14840KMKG MKG20021114175512011/14/02 17:55:31  5-MIN KMKG 142255Z 35008KT 10SM FEW033 OVC110 06/02 A2989 660 79 -200 350/08 RMK AO2 SLP126 T00560022
14840KMKG MKG20021114180010311/14/02 18:00:31  5-MIN KMKG 142300Z 34008KT 10SM FEW033 OVC100 06/02 A2989 650 79 -200 350/08 RMK AO2
14840KMKG MKG20021114180510311/14/02 18:05:31  5-MIN KMKG 142305Z 35009KT 10SM FEW033 OVC100 06/02 A2990 650 79 -200 350/09 RMK AO2
14840KMKG MKG20021114181011011/14/02 18:10:31  5-MIN KMKG 142310Z 34008KT 10SM FEW019 SCT033 OVC100 06/02 A2990 650 79 -200 350/08 RMK AO2
14840KMKG MKG20021114181511011/14/02 18:15:31  5-MIN KMKG 142315Z 33009KT 10SM SCT019 BKN033 OVC100 06/02 A2990 650 79 -200 340/09 RMK AO2
14840KMKG MKG20021114182011011/14/02 18:20:31  5-MIN KMKG 142320Z 33010KT 10SM BKN019 BKN033 OVC100 05/02 A2990 650 82 -300 330/10 RMK AO2
14840KMKG MKG20021114182511011/14/02 18:25:31  5-MIN KMKG 142325Z 35008KT 10SM BKN019 BKN033 OVC095 05/02 A2990 650 82 -300 350/08 RMK AO2
14840KMKG MKG20021114183010311/14/02 18:30:31  5-MIN KMKG 142330Z 35009KT 10SM BKN019 OVC033 05/02 A2990 650 82 -300 360/09 RMK AO2
14840KMKG MKG20021114183509611/14/02 18:35:31  5-MIN KMKG 142335Z 36007KT 10SM OVC019 05/02 A2990 650 82 -300 010/07 RMK AO2
14840KMKG MKG20021114184009611/14/02 18:40:31  5-MIN KMKG 142340Z 36006KT 10SM OVC019 05/02 A2990 650 82 -300 360/06 RMK AO2
14840KMKG MKG20021114184509611/14/02 18:45:31  5-MIN KMKG 142345Z 35009KT 10SM OVC019 05/02 A2990 650 82 -300 350/09 RMK AO2
14840KMKG MKG20021114185013111/14/02 18:50:31  5-MIN KMKG 142350Z 35011KT 10SM OVC019 05/02 A2990 650 79 -300 360/11 RMK AO2 SLP129 T00500017 10089 20050 53001
14840KMKG MKG20021114185513111/14/02 18:55:31  5-MIN KMKG 142355Z 34010KT 10SM OVC019 05/02 A2990 650 79 -300 350/10 RMK AO2 SLP129 T00500017 10089 20050 51015
14840KMKG MKG20021114190009611/14/02 19:00:31  5-MIN KMKG 150000Z 35009KT 10SM OVC019 05/02 A2991 640 79 -300 350/09 RMK AO2
14840KMKG MKG20021114190509611/14/02 19:05:31  5-MIN KMKG 150005Z 35008KT 10SM OVC019 05/02 A2991 640 79 -300 350/08 RMK AO2
14840KMKG MKG20021114191009611/14/02 19:10:31  5-MIN KMKG 150010Z 02009KT 10SM OVC019 04/02 A2991 640 82 -400 020/09 RMK AO2
14840KMKG MKG20021114191509611/14/02 19:15:31  5-MIN KMKG 150015Z 01010KT 10SM OVC019 04/02 A2991 640 82 -400 020/10 RMK AO2
14840KMKG MKG20021114192009611/14/02 19:20:31  5-MIN KMKG 150020Z 35010KT 10SM OVC019 04/02 A2991 640 82 -400 360/10 RMK AO2
14840KMKG MKG20021114192509611/14/02 19:25:31  5-MIN KMKG 150025Z 36009KT 10SM OVC019 04/01 A2991 640 79 -400 010/09 RMK AO2
14840KMKG MKG20021114193009611/14/02 19:30:31  5-MIN KMKG 150030Z 36008KT 10SM OVC019 04/02 A2992 630 82 -400 010/08 RMK AO2
14840KMKG MKG20021114193509611/14/02 19:35:31  5-MIN KMKG 150035Z 02011KT 10SM OVC019 04/02 A2992 630 82 -400 020/11 RMK AO2
14840KMKG MKG20021114194010311/14/02 19:40:31  5-MIN KMKG 150040Z 36012KT 10SM BKN017 OVC022 04/01 A2992 630 82 -500 360/12 RMK AO2
14840KMKG MKG20021114194509611/14/02 19:45:31  5-MIN KMKG 150045Z 36011KT 10SM OVC019 04/01 A2992 630 82 -500 010/11 RMK AO2
14840KMKG MKG20021114195011311/14/02 19:50:31  5-MIN KMKG 150050Z 01010KT 10SM OVC019 04/01 A2992 630 82 -500 010/10 RMK AO2 SLP134 T00390011
14840KMKG MKG20021114195511311/14/02 19:55:31  5-MIN KMKG 150055Z 36010KT 10SM OVC019 04/01 A2992 630 82 -500 010/10 RMK AO2 SLP135 T00390011
14840KMKG MKG20021114200009611/14/02 20:00:31  5-MIN KMKG 150100Z 01008KT 10SM OVC017 04/01 A2992 630 82 -500 020/08 RMK AO2
14840KMKG MKG20021114200509611/14/02 20:05:31  5-MIN KMKG 150105Z 02009KT 10SM OVC017 04/01 A2992 630 82 -500 020/09 RMK AO2
14840KMKG MKG20021114201009611/14/02 20:10:31  5-MIN KMKG 150110Z 02008KT 10SM OVC017 04/01 A2992 630 82 -500 020/08 RMK AO2
14840KMKG MKG20021114201509611/14/02 20:15:31  5-MIN KMKG 150115Z 01010KT 10SM OVC017 04/01 A2992 630 82 -500 010/10 RMK AO2
14840KMKG MKG20021114202009611/14/02 20:20:31  5-MIN KMKG 150120Z 02009KT 10SM OVC017 04/01 A2992 630 82 -500 020/09 RMK AO2
14840KMKG MKG20021114202509611/14/02 20:25:31  5-MIN KMKG 150125Z 01007KT 10SM OVC017 04/01 A2993 620 82 -500 020/07 RMK AO2
14840KMKG MKG20021114203011211/14/02 20:30:31  5-MIN KMKG 150130Z 02009KT 10SM -RA OVC017 03/01 A2992 630 85 -500 020/09 RMK AO2 RAB30 P0000
14840KMKG MKG20021114203511211/14/02 20:35:31  5-MIN KMKG 150135Z 02010KT 10SM -RA OVC017 03/01 A2993 620 85 -600 030/10 RMK AO2 RAB30 P0000
14840KMKG MKG20021114204011211/14/02 20:40:31  5-MIN KMKG 150140Z 02011KT 10SM -RA OVC017 03/01 A2993 620 85 -600 030/11 RMK AO2 RAB30 P0000
14840KMKG MKG20021114204511111/14/02 20:45:31  5-MIN KMKG 150145Z 01009KT 10SM OVC017 03/01 A2992 630 85 -500 020/09 RMK AO2 RAB30E45 P0000
14840KMKG MKG20021114205012811/14/02 20:50:31  5-MIN KMKG 150150Z 02008KT 10SM OVC017 03/01 A2993 630 85 -500 030/08 RMK AO2 RAB30E45 SLP137 P0000 T00330011
14840KMKG MKG20021114205512811/14/02 20:55:31  5-MIN KMKG 150155Z 03008KT 10SM OVC017 03/01 A2992 630 85 -500 030/08 RMK AO2 RAB30E45 SLP137 P0000 T00330011
14840KMKG MKG20021114210009611/14/02 21:00:31  5-MIN KMKG 150200Z 03009KT 10SM OVC017 03/01 A2992 630 85 -500 030/09 RMK AO2
14840KMKG MKG20021114210509611/14/02 21:05:31  5-MIN KMKG 150205Z 02010KT 10SM OVC017 03/01 A2993 620 85 -600 020/10 RMK AO2
14840KMKG MKG20021114211011211/14/02 21:10:31  5-MIN KMKG 150210Z 03011KT 10SM -RA OVC017 03/01 A2993 620 82 -600 030/11 RMK AO2 RAB10 P0000
14840KMKG MKG20021114211511211/14/02 21:15:31  5-MIN KMKG 150215Z 03010KT 10SM -RA OVC017 03/01 A2993 620 85 -600 030/10 RMK AO2 RAB10 P0000
14840KMKG MKG20021114212011211/14/02 21:20:31  5-MIN KMKG 150220Z 03009KT 10SM -RA OVC017 03/01 A2993 620 89 -600 030/09 RMK AO2 RAB10 P0000
14840KMKG MKG20021114212511211/14/02 21:25:31  5-MIN KMKG 150225Z 03011KT 10SM -RA OVC017 03/01 A2993 620 89 -600 030/11 RMK AO2 RAB10 P0000
14840KMKG MKG20021114213011911/14/02 21:30:31  5-MIN KMKG 150230Z 02010KT 10SM -RA BKN017 OVC025 03/01 A2993 620 85 -600 030/10 RMK AO2 RAB10 P0000
14840KMKG MKG20021114213511911/14/02 21:35:31  5-MIN KMKG 150235Z 02011KT 10SM -RA BKN017 OVC025 03/01 A2994 620 85 -600 020/11 RMK AO2 RAB10 P0000
14840KMKG MKG20021114214013411/14/02 21:40:31  5-MIN KMKG 150240Z 01009KT 10SM -RA SCT017 OVC025 03/01 A2994 620 85 -600 010/09 RMK AO2 RAB10 CIG 017 RWY 14 P0000
14840KMKG MKG20021114214511911/14/02 21:45:31  5-MIN KMKG 150245Z 01007KT 10SM -RA SCT017 OVC025 03/01 A2994 610 85 -600 020/07 RMK AO2 RAB10 P0000
14840KMKG MKG20021114215014811/14/02 21:50:31  5-MIN KMKG 150250Z 02010KT 10SM -RA FEW019 OVC025 02/01 A2994 610 89 -700 020/10 RMK AO2 RAB10 SLP144 P0000 60000 T00220006 51015
14840KMKG MKG20021114215514111/14/02 21:55:31  5-MIN KMKG 150255Z 02010KT 10SM -RA OVC025 02/01 A2994 610 89 -700 030/10 RMK AO2 RAB10 SLP143 P0000 60000 T00220006 51013
14840KMKG MKG20021114220012011/14/02 22:00:31  5-MIN KMKG 150300Z 02011KT 10SM UP OVC027 02/01 A2994 610 89 -700 030/11 RMK AO2 RAE0258UPB0258 P0000
14840KMKG MKG20021114220512011/14/02 22:05:31  5-MIN KMKG 150305Z 02011KT 10SM UP OVC027 02/01 A2994 610 89 -700 020/11 RMK AO2 RAE0258UPB0258 P0000
14840KMKG MKG20021114221012011/14/02 22:10:31  5-MIN KMKG 150310Z 03008KT 10SM UP OVC027 02/01 A2994 610 89 -700 030/08 RMK AO2 RAE0258UPB0258 P0000
14840KMKG MKG20021114221512711/14/02 22:15:31  5-MIN KMKG 150315Z 02008KT 10SM UP FEW013 OVC029 02/01 A2995 610 89 -700 030/08 RMK AO2 RAE0258UPB0258 P0000
14840KMKG MKG20021114222012711/14/02 22:20:31  5-MIN KMKG 150320Z 02007KT 10SM FEW013 OVC029 02/01 A2995 610 92 -700 030/07 RMK AO2 RAE0258UPB0258E16 P0000
14840KMKG MKG20021114222512711/14/02 22:25:31  5-MIN KMKG 150325Z 02009KT 10SM FEW013 OVC029 02/01 A2995 600 89 -700 020/09 RMK AO2 RAE0258UPB0258E16 P0000
14840KMKG MKG20021114223012711/14/02 22:30:31  5-MIN KMKG 150330Z 02008KT 10SM FEW013 OVC031 02/01 A2995 600 89 -700 030/08 RMK AO2 RAE0258UPB0258E16 P0000
14840KMKG MKG20021114223512711/14/02 22:35:31  5-MIN KMKG 150335Z 02007KT 10SM FEW013 OVC031 02/01 A2995 600 89 -700 030/07 RMK AO2 RAE0258UPB0258E16 P0000
14840KMKG MKG20021114224012711/14/02 22:40:31  5-MIN KMKG 150340Z 02008KT 10SM FEW013 OVC031 02/01 A2995 600 89 -700 020/08 RMK AO2 RAE0258UPB0258E16 P0000
14840KMKG MKG20021114224512011/14/02 22:45:31  5-MIN KMKG 150345Z 02010KT 10SM OVC031 02/01 A2995 600 89 -700 030/10 RMK AO2 RAE0258UPB0258E16 P0000
14840KMKG MKG20021114225013711/14/02 22:50:31  5-MIN KMKG 150350Z 03009KT 10SM OVC031 02/01 A2995 600 89 -700 030/09 RMK AO2 RAE0258UPB0258E16 SLP147 P0000 T00220006
14840KMKG MKG20021114225513011/14/02 22:55:31  5-MIN KMKG 150355Z 04008KT 10SM OVC033 02/01 A2995 600 89 -700 040/08 RMK AO2 SLP146 RAB0258E16 P0000 T00220006
14840KMKG MKG20021114230009611/14/02 23:00:31  5-MIN KMKG 150400Z 05008KT 10SM OVC033 02/01 A2995 600 89 -700 050/08 RMK AO2
14840KMKG MKG20021114230509611/14/02 23:05:31  5-MIN KMKG 150405Z 04006KT 10SM OVC035 02/00 A2995 600 85 -700 040/06 RMK AO2
14840KMKG MKG20021114231009611/14/02 23:10:31  5-MIN KMKG 150410Z 03007KT 10SM OVC035 02/00 A2995 600 85 -700 040/07 RMK AO2
14840KMKG MKG20021114231509611/14/02 23:15:31  5-MIN KMKG 150415Z 03006KT 10SM OVC037 02/00 A2995 600 85 -700 040/06 RMK AO2
14840KMKG MKG20021114232009611/14/02 23:20:31  5-MIN KMKG 150420Z 02009KT 10SM OVC037 02/00 A2995 600 85 -700 020/09 RMK AO2
14840KMKG MKG20021114232509611/14/02 23:25:31  5-MIN KMKG 150425Z 02006KT 10SM OVC037 02/00 A2996 600 89 -800 020/06 RMK AO2
14840KMKG MKG20021114233009711/14/02 23:30:31  5-MIN KMKG 150430Z 03007KT 10SM OVC037 02/M01 A2996 600 85 -800 030/07 RMK AO2
14840KMKG MKG20021114233509711/14/02 23:35:31  5-MIN KMKG 150435Z 02006KT 10SM OVC039 02/M01 A2996 600 85 -800 030/06 RMK AO2
14840KMKG MKG20021114234009711/14/02 23:40:31  5-MIN KMKG 150440Z 02008KT 10SM OVC039 02/M01 A2996 600 82 -800 020/08 RMK AO2
14840KMKG MKG20021114234509711/14/02 23:45:31  5-MIN KMKG 150445Z 03009KT 10SM OVC039 02/M01 A2996 590 82 -800 030/09 RMK AO2
14840KMKG MKG20021114235012411/14/02 23:50:31  5-MIN KMKG 150450Z 02008KT 10SM OVC039 02/M01 A2996 590 82 -800 020/08 RMK AO2 SLP151 T00171011 401170017
14840KMKG MKG20021114235512411/14/02 23:55:31  5-MIN KMKG 150455Z 01008KT 10SM OVC041 02/M01 A2996 590 82 -800 020/08 RMK AO2 SLP151 T00171011 401170017
14840KMKG MKG20021115000009711/15/02 00:00:31  5-MIN KMKG 150500Z 02006KT 10SM OVC041 02/M01 A2996 590 82 -800 030/06 RMK AO2
14840KMKG MKG20021115000509711/15/02 00:05:31  5-MIN KMKG 150505Z 02007KT 10SM OVC041 02/M01 A2996 590 82 -800 020/07 RMK AO2
14840KMKG MKG20021115001009711/15/02 00:10:31  5-MIN KMKG 150510Z 02007KT 10SM OVC041 02/M02 A2997 590 78 -800 030/07 RMK AO2
14840KMKG MKG20021115001509711/15/02 00:15:31  5-MIN KMKG 150515Z 01008KT 10SM OVC041 02/M02 A2997 590 78 -800 020/08 RMK AO2
14840KMKG MKG20021115002009711/15/02 00:20:31  5-MIN KMKG 150520Z 02008KT 10SM OVC041 02/M02 A2997 590 78 -800 020/08 RMK AO2
14840KMKG MKG20021115002510411/15/02 00:25:31  5-MIN KMKG 150525Z 01008KT 10SM BKN041 OVC110 02/M02 A2997 590 75 -800 010/08 RMK AO2
14840KMKG MKG20021115003010411/15/02 00:30:31  5-MIN KMKG 150530Z 02008KT 10SM BKN041 OVC110 02/M02 A2997 590 75 -800 030/08 RMK AO2
14840KMKG MKG20021115003510411/15/02 00:35:31  5-MIN KMKG 150535Z 01007KT 10SM SCT043 OVC110 01/M02 A2997 580 78 -900 010/07 RMK AO2
14840KMKG MKG20021115004010411/15/02 00:40:31  5-MIN KMKG 150540Z 02007KT 10SM SCT043 OVC110 01/M02 A2997 580 78 -900 020/07 RMK AO2
14840KMKG MKG20021115004510411/15/02 00:45:31  5-MIN KMKG 150545Z 36007KT 10SM FEW043 OVC110 01/M02 A2998 580 78 -900 010/07 RMK AO2
14840KMKG MKG20021115005013811/15/02 00:50:31  5-MIN KMKG 150550Z 01008KT 10SM OVC110 01/M02 A2998 580 78 -900 010/08 RMK AO2 SLP156 60000 T00111022 10050 20011 51013
14840KMKG MKG20021115005513811/15/02 00:55:31  5-MIN KMKG 150555Z 03007KT 10SM OVC110 01/M02 A2998 570 78 -900 030/07 RMK AO2 SLP157 60000 T00111022 10050 20011 53013
14840KMKG MKG20021115010009711/15/02 01:00:31  5-MIN KMKG 150600Z 01006KT 10SM OVC110 01/M02 A2998 570 78 -900 010/06 RMK AO2
14840KMKG MKG20021115010509711/15/02 01:05:31  5-MIN KMKG 150605Z 01007KT 10SM BKN110 01/M02 A2998 570 78 -900 020/07 RMK AO2
14840KMKG MKG20021115011009711/15/02 01:10:31  5-MIN KMKG 150610Z 02006KT 10SM BKN110 01/M02 A2999 570 78 -900 020/06 RMK AO2
14840KMKG MKG20021115011509711/15/02 01:15:31  5-MIN KMKG 150615Z 02007KT 10SM BKN110 01/M02 A2999 570 78 -900 020/07 RMK AO2
14840KMKG MKG20021115012009711/15/02 01:20:31  5-MIN KMKG 150620Z 01006KT 10SM BKN110 01/M02 A2999 570 78 -900 020/06 RMK AO2
14840KMKG MKG20021115012509711/15/02 01:25:31  5-MIN KMKG 150625Z 01005KT 10SM BKN110 01/M02 A2999 570 78 -900 020/05 RMK AO2
14840KMKG MKG20021115013009711/15/02 01:30:31  5-MIN KMKG 150630Z 01007KT 10SM BKN110 01/M02 A2999 570 78 -900 020/07 RMK AO2
14840KMKG MKG20021115013509711/15/02 01:35:31  5-MIN KMKG 150635Z 03007KT 10SM OVC110 01/M02 A2999 570 78 -900 030/07 RMK AO2
14840KMKG MKG20021115014009711/15/02 01:40:31  5-MIN KMKG 150640Z 02008KT 10SM OVC110 01/M03 A2999 570 75 -900 020/08 RMK AO2
14840KMKG MKG20021115014509711/15/02 01:45:31  5-MIN KMKG 150645Z 02007KT 10SM OVC110 01/M03 A2999 570 75 -900 030/07 RMK AO2
14840KMKG MKG20021115015011511/15/02 01:50:31  5-MIN KMKG 150650Z 02007KT 10SM OVC110 01/M03 A2999 570 78 -1000 020/07 RMK AO2 SLP160 T00061028
14840KMKG MKG20021115115512111/15/02 11:55:31  5-MIN KMKG 151655Z 06013KT 10SM SCT038 BKN095 03/M07 A3014 420 50 -900 060/13 RMK AO2 SLP215 T00281067
14840KMKG MKG20021115120010411/15/02 12:00:31  5-MIN KMKG 151700Z 04007KT 10SM SCT038 OVC095 03/M07 A3015 420 50 -900 050/07 RMK AO2
14840KMKG MKG20021115120511011/15/02 12:05:31  5-MIN KMKG 151705Z 04015G19KT 10SM SCT038 OVC095 03/M06 A3015 420 50 -800 040/15G19 RMK AO2
14840KMKG MKG20021115121011011/15/02 12:10:31  5-MIN KMKG 151710Z 03012G19KT 10SM SCT038 OVC095 03/M07 A3015 420 50 -900 030/12G19 RMK AO2
14840KMKG MKG20021115121510411/15/02 12:15:31  5-MIN KMKG 151715Z 02009KT 10SM FEW038 OVC095 02/M07 A3015 420 52 -900 030/09 RMK AO2
14840KMKG MKG20021115122010411/15/02 12:20:31  5-MIN KMKG 151720Z 03011KT 10SM FEW038 OVC095 02/M07 A3015 420 52 -900 030/11 RMK AO2
14840KMKG MKG20021115122510411/15/02 12:25:31  5-MIN KMKG 151725Z 05012KT 10SM FEW038 OVC095 02/M07 A3015 420 52 -900 050/12 RMK AO2
14840KMKG MKG20021115123010411/15/02 12:30:31  5-MIN KMKG 151730Z 05010KT 10SM FEW038 OVC095 02/M07 A3015 420 52 -900 050/10 RMK AO2
14840KMKG MKG20021115123509711/15/02 12:35:31  5-MIN KMKG 151735Z 05013KT 10SM OVC095 02/M07 A3015 420 52 -900 050/13 RMK AO2
14840KMKG MKG20021115124009811/15/02 12:40:31  5-MIN KMKG 151740Z 06011KT 10SM BKN095 02/M07 A3015 420 52 -1000 060/11 RMK AO2
14840KMKG MKG20021115124509711/15/02 12:45:31  5-MIN KMKG 151745Z 04007KT 10SM BKN090 02/M07 A3015 420 52 -900 040/07 RMK AO2
14840KMKG MKG20021115125013811/15/02 12:50:31  5-MIN KMKG 151750Z 02011G16KT 10SM SCT095 03/M07 A3015 420 50 -900 020/11G16 RMK AO2 SLP216 T00281067 10033 21011 53020
14840KMKG MKG20021115125513911/15/02 12:55:31  5-MIN KMKG 151755Z 04011KT 10SM FEW038 SCT095 03/M06 A3015 420 52 -900 050/11 RMK AO2 SLP215 T00281061 10033 21011 51008
14840KMKG MKG20021115130009711/15/02 13:00:31  5-MIN KMKG 151800Z 01011KT 10SM FEW095 03/M07 A3014 420 50 -900 020/11 RMK AO2
14840KMKG MKG20021115130511311/15/02 13:05:31  5-MIN KMKG 151805Z 04008KT 360V070 10SM FEW090 03/M07 A3014 430 50 -900 040/08 360V070 RMK AO2
14840KMKG MKG20021115131009411/15/02 13:10:31  5-MIN KMKG 151810Z 02010KT 10SM CLR 03/M07 A3014 430 48 -800 020/10 RMK AO2
14840KMKG MKG20021115131509411/15/02 13:15:31  5-MIN KMKG 151815Z 36010KT 10SM CLR 03/M07 A3014 430 48 -800 010/10 RMK AO2
14840KMKG MKG20021115132009411/15/02 13:20:31  5-MIN KMKG 151820Z 02011KT 10SM CLR 03/M07 A3014 430 48 -800 020/11 RMK AO2
14840KMKG MKG20021115132509411/15/02 13:25:31  5-MIN KMKG 151825Z 04010KT 10SM CLR 03/M07 A3014 430 48 -800 040/10 RMK AO2
14840KMKG MKG20021115133009411/15/02 13:30:31  5-MIN KMKG 151830Z 04012KT 10SM CLR 03/M07 A3014 430 50 -900 040/12 RMK AO2
14840KMKG MKG20021115133509411/15/02 13:35:31  5-MIN KMKG 151835Z 02008KT 10SM CLR 03/M07 A3014 430 48 -800 020/08 RMK AO2
14840KMKG MKG20021115134009711/15/02 13:40:31  5-MIN KMKG 151840Z 04011KT 10SM FEW085 03/M07 A3014 430 48 -800 050/11 RMK AO2
14840KMKG MKG20021115134509711/15/02 13:45:31  5-MIN KMKG 151845Z 04010KT 10SM FEW085 03/M07 A3014 430 48 -800 050/10 RMK AO2
14840KMKG MKG20021115135011411/15/02 13:50:31  5-MIN KMKG 151850Z 03010KT 10SM FEW060 03/M07 A3014 430 48 -800 040/10 RMK AO2 SLP213 T00331067
14840KMKG MKG20021115135511411/15/02 13:55:31  5-MIN KMKG 151855Z 03009KT 10SM FEW060 04/M06 A3014 430 48 -700 040/09 RMK AO2 SLP213 T00391061
14840KMKG MKG20021115140009411/15/02 14:00:31  5-MIN KMKG 151900Z 06008KT 10SM CLR 03/M07 A3014 430 46 -800 070/08 RMK AO2
14840KMKG MKG20021115140509411/15/02 14:05:31  5-MIN KMKG 151905Z 05008KT 10SM CLR 04/M06 A3014 430 48 -700 050/08 RMK AO2
14840KMKG MKG20021115141009411/15/02 14:10:31  5-MIN KMKG 151910Z 07010KT 10SM CLR 04/M07 A3014 430 46 -700 070/10 RMK AO2
14840KMKG MKG20021115141511011/15/02 14:15:31  5-MIN KMKG 151915Z 02008KT 320V050 10SM CLR 03/M07 A3014 430 48 -800 030/08 320V050 RMK AO2
14840KMKG MKG20021115142009711/15/02 14:20:31  5-MIN KMKG 151920Z 36008KT 10SM FEW043 03/M07 A3014 430 50 -900 360/08 RMK AO2
14840KMKG MKG20021115142510311/15/02 14:25:31  5-MIN KMKG 151925Z 04008G16KT 10SM FEW043 03/M07 A3015 420 48 -800 040/08G16 RMK AO2
14840KMKG MKG20021115143010011/15/02 14:30:31  5-MIN KMKG 151930Z 05012G16KT 10SM CLR 03/M07 A3015 420 48 -800 060/12G16 RMK AO2
14840KMKG MKG20021115143509411/15/02 14:35:31  5-MIN KMKG 151935Z 05008KT 10SM CLR 03/M07 A3015 420 48 -800 050/08 RMK AO2
14840KMKG MKG20021115144009411/15/02 14:40:31  5-MIN KMKG 151940Z 06006KT 10SM CLR 04/M07 A3015 420 46 -700 060/06 RMK AO2
14840KMKG MKG20021115144511311/15/02 14:45:31  5-MIN KMKG 151945Z 02008KT 340V050 10SM FEW043 04/M07 A3015 420 46 -700 030/08 340V050 RMK AO2
14840KMKG MKG20021115145012011/15/02 14:50:31  5-MIN KMKG 151950Z 01011G14KT 10SM SCT043 04/M07 A3015 420 46 -700 010/11G14 RMK AO2 SLP217 T00391067
14840KMKG MKG20021115145511411/15/02 14:55:31  5-MIN KMKG 151955Z 03010KT 10SM SCT043 03/M07 A3015 420 48 -800 040/10 RMK AO2 SLP217 T00331067
14840KMKG MKG20021115150009711/15/02 15:00:31  5-MIN KMKG 152000Z 04009KT 10SM BKN043 03/M07 A3015 420 50 -900 040/09 RMK AO2
14840KMKG MKG20021115150509711/15/02 15:05:31  5-MIN KMKG 152005Z 03009KT 10SM SCT043 02/M07 A3015 420 50 -900 030/09 RMK AO2
14840KMKG MKG20021115151009711/15/02 15:10:31  5-MIN KMKG 152010Z 03008KT 10SM SCT043 03/M07 A3015 420 48 -800 030/08 RMK AO2
14840KMKG MKG20021115151509711/15/02 15:15:31  5-MIN KMKG 152015Z 06010KT 10SM SCT043 03/M07 A3015 420 46 -800 060/10 RMK AO2
14840KMKG MKG20021115152009711/15/02 15:20:31  5-MIN KMKG 152020Z 04011KT 10SM SCT043 04/M07 A3016 410 46 -700 040/11 RMK AO2
14840KMKG MKG20021115152509711/15/02 15:25:31  5-MIN KMKG 152025Z 02011KT 10SM FEW043 03/M07 A3016 410 48 -800 020/11 RMK AO2
14840KMKG MKG20021115153009811/15/02 15:30:31  5-MIN KMKG 152030Z 36008KT 10SM FEW043 02/M07 A3016 410 50 -1000 010/08 RMK AO2
14840KMKG MKG20021115153509711/15/02 15:35:31  5-MIN KMKG 152035Z 01008KT 10SM FEW043 03/M07 A3016 410 50 -900 010/08 RMK AO2
14840KMKG MKG20021115154009711/15/02 15:40:31  5-MIN KMKG 152040Z 04010KT 10SM FEW043 03/M07 A3016 410 50 -900 050/10 RMK AO2
14840KMKG MKG20021115154509711/15/02 15:45:31  5-MIN KMKG 152045Z 01009KT 10SM FEW043 03/M07 A3016 410 50 -900 010/09 RMK AO2
14840KMKG MKG20021115155012011/15/02 15:50:31  5-MIN KMKG 152050Z 01010KT 10SM FEW043 03/M07 A3016 410 50 -900 010/10 RMK AO2 SLP220 T00281067 51008
14840KMKG MKG20021115155512011/15/02 15:55:31  5-MIN KMKG 152055Z 01010KT 10SM FEW043 03/M07 A3016 410 48 -900 020/10 RMK AO2 SLP220 T00281072 53005
14840KMKG MKG20021115160009711/15/02 16:00:31  5-MIN KMKG 152100Z 36008KT 10SM FEW043 03/M07 A3016 410 50 -900 010/08 RMK AO2
14840KMKG MKG20021115160509711/15/02 16:05:31  5-MIN KMKG 152105Z 01010KT 10SM FEW043 03/M07 A3016 410 50 -900 010/10 RMK AO2
14840KMKG MKG20021115161009711/15/02 16:10:31  5-MIN KMKG 152110Z 01009KT 10SM FEW043 03/M07 A3016 410 50 -900 010/09 RMK AO2
14840KMKG MKG20021115161509711/15/02 16:15:31  5-MIN KMKG 152115Z 01010KT 10SM FEW043 03/M07 A3016 410 50 -900 020/10 RMK AO2
14840KMKG MKG20021115162009711/15/02 16:20:31  5-MIN KMKG 152120Z 03006KT 10SM FEW043 03/M07 A3017 400 48 -900 040/06 RMK AO2
14840KMKG MKG20021115162509711/15/02 16:25:31  5-MIN KMKG 152125Z 02010KT 10SM FEW043 03/M07 A3017 400 50 -900 020/10 RMK AO2
14840KMKG MKG20021115163009811/15/02 16:30:31  5-MIN KMKG 152130Z 03008KT 10SM FEW043 02/M07 A3017 400 52 -1000 030/08 RMK AO2
14840KMKG MKG20021115163509811/15/02 16:35:31  5-MIN KMKG 152135Z 03006KT 10SM FEW043 02/M07 A3017 400 52 -1000 040/06 RMK AO2
14840KMKG MKG20021115164009811/15/02 16:40:31  5-MIN KMKG 152140Z 02008KT 10SM FEW043 02/M07 A3017 400 52 -1000 020/08 RMK AO2
14840KMKG MKG20021115164509811/15/02 16:45:31  5-MIN KMKG 152145Z 03010KT 10SM FEW043 02/M07 A3017 400 50 -1000 030/10 RMK AO2
14840KMKG MKG20021115165011511/15/02 16:50:31  5-MIN KMKG 152150Z 03009KT 10SM FEW043 02/M07 A3017 400 50 -1000 030/09 RMK AO2 SLP224 T00221072
14840KMKG MKG20021115165511511/15/02 16:55:31  5-MIN KMKG 152155Z 02009KT 10SM FEW043 02/M07 A3017 400 50 -1000 020/09 RMK AO2 SLP224 T00221072
14840KMKG MKG20021115170009511/15/02 17:00:31  5-MIN KMKG 152200Z 01009KT 10SM CLR 02/M07 A3017 400 50 -1000 010/09 RMK AO2
14840KMKG MKG20021115170509511/15/02 17:05:31  5-MIN KMKG 152205Z 01009KT 10SM CLR 02/M07 A3018 390 52 -1000 020/09 RMK AO2
14840KMKG MKG20021115171009511/15/02 17:10:31  5-MIN KMKG 152210Z 01008KT 10SM CLR 02/M08 A3018 390 49 -1000 020/08 RMK AO2
14840KMKG MKG20021115171509511/15/02 17:15:31  5-MIN KMKG 152215Z 03006KT 10SM CLR 02/M07 A3018 390 52 -1000 030/06 RMK AO2
14840KMKG MKG20021115172009511/15/02 17:20:31  5-MIN KMKG 152220Z 02008KT 10SM CLR 01/M08 A3018 390 51 -1100 020/08 RMK AO2
14840KMKG MKG20021115172509511/15/02 17:25:31  5-MIN KMKG 152225Z 02007KT 10SM CLR 01/M08 A3018 390 51 -1100 020/07 RMK AO2
14840KMKG MKG20021115173009511/15/02 17:30:31  5-MIN KMKG 152230Z 03005KT 10SM CLR 01/M08 A3019 390 51 -1100 030/05 RMK AO2
14840KMKG MKG20021115173509511/15/02 17:35:31  5-MIN KMKG 152235Z 03006KT 10SM CLR 01/M08 A3019 380 51 -1100 030/06 RMK AO2
14840KMKG MKG20021115174009511/15/02 17:40:31  5-MIN KMKG 152240Z 04006KT 10SM CLR 01/M08 A3019 380 51 -1100 040/06 RMK AO2
14840KMKG MKG20021115174509811/15/02 17:45:31  5-MIN KMKG 152245Z 05005KT 10SM FEW043 01/M08 A3019 380 54 -1200 050/05 RMK AO2
14840KMKG MKG20021115175011511/15/02 17:50:31  5-MIN KMKG 152250Z 06006KT 10SM FEW043 01/M08 A3019 380 54 -1200 060/06 RMK AO2 SLP232 T00061078
14840KMKG MKG20021115175511511/15/02 17:55:31  5-MIN KMKG 152255Z 05006KT 10SM FEW043 00/M08 A3020 380 56 -1300 060/06 RMK AO2 SLP233 T00001078
14840KMKG MKG20021115180009511/15/02 18:00:31  5-MIN KMKG 152300Z 04005KT 10SM CLR 01/M08 A3020 370 51 -1200 040/05 RMK AO2
14840KMKG MKG20021115180509511/15/02 18:05:31  5-MIN KMKG 152305Z 05004KT 10SM CLR 01/M08 A3020 370 51 -1200 050/04 RMK AO2
14840KMKG MKG20021115181009511/15/02 18:10:31  5-MIN KMKG 152310Z 04006KT 10SM CLR 00/M08 A3020 370 53 -1300 050/06 RMK AO2
14840KMKG MKG20021115181509511/15/02 18:15:31  5-MIN KMKG 152315Z 04005KT 10SM CLR 00/M08 A3020 370 53 -1300 040/05 RMK AO2
14840KMKG MKG20021115182009511/15/02 18:20:31  5-MIN KMKG 152320Z 03005KT 10SM CLR 00/M08 A3020 370 53 -1300 040/05 RMK AO2
14840KMKG MKG20021115182509511/15/02 18:25:31  5-MIN KMKG 152325Z 03004KT 10SM CLR 00/M08 A3020 370 53 -1300 040/04 RMK AO2
14840KMKG MKG20021115183009511/15/02 18:30:31  5-MIN KMKG 152330Z 03004KT 10SM CLR 00/M08 A3021 370 53 -1300 030/04 RMK AO2
14840KMKG MKG20021115183509511/15/02 18:35:31  5-MIN KMKG 152335Z 03004KT 10SM CLR 00/M08 A3021 370 53 -1300 030/04 RMK AO2
14840KMKG MKG20021115184009511/15/02 18:40:31  5-MIN KMKG 152340Z 02004KT 10SM CLR 00/M08 A3021 360 53 -1300 030/04 RMK AO2
14840KMKG MKG20021115184509511/15/02 18:45:31  5-MIN KMKG 152345Z 03005KT 10SM CLR 00/M08 A3021 360 53 -1300 030/05 RMK AO2
14840KMKG MKG20021115185013011/15/02 18:50:31  5-MIN KMKG 152350Z 03004KT 10SM CLR 00/M08 A3021 360 53 -1300 040/04 RMK AO2 SLP238 T00001083 10039 21006 53005
14840KMKG MKG20021115185513111/15/02 18:55:31  5-MIN KMKG 152355Z 03004KT 10SM CLR M01/M08 A3021 360 56 -1400 030/04 RMK AO2 SLP239 T10061083 10039 21006 53017
14840KMKG MKG20021115190009611/15/02 19:00:31  5-MIN KMKG 160000Z 03004KT 10SM CLR M01/M08 A3021 360 56 -1400 030/04 RMK AO2
14840KMKG MKG20021115190509611/15/02 19:05:31  5-MIN KMKG 160005Z 04005KT 10SM CLR M01/M08 A3022 360 56 -1400 040/05 RMK AO2
14840KMKG MKG20021115191009611/15/02 19:10:31  5-MIN KMKG 160010Z 03005KT 10SM CLR M01/M08 A3022 360 58 -1400 030/05 RMK AO2
14840KMKG MKG20021115191509611/15/02 19:15:31  5-MIN KMKG 160015Z 03006KT 10SM CLR M01/M08 A3022 360 56 -1400 040/06 RMK AO2
14840KMKG MKG20021115192009611/15/02 19:20:31  5-MIN KMKG 160020Z 03005KT 10SM CLR M01/M08 A3022 350 56 -1400 030/05 RMK AO2
14840KMKG MKG20021115192509611/15/02 19:25:31  5-MIN KMKG 160025Z 03005KT 10SM CLR M01/M08 A3022 350 56 -1400 040/05 RMK AO2
14840KMKG MKG20021115193009611/15/02 19:30:31  5-MIN KMKG 160030Z 02005KT 10SM CLR M01/M08 A3022 350 56 -1400 030/05 RMK AO2
14840KMKG MKG20021115193509611/15/02 19:35:31  5-MIN KMKG 160035Z 03007KT 10SM CLR M01/M09 A3022 350 53 -1400 030/07 RMK AO2
14840KMKG MKG20021115194009611/15/02 19:40:31  5-MIN KMKG 160040Z 04006KT 10SM CLR M01/M09 A3022 350 53 -1400 040/06 RMK AO2
14840KMKG MKG20021115194509611/15/02 19:45:31  5-MIN KMKG 160045Z 04006KT 10SM CLR M01/M08 A3023 350 58 -1500 050/06 RMK AO2
14840KMKG MKG20021115195011311/15/02 19:50:31  5-MIN KMKG 160050Z 04006KT 10SM CLR M01/M09 A3023 350 55 -1500 050/06 RMK AO2 SLP244 T10111089
14840KMKG MKG20021115195511311/15/02 19:55:31  5-MIN KMKG 160055Z 04005KT 10SM CLR M01/M09 A3023 350 55 -1500 040/05 RMK AO2 SLP245 T10111089
14840KMKG MKG20021115200009611/15/02 20:00:31  5-MIN KMKG 160100Z 03004KT 10SM CLR M02/M09 A3023 350 58 -1500 040/04 RMK AO2
14840KMKG MKG20021115200509611/15/02 20:05:31  5-MIN KMKG 160105Z 03006KT 10SM CLR M02/M09 A3023 350 58 -1500 030/06 RMK AO2
14840KMKG MKG20021115201009611/15/02 20:10:31  5-MIN KMKG 160110Z 03005KT 10SM CLR M02/M09 A3023 350 58 -1500 030/05 RMK AO2
14840KMKG MKG20021115201509611/15/02 20:15:31  5-MIN KMKG 160115Z 02006KT 10SM CLR M02/M09 A3023 350 58 -1500 030/06 RMK AO2
14840KMKG MKG20021115202009611/15/02 20:20:31  5-MIN KMKG 160120Z 02006KT 10SM CLR M02/M09 A3023 340 58 -1500 030/06 RMK AO2
14840KMKG MKG20021115202509611/15/02 20:25:31  5-MIN KMKG 160125Z 02005KT 10SM CLR M02/M08 A3023 340 60 -1500 030/05 RMK AO2
14840KMKG MKG20021115203009611/15/02 20:30:31  5-MIN KMKG 160130Z 02005KT 10SM CLR M02/M09 A3023 340 58 -1500 030/05 RMK AO2
14840KMKG MKG20021115203509611/15/02 20:35:31  5-MIN KMKG 160135Z 02006KT 10SM CLR M02/M09 A3023 340 60 -1600 020/06 RMK AO2
14840KMKG MKG20021115204009611/15/02 20:40:31  5-MIN KMKG 160140Z 36005KT 10SM CLR M02/M09 A3023 340 60 -1600 010/05 RMK AO2
14840KMKG MKG20021115204509611/15/02 20:45:31  5-MIN KMKG 160145Z 36007KT 10SM CLR M02/M09 A3024 340 60 -1600 360/07 RMK AO2
14840KMKG MKG20021115205011311/15/02 20:50:31  5-MIN KMKG 160150Z 36007KT 10SM CLR M02/M09 A3024 340 60 -1600 360/07 RMK AO2 SLP248 T10221089
14840KMKG MKG20021115205511311/15/02 20:55:31  5-MIN KMKG 160155Z 01007KT 10SM CLR M02/M09 A3024 340 58 -1600 010/07 RMK AO2 SLP248 T10221094
14840KMKG MKG20021115210009611/15/02 21:00:31  5-MIN KMKG 160200Z 02007KT 10SM CLR M02/M09 A3024 340 58 -1600 020/07 RMK AO2
14840KMKG MKG20021115210509611/15/02 21:05:31  5-MIN KMKG 160205Z 36006KT 10SM CLR M02/M09 A3024 330 58 -1600 010/06 RMK AO2
14840KMKG MKG20021115211009611/15/02 21:10:31  5-MIN KMKG 160210Z 01006KT 10SM CLR M02/M09 A3024 330 58 -1600 020/06 RMK AO2
14840KMKG MKG20021115211509611/15/02 21:15:31  5-MIN KMKG 160215Z 01006KT 10SM CLR M03/M09 A3025 330 60 -1700 020/06 RMK AO2
14840KMKG MKG20021115212009611/15/02 21:20:31  5-MIN KMKG 160220Z 02006KT 10SM CLR M03/M09 A3025 330 60 -1700 030/06 RMK AO2
14840KMKG MKG20021115212509611/15/02 21:25:31  5-MIN KMKG 160225Z 02006KT 10SM CLR M03/M09 A3025 330 63 -1700 030/06 RMK AO2
14840KMKG MKG20021115213009611/15/02 21:30:31  5-MIN KMKG 160230Z 03005KT 10SM CLR M03/M09 A3025 330 60 -1700 030/05 RMK AO2
14840KMKG MKG20021115213509611/15/02 21:35:31  5-MIN KMKG 160235Z 02007KT 10SM CLR M03/M09 A3025 330 63 -1700 030/07 RMK AO2
14840KMKG MKG20021115214009611/15/02 21:40:31  5-MIN KMKG 160240Z 03007KT 10SM CLR M03/M09 A3025 320 63 -1700 040/07 RMK AO2
14840KMKG MKG20021115214509611/15/02 21:45:31  5-MIN KMKG 160245Z 05005KT 10SM CLR M03/M09 A3026 320 63 -1700 050/05 RMK AO2
14840KMKG MKG20021115215011911/15/02 21:50:31  5-MIN KMKG 160250Z 06006KT 10SM CLR M03/M09 A3026 320 65 -1800 070/06 RMK AO2 SLP256 T10331089 53017
14840KMKG MKG20021115215511911/15/02 21:55:31  5-MIN KMKG 160255Z 05007KT 10SM CLR M03/M10 A3026 320 60 -1800 060/07 RMK AO2 SLP256 T10331100 53016
14840KMKG MKG20021115220009611/15/02 22:00:31  5-MIN KMKG 160300Z 05006KT 10SM CLR M03/M10 A3026 310 58 -1700 050/06 RMK AO2
14840KMKG MKG20021115220509611/15/02 22:05:31  5-MIN KMKG 160305Z 04007KT 10SM CLR M03/M10 A3027 310 60 -1800 050/07 RMK AO2
14840KMKG MKG20021115221009611/15/02 22:10:31  5-MIN KMKG 160310Z 04007KT 10SM CLR M03/M09 A3027 310 63 -1800 050/07 RMK AO2
14840KMKG MKG20021115221509611/15/02 22:15:31  5-MIN KMKG 160315Z 05007KT 10SM CLR M03/M09 A3027 310 63 -1800 060/07 RMK AO2
14840KMKG MKG20021115222009611/15/02 22:20:31  5-MIN KMKG 160320Z 06007KT 10SM CLR M03/M09 A3027 310 63 -1800 060/07 RMK AO2
14840KMKG MKG20021115222509611/15/02 22:25:31  5-MIN KMKG 160325Z 06007KT 10SM CLR M03/M09 A3027 310 65 -1800 070/07 RMK AO2
14840KMKG MKG20021115223009611/15/02 22:30:31  5-MIN KMKG 160330Z 07007KT 10SM CLR M03/M08 A3027 310 68 -1800 070/07 RMK AO2
14840KMKG MKG20021115223509611/15/02 22:35:31  5-MIN KMKG 160335Z 08007KT 10SM CLR M03/M08 A3027 310 68 -1800 080/07 RMK AO2
14840KMKG MKG20021115224009611/15/02 22:40:31  5-MIN KMKG 160340Z 07007KT 10SM CLR M03/M08 A3027 310 71 -1800 080/07 RMK AO2
14840KMKG MKG20021115224509611/15/02 22:45:31  5-MIN KMKG 160345Z 07008KT 10SM CLR M03/M08 A3027 300 71 -1800 080/08 RMK AO2
14840KMKG MKG20021115225011311/15/02 22:50:31  5-MIN KMKG 160350Z 08007KT 10SM CLR M03/M08 A3027 310 71 -1800 080/07 RMK AO2 SLP259 T10331078
14840KMKG MKG20021115225511311/15/02 22:55:31  5-MIN KMKG 160355Z 08009KT 10SM CLR M03/M08 A3027 310 71 -1800 080/09 RMK AO2 SLP259 T10331078
14840KMKG MKG20021115230009611/15/02 23:00:31  5-MIN KMKG 160400Z 07007KT 10SM CLR M03/M08 A3027 310 71 -1800 070/07 RMK AO2
14840KMKG MKG20021115230509611/15/02 23:05:31  5-MIN KMKG 160405Z 06007KT 10SM CLR M04/M08 A3027 310 74 -1900 060/07 RMK AO2
14840KMKG MKG20021115231009611/15/02 23:10:31  5-MIN KMKG 160410Z 06007KT 10SM CLR M03/M08 A3027 310 71 -1800 060/07 RMK AO2
14840KMKG MKG20021115231509611/15/02 23:15:31  5-MIN KMKG 160415Z 06008KT 10SM CLR M03/M08 A3027 310 71 -1800 070/08 RMK AO2
14840KMKG MKG20021115232009611/15/02 23:20:31  5-MIN KMKG 160420Z 06008KT 10SM CLR M04/M08 A3027 310 74 -1900 070/08 RMK AO2
14840KMKG MKG20021115232509611/15/02 23:25:31  5-MIN KMKG 160425Z 06008KT 10SM CLR M04/M08 A3027 310 74 -1900 070/08 RMK AO2
14840KMKG MKG20021115233009611/15/02 23:30:31  5-MIN KMKG 160430Z 06009KT 10SM CLR M03/M08 A3027 310 68 -1800 060/09 RMK AO2
14840KMKG MKG20021115233509611/15/02 23:35:31  5-MIN KMKG 160435Z 05008KT 10SM CLR M03/M08 A3027 310 68 -1800 060/08 RMK AO2
14840KMKG MKG20021115234009611/15/02 23:40:31  5-MIN KMKG 160440Z 06007KT 10SM CLR M04/M08 A3027 310 71 -1900 060/07 RMK AO2
14840KMKG MKG20021115234509611/15/02 23:45:31  5-MIN KMKG 160445Z 05008KT 10SM CLR M04/M08 A3027 310 71 -1900 060/08 RMK AO2
14840KMKG MKG20021115235012311/15/02 23:50:31  5-MIN KMKG 160450Z 05007KT 10SM CLR M04/M08 A3027 310 71 -1900 050/07 RMK AO2 SLP258 T10391083 400391039
14840KMKG MKG20021115235512311/15/02 23:55:31  5-MIN KMKG 160455Z 05009KT 10SM CLR M04/M08 A3027 310 71 -1900 050/09 RMK AO2 SLP259 T10391083 400391039
14840KMKG MKG20021116000009611/16/02 00:00:31  5-MIN KMKG 160500Z 05007KT 10SM CLR M04/M08 A3027 310 71 -1900 050/07 RMK AO2
14840KMKG MKG20021116000509611/16/02 00:05:31  5-MIN KMKG 160505Z 05007KT 10SM CLR M04/M08 A3027 310 71 -1900 050/07 RMK AO2
14840KMKG MKG20021116001009611/16/02 00:10:31  5-MIN KMKG 160510Z 06008KT 10SM CLR M04/M09 A3027 310 68 -1900 070/08 RMK AO2
14840KMKG MKG20021116001509611/16/02 00:15:31  5-MIN KMKG 160515Z 06009KT 10SM CLR M04/M09 A3027 310 68 -1900 060/09 RMK AO2
14840KMKG MKG20021116002009611/16/02 00:20:31  5-MIN KMKG 160520Z 05007KT 10SM CLR M04/M09 A3027 310 68 -1900 060/07 RMK AO2
14840KMKG MKG20021116002509611/16/02 00:25:31  5-MIN KMKG 160525Z 05008KT 10SM CLR M04/M09 A3027 310 68 -1900 060/08 RMK AO2
14840KMKG MKG20021116003009611/16/02 00:30:31  5-MIN KMKG 160530Z 05008KT 10SM CLR M04/M09 A3028 300 68 -1900 050/08 RMK AO2
14840KMKG MKG20021116003509611/16/02 00:35:31  5-MIN KMKG 160535Z 05008KT 10SM CLR M04/M09 A3028 300 68 -1900 050/08 RMK AO2
14840KMKG MKG20021116004009611/16/02 00:40:31  5-MIN KMKG 160540Z 06007KT 10SM CLR M04/M09 A3028 300 68 -1900 060/07 RMK AO2
14840KMKG MKG20021116004509611/16/02 00:45:31  5-MIN KMKG 160545Z 06008KT 10SM CLR M04/M09 A3028 300 68 -1900 060/08 RMK AO2
14840KMKG MKG20021116005013111/16/02 00:50:31  5-MIN KMKG 160550Z 05007KT 10SM CLR M04/M09 A3028 300 68 -1900 060/07 RMK AO2 SLP260 T10391089 10000 21039 53016
14840KMKG MKG20021116005513111/16/02 00:55:31  5-MIN KMKG 160555Z 06007KT 10SM CLR M04/M09 A3027 300 71 -1900 060/07 RMK AO2 SLP260 T10441089 10000 21044 51004
14840KMKG MKG20021116010009611/16/02 01:00:31  5-MIN KMKG 160600Z 05007KT 10SM CLR M04/M09 A3028 300 71 -1900 060/07 RMK AO2
14840KMKG MKG20021116010509611/16/02 01:05:31  5-MIN KMKG 160605Z 05006KT 10SM CLR M04/M09 A3028 300 71 -1900 060/06 RMK AO2
14840KMKG MKG20021116011009611/16/02 01:10:31  5-MIN KMKG 160610Z 05007KT 10SM CLR M04/M09 A3028 300 71 -1900 050/07 RMK AO2
14840KMKG MKG20021116011509611/16/02 01:15:31  5-MIN KMKG 160615Z 05007KT 10SM CLR M04/M09 A3028 300 71 -1900 060/07 RMK AO2
14840KMKG MKG20021116012009611/16/02 01:20:31  5-MIN KMKG 160620Z 05007KT 10SM CLR M04/M09 A3028 300 71 -1900 050/07 RMK AO2
14840KMKG MKG20021116012509611/16/02 01:25:31  5-MIN KMKG 160625Z 05006KT 10SM CLR M04/M09 A3027 300 71 -1900 050/06 RMK AO2
14840KMKG MKG20021116013009611/16/02 01:30:31  5-MIN KMKG 160630Z 05006KT 10SM CLR M05/M09 A3027 300 74 -2000 050/06 RMK AO2
14840KMKG MKG20021116013509611/16/02 01:35:31  5-MIN KMKG 160635Z 04006KT 10SM CLR M04/M09 A3027 300 71 -1900 050/06 RMK AO2
14840KMKG MKG20021116014009611/16/02 01:40:31  5-MIN KMKG 160640Z 04007KT 10SM CLR M04/M09 A3027 300 71 -1900 040/07 RMK AO2
14840KMKG MKG20021116014509611/16/02 01:45:31  5-MIN KMKG 160645Z 04005KT 10SM CLR M05/M09 A3027 300 74 -2000 050/05 RMK AO2
14840KMKG MKG20021116015011311/16/02 01:50:31  5-MIN KMKG 160650Z 05006KT 10SM CLR M05/M09 A3027 310 74 -2000 050/06 RMK AO2 SLP259 T10501089
14840KMKG MKG20021116015511311/16/02 01:55:31  5-MIN KMKG 160655Z 04006KT 10SM CLR M05/M09 A3027 310 74 -2000 040/06 RMK AO2 SLP259 T10501089
14840KMKG MKG20021116020009611/16/02 02:00:31  5-MIN KMKG 160700Z 04006KT 10SM CLR M05/M09 A3027 300 74 -2000 040/06 RMK AO2
14840KMKG MKG20021116020509611/16/02 02:05:31  5-MIN KMKG 160705Z 03007KT 10SM CLR M05/M09 A3027 310 74 -2000 040/07 RMK AO2
14840KMKG MKG20021116021009611/16/02 02:10:31  5-MIN KMKG 160710Z 02008KT 10SM CLR M05/M09 A3027 300 71 -2000 030/08 RMK AO2
14840KMKG MKG20021116021509611/16/02 02:15:31  5-MIN KMKG 160715Z 03007KT 10SM CLR M05/M09 A3027 300 74 -2000 030/07 RMK AO2
14840KMKG MKG20021116022009611/16/02 02:20:31  5-MIN KMKG 160720Z 02007KT 10SM CLR M05/M09 A3027 310 74 -2000 020/07 RMK AO2
14840KMKG MKG20021116022509611/16/02 02:25:31  5-MIN KMKG 160725Z 01006KT 10SM CLR M05/M09 A3027 310 74 -2000 020/06 RMK AO2
14840KMKG MKG20021116023009611/16/02 02:30:31  5-MIN KMKG 160730Z 02007KT 10SM CLR M05/M09 A3027 310 74 -2000 020/07 RMK AO2
14840KMKG MKG20021116023509611/16/02 02:35:31  5-MIN KMKG 160735Z 02007KT 10SM CLR M05/M09 A3027 310 74 -2000 030/07 RMK AO2
14840KMKG MKG20021116024009611/16/02 02:40:31  5-MIN KMKG 160740Z 03007KT 10SM CLR M05/M09 A3027 310 74 -2000 030/07 RMK AO2
14840KMKG MKG20021116024509611/16/02 02:45:31  5-MIN KMKG 160745Z 02007KT 10SM CLR M05/M09 A3027 310 74 -2000 030/07 RMK AO2
14840KMKG MKG20021116025011311/16/02 02:50:31  5-MIN KMKG 160750Z 03007KT 10SM CLR M05/M09 A3027 310 74 -2000 040/07 RMK AO2 SLP259 T10501089
14840KMKG MKG20021116025511311/16/02 02:55:31  5-MIN KMKG 160755Z 03006KT 10SM CLR M06/M09 A3027 300 77 -2100 040/06 RMK AO2 SLP261 T10561089
14840KMKG MKG20021116030009611/16/02 03:00:31  5-MIN KMKG 160800Z 03008KT 10SM CLR M06/M09 A3027 310 77 -2100 040/08 RMK AO2
14840KMKG MKG20021116030509611/16/02 03:05:31  5-MIN KMKG 160805Z 03008KT 10SM CLR M05/M09 A3027 310 71 -2000 030/08 RMK AO2
14840KMKG MKG20021116031009611/16/02 03:10:31  5-MIN KMKG 160810Z 02008KT 10SM CLR M06/M09 A3027 310 77 -2100 020/08 RMK AO2
14840KMKG MKG20021116031509611/16/02 03:15:31  5-MIN KMKG 160815Z 02007KT 10SM CLR M06/M09 A3027 310 77 -2100 020/07 RMK AO2
14840KMKG MKG20021116032009611/16/02 03:20:31  5-MIN KMKG 160820Z 02007KT 10SM CLR M05/M09 A3027 310 74 -2000 030/07 RMK AO2
14840KMKG MKG20021116032509611/16/02 03:25:31  5-MIN KMKG 160825Z 02007KT 10SM CLR M06/M09 A3027 310 74 -2100 030/07 RMK AO2
14840KMKG MKG20021116033009611/16/02 03:30:31  5-MIN KMKG 160830Z 03007KT 10SM CLR M06/M09 A3027 310 74 -2100 030/07 RMK AO2
14840KMKG MKG20021116033509611/16/02 03:35:31  5-MIN KMKG 160835Z 02007KT 10SM CLR M06/M09 A3027 310 74 -2100 020/07 RMK AO2
14840KMKG MKG20021116034009611/16/02 03:40:31  5-MIN KMKG 160840Z 02007KT 10SM CLR M06/M09 A3027 310 74 -2100 020/07 RMK AO2
14840KMKG MKG20021116034509611/16/02 03:45:31  5-MIN KMKG 160845Z 02007KT 10SM CLR M06/M09 A3027 310 77 -2100 020/07 RMK AO2
14840KMKG MKG20021116035011911/16/02 03:50:31  5-MIN KMKG 160850Z 02007KT 10SM CLR M06/M09 A3026 310 74 -2100 020/07 RMK AO2 SLP257 T10561094 51004
14840KMKG MKG20021116035511911/16/02 03:55:31  5-MIN KMKG 160855Z 01006KT 10SM CLR M06/M09 A3026 320 74 -2100 020/06 RMK AO2 SLP256 T10561094 58004
14840KMKG MKG20021116040009611/16/02 04:00:31  5-MIN KMKG 160900Z 02006KT 10SM CLR M06/M09 A3026 320 74 -2100 020/06 RMK AO2
14840KMKG MKG20021116040509611/16/02 04:05:31  5-MIN KMKG 160905Z 01007KT 10SM CLR M06/M09 A3026 320 77 -2100 010/07 RMK AO2
14840KMKG MKG20021116041009611/16/02 04:10:31  5-MIN KMKG 160910Z 01007KT 10SM CLR M06/M09 A3026 320 77 -2100 010/07 RMK AO2
14840KMKG MKG20021116041509611/16/02 04:15:31  5-MIN KMKG 160915Z 01006KT 10SM CLR M06/M09 A3026 320 77 -2100 010/06 RMK AO2
14840KMKG MKG20021116042009611/16/02 04:20:31  5-MIN KMKG 160920Z 01008KT 10SM CLR M06/M09 A3026 320 74 -2100 010/08 RMK AO2
14840KMKG MKG20021116042509611/16/02 04:25:31  5-MIN KMKG 160925Z 01007KT 10SM CLR M06/M09 A3026 320 77 -2100 020/07 RMK AO2
14840KMKG MKG20021116043009611/16/02 04:30:31  5-MIN KMKG 160930Z 02008KT 10SM CLR M06/M09 A3026 320 81 -2100 020/08 RMK AO2
14840KMKG MKG20021116043509611/16/02 04:35:31  5-MIN KMKG 160935Z 02008KT 10SM CLR M06/M09 A3026 320 77 -2100 020/08 RMK AO2
14840KMKG MKG20021116044009611/16/02 04:40:31  5-MIN KMKG 160940Z 02009KT 10SM CLR M06/M09 A3026 320 77 -2100 020/09 RMK AO2
14840KMKG MKG20021116044509611/16/02 04:45:31  5-MIN KMKG 160945Z 02008KT 10SM CLR M06/M09 A3026 320 77 -2100 020/08 RMK AO2
14840KMKG MKG20021116045011311/16/02 04:50:31  5-MIN KMKG 160950Z 01007KT 10SM CLR M06/M09 A3026 320 81 -2100 020/07 RMK AO2 SLP256 T10611089
14840KMKG MKG20021116045511311/16/02 04:55:31  5-MIN KMKG 160955Z 02008KT 10SM CLR M06/M09 A3026 320 81 -2100 020/08 RMK AO2 SLP257 T10611089
14840KMKG MKG20021116050009611/16/02 05:00:31  5-MIN KMKG 161000Z 01008KT 10SM CLR M06/M09 A3026 320 81 -2100 020/08 RMK AO2
14840KMKG MKG20021116050509611/16/02 05:05:31  5-MIN KMKG 161005Z 02008KT 10SM CLR M06/M09 A3026 320 81 -2100 020/08 RMK AO2
14840KMKG MKG20021116051009611/16/02 05:10:31  5-MIN KMKG 161010Z 01008KT 10SM CLR M06/M09 A3026 310 77 -2100 020/08 RMK AO2
14840KMKG MKG20021116051509611/16/02 05:15:31  5-MIN KMKG 161015Z 01007KT 10SM CLR M06/M09 A3026 310 77 -2100 010/07 RMK AO2
14840KMKG MKG20021116052009611/16/02 05:20:31  5-MIN KMKG 161020Z 36007KT 10SM CLR M06/M09 A3026 310 77 -2100 010/07 RMK AO2
14840KMKG MKG20021116052509611/16/02 05:25:31  5-MIN KMKG 161025Z 01008KT 10SM CLR M06/M09 A3026 310 77 -2100 010/08 RMK AO2
14840KMKG MKG20021116053009611/16/02 05:30:31  5-MIN KMKG 161030Z 01007KT 10SM CLR M06/M09 A3026 310 77 -2100 010/07 RMK AO2
14840KMKG MKG20021116053509611/16/02 05:35:31  5-MIN KMKG 161035Z 36008KT 10SM CLR M06/M09 A3026 310 77 -2100 010/08 RMK AO2
14840KMKG MKG20021116054009611/16/02 05:40:31  5-MIN KMKG 161040Z 36008KT 10SM CLR M06/M09 A3027 310 77 -2100 010/08 RMK AO2
14840KMKG MKG20021116054509611/16/02 05:45:31  5-MIN KMKG 161045Z 01008KT 10SM CLR M06/M09 A3027 310 77 -2100 010/08 RMK AO2
14840KMKG MKG20021116055011311/16/02 05:50:31  5-MIN KMKG 161050Z 01006KT 10SM CLR M06/M09 A3027 310 77 -2100 010/06 RMK AO2 SLP259 T10611094
14840KMKG MKG20021116055511311/16/02 05:55:31  5-MIN KMKG 161055Z 36006KT 10SM CLR M06/M09 A3027 310 77 -2100 010/06 RMK AO2 SLP259 T10611094
14840KMKG MKG20021116060009611/16/02 06:00:31  5-MIN KMKG 161100Z 36007KT 10SM CLR M06/M09 A3027 310 77 -2100 010/07 RMK AO2
14840KMKG MKG20021116060509611/16/02 06:05:31  5-MIN KMKG 161105Z 36007KT 10SM CLR M06/M09 A3027 310 77 -2100 360/07 RMK AO2
14840KMKG MKG20021116061009611/16/02 06:10:31  5-MIN KMKG 161110Z 36008KT 10SM CLR M06/M09 A3027 310 77 -2100 010/08 RMK AO2
14840KMKG MKG20021116061509611/16/02 06:15:31  5-MIN KMKG 161115Z 36008KT 10SM CLR M06/M09 A3027 310 77 -2100 010/08 RMK AO2
14840KMKG MKG20021116062009611/16/02 06:20:31  5-MIN KMKG 161120Z 01007KT 10SM CLR M06/M09 A3027 310 77 -2100 010/07 RMK AO2
14840KMKG MKG20021116062509611/16/02 06:25:31  5-MIN KMKG 161125Z 36007KT 10SM CLR M06/M09 A3027 310 77 -2100 010/07 RMK AO2
14840KMKG MKG20021116063009911/16/02 06:30:31  5-MIN KMKG 161130Z 01007KT 10SM FEW036 M06/M09 A3027 310 81 -2100 010/07 RMK AO2
14840KMKG MKG20021116063509911/16/02 06:35:31  5-MIN KMKG 161135Z 01007KT 10SM FEW036 M06/M09 A3027 310 81 -2100 010/07 RMK AO2
14840KMKG MKG20021116064009911/16/02 06:40:31  5-MIN KMKG 161140Z 01008KT 10SM FEW036 M06/M09 A3027 310 81 -2100 010/08 RMK AO2
14840KMKG MKG20021116064509911/16/02 06:45:31  5-MIN KMKG 161145Z 01007KT 10SM FEW036 M06/M09 A3027 310 81 -2100 010/07 RMK AO2
14840KMKG MKG20021116065013411/16/02 06:50:31  5-MIN KMKG 161150Z 36008KT 10SM SCT034 M06/M09 A3027 310 81 -2100 010/08 RMK AO2 SLP259 T10611089 11044 21061 58004
14840KMKG MKG20021116065513411/16/02 06:55:31  5-MIN KMKG 161155Z 01007KT 10SM SCT034 M06/M09 A3027 310 81 -2100 010/07 RMK AO2 SLP260 T10611089 11044 21061 51002
14840KMKG MKG20021116070009911/16/02 07:00:31  5-MIN KMKG 161200Z 01007KT 10SM FEW034 M07/M09 A3027 310 84 -2200 020/07 RMK AO2
14840KMKG MKG20021116070509911/16/02 07:05:31  5-MIN KMKG 161205Z 01006KT 10SM FEW034 M07/M09 A3027 310 84 -2200 010/06 RMK AO2
14840KMKG MKG20021116071009911/16/02 07:10:31  5-MIN KMKG 161210Z 01006KT 10SM FEW034 M07/M09 A3027 310 84 -2200 010/06 RMK AO2
14840KMKG MKG20021116071509911/16/02 07:15:31  5-MIN KMKG 161215Z 36006KT 10SM FEW034 M07/M09 A3027 310 84 -2200 010/06 RMK AO2
14840KMKG MKG20021116072009911/16/02 07:20:31  5-MIN KMKG 161220Z 36007KT 10SM FEW034 M07/M09 A3027 310 84 -2200 010/07 RMK AO2
14840KMKG MKG20021116072509611/16/02 07:25:31  5-MIN KMKG 161225Z 01006KT 10SM CLR M07/M09 A3027 310 84 -2200 010/06 RMK AO2
14840KMKG MKG20021116073009611/16/02 07:30:31  5-MIN KMKG 161230Z 01006KT 10SM CLR M07/M09 A3027 310 84 -2200 010/06 RMK AO2
14840KMKG MKG20021116073509611/16/02 07:35:31  5-MIN KMKG 161235Z 36007KT 10SM CLR M07/M09 A3027 310 84 -2200 010/07 RMK AO2
14840KMKG MKG20021116074009611/16/02 07:40:31  5-MIN KMKG 161240Z 01007KT 10SM CLR M07/M09 A3027 310 84 -2200 010/07 RMK AO2
14840KMKG MKG20021116074509611/16/02 07:45:31  5-MIN KMKG 161245Z 01007KT 10SM CLR M07/M09 A3027 310 84 -2200 010/07 RMK AO2
14840KMKG MKG20021116075011611/16/02 07:50:31  5-MIN KMKG 161250Z 36006KT 10SM FEW030 M07/M09 A3027 310 81 -2200 010/06 RMK AO2 SLP260 T10671094
14840KMKG MKG20021116075511611/16/02 07:55:31  5-MIN KMKG 161255Z 36007KT 10SM FEW030 M07/M09 A3027 310 84 -2200 010/07 RMK AO2 SLP261 T10671089
14840KMKG MKG20021116080009911/16/02 08:00:31  5-MIN KMKG 161300Z 36007KT 10SM FEW035 M06/M09 A3027 310 81 -2100 010/07 RMK AO2
14840KMKG MKG20021116080509911/16/02 08:05:31  5-MIN KMKG 161305Z 36008KT 10SM FEW035 M06/M09 A3027 310 81 -2100 010/08 RMK AO2
14840KMKG MKG20021116081009911/16/02 08:10:31  5-MIN KMKG 161310Z 36008KT 10SM FEW035 M06/M08 A3027 310 84 -2100 010/08 RMK AO2
14840KMKG MKG20021116081509911/16/02 08:15:31  5-MIN KMKG 161315Z 36008KT 10SM FEW035 M06/M08 A3027 310 84 -2100 010/08 RMK AO2
14840KMKG MKG20021116082009911/16/02 08:20:31  5-MIN KMKG 161320Z 01007KT 10SM FEW035 M06/M08 A3027 310 81 -2100 010/07 RMK AO2
14840KMKG MKG20021116082509911/16/02 08:25:31  5-MIN KMKG 161325Z 01008KT 10SM FEW035 M06/M08 A3027 310 81 -2100 020/08 RMK AO2
14840KMKG MKG20021116083009911/16/02 08:30:31  5-MIN KMKG 161330Z 01009KT 10SM FEW035 M06/M08 A3027 310 81 -2100 010/09 RMK AO2
14840KMKG MKG20021116083509911/16/02 08:35:31  5-MIN KMKG 161335Z 36007KT 10SM FEW035 M06/M08 A3027 310 81 -2100 010/07 RMK AO2
14840KMKG MKG20021116084009911/16/02 08:40:31  5-MIN KMKG 161340Z 01008KT 10SM FEW035 M05/M08 A3027 310 77 -2000 010/08 RMK AO2
14840KMKG MKG20021116084509911/16/02 08:45:31  5-MIN KMKG 161345Z 01007KT 10SM FEW035 M05/M08 A3027 310 77 -2000 020/07 RMK AO2
14840KMKG MKG20021116085011611/16/02 08:50:31  5-MIN KMKG 161350Z 01008KT 10SM FEW035 M04/M08 A3027 310 74 -1900 010/08 RMK AO2 SLP261 T10441083
14840KMKG MKG20021116085511611/16/02 08:55:31  5-MIN KMKG 161355Z 01006KT 10SM FEW035 M04/M08 A3027 310 78 -1900 010/06 RMK AO2 SLP260 T10441078
14840KMKG MKG20021116090009611/16/02 09:00:31  5-MIN KMKG 161400Z 03007KT 10SM CLR M04/M08 A3027 310 74 -1900 030/07 RMK AO2
14840KMKG MKG20021116090509911/16/02 09:05:31  5-MIN KMKG 161405Z 02007KT 10SM FEW035 M04/M08 A3027 310 74 -1900 030/07 RMK AO2
14840KMKG MKG20021116091009911/16/02 09:10:31  5-MIN KMKG 161410Z 02008KT 10SM FEW035 M04/M08 A3027 310 74 -1900 020/08 RMK AO2
14840KMKG MKG20021116091509911/16/02 09:15:31  5-MIN KMKG 161415Z 03007KT 10SM FEW035 M04/M08 A3027 310 74 -1900 040/07 RMK AO2
14840KMKG MKG20021116092009911/16/02 09:20:31  5-MIN KMKG 161420Z 02008KT 10SM FEW035 M03/M08 A3026 310 71 -1800 020/08 RMK AO2
14840KMKG MKG20021116092509911/16/02 09:25:31  5-MIN KMKG 161425Z 03008KT 10SM FEW035 M03/M08 A3027 310 71 -1800 040/08 RMK AO2
14840KMKG MKG20021116093009911/16/02 09:30:31  5-MIN KMKG 161430Z 03006KT 10SM FEW035 M03/M08 A3026 310 71 -1800 040/06 RMK AO2
14840KMKG MKG20021116093509911/16/02 09:35:31  5-MIN KMKG 161435Z 01009KT 10SM FEW035 M03/M08 A3026 320 68 -1700 020/09 RMK AO2
14840KMKG MKG20021116094009911/16/02 09:40:31  5-MIN KMKG 161440Z 03008KT 10SM FEW035 M03/M08 A3026 320 68 -1700 030/08 RMK AO2
14840KMKG MKG20021116094509911/16/02 09:45:31  5-MIN KMKG 161445Z 03009KT 10SM FEW035 M03/M07 A3026 320 71 -1700 040/09 RMK AO2
14840KMKG MKG20021116095011911/16/02 09:50:31  5-MIN KMKG 161450Z 03008KT 10SM CLR M02/M07 A3026 320 69 -1600 030/08 RMK AO2 SLP255 T10221072 51002
14840KMKG MKG20021116095511911/16/02 09:55:31  5-MIN KMKG 161455Z 03007KT 10SM CLR M02/M08 A3026 320 66 -1600 030/07 RMK AO2 SLP255 T10221078 58004
14840KMKG MKG20021116100009611/16/02 10:00:31  5-MIN KMKG 161500Z 03008KT 10SM CLR M02/M07 A3026 320 69 -1600 030/08 RMK AO2
14840KMKG MKG20021116100509611/16/02 10:05:31  5-MIN KMKG 161505Z 03008KT 10SM CLR M02/M07 A3026 320 69 -1600 030/08 RMK AO2
14840KMKG MKG20021116101009611/16/02 10:10:31  5-MIN KMKG 161510Z 02009KT 10SM CLR M02/M07 A3025 320 66 -1600 030/09 RMK AO2
14840KMKG MKG20021116101509611/16/02 10:15:31  5-MIN KMKG 161515Z 03008KT 10SM CLR M02/M07 A3025 320 66 -1600 040/08 RMK AO2
14840KMKG MKG20021116102009611/16/02 10:20:31  5-MIN KMKG 161520Z 04008KT 10SM CLR M02/M07 A3026 320 66 -1600 040/08 RMK AO2
14840KMKG MKG20021116102509611/16/02 10:25:31  5-MIN KMKG 161525Z 04009KT 10SM CLR M01/M07 A3026 320 66 -1500 040/09 RMK AO2
14840KMKG MKG20021116103009611/16/02 10:30:31  5-MIN KMKG 161530Z 03007KT 10SM CLR M01/M07 A3025 320 63 -1500 030/07 RMK AO2
14840KMKG MKG20021116103509611/16/02 10:35:31  5-MIN KMKG 161535Z 01009KT 10SM CLR M01/M07 A3025 320 66 -1500 010/09 RMK AO2
14840KMKG MKG20021116104009611/16/02 10:40:31  5-MIN KMKG 161540Z 03008KT 10SM CLR M01/M07 A3026 320 63 -1400 030/08 RMK AO2
14840KMKG MKG20021116104509611/16/02 10:45:31  5-MIN KMKG 161545Z 02009KT 10SM CLR M01/M07 A3025 320 63 -1400 030/09 RMK AO2
14840KMKG MKG20021116105011311/16/02 10:50:31  5-MIN KMKG 161550Z 05007KT 10SM CLR M01/M07 A3025 320 63 -1400 050/07 RMK AO2 SLP253 T10061067
14840KMKG MKG20021116105511211/16/02 10:55:31  5-MIN KMKG 161555Z 05008KT 10SM CLR 00/M07 A3025 320 61 -1300 050/08 RMK AO2 SLP253 T00001067
14840KMKG MKG20021116110009511/16/02 11:00:31  5-MIN KMKG 161600Z 02008KT 10SM CLR 00/M07 A3025 320 61 -1300 030/08 RMK AO2
14840KMKG MKG20021116110509511/16/02 11:05:31  5-MIN KMKG 161605Z 03007KT 10SM CLR 00/M07 A3025 320 61 -1300 030/07 RMK AO2
14840KMKG MKG20021116111009511/16/02 11:10:31  5-MIN KMKG 161610Z 03006KT 10SM CLR 00/M07 A3025 320 61 -1300 040/06 RMK AO2
14840KMKG MKG20021116111509511/16/02 11:15:31  5-MIN KMKG 161615Z VRB06KT 10SM CLR 01/M07 A3025 330 58 -1300 VRB/06 RMK AO2
14840KMKG MKG20021116112009511/16/02 11:20:31  5-MIN KMKG 161620Z 07009KT 10SM CLR 01/M07 A3025 330 58 -1300 070/09 RMK AO2
14840KMKG MKG20021116112509511/16/02 11:25:31  5-MIN KMKG 161625Z 07010KT 10SM CLR 01/M07 A3025 330 58 -1300 070/10 RMK AO2
14840KMKG MKG20021116113009811/16/02 11:30:31  5-MIN KMKG 161630Z 03009KT 10SM FEW040 01/M07 A3024 330 58 -1300 030/09 RMK AO2
14840KMKG MKG20021116113509811/16/02 11:35:31  5-MIN KMKG 161635Z 05010KT 10SM FEW040 01/M07 A3024 330 58 -1300 060/10 RMK AO2
14840KMKG MKG20021116114009811/16/02 11:40:31  5-MIN KMKG 161640Z 08008KT 10SM FEW040 01/M07 A3024 340 58 -1300 080/08 RMK AO2
14840KMKG MKG20021116114509811/16/02 11:45:31  5-MIN KMKG 161645Z 05010KT 10SM FEW040 01/M07 A3024 330 58 -1300 060/10 RMK AO2
14840KMKG MKG20021116115011511/16/02 11:50:31  5-MIN KMKG 161650Z 05010KT 10SM FEW040 01/M07 A3024 330 56 -1200 050/10 RMK AO2 SLP250 T00111067
14840KMKG MKG20021116115511511/16/02 11:55:31  5-MIN KMKG 161655Z 05008KT 10SM FEW040 01/M07 A3024 330 56 -1200 050/08 RMK AO2 SLP250 T00111067
14840KMKG MKG20021116120009811/16/02 12:00:31  5-MIN KMKG 161700Z 05010KT 10SM FEW040 01/M07 A3024 340 56 -1200 050/10 RMK AO2
14840KMKG MKG20021116120509811/16/02 12:05:31  5-MIN KMKG 161705Z 04010KT 10SM FEW040 01/M07 A3024 340 54 -1200 050/10 RMK AO2
14840KMKG MKG20021116121009811/16/02 12:10:31  5-MIN KMKG 161710Z 05010KT 10SM FEW040 01/M07 A3024 340 54 -1200 060/10 RMK AO2
14840KMKG MKG20021116121509811/16/02 12:15:31  5-MIN KMKG 161715Z 06013KT 10SM FEW040 02/M07 A3023 340 52 -1100 070/13 RMK AO2
14840KMKG MKG20021116122009811/16/02 12:20:31  5-MIN KMKG 161720Z 07008KT 10SM FEW040 02/M07 A3023 340 54 -1100 080/08 RMK AO2
14840KMKG MKG20021116122509811/16/02 12:25:31  5-MIN KMKG 161725Z 06007KT 10SM FEW040 02/M07 A3023 340 54 -1100 060/07 RMK AO2
14840KMKG MKG20021116123009811/16/02 12:30:31  5-MIN KMKG 161730Z 06008KT 10SM FEW040 02/M07 A3023 340 52 -1000 060/08 RMK AO2
14840KMKG MKG20021116123509811/16/02 12:35:31  5-MIN KMKG 161735Z 12005KT 10SM FEW040 02/M07 A3023 350 54 -1100 130/05 RMK AO2
14840KMKG MKG20021116124009811/16/02 12:40:31  5-MIN KMKG 161740Z 04010KT 10SM FEW040 02/M07 A3022 350 54 -1100 040/10 RMK AO2
14840KMKG MKG20021116124509811/16/02 12:45:31  5-MIN KMKG 161745Z 03010KT 10SM FEW040 02/M07 A3022 350 52 -1000 040/10 RMK AO2
14840KMKG MKG20021116125013311/16/02 12:50:31  5-MIN KMKG 161750Z 04007KT 10SM FEW040 02/M07 A3022 350 52 -1000 040/07 RMK AO2 SLP241 T00221067 10022 21067 58004
14840KMKG MKG20021116125513311/16/02 12:55:31  5-MIN KMKG 161755Z VRB05KT 10SM FEW040 02/M07 A3022 360 52 -1000 VRB/05 RMK AO2 SLP242 T00221067 10022 21067 58013
14840KMKG MKG20021116130009811/16/02 13:00:31  5-MIN KMKG 161800Z 04010KT 10SM FEW040 02/M07 A3022 360 52 -1000 040/10 RMK AO2
14840KMKG MKG20021116130509811/16/02 13:05:31  5-MIN KMKG 161805Z 05006KT 10SM FEW040 02/M07 A3021 360 50 -1000 060/06 RMK AO2
14840KMKG MKG20021116131009811/16/02 13:10:31  5-MIN KMKG 161810Z 06010KT 10SM FEW040 02/M07 A3021 360 50 -1000 060/10 RMK AO2
14840KMKG MKG20021116131509811/16/02 13:15:31  5-MIN KMKG 161815Z 08007KT 10SM FEW040 02/M08 A3021 360 47 -1000 080/07 RMK AO2
14840KMKG MKG20021116132009811/16/02 13:20:31  5-MIN KMKG 161820Z 03007KT 10SM FEW040 02/M07 A3021 360 50 -1000 030/07 RMK AO2
14840KMKG MKG20021116132509711/16/02 13:25:31  5-MIN KMKG 161825Z 03006KT 10SM FEW040 03/M07 A3021 360 48 -900 030/06 RMK AO2
14840KMKG MKG20021116133009711/16/02 13:30:31  5-MIN KMKG 161830Z 04007KT 10SM FEW040 03/M07 A3021 370 50 -900 040/07 RMK AO2
14840KMKG MKG20021116133509711/16/02 13:35:31  5-MIN KMKG 161835Z 07007KT 10SM FEW040 03/M07 A3020 370 48 -900 080/07 RMK AO2
14840KMKG MKG20021116134009711/16/02 13:40:31  5-MIN KMKG 161840Z 03008KT 10SM FEW040 03/M07 A3020 370 48 -900 030/08 RMK AO2
14840KMKG MKG20021116134509711/16/02 13:45:31  5-MIN KMKG 161845Z 02007KT 10SM FEW040 03/M07 A3020 380 48 -900 030/07 RMK AO2
14840KMKG MKG20021116135011411/16/02 13:50:31  5-MIN KMKG 161850Z 09009KT 10SM FEW040 03/M07 A3020 380 46 -900 090/09 RMK AO2 SLP233 T00331072
14840KMKG MKG20021116135511411/16/02 13:55:31  5-MIN KMKG 161855Z 07009KT 10SM FEW055 03/M08 A3019 380 42 -900 080/09 RMK AO2 SLP232 T00331083
14840KMKG MKG20021116140009711/16/02 14:00:31  5-MIN KMKG 161900Z 09005KT 10SM FEW042 03/M08 A3019 380 44 -900 090/05 RMK AO2
14840KMKG MKG20021116140509711/16/02 14:05:31  5-MIN KMKG 161905Z 02009KT 10SM FEW042 03/M08 A3019 380 44 -900 030/09 RMK AO2
14840KMKG MKG20021116141009411/16/02 14:10:31  5-MIN KMKG 161910Z 02010KT 10SM CLR 03/M08 A3019 390 44 -800 030/10 RMK AO2
14840KMKG MKG20021116141511611/16/02 14:15:31  5-MIN KMKG 161915Z 01012G17KT 320V070 10SM CLR 03/M08 A3018 390 44 -900 020/12G17 320V070 RMK AO2
14840KMKG MKG20021116142010011/16/02 14:20:31  5-MIN KMKG 161920Z 08008G17KT 10SM CLR 03/M08 A3018 390 44 -800 080/08G17 RMK AO2
14840KMKG MKG20021116142509411/16/02 14:25:31  5-MIN KMKG 161925Z 05008KT 10SM CLR 03/M08 A3018 390 44 -900 060/08 RMK AO2
14840KMKG MKG20021116143009711/16/02 14:30:31  5-MIN KMKG 161930Z 06008KT 10SM FEW042 03/M09 A3018 390 42 -900 070/08 RMK AO2
14840KMKG MKG20021116143509711/16/02 14:35:31  5-MIN KMKG 161935Z 03009KT 10SM FEW042 03/M08 A3018 390 42 -800 040/09 RMK AO2
14840KMKG MKG20021116144009711/16/02 14:40:31  5-MIN KMKG 161940Z 05010KT 10SM FEW042 03/M08 A3017 400 42 -800 050/10 RMK AO2
14840KMKG MKG20021116144509711/16/02 14:45:31  5-MIN KMKG 161945Z 04009KT 10SM FEW042 03/M08 A3017 400 42 -800 040/09 RMK AO2
14840KMKG MKG20021116145011411/16/02 14:50:31  5-MIN KMKG 161950Z 04008KT 10SM FEW042 03/M08 A3017 400 42 -800 050/08 RMK AO2 SLP224 T00331083
14840KMKG MKG20021116145513011/16/02 14:55:31  5-MIN KMKG 161955Z 04008KT 020V080 10SM FEW042 03/M08 A3017 400 42 -800 050/08 020V080 RMK AO2 SLP224 T00331083
14840KMKG MKG20021116150009711/16/02 15:00:31  5-MIN KMKG 162000Z 06010KT 10SM FEW042 03/M08 A3017 400 42 -800 060/10 RMK AO2
14840KMKG MKG20021116150509711/16/02 15:05:31  5-MIN KMKG 162005Z 07007KT 10SM FEW042 03/M08 A3016 410 44 -800 080/07 RMK AO2
14840KMKG MKG20021116151009711/16/02 15:10:31  5-MIN KMKG 162010Z 03010KT 10SM FEW042 03/M08 A3016 410 42 -800 030/10 RMK AO2
14840KMKG MKG20021116151509711/16/02 15:15:31  5-MIN KMKG 162015Z 07009KT 10SM FEW042 03/M08 A3016 410 42 -800 070/09 RMK AO2
14840KMKG MKG20021116152009711/16/02 15:20:31  5-MIN KMKG 162020Z 06010KT 10SM FEW042 03/M08 A3016 410 42 -800 070/10 RMK AO2
14840KMKG MKG20021116152509711/16/02 15:25:31  5-MIN KMKG 162025Z 06010KT 10SM FEW042 03/M08 A3016 410 42 -800 070/10 RMK AO2
14840KMKG MKG20021116153009711/16/02 15:30:31  5-MIN KMKG 162030Z 08008KT 10SM FEW042 03/M08 A3016 410 42 -800 080/08 RMK AO2
14840KMKG MKG20021116153509711/16/02 15:35:31  5-MIN KMKG 162035Z 05009KT 10SM FEW042 03/M08 A3016 410 44 -900 050/09 RMK AO2
14840KMKG MKG20021116154009711/16/02 15:40:31  5-MIN KMKG 162040Z 03010KT 10SM FEW042 03/M08 A3016 410 44 -900 040/10 RMK AO2
14840KMKG MKG20021116154509711/16/02 15:45:31  5-MIN KMKG 162045Z 05009KT 10SM FEW042 03/M08 A3016 410 44 -900 060/09 RMK AO2
14840KMKG MKG20021116155012011/16/02 15:50:31  5-MIN KMKG 162050Z 07008KT 10SM FEW042 03/M08 A3015 410 46 -900 080/08 RMK AO2 SLP220 T00281078 58013
14840KMKG MKG20021116155512011/16/02 15:55:31  5-MIN KMKG 162055Z 06006KT 10SM FEW042 03/M08 A3015 420 44 -800 060/06 RMK AO2 SLP218 T00331078 56023
14840KMKG MKG20021116160009411/16/02 16:00:31  5-MIN KMKG 162100Z 06010KT 10SM CLR 03/M08 A3015 420 44 -800 060/10 RMK AO2
14840KMKG MKG20021116160509411/16/02 16:05:31  5-MIN KMKG 162105Z 06008KT 10SM CLR 03/M08 A3015 420 44 -900 060/08 RMK AO2
14840KMKG MKG20021116161009411/16/02 16:10:31  5-MIN KMKG 162110Z 07007KT 10SM CLR 03/M08 A3015 420 44 -900 070/07 RMK AO2
14840KMKG MKG20021116161509411/16/02 16:15:31  5-MIN KMKG 162115Z 07008KT 10SM CLR 03/M08 A3015 420 44 -900 070/08 RMK AO2
14840KMKG MKG20021116162009711/16/02 16:20:31  5-MIN KMKG 162120Z 06007KT 10SM FEW055 03/M08 A3015 420 44 -900 060/07 RMK AO2
14840KMKG MKG20021116162509711/16/02 16:25:31  5-MIN KMKG 162125Z 08007KT 10SM FEW055 03/M08 A3015 420 46 -900 080/07 RMK AO2
14840KMKG MKG20021116163009711/16/02 16:30:31  5-MIN KMKG 162130Z 06010KT 10SM FEW045 03/M08 A3015 420 46 -900 070/10 RMK AO2
14840KMKG MKG20021116163509711/16/02 16:35:31  5-MIN KMKG 162135Z 07008KT 10SM FEW045 03/M08 A3015 420 46 -900 070/08 RMK AO2
14840KMKG MKG20021116164009811/16/02 16:40:31  5-MIN KMKG 162140Z 06008KT 10SM FEW045 02/M08 A3016 410 47 -1000 060/08 RMK AO2
14840KMKG MKG20021116164509811/16/02 16:45:31  5-MIN KMKG 162145Z 05008KT 10SM FEW045 02/M08 A3016 410 47 -1000 060/08 RMK AO2
14840KMKG MKG20021116165011511/16/02 16:50:31  5-MIN KMKG 162150Z 05008KT 10SM FEW045 02/M08 A3016 410 45 -1000 050/08 RMK AO2 SLP220 T00221083
14840KMKG MKG20021116165511511/16/02 16:55:31  5-MIN KMKG 162155Z 05007KT 10SM FEW045 02/M08 A3016 410 45 -1000 050/07 RMK AO2 SLP221 T00221083
14840KMKG MKG20021116170009511/16/02 17:00:31  5-MIN KMKG 162200Z 06007KT 10SM CLR 02/M08 A3016 410 45 -1000 070/07 RMK AO2
14840KMKG MKG20021116170509511/16/02 17:05:31  5-MIN KMKG 162205Z 06006KT 10SM CLR 02/M08 A3016 410 47 -1000 070/06 RMK AO2
14840KMKG MKG20021116171009511/16/02 17:10:31  5-MIN KMKG 162210Z 05006KT 10SM CLR 01/M08 A3016 410 49 -1100 050/06 RMK AO2
14840KMKG MKG20021116171509511/16/02 17:15:31  5-MIN KMKG 162215Z 05005KT 10SM CLR 01/M08 A3016 410 49 -1100 050/05 RMK AO2
14840KMKG MKG20021116172009511/16/02 17:20:31  5-MIN KMKG 162220Z 06005KT 10SM CLR 01/M08 A3016 410 49 -1100 060/05 RMK AO2
14840KMKG MKG20021116172509811/16/02 17:25:31  5-MIN KMKG 162225Z 05004KT 10SM FEW045 01/M08 A3016 410 49 -1100 050/04 RMK AO2
14840KMKG MKG20021116173009811/16/02 17:30:31  5-MIN KMKG 162230Z 06003KT 10SM FEW045 02/M08 A3016 410 47 -1000 060/03 RMK AO2
14840KMKG MKG20021116173509811/16/02 17:35:31  5-MIN KMKG 162235Z 04003KT 10SM FEW045 01/M08 A3015 410 49 -1100 040/03 RMK AO2
14840KMKG MKG20021116174009811/16/02 17:40:31  5-MIN KMKG 162240Z 02003KT 10SM FEW045 01/M08 A3015 420 49 -1100 030/03 RMK AO2
14840KMKG MKG20021116174509811/16/02 17:45:31  5-MIN KMKG 162245Z 01003KT 10SM FEW045 01/M08 A3015 420 49 -1100 020/03 RMK AO2
14840KMKG MKG20021116175011511/16/02 17:50:31  5-MIN KMKG 162250Z 36004KT 10SM FEW045 01/M08 A3015 420 51 -1200 010/04 RMK AO2 SLP219 T00061083
14840KMKG MKG20021116175511511/16/02 17:55:31  5-MIN KMKG 162255Z 36004KT 10SM FEW045 00/M08 A3015 410 56 -1200 010/04 RMK AO2 SLP220 T00001078
14840KMKG MKG20021116180009511/16/02 18:00:31  5-MIN KMKG 162300Z 36003KT 10SM CLR 01/M08 A3016 410 54 -1200 010/03 RMK AO2
14840KMKG MKG20021116180509611/16/02 18:05:31  5-MIN KMKG 162305Z 36003KT 10SM CLR M01/M08 A3016 410 58 -1300 010/03 RMK AO2
14840KMKG MKG20021116181009611/16/02 18:10:31  5-MIN KMKG 162310Z 02003KT 10SM CLR M01/M08 A3016 410 60 -1400 020/03 RMK AO2
14840KMKG MKG20021116181509611/16/02 18:15:31  5-MIN KMKG 162315Z 02004KT 10SM CLR M01/M08 A3015 420 60 -1400 020/04 RMK AO2
14840KMKG MKG20021116182009511/16/02 18:20:31  5-MIN KMKG 162320Z 02005KT 10SM CLR 00/M08 A3015 420 56 -1200 020/05 RMK AO2
14840KMKG MKG20021116182509911/16/02 18:25:31  5-MIN KMKG 162325Z 02004KT 10SM FEW042 M01/M07 A3015 420 61 -1300 020/04 RMK AO2
14840KMKG MKG20021116183009811/16/02 18:30:31  5-MIN KMKG 162330Z 02005KT 10SM FEW042 00/M07 A3015 420 58 -1200 030/05 RMK AO2
14840KMKG MKG20021116183509911/16/02 18:35:31  5-MIN KMKG 162335Z 03005KT 10SM FEW042 M01/M08 A3015 420 58 -1300 030/05 RMK AO2
14840KMKG MKG20021116184009911/16/02 18:40:31  5-MIN KMKG 162340Z 03004KT 10SM FEW042 M01/M08 A3016 410 60 -1400 030/04 RMK AO2
14840KMKG MKG20021116184509911/16/02 18:45:31  5-MIN KMKG 162345Z 02004KT 10SM FEW042 M01/M08 A3015 410 60 -1400 030/04 RMK AO2
14840KMKG MKG20021116185013411/16/02 18:50:31  5-MIN KMKG 162350Z 04004KT 10SM FEW042 M01/M08 A3015 420 60 -1400 040/04 RMK AO2 SLP221 T10111078 10033 21017 56023
14840KMKG MKG20021116185513411/16/02 18:55:31  5-MIN KMKG 162355Z 04005KT 10SM FEW042 M01/M08 A3015 420 58 -1300 040/05 RMK AO2 SLP220 T10061078 10033 21017 50000
14840KMKG MKG20021116190009611/16/02 19:00:31  5-MIN KMKG 170000Z 03004KT 10SM CLR M01/M08 A3015 420 58 -1300 040/04 RMK AO2
14840KMKG MKG20021116190509611/16/02 19:05:31  5-MIN KMKG 170005Z 04004KT 10SM CLR M01/M08 A3015 420 58 -1300 040/04 RMK AO2
14840KMKG MKG20021116191009611/16/02 19:10:31  5-MIN KMKG 170010Z 03004KT 10SM CLR M01/M08 A3015 420 58 -1300 040/04 RMK AO2
14840KMKG MKG20021116191509611/16/02 19:15:31  5-MIN KMKG 170015Z 04004KT 10SM CLR M01/M08 A3015 420 60 -1400 040/04 RMK AO2
14840KMKG MKG20021116192009611/16/02 19:20:31  5-MIN KMKG 170020Z 05004KT 10SM CLR M01/M08 A3015 420 60 -1400 050/04 RMK AO2
14840KMKG MKG20021116192509611/16/02 19:25:31  5-MIN KMKG 170025Z 05004KT 10SM CLR M01/M08 A3015 420 60 -1400 050/04 RMK AO2
14840KMKG MKG20021116193009611/16/02 19:30:31  5-MIN KMKG 170030Z 04005KT 10SM CLR M01/M08 A3015 420 60 -1400 050/05 RMK AO2
14840KMKG MKG20021116193509611/16/02 19:35:31  5-MIN KMKG 170035Z 03005KT 10SM CLR M02/M08 A3015 420 63 -1400 030/05 RMK AO2
14840KMKG MKG20021116194009611/16/02 19:40:31  5-MIN KMKG 170040Z 03004KT 10SM CLR M02/M08 A3015 420 63 -1400 040/04 RMK AO2
14840KMKG MKG20021116194509611/16/02 19:45:31  5-MIN KMKG 170045Z 05004KT 10SM CLR M02/M08 A3015 420 63 -1400 050/04 RMK AO2
14840KMKG MKG20021116195011311/16/02 19:50:31  5-MIN KMKG 170050Z 05004KT 10SM CLR M02/M08 A3016 410 63 -1400 050/04 RMK AO2 SLP221 T10171078
14840KMKG MKG20021116195511311/16/02 19:55:31  5-MIN KMKG 170055Z 05004KT 10SM CLR M01/M08 A3015 410 60 -1400 050/04 RMK AO2 SLP221 T10111078
14840KMKG MKG20021116200009611/16/02 20:00:31  5-MIN KMKG 170100Z 06005KT 10SM CLR M02/M08 A3015 410 63 -1400 060/05 RMK AO2
14840KMKG MKG20021116200509611/16/02 20:05:31  5-MIN KMKG 170105Z 05005KT 10SM CLR M02/M08 A3016 410 63 -1400 060/05 RMK AO2
14840KMKG MKG20021116201009611/16/02 20:10:31  5-MIN KMKG 170110Z 06006KT 10SM CLR M02/M08 A3015 420 63 -1400 060/06 RMK AO2
14840KMKG MKG20021116201509611/16/02 20:15:31  5-MIN KMKG 170115Z 06006KT 10SM CLR M02/M08 A3015 420 66 -1500 060/06 RMK AO2
14840KMKG MKG20021116202009611/16/02 20:20:31  5-MIN KMKG 170120Z 06005KT 10SM CLR M02/M08 A3015 420 66 -1500 060/05 RMK AO2
14840KMKG MKG20021116202509611/16/02 20:25:31  5-MIN KMKG 170125Z 06005KT 10SM CLR M02/M08 A3015 420 63 -1400 070/05 RMK AO2
14840KMKG MKG20021116203009611/16/02 20:30:31  5-MIN KMKG 170130Z 06005KT 10SM CLR M02/M08 A3015 420 63 -1400 060/05 RMK AO2
14840KMKG MKG20021116203509611/16/02 20:35:31  5-MIN KMKG 170135Z 06005KT 10SM CLR M02/M08 A3015 420 63 -1400 060/05 RMK AO2
14840KMKG MKG20021116204009611/16/02 20:40:31  5-MIN KMKG 170140Z 06005KT 10SM CLR M02/M08 A3015 420 63 -1400 070/05 RMK AO2
14840KMKG MKG20021116204509611/16/02 20:45:31  5-MIN KMKG 170145Z 06004KT 10SM CLR M02/M08 A3015 420 63 -1400 060/04 RMK AO2
14840KMKG MKG20021116205011311/16/02 20:50:31  5-MIN KMKG 170150Z 06004KT 10SM CLR M02/M08 A3015 410 63 -1400 070/04 RMK AO2 SLP220 T10171078
14840KMKG MKG20021116205511311/16/02 20:55:31  5-MIN KMKG 170155Z 06004KT 10SM CLR M02/M08 A3016 410 63 -1400 060/04 RMK AO2 SLP220 T10171078
14840KMKG MKG20021116210009611/16/02 21:00:31  5-MIN KMKG 170200Z 06004KT 10SM CLR M02/M08 A3015 410 63 -1400 060/04 RMK AO2
14840KMKG MKG20021116210509611/16/02 21:05:31  5-MIN KMKG 170205Z 06004KT 10SM CLR M02/M08 A3015 420 63 -1400 060/04 RMK AO2
14840KMKG MKG20021116211009611/16/02 21:10:31  5-MIN KMKG 170210Z 05003KT 10SM CLR M02/M08 A3015 420 66 -1500 050/03 RMK AO2
14840KMKG MKG20021116211509611/16/02 21:15:31  5-MIN KMKG 170215Z 03003KT 10SM CLR M02/M08 A3015 420 66 -1500 030/03 RMK AO2
14840KMKG MKG20021116212009611/16/02 21:20:31  5-MIN KMKG 170220Z 02004KT 10SM CLR M02/M08 A3016 410 66 -1500 020/04 RMK AO2
14840KMKG MKG20021116212509611/16/02 21:25:31  5-MIN KMKG 170225Z 36004KT 10SM CLR M03/M08 A3016 410 68 -1600 010/04 RMK AO2
14840KMKG MKG20021116213009611/16/02 21:30:31  5-MIN KMKG 170230Z 01004KT 10SM CLR M03/M08 A3016 410 71 -1700 010/04 RMK AO2
14840KMKG MKG20021116213509611/16/02 21:35:31  5-MIN KMKG 170235Z 02005KT 10SM CLR M03/M08 A3016 410 71 -1700 020/05 RMK AO2
14840KMKG MKG20021116214009611/16/02 21:40:31  5-MIN KMKG 170240Z 01005KT 10SM CLR M03/M08 A3015 410 68 -1600 010/05 RMK AO2
14840KMKG MKG20021116214509611/16/02 21:45:31  5-MIN KMKG 170245Z 01004KT 10SM CLR M03/M07 A3015 420 74 -1600 020/04 RMK AO2
14840KMKG MKG20021116215011911/16/02 21:50:31  5-MIN KMKG 170250Z 02005KT 10SM CLR M03/M07 A3015 420 71 -1600 020/05 RMK AO2 SLP219 T10281072 50000
14840KMKG MKG20021116215511911/16/02 21:55:31  5-MIN KMKG 170255Z 01005KT 10SM CLR M03/M08 A3015 420 68 -1600 020/05 RMK AO2 SLP219 T10331083 50000
14840KMKG MKG20021116220009611/16/02 22:00:31  5-MIN KMKG 170300Z 03006KT 10SM CLR M03/M08 A3015 420 68 -1600 030/06 RMK AO2
14840KMKG MKG20021116220509611/16/02 22:05:31  5-MIN KMKG 170305Z 03005KT 10SM CLR M03/M08 A3015 420 68 -1600 030/05 RMK AO2
14840KMKG MKG20021116221009611/16/02 22:10:31  5-MIN KMKG 170310Z 02004KT 10SM CLR M03/M08 A3015 420 71 -1600 020/04 RMK AO2
14840KMKG MKG20021116221509611/16/02 22:15:31  5-MIN KMKG 170315Z 01004KT 10SM CLR M03/M08 A3015 420 71 -1600 010/04 RMK AO2
14840KMKG MKG20021116222009611/16/02 22:20:31  5-MIN KMKG 170320Z 01006KT 10SM CLR M03/M08 A3015 420 71 -1600 010/06 RMK AO2
14840KMKG MKG20021116222509611/16/02 22:25:31  5-MIN KMKG 170325Z 01006KT 10SM CLR M04/M08 A3015 420 74 -1700 020/06 RMK AO2
14840KMKG MKG20021116223009611/16/02 22:30:31  5-MIN KMKG 170330Z 02005KT 10SM CLR M03/M08 A3015 420 71 -1600 030/05 RMK AO2
14840KMKG MKG20021116223509611/16/02 22:35:31  5-MIN KMKG 170335Z 01006KT 10SM CLR M03/M08 A3014 420 71 -1600 020/06 RMK AO2
14840KMKG MKG20021116224009611/16/02 22:40:31  5-MIN KMKG 170340Z 01007KT 10SM CLR M03/M08 A3014 420 71 -1600 020/07 RMK AO2
14840KMKG MKG20021116224509611/16/02 22:45:31  5-MIN KMKG 170345Z 02006KT 10SM CLR M03/M08 A3014 430 68 -1600 020/06 RMK AO2
14840KMKG MKG20021116225011311/16/02 22:50:31  5-MIN KMKG 170350Z 02006KT 10SM CLR M03/M08 A3014 430 68 -1600 020/06 RMK AO2 SLP214 T10281078
14840KMKG MKG20021116225511311/16/02 22:55:31  5-MIN KMKG 170355Z 02006KT 10SM CLR M03/M08 A3014 430 68 -1600 020/06 RMK AO2 SLP214 T10281078
14840KMKG MKG20021116230009611/16/02 23:00:31  5-MIN KMKG 170400Z 03006KT 10SM CLR M03/M08 A3013 430 68 -1600 030/06 RMK AO2
14840KMKG MKG20021116230509611/16/02 23:05:31  5-MIN KMKG 170405Z 03006KT 10SM CLR M03/M08 A3013 430 68 -1600 040/06 RMK AO2
14840KMKG MKG20021116231009611/16/02 23:10:31  5-MIN KMKG 170410Z 03005KT 10SM CLR M03/M08 A3013 430 71 -1600 030/05 RMK AO2
14840KMKG MKG20021116231509611/16/02 23:15:31  5-MIN KMKG 170415Z 03006KT 10SM CLR M03/M08 A3013 430 71 -1600 040/06 RMK AO2
14840KMKG MKG20021116232009611/16/02 23:20:31  5-MIN KMKG 170420Z 03006KT 10SM CLR M03/M08 A3013 440 71 -1600 030/06 RMK AO2
14840KMKG MKG20021116232509611/16/02 23:25:31  5-MIN KMKG 170425Z 03006KT 10SM CLR M03/M08 A3013 440 71 -1600 040/06 RMK AO2
14840KMKG MKG20021116233009611/16/02 23:30:31  5-MIN KMKG 170430Z 02006KT 10SM CLR M03/M08 A3013 440 71 -1600 030/06 RMK AO2
14840KMKG MKG20021116233509611/16/02 23:35:31  5-MIN KMKG 170435Z 02005KT 10SM CLR M03/M08 A3013 440 71 -1600 030/05 RMK AO2
14840KMKG MKG20021116234009611/16/02 23:40:31  5-MIN KMKG 170440Z 03006KT 10SM CLR M04/M08 A3013 440 74 -1700 030/06 RMK AO2
14840KMKG MKG20021116234509611/16/02 23:45:31  5-MIN KMKG 170445Z 03006KT 10SM CLR M03/M08 A3013 440 71 -1600 030/06 RMK AO2
14840KMKG MKG20021116235012311/16/02 23:50:31  5-MIN KMKG 170450Z 03006KT 10SM CLR M03/M08 A3012 440 71 -1600 030/06 RMK AO2 SLP210 T10331078 400331067
14840KMKG MKG20021116235512311/16/02 23:55:31  5-MIN KMKG 170455Z 03006KT 10SM CLR M03/M08 A3012 440 71 -1600 030/06 RMK AO2 SLP209 T10331078 400331067
14840KMKG MKG20021117000009611/17/02 00:00:31  5-MIN KMKG 170500Z 03006KT 10SM CLR M04/M08 A3012 440 74 -1700 040/06 RMK AO2
14840KMKG MKG20021117000509611/17/02 00:05:31  5-MIN KMKG 170505Z 03006KT 10SM CLR M04/M08 A3012 450 74 -1700 030/06 RMK AO2
14840KMKG MKG20021117001009611/17/02 00:10:31  5-MIN KMKG 170510Z 02006KT 10SM CLR M04/M08 A3012 450 74 -1700 020/06 RMK AO2
14840KMKG MKG20021117001509611/17/02 00:15:31  5-MIN KMKG 170515Z 02006KT 10SM CLR M04/M08 A3012 440 74 -1700 030/06 RMK AO2
14840KMKG MKG20021117002009611/17/02 00:20:31  5-MIN KMKG 170520Z 02007KT 10SM CLR M03/M08 A3012 450 71 -1600 030/07 RMK AO2
14840KMKG MKG20021117002509611/17/02 00:25:31  5-MIN KMKG 170525Z 03006KT 10SM CLR M04/M08 A3012 450 74 -1700 030/06 RMK AO2
14840KMKG MKG20021117003009611/17/02 00:30:31  5-MIN KMKG 170530Z 03006KT 10SM CLR M04/M08 A3012 450 74 -1700 030/06 RMK AO2
14840KMKG MKG20021117003509611/17/02 00:35:31  5-MIN KMKG 170535Z 03006KT 10SM CLR M04/M08 A3012 450 74 -1700 030/06 RMK AO2
14840KMKG MKG20021117004009611/17/02 00:40:31  5-MIN KMKG 170540Z 03006KT 10SM CLR M04/M08 A3012 450 74 -1700 040/06 RMK AO2
14840KMKG MKG20021117004509611/17/02 00:45:31  5-MIN KMKG 170545Z 03007KT 10SM CLR M04/M08 A3012 450 74 -1700 030/07 RMK AO2
14840KMKG MKG20021117005013111/17/02 00:50:31  5-MIN KMKG 170550Z 03006KT 10SM CLR M04/M08 A3012 450 74 -1700 030/06 RMK AO2 SLP206 T10391078 11006 21039 50000
14840KMKG MKG20021117005513111/17/02 00:55:31  5-MIN KMKG 170555Z 03006KT 10SM CLR M04/M07 A3011 450 81 -1700 040/06 RMK AO2 SLP206 T10441072 11006 21044 56013
14840KMKG MKG20021117010009611/17/02 01:00:31  5-MIN KMKG 170600Z 04007KT 10SM CLR M04/M07 A3011 460 78 -1700 040/07 RMK AO2
14840KMKG MKG20021117010509611/17/02 01:05:31  5-MIN KMKG 170605Z 03006KT 10SM CLR M04/M07 A3011 460 78 -1700 040/06 RMK AO2
14840KMKG MKG20021117011009611/17/02 01:10:31  5-MIN KMKG 170610Z 03006KT 10SM CLR M04/M07 A3011 460 81 -1700 040/06 RMK AO2
14840KMKG MKG20021117011509611/17/02 01:15:31  5-MIN KMKG 170615Z 03007KT 10SM CLR M04/M07 A3011 460 81 -1700 040/07 RMK AO2
14840KMKG MKG20021117012009611/17/02 01:20:31  5-MIN KMKG 170620Z 03006KT 10SM CLR M04/M07 A3010 460 81 -1700 040/06 RMK AO2
14840KMKG MKG20021117012509611/17/02 01:25:31  5-MIN KMKG 170625Z 04007KT 10SM CLR M04/M07 A3010 460 81 -1700 040/07 RMK AO2
14840KMKG MKG20021117013009611/17/02 01:30:31  5-MIN KMKG 170630Z 04006KT 10SM CLR M04/M07 A3010 460 81 -1700 040/06 RMK AO2
14840KMKG MKG20021117013509611/17/02 01:35:31  5-MIN KMKG 170635Z 03005KT 10SM CLR M04/M07 A3010 470 81 -1700 030/05 RMK AO2
14840KMKG MKG20021117014009611/17/02 01:40:31  5-MIN KMKG 170640Z 03006KT 10SM CLR M04/M07 A3010 470 81 -1700 030/06 RMK AO2
14840KMKG MKG20021117014509611/17/02 01:45:31  5-MIN KMKG 170645Z 02006KT 10SM CLR M04/M07 A3009 470 81 -1700 030/06 RMK AO2
14840KMKG MKG20021117015011311/17/02 01:50:31  5-MIN KMKG 170650Z 02006KT 10SM CLR M04/M07 A3009 470 81 -1700 030/06 RMK AO2 SLP198 T10441072
14840KMKG MKG20021117015511311/17/02 01:55:31  5-MIN KMKG 170655Z 02006KT 10SM CLR M04/M07 A3009 470 84 -1700 030/06 RMK AO2 SLP197 T10441067
14840KMKG MKG20021117020009611/17/02 02:00:31  5-MIN KMKG 170700Z 02006KT 10SM CLR M04/M07 A3009 470 84 -1700 020/06 RMK AO2
14840KMKG MKG20021117020509611/17/02 02:05:31  5-MIN KMKG 170705Z 02006KT 10SM CLR M04/M07 A3009 480 84 -1700 030/06 RMK AO2
14840KMKG MKG20021117021009611/17/02 02:10:31  5-MIN KMKG 170710Z 01006KT 10SM CLR M04/M07 A3009 480 84 -1700 020/06 RMK AO2
14840KMKG MKG20021117021509611/17/02 02:15:31  5-MIN KMKG 170715Z 01006KT 10SM CLR M04/M07 A3008 480 84 -1700 020/06 RMK AO2
14840KMKG MKG20021117022009611/17/02 02:20:31  5-MIN KMKG 170720Z 01007KT 10SM CLR M04/M07 A3008 480 84 -1700 010/07 RMK AO2
14840KMKG MKG20021117022509611/17/02 02:25:31  5-MIN KMKG 170725Z 01007KT 10SM CLR M05/M07 A3008 480 84 -1800 010/07 RMK AO2
14840KMKG MKG20021117023009611/17/02 02:30:31  5-MIN KMKG 170730Z 36007KT 10SM CLR M05/M07 A3008 480 84 -1800 360/07 RMK AO2
14840KMKG MKG20021117023509611/17/02 02:35:31  5-MIN KMKG 170735Z 36008KT 10SM CLR M05/M07 A3008 480 84 -1800 360/08 RMK AO2
14840KMKG MKG20021117024009611/17/02 02:40:31  5-MIN KMKG 170740Z 36008KT 10SM CLR M05/M07 A3008 480 84 -1800 360/08 RMK AO2
14840KMKG MKG20021117024509611/17/02 02:45:31  5-MIN KMKG 170745Z 36008KT 10SM CLR M05/M07 A3008 480 84 -1800 360/08 RMK AO2
14840KMKG MKG20021117025011311/17/02 02:50:31  5-MIN KMKG 170750Z 36007KT 10SM CLR M05/M07 A3008 480 84 -1800 360/07 RMK AO2 SLP194 T10501072
14840KMKG MKG20021117025511311/17/02 02:55:31  5-MIN KMKG 170755Z 36008KT 10SM CLR M05/M07 A3008 480 84 -1800 360/08 RMK AO2 SLP195 T10501072
14840KMKG MKG20021117030009611/17/02 03:00:31  5-MIN KMKG 170800Z 36008KT 10SM CLR M05/M07 A3008 480 88 -1800 360/08 RMK AO2
14840KMKG MKG20021117030509611/17/02 03:05:31  5-MIN KMKG 170805Z 35008KT 10SM CLR M05/M07 A3008 480 88 -1800 360/08 RMK AO2
14840KMKG MKG20021117031009611/17/02 03:10:31  5-MIN KMKG 170810Z 36008KT 10SM CLR M05/M07 A3008 480 84 -1800 360/08 RMK AO2
14840KMKG MKG20021117031509611/17/02 03:15:31  5-MIN KMKG 170815Z 36009KT 10SM CLR M05/M07 A3008 480 84 -1800 360/09 RMK AO2
14840KMKG MKG20021117032009611/17/02 03:20:31  5-MIN KMKG 170820Z 35007KT 10SM CLR M06/M07 A3008 480 88 -1900 350/07 RMK AO2
14840KMKG MKG20021117032509611/17/02 03:25:31  5-MIN KMKG 170825Z 35008KT 10SM CLR M05/M07 A3008 480 88 -1800 360/08 RMK AO2
14840KMKG MKG20021117033009611/17/02 03:30:31  5-MIN KMKG 170830Z 35007KT 10SM CLR M05/M07 A3008 490 84 -1800 350/07 RMK AO2
14840KMKG MKG20021117033509611/17/02 03:35:31  5-MIN KMKG 170835Z 35007KT 10SM CLR M05/M07 A3008 490 84 -1800 360/07 RMK AO2
14840KMKG MKG20021117034009611/17/02 03:40:31  5-MIN KMKG 170840Z 35008KT 10SM CLR M06/M07 A3007 490 88 -1800 360/08 RMK AO2
14840KMKG MKG20021117034509611/17/02 03:45:31  5-MIN KMKG 170845Z 35007KT 10SM CLR M06/M07 A3007 490 88 -1800 360/07 RMK AO2
14840KMKG MKG20021117035011911/17/02 03:50:31  5-MIN KMKG 170850Z 35007KT 10SM CLR M06/M07 A3007 490 88 -1800 350/07 RMK AO2 SLP192 T10561072 56013
14840KMKG MKG20021117035511911/17/02 03:55:31  5-MIN KMKG 170855Z 36007KT 10SM CLR M06/M07 A3007 490 88 -1800 360/07 RMK AO2 SLP192 T10561072 56014
14840KMKG MKG20021117040009611/17/02 04:00:31  5-MIN KMKG 170900Z 35007KT 10SM CLR M06/M08 A3007 490 84 -1800 360/07 RMK AO2
14840KMKG MKG20021117040509611/17/02 04:05:31  5-MIN KMKG 170905Z 35007KT 10SM CLR M06/M08 A3007 490 84 -1800 350/07 RMK AO2
14840KMKG MKG20021117041009611/17/02 04:10:31  5-MIN KMKG 170910Z 35007KT 10SM CLR M06/M08 A3007 500 84 -1800 350/07 RMK AO2
14840KMKG MKG20021117041509611/17/02 04:15:31  5-MIN KMKG 170915Z 35006KT 10SM CLR M06/M08 A3007 500 84 -1800 350/06 RMK AO2
14840KMKG MKG20021117042009611/17/02 04:20:31  5-MIN KMKG 170920Z 35007KT 10SM CLR M06/M08 A3007 500 84 -1800 350/07 RMK AO2
14840KMKG MKG20021117042509611/17/02 04:25:31  5-MIN KMKG 170925Z 35007KT 10SM CLR M06/M08 A3006 500 84 -1800 350/07 RMK AO2
14840KMKG MKG20021117043009611/17/02 04:30:31  5-MIN KMKG 170930Z 35006KT 10SM CLR M06/M08 A3006 500 84 -1800 350/06 RMK AO2
14840KMKG MKG20021117043509611/17/02 04:35:31  5-MIN KMKG 170935Z 35006KT 10SM CLR M06/M08 A3006 500 84 -1800 350/06 RMK AO2
14840KMKG MKG20021117044009611/17/02 04:40:31  5-MIN KMKG 170940Z 35006KT 10SM CLR M06/M08 A3007 500 88 -1900 360/06 RMK AO2
14840KMKG MKG20021117044509611/17/02 04:45:31  5-MIN KMKG 170945Z 35006KT 10SM CLR M06/M08 A3007 500 84 -1800 350/06 RMK AO2
14840KMKG MKG20021117045011311/17/02 04:50:31  5-MIN KMKG 170950Z 01005KT 10SM CLR M06/M08 A3007 490 84 -1800 010/05 RMK AO2 SLP190 T10561078
14840KMKG MKG20021117045511311/17/02 04:55:31  5-MIN KMKG 170955Z 36005KT 10SM CLR M06/M08 A3007 490 81 -1800 010/05 RMK AO2 SLP190 T10561083
14840KMKG MKG20021117050009611/17/02 05:00:31  5-MIN KMKG 171000Z 01005KT 10SM CLR M06/M08 A3007 490 84 -1900 010/05 RMK AO2
14840KMKG MKG20021117050509611/17/02 05:05:31  5-MIN KMKG 171005Z 36006KT 10SM CLR M06/M08 A3007 490 84 -1900 360/06 RMK AO2
14840KMKG MKG20021117051009611/17/02 05:10:31  5-MIN KMKG 171010Z 36005KT 10SM CLR M06/M08 A3007 490 84 -1900 010/05 RMK AO2
14840KMKG MKG20021117051509611/17/02 05:15:31  5-MIN KMKG 171015Z 01006KT 10SM CLR M06/M08 A3007 490 84 -1900 010/06 RMK AO2
14840KMKG MKG20021117052009611/17/02 05:20:31  5-MIN KMKG 171020Z 36006KT 10SM CLR M06/M08 A3007 490 81 -1800 360/06 RMK AO2
14840KMKG MKG20021117052509611/17/02 05:25:31  5-MIN KMKG 171025Z 36006KT 10SM CLR M06/M08 A3007 490 81 -1800 360/06 RMK AO2
14840KMKG MKG20021117053009611/17/02 05:30:31  5-MIN KMKG 171030Z 36006KT 10SM CLR M06/M08 A3007 490 84 -1900 360/06 RMK AO2
14840KMKG MKG20021117053509611/17/02 05:35:31  5-MIN KMKG 171035Z 35005KT 10SM CLR M06/M08 A3007 490 84 -1900 360/05 RMK AO2
14840KMKG MKG20021117054009611/17/02 05:40:31  5-MIN KMKG 171040Z 36006KT 10SM CLR M06/M08 A3007 490 84 -1900 360/06 RMK AO2
14840KMKG MKG20021117054509611/17/02 05:45:31  5-MIN KMKG 171045Z 36006KT 10SM CLR M06/M08 A3007 490 84 -1900 010/06 RMK AO2
14840KMKG MKG20021117055011311/17/02 05:50:31  5-MIN KMKG 171050Z 01006KT 10SM CLR M06/M09 A3007 490 81 -1900 010/06 RMK AO2 SLP192 T10611089
14840KMKG MKG20021117055511311/17/02 05:55:31  5-MIN KMKG 171055Z 36005KT 10SM CLR M06/M09 A3008 490 81 -1900 010/05 RMK AO2 SLP193 T10611089
14840KMKG MKG20021117060009611/17/02 06:00:31  5-MIN KMKG 171100Z 36005KT 10SM CLR M06/M09 A3008 490 81 -1900 010/05 RMK AO2
14840KMKG MKG20021117060509611/17/02 06:05:31  5-MIN KMKG 171105Z 36005KT 10SM CLR M06/M09 A3008 490 81 -1900 010/05 RMK AO2
14840KMKG MKG20021117061009611/17/02 06:10:31  5-MIN KMKG 171110Z 01005KT 10SM CLR M06/M09 A3008 490 81 -1900 010/05 RMK AO2
14840KMKG MKG20021117061509611/17/02 06:15:31  5-MIN KMKG 171115Z 36005KT 10SM CLR M06/M09 A3008 480 81 -1900 010/05 RMK AO2
14840KMKG MKG20021117062009611/17/02 06:20:31  5-MIN KMKG 171120Z 02005KT 10SM CLR M06/M09 A3008 480 81 -1900 020/05 RMK AO2
14840KMKG MKG20021117062509611/17/02 06:25:31  5-MIN KMKG 171125Z 36006KT 10SM CLR M06/M09 A3008 490 81 -1900 010/06 RMK AO2
14840KMKG MKG20021117063009611/17/02 06:30:31  5-MIN KMKG 171130Z 01006KT 10SM CLR M06/M09 A3008 490 81 -1900 010/06 RMK AO2
14840KMKG MKG20021117063509611/17/02 06:35:31  5-MIN KMKG 171135Z 36006KT 10SM CLR M06/M09 A3008 490 81 -1900 010/06 RMK AO2
14840KMKG MKG20021117064009611/17/02 06:40:31  5-MIN KMKG 171140Z 01006KT 10SM CLR M06/M09 A3008 490 81 -1900 020/06 RMK AO2
14840KMKG MKG20021117064509611/17/02 06:45:31  5-MIN KMKG 171145Z 36006KT 10SM CLR M06/M09 A3008 490 81 -1900 360/06 RMK AO2
14840KMKG MKG20021117065013111/17/02 06:50:31  5-MIN KMKG 171150Z 01005KT 10SM CLR M06/M09 A3008 490 77 -1900 010/05 RMK AO2 SLP194 T10611094 11039 21061 56014
14840KMKG MKG20021117065513111/17/02 06:55:31  5-MIN KMKG 171155Z 36006KT 10SM CLR M06/M09 A3008 480 77 -1900 010/06 RMK AO2 SLP195 T10611094 11039 21061 53002
14840KMKG MKG20021117070009611/17/02 07:00:31  5-MIN KMKG 171200Z 01007KT 10SM CLR M06/M09 A3008 480 77 -1900 010/07 RMK AO2
14840KMKG MKG20021117070509611/17/02 07:05:31  5-MIN KMKG 171205Z 01006KT 10SM CLR M06/M09 A3008 480 74 -1900 020/06 RMK AO2
14840KMKG MKG20021117071009611/17/02 07:10:31  5-MIN KMKG 171210Z 01006KT 10SM CLR M06/M09 A3008 490 77 -1900 010/06 RMK AO2
14840KMKG MKG20021117071509611/17/02 07:15:31  5-MIN KMKG 171215Z 01007KT 10SM CLR M06/M09 A3008 480 77 -1900 010/07 RMK AO2
14840KMKG MKG20021117072009611/17/02 07:20:31  5-MIN KMKG 171220Z 01007KT 10SM CLR M06/M09 A3008 480 77 -1900 010/07 RMK AO2
14840KMKG MKG20021117072509611/17/02 07:25:31  5-MIN KMKG 171225Z 35006KT 10SM CLR M06/M09 A3008 490 77 -1900 360/06 RMK AO2
14840KMKG MKG20021117073009611/17/02 07:30:31  5-MIN KMKG 171230Z 35006KT 10SM CLR M06/M09 A3008 480 81 -1900 360/06 RMK AO2
14840KMKG MKG20021117073509611/17/02 07:35:31  5-MIN KMKG 171235Z 35007KT 10SM CLR M06/M09 A3008 480 81 -1900 360/07 RMK AO2
14840KMKG MKG20021117074009611/17/02 07:40:31  5-MIN KMKG 171240Z 36006KT 10SM CLR M06/M09 A3008 480 77 -1900 360/06 RMK AO2
14840KMKG MKG20021117074509611/17/02 07:45:31  5-MIN KMKG 171245Z 36006KT 10SM CLR M06/M09 A3008 490 77 -1900 010/06 RMK AO2
14840KMKG MKG20021117075011311/17/02 07:50:31  5-MIN KMKG 171250Z 36007KT 10SM CLR M06/M09 A3008 480 77 -1900 360/07 RMK AO2 SLP195 T10611094
14840KMKG MKG20021117075511311/17/02 07:55:31  5-MIN KMKG 171255Z 36006KT 10SM CLR M06/M09 A3008 480 77 -1900 010/06 RMK AO2 SLP195 T10611094
14840KMKG MKG20021117080009611/17/02 08:00:31  5-MIN KMKG 171300Z 36006KT 10SM CLR M06/M09 A3008 490 77 -1900 360/06 RMK AO2
14840KMKG MKG20021117080509611/17/02 08:05:31  5-MIN KMKG 171305Z 35008KT 10SM CLR M06/M09 A3008 490 77 -1900 360/08 RMK AO2
14840KMKG MKG20021117081009611/17/02 08:10:31  5-MIN KMKG 171310Z 36008KT 10SM CLR M06/M09 A3008 490 77 -1800 010/08 RMK AO2
14840KMKG MKG20021117081509611/17/02 08:15:31  5-MIN KMKG 171315Z 36006KT 10SM CLR M06/M09 A3008 490 77 -1800 010/06 RMK AO2
14840KMKG MKG20021117082009611/17/02 08:20:31  5-MIN KMKG 171320Z 36006KT 10SM CLR M06/M09 A3007 490 77 -1800 010/06 RMK AO2
14840KMKG MKG20021117082509611/17/02 08:25:31  5-MIN KMKG 171325Z 36008KT 10SM CLR M06/M09 A3007 490 77 -1800 010/08 RMK AO2
14840KMKG MKG20021117083009611/17/02 08:30:31  5-MIN KMKG 171330Z 36008KT 10SM CLR M05/M09 A3007 490 74 -1800 360/08 RMK AO2
14840KMKG MKG20021117083509611/17/02 08:35:31  5-MIN KMKG 171335Z 35007KT 10SM CLR M05/M09 A3007 490 74 -1800 360/07 RMK AO2
14840KMKG MKG20021117084009611/17/02 08:40:31  5-MIN KMKG 171340Z 36007KT 10SM CLR M04/M09 A3007 490 71 -1700 360/07 RMK AO2
14840KMKG MKG20021117084509611/17/02 08:45:31  5-MIN KMKG 171345Z 36008KT 10SM CLR M04/M09 A3007 490 68 -1700 010/08 RMK AO2
14840KMKG MKG20021117085011311/17/02 08:50:31  5-MIN KMKG 171350Z 36008KT 10SM CLR M04/M09 A3007 490 71 -1700 010/08 RMK AO2 SLP192 T10441089
14840KMKG MKG20021117085511311/17/02 08:55:31  5-MIN KMKG 171355Z 36008KT 10SM CLR M04/M09 A3007 490 68 -1600 010/08 RMK AO2 SLP192 T10391089
14840KMKG MKG20021117090009611/17/02 09:00:31  5-MIN KMKG 171400Z 01007KT 10SM CLR M04/M09 A3007 490 68 -1600 010/07 RMK AO2
14840KMKG MKG20021117090509611/17/02 09:05:31  5-MIN KMKG 171405Z 02007KT 10SM CLR M04/M09 A3007 490 68 -1600 020/07 RMK AO2
14840KMKG MKG20021117091009611/17/02 09:10:31  5-MIN KMKG 171410Z 02007KT 10SM CLR M04/M08 A3007 490 71 -1600 030/07 RMK AO2
14840KMKG MKG20021117091509611/17/02 09:15:31  5-MIN KMKG 171415Z 01005KT 10SM CLR M03/M08 A3007 490 68 -1600 020/05 RMK AO2
14840KMKG MKG20021117092009611/17/02 09:20:31  5-MIN KMKG 171420Z 02006KT 10SM CLR M03/M08 A3007 490 68 -1600 020/06 RMK AO2
14840KMKG MKG20021117092509911/17/02 09:25:31  5-MIN KMKG 171425Z 36007KT 10SM FEW035 M03/M08 A3007 500 66 -1500 360/07 RMK AO2
14840KMKG MKG20021117093009911/17/02 09:30:31  5-MIN KMKG 171430Z 36006KT 10SM FEW035 M03/M08 A3007 490 66 -1500 360/06 RMK AO2
14840KMKG MKG20021117093509911/17/02 09:35:31  5-MIN KMKG 171435Z 35006KT 10SM FEW035 M02/M08 A3007 500 63 -1400 360/06 RMK AO2
14840KMKG MKG20021117094009911/17/02 09:40:31  5-MIN KMKG 171440Z 36005KT 10SM FEW035 M02/M08 A3006 500 63 -1400 360/05 RMK AO2
14840KMKG MKG20021117094509911/17/02 09:45:31  5-MIN KMKG 171445Z 01007KT 10SM FEW035 M02/M08 A3006 500 63 -1400 010/07 RMK AO2
14840KMKG MKG20021117095012211/17/02 09:50:31  5-MIN KMKG 171450Z 01006KT 10SM FEW035 M02/M08 A3006 500 63 -1400 010/06 RMK AO2 SLP189 T10221083 53002
14840KMKG MKG20021117095512211/17/02 09:55:31  5-MIN KMKG 171455Z 35006KT 10SM FEW035 M02/M08 A3006 500 60 -1300 350/06 RMK AO2 SLP189 T10171083 58005
14840KMKG MKG20021117100009611/17/02 10:00:31  5-MIN KMKG 171500Z 35007KT 10SM CLR M01/M08 A3006 500 58 -1300 360/07 RMK AO2
14840KMKG MKG20021117100509611/17/02 10:05:31  5-MIN KMKG 171505Z 36007KT 10SM CLR M01/M08 A3006 500 60 -1300 360/07 RMK AO2
14840KMKG MKG20021117101009611/17/02 10:10:31  5-MIN KMKG 171510Z 35006KT 10SM CLR M01/M08 A3006 500 60 -1300 360/06 RMK AO2
14840KMKG MKG20021117101509611/17/02 10:15:31  5-MIN KMKG 171515Z 35006KT 10SM CLR M01/M08 A3006 500 60 -1300 350/06 RMK AO2
14840KMKG MKG20021117102009611/17/02 10:20:31  5-MIN KMKG 171520Z 35007KT 10SM CLR M01/M08 A3006 500 58 -1200 360/07 RMK AO2
14840KMKG MKG20021117102509611/17/02 10:25:31  5-MIN KMKG 171525Z 02007KT 10SM CLR M01/M08 A3006 500 58 -1200 030/07 RMK AO2
14840KMKG MKG20021117103009511/17/02 10:30:31  5-MIN KMKG 171530Z 01007KT 10SM CLR 00/M08 A3006 500 56 -1100 010/07 RMK AO2
14840KMKG MKG20021117103509511/17/02 10:35:31  5-MIN KMKG 171535Z 35006KT 10SM CLR 00/M08 A3006 500 56 -1100 360/06 RMK AO2
14840KMKG MKG20021117104009511/17/02 10:40:31  5-MIN KMKG 171540Z 02008KT 10SM CLR 00/M08 A3006 500 56 -1100 030/08 RMK AO2
14840KMKG MKG20021117104509511/17/02 10:45:31  5-MIN KMKG 171545Z 03010KT 10SM CLR 00/M08 A3006 500 56 -1100 040/10 RMK AO2
14840KMKG MKG20021117105011211/17/02 10:50:31  5-MIN KMKG 171550Z 03011KT 10SM CLR 00/M08 A3006 500 56 -1100 030/11 RMK AO2 SLP188 T00001078
14840KMKG MKG20021117105511211/17/02 10:55:31  5-MIN KMKG 171555Z 03009KT 10SM CLR 01/M08 A3006 500 54 -1100 030/09 RMK AO2 SLP188 T00061078
14840KMKG MKG20021117110009511/17/02 11:00:31  5-MIN KMKG 171600Z 36007KT 10SM CLR 01/M08 A3006 500 54 -1000 360/07 RMK AO2
14840KMKG MKG20021117110509511/17/02 11:05:31  5-MIN KMKG 171605Z 01010KT 10SM CLR 01/M08 A3006 500 51 -1000 010/10 RMK AO2
14840KMKG MKG20021117111009511/17/02 11:10:31  5-MIN KMKG 171610Z 02010KT 10SM CLR 01/M08 A3006 500 51 -1000 020/10 RMK AO2
14840KMKG MKG20021117111509511/17/02 11:15:31  5-MIN KMKG 171615Z 03009KT 10SM CLR 01/M08 A3005 510 51 -1000 040/09 RMK AO2
14840KMKG MKG20021117112009511/17/02 11:20:31  5-MIN KMKG 171620Z 36008KT 10SM CLR 01/M08 A3005 510 51 -1000 360/08 RMK AO2
14840KMKG MKG20021117112510111/17/02 11:25:31  5-MIN KMKG 171625Z 36011G15KT 10SM CLR 01/M08 A3005 510 51 -1000 360/11G15 RMK AO2
14840KMKG MKG20021117113009411/17/02 11:30:31  5-MIN KMKG 171630Z 34012KT 10SM CLR 02/M08 A3005 510 49 -900 350/12 RMK AO2
14840KMKG MKG20021117113510111/17/02 11:35:31  5-MIN KMKG 171635Z 36014G17KT 10SM CLR 01/M08 A3005 510 51 -1000 010/14G17 RMK AO2
14840KMKG MKG20021117114009411/17/02 11:40:31  5-MIN KMKG 171640Z 34012KT 10SM CLR 02/M08 A3005 510 49 -900 340/12 RMK AO2
14840KMKG MKG20021117114509511/17/02 11:45:31  5-MIN KMKG 171645Z 35011KT 10SM CLR 01/M08 A3005 510 51 -1000 360/11 RMK AO2
14840KMKG MKG20021117115011411/17/02 11:50:31  5-MIN KMKG 171650Z 36011KT 10SM FEW035 02/M08 A3004 520 49 -900 360/11 RMK AO2 SLP181 T00171078
14840KMKG MKG20021117115511411/17/02 11:55:31  5-MIN KMKG 171655Z 36011KT 10SM FEW035 02/M08 A3004 520 49 -900 010/11 RMK AO2 SLP181 T00171078
14840KMKG MKG20021117120009411/17/02 12:00:31  5-MIN KMKG 171700Z 35010KT 10SM CLR 02/M08 A3004 520 49 -900 350/10 RMK AO2
14840KMKG MKG20021117120509711/17/02 12:05:31  5-MIN KMKG 171705Z 34011KT 10SM FEW035 02/M08 A3004 520 47 -800 350/11 RMK AO2
14840KMKG MKG20021117121009711/17/02 12:10:31  5-MIN KMKG 171710Z 34010KT 10SM FEW035 02/M08 A3003 520 49 -900 350/10 RMK AO2
14840KMKG MKG20021117121509711/17/02 12:15:31  5-MIN KMKG 171715Z 34010KT 10SM FEW035 02/M07 A3003 530 50 -800 340/10 RMK AO2
14840KMKG MKG20021117122009711/17/02 12:20:31  5-MIN KMKG 171720Z 36011KT 10SM FEW035 02/M08 A3003 530 47 -800 360/11 RMK AO2
14840KMKG MKG20021117122511311/17/02 12:25:31  5-MIN KMKG 171725Z 36008KT 330V040 10SM FEW035 02/M08 A3003 530 47 -800 360/08 330V040 RMK AO2
14840KMKG MKG20021117123009711/17/02 12:30:31  5-MIN KMKG 171730Z 01009KT 10SM FEW035 03/M07 A3003 530 48 -700 010/09 RMK AO2
14840KMKG MKG20021117123509711/17/02 12:35:31  5-MIN KMKG 171735Z 35006KT 10SM FEW035 03/M08 A3002 530 46 -700 350/06 RMK AO2
14840KMKG MKG20021117124009711/17/02 12:40:31  5-MIN KMKG 171740Z 34012KT 10SM FEW035 03/M07 A3002 540 48 -700 350/12 RMK AO2
14840KMKG MKG20021117124509711/17/02 12:45:31  5-MIN KMKG 171745Z 33011KT 10SM FEW035 03/M08 A3002 540 46 -700 340/11 RMK AO2
14840KMKG MKG20021117125013211/17/02 12:50:31  5-MIN KMKG 171750Z 35012KT 10SM FEW045 03/M07 A3001 540 48 -700 350/12 RMK AO2 SLP171 T00281072 10028 21061 58005
14840KMKG MKG20021117125513211/17/02 12:55:31  5-MIN KMKG 171755Z 32014KT 10SM FEW045 03/M07 A3001 540 46 -700 330/14 RMK AO2 SLP171 T00331072 10033 21061 58016
14840KMKG MKG20021117130009711/17/02 13:00:31  5-MIN KMKG 171800Z 33012KT 10SM FEW045 03/M07 A3001 550 46 -600 340/12 RMK AO2
14840KMKG MKG20021117130509711/17/02 13:05:31  5-MIN KMKG 171805Z 33007KT 10SM FEW045 03/M08 A3001 550 46 -700 340/07 RMK AO2
14840KMKG MKG20021117131009711/17/02 13:10:31  5-MIN KMKG 171810Z 34010KT 10SM FEW045 03/M07 A3001 550 46 -600 340/10 RMK AO2
14840KMKG MKG20021117131510311/17/02 13:15:31  5-MIN KMKG 171815Z 34013G17KT 10SM FEW045 03/M07 A3001 550 46 -600 350/13G17 RMK AO2
14840KMKG MKG20021117132010311/17/02 13:20:31  5-MIN KMKG 171820Z 35010G17KT 10SM FEW045 03/M07 A3001 550 46 -600 350/10G17 RMK AO2
14840KMKG MKG20021117132509711/17/02 13:25:31  5-MIN KMKG 171825Z 34013KT 10SM FEW045 03/M07 A3001 550 48 -600 340/13 RMK AO2
14840KMKG MKG20021117133009711/17/02 13:30:31  5-MIN KMKG 171830Z 35012KT 10SM FEW045 03/M07 A3001 550 46 -600 350/12 RMK AO2
14840KMKG MKG20021117133509711/17/02 13:35:31  5-MIN KMKG 171835Z 35012KT 10SM FEW045 03/M07 A3001 550 46 -600 350/12 RMK AO2
14840KMKG MKG20021117134009711/17/02 13:40:31  5-MIN KMKG 171840Z 32013KT 10SM FEW045 03/M07 A3000 560 48 -600 320/13 RMK AO2
14840KMKG MKG20021117134509711/17/02 13:45:31  5-MIN KMKG 171845Z 33009KT 10SM FEW045 03/M07 A3000 550 48 -600 330/09 RMK AO2
14840KMKG MKG20021117135012011/17/02 13:50:31  5-MIN KMKG 171850Z 33013G17KT 10SM SCT050 03/M07 A3000 560 48 -600 340/13G17 RMK AO2 SLP166 T00331067
14840KMKG MKG20021117135512011/17/02 13:55:31  5-MIN KMKG 171855Z 33008G17KT 10SM SCT050 03/M06 A3000 560 50 -600 330/08G17 RMK AO2 SLP165 T00331061
14840KMKG MKG20021117140009711/17/02 14:00:31  5-MIN KMKG 171900Z 34011KT 10SM SCT040 03/M06 A3000 560 52 -700 340/11 RMK AO2
14840KMKG MKG20021117140509711/17/02 14:05:31  5-MIN KMKG 171905Z 33011KT 10SM SCT040 02/M06 A2999 560 54 -800 340/11 RMK AO2
14840KMKG MKG20021117141010311/17/02 14:10:31  5-MIN KMKG 171910Z 32009G18KT 10SM SCT040 02/M06 A2999 570 54 -800 320/09G18 RMK AO2
14840KMKG MKG20021117141509711/17/02 14:15:31  5-MIN KMKG 171915Z 31010KT 10SM SCT040 03/M06 A2999 570 52 -700 320/10 RMK AO2
14840KMKG MKG20021117142009711/17/02 14:20:31  5-MIN KMKG 171920Z 31012KT 10SM SCT040 03/M06 A2999 570 52 -600 310/12 RMK AO2
14840KMKG MKG20021117142509711/17/02 14:25:31  5-MIN KMKG 171925Z 31013KT 10SM SCT040 03/M06 A2998 570 52 -600 310/13 RMK AO2
14840KMKG MKG20021117143009711/17/02 14:30:31  5-MIN KMKG 171930Z 31013KT 10SM SCT040 03/M06 A2999 570 50 -600 320/13 RMK AO2
14840KMKG MKG20021117143509711/17/02 14:35:31  5-MIN KMKG 171935Z 32010KT 10SM SCT040 03/M06 A2999 570 50 -600 320/10 RMK AO2
14840KMKG MKG20021117144009711/17/02 14:40:31  5-MIN KMKG 171940Z 31009KT 10SM SCT040 03/M07 A2999 570 50 -700 310/09 RMK AO2
14840KMKG MKG20021117144509711/17/02 14:45:31  5-MIN KMKG 171945Z 31011KT 10SM SCT040 03/M07 A2999 570 50 -700 310/11 RMK AO2
14840KMKG MKG20021117145011411/17/02 14:50:31  5-MIN KMKG 171950Z 30009KT 10SM SCT040 03/M07 A2999 570 48 -600 310/09 RMK AO2 SLP162 T00331067
14840KMKG MKG20021117145511411/17/02 14:55:31  5-MIN KMKG 171955Z 29010KT 10SM SCT040 03/M06 A2998 570 52 -700 290/10 RMK AO2 SLP162 T00281061
14840KMKG MKG20021117150009711/17/02 15:00:31  5-MIN KMKG 172000Z 35011KT 10SM SCT040 03/M06 A2999 570 50 -600 350/11 RMK AO2
14840KMKG MKG20021117150509711/17/02 15:05:31  5-MIN KMKG 172005Z 32012KT 10SM SCT040 03/M06 A2999 570 52 -700 330/12 RMK AO2
14840KMKG MKG20021117151009711/17/02 15:10:31  5-MIN KMKG 172010Z 33010KT 10SM SCT040 03/M06 A2999 570 52 -700 330/10 RMK AO2
14840KMKG MKG20021117151509711/17/02 15:15:31  5-MIN KMKG 172015Z 29012KT 10SM SCT040 03/M06 A2998 570 52 -700 300/12 RMK AO2
14840KMKG MKG20021117152010311/17/02 15:20:31  5-MIN KMKG 172020Z 30011G18KT 10SM SCT040 03/M07 A2998 570 50 -700 300/11G18 RMK AO2
14840KMKG MKG20021117152510311/17/02 15:25:31  5-MIN KMKG 172025Z 33011G18KT 10SM SCT040 03/M06 A2999 570 50 -600 330/11G18 RMK AO2
14840KMKG MKG20021117153009711/17/02 15:30:31  5-MIN KMKG 172030Z 35013KT 10SM SCT040 03/M06 A2999 570 50 -600 350/13 RMK AO2
14840KMKG MKG20021117153509711/17/02 15:35:31  5-MIN KMKG 172035Z 33012KT 10SM SCT040 03/M07 A2999 560 50 -700 330/12 RMK AO2
14840KMKG MKG20021117154010311/17/02 15:40:31  5-MIN KMKG 172040Z 33015G18KT 10SM SCT040 03/M07 A2999 570 50 -700 330/15G18 RMK AO2
14840KMKG MKG20021117154510311/17/02 15:45:31  5-MIN KMKG 172045Z 31013G18KT 10SM SCT040 02/M07 A2999 570 52 -800 320/13G18 RMK AO2
14840KMKG MKG20021117155012011/17/02 15:50:31  5-MIN KMKG 172050Z 33012KT 10SM SCT038 02/M07 A2999 560 54 -800 330/12 RMK AO2 SLP165 T00171067 58016
14840KMKG MKG20021117155512011/17/02 15:55:31  5-MIN KMKG 172055Z 34015KT 10SM SCT038 02/M06 A3000 560 56 -800 340/15 RMK AO2 SLP167 T00171061 55005
14840KMKG MKG20021117160009711/17/02 16:00:31  5-MIN KMKG 172100Z 32013KT 10SM SCT038 02/M06 A3000 560 56 -800 330/13 RMK AO2
14840KMKG MKG20021117160509711/17/02 16:05:31  5-MIN KMKG 172105Z 33012KT 10SM SCT038 02/M07 A3000 560 54 -800 330/12 RMK AO2
14840KMKG MKG20021117161009711/17/02 16:10:31  5-MIN KMKG 172110Z 33012KT 10SM SCT038 01/M07 A3000 560 56 -900 330/12 RMK AO2
14840KMKG MKG20021117161509711/17/02 16:15:31  5-MIN KMKG 172115Z 32011KT 10SM SCT038 01/M07 A3000 560 56 -900 330/11 RMK AO2
14840KMKG MKG20021117162009711/17/02 16:20:31  5-MIN KMKG 172120Z 33012KT 10SM FEW038 01/M07 A3000 550 56 -900 330/12 RMK AO2
14840KMKG MKG20021117162509711/17/02 16:25:31  5-MIN KMKG 172125Z 32012KT 10SM FEW038 01/M07 A3000 550 56 -900 320/12 RMK AO2
14840KMKG MKG20021117163009411/17/02 16:30:31  5-MIN KMKG 172130Z 32011KT 10SM CLR 01/M07 A3000 550 56 -900 320/11 RMK AO2
14840KMKG MKG20021117163509711/17/02 16:35:31  5-MIN KMKG 172135Z 32012KT 10SM SCT038 01/M07 A3000 550 56 -900 330/12 RMK AO2
14840KMKG MKG20021117164009811/17/02 16:40:31  5-MIN KMKG 172140Z 32011KT 10SM SCT038 01/M07 A3000 550 58 -1000 330/11 RMK AO2
14840KMKG MKG20021117164509811/17/02 16:45:31  5-MIN KMKG 172145Z 33012KT 10SM SCT038 01/M07 A3000 560 58 -1000 330/12 RMK AO2
14840KMKG MKG20021117165011511/17/02 16:50:31  5-MIN KMKG 172150Z 33011KT 10SM SCT038 01/M07 A3000 550 58 -1000 340/11 RMK AO2 SLP169 T00061067
14840KMKG MKG20021117165511511/17/02 16:55:31  5-MIN KMKG 172155Z 33013KT 10SM SCT036 01/M07 A3000 550 58 -1000 340/13 RMK AO2 SLP169 T00061067
14840KMKG MKG20021117170009811/17/02 17:00:31  5-MIN KMKG 172200Z 33011KT 10SM SCT036 01/M07 A3000 550 58 -1000 330/11 RMK AO2
14840KMKG MKG20021117170509811/17/02 17:05:31  5-MIN KMKG 172205Z 33011KT 10SM SCT036 01/M07 A3000 550 58 -1000 340/11 RMK AO2
14840KMKG MKG20021117171009811/17/02 17:10:31  5-MIN KMKG 172210Z 34007KT 10SM SCT036 00/M07 A3001 550 61 -1100 340/07 RMK AO2
14840KMKG MKG20021117171509811/17/02 17:15:31  5-MIN KMKG 172215Z 33007KT 10SM SCT036 00/M06 A3001 550 63 -1100 330/07 RMK AO2
14840KMKG MKG20021117172009911/17/02 17:20:31  5-MIN KMKG 172220Z 33009KT 10SM SCT036 M01/M06 A3001 540 66 -1100 330/09 RMK AO2
14840KMKG MKG20021117172509811/17/02 17:25:31  5-MIN KMKG 172225Z 32010KT 10SM SCT036 00/M07 A3001 540 61 -1100 320/10 RMK AO2
14840KMKG MKG20021117173009811/17/02 17:30:31  5-MIN KMKG 172230Z 33008KT 10SM SCT036 00/M07 A3002 540 61 -1100 330/08 RMK AO2
14840KMKG MKG20021117173509811/17/02 17:35:31  5-MIN KMKG 172235Z 32008KT 10SM SCT036 00/M07 A3002 540 61 -1100 330/08 RMK AO2
14840KMKG MKG20021117174009811/17/02 17:40:31  5-MIN KMKG 172240Z 32008KT 10SM SCT036 00/M07 A3002 540 61 -1100 330/08 RMK AO2
14840KMKG MKG20021117174509811/17/02 17:45:31  5-MIN KMKG 172245Z 33009KT 10SM SCT036 00/M07 A3002 540 61 -1100 330/09 RMK AO2
14840KMKG MKG20021117175011511/17/02 17:50:31  5-MIN KMKG 172250Z 33011KT 10SM SCT036 00/M07 A3002 540 61 -1100 330/11 RMK AO2 SLP174 T00001067
14840KMKG MKG20021117175511511/17/02 17:55:31  5-MIN KMKG 172255Z 33008KT 10SM SCT036 00/M07 A3002 540 61 -1100 330/08 RMK AO2 SLP174 T00001067
14840KMKG MKG20021117180009811/17/02 18:00:31  5-MIN KMKG 172300Z 33008KT 10SM BKN036 00/M06 A3002 540 63 -1100 340/08 RMK AO2
14840KMKG MKG20021117180509811/17/02 18:05:31  5-MIN KMKG 172305Z 35008KT 10SM BKN036 00/M07 A3002 540 61 -1100 350/08 RMK AO2
14840KMKG MKG20021117181009811/17/02 18:10:31  5-MIN KMKG 172310Z 34007KT 10SM BKN036 00/M06 A3002 540 63 -1100 350/07 RMK AO2
14840KMKG MKG20021117181509811/17/02 18:15:31  5-MIN KMKG 172315Z 34008KT 10SM BKN038 01/M06 A3002 540 61 -1000 340/08 RMK AO2
14840KMKG MKG20021117182009811/17/02 18:20:31  5-MIN KMKG 172320Z 34007KT 10SM BKN038 01/M06 A3002 540 61 -1000 340/07 RMK AO2
14840KMKG MKG20021117182509811/17/02 18:25:31  5-MIN KMKG 172325Z 34008KT 10SM OVC036 00/M06 A3002 530 63 -1100 350/08 RMK AO2
14840KMKG MKG20021117183009811/17/02 18:30:31  5-MIN KMKG 172330Z 34007KT 10SM BKN036 00/M06 A3002 530 63 -1100 350/07 RMK AO2
14840KMKG MKG20021117183509811/17/02 18:35:31  5-MIN KMKG 172335Z 34007KT 10SM BKN036 00/M06 A3003 530 63 -1100 340/07 RMK AO2
14840KMKG MKG20021117184009811/17/02 18:40:31  5-MIN KMKG 172340Z 33007KT 10SM BKN036 00/M06 A3003 530 63 -1100 340/07 RMK AO2
14840KMKG MKG20021117184509811/17/02 18:45:31  5-MIN KMKG 172345Z 35005KT 10SM BKN036 00/M06 A3003 530 63 -1100 350/05 RMK AO2
14840KMKG MKG20021117185013311/17/02 18:50:31  5-MIN KMKG 172350Z 33007KT 10SM BKN036 00/M06 A3003 530 66 -1100 330/07 RMK AO2 SLP177 T00001056 10033 21006 55005
14840KMKG MKG20021117185513311/17/02 18:55:31  5-MIN KMKG 172355Z 33007KT 10SM BKN036 00/M06 A3003 530 63 -1100 330/07 RMK AO2 SLP177 T00001061 10033 21006 53009
14840KMKG MKG20021117190009811/17/02 19:00:31  5-MIN KMKG 180000Z 33006KT 10SM BKN036 00/M06 A3003 530 63 -1100 330/06 RMK AO2
14840KMKG MKG20021117190509911/17/02 19:05:31  5-MIN KMKG 180005Z 33006KT 10SM BKN036 M01/M06 A3003 530 66 -1200 330/06 RMK AO2
14840KMKG MKG20021117191009911/17/02 19:10:31  5-MIN KMKG 180010Z 33006KT 10SM BKN036 M01/M06 A3003 530 66 -1200 330/06 RMK AO2
14840KMKG MKG20021117191509911/17/02 19:15:31  5-MIN KMKG 180015Z 33006KT 10SM SCT036 M01/M06 A3003 530 69 -1200 330/06 RMK AO2
14840KMKG MKG20021117192009911/17/02 19:20:31  5-MIN KMKG 180020Z 31005KT 10SM SCT036 M01/M06 A3003 530 69 -1200 310/05 RMK AO2
14840KMKG MKG20021117192509911/17/02 19:25:31  5-MIN KMKG 180025Z 31006KT 10SM FEW036 M01/M06 A3003 530 66 -1200 320/06 RMK AO2
14840KMKG MKG20021117193009911/17/02 19:30:31  5-MIN KMKG 180030Z 32006KT 10SM FEW036 M01/M06 A3003 530 66 -1200 320/06 RMK AO2
14840KMKG MKG20021117193509911/17/02 19:35:31  5-MIN KMKG 180035Z 31006KT 10SM FEW036 M01/M06 A3003 530 66 -1200 320/06 RMK AO2
14840KMKG MKG20021117194009911/17/02 19:40:31  5-MIN KMKG 180040Z 32005KT 10SM SCT036 M01/M06 A3004 520 66 -1200 320/05 RMK AO2
14840KMKG MKG20021117194509811/17/02 19:45:31  5-MIN KMKG 180045Z 32005KT 10SM BKN036 00/M06 A3003 520 66 -1100 320/05 RMK AO2
14840KMKG MKG20021117195011511/17/02 19:50:31  5-MIN KMKG 180050Z 32005KT 10SM BKN036 00/M06 A3004 520 66 -1100 320/05 RMK AO2 SLP180 T00001056
14840KMKG MKG20021117195511511/17/02 19:55:31  5-MIN KMKG 180055Z 32006KT 10SM BKN036 00/M06 A3004 520 66 -1100 330/06 RMK AO2 SLP180 T00001056
14840KMKG MKG20021117200009811/17/02 20:00:31  5-MIN KMKG 180100Z 32006KT 10SM OVC036 00/M06 A3004 520 66 -1100 320/06 RMK AO2
14840KMKG MKG20021117200509811/17/02 20:05:31  5-MIN KMKG 180105Z 32006KT 10SM OVC036 00/M06 A3004 520 66 -1100 320/06 RMK AO2
14840KMKG MKG20021117201009811/17/02 20:10:31  5-MIN KMKG 180110Z 33007KT 10SM BKN036 00/M06 A3004 520 66 -1100 330/07 RMK AO2
14840KMKG MKG20021117201509811/17/02 20:15:31  5-MIN KMKG 180115Z 33006KT 10SM BKN036 00/M06 A3004 520 66 -1100 340/06 RMK AO2
14840KMKG MKG20021117202009811/17/02 20:20:31  5-MIN KMKG 180120Z 33006KT 10SM BKN036 00/M06 A3004 520 66 -1100 340/06 RMK AO2
14840KMKG MKG20021117202509811/17/02 20:25:31  5-MIN KMKG 180125Z 33007KT 10SM BKN036 00/M06 A3003 520 63 -1100 330/07 RMK AO2
14840KMKG MKG20021117203009811/17/02 20:30:31  5-MIN KMKG 180130Z 35006KT 10SM BKN036 00/M06 A3003 530 63 -1100 350/06 RMK AO2
14840KMKG MKG20021117203509811/17/02 20:35:31  5-MIN KMKG 180135Z 35006KT 10SM BKN036 00/M06 A3003 530 66 -1100 360/06 RMK AO2
14840KMKG MKG20021117204009811/17/02 20:40:31  5-MIN KMKG 180140Z 35007KT 10SM BKN036 00/M06 A3003 530 66 -1100 360/07 RMK AO2
14840KMKG MKG20021117204509811/17/02 20:45:31  5-MIN KMKG 180145Z 34005KT 10SM BKN036 00/M06 A3003 530 66 -1100 340/05 RMK AO2
14840KMKG MKG20021117205011511/17/02 20:50:31  5-MIN KMKG 180150Z 34005KT 10SM BKN034 01/M06 A3003 530 63 -1000 340/05 RMK AO2 SLP178 T00061056
14840KMKG MKG20021117205511511/17/02 20:55:31  5-MIN KMKG 180155Z 34005KT 10SM BKN034 01/M06 A3003 530 63 -1000 340/05 RMK AO2 SLP178 T00061056
14840KMKG MKG20021117210009811/17/02 21:00:31  5-MIN KMKG 180200Z 34004KT 10SM BKN034 01/M06 A3003 530 63 -1000 340/04 RMK AO2
14840KMKG MKG20021117210509811/17/02 21:05:31  5-MIN KMKG 180205Z 33004KT 10SM BKN034 00/M06 A3003 530 66 -1100 340/04 RMK AO2
14840KMKG MKG20021117211009811/17/02 21:10:31  5-MIN KMKG 180210Z 32004KT 10SM BKN034 01/M06 A3003 530 63 -1000 330/04 RMK AO2
14840KMKG MKG20021117211509811/17/02 21:15:31  5-MIN KMKG 180215Z 32004KT 10SM BKN034 01/M06 A3003 530 63 -1000 320/04 RMK AO2
14840KMKG MKG20021117212009811/17/02 21:20:31  5-MIN KMKG 180220Z 32005KT 10SM BKN034 01/M06 A3003 530 63 -1000 320/05 RMK AO2
14840KMKG MKG20021117212509811/17/02 21:25:31  5-MIN KMKG 180225Z 30004KT 10SM BKN034 01/M06 A3003 520 63 -1000 300/04 RMK AO2
14840KMKG MKG20021117213009811/17/02 21:30:31  5-MIN KMKG 180230Z 32006KT 10SM BKN034 01/M06 A3003 530 63 -1000 320/06 RMK AO2
14840KMKG MKG20021117213509811/17/02 21:35:31  5-MIN KMKG 180235Z 31005KT 10SM BKN034 00/M06 A3004 520 66 -1100 320/05 RMK AO2
14840KMKG MKG20021117214009811/17/02 21:40:31  5-MIN KMKG 180240Z 31004KT 10SM BKN034 01/M06 A3003 520 63 -1000 310/04 RMK AO2
14840KMKG MKG20021117214509811/17/02 21:45:31  5-MIN KMKG 180245Z 31003KT 10SM BKN034 01/M04 A3003 530 69 -1000 310/03 RMK AO2
14840KMKG MKG20021117215012111/17/02 21:50:31  5-MIN KMKG 180250Z 32004KT 10SM BKN034 01/M04 A3003 520 69 -1000 330/04 RMK AO2 SLP178 T00061044 53009
14840KMKG MKG20021117215512111/17/02 21:55:31  5-MIN KMKG 180255Z 30004KT 10SM BKN034 01/M06 A3003 530 63 -1000 310/04 RMK AO2 SLP178 T00061056 51002
14840KMKG MKG20021117220009811/17/02 22:00:31  5-MIN KMKG 180300Z 32004KT 10SM BKN036 01/M06 A3003 530 63 -1000 320/04 RMK AO2
14840KMKG MKG20021117220509811/17/02 22:05:31  5-MIN KMKG 180305Z 31004KT 10SM BKN036 00/M06 A3003 530 66 -1100 320/04 RMK AO2
14840KMKG MKG20021117221009811/17/02 22:10:31  5-MIN KMKG 180310Z 31005KT 10SM BKN036 00/M06 A3003 530 66 -1100 320/05 RMK AO2
14840KMKG MKG20021117221509811/17/02 22:15:31  5-MIN KMKG 180315Z 31004KT 10SM BKN036 00/M06 A3003 530 66 -1100 320/04 RMK AO2
14840KMKG MKG20021117222009811/17/02 22:20:31  5-MIN KMKG 180320Z 30003KT 10SM BKN036 00/M06 A3003 530 66 -1100 300/03 RMK AO2
14840KMKG MKG20021117222509811/17/02 22:25:31  5-MIN KMKG 180325Z 00000KT 10SM BKN036 01/M06 A3003 530 63 -1000 000/00 RMK AO2
14840KMKG MKG20021117223009811/17/02 22:30:31  5-MIN KMKG 180330Z 00000KT 10SM BKN036 01/M06 A3003 530 63 -1000 000/00 RMK AO2
14840KMKG MKG20021117223509811/17/02 22:35:31  5-MIN KMKG 180335Z 31003KT 10SM BKN036 01/M06 A3003 530 63 -1000 320/03 RMK AO2
14840KMKG MKG20021117224009811/17/02 22:40:31  5-MIN KMKG 180340Z 32003KT 10SM BKN036 01/M06 A3003 530 63 -1000 320/03 RMK AO2
14840KMKG MKG20021117224509811/17/02 22:45:31  5-MIN KMKG 180345Z 00000KT 10SM BKN036 00/M05 A3003 530 69 -1100 000/00 RMK AO2
14840KMKG MKG20021117225011611/17/02 22:50:31  5-MIN KMKG 180350Z 00000KT 10SM BKN036 M01/M06 A3003 530 69 -1200 000/00 RMK AO2 SLP178 T10061056
14840KMKG MKG20021117225511511/17/02 22:55:31  5-MIN KMKG 180355Z 00000KT 10SM BKN036 00/M06 A3003 530 66 -1100 000/00 RMK AO2 SLP177 T00001056
14840KMKG MKG20021117230009811/17/02 23:00:31  5-MIN KMKG 180400Z 31003KT 10SM BKN036 00/M06 A3003 530 66 -1100 320/03 RMK AO2
14840KMKG MKG20021117230509911/17/02 23:05:31  5-MIN KMKG 180405Z VRB03KT 10SM BKN036 M01/M06 A3003 530 69 -1200 VRB/03 RMK AO2
14840KMKG MKG20021117231009811/17/02 23:10:31  5-MIN KMKG 180410Z 31005KT 10SM SCT036 00/M06 A3003 530 66 -1100 310/05 RMK AO2
14840KMKG MKG20021117231509811/17/02 23:15:31  5-MIN KMKG 180415Z 28006KT 10SM SCT036 00/M06 A3003 530 63 -1100 280/06 RMK AO2
14840KMKG MKG20021117232009811/17/02 23:20:31  5-MIN KMKG 180420Z 29006KT 10SM SCT036 01/M06 A3003 530 61 -1000 290/06 RMK AO2
14840KMKG MKG20021117232509811/17/02 23:25:31  5-MIN KMKG 180425Z 30005KT 10SM SCT036 01/M06 A3003 530 61 -1000 310/05 RMK AO2
14840KMKG MKG20021117233009811/17/02 23:30:31  5-MIN KMKG 180430Z 32003KT 10SM BKN036 00/M06 A3003 530 63 -1100 320/03 RMK AO2
14840KMKG MKG20021117233509811/17/02 23:35:31  5-MIN KMKG 180435Z VRB03KT 10SM BKN036 00/M06 A3003 530 66 -1100 VRB/03 RMK AO2
14840KMKG MKG20021117234009811/17/02 23:40:31  5-MIN KMKG 180440Z 28005KT 10SM BKN036 01/M06 A3004 520 61 -1000 290/05 RMK AO2
14840KMKG MKG20021117234509811/17/02 23:45:31  5-MIN KMKG 180445Z 28005KT 10SM BKN036 01/M06 A3004 520 61 -1000 280/05 RMK AO2
14840KMKG MKG20021117235012511/17/02 23:50:31  5-MIN KMKG 180450Z 27005KT 10SM SCT036 01/M06 A3004 520 61 -1000 270/05 RMK AO2 SLP178 T00061061 400331061
14840KMKG MKG20021117235512511/17/02 23:55:31  5-MIN KMKG 180455Z 28006KT 10SM SCT036 01/M06 A3004 520 61 -1000 290/06 RMK AO2 SLP178 T00061061 400331061
14840KMKG MKG20021118000009811/18/02 00:00:31  5-MIN KMKG 180500Z 28006KT 10SM BKN036 01/M06 A3004 520 61 -1000 280/06 RMK AO2
14840KMKG MKG20021118000509811/18/02 00:05:31  5-MIN KMKG 180505Z 27006KT 10SM BKN036 01/M06 A3004 520 61 -1000 280/06 RMK AO2
14840KMKG MKG20021118001009811/18/02 00:10:31  5-MIN KMKG 180510Z 27006KT 10SM BKN036 01/M06 A3004 520 61 -1000 280/06 RMK AO2
14840KMKG MKG20021118001509811/18/02 00:15:31  5-MIN KMKG 180515Z 28008KT 10SM BKN036 01/M06 A3004 520 58 -1000 290/08 RMK AO2
14840KMKG MKG20021118002009811/18/02 00:20:31  5-MIN KMKG 180520Z 28006KT 10SM BKN036 01/M06 A3004 520 61 -1000 290/06 RMK AO2
14840KMKG MKG20021118002509811/18/02 00:25:31  5-MIN KMKG 180525Z 27007KT 10SM BKN036 01/M06 A3004 520 61 -1000 270/07 RMK AO2
14840KMKG MKG20021118003009811/18/02 00:30:31  5-MIN KMKG 180530Z 27007KT 10SM BKN036 01/M06 A3004 520 58 -1000 270/07 RMK AO2
14840KMKG MKG20021118003509811/18/02 00:35:31  5-MIN KMKG 180535Z 26007KT 10SM BKN036 01/M06 A3004 520 61 -1000 270/07 RMK AO2
14840KMKG MKG20021118004009811/18/02 00:40:31  5-MIN KMKG 180540Z 26006KT 10SM BKN036 01/M06 A3004 520 63 -1000 260/06 RMK AO2
14840KMKG MKG20021118004509811/18/02 00:45:31  5-MIN KMKG 180545Z 27006KT 10SM BKN036 01/M06 A3004 520 58 -1000 270/06 RMK AO2
14840KMKG MKG20021118005013311/18/02 00:50:31  5-MIN KMKG 180550Z 27008KT 10SM BKN036 01/M06 A3004 520 58 -1000 270/08 RMK AO2 SLP178 T00111061 10011 21011 51002
14840KMKG MKG20021118005513311/18/02 00:55:31  5-MIN KMKG 180555Z 29008KT 10SM BKN036 01/M06 A3004 520 61 -1000 300/08 RMK AO2 SLP178 T00111056 10011 21011 53001
14840KMKG MKG20021118010009811/18/02 01:00:31  5-MIN KMKG 180600Z 27005KT 10SM BKN036 01/M06 A3004 520 61 -1000 280/05 RMK AO2
14840KMKG MKG20021118010509811/18/02 01:05:31  5-MIN KMKG 180605Z 28005KT 10SM BKN036 01/M06 A3004 520 61 -1000 280/05 RMK AO2
14840KMKG MKG20021118011009811/18/02 01:10:31  5-MIN KMKG 180610Z 26007KT 10SM BKN036 01/M06 A3004 520 61 -1000 270/07 RMK AO2
14840KMKG MKG20021118011509811/18/02 01:15:31  5-MIN KMKG 180615Z 25008KT 10SM BKN036 01/M06 A3004 520 61 -1000 250/08 RMK AO2
14840KMKG MKG20021118012009811/18/02 01:20:31  5-MIN KMKG 180620Z 25010KT 10SM BKN036 01/M06 A3004 520 61 -1000 260/10 RMK AO2
14840KMKG MKG20021118012509811/18/02 01:25:31  5-MIN KMKG 180625Z 26008KT 10SM BKN036 01/M06 A3004 520 61 -1000 270/08 RMK AO2
14840KMKG MKG20021118013009811/18/02 01:30:31  5-MIN KMKG 180630Z 26009KT 10SM BKN036 01/M06 A3004 520 61 -1000 270/09 RMK AO2
14840KMKG MKG20021118013509811/18/02 01:35:31  5-MIN KMKG 180635Z 27008KT 10SM BKN036 01/M06 A3004 520 61 -1000 270/08 RMK AO2
14840KMKG MKG20021118014009811/18/02 01:40:31  5-MIN KMKG 180640Z 26005KT 10SM BKN036 01/M06 A3004 520 61 -1000 270/05 RMK AO2
14840KMKG MKG20021118014509811/18/02 01:45:31  5-MIN KMKG 180645Z 25010KT 10SM BKN036 01/M06 A3004 520 61 -1000 260/10 RMK AO2
14840KMKG MKG20021118015011511/18/02 01:50:31  5-MIN KMKG 180650Z 26009KT 10SM SCT036 01/M06 A3004 520 61 -1000 270/09 RMK AO2 SLP180 T00111056
14840KMKG MKG20021118015511511/18/02 01:55:31  5-MIN KMKG 180655Z 27009KT 10SM SCT036 01/M06 A3004 520 61 -1000 280/09 RMK AO2 SLP180 T00111056
14840KMKG MKG20021118020009811/18/02 02:00:31  5-MIN KMKG 180700Z 27007KT 10SM FEW036 01/M06 A3005 520 61 -1000 270/07 RMK AO2
14840KMKG MKG20021118020509811/18/02 02:05:31  5-MIN KMKG 180705Z 27007KT 10SM SCT036 01/M06 A3005 520 61 -1000 270/07 RMK AO2
14840KMKG MKG20021118021009811/18/02 02:10:31  5-MIN KMKG 180710Z 27009KT 10SM SCT036 01/M06 A3005 510 63 -1000 270/09 RMK AO2
14840KMKG MKG20021118021509811/18/02 02:15:31  5-MIN KMKG 180715Z 27007KT 10SM SCT036 01/M06 A3005 510 61 -1000 270/07 RMK AO2
14840KMKG MKG20021118022009811/18/02 02:20:31  5-MIN KMKG 180720Z 27007KT 10SM BKN036 01/M06 A3005 510 63 -1000 270/07 RMK AO2
14840KMKG MKG20021118022509811/18/02 02:25:31  5-MIN KMKG 180725Z 27008KT 10SM BKN036 01/M06 A3005 510 61 -1000 270/08 RMK AO2
14840KMKG MKG20021118023009811/18/02 02:30:31  5-MIN KMKG 180730Z 27009KT 10SM BKN036 01/M06 A3005 510 61 -1000 270/09 RMK AO2
14840KMKG MKG20021118023509811/18/02 02:35:31  5-MIN KMKG 180735Z 26009KT 10SM BKN036 01/M05 A3005 510 64 -1000 270/09 RMK AO2
14840KMKG MKG20021118024009711/18/02 02:40:31  5-MIN KMKG 180740Z 25008KT 10SM BKN036 02/M05 A3005 510 61 -900 260/08 RMK AO2
14840KMKG MKG20021118024509711/18/02 02:45:31  5-MIN KMKG 180745Z 28008KT 10SM BKN036 02/M05 A3005 510 61 -900 280/08 RMK AO2
14840KMKG MKG20021118025011411/18/02 02:50:31  5-MIN KMKG 180750Z 27009KT 10SM BKN034 02/M05 A3005 510 61 -900 270/09 RMK AO2 SLP183 T00171050
14840KMKG MKG20021118025511411/18/02 02:55:31  5-MIN KMKG 180755Z 27008KT 10SM OVC034 02/M04 A3005 510 64 -900 280/08 RMK AO2 SLP183 T00171044
14840KMKG MKG20021118030009711/18/02 03:00:31  5-MIN KMKG 180800Z 26010KT 10SM BKN034 02/M05 A3005 510 61 -900 260/10 RMK AO2
14840KMKG MKG20021118030509711/18/02 03:05:31  5-MIN KMKG 180805Z 26007KT 10SM BKN034 02/M05 A3005 510 61 -900 260/07 RMK AO2
14840KMKG MKG20021118031009711/18/02 03:10:31  5-MIN KMKG 180810Z 27008KT 10SM BKN034 02/M05 A3005 510 61 -900 270/08 RMK AO2
14840KMKG MKG20021118031509711/18/02 03:15:31  5-MIN KMKG 180815Z 27010KT 10SM BKN034 02/M04 A3005 510 64 -900 270/10 RMK AO2
14840KMKG MKG20021118032009711/18/02 03:20:31  5-MIN KMKG 180820Z 27011KT 10SM BKN034 02/M04 A3005 510 64 -900 270/11 RMK AO2
14840KMKG MKG20021118032509711/18/02 03:25:31  5-MIN KMKG 180825Z 27010KT 10SM BKN034 02/M04 A3005 510 64 -900 280/10 RMK AO2
14840KMKG MKG20021118033009711/18/02 03:30:31  5-MIN KMKG 180830Z 27008KT 10SM BKN034 02/M04 A3005 510 64 -900 280/08 RMK AO2
14840KMKG MKG20021118033509711/18/02 03:35:31  5-MIN KMKG 180835Z 28007KT 10SM BKN034 02/M04 A3005 510 64 -900 280/07 RMK AO2
14840KMKG MKG20021118034009711/18/02 03:40:31  5-MIN KMKG 180840Z 26007KT 10SM BKN034 02/M04 A3005 510 64 -900 270/07 RMK AO2
14840KMKG MKG20021118034509711/18/02 03:45:31  5-MIN KMKG 180845Z 26008KT 10SM BKN034 02/M04 A3005 510 64 -900 270/08 RMK AO2
14840KMKG MKG20021118035012011/18/02 03:50:31  5-MIN KMKG 180850Z 27008KT 10SM BKN034 02/M04 A3005 510 64 -900 280/08 RMK AO2 SLP183 T00171044 53001
14840KMKG MKG20021118035512011/18/02 03:55:31  5-MIN KMKG 180855Z 27008KT 10SM OVC034 02/M04 A3005 510 64 -900 280/08 RMK AO2 SLP182 T00171044 50004
14840KMKG MKG20021118040009711/18/02 04:00:31  5-MIN KMKG 180900Z 26008KT 10SM OVC034 02/M04 A3005 510 61 -800 260/08 RMK AO2
14840KMKG MKG20021118040509711/18/02 04:05:31  5-MIN KMKG 180905Z 26008KT 10SM BKN034 02/M04 A3005 510 64 -900 260/08 RMK AO2
14840KMKG MKG20021118041009711/18/02 04:10:31  5-MIN KMKG 180910Z 26008KT 10SM BKN034 02/M04 A3005 510 61 -800 270/08 RMK AO2
14840KMKG MKG20021118041509711/18/02 04:15:31  5-MIN KMKG 180915Z 27008KT 10SM BKN034 02/M04 A3005 510 64 -900 280/08 RMK AO2
14840KMKG MKG20021118042009711/18/02 04:20:31  5-MIN KMKG 180920Z 26010KT 10SM BKN034 02/M04 A3005 510 61 -800 270/10 RMK AO2
14840KMKG MKG20021118042509711/18/02 04:25:31  5-MIN KMKG 180925Z 27008KT 10SM BKN034 02/M04 A3005 510 64 -900 270/08 RMK AO2
14840KMKG MKG20021118043009711/18/02 04:30:31  5-MIN KMKG 180930Z 25006KT 10SM BKN034 02/M04 A3005 510 64 -900 260/06 RMK AO2
14840KMKG MKG20021118043509711/18/02 04:35:31  5-MIN KMKG 180935Z 26009KT 10SM SCT034 02/M04 A3005 510 64 -900 270/09 RMK AO2
14840KMKG MKG20021118044009711/18/02 04:40:31  5-MIN KMKG 180940Z 27009KT 10SM BKN034 02/M04 A3006 510 64 -900 270/09 RMK AO2
14840KMKG MKG20021118044509711/18/02 04:45:31  5-MIN KMKG 180945Z 26008KT 10SM BKN034 02/M04 A3006 500 64 -900 270/08 RMK AO2
14840KMKG MKG20021118045011411/18/02 04:50:31  5-MIN KMKG 180950Z 26007KT 10SM BKN034 02/M04 A3006 500 64 -900 260/07 RMK AO2 SLP185 T00171044
14840KMKG MKG20021118045511411/18/02 04:55:31  5-MIN KMKG 180955Z 27006KT 10SM SCT034 02/M04 A3006 500 64 -900 270/06 RMK AO2 SLP186 T00171044
14840KMKG MKG20021118050009811/18/02 05:00:31  5-MIN KMKG 181000Z 26008KT 10SM SCT034 01/M04 A3006 500 66 -1000 260/08 RMK AO2
14840KMKG MKG20021118050509811/18/02 05:05:31  5-MIN KMKG 181005Z 27008KT 10SM SCT034 01/M04 A3006 500 66 -1000 270/08 RMK AO2
14840KMKG MKG20021118051009711/18/02 05:10:31  5-MIN KMKG 181010Z 26009KT 10SM FEW034 02/M04 A3006 500 64 -900 270/09 RMK AO2
14840KMKG MKG20021118051509711/18/02 05:15:31  5-MIN KMKG 181015Z 26009KT 10SM FEW032 02/M04 A3006 500 64 -900 260/09 RMK AO2
14840KMKG MKG20021118052009711/18/02 05:20:31  5-MIN KMKG 181020Z 27010KT 10SM FEW032 02/M04 A3006 500 64 -900 270/10 RMK AO2
14840KMKG MKG20021118052509711/18/02 05:25:31  5-MIN KMKG 181025Z 27009KT 10SM FEW034 02/M04 A3006 500 64 -900 270/09 RMK AO2
14840KMKG MKG20021118053009711/18/02 05:30:31  5-MIN KMKG 181030Z 26006KT 10SM FEW034 02/M04 A3006 500 64 -900 260/06 RMK AO2
14840KMKG MKG20021118053509811/18/02 05:35:31  5-MIN KMKG 181035Z 26006KT 10SM SCT032 01/M04 A3006 500 66 -1000 270/06 RMK AO2
14840KMKG MKG20021118054009711/18/02 05:40:31  5-MIN KMKG 181040Z 26005KT 10SM BKN032 02/M04 A3006 500 64 -900 270/05 RMK AO2
14840KMKG MKG20021118054509811/18/02 05:45:31  5-MIN KMKG 181045Z 27004KT 10SM BKN032 01/M04 A3007 500 66 -1000 270/04 RMK AO2
14840KMKG MKG20021118055011411/18/02 05:50:31  5-MIN KMKG 181050Z 26007KT 10SM BKN032 02/M04 A3007 490 64 -900 270/07 RMK AO2 SLP189 T00171044
14840KMKG MKG20021118055511411/18/02 05:55:31  5-MIN KMKG 181055Z 27009KT 10SM BKN032 02/M04 A3007 490 66 -900 270/09 RMK AO2 SLP189 T00171039
14840KMKG MKG20021118060009711/18/02 06:00:31  5-MIN KMKG 181100Z 26008KT 10SM BKN032 02/M04 A3007 490 66 -900 260/08 RMK AO2
14840KMKG MKG20021118060509711/18/02 06:05:31  5-MIN KMKG 181105Z 26007KT 10SM BKN032 02/M04 A3008 490 66 -900 270/07 RMK AO2
14840KMKG MKG20021118061009711/18/02 06:10:31  5-MIN KMKG 181110Z 27006KT 10SM BKN032 02/M04 A3007 490 66 -900 280/06 RMK AO2
14840KMKG MKG20021118061509711/18/02 06:15:31  5-MIN KMKG 181115Z 27007KT 10SM BKN032 02/M04 A3007 490 66 -900 270/07 RMK AO2
14840KMKG MKG20021118062009711/18/02 06:20:31  5-MIN KMKG 181120Z 25009KT 10SM BKN032 02/M04 A3007 490 66 -900 260/09 RMK AO2
14840KMKG MKG20021118062509711/18/02 06:25:31  5-MIN KMKG 181125Z 26006KT 10SM BKN032 02/M04 A3007 490 66 -900 260/06 RMK AO2
14840KMKG MKG20021118063009711/18/02 06:30:31  5-MIN KMKG 181130Z 27007KT 10SM BKN032 02/M04 A3007 490 66 -900 270/07 RMK AO2
14840KMKG MKG20021118063509711/18/02 06:35:31  5-MIN KMKG 181135Z 26007KT 10SM BKN032 02/M04 A3008 490 64 -900 260/07 RMK AO2
14840KMKG MKG20021118064009711/18/02 06:40:31  5-MIN KMKG 181140Z 26008KT 10SM BKN032 02/M04 A3008 480 64 -900 260/08 RMK AO2
14840KMKG MKG20021118064509711/18/02 06:45:31  5-MIN KMKG 181145Z 26007KT 10SM BKN032 02/M04 A3008 480 66 -900 270/07 RMK AO2
14840KMKG MKG20021118065013211/18/02 06:50:31  5-MIN KMKG 181150Z 26010KT 10SM BKN032 02/M04 A3009 470 64 -900 260/10 RMK AO2 SLP196 T00221039 10022 20006 50004
14840KMKG MKG20021118065513211/18/02 06:55:31  5-MIN KMKG 181155Z 26008KT 10SM BKN032 02/M04 A3009 480 64 -900 270/08 RMK AO2 SLP195 T00221039 10022 20006 53013
14840KMKG MKG20021118070009711/18/02 07:00:31  5-MIN KMKG 181200Z 26008KT 10SM BKN032 02/M03 A3009 480 67 -900 270/08 RMK AO2
14840KMKG MKG20021118070509711/18/02 07:05:31  5-MIN KMKG 181205Z 26009KT 10SM BKN032 03/M03 A3009 480 64 -800 260/09 RMK AO2
14840KMKG MKG20021118071009711/18/02 07:10:31  5-MIN KMKG 181210Z 26008KT 10SM BKN032 03/M03 A3009 480 64 -800 260/08 RMK AO2
14840KMKG MKG20021118071509711/18/02 07:15:31  5-MIN KMKG 181215Z 25008KT 10SM BKN032 03/M03 A3009 480 64 -800 250/08 RMK AO2
14840KMKG MKG20021118072009711/18/02 07:20:31  5-MIN KMKG 181220Z 26008KT 10SM OVC032 03/M03 A3009 470 64 -800 270/08 RMK AO2
14840KMKG MKG20021118072509711/18/02 07:25:31  5-MIN KMKG 181225Z 26006KT 10SM OVC032 02/M03 A3009 480 67 -900 260/06 RMK AO2
14840KMKG MKG20021118073009711/18/02 07:30:31  5-MIN KMKG 181230Z 25006KT 10SM OVC032 02/M03 A3009 470 67 -900 260/06 RMK AO2
14840KMKG MKG20021118073509711/18/02 07:35:31  5-MIN KMKG 181235Z 26008KT 10SM BKN032 02/M03 A3009 470 67 -900 260/08 RMK AO2
14840KMKG MKG20021118074009711/18/02 07:40:31  5-MIN KMKG 181240Z 25006KT 10SM BKN032 02/M03 A3009 470 67 -900 250/06 RMK AO2
14840KMKG MKG20021118074509711/18/02 07:45:31  5-MIN KMKG 181245Z 26007KT 10SM BKN032 02/M03 A3009 470 67 -900 260/07 RMK AO2
14840KMKG MKG20021118075011411/18/02 07:50:31  5-MIN KMKG 181250Z 24006KT 10SM BKN030 02/M03 A3009 480 67 -900 250/06 RMK AO2 SLP196 T00221033
14840KMKG MKG20021118075511411/18/02 07:55:31  5-MIN KMKG 181255Z 24006KT 10SM BKN030 02/M03 A3009 480 67 -900 250/06 RMK AO2 SLP195 T00221033
14840KMKG MKG20021118080009711/18/02 08:00:31  5-MIN KMKG 181300Z 25004KT 10SM BKN030 02/M03 A3009 480 69 -900 250/04 RMK AO2
14840KMKG MKG20021118080509711/18/02 08:05:31  5-MIN KMKG 181305Z 24005KT 10SM BKN030 02/M03 A3009 480 69 -900 250/05 RMK AO2
14840KMKG MKG20021118081009711/18/02 08:10:31  5-MIN KMKG 181310Z 23006KT 10SM SCT030 02/M03 A3009 470 69 -900 240/06 RMK AO2
14840KMKG MKG20021118081509711/18/02 08:15:31  5-MIN KMKG 181315Z 23006KT 10SM SCT030 03/M03 A3009 470 67 -800 230/06 RMK AO2
14840KMKG MKG20021118082009711/18/02 08:20:31  5-MIN KMKG 181320Z 23005KT 10SM SCT030 03/M03 A3009 470 67 -800 240/05 RMK AO2
14840KMKG MKG20021118082509711/18/02 08:25:31  5-MIN KMKG 181325Z 24004KT 10SM SCT030 03/M03 A3009 470 67 -800 240/04 RMK AO2
14840KMKG MKG20021118083009711/18/02 08:30:31  5-MIN KMKG 181330Z 23004KT 10SM SCT030 03/M03 A3009 470 67 -800 240/04 RMK AO2
14840KMKG MKG20021118083509711/18/02 08:35:31  5-MIN KMKG 181335Z 23005KT 10SM SCT030 03/M03 A3010 470 67 -800 240/05 RMK AO2
14840KMKG MKG20021118084009711/18/02 08:40:31  5-MIN KMKG 181340Z 23006KT 10SM SCT030 03/M03 A3010 470 67 -800 240/06 RMK AO2
14840KMKG MKG20021118084509711/18/02 08:45:31  5-MIN KMKG 181345Z 23007KT 10SM SCT030 03/M02 A3010 470 67 -700 230/07 RMK AO2
14840KMKG MKG20021118085011411/18/02 08:50:31  5-MIN KMKG 181350Z 23009KT 10SM SCT030 03/M02 A3010 460 67 -800 240/09 RMK AO2 SLP200 T00331022
14840KMKG MKG20021118085511411/18/02 08:55:31  5-MIN KMKG 181355Z 23006KT 10SM SCT030 03/M02 A3010 460 67 -700 230/06 RMK AO2 SLP199 T00331022
14840KMKG MKG20021118090009711/18/02 09:00:31  5-MIN KMKG 181400Z 22008KT 10SM FEW030 03/M02 A3010 460 67 -700 220/08 RMK AO2
14840KMKG MKG20021118090509711/18/02 09:05:31  5-MIN KMKG 181405Z 22007KT 10SM SCT030 03/M02 A3010 460 67 -700 230/07 RMK AO2
14840KMKG MKG20021118091009711/18/02 09:10:31  5-MIN KMKG 181410Z 23006KT 10SM BKN030 04/M02 A3010 460 67 -700 230/06 RMK AO2
14840KMKG MKG20021118091509711/18/02 09:15:31  5-MIN KMKG 181415Z 23009KT 10SM BKN030 04/M02 A3010 470 67 -700 240/09 RMK AO2
14840KMKG MKG20021118092009711/18/02 09:20:31  5-MIN KMKG 181420Z 23007KT 10SM BKN030 04/M02 A3010 470 67 -700 230/07 RMK AO2
14840KMKG MKG20021118092509711/18/02 09:25:31  5-MIN KMKG 181425Z 23008KT 10SM BKN030 04/M02 A3010 460 67 -700 230/08 RMK AO2
14840KMKG MKG20021118093009711/18/02 09:30:31  5-MIN KMKG 181430Z 22008KT 10SM BKN030 04/M02 A3010 460 64 -700 230/08 RMK AO2
14840KMKG MKG20021118093509711/18/02 09:35:31  5-MIN KMKG 181435Z 22009KT 10SM BKN030 04/M02 A3010 460 67 -700 230/09 RMK AO2
14840KMKG MKG20021118094009711/18/02 09:40:31  5-MIN KMKG 181440Z 22009KT 10SM BKN030 04/M02 A3011 460 64 -600 220/09 RMK AO2
14840KMKG MKG20021118094509711/18/02 09:45:31  5-MIN KMKG 181445Z 21011KT 10SM BKN030 05/M01 A3011 460 64 -600 210/11 RMK AO2
14840KMKG MKG20021118095012011/18/02 09:50:31  5-MIN KMKG 181450Z 21011KT 10SM SCT028 04/M02 A3011 460 64 -600 220/11 RMK AO2 SLP201 T00441017 53013
14840KMKG MKG20021118095512011/18/02 09:55:31  5-MIN KMKG 181455Z 22009KT 10SM SCT028 04/M02 A3011 460 64 -600 230/09 RMK AO2 SLP202 T00441017 53007
14840KMKG MKG20021118100009711/18/02 10:00:31  5-MIN KMKG 181500Z 23011KT 10SM BKN028 05/M02 A3011 460 62 -600 230/11 RMK AO2
14840KMKG MKG20021118100509711/18/02 10:05:31  5-MIN KMKG 181505Z 22011KT 10SM BKN028 05/M01 A3011 460 64 -600 220/11 RMK AO2
14840KMKG MKG20021118101009711/18/02 10:10:31  5-MIN KMKG 181510Z 20009KT 10SM SCT028 05/M01 A3011 460 64 -600 210/09 RMK AO2
14840KMKG MKG20021118101509711/18/02 10:15:31  5-MIN KMKG 181515Z 22008KT 10SM SCT028 05/M01 A3010 460 64 -500 230/08 RMK AO2
14840KMKG MKG20021118102009711/18/02 10:20:31  5-MIN KMKG 181520Z 21007KT 10SM SCT028 05/M01 A3011 460 64 -500 210/07 RMK AO2
14840KMKG MKG20021118102509711/18/02 10:25:31  5-MIN KMKG 181525Z 20012KT 10SM FEW028 05/M01 A3010 460 64 -500 200/12 RMK AO2
14840KMKG MKG20021118103009711/18/02 10:30:31  5-MIN KMKG 181530Z 21008KT 10SM FEW028 06/M01 A3010 460 62 -500 210/08 RMK AO2
14840KMKG MKG20021118103509411/18/02 10:35:31  5-MIN KMKG 181535Z 22009KT 10SM CLR 06/M01 A3010 460 62 -500 220/09 RMK AO2
14840KMKG MKG20021118104009411/18/02 10:40:31  5-MIN KMKG 181540Z 22009KT 10SM CLR 06/M01 A3010 460 62 -500 220/09 RMK AO2
14840KMKG MKG20021118104509411/18/02 10:45:31  5-MIN KMKG 181545Z 20008KT 10SM CLR 06/M01 A3010 460 62 -500 200/08 RMK AO2
14840KMKG MKG20021118105011111/18/02 10:50:31  5-MIN KMKG 181550Z 21008KT 10SM CLR 06/M01 A3010 460 62 -500 210/08 RMK AO2 SLP199 T00561011
14840KMKG MKG20021118105511111/18/02 10:55:31  5-MIN KMKG 181555Z 20010KT 10SM CLR 05/M01 A3010 460 67 -500 200/10 RMK AO2 SLP199 T00501006
14840KMKG MKG20021118110009411/18/02 11:00:31  5-MIN KMKG 181600Z 19012KT 10SM CLR 06/M01 A3010 460 62 -500 190/12 RMK AO2
14840KMKG MKG20021118110509411/18/02 11:05:31  5-MIN KMKG 181605Z 19011KT 10SM CLR 06/M01 A3010 460 62 -500 200/11 RMK AO2
14840KMKG MKG20021118111009711/18/02 11:10:31  5-MIN KMKG 181610Z 19011KT 10SM FEW027 06/M01 A3010 460 65 -500 190/11 RMK AO2
14840KMKG MKG20021118111509711/18/02 11:15:31  5-MIN KMKG 181615Z 18011KT 10SM SCT027 06/M01 A3010 460 62 -400 180/11 RMK AO2
14840KMKG MKG20021118112009711/18/02 11:20:31  5-MIN KMKG 181620Z 21010KT 10SM SCT027 07/M01 A3011 460 60 -300 210/10 RMK AO2
14840KMKG MKG20021118112509711/18/02 11:25:31  5-MIN KMKG 181625Z 18013KT 10SM SCT027 06/M01 A3010 460 60 -400 180/13 RMK AO2
14840KMKG MKG20021118113009711/18/02 11:30:31  5-MIN KMKG 181630Z 19010KT 10SM SCT027 06/M01 A3010 460 62 -500 190/10 RMK AO2
14840KMKG MKG20021118113509711/18/02 11:35:31  5-MIN KMKG 181635Z 19012KT 10SM BKN027 06/M01 A3010 460 65 -500 200/12 RMK AO2
14840KMKG MKG20021118114009711/18/02 11:40:31  5-MIN KMKG 181640Z 18010KT 10SM BKN027 06/M01 A3010 460 65 -500 180/10 RMK AO2
14840KMKG MKG20021118114509611/18/02 11:45:31  5-MIN KMKG 181645Z 20012KT 10SM BKN027 06/00 A3010 460 67 -500 210/12 RMK AO2
14840KMKG MKG20021118115011411/18/02 11:50:31  5-MIN KMKG 181650Z 19011KT 10SM BKN027 06/M01 A3010 470 65 -500 200/11 RMK AO2 SLP198 T00561006
14840KMKG MKG20021118115512111/18/02 11:55:31  5-MIN KMKG 181655Z 19009KT 10SM BKN027 BKN120 06/M01 A3010 470 65 -500 200/09 RMK AO2 SLP198 T00561006
14840KMKG MKG20021118120010411/18/02 12:00:31  5-MIN KMKG 181700Z 19010KT 10SM SCT027 BKN120 06/M01 A3010 460 65 -500 190/10 RMK AO2
14840KMKG MKG20021118120510411/18/02 12:05:31  5-MIN KMKG 181705Z 19011KT 10SM SCT027 BKN120 06/M01 A3010 460 65 -500 190/11 RMK AO2
14840KMKG MKG20021118121010411/18/02 12:10:31  5-MIN KMKG 181710Z 19010KT 10SM SCT027 BKN120 06/M01 A3011 460 65 -500 190/10 RMK AO2
14840KMKG MKG20021118121510411/18/02 12:15:31  5-MIN KMKG 181715Z 18011KT 10SM BKN027 BKN120 06/M01 A3011 460 65 -500 190/11 RMK AO2
14840KMKG MKG20021118122010411/18/02 12:20:31  5-MIN KMKG 181720Z 19011KT 10SM BKN027 BKN120 06/M01 A3011 460 65 -500 190/11 RMK AO2
14840KMKG MKG20021118122509611/18/02 12:25:31  5-MIN KMKG 181725Z 18013KT 10SM BKN027 06/00 A3011 460 67 -500 190/13 RMK AO2
14840KMKG MKG20021118123009611/18/02 12:30:31  5-MIN KMKG 181730Z 18012KT 10SM BKN027 06/00 A3010 460 67 -500 180/12 RMK AO2
14840KMKG MKG20021118123509611/18/02 12:35:31  5-MIN KMKG 181735Z 18013KT 10SM BKN025 06/00 A3010 460 67 -500 190/13 RMK AO2
14840KMKG MKG20021118124009611/18/02 12:40:31  5-MIN KMKG 181740Z 17008KT 10SM BKN025 06/00 A3010 460 67 -500 180/08 RMK AO2
14840KMKG MKG20021118124509611/18/02 12:45:31  5-MIN KMKG 181745Z 17009KT 10SM BKN025 06/01 A3010 460 70 -500 170/09 RMK AO2
14840KMKG MKG20021118125013111/18/02 12:50:31  5-MIN KMKG 181750Z 17010KT 10SM BKN025 06/01 A3010 460 73 -500 170/10 RMK AO2 SLP200 T00560011 10067 20022 53007
14840KMKG MKG20021118125513111/18/02 12:55:31  5-MIN KMKG 181755Z 17008KT 10SM BKN023 06/01 A3010 460 73 -500 180/08 RMK AO2 SLP199 T00560011 10067 20022 55002
14840KMKG MKG20021118130009611/18/02 13:00:31  5-MIN KMKG 181800Z 18014KT 10SM BKN023 06/01 A3010 460 73 -500 180/14 RMK AO2
14840KMKG MKG20021118130510211/18/02 13:05:31  5-MIN KMKG 181805Z 19013G19KT 10SM BKN023 05/01 A3010 460 73 -500 190/13G19 RMK AO2
14840KMKG MKG20021118131009611/18/02 13:10:31  5-MIN KMKG 181810Z 17013KT 10SM BKN023 06/01 A3010 460 70 -500 180/13 RMK AO2
14840KMKG MKG20021118131509611/18/02 13:15:31  5-MIN KMKG 181815Z 18011KT 10SM BKN023 05/01 A3010 460 73 -500 180/11 RMK AO2
14840KMKG MKG20021118132009611/18/02 13:20:31  5-MIN KMKG 181820Z 18014KT 10SM BKN023 05/00 A3010 470 70 -500 180/14 RMK AO2
14840KMKG MKG20021118132510311/18/02 13:25:31  5-MIN KMKG 181825Z 16014G17KT 10SM SCT023 05/M01 A3009 470 67 -500 170/14G17 RMK AO2
14840KMKG MKG20021118133010411/18/02 13:30:31  5-MIN KMKG 181830Z 17011KT 10SM SCT023 SCT110 05/M01 A3009 470 64 -500 180/11 RMK AO2
14840KMKG MKG20021118133510411/18/02 13:35:31  5-MIN KMKG 181835Z 17011KT 10SM FEW023 SCT110 05/M01 A3009 480 64 -500 180/11 RMK AO2
14840KMKG MKG20021118134009711/18/02 13:40:31  5-MIN KMKG 181840Z 17012KT 10SM FEW023 05/M01 A3009 470 64 -500 170/12 RMK AO2
14840KMKG MKG20021118134509711/18/02 13:45:31  5-MIN KMKG 181845Z 17013KT 10SM FEW110 05/M02 A3009 480 62 -500 170/13 RMK AO2
14840KMKG MKG20021118135011411/18/02 13:50:31  5-MIN KMKG 181850Z 16009KT 10SM FEW120 05/M02 A3008 480 62 -500 170/09 RMK AO2 SLP193 T00501017
14840KMKG MKG20021118135511411/18/02 13:55:31  5-MIN KMKG 181855Z 16013KT 10SM SCT120 05/M02 A3008 480 62 -500 160/13 RMK AO2 SLP192 T00501017
14840KMKG MKG20021118140009711/18/02 14:00:31  5-MIN KMKG 181900Z 16012KT 10SM FEW120 05/M02 A3008 480 62 -500 170/12 RMK AO2
14840KMKG MKG20021118140510411/18/02 14:05:31  5-MIN KMKG 181905Z 15012KT 10SM FEW090 SCT120 05/M02 A3008 490 59 -500 160/12 RMK AO2
14840KMKG MKG20021118141010411/18/02 14:10:31  5-MIN KMKG 181910Z 15011KT 10SM FEW070 SCT090 05/M02 A3007 490 59 -500 150/11 RMK AO2
14840KMKG MKG20021118141510411/18/02 14:15:31  5-MIN KMKG 181915Z 16011KT 10SM SCT060 SCT090 05/M03 A3007 490 57 -500 160/11 RMK AO2
14840KMKG MKG20021118142010411/18/02 14:20:31  5-MIN KMKG 181920Z 16009KT 10SM FEW060 SCT090 05/M03 A3007 490 55 -500 160/09 RMK AO2
14840KMKG MKG20021118142510411/18/02 14:25:31  5-MIN KMKG 181925Z 14009KT 10SM FEW060 SCT090 05/M03 A3007 490 55 -500 140/09 RMK AO2
14840KMKG MKG20021118143010411/18/02 14:30:31  5-MIN KMKG 181930Z 15008KT 10SM FEW060 SCT090 05/M04 A3007 500 52 -500 150/08 RMK AO2
14840KMKG MKG20021118143509711/18/02 14:35:31  5-MIN KMKG 181935Z 14008KT 10SM FEW060 05/M03 A3006 500 55 -500 140/08 RMK AO2
14840KMKG MKG20021118144009711/18/02 14:40:31  5-MIN KMKG 181940Z 12011KT 10SM FEW060 05/M03 A3006 500 55 -500 130/11 RMK AO2
14840KMKG MKG20021118144509411/18/02 14:45:31  5-MIN KMKG 181945Z 12010KT 10SM CLR 05/M04 A3005 510 52 -500 120/10 RMK AO2
14840KMKG MKG20021118145011111/18/02 14:50:31  5-MIN KMKG 181950Z 12012KT 10SM CLR 05/M04 A3005 510 52 -500 130/12 RMK AO2 SLP183 T00501039
14840KMKG MKG20021118145512111/18/02 14:55:31  5-MIN KMKG 181955Z 13011KT 10SM FEW060 SCT090 05/M04 A3005 510 50 -500 130/11 RMK AO2 SLP182 T00501044
14840KMKG MKG20021118150009711/18/02 15:00:31  5-MIN KMKG 182000Z 13011KT 10SM FEW080 05/M04 A3005 510 50 -500 140/11 RMK AO2
14840KMKG MKG20021118150509711/18/02 15:05:31  5-MIN KMKG 182005Z 14008KT 10SM FEW080 04/M04 A3005 510 52 -600 140/08 RMK AO2
14840KMKG MKG20021118151009711/18/02 15:10:31  5-MIN KMKG 182010Z 13009KT 10SM FEW100 05/M04 A3005 510 50 -500 130/09 RMK AO2
14840KMKG MKG20021118151509711/18/02 15:15:31  5-MIN KMKG 182015Z 14010KT 10SM FEW100 05/M04 A3004 520 50 -500 140/10 RMK AO2
14840KMKG MKG20021118152009711/18/02 15:20:31  5-MIN KMKG 182020Z 14010KT 10SM FEW090 05/M04 A3004 520 50 -500 140/10 RMK AO2
14840KMKG MKG20021118152509711/18/02 15:25:31  5-MIN KMKG 182025Z 13009KT 10SM FEW080 05/M04 A3004 520 50 -500 130/09 RMK AO2
14840KMKG MKG20021118153009711/18/02 15:30:31  5-MIN KMKG 182030Z 12008KT 10SM FEW075 05/M04 A3004 520 50 -500 130/08 RMK AO2
14840KMKG MKG20021118153509711/18/02 15:35:31  5-MIN KMKG 182035Z 15008KT 10SM FEW080 05/M04 A3005 510 50 -500 150/08 RMK AO2
14840KMKG MKG20021118154009711/18/02 15:40:31  5-MIN KMKG 182040Z 16007KT 10SM FEW075 05/M04 A3006 500 50 -500 170/07 RMK AO2
14840KMKG MKG20021118154509711/18/02 15:45:31  5-MIN KMKG 182045Z 15007KT 10SM SCT070 05/M04 A3006 500 50 -500 160/07 RMK AO2
14840KMKG MKG20021118155012011/18/02 15:50:31  5-MIN KMKG 182050Z 15008KT 10SM SCT070 05/M04 A3006 510 50 -500 150/08 RMK AO2 SLP183 T00501044 55002
14840KMKG MKG20021118155512011/18/02 15:55:31  5-MIN KMKG 182055Z 14009KT 10SM SCT065 05/M04 A3006 510 50 -500 140/09 RMK AO2 SLP183 T00501044 55016
14840KMKG MKG20021118160010411/18/02 16:00:31  5-MIN KMKG 182100Z 14007KT 10SM BKN060 BKN070 05/M04 A3006 500 50 -500 150/07 RMK AO2
14840KMKG MKG20021118160510411/18/02 16:05:31  5-MIN KMKG 182105Z 13005KT 10SM BKN055 BKN070 05/M04 A3005 510 52 -500 130/05 RMK AO2
14840KMKG MKG20021118161010411/18/02 16:10:31  5-MIN KMKG 182110Z 12007KT 10SM BKN055 BKN070 05/M04 A3005 510 52 -500 130/07 RMK AO2
14840KMKG MKG20021118161510411/18/02 16:15:31  5-MIN KMKG 182115Z 13009KT 10SM BKN055 OVC070 05/M04 A3005 510 52 -500 130/09 RMK AO2
14840KMKG MKG20021118162011111/18/02 16:20:31  5-MIN KMKG 182120Z 13009KT 10SM BKN055 BKN070 OVC090 05/M04 A3005 510 52 -500 140/09 RMK AO2
14840KMKG MKG20021118162510411/18/02 16:25:31  5-MIN KMKG 182125Z 15010KT 10SM BKN060 OVC090 05/M04 A3006 510 52 -500 150/10 RMK AO2
14840KMKG MKG20021118163010411/18/02 16:30:31  5-MIN KMKG 182130Z 15008KT 10SM BKN060 BKN090 05/M04 A3006 510 50 -500 150/08 RMK AO2
14840KMKG MKG20021118163510411/18/02 16:35:31  5-MIN KMKG 182135Z 15008KT 10SM BKN060 BKN090 05/M04 A3006 510 50 -500 150/08 RMK AO2
14840KMKG MKG20021118164012611/18/02 16:40:31  5-MIN KMKG 182140Z 15009KT 10SM SCT060 BKN075 BKN090 04/M04 A3005 510 55 -600 150/09 RMK AO2 CIG 060 RWY 14
14840KMKG MKG20021118164510411/18/02 16:45:31  5-MIN KMKG 182145Z 13009KT 10SM FEW060 BKN085 04/M04 A3005 510 55 -600 130/09 RMK AO2
14840KMKG MKG20021118165012111/18/02 16:50:31  5-MIN KMKG 182150Z 13010KT 10SM FEW060 SCT080 04/M04 A3005 510 55 -600 130/10 RMK AO2 SLP180 T00441039
14840KMKG MKG20021118165512111/18/02 16:55:31  5-MIN KMKG 182155Z 12010KT 10SM FEW060 SCT080 04/M04 A3004 520 55 -500 120/10 RMK AO2 SLP178 T00441039
14840KMKG MKG20021118170010411/18/02 17:00:31  5-MIN KMKG 182200Z 10010KT 10SM FEW060 SCT110 04/M04 A3004 520 55 -500 110/10 RMK AO2
14840KMKG MKG20021118170509711/18/02 17:05:31  5-MIN KMKG 182205Z 11010KT 10SM FEW055 04/M04 A3003 530 55 -500 120/10 RMK AO2
14840KMKG MKG20021118171010411/18/02 17:10:31  5-MIN KMKG 182210Z 11009KT 10SM FEW055 SCT090 04/M04 A3003 530 55 -500 110/09 RMK AO2
14840KMKG MKG20021118171510411/18/02 17:15:31  5-MIN KMKG 182215Z 11010KT 10SM SCT060 SCT090 04/M04 A3003 530 55 -500 120/10 RMK AO2
14840KMKG MKG20021118172010411/18/02 17:20:31  5-MIN KMKG 182220Z 11010KT 10SM SCT070 BKN110 04/M04 A3003 530 55 -500 120/10 RMK AO2
14840KMKG MKG20021118172510411/18/02 17:25:31  5-MIN KMKG 182225Z 11011KT 10SM SCT080 BKN110 04/M04 A3002 540 55 -500 120/11 RMK AO2
14840KMKG MKG20021118173011911/18/02 17:30:31  5-MIN KMKG 182230Z 10011KT 10SM SCT070 BKN100 04/M04 A3002 540 55 -500 100/11 RMK AO2 CIG 065 RWY 14
14840KMKG MKG20021118173510411/18/02 17:35:31  5-MIN KMKG 182235Z 10011KT 10SM BKN065 BKN100 04/M04 A3002 540 55 -500 100/11 RMK AO2
14840KMKG MKG20021118174010411/18/02 17:40:31  5-MIN KMKG 182240Z 10010KT 10SM BKN065 OVC110 04/M04 A3002 540 55 -500 100/10 RMK AO2
14840KMKG MKG20021118174511111/18/02 17:45:31  5-MIN KMKG 182245Z 10010KT 10SM FEW060 BKN080 OVC110 04/M03 A3001 550 57 -500 100/10 RMK AO2
14840KMKG MKG20021118175012811/18/02 17:50:31  5-MIN KMKG 182250Z 09012KT 10SM FEW060 BKN080 OVC110 04/M03 A3001 550 59 -600 100/12 RMK AO2 SLP168 T00391033
14840KMKG MKG20021118175514311/18/02 17:55:31  5-MIN KMKG 182255Z 11010KT 10SM FEW060 SCT080 OVC110 04/M03 A3001 550 62 -600 110/10 RMK AO2 CIG 085 RWY 14 SLP168 T00391028
14840KMKG MKG20021118180012611/18/02 18:00:31  5-MIN KMKG 182300Z 11011KT 10SM FEW060 SCT080 OVC110 04/M03 A3001 550 62 -600 120/11 RMK AO2 CIG 085 RWY 14
14840KMKG MKG20021118180511111/18/02 18:05:31  5-MIN KMKG 182305Z 11010KT 10SM FEW060 SCT080 BKN110 04/M03 A3001 550 62 -600 110/10 RMK AO2
14840KMKG MKG20021118181010411/18/02 18:10:31  5-MIN KMKG 182310Z 11012KT 10SM FEW080 BKN110 04/M03 A3001 550 62 -600 110/12 RMK AO2
14840KMKG MKG20021118181510411/18/02 18:15:31  5-MIN KMKG 182315Z 11011KT 10SM FEW080 SCT110 04/M03 A3000 550 62 -600 110/11 RMK AO2
14840KMKG MKG20021118182010411/18/02 18:20:31  5-MIN KMKG 182320Z 10011KT 10SM FEW080 BKN110 04/M03 A3000 550 62 -600 110/11 RMK AO2
14840KMKG MKG20021118182510411/18/02 18:25:31  5-MIN KMKG 182325Z 10011KT 10SM FEW080 BKN110 04/M03 A3000 560 62 -600 110/11 RMK AO2
14840KMKG MKG20021118183009711/18/02 18:30:31  5-MIN KMKG 182330Z 10012KT 10SM SCT100 04/M03 A3000 560 62 -600 110/12 RMK AO2
14840KMKG MKG20021118183509711/18/02 18:35:31  5-MIN KMKG 182335Z 10011KT 10SM FEW100 04/M03 A2999 560 62 -600 100/11 RMK AO2
14840KMKG MKG20021118184009711/18/02 18:40:31  5-MIN KMKG 182340Z 11010KT 10SM SCT100 04/M03 A2999 560 62 -600 110/10 RMK AO2
14840KMKG MKG20021118184509711/18/02 18:45:31  5-MIN KMKG 182345Z 10011KT 10SM BKN100 04/M03 A2999 570 62 -600 110/11 RMK AO2
14840KMKG MKG20021118185013911/18/02 18:50:31  5-MIN KMKG 182350Z 10011KT 10SM SCT090 BKN110 04/M03 A2999 570 62 -600 110/11 RMK AO2 SLP161 T00391028 10056 20039 55016
14840KMKG MKG20021118185513911/18/02 18:55:31  5-MIN KMKG 182355Z 10013KT 10SM BKN090 BKN110 04/M03 A2999 570 62 -600 110/13 RMK AO2 SLP160 T00391028 10056 20039 58023
14840KMKG MKG20021118190010411/18/02 19:00:31  5-MIN KMKG 190000Z 10011KT 10SM BKN085 BKN110 04/M03 A2999 570 62 -500 100/11 RMK AO2
14840KMKG MKG20021118190510411/18/02 19:05:31  5-MIN KMKG 190005Z 10011KT 10SM BKN080 OVC100 04/M03 A2999 570 62 -500 110/11 RMK AO2
14840KMKG MKG20021118191010411/18/02 19:10:31  5-MIN KMKG 190010Z 11012KT 10SM BKN080 OVC100 04/M03 A2999 570 62 -600 110/12 RMK AO2
14840KMKG MKG20021118191509711/18/02 19:15:31  5-MIN KMKG 190015Z 11012KT 10SM OVC080 04/M03 A2999 570 62 -600 110/12 RMK AO2
14840KMKG MKG20021118192009711/18/02 19:20:31  5-MIN KMKG 190020Z 11011KT 10SM OVC080 04/M03 A2999 560 62 -600 120/11 RMK AO2
14840KMKG MKG20021118192509711/18/02 19:25:31  5-MIN KMKG 190025Z 11010KT 10SM OVC075 04/M03 A2999 560 62 -600 120/10 RMK AO2
14840KMKG MKG20021118193009711/18/02 19:30:31  5-MIN KMKG 190030Z 12012KT 10SM OVC075 04/M03 A3000 560 62 -600 120/12 RMK AO2
14840KMKG MKG20021118193509711/18/02 19:35:31  5-MIN KMKG 190035Z 11012KT 10SM OVC075 04/M03 A2999 560 62 -600 120/12 RMK AO2
14840KMKG MKG20021118194009711/18/02 19:40:31  5-MIN KMKG 190040Z 11012KT 10SM OVC075 04/M03 A2999 570 62 -600 120/12 RMK AO2
14840KMKG MKG20021118194510411/18/02 19:45:31  5-MIN KMKG 190045Z 12011KT 10SM BKN075 OVC090 04/M03 A2999 570 62 -500 120/11 RMK AO2
14840KMKG MKG20021118195012111/18/02 19:50:31  5-MIN KMKG 190050Z 12011KT 10SM BKN075 OVC090 04/M03 A2999 560 62 -600 130/11 RMK AO2 SLP161 T00391028
14840KMKG MKG20021118195512111/18/02 19:55:31  5-MIN KMKG 190055Z 12011KT 10SM SCT075 BKN090 04/M03 A2999 570 62 -600 130/11 RMK AO2 SLP161 T00391028
14840KMKG MKG20021118200010411/18/02 20:00:31  5-MIN KMKG 190100Z 13010KT 10SM SCT075 BKN090 04/M03 A2999 560 59 -500 130/10 RMK AO2
14840KMKG MKG20021118200510411/18/02 20:05:31  5-MIN KMKG 190105Z 12009KT 10SM SCT080 BKN090 04/M03 A2999 570 62 -600 120/09 RMK AO2
14840KMKG MKG20021118201010411/18/02 20:10:31  5-MIN KMKG 190110Z 12010KT 10SM SCT075 BKN095 04/M03 A2999 570 62 -600 120/10 RMK AO2
14840KMKG MKG20021118201512011/18/02 20:15:31  5-MIN KMKG 190115Z 11008KT 10SM -RA SCT065 BKN095 04/M03 A2999 570 62 -600 120/08 RMK AO2 RAB14 P0000
14840KMKG MKG20021118202012011/18/02 20:20:31  5-MIN KMKG 190120Z 13008KT 10SM -RA BKN065 BKN095 04/M02 A2999 560 64 -600 130/08 RMK AO2 RAB14 P0000
14840KMKG MKG20021118202512011/18/02 20:25:31  5-MIN KMKG 190125Z 12009KT 10SM -RA BKN070 OVC095 04/M02 A2999 570 64 -600 130/09 RMK AO2 RAB14 P0000
14840KMKG MKG20021118203011311/18/02 20:30:31  5-MIN KMKG 190130Z 13009KT 10SM -RA OVC070 04/M02 A2999 560 67 -600 140/09 RMK AO2 RAB14 P0000
14840KMKG MKG20021118203511311/18/02 20:35:31  5-MIN KMKG 190135Z 13008KT 10SM -RA OVC065 04/M01 A2999 560 70 -600 140/08 RMK AO2 RAB14 P0000
14840KMKG MKG20021118204011311/18/02 20:40:31  5-MIN KMKG 190140Z 13007KT 10SM -RA OVC065 03/M01 A2999 560 76 -600 140/07 RMK AO2 RAB14 P0000
14840KMKG MKG20021118204511311/18/02 20:45:31  5-MIN KMKG 190145Z 12007KT 10SM -RA OVC070 03/M01 A2999 560 76 -600 130/07 RMK AO2 RAB14 P0000
14840KMKG MKG20021118205013011/18/02 20:50:31  5-MIN KMKG 190150Z 12007KT 10SM -RA OVC070 03/M01 A2999 560 76 -600 130/07 RMK AO2 RAB14 SLP161 P0000 T00331006
14840KMKG MKG20021118205513011/18/02 20:55:31  5-MIN KMKG 190155Z 12007KT 10SM -RA OVC070 03/M01 A2999 570 76 -600 130/07 RMK AO2 RAB14 SLP161 P0000 T00331006
14840KMKG MKG20021118210011111/18/02 21:00:31  5-MIN KMKG 190200Z 12007KT 10SM OVC070 03/M01 A2999 570 76 -600 130/07 RMK AO2 RAE0157 P0000
14840KMKG MKG20021118210511111/18/02 21:05:31  5-MIN KMKG 190205Z 13007KT 10SM OVC065 03/M01 A2999 570 76 -600 130/07 RMK AO2 RAE0157 P0000
14840KMKG MKG20021118211011111/18/02 21:10:31  5-MIN KMKG 190210Z 12006KT 10SM OVC065 03/M01 A2998 570 76 -600 130/06 RMK AO2 RAE0157 P0000
14840KMKG MKG20021118211511111/18/02 21:15:31  5-MIN KMKG 190215Z 12008KT 10SM OVC070 03/M01 A2998 580 76 -600 130/08 RMK AO2 RAE0157 P0000
14840KMKG MKG20021118212011111/18/02 21:20:31  5-MIN KMKG 190220Z 12007KT 10SM OVC070 03/M01 A2998 580 76 -600 130/07 RMK AO2 RAE0157 P0000
14840KMKG MKG20021118212511811/18/02 21:25:31  5-MIN KMKG 190225Z 12008KT 10SM -RA OVC070 03/M01 A2997 580 76 -600 130/08 RMK AO2 RAE0157B21 P0000
14840KMKG MKG20021118213011711/18/02 21:30:31  5-MIN KMKG 190230Z 12008KT 10SM OVC070 03/M01 A2997 580 76 -600 120/08 RMK AO2 RAE0157B21E30 P0000
14840KMKG MKG20021118213513111/18/02 21:35:31  5-MIN KMKG 190235Z 13009KT 10SM FEW040 BKN070 OVC095 03/M01 A2997 590 76 -600 130/09 RMK AO2 RAE0157B21E30 P0000
14840KMKG MKG20021118214013111/18/02 21:40:31  5-MIN KMKG 190240Z 13007KT 10SM SCT038 BKN070 OVC095 03/M01 A2997 590 76 -600 130/07 RMK AO2 RAE0157B21E30 P0000
14840KMKG MKG20021118214512411/18/02 21:45:31  5-MIN KMKG 190245Z 13007KT 10SM BKN038 OVC075 04/M01 A2996 590 73 -500 130/07 RMK AO2 RAE0157B21E30 P0000
14840KMKG MKG20021118215015311/18/02 21:50:31  5-MIN KMKG 190250Z 12008KT 10SM BKN038 OVC075 04/M01 A2996 590 73 -500 130/08 RMK AO2 RAE0157B21E30 SLP151 P0000 60000 T00391006 58023
14840KMKG MKG20021118215515311/18/02 21:55:31  5-MIN KMKG 190255Z 12007KT 10SM BKN038 OVC080 04/M01 A2996 590 73 -500 130/07 RMK AO2 RAE0157B21E30 SLP150 P0000 60000 T00391006 58009
14840KMKG MKG20021118220009711/18/02 22:00:31  5-MIN KMKG 190300Z 12009KT 10SM OVC038 04/M01 A2996 600 73 -500 130/09 RMK AO2
14840KMKG MKG20021118220509611/18/02 22:05:31  5-MIN KMKG 190305Z 12008KT 10SM OVC038 04/00 A2995 600 76 -500 130/08 RMK AO2
14840KMKG MKG20021118221009611/18/02 22:10:31  5-MIN KMKG 190310Z 12007KT 10SM OVC038 04/00 A2995 600 76 -500 130/07 RMK AO2
14840KMKG MKG20021118221511111/18/02 22:15:31  5-MIN KMKG 190315Z 12008KT 9SM -RA OVC038 04/00 A2995 600 76 -500 130/08 RMK AO2 RAB15 P0000
14840KMKG MKG20021118222011111/18/02 22:20:31  5-MIN KMKG 190320Z 13008KT 9SM -RA OVC038 04/00 A2995 610 76 -500 130/08 RMK AO2 RAB15 P0000
14840KMKG MKG20021118222511111/18/02 22:25:31  5-MIN KMKG 190325Z 12007KT 8SM -RA OVC038 04/01 A2994 610 79 -500 130/07 RMK AO2 RAB15 P0000
14840KMKG MKG20021118223011111/18/02 22:30:31  5-MIN KMKG 190330Z 12008KT 8SM -RA OVC038 03/01 A2994 610 85 -600 130/08 RMK AO2 RAB15 P0000
14840KMKG MKG20021118223511111/18/02 22:35:31  5-MIN KMKG 190335Z 12007KT 8SM -RA OVC038 03/01 A2994 610 85 -600 120/07 RMK AO2 RAB15 P0000
14840KMKG MKG20021118224011111/18/02 22:40:31  5-MIN KMKG 190340Z 12006KT 8SM -RA OVC038 03/01 A2994 610 85 -600 120/06 RMK AO2 RAB15 P0000
14840KMKG MKG20021118224511111/18/02 22:45:31  5-MIN KMKG 190345Z 11005KT 7SM -RA OVC038 03/02 A2994 620 89 -600 120/05 RMK AO2 RAB15 P0000
14840KMKG MKG20021118225012811/18/02 22:50:31  5-MIN KMKG 190350Z 12004KT 7SM -RA OVC038 03/02 A2993 620 89 -600 120/04 RMK AO2 RAB15 SLP142 P0000 T00330017
14840KMKG MKG20021118225512811/18/02 22:55:31  5-MIN KMKG 190355Z 10004KT 7SM -RA OVC038 03/02 A2993 620 89 -600 100/04 RMK AO2 RAB15 SLP141 P0000 T00330017
14840KMKG MKG20021118230010511/18/02 23:00:31  5-MIN KMKG 190400Z 09004KT 8SM -RA OVC038 03/02 A2993 620 89 -600 090/04 RMK AO2 P0000
14840KMKG MKG20021118230510511/18/02 23:05:31  5-MIN KMKG 190405Z 09004KT 8SM -RA OVC038 03/02 A2993 630 89 -500 090/04 RMK AO2 P0000
14840KMKG MKG20021118231010711/18/02 23:10:31  5-MIN KMKG 190410Z 09004KT 8SM OVC038 03/02 A2992 630 89 -500 090/04 RMK AO2 RAE10 P0000
14840KMKG MKG20021118231510711/18/02 23:15:31  5-MIN KMKG 190415Z 09004KT 8SM OVC038 03/02 A2992 630 89 -500 090/04 RMK AO2 RAE10 P0000
14840KMKG MKG20021118232010711/18/02 23:20:31  5-MIN KMKG 190420Z 08003KT 7SM OVC038 03/02 A2992 630 89 -500 090/03 RMK AO2 RAE10 P0000
14840KMKG MKG20021118232510711/18/02 23:25:31  5-MIN KMKG 190425Z 09004KT 7SM OVC038 03/02 A2992 630 89 -500 090/04 RMK AO2 RAE10 P0000
14840KMKG MKG20021118233010711/18/02 23:30:31  5-MIN KMKG 190430Z 09004KT 7SM OVC038 03/02 A2992 630 89 -500 090/04 RMK AO2 RAE10 P0000
14840KMKG MKG20021118233510711/18/02 23:35:31  5-MIN KMKG 190435Z 08003KT 7SM OVC038 03/02 A2992 630 89 -500 090/03 RMK AO2 RAE10 P0000
14840KMKG MKG20021118234010711/18/02 23:40:31  5-MIN KMKG 190440Z 09003KT 7SM OVC036 03/02 A2992 630 89 -500 100/03 RMK AO2 RAE10 P0000
14840KMKG MKG20021118234510711/18/02 23:45:31  5-MIN KMKG 190445Z 09004KT 7SM OVC036 03/02 A2992 630 89 -500 100/04 RMK AO2 RAE10 P0000
14840KMKG MKG20021118235013411/18/02 23:50:31  5-MIN KMKG 190450Z 09003KT 7SM OVC036 03/02 A2991 640 89 -500 100/03 RMK AO2 RAE10 SLP135 P0000 T00330017 400670006
14840KMKG MKG20021118235513411/18/02 23:55:31  5-MIN KMKG 190455Z 09003KT 7SM OVC036 03/02 A2991 640 89 -500 090/03 RMK AO2 RAE10 SLP134 P0000 T00330017 400670006
14840KMKG MKG20021119000009811/19/02 00:00:31  5-MIN KMKG 190500Z 09003KT 6SM BR OVC036 03/02 A2991 640 89 -500 090/03 RMK AO2
14840KMKG MKG20021119000509811/19/02 00:05:31  5-MIN KMKG 190505Z 09004KT 6SM BR OVC036 03/02 A2991 640 89 -500 100/04 RMK AO2
14840KMKG MKG20021119001009511/19/02 00:10:31  5-MIN KMKG 190510Z 09004KT 7SM OVC034 03/02 A2990 650 89 -500 090/04 RMK AO2
14840KMKG MKG20021119001509511/19/02 00:15:31  5-MIN KMKG 190515Z 10005KT 7SM OVC034 03/02 A2990 650 92 -500 100/05 RMK AO2
14840KMKG MKG20021119002009511/19/02 00:20:31  5-MIN KMKG 190520Z 10005KT 7SM OVC034 03/02 A2990 650 89 -500 100/05 RMK AO2
14840KMKG MKG20021119002509511/19/02 00:25:31  5-MIN KMKG 190525Z 10004KT 7SM OVC034 03/02 A2990 650 89 -500 100/04 RMK AO2
14840KMKG MKG20021119003009511/19/02 00:30:31  5-MIN KMKG 190530Z 10004KT 7SM OVC032 03/02 A2990 650 89 -500 110/04 RMK AO2
14840KMKG MKG20021119003509511/19/02 00:35:31  5-MIN KMKG 190535Z 10005KT 7SM OVC032 03/02 A2990 650 89 -500 100/05 RMK AO2
14840KMKG MKG20021119004009511/19/02 00:40:31  5-MIN KMKG 190540Z 10005KT 7SM OVC032 03/02 A2990 650 89 -500 110/05 RMK AO2
14840KMKG MKG20021119004509511/19/02 00:45:31  5-MIN KMKG 190545Z 10006KT 7SM OVC032 03/02 A2989 660 89 -500 110/06 RMK AO2
14840KMKG MKG20021119005013611/19/02 00:50:31  5-MIN KMKG 190550Z 10006KT 7SM OVC030 03/02 A2989 660 89 -500 100/06 RMK AO2 SLP127 60000 T00330017 10044 20033 58009
14840KMKG MKG20021119005513611/19/02 00:55:31  5-MIN KMKG 190555Z 11006KT 7SM OVC028 03/02 A2989 660 89 -500 110/06 RMK AO2 SLP127 60000 T00330017 10044 20033 56023
14840KMKG MKG20021119010009511/19/02 01:00:31  5-MIN KMKG 190600Z 11006KT 7SM OVC028 04/02 A2989 660 85 -400 110/06 RMK AO2
14840KMKG MKG20021119010509511/19/02 01:05:31  5-MIN KMKG 190605Z 10006KT 7SM OVC028 03/02 A2988 660 89 -500 110/06 RMK AO2
14840KMKG MKG20021119011009511/19/02 01:10:31  5-MIN KMKG 190610Z 10006KT 7SM OVC028 04/02 A2988 660 85 -400 110/06 RMK AO2
14840KMKG MKG20021119011509511/19/02 01:15:31  5-MIN KMKG 190615Z 10006KT 7SM OVC026 04/02 A2988 670 85 -400 100/06 RMK AO2
14840KMKG MKG20021119012009511/19/02 01:20:31  5-MIN KMKG 190620Z 10005KT 7SM OVC026 04/02 A2988 670 85 -400 110/05 RMK AO2
14840KMKG MKG20021119012509511/19/02 01:25:31  5-MIN KMKG 190625Z 10006KT 7SM OVC024 04/02 A2988 670 85 -400 110/06 RMK AO2
14840KMKG MKG20021119013009511/19/02 01:30:31  5-MIN KMKG 190630Z 10007KT 7SM OVC024 04/02 A2988 670 85 -400 110/07 RMK AO2
14840KMKG MKG20021119013509511/19/02 01:35:31  5-MIN KMKG 190635Z 10006KT 8SM OVC024 04/02 A2987 670 85 -400 110/06 RMK AO2
14840KMKG MKG20021119014009511/19/02 01:40:31  5-MIN KMKG 190640Z 10007KT 8SM OVC024 04/02 A2987 680 85 -400 100/07 RMK AO2
14840KMKG MKG20021119014509511/19/02 01:45:31  5-MIN KMKG 190645Z 10007KT 8SM OVC024 04/02 A2987 680 85 -400 110/07 RMK AO2
14840KMKG MKG20021119015011211/19/02 01:50:31  5-MIN KMKG 190650Z 10007KT 8SM OVC024 04/02 A2986 680 85 -400 110/07 RMK AO2 SLP118 T00390017
14840KMKG MKG20021119015511211/19/02 01:55:31  5-MIN KMKG 190655Z 10008KT 8SM OVC024 04/02 A2986 690 85 -400 100/08 RMK AO2 SLP117 T00390017
14840KMKG MKG20021119020009511/19/02 02:00:31  5-MIN KMKG 190700Z 10006KT 8SM OVC024 04/02 A2986 680 85 -400 110/06 RMK AO2
14840KMKG MKG20021119020509511/19/02 02:05:31  5-MIN KMKG 190705Z 11007KT 8SM OVC026 04/02 A2986 680 85 -400 110/07 RMK AO2
14840KMKG MKG20021119021009511/19/02 02:10:31  5-MIN KMKG 190710Z 11007KT 8SM OVC024 04/02 A2986 680 85 -400 110/07 RMK AO2
14840KMKG MKG20021119021509511/19/02 02:15:31  5-MIN KMKG 190715Z 11008KT 8SM OVC024 04/02 A2986 690 85 -400 110/08 RMK AO2
14840KMKG MKG20021119022009511/19/02 02:20:31  5-MIN KMKG 190720Z 11008KT 8SM OVC024 04/02 A2986 690 89 -400 110/08 RMK AO2
14840KMKG MKG20021119022509511/19/02 02:25:31  5-MIN KMKG 190725Z 11008KT 7SM OVC022 04/02 A2986 690 89 -400 110/08 RMK AO2
14840KMKG MKG20021119023009511/19/02 02:30:31  5-MIN KMKG 190730Z 11008KT 7SM OVC022 04/02 A2986 690 89 -400 110/08 RMK AO2
14840KMKG MKG20021119023509511/19/02 02:35:31  5-MIN KMKG 190735Z 11006KT 7SM OVC022 04/02 A2986 690 89 -400 110/06 RMK AO2
14840KMKG MKG20021119024009511/19/02 02:40:31  5-MIN KMKG 190740Z 11007KT 7SM OVC022 04/02 A2986 690 89 -400 120/07 RMK AO2
14840KMKG MKG20021119024509511/19/02 02:45:31  5-MIN KMKG 190745Z 13004KT 7SM OVC020 04/02 A2986 680 89 -400 130/04 RMK AO2
14840KMKG MKG20021119025011211/19/02 02:50:31  5-MIN KMKG 190750Z 13005KT 7SM OVC020 04/02 A2986 680 89 -400 130/05 RMK AO2 SLP118 T00390022
14840KMKG MKG20021119025513811/19/02 02:55:31  5-MIN KMKG 190755Z 24003KT 6SM -RA BR SCT013 OVC020 04/02 A2986 680 89 -400 240/03 RMK AO2 RAB55 SLP118 P0000 T00390022
14840KMKG MKG20021119030011511/19/02 03:00:31  5-MIN KMKG 190800Z 00000KT 6SM -RA BR BKN015 OVC020 04/03 A2987 680 92 -400 000/00 RMK AO2 P0000
14840KMKG MKG20021119030510811/19/02 03:05:31  5-MIN KMKG 190805Z 13004KT 6SM -RA BR OVC015 04/02 A2987 680 85 -300 130/04 RMK AO2 P0000
14840KMKG MKG20021119031010811/19/02 03:10:31  5-MIN KMKG 190810Z 00000KT 6SM -RA BR OVC015 04/03 A2987 680 92 -400 000/00 RMK AO2 P0000
14840KMKG MKG20021119031510811/19/02 03:15:31  5-MIN KMKG 190815Z 00000KT 6SM -RA BR OVC015 04/03 A2987 680 92 -400 000/00 RMK AO2 P0000
14840KMKG MKG20021119032010811/19/02 03:20:31  5-MIN KMKG 190820Z 00000KT 6SM -RA BR OVC017 04/03 A2987 680 92 -400 000/00 RMK AO2 P0000
14840KMKG MKG20021119032511011/19/02 03:25:31  5-MIN KMKG 190825Z 00000KT 6SM BR OVC017 04/03 A2986 680 92 -400 000/00 RMK AO2 RAE23 P0000
14840KMKG MKG20021119033011011/19/02 03:30:31  5-MIN KMKG 190830Z 00000KT 5SM BR OVC017 04/03 A2987 680 92 -400 000/00 RMK AO2 RAE23 P0000
14840KMKG MKG20021119033511011/19/02 03:35:31  5-MIN KMKG 190835Z 00000KT 5SM BR OVC017 04/03 A2987 680 96 -400 000/00 RMK AO2 RAE23 P0000
14840KMKG MKG20021119034011011/19/02 03:40:31  5-MIN KMKG 190840Z 00000KT 5SM BR OVC017 04/03 A2987 680 96 -400 000/00 RMK AO2 RAE23 P0000
14840KMKG MKG20021119034511011/19/02 03:45:31  5-MIN KMKG 190845Z 00000KT 5SM BR OVC017 04/03 A2987 680 96 -400 000/00 RMK AO2 RAE23 P0000
14840KMKG MKG20021119035015611/19/02 03:50:31  5-MIN KMKG 190850Z 00000KT 5SM BR OVC014 04/03 A2987 680 96 -400 000/00 RMK AO2 VIS 2 1/2 RWY 14 RAE23 SLP119 P0000 60000 T00390033 56023
14840KMKG MKG20021119035515611/19/02 03:55:31  5-MIN KMKG 190855Z 00000KT 5SM BR OVC014 04/03 A2987 680 96 -400 000/00 RMK AO2 VIS 2 1/2 RWY 14 RAE23 SLP119 P0000 60000 T00390033 55008
14840KMKG MKG20021119040009811/19/02 04:00:31  5-MIN KMKG 190900Z 00000KT 5SM BR OVC014 04/03 A2987 680 96 -400 000/00 RMK AO2
14840KMKG MKG20021119040509811/19/02 04:05:31  5-MIN KMKG 190905Z 08003KT 5SM BR OVC014 04/03 A2986 680 96 -400 080/03 RMK AO2
14840KMKG MKG20021119041009811/19/02 04:10:31  5-MIN KMKG 190910Z 34003KT 5SM BR OVC014 04/03 A2986 680 96 -400 350/03 RMK AO2
14840KMKG MKG20021119041509811/19/02 04:15:31  5-MIN KMKG 190915Z 00000KT 5SM BR OVC014 04/03 A2987 680 96 -400 000/00 RMK AO2
14840KMKG MKG20021119042009811/19/02 04:20:31  5-MIN KMKG 190920Z 00000KT 5SM BR OVC014 04/03 A2987 680 96 -400 000/00 RMK AO2
14840KMKG MKG20021119042509811/19/02 04:25:31  5-MIN KMKG 190925Z 07003KT 5SM BR OVC014 04/03 A2987 680 96 -400 070/03 RMK AO2
14840KMKG MKG20021119043009811/19/02 04:30:31  5-MIN KMKG 190930Z 00000KT 4SM BR OVC014 04/03 A2987 680 96 -400 000/00 RMK AO2
14840KMKG MKG20021119043509811/19/02 04:35:31  5-MIN KMKG 190935Z 00000KT 4SM BR OVC014 04/03 A2987 670 96 -400 000/00 RMK AO2
14840KMKG MKG20021119044009811/19/02 04:40:31  5-MIN KMKG 190940Z 00000KT 5SM BR OVC014 04/03 A2988 670 96 -400 000/00 RMK AO2
14840KMKG MKG20021119044509811/19/02 04:45:31  5-MIN KMKG 190945Z 00000KT 4SM BR OVC014 04/03 A2988 670 96 -400 000/00 RMK AO2
14840KMKG MKG20021119045011511/19/02 04:50:31  5-MIN KMKG 190950Z 00000KT 4SM BR OVC014 04/03 A2988 670 96 -400 000/00 RMK AO2 SLP123 T00390033
14840KMKG MKG20021119045511511/19/02 04:55:31  5-MIN KMKG 190955Z 00000KT 4SM BR OVC014 04/03 A2988 670 96 -400 000/00 RMK AO2 SLP124 T00390033
14840KMKG MKG20021119050009811/19/02 05:00:31  5-MIN KMKG 191000Z 00000KT 4SM BR OVC014 04/03 A2988 670 96 -400 000/00 RMK AO2
14840KMKG MKG20021119050510511/19/02 05:05:31  5-MIN KMKG 191005Z 00000KT 4SM BR BKN014 OVC019 04/03 A2988 670 96 -400 000/00 RMK AO2
14840KMKG MKG20021119051009811/19/02 05:10:31  5-MIN KMKG 191010Z 00000KT 4SM BR OVC016 04/03 A2989 660 96 -400 000/00 RMK AO2
14840KMKG MKG20021119051509811/19/02 05:15:31  5-MIN KMKG 191015Z 00000KT 4SM BR OVC016 04/03 A2989 660 96 -400 000/00 RMK AO2
14840KMKG MKG20021119052010511/19/02 05:20:31  5-MIN KMKG 191020Z 31003KT 4SM BR BKN014 OVC019 04/03 A2989 660 96 -400 310/03 RMK AO2
14840KMKG MKG20021119052510511/19/02 05:25:31  5-MIN KMKG 191025Z 30003KT 4SM BR BKN014 OVC019 04/03 A2989 650 96 -400 310/03 RMK AO2
14840KMKG MKG20021119053009811/19/02 05:30:31  5-MIN KMKG 191030Z 31004KT 5SM BR OVC014 04/03 A2990 650 96 -400 310/04 RMK AO2
14840KMKG MKG20021119053509811/19/02 05:35:31  5-MIN KMKG 191035Z 30006KT 5SM BR OVC014 04/04 A2990 650 96 -400 310/06 RMK AO2
14840KMKG MKG20021119054009811/19/02 05:40:31  5-MIN KMKG 191040Z 31006KT 5SM BR OVC011 04/03 A2990 650 92 -400 320/06 RMK AO2
14840KMKG MKG20021119054509811/19/02 05:45:31  5-MIN KMKG 191045Z 31005KT 5SM BR OVC011 04/04 A2990 650 96 -400 310/05 RMK AO2
14840KMKG MKG20021119055011511/19/02 05:50:31  5-MIN KMKG 191050Z 30005KT 5SM BR OVC011 04/04 A2990 650 96 -400 310/05 RMK AO2 SLP131 T00440039
14840KMKG MKG20021119055511511/19/02 05:55:31  5-MIN KMKG 191055Z 30005KT 5SM BR OVC011 05/04 A2990 650 92 -300 300/05 RMK AO2 SLP132 T00500039
14840KMKG MKG20021119060009811/19/02 06:00:31  5-MIN KMKG 191100Z 30006KT 6SM BR OVC011 05/04 A2991 640 92 -300 300/06 RMK AO2
14840KMKG MKG20021119060509811/19/02 06:05:31  5-MIN KMKG 191105Z 31005KT 6SM BR OVC011 05/04 A2991 640 92 -300 310/05 RMK AO2
14840KMKG MKG20021119061009811/19/02 06:10:31  5-MIN KMKG 191110Z 31006KT 6SM BR OVC011 05/04 A2990 650 92 -300 310/06 RMK AO2
14840KMKG MKG20021119061509811/19/02 06:15:31  5-MIN KMKG 191115Z 30006KT 6SM BR OVC011 05/04 A2991 640 92 -300 300/06 RMK AO2
14840KMKG MKG20021119062009511/19/02 06:20:31  5-MIN KMKG 191120Z 30005KT 7SM OVC011 05/04 A2991 640 92 -300 310/05 RMK AO2
14840KMKG MKG20021119062510711/19/02 06:25:31  5-MIN KMKG 191125Z 29005KT 7SM OVC011 05/04 A2991 640 92 -300 290/05 RMK AO2 CIG 009V013
14840KMKG MKG20021119063010711/19/02 06:30:31  5-MIN KMKG 191130Z 29005KT 7SM OVC011 05/04 A2991 640 92 -300 300/05 RMK AO2 CIG 009V013
14840KMKG MKG20021119063509511/19/02 06:35:31  5-MIN KMKG 191135Z 30005KT 7SM OVC011 05/04 A2991 640 92 -300 300/05 RMK AO2
14840KMKG MKG20021119064010211/19/02 06:40:31  5-MIN KMKG 191140Z 28007KT 7SM BKN011 OVC018 05/04 A2992 640 92 -300 290/07 RMK AO2
14840KMKG MKG20021119064510211/19/02 06:45:31  5-MIN KMKG 191145Z 29008KT 7SM BKN011 OVC018 05/04 A2992 630 92 -300 300/08 RMK AO2
14840KMKG MKG20021119065013611/19/02 06:50:31  5-MIN KMKG 191150Z 28007KT 8SM OVC015 05/04 A2992 630 92 -300 290/07 RMK AO2 SLP136 60000 T00500039 10050 20033 55008
14840KMKG MKG20021119065513611/19/02 06:55:31  5-MIN KMKG 191155Z 28009KT 8SM OVC013 05/04 A2992 630 92 -300 280/09 RMK AO2 SLP136 60000 T00500039 10050 20033 51017
14840KMKG MKG20021119070009511/19/02 07:00:31  5-MIN KMKG 191200Z 28010KT 8SM OVC013 05/04 A2992 630 92 -300 290/10 RMK AO2
14840KMKG MKG20021119070509511/19/02 07:05:31  5-MIN KMKG 191205Z 28010KT 9SM OVC015 05/03 A2992 630 89 -300 280/10 RMK AO2
14840KMKG MKG20021119071009511/19/02 07:10:31  5-MIN KMKG 191210Z 28008KT 9SM OVC015 05/03 A2992 630 89 -300 280/08 RMK AO2
14840KMKG MKG20021119071509511/19/02 07:15:31  5-MIN KMKG 191215Z 28008KT 9SM OVC015 05/03 A2992 630 89 -300 290/08 RMK AO2
14840KMKG MKG20021119072009511/19/02 07:20:31  5-MIN KMKG 191220Z 27007KT 9SM OVC015 05/03 A2993 620 89 -300 280/07 RMK AO2
14840KMKG MKG20021119072509511/19/02 07:25:31  5-MIN KMKG 191225Z 28009KT 9SM OVC015 05/03 A2993 620 89 -300 280/09 RMK AO2
14840KMKG MKG20021119073009511/19/02 07:30:31  5-MIN KMKG 191230Z 28008KT 9SM OVC013 05/03 A2993 620 89 -400 290/08 RMK AO2
14840KMKG MKG20021119073509511/19/02 07:35:31  5-MIN KMKG 191235Z 27009KT 8SM OVC013 05/03 A2993 620 89 -400 280/09 RMK AO2
14840KMKG MKG20021119074009511/19/02 07:40:31  5-MIN KMKG 191240Z 28008KT 8SM OVC013 05/03 A2993 620 85 -400 290/08 RMK AO2
14840KMKG MKG20021119074509511/19/02 07:45:31  5-MIN KMKG 191245Z 28009KT 8SM OVC013 05/03 A2994 610 85 -400 280/09 RMK AO2
14840KMKG MKG20021119075011211/19/02 07:50:31  5-MIN KMKG 191250Z 28008KT 7SM OVC013 04/03 A2995 610 89 -400 280/08 RMK AO2 SLP146 T00440028
14840KMKG MKG20021119075511211/19/02 07:55:31  5-MIN KMKG 191255Z 27009KT 7SM OVC013 05/03 A2995 610 85 -400 280/09 RMK AO2 SLP146 T00500028
14840KMKG MKG20021119080009811/19/02 08:00:31  5-MIN KMKG 191300Z 28007KT 6SM BR OVC013 05/03 A2995 610 85 -400 280/07 RMK AO2
14840KMKG MKG20021119080509811/19/02 08:05:31  5-MIN KMKG 191305Z 27006KT 5SM BR OVC013 04/03 A2994 610 89 -400 280/06 RMK AO2
14840KMKG MKG20021119081009811/19/02 08:10:31  5-MIN KMKG 191310Z 27006KT 5SM BR BKN013 04/03 A2995 610 89 -400 280/06 RMK AO2
14840KMKG MKG20021119081509811/19/02 08:15:31  5-MIN KMKG 191315Z 27007KT 5SM BR BKN015 04/03 A2995 600 89 -400 270/07 RMK AO2
14840KMKG MKG20021119082009811/19/02 08:20:31  5-MIN KMKG 191320Z 27006KT 5SM BR BKN015 04/03 A2995 600 89 -400 270/06 RMK AO2
14840KMKG MKG20021119082509811/19/02 08:25:31  5-MIN KMKG 191325Z 27007KT 5SM BR BKN015 04/03 A2996 600 89 -400 280/07 RMK AO2
14840KMKG MKG20021119083009811/19/02 08:30:31  5-MIN KMKG 191330Z 26006KT 5SM BR BKN015 05/03 A2996 600 85 -400 270/06 RMK AO2
14840KMKG MKG20021119083509811/19/02 08:35:31  5-MIN KMKG 191335Z 26008KT 5SM BR BKN015 05/03 A2996 600 85 -400 270/08 RMK AO2
14840KMKG MKG20021119084009811/19/02 08:40:31  5-MIN KMKG 191340Z 26007KT 5SM BR BKN015 05/03 A2996 590 85 -400 270/07 RMK AO2
14840KMKG MKG20021119084509811/19/02 08:45:31  5-MIN KMKG 191345Z 26005KT 5SM BR BKN015 05/03 A2996 590 85 -400 260/05 RMK AO2
14840KMKG MKG20021119085011511/19/02 08:50:31  5-MIN KMKG 191350Z 26006KT 5SM BR BKN015 05/03 A2996 590 85 -400 260/06 RMK AO2 SLP151 T00500028
14840KMKG MKG20021119085511511/19/02 08:55:31  5-MIN KMKG 191355Z 25008KT 5SM BR BKN015 05/03 A2996 590 89 -400 260/08 RMK AO2 SLP152 T00500033
14840KMKG MKG20021119090009811/19/02 09:00:31  5-MIN KMKG 191400Z 25008KT 5SM BR BKN015 05/03 A2996 590 85 -400 250/08 RMK AO2
14840KMKG MKG20021119090509811/19/02 09:05:31  5-MIN KMKG 191405Z 24008KT 5SM BR BKN015 06/03 A2997 590 85 -300 250/08 RMK AO2
14840KMKG MKG20021119091009811/19/02 09:10:31  5-MIN KMKG 191410Z 24007KT 5SM HZ SCT015 06/03 A2997 590 82 -300 250/07 RMK AO2
14840KMKG MKG20021119091509811/19/02 09:15:31  5-MIN KMKG 191415Z 25009KT 5SM HZ SCT015 06/03 A2997 580 82 -300 250/09 RMK AO2
14840KMKG MKG20021119092009811/19/02 09:20:31  5-MIN KMKG 191420Z 25009KT 5SM HZ FEW015 06/03 A2997 580 82 -300 250/09 RMK AO2
14840KMKG MKG20021119092509811/19/02 09:25:31  5-MIN KMKG 191425Z 26007KT 5SM HZ FEW015 06/03 A2997 580 79 -300 260/07 RMK AO2
14840KMKG MKG20021119093009811/19/02 09:30:31  5-MIN KMKG 191430Z 25006KT 5SM HZ FEW015 06/03 A2997 580 79 -300 250/06 RMK AO2
14840KMKG MKG20021119093509811/19/02 09:35:31  5-MIN KMKG 191435Z 25009KT 5SM HZ FEW015 06/03 A2997 580 82 -300 250/09 RMK AO2
14840KMKG MKG20021119094009511/19/02 09:40:31  5-MIN KMKG 191440Z 24008KT 5SM HZ CLR 07/03 A2997 590 79 -200 250/08 RMK AO2
14840KMKG MKG20021119094509511/19/02 09:45:31  5-MIN KMKG 191445Z 22008KT 5SM HZ CLR 06/03 A2997 590 82 -300 220/08 RMK AO2
14840KMKG MKG20021119095011811/19/02 09:50:31  5-MIN KMKG 191450Z 23009KT 5SM HZ CLR 07/03 A2997 590 79 -200 240/09 RMK AO2 SLP152 T00670033 51017
14840KMKG MKG20021119095511811/19/02 09:55:31  5-MIN KMKG 191455Z 24010KT 5SM HZ CLR 07/03 A2997 590 79 -200 240/10 RMK AO2 SLP153 T00670033 51018
14840KMKG MKG20021119100009511/19/02 10:00:31  5-MIN KMKG 191500Z 23007KT 5SM HZ CLR 07/03 A2997 590 79 -200 240/07 RMK AO2
14840KMKG MKG20021119100509511/19/02 10:05:31  5-MIN KMKG 191505Z 22011KT 5SM HZ CLR 07/04 A2997 590 79 -100 220/11 RMK AO2
14840KMKG MKG20021119101009511/19/02 10:10:31  5-MIN KMKG 191510Z 21011KT 5SM HZ CLR 07/04 A2997 580 79 -100 220/11 RMK AO2
14840KMKG MKG20021119101509511/19/02 10:15:31  5-MIN KMKG 191515Z 22013KT 5SM HZ CLR 07/04 A2997 580 79 -100 220/13 RMK AO2
14840KMKG MKG20021119102009511/19/02 10:20:31  5-MIN KMKG 191520Z 22013KT 5SM HZ CLR 07/04 A2998 580 79 -100 220/13 RMK AO2
14840KMKG MKG20021119102509511/19/02 10:25:31  5-MIN KMKG 191525Z 22013KT 5SM HZ CLR 07/04 A2998 580 79 -100 220/13 RMK AO2
14840KMKG MKG20021119103009511/19/02 10:30:31  5-MIN KMKG 191530Z 22015KT 5SM HZ CLR 07/04 A2998 570 79 -100 220/15 RMK AO2
14840KMKG MKG20021119103509511/19/02 10:35:31  5-MIN KMKG 191535Z 22015KT 5SM HZ CLR 07/04 A2998 570 79 -100 220/15 RMK AO2
14840KMKG MKG20021119104009511/19/02 10:40:31  5-MIN KMKG 191540Z 22013KT 5SM HZ CLR 07/04 A2998 570 82 -100 220/13 RMK AO2
14840KMKG MKG20021119104509511/19/02 10:45:31  5-MIN KMKG 191545Z 22014KT 5SM HZ CLR 08/04 A2998 580 79 -100 230/14 RMK AO2
14840KMKG MKG20021119105011511/19/02 10:50:31  5-MIN KMKG 191550Z 23013KT 6SM HZ FEW015 08/04 A2998 570 79 -100 230/13 RMK AO2 SLP158 T00780044
14840KMKG MKG20021119105511511/19/02 10:55:31  5-MIN KMKG 191555Z 22013KT 6SM HZ FEW015 08/04 A2999 570 79 -100 220/13 RMK AO2 SLP158 T00780044
14840KMKG MKG20021119110009211/19/02 11:00:31  5-MIN KMKG 191600Z 21014KT 6SM HZ CLR 08/05 A2998 570 79 0 210/14 RMK AO2
14840KMKG MKG20021119110509511/19/02 11:05:31  5-MIN KMKG 191605Z 21013KT 6SM HZ CLR 08/04 A2998 570 79 -100 210/13 RMK AO2
14840KMKG MKG20021119111009211/19/02 11:10:31  5-MIN KMKG 191610Z 21015KT 6SM HZ CLR 08/05 A2998 570 79 0 210/15 RMK AO2
14840KMKG MKG20021119111508911/19/02 11:15:31  5-MIN KMKG 191615Z 21013KT 7SM CLR 08/05 A2998 570 79 0 210/13 RMK AO2
14840KMKG MKG20021119112008911/19/02 11:20:31  5-MIN KMKG 191620Z 21014KT 7SM CLR 08/05 A2998 570 79 0 210/14 RMK AO2
14840KMKG MKG20021119112508911/19/02 11:25:31  5-MIN KMKG 191625Z 21014KT 7SM CLR 08/05 A2998 580 79 0 220/14 RMK AO2
14840KMKG MKG20021119113008911/19/02 11:30:31  5-MIN KMKG 191630Z 21013KT 7SM CLR 08/05 A2998 580 79 0 220/13 RMK AO2
14840KMKG MKG20021119113508911/19/02 11:35:31  5-MIN KMKG 191635Z 21014KT 7SM CLR 09/05 A2998 580 76 0 220/14 RMK AO2
14840KMKG MKG20021119114008911/19/02 11:40:31  5-MIN KMKG 191640Z 22014KT 8SM CLR 09/05 A2997 580 76 0 220/14 RMK AO2
14840KMKG MKG20021119114508911/19/02 11:45:31  5-MIN KMKG 191645Z 21017KT 8SM CLR 09/05 A2998 580 76 0 210/17 RMK AO2
14840KMKG MKG20021119115010611/19/02 11:50:31  5-MIN KMKG 191650Z 20016KT 8SM CLR 09/05 A2997 580 76 0 210/16 RMK AO2 SLP154 T00890050
14840KMKG MKG20021119115510611/19/02 11:55:31  5-MIN KMKG 191655Z 21014KT 8SM CLR 09/05 A2997 580 76 0 210/14 RMK AO2 SLP154 T00890050
14840KMKG MKG20021119120009111/19/02 12:00:31  5-MIN KMKG 191700Z 21016KT 9SM CLR 09/05 A2997 580 74 100 210/16 RMK AO2
14840KMKG MKG20021119120509111/19/02 12:05:31  5-MIN KMKG 191705Z 21017KT 9SM CLR 09/05 A2997 590 74 100 210/17 RMK AO2
14840KMKG MKG20021119121009111/19/02 12:10:31  5-MIN KMKG 191710Z 21015KT 9SM CLR 09/05 A2996 590 74 100 210/15 RMK AO2
14840KMKG MKG20021119121509811/19/02 12:15:31  5-MIN KMKG 191715Z 21018G22KT 10SM CLR 09/05 A2996 590 74 100 210/18G22 RMK AO2
14840KMKG MKG20021119122009811/19/02 12:20:31  5-MIN KMKG 191720Z 19014G22KT 10SM CLR 09/05 A2996 590 74 100 200/14G22 RMK AO2
14840KMKG MKG20021119122509811/19/02 12:25:31  5-MIN KMKG 191725Z 20014G20KT 10SM CLR 09/05 A2996 590 74 100 200/14G20 RMK AO2
14840KMKG MKG20021119123009811/19/02 12:30:31  5-MIN KMKG 191730Z 21016G20KT 10SM CLR 09/05 A2996 600 74 100 210/16G20 RMK AO2
14840KMKG MKG20021119123509211/19/02 12:35:31  5-MIN KMKG 191735Z 19016KT 10SM CLR 09/05 A2995 600 74 100 200/16 RMK AO2
14840KMKG MKG20021119124009211/19/02 12:40:31  5-MIN KMKG 191740Z 21013KT 10SM CLR 10/05 A2995 600 71 200 210/13 RMK AO2
14840KMKG MKG20021119124509211/19/02 12:45:31  5-MIN KMKG 191745Z 19018KT 10SM CLR 10/05 A2995 600 71 200 200/18 RMK AO2
14840KMKG MKG20021119125013311/19/02 12:50:31  5-MIN KMKG 191750Z 20016G24KT 10SM CLR 09/04 A2995 610 71 100 210/16G24 RMK AO2 SLP145 T00940044 10100 20044 51018
14840KMKG MKG20021119125513311/19/02 12:55:31  5-MIN KMKG 191755Z 21016G24KT 10SM CLR 10/04 A2994 610 68 200 210/16G24 RMK AO2 SLP143 T01000044 10100 20044 58008
14840KMKG MKG20021119130009211/19/02 13:00:31  5-MIN KMKG 191800Z 20014KT 10SM CLR 10/04 A2994 610 68 200 200/14 RMK AO2
14840KMKG MKG20021119130509211/19/02 13:05:31  5-MIN KMKG 191805Z 20013KT 10SM CLR 10/05 A2994 610 71 200 200/13 RMK AO2
14840KMKG MKG20021119131009211/19/02 13:10:31  5-MIN KMKG 191810Z 19017KT 10SM CLR 10/04 A2993 620 68 200 200/17 RMK AO2
14840KMKG MKG20021119131509211/19/02 13:15:31  5-MIN KMKG 191815Z 20017KT 10SM CLR 10/05 A2993 620 71 200 200/17 RMK AO2
14840KMKG MKG20021119132009811/19/02 13:20:31  5-MIN KMKG 191820Z 21014G20KT 10SM CLR 10/04 A2993 620 68 200 210/14G20 RMK AO2
14840KMKG MKG20021119132509811/19/02 13:25:31  5-MIN KMKG 191825Z 20017G20KT 10SM CLR 10/04 A2993 620 68 200 200/17G20 RMK AO2
14840KMKG MKG20021119133009211/19/02 13:30:31  5-MIN KMKG 191830Z 20013KT 10SM CLR 10/05 A2993 620 71 200 200/13 RMK AO2
14840KMKG MKG20021119133509211/19/02 13:35:31  5-MIN KMKG 191835Z 19015KT 10SM CLR 10/04 A2992 630 68 200 200/15 RMK AO2
14840KMKG MKG20021119134009211/19/02 13:40:31  5-MIN KMKG 191840Z 20014KT 10SM CLR 10/04 A2993 620 68 200 210/14 RMK AO2
14840KMKG MKG20021119134509211/19/02 13:45:31  5-MIN KMKG 191845Z 20015KT 10SM CLR 11/05 A2992 630 68 300 210/15 RMK AO2
14840KMKG MKG20021119135010911/19/02 13:50:31  5-MIN KMKG 191850Z 20015KT 10SM CLR 10/05 A2992 630 71 200 210/15 RMK AO2 SLP135 T01000050
14840KMKG MKG20021119135511511/19/02 13:55:31  5-MIN KMKG 191855Z 20018G21KT 10SM CLR 11/05 A2992 630 68 300 210/18G21 RMK AO2 SLP135 T01060050
14840KMKG MKG20021119140009211/19/02 14:00:31  5-MIN KMKG 191900Z 20014KT 10SM CLR 11/05 A2992 630 68 300 210/14 RMK AO2
14840KMKG MKG20021119140509811/19/02 14:05:31  5-MIN KMKG 191905Z 21017G21KT 10SM CLR 11/05 A2992 630 68 300 210/17G21 RMK AO2
14840KMKG MKG20021119141009811/19/02 14:10:31  5-MIN KMKG 191910Z 20016G23KT 10SM CLR 11/05 A2992 630 68 300 200/16G23 RMK AO2
14840KMKG MKG20021119141509811/19/02 14:15:31  5-MIN KMKG 191915Z 21017G23KT 10SM CLR 11/05 A2992 640 68 300 210/17G23 RMK AO2
14840KMKG MKG20021119142009211/19/02 14:20:31  5-MIN KMKG 191920Z 20018KT 10SM CLR 11/05 A2991 640 68 300 200/18 RMK AO2
14840KMKG MKG20021119142509811/19/02 14:25:31  5-MIN KMKG 191925Z 21014G21KT 10SM CLR 11/05 A2991 640 68 300 210/14G21 RMK AO2
14840KMKG MKG20021119143009211/19/02 14:30:31  5-MIN KMKG 191930Z 20015KT 10SM CLR 11/05 A2991 640 68 300 210/15 RMK AO2
14840KMKG MKG20021119143509211/19/02 14:35:31  5-MIN KMKG 191935Z 21016KT 10SM CLR 11/05 A2991 640 68 300 210/16 RMK AO2
14840KMKG MKG20021119144009211/19/02 14:40:31  5-MIN KMKG 191940Z 21015KT 10SM CLR 11/05 A2991 640 68 300 210/15 RMK AO2
14840KMKG MKG20021119144509211/19/02 14:45:31  5-MIN KMKG 191945Z 20020KT 10SM CLR 11/05 A2991 640 68 300 210/20 RMK AO2
14840KMKG MKG20021119145010911/19/02 14:50:31  5-MIN KMKG 191950Z 21020KT 10SM CLR 11/05 A2991 640 68 300 210/20 RMK AO2 SLP133 T01060050
14840KMKG MKG20021119145510911/19/02 14:55:31  5-MIN KMKG 191955Z 21014KT 10SM CLR 11/05 A2991 640 68 300 210/14 RMK AO2 SLP132 T01060050
14840KMKG MKG20021119150009811/19/02 15:00:31  5-MIN KMKG 192000Z 21016G21KT 10SM CLR 11/05 A2991 640 68 300 210/16G21 RMK AO2
14840KMKG MKG20021119150509811/19/02 15:05:31  5-MIN KMKG 192005Z 20017G22KT 10SM CLR 10/05 A2991 640 71 200 210/17G22 RMK AO2
14840KMKG MKG20021119151009211/19/02 15:10:31  5-MIN KMKG 192010Z 21020KT 10SM CLR 10/04 A2991 640 68 200 210/20 RMK AO2
14840KMKG MKG20021119151509811/19/02 15:15:31  5-MIN KMKG 192015Z 20019G25KT 10SM CLR 10/04 A2991 640 68 200 210/19G25 RMK AO2
14840KMKG MKG20021119152009811/19/02 15:20:31  5-MIN KMKG 192020Z 21018G25KT 10SM CLR 10/04 A2991 640 68 200 210/18G25 RMK AO2
14840KMKG MKG20021119152509211/19/02 15:25:31  5-MIN KMKG 192025Z 21019KT 10SM CLR 10/04 A2991 640 68 200 210/19 RMK AO2
14840KMKG MKG20021119153009211/19/02 15:30:31  5-MIN KMKG 192030Z 21018KT 10SM CLR 10/04 A2991 640 68 200 220/18 RMK AO2
14840KMKG MKG20021119153509811/19/02 15:35:31  5-MIN KMKG 192035Z 21018G23KT 10SM CLR 10/04 A2991 640 68 200 210/18G23 RMK AO2
14840KMKG MKG20021119154009811/19/02 15:40:31  5-MIN KMKG 192040Z 21018G23KT 10SM CLR 10/04 A2991 640 68 200 210/18G23 RMK AO2
14840KMKG MKG20021119154509211/19/02 15:45:31  5-MIN KMKG 192045Z 21015KT 10SM CLR 10/04 A2991 640 68 200 210/15 RMK AO2
14840KMKG MKG20021119155011511/19/02 15:50:31  5-MIN KMKG 192050Z 21015KT 10SM CLR 10/04 A2991 640 68 200 210/15 RMK AO2 SLP133 T01000044 58008
14840KMKG MKG20021119155512111/19/02 15:55:31  5-MIN KMKG 192055Z 20017G22KT 10SM CLR 09/04 A2991 640 71 200 210/17G22 RMK AO2 SLP132 T00940044 56011
14840KMKG MKG20021119160009811/19/02 16:00:31  5-MIN KMKG 192100Z 21017G22KT 10SM CLR 09/05 A2991 640 74 200 210/17G22 RMK AO2
14840KMKG MKG20021119160509211/19/02 16:05:31  5-MIN KMKG 192105Z 21017KT 10SM CLR 09/05 A2991 640 74 200 210/17 RMK AO2
14840KMKG MKG20021119161009211/19/02 16:10:31  5-MIN KMKG 192110Z 21015KT 10SM CLR 09/05 A2991 640 74 200 210/15 RMK AO2
14840KMKG MKG20021119161509211/19/02 16:15:31  5-MIN KMKG 192115Z 21017KT 10SM CLR 09/05 A2991 640 74 200 220/17 RMK AO2
14840KMKG MKG20021119162009811/19/02 16:20:31  5-MIN KMKG 192120Z 21019G24KT 10SM CLR 09/05 A2992 630 74 200 220/19G24 RMK AO2
14840KMKG MKG20021119162509811/19/02 16:25:31  5-MIN KMKG 192125Z 21018G24KT 10SM CLR 09/05 A2992 630 74 200 210/18G24 RMK AO2
14840KMKG MKG20021119163009811/19/02 16:30:31  5-MIN KMKG 192130Z 21016G24KT 10SM CLR 09/05 A2992 630 74 200 210/16G24 RMK AO2
14840KMKG MKG20021119163509811/19/02 16:35:31  5-MIN KMKG 192135Z 21018G24KT 10SM CLR 09/05 A2992 630 74 200 210/18G24 RMK AO2
14840KMKG MKG20021119164009211/19/02 16:40:31  5-MIN KMKG 192140Z 21018KT 10SM CLR 09/05 A2992 630 74 200 220/18 RMK AO2
14840KMKG MKG20021119164509211/19/02 16:45:31  5-MIN KMKG 192145Z 21017KT 10SM CLR 09/05 A2992 630 74 200 220/17 RMK AO2
14840KMKG MKG20021119165011511/19/02 16:50:31  5-MIN KMKG 192150Z 21019G25KT 10SM CLR 09/05 A2992 630 74 200 210/19G25 RMK AO2 SLP135 T00940050
14840KMKG MKG20021119165511511/19/02 16:55:31  5-MIN KMKG 192155Z 21015G25KT 10SM CLR 09/05 A2992 630 74 200 210/15G25 RMK AO2 SLP136 T00940050
14840KMKG MKG20021119170009811/19/02 17:00:31  5-MIN KMKG 192200Z 21018G23KT 10SM CLR 09/05 A2992 630 74 200 220/18G23 RMK AO2
14840KMKG MKG20021119170509811/19/02 17:05:31  5-MIN KMKG 192205Z 21018G23KT 10SM CLR 09/05 A2992 630 74 200 220/18G23 RMK AO2
14840KMKG MKG20021119171009811/19/02 17:10:31  5-MIN KMKG 192210Z 21017G23KT 10SM CLR 09/05 A2992 630 74 200 220/17G23 RMK AO2
14840KMKG MKG20021119171509811/19/02 17:15:31  5-MIN KMKG 192215Z 21017G25KT 10SM CLR 09/05 A2992 630 74 200 220/17G25 RMK AO2
14840KMKG MKG20021119172009811/19/02 17:20:31  5-MIN KMKG 192220Z 21017G25KT 10SM CLR 09/05 A2992 630 74 100 210/17G25 RMK AO2
14840KMKG MKG20021119172509211/19/02 17:25:31  5-MIN KMKG 192225Z 21019KT 10SM CLR 09/05 A2993 630 74 100 220/19 RMK AO2
14840KMKG MKG20021119173009211/19/02 17:30:31  5-MIN KMKG 192230Z 21017KT 10SM CLR 09/05 A2993 630 74 100 210/17 RMK AO2
14840KMKG MKG20021119173509211/19/02 17:35:31  5-MIN KMKG 192235Z 21017KT 10SM CLR 09/05 A2993 620 74 100 210/17 RMK AO2
14840KMKG MKG20021119174009211/19/02 17:40:31  5-MIN KMKG 192240Z 21019KT 10SM CLR 09/05 A2993 620 74 100 220/19 RMK AO2
14840KMKG MKG20021119174509811/19/02 17:45:31  5-MIN KMKG 192245Z 22019G23KT 10SM CLR 09/05 A2993 620 74 100 220/19G23 RMK AO2
14840KMKG MKG20021119175011511/19/02 17:50:31  5-MIN KMKG 192250Z 21020G24KT 10SM CLR 09/05 A2993 620 74 100 220/20G24 RMK AO2 SLP139 T00940050
14840KMKG MKG20021119175511511/19/02 17:55:31  5-MIN KMKG 192255Z 22018G24KT 10SM CLR 09/05 A2993 620 74 100 220/18G24 RMK AO2 SLP140 T00940050
14840KMKG MKG20021119180009811/19/02 18:00:31  5-MIN KMKG 192300Z 22017G22KT 10SM CLR 09/06 A2994 620 76 100 220/17G22 RMK AO2
14840KMKG MKG20021119180509811/19/02 18:05:31  5-MIN KMKG 192305Z 21017G22KT 10SM CLR 09/05 A2994 620 74 100 220/17G22 RMK AO2
14840KMKG MKG20021119181009811/19/02 18:10:31  5-MIN KMKG 192310Z 22017G25KT 10SM CLR 09/06 A2994 610 76 100 220/17G25 RMK AO2
14840KMKG MKG20021119181509811/19/02 18:15:31  5-MIN KMKG 192315Z 22018G25KT 10SM CLR 09/06 A2994 610 76 100 220/18G25 RMK AO2
14840KMKG MKG20021119182009811/19/02 18:20:31  5-MIN KMKG 192320Z 22016G23KT 10SM CLR 09/06 A2994 610 76 100 220/16G23 RMK AO2
14840KMKG MKG20021119182509211/19/02 18:25:31  5-MIN KMKG 192325Z 22015KT 10SM CLR 09/06 A2994 610 76 100 220/15 RMK AO2
14840KMKG MKG20021119183009811/19/02 18:30:31  5-MIN KMKG 192330Z 22017G21KT 10SM CLR 09/06 A2995 610 76 100 220/17G21 RMK AO2
14840KMKG MKG20021119183509811/19/02 18:35:31  5-MIN KMKG 192335Z 22017G21KT 10SM CLR 09/06 A2995 610 76 100 230/17G21 RMK AO2
14840KMKG MKG20021119184009811/19/02 18:40:31  5-MIN KMKG 192340Z 23016G23KT 10SM CLR 10/06 A2995 600 74 200 230/16G23 RMK AO2
14840KMKG MKG20021119184509811/19/02 18:45:31  5-MIN KMKG 192345Z 23016G24KT 10SM CLR 10/06 A2995 600 74 200 230/16G24 RMK AO2
14840KMKG MKG20021119185013311/19/02 18:50:31  5-MIN KMKG 192350Z 22016G24KT 10SM CLR 10/06 A2995 600 74 200 230/16G24 RMK AO2 SLP146 T01000056 10106 20094 56011
14840KMKG MKG20021119185513311/19/02 18:55:31  5-MIN KMKG 192355Z 24018G24KT 10SM CLR 10/06 A2995 600 74 200 240/18G24 RMK AO2 SLP147 T01000056 10106 20094 53014
14840KMKG MKG20021119190009811/19/02 19:00:31  5-MIN KMKG 200000Z 23013G24KT 10SM CLR 10/06 A2995 600 74 200 240/13G24 RMK AO2
14840KMKG MKG20021119190509811/19/02 19:05:31  5-MIN KMKG 200005Z 23014G21KT 10SM CLR 10/06 A2995 600 74 200 240/14G21 RMK AO2
14840KMKG MKG20021119191009811/19/02 19:10:31  5-MIN KMKG 200010Z 24014G21KT 10SM CLR 10/06 A2996 600 74 200 240/14G21 RMK AO2
14840KMKG MKG20021119191509811/19/02 19:15:31  5-MIN KMKG 200015Z 24013G19KT 10SM CLR 10/06 A2996 600 74 200 240/13G19 RMK AO2
14840KMKG MKG20021119192009811/19/02 19:20:31  5-MIN KMKG 200020Z 24014G21KT 10SM CLR 10/06 A2996 600 74 200 240/14G21 RMK AO2
14840KMKG MKG20021119192509811/19/02 19:25:31  5-MIN KMKG 200025Z 24013G21KT 10SM CLR 10/06 A2996 600 74 200 240/13G21 RMK AO2
14840KMKG MKG20021119193009211/19/02 19:30:31  5-MIN KMKG 200030Z 24011KT 10SM CLR 10/06 A2996 600 77 200 240/11 RMK AO2
14840KMKG MKG20021119193509211/19/02 19:35:31  5-MIN KMKG 200035Z 24012KT 10SM CLR 10/06 A2996 590 77 200 240/12 RMK AO2
14840KMKG MKG20021119194009211/19/02 19:40:31  5-MIN KMKG 200040Z 24010KT 10SM CLR 10/06 A2996 590 77 200 240/10 RMK AO2
14840KMKG MKG20021119194509211/19/02 19:45:31  5-MIN KMKG 200045Z 24012KT 10SM CLR 10/06 A2996 590 77 200 250/12 RMK AO2
14840KMKG MKG20021119195010911/19/02 19:50:31  5-MIN KMKG 200050Z 24010KT 10SM CLR 10/06 A2996 590 77 200 240/10 RMK AO2 SLP149 T01000061
14840KMKG MKG20021119195510911/19/02 19:55:31  5-MIN KMKG 200055Z 24011KT 10SM CLR 10/06 A2996 590 77 200 240/11 RMK AO2 SLP149 T01000061
14840KMKG MKG20021119200009211/19/02 20:00:31  5-MIN KMKG 200100Z 24011KT 10SM CLR 09/06 A2996 590 79 100 250/11 RMK AO2
14840KMKG MKG20021119200509211/19/02 20:05:31  5-MIN KMKG 200105Z 24010KT 10SM CLR 10/06 A2996 590 77 200 250/10 RMK AO2
14840KMKG MKG20021119201009811/19/02 20:10:31  5-MIN KMKG 200110Z 25012G17KT 10SM CLR 10/06 A2996 590 77 200 250/12G17 RMK AO2
14840KMKG MKG20021119201509811/19/02 20:15:31  5-MIN KMKG 200115Z 24011G17KT 10SM CLR 09/06 A2996 590 76 100 250/11G17 RMK AO2
14840KMKG MKG20021119202009811/19/02 20:20:31  5-MIN KMKG 200120Z 25011G16KT 10SM CLR 09/06 A2996 590 76 100 250/11G16 RMK AO2
14840KMKG MKG20021119202509211/19/02 20:25:31  5-MIN KMKG 200125Z 25011KT 10SM CLR 09/06 A2996 590 76 100 250/11 RMK AO2
14840KMKG MKG20021119203009211/19/02 20:30:31  5-MIN KMKG 200130Z 25012KT 10SM CLR 09/06 A2996 590 76 100 250/12 RMK AO2
14840KMKG MKG20021119203509811/19/02 20:35:31  5-MIN KMKG 200135Z 25015G22KT 10SM CLR 09/06 A2996 590 76 100 260/15G22 RMK AO2
14840KMKG MKG20021119204009811/19/02 20:40:31  5-MIN KMKG 200140Z 25012G22KT 10SM CLR 09/05 A2996 590 74 100 250/12G22 RMK AO2
14840KMKG MKG20021119204509811/19/02 20:45:31  5-MIN KMKG 200145Z 25014G20KT 10SM CLR 09/05 A2997 590 74 100 260/14G20 RMK AO2
14840KMKG MKG20021119205011511/19/02 20:50:31  5-MIN KMKG 200150Z 26012G20KT 10SM CLR 09/05 A2997 590 74 100 260/12G20 RMK AO2 SLP151 T00940050
14840KMKG MKG20021119205511511/19/02 20:55:31  5-MIN KMKG 200155Z 25013G20KT 10SM CLR 09/05 A2996 590 74 100 260/13G20 RMK AO2 SLP151 T00940050
14840KMKG MKG20021119210009811/19/02 21:00:31  5-MIN KMKG 200200Z 26014G20KT 10SM CLR 09/05 A2997 590 74 100 260/14G20 RMK AO2
14840KMKG MKG20021119210509811/19/02 21:05:31  5-MIN KMKG 200205Z 26014G20KT 10SM CLR 09/04 A2997 590 71 100 260/14G20 RMK AO2
14840KMKG MKG20021119211009811/19/02 21:10:31  5-MIN KMKG 200210Z 26014G20KT 10SM CLR 09/04 A2997 590 71 100 270/14G20 RMK AO2
14840KMKG MKG20021119211509811/19/02 21:15:31  5-MIN KMKG 200215Z 26014G21KT 10SM CLR 09/04 A2997 590 71 100 260/14G21 RMK AO2
14840KMKG MKG20021119212009811/19/02 21:20:31  5-MIN KMKG 200220Z 26013G21KT 10SM CLR 09/04 A2997 590 71 100 270/13G21 RMK AO2
14840KMKG MKG20021119212509211/19/02 21:25:31  5-MIN KMKG 200225Z 26014KT 10SM CLR 09/04 A2997 590 71 100 270/14 RMK AO2
14840KMKG MKG20021119213009011/19/02 21:30:31  5-MIN KMKG 200230Z 26012KT 10SM CLR 09/04 A2997 580 73 0 270/12 RMK AO2
14840KMKG MKG20021119213509011/19/02 21:35:31  5-MIN KMKG 200235Z 26013KT 10SM CLR 09/04 A2997 580 73 0 260/13 RMK AO2
14840KMKG MKG20021119214009011/19/02 21:40:31  5-MIN KMKG 200240Z 26011KT 10SM CLR 09/04 A2997 580 73 0 260/11 RMK AO2
14840KMKG MKG20021119214509611/19/02 21:45:31  5-MIN KMKG 200245Z 26011G17KT 10SM CLR 09/06 A2997 580 79 0 260/11G17 RMK AO2
14840KMKG MKG20021119215011911/19/02 21:50:31  5-MIN KMKG 200250Z 26012G17KT 10SM CLR 09/06 A2997 580 79 0 260/12G17 RMK AO2 SLP154 T00890056 53014
14840KMKG MKG20021119215511911/19/02 21:55:31  5-MIN KMKG 200255Z 26014G17KT 10SM CLR 09/04 A2998 580 71 0 260/14G17 RMK AO2 SLP154 T00890039 53007
14840KMKG MKG20021119220009011/19/02 22:00:31  5-MIN KMKG 200300Z 26013KT 10SM CLR 09/04 A2998 580 71 0 260/13 RMK AO2
14840KMKG MKG20021119220509611/19/02 22:05:31  5-MIN KMKG 200305Z 26012G18KT 10SM CLR 09/04 A2998 580 71 0 260/12G18 RMK AO2
14840KMKG MKG20021119221009611/19/02 22:10:31  5-MIN KMKG 200310Z 26013G18KT 10SM CLR 09/04 A2998 580 71 0 260/13G18 RMK AO2
14840KMKG MKG20021119221509011/19/02 22:15:31  5-MIN KMKG 200315Z 26013KT 10SM CLR 09/04 A2998 580 71 0 270/13 RMK AO2
14840KMKG MKG20021119222009011/19/02 22:20:31  5-MIN KMKG 200320Z 26011KT 10SM CLR 09/04 A2998 580 73 0 270/11 RMK AO2
14840KMKG MKG20021119222509011/19/02 22:25:31  5-MIN KMKG 200325Z 26011KT 10SM CLR 09/04 A2998 570 73 0 260/11 RMK AO2
14840KMKG MKG20021119223009011/19/02 22:30:31  5-MIN KMKG 200330Z 26011KT 10SM CLR 08/04 A2998 570 76 0 270/11 RMK AO2
14840KMKG MKG20021119223509011/19/02 22:35:31  5-MIN KMKG 200335Z 27012KT 10SM CLR 08/04 A2999 570 73 0 270/12 RMK AO2
14840KMKG MKG20021119224009011/19/02 22:40:31  5-MIN KMKG 200340Z 27012KT 10SM CLR 08/04 A2999 570 76 0 270/12 RMK AO2
14840KMKG MKG20021119224509011/19/02 22:45:31  5-MIN KMKG 200345Z 26011KT 10SM CLR 08/04 A2998 570 76 0 270/11 RMK AO2
14840KMKG MKG20021119225010711/19/02 22:50:31  5-MIN KMKG 200350Z 26011KT 10SM CLR 08/04 A2998 570 73 0 270/11 RMK AO2 SLP157 T00830039
14840KMKG MKG20021119225510711/19/02 22:55:31  5-MIN KMKG 200355Z 27012KT 10SM CLR 08/04 A2999 570 73 0 270/12 RMK AO2 SLP158 T00830039
14840KMKG MKG20021119230009011/19/02 23:00:31  5-MIN KMKG 200400Z 26010KT 10SM CLR 08/04 A2999 570 73 0 260/10 RMK AO2
14840KMKG MKG20021119230509011/19/02 23:05:31  5-MIN KMKG 200405Z 26010KT 10SM CLR 08/04 A2999 570 73 0 260/10 RMK AO2
14840KMKG MKG20021119231009011/19/02 23:10:31  5-MIN KMKG 200410Z 26010KT 10SM CLR 08/04 A2999 570 73 0 260/10 RMK AO2
14840KMKG MKG20021119231509011/19/02 23:15:31  5-MIN KMKG 200415Z 26010KT 10SM CLR 08/04 A2999 570 73 0 260/10 RMK AO2
14840KMKG MKG20021119232009011/19/02 23:20:31  5-MIN KMKG 200420Z 26009KT 10SM CLR 08/04 A2999 560 73 0 260/09 RMK AO2
14840KMKG MKG20021119232509011/19/02 23:25:31  5-MIN KMKG 200425Z 25009KT 10SM CLR 08/04 A2999 560 73 0 260/09 RMK AO2
14840KMKG MKG20021119233009011/19/02 23:30:31  5-MIN KMKG 200430Z 26011KT 10SM CLR 08/04 A3000 560 73 0 270/11 RMK AO2
14840KMKG MKG20021119233509011/19/02 23:35:31  5-MIN KMKG 200435Z 27010KT 10SM CLR 08/04 A3000 560 73 0 270/10 RMK AO2
14840KMKG MKG20021119234009311/19/02 23:40:31  5-MIN KMKG 200440Z 26009KT 10SM CLR 08/04 A3000 560 76 -100 260/09 RMK AO2
14840KMKG MKG20021119234509311/19/02 23:45:31  5-MIN KMKG 200445Z 26008KT 10SM CLR 08/04 A3000 560 76 -100 260/08 RMK AO2
14840KMKG MKG20021119235012011/19/02 23:50:31  5-MIN KMKG 200450Z 27010KT 10SM CLR 08/04 A3000 560 76 -100 270/10 RMK AO2 SLP161 T00780039 401060033
14840KMKG MKG20021119235512011/19/02 23:55:31  5-MIN KMKG 200455Z 26008KT 10SM CLR 08/04 A3000 560 76 -100 260/08 RMK AO2 SLP162 T00780039 401060033
14840KMKG MKG20021120000009311/20/02 00:00:31  5-MIN KMKG 200500Z 26009KT 10SM CLR 08/04 A3000 560 76 -100 270/09 RMK AO2
14840KMKG MKG20021120000509311/20/02 00:05:31  5-MIN KMKG 200505Z 27008KT 10SM CLR 08/04 A3000 560 76 -100 270/08 RMK AO2
14840KMKG MKG20021120001009311/20/02 00:10:31  5-MIN KMKG 200510Z 26010KT 10SM CLR 08/04 A3000 560 76 -100 260/10 RMK AO2
14840KMKG MKG20021120001509311/20/02 00:15:31  5-MIN KMKG 200515Z 27010KT 10SM CLR 08/04 A3000 560 76 -100 270/10 RMK AO2
14840KMKG MKG20021120002009311/20/02 00:20:31  5-MIN KMKG 200520Z 26007KT 10SM CLR 08/04 A3000 550 76 -100 270/07 RMK AO2
14840KMKG MKG20021120002509311/20/02 00:25:31  5-MIN KMKG 200525Z 26009KT 10SM CLR 08/04 A3000 550 76 -100 270/09 RMK AO2
14840KMKG MKG20021120003009311/20/02 00:30:31  5-MIN KMKG 200530Z 27010KT 10SM CLR 08/04 A3000 550 76 -100 270/10 RMK AO2
14840KMKG MKG20021120003509311/20/02 00:35:31  5-MIN KMKG 200535Z 27008KT 10SM CLR 08/04 A3000 550 76 -100 270/08 RMK AO2
14840KMKG MKG20021120004009311/20/02 00:40:31  5-MIN KMKG 200540Z 27007KT 10SM CLR 08/04 A3001 550 76 -100 270/07 RMK AO2
14840KMKG MKG20021120004509311/20/02 00:45:31  5-MIN KMKG 200545Z 27007KT 10SM CLR 07/04 A3001 550 79 -200 270/07 RMK AO2
14840KMKG MKG20021120005012811/20/02 00:50:31  5-MIN KMKG 200550Z 26007KT 10SM CLR 07/04 A3001 550 79 -200 270/07 RMK AO2 SLP164 T00720039 10100 20072 53007
14840KMKG MKG20021120005512811/20/02 00:55:31  5-MIN KMKG 200555Z 27007KT 10SM CLR 07/04 A3001 550 79 -200 270/07 RMK AO2 SLP163 T00720039 10100 20072 51010
14840KMKG MKG20021120010009311/20/02 01:00:31  5-MIN KMKG 200600Z 27007KT 10SM CLR 07/04 A3000 550 79 -200 270/07 RMK AO2
14840KMKG MKG20021120010509311/20/02 01:05:31  5-MIN KMKG 200605Z 26008KT 10SM CLR 07/04 A3000 560 79 -200 260/08 RMK AO2
14840KMKG MKG20021120011009311/20/02 01:10:31  5-MIN KMKG 200610Z 26008KT 10SM CLR 07/04 A3000 560 79 -200 260/08 RMK AO2
14840KMKG MKG20021120011509311/20/02 01:15:31  5-MIN KMKG 200615Z 26007KT 10SM CLR 07/04 A3000 560 82 -200 270/07 RMK AO2
14840KMKG MKG20021120012009311/20/02 01:20:31  5-MIN KMKG 200620Z 27005KT 10SM CLR 07/04 A3000 550 82 -200 270/05 RMK AO2
14840KMKG MKG20021120012509311/20/02 01:25:31  5-MIN KMKG 200625Z 26005KT 10SM CLR 07/04 A3000 550 82 -200 270/05 RMK AO2
14840KMKG MKG20021120013009311/20/02 01:30:31  5-MIN KMKG 200630Z 27004KT 10SM CLR 07/04 A3000 560 82 -200 280/04 RMK AO2
14840KMKG MKG20021120013509311/20/02 01:35:31  5-MIN KMKG 200635Z 26005KT 10SM CLR 07/04 A3000 560 82 -200 260/05 RMK AO2
14840KMKG MKG20021120014009311/20/02 01:40:31  5-MIN KMKG 200640Z 26005KT 10SM CLR 07/04 A3000 560 79 -200 260/05 RMK AO2
14840KMKG MKG20021120014509311/20/02 01:45:31  5-MIN KMKG 200645Z 26005KT 10SM CLR 07/04 A3000 560 82 -200 260/05 RMK AO2
14840KMKG MKG20021120015011011/20/02 01:50:31  5-MIN KMKG 200650Z 26005KT 10SM CLR 06/03 A3000 560 82 -300 270/05 RMK AO2 SLP162 T00610033
14840KMKG MKG20021120015511011/20/02 01:55:31  5-MIN KMKG 200655Z 27005KT 10SM CLR 06/03 A3000 560 82 -300 270/05 RMK AO2 SLP161 T00610033
14840KMKG MKG20021120020009311/20/02 02:00:31  5-MIN KMKG 200700Z 26005KT 10SM CLR 06/03 A3000 560 82 -300 270/05 RMK AO2
14840KMKG MKG20021120020509311/20/02 02:05:31  5-MIN KMKG 200705Z 26005KT 10SM CLR 06/03 A3000 560 82 -300 270/05 RMK AO2
14840KMKG MKG20021120021009311/20/02 02:10:31  5-MIN KMKG 200710Z 26005KT 10SM CLR 07/03 A3000 560 79 -200 260/05 RMK AO2
14840KMKG MKG20021120021509311/20/02 02:15:31  5-MIN KMKG 200715Z 25005KT 10SM CLR 06/03 A3000 560 82 -300 250/05 RMK AO2
14840KMKG MKG20021120022009311/20/02 02:20:31  5-MIN KMKG 200720Z 23004KT 10SM CLR 06/03 A3000 560 85 -400 230/04 RMK AO2
14840KMKG MKG20021120022509311/20/02 02:25:31  5-MIN KMKG 200725Z 23004KT 10SM CLR 04/03 A3000 550 92 -600 230/04 RMK AO2
14840KMKG MKG20021120023009311/20/02 02:30:31  5-MIN KMKG 200730Z 23004KT 10SM CLR 04/03 A3000 550 89 -500 240/04 RMK AO2
14840KMKG MKG20021120023509311/20/02 02:35:31  5-MIN KMKG 200735Z 22003KT 10SM CLR 04/03 A3000 550 89 -500 220/03 RMK AO2
14840KMKG MKG20021120024009311/20/02 02:40:31  5-MIN KMKG 200740Z 19003KT 10SM CLR 03/02 A3001 550 92 -600 190/03 RMK AO2
14840KMKG MKG20021120024509311/20/02 02:45:31  5-MIN KMKG 200745Z 00000KT 10SM CLR 03/02 A3001 550 96 -700 000/00 RMK AO2
14840KMKG MKG20021120025011111/20/02 02:50:31  5-MIN KMKG 200750Z 18003KT 10SM CLR 02/02 A3001 550 100 -800 180/03 RMK AO2 SLP166 T00220022
14840KMKG MKG20021120025511111/20/02 02:55:31  5-MIN KMKG 200755Z 20003KT 10SM CLR 02/02 A3001 550 100 -900 210/03 RMK AO2 SLP166 T00170017
14840KMKG MKG20021120030009411/20/02 03:00:31  5-MIN KMKG 200800Z 00000KT 10SM CLR 01/01 A3001 550 100 -900 000/00 RMK AO2
14840KMKG MKG20021120030509311/20/02 03:05:31  5-MIN KMKG 200805Z 00000KT 10SM CLR 02/01 A3001 550 96 -800 000/00 RMK AO2
14840KMKG MKG20021120031009311/20/02 03:10:31  5-MIN KMKG 200810Z 00000KT 10SM CLR 02/02 A3001 550 96 -800 000/00 RMK AO2
14840KMKG MKG20021120031509411/20/02 03:15:31  5-MIN KMKG 200815Z 00000KT 10SM CLR 02/02 A3001 550 100 -800 000/00 RMK AO2
14840KMKG MKG20021120032009411/20/02 03:20:31  5-MIN KMKG 200820Z 00000KT 10SM CLR 02/02 A3001 550 100 -800 000/00 RMK AO2
14840KMKG MKG20021120032509411/20/02 03:25:31  5-MIN KMKG 200825Z 00000KT 10SM CLR 02/02 A3001 550 100 -900 000/00 RMK AO2
14840KMKG MKG20021120033009411/20/02 03:30:31  5-MIN KMKG 200830Z 00000KT 10SM CLR 01/01 A3001 550 100 -900 000/00 RMK AO2
14840KMKG MKG20021120033509411/20/02 03:35:31  5-MIN KMKG 200835Z 00000KT 10SM CLR 02/02 A3001 550 100 -900 000/00 RMK AO2
14840KMKG MKG20021120034009411/20/02 03:40:31  5-MIN KMKG 200840Z 00000KT 10SM CLR 02/02 A3001 550 100 -900 000/00 RMK AO2
14840KMKG MKG20021120034509411/20/02 03:45:31  5-MIN KMKG 200845Z 00000KT 10SM CLR 01/01 A3001 550 100 -900 000/00 RMK AO2
14840KMKG MKG20021120035011711/20/02 03:50:31  5-MIN KMKG 200850Z 00000KT 9SM CLR 00/00 A3001 550 100 -1100 000/00 RMK AO2 SLP166 T00000000 51010
14840KMKG MKG20021120035511711/20/02 03:55:31  5-MIN KMKG 200855Z 00000KT 8SM CLR 01/01 A3001 550 100 -1000 000/00 RMK AO2 SLP166 T00060006 53001
14840KMKG MKG20021120040009311/20/02 04:00:31  5-MIN KMKG 200900Z 00000KT 7SM CLR 01/01 A3001 550 100 -900 000/00 RMK AO2
14840KMKG MKG20021120040509311/20/02 04:05:31  5-MIN KMKG 200905Z 00000KT 8SM CLR 01/01 A3001 550 100 -900 000/00 RMK AO2
14840KMKG MKG20021120041009311/20/02 04:10:31  5-MIN KMKG 200910Z 00000KT 8SM CLR 01/01 A3001 550 100 -900 000/00 RMK AO2
14840KMKG MKG20021120041509711/20/02 04:15:31  5-MIN KMKG 200915Z 00000KT 6SM BR CLR 01/01 A3001 550 100 -1000 000/00 RMK AO2
14840KMKG MKG20021120042011011/20/02 04:20:31  5-MIN KMKG 200920Z 00000KT 5SM BR CLR 01/01 A3001 550 100 -1000 000/00 RMK AO2 VIS 2 RWY 14
14840KMKG MKG20021120042511411/20/02 04:25:31  5-MIN KMKG 200925Z 00000KT 5SM BR CLR 00/00 A3001 550 100 -1100 000/00 RMK AO2 VIS 1 1/2 RWY 14
14840KMKG MKG20021120043011111/20/02 04:30:31  5-MIN KMKG 200930Z 00000KT 7SM CLR 01/01 A3001 550 100 -1000 000/00 RMK AO2 VIS 1 3/4 RWY 14
14840KMKG MKG20021120043509411/20/02 04:35:31  5-MIN KMKG 200935Z 00000KT 9SM CLR 01/01 A3001 550 100 -1000 000/00 RMK AO2
14840KMKG MKG20021120044009411/20/02 04:40:31  5-MIN KMKG 200940Z 00000KT 8SM CLR 01/01 A3001 550 100 -1000 000/00 RMK AO2
14840KMKG MKG20021120044511611/20/02 04:45:31  5-MIN KMKG 200945Z 00000KT 6SM BR CLR M01/M01 A3001 550 100 -1100 000/00 RMK AO2 VIS 1 3/4 RWY 14
14840KMKG MKG20021120045013111/20/02 04:50:31  5-MIN KMKG 200950Z 00000KT 5SM BR CLR 00/00 A3001 550 100 -1100 000/00 RMK AO2 VIS 1 3/4 RWY 14 SLP166 T00000000
14840KMKG MKG20021120045513111/20/02 04:55:31  5-MIN KMKG 200955Z 00000KT 4SM BR CLR 00/00 A3001 550 100 -1100 000/00 RMK AO2 VIS 2 1/2 RWY 14 SLP166 T00000000
14840KMKG MKG20021120050009711/20/02 05:00:31  5-MIN KMKG 201000Z 00000KT 4SM BR CLR 00/00 A3001 550 100 -1100 000/00 RMK AO2
14840KMKG MKG20021120050511411/20/02 05:05:31  5-MIN KMKG 201005Z 00000KT 5SM BR CLR 00/00 A3001 550 100 -1100 000/00 RMK AO2 VIS 2 1/2 RWY 14
14840KMKG MKG20021120051011411/20/02 05:10:31  5-MIN KMKG 201010Z 00000KT 6SM BR CLR 00/00 A3001 550 100 -1100 000/00 RMK AO2 VIS 2 1/2 RWY 14
14840KMKG MKG20021120051510111/20/02 05:15:31  5-MIN KMKG 201015Z 00000KT 1 1/2SM BR CLR 00/00 A3001 550 100 -1100 000/00 RMK AO2
14840KMKG MKG20021120052010111/20/02 05:20:31  5-MIN KMKG 201020Z 00000KT 3/4SM BR VV001 00/00 A3001 550 100 -1100 000/00 RMK AO2
14840KMKG MKG20021120052510511/20/02 05:25:31  5-MIN KMKG 201025Z 00000KT 1/2SM FZFG VV001 M01/M01 A3001 550 100 -1100 000/00 RMK AO2
14840KMKG MKG20021120053010311/20/02 05:30:31  5-MIN KMKG 201030Z 00000KT 1/2SM FZFG CLR M01/M01 A3001 550 100 -1100 000/00 RMK AO2
14840KMKG MKG20021120053511811/20/02 05:35:31  5-MIN KMKG 201035Z 14003KT 1 1/2SM BR CLR M01/M01 A3001 540 100 -1100 150/03 RMK AO2 VIS 1/2 RWY 14
14840KMKG MKG20021120054010911/20/02 05:40:31  5-MIN KMKG 201040Z 00000KT 8SM CLR M01/M01 A3001 540 100 -1200 000/00 RMK AO2 VIS 1 RWY 14
14840KMKG MKG20021120054509611/20/02 05:45:31  5-MIN KMKG 201045Z 00000KT 8SM CLR M02/M02 A3001 540 100 -1300 000/00 RMK AO2
14840KMKG MKG20021120055011311/20/02 05:50:31  5-MIN KMKG 201050Z 12004KT 7SM CLR M02/M02 A3001 540 100 -1300 120/04 RMK AO2 SLP169 T10171017
14840KMKG MKG20021120055511311/20/02 05:55:31  5-MIN KMKG 201055Z 11003KT 7SM CLR M02/M02 A3001 540 100 -1300 110/03 RMK AO2 SLP169 T10171017
14840KMKG MKG20021120060011611/20/02 06:00:31  5-MIN KMKG 201100Z 12003KT 6SM BR CLR M01/M01 A3002 540 100 -1200 120/03 RMK AO2 VIS 2 1/2 RWY 14
14840KMKG MKG20021120060511311/20/02 06:05:31  5-MIN KMKG 201105Z 11003KT 7SM CLR M02/M02 A3002 540 100 -1300 120/03 RMK AO2 VIS 2 1/2 RWY 14
14840KMKG MKG20021120061009611/20/02 06:10:31  5-MIN KMKG 201110Z 11004KT 7SM CLR M01/M01 A3002 540 100 -1200 120/04 RMK AO2
14840KMKG MKG20021120061509611/20/02 06:15:31  5-MIN KMKG 201115Z 11006KT 7SM CLR M02/M02 A3002 540 100 -1300 120/06 RMK AO2
14840KMKG MKG20021120062009611/20/02 06:20:31  5-MIN KMKG 201120Z 12004KT 7SM CLR M02/M02 A3002 540 100 -1300 130/04 RMK AO2
14840KMKG MKG20021120062509611/20/02 06:25:31  5-MIN KMKG 201125Z 11003KT 7SM CLR M01/M01 A3002 540 100 -1200 120/03 RMK AO2
14840KMKG MKG20021120063011311/20/02 06:30:31  5-MIN KMKG 201130Z 11004KT 7SM CLR M01/M01 A3002 540 100 -1200 120/04 RMK AO2 VIS 2 1/2 RWY 14
14840KMKG MKG20021120063511611/20/02 06:35:31  5-MIN KMKG 201135Z 12004KT 6SM BR CLR M01/M01 A3002 540 100 -1200 120/04 RMK AO2 VIS 1 3/4 RWY 14
14840KMKG MKG20021120064011411/20/02 06:40:31  5-MIN KMKG 201140Z 00000KT 5SM BR CLR M02/M02 A3002 540 100 -1300 000/00 RMK AO2 VIS 3/4 RWY 14
14840KMKG MKG20021120064511311/20/02 06:45:31  5-MIN KMKG 201145Z 12003KT 4SM BR CLR M02/M02 A3002 540 96 -1300 120/03 RMK AO2 VIS 1/2 RWY 14
14840KMKG MKG20021120065014911/20/02 06:50:31  5-MIN KMKG 201150Z 00000KT 4SM BR CLR M02/M02 A3002 540 100 -1300 000/00 RMK AO2 VIS 1/2 RWY 14 SLP171 T10171017 10072 21022 53001
14840KMKG MKG20021120065515211/20/02 06:55:31  5-MIN KMKG 201155Z 00000KT 4SM BR FEW110 M01/M01 A3002 540 100 -1200 000/00 RMK AO2 VIS 1/2 RWY 14 SLP172 T10111011 10072 21022 53005
14840KMKG MKG20021120070011711/20/02 07:00:31  5-MIN KMKG 201200Z 00000KT 6SM BR FEW110 M01/M01 A3002 540 100 -1200 000/00 RMK AO2 VIS 1/2 RWY 14
14840KMKG MKG20021120070511411/20/02 07:05:31  5-MIN KMKG 201205Z 00000KT 8SM SCT110 M01/M01 A3002 540 100 -1200 000/00 RMK AO2 VIS 3/4 RWY 14
14840KMKG MKG20021120071011611/20/02 07:10:31  5-MIN KMKG 201210Z 11003KT 9SM FEW110 M01/M01 A3002 540 100 -1200 110/03 RMK AO2 VIS 1 1/2 RWY 14
14840KMKG MKG20021120071511611/20/02 07:15:31  5-MIN KMKG 201215Z 00000KT 7SM SCT110 M01/M01 A3002 540 100 -1200 000/00 RMK AO2 VIS 1 1/2 RWY 14
14840KMKG MKG20021120072010211/20/02 07:20:31  5-MIN KMKG 201220Z 00000KT 2SM BR SCT110 M02/M02 A3002 540 100 -1300 000/00 RMK AO2
14840KMKG MKG20021120072510211/20/02 07:25:31  5-MIN KMKG 201225Z 00000KT 1SM BR BKN110 M01/M01 A3002 540 100 -1200 000/00 RMK AO2
14840KMKG MKG20021120073010611/20/02 07:30:31  5-MIN KMKG 201230Z 00000KT 1 1/2SM BR BKN110 M02/M02 A3002 540 100 -1300 000/00 RMK AO2
14840KMKG MKG20021120073510211/20/02 07:35:31  5-MIN KMKG 201235Z 00000KT 5SM BR BKN110 M01/M01 A3002 540 100 -1200 000/00 RMK AO2
14840KMKG MKG20021120074010211/20/02 07:40:31  5-MIN KMKG 201240Z 00000KT 6SM BR BKN110 M01/M01 A3002 540 100 -1200 000/00 RMK AO2
14840KMKG MKG20021120074510211/20/02 07:45:31  5-MIN KMKG 201245Z 00000KT 6SM BR BKN110 M01/M01 A3002 540 100 -1200 000/00 RMK AO2
14840KMKG MKG20021120075011911/20/02 07:50:31  5-MIN KMKG 201250Z 00000KT 5SM BR OVC110 M01/M01 A3002 540 100 -1200 000/00 RMK AO2 SLP170 T10111011
14840KMKG MKG20021120075511811/20/02 07:55:31  5-MIN KMKG 201255Z 13003KT 5SM BR BKN110 M02/M02 A3002 540 96 -1300 130/03 RMK AO2 SLP170 T10171022
14840KMKG MKG20021120080010211/20/02 08:00:31  5-MIN KMKG 201300Z 13003KT 5SM BR BKN110 M02/M02 A3001 540 100 -1300 140/03 RMK AO2
14840KMKG MKG20021120080511911/20/02 08:05:31  5-MIN KMKG 201305Z 00000KT 6SM BR BKN110 M02/M02 A3001 540 100 -1300 000/00 RMK AO2 VIS 2 1/2 RWY 14
14840KMKG MKG20021120081011511/20/02 08:10:31  5-MIN KMKG 201310Z 00000KT 6SM BR BKN110 M02/M02 A3001 540 100 -1300 000/00 RMK AO2 VIS 2 RWY 14
14840KMKG MKG20021120081511911/20/02 08:15:31  5-MIN KMKG 201315Z 00000KT 6SM BR BKN110 M02/M02 A3001 550 100 -1300 000/00 RMK AO2 VIS 1 3/4 RWY 14
14840KMKG MKG20021120082011511/20/02 08:20:31  5-MIN KMKG 201320Z 12003KT 6SM BR BKN110 M01/M01 A3001 550 100 -1200 120/03 RMK AO2 VIS 2 RWY 14
14840KMKG MKG20021120082511511/20/02 08:25:31  5-MIN KMKG 201325Z 00000KT 6SM BR BKN110 M01/M01 A3001 550 100 -1100 000/00 RMK AO2 VIS 2 RWY 14
14840KMKG MKG20021120083011911/20/02 08:30:31  5-MIN KMKG 201330Z 00000KT 6SM BR OVC110 M01/M01 A3001 550 100 -1100 000/00 RMK AO2 VIS 2 1/2 RWY 14
14840KMKG MKG20021120083510011/20/02 08:35:31  5-MIN KMKG 201335Z 13003KT 6SM BR OVC110 00/00 A3001 550 100 -1100 130/03 RMK AO2
14840KMKG MKG20021120084010011/20/02 08:40:31  5-MIN KMKG 201340Z 12004KT 5SM BR OVC110 00/00 A3001 550 100 -1100 130/04 RMK AO2
14840KMKG MKG20021120084510011/20/02 08:45:31  5-MIN KMKG 201345Z 13003KT 5SM BR OVC110 01/01 A3001 550 100 -1000 130/03 RMK AO2
14840KMKG MKG20021120085011711/20/02 08:50:31  5-MIN KMKG 201350Z 13003KT 5SM BR OVC110 01/01 A3001 550 100 -1000 140/03 RMK AO2 SLP168 T00060006
14840KMKG MKG20021120085511711/20/02 08:55:31  5-MIN KMKG 201355Z 00000KT 5SM BR OVC100 01/01 A3001 550 100 -1000 000/00 RMK AO2 SLP167 T00060006
14840KMKG MKG20021120090009911/20/02 09:00:31  5-MIN KMKG 201400Z 00000KT 5SM BR BKN110 01/01 A3001 550 100 -900 000/00 RMK AO2
14840KMKG MKG20021120090509911/20/02 09:05:31  5-MIN KMKG 201405Z 00000KT 5SM BR BKN110 02/02 A3001 550 100 -900 000/00 RMK AO2
14840KMKG MKG20021120091009911/20/02 09:10:31  5-MIN KMKG 201410Z 00000KT 5SM BR BKN110 02/02 A3001 550 100 -800 000/00 RMK AO2
14840KMKG MKG20021120091509911/20/02 09:15:31  5-MIN KMKG 201415Z 00000KT 5SM BR BKN110 02/02 A3001 540 100 -800 000/00 RMK AO2
14840KMKG MKG20021120092009911/20/02 09:20:31  5-MIN KMKG 201420Z 00000KT 5SM BR BKN110 02/02 A3001 540 100 -800 000/00 RMK AO2
14840KMKG MKG20021120092509911/20/02 09:25:31  5-MIN KMKG 201425Z 11003KT 4SM BR OVC120 02/02 A3001 540 100 -800 120/03 RMK AO2
14840KMKG MKG20021120093009911/20/02 09:30:31  5-MIN KMKG 201430Z 12003KT 4SM BR OVC120 03/03 A3001 540 100 -700 120/03 RMK AO2
14840KMKG MKG20021120093509911/20/02 09:35:31  5-MIN KMKG 201435Z 00000KT 4SM BR OVC110 03/03 A3001 540 100 -600 000/00 RMK AO2
14840KMKG MKG20021120094009911/20/02 09:40:31  5-MIN KMKG 201440Z 15003KT 5SM BR OVC120 03/03 A3001 540 100 -600 150/03 RMK AO2
14840KMKG MKG20021120094509911/20/02 09:45:31  5-MIN KMKG 201445Z 14003KT 5SM BR OVC120 04/04 A3001 550 100 -600 140/03 RMK AO2
14840KMKG MKG20021120095012111/20/02 09:50:31  5-MIN KMKG 201450Z 00000KT 6SM BR OVC120 04/04 A3001 550 96 -500 000/00 RMK AO2 SLP166 T00440039 53005
14840KMKG MKG20021120095512211/20/02 09:55:31  5-MIN KMKG 201455Z 14003KT 6SM BR OVC110 04/04 A3001 550 100 -500 140/03 RMK AO2 SLP165 T00440044 56005
14840KMKG MKG20021120100009911/20/02 10:00:31  5-MIN KMKG 201500Z 13003KT 6SM BR OVC110 04/04 A3001 550 100 -500 140/03 RMK AO2
14840KMKG MKG20021120100510611/20/02 10:05:31  5-MIN KMKG 201505Z 14004KT 5SM BR FEW100 OVC120 05/05 A3001 550 100 -400 140/04 RMK AO2
14840KMKG MKG20021120101009811/20/02 10:10:31  5-MIN KMKG 201510Z 14004KT 5SM BR OVC110 06/05 A3000 550 96 -400 150/04 RMK AO2
14840KMKG MKG20021120101509811/20/02 10:15:31  5-MIN KMKG 201515Z 14005KT 6SM BR OVC110 06/05 A3000 560 96 -400 150/05 RMK AO2
14840KMKG MKG20021120102009811/20/02 10:20:31  5-MIN KMKG 201520Z 15006KT 6SM BR OVC110 06/05 A3000 560 96 -400 150/06 RMK AO2
14840KMKG MKG20021120102509811/20/02 10:25:31  5-MIN KMKG 201525Z 14006KT 6SM BR OVC110 06/05 A3000 560 93 -300 150/06 RMK AO2
14840KMKG MKG20021120103009511/20/02 10:30:31  5-MIN KMKG 201530Z 15006KT 7SM OVC110 06/06 A3000 560 96 -300 150/06 RMK AO2
14840KMKG MKG20021120103509511/20/02 10:35:31  5-MIN KMKG 201535Z 15006KT 7SM OVC100 06/06 A3000 560 96 -300 160/06 RMK AO2
14840KMKG MKG20021120104009511/20/02 10:40:31  5-MIN KMKG 201540Z 16005KT 7SM OVC100 07/06 A3000 560 93 -200 170/05 RMK AO2
14840KMKG MKG20021120104509511/20/02 10:45:31  5-MIN KMKG 201545Z 17007KT 7SM OVC100 07/06 A2999 560 93 -200 170/07 RMK AO2
14840KMKG MKG20021120105011911/20/02 10:50:31  5-MIN KMKG 201550Z 17006KT 7SM BKN090 OVC110 07/06 A2999 560 93 -200 170/06 RMK AO2 SLP161 T00670056
14840KMKG MKG20021120105511911/20/02 10:55:31  5-MIN KMKG 201555Z 18005KT 8SM BKN090 OVC110 07/06 A2999 560 89 -100 180/05 RMK AO2 SLP159 T00720056
14840KMKG MKG20021120110010211/20/02 11:00:31  5-MIN KMKG 201600Z 17006KT 9SM BKN090 OVC110 07/06 A2999 560 89 -100 170/06 RMK AO2
14840KMKG MKG20021120110510911/20/02 11:05:31  5-MIN KMKG 201605Z 19004KT 9SM FEW070 BKN090 OVC120 07/06 A2999 560 93 -100 190/04 RMK AO2
14840KMKG MKG20021120111010311/20/02 11:10:31  5-MIN KMKG 201610Z 17006KT 10SM BKN085 OVC120 08/06 A2999 570 89 -100 180/06 RMK AO2
14840KMKG MKG20021120111510311/20/02 11:15:31  5-MIN KMKG 201615Z 17005KT 10SM BKN085 BKN120 08/06 A2999 570 89 -100 180/05 RMK AO2
14840KMKG MKG20021120112010011/20/02 11:20:31  5-MIN KMKG 201620Z 17007KT 10SM BKN085 BKN120 08/06 A2998 570 86 0 170/07 RMK AO2
14840KMKG MKG20021120112511511/20/02 11:25:31  5-MIN KMKG 201625Z 18006KT 10SM SCT085 BKN120 08/06 A2998 570 86 0 180/06 RMK AO2 CIG 090 RWY 14
14840KMKG MKG20021120113010711/20/02 11:30:31  5-MIN KMKG 201630Z 19012KT 10SM BKN075 BKN090 BKN120 08/06 A2998 570 86 0 190/12 RMK AO2
14840KMKG MKG20021120113510011/20/02 11:35:31  5-MIN KMKG 201635Z 19009KT 10SM BKN075 BKN090 09/07 A2999 570 86 0 190/09 RMK AO2
14840KMKG MKG20021120114010011/20/02 11:40:31  5-MIN KMKG 201640Z 18009KT 10SM BKN075 BKN090 09/07 A2998 570 86 0 180/09 RMK AO2
14840KMKG MKG20021120114510011/20/02 11:45:31  5-MIN KMKG 201645Z 19009KT 10SM BKN080 BKN100 09/07 A2998 580 86 0 190/09 RMK AO2
14840KMKG MKG20021120115011711/20/02 11:50:31  5-MIN KMKG 201650Z 18010KT 10SM BKN075 BKN100 09/07 A2998 580 86 0 190/10 RMK AO2 SLP155 T00890067
14840KMKG MKG20021120115512511/20/02 11:55:31  5-MIN KMKG 201655Z 18012G16KT 10SM BKN075 OVC100 09/07 A2998 580 83 100 180/12G16 RMK AO2 SLP154 T00940067
14840KMKG MKG20021120120010011/20/02 12:00:31  5-MIN KMKG 201700Z 20011KT 10SM BKN075 OVC100 09/06 A2998 580 83 0 200/11 RMK AO2
14840KMKG MKG20021120120510011/20/02 12:05:31  5-MIN KMKG 201705Z 19008KT 10SM BKN070 OVC100 09/06 A2997 580 79 0 200/08 RMK AO2
14840KMKG MKG20021120121010011/20/02 12:10:31  5-MIN KMKG 201710Z 19008KT 10SM BKN070 OVC090 09/06 A2997 580 79 0 190/08 RMK AO2
14840KMKG MKG20021120121509311/20/02 12:15:31  5-MIN KMKG 201715Z 19006KT 10SM OVC065 09/06 A2997 590 79 0 190/06 RMK AO2
14840KMKG MKG20021120122009311/20/02 12:20:31  5-MIN KMKG 201720Z 20006KT 10SM OVC065 09/06 A2997 580 83 0 200/06 RMK AO2
14840KMKG MKG20021120122509311/20/02 12:25:31  5-MIN KMKG 201725Z 20007KT 10SM OVC060 09/06 A2997 580 83 0 210/07 RMK AO2
14840KMKG MKG20021120123010011/20/02 12:30:31  5-MIN KMKG 201730Z 20007KT 10SM FEW046 OVC060 09/06 A2997 580 83 0 210/07 RMK AO2
14840KMKG MKG20021120123511611/20/02 12:35:31  5-MIN KMKG 201735Z 21006KT 10SM -RA SCT042 OVC060 09/06 A2997 580 83 0 210/06 RMK AO2 RAB32 P0000
14840KMKG MKG20021120124011611/20/02 12:40:31  5-MIN KMKG 201740Z 18007KT 10SM -RA BKN042 OVC060 09/06 A2997 590 83 0 190/07 RMK AO2 RAB32 P0000
14840KMKG MKG20021120124511511/20/02 12:45:31  5-MIN KMKG 201745Z VRB04KT 9SM -RA BKN042 OVC060 08/06 A2996 600 86 0 VRB/04 RMK AO2 RAB32 P0000
14840KMKG MKG20021120125017211/20/02 12:50:31  5-MIN KMKG 201750Z VRB04KT 7SM -RA BKN039 BKN047 OVC060 09/07 A2995 600 86 100 VRB/04 RMK AO2 RAB32 PRESFR SLP146 P0001 60001 T00890067 10094 21017 56005
14840KMKG MKG20021120125515811/20/02 12:55:31  5-MIN KMKG 201755Z 18006KT 8SM -RA BKN037 OVC047 09/07 A2995 600 86 100 180/06 RMK AO2 RAB32 SLP146 P0001 60001 T00890067 10094 21017 58019
14840KMKG MKG20021120130011011/20/02 13:00:31  5-MIN KMKG 201800Z 19010KT 10SM -RA SCT037 OVC050 08/07 A2997 590 89 0 190/10 RMK AO2 P0000
14840KMKG MKG20021120130511011/20/02 13:05:31  5-MIN KMKG 201805Z 17009KT 10SM -RA SCT039 OVC050 08/07 A2996 590 93 0 180/09 RMK AO2 P0000
14840KMKG MKG20021120131011011/20/02 13:10:31  5-MIN KMKG 201810Z 19008KT 10SM -RA SCT039 OVC050 09/07 A2996 600 89 0 190/08 RMK AO2 P0000
14840KMKG MKG20021120131511011/20/02 13:15:31  5-MIN KMKG 201815Z 18008KT 10SM -RA SCT039 OVC050 09/07 A2996 600 89 0 190/08 RMK AO2 P0000
14840KMKG MKG20021120132011711/20/02 13:20:31  5-MIN KMKG 201820Z 19008KT 10SM -RA FEW040 BKN048 BKN060 09/07 A2995 600 89 0 200/08 RMK AO2 P0000
14840KMKG MKG20021120132511911/20/02 13:25:31  5-MIN KMKG 201825Z 19009KT 10SM -RA FEW038 BKN048 BKN065 09/07 A2995 600 89 100 190/09 RMK AO2 P0000
14840KMKG MKG20021120133013411/20/02 13:30:31  5-MIN KMKG 201830Z 19007KT 10SM -RA FEW040 SCT048 BKN065 09/07 A2995 600 89 100 190/07 RMK AO2 CIG 050 RWY 14 P0000
14840KMKG MKG20021120133512111/20/02 13:35:31  5-MIN KMKG 201835Z 19009KT 10SM FEW040 SCT048 BKN070 09/07 A2995 610 86 100 190/09 RMK AO2 RAE31 P0000
14840KMKG MKG20021120134012111/20/02 13:40:31  5-MIN KMKG 201840Z 18005KT 10SM FEW044 BKN070 BKN080 09/07 A2994 610 86 100 180/05 RMK AO2 RAE31 P0000
14840KMKG MKG20021120134511411/20/02 13:45:31  5-MIN KMKG 201845Z 18003KT 10SM FEW065 BKN075 09/07 A2993 620 86 100 180/03 RMK AO2 RAE31 P0000
14840KMKG MKG20021120135012411/20/02 13:50:31  5-MIN KMKG 201850Z 16006KT 10SM BKN075 09/07 A2994 620 86 100 160/06 RMK AO2 RAE31 SLP141 P0000 T00890067
14840KMKG MKG20021120135513111/20/02 13:55:31  5-MIN KMKG 201855Z 17006KT 10SM FEW045 BKN075 09/07 A2994 620 86 100 170/06 RMK AO2 RAE31 SLP140 P0000 T00890067
14840KMKG MKG20021120140010911/20/02 14:00:31  5-MIN KMKG 201900Z 19009KT 10SM FEW040 BKN075 BKN090 09/07 A2994 610 86 100 190/09 RMK AO2
14840KMKG MKG20021120140510911/20/02 14:05:31  5-MIN KMKG 201905Z 19010KT 10SM SCT060 BKN075 BKN090 09/06 A2995 610 83 100 190/10 RMK AO2
14840KMKG MKG20021120141010911/20/02 14:10:31  5-MIN KMKG 201910Z 18009KT 10SM FEW049 BKN060 BKN075 09/06 A2995 610 83 100 190/09 RMK AO2
14840KMKG MKG20021120141512511/20/02 14:15:31  5-MIN KMKG 201915Z 17013KT 10SM -RA SCT047 BKN065 BKN080 09/06 A2994 610 83 100 180/13 RMK AO2 RAB15 P0000
14840KMKG MKG20021120142011611/20/02 14:20:31  5-MIN KMKG 201920Z 17010KT 10SM -RA BKN047 BKN060 08/06 A2994 610 86 0 170/10 RMK AO2 RAB15 P0000
14840KMKG MKG20021120142511611/20/02 14:25:31  5-MIN KMKG 201925Z 18011KT 10SM -RA BKN047 OVC060 08/06 A2994 610 86 0 180/11 RMK AO2 RAB15 P0000
14840KMKG MKG20021120143012311/20/02 14:30:31  5-MIN KMKG 201930Z 17010KT 10SM -RA FEW043 BKN050 OVC060 08/06 A2994 610 86 0 170/10 RMK AO2 RAB15 P0000
14840KMKG MKG20021120143511511/20/02 14:35:31  5-MIN KMKG 201935Z 17009KT 9SM -RA SCT041 OVC050 08/06 A2994 610 86 0 170/09 RMK AO2 RAB15 P0000
14840KMKG MKG20021120144011511/20/02 14:40:31  5-MIN KMKG 201940Z 19009KT 9SM -RA SCT043 OVC050 08/06 A2994 610 86 0 190/09 RMK AO2 RAB15 P0000
14840KMKG MKG20021120144511511/20/02 14:45:31  5-MIN KMKG 201945Z 17008KT 9SM -RA FEW033 OVC048 08/07 A2994 620 89 0 180/08 RMK AO2 RAB15 P0000
14840KMKG MKG20021120145013211/20/02 14:50:31  5-MIN KMKG 201950Z 19009KT 9SM -RA FEW030 OVC048 08/07 A2994 610 89 0 190/09 RMK AO2 RAB15 SLP144 P0001 T00830067
14840KMKG MKG20021120145513911/20/02 14:55:31  5-MIN KMKG 201955Z 18007KT 8SM -RA FEW030 BKN045 OVC050 08/07 A2993 620 93 0 180/07 RMK AO2 RAB15 SLP141 P0001 T00780067
14840KMKG MKG20021120150011911/20/02 15:00:31  5-MIN KMKG 202000Z 19006KT 6SM -RA BR FEW027 SCT032 OVC045 08/07 A2993 620 93 0 190/06 RMK AO2 P0000
14840KMKG MKG20021120150511611/20/02 15:05:31  5-MIN KMKG 202005Z 19007KT 7SM -RA FEW027 SCT032 OVC045 08/06 A2993 620 89 0 190/07 RMK AO2 P0000
14840KMKG MKG20021120151011611/20/02 15:10:31  5-MIN KMKG 202010Z 17006KT 9SM -RA FEW033 BKN045 OVC070 08/06 A2992 630 89 0 180/06 RMK AO2 P0000
14840KMKG MKG20021120151511711/20/02 15:15:31  5-MIN KMKG 202015Z 18004KT 10SM -RA FEW033 BKN045 OVC065 08/06 A2993 630 89 0 190/04 RMK AO2 P0000
14840KMKG MKG20021120152011711/20/02 15:20:31  5-MIN KMKG 202020Z 19006KT 10SM -RA FEW033 BKN047 OVC060 08/07 A2993 620 93 0 200/06 RMK AO2 P0000
14840KMKG MKG20021120152511611/20/02 15:25:31  5-MIN KMKG 202025Z 20006KT 8SM -RA FEW033 BKN045 OVC065 08/07 A2994 620 93 0 200/06 RMK AO2 P0000
14840KMKG MKG20021120153011511/20/02 15:30:31  5-MIN KMKG 202030Z 19006KT 5SM -RA BR BKN045 OVC065 07/07 A2993 620 96 -100 190/06 RMK AO2 P0001
14840KMKG MKG20021120153512111/20/02 15:35:31  5-MIN KMKG 202035Z 17005KT 4SM RA BR SCT031 BKN045 OVC065 07/06 A2993 630 93 -100 170/05 RMK AO2 P0002
14840KMKG MKG20021120154011511/20/02 15:40:31  5-MIN KMKG 202040Z 16005KT 5SM -RA BR FEW031 OVC045 07/06 A2992 630 93 -100 170/05 RMK AO2 P0002
14840KMKG MKG20021120154511511/20/02 15:45:31  5-MIN KMKG 202045Z 19004KT 6SM -RA BR FEW029 OVC045 07/06 A2993 630 93 -100 190/04 RMK AO2 P0002
14840KMKG MKG20021120155014411/20/02 15:50:31  5-MIN KMKG 202050Z 21003KT 6SM -RA BR FEW032 OVC045 07/07 A2993 620 96 -100 210/03 RMK AO2 SLP139 P0002 60003 T00720067 58019
14840KMKG MKG20021120155514411/20/02 15:55:31  5-MIN KMKG 202055Z 21003KT 5SM -RA BR FEW032 OVC043 07/07 A2993 620 96 -100 210/03 RMK AO2 SLP140 P0003 60004 T00720067 56008
14840KMKG MKG20021120160011511/20/02 16:00:31  5-MIN KMKG 202100Z 18003KT 6SM -RA BR FEW032 OVC043 07/07 A2993 620 96 -100 190/03 RMK AO2 P0000
14840KMKG MKG20021120160512211/20/02 16:05:31  5-MIN KMKG 202105Z 16004KT 6SM -RA BR FEW034 BKN043 OVC055 07/07 A2993 620 96 -100 170/04 RMK AO2 P0000
14840KMKG MKG20021120161011211/20/02 16:10:31  5-MIN KMKG 202110Z 15004KT 7SM -RA BKN043 OVC060 07/07 A2993 620 96 -100 160/04 RMK AO2 P0000
14840KMKG MKG20021120161511211/20/02 16:15:31  5-MIN KMKG 202115Z 18006KT 8SM -RA BKN041 OVC060 07/07 A2994 620 96 -100 180/06 RMK AO2 P0000
14840KMKG MKG20021120162012211/20/02 16:20:31  5-MIN KMKG 202120Z 18004KT 6SM -RA BR FEW037 BKN043 OVC060 07/06 A2993 620 93 -100 190/04 RMK AO2 P0000
14840KMKG MKG20021120162512211/20/02 16:25:31  5-MIN KMKG 202125Z 20003KT 6SM -RA BR FEW037 BKN043 OVC060 07/07 A2993 620 96 -100 200/03 RMK AO2 P0001
14840KMKG MKG20021120163011511/20/02 16:30:31  5-MIN KMKG 202130Z 00000KT 6SM -RA BR BKN045 OVC060 07/07 A2993 620 96 -100 000/00 RMK AO2 P0001
14840KMKG MKG20021120163511211/20/02 16:35:31  5-MIN KMKG 202135Z 00000KT 7SM -RA BKN045 OVC060 07/07 A2993 620 96 -100 000/00 RMK AO2 P0001
14840KMKG MKG20021120164011211/20/02 16:40:31  5-MIN KMKG 202140Z 00000KT 7SM -RA BKN045 OVC060 07/07 A2993 620 96 -100 000/00 RMK AO2 P0001
14840KMKG MKG20021120164511211/20/02 16:45:31  5-MIN KMKG 202145Z 00000KT 8SM -RA BKN045 OVC060 07/07 A2993 620 96 -100 000/00 RMK AO2 P0001
14840KMKG MKG20021120165012911/20/02 16:50:31  5-MIN KMKG 202150Z 00000KT 8SM -RA BKN047 OVC060 07/07 A2993 620 96 -100 000/00 RMK AO2 SLP139 P0001 T00720067
14840KMKG MKG20021120165513911/20/02 16:55:31  5-MIN KMKG 202155Z 00000KT 8SM -RA OVC047 07/07 A2993 630 96 -100 000/00 RMK AO2 VIS 2 1/2 RWY 14 SLP139 P0001 T00720067
14840KMKG MKG20021120170012311/20/02 17:00:31  5-MIN KMKG 202200Z 00000KT 7SM -RA OVC047 07/07 A2993 630 100 -100 000/00 RMK AO2 VIS 1 1/2 RWY 14 P0000
14840KMKG MKG20021120170513311/20/02 17:05:31  5-MIN KMKG 202205Z 00000KT 5SM -RA BR BKN047 OVC055 07/07 A2993 620 100 -100 000/00 RMK AO2 VIS 1 1/4 RWY 14 P0000
14840KMKG MKG20021120171013311/20/02 17:10:31  5-MIN KMKG 202210Z 00000KT 4SM -RA BR BKN047 OVC060 07/07 A2993 620 100 -100 000/00 RMK AO2 VIS 1 1/4 RWY 14 P0000
14840KMKG MKG20021120171514011/20/02 17:15:31  5-MIN KMKG 202215Z 00000KT 5SM -RA BR FEW038 BKN047 OVC060 07/07 A2992 630 100 -100 000/00 RMK AO2 VIS 1 1/4 RWY 14 P0001
14840KMKG MKG20021120172014011/20/02 17:20:31  5-MIN KMKG 202220Z 07003KT 6SM -RA BR FEW038 SCT047 OVC060 07/07 A2992 630 100 -100 080/03 RMK AO2 VIS 1 1/2 RWY 14 P0001
14840KMKG MKG20021120172513611/20/02 17:25:31  5-MIN KMKG 202225Z 06003KT 6SM -RA BR FEW045 BKN060 OVC080 06/06 A2992 630 100 -200 070/03 RMK AO2 VIS 2 RWY 14 P0001
14840KMKG MKG20021120173013611/20/02 17:30:31  5-MIN KMKG 202230Z 00000KT 6SM -RA BR SCT047 BKN060 OVC080 06/06 A2992 630 100 -200 000/00 RMK AO2 VIS 2 RWY 14 P0001
14840KMKG MKG20021120173512611/20/02 17:35:31  5-MIN KMKG 202235Z 08004KT 7SM -RA SCT048 OVC060 07/07 A2992 630 100 -100 080/04 RMK AO2 VIS 2 RWY 14 P0001
14840KMKG MKG20021120174013011/20/02 17:40:31  5-MIN KMKG 202240Z 08003KT 8SM -RA FEW048 OVC060 06/06 A2992 630 100 -200 080/03 RMK AO2 VIS 1 3/4 RWY 14 P0001
14840KMKG MKG20021120174512811/20/02 17:45:31  5-MIN KMKG 202245Z 08003KT 7SM BKN055 OVC070 06/06 A2992 630 100 -200 090/03 RMK AO2 VIS 2 RWY 14 RAE43 P0001
14840KMKG MKG20021120175015611/20/02 17:50:31  5-MIN KMKG 202250Z 09003KT 7SM FEW049 BKN060 OVC075 06/06 A2992 630 100 -200 090/03 RMK AO2 VIS 2 1/2 RWY 14 RAE43 SLP137 P0001 T00610061
14840KMKG MKG20021120175515211/20/02 17:55:31  5-MIN KMKG 202255Z 09003KT 5SM BR SCT049 OVC060 06/06 A2992 630 100 -200 100/03 RMK AO2 VIS 2 1/2 RWY 14 RAE43 SLP137 P0001 T00610061
14840KMKG MKG20021120180012311/20/02 18:00:31  5-MIN KMKG 202300Z 10003KT 3SM BR BKN055 OVC070 06/06 A2992 630 100 -200 100/03 RMK AO2 VIS 2 1/2 RWY 14
14840KMKG MKG20021120180512211/20/02 18:05:31  5-MIN KMKG 202305Z 09003KT 3SM -RA BR FEW050 OVC060 06/06 A2992 640 100 -200 090/03 RMK AO2 RAB03 P0000
14840KMKG MKG20021120181012911/20/02 18:10:31  5-MIN KMKG 202310Z 09003KT 4SM -RA BR FEW050 BKN060 OVC075 06/06 A2991 640 100 -200 090/03 RMK AO2 RAB03 P0000
14840KMKG MKG20021120181512111/20/02 18:15:31  5-MIN KMKG 202315Z 09003KT 4SM BR FEW050 OVC060 06/06 A2991 640 100 -200 090/03 RMK AO2 RAB03E11 P0000
14840KMKG MKG20021120182012211/20/02 18:20:31  5-MIN KMKG 202320Z 00000KT 5SM -RA BR FEW050 OVC060 06/06 A2991 640 100 -200 000/00 RMK AO2 RAB03 P0000
14840KMKG MKG20021120182513711/20/02 18:25:31  5-MIN KMKG 202325Z 04003KT 5SM -RA BR FEW050 OVC060 06/06 A2991 640 100 -200 050/03 RMK AO2 RAB03 CIG 048 RWY 14 P0000
14840KMKG MKG20021120183013711/20/02 18:30:31  5-MIN KMKG 202330Z 00000KT 5SM -RA BR SCT046 OVC060 06/06 A2991 640 100 -200 000/00 RMK AO2 RAB03 CIG 046 RWY 14 P0000
14840KMKG MKG20021120183512211/20/02 18:35:31  5-MIN KMKG 202335Z 00000KT 6SM -RA BR BKN046 OVC060 07/07 A2991 640 100 -100 000/00 RMK AO2 RAB03 P0000
14840KMKG MKG20021120184012211/20/02 18:40:31  5-MIN KMKG 202340Z 00000KT 6SM -RA BR BKN046 OVC060 07/07 A2991 640 100 -100 000/00 RMK AO2 RAB03 P0000
14840KMKG MKG20021120184512211/20/02 18:45:31  5-MIN KMKG 202345Z 00000KT 5SM -RA BR BKN048 OVC060 06/06 A2991 640 100 -200 000/00 RMK AO2 RAB03 P0000
14840KMKG MKG20021120185015611/20/02 18:50:31  5-MIN KMKG 202350Z 00000KT 5SM -RA BR OVC048 06/06 A2991 640 100 -200 000/00 RMK AO2 RAB03 SLP135 P0000 60006 T00610061 10089 20061 56008
14840KMKG MKG20021120185516311/20/02 18:55:31  5-MIN KMKG 202355Z 00000KT 4SM -RA BR FEW038 OVC048 06/06 A2991 640 100 -200 000/00 RMK AO2 RAB03 SLP135 P0000 60006 T00610061 10089 20061 58005
14840KMKG MKG20021120190013611/20/02 19:00:31  5-MIN KMKG 210000Z 00000KT 4SM -RA BR FEW036 BKN048 OVC065 06/06 A2991 640 100 -200 000/00 RMK AO2 VIS 2 RWY 14 P0001
14840KMKG MKG20021120190514011/20/02 19:05:31  5-MIN KMKG 210005Z 00000KT 4SM -RA BR FEW036 BKN048 OVC065 06/06 A2991 640 100 -200 000/00 RMK AO2 VIS 1 3/4 RWY 14 P0001
14840KMKG MKG20021120191014011/20/02 19:10:31  5-MIN KMKG 210010Z 00000KT 3SM -RA BR SCT038 BKN048 OVC065 06/06 A2991 640 100 -200 000/00 RMK AO2 VIS 1 1/2 RWY 14 P0001
14840KMKG MKG20021120191515511/20/02 19:15:31  5-MIN KMKG 210015Z 00000KT 3SM -RA BR SCT036 BKN050 OVC065 06/06 A2991 640 100 -200 000/00 RMK AO2 VIS 1 1/2 RWY 14 CIG 039 RWY 14 P0001
14840KMKG MKG20021120192014411/20/02 19:20:31  5-MIN KMKG 210020Z 00000KT 2 1/2SM -RA BR BKN046 BKN055 OVC065 06/06 A2991 640 100 -200 000/00 RMK AO2 VIS 1 1/4 RWY 14 P0001
14840KMKG MKG20021120192516911/20/02 19:25:31  5-MIN KMKG 210025Z 00000KT 2 1/2SM -RA BR FEW046 BKN055 OVC090 06/06 A2991 640 100 -200 000/00 RMK AO2 TWR VIS 6 VIS 1 1/4 RWY 14 CIG 044 RWY 14 P0001
14840KMKG MKG20021120193016511/20/02 19:30:31  5-MIN KMKG 210030Z 00000KT 3SM -RA BR FEW049 BKN060 OVC090 06/06 A2991 640 100 -200 000/00 RMK AO2 TWR VIS 6 VIS 1 3/4 RWY 14 CIG 049 RWY 14 P0001
14840KMKG MKG20021120193513311/20/02 19:35:31  5-MIN KMKG 210035Z 00000KT 3SM -RA BR SCT049 BKN065 OVC110 06/06 A2991 640 100 -200 000/00 RMK AO2 TWR VIS 6 P0001
14840KMKG MKG20021120194013511/20/02 19:40:31  5-MIN KMKG 210040Z 07003KT 3SM BR FEW049 BKN070 OVC110 06/06 A2991 640 100 -200 070/03 RMK AO2 TWR VIS 6 RAE36 P0001
14840KMKG MKG20021120194513911/20/02 19:45:31  5-MIN KMKG 210045Z 06003KT 2 1/2SM BR FEW047 BKN085 OVC110 06/06 A2991 640 100 -300 070/03 RMK AO2 TWR VIS 6 RAE36 P0001
14840KMKG MKG20021120195015211/20/02 19:50:31  5-MIN KMKG 210050Z 08003KT 3SM BR FEW047 BKN095 OVC110 06/06 A2991 640 100 -300 080/03 RMK AO2 TWR VIS 6 RAE36 SLP133 P0001 T00560056
14840KMKG MKG20021120195515211/20/02 19:55:31  5-MIN KMKG 210055Z 00000KT 3SM BR FEW046 BKN095 OVC110 06/06 A2991 640 100 -300 000/00 RMK AO2 TWR VIS 6 RAE36 SLP133 P0001 T00560056
14840KMKG MKG20021120200012311/20/02 20:00:31  5-MIN KMKG 210100Z 00000KT 3SM BR SCT048 BKN100 OVC110 06/06 A2991 640 100 -300 000/00 RMK AO2 TWR VIS 6
14840KMKG MKG20021120200510611/20/02 20:05:31  5-MIN KMKG 210105Z 00000KT 4SM BR BKN048 OVC100 06/06 A2991 640 100 -300 000/00 RMK AO2
14840KMKG MKG20021120201012211/20/02 20:10:31  5-MIN KMKG 210110Z 00000KT 4SM -RA BR BKN048 OVC100 06/06 A2991 640 100 -300 000/00 RMK AO2 RAB09 P0000
14840KMKG MKG20021120201512211/20/02 20:15:31  5-MIN KMKG 210115Z 00000KT 4SM -RA BR BKN048 OVC100 06/06 A2991 640 100 -300 000/00 RMK AO2 RAB09 P0000
14840KMKG MKG20021120202014511/20/02 20:20:31  5-MIN KMKG 210120Z 12003KT 3SM -RA BR BKN048 OVC055 06/06 A2991 640 100 -300 130/03 RMK AO2 TWR VIS 6 VIS 2 RWY 14 RAB09 P0000
14840KMKG MKG20021120202514911/20/02 20:25:31  5-MIN KMKG 210125Z 11004KT 3SM -RA BR BKN048 OVC055 06/06 A2990 650 100 -200 120/04 RMK AO2 TWR VIS 6 VIS 2 1/2 RWY 14 RAB09 P0001
14840KMKG MKG20021120203012511/20/02 20:30:31  5-MIN KMKG 210130Z 12004KT 3SM -RA BR OVC050 06/06 A2990 650 100 -200 120/04 RMK AO2 TWR VIS 6 RAB09 P0001
14840KMKG MKG20021120203512511/20/02 20:35:31  5-MIN KMKG 210135Z 12005KT 3SM -RA BR OVC050 06/06 A2990 650 100 -200 120/05 RMK AO2 TWR VIS 6 RAB09 P0001
14840KMKG MKG20021120204011511/20/02 20:40:31  5-MIN KMKG 210140Z 12004KT 4SM -RA BR OVC055 06/06 A2990 650 100 -200 130/04 RMK AO2 RAB09 P0001
14840KMKG MKG20021120204511511/20/02 20:45:31  5-MIN KMKG 210145Z 12003KT 4SM -RA BR OVC055 06/06 A2990 650 100 -200 120/03 RMK AO2 RAB09 P0001
14840KMKG MKG20021120205013211/20/02 20:50:31  5-MIN KMKG 210150Z 12003KT 4SM -RA BR OVC055 06/06 A2990 650 100 -200 130/03 RMK AO2 RAB09 SLP132 P0001 T00560056
14840KMKG MKG20021120205515411/20/02 20:55:31  5-MIN KMKG 210155Z 13003KT 4SM -RA BR SCT045 OVC055 06/06 A2990 650 100 -300 130/03 RMK AO2 RAB09 CIG 047 RWY 14 SLP132 P0001 T00560056
14840KMKG MKG20021120210013111/20/02 21:00:31  5-MIN KMKG 210200Z 00000KT 4SM -RA BR SCT043 OVC060 06/06 A2990 650 100 -200 000/00 RMK AO2 CIG 045 RWY 14 P0000
14840KMKG MKG20021120210513111/20/02 21:05:31  5-MIN KMKG 210205Z 00000KT 4SM -RA BR SCT043 OVC060 06/06 A2990 650 100 -200 000/00 RMK AO2 CIG 045 RWY 14 P0000
14840KMKG MKG20021120211013111/20/02 21:10:31  5-MIN KMKG 210210Z 00000KT 4SM -RA BR SCT045 OVC055 06/06 A2990 650 100 -200 000/00 RMK AO2 CIG 045 RWY 14 P0001
14840KMKG MKG20021120211513111/20/02 21:15:31  5-MIN KMKG 210215Z 00000KT 4SM -RA BR SCT043 OVC055 06/06 A2990 650 100 -200 000/00 RMK AO2 CIG 043 RWY 14 P0001
14840KMKG MKG20021120212013811/20/02 21:20:31  5-MIN KMKG 210220Z 00000KT 5SM -RA BR SCT043 BKN055 OVC075 06/06 A2990 650 100 -200 000/00 RMK AO2 CIG 043 RWY 14 P0001
14840KMKG MKG20021120212513811/20/02 21:25:31  5-MIN KMKG 210225Z 00000KT 5SM -RA BR FEW043 BKN055 OVC080 06/06 A2990 650 100 -200 000/00 RMK AO2 CIG 043 RWY 14 P0001
14840KMKG MKG20021120213013811/20/02 21:30:31  5-MIN KMKG 210230Z 00000KT 4SM -RA BR FEW043 BKN070 OVC080 06/06 A2990 650 100 -200 000/00 RMK AO2 CIG 046 RWY 14 P0001
14840KMKG MKG20021120213512311/20/02 21:35:31  5-MIN KMKG 210235Z 00000KT 4SM -RA BR FEW043 BKN065 OVC110 06/06 A2990 650 100 -200 000/00 RMK AO2 P0001
14840KMKG MKG20021120214012311/20/02 21:40:31  5-MIN KMKG 210240Z 11004KT 4SM -RA BR BKN060 BKN080 OVC110 06/06 A2989 650 100 -200 110/04 RMK AO2 P0001
14840KMKG MKG20021120214512311/20/02 21:45:31  5-MIN KMKG 210245Z 11005KT 4SM -RA BR FEW046 BKN060 OVC080 06/06 A2989 660 100 -200 120/05 RMK AO2 P0001
14840KMKG MKG20021120215015211/20/02 21:50:31  5-MIN KMKG 210250Z 12006KT 4SM -RA BR FEW046 BKN060 OVC080 06/06 A2989 660 100 -200 120/06 RMK AO2 SLP126 P0001 60003 T00560056 58005
14840KMKG MKG20021120215514511/20/02 21:55:31  5-MIN KMKG 210255Z 12008KT 4SM -RA BR FEW046 OVC060 06/06 A2989 660 100 -200 130/08 RMK AO2 SLP124 P0001 60003 T00560056 58009
14840KMKG MKG20021120220011811/20/02 22:00:31  5-MIN KMKG 210300Z 12007KT 4SM BR FEW046 OVC060 06/06 A2988 670 100 -200 130/07 RMK AO2 RAE00 P0000
14840KMKG MKG20021120220511811/20/02 22:05:31  5-MIN KMKG 210305Z 12007KT 4SM BR FEW046 OVC060 06/06 A2988 670 100 -200 120/07 RMK AO2 RAE00 P0000
14840KMKG MKG20021120221011811/20/02 22:10:31  5-MIN KMKG 210310Z 12006KT 4SM BR FEW046 OVC065 06/06 A2988 670 100 -200 120/06 RMK AO2 RAE00 P0000
14840KMKG MKG20021120221511111/20/02 22:15:31  5-MIN KMKG 210315Z 10005KT 4SM BR OVC060 06/06 A2988 670 100 -200 110/05 RMK AO2 RAE00 P0000
14840KMKG MKG20021120222011111/20/02 22:20:31  5-MIN KMKG 210320Z 09003KT 5SM BR OVC060 06/06 A2988 670 100 -200 100/03 RMK AO2 RAE00 P0000
14840KMKG MKG20021120222511111/20/02 22:25:31  5-MIN KMKG 210325Z 13003KT 5SM BR OVC065 06/06 A2988 670 100 -200 130/03 RMK AO2 RAE00 P0000
14840KMKG MKG20021120223011111/20/02 22:30:31  5-MIN KMKG 210330Z 13004KT 6SM BR OVC065 06/06 A2988 670 100 -200 140/04 RMK AO2 RAE00 P0000
14840KMKG MKG20021120223511111/20/02 22:35:31  5-MIN KMKG 210335Z 14004KT 6SM BR OVC060 06/06 A2988 670 100 -200 140/04 RMK AO2 RAE00 P0000
14840KMKG MKG20021120224011111/20/02 22:40:31  5-MIN KMKG 210340Z 15003KT 6SM BR OVC060 06/06 A2987 670 100 -200 150/03 RMK AO2 RAE00 P0000
14840KMKG MKG20021120224511111/20/02 22:45:31  5-MIN KMKG 210345Z 00000KT 6SM BR OVC060 06/06 A2987 670 100 -200 000/00 RMK AO2 RAE00 P0000
14840KMKG MKG20021120225012811/20/02 22:50:31  5-MIN KMKG 210350Z 14004KT 5SM BR OVC060 06/06 A2987 670 100 -200 140/04 RMK AO2 RAE00 SLP121 P0000 T00560056
14840KMKG MKG20021120225512811/20/02 22:55:31  5-MIN KMKG 210355Z 14003KT 5SM BR OVC065 06/06 A2987 670 100 -200 140/03 RMK AO2 RAE00 SLP120 P0000 T00560056
14840KMKG MKG20021120230009911/20/02 23:00:31  5-MIN KMKG 210400Z 00000KT 4SM BR OVC060 06/06 A2987 670 100 -200 000/00 RMK AO2
14840KMKG MKG20021120230509911/20/02 23:05:31  5-MIN KMKG 210405Z 00000KT 4SM BR OVC060 06/06 A2987 680 100 -200 000/00 RMK AO2
14840KMKG MKG20021120231010611/20/02 23:10:31  5-MIN KMKG 210410Z 29005KT 4SM BR BKN065 OVC120 05/05 A2987 670 100 -300 290/05 RMK AO2
14840KMKG MKG20021120231510611/20/02 23:15:31  5-MIN KMKG 210415Z 29003KT 4SM BR BKN065 OVC120 05/05 A2988 670 100 -300 290/03 RMK AO2
14840KMKG MKG20021120232013611/20/02 23:20:31  5-MIN KMKG 210420Z 00000KT 3SM BR BKN065 BKN090 OVC120 05/05 A2987 670 100 -300 000/00 RMK AO2 TWR VIS 6 VIS 2 RWY 14
14840KMKG MKG20021120232513011/20/02 23:25:31  5-MIN KMKG 210425Z 00000KT 4SM BR BKN060 BKN090 OVC120 05/05 A2987 670 100 -300 000/00 RMK AO2 VIS 1 3/4 RWY 14
14840KMKG MKG20021120233012611/20/02 23:30:31  5-MIN KMKG 210430Z 00000KT 3SM BR BKN060 BKN090 OVC120 05/05 A2987 680 100 -300 000/00 RMK AO2 VIS 2 RWY 14
14840KMKG MKG20021120233513011/20/02 23:35:31  5-MIN KMKG 210435Z 03003KT 3SM BR BKN055 BKN090 OVC120 05/05 A2987 680 100 -300 030/03 RMK AO2 VIS 1 1/2 RWY 14
14840KMKG MKG20021120234011911/20/02 23:40:31  5-MIN KMKG 210440Z 04003KT 2SM BR BKN055 OVC090 04/04 A2987 680 100 -300 050/03 RMK AO2 VIS 1 RWY 14
14840KMKG MKG20021120234512311/20/02 23:45:31  5-MIN KMKG 210445Z 04003KT 1 3/4SM BR BKN055 OVC090 04/04 A2986 680 100 -300 050/03 RMK AO2 VIS 1 RWY 14
14840KMKG MKG20021120235014411/20/02 23:50:31  5-MIN KMKG 210450Z 00000KT 1 1/2SM BR FEW046 BKN055 OVC090 04/04 A2986 690 100 -300 000/00 RMK AO2 SLP115 T00440044 400941022
14840KMKG MKG20021120235514011/20/02 23:55:31  5-MIN KMKG 210455Z 09003KT 1SM BR FEW046 BKN055 OVC090 04/04 A2986 690 100 -300 090/03 RMK AO2 SLP114 T00440044 400941022
14840KMKG MKG20021121000011311/21/02 00:00:31  5-MIN KMKG 210500Z 00000KT 1SM BR FEW055 BKN075 OVC090 04/04 A2986 690 100 -300 000/00 RMK AO2
14840KMKG MKG20021121000511511/21/02 00:05:31  5-MIN KMKG 210505Z 00000KT 3/4SM BR FEW055 BKN085 OVC120 04/04 A2986 690 100 -300 000/00 RMK AO2
14840KMKG MKG20021121001011511/21/02 00:10:31  5-MIN KMKG 210510Z 00000KT 1/2SM FG FEW060 BKN085 BKN120 04/04 A2985 690 100 -300 000/00 RMK AO2
14840KMKG MKG20021121001513011/21/02 00:15:31  5-MIN KMKG 210515Z 00000KT 1/4SM FG FEW060 SCT085 BKN120 04/04 A2985 700 100 -300 000/00 RMK AO2 CIG 085 RWY 14
14840KMKG MKG20021121002013011/21/02 00:20:31  5-MIN KMKG 210520Z 00000KT 1/4SM FG FEW070 SCT085 BKN120 04/04 A2985 700 100 -400 000/00 RMK AO2 CIG 070 RWY 14
14840KMKG MKG20021121002513011/21/02 00:25:31  5-MIN KMKG 210525Z 00000KT 1/4SM FG SCT070 BKN085 BKN120 03/03 A2985 690 100 -500 000/00 RMK AO2 CIG 070 RWY 14
14840KMKG MKG20021121003013011/21/02 00:30:31  5-MIN KMKG 210530Z 00000KT 1/4SM FG FEW065 BKN090 BKN120 04/04 A2985 690 100 -400 000/00 RMK AO2 CIG 065 RWY 14
14840KMKG MKG20021121003511511/21/02 00:35:31  5-MIN KMKG 210535Z 11003KT 1/4SM FG FEW065 BKN090 BKN120 04/04 A2985 700 100 -400 110/03 RMK AO2
14840KMKG MKG20021121004010811/21/02 00:40:31  5-MIN KMKG 210540Z 10003KT 1/4SM FG FEW070 BKN090 03/03 A2985 700 100 -500 100/03 RMK AO2
14840KMKG MKG20021121004510811/21/02 00:45:31  5-MIN KMKG 210545Z 11003KT 1/4SM FG FEW070 OVC090 04/04 A2985 700 100 -400 110/03 RMK AO2
14840KMKG MKG20021121005014911/21/02 00:50:31  5-MIN KMKG 210550Z 11003KT 1/4SM FG FEW070 OVC090 03/03 A2985 700 100 -500 110/03 RMK AO2 SLP111 60003 T00330033 10061 20033 58009
14840KMKG MKG20021121005514911/21/02 00:55:31  5-MIN KMKG 210555Z 10003KT 1/4SM FG SCT070 OVC090 03/03 A2984 700 100 -500 100/03 RMK AO2 SLP110 60003 T00330033 10061 20033 58014
14840KMKG MKG20021121010012311/21/02 01:00:31  5-MIN KMKG 210600Z 00000KT 1/4SM FG SCT070 OVC090 04/04 A2984 700 100 -400 000/00 RMK AO2 CIG 070 RWY 14
14840KMKG MKG20021121010511511/21/02 01:05:31  5-MIN KMKG 210605Z 05003KT 1/4SM FG FEW070 BKN090 OVC120 03/03 A2984 700 100 -500 060/03 RMK AO2
14840KMKG MKG20021121011011511/21/02 01:10:31  5-MIN KMKG 210610Z 00000KT 1/2SM FG FEW070 BKN085 OVC120 03/03 A2984 710 100 -400 000/00 RMK AO2
14840KMKG MKG20021121011511511/21/02 01:15:31  5-MIN KMKG 210615Z 08003KT 1/4SM FG FEW070 BKN085 OVC120 03/03 A2983 710 100 -400 080/03 RMK AO2
14840KMKG MKG20021121012011511/21/02 01:20:31  5-MIN KMKG 210620Z 06003KT 1/4SM FG FEW070 BKN085 OVC120 03/03 A2983 710 100 -400 070/03 RMK AO2
14840KMKG MKG20021121012510811/21/02 01:25:31  5-MIN KMKG 210625Z 03003KT 1/4SM FG BKN085 OVC120 03/03 A2983 710 100 -400 030/03 RMK AO2
14840KMKG MKG20021121013011511/21/02 01:30:31  5-MIN KMKG 210630Z 36003KT 1/4SM FG FEW020 BKN085 OVC120 03/03 A2983 710 100 -400 010/03 RMK AO2
14840KMKG MKG20021121013510811/21/02 01:35:31  5-MIN KMKG 210635Z 00000KT 1/4SM FG SCT020 OVC085 04/04 A2983 710 100 -400 000/00 RMK AO2
14840KMKG MKG20021121014010811/21/02 01:40:31  5-MIN KMKG 210640Z 00000KT 1/2SM FG BKN020 OVC085 04/04 A2983 710 100 -400 000/00 RMK AO2
14840KMKG MKG20021121014511511/21/02 01:45:31  5-MIN KMKG 210645Z 00000KT 1/2SM FG BKN020 BKN060 OVC085 04/04 A2983 710 100 -400 000/00 RMK AO2
14840KMKG MKG20021121015013211/21/02 01:50:31  5-MIN KMKG 210650Z 00000KT 1/2SM FG BKN020 BKN060 OVC085 04/04 A2983 720 100 -400 000/00 RMK AO2 SLP104 T00390039
14840KMKG MKG20021121015512511/21/02 01:55:31  5-MIN KMKG 210655Z 02003KT 3/4SM BR BKN020 OVC060 04/04 A2983 720 100 -400 020/03 RMK AO2 SLP104 T00390039
14840KMKG MKG20021121020010611/21/02 02:00:31  5-MIN KMKG 210700Z 00000KT 1SM BR BKN020 OVC060 04/04 A2983 720 100 -300 000/00 RMK AO2
14840KMKG MKG20021121020511011/21/02 02:05:31  5-MIN KMKG 210705Z 00000KT 1 3/4SM BR BKN020 OVC060 04/04 A2983 720 100 -300 000/00 RMK AO2
14840KMKG MKG20021121021011711/21/02 02:10:31  5-MIN KMKG 210710Z 06003KT 1 3/4SM BR FEW016 BKN020 OVC060 04/04 A2982 720 100 -300 060/03 RMK AO2
14840KMKG MKG20021121021511011/21/02 02:15:31  5-MIN KMKG 210715Z 05003KT 1 1/2SM BR SCT020 OVC060 04/04 A2982 720 100 -300 050/03 RMK AO2
14840KMKG MKG20021121022011011/21/02 02:20:31  5-MIN KMKG 210720Z 03003KT 1 1/2SM BR SCT020 OVC065 04/04 A2982 720 100 -300 030/03 RMK AO2
14840KMKG MKG20021121022511011/21/02 02:25:31  5-MIN KMKG 210725Z 00000KT 1 3/4SM BR FEW020 OVC065 04/04 A2982 720 100 -300 000/00 RMK AO2
14840KMKG MKG20021121023010611/21/02 02:30:31  5-MIN KMKG 210730Z 06004KT 2SM BR FEW020 OVC065 04/04 A2982 720 100 -300 060/04 RMK AO2
14840KMKG MKG20021121023511711/21/02 02:35:31  5-MIN KMKG 210735Z 08004KT 1 3/4SM BR FEW020 SCT050 OVC065 04/04 A2982 720 100 -400 080/04 RMK AO2
14840KMKG MKG20021121024011011/21/02 02:40:31  5-MIN KMKG 210740Z 09004KT 1 1/2SM BR FEW050 OVC065 04/04 A2982 730 100 -400 090/04 RMK AO2
14840KMKG MKG20021121024511011/21/02 02:45:31  5-MIN KMKG 210745Z 11004KT 1 1/2SM BR SCT050 OVC065 04/04 A2982 730 100 -400 120/04 RMK AO2
14840KMKG MKG20021121025012711/21/02 02:50:31  5-MIN KMKG 210750Z 00000KT 1 1/2SM BR BKN050 OVC065 04/04 A2981 730 100 -400 000/00 RMK AO2 SLP100 T00390039
14840KMKG MKG20021121025512711/21/02 02:55:31  5-MIN KMKG 210755Z 00000KT 1 1/2SM BR BKN050 OVC065 04/04 A2982 730 100 -400 000/00 RMK AO2 SLP101 T00390039
14840KMKG MKG20021121030011011/21/02 03:00:31  5-MIN KMKG 210800Z 00000KT 1 3/4SM BR BKN050 OVC065 04/04 A2982 730 100 -400 000/00 RMK AO2
14840KMKG MKG20021121030510311/21/02 03:05:31  5-MIN KMKG 210805Z 08003KT 1 3/4SM BR OVC050 04/04 A2981 730 100 -300 090/03 RMK AO2
14840KMKG MKG20021121031010311/21/02 03:10:31  5-MIN KMKG 210810Z 08004KT 1 1/2SM BR BKN050 04/04 A2981 740 100 -300 080/04 RMK AO2
14840KMKG MKG20021121031510311/21/02 03:15:31  5-MIN KMKG 210815Z 08004KT 1 1/2SM BR BKN050 03/03 A2981 740 100 -400 080/04 RMK AO2
14840KMKG MKG20021121032010311/21/02 03:20:31  5-MIN KMKG 210820Z 09004KT 1 1/2SM BR SCT055 03/03 A2981 740 100 -400 090/04 RMK AO2
14840KMKG MKG20021121032510311/21/02 03:25:31  5-MIN KMKG 210825Z 09003KT 1 1/2SM BR BKN055 03/03 A2981 740 100 -400 100/03 RMK AO2
14840KMKG MKG20021121033010311/21/02 03:30:31  5-MIN KMKG 210830Z 04003KT 1 1/2SM BR BKN055 03/03 A2980 740 100 -400 050/03 RMK AO2
14840KMKG MKG20021121033510311/21/02 03:35:31  5-MIN KMKG 210835Z 34004KT 1 1/4SM BR BKN060 03/03 A2981 730 100 -400 340/04 RMK AO2
14840KMKG MKG20021121034010311/21/02 03:40:31  5-MIN KMKG 210840Z 34004KT 1 1/4SM BR BKN055 04/04 A2981 730 100 -300 340/04 RMK AO2
14840KMKG MKG20021121034510311/21/02 03:45:31  5-MIN KMKG 210845Z 36003KT 1 3/4SM BR OVC055 04/04 A2981 740 100 -300 010/03 RMK AO2
14840KMKG MKG20021121035012211/21/02 03:50:31  5-MIN KMKG 210850Z 01004KT 2SM BR OVC055 04/04 A2980 740 100 -300 010/04 RMK AO2 SLP097 T00440044 58014
14840KMKG MKG20021121035515011/21/02 03:55:31  5-MIN KMKG 210855Z 36005KT 2 1/2SM BR FEW003 OVC055 04/04 A2980 740 100 -300 010/05 RMK AO2 VIS 1 1/2 RWY 14 SLP097 T00440044 56013
14840KMKG MKG20021121040013411/21/02 04:00:31  5-MIN KMKG 210900Z 04005KT 2 1/2SM BR FEW003 SCT012 OVC055 04/04 A2980 740 100 -300 040/05 RMK AO2 VIS 1 1/2 RWY 14
14840KMKG MKG20021121040513411/21/02 04:05:31  5-MIN KMKG 210905Z 04006KT 2 1/2SM BR FEW003 BKN012 OVC055 04/04 A2980 740 100 -300 040/06 RMK AO2 VIS 1 3/4 RWY 14
14840KMKG MKG20021121041013411/21/02 04:10:31  5-MIN KMKG 210910Z 04004KT 2 1/2SM BR FEW003 BKN012 OVC055 04/04 A2980 740 100 -300 050/04 RMK AO2 VIS 1 3/4 RWY 14
14840KMKG MKG20021121041513411/21/02 04:15:31  5-MIN KMKG 210915Z 05005KT 2 1/2SM BR FEW003 BKN012 OVC055 04/04 A2980 750 100 -300 050/05 RMK AO2 VIS 1 3/4 RWY 14
14840KMKG MKG20021121042011711/21/02 04:20:31  5-MIN KMKG 210920Z 06004KT 2 1/2SM BR FEW003 BKN012 OVC055 04/04 A2979 750 100 -300 060/04 RMK AO2
14840KMKG MKG20021121042511011/21/02 04:25:31  5-MIN KMKG 210925Z 06004KT 2 1/2SM BR BKN012 OVC055 04/04 A2979 750 100 -300 060/04 RMK AO2
14840KMKG MKG20021121043011011/21/02 04:30:31  5-MIN KMKG 210930Z 06003KT 2 1/2SM BR BKN012 OVC090 04/04 A2979 750 100 -300 060/03 RMK AO2
14840KMKG MKG20021121043509911/21/02 04:35:31  5-MIN KMKG 210935Z 00000KT 2SM BR OVC012 04/04 A2979 750 100 -300 000/00 RMK AO2
14840KMKG MKG20021121044010311/21/02 04:40:31  5-MIN KMKG 210940Z 02004KT 2 1/2SM BR OVC012 04/04 A2980 750 100 -300 020/04 RMK AO2
14840KMKG MKG20021121044510311/21/02 04:45:31  5-MIN KMKG 210945Z 01003KT 2 1/2SM BR OVC012 04/04 A2980 750 100 -300 010/03 RMK AO2
14840KMKG MKG20021121045012011/21/02 04:50:31  5-MIN KMKG 210950Z 01004KT 2 1/2SM BR OVC012 05/05 A2980 750 100 -200 010/04 RMK AO2 SLP094 T00500050
14840KMKG MKG20021121045512011/21/02 04:55:31  5-MIN KMKG 210955Z 01005KT 2 1/2SM BR OVC012 05/05 A2979 750 100 -200 010/05 RMK AO2 SLP093 T00500050
14840KMKG MKG20021121050010311/21/02 05:00:31  5-MIN KMKG 211000Z 01005KT 2 1/2SM BR OVC012 05/05 A2979 750 100 -200 010/05 RMK AO2
14840KMKG MKG20021121050510311/21/02 05:05:31  5-MIN KMKG 211005Z 02005KT 2 1/2SM BR OVC012 05/05 A2979 750 100 -200 020/05 RMK AO2
14840KMKG MKG20021121051010311/21/02 05:10:31  5-MIN KMKG 211010Z 02005KT 2 1/2SM BR OVC012 05/05 A2979 750 100 -200 030/05 RMK AO2
14840KMKG MKG20021121051511211/21/02 05:15:31  5-MIN KMKG 211015Z 01006KT 3SM BR OVC012 05/05 A2979 750 100 -200 020/06 RMK AO2 VIS 2 RWY 14
14840KMKG MKG20021121052009911/21/02 05:20:31  5-MIN KMKG 211020Z 02008KT 3SM BR OVC012 05/05 A2979 750 100 -200 020/08 RMK AO2
14840KMKG MKG20021121052509911/21/02 05:25:31  5-MIN KMKG 211025Z 01005KT 3SM BR OVC012 05/05 A2979 750 100 -200 010/05 RMK AO2
14840KMKG MKG20021121053009911/21/02 05:30:31  5-MIN KMKG 211030Z 02005KT 4SM BR OVC014 05/05 A2979 750 100 -200 020/05 RMK AO2
14840KMKG MKG20021121053511511/21/02 05:35:31  5-MIN KMKG 211035Z 01005KT 4SM -RA BR OVC014 05/05 A2979 750 100 -200 010/05 RMK AO2 RAB35 P0000
14840KMKG MKG20021121054011511/21/02 05:40:31  5-MIN KMKG 211040Z 01004KT 4SM -RA BR OVC014 05/05 A2979 750 100 -200 020/04 RMK AO2 RAB35 P0000
14840KMKG MKG20021121054511511/21/02 05:45:31  5-MIN KMKG 211045Z 01006KT 5SM -RA BR OVC014 05/05 A2979 750 100 -200 010/06 RMK AO2 RAB35 P0000
14840KMKG MKG20021121055013111/21/02 05:50:31  5-MIN KMKG 211050Z 02007KT 4SM BR OVC014 05/05 A2979 750 100 -200 020/07 RMK AO2 RAB35E46 SLP091 P0000 T00500050
14840KMKG MKG20021121055513111/21/02 05:55:31  5-MIN KMKG 211055Z 03008KT 4SM BR OVC016 05/05 A2979 760 100 -200 030/08 RMK AO2 RAB35E46 SLP090 P0000 T00500050
14840KMKG MKG20021121060010611/21/02 06:00:31  5-MIN KMKG 211100Z 03007KT 4SM BR BKN016 OVC022 05/05 A2978 760 100 -200 030/07 RMK AO2
14840KMKG MKG20021121060509911/21/02 06:05:31  5-MIN KMKG 211105Z 02007KT 4SM BR OVC019 05/05 A2979 760 100 -200 030/07 RMK AO2
14840KMKG MKG20021121061010611/21/02 06:10:31  5-MIN KMKG 211110Z 04006KT 4SM BR BKN019 OVC023 04/04 A2978 760 100 -200 040/06 RMK AO2
14840KMKG MKG20021121061510611/21/02 06:15:31  5-MIN KMKG 211115Z 04005KT 4SM BR BKN021 OVC050 04/04 A2978 760 100 -200 050/05 RMK AO2
14840KMKG MKG20021121062010611/21/02 06:20:31  5-MIN KMKG 211120Z 03006KT 4SM BR BKN021 OVC048 04/04 A2978 760 100 -200 040/06 RMK AO2
14840KMKG MKG20021121062510611/21/02 06:25:31  5-MIN KMKG 211125Z 03006KT 4SM BR BKN021 OVC048 04/04 A2978 760 100 -200 040/06 RMK AO2
14840KMKG MKG20021121063010611/21/02 06:30:31  5-MIN KMKG 211130Z 03006KT 4SM BR BKN021 OVC050 04/04 A2978 760 100 -200 030/06 RMK AO2
14840KMKG MKG20021121063512211/21/02 06:35:31  5-MIN KMKG 211135Z 04007KT 4SM -RA BR BKN021 OVC050 04/04 A2978 760 100 -200 040/07 RMK AO2 RAB35 P0000
14840KMKG MKG20021121064012211/21/02 06:40:31  5-MIN KMKG 211140Z 04006KT 4SM -RA BR BKN021 OVC048 04/04 A2978 760 100 -200 050/06 RMK AO2 RAB35 P0000
14840KMKG MKG20021121064512911/21/02 06:45:31  5-MIN KMKG 211145Z 04006KT 4SM -RA BR FEW018 BKN023 OVC046 04/04 A2978 760 100 -200 050/06 RMK AO2 RAB35 P0000
14840KMKG MKG20021121065016911/21/02 06:50:31  5-MIN KMKG 211150Z 03006KT 4SM -RA BR BKN021 OVC046 04/04 A2978 760 100 -200 030/06 RMK AO2 RAB35 SLP087 P0000 60000 70010 T00440044 10050 20033 56013
14840KMKG MKG20021121065516911/21/02 06:55:31  5-MIN KMKG 211155Z 03006KT 5SM -RA BR BKN021 OVC046 04/04 A2978 760 100 -200 040/06 RMK AO2 RAB35 SLP088 P0000 60000 70010 T00440044 10050 20033 56008
14840KMKG MKG20021121070011611/21/02 07:00:31  5-MIN KMKG 211200Z 03005KT 5SM -RA BR BKN021 OVC046 04/04 A2978 760 100 -200 030/05 RMK AO2 P0000
14840KMKG MKG20021121070511611/21/02 07:05:31  5-MIN KMKG 211205Z 04005KT 4SM -RA BR BKN021 OVC046 04/04 A2978 760 100 -200 050/05 RMK AO2 P0001
14840KMKG MKG20021121071013311/21/02 07:10:31  5-MIN KMKG 211210Z 04007KT 4SM -RA BR BKN021 OVC026 04/04 A2978 760 100 -200 040/07 RMK AO2 VIS 2 1/2 RWY 14 P0002
14840KMKG MKG20021121071512111/21/02 07:15:31  5-MIN KMKG 211215Z 05009KT 3SM RA BR OVC021 04/04 A2978 760 100 -200 050/09 RMK AO2 VIS 2 RWY 14 P0003
14840KMKG MKG20021121072012211/21/02 07:20:31  5-MIN KMKG 211220Z 04007KT 3SM -RA BR OVC021 04/04 A2978 760 100 -200 050/07 RMK AO2 VIS 2 RWY 14 P0003
14840KMKG MKG20021121072512611/21/02 07:25:31  5-MIN KMKG 211225Z 04008KT 4SM -RA BR OVC021 04/04 A2977 770 100 -200 040/08 RMK AO2 VIS 2 1/2 RWY 14 P0003
14840KMKG MKG20021121073011611/21/02 07:30:31  5-MIN KMKG 211230Z 04007KT 4SM -RA BR BKN021 OVC027 04/04 A2977 770 100 -200 050/07 RMK AO2 P0003
14840KMKG MKG20021121073511811/21/02 07:35:31  5-MIN KMKG 211235Z 04007KT 4SM BR FEW006 OVC023 04/04 A2977 770 100 -200 050/07 RMK AO2 RAE33 P0003
14840KMKG MKG20021121074013511/21/02 07:40:31  5-MIN KMKG 211240Z 04008KT 4SM BR SCT006 OVC023 04/04 A2977 770 100 -200 050/08 RMK AO2 VIS 2 1/2 RWY 14 RAE33 P0003
14840KMKG MKG20021121074511811/21/02 07:45:31  5-MIN KMKG 211245Z 05009KT 4SM BR BKN006 OVC023 04/04 A2977 770 100 -200 060/09 RMK AO2 RAE33 P0003
14840KMKG MKG20021121075013511/21/02 07:50:31  5-MIN KMKG 211250Z 05010KT 4SM BR BKN006 OVC023 04/04 A2977 770 100 -200 050/10 RMK AO2 RAE33 SLP085 P0003 T00440044
14840KMKG MKG20021121075513511/21/02 07:55:31  5-MIN KMKG 211255Z 05009KT 4SM BR BKN006 OVC021 04/04 A2977 770 100 -200 060/09 RMK AO2 RAE33 SLP085 P0003 T00440044
14840KMKG MKG20021121080011811/21/02 08:00:31  5-MIN KMKG 211300Z 05010KT 4SM BR BKN006 OVC021 04/04 A2977 770 100 -200 060/10 RMK AO2 CIG 005V009
14840KMKG MKG20021121080510611/21/02 08:05:31  5-MIN KMKG 211305Z 06010KT 4SM BR SCT006 OVC021 04/04 A2977 770 100 -200 060/10 RMK AO2
14840KMKG MKG20021121081010611/21/02 08:10:31  5-MIN KMKG 211310Z 06010KT 4SM BR FEW006 OVC021 04/04 A2976 780 100 -200 060/10 RMK AO2
14840KMKG MKG20021121081510611/21/02 08:15:31  5-MIN KMKG 211315Z 06010KT 4SM BR FEW006 OVC021 04/04 A2976 780 100 -200 060/10 RMK AO2
14840KMKG MKG20021121082010611/21/02 08:20:31  5-MIN KMKG 211320Z 05009KT 4SM BR FEW006 OVC019 04/04 A2976 780 100 -200 050/09 RMK AO2
14840KMKG MKG20021121082512211/21/02 08:25:31  5-MIN KMKG 211325Z 04010KT 5SM -RA BR FEW008 OVC019 04/04 A2977 770 100 -200 040/10 RMK AO2 RAB23 P0000
14840KMKG MKG20021121083012211/21/02 08:30:31  5-MIN KMKG 211330Z 03008KT 5SM -RA BR SCT008 OVC019 04/04 A2977 770 100 -200 030/08 RMK AO2 RAB23 P0000
14840KMKG MKG20021121083513711/21/02 08:35:31  5-MIN KMKG 211335Z 02008KT 6SM -RA BR SCT008 OVC019 04/04 A2977 770 100 -200 020/08 RMK AO2 RAB23 CIG 008 RWY 14 P0000
14840KMKG MKG20021121084013411/21/02 08:40:31  5-MIN KMKG 211340Z 01008KT 6SM -RA BR BKN008 OVC019 04/04 A2977 770 100 -200 010/08 RMK AO2 RAB23 CIG 006V011 P0000
14840KMKG MKG20021121084513411/21/02 08:45:31  5-MIN KMKG 211345Z 01010KT 6SM -RA BR BKN008 OVC019 04/04 A2978 760 100 -200 010/10 RMK AO2 RAB23 CIG 006V012 P0000
14840KMKG MKG20021121085015111/21/02 08:50:31  5-MIN KMKG 211350Z 01009KT 5SM -RA BR BKN008 OVC019 04/04 A2978 760 100 -200 020/09 RMK AO2 RAB23 CIG 006V013 SLP088 P0000 T00440044
14840KMKG MKG20021121085514311/21/02 08:55:31  5-MIN KMKG 211355Z 02010KT 5SM -RA BR OVC010 04/04 A2977 770 96 -200 020/10 RMK AO2 RAB23 CIG 006V013 SLP087 P0001 T00440039
14840KMKG MKG20021121090015611/21/02 09:00:31  5-MIN KMKG 211400Z 03011KT 3SM RA BR BKN010 BKN015 OVC020 04/04 A2978 760 96 -200 030/11 RMK AO2 SFC VIS 3 VIS 2 RWY 14 CIG 006V012 P0001
14840KMKG MKG20021121090514711/21/02 09:05:31  5-MIN KMKG 211405Z 01011KT 3SM RA BR BKN010 BKN015 OVC020 04/04 A2978 760 100 -300 010/11 RMK AO2 VIS 2 RWY 14 CIG 006V012 P0002
14840KMKG MKG20021121091014911/21/02 09:10:31  5-MIN KMKG 211410Z 02008KT 3SM RA BR BKN010 OVC020 04/03 A2978 760 96 -300 020/08 RMK AO2 SFC VIS 3 VIS 2 RWY 14 CIG 006V014 P0003
14840KMKG MKG20021121091516011/21/02 09:15:31  5-MIN KMKG 211415Z 02013G17KT 3SM RA BR SCT007 BKN012 OVC020 03/03 A2978 760 100 -400 020/13G17 RMK AO2 VIS 1 3/4 RWY 14 CIG 008 RWY 14 P0004
14840KMKG MKG20021121092015811/21/02 09:20:31  5-MIN KMKG 211420Z 03013G17KT 2 1/2SM RA BR BKN009 BKN014 OVC020 03/02 A2978 760 96 -500 030/13G17 RMK AO2 TWR VIS 3 VIS 1 1/2 RWY 14 P0005
14840KMKG MKG20021121092516411/21/02 09:25:31  5-MIN KMKG 211425Z 03013KT 2SM +RA BR SCT008 SCT014 OVC022 02/02 A2978 760 96 -500 040/13 RMK AO2 TWR VIS 3 VIS 1 1/4 RWY 14 CIG 010 RWY 14 P0008
14840KMKG MKG20021121093015111/21/02 09:30:31  5-MIN KMKG 211430Z 03012KT 1 1/2SM +RA BR FEW008 BKN022 OVC030 02/02 A2978 760 96 -500 040/12 RMK AO2 TWR VIS 3 CIG 010 RWY 14 P0010
14840KMKG MKG20021121093515111/21/02 09:35:31  5-MIN KMKG 211435Z 02011KT 1 3/4SM RA BR FEW008 BKN024 OVC030 02/02 A2978 760 100 -500 020/11 RMK AO2 TWR VIS 3 CIG 010 RWY 14 P0010
14840KMKG MKG20021121094014711/21/02 09:40:31  5-MIN KMKG 211440Z 02010KT 2SM RA BR FEW008 BKN024 OVC030 02/02 A2978 760 100 -500 020/10 RMK AO2 TWR VIS 3 CIG 012 RWY 14 P0011
14840KMKG MKG20021121094516911/21/02 09:45:31  5-MIN KMKG 211445Z 02010KT 2 1/2SM -RA BR FEW011 BKN024 OVC030 02/02 A2978 760 100 -500 020/10 RMK AO2 TWR VIS 3 VIS 1 3/4 RWY 14 CIG 012 RWY 14 P0012
14840KMKG MKG20021121095018311/21/02 09:50:31  5-MIN KMKG 211450Z 03011KT 3SM RA BR SCT010 BKN024 OVC030 02/02 A2978 760 100 -500 030/11 RMK AO2 VIS 1 3/4 RWY 14 CIG 012 RWY 14 SLP090 P0012 60016 T00220022 56008
14840KMKG MKG20021121095516411/21/02 09:55:31  5-MIN KMKG 211455Z 03010KT 3SM RA BR BKN010 BKN024 OVC030 02/02 A2978 760 100 -500 030/10 RMK AO2 VIS 2 RWY 14 SLP090 P0013 60017 T00220022 53000
14840KMKG MKG20021121100013811/21/02 10:00:31  5-MIN KMKG 211500Z 02010KT 3SM RASN BR BKN008 OVC024 02/02 A2978 760 100 -500 030/10 RMK AO2 VIS 2 RWY 14 SNB1456 P0001
14840KMKG MKG20021121100513911/21/02 10:05:31  5-MIN KMKG 211505Z 03009KT 2 1/2SM RASN BR BKN008 OVC024 02/02 A2978 760 100 -500 030/09 RMK AO2 TWR VIS 3 SNB1456 P0003
14840KMKG MKG20021121101012811/21/02 10:10:31  5-MIN KMKG 211510Z 04007KT 2SM RASN BR OVC008 02/02 A2978 760 100 -600 040/07 RMK AO2 TWR VIS 3 SNB1456 P0004
14840KMKG MKG20021121101513611/21/02 10:15:31  5-MIN KMKG 211515Z 03010KT 1 3/4SM -SN BR OVC008 02/02 A2978 760 100 -600 040/10 RMK AO2 TWR VIS 3 RAE14SNB1456 P0006
14840KMKG MKG20021121102013611/21/02 10:20:31  5-MIN KMKG 211520Z 04008KT 1 3/4SM -SN BR OVC008 01/01 A2978 760 100 -700 040/08 RMK AO2 TWR VIS 2 RAE14SNB1456 P0007
14840KMKG MKG20021121102513611/21/02 10:25:31  5-MIN KMKG 211525Z 04007KT 1 3/4SM -SN BR OVC008 01/01 A2978 760 100 -700 040/07 RMK AO2 TWR VIS 2 RAE14SNB1456 P0008
14840KMKG MKG20021121103013611/21/02 10:30:31  5-MIN KMKG 211530Z 03007KT 1 1/2SM -SN BR OVC006 01/01 A2978 760 100 -700 040/07 RMK AO2 TWR VIS 2 RAE14SNB1456 P0009
14840KMKG MKG20021121103513611/21/02 10:35:31  5-MIN KMKG 211535Z 03007KT 1 1/2SM -SN BR OVC006 01/01 A2978 760 100 -700 030/07 RMK AO2 TWR VIS 2 RAE14SNB1456 P0010
14840KMKG MKG20021121104013611/21/02 10:40:31  5-MIN KMKG 211540Z 03008KT 1 1/4SM -SN BR OVC006 01/01 A2978 760 100 -700 040/08 RMK AO2 TWR VIS 2 RAE14SNB1456 P0011
14840KMKG MKG20021121104515011/21/02 10:45:31  5-MIN KMKG 211545Z 04007KT 1 1/4SM -SN BR BKN006 BKN011 OVC019 01/01 A2978 760 100 -700 040/07 RMK AO2 TWR VIS 2 RAE14SNB1456 P0012
14840KMKG MKG20021121105016011/21/02 10:50:31  5-MIN KMKG 211550Z 03006KT 1 3/4SM -SN BR BKN006 OVC015 01/01 A2978 760 100 -700 030/06 RMK AO2 TWR VIS 2 RAE14SNB1456 SLP089 P0012 T00110011
14840KMKG MKG20021121105514611/21/02 10:55:31  5-MIN KMKG 211555Z 02006KT 2SM -SN BR BKN004 OVC015 01/01 A2978 760 100 -700 030/06 RMK AO2 RAE14SNB1456 SLP090 P0013 T00110011
14840KMKG MKG20021121110013311/21/02 11:00:31  5-MIN KMKG 211600Z 02006KT 2SM -SN BR BKN004 OVC013 01/01 A2978 760 100 -700 020/06 RMK AO2 VIS 1 1/4 RWY 14 P0000
14840KMKG MKG20021121110513011/21/02 11:05:31  5-MIN KMKG 211605Z 02005KT 1 1/2SM -SN BR BKN004 OVC015 01/01 A2978 760 100 -700 020/05 RMK AO2 TWR VIS 2 P0000
14840KMKG MKG20021121111013011/21/02 11:10:31  5-MIN KMKG 211610Z 02006KT 1 1/2SM -SN BR BKN004 OVC015 01/01 A2978 760 100 -700 020/06 RMK AO2 TWR VIS 2 P0001
14840KMKG MKG20021121111513011/21/02 11:15:31  5-MIN KMKG 211615Z 02006KT 1 3/4SM -SN BR BKN004 OVC012 01/01 A2978 760 100 -700 030/06 RMK AO2 TWR VIS 2 P0001
14840KMKG MKG20021121112012311/21/02 11:20:31  5-MIN KMKG 211620Z 03006KT 1 3/4SM -SN BR OVC004 01/01 A2977 770 100 -700 030/06 RMK AO2 TWR VIS 2 P0002
14840KMKG MKG20021121112510911/21/02 11:25:31  5-MIN KMKG 211625Z 02009KT 2SM -SN BR OVC004 01/01 A2977 770 100 -600 020/09 RMK AO2 P0002
14840KMKG MKG20021121113012311/21/02 11:30:31  5-MIN KMKG 211630Z 02008KT 2SM -SN BR OVC004 01/01 A2977 770 100 -600 020/08 RMK AO2 SFC VIS 2 1/2 P0003
14840KMKG MKG20021121113514011/21/02 11:35:31  5-MIN KMKG 211635Z 03007KT 2SM -SN BR OVC004 01/01 A2977 770 100 -600 030/07 RMK AO2 SFC VIS 2 1/2 VIS 1 3/4 RWY 14 P0003
14840KMKG MKG20021121114011611/21/02 11:40:31  5-MIN KMKG 211640Z 02009KT 2SM -SN BR BKN004 OVC011 01/01 A2977 770 100 -600 030/09 RMK AO2 P0003
14840KMKG MKG20021121114511611/21/02 11:45:31  5-MIN KMKG 211645Z 03009KT 2SM -SN BR BKN004 OVC011 01/01 A2977 770 100 -600 030/09 RMK AO2 P0004
14840KMKG MKG20021121115013911/21/02 11:50:31  5-MIN KMKG 211650Z 02010G16KT 2SM -SN BR BKN004 OVC017 01/01 A2977 770 100 -600 030/10G16 RMK AO2 SLP085 P0004 T00110011
14840KMKG MKG20021121115514711/21/02 11:55:31  5-MIN KMKG 211655Z 02010KT 1 1/2SM -SN BR BKN004 OVC009 01/01 A2977 770 100 -600 030/10 RMK AO2 TWR VIS 2 SLP085 P0005 T00110011
14840KMKG MKG20021121120013011/21/02 12:00:31  5-MIN KMKG 211700Z 02010KT 1 1/4SM -SN BR BKN004 OVC009 01/01 A2976 770 100 -600 030/10 RMK AO2 TWR VIS 2 P0000
14840KMKG MKG20021121120513011/21/02 12:05:31  5-MIN KMKG 211705Z 03009KT 1 1/2SM -SN BR BKN004 OVC011 01/01 A2976 780 100 -600 030/09 RMK AO2 TWR VIS 2 P0001
14840KMKG MKG20021121121011611/21/02 12:10:31  5-MIN KMKG 211710Z 02011KT 2SM -SN BR BKN004 OVC017 01/01 A2976 780 100 -600 030/11 RMK AO2 P0001
14840KMKG MKG20021121121512311/21/02 12:15:31  5-MIN KMKG 211715Z 02009KT 1 1/2SM -SN BR OVC004 01/01 A2976 780 100 -600 020/09 RMK AO2 TWR VIS 2 P0001
14840KMKG MKG20021121122012311/21/02 12:20:31  5-MIN KMKG 211720Z 03009KT 1 1/2SM -SN BR OVC004 01/01 A2976 780 100 -600 030/09 RMK AO2 TWR VIS 2 P0002
14840KMKG MKG20021121122513011/21/02 12:25:31  5-MIN KMKG 211725Z 03008KT 2SM -SN BR BKN004 OVC012 01/01 A2976 780 100 -600 040/08 RMK AO2 SFC VIS 2 1/2 P0002
14840KMKG MKG20021121123012611/21/02 12:30:31  5-MIN KMKG 211730Z 02010KT 2SM -SN BR BKN004 OVC010 01/01 A2976 780 100 -600 030/10 RMK AO2 SFC VIS 3 P0002
14840KMKG MKG20021121123513011/21/02 12:35:31  5-MIN KMKG 211735Z 03008KT 1 3/4SM -SN BR BKN004 OVC010 01/01 A2976 780 100 -600 040/08 RMK AO2 TWR VIS 2 P0003
14840KMKG MKG20021121124012311/21/02 12:40:31  5-MIN KMKG 211740Z 02010KT 1 1/4SM -SN BR OVC004 01/01 A2976 780 100 -600 030/10 RMK AO2 TWR VIS 2 P0003
14840KMKG MKG20021121124512311/21/02 12:45:31  5-MIN KMKG 211745Z 02010KT 1SM -SN BR OVC004 01/01 A2976 780 100 -600 030/10 RMK AO2 SFC VIS 1 1/4 P0004
14840KMKG MKG20021121125017111/21/02 12:50:31  5-MIN KMKG 211750Z 03011KT 1SM -SN BR BKN004 OVC009 01/01 A2976 780 100 -600 030/11 RMK AO2 SFC VIS 1 1/4 SLP083 P0004 60039 T00110011 10044 20011 53000
14840KMKG MKG20021121125516411/21/02 12:55:31  5-MIN KMKG 211755Z 03010KT 1SM -SN BR OVC006 01/01 A2976 780 100 -600 030/10 RMK AO2 SFC VIS 1 1/4 SLP082 P0004 60039 T00110011 10044 20011 58008
14840KMKG MKG20021121130011311/21/02 13:00:31  5-MIN KMKG 211800Z 03012KT 1 1/2SM -SN BR OVC006 01/01 A2976 780 100 -600 040/12 RMK AO2 P0000
14840KMKG MKG20021121130512311/21/02 13:05:31  5-MIN KMKG 211805Z 04011KT 1 1/2SM -SN BR OVC006 01/01 A2976 780 100 -600 040/11 RMK AO2 SFC VIS 2 P0001
14840KMKG MKG20021121131013411/21/02 13:10:31  5-MIN KMKG 211810Z 03012KT 1 1/2SM -SN BR BKN006 OVC010 01/01 A2975 790 100 -600 040/12 RMK AO2 SFC VIS 2 1/2 P0001
14840KMKG MKG20021121131512911/21/02 13:15:31  5-MIN KMKG 211815Z 04011KT 1 1/2SM -SN BR BKN006 OVC012 02/01 A2975 790 96 -600 040/11 RMK AO2 SFC VIS 4 P0001
14840KMKG MKG20021121132012611/21/02 13:20:31  5-MIN KMKG 211820Z 04011KT 1 1/2SM -SN SCT006 OVC014 02/01 A2975 790 96 -600 040/11 RMK AO2 SFC VIS 7 P0001
14840KMKG MKG20021121132511211/21/02 13:25:31  5-MIN KMKG 211825Z 04010KT 9SM -SN FEW006 OVC016 02/01 A2975 790 96 -600 040/10 RMK AO2 P0001
14840KMKG MKG20021121133011911/21/02 13:30:31  5-MIN KMKG 211830Z 04011G17KT 9SM -SN FEW008 OVC018 02/02 A2975 790 100 -600 040/11G17 RMK AO2 P0001
14840KMKG MKG20021121133512511/21/02 13:35:31  5-MIN KMKG 211835Z 03010G17KT 9SM -SN FEW008 BKN022 OVC032 02/02 A2975 790 96 -500 040/10G17 RMK AO2 P0001
14840KMKG MKG20021121134013111/21/02 13:40:31  5-MIN KMKG 211840Z 03009KT 10SM -RA FEW008 BKN024 OVC032 02/02 A2975 780 96 -500 040/09 RMK AO2 RAB37SNE37 P0001
14840KMKG MKG20021121134512411/21/02 13:45:31  5-MIN KMKG 211845Z 03011KT 10SM -RA SCT008 OVC029 02/02 A2976 780 96 -500 040/11 RMK AO2 RAB37SNE37 P0001
14840KMKG MKG20021121135014711/21/02 13:50:31  5-MIN KMKG 211850Z 03009KT 10SM FEW008 BKN033 OVC041 02/02 A2976 780 96 -500 030/09 RMK AO2 RAB37E48SNE37 SLP081 P0001 T00220017
14840KMKG MKG20021121135514011/21/02 13:55:31  5-MIN KMKG 211855Z 03011KT 10SM SCT010 OVC035 02/02 A2975 780 96 -500 030/11 RMK AO2 RAB37E48SNE37 SLP081 P0001 T00220017
14840KMKG MKG20021121140012511/21/02 14:00:31  5-MIN KMKG 211900Z 04010G15KT 010V070 10SM SCT010 OVC039 02/02 A2976 780 96 -500 040/10G15 010V070 RMK AO2
14840KMKG MKG20021121140510311/21/02 14:05:31  5-MIN KMKG 211905Z 03009KT 10SM SCT010 OVC041 02/02 A2976 780 96 -500 030/09 RMK AO2
14840KMKG MKG20021121141010311/21/02 14:10:31  5-MIN KMKG 211910Z 03009KT 10SM SCT010 OVC043 02/02 A2976 780 96 -500 030/09 RMK AO2
14840KMKG MKG20021121141511011/21/02 14:15:31  5-MIN KMKG 211915Z 02010KT 10SM SCT010 BKN040 OVC047 03/02 A2976 780 96 -400 020/10 RMK AO2
14840KMKG MKG20021121142010311/21/02 14:20:31  5-MIN KMKG 211920Z 02009KT 10SM SCT010 OVC049 03/02 A2976 780 92 -400 030/09 RMK AO2
14840KMKG MKG20021121142510311/21/02 14:25:31  5-MIN KMKG 211925Z 02010KT 10SM SCT010 OVC049 03/02 A2976 780 96 -400 030/10 RMK AO2
14840KMKG MKG20021121143010311/21/02 14:30:31  5-MIN KMKG 211930Z 03009KT 10SM FEW010 OVC049 03/02 A2976 780 96 -400 030/09 RMK AO2
14840KMKG MKG20021121143510311/21/02 14:35:31  5-MIN KMKG 211935Z 02009KT 10SM FEW010 OVC049 03/02 A2976 780 96 -400 030/09 RMK AO2
14840KMKG MKG20021121144010311/21/02 14:40:31  5-MIN KMKG 211940Z 02009KT 10SM FEW010 OVC049 03/02 A2976 780 92 -400 030/09 RMK AO2
14840KMKG MKG20021121144509611/21/02 14:45:31  5-MIN KMKG 211945Z 03010KT 10SM OVC049 03/02 A2976 780 92 -400 030/10 RMK AO2
14840KMKG MKG20021121145011311/21/02 14:50:31  5-MIN KMKG 211950Z 03008KT 10SM OVC049 03/02 A2976 770 92 -400 030/08 RMK AO2 SLP084 T00330022
14840KMKG MKG20021121145511311/21/02 14:55:31  5-MIN KMKG 211955Z 02009KT 10SM BKN049 03/02 A2977 770 92 -400 030/09 RMK AO2 SLP085 T00330022
14840KMKG MKG20021121150010311/21/02 15:00:31  5-MIN KMKG 212000Z 03007KT 10SM FEW026 OVC049 03/02 A2977 770 92 -400 030/07 RMK AO2
14840KMKG MKG20021121150510311/21/02 15:05:31  5-MIN KMKG 212005Z 04006KT 10SM FEW026 OVC049 03/02 A2977 770 92 -400 040/06 RMK AO2
14840KMKG MKG20021121151010311/21/02 15:10:31  5-MIN KMKG 212010Z 03007KT 10SM FEW028 OVC049 03/02 A2977 770 92 -400 040/07 RMK AO2
14840KMKG MKG20021121151510311/21/02 15:15:31  5-MIN KMKG 212015Z 02007KT 10SM FEW028 BKN055 03/02 A2977 770 92 -400 030/07 RMK AO2
14840KMKG MKG20021121152010311/21/02 15:20:31  5-MIN KMKG 212020Z 03007KT 10SM FEW028 OVC055 03/02 A2977 770 92 -400 030/07 RMK AO2
14840KMKG MKG20021121152510311/21/02 15:25:31  5-MIN KMKG 212025Z 01006KT 10SM FEW028 OVC055 03/02 A2977 770 92 -400 020/06 RMK AO2
14840KMKG MKG20021121153010311/21/02 15:30:31  5-MIN KMKG 212030Z 03007KT 10SM FEW028 OVC050 04/02 A2977 770 89 -300 030/07 RMK AO2
14840KMKG MKG20021121153509611/21/02 15:35:31  5-MIN KMKG 212035Z 02009KT 10SM OVC055 04/02 A2977 770 89 -300 030/09 RMK AO2
14840KMKG MKG20021121154009611/21/02 15:40:31  5-MIN KMKG 212040Z 02007KT 10SM OVC055 04/02 A2977 770 85 -300 020/07 RMK AO2
14840KMKG MKG20021121154510311/21/02 15:45:31  5-MIN KMKG 212045Z 02008KT 10SM BKN055 OVC100 04/02 A2977 770 85 -300 020/08 RMK AO2
14840KMKG MKG20021121155013911/21/02 15:50:31  5-MIN KMKG 212050Z 01007KT 10SM BKN055 BKN075 OVC100 04/02 A2978 760 85 -300 020/07 RMK AO2 SLP088 60001 T00390017 58008
14840KMKG MKG20021121155513911/21/02 15:55:31  5-MIN KMKG 212055Z 02008KT 10SM BKN055 BKN080 OVC100 04/02 A2978 760 85 -300 020/08 RMK AO2 SLP089 60001 T00390017 53008
14840KMKG MKG20021121160011811/21/02 16:00:31  5-MIN KMKG 212100Z 01007KT 10SM SCT055 OVC080 04/01 A2978 760 82 -300 010/07 RMK AO2 CIG 060 RWY 14
14840KMKG MKG20021121160510311/21/02 16:05:31  5-MIN KMKG 212105Z 01008KT 10SM SCT055 OVC080 04/01 A2978 760 82 -300 010/08 RMK AO2
14840KMKG MKG20021121161010311/21/02 16:10:31  5-MIN KMKG 212110Z 01009KT 10SM FEW055 OVC080 04/01 A2978 760 82 -300 010/09 RMK AO2
14840KMKG MKG20021121161510311/21/02 16:15:31  5-MIN KMKG 212115Z 36010KT 10SM FEW060 OVC080 04/01 A2979 750 82 -300 010/10 RMK AO2
14840KMKG MKG20021121162010311/21/02 16:20:31  5-MIN KMKG 212120Z 01010KT 10SM FEW055 OVC080 04/01 A2979 750 79 -300 010/10 RMK AO2
14840KMKG MKG20021121162511011/21/02 16:25:31  5-MIN KMKG 212125Z 36009KT 10SM FEW055 BKN070 OVC085 04/01 A2979 750 79 -300 010/09 RMK AO2
14840KMKG MKG20021121163010911/21/02 16:30:31  5-MIN KMKG 212130Z 36009G16KT 10SM BKN060 OVC080 04/01 A2979 750 79 -300 360/09G16 RMK AO2
14840KMKG MKG20021121163510311/21/02 16:35:31  5-MIN KMKG 212135Z 36010KT 10SM BKN060 OVC080 04/00 A2979 750 76 -300 360/10 RMK AO2
14840KMKG MKG20021121164010311/21/02 16:40:31  5-MIN KMKG 212140Z 36010KT 10SM BKN060 OVC080 04/00 A2980 740 76 -300 360/10 RMK AO2
14840KMKG MKG20021121164509611/21/02 16:45:31  5-MIN KMKG 212145Z 36010KT 10SM OVC060 04/00 A2980 740 76 -300 010/10 RMK AO2
14840KMKG MKG20021121165011311/21/02 16:50:31  5-MIN KMKG 212150Z 36010KT 10SM OVC060 04/00 A2980 740 76 -300 010/10 RMK AO2 SLP097 T00390000
14840KMKG MKG20021121165512011/21/02 16:55:31  5-MIN KMKG 212155Z 36013G17KT 10SM OVC055 04/M01 A2980 740 73 -300 010/13G17 RMK AO2 SLP097 T00391006
14840KMKG MKG20021121170010311/21/02 17:00:31  5-MIN KMKG 212200Z 01012G17KT 10SM OVC055 04/M01 A2981 730 70 -300 010/12G17 RMK AO2
14840KMKG MKG20021121170511011/21/02 17:05:31  5-MIN KMKG 212205Z 01015G20KT 10SM BKN055 OVC080 04/M01 A2981 730 70 -300 010/15G20 RMK AO2
14840KMKG MKG20021121171011011/21/02 17:10:31  5-MIN KMKG 212210Z 01014G20KT 10SM BKN055 OVC080 04/M01 A2981 730 70 -300 020/14G20 RMK AO2
14840KMKG MKG20021121171511111/21/02 17:15:31  5-MIN KMKG 212215Z 02011KT 10SM BKN060 BKN075 OVC095 04/M01 A2981 730 70 -300 030/11 RMK AO2
14840KMKG MKG20021121172011111/21/02 17:20:31  5-MIN KMKG 212220Z 02008KT 10SM FEW055 BKN070 OVC095 04/M01 A2981 730 70 -300 020/08 RMK AO2
14840KMKG MKG20021121172511111/21/02 17:25:31  5-MIN KMKG 212225Z 02010KT 10SM FEW055 BKN070 OVC095 04/M01 A2981 730 70 -300 020/10 RMK AO2
14840KMKG MKG20021121173010411/21/02 17:30:31  5-MIN KMKG 212230Z 02008KT 10SM BKN080 OVC095 04/M01 A2981 730 73 -400 030/08 RMK AO2
14840KMKG MKG20021121173511111/21/02 17:35:31  5-MIN KMKG 212235Z 02008KT 10SM FEW035 BKN080 OVC095 03/M01 A2982 730 76 -400 020/08 RMK AO2
14840KMKG MKG20021121174011911/21/02 17:40:31  5-MIN KMKG 212240Z 01006KT 10SM SCT035 OVC090 03/M01 A2982 730 76 -400 020/06 RMK AO2 CIG 037 RWY 14
14840KMKG MKG20021121174510411/21/02 17:45:31  5-MIN KMKG 212245Z 36007KT 10SM SCT035 OVC090 03/M01 A2982 720 76 -400 360/07 RMK AO2
14840KMKG MKG20021121175012111/21/02 17:50:31  5-MIN KMKG 212250Z 36006KT 10SM SCT035 OVC090 03/M01 A2982 720 76 -400 010/06 RMK AO2 SLP104 T00331006
14840KMKG MKG20021121175512111/21/02 17:55:31  5-MIN KMKG 212255Z 36006KT 10SM SCT037 OVC095 03/M01 A2983 720 76 -400 360/06 RMK AO2 SLP105 T00331006
14840KMKG MKG20021121180011111/21/02 18:00:31  5-MIN KMKG 212300Z 35007KT 10SM SCT035 SCT042 OVC095 03/M01 A2983 710 76 -400 360/07 RMK AO2
14840KMKG MKG20021121180511111/21/02 18:05:31  5-MIN KMKG 212305Z 35008KT 10SM FEW035 SCT043 OVC090 03/M01 A2983 710 76 -400 350/08 RMK AO2
14840KMKG MKG20021121181011111/21/02 18:10:31  5-MIN KMKG 212310Z 35008KT 10SM FEW035 SCT043 OVC090 03/M01 A2983 710 76 -400 360/08 RMK AO2
14840KMKG MKG20021121181510411/21/02 18:15:31  5-MIN KMKG 212315Z 35008KT 10SM FEW043 OVC085 03/M01 A2984 710 76 -400 360/08 RMK AO2
14840KMKG MKG20021121182010411/21/02 18:20:31  5-MIN KMKG 212320Z 35009KT 10SM FEW043 OVC080 03/M01 A2984 710 76 -400 360/09 RMK AO2
14840KMKG MKG20021121182510411/21/02 18:25:31  5-MIN KMKG 212325Z 36010KT 10SM FEW046 OVC080 03/M01 A2984 700 76 -500 360/10 RMK AO2
14840KMKG MKG20021121183010411/21/02 18:30:31  5-MIN KMKG 212330Z 36009KT 10SM SCT046 OVC080 03/M01 A2984 700 72 -500 360/09 RMK AO2
14840KMKG MKG20021121183510411/21/02 18:35:31  5-MIN KMKG 212335Z 36011KT 10SM BKN048 OVC080 03/M01 A2985 700 72 -500 360/11 RMK AO2
14840KMKG MKG20021121184010411/21/02 18:40:31  5-MIN KMKG 212340Z 01012KT 10SM BKN048 OVC080 03/M01 A2985 700 72 -500 010/12 RMK AO2
14840KMKG MKG20021121184511011/21/02 18:45:31  5-MIN KMKG 212345Z 35010G17KT 10SM BKN046 OVC080 03/M01 A2985 700 72 -500 360/10G17 RMK AO2
14840KMKG MKG20021121185014411/21/02 18:50:31  5-MIN KMKG 212350Z 36013G18KT 10SM OVC045 03/M01 A2986 690 72 -500 360/13G18 RMK AO2 SLP116 60001 T00331011 10039 20011 53008
14840KMKG MKG20021121185514411/21/02 18:55:31  5-MIN KMKG 212355Z 36016G21KT 10SM OVC043 03/M01 A2986 690 72 -500 360/16G21 RMK AO2 SLP116 60001 T00331011 10039 20011 53026
14840KMKG MKG20021121190010311/21/02 19:00:31  5-MIN KMKG 220000Z 36013G21KT 10SM OVC045 03/M01 A2986 690 72 -500 010/13G21 RMK AO2
14840KMKG MKG20021121190509711/21/02 19:05:31  5-MIN KMKG 220005Z 36013KT 10SM OVC045 03/M01 A2986 690 72 -500 360/13 RMK AO2
14840KMKG MKG20021121191009711/21/02 19:10:31  5-MIN KMKG 220010Z 35011KT 10SM OVC045 03/M01 A2986 690 72 -500 360/11 RMK AO2
14840KMKG MKG20021121191511711/21/02 19:15:31  5-MIN KMKG 220015Z 36011G18KT 10SM SCT042 BKN050 OVC090 03/M01 A2986 690 72 -500 360/11G18 RMK AO2
14840KMKG MKG20021121192010311/21/02 19:20:31  5-MIN KMKG 220020Z 36013G18KT 10SM OVC047 03/M01 A2986 690 72 -500 360/13G18 RMK AO2
14840KMKG MKG20021121192510411/21/02 19:25:31  5-MIN KMKG 220025Z 36012KT 10SM BKN049 OVC090 03/M01 A2986 690 72 -500 360/12 RMK AO2
14840KMKG MKG20021121193010411/21/02 19:30:31  5-MIN KMKG 220030Z 36012KT 10SM BKN049 OVC090 03/M01 A2986 690 72 -500 010/12 RMK AO2
14840KMKG MKG20021121193510411/21/02 19:35:31  5-MIN KMKG 220035Z 35014KT 10SM BKN049 OVC090 03/M01 A2986 680 72 -500 360/14 RMK AO2
14840KMKG MKG20021121194010411/21/02 19:40:31  5-MIN KMKG 220040Z 35012KT 10SM BKN049 OVC090 03/M01 A2986 680 75 -500 360/12 RMK AO2
14840KMKG MKG20021121194510411/21/02 19:45:31  5-MIN KMKG 220045Z 36009KT 10SM BKN049 OVC090 03/M01 A2987 680 75 -600 360/09 RMK AO2
14840KMKG MKG20021121195012111/21/02 19:50:31  5-MIN KMKG 220050Z 36013KT 10SM BKN049 OVC090 03/M01 A2986 680 75 -500 010/13 RMK AO2 SLP118 T00281011
14840KMKG MKG20021121195512111/21/02 19:55:31  5-MIN KMKG 220055Z 36011KT 10SM BKN049 OVC090 03/M02 A2986 680 72 -500 360/11 RMK AO2 SLP118 T00281017
14840KMKG MKG20021121200010411/21/02 20:00:31  5-MIN KMKG 220100Z 01008KT 10SM BKN049 OVC090 03/M02 A2986 680 72 -500 010/08 RMK AO2
14840KMKG MKG20021121200510411/21/02 20:05:31  5-MIN KMKG 220105Z 01012KT 10SM BKN055 OVC095 03/M02 A2987 680 69 -500 010/12 RMK AO2
14840KMKG MKG20021121201011011/21/02 20:10:31  5-MIN KMKG 220110Z 01010G17KT 10SM BKN055 OVC095 03/M02 A2987 680 69 -500 010/10G17 RMK AO2
14840KMKG MKG20021121201511011/21/02 20:15:31  5-MIN KMKG 220115Z 36012G17KT 10SM BKN055 OVC095 03/M02 A2987 680 69 -600 360/12G17 RMK AO2
14840KMKG MKG20021121202011011/21/02 20:20:31  5-MIN KMKG 220120Z 36009G16KT 10SM BKN050 OVC095 03/M02 A2987 680 69 -600 360/09G16 RMK AO2
14840KMKG MKG20021121202510411/21/02 20:25:31  5-MIN KMKG 220125Z 36010KT 10SM BKN050 OVC095 03/M02 A2987 680 69 -600 360/10 RMK AO2
14840KMKG MKG20021121203010411/21/02 20:30:31  5-MIN KMKG 220130Z 36009KT 10SM BKN050 OVC095 03/M02 A2987 680 69 -600 360/09 RMK AO2
14840KMKG MKG20021121203510411/21/02 20:35:31  5-MIN KMKG 220135Z 35011KT 10SM BKN050 OVC090 03/M03 A2987 680 67 -600 360/11 RMK AO2
14840KMKG MKG20021121204010411/21/02 20:40:31  5-MIN KMKG 220140Z 36009KT 10SM BKN050 OVC090 03/M03 A2987 680 67 -600 360/09 RMK AO2
14840KMKG MKG20021121204510411/21/02 20:45:31  5-MIN KMKG 220145Z 36010KT 10SM BKN055 OVC090 03/M03 A2987 680 67 -600 360/10 RMK AO2
14840KMKG MKG20021121205012111/21/02 20:50:31  5-MIN KMKG 220150Z 36011KT 10SM BKN055 OVC090 03/M03 A2987 680 67 -600 360/11 RMK AO2 SLP120 T00281028
14840KMKG MKG20021121205512111/21/02 20:55:31  5-MIN KMKG 220155Z 36009KT 10SM BKN055 OVC090 02/M03 A2987 680 69 -600 360/09 RMK AO2 SLP120 T00221028
14840KMKG MKG20021121210010411/21/02 21:00:31  5-MIN KMKG 220200Z 36009KT 10SM BKN055 OVC090 02/M03 A2987 680 69 -600 010/09 RMK AO2
14840KMKG MKG20021121210510411/21/02 21:05:31  5-MIN KMKG 220205Z 36010KT 10SM BKN055 OVC090 02/M03 A2987 680 69 -600 360/10 RMK AO2
14840KMKG MKG20021121211009711/21/02 21:10:31  5-MIN KMKG 220210Z 35009KT 10SM BKN055 02/M03 A2987 670 69 -600 360/09 RMK AO2
14840KMKG MKG20021121211509711/21/02 21:15:31  5-MIN KMKG 220215Z 36009KT 10SM BKN055 02/M03 A2987 670 69 -600 360/09 RMK AO2
14840KMKG MKG20021121212009711/21/02 21:20:31  5-MIN KMKG 220220Z 36008KT 10SM SCT055 02/M03 A2987 680 69 -600 360/08 RMK AO2
14840KMKG MKG20021121212509711/21/02 21:25:31  5-MIN KMKG 220225Z 36008KT 10SM FEW055 02/M03 A2987 680 72 -700 360/08 RMK AO2
14840KMKG MKG20021121213009711/21/02 21:30:31  5-MIN KMKG 220230Z 36007KT 10SM FEW055 02/M03 A2987 680 72 -700 360/07 RMK AO2
14840KMKG MKG20021121213509711/21/02 21:35:31  5-MIN KMKG 220235Z 35007KT 10SM FEW055 02/M03 A2987 680 72 -700 360/07 RMK AO2
14840KMKG MKG20021121214009711/21/02 21:40:31  5-MIN KMKG 220240Z 35008KT 10SM SCT055 02/M03 A2987 670 69 -600 350/08 RMK AO2
14840KMKG MKG20021121214509711/21/02 21:45:31  5-MIN KMKG 220245Z 36007KT 10SM BKN055 02/M03 A2987 670 69 -600 360/07 RMK AO2
14840KMKG MKG20021121215012011/21/02 21:50:31  5-MIN KMKG 220250Z 35008KT 10SM BKN055 02/M03 A2987 670 69 -600 360/08 RMK AO2 SLP122 T00221028 53026
14840KMKG MKG20021121215512011/21/02 21:55:31  5-MIN KMKG 220255Z 35008KT 10SM BKN055 02/M03 A2988 670 69 -600 350/08 RMK AO2 SLP123 T00221028 51006
14840KMKG MKG20021121220009711/21/02 22:00:31  5-MIN KMKG 220300Z 35008KT 10SM OVC055 02/M03 A2987 670 69 -600 350/08 RMK AO2
14840KMKG MKG20021121220509711/21/02 22:05:31  5-MIN KMKG 220305Z 35008KT 10SM OVC055 02/M03 A2987 670 69 -600 360/08 RMK AO2
14840KMKG MKG20021121221009711/21/02 22:10:31  5-MIN KMKG 220310Z 35008KT 10SM OVC055 02/M03 A2987 670 69 -600 360/08 RMK AO2
14840KMKG MKG20021121221509711/21/02 22:15:31  5-MIN KMKG 220315Z 35009KT 10SM OVC055 02/M03 A2987 670 69 -600 360/09 RMK AO2
14840KMKG MKG20021121222009711/21/02 22:20:31  5-MIN KMKG 220320Z 35008KT 10SM OVC055 02/M03 A2987 670 69 -600 350/08 RMK AO2
14840KMKG MKG20021121222509711/21/02 22:25:31  5-MIN KMKG 220325Z 35011KT 10SM OVC055 02/M03 A2987 680 69 -600 360/11 RMK AO2
14840KMKG MKG20021121223009711/21/02 22:30:31  5-MIN KMKG 220330Z 35009KT 10SM OVC055 02/M03 A2987 670 69 -600 350/09 RMK AO2
14840KMKG MKG20021121223509711/21/02 22:35:31  5-MIN KMKG 220335Z 35009KT 10SM OVC055 02/M03 A2987 680 69 -600 360/09 RMK AO2
14840KMKG MKG20021121224009711/21/02 22:40:31  5-MIN KMKG 220340Z 36011KT 10SM OVC060 02/M03 A2987 680 69 -600 360/11 RMK AO2
14840KMKG MKG20021121224509711/21/02 22:45:31  5-MIN KMKG 220345Z 36012KT 10SM OVC060 02/M03 A2987 680 67 -600 360/12 RMK AO2
14840KMKG MKG20021121225011411/21/02 22:50:31  5-MIN KMKG 220350Z 36010KT 10SM OVC060 02/M03 A2987 680 67 -600 010/10 RMK AO2 SLP121 T00221033
14840KMKG MKG20021121225511411/21/02 22:55:31  5-MIN KMKG 220355Z 36008KT 10SM OVC060 02/M03 A2987 680 67 -600 360/08 RMK AO2 SLP120 T00221033
14840KMKG MKG20021121230009711/21/02 23:00:31  5-MIN KMKG 220400Z 01010KT 10SM OVC060 02/M03 A2987 680 67 -600 020/10 RMK AO2
14840KMKG MKG20021121230509711/21/02 23:05:31  5-MIN KMKG 220405Z 35009KT 10SM BKN060 02/M03 A2987 680 69 -600 360/09 RMK AO2
14840KMKG MKG20021121231009711/21/02 23:10:31  5-MIN KMKG 220410Z 01007KT 10SM SCT060 02/M03 A2986 680 67 -600 010/07 RMK AO2
14840KMKG MKG20021121231509711/21/02 23:15:31  5-MIN KMKG 220415Z 35008KT 10SM SCT060 02/M03 A2987 680 69 -700 360/08 RMK AO2
14840KMKG MKG20021121232009711/21/02 23:20:31  5-MIN KMKG 220420Z 35007KT 10SM BKN060 02/M03 A2987 680 69 -600 360/07 RMK AO2
14840KMKG MKG20021121232509711/21/02 23:25:31  5-MIN KMKG 220425Z 35009KT 10SM BKN060 02/M03 A2987 680 72 -700 360/09 RMK AO2
14840KMKG MKG20021121233009711/21/02 23:30:31  5-MIN KMKG 220430Z 35008KT 10SM SCT060 02/M03 A2987 680 72 -700 360/08 RMK AO2
14840KMKG MKG20021121233509711/21/02 23:35:31  5-MIN KMKG 220435Z 35009KT 10SM BKN060 02/M03 A2987 680 72 -700 350/09 RMK AO2
14840KMKG MKG20021121234009711/21/02 23:40:31  5-MIN KMKG 220440Z 35008KT 10SM BKN060 02/M03 A2987 680 72 -700 350/08 RMK AO2
14840KMKG MKG20021121234509711/21/02 23:45:31  5-MIN KMKG 220445Z 35008KT 10SM BKN060 02/M03 A2987 680 72 -700 350/08 RMK AO2
14840KMKG MKG20021121235012411/21/02 23:50:31  5-MIN KMKG 220450Z 35008KT 10SM BKN060 02/M03 A2987 670 72 -700 350/08 RMK AO2 SLP122 T00171028 400500011
14840KMKG MKG20021121235512411/21/02 23:55:31  5-MIN KMKG 220455Z 35008KT 10SM BKN060 02/M03 A2987 670 72 -700 360/08 RMK AO2 SLP122 T00171028 400500011
14840KMKG MKG20021122000009711/22/02 00:00:31  5-MIN KMKG 220500Z 35008KT 10SM BKN060 02/M03 A2987 670 72 -700 350/08 RMK AO2
14840KMKG MKG20021122000509711/22/02 00:05:31  5-MIN KMKG 220505Z 35007KT 10SM BKN060 02/M03 A2987 670 72 -700 350/07 RMK AO2
14840KMKG MKG20021122001009711/22/02 00:10:31  5-MIN KMKG 220510Z 35009KT 10SM BKN060 02/M03 A2987 670 72 -700 350/09 RMK AO2
14840KMKG MKG20021122001509711/22/02 00:15:31  5-MIN KMKG 220515Z 34009KT 10SM BKN060 02/M03 A2987 670 72 -700 350/09 RMK AO2
14840KMKG MKG20021122002009711/22/02 00:20:31  5-MIN KMKG 220520Z 34008KT 10SM BKN060 02/M03 A2987 670 72 -700 340/08 RMK AO2
14840KMKG MKG20021122002510311/22/02 00:25:31  5-MIN KMKG 220525Z 35009G16KT 10SM BKN060 02/M02 A2987 670 75 -700 350/09G16 RMK AO2
14840KMKG MKG20021122003010311/22/02 00:30:31  5-MIN KMKG 220530Z 35010G16KT 10SM OVC060 02/M03 A2988 670 72 -700 360/10G16 RMK AO2
14840KMKG MKG20021122003509711/22/02 00:35:31  5-MIN KMKG 220535Z 35012KT 10SM OVC060 02/M02 A2987 670 75 -700 350/12 RMK AO2
14840KMKG MKG20021122004009711/22/02 00:40:31  5-MIN KMKG 220540Z 35011KT 10SM OVC060 02/M02 A2988 670 75 -700 350/11 RMK AO2
14840KMKG MKG20021122004509711/22/02 00:45:31  5-MIN KMKG 220545Z 35010KT 10SM OVC060 02/M02 A2988 670 75 -700 360/10 RMK AO2
14840KMKG MKG20021122005013211/22/02 00:50:31  5-MIN KMKG 220550Z 35011KT 10SM OVC060 02/M02 A2988 670 75 -700 360/11 RMK AO2 SLP123 T00171022 10033 20017 51006
14840KMKG MKG20021122005513211/22/02 00:55:31  5-MIN KMKG 220555Z 35010KT 10SM OVC060 02/M02 A2988 670 75 -700 350/10 RMK AO2 SLP124 T00171022 10033 20017 53001
14840KMKG MKG20021122010009711/22/02 01:00:31  5-MIN KMKG 220600Z 35008KT 10SM OVC060 02/M02 A2988 670 75 -700 350/08 RMK AO2
14840KMKG MKG20021122010509711/22/02 01:05:31  5-MIN KMKG 220605Z 34010KT 10SM OVC060 02/M02 A2988 670 75 -700 350/10 RMK AO2
14840KMKG MKG20021122011009711/22/02 01:10:31  5-MIN KMKG 220610Z 36012KT 10SM OVC060 02/M02 A2988 670 75 -700 360/12 RMK AO2
14840KMKG MKG20021122011510311/22/02 01:15:31  5-MIN KMKG 220615Z 34010G16KT 10SM OVC055 02/M02 A2988 670 75 -700 350/10G16 RMK AO2
14840KMKG MKG20021122012009711/22/02 01:20:31  5-MIN KMKG 220620Z 35009KT 10SM OVC055 02/M02 A2988 670 75 -700 350/09 RMK AO2
14840KMKG MKG20021122012509711/22/02 01:25:31  5-MIN KMKG 220625Z 35010KT 10SM OVC055 02/M02 A2988 670 75 -700 350/10 RMK AO2
14840KMKG MKG20021122013010311/22/02 01:30:31  5-MIN KMKG 220630Z 35011G16KT 10SM OVC055 02/M02 A2988 670 75 -700 350/11G16 RMK AO2
14840KMKG MKG20021122013510411/22/02 01:35:31  5-MIN KMKG 220635Z 35011KT 10SM FEW041 OVC055 02/M02 A2988 660 75 -700 350/11 RMK AO2
14840KMKG MKG20021122014010411/22/02 01:40:31  5-MIN KMKG 220640Z 35010KT 10SM SCT043 OVC055 02/M02 A2988 660 78 -700 350/10 RMK AO2
14840KMKG MKG20021122014511011/22/02 01:45:31  5-MIN KMKG 220645Z 35013G19KT 10SM SCT043 OVC060 02/M02 A2988 660 78 -700 360/13G19 RMK AO2
14840KMKG MKG20021122015012711/22/02 01:50:31  5-MIN KMKG 220650Z 35012G19KT 10SM SCT041 OVC055 02/M02 A2989 660 78 -700 360/12G19 RMK AO2 SLP128 T00171017
14840KMKG MKG20021122015512111/22/02 01:55:31  5-MIN KMKG 220655Z 36011KT 10SM SCT043 OVC055 02/M01 A2989 660 82 -700 360/11 RMK AO2 SLP127 T00171011
14840KMKG MKG20021122020011911/22/02 02:00:31  5-MIN KMKG 220700Z 36011KT 10SM SCT041 OVC055 01/M02 A2989 660 82 -800 010/11 RMK AO2 CIG 042 RWY 14
14840KMKG MKG20021122020510411/22/02 02:05:31  5-MIN KMKG 220705Z 36010KT 10SM SCT041 OVC060 01/M02 A2989 660 82 -800 010/10 RMK AO2
14840KMKG MKG20021122021011111/22/02 02:10:31  5-MIN KMKG 220710Z 36010KT 10SM FEW039 SCT047 OVC060 01/M02 A2989 660 82 -800 360/10 RMK AO2
14840KMKG MKG20021122021510411/22/02 02:15:31  5-MIN KMKG 220715Z 35009KT 10SM FEW039 OVC060 01/M02 A2989 660 82 -800 360/09 RMK AO2
14840KMKG MKG20021122022010411/22/02 02:20:31  5-MIN KMKG 220720Z 35008KT 10SM FEW039 OVC060 01/M02 A2989 660 82 -800 360/08 RMK AO2
14840KMKG MKG20021122022510411/22/02 02:25:31  5-MIN KMKG 220725Z 35009KT 10SM FEW039 OVC060 01/M02 A2989 660 82 -800 360/09 RMK AO2
14840KMKG MKG20021122023009711/22/02 02:30:31  5-MIN KMKG 220730Z 35009KT 10SM OVC060 01/M02 A2989 660 82 -800 350/09 RMK AO2
14840KMKG MKG20021122023509711/22/02 02:35:31  5-MIN KMKG 220735Z 35009KT 10SM OVC060 01/M02 A2989 660 82 -800 350/09 RMK AO2
14840KMKG MKG20021122024009711/22/02 02:40:31  5-MIN KMKG 220740Z 35009KT 10SM OVC060 01/M02 A2989 660 82 -800 350/09 RMK AO2
14840KMKG MKG20021122024509711/22/02 02:45:31  5-MIN KMKG 220745Z 35010KT 10SM OVC060 01/M01 A2989 660 85 -800 350/10 RMK AO2
14840KMKG MKG20021122025011411/22/02 02:50:31  5-MIN KMKG 220750Z 34008KT 10SM OVC055 01/M01 A2989 660 85 -800 350/08 RMK AO2 SLP129 T00111011
14840KMKG MKG20021122025511411/22/02 02:55:31  5-MIN KMKG 220755Z 35010KT 10SM OVC055 01/M01 A2989 650 85 -800 360/10 RMK AO2 SLP129 T00111011
14840KMKG MKG20021122030009711/22/02 03:00:31  5-MIN KMKG 220800Z 35008KT 10SM OVC055 01/M01 A2989 660 85 -800 360/08 RMK AO2
14840KMKG MKG20021122030509711/22/02 03:05:31  5-MIN KMKG 220805Z 36010KT 10SM OVC055 01/M01 A2989 660 85 -800 010/10 RMK AO2
14840KMKG MKG20021122031009711/22/02 03:10:31  5-MIN KMKG 220810Z 02009KT 10SM OVC055 01/M01 A2989 660 85 -800 020/09 RMK AO2
14840KMKG MKG20021122031509711/22/02 03:15:31  5-MIN KMKG 220815Z 36010KT 10SM OVC055 01/M01 A2989 650 85 -800 010/10 RMK AO2
14840KMKG MKG20021122032009711/22/02 03:20:31  5-MIN KMKG 220820Z 01009KT 10SM OVC055 01/M01 A2989 650 85 -800 010/09 RMK AO2
14840KMKG MKG20021122032509711/22/02 03:25:31  5-MIN KMKG 220825Z 02010KT 10SM OVC055 01/M01 A2990 650 85 -800 020/10 RMK AO2
14840KMKG MKG20021122033009711/22/02 03:30:31  5-MIN KMKG 220830Z 01011KT 10SM OVC055 01/M01 A2989 650 85 -800 010/11 RMK AO2
14840KMKG MKG20021122033509711/22/02 03:35:31  5-MIN KMKG 220835Z 01010KT 10SM OVC050 01/M01 A2990 650 85 -800 010/10 RMK AO2
14840KMKG MKG20021122034009711/22/02 03:40:31  5-MIN KMKG 220840Z 35009KT 10SM OVC050 01/M01 A2990 650 85 -800 360/09 RMK AO2
14840KMKG MKG20021122034509711/22/02 03:45:31  5-MIN KMKG 220845Z 36008KT 10SM OVC050 01/M01 A2990 650 85 -800 360/08 RMK AO2
14840KMKG MKG20021122035012011/22/02 03:50:31  5-MIN KMKG 220850Z 35009KT 10SM OVC050 01/M01 A2990 650 85 -800 350/09 RMK AO2 SLP129 T00111011 53001
14840KMKG MKG20021122035512011/22/02 03:55:31  5-MIN KMKG 220855Z 33009KT 10SM OVC050 01/M01 A2990 650 85 -800 340/09 RMK AO2 SLP130 T00111011 51007
14840KMKG MKG20021122040009711/22/02 04:00:31  5-MIN KMKG 220900Z 35009KT 10SM OVC050 01/M01 A2990 650 85 -800 350/09 RMK AO2
14840KMKG MKG20021122040509711/22/02 04:05:31  5-MIN KMKG 220905Z 34008KT 10SM OVC050 01/M01 A2990 650 85 -800 350/08 RMK AO2
14840KMKG MKG20021122041009711/22/02 04:10:31  5-MIN KMKG 220910Z 35011KT 10SM OVC050 01/M02 A2990 650 82 -800 350/11 RMK AO2
14840KMKG MKG20021122041509711/22/02 04:15:31  5-MIN KMKG 220915Z 35009KT 10SM OVC050 02/M02 A2990 650 78 -700 350/09 RMK AO2
14840KMKG MKG20021122042009711/22/02 04:20:31  5-MIN KMKG 220920Z 35011KT 10SM OVC050 02/M02 A2990 650 78 -700 350/11 RMK AO2
14840KMKG MKG20021122042509711/22/02 04:25:31  5-MIN KMKG 220925Z 35011KT 10SM OVC048 02/M02 A2990 650 75 -700 360/11 RMK AO2
14840KMKG MKG20021122043009711/22/02 04:30:31  5-MIN KMKG 220930Z 35010KT 10SM OVC048 02/M02 A2991 640 75 -700 350/10 RMK AO2
14840KMKG MKG20021122043509711/22/02 04:35:31  5-MIN KMKG 220935Z 36009KT 10SM OVC048 02/M02 A2991 640 75 -700 360/09 RMK AO2
14840KMKG MKG20021122044009711/22/02 04:40:31  5-MIN KMKG 220940Z 35010KT 10SM OVC046 02/M02 A2991 640 75 -700 360/10 RMK AO2
14840KMKG MKG20021122044509711/22/02 04:45:31  5-MIN KMKG 220945Z 35010KT 10SM OVC046 02/M02 A2991 640 75 -700 350/10 RMK AO2
14840KMKG MKG20021122045011411/22/02 04:50:31  5-MIN KMKG 220950Z 34010KT 10SM OVC044 02/M03 A2991 640 72 -700 350/10 RMK AO2 SLP133 T00171028
14840KMKG MKG20021122045511411/22/02 04:55:31  5-MIN KMKG 220955Z 35009KT 10SM OVC044 02/M03 A2991 640 72 -700 350/09 RMK AO2 SLP134 T00171028
14840KMKG MKG20021122050009711/22/02 05:00:31  5-MIN KMKG 221000Z 35009KT 10SM OVC044 02/M03 A2991 640 72 -700 350/09 RMK AO2
14840KMKG MKG20021122050509711/22/02 05:05:31  5-MIN KMKG 221005Z 35010KT 10SM OVC044 02/M03 A2991 640 69 -700 350/10 RMK AO2
14840KMKG MKG20021122051010311/22/02 05:10:31  5-MIN KMKG 221010Z 36008G16KT 10SM OVC044 02/M03 A2991 640 69 -700 360/08G16 RMK AO2
14840KMKG MKG20021122051509711/22/02 05:15:31  5-MIN KMKG 221015Z 36009KT 10SM OVC044 02/M03 A2991 640 69 -700 360/09 RMK AO2
14840KMKG MKG20021122052009711/22/02 05:20:31  5-MIN KMKG 221020Z 35009KT 10SM OVC044 02/M03 A2992 630 69 -700 350/09 RMK AO2
14840KMKG MKG20021122052509711/22/02 05:25:31  5-MIN KMKG 221025Z 35012KT 10SM OVC044 02/M04 A2992 640 66 -700 350/12 RMK AO2
14840KMKG MKG20021122053009711/22/02 05:30:31  5-MIN KMKG 221030Z 35008KT 10SM OVC044 02/M04 A2992 630 66 -700 350/08 RMK AO2
14840KMKG MKG20021122053509711/22/02 05:35:31  5-MIN KMKG 221035Z 36009KT 10SM OVC044 02/M04 A2992 630 66 -700 360/09 RMK AO2
14840KMKG MKG20021122054009711/22/02 05:40:31  5-MIN KMKG 221040Z 35010KT 10SM OVC044 02/M04 A2992 630 66 -700 360/10 RMK AO2
14840KMKG MKG20021122054509711/22/02 05:45:31  5-MIN KMKG 221045Z 35009KT 10SM OVC044 02/M04 A2992 630 66 -700 360/09 RMK AO2
14840KMKG MKG20021122055011411/22/02 05:50:31  5-MIN KMKG 221050Z 34010KT 10SM OVC044 02/M04 A2992 630 66 -700 340/10 RMK AO2 SLP136 T00171039
14840KMKG MKG20021122055511411/22/02 05:55:31  5-MIN KMKG 221055Z 35010KT 10SM OVC044 02/M04 A2992 630 66 -700 350/10 RMK AO2 SLP137 T00171039
14840KMKG MKG20021122060009711/22/02 06:00:31  5-MIN KMKG 221100Z 34010KT 10SM OVC044 02/M04 A2992 630 66 -800 350/10 RMK AO2
14840KMKG MKG20021122060509711/22/02 06:05:31  5-MIN KMKG 221105Z 35012KT 10SM OVC044 02/M04 A2992 630 66 -800 350/12 RMK AO2
14840KMKG MKG20021122061009711/22/02 06:10:31  5-MIN KMKG 221110Z 36009KT 10SM OVC044 02/M04 A2993 620 66 -800 360/09 RMK AO2
14840KMKG MKG20021122061509711/22/02 06:15:31  5-MIN KMKG 221115Z 34011KT 10SM OVC044 02/M04 A2993 620 66 -800 350/11 RMK AO2
14840KMKG MKG20021122062009711/22/02 06:20:31  5-MIN KMKG 221120Z 35009KT 10SM OVC044 02/M04 A2993 620 66 -800 360/09 RMK AO2
14840KMKG MKG20021122062509711/22/02 06:25:31  5-MIN KMKG 221125Z 35011KT 10SM OVC044 02/M04 A2993 620 66 -800 350/11 RMK AO2
14840KMKG MKG20021122063009711/22/02 06:30:31  5-MIN KMKG 221130Z 35009KT 10SM OVC042 02/M04 A2993 620 66 -800 350/09 RMK AO2
14840KMKG MKG20021122063509711/22/02 06:35:31  5-MIN KMKG 221135Z 35010KT 10SM OVC042 02/M04 A2993 620 66 -800 360/10 RMK AO2
14840KMKG MKG20021122064009711/22/02 06:40:31  5-MIN KMKG 221140Z 36011KT 10SM OVC040 02/M04 A2993 620 66 -800 360/11 RMK AO2
14840KMKG MKG20021122064509711/22/02 06:45:31  5-MIN KMKG 221145Z 35009KT 10SM OVC040 02/M04 A2993 620 66 -800 350/09 RMK AO2
14840KMKG MKG20021122065013811/22/02 06:50:31  5-MIN KMKG 221150Z 34010KT 10SM OVC038 02/M04 A2993 620 66 -800 350/10 RMK AO2 SLP142 70040 T00171039 10022 20011 51007
14840KMKG MKG20021122065513811/22/02 06:55:31  5-MIN KMKG 221155Z 35010KT 10SM OVC038 02/M04 A2993 620 66 -800 350/10 RMK AO2 SLP142 70040 T00171039 10022 20011 53012
14840KMKG MKG20021122070009711/22/02 07:00:31  5-MIN KMKG 221200Z 36010KT 10SM OVC038 02/M04 A2994 620 66 -800 360/10 RMK AO2
14840KMKG MKG20021122070509711/22/02 07:05:31  5-MIN KMKG 221205Z 34008KT 10SM OVC038 02/M04 A2994 610 66 -800 350/08 RMK AO2
14840KMKG MKG20021122071009711/22/02 07:10:31  5-MIN KMKG 221210Z 35010KT 10SM OVC036 02/M04 A2994 610 66 -800 350/10 RMK AO2
14840KMKG MKG20021122071509711/22/02 07:15:31  5-MIN KMKG 221215Z 35012KT 10SM OVC036 02/M04 A2994 610 66 -800 350/12 RMK AO2
14840KMKG MKG20021122072009711/22/02 07:20:31  5-MIN KMKG 221220Z 35011KT 10SM OVC036 02/M04 A2994 610 66 -800 350/11 RMK AO2
14840KMKG MKG20021122072509711/22/02 07:25:31  5-MIN KMKG 221225Z 35011KT 10SM OVC036 02/M04 A2994 610 66 -800 360/11 RMK AO2
14840KMKG MKG20021122073009711/22/02 07:30:31  5-MIN KMKG 221230Z 35012KT 10SM OVC034 02/M03 A2994 610 69 -800 360/12 RMK AO2
14840KMKG MKG20021122073509711/22/02 07:35:31  5-MIN KMKG 221235Z 35012KT 10SM OVC034 02/M03 A2994 610 69 -800 360/12 RMK AO2
14840KMKG MKG20021122074009711/22/02 07:40:31  5-MIN KMKG 221240Z 35013KT 10SM OVC032 02/M03 A2994 610 69 -800 350/13 RMK AO2
14840KMKG MKG20021122074509711/22/02 07:45:31  5-MIN KMKG 221245Z 35012KT 10SM OVC032 02/M04 A2995 610 66 -800 350/12 RMK AO2
14840KMKG MKG20021122075011411/22/02 07:50:31  5-MIN KMKG 221250Z 35010KT 10SM OVC032 02/M03 A2995 600 69 -800 360/10 RMK AO2 SLP149 T00171033
14840KMKG MKG20021122075511411/22/02 07:55:31  5-MIN KMKG 221255Z 36010KT 10SM OVC032 02/M03 A2995 600 69 -800 360/10 RMK AO2 SLP149 T00171033
14840KMKG MKG20021122080009711/22/02 08:00:31  5-MIN KMKG 221300Z 35011KT 10SM OVC032 02/M04 A2995 600 66 -800 360/11 RMK AO2
14840KMKG MKG20021122080510311/22/02 08:05:31  5-MIN KMKG 221305Z 34014G19KT 10SM OVC032 02/M04 A2995 600 66 -800 350/14G19 RMK AO2
14840KMKG MKG20021122081010311/22/02 08:10:31  5-MIN KMKG 221310Z 34013G19KT 10SM OVC034 02/M04 A2995 600 64 -800 350/13G19 RMK AO2
14840KMKG MKG20021122081509711/22/02 08:15:31  5-MIN KMKG 221315Z 35012KT 10SM OVC034 02/M04 A2995 600 64 -800 360/12 RMK AO2
14840KMKG MKG20021122082010311/22/02 08:20:31  5-MIN KMKG 221320Z 35014G19KT 10SM OVC034 02/M04 A2995 600 64 -800 360/14G19 RMK AO2
14840KMKG MKG20021122082510311/22/02 08:25:31  5-MIN KMKG 221325Z 35012G19KT 10SM OVC034 02/M04 A2995 600 64 -800 350/12G19 RMK AO2
14840KMKG MKG20021122083009711/22/02 08:30:31  5-MIN KMKG 221330Z 34012KT 10SM OVC034 02/M04 A2995 600 66 -800 350/12 RMK AO2
14840KMKG MKG20021122083509711/22/02 08:35:31  5-MIN KMKG 221335Z 34010KT 10SM OVC032 02/M04 A2995 600 66 -800 350/10 RMK AO2
14840KMKG MKG20021122084009711/22/02 08:40:31  5-MIN KMKG 221340Z 34012KT 10SM OVC032 02/M04 A2996 600 66 -800 350/12 RMK AO2
14840KMKG MKG20021122084510311/22/02 08:45:31  5-MIN KMKG 221345Z 34010G16KT 10SM OVC032 02/M04 A2996 600 66 -800 350/10G16 RMK AO2
14840KMKG MKG20021122085011411/22/02 08:50:31  5-MIN KMKG 221350Z 34011KT 10SM OVC032 02/M04 A2996 590 66 -800 340/11 RMK AO2 SLP151 T00171039
14840KMKG MKG20021122085511411/22/02 08:55:31  5-MIN KMKG 221355Z 35010KT 10SM OVC034 02/M03 A2996 600 69 -800 350/10 RMK AO2 SLP151 T00171033
14840KMKG MKG20021122090009711/22/02 09:00:31  5-MIN KMKG 221400Z 35010KT 10SM OVC034 02/M03 A2996 600 69 -800 350/10 RMK AO2
14840KMKG MKG20021122090509711/22/02 09:05:31  5-MIN KMKG 221405Z 36011KT 10SM OVC036 02/M04 A2995 600 66 -800 360/11 RMK AO2
14840KMKG MKG20021122091009711/22/02 09:10:31  5-MIN KMKG 221410Z 35011KT 10SM OVC038 02/M04 A2995 600 66 -800 350/11 RMK AO2
14840KMKG MKG20021122091509711/22/02 09:15:31  5-MIN KMKG 221415Z 35008KT 10SM OVC038 02/M03 A2996 600 69 -800 350/08 RMK AO2
14840KMKG MKG20021122092009711/22/02 09:20:31  5-MIN KMKG 221420Z 35009KT 10SM OVC038 02/M03 A2996 600 69 -800 350/09 RMK AO2
14840KMKG MKG20021122092509711/22/02 09:25:31  5-MIN KMKG 221425Z 35011KT 10SM OVC038 02/M03 A2996 590 69 -800 350/11 RMK AO2
14840KMKG MKG20021122093009711/22/02 09:30:31  5-MIN KMKG 221430Z 35012KT 10SM OVC035 02/M03 A2996 600 69 -800 360/12 RMK AO2
14840KMKG MKG20021122093509711/22/02 09:35:31  5-MIN KMKG 221435Z 34010KT 10SM OVC033 02/M03 A2996 590 69 -800 350/10 RMK AO2
14840KMKG MKG20021122094009711/22/02 09:40:31  5-MIN KMKG 221440Z 34010KT 10SM OVC033 02/M03 A2996 590 67 -700 350/10 RMK AO2
14840KMKG MKG20021122094510311/22/02 09:45:31  5-MIN KMKG 221445Z 34012G15KT 10SM OVC033 02/M03 A2996 590 67 -700 350/12G15 RMK AO2
14840KMKG MKG20021122095012011/22/02 09:50:31  5-MIN KMKG 221450Z 34014KT 10SM OVC033 02/M03 A2997 590 67 -700 350/14 RMK AO2 SLP154 T00221033 53012
14840KMKG MKG20021122095512711/22/02 09:55:31  5-MIN KMKG 221455Z 35012KT 10SM BKN031 OVC047 02/M03 A2997 590 67 -700 350/12 RMK AO2 SLP154 T00221033 51010
14840KMKG MKG20021122100010411/22/02 10:00:31  5-MIN KMKG 221500Z 35012KT 10SM BKN031 OVC047 02/M03 A2997 580 69 -700 350/12 RMK AO2
14840KMKG MKG20021122100510411/22/02 10:05:31  5-MIN KMKG 221505Z 35011KT 10SM SCT031 OVC047 02/M03 A2997 590 69 -700 360/11 RMK AO2
14840KMKG MKG20021122101010411/22/02 10:10:31  5-MIN KMKG 221510Z 35010KT 10SM SCT031 OVC047 02/M03 A2997 590 69 -700 360/10 RMK AO2
14840KMKG MKG20021122101510411/22/02 10:15:31  5-MIN KMKG 221515Z 35010KT 10SM FEW031 OVC047 02/M03 A2997 580 69 -700 360/10 RMK AO2
14840KMKG MKG20021122102010411/22/02 10:20:31  5-MIN KMKG 221520Z 34010KT 10SM FEW031 OVC045 03/M02 A2997 580 69 -700 340/10 RMK AO2
14840KMKG MKG20021122102509711/22/02 10:25:31  5-MIN KMKG 221525Z 34011KT 10SM OVC045 02/M02 A2997 580 72 -700 340/11 RMK AO2
14840KMKG MKG20021122103009711/22/02 10:30:31  5-MIN KMKG 221530Z 34014KT 10SM OVC045 02/M03 A2998 580 69 -700 350/14 RMK AO2
14840KMKG MKG20021122103509711/22/02 10:35:31  5-MIN KMKG 221535Z 34013KT 10SM OVC045 02/M03 A2998 580 69 -700 340/13 RMK AO2
14840KMKG MKG20021122104009711/22/02 10:40:31  5-MIN KMKG 221540Z 34014KT 10SM OVC045 02/M03 A2998 570 69 -800 350/14 RMK AO2
14840KMKG MKG20021122104509711/22/02 10:45:31  5-MIN KMKG 221545Z 35011KT 10SM OVC045 02/M03 A2999 570 69 -800 350/11 RMK AO2
14840KMKG MKG20021122105011411/22/02 10:50:31  5-MIN KMKG 221550Z 35013KT 10SM OVC045 03/M03 A2998 570 67 -700 350/13 RMK AO2 SLP159 T00281028
14840KMKG MKG20021122105511411/22/02 10:55:31  5-MIN KMKG 221555Z 35013KT 10SM OVC045 03/M03 A2999 570 67 -700 350/13 RMK AO2 SLP160 T00281028
14840KMKG MKG20021122110010311/22/02 11:00:31  5-MIN KMKG 221600Z 34015G20KT 10SM OVC043 03/M03 A2999 570 67 -700 350/15G20 RMK AO2
14840KMKG MKG20021122110511011/22/02 11:05:31  5-MIN KMKG 221605Z 35013G20KT 10SM SCT036 OVC043 02/M03 A2998 570 67 -800 350/13G20 RMK AO2
14840KMKG MKG20021122111010411/22/02 11:10:31  5-MIN KMKG 221610Z 34015KT 10SM BKN035 OVC043 02/M03 A2998 570 67 -700 350/15 RMK AO2
14840KMKG MKG20021122111511111/22/02 11:15:31  5-MIN KMKG 221615Z 34012KT 10SM FEW029 BKN035 OVC043 02/M03 A2999 570 67 -800 340/12 RMK AO2
14840KMKG MKG20021122112011011/22/02 11:20:31  5-MIN KMKG 221620Z 35009G18KT 10SM FEW029 OVC038 03/M03 A2998 570 67 -700 360/09G18 RMK AO2
14840KMKG MKG20021122112509711/22/02 11:25:31  5-MIN KMKG 221625Z 34014KT 10SM OVC035 03/M03 A2998 570 67 -700 340/14 RMK AO2
14840KMKG MKG20021122113010311/22/02 11:30:31  5-MIN KMKG 221630Z 35013G18KT 10SM OVC035 03/M03 A2998 570 64 -700 350/13G18 RMK AO2
14840KMKG MKG20021122113511011/22/02 11:35:31  5-MIN KMKG 221635Z 34010G18KT 10SM FEW029 OVC037 03/M03 A2998 580 64 -700 350/10G18 RMK AO2
14840KMKG MKG20021122114010411/22/02 11:40:31  5-MIN KMKG 221640Z 34012KT 10SM FEW029 OVC037 03/M03 A2998 570 64 -700 340/12 RMK AO2
14840KMKG MKG20021122114510411/22/02 11:45:31  5-MIN KMKG 221645Z 35014KT 10SM FEW029 OVC037 03/M04 A2998 570 61 -700 350/14 RMK AO2
14840KMKG MKG20021122115011411/22/02 11:50:31  5-MIN KMKG 221650Z 35014KT 10SM OVC035 03/M04 A2998 580 61 -700 360/14 RMK AO2 SLP158 T00281039
14840KMKG MKG20021122115511411/22/02 11:55:31  5-MIN KMKG 221655Z 35012KT 10SM OVC037 03/M04 A2998 580 61 -700 360/12 RMK AO2 SLP158 T00281039
14840KMKG MKG20021122120009711/22/02 12:00:31  5-MIN KMKG 221700Z 36012KT 10SM OVC037 03/M04 A2998 580 61 -700 360/12 RMK AO2
14840KMKG MKG20021122120509711/22/02 12:05:31  5-MIN KMKG 221705Z 35011KT 10SM OVC035 03/M04 A2998 580 61 -700 350/11 RMK AO2
14840KMKG MKG20021122121009711/22/02 12:10:31  5-MIN KMKG 221710Z 34011KT 10SM OVC035 03/M04 A2998 580 61 -700 340/11 RMK AO2
14840KMKG MKG20021122121510311/22/02 12:15:31  5-MIN KMKG 221715Z 35015G22KT 10SM OVC035 03/M04 A2997 580 59 -700 350/15G22 RMK AO2
14840KMKG MKG20021122122010311/22/02 12:20:31  5-MIN KMKG 221720Z 36014G22KT 10SM OVC035 03/M04 A2997 580 59 -600 360/14G22 RMK AO2
14840KMKG MKG20021122122510311/22/02 12:25:31  5-MIN KMKG 221725Z 35015G20KT 10SM OVC035 03/M04 A2997 580 57 -600 360/15G20 RMK AO2
14840KMKG MKG20021122123010311/22/02 12:30:31  5-MIN KMKG 221730Z 33014G19KT 10SM OVC035 03/M04 A2998 580 57 -600 340/14G19 RMK AO2
14840KMKG MKG20021122123510311/22/02 12:35:31  5-MIN KMKG 221735Z 35015G19KT 10SM OVC035 03/M04 A2997 580 57 -600 350/15G19 RMK AO2
14840KMKG MKG20021122124010311/22/02 12:40:31  5-MIN KMKG 221740Z 34012G20KT 10SM OVC037 03/M04 A2997 580 59 -600 350/12G20 RMK AO2
14840KMKG MKG20021122124509711/22/02 12:45:31  5-MIN KMKG 221745Z 35015KT 10SM OVC037 03/M04 A2997 580 57 -600 350/15 RMK AO2
14840KMKG MKG20021122125013811/22/02 12:50:31  5-MIN KMKG 221750Z 35016G24KT 10SM OVC037 03/M04 A2997 580 59 -700 350/16G24 RMK AO2 SLP156 T00281044 10039 20017 51010
14840KMKG MKG20021122125513811/22/02 12:55:31  5-MIN KMKG 221755Z 34018G24KT 10SM OVC037 03/M04 A2997 580 57 -600 350/18G24 RMK AO2 SLP155 T00331044 10039 20017 50002
14840KMKG MKG20021122130010311/22/02 13:00:31  5-MIN KMKG 221800Z 35017G22KT 10SM OVC039 03/M04 A2997 580 59 -600 350/17G22 RMK AO2
14840KMKG MKG20021122130509711/22/02 13:05:31  5-MIN KMKG 221805Z 34013KT 10SM OVC039 03/M04 A2997 580 59 -600 340/13 RMK AO2
14840KMKG MKG20021122131009711/22/02 13:10:31  5-MIN KMKG 221810Z 34018KT 10SM OVC039 03/M04 A2997 580 59 -600 350/18 RMK AO2
14840KMKG MKG20021122131510311/22/02 13:15:31  5-MIN KMKG 221815Z 35012G20KT 10SM OVC037 03/M04 A2998 570 57 -600 360/12G20 RMK AO2
14840KMKG MKG20021122132010311/22/02 13:20:31  5-MIN KMKG 221820Z 35016G20KT 10SM OVC037 03/M04 A2998 570 59 -700 350/16G20 RMK AO2
14840KMKG MKG20021122132510311/22/02 13:25:31  5-MIN KMKG 221825Z 35015G20KT 10SM OVC037 03/M04 A2999 570 59 -700 350/15G20 RMK AO2
14840KMKG MKG20021122133010311/22/02 13:30:31  5-MIN KMKG 221830Z 35016G21KT 10SM OVC037 03/M04 A2998 570 59 -700 350/16G21 RMK AO2
14840KMKG MKG20021122133510311/22/02 13:35:31  5-MIN KMKG 221835Z 35014G21KT 10SM OVC037 03/M04 A2998 570 61 -700 350/14G21 RMK AO2
14840KMKG MKG20021122134009711/22/02 13:40:31  5-MIN KMKG 221840Z 35011KT 10SM OVC035 03/M04 A2998 570 61 -700 350/11 RMK AO2
14840KMKG MKG20021122134510311/22/02 13:45:31  5-MIN KMKG 221845Z 34013G19KT 10SM OVC033 03/M04 A2998 570 61 -700 340/13G19 RMK AO2
14840KMKG MKG20021122135012011/22/02 13:50:31  5-MIN KMKG 221850Z 33017G20KT 10SM OVC033 03/M03 A2998 580 64 -700 330/17G20 RMK AO2 SLP159 T00281033
14840KMKG MKG20021122135512011/22/02 13:55:31  5-MIN KMKG 221855Z 34014G20KT 10SM OVC033 03/M04 A2998 580 61 -700 350/14G20 RMK AO2 SLP158 T00281039
14840KMKG MKG20021122140009711/22/02 14:00:31  5-MIN KMKG 221900Z 35018KT 10SM OVC033 03/M04 A2998 570 61 -700 350/18 RMK AO2
14840KMKG MKG20021122140510311/22/02 14:05:31  5-MIN KMKG 221905Z 36013G20KT 10SM OVC035 03/M04 A2998 570 61 -700 010/13G20 RMK AO2
14840KMKG MKG20021122141010311/22/02 14:10:31  5-MIN KMKG 221910Z 35015G20KT 10SM OVC035 03/M04 A2998 570 61 -700 360/15G20 RMK AO2
14840KMKG MKG20021122141510311/22/02 14:15:31  5-MIN KMKG 221915Z 36013G20KT 10SM OVC035 03/M04 A2999 570 61 -700 360/13G20 RMK AO2
14840KMKG MKG20021122142010311/22/02 14:20:31  5-MIN KMKG 221920Z 36013G20KT 10SM OVC035 03/M04 A2998 580 61 -700 010/13G20 RMK AO2
14840KMKG MKG20021122142509711/22/02 14:25:31  5-MIN KMKG 221925Z 33014KT 10SM OVC035 03/M04 A2997 580 61 -700 340/14 RMK AO2
14840KMKG MKG20021122143009711/22/02 14:30:31  5-MIN KMKG 221930Z 35011KT 10SM OVC035 03/M04 A2998 570 61 -700 360/11 RMK AO2
14840KMKG MKG20021122143510311/22/02 14:35:31  5-MIN KMKG 221935Z 35012G16KT 10SM OVC035 03/M04 A2998 570 61 -700 350/12G16 RMK AO2
14840KMKG MKG20021122144010311/22/02 14:40:31  5-MIN KMKG 221940Z 35014G18KT 10SM OVC033 03/M04 A2998 570 61 -700 350/14G18 RMK AO2
14840KMKG MKG20021122144510311/22/02 14:45:31  5-MIN KMKG 221945Z 33010G18KT 10SM OVC033 03/M03 A2998 580 64 -700 330/10G18 RMK AO2
14840KMKG MKG20021122145012011/22/02 14:50:31  5-MIN KMKG 221950Z 33013G22KT 10SM OVC033 03/M03 A2998 570 64 -700 330/13G22 RMK AO2 SLP159 T00281033
14840KMKG MKG20021122145512011/22/02 14:55:31  5-MIN KMKG 221955Z 34015G22KT 10SM OVC033 03/M03 A2998 570 64 -700 340/15G22 RMK AO2 SLP160 T00281033
14840KMKG MKG20021122150009711/22/02 15:00:31  5-MIN KMKG 222000Z 34011KT 10SM OVC033 03/M03 A2999 570 64 -700 340/11 RMK AO2
14840KMKG MKG20021122150509711/22/02 15:05:31  5-MIN KMKG 222005Z 34014KT 10SM OVC033 03/M03 A2999 570 64 -700 350/14 RMK AO2
14840KMKG MKG20021122151010311/22/02 15:10:31  5-MIN KMKG 222010Z 34012G19KT 10SM OVC033 03/M03 A3000 560 64 -700 350/12G19 RMK AO2
14840KMKG MKG20021122151509711/22/02 15:15:31  5-MIN KMKG 222015Z 34013KT 10SM OVC033 03/M03 A3000 560 64 -700 340/13 RMK AO2
14840KMKG MKG20021122152010311/22/02 15:20:31  5-MIN KMKG 222020Z 01013G18KT 10SM OVC033 03/M03 A3000 560 64 -700 010/13G18 RMK AO2
14840KMKG MKG20021122152510311/22/02 15:25:31  5-MIN KMKG 222025Z 36011G18KT 10SM OVC035 03/M03 A2999 560 64 -700 010/11G18 RMK AO2
14840KMKG MKG20021122153009711/22/02 15:30:31  5-MIN KMKG 222030Z 36009KT 10SM OVC037 03/M03 A2999 560 64 -700 010/09 RMK AO2
14840KMKG MKG20021122153510311/22/02 15:35:31  5-MIN KMKG 222035Z 35014G18KT 10SM OVC037 03/M03 A2999 560 64 -700 350/14G18 RMK AO2
14840KMKG MKG20021122154010311/22/02 15:40:31  5-MIN KMKG 222040Z 35011G21KT 10SM OVC037 02/M03 A3000 560 67 -800 360/11G21 RMK AO2
14840KMKG MKG20021122154510311/22/02 15:45:31  5-MIN KMKG 222045Z 01012G21KT 10SM OVC037 02/M03 A3000 560 67 -800 010/12G21 RMK AO2
14840KMKG MKG20021122155012011/22/02 15:50:31  5-MIN KMKG 222050Z 36011KT 10SM OVC037 02/M03 A3000 560 67 -800 360/11 RMK AO2 SLP165 T00221033 50002
14840KMKG MKG20021122155512011/22/02 15:55:31  5-MIN KMKG 222055Z 35012KT 10SM OVC037 02/M03 A3000 550 67 -800 360/12 RMK AO2 SLP166 T00221033 53010
14840KMKG MKG20021122160010311/22/02 16:00:31  5-MIN KMKG 222100Z 35012G18KT 10SM OVC037 02/M03 A3000 550 69 -800 350/12G18 RMK AO2
14840KMKG MKG20021122160509711/22/02 16:05:31  5-MIN KMKG 222105Z 36008KT 10SM OVC035 02/M03 A3001 550 69 -800 360/08 RMK AO2
14840KMKG MKG20021122161009711/22/02 16:10:31  5-MIN KMKG 222110Z 35012KT 10SM OVC035 02/M03 A3001 550 67 -800 350/12 RMK AO2
14840KMKG MKG20021122161509711/22/02 16:15:31  5-MIN KMKG 222115Z 35010KT 10SM OVC035 02/M03 A3001 550 67 -800 360/10 RMK AO2
14840KMKG MKG20021122162009711/22/02 16:20:31  5-MIN KMKG 222120Z 36010KT 10SM OVC035 02/M03 A3001 550 67 -800 010/10 RMK AO2
14840KMKG MKG20021122162509711/22/02 16:25:31  5-MIN KMKG 222125Z 35011KT 10SM OVC035 02/M03 A3001 550 67 -800 360/11 RMK AO2
14840KMKG MKG20021122163009711/22/02 16:30:31  5-MIN KMKG 222130Z 35010KT 10SM OVC035 02/M03 A3001 540 69 -800 360/10 RMK AO2
14840KMKG MKG20021122163509711/22/02 16:35:31  5-MIN KMKG 222135Z 35011KT 10SM OVC037 02/M03 A3001 550 69 -800 360/11 RMK AO2
14840KMKG MKG20021122164009711/22/02 16:40:31  5-MIN KMKG 222140Z 35010KT 10SM OVC037 02/M03 A3001 550 69 -800 350/10 RMK AO2
14840KMKG MKG20021122164509711/22/02 16:45:31  5-MIN KMKG 222145Z 35010KT 10SM OVC037 02/M03 A3001 550 69 -800 360/10 RMK AO2
14840KMKG MKG20021122165011411/22/02 16:50:31  5-MIN KMKG 222150Z 36007KT 10SM OVC037 02/M03 A3001 550 69 -800 010/07 RMK AO2 SLP170 T00221028
14840KMKG MKG20021122165511411/22/02 16:55:31  5-MIN KMKG 222155Z 36008KT 10SM OVC037 02/M03 A3001 550 69 -800 360/08 RMK AO2 SLP169 T00221028
14840KMKG MKG20021122170009711/22/02 17:00:31  5-MIN KMKG 222200Z 36007KT 10SM OVC037 02/M03 A3001 540 69 -800 360/07 RMK AO2
14840KMKG MKG20021122170509711/22/02 17:05:31  5-MIN KMKG 222205Z 35008KT 10SM OVC037 02/M03 A3001 550 69 -800 360/08 RMK AO2
14840KMKG MKG20021122171009711/22/02 17:10:31  5-MIN KMKG 222210Z 36008KT 10SM OVC037 02/M03 A3001 550 69 -800 010/08 RMK AO2
14840KMKG MKG20021122171509711/22/02 17:15:31  5-MIN KMKG 222215Z 36008KT 10SM OVC039 02/M03 A3001 550 72 -900 360/08 RMK AO2
14840KMKG MKG20021122172009711/22/02 17:20:31  5-MIN KMKG 222220Z 01008KT 10SM OVC039 02/M03 A3001 550 69 -800 010/08 RMK AO2
14840KMKG MKG20021122172509711/22/02 17:25:31  5-MIN KMKG 222225Z 35008KT 10SM OVC039 02/M03 A3001 550 69 -800 350/08 RMK AO2
14840KMKG MKG20021122173009711/22/02 17:30:31  5-MIN KMKG 222230Z 35009KT 10SM OVC036 02/M03 A3001 550 69 -800 350/09 RMK AO2
14840KMKG MKG20021122173509711/22/02 17:35:31  5-MIN KMKG 222235Z 33009KT 10SM OVC038 02/M03 A3002 540 69 -800 330/09 RMK AO2
14840KMKG MKG20021122174009711/22/02 17:40:31  5-MIN KMKG 222240Z 33010KT 10SM OVC038 02/M03 A3002 540 69 -800 340/10 RMK AO2
14840KMKG MKG20021122174509711/22/02 17:45:31  5-MIN KMKG 222245Z 33010KT 10SM OVC038 02/M02 A3002 540 72 -800 340/10 RMK AO2
14840KMKG MKG20021122175011411/22/02 17:50:31  5-MIN KMKG 222250Z 33008KT 10SM OVC036 02/M02 A3002 530 72 -800 330/08 RMK AO2 SLP174 T00221022
14840KMKG MKG20021122175511411/22/02 17:55:31  5-MIN KMKG 222255Z 33009KT 10SM OVC036 02/M02 A3002 530 75 -900 330/09 RMK AO2 SLP173 T00171022
14840KMKG MKG20021122180009711/22/02 18:00:31  5-MIN KMKG 222300Z 34008KT 10SM OVC036 02/M02 A3002 530 75 -900 340/08 RMK AO2
14840KMKG MKG20021122180509711/22/02 18:05:31  5-MIN KMKG 222305Z 34008KT 10SM OVC036 02/M02 A3003 530 75 -900 350/08 RMK AO2
14840KMKG MKG20021122181009711/22/02 18:10:31  5-MIN KMKG 222310Z 35008KT 10SM OVC036 02/M02 A3003 530 75 -900 350/08 RMK AO2
14840KMKG MKG20021122181509711/22/02 18:15:31  5-MIN KMKG 222315Z 36008KT 10SM OVC036 02/M02 A3003 530 78 -900 010/08 RMK AO2
14840KMKG MKG20021122182009711/22/02 18:20:31  5-MIN KMKG 222320Z 01009KT 10SM OVC036 02/M02 A3003 530 78 -900 010/09 RMK AO2
14840KMKG MKG20021122182509711/22/02 18:25:31  5-MIN KMKG 222325Z 35009KT 10SM OVC036 02/M02 A3003 530 78 -900 350/09 RMK AO2
14840KMKG MKG20021122183009711/22/02 18:30:31  5-MIN KMKG 222330Z 34007KT 10SM OVC036 02/M02 A3003 530 78 -900 350/07 RMK AO2
14840KMKG MKG20021122183509711/22/02 18:35:31  5-MIN KMKG 222335Z 33010KT 10SM OVC036 02/M01 A3003 530 82 -900 340/10 RMK AO2
14840KMKG MKG20021122184009711/22/02 18:40:31  5-MIN KMKG 222340Z 35013KT 10SM OVC036 02/M02 A3003 530 78 -900 350/13 RMK AO2
14840KMKG MKG20021122184509711/22/02 18:45:31  5-MIN KMKG 222345Z 34008KT 10SM OVC036 02/M01 A3003 530 82 -900 350/08 RMK AO2
14840KMKG MKG20021122185013211/22/02 18:50:31  5-MIN KMKG 222350Z 33009KT 10SM OVC034 02/M01 A3003 530 82 -900 340/09 RMK AO2 SLP176 T00171011 10039 20017 53010
14840KMKG MKG20021122185513211/22/02 18:55:31  5-MIN KMKG 222355Z 34007KT 10SM OVC034 02/M01 A3003 530 85 -900 340/07 RMK AO2 SLP176 T00171006 10039 20017 51010
14840KMKG MKG20021122190009711/22/02 19:00:31  5-MIN KMKG 230000Z 34007KT 10SM OVC034 02/M01 A3003 530 82 -900 340/07 RMK AO2
14840KMKG MKG20021122190509711/22/02 19:05:31  5-MIN KMKG 230005Z 36005KT 10SM OVC034 02/M01 A3003 530 82 -900 360/05 RMK AO2
14840KMKG MKG20021122191009711/22/02 19:10:31  5-MIN KMKG 230010Z 36007KT 10SM OVC034 02/M01 A3003 530 82 -900 360/07 RMK AO2
14840KMKG MKG20021122191509711/22/02 19:15:31  5-MIN KMKG 230015Z 36008KT 10SM OVC034 02/M01 A3003 530 82 -900 360/08 RMK AO2
14840KMKG MKG20021122192009711/22/02 19:20:31  5-MIN KMKG 230020Z 34007KT 10SM OVC034 02/M01 A3003 530 82 -900 350/07 RMK AO2
14840KMKG MKG20021122192509711/22/02 19:25:31  5-MIN KMKG 230025Z 35006KT 10SM OVC034 02/M01 A3003 530 82 -900 360/06 RMK AO2
14840KMKG MKG20021122193009711/22/02 19:30:31  5-MIN KMKG 230030Z 35007KT 10SM OVC034 02/M01 A3002 530 82 -900 360/07 RMK AO2
14840KMKG MKG20021122193509711/22/02 19:35:31  5-MIN KMKG 230035Z 32005KT 10SM OVC032 02/M01 A3003 530 82 -900 330/05 RMK AO2
14840KMKG MKG20021122194009711/22/02 19:40:31  5-MIN KMKG 230040Z 33004KT 10SM OVC032 02/M01 A3003 530 82 -900 330/04 RMK AO2
14840KMKG MKG20021122194509711/22/02 19:45:31  5-MIN KMKG 230045Z 35005KT 10SM OVC032 02/M01 A3003 530 82 -900 350/05 RMK AO2
14840KMKG MKG20021122195011411/22/02 19:50:31  5-MIN KMKG 230050Z 36005KT 10SM OVC032 02/M01 A3003 530 82 -900 360/05 RMK AO2 SLP174 T00171011
14840KMKG MKG20021122195511411/22/02 19:55:31  5-MIN KMKG 230055Z 35004KT 10SM OVC032 02/M01 A3003 530 82 -900 350/04 RMK AO2 SLP175 T00171011
14840KMKG MKG20021122200009711/22/02 20:00:31  5-MIN KMKG 230100Z 34006KT 10SM OVC032 02/M01 A3003 530 82 -900 340/06 RMK AO2
14840KMKG MKG20021122200509711/22/02 20:05:31  5-MIN KMKG 230105Z 01005KT 10SM OVC032 02/M01 A3003 530 82 -900 010/05 RMK AO2
14840KMKG MKG20021122201009711/22/02 20:10:31  5-MIN KMKG 230110Z 34006KT 10SM OVC032 02/M02 A3003 530 78 -900 340/06 RMK AO2
14840KMKG MKG20021122201509711/22/02 20:15:31  5-MIN KMKG 230115Z 35006KT 10SM OVC032 02/M02 A3003 530 78 -900 350/06 RMK AO2
14840KMKG MKG20021122202009711/22/02 20:20:31  5-MIN KMKG 230120Z 34006KT 10SM OVC032 02/M02 A3003 530 78 -900 350/06 RMK AO2
14840KMKG MKG20021122202509711/22/02 20:25:31  5-MIN KMKG 230125Z 35004KT 10SM OVC032 02/M02 A3003 530 78 -900 350/04 RMK AO2
14840KMKG MKG20021122203009711/22/02 20:30:31  5-MIN KMKG 230130Z 34004KT 10SM OVC032 02/M02 A3003 530 78 -900 350/04 RMK AO2
14840KMKG MKG20021122203509711/22/02 20:35:31  5-MIN KMKG 230135Z 00000KT 10SM OVC032 02/M02 A3003 530 78 -900 000/00 RMK AO2
14840KMKG MKG20021122204009711/22/02 20:40:31  5-MIN KMKG 230140Z 33004KT 10SM OVC032 02/M02 A3003 530 78 -900 330/04 RMK AO2
14840KMKG MKG20021122204509711/22/02 20:45:31  5-MIN KMKG 230145Z 34004KT 10SM OVC032 02/M02 A3003 530 78 -900 350/04 RMK AO2
14840KMKG MKG20021122205011411/22/02 20:50:31  5-MIN KMKG 230150Z 31003KT 10SM OVC032 02/M02 A3003 530 78 -900 310/03 RMK AO2 SLP175 T00171017
14840KMKG MKG20021122205511411/22/02 20:55:31  5-MIN KMKG 230155Z 00000KT 10SM OVC032 02/M02 A3003 530 78 -900 000/00 RMK AO2 SLP175 T00171017
14840KMKG MKG20021122210009711/22/02 21:00:31  5-MIN KMKG 230200Z 30003KT 10SM OVC032 02/M02 A3003 530 78 -900 310/03 RMK AO2
14840KMKG MKG20021122210509711/22/02 21:05:31  5-MIN KMKG 230205Z 00000KT 10SM OVC032 02/M02 A3003 530 78 -900 000/00 RMK AO2
14840KMKG MKG20021122211009711/22/02 21:10:31  5-MIN KMKG 230210Z 00000KT 10SM OVC032 02/M02 A3003 530 78 -900 000/00 RMK AO2
14840KMKG MKG20021122211509711/22/02 21:15:31  5-MIN KMKG 230215Z 00000KT 10SM OVC032 02/M02 A3003 530 78 -900 000/00 RMK AO2
14840KMKG MKG20021122212009711/22/02 21:20:31  5-MIN KMKG 230220Z 31003KT 10SM OVC030 02/M02 A3003 530 78 -900 320/03 RMK AO2
14840KMKG MKG20021122212509711/22/02 21:25:31  5-MIN KMKG 230225Z 32003KT 10SM OVC030 02/M02 A3003 530 78 -900 330/03 RMK AO2
14840KMKG MKG20021122213009711/22/02 21:30:31  5-MIN KMKG 230230Z 30003KT 10SM OVC030 02/M01 A3003 530 82 -900 310/03 RMK AO2
14840KMKG MKG20021122213509711/22/02 21:35:31  5-MIN KMKG 230235Z 00000KT 10SM OVC030 02/M02 A3003 530 78 -900 000/00 RMK AO2
14840KMKG MKG20021122214009711/22/02 21:40:31  5-MIN KMKG 230240Z 00000KT 10SM OVC030 02/M01 A3003 530 82 -900 000/00 RMK AO2
14840KMKG MKG20021122214509711/22/02 21:45:31  5-MIN KMKG 230245Z 36003KT 10SM OVC030 02/M01 A3003 530 82 -900 360/03 RMK AO2
14840KMKG MKG20021122215012011/22/02 21:50:31  5-MIN KMKG 230250Z 00000KT 10SM OVC030 02/M01 A3002 530 82 -900 000/00 RMK AO2 SLP174 T00171011 51010
14840KMKG MKG20021122215512011/22/02 21:55:31  5-MIN KMKG 230255Z 00000KT 10SM OVC032 02/M01 A3002 540 82 -900 000/00 RMK AO2 SLP173 T00171011 58004
14840KMKG MKG20021122220009711/22/02 22:00:31  5-MIN KMKG 230300Z 00000KT 10SM OVC030 02/M01 A3002 540 82 -900 000/00 RMK AO2
14840KMKG MKG20021122220509711/22/02 22:05:31  5-MIN KMKG 230305Z 00000KT 10SM OVC030 02/M01 A3003 530 82 -900 000/00 RMK AO2
14840KMKG MKG20021122221009711/22/02 22:10:31  5-MIN KMKG 230310Z 00000KT 10SM OVC030 02/M01 A3002 530 82 -900 000/00 RMK AO2
14840KMKG MKG20021122221509711/22/02 22:15:31  5-MIN KMKG 230315Z 00000KT 10SM OVC030 02/M01 A3003 530 82 -900 000/00 RMK AO2
14840KMKG MKG20021122222009711/22/02 22:20:31  5-MIN KMKG 230320Z 00000KT 10SM OVC030 02/M01 A3003 530 82 -900 000/00 RMK AO2
14840KMKG MKG20021122222509711/22/02 22:25:31  5-MIN KMKG 230325Z 00000KT 10SM OVC030 02/M01 A3003 530 82 -900 000/00 RMK AO2
14840KMKG MKG20021122223009711/22/02 22:30:31  5-MIN KMKG 230330Z 00000KT 10SM OVC030 02/M01 A3003 530 82 -900 000/00 RMK AO2
14840KMKG MKG20021122223509711/22/02 22:35:31  5-MIN KMKG 230335Z 00000KT 10SM OVC030 02/M01 A3003 530 82 -900 000/00 RMK AO2
14840KMKG MKG20021122224009711/22/02 22:40:31  5-MIN KMKG 230340Z 00000KT 10SM OVC030 02/M01 A3003 530 82 -900 000/00 RMK AO2
14840KMKG MKG20021122224509711/22/02 22:45:31  5-MIN KMKG 230345Z 00000KT 10SM OVC030 02/M01 A3003 530 82 -900 000/00 RMK AO2
14840KMKG MKG20021122225011411/22/02 22:50:31  5-MIN KMKG 230350Z 27006KT 10SM OVC030 02/M02 A3003 530 78 -900 280/06 RMK AO2 SLP176 T00171017
14840KMKG MKG20021122225511411/22/02 22:55:31  5-MIN KMKG 230355Z 28006KT 10SM OVC030 02/M02 A3003 530 72 -800 280/06 RMK AO2 SLP175 T00221022
14840KMKG MKG20021122230009711/22/02 23:00:31  5-MIN KMKG 230400Z 28005KT 10SM OVC030 02/M02 A3003 530 72 -800 280/05 RMK AO2
14840KMKG MKG20021122230509711/22/02 23:05:31  5-MIN KMKG 230405Z 28007KT 10SM OVC030 02/M03 A3003 530 69 -800 280/07 RMK AO2
14840KMKG MKG20021122231009711/22/02 23:10:31  5-MIN KMKG 230410Z 29006KT 10SM OVC030 02/M03 A3003 530 69 -800 290/06 RMK AO2
14840KMKG MKG20021122231509711/22/02 23:15:31  5-MIN KMKG 230415Z 28008KT 10SM OVC030 02/M03 A3003 530 69 -800 280/08 RMK AO2
14840KMKG MKG20021122232009711/22/02 23:20:31  5-MIN KMKG 230420Z 28009KT 10SM OVC030 02/M03 A3003 530 69 -800 290/09 RMK AO2
14840KMKG MKG20021122232509711/22/02 23:25:31  5-MIN KMKG 230425Z 28008KT 10SM OVC030 02/M03 A3004 520 69 -800 290/08 RMK AO2
14840KMKG MKG20021122233009711/22/02 23:30:31  5-MIN KMKG 230430Z 27010KT 10SM OVC032 02/M03 A3004 520 67 -800 280/10 RMK AO2
14840KMKG MKG20021122233509711/22/02 23:35:31  5-MIN KMKG 230435Z 27008KT 10SM OVC032 02/M03 A3004 520 67 -800 270/08 RMK AO2
14840KMKG MKG20021122234009711/22/02 23:40:31  5-MIN KMKG 230440Z 27007KT 10SM OVC032 02/M03 A3004 520 67 -800 270/07 RMK AO2
14840KMKG MKG20021122234509711/22/02 23:45:31  5-MIN KMKG 230445Z 27010KT 10SM OVC032 02/M03 A3004 520 67 -800 270/10 RMK AO2
14840KMKG MKG20021122235012411/22/02 23:50:31  5-MIN KMKG 230450Z 27010KT 10SM OVC032 02/M03 A3004 520 67 -800 280/10 RMK AO2 SLP178 T00221033 400390011
14840KMKG MKG20021122235512411/22/02 23:55:31  5-MIN KMKG 230455Z 28008KT 10SM OVC032 02/M04 A3004 520 64 -800 290/08 RMK AO2 SLP178 T00221039 400390011
14840KMKG MKG20021123000009711/23/02 00:00:31  5-MIN KMKG 230500Z 27008KT 10SM OVC032 02/M04 A3004 520 64 -800 280/08 RMK AO2
14840KMKG MKG20021123000509711/23/02 00:05:31  5-MIN KMKG 230505Z 28007KT 10SM OVC032 02/M04 A3004 520 64 -800 290/07 RMK AO2
14840KMKG MKG20021123001009711/23/02 00:10:31  5-MIN KMKG 230510Z 29007KT 10SM OVC034 02/M04 A3003 530 64 -800 290/07 RMK AO2
14840KMKG MKG20021123001509711/23/02 00:15:31  5-MIN KMKG 230515Z 28008KT 10SM OVC034 02/M04 A3003 530 64 -800 290/08 RMK AO2
14840KMKG MKG20021123002009711/23/02 00:20:31  5-MIN KMKG 230520Z 28007KT 10SM OVC034 02/M04 A3003 530 61 -800 290/07 RMK AO2
14840KMKG MKG20021123002509711/23/02 00:25:31  5-MIN KMKG 230525Z 30005KT 10SM OVC034 02/M04 A3003 530 64 -800 310/05 RMK AO2
14840KMKG MKG20021123003009711/23/02 00:30:31  5-MIN KMKG 230530Z 30007KT 10SM OVC034 02/M04 A3003 530 64 -800 300/07 RMK AO2
14840KMKG MKG20021123003509711/23/02 00:35:31  5-MIN KMKG 230535Z 30005KT 10SM OVC034 02/M04 A3003 530 64 -800 300/05 RMK AO2
14840KMKG MKG20021123004009711/23/02 00:40:31  5-MIN KMKG 230540Z 30006KT 10SM OVC032 02/M04 A3003 530 64 -800 300/06 RMK AO2
14840KMKG MKG20021123004509711/23/02 00:45:31  5-MIN KMKG 230545Z 29004KT 10SM OVC032 02/M04 A3003 530 64 -800 290/04 RMK AO2
14840KMKG MKG20021123005013211/23/02 00:50:31  5-MIN KMKG 230550Z 29003KT 10SM OVC030 02/M04 A3003 530 64 -800 300/03 RMK AO2 SLP174 T00221039 10022 20017 58004
14840KMKG MKG20021123005513211/23/02 00:55:31  5-MIN KMKG 230555Z 29003KT 10SM OVC030 02/M04 A3003 530 64 -800 290/03 RMK AO2 SLP174 T00221039 10022 20017 50002
14840KMKG MKG20021123010009711/23/02 01:00:31  5-MIN KMKG 230600Z 28004KT 10SM OVC030 02/M03 A3003 530 67 -800 290/04 RMK AO2
14840KMKG MKG20021123010509711/23/02 01:05:31  5-MIN KMKG 230605Z 27003KT 10SM OVC030 02/M03 A3002 540 67 -800 270/03 RMK AO2
14840KMKG MKG20021123011009711/23/02 01:10:31  5-MIN KMKG 230610Z 27003KT 10SM OVC030 02/M03 A3002 540 67 -800 270/03 RMK AO2
14840KMKG MKG20021123011509711/23/02 01:15:31  5-MIN KMKG 230615Z 00000KT 10SM OVC030 02/M03 A3001 550 67 -800 000/00 RMK AO2
14840KMKG MKG20021123012009711/23/02 01:20:31  5-MIN KMKG 230620Z 00000KT 10SM OVC030 02/M04 A3001 550 64 -800 000/00 RMK AO2
14840KMKG MKG20021123012509711/23/02 01:25:31  5-MIN KMKG 230625Z 00000KT 10SM OVC030 02/M03 A3001 550 67 -800 000/00 RMK AO2
14840KMKG MKG20021123013009711/23/02 01:30:31  5-MIN KMKG 230630Z 00000KT 10SM OVC030 02/M04 A3001 550 64 -800 000/00 RMK AO2
14840KMKG MKG20021123013509711/23/02 01:35:31  5-MIN KMKG 230635Z 00000KT 10SM OVC030 02/M03 A3000 560 67 -800 000/00 RMK AO2
14840KMKG MKG20021123014009711/23/02 01:40:31  5-MIN KMKG 230640Z 15003KT 10SM OVC030 02/M03 A3000 560 72 -800 160/03 RMK AO2
14840KMKG MKG20021123014509711/23/02 01:45:31  5-MIN KMKG 230645Z 19004KT 10SM OVC030 02/M03 A3000 560 72 -800 190/04 RMK AO2
14840KMKG MKG20021123015011411/23/02 01:50:31  5-MIN KMKG 230650Z 25004KT 10SM OVC030 02/M03 A3001 550 72 -900 250/04 RMK AO2 SLP168 T00171028
14840KMKG MKG20021123015511411/23/02 01:55:31  5-MIN KMKG 230655Z 25005KT 10SM OVC032 02/M03 A3001 550 72 -900 250/05 RMK AO2 SLP168 T00171028
14840KMKG MKG20021123020009711/23/02 02:00:31  5-MIN KMKG 230700Z 25005KT 10SM OVC032 02/M03 A3001 550 69 -800 250/05 RMK AO2
14840KMKG MKG20021123020509711/23/02 02:05:31  5-MIN KMKG 230705Z 25004KT 10SM OVC032 02/M03 A3001 550 69 -800 250/04 RMK AO2
14840KMKG MKG20021123021009711/23/02 02:10:31  5-MIN KMKG 230710Z 25004KT 10SM OVC032 02/M03 A3001 550 69 -800 250/04 RMK AO2
14840KMKG MKG20021123021509711/23/02 02:15:31  5-MIN KMKG 230715Z 24004KT 10SM OVC032 02/M03 A3001 550 69 -800 240/04 RMK AO2
14840KMKG MKG20021123022009711/23/02 02:20:31  5-MIN KMKG 230720Z 23006KT 10SM OVC030 02/M03 A3001 550 69 -800 240/06 RMK AO2
14840KMKG MKG20021123022511111/23/02 02:25:31  5-MIN KMKG 230725Z 26005KT 10SM BKN030 BKN035 OVC110 02/M03 A3001 550 69 -800 260/05 RMK AO2
14840KMKG MKG20021123023011111/23/02 02:30:31  5-MIN KMKG 230730Z 23005KT 10SM BKN030 BKN035 OVC120 02/M03 A3001 550 69 -800 230/05 RMK AO2
14840KMKG MKG20021123023510411/23/02 02:35:31  5-MIN KMKG 230735Z 24004KT 10SM BKN030 OVC120 02/M03 A3001 550 69 -800 250/04 RMK AO2
14840KMKG MKG20021123024010411/23/02 02:40:31  5-MIN KMKG 230740Z 24004KT 10SM BKN030 OVC120 02/M03 A3001 550 69 -800 240/04 RMK AO2
14840KMKG MKG20021123024511111/23/02 02:45:31  5-MIN KMKG 230745Z 24004KT 10SM BKN030 BKN035 OVC120 02/M03 A3001 550 69 -800 240/04 RMK AO2
14840KMKG MKG20021123025012111/23/02 02:50:31  5-MIN KMKG 230750Z 24005KT 10SM BKN032 OVC120 03/M03 A3001 550 67 -700 250/05 RMK AO2 SLP168 T00281028
14840KMKG MKG20021123025512111/23/02 02:55:31  5-MIN KMKG 230755Z 24007KT 10SM BKN030 OVC035 03/M03 A3001 550 67 -700 250/07 RMK AO2 SLP169 T00281028
14840KMKG MKG20021123030010411/23/02 03:00:31  5-MIN KMKG 230800Z 26005KT 10SM BKN030 OVC035 03/M02 A3001 550 69 -700 260/05 RMK AO2
14840KMKG MKG20021123030509711/23/02 03:05:31  5-MIN KMKG 230805Z 25008KT 10SM OVC032 03/M02 A3001 550 69 -700 250/08 RMK AO2
14840KMKG MKG20021123031009711/23/02 03:10:31  5-MIN KMKG 230810Z 25007KT 10SM OVC032 03/M02 A3001 550 69 -700 250/07 RMK AO2
14840KMKG MKG20021123031509711/23/02 03:15:31  5-MIN KMKG 230815Z 25008KT 10SM OVC032 03/M02 A3001 550 69 -700 260/08 RMK AO2
14840KMKG MKG20021123032009711/23/02 03:20:31  5-MIN KMKG 230820Z 25008KT 10SM OVC032 03/M02 A3001 550 69 -700 250/08 RMK AO2
14840KMKG MKG20021123032509711/23/02 03:25:31  5-MIN KMKG 230825Z 24007KT 10SM OVC032 03/M02 A3001 550 69 -700 250/07 RMK AO2
14840KMKG MKG20021123033009711/23/02 03:30:31  5-MIN KMKG 230830Z 24009KT 10SM OVC032 03/M02 A3001 550 69 -700 240/09 RMK AO2
14840KMKG MKG20021123033509711/23/02 03:35:31  5-MIN KMKG 230835Z 24010KT 10SM OVC034 03/M02 A3000 550 69 -700 240/10 RMK AO2
14840KMKG MKG20021123034009711/23/02 03:40:31  5-MIN KMKG 230840Z 25009KT 10SM OVC034 03/M02 A3000 550 69 -700 260/09 RMK AO2
14840KMKG MKG20021123034511111/23/02 03:45:31  5-MIN KMKG 230845Z 25008KT 10SM BKN030 BKN036 OVC110 03/M02 A3000 560 69 -700 250/08 RMK AO2
14840KMKG MKG20021123035013411/23/02 03:50:31  5-MIN KMKG 230850Z 23009KT 10SM BKN030 BKN036 OVC110 03/M02 A3000 560 69 -700 240/09 RMK AO2 SLP164 T00281022 50002
14840KMKG MKG20021123035512011/23/02 03:55:31  5-MIN KMKG 230855Z 24011KT 10SM OVC032 03/M02 A3000 560 69 -700 240/11 RMK AO2 SLP163 T00281022 56010
14840KMKG MKG20021123040011111/23/02 04:00:31  5-MIN KMKG 230900Z 23009KT 10SM BKN030 BKN037 BKN110 03/M02 A2999 560 69 -700 240/09 RMK AO2
14840KMKG MKG20021123040511111/23/02 04:05:31  5-MIN KMKG 230905Z 24009KT 10SM BKN030 BKN048 BKN110 03/M02 A2999 570 69 -700 240/09 RMK AO2
14840KMKG MKG20021123041012611/23/02 04:10:31  5-MIN KMKG 230910Z 24007KT 10SM SCT030 BKN048 OVC110 03/M02 A2999 570 69 -700 240/07 RMK AO2 CIG 031 RWY 14
14840KMKG MKG20021123041511111/23/02 04:15:31  5-MIN KMKG 230915Z 24008KT 10SM SCT030 BKN048 BKN060 03/M02 A2999 570 69 -700 240/08 RMK AO2
14840KMKG MKG20021123042011111/23/02 04:20:31  5-MIN KMKG 230920Z 23008KT 10SM SCT030 BKN045 OVC060 03/M02 A2998 570 69 -700 230/08 RMK AO2
14840KMKG MKG20021123042511111/23/02 04:25:31  5-MIN KMKG 230925Z 23007KT 10SM FEW027 BKN036 OVC060 03/M02 A2998 570 72 -700 240/07 RMK AO2
14840KMKG MKG20021123043014111/23/02 04:30:31  5-MIN KMKG 230930Z 24009KT 7SM -SN SCT029 BKN035 OVC049 03/M01 A2998 570 75 -700 250/09 RMK AO2 SNB28 CIG 027 RWY 14 P0000
14840KMKG MKG20021123043514111/23/02 04:35:31  5-MIN KMKG 230935Z 23009KT 6SM -SN FEW027 BKN033 OVC060 02/M01 A2998 580 82 -700 230/09 RMK AO2 SNB28 CIG 027 RWY 14 P0000
14840KMKG MKG20021123044012611/23/02 04:40:31  5-MIN KMKG 230940Z 24007KT 7SM -SN BKN029 BKN055 OVC090 02/M01 A2998 580 82 -700 240/07 RMK AO2 SNB28 P0000
14840KMKG MKG20021123044512611/23/02 04:45:31  5-MIN KMKG 230945Z 24008KT 8SM -SN FEW027 BKN032 OVC095 02/M01 A2997 580 82 -700 240/08 RMK AO2 SNB28 P0000
14840KMKG MKG20021123045014211/23/02 04:50:31  5-MIN KMKG 230950Z 22008KT 9SM FEW029 SCT060 OVC095 02/M01 A2997 590 82 -700 220/08 RMK AO2 SNB28E48 SLP154 P0000 T00221006
14840KMKG MKG20021123045514311/23/02 04:55:31  5-MIN KMKG 230955Z 22008KT 10SM SCT027 BKN070 OVC095 02/M01 A2997 590 82 -700 220/08 RMK AO2 SNB28E48 SLP154 P0000 T00221006
14840KMKG MKG20021123050011111/23/02 05:00:31  5-MIN KMKG 231000Z 22008KT 10SM FEW023 BKN055 OVC095 02/M01 A2997 590 82 -700 230/08 RMK AO2
14840KMKG MKG20021123050511111/23/02 05:05:31  5-MIN KMKG 231005Z 22008KT 10SM FEW023 BKN047 OVC095 03/M01 A2996 590 79 -700 220/08 RMK AO2
14840KMKG MKG20021123051011111/23/02 05:10:31  5-MIN KMKG 231010Z 22007KT 10SM FEW023 BKN049 OVC095 03/M01 A2996 590 79 -700 220/07 RMK AO2
14840KMKG MKG20021123051511111/23/02 05:15:31  5-MIN KMKG 231015Z 22008KT 10SM FEW027 BKN055 OVC095 03/M01 A2996 590 75 -700 220/08 RMK AO2
14840KMKG MKG20021123052011111/23/02 05:20:31  5-MIN KMKG 231020Z 20011KT 10SM SCT027 BKN046 OVC095 03/M01 A2995 600 79 -700 210/11 RMK AO2
14840KMKG MKG20021123052512611/23/02 05:25:31  5-MIN KMKG 231025Z 21010KT 10SM FEW027 BKN065 OVC090 03/M01 A2995 600 75 -600 210/10 RMK AO2 CIG 038 RWY 14
14840KMKG MKG20021123053011111/23/02 05:30:31  5-MIN KMKG 231030Z 21010KT 10SM FEW031 SCT065 OVC090 03/M01 A2995 610 75 -600 210/10 RMK AO2
14840KMKG MKG20021123053510411/23/02 05:35:31  5-MIN KMKG 231035Z 20008KT 10SM FEW029 OVC090 03/M01 A2995 610 75 -600 210/08 RMK AO2
14840KMKG MKG20021123054010411/23/02 05:40:31  5-MIN KMKG 231040Z 20009KT 10SM FEW027 OVC090 03/M01 A2994 610 75 -600 200/09 RMK AO2
14840KMKG MKG20021123054510411/23/02 05:45:31  5-MIN KMKG 231045Z 20010KT 10SM FEW027 OVC085 03/M01 A2994 610 75 -600 200/10 RMK AO2
14840KMKG MKG20021123055012111/23/02 05:50:31  5-MIN KMKG 231050Z 21009KT 10SM SCT027 OVC085 03/M01 A2995 610 72 -600 210/09 RMK AO2 SLP146 T00331011
14840KMKG MKG20021123055512111/23/02 05:55:31  5-MIN KMKG 231055Z 21011KT 10SM SCT027 OVC080 03/M01 A2995 610 72 -600 210/11 RMK AO2 SLP146 T00331011
14840KMKG MKG20021123060010411/23/02 06:00:31  5-MIN KMKG 231100Z 20011KT 10SM BKN027 OVC080 03/M01 A2994 610 72 -600 210/11 RMK AO2
14840KMKG MKG20021123060512611/23/02 06:05:31  5-MIN KMKG 231105Z 21013KT 10SM SCT027 BKN031 OVC080 03/M01 A2994 610 72 -600 210/13 RMK AO2 CIG 026 RWY 14
14840KMKG MKG20021123061011111/23/02 06:10:31  5-MIN KMKG 231110Z 22010KT 10SM SCT027 BKN031 OVC080 03/M01 A2994 610 72 -600 220/10 RMK AO2
14840KMKG MKG20021123061511111/23/02 06:15:31  5-MIN KMKG 231115Z 21010KT 10SM BKN027 BKN033 OVC080 03/M01 A2994 610 72 -600 220/10 RMK AO2
14840KMKG MKG20021123062011111/23/02 06:20:31  5-MIN KMKG 231120Z 22011KT 10SM BKN027 BKN033 OVC080 03/M01 A2994 610 72 -600 220/11 RMK AO2
14840KMKG MKG20021123062510411/23/02 06:25:31  5-MIN KMKG 231125Z 21010KT 10SM BKN027 OVC080 03/M01 A2994 610 76 -600 210/10 RMK AO2
14840KMKG MKG20021123063011111/23/02 06:30:31  5-MIN KMKG 231130Z 21010KT 10SM SCT027 BKN031 OVC080 03/M01 A2994 610 72 -600 220/10 RMK AO2
14840KMKG MKG20021123063511111/23/02 06:35:31  5-MIN KMKG 231135Z 21014KT 10SM BKN027 BKN031 OVC080 03/M01 A2994 610 72 -600 210/14 RMK AO2
14840KMKG MKG20021123064011111/23/02 06:40:31  5-MIN KMKG 231140Z 21010KT 10SM BKN027 BKN031 OVC080 03/M01 A2994 620 72 -600 210/10 RMK AO2
14840KMKG MKG20021123064511111/23/02 06:45:31  5-MIN KMKG 231145Z 21013KT 10SM BKN027 BKN031 OVC080 03/M01 A2993 620 72 -600 210/13 RMK AO2
14840KMKG MKG20021123065015111/23/02 06:50:31  5-MIN KMKG 231150Z 21014G17KT 10SM BKN027 OVC080 03/M01 A2993 620 76 -600 210/14G17 RMK AO2 SLP141 60000 T00331006 10033 20017 56010
14840KMKG MKG20021123065514511/23/02 06:55:31  5-MIN KMKG 231155Z 20013KT 10SM BKN027 OVC080 03/M01 A2993 620 76 -600 210/13 RMK AO2 SLP141 60000 T00331006 10033 20017 56022
14840KMKG MKG20021123070011111/23/02 07:00:31  5-MIN KMKG 231200Z 20012KT 10SM BKN027 BKN032 OVC080 03/M01 A2993 630 72 -500 200/12 RMK AO2
14840KMKG MKG20021123070510411/23/02 07:05:31  5-MIN KMKG 231205Z 22012KT 10SM BKN027 OVC080 03/M01 A2992 630 72 -500 220/12 RMK AO2
14840KMKG MKG20021123071010411/23/02 07:10:31  5-MIN KMKG 231210Z 20011KT 10SM BKN027 OVC080 03/M01 A2992 630 72 -500 210/11 RMK AO2
14840KMKG MKG20021123071510411/23/02 07:15:31  5-MIN KMKG 231215Z 21011KT 10SM BKN029 OVC080 04/M01 A2992 630 70 -500 210/11 RMK AO2
14840KMKG MKG20021123072011011/23/02 07:20:31  5-MIN KMKG 231220Z 20013G18KT 10SM BKN029 OVC080 03/M01 A2991 640 72 -500 200/13G18 RMK AO2
14840KMKG MKG20021123072511011/23/02 07:25:31  5-MIN KMKG 231225Z 20013G18KT 10SM BKN029 OVC080 04/M01 A2991 640 70 -500 200/13G18 RMK AO2
14840KMKG MKG20021123073010411/23/02 07:30:31  5-MIN KMKG 231230Z 21011KT 10SM SCT029 OVC080 04/M01 A2991 640 70 -500 210/11 RMK AO2
14840KMKG MKG20021123073511111/23/02 07:35:31  5-MIN KMKG 231235Z 21012KT 10SM SCT029 BKN080 OVC095 04/M02 A2991 640 67 -500 210/12 RMK AO2
14840KMKG MKG20021123074011111/23/02 07:40:31  5-MIN KMKG 231240Z 19012KT 10SM FEW029 BKN080 OVC095 04/M01 A2991 640 70 -500 190/12 RMK AO2
14840KMKG MKG20021123074510411/23/02 07:45:31  5-MIN KMKG 231245Z 19010KT 10SM FEW029 OVC080 04/M01 A2991 640 70 -500 200/10 RMK AO2
14840KMKG MKG20021123075012111/23/02 07:50:31  5-MIN KMKG 231250Z 20013KT 10SM FEW027 OVC075 04/M01 A2991 640 70 -500 200/13 RMK AO2 SLP132 T00391011
14840KMKG MKG20021123075512111/23/02 07:55:31  5-MIN KMKG 231255Z 19012KT 10SM FEW027 OVC075 04/M01 A2990 650 73 -500 200/12 RMK AO2 SLP132 T00391006
14840KMKG MKG20021123080010411/23/02 08:00:31  5-MIN KMKG 231300Z 19013KT 10SM FEW027 OVC075 04/M01 A2991 640 73 -500 200/13 RMK AO2
14840KMKG MKG20021123080510411/23/02 08:05:31  5-MIN KMKG 231305Z 20011KT 10SM SCT027 OVC075 04/M01 A2991 640 73 -500 200/11 RMK AO2
14840KMKG MKG20021123081010411/23/02 08:10:31  5-MIN KMKG 231310Z 19011KT 10SM BKN029 OVC070 04/M01 A2991 640 73 -500 190/11 RMK AO2
14840KMKG MKG20021123081510411/23/02 08:15:31  5-MIN KMKG 231315Z 20015KT 10SM BKN029 OVC070 04/M01 A2991 640 73 -500 200/15 RMK AO2
14840KMKG MKG20021123082010411/23/02 08:20:31  5-MIN KMKG 231320Z 19015KT 10SM BKN029 OVC070 04/M01 A2990 650 73 -500 200/15 RMK AO2
14840KMKG MKG20021123082511011/23/02 08:25:31  5-MIN KMKG 231325Z 19018G23KT 10SM BKN029 OVC070 04/M01 A2990 650 73 -400 190/18G23 RMK AO2
14840KMKG MKG20021123083011011/23/02 08:30:31  5-MIN KMKG 231330Z 20013G23KT 10SM BKN029 OVC070 04/M01 A2990 650 73 -500 200/13G23 RMK AO2
14840KMKG MKG20021123083510411/23/02 08:35:31  5-MIN KMKG 231335Z 19014KT 10SM BKN027 OVC065 04/M01 A2990 650 73 -500 200/14 RMK AO2
14840KMKG MKG20021123084010411/23/02 08:40:31  5-MIN KMKG 231340Z 20013KT 10SM BKN027 OVC065 04/M01 A2990 650 73 -500 200/13 RMK AO2
14840KMKG MKG20021123084510411/23/02 08:45:31  5-MIN KMKG 231345Z 20018KT 10SM BKN027 OVC065 04/M01 A2990 650 73 -500 210/18 RMK AO2
14840KMKG MKG20021123085012711/23/02 08:50:31  5-MIN KMKG 231350Z 20014G20KT 10SM BKN027 OVC065 04/M01 A2991 640 73 -500 200/14G20 RMK AO2 SLP132 T00391006
14840KMKG MKG20021123085512111/23/02 08:55:31  5-MIN KMKG 231355Z 20014KT 10SM BKN027 OVC065 04/M01 A2991 640 70 -400 200/14 RMK AO2 SLP133 T00441006
14840KMKG MKG20021123090010411/23/02 09:00:31  5-MIN KMKG 231400Z 21012KT 10SM BKN027 OVC065 04/M01 A2991 640 70 -400 210/12 RMK AO2
14840KMKG MKG20021123090511711/23/02 09:05:31  5-MIN KMKG 231405Z 21016G20KT 10SM BKN027 BKN032 OVC060 04/M01 A2991 640 70 -400 210/16G20 RMK AO2
14840KMKG MKG20021123091011011/23/02 09:10:31  5-MIN KMKG 231410Z 21016G20KT 10SM BKN027 OVC060 04/M01 A2991 640 70 -400 210/16G20 RMK AO2
14840KMKG MKG20021123091511011/23/02 09:15:31  5-MIN KMKG 231415Z 20016G22KT 10SM BKN027 OVC060 04/M01 A2990 650 70 -400 210/16G22 RMK AO2
14840KMKG MKG20021123092010911/23/02 09:20:31  5-MIN KMKG 231420Z 21016G22KT 10SM BKN027 OVC060 04/00 A2990 650 73 -400 210/16G22 RMK AO2
14840KMKG MKG20021123092511711/23/02 09:25:31  5-MIN KMKG 231425Z 21017G22KT 10SM BKN027 BKN060 OVC075 04/M01 A2990 650 70 -400 210/17G22 RMK AO2
14840KMKG MKG20021123093011611/23/02 09:30:31  5-MIN KMKG 231430Z 20015G21KT 10SM BKN027 BKN032 OVC075 04/00 A2990 650 73 -400 210/15G21 RMK AO2
14840KMKG MKG20021123093511011/23/02 09:35:31  5-MIN KMKG 231435Z 20014KT 10SM BKN027 BKN032 OVC075 04/00 A2989 650 73 -400 200/14 RMK AO2
14840KMKG MKG20021123094011011/23/02 09:40:31  5-MIN KMKG 231440Z 20012KT 10SM BKN027 BKN032 OVC075 04/01 A2989 660 76 -400 200/12 RMK AO2
14840KMKG MKG20021123094511611/23/02 09:45:31  5-MIN KMKG 231445Z 20018G22KT 10SM SCT024 BKN029 OVC075 05/01 A2989 660 73 -300 200/18G22 RMK AO2
14840KMKG MKG20021123095013911/23/02 09:50:31  5-MIN KMKG 231450Z 20016G22KT 10SM SCT024 BKN029 OVC075 05/01 A2989 660 73 -300 210/16G22 RMK AO2 SLP126 T00500006 56022
14840KMKG MKG20021123095513311/23/02 09:55:31  5-MIN KMKG 231455Z 20013KT 10SM SCT024 BKN029 OVC075 05/01 A2988 660 73 -300 200/13 RMK AO2 SLP125 T00500006 56016
14840KMKG MKG20021123100011611/23/02 10:00:31  5-MIN KMKG 231500Z 20016G22KT 10SM SCT024 BKN029 OVC075 05/01 A2988 660 73 -300 210/16G22 RMK AO2
14840KMKG MKG20021123100511611/23/02 10:05:31  5-MIN KMKG 231505Z 20017G22KT 10SM BKN024 BKN030 OVC075 05/01 A2988 670 73 -300 200/17G22 RMK AO2
14840KMKG MKG20021123101011611/23/02 10:10:31  5-MIN KMKG 231510Z 20015G24KT 10SM SCT024 BKN030 OVC075 05/01 A2988 670 73 -300 210/15G24 RMK AO2
14840KMKG MKG20021123101511611/23/02 10:15:31  5-MIN KMKG 231515Z 20018G24KT 10SM SCT024 BKN055 OVC070 05/01 A2988 670 73 -300 210/18G24 RMK AO2
14840KMKG MKG20021123102011611/23/02 10:20:31  5-MIN KMKG 231520Z 21019G23KT 10SM SCT024 SCT055 OVC070 05/00 A2988 670 70 -300 210/19G23 RMK AO2
14840KMKG MKG20021123102511611/23/02 10:25:31  5-MIN KMKG 231525Z 20019G24KT 10SM FEW024 SCT055 OVC070 05/00 A2987 670 70 -300 200/19G24 RMK AO2
14840KMKG MKG20021123103010911/23/02 10:30:31  5-MIN KMKG 231530Z 21021G24KT 10SM FEW024 OVC070 06/00 A2987 680 67 -200 210/21G24 RMK AO2
14840KMKG MKG20021123103510911/23/02 10:35:31  5-MIN KMKG 231535Z 21019G25KT 10SM FEW026 OVC070 06/01 A2987 680 70 -200 210/19G25 RMK AO2
14840KMKG MKG20021123104010211/23/02 10:40:31  5-MIN KMKG 231540Z 20015G25KT 10SM OVC070 06/01 A2987 680 70 -200 200/15G25 RMK AO2
14840KMKG MKG20021123104510211/23/02 10:45:31  5-MIN KMKG 231545Z 20016G23KT 10SM OVC070 06/01 A2987 680 70 -200 210/16G23 RMK AO2
14840KMKG MKG20021123105011911/23/02 10:50:31  5-MIN KMKG 231550Z 20015G23KT 10SM OVC070 06/01 A2987 680 70 -200 200/15G23 RMK AO2 SLP119 T00560006
14840KMKG MKG20021123105511911/23/02 10:55:31  5-MIN KMKG 231555Z 20015G22KT 10SM OVC070 06/01 A2987 680 73 -200 200/15G22 RMK AO2 SLP119 T00560011
14840KMKG MKG20021123110012711/23/02 11:00:31  5-MIN KMKG 231600Z 20020G26KT 10SM FEW025 OVC070 06/01 A2987 680 70 -200 200/20G26 RMK AO2 PK WND 20026/1559
14840KMKG MKG20021123110512711/23/02 11:05:31  5-MIN KMKG 231605Z 20016G26KT 10SM FEW025 OVC070 06/01 A2987 680 73 -200 200/16G26 RMK AO2 PK WND 20026/1559
14840KMKG MKG20021123111012711/23/02 11:10:31  5-MIN KMKG 231610Z 20018G25KT 10SM SCT025 OVC070 06/01 A2987 680 73 -200 210/18G25 RMK AO2 PK WND 20026/1559
14840KMKG MKG20021123111512711/23/02 11:15:31  5-MIN KMKG 231615Z 20018G25KT 10SM BKN025 OVC070 06/01 A2986 680 73 -200 210/18G25 RMK AO2 PK WND 20026/1559
14840KMKG MKG20021123112012711/23/02 11:20:31  5-MIN KMKG 231620Z 20021G26KT 10SM BKN025 OVC070 06/01 A2986 680 73 -200 210/21G26 RMK AO2 PK WND 19026/1619
14840KMKG MKG20021123112513411/23/02 11:25:31  5-MIN KMKG 231625Z 21023G28KT 10SM BKN025 BKN031 OVC070 06/01 A2986 690 73 -200 210/23G28 RMK AO2 PK WND 22028/1623
14840KMKG MKG20021123113014211/23/02 11:30:31  5-MIN KMKG 231630Z 21018G28KT 10SM SCT022 OVC028 06/01 A2986 690 73 -200 220/18G28 RMK AO2 PK WND 22028/1623 CIG 022 RWY 14
14840KMKG MKG20021123113512711/23/02 11:35:31  5-MIN KMKG 231635Z 20020G27KT 10SM SCT022 OVC028 06/01 A2985 690 73 -200 210/20G27 RMK AO2 PK WND 22028/1623
14840KMKG MKG20021123114012711/23/02 11:40:31  5-MIN KMKG 231640Z 21020G25KT 10SM BKN022 OVC029 06/01 A2985 700 73 -200 220/20G25 RMK AO2 PK WND 22028/1623
14840KMKG MKG20021123114512711/23/02 11:45:31  5-MIN KMKG 231645Z 22021G26KT 10SM BKN022 OVC029 06/01 A2985 700 73 -200 220/21G26 RMK AO2 PK WND 22028/1623
14840KMKG MKG20021123115014411/23/02 11:50:31  5-MIN KMKG 231650Z 21018G26KT 10SM BKN022 OVC028 06/01 A2984 700 73 -200 210/18G26 RMK AO2 PK WND 22028/1623 SLP111 T00560011
14840KMKG MKG20021123115513711/23/02 11:55:31  5-MIN KMKG 231655Z 21019G27KT 10SM OVC025 06/01 A2984 710 73 -200 220/19G27 RMK AO2 PK WND 22028/1623 SLP108 T00560011
14840KMKG MKG20021123120010911/23/02 12:00:31  5-MIN KMKG 231700Z 22019G27KT 10SM BKN023 OVC029 06/01 A2984 710 73 -200 220/19G27 RMK AO2
14840KMKG MKG20021123120510911/23/02 12:05:31  5-MIN KMKG 231705Z 22020G24KT 10SM BKN023 OVC028 06/01 A2984 710 73 -200 220/20G24 RMK AO2
14840KMKG MKG20021123121012711/23/02 12:10:31  5-MIN KMKG 231710Z 22019G27KT 10SM BKN023 OVC028 06/01 A2983 710 73 -200 230/19G27 RMK AO2 PK WND 22027/1710
14840KMKG MKG20021123121512011/23/02 12:15:31  5-MIN KMKG 231715Z 22020G27KT 10SM OVC025 06/01 A2983 720 73 -200 220/20G27 RMK AO2 PK WND 22027/1710
14840KMKG MKG20021123122012011/23/02 12:20:31  5-MIN KMKG 231720Z 22020G25KT 10SM OVC023 06/01 A2983 720 73 -200 220/20G25 RMK AO2 PK WND 22027/1710
14840KMKG MKG20021123122512711/23/02 12:25:31  5-MIN KMKG 231725Z 22018G25KT 10SM BKN025 OVC029 06/01 A2982 720 73 -200 230/18G25 RMK AO2 PK WND 22027/1710
14840KMKG MKG20021123123012011/23/02 12:30:31  5-MIN KMKG 231730Z 22017G24KT 10SM OVC025 06/01 A2982 720 73 -200 220/17G24 RMK AO2 PK WND 22027/1710
14840KMKG MKG20021123123511411/23/02 12:35:31  5-MIN KMKG 231735Z 22017KT 10SM OVC025 06/01 A2982 720 73 -200 230/17 RMK AO2 PK WND 22027/1710
14840KMKG MKG20021123124011411/23/02 12:40:31  5-MIN KMKG 231740Z 23017KT 10SM OVC025 06/01 A2982 720 73 -200 230/17 RMK AO2 PK WND 22027/1710
14840KMKG MKG20021123124512011/23/02 12:45:31  5-MIN KMKG 231745Z 23015G22KT 10SM OVC025 05/01 A2982 730 73 -200 230/15G22 RMK AO2 PK WND 22027/1710
14840KMKG MKG20021123125015511/23/02 12:50:31  5-MIN KMKG 231750Z 22014G22KT 10SM OVC025 05/01 A2982 730 76 -200 230/14G22 RMK AO2 PK WND 22027/1710 SLP102 T00500011 10056 20033 56016
14840KMKG MKG20021123125515511/23/02 12:55:31  5-MIN KMKG 231755Z 23017G22KT 10SM OVC025 05/01 A2982 730 76 -200 230/17G22 RMK AO2 PK WND 22027/1710 SLP102 T00500011 10056 20033 58022
14840KMKG MKG20021123130010211/23/02 13:00:31  5-MIN KMKG 231800Z 23018G24KT 10SM OVC025 05/01 A2982 720 73 -200 240/18G24 RMK AO2
14840KMKG MKG20021123130510211/23/02 13:05:31  5-MIN KMKG 231805Z 22015G24KT 10SM OVC025 05/01 A2982 720 73 -200 230/15G24 RMK AO2
14840KMKG MKG20021123131009611/23/02 13:10:31  5-MIN KMKG 231810Z 22014KT 10SM OVC025 05/01 A2982 730 76 -200 230/14 RMK AO2
14840KMKG MKG20021123131509611/23/02 13:15:31  5-MIN KMKG 231815Z 23014KT 10SM OVC025 05/01 A2981 730 76 -200 230/14 RMK AO2
14840KMKG MKG20021123132010211/23/02 13:20:31  5-MIN KMKG 231820Z 23016G21KT 10SM OVC025 05/01 A2981 730 73 -200 240/16G21 RMK AO2
14840KMKG MKG20021123132510211/23/02 13:25:31  5-MIN KMKG 231825Z 23015G21KT 10SM OVC025 05/01 A2981 730 73 -200 240/15G21 RMK AO2
14840KMKG MKG20021123133010211/23/02 13:30:31  5-MIN KMKG 231830Z 22015G21KT 10SM OVC025 06/01 A2981 740 73 -100 220/15G21 RMK AO2
14840KMKG MKG20021123133510211/23/02 13:35:31  5-MIN KMKG 231835Z 24014G20KT 10SM OVC025 06/01 A2981 730 70 -100 240/14G20 RMK AO2
14840KMKG MKG20021123134010211/23/02 13:40:31  5-MIN KMKG 231840Z 23015G19KT 10SM OVC025 06/01 A2981 740 73 -100 230/15G19 RMK AO2
14840KMKG MKG20021123134510211/23/02 13:45:31  5-MIN KMKG 231845Z 22016G21KT 10SM OVC023 05/01 A2980 740 73 -200 220/16G21 RMK AO2
14840KMKG MKG20021123135011911/23/02 13:50:31  5-MIN KMKG 231850Z 23013G21KT 10SM OVC023 06/01 A2980 740 73 -100 230/13G21 RMK AO2 SLP097 T00560011
14840KMKG MKG20021123135511911/23/02 13:55:31  5-MIN KMKG 231855Z 23014G20KT 10SM OVC023 06/01 A2980 740 70 -100 240/14G20 RMK AO2 SLP096 T00560006
14840KMKG MKG20021123140009611/23/02 14:00:31  5-MIN KMKG 231900Z 22017KT 10SM OVC023 06/01 A2980 740 70 -100 220/17 RMK AO2
14840KMKG MKG20021123140510211/23/02 14:05:31  5-MIN KMKG 231905Z 23013G19KT 10SM OVC023 06/01 A2979 750 73 -100 240/13G19 RMK AO2
14840KMKG MKG20021123141010211/23/02 14:10:31  5-MIN KMKG 231910Z 22016G20KT 10SM OVC023 06/01 A2979 750 73 -100 230/16G20 RMK AO2
14840KMKG MKG20021123141510211/23/02 14:15:31  5-MIN KMKG 231915Z 24012G20KT 10SM OVC023 06/01 A2980 750 73 -100 250/12G20 RMK AO2
14840KMKG MKG20021123142010211/23/02 14:20:31  5-MIN KMKG 231920Z 24012G19KT 10SM OVC023 06/01 A2979 750 70 -100 250/12G19 RMK AO2
14840KMKG MKG20021123142509611/23/02 14:25:31  5-MIN KMKG 231925Z 24015KT 10SM OVC023 06/01 A2980 740 73 -100 240/15 RMK AO2
14840KMKG MKG20021123143009611/23/02 14:30:31  5-MIN KMKG 231930Z 24013KT 10SM OVC023 06/01 A2980 750 70 -100 240/13 RMK AO2
14840KMKG MKG20021123143509611/23/02 14:35:31  5-MIN KMKG 231935Z 24013KT 10SM OVC023 06/01 A2980 740 73 -100 250/13 RMK AO2
14840KMKG MKG20021123144010211/23/02 14:40:31  5-MIN KMKG 231940Z 25015G21KT 10SM OVC023 06/01 A2980 740 70 -100 250/15G21 RMK AO2
14840KMKG MKG20021123144510211/23/02 14:45:31  5-MIN KMKG 231945Z 24012G21KT 10SM OVC023 06/01 A2980 740 73 -100 250/12G21 RMK AO2
14840KMKG MKG20021123145011911/23/02 14:50:31  5-MIN KMKG 231950Z 23013G19KT 10SM OVC023 06/01 A2980 740 73 -100 240/13G19 RMK AO2 SLP097 T00560011
14840KMKG MKG20021123145511911/23/02 14:55:31  5-MIN KMKG 231955Z 24013G17KT 10SM OVC023 06/01 A2980 740 70 -100 240/13G17 RMK AO2 SLP097 T00560006
14840KMKG MKG20021123150010211/23/02 15:00:31  5-MIN KMKG 232000Z 25015G19KT 10SM OVC023 06/01 A2981 740 70 -100 250/15G19 RMK AO2
14840KMKG MKG20021123150510211/23/02 15:05:31  5-MIN KMKG 232005Z 25010G21KT 10SM OVC023 06/01 A2980 740 70 -100 250/10G21 RMK AO2
14840KMKG MKG20021123151010211/23/02 15:10:31  5-MIN KMKG 232010Z 23012G21KT 10SM OVC025 06/01 A2981 740 73 -100 240/12G21 RMK AO2
14840KMKG MKG20021123151510211/23/02 15:15:31  5-MIN KMKG 232015Z 24013G18KT 10SM OVC025 06/01 A2981 730 73 -100 240/13G18 RMK AO2
14840KMKG MKG20021123152010211/23/02 15:20:31  5-MIN KMKG 232020Z 23013G18KT 10SM OVC025 06/01 A2981 740 73 -100 240/13G18 RMK AO2
14840KMKG MKG20021123152510211/23/02 15:25:31  5-MIN KMKG 232025Z 25012G20KT 10SM OVC025 06/01 A2981 740 73 -100 250/12G20 RMK AO2
14840KMKG MKG20021123153010911/23/02 15:30:31  5-MIN KMKG 232030Z 24014G20KT 10SM BKN025 BKN030 06/01 A2981 730 70 -100 240/14G20 RMK AO2
14840KMKG MKG20021123153510911/23/02 15:35:31  5-MIN KMKG 232035Z 25013G18KT 10SM BKN025 BKN030 06/01 A2981 730 70 -100 250/13G18 RMK AO2
14840KMKG MKG20021123154010911/23/02 15:40:31  5-MIN KMKG 232040Z 25010G17KT 10SM BKN025 OVC030 06/01 A2981 730 73 -100 250/10G17 RMK AO2
14840KMKG MKG20021123154510911/23/02 15:45:31  5-MIN KMKG 232045Z 24010G17KT 10SM BKN025 OVC030 06/01 A2981 730 73 -100 250/10G17 RMK AO2
14840KMKG MKG20021123155013211/23/02 15:50:31  5-MIN KMKG 232050Z 25013G17KT 10SM BKN025 OVC032 06/01 A2982 730 73 -100 250/13G17 RMK AO2 SLP102 T00560011 58022
14840KMKG MKG20021123155512611/23/02 15:55:31  5-MIN KMKG 232055Z 24012KT 10SM SCT025 BKN030 06/01 A2982 730 73 -200 240/12 RMK AO2 SLP102 T00560011 53000
14840KMKG MKG20021123160010311/23/02 16:00:31  5-MIN KMKG 232100Z 24014KT 10SM SCT025 BKN030 06/01 A2982 720 73 -200 240/14 RMK AO2
14840KMKG MKG20021123160510911/23/02 16:05:31  5-MIN KMKG 232105Z 25014G20KT 10SM SCT025 BKN030 06/01 A2982 720 70 -100 250/14G20 RMK AO2
14840KMKG MKG20021123161010911/23/02 16:10:31  5-MIN KMKG 232110Z 25015G20KT 10SM SCT028 BKN042 06/01 A2982 720 73 -200 250/15G20 RMK AO2
14840KMKG MKG20021123161510911/23/02 16:15:31  5-MIN KMKG 232115Z 25012G19KT 10SM SCT028 BKN042 06/01 A2983 720 73 -200 250/12G19 RMK AO2
14840KMKG MKG20021123162010911/23/02 16:20:31  5-MIN KMKG 232120Z 26012G19KT 10SM SCT028 BKN042 06/01 A2983 720 73 -200 260/12G19 RMK AO2
14840KMKG MKG20021123162510311/23/02 16:25:31  5-MIN KMKG 232125Z 25014KT 10SM SCT028 BKN042 06/01 A2983 710 70 -100 260/14 RMK AO2
14840KMKG MKG20021123163010311/23/02 16:30:31  5-MIN KMKG 232130Z 26015KT 10SM SCT028 BKN042 06/01 A2983 710 70 -100 270/15 RMK AO2
14840KMKG MKG20021123163510311/23/02 16:35:31  5-MIN KMKG 232135Z 27013KT 10SM SCT028 BKN042 06/01 A2983 710 73 -200 270/13 RMK AO2
14840KMKG MKG20021123164010911/23/02 16:40:31  5-MIN KMKG 232140Z 26014G19KT 10SM SCT028 BKN042 06/01 A2984 710 70 -100 260/14G19 RMK AO2
14840KMKG MKG20021123164510911/23/02 16:45:31  5-MIN KMKG 232145Z 26010G19KT 10SM SCT028 BKN042 06/01 A2984 710 70 -100 270/10G19 RMK AO2
14840KMKG MKG20021123165012611/23/02 16:50:31  5-MIN KMKG 232150Z 26011G18KT 10SM SCT028 BKN042 06/01 A2984 710 73 -200 260/11G18 RMK AO2 SLP109 T00560011
14840KMKG MKG20021123165512611/23/02 16:55:31  5-MIN KMKG 232155Z 26012G18KT 10SM SCT028 BKN035 06/01 A2984 710 70 -200 260/12G18 RMK AO2 SLP109 T00560006
14840KMKG MKG20021123170010211/23/02 17:00:31  5-MIN KMKG 232200Z 26015G22KT 10SM SCT030 06/01 A2984 700 70 -200 270/15G22 RMK AO2
14840KMKG MKG20021123170510211/23/02 17:05:31  5-MIN KMKG 232205Z 26012G22KT 10SM SCT030 06/01 A2984 710 70 -200 260/12G22 RMK AO2
14840KMKG MKG20021123171010311/23/02 17:10:31  5-MIN KMKG 232210Z 27012KT 10SM SCT025 BKN032 06/01 A2984 700 70 -200 270/12 RMK AO2
14840KMKG MKG20021123171510911/23/02 17:15:31  5-MIN KMKG 232215Z 27014G19KT 10SM SCT025 BKN032 06/01 A2985 700 70 -200 270/14G19 RMK AO2
14840KMKG MKG20021123172010911/23/02 17:20:31  5-MIN KMKG 232220Z 27013G19KT 10SM SCT025 BKN032 06/01 A2985 700 70 -200 270/13G19 RMK AO2
14840KMKG MKG20021123172510911/23/02 17:25:31  5-MIN KMKG 232225Z 26013G17KT 10SM SCT025 BKN032 06/01 A2985 700 70 -200 270/13G17 RMK AO2
14840KMKG MKG20021123173010911/23/02 17:30:31  5-MIN KMKG 232230Z 26012G17KT 10SM SCT025 BKN032 06/01 A2985 700 70 -200 270/12G17 RMK AO2
14840KMKG MKG20021123173509611/23/02 17:35:31  5-MIN KMKG 232235Z 27010KT 10SM BKN032 06/01 A2985 700 73 -200 270/10 RMK AO2
14840KMKG MKG20021123174010211/23/02 17:40:31  5-MIN KMKG 232240Z 27013G17KT 10SM BKN034 06/01 A2985 700 70 -200 280/13G17 RMK AO2
14840KMKG MKG20021123174510211/23/02 17:45:31  5-MIN KMKG 232245Z 27012G17KT 10SM OVC034 06/01 A2985 690 67 -100 270/12G17 RMK AO2
14840KMKG MKG20021123175011311/23/02 17:50:31  5-MIN KMKG 232250Z 27014KT 10SM BKN034 06/00 A2986 690 65 -100 270/14 RMK AO2 SLP115 T00610000
14840KMKG MKG20021123175511311/23/02 17:55:31  5-MIN KMKG 232255Z 26011KT 10SM BKN034 06/00 A2986 680 65 -100 270/11 RMK AO2 SLP117 T00610000
14840KMKG MKG20021123180009611/23/02 18:00:31  5-MIN KMKG 232300Z 27013KT 10SM BKN037 06/00 A2987 680 65 -100 270/13 RMK AO2
14840KMKG MKG20021123180510211/23/02 18:05:31  5-MIN KMKG 232305Z 27011G18KT 10SM BKN037 06/00 A2986 680 65 -100 280/11G18 RMK AO2
14840KMKG MKG20021123181009611/23/02 18:10:31  5-MIN KMKG 232310Z 25011KT 10SM BKN037 06/00 A2986 680 65 -100 260/11 RMK AO2
14840KMKG MKG20021123181509611/23/02 18:15:31  5-MIN KMKG 232315Z 26010KT 10SM BKN037 06/00 A2987 680 67 -200 270/10 RMK AO2
14840KMKG MKG20021123182009611/23/02 18:20:31  5-MIN KMKG 232320Z 25008KT 10SM BKN037 06/00 A2987 680 65 -100 260/08 RMK AO2
14840KMKG MKG20021123182510211/23/02 18:25:31  5-MIN KMKG 232325Z 26011G15KT 10SM BKN037 06/00 A2987 680 65 -100 260/11G15 RMK AO2
14840KMKG MKG20021123183010911/23/02 18:30:31  5-MIN KMKG 232330Z 25010G16KT 10SM SCT040 BKN049 06/00 A2987 680 65 -100 260/10G16 RMK AO2
14840KMKG MKG20021123183510311/23/02 18:35:31  5-MIN KMKG 232335Z 26009KT 10SM FEW038 BKN049 06/00 A2987 680 65 -100 260/09 RMK AO2
14840KMKG MKG20021123184010311/23/02 18:40:31  5-MIN KMKG 232340Z 25009KT 10SM FEW041 OVC049 06/00 A2987 670 65 -100 260/09 RMK AO2
14840KMKG MKG20021123184510311/23/02 18:45:31  5-MIN KMKG 232345Z 26010KT 10SM FEW041 OVC049 07/00 A2988 670 62 -100 260/10 RMK AO2
14840KMKG MKG20021123185013811/23/02 18:50:31  5-MIN KMKG 232350Z 25011KT 10SM FEW036 BKN049 07/01 A2987 670 65 -100 260/11 RMK AO2 SLP121 T00670006 10067 20050 53000
14840KMKG MKG20021123185513811/23/02 18:55:31  5-MIN KMKG 232355Z 26011KT 10SM FEW036 BKN049 07/01 A2987 670 65 -100 270/11 RMK AO2 SLP121 T00670006 10067 20050 51019
14840KMKG MKG20021123190010311/23/02 19:00:31  5-MIN KMKG 240000Z 25011KT 10SM SCT036 OVC047 07/01 A2987 670 67 -100 260/11 RMK AO2
14840KMKG MKG20021123190510311/23/02 19:05:31  5-MIN KMKG 240005Z 25012KT 10SM FEW036 OVC049 07/01 A2988 670 67 -100 250/12 RMK AO2
14840KMKG MKG20021123191010311/23/02 19:10:31  5-MIN KMKG 240010Z 25013KT 10SM FEW036 OVC049 07/01 A2988 670 67 -100 260/13 RMK AO2
14840KMKG MKG20021123191510311/23/02 19:15:31  5-MIN KMKG 240015Z 26010KT 10SM FEW036 BKN049 07/01 A2988 670 65 -100 260/10 RMK AO2
14840KMKG MKG20021123192010311/23/02 19:20:31  5-MIN KMKG 240020Z 25011KT 10SM FEW036 BKN049 07/01 A2988 670 65 -100 250/11 RMK AO2
14840KMKG MKG20021123192511011/23/02 19:25:31  5-MIN KMKG 240025Z 25012KT 10SM FEW036 SCT043 BKN049 07/01 A2988 670 65 -100 260/12 RMK AO2
14840KMKG MKG20021123193011611/23/02 19:30:31  5-MIN KMKG 240030Z 26014G19KT 10SM FEW036 SCT043 BKN049 07/01 A2988 670 65 -100 260/14G19 RMK AO2
14840KMKG MKG20021123193511611/23/02 19:35:31  5-MIN KMKG 240035Z 25012G19KT 10SM FEW036 SCT043 BKN049 07/01 A2988 670 65 -100 250/12G19 RMK AO2
14840KMKG MKG20021123194011011/23/02 19:40:31  5-MIN KMKG 240040Z 25015KT 10SM FEW036 SCT043 BKN049 07/01 A2988 660 65 -100 250/15 RMK AO2
14840KMKG MKG20021123194510011/23/02 19:45:31  5-MIN KMKG 240045Z 25013KT 10SM FEW039 BKN049 07/01 A2988 660 65 0 250/13 RMK AO2
14840KMKG MKG20021123195011711/23/02 19:50:31  5-MIN KMKG 240050Z 25012KT 10SM FEW039 BKN049 07/01 A2988 660 65 0 260/12 RMK AO2 SLP124 T00720011
14840KMKG MKG20021123195512311/23/02 19:55:31  5-MIN KMKG 240055Z 25012G20KT 10SM FEW039 BKN049 07/01 A2988 660 65 0 260/12G20 RMK AO2 SLP124 T00720011
14840KMKG MKG20021123200010611/23/02 20:00:31  5-MIN KMKG 240100Z 26014G20KT 10SM FEW042 OVC049 07/01 A2988 660 62 0 260/14G20 RMK AO2
14840KMKG MKG20021123200510011/23/02 20:05:31  5-MIN KMKG 240105Z 26012KT 10SM FEW042 BKN049 07/01 A2989 660 62 0 260/12 RMK AO2
14840KMKG MKG20021123201010011/23/02 20:10:31  5-MIN KMKG 240110Z 26014KT 10SM FEW042 BKN049 07/00 A2989 660 60 0 270/14 RMK AO2
14840KMKG MKG20021123201510611/23/02 20:15:31  5-MIN KMKG 240115Z 27015G19KT 10SM FEW042 BKN049 07/00 A2989 660 60 0 270/15G19 RMK AO2
14840KMKG MKG20021123202010611/23/02 20:20:31  5-MIN KMKG 240120Z 26013G19KT 10SM SCT042 BKN049 07/00 A2989 660 60 0 270/13G19 RMK AO2
14840KMKG MKG20021123202510611/23/02 20:25:31  5-MIN KMKG 240125Z 27014G18KT 10SM SCT042 BKN049 07/00 A2989 660 60 0 270/14G18 RMK AO2
14840KMKG MKG20021123203010611/23/02 20:30:31  5-MIN KMKG 240130Z 26011G18KT 10SM SCT042 BKN049 07/00 A2989 660 60 0 260/11G18 RMK AO2
14840KMKG MKG20021123203510011/23/02 20:35:31  5-MIN KMKG 240135Z 26011KT 10SM SCT042 BKN049 07/00 A2989 660 60 0 270/11 RMK AO2
14840KMKG MKG20021123204010611/23/02 20:40:31  5-MIN KMKG 240140Z 26009G18KT 10SM SCT042 BKN049 07/00 A2989 660 60 0 260/09G18 RMK AO2
14840KMKG MKG20021123204510011/23/02 20:45:31  5-MIN KMKG 240145Z 27013KT 10SM SCT042 BKN049 07/00 A2989 650 60 0 270/13 RMK AO2
14840KMKG MKG20021123205012311/23/02 20:50:31  5-MIN KMKG 240150Z 27013G20KT 10SM SCT042 BKN049 07/00 A2990 650 60 0 280/13G20 RMK AO2 SLP128 T00720000
14840KMKG MKG20021123205512311/23/02 20:55:31  5-MIN KMKG 240155Z 26010G20KT 10SM SCT040 BKN049 07/00 A2989 660 60 0 270/10G20 RMK AO2 SLP127 T00720000
14840KMKG MKG20021123210010011/23/02 21:00:31  5-MIN KMKG 240200Z 27013KT 10SM FEW040 OVC049 07/00 A2989 660 60 0 280/13 RMK AO2
14840KMKG MKG20021123210510111/23/02 21:05:31  5-MIN KMKG 240205Z 26011KT 10SM FEW040 BKN049 07/M01 A2989 660 57 0 270/11 RMK AO2
14840KMKG MKG20021123211010011/23/02 21:10:31  5-MIN KMKG 240210Z 27010KT 10SM FEW040 BKN049 07/00 A2989 660 60 0 270/10 RMK AO2
14840KMKG MKG20021123211510011/23/02 21:15:31  5-MIN KMKG 240215Z 26012KT 10SM FEW040 BKN049 07/00 A2989 650 60 0 260/12 RMK AO2
14840KMKG MKG20021123212010611/23/02 21:20:31  5-MIN KMKG 240220Z 27015G19KT 10SM FEW040 BKN049 07/00 A2989 650 60 0 270/15G19 RMK AO2
14840KMKG MKG20021123212510711/23/02 21:25:31  5-MIN KMKG 240225Z 27011G19KT 10SM FEW040 BKN049 07/M01 A2990 650 57 0 270/11G19 RMK AO2
14840KMKG MKG20021123213010711/23/02 21:30:31  5-MIN KMKG 240230Z 27013G18KT 10SM FEW040 BKN049 07/M01 A2990 650 57 0 270/13G18 RMK AO2
14840KMKG MKG20021123213510111/23/02 21:35:31  5-MIN KMKG 240235Z 27012KT 10SM FEW040 BKN049 07/M01 A2990 650 57 0 280/12 RMK AO2
14840KMKG MKG20021123214010711/23/02 21:40:31  5-MIN KMKG 240240Z 27015G21KT 10SM FEW040 BKN049 07/M01 A2990 650 55 0 280/15G21 RMK AO2
14840KMKG MKG20021123214510711/23/02 21:45:31  5-MIN KMKG 240245Z 28018G21KT 10SM FEW040 BKN049 07/M01 A2990 650 55 0 280/18G21 RMK AO2
14840KMKG MKG20021123215012411/23/02 21:50:31  5-MIN KMKG 240250Z 28014KT 10SM FEW043 BKN055 07/M01 A2990 650 57 0 290/14 RMK AO2 SLP130 T00721006 51019
14840KMKG MKG20021123215512711/23/02 21:55:31  5-MIN KMKG 240255Z 29012KT 10SM FEW043 BKN055 07/M01 A2990 650 60 -100 290/12 RMK AO2 SLP131 T00671006 51009
14840KMKG MKG20021123220010311/23/02 22:00:31  5-MIN KMKG 240300Z 30010G19KT 10SM OVC050 07/M01 A2990 650 57 -100 300/10G19 RMK AO2
14840KMKG MKG20021123220510311/23/02 22:05:31  5-MIN KMKG 240305Z 29012G17KT 10SM BKN050 07/M01 A2991 640 57 -100 300/12G17 RMK AO2
14840KMKG MKG20021123221010311/23/02 22:10:31  5-MIN KMKG 240310Z 31015G19KT 10SM BKN050 07/M01 A2991 640 57 -100 310/15G19 RMK AO2
14840KMKG MKG20021123221511911/23/02 22:15:31  5-MIN KMKG 240315Z 30009G19KT 270V340 10SM BKN050 07/M01 A2991 640 60 -100 310/09G19 270V340 RMK AO2
14840KMKG MKG20021123222009711/23/02 22:20:31  5-MIN KMKG 240320Z 29009KT 10SM BKN050 06/M01 A2992 630 62 -200 300/09 RMK AO2
14840KMKG MKG20021123222510311/23/02 22:25:31  5-MIN KMKG 240325Z 31008G15KT 10SM BKN050 06/M01 A2992 630 62 -200 310/08G15 RMK AO2
14840KMKG MKG20021123223009711/23/02 22:30:31  5-MIN KMKG 240330Z 29009KT 10SM BKN050 06/M01 A2992 630 62 -200 300/09 RMK AO2
14840KMKG MKG20021123223510311/23/02 22:35:31  5-MIN KMKG 240335Z 29010G16KT 10SM BKN050 06/M01 A2992 630 60 -200 300/10G16 RMK AO2
14840KMKG MKG20021123224009711/23/02 22:40:31  5-MIN KMKG 240340Z 30010KT 10SM BKN050 06/M01 A2993 630 60 -200 300/10 RMK AO2
14840KMKG MKG20021123224509711/23/02 22:45:31  5-MIN KMKG 240345Z 29011KT 10SM BKN050 06/M01 A2993 630 60 -200 290/11 RMK AO2
14840KMKG MKG20021123225011411/23/02 22:50:31  5-MIN KMKG 240350Z 30012KT 10SM BKN050 06/M02 A2993 620 57 -200 300/12 RMK AO2 SLP139 T00611017
14840KMKG MKG20021123225511411/23/02 22:55:31  5-MIN KMKG 240355Z 29009KT 10SM BKN050 06/M02 A2993 620 55 -200 300/09 RMK AO2 SLP139 T00611022
14840KMKG MKG20021123230009711/23/02 23:00:31  5-MIN KMKG 240400Z 30009KT 10SM BKN055 06/M02 A2993 620 55 -200 300/09 RMK AO2
14840KMKG MKG20021123230509711/23/02 23:05:31  5-MIN KMKG 240405Z 30009KT 10SM BKN055 06/M02 A2993 620 55 -200 300/09 RMK AO2
14840KMKG MKG20021123231009711/23/02 23:10:31  5-MIN KMKG 240410Z 30011KT 10SM BKN055 06/M02 A2993 620 55 -200 300/11 RMK AO2
14840KMKG MKG20021123231511311/23/02 23:15:31  5-MIN KMKG 240415Z 29009KT 250V320 10SM BKN055 06/M02 A2993 620 55 -200 290/09 250V320 RMK AO2
14840KMKG MKG20021123232010311/23/02 23:20:31  5-MIN KMKG 240420Z 29012G16KT 10SM BKN055 06/M03 A2993 620 53 -200 300/12G16 RMK AO2
14840KMKG MKG20021123232510311/23/02 23:25:31  5-MIN KMKG 240425Z 29009G16KT 10SM BKN055 06/M03 A2993 620 53 -200 290/09G16 RMK AO2
14840KMKG MKG20021123233009711/23/02 23:30:31  5-MIN KMKG 240430Z 29009KT 10SM OVC055 06/M03 A2993 620 53 -200 290/09 RMK AO2
14840KMKG MKG20021123233509711/23/02 23:35:31  5-MIN KMKG 240435Z 29011KT 10SM OVC055 06/M03 A2993 620 53 -200 290/11 RMK AO2
14840KMKG MKG20021123234010411/23/02 23:40:31  5-MIN KMKG 240440Z 28009KT 10SM FEW043 OVC055 06/M02 A2993 620 55 -200 290/09 RMK AO2
14840KMKG MKG20021123234510411/23/02 23:45:31  5-MIN KMKG 240445Z 29010KT 10SM FEW043 OVC055 06/M02 A2993 620 55 -200 290/10 RMK AO2
14840KMKG MKG20021123235013111/23/02 23:50:31  5-MIN KMKG 240450Z 28008KT 10SM SCT041 OVC050 06/M02 A2994 620 55 -200 280/08 RMK AO2 SLP142 T00611022 400720017
14840KMKG MKG20021123235513111/23/02 23:55:31  5-MIN KMKG 240455Z 28009KT 10SM SCT041 OVC050 06/M02 A2993 620 55 -200 290/09 RMK AO2 SLP141 T00611022 400720017
14840KMKG MKG20021124000010411/24/02 00:00:31  5-MIN KMKG 240500Z 28011KT 10SM FEW041 OVC050 06/M02 A2994 620 57 -200 290/11 RMK AO2
14840KMKG MKG20021124000510411/24/02 00:05:31  5-MIN KMKG 240505Z 30009KT 10SM FEW041 OVC050 06/M02 A2993 620 57 -200 300/09 RMK AO2
14840KMKG MKG20021124001010411/24/02 00:10:31  5-MIN KMKG 240510Z 28011KT 10SM FEW041 OVC050 06/M02 A2993 620 55 -200 280/11 RMK AO2
14840KMKG MKG20021124001510411/24/02 00:15:31  5-MIN KMKG 240515Z 29011KT 10SM BKN047 OVC055 06/M02 A2993 620 55 -200 290/11 RMK AO2
14840KMKG MKG20021124002010411/24/02 00:20:31  5-MIN KMKG 240520Z 29012KT 10SM BKN045 OVC055 06/M02 A2994 610 55 -200 300/12 RMK AO2
14840KMKG MKG20021124002510311/24/02 00:25:31  5-MIN KMKG 240525Z 29013G18KT 10SM OVC047 06/M02 A2993 620 57 -300 290/13G18 RMK AO2
14840KMKG MKG20021124003010311/24/02 00:30:31  5-MIN KMKG 240530Z 29013G22KT 10SM OVC047 06/M02 A2994 620 57 -300 290/13G22 RMK AO2
14840KMKG MKG20021124003510311/24/02 00:35:31  5-MIN KMKG 240535Z 29013G22KT 10SM BKN047 06/M03 A2994 610 55 -300 290/13G22 RMK AO2
14840KMKG MKG20021124004010311/24/02 00:40:31  5-MIN KMKG 240540Z 29013G19KT 10SM BKN047 06/M03 A2994 610 53 -300 300/13G19 RMK AO2
14840KMKG MKG20021124004510311/24/02 00:45:31  5-MIN KMKG 240545Z 29013G19KT 10SM SCT049 06/M03 A2994 610 53 -300 290/13G19 RMK AO2
14840KMKG MKG20021124005013811/24/02 00:50:31  5-MIN KMKG 240550Z 29012G19KT 10SM SCT049 06/M03 A2994 610 55 -300 290/12G19 RMK AO2 SLP144 T00561028 10072 20056 51009
14840KMKG MKG20021124005513811/24/02 00:55:31  5-MIN KMKG 240555Z 30015G19KT 10SM BKN046 06/M03 A2994 610 55 -300 300/15G19 RMK AO2 SLP145 T00561028 10072 20056 51014
14840KMKG MKG20021124010010311/24/02 01:00:31  5-MIN KMKG 240600Z 28014G19KT 10SM BKN046 06/M03 A2995 600 55 -300 290/14G19 RMK AO2
14840KMKG MKG20021124010510311/24/02 01:05:31  5-MIN KMKG 240605Z 29014G17KT 10SM BKN046 06/M03 A2995 600 55 -300 290/14G17 RMK AO2
14840KMKG MKG20021124011010311/24/02 01:10:31  5-MIN KMKG 240610Z 28013G21KT 10SM BKN046 06/M03 A2994 610 53 -300 280/13G21 RMK AO2
14840KMKG MKG20021124011510311/24/02 01:15:31  5-MIN KMKG 240615Z 29011G21KT 10SM BKN046 05/M04 A2994 610 52 -400 290/11G21 RMK AO2
14840KMKG MKG20021124012009711/24/02 01:20:31  5-MIN KMKG 240620Z 29010KT 10SM BKN046 05/M03 A2994 610 55 -400 290/10 RMK AO2
14840KMKG MKG20021124012510311/24/02 01:25:31  5-MIN KMKG 240625Z 29009G15KT 10SM SCT046 05/M03 A2994 610 55 -400 290/09G15 RMK AO2
14840KMKG MKG20021124013010311/24/02 01:30:31  5-MIN KMKG 240630Z 29012G15KT 10SM FEW046 05/M04 A2995 610 52 -400 290/12G15 RMK AO2
14840KMKG MKG20021124013509711/24/02 01:35:31  5-MIN KMKG 240635Z 29009KT 10SM FEW046 05/M04 A2995 600 52 -400 290/09 RMK AO2
14840KMKG MKG20021124014010011/24/02 01:40:31  5-MIN KMKG 240640Z 28013G18KT 10SM CLR 05/M04 A2995 600 52 -400 290/13G18 RMK AO2
14840KMKG MKG20021124014510311/24/02 01:45:31  5-MIN KMKG 240645Z 29012G18KT 10SM FEW044 05/M04 A2995 600 52 -400 290/12G18 RMK AO2
14840KMKG MKG20021124015011411/24/02 01:50:31  5-MIN KMKG 240650Z 29014KT 10SM FEW044 05/M04 A2996 600 52 -400 300/14 RMK AO2 SLP149 T00501039
14840KMKG MKG20021124015511411/24/02 01:55:31  5-MIN KMKG 240655Z 28011KT 10SM FEW047 05/M03 A2996 590 55 -400 280/11 RMK AO2 SLP150 T00501033
14840KMKG MKG20021124020010311/24/02 02:00:31  5-MIN KMKG 240700Z 29012G17KT 10SM FEW045 05/M03 A2996 590 57 -400 290/12G17 RMK AO2
14840KMKG MKG20021124020510311/24/02 02:05:31  5-MIN KMKG 240705Z 30015G19KT 10SM SCT045 05/M03 A2996 600 57 -400 300/15G19 RMK AO2
14840KMKG MKG20021124021010311/24/02 02:10:31  5-MIN KMKG 240710Z 30013G19KT 10SM SCT045 05/M03 A2996 590 55 -400 300/13G19 RMK AO2
14840KMKG MKG20021124021510311/24/02 02:15:31  5-MIN KMKG 240715Z 29012G19KT 10SM BKN045 04/M03 A2996 590 57 -500 300/12G19 RMK AO2
14840KMKG MKG20021124022010311/24/02 02:20:31  5-MIN KMKG 240720Z 30012G18KT 10SM BKN045 05/M04 A2997 590 52 -400 300/12G18 RMK AO2
14840KMKG MKG20021124022509711/24/02 02:25:31  5-MIN KMKG 240725Z 29011KT 10SM BKN045 04/M04 A2997 590 55 -500 300/11 RMK AO2
14840KMKG MKG20021124023009711/24/02 02:30:31  5-MIN KMKG 240730Z 30013KT 10SM BKN045 04/M04 A2997 580 55 -500 300/13 RMK AO2
14840KMKG MKG20021124023509711/24/02 02:35:31  5-MIN KMKG 240735Z 29013KT 10SM SCT045 04/M04 A2997 580 52 -500 300/13 RMK AO2
14840KMKG MKG20021124024010311/24/02 02:40:31  5-MIN KMKG 240740Z 29015G19KT 10SM SCT045 04/M04 A2997 580 52 -500 300/15G19 RMK AO2
14840KMKG MKG20021124024510311/24/02 02:45:31  5-MIN KMKG 240745Z 29010G19KT 10SM FEW045 04/M04 A2997 580 52 -500 300/10G19 RMK AO2
14840KMKG MKG20021124025012011/24/02 02:50:31  5-MIN KMKG 240750Z 30011G17KT 10SM FEW045 04/M04 A2998 580 52 -500 300/11G17 RMK AO2 SLP155 T00441044
14840KMKG MKG20021124025511711/24/02 02:55:31  5-MIN KMKG 240755Z 29010G19KT 10SM CLR 04/M04 A2997 580 52 -500 300/10G19 RMK AO2 SLP154 T00441044
14840KMKG MKG20021124030010011/24/02 03:00:31  5-MIN KMKG 240800Z 29012G19KT 10SM CLR 04/M04 A2998 580 52 -500 300/12G19 RMK AO2
14840KMKG MKG20021124030510011/24/02 03:05:31  5-MIN KMKG 240805Z 28011G18KT 10SM CLR 04/M04 A2998 570 52 -500 280/11G18 RMK AO2
14840KMKG MKG20021124031009711/24/02 03:10:31  5-MIN KMKG 240810Z 29012KT 10SM FEW044 04/M04 A2998 570 52 -500 290/12 RMK AO2
14840KMKG MKG20021124031509711/24/02 03:15:31  5-MIN KMKG 240815Z 29013KT 10SM FEW044 04/M04 A2999 570 54 -500 300/13 RMK AO2
14840KMKG MKG20021124032009711/24/02 03:20:31  5-MIN KMKG 240820Z 28011KT 10SM SCT044 04/M04 A2999 570 52 -500 280/11 RMK AO2
14840KMKG MKG20021124032509711/24/02 03:25:31  5-MIN KMKG 240825Z 29009KT 10SM BKN044 04/M04 A2999 570 52 -500 290/09 RMK AO2
14840KMKG MKG20021124033009711/24/02 03:30:31  5-MIN KMKG 240830Z 30013KT 10SM BKN044 04/M04 A2999 570 52 -500 300/13 RMK AO2
14840KMKG MKG20021124033509711/24/02 03:35:31  5-MIN KMKG 240835Z 29015KT 10SM BKN044 04/M04 A2999 570 52 -500 290/15 RMK AO2
14840KMKG MKG20021124034009711/24/02 03:40:31  5-MIN KMKG 240840Z 28012KT 10SM BKN044 04/M04 A2999 560 52 -500 290/12 RMK AO2
14840KMKG MKG20021124034509711/24/02 03:45:31  5-MIN KMKG 240845Z 28009KT 10SM BKN044 04/M04 A2999 560 52 -500 290/09 RMK AO2
14840KMKG MKG20021124035012011/24/02 03:50:31  5-MIN KMKG 240850Z 28014KT 10SM BKN044 04/M04 A2999 560 52 -500 290/14 RMK AO2 SLP161 T00441044 51014
14840KMKG MKG20021124035512011/24/02 03:55:31  5-MIN KMKG 240855Z 29012KT 10SM BKN044 04/M04 A2999 560 52 -500 290/12 RMK AO2 SLP161 T00441044 53017
14840KMKG MKG20021124040009711/24/02 04:00:31  5-MIN KMKG 240900Z 28012KT 10SM BKN044 04/M04 A3000 560 52 -500 280/12 RMK AO2
14840KMKG MKG20021124040509711/24/02 04:05:31  5-MIN KMKG 240905Z 27010KT 10SM BKN044 04/M04 A3000 560 52 -500 280/10 RMK AO2
14840KMKG MKG20021124041009711/24/02 04:10:31  5-MIN KMKG 240910Z 28010KT 10SM BKN044 04/M04 A3000 560 52 -500 280/10 RMK AO2
14840KMKG MKG20021124041510311/24/02 04:15:31  5-MIN KMKG 240915Z 28008G15KT 10SM BKN042 04/M04 A3000 560 55 -500 280/08G15 RMK AO2
14840KMKG MKG20021124042009711/24/02 04:20:31  5-MIN KMKG 240920Z 28009KT 10SM BKN042 04/M04 A3000 550 55 -500 280/09 RMK AO2
14840KMKG MKG20021124042509711/24/02 04:25:31  5-MIN KMKG 240925Z 28010KT 10SM OVC042 04/M03 A3000 550 57 -500 280/10 RMK AO2
14840KMKG MKG20021124043009711/24/02 04:30:31  5-MIN KMKG 240930Z 28008KT 10SM OVC042 04/M03 A3000 550 57 -500 280/08 RMK AO2
14840KMKG MKG20021124043509711/24/02 04:35:31  5-MIN KMKG 240935Z 28008KT 10SM OVC042 04/M03 A3000 560 57 -500 280/08 RMK AO2
14840KMKG MKG20021124044009711/24/02 04:40:31  5-MIN KMKG 240940Z 28008KT 10SM OVC040 04/M03 A3000 550 59 -600 290/08 RMK AO2
14840KMKG MKG20021124044509711/24/02 04:45:31  5-MIN KMKG 240945Z 27010KT 10SM BKN040 04/M03 A3000 560 59 -600 280/10 RMK AO2
14840KMKG MKG20021124045011411/24/02 04:50:31  5-MIN KMKG 240950Z 27010KT 10SM BKN040 04/M04 A3000 550 57 -600 270/10 RMK AO2 SLP165 T00391039
14840KMKG MKG20021124045512011/24/02 04:55:31  5-MIN KMKG 240955Z 27011G16KT 10SM SCT040 04/M03 A3001 550 59 -600 280/11G16 RMK AO2 SLP166 T00391033
14840KMKG MKG20021124050010311/24/02 05:00:31  5-MIN KMKG 241000Z 28011G16KT 10SM SCT038 04/M03 A3001 550 62 -600 290/11G16 RMK AO2
14840KMKG MKG20021124050509711/24/02 05:05:31  5-MIN KMKG 241005Z 28010KT 10SM FEW038 04/M03 A3001 550 62 -600 290/10 RMK AO2
14840KMKG MKG20021124051009711/24/02 05:10:31  5-MIN KMKG 241010Z 28010KT 10SM FEW036 03/M03 A3002 540 64 -700 290/10 RMK AO2
14840KMKG MKG20021124051509711/24/02 05:15:31  5-MIN KMKG 241015Z 28009KT 10SM FEW036 03/M03 A3002 540 64 -700 280/09 RMK AO2
14840KMKG MKG20021124052009711/24/02 05:20:31  5-MIN KMKG 241020Z 29012KT 10SM FEW036 03/M03 A3002 540 61 -700 290/12 RMK AO2
14840KMKG MKG20021124052509711/24/02 05:25:31  5-MIN KMKG 241025Z 28011KT 10SM FEW036 03/M03 A3002 540 61 -700 280/11 RMK AO2
14840KMKG MKG20021124053009411/24/02 05:30:31  5-MIN KMKG 241030Z 29009KT 10SM CLR 03/M03 A3002 540 64 -700 290/09 RMK AO2
14840KMKG MKG20021124053509711/24/02 05:35:31  5-MIN KMKG 241035Z 28009KT 10SM FEW034 03/M04 A3002 540 59 -700 290/09 RMK AO2
14840KMKG MKG20021124054009711/24/02 05:40:31  5-MIN KMKG 241040Z 28010KT 10SM FEW034 03/M04 A3002 540 59 -700 290/10 RMK AO2
14840KMKG MKG20021124054509711/24/02 05:45:31  5-MIN KMKG 241045Z 28008KT 10SM FEW034 03/M03 A3002 540 64 -700 280/08 RMK AO2
14840KMKG MKG20021124055011411/24/02 05:50:31  5-MIN KMKG 241050Z 28010KT 10SM FEW034 03/M03 A3002 540 64 -700 290/10 RMK AO2 SLP172 T00281033
14840KMKG MKG20021124055512011/24/02 05:55:31  5-MIN KMKG 241055Z 28011G18KT 10SM FEW034 03/M03 A3002 530 64 -700 280/11G18 RMK AO2 SLP172 T00281033
14840KMKG MKG20021124060010311/24/02 06:00:31  5-MIN KMKG 241100Z 29008G18KT 10SM FEW034 03/M03 A3002 540 64 -700 290/08G18 RMK AO2
14840KMKG MKG20021124060509411/24/02 06:05:31  5-MIN KMKG 241105Z 29010KT 10SM CLR 03/M03 A3003 530 64 -700 290/10 RMK AO2
14840KMKG MKG20021124061009711/24/02 06:10:31  5-MIN KMKG 241110Z 28009KT 10SM FEW033 03/M03 A3003 530 64 -700 290/09 RMK AO2
14840KMKG MKG20021124061509711/24/02 06:15:31  5-MIN KMKG 241115Z 29008KT 10SM FEW033 03/M03 A3003 530 64 -700 290/08 RMK AO2
14840KMKG MKG20021124062009711/24/02 06:20:31  5-MIN KMKG 241120Z 29007KT 10SM FEW031 03/M03 A3003 530 67 -700 290/07 RMK AO2
14840KMKG MKG20021124062509711/24/02 06:25:31  5-MIN KMKG 241125Z 29009KT 10SM SCT031 03/M03 A3003 530 67 -700 290/09 RMK AO2
14840KMKG MKG20021124063009711/24/02 06:30:31  5-MIN KMKG 241130Z 28010KT 10SM FEW031 03/M03 A3003 530 67 -700 290/10 RMK AO2
14840KMKG MKG20021124063509711/24/02 06:35:31  5-MIN KMKG 241135Z 28010KT 10SM FEW031 03/M03 A3003 530 67 -700 280/10 RMK AO2
14840KMKG MKG20021124064009711/24/02 06:40:31  5-MIN KMKG 241140Z 28009KT 10SM FEW031 03/M03 A3003 530 67 -700 280/09 RMK AO2
14840KMKG MKG20021124064509711/24/02 06:45:31  5-MIN KMKG 241145Z 29010KT 10SM FEW031 03/M03 A3004 520 64 -700 290/10 RMK AO2
14840KMKG MKG20021124065013211/24/02 06:50:31  5-MIN KMKG 241150Z 29009KT 10SM FEW031 03/M03 A3004 520 64 -700 290/09 RMK AO2 SLP176 T00281033 10056 20028 53017
14840KMKG MKG20021124065513211/24/02 06:55:31  5-MIN KMKG 241155Z 28008KT 10SM FEW030 03/M03 A3005 510 67 -800 280/08 RMK AO2 SLP179 T00281028 10056 20028 53017
14840KMKG MKG20021124070009711/24/02 07:00:31  5-MIN KMKG 241200Z 29008KT 10SM FEW030 02/M03 A3004 520 69 -800 290/08 RMK AO2
14840KMKG MKG20021124070509711/24/02 07:05:31  5-MIN KMKG 241205Z 29009KT 10SM FEW030 03/M03 A3004 520 67 -700 290/09 RMK AO2
14840KMKG MKG20021124071009711/24/02 07:10:31  5-MIN KMKG 241210Z 30009KT 10SM FEW030 03/M03 A3004 520 67 -700 310/09 RMK AO2
14840KMKG MKG20021124071509711/24/02 07:15:31  5-MIN KMKG 241215Z 29010KT 10SM FEW030 03/M03 A3004 520 67 -700 300/10 RMK AO2
14840KMKG MKG20021124072009711/24/02 07:20:31  5-MIN KMKG 241220Z 29010KT 10SM FEW030 03/M03 A3004 520 67 -800 290/10 RMK AO2
14840KMKG MKG20021124072509711/24/02 07:25:31  5-MIN KMKG 241225Z 28009KT 10SM FEW030 03/M03 A3005 510 67 -800 280/09 RMK AO2
14840KMKG MKG20021124073009711/24/02 07:30:31  5-MIN KMKG 241230Z 29008KT 10SM SCT030 02/M03 A3005 510 69 -800 290/08 RMK AO2
14840KMKG MKG20021124073509711/24/02 07:35:31  5-MIN KMKG 241235Z 28008KT 10SM SCT030 02/M03 A3005 510 69 -800 290/08 RMK AO2
14840KMKG MKG20021124074009711/24/02 07:40:31  5-MIN KMKG 241240Z 29007KT 10SM SCT030 03/M03 A3005 510 67 -800 290/07 RMK AO2
14840KMKG MKG20021124074509711/24/02 07:45:31  5-MIN KMKG 241245Z 28007KT 10SM BKN030 02/M02 A3005 510 72 -800 280/07 RMK AO2
14840KMKG MKG20021124075011411/24/02 07:50:31  5-MIN KMKG 241250Z 29008KT 10SM SCT030 02/M02 A3006 510 72 -800 290/08 RMK AO2 SLP182 T00221022
14840KMKG MKG20021124075511411/24/02 07:55:31  5-MIN KMKG 241255Z 29008KT 10SM SCT030 03/M02 A3006 500 69 -800 290/08 RMK AO2 SLP184 T00281022
14840KMKG MKG20021124080009711/24/02 08:00:31  5-MIN KMKG 241300Z 29009KT 10SM SCT030 03/M02 A3006 500 69 -800 290/09 RMK AO2
14840KMKG MKG20021124080509711/24/02 08:05:31  5-MIN KMKG 241305Z 28007KT 10SM SCT030 02/M02 A3006 500 72 -800 290/07 RMK AO2
14840KMKG MKG20021124081009711/24/02 08:10:31  5-MIN KMKG 241310Z 28006KT 10SM SCT030 03/M02 A3006 500 69 -800 290/06 RMK AO2
14840KMKG MKG20021124081509711/24/02 08:15:31  5-MIN KMKG 241315Z 28007KT 10SM SCT032 03/M02 A3006 500 69 -800 290/07 RMK AO2
14840KMKG MKG20021124082009711/24/02 08:20:31  5-MIN KMKG 241320Z 28009KT 10SM SCT032 03/M02 A3006 500 69 -800 280/09 RMK AO2
14840KMKG MKG20021124082509711/24/02 08:25:31  5-MIN KMKG 241325Z 29007KT 10SM SCT032 03/M02 A3006 500 69 -800 290/07 RMK AO2
14840KMKG MKG20021124083009711/24/02 08:30:31  5-MIN KMKG 241330Z 29008KT 10SM SCT032 03/M02 A3006 500 69 -800 290/08 RMK AO2
14840KMKG MKG20021124083509711/24/02 08:35:31  5-MIN KMKG 241335Z 29006KT 10SM SCT032 03/M02 A3006 500 69 -800 290/06 RMK AO2
14840KMKG MKG20021124084009711/24/02 08:40:31  5-MIN KMKG 241340Z 29007KT 10SM FEW032 03/M02 A3006 500 69 -800 290/07 RMK AO2
14840KMKG MKG20021124084509711/24/02 08:45:31  5-MIN KMKG 241345Z 29007KT 10SM SCT032 03/M02 A3007 490 69 -800 300/07 RMK AO2
14840KMKG MKG20021124085011411/24/02 08:50:31  5-MIN KMKG 241350Z 28008KT 10SM SCT030 03/M02 A3007 490 69 -800 280/08 RMK AO2 SLP188 T00281022
14840KMKG MKG20021124085511411/24/02 08:55:31  5-MIN KMKG 241355Z 28008KT 10SM SCT030 03/M02 A3008 490 69 -800 290/08 RMK AO2 SLP190 T00281022
14840KMKG MKG20021124090009711/24/02 09:00:31  5-MIN KMKG 241400Z 29008KT 10SM SCT030 03/M02 A3008 490 69 -800 290/08 RMK AO2
14840KMKG MKG20021124090509711/24/02 09:05:31  5-MIN KMKG 241405Z 29007KT 10SM SCT032 03/M02 A3007 490 69 -800 300/07 RMK AO2
14840KMKG MKG20021124091009711/24/02 09:10:31  5-MIN KMKG 241410Z 29006KT 10SM BKN032 03/M02 A3007 490 67 -700 300/06 RMK AO2
14840KMKG MKG20021124091509711/24/02 09:15:31  5-MIN KMKG 241415Z 29007KT 10SM BKN032 03/M02 A3008 490 67 -700 290/07 RMK AO2
14840KMKG MKG20021124092009711/24/02 09:20:31  5-MIN KMKG 241420Z 29008KT 10SM SCT032 03/M02 A3007 490 67 -700 300/08 RMK AO2
14840KMKG MKG20021124092509711/24/02 09:25:31  5-MIN KMKG 241425Z 30008KT 10SM SCT032 03/M02 A3007 490 67 -700 310/08 RMK AO2
14840KMKG MKG20021124093009711/24/02 09:30:31  5-MIN KMKG 241430Z 30007KT 10SM BKN034 03/M02 A3007 490 67 -700 300/07 RMK AO2
14840KMKG MKG20021124093510411/24/02 09:35:31  5-MIN KMKG 241435Z 29007KT 10SM SCT032 SCT041 03/M03 A3008 480 64 -700 290/07 RMK AO2
14840KMKG MKG20021124094010411/24/02 09:40:31  5-MIN KMKG 241440Z 29009KT 10SM FEW030 SCT038 03/M03 A3008 480 64 -700 300/09 RMK AO2
14840KMKG MKG20021124094509711/24/02 09:45:31  5-MIN KMKG 241445Z 32010KT 10SM BKN034 03/M02 A3008 480 67 -700 320/10 RMK AO2
14840KMKG MKG20021124095012711/24/02 09:50:31  5-MIN KMKG 241450Z 32012KT 10SM SCT030 BKN037 03/M02 A3008 480 67 -700 320/12 RMK AO2 SLP191 T00331022 53017
14840KMKG MKG20021124095512711/24/02 09:55:31  5-MIN KMKG 241455Z 32012KT 10SM BKN030 BKN037 03/M02 A3008 480 67 -700 330/12 RMK AO2 SLP192 T00331022 51013
14840KMKG MKG20021124100010411/24/02 10:00:31  5-MIN KMKG 241500Z 31009KT 10SM BKN030 BKN037 03/M02 A3008 480 67 -700 310/09 RMK AO2
14840KMKG MKG20021124100510411/24/02 10:05:31  5-MIN KMKG 241505Z 32011KT 10SM BKN030 OVC037 03/M02 A3009 480 67 -700 320/11 RMK AO2
14840KMKG MKG20021124101010411/24/02 10:10:31  5-MIN KMKG 241510Z 31011KT 10SM BKN030 OVC036 03/M02 A3009 470 67 -700 320/11 RMK AO2
14840KMKG MKG20021124101511011/24/02 10:15:31  5-MIN KMKG 241515Z 31010G15KT 10SM BKN030 OVC036 03/M02 A3009 470 67 -700 320/10G15 RMK AO2
14840KMKG MKG20021124102010311/24/02 10:20:31  5-MIN KMKG 241520Z 32011G15KT 10SM OVC032 03/M03 A3009 470 64 -700 320/11G15 RMK AO2
14840KMKG MKG20021124102511111/24/02 10:25:31  5-MIN KMKG 241525Z 32011KT 10SM BKN030 BKN035 OVC100 03/M03 A3009 470 64 -700 330/11 RMK AO2
14840KMKG MKG20021124103010411/24/02 10:30:31  5-MIN KMKG 241530Z 31011KT 10SM BKN032 OVC095 03/M03 A3010 470 64 -700 310/11 RMK AO2
14840KMKG MKG20021124103510411/24/02 10:35:31  5-MIN KMKG 241535Z 30010KT 10SM BKN032 OVC095 03/M03 A3010 470 67 -800 300/10 RMK AO2
14840KMKG MKG20021124104011111/24/02 10:40:31  5-MIN KMKG 241540Z 31010KT 10SM SCT030 BKN035 OVC095 03/M03 A3010 460 64 -700 310/10 RMK AO2
14840KMKG MKG20021124104510411/24/02 10:45:31  5-MIN KMKG 241545Z 30010KT 10SM BKN033 OVC095 03/M03 A3010 460 64 -800 300/10 RMK AO2
14840KMKG MKG20021124105012111/24/02 10:50:31  5-MIN KMKG 241550Z 32009KT 10SM BKN033 OVC095 03/M03 A3010 460 64 -800 320/09 RMK AO2 SLP199 T00331028
14840KMKG MKG20021124105512111/24/02 10:55:31  5-MIN KMKG 241555Z 31008KT 10SM BKN033 OVC090 03/M03 A3010 460 64 -800 310/08 RMK AO2 SLP198 T00331028
14840KMKG MKG20021124110011111/24/02 11:00:31  5-MIN KMKG 241600Z 33011KT 10SM SCT030 BKN036 OVC095 03/M03 A3010 460 64 -800 330/11 RMK AO2
14840KMKG MKG20021124110510411/24/02 11:05:31  5-MIN KMKG 241605Z 29009KT 10SM BKN034 OVC110 03/M03 A3010 460 64 -800 290/09 RMK AO2
14840KMKG MKG20021124111009711/24/02 11:10:31  5-MIN KMKG 241610Z 30010KT 10SM OVC034 03/M03 A3011 460 64 -800 300/10 RMK AO2
14840KMKG MKG20021124111509711/24/02 11:15:31  5-MIN KMKG 241615Z 31008KT 10SM OVC034 03/M03 A3011 450 64 -800 310/08 RMK AO2
14840KMKG MKG20021124112009711/24/02 11:20:31  5-MIN KMKG 241620Z 28011KT 10SM OVC034 03/M03 A3011 460 64 -800 290/11 RMK AO2
14840KMKG MKG20021124112509711/24/02 11:25:31  5-MIN KMKG 241625Z 30010KT 10SM OVC034 03/M03 A3011 450 64 -800 300/10 RMK AO2
14840KMKG MKG20021124113009711/24/02 11:30:31  5-MIN KMKG 241630Z 30009KT 10SM OVC034 03/M03 A3011 450 64 -800 310/09 RMK AO2
14840KMKG MKG20021124113509711/24/02 11:35:31  5-MIN KMKG 241635Z 29008KT 10SM OVC036 03/M03 A3011 450 64 -800 300/08 RMK AO2
14840KMKG MKG20021124114009711/24/02 11:40:31  5-MIN KMKG 241640Z 30009KT 10SM OVC036 03/M03 A3011 450 64 -800 310/09 RMK AO2
14840KMKG MKG20021124114509711/24/02 11:45:31  5-MIN KMKG 241645Z 30010KT 10SM OVC035 03/M03 A3012 450 64 -800 300/10 RMK AO2
14840KMKG MKG20021124115012111/24/02 11:50:31  5-MIN KMKG 241650Z 29009KT 10SM BKN033 OVC041 03/M03 A3012 450 64 -800 290/09 RMK AO2 SLP204 T00281033
14840KMKG MKG20021124115512111/24/02 11:55:31  5-MIN KMKG 241655Z 30010KT 10SM BKN033 OVC041 03/M03 A3012 450 64 -800 300/10 RMK AO2 SLP205 T00281033
14840KMKG MKG20021124120009711/24/02 12:00:31  5-MIN KMKG 241700Z 29011KT 10SM OVC033 03/M03 A3012 440 64 -800 300/11 RMK AO2
14840KMKG MKG20021124120509711/24/02 12:05:31  5-MIN KMKG 241705Z 30012KT 10SM OVC033 03/M03 A3012 450 64 -800 300/12 RMK AO2
14840KMKG MKG20021124121010311/24/02 12:10:31  5-MIN KMKG 241710Z 30008G15KT 10SM OVC033 03/M03 A3012 450 67 -800 300/08G15 RMK AO2
14840KMKG MKG20021124121509711/24/02 12:15:31  5-MIN KMKG 241715Z 30009KT 10SM OVC033 03/M03 A3012 450 64 -800 300/09 RMK AO2
14840KMKG MKG20021124122009711/24/02 12:20:31  5-MIN KMKG 241720Z 31010KT 10SM OVC033 03/M03 A3012 450 67 -800 310/10 RMK AO2
14840KMKG MKG20021124122509711/24/02 12:25:31  5-MIN KMKG 241725Z 30007KT 10SM OVC035 03/M03 A3011 450 67 -800 300/07 RMK AO2
14840KMKG MKG20021124123009711/24/02 12:30:31  5-MIN KMKG 241730Z 30012KT 10SM OVC035 03/M03 A3011 450 64 -800 300/12 RMK AO2
14840KMKG MKG20021124123509711/24/02 12:35:31  5-MIN KMKG 241735Z 29008KT 10SM OVC033 03/M03 A3011 450 64 -800 300/08 RMK AO2
14840KMKG MKG20021124124009711/24/02 12:40:31  5-MIN KMKG 241740Z 29013KT 10SM OVC035 03/M04 A3011 450 61 -800 300/13 RMK AO2
14840KMKG MKG20021124124509711/24/02 12:45:31  5-MIN KMKG 241745Z 29010KT 10SM OVC035 03/M04 A3011 450 61 -800 290/10 RMK AO2
14840KMKG MKG20021124125013211/24/02 12:50:31  5-MIN KMKG 241750Z 29011KT 10SM OVC033 02/M04 A3011 450 64 -900 300/11 RMK AO2 SLP202 T00221039 10033 20022 51013
14840KMKG MKG20021124125513211/24/02 12:55:31  5-MIN KMKG 241755Z 31010KT 10SM OVC033 02/M04 A3011 450 64 -900 310/10 RMK AO2 SLP202 T00221039 10033 20022 50009
14840KMKG MKG20021124130009711/24/02 13:00:31  5-MIN KMKG 241800Z 32012KT 10SM OVC033 03/M03 A3011 460 64 -800 320/12 RMK AO2
14840KMKG MKG20021124130509711/24/02 13:05:31  5-MIN KMKG 241805Z 30008KT 10SM OVC033 03/M04 A3011 460 61 -800 300/08 RMK AO2
14840KMKG MKG20021124131012011/24/02 13:10:31  5-MIN KMKG 241810Z 29007KT 260V330 10SM BKN033 OVC095 03/M04 A3011 460 61 -800 300/07 260V330 RMK AO2
14840KMKG MKG20021124131510411/24/02 13:15:31  5-MIN KMKG 241815Z 30010KT 10SM BKN033 OVC095 03/M04 A3011 460 61 -800 300/10 RMK AO2
14840KMKG MKG20021124132010411/24/02 13:20:31  5-MIN KMKG 241820Z 28009KT 10SM BKN033 OVC100 03/M04 A3011 460 61 -800 290/09 RMK AO2
14840KMKG MKG20021124132510411/24/02 13:25:31  5-MIN KMKG 241825Z 29011KT 10SM BKN035 OVC100 03/M04 A3010 460 61 -800 290/11 RMK AO2
14840KMKG MKG20021124133012711/24/02 13:30:31  5-MIN KMKG 241830Z 31009KT 270V330 10SM BKN035 BKN090 OVC110 03/M04 A3010 460 61 -800 310/09 270V330 RMK AO2
14840KMKG MKG20021124133511111/24/02 13:35:31  5-MIN KMKG 241835Z 29009KT 10SM BKN035 BKN090 OVC120 03/M04 A3010 460 59 -800 290/09 RMK AO2
14840KMKG MKG20021124134010411/24/02 13:40:31  5-MIN KMKG 241840Z 27007KT 10SM BKN035 OVC120 03/M04 A3010 470 59 -700 280/07 RMK AO2
14840KMKG MKG20021124134510411/24/02 13:45:31  5-MIN KMKG 241845Z 29009KT 10SM BKN033 OVC120 03/M04 A3010 460 61 -800 290/09 RMK AO2
14840KMKG MKG20021124135012111/24/02 13:50:31  5-MIN KMKG 241850Z 29010KT 10SM BKN033 OVC110 03/M04 A3010 460 61 -800 290/10 RMK AO2 SLP199 T00281039
14840KMKG MKG20021124135512811/24/02 13:55:31  5-MIN KMKG 241855Z 30009KT 10SM BKN033 BKN095 OVC120 03/M04 A3011 460 61 -800 300/09 RMK AO2 SLP200 T00281039
14840KMKG MKG20021124140010411/24/02 14:00:31  5-MIN KMKG 241900Z 29011KT 10SM BKN033 OVC100 03/M04 A3010 460 61 -800 290/11 RMK AO2
14840KMKG MKG20021124140510411/24/02 14:05:31  5-MIN KMKG 241905Z 28009KT 10SM BKN031 OVC095 03/M04 A3010 460 61 -800 290/09 RMK AO2
14840KMKG MKG20021124141010411/24/02 14:10:31  5-MIN KMKG 241910Z 29010KT 10SM BKN031 OVC090 03/M04 A3010 460 61 -800 290/10 RMK AO2
14840KMKG MKG20021124141510411/24/02 14:15:31  5-MIN KMKG 241915Z 28009KT 10SM SCT031 OVC090 03/M04 A3010 460 61 -800 290/09 RMK AO2
14840KMKG MKG20021124142010411/24/02 14:20:31  5-MIN KMKG 241920Z 29010KT 10SM SCT031 OVC085 03/M04 A3010 460 61 -800 290/10 RMK AO2
14840KMKG MKG20021124142510411/24/02 14:25:31  5-MIN KMKG 241925Z 29008KT 10SM FEW031 OVC085 03/M04 A3010 460 61 -800 290/08 RMK AO2
14840KMKG MKG20021124143011111/24/02 14:30:31  5-MIN KMKG 241930Z 29010KT 10SM FEW031 BKN080 OVC100 03/M04 A3010 460 61 -800 290/10 RMK AO2
14840KMKG MKG20021124143511911/24/02 14:35:31  5-MIN KMKG 241935Z 29009KT 10SM SCT070 BKN085 02/M04 A3010 470 64 -900 290/09 RMK AO2 CIG 070 RWY 14
14840KMKG MKG20021124144011111/24/02 14:40:31  5-MIN KMKG 241940Z 28010KT 10SM FEW031 BKN075 BKN085 03/M04 A3010 470 61 -800 290/10 RMK AO2
14840KMKG MKG20021124144510411/24/02 14:45:31  5-MIN KMKG 241945Z 28008KT 10SM FEW031 BKN080 03/M04 A3010 460 61 -800 280/08 RMK AO2
14840KMKG MKG20021124145012111/24/02 14:50:31  5-MIN KMKG 241950Z 29008KT 10SM FEW031 BKN075 03/M04 A3010 460 61 -800 290/08 RMK AO2 SLP198 T00281039
14840KMKG MKG20021124145514311/24/02 14:55:31  5-MIN KMKG 241955Z 29008KT 10SM FEW031 SCT065 BKN080 02/M04 A3010 460 64 -900 290/08 RMK AO2 CIG 032 RWY 14 SLP199 T00221039
14840KMKG MKG20021124150012611/24/02 15:00:31  5-MIN KMKG 242000Z 31010KT 10SM SCT033 BKN065 BKN080 02/M04 A3010 460 64 -900 310/10 RMK AO2 CIG 032 RWY 14
14840KMKG MKG20021124150511111/24/02 15:05:31  5-MIN KMKG 242005Z 31010KT 10SM BKN033 BKN060 BKN080 02/M04 A3009 470 64 -900 310/10 RMK AO2
14840KMKG MKG20021124151012611/24/02 15:10:31  5-MIN KMKG 242010Z 30009KT 10SM SCT033 BKN060 OVC075 02/M03 A3010 460 67 -900 300/09 RMK AO2 CIG 035 RWY 14
14840KMKG MKG20021124151512611/24/02 15:15:31  5-MIN KMKG 242015Z 28008KT 10SM FEW029 BKN065 OVC075 02/M03 A3010 460 67 -900 280/08 RMK AO2 CIG 036 RWY 14
14840KMKG MKG20021124152012711/24/02 15:20:31  5-MIN KMKG 242020Z 30008KT 280V350 10SM BKN029 BKN036 OVC060 02/M04 A3010 460 64 -900 300/08 280V350 RMK AO2
14840KMKG MKG20021124152511111/24/02 15:25:31  5-MIN KMKG 242025Z 28010KT 10SM SCT029 BKN036 OVC060 02/M04 A3010 460 64 -900 290/10 RMK AO2
14840KMKG MKG20021124153012611/24/02 15:30:31  5-MIN KMKG 242030Z 29012KT 10SM SCT029 BKN036 OVC060 02/M04 A3010 460 64 -900 300/12 RMK AO2 CIG 030 RWY 14
14840KMKG MKG20021124153511111/24/02 15:35:31  5-MIN KMKG 242035Z 31008KT 10SM BKN029 BKN036 OVC060 02/M04 A3011 460 64 -900 310/08 RMK AO2
14840KMKG MKG20021124154011111/24/02 15:40:31  5-MIN KMKG 242040Z 30007KT 10SM BKN030 BKN036 OVC060 02/M03 A3011 460 67 -900 310/07 RMK AO2
14840KMKG MKG20021124154511111/24/02 15:45:31  5-MIN KMKG 242045Z 29012KT 10SM BKN030 BKN036 OVC060 02/M04 A3011 450 64 -900 300/12 RMK AO2
14840KMKG MKG20021124155012111/24/02 15:50:31  5-MIN KMKG 242050Z 31009KT 10SM OVC034 02/M04 A3012 450 66 -1000 310/09 RMK AO2 SLP204 T00171039 50009
14840KMKG MKG20021124155512811/24/02 15:55:31  5-MIN KMKG 242055Z 32009KT 10SM BKN034 OVC060 02/M04 A3012 450 66 -1000 320/09 RMK AO2 SLP204 T00171039 53002
14840KMKG MKG20021124160010511/24/02 16:00:31  5-MIN KMKG 242100Z 30010KT 10SM FEW028 OVC034 02/M04 A3011 450 66 -1000 310/10 RMK AO2
14840KMKG MKG20021124160510511/24/02 16:05:31  5-MIN KMKG 242105Z 30009KT 10SM FEW028 OVC034 02/M04 A3012 450 66 -1000 300/09 RMK AO2
14840KMKG MKG20021124161012011/24/02 16:10:31  5-MIN KMKG 242110Z 28010KT 6SM -SN FEW028 OVC034 02/M04 A3012 450 66 -1000 280/10 RMK AO2 SNB10 P0000
14840KMKG MKG20021124161512011/24/02 16:15:31  5-MIN KMKG 242115Z 31009KT 5SM -SN FEW028 OVC034 02/M03 A3012 440 69 -1000 310/09 RMK AO2 SNB10 P0000
14840KMKG MKG20021124162012011/24/02 16:20:31  5-MIN KMKG 242120Z 31008KT 7SM -SN FEW028 OVC034 01/M03 A3012 440 75 -1100 320/08 RMK AO2 SNB10 P0000
14840KMKG MKG20021124162511311/24/02 16:25:31  5-MIN KMKG 242125Z 29008KT 7SM -SN OVC032 01/M03 A3012 440 75 -1100 300/08 RMK AO2 SNB10 P0000
14840KMKG MKG20021124163012611/24/02 16:30:31  5-MIN KMKG 242130Z 30008KT 7SM SCT029 BKN035 OVC050 01/M03 A3013 440 75 -1100 300/08 RMK AO2 SNB10E28 P0000
14840KMKG MKG20021124163512711/24/02 16:35:31  5-MIN KMKG 242135Z 30010KT 4SM -SN BKN029 BKN037 OVC048 01/M02 A3013 440 82 -1100 300/10 RMK AO2 SNB10 P0000
14840KMKG MKG20021124164014311/24/02 16:40:31  5-MIN KMKG 242140Z 29009KT 2 1/2SM -SN SCT024 BKN029 OVC037 01/M02 A3013 440 82 -1100 290/09 RMK AO2 VIS 2 1/2V5 SNB10 P0000
14840KMKG MKG20021124164513911/24/02 16:45:31  5-MIN KMKG 242145Z 31007KT 2 1/2SM -SN BKN022 BKN029 OVC036 01/M02 A3013 430 82 -1100 310/07 RMK AO2 VIS 2V3 SNB10 P0000
14840KMKG MKG20021124165015111/24/02 16:50:31  5-MIN KMKG 242150Z 30008KT 1 1/2SM -SN BR BKN022 BKN029 OVC036 01/M02 A3013 430 85 -1100 300/08 RMK AO2 SNB10 SLP211 P0000 T00061017
14840KMKG MKG20021124165516511/24/02 16:55:31  5-MIN KMKG 242155Z 31006KT 1 1/4SM -SN BR BKN018 BKN026 OVC033 00/M01 A3013 430 92 -1200 310/06 RMK AO2 TWR VIS 1 1/2 SNB10 SLP211 P0000 T00001011
14840KMKG MKG20021124170012111/24/02 17:00:31  5-MIN KMKG 242200Z 29006KT 1 1/2SM -SN BR BKN020 OVC033 00/M01 A3013 430 92 -1200 290/06 RMK AO2 P0000
14840KMKG MKG20021124170514211/24/02 17:05:31  5-MIN KMKG 242205Z 29006KT 1 1/2SM -SN BR BKN020 BKN025 OVC033 00/M01 A3013 430 92 -1200 290/06 RMK AO2 SFC VIS 1 3/4 P0000
14840KMKG MKG20021124171014211/24/02 17:10:31  5-MIN KMKG 242210Z 31004KT 1 1/2SM -SN BR SCT020 BKN025 OVC033 00/M01 A3013 430 92 -1200 310/04 RMK AO2 SFC VIS 2 1/2 P0000
14840KMKG MKG20021124171515311/24/02 17:15:31  5-MIN KMKG 242215Z 28004KT 1 1/2SM -SN BR SCT020 BKN025 OVC033 00/M01 A3013 440 92 -1200 280/04 RMK AO2 SFC VIS 3 CIG 020 RWY 14 P0000
14840KMKG MKG20021124172013811/24/02 17:20:31  5-MIN KMKG 242220Z 29006KT 1 1/2SM -SN BR BKN020 BKN025 OVC033 00/M02 A3013 440 88 -1200 290/06 RMK AO2 SFC VIS 3 P0000
14840KMKG MKG20021124172513511/24/02 17:25:31  5-MIN KMKG 242225Z 29008KT 1 1/2SM -SN BR BKN020 OVC033 00/M02 A3013 440 88 -1200 300/08 RMK AO2 SFC VIS 2 1/2 P0000
14840KMKG MKG20021124173014211/24/02 17:30:31  5-MIN KMKG 242230Z 30005KT 1 1/2SM -SN BR BKN018 BKN025 OVC032 00/M02 A3013 440 88 -1200 310/05 RMK AO2 SFC VIS 2 1/2 P0000
14840KMKG MKG20021124173514211/24/02 17:35:31  5-MIN KMKG 242235Z 29005KT 1 1/2SM -SN BR BKN018 BKN025 OVC034 00/M02 A3013 440 88 -1200 300/05 RMK AO2 SFC VIS 2 1/2 P0000
14840KMKG MKG20021124174013511/24/02 17:40:31  5-MIN KMKG 242240Z 28006KT 1 1/2SM -SN BR BKN018 OVC034 00/M02 A3013 440 88 -1200 290/06 RMK AO2 SFC VIS 2 1/2 P0000
14840KMKG MKG20021124174513911/24/02 17:45:31  5-MIN KMKG 242245Z 29005KT 1 1/2SM -SN BR OVC020 00/M02 A3013 440 88 -1200 290/05 RMK AO2 SFC VIS 3 CIG 014 RWY 14 P0000
14840KMKG MKG20021124175014511/24/02 17:50:31  5-MIN KMKG 242250Z 28007KT 1 1/2SM -SN BR OVC018 00/M02 A3013 440 88 -1200 290/07 RMK AO2 SFC VIS 2 1/2 SLP210 P0000 T00001017
14840KMKG MKG20021124175515711/24/02 17:55:31  5-MIN KMKG 242255Z 28006KT 1SM -SN BR OVC014 M01/M01 A3013 440 96 -1300 290/06 RMK AO2 SFC VIS 1 3/4 CIG 010 RWY 14 SLP210 P0000 T10061011
14840KMKG MKG20021124180012511/24/02 18:00:31  5-MIN KMKG 242300Z 28005KT 1SM -SN BR OVC012 M01/M01 A3013 430 96 -1300 280/05 RMK AO2 SFC VIS 1 1/2 P0000
14840KMKG MKG20021124180512511/24/02 18:05:31  5-MIN KMKG 242305Z 28005KT 1SM -SN BR OVC010 M01/M01 A3014 430 96 -1300 280/05 RMK AO2 SFC VIS 1 1/4 P0000
14840KMKG MKG20021124181012511/24/02 18:10:31  5-MIN KMKG 242310Z 28004KT 1SM -SN BR OVC008 M01/M01 A3014 430 96 -1300 290/04 RMK AO2 SFC VIS 1 1/4 P0000
14840KMKG MKG20021124181511111/24/02 18:15:31  5-MIN KMKG 242315Z 27004KT 1SM -SN BR VV006 M01/M01 A3014 430 100 -1300 270/04 RMK AO2 P0001
14840KMKG MKG20021124182011111/24/02 18:20:31  5-MIN KMKG 242320Z 29003KT 1SM -SN BR VV006 M01/M01 A3014 430 100 -1300 300/03 RMK AO2 P0001
14840KMKG MKG20021124182513311/24/02 18:25:31  5-MIN KMKG 242325Z 28003KT 1SM -SN BR BKN006 OVC017 M01/M01 A3014 430 100 -1300 290/03 RMK AO2 SFC VIS 1 1/4 P0001
14840KMKG MKG20021124183014011/24/02 18:30:31  5-MIN KMKG 242330Z 27004KT 1SM -SN BR BKN006 BKN015 OVC021 M01/M01 A3015 420 100 -1300 280/04 RMK AO2 SFC VIS 1 1/4 P0001
14840KMKG MKG20021124183511911/24/02 18:35:31  5-MIN KMKG 242335Z 29004KT 1SM -SN BR BKN006 OVC015 M01/M01 A3014 420 100 -1300 290/04 RMK AO2 P0002
14840KMKG MKG20021124184015311/24/02 18:40:31  5-MIN KMKG 242340Z 29003KT 3/4SM -SN BR SCT006 BKN012 OVC018 M01/M01 A3014 430 100 -1300 300/03 RMK AO2 TWR VIS 1 CIG 006 RWY 14 P0003
14840KMKG MKG20021124184514611/24/02 18:45:31  5-MIN KMKG 242345Z 28004KT 3/4SM -SN BR SCT006 OVC014 M01/M01 A3015 420 100 -1300 290/04 RMK AO2 TWR VIS 1 CIG 006 RWY 14 P0004
14840KMKG MKG20021124185018711/24/02 18:50:31  5-MIN KMKG 242350Z 29004KT 3/4SM -SN BR SCT006 OVC014 M01/M01 A3014 430 100 -1300 290/04 RMK AO2 TWR VIS 1 CIG 006 RWY 14 SLP213 P0004 60004 T10061006 10033 21006 53002
14840KMKG MKG20021124185518711/24/02 18:55:31  5-MIN KMKG 242355Z 29005KT 3/4SM -SN BR SCT006 OVC011 M01/M01 A3014 430 100 -1300 300/05 RMK AO2 TWR VIS 1 CIG 006 RWY 14 SLP214 P0005 60005 T10061006 10033 21006 51009
14840KMKG MKG20021124190013111/24/02 19:00:31  5-MIN KMKG 250000Z 29004KT 3/4SM -SN BR BKN006 OVC011 M01/M01 A3015 420 100 -1300 290/04 RMK AO2 TWR VIS 1 P0001
14840KMKG MKG20021124190513111/24/02 19:05:31  5-MIN KMKG 250005Z 30004KT 3/4SM -SN BR BKN006 OVC011 M01/M01 A3015 420 100 -1300 300/04 RMK AO2 TWR VIS 1 P0001
14840KMKG MKG20021124191013811/24/02 19:10:31  5-MIN KMKG 250010Z VRB06KT 3/4SM -SN BR BKN006 BKN009 OVC014 M01/M01 A3015 420 100 -1300 VRB/06 RMK AO2 TWR VIS 1 P0002
14840KMKG MKG20021124191513111/24/02 19:15:31  5-MIN KMKG 250015Z 31006KT 3/4SM -SN BR BKN006 OVC009 M01/M01 A3015 420 100 -1300 310/06 RMK AO2 TWR VIS 1 P0002
14840KMKG MKG20021124192011911/24/02 19:20:31  5-MIN KMKG 250020Z 29004KT 1SM -SN BR BKN006 OVC010 M01/M01 A3015 420 100 -1300 290/04 RMK AO2 P0002
14840KMKG MKG20021124192511911/24/02 19:25:31  5-MIN KMKG 250025Z 30005KT 1SM -SN BR BKN006 OVC010 M01/M01 A3015 420 100 -1300 310/05 RMK AO2 P0003
14840KMKG MKG20021124193013411/24/02 19:30:31  5-MIN KMKG 250030Z 30004KT 1SM -SN BR SCT006 OVC010 M01/M01 A3015 420 100 -1300 310/04 RMK AO2 CIG 006 RWY 14 P0003
14840KMKG MKG20021124193512611/24/02 19:35:31  5-MIN KMKG 250035Z 30004KT 1SM -SN BR OVC006 M01/M01 A3015 420 100 -1300 300/04 RMK AO2 SFC VIS 1 1/4 P0003
14840KMKG MKG20021124194013311/24/02 19:40:31  5-MIN KMKG 250040Z 28004KT 1SM -SN BR BKN006 OVC009 M01/M01 A3015 420 100 -1300 280/04 RMK AO2 SFC VIS 1 1/2 P0003
14840KMKG MKG20021124194513311/24/02 19:45:31  5-MIN KMKG 250045Z 28003KT 1SM -SN BR BKN006 OVC009 M01/M01 A3015 410 100 -1300 280/03 RMK AO2 SFC VIS 1 1/2 P0004
14840KMKG MKG20021124195014311/24/02 19:50:31  5-MIN KMKG 250050Z 28005KT 1SM -SN BR OVC006 M01/M01 A3015 420 100 -1300 290/05 RMK AO2 SFC VIS 1 1/2 SLP217 P0004 T10061006
14840KMKG MKG20021124195515011/24/02 19:55:31  5-MIN KMKG 250055Z 28003KT 1SM -SN BR BKN006 OVC017 M01/M01 A3015 420 100 -1300 280/03 RMK AO2 SFC VIS 1 1/2 SLP217 P0004 T10061006
14840KMKG MKG20021124200012611/24/02 20:00:31  5-MIN KMKG 250100Z 27003KT 1SM -SN BR BKN006 BKN011 OVC016 M01/M01 A3016 410 100 -1300 280/03 RMK AO2 P0000
14840KMKG MKG20021124200513811/24/02 20:05:31  5-MIN KMKG 250105Z 00000KT 3/4SM -SN BR BKN006 BKN011 OVC016 M01/M01 A3015 410 100 -1300 000/00 RMK AO2 TWR VIS 1 P0001
14840KMKG MKG20021124201013111/24/02 20:10:31  5-MIN KMKG 250110Z 34003KT 3/4SM -SN BR BKN006 OVC014 M01/M01 A3016 410 100 -1300 340/03 RMK AO2 TWR VIS 1 P0001
14840KMKG MKG20021124201513111/24/02 20:15:31  5-MIN KMKG 250115Z 33004KT 3/4SM -SN BR BKN006 OVC014 M01/M01 A3016 410 100 -1300 340/04 RMK AO2 TWR VIS 1 P0002
14840KMKG MKG20021124202013311/24/02 20:20:31  5-MIN KMKG 250120Z 32005KT 1SM -SN BR BKN006 OVC011 M01/M01 A3016 410 100 -1300 330/05 RMK AO2 SFC VIS 1 1/4 P0002
14840KMKG MKG20021124202513311/24/02 20:25:31  5-MIN KMKG 250125Z 33005KT 1SM -SN BR BKN004 OVC011 M01/M01 A3016 410 100 -1300 340/05 RMK AO2 SFC VIS 1 1/2 P0002
14840KMKG MKG20021124203013311/24/02 20:30:31  5-MIN KMKG 250130Z 34004KT 1SM -SN BR BKN006 OVC011 M01/M01 A3016 410 100 -1300 350/04 RMK AO2 SFC VIS 1 1/2 P0002
14840KMKG MKG20021124203512611/24/02 20:35:31  5-MIN KMKG 250135Z 34004KT 1SM -SN BR OVC008 M01/M01 A3016 410 100 -1300 340/04 RMK AO2 SFC VIS 1 1/2 P0002
14840KMKG MKG20021124204013311/24/02 20:40:31  5-MIN KMKG 250140Z 33004KT 1SM -SN BR BKN006 OVC010 M01/M01 A3016 410 100 -1300 330/04 RMK AO2 SFC VIS 1 1/2 P0002
14840KMKG MKG20021124204512611/24/02 20:45:31  5-MIN KMKG 250145Z 33004KT 1SM -SN BR OVC008 M01/M01 A3016 410 100 -1300 330/04 RMK AO2 SFC VIS 1 1/4 P0003
14840KMKG MKG20021124205014311/24/02 20:50:31  5-MIN KMKG 250150Z 33005KT 1SM -SN BR OVC008 M01/M01 A3016 410 100 -1300 340/05 RMK AO2 SFC VIS 1 1/4 SLP220 P0003 T10061006
14840KMKG MKG20021124205515011/24/02 20:55:31  5-MIN KMKG 250155Z 33005KT 1SM -SN BR BKN006 OVC011 M01/M01 A3016 410 100 -1300 330/05 RMK AO2 SFC VIS 1 1/4 SLP219 P0003 T10061006
14840KMKG MKG20021124210013311/24/02 21:00:31  5-MIN KMKG 250200Z 33004KT 1SM -SN BR BKN008 OVC013 M01/M01 A3016 410 100 -1300 330/04 RMK AO2 SFC VIS 1 1/4 P0000
14840KMKG MKG20021124210511911/24/02 21:05:31  5-MIN KMKG 250205Z 32005KT 1SM -SN BR BKN006 OVC011 M01/M01 A3016 410 100 -1300 330/05 RMK AO2 P0001
14840KMKG MKG20021124211013311/24/02 21:10:31  5-MIN KMKG 250210Z 32005KT 1SM -SN BR BKN006 OVC011 M01/M01 A3016 410 100 -1300 320/05 RMK AO2 SFC VIS 1 1/4 P0001
14840KMKG MKG20021124211513311/24/02 21:15:31  5-MIN KMKG 250215Z 31004KT 1SM -SN BR BKN006 OVC013 M01/M01 A3016 410 100 -1300 310/04 RMK AO2 SFC VIS 1 1/4 P0001
14840KMKG MKG20021124212013311/24/02 21:20:31  5-MIN KMKG 250220Z 31003KT 1SM -SN BR BKN006 OVC010 M01/M01 A3016 410 100 -1300 320/03 RMK AO2 SFC VIS 1 1/4 P0001
14840KMKG MKG20021124212513311/24/02 21:25:31  5-MIN KMKG 250225Z 32005KT 1SM -SN BR BKN006 OVC010 M01/M01 A3017 400 100 -1300 330/05 RMK AO2 SFC VIS 1 1/2 P0002
14840KMKG MKG20021124213013311/24/02 21:30:31  5-MIN KMKG 250230Z 32005KT 1SM -SN BR BKN006 OVC010 M01/M01 A3016 410 100 -1300 320/05 RMK AO2 SFC VIS 1 3/4 P0002
14840KMKG MKG20021124213512911/24/02 21:35:31  5-MIN KMKG 250235Z 32005KT 1SM -SN BR BKN006 OVC011 M01/M01 A3017 400 100 -1300 320/05 RMK AO2 SFC VIS 2 P0002
14840KMKG MKG20021124214013311/24/02 21:40:31  5-MIN KMKG 250240Z 32005KT 1SM -SN BR BKN006 OVC011 M01/M01 A3017 400 100 -1300 330/05 RMK AO2 SFC VIS 2 1/2 P0002
14840KMKG MKG20021124214512911/24/02 21:45:31  5-MIN KMKG 250245Z 31005KT 1SM -SN BR BKN006 OVC011 M01/M01 A3017 400 100 -1300 320/05 RMK AO2 SFC VIS 2 P0002
14840KMKG MKG20021124215016211/24/02 21:50:31  5-MIN KMKG 250250Z 32004KT 1SM -SN BR BKN006 OVC011 M01/M01 A3017 400 100 -1300 320/04 RMK AO2 SFC VIS 1 1/2 SLP223 P0002 60009 T10061006 51009
14840KMKG MKG20021124215515811/24/02 21:55:31  5-MIN KMKG 250255Z 32004KT 1SM -SN BR BKN006 OVC015 M01/M01 A3017 400 100 -1300 330/04 RMK AO2 SFC VIS 2 SLP222 P0002 60009 T10061006 51008
14840KMKG MKG20021124220012911/24/02 22:00:31  5-MIN KMKG 250300Z 31003KT 1SM -SN BR BKN006 OVC015 M01/M01 A3017 400 100 -1300 320/03 RMK AO2 SFC VIS 2 P0000
14840KMKG MKG20021124220513311/24/02 22:05:31  5-MIN KMKG 250305Z 32004KT 1SM -SN BR BKN006 OVC014 M01/M01 A3017 400 100 -1300 330/04 RMK AO2 SFC VIS 1 3/4 P0000
14840KMKG MKG20021124221013311/24/02 22:10:31  5-MIN KMKG 250310Z 32004KT 1SM -SN BR BKN006 OVC014 M01/M01 A3017 400 100 -1300 330/04 RMK AO2 SFC VIS 1 3/4 P0001
14840KMKG MKG20021124221514011/24/02 22:15:31  5-MIN KMKG 250315Z 33003KT 1SM -SN BR SCT006 BKN014 OVC047 M01/M01 A3016 410 100 -1300 330/03 RMK AO2 SFC VIS 1 3/4 P0001
14840KMKG MKG20021124222013611/24/02 22:20:31  5-MIN KMKG 250320Z 34003KT 1SM -SN BR SCT006 BKN015 OVC047 M01/M01 A3016 410 100 -1300 340/03 RMK AO2 SFC VIS 2 P0001
14840KMKG MKG20021124222513611/24/02 22:25:31  5-MIN KMKG 250325Z 00000KT 1SM -SN BR FEW006 BKN030 OVC060 M01/M01 A3017 400 100 -1300 000/00 RMK AO2 SFC VIS 2 P0001
14840KMKG MKG20021124223015111/24/02 22:30:31  5-MIN KMKG 250330Z 00000KT 1SM -SN BR FEW006 SCT015 OVC055 M01/M01 A3016 410 100 -1300 000/00 RMK AO2 SFC VIS 2 CIG 030 RWY 14 P0001
14840KMKG MKG20021124223513611/24/02 22:35:31  5-MIN KMKG 250335Z 00000KT 1SM -SN BR SCT006 BKN019 OVC060 M01/M01 A3017 400 100 -1300 000/00 RMK AO2 SFC VIS 2 P0001
14840KMKG MKG20021124224014011/24/02 22:40:31  5-MIN KMKG 250340Z 00000KT 1SM -SN BR FEW006 BKN017 OVC060 M01/M01 A3017 400 100 -1300 000/00 RMK AO2 SFC VIS 1 1/2 P0001
14840KMKG MKG20021124224514011/24/02 22:45:31  5-MIN KMKG 250345Z 00000KT 1SM -SN BR FEW006 BKN014 OVC060 M01/M01 A3016 410 100 -1300 000/00 RMK AO2 SFC VIS 1 1/2 P0001
14840KMKG MKG20021124225015311/24/02 22:50:31  5-MIN KMKG 250350Z 00000KT 1SM -SN BR FEW006 BKN013 OVC060 M01/M01 A3016 410 100 -1300 000/00 RMK AO2 SFC VIS 2 SLP221 P0001 T10061006
14840KMKG MKG20021124225515711/24/02 22:55:31  5-MIN KMKG 250355Z 00000KT 1SM -SN BR SCT009 BKN015 OVC021 M01/M01 A3017 400 100 -1300 000/00 RMK AO2 SFC VIS 1 1/2 SLP222 P0002 T10061006
14840KMKG MKG20021124230015511/24/02 23:00:31  5-MIN KMKG 250400Z 00000KT 1SM -SN BR SCT009 BKN013 OVC026 M01/M01 A3016 410 100 -1400 000/00 RMK AO2 SFC VIS 1 1/4 CIG 009 RWY 14 P0000
14840KMKG MKG20021124230515511/24/02 23:05:31  5-MIN KMKG 250405Z 09003KT 1SM -SN BR SCT009 BKN013 OVC019 M01/M01 A3016 410 100 -1400 090/03 RMK AO2 SFC VIS 1 1/2 CIG 009 RWY 14 P0000
14840KMKG MKG20021124231014811/24/02 23:10:31  5-MIN KMKG 250410Z 08003KT 1SM -SN BR BKN007 BKN013 OVC019 M01/M01 A3016 410 100 -1400 090/03 RMK AO2 SFC VIS 2 CIG 007V012 P0000
14840KMKG MKG20021124231514511/24/02 23:15:31  5-MIN KMKG 250415Z 00000KT 1SM -SN BR BKN009 OVC013 M01/M01 A3016 410 100 -1300 000/00 RMK AO2 SFC VIS 2 1/2 CIG 007V010 P0000
14840KMKG MKG20021124232014811/24/02 23:20:31  5-MIN KMKG 250420Z 00000KT 1SM -SN BR BKN009 BKN012 OVC034 M01/M01 A3016 410 100 -1300 000/00 RMK AO2 SFC VIS 2 CIG 007V010 P0000
14840KMKG MKG20021124232513011/24/02 23:25:31  5-MIN KMKG 250425Z 00000KT 1 3/4SM -SN BR BKN009 BKN013 OVC034 M01/M01 A3016 410 100 -1400 000/00 RMK AO2 P0000
14840KMKG MKG20021124233013011/24/02 23:30:31  5-MIN KMKG 250430Z 00000KT 1 3/4SM -SN BR SCT009 BKN013 OVC034 M01/M01 A3016 410 100 -1400 000/00 RMK AO2 P0000
14840KMKG MKG20021124233513011/24/02 23:35:31  5-MIN KMKG 250435Z 00000KT 1 3/4SM -SN BR SCT009 SCT013 OVC034 M01/M01 A3016 410 100 -1400 000/00 RMK AO2 P0001
14840KMKG MKG20021124234013011/24/02 23:40:31  5-MIN KMKG 250440Z 08003KT 1 3/4SM -SN BR FEW009 SCT013 OVC034 M01/M01 A3016 410 100 -1400 090/03 RMK AO2 P0001
14840KMKG MKG20021124234511911/24/02 23:45:31  5-MIN KMKG 250445Z 07004KT 2SM -SN BR FEW013 OVC034 M01/M01 A3015 420 100 -1400 070/04 RMK AO2 P0001
14840KMKG MKG20021124235014611/24/02 23:50:31  5-MIN KMKG 250450Z 09004KT 3SM -SN BR FEW013 OVC034 M01/M01 A3015 420 100 -1400 090/04 RMK AO2 SLP218 P0001 T10111011 400611011
14840KMKG MKG20021124235513911/24/02 23:55:31  5-MIN KMKG 250455Z 11004KT 4SM -SN BR OVC032 M01/M01 A3015 410 100 -1400 120/04 RMK AO2 SLP218 P0001 T10111011 400611011
14840KMKG MKG20021125000011411/25/02 00:00:31  5-MIN KMKG 250500Z 13004KT 5SM BR OVC032 M01/M01 A3015 410 100 -1400 130/04 RMK AO2 SNE00 P0000
14840KMKG MKG20021125000511411/25/02 00:05:31  5-MIN KMKG 250505Z 13004KT 6SM BR OVC032 M01/M01 A3016 410 100 -1400 130/04 RMK AO2 SNE00 P0000
14840KMKG MKG20021125001011411/25/02 00:10:31  5-MIN KMKG 250510Z 13003KT 6SM BR OVC032 M01/M01 A3015 410 100 -1400 130/03 RMK AO2 SNE00 P0000
14840KMKG MKG20021125001511111/25/02 00:15:31  5-MIN KMKG 250515Z 15003KT 7SM OVC032 M01/M01 A3016 410 100 -1400 160/03 RMK AO2 SNE00 P0000
14840KMKG MKG20021125002011111/25/02 00:20:31  5-MIN KMKG 250520Z 00000KT 7SM OVC032 M01/M01 A3015 410 100 -1400 000/00 RMK AO2 SNE00 P0000
14840KMKG MKG20021125002511111/25/02 00:25:31  5-MIN KMKG 250525Z 00000KT 7SM OVC030 M01/M01 A3015 420 100 -1400 000/00 RMK AO2 SNE00 P0000
14840KMKG MKG20021125003011111/25/02 00:30:31  5-MIN KMKG 250530Z 00000KT 7SM OVC030 M01/M01 A3015 420 100 -1400 000/00 RMK AO2 SNE00 P0000
14840KMKG MKG20021125003511111/25/02 00:35:31  5-MIN KMKG 250535Z 00000KT 7SM OVC030 M01/M01 A3015 420 100 -1400 000/00 RMK AO2 SNE00 P0000
14840KMKG MKG20021125004011111/25/02 00:40:31  5-MIN KMKG 250540Z 00000KT 7SM OVC030 M01/M01 A3015 420 100 -1400 000/00 RMK AO2 SNE00 P0000
14840KMKG MKG20021125004511111/25/02 00:45:31  5-MIN KMKG 250545Z 00000KT 7SM OVC030 M01/M01 A3015 420 100 -1400 000/00 RMK AO2 SNE00 P0000
14840KMKG MKG20021125005015811/25/02 00:50:31  5-MIN KMKG 250550Z 00000KT 7SM OVC030 M01/M01 A3015 420 100 -1400 000/00 RMK AO2 SNE00 SLP217 4/003 P0000 60012 T10111011 11006 21011 51008
14840KMKG MKG20021125005515811/25/02 00:55:31  5-MIN KMKG 250555Z 00000KT 7SM OVC030 M01/M01 A3015 420 100 -1400 000/00 RMK AO2 SNE00 SLP218 P0000 60012 4/003 T10111011 11006 21011 58006
14840KMKG MKG20021125010010211/25/02 01:00:31  5-MIN KMKG 250600Z 00000KT 6SM BR OVC030 M01/M01 A3015 420 100 -1400 000/00 RMK AO2
14840KMKG MKG20021125010510211/25/02 01:05:31  5-MIN KMKG 250605Z 00000KT 6SM BR OVC030 M02/M02 A3015 420 100 -1400 000/00 RMK AO2
14840KMKG MKG20021125011010211/25/02 01:10:31  5-MIN KMKG 250610Z 00000KT 6SM BR OVC030 M01/M01 A3015 420 100 -1400 000/00 RMK AO2
14840KMKG MKG20021125011510211/25/02 01:15:31  5-MIN KMKG 250615Z 00000KT 6SM BR OVC030 M01/M01 A3015 420 100 -1400 000/00 RMK AO2
14840KMKG MKG20021125012010211/25/02 01:20:31  5-MIN KMKG 250620Z 00000KT 6SM BR OVC030 M01/M01 A3015 420 100 -1400 000/00 RMK AO2
14840KMKG MKG20021125012510211/25/02 01:25:31  5-MIN KMKG 250625Z 00000KT 5SM BR OVC030 M01/M01 A3015 420 100 -1400 000/00 RMK AO2
14840KMKG MKG20021125013010211/25/02 01:30:31  5-MIN KMKG 250630Z 00000KT 6SM BR OVC030 M01/M01 A3015 420 100 -1400 000/00 RMK AO2
14840KMKG MKG20021125013510211/25/02 01:35:31  5-MIN KMKG 250635Z 00000KT 6SM BR OVC032 M02/M02 A3015 420 100 -1400 000/00 RMK AO2
14840KMKG MKG20021125014010211/25/02 01:40:31  5-MIN KMKG 250640Z 00000KT 6SM BR OVC032 M01/M01 A3015 420 100 -1400 000/00 RMK AO2
14840KMKG MKG20021125014510211/25/02 01:45:31  5-MIN KMKG 250645Z 00000KT 6SM BR OVC032 M02/M02 A3015 420 100 -1400 000/00 RMK AO2
14840KMKG MKG20021125015011911/25/02 01:50:31  5-MIN KMKG 250650Z 00000KT 6SM BR OVC032 M01/M01 A3015 420 100 -1400 000/00 RMK AO2 SLP216 T10111011
14840KMKG MKG20021125015511911/25/02 01:55:31  5-MIN KMKG 250655Z 00000KT 6SM BR OVC034 M01/M01 A3015 420 100 -1400 000/00 RMK AO2 SLP216 T10111011
14840KMKG MKG20021125020010211/25/02 02:00:31  5-MIN KMKG 250700Z 00000KT 6SM BR OVC034 M02/M02 A3015 420 100 -1400 000/00 RMK AO2
14840KMKG MKG20021125020510911/25/02 02:05:31  5-MIN KMKG 250705Z 00000KT 6SM BR BKN034 OVC041 M02/M02 A3015 420 100 -1400 000/00 RMK AO2
14840KMKG MKG20021125021010911/25/02 02:10:31  5-MIN KMKG 250710Z 00000KT 6SM BR BKN034 OVC041 M02/M02 A3015 420 100 -1400 000/00 RMK AO2
14840KMKG MKG20021125021510211/25/02 02:15:31  5-MIN KMKG 250715Z 00000KT 6SM BR OVC034 M02/M02 A3015 420 100 -1400 000/00 RMK AO2
14840KMKG MKG20021125022010211/25/02 02:20:31  5-MIN KMKG 250720Z 00000KT 5SM BR OVC038 M02/M02 A3015 420 100 -1400 000/00 RMK AO2
14840KMKG MKG20021125022510211/25/02 02:25:31  5-MIN KMKG 250725Z 13003KT 5SM BR OVC038 M02/M02 A3015 420 100 -1400 130/03 RMK AO2
14840KMKG MKG20021125023010211/25/02 02:30:31  5-MIN KMKG 250730Z 00000KT 5SM BR OVC040 M02/M02 A3015 420 100 -1400 000/00 RMK AO2
14840KMKG MKG20021125023510211/25/02 02:35:31  5-MIN KMKG 250735Z 00000KT 5SM BR OVC040 M02/M02 A3016 410 100 -1400 000/00 RMK AO2
14840KMKG MKG20021125024010211/25/02 02:40:31  5-MIN KMKG 250740Z 00000KT 5SM BR OVC040 M02/M02 A3016 410 100 -1400 000/00 RMK AO2
14840KMKG MKG20021125024510211/25/02 02:45:31  5-MIN KMKG 250745Z 00000KT 5SM BR OVC040 M02/M02 A3016 410 100 -1400 000/00 RMK AO2
14840KMKG MKG20021125025011911/25/02 02:50:31  5-MIN KMKG 250750Z 00000KT 5SM BR OVC038 M02/M02 A3016 410 100 -1400 000/00 RMK AO2 SLP220 T10171017
14840KMKG MKG20021125025511911/25/02 02:55:31  5-MIN KMKG 250755Z 00000KT 4SM BR OVC038 M02/M02 A3016 410 100 -1400 000/00 RMK AO2 SLP220 T10171017
14840KMKG MKG20021125030010211/25/02 03:00:31  5-MIN KMKG 250800Z 00000KT 5SM BR OVC038 M02/M02 A3016 410 100 -1400 000/00 RMK AO2
14840KMKG MKG20021125030510211/25/02 03:05:31  5-MIN KMKG 250805Z 00000KT 4SM BR OVC038 M02/M02 A3016 410 100 -1400 000/00 RMK AO2
14840KMKG MKG20021125031010211/25/02 03:10:31  5-MIN KMKG 250810Z 00000KT 4SM BR OVC036 M02/M02 A3016 410 100 -1400 000/00 RMK AO2
14840KMKG MKG20021125031510211/25/02 03:15:31  5-MIN KMKG 250815Z 00000KT 4SM BR OVC035 M01/M01 A3016 410 100 -1400 000/00 RMK AO2
14840KMKG MKG20021125032010211/25/02 03:20:31  5-MIN KMKG 250820Z 00000KT 5SM BR OVC035 M01/M01 A3016 410 100 -1400 000/00 RMK AO2
14840KMKG MKG20021125032510211/25/02 03:25:31  5-MIN KMKG 250825Z 00000KT 5SM BR OVC035 M01/M01 A3016 410 100 -1400 000/00 RMK AO2
14840KMKG MKG20021125033010911/25/02 03:30:31  5-MIN KMKG 250830Z 00000KT 6SM BR BKN031 OVC040 M02/M02 A3016 410 100 -1400 000/00 RMK AO2
14840KMKG MKG20021125033511611/25/02 03:35:31  5-MIN KMKG 250835Z 00000KT 6SM BR SCT031 BKN037 OVC045 M02/M02 A3016 410 100 -1400 000/00 RMK AO2
14840KMKG MKG20021125034012411/25/02 03:40:31  5-MIN KMKG 250840Z 00000KT 6SM BR SCT031 OVC040 M02/M02 A3016 410 100 -1400 000/00 RMK AO2 CIG 032 RWY 14
14840KMKG MKG20021125034512411/25/02 03:45:31  5-MIN KMKG 250845Z 00000KT 6SM BR SCT031 OVC040 M01/M01 A3016 410 100 -1400 000/00 RMK AO2 CIG 032 RWY 14
14840KMKG MKG20021125035014711/25/02 03:50:31  5-MIN KMKG 250850Z 00000KT 6SM BR SCT029 OVC038 M01/M01 A3016 410 100 -1400 000/00 RMK AO2 CIG 031 RWY 14 SLP222 T10111011 58006
14840KMKG MKG20021125053511211/25/02 05:35:31  5-MIN KMKG 251035Z 31006KT 10SM FEW028 SCT035 OVC041 00/M03 A3018 390 81 -1300 320/06 RMK AO2
14840KMKG MKG20021125054011211/25/02 05:40:31  5-MIN KMKG 251040Z 32006KT 10SM SCT030 BKN035 OVC043 00/M03 A3018 390 78 -1300 320/06 RMK AO2
14840KMKG MKG20021125054510511/25/02 05:45:31  5-MIN KMKG 251045Z 33006KT 10SM BKN030 OVC040 00/M03 A3018 390 78 -1300 330/06 RMK AO2
14840KMKG MKG20021125055012211/25/02 05:50:31  5-MIN KMKG 251050Z 32005KT 10SM BKN030 OVC038 00/M03 A3018 390 78 -1300 320/05 RMK AO2 SLP229 T00001033
14840KMKG MKG20021125055511511/25/02 05:55:31  5-MIN KMKG 251055Z 30008KT 10SM OVC030 00/M04 A3018 390 75 -1300 310/08 RMK AO2 SLP228 T00001039
14840KMKG MKG20021125060009811/25/02 06:00:31  5-MIN KMKG 251100Z 30007KT 10SM OVC032 00/M04 A3018 390 72 -1300 310/07 RMK AO2
14840KMKG MKG20021125060509811/25/02 06:05:31  5-MIN KMKG 251105Z 30007KT 10SM OVC032 00/M04 A3018 390 72 -1300 300/07 RMK AO2
14840KMKG MKG20021125061009811/25/02 06:10:31  5-MIN KMKG 251110Z 28007KT 10SM OVC032 00/M04 A3018 390 72 -1300 280/07 RMK AO2
14840KMKG MKG20021125061509811/25/02 06:15:31  5-MIN KMKG 251115Z 30005KT 10SM OVC032 00/M04 A3018 390 72 -1300 310/05 RMK AO2
14840KMKG MKG20021125062009811/25/02 06:20:31  5-MIN KMKG 251120Z 29006KT 10SM OVC034 00/M04 A3018 390 72 -1300 290/06 RMK AO2
14840KMKG MKG20021125062509811/25/02 06:25:31  5-MIN KMKG 251125Z 30006KT 10SM OVC034 00/M04 A3018 390 72 -1300 300/06 RMK AO2
14840KMKG MKG20021125063009811/25/02 06:30:31  5-MIN KMKG 251130Z 31008KT 10SM OVC034 00/M04 A3018 390 72 -1300 320/08 RMK AO2
14840KMKG MKG20021125063509811/25/02 06:35:31  5-MIN KMKG 251135Z 30006KT 10SM OVC034 00/M05 A3018 390 69 -1300 300/06 RMK AO2
14840KMKG MKG20021125064009811/25/02 06:40:31  5-MIN KMKG 251140Z 31009KT 10SM OVC034 00/M05 A3018 390 69 -1300 310/09 RMK AO2
14840KMKG MKG20021125064509811/25/02 06:45:31  5-MIN KMKG 251145Z 30007KT 10SM OVC036 00/M06 A3019 390 66 -1300 310/07 RMK AO2
14840KMKG MKG20021125065013911/25/02 06:50:31  5-MIN KMKG 251150Z 30008KT 10SM OVC036 00/M06 A3019 380 66 -1300 310/08 RMK AO2 SLP230 70017 T00001056 10000 21017 53004
14840KMKG MKG20021125065513911/25/02 06:55:31  5-MIN KMKG 251155Z 28009KT 10SM OVC036 00/M06 A3019 380 66 -1300 290/09 RMK AO2 SLP231 70017 T00001056 10000 21017 53009
14840KMKG MKG20021125070009811/25/02 07:00:31  5-MIN KMKG 251200Z 29008KT 10SM OVC036 00/M05 A3019 380 69 -1300 300/08 RMK AO2
14840KMKG MKG20021125070509811/25/02 07:05:31  5-MIN KMKG 251205Z 31007KT 10SM OVC036 00/M05 A3020 370 69 -1300 320/07 RMK AO2
14840KMKG MKG20021125071009811/25/02 07:10:31  5-MIN KMKG 251210Z 29006KT 10SM OVC036 00/M06 A3020 380 66 -1300 290/06 RMK AO2
14840KMKG MKG20021125071509811/25/02 07:15:31  5-MIN KMKG 251215Z 31008KT 10SM OVC036 00/M06 A3020 370 63 -1300 310/08 RMK AO2
14840KMKG MKG20021125072009811/25/02 07:20:31  5-MIN KMKG 251220Z 31006KT 10SM OVC036 00/M06 A3020 370 66 -1300 320/06 RMK AO2
14840KMKG MKG20021125072509811/25/02 07:25:31  5-MIN KMKG 251225Z 31006KT 10SM OVC034 00/M06 A3020 370 66 -1300 320/06 RMK AO2
14840KMKG MKG20021125073009811/25/02 07:30:31  5-MIN KMKG 251230Z 30005KT 10SM OVC034 00/M05 A3021 370 69 -1300 310/05 RMK AO2
14840KMKG MKG20021125073509811/25/02 07:35:31  5-MIN KMKG 251235Z 31005KT 10SM OVC034 00/M05 A3021 370 69 -1300 320/05 RMK AO2
14840KMKG MKG20021125074009911/25/02 07:40:31  5-MIN KMKG 251240Z 32007KT 10SM OVC034 M01/M04 A3021 370 75 -1400 330/07 RMK AO2
14840KMKG MKG20021125074509911/25/02 07:45:31  5-MIN KMKG 251245Z 33007KT 10SM OVC032 M01/M05 A3020 370 72 -1400 330/07 RMK AO2
14840KMKG MKG20021125075011611/25/02 07:50:31  5-MIN KMKG 251250Z 32007KT 10SM OVC032 M01/M05 A3020 370 72 -1400 330/07 RMK AO2 SLP236 T10061050
14840KMKG MKG20021125075511611/25/02 07:55:31  5-MIN KMKG 251255Z 31006KT 10SM OVC032 M01/M05 A3021 370 72 -1400 320/06 RMK AO2 SLP237 T10061050
14840KMKG MKG20021125080009911/25/02 08:00:31  5-MIN KMKG 251300Z 33006KT 10SM OVC034 M01/M05 A3021 370 72 -1400 330/06 RMK AO2
14840KMKG MKG20021125080509911/25/02 08:05:31  5-MIN KMKG 251305Z 33005KT 10SM OVC032 M01/M05 A3021 370 72 -1400 330/05 RMK AO2
14840KMKG MKG20021125081009911/25/02 08:10:31  5-MIN KMKG 251310Z 33006KT 10SM OVC032 M01/M04 A3021 360 75 -1400 330/06 RMK AO2
14840KMKG MKG20021125081509911/25/02 08:15:31  5-MIN KMKG 251315Z 33007KT 10SM OVC032 M01/M05 A3021 360 72 -1400 330/07 RMK AO2
14840KMKG MKG20021125082009911/25/02 08:20:31  5-MIN KMKG 251320Z 32006KT 10SM OVC032 M01/M04 A3021 360 75 -1400 330/06 RMK AO2
14840KMKG MKG20021125082509911/25/02 08:25:31  5-MIN KMKG 251325Z 33008KT 10SM OVC032 M01/M04 A3021 360 75 -1400 330/08 RMK AO2
14840KMKG MKG20021125083009911/25/02 08:30:31  5-MIN KMKG 251330Z 33005KT 10SM OVC032 M01/M04 A3021 360 75 -1400 330/05 RMK AO2
14840KMKG MKG20021125083509911/25/02 08:35:31  5-MIN KMKG 251335Z 33007KT 10SM OVC034 M01/M04 A3021 360 75 -1400 330/07 RMK AO2
14840KMKG MKG20021125084009911/25/02 08:40:31  5-MIN KMKG 251340Z 32007KT 10SM OVC034 M01/M05 A3022 350 72 -1400 320/07 RMK AO2
14840KMKG MKG20021125084509911/25/02 08:45:31  5-MIN KMKG 251345Z 32007KT 10SM OVC034 M01/M05 A3022 350 72 -1400 320/07 RMK AO2
14840KMKG MKG20021125085011511/25/02 08:50:31  5-MIN KMKG 251350Z 32008KT 10SM OVC034 00/M06 A3022 350 66 -1300 330/08 RMK AO2 SLP242 T00001056
14840KMKG MKG20021125085511611/25/02 08:55:31  5-MIN KMKG 251355Z 34006KT 10SM OVC034 M01/M05 A3022 350 72 -1400 340/06 RMK AO2 SLP242 T10061050
14840KMKG MKG20021125090009911/25/02 09:00:31  5-MIN KMKG 251400Z 34007KT 10SM OVC034 M01/M04 A3022 350 75 -1400 340/07 RMK AO2
14840KMKG MKG20021125090509911/25/02 09:05:31  5-MIN KMKG 251405Z 33007KT 10SM OVC034 M01/M05 A3023 350 72 -1400 340/07 RMK AO2
14840KMKG MKG20021125091009911/25/02 09:10:31  5-MIN KMKG 251410Z 34008KT 10SM OVC034 M01/M04 A3023 350 75 -1400 340/08 RMK AO2
14840KMKG MKG20021125091509911/25/02 09:15:31  5-MIN KMKG 251415Z 35007KT 10SM OVC034 M01/M05 A3023 350 72 -1400 350/07 RMK AO2
14840KMKG MKG20021125092009911/25/02 09:20:31  5-MIN KMKG 251420Z 33007KT 10SM OVC036 M01/M05 A3023 350 72 -1400 340/07 RMK AO2
14840KMKG MKG20021125092509911/25/02 09:25:31  5-MIN KMKG 251425Z 34007KT 10SM OVC036 M01/M05 A3023 340 72 -1400 340/07 RMK AO2
14840KMKG MKG20021125093009811/25/02 09:30:31  5-MIN KMKG 251430Z 33008KT 9SM OVC036 M01/M04 A3023 340 75 -1400 340/08 RMK AO2
14840KMKG MKG20021125093511411/25/02 09:35:31  5-MIN KMKG 251435Z 33006KT 9SM -SN OVC034 M01/M05 A3023 340 72 -1400 340/06 RMK AO2 SNB32 P0000
14840KMKG MKG20021125094011411/25/02 09:40:31  5-MIN KMKG 251440Z 34008KT 9SM -SN OVC034 M01/M04 A3024 340 75 -1400 340/08 RMK AO2 SNB32 P0000
14840KMKG MKG20021125094511411/25/02 09:45:31  5-MIN KMKG 251445Z 34006KT 9SM -SN OVC034 M01/M04 A3024 340 75 -1400 350/06 RMK AO2 SNB32 P0000
14840KMKG MKG20021125095014311/25/02 09:50:31  5-MIN KMKG 251450Z 35006KT 9SM -SN OVC034 M01/M04 A3024 340 75 -1400 350/06 RMK AO2 SNB32 SLP247 P0000 60000 T10061044 53009
14840KMKG MKG20021125095514211/25/02 09:55:31  5-MIN KMKG 251455Z 35007KT 9SM OVC034 M01/M04 A3024 340 75 -1400 360/07 RMK AO2 SNB32E54 SLP247 P0000 60000 T10061044 51016
14840KMKG MKG20021125100009911/25/02 10:00:31  5-MIN KMKG 251500Z 35006KT 10SM OVC034 M01/M04 A3024 340 75 -1400 360/06 RMK AO2
14840KMKG MKG20021125100509911/25/02 10:05:31  5-MIN KMKG 251505Z 36005KT 10SM OVC036 M01/M04 A3024 340 75 -1400 360/05 RMK AO2
14840KMKG MKG20021125101010611/25/02 10:10:31  5-MIN KMKG 251510Z 36004KT 10SM FEW030 OVC038 M01/M04 A3024 330 75 -1400 360/04 RMK AO2
14840KMKG MKG20021125101509911/25/02 10:15:31  5-MIN KMKG 251515Z 34005KT 10SM OVC038 M01/M04 A3024 330 75 -1400 340/05 RMK AO2
14840KMKG MKG20021125102009811/25/02 10:20:31  5-MIN KMKG 251520Z 33005KT 10SM OVC038 00/M05 A3025 330 69 -1300 330/05 RMK AO2
14840KMKG MKG20021125102509811/25/02 10:25:31  5-MIN KMKG 251525Z 33005KT 10SM OVC038 00/M05 A3025 330 69 -1300 340/05 RMK AO2
14840KMKG MKG20021125103010511/25/02 10:30:31  5-MIN KMKG 251530Z 33007KT 10SM FEW032 OVC040 00/M05 A3025 330 69 -1300 330/07 RMK AO2
14840KMKG MKG20021125103509811/25/02 10:35:31  5-MIN KMKG 251535Z 33007KT 10SM OVC037 00/M04 A3025 320 72 -1300 330/07 RMK AO2
14840KMKG MKG20021125104009911/25/02 10:40:31  5-MIN KMKG 251540Z 32005KT 10SM OVC039 M01/M04 A3026 320 78 -1400 330/05 RMK AO2
14840KMKG MKG20021125104510511/25/02 10:45:31  5-MIN KMKG 251545Z 33006KT 10SM FEW030 OVC039 00/M04 A3026 320 72 -1300 330/06 RMK AO2
14840KMKG MKG20021125105012211/25/02 10:50:31  5-MIN KMKG 251550Z 33007KT 10SM FEW029 OVC039 00/M04 A3026 320 72 -1300 330/07 RMK AO2 SLP254 T00001044
14840KMKG MKG20021125105513811/25/02 10:55:31  5-MIN KMKG 251555Z 35007KT 10SM -SN BKN035 OVC041 00/M04 A3026 320 72 -1300 360/07 RMK AO2 SNB51 SLP255 P0000 T00001044
14840KMKG MKG20021125110010711/25/02 11:00:31  5-MIN KMKG 251600Z 33005KT 9SM -SN OVC038 00/M04 A3026 320 72 -1300 330/05 RMK AO2 P0000
14840KMKG MKG20021125110510711/25/02 11:05:31  5-MIN KMKG 251605Z 33005KT 9SM -SN OVC038 00/M04 A3026 320 75 -1300 330/05 RMK AO2 P0000
14840KMKG MKG20021125111011411/25/02 11:10:31  5-MIN KMKG 251610Z 35005KT 9SM -SN SCT034 OVC042 00/M04 A3026 320 72 -1300 360/05 RMK AO2 P0000
14840KMKG MKG20021125111511411/25/02 11:15:31  5-MIN KMKG 251615Z 34005KT 9SM -SN BKN032 OVC042 00/M04 A3026 320 72 -1300 340/05 RMK AO2 P0000
14840KMKG MKG20021125112011411/25/02 11:20:31  5-MIN KMKG 251620Z 34009KT 9SM -SN BKN030 OVC040 00/M04 A3026 320 72 -1300 350/09 RMK AO2 P0000
14840KMKG MKG20021125112511411/25/02 11:25:31  5-MIN KMKG 251625Z 33010KT 9SM -SN BKN030 OVC040 00/M04 A3026 320 72 -1400 330/10 RMK AO2 P0000
14840KMKG MKG20021125113011411/25/02 11:30:31  5-MIN KMKG 251630Z 31005KT 8SM -SN BKN030 OVC040 00/M04 A3026 320 75 -1300 310/05 RMK AO2 P0000
14840KMKG MKG20021125113511411/25/02 11:35:31  5-MIN KMKG 251635Z 31006KT 8SM -SN BKN030 OVC040 00/M04 A3026 320 75 -1300 320/06 RMK AO2 P0000
14840KMKG MKG20021125114011411/25/02 11:40:31  5-MIN KMKG 251640Z 33006KT 9SM -SN BKN030 OVC040 00/M04 A3026 320 72 -1300 330/06 RMK AO2 P0000
14840KMKG MKG20021125114511411/25/02 11:45:31  5-MIN KMKG 251645Z 32007KT 8SM -SN FEW027 OVC036 00/M04 A3026 320 72 -1300 320/07 RMK AO2 P0000
14840KMKG MKG20021125115013111/25/02 11:50:31  5-MIN KMKG 251650Z 31006KT 8SM -SN FEW027 OVC036 00/M04 A3026 320 72 -1300 310/06 RMK AO2 SLP255 P0000 T00001044
14840KMKG MKG20021125115513111/25/02 11:55:31  5-MIN KMKG 251655Z 31007KT 9SM -SN FEW027 OVC038 00/M04 A3026 320 75 -1300 310/07 RMK AO2 SLP255 P0000 T00001039
14840KMKG MKG20021125120012111/25/02 12:00:31  5-MIN KMKG 251700Z 30006KT 9SM -SN FEW029 BKN039 OVC046 01/M04 A3026 320 69 -1300 300/06 RMK AO2 P0000
14840KMKG MKG20021125120511411/25/02 12:05:31  5-MIN KMKG 251705Z 29008KT 9SM -SN FEW029 OVC043 01/M04 A3026 320 69 -1300 290/08 RMK AO2 P0000
14840KMKG MKG20021125121011411/25/02 12:10:31  5-MIN KMKG 251710Z 29008KT 9SM -SN SCT037 OVC045 01/M04 A3026 320 69 -1300 290/08 RMK AO2 P0000
14840KMKG MKG20021125121510711/25/02 12:15:31  5-MIN KMKG 251715Z 29006KT 9SM -SN OVC043 00/M04 A3026 320 72 -1300 300/06 RMK AO2 P0000
14840KMKG MKG20021125122011411/25/02 12:20:31  5-MIN KMKG 251720Z 28006KT 9SM -SN FEW036 OVC043 00/M04 A3026 320 72 -1300 290/06 RMK AO2 P0000
14840KMKG MKG20021125122513611/25/02 12:25:31  5-MIN KMKG 251725Z 30009KT 9SM -SN FEW027 SCT032 OVC043 01/M04 A3026 320 69 -1300 300/09 RMK AO2 CIG 036 RWY 14 P0000
14840KMKG MKG20021125123012911/25/02 12:30:31  5-MIN KMKG 251730Z 28008KT 9SM -SN SCT030 OVC043 01/M04 A3026 320 69 -1300 280/08 RMK AO2 CIG 029 RWY 14 P0000
14840KMKG MKG20021125123511411/25/02 12:35:31  5-MIN KMKG 251735Z 32008KT 9SM -SN SCT030 OVC041 01/M04 A3026 320 72 -1300 320/08 RMK AO2 P0000
14840KMKG MKG20021125124011411/25/02 12:40:31  5-MIN KMKG 251740Z 29005KT 9SM -SN FEW030 OVC041 00/M04 A3026 320 75 -1400 300/05 RMK AO2 P0000
14840KMKG MKG20021125124511411/25/02 12:45:31  5-MIN KMKG 251745Z 29009KT 9SM -SN FEW026 OVC036 01/M04 A3026 320 69 -1300 300/09 RMK AO2 P0000
14840KMKG MKG20021125125015511/25/02 12:50:31  5-MIN KMKG 251750Z 31009KT 9SM -SN FEW026 OVC038 01/M04 A3026 320 69 -1300 310/09 RMK AO2 SLP255 P0000 60000 T00061044 10006 21006 51016
14840KMKG MKG20021125125515511/25/02 12:55:31  5-MIN KMKG 251755Z 31006KT 9SM -SN FEW028 OVC040 01/M04 A3026 320 69 -1300 310/06 RMK AO2 SLP255 P0000 60000 T00061044 10006 21006 51007
14840KMKG MKG20021125130011411/25/02 13:00:31  5-MIN KMKG 251800Z 30008KT 9SM -SN FEW028 OVC040 01/M04 A3026 320 69 -1300 310/08 RMK AO2 P0000
14840KMKG MKG20021125130511411/25/02 13:05:31  5-MIN KMKG 251805Z 31009KT 9SM -SN SCT028 OVC040 01/M04 A3026 310 69 -1300 310/09 RMK AO2 P0000
14840KMKG MKG20021125131011411/25/02 13:10:31  5-MIN KMKG 251810Z 31007KT 9SM -SN SCT028 OVC039 01/M04 A3026 320 72 -1300 310/07 RMK AO2 P0000
14840KMKG MKG20021125131511411/25/02 13:15:31  5-MIN KMKG 251815Z 31009KT 9SM -SN FEW028 OVC039 01/M04 A3026 320 72 -1300 310/09 RMK AO2 P0000
14840KMKG MKG20021125132012011/25/02 13:20:31  5-MIN KMKG 251820Z 30008G15KT 9SM -SN FEW028 OVC041 01/M04 A3026 320 72 -1300 300/08G15 RMK AO2 P0000
14840KMKG MKG20021125132514211/25/02 13:25:31  5-MIN KMKG 251825Z 29009G15KT 9SM -SN FEW028 SCT037 OVC044 01/M04 A3026 320 72 -1300 290/09G15 RMK AO2 CIG 035 RWY 14 P0000
14840KMKG MKG20021125133011411/25/02 13:30:31  5-MIN KMKG 251830Z 31008KT 7SM -SN FEW028 OVC042 01/M04 A3026 310 72 -1300 310/08 RMK AO2 P0000
14840KMKG MKG20021125133510711/25/02 13:35:31  5-MIN KMKG 251835Z 30006KT 5SM -SN OVC040 00/M03 A3027 310 78 -1400 300/06 RMK AO2 P0000
14840KMKG MKG20021125134011411/25/02 13:40:31  5-MIN KMKG 251840Z 30010KT 6SM -SN BKN037 OVC044 00/M04 A3027 310 75 -1400 300/10 RMK AO2 P0000
14840KMKG MKG20021125134511411/25/02 13:45:31  5-MIN KMKG 251845Z 29009KT 8SM -SN BKN036 OVC043 00/M04 A3027 310 75 -1400 300/09 RMK AO2 P0000
14840KMKG MKG20021125135013111/25/02 13:50:31  5-MIN KMKG 251850Z 29010KT 9SM -SN BKN037 OVC044 01/M04 A3027 310 72 -1300 290/10 RMK AO2 SLP257 P0000 T00061039
14840KMKG MKG20021125135512411/25/02 13:55:31  5-MIN KMKG 251855Z 28010KT 9SM -SN OVC040 01/M03 A3027 310 75 -1300 280/10 RMK AO2 SLP258 P0000 T00061033
14840KMKG MKG20021125140010711/25/02 14:00:31  5-MIN KMKG 251900Z 28009KT 9SM -SN OVC040 01/M04 A3027 310 72 -1300 290/09 RMK AO2 P0000
14840KMKG MKG20021125140511411/25/02 14:05:31  5-MIN KMKG 251905Z 28009KT 9SM -SN FEW028 OVC041 01/M03 A3027 310 75 -1300 280/09 RMK AO2 P0000
14840KMKG MKG20021125141012011/25/02 14:10:31  5-MIN KMKG 251910Z 29011G14KT 9SM -SN SCT028 OVC041 01/M04 A3027 310 72 -1300 290/11G14 RMK AO2 P0000
14840KMKG MKG20021125141511411/25/02 14:15:31  5-MIN KMKG 251915Z 29008KT 7SM -SN SCT028 OVC041 00/M04 A3027 310 75 -1400 300/08 RMK AO2 P0000
14840KMKG MKG20021125142012111/25/02 14:20:31  5-MIN KMKG 251920Z 29008KT 6SM -SN BKN028 BKN034 OVC043 00/M04 A3027 310 75 -1400 290/08 RMK AO2 P0000
14840KMKG MKG20021125142512111/25/02 14:25:31  5-MIN KMKG 251925Z 29010KT 8SM -SN BKN028 BKN034 OVC043 01/M04 A3027 310 72 -1300 290/10 RMK AO2 P0000
14840KMKG MKG20021125143011411/25/02 14:30:31  5-MIN KMKG 251930Z 29008KT 9SM -SN BKN028 OVC036 01/M04 A3027 310 69 -1300 290/08 RMK AO2 P0000
14840KMKG MKG20021125143511411/25/02 14:35:31  5-MIN KMKG 251935Z 29007KT 9SM -SN BKN030 OVC038 01/M04 A3027 310 69 -1300 300/07 RMK AO2 P0000
14840KMKG MKG20021125144011411/25/02 14:40:31  5-MIN KMKG 251940Z 29009KT 9SM -SN BKN030 OVC040 01/M04 A3027 310 69 -1300 300/09 RMK AO2 P0000
14840KMKG MKG20021125144511411/25/02 14:45:31  5-MIN KMKG 251945Z 29008KT 9SM -SN BKN030 OVC042 01/M04 A3027 310 69 -1300 300/08 RMK AO2 P0000
14840KMKG MKG20021125145013111/25/02 14:50:31  5-MIN KMKG 251950Z 30010KT 9SM -SN FEW030 OVC040 01/M04 A3027 310 69 -1300 310/10 RMK AO2 SLP259 P0000 T00061044
14840KMKG MKG20021125145513811/25/02 14:55:31  5-MIN KMKG 251955Z 29008KT 9SM -SN FEW028 BKN036 OVC043 01/M04 A3027 300 69 -1300 300/08 RMK AO2 SLP260 P0000 T00061044
14840KMKG MKG20021125150010711/25/02 15:00:31  5-MIN KMKG 252000Z 29010KT 9SM -SN OVC040 01/M04 A3027 300 69 -1300 300/10 RMK AO2 P0000
14840KMKG MKG20021125150511311/25/02 15:05:31  5-MIN KMKG 252005Z 29010G15KT 9SM -SN OVC042 01/M04 A3028 300 69 -1300 300/10G15 RMK AO2 P0000
14840KMKG MKG20021125151010711/25/02 15:10:31  5-MIN KMKG 252010Z 29011KT 9SM -SN OVC042 01/M04 A3028 300 69 -1300 300/11 RMK AO2 P0000
14840KMKG MKG20021125151510711/25/02 15:15:31  5-MIN KMKG 252015Z 30006KT 9SM -SN OVC042 01/M04 A3028 300 69 -1300 300/06 RMK AO2 P0000
14840KMKG MKG20021125152010711/25/02 15:20:31  5-MIN KMKG 252020Z 30008KT 9SM -SN OVC042 01/M04 A3028 300 69 -1300 300/08 RMK AO2 P0000
14840KMKG MKG20021125152510911/25/02 15:25:31  5-MIN KMKG 252025Z 29009KT 9SM OVC042 01/M05 A3028 300 66 -1300 300/09 RMK AO2 SNE21 P0000
14840KMKG MKG20021125153011011/25/02 15:30:31  5-MIN KMKG 252030Z 29011KT 10SM OVC042 01/M05 A3028 300 66 -1300 290/11 RMK AO2 SNE21 P0000
14840KMKG MKG20021125153511011/25/02 15:35:31  5-MIN KMKG 252035Z 28009KT 10SM OVC042 01/M04 A3028 300 69 -1300 290/09 RMK AO2 SNE21 P0000
14840KMKG MKG20021125154011711/25/02 15:40:31  5-MIN KMKG 252040Z 30009KT 10SM -SN OVC042 01/M04 A3028 300 72 -1300 300/09 RMK AO2 SNE21B37 P0000
14840KMKG MKG20021125154511611/25/02 15:45:31  5-MIN KMKG 252045Z 30007KT 9SM -SN OVC042 01/M04 A3028 300 72 -1300 300/07 RMK AO2 SNE21B37 P0000
14840KMKG MKG20021125155014511/25/02 15:50:31  5-MIN KMKG 252050Z 30008KT 9SM -SN OVC042 01/M04 A3028 300 72 -1300 310/08 RMK AO2 SNE21B37 SLP262 P0000 60000 T00061039 51007
14840KMKG MKG20021125155514511/25/02 15:55:31  5-MIN KMKG 252055Z 30008KT 9SM -SN OVC042 01/M04 A3028 300 69 -1300 310/08 RMK AO2 SNE21B37 SLP262 P0000 60000 T00061044 51007
14840KMKG MKG20021125160011411/25/02 16:00:31  5-MIN KMKG 252100Z 32011KT 9SM -SN FEW028 OVC040 01/M04 A3029 290 72 -1300 330/11 RMK AO2 P0000
14840KMKG MKG20021125160511411/25/02 16:05:31  5-MIN KMKG 252105Z 32010KT 9SM -SN FEW028 OVC040 00/M04 A3029 290 75 -1400 330/10 RMK AO2 P0000
14840KMKG MKG20021125161010711/25/02 16:10:31  5-MIN KMKG 252110Z 32008KT 9SM -SN OVC040 00/M04 A3029 290 75 -1400 330/08 RMK AO2 P0000
14840KMKG MKG20021125161510711/25/02 16:15:31  5-MIN KMKG 252115Z 33008KT 9SM -SN OVC040 00/M04 A3029 290 75 -1400 330/08 RMK AO2 P0000
14840KMKG MKG20021125162010711/25/02 16:20:31  5-MIN KMKG 252120Z 34007KT 9SM -SN OVC040 00/M04 A3029 290 75 -1400 340/07 RMK AO2 P0000
14840KMKG MKG20021125162510711/25/02 16:25:31  5-MIN KMKG 252125Z 33007KT 9SM -SN OVC040 00/M04 A3029 290 75 -1400 330/07 RMK AO2 P0000
14840KMKG MKG20021125163010711/25/02 16:30:31  5-MIN KMKG 252130Z 32008KT 9SM -SN OVC040 00/M04 A3029 290 75 -1400 330/08 RMK AO2 P0000
14840KMKG MKG20021125163510711/25/02 16:35:31  5-MIN KMKG 252135Z 32007KT 9SM -SN OVC040 00/M04 A3029 290 75 -1400 320/07 RMK AO2 P0000
14840KMKG MKG20021125164010711/25/02 16:40:31  5-MIN KMKG 252140Z 32007KT 9SM -SN OVC042 00/M04 A3029 290 75 -1400 330/07 RMK AO2 P0000
14840KMKG MKG20021125164510711/25/02 16:45:31  5-MIN KMKG 252145Z 33006KT 9SM -SN OVC044 00/M04 A3030 280 75 -1400 330/06 RMK AO2 P0000
14840KMKG MKG20021125165012411/25/02 16:50:31  5-MIN KMKG 252150Z 33008KT 9SM -SN OVC045 00/M04 A3030 280 72 -1400 330/08 RMK AO2 SLP268 P0000 T00001044
14840KMKG MKG20021125165512411/25/02 16:55:31  5-MIN KMKG 252155Z 33007KT 9SM -SN OVC047 00/M04 A3030 280 72 -1400 340/07 RMK AO2 SLP268 P0000 T00001044
14840KMKG MKG20021125170010911/25/02 17:00:31  5-MIN KMKG 252200Z 33007KT 9SM OVC049 00/M04 A3030 280 72 -1400 330/07 RMK AO2 SNE00 P0000
14840KMKG MKG20021125170510911/25/02 17:05:31  5-MIN KMKG 252205Z 34006KT 9SM OVC049 00/M04 A3030 280 72 -1400 350/06 RMK AO2 SNE00 P0000
14840KMKG MKG20021125171011011/25/02 17:10:31  5-MIN KMKG 252210Z 34006KT 10SM OVC049 00/M04 A3030 280 75 -1400 340/06 RMK AO2 SNE00 P0000
14840KMKG MKG20021125171511011/25/02 17:15:31  5-MIN KMKG 252215Z 33009KT 10SM OVC049 00/M04 A3030 280 72 -1400 340/09 RMK AO2 SNE00 P0000
14840KMKG MKG20021125172011011/25/02 17:20:31  5-MIN KMKG 252220Z 34006KT 10SM OVC049 00/M04 A3031 270 72 -1400 340/06 RMK AO2 SNE00 P0000
14840KMKG MKG20021125172511011/25/02 17:25:31  5-MIN KMKG 252225Z 33007KT 10SM OVC049 00/M04 A3031 270 72 -1400 330/07 RMK AO2 SNE00 P0000
14840KMKG MKG20021125173011011/25/02 17:30:31  5-MIN KMKG 252230Z 33007KT 10SM OVC049 00/M04 A3031 270 72 -1400 340/07 RMK AO2 SNE00 P0000
14840KMKG MKG20021125173511011/25/02 17:35:31  5-MIN KMKG 252235Z 34007KT 10SM OVC049 00/M04 A3031 270 75 -1400 350/07 RMK AO2 SNE00 P0000
14840KMKG MKG20021125174011011/25/02 17:40:31  5-MIN KMKG 252240Z 33006KT 10SM OVC049 00/M04 A3031 270 75 -1400 340/06 RMK AO2 SNE00 P0000
14840KMKG MKG20021125174511011/25/02 17:45:31  5-MIN KMKG 252245Z 34007KT 10SM OVC049 00/M04 A3031 270 75 -1400 340/07 RMK AO2 SNE00 P0000
14840KMKG MKG20021125175012711/25/02 17:50:31  5-MIN KMKG 252250Z 34006KT 10SM OVC047 00/M04 A3032 270 75 -1400 340/06 RMK AO2 SNE00 SLP274 P0000 T00001039
14840KMKG MKG20021125175512711/25/02 17:55:31  5-MIN KMKG 252255Z 34006KT 10SM OVC047 00/M04 A3032 260 75 -1400 340/06 RMK AO2 SNE00 SLP275 P0000 T00001039
14840KMKG MKG20021125180009811/25/02 18:00:31  5-MIN KMKG 252300Z 35005KT 10SM OVC047 00/M04 A3032 260 75 -1400 350/05 RMK AO2
14840KMKG MKG20021125180509811/25/02 18:05:31  5-MIN KMKG 252305Z 34008KT 10SM OVC045 00/M04 A3032 260 75 -1400 340/08 RMK AO2
14840KMKG MKG20021125181009811/25/02 18:10:31  5-MIN KMKG 252310Z 34005KT 10SM OVC045 00/M04 A3032 260 72 -1400 340/05 RMK AO2
14840KMKG MKG20021125181509811/25/02 18:15:31  5-MIN KMKG 252315Z 32006KT 10SM OVC045 00/M04 A3032 260 75 -1400 330/06 RMK AO2
14840KMKG MKG20021125182009811/25/02 18:20:31  5-MIN KMKG 252320Z 33006KT 10SM OVC045 00/M04 A3033 260 75 -1400 330/06 RMK AO2
14840KMKG MKG20021125182509811/25/02 18:25:31  5-MIN KMKG 252325Z 34007KT 10SM OVC045 00/M04 A3033 260 75 -1400 340/07 RMK AO2
14840KMKG MKG20021125183009811/25/02 18:30:31  5-MIN KMKG 252330Z 34005KT 10SM OVC045 00/M04 A3033 260 75 -1400 350/05 RMK AO2
14840KMKG MKG20021125183509811/25/02 18:35:31  5-MIN KMKG 252335Z 34006KT 10SM OVC045 00/M04 A3033 250 75 -1400 350/06 RMK AO2
14840KMKG MKG20021125184009811/25/02 18:40:31  5-MIN KMKG 252340Z 34006KT 10SM OVC045 00/M04 A3033 250 75 -1400 350/06 RMK AO2
14840KMKG MKG20021125184509811/25/02 18:45:31  5-MIN KMKG 252345Z 35006KT 10SM OVC047 00/M04 A3033 250 75 -1400 350/06 RMK AO2
14840KMKG MKG20021125185014511/25/02 18:50:31  5-MIN KMKG 252350Z 35005KT 10SM OVC047 00/M04 A3033 250 72 -1400 350/05 RMK AO2 SLP280 4/003 60000 T00001044 10006 20000 51007
14840KMKG MKG20021125185514511/25/02 18:55:31  5-MIN KMKG 252355Z 35005KT 10SM OVC047 00/M04 A3034 250 75 -1400 360/05 RMK AO2 SLP280 4/003 60000 T00001039 10006 20000 53018
14840KMKG MKG20021125190009811/25/02 19:00:31  5-MIN KMKG 260000Z 35006KT 10SM OVC047 00/M04 A3034 250 72 -1400 350/06 RMK AO2
14840KMKG MKG20021125190509811/25/02 19:05:31  5-MIN KMKG 260005Z 36004KT 10SM OVC047 00/M04 A3034 250 72 -1400 360/04 RMK AO2
14840KMKG MKG20021125191009811/25/02 19:10:31  5-MIN KMKG 260010Z 34006KT 10SM OVC047 00/M04 A3034 250 72 -1400 340/06 RMK AO2
14840KMKG MKG20021125191509811/25/02 19:15:31  5-MIN KMKG 260015Z 35005KT 10SM OVC047 00/M04 A3034 240 75 -1400 360/05 RMK AO2
14840KMKG MKG20021125192009811/25/02 19:20:31  5-MIN KMKG 260020Z 36005KT 10SM OVC047 00/M04 A3034 240 75 -1400 360/05 RMK AO2
14840KMKG MKG20021125192509811/25/02 19:25:31  5-MIN KMKG 260025Z 36004KT 10SM OVC047 00/M04 A3034 240 72 -1400 010/04 RMK AO2
14840KMKG MKG20021125193009811/25/02 19:30:31  5-MIN KMKG 260030Z 01005KT 10SM OVC047 00/M04 A3034 240 72 -1400 010/05 RMK AO2
14840KMKG MKG20021125193509811/25/02 19:35:31  5-MIN KMKG 260035Z 01003KT 10SM OVC047 00/M04 A3034 250 72 -1400 010/03 RMK AO2
14840KMKG MKG20021125194009811/25/02 19:40:31  5-MIN KMKG 260040Z 35005KT 10SM OVC047 00/M04 A3034 250 72 -1400 360/05 RMK AO2
14840KMKG MKG20021125194509811/25/02 19:45:31  5-MIN KMKG 260045Z 36004KT 10SM OVC049 00/M04 A3034 240 72 -1400 360/04 RMK AO2
14840KMKG MKG20021125195011511/25/02 19:50:31  5-MIN KMKG 260050Z 01003KT 10SM OVC049 00/M04 A3034 240 72 -1400 010/03 RMK AO2 SLP283 T00001044
14840KMKG MKG20021125195511511/25/02 19:55:31  5-MIN KMKG 260055Z 00000KT 10SM OVC049 00/M04 A3035 240 72 -1400 000/00 RMK AO2 SLP284 T00001044
14840KMKG MKG20021125200009811/25/02 20:00:31  5-MIN KMKG 260100Z 00000KT 10SM OVC049 00/M05 A3035 240 69 -1400 000/00 RMK AO2
14840KMKG MKG20021125200509811/25/02 20:05:31  5-MIN KMKG 260105Z 36004KT 10SM OVC049 00/M05 A3035 240 69 -1400 010/04 RMK AO2
14840KMKG MKG20021125201009911/25/02 20:10:31  5-MIN KMKG 260110Z 01003KT 10SM OVC049 M01/M04 A3035 230 75 -1500 020/03 RMK AO2
14840KMKG MKG20021125201509911/25/02 20:15:31  5-MIN KMKG 260115Z 03003KT 10SM OVC049 M01/M04 A3035 230 75 -1500 030/03 RMK AO2
14840KMKG MKG20021125202009911/25/02 20:20:31  5-MIN KMKG 260120Z 03003KT 10SM OVC049 M01/M04 A3035 240 75 -1500 040/03 RMK AO2
14840KMKG MKG20021125202509911/25/02 20:25:31  5-MIN KMKG 260125Z 04004KT 10SM OVC049 M01/M04 A3035 230 75 -1500 050/04 RMK AO2
14840KMKG MKG20021125203009911/25/02 20:30:31  5-MIN KMKG 260130Z 04005KT 10SM OVC049 M01/M04 A3035 230 75 -1500 050/05 RMK AO2
14840KMKG MKG20021125203509911/25/02 20:35:31  5-MIN KMKG 260135Z 04004KT 10SM OVC049 M01/M04 A3035 230 75 -1500 050/04 RMK AO2
14840KMKG MKG20021125204009911/25/02 20:40:31  5-MIN KMKG 260140Z 03004KT 10SM OVC049 M01/M04 A3035 230 75 -1500 040/04 RMK AO2
14840KMKG MKG20021125204509911/25/02 20:45:31  5-MIN KMKG 260145Z 04004KT 10SM OVC049 M01/M04 A3035 230 75 -1500 040/04 RMK AO2
14840KMKG MKG20021125205011611/25/02 20:50:31  5-MIN KMKG 260150Z 04003KT 10SM OVC049 M01/M04 A3035 230 75 -1500 040/03 RMK AO2 SLP287 T10061044
14840KMKG MKG20021125205511611/25/02 20:55:31  5-MIN KMKG 260155Z 04004KT 10SM OVC049 M01/M04 A3035 230 75 -1500 040/04 RMK AO2 SLP287 T10061044
14840KMKG MKG20021125210009911/25/02 21:00:31  5-MIN KMKG 260200Z 04004KT 10SM OVC049 M01/M04 A3035 230 75 -1500 040/04 RMK AO2
14840KMKG MKG20021125210509911/25/02 21:05:31  5-MIN KMKG 260205Z 05004KT 10SM OVC049 M01/M04 A3035 230 78 -1500 050/04 RMK AO2
14840KMKG MKG20021125211009911/25/02 21:10:31  5-MIN KMKG 260210Z 04004KT 10SM OVC049 M01/M04 A3035 230 78 -1500 050/04 RMK AO2
14840KMKG MKG20021125211509911/25/02 21:15:31  5-MIN KMKG 260215Z 03003KT 10SM OVC049 M01/M04 A3035 230 75 -1500 040/03 RMK AO2
14840KMKG MKG20021125212009911/25/02 21:20:31  5-MIN KMKG 260220Z 03003KT 10SM OVC047 M01/M04 A3035 230 75 -1500 040/03 RMK AO2
14840KMKG MKG20021125212509911/25/02 21:25:31  5-MIN KMKG 260225Z 00000KT 10SM OVC047 M01/M04 A3035 230 78 -1500 000/00 RMK AO2
14840KMKG MKG20021125213009911/25/02 21:30:31  5-MIN KMKG 260230Z 04003KT 10SM OVC047 M01/M04 A3036 230 78 -1500 040/03 RMK AO2
14840KMKG MKG20021125213509811/25/02 21:35:31  5-MIN KMKG 260235Z 00000KT 10SM OVC047 00/M04 A3036 230 72 -1500 000/00 RMK AO2
14840KMKG MKG20021125214009911/25/02 21:40:31  5-MIN KMKG 260240Z 00000KT 10SM OVC047 M01/M03 A3036 230 85 -1500 000/00 RMK AO2
14840KMKG MKG20021125214509911/25/02 21:45:31  5-MIN KMKG 260245Z 00000KT 10SM OVC047 M01/M03 A3036 230 85 -1500 000/00 RMK AO2
14840KMKG MKG20021125215012211/25/02 21:50:31  5-MIN KMKG 260250Z 00000KT 10SM OVC049 M01/M03 A3036 230 85 -1600 000/00 RMK AO2 SLP289 T10111033 53018
14840KMKG MKG20021125215512211/25/02 21:55:31  5-MIN KMKG 260255Z 00000KT 10SM OVC049 M01/M03 A3036 230 88 -1600 000/00 RMK AO2 SLP289 T10111028 51008
14840KMKG MKG20021125220009911/25/02 22:00:31  5-MIN KMKG 260300Z 00000KT 10SM OVC049 M01/M03 A3036 230 88 -1600 000/00 RMK AO2
14840KMKG MKG20021125220509911/25/02 22:05:31  5-MIN KMKG 260305Z 00000KT 10SM OVC049 M01/M03 A3036 230 88 -1600 000/00 RMK AO2
14840KMKG MKG20021125221009911/25/02 22:10:31  5-MIN KMKG 260310Z 00000KT 10SM OVC047 M01/M03 A3036 230 81 -1500 000/00 RMK AO2
14840KMKG MKG20021125221509911/25/02 22:15:31  5-MIN KMKG 260315Z 00000KT 10SM OVC049 M01/M03 A3036 220 81 -1500 000/00 RMK AO2
14840KMKG MKG20021125222009911/25/02 22:20:31  5-MIN KMKG 260320Z 10005KT 10SM OVC049 M01/M03 A3036 220 88 -1600 100/05 RMK AO2
14840KMKG MKG20021125222509911/25/02 22:25:31  5-MIN KMKG 260325Z 11003KT 10SM OVC049 M01/M03 A3036 220 85 -1600 110/03 RMK AO2
14840KMKG MKG20021125223009911/25/02 22:30:31  5-MIN KMKG 260330Z 11004KT 10SM OVC049 M01/M03 A3036 220 85 -1600 120/04 RMK AO2
14840KMKG MKG20021125223509911/25/02 22:35:31  5-MIN KMKG 260335Z 11003KT 10SM OVC049 M01/M03 A3036 220 85 -1600 110/03 RMK AO2
14840KMKG MKG20021125224009911/25/02 22:40:31  5-MIN KMKG 260340Z 00000KT 10SM OVC049 M01/M03 A3036 220 85 -1600 000/00 RMK AO2
14840KMKG MKG20021125224509911/25/02 22:45:31  5-MIN KMKG 260345Z 00000KT 10SM OVC049 M01/M03 A3036 220 88 -1600 000/00 RMK AO2
14840KMKG MKG20021125225011611/25/02 22:50:31  5-MIN KMKG 260350Z 00000KT 10SM OVC049 M01/M03 A3036 220 88 -1600 000/00 RMK AO2 SLP290 T10111028
14840KMKG MKG20021125225511611/25/02 22:55:31  5-MIN KMKG 260355Z 00000KT 10SM OVC049 M01/M03 A3036 220 88 -1600 000/00 RMK AO2 SLP290 T10111028
14840KMKG MKG20021125230009911/25/02 23:00:31  5-MIN KMKG 260400Z 00000KT 10SM OVC049 M02/M03 A3036 220 92 -1700 000/00 RMK AO2
14840KMKG MKG20021125230509911/25/02 23:05:31  5-MIN KMKG 260405Z 00000KT 10SM OVC049 M01/M03 A3037 220 85 -1600 000/00 RMK AO2
14840KMKG MKG20021125231009911/25/02 23:10:31  5-MIN KMKG 260410Z 00000KT 10SM OVC049 M01/M04 A3037 220 81 -1600 000/00 RMK AO2
14840KMKG MKG20021125231509911/25/02 23:15:31  5-MIN KMKG 260415Z 00000KT 10SM OVC049 M01/M04 A3037 220 81 -1600 000/00 RMK AO2
14840KMKG MKG20021125232009911/25/02 23:20:31  5-MIN KMKG 260420Z 00000KT 10SM OVC049 M01/M03 A3037 220 85 -1600 000/00 RMK AO2
14840KMKG MKG20021125232509911/25/02 23:25:31  5-MIN KMKG 260425Z 00000KT 10SM OVC049 M01/M04 A3037 220 81 -1600 000/00 RMK AO2
14840KMKG MKG20021125233009911/25/02 23:30:31  5-MIN KMKG 260430Z 00000KT 10SM OVC049 M01/M03 A3037 220 85 -1600 000/00 RMK AO2
14840KMKG MKG20021125233509911/25/02 23:35:31  5-MIN KMKG 260435Z 00000KT 10SM OVC049 M01/M03 A3037 220 85 -1600 000/00 RMK AO2
14840KMKG MKG20021125234009911/25/02 23:40:31  5-MIN KMKG 260440Z 00000KT 10SM OVC049 M01/M03 A3037 220 85 -1600 000/00 RMK AO2
14840KMKG MKG20021125234509911/25/02 23:45:31  5-MIN KMKG 260445Z 00000KT 10SM OVC055 M01/M03 A3037 220 85 -1600 000/00 RMK AO2
14840KMKG MKG20021125235012611/25/02 23:50:31  5-MIN KMKG 260450Z 00000KT 10SM OVC055 M01/M03 A3037 220 85 -1600 000/00 RMK AO2 SLP292 T10111033 400061017
14840KMKG MKG20021125235512611/25/02 23:55:31  5-MIN KMKG 260455Z 00000KT 10SM OVC055 M02/M03 A3037 220 88 -1700 000/00 RMK AO2 SLP293 T10171033 400061017
14840KMKG MKG20021126000009911/26/02 00:00:31  5-MIN KMKG 260500Z 00000KT 10SM OVC055 M02/M03 A3037 210 88 -1700 000/00 RMK AO2
14840KMKG MKG20021126000509911/26/02 00:05:31  5-MIN KMKG 260505Z 00000KT 10SM OVC055 M02/M03 A3037 210 88 -1700 000/00 RMK AO2
14840KMKG MKG20021126001009911/26/02 00:10:31  5-MIN KMKG 260510Z 00000KT 10SM OVC055 M02/M03 A3037 210 88 -1700 000/00 RMK AO2
14840KMKG MKG20021126001509911/26/02 00:15:31  5-MIN KMKG 260515Z 00000KT 10SM OVC055 M02/M03 A3037 210 88 -1700 000/00 RMK AO2
14840KMKG MKG20021126002009911/26/02 00:20:31  5-MIN KMKG 260520Z 00000KT 10SM OVC055 M02/M04 A3037 210 85 -1700 000/00 RMK AO2
14840KMKG MKG20021126002509911/26/02 00:25:31  5-MIN KMKG 260525Z 00000KT 10SM OVC050 M02/M03 A3038 210 92 -1700 000/00 RMK AO2
14840KMKG MKG20021126003009911/26/02 00:30:31  5-MIN KMKG 260530Z 00000KT 10SM OVC050 M02/M03 A3038 210 92 -1700 000/00 RMK AO2
14840KMKG MKG20021126003509911/26/02 00:35:31  5-MIN KMKG 260535Z 00000KT 10SM OVC050 M02/M02 A3038 210 96 -1700 000/00 RMK AO2
14840KMKG MKG20021126004009911/26/02 00:40:31  5-MIN KMKG 260540Z 19003KT 10SM OVC050 M02/M03 A3038 210 92 -1700 200/03 RMK AO2
14840KMKG MKG20021126004509911/26/02 00:45:31  5-MIN KMKG 260545Z 00000KT 10SM OVC055 M02/M03 A3038 210 92 -1700 000/00 RMK AO2
14840KMKG MKG20021126005013411/26/02 00:50:31  5-MIN KMKG 260550Z 00000KT 10SM OVC055 M02/M02 A3037 210 96 -1700 000/00 RMK AO2 SLP294 T10171022 10000 21017 51008
14840KMKG MKG20021126005513411/26/02 00:55:31  5-MIN KMKG 260555Z 00000KT 10SM OVC055 M02/M03 A3037 210 96 -1800 000/00 RMK AO2 SLP294 T10221028 10000 21022 51005
14840KMKG MKG20021126010009911/26/02 01:00:31  5-MIN KMKG 260600Z 00000KT 10SM OVC055 M02/M03 A3037 210 96 -1800 000/00 RMK AO2
14840KMKG MKG20021126010509911/26/02 01:05:31  5-MIN KMKG 260605Z 00000KT 10SM OVC055 M02/M03 A3037 210 92 -1700 000/00 RMK AO2
14840KMKG MKG20021126011009911/26/02 01:10:31  5-MIN KMKG 260610Z 00000KT 10SM OVC055 M02/M03 A3037 210 92 -1700 000/00 RMK AO2
14840KMKG MKG20021126011509911/26/02 01:15:31  5-MIN KMKG 260615Z 00000KT 10SM OVC055 M02/M03 A3037 210 96 -1800 000/00 RMK AO2
14840KMKG MKG20021126012009911/26/02 01:20:31  5-MIN KMKG 260620Z 00000KT 10SM OVC055 M02/M03 A3037 210 92 -1700 000/00 RMK AO2
14840KMKG MKG20021126012509911/26/02 01:25:31  5-MIN KMKG 260625Z 00000KT 10SM OVC055 M02/M03 A3037 210 92 -1700 000/00 RMK AO2
14840KMKG MKG20021126013009911/26/02 01:30:31  5-MIN KMKG 260630Z 00000KT 10SM OVC055 M02/M03 A3037 210 92 -1700 000/00 RMK AO2
14840KMKG MKG20021126013509911/26/02 01:35:31  5-MIN KMKG 260635Z 00000KT 10SM OVC055 M02/M03 A3038 210 96 -1800 000/00 RMK AO2
14840KMKG MKG20021126014009911/26/02 01:40:31  5-MIN KMKG 260640Z 00000KT 10SM OVC055 M02/M03 A3038 210 96 -1800 000/00 RMK AO2
14840KMKG MKG20021126014509911/26/02 01:45:31  5-MIN KMKG 260645Z 00000KT 10SM OVC055 M02/M03 A3038 210 96 -1800 000/00 RMK AO2
14840KMKG MKG20021126015011611/26/02 01:50:31  5-MIN KMKG 260650Z 00000KT 10SM OVC055 M02/M03 A3038 210 96 -1800 000/00 RMK AO2 SLP294 T10221028
14840KMKG MKG20021126015511611/26/02 01:55:31  5-MIN KMKG 260655Z 00000KT 10SM OVC055 M02/M03 A3037 210 92 -1700 000/00 RMK AO2 SLP294 T10171028
14840KMKG MKG20021126020009911/26/02 02:00:31  5-MIN KMKG 260700Z 00000KT 10SM OVC055 M02/M03 A3038 210 92 -1700 000/00 RMK AO2
14840KMKG MKG20021126020509911/26/02 02:05:31  5-MIN KMKG 260705Z 00000KT 10SM OVC055 M02/M03 A3038 210 96 -1800 000/00 RMK AO2
14840KMKG MKG20021126021009911/26/02 02:10:31  5-MIN KMKG 260710Z 00000KT 10SM OVC055 M02/M03 A3038 210 96 -1800 000/00 RMK AO2
14840KMKG MKG20021126021509911/26/02 02:15:31  5-MIN KMKG 260715Z 00000KT 10SM OVC055 M02/M03 A3037 210 96 -1800 000/00 RMK AO2
14840KMKG MKG20021126022009911/26/02 02:20:31  5-MIN KMKG 260720Z 00000KT 10SM OVC055 M03/M03 A3037 220 96 -1800 000/00 RMK AO2
14840KMKG MKG20021126022509911/26/02 02:25:31  5-MIN KMKG 260725Z 00000KT 10SM OVC055 M03/M03 A3037 220 96 -1800 000/00 RMK AO2
14840KMKG MKG20021126023009911/26/02 02:30:31  5-MIN KMKG 260730Z 00000KT 10SM OVC055 M03/M03 A3037 220 96 -1800 000/00 RMK AO2
14840KMKG MKG20021126023510011/26/02 02:35:31  5-MIN KMKG 260735Z 00000KT 10SM OVC055 M03/M03 A3037 220 100 -1800 000/00 RMK AO2
14840KMKG MKG20021126024010011/26/02 02:40:31  5-MIN KMKG 260740Z 00000KT 10SM OVC055 M03/M03 A3037 220 100 -1800 000/00 RMK AO2
14840KMKG MKG20021126024510011/26/02 02:45:31  5-MIN KMKG 260745Z 11003KT 10SM OVC055 M03/M03 A3037 220 100 -1900 110/03 RMK AO2
14840KMKG MKG20021126025011611/26/02 02:50:31  5-MIN KMKG 260750Z 13003KT 10SM OVC055 M03/M04 A3037 220 96 -1900 140/03 RMK AO2 SLP294 T10331039
14840KMKG MKG20021126025511611/26/02 02:55:31  5-MIN KMKG 260755Z 13004KT 10SM OVC055 M03/M03 A3037 220 96 -1800 140/04 RMK AO2 SLP294 T10281033
14840KMKG MKG20021126030009911/26/02 03:00:31  5-MIN KMKG 260800Z 12004KT 10SM OVC055 M02/M03 A3037 220 92 -1800 120/04 RMK AO2
14840KMKG MKG20021126030509911/26/02 03:05:31  5-MIN KMKG 260805Z 10004KT 10SM OVC055 M02/M03 A3037 220 92 -1800 100/04 RMK AO2
14840KMKG MKG20021126031009911/26/02 03:10:31  5-MIN KMKG 260810Z 07004KT 10SM OVC055 M02/M04 A3037 220 88 -1800 080/04 RMK AO2
14840KMKG MKG20021126031509911/26/02 03:15:31  5-MIN KMKG 260815Z 11004KT 10SM OVC055 M02/M04 A3037 210 88 -1800 110/04 RMK AO2
14840KMKG MKG20021126032009911/26/02 03:20:31  5-MIN KMKG 260820Z 12003KT 10SM OVC055 M02/M04 A3037 210 88 -1800 130/03 RMK AO2
14840KMKG MKG20021126032509911/26/02 03:25:31  5-MIN KMKG 260825Z 11003KT 10SM OVC055 M03/M04 A3038 210 92 -1800 110/03 RMK AO2
14840KMKG MKG20021126033009911/26/02 03:30:31  5-MIN KMKG 260830Z 00000KT 10SM OVC055 M03/M04 A3038 200 92 -1800 000/00 RMK AO2
14840KMKG MKG20021126033509911/26/02 03:35:31  5-MIN KMKG 260835Z 06003KT 10SM OVC055 M02/M04 A3039 200 88 -1800 070/03 RMK AO2
14840KMKG MKG20021126034009911/26/02 03:40:31  5-MIN KMKG 260840Z 05003KT 10SM OVC055 M02/M04 A3038 200 88 -1800 060/03 RMK AO2
14840KMKG MKG20021126034509911/26/02 03:45:31  5-MIN KMKG 260845Z 06004KT 10SM OVC055 M02/M04 A3038 200 88 -1800 070/04 RMK AO2
14840KMKG MKG20021126035012211/26/02 03:50:31  5-MIN KMKG 260850Z 07004KT 10SM OVC055 M02/M04 A3038 210 88 -1800 080/04 RMK AO2 SLP295 T10221039 51005
14840KMKG MKG20021126035512211/26/02 03:55:31  5-MIN KMKG 260855Z 07005KT 10SM OVC055 M02/M04 A3038 210 88 -1800 070/05 RMK AO2 SLP295 T10221039 53001
14840KMKG MKG20021126040009911/26/02 04:00:31  5-MIN KMKG 260900Z 08005KT 10SM OVC055 M03/M04 A3037 210 92 -1800 080/05 RMK AO2
14840KMKG MKG20021126040509911/26/02 04:05:31  5-MIN KMKG 260905Z 00000KT 10SM OVC055 M03/M04 A3038 210 92 -1800 000/00 RMK AO2
14840KMKG MKG20021126041009911/26/02 04:10:31  5-MIN KMKG 260910Z 00000KT 10SM OVC055 M02/M04 A3037 210 88 -1800 000/00 RMK AO2
14840KMKG MKG20021126041509911/26/02 04:15:31  5-MIN KMKG 260915Z 00000KT 10SM OVC055 M02/M04 A3037 210 88 -1800 000/00 RMK AO2
14840KMKG MKG20021126042009911/26/02 04:20:31  5-MIN KMKG 260920Z 00000KT 10SM OVC055 M03/M04 A3038 210 88 -1800 000/00 RMK AO2
14840KMKG MKG20021126042509911/26/02 04:25:31  5-MIN KMKG 260925Z 00000KT 10SM BKN055 M03/M04 A3038 210 92 -1900 000/00 RMK AO2
14840KMKG MKG20021126043010611/26/02 04:30:31  5-MIN KMKG 260930Z 00000KT 10SM FEW045 BKN055 M03/M04 A3038 210 92 -1800 000/00 RMK AO2
14840KMKG MKG20021126043509911/26/02 04:35:31  5-MIN KMKG 260935Z 11003KT 10SM SCT050 M03/M04 A3037 210 92 -1800 110/03 RMK AO2
14840KMKG MKG20021126044009911/26/02 04:40:31  5-MIN KMKG 260940Z 00000KT 10SM SCT050 M03/M04 A3037 210 96 -1900 000/00 RMK AO2
14840KMKG MKG20021126044509911/26/02 04:45:31  5-MIN KMKG 260945Z 10003KT 10SM FEW050 M04/M04 A3037 210 96 -2000 100/03 RMK AO2
14840KMKG MKG20021126045011711/26/02 04:50:31  5-MIN KMKG 260950Z 08003KT 10SM FEW048 M04/M04 A3037 210 100 -2000 080/03 RMK AO2 SLP295 T10441044
14840KMKG MKG20021126045511311/26/02 04:55:31  5-MIN KMKG 260955Z 00000KT 10SM CLR M04/M04 A3038 210 96 -2000 000/00 RMK AO2 SLP296 T10391044
14840KMKG MKG20021126050009611/26/02 05:00:31  5-MIN KMKG 261000Z 00000KT 10SM CLR M05/M06 A3038 210 96 -2100 000/00 RMK AO2
14840KMKG MKG20021126050509611/26/02 05:05:31  5-MIN KMKG 261005Z 00000KT 10SM CLR M05/M06 A3038 210 96 -2100 000/00 RMK AO2
14840KMKG MKG20021126051009611/26/02 05:10:31  5-MIN KMKG 261010Z 00000KT 10SM CLR M04/M05 A3038 210 96 -2100 000/00 RMK AO2
14840KMKG MKG20021126051509611/26/02 05:15:31  5-MIN KMKG 261015Z 00000KT 10SM CLR M04/M05 A3038 200 96 -2100 000/00 RMK AO2
14840KMKG MKG20021126052009611/26/02 05:20:31  5-MIN KMKG 261020Z 00000KT 10SM CLR M04/M05 A3038 200 96 -2100 000/00 RMK AO2
14840KMKG MKG20021126052509611/26/02 05:25:31  5-MIN KMKG 261025Z 13004KT 10SM CLR M04/M05 A3038 210 96 -2100 140/04 RMK AO2
14840KMKG MKG20021126053009711/26/02 05:30:31  5-MIN KMKG 261030Z 12003KT 10SM CLR M04/M04 A3038 210 100 -2100 130/03 RMK AO2
14840KMKG MKG20021126053509711/26/02 05:35:31  5-MIN KMKG 261035Z 12004KT 10SM CLR M05/M05 A3038 210 100 -2100 120/04 RMK AO2
14840KMKG MKG20021126054009511/26/02 05:40:31  5-MIN KMKG 261040Z 13003KT 7SM CLR M06/M06 A3038 210 96 -2200 140/03 RMK AO2
14840KMKG MKG20021126054510211/26/02 05:45:31  5-MIN KMKG 261045Z 13003KT 2 1/2SM BR CLR M07/M07 A3038 210 96 -2300 140/03 RMK AO2
14840KMKG MKG20021126055012711/26/02 05:50:31  5-MIN KMKG 261050Z 13004KT 2 1/2SM BR CLR M06/M07 A3038 210 96 -2300 130/04 RMK AO2 VIS 1V5 SLP296 T10611067
14840KMKG MKG20021126055511311/26/02 05:55:31  5-MIN KMKG 261055Z 12003KT 10SM CLR M06/M07 A3038 210 96 -2300 120/03 RMK AO2 SLP296 T10611067
14840KMKG MKG20021126060009611/26/02 06:00:31  5-MIN KMKG 261100Z 10003KT 10SM CLR M06/M06 A3038 210 96 -2200 100/03 RMK AO2
14840KMKG MKG20021126060509911/26/02 06:05:31  5-MIN KMKG 261105Z 00000KT 10SM FEW055 M05/M06 A3038 210 96 -2100 000/00 RMK AO2
14840KMKG MKG20021126061009911/26/02 06:10:31  5-MIN KMKG 261110Z 00000KT 10SM FEW055 M04/M05 A3038 210 96 -2100 000/00 RMK AO2
14840KMKG MKG20021126061510611/26/02 06:15:31  5-MIN KMKG 261115Z 10003KT 10SM FEW049 SCT055 M04/M05 A3038 210 96 -2000 110/03 RMK AO2
14840KMKG MKG20021126062010611/26/02 06:20:31  5-MIN KMKG 261120Z 10004KT 10SM FEW049 BKN055 M04/M05 A3037 210 96 -2000 110/04 RMK AO2
14840KMKG MKG20021126062510611/26/02 06:25:31  5-MIN KMKG 261125Z 10005KT 10SM FEW049 BKN055 M06/M06 A3037 210 96 -2200 100/05 RMK AO2
14840KMKG MKG20021126063009911/26/02 06:30:31  5-MIN KMKG 261130Z 07004KT 10SM BKN055 M06/M07 A3037 210 92 -2300 070/04 RMK AO2
14840KMKG MKG20021126063509911/26/02 06:35:31  5-MIN KMKG 261135Z 07005KT 10SM OVC055 M06/M06 A3037 210 96 -2200 070/05 RMK AO2
14840KMKG MKG20021126064009911/26/02 06:40:31  5-MIN KMKG 261140Z 07004KT 10SM OVC050 M05/M06 A3037 210 92 -2100 070/04 RMK AO2
14840KMKG MKG20021126064509911/26/02 06:45:31  5-MIN KMKG 261145Z 09004KT 10SM OVC055 M05/M06 A3037 220 92 -2100 090/04 RMK AO2
14840KMKG MKG20021126065013411/26/02 06:50:31  5-MIN KMKG 261150Z 08003KT 10SM OVC055 M06/M06 A3037 210 96 -2200 080/03 RMK AO2 SLP295 T10561061 11017 21067 53001
14840KMKG MKG20021126065514011/26/02 06:55:31  5-MIN KMKG 261155Z 12003KT 10SM OVC055 M05/M06 A3038 210 92 -2100 120/03 RMK AO2 SLP296 4/002 T10501061 11017 21067 57000
14840KMKG MKG20021126070009911/26/02 07:00:31  5-MIN KMKG 261200Z 12004KT 10SM OVC055 M06/M07 A3038 210 92 -2200 130/04 RMK AO2
14840KMKG MKG20021126070510611/26/02 07:05:31  5-MIN KMKG 261205Z 10003KT 10SM FEW047 OVC055 M06/M07 A3038 210 92 -2300 110/03 RMK AO2
14840KMKG MKG20021126071009911/26/02 07:10:31  5-MIN KMKG 261210Z 00000KT 10SM OVC055 M06/M07 A3038 210 92 -2200 000/00 RMK AO2
14840KMKG MKG20021126071509911/26/02 07:15:31  5-MIN KMKG 261215Z 08003KT 10SM OVC055 M06/M07 A3038 210 92 -2200 080/03 RMK AO2
14840KMKG MKG20021126072009911/26/02 07:20:31  5-MIN KMKG 261220Z 06003KT 10SM BKN055 M05/M07 A3038 210 88 -2100 060/03 RMK AO2
14840KMKG MKG20021126072509911/26/02 07:25:31  5-MIN KMKG 261225Z 06003KT 10SM BKN055 M05/M07 A3038 210 88 -2100 070/03 RMK AO2
14840KMKG MKG20021126073009911/26/02 07:30:31  5-MIN KMKG 261230Z 07003KT 10SM SCT055 M05/M07 A3038 210 88 -2100 070/03 RMK AO2
14840KMKG MKG20021126073509911/26/02 07:35:31  5-MIN KMKG 261235Z 08003KT 10SM FEW055 M05/M07 A3038 210 88 -2100 080/03 RMK AO2
14840KMKG MKG20021126074009911/26/02 07:40:31  5-MIN KMKG 261240Z 06003KT 10SM FEW055 M06/M07 A3038 200 92 -2200 060/03 RMK AO2
14840KMKG MKG20021126074509611/26/02 07:45:31  5-MIN KMKG 261245Z 07003KT 10SM CLR M06/M07 A3038 200 88 -2200 080/03 RMK AO2
14840KMKG MKG20021126075011311/26/02 07:50:31  5-MIN KMKG 261250Z 07004KT 10SM CLR M06/M07 A3038 200 92 -2300 070/04 RMK AO2 SLP298 T10611072
14840KMKG MKG20021126075511611/26/02 07:55:31  5-MIN KMKG 261255Z 07005KT 10SM FEW060 M06/M08 A3038 210 88 -2300 070/05 RMK AO2 SLP297 T10611078
14840KMKG MKG20021126080009911/26/02 08:00:31  5-MIN KMKG 261300Z 07006KT 10SM SCT060 M06/M07 A3038 210 88 -2200 080/06 RMK AO2
14840KMKG MKG20021126080509911/26/02 08:05:31  5-MIN KMKG 261305Z 07006KT 10SM SCT060 M06/M08 A3038 210 84 -2200 080/06 RMK AO2
14840KMKG MKG20021126081009911/26/02 08:10:31  5-MIN KMKG 261310Z 07006KT 10SM SCT060 M06/M08 A3038 210 84 -2200 070/06 RMK AO2
14840KMKG MKG20021126081509911/26/02 08:15:31  5-MIN KMKG 261315Z 07005KT 10SM SCT060 M06/M07 A3038 210 88 -2200 080/05 RMK AO2
14840KMKG MKG20021126082009911/26/02 08:20:31  5-MIN KMKG 261320Z 08005KT 10SM SCT060 M05/M07 A3038 210 84 -2100 080/05 RMK AO2
14840KMKG MKG20021126082509911/26/02 08:25:31  5-MIN KMKG 261325Z 08004KT 10SM FEW060 M05/M07 A3038 210 84 -2100 090/04 RMK AO2
14840KMKG MKG20021126083009611/26/02 08:30:31  5-MIN KMKG 261330Z 00000KT 10SM CLR M06/M07 A3038 210 88 -2200 000/00 RMK AO2
14840KMKG MKG20021126083509611/26/02 08:35:31  5-MIN KMKG 261335Z 00000KT 10SM CLR M06/M07 A3037 210 88 -2200 000/00 RMK AO2
14840KMKG MKG20021126084009611/26/02 08:40:31  5-MIN KMKG 261340Z 00000KT 10SM CLR M05/M07 A3037 210 88 -2100 000/00 RMK AO2
14840KMKG MKG20021126084509611/26/02 08:45:31  5-MIN KMKG 261345Z VRB05KT 10SM CLR M05/M07 A3038 210 88 -2100 VRB/05 RMK AO2
14840KMKG MKG20021126085011311/26/02 08:50:31  5-MIN KMKG 261350Z 06005KT 10SM CLR M04/M07 A3037 210 84 -2000 070/05 RMK AO2 SLP295 T10441067
14840KMKG MKG20021126085511311/26/02 08:55:31  5-MIN KMKG 261355Z 07005KT 10SM CLR M04/M06 A3038 210 85 -2000 070/05 RMK AO2 SLP295 T10391061
14840KMKG MKG20021126090009611/26/02 09:00:31  5-MIN KMKG 261400Z 07006KT 10SM CLR M04/M06 A3038 210 88 -2000 080/06 RMK AO2
14840KMKG MKG20021126090509911/26/02 09:05:31  5-MIN KMKG 261405Z 08006KT 10SM FEW070 M04/M06 A3038 210 85 -2000 090/06 RMK AO2
14840KMKG MKG20021126091009911/26/02 09:10:31  5-MIN KMKG 261410Z 09006KT 10SM SCT070 M04/M06 A3038 210 88 -2100 090/06 RMK AO2
14840KMKG MKG20021126091509911/26/02 09:15:31  5-MIN KMKG 261415Z 08006KT 10SM BKN065 M04/M06 A3038 210 85 -2000 090/06 RMK AO2
14840KMKG MKG20021126092009911/26/02 09:20:31  5-MIN KMKG 261420Z 09005KT 10SM BKN065 M04/M06 A3038 210 88 -2100 100/05 RMK AO2
14840KMKG MKG20021126092509911/26/02 09:25:31  5-MIN KMKG 261425Z 09005KT 10SM BKN060 M04/M06 A3038 210 85 -2000 100/05 RMK AO2
14840KMKG MKG20021126093009911/26/02 09:30:31  5-MIN KMKG 261430Z 09005KT 10SM OVC060 M04/M06 A3038 210 85 -2000 100/05 RMK AO2
14840KMKG MKG20021126093509911/26/02 09:35:31  5-MIN KMKG 261435Z 09004KT 10SM BKN060 M04/M06 A3038 210 85 -2000 100/04 RMK AO2
14840KMKG MKG20021126094009911/26/02 09:40:31  5-MIN KMKG 261440Z 10004KT 10SM BKN060 M04/M06 A3039 200 85 -2000 100/04 RMK AO2
14840KMKG MKG20021126094509911/26/02 09:45:31  5-MIN KMKG 261445Z 08003KT 10SM OVC060 M04/M06 A3039 200 88 -2000 090/03 RMK AO2
14840KMKG MKG20021126095012211/26/02 09:50:31  5-MIN KMKG 261450Z 08004KT 10SM OVC060 M04/M06 A3039 200 88 -2000 090/04 RMK AO2 SLP299 T10391056 57000
14840KMKG MKG20021126095512211/26/02 09:55:31  5-MIN KMKG 261455Z 08005KT 10SM OVC065 M03/M06 A3039 200 85 -1900 090/05 RMK AO2 SLP299 T10331056 53004
14840KMKG MKG20021126100009911/26/02 10:00:31  5-MIN KMKG 261500Z 06004KT 10SM OVC065 M03/M06 A3039 200 85 -1900 070/04 RMK AO2
14840KMKG MKG20021126100509911/26/02 10:05:31  5-MIN KMKG 261505Z 06006KT 10SM OVC065 M03/M05 A3039 200 88 -1900 070/06 RMK AO2
14840KMKG MKG20021126101009911/26/02 10:10:31  5-MIN KMKG 261510Z 07004KT 10SM OVC070 M03/M05 A3039 200 85 -1900 070/04 RMK AO2
14840KMKG MKG20021126101509911/26/02 10:15:31  5-MIN KMKG 261515Z 07005KT 10SM OVC070 M03/M05 A3039 200 85 -1900 070/05 RMK AO2
14840KMKG MKG20021126102009911/26/02 10:20:31  5-MIN KMKG 261520Z 07006KT 10SM OVC070 M03/M05 A3039 190 85 -1900 080/06 RMK AO2
14840KMKG MKG20021126102509911/26/02 10:25:31  5-MIN KMKG 261525Z 07005KT 10SM OVC070 M03/M05 A3039 190 85 -1900 080/05 RMK AO2
14840KMKG MKG20021126103009911/26/02 10:30:31  5-MIN KMKG 261530Z 08005KT 10SM OVC070 M03/M05 A3040 190 85 -1900 080/05 RMK AO2
14840KMKG MKG20021126103509911/26/02 10:35:31  5-MIN KMKG 261535Z 08006KT 10SM OVC070 M03/M05 A3040 190 85 -1900 080/06 RMK AO2
14840KMKG MKG20021126104009911/26/02 10:40:31  5-MIN KMKG 261540Z 08007KT 10SM OVC070 M02/M06 A3040 190 78 -1800 080/07 RMK AO2
14840KMKG MKG20021126104509911/26/02 10:45:31  5-MIN KMKG 261545Z 08006KT 10SM OVC070 M02/M06 A3040 190 78 -1800 080/06 RMK AO2
14840KMKG MKG20021126105011611/26/02 10:50:31  5-MIN KMKG 261550Z 08006KT 10SM OVC070 M02/M06 A3040 190 78 -1800 080/06 RMK AO2 SLP303 T10221056
14840KMKG MKG20021126105511611/26/02 10:55:31  5-MIN KMKG 261555Z 08007KT 10SM OVC070 M02/M06 A3040 190 78 -1800 090/07 RMK AO2 SLP304 T10221056
14840KMKG MKG20021126110009911/26/02 11:00:31  5-MIN KMKG 261600Z 08007KT 10SM OVC070 M02/M06 A3040 190 78 -1800 090/07 RMK AO2
14840KMKG MKG20021126110509911/26/02 11:05:31  5-MIN KMKG 261605Z 07007KT 10SM OVC070 M02/M06 A3040 190 78 -1800 080/07 RMK AO2
14840KMKG MKG20021126111009911/26/02 11:10:31  5-MIN KMKG 261610Z 08007KT 10SM OVC070 M02/M06 A3040 190 75 -1700 090/07 RMK AO2
14840KMKG MKG20021126111509911/26/02 11:15:31  5-MIN KMKG 261615Z 08005KT 10SM OVC070 M02/M06 A3040 190 75 -1700 090/05 RMK AO2
14840KMKG MKG20021126112009911/26/02 11:20:31  5-MIN KMKG 261620Z 09008KT 10SM OVC070 M02/M06 A3040 190 75 -1700 090/08 RMK AO2
14840KMKG MKG20021126112509911/26/02 11:25:31  5-MIN KMKG 261625Z 09006KT 10SM OVC070 M02/M06 A3040 190 75 -1700 090/06 RMK AO2
14840KMKG MKG20021126113009911/26/02 11:30:31  5-MIN KMKG 261630Z 08007KT 10SM OVC070 M02/M06 A3040 190 75 -1700 080/07 RMK AO2
14840KMKG MKG20021126113509911/26/02 11:35:31  5-MIN KMKG 261635Z 08007KT 10SM OVC070 M02/M06 A3039 200 75 -1700 090/07 RMK AO2
14840KMKG MKG20021126114009911/26/02 11:40:31  5-MIN KMKG 261640Z 08007KT 10SM OVC070 M02/M06 A3039 200 75 -1700 080/07 RMK AO2
14840KMKG MKG20021126114509911/26/02 11:45:31  5-MIN KMKG 261645Z 07007KT 10SM OVC070 M02/M06 A3039 200 75 -1700 080/07 RMK AO2
14840KMKG MKG20021126115011611/26/02 11:50:31  5-MIN KMKG 261650Z 08007KT 10SM OVC070 M02/M06 A3039 200 75 -1700 080/07 RMK AO2 SLP299 T10171056
14840KMKG MKG20021126115511611/26/02 11:55:31  5-MIN KMKG 261655Z 08007KT 10SM OVC070 M02/M06 A3039 200 75 -1700 080/07 RMK AO2 SLP298 T10171056
14840KMKG MKG20021126120009911/26/02 12:00:31  5-MIN KMKG 261700Z 08007KT 10SM OVC070 M01/M06 A3038 210 72 -1600 080/07 RMK AO2
14840KMKG MKG20021126120509911/26/02 12:05:31  5-MIN KMKG 261705Z 08006KT 10SM OVC070 M02/M06 A3038 210 72 -1700 090/06 RMK AO2
14840KMKG MKG20021126121009911/26/02 12:10:31  5-MIN KMKG 261710Z 08006KT 10SM OVC070 M01/M06 A3038 210 69 -1600 080/06 RMK AO2
14840KMKG MKG20021126121509911/26/02 12:15:31  5-MIN KMKG 261715Z 09006KT 10SM OVC070 M01/M06 A3038 210 72 -1600 090/06 RMK AO2
14840KMKG MKG20021126122009911/26/02 12:20:31  5-MIN KMKG 261720Z 07008KT 10SM OVC070 M01/M06 A3038 210 69 -1600 070/08 RMK AO2
14840KMKG MKG20021126122509911/26/02 12:25:31  5-MIN KMKG 261725Z 07007KT 10SM OVC070 M01/M06 A3038 210 69 -1600 070/07 RMK AO2
14840KMKG MKG20021126123009911/26/02 12:30:31  5-MIN KMKG 261730Z 07007KT 10SM OVC070 M01/M07 A3038 210 66 -1600 080/07 RMK AO2
14840KMKG MKG20021126123509911/26/02 12:35:31  5-MIN KMKG 261735Z 07007KT 10SM OVC070 M01/M06 A3038 210 69 -1600 080/07 RMK AO2
14840KMKG MKG20021126124009911/26/02 12:40:31  5-MIN KMKG 261740Z 07006KT 10SM OVC070 M01/M07 A3037 210 66 -1600 080/06 RMK AO2
14840KMKG MKG20021126124509911/26/02 12:45:31  5-MIN KMKG 261745Z 07008KT 10SM OVC070 M01/M07 A3037 220 66 -1600 080/08 RMK AO2
14840KMKG MKG20021126125013411/26/02 12:50:31  5-MIN KMKG 261750Z 09008KT 10SM OVC070 M01/M07 A3037 210 66 -1600 090/08 RMK AO2 SLP294 T10111067 11011 21061 53004
14840KMKG MKG20021126125513411/26/02 12:55:31  5-MIN KMKG 261755Z 09007KT 10SM OVC070 M01/M07 A3037 220 66 -1600 090/07 RMK AO2 SLP294 T10111067 11011 21061 58005
14840KMKG MKG20021126130009911/26/02 13:00:31  5-MIN KMKG 261800Z 09005KT 10SM BKN070 M01/M07 A3037 220 66 -1600 090/05 RMK AO2
14840KMKG MKG20021126130509911/26/02 13:05:31  5-MIN KMKG 261805Z 08005KT 10SM BKN070 M01/M06 A3036 220 69 -1600 090/05 RMK AO2
14840KMKG MKG20021126131009911/26/02 13:10:31  5-MIN KMKG 261810Z 09007KT 10SM SCT070 M01/M06 A3036 220 69 -1600 090/07 RMK AO2
14840KMKG MKG20021126131509911/26/02 13:15:31  5-MIN KMKG 261815Z 08006KT 10SM SCT070 M01/M06 A3036 220 69 -1600 080/06 RMK AO2
14840KMKG MKG20021126132009911/26/02 13:20:31  5-MIN KMKG 261820Z 08006KT 10SM SCT075 M01/M06 A3036 220 69 -1600 080/06 RMK AO2
14840KMKG MKG20021126132509911/26/02 13:25:31  5-MIN KMKG 261825Z 08007KT 10SM SCT075 M01/M06 A3036 220 69 -1600 090/07 RMK AO2
14840KMKG MKG20021126133009911/26/02 13:30:31  5-MIN KMKG 261830Z 08006KT 10SM BKN075 M01/M06 A3036 230 69 -1600 090/06 RMK AO2
14840KMKG MKG20021126133509911/26/02 13:35:31  5-MIN KMKG 261835Z 08006KT 10SM BKN075 M01/M06 A3035 230 69 -1600 080/06 RMK AO2
14840KMKG MKG20021126134009911/26/02 13:40:31  5-MIN KMKG 261840Z 08005KT 10SM BKN070 M01/M06 A3035 230 69 -1600 080/05 RMK AO2
14840KMKG MKG20021126134509911/26/02 13:45:31  5-MIN KMKG 261845Z 07006KT 10SM OVC075 M01/M06 A3035 240 69 -1600 080/06 RMK AO2
14840KMKG MKG20021126135011611/26/02 13:50:31  5-MIN KMKG 261850Z 07005KT 10SM OVC075 M01/M06 A3035 230 69 -1600 080/05 RMK AO2 SLP287 T10111061
14840KMKG MKG20021126135511611/26/02 13:55:31  5-MIN KMKG 261855Z 08005KT 10SM OVC070 M01/M06 A3035 230 69 -1600 090/05 RMK AO2 SLP287 T10111061
14840KMKG MKG20021126140009911/26/02 14:00:31  5-MIN KMKG 261900Z 08006KT 10SM OVC070 M01/M06 A3035 230 69 -1600 080/06 RMK AO2
14840KMKG MKG20021126140509911/26/02 14:05:31  5-MIN KMKG 261905Z 09006KT 10SM OVC070 M01/M06 A3035 240 69 -1600 090/06 RMK AO2
14840KMKG MKG20021126141009911/26/02 14:10:31  5-MIN KMKG 261910Z 08005KT 10SM OVC075 M01/M06 A3035 240 69 -1600 090/05 RMK AO2
14840KMKG MKG20021126141510611/26/02 14:15:31  5-MIN KMKG 261915Z 07008KT 10SM FEW060 OVC075 M01/M06 A3035 230 69 -1600 070/08 RMK AO2
14840KMKG MKG20021126142010611/26/02 14:20:31  5-MIN KMKG 261920Z 08008KT 10SM FEW060 OVC075 M01/M06 A3035 230 69 -1600 080/08 RMK AO2
14840KMKG MKG20021126142510611/26/02 14:25:31  5-MIN KMKG 261925Z 09007KT 10SM SCT060 OVC075 M01/M06 A3035 230 69 -1600 100/07 RMK AO2
14840KMKG MKG20021126143010611/26/02 14:30:31  5-MIN KMKG 261930Z 08007KT 10SM SCT060 OVC075 M01/M06 A3035 230 69 -1600 080/07 RMK AO2
14840KMKG MKG20021126143510611/26/02 14:35:31  5-MIN KMKG 261935Z 09008KT 10SM SCT060 OVC075 M01/M06 A3035 240 69 -1600 090/08 RMK AO2
14840KMKG MKG20021126144010611/26/02 14:40:31  5-MIN KMKG 261940Z 09006KT 10SM SCT060 OVC075 M01/M06 A3035 240 69 -1600 090/06 RMK AO2
14840KMKG MKG20021126144510611/26/02 14:45:31  5-MIN KMKG 261945Z 07006KT 10SM SCT060 OVC080 M01/M06 A3034 240 69 -1600 080/06 RMK AO2
14840KMKG MKG20021126145012311/26/02 14:50:31  5-MIN KMKG 261950Z 07007KT 10SM FEW060 OVC080 M01/M06 A3034 240 69 -1600 080/07 RMK AO2 SLP284 T10111061
14840KMKG MKG20021126145511611/26/02 14:55:31  5-MIN KMKG 261955Z 09005KT 10SM OVC080 M01/M06 A3034 240 72 -1600 090/05 RMK AO2 SLP284 T10111056
14840KMKG MKG20021126150009911/26/02 15:00:31  5-MIN KMKG 262000Z 09006KT 10SM OVC080 M01/M06 A3034 240 69 -1600 090/06 RMK AO2
14840KMKG MKG20021126150509911/26/02 15:05:31  5-MIN KMKG 262005Z 09004KT 10SM OVC080 M01/M06 A3034 240 69 -1600 090/04 RMK AO2
14840KMKG MKG20021126151010611/26/02 15:10:31  5-MIN KMKG 262010Z 10005KT 10SM FEW065 OVC080 M01/M06 A3034 240 72 -1600 100/05 RMK AO2
14840KMKG MKG20021126151510611/26/02 15:15:31  5-MIN KMKG 262015Z 09005KT 10SM SCT060 OVC080 M01/M06 A3034 240 72 -1600 100/05 RMK AO2
14840KMKG MKG20021126152010611/26/02 15:20:31  5-MIN KMKG 262020Z 09004KT 10SM SCT065 BKN080 M01/M06 A3034 240 72 -1600 090/04 RMK AO2
14840KMKG MKG20021126152510611/26/02 15:25:31  5-MIN KMKG 262025Z 08005KT 10SM SCT065 OVC080 M01/M06 A3034 240 69 -1600 080/05 RMK AO2
14840KMKG MKG20021126153009911/26/02 15:30:31  5-MIN KMKG 262030Z 09005KT 10SM OVC070 M01/M06 A3034 240 72 -1600 090/05 RMK AO2
14840KMKG MKG20021126153509911/26/02 15:35:31  5-MIN KMKG 262035Z 08004KT 10SM OVC070 M01/M06 A3034 250 72 -1600 090/04 RMK AO2
14840KMKG MKG20021126154010611/26/02 15:40:31  5-MIN KMKG 262040Z 09005KT 10SM SCT060 OVC075 M01/M06 A3034 250 72 -1600 090/05 RMK AO2
14840KMKG MKG20021126154510611/26/02 15:45:31  5-MIN KMKG 262045Z 09005KT 10SM BKN070 OVC080 M01/M06 A3034 250 72 -1600 090/05 RMK AO2
14840KMKG MKG20021126155012211/26/02 15:50:31  5-MIN KMKG 262050Z 09004KT 10SM OVC070 M01/M06 A3033 250 72 -1600 100/04 RMK AO2 SLP281 T10111056 58005
14840KMKG MKG20021126155512911/26/02 15:55:31  5-MIN KMKG 262055Z 11004KT 10SM SCT060 OVC075 M01/M06 A3033 250 72 -1600 110/04 RMK AO2 SLP281 T10111056 56013
14840KMKG MKG20021126160010611/26/02 16:00:31  5-MIN KMKG 262100Z 10004KT 10SM BKN060 OVC080 M01/M06 A3033 250 72 -1600 100/04 RMK AO2
14840KMKG MKG20021126160510611/26/02 16:05:31  5-MIN KMKG 262105Z 00000KT 10SM BKN060 OVC080 M02/M06 A3034 250 75 -1600 000/00 RMK AO2
14840KMKG MKG20021126161010611/26/02 16:10:31  5-MIN KMKG 262110Z 00000KT 10SM BKN060 OVC080 M01/M06 A3034 240 72 -1600 000/00 RMK AO2
14840KMKG MKG20021126161510611/26/02 16:15:31  5-MIN KMKG 262115Z 00000KT 10SM SCT060 OVC080 M01/M06 A3034 240 72 -1600 000/00 RMK AO2
14840KMKG MKG20021126162010611/26/02 16:20:31  5-MIN KMKG 262120Z 00000KT 10SM SCT060 OVC080 M01/M06 A3034 240 72 -1600 000/00 RMK AO2
14840KMKG MKG20021126162510611/26/02 16:25:31  5-MIN KMKG 262125Z 00000KT 10SM FEW060 OVC080 M02/M06 A3034 240 75 -1700 000/00 RMK AO2
14840KMKG MKG20021126163010611/26/02 16:30:31  5-MIN KMKG 262130Z 06003KT 10SM FEW060 OVC080 M01/M06 A3034 240 72 -1600 060/03 RMK AO2
14840KMKG MKG20021126163509911/26/02 16:35:31  5-MIN KMKG 262135Z 00000KT 10SM OVC080 M01/M06 A3034 240 69 -1600 000/00 RMK AO2
14840KMKG MKG20021126164009911/26/02 16:40:31  5-MIN KMKG 262140Z 06003KT 10SM OVC085 M01/M06 A3034 240 69 -1600 060/03 RMK AO2
14840KMKG MKG20021126164509911/26/02 16:45:31  5-MIN KMKG 262145Z 05003KT 10SM OVC085 M01/M06 A3034 240 69 -1600 050/03 RMK AO2
14840KMKG MKG20021126165011611/26/02 16:50:31  5-MIN KMKG 262150Z 05003KT 10SM BKN085 M01/M06 A3034 240 69 -1600 050/03 RMK AO2 SLP284 T10111061
14840KMKG MKG20021126165511611/26/02 16:55:31  5-MIN KMKG 262155Z 05004KT 10SM SCT085 M01/M06 A3034 240 69 -1600 050/04 RMK AO2 SLP284 T10111061
14840KMKG MKG20021126170009911/26/02 17:00:31  5-MIN KMKG 262200Z 04005KT 10SM SCT085 M01/M06 A3034 240 69 -1600 040/05 RMK AO2
14840KMKG MKG20021126170509911/26/02 17:05:31  5-MIN KMKG 262205Z 05004KT 10SM FEW085 M02/M06 A3034 240 72 -1700 060/04 RMK AO2
14840KMKG MKG20021126171009911/26/02 17:10:31  5-MIN KMKG 262210Z 04005KT 10SM FEW085 M02/M06 A3034 240 72 -1700 050/05 RMK AO2
14840KMKG MKG20021126171509611/26/02 17:15:31  5-MIN KMKG 262215Z 05004KT 10SM CLR M02/M06 A3035 240 72 -1700 050/04 RMK AO2
14840KMKG MKG20021126172009611/26/02 17:20:31  5-MIN KMKG 262220Z 05004KT 10SM CLR M02/M07 A3035 240 69 -1700 050/04 RMK AO2
14840KMKG MKG20021126172509611/26/02 17:25:31  5-MIN KMKG 262225Z 05003KT 10SM CLR M02/M06 A3035 240 72 -1700 050/03 RMK AO2
14840KMKG MKG20021126173009611/26/02 17:30:31  5-MIN KMKG 262230Z 04003KT 10SM CLR M02/M06 A3035 240 72 -1700 040/03 RMK AO2
14840KMKG MKG20021126173509611/26/02 17:35:31  5-MIN KMKG 262235Z 00000KT 10SM CLR M02/M06 A3035 240 72 -1700 000/00 RMK AO2
14840KMKG MKG20021126174009611/26/02 17:40:31  5-MIN KMKG 262240Z 06003KT 10SM CLR M02/M06 A3035 240 72 -1700 060/03 RMK AO2
14840KMKG MKG20021126174509611/26/02 17:45:31  5-MIN KMKG 262245Z 00000KT 10SM CLR M02/M06 A3035 240 75 -1700 000/00 RMK AO2
14840KMKG MKG20021126175011311/26/02 17:50:31  5-MIN KMKG 262250Z 00000KT 10SM CLR M02/M06 A3035 240 75 -1700 000/00 RMK AO2 SLP287 T10221061
14840KMKG MKG20021126175511311/26/02 17:55:31  5-MIN KMKG 262255Z 00000KT 10SM CLR M02/M06 A3035 240 75 -1700 000/00 RMK AO2 SLP287 T10221061
14840KMKG MKG20021126180009611/26/02 18:00:31  5-MIN KMKG 262300Z 00000KT 10SM CLR M03/M06 A3035 240 78 -1800 000/00 RMK AO2
14840KMKG MKG20021126180509911/26/02 18:05:31  5-MIN KMKG 262305Z 00000KT 10SM FEW090 M03/M06 A3035 240 78 -1800 000/00 RMK AO2
14840KMKG MKG20021126181009911/26/02 18:10:31  5-MIN KMKG 262310Z 00000KT 10SM SCT090 M03/M06 A3035 240 81 -1800 000/00 RMK AO2
14840KMKG MKG20021126181509911/26/02 18:15:31  5-MIN KMKG 262315Z 00000KT 10SM SCT090 M03/M06 A3035 240 81 -1800 000/00 RMK AO2
14840KMKG MKG20021126182009911/26/02 18:20:31  5-MIN KMKG 262320Z 00000KT 10SM SCT090 M02/M06 A3035 240 72 -1700 000/00 RMK AO2
14840KMKG MKG20021126182509911/26/02 18:25:31  5-MIN KMKG 262325Z 00000KT 10SM BKN090 M02/M06 A3035 240 75 -1700 000/00 RMK AO2
14840KMKG MKG20021126183009911/26/02 18:30:31  5-MIN KMKG 262330Z 00000KT 10SM BKN090 M03/M06 A3035 240 81 -1900 000/00 RMK AO2
14840KMKG MKG20021126183509911/26/02 18:35:31  5-MIN KMKG 262335Z 00000KT 10SM OVC085 M04/M06 A3035 240 88 -1900 000/00 RMK AO2
14840KMKG MKG20021126184009911/26/02 18:40:31  5-MIN KMKG 262340Z 00000KT 10SM OVC085 M04/M06 A3034 240 88 -1900 000/00 RMK AO2
14840KMKG MKG20021126184509911/26/02 18:45:31  5-MIN KMKG 262345Z 00000KT 10SM BKN085 M04/M06 A3034 240 88 -1900 000/00 RMK AO2
14840KMKG MKG20021126185014011/26/02 18:50:31  5-MIN KMKG 262350Z 00000KT 10SM BKN085 M04/M06 A3035 240 88 -1900 000/00 RMK AO2 SLP286 4/002 T10391056 11011 21039 56013
14840KMKG MKG20021126185514711/26/02 18:55:31  5-MIN KMKG 262355Z 00000KT 10SM SCT085 BKN110 M04/M06 A3035 240 88 -1900 000/00 RMK AO2 SLP286 4/002 T10391056 11011 21039 50004
14840KMKG MKG20021126190010611/26/02 19:00:31  5-MIN KMKG 270000Z 00000KT 10SM FEW085 BKN110 M04/M06 A3035 240 88 -2000 000/00 RMK AO2
14840KMKG MKG20021126190510611/26/02 19:05:31  5-MIN KMKG 270005Z 00000KT 10SM FEW085 SCT110 M04/M06 A3035 240 92 -2000 000/00 RMK AO2
14840KMKG MKG20021126191009911/26/02 19:10:31  5-MIN KMKG 270010Z 00000KT 10SM FEW110 M04/M06 A3035 240 88 -1900 000/00 RMK AO2
14840KMKG MKG20021126191509911/26/02 19:15:31  5-MIN KMKG 270015Z 00000KT 10SM FEW110 M04/M06 A3035 240 88 -1900 000/00 RMK AO2
14840KMKG MKG20021126192009911/26/02 19:20:31  5-MIN KMKG 270020Z 00000KT 10SM SCT110 M04/M06 A3035 240 88 -1900 000/00 RMK AO2
14840KMKG MKG20021126192509911/26/02 19:25:31  5-MIN KMKG 270025Z 00000KT 10SM FEW110 M04/M06 A3035 240 92 -2000 000/00 RMK AO2
14840KMKG MKG20021126193010611/26/02 19:30:31  5-MIN KMKG 270030Z 00000KT 10SM FEW046 SCT110 M04/M06 A3035 240 88 -1900 000/00 RMK AO2
14840KMKG MKG20021126193510611/26/02 19:35:31  5-MIN KMKG 270035Z 00000KT 10SM SCT046 SCT110 M04/M06 A3035 240 88 -1900 000/00 RMK AO2
14840KMKG MKG20021126194010611/26/02 19:40:31  5-MIN KMKG 270040Z 00000KT 10SM SCT046 SCT110 M04/M06 A3035 240 85 -1900 000/00 RMK AO2
14840KMKG MKG20021126194509911/26/02 19:45:31  5-MIN KMKG 270045Z 02003KT 10SM FEW046 M04/M06 A3035 240 88 -2000 030/03 RMK AO2
14840KMKG MKG20021126195011611/26/02 19:50:31  5-MIN KMKG 270050Z 00000KT 10SM SCT046 M04/M06 A3035 240 88 -2000 000/00 RMK AO2 SLP286 T10441061
14840KMKG MKG20021126195511611/26/02 19:55:31  5-MIN KMKG 270055Z 00000KT 10SM BKN048 M05/M06 A3035 240 92 -2100 000/00 RMK AO2 SLP287 T10501061
14840KMKG MKG20021126200009911/26/02 20:00:31  5-MIN KMKG 270100Z 00000KT 10SM BKN048 M05/M06 A3034 240 96 -2100 000/00 RMK AO2
14840KMKG MKG20021126200509911/26/02 20:05:31  5-MIN KMKG 270105Z 00000KT 10SM SCT048 M05/M06 A3034 240 96 -2100 000/00 RMK AO2
14840KMKG MKG20021126201009911/26/02 20:10:31  5-MIN KMKG 270110Z 00000KT 10SM SCT048 M04/M06 A3034 240 92 -2000 000/00 RMK AO2
14840KMKG MKG20021126201509911/26/02 20:15:31  5-MIN KMKG 270115Z 00000KT 10SM SCT048 M04/M06 A3034 240 92 -2000 000/00 RMK AO2
14840KMKG MKG20021126202009911/26/02 20:20:31  5-MIN KMKG 270120Z 00000KT 10SM FEW048 M06/M06 A3034 240 96 -2200 000/00 RMK AO2
14840KMKG MKG20021126202509911/26/02 20:25:31  5-MIN KMKG 270125Z 00000KT 10SM FEW046 M07/M07 A3034 240 96 -2300 000/00 RMK AO2
14840KMKG MKG20021126203009611/26/02 20:30:31  5-MIN KMKG 270130Z 00000KT 10SM CLR M06/M07 A3034 240 92 -2200 000/00 RMK AO2
14840KMKG MKG20021126203509611/26/02 20:35:31  5-MIN KMKG 270135Z 00000KT 10SM CLR M06/M06 A3034 240 96 -2200 000/00 RMK AO2
14840KMKG MKG20021126204009611/26/02 20:40:31  5-MIN KMKG 270140Z 00000KT 10SM CLR M06/M06 A3035 240 96 -2200 000/00 RMK AO2
14840KMKG MKG20021126204509611/26/02 20:45:31  5-MIN KMKG 270145Z 00000KT 10SM CLR M06/M07 A3035 240 96 -2200 000/00 RMK AO2
14840KMKG MKG20021126205011611/26/02 20:50:31  5-MIN KMKG 270150Z 00000KT 10SM FEW055 M06/M07 A3035 240 96 -2200 000/00 RMK AO2 SLP286 T10611067
14840KMKG MKG20021126205512311/26/02 20:55:31  5-MIN KMKG 270155Z 00000KT 10SM SCT055 SCT070 M06/M07 A3035 240 96 -2200 000/00 RMK AO2 SLP287 T10611067
14840KMKG MKG20021126210009911/26/02 21:00:31  5-MIN KMKG 270200Z 00000KT 10SM BKN060 M07/M07 A3035 240 96 -2300 000/00 RMK AO2
14840KMKG MKG20021126210509911/26/02 21:05:31  5-MIN KMKG 270205Z 12003KT 10SM BKN060 M07/M07 A3035 240 96 -2300 130/03 RMK AO2
14840KMKG MKG20021126211009911/26/02 21:10:31  5-MIN KMKG 270210Z 00000KT 10SM BKN060 M06/M07 A3035 240 92 -2200 000/00 RMK AO2
14840KMKG MKG20021126211509911/26/02 21:15:31  5-MIN KMKG 270215Z 00000KT 10SM OVC060 M07/M08 A3035 230 92 -2300 000/00 RMK AO2
14840KMKG MKG20021126212009911/26/02 21:20:31  5-MIN KMKG 270220Z 00000KT 10SM OVC065 M06/M07 A3035 230 92 -2200 000/00 RMK AO2
14840KMKG MKG20021126212509911/26/02 21:25:31  5-MIN KMKG 270225Z 00000KT 10SM OVC065 M06/M07 A3035 240 92 -2200 000/00 RMK AO2
14840KMKG MKG20021126213009911/26/02 21:30:31  5-MIN KMKG 270230Z 00000KT 10SM OVC070 M06/M07 A3035 240 92 -2200 000/00 RMK AO2
14840KMKG MKG20021126213509911/26/02 21:35:31  5-MIN KMKG 270235Z 00000KT 10SM OVC070 M06/M07 A3035 240 92 -2200 000/00 RMK AO2
14840KMKG MKG20021126214009911/26/02 21:40:31  5-MIN KMKG 270240Z 00000KT 10SM OVC070 M06/M07 A3035 240 92 -2200 000/00 RMK AO2
14840KMKG MKG20021126214509911/26/02 21:45:31  5-MIN KMKG 270245Z 00000KT 10SM OVC070 M06/M07 A3035 240 92 -2200 000/00 RMK AO2
14840KMKG MKG20021126215012211/26/02 21:50:31  5-MIN KMKG 270250Z 00000KT 10SM OVC070 M06/M07 A3035 240 92 -2200 000/00 RMK AO2 SLP287 T10561067 50004
14840KMKG MKG20021126215512211/26/02 21:55:31  5-MIN KMKG 270255Z 09003KT 10SM OVC070 M06/M07 A3035 240 92 -2200 100/03 RMK AO2 SLP287 T10561067 52001
14840KMKG MKG20021126220009911/26/02 22:00:31  5-MIN KMKG 270300Z 00000KT 10SM OVC070 M06/M07 A3035 240 92 -2200 000/00 RMK AO2
14840KMKG MKG20021126220510611/26/02 22:05:31  5-MIN KMKG 270305Z 00000KT 10SM FEW042 OVC070 M06/M08 A3035 230 88 -2200 000/00 RMK AO2
14840KMKG MKG20021126221012111/26/02 22:10:31  5-MIN KMKG 270310Z 00000KT 10SM SCT042 OVC070 M06/M07 A3035 230 88 -2200 000/00 RMK AO2 CIG 041 RWY 14
14840KMKG MKG20021126221510611/26/02 22:15:31  5-MIN KMKG 270315Z 00000KT 10SM BKN042 OVC070 M06/M07 A3035 230 88 -2200 000/00 RMK AO2
14840KMKG MKG20021126222010611/26/02 22:20:31  5-MIN KMKG 270320Z 00000KT 10SM SCT042 OVC070 M06/M07 A3035 230 88 -2200 000/00 RMK AO2
14840KMKG MKG20021126222510611/26/02 22:25:31  5-MIN KMKG 270325Z 00000KT 10SM SCT042 OVC065 M06/M07 A3035 230 88 -2200 000/00 RMK AO2
14840KMKG MKG20021126223010611/26/02 22:30:31  5-MIN KMKG 270330Z 00000KT 10SM SCT042 OVC065 M05/M07 A3035 230 88 -2100 000/00 RMK AO2
14840KMKG MKG20021126223510611/26/02 22:35:31  5-MIN KMKG 270335Z 00000KT 10SM FEW042 OVC065 M05/M07 A3035 230 88 -2100 000/00 RMK AO2
14840KMKG MKG20021126224010611/26/02 22:40:31  5-MIN KMKG 270340Z 00000KT 10SM FEW042 OVC065 M05/M07 A3035 230 88 -2100 000/00 RMK AO2
14840KMKG MKG20021126224509911/26/02 22:45:31  5-MIN KMKG 270345Z 07003KT 10SM OVC065 M05/M07 A3035 230 88 -2100 080/03 RMK AO2
14840KMKG MKG20021126225011611/26/02 22:50:31  5-MIN KMKG 270350Z 08003KT 10SM OVC065 M05/M06 A3035 230 92 -2100 080/03 RMK AO2 SLP288 T10501061
14840KMKG MKG20021126225511611/26/02 22:55:31  5-MIN KMKG 270355Z 08003KT 10SM OVC065 M05/M06 A3035 230 92 -2100 090/03 RMK AO2 SLP288 T10501061
14840KMKG MKG20021126230009911/26/02 23:00:31  5-MIN KMKG 270400Z 08004KT 10SM OVC065 M05/M06 A3035 230 92 -2100 080/04 RMK AO2
14840KMKG MKG20021126230509911/26/02 23:05:31  5-MIN KMKG 270405Z 09005KT 10SM OVC065 M04/M06 A3036 230 85 -2000 090/05 RMK AO2
14840KMKG MKG20021126231009911/26/02 23:10:31  5-MIN KMKG 270410Z 09007KT 10SM OVC065 M03/M06 A3035 230 81 -1900 090/07 RMK AO2
14840KMKG MKG20021126231509911/26/02 23:15:31  5-MIN KMKG 270415Z 08006KT 10SM OVC065 M03/M06 A3035 230 78 -1800 090/06 RMK AO2
14840KMKG MKG20021126232009911/26/02 23:20:31  5-MIN KMKG 270420Z 09006KT 10SM OVC065 M03/M06 A3035 230 81 -1900 090/06 RMK AO2
14840KMKG MKG20021126232509911/26/02 23:25:31  5-MIN KMKG 270425Z 08006KT 10SM OVC070 M03/M07 A3036 230 75 -1800 090/06 RMK AO2
14840KMKG MKG20021126233009911/26/02 23:30:31  5-MIN KMKG 270430Z 08006KT 10SM OVC070 M03/M07 A3036 230 78 -1900 090/06 RMK AO2
14840KMKG MKG20021126233509911/26/02 23:35:31  5-MIN KMKG 270435Z 09005KT 10SM OVC070 M03/M07 A3035 230 78 -1900 090/05 RMK AO2
14840KMKG MKG20021126234009911/26/02 23:40:31  5-MIN KMKG 270440Z 09005KT 10SM OVC070 M03/M07 A3035 230 78 -1900 090/05 RMK AO2
14840KMKG MKG20021126234509911/26/02 23:45:31  5-MIN KMKG 270445Z 09005KT 10SM OVC070 M03/M07 A3035 230 78 -1900 090/05 RMK AO2
14840KMKG MKG20021126235013311/26/02 23:50:31  5-MIN KMKG 270450Z 09005KT 10SM FEW046 OVC070 M03/M07 A3035 230 78 -1900 090/05 RMK AO2 SLP288 T10331067 410111067
14840KMKG MKG20021126235513311/26/02 23:55:31  5-MIN KMKG 270455Z 09005KT 10SM FEW046 OVC070 M03/M07 A3035 230 78 -1900 090/05 RMK AO2 SLP287 T10331067 410111067
14840KMKG MKG20021127000010611/27/02 00:00:31  5-MIN KMKG 270500Z 09005KT 10SM FEW046 OVC070 M03/M07 A3035 230 78 -1900 090/05 RMK AO2
14840KMKG MKG20021127000510611/27/02 00:05:31  5-MIN KMKG 270505Z 09005KT 10SM FEW046 OVC070 M03/M07 A3035 230 78 -1900 090/05 RMK AO2
14840KMKG MKG20021127001010611/27/02 00:10:31  5-MIN KMKG 270510Z 09005KT 10SM FEW046 OVC070 M03/M07 A3035 230 78 -1900 100/05 RMK AO2
14840KMKG MKG20021127001510611/27/02 00:15:31  5-MIN KMKG 270515Z 09004KT 10SM FEW048 OVC070 M03/M07 A3035 230 75 -1800 090/04 RMK AO2
14840KMKG MKG20021127002010611/27/02 00:20:31  5-MIN KMKG 270520Z 09004KT 10SM FEW048 OVC070 M03/M07 A3035 230 78 -1900 100/04 RMK AO2
14840KMKG MKG20021127002510611/27/02 00:25:31  5-MIN KMKG 270525Z 09005KT 10SM FEW046 OVC070 M03/M07 A3035 230 71 -1800 100/05 RMK AO2
14840KMKG MKG20021127003010611/27/02 00:30:31  5-MIN KMKG 270530Z 10004KT 10SM FEW046 OVC065 M03/M07 A3035 230 78 -1900 100/04 RMK AO2
14840KMKG MKG20021127003510611/27/02 00:35:31  5-MIN KMKG 270535Z 10004KT 10SM FEW046 OVC065 M03/M07 A3035 230 78 -1900 100/04 RMK AO2
14840KMKG MKG20021127004010611/27/02 00:40:31  5-MIN KMKG 270540Z 09004KT 10SM FEW046 OVC070 M03/M07 A3035 230 78 -1900 090/04 RMK AO2
14840KMKG MKG20021127004510611/27/02 00:45:31  5-MIN KMKG 270545Z 09004KT 10SM FEW060 OVC070 M03/M07 A3035 230 78 -1900 090/04 RMK AO2
14840KMKG MKG20021127005014111/27/02 00:50:31  5-MIN KMKG 270550Z 10004KT 10SM FEW060 OVC070 M03/M07 A3035 230 78 -1900 100/04 RMK AO2 SLP287 T10331067 11028 21067 52001
14840KMKG MKG20021127005514111/27/02 00:55:31  5-MIN KMKG 270555Z 09004KT 10SM FEW055 OVC070 M03/M07 A3035 230 78 -1900 100/04 RMK AO2 SLP287 T10331067 11028 21067 50001
14840KMKG MKG20021127010010611/27/02 01:00:31  5-MIN KMKG 270600Z 09005KT 10SM FEW055 OVC070 M03/M07 A3035 230 78 -1900 100/05 RMK AO2
14840KMKG MKG20021127010510611/27/02 01:05:31  5-MIN KMKG 270605Z 10005KT 10SM SCT055 OVC075 M03/M07 A3035 240 78 -1900 100/05 RMK AO2
14840KMKG MKG20021127011010611/27/02 01:10:31  5-MIN KMKG 270610Z 10004KT 10SM SCT055 OVC070 M03/M07 A3035 240 78 -1900 100/04 RMK AO2
14840KMKG MKG20021127011510611/27/02 01:15:31  5-MIN KMKG 270615Z 10004KT 10SM SCT055 OVC070 M03/M07 A3035 240 78 -1900 100/04 RMK AO2
14840KMKG MKG20021127012010611/27/02 01:20:31  5-MIN KMKG 270620Z 09005KT 10SM FEW055 OVC070 M03/M07 A3035 230 78 -1900 100/05 RMK AO2
14840KMKG MKG20021127012510611/27/02 01:25:31  5-MIN KMKG 270625Z 09005KT 10SM SCT055 OVC070 M03/M07 A3035 230 78 -1900 090/05 RMK AO2
14840KMKG MKG20021127013010611/27/02 01:30:31  5-MIN KMKG 270630Z 09005KT 10SM SCT060 OVC070 M03/M07 A3035 240 74 -1900 090/05 RMK AO2
14840KMKG MKG20021127013510611/27/02 01:35:31  5-MIN KMKG 270635Z 09005KT 10SM SCT060 OVC070 M03/M07 A3035 240 74 -1900 100/05 RMK AO2
14840KMKG MKG20021127014009911/27/02 01:40:31  5-MIN KMKG 270640Z 10006KT 10SM OVC070 M03/M07 A3035 240 74 -1900 100/06 RMK AO2
14840KMKG MKG20021127014509911/27/02 01:45:31  5-MIN KMKG 270645Z 09006KT 10SM OVC070 M03/M07 A3034 240 74 -1900 090/06 RMK AO2
14840KMKG MKG20021127015011611/27/02 01:50:31  5-MIN KMKG 270650Z 09007KT 10SM OVC070 M03/M07 A3034 240 74 -1900 090/07 RMK AO2 SLP284 T10331072
14840KMKG MKG20021127015511611/27/02 01:55:31  5-MIN KMKG 270655Z 08007KT 10SM OVC070 M03/M07 A3034 240 74 -1900 080/07 RMK AO2 SLP284 T10331072
14840KMKG MKG20021127020009911/27/02 02:00:31  5-MIN KMKG 270700Z 08007KT 10SM OVC070 M03/M07 A3034 240 74 -1900 090/07 RMK AO2
14840KMKG MKG20021127020509911/27/02 02:05:31  5-MIN KMKG 270705Z 10006KT 10SM OVC070 M03/M08 A3034 240 71 -1900 100/06 RMK AO2
14840KMKG MKG20021127021009911/27/02 02:10:31  5-MIN KMKG 270710Z 10006KT 10SM OVC075 M03/M08 A3035 240 71 -1900 110/06 RMK AO2
14840KMKG MKG20021127021509911/27/02 02:15:31  5-MIN KMKG 270715Z 10006KT 10SM OVC075 M03/M07 A3035 240 74 -1900 100/06 RMK AO2
14840KMKG MKG20021127022009911/27/02 02:20:31  5-MIN KMKG 270720Z 10006KT 10SM OVC070 M03/M07 A3034 240 74 -1900 100/06 RMK AO2
14840KMKG MKG20021127022509911/27/02 02:25:31  5-MIN KMKG 270725Z 10005KT 10SM OVC070 M03/M07 A3034 240 74 -1900 100/05 RMK AO2
14840KMKG MKG20021127023009911/27/02 02:30:31  5-MIN KMKG 270730Z 10006KT 10SM OVC070 M03/M07 A3035 240 74 -1900 100/06 RMK AO2
14840KMKG MKG20021127023510611/27/02 02:35:31  5-MIN KMKG 270735Z 10006KT 10SM FEW060 OVC075 M03/M08 A3034 240 71 -1900 110/06 RMK AO2
14840KMKG MKG20021127024010611/27/02 02:40:31  5-MIN KMKG 270740Z 11007KT 10SM SCT055 OVC075 M03/M07 A3035 240 74 -1900 110/07 RMK AO2
14840KMKG MKG20021127024510611/27/02 02:45:31  5-MIN KMKG 270745Z 11007KT 10SM BKN055 OVC075 M03/M08 A3035 240 71 -1900 110/07 RMK AO2
14840KMKG MKG20021127025012311/27/02 02:50:31  5-MIN KMKG 270750Z 11007KT 10SM BKN050 OVC075 M03/M07 A3035 240 74 -1900 110/07 RMK AO2 SLP285 T10331072
14840KMKG MKG20021127025512311/27/02 02:55:31  5-MIN KMKG 270755Z 11008KT 10SM BKN050 OVC080 M04/M08 A3034 240 74 -1900 110/08 RMK AO2 SLP284 T10391078
14840KMKG MKG20021127030010611/27/02 03:00:31  5-MIN KMKG 270800Z 10007KT 10SM SCT050 OVC080 M04/M08 A3034 240 74 -1900 100/07 RMK AO2
14840KMKG MKG20021127030512111/27/02 03:05:31  5-MIN KMKG 270805Z 09007KT 10SM SCT055 OVC075 M04/M08 A3034 240 74 -1900 100/07 RMK AO2 CIG 050 RWY 14
14840KMKG MKG20021127031010611/27/02 03:10:31  5-MIN KMKG 270810Z 09006KT 10SM BKN055 OVC075 M04/M08 A3034 240 74 -1900 090/06 RMK AO2
14840KMKG MKG20021127031510611/27/02 03:15:31  5-MIN KMKG 270815Z 10005KT 10SM BKN050 OVC075 M04/M08 A3035 240 74 -1900 100/05 RMK AO2
14840KMKG MKG20021127032011311/27/02 03:20:31  5-MIN KMKG 270820Z 11005KT 10SM BKN050 BKN065 OVC080 M04/M08 A3035 240 74 -1900 110/05 RMK AO2
14840KMKG MKG20021127032511311/27/02 03:25:31  5-MIN KMKG 270825Z 10005KT 10SM BKN050 BKN065 OVC080 M04/M08 A3035 240 78 -2000 110/05 RMK AO2
14840KMKG MKG20021127033010611/27/02 03:30:31  5-MIN KMKG 270830Z 10005KT 10SM BKN050 OVC065 M04/M08 A3035 240 78 -2000 100/05 RMK AO2
14840KMKG MKG20021127033511311/27/02 03:35:31  5-MIN KMKG 270835Z 09006KT 10SM BKN050 BKN065 OVC080 M04/M08 A3034 240 74 -1900 090/06 RMK AO2
14840KMKG MKG20021127034011311/27/02 03:40:31  5-MIN KMKG 270840Z 09007KT 10SM BKN050 BKN065 OVC080 M04/M08 A3034 250 74 -1900 100/07 RMK AO2
14840KMKG MKG20021127034511311/27/02 03:45:31  5-MIN KMKG 270845Z 10005KT 10SM SCT050 BKN065 OVC080 M04/M08 A3034 250 74 -1900 100/05 RMK AO2
14840KMKG MKG20021127035013611/27/02 03:50:31  5-MIN KMKG 270850Z 11006KT 10SM SCT050 SCT065 OVC080 M04/M08 A3034 250 74 -1900 110/06 RMK AO2 SLP282 T10391078 50001
14840KMKG MKG20021127035513611/27/02 03:55:31  5-MIN KMKG 270855Z 12006KT 10SM FEW050 SCT065 OVC080 M04/M08 A3034 250 78 -2000 120/06 RMK AO2 SLP282 T10441078 56004
14840KMKG MKG20021127040010611/27/02 04:00:31  5-MIN KMKG 270900Z 11006KT 10SM FEW050 OVC080 M05/M08 A3034 250 81 -2100 110/06 RMK AO2
14840KMKG MKG20021127040510611/27/02 04:05:31  5-MIN KMKG 270905Z 11005KT 10SM FEW065 OVC080 M05/M08 A3034 250 81 -2100 110/05 RMK AO2
14840KMKG MKG20021127041010611/27/02 04:10:31  5-MIN KMKG 270910Z 11006KT 10SM FEW046 OVC075 M06/M08 A3033 250 81 -2100 120/06 RMK AO2
14840KMKG MKG20021127041511311/27/02 04:15:31  5-MIN KMKG 270915Z 11005KT 10SM SCT044 SCT065 OVC080 M06/M08 A3034 250 81 -2100 120/05 RMK AO2
14840KMKG MKG20021127042010611/27/02 04:20:31  5-MIN KMKG 270920Z 12005KT 10SM BKN044 OVC075 M06/M08 A3034 250 81 -2100 120/05 RMK AO2
14840KMKG MKG20021127042510611/27/02 04:25:31  5-MIN KMKG 270925Z 12005KT 10SM BKN044 OVC075 M06/M08 A3034 250 84 -2100 120/05 RMK AO2
14840KMKG MKG20021127043010611/27/02 04:30:31  5-MIN KMKG 270930Z 12005KT 10SM BKN044 OVC075 M05/M08 A3034 250 81 -2100 120/05 RMK AO2
14840KMKG MKG20021127043509911/27/02 04:35:31  5-MIN KMKG 270935Z 10006KT 10SM OVC044 M05/M07 A3033 250 84 -2100 110/06 RMK AO2
14840KMKG MKG20021127044009911/27/02 04:40:31  5-MIN KMKG 270940Z 10005KT 10SM OVC046 M04/M07 A3033 250 81 -2000 110/05 RMK AO2
14840KMKG MKG20021127044509911/27/02 04:45:31  5-MIN KMKG 270945Z 10005KT 10SM OVC046 M04/M07 A3033 250 81 -2000 100/05 RMK AO2
14840KMKG MKG20021127045011611/27/02 04:50:31  5-MIN KMKG 270950Z 11005KT 10SM OVC046 M04/M07 A3034 250 81 -2000 120/05 RMK AO2 SLP282 T10441072
14840KMKG MKG20021127045511611/27/02 04:55:31  5-MIN KMKG 270955Z 12005KT 10SM OVC048 M04/M07 A3033 250 81 -2000 130/05 RMK AO2 SLP281 T10441072
14840KMKG MKG20021127050009911/27/02 05:00:31  5-MIN KMKG 271000Z 12006KT 10SM OVC049 M04/M07 A3033 250 81 -2000 120/06 RMK AO2
14840KMKG MKG20021127050509911/27/02 05:05:31  5-MIN KMKG 271005Z 13005KT 10SM OVC049 M04/M07 A3033 250 81 -2000 130/05 RMK AO2
14840KMKG MKG20021127051009911/27/02 05:10:31  5-MIN KMKG 271010Z 13006KT 10SM OVC049 M04/M07 A3033 250 81 -2000 130/06 RMK AO2
14840KMKG MKG20021127051509911/27/02 05:15:31  5-MIN KMKG 271015Z 12006KT 10SM OVC055 M04/M07 A3033 250 81 -2000 130/06 RMK AO2
14840KMKG MKG20021127052009911/27/02 05:20:31  5-MIN KMKG 271020Z 11006KT 10SM OVC055 M04/M07 A3033 250 81 -2000 120/06 RMK AO2
14840KMKG MKG20021127052509911/27/02 05:25:31  5-MIN KMKG 271025Z 10006KT 10SM OVC055 M04/M07 A3033 250 81 -2000 100/06 RMK AO2
14840KMKG MKG20021127053009911/27/02 05:30:31  5-MIN KMKG 271030Z 09007KT 10SM OVC060 M04/M08 A3033 260 78 -2000 100/07 RMK AO2
14840KMKG MKG20021127053509911/27/02 05:35:31  5-MIN KMKG 271035Z 10007KT 10SM OVC060 M04/M08 A3033 250 78 -2000 100/07 RMK AO2
14840KMKG MKG20021127054009911/27/02 05:40:31  5-MIN KMKG 271040Z 11007KT 10SM OVC060 M04/M08 A3033 250 78 -2000 110/07 RMK AO2
14840KMKG MKG20021127054509911/27/02 05:45:31  5-MIN KMKG 271045Z 12006KT 10SM OVC060 M04/M08 A3034 250 78 -2000 120/06 RMK AO2
14840KMKG MKG20021127055011611/27/02 05:50:31  5-MIN KMKG 271050Z 12004KT 10SM OVC055 M04/M08 A3034 250 78 -2000 130/04 RMK AO2 SLP283 T10441078
14840KMKG MKG20021127055511611/27/02 05:55:31  5-MIN KMKG 271055Z 12005KT 10SM OVC055 M04/M08 A3034 250 78 -2000 120/05 RMK AO2 SLP283 T10441078
14840KMKG MKG20021127060009911/27/02 06:00:31  5-MIN KMKG 271100Z 12007KT 10SM OVC060 M04/M08 A3034 250 78 -2000 120/07 RMK AO2
14840KMKG MKG20021127060509911/27/02 06:05:31  5-MIN KMKG 271105Z 11008KT 10SM OVC055 M04/M08 A3033 250 78 -2000 120/08 RMK AO2
14840KMKG MKG20021127061009911/27/02 06:10:31  5-MIN KMKG 271110Z 11007KT 10SM OVC055 M04/M08 A3033 250 78 -2000 120/07 RMK AO2
14840KMKG MKG20021127061509911/27/02 06:15:31  5-MIN KMKG 271115Z 11008KT 10SM OVC060 M04/M08 A3033 260 78 -2000 120/08 RMK AO2
14840KMKG MKG20021127062010611/27/02 06:20:31  5-MIN KMKG 271120Z 12007KT 10SM FEW049 OVC060 M05/M08 A3033 250 77 -2100 120/07 RMK AO2
14840KMKG MKG20021127062509911/27/02 06:25:31  5-MIN KMKG 271125Z 11007KT 10SM OVC060 M05/M08 A3033 250 77 -2100 120/07 RMK AO2
14840KMKG MKG20021127063009911/27/02 06:30:31  5-MIN KMKG 271130Z 12006KT 10SM OVC060 M05/M08 A3034 250 77 -2100 120/06 RMK AO2
14840KMKG MKG20021127063510611/27/02 06:35:31  5-MIN KMKG 271135Z 12006KT 10SM FEW048 OVC055 M05/M08 A3034 240 77 -2100 130/06 RMK AO2
14840KMKG MKG20021127064010611/27/02 06:40:31  5-MIN KMKG 271140Z 12007KT 10SM BKN055 OVC065 M05/M08 A3034 240 77 -2100 120/07 RMK AO2
14840KMKG MKG20021127064509911/27/02 06:45:31  5-MIN KMKG 271145Z 12006KT 10SM OVC055 M04/M08 A3034 240 78 -2000 120/06 RMK AO2
14840KMKG MKG20021127065013411/27/02 06:50:31  5-MIN KMKG 271150Z 12006KT 10SM OVC055 M04/M08 A3034 240 78 -2000 130/06 RMK AO2 SLP285 T10441078 11033 21056 56004
14840KMKG MKG20021127065513411/27/02 06:55:31  5-MIN KMKG 271155Z 12005KT 10SM OVC050 M04/M08 A3035 240 78 -2000 130/05 RMK AO2 SLP286 T10441078 11033 21056 53002
14840KMKG MKG20021127070009911/27/02 07:00:31  5-MIN KMKG 271200Z 11005KT 10SM OVC050 M04/M08 A3034 240 78 -2000 110/05 RMK AO2
14840KMKG MKG20021127070509911/27/02 07:05:31  5-MIN KMKG 271205Z 12006KT 10SM OVC050 M04/M08 A3034 240 74 -2000 120/06 RMK AO2
14840KMKG MKG20021127071009911/27/02 07:10:31  5-MIN KMKG 271210Z 12007KT 10SM OVC050 M04/M08 A3035 240 71 -1900 130/07 RMK AO2
14840KMKG MKG20021127071509911/27/02 07:15:31  5-MIN KMKG 271215Z 12006KT 10SM OVC050 M04/M08 A3035 240 74 -2000 120/06 RMK AO2
14840KMKG MKG20021127072009911/27/02 07:20:31  5-MIN KMKG 271220Z 11005KT 10SM OVC050 M04/M08 A3034 240 74 -2000 120/05 RMK AO2
14840KMKG MKG20021127072509911/27/02 07:25:31  5-MIN KMKG 271225Z 12007KT 10SM OVC050 M04/M08 A3034 240 78 -2000 130/07 RMK AO2
14840KMKG MKG20021127073009911/27/02 07:30:31  5-MIN KMKG 271230Z 12007KT 10SM OVC050 M04/M08 A3034 240 78 -2000 130/07 RMK AO2
14840KMKG MKG20021127073509911/27/02 07:35:31  5-MIN KMKG 271235Z 11005KT 10SM OVC055 M04/M08 A3034 240 74 -2000 120/05 RMK AO2
14840KMKG MKG20021127074009911/27/02 07:40:31  5-MIN KMKG 271240Z 12005KT 10SM OVC055 M04/M08 A3034 240 78 -2000 130/05 RMK AO2
14840KMKG MKG20021127074510611/27/02 07:45:31  5-MIN KMKG 271245Z 12006KT 10SM BKN050 OVC060 M04/M08 A3034 240 74 -2000 130/06 RMK AO2
14840KMKG MKG20021127075012311/27/02 07:50:31  5-MIN KMKG 271250Z 12006KT 10SM BKN050 OVC060 M04/M09 A3034 240 71 -2000 120/06 RMK AO2 SLP285 T10441089
14840KMKG MKG20021127075511611/27/02 07:55:31  5-MIN KMKG 271255Z 12006KT 10SM OVC060 M04/M08 A3034 240 74 -2000 120/06 RMK AO2 SLP285 T10441083
14840KMKG MKG20021127080010611/27/02 08:00:31  5-MIN KMKG 271300Z 11005KT 10SM BKN050 OVC060 M04/M08 A3034 240 74 -2000 110/05 RMK AO2
14840KMKG MKG20021127080509911/27/02 08:05:31  5-MIN KMKG 271305Z 12006KT 10SM OVC055 M04/M08 A3034 240 74 -2000 120/06 RMK AO2
14840KMKG MKG20021127081009911/27/02 08:10:31  5-MIN KMKG 271310Z 13006KT 10SM OVC055 M04/M09 A3035 240 71 -2000 130/06 RMK AO2
14840KMKG MKG20021127081509911/27/02 08:15:31  5-MIN KMKG 271315Z 12008KT 10SM OVC055 M04/M09 A3034 240 68 -2000 130/08 RMK AO2
14840KMKG MKG20021127082009911/27/02 08:20:31  5-MIN KMKG 271320Z 12009KT 10SM OVC055 M04/M09 A3034 250 71 -2000 130/09 RMK AO2
14840KMKG MKG20021127082509911/27/02 08:25:31  5-MIN KMKG 271325Z 12008KT 10SM OVC055 M04/M09 A3034 240 71 -2000 130/08 RMK AO2
14840KMKG MKG20021127083009911/27/02 08:30:31  5-MIN KMKG 271330Z 12008KT 10SM OVC055 M04/M09 A3034 250 68 -2000 120/08 RMK AO2
14840KMKG MKG20021127083509911/27/02 08:35:31  5-MIN KMKG 271335Z 12008KT 10SM OVC055 M04/M09 A3034 250 71 -2000 120/08 RMK AO2
14840KMKG MKG20021127084010611/27/02 08:40:31  5-MIN KMKG 271340Z 12008KT 10SM SCT050 OVC060 M04/M09 A3034 250 71 -2000 120/08 RMK AO2
14840KMKG MKG20021127084510611/27/02 08:45:31  5-MIN KMKG 271345Z 12009KT 10SM SCT049 OVC060 M04/M09 A3034 250 71 -2000 120/09 RMK AO2
14840KMKG MKG20021127085011611/27/02 08:50:31  5-MIN KMKG 271350Z 12011KT 10SM OVC055 M04/M09 A3033 250 68 -2000 130/11 RMK AO2 SLP281 T10441094
14840KMKG MKG20021127085511611/27/02 08:55:31  5-MIN KMKG 271355Z 12010KT 10SM OVC055 M04/M09 A3033 250 68 -2000 130/10 RMK AO2 SLP281 T10441094
14840KMKG MKG20021127090010611/27/02 09:00:31  5-MIN KMKG 271400Z 12013KT 10SM BKN050 OVC060 M04/M09 A3033 250 68 -2000 130/13 RMK AO2
14840KMKG MKG20021127090509911/27/02 09:05:31  5-MIN KMKG 271405Z 12011KT 10SM OVC055 M04/M10 A3033 250 63 -1900 130/11 RMK AO2
14840KMKG MKG20021127091009911/27/02 09:10:31  5-MIN KMKG 271410Z 12010KT 10SM OVC055 M04/M09 A3033 250 65 -1900 120/10 RMK AO2
14840KMKG MKG20021127091509911/27/02 09:15:31  5-MIN KMKG 271415Z 12010KT 10SM OVC055 M04/M09 A3033 250 68 -2000 120/10 RMK AO2
14840KMKG MKG20021127092009911/27/02 09:20:31  5-MIN KMKG 271420Z 12012KT 10SM OVC055 M04/M09 A3033 250 65 -1900 120/12 RMK AO2
14840KMKG MKG20021127092510611/27/02 09:25:31  5-MIN KMKG 271425Z 12009KT 10SM FEW041 OVC055 M04/M09 A3033 250 65 -1900 120/09 RMK AO2
14840KMKG MKG20021127093010611/27/02 09:30:31  5-MIN KMKG 271430Z 12010KT 10SM SCT043 OVC055 M04/M09 A3033 250 68 -1900 120/10 RMK AO2
14840KMKG MKG20021127093512111/27/02 09:35:31  5-MIN KMKG 271435Z 12011KT 10SM FEW043 OVC055 M04/M09 A3033 250 65 -1900 120/11 RMK AO2 CIG 041 RWY 14
14840KMKG MKG20021127094011311/27/02 09:40:31  5-MIN KMKG 271440Z 12012KT 10SM FEW043 BKN055 OVC070 M04/M10 A3033 250 63 -1900 130/12 RMK AO2
14840KMKG MKG20021127094512911/27/02 09:45:31  5-MIN KMKG 271445Z 13011KT 10SM -SN SCT043 BKN055 OVC070 M04/M09 A3033 250 65 -1900 130/11 RMK AO2 SNB41 P0000
14840KMKG MKG20021127095015711/27/02 09:50:31  5-MIN KMKG 271450Z 13012KT 9SM -SN FEW043 BKN049 OVC070 M04/M10 A3033 250 63 -1900 130/12 RMK AO2 SNB41 SLP280 P0000 60000 T10391100 53002
14840KMKG MKG20021127095515711/27/02 09:55:31  5-MIN KMKG 271455Z 13013KT 9SM -SN FEW043 BKN049 OVC070 M04/M10 A3033 260 63 -1900 130/13 RMK AO2 SNB41 SLP279 P0000 60000 T10391100 58006
14840KMKG MKG20021127100012211/27/02 10:00:31  5-MIN KMKG 271500Z 13012KT 9SM -SN BKN049 BKN055 OVC070 M04/M10 A3033 260 63 -1900 130/12 RMK AO2 P0000
14840KMKG MKG20021127100511511/27/02 10:05:31  5-MIN KMKG 271505Z 13014KT 9SM -SN SCT049 OVC065 M03/M10 A3033 250 60 -1900 130/14 RMK AO2 P0000
14840KMKG MKG20021127101012211/27/02 10:10:31  5-MIN KMKG 271510Z 13012KT 9SM -SN SCT049 BKN060 OVC070 M03/M09 A3033 250 63 -1900 140/12 RMK AO2 P0000
14840KMKG MKG20021127101511511/27/02 10:15:31  5-MIN KMKG 271515Z 14013KT 9SM -SN SCT049 OVC060 M03/M09 A3033 250 63 -1900 150/13 RMK AO2 P0000
14840KMKG MKG20021127102011511/27/02 10:20:31  5-MIN KMKG 271520Z 13013KT 9SM -SN FEW049 OVC060 M03/M09 A3033 250 63 -1900 130/13 RMK AO2 P0000
14840KMKG MKG20021127102510811/27/02 10:25:31  5-MIN KMKG 271525Z 13012KT 9SM -SN OVC055 M03/M09 A3033 250 65 -1900 140/12 RMK AO2 P0000
14840KMKG MKG20021127103011511/27/02 10:30:31  5-MIN KMKG 271530Z 14010KT 9SM -SN FEW033 OVC055 M03/M09 A3033 250 65 -1900 140/10 RMK AO2 P0000
14840KMKG MKG20021127103511511/27/02 10:35:31  5-MIN KMKG 271535Z 13015KT 9SM -SN FEW033 OVC055 M04/M08 A3033 250 71 -1900 140/15 RMK AO2 P0000
14840KMKG MKG20021127104011511/27/02 10:40:31  5-MIN KMKG 271540Z 12014KT 9SM -SN FEW033 OVC060 M04/M08 A3033 250 74 -1900 130/14 RMK AO2 P0000
14840KMKG MKG20021127104511511/27/02 10:45:31  5-MIN KMKG 271545Z 13013KT 9SM -SN FEW033 OVC055 M04/M08 A3033 250 74 -1900 140/13 RMK AO2 P0000
14840KMKG MKG20021127105013211/27/02 10:50:31  5-MIN KMKG 271550Z 13011KT 9SM -SN SCT031 OVC055 M04/M08 A3033 250 74 -1900 140/11 RMK AO2 SLP281 P0000 T10391078
14840KMKG MKG20021127105513911/27/02 10:55:31  5-MIN KMKG 271555Z 13010KT 9SM -SN FEW026 BKN031 OVC055 M04/M08 A3033 250 74 -1900 130/10 RMK AO2 SLP282 P0000 T10391078
14840KMKG MKG20021127110012211/27/02 11:00:31  5-MIN KMKG 271600Z 13010KT 9SM -SN SCT026 BKN031 OVC055 M04/M07 A3033 250 78 -1900 140/10 RMK AO2 P0000
14840KMKG MKG20021127110512211/27/02 11:05:31  5-MIN KMKG 271605Z 12012KT 9SM -SN BKN026 BKN031 OVC060 M04/M07 A3033 250 78 -1900 120/12 RMK AO2 P0000
14840KMKG MKG20021127111011511/27/02 11:10:31  5-MIN KMKG 271610Z 12011KT 9SM -SN BKN023 OVC031 M04/M07 A3033 250 78 -1900 120/11 RMK AO2 P0000
14840KMKG MKG20021127111511511/27/02 11:15:31  5-MIN KMKG 271615Z 12011KT 9SM -SN BKN023 OVC031 M03/M07 A3033 260 74 -1900 120/11 RMK AO2 P0000
14840KMKG MKG20021127112011511/27/02 11:20:31  5-MIN KMKG 271620Z 11011KT 9SM -SN BKN023 OVC031 M03/M07 A3032 260 74 -1800 120/11 RMK AO2 P0000
14840KMKG MKG20021127112511511/27/02 11:25:31  5-MIN KMKG 271625Z 12010KT 9SM -SN BKN023 OVC031 M03/M07 A3032 260 74 -1800 120/10 RMK AO2 P0000
14840KMKG MKG20021127113011511/27/02 11:30:31  5-MIN KMKG 271630Z 12012KT 9SM -SN BKN021 BKN031 M03/M07 A3032 260 74 -1800 130/12 RMK AO2 P0000
14840KMKG MKG20021127113511511/27/02 11:35:31  5-MIN KMKG 271635Z 12014KT 9SM -SN BKN021 OVC031 M03/M07 A3032 270 71 -1800 120/14 RMK AO2 P0000
14840KMKG MKG20021127114011711/27/02 11:40:31  5-MIN KMKG 271640Z 13013KT 9SM BKN019 OVC031 M03/M07 A3032 270 75 -1800 130/13 RMK AO2 SNE37 P0000
14840KMKG MKG20021127114511111/27/02 11:45:31  5-MIN KMKG 271645Z 12012KT 10SM BKN019 M03/M07 A3032 270 71 -1800 130/12 RMK AO2 SNE37 P0000
14840KMKG MKG20021127115012811/27/02 11:50:31  5-MIN KMKG 271650Z 13013KT 10SM OVC019 M03/M07 A3031 270 75 -1800 130/13 RMK AO2 SNE37 SLP274 P0000 T10281067
14840KMKG MKG20021127115512811/27/02 11:55:31  5-MIN KMKG 271655Z 12011KT 10SM OVC019 M03/M06 A3031 270 78 -1800 120/11 RMK AO2 SNE37 SLP274 P0000 T10281061
14840KMKG MKG20021127120009911/27/02 12:00:31  5-MIN KMKG 271700Z 13010KT 10SM OVC019 M03/M06 A3032 270 78 -1800 140/10 RMK AO2
14840KMKG MKG20021127120509911/27/02 12:05:31  5-MIN KMKG 271705Z 12010KT 10SM OVC019 M03/M07 A3031 270 75 -1800 120/10 RMK AO2
14840KMKG MKG20021127121009911/27/02 12:10:31  5-MIN KMKG 271710Z 13011KT 10SM OVC017 M03/M06 A3031 270 78 -1800 130/11 RMK AO2
14840KMKG MKG20021127121509911/27/02 12:15:31  5-MIN KMKG 271715Z 12009KT 10SM OVC017 M03/M06 A3031 270 78 -1800 130/09 RMK AO2
14840KMKG MKG20021127122010611/27/02 12:20:31  5-MIN KMKG 271720Z 12011KT 10SM BKN017 BKN047 M03/M06 A3031 280 78 -1800 120/11 RMK AO2
14840KMKG MKG20021127122510611/27/02 12:25:31  5-MIN KMKG 271725Z 12010KT 10SM SCT017 BKN045 M03/M06 A3030 280 78 -1800 130/10 RMK AO2
14840KMKG MKG20021127123010611/27/02 12:30:31  5-MIN KMKG 271730Z 12011KT 10SM SCT017 OVC043 M03/M06 A3030 280 78 -1700 120/11 RMK AO2
14840KMKG MKG20021127123511311/27/02 12:35:31  5-MIN KMKG 271735Z 12009KT 10SM FEW017 BKN043 OVC055 M03/M06 A3030 280 78 -1700 130/09 RMK AO2
14840KMKG MKG20021127124011311/27/02 12:40:31  5-MIN KMKG 271740Z 12008KT 10SM FEW017 BKN043 OVC050 M03/M06 A3030 280 78 -1700 120/08 RMK AO2
14840KMKG MKG20021127124511311/27/02 12:45:31  5-MIN KMKG 271745Z 11007KT 10SM BKN039 BKN046 OVC055 M03/M06 A3030 280 78 -1700 120/07 RMK AO2
14840KMKG MKG20021127125015411/27/02 12:50:31  5-MIN KMKG 271750Z 13008KT 10SM SCT037 BKN045 OVC055 M03/M06 A3030 280 78 -1800 130/08 RMK AO2 SLP270 60000 T10281061 11028 21044 58006
14840KMKG MKG20021127125517011/27/02 12:55:31  5-MIN KMKG 271755Z 11010KT 10SM -SN SCT037 BKN045 OVC055 M03/M06 A3030 280 78 -1700 120/10 RMK AO2 SNB54 SLP270 P0000 60000 T10281061 11028 21044 58009
14840KMKG MKG20021127130011511/27/02 13:00:31  5-MIN KMKG 271800Z 11009KT 9SM -SN SCT037 OVC045 M03/M06 A3030 280 78 -1700 110/09 RMK AO2 P0000
14840KMKG MKG20021127130511511/27/02 13:05:31  5-MIN KMKG 271805Z 12008KT 9SM -SN SCT039 OVC047 M03/M06 A3030 280 78 -1700 120/08 RMK AO2 P0000
14840KMKG MKG20021127131011511/27/02 13:10:31  5-MIN KMKG 271810Z 11009KT 9SM -SN SCT035 OVC047 M03/M06 A3030 280 78 -1700 110/09 RMK AO2 P0000
14840KMKG MKG20021127131512211/27/02 13:15:31  5-MIN KMKG 271815Z 11008KT 8SM -SN SCT029 BKN035 OVC045 M03/M06 A3030 280 78 -1700 120/08 RMK AO2 P0000
14840KMKG MKG20021127132012211/27/02 13:20:31  5-MIN KMKG 271820Z 12008KT 6SM -SN BKN029 BKN037 OVC045 M03/M06 A3030 280 81 -1700 130/08 RMK AO2 P0000
14840KMKG MKG20021127132512211/27/02 13:25:31  5-MIN KMKG 271825Z 13007KT 4SM -SN FEW019 BKN029 OVC047 M03/M06 A3030 280 81 -1700 130/07 RMK AO2 P0000
14840KMKG MKG20021127133012211/27/02 13:30:31  5-MIN KMKG 271830Z 12007KT 4SM -SN FEW019 BKN029 OVC034 M03/M06 A3029 290 81 -1700 120/07 RMK AO2 P0000
14840KMKG MKG20021127133512511/27/02 13:35:31  5-MIN KMKG 271835Z 10008KT 5SM -SN BR FEW019 BKN027 OVC034 M03/M05 A3029 290 85 -1700 100/08 RMK AO2 P0000
14840KMKG MKG20021127134012211/27/02 13:40:31  5-MIN KMKG 271840Z 10008KT 5SM -SN FEW019 BKN027 OVC055 M03/M06 A3029 290 81 -1700 100/08 RMK AO2 P0000
14840KMKG MKG20021127134512211/27/02 13:45:31  5-MIN KMKG 271845Z 09007KT 7SM -SN FEW019 BKN027 OVC055 M02/M06 A3029 290 78 -1700 100/07 RMK AO2 P0000
14840KMKG MKG20021127135013911/27/02 13:50:31  5-MIN KMKG 271850Z 12008KT 9SM -SN FEW018 BKN025 OVC055 M02/M05 A3029 290 81 -1700 120/08 RMK AO2 SLP265 P0000 T10221050
14840KMKG MKG20021127135513211/27/02 13:55:31  5-MIN KMKG 271855Z 11008KT 9SM -SN SCT023 OVC055 M02/M05 A3029 290 81 -1700 110/08 RMK AO2 SLP264 P0000 T10221050
14840KMKG MKG20021127140011511/27/02 14:00:31  5-MIN KMKG 271900Z 10008KT 9SM -SN FEW023 BKN055 M02/M06 A3028 300 78 -1700 100/08 RMK AO2 P0000
14840KMKG MKG20021127140511511/27/02 14:05:31  5-MIN KMKG 271905Z 11008KT 9SM -SN FEW023 BKN055 M02/M05 A3028 300 81 -1700 110/08 RMK AO2 P0000
14840KMKG MKG20021127141011711/27/02 14:10:31  5-MIN KMKG 271910Z 11008KT 9SM FEW023 SCT055 M02/M05 A3028 300 81 -1700 120/08 RMK AO2 SNE07 P0000
14840KMKG MKG20021127141511811/27/02 14:15:31  5-MIN KMKG 271915Z 10008KT 10SM FEW023 SCT060 M02/M05 A3028 300 81 -1700 110/08 RMK AO2 SNE07 P0000
14840KMKG MKG20021127142011111/27/02 14:20:31  5-MIN KMKG 271920Z 11008KT 10SM BKN060 M02/M04 A3028 300 85 -1700 110/08 RMK AO2 SNE07 P0000
14840KMKG MKG20021127142511111/27/02 14:25:31  5-MIN KMKG 271925Z 11006KT 10SM SCT060 M02/M05 A3028 300 81 -1600 110/06 RMK AO2 SNE07 P0000
14840KMKG MKG20021127143011111/27/02 14:30:31  5-MIN KMKG 271930Z 09007KT 10SM SCT060 M02/M04 A3027 310 81 -1600 100/07 RMK AO2 SNE07 P0000
14840KMKG MKG20021127143511111/27/02 14:35:31  5-MIN KMKG 271935Z 13006KT 10SM SCT060 M02/M04 A3027 310 81 -1600 140/06 RMK AO2 SNE07 P0000
14840KMKG MKG20021127144011111/27/02 14:40:31  5-MIN KMKG 271940Z 11006KT 10SM SCT060 M02/M04 A3027 310 81 -1600 110/06 RMK AO2 SNE07 P0000
14840KMKG MKG20021127144511111/27/02 14:45:31  5-MIN KMKG 271945Z 11006KT 10SM FEW035 M02/M04 A3027 310 81 -1600 110/06 RMK AO2 SNE07 P0000
14840KMKG MKG20021127145012811/27/02 14:50:31  5-MIN KMKG 271950Z 12007KT 10SM FEW035 M02/M04 A3027 310 81 -1600 120/07 RMK AO2 SNE07 SLP258 P0000 T10171044
14840KMKG MKG20021127145512811/27/02 14:55:31  5-MIN KMKG 271955Z 13005KT 10SM SCT035 M02/M04 A3027 310 81 -1600 130/05 RMK AO2 SNE07 SLP258 P0000 T10171044
14840KMKG MKG20021127150009911/27/02 15:00:31  5-MIN KMKG 272000Z 12006KT 10SM FEW033 M02/M04 A3027 310 85 -1600 130/06 RMK AO2
14840KMKG MKG20021127150510611/27/02 15:05:31  5-MIN KMKG 272005Z 11004KT 10SM FEW029 SCT046 M02/M04 A3027 310 81 -1600 120/04 RMK AO2
14840KMKG MKG20021127151012111/27/02 15:10:31  5-MIN KMKG 272010Z 12004KT 10SM FEW029 BKN048 M02/M04 A3027 310 81 -1600 120/04 RMK AO2 CIG 031 RWY 14
14840KMKG MKG20021127151511411/27/02 15:15:31  5-MIN KMKG 272015Z 11003KT 10SM BKN046 M02/M04 A3027 310 81 -1600 120/03 RMK AO2 CIG 033 RWY 14
14840KMKG MKG20021127152010611/27/02 15:20:31  5-MIN KMKG 272020Z 12004KT 10SM FEW030 BKN046 M02/M04 A3027 310 81 -1600 120/04 RMK AO2
14840KMKG MKG20021127152510611/27/02 15:25:31  5-MIN KMKG 272025Z 12005KT 10SM FEW030 OVC046 M02/M04 A3026 310 85 -1600 120/05 RMK AO2
14840KMKG MKG20021127153009911/27/02 15:30:31  5-MIN KMKG 272030Z 11005KT 10SM OVC048 M02/M04 A3026 310 85 -1600 110/05 RMK AO2
14840KMKG MKG20021127153509911/27/02 15:35:31  5-MIN KMKG 272035Z 11004KT 10SM OVC048 M02/M04 A3026 310 81 -1600 110/04 RMK AO2
14840KMKG MKG20021127154009911/27/02 15:40:31  5-MIN KMKG 272040Z 12003KT 10SM OVC048 M02/M04 A3027 310 85 -1600 120/03 RMK AO2
14840KMKG MKG20021127154509911/27/02 15:45:31  5-MIN KMKG 272045Z 10004KT 10SM OVC048 M02/M04 A3027 310 85 -1600 100/04 RMK AO2
14840KMKG MKG20021127155012811/27/02 15:50:31  5-MIN KMKG 272050Z 11004KT 10SM OVC048 M02/M04 A3027 310 81 -1600 110/04 RMK AO2 SLP258 60000 T10171044 58009
14840KMKG MKG20021127155512811/27/02 15:55:31  5-MIN KMKG 272055Z 11004KT 10SM OVC048 M02/M04 A3027 310 85 -1600 120/04 RMK AO2 SLP258 60000 T10171039 56011
14840KMKG MKG20021127160009911/27/02 16:00:31  5-MIN KMKG 272100Z 11004KT 10SM OVC046 M02/M04 A3026 310 85 -1600 120/04 RMK AO2
14840KMKG MKG20021127160509911/27/02 16:05:31  5-MIN KMKG 272105Z 12004KT 10SM OVC046 M02/M04 A3026 320 85 -1600 120/04 RMK AO2
14840KMKG MKG20021127161009911/27/02 16:10:31  5-MIN KMKG 272110Z 11005KT 10SM OVC044 M02/M04 A3026 320 85 -1600 120/05 RMK AO2
14840KMKG MKG20021127161509911/27/02 16:15:31  5-MIN KMKG 272115Z 12004KT 10SM OVC044 M02/M04 A3026 320 85 -1600 120/04 RMK AO2
14840KMKG MKG20021127162009911/27/02 16:20:31  5-MIN KMKG 272120Z 12003KT 10SM OVC044 M02/M04 A3026 320 85 -1600 130/03 RMK AO2
14840KMKG MKG20021127162509911/27/02 16:25:31  5-MIN KMKG 272125Z 12004KT 10SM OVC044 M02/M04 A3026 320 85 -1600 120/04 RMK AO2
14840KMKG MKG20021127163009911/27/02 16:30:31  5-MIN KMKG 272130Z 13004KT 10SM OVC046 M02/M04 A3026 310 85 -1600 130/04 RMK AO2
14840KMKG MKG20021127163509911/27/02 16:35:31  5-MIN KMKG 272135Z 12004KT 10SM OVC046 M02/M04 A3026 310 85 -1600 130/04 RMK AO2
14840KMKG MKG20021127164009911/27/02 16:40:31  5-MIN KMKG 272140Z 12003KT 10SM OVC044 M02/M04 A3026 310 85 -1600 130/03 RMK AO2
14840KMKG MKG20021127164509911/27/02 16:45:31  5-MIN KMKG 272145Z 12003KT 10SM OVC044 M02/M04 A3026 310 85 -1600 120/03 RMK AO2
14840KMKG MKG20021127165012311/27/02 16:50:31  5-MIN KMKG 272150Z 13003KT 10SM BKN039 OVC047 M02/M04 A3027 310 85 -1600 130/03 RMK AO2 SLP258 T10171039
14840KMKG MKG20021127165512311/27/02 16:55:31  5-MIN KMKG 272155Z 13003KT 10SM BKN039 BKN047 M02/M04 A3027 310 85 -1600 130/03 RMK AO2 SLP258 T10171039
14840KMKG MKG20021127170011311/27/02 17:00:31  5-MIN KMKG 272200Z 00000KT 10SM FEW030 BKN039 OVC047 M01/M04 A3026 310 81 -1500 000/00 RMK AO2
14840KMKG MKG20021127170510611/27/02 17:05:31  5-MIN KMKG 272205Z 00000KT 10SM FEW030 OVC039 M01/M04 A3027 310 78 -1500 000/00 RMK AO2
14840KMKG MKG20021127171010611/27/02 17:10:31  5-MIN KMKG 272210Z 00000KT 10SM FEW030 OVC043 M02/M04 A3027 310 85 -1600 000/00 RMK AO2
14840KMKG MKG20021127171511311/27/02 17:15:31  5-MIN KMKG 272215Z 00000KT 10SM FEW030 BKN042 OVC055 M02/M04 A3027 310 85 -1600 000/00 RMK AO2
14840KMKG MKG20021127172011311/27/02 17:20:31  5-MIN KMKG 272220Z 00000KT 10SM FEW030 BKN038 OVC055 M01/M04 A3027 310 81 -1500 000/00 RMK AO2
14840KMKG MKG20021127172510611/27/02 17:25:31  5-MIN KMKG 272225Z 09004KT 10SM FEW030 OVC042 M02/M04 A3027 310 85 -1600 090/04 RMK AO2
14840KMKG MKG20021127173010611/27/02 17:30:31  5-MIN KMKG 272230Z 10004KT 10SM BKN040 OVC050 M02/M04 A3027 310 85 -1600 110/04 RMK AO2
14840KMKG MKG20021127173510611/27/02 17:35:31  5-MIN KMKG 272235Z 15004KT 10SM BKN040 OVC047 M02/M03 A3027 310 88 -1600 150/04 RMK AO2
14840KMKG MKG20021127174010611/27/02 17:40:31  5-MIN KMKG 272240Z VRB03KT 10SM BKN038 OVC055 M01/M04 A3026 310 78 -1500 VRB/03 RMK AO2
14840KMKG MKG20021127174510611/27/02 17:45:31  5-MIN KMKG 272245Z 26010KT 10SM BKN035 OVC043 M01/M06 A3026 320 66 -1400 260/10 RMK AO2
14840KMKG MKG20021127175011611/27/02 17:50:31  5-MIN KMKG 272250Z 27010KT 10SM OVC035 M01/M06 A3026 320 69 -1400 270/10 RMK AO2 SLP256 T10061056
14840KMKG MKG20021127175511611/27/02 17:55:31  5-MIN KMKG 272255Z 28008KT 10SM OVC035 M01/M05 A3026 320 72 -1400 280/08 RMK AO2 SLP257 T10061050
14840KMKG MKG20021127180009911/27/02 18:00:31  5-MIN KMKG 272300Z 33009KT 10SM OVC035 M01/M04 A3026 320 75 -1400 340/09 RMK AO2
14840KMKG MKG20021127180509911/27/02 18:05:31  5-MIN KMKG 272305Z 35007KT 10SM OVC035 M01/M04 A3026 320 81 -1500 350/07 RMK AO2
14840KMKG MKG20021127181010611/27/02 18:10:31  5-MIN KMKG 272310Z 36006KT 10SM FEW025 OVC035 M01/M04 A3026 320 81 -1500 360/06 RMK AO2
14840KMKG MKG20021127181510611/27/02 18:15:31  5-MIN KMKG 272315Z 36006KT 10SM FEW025 OVC035 M02/M04 A3026 320 85 -1600 010/06 RMK AO2
14840KMKG MKG20021127182009911/27/02 18:20:31  5-MIN KMKG 272320Z 36005KT 10SM OVC036 M02/M04 A3026 310 85 -1600 360/05 RMK AO2
14840KMKG MKG20021127182509911/27/02 18:25:31  5-MIN KMKG 272325Z 02003KT 10SM OVC036 M02/M04 A3026 320 85 -1600 030/03 RMK AO2
14840KMKG MKG20021127183010611/27/02 18:30:31  5-MIN KMKG 272330Z 04003KT 10SM BKN036 OVC044 M02/M04 A3026 320 85 -1600 040/03 RMK AO2
14840KMKG MKG20021127183510611/27/02 18:35:31  5-MIN KMKG 272335Z 04003KT 10SM FEW031 OVC040 M02/M04 A3026 320 85 -1600 040/03 RMK AO2
14840KMKG MKG20021127184009911/27/02 18:40:31  5-MIN KMKG 272340Z 00000KT 10SM OVC040 M02/M04 A3026 320 85 -1600 000/00 RMK AO2
14840KMKG MKG20021127184509911/27/02 18:45:31  5-MIN KMKG 272345Z 00000KT 10SM OVC040 M02/M04 A3026 320 85 -1600 000/00 RMK AO2
14840KMKG MKG20021127185014011/27/02 18:50:31  5-MIN KMKG 272350Z 00000KT 10SM OVC040 M02/M04 A3026 320 85 -1600 000/00 RMK AO2 SLP256 60000 T10171039 11006 21028 56011
14840KMKG MKG20021127185514511/27/02 18:55:31  5-MIN KMKG 272355Z 06003KT 10SM OVC040 M02/M04 A3026 320 85 -1600 060/03 RMK AO2 SLP257 6000 4/002 T10171039 11006 21028 56001
14840KMKG MKG20021127190009911/27/02 19:00:31  5-MIN KMKG 280000Z 00000KT 10SM OVC040 M02/M04 A3026 320 85 -1600 000/00 RMK AO2
14840KMKG MKG20021127190509911/27/02 19:05:31  5-MIN KMKG 280005Z 00000KT 10SM OVC040 M02/M04 A3026 320 85 -1600 000/00 RMK AO2
14840KMKG MKG20021127191009911/27/02 19:10:31  5-MIN KMKG 280010Z 00000KT 10SM OVC040 M02/M04 A3026 320 85 -1600 000/00 RMK AO2
14840KMKG MKG20021127191509911/27/02 19:15:31  5-MIN KMKG 280015Z 06003KT 10SM OVC040 M02/M04 A3026 320 85 -1600 060/03 RMK AO2
14840KMKG MKG20021127192009911/27/02 19:20:31  5-MIN KMKG 280020Z 05003KT 10SM OVC040 M02/M04 A3026 320 85 -1600 050/03 RMK AO2
14840KMKG MKG20021127192509911/27/02 19:25:31  5-MIN KMKG 280025Z 00000KT 10SM OVC040 M02/M04 A3026 320 88 -1600 000/00 RMK AO2
14840KMKG MKG20021127193010611/27/02 19:30:31  5-MIN KMKG 280030Z 00000KT 10SM BKN040 OVC047 M02/M04 A3026 320 88 -1600 000/00 RMK AO2
14840KMKG MKG20021127193509911/27/02 19:35:31  5-MIN KMKG 280035Z 00000KT 10SM OVC040 M02/M04 A3026 320 88 -1600 000/00 RMK AO2
14840KMKG MKG20021127194009911/27/02 19:40:31  5-MIN KMKG 280040Z VRB03KT 10SM OVC040 M02/M04 A3026 320 88 -1600 VRB/03 RMK AO2
14840KMKG MKG20021127194509911/27/02 19:45:31  5-MIN KMKG 280045Z 00000KT 10SM OVC040 M02/M04 A3026 320 81 -1600 000/00 RMK AO2
14840KMKG MKG20021127195011611/27/02 19:50:31  5-MIN KMKG 280050Z 25003KT 10SM OVC040 M02/M06 A3026 320 75 -1600 250/03 RMK AO2 SLP255 T10171056
14840KMKG MKG20021127195511611/27/02 19:55:31  5-MIN KMKG 280055Z 28004KT 10SM OVC040 M01/M07 A3026 320 63 -1500 280/04 RMK AO2 SLP255 T10111072
14840KMKG MKG20021127200009911/27/02 20:00:31  5-MIN KMKG 280100Z 28004KT 10SM OVC040 M01/M08 A3026 320 60 -1500 290/04 RMK AO2
14840KMKG MKG20021127200509911/27/02 20:05:31  5-MIN KMKG 280105Z 27006KT 10SM OVC038 M01/M08 A3025 320 60 -1500 270/06 RMK AO2
14840KMKG MKG20021127201009911/27/02 20:10:31  5-MIN KMKG 280110Z 25007KT 10SM OVC038 M01/M08 A3025 320 58 -1400 260/07 RMK AO2
14840KMKG MKG20021127201509911/27/02 20:15:31  5-MIN KMKG 280115Z 24006KT 10SM OVC038 M01/M08 A3025 320 58 -1400 240/06 RMK AO2
14840KMKG MKG20021127202009911/27/02 20:20:31  5-MIN KMKG 280120Z 22007KT 10SM OVC038 M01/M08 A3025 320 58 -1400 230/07 RMK AO2
14840KMKG MKG20021127202509911/27/02 20:25:31  5-MIN KMKG 280125Z 25005KT 10SM OVC038 M01/M08 A3026 320 60 -1500 260/05 RMK AO2
14840KMKG MKG20021127203009911/27/02 20:30:31  5-MIN KMKG 280130Z 24006KT 10SM OVC038 M01/M08 A3026 320 58 -1400 250/06 RMK AO2
14840KMKG MKG20021127203509911/27/02 20:35:31  5-MIN KMKG 280135Z 24008KT 10SM OVC038 M01/M08 A3026 320 58 -1400 250/08 RMK AO2
14840KMKG MKG20021127204009911/27/02 20:40:31  5-MIN KMKG 280140Z 25006KT 10SM OVC038 M01/M08 A3025 320 58 -1400 260/06 RMK AO2
14840KMKG MKG20021127204509911/27/02 20:45:31  5-MIN KMKG 280145Z 25005KT 10SM OVC038 M01/M08 A3025 320 58 -1400 260/05 RMK AO2
14840KMKG MKG20021127205011611/27/02 20:50:31  5-MIN KMKG 280150Z 26006KT 10SM OVC040 M01/M08 A3025 330 58 -1400 260/06 RMK AO2 SLP253 T10061078
14840KMKG MKG20021127205511611/27/02 20:55:31  5-MIN KMKG 280155Z 25006KT 10SM OVC040 M01/M08 A3025 320 58 -1400 260/06 RMK AO2 SLP253 T10061078
14840KMKG MKG20021127210009911/27/02 21:00:31  5-MIN KMKG 280200Z 26006KT 10SM OVC040 M01/M08 A3025 320 58 -1400 270/06 RMK AO2
14840KMKG MKG20021127210509911/27/02 21:05:31  5-MIN KMKG 280205Z 25007KT 10SM OVC040 M01/M08 A3025 320 58 -1400 250/07 RMK AO2
14840KMKG MKG20021127211009911/27/02 21:10:31  5-MIN KMKG 280210Z 23004KT 10SM OVC042 M01/M08 A3025 320 58 -1400 240/04 RMK AO2
14840KMKG MKG20021127211509911/27/02 21:15:31  5-MIN KMKG 280215Z 24006KT 10SM OVC042 M01/M08 A3025 330 58 -1400 250/06 RMK AO2
14840KMKG MKG20021127212009911/27/02 21:20:31  5-MIN KMKG 280220Z 25007KT 10SM OVC042 M01/M08 A3025 330 58 -1400 250/07 RMK AO2
14840KMKG MKG20021127212509911/27/02 21:25:31  5-MIN KMKG 280225Z 24007KT 10SM OVC042 M01/M08 A3025 330 58 -1400 250/07 RMK AO2
14840KMKG MKG20021127213009911/27/02 21:30:31  5-MIN KMKG 280230Z 25006KT 10SM OVC042 M01/M08 A3025 330 58 -1400 250/06 RMK AO2
14840KMKG MKG20021127213509911/27/02 21:35:31  5-MIN KMKG 280235Z 25007KT 10SM OVC042 M01/M08 A3025 330 58 -1400 260/07 RMK AO2
14840KMKG MKG20021127214009811/27/02 21:40:31  5-MIN KMKG 280240Z 25006KT 10SM OVC042 00/M08 A3025 330 56 -1300 260/06 RMK AO2
14840KMKG MKG20021127214509811/27/02 21:45:31  5-MIN KMKG 280245Z 26007KT 10SM OVC044 00/M08 A3025 330 56 -1300 260/07 RMK AO2
14840KMKG MKG20021127215012211/27/02 21:50:31  5-MIN KMKG 280250Z 24006KT 10SM OVC044 M01/M08 A3025 330 58 -1400 240/06 RMK AO2 SLP252 T10061078 56001
14840KMKG MKG20021127215512111/27/02 21:55:31  5-MIN KMKG 280255Z 26006KT 10SM OVC044 00/M08 A3025 330 56 -1300 260/06 RMK AO2 SLP252 T00001078 56005
14840KMKG MKG20021127220009811/27/02 22:00:31  5-MIN KMKG 280300Z 25007KT 10SM OVC042 00/M08 A3025 330 56 -1300 260/07 RMK AO2
14840KMKG MKG20021127220509811/27/02 22:05:31  5-MIN KMKG 280305Z 27004KT 10SM OVC042 00/M08 A3025 330 56 -1300 270/04 RMK AO2
14840KMKG MKG20021127221009811/27/02 22:10:31  5-MIN KMKG 280310Z 27004KT 10SM OVC042 00/M08 A3025 330 56 -1300 270/04 RMK AO2
14840KMKG MKG20021127221509911/27/02 22:15:31  5-MIN KMKG 280315Z 26004KT 10SM OVC042 M01/M08 A3025 330 58 -1400 260/04 RMK AO2
14840KMKG MKG20021127222009811/27/02 22:20:31  5-MIN KMKG 280320Z 25005KT 10SM OVC042 00/M07 A3025 330 58 -1300 260/05 RMK AO2
14840KMKG MKG20021127222509811/27/02 22:25:31  5-MIN KMKG 280325Z 26008KT 10SM OVC040 00/M07 A3025 330 58 -1300 270/08 RMK AO2
14840KMKG MKG20021127223011111/27/02 22:30:31  5-MIN KMKG 280330Z 27009G14KT 10SM SCT033 OVC041 00/M06 A3025 330 63 -1300 270/09G14 RMK AO2
14840KMKG MKG20021127223510511/27/02 22:35:31  5-MIN KMKG 280335Z 26011KT 10SM BKN033 OVC041 00/M06 A3025 330 63 -1300 260/11 RMK AO2
14840KMKG MKG20021127224010511/27/02 22:40:31  5-MIN KMKG 280340Z 27013KT 10SM BKN033 OVC041 00/M06 A3025 330 63 -1300 270/13 RMK AO2
14840KMKG MKG20021127224510511/27/02 22:45:31  5-MIN KMKG 280345Z 24009KT 10SM BKN035 OVC041 00/M06 A3025 330 63 -1300 250/09 RMK AO2
14840KMKG MKG20021127225011511/27/02 22:50:31  5-MIN KMKG 280350Z 26008KT 10SM OVC033 00/M06 A3025 330 63 -1300 260/08 RMK AO2 SLP251 T00001061
14840KMKG MKG20021127225511511/27/02 22:55:31  5-MIN KMKG 280355Z 26011KT 10SM OVC033 00/M06 A3025 330 63 -1300 260/11 RMK AO2 SLP251 T00001061
14840KMKG MKG20021127230010511/27/02 23:00:31  5-MIN KMKG 280400Z 25010KT 10SM BKN033 OVC044 00/M06 A3025 330 63 -1300 250/10 RMK AO2
14840KMKG MKG20021127230510511/27/02 23:05:31  5-MIN KMKG 280405Z 26011KT 10SM BKN035 OVC044 00/M07 A3025 330 61 -1300 260/11 RMK AO2
14840KMKG MKG20021127231012011/27/02 23:10:31  5-MIN KMKG 280410Z 26012KT 10SM UP BKN035 OVC044 00/M07 A3025 330 58 -1300 260/12 RMK AO2 UPB07 P0000
14840KMKG MKG20021127231512111/27/02 23:15:31  5-MIN KMKG 280415Z 26013KT 10SM UP BKN035 OVC044 M01/M07 A3025 330 63 -1400 270/13 RMK AO2 UPB07 P0000
14840KMKG MKG20021127232011411/27/02 23:20:31  5-MIN KMKG 280420Z 26010KT 10SM OVC038 M01/M07 A3025 330 63 -1400 260/10 RMK AO2 UPB07E17 P0000
14840KMKG MKG20021127232511411/27/02 23:25:31  5-MIN KMKG 280425Z 25011KT 10SM OVC040 M01/M07 A3025 320 63 -1400 260/11 RMK AO2 UPB07E17 P0000
14840KMKG MKG20021127233012011/27/02 23:30:31  5-MIN KMKG 280430Z 26013G19KT 10SM OVC040 M01/M07 A3025 320 61 -1400 260/13G19 RMK AO2 UPB07E17 P0000
14840KMKG MKG20021127233512011/27/02 23:35:31  5-MIN KMKG 280435Z 25011G19KT 10SM OVC040 M01/M07 A3025 320 61 -1400 260/11G19 RMK AO2 UPB07E17 P0000
14840KMKG MKG20021127234011411/27/02 23:40:31  5-MIN KMKG 280440Z 25010KT 10SM OVC040 M01/M07 A3025 330 61 -1400 260/10 RMK AO2 SNB07E17 P0000
14840KMKG MKG20021127234511411/27/02 23:45:31  5-MIN KMKG 280445Z 26011KT 10SM OVC040 M01/M07 A3025 330 61 -1400 270/11 RMK AO2 SNB07E17 P0000
14840KMKG MKG20021127235014111/27/02 23:50:31  5-MIN KMKG 280450Z 26008KT 10SM OVC040 M01/M08 A3025 330 58 -1400 270/08 RMK AO2 SLP253 SNB07E17 P0000 T10061078 400001056
14840KMKG MKG20021127235514111/27/02 23:55:31  5-MIN KMKG 280455Z 26006KT 10SM OVC040 M01/M08 A3025 330 58 -1400 270/06 RMK AO2 SLP252 SNB07E17 P0000 T10061078 400001056
14840KMKG MKG20021128000010511/28/02 00:00:31  5-MIN KMKG 280500Z 26012G15KT 10SM OVC038 M01/M08 A3025 330 58 -1400 270/12G15 RMK AO2
14840KMKG MKG20021128000509911/28/02 00:05:31  5-MIN KMKG 280505Z 27009KT 10SM OVC038 M01/M07 A3025 330 61 -1400 270/09 RMK AO2
14840KMKG MKG20021128001009911/28/02 00:10:31  5-MIN KMKG 280510Z 27007KT 10SM OVC038 M01/M07 A3024 330 61 -1400 270/07 RMK AO2
14840KMKG MKG20021128001510611/28/02 00:15:31  5-MIN KMKG 280515Z 27010KT 10SM BKN035 OVC042 M01/M07 A3024 330 63 -1400 280/10 RMK AO2
14840KMKG MKG20021128002009911/28/02 00:20:31  5-MIN KMKG 280520Z 25008KT 10SM OVC037 M01/M07 A3024 330 66 -1500 250/08 RMK AO2
14840KMKG MKG20021128002509911/28/02 00:25:31  5-MIN KMKG 280525Z 25010KT 10SM OVC037 M01/M07 A3024 330 63 -1400 250/10 RMK AO2
14840KMKG MKG20021128003009911/28/02 00:30:31  5-MIN KMKG 280530Z 25011KT 10SM OVC035 M01/M07 A3024 340 63 -1400 260/11 RMK AO2
14840KMKG MKG20021128003509911/28/02 00:35:31  5-MIN KMKG 280535Z 26010KT 10SM OVC035 M01/M07 A3024 340 63 -1400 260/10 RMK AO2
14840KMKG MKG20021128004009911/28/02 00:40:31  5-MIN KMKG 280540Z 27010KT 10SM OVC035 M01/M07 A3024 340 66 -1500 270/10 RMK AO2
14840KMKG MKG20021128004510511/28/02 00:45:31  5-MIN KMKG 280545Z 25009G16KT 10SM OVC037 M01/M07 A3023 340 63 -1400 260/09G16 RMK AO2
14840KMKG MKG20021128005014611/28/02 00:50:31  5-MIN KMKG 280550Z 26010G16KT 10SM OVC037 M01/M07 A3023 340 66 -1500 260/10G16 RMK AO2 SLP247 60000 T10111067 10000 21022 56005
14840KMKG MKG20021128005514011/28/02 00:55:31  5-MIN KMKG 280555Z 26008KT 10SM OVC035 M01/M07 A3023 340 66 -1500 260/08 RMK AO2 SLP246 60000 T10111067 10000 21022 58005
14840KMKG MKG20021128010010511/28/02 01:00:31  5-MIN KMKG 280600Z 26011G15KT 10SM OVC035 M01/M07 A3023 340 66 -1500 270/11G15 RMK AO2
14840KMKG MKG20021128010509911/28/02 01:05:31  5-MIN KMKG 280605Z 25011KT 10SM OVC035 M01/M07 A3023 340 66 -1500 260/11 RMK AO2
14840KMKG MKG20021128011009911/28/02 01:10:31  5-MIN KMKG 280610Z 24011KT 10SM OVC035 M01/M07 A3023 350 63 -1500 240/11 RMK AO2
14840KMKG MKG20021128011509911/28/02 01:15:31  5-MIN KMKG 280615Z 26009KT 10SM OVC033 M01/M07 A3023 350 66 -1500 260/09 RMK AO2
14840KMKG MKG20021128012009911/28/02 01:20:31  5-MIN KMKG 280620Z 25009KT 10SM OVC033 M01/M07 A3023 350 66 -1500 260/09 RMK AO2
14840KMKG MKG20021128012509911/28/02 01:25:31  5-MIN KMKG 280625Z 25007KT 10SM OVC033 M01/M06 A3023 350 69 -1500 260/07 RMK AO2
14840KMKG MKG20021128013009911/28/02 01:30:31  5-MIN KMKG 280630Z 24009KT 10SM OVC031 M01/M06 A3022 350 69 -1400 250/09 RMK AO2
14840KMKG MKG20021128013510511/28/02 01:35:31  5-MIN KMKG 280635Z 25012G16KT 10SM OVC031 M01/M06 A3022 350 69 -1400 260/12G16 RMK AO2
14840KMKG MKG20021128014009911/28/02 01:40:31  5-MIN KMKG 280640Z 26009KT 10SM OVC031 M01/M06 A3022 350 69 -1400 260/09 RMK AO2
14840KMKG MKG20021128014509911/28/02 01:45:31  5-MIN KMKG 280645Z 25011KT 10SM OVC031 M01/M06 A3022 350 69 -1400 250/11 RMK AO2
14840KMKG MKG20021128015011611/28/02 01:50:31  5-MIN KMKG 280650Z 25008KT 10SM OVC031 M01/M07 A3022 360 66 -1400 250/08 RMK AO2 SLP242 T10111067
14840KMKG MKG20021128015511611/28/02 01:55:31  5-MIN KMKG 280655Z 25011KT 10SM OVC031 M01/M07 A3022 360 66 -1400 260/11 RMK AO2 SLP241 T10111067
14840KMKG MKG20021128020009911/28/02 02:00:31  5-MIN KMKG 280700Z 24009KT 10SM OVC031 M01/M06 A3022 360 69 -1400 250/09 RMK AO2
14840KMKG MKG20021128020509911/28/02 02:05:31  5-MIN KMKG 280705Z 25011KT 10SM OVC029 M01/M07 A3022 360 66 -1400 260/11 RMK AO2
14840KMKG MKG20021128021009911/28/02 02:10:31  5-MIN KMKG 280710Z 26011KT 10SM OVC031 M01/M07 A3022 360 66 -1400 260/11 RMK AO2
14840KMKG MKG20021128021509911/28/02 02:15:31  5-MIN KMKG 280715Z 24011KT 10SM OVC031 M01/M07 A3021 360 63 -1400 240/11 RMK AO2
14840KMKG MKG20021128022009911/28/02 02:20:31  5-MIN KMKG 280720Z 25010KT 10SM OVC031 M01/M07 A3021 360 63 -1400 250/10 RMK AO2
14840KMKG MKG20021128022510511/28/02 02:25:31  5-MIN KMKG 280725Z 26011G17KT 10SM OVC031 M01/M07 A3021 360 63 -1400 260/11G17 RMK AO2
14840KMKG MKG20021128023010511/28/02 02:30:31  5-MIN KMKG 280730Z 26009G17KT 10SM OVC031 M01/M07 A3021 360 66 -1400 260/09G17 RMK AO2
14840KMKG MKG20021128023509911/28/02 02:35:31  5-MIN KMKG 280735Z 24012KT 10SM OVC031 M01/M07 A3021 360 63 -1400 250/12 RMK AO2
14840KMKG MKG20021128024009911/28/02 02:40:31  5-MIN KMKG 280740Z 26010KT 10SM OVC031 M01/M07 A3021 360 63 -1400 260/10 RMK AO2
14840KMKG MKG20021128024509911/28/02 02:45:31  5-MIN KMKG 280745Z 26011KT 10SM OVC031 M01/M07 A3021 360 63 -1400 260/11 RMK AO2
14840KMKG MKG20021128025011611/28/02 02:50:31  5-MIN KMKG 280750Z 25009KT 10SM OVC031 M01/M07 A3021 360 66 -1400 260/09 RMK AO2 SLP240 T10111067
14840KMKG MKG20021128025511611/28/02 02:55:31  5-MIN KMKG 280755Z 25012KT 10SM OVC031 M01/M07 A3021 360 63 -1400 250/12 RMK AO2 SLP239 T10111072
14840KMKG MKG20021128030010511/28/02 03:00:31  5-MIN KMKG 280800Z 24010G16KT 10SM OVC031 M02/M07 A3021 360 69 -1500 250/10G16 RMK AO2
14840KMKG MKG20021128030510511/28/02 03:05:31  5-MIN KMKG 280805Z 25009G16KT 10SM OVC029 M01/M07 A3021 360 66 -1400 260/09G16 RMK AO2
14840KMKG MKG20021128031009911/28/02 03:10:31  5-MIN KMKG 280810Z 25007KT 10SM OVC029 M01/M07 A3021 360 66 -1400 260/07 RMK AO2
14840KMKG MKG20021128031509911/28/02 03:15:31  5-MIN KMKG 280815Z 24010KT 10SM OVC029 M02/M07 A3021 370 69 -1500 240/10 RMK AO2
14840KMKG MKG20021128032009911/28/02 03:20:31  5-MIN KMKG 280820Z 25009KT 10SM OVC031 M01/M07 A3021 370 63 -1400 260/09 RMK AO2
14840KMKG MKG20021128032509911/28/02 03:25:31  5-MIN KMKG 280825Z 26009KT 10SM OVC031 M02/M07 A3020 370 66 -1500 260/09 RMK AO2
14840KMKG MKG20021128033009911/28/02 03:30:31  5-MIN KMKG 280830Z 25010KT 10SM OVC033 M01/M08 A3020 370 60 -1400 250/10 RMK AO2
14840KMKG MKG20021128033509911/28/02 03:35:31  5-MIN KMKG 280835Z 24009KT 10SM OVC033 M01/M08 A3020 380 60 -1400 250/09 RMK AO2
14840KMKG MKG20021128034009911/28/02 03:40:31  5-MIN KMKG 280840Z 25007KT 10SM OVC033 M02/M08 A3019 380 63 -1500 250/07 RMK AO2
14840KMKG MKG20021128034509911/28/02 03:45:31  5-MIN KMKG 280845Z 25007KT 10SM OVC033 M02/M07 A3019 380 66 -1500 260/07 RMK AO2
14840KMKG MKG20021128035012911/28/02 03:50:31  5-MIN KMKG 280850Z 27008KT 10SM BKN030 OVC036 M01/M07 A3019 380 63 -1400 270/08 RMK AO2 SLP233 T10111072 58005
14840KMKG MKG20021128035512911/28/02 03:55:31  5-MIN KMKG 280855Z 25009KT 10SM BKN029 OVC035 M02/M07 A3019 380 69 -1500 260/09 RMK AO2 SLP233 T10171067 58014
14840KMKG MKG20021128040009911/28/02 04:00:31  5-MIN KMKG 280900Z 24011KT 10SM OVC031 M02/M07 A3019 380 69 -1500 240/11 RMK AO2
14840KMKG MKG20021128040509911/28/02 04:05:31  5-MIN KMKG 280905Z 25012KT 10SM OVC031 M02/M07 A3018 390 66 -1500 250/12 RMK AO2
14840KMKG MKG20021128041009911/28/02 04:10:31  5-MIN KMKG 280910Z 24009KT 10SM OVC031 M02/M08 A3018 390 63 -1500 250/09 RMK AO2
14840KMKG MKG20021128041510611/28/02 04:15:31  5-MIN KMKG 280915Z 25007KT 10SM BKN031 OVC035 M02/M07 A3018 390 66 -1500 260/07 RMK AO2
14840KMKG MKG20021128042010511/28/02 04:20:31  5-MIN KMKG 280920Z 25012G17KT 10SM OVC031 M02/M07 A3018 390 66 -1500 250/12G17 RMK AO2
14840KMKG MKG20021128042510511/28/02 04:25:31  5-MIN KMKG 280925Z 27011G17KT 10SM OVC031 M02/M07 A3018 390 66 -1500 270/11G17 RMK AO2
14840KMKG MKG20021128043009911/28/02 04:30:31  5-MIN KMKG 280930Z 25009KT 10SM OVC031 M02/M08 A3018 390 63 -1500 250/09 RMK AO2
14840KMKG MKG20021128043509911/28/02 04:35:31  5-MIN KMKG 280935Z 26009KT 10SM OVC031 M02/M07 A3018 390 66 -1500 270/09 RMK AO2
14840KMKG MKG20021128044009911/28/02 04:40:31  5-MIN KMKG 280940Z 26008KT 10SM OVC031 M02/M07 A3018 390 66 -1500 270/08 RMK AO2
14840KMKG MKG20021128044509911/28/02 04:45:31  5-MIN KMKG 280945Z 26011KT 10SM OVC033 M02/M07 A3017 400 66 -1500 260/11 RMK AO2
14840KMKG MKG20021128045011611/28/02 04:50:31  5-MIN KMKG 280950Z 25008KT 10SM OVC033 M02/M07 A3018 390 66 -1500 260/08 RMK AO2 SLP227 T10171072
14840KMKG MKG20021128045511611/28/02 04:55:31  5-MIN KMKG 280955Z 26007KT 10SM OVC033 M02/M07 A3017 400 69 -1500 260/07 RMK AO2 SLP226 T10171067
14840KMKG MKG20021128050009911/28/02 05:00:31  5-MIN KMKG 281000Z 26009KT 10SM OVC031 M02/M07 A3017 400 69 -1500 260/09 RMK AO2
14840KMKG MKG20021128050509911/28/02 05:05:31  5-MIN KMKG 281005Z 25008KT 10SM OVC033 M02/M07 A3017 400 66 -1500 260/08 RMK AO2
14840KMKG MKG20021128051009911/28/02 05:10:31  5-MIN KMKG 281010Z 26010KT 10SM OVC033 M02/M07 A3017 400 66 -1500 260/10 RMK AO2
14840KMKG MKG20021128051509911/28/02 05:15:31  5-MIN KMKG 281015Z 24009KT 10SM OVC031 M02/M07 A3017 400 66 -1500 250/09 RMK AO2
14840KMKG MKG20021128052009911/28/02 05:20:31  5-MIN KMKG 281020Z 26010KT 10SM OVC031 M02/M07 A3017 400 66 -1500 260/10 RMK AO2
14840KMKG MKG20021128052509911/28/02 05:25:31  5-MIN KMKG 281025Z 26008KT 10SM OVC031 M02/M07 A3017 400 66 -1500 270/08 RMK AO2
14840KMKG MKG20021128053009911/28/02 05:30:31  5-MIN KMKG 281030Z 26008KT 10SM OVC031 M02/M07 A3017 400 66 -1500 260/08 RMK AO2
14840KMKG MKG20021128053509911/28/02 05:35:31  5-MIN KMKG 281035Z 25008KT 10SM OVC031 M02/M07 A3017 400 69 -1500 260/08 RMK AO2
14840KMKG MKG20021128054009911/28/02 05:40:31  5-MIN KMKG 281040Z 25009KT 10SM OVC033 M02/M07 A3017 400 69 -1500 260/09 RMK AO2
14840KMKG MKG20021128054510611/28/02 05:45:31  5-MIN KMKG 281045Z 26007KT 10SM BKN030 OVC036 M02/M07 A3016 410 69 -1500 260/07 RMK AO2
14840KMKG MKG20021128055011611/28/02 05:50:31  5-MIN KMKG 281050Z 27009KT 10SM OVC030 M02/M07 A3016 410 69 -1500 270/09 RMK AO2 SLP223 T10171067
14840KMKG MKG20021128055511611/28/02 05:55:31  5-MIN KMKG 281055Z 27010KT 10SM OVC032 M02/M07 A3016 410 69 -1500 270/10 RMK AO2 SLP223 T10171067
14840KMKG MKG20021128060009911/28/02 06:00:31  5-MIN KMKG 281100Z 26007KT 10SM OVC032 M02/M07 A3016 410 69 -1500 260/07 RMK AO2
14840KMKG MKG20021128060509911/28/02 06:05:31  5-MIN KMKG 281105Z 27010KT 10SM OVC030 M02/M07 A3016 400 69 -1500 280/10 RMK AO2
14840KMKG MKG20021128061009911/28/02 06:10:31  5-MIN KMKG 281110Z 25009KT 10SM OVC032 M02/M07 A3017 400 66 -1500 260/09 RMK AO2
14840KMKG MKG20021128061510611/28/02 06:15:31  5-MIN KMKG 281115Z 26009KT 10SM SCT030 OVC035 M02/M07 A3017 400 66 -1500 270/09 RMK AO2
14840KMKG MKG20021128062009911/28/02 06:20:31  5-MIN KMKG 281120Z 27011KT 10SM OVC033 M02/M07 A3016 410 66 -1500 270/11 RMK AO2
14840KMKG MKG20021128062509911/28/02 06:25:31  5-MIN KMKG 281125Z 27009KT 10SM OVC032 M02/M07 A3016 410 69 -1500 280/09 RMK AO2
14840KMKG MKG20021128063010611/28/02 06:30:31  5-MIN KMKG 281130Z 26010KT 10SM BKN032 OVC039 M02/M07 A3017 400 66 -1500 260/10 RMK AO2
14840KMKG MKG20021128063510611/28/02 06:35:31  5-MIN KMKG 281135Z 26008KT 10SM BKN032 OVC039 M02/M07 A3016 410 66 -1500 260/08 RMK AO2
14840KMKG MKG20021128064009911/28/02 06:40:31  5-MIN KMKG 281140Z 26010KT 10SM OVC032 M02/M07 A3016 410 66 -1400 260/10 RMK AO2
14840KMKG MKG20021128064509811/28/02 06:45:31  5-MIN KMKG 281145Z 27008KT 9SM OVC032 M02/M07 A3016 410 69 -1400 280/08 RMK AO2
14840KMKG MKG20021128065013311/28/02 06:50:31  5-MIN KMKG 281150Z 27009KT 9SM OVC032 M02/M07 A3016 410 69 -1400 280/09 RMK AO2 SLP222 T10171067 11011 21017 58014
14840KMKG MKG20021128065513911/28/02 06:55:31  5-MIN KMKG 281155Z 26008KT 9SM OVC032 M02/M07 A3016 410 69 -1400 260/08 RMK AO2 SLP222 4/002 T10171067 11011 21017 56010
14840KMKG MKG20021128070009811/28/02 07:00:31  5-MIN KMKG 281200Z 26009KT 9SM OVC030 M02/M07 A3016 410 69 -1400 270/09 RMK AO2
14840KMKG MKG20021128070509811/28/02 07:05:31  5-MIN KMKG 281205Z 27010KT 9SM OVC030 M02/M06 A3016 410 72 -1400 270/10 RMK AO2
14840KMKG MKG20021128071009811/28/02 07:10:31  5-MIN KMKG 281210Z 27010KT 9SM OVC028 M01/M07 A3016 410 66 -1400 280/10 RMK AO2
14840KMKG MKG20021128071509811/28/02 07:15:31  5-MIN KMKG 281215Z 27013KT 9SM OVC028 M02/M06 A3016 410 72 -1400 270/13 RMK AO2
14840KMKG MKG20021128072009811/28/02 07:20:31  5-MIN KMKG 281220Z 26011KT 9SM OVC028 M01/M07 A3016 410 66 -1400 270/11 RMK AO2
14840KMKG MKG20021128072509811/28/02 07:25:31  5-MIN KMKG 281225Z 27011KT 9SM OVC028 M01/M06 A3016 410 69 -1400 270/11 RMK AO2
14840KMKG MKG20021128073009811/28/02 07:30:31  5-MIN KMKG 281230Z 28008KT 9SM OVC028 M01/M06 A3016 410 69 -1400 280/08 RMK AO2
14840KMKG MKG20021128073509811/28/02 07:35:31  5-MIN KMKG 281235Z 26009KT 8SM OVC028 M01/M06 A3016 410 69 -1400 260/09 RMK AO2
14840KMKG MKG20021128074009811/28/02 07:40:31  5-MIN KMKG 281240Z 26009KT 8SM OVC028 M01/M06 A3015 410 69 -1400 270/09 RMK AO2
14840KMKG MKG20021128074509811/28/02 07:45:31  5-MIN KMKG 281245Z 27008KT 8SM OVC028 M01/M06 A3015 420 69 -1400 270/08 RMK AO2
14840KMKG MKG20021128075011511/28/02 07:50:31  5-MIN KMKG 281250Z 27010KT 8SM OVC028 M01/M06 A3015 420 69 -1400 270/10 RMK AO2 SLP219 T10111061
14840KMKG MKG20021128075511511/28/02 07:55:31  5-MIN KMKG 281255Z 26009KT 8SM OVC028 M01/M06 A3015 420 72 -1400 270/09 RMK AO2 SLP219 T10111056
14840KMKG MKG20021128080009811/28/02 08:00:31  5-MIN KMKG 281300Z 24011KT 8SM OVC028 M01/M06 A3015 420 69 -1400 250/11 RMK AO2
14840KMKG MKG20021128080510411/28/02 08:05:31  5-MIN KMKG 281305Z 26012G16KT 8SM OVC028 M01/M06 A3015 420 69 -1400 260/12G16 RMK AO2
14840KMKG MKG20021128081010511/28/02 08:10:31  5-MIN KMKG 281310Z 27013KT 8SM BKN028 OVC034 M01/M06 A3015 420 69 -1400 270/13 RMK AO2
14840KMKG MKG20021128081510411/28/02 08:15:31  5-MIN KMKG 281315Z 26012G17KT 8SM OVC030 M01/M06 A3015 420 69 -1400 270/12G17 RMK AO2
14840KMKG MKG20021128082009811/28/02 08:20:31  5-MIN KMKG 281320Z 25010KT 8SM OVC030 M01/M06 A3015 420 69 -1400 250/10 RMK AO2
14840KMKG MKG20021128082509811/28/02 08:25:31  5-MIN KMKG 281325Z 24013KT 7SM OVC030 M01/M06 A3015 420 69 -1400 250/13 RMK AO2
14840KMKG MKG20021128083010111/28/02 08:30:31  5-MIN KMKG 281330Z 25013KT 6SM HZ OVC030 M01/M06 A3015 420 69 -1400 260/13 RMK AO2
14840KMKG MKG20021128083509811/28/02 08:35:31  5-MIN KMKG 281335Z 26013KT 7SM OVC030 M01/M06 A3014 420 69 -1400 260/13 RMK AO2
14840KMKG MKG20021128084009811/28/02 08:40:31  5-MIN KMKG 281340Z 26012KT 7SM OVC030 M01/M06 A3014 430 69 -1400 260/12 RMK AO2
14840KMKG MKG20021128084509811/28/02 08:45:31  5-MIN KMKG 281345Z 26011KT 7SM OVC030 M01/M06 A3014 430 69 -1400 260/11 RMK AO2
14840KMKG MKG20021128085011511/28/02 08:50:31  5-MIN KMKG 281350Z 25011KT 7SM OVC030 M01/M06 A3014 430 69 -1400 260/11 RMK AO2 SLP214 T10111061
14840KMKG MKG20021128085511511/28/02 08:55:31  5-MIN KMKG 281355Z 25008KT 7SM OVC030 M01/M06 A3014 430 69 -1400 260/08 RMK AO2 SLP214 T10111061
14840KMKG MKG20021128090009811/28/02 09:00:31  5-MIN KMKG 281400Z 25011KT 7SM OVC030 M01/M06 A3014 430 69 -1300 260/11 RMK AO2
14840KMKG MKG20021128090510511/28/02 09:05:31  5-MIN KMKG 281405Z 24009KT 7SM BKN030 OVC035 M01/M06 A3014 430 72 -1300 250/09 RMK AO2
14840KMKG MKG20021128091011111/28/02 09:10:31  5-MIN KMKG 281410Z 26013G18KT 7SM BKN030 OVC035 M01/M06 A3013 430 72 -1300 260/13G18 RMK AO2
14840KMKG MKG20021128091510411/28/02 09:15:31  5-MIN KMKG 281415Z 25011G18KT 7SM OVC030 M01/M06 A3013 440 69 -1300 250/11G18 RMK AO2
14840KMKG MKG20021128092009811/28/02 09:20:31  5-MIN KMKG 281420Z 25011KT 7SM OVC030 M01/M06 A3013 440 72 -1300 250/11 RMK AO2
14840KMKG MKG20021128092509811/28/02 09:25:31  5-MIN KMKG 281425Z 25008KT 7SM OVC030 M01/M06 A3013 440 72 -1300 260/08 RMK AO2
14840KMKG MKG20021128093010411/28/02 09:30:31  5-MIN KMKG 281430Z 25012G16KT 7SM OVC030 M01/M06 A3013 440 72 -1300 250/12G16 RMK AO2
14840KMKG MKG20021128093510511/28/02 09:35:31  5-MIN KMKG 281435Z 24010KT 7SM BKN027 OVC032 M01/M06 A3013 440 72 -1300 250/10 RMK AO2
14840KMKG MKG20021128094010511/28/02 09:40:31  5-MIN KMKG 281440Z 24012KT 7SM BKN027 OVC032 M01/M05 A3013 440 75 -1300 250/12 RMK AO2
14840KMKG MKG20021128094510511/28/02 09:45:31  5-MIN KMKG 281445Z 25013KT 7SM BKN027 OVC032 M01/M05 A3013 440 75 -1300 250/13 RMK AO2
14840KMKG MKG20021128095012711/28/02 09:50:31  5-MIN KMKG 281450Z 24012G19KT 7SM OVC027 M01/M05 A3013 440 75 -1300 240/12G19 RMK AO2 SLP210 T10111050 56010
14840KMKG MKG20021128095512111/28/02 09:55:31  5-MIN KMKG 281455Z 24011KT 7SM OVC025 M01/M05 A3013 440 75 -1300 250/11 RMK AO2 SLP210 T10111050 58011
14840KMKG MKG20021128100009811/28/02 10:00:31  5-MIN KMKG 281500Z 24014KT 7SM OVC025 M01/M05 A3013 440 75 -1300 250/14 RMK AO2
14840KMKG MKG20021128100509811/28/02 10:05:31  5-MIN KMKG 281505Z 24014KT 7SM OVC025 M01/M06 A3013 440 72 -1300 240/14 RMK AO2
14840KMKG MKG20021128101009811/28/02 10:10:31  5-MIN KMKG 281510Z 24012KT 7SM OVC025 M01/M06 A3013 440 72 -1300 250/12 RMK AO2
14840KMKG MKG20021128101509811/28/02 10:15:31  5-MIN KMKG 281515Z 24013KT 7SM OVC025 M01/M06 A3013 440 72 -1300 250/13 RMK AO2
14840KMKG MKG20021128102010411/28/02 10:20:31  5-MIN KMKG 281520Z 24012G19KT 8SM OVC025 M01/M06 A3013 440 72 -1300 250/12G19 RMK AO2
14840KMKG MKG20021128102510411/28/02 10:25:31  5-MIN KMKG 281525Z 24013G19KT 8SM OVC025 M01/M06 A3013 440 72 -1300 240/13G19 RMK AO2
14840KMKG MKG20021128103010411/28/02 10:30:31  5-MIN KMKG 281530Z 24011G18KT 8SM OVC027 M01/M05 A3013 440 75 -1300 250/11G18 RMK AO2
14840KMKG MKG20021128103509811/28/02 10:35:31  5-MIN KMKG 281535Z 23013KT 8SM OVC025 M01/M05 A3013 440 75 -1300 230/13 RMK AO2
14840KMKG MKG20021128104010411/28/02 10:40:31  5-MIN KMKG 281540Z 24011G18KT 7SM OVC025 M01/M05 A3013 440 75 -1300 250/11G18 RMK AO2
14840KMKG MKG20021128104510411/28/02 10:45:31  5-MIN KMKG 281545Z 24012G18KT 7SM OVC025 M01/M05 A3013 440 75 -1300 240/12G18 RMK AO2
14840KMKG MKG20021128105011511/28/02 10:50:31  5-MIN KMKG 281550Z 25011KT 8SM OVC025 M01/M05 A3012 440 75 -1300 250/11 RMK AO2 SLP209 T10111050
14840KMKG MKG20021128105512111/28/02 10:55:31  5-MIN KMKG 281555Z 24015G21KT 8SM OVC023 M01/M05 A3013 440 75 -1300 250/15G21 RMK AO2 SLP209 T10111050
14840KMKG MKG20021128110010411/28/02 11:00:31  5-MIN KMKG 281600Z 25013G21KT 8SM OVC023 M01/M05 A3012 440 75 -1300 250/13G21 RMK AO2
14840KMKG MKG20021128110510411/28/02 11:05:31  5-MIN KMKG 281605Z 24014G20KT 8SM OVC023 M01/M05 A3012 440 75 -1300 240/14G20 RMK AO2
14840KMKG MKG20021128111010411/28/02 11:10:31  5-MIN KMKG 281610Z 23015G20KT 8SM OVC023 M01/M05 A3012 450 75 -1300 240/15G20 RMK AO2
14840KMKG MKG20021128111510411/28/02 11:15:31  5-MIN KMKG 281615Z 24013G21KT 8SM OVC023 M01/M05 A3012 450 75 -1300 240/13G21 RMK AO2
14840KMKG MKG20021128112010411/28/02 11:20:31  5-MIN KMKG 281620Z 24013G19KT 8SM OVC023 M01/M05 A3012 450 75 -1300 250/13G19 RMK AO2
14840KMKG MKG20021128112510411/28/02 11:25:31  5-MIN KMKG 281625Z 22012G19KT 7SM OVC023 M01/M05 A3011 450 75 -1300 230/12G19 RMK AO2
14840KMKG MKG20021128113010411/28/02 11:30:31  5-MIN KMKG 281630Z 24014G19KT 7SM OVC023 M01/M05 A3011 460 75 -1300 240/14G19 RMK AO2
14840KMKG MKG20021128113510411/28/02 11:35:31  5-MIN KMKG 281635Z 24013G19KT 7SM OVC023 M01/M05 A3011 460 75 -1300 240/13G19 RMK AO2
14840KMKG MKG20021128114009811/28/02 11:40:31  5-MIN KMKG 281640Z 25011KT 7SM OVC023 M01/M05 A3011 460 75 -1300 250/11 RMK AO2
14840KMKG MKG20021128114509811/28/02 11:45:31  5-MIN KMKG 281645Z 24012KT 7SM OVC023 M01/M05 A3011 450 75 -1300 250/12 RMK AO2
14840KMKG MKG20021128115011511/28/02 11:50:31  5-MIN KMKG 281650Z 25011KT 7SM OVC023 M01/M04 A3010 460 78 -1300 250/11 RMK AO2 SLP202 T10111044
14840KMKG MKG20021128115511511/28/02 11:55:31  5-MIN KMKG 281655Z 25012KT 7SM OVC021 M01/M05 A3011 460 75 -1300 260/12 RMK AO2 SLP203 T10111050
14840KMKG MKG20021128120009811/28/02 12:00:31  5-MIN KMKG 281700Z 24012KT 7SM OVC023 M01/M05 A3011 460 75 -1300 250/12 RMK AO2
14840KMKG MKG20021128120510411/28/02 12:05:31  5-MIN KMKG 281705Z 26013G19KT 7SM OVC023 M01/M05 A3010 460 75 -1300 270/13G19 RMK AO2
14840KMKG MKG20021128121010411/28/02 12:10:31  5-MIN KMKG 281710Z 24014G19KT 7SM OVC023 M01/M05 A3010 470 75 -1300 250/14G19 RMK AO2
14840KMKG MKG20021128121510711/28/02 12:15:31  5-MIN KMKG 281715Z 25014G18KT 6SM HZ OVC023 M01/M05 A3009 470 75 -1300 250/14G18 RMK AO2
14840KMKG MKG20021128122010411/28/02 12:20:31  5-MIN KMKG 281720Z 26011G18KT 7SM OVC023 M01/M05 A3009 470 75 -1300 260/11G18 RMK AO2
14840KMKG MKG20021128122510411/28/02 12:25:31  5-MIN KMKG 281725Z 24011G18KT 7SM OVC023 M01/M05 A3009 480 75 -1300 250/11G18 RMK AO2
14840KMKG MKG20021128123010411/28/02 12:30:31  5-MIN KMKG 281730Z 25012G18KT 7SM OVC023 M01/M04 A3009 480 78 -1300 250/12G18 RMK AO2
14840KMKG MKG20021128123510411/28/02 12:35:31  5-MIN KMKG 281735Z 26011G18KT 7SM OVC023 M01/M05 A3008 480 75 -1300 260/11G18 RMK AO2
14840KMKG MKG20021128124009811/28/02 12:40:31  5-MIN KMKG 281740Z 25011KT 7SM OVC023 M01/M05 A3008 480 75 -1300 250/11 RMK AO2
14840KMKG MKG20021128124510411/28/02 12:45:31  5-MIN KMKG 281745Z 25011G20KT 8SM OVC023 M01/M05 A3008 490 75 -1300 250/11G20 RMK AO2
14840KMKG MKG20021128125013911/28/02 12:50:31  5-MIN KMKG 281750Z 24011G20KT 8SM OVC023 M01/M05 A3007 490 75 -1300 240/11G20 RMK AO2 SLP193 T10111050 11011 21017 58011
14840KMKG MKG20021128125513911/28/02 12:55:31  5-MIN KMKG 281755Z 25012G19KT 7SM OVC023 M01/M04 A3007 490 78 -1300 250/12G19 RMK AO2 SLP191 T10111044 11011 21017 58019
14840KMKG MKG20021128130010411/28/02 13:00:31  5-MIN KMKG 281800Z 25010G19KT 7SM OVC023 M01/M04 A3007 490 78 -1300 250/10G19 RMK AO2
14840KMKG MKG20021128130509811/28/02 13:05:31  5-MIN KMKG 281805Z 26012KT 7SM OVC023 M01/M04 A3007 490 75 -1200 260/12 RMK AO2
14840KMKG MKG20021128131009811/28/02 13:10:31  5-MIN KMKG 281810Z 25009KT 7SM OVC023 M01/M04 A3007 490 75 -1200 260/09 RMK AO2
14840KMKG MKG20021128131510411/28/02 13:15:31  5-MIN KMKG 281815Z 25010G17KT 7SM OVC023 M01/M04 A3007 490 75 -1200 260/10G17 RMK AO2
14840KMKG MKG20021128132009811/28/02 13:20:31  5-MIN KMKG 281820Z 25012KT 8SM OVC023 M01/M05 A3006 500 72 -1200 250/12 RMK AO2
14840KMKG MKG20021128132510411/28/02 13:25:31  5-MIN KMKG 281825Z 24013G19KT 8SM OVC023 M01/M04 A3006 500 75 -1200 250/13G19 RMK AO2
14840KMKG MKG20021128133011911/28/02 13:30:31  5-MIN KMKG 281830Z 25010G19KT 7SM UP OVC023 M01/M04 A3006 500 75 -1200 250/10G19 RMK AO2 UPB30 P0000
14840KMKG MKG20021128133511311/28/02 13:35:31  5-MIN KMKG 281835Z 25011KT 7SM UP OVC023 M01/M04 A3006 500 75 -1200 250/11 RMK AO2 UPB30 P0000
14840KMKG MKG20021128134011911/28/02 13:40:31  5-MIN KMKG 281840Z 24011G17KT 7SM OVC023 M01/M04 A3006 510 78 -1300 240/11G17 RMK AO2 UPB30E39 P0000
14840KMKG MKG20021128134511311/28/02 13:45:31  5-MIN KMKG 281845Z 24011KT 7SM OVC023 M01/M04 A3005 510 78 -1300 250/11 RMK AO2 UPB30E39 P0000
14840KMKG MKG20021128135013011/28/02 13:50:31  5-MIN KMKG 281850Z 24013KT 7SM OVC023 M01/M04 A3005 510 78 -1200 240/13 RMK AO2 UPB30E39 SLP184 P0000 T10111044
14840KMKG MKG20021128135513011/28/02 13:55:31  5-MIN KMKG 281855Z 24010KT 7SM OVC023 M01/M04 A3005 510 78 -1200 250/10 RMK AO2 UPB30E39 SLP184 P0000 T10111044
14840KMKG MKG20021128140012111/28/02 14:00:31  5-MIN KMKG 281900Z 24014G18KT 7SM OVC023 M01/M04 A3005 510 78 -1200 240/14G18 RMK AO2 UPB1857E00 P0000
14840KMKG MKG20021128140512111/28/02 14:05:31  5-MIN KMKG 281905Z 23015G20KT 7SM UP OVC023 M01/M04 A3005 510 78 -1200 230/15G20 RMK AO2 UPB1857 P0000
14840KMKG MKG20021128141012111/28/02 14:10:31  5-MIN KMKG 281910Z 23015G20KT 7SM OVC023 M01/M04 A3005 510 78 -1200 240/15G20 RMK AO2 UPB1857E07 P0000
14840KMKG MKG20021128141511511/28/02 14:15:31  5-MIN KMKG 281915Z 24014KT 8SM OVC023 M01/M05 A3005 510 75 -1200 240/14 RMK AO2 UPB1857E07 P0000
14840KMKG MKG20021128142012811/28/02 14:20:31  5-MIN KMKG 281920Z 24012G18KT 8SM BKN023 OVC028 M01/M05 A3004 520 75 -1200 240/12G18 RMK AO2 UPB1857E07 P0000
14840KMKG MKG20021128142511511/28/02 14:25:31  5-MIN KMKG 281925Z 25009KT 8SM OVC023 M01/M05 A3004 520 75 -1200 250/09 RMK AO2 UPB1857E07 P0000
14840KMKG MKG20021128143012111/28/02 14:30:31  5-MIN KMKG 281930Z 23013G17KT 8SM OVC023 M01/M04 A3004 520 78 -1200 240/13G17 RMK AO2 UPB1857E07 P0000
14840KMKG MKG20021128143512111/28/02 14:35:31  5-MIN KMKG 281935Z 24011G18KT 8SM OVC023 M01/M05 A3004 520 75 -1200 240/11G18 RMK AO2 UPB1857E07 P0000
14840KMKG MKG20021128144012111/28/02 14:40:31  5-MIN KMKG 281940Z 24009G18KT 9SM OVC023 M01/M05 A3004 520 75 -1200 250/09G18 RMK AO2 UPB1857E07 P0000
14840KMKG MKG20021128144511611/28/02 14:45:31  5-MIN KMKG 281945Z 24008KT 10SM OVC023 M01/M06 A3004 520 72 -1200 250/08 RMK AO2 UPB1857E07 P0000
14840KMKG MKG20021128145013911/28/02 14:50:31  5-MIN KMKG 281950Z 25012G15KT 10SM OVC023 M01/M05 A3004 520 75 -1200 260/12G15 RMK AO2 UPB1857E07 SLP181 P0000 T10111050
14840KMKG MKG20021128145513311/28/02 14:55:31  5-MIN KMKG 281955Z 23010KT 10SM OVC023 M01/M05 A3003 530 75 -1200 240/10 RMK AO2 SNB1857E07 SLP181 P0000 T10111050
14840KMKG MKG20021128150010511/28/02 15:00:31  5-MIN KMKG 282000Z 23012G18KT 10SM OVC025 M01/M05 A3003 530 75 -1200 230/12G18 RMK AO2
14840KMKG MKG20021128150510511/28/02 15:05:31  5-MIN KMKG 282005Z 24012G18KT 10SM OVC025 M01/M06 A3003 530 69 -1200 240/12G18 RMK AO2
14840KMKG MKG20021128151010611/28/02 15:10:31  5-MIN KMKG 282010Z 24012KT 10SM BKN025 OVC031 M01/M05 A3002 530 72 -1100 240/12 RMK AO2
14840KMKG MKG20021128151511211/28/02 15:15:31  5-MIN KMKG 282015Z 25014G18KT 10SM BKN025 OVC033 M01/M06 A3002 540 69 -1100 260/14G18 RMK AO2
14840KMKG MKG20021128152010511/28/02 15:20:31  5-MIN KMKG 282020Z 24010G18KT 10SM OVC025 M01/M05 A3002 540 72 -1100 240/10G18 RMK AO2
14840KMKG MKG20021128152511211/28/02 15:25:31  5-MIN KMKG 282025Z 22014G17KT 10SM BKN025 OVC031 M01/M05 A3002 540 72 -1100 230/14G17 RMK AO2
14840KMKG MKG20021128153009911/28/02 15:30:31  5-MIN KMKG 282030Z 25010KT 10SM OVC027 M01/M05 A3002 540 72 -1100 250/10 RMK AO2
14840KMKG MKG20021128153509911/28/02 15:35:31  5-MIN KMKG 282035Z 25011KT 10SM OVC029 M01/M05 A3002 540 72 -1100 250/11 RMK AO2
14840KMKG MKG20021128154010611/28/02 15:40:31  5-MIN KMKG 282040Z 24010KT 10SM BKN026 OVC032 M01/M05 A3001 540 72 -1100 250/10 RMK AO2
14840KMKG MKG20021128154511211/28/02 15:45:31  5-MIN KMKG 282045Z 24012G16KT 10SM BKN028 OVC034 M01/M05 A3001 550 72 -1100 240/12G16 RMK AO2
14840KMKG MKG20021128155014111/28/02 15:50:31  5-MIN KMKG 282050Z 24012G16KT 10SM BKN028 OVC034 M01/M04 A3001 550 75 -1100 250/12G16 RMK AO2 SLP169 60000 T10061044 58019
14840KMKG MKG20021128155512711/28/02 15:55:31  5-MIN KMKG 282055Z 23013KT 10SM OVC028 00/M04 A3001 550 72 -1100 230/13 RMK AO2 SLP169 60000 T00001044 58021
14840KMKG MKG20021128160010511/28/02 16:00:31  5-MIN KMKG 282100Z 24010KT 10SM BKN028 OVC034 00/M04 A3000 550 72 -1100 250/10 RMK AO2
14840KMKG MKG20021128160510511/28/02 16:05:31  5-MIN KMKG 282105Z 25014KT 10SM BKN028 OVC034 00/M05 A3000 550 69 -1100 250/14 RMK AO2
14840KMKG MKG20021128161010511/28/02 16:10:31  5-MIN KMKG 282110Z 24012KT 10SM BKN028 OVC034 00/M04 A3000 560 72 -1000 240/12 RMK AO2
14840KMKG MKG20021128161509811/28/02 16:15:31  5-MIN KMKG 282115Z 24014KT 10SM OVC028 00/M04 A2999 560 72 -1000 240/14 RMK AO2
14840KMKG MKG20021128162010411/28/02 16:20:31  5-MIN KMKG 282120Z 24014G19KT 10SM OVC028 00/M04 A2999 570 72 -1000 240/14G19 RMK AO2
14840KMKG MKG20021128162510411/28/02 16:25:31  5-MIN KMKG 282125Z 23010G19KT 10SM OVC028 00/M04 A2998 570 72 -1000 230/10G19 RMK AO2
14840KMKG MKG20021128163010411/28/02 16:30:31  5-MIN KMKG 282130Z 23012G17KT 10SM OVC028 00/M04 A2998 570 75 -1000 230/12G17 RMK AO2
14840KMKG MKG20021128163510411/28/02 16:35:31  5-MIN KMKG 282135Z 23013G18KT 10SM OVC028 00/M04 A2998 580 75 -1000 240/13G18 RMK AO2
14840KMKG MKG20021128164011111/28/02 16:40:31  5-MIN KMKG 282140Z 24015G19KT 10SM BKN028 OVC032 01/M04 A2998 580 72 -1000 240/15G19 RMK AO2
14840KMKG MKG20021128164510411/28/02 16:45:31  5-MIN KMKG 282145Z 22012G19KT 10SM OVC028 01/M03 A2997 580 75 -1000 230/12G19 RMK AO2
14840KMKG MKG20021128165012011/28/02 16:50:31  5-MIN KMKG 282150Z 23013KT 9SM BKN025 OVC031 01/M03 A2997 580 75 -900 230/13 RMK AO2 SLP157 T00061033
14840KMKG MKG20021128165511911/28/02 16:55:31  5-MIN KMKG 282155Z 23013G19KT 9SM OVC027 01/M03 A2997 580 75 -900 230/13G19 RMK AO2 SLP157 T00061033
14840KMKG MKG20021128170010911/28/02 17:00:31  5-MIN KMKG 282200Z 23016G21KT 9SM BKN027 OVC032 01/M03 A2997 580 75 -900 230/16G21 RMK AO2
14840KMKG MKG20021128170510211/28/02 17:05:31  5-MIN KMKG 282205Z 23014G21KT 9SM OVC027 01/M03 A2997 590 78 -900 230/14G21 RMK AO2
14840KMKG MKG20021128171010311/28/02 17:10:31  5-MIN KMKG 282210Z 22014G20KT 10SM OVC027 01/M03 A2997 590 78 -900 230/14G20 RMK AO2
14840KMKG MKG20021128171511011/28/02 17:15:31  5-MIN KMKG 282215Z 23016G23KT 10SM BKN027 OVC033 01/M03 A2997 590 78 -900 230/16G23 RMK AO2
14840KMKG MKG20021128172011011/28/02 17:20:31  5-MIN KMKG 282220Z 22014G23KT 10SM BKN027 OVC033 01/M03 A2997 580 78 -900 230/14G23 RMK AO2
14840KMKG MKG20021128172511711/28/02 17:25:31  5-MIN KMKG 282225Z 22017G24KT 10SM SCT023 BKN028 OVC034 01/M02 A2997 590 82 -900 230/17G24 RMK AO2
14840KMKG MKG20021128173011611/28/02 17:30:31  5-MIN KMKG 282230Z 22014G24KT 9SM SCT024 BKN030 OVC035 01/M03 A2997 590 75 -900 220/14G24 RMK AO2
14840KMKG MKG20021128173514211/28/02 17:35:31  5-MIN KMKG 282235Z 22017G26KT 9SM SCT024 OVC034 01/M03 A2996 590 78 -900 220/17G26 RMK AO2 PK WND 21026/2233 CIG 026 RWY 14
14840KMKG MKG20021128174012711/28/02 17:40:31  5-MIN KMKG 282240Z 23015G26KT 9SM SCT024 OVC032 01/M03 A2996 590 78 -900 230/15G26 RMK AO2 PK WND 21026/2233
14840KMKG MKG20021128174512111/28/02 17:45:31  5-MIN KMKG 282245Z 22014KT 9SM SCT024 OVC032 01/M02 A2995 600 82 -900 220/14 RMK AO2 PK WND 21026/2233
14840KMKG MKG20021128175013811/28/02 17:50:31  5-MIN KMKG 282250Z 22018KT 9SM BKN024 OVC032 01/M02 A2995 610 82 -900 220/18 RMK AO2 PK WND 21026/2233 SLP149 T00061022
14840KMKG MKG20021128175514411/28/02 17:55:31  5-MIN KMKG 282255Z 22015G22KT 9SM BKN024 OVC032 01/M02 A2995 610 78 -900 230/15G22 RMK AO2 PK WND 21026/2233 SLP149 T00111022
14840KMKG MKG20021128180010911/28/02 18:00:31  5-MIN KMKG 282300Z 23016G23KT 9SM BKN024 OVC032 01/M02 A2994 610 78 -800 230/16G23 RMK AO2
14840KMKG MKG20021128180510911/28/02 18:05:31  5-MIN KMKG 282305Z 22016G23KT 9SM BKN024 OVC032 01/M02 A2994 610 78 -800 230/16G23 RMK AO2
14840KMKG MKG20021128181010911/28/02 18:10:31  5-MIN KMKG 282310Z 22017G25KT 9SM BKN026 OVC033 01/M02 A2994 610 78 -800 230/17G25 RMK AO2
14840KMKG MKG20021128181510911/28/02 18:15:31  5-MIN KMKG 282315Z 23015G25KT 9SM BKN026 OVC032 01/M02 A2994 610 78 -800 230/15G25 RMK AO2
14840KMKG MKG20021128182010911/28/02 18:20:31  5-MIN KMKG 282320Z 21016G23KT 9SM BKN026 OVC032 01/M02 A2994 610 78 -800 220/16G23 RMK AO2
14840KMKG MKG20021128182512711/28/02 18:25:31  5-MIN KMKG 282325Z 22019G26KT 9SM BKN026 OVC032 01/M02 A2994 610 82 -800 230/19G26 RMK AO2 PK WND 22026/2323
14840KMKG MKG20021128183012711/28/02 18:30:31  5-MIN KMKG 282330Z 22020G26KT 9SM BKN027 OVC034 01/M02 A2994 610 78 -800 230/20G26 RMK AO2 PK WND 22026/2323
14840KMKG MKG20021128183512711/28/02 18:35:31  5-MIN KMKG 282335Z 23016G26KT 9SM BKN026 OVC032 02/M02 A2993 620 75 -800 230/16G26 RMK AO2 PK WND 22026/2333
14840KMKG MKG20021128184012811/28/02 18:40:31  5-MIN KMKG 282340Z 23015G26KT 10SM BKN026 OVC032 02/M02 A2994 620 75 -800 230/15G26 RMK AO2 PK WND 22026/2333
14840KMKG MKG20021128184512811/28/02 18:45:31  5-MIN KMKG 282345Z 22019G25KT 10SM BKN026 OVC032 02/M02 A2993 620 78 -800 230/19G25 RMK AO2 PK WND 22026/2333
14840KMKG MKG20021128185016911/28/02 18:50:31  5-MIN KMKG 282350Z 22018G25KT 10SM BKN028 OVC036 02/M02 A2993 620 75 -800 230/18G25 RMK AO2 PK WND 22026/2333 SLP142 60000 T00171022 10017 21011 58021
14840KMKG MKG20021128185516911/28/02 18:55:31  5-MIN KMKG 282355Z 22014G25KT 10SM BKN028 OVC036 02/M02 A2992 630 78 -800 230/14G25 RMK AO2 PK WND 22026/2333 SLP140 60000 T00171017 10017 21011 56028
14840KMKG MKG20021128190011011/28/02 19:00:31  5-MIN KMKG 290000Z 22016G23KT 10SM BKN026 OVC034 02/M02 A2992 630 78 -700 230/16G23 RMK AO2
14840KMKG MKG20021128190511011/28/02 19:05:31  5-MIN KMKG 290005Z 22020G23KT 10SM BKN026 OVC034 02/M02 A2991 640 78 -700 220/20G23 RMK AO2
14840KMKG MKG20021128191011011/28/02 19:10:31  5-MIN KMKG 290010Z 23017G24KT 10SM BKN026 OVC034 02/M02 A2991 640 78 -700 230/17G24 RMK AO2
14840KMKG MKG20021128191511011/28/02 19:15:31  5-MIN KMKG 290015Z 22019G25KT 10SM BKN026 OVC034 02/M02 A2991 640 75 -700 230/19G25 RMK AO2
14840KMKG MKG20021128192011011/28/02 19:20:31  5-MIN KMKG 290020Z 23017G25KT 10SM BKN026 OVC034 02/M02 A2991 640 75 -700 230/17G25 RMK AO2
14840KMKG MKG20021128192512811/28/02 19:25:31  5-MIN KMKG 290025Z 22018G26KT 10SM BKN026 OVC034 02/M02 A2991 640 75 -700 220/18G26 RMK AO2 PK WND 23026/0021
14840KMKG MKG20021128193012811/28/02 19:30:31  5-MIN KMKG 290030Z 22022G27KT 10SM BKN026 OVC034 02/M02 A2991 640 78 -700 220/22G27 RMK AO2 PK WND 23027/0030
14840KMKG MKG20021128193512811/28/02 19:35:31  5-MIN KMKG 290035Z 22017G27KT 10SM BKN026 OVC034 02/M02 A2990 650 75 -700 230/17G27 RMK AO2 PK WND 23027/0030
14840KMKG MKG20021128194012811/28/02 19:40:31  5-MIN KMKG 290040Z 22022G26KT 10SM BKN026 OVC034 02/M02 A2990 650 75 -700 230/22G26 RMK AO2 PK WND 23027/0030
14840KMKG MKG20021128194512811/28/02 19:45:31  5-MIN KMKG 290045Z 23017G26KT 10SM BKN026 OVC034 02/M02 A2990 650 75 -700 230/17G26 RMK AO2 PK WND 23027/0030
14840KMKG MKG20021128195014511/28/02 19:50:31  5-MIN KMKG 290050Z 23018G27KT 10SM BKN026 OVC034 02/M02 A2989 660 75 -600 230/18G27 RMK AO2 PK WND 22027/0050 SLP128 T00221017
14840KMKG MKG20021128195514511/28/02 19:55:31  5-MIN KMKG 290055Z 23015G27KT 10SM BKN026 OVC034 02/M02 A2989 660 75 -600 230/15G27 RMK AO2 PK WND 22027/0050 SLP128 T00221017
14840KMKG MKG20021128200013511/28/02 20:00:31  5-MIN KMKG 290100Z 22020G28KT 10SM BKN026 OVC034 02/M02 A2988 670 75 -600 230/20G28 RMK AO2 PK WND 22028/0100 PRESFR
14840KMKG MKG20021128200512711/28/02 20:05:31  5-MIN KMKG 290105Z 22022G28KT 9SM BKN026 OVC034 02/M01 A2987 670 78 -600 220/22G28 RMK AO2 PK WND 21028/0104
14840KMKG MKG20021128201012711/28/02 20:10:31  5-MIN KMKG 290110Z 23017G28KT 9SM BKN026 OVC032 02/M01 A2987 670 78 -600 230/17G28 RMK AO2 PK WND 21028/0104
14840KMKG MKG20021128201512711/28/02 20:15:31  5-MIN KMKG 290115Z 22019G25KT 9SM BKN026 OVC032 02/M01 A2987 680 78 -600 230/19G25 RMK AO2 PK WND 21028/0104
14840KMKG MKG20021128202012711/28/02 20:20:31  5-MIN KMKG 290120Z 23019G26KT 9SM BKN026 OVC032 02/M01 A2987 680 78 -600 230/19G26 RMK AO2 PK WND 21028/0104
14840KMKG MKG20021128202512811/28/02 20:25:31  5-MIN KMKG 290125Z 22020G30KT 10SM BKN026 OVC032 02/M02 A2987 680 75 -600 230/20G30 RMK AO2 PK WND 21030/0123
14840KMKG MKG20021128203012811/28/02 20:30:31  5-MIN KMKG 290130Z 22021G30KT 10SM BKN026 OVC032 03/M01 A2987 680 75 -600 230/21G30 RMK AO2 PK WND 21030/0123
14840KMKG MKG20021128203512811/28/02 20:35:31  5-MIN KMKG 290135Z 22019G27KT 10SM BKN026 OVC032 03/M02 A2986 680 72 -500 230/19G27 RMK AO2 PK WND 21030/0123
14840KMKG MKG20021128204012811/28/02 20:40:31  5-MIN KMKG 290140Z 23018G27KT 10SM BKN026 OVC032 03/M02 A2986 680 72 -500 230/18G27 RMK AO2 PK WND 21030/0123
14840KMKG MKG20021128204512811/28/02 20:45:31  5-MIN KMKG 290145Z 22023G28KT 10SM BKN026 OVC032 03/M01 A2986 690 75 -500 230/23G28 RMK AO2 PK WND 21030/0123
14840KMKG MKG20021128205014411/28/02 20:50:31  5-MIN KMKG 290150Z 22021G28KT 9SM SCT028 OVC034 03/M02 A2986 690 72 -500 220/21G28 RMK AO2 PK WND 21030/0123 SLP118 T00281017
14840KMKG MKG20021128205514511/28/02 20:55:31  5-MIN KMKG 290155Z 23016G27KT 10SM SCT028 OVC036 03/M01 A2985 690 75 -500 230/16G27 RMK AO2 PK WND 21030/0123 SLP115 T00281011
14840KMKG MKG20021128210011011/28/02 21:00:31  5-MIN KMKG 290200Z 23019G26KT 10SM SCT028 OVC036 03/M02 A2985 700 72 -500 230/19G26 RMK AO2
14840KMKG MKG20021128210511011/28/02 21:05:31  5-MIN KMKG 290205Z 23019G25KT 10SM SCT028 OVC036 03/M01 A2985 690 75 -500 230/19G25 RMK AO2
14840KMKG MKG20021128211012811/28/02 21:10:31  5-MIN KMKG 290210Z 23018G27KT 10SM SCT028 OVC036 03/M02 A2985 700 72 -500 240/18G27 RMK AO2 PK WND 23027/0207
14840KMKG MKG20021128211512811/28/02 21:15:31  5-MIN KMKG 290215Z 22022G27KT 10SM SCT028 OVC036 03/M02 A2984 700 72 -500 230/22G27 RMK AO2 PK WND 23027/0207
14840KMKG MKG20021128212012811/28/02 21:20:31  5-MIN KMKG 290220Z 23015G26KT 10SM SCT028 OVC036 03/M01 A2984 710 75 -500 230/15G26 RMK AO2 PK WND 23027/0207
14840KMKG MKG20021128212512811/28/02 21:25:31  5-MIN KMKG 290225Z 23013G25KT 10SM SCT028 OVC036 03/M01 A2984 710 75 -500 240/13G25 RMK AO2 PK WND 23027/0207
14840KMKG MKG20021128213012811/28/02 21:30:31  5-MIN KMKG 290230Z 24013G25KT 10SM SCT028 OVC036 03/M01 A2983 720 75 -500 240/13G25 RMK AO2 PK WND 23027/0207
14840KMKG MKG20021128213512811/28/02 21:35:31  5-MIN KMKG 290235Z 23018G25KT 10SM SCT028 OVC036 03/M01 A2982 720 75 -500 230/18G25 RMK AO2 PK WND 23027/0207
14840KMKG MKG20021128214012811/28/02 21:40:31  5-MIN KMKG 290240Z 24019G24KT 10SM SCT028 OVC036 03/M02 A2982 720 72 -500 240/19G24 RMK AO2 PK WND 23027/0207
14840KMKG MKG20021128214512811/28/02 21:45:31  5-MIN KMKG 290245Z 23021G26KT 10SM SCT028 OVC036 03/M02 A2982 720 72 -500 240/21G26 RMK AO2 PK WND 23027/0207
14840KMKG MKG20021128215015111/28/02 21:50:31  5-MIN KMKG 290250Z 23020G26KT 10SM BKN028 OVC036 03/M02 A2981 730 69 -500 240/20G26 RMK AO2 PK WND 23027/0207 SLP102 T00281022 56028
14840KMKG MKG20021128215515111/28/02 21:55:31  5-MIN KMKG 290255Z 24019G26KT 10SM BKN028 OVC036 03/M02 A2982 730 72 -500 240/19G26 RMK AO2 PK WND 23027/0207 SLP103 T00281017 57035
14840KMKG MKG20021128220011011/28/02 22:00:31  5-MIN KMKG 290300Z 24017G24KT 10SM BKN028 OVC036 03/M02 A2982 730 72 -500 240/17G24 RMK AO2
14840KMKG MKG20021128220511011/28/02 22:05:31  5-MIN KMKG 290305Z 24014G24KT 10SM BKN028 OVC034 03/M01 A2981 730 75 -500 240/14G24 RMK AO2
14840KMKG MKG20021128221011011/28/02 22:10:31  5-MIN KMKG 290310Z 24018G25KT 10SM BKN028 OVC034 03/M01 A2981 740 75 -500 240/18G25 RMK AO2
14840KMKG MKG20021128221511011/28/02 22:15:31  5-MIN KMKG 290315Z 23019G25KT 10SM OVC028 03/M02 A2980 750 72 -500 230/19G25 RMK AO2 PRESFR
14840KMKG MKG20021128222010311/28/02 22:20:31  5-MIN KMKG 290320Z 23014G24KT 10SM OVC028 03/M01 A2979 750 75 -500 230/14G24 RMK AO2
14840KMKG MKG20021128222510311/28/02 22:25:31  5-MIN KMKG 290325Z 24012G22KT 10SM OVC028 02/M01 A2979 750 78 -500 240/12G22 RMK AO2
14840KMKG MKG20021128223010911/28/02 22:30:31  5-MIN KMKG 290330Z 24015G24KT 9SM BKN028 OVC032 02/M01 A2978 760 78 -500 240/15G24 RMK AO2
14840KMKG MKG20021128223510311/28/02 22:35:31  5-MIN KMKG 290335Z 24019G24KT 10SM BKN028 03/M02 A2978 760 72 -400 240/19G24 RMK AO2
14840KMKG MKG20021128224010311/28/02 22:40:31  5-MIN KMKG 290340Z 23016G22KT 10SM BKN026 02/M02 A2978 760 75 -500 230/16G22 RMK AO2
14840KMKG MKG20021128224510211/28/02 22:45:31  5-MIN KMKG 290345Z 23018G23KT 9SM BKN026 03/M01 A2979 750 75 -500 240/18G23 RMK AO2
14840KMKG MKG20021128225011911/28/02 22:50:31  5-MIN KMKG 290350Z 24017G23KT 9SM BKN026 03/M02 A2978 760 72 -400 240/17G23 RMK AO2 SLP090 T00281017
14840KMKG MKG20021128225512011/28/02 22:55:31  5-MIN KMKG 290355Z 24016G23KT 10SM BKN026 03/M02 A2977 770 72 -400 240/16G23 RMK AO2 SLP088 T00281017
14840KMKG MKG20021128230010211/28/02 23:00:31  5-MIN KMKG 290400Z 23017G24KT 9SM BKN026 03/M01 A2977 770 75 -400 240/17G24 RMK AO2
14840KMKG MKG20021128230510211/28/02 23:05:31  5-MIN KMKG 290405Z 23018G24KT 9SM BKN026 03/M01 A2977 770 75 -400 240/18G24 RMK AO2
14840KMKG MKG20021128231010211/28/02 23:10:31  5-MIN KMKG 290410Z 24016G24KT 9SM BKN026 03/M01 A2977 770 75 -400 240/16G24 RMK AO2
14840KMKG MKG20021128231510211/28/02 23:15:31  5-MIN KMKG 290415Z 24017G24KT 9SM BKN026 03/M01 A2976 780 75 -400 240/17G24 RMK AO2
14840KMKG MKG20021128232010311/28/02 23:20:31  5-MIN KMKG 290420Z 23015G24KT 10SM BKN026 03/M01 A2976 780 75 -400 240/15G24 RMK AO2
14840KMKG MKG20021128232512111/28/02 23:25:31  5-MIN KMKG 290425Z 23016G27KT 10SM BKN026 03/M01 A2976 780 75 -400 240/16G27 RMK AO2 PK WND 25027/0421
14840KMKG MKG20021128233012111/28/02 23:30:31  5-MIN KMKG 290430Z 23017G27KT 10SM SCT026 03/M01 A2975 790 75 -400 230/17G27 RMK AO2 PK WND 25027/0421
14840KMKG MKG20021128233512111/28/02 23:35:31  5-MIN KMKG 290435Z 23021G25KT 10SM SCT026 03/M01 A2975 790 75 -400 230/21G25 RMK AO2 PK WND 25027/0421
14840KMKG MKG20021128234012111/28/02 23:40:31  5-MIN KMKG 290440Z 23017G25KT 10SM SCT026 03/M01 A2974 790 75 -400 240/17G25 RMK AO2 PK WND 25027/0421
14840KMKG MKG20021128234512111/28/02 23:45:31  5-MIN KMKG 290445Z 23017G23KT 10SM SCT026 03/M01 A2974 800 72 -300 230/17G23 RMK AO2 PK WND 25027/0421
14840KMKG MKG20021128235014811/28/02 23:50:31  5-MIN KMKG 290450Z 23021G27KT 10SM FEW028 03/M01 A2974 800 72 -300 240/21G27 RMK AO2 PK WND 24027/0449 SLP077 T00331011 400331017
14840KMKG MKG20021128235514811/28/02 23:55:31  5-MIN KMKG 290455Z 23019G27KT 10SM FEW028 03/M01 A2974 800 72 -300 240/19G27 RMK AO2 PK WND 24027/0449 SLP077 T00331011 400331017
14840KMKG MKG20021129000011011/29/02 00:00:31  5-MIN KMKG 290500Z 24016G23KT 10SM SCT028 SCT045 03/M01 A2974 800 72 -300 240/16G23 RMK AO2
14840KMKG MKG20021129000513511/29/02 00:05:31  5-MIN KMKG 290505Z 23021G27KT 10SM SCT028 BKN045 BKN055 03/M01 A2973 810 72 -300 230/21G27 RMK AO2 PK WND 23027/0505
14840KMKG MKG20021129001013511/29/02 00:10:31  5-MIN KMKG 290510Z 23020G27KT 10SM FEW028 BKN045 BKN055 03/M01 A2972 820 72 -300 230/20G27 RMK AO2 PK WND 23027/0505
14840KMKG MKG20021129001512811/29/02 00:15:31  5-MIN KMKG 290515Z 23020G25KT 10SM FEW028 BKN045 03/M01 A2972 820 72 -300 230/20G25 RMK AO2 PK WND 23027/0505
14840KMKG MKG20021129002013511/29/02 00:20:31  5-MIN KMKG 290520Z 24019G27KT 10SM FEW028 OVC047 03/M01 A2971 830 72 -300 240/19G27 RMK AO2 PK WND 22027/0518 PRESFR
14840KMKG MKG20021129002512811/29/02 00:25:31  5-MIN KMKG 290525Z 23019G27KT 10SM FEW028 OVC047 03/M01 A2971 830 72 -300 230/19G27 RMK AO2 PK WND 23027/0521
14840KMKG MKG20021129003013511/29/02 00:30:31  5-MIN KMKG 290530Z 22016G27KT 10SM FEW028 OVC047 03/M01 A2970 840 76 -300 230/16G27 RMK AO2 PK WND 23027/0521 PRESFR
14840KMKG MKG20021129003512811/29/02 00:35:31  5-MIN KMKG 290535Z 22016G23KT 10SM OVC047 03/M01 A2969 850 76 -300 230/16G23 RMK AO2 PK WND 23027/0521 PRESFR
14840KMKG MKG20021129004012111/29/02 00:40:31  5-MIN KMKG 290540Z 22017G26KT 10SM OVC047 03/M01 A2969 850 76 -300 230/17G26 RMK AO2 PK WND 23027/0521
14840KMKG MKG20021129004512111/29/02 00:45:31  5-MIN KMKG 290545Z 23018G26KT 10SM OVC047 04/M01 A2968 850 73 -200 230/18G26 RMK AO2 PK WND 23027/0521
14840KMKG MKG20021129005015611/29/02 00:50:31  5-MIN KMKG 290550Z 23016G23KT 10SM OVC047 04/M01 A2968 860 73 -200 230/16G23 RMK AO2 PK WND 23027/0521 SLP056 T00391006 10039 20017 57035
14840KMKG MKG20021129005515611/29/02 00:55:31  5-MIN KMKG 290555Z 22019G24KT 10SM OVC047 04/M01 A2967 860 73 -200 230/19G24 RMK AO2 PK WND 23027/0521 SLP054 T00391006 10039 20017 58048
14840KMKG MKG20021129010011011/29/02 01:00:31  5-MIN KMKG 290600Z 23017G24KT 10SM OVC047 04/M01 A2966 870 73 -200 230/17G24 RMK AO2 PRESFR
14840KMKG MKG20021129010510211/29/02 01:05:31  5-MIN KMKG 290605Z 22018G23KT 10SM OVC045 04/00 A2966 870 76 -200 230/18G23 RMK AO2
14840KMKG MKG20021129011010911/29/02 01:10:31  5-MIN KMKG 290610Z 22017G23KT 10SM OVC045 04/00 A2965 880 76 -200 220/17G23 RMK AO2 PRESFR
14840KMKG MKG20021129011510211/29/02 01:15:31  5-MIN KMKG 290615Z 22020G25KT 10SM OVC043 04/00 A2965 880 76 -200 220/20G25 RMK AO2
14840KMKG MKG20021129012012011/29/02 01:20:31  5-MIN KMKG 290620Z 21017G26KT 10SM OVC043 04/00 A2964 890 76 -100 220/17G26 RMK AO2 PK WND 22026/0616
14840KMKG MKG20021129012512711/29/02 01:25:31  5-MIN KMKG 290625Z 22019G29KT 10SM OVC043 04/00 A2963 900 73 -100 220/19G29 RMK AO2 PK WND 23029/0623 PRESFR
14840KMKG MKG20021129013012011/29/02 01:30:31  5-MIN KMKG 290630Z 22020G29KT 10SM OVC043 04/00 A2963 900 73 -100 220/20G29 RMK AO2 PK WND 23029/0623
14840KMKG MKG20021129013512011/29/02 01:35:31  5-MIN KMKG 290635Z 21020G27KT 10SM OVC043 04/00 A2962 910 73 -100 220/20G27 RMK AO2 PK WND 23029/0623
14840KMKG MKG20021129014012011/29/02 01:40:31  5-MIN KMKG 290640Z 22019G27KT 10SM OVC043 04/00 A2962 910 73 -100 230/19G27 RMK AO2 PK WND 23029/0623
14840KMKG MKG20021129014511711/29/02 01:45:31  5-MIN KMKG 290645Z 22023G27KT 10SM OVC043 04/00 A2961 920 73 0 220/23G27 RMK AO2 PK WND 23029/0623
14840KMKG MKG20021129015014111/29/02 01:50:31  5-MIN KMKG 290650Z 21021G27KT 10SM OVC043 04/00 A2960 920 73 0 220/21G27 RMK AO2 PK WND 23029/0623 PRESFR SLP031 T00440000
14840KMKG MKG20021129015513411/29/02 01:55:31  5-MIN KMKG 290655Z 21024G29KT 10SM OVC043 04/00 A2960 930 73 0 210/24G29 RMK AO2 PK WND 22029/0653 SLP029 T00440000
14840KMKG MKG20021129020009911/29/02 02:00:31  5-MIN KMKG 290700Z 21021G29KT 10SM OVC043 04/00 A2960 930 73 0 210/21G29 RMK AO2
14840KMKG MKG20021129020511711/29/02 02:05:31  5-MIN KMKG 290705Z 22018G26KT 10SM OVC043 04/01 A2959 940 76 0 220/18G26 RMK AO2 PK WND 21026/0705
14840KMKG MKG20021129021013111/29/02 02:10:31  5-MIN KMKG 290710Z 21021G27KT 10SM BKN043 OVC060 04/01 A2958 950 76 0 220/21G27 RMK AO2 PK WND 21027/0710 PRESFR
14840KMKG MKG20021129021512411/29/02 02:15:31  5-MIN KMKG 290715Z 22022G30KT 10SM BKN043 OVC060 05/01 A2958 950 73 0 220/22G30 RMK AO2 PK WND 21030/0711
14840KMKG MKG20021129022012411/29/02 02:20:31  5-MIN KMKG 290720Z 21023G30KT 10SM SCT043 OVC060 05/01 A2957 950 73 0 210/23G30 RMK AO2 PK WND 21030/0711
14840KMKG MKG20021129022512411/29/02 02:25:31  5-MIN KMKG 290725Z 21021G28KT 10SM FEW043 OVC060 05/01 A2956 960 73 0 210/21G28 RMK AO2 PK WND 21030/0711
14840KMKG MKG20021129023013811/29/02 02:30:31  5-MIN KMKG 290730Z 21020G29KT 10SM FEW043 BKN060 OVC075 05/01 A2955 970 73 0 210/20G29 RMK AO2 PK WND 21030/0711 PRESFR
14840KMKG MKG20021129023513111/29/02 02:35:31  5-MIN KMKG 290735Z 21024G30KT 10SM BKN060 OVC070 05/01 A2955 980 76 0 220/24G30 RMK AO2 PK WND 22030/0735 PRESFR
14840KMKG MKG20021129024014111/29/02 02:40:31  5-MIN KMKG 290740Z 21021G30KT 10SM SCT060 BKN070 OVC110 05/01 A2953 1000 76 100 210/21G30 RMK AO2 PK WND 22030/0735 PRESFR
14840KMKG MKG20021129024514111/29/02 02:45:31  5-MIN KMKG 290745Z 21020G26KT 10SM SCT060 BKN070 BKN110 05/01 A2952 1000 76 100 210/20G26 RMK AO2 PK WND 22030/0735 PRESFR
14840KMKG MKG20021129025015111/29/02 02:50:31  5-MIN KMKG 290750Z 20021G28KT 10SM BKN065 BKN110 05/01 A2951 1010 76 100 210/21G28 RMK AO2 PK WND 22030/0735 PRESFR SLP999 T00500011
14840KMKG MKG20021129025515111/29/02 02:55:31  5-MIN KMKG 290755Z 21023G31KT 10SM BKN065 BKN110 05/01 A2950 1020 76 100 210/23G31 RMK AO2 PK WND 21031/0754 PRESFR SLP996 T00500011
14840KMKG MKG20021129030013411/29/02 03:00:31  5-MIN KMKG 290800Z 21022G35KT 10SM BKN060 BKN070 BKN110 05/01 A2950 1020 76 100 210/22G35 RMK AO2 PK WND 20035/0757
14840KMKG MKG20021129030512711/29/02 03:05:31  5-MIN KMKG 290805Z 21021G35KT 10SM BKN060 BKN110 05/01 A2949 1030 76 100 210/21G35 RMK AO2 PK WND 20035/0757
14840KMKG MKG20021129031012711/29/02 03:10:31  5-MIN KMKG 290810Z 21022G33KT 10SM BKN060 BKN120 05/01 A2949 1030 76 100 210/22G33 RMK AO2 PK WND 20035/0757
14840KMKG MKG20021129031512011/29/02 03:15:31  5-MIN KMKG 290815Z 21026G33KT 10SM BKN060 06/02 A2949 1030 76 200 210/26G33 RMK AO2 PK WND 20035/0757
14840KMKG MKG20021129032012011/29/02 03:20:31  5-MIN KMKG 290820Z 21022G32KT 10SM OVC060 06/02 A2949 1030 76 200 210/22G32 RMK AO2 PK WND 20035/0757
14840KMKG MKG20021129032512011/29/02 03:25:31  5-MIN KMKG 290825Z 21020G31KT 10SM OVC060 06/02 A2948 1040 76 200 210/20G31 RMK AO2 PK WND 20035/0757
14840KMKG MKG20021129033012011/29/02 03:30:31  5-MIN KMKG 290830Z 21021G31KT 10SM OVC060 06/02 A2948 1040 76 200 210/21G31 RMK AO2 PK WND 20035/0757
14840KMKG MKG20021129033512011/29/02 03:35:31  5-MIN KMKG 290835Z 21023G31KT 10SM BKN060 06/02 A2947 1050 76 200 210/23G31 RMK AO2 PK WND 20035/0757
14840KMKG MKG20021129034012711/29/02 03:40:31  5-MIN KMKG 290840Z 21024G33KT 10SM BKN060 06/01 A2946 1050 73 200 210/24G33 RMK AO2 PK WND 20035/0757 PRESFR
14840KMKG MKG20021129034512011/29/02 03:45:31  5-MIN KMKG 290845Z 21022G33KT 10SM BKN060 06/02 A2947 1050 76 200 210/22G33 RMK AO2 PK WND 20035/0757
14840KMKG MKG20021129035014311/29/02 03:50:31  5-MIN KMKG 290850Z 20021G28KT 10SM BKN060 06/02 A2946 1060 76 200 210/21G28 RMK AO2 PK WND 20035/0757 SLP981 T00560017 58048
14840KMKG MKG20021129035514311/29/02 03:55:31  5-MIN KMKG 290855Z 20021G28KT 10SM BKN060 05/02 A2945 1070 79 200 210/21G28 RMK AO2 PK WND 20035/0757 SLP978 T00500017 56073
14840KMKG MKG20021129040012711/29/02 04:00:31  5-MIN KMKG 290900Z 21022G28KT 10SM BKN065 BKN110 06/02 A2945 1070 76 200 210/22G28 RMK AO2 PK WND 20028/0857
14840KMKG MKG20021129040513411/29/02 04:05:31  5-MIN KMKG 290905Z 21023G33KT 10SM BKN065 BKN110 06/02 A2944 1080 76 200 210/23G33 RMK AO2 PK WND 20033/0903 PRESFR
14840KMKG MKG20021129041014211/29/02 04:10:31  5-MIN KMKG 290910Z 20023G33KT 10SM SCT065 BKN110 06/02 A2944 1080 76 200 210/23G33 RMK AO2 PK WND 20033/0903 CIG 065 RWY 14
14840KMKG MKG20021129041514211/29/02 04:15:31  5-MIN KMKG 290915Z 20023G32KT 10SM SCT065 BKN110 06/02 A2944 1080 76 200 210/23G32 RMK AO2 PK WND 20033/0903 CIG 065 RWY 14
14840KMKG MKG20021129042012711/29/02 04:20:31  5-MIN KMKG 290920Z 21022G30KT 10SM FEW065 BKN110 06/02 A2944 1080 76 200 210/22G30 RMK AO2 PK WND 20033/0903
14840KMKG MKG20021129042512711/29/02 04:25:31  5-MIN KMKG 290925Z 21022G29KT 10SM FEW065 OVC110 06/02 A2944 1070 76 200 210/22G29 RMK AO2 PK WND 20033/0903
14840KMKG MKG20021129043012711/29/02 04:30:31  5-MIN KMKG 290930Z 21020G28KT 10SM FEW070 OVC110 06/02 A2944 1070 76 200 210/20G28 RMK AO2 PK WND 20033/0903
14840KMKG MKG20021129043512711/29/02 04:35:31  5-MIN KMKG 290935Z 21023G31KT 10SM FEW070 OVC110 06/02 A2945 1070 76 200 220/23G31 RMK AO2 PK WND 20033/0903
14840KMKG MKG20021129044012011/29/02 04:40:31  5-MIN KMKG 290940Z 22024G31KT 10SM OVC110 06/02 A2945 1070 76 200 220/24G31 RMK AO2 PK WND 20033/0903
14840KMKG MKG20021129044512011/29/02 04:45:31  5-MIN KMKG 290945Z 21023G31KT 10SM OVC110 06/02 A2945 1070 76 200 210/23G31 RMK AO2 PK WND 20033/0903
14840KMKG MKG20021129045013711/29/02 04:50:31  5-MIN KMKG 290950Z 22018G31KT 10SM OVC110 06/02 A2945 1070 79 200 220/18G31 RMK AO2 PK WND 20033/0903 SLP978 T00560022
14840KMKG MKG20021129045513711/29/02 04:55:31  5-MIN KMKG 290955Z 22019G29KT 10SM OVC100 06/02 A2945 1070 79 200 220/19G29 RMK AO2 PK WND 20033/0903 SLP977 T00560022
14840KMKG MKG20021129050012011/29/02 05:00:31  5-MIN KMKG 291000Z 22022G29KT 10SM OVC100 06/02 A2945 1070 79 200 230/22G29 RMK AO2 PK WND 23028/1000
14840KMKG MKG20021129050512011/29/02 05:05:31  5-MIN KMKG 291005Z 22022G28KT 10SM OVC100 06/02 A2944 1080 76 300 220/22G28 RMK AO2 PK WND 23028/1000
14840KMKG MKG20021129051012011/29/02 05:10:31  5-MIN KMKG 291010Z 22019G27KT 10SM OVC100 06/02 A2943 1080 76 300 230/19G27 RMK AO2 PK WND 23028/1000
14840KMKG MKG20021129051512011/29/02 05:15:31  5-MIN KMKG 291015Z 22021G28KT 10SM OVC100 06/02 A2943 1080 76 300 230/21G28 RMK AO2 PK WND 22028/1012
14840KMKG MKG20021129052012011/29/02 05:20:31  5-MIN KMKG 291020Z 23019G28KT 10SM OVC100 06/02 A2943 1090 76 300 230/19G28 RMK AO2 PK WND 22028/1012
14840KMKG MKG20021129052512711/29/02 05:25:31  5-MIN KMKG 291025Z 23018G28KT 10SM SCT085 OVC100 06/02 A2943 1080 76 300 230/18G28 RMK AO2 PK WND 22028/1021
14840KMKG MKG20021129053012711/29/02 05:30:31  5-MIN KMKG 291030Z 23020G28KT 10SM BKN080 OVC100 06/02 A2943 1090 76 300 230/20G28 RMK AO2 PK WND 22028/1021
14840KMKG MKG20021129053512711/29/02 05:35:31  5-MIN KMKG 291035Z 24017G27KT 10SM BKN080 OVC100 06/02 A2942 1100 76 300 240/17G27 RMK AO2 PK WND 22028/1021
14840KMKG MKG20021129054012711/29/02 05:40:31  5-MIN KMKG 291040Z 23018G25KT 10SM BKN080 OVC100 06/02 A2942 1090 76 300 230/18G25 RMK AO2 PK WND 22028/1021
14840KMKG MKG20021129054512011/29/02 05:45:31  5-MIN KMKG 291045Z 23020G27KT 10SM OVC085 06/02 A2942 1100 73 300 230/20G27 RMK AO2 PK WND 22028/1021
14840KMKG MKG20021129055013711/29/02 05:50:31  5-MIN KMKG 291050Z 23021G27KT 10SM OVC085 06/02 A2941 1100 73 300 230/21G27 RMK AO2 PK WND 22028/1021 SLP965 T00610017
14840KMKG MKG20021129055513711/29/02 05:55:31  5-MIN KMKG 291055Z 23021G26KT 10SM OVC085 06/02 A2942 1100 73 300 230/21G26 RMK AO2 PK WND 22028/1021 SLP966 T00610017
14840KMKG MKG20021129060012011/29/02 06:00:31  5-MIN KMKG 291100Z 22017G31KT 10SM OVC085 06/02 A2941 1100 73 300 230/17G31 RMK AO2 PK WND 22031/1056
14840KMKG MKG20021129060512011/29/02 06:05:31  5-MIN KMKG 291105Z 23022G32KT 10SM OVC090 06/02 A2941 1110 73 300 240/22G32 RMK AO2 PK WND 23032/1104
14840KMKG MKG20021129061012011/29/02 06:10:31  5-MIN KMKG 291110Z 23019G32KT 10SM BKN090 06/02 A2941 1110 73 300 240/19G32 RMK AO2 PK WND 23032/1104
14840KMKG MKG20021129061512711/29/02 06:15:31  5-MIN KMKG 291115Z 23019G27KT 10SM BKN090 BKN120 06/02 A2941 1110 73 300 230/19G27 RMK AO2 PK WND 23032/1104
14840KMKG MKG20021129062013411/29/02 06:20:31  5-MIN KMKG 291120Z 23021G25KT 10SM FEW046 SCT090 BKN120 06/02 A2941 1110 73 300 230/21G25 RMK AO2 PK WND 23032/1104
14840KMKG MKG20021129062513411/29/02 06:25:31  5-MIN KMKG 291125Z 23020G28KT 10SM FEW046 SCT090 BKN110 06/02 A2940 1110 73 300 230/20G28 RMK AO2 PK WND 23032/1104
14840KMKG MKG20021129063012011/29/02 06:30:31  5-MIN KMKG 291130Z 23023G28KT 10SM BKN100 06/02 A2940 1120 73 400 230/23G28 RMK AO2 PK WND 23032/1104
14840KMKG MKG20021129063512011/29/02 06:35:31  5-MIN KMKG 291135Z 23017G28KT 10SM BKN100 06/02 A2940 1120 73 400 240/17G28 RMK AO2 PK WND 23032/1104
14840KMKG MKG20021129064012011/29/02 06:40:31  5-MIN KMKG 291140Z 23018G27KT 10SM OVC100 06/02 A2940 1120 76 400 230/18G27 RMK AO2 PK WND 23032/1104
14840KMKG MKG20021129064512011/29/02 06:45:31  5-MIN KMKG 291145Z 23017G25KT 10SM OVC100 06/02 A2939 1120 76 400 230/17G25 RMK AO2 PK WND 23032/1104
14840KMKG MKG20021129065015511/29/02 06:50:31  5-MIN KMKG 291150Z 23017G26KT 10SM OVC100 06/02 A2939 1120 76 400 230/17G26 RMK AO2 PK WND 23032/1104 SLP957 T00610022 10061 20039 56073
14840KMKG MKG20021129065515511/29/02 06:55:31  5-MIN KMKG 291155Z 24017G26KT 10SM BKN110 06/02 A2939 1120 76 400 240/17G26 RMK AO2 PK WND 23032/1104 SLP958 T00610022 10061 20039 58020
14840KMKG MKG20021129070010211/29/02 07:00:31  5-MIN KMKG 291200Z 24016G24KT 10SM BKN110 06/02 A2939 1120 73 400 240/16G24 RMK AO2
14840KMKG MKG20021129070512711/29/02 07:05:31  5-MIN KMKG 291205Z 23019G26KT 10SM FEW041 BKN110 06/02 A2939 1120 73 400 240/19G26 RMK AO2 PK WND 22026/1204
14840KMKG MKG20021129071012711/29/02 07:10:31  5-MIN KMKG 291210Z 24021G26KT 10SM FEW041 BKN110 06/02 A2939 1120 73 400 240/21G26 RMK AO2 PK WND 24026/1209
14840KMKG MKG20021129071512711/29/02 07:15:31  5-MIN KMKG 291215Z 24023G29KT 10SM FEW041 SCT120 06/02 A2939 1120 73 400 240/23G29 RMK AO2 PK WND 23029/1214
14840KMKG MKG20021129072012011/29/02 07:20:31  5-MIN KMKG 291220Z 24019G29KT 10SM FEW041 06/02 A2939 1120 73 400 240/19G29 RMK AO2 PK WND 22029/1216
14840KMKG MKG20021129072512011/29/02 07:25:31  5-MIN KMKG 291225Z 24018G29KT 10SM FEW041 06/02 A2939 1130 73 400 250/18G29 RMK AO2 PK WND 22029/1216
14840KMKG MKG20021129073012011/29/02 07:30:31  5-MIN KMKG 291230Z 25020G27KT 10SM FEW041 06/02 A2939 1130 73 400 250/20G27 RMK AO2 PK WND 22029/1216
14840KMKG MKG20021129073511711/29/02 07:35:31  5-MIN KMKG 291235Z 24018G27KT 10SM CLR 06/02 A2939 1130 73 400 240/18G27 RMK AO2 PK WND 22029/1216
14840KMKG MKG20021129074011711/29/02 07:40:31  5-MIN KMKG 291240Z 24017G26KT 10SM CLR 06/02 A2939 1130 76 300 240/17G26 RMK AO2 PK WND 22029/1216
14840KMKG MKG20021129074511711/29/02 07:45:31  5-MIN KMKG 291245Z 24017G24KT 10SM CLR 06/02 A2939 1130 76 300 240/17G24 RMK AO2 PK WND 22029/1216
14840KMKG MKG20021129075013411/29/02 07:50:31  5-MIN KMKG 291250Z 24017G24KT 10SM CLR 06/02 A2939 1130 79 300 240/17G24 RMK AO2 PK WND 22029/1216 SLP955 T00560022
14840KMKG MKG20021129075513711/29/02 07:55:31  5-MIN KMKG 291255Z 24016G23KT 10SM FEW038 06/02 A2939 1130 79 300 240/16G23 RMK AO2 PK WND 22029/1216 SLP957 T00560022
14840KMKG MKG20021129080011711/29/02 08:00:31  5-MIN KMKG 291300Z 24018G26KT 10SM CLR 06/02 A2939 1130 76 400 240/18G26 RMK AO2 PK WND 23026/1300
14840KMKG MKG20021129080511711/29/02 08:05:31  5-MIN KMKG 291305Z 23017G26KT 10SM CLR 06/02 A2939 1130 76 400 240/17G26 RMK AO2 PK WND 23026/1300
14840KMKG MKG20021129081011711/29/02 08:10:31  5-MIN KMKG 291310Z 24019G27KT 10SM CLR 06/02 A2939 1120 76 400 240/19G27 RMK AO2 PK WND 23027/1308
14840KMKG MKG20021129081511711/29/02 08:15:31  5-MIN KMKG 291315Z 24018G27KT 10SM CLR 06/02 A2939 1120 76 400 240/18G27 RMK AO2 PK WND 23027/1308
14840KMKG MKG20021129082012011/29/02 08:20:31  5-MIN KMKG 291320Z 24017G26KT 10SM FEW037 06/02 A2939 1130 76 400 240/17G26 RMK AO2 PK WND 23027/1308
14840KMKG MKG20021129082512011/29/02 08:25:31  5-MIN KMKG 291325Z 24017G23KT 10SM FEW037 06/02 A2938 1130 76 400 240/17G23 RMK AO2 PK WND 23027/1308
14840KMKG MKG20021129083011711/29/02 08:30:31  5-MIN KMKG 291330Z 24016G23KT 10SM CLR 06/03 A2938 1130 79 400 240/16G23 RMK AO2 PK WND 23027/1308
14840KMKG MKG20021129083511711/29/02 08:35:31  5-MIN KMKG 291335Z 24018G23KT 10SM CLR 06/02 A2938 1140 76 400 240/18G23 RMK AO2 PK WND 23027/1308
14840KMKG MKG20021129084011711/29/02 08:40:31  5-MIN KMKG 291340Z 23014G23KT 10SM CLR 06/02 A2938 1130 76 400 240/14G23 RMK AO2 PK WND 23027/1308
14840KMKG MKG20021129084511711/29/02 08:45:31  5-MIN KMKG 291345Z 24014G21KT 10SM CLR 06/03 A2938 1130 79 400 240/14G21 RMK AO2 PK WND 23027/1308
14840KMKG MKG20021129085013411/29/02 08:50:31  5-MIN KMKG 291350Z 24015G22KT 10SM CLR 06/03 A2938 1130 79 400 240/15G22 RMK AO2 PK WND 23027/1308 SLP953 T00610028
14840KMKG MKG20021129085513411/29/02 08:55:31  5-MIN KMKG 291355Z 23018G24KT 10SM CLR 06/03 A2938 1140 79 400 240/18G24 RMK AO2 PK WND 23027/1308 SLP952 T00610028
14840KMKG MKG20021129090009911/29/02 09:00:31  5-MIN KMKG 291400Z 24016G24KT 10SM CLR 06/02 A2938 1130 76 400 240/16G24 RMK AO2
14840KMKG MKG20021129090509911/29/02 09:05:31  5-MIN KMKG 291405Z 24016G22KT 10SM CLR 06/03 A2938 1140 79 400 240/16G22 RMK AO2
14840KMKG MKG20021129091009911/29/02 09:10:31  5-MIN KMKG 291410Z 24015G22KT 10SM CLR 06/03 A2937 1140 79 400 240/15G22 RMK AO2
14840KMKG MKG20021129091511711/29/02 09:15:31  5-MIN KMKG 291415Z 24018G26KT 10SM CLR 06/03 A2937 1140 79 400 250/18G26 RMK AO2 PK WND 23026/1411
14840KMKG MKG20021129092011711/29/02 09:20:31  5-MIN KMKG 291420Z 25016G26KT 10SM CLR 06/03 A2937 1150 79 400 250/16G26 RMK AO2 PK WND 23026/1411
14840KMKG MKG20021129092511711/29/02 09:25:31  5-MIN KMKG 291425Z 24016G23KT 10SM CLR 06/03 A2937 1140 79 400 250/16G23 RMK AO2 PK WND 23026/1411
14840KMKG MKG20021129093011711/29/02 09:30:31  5-MIN KMKG 291430Z 24017G23KT 10SM CLR 06/03 A2937 1150 79 400 250/17G23 RMK AO2 PK WND 23026/1411
14840KMKG MKG20021129093511711/29/02 09:35:31  5-MIN KMKG 291435Z 24017G23KT 10SM CLR 06/03 A2937 1150 79 400 250/17G23 RMK AO2 PK WND 23026/1411
14840KMKG MKG20021129094011711/29/02 09:40:31  5-MIN KMKG 291440Z 24018G23KT 10SM CLR 06/03 A2937 1150 79 400 250/18G23 RMK AO2 PK WND 23026/1411
14840KMKG MKG20021129094511711/29/02 09:45:31  5-MIN KMKG 291445Z 24019G24KT 10SM CLR 06/03 A2937 1150 79 400 250/19G24 RMK AO2 PK WND 23026/1411
14840KMKG MKG20021129095014011/29/02 09:50:31  5-MIN KMKG 291450Z 25015G24KT 10SM CLR 06/03 A2936 1150 79 400 250/15G24 RMK AO2 PK WND 23026/1411 SLP948 T00610028 58020
14840KMKG MKG20021129095515011/29/02 09:55:31  5-MIN KMKG 291455Z 25019G24KT 10SM FEW019 SCT045 06/03 A2937 1150 79 400 260/19G24 RMK AO2 PK WND 23026/1411 SLP949 T00610028 58009
14840KMKG MKG20021129100009911/29/02 10:00:31  5-MIN KMKG 291500Z 25017G24KT 10SM CLR 06/03 A2937 1140 79 400 250/17G24 RMK AO2
14840KMKG MKG20021129100509911/29/02 10:05:31  5-MIN KMKG 291505Z 25015G22KT 10SM CLR 07/03 A2937 1150 76 500 250/15G22 RMK AO2
14840KMKG MKG20021129101009911/29/02 10:10:31  5-MIN KMKG 291510Z 24012G18KT 10SM CLR 07/03 A2936 1150 79 500 250/12G18 RMK AO2
14840KMKG MKG20021129101509911/29/02 10:15:31  5-MIN KMKG 291515Z 25014G20KT 10SM CLR 07/03 A2936 1150 79 500 250/14G20 RMK AO2
14840KMKG MKG20021129102009911/29/02 10:20:31  5-MIN KMKG 291520Z 24013G20KT 10SM CLR 07/03 A2937 1150 79 500 250/13G20 RMK AO2
14840KMKG MKG20021129102509911/29/02 10:25:31  5-MIN KMKG 291525Z 25013G20KT 10SM CLR 07/03 A2937 1150 79 500 250/13G20 RMK AO2
14840KMKG MKG20021129103009911/29/02 10:30:31  5-MIN KMKG 291530Z 25016G21KT 10SM CLR 07/03 A2937 1150 79 500 260/16G21 RMK AO2
14840KMKG MKG20021129103509911/29/02 10:35:31  5-MIN KMKG 291535Z 26016G21KT 10SM CLR 07/03 A2937 1150 79 500 260/16G21 RMK AO2
14840KMKG MKG20021129104009911/29/02 10:40:31  5-MIN KMKG 291540Z 25015G25KT 10SM CLR 07/03 A2937 1150 76 500 260/15G25 RMK AO2
14840KMKG MKG20021129104509911/29/02 10:45:31  5-MIN KMKG 291545Z 25017G25KT 10SM CLR 07/03 A2936 1150 76 500 250/17G25 RMK AO2
14840KMKG MKG20021129105011611/29/02 10:50:31  5-MIN KMKG 291550Z 26013G23KT 10SM CLR 07/03 A2936 1150 76 500 260/13G23 RMK AO2 SLP946 T00720033
14840KMKG MKG20021129105512611/29/02 10:55:31  5-MIN KMKG 291555Z 25015G22KT 10SM FEW019 SCT045 07/03 A2936 1150 76 500 260/15G22 RMK AO2 SLP946 T00720033
14840KMKG MKG20021129110009911/29/02 11:00:31  5-MIN KMKG 291600Z 26015G22KT 10SM CLR 07/03 A2936 1150 76 500 260/15G22 RMK AO2
14840KMKG MKG20021129110509311/29/02 11:05:31  5-MIN KMKG 291605Z 25014KT 10SM CLR 07/03 A2936 1150 76 500 260/14 RMK AO2
14840KMKG MKG20021129111009911/29/02 11:10:31  5-MIN KMKG 291610Z 26016G20KT 10SM CLR 07/03 A2936 1150 76 500 260/16G20 RMK AO2
14840KMKG MKG20021129111509911/29/02 11:15:31  5-MIN KMKG 291615Z 25013G20KT 10SM CLR 07/03 A2936 1160 76 500 250/13G20 RMK AO2
14840KMKG MKG20021129112009911/29/02 11:20:31  5-MIN KMKG 291620Z 26012G18KT 10SM CLR 07/03 A2935 1160 76 500 260/12G18 RMK AO2
14840KMKG MKG20021129112509911/29/02 11:25:31  5-MIN KMKG 291625Z 25017G24KT 10SM CLR 07/03 A2935 1160 76 500 250/17G24 RMK AO2
14840KMKG MKG20021129113009911/29/02 11:30:31  5-MIN KMKG 291630Z 26019G24KT 10SM CLR 07/03 A2935 1160 76 500 270/19G24 RMK AO2
14840KMKG MKG20021129113509911/29/02 11:35:31  5-MIN KMKG 291635Z 26015G23KT 10SM CLR 07/03 A2935 1170 76 500 260/15G23 RMK AO2
14840KMKG MKG20021129114009911/29/02 11:40:31  5-MIN KMKG 291640Z 26012G20KT 10SM CLR 07/03 A2934 1170 76 600 270/12G20 RMK AO2
14840KMKG MKG20021129114510211/29/02 11:45:31  5-MIN KMKG 291645Z 26014G19KT 10SM FEW019 07/03 A2934 1170 76 600 270/14G19 RMK AO2
14840KMKG MKG20021129115011911/29/02 11:50:31  5-MIN KMKG 291650Z 26013G23KT 10SM FEW019 07/03 A2934 1170 76 600 260/13G23 RMK AO2 SLP938 T00720033
14840KMKG MKG20021129115511911/29/02 11:55:31  5-MIN KMKG 291655Z 25013G23KT 10SM FEW019 07/03 A2933 1180 76 600 260/13G23 RMK AO2 SLP937 T00720033
14840KMKG MKG20021129120009911/29/02 12:00:31  5-MIN KMKG 291700Z 26015G22KT 10SM CLR 07/03 A2933 1180 76 600 260/15G22 RMK AO2
14840KMKG MKG20021129120509911/29/02 12:05:31  5-MIN KMKG 291705Z 26014G22KT 10SM CLR 07/03 A2933 1180 76 600 260/14G22 RMK AO2
14840KMKG MKG20021129121009911/29/02 12:10:31  5-MIN KMKG 291710Z 25012G20KT 10SM CLR 07/03 A2933 1180 76 600 260/12G20 RMK AO2
14840KMKG MKG20021129121509911/29/02 12:15:31  5-MIN KMKG 291715Z 25013G20KT 10SM CLR 07/03 A2933 1180 76 600 250/13G20 RMK AO2
14840KMKG MKG20021129122009911/29/02 12:20:31  5-MIN KMKG 291720Z 26015G19KT 10SM CLR 07/03 A2933 1180 76 600 260/15G19 RMK AO2
14840KMKG MKG20021129122509911/29/02 12:25:31  5-MIN KMKG 291725Z 25015G19KT 10SM CLR 07/03 A2933 1180 76 600 260/15G19 RMK AO2
14840KMKG MKG20021129123009911/29/02 12:30:31  5-MIN KMKG 291730Z 25015G20KT 10SM CLR 07/04 A2933 1180 79 600 250/15G20 RMK AO2
14840KMKG MKG20021129123509911/29/02 12:35:31  5-MIN KMKG 291735Z 25013G20KT 10SM CLR 07/04 A2933 1180 79 600 250/13G20 RMK AO2
14840KMKG MKG20021129124009911/29/02 12:40:31  5-MIN KMKG 291740Z 25014G21KT 10SM CLR 08/04 A2933 1180 76 600 250/14G21 RMK AO2
14840KMKG MKG20021129124509911/29/02 12:45:31  5-MIN KMKG 291745Z 25016G21KT 10SM CLR 07/03 A2932 1190 76 600 260/16G21 RMK AO2
14840KMKG MKG20021129125013411/29/02 12:50:31  5-MIN KMKG 291750Z 25012G21KT 10SM CLR 07/03 A2933 1180 76 600 260/12G21 RMK AO2 SLP934 T00720033 10078 20056 58009
14840KMKG MKG20021129125512811/29/02 12:55:31  5-MIN KMKG 291755Z 25012KT 10SM CLR 07/04 A2932 1190 79 600 260/12 RMK AO2 SLP933 T00720039 10078 20056 58015
14840KMKG MKG20021129130009911/29/02 13:00:31  5-MIN KMKG 291800Z 25012G24KT 10SM CLR 07/03 A2932 1190 76 600 260/12G24 RMK AO2
14840KMKG MKG20021129130509911/29/02 13:05:31  5-MIN KMKG 291805Z 26013G24KT 10SM CLR 07/03 A2932 1190 76 600 260/13G24 RMK AO2
14840KMKG MKG20021129131009311/29/02 13:10:31  5-MIN KMKG 291810Z 25014KT 10SM CLR 07/03 A2932 1190 76 600 250/14 RMK AO2
14840KMKG MKG20021129131509311/29/02 13:15:31  5-MIN KMKG 291815Z 25013KT 10SM CLR 07/03 A2932 1190 76 600 250/13 RMK AO2
14840KMKG MKG20021129132009911/29/02 13:20:31  5-MIN KMKG 291820Z 25013G18KT 10SM CLR 07/03 A2933 1180 76 600 250/13G18 RMK AO2
14840KMKG MKG20021129132509911/29/02 13:25:31  5-MIN KMKG 291825Z 24014G21KT 10SM CLR 07/04 A2933 1180 79 600 250/14G21 RMK AO2
14840KMKG MKG20021129133009911/29/02 13:30:31  5-MIN KMKG 291830Z 24013G21KT 10SM CLR 07/03 A2933 1180 76 600 250/13G21 RMK AO2
14840KMKG MKG20021129133509911/29/02 13:35:31  5-MIN KMKG 291835Z 24016G21KT 10SM CLR 07/03 A2933 1180 76 600 240/16G21 RMK AO2
14840KMKG MKG20021129134009911/29/02 13:40:31  5-MIN KMKG 291840Z 24015G21KT 10SM CLR 07/03 A2933 1180 76 600 240/15G21 RMK AO2
14840KMKG MKG20021129134510211/29/02 13:45:31  5-MIN KMKG 291845Z 24011G21KT 10SM FEW019 07/04 A2933 1180 79 600 240/11G21 RMK AO2
14840KMKG MKG20021129135011911/29/02 13:50:31  5-MIN KMKG 291850Z 24016G22KT 10SM FEW019 07/03 A2933 1180 76 600 240/16G22 RMK AO2 SLP936 T00720033
14840KMKG MKG20021129135511911/29/02 13:55:31  5-MIN KMKG 291855Z 24017G23KT 10SM FEW019 07/03 A2933 1180 76 600 250/17G23 RMK AO2 SLP937 T00720033
14840KMKG MKG20021129140010211/29/02 14:00:31  5-MIN KMKG 291900Z 24018G23KT 10SM FEW019 07/03 A2934 1170 76 600 240/18G23 RMK AO2
14840KMKG MKG20021129140510211/29/02 14:05:31  5-MIN KMKG 291905Z 25011G22KT 10SM FEW019 07/03 A2934 1170 76 600 250/11G22 RMK AO2
14840KMKG MKG20021129141010211/29/02 14:10:31  5-MIN KMKG 291910Z 24016G21KT 10SM FEW019 07/03 A2934 1170 76 600 250/16G21 RMK AO2
14840KMKG MKG20021129141510211/29/02 14:15:31  5-MIN KMKG 291915Z 25013G21KT 10SM FEW019 07/03 A2934 1170 76 600 250/13G21 RMK AO2
14840KMKG MKG20021129142009611/29/02 14:20:31  5-MIN KMKG 291920Z 24018KT 10SM FEW019 07/03 A2934 1180 73 600 250/18 RMK AO2
14840KMKG MKG20021129142509611/29/02 14:25:31  5-MIN KMKG 291925Z 24015KT 10SM FEW019 07/03 A2934 1170 73 600 240/15 RMK AO2
14840KMKG MKG20021129143010211/29/02 14:30:31  5-MIN KMKG 291930Z 25015G25KT 10SM FEW019 07/03 A2934 1170 73 600 250/15G25 RMK AO2
14840KMKG MKG20021129143510211/29/02 14:35:31  5-MIN KMKG 291935Z 24014G25KT 10SM FEW019 07/03 A2934 1170 76 600 240/14G25 RMK AO2
14840KMKG MKG20021129144010211/29/02 14:40:31  5-MIN KMKG 291940Z 23016G21KT 10SM FEW019 07/03 A2933 1180 73 600 240/16G21 RMK AO2
14840KMKG MKG20021129144510211/29/02 14:45:31  5-MIN KMKG 291945Z 24013G25KT 10SM FEW019 07/03 A2933 1180 76 600 240/13G25 RMK AO2
14840KMKG MKG20021129145011911/29/02 14:50:31  5-MIN KMKG 291950Z 24014G25KT 10SM FEW019 07/03 A2933 1180 73 600 240/14G25 RMK AO2 SLP936 T00720028
14840KMKG MKG20021129145511911/29/02 14:55:31  5-MIN KMKG 291955Z 24014G19KT 10SM FEW019 07/03 A2933 1180 73 600 250/14G19 RMK AO2 SLP935 T00720028
14840KMKG MKG20021129150009911/29/02 15:00:31  5-MIN KMKG 292000Z 24016G21KT 10SM CLR 07/03 A2933 1180 73 600 250/16G21 RMK AO2
14840KMKG MKG20021129150509911/29/02 15:05:31  5-MIN KMKG 292005Z 24017G22KT 10SM CLR 07/03 A2933 1180 73 600 250/17G22 RMK AO2
14840KMKG MKG20021129151009911/29/02 15:10:31  5-MIN KMKG 292010Z 24015G22KT 10SM CLR 08/03 A2933 1180 70 600 240/15G22 RMK AO2
14840KMKG MKG20021129151509911/29/02 15:15:31  5-MIN KMKG 292015Z 24014G21KT 10SM CLR 08/02 A2933 1180 68 600 250/14G21 RMK AO2
14840KMKG MKG20021129152009911/29/02 15:20:31  5-MIN KMKG 292020Z 25016G22KT 10SM CLR 08/03 A2933 1180 70 600 250/16G22 RMK AO2
14840KMKG MKG20021129152509911/29/02 15:25:31  5-MIN KMKG 292025Z 24014G22KT 10SM CLR 08/03 A2933 1180 70 600 250/14G22 RMK AO2
14840KMKG MKG20021129153009911/29/02 15:30:31  5-MIN KMKG 292030Z 24015G22KT 10SM CLR 07/03 A2934 1180 73 600 250/15G22 RMK AO2
14840KMKG MKG20021129153509911/29/02 15:35:31  5-MIN KMKG 292035Z 24013G22KT 10SM CLR 07/03 A2934 1170 76 600 250/13G22 RMK AO2
14840KMKG MKG20021129154009311/29/02 15:40:31  5-MIN KMKG 292040Z 23015KT 10SM CLR 07/03 A2933 1180 76 600 240/15 RMK AO2
14840KMKG MKG20021129154509311/29/02 15:45:31  5-MIN KMKG 292045Z 24013KT 10SM CLR 07/03 A2934 1170 76 600 240/13 RMK AO2
14840KMKG MKG20021129155012211/29/02 15:50:31  5-MIN KMKG 292050Z 24013G19KT 10SM CLR 08/03 A2934 1170 73 600 240/13G19 RMK AO2 SLP938 T00780033 58015
14840KMKG MKG20021129155512211/29/02 15:55:31  5-MIN KMKG 292055Z 23015G21KT 10SM CLR 07/03 A2934 1170 76 600 240/15G21 RMK AO2 SLP939 T00720033 53006
14840KMKG MKG20021129160009911/29/02 16:00:31  5-MIN KMKG 292100Z 24015G21KT 10SM CLR 07/03 A2934 1170 76 600 240/15G21 RMK AO2
14840KMKG MKG20021129160509911/29/02 16:05:31  5-MIN KMKG 292105Z 24013G22KT 10SM CLR 07/03 A2934 1170 73 600 240/13G22 RMK AO2
14840KMKG MKG20021129161009911/29/02 16:10:31  5-MIN KMKG 292110Z 24012G22KT 10SM CLR 07/03 A2935 1170 73 500 240/12G22 RMK AO2
14840KMKG MKG20021129161509911/29/02 16:15:31  5-MIN KMKG 292115Z 25015G19KT 10SM CLR 07/03 A2935 1160 73 500 250/15G19 RMK AO2
14840KMKG MKG20021129162009911/29/02 16:20:31  5-MIN KMKG 292120Z 24013G19KT 10SM CLR 07/03 A2935 1170 76 500 240/13G19 RMK AO2
14840KMKG MKG20021129162509911/29/02 16:25:31  5-MIN KMKG 292125Z 24014G22KT 10SM CLR 07/03 A2935 1160 76 500 250/14G22 RMK AO2
14840KMKG MKG20021129163009911/29/02 16:30:31  5-MIN KMKG 292130Z 24013G22KT 10SM CLR 07/03 A2935 1160 76 500 250/13G22 RMK AO2
14840KMKG MKG20021129163509911/29/02 16:35:31  5-MIN KMKG 292135Z 24014G22KT 10SM CLR 07/03 A2935 1160 76 500 250/14G22 RMK AO2
14840KMKG MKG20021129164009911/29/02 16:40:31  5-MIN KMKG 292140Z 24012G22KT 10SM CLR 07/03 A2935 1160 73 500 250/12G22 RMK AO2
14840KMKG MKG20021129164509311/29/02 16:45:31  5-MIN KMKG 292145Z 24012KT 10SM CLR 07/03 A2936 1160 79 500 240/12 RMK AO2
14840KMKG MKG20021129165011011/29/02 16:50:31  5-MIN KMKG 292150Z 24014KT 10SM CLR 07/03 A2936 1150 76 500 240/14 RMK AO2 SLP944 T00720033
14840KMKG MKG20021129165511011/29/02 16:55:31  5-MIN KMKG 292155Z 24013KT 10SM CLR 07/03 A2936 1150 79 500 250/13 RMK AO2 SLP946 T00670033
14840KMKG MKG20021129170009311/29/02 17:00:31  5-MIN KMKG 292200Z 24011KT 10SM CLR 07/03 A2936 1150 79 500 250/11 RMK AO2
14840KMKG MKG20021129170509911/29/02 17:05:31  5-MIN KMKG 292205Z 24011G18KT 10SM CLR 07/03 A2936 1150 79 500 240/11G18 RMK AO2
14840KMKG MKG20021129171009911/29/02 17:10:31  5-MIN KMKG 292210Z 24011G18KT 10SM CLR 07/03 A2936 1150 79 500 240/11G18 RMK AO2
14840KMKG MKG20021129171509911/29/02 17:15:31  5-MIN KMKG 292215Z 23011G18KT 10SM CLR 07/03 A2936 1160 79 500 240/11G18 RMK AO2
14840KMKG MKG20021129172009911/29/02 17:20:31  5-MIN KMKG 292220Z 24011G18KT 10SM CLR 07/03 A2935 1160 79 500 250/11G18 RMK AO2
14840KMKG MKG20021129172509311/29/02 17:25:31  5-MIN KMKG 292225Z 24012KT 10SM CLR 07/03 A2935 1160 79 500 240/12 RMK AO2
14840KMKG MKG20021129173009911/29/02 17:30:31  5-MIN KMKG 292230Z 24010G17KT 10SM CLR 07/03 A2935 1160 79 500 250/10G17 RMK AO2
14840KMKG MKG20021129173509911/29/02 17:35:31  5-MIN KMKG 292235Z 24013G18KT 10SM CLR 07/03 A2935 1160 79 500 250/13G18 RMK AO2
14840KMKG MKG20021129174009911/29/02 17:40:31  5-MIN KMKG 292240Z 25009G18KT 10SM CLR 07/03 A2935 1160 79 500 250/09G18 RMK AO2
14840KMKG MKG20021129174509911/29/02 17:45:31  5-MIN KMKG 292245Z 24012G17KT 10SM CLR 07/03 A2936 1160 79 500 250/12G17 RMK AO2
14840KMKG MKG20021129175011611/29/02 17:50:31  5-MIN KMKG 292250Z 25013G19KT 10SM CLR 07/03 A2935 1160 76 500 250/13G19 RMK AO2 SLP943 T00670028
14840KMKG MKG20021129175511611/29/02 17:55:31  5-MIN KMKG 292255Z 25011G19KT 10SM CLR 07/03 A2935 1160 79 500 250/11G19 RMK AO2 SLP943 T00670033
14840KMKG MKG20021129180009311/29/02 18:00:31  5-MIN KMKG 292300Z 25011KT 10SM CLR 07/03 A2935 1160 79 500 250/11 RMK AO2
14840KMKG MKG20021129180509911/29/02 18:05:31  5-MIN KMKG 292305Z 25013G18KT 10SM CLR 07/03 A2935 1160 79 500 260/13G18 RMK AO2
14840KMKG MKG20021129181009911/29/02 18:10:31  5-MIN KMKG 292310Z 27010G18KT 10SM CLR 07/03 A2935 1160 79 500 270/10G18 RMK AO2
14840KMKG MKG20021129181509911/29/02 18:15:31  5-MIN KMKG 292315Z 26016G24KT 10SM CLR 07/02 A2935 1160 70 500 270/16G24 RMK AO2
14840KMKG MKG20021129182009911/29/02 18:20:31  5-MIN KMKG 292320Z 27014G24KT 10SM CLR 07/01 A2935 1160 65 500 270/14G24 RMK AO2
14840KMKG MKG20021129182509911/29/02 18:25:31  5-MIN KMKG 292325Z 27017G23KT 10SM CLR 07/01 A2935 1160 62 500 270/17G23 RMK AO2
14840KMKG MKG20021129183009911/29/02 18:30:31  5-MIN KMKG 292330Z 27013G25KT 10SM CLR 07/00 A2936 1160 60 500 270/13G25 RMK AO2
14840KMKG MKG20021129183511711/29/02 18:35:31  5-MIN KMKG 292335Z 27020G27KT 10SM CLR 08/00 A2936 1150 58 600 280/20G27 RMK AO2 PK WND 28027/2334
14840KMKG MKG20021129184011711/29/02 18:40:31  5-MIN KMKG 292340Z 26019G27KT 10SM CLR 07/00 A2936 1150 60 500 270/19G27 RMK AO2 PK WND 28027/2334
14840KMKG MKG20021129184511711/29/02 18:45:31  5-MIN KMKG 292345Z 27014G24KT 10SM CLR 07/00 A2936 1160 60 500 270/14G24 RMK AO2 PK WND 28027/2334
14840KMKG MKG20021129185015211/29/02 18:50:31  5-MIN KMKG 292350Z 27015G20KT 10SM CLR 07/00 A2936 1150 60 500 280/15G20 RMK AO2 PK WND 28027/2334 SLP944 T00720000 10078 20067 53006
14840KMKG MKG20021129185515211/29/02 18:55:31  5-MIN KMKG 292355Z 27016G21KT 10SM CLR 07/00 A2936 1150 60 500 270/16G21 RMK AO2 PK WND 28027/2334 SLP944 T00720000 10078 20067 51006
14840KMKG MKG20021129190009911/29/02 19:00:31  5-MIN KMKG 300000Z 26016G23KT 10SM CLR 07/00 A2936 1150 60 500 270/16G23 RMK AO2
14840KMKG MKG20021129190511811/29/02 19:05:31  5-MIN KMKG 300005Z 27021G26KT 10SM CLR 07/M01 A2936 1150 57 500 280/21G26 RMK AO2 PK WND 28026/0004
14840KMKG MKG20021129191011811/29/02 19:10:31  5-MIN KMKG 300010Z 27018G26KT 10SM CLR 07/M01 A2936 1150 57 500 270/18G26 RMK AO2 PK WND 28026/0004
14840KMKG MKG20021129191511811/29/02 19:15:31  5-MIN KMKG 300015Z 28019G26KT 10SM CLR 07/M01 A2936 1150 57 500 280/19G26 RMK AO2 PK WND 28026/0012
14840KMKG MKG20021129192011711/29/02 19:20:31  5-MIN KMKG 300020Z 27016G26KT 10SM CLR 07/00 A2936 1150 60 500 270/16G26 RMK AO2 PK WND 28026/0012
14840KMKG MKG20021129192511711/29/02 19:25:31  5-MIN KMKG 300025Z 27017G24KT 10SM CLR 07/00 A2936 1150 60 500 280/17G24 RMK AO2 PK WND 28026/0012
14840KMKG MKG20021129193011811/29/02 19:30:31  5-MIN KMKG 300030Z 28018G33KT 10SM CLR 07/M01 A2936 1150 57 500 280/18G33 RMK AO2 PK WND 27033/0028
14840KMKG MKG20021129193511811/29/02 19:35:31  5-MIN KMKG 300035Z 27018G33KT 10SM CLR 07/M01 A2937 1150 57 500 270/18G33 RMK AO2 PK WND 27033/0028
14840KMKG MKG20021129194011811/29/02 19:40:31  5-MIN KMKG 300040Z 27016G23KT 10SM CLR 07/M01 A2937 1150 60 500 270/16G23 RMK AO2 PK WND 27033/0028
14840KMKG MKG20021129194511711/29/02 19:45:31  5-MIN KMKG 300045Z 26018G24KT 10SM CLR 07/00 A2936 1150 60 500 270/18G24 RMK AO2 PK WND 27033/0028
14840KMKG MKG20021129195013411/29/02 19:50:31  5-MIN KMKG 300050Z 27017G28KT 10SM CLR 07/00 A2937 1150 62 500 280/17G28 RMK AO2 PK WND 27033/0028 SLP948 T00670000
14840KMKG MKG20021129195513411/29/02 19:55:31  5-MIN KMKG 300055Z 27019G28KT 10SM CLR 07/00 A2937 1150 62 500 270/19G28 RMK AO2 PK WND 27033/0028 SLP948 T00670000
14840KMKG MKG20021129200010011/29/02 20:00:31  5-MIN KMKG 300100Z 27018G25KT 10SM CLR 07/M01 A2937 1140 60 500 280/18G25 RMK AO2
14840KMKG MKG20021129200510011/29/02 20:05:31  5-MIN KMKG 300105Z 27019G23KT 10SM CLR 07/M01 A2937 1140 60 500 280/19G23 RMK AO2
14840KMKG MKG20021129201010011/29/02 20:10:31  5-MIN KMKG 300110Z 27015G23KT 10SM CLR 07/M01 A2937 1140 60 500 270/15G23 RMK AO2
14840KMKG MKG20021129201510011/29/02 20:15:31  5-MIN KMKG 300115Z 27017G23KT 10SM CLR 07/M01 A2937 1140 60 500 270/17G23 RMK AO2
14840KMKG MKG20021129202010011/29/02 20:20:31  5-MIN KMKG 300120Z 27016G25KT 10SM CLR 07/M01 A2937 1140 60 500 280/16G25 RMK AO2
14840KMKG MKG20021129202510011/29/02 20:25:31  5-MIN KMKG 300125Z 27019G25KT 10SM CLR 07/M01 A2937 1140 60 500 270/19G25 RMK AO2
14840KMKG MKG20021129203010011/29/02 20:30:31  5-MIN KMKG 300130Z 27020G25KT 10SM CLR 07/M01 A2937 1140 60 500 280/20G25 RMK AO2
14840KMKG MKG20021129203510011/29/02 20:35:31  5-MIN KMKG 300135Z 27018G25KT 10SM CLR 07/M01 A2937 1140 60 500 270/18G25 RMK AO2
14840KMKG MKG20021129204011811/29/02 20:40:31  5-MIN KMKG 300140Z 27017G26KT 10SM CLR 07/M01 A2937 1140 60 500 270/17G26 RMK AO2 PK WND 26026/0137
14840KMKG MKG20021129204511811/29/02 20:45:31  5-MIN KMKG 300145Z 26019G26KT 10SM CLR 07/M01 A2937 1140 60 500 270/19G26 RMK AO2 PK WND 26026/0137
14840KMKG MKG20021129205013511/29/02 20:50:31  5-MIN KMKG 300150Z 27014G25KT 10SM CLR 07/M01 A2937 1140 60 400 270/14G25 RMK AO2 PK WND 26026/0137 SLP950 T00671006
14840KMKG MKG20021129205513811/29/02 20:55:31  5-MIN KMKG 300155Z 27018G27KT 10SM FEW080 07/M01 A2937 1140 60 500 270/18G27 RMK AO2 PK WND 28027/0154 SLP949 T00671006
14840KMKG MKG20021129210010311/29/02 21:00:31  5-MIN KMKG 300200Z 26016G27KT 10SM BKN080 07/M01 A2937 1140 57 500 270/16G27 RMK AO2
14840KMKG MKG20021129210510311/29/02 21:05:31  5-MIN KMKG 300205Z 27017G25KT 10SM BKN080 07/M01 A2937 1140 60 400 270/17G25 RMK AO2
14840KMKG MKG20021129211010311/29/02 21:10:31  5-MIN KMKG 300210Z 26018G23KT 10SM BKN080 07/M01 A2937 1140 60 500 270/18G23 RMK AO2
14840KMKG MKG20021129211512111/29/02 21:15:31  5-MIN KMKG 300215Z 27016G26KT 10SM OVC075 07/M01 A2937 1150 57 500 270/16G26 RMK AO2 PK WND 27026/0212
14840KMKG MKG20021129212012111/29/02 21:20:31  5-MIN KMKG 300220Z 26016G26KT 10SM OVC075 07/M01 A2937 1140 60 500 270/16G26 RMK AO2 PK WND 27026/0212
14840KMKG MKG20021129212511511/29/02 21:25:31  5-MIN KMKG 300225Z 26015KT 10SM OVC075 07/M01 A2937 1140 60 500 270/15 RMK AO2 PK WND 27026/0212
14840KMKG MKG20021129213012111/29/02 21:30:31  5-MIN KMKG 300230Z 26017G23KT 10SM OVC075 07/M01 A2937 1140 60 500 270/17G23 RMK AO2 PK WND 27026/0212
14840KMKG MKG20021129213512111/29/02 21:35:31  5-MIN KMKG 300235Z 26017G24KT 10SM OVC080 07/M01 A2937 1140 60 500 270/17G24 RMK AO2 PK WND 27026/0212
14840KMKG MKG20021129214012111/29/02 21:40:31  5-MIN KMKG 300240Z 27016G27KT 10SM OVC080 07/M01 A2937 1140 57 500 270/16G27 RMK AO2 PK WND 27027/0236
14840KMKG MKG20021129214512111/29/02 21:45:31  5-MIN KMKG 300245Z 26014G27KT 10SM OVC075 07/M01 A2937 1140 57 500 270/14G27 RMK AO2 PK WND 27027/0236
14840KMKG MKG20021129215014411/29/02 21:50:31  5-MIN KMKG 300250Z 26016G23KT 10SM OVC080 07/M01 A2937 1140 60 500 260/16G23 RMK AO2 PK WND 27027/0236 SLP948 T00671006 51006
14840KMKG MKG20021129215514411/29/02 21:55:31  5-MIN KMKG 300255Z 26016G23KT 10SM OVC080 07/M01 A2937 1150 60 500 270/16G23 RMK AO2 PK WND 27027/0236 SLP947 T00671006 50003
14840KMKG MKG20021129220010311/29/02 22:00:31  5-MIN KMKG 300300Z 26018G24KT 10SM OVC080 07/M01 A2936 1150 57 500 270/18G24 RMK AO2
14840KMKG MKG20021129220510311/29/02 22:05:31  5-MIN KMKG 300305Z 26015G25KT 10SM OVC080 07/M01 A2936 1150 57 500 270/15G25 RMK AO2
14840KMKG MKG20021129221012111/29/02 22:10:31  5-MIN KMKG 300310Z 26018G26KT 10SM OVC085 07/M01 A2936 1150 57 500 270/18G26 RMK AO2 PK WND 26026/0309
14840KMKG MKG20021129221512111/29/02 22:15:31  5-MIN KMKG 300315Z 26016G26KT 10SM OVC080 07/M01 A2937 1150 60 500 260/16G26 RMK AO2 PK WND 26026/0309
14840KMKG MKG20021129222012811/29/02 22:20:31  5-MIN KMKG 300320Z 26019G25KT 10SM BKN070 OVC085 07/M01 A2937 1150 60 500 270/19G25 RMK AO2 PK WND 26026/0309
14840KMKG MKG20021129222512811/29/02 22:25:31  5-MIN KMKG 300325Z 26015G34KT 10SM SCT070 OVC090 07/M01 A2936 1150 60 500 270/15G34 RMK AO2 PK WND 26034/0321
14840KMKG MKG20021129223012811/29/02 22:30:31  5-MIN KMKG 300330Z 26017G34KT 10SM FEW070 BKN085 07/M01 A2936 1150 60 500 260/17G34 RMK AO2 PK WND 26034/0321
14840KMKG MKG20021129223512811/29/02 22:35:31  5-MIN KMKG 300335Z 26016G26KT 10SM FEW070 BKN090 07/M01 A2936 1150 60 500 270/16G26 RMK AO2 PK WND 26034/0321
14840KMKG MKG20021129224012711/29/02 22:40:31  5-MIN KMKG 300340Z 26014G23KT 10SM FEW070 BKN095 07/00 A2936 1150 62 500 270/14G23 RMK AO2 PK WND 26034/0321
14840KMKG MKG20021129224512711/29/02 22:45:31  5-MIN KMKG 300345Z 27018G23KT 10SM FEW070 BKN095 07/00 A2936 1150 62 500 270/18G23 RMK AO2 PK WND 26034/0321
14840KMKG MKG20021129225013811/29/02 22:50:31  5-MIN KMKG 300350Z 26017G23KT 10SM BKN100 07/M01 A2936 1160 60 500 270/17G23 RMK AO2 PK WND 26034/0321 SLP944 T00671006
14840KMKG MKG20021129225513811/29/02 22:55:31  5-MIN KMKG 300355Z 26017G24KT 10SM BKN100 07/M01 A2936 1150 60 500 260/17G24 RMK AO2 PK WND 26034/0321 SLP945 T00671006
14840KMKG MKG20021129230010311/29/02 23:00:31  5-MIN KMKG 300400Z 26016G24KT 10SM OVC100 07/M01 A2936 1150 60 500 260/16G24 RMK AO2
14840KMKG MKG20021129230510311/29/02 23:05:31  5-MIN KMKG 300405Z 26016G21KT 10SM OVC100 07/M01 A2936 1150 60 500 270/16G21 RMK AO2
14840KMKG MKG20021129231010311/29/02 23:10:31  5-MIN KMKG 300410Z 27017G21KT 10SM OVC100 07/M01 A2936 1150 60 500 270/17G21 RMK AO2
14840KMKG MKG20021129231512111/29/02 23:15:31  5-MIN KMKG 300415Z 26018G28KT 10SM OVC100 07/M01 A2936 1150 60 500 270/18G28 RMK AO2 PK WND 27028/0413
14840KMKG MKG20021129232012111/29/02 23:20:31  5-MIN KMKG 300420Z 27019G28KT 10SM OVC100 07/M01 A2936 1150 57 500 270/19G28 RMK AO2 PK WND 27028/0413
14840KMKG MKG20021129232512111/29/02 23:25:31  5-MIN KMKG 300425Z 27018G26KT 10SM OVC100 07/M01 A2936 1150 57 500 270/18G26 RMK AO2 PK WND 27028/0413
14840KMKG MKG20021129233012811/29/02 23:30:31  5-MIN KMKG 300430Z 27016G26KT 10SM FEW075 OVC100 07/M01 A2936 1160 57 500 280/16G26 RMK AO2 PK WND 27028/0413
14840KMKG MKG20021129233512811/29/02 23:35:31  5-MIN KMKG 300435Z 27013G26KT 10SM FEW075 OVC100 06/M01 A2936 1160 60 400 270/13G26 RMK AO2 PK WND 27028/0413
14840KMKG MKG20021129234012811/29/02 23:40:31  5-MIN KMKG 300440Z 26015G21KT 10SM FEW080 OVC100 06/M01 A2936 1160 60 400 270/15G21 RMK AO2 PK WND 27028/0413
14840KMKG MKG20021129234512811/29/02 23:45:31  5-MIN KMKG 300445Z 27018G27KT 10SM FEW075 OVC100 06/M01 A2936 1160 60 400 280/18G27 RMK AO2 PK WND 27028/0413
14840KMKG MKG20021129235016211/29/02 23:50:31  5-MIN KMKG 300450Z 27017G29KT 10SM FEW075 BKN100 BKN120 06/M01 A2936 1150 60 400 270/17G29 RMK AO2 PK WND 28029/0446 SLP944 T00611011 400780033
14840KMKG MKG20021129235517711/29/02 23:55:31  5-MIN KMKG 300455Z 27018G29KT 10SM FEW075 SCT100 BKN120 06/M01 A2935 1160 60 400 270/18G29 RMK AO2 PK WND 28029/0446 CIG 100 RWY 14 SLP943 T00611011 400780033
14840KMKG MKG20021130000011011/30/02 00:00:31  5-MIN KMKG 300500Z 27018G24KT 10SM SCT100 BKN120 06/M01 A2936 1150 60 400 280/18G24 RMK AO2
14840KMKG MKG20021130000511011/30/02 00:05:31  5-MIN KMKG 300505Z 27017G24KT 10SM SCT100 BKN120 06/M01 A2936 1160 60 400 280/17G24 RMK AO2
14840KMKG MKG20021130001011011/30/02 00:10:31  5-MIN KMKG 300510Z 27017G22KT 10SM SCT100 BKN120 06/M01 A2936 1160 60 400 270/17G22 RMK AO2
14840KMKG MKG20021130001511011/30/02 00:15:31  5-MIN KMKG 300515Z 28019G24KT 10SM FEW080 BKN110 06/M02 A2936 1150 57 400 290/19G24 RMK AO2
14840KMKG MKG20021130002012811/30/02 00:20:31  5-MIN KMKG 300520Z 28017G26KT 10SM FEW085 BKN110 06/M02 A2936 1160 57 400 280/17G26 RMK AO2 PK WND 29026/0518
14840KMKG MKG20021130002512811/30/02 00:25:31  5-MIN KMKG 300525Z 27020G26KT 10SM FEW080 BKN110 06/M02 A2936 1150 57 400 280/20G26 RMK AO2 PK WND 29026/0518
14840KMKG MKG20021130003012811/30/02 00:30:31  5-MIN KMKG 300530Z 27018G25KT 10SM FEW080 BKN100 06/M02 A2936 1150 57 400 280/18G25 RMK AO2 PK WND 29026/0518
14840KMKG MKG20021130003512811/30/02 00:35:31  5-MIN KMKG 300535Z 27018G24KT 10SM FEW080 BKN100 06/M01 A2936 1150 60 400 270/18G24 RMK AO2 PK WND 29026/0518
14840KMKG MKG20021130004012811/30/02 00:40:31  5-MIN KMKG 300540Z 27016G24KT 10SM FEW080 BKN100 06/M02 A2935 1160 57 400 280/16G24 RMK AO2 PK WND 29026/0518
14840KMKG MKG20021130004512111/30/02 00:45:31  5-MIN KMKG 300545Z 27017G24KT 10SM BKN100 06/M02 A2936 1150 57 400 270/17G24 RMK AO2 PK WND 29026/0518
14840KMKG MKG20021130005015611/30/02 00:50:31  5-MIN KMKG 300550Z 27014G27KT 10SM OVC100 06/M02 A2936 1160 57 400 280/14G27 RMK AO2 PK WND 26027/0546 SLP944 T00611017 10072 20061 50003
14840KMKG MKG20021130005516311/30/02 00:55:31  5-MIN KMKG 300555Z 27017G27KT 10SM FEW055 OVC100 06/M02 A2936 1150 57 400 280/17G27 RMK AO2 PK WND 26027/0546 SLP944 T00611017 10072 20061 55003
14840KMKG MKG20021130010011011/30/02 01:00:31  5-MIN KMKG 300600Z 27018G24KT 10SM SCT050 OVC100 06/M01 A2936 1150 60 400 280/18G24 RMK AO2
14840KMKG MKG20021130010511011/30/02 01:05:31  5-MIN KMKG 300605Z 27019G24KT 10SM BKN050 OVC100 06/M02 A2936 1160 57 400 280/19G24 RMK AO2
14840KMKG MKG20021130011011011/30/02 01:10:31  5-MIN KMKG 300610Z 26017G24KT 10SM BKN050 OVC100 06/M01 A2936 1160 60 400 260/17G24 RMK AO2
14840KMKG MKG20021130011511011/30/02 01:15:31  5-MIN KMKG 300615Z 27019G25KT 10SM BKN050 OVC100 06/M01 A2936 1160 60 400 270/19G25 RMK AO2
14840KMKG MKG20021130012012111/30/02 01:20:31  5-MIN KMKG 300620Z 27019G29KT 10SM OVC050 06/M02 A2935 1160 57 400 280/19G29 RMK AO2 PK WND 29029/0618
14840KMKG MKG20021130012512111/30/02 01:25:31  5-MIN KMKG 300625Z 28014G29KT 10SM OVC050 06/M01 A2935 1160 60 400 280/14G29 RMK AO2 PK WND 29029/0618
14840KMKG MKG20021130013014311/30/02 01:30:31  5-MIN KMKG 300630Z 27019G30KT 10SM FEW042 OVC055 06/M01 A2936 1160 60 400 280/19G30 RMK AO2 PK WND 28030/0627 CIG 048 RWY 14
14840KMKG MKG20021130013514411/30/02 01:35:31  5-MIN KMKG 300635Z 27016G30KT 10SM -RA FEW040 OVC050 06/M01 A2935 1160 60 400 270/16G30 RMK AO2 PK WND 28030/0627 RAB35 P0000
14840KMKG MKG20021130014015911/30/02 01:40:31  5-MIN KMKG 300640Z 28022G29KT 10SM -RA SCT042 OVC055 06/M02 A2935 1160 57 400 280/22G29 RMK AO2 PK WND 28030/0627 RAB35 CIG 043 RWY 14 P0000
14840KMKG MKG20021130014515911/30/02 01:45:31  5-MIN KMKG 300645Z 27021G29KT 10SM -RA SCT042 OVC055 06/M02 A2936 1160 57 400 280/21G29 RMK AO2 PK WND 28030/0627 RAB35 CIG 041 RWY 14 P0000
14840KMKG MKG20021130015016811/30/02 01:50:31  5-MIN KMKG 300650Z 27017G27KT 10SM -RA BKN042 BKN050 OVC060 06/M02 A2935 1160 57 400 270/17G27 RMK AO2 PK WND 28030/0627 RAB35 SLP942 P0000 T00611017
14840KMKG MKG20021130015516111/30/02 01:55:31  5-MIN KMKG 300655Z 28017G29KT 10SM -RA BKN039 OVC048 06/M01 A2935 1160 62 300 280/17G29 RMK AO2 PK WND 28030/0627 RAB35 SLP943 P0000 T00561011
14840KMKG MKG20021130020012011/30/02 02:00:31  5-MIN KMKG 300700Z 28018G29KT 10SM -RA BKN039 OVC046 06/M01 A2935 1160 62 300 290/18G29 RMK AO2 P0000
14840KMKG MKG20021130020513811/30/02 02:05:31  5-MIN KMKG 300705Z 29015G26KT 10SM -RA BKN041 OVC049 06/M01 A2935 1160 62 300 300/15G26 RMK AO2 PK WND 29026/0702 P0000
14840KMKG MKG20021130021014011/30/02 02:10:31  5-MIN KMKG 300710Z 30017G26KT 10SM BKN041 OVC049 05/M01 A2935 1160 64 300 300/17G26 RMK AO2 PK WND 29026/0702 RAE08 P0000
14840KMKG MKG20021130021514011/30/02 02:15:31  5-MIN KMKG 300715Z 29016G25KT 10SM BKN041 OVC049 05/M01 A2936 1160 64 300 290/16G25 RMK AO2 PK WND 29026/0702 RAE08 P0000
14840KMKG MKG20021130022014711/30/02 02:20:31  5-MIN KMKG 300720Z 30011G24KT 10SM FEW028 BKN041 OVC049 05/M01 A2935 1160 67 300 300/11G24 RMK AO2 PK WND 29026/0702 RAE08 P0000
14840KMKG MKG20021130022514411/30/02 02:25:31  5-MIN KMKG 300725Z 31021G26KT 10SM -RA FEW023 SCT031 OVC044 04/01 A2936 1150 76 200 310/21G26 RMK AO2 PK WND 30026/0725 P0000
14840KMKG MKG20021130023015911/30/02 02:30:31  5-MIN KMKG 300730Z 31016G26KT 10SM -RA FEW019 BKN042 OVC050 04/01 A2937 1150 82 100 310/16G26 RMK AO2 PK WND 30026/0725 CIG 032 RWY 14 P0000
14840KMKG MKG20021130023515911/30/02 02:35:31  5-MIN KMKG 300735Z 30016G23KT 10SM -RA SCT022 BKN045 OVC055 03/01 A2936 1150 85 100 300/16G23 RMK AO2 PK WND 30026/0725 CIG 032 RWY 14 P0000
14840KMKG MKG20021130024014211/30/02 02:40:31  5-MIN KMKG 300740Z 30016G23KT 10SM -RA FEW018 BKN028 OVC055 03/01 A2937 1150 85 0 310/16G23 RMK AO2 PK WND 30026/0725 P0000
14840KMKG MKG20021130024514211/30/02 02:45:31  5-MIN KMKG 300745Z 31013G21KT 10SM -RA FEW018 BKN027 OVC050 03/01 A2937 1140 85 0 310/13G21 RMK AO2 PK WND 30026/0725 P0000
14840KMKG MKG20021130025015911/30/02 02:50:31  5-MIN KMKG 300750Z 31012G22KT 10SM -RA SCT022 BKN033 OVC055 03/01 A2938 1140 85 0 310/12G22 RMK AO2 PK WND 30026/0725 SLP951 P0000 T00280006
14840KMKG MKG20021130025517411/30/02 02:55:31  5-MIN KMKG 300755Z 31013G22KT 10SM -RA SCT022 BKN031 OVC055 03/01 A2938 1140 85 0 310/13G22 RMK AO2 PK WND 30026/0725 CIG 026 RWY 14 SLP952 P0000 T00280006
14840KMKG MKG20021130030013911/30/02 03:00:31  5-MIN KMKG 300800Z 31014G20KT 10SM -RA SCT022 BKN031 OVC055 03/01 A2938 1140 85 0 310/14G20 RMK AO2 CIG 025 RWY 14 P0000
14840KMKG MKG20021130030512411/30/02 03:05:31  5-MIN KMKG 300805Z 30017G23KT 10SM -RA SCT020 BKN031 OVC070 03/01 A2937 1140 85 0 310/17G23 RMK AO2 P0000
14840KMKG MKG20021130031012411/30/02 03:10:31  5-MIN KMKG 300810Z 30017G23KT 10SM -RA SCT020 BKN034 OVC050 03/01 A2937 1140 85 0 300/17G23 RMK AO2 P0000
14840KMKG MKG20021130031514211/30/02 03:15:31  5-MIN KMKG 300815Z 31016G26KT 10SM -RA SCT020 BKN032 OVC050 03/01 A2938 1130 85 0 310/16G26 RMK AO2 PK WND 31026/0813 P0000
14840KMKG MKG20021130032014211/30/02 03:20:31  5-MIN KMKG 300820Z 30009G26KT 10SM -RA SCT022 BKN037 OVC055 03/01 A2938 1130 85 0 300/09G26 RMK AO2 PK WND 31026/0813 P0000
14840KMKG MKG20021130032514411/30/02 03:25:31  5-MIN KMKG 300825Z 29014G20KT 10SM FEW022 SCT034 OVC055 03/01 A2938 1130 85 0 290/14G20 RMK AO2 PK WND 31026/0813 RAE25 P0000
14840KMKG MKG20021130033014411/30/02 03:30:31  5-MIN KMKG 300830Z 30013G20KT 10SM SCT022 SCT036 OVC055 03/00 A2938 1130 82 0 310/13G20 RMK AO2 PK WND 31026/0813 RAE25 P0000
14840KMKG MKG20021130033515311/30/02 03:35:31  5-MIN KMKG 300835Z 30016G24KT 10SM -SN FEW020 BKN043 OVC055 03/01 A2938 1130 85 0 300/16G24 RMK AO2 PK WND 31026/0813 RAE34SNB34 P0000
14840KMKG MKG20021130034015811/30/02 03:40:31  5-MIN KMKG 300840Z 34020G24KT 5SM -SN BR SCT015 BKN024 OVC055 02/01 A2940 1120 89 -100 340/20G24 RMK AO2 PK WND 31026/0813 RAE34SNB34 P0000
14840KMKG MKG20021130034516211/30/02 03:45:31  5-MIN KMKG 300845Z 34017G24KT 1 3/4SM -SN BR FEW006 BKN015 OVC055 01/00 A2940 1120 92 -200 340/17G24 RMK AO2 PK WND 31026/0813 RAE34SNB34 P0000
14840KMKG MKG20021130035019111/30/02 03:50:31  5-MIN KMKG 300850Z 33015G22KT 1 1/4SM -SN BR SCT006 BKN015 OVC055 01/00 A2940 1110 96 -300 340/15G22 RMK AO2 PK WND 31026/0813 RAE34SNB34 SLP961 P0000 60000 T00060000 55003
14840KMKG MKG20021130035519111/30/02 03:55:31  5-MIN KMKG 300855Z 34011G21KT 1 1/2SM -SN BR BKN006 BKN015 OVC039 01/00 A2940 1120 96 -300 340/11G21 RMK AO2 PK WND 31026/0813 RAE34SNB34 SLP960 P0000 60000 T00060000 53014
14840KMKG MKG20021130040013311/30/02 04:00:31  5-MIN KMKG 300900Z 33015G21KT 1 3/4SM -SN BR BKN008 BKN015 OVC035 01/00 A2940 1120 96 -300 340/15G21 RMK AO2 P0000
14840KMKG MKG20021130040512611/30/02 04:05:31  5-MIN KMKG 300905Z 34013G19KT 1 3/4SM -SN BR BKN008 OVC013 01/00 A2940 1120 96 -300 340/13G19 RMK AO2 P0000
14840KMKG MKG20021130041012011/30/02 04:10:31  5-MIN KMKG 300910Z 33011KT 1 3/4SM -SN BR BKN008 OVC015 01/00 A2940 1120 96 -300 340/11 RMK AO2 P0000
14840KMKG MKG20021130041512011/30/02 04:15:31  5-MIN KMKG 300915Z 33010KT 2 1/2SM -SN BR BKN008 OVC015 01/00 A2940 1120 96 -300 340/10 RMK AO2 P0000
14840KMKG MKG20021130042014611/30/02 04:20:31  5-MIN KMKG 300920Z 32012G17KT 4SM -SN BR SCT008 BKN012 OVC017 01/00 A2940 1110 96 -300 330/12G17 RMK AO2 VIS 2 1/2 RWY 14 P0000
14840KMKG MKG20021130042513911/30/02 04:25:31  5-MIN KMKG 300925Z 33014G17KT 3SM -SN BR BKN012 OVC017 01/00 A2940 1110 96 -300 340/14G17 RMK AO2 VIS 2 1/2 RWY 14 P0000
14840KMKG MKG20021130043010911/30/02 04:30:31  5-MIN KMKG 300930Z 33013KT 2SM -SN BR OVC012 01/00 A2940 1110 96 -300 340/13 RMK AO2 P0000
14840KMKG MKG20021130043512011/30/02 04:35:31  5-MIN KMKG 300935Z 33013KT 1 1/2SM -SN BR SCT008 OVC014 01/00 A2940 1110 96 -300 330/13 RMK AO2 P0000
14840KMKG MKG20021130044012111/30/02 04:40:31  5-MIN KMKG 300940Z 33012KT 1 1/4SM -SN BR SCT008 OVC014 00/00 A2941 1110 100 -400 330/12 RMK AO2 P0000
14840KMKG MKG20021130044513611/30/02 04:45:31  5-MIN KMKG 300945Z 34009KT 1 1/2SM -SN BR BKN006 OVC012 00/00 A2941 1110 100 -400 340/09 RMK AO2 VIS 3/4 RWY 14 P0000
14840KMKG MKG20021130045013811/30/02 04:50:31  5-MIN KMKG 300950Z 33009KT 1 1/4SM -SN BR BKN008 OVC012 00/00 A2941 1100 100 -400 330/09 RMK AO2 SLP965 P0000 T00000000
14840KMKG MKG20021130045513411/30/02 04:55:31  5-MIN KMKG 300955Z 32014KT 1SM -SN BR BKN008 OVC012 00/00 A2941 1100 100 -400 330/14 RMK AO2 SLP964 P0001 T00000000
14840KMKG MKG20021130050011711/30/02 05:00:31  5-MIN KMKG 301000Z 33013KT 1SM -SN BR BKN008 OVC012 00/00 A2941 1100 100 -400 330/13 RMK AO2 P0000
14840KMKG MKG20021130050511711/30/02 05:05:31  5-MIN KMKG 301005Z 32013KT 1SM -SN BR BKN008 OVC012 00/00 A2942 1100 100 -400 330/13 RMK AO2 P0000
