14840KMKG MKG20060201000009702/01/06 00:00:35  5-MIN KMKG 010500Z 17008KT 10SM OVC100 00/M04 A2990 650 75 -900 180/08 RMK AO2
14840KMKG MKG20060201000509702/01/06 00:05:31  5-MIN KMKG 010505Z 17007KT 10SM OVC100 00/M04 A2990 650 75 -900 170/07 RMK AO2
14840KMKG MKG20060201001010402/01/06 00:10:31  5-MIN KMKG 010510Z 17006KT 10SM FEW018 OVC110 00/M03 A2990 650 78 -900 180/06 RMK AO2
14840KMKG MKG20060201001510402/01/06 00:15:31  5-MIN KMKG 010515Z 17007KT 10SM SCT018 OVC100 01/M03 A2990 650 75 -900 170/07 RMK AO2
14840KMKG MKG20060201002010402/01/06 00:20:31  5-MIN KMKG 010520Z 17006KT 10SM BKN018 OVC110 01/M03 A2990 650 75 -900 180/06 RMK AO2
14840KMKG MKG20060201002510402/01/06 00:25:31  5-MIN KMKG 010525Z 17007KT 10SM BKN018 OVC110 01/M03 A2990 650 75 -900 170/07 RMK AO2
14840KMKG MKG20060201003010402/01/06 00:30:31  5-MIN KMKG 010530Z 17006KT 10SM BKN018 OVC110 01/M03 A2990 650 75 -900 170/06 RMK AO2
14840KMKG MKG20060201003509702/01/06 00:35:31  5-MIN KMKG 010535Z 18008KT 10SM OVC016 01/M03 A2990 650 75 -900 180/08 RMK AO2
14840KMKG MKG20060201004009702/01/06 00:40:31  5-MIN KMKG 010540Z 19009KT 10SM OVC016 01/M03 A2990 640 78 -900 190/09 RMK AO2
14840KMKG MKG20060201004509702/01/06 00:45:31  5-MIN KMKG 010545Z 19008KT 10SM OVC016 01/M03 A2991 640 78 -900 190/08 RMK AO2
14840KMKG MKG20060201005013202/01/06 00:50:31  5-MIN KMKG 010550Z 18009KT 10SM OVC016 01/M03 A2990 650 78 -900 190/09 RMK AO2 SLP134 T00061028 10011 20000 56010
14840KMKG MKG20060201005513202/01/06 00:55:31  5-MIN KMKG 010555Z 19009KT 10SM OVC016 01/M02 A2990 650 82 -900 200/09 RMK AO2 SLP133 T00061022 10011 20000 56005
14840KMKG MKG20060201010009702/01/06 01:00:31  5-MIN KMKG 010600Z 19010KT 10SM OVC016 01/M02 A2990 640 82 -900 190/10 RMK AO2
14840KMKG MKG20060201010509702/01/06 01:05:31  5-MIN KMKG 010605Z 19008KT 10SM OVC016 01/M02 A2991 640 78 -800 200/08 RMK AO2
14840KMKG MKG20060201011009702/01/06 01:10:31  5-MIN KMKG 010610Z 19010KT 10SM OVC016 01/M02 A2991 640 78 -800 190/10 RMK AO2
14840KMKG MKG20060201011509702/01/06 01:15:31  5-MIN KMKG 010615Z 19009KT 10SM OVC016 01/M02 A2991 640 82 -800 190/09 RMK AO2
14840KMKG MKG20060201012009702/01/06 01:20:31  5-MIN KMKG 010620Z 19008KT 10SM OVC018 01/M02 A2991 640 82 -800 190/08 RMK AO2
14840KMKG MKG20060201012509702/01/06 01:25:31  5-MIN KMKG 010625Z 19007KT 10SM OVC018 01/M02 A2990 640 82 -800 190/07 RMK AO2
14840KMKG MKG20060201013009702/01/06 01:30:31  5-MIN KMKG 010630Z 19005KT 10SM OVC018 01/M02 A2990 650 82 -800 190/05 RMK AO2
14840KMKG MKG20060201013509702/01/06 01:35:31  5-MIN KMKG 010635Z 19007KT 10SM OVC018 01/M02 A2990 650 82 -800 190/07 RMK AO2
14840KMKG MKG20060201014009702/01/06 01:40:31  5-MIN KMKG 010640Z 18006KT 10SM OVC018 01/M02 A2990 650 82 -800 190/06 RMK AO2
14840KMKG MKG20060201014509702/01/06 01:45:31  5-MIN KMKG 010645Z 17007KT 10SM OVC018 01/M01 A2990 650 85 -800 180/07 RMK AO2
14840KMKG MKG20060201015011402/01/06 01:50:31  5-MIN KMKG 010650Z 18007KT 10SM OVC018 01/M01 A2990 650 85 -800 180/07 RMK AO2 SLP131 T00111011
14840KMKG MKG20060201015511402/01/06 01:55:31  5-MIN KMKG 010655Z 18008KT 10SM OVC018 01/M01 A2989 660 85 -800 180/08 RMK AO2 SLP129 T00111011
14840KMKG MKG20060201020009702/01/06 02:00:31  5-MIN KMKG 010700Z 18007KT 10SM OVC018 01/M01 A2989 660 85 -800 180/07 RMK AO2
14840KMKG MKG20060201020509702/01/06 02:05:31  5-MIN KMKG 010705Z 18007KT 10SM OVC018 01/M02 A2989 660 82 -800 180/07 RMK AO2
14840KMKG MKG20060201021009702/01/06 02:10:31  5-MIN KMKG 010710Z 18008KT 10SM OVC018 01/M02 A2989 660 82 -800 180/08 RMK AO2
14840KMKG MKG20060201021510402/01/06 02:15:31  5-MIN KMKG 010715Z 18009KT 10SM BKN018 OVC110 01/M02 A2989 660 82 -800 180/09 RMK AO2
14840KMKG MKG20060201022010402/01/06 02:20:31  5-MIN KMKG 010720Z 18007KT 10SM BKN018 OVC110 01/M02 A2988 670 82 -800 180/07 RMK AO2
14840KMKG MKG20060201022511902/01/06 02:25:31  5-MIN KMKG 010725Z 17007KT 10SM SCT018 OVC120 01/M02 A2988 670 82 -800 170/07 RMK AO2 CIG 018 RWY 14
14840KMKG MKG20060201023010402/01/06 02:30:31  5-MIN KMKG 010730Z 16008KT 10SM FEW018 OVC120 01/M02 A2987 670 82 -800 170/08 RMK AO2
14840KMKG MKG20060201023510402/01/06 02:35:31  5-MIN KMKG 010735Z 16009KT 10SM FEW018 BKN120 01/M02 A2987 680 82 -800 170/09 RMK AO2
14840KMKG MKG20060201024009702/01/06 02:40:31  5-MIN KMKG 010740Z 16007KT 10SM SCT120 01/M02 A2986 680 82 -800 160/07 RMK AO2
14840KMKG MKG20060201024509702/01/06 02:45:31  5-MIN KMKG 010745Z 13008KT 10SM SCT120 01/M02 A2986 680 85 -800 140/08 RMK AO2
14840KMKG MKG20060201025011402/01/06 02:50:31  5-MIN KMKG 010750Z 13009KT 10SM BKN120 00/M02 A2986 690 85 -900 140/09 RMK AO2 SLP117 T00001022
14840KMKG MKG20060201025511402/01/06 02:55:31  5-MIN KMKG 010755Z 14008KT 10SM BKN120 00/M02 A2986 690 85 -900 140/08 RMK AO2 SLP116 T00001022
14840KMKG MKG20060201030010402/01/06 03:00:31  5-MIN KMKG 010800Z 14010KT 10SM FEW100 SCT110 00/M03 A2985 690 81 -900 150/10 RMK AO2
14840KMKG MKG20060201030510402/01/06 03:05:31  5-MIN KMKG 010805Z 15009KT 10SM BKN100 BKN120 00/M03 A2985 700 81 -900 150/09 RMK AO2
14840KMKG MKG20060201031009602/01/06 03:10:31  5-MIN KMKG 010810Z 15009KT 9SM BKN100 00/M03 A2985 700 81 -900 160/09 RMK AO2
14840KMKG MKG20060201031509602/01/06 03:15:31  5-MIN KMKG 010815Z 15008KT 9SM BKN100 00/M03 A2984 700 81 -900 150/08 RMK AO2
14840KMKG MKG20060201032011802/01/06 03:20:31  5-MIN KMKG 010820Z 14009KT 9SM SCT100 BKN110 00/M03 A2984 700 81 -900 150/09 RMK AO2 CIG 090 RWY 14
14840KMKG MKG20060201032511802/01/06 03:25:31  5-MIN KMKG 010825Z 14009KT 9SM SCT100 BKN110 00/M03 A2984 710 81 -900 150/09 RMK AO2 CIG 090 RWY 14
14840KMKG MKG20060201033009602/01/06 03:30:31  5-MIN KMKG 010830Z 15009KT 9SM BKN100 00/M03 A2983 710 81 -900 150/09 RMK AO2
14840KMKG MKG20060201033509602/01/06 03:35:31  5-MIN KMKG 010835Z 16007KT 9SM BKN100 00/M03 A2984 710 81 -900 160/07 RMK AO2
14840KMKG MKG20060201034010302/01/06 03:40:31  5-MIN KMKG 010840Z 16007KT 9SM BKN100 BKN110 00/M03 A2983 710 81 -900 160/07 RMK AO2
14840KMKG MKG20060201034510302/01/06 03:45:31  5-MIN KMKG 010845Z 15011KT 8SM BKN095 BKN110 00/M03 A2982 720 81 -800 160/11 RMK AO2
14840KMKG MKG20060201035012602/01/06 03:50:31  5-MIN KMKG 010850Z 16009KT 8SM BKN095 BKN110 00/M03 A2982 720 81 -800 160/09 RMK AO2 SLP106 T00001028 56005
14840KMKG MKG20060201035514102/01/06 03:55:31  5-MIN KMKG 010855Z 16009KT 8SM SCT100 BKN120 00/M03 A2982 720 81 -800 160/09 RMK AO2 CIG 095 RWY 14 SLP105 T00001028 58028
14840KMKG MKG20060201040011802/01/06 04:00:31  5-MIN KMKG 010900Z 15010KT 8SM FEW090 BKN120 00/M03 A2982 730 81 -800 150/10 RMK AO2 CIG 090 RWY 14
14840KMKG MKG20060201040511802/01/06 04:05:31  5-MIN KMKG 010905Z 16011KT 8SM FEW100 BKN120 00/M03 A2981 730 81 -800 160/11 RMK AO2 CIG 095 RWY 14
14840KMKG MKG20060201041011802/01/06 04:10:31  5-MIN KMKG 010910Z 15010KT 8SM FEW095 BKN120 00/M03 A2981 730 81 -800 160/10 RMK AO2 CIG 095 RWY 14
14840KMKG MKG20060201041511802/01/06 04:15:31  5-MIN KMKG 010915Z 16011KT 8SM FEW090 BKN110 00/M03 A2981 740 81 -800 160/11 RMK AO2 CIG 090 RWY 14
14840KMKG MKG20060201042011102/01/06 04:20:31  5-MIN KMKG 010920Z 16010KT 8SM BKN110 00/M03 A2980 740 81 -800 160/10 RMK AO2 CIG 090 RWY 14
14840KMKG MKG20060201042511102/01/06 04:25:31  5-MIN KMKG 010925Z 15009KT 8SM BKN110 00/M03 A2980 740 81 -800 160/09 RMK AO2 CIG 090 RWY 14
14840KMKG MKG20060201043011102/01/06 04:30:31  5-MIN KMKG 010930Z 16012KT 8SM BKN110 01/M03 A2979 750 78 -700 160/12 RMK AO2 CIG 090 RWY 14
14840KMKG MKG20060201043512402/01/06 04:35:31  5-MIN KMKG 010935Z 15012G18KT 8SM BKN110 01/M03 A2979 750 78 -700 160/12G18 RMK AO2 CIG 090 RWY 14 PRESFR
14840KMKG MKG20060201044010902/01/06 04:40:31  5-MIN KMKG 010940Z 15010G18KT 8SM SCT110 01/M03 A2978 760 78 -700 150/10G18 RMK AO2 PRESFR
14840KMKG MKG20060201044509602/01/06 04:45:31  5-MIN KMKG 010945Z 15010KT 8SM SCT110 01/M03 A2978 760 78 -700 160/10 RMK AO2
14840KMKG MKG20060201045011302/01/06 04:50:31  5-MIN KMKG 010950Z 15010KT 8SM SCT110 01/M03 A2977 770 78 -700 160/10 RMK AO2 SLP090 T00061028
14840KMKG MKG20060201045511302/01/06 04:55:31  5-MIN KMKG 010955Z 16008KT 8SM BKN110 01/M03 A2978 760 78 -700 160/08 RMK AO2 SLP091 T00061028
14840KMKG MKG20060201050009602/01/06 05:00:31  5-MIN KMKG 011000Z 16008KT 8SM BKN100 01/M03 A2977 770 78 -700 160/08 RMK AO2
14840KMKG MKG20060201050509602/01/06 05:05:31  5-MIN KMKG 011005Z 17008KT 8SM BKN100 01/M03 A2978 760 78 -700 170/08 RMK AO2
14840KMKG MKG20060201051009602/01/06 05:10:31  5-MIN KMKG 011010Z 17008KT 9SM BKN100 01/M03 A2977 770 78 -700 170/08 RMK AO2
14840KMKG MKG20060201051509602/01/06 05:15:31  5-MIN KMKG 011015Z 17008KT 9SM OVC110 01/M03 A2977 770 78 -700 170/08 RMK AO2
14840KMKG MKG20060201052011102/01/06 05:20:31  5-MIN KMKG 011020Z 18008KT 9SM BKN110 01/M03 A2977 770 75 -700 190/08 RMK AO2 CIG 080 RWY 14
14840KMKG MKG20060201052511802/01/06 05:25:31  5-MIN KMKG 011025Z 18007KT 9SM FEW095 BKN110 01/M02 A2977 770 78 -600 180/07 RMK AO2 CIG 080 RWY 14
14840KMKG MKG20060201053011802/01/06 05:30:31  5-MIN KMKG 011030Z 16007KT 9SM FEW090 BKN120 01/M02 A2977 770 78 -600 170/07 RMK AO2 CIG 085 RWY 14
14840KMKG MKG20060201053511102/01/06 05:35:31  5-MIN KMKG 011035Z 15008KT 9SM BKN120 01/M02 A2976 780 78 -600 160/08 RMK AO2 CIG 090 RWY 14
14840KMKG MKG20060201054011802/01/06 05:40:31  5-MIN KMKG 011040Z 16006KT 9SM FEW075 BKN110 01/M02 A2976 780 78 -600 160/06 RMK AO2 CIG 085 RWY 14
14840KMKG MKG20060201054510302/01/06 05:45:31  5-MIN KMKG 011045Z 15006KT 9SM BKN080 BKN110 01/M02 A2976 780 78 -600 160/06 RMK AO2
14840KMKG MKG20060201055012002/01/06 05:50:31  5-MIN KMKG 011050Z 15005KT 9SM BKN065 BKN120 01/M02 A2976 780 78 -600 160/05 RMK AO2 SLP084 T00111022
14840KMKG MKG20060201055512002/01/06 05:55:31  5-MIN KMKG 011055Z 14006KT 9SM BKN060 OVC120 01/M02 A2975 790 78 -600 150/06 RMK AO2 SLP080 T00111022
14840KMKG MKG20060201060010302/01/06 06:00:31  5-MIN KMKG 011100Z 13006KT 9SM BKN055 OVC075 01/M02 A2974 800 78 -600 130/06 RMK AO2
14840KMKG MKG20060201060509602/01/06 06:05:31  5-MIN KMKG 011105Z 13007KT 9SM OVC050 01/M02 A2974 800 78 -600 130/07 RMK AO2
14840KMKG MKG20060201061010302/01/06 06:10:31  5-MIN KMKG 011110Z 13008KT 9SM OVC050 01/M02 A2973 810 78 -600 130/08 RMK AO2 PRESFR
14840KMKG MKG20060201061511202/01/06 06:15:31  5-MIN KMKG 011115Z 14008KT 9SM -RA OVC050 01/M02 A2973 810 78 -600 140/08 RMK AO2 RAB14 P0000
14840KMKG MKG20060201062011902/01/06 06:20:31  5-MIN KMKG 011120Z 15008KT 9SM -RA BKN050 OVC060 01/M02 A2974 800 78 -600 150/08 RMK AO2 RAB14 P0000
14840KMKG MKG20060201062511902/01/06 06:25:31  5-MIN KMKG 011125Z 14010KT 9SM -RA BKN048 OVC060 01/M02 A2973 810 78 -600 140/10 RMK AO2 RAB14 P0000
14840KMKG MKG20060201063011302/01/06 06:30:31  5-MIN KMKG 011130Z 13012KT 10SM -RA OVC050 01/M02 A2971 820 78 -600 140/12 RMK AO2 RAB14 P0000
14840KMKG MKG20060201063511902/01/06 06:35:31  5-MIN KMKG 011135Z 14011KT 10SM BKN060 OVC110 01/M02 A2971 830 78 -600 150/11 RMK AO2 RAB14E35 P0000
14840KMKG MKG20060201064011802/01/06 06:40:31  5-MIN KMKG 011140Z 14010KT 9SM BKN060 OVC110 01/M02 A2971 830 78 -600 140/10 RMK AO2 RAB14E35 P0000
14840KMKG MKG20060201064513302/01/06 06:45:31  5-MIN KMKG 011145Z 14010KT 9SM SCT055 OVC110 01/M02 A2970 830 78 -600 150/10 RMK AO2 RAB14E35 CIG 065 RWY 14 P0000
14840KMKG MKG20060201065015902/01/06 06:50:31  5-MIN KMKG 011150Z 14011KT 9SM SCT065 BKN110 01/M02 A2970 830 78 -600 140/11 RMK AO2 RAB14E35 SLP065 P0000 60000 T00111022 10011 20000 58028
14840KMKG MKG20060201065515902/01/06 06:55:31  5-MIN KMKG 011155Z 14009KT 9SM SCT080 BKN100 01/M02 A2970 830 78 -600 150/09 RMK AO2 RAB14E35 SLP064 P0000 60000 T00111022 10011 20000 58039
14840KMKG MKG20060201070010302/01/06 07:00:31  5-MIN KMKG 011200Z 15009KT 9SM BKN100 BKN110 01/M02 A2970 830 78 -600 150/09 RMK AO2
14840KMKG MKG20060201070510302/01/06 07:05:31  5-MIN KMKG 011205Z 15008KT 9SM BKN090 BKN110 01/M02 A2970 830 78 -600 160/08 RMK AO2
14840KMKG MKG20060201071011802/01/06 07:10:31  5-MIN KMKG 011210Z 15009KT 9SM SCT090 BKN110 01/M02 A2970 840 78 -600 150/09 RMK AO2 CIG 090 RWY 14
14840KMKG MKG20060201071511802/01/06 07:15:31  5-MIN KMKG 011215Z 15009KT 9SM SCT095 BKN120 01/M02 A2970 840 78 -600 150/09 RMK AO2 CIG 090 RWY 14
14840KMKG MKG20060201072011802/01/06 07:20:31  5-MIN KMKG 011220Z 15008KT 9SM SCT095 BKN120 01/M02 A2970 840 78 -600 150/08 RMK AO2 CIG 090 RWY 14
14840KMKG MKG20060201072510302/01/06 07:25:31  5-MIN KMKG 011225Z 15010KT 9SM SCT100 BKN120 01/M02 A2969 840 78 -600 150/10 RMK AO2
14840KMKG MKG20060201073010302/01/06 07:30:31  5-MIN KMKG 011230Z 15010KT 9SM FEW080 BKN110 01/M02 A2969 840 78 -600 160/10 RMK AO2
14840KMKG MKG20060201073510302/01/06 07:35:31  5-MIN KMKG 011235Z 15009KT 9SM SCT090 BKN110 01/M02 A2969 850 78 -500 150/09 RMK AO2
14840KMKG MKG20060201074010302/01/06 07:40:31  5-MIN KMKG 011240Z 14009KT 9SM BKN090 BKN110 02/M02 A2969 850 75 -500 150/09 RMK AO2
14840KMKG MKG20060201074510302/01/06 07:45:31  5-MIN KMKG 011245Z 15009KT 9SM BKN075 OVC110 02/M02 A2968 850 75 -500 160/09 RMK AO2
14840KMKG MKG20060201075012802/01/06 07:50:31  5-MIN KMKG 011250Z 15009KT 10SM BKN075 BKN090 OVC110 02/M02 A2968 860 75 -500 150/09 RMK AO2 SLP055 T00171022
14840KMKG MKG20060201075512102/01/06 07:55:31  5-MIN KMKG 011255Z 16009KT 10SM BKN075 OVC090 02/M02 A2967 860 78 -500 160/09 RMK AO2 SLP054 T00171017
14840KMKG MKG20060201080011102/01/06 08:00:31  5-MIN KMKG 011300Z 14011KT 10SM BKN075 OVC090 02/M02 A2966 870 75 -400 150/11 RMK AO2 PRESFR
14840KMKG MKG20060201080511102/01/06 08:05:31  5-MIN KMKG 011305Z 15010KT 10SM SCT070 OVC090 02/M02 A2965 880 75 -400 150/10 RMK AO2 PRESFR
14840KMKG MKG20060201081010402/01/06 08:10:31  5-MIN KMKG 011310Z 15010KT 10SM FEW060 OVC090 02/M02 A2965 880 75 -400 150/10 RMK AO2
14840KMKG MKG20060201081511002/01/06 08:15:31  5-MIN KMKG 011315Z 15011KT 9SM BKN080 OVC090 02/M02 A2964 890 75 -400 150/11 RMK AO2 PRESFR
14840KMKG MKG20060201082011002/01/06 08:20:31  5-MIN KMKG 011320Z 15011KT 9SM BKN080 BKN090 OVC110 02/M02 A2964 890 75 -400 150/11 RMK AO2
14840KMKG MKG20060201082510302/01/06 08:25:31  5-MIN KMKG 011325Z 15012KT 9SM BKN085 BKN110 02/M02 A2964 890 75 -400 150/12 RMK AO2
14840KMKG MKG20060201083010302/01/06 08:30:31  5-MIN KMKG 011330Z 16010KT 9SM BKN080 BKN095 02/M02 A2964 890 75 -400 160/10 RMK AO2
14840KMKG MKG20060201083510302/01/06 08:35:31  5-MIN KMKG 011335Z 17010KT 9SM BKN080 BKN095 03/M02 A2965 880 72 -300 170/10 RMK AO2
14840KMKG MKG20060201084009702/01/06 08:40:31  5-MIN KMKG 011340Z 16007KT 10SM BKN080 03/M02 A2965 880 72 -300 170/07 RMK AO2
14840KMKG MKG20060201084509702/01/06 08:45:31  5-MIN KMKG 011345Z 16009KT 10SM BKN080 03/M02 A2964 890 72 -300 160/09 RMK AO2
14840KMKG MKG20060201085011402/01/06 08:50:31  5-MIN KMKG 011350Z 16008KT 10SM SCT080 03/M02 A2964 890 72 -300 160/08 RMK AO2 SLP044 T00281017
14840KMKG MKG20060201085511402/01/06 08:55:31  5-MIN KMKG 011355Z 16010KT 10SM BKN080 03/M02 A2964 890 70 -200 170/10 RMK AO2 SLP043 T00331017
14840KMKG MKG20060201090010402/01/06 09:00:31  5-MIN KMKG 011400Z 16010KT 10SM SCT090 BKN110 04/M02 A2964 890 67 -100 170/10 RMK AO2
14840KMKG MKG20060201090510402/01/06 09:05:31  5-MIN KMKG 011405Z 18012KT 10SM FEW090 SCT110 04/M02 A2963 900 67 -100 180/12 RMK AO2
14840KMKG MKG20060201091010302/01/06 09:10:31  5-MIN KMKG 011410Z 18014G20KT 10SM FEW100 04/M02 A2963 900 64 -100 190/14G20 RMK AO2
14840KMKG MKG20060201091510302/01/06 09:15:31  5-MIN KMKG 011415Z 18016G21KT 10SM FEW100 04/M02 A2963 900 62 -100 190/16G21 RMK AO2
14840KMKG MKG20060201092010002/01/06 09:20:31  5-MIN KMKG 011420Z 18018G22KT 10SM SCT100 05/M02 A2962 910 62 0 190/18G22 RMK AO2
14840KMKG MKG20060201092510002/01/06 09:25:31  5-MIN KMKG 011425Z 19017G22KT 10SM SCT100 06/M02 A2963 900 59 0 200/17G22 RMK AO2
14840KMKG MKG20060201093010702/01/06 09:30:31  5-MIN KMKG 011430Z 18017G25KT 10SM SCT100 SCT120 06/M02 A2962 910 59 0 190/17G25 RMK AO2
14840KMKG MKG20060201093514002/01/06 09:35:31  5-MIN KMKG 011435Z 19019G26KT 10SM SCT100 BKN120 06/M02 A2962 910 59 0 190/19G26 RMK AO2 PK WND 20026/1435 CIG 100 RWY 14
14840KMKG MKG20060201094012502/01/06 09:40:31  5-MIN KMKG 011440Z 19016G26KT 10SM BKN100 BKN120 05/M02 A2962 910 62 0 190/16G26 RMK AO2 PK WND 18026/1438
14840KMKG MKG20060201094511802/01/06 09:45:31  5-MIN KMKG 011445Z 19017G26KT 10SM BKN100 05/M02 A2962 910 62 0 190/17G26 RMK AO2 PK WND 18026/1442
14840KMKG MKG20060201095014102/01/06 09:50:31  5-MIN KMKG 011450Z 19021G30KT 10SM BKN100 06/M02 A2962 910 59 0 190/21G30 RMK AO2 PK WND 18030/1450 SLP034 T00561017 58039
14840KMKG MKG20060201095514102/01/06 09:55:31  5-MIN KMKG 011455Z 19019G30KT 10SM BKN100 06/M02 A2961 920 59 0 190/19G30 RMK AO2 PK WND 18030/1450 SLP033 T00561017 56030
14840KMKG MKG20060201100011802/01/06 10:00:31  5-MIN KMKG 011500Z 19020G29KT 10SM BKN100 06/M02 A2961 920 59 0 190/20G29 RMK AO2 PK WND 19029/1458
14840KMKG MKG20060201100511802/01/06 10:05:31  5-MIN KMKG 011505Z 19018G29KT 10SM BKN100 05/M02 A2961 920 62 0 200/18G29 RMK AO2 PK WND 19029/1458
14840KMKG MKG20060201101011802/01/06 10:10:31  5-MIN KMKG 011510Z 19022G31KT 10SM BKN100 05/M02 A2961 920 62 0 190/22G31 RMK AO2 PK WND 19031/1510
14840KMKG MKG20060201101511802/01/06 10:15:31  5-MIN KMKG 011515Z 19020G31KT 10SM BKN100 05/M02 A2961 920 62 0 190/20G31 RMK AO2 PK WND 19031/1510
14840KMKG MKG20060201102011802/01/06 10:20:31  5-MIN KMKG 011520Z 19020G29KT 10SM BKN100 05/M02 A2960 930 62 0 200/20G29 RMK AO2 PK WND 19031/1510
14840KMKG MKG20060201102511802/01/06 10:25:31  5-MIN KMKG 011525Z 19020G28KT 10SM BKN100 05/M02 A2960 930 62 0 200/20G28 RMK AO2 PK WND 19031/1510
14840KMKG MKG20060201103011802/01/06 10:30:31  5-MIN KMKG 011530Z 20020G28KT 10SM BKN095 05/M02 A2960 930 62 0 200/20G28 RMK AO2 PK WND 19031/1510
14840KMKG MKG20060201103511802/01/06 10:35:31  5-MIN KMKG 011535Z 19022G28KT 10SM BKN095 05/M02 A2960 930 62 0 200/22G28 RMK AO2 PK WND 19031/1510
14840KMKG MKG20060201104011802/01/06 10:40:31  5-MIN KMKG 011540Z 20019G28KT 10SM SCT095 05/M01 A2960 930 64 0 200/19G28 RMK AO2 PK WND 19031/1510
14840KMKG MKG20060201104511802/01/06 10:45:31  5-MIN KMKG 011545Z 19018G31KT 10SM SCT095 05/M02 A2960 930 62 0 200/18G31 RMK AO2 PK WND 19031/1542
14840KMKG MKG20060201105013502/01/06 10:50:31  5-MIN KMKG 011550Z 20021G31KT 10SM SCT095 05/M01 A2959 940 64 0 200/21G31 RMK AO2 PK WND 19031/1542 SLP025 T00501011
14840KMKG MKG20060201105513702/01/06 10:55:31  5-MIN KMKG 011555Z 19020G29KT 10SM BKN095 06/M01 A2959 940 62 100 190/20G29 RMK AO2 PK WND 19031/1542 SLP026 T00561011
14840KMKG MKG20060201110011802/01/06 11:00:31  5-MIN KMKG 011600Z 20020G28KT 10SM FEW100 05/M01 A2960 930 64 0 200/20G28 RMK AO2 PK WND 20028/1557
14840KMKG MKG20060201110511802/01/06 11:05:31  5-MIN KMKG 011605Z 20020G28KT 10SM FEW100 05/M01 A2960 930 64 0 200/20G28 RMK AO2 PK WND 20028/1557
14840KMKG MKG20060201111011802/01/06 11:10:31  5-MIN KMKG 011610Z 20019G28KT 10SM FEW100 05/M01 A2960 930 64 0 200/19G28 RMK AO2 PK WND 21028/1608
14840KMKG MKG20060201111511802/01/06 11:15:31  5-MIN KMKG 011615Z 20020G28KT 10SM SCT100 05/M01 A2960 930 64 0 200/20G28 RMK AO2 PK WND 19028/1614
14840KMKG MKG20060201112011802/01/06 11:20:31  5-MIN KMKG 011620Z 19019G28KT 10SM SCT100 05/M01 A2960 930 64 0 200/19G28 RMK AO2 PK WND 19028/1614
14840KMKG MKG20060201112511802/01/06 11:25:31  5-MIN KMKG 011625Z 20019G26KT 10SM SCT095 05/M01 A2960 930 64 0 200/19G26 RMK AO2 PK WND 19028/1614
14840KMKG MKG20060201113011802/01/06 11:30:31  5-MIN KMKG 011630Z 20017G28KT 10SM SCT090 05/M01 A2960 920 64 0 200/17G28 RMK AO2 PK WND 21028/1628
14840KMKG MKG20060201113511802/01/06 11:35:31  5-MIN KMKG 011635Z 20019G28KT 10SM BKN090 05/M01 A2960 920 64 0 210/19G28 RMK AO2 PK WND 21028/1628
14840KMKG MKG20060201114011802/01/06 11:40:31  5-MIN KMKG 011640Z 20017G25KT 10SM BKN095 05/M01 A2960 930 64 0 200/17G25 RMK AO2 PK WND 21028/1628
14840KMKG MKG20060201114511802/01/06 11:45:31  5-MIN KMKG 011645Z 20018G25KT 10SM SCT095 05/M01 A2959 930 67 0 210/18G25 RMK AO2 PK WND 21028/1628
14840KMKG MKG20060201115013502/01/06 11:50:31  5-MIN KMKG 011650Z 20017G23KT 10SM SCT095 05/M01 A2960 930 67 0 210/17G23 RMK AO2 PK WND 21028/1628 SLP027 T00501006
14840KMKG MKG20060201115513502/01/06 11:55:31  5-MIN KMKG 011655Z 20019G23KT 10SM BKN095 05/M01 A2960 930 67 0 200/19G23 RMK AO2 PK WND 21028/1628 SLP027 T00501006
14840KMKG MKG20060201120010002/01/06 12:00:31  5-MIN KMKG 011700Z 21019G24KT 10SM SCT100 05/M01 A2960 930 67 0 210/19G24 RMK AO2
14840KMKG MKG20060201120510002/01/06 12:05:31  5-MIN KMKG 011705Z 21018G24KT 10SM BKN100 05/M01 A2959 930 67 0 210/18G24 RMK AO2
14840KMKG MKG20060201121011802/01/06 12:10:31  5-MIN KMKG 011710Z 20020G27KT 10SM BKN100 05/M01 A2959 940 67 0 210/20G27 RMK AO2 PK WND 19027/1710
14840KMKG MKG20060201121511802/01/06 12:15:31  5-MIN KMKG 011715Z 21019G27KT 10SM BKN100 05/M01 A2959 940 67 0 210/19G27 RMK AO2 PK WND 19027/1710
14840KMKG MKG20060201122011802/01/06 12:20:31  5-MIN KMKG 011720Z 21018G23KT 10SM BKN100 05/M01 A2959 940 67 0 210/18G23 RMK AO2 PK WND 19027/1710
14840KMKG MKG20060201122511802/01/06 12:25:31  5-MIN KMKG 011725Z 21018G23KT 10SM BKN100 05/M01 A2959 940 67 0 210/18G23 RMK AO2 PK WND 19027/1710
14840KMKG MKG20060201123011802/01/06 12:30:31  5-MIN KMKG 011730Z 21016G23KT 10SM BKN100 05/M01 A2959 940 67 0 210/16G23 RMK AO2 PK WND 19027/1710
14840KMKG MKG20060201123511102/01/06 12:35:31  5-MIN KMKG 011735Z 21016KT 10SM BKN095 05/00 A2959 930 70 0 210/16 RMK AO2 PK WND 19027/1710
14840KMKG MKG20060201124011102/01/06 12:40:31  5-MIN KMKG 011740Z 21019KT 10SM BKN090 05/00 A2959 930 70 0 210/19 RMK AO2 PK WND 19027/1710
14840KMKG MKG20060201124512402/01/06 12:45:31  5-MIN KMKG 011745Z 21020G27KT 10SM BKN080 BKN100 05/00 A2959 940 70 0 220/20G27 RMK AO2 PK WND 21027/1743
14840KMKG MKG20060201125017402/01/06 12:50:31  5-MIN KMKG 011750Z 21017G27KT 10SM SCT080 BKN100 05/00 A2959 940 70 0 220/17G27 RMK AO2 PK WND 21027/1743 CIG 080 RWY 14 SLP025 T00500000 10056 20011 56030
14840KMKG MKG20060201125515302/01/06 12:55:31  5-MIN KMKG 011755Z 21018KT 10SM SCT080 BKN100 05/00 A2959 940 70 0 210/18 RMK AO2 PK WND 21027/1743 SLP024 T00500000 10056 20011 56008
14840KMKG MKG20060201130010202/01/06 13:00:31  5-MIN KMKG 011800Z 21017KT 10SM SCT080 BKN100 06/00 A2959 940 67 100 210/17 RMK AO2
14840KMKG MKG20060201130512602/01/06 13:05:31  5-MIN KMKG 011805Z 21018G26KT 10SM SCT080 BKN095 06/00 A2959 940 67 100 220/18G26 RMK AO2 PK WND 21026/1801
14840KMKG MKG20060201131012602/01/06 13:10:31  5-MIN KMKG 011810Z 22018G26KT 10SM SCT075 BKN095 06/00 A2959 940 67 100 220/18G26 RMK AO2 PK WND 21026/1801
14840KMKG MKG20060201131512002/01/06 13:15:31  5-MIN KMKG 011815Z 21019KT 10SM SCT070 BKN090 06/00 A2959 940 67 100 220/19 RMK AO2 PK WND 21026/1801
14840KMKG MKG20060201132013302/01/06 13:20:31  5-MIN KMKG 011820Z 21018G22KT 10SM BKN065 BKN080 BKN100 06/01 A2958 940 70 100 220/18G22 RMK AO2 PK WND 21026/1801
14840KMKG MKG20060201132512602/01/06 13:25:31  5-MIN KMKG 011825Z 22016G23KT 10SM BKN060 BKN080 06/01 A2958 940 70 100 220/16G23 RMK AO2 PK WND 21026/1801
14840KMKG MKG20060201133013302/01/06 13:30:31  5-MIN KMKG 011830Z 22018G23KT 10SM FEW050 BKN060 BKN080 06/01 A2959 940 70 100 220/18G23 RMK AO2 PK WND 21026/1801
14840KMKG MKG20060201133513302/01/06 13:35:31  5-MIN KMKG 011835Z 22016G23KT 10SM FEW037 BKN050 OVC065 06/01 A2959 940 70 100 220/16G23 RMK AO2 PK WND 21026/1801
14840KMKG MKG20060201134013302/01/06 13:40:31  5-MIN KMKG 011840Z 22016G23KT 10SM SCT037 BKN050 OVC060 06/01 A2959 940 67 100 230/16G23 RMK AO2 PK WND 21026/1801
14840KMKG MKG20060201134513302/01/06 13:45:31  5-MIN KMKG 011845Z 22018G26KT 10SM BKN035 BKN050 OVC060 06/01 A2959 940 70 100 220/18G26 RMK AO2 PK WND 22026/1845
14840KMKG MKG20060201135014302/01/06 13:50:31  5-MIN KMKG 011850Z 23015G26KT 10SM BKN035 OVC050 06/01 A2959 940 70 100 230/15G26 RMK AO2 PK WND 22026/1845 SLP025 T00560006
14840KMKG MKG20060201135513702/01/06 13:55:31  5-MIN KMKG 011855Z 23016KT 10SM BKN033 OVC050 06/01 A2959 940 70 100 240/16 RMK AO2 PK WND 22026/1845 SLP025 T00560006
14840KMKG MKG20060201140009502/01/06 14:00:31  5-MIN KMKG 011900Z 23015KT 10SM OVC033 06/01 A2959 940 73 100 230/15 RMK AO2
14840KMKG MKG20060201140509502/01/06 14:05:31  5-MIN KMKG 011905Z 23016KT 10SM OVC031 06/01 A2959 930 73 100 230/16 RMK AO2
14840KMKG MKG20060201141009502/01/06 14:10:31  5-MIN KMKG 011910Z 23017KT 10SM OVC031 06/01 A2959 940 73 100 230/17 RMK AO2
14840KMKG MKG20060201141509502/01/06 14:15:31  5-MIN KMKG 011915Z 23016KT 10SM OVC031 06/01 A2959 930 73 100 230/16 RMK AO2
14840KMKG MKG20060201142009502/01/06 14:20:31  5-MIN KMKG 011920Z 23014KT 10SM OVC031 06/01 A2960 930 73 100 240/14 RMK AO2
14840KMKG MKG20060201142510102/01/06 14:25:31  5-MIN KMKG 011925Z 24015G21KT 10SM OVC029 06/01 A2960 930 73 100 240/15G21 RMK AO2
14840KMKG MKG20060201143010102/01/06 14:30:31  5-MIN KMKG 011930Z 24012G21KT 10SM OVC029 06/01 A2960 930 73 100 250/12G21 RMK AO2
14840KMKG MKG20060201143509502/01/06 14:35:31  5-MIN KMKG 011935Z 25012KT 10SM OVC029 06/01 A2960 930 73 100 250/12 RMK AO2
14840KMKG MKG20060201144009302/01/06 14:40:31  5-MIN KMKG 011940Z 25013KT 10SM OVC029 06/01 A2960 930 73 0 250/13 RMK AO2
14840KMKG MKG20060201144509302/01/06 14:45:31  5-MIN KMKG 011945Z 26012KT 10SM OVC027 06/01 A2960 930 73 0 260/12 RMK AO2
14840KMKG MKG20060201145011702/01/06 14:50:31  5-MIN KMKG 011950Z 26011KT 10SM BKN021 OVC027 05/01 A2960 920 76 0 270/11 RMK AO2 SLP029 T00500011
14840KMKG MKG20060201145511702/01/06 14:55:31  5-MIN KMKG 011955Z 27011KT 10SM BKN019 OVC025 05/01 A2960 920 76 0 280/11 RMK AO2 SLP030 T00500011
14840KMKG MKG20060201150010602/01/06 15:00:31  5-MIN KMKG 012000Z 29012G18KT 10SM BKN017 OVC025 04/01 A2961 920 79 0 290/12G18 RMK AO2
14840KMKG MKG20060201150510602/01/06 15:05:31  5-MIN KMKG 012005Z 30014G18KT 10SM BKN017 OVC025 04/01 A2961 920 79 0 310/14G18 RMK AO2
14840KMKG MKG20060201151010902/01/06 15:10:31  5-MIN KMKG 012010Z 30012G18KT 10SM FEW013 OVC019 04/01 A2961 920 79 -100 300/12G18 RMK AO2
14840KMKG MKG20060201151510102/01/06 15:15:31  5-MIN KMKG 012015Z 30009G19KT 9SM OVC019 04/01 A2961 920 79 -100 300/09G19 RMK AO2
14840KMKG MKG20060201152010102/01/06 15:20:31  5-MIN KMKG 012020Z 29013G19KT 9SM OVC019 04/01 A2962 910 79 -100 300/13G19 RMK AO2
14840KMKG MKG20060201152509502/01/06 15:25:31  5-MIN KMKG 012025Z 29012KT 9SM OVC019 04/01 A2962 910 79 -100 290/12 RMK AO2
14840KMKG MKG20060201153010202/01/06 15:30:31  5-MIN KMKG 012030Z 29011KT 9SM BKN019 OVC024 04/01 A2962 910 79 -100 290/11 RMK AO2
14840KMKG MKG20060201153510302/01/06 15:35:31  5-MIN KMKG 012035Z 29010KT 10SM SCT019 OVC024 04/01 A2963 900 79 -100 290/10 RMK AO2
14840KMKG MKG20060201154009602/01/06 15:40:31  5-MIN KMKG 012040Z 29010KT 10SM OVC022 04/01 A2963 900 79 -100 290/10 RMK AO2
14840KMKG MKG20060201154509602/01/06 15:45:31  5-MIN KMKG 012045Z 29008KT 10SM OVC024 04/00 A2963 900 76 -100 290/08 RMK AO2
14840KMKG MKG20060201155011902/01/06 15:50:31  5-MIN KMKG 012050Z 28010KT 10SM OVC024 04/00 A2963 900 76 -100 280/10 RMK AO2 SLP040 T00390000 56008
14840KMKG MKG20060201155511902/01/06 15:55:31  5-MIN KMKG 012055Z 29012KT 10SM OVC024 04/00 A2963 900 76 -100 290/12 RMK AO2 SLP040 T00390000 53015
14840KMKG MKG20060201160009602/01/06 16:00:31  5-MIN KMKG 012100Z 29011KT 10SM OVC024 04/00 A2963 900 76 -100 290/11 RMK AO2
14840KMKG MKG20060201160509602/01/06 16:05:31  5-MIN KMKG 012105Z 29011KT 10SM OVC024 04/00 A2963 900 76 -100 290/11 RMK AO2
14840KMKG MKG20060201161009602/01/06 16:10:31  5-MIN KMKG 012110Z 29009KT 10SM OVC024 04/00 A2964 890 76 -100 290/09 RMK AO2
14840KMKG MKG20060201161509702/01/06 16:15:31  5-MIN KMKG 012115Z 29013KT 10SM OVC024 04/M01 A2964 890 73 -100 290/13 RMK AO2
14840KMKG MKG20060201162009702/01/06 16:20:31  5-MIN KMKG 012120Z 29010KT 10SM OVC026 04/M01 A2964 890 73 -200 300/10 RMK AO2
14840KMKG MKG20060201162509702/01/06 16:25:31  5-MIN KMKG 012125Z 29012KT 10SM OVC028 04/M01 A2965 890 73 -200 290/12 RMK AO2
14840KMKG MKG20060201163009702/01/06 16:30:31  5-MIN KMKG 012130Z 29011KT 10SM OVC028 04/M01 A2965 880 73 -200 290/11 RMK AO2
14840KMKG MKG20060201163509702/01/06 16:35:31  5-MIN KMKG 012135Z 29010KT 10SM OVC028 04/M01 A2965 880 73 -200 290/10 RMK AO2
14840KMKG MKG20060201164010302/01/06 16:40:31  5-MIN KMKG 012140Z 29014G18KT 10SM OVC028 04/M01 A2965 880 70 -200 290/14G18 RMK AO2
14840KMKG MKG20060201164510302/01/06 16:45:31  5-MIN KMKG 012145Z 30011G18KT 10SM OVC028 04/M01 A2965 880 70 -200 300/11G18 RMK AO2
14840KMKG MKG20060201165012002/01/06 16:50:31  5-MIN KMKG 012150Z 30011G18KT 10SM OVC028 04/M01 A2965 880 70 -200 300/11G18 RMK AO2 SLP047 T00391011
14840KMKG MKG20060201165512002/01/06 16:55:31  5-MIN KMKG 012155Z 29011G18KT 10SM OVC028 04/M01 A2965 880 70 -200 290/11G18 RMK AO2 SLP047 T00391011
14840KMKG MKG20060201170009702/01/06 17:00:31  5-MIN KMKG 012200Z 28010KT 10SM OVC026 04/M01 A2966 880 73 -200 280/10 RMK AO2
14840KMKG MKG20060201170509702/01/06 17:05:31  5-MIN KMKG 012205Z 29008KT 10SM OVC026 04/M01 A2966 880 73 -200 300/08 RMK AO2
14840KMKG MKG20060201171009702/01/06 17:10:31  5-MIN KMKG 012210Z 29010KT 10SM OVC026 03/M01 A2966 870 72 -200 300/10 RMK AO2
14840KMKG MKG20060201171509702/01/06 17:15:31  5-MIN KMKG 012215Z 29007KT 10SM OVC026 03/M01 A2966 870 72 -200 290/07 RMK AO2
14840KMKG MKG20060201172009702/01/06 17:20:31  5-MIN KMKG 012220Z 28010KT 10SM OVC026 03/M01 A2966 870 72 -200 280/10 RMK AO2
14840KMKG MKG20060201172509702/01/06 17:25:31  5-MIN KMKG 012225Z 29008KT 10SM OVC028 03/M01 A2966 870 72 -200 300/08 RMK AO2
14840KMKG MKG20060201173009702/01/06 17:30:31  5-MIN KMKG 012230Z 29009KT 10SM OVC028 03/M01 A2966 870 72 -200 290/09 RMK AO2
14840KMKG MKG20060201173509702/01/06 17:35:31  5-MIN KMKG 012235Z 29008KT 10SM OVC028 03/M01 A2966 870 72 -200 290/08 RMK AO2
14840KMKG MKG20060201174009702/01/06 17:40:31  5-MIN KMKG 012240Z 29009KT 10SM OVC028 03/M01 A2966 870 72 -200 290/09 RMK AO2
14840KMKG MKG20060201174509702/01/06 17:45:31  5-MIN KMKG 012245Z 28007KT 10SM OVC028 03/M01 A2967 860 72 -300 290/07 RMK AO2
14840KMKG MKG20060201175011402/01/06 17:50:31  5-MIN KMKG 012250Z 29010KT 10SM OVC028 03/M01 A2967 860 72 -300 290/10 RMK AO2 SLP053 T00331011
14840KMKG MKG20060201175511402/01/06 17:55:31  5-MIN KMKG 012255Z 29009KT 10SM OVC028 03/M01 A2967 860 72 -300 290/09 RMK AO2 SLP053 T00331011
14840KMKG MKG20060201180009702/01/06 18:00:31  5-MIN KMKG 012300Z 29008KT 10SM OVC028 03/M01 A2967 860 72 -300 300/08 RMK AO2
14840KMKG MKG20060201180509702/01/06 18:05:31  5-MIN KMKG 012305Z 29008KT 10SM OVC028 03/M01 A2967 860 72 -300 300/08 RMK AO2
14840KMKG MKG20060201181009702/01/06 18:10:31  5-MIN KMKG 012310Z 29007KT 10SM OVC028 03/M01 A2967 860 72 -300 300/07 RMK AO2
14840KMKG MKG20060201181509702/01/06 18:15:31  5-MIN KMKG 012315Z 30008KT 10SM OVC028 03/M01 A2968 860 72 -300 300/08 RMK AO2
14840KMKG MKG20060201182009702/01/06 18:20:31  5-MIN KMKG 012320Z 29010KT 10SM OVC026 03/M02 A2968 850 70 -300 290/10 RMK AO2
14840KMKG MKG20060201182509702/01/06 18:25:31  5-MIN KMKG 012325Z 29008KT 10SM OVC026 03/M02 A2968 850 70 -300 290/08 RMK AO2
14840KMKG MKG20060201183009702/01/06 18:30:31  5-MIN KMKG 012330Z 29007KT 10SM OVC026 03/M02 A2969 850 70 -300 290/07 RMK AO2
14840KMKG MKG20060201183509702/01/06 18:35:31  5-MIN KMKG 012335Z 29008KT 10SM OVC026 03/M02 A2969 850 70 -300 290/08 RMK AO2
14840KMKG MKG20060201184009702/01/06 18:40:31  5-MIN KMKG 012340Z 29009KT 10SM OVC026 03/M02 A2969 850 70 -300 290/09 RMK AO2
14840KMKG MKG20060201184509702/01/06 18:45:31  5-MIN KMKG 012345Z 29008KT 10SM OVC026 03/M02 A2969 840 70 -300 300/08 RMK AO2
14840KMKG MKG20060201185013202/01/06 18:50:31  5-MIN KMKG 012350Z 27008KT 10SM OVC026 03/M02 A2969 840 70 -300 280/08 RMK AO2 SLP060 T00331017 10061 20033 53015
14840KMKG MKG20060201185513202/01/06 18:55:31  5-MIN KMKG 012355Z 29009KT 10SM OVC026 03/M02 A2970 840 70 -300 290/09 RMK AO2 SLP062 T00331017 10061 20033 53021
14840KMKG MKG20060201190009702/01/06 19:00:31  5-MIN KMKG 020000Z 28008KT 10SM OVC026 03/M02 A2970 840 70 -300 290/08 RMK AO2
14840KMKG MKG20060201190509702/01/06 19:05:31  5-MIN KMKG 020005Z 28007KT 10SM OVC026 03/M01 A2970 830 72 -300 290/07 RMK AO2
14840KMKG MKG20060201191009702/01/06 19:10:31  5-MIN KMKG 020010Z 28007KT 10SM OVC024 03/M01 A2970 830 72 -300 280/07 RMK AO2
14840KMKG MKG20060201191509702/01/06 19:15:31  5-MIN KMKG 020015Z 28010KT 10SM OVC024 03/M01 A2971 830 72 -300 290/10 RMK AO2
14840KMKG MKG20060201192009702/01/06 19:20:31  5-MIN KMKG 020020Z 29007KT 10SM OVC024 03/M01 A2971 820 72 -300 290/07 RMK AO2
14840KMKG MKG20060201192509702/01/06 19:25:31  5-MIN KMKG 020025Z 28009KT 10SM OVC024 03/M01 A2972 820 72 -300 280/09 RMK AO2
14840KMKG MKG20060201193009702/01/06 19:30:31  5-MIN KMKG 020030Z 28009KT 10SM OVC022 03/M01 A2972 820 72 -300 290/09 RMK AO2
14840KMKG MKG20060201193509702/01/06 19:35:31  5-MIN KMKG 020035Z 28008KT 10SM OVC024 03/M01 A2972 810 75 -400 280/08 RMK AO2
14840KMKG MKG20060201194009702/01/06 19:40:31  5-MIN KMKG 020040Z 29008KT 10SM OVC024 03/M01 A2972 810 75 -400 290/08 RMK AO2
14840KMKG MKG20060201194509702/01/06 19:45:31  5-MIN KMKG 020045Z 29007KT 10SM OVC024 03/M01 A2973 810 75 -400 290/07 RMK AO2
14840KMKG MKG20060201195011402/01/06 19:50:31  5-MIN KMKG 020050Z 28005KT 10SM OVC024 03/M01 A2973 810 75 -400 280/05 RMK AO2 SLP074 T00281011
14840KMKG MKG20060201195511402/01/06 19:55:31  5-MIN KMKG 020055Z 27006KT 10SM OVC024 03/M01 A2973 810 75 -400 280/06 RMK AO2 SLP074 T00281011
14840KMKG MKG20060201200009702/01/06 20:00:31  5-MIN KMKG 020100Z 29008KT 10SM OVC024 03/M01 A2973 800 75 -400 290/08 RMK AO2
14840KMKG MKG20060201200509702/01/06 20:05:31  5-MIN KMKG 020105Z 29008KT 10SM OVC024 03/M01 A2973 810 75 -400 300/08 RMK AO2
14840KMKG MKG20060201201009702/01/06 20:10:31  5-MIN KMKG 020110Z 28007KT 10SM OVC024 03/M01 A2973 810 75 -400 290/07 RMK AO2
14840KMKG MKG20060201201509702/01/06 20:15:31  5-MIN KMKG 020115Z 29007KT 10SM OVC024 03/M01 A2973 810 75 -400 290/07 RMK AO2
14840KMKG MKG20060201202009702/01/06 20:20:31  5-MIN KMKG 020120Z 29007KT 10SM OVC024 03/M01 A2973 810 75 -400 290/07 RMK AO2
14840KMKG MKG20060201202509702/01/06 20:25:31  5-MIN KMKG 020125Z 29008KT 10SM OVC024 03/M01 A2973 810 75 -400 300/08 RMK AO2
14840KMKG MKG20060201203009702/01/06 20:30:31  5-MIN KMKG 020130Z 29008KT 10SM OVC024 03/M01 A2973 810 75 -400 300/08 RMK AO2
14840KMKG MKG20060201203509702/01/06 20:35:31  5-MIN KMKG 020135Z 30008KT 10SM OVC024 03/M02 A2973 810 72 -400 300/08 RMK AO2
14840KMKG MKG20060201204009702/01/06 20:40:31  5-MIN KMKG 020140Z 28008KT 10SM OVC024 03/M02 A2973 810 72 -400 280/08 RMK AO2
14840KMKG MKG20060201204509702/01/06 20:45:31  5-MIN KMKG 020145Z 28010KT 10SM OVC024 03/M02 A2973 810 72 -400 280/10 RMK AO2
14840KMKG MKG20060201205011402/01/06 20:50:31  5-MIN KMKG 020150Z 28010KT 10SM OVC024 03/M02 A2973 810 69 -400 280/10 RMK AO2 SLP072 T00281022
14840KMKG MKG20060201205511402/01/06 20:55:31  5-MIN KMKG 020155Z 29008KT 10SM OVC024 03/M02 A2973 810 69 -400 290/08 RMK AO2 SLP071 T00281022
14840KMKG MKG20060201210009702/01/06 21:00:31  5-MIN KMKG 020200Z 29007KT 10SM OVC024 03/M02 A2973 810 69 -400 300/07 RMK AO2
14840KMKG MKG20060201210509702/01/06 21:05:31  5-MIN KMKG 020205Z 28008KT 10SM OVC024 03/M02 A2973 810 69 -400 280/08 RMK AO2
14840KMKG MKG20060201211009702/01/06 21:10:31  5-MIN KMKG 020210Z 28009KT 10SM OVC024 03/M02 A2973 810 69 -400 290/09 RMK AO2
14840KMKG MKG20060201211509702/01/06 21:15:31  5-MIN KMKG 020215Z 30008KT 10SM OVC024 03/M02 A2972 810 69 -400 300/08 RMK AO2
14840KMKG MKG20060201212009702/01/06 21:20:31  5-MIN KMKG 020220Z 29009KT 10SM OVC026 03/M02 A2973 810 69 -400 300/09 RMK AO2
14840KMKG MKG20060201212509702/01/06 21:25:31  5-MIN KMKG 020225Z 30008KT 10SM OVC026 03/M02 A2973 810 69 -400 300/08 RMK AO2
14840KMKG MKG20060201213009702/01/06 21:30:31  5-MIN KMKG 020230Z 29008KT 10SM OVC026 03/M02 A2973 810 69 -400 300/08 RMK AO2
14840KMKG MKG20060201213509702/01/06 21:35:31  5-MIN KMKG 020235Z 27008KT 10SM OVC026 03/M02 A2973 810 69 -400 280/08 RMK AO2
14840KMKG MKG20060201214009702/01/06 21:40:31  5-MIN KMKG 020240Z 28007KT 10SM OVC026 03/M02 A2973 800 69 -400 290/07 RMK AO2
14840KMKG MKG20060201214509702/01/06 21:45:31  5-MIN KMKG 020245Z 29007KT 10SM OVC026 03/M02 A2974 800 69 -400 290/07 RMK AO2
14840KMKG MKG20060201215012002/01/06 21:50:31  5-MIN KMKG 020250Z 29009KT 10SM OVC026 03/M02 A2974 800 69 -400 290/09 RMK AO2 SLP077 T00281022 53021
14840KMKG MKG20060201215512002/01/06 21:55:31  5-MIN KMKG 020255Z 30006KT 10SM OVC026 03/M02 A2974 800 69 -400 300/06 RMK AO2 SLP076 T00281022 51015
14840KMKG MKG20060201220009702/01/06 22:00:31  5-MIN KMKG 020300Z 31006KT 10SM OVC026 02/M02 A2974 800 72 -500 310/06 RMK AO2
14840KMKG MKG20060201220509702/01/06 22:05:31  5-MIN KMKG 020305Z 30007KT 10SM OVC026 03/M02 A2974 800 69 -400 310/07 RMK AO2
14840KMKG MKG20060201221009702/01/06 22:10:31  5-MIN KMKG 020310Z 29006KT 10SM OVC026 02/M02 A2974 800 72 -500 290/06 RMK AO2
14840KMKG MKG20060201221509702/01/06 22:15:31  5-MIN KMKG 020315Z 29005KT 10SM OVC024 02/M02 A2974 800 72 -500 290/05 RMK AO2
14840KMKG MKG20060201222009702/01/06 22:20:31  5-MIN KMKG 020320Z 30005KT 10SM OVC024 03/M02 A2975 790 69 -400 300/05 RMK AO2
14840KMKG MKG20060201222509702/01/06 22:25:31  5-MIN KMKG 020325Z 30008KT 10SM OVC024 02/M02 A2975 790 72 -500 300/08 RMK AO2
14840KMKG MKG20060201223009702/01/06 22:30:31  5-MIN KMKG 020330Z 30006KT 10SM OVC024 02/M02 A2975 790 72 -500 300/06 RMK AO2
14840KMKG MKG20060201223509702/01/06 22:35:31  5-MIN KMKG 020335Z 31004KT 10SM OVC024 02/M02 A2975 790 72 -500 310/04 RMK AO2
14840KMKG MKG20060201224009702/01/06 22:40:31  5-MIN KMKG 020340Z 29005KT 10SM OVC024 02/M02 A2975 790 72 -500 300/05 RMK AO2
14840KMKG MKG20060201224509702/01/06 22:45:31  5-MIN KMKG 020345Z 28009KT 10SM OVC024 02/M02 A2974 790 72 -500 280/09 RMK AO2
14840KMKG MKG20060201225011402/01/06 22:50:31  5-MIN KMKG 020350Z 29006KT 10SM OVC024 02/M02 A2975 790 72 -500 300/06 RMK AO2 SLP078 T00221022
14840KMKG MKG20060201225511402/01/06 22:55:31  5-MIN KMKG 020355Z 31006KT 10SM OVC024 02/M02 A2975 790 72 -500 310/06 RMK AO2 SLP079 T00221022
14840KMKG MKG20060201230009702/01/06 23:00:31  5-MIN KMKG 020400Z 31007KT 10SM OVC024 02/M02 A2975 790 72 -500 310/07 RMK AO2
14840KMKG MKG20060201230509702/01/06 23:05:31  5-MIN KMKG 020405Z 29006KT 10SM OVC024 02/M02 A2975 780 72 -500 300/06 RMK AO2
14840KMKG MKG20060201231009702/01/06 23:10:31  5-MIN KMKG 020410Z 30004KT 10SM OVC024 02/M02 A2975 780 72 -500 300/04 RMK AO2
14840KMKG MKG20060201231509702/01/06 23:15:31  5-MIN KMKG 020415Z 29007KT 10SM OVC024 02/M02 A2976 780 72 -500 290/07 RMK AO2
14840KMKG MKG20060201232009702/01/06 23:20:31  5-MIN KMKG 020420Z 31006KT 10SM OVC024 02/M02 A2976 780 72 -500 310/06 RMK AO2
14840KMKG MKG20060201232509702/01/06 23:25:31  5-MIN KMKG 020425Z 30007KT 10SM OVC024 02/M02 A2976 780 72 -500 300/07 RMK AO2
14840KMKG MKG20060201233009702/01/06 23:30:31  5-MIN KMKG 020430Z 30005KT 10SM OVC024 02/M02 A2975 780 72 -500 310/05 RMK AO2
14840KMKG MKG20060201233509702/01/06 23:35:31  5-MIN KMKG 020435Z 30004KT 10SM OVC026 02/M02 A2975 790 72 -500 310/04 RMK AO2
14840KMKG MKG20060201234009702/01/06 23:40:31  5-MIN KMKG 020440Z 31005KT 10SM OVC026 02/M02 A2975 780 72 -500 310/05 RMK AO2
14840KMKG MKG20060201234509702/01/06 23:45:31  5-MIN KMKG 020445Z 30004KT 10SM OVC026 02/M02 A2975 790 72 -500 300/04 RMK AO2
14840KMKG MKG20060201235012402/01/06 23:50:31  5-MIN KMKG 020450Z 00000KT 10SM OVC026 02/M02 A2975 790 72 -500 000/00 RMK AO2 SLP079 T00221022 400610000
14840KMKG MKG20060201235512402/01/06 23:55:31  5-MIN KMKG 020455Z 30003KT 10SM OVC026 02/M02 A2975 790 72 -500 300/03 RMK AO2 SLP079 T00221022 400610000
14840KMKG MKG20060202000009702/02/06 00:00:32  5-MIN KMKG 020500Z 29003KT 10SM OVC026 02/M02 A2975 790 72 -500 290/03 RMK AO2
14840KMKG MKG20060202000509702/02/06 00:05:31  5-MIN KMKG 020505Z 29003KT 10SM OVC026 02/M02 A2975 790 72 -500 290/03 RMK AO2
14840KMKG MKG20060202001009702/02/06 00:10:31  5-MIN KMKG 020510Z 32005KT 10SM OVC026 02/M02 A2975 790 72 -500 320/05 RMK AO2
14840KMKG MKG20060202001509702/02/06 00:15:31  5-MIN KMKG 020515Z 32005KT 10SM OVC026 02/M02 A2975 790 72 -500 320/05 RMK AO2
14840KMKG MKG20060202002009702/02/06 00:20:31  5-MIN KMKG 020520Z 31005KT 10SM OVC026 02/M02 A2975 790 72 -500 320/05 RMK AO2
14840KMKG MKG20060202002509702/02/06 00:25:31  5-MIN KMKG 020525Z 30005KT 10SM OVC026 02/M02 A2975 790 72 -500 300/05 RMK AO2
14840KMKG MKG20060202003009702/02/06 00:30:31  5-MIN KMKG 020530Z 33003KT 10SM OVC026 02/M02 A2975 790 72 -500 340/03 RMK AO2
14840KMKG MKG20060202003509702/02/06 00:35:31  5-MIN KMKG 020535Z 33005KT 10SM OVC026 02/M02 A2974 790 72 -500 330/05 RMK AO2
14840KMKG MKG20060202004009702/02/06 00:40:31  5-MIN KMKG 020540Z 33005KT 10SM OVC026 02/M02 A2974 800 75 -500 330/05 RMK AO2
14840KMKG MKG20060202004509702/02/06 00:45:31  5-MIN KMKG 020545Z 33004KT 10SM OVC026 02/M02 A2974 800 72 -500 330/04 RMK AO2
14840KMKG MKG20060202005013202/02/06 00:50:31  5-MIN KMKG 020550Z 32005KT 10SM OVC026 02/M02 A2974 800 72 -500 330/05 RMK AO2 SLP075 T00221022 10033 20022 51015
14840KMKG MKG20060202005513202/02/06 00:55:31  5-MIN KMKG 020555Z 33004KT 10SM OVC026 02/M02 A2974 800 72 -500 340/04 RMK AO2 SLP076 T00221022 10033 20022 58000
14840KMKG MKG20060202010009702/02/06 01:00:31  5-MIN KMKG 020600Z 33003KT 10SM OVC026 02/M02 A2974 800 72 -500 340/03 RMK AO2
14840KMKG MKG20060202010509702/02/06 01:05:31  5-MIN KMKG 020605Z 00000KT 10SM OVC026 02/M02 A2974 800 72 -500 000/00 RMK AO2
14840KMKG MKG20060202011009702/02/06 01:10:31  5-MIN KMKG 020610Z 00000KT 10SM OVC026 02/M02 A2974 790 72 -500 000/00 RMK AO2
14840KMKG MKG20060202011509702/02/06 01:15:31  5-MIN KMKG 020615Z 00000KT 10SM OVC026 02/M02 A2974 790 72 -500 000/00 RMK AO2
14840KMKG MKG20060202012009702/02/06 01:20:31  5-MIN KMKG 020620Z 00000KT 10SM OVC026 02/M02 A2974 800 72 -500 000/00 RMK AO2
14840KMKG MKG20060202012509702/02/06 01:25:31  5-MIN KMKG 020625Z 00000KT 10SM OVC026 02/M02 A2973 800 72 -500 000/00 RMK AO2
14840KMKG MKG20060202013009702/02/06 01:30:31  5-MIN KMKG 020630Z 00000KT 10SM OVC026 02/M02 A2974 800 72 -500 000/00 RMK AO2
14840KMKG MKG20060202013509702/02/06 01:35:31  5-MIN KMKG 020635Z 00000KT 10SM OVC026 02/M02 A2974 800 75 -500 000/00 RMK AO2
14840KMKG MKG20060202014009702/02/06 01:40:31  5-MIN KMKG 020640Z 00000KT 10SM OVC026 02/M02 A2974 800 72 -500 000/00 RMK AO2
14840KMKG MKG20060202014509702/02/06 01:45:31  5-MIN KMKG 020645Z VRB04KT 10SM OVC026 02/M02 A2973 810 72 -500 VRB/04 RMK AO2
14840KMKG MKG20060202015011402/02/06 01:50:31  5-MIN KMKG 020650Z 00000KT 10SM OVC026 02/M02 A2972 810 72 -500 000/00 RMK AO2 SLP071 T00221022
14840KMKG MKG20060202015511402/02/06 01:55:31  5-MIN KMKG 020655Z 00000KT 10SM OVC026 02/M03 A2973 810 69 -500 000/00 RMK AO2 SLP071 T00221028
14840KMKG MKG20060202020009702/02/06 02:00:31  5-MIN KMKG 020700Z 00000KT 10SM OVC026 02/M03 A2973 810 69 -500 000/00 RMK AO2
14840KMKG MKG20060202020509702/02/06 02:05:31  5-MIN KMKG 020705Z 00000KT 10SM OVC026 02/M02 A2973 800 72 -500 000/00 RMK AO2
14840KMKG MKG20060202021009702/02/06 02:10:31  5-MIN KMKG 020710Z 21003KT 10SM OVC026 02/M02 A2973 800 75 -500 220/03 RMK AO2
14840KMKG MKG20060202021509702/02/06 02:15:31  5-MIN KMKG 020715Z 22005KT 10SM OVC026 01/M02 A2974 800 78 -600 220/05 RMK AO2
14840KMKG MKG20060202022009702/02/06 02:20:31  5-MIN KMKG 020720Z 20004KT 10SM OVC026 01/M02 A2974 800 82 -600 210/04 RMK AO2
14840KMKG MKG20060202022509702/02/06 02:25:31  5-MIN KMKG 020725Z 22004KT 10SM OVC026 02/M02 A2974 800 75 -500 220/04 RMK AO2
14840KMKG MKG20060202023009702/02/06 02:30:31  5-MIN KMKG 020730Z 22004KT 10SM OVC026 02/M02 A2974 790 75 -500 220/04 RMK AO2
14840KMKG MKG20060202023509702/02/06 02:35:31  5-MIN KMKG 020735Z 24004KT 10SM OVC026 01/M02 A2974 790 78 -600 240/04 RMK AO2
14840KMKG MKG20060202024009702/02/06 02:40:31  5-MIN KMKG 020740Z 24003KT 10SM OVC026 01/M02 A2975 790 78 -600 240/03 RMK AO2
14840KMKG MKG20060202024509702/02/06 02:45:31  5-MIN KMKG 020745Z 25003KT 10SM OVC026 01/M02 A2975 790 78 -600 250/03 RMK AO2
14840KMKG MKG20060202025011402/02/06 02:50:31  5-MIN KMKG 020750Z 26003KT 10SM OVC026 02/M02 A2975 790 75 -600 260/03 RMK AO2 SLP080 T00171022
14840KMKG MKG20060202025511402/02/06 02:55:31  5-MIN KMKG 020755Z 26004KT 10SM OVC026 02/M02 A2976 780 75 -600 270/04 RMK AO2 SLP081 T00171022
14840KMKG MKG20060202030009702/02/06 03:00:31  5-MIN KMKG 020800Z 27003KT 10SM OVC026 02/M03 A2976 780 72 -600 270/03 RMK AO2
14840KMKG MKG20060202030509702/02/06 03:05:31  5-MIN KMKG 020805Z 27003KT 10SM OVC026 02/M03 A2976 780 72 -600 270/03 RMK AO2
14840KMKG MKG20060202031009702/02/06 03:10:31  5-MIN KMKG 020810Z 29003KT 10SM OVC026 02/M02 A2975 780 75 -600 290/03 RMK AO2
14840KMKG MKG20060202031509702/02/06 03:15:31  5-MIN KMKG 020815Z 30003KT 10SM OVC026 02/M02 A2975 790 75 -600 310/03 RMK AO2
14840KMKG MKG20060202032009702/02/06 03:20:31  5-MIN KMKG 020820Z 00000KT 10SM OVC026 02/M02 A2976 780 72 -500 000/00 RMK AO2
14840KMKG MKG20060202032509702/02/06 03:25:31  5-MIN KMKG 020825Z 29004KT 10SM OVC026 02/M03 A2976 780 69 -500 300/04 RMK AO2
14840KMKG MKG20060202033009702/02/06 03:30:31  5-MIN KMKG 020830Z 28004KT 10SM OVC026 02/M03 A2975 780 69 -500 290/04 RMK AO2
14840KMKG MKG20060202033509702/02/06 03:35:31  5-MIN KMKG 020835Z 29004KT 10SM OVC026 02/M02 A2975 790 72 -500 290/04 RMK AO2
14840KMKG MKG20060202034009702/02/06 03:40:31  5-MIN KMKG 020840Z 27005KT 10SM OVC026 02/M03 A2975 790 69 -500 270/05 RMK AO2
14840KMKG MKG20060202034509702/02/06 03:45:31  5-MIN KMKG 020845Z 26003KT 10SM OVC026 02/M03 A2975 790 69 -500 260/03 RMK AO2
14840KMKG MKG20060202035012002/02/06 03:50:31  5-MIN KMKG 020850Z 27003KT 10SM OVC026 02/M03 A2975 790 69 -500 280/03 RMK AO2 SLP079 T00221028 58000
14840KMKG MKG20060202035512002/02/06 03:55:31  5-MIN KMKG 020855Z 00000KT 10SM OVC026 02/M03 A2975 790 69 -500 000/00 RMK AO2 SLP078 T00221028 53002
14840KMKG MKG20060202040009702/02/06 04:00:31  5-MIN KMKG 020900Z 00000KT 10SM OVC026 02/M03 A2975 790 69 -500 000/00 RMK AO2
14840KMKG MKG20060202040509702/02/06 04:05:31  5-MIN KMKG 020905Z 00000KT 10SM OVC026 02/M02 A2975 790 72 -500 000/00 RMK AO2
14840KMKG MKG20060202041009702/02/06 04:10:31  5-MIN KMKG 020910Z 00000KT 10SM OVC026 02/M03 A2975 790 69 -500 000/00 RMK AO2
14840KMKG MKG20060202041509702/02/06 04:15:31  5-MIN KMKG 020915Z 31004KT 10SM OVC026 02/M03 A2975 790 69 -500 310/04 RMK AO2
14840KMKG MKG20060202042009702/02/06 04:20:31  5-MIN KMKG 020920Z 28004KT 10SM OVC026 02/M03 A2975 790 69 -500 290/04 RMK AO2
14840KMKG MKG20060202042509702/02/06 04:25:31  5-MIN KMKG 020925Z 00000KT 10SM OVC026 02/M03 A2975 790 69 -500 000/00 RMK AO2
14840KMKG MKG20060202043009702/02/06 04:30:31  5-MIN KMKG 020930Z 00000KT 10SM OVC026 02/M03 A2974 790 69 -500 000/00 RMK AO2
14840KMKG MKG20060202043509702/02/06 04:35:31  5-MIN KMKG 020935Z 00000KT 10SM OVC026 02/M02 A2975 790 72 -500 000/00 RMK AO2
14840KMKG MKG20060202044009702/02/06 04:40:31  5-MIN KMKG 020940Z 00000KT 10SM OVC026 02/M03 A2975 790 69 -500 000/00 RMK AO2
14840KMKG MKG20060202044509702/02/06 04:45:31  5-MIN KMKG 020945Z 00000KT 10SM OVC026 02/M02 A2975 790 75 -600 000/00 RMK AO2
14840KMKG MKG20060202045011402/02/06 04:50:31  5-MIN KMKG 020950Z 00000KT 10SM OVC026 02/M02 A2976 780 75 -600 000/00 RMK AO2 SLP082 T00171022
14840KMKG MKG20060202045511402/02/06 04:55:31  5-MIN KMKG 020955Z 00000KT 10SM OVC026 02/M02 A2976 780 75 -600 000/00 RMK AO2 SLP082 T00171022
14840KMKG MKG20060202050009702/02/06 05:00:31  5-MIN KMKG 021000Z 21003KT 10SM OVC026 02/M02 A2976 780 72 -500 220/03 RMK AO2
14840KMKG MKG20060202050509702/02/06 05:05:31  5-MIN KMKG 021005Z 22003KT 10SM OVC026 02/M02 A2976 780 75 -600 220/03 RMK AO2
14840KMKG MKG20060202051009702/02/06 05:10:31  5-MIN KMKG 021010Z 22003KT 10SM OVC026 02/M02 A2976 770 75 -600 230/03 RMK AO2
14840KMKG MKG20060202051509702/02/06 05:15:31  5-MIN KMKG 021015Z 20003KT 10SM OVC026 02/M02 A2976 780 75 -600 200/03 RMK AO2
14840KMKG MKG20060202052009702/02/06 05:20:31  5-MIN KMKG 021020Z 20003KT 10SM OVC026 02/M02 A2976 780 75 -600 200/03 RMK AO2
14840KMKG MKG20060202052509702/02/06 05:25:31  5-MIN KMKG 021025Z 00000KT 10SM OVC026 02/M02 A2976 780 72 -500 000/00 RMK AO2
14840KMKG MKG20060202053009702/02/06 05:30:31  5-MIN KMKG 021030Z 00000KT 10SM OVC026 02/M02 A2976 780 72 -500 000/00 RMK AO2
14840KMKG MKG20060202053509702/02/06 05:35:31  5-MIN KMKG 021035Z 00000KT 10SM OVC026 02/M02 A2976 780 72 -500 000/00 RMK AO2
14840KMKG MKG20060202054009702/02/06 05:40:31  5-MIN KMKG 021040Z 00000KT 10SM OVC026 02/M02 A2976 780 72 -500 000/00 RMK AO2
14840KMKG MKG20060202054509702/02/06 05:45:31  5-MIN KMKG 021045Z 00000KT 10SM OVC026 02/M02 A2976 780 75 -600 000/00 RMK AO2
14840KMKG MKG20060202055011402/02/06 05:50:31  5-MIN KMKG 021050Z 21003KT 10SM OVC026 02/M02 A2976 770 75 -600 220/03 RMK AO2 SLP084 T00171022
14840KMKG MKG20060202055511402/02/06 05:55:31  5-MIN KMKG 021055Z 19003KT 10SM OVC026 02/M02 A2976 770 78 -600 190/03 RMK AO2 SLP084 T00171017
14840KMKG MKG20060202060009702/02/06 06:00:31  5-MIN KMKG 021100Z 00000KT 10SM OVC026 02/M02 A2976 780 75 -600 000/00 RMK AO2
14840KMKG MKG20060202060509702/02/06 06:05:31  5-MIN KMKG 021105Z 00000KT 10SM OVC026 02/M02 A2976 780 75 -600 000/00 RMK AO2
14840KMKG MKG20060202061009702/02/06 06:10:31  5-MIN KMKG 021110Z 00000KT 10SM OVC026 01/M02 A2976 780 82 -600 000/00 RMK AO2
14840KMKG MKG20060202061509702/02/06 06:15:31  5-MIN KMKG 021115Z 16003KT 10SM OVC026 01/M02 A2976 780 82 -600 170/03 RMK AO2
14840KMKG MKG20060202062009702/02/06 06:20:31  5-MIN KMKG 021120Z 18003KT 10SM OVC026 01/M02 A2976 780 82 -600 180/03 RMK AO2
14840KMKG MKG20060202062509702/02/06 06:25:31  5-MIN KMKG 021125Z 18003KT 10SM OVC026 02/M02 A2976 780 78 -600 180/03 RMK AO2
14840KMKG MKG20060202063009702/02/06 06:30:31  5-MIN KMKG 021130Z 17003KT 10SM OVC026 01/M02 A2976 780 82 -600 180/03 RMK AO2
14840KMKG MKG20060202063509702/02/06 06:35:31  5-MIN KMKG 021135Z 13003KT 10SM OVC026 01/M02 A2976 780 82 -600 140/03 RMK AO2
14840KMKG MKG20060202064009602/02/06 06:40:31  5-MIN KMKG 021140Z 15003KT 9SM OVC026 01/M02 A2976 780 82 -600 160/03 RMK AO2
14840KMKG MKG20060202064509702/02/06 06:45:31  5-MIN KMKG 021145Z 17003KT 10SM OVC026 01/M02 A2976 780 82 -600 170/03 RMK AO2
14840KMKG MKG20060202065013202/02/06 06:50:31  5-MIN KMKG 021150Z 00000KT 10SM OVC026 02/M02 A2976 780 78 -600 000/00 RMK AO2 SLP081 T00171017 10022 20011 53002
14840KMKG MKG20060202065513202/02/06 06:55:31  5-MIN KMKG 021155Z 00000KT 10SM BKN026 02/M02 A2976 780 78 -600 000/00 RMK AO2 SLP082 T00171017 10022 20011 50004
14840KMKG MKG20060202070009702/02/06 07:00:31  5-MIN KMKG 021200Z 00000KT 10SM BKN026 01/M02 A2976 780 82 -600 000/00 RMK AO2
14840KMKG MKG20060202070509602/02/06 07:05:31  5-MIN KMKG 021205Z 00000KT 9SM BKN026 02/M02 A2976 780 78 -600 000/00 RMK AO2
14840KMKG MKG20060202071009702/02/06 07:10:31  5-MIN KMKG 021210Z 00000KT 10SM BKN026 02/M02 A2976 780 78 -600 000/00 RMK AO2
14840KMKG MKG20060202071509702/02/06 07:15:31  5-MIN KMKG 021215Z 00000KT 10SM BKN026 02/M02 A2977 770 78 -600 000/00 RMK AO2
14840KMKG MKG20060202072009602/02/06 07:20:31  5-MIN KMKG 021220Z 19006KT 9SM BKN026 01/M02 A2977 770 82 -600 200/06 RMK AO2
14840KMKG MKG20060202072509702/02/06 07:25:31  5-MIN KMKG 021225Z 19004KT 10SM BKN026 02/M02 A2977 770 78 -600 190/04 RMK AO2
14840KMKG MKG20060202073009702/02/06 07:30:31  5-MIN KMKG 021230Z 18004KT 10SM OVC026 02/M02 A2977 770 78 -600 180/04 RMK AO2
14840KMKG MKG20060202073509702/02/06 07:35:31  5-MIN KMKG 021235Z 18003KT 10SM OVC026 02/M02 A2977 770 78 -600 180/03 RMK AO2
14840KMKG MKG20060202074009702/02/06 07:40:31  5-MIN KMKG 021240Z 17004KT 10SM OVC026 02/M02 A2977 770 78 -600 180/04 RMK AO2
14840KMKG MKG20060202074509702/02/06 07:45:31  5-MIN KMKG 021245Z 16004KT 10SM BKN026 01/M02 A2976 780 82 -600 170/04 RMK AO2
14840KMKG MKG20060202075011402/02/06 07:50:31  5-MIN KMKG 021250Z 00000KT 10SM BKN026 01/M02 A2976 780 82 -600 000/00 RMK AO2 SLP085 T00111017
14840KMKG MKG20060202075511402/02/06 07:55:31  5-MIN KMKG 021255Z 19003KT 10SM BKN026 01/M02 A2976 770 82 -600 190/03 RMK AO2 SLP085 T00111017
14840KMKG MKG20060202080009702/02/06 08:00:31  5-MIN KMKG 021300Z 20004KT 10SM BKN026 01/M02 A2976 780 82 -600 200/04 RMK AO2
14840KMKG MKG20060202080509602/02/06 08:05:31  5-MIN KMKG 021305Z 17004KT 9SM BKN024 01/M01 A2976 780 85 -600 180/04 RMK AO2
14840KMKG MKG20060202081010302/02/06 08:10:31  5-MIN KMKG 021310Z 17004KT 9SM BKN024 BKN120 01/M01 A2975 790 85 -600 180/04 RMK AO2
14840KMKG MKG20060202081510302/02/06 08:15:31  5-MIN KMKG 021315Z 19005KT 9SM BKN024 OVC120 02/M01 A2975 790 82 -600 190/05 RMK AO2
14840KMKG MKG20060202082010302/02/06 08:20:31  5-MIN KMKG 021320Z 19004KT 8SM BKN024 OVC120 02/M01 A2975 790 82 -600 190/04 RMK AO2
14840KMKG MKG20060202082510302/02/06 08:25:31  5-MIN KMKG 021325Z 18003KT 8SM SCT024 OVC120 01/M02 A2975 790 82 -600 190/03 RMK AO2
14840KMKG MKG20060202083010302/02/06 08:30:31  5-MIN KMKG 021330Z 19003KT 8SM FEW024 OVC110 01/M01 A2975 790 85 -600 190/03 RMK AO2
14840KMKG MKG20060202083510302/02/06 08:35:31  5-MIN KMKG 021335Z 17004KT 7SM FEW024 OVC110 01/M01 A2975 790 85 -600 180/04 RMK AO2
14840KMKG MKG20060202084009602/02/06 08:40:31  5-MIN KMKG 021340Z 17005KT 8SM OVC110 01/M01 A2975 780 85 -600 180/05 RMK AO2
14840KMKG MKG20060202084509602/02/06 08:45:31  5-MIN KMKG 021345Z 17004KT 8SM OVC110 02/M02 A2975 790 78 -600 170/04 RMK AO2
14840KMKG MKG20060202085011302/02/06 08:50:31  5-MIN KMKG 021350Z 16004KT 8SM OVC110 02/M01 A2975 790 82 -600 160/04 RMK AO2 SLP081 T00171011
14840KMKG MKG20060202085511302/02/06 08:55:31  5-MIN KMKG 021355Z 15003KT 8SM OVC110 02/M01 A2975 780 82 -600 160/03 RMK AO2 SLP082 T00171011
14840KMKG MKG20060202090009602/02/06 09:00:31  5-MIN KMKG 021400Z 14003KT 8SM OVC110 02/M01 A2976 780 82 -600 140/03 RMK AO2
14840KMKG MKG20060202090509602/02/06 09:05:31  5-MIN KMKG 021405Z 11003KT 7SM BKN110 02/M01 A2975 790 82 -600 120/03 RMK AO2
14840KMKG MKG20060202091009602/02/06 09:10:31  5-MIN KMKG 021410Z 00000KT 7SM BKN110 02/M01 A2975 780 82 -600 000/00 RMK AO2
14840KMKG MKG20060202091509902/02/06 09:15:31  5-MIN KMKG 021415Z 00000KT 6SM HZ BKN110 02/M01 A2976 780 82 -600 000/00 RMK AO2
14840KMKG MKG20060202092009902/02/06 09:20:31  5-MIN KMKG 021420Z 00000KT 6SM BR BKN110 02/M01 A2976 780 85 -600 000/00 RMK AO2
14840KMKG MKG20060202092509902/02/06 09:25:31  5-MIN KMKG 021425Z 00000KT 6SM HZ BKN110 02/M01 A2976 780 82 -600 000/00 RMK AO2
14840KMKG MKG20060202093009902/02/06 09:30:31  5-MIN KMKG 021430Z 00000KT 6SM HZ OVC110 02/M01 A2976 780 82 -500 000/00 RMK AO2
14840KMKG MKG20060202093509602/02/06 09:35:31  5-MIN KMKG 021435Z 00000KT 7SM OVC110 02/M01 A2976 780 78 -500 000/00 RMK AO2
14840KMKG MKG20060202094009602/02/06 09:40:31  5-MIN KMKG 021440Z 15003KT 7SM OVC110 02/M01 A2976 780 78 -500 150/03 RMK AO2
14840KMKG MKG20060202094509602/02/06 09:45:31  5-MIN KMKG 021445Z 15004KT 7SM BKN110 02/M01 A2976 780 78 -500 150/04 RMK AO2
14840KMKG MKG20060202095012202/02/06 09:50:31  5-MIN KMKG 021450Z 14004KT 6SM HZ BKN110 02/M01 A2975 790 78 -500 150/04 RMK AO2 SLP079 T00221011 50004
14840KMKG MKG20060202095512202/02/06 09:55:31  5-MIN KMKG 021455Z 14005KT 6SM HZ SCT110 02/M01 A2975 790 78 -500 140/05 RMK AO2 SLP078 T00221011 58003
14840KMKG MKG20060202100009902/02/06 10:00:31  5-MIN KMKG 021500Z 13005KT 6SM HZ FEW110 02/M01 A2975 790 82 -500 140/05 RMK AO2
14840KMKG MKG20060202100509902/02/06 10:05:31  5-MIN KMKG 021505Z 14005KT 6SM HZ FEW110 02/M01 A2975 790 82 -500 150/05 RMK AO2
14840KMKG MKG20060202101009302/02/06 10:10:31  5-MIN KMKG 021510Z 14005KT 7SM CLR 03/M01 A2974 790 75 -400 150/05 RMK AO2
14840KMKG MKG20060202101509302/02/06 10:15:31  5-MIN KMKG 021515Z 16004KT 7SM CLR 03/M01 A2974 790 75 -400 160/04 RMK AO2
14840KMKG MKG20060202102009302/02/06 10:20:31  5-MIN KMKG 021520Z 16004KT 7SM CLR 03/M01 A2975 790 75 -400 160/04 RMK AO2
14840KMKG MKG20060202102509302/02/06 10:25:31  5-MIN KMKG 021525Z 16006KT 8SM CLR 03/M01 A2975 790 75 -400 170/06 RMK AO2
14840KMKG MKG20060202103009302/02/06 10:30:31  5-MIN KMKG 021530Z 16007KT 8SM CLR 03/M02 A2975 790 72 -400 160/07 RMK AO2
14840KMKG MKG20060202103509302/02/06 10:35:31  5-MIN KMKG 021535Z 15005KT 9SM CLR 03/M02 A2975 790 72 -400 160/05 RMK AO2
14840KMKG MKG20060202104009302/02/06 10:40:31  5-MIN KMKG 021540Z 15004KT 9SM CLR 03/M02 A2974 790 72 -400 160/04 RMK AO2
14840KMKG MKG20060202104509602/02/06 10:45:31  5-MIN KMKG 021545Z 15006KT 9SM FEW019 03/M02 A2975 790 70 -300 150/06 RMK AO2
14840KMKG MKG20060202105011302/02/06 10:50:31  5-MIN KMKG 021550Z 17006KT 9SM SCT019 03/M02 A2975 790 70 -300 170/06 RMK AO2 SLP080 T00331017
14840KMKG MKG20060202105511302/02/06 10:55:31  5-MIN KMKG 021555Z 19006KT 9SM BKN019 03/M02 A2975 790 70 -300 190/06 RMK AO2 SLP079 T00331017
14840KMKG MKG20060202110009702/02/06 11:00:31  5-MIN KMKG 021600Z 17005KT 10SM BKN019 03/M02 A2975 790 70 -300 170/05 RMK AO2
14840KMKG MKG20060202110509602/02/06 11:05:31  5-MIN KMKG 021605Z 16004KT 9SM BKN019 03/M02 A2975 790 70 -300 170/04 RMK AO2
14840KMKG MKG20060202111009602/02/06 11:10:31  5-MIN KMKG 021610Z 15006KT 9SM BKN019 03/M02 A2975 790 70 -300 150/06 RMK AO2
14840KMKG MKG20060202111509602/02/06 11:15:31  5-MIN KMKG 021615Z 15006KT 9SM BKN019 03/M02 A2975 790 70 -300 150/06 RMK AO2
14840KMKG MKG20060202112009602/02/06 11:20:31  5-MIN KMKG 021620Z 14006KT 9SM BKN019 03/M01 A2975 790 72 -300 140/06 RMK AO2
14840KMKG MKG20060202112509602/02/06 11:25:31  5-MIN KMKG 021625Z 15006KT 9SM BKN019 03/M01 A2975 790 72 -300 160/06 RMK AO2
14840KMKG MKG20060202113009602/02/06 11:30:31  5-MIN KMKG 021630Z 19005KT 9SM BKN019 04/M01 A2975 790 70 -300 190/05 RMK AO2
14840KMKG MKG20060202113509602/02/06 11:35:31  5-MIN KMKG 021635Z 18008KT 9SM BKN021 04/M01 A2976 780 70 -300 190/08 RMK AO2
14840KMKG MKG20060202114009602/02/06 11:40:31  5-MIN KMKG 021640Z 19007KT 9SM OVC021 04/M01 A2976 780 70 -300 200/07 RMK AO2
14840KMKG MKG20060202114509602/02/06 11:45:31  5-MIN KMKG 021645Z 20007KT 9SM OVC021 04/M01 A2975 780 70 -300 200/07 RMK AO2
14840KMKG MKG20060202115011302/02/06 11:50:31  5-MIN KMKG 021650Z 18007KT 8SM OVC021 04/M01 A2975 790 70 -300 180/07 RMK AO2 SLP080 T00391011
14840KMKG MKG20060202115511302/02/06 11:55:31  5-MIN KMKG 021655Z 17009KT 8SM OVC021 04/M01 A2975 790 70 -300 180/09 RMK AO2 SLP078 T00391011
14840KMKG MKG20060202120009602/02/06 12:00:31  5-MIN KMKG 021700Z 17009KT 7SM BKN021 04/M01 A2974 800 70 -300 170/09 RMK AO2
14840KMKG MKG20060202120509602/02/06 12:05:31  5-MIN KMKG 021705Z 18011KT 7SM BKN021 04/M01 A2974 800 70 -300 180/11 RMK AO2
14840KMKG MKG20060202121009602/02/06 12:10:31  5-MIN KMKG 021710Z 17009KT 7SM BKN021 04/M01 A2973 810 73 -300 170/09 RMK AO2
14840KMKG MKG20060202121509602/02/06 12:15:31  5-MIN KMKG 021715Z 17007KT 7SM BKN021 04/M01 A2973 810 73 -300 170/07 RMK AO2
14840KMKG MKG20060202122009602/02/06 12:20:31  5-MIN KMKG 021720Z 16005KT 7SM BKN021 04/M01 A2973 810 70 -200 160/05 RMK AO2
14840KMKG MKG20060202122509902/02/06 12:25:31  5-MIN KMKG 021725Z 17006KT 6SM HZ BKN021 04/M01 A2972 810 73 -200 170/06 RMK AO2
14840KMKG MKG20060202123009902/02/06 12:30:31  5-MIN KMKG 021730Z 16008KT 6SM HZ BKN021 04/M01 A2972 810 73 -200 160/08 RMK AO2
14840KMKG MKG20060202123509902/02/06 12:35:31  5-MIN KMKG 021735Z 17008KT 6SM HZ OVC021 04/M01 A2972 820 73 -200 180/08 RMK AO2
14840KMKG MKG20060202124009902/02/06 12:40:31  5-MIN KMKG 021740Z 17006KT 6SM HZ BKN021 04/M01 A2972 820 70 -200 170/06 RMK AO2
14840KMKG MKG20060202124509902/02/06 12:45:31  5-MIN KMKG 021745Z 17007KT 6SM HZ BKN021 04/M01 A2972 820 70 -200 170/07 RMK AO2
14840KMKG MKG20060202125013402/02/06 12:50:31  5-MIN KMKG 021750Z 18007KT 6SM HZ OVC021 04/M01 A2972 820 70 -200 190/07 RMK AO2 SLP068 T00441006 10044 20011 58003
14840KMKG MKG20060202125513402/02/06 12:55:31  5-MIN KMKG 021755Z VRB06KT 6SM HZ OVC021 04/M01 A2972 820 70 -200 VRB/06 RMK AO2 SLP069 T00391011 10044 20011 58009
14840KMKG MKG20060202130009802/02/06 13:00:31  5-MIN KMKG 021800Z 21006KT 6SM HZ OVC021 04/00 A2972 820 76 -200 210/06 RMK AO2
14840KMKG MKG20060202130509902/02/06 13:05:31  5-MIN KMKG 021805Z 19005KT 6SM HZ OVC021 04/M01 A2971 820 73 -200 190/05 RMK AO2
14840KMKG MKG20060202131009902/02/06 13:10:31  5-MIN KMKG 021810Z VRB03KT 6SM HZ BKN021 04/M01 A2971 830 73 -200 VRB/03 RMK AO2
14840KMKG MKG20060202131509802/02/06 13:15:31  5-MIN KMKG 021815Z 25005KT 6SM HZ BKN021 04/00 A2971 830 76 -200 250/05 RMK AO2
14840KMKG MKG20060202132009502/02/06 13:20:31  5-MIN KMKG 021820Z 25005KT 7SM BKN021 04/00 A2970 830 73 -200 260/05 RMK AO2
14840KMKG MKG20060202132509502/02/06 13:25:31  5-MIN KMKG 021825Z VRB04KT 7SM BKN019 04/00 A2970 830 76 -200 VRB/04 RMK AO2
14840KMKG MKG20060202133009502/02/06 13:30:31  5-MIN KMKG 021830Z 21003KT 7SM SCT019 04/00 A2970 840 73 -100 210/03 RMK AO2
14840KMKG MKG20060202133509602/02/06 13:35:31  5-MIN KMKG 021835Z VRB04KT 7SM SCT019 04/M01 A2970 840 70 -100 VRB/04 RMK AO2
14840KMKG MKG20060202134009602/02/06 13:40:31  5-MIN KMKG 021840Z VRB03KT 7SM SCT019 04/M01 A2970 840 73 -200 VRB/03 RMK AO2
14840KMKG MKG20060202134509602/02/06 13:45:31  5-MIN KMKG 021845Z VRB03KT 7SM SCT019 04/M01 A2970 840 70 -100 VRB/03 RMK AO2
14840KMKG MKG20060202135011302/02/06 13:50:31  5-MIN KMKG 021850Z VRB04KT 8SM SCT019 04/M01 A2970 840 73 -200 VRB/04 RMK AO2 SLP061 T00391006
14840KMKG MKG20060202135511302/02/06 13:55:31  5-MIN KMKG 021855Z 19004KT 8SM FEW019 04/M01 A2969 840 70 -100 190/04 RMK AO2 SLP059 T00441006
14840KMKG MKG20060202140009302/02/06 14:00:31  5-MIN KMKG 021900Z 17003KT 8SM CLR 04/M01 A2969 850 70 -100 170/03 RMK AO2
14840KMKG MKG20060202140509302/02/06 14:05:31  5-MIN KMKG 021905Z 00000KT 8SM CLR 04/M01 A2969 850 70 -100 000/00 RMK AO2
14840KMKG MKG20060202141009202/02/06 14:10:31  5-MIN KMKG 021910Z 18003KT 8SM CLR 04/00 A2969 850 73 -100 180/03 RMK AO2
14840KMKG MKG20060202141509302/02/06 14:15:31  5-MIN KMKG 021915Z 18004KT 8SM CLR 04/M01 A2968 850 70 -100 180/04 RMK AO2
14840KMKG MKG20060202142009302/02/06 14:20:31  5-MIN KMKG 021920Z 17003KT 8SM CLR 05/M01 A2968 850 67 -100 180/03 RMK AO2
14840KMKG MKG20060202142509302/02/06 14:25:31  5-MIN KMKG 021925Z VRB04KT 9SM CLR 04/M01 A2968 850 70 -100 VRB/04 RMK AO2
14840KMKG MKG20060202143009302/02/06 14:30:31  5-MIN KMKG 021930Z 15006KT 9SM CLR 04/M01 A2968 850 70 -100 150/06 RMK AO2
14840KMKG MKG20060202143509302/02/06 14:35:31  5-MIN KMKG 021935Z 16006KT 8SM CLR 05/M01 A2968 850 64 -100 170/06 RMK AO2
14840KMKG MKG20060202144009302/02/06 14:40:31  5-MIN KMKG 021940Z 14006KT 8SM CLR 05/M01 A2967 860 64 -100 150/06 RMK AO2
14840KMKG MKG20060202144509302/02/06 14:45:31  5-MIN KMKG 021945Z 14005KT 8SM CLR 05/M01 A2967 860 64 -100 140/05 RMK AO2
14840KMKG MKG20060202145010702/02/06 14:50:31  5-MIN KMKG 021950Z 14006KT 8SM CLR 05/M01 A2967 860 64 0 140/06 RMK AO2 SLP053 T00501011
14840KMKG MKG20060202145511002/02/06 14:55:31  5-MIN KMKG 021955Z 12007KT 7SM CLR 05/M01 A2967 860 67 -100 120/07 RMK AO2 SLP053 T00501006
14840KMKG MKG20060202150009302/02/06 15:00:31  5-MIN KMKG 022000Z 12005KT 7SM CLR 05/M01 A2967 860 64 -100 120/05 RMK AO2
14840KMKG MKG20060202150509302/02/06 15:05:31  5-MIN KMKG 022005Z 12006KT 7SM CLR 05/M01 A2967 860 64 -100 120/06 RMK AO2
14840KMKG MKG20060202151009302/02/06 15:10:31  5-MIN KMKG 022010Z 14005KT 8SM CLR 05/M01 A2967 860 67 -100 140/05 RMK AO2
14840KMKG MKG20060202151509002/02/06 15:15:31  5-MIN KMKG 022015Z 14006KT 8SM CLR 06/M01 A2967 860 65 0 140/06 RMK AO2
14840KMKG MKG20060202152009002/02/06 15:20:31  5-MIN KMKG 022020Z 14007KT 8SM CLR 05/M01 A2967 860 67 0 150/07 RMK AO2
14840KMKG MKG20060202152509002/02/06 15:25:31  5-MIN KMKG 022025Z 13006KT 8SM CLR 05/M01 A2967 860 67 0 140/06 RMK AO2
14840KMKG MKG20060202153009002/02/06 15:30:31  5-MIN KMKG 022030Z 13008KT 8SM CLR 05/M01 A2967 860 67 0 130/08 RMK AO2
14840KMKG MKG20060202153509002/02/06 15:35:31  5-MIN KMKG 022035Z 12006KT 8SM CLR 06/M01 A2967 860 65 0 130/06 RMK AO2
14840KMKG MKG20060202154009002/02/06 15:40:31  5-MIN KMKG 022040Z 13009KT 8SM CLR 06/M01 A2966 870 65 0 130/09 RMK AO2
14840KMKG MKG20060202154509002/02/06 15:45:31  5-MIN KMKG 022045Z 12006KT 8SM CLR 05/M01 A2966 870 64 0 130/06 RMK AO2
14840KMKG MKG20060202155011302/02/06 15:50:31  5-MIN KMKG 022050Z 13006KT 8SM CLR 05/M01 A2966 870 67 0 130/06 RMK AO2 SLP050 T00501006 58009
14840KMKG MKG20060202155511302/02/06 15:55:31  5-MIN KMKG 022055Z 13009KT 8SM CLR 05/M01 A2966 870 67 0 130/09 RMK AO2 SLP050 T00501006 56018
14840KMKG MKG20060202160009002/02/06 16:00:31  5-MIN KMKG 022100Z 12006KT 8SM CLR 05/M01 A2966 870 67 0 130/06 RMK AO2
14840KMKG MKG20060202160509002/02/06 16:05:31  5-MIN KMKG 022105Z 13007KT 7SM CLR 05/M01 A2966 870 67 0 140/07 RMK AO2
14840KMKG MKG20060202161009002/02/06 16:10:31  5-MIN KMKG 022110Z 14007KT 7SM CLR 05/M01 A2966 870 64 0 140/07 RMK AO2
14840KMKG MKG20060202161509002/02/06 16:15:31  5-MIN KMKG 022115Z 11009KT 7SM CLR 05/M01 A2966 880 67 0 120/09 RMK AO2
14840KMKG MKG20060202162009002/02/06 16:20:31  5-MIN KMKG 022120Z 13010KT 7SM CLR 05/M01 A2965 880 64 0 130/10 RMK AO2
14840KMKG MKG20060202162509002/02/06 16:25:31  5-MIN KMKG 022125Z 13009KT 8SM CLR 05/M01 A2966 880 64 0 130/09 RMK AO2
14840KMKG MKG20060202163009002/02/06 16:30:31  5-MIN KMKG 022130Z 13009KT 8SM CLR 05/M01 A2965 880 64 0 140/09 RMK AO2
14840KMKG MKG20060202163509002/02/06 16:35:31  5-MIN KMKG 022135Z 14007KT 8SM CLR 05/M01 A2965 880 64 0 150/07 RMK AO2
14840KMKG MKG20060202164009002/02/06 16:40:31  5-MIN KMKG 022140Z 12008KT 8SM CLR 05/M01 A2965 880 64 0 130/08 RMK AO2
14840KMKG MKG20060202164509002/02/06 16:45:31  5-MIN KMKG 022145Z 12007KT 8SM CLR 05/M01 A2965 880 64 0 120/07 RMK AO2
14840KMKG MKG20060202165010702/02/06 16:50:31  5-MIN KMKG 022150Z 13007KT 8SM CLR 05/M01 A2965 880 64 0 140/07 RMK AO2 SLP045 T00501011
14840KMKG MKG20060202165510702/02/06 16:55:31  5-MIN KMKG 022155Z 11005KT 8SM CLR 05/M01 A2965 880 64 0 120/05 RMK AO2 SLP045 T00501011
14840KMKG MKG20060202170009002/02/06 17:00:31  5-MIN KMKG 022200Z 11007KT 8SM CLR 05/M01 A2965 880 67 0 120/07 RMK AO2
14840KMKG MKG20060202170509302/02/06 17:05:31  5-MIN KMKG 022205Z 12006KT 8SM CLR 04/M01 A2965 890 67 -100 130/06 RMK AO2
14840KMKG MKG20060202171009302/02/06 17:10:31  5-MIN KMKG 022210Z 13007KT 8SM CLR 04/M01 A2964 890 67 -100 130/07 RMK AO2
14840KMKG MKG20060202171509302/02/06 17:15:31  5-MIN KMKG 022215Z 11006KT 8SM CLR 04/M01 A2964 890 70 -100 110/06 RMK AO2
14840KMKG MKG20060202172009302/02/06 17:20:31  5-MIN KMKG 022220Z 11006KT 7SM CLR 04/M01 A2964 890 67 -100 110/06 RMK AO2
14840KMKG MKG20060202172509302/02/06 17:25:31  5-MIN KMKG 022225Z 10004KT 7SM CLR 04/M01 A2964 890 67 -100 110/04 RMK AO2
14840KMKG MKG20060202173009302/02/06 17:30:31  5-MIN KMKG 022230Z 11005KT 7SM CLR 04/M01 A2964 890 67 -100 110/05 RMK AO2
14840KMKG MKG20060202173509302/02/06 17:35:31  5-MIN KMKG 022235Z 11005KT 7SM CLR 04/M01 A2964 890 67 -100 110/05 RMK AO2
14840KMKG MKG20060202174009302/02/06 17:40:31  5-MIN KMKG 022240Z 10005KT 7SM CLR 04/M01 A2964 890 67 -100 110/05 RMK AO2
14840KMKG MKG20060202174509302/02/06 17:45:31  5-MIN KMKG 022245Z 10005KT 7SM CLR 04/M01 A2964 890 70 -100 100/05 RMK AO2
14840KMKG MKG20060202175011002/02/06 17:50:31  5-MIN KMKG 022250Z 09004KT 7SM CLR 04/M01 A2964 890 70 -100 090/04 RMK AO2 SLP041 T00391011
14840KMKG MKG20060202175511002/02/06 17:55:31  5-MIN KMKG 022255Z 08004KT 7SM CLR 04/M01 A2964 890 70 -100 090/04 RMK AO2 SLP042 T00391011
14840KMKG MKG20060202180009602/02/06 18:00:31  5-MIN KMKG 022300Z 08004KT 6SM HZ CLR 03/M01 A2964 890 72 -200 080/04 RMK AO2
14840KMKG MKG20060202180509602/02/06 18:05:31  5-MIN KMKG 022305Z 07004KT 6SM HZ CLR 03/M01 A2964 890 72 -200 070/04 RMK AO2
14840KMKG MKG20060202181009302/02/06 18:10:31  5-MIN KMKG 022310Z 07004KT 7SM CLR 04/M01 A2964 890 70 -200 070/04 RMK AO2
14840KMKG MKG20060202181509302/02/06 18:15:31  5-MIN KMKG 022315Z 07004KT 8SM CLR 04/M01 A2964 890 70 -200 070/04 RMK AO2
14840KMKG MKG20060202182009302/02/06 18:20:31  5-MIN KMKG 022320Z 06003KT 8SM CLR 04/M01 A2964 890 70 -200 060/03 RMK AO2
14840KMKG MKG20060202182509302/02/06 18:25:31  5-MIN KMKG 022325Z 06004KT 8SM CLR 03/M01 A2964 890 72 -200 060/04 RMK AO2
14840KMKG MKG20060202183009302/02/06 18:30:31  5-MIN KMKG 022330Z 06004KT 8SM CLR 03/M01 A2964 890 72 -200 060/04 RMK AO2
14840KMKG MKG20060202183509302/02/06 18:35:31  5-MIN KMKG 022335Z 06004KT 8SM CLR 03/M01 A2964 890 72 -200 060/04 RMK AO2
14840KMKG MKG20060202184009302/02/06 18:40:31  5-MIN KMKG 022340Z 05003KT 8SM CLR 03/M01 A2964 890 72 -200 050/03 RMK AO2
14840KMKG MKG20060202184509302/02/06 18:45:31  5-MIN KMKG 022345Z 04004KT 7SM CLR 03/M01 A2964 890 75 -300 040/04 RMK AO2
14840KMKG MKG20060202185012802/02/06 18:50:31  5-MIN KMKG 022350Z 04004KT 7SM CLR 03/M01 A2964 890 75 -300 040/04 RMK AO2 SLP043 T00281011 10056 20028 56018
14840KMKG MKG20060202185512802/02/06 18:55:31  5-MIN KMKG 022355Z 05004KT 7SM CLR 03/M01 A2964 890 75 -300 050/04 RMK AO2 SLP042 T00281011 10056 20028 56008
14840KMKG MKG20060202190009302/02/06 19:00:31  5-MIN KMKG 030000Z 05004KT 7SM CLR 03/M01 A2964 890 75 -300 060/04 RMK AO2
14840KMKG MKG20060202190509302/02/06 19:05:31  5-MIN KMKG 030005Z 06004KT 7SM CLR 03/M01 A2964 890 75 -300 070/04 RMK AO2
14840KMKG MKG20060202191009302/02/06 19:10:31  5-MIN KMKG 030010Z 07004KT 7SM CLR 03/M01 A2964 890 75 -300 070/04 RMK AO2
14840KMKG MKG20060202191509302/02/06 19:15:31  5-MIN KMKG 030015Z 07005KT 7SM CLR 03/M01 A2964 890 75 -300 080/05 RMK AO2
14840KMKG MKG20060202192009302/02/06 19:20:31  5-MIN KMKG 030020Z 08005KT 7SM CLR 02/M01 A2963 900 78 -300 090/05 RMK AO2
14840KMKG MKG20060202192509302/02/06 19:25:31  5-MIN KMKG 030025Z 09005KT 7SM CLR 02/M01 A2963 900 78 -400 090/05 RMK AO2
14840KMKG MKG20060202193009302/02/06 19:30:31  5-MIN KMKG 030030Z 09006KT 7SM CLR 02/M01 A2964 900 78 -400 090/06 RMK AO2
14840KMKG MKG20060202193509302/02/06 19:35:31  5-MIN KMKG 030035Z 09005KT 7SM CLR 03/M01 A2964 890 75 -300 100/05 RMK AO2
14840KMKG MKG20060202194009302/02/06 19:40:31  5-MIN KMKG 030040Z 09005KT 7SM CLR 02/M01 A2964 890 78 -400 090/05 RMK AO2
14840KMKG MKG20060202194509302/02/06 19:45:31  5-MIN KMKG 030045Z 09005KT 7SM CLR 02/M01 A2964 900 78 -400 090/05 RMK AO2
14840KMKG MKG20060202195011002/02/06 19:50:31  5-MIN KMKG 030050Z 09005KT 7SM CLR 03/M01 A2963 900 75 -300 090/05 RMK AO2 SLP041 T00281011
14840KMKG MKG20060202195511002/02/06 19:55:31  5-MIN KMKG 030055Z 09005KT 7SM CLR 03/M01 A2964 900 75 -300 100/05 RMK AO2 SLP041 T00281011
14840KMKG MKG20060202200009302/02/06 20:00:31  5-MIN KMKG 030100Z 09005KT 7SM CLR 03/M01 A2964 900 75 -300 100/05 RMK AO2
14840KMKG MKG20060202200509302/02/06 20:05:31  5-MIN KMKG 030105Z 09005KT 7SM CLR 03/M01 A2964 890 75 -300 090/05 RMK AO2
14840KMKG MKG20060202201009302/02/06 20:10:31  5-MIN KMKG 030110Z 08004KT 7SM CLR 02/M01 A2964 890 78 -400 080/04 RMK AO2
14840KMKG MKG20060202201509302/02/06 20:15:31  5-MIN KMKG 030115Z 08005KT 7SM CLR 02/M01 A2964 890 78 -400 090/05 RMK AO2
14840KMKG MKG20060202202009302/02/06 20:20:31  5-MIN KMKG 030120Z 10005KT 7SM CLR 02/M01 A2964 890 82 -400 100/05 RMK AO2
14840KMKG MKG20060202202509302/02/06 20:25:31  5-MIN KMKG 030125Z 10004KT 7SM CLR 02/M01 A2964 890 78 -400 100/04 RMK AO2
14840KMKG MKG20060202203009302/02/06 20:30:31  5-MIN KMKG 030130Z 00000KT 7SM CLR 02/M01 A2964 890 78 -400 000/00 RMK AO2
14840KMKG MKG20060202203509302/02/06 20:35:31  5-MIN KMKG 030135Z 00000KT 7SM CLR 02/M01 A2964 890 78 -400 000/00 RMK AO2
14840KMKG MKG20060202204009302/02/06 20:40:31  5-MIN KMKG 030140Z 11003KT 7SM CLR 02/M01 A2964 890 78 -400 110/03 RMK AO2
14840KMKG MKG20060202204509302/02/06 20:45:31  5-MIN KMKG 030145Z 11004KT 7SM CLR 02/M01 A2964 890 78 -400 120/04 RMK AO2
14840KMKG MKG20060202205011002/02/06 20:50:31  5-MIN KMKG 030150Z 11004KT 7SM CLR 02/M01 A2964 900 78 -400 110/04 RMK AO2 SLP041 T00221011
14840KMKG MKG20060202205511002/02/06 20:55:31  5-MIN KMKG 030155Z 10004KT 7SM CLR 02/M01 A2963 900 82 -400 100/04 RMK AO2 SLP040 T00171011
14840KMKG MKG20060202210009302/02/06 21:00:31  5-MIN KMKG 030200Z 09005KT 7SM CLR 02/M01 A2963 900 82 -400 100/05 RMK AO2
14840KMKG MKG20060202210509302/02/06 21:05:31  5-MIN KMKG 030205Z 09005KT 7SM CLR 02/M01 A2963 900 78 -300 090/05 RMK AO2
14840KMKG MKG20060202211009302/02/06 21:10:31  5-MIN KMKG 030210Z 08004KT 7SM CLR 02/M01 A2963 900 78 -300 090/04 RMK AO2
14840KMKG MKG20060202211509302/02/06 21:15:31  5-MIN KMKG 030215Z 08005KT 7SM CLR 02/M01 A2963 900 82 -400 090/05 RMK AO2
14840KMKG MKG20060202212009302/02/06 21:20:31  5-MIN KMKG 030220Z 07004KT 7SM CLR 02/M01 A2963 900 82 -400 080/04 RMK AO2
14840KMKG MKG20060202212509302/02/06 21:25:31  5-MIN KMKG 030225Z 08004KT 7SM CLR 01/M01 A2963 900 85 -500 080/04 RMK AO2
14840KMKG MKG20060202213009302/02/06 21:30:31  5-MIN KMKG 030230Z 08004KT 7SM CLR 01/M01 A2962 910 85 -500 090/04 RMK AO2
14840KMKG MKG20060202213509302/02/06 21:35:31  5-MIN KMKG 030235Z 08004KT 7SM CLR 01/M02 A2962 910 82 -500 080/04 RMK AO2
14840KMKG MKG20060202214009302/02/06 21:40:31  5-MIN KMKG 030240Z 07005KT 7SM CLR 01/M02 A2962 910 82 -500 080/05 RMK AO2
14840KMKG MKG20060202214509302/02/06 21:45:31  5-MIN KMKG 030245Z 07005KT 7SM CLR 01/M02 A2962 910 82 -500 070/05 RMK AO2
14840KMKG MKG20060202215011602/02/06 21:50:31  5-MIN KMKG 030250Z 07005KT 7SM CLR 01/M02 A2962 910 82 -500 070/05 RMK AO2 SLP035 T00111017 56008
14840KMKG MKG20060202215511602/02/06 21:55:31  5-MIN KMKG 030255Z 07005KT 7SM CLR 02/M01 A2962 910 82 -400 070/05 RMK AO2 SLP034 T00171011 58008
14840KMKG MKG20060202220009302/02/06 22:00:31  5-MIN KMKG 030300Z 07005KT 7SM CLR 02/M01 A2961 910 82 -400 080/05 RMK AO2
14840KMKG MKG20060202220509302/02/06 22:05:31  5-MIN KMKG 030305Z 08005KT 7SM CLR 01/M02 A2961 920 85 -500 090/05 RMK AO2
14840KMKG MKG20060202221009302/02/06 22:10:31  5-MIN KMKG 030310Z 09005KT 7SM CLR 01/M02 A2961 920 85 -500 090/05 RMK AO2
14840KMKG MKG20060202221509602/02/06 22:15:31  5-MIN KMKG 030315Z 08004KT 6SM BR CLR 01/M02 A2961 920 85 -500 090/04 RMK AO2
14840KMKG MKG20060202222009602/02/06 22:20:31  5-MIN KMKG 030320Z 09004KT 6SM BR CLR 01/M02 A2961 920 85 -500 090/04 RMK AO2
14840KMKG MKG20060202222509602/02/06 22:25:31  5-MIN KMKG 030325Z 09005KT 6SM BR CLR 01/M02 A2961 920 85 -500 090/05 RMK AO2
14840KMKG MKG20060202223009602/02/06 22:30:31  5-MIN KMKG 030330Z 09005KT 6SM BR CLR 01/M02 A2961 920 85 -500 100/05 RMK AO2
14840KMKG MKG20060202223509302/02/06 22:35:31  5-MIN KMKG 030335Z 09005KT 7SM CLR 01/M02 A2961 920 85 -500 100/05 RMK AO2
14840KMKG MKG20060202224009302/02/06 22:40:31  5-MIN KMKG 030340Z 10005KT 7SM CLR 01/M02 A2960 920 85 -500 100/05 RMK AO2
14840KMKG MKG20060202224509302/02/06 22:45:31  5-MIN KMKG 030345Z 10005KT 7SM CLR 01/M02 A2960 920 82 -500 100/05 RMK AO2
14840KMKG MKG20060202225011002/02/06 22:50:31  5-MIN KMKG 030350Z 09005KT 7SM CLR 01/M01 A2960 930 85 -500 100/05 RMK AO2 SLP030 T00111011
14840KMKG MKG20060202225511002/02/06 22:55:31  5-MIN KMKG 030355Z 09005KT 7SM CLR 01/M01 A2960 930 85 -400 100/05 RMK AO2 SLP030 T00111011
14840KMKG MKG20060203101509802/03/06 10:15:31  5-MIN KMKG 031515Z 19003KT 4SM BR BKN049 03/01 A2960 920 89 -200 190/03 RMK AO2
14840KMKG MKG20060203102009802/03/06 10:20:31  5-MIN KMKG 031520Z 19003KT 4SM BR BKN047 03/01 A2961 920 89 -200 190/03 RMK AO2
14840KMKG MKG20060203102509802/03/06 10:25:31  5-MIN KMKG 031525Z 19004KT 4SM BR BKN045 03/01 A2961 920 89 -200 190/04 RMK AO2
14840KMKG MKG20060203103009802/03/06 10:30:31  5-MIN KMKG 031530Z 20005KT 4SM BR BKN045 03/02 A2961 920 89 -200 200/05 RMK AO2
14840KMKG MKG20060203103509802/03/06 10:35:31  5-MIN KMKG 031535Z 19004KT 4SM BR BKN045 03/02 A2961 920 89 -200 190/04 RMK AO2
14840KMKG MKG20060203104009802/03/06 10:40:31  5-MIN KMKG 031540Z 19005KT 4SM BR BKN043 03/02 A2961 920 89 -200 200/05 RMK AO2
14840KMKG MKG20060203104510502/03/06 10:45:31  5-MIN KMKG 031545Z 21004KT 4SM BR BKN039 OVC046 03/02 A2961 920 89 -200 210/04 RMK AO2
14840KMKG MKG20060203105014502/03/06 10:50:31  5-MIN KMKG 031550Z 18003KT 4SM -RA BR FEW029 BKN035 OVC046 03/02 A2961 910 89 -200 180/03 RMK AO2 RAB50 SLP034 P0000 T00330017
14840KMKG MKG20060203105514502/03/06 10:55:31  5-MIN KMKG 031555Z 18004KT 4SM -RA BR FEW029 BKN035 OVC046 03/02 A2961 910 89 -200 190/04 RMK AO2 RAB50 SLP034 P0000 T00330017
14840KMKG MKG20060203110010802/03/06 11:00:31  5-MIN KMKG 031600Z 20004KT 5SM -RA BR BKN033 04/02 A2962 910 85 -100 210/04 RMK AO2 P0000
14840KMKG MKG20060203110510802/03/06 11:05:31  5-MIN KMKG 031605Z 22006KT 5SM -RA BR OVC029 04/02 A2962 910 85 -100 220/06 RMK AO2 P0000
14840KMKG MKG20060203111010502/03/06 11:10:31  5-MIN KMKG 031610Z 22004KT 6SM -RA OVC025 04/01 A2962 910 82 -100 230/04 RMK AO2 P0000
14840KMKG MKG20060203111511102/03/06 11:15:31  5-MIN KMKG 031615Z 29006G17KT 5SM -RA OVC021 04/00 A2961 920 73 -100 300/06G17 RMK AO2 P0000
14840KMKG MKG20060203112011202/03/06 11:20:31  5-MIN KMKG 031620Z 32008G17KT 4SM -RA OVC021 04/M01 A2961 910 73 -100 330/08G17 RMK AO2 P0001
14840KMKG MKG20060203112510502/03/06 11:25:31  5-MIN KMKG 031625Z 35006KT 6SM -RA OVC023 04/00 A2961 920 76 -100 350/06 RMK AO2 P0002
14840KMKG MKG20060203113010602/03/06 11:30:31  5-MIN KMKG 031630Z 31006KT 10SM -RA OVC029 04/01 A2962 910 79 -100 320/06 RMK AO2 P0002
14840KMKG MKG20060203113510802/03/06 11:35:31  5-MIN KMKG 031635Z 34004KT 10SM OVC033 04/01 A2962 910 79 -100 340/04 RMK AO2 RAE33 P0002
14840KMKG MKG20060203114010802/03/06 11:40:31  5-MIN KMKG 031640Z 32005KT 10SM BKN033 04/01 A2961 910 79 -100 320/05 RMK AO2 RAE33 P0002
14840KMKG MKG20060203114510802/03/06 11:45:31  5-MIN KMKG 031645Z VRB04KT 10SM BKN035 04/01 A2961 920 82 -100 VRB/04 RMK AO2 RAE33 P0002
14840KMKG MKG20060203115012202/03/06 11:50:31  5-MIN KMKG 031650Z 03006KT 10SM SCT041 04/01 A2961 920 79 0 030/06 RMK AO2 RAE33 SLP032 P0002 T00440011
14840KMKG MKG20060203115514402/03/06 11:55:31  5-MIN KMKG 031655Z 04005KT 10SM SCT046 BKN080 04/01 A2961 920 79 0 040/05 RMK AO2 RAE33 CIG 050 RWY 14 SLP031 P0002 T00440011
14840KMKG MKG20060203120012202/03/06 12:00:31  5-MIN KMKG 031700Z 03005KT 10SM FEW046 SCT060 BKN080 04/01 A2961 920 79 0 030/05 RMK AO2 CIG 060 RWY 14
14840KMKG MKG20060203120512202/03/06 12:05:31  5-MIN KMKG 031705Z 03004KT 10SM SCT060 BKN080 BKN095 05/01 A2961 920 76 0 040/04 RMK AO2 CIG 060 RWY 14
14840KMKG MKG20060203121010002/03/06 12:10:31  5-MIN KMKG 031710Z 03004KT 10SM SCT060 BKN085 05/01 A2960 920 76 0 040/04 RMK AO2
14840KMKG MKG20060203121510002/03/06 12:15:31  5-MIN KMKG 031715Z 05004KT 10SM FEW060 BKN090 05/01 A2960 920 76 0 060/04 RMK AO2
14840KMKG MKG20060203122010002/03/06 12:20:31  5-MIN KMKG 031720Z 04003KT 10SM FEW060 BKN090 05/01 A2960 930 76 0 040/03 RMK AO2
14840KMKG MKG20060203122510002/03/06 12:25:31  5-MIN KMKG 031725Z 00000KT 10SM FEW060 BKN090 05/01 A2960 930 76 0 000/00 RMK AO2
14840KMKG MKG20060203123010002/03/06 12:30:31  5-MIN KMKG 031730Z 00000KT 10SM FEW060 SCT090 05/01 A2960 930 73 0 000/00 RMK AO2
14840KMKG MKG20060203123509302/03/06 12:35:31  5-MIN KMKG 031735Z 00000KT 10SM SCT090 05/01 A2960 930 73 0 000/00 RMK AO2
14840KMKG MKG20060203124009302/03/06 12:40:31  5-MIN KMKG 031740Z 00000KT 10SM FEW090 05/01 A2960 930 73 0 000/00 RMK AO2
14840KMKG MKG20060203124509302/03/06 12:45:31  5-MIN KMKG 031745Z 00000KT 10SM FEW090 05/01 A2960 930 73 0 000/00 RMK AO2
14840KMKG MKG20060203125013402/03/06 12:50:31  5-MIN KMKG 031750Z 15006KT 10SM SCT090 06/01 A2960 930 73 0 160/06 RMK AO2 SLP029 60002 T00560011 10056 20006 51015
14840KMKG MKG20060203125514302/03/06 12:55:31  5-MIN KMKG 031755Z 14005KT 10SM FEW065 SCT090 06/01 A2960 930 73 100 150/05 RMK AO2 SLP028 60002 T00560011 10056 20006 58001
14840KMKG MKG20060203130009202/03/06 13:00:31  5-MIN KMKG 031800Z 13006KT 10SM CLR 06/01 A2960 930 70 100 130/06 RMK AO2
14840KMKG MKG20060203130509202/03/06 13:05:31  5-MIN KMKG 031805Z 12005KT 10SM CLR 06/02 A2960 930 73 100 130/05 RMK AO2
14840KMKG MKG20060203131009202/03/06 13:10:31  5-MIN KMKG 031810Z VRB05KT 10SM CLR 07/02 A2960 930 70 200 VRB/05 RMK AO2
14840KMKG MKG20060203131509202/03/06 13:15:31  5-MIN KMKG 031815Z 12004KT 10SM CLR 07/01 A2960 930 67 200 120/04 RMK AO2
14840KMKG MKG20060203132009502/03/06 13:20:31  5-MIN KMKG 031820Z 18005KT 10SM FEW028 06/01 A2960 930 70 100 190/05 RMK AO2
14840KMKG MKG20060203132509502/03/06 13:25:31  5-MIN KMKG 031825Z 22009KT 10SM SCT028 07/01 A2961 920 67 200 230/09 RMK AO2
14840KMKG MKG20060203133009502/03/06 13:30:31  5-MIN KMKG 031830Z 22013KT 10SM SCT028 07/01 A2961 920 67 200 220/13 RMK AO2
14840KMKG MKG20060203133509502/03/06 13:35:31  5-MIN KMKG 031835Z 22013KT 10SM BKN028 06/01 A2961 920 70 100 230/13 RMK AO2
14840KMKG MKG20060203134009502/03/06 13:40:31  5-MIN KMKG 031840Z 22014KT 10SM BKN028 07/01 A2961 920 67 200 230/14 RMK AO2
14840KMKG MKG20060203134509902/03/06 13:45:31  5-MIN KMKG 031845Z 21012KT 9SM BKN028 BKN075 06/02 A2961 920 76 0 210/12 RMK AO2
14840KMKG MKG20060203135012602/03/06 13:50:31  5-MIN KMKG 031850Z 22011KT 6SM HZ FEW012 BKN028 OVC075 06/02 A2961 920 79 0 220/11 RMK AO2 SLP032 T00560022
14840KMKG MKG20060203135512602/03/06 13:55:31  5-MIN KMKG 031855Z 22011KT 5SM HZ FEW012 BKN030 OVC070 05/02 A2961 920 82 0 220/11 RMK AO2 SLP033 T00500022
14840KMKG MKG20060203140010902/03/06 14:00:31  5-MIN KMKG 031900Z 23012KT 5SM HZ SCT012 BKN030 OVC070 05/02 A2962 910 82 0 230/12 RMK AO2
14840KMKG MKG20060203140510902/03/06 14:05:31  5-MIN KMKG 031905Z 23011KT 5SM HZ BKN010 BKN030 OVC070 05/02 A2962 910 82 0 230/11 RMK AO2
14840KMKG MKG20060203141012402/03/06 14:10:31  5-MIN KMKG 031910Z 23009KT 5SM BR BKN010 BKN014 OVC070 04/02 A2962 910 85 -100 240/09 RMK AO2 CIG 008V013
14840KMKG MKG20060203141512102/03/06 14:15:31  5-MIN KMKG 031915Z 23011KT 5SM HZ BKN010 BKN014 OVC070 05/02 A2962 910 82 0 240/11 RMK AO2 CIG 008V012
14840KMKG MKG20060203142011702/03/06 14:20:31  5-MIN KMKG 031920Z 23009KT 5SM BR BKN010 OVC014 04/02 A2962 910 85 -100 240/09 RMK AO2 CIG 008V013
14840KMKG MKG20060203142511402/03/06 14:25:31  5-MIN KMKG 031925Z 21008KT 5SM HZ BKN010 OVC014 05/02 A2961 910 82 0 210/08 RMK AO2 CIG 008V013
14840KMKG MKG20060203143011702/03/06 14:30:31  5-MIN KMKG 031930Z 24010KT 6SM BR BKN010 OVC014 04/02 A2962 910 85 -100 240/10 RMK AO2 CIG 008V012
14840KMKG MKG20060203143511802/03/06 14:35:31  5-MIN KMKG 031935Z 22008KT 8SM BKN010 BKN017 OVC060 05/02 A2962 910 82 0 220/08 RMK AO2 CIG 008V014
14840KMKG MKG20060203144011902/03/06 14:40:31  5-MIN KMKG 031940Z 21008KT 10SM BKN010 BKN016 OVC060 05/03 A2962 910 85 0 220/08 RMK AO2 CIG 008V014
14840KMKG MKG20060203144511202/03/06 14:45:31  5-MIN KMKG 031945Z 22011KT 10SM BKN010 OVC060 05/02 A2962 910 82 0 220/11 RMK AO2 CIG 008V015
14840KMKG MKG20060203145011202/03/06 14:50:31  5-MIN KMKG 031950Z 21010KT 10SM BKN010 OVC060 05/02 A2962 910 82 0 220/10 RMK AO2 CIG 008V014
14840KMKG MKG20060203145513202/03/06 14:55:31  5-MIN KMKG 031955Z 22008KT 10SM BKN010 OVC060 04/02 A2962 910 85 -100 220/08 RMK AO2 CIG 008V013 SLP036 T00440022
14840KMKG MKG20060203150011502/03/06 15:00:31  5-MIN KMKG 032000Z 22007KT 10SM BKN010 OVC060 04/02 A2962 910 85 -100 230/07 RMK AO2 CIG 008V013
14840KMKG MKG20060203150511202/03/06 15:05:31  5-MIN KMKG 032005Z 23010KT 10SM BKN010 OVC055 05/02 A2962 910 82 0 230/10 RMK AO2 CIG 008V013
14840KMKG MKG20060203151009602/03/06 15:10:31  5-MIN KMKG 032010Z 23010KT 10SM OVC010 04/02 A2962 910 82 -100 240/10 RMK AO2
14840KMKG MKG20060203151511502/03/06 15:15:31  5-MIN KMKG 032015Z 22007KT 10SM BKN010 OVC055 04/02 A2962 910 85 -100 220/07 RMK AO2 CIG 008V013
14840KMKG MKG20060203152011502/03/06 15:20:31  5-MIN KMKG 032020Z 21009KT 10SM BKN010 OVC055 04/02 A2963 900 85 -100 220/09 RMK AO2 CIG 008V013
14840KMKG MKG20060203152512202/03/06 15:25:31  5-MIN KMKG 032025Z 21007KT 10SM BKN010 BKN021 OVC055 04/02 A2963 900 82 -100 210/07 RMK AO2 CIG 008V013
14840KMKG MKG20060203153011502/03/06 15:30:31  5-MIN KMKG 032030Z 21007KT 10SM BKN010 OVC021 04/02 A2963 900 85 -100 220/07 RMK AO2 CIG 008V013
14840KMKG MKG20060203153510302/03/06 15:35:31  5-MIN KMKG 032035Z 21006KT 10SM BKN010 OVC021 04/02 A2963 900 85 -100 210/06 RMK AO2
14840KMKG MKG20060203154009602/03/06 15:40:31  5-MIN KMKG 032040Z 21008KT 10SM OVC010 04/02 A2963 900 85 -100 210/08 RMK AO2
14840KMKG MKG20060203154509602/03/06 15:45:31  5-MIN KMKG 032045Z 21010KT 10SM OVC010 04/02 A2964 890 85 -100 210/10 RMK AO2
14840KMKG MKG20060203155011902/03/06 15:50:31  5-MIN KMKG 032050Z 22009KT 10SM OVC010 04/02 A2964 890 85 -100 220/09 RMK AO2 SLP042 T00390017 58001
14840KMKG MKG20060203155511902/03/06 15:55:31  5-MIN KMKG 032055Z 21011KT 10SM OVC008 04/02 A2964 890 85 -200 220/11 RMK AO2 SLP043 T00390017 53013
14840KMKG MKG20060203160009602/03/06 16:00:31  5-MIN KMKG 032100Z 20009KT 10SM OVC008 04/02 A2964 890 85 -200 210/09 RMK AO2
14840KMKG MKG20060203160509602/03/06 16:05:31  5-MIN KMKG 032105Z 22010KT 10SM OVC008 04/02 A2964 890 85 -200 220/10 RMK AO2
14840KMKG MKG20060203161009602/03/06 16:10:31  5-MIN KMKG 032110Z 21009KT 10SM OVC008 04/02 A2965 890 85 -200 210/09 RMK AO2
14840KMKG MKG20060203161509602/03/06 16:15:31  5-MIN KMKG 032115Z 22009KT 10SM OVC008 03/02 A2965 880 89 -200 220/09 RMK AO2
14840KMKG MKG20060203162009602/03/06 16:20:31  5-MIN KMKG 032120Z 21006KT 10SM OVC008 03/02 A2965 880 89 -200 210/06 RMK AO2
14840KMKG MKG20060203162509602/03/06 16:25:31  5-MIN KMKG 032125Z 20007KT 10SM OVC008 03/02 A2965 880 89 -200 210/07 RMK AO2
14840KMKG MKG20060203163009602/03/06 16:30:31  5-MIN KMKG 032130Z 20006KT 10SM OVC008 03/02 A2965 880 89 -200 200/06 RMK AO2
14840KMKG MKG20060203163510302/03/06 16:35:31  5-MIN KMKG 032135Z 19005KT 10SM BKN008 OVC013 03/02 A2965 880 89 -200 200/05 RMK AO2
14840KMKG MKG20060203164010302/03/06 16:40:31  5-MIN KMKG 032140Z 20006KT 10SM BKN008 OVC013 03/02 A2965 880 92 -200 200/06 RMK AO2
14840KMKG MKG20060203164510802/03/06 16:45:31  5-MIN KMKG 032145Z 20007KT 10SM OVC008 03/02 A2966 880 92 -200 200/07 RMK AO2 CIG 006V013
14840KMKG MKG20060203165012002/03/06 16:50:31  5-MIN KMKG 032150Z 21008KT 10SM BKN008 OVC012 03/02 A2966 870 92 -200 210/08 RMK AO2 SLP049 T00330022
14840KMKG MKG20060203165512002/03/06 16:55:31  5-MIN KMKG 032155Z 21007KT 10SM BKN008 OVC012 03/02 A2966 870 92 -200 210/07 RMK AO2 SLP050 T00330022
14840KMKG MKG20060203170010802/03/06 17:00:31  5-MIN KMKG 032200Z 21007KT 10SM OVC008 03/02 A2966 870 92 -200 210/07 RMK AO2 CIG 006V011
14840KMKG MKG20060203170510802/03/06 17:05:31  5-MIN KMKG 032205Z 22007KT 10SM OVC008 03/02 A2966 870 89 -200 220/07 RMK AO2 CIG 006V011
14840KMKG MKG20060203171010802/03/06 17:10:31  5-MIN KMKG 032210Z 22008KT 10SM OVC008 03/02 A2966 870 92 -200 220/08 RMK AO2 CIG 006V011
14840KMKG MKG20060203171510702/03/06 17:15:31  5-MIN KMKG 032215Z 22008KT 9SM OVC006 03/02 A2966 870 92 -200 220/08 RMK AO2 CIG 006V009
14840KMKG MKG20060203172010702/03/06 17:20:31  5-MIN KMKG 032220Z 23006KT 8SM OVC006 03/02 A2966 870 92 -200 240/06 RMK AO2 CIG 006V011
14840KMKG MKG20060203172510702/03/06 17:25:31  5-MIN KMKG 032225Z 24006KT 7SM OVC006 03/02 A2967 870 92 -200 250/06 RMK AO2 CIG 006V010
14840KMKG MKG20060203173011002/03/06 17:30:31  5-MIN KMKG 032230Z 25006KT 6SM BR OVC006 03/02 A2967 860 92 -300 250/06 RMK AO2 CIG 006V010
14840KMKG MKG20060203173511002/03/06 17:35:31  5-MIN KMKG 032235Z 24009KT 5SM BR OVC006 03/02 A2968 860 92 -300 240/09 RMK AO2 CIG 006V010
14840KMKG MKG20060203174011002/03/06 17:40:31  5-MIN KMKG 032240Z 25008KT 4SM BR OVC006 03/02 A2968 850 92 -300 250/08 RMK AO2 CIG 006V010
14840KMKG MKG20060203174511702/03/06 17:45:31  5-MIN KMKG 032245Z 25008KT 4SM BR BKN008 OVC012 03/02 A2969 850 92 -300 250/08 RMK AO2 CIG 006V010
14840KMKG MKG20060203175013402/03/06 17:50:31  5-MIN KMKG 032250Z 25009KT 5SM BR BKN008 OVC012 03/02 A2969 840 92 -300 260/09 RMK AO2 CIG 006V010 SLP060 T00330022
14840KMKG MKG20060203175512402/03/06 17:55:31  5-MIN KMKG 032255Z 25008KT 8SM OVC010 03/02 A2970 840 89 -300 260/08 RMK AO2 CIG 006V015 SLP062 T00330017
14840KMKG MKG20060203180010302/03/06 18:00:31  5-MIN KMKG 032300Z 25008KT 10SM SCT008 OVC013 03/02 A2970 840 89 -300 250/08 RMK AO2
14840KMKG MKG20060203180510302/03/06 18:05:31  5-MIN KMKG 032305Z 25009KT 10SM FEW008 OVC014 03/02 A2970 830 89 -300 260/09 RMK AO2
14840KMKG MKG20060203181009602/03/06 18:10:31  5-MIN KMKG 032310Z 25009KT 10SM OVC013 03/02 A2971 830 89 -300 250/09 RMK AO2
14840KMKG MKG20060203181509602/03/06 18:15:31  5-MIN KMKG 032315Z 26007KT 10SM OVC013 03/02 A2971 830 89 -300 260/07 RMK AO2
14840KMKG MKG20060203182009602/03/06 18:20:31  5-MIN KMKG 032320Z 26007KT 10SM OVC013 03/02 A2971 830 89 -300 270/07 RMK AO2
14840KMKG MKG20060203182510302/03/06 18:25:31  5-MIN KMKG 032325Z 25008KT 10SM BKN013 OVC019 03/02 A2971 820 89 -300 260/08 RMK AO2
14840KMKG MKG20060203183010302/03/06 18:30:31  5-MIN KMKG 032330Z 24009KT 10SM BKN013 OVC021 03/02 A2971 820 89 -300 250/09 RMK AO2
14840KMKG MKG20060203183510902/03/06 18:35:31  5-MIN KMKG 032335Z 25011G16KT 10SM SCT013 OVC021 03/01 A2971 820 85 -300 260/11G16 RMK AO2
14840KMKG MKG20060203184010302/03/06 18:40:31  5-MIN KMKG 032340Z 26010KT 10SM SCT013 OVC021 04/01 A2971 820 79 -200 260/10 RMK AO2
14840KMKG MKG20060203184510302/03/06 18:45:31  5-MIN KMKG 032345Z 26012KT 10SM FEW010 OVC023 04/00 A2971 820 76 -200 270/12 RMK AO2
14840KMKG MKG20060203185013802/03/06 18:50:31  5-MIN KMKG 032350Z 26010KT 10SM FEW013 OVC023 04/00 A2971 820 76 -200 270/10 RMK AO2 SLP068 T00390000 10050 20033 53013
14840KMKG MKG20060203185513802/03/06 18:55:31  5-MIN KMKG 032355Z 27008KT 10SM BKN023 OVC040 04/00 A2971 820 76 -200 280/08 RMK AO2 SLP067 T00390000 10050 20033 51024
14840KMKG MKG20060203190010302/03/06 19:00:31  5-MIN KMKG 040000Z 27006KT 10SM BKN023 OVC042 03/00 A2971 820 79 -300 280/06 RMK AO2
14840KMKG MKG20060203190510402/03/06 19:05:31  5-MIN KMKG 040005Z 26005KT 10SM SCT023 BKN042 03/M01 A2971 820 76 -300 270/05 RMK AO2
14840KMKG MKG20060203191010402/03/06 19:10:31  5-MIN KMKG 040010Z 26004KT 10SM SCT023 BKN042 03/M01 A2971 820 79 -400 260/04 RMK AO2
14840KMKG MKG20060203191510402/03/06 19:15:31  5-MIN KMKG 040015Z 24006KT 10SM FEW023 SCT042 03/M01 A2972 820 79 -400 240/06 RMK AO2
14840KMKG MKG20060203192009702/03/06 19:20:31  5-MIN KMKG 040020Z 22006KT 10SM FEW042 02/M01 A2972 810 82 -500 230/06 RMK AO2
14840KMKG MKG20060203192509702/03/06 19:25:31  5-MIN KMKG 040025Z 23005KT 10SM FEW042 02/M01 A2973 810 85 -500 230/05 RMK AO2
14840KMKG MKG20060203193009602/03/06 19:30:31  5-MIN KMKG 040030Z 22004KT 10SM FEW044 02/00 A2973 810 89 -500 220/04 RMK AO2
14840KMKG MKG20060203193509602/03/06 19:35:31  5-MIN KMKG 040035Z 21004KT 10SM SCT044 02/00 A2973 810 89 -500 220/04 RMK AO2
14840KMKG MKG20060203194009502/03/06 19:40:31  5-MIN KMKG 040040Z 21003KT 9SM BKN044 02/00 A2973 810 89 -500 210/03 RMK AO2
14840KMKG MKG20060203194509502/03/06 19:45:31  5-MIN KMKG 040045Z 00000KT 9SM BKN046 02/00 A2972 820 89 -500 000/00 RMK AO2
14840KMKG MKG20060203195011202/03/06 19:50:31  5-MIN KMKG 040050Z 00000KT 9SM BKN046 02/00 A2972 820 89 -500 000/00 RMK AO2 SLP069 T00170000
14840KMKG MKG20060203195511202/03/06 19:55:31  5-MIN KMKG 040055Z 00000KT 9SM SCT046 02/01 A2971 820 89 -400 000/00 RMK AO2 SLP068 T00220006
14840KMKG MKG20060203200009502/03/06 20:00:31  5-MIN KMKG 040100Z 00000KT 9SM SCT046 02/00 A2972 820 89 -500 000/00 RMK AO2
14840KMKG MKG20060203200510202/03/06 20:05:31  5-MIN KMKG 040105Z 00000KT 8SM FEW046 SCT055 02/00 A2972 820 89 -500 000/00 RMK AO2
14840KMKG MKG20060203201009602/03/06 20:10:31  5-MIN KMKG 040110Z 00000KT 8SM BKN055 01/M01 A2972 820 92 -700 000/00 RMK AO2
14840KMKG MKG20060203201509502/03/06 20:15:31  5-MIN KMKG 040115Z 00000KT 8SM BKN060 01/00 A2972 810 92 -600 000/00 RMK AO2
14840KMKG MKG20060203202010202/03/06 20:20:31  5-MIN KMKG 040120Z 21003KT 7SM BKN060 BKN070 01/00 A2973 810 92 -600 220/03 RMK AO2
14840KMKG MKG20060203202510302/03/06 20:25:31  5-MIN KMKG 040125Z 20004KT 7SM BKN060 BKN075 01/M01 A2973 810 92 -700 200/04 RMK AO2
14840KMKG MKG20060203203010502/03/06 20:30:31  5-MIN KMKG 040130Z 19004KT 6SM BR SCT060 OVC075 01/00 A2973 810 96 -700 200/04 RMK AO2
14840KMKG MKG20060203203510202/03/06 20:35:31  5-MIN KMKG 040135Z 18003KT 7SM SCT060 OVC075 01/00 A2973 810 92 -600 180/03 RMK AO2
14840KMKG MKG20060203204009502/03/06 20:40:31  5-MIN KMKG 040140Z 18003KT 7SM OVC075 01/00 A2973 800 92 -600 180/03 RMK AO2
14840KMKG MKG20060203204509502/03/06 20:45:31  5-MIN KMKG 040145Z 18004KT 7SM OVC075 01/00 A2973 800 92 -600 190/04 RMK AO2
14840KMKG MKG20060203205011502/03/06 20:50:31  5-MIN KMKG 040150Z 18004KT 6SM BR OVC075 01/00 A2973 810 92 -600 190/04 RMK AO2 SLP074 T00110000
14840KMKG MKG20060203205512202/03/06 20:55:31  5-MIN KMKG 040155Z 18003KT 6SM BR BKN075 OVC085 01/00 A2973 800 92 -600 190/03 RMK AO2 SLP074 T00110000
14840KMKG MKG20060203210009802/03/06 21:00:31  5-MIN KMKG 040200Z 19004KT 5SM BR OVC080 01/00 A2973 800 92 -600 190/04 RMK AO2
14840KMKG MKG20060203210510502/03/06 21:05:31  5-MIN KMKG 040205Z 19006KT 5SM BR FEW003 OVC080 02/01 A2974 800 92 -500 200/06 RMK AO2
14840KMKG MKG20060203211012702/03/06 21:10:31  5-MIN KMKG 040210Z 19006KT 5SM BR FEW003 SCT075 OVC090 02/01 A2974 800 92 -500 190/06 RMK AO2 CIG 075 RWY 14
14840KMKG MKG20060203211509802/03/06 21:15:31  5-MIN KMKG 040215Z 19006KT 5SM BR OVC080 02/01 A2974 800 92 -500 190/06 RMK AO2
14840KMKG MKG20060203212009802/03/06 21:20:31  5-MIN KMKG 040220Z 19006KT 5SM BR OVC080 02/01 A2974 790 92 -500 200/06 RMK AO2
14840KMKG MKG20060203212509802/03/06 21:25:31  5-MIN KMKG 040225Z 19006KT 5SM BR OVC085 02/01 A2975 790 96 -500 200/06 RMK AO2
14840KMKG MKG20060203213010502/03/06 21:30:31  5-MIN KMKG 040230Z 19006KT 5SM BR FEW003 OVC080 02/01 A2975 790 96 -600 200/06 RMK AO2
14840KMKG MKG20060203213510502/03/06 21:35:31  5-MIN KMKG 040235Z 19007KT 5SM BR SCT003 OVC080 02/01 A2974 790 92 -500 190/07 RMK AO2
14840KMKG MKG20060203214010502/03/06 21:40:31  5-MIN KMKG 040240Z 19005KT 4SM BR BKN003 OVC080 02/02 A2974 790 96 -500 190/05 RMK AO2
14840KMKG MKG20060203214510502/03/06 21:45:31  5-MIN KMKG 040245Z 18003KT 4SM BR BKN003 OVC080 02/02 A2974 790 96 -500 190/03 RMK AO2
14840KMKG MKG20060203215012802/03/06 21:50:31  5-MIN KMKG 040250Z 00000KT 4SM BR BKN003 OVC080 02/02 A2974 800 96 -500 000/00 RMK AO2 SLP077 T00220017 51024
14840KMKG MKG20060203215512202/03/06 21:55:31  5-MIN KMKG 040255Z 00000KT 4SM BR OVC003 02/02 A2974 800 100 -500 000/00 RMK AO2 SLP077 T00170017 53009
14840KMKG MKG20060203220009802/03/06 22:00:31  5-MIN KMKG 040300Z 12003KT 4SM BR OVC003 02/01 A2974 800 96 -500 120/03 RMK AO2
14840KMKG MKG20060203220509802/03/06 22:05:31  5-MIN KMKG 040305Z 12003KT 3SM BR OVC003 02/01 A2974 800 96 -500 130/03 RMK AO2
14840KMKG MKG20060203221011002/03/06 22:10:31  5-MIN KMKG 040310Z 12005KT 4SM BR OVC003 02/01 A2974 800 96 -500 120/05 RMK AO2 CIG 002V005
14840KMKG MKG20060203221511702/03/06 22:15:31  5-MIN KMKG 040315Z 13006KT 4SM BR BKN003 OVC044 02/01 A2974 800 96 -500 130/06 RMK AO2 CIG 002V005
14840KMKG MKG20060203222011202/03/06 22:20:31  5-MIN KMKG 040320Z 13004KT 3SM BR BKN003 BKN039 OVC048 02/01 A2974 800 96 -500 140/04 RMK AO2
14840KMKG MKG20060203222510502/03/06 22:25:31  5-MIN KMKG 040325Z 16004KT 3SM BR SCT003 OVC039 02/01 A2974 800 96 -500 160/04 RMK AO2
14840KMKG MKG20060203223012102/03/06 22:30:31  5-MIN KMKG 040330Z 16004KT 3SM -RA BR FEW003 OVC037 02/01 A2974 800 92 -500 170/04 RMK AO2 RAB26 P0000
14840KMKG MKG20060203223512102/03/06 22:35:31  5-MIN KMKG 040335Z 19003KT 4SM -RA BR FEW003 OVC037 02/02 A2974 790 96 -500 200/03 RMK AO2 RAB26 P0000
14840KMKG MKG20060203224012102/03/06 22:40:31  5-MIN KMKG 040340Z 23003KT 4SM -RA BR SCT026 OVC037 02/02 A2975 790 96 -500 240/03 RMK AO2 RAB26 P0000
14840KMKG MKG20060203224512002/03/06 22:45:31  5-MIN KMKG 040345Z 28003KT 3SM BR BKN026 OVC037 02/02 A2975 790 96 -500 280/03 RMK AO2 RAB26E41 P0000
14840KMKG MKG20060203225013702/03/06 22:50:31  5-MIN KMKG 040350Z 00000KT 3SM BR BKN026 OVC035 02/02 A2975 790 96 -500 000/00 RMK AO2 SLP078 RAB26E41 P0000 T00220017
14840KMKG MKG20060203225514402/03/06 22:55:31  5-MIN KMKG 040355Z 00000KT 3SM BR FEW011 BKN026 OVC035 02/02 A2974 790 96 -500 000/00 RMK AO2 SLP077 RAB26E41 P0000 T00220017
14840KMKG MKG20060203230012902/03/06 23:00:31  5-MIN KMKG 040400Z 00000KT 3SM BR FEW011 BKN026 OVC035 02/02 A2974 790 96 -500 000/00 RMK AO2 VIS 2 1/2 RWY 14
14840KMKG MKG20060203230511202/03/06 23:05:31  5-MIN KMKG 040405Z 00000KT 3SM BR FEW005 SCT013 OVC026 02/02 A2975 790 96 -500 000/00 RMK AO2
14840KMKG MKG20060203231011202/03/06 23:10:31  5-MIN KMKG 040410Z 00000KT 3SM BR SCT005 BKN014 OVC026 02/02 A2975 790 96 -500 000/00 RMK AO2
14840KMKG MKG20060203231514302/03/06 23:15:31  5-MIN KMKG 040415Z 15003KT 3SM -RA BR SCT005 BKN009 OVC024 02/01 A2975 790 92 -500 160/03 RMK AO2 RAB14 CIG 005 RWY 14 P0000
14840KMKG MKG20060203232012802/03/06 23:20:31  5-MIN KMKG 040420Z 15005KT 3SM -RA BR BKN005 BKN009 OVC019 02/01 A2975 790 92 -500 160/05 RMK AO2 RAB14 P0000
14840KMKG MKG20060203232514502/03/06 23:25:31  5-MIN KMKG 040425Z 15007KT 3SM -RA BR BKN005 BKN014 OVC021 02/02 A2975 790 96 -500 150/07 RMK AO2 VIS 2 1/2 RWY 14 RAB14 P0000
14840KMKG MKG20060203233012802/03/06 23:30:31  5-MIN KMKG 040430Z 14005KT 4SM -RA BR BKN005 BKN014 OVC020 02/02 A2975 790 96 -500 140/05 RMK AO2 RAB14 P0000
14840KMKG MKG20060203233514302/03/06 23:35:31  5-MIN KMKG 040435Z 13003KT 5SM -RA BR SCT005 BKN017 OVC023 02/02 A2974 790 96 -500 140/03 RMK AO2 RAB14 CIG 005 RWY 14 P0000
14840KMKG MKG20060203234012802/03/06 23:40:31  5-MIN KMKG 040440Z 14003KT 5SM -RA BR SCT005 BKN014 OVC021 02/02 A2974 790 96 -500 140/03 RMK AO2 RAB14 P0000
14840KMKG MKG20060203234512702/03/06 23:45:31  5-MIN KMKG 040445Z 13004KT 4SM BR FEW005 BKN014 OVC023 02/01 A2974 790 96 -500 130/04 RMK AO2 RAB14E43 P0000
14840KMKG MKG20060203235015402/03/06 23:50:31  5-MIN KMKG 040450Z VRB03KT 4SM BR FEW005 BKN014 OVC023 02/02 A2975 790 96 -500 VRB/03 RMK AO2 RAB14E43 SLP078 P0000 T00220017 400721006
14840KMKG MKG20060203235515402/03/06 23:55:31  5-MIN KMKG 040455Z 35003KT 4SM BR SCT005 BKN014 OVC023 02/02 A2975 790 96 -500 350/03 RMK AO2 RAB14E43 SLP079 P0000 T00220017 400721006
14840KMKG MKG20060204000010502/04/06 00:00:32  5-MIN KMKG 040500Z 05004KT 4SM BR BKN005 OVC014 02/02 A2975 790 96 -500 050/04 RMK AO2
14840KMKG MKG20060204000510502/04/06 00:05:31  5-MIN KMKG 040505Z 00000KT 5SM BR BKN005 OVC014 02/02 A2975 790 96 -500 000/00 RMK AO2
14840KMKG MKG20060204001010502/04/06 00:10:31  5-MIN KMKG 040510Z 34004KT 5SM BR BKN005 OVC012 02/02 A2975 790 96 -500 340/04 RMK AO2
14840KMKG MKG20060204001509802/04/06 00:15:31  5-MIN KMKG 040515Z 32005KT 6SM BR OVC005 02/01 A2975 790 92 -500 330/05 RMK AO2
14840KMKG MKG20060204002009502/04/06 00:20:31  5-MIN KMKG 040520Z 33003KT 7SM OVC005 02/01 A2975 790 92 -500 340/03 RMK AO2
14840KMKG MKG20060204002509502/04/06 00:25:31  5-MIN KMKG 040525Z 33004KT 7SM OVC005 02/01 A2975 790 92 -500 330/04 RMK AO2
14840KMKG MKG20060204003010702/04/06 00:30:31  5-MIN KMKG 040530Z 33004KT 7SM OVC005 02/01 A2975 790 89 -500 330/04 RMK AO2 CIG 004V008
14840KMKG MKG20060204003510702/04/06 00:35:31  5-MIN KMKG 040535Z 32005KT 7SM OVC007 02/01 A2975 790 89 -500 330/05 RMK AO2 CIG 005V009
14840KMKG MKG20060204004011002/04/06 00:40:31  5-MIN KMKG 040540Z 31005KT 6SM BR OVC007 02/01 A2975 790 92 -500 310/05 RMK AO2 CIG 005V010
14840KMKG MKG20060204004511002/04/06 00:45:31  5-MIN KMKG 040545Z 34006KT 6SM BR OVC007 02/01 A2975 790 92 -500 340/06 RMK AO2 CIG 005V010
14840KMKG MKG20060204005015102/04/06 00:50:31  5-MIN KMKG 040550Z 34005KT 6SM BR OVC009 02/01 A2974 790 92 -500 350/05 RMK AO2 CIG 006V012 SLP077 60000 T00170006 10039 20006 53009
14840KMKG MKG20060204005515102/04/06 00:55:31  5-MIN KMKG 040555Z 33005KT 6SM BR OVC009 02/01 A2974 800 92 -500 340/05 RMK AO2 CIG 007V013 SLP076 60000 T00170006 10039 20006 58002
14840KMKG MKG20060204010011702/04/06 01:00:31  5-MIN KMKG 040600Z 32004KT 6SM BR BKN009 OVC015 02/01 A2974 800 92 -500 330/04 RMK AO2 CIG 007V014
14840KMKG MKG20060204010510502/04/06 01:05:31  5-MIN KMKG 040605Z 32005KT 6SM BR SCT009 OVC015 02/01 A2974 800 92 -500 320/05 RMK AO2
14840KMKG MKG20060204011010502/04/06 01:10:31  5-MIN KMKG 040610Z 33005KT 6SM BR SCT009 OVC015 02/01 A2974 800 92 -500 330/05 RMK AO2
14840KMKG MKG20060204011510502/04/06 01:15:31  5-MIN KMKG 040615Z 34004KT 6SM BR SCT012 OVC018 02/01 A2974 800 92 -500 340/04 RMK AO2
14840KMKG MKG20060204012011202/04/06 01:20:31  5-MIN KMKG 040620Z 34005KT 6SM BR FEW012 BKN018 OVC023 02/01 A2974 800 92 -500 340/05 RMK AO2
14840KMKG MKG20060204012510502/04/06 01:25:31  5-MIN KMKG 040625Z 33004KT 5SM BR BKN018 OVC023 02/01 A2974 800 92 -500 330/04 RMK AO2
14840KMKG MKG20060204013012702/04/06 01:30:31  5-MIN KMKG 040630Z 31004KT 6SM BR SCT018 BKN023 OVC055 01/01 A2974 800 96 -600 310/04 RMK AO2 CIG 018 RWY 14
14840KMKG MKG20060204013512702/04/06 01:35:31  5-MIN KMKG 040635Z 31004KT 6SM BR SCT018 BKN023 BKN055 01/00 A2974 790 92 -600 320/04 RMK AO2 CIG 018 RWY 14
14840KMKG MKG20060204014012002/04/06 01:40:31  5-MIN KMKG 040640Z 00000KT 5SM BR SCT020 BKN055 01/00 A2975 790 92 -600 000/00 RMK AO2 CIG 020 RWY 14
14840KMKG MKG20060204014510502/04/06 01:45:31  5-MIN KMKG 040645Z 00000KT 5SM BR BKN023 BKN050 01/00 A2975 790 92 -600 000/00 RMK AO2
14840KMKG MKG20060204015012702/04/06 01:50:31  5-MIN KMKG 040650Z 00000KT 5SM BR SCT023 SCT028 OVC050 01/01 A2975 790 96 -600 000/00 RMK AO2 CIG 022 RWY 14
14840KMKG MKG20060204015514402/04/06 01:55:31  5-MIN KMKG 040655Z 00000KT 5SM BR FEW023 SCT028 OVC050 01/00 A2975 790 92 -600 000/00 RMK AO2 CIG 029 RWY 14 SLP080 T00110000
14840KMKG MKG20060204020011202/04/06 02:00:31  5-MIN KMKG 040700Z 00000KT 5SM BR FEW014 BKN030 OVC050 01/00 A2975 780 92 -600 000/00 RMK AO2
14840KMKG MKG20060204020511202/04/06 02:05:31  5-MIN KMKG 040705Z 00000KT 4SM BR SCT014 BKN022 OVC050 01/00 A2975 780 92 -600 000/00 RMK AO2
14840KMKG MKG20060204021011202/04/06 02:10:31  5-MIN KMKG 040710Z 00000KT 4SM BR BKN012 BKN022 OVC050 01/00 A2976 780 92 -600 000/00 RMK AO2
14840KMKG MKG20060204021511202/04/06 02:15:31  5-MIN KMKG 040715Z 00000KT 4SM BR BKN012 BKN030 OVC050 01/01 A2975 790 96 -600 000/00 RMK AO2
14840KMKG MKG20060204022011202/04/06 02:20:31  5-MIN KMKG 040720Z 00000KT 4SM BR BKN012 BKN030 OVC050 01/01 A2975 780 96 -600 000/00 RMK AO2
14840KMKG MKG20060204022511202/04/06 02:25:31  5-MIN KMKG 040725Z 00000KT 4SM BR BKN012 BKN042 OVC050 01/01 A2976 780 96 -600 000/00 RMK AO2
14840KMKG MKG20060204023011202/04/06 02:30:31  5-MIN KMKG 040730Z 00000KT 5SM BR BKN012 BKN042 OVC050 01/01 A2976 780 96 -600 000/00 RMK AO2
14840KMKG MKG20060204023511202/04/06 02:35:31  5-MIN KMKG 040735Z 00000KT 5SM BR BKN014 BKN043 OVC050 01/00 A2976 780 92 -600 000/00 RMK AO2
14840KMKG MKG20060204024011202/04/06 02:40:31  5-MIN KMKG 040740Z 27003KT 5SM BR BKN014 BKN043 OVC050 01/00 A2976 780 92 -600 280/03 RMK AO2
14840KMKG MKG20060204024510502/04/06 02:45:31  5-MIN KMKG 040745Z 28003KT 5SM BR BKN014 OVC043 01/00 A2976 780 92 -600 280/03 RMK AO2
14840KMKG MKG20060204025011502/04/06 02:50:31  5-MIN KMKG 040750Z 27004KT 5SM BR OVC014 01/01 A2976 780 96 -600 270/04 RMK AO2 SLP081 T00110006
14840KMKG MKG20060204025512202/04/06 02:55:31  5-MIN KMKG 040755Z 00000KT 5SM BR BKN014 OVC030 01/01 A2976 780 96 -600 000/00 RMK AO2 SLP082 T00110006
14840KMKG MKG20060204030010502/04/06 03:00:31  5-MIN KMKG 040800Z 00000KT 5SM BR BKN014 OVC028 01/01 A2976 780 96 -600 000/00 RMK AO2
14840KMKG MKG20060204030511202/04/06 03:05:31  5-MIN KMKG 040805Z 00000KT 5SM BR BKN014 BKN027 OVC049 01/00 A2976 780 92 -600 000/00 RMK AO2
14840KMKG MKG20060204031010502/04/06 03:10:31  5-MIN KMKG 040810Z 00000KT 5SM BR BKN016 OVC027 01/00 A2976 780 92 -600 000/00 RMK AO2
14840KMKG MKG20060204031510502/04/06 03:15:31  5-MIN KMKG 040815Z 00000KT 5SM BR BKN016 OVC027 01/01 A2976 780 96 -600 000/00 RMK AO2
14840KMKG MKG20060204032010502/04/06 03:20:31  5-MIN KMKG 040820Z 00000KT 5SM BR BKN014 OVC027 01/00 A2976 780 92 -600 000/00 RMK AO2
14840KMKG MKG20060204032510502/04/06 03:25:31  5-MIN KMKG 040825Z 25003KT 5SM BR BKN014 OVC025 02/00 A2976 780 89 -600 260/03 RMK AO2
14840KMKG MKG20060204033009802/04/06 03:30:31  5-MIN KMKG 040830Z 27005KT 6SM BR OVC014 01/00 A2976 780 92 -600 270/05 RMK AO2
14840KMKG MKG20060204033509802/04/06 03:35:31  5-MIN KMKG 040835Z 28005KT 6SM BR OVC014 02/00 A2976 780 89 -600 280/05 RMK AO2
14840KMKG MKG20060204034009602/04/06 03:40:31  5-MIN KMKG 040840Z 28006KT 7SM OVC014 02/M01 A2975 780 85 -600 280/06 RMK AO2
14840KMKG MKG20060204034509602/04/06 03:45:31  5-MIN KMKG 040845Z 28006KT 8SM OVC014 02/M01 A2975 790 85 -600 280/06 RMK AO2
14840KMKG MKG20060204035011902/04/06 03:50:31  5-MIN KMKG 040850Z 27006KT 8SM OVC014 02/M01 A2975 790 85 -600 270/06 RMK AO2 SLP080 T00171006 58002
14840KMKG MKG20060204035511902/04/06 03:55:31  5-MIN KMKG 040855Z 27006KT 8SM OVC014 02/M01 A2975 780 85 -600 280/06 RMK AO2 SLP081 T00171006 50004
14840KMKG MKG20060204040009602/04/06 04:00:31  5-MIN KMKG 040900Z 26006KT 8SM OVC014 02/M01 A2976 780 85 -600 260/06 RMK AO2
14840KMKG MKG20060204040509602/04/06 04:05:31  5-MIN KMKG 040905Z 26007KT 9SM OVC014 02/M01 A2975 780 85 -600 270/07 RMK AO2
14840KMKG MKG20060204041009602/04/06 04:10:31  5-MIN KMKG 040910Z 26006KT 9SM OVC014 01/M01 A2975 790 85 -600 260/06 RMK AO2
14840KMKG MKG20060204041509602/04/06 04:15:31  5-MIN KMKG 040915Z 27006KT 9SM OVC014 01/M01 A2975 790 85 -600 270/06 RMK AO2
14840KMKG MKG20060204042009702/04/06 04:20:31  5-MIN KMKG 040920Z 28005KT 10SM OVC016 01/M01 A2975 790 85 -600 280/05 RMK AO2
14840KMKG MKG20060204042509702/04/06 04:25:31  5-MIN KMKG 040925Z 28007KT 10SM OVC016 01/M01 A2975 780 85 -600 280/07 RMK AO2
14840KMKG MKG20060204043009702/04/06 04:30:31  5-MIN KMKG 040930Z 27007KT 10SM OVC016 01/M01 A2976 780 85 -600 280/07 RMK AO2
14840KMKG MKG20060204043509702/04/06 04:35:31  5-MIN KMKG 040935Z 27005KT 10SM OVC018 01/M01 A2976 780 85 -600 280/05 RMK AO2
14840KMKG MKG20060204044009702/04/06 04:40:31  5-MIN KMKG 040940Z 28005KT 10SM OVC018 01/M01 A2975 790 85 -600 280/05 RMK AO2
14840KMKG MKG20060204044509702/04/06 04:45:31  5-MIN KMKG 040945Z 28005KT 10SM OVC018 01/M01 A2975 790 85 -600 280/05 RMK AO2
14840KMKG MKG20060204045011402/04/06 04:50:31  5-MIN KMKG 040950Z 28004KT 10SM OVC018 01/M01 A2975 790 85 -600 280/04 RMK AO2 SLP081 T00111011
14840KMKG MKG20060204045511402/04/06 04:55:31  5-MIN KMKG 040955Z 28004KT 10SM OVC018 01/M01 A2975 790 85 -600 290/04 RMK AO2 SLP081 T00111011
14840KMKG MKG20060204050009702/04/06 05:00:31  5-MIN KMKG 041000Z 30004KT 10SM OVC018 01/M02 A2975 790 82 -600 300/04 RMK AO2
14840KMKG MKG20060204050509702/04/06 05:05:31  5-MIN KMKG 041005Z 28004KT 10SM OVC018 01/M02 A2975 780 82 -600 290/04 RMK AO2
14840KMKG MKG20060204051009702/04/06 05:10:31  5-MIN KMKG 041010Z 29003KT 10SM OVC018 01/M01 A2975 790 85 -600 300/03 RMK AO2
14840KMKG MKG20060204051509702/04/06 05:15:31  5-MIN KMKG 041015Z 30004KT 10SM OVC018 01/M01 A2975 790 85 -600 300/04 RMK AO2
14840KMKG MKG20060204052009702/04/06 05:20:31  5-MIN KMKG 041020Z 31003KT 10SM OVC018 01/M01 A2975 790 85 -600 310/03 RMK AO2
14840KMKG MKG20060204052509702/04/06 05:25:31  5-MIN KMKG 041025Z 30003KT 10SM OVC018 01/M02 A2975 790 82 -600 310/03 RMK AO2
14840KMKG MKG20060204053009702/04/06 05:30:31  5-MIN KMKG 041030Z 31003KT 10SM OVC018 01/M02 A2975 790 82 -600 320/03 RMK AO2
14840KMKG MKG20060204053509702/04/06 05:35:31  5-MIN KMKG 041035Z 30004KT 10SM OVC018 01/M02 A2975 780 82 -600 310/04 RMK AO2
14840KMKG MKG20060204054010402/04/06 05:40:31  5-MIN KMKG 041040Z 30004KT 10SM BKN018 OVC031 01/M02 A2975 790 82 -600 300/04 RMK AO2
14840KMKG MKG20060204054510402/04/06 05:45:31  5-MIN KMKG 041045Z 30003KT 10SM BKN018 OVC031 01/M02 A2975 790 82 -600 310/03 RMK AO2
14840KMKG MKG20060204055012102/04/06 05:50:31  5-MIN KMKG 041050Z 30004KT 10SM BKN018 OVC031 01/M02 A2975 790 82 -600 300/04 RMK AO2 SLP079 T00111017
14840KMKG MKG20060204055512102/04/06 05:55:31  5-MIN KMKG 041055Z 00000KT 10SM BKN018 OVC031 01/M02 A2975 790 82 -600 000/00 RMK AO2 SLP081 T00111017
14840KMKG MKG20060204060010402/04/06 06:00:31  5-MIN KMKG 041100Z 28003KT 10SM BKN018 OVC031 01/M02 A2975 790 82 -600 280/03 RMK AO2
14840KMKG MKG20060204060510402/04/06 06:05:31  5-MIN KMKG 041105Z 27003KT 10SM BKN018 OVC031 01/M02 A2975 780 82 -600 280/03 RMK AO2
14840KMKG MKG20060204061010402/04/06 06:10:31  5-MIN KMKG 041110Z 28003KT 10SM SCT018 OVC029 01/M02 A2975 790 82 -600 280/03 RMK AO2
14840KMKG MKG20060204061510402/04/06 06:15:31  5-MIN KMKG 041115Z 29003KT 10SM SCT018 OVC029 01/M02 A2975 790 82 -600 300/03 RMK AO2
14840KMKG MKG20060204062010402/04/06 06:20:31  5-MIN KMKG 041120Z 29003KT 10SM SCT018 OVC029 01/M02 A2975 790 82 -600 290/03 RMK AO2
14840KMKG MKG20060204062510402/04/06 06:25:31  5-MIN KMKG 041125Z 30003KT 10SM FEW018 OVC029 01/M02 A2975 790 85 -700 300/03 RMK AO2
14840KMKG MKG20060204063009702/04/06 06:30:31  5-MIN KMKG 041130Z 30003KT 10SM OVC029 01/M02 A2975 790 85 -700 300/03 RMK AO2
14840KMKG MKG20060204063509702/04/06 06:35:31  5-MIN KMKG 041135Z 31003KT 10SM OVC029 01/M02 A2975 790 85 -700 310/03 RMK AO2
14840KMKG MKG20060204064010402/04/06 06:40:31  5-MIN KMKG 041140Z 31003KT 10SM FEW019 OVC029 01/M02 A2975 790 85 -700 310/03 RMK AO2
14840KMKG MKG20060204064510402/04/06 06:45:31  5-MIN KMKG 041145Z 31003KT 10SM SCT019 OVC029 01/M02 A2975 790 78 -600 310/03 RMK AO2
14840KMKG MKG20060204065014502/04/06 06:50:31  5-MIN KMKG 041150Z 31003KT 10SM BKN019 OVC029 01/M02 A2975 790 78 -600 320/03 RMK AO2 SLP078 70002 T00111022 10017 20006 50004
14840KMKG MKG20060204065516002/04/06 06:55:31  5-MIN KMKG 041155Z 31003KT 10SM SCT019 OVC029 01/M02 A2974 790 82 -700 310/03 RMK AO2 CIG 019 RWY 14 SLP078 70002 T00061022 10017 20006 58004
14840KMKG MKG20060204070010402/04/06 07:00:31  5-MIN KMKG 041200Z 31003KT 10SM SCT019 OVC029 01/M02 A2974 790 82 -700 320/03 RMK AO2
14840KMKG MKG20060204070510402/04/06 07:05:31  5-MIN KMKG 041205Z 00000KT 10SM SCT019 OVC029 01/M02 A2974 790 78 -600 000/00 RMK AO2
14840KMKG MKG20060204071010402/04/06 07:10:31  5-MIN KMKG 041210Z 00000KT 10SM SCT019 OVC029 01/M02 A2974 790 78 -600 000/00 RMK AO2
14840KMKG MKG20060204071510402/04/06 07:15:31  5-MIN KMKG 041215Z 00000KT 10SM FEW019 OVC029 01/M02 A2975 790 82 -700 000/00 RMK AO2
14840KMKG MKG20060204072009702/04/06 07:20:31  5-MIN KMKG 041220Z 00000KT 10SM OVC029 01/M02 A2974 790 82 -700 000/00 RMK AO2
14840KMKG MKG20060204072509702/04/06 07:25:31  5-MIN KMKG 041225Z 00000KT 10SM OVC027 01/M02 A2974 800 82 -700 000/00 RMK AO2
14840KMKG MKG20060204073009702/04/06 07:30:31  5-MIN KMKG 041230Z 30003KT 10SM OVC027 01/M02 A2974 790 82 -700 300/03 RMK AO2
14840KMKG MKG20060204073509702/04/06 07:35:31  5-MIN KMKG 041235Z 31003KT 10SM OVC027 01/M02 A2974 790 82 -700 320/03 RMK AO2
14840KMKG MKG20060204074009702/04/06 07:40:31  5-MIN KMKG 041240Z 32003KT 10SM OVC027 01/M02 A2974 800 82 -700 320/03 RMK AO2
14840KMKG MKG20060204074510402/04/06 07:45:31  5-MIN KMKG 041245Z 33003KT 10SM FEW021 OVC027 01/M02 A2974 790 82 -700 330/03 RMK AO2
14840KMKG MKG20060204075012102/04/06 07:50:31  5-MIN KMKG 041250Z 00000KT 10SM SCT021 OVC027 01/M02 A2974 790 82 -700 000/00 RMK AO2 SLP078 T00061022
14840KMKG MKG20060204075512102/04/06 07:55:31  5-MIN KMKG 041255Z 00000KT 10SM BKN021 OVC027 01/M02 A2975 790 85 -700 000/00 RMK AO2 SLP079 T00061017
14840KMKG MKG20060204080010402/04/06 08:00:31  5-MIN KMKG 041300Z 00000KT 10SM BKN021 OVC027 01/M02 A2975 790 85 -700 000/00 RMK AO2
14840KMKG MKG20060204080510402/04/06 08:05:31  5-MIN KMKG 041305Z 00000KT 10SM BKN021 OVC027 01/M02 A2975 790 82 -600 000/00 RMK AO2
14840KMKG MKG20060204081009702/04/06 08:10:31  5-MIN KMKG 041310Z 00000KT 10SM OVC021 01/M02 A2975 790 82 -600 000/00 RMK AO2
14840KMKG MKG20060204081509702/04/06 08:15:31  5-MIN KMKG 041315Z 00000KT 10SM OVC021 01/M02 A2975 790 78 -600 000/00 RMK AO2
14840KMKG MKG20060204082009702/04/06 08:20:31  5-MIN KMKG 041320Z 00000KT 10SM OVC021 01/M02 A2975 790 78 -600 000/00 RMK AO2
14840KMKG MKG20060204082509702/04/06 08:25:31  5-MIN KMKG 041325Z 00000KT 10SM OVC021 01/M02 A2975 790 82 -600 000/00 RMK AO2
14840KMKG MKG20060204083009702/04/06 08:30:31  5-MIN KMKG 041330Z 01003KT 10SM OVC023 01/M02 A2975 790 82 -600 010/03 RMK AO2
14840KMKG MKG20060204083509702/04/06 08:35:31  5-MIN KMKG 041335Z 36003KT 10SM OVC023 01/M02 A2975 790 82 -600 360/03 RMK AO2
14840KMKG MKG20060204084009702/04/06 08:40:31  5-MIN KMKG 041340Z 01003KT 10SM OVC025 01/M02 A2975 780 82 -600 010/03 RMK AO2
14840KMKG MKG20060204084509702/04/06 08:45:31  5-MIN KMKG 041345Z 01003KT 10SM OVC025 01/M02 A2976 780 82 -600 010/03 RMK AO2
14840KMKG MKG20060204085011302/04/06 08:50:31  5-MIN KMKG 041350Z 02003KT 9SM OVC025 01/M02 A2976 780 82 -600 020/03 RMK AO2 SLP083 T00111017
14840KMKG MKG20060204085511302/04/06 08:55:31  5-MIN KMKG 041355Z 02003KT 9SM OVC025 01/M02 A2976 780 82 -600 030/03 RMK AO2 SLP083 T00111017
14840KMKG MKG20060204090009602/04/06 09:00:31  5-MIN KMKG 041400Z 03003KT 9SM OVC025 01/M02 A2976 780 82 -600 030/03 RMK AO2
14840KMKG MKG20060204090509602/04/06 09:05:31  5-MIN KMKG 041405Z 00000KT 9SM OVC025 01/M02 A2976 780 82 -600 000/00 RMK AO2
14840KMKG MKG20060204091009602/04/06 09:10:31  5-MIN KMKG 041410Z 00000KT 8SM OVC025 01/M01 A2976 780 85 -600 000/00 RMK AO2
14840KMKG MKG20060204091509602/04/06 09:15:31  5-MIN KMKG 041415Z 00000KT 8SM OVC025 01/M01 A2976 780 85 -600 000/00 RMK AO2
14840KMKG MKG20060204092009602/04/06 09:20:31  5-MIN KMKG 041420Z 01003KT 9SM OVC025 01/M02 A2975 790 82 -600 010/03 RMK AO2
14840KMKG MKG20060204092509602/04/06 09:25:31  5-MIN KMKG 041425Z 01003KT 9SM OVC025 01/M02 A2975 790 82 -600 010/03 RMK AO2
14840KMKG MKG20060204093009602/04/06 09:30:31  5-MIN KMKG 041430Z 36003KT 9SM OVC025 01/M02 A2975 790 82 -600 360/03 RMK AO2
14840KMKG MKG20060204093509702/04/06 09:35:31  5-MIN KMKG 041435Z 36005KT 10SM OVC025 02/M01 A2975 790 82 -500 010/05 RMK AO2
14840KMKG MKG20060204094009702/04/06 09:40:31  5-MIN KMKG 041440Z 35006KT 10SM OVC025 02/M02 A2974 800 78 -500 350/06 RMK AO2
14840KMKG MKG20060204094509702/04/06 09:45:31  5-MIN KMKG 041445Z 34006KT 10SM OVC025 02/M01 A2974 800 82 -500 340/06 RMK AO2
14840KMKG MKG20060204095011902/04/06 09:50:31  5-MIN KMKG 041450Z 35006KT 9SM OVC027 02/M01 A2974 800 82 -500 350/06 RMK AO2 SLP075 T00171011 58004
14840KMKG MKG20060204095511902/04/06 09:55:31  5-MIN KMKG 041455Z 35006KT 9SM OVC027 02/M01 A2973 810 82 -500 360/06 RMK AO2 SLP074 T00171011 58004
14840KMKG MKG20060204100009602/04/06 10:00:31  5-MIN KMKG 041500Z 36006KT 8SM OVC027 02/M01 A2973 810 85 -500 360/06 RMK AO2
14840KMKG MKG20060204100509602/04/06 10:05:31  5-MIN KMKG 041505Z 36007KT 8SM OVC029 02/M01 A2973 810 85 -500 360/07 RMK AO2
14840KMKG MKG20060204101009602/04/06 10:10:31  5-MIN KMKG 041510Z 36008KT 8SM OVC029 02/M01 A2972 810 82 -500 010/08 RMK AO2
14840KMKG MKG20060204101509602/04/06 10:15:31  5-MIN KMKG 041515Z 35007KT 8SM OVC029 02/M01 A2972 810 78 -500 360/07 RMK AO2
14840KMKG MKG20060204102009602/04/06 10:20:31  5-MIN KMKG 041520Z 36005KT 9SM OVC029 02/M01 A2972 810 78 -500 360/05 RMK AO2
14840KMKG MKG20060204102509602/04/06 10:25:31  5-MIN KMKG 041525Z 36006KT 9SM OVC029 02/M01 A2973 810 78 -500 360/06 RMK AO2
14840KMKG MKG20060204103010302/04/06 10:30:31  5-MIN KMKG 041530Z 01007KT 9SM FEW025 OVC031 02/M01 A2973 810 78 -500 020/07 RMK AO2
14840KMKG MKG20060204103510302/04/06 10:35:31  5-MIN KMKG 041535Z 01008KT 9SM FEW025 OVC031 02/M01 A2973 810 78 -500 010/08 RMK AO2
14840KMKG MKG20060204104010302/04/06 10:40:31  5-MIN KMKG 041540Z 01007KT 9SM FEW025 OVC031 02/M01 A2973 810 78 -500 010/07 RMK AO2
14840KMKG MKG20060204104510302/04/06 10:45:31  5-MIN KMKG 041545Z 01007KT 8SM FEW025 OVC033 02/M01 A2973 810 82 -500 020/07 RMK AO2
14840KMKG MKG20060204105011302/04/06 10:50:31  5-MIN KMKG 041550Z 02007KT 8SM OVC033 02/M01 A2973 810 82 -500 030/07 RMK AO2 SLP072 T00221006
14840KMKG MKG20060204105512002/04/06 10:55:31  5-MIN KMKG 041555Z 36008KT 8SM FEW016 OVC033 02/M01 A2972 810 82 -500 360/08 RMK AO2 SLP072 T00221006
14840KMKG MKG20060204110010302/04/06 11:00:31  5-MIN KMKG 041600Z 01009KT 9SM FEW014 OVC035 03/M01 A2972 810 79 -400 020/09 RMK AO2
14840KMKG MKG20060204110510302/04/06 11:05:31  5-MIN KMKG 041605Z 01009KT 9SM FEW014 OVC035 02/M01 A2972 810 82 -500 010/09 RMK AO2
14840KMKG MKG20060204111010302/04/06 11:10:31  5-MIN KMKG 041610Z 01008KT 9SM SCT014 OVC035 03/M01 A2972 820 79 -400 010/08 RMK AO2
14840KMKG MKG20060204111510302/04/06 11:15:31  5-MIN KMKG 041615Z 02009KT 9SM SCT014 OVC035 03/M01 A2972 820 79 -400 020/09 RMK AO2
14840KMKG MKG20060204112011802/04/06 11:20:31  5-MIN KMKG 041620Z 01009KT 9SM SCT014 OVC035 03/M01 A2971 820 79 -400 010/09 RMK AO2 CIG 014 RWY 14
14840KMKG MKG20060204112511902/04/06 11:25:31  5-MIN KMKG 041625Z 36009KT 10SM SCT014 BKN035 03/M01 A2971 830 79 -400 010/09 RMK AO2 CIG 014 RWY 14
14840KMKG MKG20060204113011902/04/06 11:30:31  5-MIN KMKG 041630Z 02010KT 10SM SCT014 BKN035 03/M01 A2970 830 79 -400 020/10 RMK AO2 CIG 014 RWY 14
14840KMKG MKG20060204113511902/04/06 11:35:31  5-MIN KMKG 041635Z 01010KT 10SM SCT016 BKN035 03/M01 A2970 830 75 -400 010/10 RMK AO2 CIG 014 RWY 14
14840KMKG MKG20060204114011902/04/06 11:40:31  5-MIN KMKG 041640Z 02008KT 10SM SCT016 BKN035 03/M01 A2970 830 75 -400 030/08 RMK AO2 CIG 016 RWY 14
14840KMKG MKG20060204114510402/04/06 11:45:31  5-MIN KMKG 041645Z 02008KT 10SM SCT016 BKN035 03/M01 A2970 830 72 -300 030/08 RMK AO2
14840KMKG MKG20060204115011402/04/06 11:50:31  5-MIN KMKG 041650Z 02009KT 10SM SCT016 03/M01 A2970 840 72 -300 020/09 RMK AO2 SLP061 T00331011
14840KMKG MKG20060204115511402/04/06 11:55:31  5-MIN KMKG 041655Z 01012KT 10SM BKN024 04/M01 A2969 840 70 -200 020/12 RMK AO2 SLP061 T00391011
14840KMKG MKG20060204120012502/04/06 12:00:31  5-MIN KMKG 041700Z 01009G16KT 10SM SCT018 BKN024 03/M02 A2970 840 70 -300 020/09G16 RMK AO2 CIG 019 RWY 14
14840KMKG MKG20060204120511702/04/06 12:05:31  5-MIN KMKG 041705Z 01008G16KT 10SM SCT018 BKN024 BKN036 04/M02 A2970 840 67 -200 020/08G16 RMK AO2
14840KMKG MKG20060204121014202/04/06 12:10:31  5-MIN KMKG 041710Z 03010KT 360V060 10SM SCT020 SCT026 BKN036 04/M01 A2969 840 67 -100 030/10 360V060 RMK AO2 CIG 024 RWY 14
14840KMKG MKG20060204121511102/04/06 12:15:31  5-MIN KMKG 041715Z 02009KT 10SM BKN022 BKN031 BKN038 04/M02 A2969 850 67 -200 030/09 RMK AO2
14840KMKG MKG20060204122010402/04/06 12:20:31  5-MIN KMKG 041720Z 02010KT 10SM BKN024 OVC034 03/M02 A2968 850 70 -300 030/10 RMK AO2
14840KMKG MKG20060204122510402/04/06 12:25:31  5-MIN KMKG 041725Z 36009KT 10SM BKN024 OVC034 03/M02 A2968 860 70 -300 010/09 RMK AO2
14840KMKG MKG20060204123010402/04/06 12:30:31  5-MIN KMKG 041730Z 01012KT 10SM BKN024 OVC034 03/M02 A2967 860 70 -300 010/12 RMK AO2
14840KMKG MKG20060204123510402/04/06 12:35:31  5-MIN KMKG 041735Z 36009KT 10SM SCT024 OVC031 03/M02 A2967 860 70 -300 360/09 RMK AO2
14840KMKG MKG20060204124010402/04/06 12:40:31  5-MIN KMKG 041740Z 36011KT 10SM BKN024 OVC033 03/M01 A2967 860 72 -300 360/11 RMK AO2
14840KMKG MKG20060204124510402/04/06 12:45:31  5-MIN KMKG 041745Z 35011KT 10SM BKN024 OVC033 03/M01 A2967 870 72 -200 360/11 RMK AO2
14840KMKG MKG20060204125010402/04/06 12:50:31  5-MIN KMKG 041750Z 35010KT 10SM FEW022 OVC033 03/M01 A2966 870 72 -200 360/10 RMK AO2
14840KMKG MKG20060204125513902/04/06 12:55:31  5-MIN KMKG 041755Z 36010KT 10SM FEW024 OVC033 03/M01 A2966 870 72 -200 360/10 RMK AO2 SLP049 T00331011 10044 20006 58024
14840KMKG MKG20060204130010402/04/06 13:00:31  5-MIN KMKG 041800Z 34008KT 10SM FEW024 OVC035 03/M01 A2966 870 76 -200 350/08 RMK AO2
14840KMKG MKG20060204130510402/04/06 13:05:31  5-MIN KMKG 041805Z 34010KT 10SM FEW024 OVC035 04/M01 A2966 880 73 -200 340/10 RMK AO2
14840KMKG MKG20060204131011102/04/06 13:10:31  5-MIN KMKG 041810Z 34011KT 10SM FEW018 SCT024 BKN035 04/M01 A2965 880 73 -200 340/11 RMK AO2
14840KMKG MKG20060204131511102/04/06 13:15:31  5-MIN KMKG 041815Z 36011KT 10SM FEW018 SCT024 BKN035 03/M01 A2965 880 72 -200 360/11 RMK AO2
14840KMKG MKG20060204132010402/04/06 13:20:31  5-MIN KMKG 041820Z 35011KT 10SM FEW018 OVC038 04/M01 A2965 880 70 -200 350/11 RMK AO2
14840KMKG MKG20060204132511102/04/06 13:25:31  5-MIN KMKG 041825Z 35009KT 10SM FEW018 SCT030 OVC038 04/M01 A2965 880 70 -200 360/09 RMK AO2
14840KMKG MKG20060204133012602/04/06 13:30:31  5-MIN KMKG 041830Z 35009KT 10SM FEW020 SCT027 OVC038 04/M01 A2965 880 70 -200 350/09 RMK AO2 CIG 030 RWY 14
14840KMKG MKG20060204133511102/04/06 13:35:31  5-MIN KMKG 041835Z 34010KT 10SM SCT020 BKN029 OVC038 03/M01 A2964 890 72 -200 340/10 RMK AO2
14840KMKG MKG20060204134011102/04/06 13:40:31  5-MIN KMKG 041840Z 34010KT 10SM SCT020 BKN028 OVC038 04/M01 A2964 890 70 -100 340/10 RMK AO2
14840KMKG MKG20060204134511102/04/06 13:45:31  5-MIN KMKG 041845Z 34014KT 10SM BKN020 BKN028 OVC038 03/M01 A2964 890 72 -200 340/14 RMK AO2
14840KMKG MKG20060204135012802/04/06 13:50:31  5-MIN KMKG 041850Z 36014KT 10SM BKN020 BKN028 OVC038 03/M01 A2964 890 75 -300 360/14 RMK AO2 SLP042 T00281011
14840KMKG MKG20060204135512102/04/06 13:55:31  5-MIN KMKG 041855Z 34012KT 10SM BKN020 OVC028 03/M01 A2963 900 75 -300 350/12 RMK AO2 SLP041 T00281011
14840KMKG MKG20060204140010402/04/06 14:00:31  5-MIN KMKG 041900Z 35012KT 10SM BKN018 OVC034 03/M01 A2963 900 75 -300 350/12 RMK AO2
14840KMKG MKG20060204140510402/04/06 14:05:31  5-MIN KMKG 041905Z 35015KT 10SM BKN018 OVC023 02/M01 A2963 900 78 -300 360/15 RMK AO2
14840KMKG MKG20060204141010402/04/06 14:10:31  5-MIN KMKG 041910Z 34010KT 10SM BKN018 OVC023 03/M01 A2963 900 75 -300 350/10 RMK AO2
14840KMKG MKG20060204141510402/04/06 14:15:31  5-MIN KMKG 041915Z 34014KT 10SM BKN014 OVC022 02/M01 A2962 910 82 -300 350/14 RMK AO2
14840KMKG MKG20060204142010402/04/06 14:20:31  5-MIN KMKG 041920Z 35013KT 10SM BKN014 OVC020 02/M01 A2963 900 78 -300 360/13 RMK AO2
14840KMKG MKG20060204142511002/04/06 14:25:31  5-MIN KMKG 041925Z 35010G18KT 10SM BKN014 OVC020 02/M01 A2963 900 78 -300 360/10G18 RMK AO2
14840KMKG MKG20060204143011002/04/06 14:30:31  5-MIN KMKG 041930Z 33013G18KT 10SM BKN014 OVC019 02/M01 A2963 900 78 -300 330/13G18 RMK AO2
14840KMKG MKG20060204143509702/04/06 14:35:31  5-MIN KMKG 041935Z 34013KT 10SM OVC014 02/M01 A2963 900 78 -300 350/13 RMK AO2
14840KMKG MKG20060204144009702/04/06 14:40:31  5-MIN KMKG 041940Z 34015KT 10SM OVC014 02/M01 A2963 900 82 -400 350/15 RMK AO2
14840KMKG MKG20060204144509702/04/06 14:45:31  5-MIN KMKG 041945Z 34015KT 10SM OVC014 02/M02 A2963 900 78 -400 350/15 RMK AO2
14840KMKG MKG20060204145011402/04/06 14:50:31  5-MIN KMKG 041950Z 35017KT 10SM OVC014 02/M02 A2963 900 78 -400 360/17 RMK AO2 SLP041 T00171017
14840KMKG MKG20060204145511402/04/06 14:55:31  5-MIN KMKG 041955Z 36014KT 10SM OVC014 02/M02 A2963 900 78 -400 360/14 RMK AO2 SLP041 T00171017
14840KMKG MKG20060204150010302/04/06 15:00:31  5-MIN KMKG 042000Z 35011G18KT 10SM OVC014 02/M02 A2963 900 78 -400 350/11G18 RMK AO2
14840KMKG MKG20060204150509702/04/06 15:05:31  5-MIN KMKG 042005Z 35014KT 10SM OVC014 02/M02 A2964 890 78 -400 350/14 RMK AO2
14840KMKG MKG20060204151009702/04/06 15:10:31  5-MIN KMKG 042010Z 35014KT 10SM OVC014 02/M02 A2964 890 78 -400 360/14 RMK AO2
14840KMKG MKG20060204151509702/04/06 15:15:31  5-MIN KMKG 042015Z 35016KT 10SM OVC014 02/M02 A2964 890 78 -400 350/16 RMK AO2
14840KMKG MKG20060204152010302/04/06 15:20:31  5-MIN KMKG 042020Z 35014G20KT 10SM OVC014 02/M02 A2963 900 75 -400 360/14G20 RMK AO2
14840KMKG MKG20060204152510302/04/06 15:25:31  5-MIN KMKG 042025Z 36016G21KT 10SM OVC014 02/M02 A2963 900 75 -400 360/16G21 RMK AO2
14840KMKG MKG20060204153010302/04/06 15:30:31  5-MIN KMKG 042030Z 35015G21KT 10SM OVC014 02/M02 A2964 890 75 -400 360/15G21 RMK AO2
14840KMKG MKG20060204153510302/04/06 15:35:31  5-MIN KMKG 042035Z 36018G25KT 10SM OVC016 02/M02 A2964 890 75 -400 360/18G25 RMK AO2
14840KMKG MKG20060204154010302/04/06 15:40:31  5-MIN KMKG 042040Z 36013G25KT 10SM OVC016 02/M02 A2964 900 75 -400 360/13G25 RMK AO2
14840KMKG MKG20060204154510302/04/06 15:45:31  5-MIN KMKG 042045Z 35012G20KT 10SM OVC016 02/M02 A2964 890 75 -400 350/12G20 RMK AO2
14840KMKG MKG20060204155012602/04/06 15:50:31  5-MIN KMKG 042050Z 36016G20KT 10SM OVC016 02/M02 A2964 890 75 -400 360/16G20 RMK AO2 SLP042 T00171022 58024
14840KMKG MKG20060204155512602/04/06 15:55:31  5-MIN KMKG 042055Z 36014G19KT 10SM OVC016 01/M02 A2964 890 78 -500 010/14G19 RMK AO2 SLP043 T00111022 55006
14840KMKG MKG20060204160009702/04/06 16:00:31  5-MIN KMKG 042100Z 36013KT 10SM OVC016 02/M02 A2964 890 75 -400 360/13 RMK AO2
14840KMKG MKG20060204160510302/04/06 16:05:31  5-MIN KMKG 042105Z 35015G18KT 10SM OVC016 01/M02 A2964 890 78 -500 360/15G18 RMK AO2
14840KMKG MKG20060204161010302/04/06 16:10:31  5-MIN KMKG 042110Z 36014G20KT 10SM OVC016 01/M02 A2964 890 78 -500 360/14G20 RMK AO2
14840KMKG MKG20060204161509702/04/06 16:15:31  5-MIN KMKG 042115Z 35013KT 10SM OVC016 01/M02 A2964 890 78 -500 360/13 RMK AO2
14840KMKG MKG20060204162009702/04/06 16:20:31  5-MIN KMKG 042120Z 34012KT 10SM OVC016 01/M02 A2964 890 82 -500 350/12 RMK AO2
14840KMKG MKG20060204162509702/04/06 16:25:31  5-MIN KMKG 042125Z 35016KT 10SM OVC014 01/M02 A2963 900 82 -500 360/16 RMK AO2
14840KMKG MKG20060204163010402/04/06 16:30:31  5-MIN KMKG 042130Z 35014KT 10SM BKN014 OVC020 01/M02 A2963 900 78 -500 360/14 RMK AO2
14840KMKG MKG20060204163509702/04/06 16:35:31  5-MIN KMKG 042135Z 35015KT 10SM OVC014 01/M02 A2963 900 78 -500 350/15 RMK AO2
14840KMKG MKG20060204164009702/04/06 16:40:31  5-MIN KMKG 042140Z 34015KT 10SM OVC014 01/M02 A2963 900 78 -500 350/15 RMK AO2
14840KMKG MKG20060204164509702/04/06 16:45:31  5-MIN KMKG 042145Z 34014KT 10SM OVC014 01/M02 A2963 900 78 -500 350/14 RMK AO2
14840KMKG MKG20060204165009702/04/06 16:50:31  5-MIN KMKG 042150Z 35018KT 10SM OVC016 01/M02 A2962 910 78 -500 350/18 RMK AO2
14840KMKG MKG20060204165511402/04/06 16:55:31  5-MIN KMKG 042155Z 35015KT 10SM OVC016 01/M02 A2962 910 78 -500 350/15 RMK AO2 SLP037 T00111022
14840KMKG MKG20060204170009702/04/06 17:00:31  5-MIN KMKG 042200Z 35012KT 10SM OVC016 01/M02 A2962 910 78 -500 350/12 RMK AO2
14840KMKG MKG20060204170510302/04/06 17:05:31  5-MIN KMKG 042205Z 34015G20KT 10SM OVC016 01/M02 A2963 900 78 -500 350/15G20 RMK AO2
14840KMKG MKG20060204171010302/04/06 17:10:31  5-MIN KMKG 042210Z 34012G20KT 10SM OVC016 01/M02 A2963 900 78 -500 340/12G20 RMK AO2
14840KMKG MKG20060204171509702/04/06 17:15:31  5-MIN KMKG 042215Z 34015KT 10SM OVC016 01/M02 A2963 900 82 -600 340/15 RMK AO2
14840KMKG MKG20060204172010302/04/06 17:20:31  5-MIN KMKG 042220Z 34018G21KT 10SM OVC016 01/M02 A2963 900 82 -600 350/18G21 RMK AO2
14840KMKG MKG20060204172510302/04/06 17:25:31  5-MIN KMKG 042225Z 34014G21KT 10SM OVC016 01/M02 A2963 900 82 -600 340/14G21 RMK AO2
14840KMKG MKG20060204173009702/04/06 17:30:31  5-MIN KMKG 042230Z 34016KT 10SM OVC016 01/M02 A2963 900 82 -600 350/16 RMK AO2
14840KMKG MKG20060204173509702/04/06 17:35:31  5-MIN KMKG 042235Z 34018KT 10SM OVC018 01/M02 A2963 900 82 -600 350/18 RMK AO2
14840KMKG MKG20060204174010302/04/06 17:40:31  5-MIN KMKG 042240Z 35015G22KT 10SM OVC018 01/M02 A2963 900 82 -600 350/15G22 RMK AO2
14840KMKG MKG20060204174510302/04/06 17:45:31  5-MIN KMKG 042245Z 33013G22KT 10SM OVC018 01/M02 A2963 900 82 -600 340/13G22 RMK AO2
14840KMKG MKG20060204175012002/04/06 17:50:31  5-MIN KMKG 042250Z 34016G20KT 10SM OVC018 01/M02 A2963 900 82 -600 350/16G20 RMK AO2 SLP040 T00061022
14840KMKG MKG20060204175512002/04/06 17:55:31  5-MIN KMKG 042255Z 34013G20KT 10SM OVC016 01/M02 A2963 900 82 -600 350/13G20 RMK AO2 SLP040 T00061022
14840KMKG MKG20060204180010302/04/06 18:00:31  5-MIN KMKG 042300Z 34016G20KT 10SM OVC016 01/M02 A2963 900 82 -600 350/16G20 RMK AO2
14840KMKG MKG20060204180509702/04/06 18:05:31  5-MIN KMKG 042305Z 34014KT 10SM OVC016 01/M02 A2962 900 82 -500 340/14 RMK AO2
14840KMKG MKG20060204181010302/04/06 18:10:31  5-MIN KMKG 042310Z 35016G20KT 10SM OVC016 01/M02 A2962 910 82 -500 350/16G20 RMK AO2
14840KMKG MKG20060204181510302/04/06 18:15:31  5-MIN KMKG 042315Z 34018G23KT 10SM OVC016 01/M03 A2962 910 78 -500 340/18G23 RMK AO2
14840KMKG MKG20060204182010302/04/06 18:20:31  5-MIN KMKG 042320Z 34016G23KT 10SM OVC016 01/M03 A2963 900 78 -500 350/16G23 RMK AO2
14840KMKG MKG20060204182510302/04/06 18:25:31  5-MIN KMKG 042325Z 34014G21KT 10SM OVC016 01/M03 A2963 900 78 -600 350/14G21 RMK AO2
14840KMKG MKG20060204183010302/04/06 18:30:31  5-MIN KMKG 042330Z 33016G21KT 10SM OVC016 01/M03 A2963 900 78 -500 340/16G21 RMK AO2
14840KMKG MKG20060204183510302/04/06 18:35:31  5-MIN KMKG 042335Z 34017G24KT 10SM OVC016 01/M03 A2963 900 78 -500 340/17G24 RMK AO2
14840KMKG MKG20060204184010302/04/06 18:40:31  5-MIN KMKG 042340Z 34014G24KT 10SM OVC016 01/M03 A2963 900 78 -600 340/14G24 RMK AO2
14840KMKG MKG20060204192011202/04/06 19:20:31  5-MIN KMKG 050020Z 34014KT 7SM -SN OVC016 00/M02 A2963 900 85 -600 340/14 RMK AO2 SNB00 P0000
14840KMKG MKG20060204192512802/04/06 19:25:31  5-MIN KMKG 050025Z 34018G22KT 6SM -SN BR BKN014 OVC021 00/M02 A2963 900 85 -600 340/18G22 RMK AO2 SNB00 P0000
14840KMKG MKG20060204193012802/04/06 19:30:31  5-MIN KMKG 050030Z 33017G25KT 6SM -SN BR BKN014 OVC019 00/M02 A2963 900 85 -600 340/17G25 RMK AO2 SNB00 P0000
14840KMKG MKG20060204193512802/04/06 19:35:31  5-MIN KMKG 050035Z 34018G25KT 5SM -SN BR BKN014 OVC019 00/M02 A2963 900 85 -600 340/18G25 RMK AO2 SNB00 P0000
14840KMKG MKG20060204194014502/04/06 19:40:31  5-MIN KMKG 050040Z 33014G23KT 3SM -SN BR BKN014 OVC019 00/M02 A2962 910 85 -600 340/14G23 RMK AO2 VIS 2 1/2 RWY 14 SNB00 P0000
14840KMKG MKG20060204194514302/04/06 19:45:31  5-MIN KMKG 050045Z 33016KT 2 1/2SM -SN BR BKN014 OVC018 00/M02 A2962 910 85 -600 330/16 RMK AO2 VIS 1 1/2 RWY 14 SNB00 P0000
14840KMKG MKG20060204195012702/04/06 19:50:31  5-MIN KMKG 050050Z 33015KT 1 3/4SM -SN BR FEW007 OVC014 M01/M02 A2962 910 88 -700 340/15 RMK AO2 SNB00 P0000
14840KMKG MKG20060204195515002/04/06 19:55:31  5-MIN KMKG 050055Z 33016G21KT 1 1/2SM -SN BR BKN012 OVC018 M01/M02 A2961 920 88 -700 330/16G21 RMK AO2 SNB00 SLP034 P0000 T10061022
14840KMKG MKG20060204200012002/04/06 20:00:31  5-MIN KMKG 050100Z 33017G22KT 1 1/2SM -SN BR OVC014 M01/M02 A2961 920 88 -700 340/17G22 RMK AO2 P0000
14840KMKG MKG20060204200512002/04/06 20:05:31  5-MIN KMKG 050105Z 32017G22KT 1 1/2SM -SN BR OVC014 M01/M02 A2961 920 88 -700 330/17G22 RMK AO2 P0000
14840KMKG MKG20060204201012002/04/06 20:10:31  5-MIN KMKG 050110Z 33015G20KT 1 1/2SM -SN BR OVC014 M01/M02 A2961 920 88 -700 330/15G20 RMK AO2 P0000
14840KMKG MKG20060204201512002/04/06 20:15:31  5-MIN KMKG 050115Z 33016G21KT 1 3/4SM -SN BR OVC014 M01/M02 A2961 920 88 -700 330/16G21 RMK AO2 P0000
14840KMKG MKG20060204202012002/04/06 20:20:31  5-MIN KMKG 050120Z 33015G21KT 1 1/2SM -SN BR OVC014 M01/M02 A2961 920 88 -700 330/15G21 RMK AO2 P0000
14840KMKG MKG20060204202512702/04/06 20:25:31  5-MIN KMKG 050125Z 33016G20KT 1 1/2SM -SN BR FEW007 OVC014 M01/M02 A2961 920 88 -700 330/16G20 RMK AO2 P0000
14840KMKG MKG20060204203012702/04/06 20:30:31  5-MIN KMKG 050130Z 33017G21KT 1 1/2SM -SN BR BKN012 OVC017 M01/M02 A2961 920 88 -700 340/17G21 RMK AO2 P0000
14840KMKG MKG20060204203512702/04/06 20:35:31  5-MIN KMKG 050135Z 33016G23KT 1 1/2SM -SN BR BKN012 OVC017 M01/M02 A2961 920 88 -700 340/16G23 RMK AO2 P0000
14840KMKG MKG20060204204012002/04/06 20:40:31  5-MIN KMKG 050140Z 33016G23KT 1 1/2SM -SN BR OVC012 M01/M02 A2961 920 88 -700 340/16G23 RMK AO2 P0000
14840KMKG MKG20060204204512102/04/06 20:45:31  5-MIN KMKG 050145Z 33014KT 1 1/2SM -SN BR BKN011 OVC016 M01/M02 A2961 920 88 -700 330/14 RMK AO2 P0000
14840KMKG MKG20060204205014402/04/06 20:50:31  5-MIN KMKG 050150Z 33016G21KT 1 1/2SM -SN BR BKN011 OVC016 M01/M02 A2960 920 88 -700 340/16G21 RMK AO2 SLP031 P0000 T10061022
14840KMKG MKG20060204205513702/04/06 20:55:31  5-MIN KMKG 050155Z 33020G25KT 1 3/4SM -SN BR OVC014 M01/M03 A2961 920 85 -700 340/20G25 RMK AO2 SLP032 P0000 T10061028
14840KMKG MKG20060204210012702/04/06 21:00:31  5-MIN KMKG 050200Z 33017G25KT 1 3/4SM -SN BR SCT010 OVC016 M01/M03 A2961 920 88 -700 340/17G25 RMK AO2 P0000
14840KMKG MKG20060204210513402/04/06 21:05:31  5-MIN KMKG 050205Z 33018G24KT 1 3/4SM -SN BR SCT010 BKN016 OVC034 M01/M03 A2960 930 88 -700 330/18G24 RMK AO2 P0000
14840KMKG MKG20060204211013002/04/06 21:10:31  5-MIN KMKG 050210Z 33020G24KT 2SM -SN BR FEW010 BKN018 OVC034 M01/M03 A2960 930 88 -700 340/20G24 RMK AO2 P0000
14840KMKG MKG20060204211514502/04/06 21:15:31  5-MIN KMKG 050215Z 33019G24KT 2SM -SN BR SCT013 BKN020 OVC034 M01/M03 A2960 930 88 -700 330/19G24 RMK AO2 CIG 012 RWY 14 P0000
14840KMKG MKG20060204212013002/04/06 21:20:31  5-MIN KMKG 050220Z 33018G24KT 2SM -SN BR FEW013 BKN018 OVC034 M01/M03 A2960 930 88 -700 330/18G24 RMK AO2 P0000
14840KMKG MKG20060204212513002/04/06 21:25:31  5-MIN KMKG 050225Z 33017G24KT 2SM -SN BR FEW013 BKN018 OVC034 M01/M03 A2959 930 88 -700 330/17G24 RMK AO2 P0000
14840KMKG MKG20060204213012402/04/06 21:30:31  5-MIN KMKG 050230Z 33021KT 2SM -SN BR SCT013 BKN018 OVC034 M01/M03 A2959 930 88 -700 340/21 RMK AO2 P0000
14840KMKG MKG20060204213513402/04/06 21:35:31  5-MIN KMKG 050235Z 32017G23KT 2 1/2SM -SN BR BKN015 BKN023 OVC034 M01/M03 A2959 940 88 -700 330/17G23 RMK AO2 P0000
14840KMKG MKG20060204214014802/04/06 21:40:31  5-MIN KMKG 050240Z 33017G26KT 2SM -SN BR BKN015 BKN019 OVC028 M01/M03 A2959 940 88 -700 340/17G26 RMK AO2 PK WND 34026/0240 P0000
14840KMKG MKG20060204214514502/04/06 21:45:31  5-MIN KMKG 050245Z 33019G26KT 1 1/2SM -SN BR BKN013 OVC019 M01/M03 A2958 940 88 -700 330/19G26 RMK AO2 PK WND 34026/0240 P0000
14840KMKG MKG20060204215014502/04/06 21:50:31  5-MIN KMKG 050250Z 33021G25KT 1 1/2SM -SN BR FEW008 OVC015 M01/M03 A2958 950 88 -700 330/21G25 RMK AO2 PK WND 34026/0240 P0000
14840KMKG MKG20060204215517402/04/06 21:55:31  5-MIN KMKG 050255Z 33017G25KT 1 1/4SM -SN BR FEW006 OVC015 M01/M03 A2957 950 88 -700 330/17G25 RMK AO2 PK WND 34026/0240 SLP021 P0000 60000 T10111028 58019
14840KMKG MKG20060204220013402/04/06 22:00:31  5-MIN KMKG 050300Z 33016G25KT 1 1/4SM -SN BR FEW008 BKN015 OVC019 M01/M03 A2958 950 88 -700 330/16G25 RMK AO2 P0000
14840KMKG MKG20060204220512802/04/06 22:05:31  5-MIN KMKG 050305Z 33019KT 1 1/4SM -SN BR FEW005 SCT010 OVC015 M01/M03 A2958 950 88 -700 340/19 RMK AO2 P0000
14840KMKG MKG20060204221015202/04/06 22:10:31  5-MIN KMKG 050310Z 33021G26KT 1 1/4SM -SN BR FEW005 BKN013 OVC018 M01/M03 A2957 960 88 -700 330/21G26 RMK AO2 PK WND 33026/0308 P0000
14840KMKG MKG20060204221514502/04/06 22:15:31  5-MIN KMKG 050315Z 33019G26KT 1 1/4SM -SN BR BKN013 OVC017 M01/M03 A2957 960 88 -700 330/19G26 RMK AO2 PK WND 34026/0311 P0000
14840KMKG MKG20060204222014502/04/06 22:20:31  5-MIN KMKG 050320Z 32019G26KT 1 1/4SM -SN BR SCT010 OVC015 M01/M03 A2957 960 88 -700 330/19G26 RMK AO2 PK WND 34026/0311 P0000
14840KMKG MKG20060204222513802/04/06 22:25:31  5-MIN KMKG 050325Z 33020G25KT 1 1/4SM -SN BR OVC013 M01/M03 A2957 960 88 -700 340/20G25 RMK AO2 PK WND 34026/0311 P0000
14840KMKG MKG20060204223015202/04/06 22:30:31  5-MIN KMKG 050330Z 32017G24KT 1 1/4SM -SN BR FEW004 BKN009 OVC013 M01/M03 A2956 960 88 -700 330/17G24 RMK AO2 PK WND 34026/0311 P0000
14840KMKG MKG20060204223514502/04/06 22:35:31  5-MIN KMKG 050335Z 33019G24KT 1 1/4SM -SN BR SCT010 OVC013 M01/M03 A2956 970 88 -700 330/19G24 RMK AO2 PK WND 34026/0311 P0000
14840KMKG MKG20060204224013902/04/06 22:40:31  5-MIN KMKG 050340Z 33017KT 1 1/4SM -SN BR FEW008 OVC013 M01/M03 A2956 970 88 -700 340/17 RMK AO2 PK WND 34026/0311 P0000
14840KMKG MKG20060204224513902/04/06 22:45:31  5-MIN KMKG 050345Z 33019KT 1 1/4SM -SN BR BKN010 OVC013 M01/M03 A2955 970 88 -700 330/19 RMK AO2 PK WND 34026/0311 P0000
14840KMKG MKG20060204225014202/04/06 22:50:31  5-MIN KMKG 050350Z 32019KT 1SM -SN BR FEW003 BKN010 OVC015 M01/M03 A2955 970 88 -700 330/19 RMK AO2 PK WND 34026/0311 P0000
14840KMKG MKG20060204225515802/04/06 22:55:31  5-MIN KMKG 050355Z 33016G24KT 1SM -SN BR BKN010 OVC015 M01/M03 A2955 980 88 -700 330/16G24 RMK AO2 PK WND 34026/0311 SLP012 P0000 T10111028
14840KMKG MKG20060204230012302/04/06 23:00:31  5-MIN KMKG 050400Z 33015G22KT 1SM -SN BR BKN010 OVC015 M01/M02 A2955 980 92 -700 330/15G22 RMK AO2 P0000
14840KMKG MKG20060204230512702/04/06 23:05:31  5-MIN KMKG 050405Z 33018G23KT 1 1/4SM -SN BR BKN010 OVC015 M01/M02 A2955 970 92 -700 330/18G23 RMK AO2 P0000
14840KMKG MKG20060204231012702/04/06 23:10:31  5-MIN KMKG 050410Z 33018G23KT 1 1/4SM -SN BR BKN010 OVC015 M01/M02 A2955 980 92 -700 330/18G23 RMK AO2 P0000
14840KMKG MKG20060204231513402/04/06 23:15:31  5-MIN KMKG 050415Z 33015G23KT 1 1/4SM -SN BR FEW004 BKN010 OVC015 M01/M02 A2955 980 92 -700 330/15G23 RMK AO2 P0000
14840KMKG MKG20060204232012802/04/06 23:20:31  5-MIN KMKG 050420Z 33016KT 1 1/4SM -SN BR FEW004 BKN010 OVC015 M01/M02 A2954 980 92 -700 330/16 RMK AO2 P0000
14840KMKG MKG20060204232512702/04/06 23:25:31  5-MIN KMKG 050425Z 34019G24KT 1 3/4SM -SN BR SCT010 OVC015 M01/M02 A2955 980 92 -700 340/19G24 RMK AO2 P0000
14840KMKG MKG20060204233013402/04/06 23:30:31  5-MIN KMKG 050430Z 33015G24KT 2 1/2SM -SN BR FEW006 BKN012 OVC017 M01/M02 A2954 980 88 -600 330/15G24 RMK AO2 P0000
14840KMKG MKG20060204233511702/04/06 23:35:31  5-MIN KMKG 050435Z 33018KT 3SM -SN BR SCT010 OVC017 M01/M02 A2954 980 88 -600 340/18 RMK AO2 P0001
14840KMKG MKG20060204234011702/04/06 23:40:31  5-MIN KMKG 050440Z 33017KT 3SM -SN BR BKN012 OVC017 M01/M02 A2954 980 88 -600 340/17 RMK AO2 P0001
14840KMKG MKG20060204234511702/04/06 23:45:31  5-MIN KMKG 050445Z 33014KT 3SM -SN BR BKN013 OVC018 M01/M02 A2953 990 88 -600 340/14 RMK AO2 P0001
14840KMKG MKG20060204235015702/04/06 23:50:31  5-MIN KMKG 050450Z 32016G21KT 3SM -SN BR BKN013 BKN018 OVC041 M01/M02 A2954 990 88 -600 330/16G21 RMK AO2 SLP007 P0001 T10061022 400441011
14840KMKG MKG20060204235515002/04/06 23:55:31  5-MIN KMKG 050455Z 33014G21KT 3SM -SN BR BKN013 OVC018 M01/M02 A2953 990 88 -600 330/14G21 RMK AO2 SLP007 P0001 T10061022 400441011
14840KMKG MKG20060205000012302/05/06 00:00:32  5-MIN KMKG 050500Z 33014G21KT 3SM -SN BR BKN013 OVC018 M01/M02 A2953 990 88 -600 330/14G21 RMK AO2 P0000
14840KMKG MKG20060205000511002/05/06 00:05:31  5-MIN KMKG 050505Z 33014KT 3SM -SN BR OVC013 M01/M02 A2953 990 88 -600 330/14 RMK AO2 P0000
14840KMKG MKG20060205001011002/05/06 00:10:31  5-MIN KMKG 050510Z 33014KT 3SM -SN BR OVC015 M01/M02 A2953 990 88 -600 340/14 RMK AO2 P0000
14840KMKG MKG20060205001511702/05/06 00:15:31  5-MIN KMKG 050515Z 33014KT 3SM -SN BR BKN015 OVC019 M01/M02 A2953 990 88 -600 340/14 RMK AO2 P0000
14840KMKG MKG20060205002011702/05/06 00:20:31  5-MIN KMKG 050520Z 33014KT 3SM -SN BR BKN015 OVC019 M01/M02 A2953 990 88 -600 330/14 RMK AO2 P0000
14840KMKG MKG20060205002511702/05/06 00:25:31  5-MIN KMKG 050525Z 33014KT 3SM -SN BR FEW010 OVC015 M01/M02 A2953 990 88 -600 330/14 RMK AO2 P0000
14840KMKG MKG20060205003011702/05/06 00:30:31  5-MIN KMKG 050530Z 33015KT 3SM -SN BR BKN015 OVC020 M01/M02 A2953 990 88 -600 340/15 RMK AO2 P0000
14840KMKG MKG20060205003512302/05/06 00:35:31  5-MIN KMKG 050535Z 33015G20KT 3SM -SN BR BKN014 OVC019 M01/M02 A2953 990 88 -600 330/15G20 RMK AO2 P0000
14840KMKG MKG20060205004012402/05/06 00:40:31  5-MIN KMKG 050540Z 33015G20KT 3SM -SN BR BKN014 OVC019 M01/M02 A2953 1000 88 -600 330/15G20 RMK AO2 P0000
14840KMKG MKG20060205004512702/05/06 00:45:31  5-MIN KMKG 050545Z 32016G20KT 2 1/2SM -SN BR BKN014 OVC020 M01/M02 A2953 990 88 -600 330/16G20 RMK AO2 P0000
14840KMKG MKG20060205005011502/05/06 00:50:31  5-MIN KMKG 050550Z 33015KT 2 1/2SM -SN BR OVC014 M01/M02 A2953 1000 88 -600 330/15 RMK AO2 P0000
14840KMKG MKG20060205005516202/05/06 00:55:31  5-MIN KMKG 050555Z 33014KT 2 1/2SM -SN BR OVC014 M01/M02 A2953 1000 88 -600 330/14 RMK AO2 SLP004 P0000 60001 4/001 T10061022 11006 21011 58009
14840KMKG MKG20060205010012102/05/06 01:00:31  5-MIN KMKG 050600Z 33016G22KT 2 1/2SM -SN BR OVC014 M01/M02 A2952 1000 88 -600 330/16G22 RMK AO2 P0000
14840KMKG MKG20060205010512802/05/06 01:05:31  5-MIN KMKG 050605Z 33014G22KT 2 1/2SM -SN BR BKN014 OVC019 M01/M02 A2952 1000 88 -600 330/14G22 RMK AO2 P0000
14840KMKG MKG20060205011012102/05/06 01:10:31  5-MIN KMKG 050610Z 33017G22KT 2 1/2SM -SN BR OVC014 M01/M02 A2952 1000 88 -600 330/17G22 RMK AO2 P0000
14840KMKG MKG20060205011512102/05/06 01:15:31  5-MIN KMKG 050615Z 33015G22KT 2 1/2SM -SN BR OVC014 M01/M02 A2952 1000 88 -600 330/15G22 RMK AO2 P0000
14840KMKG MKG20060205012012202/05/06 01:20:31  5-MIN KMKG 050620Z 33015KT 2 1/2SM -SN BR BKN014 OVC018 M01/M02 A2952 1000 88 -600 340/15 RMK AO2 P0000
14840KMKG MKG20060205012511702/05/06 01:25:31  5-MIN KMKG 050625Z 33016G21KT 2SM -SN BR OVC014 M01/M02 A2952 1000 88 -600 330/16G21 RMK AO2 P0000
14840KMKG MKG20060205013012402/05/06 01:30:31  5-MIN KMKG 050630Z 33017G21KT 2SM -SN BR BKN014 OVC018 M01/M02 A2952 1000 88 -600 330/17G21 RMK AO2 P0000
14840KMKG MKG20060205013513102/05/06 01:35:31  5-MIN KMKG 050635Z 33016G22KT 2SM -SN BR FEW010 BKN014 OVC019 M01/M02 A2952 1000 88 -600 340/16G22 RMK AO2 P0000
14840KMKG MKG20060205014013102/05/06 01:40:31  5-MIN KMKG 050640Z 33016G22KT 2SM -SN BR FEW010 BKN014 OVC019 M01/M02 A2952 1000 88 -600 330/16G22 RMK AO2 P0000
14840KMKG MKG20060205014512402/05/06 01:45:31  5-MIN KMKG 050645Z 33016G22KT 3SM -SN BR BKN014 OVC018 M01/M02 A2952 1010 88 -600 340/16G22 RMK AO2 P0000
14840KMKG MKG20060205015012402/05/06 01:50:31  5-MIN KMKG 050650Z 33015G21KT 4SM -SN BR BKN014 OVC018 M01/M02 A2952 1000 88 -600 340/15G21 RMK AO2 P0000
14840KMKG MKG20060205015514102/05/06 01:55:31  5-MIN KMKG 050655Z 33018G24KT 4SM -SN BR BKN014 OVC018 M01/M02 A2952 1010 88 -600 340/18G24 RMK AO2 SLP001 P0000 T10061022
14840KMKG MKG20060205020012402/05/06 02:00:31  5-MIN KMKG 050700Z 33016G24KT 4SM -SN BR BKN014 OVC020 M01/M02 A2952 1000 88 -600 330/16G24 RMK AO2 P0000
14840KMKG MKG20060205020512402/05/06 02:05:31  5-MIN KMKG 050705Z 33018G25KT 4SM -SN BR BKN014 OVC020 M01/M02 A2952 1000 88 -600 330/18G25 RMK AO2 P0000
14840KMKG MKG20060205021012402/05/06 02:10:31  5-MIN KMKG 050710Z 33016G25KT 3SM -SN BR BKN016 OVC020 M01/M02 A2952 1010 88 -600 330/16G25 RMK AO2 P0000
14840KMKG MKG20060205021512402/05/06 02:15:31  5-MIN KMKG 050715Z 33017G22KT 3SM -SN BR BKN014 OVC020 M01/M02 A2952 1010 88 -600 330/17G22 RMK AO2 P0000
14840KMKG MKG20060205022012402/05/06 02:20:31  5-MIN KMKG 050720Z 32018G22KT 3SM -SN BR BKN014 OVC020 M01/M02 A2952 1000 88 -600 330/18G22 RMK AO2 P0000
14840KMKG MKG20060205022511802/05/06 02:25:31  5-MIN KMKG 050725Z 33018KT 4SM -SN BR BKN014 OVC020 M01/M02 A2951 1010 88 -600 330/18 RMK AO2 P0000
14840KMKG MKG20060205023012402/05/06 02:30:31  5-MIN KMKG 050730Z 34016G23KT 4SM -SN BR BKN014 OVC020 M01/M02 A2952 1000 88 -600 340/16G23 RMK AO2 P0000
14840KMKG MKG20060205023511102/05/06 02:35:31  5-MIN KMKG 050735Z 33016KT 5SM -SN BR OVC017 M01/M02 A2952 1000 88 -600 330/16 RMK AO2 P0000
14840KMKG MKG20060205024012402/05/06 02:40:31  5-MIN KMKG 050740Z 33017G20KT 5SM -SN BR BKN015 OVC021 M01/M02 A2952 1000 88 -600 330/17G20 RMK AO2 P0000
14840KMKG MKG20060205024512402/05/06 02:45:31  5-MIN KMKG 050745Z 33018G22KT 5SM -SN BR BKN015 OVC019 M01/M02 A2952 1000 88 -600 330/18G22 RMK AO2 P0000
14840KMKG MKG20060205025013502/05/06 02:50:31  5-MIN KMKG 050750Z 33015KT 6SM -SN BR BKN015 OVC021 M01/M02 A2952 1000 88 -600 330/15 RMK AO2 SLP003 P0000 T10061022
14840KMKG MKG20060205025513202/05/06 02:55:31  5-MIN KMKG 050755Z 33015KT 7SM -SN BKN015 OVC021 M01/M02 A2952 1000 88 -600 330/15 RMK AO2 SLP003 P0000 T10061022
14840KMKG MKG20060205030012102/05/06 03:00:31  5-MIN KMKG 050800Z 33015G23KT 7SM -SN BKN015 OVC023 M01/M02 A2952 1010 88 -600 330/15G23 RMK AO2 P0000
14840KMKG MKG20060205030512102/05/06 03:05:31  5-MIN KMKG 050805Z 33017G24KT 7SM -SN BKN015 OVC025 M01/M02 A2952 1010 88 -600 330/17G24 RMK AO2 P0000
14840KMKG MKG20060205031012302/05/06 03:10:31  5-MIN KMKG 050810Z 32018G24KT 8SM BKN017 OVC023 M01/M02 A2951 1010 88 -600 330/18G24 RMK AO2 SNE10 P0000
14840KMKG MKG20060205031512102/05/06 03:15:31  5-MIN KMKG 050815Z 33017G23KT 9SM -SN BKN017 OVC023 M01/M02 A2952 1010 88 -600 330/17G23 RMK AO2 P0000
14840KMKG MKG20060205032011402/05/06 03:20:31  5-MIN KMKG 050820Z 33016G23KT 9SM -SN OVC017 M01/M02 A2951 1010 88 -600 330/16G23 RMK AO2 P0000
14840KMKG MKG20060205032511402/05/06 03:25:31  5-MIN KMKG 050825Z 33015G25KT 8SM -SN OVC017 M01/M03 A2952 1010 85 -600 340/15G25 RMK AO2 P0000
14840KMKG MKG20060205033011402/05/06 03:30:31  5-MIN KMKG 050830Z 33018G25KT 7SM -SN OVC017 M01/M03 A2952 1000 85 -600 340/18G25 RMK AO2 P0000
14840KMKG MKG20060205033511402/05/06 03:35:31  5-MIN KMKG 050835Z 33019G22KT 7SM -SN OVC017 M01/M03 A2951 1010 85 -600 330/19G22 RMK AO2 P0000
14840KMKG MKG20060205034011402/05/06 03:40:31  5-MIN KMKG 050840Z 33016G23KT 8SM -SN OVC017 M01/M03 A2951 1010 85 -600 330/16G23 RMK AO2 P0000
14840KMKG MKG20060205034511402/05/06 03:45:31  5-MIN KMKG 050845Z 33020G23KT 9SM -SN OVC017 M01/M03 A2951 1010 85 -600 330/20G23 RMK AO2 P0000
14840KMKG MKG20060205035014302/05/06 03:50:31  5-MIN KMKG 050850Z 33015G23KT 9SM -SN OVC017 M01/M03 A2951 1010 85 -600 330/15G23 RMK AO2 SLP000 P0000 60000 T10061028 58009
14840KMKG MKG20060205035516202/05/06 03:55:31  5-MIN KMKG 050855Z 33020G28KT 10SM -SN OVC017 M01/M03 A2951 1010 85 -600 330/20G28 RMK AO2 PK WND 33028/0854 SLP000 P0000 60000 T10061028 58003
14840KMKG MKG20060205040012202/05/06 04:00:31  5-MIN KMKG 050900Z 32018G28KT 10SM -SN BKN017 OVC026 M01/M03 A2951 1020 85 -500 330/18G28 RMK AO2 P0000
14840KMKG MKG20060205040512402/05/06 04:05:31  5-MIN KMKG 050905Z 32017G25KT 10SM BKN017 OVC026 M01/M03 A2950 1020 85 -500 330/17G25 RMK AO2 SNE04 P0000
14840KMKG MKG20060205041013102/05/06 04:10:31  5-MIN KMKG 050910Z 33016G25KT 10SM BKN017 BKN026 OVC030 M01/M03 A2951 1010 85 -600 330/16G25 RMK AO2 SNE04 P0000
14840KMKG MKG20060205041514902/05/06 04:15:31  5-MIN KMKG 050915Z 32020G30KT 10SM BKN017 BKN026 OVC030 M01/M03 A2951 1020 85 -500 330/20G30 RMK AO2 PK WND 34030/0911 SNE04 P0000
14840KMKG MKG20060205042014902/05/06 04:20:31  5-MIN KMKG 050920Z 33016G30KT 10SM BKN017 BKN026 OVC030 M01/M03 A2951 1010 85 -600 330/16G30 RMK AO2 PK WND 34030/0911 SNE04 P0000
14840KMKG MKG20060205042514902/05/06 04:25:31  5-MIN KMKG 050925Z 32018G25KT 10SM BKN017 BKN026 OVC030 M01/M03 A2951 1010 85 -500 330/18G25 RMK AO2 PK WND 34030/0911 SNE04 P0000
14840KMKG MKG20060205043014902/05/06 04:30:31  5-MIN KMKG 050930Z 33018G25KT 10SM BKN017 BKN024 OVC030 M01/M03 A2951 1020 85 -500 340/18G25 RMK AO2 PK WND 34030/0911 SNE04 P0000
14840KMKG MKG20060205043514902/05/06 04:35:31  5-MIN KMKG 050935Z 32017G23KT 10SM BKN015 BKN024 OVC030 M01/M03 A2951 1020 85 -500 330/17G23 RMK AO2 PK WND 34030/0911 SNE04 P0000
14840KMKG MKG20060205044014802/05/06 04:40:31  5-MIN KMKG 050940Z 33017G25KT 8SM BKN017 BKN022 OVC029 M01/M03 A2951 1010 85 -600 330/17G25 RMK AO2 PK WND 34030/0911 SNE04 P0000
14840KMKG MKG20060205044515102/05/06 04:45:31  5-MIN KMKG 050945Z 32018G25KT 6SM BR BKN015 BKN022 OVC029 M01/M02 A2951 1020 88 -500 320/18G25 RMK AO2 PK WND 34030/0911 SNE04 P0000
14840KMKG MKG20060205045017502/05/06 04:50:31  5-MIN KMKG 050950Z 33017G22KT 5SM -SN BR BKN015 BKN020 OVC029 M01/M02 A2951 1010 88 -600 330/17G22 RMK AO2 PK WND 34030/0911 SNE04B48 SLP000 P0000 T10061022
14840KMKG MKG20060205045517502/05/06 04:55:31  5-MIN KMKG 050955Z 33016G23KT 5SM -SN BR BKN015 BKN020 OVC029 M01/M02 A2951 1010 88 -600 330/16G23 RMK AO2 PK WND 34030/0911 SNE04B48 SLP999 P0000 T10061022
14840KMKG MKG20060205050013102/05/06 05:00:31  5-MIN KMKG 051000Z 33019G25KT 4SM -SN BR BKN015 BKN020 OVC029 M01/M02 A2951 1010 88 -600 330/19G25 RMK AO2 P0000
14840KMKG MKG20060205050513102/05/06 05:05:31  5-MIN KMKG 051005Z 33019G25KT 3SM -SN BR BKN015 BKN022 OVC029 M01/M02 A2951 1010 88 -600 330/19G25 RMK AO2 P0000
14840KMKG MKG20060205051013502/05/06 05:10:31  5-MIN KMKG 051010Z 32015G25KT 2 1/2SM -SN BR BKN013 BKN018 OVC029 M01/M02 A2951 1010 88 -600 330/15G25 RMK AO2 P0000
14840KMKG MKG20060205051513102/05/06 05:15:31  5-MIN KMKG 051015Z 33014G23KT 2SM -SN BR BKN013 BKN019 OVC029 M01/M02 A2951 1010 88 -600 330/14G23 RMK AO2 P0000
14840KMKG MKG20060205052012402/05/06 05:20:31  5-MIN KMKG 051020Z 32017G25KT 3SM -SN BR BKN013 OVC018 M01/M02 A2951 1010 88 -600 330/17G25 RMK AO2 P0000
14840KMKG MKG20060205052512402/05/06 05:25:31  5-MIN KMKG 051025Z 33018G25KT 3SM -SN BR BKN013 OVC020 M01/M02 A2951 1010 88 -600 330/18G25 RMK AO2 P0000
14840KMKG MKG20060205053013102/05/06 05:30:31  5-MIN KMKG 051030Z 32017G22KT 5SM -SN BR BKN013 BKN020 OVC026 M01/M02 A2952 1010 88 -600 330/17G22 RMK AO2 P0000
14840KMKG MKG20060205053513002/05/06 05:35:31  5-MIN KMKG 051035Z 33017G22KT 8SM BKN013 BKN018 OVC025 M01/M02 A2951 1010 88 -600 330/17G22 RMK AO2 SNE33 P0000
14840KMKG MKG20060205054012802/05/06 05:40:31  5-MIN KMKG 051040Z 33018G23KT 9SM -SN BKN015 BKN021 OVC029 M01/M03 A2951 1010 85 -500 330/18G23 RMK AO2 P0000
14840KMKG MKG20060205054512902/05/06 05:45:31  5-MIN KMKG 051045Z 33019G24KT 10SM -SN BKN015 BKN021 OVC034 M01/M03 A2951 1010 85 -600 330/19G24 RMK AO2 P0000
14840KMKG MKG20060205055014502/05/06 05:50:31  5-MIN KMKG 051050Z 33017G24KT 9SM -SN BKN015 BKN025 OVC032 M01/M03 A2952 1010 85 -600 340/17G24 RMK AO2 SLP002 P0000 T10061028
14840KMKG MKG20060205055514102/05/06 05:55:31  5-MIN KMKG 051055Z 34015G21KT 4SM -SN BR BKN015 OVC025 M01/M02 A2952 1000 88 -600 340/15G21 RMK AO2 SLP003 P0000 T10061022
14840KMKG MKG20060205060012502/05/06 06:00:31  5-MIN KMKG 051100Z 32013KT 2SM -SN BR BKN014 BKN021 OVC032 M01/M02 A2952 1000 88 -600 330/13 RMK AO2 P0000
14840KMKG MKG20060205060513502/05/06 06:05:31  5-MIN KMKG 051105Z 33017G25KT 1 3/4SM -SN BR SCT011 BKN016 OVC032 M01/M02 A2952 1000 88 -600 340/17G25 RMK AO2 P0000
14840KMKG MKG20060205061013502/05/06 06:10:31  5-MIN KMKG 051110Z 34016G25KT 1 3/4SM -SN BR SCT011 BKN016 OVC032 M01/M02 A2953 1000 88 -600 340/16G25 RMK AO2 P0000
14840KMKG MKG20060205061515902/05/06 06:15:31  5-MIN KMKG 051115Z 34021G28KT 3SM -SN BR SCT014 OVC022 M01/M03 A2953 1000 85 -600 340/21G28 RMK AO2 PK WND 34028/1114 VIS 2 1/2 RWY 14 P0000
14840KMKG MKG20060205062015702/05/06 06:20:31  5-MIN KMKG 051120Z 34014G28KT 6SM -SN BR SCT014 OVC020 M01/M03 A2953 1000 85 -600 350/14G28 RMK AO2 PK WND 34028/1114 CIG 015 RWY 14 P0000
14840KMKG MKG20060205062514202/05/06 06:25:31  5-MIN KMKG 051125Z 33013G22KT 4SM -SN BR SCT014 OVC019 M01/M03 A2952 1000 85 -600 340/13G22 RMK AO2 PK WND 34028/1114 P0000
14840KMKG MKG20060205063015302/05/06 06:30:31  5-MIN KMKG 051130Z 33017G22KT 2 1/2SM -SN BR FEW010 BKN016 OVC021 M01/M02 A2952 1000 88 -600 340/17G22 RMK AO2 PK WND 34028/1114 P0000
14840KMKG MKG20060205063515902/05/06 06:35:31  5-MIN KMKG 051135Z 33017G23KT 4SM -SN BR SCT015 OVC021 M01/M03 A2952 1000 85 -600 340/17G23 RMK AO2 PK WND 34028/1114 VIS 2 1/2 RWY 14 P0000
14840KMKG MKG20060205064013602/05/06 06:40:31  5-MIN KMKG 051140Z 33017KT 6SM -SN BR BKN015 OVC024 M01/M03 A2952 1000 85 -600 330/17 RMK AO2 PK WND 34028/1114 P0000
14840KMKG MKG20060205064514202/05/06 06:45:31  5-MIN KMKG 051145Z 33017G21KT 5SM -SN BR BKN015 OVC023 M01/M03 A2953 1000 85 -600 330/17G21 RMK AO2 PK WND 34028/1114 P0000
14840KMKG MKG20060205065018902/05/06 06:50:31  5-MIN KMKG 051150Z 33022G27KT 5SM -SN BR BKN016 OVC022 M01/M03 A2953 1000 85 -600 340/22G27 RMK AO2 PK WND 34028/1114 SLP005 P0000 60000 70001 T10061028 10000 21006 58003
14840KMKG MKG20060205065519202/05/06 06:55:31  5-MIN KMKG 051155Z 33020G27KT 6SM -SN BKN018 OVC022 M01/M03 A2953 1000 81 -600 330/20G27 RMK AO2 PK WND 34028/1114 SLP005 P0000 60000 70001 4/002 T10061033 10000 21006 53005
14840KMKG MKG20060205070012102/05/06 07:00:31  5-MIN KMKG 051200Z 33022G27KT 9SM -SN BKN018 OVC025 M01/M03 A2953 1000 81 -600 330/22G27 RMK AO2 P0000
14840KMKG MKG20060205070513902/05/06 07:05:31  5-MIN KMKG 051205Z 33022G29KT 9SM -SN SCT018 OVC025 M01/M03 A2953 1000 81 -600 330/22G29 RMK AO2 PK WND 32029/1205 P0000
14840KMKG MKG20060205071014502/05/06 07:10:31  5-MIN KMKG 051210Z 33018G29KT 9SM -SN BKN020 BKN025 OVC029 M01/M04 A2953 990 78 -600 330/18G29 RMK AO2 PK WND 32029/1205 P0000
14840KMKG MKG20060205071513802/05/06 07:15:31  5-MIN KMKG 051215Z 33017G27KT 9SM -SN BKN022 OVC031 M01/M04 A2954 990 78 -600 340/17G27 RMK AO2 PK WND 32029/1205 P0000
14840KMKG MKG20060205072014602/05/06 07:20:31  5-MIN KMKG 051220Z 33018G27KT 10SM -SN FEW018 BKN022 OVC031 M01/M04 A2954 990 78 -600 340/18G27 RMK AO2 PK WND 32029/1205 P0000
14840KMKG MKG20060205072514602/05/06 07:25:31  5-MIN KMKG 051225Z 33018G27KT 10SM -SN SCT020 BKN027 OVC033 M01/M04 A2954 980 78 -600 340/18G27 RMK AO2 PK WND 32029/1205 P0000
14840KMKG MKG20060205073014802/05/06 07:30:31  5-MIN KMKG 051230Z 33019G26KT 10SM BKN020 BKN029 OVC033 M01/M04 A2954 990 78 -600 330/19G26 RMK AO2 PK WND 32029/1205 SNE29 P0000
14840KMKG MKG20060205073514802/05/06 07:35:31  5-MIN KMKG 051235Z 33022G26KT 10SM SCT018 BKN024 OVC070 M01/M04 A2954 980 81 -700 330/22G26 RMK AO2 PK WND 32029/1205 SNE29 P0000
14840KMKG MKG20060205074014802/05/06 07:40:31  5-MIN KMKG 051240Z 34020G26KT 10SM SCT020 BKN033 OVC070 M01/M04 A2954 980 81 -700 340/20G26 RMK AO2 PK WND 32029/1205 SNE29 P0000
14840KMKG MKG20060205074514802/05/06 07:45:31  5-MIN KMKG 051245Z 33018G26KT 10SM SCT020 BKN035 OVC070 M01/M04 A2954 980 81 -700 330/18G26 RMK AO2 PK WND 32029/1205 SNE29 P0000
14840KMKG MKG20060205075016502/05/06 07:50:31  5-MIN KMKG 051250Z 33017G24KT 10SM SCT020 BKN035 OVC070 M01/M04 A2954 980 78 -700 340/17G24 RMK AO2 PK WND 32029/1205 SNE29 SLP011 P0000 T10111044
14840KMKG MKG20060205075516502/05/06 07:55:31  5-MIN KMKG 051255Z 33019G24KT 10SM SCT020 BKN035 OVC070 M01/M04 A2954 980 78 -700 340/19G24 RMK AO2 PK WND 32029/1205 SNE29 SLP010 P0000 T10111044
14840KMKG MKG20060205080011802/05/06 08:00:31  5-MIN KMKG 051300Z 33018G24KT 10SM FEW021 BKN035 OVC070 M01/M04 A2954 980 78 -700 330/18G24 RMK AO2
14840KMKG MKG20060205080513602/05/06 08:05:31  5-MIN KMKG 051305Z 33019G26KT 10SM FEW021 BKN035 OVC090 M01/M04 A2954 980 78 -700 330/19G26 RMK AO2 PK WND 33026/1301
14840KMKG MKG20060205081013602/05/06 08:10:31  5-MIN KMKG 051310Z 34024G30KT 10SM SCT021 BKN035 OVC090 M01/M04 A2955 970 78 -700 340/24G30 RMK AO2 PK WND 34030/1310
14840KMKG MKG20060205081513602/05/06 08:15:31  5-MIN KMKG 051315Z 34017G30KT 10SM SCT021 BKN033 OVC090 M01/M04 A2956 970 78 -700 350/17G30 RMK AO2 PK WND 34030/1310
14840KMKG MKG20060205082013602/05/06 08:20:31  5-MIN KMKG 051320Z 34018G26KT 10SM FEW021 SCT033 OVC090 M01/M04 A2955 970 78 -700 340/18G26 RMK AO2 PK WND 34030/1310
14840KMKG MKG20060205082512902/05/06 08:25:31  5-MIN KMKG 051325Z 34021G26KT 10SM FEW021 OVC090 M01/M04 A2955 970 78 -700 340/21G26 RMK AO2 PK WND 34030/1310
14840KMKG MKG20060205083013602/05/06 08:30:31  5-MIN KMKG 051330Z 33017G25KT 10SM FEW021 SCT036 OVC090 M01/M05 A2955 970 75 -700 330/17G25 RMK AO2 PK WND 34030/1310
14840KMKG MKG20060205083513602/05/06 08:35:31  5-MIN KMKG 051335Z 34018G25KT 10SM FEW021 SCT036 OVC085 M01/M04 A2956 970 78 -700 340/18G25 RMK AO2 PK WND 34030/1310
14840KMKG MKG20060205084013602/05/06 08:40:31  5-MIN KMKG 051340Z 34019G25KT 10SM FEW021 SCT036 OVC085 M01/M04 A2956 970 78 -700 340/19G25 RMK AO2 PK WND 34030/1310
14840KMKG MKG20060205084513602/05/06 08:45:31  5-MIN KMKG 051345Z 33017G25KT 10SM SCT021 BKN035 OVC085 M01/M04 A2956 970 78 -700 330/17G25 RMK AO2 PK WND 34030/1310
14840KMKG MKG20060205085013602/05/06 08:50:31  5-MIN KMKG 051350Z 35018G25KT 10SM BKN021 BKN035 OVC085 M01/M04 A2956 960 78 -700 350/18G25 RMK AO2 PK WND 34030/1310
14840KMKG MKG20060205085515302/05/06 08:55:31  5-MIN KMKG 051355Z 33020G25KT 10SM BKN021 BKN025 OVC080 M01/M04 A2956 970 78 -700 340/20G25 RMK AO2 PK WND 34030/1310 SLP016 T10111044
14840KMKG MKG20060205090011802/05/06 09:00:31  5-MIN KMKG 051400Z 34016G25KT 10SM BKN021 BKN035 OVC080 M01/M04 A2957 960 78 -700 340/16G25 RMK AO2
14840KMKG MKG20060205090511802/05/06 09:05:31  5-MIN KMKG 051405Z 34018G23KT 10SM BKN021 BKN033 OVC080 M01/M04 A2957 960 78 -700 340/18G23 RMK AO2
14840KMKG MKG20060205091013302/05/06 09:10:31  5-MIN KMKG 051410Z 34017G21KT 10SM SCT018 BKN023 OVC080 M01/M04 A2957 960 78 -700 340/17G21 RMK AO2 CIG 018 RWY 14
14840KMKG MKG20060205091511102/05/06 09:15:31  5-MIN KMKG 051415Z 33017G21KT 10SM BKN021 OVC080 M01/M04 A2957 950 78 -700 340/17G21 RMK AO2
14840KMKG MKG20060205092011102/05/06 09:20:31  5-MIN KMKG 051420Z 34019G23KT 10SM BKN021 OVC080 M01/M04 A2957 960 78 -700 340/19G23 RMK AO2
14840KMKG MKG20060205092511102/05/06 09:25:31  5-MIN KMKG 051425Z 34018G23KT 10SM BKN020 OVC085 M01/M04 A2957 950 78 -700 350/18G23 RMK AO2
14840KMKG MKG20060205093011202/05/06 09:30:31  5-MIN KMKG 051430Z 34016KT 10SM SCT017 BKN022 OVC085 M01/M04 A2957 950 81 -700 350/16 RMK AO2
14840KMKG MKG20060205093510502/05/06 09:35:31  5-MIN KMKG 051435Z 35017KT 10SM BKN019 OVC085 M01/M04 A2958 950 81 -700 360/17 RMK AO2
14840KMKG MKG20060205094011102/05/06 09:40:31  5-MIN KMKG 051440Z 34016G22KT 10SM SCT019 OVC085 M01/M04 A2957 950 78 -700 350/16G22 RMK AO2
14840KMKG MKG20060205094511802/05/06 09:45:31  5-MIN KMKG 051445Z 34014G22KT 10SM FEW017 SCT022 OVC090 M01/M04 A2957 950 81 -700 340/14G22 RMK AO2
14840KMKG MKG20060205095011802/05/06 09:50:31  5-MIN KMKG 051450Z 34015G22KT 10SM SCT019 BKN026 OVC085 M01/M04 A2958 950 78 -700 340/15G22 RMK AO2
14840KMKG MKG20060205095514002/05/06 09:55:31  5-MIN KMKG 051455Z 35019G23KT 10SM SCT019 OVC090 M01/M04 A2958 940 78 -700 350/19G23 RMK AO2 SLP025 60000 T10111044 53019
14840KMKG MKG20060205100011102/05/06 10:00:31  5-MIN KMKG 051500Z 34019G24KT 10SM SCT019 OVC085 M01/M04 A2958 940 78 -700 340/19G24 RMK AO2
14840KMKG MKG20060205100511102/05/06 10:05:31  5-MIN KMKG 051505Z 34018G25KT 10SM SCT019 OVC085 M01/M04 A2958 950 78 -700 340/18G25 RMK AO2
14840KMKG MKG20060205101011102/05/06 10:10:31  5-MIN KMKG 051510Z 34019G25KT 10SM SCT019 OVC085 M01/M04 A2958 940 78 -700 340/19G25 RMK AO2
14840KMKG MKG20060205101511802/05/06 10:15:31  5-MIN KMKG 051515Z 33014G23KT 10SM BKN022 BKN026 OVC085 M01/M04 A2959 940 78 -700 340/14G23 RMK AO2
14840KMKG MKG20060205102011802/05/06 10:20:31  5-MIN KMKG 051520Z 34017G23KT 10SM SCT020 BKN024 OVC090 M01/M04 A2959 940 78 -700 350/17G23 RMK AO2
14840KMKG MKG20060205102511802/05/06 10:25:31  5-MIN KMKG 051525Z 34018G23KT 10SM SCT020 BKN025 OVC090 M01/M04 A2959 940 78 -700 340/18G23 RMK AO2
14840KMKG MKG20060205103011002/05/06 10:30:31  5-MIN KMKG 051530Z 35017G22KT 8SM BKN022 OVC033 M01/M04 A2960 930 78 -700 350/17G22 RMK AO2
14840KMKG MKG20060205103512602/05/06 10:35:31  5-MIN KMKG 051535Z 35016G22KT 6SM -SN BKN023 OVC033 M01/M04 A2960 930 78 -700 350/16G22 RMK AO2 SNB34 P0000
14840KMKG MKG20060205104013302/05/06 10:40:31  5-MIN KMKG 051540Z 35013G22KT 5SM -SN FEW015 BKN021 OVC033 M01/M04 A2960 930 81 -700 350/13G22 RMK AO2 SNB34 P0000
14840KMKG MKG20060205104513302/05/06 10:45:31  5-MIN KMKG 051545Z 33012G21KT 5SM -SN SCT018 BKN023 OVC033 M01/M04 A2960 930 81 -700 330/12G21 RMK AO2 SNB34 P0000
14840KMKG MKG20060205105013702/05/06 10:50:31  5-MIN KMKG 051550Z 34013KT 4SM -SN BKN018 OVC023 M01/M04 A2960 930 81 -700 340/13 RMK AO2 SNB34 SLP031 P0000 T10111039
14840KMKG MKG20060205105515002/05/06 10:55:31  5-MIN KMKG 051555Z 33012G23KT 4SM -SN SCT016 BKN023 OVC031 M01/M04 A2960 930 81 -700 330/12G23 RMK AO2 SNB34 SLP032 P0000 T10111039
14840KMKG MKG20060205110012002/05/06 11:00:31  5-MIN KMKG 051600Z 34014G23KT 4SM -SN BKN016 OVC023 M01/M04 A2960 920 81 -700 340/14G23 RMK AO2 P0000
14840KMKG MKG20060205110511402/05/06 11:05:31  5-MIN KMKG 051605Z 33013KT 4SM -SN BKN016 OVC023 M01/M04 A2960 930 81 -700 330/13 RMK AO2 P0000
14840KMKG MKG20060205111011402/05/06 11:10:31  5-MIN KMKG 051610Z 34014KT 4SM -SN BKN016 OVC023 M01/M04 A2961 920 81 -700 340/14 RMK AO2 P0000
14840KMKG MKG20060205111512702/05/06 11:15:31  5-MIN KMKG 051615Z 33021G24KT 4SM -SN BKN016 BKN023 OVC032 M01/M04 A2960 920 81 -700 340/21G24 RMK AO2 P0000
14840KMKG MKG20060205112012702/05/06 11:20:31  5-MIN KMKG 051620Z 34019G24KT 5SM -SN SCT016 BKN022 OVC030 M01/M04 A2961 920 78 -700 340/19G24 RMK AO2 P0000
14840KMKG MKG20060205112512702/05/06 11:25:31  5-MIN KMKG 051625Z 34018G24KT 7SM -SN SCT018 BKN023 OVC030 M01/M04 A2962 910 78 -700 340/18G24 RMK AO2 P0000
14840KMKG MKG20060205113012702/05/06 11:30:31  5-MIN KMKG 051630Z 34020G25KT 7SM -SN SCT018 BKN023 OVC034 M01/M04 A2962 910 78 -700 350/20G25 RMK AO2 P0000
14840KMKG MKG20060205113513802/05/06 11:35:31  5-MIN KMKG 051635Z 34013G25KT 10SM UP SCT018 BKN023 OVC031 M01/M04 A2962 910 78 -700 340/13G25 RMK AO2 UPB32SNE32 P0000
14840KMKG MKG20060205114013802/05/06 11:40:31  5-MIN KMKG 051640Z 34020G24KT 10SM UP BKN021 BKN032 OVC085 M01/M04 A2962 910 75 -700 340/20G24 RMK AO2 UPB32SNE32 P0000
14840KMKG MKG20060205114515602/05/06 11:45:31  5-MIN KMKG 051645Z 35017G27KT 10SM BKN021 BKN033 OVC085 M01/M05 A2963 900 72 -700 350/17G27 RMK AO2 PK WND 34027/1643 UPB32E45SNE32 P0000
14840KMKG MKG20060205115016502/05/06 11:50:31  5-MIN KMKG 051650Z 33017G28KT 10SM BKN021 BKN028 OVC085 M01/M05 A2961 910 72 -700 330/17G28 RMK AO2 SLP035 PK WND 32028/1646 SNE32 P0000 T10061050
14840KMKG MKG20060205115515802/05/06 11:55:31  5-MIN KMKG 051655Z 34018G28KT 10SM BKN021 BKN085 M01/M05 A2962 910 72 -700 340/18G28 RMK AO2 SLP038 PK WND 32028/1646 SNE32 P0000 T10061050
14840KMKG MKG20060205120011202/05/06 12:00:31  5-MIN KMKG 051700Z 34015KT 10SM BKN023 BKN030 OVC085 M01/M04 A2962 910 75 -700 350/15 RMK AO2
14840KMKG MKG20060205120511802/05/06 12:05:31  5-MIN KMKG 051705Z 34015G22KT 10SM BKN023 BKN028 OVC039 M01/M04 A2963 900 75 -700 340/15G22 RMK AO2
14840KMKG MKG20060205121011802/05/06 12:10:31  5-MIN KMKG 051710Z 34021G25KT 10SM FEW020 BKN025 OVC039 M01/M04 A2963 900 75 -700 340/21G25 RMK AO2
14840KMKG MKG20060205121511802/05/06 12:15:31  5-MIN KMKG 051715Z 33019G25KT 10SM FEW020 BKN025 OVC033 M01/M04 A2962 910 75 -700 340/19G25 RMK AO2
14840KMKG MKG20060205122015102/05/06 12:20:31  5-MIN KMKG 051720Z 33023G30KT 10SM FEW020 SCT025 OVC033 M01/M04 A2962 910 75 -700 340/23G30 RMK AO2 PK WND 33030/1720 CIG 024 RWY 14
14840KMKG MKG20060205122515102/05/06 12:25:31  5-MIN KMKG 051725Z 34018G30KT 10SM FEW019 SCT024 OVC034 M01/M04 A2962 910 75 -700 340/18G30 RMK AO2 PK WND 33030/1720 CIG 024 RWY 14
14840KMKG MKG20060205123013502/05/06 12:30:31  5-MIN KMKG 051730Z 34018G27KT 8SM FEW019 SCT024 BKN034 M01/M04 A2963 900 75 -700 340/18G27 RMK AO2 PK WND 33030/1720
14840KMKG MKG20060205123515102/05/06 12:35:31  5-MIN KMKG 051735Z 33020G26KT 4SM -SN FEW019 SCT024 BKN034 M01/M04 A2962 910 81 -800 330/20G26 RMK AO2 PK WND 33030/1720 SNB31 P0000
14840KMKG MKG20060205124015102/05/06 12:40:31  5-MIN KMKG 051740Z 33016G26KT 3SM -SN FEW019 SCT024 BKN034 M01/M04 A2963 900 81 -800 330/16G26 RMK AO2 PK WND 33030/1720 SNB31 P0000
14840KMKG MKG20060205124515102/05/06 12:45:31  5-MIN KMKG 051745Z 33023G27KT 5SM -SN FEW019 SCT024 BKN034 M01/M04 A2963 900 78 -800 340/23G27 RMK AO2 PK WND 33030/1720 SNB31 P0000
14840KMKG MKG20060205125019202/05/06 12:50:31  5-MIN KMKG 051750Z 33020G27KT 8SM -SN FEW019 SCT024 BKN034 M01/M05 A2963 900 75 -800 330/20G27 RMK AO2 PK WND 33030/1720 SNB31 SLP039 P0000 60000 T10111050 11006 21011 53019
14840KMKG MKG20060205125519102/05/06 12:55:31  5-MIN KMKG 051755Z 34019G27KT 8SM -SN SCT019 OVC026 M01/M05 A2963 900 75 -800 350/19G27 RMK AO2 PK WND 33030/1720 SNB31 SLP041 P0000 60000 4/001 T10111050 11006 21011 51016
14840KMKG MKG20060205130012102/05/06 13:00:31  5-MIN KMKG 051800Z 35018G27KT 10SM -SN BKN023 OVC031 M01/M05 A2964 900 75 -800 350/18G27 RMK AO2 P0000
14840KMKG MKG20060205130512102/05/06 13:05:31  5-MIN KMKG 051805Z 34014G24KT 10SM -SN BKN023 OVC031 M01/M05 A2963 900 75 -800 340/14G24 RMK AO2 P0000
14840KMKG MKG20060205131012002/05/06 13:10:31  5-MIN KMKG 051810Z 33021G24KT 8SM -SN BKN023 OVC028 M01/M05 A2963 900 75 -800 340/21G24 RMK AO2 P0000
14840KMKG MKG20060205131513102/05/06 13:15:31  5-MIN KMKG 051815Z 34021G26KT 6SM -SN OVC023 M01/M05 A2964 890 75 -800 340/21G26 RMK AO2 PK WND 34026/1814 P0000
14840KMKG MKG20060205132013102/05/06 13:20:31  5-MIN KMKG 051820Z 33018G26KT 7SM -SN OVC023 M01/M06 A2964 890 72 -800 340/18G26 RMK AO2 PK WND 34026/1814 P0000
14840KMKG MKG20060205132513102/05/06 13:25:31  5-MIN KMKG 051825Z 33019G27KT 9SM -SN OVC023 M01/M06 A2964 890 72 -800 330/19G27 RMK AO2 PK WND 32027/1822 P0000
14840KMKG MKG20060205133013102/05/06 13:30:31  5-MIN KMKG 051830Z 33020G27KT 8SM -SN OVC023 M01/M06 A2964 890 72 -800 330/20G27 RMK AO2 PK WND 32027/1822 P0000
14840KMKG MKG20060205133513102/05/06 13:35:31  5-MIN KMKG 051835Z 33021G26KT 8SM -SN OVC023 M02/M06 A2964 890 75 -800 340/21G26 RMK AO2 PK WND 32027/1822 P0000
14840KMKG MKG20060205134013102/05/06 13:40:31  5-MIN KMKG 051840Z 34021G28KT 9SM -SN OVC023 M02/M06 A2965 890 75 -900 340/21G28 RMK AO2 PK WND 34028/1840 P0000
14840KMKG MKG20060205134513202/05/06 13:45:31  5-MIN KMKG 051845Z 35019G28KT 10SM -SN OVC023 M02/M06 A2966 870 75 -900 350/19G28 RMK AO2 PK WND 34028/1840 P0000
14840KMKG MKG20060205135014902/05/06 13:50:31  5-MIN KMKG 051850Z 34020G26KT 10SM -SN OVC023 M01/M06 A2965 880 72 -800 340/20G26 RMK AO2 PK WND 34028/1840 SLP046 P0000 T10111056
14840KMKG MKG20060205135515002/05/06 13:55:31  5-MIN KMKG 051855Z 35019G26KT 9SM OVC023 M02/M06 A2966 870 75 -900 350/19G26 RMK AO2 PK WND 34028/1840 SNE52 SLP052 P0000 T10171056
14840KMKG MKG20060205140010602/05/06 14:00:31  5-MIN KMKG 051900Z 33015G24KT 6SM HZ OVC023 M02/M06 A2966 870 75 -900 330/15G24 RMK AO2
14840KMKG MKG20060205140510602/05/06 14:05:31  5-MIN KMKG 051905Z 34019G23KT 6SM HZ OVC023 M02/M06 A2966 870 75 -900 340/19G23 RMK AO2
14840KMKG MKG20060205141010302/05/06 14:10:31  5-MIN KMKG 051910Z 34017G23KT 7SM OVC023 M02/M06 A2966 880 75 -900 340/17G23 RMK AO2
14840KMKG MKG20060205141510602/05/06 14:15:31  5-MIN KMKG 051915Z 34016G23KT 6SM HZ OVC023 M02/M06 A2966 870 75 -900 340/16G23 RMK AO2
14840KMKG MKG20060205142010602/05/06 14:20:31  5-MIN KMKG 051920Z 33016G21KT 6SM HZ OVC023 M02/M06 A2967 860 75 -900 340/16G21 RMK AO2
14840KMKG MKG20060205142510302/05/06 14:25:31  5-MIN KMKG 051925Z 34019G25KT 8SM OVC023 M02/M06 A2967 870 72 -900 340/19G25 RMK AO2
14840KMKG MKG20060205143010302/05/06 14:30:31  5-MIN KMKG 051930Z 33018G25KT 9SM OVC023 M02/M06 A2966 870 75 -900 330/18G25 RMK AO2
14840KMKG MKG20060205143511102/05/06 14:35:31  5-MIN KMKG 051935Z 32020G24KT 10SM BKN023 OVC029 M02/M06 A2967 870 72 -900 330/20G24 RMK AO2
14840KMKG MKG20060205144011102/05/06 14:40:31  5-MIN KMKG 051940Z 33021G25KT 10SM BKN023 OVC029 M02/M06 A2967 860 72 -900 340/21G25 RMK AO2
14840KMKG MKG20060205144512902/05/06 14:45:31  5-MIN KMKG 051945Z 34019G26KT 10SM BKN024 OVC029 M02/M06 A2968 860 72 -900 340/19G26 RMK AO2 PK WND 33026/1945
14840KMKG MKG20060205145013902/05/06 14:50:31  5-MIN KMKG 051950Z 33019G28KT 10SM OVC027 M02/M06 A2967 860 72 -900 340/19G28 RMK AO2 PK WND 34028/1947 SLP055 T10171061
14840KMKG MKG20060205145514602/05/06 14:55:31  5-MIN KMKG 051955Z 34016G28KT 10SM SCT024 OVC031 M02/M06 A2968 860 72 -900 340/16G28 RMK AO2 PK WND 34028/1947 SLP057 T10171061
14840KMKG MKG20060205150011102/05/06 15:00:31  5-MIN KMKG 052000Z 33021G25KT 10SM SCT026 OVC031 M02/M06 A2968 860 72 -900 330/21G25 RMK AO2
14840KMKG MKG20060205150512902/05/06 15:05:31  5-MIN KMKG 052005Z 33018G26KT 10SM SCT026 OVC031 M02/M06 A2968 850 72 -900 340/18G26 RMK AO2 PK WND 34026/2002
14840KMKG MKG20060205151012902/05/06 15:10:31  5-MIN KMKG 052010Z 33017G26KT 10SM SCT026 OVC031 M02/M06 A2968 850 72 -900 330/17G26 RMK AO2 PK WND 34026/2002
14840KMKG MKG20060205151512902/05/06 15:15:31  5-MIN KMKG 052015Z 34018G25KT 10SM FEW024 OVC031 M02/M06 A2969 850 72 -900 340/18G25 RMK AO2 PK WND 34026/2002
14840KMKG MKG20060205152012902/05/06 15:20:31  5-MIN KMKG 052020Z 33014G25KT 10SM FEW024 OVC031 M02/M06 A2969 850 72 -900 330/14G25 RMK AO2 PK WND 34026/2002
14840KMKG MKG20060205152512802/05/06 15:25:31  5-MIN KMKG 052025Z 33018G24KT 9SM SCT024 OVC031 M02/M06 A2968 850 72 -900 330/18G24 RMK AO2 PK WND 34026/2002
14840KMKG MKG20060205153012802/05/06 15:30:31  5-MIN KMKG 052030Z 33020G25KT 8SM SCT024 OVC031 M02/M06 A2969 850 72 -900 330/20G25 RMK AO2 PK WND 34026/2002
14840KMKG MKG20060205153514502/05/06 15:35:31  5-MIN KMKG 052035Z 33021G27KT 6SM -SN SCT024 OVC033 M02/M07 A2968 850 72 -1000 330/21G27 RMK AO2 PK WND 32027/2034 SNB33 P0000
14840KMKG MKG20060205154014502/05/06 15:40:31  5-MIN KMKG 052040Z 34019G28KT 7SM -SN FEW024 OVC033 M02/M07 A2970 840 72 -1000 340/19G28 RMK AO2 PK WND 33028/2036 SNB33 P0000
14840KMKG MKG20060205154514502/05/06 15:45:31  5-MIN KMKG 052045Z 34019G28KT 9SM -SN FEW024 OVC033 M02/M07 A2969 840 72 -1000 340/19G28 RMK AO2 PK WND 33028/2036 SNB33 P0000
14840KMKG MKG20060205155017402/05/06 15:50:31  5-MIN KMKG 052050Z 34020G26KT 9SM -SN FEW022 OVC035 M02/M07 A2970 840 72 -1000 340/20G26 RMK AO2 PK WND 33028/2036 SNB33 SLP065 P0000 60000 T10221067 51016
14840KMKG MKG20060205155517402/05/06 15:55:31  5-MIN KMKG 052055Z 33016G26KT 9SM -SN FEW022 OVC035 M02/M07 A2969 840 72 -1000 330/16G26 RMK AO2 PK WND 33028/2036 SNB33 SLP063 P0000 60000 T10221067 51021
14840KMKG MKG20060205160011402/05/06 16:00:31  5-MIN KMKG 052100Z 33021G25KT 8SM -SN OVC035 M02/M07 A2970 840 72 -1000 340/21G25 RMK AO2 P0000
14840KMKG MKG20060205160513202/05/06 16:05:31  5-MIN KMKG 052105Z 33020G27KT 8SM -SN OVC035 M02/M07 A2970 830 72 -1000 340/20G27 RMK AO2 PK WND 34027/2101 P0000
14840KMKG MKG20060205161013202/05/06 16:10:31  5-MIN KMKG 052110Z 33017G27KT 8SM -SN OVC035 M02/M07 A2970 840 72 -1000 330/17G27 RMK AO2 PK WND 34027/2101 P0000
14840KMKG MKG20060205161513202/05/06 16:15:31  5-MIN KMKG 052115Z 33021G28KT 7SM -SN OVC035 M02/M07 A2970 840 72 -1000 330/21G28 RMK AO2 PK WND 33028/2114 P0000
14840KMKG MKG20060205162013902/05/06 16:20:31  5-MIN KMKG 052120Z 33013G28KT 7SM -SN FEW028 OVC037 M02/M07 A2970 830 72 -1000 330/13G28 RMK AO2 PK WND 33028/2114 P0000
14840KMKG MKG20060205162513302/05/06 16:25:31  5-MIN KMKG 052125Z 33015KT 7SM -SN FEW028 OVC037 M02/M07 A2971 830 72 -1000 340/15 RMK AO2 PK WND 33028/2114 P0000
14840KMKG MKG20060205163012602/05/06 16:30:31  5-MIN KMKG 052130Z 33017KT 7SM -SN OVC037 M02/M07 A2971 830 72 -1000 340/17 RMK AO2 PK WND 33028/2114 P0000
14840KMKG MKG20060205163513902/05/06 16:35:31  5-MIN KMKG 052135Z 33019G24KT 8SM -SN FEW025 OVC037 M02/M07 A2971 820 72 -1000 330/19G24 RMK AO2 PK WND 33028/2114 P0000
14840KMKG MKG20060205164013902/05/06 16:40:31  5-MIN KMKG 052140Z 33019G24KT 8SM -SN FEW025 OVC039 M02/M07 A2972 820 72 -1000 330/19G24 RMK AO2 PK WND 33028/2114 P0000
14840KMKG MKG20060205164513902/05/06 16:45:31  5-MIN KMKG 052145Z 33022G28KT 8SM -SN FEW025 OVC039 M02/M07 A2972 820 72 -1000 330/22G28 RMK AO2 PK WND 33028/2144 P0000
14840KMKG MKG20060205165015602/05/06 16:50:31  5-MIN KMKG 052150Z 33016G28KT 9SM -SN FEW025 OVC039 M02/M07 A2972 820 72 -1000 340/16G28 RMK AO2 PK WND 33028/2144 SLP072 P0000 T10221067
14840KMKG MKG20060205165515602/05/06 16:55:31  5-MIN KMKG 052155Z 33020G28KT 9SM -SN FEW025 OVC039 M02/M07 A2972 810 69 -1000 340/20G28 RMK AO2 PK WND 34028/2151 SLP073 P0000 T10221072
14840KMKG MKG20060205170011402/05/06 17:00:31  5-MIN KMKG 052200Z 34018G28KT 9SM -SN OVC039 M02/M07 A2973 810 69 -1000 340/18G28 RMK AO2 P0000
14840KMKG MKG20060205170511402/05/06 17:05:31  5-MIN KMKG 052205Z 34017G25KT 9SM -SN OVC039 M02/M07 A2973 810 69 -1000 340/17G25 RMK AO2 P0000
14840KMKG MKG20060205171010802/05/06 17:10:31  5-MIN KMKG 052210Z 33015KT 9SM -SN OVC039 M02/M07 A2973 810 69 -1000 330/15 RMK AO2 P0000
14840KMKG MKG20060205171513302/05/06 17:15:31  5-MIN KMKG 052215Z 33019G26KT 10SM -SN OVC039 M02/M07 A2973 810 69 -1000 340/19G26 RMK AO2 PK WND 33026/2214 P0000
14840KMKG MKG20060205172013502/05/06 17:20:31  5-MIN KMKG 052220Z 33016G26KT 10SM OVC039 M02/M08 A2973 810 63 -1000 330/16G26 RMK AO2 PK WND 33026/2214 SNE19 P0000
14840KMKG MKG20060205172513502/05/06 17:25:31  5-MIN KMKG 052225Z 33016G25KT 10SM OVC037 M02/M08 A2973 800 66 -1000 340/16G25 RMK AO2 PK WND 33026/2214 SNE19 P0000
14840KMKG MKG20060205173013502/05/06 17:30:31  5-MIN KMKG 052230Z 34019G23KT 10SM OVC035 M02/M08 A2974 800 66 -1000 340/19G23 RMK AO2 PK WND 33026/2214 SNE19 P0000
14840KMKG MKG20060205173513502/05/06 17:35:31  5-MIN KMKG 052235Z 33016G23KT 10SM OVC035 M02/M08 A2974 800 66 -1000 330/16G23 RMK AO2 PK WND 33026/2214 SNE19 P0000
14840KMKG MKG20060205174014202/05/06 17:40:31  5-MIN KMKG 052240Z 33018G23KT 10SM -SN OVC035 M02/M08 A2974 800 66 -1000 340/18G23 RMK AO2 PK WND 33026/2214 SNE19B39 P0000
14840KMKG MKG20060205174514202/05/06 17:45:31  5-MIN KMKG 052245Z 33017G24KT 10SM -SN OVC037 M02/M08 A2974 800 66 -1000 330/17G24 RMK AO2 PK WND 33026/2214 SNE19B39 P0000
14840KMKG MKG20060205175015302/05/06 17:50:31  5-MIN KMKG 052250Z 33017KT 10SM -SN OVC037 M02/M08 A2974 800 66 -1000 340/17 RMK AO2 PK WND 33026/2214 SNE19B39 SLP080 P0000 T10221078
14840KMKG MKG20060205175515302/05/06 17:55:31  5-MIN KMKG 052255Z 34014KT 10SM -SN OVC037 M02/M08 A2974 790 66 -1000 350/14 RMK AO2 PK WND 33026/2214 SNE19B39 SLP080 P0000 T10221078
14840KMKG MKG20060205180011502/05/06 18:00:31  5-MIN KMKG 052300Z 33017G25KT 10SM -SN OVC037 M02/M08 A2974 800 63 -1000 330/17G25 RMK AO2 P0000
14840KMKG MKG20060205180511502/05/06 18:05:31  5-MIN KMKG 052305Z 33017G25KT 10SM -SN OVC037 M02/M08 A2975 790 66 -1000 340/17G25 RMK AO2 P0000
14840KMKG MKG20060205181011502/05/06 18:10:31  5-MIN KMKG 052310Z 32016G24KT 10SM -SN OVC035 M02/M08 A2974 790 66 -1000 320/16G24 RMK AO2 P0000
14840KMKG MKG20060205181511402/05/06 18:15:31  5-MIN KMKG 052315Z 32015G24KT 9SM -SN OVC037 M02/M08 A2975 790 66 -1000 330/15G24 RMK AO2 P0000
14840KMKG MKG20060205182011502/05/06 18:20:31  5-MIN KMKG 052320Z 34013KT 9SM -SN FEW030 OVC040 M02/M07 A2975 780 69 -1000 340/13 RMK AO2 P0000
14840KMKG MKG20060205182511402/05/06 18:25:31  5-MIN KMKG 052325Z 33017G21KT 9SM -SN OVC037 M02/M08 A2976 780 66 -1100 330/17G21 RMK AO2 P0000
14840KMKG MKG20060205183013202/05/06 18:30:31  5-MIN KMKG 052330Z 33022G29KT 9SM -SN OVC037 M02/M08 A2976 780 63 -1100 340/22G29 RMK AO2 PK WND 32029/2330 P0000
14840KMKG MKG20060205183513202/05/06 18:35:31  5-MIN KMKG 052335Z 32014G29KT 9SM -SN OVC039 M02/M08 A2976 780 63 -1100 320/14G29 RMK AO2 PK WND 32029/2330 P0000
14840KMKG MKG20060205184013202/05/06 18:40:31  5-MIN KMKG 052340Z 32016G23KT 9SM -SN OVC039 M02/M08 A2976 780 63 -1100 330/16G23 RMK AO2 PK WND 32029/2330 P0000
14840KMKG MKG20060205184513902/05/06 18:45:31  5-MIN KMKG 052345Z 31015G23KT 9SM -SN FEW030 OVC039 M02/M08 A2976 770 66 -1100 320/15G23 RMK AO2 PK WND 32029/2330 P0000
14840KMKG MKG20060205185018002/05/06 18:50:31  5-MIN KMKG 052350Z 31017G24KT 9SM -SN SCT030 OVC039 M02/M08 A2977 770 66 -1100 310/17G24 RMK AO2 PK WND 32029/2330 SLP087 P0000 60000 T10221078 11011 21022 51021
14840KMKG MKG20060205185518602/05/06 18:55:31  5-MIN KMKG 052355Z 31013G24KT 9SM -SN BKN033 OVC040 M02/M08 A2977 770 66 -1100 320/13G24 RMK AO2 PK WND 32029/2330 SLP088 POOOO 60000 4/001 T10221078 11011 21022 51024
14840KMKG MKG20060205190011402/05/06 19:00:31  5-MIN KMKG 060000Z 31013G22KT 9SM -SN OVC033 M02/M08 A2977 770 63 -1100 310/13G22 RMK AO2 P0000
14840KMKG MKG20060205190511402/05/06 19:05:31  5-MIN KMKG 060005Z 31015G24KT 9SM -SN OVC035 M02/M08 A2977 770 63 -1100 320/15G24 RMK AO2 P0000
14840KMKG MKG20060205191011402/05/06 19:10:31  5-MIN KMKG 060010Z 32016G24KT 9SM -SN OVC035 M02/M08 A2978 760 63 -1100 320/16G24 RMK AO2 P0000
14840KMKG MKG20060205191511402/05/06 19:15:31  5-MIN KMKG 060015Z 33017G22KT 9SM -SN OVC035 M02/M09 A2978 760 60 -1100 330/17G22 RMK AO2 P0000
14840KMKG MKG20060205192011502/05/06 19:20:31  5-MIN KMKG 060020Z 33014G22KT 10SM -SN OVC035 M02/M09 A2979 760 60 -1100 330/14G22 RMK AO2 P0000
14840KMKG MKG20060205192511502/05/06 19:25:31  5-MIN KMKG 060025Z 33015G22KT 10SM -SN OVC035 M02/M09 A2979 750 60 -1100 330/15G22 RMK AO2 P0000
14840KMKG MKG20060205193011502/05/06 19:30:31  5-MIN KMKG 060030Z 32017G22KT 10SM -SN OVC035 M02/M09 A2978 760 60 -1100 330/17G22 RMK AO2 P0000
14840KMKG MKG20060205193511502/05/06 19:35:31  5-MIN KMKG 060035Z 32016G24KT 10SM -SN OVC037 M02/M09 A2978 760 58 -1100 320/16G24 RMK AO2 P0000
14840KMKG MKG20060205194011502/05/06 19:40:31  5-MIN KMKG 060040Z 33016G24KT 10SM -SN OVC039 M02/M09 A2979 760 60 -1100 330/16G24 RMK AO2 P0000
14840KMKG MKG20060205194511702/05/06 19:45:31  5-MIN KMKG 060045Z 33015G23KT 10SM OVC039 M02/M09 A2978 760 58 -1100 330/15G23 RMK AO2 SNE45 P0000
14840KMKG MKG20060205195013202/05/06 19:50:31  5-MIN KMKG 060050Z 33018G23KT 10SM -SN OVC039 M02/M09 A2978 760 60 -1100 330/18G23 RMK AO2 SLP094 P0000 T10221089
14840KMKG MKG20060205195513202/05/06 19:55:31  5-MIN KMKG 060055Z 32015G25KT 10SM -SN OVC041 M02/M09 A2979 750 60 -1100 320/15G25 RMK AO2 SLP095 P0000 T10221089
14840KMKG MKG20060205200013702/05/06 20:00:31  5-MIN KMKG 060100Z 32014G27KT 10SM OVC041 M02/M09 A2979 760 58 -1000 320/14G27 RMK AO2 PK WND 32027/0057 SNE0059 P0000
14840KMKG MKG20060205200514402/05/06 20:05:31  5-MIN KMKG 060105Z 32019G27KT 10SM BKN041 OVC049 M02/M09 A2979 750 55 -1000 320/19G27 RMK AO2 PK WND 32027/0057 SNE0059 P0000
14840KMKG MKG20060205201013702/05/06 20:10:31  5-MIN KMKG 060110Z 32013G23KT 10SM OVC043 M02/M09 A2979 750 55 -1000 320/13G23 RMK AO2 PK WND 32027/0057 SNE0059 P0000
14840KMKG MKG20060205201513702/05/06 20:15:31  5-MIN KMKG 060115Z 32019G23KT 10SM OVC043 M02/M09 A2979 750 55 -1000 330/19G23 RMK AO2 PK WND 32027/0057 SNE0059 P0000
14840KMKG MKG20060205202013702/05/06 20:20:31  5-MIN KMKG 060120Z 33020G23KT 10SM OVC045 M02/M09 A2979 750 55 -1000 340/20G23 RMK AO2 PK WND 32027/0057 SNE0059 P0000
14840KMKG MKG20060205202514402/05/06 20:25:31  5-MIN KMKG 060125Z 33015G23KT 10SM BKN043 OVC050 M02/M09 A2979 750 55 -1000 330/15G23 RMK AO2 PK WND 32027/0057 SNE0059 P0000
14840KMKG MKG20060205203013702/05/06 20:30:31  5-MIN KMKG 060130Z 32013G23KT 10SM OVC045 M02/M09 A2980 740 55 -1000 320/13G23 RMK AO2 PK WND 32027/0057 SNE0059 P0000
14840KMKG MKG20060205203513702/05/06 20:35:31  5-MIN KMKG 060135Z 32016G23KT 10SM OVC045 M02/M09 A2980 750 55 -1000 330/16G23 RMK AO2 PK WND 32027/0057 SNE0059 P0000
14840KMKG MKG20060205204013702/05/06 20:40:31  5-MIN KMKG 060140Z 32016G24KT 10SM BKN045 M02/M10 A2979 750 53 -1000 320/16G24 RMK AO2 PK WND 32027/0057 SNE0059 P0000
14840KMKG MKG20060205204513702/05/06 20:45:31  5-MIN KMKG 060145Z 33014G24KT 10SM BKN045 M02/M10 A2979 750 53 -1000 330/14G24 RMK AO2 PK WND 32027/0057 SNE0059 P0000
14840KMKG MKG20060205205015402/05/06 20:50:31  5-MIN KMKG 060150Z 32010G23KT 10SM BKN045 M02/M09 A2980 750 55 -1000 330/10G23 RMK AO2 PK WND 32027/0057 SNE0059 SLP098 P0000 T10171094
14840KMKG MKG20060205205515402/05/06 20:55:31  5-MIN KMKG 060155Z 33013G19KT 10SM BKN047 M02/M09 A2980 750 55 -1000 330/13G19 RMK AO2 PK WND 32027/0057 SNE0059 SLP098 P0000 T10171094
14840KMKG MKG20060205210010502/05/06 21:00:31  5-MIN KMKG 060200Z 32021G25KT 10SM OVC047 M02/M09 A2979 750 58 -1000 320/21G25 RMK AO2
14840KMKG MKG20060205210511202/05/06 21:05:31  5-MIN KMKG 060205Z 32018G25KT 10SM BKN042 BKN047 M02/M10 A2979 750 53 -1000 320/18G25 RMK AO2
14840KMKG MKG20060205211011202/05/06 21:10:31  5-MIN KMKG 060210Z 33017G24KT 10SM BKN045 BKN050 M02/M10 A2979 750 53 -1000 330/17G24 RMK AO2
14840KMKG MKG20060205211511202/05/06 21:15:31  5-MIN KMKG 060215Z 32018G23KT 10SM BKN045 BKN050 M02/M11 A2979 750 51 -1000 320/18G23 RMK AO2
14840KMKG MKG20060205212011202/05/06 21:20:31  5-MIN KMKG 060220Z 32016G23KT 10SM BKN045 BKN050 M02/M11 A2980 740 51 -1000 330/16G23 RMK AO2
14840KMKG MKG20060205212510602/05/06 21:25:31  5-MIN KMKG 060225Z 32017KT 10SM BKN045 BKN050 M02/M11 A2980 740 51 -1000 330/17 RMK AO2
14840KMKG MKG20060205213011202/05/06 21:30:31  5-MIN KMKG 060230Z 33019G25KT 10SM BKN045 BKN050 M02/M11 A2980 750 51 -1000 330/19G25 RMK AO2
14840KMKG MKG20060205213511202/05/06 21:35:31  5-MIN KMKG 060235Z 33017G25KT 10SM BKN045 BKN050 M02/M11 A2980 750 51 -1000 340/17G25 RMK AO2
14840KMKG MKG20060205214010602/05/06 21:40:31  5-MIN KMKG 060240Z 33017KT 10SM BKN045 BKN050 M02/M10 A2979 750 53 -1000 340/17 RMK AO2
14840KMKG MKG20060205214511202/05/06 21:45:31  5-MIN KMKG 060245Z 32014G21KT 10SM BKN045 BKN050 M02/M09 A2979 750 55 -1000 320/14G21 RMK AO2
14840KMKG MKG20060205215015202/05/06 21:50:31  5-MIN KMKG 060250Z 32015G26KT 10SM OVC045 M02/M10 A2979 750 53 -1000 320/15G26 RMK AO2 PK WND 32026/0247 SLP096 60000 T10171100 51024
14840KMKG MKG20060205215515902/05/06 21:55:31  5-MIN KMKG 060255Z 32017G26KT 10SM BKN045 BKN050 M02/M10 A2979 750 53 -1000 330/17G26 RMK AO2 PK WND 32026/0247 SLP097 60000 T10171100 50009
14840KMKG MKG20060205220011202/05/06 22:00:31  5-MIN KMKG 060300Z 33018G25KT 10SM BKN045 BKN050 M02/M11 A2980 740 53 -1100 330/18G25 RMK AO2
14840KMKG MKG20060205220511202/05/06 22:05:31  5-MIN KMKG 060305Z 33018G25KT 10SM BKN045 BKN050 M02/M11 A2980 740 53 -1100 330/18G25 RMK AO2
14840KMKG MKG20060205221010502/05/06 22:10:31  5-MIN KMKG 060310Z 33014G24KT 10SM BKN047 M02/M11 A2980 740 53 -1100 330/14G24 RMK AO2
14840KMKG MKG20060205221512102/05/06 22:15:31  5-MIN KMKG 060315Z 33016G25KT 10SM -SN BKN047 M02/M11 A2980 740 53 -1100 340/16G25 RMK AO2 SNB14 P0000
14840KMKG MKG20060205222012002/05/06 22:20:31  5-MIN KMKG 060320Z 32015G25KT 9SM -SN BKN047 M02/M10 A2980 740 55 -1100 320/15G25 RMK AO2 SNB14 P0000
14840KMKG MKG20060205222512002/05/06 22:25:31  5-MIN KMKG 060325Z 31016G20KT 9SM -SN BKN047 M02/M11 A2980 740 53 -1100 310/16G20 RMK AO2 SNB14 P0000
14840KMKG MKG20060205223012002/05/06 22:30:31  5-MIN KMKG 060330Z 31015G24KT 9SM -SN BKN047 M02/M11 A2980 740 51 -1100 320/15G24 RMK AO2 SNB14 P0000
14840KMKG MKG20060205223512002/05/06 22:35:31  5-MIN KMKG 060335Z 32015G24KT 9SM -SN BKN047 M02/M11 A2980 740 53 -1100 320/15G24 RMK AO2 SNB14 P0000
14840KMKG MKG20060205224012002/05/06 22:40:31  5-MIN KMKG 060340Z 32014G21KT 9SM -SN BKN047 M02/M11 A2980 740 53 -1100 320/14G21 RMK AO2 SNB14 P0000
14840KMKG MKG20060205224511902/05/06 22:45:31  5-MIN KMKG 060345Z 31016G21KT 9SM OVC048 M02/M10 A2980 740 55 -1100 320/16G21 RMK AO2 SNB14E41 P0000
14840KMKG MKG20060205225013702/05/06 22:50:31  5-MIN KMKG 060350Z 32014G23KT 10SM OVC048 M02/M10 A2980 740 55 -1100 320/14G23 RMK AO2 SNB14E41 SLP098 P0000 T10221100
14840KMKG MKG20060205225513702/05/06 22:55:31  5-MIN KMKG 060355Z 31015G23KT 10SM OVC048 M02/M10 A2980 740 55 -1100 320/15G23 RMK AO2 SNB14E41 SLP100 P0000 T10221100
14840KMKG MKG20060205230012302/05/06 23:00:31  5-MIN KMKG 060400Z 32020G27KT 10SM OVC048 M02/M10 A2980 740 55 -1100 320/20G27 RMK AO2 PK WND 33027/0359
14840KMKG MKG20060205230512302/05/06 23:05:31  5-MIN KMKG 060405Z 33020G27KT 10SM BKN048 M02/M10 A2981 740 55 -1100 330/20G27 RMK AO2 PK WND 33027/0359
14840KMKG MKG20060205231012302/05/06 23:10:31  5-MIN KMKG 060410Z 32015G24KT 10SM BKN048 M02/M10 A2980 740 55 -1100 330/15G24 RMK AO2 PK WND 33027/0359
14840KMKG MKG20060205231512302/05/06 23:15:31  5-MIN KMKG 060415Z 32015G22KT 10SM BKN048 M02/M10 A2980 740 55 -1100 320/15G22 RMK AO2 PK WND 33027/0359
14840KMKG MKG20060205232012302/05/06 23:20:31  5-MIN KMKG 060420Z 32018G25KT 10SM BKN045 M02/M10 A2980 740 55 -1100 330/18G25 RMK AO2 PK WND 33027/0359
14840KMKG MKG20060205232512302/05/06 23:25:31  5-MIN KMKG 060425Z 32012G26KT 10SM BKN045 M03/M11 A2981 730 55 -1200 320/12G26 RMK AO2 PK WND 33027/0359
14840KMKG MKG20060205233012302/05/06 23:30:31  5-MIN KMKG 060430Z 31015G26KT 10SM BKN045 M03/M11 A2980 740 55 -1200 310/15G26 RMK AO2 PK WND 33027/0359
14840KMKG MKG20060205233512302/05/06 23:35:31  5-MIN KMKG 060435Z 31016G23KT 10SM BKN045 M03/M11 A2981 740 53 -1200 320/16G23 RMK AO2 PK WND 33027/0359
14840KMKG MKG20060205234012302/05/06 23:40:31  5-MIN KMKG 060440Z 32015G22KT 10SM BKN045 M03/M11 A2981 740 53 -1200 330/15G22 RMK AO2 PK WND 33027/0359
14840KMKG MKG20060205234512302/05/06 23:45:31  5-MIN KMKG 060445Z 32017G26KT 10SM BKN045 M03/M11 A2981 730 55 -1200 320/17G26 RMK AO2 PK WND 33027/0359
14840KMKG MKG20060205235015002/05/06 23:50:31  5-MIN KMKG 060450Z 32016G26KT 10SM BKN045 M03/M11 A2980 740 55 -1200 320/16G26 RMK AO2 PK WND 33027/0359 SLP100 T10281106 400001028
14840KMKG MKG20060205235515002/05/06 23:55:31  5-MIN KMKG 060455Z 32018G23KT 10SM BKN045 M03/M11 A2981 730 55 -1300 320/18G23 RMK AO2 PK WND 33027/0359 SLP103 T10331111 400001033
14840KMKG MKG20060206000010502/06/06 00:00:32  5-MIN KMKG 060500Z 32017G24KT 10SM OVC043 M03/M12 A2982 730 53 -1300 320/17G24 RMK AO2
14840KMKG MKG20060206000510502/06/06 00:05:31  5-MIN KMKG 060505Z 32014G24KT 10SM OVC043 M03/M11 A2982 720 55 -1300 320/14G24 RMK AO2
14840KMKG MKG20060206001010502/06/06 00:10:31  5-MIN KMKG 060510Z 33014G18KT 10SM OVC043 M03/M11 A2982 720 55 -1300 330/14G18 RMK AO2
14840KMKG MKG20060206001510502/06/06 00:15:31  5-MIN KMKG 060515Z 32018G22KT 10SM OVC043 M03/M11 A2982 720 55 -1300 320/18G22 RMK AO2
14840KMKG MKG20060206002010502/06/06 00:20:31  5-MIN KMKG 060520Z 32017G24KT 10SM OVC043 M03/M11 A2982 720 55 -1300 320/17G24 RMK AO2
14840KMKG MKG20060206002510502/06/06 00:25:31  5-MIN KMKG 060525Z 32017G24KT 10SM OVC045 M03/M12 A2982 720 53 -1300 320/17G24 RMK AO2
14840KMKG MKG20060206003010502/06/06 00:30:31  5-MIN KMKG 060530Z 31017G24KT 10SM OVC045 M03/M12 A2982 720 53 -1300 320/17G24 RMK AO2
14840KMKG MKG20060206003510502/06/06 00:35:31  5-MIN KMKG 060535Z 31015G22KT 10SM OVC043 M03/M11 A2982 730 55 -1300 310/15G22 RMK AO2
14840KMKG MKG20060206004010502/06/06 00:40:31  5-MIN KMKG 060540Z 31015G22KT 10SM OVC043 M03/M11 A2982 720 55 -1300 310/15G22 RMK AO2
14840KMKG MKG20060206004510502/06/06 00:45:31  5-MIN KMKG 060545Z 32014G21KT 10SM OVC043 M03/M12 A2982 720 53 -1300 320/14G21 RMK AO2
14840KMKG MKG20060206005014602/06/06 00:50:31  5-MIN KMKG 060550Z 31014G21KT 10SM BKN043 M03/M12 A2982 720 53 -1300 320/14G21 RMK AO2 SLP106 60000 T10331117 11017 21033 50009
14840KMKG MKG20060206005515202/06/06 00:55:31  5-MIN KMKG 060555Z 31014G20KT 10SM BKN043 M03/M12 A2982 730 53 -1300 310/14G20 RMK AO2 SLP105 60000 4/001 T10331117 11017 21033 51007
14840KMKG MKG20060206010010502/06/06 01:00:31  5-MIN KMKG 060600Z 32017G25KT 10SM BKN041 M03/M12 A2982 720 53 -1300 320/17G25 RMK AO2
14840KMKG MKG20060206010510502/06/06 01:05:31  5-MIN KMKG 060605Z 32013G25KT 10SM BKN041 M03/M12 A2982 730 53 -1300 330/13G25 RMK AO2
14840KMKG MKG20060206011010502/06/06 01:10:31  5-MIN KMKG 060610Z 31015G20KT 10SM BKN041 M03/M12 A2982 720 53 -1300 320/15G20 RMK AO2
14840KMKG MKG20060206011509902/06/06 01:15:31  5-MIN KMKG 060615Z 30016KT 10SM BKN043 M03/M12 A2982 730 53 -1300 310/16 RMK AO2
14840KMKG MKG20060206012009902/06/06 01:20:31  5-MIN KMKG 060620Z 31014KT 10SM OVC043 M03/M12 A2982 730 53 -1300 310/14 RMK AO2
14840KMKG MKG20060206012510502/06/06 01:25:31  5-MIN KMKG 060625Z 32015G20KT 10SM OVC043 M03/M11 A2982 730 55 -1300 320/15G20 RMK AO2
14840KMKG MKG20060206013010502/06/06 01:30:31  5-MIN KMKG 060630Z 30012G20KT 10SM OVC043 M03/M11 A2982 720 55 -1300 310/12G20 RMK AO2
14840KMKG MKG20060206013510502/06/06 01:35:31  5-MIN KMKG 060635Z 30013G20KT 10SM OVC041 M03/M11 A2982 730 55 -1300 310/13G20 RMK AO2
14840KMKG MKG20060206014010502/06/06 01:40:31  5-MIN KMKG 060640Z 32015G22KT 10SM OVC043 M03/M11 A2982 730 55 -1300 320/15G22 RMK AO2
14840KMKG MKG20060206014510502/06/06 01:45:31  5-MIN KMKG 060645Z 31013G22KT 10SM OVC043 M03/M11 A2981 730 55 -1300 320/13G22 RMK AO2
14840KMKG MKG20060206015012202/06/06 01:50:31  5-MIN KMKG 060650Z 32011G21KT 10SM OVC043 M03/M11 A2982 730 55 -1300 320/11G21 RMK AO2 SLP105 T10331111
14840KMKG MKG20060206015512202/06/06 01:55:31  5-MIN KMKG 060655Z 31013G21KT 10SM OVC041 M03/M11 A2981 730 57 -1300 310/13G21 RMK AO2 SLP104 T10331106
14840KMKG MKG20060206020012302/06/06 02:00:31  5-MIN KMKG 060700Z 32018G28KT 10SM OVC041 M03/M11 A2982 730 55 -1300 330/18G28 RMK AO2 PK WND 34028/0658
14840KMKG MKG20060206020512302/06/06 02:05:31  5-MIN KMKG 060705Z 32017G28KT 10SM OVC041 M03/M11 A2981 730 55 -1300 320/17G28 RMK AO2 PK WND 34028/0658
14840KMKG MKG20060206021012302/06/06 02:10:31  5-MIN KMKG 060710Z 32013G22KT 10SM OVC041 M03/M12 A2982 720 53 -1300 330/13G22 RMK AO2 PK WND 34028/0658
14840KMKG MKG20060206021511702/06/06 02:15:31  5-MIN KMKG 060715Z 32011KT 10SM OVC041 M03/M11 A2982 720 57 -1300 320/11 RMK AO2 PK WND 34028/0658
14840KMKG MKG20060206022012302/06/06 02:20:31  5-MIN KMKG 060720Z 32014G20KT 10SM OVC039 M03/M11 A2982 730 57 -1300 330/14G20 RMK AO2 PK WND 34028/0658
14840KMKG MKG20060206022512302/06/06 02:25:31  5-MIN KMKG 060725Z 31012G20KT 10SM OVC039 M03/M11 A2981 730 57 -1300 320/12G20 RMK AO2 PK WND 34028/0658
14840KMKG MKG20060206023012302/06/06 02:30:31  5-MIN KMKG 060730Z 32011G19KT 10SM OVC039 M03/M11 A2981 730 57 -1300 320/11G19 RMK AO2 PK WND 34028/0658
14840KMKG MKG20060206023512302/06/06 02:35:31  5-MIN KMKG 060735Z 32014G21KT 10SM OVC037 M03/M11 A2981 730 57 -1300 320/14G21 RMK AO2 PK WND 34028/0658
14840KMKG MKG20060206024012302/06/06 02:40:31  5-MIN KMKG 060740Z 31015G25KT 10SM OVC037 M03/M11 A2981 730 55 -1300 310/15G25 RMK AO2 PK WND 34028/0658
14840KMKG MKG20060206024512302/06/06 02:45:31  5-MIN KMKG 060745Z 31017G25KT 10SM OVC039 M03/M11 A2981 730 55 -1300 310/17G25 RMK AO2 PK WND 34028/0658
14840KMKG MKG20060206025014002/06/06 02:50:31  5-MIN KMKG 060750Z 31014G22KT 10SM OVC039 M03/M11 A2981 730 55 -1300 310/14G22 RMK AO2 PK WND 34028/0658 SLP103 T10331111
14840KMKG MKG20060206025514002/06/06 02:55:31  5-MIN KMKG 060755Z 30014G20KT 10SM OVC037 M03/M11 A2982 730 57 -1300 310/14G20 RMK AO2 PK WND 34028/0658 SLP105 T10331106
14840KMKG MKG20060206030010502/06/06 03:00:31  5-MIN KMKG 060800Z 30012G20KT 10SM OVC037 M03/M11 A2981 730 57 -1300 300/12G20 RMK AO2
14840KMKG MKG20060206030510502/06/06 03:05:31  5-MIN KMKG 060805Z 31014G21KT 10SM OVC037 M03/M11 A2982 730 57 -1300 310/14G21 RMK AO2
14840KMKG MKG20060206031010502/06/06 03:10:31  5-MIN KMKG 060810Z 30014G21KT 10SM OVC037 M03/M11 A2981 730 57 -1300 310/14G21 RMK AO2
14840KMKG MKG20060206031510502/06/06 03:15:31  5-MIN KMKG 060815Z 31017G24KT 10SM OVC037 M03/M11 A2981 730 57 -1300 310/17G24 RMK AO2
14840KMKG MKG20060206032010502/06/06 03:20:31  5-MIN KMKG 060820Z 31018G24KT 10SM OVC037 M03/M11 A2982 730 57 -1300 310/18G24 RMK AO2
14840KMKG MKG20060206032510502/06/06 03:25:31  5-MIN KMKG 060825Z 31016G22KT 10SM OVC037 M03/M11 A2982 730 57 -1300 310/16G22 RMK AO2
14840KMKG MKG20060206033010502/06/06 03:30:31  5-MIN KMKG 060830Z 32014G24KT 10SM OVC037 M03/M11 A2982 730 57 -1300 320/14G24 RMK AO2
14840KMKG MKG20060206033510502/06/06 03:35:31  5-MIN KMKG 060835Z 31017G25KT 10SM OVC037 M03/M11 A2982 730 57 -1300 310/17G25 RMK AO2
14840KMKG MKG20060206034010502/06/06 03:40:31  5-MIN KMKG 060840Z 32016G25KT 10SM OVC037 M03/M11 A2982 720 57 -1300 330/16G25 RMK AO2
14840KMKG MKG20060206034510502/06/06 03:45:31  5-MIN KMKG 060845Z 32013G20KT 10SM OVC037 M03/M11 A2982 720 57 -1300 320/13G20 RMK AO2
14840KMKG MKG20060206035012802/06/06 03:50:31  5-MIN KMKG 060850Z 31015G22KT 10SM OVC037 M04/M11 A2982 720 60 -1300 320/15G22 RMK AO2 SLP106 T10391106 51007
14840KMKG MKG20060206035512802/06/06 03:55:31  5-MIN KMKG 060855Z 32019G23KT 10SM OVC037 M03/M11 A2982 720 57 -1300 330/19G23 RMK AO2 SLP107 T10331106 53002
14840KMKG MKG20060206040010502/06/06 04:00:31  5-MIN KMKG 060900Z 32014G23KT 10SM OVC037 M03/M11 A2982 720 57 -1300 320/14G23 RMK AO2
14840KMKG MKG20060206141008502/06/06 14:10:31  5-MIN KMKG 061910Z AUTO M M M M /M RMK AO2 PWINO FZRANO TSNO PNO $
14840KMKG MKG20060206143506202/06/06 14:35:31  5-MIN KMKG 061935Z M M M M /M RMK AO2 PNO $
14840KMKG MKG20060206144011902/06/06 14:40:31  5-MIN KMKG 061940Z 31015G20KT M03/M08 A2994 610 68 -1400 310/15G20 RMK AO2 CHINO RWY 14 VISNO RWY 14
14840KMKG MKG20060206144511102/06/06 14:45:31  5-MIN KMKG 061945Z 31013G20KT 10SM M04/M08 A2994 610 71 -1500 320/13G20 RMK AO2 CHINO RWY 14
14840KMKG MKG20060206145012702/06/06 14:50:31  5-MIN KMKG 061950Z 31014G20KT 10SM M04/M08 A2994 610 71 -1500 310/14G20 RMK AO2 SLPNO T10391083 CHINO RWY 14
14840KMKG MKG20060206145512102/06/06 14:55:31  5-MIN KMKG 061955Z 30012G18KT 10SM OVC023 M03/M08 A2994 610 68 -1400 310/12G18 RMK AO2 SLPNO T10331083
14840KMKG MKG20060206150011102/06/06 15:00:31  5-MIN KMKG 062000Z 30011G18KT 10SM M03/M08 A2994 610 68 -1400 310/11G18 RMK AO2 CHINO RWY 14
14840KMKG MKG20060206150509902/06/06 15:05:31  5-MIN KMKG 062005Z 30012KT 10SM OVC023 M03/M08 A2994 610 68 -1400 300/12 RMK AO2
14840KMKG MKG20060206151009902/06/06 15:10:31  5-MIN KMKG 062010Z 30011KT 10SM OVC023 M03/M08 A2994 610 68 -1400 300/11 RMK AO2
14840KMKG MKG20060206151511502/06/06 15:15:31  5-MIN KMKG 062015Z AUTO 30013G17KT 10SM OVC023 M03/M08 A2995 610 68 -1400 300/13G17 RMK AO2 TSNO
14840KMKG MKG20060206152011502/06/06 15:20:31  5-MIN KMKG 062020Z AUTO 31011G17KT 10SM OVC023 M03/M08 A2995 600 68 -1400 310/11G17 RMK AO2 TSNO
14840KMKG MKG20060206152511502/06/06 15:25:31  5-MIN KMKG 062025Z AUTO 31012G17KT 10SM OVC023 M03/M08 A2995 600 68 -1400 310/12G17 RMK AO2 TSNO
14840KMKG MKG20060206153009902/06/06 15:30:31  5-MIN KMKG 062030Z 30012KT 10SM OVC023 M03/M08 A2995 600 68 -1400 300/12 RMK AO2
14840KMKG MKG20060206153509902/06/06 15:35:31  5-MIN KMKG 062035Z 30009KT 10SM OVC023 M03/M08 A2995 600 68 -1400 310/09 RMK AO2
14840KMKG MKG20060206154009902/06/06 15:40:31  5-MIN KMKG 062040Z 29011KT 10SM OVC023 M03/M08 A2995 600 68 -1400 300/11 RMK AO2
14840KMKG MKG20060206154509902/06/06 15:45:31  5-MIN KMKG 062045Z 31009KT 10SM OVC023 M03/M08 A2995 600 68 -1400 310/09 RMK AO2
14840KMKG MKG20060206155012702/06/06 15:50:31  5-MIN KMKG 062050Z 30013G18KT 10SM OVC023 M03/M08 A2996 600 68 -1400 300/13G18 RMK AO2 SLPNO 6//// T10331083
14840KMKG MKG20060206155512102/06/06 15:55:31  5-MIN KMKG 062055Z 31011G18KT 10SM OVC023 M03/M08 A2996 600 68 -1400 310/11G18 RMK AO2 SLPNO T10331083
14840KMKG MKG20060206160009902/06/06 16:00:31  5-MIN KMKG 062100Z 31012KT 10SM OVC023 M03/M08 A2996 590 68 -1400 310/12 RMK AO2
14840KMKG MKG20060206160509902/06/06 16:05:31  5-MIN KMKG 062105Z 31013KT 10SM OVC023 M03/M08 A2996 590 68 -1400 310/13 RMK AO2
14840KMKG MKG20060206161009902/06/06 16:10:31  5-MIN KMKG 062110Z 31012KT 10SM OVC023 M03/M08 A2996 590 68 -1400 310/12 RMK AO2
14840KMKG MKG20060206161509902/06/06 16:15:31  5-MIN KMKG 062115Z 30013KT 10SM OVC023 M03/M08 A2996 590 68 -1400 300/13 RMK AO2
14840KMKG MKG20060206162010502/06/06 16:20:31  5-MIN KMKG 062120Z 30011G19KT 10SM OVC023 M03/M08 A2996 590 68 -1400 310/11G19 RMK AO2
14840KMKG MKG20060206162510502/06/06 16:25:31  5-MIN KMKG 062125Z 31012G19KT 10SM OVC023 M03/M08 A2996 590 68 -1400 320/12G19 RMK AO2
14840KMKG MKG20060206163009902/06/06 16:30:31  5-MIN KMKG 062130Z 31011KT 10SM OVC023 M03/M08 A2996 590 71 -1400 310/11 RMK AO2
14840KMKG MKG20060206163509902/06/06 16:35:31  5-MIN KMKG 062135Z 31010KT 10SM OVC023 M03/M08 A2996 590 68 -1400 310/10 RMK AO2
14840KMKG MKG20060206164009902/06/06 16:40:31  5-MIN KMKG 062140Z 31010KT 10SM OVC023 M03/M08 A2997 590 68 -1400 320/10 RMK AO2
14840KMKG MKG20060206164509902/06/06 16:45:31  5-MIN KMKG 062145Z 30010KT 10SM OVC023 M03/M08 A2997 590 68 -1400 300/10 RMK AO2
14840KMKG MKG20060206165011502/06/06 16:50:31  5-MIN KMKG 062150Z 32009KT 10SM OVC023 M03/M08 A2997 580 68 -1400 330/09 RMK AO2 SLPNO T10281078
14840KMKG MKG20060206165511502/06/06 16:55:31  5-MIN KMKG 062155Z 30008KT 10SM OVC023 M03/M08 A2997 580 68 -1400 310/08 RMK AO2 SLPNO T10281078
14840KMKG MKG20060206170009902/06/06 17:00:31  5-MIN KMKG 062200Z 30011KT 10SM OVC023 M03/M08 A2997 580 68 -1400 310/11 RMK AO2
14840KMKG MKG20060206170509902/06/06 17:05:31  5-MIN KMKG 062205Z 31009KT 10SM OVC023 M03/M08 A2998 580 68 -1400 310/09 RMK AO2
14840KMKG MKG20060206171009902/06/06 17:10:31  5-MIN KMKG 062210Z 33010KT 10SM OVC023 M03/M08 A2998 580 68 -1400 330/10 RMK AO2
14840KMKG MKG20060206171509902/06/06 17:15:31  5-MIN KMKG 062215Z 33011KT 10SM OVC025 M03/M08 A2998 580 68 -1400 330/11 RMK AO2
14840KMKG MKG20060206172009902/06/06 17:20:31  5-MIN KMKG 062220Z 32011KT 10SM OVC025 M03/M08 A2998 580 68 -1400 320/11 RMK AO2
14840KMKG MKG20060206172510502/06/06 17:25:31  5-MIN KMKG 062225Z 31012G15KT 10SM OVC025 M03/M08 A2998 580 68 -1400 310/12G15 RMK AO2
14840KMKG MKG20060206173009902/06/06 17:30:31  5-MIN KMKG 062230Z 33014KT 10SM OVC025 M03/M08 A2998 580 68 -1400 330/14 RMK AO2
14840KMKG MKG20060206173509902/06/06 17:35:31  5-MIN KMKG 062235Z 31011KT 10SM OVC025 M03/M08 A2998 580 66 -1400 320/11 RMK AO2
14840KMKG MKG20060206174009902/06/06 17:40:31  5-MIN KMKG 062240Z 31009KT 10SM OVC027 M03/M08 A2998 570 68 -1400 310/09 RMK AO2
14840KMKG MKG20060206174509902/06/06 17:45:31  5-MIN KMKG 062245Z 32008KT 10SM OVC027 M03/M08 A2998 570 68 -1400 330/08 RMK AO2
14840KMKG MKG20060206175011502/06/06 17:50:31  5-MIN KMKG 062250Z 31009KT 10SM OVC027 M03/M08 A2998 570 68 -1400 320/09 RMK AO2 SLPNO T10281078
14840KMKG MKG20060206175511502/06/06 17:55:31  5-MIN KMKG 062255Z 32011KT 10SM BKN027 M02/M08 A2998 570 63 -1300 330/11 RMK AO2 SLPNO T10221083
14840KMKG MKG20060206180010502/06/06 18:00:31  5-MIN KMKG 062300Z 31010G18KT 10SM OVC029 M02/M08 A2999 570 63 -1300 310/10G18 RMK AO2
14840KMKG MKG20060206180510502/06/06 18:05:31  5-MIN KMKG 062305Z 30013G18KT 10SM OVC029 M02/M08 A2999 570 63 -1300 310/13G18 RMK AO2
14840KMKG MKG20060206181010502/06/06 18:10:31  5-MIN KMKG 062310Z 31008G17KT 10SM OVC029 M02/M08 A2999 570 63 -1300 320/08G17 RMK AO2
14840KMKG MKG20060206181509902/06/06 18:15:31  5-MIN KMKG 062315Z 32009KT 10SM OVC029 M02/M08 A2999 570 63 -1300 330/09 RMK AO2
14840KMKG MKG20060206182009902/06/06 18:20:31  5-MIN KMKG 062320Z 32009KT 10SM OVC029 M02/M08 A2999 570 63 -1300 320/09 RMK AO2
14840KMKG MKG20060206182510502/06/06 18:25:31  5-MIN KMKG 062325Z 32010G15KT 10SM OVC029 M02/M08 A2999 570 63 -1300 320/10G15 RMK AO2
14840KMKG MKG20060206183010502/06/06 18:30:31  5-MIN KMKG 062330Z 31013G18KT 10SM OVC031 M02/M08 A2999 560 63 -1300 320/13G18 RMK AO2
14840KMKG MKG20060206183510502/06/06 18:35:31  5-MIN KMKG 062335Z 31008G19KT 10SM OVC031 M02/M08 A2999 560 63 -1300 320/08G19 RMK AO2
14840KMKG MKG20060206184010502/06/06 18:40:31  5-MIN KMKG 062340Z 32009G19KT 10SM OVC031 M02/M08 A3000 560 63 -1300 320/09G19 RMK AO2
14840KMKG MKG20060206184509902/06/06 18:45:31  5-MIN KMKG 062345Z 31010KT 10SM OVC031 M02/M08 A3000 560 63 -1300 310/10 RMK AO2
14840KMKG MKG20060206185011502/06/06 18:50:31  5-MIN KMKG 062350Z 31011KT 10SM OVC031 M02/M08 A3000 560 63 -1300 320/11 RMK AO2 SLPNO T10221083
14840KMKG MKG20060206185512702/06/06 18:55:31  5-MIN KMKG 062355Z 31009G16KT 10SM OVC031 M02/M08 A3000 560 63 -1300 310/09G16 RMK AO2 SLPNO T10221083 51014
14840KMKG MKG20060206190010502/06/06 19:00:31  5-MIN KMKG 070000Z 33011G16KT 10SM OVC031 M02/M08 A3000 560 63 -1300 330/11G16 RMK AO2
14840KMKG MKG20060206190510502/06/06 19:05:31  5-MIN KMKG 070005Z 32014G19KT 10SM OVC031 M02/M08 A3000 560 63 -1300 320/14G19 RMK AO2
14840KMKG MKG20060206191010502/06/06 19:10:31  5-MIN KMKG 070010Z 31011G19KT 10SM OVC033 M02/M08 A3000 550 63 -1300 320/11G19 RMK AO2
14840KMKG MKG20060206191509902/06/06 19:15:31  5-MIN KMKG 070015Z 32011KT 10SM OVC033 M02/M08 A3001 550 60 -1300 330/11 RMK AO2
14840KMKG MKG20060206192010502/06/06 19:20:31  5-MIN KMKG 070020Z 32010G16KT 10SM OVC033 M02/M08 A3001 550 60 -1300 320/10G16 RMK AO2
14840KMKG MKG20060206192510502/06/06 19:25:31  5-MIN KMKG 070025Z 32011G16KT 10SM OVC033 M02/M08 A3001 550 60 -1300 320/11G16 RMK AO2
14840KMKG MKG20060206193010502/06/06 19:30:31  5-MIN KMKG 070030Z 32010G16KT 10SM OVC033 M02/M08 A3001 550 60 -1300 330/10G16 RMK AO2
14840KMKG MKG20060206193509902/06/06 19:35:31  5-MIN KMKG 070035Z 31009KT 10SM OVC033 M02/M08 A3001 550 60 -1300 320/09 RMK AO2
14840KMKG MKG20060206194010502/06/06 19:40:31  5-MIN KMKG 070040Z 31012G17KT 10SM OVC035 M02/M08 A3001 550 60 -1300 310/12G17 RMK AO2
14840KMKG MKG20060206194510502/06/06 19:45:31  5-MIN KMKG 070045Z 31009G17KT 10SM OVC035 M02/M08 A3001 550 60 -1300 310/09G17 RMK AO2
14840KMKG MKG20060206195011502/06/06 19:50:31  5-MIN KMKG 070050Z 32009KT 10SM OVC033 M02/M08 A3001 540 60 -1300 330/09 RMK AO2 SLPNO T10171083
14840KMKG MKG20060206195512102/06/06 19:55:31  5-MIN KMKG 070055Z 31011G17KT 10SM OVC035 M02/M08 A3001 540 60 -1300 320/11G17 RMK AO2 SLPNO T10171083
14840KMKG MKG20060206200010502/06/06 20:00:31  5-MIN KMKG 070100Z 32009G17KT 10SM OVC035 M02/M08 A3002 540 60 -1300 320/09G17 RMK AO2
14840KMKG MKG20060206200510502/06/06 20:05:31  5-MIN KMKG 070105Z 32014G17KT 10SM OVC035 M02/M08 A3002 540 60 -1300 320/14G17 RMK AO2
14840KMKG MKG20060206201009902/06/06 20:10:31  5-MIN KMKG 070110Z 33013KT 10SM OVC035 M02/M08 A3002 540 60 -1300 330/13 RMK AO2
14840KMKG MKG20060206201509902/06/06 20:15:31  5-MIN KMKG 070115Z 33013KT 10SM OVC035 M02/M08 A3002 540 60 -1300 330/13 RMK AO2
14840KMKG MKG20060206202009902/06/06 20:20:31  5-MIN KMKG 070120Z 32009KT 10SM OVC035 M02/M08 A3002 540 60 -1300 320/09 RMK AO2
14840KMKG MKG20060206202509902/06/06 20:25:31  5-MIN KMKG 070125Z 32010KT 10SM OVC035 M02/M08 A3002 540 60 -1300 320/10 RMK AO2
14840KMKG MKG20060206203009902/06/06 20:30:31  5-MIN KMKG 070130Z 31011KT 10SM OVC035 M02/M08 A3002 540 60 -1300 310/11 RMK AO2
14840KMKG MKG20060206203510502/06/06 20:35:31  5-MIN KMKG 070135Z 31014G17KT 10SM OVC035 M02/M08 A3002 540 60 -1300 310/14G17 RMK AO2
14840KMKG MKG20060206204009902/06/06 20:40:31  5-MIN KMKG 070140Z 31012KT 10SM OVC035 M02/M08 A3002 540 60 -1300 320/12 RMK AO2
14840KMKG MKG20060206204510502/06/06 20:45:31  5-MIN KMKG 070145Z 31008G16KT 10SM OVC035 M02/M08 A3002 540 63 -1300 320/08G16 RMK AO2
14840KMKG MKG20060206205011502/06/06 20:50:31  5-MIN KMKG 070150Z 32010KT 10SM OVC035 M02/M08 A3002 540 63 -1300 320/10 RMK AO2 SLPNO T10171078
14840KMKG MKG20060206205512102/06/06 20:55:31  5-MIN KMKG 070155Z 30013G17KT 10SM OVC035 M02/M08 A3002 540 63 -1300 310/13G17 RMK AO2 SLPNO T10171078
14840KMKG MKG20060206210010502/06/06 21:00:31  5-MIN KMKG 070200Z 31011G18KT 10SM OVC035 M02/M08 A3002 540 63 -1300 310/11G18 RMK AO2
14840KMKG MKG20060206210510502/06/06 21:05:31  5-MIN KMKG 070205Z 31010G18KT 10SM OVC035 M02/M08 A3002 540 63 -1300 310/10G18 RMK AO2
14840KMKG MKG20060206211010502/06/06 21:10:31  5-MIN KMKG 070210Z 32011G19KT 10SM OVC035 M02/M08 A3002 540 63 -1300 320/11G19 RMK AO2
14840KMKG MKG20060206211510502/06/06 21:15:31  5-MIN KMKG 070215Z 30012G19KT 10SM OVC035 M02/M08 A3002 540 63 -1300 310/12G19 RMK AO2
14840KMKG MKG20060206212010502/06/06 21:20:31  5-MIN KMKG 070220Z 31011G17KT 10SM OVC037 M02/M08 A3002 540 63 -1300 320/11G17 RMK AO2
14840KMKG MKG20060206212510502/06/06 21:25:31  5-MIN KMKG 070225Z 31010G18KT 10SM OVC037 M02/M08 A3002 540 63 -1300 310/10G18 RMK AO2
14840KMKG MKG20060206213010502/06/06 21:30:31  5-MIN KMKG 070230Z 31010G18KT 10SM OVC037 M02/M08 A3002 540 63 -1300 310/10G18 RMK AO2
14840KMKG MKG20060206213510502/06/06 21:35:31  5-MIN KMKG 070235Z 32011G17KT 10SM OVC037 M02/M08 A3002 540 63 -1300 320/11G17 RMK AO2
14840KMKG MKG20060206214009902/06/06 21:40:31  5-MIN KMKG 070240Z 31008KT 10SM OVC037 M02/M08 A3002 540 63 -1300 320/08 RMK AO2
14840KMKG MKG20060206214509902/06/06 21:45:31  5-MIN KMKG 070245Z 32009KT 10SM OVC037 M02/M08 A3002 540 63 -1300 320/09 RMK AO2
14840KMKG MKG20060206215012702/06/06 21:50:31  5-MIN KMKG 070250Z 31011G16KT 10SM OVC037 M02/M08 A3002 540 63 -1300 310/11G16 RMK AO2 SLPNO T10171078 51014
14840KMKG MKG20060206215512702/06/06 21:55:31  5-MIN KMKG 070255Z 31009G16KT 10SM OVC037 M01/M08 A3002 540 60 -1200 310/09G16 RMK AO2 SLPNO T10111078 51008
14840KMKG MKG20060206220009902/06/06 22:00:31  5-MIN KMKG 070300Z 32010KT 10SM OVC037 M01/M08 A3002 540 60 -1200 330/10 RMK AO2
14840KMKG MKG20060206220509902/06/06 22:05:31  5-MIN KMKG 070305Z 33011KT 10SM OVC037 M01/M08 A3002 540 60 -1200 330/11 RMK AO2
14840KMKG MKG20060206221009902/06/06 22:10:31  5-MIN KMKG 070310Z 32010KT 10SM OVC037 M01/M08 A3002 540 60 -1200 330/10 RMK AO2
14840KMKG MKG20060206221510502/06/06 22:15:31  5-MIN KMKG 070315Z 32012G19KT 10SM OVC037 M01/M08 A3002 540 60 -1200 330/12G19 RMK AO2
14840KMKG MKG20060206222010502/06/06 22:20:31  5-MIN KMKG 070320Z 32012G19KT 10SM OVC037 M01/M08 A3002 540 60 -1200 320/12G19 RMK AO2
14840KMKG MKG20060206222509902/06/06 22:25:31  5-MIN KMKG 070325Z 32010KT 10SM OVC037 M01/M08 A3002 530 58 -1200 330/10 RMK AO2
14840KMKG MKG20060206223009902/06/06 22:30:31  5-MIN KMKG 070330Z 32011KT 10SM OVC037 M01/M08 A3003 530 60 -1200 330/11 RMK AO2
14840KMKG MKG20060206223509902/06/06 22:35:31  5-MIN KMKG 070335Z 32010KT 10SM OVC037 M01/M08 A3003 530 60 -1200 330/10 RMK AO2
14840KMKG MKG20060206224009902/06/06 22:40:31  5-MIN KMKG 070340Z 32008KT 10SM OVC037 M01/M08 A3003 530 60 -1200 320/08 RMK AO2
14840KMKG MKG20060206224509902/06/06 22:45:31  5-MIN KMKG 070345Z 32010KT 10SM OVC037 M01/M08 A3002 530 60 -1200 330/10 RMK AO2
14840KMKG MKG20060206225011502/06/06 22:50:31  5-MIN KMKG 070350Z 33010KT 10SM OVC037 M01/M08 A3003 530 60 -1200 330/10 RMK AO2 SLPNO T10111078
14840KMKG MKG20060206225511502/06/06 22:55:31  5-MIN KMKG 070355Z 32010KT 10SM OVC037 M01/M08 A3002 530 60 -1200 320/10 RMK AO2 SLPNO T10111078
14840KMKG MKG20060206230009902/06/06 23:00:31  5-MIN KMKG 070400Z 32009KT 10SM OVC037 M01/M08 A3002 530 60 -1200 330/09 RMK AO2
14840KMKG MKG20060206230509902/06/06 23:05:31  5-MIN KMKG 070405Z 32010KT 10SM OVC037 M01/M08 A3002 540 58 -1200 320/10 RMK AO2
14840KMKG MKG20060206231010502/06/06 23:10:31  5-MIN KMKG 070410Z 33013G18KT 10SM OVC037 M01/M08 A3002 540 60 -1200 340/13G18 RMK AO2
14840KMKG MKG20060206231510502/06/06 23:15:31  5-MIN KMKG 070415Z 32011G18KT 10SM OVC037 M01/M08 A3002 540 60 -1200 320/11G18 RMK AO2
14840KMKG MKG20060206232009902/06/06 23:20:31  5-MIN KMKG 070420Z 33011KT 10SM OVC037 M01/M08 A3002 540 60 -1200 330/11 RMK AO2
14840KMKG MKG20060206232509902/06/06 23:25:31  5-MIN KMKG 070425Z 33010KT 10SM OVC037 M01/M08 A3002 540 60 -1200 340/10 RMK AO2
14840KMKG MKG20060206233009902/06/06 23:30:31  5-MIN KMKG 070430Z 32012KT 10SM OVC037 M01/M08 A3001 540 60 -1200 320/12 RMK AO2
14840KMKG MKG20060206233509902/06/06 23:35:31  5-MIN KMKG 070435Z 33012KT 10SM OVC037 M01/M08 A3001 540 60 -1200 340/12 RMK AO2
14840KMKG MKG20060206234009902/06/06 23:40:31  5-MIN KMKG 070440Z 33011KT 10SM OVC037 M01/M08 A3001 540 60 -1200 330/11 RMK AO2
14840KMKG MKG20060206234509902/06/06 23:45:31  5-MIN KMKG 070445Z 32009KT 10SM OVC037 M01/M08 A3001 540 60 -1200 330/09 RMK AO2
14840KMKG MKG20060206235012502/06/06 23:50:31  5-MIN KMKG 070450Z 33012KT 10SM OVC037 M01/M08 A3001 540 60 -1200 330/12 RMK AO2 SLPNO T10111078 410111039
14840KMKG MKG20060206235512502/06/06 23:55:31  5-MIN KMKG 070455Z 34010KT 10SM OVC037 M01/M08 A3001 540 60 -1200 340/10 RMK AO2 SLPNO T10111078 410111039
14840KMKG MKG20060207000010502/07/06 00:00:32  5-MIN KMKG 070500Z 34011G17KT 10SM OVC037 M01/M08 A3002 540 60 -1200 340/11G17 RMK AO2
14840KMKG MKG20060207000509902/07/06 00:05:31  5-MIN KMKG 070505Z 33012KT 10SM OVC037 M01/M08 A3002 540 60 -1200 330/12 RMK AO2
14840KMKG MKG20060207001009902/07/06 00:10:31  5-MIN KMKG 070510Z 34012KT 10SM OVC035 M01/M08 A3002 540 60 -1200 340/12 RMK AO2
14840KMKG MKG20060207001509902/07/06 00:15:31  5-MIN KMKG 070515Z 34010KT 10SM OVC035 M01/M08 A3002 540 60 -1200 350/10 RMK AO2
14840KMKG MKG20060207002009902/07/06 00:20:31  5-MIN KMKG 070520Z 36010KT 10SM OVC035 M01/M08 A3002 540 60 -1200 360/10 RMK AO2
14840KMKG MKG20060207002509902/07/06 00:25:31  5-MIN KMKG 070525Z 35008KT 10SM OVC035 M01/M08 A3003 530 60 -1200 360/08 RMK AO2
14840KMKG MKG20060207003009902/07/06 00:30:31  5-MIN KMKG 070530Z 35009KT 10SM OVC035 M01/M07 A3003 530 63 -1200 350/09 RMK AO2
14840KMKG MKG20060207003509902/07/06 00:35:31  5-MIN KMKG 070535Z 35007KT 10SM OVC035 M01/M08 A3003 530 60 -1200 350/07 RMK AO2
14840KMKG MKG20060207004009902/07/06 00:40:31  5-MIN KMKG 070540Z 36007KT 10SM OVC035 M02/M07 A3003 530 66 -1300 360/07 RMK AO2
14840KMKG MKG20060207004509902/07/06 00:45:31  5-MIN KMKG 070545Z 01007KT 10SM OVC035 M02/M08 A3003 530 63 -1300 020/07 RMK AO2
14840KMKG MKG20060207005013302/07/06 00:50:31  5-MIN KMKG 070550Z 36006KT 10SM OVC035 M02/M08 A3003 530 63 -1300 010/06 RMK AO2 SLPNO T10171078 11011 21022 51008
14840KMKG MKG20060207005513302/07/06 00:55:31  5-MIN KMKG 070555Z 01005KT 10SM OVC035 M02/M08 A3003 530 63 -1300 020/05 RMK AO2 SLPNO T10171078 11011 21022 53002
14840KMKG MKG20060207010009902/07/06 01:00:31  5-MIN KMKG 070600Z 36004KT 10SM OVC035 M02/M08 A3003 530 63 -1300 010/04 RMK AO2
14840KMKG MKG20060207010509902/07/06 01:05:31  5-MIN KMKG 070605Z 34011KT 10SM OVC037 M02/M08 A3003 530 63 -1300 350/11 RMK AO2
14840KMKG MKG20060207011009902/07/06 01:10:31  5-MIN KMKG 070610Z 34009KT 10SM OVC037 M02/M08 A3003 530 63 -1300 340/09 RMK AO2
14840KMKG MKG20060207011509902/07/06 01:15:31  5-MIN KMKG 070615Z 35010KT 10SM OVC037 M02/M08 A3003 530 63 -1300 350/10 RMK AO2
14840KMKG MKG20060207012011502/07/06 01:20:31  5-MIN KMKG 070620Z 34013KT 310V010 10SM OVC037 M02/M08 A3003 530 63 -1300 350/13 310V010 RMK AO2
14840KMKG MKG20060207012510502/07/06 01:25:31  5-MIN KMKG 070625Z 34013G18KT 10SM OVC037 M02/M08 A3004 520 60 -1300 350/13G18 RMK AO2
14840KMKG MKG20060207013010502/07/06 01:30:31  5-MIN KMKG 070630Z 34014G18KT 10SM OVC037 M02/M09 A3004 520 60 -1400 350/14G18 RMK AO2
14840KMKG MKG20060207013509902/07/06 01:35:31  5-MIN KMKG 070635Z 35013KT 10SM OVC037 M02/M09 A3004 520 60 -1400 350/13 RMK AO2
14840KMKG MKG20060207014009902/07/06 01:40:31  5-MIN KMKG 070640Z 34011KT 10SM OVC037 M02/M09 A3004 520 60 -1400 350/11 RMK AO2
14840KMKG MKG20060207014509902/07/06 01:45:31  5-MIN KMKG 070645Z 33015KT 10SM OVC037 M02/M09 A3004 520 58 -1400 340/15 RMK AO2
14840KMKG MKG20060207015011502/07/06 01:50:31  5-MIN KMKG 070650Z 34013KT 10SM BKN037 M03/M10 A3004 520 58 -1500 340/13 RMK AO2 SLPNO T10281100
14840KMKG MKG20060207015512102/07/06 01:55:31  5-MIN KMKG 070655Z 34013G18KT 10SM BKN037 M03/M10 A3005 510 58 -1500 340/13G18 RMK AO2 SLPNO T10281100
14840KMKG MKG20060207020009902/07/06 02:00:31  5-MIN KMKG 070700Z 35011KT 10SM SCT037 M03/M10 A3005 510 58 -1500 350/11 RMK AO2
14840KMKG MKG20060207020509902/07/06 02:05:31  5-MIN KMKG 070705Z 36007KT 10SM SCT037 M03/M10 A3005 510 60 -1500 360/07 RMK AO2
14840KMKG MKG20060207021009902/07/06 02:10:31  5-MIN KMKG 070710Z 35009KT 10SM FEW037 M03/M10 A3005 510 60 -1500 350/09 RMK AO2
14840KMKG MKG20060207021509602/07/06 02:15:31  5-MIN KMKG 070715Z 33007KT 10SM CLR M03/M10 A3005 510 60 -1500 340/07 RMK AO2
14840KMKG MKG20060207022009602/07/06 02:20:31  5-MIN KMKG 070720Z 33007KT 10SM CLR M03/M10 A3005 510 60 -1500 340/07 RMK AO2
14840KMKG MKG20060207022509602/07/06 02:25:31  5-MIN KMKG 070725Z 33006KT 10SM CLR M03/M10 A3005 510 60 -1500 340/06 RMK AO2
14840KMKG MKG20060207023009602/07/06 02:30:31  5-MIN KMKG 070730Z 33007KT 10SM CLR M04/M10 A3005 510 63 -1600 330/07 RMK AO2
14840KMKG MKG20060207023509602/07/06 02:35:31  5-MIN KMKG 070735Z 33008KT 10SM CLR M04/M10 A3006 510 65 -1700 340/08 RMK AO2
14840KMKG MKG20060207024009602/07/06 02:40:31  5-MIN KMKG 070740Z 34007KT 10SM CLR M04/M11 A3006 500 60 -1600 350/07 RMK AO2
14840KMKG MKG20060207024509602/07/06 02:45:31  5-MIN KMKG 070745Z 35007KT 10SM CLR M04/M11 A3006 500 60 -1600 350/07 RMK AO2
14840KMKG MKG20060207025011302/07/06 02:50:31  5-MIN KMKG 070750Z 34007KT 10SM CLR M04/M11 A3006 500 62 -1700 350/07 RMK AO2 SLP188 T10441106
14840KMKG MKG20060207025511302/07/06 02:55:31  5-MIN KMKG 070755Z 35005KT 10SM CLR M04/M11 A3006 500 60 -1600 350/05 RMK AO2 SLP189 T10391106
14840KMKG MKG20060207030009602/07/06 03:00:31  5-MIN KMKG 070800Z 35005KT 10SM CLR M04/M11 A3006 500 62 -1700 350/05 RMK AO2
14840KMKG MKG20060207030509602/07/06 03:05:31  5-MIN KMKG 070805Z 34005KT 10SM CLR M04/M11 A3006 500 62 -1700 340/05 RMK AO2
14840KMKG MKG20060207031009602/07/06 03:10:31  5-MIN KMKG 070810Z 35005KT 10SM CLR M05/M11 A3006 500 65 -1800 350/05 RMK AO2
14840KMKG MKG20060207031509602/07/06 03:15:31  5-MIN KMKG 070815Z 34005KT 10SM CLR M04/M11 A3006 500 62 -1700 350/05 RMK AO2
14840KMKG MKG20060207032009602/07/06 03:20:31  5-MIN KMKG 070820Z 34004KT 10SM CLR M05/M11 A3006 500 65 -1800 350/04 RMK AO2
14840KMKG MKG20060207032509602/07/06 03:25:31  5-MIN KMKG 070825Z 35003KT 10SM CLR M05/M11 A3006 500 65 -1800 350/03 RMK AO2
14840KMKG MKG20060207033009602/07/06 03:30:31  5-MIN KMKG 070830Z 00000KT 10SM CLR M04/M11 A3006 500 62 -1700 000/00 RMK AO2
14840KMKG MKG20060207033509602/07/06 03:35:31  5-MIN KMKG 070835Z 35003KT 10SM CLR M04/M11 A3006 500 62 -1700 350/03 RMK AO2
14840KMKG MKG20060207034009902/07/06 03:40:31  5-MIN KMKG 070840Z 00000KT 10SM FEW037 M04/M11 A3006 500 62 -1700 000/00 RMK AO2
14840KMKG MKG20060207034509902/07/06 03:45:31  5-MIN KMKG 070845Z 00000KT 10SM FEW037 M04/M11 A3006 500 60 -1600 000/00 RMK AO2
14840KMKG MKG20060207035012202/07/06 03:50:31  5-MIN KMKG 070850Z 00000KT 10SM SCT037 M04/M11 A3006 500 60 -1600 000/00 RMK AO2 SLP188 T10391106 53002
14840KMKG MKG20060207035512202/07/06 03:55:31  5-MIN KMKG 070855Z 00000KT 10SM BKN037 M04/M11 A3006 500 62 -1700 000/00 RMK AO2 SLP188 T10441106 50009
14840KMKG MKG20060207040009902/07/06 04:00:31  5-MIN KMKG 070900Z 00000KT 10SM BKN037 M04/M11 A3006 500 62 -1700 000/00 RMK AO2
14840KMKG MKG20060207040509902/07/06 04:05:31  5-MIN KMKG 070905Z 00000KT 10SM BKN037 M05/M11 A3006 500 65 -1800 000/00 RMK AO2
14840KMKG MKG20060207041009902/07/06 04:10:31  5-MIN KMKG 070910Z 00000KT 10SM BKN037 M06/M11 A3006 500 71 -1900 000/00 RMK AO2
14840KMKG MKG20060207041509902/07/06 04:15:31  5-MIN KMKG 070915Z 01003KT 10SM BKN037 M06/M11 A3006 500 68 -1800 010/03 RMK AO2
14840KMKG MKG20060207042009902/07/06 04:20:31  5-MIN KMKG 070920Z 34004KT 10SM OVC037 M05/M11 A3006 500 65 -1800 350/04 RMK AO2
14840KMKG MKG20060207042509902/07/06 04:25:31  5-MIN KMKG 070925Z 34004KT 10SM OVC037 M04/M10 A3006 500 65 -1700 350/04 RMK AO2
14840KMKG MKG20060207043009902/07/06 04:30:31  5-MIN KMKG 070930Z 33005KT 10SM OVC037 M04/M10 A3006 500 63 -1600 340/05 RMK AO2
14840KMKG MKG20060207043509902/07/06 04:35:31  5-MIN KMKG 070935Z 34004KT 10SM OVC037 M04/M10 A3006 500 63 -1600 340/04 RMK AO2
14840KMKG MKG20060207044009902/07/06 04:40:31  5-MIN KMKG 070940Z 34006KT 10SM OVC037 M04/M10 A3006 500 63 -1600 350/06 RMK AO2
14840KMKG MKG20060207044509902/07/06 04:45:31  5-MIN KMKG 070945Z 34006KT 10SM OVC037 M04/M10 A3006 510 63 -1600 340/06 RMK AO2
14840KMKG MKG20060207045011602/07/06 04:50:31  5-MIN KMKG 070950Z 33006KT 10SM BKN037 M04/M10 A3006 500 63 -1600 340/06 RMK AO2 SLP188 T10391100
14840KMKG MKG20060207045511602/07/06 04:55:31  5-MIN KMKG 070955Z 34005KT 10SM BKN037 M04/M10 A3006 500 63 -1600 350/05 RMK AO2 SLP188 T10391100
14840KMKG MKG20060207050009902/07/06 05:00:31  5-MIN KMKG 071000Z 35007KT 10SM OVC037 M03/M09 A3006 510 63 -1500 350/07 RMK AO2
14840KMKG MKG20060207050509902/07/06 05:05:31  5-MIN KMKG 071005Z 35008KT 10SM OVC037 M03/M09 A3005 510 63 -1500 350/08 RMK AO2
14840KMKG MKG20060207051009902/07/06 05:10:31  5-MIN KMKG 071010Z 34009KT 10SM BKN037 M03/M09 A3006 510 63 -1500 350/09 RMK AO2
14840KMKG MKG20060207051509902/07/06 05:15:31  5-MIN KMKG 071015Z 34008KT 10SM BKN037 M03/M09 A3006 500 63 -1500 350/08 RMK AO2
14840KMKG MKG20060207052009902/07/06 05:20:31  5-MIN KMKG 071020Z 34007KT 10SM OVC035 M04/M09 A3006 500 65 -1600 350/07 RMK AO2
14840KMKG MKG20060207052509902/07/06 05:25:31  5-MIN KMKG 071025Z 35008KT 10SM OVC035 M03/M09 A3006 500 63 -1500 350/08 RMK AO2
14840KMKG MKG20060207053009902/07/06 05:30:31  5-MIN KMKG 071030Z 34006KT 10SM OVC035 M03/M09 A3006 500 63 -1500 340/06 RMK AO2
14840KMKG MKG20060207053509902/07/06 05:35:31  5-MIN KMKG 071035Z 34006KT 10SM OVC035 M04/M09 A3006 500 65 -1600 340/06 RMK AO2
14840KMKG MKG20060207054009902/07/06 05:40:31  5-MIN KMKG 071040Z 34006KT 10SM OVC035 M03/M09 A3007 500 63 -1500 340/06 RMK AO2
14840KMKG MKG20060207054509902/07/06 05:45:31  5-MIN KMKG 071045Z 33007KT 10SM OVC035 M03/M09 A3007 500 63 -1500 340/07 RMK AO2
14840KMKG MKG20060207055011602/07/06 05:50:31  5-MIN KMKG 071050Z 34007KT 10SM OVC035 M03/M09 A3006 500 63 -1500 340/07 RMK AO2 SLP189 T10331094
14840KMKG MKG20060207055511602/07/06 05:55:31  5-MIN KMKG 071055Z 34007KT 10SM OVC035 M03/M09 A3007 500 63 -1500 340/07 RMK AO2 SLP190 T10331094
14840KMKG MKG20060207060009902/07/06 06:00:31  5-MIN KMKG 071100Z 34006KT 10SM OVC035 M03/M09 A3007 500 63 -1600 340/06 RMK AO2
14840KMKG MKG20060207060509902/07/06 06:05:31  5-MIN KMKG 071105Z 34006KT 10SM OVC035 M04/M09 A3007 500 65 -1600 340/06 RMK AO2
14840KMKG MKG20060207061009902/07/06 06:10:31  5-MIN KMKG 071110Z 34006KT 10SM OVC035 M03/M09 A3007 500 65 -1500 350/06 RMK AO2
14840KMKG MKG20060207061509902/07/06 06:15:31  5-MIN KMKG 071115Z 34007KT 10SM OVC035 M03/M09 A3007 500 65 -1500 340/07 RMK AO2
14840KMKG MKG20060207062009902/07/06 06:20:31  5-MIN KMKG 071120Z 33007KT 10SM OVC035 M03/M09 A3007 500 65 -1500 340/07 RMK AO2
14840KMKG MKG20060207062509902/07/06 06:25:31  5-MIN KMKG 071125Z 34007KT 10SM OVC035 M03/M09 A3007 500 65 -1600 340/07 RMK AO2
14840KMKG MKG20060207063009902/07/06 06:30:31  5-MIN KMKG 071130Z 34007KT 10SM OVC035 M03/M09 A3007 490 65 -1600 350/07 RMK AO2
14840KMKG MKG20060207063509902/07/06 06:35:31  5-MIN KMKG 071135Z 34008KT 10SM OVC035 M03/M09 A3007 490 65 -1600 340/08 RMK AO2
14840KMKG MKG20060207064009902/07/06 06:40:31  5-MIN KMKG 071140Z 35007KT 10SM OVC035 M03/M09 A3007 490 63 -1500 350/07 RMK AO2
14840KMKG MKG20060207064509902/07/06 06:45:31  5-MIN KMKG 071145Z 34006KT 10SM OVC035 M03/M09 A3007 490 63 -1500 340/06 RMK AO2
14840KMKG MKG20060207065014002/07/06 06:50:31  5-MIN KMKG 071150Z 33007KT 10SM OVC035 M03/M09 A3007 490 63 -1500 340/07 RMK AO2 SLP191 7//// T10281089 11017 21061 50009
14840KMKG MKG20060207065513402/07/06 06:55:31  5-MIN KMKG 071155Z 34006KT 10SM OVC035 M03/M09 A3007 490 63 -1500 350/06 RMK AO2 SLP192 T10281089 11017 21061 53005
14840KMKG MKG20060207070009902/07/06 07:00:31  5-MIN KMKG 071200Z 35008KT 10SM OVC035 M03/M09 A3007 490 60 -1500 350/08 RMK AO2
14840KMKG MKG20060207070509902/07/06 07:05:31  5-MIN KMKG 071205Z 35006KT 10SM OVC033 M03/M09 A3007 490 63 -1500 350/06 RMK AO2
14840KMKG MKG20060207071009902/07/06 07:10:31  5-MIN KMKG 071210Z 35007KT 10SM OVC033 M03/M09 A3008 490 63 -1500 360/07 RMK AO2
14840KMKG MKG20060207071509902/07/06 07:15:31  5-MIN KMKG 071215Z 34008KT 10SM OVC033 M03/M09 A3008 480 63 -1500 340/08 RMK AO2
14840KMKG MKG20060207072009902/07/06 07:20:31  5-MIN KMKG 071220Z 35009KT 10SM OVC033 M03/M09 A3008 480 63 -1500 350/09 RMK AO2
14840KMKG MKG20060207072509902/07/06 07:25:31  5-MIN KMKG 071225Z 35007KT 10SM OVC033 M03/M09 A3008 480 63 -1500 360/07 RMK AO2
14840KMKG MKG20060207073009902/07/06 07:30:31  5-MIN KMKG 071230Z 35007KT 10SM OVC033 M03/M09 A3008 480 63 -1500 360/07 RMK AO2
14840KMKG MKG20060207073509902/07/06 07:35:31  5-MIN KMKG 071235Z 35007KT 10SM OVC033 M03/M09 A3008 480 63 -1500 360/07 RMK AO2
14840KMKG MKG20060207074009902/07/06 07:40:31  5-MIN KMKG 071240Z 34008KT 10SM OVC033 M03/M09 A3008 480 63 -1500 340/08 RMK AO2
14840KMKG MKG20060207074509902/07/06 07:45:31  5-MIN KMKG 071245Z 35008KT 10SM OVC033 M03/M09 A3009 480 63 -1500 350/08 RMK AO2
14840KMKG MKG20060207075011602/07/06 07:50:31  5-MIN KMKG 071250Z 36009KT 10SM OVC033 M03/M09 A3009 480 63 -1500 360/09 RMK AO2 SLP197 T10281089
14840KMKG MKG20060207075511602/07/06 07:55:31  5-MIN KMKG 071255Z 34009KT 10SM OVC033 M03/M09 A3009 480 63 -1500 350/09 RMK AO2 SLP197 T10281089
14840KMKG MKG20060207080009902/07/06 08:00:31  5-MIN KMKG 071300Z 34009KT 10SM OVC033 M03/M09 A3009 470 63 -1500 350/09 RMK AO2
14840KMKG MKG20060207080509902/07/06 08:05:31  5-MIN KMKG 071305Z 34010KT 10SM OVC033 M03/M09 A3009 470 60 -1500 340/10 RMK AO2
14840KMKG MKG20060207081009902/07/06 08:10:31  5-MIN KMKG 071310Z 35012KT 10SM OVC033 M03/M09 A3009 470 60 -1500 350/12 RMK AO2
14840KMKG MKG20060207081509902/07/06 08:15:31  5-MIN KMKG 071315Z 34009KT 10SM OVC033 M03/M09 A3010 470 60 -1500 340/09 RMK AO2
14840KMKG MKG20060207082009902/07/06 08:20:31  5-MIN KMKG 071320Z 34008KT 10SM OVC033 M03/M09 A3010 470 60 -1500 350/08 RMK AO2
14840KMKG MKG20060207082509902/07/06 08:25:31  5-MIN KMKG 071325Z 35008KT 10SM OVC033 M03/M09 A3010 460 63 -1500 350/08 RMK AO2
14840KMKG MKG20060207083009902/07/06 08:30:31  5-MIN KMKG 071330Z 34009KT 10SM OVC033 M03/M09 A3010 460 63 -1500 340/09 RMK AO2
14840KMKG MKG20060207083509902/07/06 08:35:31  5-MIN KMKG 071335Z 33008KT 10SM OVC033 M03/M09 A3010 460 63 -1500 340/08 RMK AO2
14840KMKG MKG20060207084009902/07/06 08:40:31  5-MIN KMKG 071340Z 35010KT 10SM OVC033 M03/M09 A3010 460 63 -1500 360/10 RMK AO2
14840KMKG MKG20060207084509902/07/06 08:45:31  5-MIN KMKG 071345Z 33009KT 10SM OVC033 M03/M09 A3011 460 63 -1500 340/09 RMK AO2
14840KMKG MKG20060207085011602/07/06 08:50:31  5-MIN KMKG 071350Z 34008KT 10SM OVC033 M03/M09 A3011 460 63 -1500 340/08 RMK AO2 SLP204 T10281089
14840KMKG MKG20060207085511602/07/06 08:55:31  5-MIN KMKG 071355Z 34011KT 10SM OVC033 M03/M09 A3011 450 63 -1500 340/11 RMK AO2 SLP205 T10281089
14840KMKG MKG20060207090009902/07/06 09:00:31  5-MIN KMKG 071400Z 33010KT 10SM OVC033 M03/M09 A3011 450 60 -1500 340/10 RMK AO2
14840KMKG MKG20060207090509902/07/06 09:05:31  5-MIN KMKG 071405Z 35011KT 10SM OVC033 M03/M09 A3011 450 60 -1500 360/11 RMK AO2
14840KMKG MKG20060207091009902/07/06 09:10:31  5-MIN KMKG 071410Z 34010KT 10SM OVC033 M03/M09 A3011 450 60 -1500 340/10 RMK AO2
14840KMKG MKG20060207091509902/07/06 09:15:31  5-MIN KMKG 071415Z 35010KT 10SM OVC033 M03/M09 A3011 450 60 -1500 360/10 RMK AO2
14840KMKG MKG20060207092009902/07/06 09:20:31  5-MIN KMKG 071420Z 34011KT 10SM OVC033 M03/M09 A3011 450 63 -1500 350/11 RMK AO2
14840KMKG MKG20060207092509902/07/06 09:25:31  5-MIN KMKG 071425Z 35009KT 10SM OVC033 M03/M09 A3011 450 60 -1500 360/09 RMK AO2
14840KMKG MKG20060207093009902/07/06 09:30:31  5-MIN KMKG 071430Z 36009KT 10SM OVC033 M03/M09 A3011 450 60 -1500 010/09 RMK AO2
14840KMKG MKG20060207093509902/07/06 09:35:31  5-MIN KMKG 071435Z 36009KT 10SM OVC033 M03/M09 A3012 450 60 -1500 360/09 RMK AO2
14840KMKG MKG20060207094009902/07/06 09:40:31  5-MIN KMKG 071440Z 36010KT 10SM OVC033 M03/M09 A3012 450 60 -1500 010/10 RMK AO2
14840KMKG MKG20060207094509902/07/06 09:45:31  5-MIN KMKG 071445Z 34008KT 10SM OVC033 M03/M09 A3012 450 60 -1500 350/08 RMK AO2
14840KMKG MKG20060207095012202/07/06 09:50:31  5-MIN KMKG 071450Z 34010KT 10SM OVC033 M02/M09 A3012 450 60 -1500 350/10 RMK AO2 SLP208 T10221089 53005
14840KMKG MKG20060207095512202/07/06 09:55:31  5-MIN KMKG 071455Z 36008KT 10SM OVC033 M03/M09 A3012 450 60 -1500 360/08 RMK AO2 SLP208 T10281094 51015
14840KMKG MKG20060207100009902/07/06 10:00:31  5-MIN KMKG 071500Z 36010KT 10SM OVC033 M02/M09 A3012 450 58 -1500 360/10 RMK AO2
14840KMKG MKG20060207100509902/07/06 10:05:31  5-MIN KMKG 071505Z 35010KT 10SM OVC033 M02/M09 A3012 440 58 -1500 350/10 RMK AO2
14840KMKG MKG20060207101009902/07/06 10:10:31  5-MIN KMKG 071510Z 35010KT 10SM OVC033 M02/M09 A3012 440 58 -1500 360/10 RMK AO2
14840KMKG MKG20060207101509902/07/06 10:15:31  5-MIN KMKG 071515Z 35007KT 10SM OVC033 M02/M09 A3012 440 58 -1500 350/07 RMK AO2
14840KMKG MKG20060207102009902/07/06 10:20:31  5-MIN KMKG 071520Z 35011KT 10SM OVC033 M02/M09 A3012 440 58 -1400 350/11 RMK AO2
14840KMKG MKG20060207102509902/07/06 10:25:31  5-MIN KMKG 071525Z 35012KT 10SM OVC033 M02/M09 A3012 440 55 -1400 360/12 RMK AO2
14840KMKG MKG20060207103009902/07/06 10:30:31  5-MIN KMKG 071530Z 34009KT 10SM OVC033 M02/M09 A3012 440 58 -1500 350/09 RMK AO2
14840KMKG MKG20060207103509902/07/06 10:35:31  5-MIN KMKG 071535Z 01010KT 10SM OVC033 M02/M09 A3012 440 58 -1500 010/10 RMK AO2
14840KMKG MKG20060207104009902/07/06 10:40:31  5-MIN KMKG 071540Z 33011KT 10SM OVC033 M02/M09 A3012 440 60 -1500 340/11 RMK AO2
14840KMKG MKG20060207104509902/07/06 10:45:31  5-MIN KMKG 071545Z 34010KT 10SM BKN033 M02/M09 A3012 450 58 -1500 340/10 RMK AO2
14840KMKG MKG20060207105011602/07/06 10:50:31  5-MIN KMKG 071550Z 34011KT 10SM BKN033 M02/M09 A3012 440 58 -1400 340/11 RMK AO2 SLP209 T10171089
14840KMKG MKG20060207105511602/07/06 10:55:31  5-MIN KMKG 071555Z 34010KT 10SM BKN033 M02/M09 A3012 450 58 -1400 350/10 RMK AO2 SLP208 T10171089
14840KMKG MKG20060207110009902/07/06 11:00:31  5-MIN KMKG 071600Z 34010KT 10SM SCT033 M02/M09 A3012 440 55 -1400 340/10 RMK AO2
14840KMKG MKG20060207110509902/07/06 11:05:31  5-MIN KMKG 071605Z 35012KT 10SM BKN033 M02/M09 A3012 440 55 -1400 350/12 RMK AO2
14840KMKG MKG20060207111009902/07/06 11:10:31  5-MIN KMKG 071610Z 33011KT 10SM BKN033 M02/M09 A3012 440 58 -1500 340/11 RMK AO2
14840KMKG MKG20060207111509902/07/06 11:15:31  5-MIN KMKG 071615Z 32008KT 10SM BKN033 M02/M09 A3012 450 58 -1500 330/08 RMK AO2
14840KMKG MKG20060207112009902/07/06 11:20:31  5-MIN KMKG 071620Z 34008KT 10SM BKN033 M02/M09 A3012 440 58 -1400 350/08 RMK AO2
14840KMKG MKG20060207112509902/07/06 11:25:31  5-MIN KMKG 071625Z 34009KT 10SM BKN033 M02/M09 A3012 450 55 -1400 350/09 RMK AO2
14840KMKG MKG20060207113009902/07/06 11:30:31  5-MIN KMKG 071630Z 35009KT 10SM OVC033 M02/M09 A3012 440 55 -1400 360/09 RMK AO2
14840KMKG MKG20060207113509902/07/06 11:35:31  5-MIN KMKG 071635Z 32007KT 10SM OVC033 M02/M09 A3012 450 55 -1400 320/07 RMK AO2
14840KMKG MKG20060207114009902/07/06 11:40:31  5-MIN KMKG 071640Z 32011KT 10SM OVC033 M02/M09 A3012 450 55 -1400 330/11 RMK AO2
14840KMKG MKG20060207114509902/07/06 11:45:31  5-MIN KMKG 071645Z 33009KT 10SM OVC033 M02/M10 A3012 450 55 -1500 340/09 RMK AO2
14840KMKG MKG20060207115011602/07/06 11:50:31  5-MIN KMKG 071650Z 33010KT 10SM OVC033 M02/M09 A3012 450 55 -1400 330/10 RMK AO2 SLP208 T10171094
14840KMKG MKG20060207115511602/07/06 11:55:31  5-MIN KMKG 071655Z 34010KT 10SM BKN035 M01/M09 A3012 450 53 -1300 340/10 RMK AO2 SLP207 T10111094
14840KMKG MKG20060207120009902/07/06 12:00:31  5-MIN KMKG 071700Z 34010KT 10SM BKN035 M01/M09 A3012 450 53 -1300 340/10 RMK AO2
14840KMKG MKG20060207120509902/07/06 12:05:31  5-MIN KMKG 071705Z 35008KT 10SM BKN035 M01/M09 A3012 450 53 -1300 350/08 RMK AO2
14840KMKG MKG20060207121009902/07/06 12:10:31  5-MIN KMKG 071710Z 32010KT 10SM BKN035 M01/M09 A3012 450 55 -1300 330/10 RMK AO2
14840KMKG MKG20060207121510502/07/06 12:15:31  5-MIN KMKG 071715Z 32011G16KT 10SM BKN035 M02/M09 A3011 450 58 -1400 330/11G16 RMK AO2
14840KMKG MKG20060207122009902/07/06 12:20:31  5-MIN KMKG 071720Z 32013KT 10SM BKN035 M02/M09 A3011 450 58 -1400 330/13 RMK AO2
14840KMKG MKG20060207122509902/07/06 12:25:31  5-MIN KMKG 071725Z 31009KT 10SM OVC035 M02/M08 A3011 450 60 -1400 310/09 RMK AO2
14840KMKG MKG20060207123009902/07/06 12:30:31  5-MIN KMKG 071730Z 31007KT 10SM OVC035 M02/M09 A3011 450 58 -1400 320/07 RMK AO2
14840KMKG MKG20060207123509902/07/06 12:35:31  5-MIN KMKG 071735Z 32011KT 10SM OVC035 M02/M09 A3011 460 58 -1400 320/11 RMK AO2
14840KMKG MKG20060207124009902/07/06 12:40:31  5-MIN KMKG 071740Z 32011KT 10SM OVC035 M02/M09 A3011 450 55 -1400 320/11 RMK AO2
14840KMKG MKG20060207124509902/07/06 12:45:31  5-MIN KMKG 071745Z 31013KT 10SM BKN035 M01/M09 A3011 450 55 -1300 310/13 RMK AO2
14840KMKG MKG20060207125013402/07/06 12:50:31  5-MIN KMKG 071750Z 34011KT 10SM BKN035 M02/M09 A3011 450 55 -1400 340/11 RMK AO2 SLP206 T10171094 11011 21028 51015
14840KMKG MKG20060207125513402/07/06 12:55:31  5-MIN KMKG 071755Z 29011KT 10SM BKN035 M02/M09 A3011 450 58 -1400 300/11 RMK AO2 SLP205 T10171089 11011 21028 58002
14840KMKG MKG20060207130009902/07/06 13:00:31  5-MIN KMKG 071800Z 30010KT 10SM BKN035 M02/M08 A3011 460 60 -1400 300/10 RMK AO2
14840KMKG MKG20060207130510502/07/06 13:05:31  5-MIN KMKG 071805Z 30014G18KT 10SM BKN035 M01/M08 A3011 460 60 -1300 300/14G18 RMK AO2
14840KMKG MKG20060207131010502/07/06 13:10:31  5-MIN KMKG 071810Z 32010G18KT 10SM BKN035 M01/M08 A3011 460 58 -1300 320/10G18 RMK AO2
14840KMKG MKG20060207131509902/07/06 13:15:31  5-MIN KMKG 071815Z 30011KT 10SM BKN035 M02/M08 A3011 460 60 -1400 310/11 RMK AO2
14840KMKG MKG20060207132009902/07/06 13:20:31  5-MIN KMKG 071820Z 30009KT 10SM OVC035 M02/M09 A3011 460 60 -1500 300/09 RMK AO2
14840KMKG MKG20060207132510502/07/06 13:25:31  5-MIN KMKG 071825Z 30012G17KT 10SM OVC035 M02/M08 A3011 460 60 -1400 310/12G17 RMK AO2
14840KMKG MKG20060207133009902/07/06 13:30:31  5-MIN KMKG 071830Z 32010KT 10SM OVC035 M01/M08 A3011 460 60 -1300 320/10 RMK AO2
14840KMKG MKG20060207133509902/07/06 13:35:31  5-MIN KMKG 071835Z 30013KT 10SM OVC035 M02/M08 A3011 460 60 -1400 310/13 RMK AO2
14840KMKG MKG20060207134009902/07/06 13:40:31  5-MIN KMKG 071840Z 31011KT 10SM OVC035 M02/M09 A3011 460 58 -1400 320/11 RMK AO2
14840KMKG MKG20060207134509902/07/06 13:45:31  5-MIN KMKG 071845Z 31011KT 10SM OVC037 M01/M09 A3011 460 55 -1300 320/11 RMK AO2
14840KMKG MKG20060207135011602/07/06 13:50:31  5-MIN KMKG 071850Z 33012KT 10SM OVC037 M02/M09 A3011 460 58 -1400 330/12 RMK AO2 SLP205 T10171089
14840KMKG MKG20060207135511602/07/06 13:55:31  5-MIN KMKG 071855Z 32010KT 10SM OVC037 M02/M08 A3011 460 60 -1400 330/10 RMK AO2 SLP204 T10171083
14840KMKG MKG20060207140009902/07/06 14:00:31  5-MIN KMKG 071900Z 32013KT 10SM OVC037 M02/M09 A3011 450 58 -1400 330/13 RMK AO2
14840KMKG MKG20060207140509902/07/06 14:05:31  5-MIN KMKG 071905Z 32009KT 10SM OVC037 M02/M09 A3011 460 55 -1400 320/09 RMK AO2
14840KMKG MKG20060207141009902/07/06 14:10:31  5-MIN KMKG 071910Z 30011KT 10SM OVC037 M02/M09 A3011 460 58 -1400 300/11 RMK AO2
14840KMKG MKG20060207141510502/07/06 14:15:31  5-MIN KMKG 071915Z 32013G17KT 10SM OVC035 M02/M09 A3011 460 58 -1400 330/13G17 RMK AO2
14840KMKG MKG20060207142009902/07/06 14:20:31  5-MIN KMKG 071920Z 34014KT 10SM OVC035 M02/M09 A3011 460 58 -1400 340/14 RMK AO2
14840KMKG MKG20060207142509902/07/06 14:25:31  5-MIN KMKG 071925Z 33011KT 10SM OVC035 M02/M09 A3011 460 60 -1500 340/11 RMK AO2
14840KMKG MKG20060207143009902/07/06 14:30:31  5-MIN KMKG 071930Z 34013KT 10SM OVC035 M02/M09 A3011 450 60 -1500 340/13 RMK AO2
14840KMKG MKG20060207143509902/07/06 14:35:31  5-MIN KMKG 071935Z 31012KT 10SM OVC033 M02/M08 A3011 460 60 -1400 310/12 RMK AO2
14840KMKG MKG20060207144010502/07/06 14:40:31  5-MIN KMKG 071940Z 33010G17KT 10SM OVC033 M02/M09 A3011 460 60 -1500 330/10G17 RMK AO2
14840KMKG MKG20060207144509902/07/06 14:45:31  5-MIN KMKG 071945Z 33012KT 10SM OVC033 M02/M08 A3011 460 60 -1400 330/12 RMK AO2
14840KMKG MKG20060207145011602/07/06 14:50:31  5-MIN KMKG 071950Z 33013KT 10SM OVC033 M02/M09 A3011 450 58 -1400 340/13 RMK AO2 SLP205 T10171089
14840KMKG MKG20060207145511602/07/06 14:55:31  5-MIN KMKG 071955Z 33011KT 10SM OVC033 M02/M09 A3011 460 58 -1400 330/11 RMK AO2 SLP205 T10171089
14840KMKG MKG20060207150009902/07/06 15:00:31  5-MIN KMKG 072000Z 32011KT 10SM OVC033 M02/M09 A3011 450 60 -1500 320/11 RMK AO2
14840KMKG MKG20060207150509902/07/06 15:05:31  5-MIN KMKG 072005Z 33011KT 10SM OVC033 M02/M09 A3012 450 60 -1500 330/11 RMK AO2
14840KMKG MKG20060207151009902/07/06 15:10:31  5-MIN KMKG 072010Z 34012KT 10SM OVC033 M02/M09 A3012 450 60 -1500 340/12 RMK AO2
14840KMKG MKG20060207151509902/07/06 15:15:31  5-MIN KMKG 072015Z 32011KT 10SM OVC033 M02/M09 A3011 450 60 -1500 320/11 RMK AO2
14840KMKG MKG20060207152009902/07/06 15:20:31  5-MIN KMKG 072020Z 33012KT 10SM OVC033 M02/M09 A3012 450 60 -1500 330/12 RMK AO2
14840KMKG MKG20060207152509902/07/06 15:25:31  5-MIN KMKG 072025Z 32012KT 10SM OVC033 M02/M09 A3012 450 60 -1500 330/12 RMK AO2
14840KMKG MKG20060207153009902/07/06 15:30:31  5-MIN KMKG 072030Z 33011KT 10SM OVC033 M02/M09 A3012 440 55 -1400 340/11 RMK AO2
14840KMKG MKG20060207153509902/07/06 15:35:31  5-MIN KMKG 072035Z 31011KT 10SM OVC035 M02/M09 A3012 450 58 -1500 320/11 RMK AO2
14840KMKG MKG20060207154009902/07/06 15:40:31  5-MIN KMKG 072040Z 32010KT 10SM OVC035 M02/M09 A3012 440 58 -1500 320/10 RMK AO2
14840KMKG MKG20060207154509902/07/06 15:45:31  5-MIN KMKG 072045Z 34011KT 10SM OVC035 M02/M09 A3013 440 58 -1500 340/11 RMK AO2
14840KMKG MKG20060207155012202/07/06 15:50:31  5-MIN KMKG 072050Z 34012KT 10SM OVC035 M02/M09 A3013 440 60 -1500 350/12 RMK AO2 SLP212 T10221089 58002
14840KMKG MKG20060207155512202/07/06 15:55:31  5-MIN KMKG 072055Z 34012KT 10SM OVC035 M02/M09 A3013 440 58 -1500 350/12 RMK AO2 SLP212 T10221094 53006
14840KMKG MKG20060207160009902/07/06 16:00:31  5-MIN KMKG 072100Z 34012KT 10SM OVC035 M02/M09 A3013 440 58 -1500 340/12 RMK AO2
14840KMKG MKG20060207160509902/07/06 16:05:31  5-MIN KMKG 072105Z 34011KT 10SM OVC035 M02/M09 A3013 440 58 -1500 340/11 RMK AO2
14840KMKG MKG20060207161009902/07/06 16:10:31  5-MIN KMKG 072110Z 32011KT 10SM OVC035 M02/M09 A3013 440 60 -1500 330/11 RMK AO2
14840KMKG MKG20060207161509902/07/06 16:15:31  5-MIN KMKG 072115Z 32009KT 10SM OVC035 M02/M09 A3013 440 60 -1500 320/09 RMK AO2
14840KMKG MKG20060207162009902/07/06 16:20:31  5-MIN KMKG 072120Z 33014KT 10SM OVC035 M02/M09 A3013 440 58 -1500 330/14 RMK AO2
14840KMKG MKG20060207162509902/07/06 16:25:31  5-MIN KMKG 072125Z 34012KT 10SM OVC035 M02/M10 A3013 430 55 -1500 350/12 RMK AO2
14840KMKG MKG20060207163009902/07/06 16:30:31  5-MIN KMKG 072130Z 33011KT 10SM OVC035 M02/M09 A3013 430 58 -1500 340/11 RMK AO2
14840KMKG MKG20060207163509902/07/06 16:35:31  5-MIN KMKG 072135Z 34012KT 10SM OVC035 M03/M09 A3013 440 60 -1600 340/12 RMK AO2
14840KMKG MKG20060207164009902/07/06 16:40:31  5-MIN KMKG 072140Z 34009KT 10SM OVC033 M02/M09 A3013 430 60 -1500 350/09 RMK AO2
14840KMKG MKG20060207164509902/07/06 16:45:31  5-MIN KMKG 072145Z 33013KT 10SM OVC033 M03/M09 A3013 430 63 -1600 330/13 RMK AO2
14840KMKG MKG20060207165011602/07/06 16:50:31  5-MIN KMKG 072150Z 33011KT 10SM OVC033 M03/M10 A3013 430 58 -1600 330/11 RMK AO2 SLP213 T10281100
14840KMKG MKG20060207165511602/07/06 16:55:31  5-MIN KMKG 072155Z 32008KT 10SM OVC033 M03/M10 A3013 440 58 -1600 330/08 RMK AO2 SLP213 T10281100
14840KMKG MKG20060207170009902/07/06 17:00:31  5-MIN KMKG 072200Z 32011KT 10SM OVC035 M03/M10 A3013 440 58 -1600 330/11 RMK AO2
14840KMKG MKG20060207170509902/07/06 17:05:31  5-MIN KMKG 072205Z 32011KT 10SM OVC035 M03/M10 A3013 440 58 -1600 320/11 RMK AO2
14840KMKG MKG20060207171009902/07/06 17:10:31  5-MIN KMKG 072210Z 32010KT 10SM OVC035 M03/M10 A3013 440 58 -1600 330/10 RMK AO2
14840KMKG MKG20060207171509902/07/06 17:15:31  5-MIN KMKG 072215Z 33013KT 10SM OVC037 M03/M10 A3013 440 58 -1600 330/13 RMK AO2
14840KMKG MKG20060207172009902/07/06 17:20:31  5-MIN KMKG 072220Z 34010KT 10SM OVC037 M03/M10 A3013 440 58 -1600 340/10 RMK AO2
14840KMKG MKG20060207172509902/07/06 17:25:31  5-MIN KMKG 072225Z 34011KT 10SM OVC037 M03/M10 A3013 440 58 -1600 340/11 RMK AO2
14840KMKG MKG20060207173009902/07/06 17:30:31  5-MIN KMKG 072230Z 34011KT 10SM OVC037 M03/M10 A3013 440 58 -1600 340/11 RMK AO2
14840KMKG MKG20060207173509902/07/06 17:35:31  5-MIN KMKG 072235Z 35010KT 10SM OVC037 M03/M10 A3013 430 58 -1600 360/10 RMK AO2
14840KMKG MKG20060207174009902/07/06 17:40:31  5-MIN KMKG 072240Z 34009KT 10SM OVC037 M03/M09 A3013 440 60 -1600 340/09 RMK AO2
14840KMKG MKG20060207174509902/07/06 17:45:31  5-MIN KMKG 072245Z 34010KT 10SM OVC037 M03/M09 A3013 430 60 -1600 350/10 RMK AO2
14840KMKG MKG20060207175011602/07/06 17:50:31  5-MIN KMKG 072250Z 35010KT 10SM OVC037 M03/M09 A3014 430 60 -1600 350/10 RMK AO2 SLP213 T10281094
14840KMKG MKG20060207175511602/07/06 17:55:31  5-MIN KMKG 072255Z 35011KT 10SM OVC037 M03/M10 A3014 430 58 -1600 350/11 RMK AO2 SLP214 T10281100
14840KMKG MKG20060207180009902/07/06 18:00:31  5-MIN KMKG 072300Z 33011KT 10SM OVC037 M03/M09 A3013 430 60 -1600 330/11 RMK AO2
14840KMKG MKG20060207180509902/07/06 18:05:31  5-MIN KMKG 072305Z 32008KT 10SM OVC037 M03/M09 A3013 430 60 -1600 330/08 RMK AO2
14840KMKG MKG20060207181009902/07/06 18:10:31  5-MIN KMKG 072310Z 33010KT 10SM OVC039 M03/M09 A3014 430 60 -1600 340/10 RMK AO2
14840KMKG MKG20060207181509902/07/06 18:15:31  5-MIN KMKG 072315Z 34009KT 10SM OVC039 M03/M09 A3014 430 60 -1600 340/09 RMK AO2
14840KMKG MKG20060207182009902/07/06 18:20:31  5-MIN KMKG 072320Z 32010KT 10SM OVC039 M03/M09 A3014 430 60 -1600 330/10 RMK AO2
14840KMKG MKG20060207182509902/07/06 18:25:31  5-MIN KMKG 072325Z 32010KT 10SM OVC041 M03/M09 A3014 430 60 -1600 320/10 RMK AO2
14840KMKG MKG20060207183009902/07/06 18:30:31  5-MIN KMKG 072330Z 33011KT 10SM OVC041 M03/M09 A3014 430 60 -1600 330/11 RMK AO2
14840KMKG MKG20060207183509902/07/06 18:35:31  5-MIN KMKG 072335Z 33008KT 10SM OVC041 M03/M09 A3014 420 60 -1600 340/08 RMK AO2
14840KMKG MKG20060207184009902/07/06 18:40:31  5-MIN KMKG 072340Z 34008KT 10SM OVC041 M03/M09 A3015 420 60 -1600 350/08 RMK AO2
14840KMKG MKG20060207184509902/07/06 18:45:31  5-MIN KMKG 072345Z 34008KT 10SM OVC041 M03/M09 A3015 420 60 -1600 340/08 RMK AO2
14840KMKG MKG20060207185013402/07/06 18:50:31  5-MIN KMKG 072350Z 36011KT 10SM OVC041 M03/M09 A3015 420 60 -1600 010/11 RMK AO2 SLP219 T10281094 11011 21028 53006
14840KMKG MKG20060207185513402/07/06 18:55:31  5-MIN KMKG 072355Z 36010KT 10SM OVC041 M03/M09 A3015 420 60 -1600 360/10 RMK AO2 SLP219 T10281094 11011 21028 53008
14840KMKG MKG20060207190009902/07/06 19:00:31  5-MIN KMKG 080000Z 35008KT 10SM OVC041 M03/M09 A3015 420 60 -1600 350/08 RMK AO2
14840KMKG MKG20060207190509902/07/06 19:05:31  5-MIN KMKG 080005Z 35008KT 10SM OVC041 M03/M09 A3015 420 60 -1600 350/08 RMK AO2
14840KMKG MKG20060207191009902/07/06 19:10:31  5-MIN KMKG 080010Z 35009KT 10SM OVC043 M03/M09 A3015 420 60 -1600 360/09 RMK AO2
14840KMKG MKG20060207191509902/07/06 19:15:31  5-MIN KMKG 080015Z 35008KT 10SM OVC043 M03/M09 A3015 410 63 -1600 360/08 RMK AO2
14840KMKG MKG20060207192009902/07/06 19:20:31  5-MIN KMKG 080020Z 35008KT 10SM OVC043 M03/M09 A3015 420 63 -1600 360/08 RMK AO2
14840KMKG MKG20060207192509902/07/06 19:25:31  5-MIN KMKG 080025Z 36008KT 10SM OVC043 M03/M09 A3015 410 63 -1600 360/08 RMK AO2
14840KMKG MKG20060207193009902/07/06 19:30:31  5-MIN KMKG 080030Z 35008KT 10SM OVC045 M03/M09 A3015 420 65 -1700 360/08 RMK AO2
14840KMKG MKG20060207193509902/07/06 19:35:31  5-MIN KMKG 080035Z 35009KT 10SM OVC045 M03/M09 A3015 410 63 -1600 350/09 RMK AO2
14840KMKG MKG20060207194009902/07/06 19:40:31  5-MIN KMKG 080040Z 35006KT 10SM OVC045 M03/M09 A3016 410 65 -1700 350/06 RMK AO2
14840KMKG MKG20060207194509902/07/06 19:45:31  5-MIN KMKG 080045Z 35009KT 10SM OVC043 M03/M09 A3016 410 65 -1700 350/09 RMK AO2
14840KMKG MKG20060207195011602/07/06 19:50:31  5-MIN KMKG 080050Z 34009KT 10SM OVC043 M03/M09 A3016 410 65 -1700 340/09 RMK AO2 SLP220 T10331089
14840KMKG MKG20060207195511602/07/06 19:55:31  5-MIN KMKG 080055Z 35008KT 10SM OVC043 M03/M09 A3015 420 65 -1700 360/08 RMK AO2 SLP220 T10331089
14840KMKG MKG20060207200009902/07/06 20:00:31  5-MIN KMKG 080100Z 35009KT 10SM OVC041 M03/M09 A3015 420 65 -1600 350/09 RMK AO2
14840KMKG MKG20060207200509902/07/06 20:05:31  5-MIN KMKG 080105Z 35011KT 10SM OVC041 M03/M09 A3016 410 65 -1700 360/11 RMK AO2
14840KMKG MKG20060207201009902/07/06 20:10:31  5-MIN KMKG 080110Z 36010KT 10SM OVC041 M03/M09 A3016 410 65 -1700 360/10 RMK AO2
14840KMKG MKG20060207201509902/07/06 20:15:31  5-MIN KMKG 080115Z 36009KT 10SM OVC043 M03/M09 A3016 410 65 -1700 010/09 RMK AO2
14840KMKG MKG20060207202009902/07/06 20:20:31  5-MIN KMKG 080120Z 01009KT 10SM OVC043 M03/M09 A3016 410 65 -1700 020/09 RMK AO2
14840KMKG MKG20060207202509902/07/06 20:25:31  5-MIN KMKG 080125Z 02008KT 10SM OVC043 M03/M08 A3016 410 68 -1700 020/08 RMK AO2
14840KMKG MKG20060207203009902/07/06 20:30:31  5-MIN KMKG 080130Z 02007KT 10SM OVC043 M03/M08 A3016 410 68 -1700 020/07 RMK AO2
14840KMKG MKG20060207203509902/07/06 20:35:31  5-MIN KMKG 080135Z 01010KT 10SM OVC045 M03/M08 A3016 410 68 -1700 010/10 RMK AO2
14840KMKG MKG20060207204009902/07/06 20:40:31  5-MIN KMKG 080140Z 01007KT 10SM OVC045 M03/M09 A3016 410 65 -1700 010/07 RMK AO2
14840KMKG MKG20060207204509902/07/06 20:45:31  5-MIN KMKG 080145Z 01008KT 10SM OVC043 M03/M09 A3016 410 65 -1700 010/08 RMK AO2
14840KMKG MKG20060207205011602/07/06 20:50:31  5-MIN KMKG 080150Z 36006KT 10SM OVC043 M03/M09 A3016 410 65 -1700 010/06 RMK AO2 SLP221 T10331089
14840KMKG MKG20060207205511602/07/06 20:55:31  5-MIN KMKG 080155Z 36007KT 10SM OVC043 M03/M09 A3016 410 65 -1700 360/07 RMK AO2 SLP222 T10331089
14840KMKG MKG20060207210009902/07/06 21:00:31  5-MIN KMKG 080200Z 36007KT 10SM OVC043 M03/M09 A3016 410 65 -1700 360/07 RMK AO2
14840KMKG MKG20060207210509902/07/06 21:05:31  5-MIN KMKG 080205Z 36008KT 10SM OVC043 M03/M09 A3016 410 65 -1700 360/08 RMK AO2
14840KMKG MKG20060207211009902/07/06 21:10:31  5-MIN KMKG 080210Z 01008KT 10SM OVC043 M03/M09 A3016 410 65 -1700 010/08 RMK AO2
14840KMKG MKG20060207211509902/07/06 21:15:31  5-MIN KMKG 080215Z 01007KT 10SM OVC043 M03/M09 A3016 410 65 -1700 010/07 RMK AO2
14840KMKG MKG20060207212009902/07/06 21:20:31  5-MIN KMKG 080220Z 01008KT 10SM OVC043 M03/M09 A3016 410 65 -1700 010/08 RMK AO2
14840KMKG MKG20060207212509902/07/06 21:25:31  5-MIN KMKG 080225Z 01007KT 10SM OVC045 M03/M09 A3016 410 65 -1700 010/07 RMK AO2
14840KMKG MKG20060207213009902/07/06 21:30:31  5-MIN KMKG 080230Z 01007KT 10SM OVC045 M03/M09 A3016 410 65 -1700 020/07 RMK AO2
14840KMKG MKG20060207213509902/07/06 21:35:31  5-MIN KMKG 080235Z 03007KT 10SM OVC045 M03/M09 A3016 410 65 -1700 030/07 RMK AO2
14840KMKG MKG20060207214009902/07/06 21:40:31  5-MIN KMKG 080240Z 02006KT 10SM OVC045 M03/M09 A3016 410 65 -1700 030/06 RMK AO2
14840KMKG MKG20060207214509902/07/06 21:45:31  5-MIN KMKG 080245Z 36007KT 10SM OVC045 M03/M09 A3016 410 65 -1700 360/07 RMK AO2
14840KMKG MKG20060207215012202/07/06 21:50:31  5-MIN KMKG 080250Z 01007KT 10SM OVC047 M03/M09 A3016 400 65 -1700 010/07 RMK AO2 SLP223 T10331089 53008
14840KMKG MKG20060207215512202/07/06 21:55:31  5-MIN KMKG 080255Z 36008KT 10SM OVC047 M04/M09 A3017 400 68 -1700 010/08 RMK AO2 SLP225 T10391089 53004
14840KMKG MKG20060207220009902/07/06 22:00:31  5-MIN KMKG 080300Z 02007KT 10SM OVC047 M04/M09 A3016 410 68 -1700 020/07 RMK AO2
14840KMKG MKG20060207220509902/07/06 22:05:31  5-MIN KMKG 080305Z 01006KT 10SM OVC047 M04/M09 A3016 410 68 -1700 020/06 RMK AO2
14840KMKG MKG20060207221009902/07/06 22:10:31  5-MIN KMKG 080310Z 01005KT 10SM OVC047 M04/M09 A3016 410 68 -1700 020/05 RMK AO2
14840KMKG MKG20060207221509902/07/06 22:15:31  5-MIN KMKG 080315Z 02006KT 10SM OVC047 M04/M09 A3016 410 68 -1700 030/06 RMK AO2
14840KMKG MKG20060207222009902/07/06 22:20:31  5-MIN KMKG 080320Z 04005KT 10SM OVC047 M04/M09 A3016 410 68 -1700 040/05 RMK AO2
14840KMKG MKG20060207222509902/07/06 22:25:31  5-MIN KMKG 080325Z 03004KT 10SM OVC047 M04/M09 A3016 410 68 -1700 030/04 RMK AO2
14840KMKG MKG20060207223009902/07/06 22:30:31  5-MIN KMKG 080330Z 02007KT 10SM OVC047 M04/M09 A3016 410 68 -1700 020/07 RMK AO2
14840KMKG MKG20060207223509902/07/06 22:35:31  5-MIN KMKG 080335Z 03007KT 10SM OVC049 M04/M09 A3016 410 68 -1700 030/07 RMK AO2
14840KMKG MKG20060207224009902/07/06 22:40:31  5-MIN KMKG 080340Z 02007KT 10SM OVC049 M04/M09 A3016 410 68 -1700 020/07 RMK AO2
14840KMKG MKG20060207224509902/07/06 22:45:31  5-MIN KMKG 080345Z 02007KT 10SM OVC049 M04/M09 A3016 410 68 -1700 020/07 RMK AO2
14840KMKG MKG20060207225012302/07/06 22:50:31  5-MIN KMKG 080350Z 01007KT 10SM FEW040 OVC049 M04/M09 A3016 410 68 -1700 010/07 RMK AO2 SLP221 T10391089
14840KMKG MKG20060207225512302/07/06 22:55:31  5-MIN KMKG 080355Z 02009KT 10SM FEW040 OVC049 M04/M09 A3016 410 68 -1700 030/09 RMK AO2 SLP222 T10391089
14840KMKG MKG20060207230009902/07/06 23:00:31  5-MIN KMKG 080400Z 02007KT 10SM OVC049 M04/M09 A3016 410 65 -1700 020/07 RMK AO2
14840KMKG MKG20060207230509902/07/06 23:05:31  5-MIN KMKG 080405Z 02006KT 10SM OVC049 M04/M09 A3016 410 68 -1700 030/06 RMK AO2
14840KMKG MKG20060207231009902/07/06 23:10:31  5-MIN KMKG 080410Z 02007KT 10SM OVC049 M04/M09 A3016 410 68 -1700 030/07 RMK AO2
14840KMKG MKG20060207231509902/07/06 23:15:31  5-MIN KMKG 080415Z 02007KT 10SM OVC049 M04/M09 A3016 410 68 -1700 030/07 RMK AO2
14840KMKG MKG20060207232009902/07/06 23:20:31  5-MIN KMKG 080420Z 02007KT 10SM OVC049 M04/M09 A3016 410 68 -1700 020/07 RMK AO2
14840KMKG MKG20060207232510602/07/06 23:25:31  5-MIN KMKG 080425Z 02006KT 10SM FEW039 OVC049 M04/M09 A3016 410 68 -1700 030/06 RMK AO2
14840KMKG MKG20060207233010602/07/06 23:30:31  5-MIN KMKG 080430Z 01006KT 10SM FEW039 OVC049 M04/M09 A3016 410 68 -1700 020/06 RMK AO2
14840KMKG MKG20060207233510602/07/06 23:35:31  5-MIN KMKG 080435Z 36006KT 10SM FEW039 OVC049 M04/M09 A3016 410 68 -1700 360/06 RMK AO2
14840KMKG MKG20060207234010602/07/06 23:40:31  5-MIN KMKG 080440Z 36007KT 10SM FEW039 OVC049 M04/M09 A3016 410 68 -1700 010/07 RMK AO2
14840KMKG MKG20060207234510602/07/06 23:45:31  5-MIN KMKG 080445Z 36006KT 10SM FEW039 OVC049 M04/M09 A3016 410 68 -1700 010/06 RMK AO2
14840KMKG MKG20060207235013302/07/06 23:50:31  5-MIN KMKG 080450Z 36007KT 10SM FEW039 OVC049 M04/M09 A3016 410 68 -1700 360/07 RMK AO2 SLP221 T10391089 410111061
14840KMKG MKG20060207235513302/07/06 23:55:31  5-MIN KMKG 080455Z 36007KT 10SM FEW039 OVC049 M04/M09 A3016 410 68 -1700 360/07 RMK AO2 SLP221 T10391089 410111061
14840KMKG MKG20060208000010602/08/06 00:00:32  5-MIN KMKG 080500Z 01006KT 10SM FEW039 OVC049 M04/M09 A3016 410 68 -1700 020/06 RMK AO2
14840KMKG MKG20060208000509902/08/06 00:05:31  5-MIN KMKG 080505Z 02006KT 10SM OVC049 M04/M09 A3015 410 68 -1700 030/06 RMK AO2
14840KMKG MKG20060208001009902/08/06 00:10:31  5-MIN KMKG 080510Z 02006KT 10SM OVC049 M04/M09 A3016 410 68 -1700 020/06 RMK AO2
14840KMKG MKG20060208001509902/08/06 00:15:31  5-MIN KMKG 080515Z 03007KT 10SM OVC049 M04/M09 A3016 410 68 -1700 030/07 RMK AO2
14840KMKG MKG20060208002009902/08/06 00:20:31  5-MIN KMKG 080520Z 03005KT 10SM OVC049 M04/M09 A3016 410 68 -1700 030/05 RMK AO2
14840KMKG MKG20060208002509902/08/06 00:25:31  5-MIN KMKG 080525Z 02006KT 10SM OVC049 M04/M09 A3016 410 71 -1800 030/06 RMK AO2
14840KMKG MKG20060208003009902/08/06 00:30:31  5-MIN KMKG 080530Z 03005KT 10SM OVC049 M04/M09 A3016 410 71 -1800 030/05 RMK AO2
14840KMKG MKG20060208003509902/08/06 00:35:31  5-MIN KMKG 080535Z 03007KT 10SM OVC049 M04/M09 A3016 410 71 -1800 040/07 RMK AO2
14840KMKG MKG20060208004009902/08/06 00:40:31  5-MIN KMKG 080540Z 02007KT 10SM OVC049 M04/M09 A3016 410 71 -1800 030/07 RMK AO2
14840KMKG MKG20060208004509902/08/06 00:45:31  5-MIN KMKG 080545Z 02008KT 10SM OVC049 M04/M09 A3016 410 71 -1800 030/08 RMK AO2
14840KMKG MKG20060208005013402/08/06 00:50:31  5-MIN KMKG 080550Z 02007KT 10SM OVC049 M04/M09 A3016 410 71 -1800 020/07 RMK AO2 SLP221 T10441089 11028 21044 53004
14840KMKG MKG20060208005513402/08/06 00:55:31  5-MIN KMKG 080555Z 03006KT 10SM OVC049 M04/M09 A3015 410 71 -1800 040/06 RMK AO2 SLP220 T10441089 11028 21044 56003
14840KMKG MKG20060208010009902/08/06 01:00:31  5-MIN KMKG 080600Z 03006KT 10SM OVC049 M04/M09 A3015 420 71 -1800 040/06 RMK AO2
14840KMKG MKG20060208010509902/08/06 01:05:31  5-MIN KMKG 080605Z 03005KT 10SM OVC049 M04/M09 A3015 420 71 -1800 030/05 RMK AO2
14840KMKG MKG20060208011009902/08/06 01:10:31  5-MIN KMKG 080610Z VRB03KT 10SM OVC049 M04/M09 A3015 420 71 -1800 VRB/03 RMK AO2
14840KMKG MKG20060208011509902/08/06 01:15:31  5-MIN KMKG 080615Z 02006KT 10SM OVC049 M04/M09 A3015 420 71 -1800 030/06 RMK AO2
14840KMKG MKG20060208012009902/08/06 01:20:31  5-MIN KMKG 080620Z 01005KT 10SM OVC049 M04/M09 A3015 420 71 -1800 010/05 RMK AO2
14840KMKG MKG20060208012509902/08/06 01:25:31  5-MIN KMKG 080625Z 04005KT 10SM OVC049 M04/M09 A3015 420 71 -1800 040/05 RMK AO2
14840KMKG MKG20060208013009902/08/06 01:30:31  5-MIN KMKG 080630Z 05005KT 10SM OVC049 M04/M09 A3015 420 71 -1800 060/05 RMK AO2
14840KMKG MKG20060208013509902/08/06 01:35:31  5-MIN KMKG 080635Z 03006KT 10SM OVC049 M04/M09 A3015 420 71 -1800 030/06 RMK AO2
14840KMKG MKG20060208014009902/08/06 01:40:31  5-MIN KMKG 080640Z 03006KT 10SM OVC049 M04/M09 A3015 420 68 -1800 030/06 RMK AO2
14840KMKG MKG20060208014510602/08/06 01:45:31  5-MIN KMKG 080645Z 03004KT 10SM FEW041 OVC049 M04/M09 A3015 420 68 -1800 030/04 RMK AO2
14840KMKG MKG20060208015012302/08/06 01:50:31  5-MIN KMKG 080650Z 01004KT 10SM FEW041 OVC049 M04/M09 A3015 420 71 -1800 010/04 RMK AO2 SLP218 T10441089
14840KMKG MKG20060208015512302/08/06 01:55:31  5-MIN KMKG 080655Z 02004KT 10SM FEW041 OVC049 M04/M09 A3015 420 68 -1800 020/04 RMK AO2 SLP218 T10441094
14840KMKG MKG20060208020010602/08/06 02:00:31  5-MIN KMKG 080700Z 02004KT 10SM FEW041 OVC049 M04/M09 A3015 420 68 -1800 020/04 RMK AO2
14840KMKG MKG20060208020509902/08/06 02:05:31  5-MIN KMKG 080705Z 03004KT 10SM OVC049 M04/M09 A3015 420 68 -1800 030/04 RMK AO2
14840KMKG MKG20060208021009902/08/06 02:10:31  5-MIN KMKG 080710Z 00000KT 10SM OVC049 M04/M09 A3015 420 68 -1800 000/00 RMK AO2
14840KMKG MKG20060208021509902/08/06 02:15:31  5-MIN KMKG 080715Z 04003KT 10SM OVC049 M04/M09 A3015 420 68 -1800 040/03 RMK AO2
14840KMKG MKG20060208022010602/08/06 02:20:31  5-MIN KMKG 080720Z 02004KT 10SM FEW038 OVC049 M04/M09 A3015 420 68 -1800 020/04 RMK AO2
14840KMKG MKG20060208022510602/08/06 02:25:31  5-MIN KMKG 080725Z 04003KT 10SM FEW038 OVC049 M04/M09 A3015 420 68 -1800 040/03 RMK AO2
14840KMKG MKG20060208023010602/08/06 02:30:31  5-MIN KMKG 080730Z 00000KT 10SM FEW041 OVC049 M04/M09 A3015 420 71 -1800 000/00 RMK AO2
14840KMKG MKG20060208023510602/08/06 02:35:31  5-MIN KMKG 080735Z 07003KT 10SM FEW041 OVC049 M04/M09 A3014 420 68 -1800 070/03 RMK AO2
14840KMKG MKG20060208024010602/08/06 02:40:31  5-MIN KMKG 080740Z 00000KT 10SM FEW039 OVC049 M04/M09 A3015 420 68 -1800 000/00 RMK AO2
14840KMKG MKG20060208024510602/08/06 02:45:31  5-MIN KMKG 080745Z 00000KT 10SM FEW039 OVC049 M04/M09 A3015 420 71 -1800 000/00 RMK AO2
14840KMKG MKG20060208025012302/08/06 02:50:31  5-MIN KMKG 080750Z 00000KT 10SM FEW043 OVC049 M04/M09 A3014 420 71 -1800 000/00 RMK AO2 SLP217 T10441089
14840KMKG MKG20060208025511602/08/06 02:55:31  5-MIN KMKG 080755Z 00000KT 10SM OVC049 M04/M09 A3015 420 68 -1800 000/00 RMK AO2 SLP217 T10441094
14840KMKG MKG20060208030009902/08/06 03:00:31  5-MIN KMKG 080800Z 00000KT 10SM OVC049 M04/M09 A3015 420 68 -1800 000/00 RMK AO2
14840KMKG MKG20060208030509902/08/06 03:05:31  5-MIN KMKG 080805Z 03003KT 10SM OVC049 M04/M09 A3014 420 68 -1800 040/03 RMK AO2
14840KMKG MKG20060208031009902/08/06 03:10:31  5-MIN KMKG 080810Z 02003KT 10SM OVC049 M04/M09 A3014 420 68 -1800 020/03 RMK AO2
14840KMKG MKG20060208031509902/08/06 03:15:31  5-MIN KMKG 080815Z VRB03KT 10SM OVC049 M04/M09 A3014 420 68 -1800 VRB/03 RMK AO2
14840KMKG MKG20060208032009902/08/06 03:20:31  5-MIN KMKG 080820Z 01004KT 10SM OVC049 M04/M09 A3014 430 68 -1800 010/04 RMK AO2
14840KMKG MKG20060208032509902/08/06 03:25:31  5-MIN KMKG 080825Z 36004KT 10SM OVC049 M04/M09 A3014 430 68 -1800 360/04 RMK AO2
14840KMKG MKG20060208033009902/08/06 03:30:31  5-MIN KMKG 080830Z 36004KT 10SM OVC049 M04/M09 A3014 430 68 -1800 360/04 RMK AO2
14840KMKG MKG20060208033509902/08/06 03:35:31  5-MIN KMKG 080835Z 01004KT 10SM OVC049 M04/M09 A3014 430 68 -1800 010/04 RMK AO2
14840KMKG MKG20060208034009902/08/06 03:40:31  5-MIN KMKG 080840Z 01003KT 10SM OVC049 M04/M09 A3014 430 68 -1800 010/03 RMK AO2
14840KMKG MKG20060208034509902/08/06 03:45:31  5-MIN KMKG 080845Z 36003KT 10SM OVC049 M04/M09 A3014 430 68 -1800 360/03 RMK AO2
14840KMKG MKG20060208035012202/08/06 03:50:31  5-MIN KMKG 080850Z 01003KT 10SM OVC049 M04/M10 A3014 430 65 -1800 010/03 RMK AO2 SLP215 T10441100 56003
14840KMKG MKG20060208035512202/08/06 03:55:31  5-MIN KMKG 080855Z 02003KT 10SM OVC049 M04/M10 A3014 430 65 -1800 030/03 RMK AO2 SLP214 T10441100 58006
14840KMKG MKG20060208040009902/08/06 04:00:31  5-MIN KMKG 080900Z 00000KT 10SM OVC049 M04/M10 A3013 430 65 -1800 000/00 RMK AO2
14840KMKG MKG20060208040509902/08/06 04:05:31  5-MIN KMKG 080905Z 00000KT 10SM OVC049 M04/M10 A3013 430 65 -1800 000/00 RMK AO2
14840KMKG MKG20060208041009902/08/06 04:10:31  5-MIN KMKG 080910Z 00000KT 10SM OVC055 M05/M10 A3013 440 68 -1800 000/00 RMK AO2
14840KMKG MKG20060208041509902/08/06 04:15:31  5-MIN KMKG 080915Z 00000KT 10SM OVC055 M04/M10 A3013 440 65 -1800 000/00 RMK AO2
14840KMKG MKG20060208042009902/08/06 04:20:31  5-MIN KMKG 080920Z 00000KT 10SM OVC055 M04/M10 A3013 440 65 -1800 000/00 RMK AO2
14840KMKG MKG20060208042509902/08/06 04:25:31  5-MIN KMKG 080925Z 00000KT 10SM OVC050 M05/M09 A3013 440 71 -1800 000/00 RMK AO2
14840KMKG MKG20060208043009902/08/06 04:30:31  5-MIN KMKG 080930Z 00000KT 10SM OVC050 M05/M09 A3013 440 71 -1800 000/00 RMK AO2
14840KMKG MKG20060208043509902/08/06 04:35:31  5-MIN KMKG 080935Z 00000KT 10SM OVC050 M04/M10 A3013 440 65 -1800 000/00 RMK AO2
14840KMKG MKG20060208044009902/08/06 04:40:31  5-MIN KMKG 080940Z 00000KT 10SM OVC050 M04/M10 A3013 440 65 -1800 000/00 RMK AO2
14840KMKG MKG20060208044509902/08/06 04:45:31  5-MIN KMKG 080945Z 00000KT 10SM OVC050 M05/M09 A3013 430 71 -1800 000/00 RMK AO2
14840KMKG MKG20060208045011602/08/06 04:50:31  5-MIN KMKG 080950Z 00000KT 10SM OVC050 M05/M09 A3013 430 74 -1800 000/00 RMK AO2 SLP213 T10501089
14840KMKG MKG20060208045511602/08/06 04:55:31  5-MIN KMKG 080955Z 00000KT 10SM OVC050 M04/M09 A3013 430 71 -1800 000/00 RMK AO2 SLP214 T10441089
14840KMKG MKG20060208050009902/08/06 05:00:31  5-MIN KMKG 081000Z 08003KT 10SM OVC050 M04/M08 A3013 440 74 -1800 080/03 RMK AO2
14840KMKG MKG20060208050509902/08/06 05:05:31  5-MIN KMKG 081005Z 06003KT 10SM OVC050 M04/M09 A3013 440 71 -1800 070/03 RMK AO2
14840KMKG MKG20060208051010602/08/06 05:10:31  5-MIN KMKG 081010Z 00000KT 10SM BKN046 OVC055 M04/M09 A3013 430 71 -1800 000/00 RMK AO2
14840KMKG MKG20060208051510602/08/06 05:15:31  5-MIN KMKG 081015Z 00000KT 10SM SCT041 OVC050 M04/M09 A3013 430 68 -1800 000/00 RMK AO2
14840KMKG MKG20060208052010602/08/06 05:20:31  5-MIN KMKG 081020Z 03003KT 10SM SCT038 OVC050 M04/M09 A3013 430 68 -1800 030/03 RMK AO2
14840KMKG MKG20060208052510602/08/06 05:25:31  5-MIN KMKG 081025Z 02004KT 10SM BKN040 OVC050 M04/M09 A3013 430 68 -1800 020/04 RMK AO2
14840KMKG MKG20060208053010602/08/06 05:30:31  5-MIN KMKG 081030Z 02004KT 10SM BKN038 OVC047 M04/M09 A3014 430 68 -1800 020/04 RMK AO2
14840KMKG MKG20060208053512102/08/06 05:35:31  5-MIN KMKG 081035Z 02005KT 7SM -SN BKN040 OVC050 M04/M09 A3014 430 68 -1800 030/05 RMK AO2 SNB35 P0000
14840KMKG MKG20060208054012102/08/06 05:40:31  5-MIN KMKG 081040Z 03005KT 5SM -SN FEW021 OVC038 M04/M09 A3014 430 71 -1800 030/05 RMK AO2 SNB35 P0000
14840KMKG MKG20060208054512102/08/06 05:45:31  5-MIN KMKG 081045Z 01006KT 4SM -SN FEW019 OVC038 M04/M09 A3014 430 71 -1800 010/06 RMK AO2 SNB35 P0000
14840KMKG MKG20060208055013802/08/06 05:50:31  5-MIN KMKG 081050Z 01005KT 3SM -SN SCT019 OVC038 M05/M08 A3014 430 77 -1900 010/05 RMK AO2 SNB35 SLP216 P0000 T10501083
14840KMKG MKG20060208055514202/08/06 05:55:31  5-MIN KMKG 081055Z 02008KT 2 1/2SM -SN SCT019 OVC038 M05/M08 A3014 430 77 -1900 020/08 RMK AO2 SNB35 SLP217 P0000 T10501083
14840KMKG MKG20060208060011902/08/06 06:00:31  5-MIN KMKG 081100Z 01007KT 2 1/2SM -SN BKN019 OVC038 M05/M08 A3014 420 77 -1900 010/07 RMK AO2 P0000
14840KMKG MKG20060208060513702/08/06 06:05:31  5-MIN KMKG 081105Z 01005KT 2SM -SN BR FEW009 BKN019 OVC038 M06/M08 A3014 420 84 -1900 010/05 RMK AO2 VIS 1 1/2V3 P0000
14840KMKG MKG20060208061012902/08/06 06:10:31  5-MIN KMKG 081110Z 03004KT 1 3/4SM -SN BR SCT006 BKN019 OVC038 M06/M08 A3014 430 84 -1900 030/04 RMK AO2 P0000
14840KMKG MKG20060208061514402/08/06 06:15:31  5-MIN KMKG 081115Z 03003KT 1 1/4SM -SN BR SCT004 BKN019 OVC036 M06/M07 A3014 420 88 -1900 030/03 RMK AO2 CIG 009 RWY 14 P0000
14840KMKG MKG20060208062014402/08/06 06:20:31  5-MIN KMKG 081120Z 01004KT 1 1/4SM -SN BR SCT004 BKN021 OVC038 M06/M07 A3014 420 88 -1900 020/04 RMK AO2 CIG 009 RWY 14 P0000
14840KMKG MKG20060208062512502/08/06 06:25:31  5-MIN KMKG 081125Z 01005KT 2SM -SN BR SCT007 BKN021 OVC060 M06/M08 A3014 420 84 -1900 010/05 RMK AO2 P0000
14840KMKG MKG20060208063012502/08/06 06:30:31  5-MIN KMKG 081130Z 01004KT 3SM -SN BR FEW002 BKN037 OVC060 M06/M08 A3014 420 84 -1900 020/04 RMK AO2 P0000
14840KMKG MKG20060208063512202/08/06 06:35:31  5-MIN KMKG 081135Z 01005KT 7SM -SN FEW002 BKN050 OVC060 M06/M08 A3015 420 84 -1900 020/05 RMK AO2 P0000
14840KMKG MKG20060208064012402/08/06 06:40:31  5-MIN KMKG 081140Z 02004KT 9SM FEW007 SCT037 OVC060 M06/M08 A3014 420 84 -1900 030/04 RMK AO2 SNE37 P0000
14840KMKG MKG20060208064511802/08/06 06:45:31  5-MIN KMKG 081145Z 02005KT 10SM FEW036 OVC060 M06/M08 A3014 420 84 -1900 030/05 RMK AO2 SNE37 P0000
14840KMKG MKG20060208065015202/08/06 06:50:31  5-MIN KMKG 081150Z 02005KT 10SM OVC060 M06/M08 A3015 420 84 -1900 020/05 RMK AO2 SNE37 SLP218 P0000 60000 T10561078 11044 21056 58006
14840KMKG MKG20060208065515202/08/06 06:55:31  5-MIN KMKG 081155Z 02007KT 10SM OVC055 M06/M08 A3015 420 84 -1900 020/07 RMK AO2 SNE37 SLP219 P0000 60000 T10561078 11044 21056 53004
14840KMKG MKG20060208070009902/08/06 07:00:31  5-MIN KMKG 081200Z 02007KT 10SM OVC055 M06/M08 A3015 420 84 -1900 020/07 RMK AO2
14840KMKG MKG20060208070509902/08/06 07:05:31  5-MIN KMKG 081205Z 01007KT 10SM BKN055 M06/M08 A3015 420 84 -1900 020/07 RMK AO2
14840KMKG MKG20060208071009902/08/06 07:10:31  5-MIN KMKG 081210Z 02007KT 10SM BKN055 M06/M08 A3016 410 88 -2000 020/07 RMK AO2
14840KMKG MKG20060208071509902/08/06 07:15:31  5-MIN KMKG 081215Z 02006KT 10SM BKN050 M06/M08 A3016 410 84 -2000 020/06 RMK AO2
14840KMKG MKG20060208072010602/08/06 07:20:31  5-MIN KMKG 081220Z 01006KT 10SM SCT047 BKN055 M06/M08 A3016 410 88 -2000 010/06 RMK AO2
14840KMKG MKG20060208072511302/08/06 07:25:31  5-MIN KMKG 081225Z 36006KT 10SM FEW014 BKN047 BKN055 M06/M08 A3016 410 88 -2000 010/06 RMK AO2
14840KMKG MKG20060208073010602/08/06 07:30:31  5-MIN KMKG 081230Z 01006KT 10SM FEW014 BKN047 M06/M08 A3016 410 88 -2000 010/06 RMK AO2
14840KMKG MKG20060208073510602/08/06 07:35:31  5-MIN KMKG 081235Z 02008KT 10SM FEW014 BKN047 M06/M08 A3016 410 84 -2000 020/08 RMK AO2
14840KMKG MKG20060208074010602/08/06 07:40:31  5-MIN KMKG 081240Z 01007KT 10SM FEW014 OVC047 M06/M08 A3016 410 84 -2000 020/07 RMK AO2
14840KMKG MKG20060208074509902/08/06 07:45:31  5-MIN KMKG 081245Z 03008KT 10SM OVC047 M06/M08 A3017 400 84 -2000 030/08 RMK AO2
14840KMKG MKG20060208075011602/08/06 07:50:31  5-MIN KMKG 081250Z 01010KT 10SM OVC045 M06/M08 A3017 400 84 -2000 010/10 RMK AO2 SLP226 T10611083
14840KMKG MKG20060208075512302/08/06 07:55:31  5-MIN KMKG 081255Z 03009KT 10SM FEW014 OVC045 M06/M09 A3017 400 77 -2000 030/09 RMK AO2 SLP226 T10561089
14840KMKG MKG20060208080009902/08/06 08:00:31  5-MIN KMKG 081300Z 02009KT 10SM OVC043 M06/M09 A3017 400 81 -2000 030/09 RMK AO2
14840KMKG MKG20060208080509902/08/06 08:05:31  5-MIN KMKG 081305Z 02008KT 10SM OVC043 M06/M09 A3017 400 81 -2000 030/08 RMK AO2
14840KMKG MKG20060208081009902/08/06 08:10:31  5-MIN KMKG 081310Z 01007KT 10SM OVC043 M06/M09 A3017 400 81 -2000 020/07 RMK AO2
14840KMKG MKG20060208081509902/08/06 08:15:31  5-MIN KMKG 081315Z 02009KT 10SM OVC040 M06/M09 A3017 400 77 -2000 020/09 RMK AO2
14840KMKG MKG20060208082010602/08/06 08:20:31  5-MIN KMKG 081320Z 02009KT 10SM FEW035 BKN043 M06/M09 A3018 400 77 -2000 020/09 RMK AO2
14840KMKG MKG20060208082510602/08/06 08:25:31  5-MIN KMKG 081325Z 02008KT 10SM FEW035 BKN043 M06/M09 A3018 390 77 -2000 020/08 RMK AO2
14840KMKG MKG20060208083011302/08/06 08:30:31  5-MIN KMKG 081330Z 01008KT 10SM FEW034 SCT042 SCT110 M07/M10 A3018 390 77 -2100 010/08 RMK AO2
14840KMKG MKG20060208083510602/08/06 08:35:31  5-MIN KMKG 081335Z 03009KT 10SM FEW034 BKN110 M06/M10 A3018 390 74 -2000 030/09 RMK AO2
14840KMKG MKG20060208084010602/08/06 08:40:31  5-MIN KMKG 081340Z 02007KT 10SM FEW034 BKN110 M06/M10 A3018 390 74 -2000 030/07 RMK AO2
14840KMKG MKG20060208084509902/08/06 08:45:31  5-MIN KMKG 081345Z 03009KT 10SM BKN110 M06/M11 A3018 390 71 -2000 030/09 RMK AO2
14840KMKG MKG20060208085011602/08/06 08:50:31  5-MIN KMKG 081350Z 03008KT 10SM BKN110 M06/M11 A3018 390 71 -2000 040/08 RMK AO2 SLP230 T10611106
14840KMKG MKG20060208085512302/08/06 08:55:31  5-MIN KMKG 081355Z 02010KT 10SM FEW034 SCT110 M06/M11 A3018 390 68 -2000 020/10 RMK AO2 SLP231 T10611111
14840KMKG MKG20060208090009902/08/06 09:00:31  5-MIN KMKG 081400Z 04009KT 10SM SCT110 M06/M11 A3019 380 68 -2000 040/09 RMK AO2
14840KMKG MKG20060208090509902/08/06 09:05:31  5-MIN KMKG 081405Z 03009KT 10SM FEW110 M06/M11 A3019 380 68 -2000 040/09 RMK AO2
14840KMKG MKG20060208091009902/08/06 09:10:31  5-MIN KMKG 081410Z 03011KT 10SM FEW110 M06/M11 A3019 380 68 -2000 030/11 RMK AO2
14840KMKG MKG20060208091509602/08/06 09:15:31  5-MIN KMKG 081415Z 04008KT 10SM CLR M06/M11 A3019 380 68 -2000 040/08 RMK AO2
14840KMKG MKG20060208092009602/08/06 09:20:31  5-MIN KMKG 081420Z 04010KT 10SM CLR M06/M12 A3019 380 65 -2000 050/10 RMK AO2
14840KMKG MKG20060208092509602/08/06 09:25:31  5-MIN KMKG 081425Z 05008KT 10SM CLR M06/M12 A3019 380 65 -2100 060/08 RMK AO2
14840KMKG MKG20060208093009602/08/06 09:30:31  5-MIN KMKG 081430Z 05011KT 10SM CLR M07/M12 A3019 380 65 -2100 060/11 RMK AO2
14840KMKG MKG20060208093509602/08/06 09:35:31  5-MIN KMKG 081435Z 06010KT 10SM CLR M07/M12 A3019 380 65 -2100 060/10 RMK AO2
14840KMKG MKG20060208094009602/08/06 09:40:31  5-MIN KMKG 081440Z 05011KT 10SM CLR M07/M12 A3019 380 65 -2100 050/11 RMK AO2
14840KMKG MKG20060208094509902/08/06 09:45:31  5-MIN KMKG 081445Z 06011KT 10SM SCT026 M07/M12 A3020 380 65 -2100 060/11 RMK AO2
14840KMKG MKG20060208095012202/08/06 09:50:31  5-MIN KMKG 081450Z 04011KT 10SM SCT026 M06/M12 A3019 380 62 -2100 050/11 RMK AO2 SLP234 T10611122 53004
14840KMKG MKG20060208095512202/08/06 09:55:31  5-MIN KMKG 081455Z 04010KT 10SM SCT026 M06/M13 A3019 380 59 -2100 050/10 RMK AO2 SLP234 T10611128 51015
14840KMKG MKG20060208100009902/08/06 10:00:31  5-MIN KMKG 081500Z 04013KT 10SM SCT026 M06/M13 A3019 380 59 -2100 050/13 RMK AO2
14840KMKG MKG20060208100509902/08/06 10:05:31  5-MIN KMKG 081505Z 06013KT 10SM SCT026 M06/M13 A3019 380 59 -2100 060/13 RMK AO2
14840KMKG MKG20060208101009902/08/06 10:10:31  5-MIN KMKG 081510Z 06011KT 10SM SCT026 M06/M13 A3019 380 57 -2000 060/11 RMK AO2
14840KMKG MKG20060208101510602/08/06 10:15:31  5-MIN KMKG 081515Z 06011KT 10SM SCT026 SCT120 M06/M13 A3019 380 57 -2000 060/11 RMK AO2
14840KMKG MKG20060208102010602/08/06 10:20:31  5-MIN KMKG 081520Z 07011KT 10SM SCT029 SCT120 M06/M13 A3019 380 57 -2000 070/11 RMK AO2
14840KMKG MKG20060208102510602/08/06 10:25:31  5-MIN KMKG 081525Z 06010KT 10SM SCT029 SCT120 M06/M12 A3019 380 59 -2000 060/10 RMK AO2
14840KMKG MKG20060208103010602/08/06 10:30:31  5-MIN KMKG 081530Z 05009KT 10SM SCT029 SCT120 M05/M13 A3019 380 55 -1900 050/09 RMK AO2
14840KMKG MKG20060208103509902/08/06 10:35:31  5-MIN KMKG 081535Z 03011KT 10SM SCT035 M05/M12 A3020 380 57 -1900 040/11 RMK AO2
14840KMKG MKG20060208104010502/08/06 10:40:31  5-MIN KMKG 081540Z 02014G17KT 10SM SCT035 M05/M13 A3020 370 55 -1900 030/14G17 RMK AO2
14840KMKG MKG20060208104509902/08/06 10:45:31  5-MIN KMKG 081545Z 04010KT 10SM SCT035 M05/M13 A3020 370 55 -1900 040/10 RMK AO2
14840KMKG MKG20060208105011602/08/06 10:50:31  5-MIN KMKG 081550Z 05012KT 10SM SCT035 M05/M13 A3020 370 55 -1900 050/12 RMK AO2 SLP237 T10501128
14840KMKG MKG20060208105511602/08/06 10:55:31  5-MIN KMKG 081555Z 05008KT 10SM SCT035 M05/M13 A3020 370 52 -1900 060/08 RMK AO2 SLP236 T10501133
14840KMKG MKG20060208110010502/08/06 11:00:31  5-MIN KMKG 081600Z 06011G16KT 10SM SCT035 M05/M13 A3020 370 55 -1900 060/11G16 RMK AO2
14840KMKG MKG20060208110510502/08/06 11:05:31  5-MIN KMKG 081605Z 07011G16KT 10SM SCT035 M05/M13 A3020 370 55 -1900 080/11G16 RMK AO2
14840KMKG MKG20060208111009902/08/06 11:10:31  5-MIN KMKG 081610Z 03013KT 10SM SCT035 M05/M12 A3020 370 57 -1900 040/13 RMK AO2
14840KMKG MKG20060208111509902/08/06 11:15:31  5-MIN KMKG 081615Z 05010KT 10SM SCT035 M04/M12 A3020 370 55 -1800 050/10 RMK AO2
14840KMKG MKG20060208112009902/08/06 11:20:31  5-MIN KMKG 081620Z 05011KT 10SM BKN035 M04/M12 A3020 370 55 -1900 060/11 RMK AO2
14840KMKG MKG20060208112509902/08/06 11:25:31  5-MIN KMKG 081625Z 07012KT 10SM BKN035 M04/M12 A3021 370 55 -1900 070/12 RMK AO2
14840KMKG MKG20060208113009902/08/06 11:30:31  5-MIN KMKG 081630Z 07011KT 10SM BKN035 M04/M12 A3020 370 55 -1900 070/11 RMK AO2
14840KMKG MKG20060208113509902/08/06 11:35:31  5-MIN KMKG 081635Z 03008KT 10SM BKN035 M04/M12 A3020 370 55 -1900 030/08 RMK AO2
14840KMKG MKG20060208114010502/08/06 11:40:31  5-MIN KMKG 081640Z 03012G18KT 10SM BKN035 M04/M12 A3021 370 52 -1800 030/12G18 RMK AO2
14840KMKG MKG20060208114510502/08/06 11:45:31  5-MIN KMKG 081645Z 02011G18KT 10SM SCT035 M04/M12 A3021 370 55 -1900 020/11G18 RMK AO2
14840KMKG MKG20060208115011602/08/06 11:50:31  5-MIN KMKG 081650Z 02014KT 10SM SCT035 M04/M13 A3020 370 52 -1900 020/14 RMK AO2 SLP238 T10441128
14840KMKG MKG20060208115512202/08/06 11:55:31  5-MIN KMKG 081655Z 02011G17KT 10SM SCT035 M04/M13 A3020 370 52 -1900 030/11G17 RMK AO2 SLP237 T10441128
14840KMKG MKG20060208120010502/08/06 12:00:31  5-MIN KMKG 081700Z 03013G18KT 10SM FEW035 M04/M13 A3020 370 50 -1800 030/13G18 RMK AO2
14840KMKG MKG20060208120510502/08/06 12:05:31  5-MIN KMKG 081705Z 02010G18KT 10SM SCT037 M04/M13 A3020 370 50 -1800 030/10G18 RMK AO2
14840KMKG MKG20060208121009902/08/06 12:10:31  5-MIN KMKG 081710Z 04008KT 10SM SCT037 M04/M13 A3020 370 50 -1800 040/08 RMK AO2
14840KMKG MKG20060208121509902/08/06 12:15:31  5-MIN KMKG 081715Z 05010KT 10SM SCT037 M04/M13 A3020 370 50 -1800 060/10 RMK AO2
14840KMKG MKG20060208122009902/08/06 12:20:31  5-MIN KMKG 081720Z 06008KT 10SM SCT037 M04/M13 A3020 370 52 -1800 060/08 RMK AO2
14840KMKG MKG20060208122509902/08/06 12:25:31  5-MIN KMKG 081725Z 03011KT 10SM SCT037 M04/M13 A3020 370 52 -1800 040/11 RMK AO2
14840KMKG MKG20060208123009902/08/06 12:30:31  5-MIN KMKG 081730Z 03008KT 10SM SCT037 M04/M12 A3020 370 55 -1800 030/08 RMK AO2
14840KMKG MKG20060208123509902/08/06 12:35:31  5-MIN KMKG 081735Z 36010KT 10SM SCT037 M04/M12 A3020 370 52 -1800 010/10 RMK AO2
14840KMKG MKG20060208124009902/08/06 12:40:31  5-MIN KMKG 081740Z 35011KT 10SM SCT037 M04/M12 A3020 370 52 -1800 360/11 RMK AO2
14840KMKG MKG20060208124509902/08/06 12:45:31  5-MIN KMKG 081745Z 03011KT 10SM SCT037 M04/M12 A3020 370 52 -1800 040/11 RMK AO2
14840KMKG MKG20060208125014002/08/06 12:50:31  5-MIN KMKG 081750Z 04006G14KT 10SM SCT037 M04/M13 A3020 370 52 -1800 050/06G14 RMK AO2 SLP236 T10441128 11039 21067 51015
14840KMKG MKG20060208125513402/08/06 12:55:31  5-MIN KMKG 081755Z VRB04KT 10SM BKN037 M04/M12 A3020 370 52 -1800 VRB/04 RMK AO2 SLP236 T10391122 11039 21067 50002
14840KMKG MKG20060208130009902/08/06 13:00:31  5-MIN KMKG 081800Z 03011KT 10SM BKN037 M04/M12 A3020 370 52 -1800 040/11 RMK AO2
14840KMKG MKG20060208130509902/08/06 13:05:31  5-MIN KMKG 081805Z 03010KT 10SM BKN037 M04/M13 A3020 370 50 -1800 030/10 RMK AO2
14840KMKG MKG20060208131009902/08/06 13:10:31  5-MIN KMKG 081810Z 03009KT 10SM BKN039 M04/M12 A3020 370 52 -1800 030/09 RMK AO2
14840KMKG MKG20060208131509902/08/06 13:15:31  5-MIN KMKG 081815Z 01009KT 10SM BKN039 M04/M12 A3020 370 52 -1800 010/09 RMK AO2
14840KMKG MKG20060208132009902/08/06 13:20:31  5-MIN KMKG 081820Z 03009KT 10SM OVC039 M04/M13 A3020 370 50 -1800 040/09 RMK AO2
14840KMKG MKG20060208132509902/08/06 13:25:31  5-MIN KMKG 081825Z 05009KT 10SM BKN039 M04/M13 A3020 370 50 -1800 050/09 RMK AO2
14840KMKG MKG20060208133009902/08/06 13:30:31  5-MIN KMKG 081830Z 03009KT 10SM BKN039 M04/M13 A3020 370 50 -1800 040/09 RMK AO2
14840KMKG MKG20060208133509902/08/06 13:35:31  5-MIN KMKG 081835Z 04007KT 10SM BKN041 M03/M12 A3020 370 50 -1700 040/07 RMK AO2
14840KMKG MKG20060208134009902/08/06 13:40:31  5-MIN KMKG 081840Z 04009KT 10SM SCT041 M03/M12 A3020 370 48 -1600 040/09 RMK AO2
14840KMKG MKG20060208134509902/08/06 13:45:31  5-MIN KMKG 081845Z 03010KT 10SM SCT041 M03/M12 A3020 380 50 -1700 030/10 RMK AO2
14840KMKG MKG20060208135011602/08/06 13:50:31  5-MIN KMKG 081850Z 07009KT 10SM FEW041 M03/M13 A3020 370 48 -1700 070/09 RMK AO2 SLP236 T10331128
14840KMKG MKG20060208135511602/08/06 13:55:31  5-MIN KMKG 081855Z 08006KT 10SM SCT041 M03/M13 A3020 380 48 -1700 090/06 RMK AO2 SLP235 T10331128
14840KMKG MKG20060208140009902/08/06 14:00:31  5-MIN KMKG 081900Z VRB06KT 10SM SCT041 M02/M12 A3020 380 46 -1600 VRB/06 RMK AO2
14840KMKG MKG20060208140509902/08/06 14:05:31  5-MIN KMKG 081905Z 04009KT 10SM SCT041 M02/M12 A3020 380 48 -1600 050/09 RMK AO2
14840KMKG MKG20060208141009902/08/06 14:10:31  5-MIN KMKG 081910Z 04007KT 10SM SCT041 M03/M12 A3020 380 48 -1600 040/07 RMK AO2
14840KMKG MKG20060208141509902/08/06 14:15:31  5-MIN KMKG 081915Z 05007KT 10SM SCT041 M02/M12 A3020 370 48 -1600 050/07 RMK AO2
14840KMKG MKG20060208142009902/08/06 14:20:31  5-MIN KMKG 081920Z 04010KT 10SM SCT041 M03/M12 A3020 380 48 -1600 050/10 RMK AO2
14840KMKG MKG20060208142509902/08/06 14:25:31  5-MIN KMKG 081925Z 04008KT 10SM SCT041 M03/M12 A3020 380 48 -1600 050/08 RMK AO2
14840KMKG MKG20060208143009902/08/06 14:30:31  5-MIN KMKG 081930Z 06007KT 10SM SCT041 M03/M12 A3020 380 48 -1600 070/07 RMK AO2
14840KMKG MKG20060208143511502/08/06 14:35:31  5-MIN KMKG 081935Z 06012KT 020V100 10SM SCT041 M02/M12 A3020 370 46 -1600 060/12 020V100 RMK AO2
14840KMKG MKG20060208144009902/08/06 14:40:31  5-MIN KMKG 081940Z 07008KT 10SM SCT041 M03/M12 A3020 380 48 -1600 080/08 RMK AO2
14840KMKG MKG20060208144509902/08/06 14:45:31  5-MIN KMKG 081945Z 06009KT 10SM SCT041 M02/M12 A3020 370 46 -1600 060/09 RMK AO2
14840KMKG MKG20060208145011602/08/06 14:50:31  5-MIN KMKG 081950Z 04007KT 10SM SCT041 M02/M12 A3020 370 46 -1600 050/07 RMK AO2 SLP236 T10221122
14840KMKG MKG20060208145511602/08/06 14:55:31  5-MIN KMKG 081955Z 07008KT 10SM SCT041 M02/M12 A3020 380 46 -1600 080/08 RMK AO2 SLP235 T10221122
14840KMKG MKG20060208150009902/08/06 15:00:31  5-MIN KMKG 082000Z 03008KT 10SM SCT041 M02/M12 A3019 380 44 -1500 030/08 RMK AO2
14840KMKG MKG20060208150509902/08/06 15:05:31  5-MIN KMKG 082005Z 03006KT 10SM BKN041 M02/M12 A3020 380 44 -1500 030/06 RMK AO2
14840KMKG MKG20060208151009902/08/06 15:10:31  5-MIN KMKG 082010Z 04011KT 10SM BKN041 M02/M12 A3020 370 46 -1600 040/11 RMK AO2
14840KMKG MKG20060208151509902/08/06 15:15:31  5-MIN KMKG 082015Z 03009KT 10SM BKN041 M03/M12 A3020 370 48 -1600 040/09 RMK AO2
14840KMKG MKG20060208152009902/08/06 15:20:31  5-MIN KMKG 082020Z 02009KT 10SM BKN043 M03/M12 A3020 370 48 -1600 020/09 RMK AO2
14840KMKG MKG20060208152509902/08/06 15:25:31  5-MIN KMKG 082025Z 04008KT 10SM BKN043 M02/M12 A3020 370 46 -1600 040/08 RMK AO2
14840KMKG MKG20060208153009902/08/06 15:30:31  5-MIN KMKG 082030Z 06008KT 10SM OVC043 M02/M12 A3020 370 46 -1600 060/08 RMK AO2
14840KMKG MKG20060208153509902/08/06 15:35:31  5-MIN KMKG 082035Z 05008KT 10SM BKN043 M03/M12 A3020 370 48 -1600 050/08 RMK AO2
14840KMKG MKG20060208154009902/08/06 15:40:31  5-MIN KMKG 082040Z 06004KT 10SM BKN043 M03/M13 A3020 370 46 -1600 060/04 RMK AO2
14840KMKG MKG20060208154509902/08/06 15:45:31  5-MIN KMKG 082045Z 36009KT 10SM BKN043 M02/M12 A3021 370 46 -1600 010/09 RMK AO2
14840KMKG MKG20060208155012202/08/06 15:50:31  5-MIN KMKG 082050Z 03008KT 10SM BKN043 M02/M12 A3021 360 46 -1600 030/08 RMK AO2 SLP240 T10221122 50002
14840KMKG MKG20060208155512202/08/06 15:55:31  5-MIN KMKG 082055Z 02007KT 10SM BKN043 M03/M12 A3021 360 48 -1600 020/07 RMK AO2 SLP239 T10281122 53003
14840KMKG MKG20060208160009902/08/06 16:00:31  5-MIN KMKG 082100Z 02006KT 10SM BKN043 M03/M13 A3021 370 46 -1600 030/06 RMK AO2
14840KMKG MKG20060208160509902/08/06 16:05:31  5-MIN KMKG 082105Z 04006KT 10SM BKN043 M03/M13 A3021 370 46 -1600 040/06 RMK AO2
14840KMKG MKG20060208161009902/08/06 16:10:31  5-MIN KMKG 082110Z 05005KT 10SM BKN041 M02/M12 A3020 370 46 -1600 060/05 RMK AO2
14840KMKG MKG20060208161510602/08/06 16:15:31  5-MIN KMKG 082115Z 07006KT 10SM BKN039 BKN047 M02/M12 A3020 370 46 -1600 080/06 RMK AO2
14840KMKG MKG20060208162010602/08/06 16:20:31  5-MIN KMKG 082120Z 02011KT 10SM BKN040 BKN047 M02/M12 A3020 370 46 -1600 030/11 RMK AO2
14840KMKG MKG20060208162510602/08/06 16:25:31  5-MIN KMKG 082125Z 01010KT 10SM SCT040 BKN047 M02/M12 A3020 370 46 -1600 020/10 RMK AO2
14840KMKG MKG20060208163010602/08/06 16:30:31  5-MIN KMKG 082130Z 03009KT 10SM BKN040 BKN047 M02/M12 A3020 370 46 -1600 030/09 RMK AO2
14840KMKG MKG20060208163510602/08/06 16:35:31  5-MIN KMKG 082135Z 01007KT 10SM BKN040 BKN047 M03/M13 A3020 370 46 -1600 010/07 RMK AO2
14840KMKG MKG20060208164009902/08/06 16:40:31  5-MIN KMKG 082140Z 01005KT 10SM SCT042 M03/M13 A3020 370 48 -1700 010/05 RMK AO2
14840KMKG MKG20060208164509902/08/06 16:45:31  5-MIN KMKG 082145Z VRB04KT 10SM FEW042 M03/M12 A3020 370 48 -1600 VRB/04 RMK AO2
14840KMKG MKG20060208165011602/08/06 16:50:31  5-MIN KMKG 082150Z VRB04KT 10SM FEW040 M02/M13 A3020 370 44 -1600 VRB/04 RMK AO2 SLP236 T10221128
14840KMKG MKG20060208165511602/08/06 16:55:31  5-MIN KMKG 082155Z 04005KT 10SM SCT040 M02/M13 A3020 370 44 -1600 050/05 RMK AO2 SLP237 T10221128
14840KMKG MKG20060208170009602/08/06 17:00:31  5-MIN KMKG 082200Z 03007KT 10SM CLR M02/M12 A3020 370 46 -1600 030/07 RMK AO2
14840KMKG MKG20060208170509602/08/06 17:05:31  5-MIN KMKG 082205Z 02007KT 10SM CLR M02/M12 A3020 370 46 -1600 020/07 RMK AO2
14840KMKG MKG20060208171009602/08/06 17:10:31  5-MIN KMKG 082210Z 03006KT 10SM CLR M02/M12 A3020 370 46 -1600 040/06 RMK AO2
14840KMKG MKG20060208171509602/08/06 17:15:31  5-MIN KMKG 082215Z 02007KT 10SM CLR M02/M13 A3021 370 44 -1600 030/07 RMK AO2
14840KMKG MKG20060208172009602/08/06 17:20:31  5-MIN KMKG 082220Z 03006KT 10SM CLR M02/M13 A3021 370 44 -1600 030/06 RMK AO2
14840KMKG MKG20060208172509602/08/06 17:25:31  5-MIN KMKG 082225Z 02007KT 10SM CLR M03/M13 A3021 360 46 -1600 030/07 RMK AO2
14840KMKG MKG20060208173009602/08/06 17:30:31  5-MIN KMKG 082230Z 03005KT 10SM CLR M03/M13 A3021 360 46 -1600 040/05 RMK AO2
14840KMKG MKG20060208173509602/08/06 17:35:31  5-MIN KMKG 082235Z 02005KT 10SM CLR M03/M13 A3021 360 48 -1700 030/05 RMK AO2
14840KMKG MKG20060208174009602/08/06 17:40:31  5-MIN KMKG 082240Z 01007KT 10SM CLR M03/M13 A3021 360 46 -1600 020/07 RMK AO2
14840KMKG MKG20060208174509602/08/06 17:45:31  5-MIN KMKG 082245Z 36005KT 10SM CLR M03/M13 A3021 360 48 -1700 010/05 RMK AO2
14840KMKG MKG20060208175011602/08/06 17:50:31  5-MIN KMKG 082250Z 01005KT 10SM FEW040 M03/M12 A3021 360 50 -1700 020/05 RMK AO2 SLP239 T10331122
14840KMKG MKG20060208175511602/08/06 17:55:31  5-MIN KMKG 082255Z 01006KT 10SM FEW045 M03/M12 A3021 360 50 -1700 010/06 RMK AO2 SLP240 T10331122
14840KMKG MKG20060208180009602/08/06 18:00:31  5-MIN KMKG 082300Z 36005KT 10SM CLR M03/M12 A3021 360 50 -1700 360/05 RMK AO2
14840KMKG MKG20060208180509602/08/06 18:05:31  5-MIN KMKG 082305Z 02005KT 10SM CLR M04/M12 A3021 360 52 -1800 030/05 RMK AO2
14840KMKG MKG20060208181009602/08/06 18:10:31  5-MIN KMKG 082310Z 36005KT 10SM CLR M04/M12 A3021 360 52 -1800 360/05 RMK AO2
14840KMKG MKG20060208181509602/08/06 18:15:31  5-MIN KMKG 082315Z 34006KT 10SM CLR M04/M11 A3022 360 57 -1800 350/06 RMK AO2
14840KMKG MKG20060208182009602/08/06 18:20:31  5-MIN KMKG 082320Z 34007KT 10SM CLR M04/M11 A3022 360 57 -1800 340/07 RMK AO2
14840KMKG MKG20060208182509602/08/06 18:25:31  5-MIN KMKG 082325Z 33008KT 10SM CLR M04/M11 A3022 360 57 -1800 330/08 RMK AO2
14840KMKG MKG20060208183009602/08/06 18:30:31  5-MIN KMKG 082330Z 34010KT 10SM CLR M04/M12 A3022 350 55 -1800 350/10 RMK AO2
14840KMKG MKG20060208183509902/08/06 18:35:31  5-MIN KMKG 082335Z 34009KT 10SM FEW043 M04/M12 A3022 350 52 -1800 350/09 RMK AO2
14840KMKG MKG20060208184009902/08/06 18:40:31  5-MIN KMKG 082340Z 35008KT 10SM FEW043 M04/M12 A3022 350 55 -1800 360/08 RMK AO2
14840KMKG MKG20060208184509902/08/06 18:45:31  5-MIN KMKG 082345Z 35009KT 10SM FEW041 M04/M12 A3022 350 52 -1800 350/09 RMK AO2
14840KMKG MKG20060208185013402/08/06 18:50:31  5-MIN KMKG 082350Z 35009KT 10SM SCT041 M04/M12 A3023 350 52 -1800 360/09 RMK AO2 SLP245 T10391122 11017 21044 53003
14840KMKG MKG20060208185513402/08/06 18:55:31  5-MIN KMKG 082355Z 35006KT 10SM SCT041 M04/M12 A3023 350 55 -1900 350/06 RMK AO2 SLP245 T10441122 11017 21044 53006
14840KMKG MKG20060208190009902/08/06 19:00:31  5-MIN KMKG 090000Z 34009KT 10SM FEW041 M04/M12 A3023 350 55 -1900 350/09 RMK AO2
14840KMKG MKG20060208190509602/08/06 19:05:31  5-MIN KMKG 090005Z 34007KT 10SM CLR M04/M12 A3023 350 55 -1900 350/07 RMK AO2
14840KMKG MKG20060208191009602/08/06 19:10:31  5-MIN KMKG 090010Z 34008KT 10SM CLR M04/M12 A3023 340 55 -1900 340/08 RMK AO2
14840KMKG MKG20060208191509602/08/06 19:15:31  5-MIN KMKG 090015Z 34007KT 10SM CLR M04/M12 A3023 340 55 -1900 350/07 RMK AO2
14840KMKG MKG20060208192009602/08/06 19:20:31  5-MIN KMKG 090020Z 35007KT 10SM CLR M04/M12 A3023 340 55 -1900 350/07 RMK AO2
14840KMKG MKG20060208192509602/08/06 19:25:31  5-MIN KMKG 090025Z 35008KT 10SM CLR M04/M12 A3024 340 55 -1900 350/08 RMK AO2
14840KMKG MKG20060208193009602/08/06 19:30:31  5-MIN KMKG 090030Z 35007KT 10SM CLR M04/M12 A3024 340 55 -1900 350/07 RMK AO2
14840KMKG MKG20060208193509602/08/06 19:35:31  5-MIN KMKG 090035Z 35008KT 10SM CLR M04/M12 A3024 340 55 -1900 350/08 RMK AO2
14840KMKG MKG20060208194009602/08/06 19:40:31  5-MIN KMKG 090040Z 35007KT 10SM CLR M04/M12 A3024 340 55 -1900 350/07 RMK AO2
14840KMKG MKG20060208194509602/08/06 19:45:31  5-MIN KMKG 090045Z 35008KT 10SM CLR M05/M12 A3024 340 57 -2000 350/08 RMK AO2
14840KMKG MKG20060208195011602/08/06 19:50:31  5-MIN KMKG 090050Z 35008KT 10SM FEW043 M05/M12 A3024 330 57 -2000 350/08 RMK AO2 SLP251 T10501122
14840KMKG MKG20060208195511602/08/06 19:55:31  5-MIN KMKG 090055Z 35007KT 10SM FEW043 M05/M12 A3024 330 57 -2000 350/07 RMK AO2 SLP251 T10501122
14840KMKG MKG20060208200009602/08/06 20:00:31  5-MIN KMKG 090100Z 35007KT 10SM CLR M05/M12 A3024 330 57 -2000 350/07 RMK AO2
14840KMKG MKG20060208200509602/08/06 20:05:31  5-MIN KMKG 090105Z 35007KT 10SM CLR M05/M12 A3024 330 57 -2000 360/07 RMK AO2
14840KMKG MKG20060208201009602/08/06 20:10:31  5-MIN KMKG 090110Z 36006KT 10SM CLR M05/M12 A3025 330 60 -2000 360/06 RMK AO2
14840KMKG MKG20060208201509602/08/06 20:15:31  5-MIN KMKG 090115Z 36006KT 10SM CLR M05/M12 A3025 330 60 -2000 360/06 RMK AO2
14840KMKG MKG20060208202009602/08/06 20:20:31  5-MIN KMKG 090120Z 35006KT 10SM CLR M06/M12 A3024 330 62 -2000 360/06 RMK AO2
14840KMKG MKG20060208202509602/08/06 20:25:31  5-MIN KMKG 090125Z 35006KT 10SM CLR M06/M12 A3024 330 62 -2000 360/06 RMK AO2
14840KMKG MKG20060208203009602/08/06 20:30:31  5-MIN KMKG 090130Z 36006KT 10SM CLR M05/M12 A3024 330 60 -2000 010/06 RMK AO2
14840KMKG MKG20060208203509602/08/06 20:35:31  5-MIN KMKG 090135Z 36006KT 10SM CLR M05/M12 A3024 330 57 -2000 010/06 RMK AO2
14840KMKG MKG20060208204009602/08/06 20:40:31  5-MIN KMKG 090140Z 36006KT 10SM CLR M05/M12 A3024 330 57 -2000 010/06 RMK AO2
14840KMKG MKG20060208204509602/08/06 20:45:31  5-MIN KMKG 090145Z 35005KT 10SM CLR M06/M12 A3024 330 62 -2000 360/05 RMK AO2
14840KMKG MKG20060208205011302/08/06 20:50:31  5-MIN KMKG 090150Z 35005KT 10SM CLR M06/M12 A3025 330 62 -2000 350/05 RMK AO2 SLP253 T10561117
14840KMKG MKG20060208205511602/08/06 20:55:31  5-MIN KMKG 090155Z 36007KT 10SM FEW045 M06/M12 A3025 330 59 -2000 360/07 RMK AO2 SLP253 T10561122
14840KMKG MKG20060208210009602/08/06 21:00:31  5-MIN KMKG 090200Z 36008KT 10SM CLR M06/M12 A3025 330 62 -2000 010/08 RMK AO2
14840KMKG MKG20060208210509602/08/06 21:05:31  5-MIN KMKG 090205Z 36008KT 10SM CLR M05/M12 A3025 330 57 -2000 010/08 RMK AO2
14840KMKG MKG20060208211009602/08/06 21:10:31  5-MIN KMKG 090210Z 36009KT 10SM CLR M05/M12 A3025 320 60 -2000 010/09 RMK AO2
14840KMKG MKG20060208211509602/08/06 21:15:31  5-MIN KMKG 090215Z 36009KT 10SM CLR M06/M12 A3025 320 62 -2100 010/09 RMK AO2
14840KMKG MKG20060208212009602/08/06 21:20:31  5-MIN KMKG 090220Z 01007KT 10SM CLR M06/M12 A3026 320 62 -2100 010/07 RMK AO2
14840KMKG MKG20060208212509602/08/06 21:25:31  5-MIN KMKG 090225Z 36007KT 10SM CLR M06/M12 A3026 320 62 -2100 010/07 RMK AO2
14840KMKG MKG20060208213009602/08/06 21:30:31  5-MIN KMKG 090230Z 01007KT 10SM CLR M06/M11 A3026 320 65 -2100 020/07 RMK AO2
14840KMKG MKG20060208213509602/08/06 21:35:31  5-MIN KMKG 090235Z 01007KT 10SM CLR M06/M12 A3026 320 62 -2100 020/07 RMK AO2
14840KMKG MKG20060208214009602/08/06 21:40:31  5-MIN KMKG 090240Z 02007KT 10SM CLR M06/M12 A3026 320 65 -2100 020/07 RMK AO2
14840KMKG MKG20060208214509602/08/06 21:45:31  5-MIN KMKG 090245Z 01007KT 10SM CLR M06/M12 A3026 320 62 -2100 020/07 RMK AO2
14840KMKG MKG20060208215011902/08/06 21:50:31  5-MIN KMKG 090250Z 01006KT 10SM CLR M06/M12 A3026 320 65 -2100 010/06 RMK AO2 SLP257 T10611117 53006
14840KMKG MKG20060208215511902/08/06 21:55:31  5-MIN KMKG 090255Z 01007KT 10SM CLR M06/M12 A3026 320 65 -2100 010/07 RMK AO2 SLP258 T10611117 51012
14840KMKG MKG20060208220009602/08/06 22:00:31  5-MIN KMKG 090300Z 01006KT 10SM CLR M06/M12 A3026 320 65 -2100 020/06 RMK AO2
14840KMKG MKG20060208220509602/08/06 22:05:31  5-MIN KMKG 090305Z 01006KT 10SM CLR M06/M12 A3026 320 65 -2100 010/06 RMK AO2
14840KMKG MKG20060208221009602/08/06 22:10:31  5-MIN KMKG 090310Z 01007KT 10SM CLR M06/M12 A3026 310 65 -2100 020/07 RMK AO2
14840KMKG MKG20060208221509602/08/06 22:15:31  5-MIN KMKG 090315Z 01007KT 10SM CLR M06/M12 A3026 310 65 -2100 010/07 RMK AO2
14840KMKG MKG20060208222009602/08/06 22:20:31  5-MIN KMKG 090320Z 01007KT 10SM CLR M06/M12 A3026 320 65 -2100 010/07 RMK AO2
14840KMKG MKG20060208222509602/08/06 22:25:31  5-MIN KMKG 090325Z 36008KT 10SM CLR M06/M12 A3026 310 65 -2100 010/08 RMK AO2
14840KMKG MKG20060208223009602/08/06 22:30:31  5-MIN KMKG 090330Z 01008KT 10SM CLR M06/M12 A3027 310 65 -2100 020/08 RMK AO2
14840KMKG MKG20060208223509602/08/06 22:35:31  5-MIN KMKG 090335Z 01007KT 10SM CLR M06/M12 A3027 310 62 -2100 010/07 RMK AO2
14840KMKG MKG20060208224009602/08/06 22:40:31  5-MIN KMKG 090340Z 01008KT 10SM CLR M07/M12 A3027 310 65 -2200 020/08 RMK AO2
14840KMKG MKG20060208224509602/08/06 22:45:31  5-MIN KMKG 090345Z 02007KT 10SM CLR M07/M12 A3026 310 65 -2200 020/07 RMK AO2
14840KMKG MKG20060208225011302/08/06 22:50:31  5-MIN KMKG 090350Z 02007KT 10SM CLR M07/M12 A3026 320 65 -2200 030/07 RMK AO2 SLP259 T10671122
14840KMKG MKG20060208225511302/08/06 22:55:31  5-MIN KMKG 090355Z 01006KT 10SM CLR M07/M12 A3026 320 65 -2200 020/06 RMK AO2 SLP258 T10671122
14840KMKG MKG20060208230009602/08/06 23:00:31  5-MIN KMKG 090400Z 02007KT 10SM CLR M07/M12 A3026 320 65 -2200 020/07 RMK AO2
14840KMKG MKG20060208230509602/08/06 23:05:31  5-MIN KMKG 090405Z 02006KT 10SM CLR M07/M12 A3026 320 68 -2300 020/06 RMK AO2
14840KMKG MKG20060208231009602/08/06 23:10:31  5-MIN KMKG 090410Z 01006KT 10SM CLR M07/M12 A3026 320 65 -2200 020/06 RMK AO2
14840KMKG MKG20060208231509602/08/06 23:15:31  5-MIN KMKG 090415Z 02005KT 10SM CLR M07/M12 A3026 320 68 -2300 020/05 RMK AO2
14840KMKG MKG20060208232009602/08/06 23:20:31  5-MIN KMKG 090420Z 02005KT 10SM CLR M07/M12 A3026 320 68 -2300 020/05 RMK AO2
14840KMKG MKG20060208232509602/08/06 23:25:31  5-MIN KMKG 090425Z 02006KT 10SM CLR M07/M13 A3026 320 65 -2300 020/06 RMK AO2
14840KMKG MKG20060208233009602/08/06 23:30:31  5-MIN KMKG 090430Z 02004KT 10SM CLR M07/M13 A3026 320 65 -2300 030/04 RMK AO2
14840KMKG MKG20060208233509602/08/06 23:35:31  5-MIN KMKG 090435Z 03004KT 10SM CLR M08/M13 A3025 320 67 -2300 030/04 RMK AO2
14840KMKG MKG20060208234009602/08/06 23:40:31  5-MIN KMKG 090440Z 03003KT 10SM CLR M07/M13 A3025 330 65 -2300 030/03 RMK AO2
14840KMKG MKG20060208234509602/08/06 23:45:31  5-MIN KMKG 090445Z 02005KT 10SM CLR M07/M13 A3025 330 65 -2300 030/05 RMK AO2
14840KMKG MKG20060208235012302/08/06 23:50:31  5-MIN KMKG 090450Z 02004KT 10SM CLR M07/M13 A3025 330 65 -2300 020/04 RMK AO2 SLP254 T10721128 410171078
14840KMKG MKG20060208235512302/08/06 23:55:31  5-MIN KMKG 090455Z 03003KT 10SM CLR M08/M13 A3025 330 67 -2300 040/03 RMK AO2 SLP253 T10781128 410171078
14840KMKG MKG20060209000009602/09/06 00:00:32  5-MIN KMKG 090500Z 00000KT 10SM CLR M08/M13 A3025 330 67 -2300 000/00 RMK AO2
14840KMKG MKG20060209000509602/09/06 00:05:31  5-MIN KMKG 090505Z 00000KT 10SM CLR M08/M13 A3024 330 67 -2300 000/00 RMK AO2
14840KMKG MKG20060209001009602/09/06 00:10:31  5-MIN KMKG 090510Z 00000KT 10SM CLR M08/M13 A3024 330 67 -2300 000/00 RMK AO2
14840KMKG MKG20060209001509602/09/06 00:15:31  5-MIN KMKG 090515Z 00000KT 10SM CLR M08/M13 A3024 330 67 -2300 000/00 RMK AO2
14840KMKG MKG20060209002009602/09/06 00:20:31  5-MIN KMKG 090520Z 00000KT 10SM CLR M08/M13 A3024 330 67 -2300 000/00 RMK AO2
14840KMKG MKG20060209002509602/09/06 00:25:31  5-MIN KMKG 090525Z 00000KT 10SM CLR M08/M13 A3024 330 70 -2400 000/00 RMK AO2
14840KMKG MKG20060209003009602/09/06 00:30:31  5-MIN KMKG 090530Z 00000KT 10SM CLR M08/M13 A3024 330 70 -2400 000/00 RMK AO2
14840KMKG MKG20060209003509602/09/06 00:35:31  5-MIN KMKG 090535Z 00000KT 10SM CLR M08/M13 A3024 340 70 -2400 000/00 RMK AO2
14840KMKG MKG20060209004009602/09/06 00:40:31  5-MIN KMKG 090540Z 00000KT 10SM CLR M09/M13 A3024 340 74 -2500 000/00 RMK AO2
14840KMKG MKG20060209004509602/09/06 00:45:31  5-MIN KMKG 090545Z 00000KT 10SM CLR M09/M13 A3024 340 73 -2500 000/00 RMK AO2
14840KMKG MKG20060209005013102/09/06 00:50:31  5-MIN KMKG 090550Z 00000KT 10SM CLR M10/M13 A3024 340 77 -2600 000/00 RMK AO2 SLP251 T11001133 11044 21100 51012
14840KMKG MKG20060209005513102/09/06 00:55:31  5-MIN KMKG 090555Z 00000KT 10SM CLR M11/M13 A3024 340 80 -2700 000/00 RMK AO2 SLP251 T11061133 11044 21106 58008
14840KMKG MKG20060209010009602/09/06 01:00:31  5-MIN KMKG 090600Z 00000KT 10SM CLR M11/M13 A3024 340 80 -2700 000/00 RMK AO2
14840KMKG MKG20060209010509602/09/06 01:05:31  5-MIN KMKG 090605Z 00000KT 10SM CLR M10/M13 A3024 340 77 -2600 000/00 RMK AO2
14840KMKG MKG20060209011009602/09/06 01:10:31  5-MIN KMKG 090610Z 00000KT 10SM CLR M10/M13 A3024 340 80 -2600 000/00 RMK AO2
14840KMKG MKG20060209011509602/09/06 01:15:31  5-MIN KMKG 090615Z 23003KT 10SM CLR M10/M13 A3024 340 80 -2600 240/03 RMK AO2
14840KMKG MKG20060209012009902/09/06 01:20:31  5-MIN KMKG 090620Z 22003KT 10SM FEW037 M11/M13 A3024 340 84 -2700 220/03 RMK AO2
14840KMKG MKG20060209012509902/09/06 01:25:31  5-MIN KMKG 090625Z 00000KT 10SM SCT037 M11/M13 A3024 340 80 -2700 000/00 RMK AO2
14840KMKG MKG20060209013009902/09/06 01:30:31  5-MIN KMKG 090630Z 00000KT 10SM SCT037 M11/M13 A3024 340 84 -2700 000/00 RMK AO2
14840KMKG MKG20060209013509902/09/06 01:35:31  5-MIN KMKG 090635Z 23004KT 10SM SCT037 M11/M13 A3024 340 80 -2700 230/04 RMK AO2
14840KMKG MKG20060209014009902/09/06 01:40:31  5-MIN KMKG 090640Z 22003KT 10SM FEW037 M11/M13 A3023 340 80 -2700 230/03 RMK AO2
14840KMKG MKG20060209014509902/09/06 01:45:31  5-MIN KMKG 090645Z 22003KT 10SM FEW037 M11/M13 A3023 340 80 -2700 230/03 RMK AO2
14840KMKG MKG20060209015011602/09/06 01:50:31  5-MIN KMKG 090650Z 22004KT 10SM FEW037 M10/M13 A3023 340 80 -2600 220/04 RMK AO2 SLP248 T11001128
14840KMKG MKG20060209015511602/09/06 01:55:31  5-MIN KMKG 090655Z 22005KT 10SM FEW037 M11/M13 A3023 340 84 -2800 230/05 RMK AO2 SLP250 T11111133
14840KMKG MKG20060209020009902/09/06 02:00:31  5-MIN KMKG 090700Z 23004KT 10SM FEW037 M11/M13 A3023 340 88 -2800 230/04 RMK AO2
14840KMKG MKG20060209020509902/09/06 02:05:31  5-MIN KMKG 090705Z 23005KT 10SM FEW037 M11/M13 A3024 340 84 -2800 240/05 RMK AO2
14840KMKG MKG20060209021009902/09/06 02:10:31  5-MIN KMKG 090710Z 22005KT 10SM FEW035 M11/M13 A3023 340 80 -2700 220/05 RMK AO2
14840KMKG MKG20060209021509902/09/06 02:15:31  5-MIN KMKG 090715Z 21004KT 10SM FEW035 M11/M13 A3023 340 80 -2700 210/04 RMK AO2
14840KMKG MKG20060209022009602/09/06 02:20:31  5-MIN KMKG 090720Z 19003KT 10SM CLR M11/M13 A3023 350 80 -2700 200/03 RMK AO2
14840KMKG MKG20060209022509602/09/06 02:25:31  5-MIN KMKG 090725Z 00000KT 10SM CLR M11/M13 A3023 350 84 -2700 000/00 RMK AO2
14840KMKG MKG20060209023009902/09/06 02:30:31  5-MIN KMKG 090730Z 00000KT 10SM FEW038 M11/M13 A3022 350 84 -2700 000/00 RMK AO2
14840KMKG MKG20060209023509902/09/06 02:35:31  5-MIN KMKG 090735Z 00000KT 10SM SCT038 M10/M13 A3022 350 80 -2600 000/00 RMK AO2
14840KMKG MKG20060209024009902/09/06 02:40:31  5-MIN KMKG 090740Z 00000KT 10SM BKN038 M10/M12 A3022 350 84 -2600 000/00 RMK AO2
14840KMKG MKG20060209024509902/09/06 02:45:31  5-MIN KMKG 090745Z 00000KT 10SM BKN038 M09/M12 A3022 350 80 -2500 000/00 RMK AO2
14840KMKG MKG20060209025011602/09/06 02:50:31  5-MIN KMKG 090750Z 20004KT 10SM BKN038 M09/M12 A3022 350 80 -2500 200/04 RMK AO2 SLP245 T10941122
14840KMKG MKG20060209025511602/09/06 02:55:31  5-MIN KMKG 090755Z 00000KT 10SM BKN038 M09/M12 A3022 350 80 -2500 000/00 RMK AO2 SLP244 T10941122
14840KMKG MKG20060209030009902/09/06 03:00:31  5-MIN KMKG 090800Z 22003KT 10SM BKN038 M09/M12 A3022 360 80 -2500 220/03 RMK AO2
14840KMKG MKG20060209030509902/09/06 03:05:31  5-MIN KMKG 090805Z 22004KT 10SM BKN038 M09/M13 A3022 360 77 -2500 230/04 RMK AO2
14840KMKG MKG20060209031009902/09/06 03:10:31  5-MIN KMKG 090810Z 00000KT 10SM SCT038 M09/M13 A3021 360 77 -2500 000/00 RMK AO2
14840KMKG MKG20060209031509902/09/06 03:15:31  5-MIN KMKG 090815Z 00000KT 10SM SCT038 M09/M13 A3021 360 77 -2500 000/00 RMK AO2
14840KMKG MKG20060209032009902/09/06 03:20:31  5-MIN KMKG 090820Z 25003KT 10SM BKN038 M09/M13 A3021 360 74 -2400 250/03 RMK AO2
14840KMKG MKG20060209032509902/09/06 03:25:31  5-MIN KMKG 090825Z 29003KT 10SM BKN038 M08/M13 A3021 360 70 -2400 290/03 RMK AO2
14840KMKG MKG20060209033009902/09/06 03:30:31  5-MIN KMKG 090830Z 00000KT 10SM BKN038 M09/M12 A3021 360 77 -2400 000/00 RMK AO2
14840KMKG MKG20060209033509902/09/06 03:35:31  5-MIN KMKG 090835Z 00000KT 10SM BKN038 M08/M12 A3021 360 77 -2400 000/00 RMK AO2
14840KMKG MKG20060209034009902/09/06 03:40:31  5-MIN KMKG 090840Z 32004KT 10SM OVC038 M07/M12 A3021 360 68 -2100 320/04 RMK AO2
14840KMKG MKG20060209034509902/09/06 03:45:31  5-MIN KMKG 090845Z VRB05KT 10SM BKN038 M06/M11 A3021 370 68 -2000 VRB/05 RMK AO2
14840KMKG MKG20060209035012802/09/06 03:50:31  5-MIN KMKG 090850Z 30009G14KT 10SM BKN038 M03/M11 A3020 370 57 -1700 310/09G14 RMK AO2 SLP236 T10331106 58008
14840KMKG MKG20060209035512202/09/06 03:55:31  5-MIN KMKG 090855Z 30011KT 10SM BKN038 M03/M11 A3020 370 57 -1700 310/11 RMK AO2 SLP235 T10331106 58013
14840KMKG MKG20060209040009902/09/06 04:00:31  5-MIN KMKG 090900Z 31009KT 10SM BKN038 M03/M11 A3020 370 57 -1700 310/09 RMK AO2
14840KMKG MKG20060209040509902/09/06 04:05:31  5-MIN KMKG 090905Z 29010KT 10SM BKN038 M03/M11 A3020 380 57 -1700 300/10 RMK AO2
14840KMKG MKG20060209041009902/09/06 04:10:31  5-MIN KMKG 090910Z 30009KT 10SM SCT038 M03/M11 A3019 380 57 -1700 300/09 RMK AO2
14840KMKG MKG20060209041509902/09/06 04:15:31  5-MIN KMKG 090915Z 30008KT 10SM SCT038 M04/M11 A3019 380 60 -1800 310/08 RMK AO2
14840KMKG MKG20060209042009902/09/06 04:20:31  5-MIN KMKG 090920Z 30009KT 10SM FEW038 M03/M11 A3019 390 55 -1700 310/09 RMK AO2
14840KMKG MKG20060209042510502/09/06 04:25:31  5-MIN KMKG 090925Z 30010G15KT 10SM FEW038 M03/M11 A3018 390 55 -1700 310/10G15 RMK AO2
14840KMKG MKG20060209043009902/09/06 04:30:31  5-MIN KMKG 090930Z 30008KT 10SM FEW038 M03/M11 A3018 390 57 -1700 310/08 RMK AO2
14840KMKG MKG20060209043509902/09/06 04:35:31  5-MIN KMKG 090935Z 32009KT 10SM FEW038 M03/M11 A3018 390 57 -1700 320/09 RMK AO2
14840KMKG MKG20060209044009602/09/06 04:40:31  5-MIN KMKG 090940Z 31008KT 10SM CLR M03/M11 A3018 390 57 -1700 320/08 RMK AO2
14840KMKG MKG20060209044509902/09/06 04:45:31  5-MIN KMKG 090945Z 31009KT 10SM FEW036 M03/M11 A3018 390 57 -1700 320/09 RMK AO2
14840KMKG MKG20060209045011602/09/06 04:50:31  5-MIN KMKG 090950Z 31009KT 10SM FEW036 M03/M11 A3018 390 57 -1700 310/09 RMK AO2 SLP229 T10331106
14840KMKG MKG20060209045511302/09/06 04:55:31  5-MIN KMKG 090955Z 31009KT 10SM CLR M03/M11 A3018 390 57 -1700 320/09 RMK AO2 SLP229 T10331106
14840KMKG MKG20060209050009602/09/06 05:00:31  5-MIN KMKG 091000Z 30009KT 10SM CLR M03/M11 A3018 390 57 -1700 300/09 RMK AO2
14840KMKG MKG20060209050509602/09/06 05:05:31  5-MIN KMKG 091005Z 31009KT 10SM CLR M03/M10 A3018 390 60 -1700 310/09 RMK AO2
14840KMKG MKG20060209051010202/09/06 05:10:31  5-MIN KMKG 091010Z 30010G15KT 10SM CLR M03/M11 A3018 390 57 -1700 310/10G15 RMK AO2
14840KMKG MKG20060209051509602/09/06 05:15:31  5-MIN KMKG 091015Z 30010KT 10SM CLR M03/M11 A3018 390 57 -1700 310/10 RMK AO2
14840KMKG MKG20060209052009602/09/06 05:20:31  5-MIN KMKG 091020Z 30008KT 10SM CLR M03/M11 A3018 390 57 -1700 300/08 RMK AO2
14840KMKG MKG20060209052509602/09/06 05:25:31  5-MIN KMKG 091025Z 30008KT 10SM CLR M04/M11 A3018 390 60 -1800 310/08 RMK AO2
14840KMKG MKG20060209053009602/09/06 05:30:31  5-MIN KMKG 091030Z 30009KT 10SM CLR M04/M11 A3019 390 57 -1800 300/09 RMK AO2
14840KMKG MKG20060209053509602/09/06 05:35:31  5-MIN KMKG 091035Z 31012KT 10SM CLR M03/M12 A3019 390 53 -1700 310/12 RMK AO2
14840KMKG MKG20060209054010202/09/06 05:40:31  5-MIN KMKG 091040Z 30009G16KT 10SM CLR M03/M12 A3018 390 53 -1700 310/09G16 RMK AO2
14840KMKG MKG20060209054509602/09/06 05:45:31  5-MIN KMKG 091045Z 30009KT 10SM CLR M03/M12 A3018 390 53 -1700 300/09 RMK AO2
14840KMKG MKG20060209055011302/09/06 05:50:31  5-MIN KMKG 091050Z 31009KT 10SM CLR M03/M12 A3018 390 53 -1700 310/09 RMK AO2 SLP230 T10331117
14840KMKG MKG20060209055511302/09/06 05:55:31  5-MIN KMKG 091055Z 30010KT 10SM CLR M03/M12 A3018 390 53 -1700 300/10 RMK AO2 SLP230 T10331117
14840KMKG MKG20060209060009602/09/06 06:00:31  5-MIN KMKG 091100Z 31010KT 10SM CLR M03/M11 A3018 390 55 -1700 310/10 RMK AO2
14840KMKG MKG20060209060509602/09/06 06:05:31  5-MIN KMKG 091105Z 31008KT 10SM CLR M03/M11 A3018 390 55 -1700 310/08 RMK AO2
14840KMKG MKG20060209061009602/09/06 06:10:31  5-MIN KMKG 091110Z 30010KT 10SM CLR M03/M11 A3018 390 55 -1700 310/10 RMK AO2
14840KMKG MKG20060209061509602/09/06 06:15:31  5-MIN KMKG 091115Z 31010KT 10SM CLR M03/M11 A3019 390 55 -1700 310/10 RMK AO2
14840KMKG MKG20060209062009602/09/06 06:20:31  5-MIN KMKG 091120Z 31011KT 10SM CLR M03/M11 A3018 390 55 -1700 310/11 RMK AO2
14840KMKG MKG20060209062509602/09/06 06:25:31  5-MIN KMKG 091125Z 31011KT 10SM CLR M03/M11 A3019 380 57 -1700 310/11 RMK AO2
14840KMKG MKG20060209063009602/09/06 06:30:31  5-MIN KMKG 091130Z 30011KT 10SM CLR M03/M11 A3018 390 55 -1700 310/11 RMK AO2
14840KMKG MKG20060209063510202/09/06 06:35:31  5-MIN KMKG 091135Z 31012G17KT 10SM CLR M03/M11 A3018 390 55 -1700 310/12G17 RMK AO2
14840KMKG MKG20060209064010202/09/06 06:40:31  5-MIN KMKG 091140Z 30008G17KT 10SM CLR M03/M11 A3019 390 55 -1700 300/08G17 RMK AO2
14840KMKG MKG20060209064509602/09/06 06:45:31  5-MIN KMKG 091145Z 30010KT 10SM CLR M03/M11 A3018 390 55 -1700 300/10 RMK AO2
14840KMKG MKG20060209065013102/09/06 06:50:31  5-MIN KMKG 091150Z 30012KT 10SM CLR M03/M11 A3018 390 55 -1700 300/12 RMK AO2 SLP230 T10331111 11033 21111 58013
14840KMKG MKG20060209065513102/09/06 06:55:31  5-MIN KMKG 091155Z 30011KT 10SM CLR M03/M11 A3018 390 57 -1700 310/11 RMK AO2 SLP231 T10331106 11033 21111 55005
14840KMKG MKG20060209070010502/09/06 07:00:31  5-MIN KMKG 091200Z 30013G19KT 10SM FEW036 M03/M11 A3018 390 55 -1700 300/13G19 RMK AO2
14840KMKG MKG20060209070510502/09/06 07:05:31  5-MIN KMKG 091205Z 30013G19KT 10SM FEW036 M03/M11 A3018 390 55 -1700 310/13G19 RMK AO2
14840KMKG MKG20060209071010502/09/06 07:10:31  5-MIN KMKG 091210Z 30012G19KT 10SM FEW036 M03/M11 A3018 390 55 -1700 310/12G19 RMK AO2
14840KMKG MKG20060209071509902/09/06 07:15:31  5-MIN KMKG 091215Z 30012KT 10SM FEW036 M03/M12 A3019 390 53 -1700 310/12 RMK AO2
14840KMKG MKG20060209072010502/09/06 07:20:31  5-MIN KMKG 091220Z 31013G20KT 10SM FEW036 M03/M12 A3018 390 53 -1700 310/13G20 RMK AO2
14840KMKG MKG20060209072510202/09/06 07:25:31  5-MIN KMKG 091225Z 30012G20KT 10SM CLR M03/M12 A3018 390 53 -1700 300/12G20 RMK AO2
14840KMKG MKG20060209073010202/09/06 07:30:31  5-MIN KMKG 091230Z 30014G19KT 10SM CLR M03/M11 A3018 390 55 -1700 310/14G19 RMK AO2
14840KMKG MKG20060209073510202/09/06 07:35:31  5-MIN KMKG 091235Z 31012G19KT 10SM CLR M03/M11 A3018 390 55 -1700 310/12G19 RMK AO2
14840KMKG MKG20060209074010202/09/06 07:40:31  5-MIN KMKG 091240Z 30013G18KT 10SM CLR M03/M11 A3018 390 55 -1700 300/13G18 RMK AO2
14840KMKG MKG20060209074510202/09/06 07:45:31  5-MIN KMKG 091245Z 31013G18KT 10SM CLR M03/M12 A3018 390 50 -1700 310/13G18 RMK AO2
14840KMKG MKG20060209075011302/09/06 07:50:31  5-MIN KMKG 091250Z 30013KT 10SM CLR M03/M12 A3018 390 50 -1700 300/13 RMK AO2 SLP230 T10331122
14840KMKG MKG20060209075511302/09/06 07:55:31  5-MIN KMKG 091255Z 31009KT 10SM CLR M03/M12 A3018 390 50 -1700 320/09 RMK AO2 SLP229 T10331122
14840KMKG MKG20060209080009602/09/06 08:00:31  5-MIN KMKG 091300Z 30011KT 10SM CLR M03/M13 A3018 390 48 -1700 310/11 RMK AO2
14840KMKG MKG20060209080510202/09/06 08:05:31  5-MIN KMKG 091305Z 30010G18KT 10SM CLR M03/M13 A3017 400 48 -1700 310/10G18 RMK AO2
14840KMKG MKG20060209081010202/09/06 08:10:31  5-MIN KMKG 091310Z 31009G18KT 10SM CLR M03/M12 A3018 400 50 -1700 310/09G18 RMK AO2
14840KMKG MKG20060209081509602/09/06 08:15:31  5-MIN KMKG 091315Z 30008KT 10SM CLR M03/M12 A3018 390 53 -1700 300/08 RMK AO2
14840KMKG MKG20060209082009602/09/06 08:20:31  5-MIN KMKG 091320Z 30008KT 10SM CLR M04/M12 A3018 390 55 -1800 300/08 RMK AO2
14840KMKG MKG20060209082509602/09/06 08:25:31  5-MIN KMKG 091325Z 29011KT 10SM CLR M03/M11 A3018 390 55 -1700 300/11 RMK AO2
14840KMKG MKG20060209083009602/09/06 08:30:31  5-MIN KMKG 091330Z 30011KT 10SM CLR M03/M11 A3018 390 55 -1700 300/11 RMK AO2
14840KMKG MKG20060209083509602/09/06 08:35:31  5-MIN KMKG 091335Z 30011KT 10SM CLR M03/M11 A3018 390 55 -1700 300/11 RMK AO2
14840KMKG MKG20060209084009602/09/06 08:40:31  5-MIN KMKG 091340Z 31011KT 10SM CLR M03/M12 A3018 390 53 -1700 310/11 RMK AO2
14840KMKG MKG20060209084509602/09/06 08:45:31  5-MIN KMKG 091345Z 31012KT 10SM CLR M03/M11 A3018 390 55 -1700 310/12 RMK AO2
14840KMKG MKG20060209085011302/09/06 08:50:31  5-MIN KMKG 091350Z 31012KT 10SM CLR M03/M11 A3018 390 55 -1600 310/12 RMK AO2 SLP230 T10281106
14840KMKG MKG20060209085511602/09/06 08:55:31  5-MIN KMKG 091355Z 31010KT 10SM FEW032 M03/M11 A3018 390 55 -1600 310/10 RMK AO2 SLP230 T10281106
14840KMKG MKG20060209090009602/09/06 09:00:31  5-MIN KMKG 091400Z 31010KT 10SM CLR M03/M11 A3018 390 55 -1600 320/10 RMK AO2
14840KMKG MKG20060209090509602/09/06 09:05:31  5-MIN KMKG 091405Z 30012KT 10SM CLR M03/M11 A3018 390 55 -1600 310/12 RMK AO2
14840KMKG MKG20060209091009602/09/06 09:10:31  5-MIN KMKG 091410Z 30011KT 10SM CLR M03/M11 A3019 390 55 -1600 310/11 RMK AO2
14840KMKG MKG20060209091510202/09/06 09:15:31  5-MIN KMKG 091415Z 30014G18KT 10SM CLR M03/M11 A3019 380 55 -1600 310/14G18 RMK AO2
14840KMKG MKG20060209092010202/09/06 09:20:31  5-MIN KMKG 091420Z 31012G18KT 10SM CLR M03/M10 A3019 380 58 -1600 310/12G18 RMK AO2
14840KMKG MKG20060209092509602/09/06 09:25:31  5-MIN KMKG 091425Z 30013KT 10SM CLR M03/M10 A3019 380 58 -1600 310/13 RMK AO2
14840KMKG MKG20060209093009602/09/06 09:30:31  5-MIN KMKG 091430Z 30010KT 10SM CLR M02/M09 A3019 380 58 -1600 300/10 RMK AO2
14840KMKG MKG20060209093510202/09/06 09:35:31  5-MIN KMKG 091435Z 30016G19KT 10SM CLR M02/M10 A3019 380 55 -1600 300/16G19 RMK AO2
14840KMKG MKG20060209094010202/09/06 09:40:31  5-MIN KMKG 091440Z 31013G19KT 10SM CLR M02/M11 A3019 380 53 -1600 310/13G19 RMK AO2
14840KMKG MKG20060209094509602/09/06 09:45:31  5-MIN KMKG 091445Z 30013KT 10SM CLR M02/M10 A3019 380 55 -1600 300/13 RMK AO2
14840KMKG MKG20060209095012802/09/06 09:50:31  5-MIN KMKG 091450Z 30012G17KT 10SM FEW032 M02/M10 A3019 380 55 -1600 300/12G17 RMK AO2 SLP234 T10221100 55005
14840KMKG MKG20060209095512802/09/06 09:55:31  5-MIN KMKG 091455Z 29014G19KT 10SM FEW032 M02/M10 A3019 380 55 -1600 300/14G19 RMK AO2 SLP234 T10221100 53003
14840KMKG MKG20060209100010502/09/06 10:00:31  5-MIN KMKG 091500Z 30012G19KT 10SM FEW032 M02/M10 A3020 380 55 -1600 310/12G19 RMK AO2
14840KMKG MKG20060209100509902/09/06 10:05:31  5-MIN KMKG 091505Z 31013KT 10SM FEW032 M02/M10 A3020 380 55 -1600 320/13 RMK AO2
14840KMKG MKG20060209101009902/09/06 10:10:31  5-MIN KMKG 091510Z 30012KT 10SM FEW032 M02/M10 A3019 380 55 -1600 300/12 RMK AO2
14840KMKG MKG20060209101509902/09/06 10:15:31  5-MIN KMKG 091515Z 30012KT 10SM FEW032 M02/M09 A3019 380 55 -1500 310/12 RMK AO2
14840KMKG MKG20060209102010502/09/06 10:20:31  5-MIN KMKG 091520Z 30013G17KT 10SM FEW032 M02/M09 A3019 380 55 -1500 310/13G17 RMK AO2
14840KMKG MKG20060209102510502/09/06 10:25:31  5-MIN KMKG 091525Z 32010G17KT 10SM FEW032 M02/M10 A3019 380 53 -1500 320/10G17 RMK AO2
14840KMKG MKG20060209103009902/09/06 10:30:31  5-MIN KMKG 091530Z 30014KT 10SM FEW032 M02/M10 A3019 380 53 -1500 300/14 RMK AO2
14840KMKG MKG20060209103510502/09/06 10:35:31  5-MIN KMKG 091535Z 31013G20KT 10SM FEW032 M02/M10 A3019 380 53 -1500 310/13G20 RMK AO2
14840KMKG MKG20060209104010502/09/06 10:40:31  5-MIN KMKG 091540Z 29013G20KT 10SM FEW032 M02/M10 A3019 380 53 -1500 300/13G20 RMK AO2
14840KMKG MKG20060209104510502/09/06 10:45:31  5-MIN KMKG 091545Z 30013G19KT 10SM FEW032 M02/M10 A3020 380 53 -1500 310/13G19 RMK AO2
14840KMKG MKG20060209105012202/09/06 10:50:31  5-MIN KMKG 091550Z 31013G19KT 10SM FEW032 M02/M10 A3019 380 53 -1500 310/13G19 RMK AO2 SLP234 T10171100
14840KMKG MKG20060209105512202/09/06 10:55:31  5-MIN KMKG 091555Z 31011G18KT 10SM SCT032 M02/M10 A3019 380 53 -1500 310/11G18 RMK AO2 SLP235 T10171100
14840KMKG MKG20060209110010502/09/06 11:00:31  5-MIN KMKG 091600Z 32012G18KT 10SM SCT032 M02/M10 A3020 380 55 -1600 320/12G18 RMK AO2
14840KMKG MKG20060209110509902/09/06 11:05:31  5-MIN KMKG 091605Z 30014KT 10SM SCT032 M02/M10 A3020 370 53 -1500 300/14 RMK AO2
14840KMKG MKG20060209111009902/09/06 11:10:31  5-MIN KMKG 091610Z 32014KT 10SM SCT032 M02/M10 A3020 380 53 -1500 320/14 RMK AO2
14840KMKG MKG20060209111509902/09/06 11:15:31  5-MIN KMKG 091615Z 30014KT 10SM SCT032 M02/M10 A3020 380 53 -1500 300/14 RMK AO2
14840KMKG MKG20060209112009902/09/06 11:20:31  5-MIN KMKG 091620Z 31014KT 10SM SCT032 M02/M10 A3020 380 55 -1600 310/14 RMK AO2
14840KMKG MKG20060209112509902/09/06 11:25:31  5-MIN KMKG 091625Z 30014KT 10SM SCT032 M02/M10 A3019 380 53 -1500 310/14 RMK AO2
14840KMKG MKG20060209113009902/09/06 11:30:31  5-MIN KMKG 091630Z 31014KT 10SM SCT032 M02/M10 A3019 380 55 -1600 310/14 RMK AO2
14840KMKG MKG20060209113509902/09/06 11:35:31  5-MIN KMKG 091635Z 32011KT 10SM SCT032 M02/M10 A3019 380 55 -1600 320/11 RMK AO2
14840KMKG MKG20060209114010502/09/06 11:40:31  5-MIN KMKG 091640Z 29012G18KT 10SM SCT032 M02/M09 A3019 380 55 -1500 290/12G18 RMK AO2
14840KMKG MKG20060209114510502/09/06 11:45:31  5-MIN KMKG 091645Z 31012G19KT 10SM SCT032 M01/M09 A3020 380 53 -1400 310/12G19 RMK AO2
14840KMKG MKG20060209115012202/09/06 11:50:31  5-MIN KMKG 091650Z 29012G19KT 10SM SCT032 M02/M09 A3019 380 55 -1500 300/12G19 RMK AO2 SLP234 T10171094
14840KMKG MKG20060209115511602/09/06 11:55:31  5-MIN KMKG 091655Z 29015KT 10SM SCT030 M02/M09 A3020 380 55 -1500 290/15 RMK AO2 SLP235 T10171094
14840KMKG MKG20060209120009902/09/06 12:00:31  5-MIN KMKG 091700Z 31013KT 10SM SCT030 M02/M09 A3020 370 55 -1500 310/13 RMK AO2
14840KMKG MKG20060209120510502/09/06 12:05:31  5-MIN KMKG 091705Z 32013G19KT 10SM SCT030 M02/M09 A3020 380 55 -1500 320/13G19 RMK AO2
14840KMKG MKG20060209121010502/09/06 12:10:31  5-MIN KMKG 091710Z 30011G19KT 10SM SCT030 M02/M09 A3019 380 55 -1500 300/11G19 RMK AO2
14840KMKG MKG20060209121509902/09/06 12:15:31  5-MIN KMKG 091715Z 30013KT 10SM SCT030 M02/M09 A3019 380 55 -1500 300/13 RMK AO2
14840KMKG MKG20060209122009902/09/06 12:20:31  5-MIN KMKG 091720Z 30012KT 10SM SCT030 M02/M09 A3019 380 55 -1500 310/12 RMK AO2
14840KMKG MKG20060209122510502/09/06 12:25:31  5-MIN KMKG 091725Z 30014G19KT 10SM SCT030 M02/M09 A3019 380 55 -1500 300/14G19 RMK AO2
14840KMKG MKG20060209123009902/09/06 12:30:31  5-MIN KMKG 091730Z 29013KT 10SM SCT030 M02/M09 A3019 380 55 -1500 290/13 RMK AO2
14840KMKG MKG20060209123510502/09/06 12:35:31  5-MIN KMKG 091735Z 28014G18KT 10SM SCT030 M02/M09 A3019 390 55 -1500 290/14G18 RMK AO2
14840KMKG MKG20060209124010502/09/06 12:40:31  5-MIN KMKG 091740Z 30012G16KT 10SM SCT030 M02/M09 A3018 390 55 -1500 300/12G16 RMK AO2
14840KMKG MKG20060209124509902/09/06 12:45:31  5-MIN KMKG 091745Z 29009KT 10SM FEW030 M01/M09 A3018 390 53 -1400 300/09 RMK AO2
14840KMKG MKG20060209125015002/09/06 12:50:31  5-MIN KMKG 091750Z 32009KT 280V340 10SM FEW030 M01/M09 A3018 390 53 -1400 320/09 280V340 RMK AO2 SLP230 T10111094 11011 21039 53003
14840KMKG MKG20060209125513402/09/06 12:55:31  5-MIN KMKG 091755Z 29010KT 10SM SCT030 M02/M09 A3018 390 55 -1500 300/10 RMK AO2 SLP229 T10171094 11011 21039 58006
14840KMKG MKG20060209130010502/09/06 13:00:31  5-MIN KMKG 091800Z 28014G17KT 10SM SCT030 M02/M09 A3017 400 55 -1500 290/14G17 RMK AO2
14840KMKG MKG20060209130510502/09/06 13:05:31  5-MIN KMKG 091805Z 28012G17KT 10SM SCT030 M02/M09 A3017 400 55 -1500 280/12G17 RMK AO2
14840KMKG MKG20060209131009902/09/06 13:10:31  5-MIN KMKG 091810Z 31012KT 10SM SCT030 M02/M09 A3017 400 55 -1500 310/12 RMK AO2
14840KMKG MKG20060209131509902/09/06 13:15:31  5-MIN KMKG 091815Z 29010KT 10SM SCT030 M02/M09 A3017 400 55 -1500 300/10 RMK AO2
14840KMKG MKG20060209132009902/09/06 13:20:31  5-MIN KMKG 091820Z 30013KT 10SM SCT030 M02/M09 A3016 410 55 -1400 300/13 RMK AO2
14840KMKG MKG20060209132509902/09/06 13:25:31  5-MIN KMKG 091825Z 30014KT 10SM SCT030 M02/M09 A3016 410 58 -1500 310/14 RMK AO2
14840KMKG MKG20060209133009902/09/06 13:30:31  5-MIN KMKG 091830Z 30011KT 10SM SCT030 M02/M10 A3017 400 53 -1500 310/11 RMK AO2
14840KMKG MKG20060209133509902/09/06 13:35:31  5-MIN KMKG 091835Z 28012KT 10SM SCT030 M02/M09 A3016 410 55 -1500 280/12 RMK AO2
14840KMKG MKG20060209134009902/09/06 13:40:31  5-MIN KMKG 091840Z 30011KT 10SM SCT030 M02/M09 A3016 410 55 -1500 300/11 RMK AO2
14840KMKG MKG20060209134509902/09/06 13:45:31  5-MIN KMKG 091845Z 31011KT 10SM SCT030 M01/M09 A3016 410 53 -1400 310/11 RMK AO2
14840KMKG MKG20060209135011602/09/06 13:50:31  5-MIN KMKG 091850Z 31012KT 10SM SCT030 M01/M09 A3016 410 53 -1400 310/12 RMK AO2 SLP223 T10111094
14840KMKG MKG20060209135511602/09/06 13:55:31  5-MIN KMKG 091855Z 30012KT 10SM FEW030 M02/M09 A3016 410 55 -1400 300/12 RMK AO2 SLP223 T10171094
14840KMKG MKG20060209140009902/09/06 14:00:31  5-MIN KMKG 091900Z 28012KT 10SM FEW030 M01/M09 A3016 410 53 -1400 280/12 RMK AO2
14840KMKG MKG20060209140510502/09/06 14:05:31  5-MIN KMKG 091905Z 28009G16KT 10SM FEW030 M02/M09 A3016 410 55 -1400 280/09G16 RMK AO2
14840KMKG MKG20060209141009902/09/06 14:10:31  5-MIN KMKG 091910Z 30011KT 10SM FEW030 M02/M10 A3015 420 53 -1400 310/11 RMK AO2
14840KMKG MKG20060209141509902/09/06 14:15:31  5-MIN KMKG 091915Z 30011KT 10SM FEW030 M02/M09 A3015 420 55 -1400 310/11 RMK AO2
14840KMKG MKG20060209142009902/09/06 14:20:31  5-MIN KMKG 091920Z 28012KT 10SM FEW030 M02/M10 A3015 420 53 -1400 290/12 RMK AO2
14840KMKG MKG20060209142509902/09/06 14:25:31  5-MIN KMKG 091925Z 28012KT 10SM FEW030 M02/M10 A3015 420 53 -1400 280/12 RMK AO2
14840KMKG MKG20060209143009902/09/06 14:30:31  5-MIN KMKG 091930Z 29011KT 10SM FEW030 M02/M10 A3015 420 53 -1400 300/11 RMK AO2
14840KMKG MKG20060209143509902/09/06 14:35:31  5-MIN KMKG 091935Z 29011KT 10SM FEW030 M02/M10 A3015 420 53 -1400 300/11 RMK AO2
14840KMKG MKG20060209144009902/09/06 14:40:31  5-MIN KMKG 091940Z 30011KT 10SM FEW030 M02/M10 A3015 420 53 -1400 310/11 RMK AO2
14840KMKG MKG20060209144509902/09/06 14:45:31  5-MIN KMKG 091945Z 31013KT 10SM FEW030 M02/M11 A3015 420 51 -1500 320/13 RMK AO2
14840KMKG MKG20060209145011602/09/06 14:50:31  5-MIN KMKG 091950Z 28011KT 10SM FEW030 M02/M11 A3015 420 51 -1400 290/11 RMK AO2 SLP220 T10171106
14840KMKG MKG20060209145511602/09/06 14:55:31  5-MIN KMKG 091955Z 28012KT 10SM FEW030 M02/M11 A3015 420 51 -1500 290/12 RMK AO2 SLP220 T10221111
14840KMKG MKG20060209150009902/09/06 15:00:31  5-MIN KMKG 092000Z 29013KT 10SM FEW030 M02/M11 A3015 420 51 -1500 300/13 RMK AO2
14840KMKG MKG20060209150509902/09/06 15:05:31  5-MIN KMKG 092005Z 28010KT 10SM FEW030 M02/M11 A3014 430 51 -1500 280/10 RMK AO2
14840KMKG MKG20060209151009902/09/06 15:10:31  5-MIN KMKG 092010Z 28009KT 10SM FEW030 M02/M11 A3014 430 51 -1500 280/09 RMK AO2
14840KMKG MKG20060209151509902/09/06 15:15:31  5-MIN KMKG 092015Z 28010KT 10SM FEW030 M02/M11 A3014 430 51 -1500 280/10 RMK AO2
14840KMKG MKG20060209152009902/09/06 15:20:31  5-MIN KMKG 092020Z 28010KT 10SM FEW030 M02/M11 A3014 430 53 -1500 280/10 RMK AO2
14840KMKG MKG20060209152509902/09/06 15:25:31  5-MIN KMKG 092025Z 27010KT 10SM FEW030 M02/M11 A3014 430 51 -1400 270/10 RMK AO2
14840KMKG MKG20060209153009902/09/06 15:30:31  5-MIN KMKG 092030Z 27011KT 10SM FEW030 M02/M11 A3014 430 51 -1500 280/11 RMK AO2
14840KMKG MKG20060209153509902/09/06 15:35:31  5-MIN KMKG 092035Z 28008KT 10SM FEW030 M02/M11 A3014 430 51 -1400 280/08 RMK AO2
14840KMKG MKG20060209154009902/09/06 15:40:31  5-MIN KMKG 092040Z 29011KT 10SM FEW030 M02/M11 A3014 420 49 -1400 300/11 RMK AO2
14840KMKG MKG20060209154509902/09/06 15:45:31  5-MIN KMKG 092045Z 29012KT 10SM FEW030 M02/M11 A3014 430 49 -1400 300/12 RMK AO2
14840KMKG MKG20060209155012202/09/06 15:50:31  5-MIN KMKG 092050Z 28009KT 10SM FEW030 M02/M12 A3014 430 48 -1500 290/09 RMK AO2 SLP214 T10221117 58006
14840KMKG MKG20060209155512202/09/06 15:55:31  5-MIN KMKG 092055Z 28008KT 10SM FEW030 M02/M12 A3013 430 46 -1400 280/08 RMK AO2 SLP213 T10171117 56014
14840KMKG MKG20060209160009602/09/06 16:00:31  5-MIN KMKG 092100Z 26008KT 10SM CLR M02/M12 A3013 440 48 -1500 260/08 RMK AO2
14840KMKG MKG20060209160509902/09/06 16:05:31  5-MIN KMKG 092105Z 29010KT 10SM FEW030 M02/M11 A3013 430 49 -1400 290/10 RMK AO2
14840KMKG MKG20060209161009902/09/06 16:10:31  5-MIN KMKG 092110Z 29012KT 10SM FEW030 M02/M12 A3013 430 46 -1400 290/12 RMK AO2
14840KMKG MKG20060209161509902/09/06 16:15:31  5-MIN KMKG 092115Z 26008KT 10SM FEW030 M02/M12 A3013 440 46 -1400 270/08 RMK AO2
14840KMKG MKG20060209162009902/09/06 16:20:31  5-MIN KMKG 092120Z 29009KT 10SM FEW030 M02/M12 A3013 430 46 -1400 290/09 RMK AO2
14840KMKG MKG20060209162509902/09/06 16:25:31  5-MIN KMKG 092125Z 27011KT 10SM FEW030 M02/M11 A3013 430 49 -1400 270/11 RMK AO2
14840KMKG MKG20060209163009902/09/06 16:30:31  5-MIN KMKG 092130Z 28009KT 10SM FEW030 M02/M11 A3013 430 51 -1500 280/09 RMK AO2
14840KMKG MKG20060209163510502/09/06 16:35:31  5-MIN KMKG 092135Z 27011G16KT 10SM FEW030 M02/M11 A3013 440 51 -1500 280/11G16 RMK AO2
14840KMKG MKG20060209164010202/09/06 16:40:31  5-MIN KMKG 092140Z 27010G16KT 10SM CLR M02/M12 A3014 430 48 -1500 270/10G16 RMK AO2
14840KMKG MKG20060209164509602/09/06 16:45:31  5-MIN KMKG 092145Z 26011KT 10SM CLR M02/M12 A3013 430 48 -1500 270/11 RMK AO2
14840KMKG MKG20060209165011302/09/06 16:50:31  5-MIN KMKG 092150Z 27010KT 10SM CLR M02/M12 A3013 440 48 -1500 280/10 RMK AO2 SLP211 T10221117
14840KMKG MKG20060209165511302/09/06 16:55:31  5-MIN KMKG 092155Z 27009KT 10SM CLR M02/M12 A3013 440 48 -1500 270/09 RMK AO2 SLP210 T10221117
14840KMKG MKG20060209170009602/09/06 17:00:31  5-MIN KMKG 092200Z 27007KT 10SM CLR M02/M12 A3012 440 48 -1500 280/07 RMK AO2
14840KMKG MKG20060209170509602/09/06 17:05:31  5-MIN KMKG 092205Z 27007KT 10SM CLR M02/M12 A3012 450 48 -1500 270/07 RMK AO2
14840KMKG MKG20060209171009602/09/06 17:10:31  5-MIN KMKG 092210Z 27007KT 10SM CLR M02/M12 A3011 450 48 -1500 280/07 RMK AO2
14840KMKG MKG20060209171509602/09/06 17:15:31  5-MIN KMKG 092215Z 26005KT 10SM CLR M03/M12 A3012 450 50 -1500 260/05 RMK AO2
14840KMKG MKG20060209172009602/09/06 17:20:31  5-MIN KMKG 092220Z 26004KT 10SM CLR M03/M12 A3012 450 50 -1500 260/04 RMK AO2
14840KMKG MKG20060209172509602/09/06 17:25:31  5-MIN KMKG 092225Z 25006KT 10SM CLR M02/M11 A3012 450 51 -1500 260/06 RMK AO2
14840KMKG MKG20060209173009602/09/06 17:30:31  5-MIN KMKG 092230Z 26007KT 10SM CLR M02/M11 A3012 450 53 -1500 270/07 RMK AO2
14840KMKG MKG20060209173509602/09/06 17:35:31  5-MIN KMKG 092235Z 24007KT 10SM CLR M02/M11 A3011 450 53 -1500 250/07 RMK AO2
14840KMKG MKG20060209174009602/09/06 17:40:31  5-MIN KMKG 092240Z 24007KT 10SM CLR M02/M11 A3011 460 53 -1500 240/07 RMK AO2
14840KMKG MKG20060209174509602/09/06 17:45:31  5-MIN KMKG 092245Z 25008KT 10SM CLR M02/M11 A3011 450 51 -1500 250/08 RMK AO2
14840KMKG MKG20060209175011302/09/06 17:50:31  5-MIN KMKG 092250Z 25008KT 10SM CLR M02/M11 A3011 450 53 -1500 250/08 RMK AO2 SLP205 T10221106
14840KMKG MKG20060209175511302/09/06 17:55:31  5-MIN KMKG 092255Z 25008KT 10SM CLR M02/M11 A3011 460 53 -1500 250/08 RMK AO2 SLP205 T10221106
14840KMKG MKG20060209180009602/09/06 18:00:31  5-MIN KMKG 092300Z 25008KT 10SM CLR M02/M10 A3011 460 55 -1500 260/08 RMK AO2
14840KMKG MKG20060209180509602/09/06 18:05:31  5-MIN KMKG 092305Z 25007KT 10SM CLR M02/M11 A3011 460 53 -1500 250/07 RMK AO2
14840KMKG MKG20060209181009602/09/06 18:10:31  5-MIN KMKG 092310Z 24007KT 10SM CLR M03/M10 A3011 460 58 -1500 250/07 RMK AO2
14840KMKG MKG20060209181509602/09/06 18:15:31  5-MIN KMKG 092315Z 24007KT 10SM CLR M03/M10 A3011 450 58 -1500 250/07 RMK AO2
14840KMKG MKG20060209182009602/09/06 18:20:31  5-MIN KMKG 092320Z 24007KT 10SM CLR M03/M10 A3011 450 58 -1500 250/07 RMK AO2
14840KMKG MKG20060209182509602/09/06 18:25:31  5-MIN KMKG 092325Z 25006KT 10SM CLR M03/M10 A3011 450 58 -1500 250/06 RMK AO2
14840KMKG MKG20060209183009602/09/06 18:30:31  5-MIN KMKG 092330Z 25008KT 10SM CLR M03/M10 A3012 450 58 -1500 250/08 RMK AO2
14840KMKG MKG20060209183509602/09/06 18:35:31  5-MIN KMKG 092335Z 24009KT 10SM CLR M02/M09 A3012 450 58 -1500 250/09 RMK AO2
14840KMKG MKG20060209184009602/09/06 18:40:31  5-MIN KMKG 092340Z 24007KT 10SM CLR M02/M09 A3012 450 58 -1500 250/07 RMK AO2
14840KMKG MKG20060209184509602/09/06 18:45:31  5-MIN KMKG 092345Z 25006KT 10SM CLR M02/M09 A3012 450 58 -1500 250/06 RMK AO2
14840KMKG MKG20060209185013102/09/06 18:50:31  5-MIN KMKG 092350Z 24006KT 10SM CLR M02/M10 A3011 450 55 -1500 240/06 RMK AO2 SLP206 T10221100 11011 21028 56014
14840KMKG MKG20060209185513102/09/06 18:55:31  5-MIN KMKG 092355Z 24006KT 10SM CLR M02/M10 A3011 460 55 -1500 240/06 RMK AO2 SLP204 T10221100 11011 21028 56009
14840KMKG MKG20060209190009602/09/06 19:00:31  5-MIN KMKG 100000Z 24007KT 10SM CLR M02/M09 A3011 460 58 -1500 250/07 RMK AO2
14840KMKG MKG20060209190509602/09/06 19:05:31  5-MIN KMKG 100005Z 23007KT 10SM CLR M02/M09 A3010 460 58 -1500 240/07 RMK AO2
14840KMKG MKG20060209191009602/09/06 19:10:31  5-MIN KMKG 100010Z 24006KT 10SM CLR M02/M09 A3011 460 58 -1500 240/06 RMK AO2
14840KMKG MKG20060209191509602/09/06 19:15:31  5-MIN KMKG 100015Z 24007KT 10SM CLR M02/M09 A3011 460 58 -1500 240/07 RMK AO2
14840KMKG MKG20060209192009602/09/06 19:20:31  5-MIN KMKG 100020Z 23008KT 10SM CLR M02/M09 A3010 460 58 -1500 230/08 RMK AO2
14840KMKG MKG20060209192509602/09/06 19:25:31  5-MIN KMKG 100025Z 23009KT 10SM CLR M02/M09 A3010 460 60 -1500 240/09 RMK AO2
14840KMKG MKG20060209193009602/09/06 19:30:31  5-MIN KMKG 100030Z 24009KT 10SM CLR M02/M09 A3010 460 60 -1500 240/09 RMK AO2
14840KMKG MKG20060209193509602/09/06 19:35:31  5-MIN KMKG 100035Z 23009KT 10SM CLR M02/M09 A3010 460 58 -1400 230/09 RMK AO2
14840KMKG MKG20060209194009602/09/06 19:40:31  5-MIN KMKG 100040Z 24010KT 10SM CLR M02/M09 A3010 470 58 -1400 240/10 RMK AO2
14840KMKG MKG20060209194509602/09/06 19:45:31  5-MIN KMKG 100045Z 24009KT 10SM CLR M02/M09 A3010 470 58 -1400 240/09 RMK AO2
14840KMKG MKG20060209201009602/09/06 20:10:31  5-MIN KMKG 100110Z 22006KT 10SM CLR M02/M09 A3008 480 58 -1400 220/06 RMK AO2
14840KMKG MKG20060209201509902/09/06 20:15:31  5-MIN KMKG 100115Z 23008KT 10SM FEW120 M02/M09 A3008 480 58 -1400 230/08 RMK AO2
14840KMKG MKG20060209202009902/09/06 20:20:31  5-MIN KMKG 100120Z 23009KT 10SM FEW120 M02/M09 A3008 480 58 -1400 230/09 RMK AO2
14840KMKG MKG20060209202509902/09/06 20:25:31  5-MIN KMKG 100125Z 23009KT 10SM FEW120 M02/M09 A3008 480 58 -1400 230/09 RMK AO2
14840KMKG MKG20060209203009902/09/06 20:30:31  5-MIN KMKG 100130Z 23009KT 10SM FEW120 M02/M09 A3008 490 58 -1300 230/09 RMK AO2
14840KMKG MKG20060209203509902/09/06 20:35:31  5-MIN KMKG 100135Z 23010KT 10SM FEW120 M02/M09 A3007 490 58 -1300 230/10 RMK AO2
14840KMKG MKG20060209204009902/09/06 20:40:31  5-MIN KMKG 100140Z 22009KT 10SM FEW120 M01/M09 A3007 490 55 -1300 220/09 RMK AO2
14840KMKG MKG20060209204509902/09/06 20:45:31  5-MIN KMKG 100145Z 22009KT 10SM SCT120 M01/M09 A3007 490 53 -1300 220/09 RMK AO2
14840KMKG MKG20060209205011602/09/06 20:50:31  5-MIN KMKG 100150Z 22008KT 10SM BKN120 M01/M09 A3007 490 55 -1300 230/08 RMK AO2 SLP191 T10111089
14840KMKG MKG20060209205511602/09/06 20:55:31  5-MIN KMKG 100155Z 23009KT 10SM BKN120 M01/M09 A3007 490 55 -1300 230/09 RMK AO2 SLP191 T10111089
14840KMKG MKG20060209210009902/09/06 21:00:31  5-MIN KMKG 100200Z 24010KT 10SM BKN120 M01/M09 A3007 490 55 -1300 240/10 RMK AO2
14840KMKG MKG20060209210509902/09/06 21:05:31  5-MIN KMKG 100205Z 22009KT 10SM BKN120 M01/M09 A3007 490 55 -1300 230/09 RMK AO2
14840KMKG MKG20060209211009902/09/06 21:10:31  5-MIN KMKG 100210Z 23009KT 10SM OVC120 M01/M09 A3007 490 55 -1300 230/09 RMK AO2
14840KMKG MKG20060209211509902/09/06 21:15:31  5-MIN KMKG 100215Z 23012KT 10SM OVC120 M01/M09 A3006 500 51 -1200 230/12 RMK AO2
14840KMKG MKG20060209212009902/09/06 21:20:31  5-MIN KMKG 100220Z 23008KT 10SM BKN120 M01/M09 A3006 500 51 -1200 240/08 RMK AO2
14840KMKG MKG20060209212509902/09/06 21:25:31  5-MIN KMKG 100225Z 23010KT 10SM BKN120 M01/M09 A3006 500 51 -1200 240/10 RMK AO2
14840KMKG MKG20060209213009902/09/06 21:30:31  5-MIN KMKG 100230Z 23009KT 10SM BKN120 M01/M09 A3006 500 53 -1300 230/09 RMK AO2
14840KMKG MKG20060209213509902/09/06 21:35:31  5-MIN KMKG 100235Z 22010KT 10SM BKN120 M01/M09 A3006 500 53 -1300 230/10 RMK AO2
14840KMKG MKG20060209214009902/09/06 21:40:31  5-MIN KMKG 100240Z 23011KT 10SM SCT120 M01/M09 A3006 500 51 -1200 230/11 RMK AO2
14840KMKG MKG20060209214509902/09/06 21:45:31  5-MIN KMKG 100245Z 23013KT 10SM FEW120 M01/M10 A3006 500 49 -1200 230/13 RMK AO2
14840KMKG MKG20060209215012202/09/06 21:50:31  5-MIN KMKG 100250Z 24010KT 10SM SCT120 M01/M09 A3006 500 51 -1200 240/10 RMK AO2 SLP187 T10061094 56009
14840KMKG MKG20060209215512202/09/06 21:55:31  5-MIN KMKG 100255Z 24012KT 10SM SCT120 M01/M10 A3006 500 49 -1200 240/12 RMK AO2 SLP187 T10061100 56017
14840KMKG MKG20060209220009602/09/06 22:00:31  5-MIN KMKG 100300Z 24010KT 10SM CLR M01/M10 A3006 510 49 -1200 240/10 RMK AO2
14840KMKG MKG20060209220509902/09/06 22:05:31  5-MIN KMKG 100305Z 23013KT 10SM FEW110 M01/M10 A3005 510 49 -1200 230/13 RMK AO2
14840KMKG MKG20060209221009902/09/06 22:10:31  5-MIN KMKG 100310Z 24010KT 10SM SCT110 M01/M10 A3005 510 49 -1200 240/10 RMK AO2
14840KMKG MKG20060209221509902/09/06 22:15:31  5-MIN KMKG 100315Z 24012KT 10SM SCT110 M01/M10 A3005 510 49 -1200 250/12 RMK AO2
14840KMKG MKG20060209222009902/09/06 22:20:31  5-MIN KMKG 100320Z 24011KT 10SM BKN110 M01/M10 A3005 510 49 -1200 240/11 RMK AO2
14840KMKG MKG20060209222509902/09/06 22:25:31  5-MIN KMKG 100325Z 24012KT 10SM BKN110 M01/M10 A3005 510 49 -1200 240/12 RMK AO2
14840KMKG MKG20060209223009902/09/06 22:30:31  5-MIN KMKG 100330Z 24009KT 10SM BKN110 M01/M11 A3005 510 47 -1200 240/09 RMK AO2
14840KMKG MKG20060209223509902/09/06 22:35:31  5-MIN KMKG 100335Z 23014KT 10SM BKN110 M01/M10 A3005 520 49 -1200 240/14 RMK AO2
14840KMKG MKG20060209224009902/09/06 22:40:31  5-MIN KMKG 100340Z 24012KT 10SM BKN110 M01/M10 A3005 510 49 -1200 250/12 RMK AO2
14840KMKG MKG20060209224509902/09/06 22:45:31  5-MIN KMKG 100345Z 24011KT 10SM BKN110 M01/M10 A3004 520 49 -1200 240/11 RMK AO2
14840KMKG MKG20060209225011602/09/06 22:50:31  5-MIN KMKG 100350Z 24011KT 10SM BKN110 M01/M10 A3004 520 49 -1200 240/11 RMK AO2 SLP182 T10061100
14840KMKG MKG20060209225511602/09/06 22:55:31  5-MIN KMKG 100355Z 23011KT 10SM BKN110 M01/M09 A3004 520 51 -1200 230/11 RMK AO2 SLP181 T10061094
14840KMKG MKG20060209230009902/09/06 23:00:31  5-MIN KMKG 100400Z 24008KT 10SM BKN110 M01/M09 A3004 520 51 -1200 240/08 RMK AO2
14840KMKG MKG20060209230509902/09/06 23:05:31  5-MIN KMKG 100405Z 23011KT 10SM BKN110 M01/M09 A3004 520 51 -1200 240/11 RMK AO2
14840KMKG MKG20060209231009902/09/06 23:10:31  5-MIN KMKG 100410Z 24011KT 10SM OVC110 M01/M09 A3004 520 51 -1200 240/11 RMK AO2
14840KMKG MKG20060209231509902/09/06 23:15:31  5-MIN KMKG 100415Z 24013KT 10SM OVC110 M01/M10 A3004 520 49 -1200 240/13 RMK AO2
14840KMKG MKG20060209232009902/09/06 23:20:31  5-MIN KMKG 100420Z 24012KT 10SM OVC110 M01/M09 A3003 530 51 -1200 240/12 RMK AO2
14840KMKG MKG20060209232510602/09/06 23:25:31  5-MIN KMKG 100425Z 24013KT 10SM SCT100 OVC110 M01/M09 A3003 530 51 -1200 240/13 RMK AO2
14840KMKG MKG20060209233011302/09/06 23:30:31  5-MIN KMKG 100430Z 23012KT 10SM FEW080 BKN095 OVC110 M01/M09 A3003 520 51 -1200 230/12 RMK AO2
14840KMKG MKG20060209233510602/09/06 23:35:31  5-MIN KMKG 100435Z 24011KT 10SM BKN085 OVC110 M01/M09 A3003 530 53 -1200 250/11 RMK AO2
14840KMKG MKG20060209234010602/09/06 23:40:31  5-MIN KMKG 100440Z 24013KT 10SM BKN085 OVC110 M01/M09 A3003 530 51 -1200 240/13 RMK AO2
14840KMKG MKG20060209234510602/09/06 23:45:31  5-MIN KMKG 100445Z 24010KT 10SM BKN085 OVC110 M01/M09 A3003 530 51 -1200 240/10 RMK AO2
14840KMKG MKG20060209235012602/09/06 23:50:31  5-MIN KMKG 100450Z 24009KT 10SM OVC085 M01/M09 A3003 530 53 -1200 240/09 RMK AO2 SLP177 T10061089 410061111
14840KMKG MKG20060209235514102/09/06 23:55:31  5-MIN KMKG 100455Z 24011KT 10SM OVC090 M01/M09 A3003 530 53 -1200 240/11 RMK AO2 CIG 075 RWY 14 SLP177 T10061089 410061111
14840KMKG MKG20060210000009902/10/06 00:00:32  5-MIN KMKG 100500Z 23012KT 10SM OVC090 M01/M09 A3003 530 53 -1200 230/12 RMK AO2
14840KMKG MKG20060210000509902/10/06 00:05:31  5-MIN KMKG 100505Z 23012KT 10SM OVC090 M01/M09 A3003 530 53 -1200 240/12 RMK AO2
14840KMKG MKG20060210001009902/10/06 00:10:31  5-MIN KMKG 100510Z 23012KT 10SM OVC090 M01/M09 A3003 530 53 -1200 240/12 RMK AO2
14840KMKG MKG20060210001512102/10/06 00:15:31  5-MIN KMKG 100515Z 23010KT 10SM FEW065 OVC090 M01/M09 A3003 530 53 -1200 240/10 RMK AO2 CIG 075 RWY 14
14840KMKG MKG20060210002011302/10/06 00:20:31  5-MIN KMKG 100520Z 24010KT 10SM FEW044 BKN070 OVC095 M01/M09 A3003 530 53 -1200 240/10 RMK AO2
14840KMKG MKG20060210002510502/10/06 00:25:31  5-MIN KMKG 100525Z 23011KT 10SM BKN065 OVC095 00/M09 A3002 540 51 -1100 230/11 RMK AO2
14840KMKG MKG20060210003011202/10/06 00:30:31  5-MIN KMKG 100530Z 23012KT 10SM FEW045 BKN065 OVC095 00/M08 A3002 540 53 -1100 230/12 RMK AO2
14840KMKG MKG20060210003511202/10/06 00:35:31  5-MIN KMKG 100535Z 23010KT 10SM FEW043 BKN065 OVC075 00/M08 A3002 540 53 -1100 240/10 RMK AO2
14840KMKG MKG20060210004010502/10/06 00:40:31  5-MIN KMKG 100540Z 23011KT 10SM SCT045 OVC065 00/M08 A3002 540 53 -1100 230/11 RMK AO2
14840KMKG MKG20060210004512002/10/06 00:45:31  5-MIN KMKG 100545Z 23010KT 10SM SCT043 OVC065 00/M08 A3001 540 53 -1100 230/10 RMK AO2 CIG 045 RWY 14
14840KMKG MKG20060210005014702/10/06 00:50:31  5-MIN KMKG 100550Z 23010KT 10SM SCT043 BKN050 OVC065 00/M08 A3001 540 53 -1100 240/10 RMK AO2 SLP171 T00001083 10000 21022 56017
14840KMKG MKG20060210005514002/10/06 00:55:31  5-MIN KMKG 100555Z 23011KT 10SM BKN043 OVC065 00/M08 A3001 550 53 -1100 230/11 RMK AO2 SLP170 T00001083 10000 21022 57015
14840KMKG MKG20060210010011202/10/06 01:00:31  5-MIN KMKG 100600Z 24014KT 10SM BKN039 BKN046 OVC065 00/M08 A3001 550 56 -1100 240/14 RMK AO2
14840KMKG MKG20060210010510502/10/06 01:05:31  5-MIN KMKG 100605Z 24013KT 10SM BKN039 OVC046 00/M08 A3001 550 56 -1100 240/13 RMK AO2
14840KMKG MKG20060210011010502/10/06 01:10:31  5-MIN KMKG 100610Z 22012KT 10SM BKN037 OVC049 00/M08 A3000 550 56 -1100 230/12 RMK AO2
14840KMKG MKG20060210011511102/10/06 01:15:31  5-MIN KMKG 100615Z 22013G17KT 10SM BKN037 OVC049 00/M08 A3000 550 53 -1100 230/13G17 RMK AO2
14840KMKG MKG20060210012011202/10/06 01:20:31  5-MIN KMKG 100620Z 23012KT 10SM SCT033 BKN041 OVC049 00/M08 A3000 550 53 -1100 230/12 RMK AO2
14840KMKG MKG20060210012511202/10/06 01:25:31  5-MIN KMKG 100625Z 24012KT 10SM BKN039 BKN049 OVC065 00/M08 A3000 560 56 -1100 240/12 RMK AO2
14840KMKG MKG20060210013011202/10/06 01:30:31  5-MIN KMKG 100630Z 24013KT 10SM BKN039 BKN050 OVC065 00/M08 A3000 560 56 -1000 240/13 RMK AO2
14840KMKG MKG20060210013511202/10/06 01:35:31  5-MIN KMKG 100635Z 24009KT 10SM SCT041 BKN050 OVC065 00/M08 A3000 560 56 -1000 240/09 RMK AO2
14840KMKG MKG20060210014010502/10/06 01:40:31  5-MIN KMKG 100640Z 24013KT 10SM SCT041 OVC055 00/M08 A3000 560 53 -1000 240/13 RMK AO2
14840KMKG MKG20060210014510502/10/06 01:45:31  5-MIN KMKG 100645Z 24012KT 10SM FEW041 OVC055 00/M08 A2999 560 53 -1000 250/12 RMK AO2
14840KMKG MKG20060210015013702/10/06 01:50:31  5-MIN KMKG 100650Z 24012KT 10SM SCT039 OVC055 00/M08 A2999 560 53 -1000 250/12 RMK AO2 CIG 042 RWY 14 SLP164 T00001083
14840KMKG MKG20060210015514402/10/06 01:55:31  5-MIN KMKG 100655Z 26013KT 7SM FEW016 BKN047 OVC055 M01/M06 A2999 560 66 -1100 260/13 RMK AO2 CIG 039 RWY 14 SLP166 T10061061
14840KMKG MKG20060210020013002/10/06 02:00:31  5-MIN KMKG 100700Z 25013KT 5SM -SN FEW016 BKN025 OVC055 M01/M05 A2999 560 75 -1200 250/13 RMK AO2 SNB0656 P0000
14840KMKG MKG20060210020513602/10/06 02:05:31  5-MIN KMKG 100705Z 25014G18KT 3SM -SN FEW015 BKN020 OVC055 M01/M04 A2999 560 78 -1200 260/14G18 RMK AO2 SNB0656 P0000
14840KMKG MKG20060210021014302/10/06 02:10:31  5-MIN KMKG 100710Z 25012G18KT 1 3/4SM -SN BR FEW011 BKN017 OVC050 M02/M04 A2999 560 85 -1300 250/12G18 RMK AO2 SNB0656 P0000
14840KMKG MKG20060210021513702/10/06 02:15:31  5-MIN KMKG 100715Z 25011KT 1 1/2SM -SN BR BKN012 BKN018 OVC036 M02/M04 A2999 570 85 -1300 250/11 RMK AO2 SNB0656 P0000
14840KMKG MKG20060210022013302/10/06 02:20:31  5-MIN KMKG 100720Z 25009KT 1SM -SN BR FEW002 SCT008 OVC012 M02/M03 A2999 570 88 -1200 260/09 RMK AO2 SNB0656 P0000
14840KMKG MKG20060210022513502/10/06 02:25:31  5-MIN KMKG 100725Z 24012KT 3/4SM -SN BR FEW002 BKN008 OVC012 M02/M03 A2999 570 88 -1200 250/12 RMK AO2 SNB0656 P0000
14840KMKG MKG20060210023013502/10/06 02:30:31  5-MIN KMKG 100730Z 24013KT 3/4SM -SN BR FEW002 BKN008 OVC012 M02/M03 A2999 570 88 -1200 250/13 RMK AO2 SNB0656 P0000
14840KMKG MKG20060210023513202/10/06 02:35:31  5-MIN KMKG 100735Z 23011G17KT 1SM -SN BR SCT004 OVC008 M02/M03 A2998 570 88 -1200 230/11G17 RMK AO2 SNB0656 P0000
14840KMKG MKG20060210024013702/10/06 02:40:31  5-MIN KMKG 100740Z 23010KT 1 1/4SM -SN BR FEW002 BKN008 OVC014 M02/M04 A2998 570 88 -1300 240/10 RMK AO2 SNB0656 P0000
14840KMKG MKG20060210024513302/10/06 02:45:31  5-MIN KMKG 100745Z 24009KT 1SM -SN BR FEW002 BKN008 OVC012 M02/M03 A2998 570 92 -1300 240/09 RMK AO2 SNB0656 P0000
14840KMKG MKG20060210025013502/10/06 02:50:31  5-MIN KMKG 100750Z 23008KT 3/4SM -SN BR SCT002 BKN008 OVC012 M02/M03 A2998 580 92 -1300 240/08 RMK AO2 SNB0656 P0001
14840KMKG MKG20060210025515302/10/06 02:55:31  5-MIN KMKG 100755Z 24008KT 1/2SM SN FZFG SCT002 BKN008 OVC014 M02/M03 A2998 580 88 -1200 240/08 RMK AO2 SNB0656 SLP160 P0001 T10171033
14840KMKG MKG20060210030012102/10/06 03:00:31  5-MIN KMKG 100800Z 26011KT 1/2SM SN FZFG BKN002 OVC009 M02/M03 A2997 580 92 -1300 260/11 RMK AO2 P0001
14840KMKG MKG20060210030512702/10/06 03:05:31  5-MIN KMKG 100805Z 25013KT 3/4SM -SN BR BKN002 BKN007 OVC014 M02/M03 A2997 580 88 -1200 250/13 RMK AO2 P0001
14840KMKG MKG20060210031012502/10/06 03:10:31  5-MIN KMKG 100810Z 25011KT 1SM -SN BR SCT002 BKN007 OVC014 M02/M03 A2997 580 88 -1200 250/11 RMK AO2 P0001
14840KMKG MKG20060210031512902/10/06 03:15:31  5-MIN KMKG 100815Z 27012KT 1 1/4SM -SN BR SCT002 BKN007 OVC014 M02/M03 A2997 590 88 -1200 270/12 RMK AO2 P0001
14840KMKG MKG20060210032012502/10/06 03:20:31  5-MIN KMKG 100820Z 26010KT 1SM -SN BR SCT002 BKN007 OVC012 M02/M03 A2997 590 88 -1200 260/10 RMK AO2 P0001
14840KMKG MKG20060210032512702/10/06 03:25:31  5-MIN KMKG 100825Z 25013KT 3/4SM -SN BR SCT002 BKN007 OVC012 M02/M03 A2996 590 88 -1200 260/13 RMK AO2 P0001
14840KMKG MKG20060210033013302/10/06 03:30:31  5-MIN KMKG 100830Z 26012G19KT 3/4SM -SN BR FEW002 BKN007 OVC012 M02/M03 A2996 590 92 -1300 270/12G19 RMK AO2 P0002
14840KMKG MKG20060210033512402/10/06 03:35:31  5-MIN KMKG 100835Z 25010G19KT 1SM -SN BR BKN007 OVC012 M02/M03 A2996 590 92 -1300 260/10G19 RMK AO2 P0002
14840KMKG MKG20060210034012902/10/06 03:40:31  5-MIN KMKG 100840Z 26011KT 1 1/4SM -SN BR BKN007 BKN016 OVC023 M02/M03 A2996 600 92 -1300 260/11 RMK AO2 P0002
14840KMKG MKG20060210034512502/10/06 03:45:31  5-MIN KMKG 100845Z 25011KT 2SM -SN BR BKN009 BKN016 OVC041 M02/M04 A2996 600 88 -1300 260/11 RMK AO2 P0002
14840KMKG MKG20060210035016002/10/06 03:50:31  5-MIN KMKG 100850Z 26010G17KT 2SM -SN BR SCT009 BKN014 OVC041 M02/M04 A2995 600 88 -1300 260/10G17 RMK AO2 SLP151 P0002 60003 T10221039 57015
14840KMKG MKG20060210035515402/10/06 03:55:31  5-MIN KMKG 100855Z 26011KT 2SM -SN BR SCT009 BKN014 OVC041 M02/M04 A2995 600 88 -1300 260/11 RMK AO2 SLP151 P0002 60003 T10221039 58014
14840KMKG MKG20060210040012902/10/06 04:00:31  5-MIN KMKG 100900Z 26010KT 1 3/4SM -SN BR BKN009 BKN014 OVC041 M02/M03 A2995 600 92 -1300 260/10 RMK AO2 P0000
14840KMKG MKG20060210040512902/10/06 04:05:31  5-MIN KMKG 100905Z 26011KT 1 1/2SM -SN BR SCT009 BKN012 OVC041 M02/M03 A2995 600 92 -1300 260/11 RMK AO2 P0000
14840KMKG MKG20060210041014102/10/06 04:10:31  5-MIN KMKG 100910Z 26010KT 1 1/4SM -SN BR BKN009 BKN013 OVC041 M02/M03 A2995 600 88 -1200 270/10 RMK AO2 CIG 006V010 P0000
14840KMKG MKG20060210041512202/10/06 04:15:31  5-MIN KMKG 100915Z 28009KT 1 1/2SM -SN BR SCT009 OVC013 M02/M04 A2995 600 88 -1300 280/09 RMK AO2 P0000
14840KMKG MKG20060210042013402/10/06 04:20:31  5-MIN KMKG 100920Z 27008KT 1 3/4SM -SN BR BKN008 OVC014 M02/M04 A2995 600 88 -1300 280/08 RMK AO2 CIG 006V012 P0001
14840KMKG MKG20060210042512902/10/06 04:25:31  5-MIN KMKG 100925Z 26009KT 1 1/2SM -SN BR SCT008 BKN014 OVC021 M02/M04 A2994 610 88 -1300 270/09 RMK AO2 P0001
14840KMKG MKG20060210043012902/10/06 04:30:31  5-MIN KMKG 100930Z 26011KT 1 1/2SM -SN BR FEW008 BKN012 OVC023 M02/M04 A2995 610 88 -1300 260/11 RMK AO2 P0001
14840KMKG MKG20060210043512902/10/06 04:35:31  5-MIN KMKG 100935Z 27010KT 1 1/2SM -SN BR FEW008 BKN014 OVC023 M02/M04 A2994 610 88 -1300 270/10 RMK AO2 P0001
14840KMKG MKG20060210044012902/10/06 04:40:31  5-MIN KMKG 100940Z 28010KT 1 1/4SM -SN BR SCT009 BKN014 OVC023 M02/M03 A2994 610 92 -1300 290/10 RMK AO2 P0001
14840KMKG MKG20060210044514402/10/06 04:45:31  5-MIN KMKG 100945Z 28007KT 1 1/4SM -SN BR FEW009 BKN014 OVC023 M02/M04 A2994 610 88 -1300 290/07 RMK AO2 CIG 010 RWY 14 P0001
14840KMKG MKG20060210045016102/10/06 04:50:31  5-MIN KMKG 100950Z 28008KT 1 1/4SM -SN BR FEW006 BKN014 OVC023 M02/M04 A2994 610 88 -1300 290/08 RMK AO2 CIG 010 RWY 14 SLP147 P0001 T10221039
14840KMKG MKG20060210045514402/10/06 04:55:31  5-MIN KMKG 100955Z 28009KT 3/4SM -SN BR SCT004 BKN009 OVC020 M02/M04 A2994 610 88 -1300 280/09 RMK AO2 SLP147 P0001 T10221039
14840KMKG MKG20060210050012702/10/06 05:00:31  5-MIN KMKG 101000Z 28011KT 3/4SM -SN BR BKN004 BKN009 OVC015 M02/M04 A2994 620 88 -1300 280/11 RMK AO2 P0001
14840KMKG MKG20060210050512502/10/06 05:05:31  5-MIN KMKG 101005Z 28007KT 1SM -SN BR BKN004 BKN017 OVC025 M03/M04 A2994 620 88 -1300 280/07 RMK AO2 P0001
14840KMKG MKG20060210051012902/10/06 05:10:31  5-MIN KMKG 101010Z 28008KT 1 1/2SM -SN BR FEW002 BKN008 OVC030 M03/M04 A2994 620 92 -1300 280/08 RMK AO2 P0001
14840KMKG MKG20060210051512502/10/06 05:15:31  5-MIN KMKG 101015Z 28006KT 2SM -SN BR FEW002 BKN010 OVC035 M03/M04 A2993 620 92 -1300 280/06 RMK AO2 P0001
14840KMKG MKG20060210052012502/10/06 05:20:31  5-MIN KMKG 101020Z 27006KT 3SM -SN BR FEW002 BKN010 OVC035 M02/M04 A2993 620 88 -1300 280/06 RMK AO2 P0001
14840KMKG MKG20060210052512502/10/06 05:25:31  5-MIN KMKG 101025Z 27005KT 3SM -SN BR FEW002 BKN010 OVC035 M02/M04 A2993 620 88 -1300 280/05 RMK AO2 P0001
14840KMKG MKG20060210053012502/10/06 05:30:31  5-MIN KMKG 101030Z 27008KT 3SM -SN BR BKN010 BKN015 OVC035 M02/M03 A2993 620 92 -1300 270/08 RMK AO2 P0001
14840KMKG MKG20060210053515702/10/06 05:35:31  5-MIN KMKG 101035Z 28008KT 3SM -SN BR SCT010 BKN022 OVC033 M02/M04 A2993 620 88 -1300 290/08 RMK AO2 VIS 2 1/2 RWY 14 CIG 012 RWY 14 P0001
14840KMKG MKG20060210054012502/10/06 05:40:31  5-MIN KMKG 101040Z 26008KT 3SM -SN BR SCT010 BKN015 OVC043 M02/M04 A2993 620 88 -1300 270/08 RMK AO2 P0001
14840KMKG MKG20060210054512902/10/06 05:45:31  5-MIN KMKG 101045Z 26007KT 2 1/2SM -SN BR BKN010 BKN017 OVC042 M02/M04 A2993 620 88 -1300 260/07 RMK AO2 P0002
14840KMKG MKG20060210055012502/10/06 05:50:31  5-MIN KMKG 101050Z 27007KT 2SM -SN BR BKN010 BKN017 OVC024 M02/M03 A2993 620 92 -1200 280/07 RMK AO2 P0002
14840KMKG MKG20060210055514202/10/06 05:55:31  5-MIN KMKG 101055Z 26009KT 2SM -SN BR SCT013 BKN019 OVC024 M02/M04 A2993 620 85 -1200 270/09 RMK AO2 SLP143 P0002 T10171039
14840KMKG MKG20060210060012902/10/06 06:00:31  5-MIN KMKG 101100Z 26009KT 2 1/2SM -SN BR SCT013 BKN019 OVC036 M02/M04 A2993 620 85 -1200 270/09 RMK AO2 P0000
14840KMKG MKG20060210060512902/10/06 06:05:31  5-MIN KMKG 101105Z 26008KT 1 3/4SM -SN BR SCT013 BKN017 OVC036 M02/M04 A2993 620 88 -1200 270/08 RMK AO2 P0000
14840KMKG MKG20060210061012902/10/06 06:10:31  5-MIN KMKG 101110Z 27006KT 1 3/4SM -SN BR BKN011 BKN017 OVC023 M02/M04 A2993 620 88 -1200 270/06 RMK AO2 P0000
14840KMKG MKG20060210061512902/10/06 06:15:31  5-MIN KMKG 101115Z 27005KT 2 1/2SM -SN BR SCT009 BKN013 OVC033 M02/M03 A2993 620 92 -1200 280/05 RMK AO2 P0000
14840KMKG MKG20060210062012502/10/06 06:20:31  5-MIN KMKG 101120Z 27006KT 3SM -SN BR SCT011 BKN022 OVC038 M02/M03 A2993 630 92 -1200 280/06 RMK AO2 P0000
14840KMKG MKG20060210062514002/10/06 06:25:31  5-MIN KMKG 101125Z 28006KT 5SM -SN BR SCT011 BKN031 OVC050 M02/M04 A2993 630 88 -1200 280/06 RMK AO2 CIG 026 RWY 14 P0000
14840KMKG MKG20060210063012502/10/06 06:30:31  5-MIN KMKG 101130Z 26005KT 6SM -SN BR FEW011 BKN037 OVC050 M02/M04 A2992 630 85 -1200 270/05 RMK AO2 P0000
14840KMKG MKG20060210063512202/10/06 06:35:31  5-MIN KMKG 101135Z 28005KT 6SM -SN FEW009 BKN031 OVC050 M02/M04 A2992 630 81 -1200 280/05 RMK AO2 P0000
14840KMKG MKG20060210064012502/10/06 06:40:31  5-MIN KMKG 101140Z 25004KT 3SM -SN BR SCT014 BKN031 OVC050 M02/M04 A2992 630 85 -1200 260/04 RMK AO2 P0000
14840KMKG MKG20060210064512502/10/06 06:45:31  5-MIN KMKG 101145Z 27007KT 3SM -SN BR SCT016 BKN026 OVC050 M02/M04 A2993 630 85 -1200 270/07 RMK AO2 P0000
14840KMKG MKG20060210065018402/10/06 06:50:31  5-MIN KMKG 101150Z 26007KT 7SM -SN FEW018 SCT026 OVC050 M02/M04 A2993 630 81 -1200 260/07 RMK AO2 CIG 031 RWY 14 SLP142 P0000 60006 70006 T10171044 10000 21028 58014
14840KMKG MKG20060210065516902/10/06 06:55:31  5-MIN KMKG 101155Z 26008KT 8SM -SN FEW014 BKN030 OVC050 M02/M04 A2993 630 81 -1200 270/08 RMK AO2 SLP142 P0000 60006 70006 T10171044 10000 21028 56005
14840KMKG MKG20060210070012202/10/06 07:00:31  5-MIN KMKG 101200Z 26007KT 9SM -SN FEW014 BKN030 OVC050 M02/M04 A2993 630 81 -1200 270/07 RMK AO2 P0000
14840KMKG MKG20060210070512202/10/06 07:05:31  5-MIN KMKG 101205Z 26007KT 7SM -SN SCT017 BKN041 OVC050 M02/M05 A2992 630 78 -1200 260/07 RMK AO2 P0000
14840KMKG MKG20060210071012202/10/06 07:10:31  5-MIN KMKG 101210Z 26006KT 6SM -SN FEW017 BKN039 OVC050 M02/M04 A2992 630 81 -1200 270/06 RMK AO2 P0000
14840KMKG MKG20060210071512202/10/06 07:15:31  5-MIN KMKG 101215Z 27007KT 4SM -SN FEW019 BKN039 OVC050 M02/M04 A2992 630 81 -1200 270/07 RMK AO2 P0000
14840KMKG MKG20060210072012202/10/06 07:20:31  5-MIN KMKG 101220Z 25005KT 3SM -SN FEW017 BKN023 OVC050 M02/M04 A2992 630 81 -1200 260/05 RMK AO2 P0000
14840KMKG MKG20060210072512202/10/06 07:25:31  5-MIN KMKG 101225Z 25006KT 3SM -SN FEW016 BKN022 OVC043 M02/M04 A2993 630 81 -1200 260/06 RMK AO2 P0000
14840KMKG MKG20060210073012202/10/06 07:30:31  5-MIN KMKG 101230Z 25006KT 5SM -SN FEW016 BKN022 OVC042 M02/M04 A2993 630 81 -1200 250/06 RMK AO2 P0000
14840KMKG MKG20060210073512202/10/06 07:35:31  5-MIN KMKG 101235Z 26006KT 7SM -SN SCT019 BKN026 OVC042 M02/M04 A2993 630 81 -1200 260/06 RMK AO2 P0000
14840KMKG MKG20060210074012202/10/06 07:40:31  5-MIN KMKG 101240Z 27005KT 7SM -SN SCT019 BKN026 OVC042 M02/M04 A2993 630 81 -1200 270/05 RMK AO2 P0000
14840KMKG MKG20060210074512202/10/06 07:45:31  5-MIN KMKG 101245Z 27005KT 7SM -SN FEW016 BKN021 OVC040 M02/M04 A2993 620 81 -1200 270/05 RMK AO2 P0000
14840KMKG MKG20060210075013902/10/06 07:50:31  5-MIN KMKG 101250Z 26005KT 7SM -SN FEW016 BKN027 OVC040 M02/M04 A2993 620 81 -1200 260/05 RMK AO2 SLP142 P0000 T10171044
14840KMKG MKG20060210075515402/10/06 07:55:31  5-MIN KMKG 101255Z 25005KT 8SM -SN FEW017 SCT021 OVC040 M02/M05 A2993 620 78 -1200 260/05 RMK AO2 CIG 029 RWY 14 SLP143 P0000 T10171050
14840KMKG MKG20060210080012202/10/06 08:00:31  5-MIN KMKG 101300Z 25006KT 9SM -SN FEW017 BKN024 OVC042 M01/M05 A2993 620 75 -1100 260/06 RMK AO2 P0000
14840KMKG MKG20060210080511502/10/06 08:05:31  5-MIN KMKG 101305Z 25005KT 9SM -SN BKN021 OVC042 M01/M05 A2993 620 75 -1100 260/05 RMK AO2 P0000
14840KMKG MKG20060210081012202/10/06 08:10:31  5-MIN KMKG 101310Z 25004KT 9SM -SN FEW019 SCT024 OVC042 M02/M05 A2993 620 78 -1200 260/04 RMK AO2 P0000
14840KMKG MKG20060210081512202/10/06 08:15:31  5-MIN KMKG 101315Z 26006KT 9SM -SN FEW019 SCT024 OVC040 M01/M05 A2993 620 75 -1100 260/06 RMK AO2 P0000
14840KMKG MKG20060210082011502/10/06 08:20:31  5-MIN KMKG 101320Z 26005KT 8SM -SN FEW019 OVC040 M01/M05 A2993 620 75 -1100 260/05 RMK AO2 P0000
14840KMKG MKG20060210082511502/10/06 08:25:31  5-MIN KMKG 101325Z 26006KT 7SM -SN FEW019 OVC040 M01/M05 A2993 620 75 -1100 260/06 RMK AO2 P0000
14840KMKG MKG20060210083013702/10/06 08:30:31  5-MIN KMKG 101330Z 27006KT 5SM -SN SCT019 SCT031 OVC040 M01/M04 A2994 620 78 -1100 270/06 RMK AO2 CIG 030 RWY 14 P0000
14840KMKG MKG20060210083512202/10/06 08:35:31  5-MIN KMKG 101335Z 26004KT 3SM -SN SCT019 BKN031 OVC040 M01/M04 A2994 620 78 -1100 270/04 RMK AO2 P0000
14840KMKG MKG20060210084012602/10/06 08:40:31  5-MIN KMKG 101340Z VRB05KT 2 1/2SM -SN FEW017 BKN030 OVC040 M02/M04 A2994 610 81 -1200 VRB/05 RMK AO2 P0000
14840KMKG MKG20060210084512602/10/06 08:45:31  5-MIN KMKG 101345Z 27004KT 1 3/4SM -SN SCT015 BKN021 OVC040 M02/M04 A2994 610 81 -1200 270/04 RMK AO2 P0000
14840KMKG MKG20060210085013602/10/06 08:50:31  5-MIN KMKG 101350Z 26004KT 1 1/2SM -SN SCT013 BKN021 OVC039 M02/M04 A2994 610 81 -1200 270/04 RMK AO2 TWR VIS 2 P0000
14840KMKG MKG20060210085515602/10/06 08:55:31  5-MIN KMKG 101355Z 26005KT 1 1/4SM -SN BR SCT013 BKN021 OVC031 M02/M04 A2994 610 85 -1200 270/05 RMK AO2 TWR VIS 2 SLP148 P0000 T10171039
14840KMKG MKG20060210090013502/10/06 09:00:31  5-MIN KMKG 101400Z 26004KT 1SM -SN BR SCT011 BKN016 OVC022 M02/M04 A2994 610 85 -1200 260/04 RMK AO2 TWR VIS 2 P0000
14840KMKG MKG20060210090512502/10/06 09:05:31  5-MIN KMKG 101405Z 26004KT 1SM -SN BR BKN009 BKN016 OVC022 M02/M04 A2994 610 85 -1200 270/04 RMK AO2 P0001
14840KMKG MKG20060210091011802/10/06 09:10:31  5-MIN KMKG 101410Z 26004KT 1SM -SN BR SCT009 OVC018 M02/M04 A2995 610 85 -1200 260/04 RMK AO2 P0001
14840KMKG MKG20060210091514502/10/06 09:15:31  5-MIN KMKG 101415Z 27005KT 3/4SM -SN BR SCT007 OVC018 M02/M04 A2995 610 85 -1200 270/05 RMK AO2 TWR VIS 1 CIG 012 RWY 14 P0001
14840KMKG MKG20060210092013002/10/06 09:20:31  5-MIN KMKG 101420Z 27004KT 3/4SM -SN BR SCT007 OVC018 M02/M03 A2995 610 88 -1200 270/04 RMK AO2 TWR VIS 1 P0001
14840KMKG MKG20060210092513002/10/06 09:25:31  5-MIN KMKG 101425Z 26005KT 3/4SM -SN BR SCT005 OVC018 M02/M03 A2995 610 88 -1200 260/05 RMK AO2 TWR VIS 1 P0001
14840KMKG MKG20060210093015202/10/06 09:30:31  5-MIN KMKG 101430Z 27003KT 3/4SM -SN BR SCT005 BKN015 OVC020 M02/M03 A2995 610 92 -1200 270/03 RMK AO2 TWR VIS 1 CIG 010 RWY 14 P0001
14840KMKG MKG20060210093515202/10/06 09:35:31  5-MIN KMKG 101435Z 27004KT 3/4SM -SN BR SCT005 BKN015 OVC020 M02/M03 A2995 610 92 -1200 270/04 RMK AO2 TWR VIS 1 CIG 010 RWY 14 P0001
14840KMKG MKG20060210094013802/10/06 09:40:31  5-MIN KMKG 101440Z 25006KT 1/2SM SN FZFG SCT003 BKN008 OVC020 M02/M03 A2995 600 92 -1200 260/06 RMK AO2 TWR VIS 1 P0002
14840KMKG MKG20060210094513802/10/06 09:45:31  5-MIN KMKG 101445Z 25005KT 1/2SM SN FZFG SCT003 BKN008 OVC019 M02/M03 A2995 600 92 -1200 260/05 RMK AO2 TWR VIS 1 P0002
14840KMKG MKG20060210095018102/10/06 09:50:31  5-MIN KMKG 101450Z 25004KT 3/4SM -SN BR SCT003 SCT010 OVC016 M02/M03 A2995 600 92 -1200 260/04 RMK AO2 TWR VIS 1 CIG 008 RWY 14 SLP150 P0002 60002 T10171028 56005
14840KMKG MKG20060210095516602/10/06 09:55:31  5-MIN KMKG 101455Z 26004KT 3/4SM -SN BR BKN006 BKN010 OVC016 M02/M03 A2995 600 92 -1200 260/04 RMK AO2 TWR VIS 1 SLP150 P0002 60002 T10171028 51007
14840KMKG MKG20060210100013702/10/06 10:00:31  5-MIN KMKG 101500Z 25004KT 3/4SM -SN BR FEW002 BKN006 OVC016 M02/M03 A2995 600 92 -1200 260/04 RMK AO2 TWR VIS 1 P0000
14840KMKG MKG20060210100513702/10/06 10:05:31  5-MIN KMKG 101505Z 25004KT 3/4SM -SN BR BKN008 BKN012 OVC019 M02/M03 A2995 600 92 -1200 260/04 RMK AO2 TWR VIS 1 P0000
14840KMKG MKG20060210101013002/10/06 10:10:31  5-MIN KMKG 101510Z 26004KT 3/4SM -SN BR BKN008 OVC014 M02/M03 A2995 600 92 -1200 260/04 RMK AO2 TWR VIS 1 P0000
14840KMKG MKG20060210101513002/10/06 10:15:31  5-MIN KMKG 101515Z 27004KT 3/4SM -SN BR BKN008 OVC016 M02/M03 A2995 600 92 -1200 270/04 RMK AO2 TWR VIS 1 P0000
14840KMKG MKG20060210102012502/10/06 10:20:31  5-MIN KMKG 101520Z 27005KT 1SM -SN BR BKN008 BKN016 OVC021 M02/M03 A2995 600 92 -1200 270/05 RMK AO2 P0000
14840KMKG MKG20060210102512502/10/06 10:25:31  5-MIN KMKG 101525Z 25004KT 1SM -SN BR SCT008 BKN013 OVC021 M02/M03 A2995 600 92 -1200 260/04 RMK AO2 P0001
14840KMKG MKG20060210103013902/10/06 10:30:31  5-MIN KMKG 101530Z 25004KT 1SM -SN BR SCT008 BKN015 OVC021 M02/M03 A2995 600 92 -1200 260/04 RMK AO2 SFC VIS 1 1/4 P0001
14840KMKG MKG20060210103513902/10/06 10:35:31  5-MIN KMKG 101535Z 26006KT 1SM -SN BR SCT008 BKN012 OVC021 M02/M03 A2995 600 92 -1200 260/06 RMK AO2 SFC VIS 1 1/2 P0001
14840KMKG MKG20060210104014302/10/06 10:40:31  5-MIN KMKG 101540Z 25004KT 1 1/2SM -SN BR SCT008 BKN017 OVC023 M02/M03 A2995 600 92 -1200 250/04 RMK AO2 SFC VIS 1 3/4 P0001
14840KMKG MKG20060210104514302/10/06 10:45:31  5-MIN KMKG 101545Z 25005KT 1 1/2SM -SN BR SCT008 BKN017 OVC025 M02/M03 A2995 600 92 -1200 250/05 RMK AO2 SFC VIS 1 3/4 P0001
14840KMKG MKG20060210105015602/10/06 10:50:31  5-MIN KMKG 101550Z 25004KT 1 1/2SM -SN BR FEW008 BKN017 OVC026 M01/M03 A2995 600 88 -1100 260/04 RMK AO2 SFC VIS 2 SLP150 P0001 T10111028
14840KMKG MKG20060210105515602/10/06 10:55:31  5-MIN KMKG 101555Z 26004KT 2SM -SN BR SCT010 BKN017 OVC031 M01/M03 A2995 600 85 -1100 260/04 RMK AO2 SFC VIS 2 1/2 SLP150 P0001 T10111033
14840KMKG MKG20060210110013902/10/06 11:00:31  5-MIN KMKG 101600Z 26006KT 2SM -SN BR FEW008 BKN022 OVC030 M01/M03 A2995 600 85 -1100 260/06 RMK AO2 SFC VIS 2 1/2 P0000
14840KMKG MKG20060210110513902/10/06 11:05:31  5-MIN KMKG 101605Z 27006KT 2SM -SN BR FEW012 BKN022 OVC030 M01/M03 A2996 600 85 -1100 270/06 RMK AO2 SFC VIS 2 1/2 P0000
14840KMKG MKG20060210111013502/10/06 11:10:31  5-MIN KMKG 101610Z 26005KT 2SM -SN BR FEW012 BKN028 OVC037 M01/M03 A2996 600 85 -1100 260/05 RMK AO2 SFC VIS 3 P0000
14840KMKG MKG20060210111513502/10/06 11:15:31  5-MIN KMKG 101615Z 27005KT 2SM -SN BR SCT018 BKN028 OVC046 M01/M03 A2996 600 85 -1100 270/05 RMK AO2 SFC VIS 3 P0000
14840KMKG MKG20060210112013502/10/06 11:20:31  5-MIN KMKG 101620Z 27004KT 3SM -SN BR FEW012 BKN020 OVC046 M01/M03 A2996 600 85 -1100 270/04 RMK AO2 SFC VIS 3 P0000
14840KMKG MKG20060210112513502/10/06 11:25:31  5-MIN KMKG 101625Z 26005KT 3SM -SN BR FEW012 BKN022 OVC044 M01/M03 A2996 600 85 -1100 260/05 RMK AO2 SFC VIS 4 P0000
14840KMKG MKG20060210113013502/10/06 11:30:31  5-MIN KMKG 101630Z VRB04KT 3SM -SN BR FEW012 BKN022 OVC044 M01/M03 A2996 590 85 -1100 VRB/04 RMK AO2 SFC VIS 5 P0000
14840KMKG MKG20060210113513502/10/06 11:35:31  5-MIN KMKG 101635Z 26004KT 3SM -SN BR SCT014 BKN023 OVC035 M01/M03 A2996 590 85 -1100 260/04 RMK AO2 SFC VIS 6 P0000
14840KMKG MKG20060210114013502/10/06 11:40:31  5-MIN KMKG 101640Z 26005KT 3SM -SN BR BKN014 BKN023 OVC035 M01/M03 A2996 590 85 -1100 260/05 RMK AO2 SFC VIS 5 P0000
14840KMKG MKG20060210114513502/10/06 11:45:31  5-MIN KMKG 101645Z 26004KT 3SM -SN BR BKN014 BKN023 OVC033 M01/M03 A2996 590 85 -1100 260/04 RMK AO2 SFC VIS 4 P0000
14840KMKG MKG20060210115015002/10/06 11:50:31  5-MIN KMKG 101650Z 27006KT 3SM -SN BR SCT014 BKN023 OVC033 M01/M03 A2996 590 85 -1100 270/06 RMK AO2 SFC VIS 4 CIG 013 RWY 14 P0000
14840KMKG MKG20060210115514902/10/06 11:55:31  5-MIN KMKG 101655Z 27006KT 3SM -SN BKN014 BKN023 OVC032 M01/M04 A2996 590 81 -1100 280/06 RMK AO2 SFC VIS 4 SLP153 P0000 T10111039
14840KMKG MKG20060210120013202/10/06 12:00:31  5-MIN KMKG 101700Z 26007KT 3SM -SN BKN014 BKN021 OVC032 M01/M04 A2996 590 81 -1100 270/07 RMK AO2 SFC VIS 5 P0000
14840KMKG MKG20060210120513202/10/06 12:05:31  5-MIN KMKG 101705Z 26006KT 3SM -SN BKN016 BKN021 OVC034 M01/M04 A2996 590 81 -1200 270/06 RMK AO2 SFC VIS 5 P0000
14840KMKG MKG20060210121014702/10/06 12:10:31  5-MIN KMKG 101710Z 26005KT 3SM -SN SCT016 BKN024 OVC034 M01/M04 A2996 590 81 -1100 260/05 RMK AO2 SFC VIS 6 CIG 015 RWY 14 P0000
14840KMKG MKG20060210121513202/10/06 12:15:31  5-MIN KMKG 101715Z 25007KT 3SM -SN FEW016 BKN024 OVC032 M01/M04 A2996 590 81 -1100 260/07 RMK AO2 SFC VIS 6 P0000
14840KMKG MKG20060210122014702/10/06 12:20:31  5-MIN KMKG 101720Z 26004KT 3SM -SN FEW016 SCT022 OVC032 M01/M04 A2996 590 81 -1100 260/04 RMK AO2 SFC VIS 5 CIG 021 RWY 14 P0000
14840KMKG MKG20060210122515002/10/06 12:25:31  5-MIN KMKG 101725Z 26006KT 3SM -SN BR FEW016 SCT025 OVC032 M01/M03 A2996 590 85 -1100 260/06 RMK AO2 SFC VIS 4 CIG 021 RWY 14 P0000
14840KMKG MKG20060210123013502/10/06 12:30:31  5-MIN KMKG 101730Z 27005KT 3SM -SN BR FEW016 BKN029 OVC034 M01/M03 A2996 590 85 -1100 270/05 RMK AO2 SFC VIS 4 P0000
14840KMKG MKG20060210123513202/10/06 12:35:31  5-MIN KMKG 101735Z 27007KT 2SM -SN BR FEW016 OVC027 M01/M03 A2996 590 85 -1100 270/07 RMK AO2 SFC VIS 2 1/2 P0000
14840KMKG MKG20060210124013902/10/06 12:40:31  5-MIN KMKG 101740Z 27005KT 1 1/2SM -SN BR FEW006 BKN025 OVC030 M01/M03 A2996 590 85 -1100 270/05 RMK AO2 TWR VIS 2 P0000
14840KMKG MKG20060210124513902/10/06 12:45:31  5-MIN KMKG 101745Z 27006KT 1 1/4SM -SN BR FEW006 BKN024 OVC028 M01/M03 A2996 590 85 -1100 270/06 RMK AO2 TWR VIS 2 P0000
14840KMKG MKG20060210125018002/10/06 12:50:31  5-MIN KMKG 101750Z 27005KT 1 1/4SM -SN BR FEW006 BKN024 OVC028 M01/M03 A2996 590 85 -1100 270/05 RMK AO2 TWR VIS 2 SLP153 P0000 60003 T10111033 11011 21017 51007
14840KMKG MKG20060210125518202/10/06 12:55:31  5-MIN KMKG 101755Z 26005KT 1SM -SN BR FEW006 BKN022 OVC028 M01/M03 A2996 590 85 -1100 260/05 RMK AO2 TWR VIS 2 SLP153 P0000 60003 4/003 T10111033 11011 21017 50004
14840KMKG MKG20060210130013502/10/06 13:00:31  5-MIN KMKG 101800Z 28004KT 1SM -SN BR FEW006 SCT010 OVC026 M01/M03 A2996 590 88 -1100 280/04 RMK AO2 TWR VIS 2 P0000
14840KMKG MKG20060210130513502/10/06 13:05:31  5-MIN KMKG 101805Z 27003KT 1SM -SN BR FEW006 BKN023 OVC028 M01/M03 A2996 590 88 -1100 270/03 RMK AO2 TWR VIS 2 P0000
14840KMKG MKG20060210131013902/10/06 13:10:31  5-MIN KMKG 101810Z 27004KT 1 1/2SM -SN BR SCT008 BKN012 OVC026 M01/M03 A2996 590 88 -1100 280/04 RMK AO2 TWR VIS 2 P0000
14840KMKG MKG20060210131512502/10/06 13:15:31  5-MIN KMKG 101815Z 27005KT 2SM -SN BR SCT008 BKN014 OVC026 M01/M03 A2996 590 88 -1100 280/05 RMK AO2 P0000
14840KMKG MKG20060210132013902/10/06 13:20:31  5-MIN KMKG 101820Z 27004KT 2SM -SN BR SCT008 BKN014 OVC026 M01/M03 A2996 590 88 -1100 270/04 RMK AO2 SFC VIS 2 1/2 P0000
14840KMKG MKG20060210132513502/10/06 13:25:31  5-MIN KMKG 101825Z 28004KT 2SM -SN BR SCT008 BKN014 OVC026 M01/M03 A2996 590 88 -1100 290/04 RMK AO2 SFC VIS 3 P0001
14840KMKG MKG20060210133013502/10/06 13:30:31  5-MIN KMKG 101830Z 28005KT 3SM -SN BR BKN008 BKN014 OVC030 M01/M03 A2996 590 88 -1100 280/05 RMK AO2 SFC VIS 3 P0001
14840KMKG MKG20060210133513502/10/06 13:35:31  5-MIN KMKG 101835Z 28004KT 3SM -SN BR BKN008 BKN016 OVC030 M01/M03 A2996 590 88 -1100 290/04 RMK AO2 SFC VIS 3 P0001
14840KMKG MKG20060210134013502/10/06 13:40:31  5-MIN KMKG 101840Z 27004KT 3SM -SN BR SCT008 BKN013 OVC030 M01/M03 A2996 600 88 -1100 280/04 RMK AO2 SFC VIS 4 P0001
14840KMKG MKG20060210134513502/10/06 13:45:31  5-MIN KMKG 101845Z 29006KT 3SM -SN BR SCT008 BKN013 OVC028 M01/M03 A2996 600 88 -1100 300/06 RMK AO2 SFC VIS 4 P0001
14840KMKG MKG20060210135015202/10/06 13:50:31  5-MIN KMKG 101850Z 28005KT 3SM -SN BR SCT008 BKN013 OVC028 M01/M03 A2996 600 88 -1100 280/05 RMK AO2 SFC VIS 5 SLP151 P0001 T10111028
14840KMKG MKG20060210135515202/10/06 13:55:31  5-MIN KMKG 101855Z 27004KT 3SM -SN BR FEW008 BKN013 OVC028 M01/M03 A2996 600 88 -1100 280/04 RMK AO2 SFC VIS 4 SLP151 P0001 T10111028
14840KMKG MKG20060210140013502/10/06 14:00:31  5-MIN KMKG 101900Z 28005KT 3SM -SN BR FEW009 BKN019 OVC026 M01/M03 A2996 600 85 -1100 290/05 RMK AO2 SFC VIS 4 P0000
14840KMKG MKG20060210140514702/10/06 14:05:31  5-MIN KMKG 101905Z 27006KT 3SM -SN FEW011 BKN019 OVC026 M01/M03 A2995 600 81 -1100 270/06 RMK AO2 SFC VIS 5 CIG 013 RWY 14 P0000
14840KMKG MKG20060210141013202/10/06 14:10:31  5-MIN KMKG 101910Z 29005KT 3SM -SN FEW011 BKN017 OVC026 M01/M03 A2996 600 81 -1100 290/05 RMK AO2 SFC VIS 5 P0000
14840KMKG MKG20060210141513202/10/06 14:15:31  5-MIN KMKG 101915Z 28004KT 3SM -SN FEW011 SCT017 OVC026 M01/M03 A2996 600 81 -1100 290/04 RMK AO2 SFC VIS 6 P0000
14840KMKG MKG20060210142013202/10/06 14:20:31  5-MIN KMKG 101920Z 28006KT 3SM -SN FEW011 SCT017 OVC026 M01/M03 A2995 600 81 -1100 290/06 RMK AO2 SFC VIS 7 P0000
14840KMKG MKG20060210142512502/10/06 14:25:31  5-MIN KMKG 101925Z 28006KT 3SM -SN FEW017 OVC024 M01/M04 A2995 600 78 -1100 290/06 RMK AO2 SFC VIS 8 P0000
14840KMKG MKG20060210143012502/10/06 14:30:31  5-MIN KMKG 101930Z 28005KT 3SM -SN FEW017 OVC024 M01/M04 A2996 600 78 -1100 280/05 RMK AO2 SFC VIS 8 P0000
14840KMKG MKG20060210143511802/10/06 14:35:31  5-MIN KMKG 101935Z 28005KT 3SM -SN OVC024 M01/M03 A2995 600 81 -1100 280/05 RMK AO2 SFC VIS 9 P0000
14840KMKG MKG20060210144011502/10/06 14:40:31  5-MIN KMKG 101940Z 30006KT 9SM -SN FEW017 OVC024 M01/M04 A2995 600 78 -1100 300/06 RMK AO2 P0000
14840KMKG MKG20060210144511502/10/06 14:45:31  5-MIN KMKG 101945Z 30005KT 9SM -SN SCT017 OVC024 M01/M04 A2995 600 78 -1100 300/05 RMK AO2 P0000
14840KMKG MKG20060210145013202/10/06 14:50:31  5-MIN KMKG 101950Z 29006KT 9SM -SN FEW017 OVC024 M01/M03 A2996 600 81 -1100 290/06 RMK AO2 SLP152 P0000 T10061033
14840KMKG MKG20060210145513202/10/06 14:55:31  5-MIN KMKG 101955Z 29005KT 9SM -SN SCT017 OVC024 M01/M03 A2996 600 81 -1100 300/05 RMK AO2 SLP153 P0000 T10061033
14840KMKG MKG20060210150011502/10/06 15:00:31  5-MIN KMKG 102000Z 28005KT 9SM -SN SCT017 OVC024 M01/M03 A2996 600 81 -1100 290/05 RMK AO2 P0000
14840KMKG MKG20060210150511502/10/06 15:05:31  5-MIN KMKG 102005Z 27004KT 9SM -SN SCT017 OVC024 M01/M04 A2996 600 78 -1100 280/04 RMK AO2 P0000
14840KMKG MKG20060210151010802/10/06 15:10:31  5-MIN KMKG 102010Z 29005KT 9SM -SN OVC021 M01/M04 A2996 600 78 -1100 300/05 RMK AO2 P0000
14840KMKG MKG20060210151510802/10/06 15:15:31  5-MIN KMKG 102015Z 28005KT 9SM -SN OVC021 M01/M04 A2996 600 78 -1100 290/05 RMK AO2 P0000
14840KMKG MKG20060210152011502/10/06 15:20:31  5-MIN KMKG 102020Z 28004KT 8SM -SN BKN019 OVC024 M01/M04 A2996 600 78 -1100 290/04 RMK AO2 P0000
14840KMKG MKG20060210152511502/10/06 15:25:31  5-MIN KMKG 102025Z 29004KT 9SM -SN BKN017 OVC022 M01/M04 A2996 590 78 -1100 290/04 RMK AO2 P0000
14840KMKG MKG20060210153010802/10/06 15:30:31  5-MIN KMKG 102030Z 30005KT 9SM -SN OVC019 M01/M04 A2996 590 78 -1100 300/05 RMK AO2 P0000
14840KMKG MKG20060210153510802/10/06 15:35:31  5-MIN KMKG 102035Z 28004KT 8SM -SN OVC019 M01/M03 A2996 590 81 -1100 280/04 RMK AO2 P0000
14840KMKG MKG20060210154010802/10/06 15:40:31  5-MIN KMKG 102040Z 29005KT 8SM -SN OVC019 M01/M04 A2997 590 78 -1100 300/05 RMK AO2 P0000
14840KMKG MKG20060210154510802/10/06 15:45:31  5-MIN KMKG 102045Z 31004KT 9SM -SN OVC019 M01/M04 A2997 590 78 -1100 310/04 RMK AO2 P0000
14840KMKG MKG20060210155013702/10/06 15:50:31  5-MIN KMKG 102050Z 31005KT 9SM -SN OVC019 M01/M04 A2997 590 78 -1100 310/05 RMK AO2 SLP157 P0000 60001 T10061039 50004
14840KMKG MKG20060210155513702/10/06 15:55:31  5-MIN KMKG 102055Z 30006KT 9SM -SN OVC019 M01/M04 A2997 580 78 -1100 310/06 RMK AO2 SLP157 P0000 60001 T10061039 53003
14840KMKG MKG20060210160010802/10/06 16:00:31  5-MIN KMKG 102100Z 31004KT 9SM -SN OVC021 M01/M04 A2997 580 78 -1100 310/04 RMK AO2 P0000
14840KMKG MKG20060210160511502/10/06 16:05:31  5-MIN KMKG 102105Z 32003KT 9SM -SN BKN019 OVC024 M01/M04 A2997 580 78 -1100 330/03 RMK AO2 P0000
14840KMKG MKG20060210161011502/10/06 16:10:31  5-MIN KMKG 102110Z 33005KT 8SM -SN BKN019 OVC024 M01/M03 A2998 580 81 -1100 330/05 RMK AO2 P0000
14840KMKG MKG20060210161510802/10/06 16:15:31  5-MIN KMKG 102115Z 31004KT 8SM -SN OVC019 M01/M04 A2998 580 78 -1100 320/04 RMK AO2 P0000
14840KMKG MKG20060210162010802/10/06 16:20:31  5-MIN KMKG 102120Z 31004KT 8SM -SN OVC019 M01/M04 A2998 570 78 -1100 310/04 RMK AO2 P0000
14840KMKG MKG20060210162510802/10/06 16:25:31  5-MIN KMKG 102125Z 32005KT 9SM -SN OVC019 M01/M04 A2998 570 78 -1100 320/05 RMK AO2 P0000
14840KMKG MKG20060210163010802/10/06 16:30:31  5-MIN KMKG 102130Z 31004KT 9SM -SN OVC017 M01/M04 A2999 570 78 -1100 320/04 RMK AO2 P0000
14840KMKG MKG20060210163510802/10/06 16:35:31  5-MIN KMKG 102135Z 31004KT 8SM -SN OVC017 M01/M04 A2999 570 78 -1100 320/04 RMK AO2 P0000
14840KMKG MKG20060210164010802/10/06 16:40:31  5-MIN KMKG 102140Z 31004KT 8SM -SN OVC017 M01/M04 A2999 570 78 -1100 320/04 RMK AO2 P0000
14840KMKG MKG20060210164511502/10/06 16:45:31  5-MIN KMKG 102145Z 33004KT 8SM -SN BKN017 OVC023 M01/M04 A2999 570 78 -1100 330/04 RMK AO2 P0000
14840KMKG MKG20060210165012502/10/06 16:50:31  5-MIN KMKG 102150Z 34006KT 7SM -SN OVC019 M01/M04 A2999 570 78 -1100 350/06 RMK AO2 SLP164 P0000 T10061039
14840KMKG MKG20060210165513202/10/06 16:55:31  5-MIN KMKG 102155Z 33006KT 7SM -SN BKN017 OVC022 M01/M03 A2999 560 81 -1100 340/06 RMK AO2 SLP165 P0000 T10061033
14840KMKG MKG20060210170011502/10/06 17:00:31  5-MIN KMKG 102200Z 34005KT 7SM -SN BKN017 OVC023 M01/M03 A2999 560 81 -1100 350/05 RMK AO2 P0000
14840KMKG MKG20060210170510802/10/06 17:05:31  5-MIN KMKG 102205Z 34006KT 7SM -SN OVC020 M01/M03 A2999 560 81 -1100 340/06 RMK AO2 P0000
14840KMKG MKG20060210171010802/10/06 17:10:31  5-MIN KMKG 102210Z 34005KT 7SM -SN OVC020 M01/M04 A2999 560 78 -1100 350/05 RMK AO2 P0000
14840KMKG MKG20060210171510802/10/06 17:15:31  5-MIN KMKG 102215Z 34003KT 7SM -SN OVC020 M01/M03 A3000 560 81 -1100 340/03 RMK AO2 P0000
14840KMKG MKG20060210172010802/10/06 17:20:31  5-MIN KMKG 102220Z 34006KT 7SM -SN OVC020 M01/M04 A3000 560 78 -1100 340/06 RMK AO2 P0000
14840KMKG MKG20060210172510802/10/06 17:25:31  5-MIN KMKG 102225Z 35004KT 8SM -SN OVC020 M01/M04 A3000 560 78 -1100 350/04 RMK AO2 P0000
14840KMKG MKG20060210173011502/10/06 17:30:31  5-MIN KMKG 102230Z 35005KT 8SM -SN SCT017 OVC023 M01/M04 A3000 560 78 -1100 350/05 RMK AO2 P0000
14840KMKG MKG20060210173511502/10/06 17:35:31  5-MIN KMKG 102235Z 34005KT 8SM -SN FEW017 OVC023 M01/M04 A3000 560 78 -1100 350/05 RMK AO2 P0000
14840KMKG MKG20060210174011502/10/06 17:40:31  5-MIN KMKG 102240Z 34006KT 8SM -SN FEW017 OVC025 M01/M04 A3000 550 78 -1100 340/06 RMK AO2 P0000
14840KMKG MKG20060210174511502/10/06 17:45:31  5-MIN KMKG 102245Z 34005KT 8SM -SN FEW017 OVC025 M01/M04 A3000 550 78 -1100 350/05 RMK AO2 P0000
14840KMKG MKG20060210175013202/10/06 17:50:31  5-MIN KMKG 102250Z 34005KT 8SM -SN FEW017 OVC025 M01/M04 A3001 550 78 -1100 340/05 RMK AO2 SLP169 P0000 T10061039
14840KMKG MKG20060210175512702/10/06 17:55:31  5-MIN KMKG 102255Z 33005KT 8SM OVC025 M01/M04 A3001 550 78 -1100 340/05 RMK AO2 SNE52 SLP170 P0000 T10061039
14840KMKG MKG20060210180009802/10/06 18:00:31  5-MIN KMKG 102300Z 34004KT 9SM OVC025 M01/M04 A3001 550 78 -1100 340/04 RMK AO2
14840KMKG MKG20060210180509802/10/06 18:05:31  5-MIN KMKG 102305Z 35003KT 8SM OVC027 M01/M03 A3001 550 81 -1100 350/03 RMK AO2
14840KMKG MKG20060210181010502/10/06 18:10:31  5-MIN KMKG 102310Z 36004KT 8SM BKN027 OVC033 M01/M03 A3001 550 81 -1100 360/04 RMK AO2
14840KMKG MKG20060210181510502/10/06 18:15:31  5-MIN KMKG 102315Z 34004KT 8SM BKN027 OVC032 M01/M03 A3002 540 81 -1100 340/04 RMK AO2
14840KMKG MKG20060210182011202/10/06 18:20:31  5-MIN KMKG 102320Z 36003KT 9SM FEW016 BKN027 OVC032 M01/M04 A3002 540 78 -1100 360/03 RMK AO2
14840KMKG MKG20060210182510502/10/06 18:25:31  5-MIN KMKG 102325Z 36003KT 9SM FEW016 OVC027 M01/M03 A3002 540 81 -1100 010/03 RMK AO2
14840KMKG MKG20060210183010502/10/06 18:30:31  5-MIN KMKG 102330Z 02004KT 8SM BKN027 OVC032 M01/M03 A3002 540 81 -1100 020/04 RMK AO2
14840KMKG MKG20060210183510502/10/06 18:35:31  5-MIN KMKG 102335Z 02004KT 8SM BKN027 OVC032 M01/M03 A3002 540 81 -1100 030/04 RMK AO2
14840KMKG MKG20060210184012102/10/06 18:40:31  5-MIN KMKG 102340Z 02004KT 7SM -SN BKN025 OVC032 M01/M03 A3002 530 85 -1200 030/04 RMK AO2 SNB36 P0000
14840KMKG MKG20060210184511402/10/06 18:45:31  5-MIN KMKG 102345Z 02003KT 7SM -SN OVC027 M01/M03 A3002 530 85 -1200 020/03 RMK AO2 SNB36 P0000
14840KMKG MKG20060210185015502/10/06 18:50:31  5-MIN KMKG 102350Z 03003KT 7SM -SN OVC027 M01/M03 A3003 530 85 -1200 030/03 RMK AO2 SNB36 SLP176 P0000 60001 T10111033 11006 21011 53003
14840KMKG MKG20060210185516402/10/06 18:55:31  5-MIN KMKG 102355Z 00000KT 6SM -SN BR OVC027 M01/M03 A3003 530 85 -1200 000/00 RMK AO2 SNB36 SLP177 P0000 60001 4/003 T10111033 11006 21011 51019
14840KMKG MKG20060210190011802/10/06 19:00:31  5-MIN KMKG 110000Z 03003KT 6SM -SN BR FEW024 OVC029 M01/M03 A3003 530 85 -1200 030/03 RMK AO2 P0000
14840KMKG MKG20060210190511102/10/06 19:05:31  5-MIN KMKG 110005Z 03003KT 6SM -SN BR OVC029 M01/M03 A3003 530 85 -1200 030/03 RMK AO2 P0000
14840KMKG MKG20060210191011102/10/06 19:10:31  5-MIN KMKG 110010Z 00000KT 6SM -SN BR OVC031 M01/M03 A3003 530 85 -1200 000/00 RMK AO2 P0000
14840KMKG MKG20060210191511102/10/06 19:15:31  5-MIN KMKG 110015Z 00000KT 6SM -SN BR OVC031 M01/M03 A3004 520 85 -1200 000/00 RMK AO2 P0000
14840KMKG MKG20060210192011102/10/06 19:20:31  5-MIN KMKG 110020Z 00000KT 6SM -SN BR OVC031 M01/M03 A3004 520 85 -1200 000/00 RMK AO2 P0000
14840KMKG MKG20060210192511102/10/06 19:25:31  5-MIN KMKG 110025Z 00000KT 6SM -SN BR OVC031 M01/M03 A3004 520 85 -1200 000/00 RMK AO2 P0000
14840KMKG MKG20060210193011102/10/06 19:30:31  5-MIN KMKG 110030Z 00000KT 6SM -SN BR OVC031 M01/M03 A3004 520 85 -1200 000/00 RMK AO2 P0000
14840KMKG MKG20060210193511102/10/06 19:35:31  5-MIN KMKG 110035Z 00000KT 6SM -SN BR OVC031 M01/M03 A3004 520 85 -1200 000/00 RMK AO2 P0000
14840KMKG MKG20060210194011102/10/06 19:40:31  5-MIN KMKG 110040Z 00000KT 6SM -SN BR OVC031 M01/M03 A3004 520 85 -1200 000/00 RMK AO2 P0000
14840KMKG MKG20060210194511102/10/06 19:45:31  5-MIN KMKG 110045Z 00000KT 6SM -SN BR OVC031 M01/M03 A3004 520 85 -1200 000/00 RMK AO2 P0000
14840KMKG MKG20060210195012502/10/06 19:50:31  5-MIN KMKG 110050Z 00000KT 7SM -SN OVC031 M01/M03 A3004 520 85 -1200 000/00 RMK AO2 SLP183 P0000 T10111033
14840KMKG MKG20060210195512502/10/06 19:55:31  5-MIN KMKG 110055Z 00000KT 7SM -SN OVC031 M01/M03 A3005 510 85 -1200 000/00 RMK AO2 SLP183 P0000 T10111033
14840KMKG MKG20060210200011102/10/06 20:00:31  5-MIN KMKG 110100Z 00000KT 6SM -SN BR OVC029 M01/M03 A3005 510 85 -1200 000/00 RMK AO2 P0000
14840KMKG MKG20060210200511102/10/06 20:05:31  5-MIN KMKG 110105Z 00000KT 6SM -SN BR OVC029 M01/M03 A3005 510 85 -1200 000/00 RMK AO2 P0000
14840KMKG MKG20060210201011102/10/06 20:10:31  5-MIN KMKG 110110Z 00000KT 6SM -SN BR OVC029 M01/M03 A3005 510 85 -1200 000/00 RMK AO2 P0000
14840KMKG MKG20060210201511802/10/06 20:15:31  5-MIN KMKG 110115Z 00000KT 6SM -SN BR BKN029 OVC036 M01/M03 A3005 510 85 -1200 000/00 RMK AO2 P0000
14840KMKG MKG20060210202011802/10/06 20:20:31  5-MIN KMKG 110120Z 00000KT 6SM -SN BR BKN027 OVC036 M01/M03 A3005 510 85 -1200 000/00 RMK AO2 P0000
14840KMKG MKG20060210202511802/10/06 20:25:31  5-MIN KMKG 110125Z 00000KT 6SM -SN BR SCT027 OVC034 M01/M03 A3005 510 85 -1300 000/00 RMK AO2 P0000
14840KMKG MKG20060210203011802/10/06 20:30:31  5-MIN KMKG 110130Z 00000KT 6SM -SN BR FEW027 OVC034 M01/M03 A3005 510 85 -1300 000/00 RMK AO2 P0000
14840KMKG MKG20060210203511802/10/06 20:35:31  5-MIN KMKG 110135Z 00000KT 6SM -SN BR FEW027 OVC034 M01/M03 A3005 510 85 -1300 000/00 RMK AO2 P0000
14840KMKG MKG20060210204010802/10/06 20:40:31  5-MIN KMKG 110140Z 00000KT 7SM -SN OVC032 M01/M03 A3005 510 85 -1300 000/00 RMK AO2 P0000
14840KMKG MKG20060210204510802/10/06 20:45:31  5-MIN KMKG 110145Z 36003KT 7SM -SN OVC032 M01/M04 A3005 510 81 -1300 360/03 RMK AO2 P0000
14840KMKG MKG20060210205012502/10/06 20:50:31  5-MIN KMKG 110150Z 35003KT 7SM -SN OVC032 M01/M04 A3005 510 81 -1300 360/03 RMK AO2 SLP185 P0000 T10111039
14840KMKG MKG20060210205512702/10/06 20:55:31  5-MIN KMKG 110155Z 36003KT 7SM OVC032 M01/M04 A3005 510 81 -1300 360/03 RMK AO2 SNE52 SLP186 P0000 T10111039
14840KMKG MKG20060210210009802/10/06 21:00:31  5-MIN KMKG 110200Z 36004KT 7SM OVC032 M01/M04 A3005 510 81 -1300 010/04 RMK AO2
14840KMKG MKG20060210210509802/10/06 21:05:31  5-MIN KMKG 110205Z 01003KT 7SM OVC032 M01/M04 A3006 510 81 -1300 010/03 RMK AO2
14840KMKG MKG20060210211009802/10/06 21:10:31  5-MIN KMKG 110210Z 00000KT 7SM OVC034 M01/M04 A3006 500 81 -1300 000/00 RMK AO2
14840KMKG MKG20060210211509802/10/06 21:15:31  5-MIN KMKG 110215Z 00000KT 7SM OVC034 M01/M04 A3006 500 81 -1300 000/00 RMK AO2
14840KMKG MKG20060210212011402/10/06 21:20:31  5-MIN KMKG 110220Z 00000KT 6SM -SN OVC034 M01/M04 A3006 500 81 -1300 000/00 RMK AO2 SNB16 P0000
14840KMKG MKG20060210212511702/10/06 21:25:31  5-MIN KMKG 110225Z 00000KT 6SM -SN BR OVC034 M02/M04 A3006 500 85 -1300 000/00 RMK AO2 SNB16 P0000
14840KMKG MKG20060210213011402/10/06 21:30:31  5-MIN KMKG 110230Z 00000KT 6SM -SN OVC034 M01/M04 A3006 500 81 -1300 000/00 RMK AO2 SNB16 P0000
14840KMKG MKG20060210213511402/10/06 21:35:31  5-MIN KMKG 110235Z 00000KT 6SM -SN OVC034 M01/M04 A3007 500 81 -1300 000/00 RMK AO2 SNB16 P0000
14840KMKG MKG20060210214011702/10/06 21:40:31  5-MIN KMKG 110240Z 03003KT 6SM -SN BR OVC032 M02/M04 A3007 490 85 -1300 030/03 RMK AO2 SNB16 P0000
14840KMKG MKG20060210214511402/10/06 21:45:31  5-MIN KMKG 110245Z 03003KT 6SM -SN OVC032 M01/M04 A3007 490 81 -1300 040/03 RMK AO2 SNB16 P0000
14840KMKG MKG20060210215014302/10/06 21:50:31  5-MIN KMKG 110250Z 04003KT 6SM -SN OVC032 M01/M04 A3007 490 81 -1300 040/03 RMK AO2 SNB16 SLP191 P0000 60000 T10111039 51019
14840KMKG MKG20060210215514302/10/06 21:55:31  5-MIN KMKG 110255Z 03003KT 6SM -SN OVC034 M01/M04 A3007 490 81 -1300 040/03 RMK AO2 SNB16 SLP191 P0000 60000 T10111039 51014
14840KMKG MKG20060210220010802/10/06 22:00:31  5-MIN KMKG 110300Z 02004KT 6SM -SN OVC036 M01/M04 A3007 490 81 -1300 030/04 RMK AO2 P0000
14840KMKG MKG20060210220510802/10/06 22:05:31  5-MIN KMKG 110305Z 02004KT 6SM -SN OVC036 M01/M04 A3007 490 81 -1300 030/04 RMK AO2 P0000
14840KMKG MKG20060210221011102/10/06 22:10:31  5-MIN KMKG 110310Z 02004KT 6SM -SN BR OVC036 M02/M03 A3007 490 88 -1300 020/04 RMK AO2 P0000
14840KMKG MKG20060210221511102/10/06 22:15:31  5-MIN KMKG 110315Z 02004KT 6SM -SN BR OVC036 M02/M03 A3007 490 88 -1300 020/04 RMK AO2 P0000
14840KMKG MKG20060210222011802/10/06 22:20:31  5-MIN KMKG 110320Z 02004KT 6SM -SN BR BKN036 OVC075 M02/M03 A3007 490 88 -1300 020/04 RMK AO2 P0000
14840KMKG MKG20060210222511802/10/06 22:25:31  5-MIN KMKG 110325Z 03004KT 6SM -SN BR BKN036 OVC075 M02/M03 A3007 490 88 -1300 030/04 RMK AO2 P0000
14840KMKG MKG20060210223011802/10/06 22:30:31  5-MIN KMKG 110330Z 02005KT 6SM -SN BR BKN036 OVC075 M02/M03 A3007 490 88 -1300 030/05 RMK AO2 P0000
14840KMKG MKG20060210223512502/10/06 22:35:31  5-MIN KMKG 110335Z 03005KT 6SM -SN BR SCT036 SCT055 OVC075 M02/M03 A3008 490 88 -1300 030/05 RMK AO2 P0000
14840KMKG MKG20060210224012502/10/06 22:40:31  5-MIN KMKG 110340Z 02004KT 6SM -SN BR FEW036 SCT055 OVC080 M02/M04 A3008 490 85 -1300 030/04 RMK AO2 P0000
14840KMKG MKG20060210224514002/10/06 22:45:31  5-MIN KMKG 110345Z 03004KT 6SM -SN BR FEW024 SCT037 OVC080 M02/M03 A3008 490 88 -1300 030/04 RMK AO2 CIG 065 RWY 14 P0000
14840KMKG MKG20060210225015702/10/06 22:50:31  5-MIN KMKG 110350Z 03004KT 3SM -SN BR SCT016 BKN050 OVC080 M02/M03 A3008 490 88 -1400 030/04 RMK AO2 CIG 034 RWY 14 SLP193 P0000 T10171033
14840KMKG MKG20060210225514602/10/06 22:55:31  5-MIN KMKG 110355Z 02005KT 2 1/2SM -SN BR SCT016 BKN041 OVC080 M02/M03 A3008 480 88 -1400 020/05 RMK AO2 SLP194 P0000 T10171033
14840KMKG MKG20060210230012502/10/06 23:00:31  5-MIN KMKG 110400Z 01004KT 4SM -SN BR SCT021 BKN041 OVC080 M02/M04 A3008 480 85 -1400 020/04 RMK AO2 P0000
14840KMKG MKG20060210230512502/10/06 23:05:31  5-MIN KMKG 110405Z 03005KT 6SM -SN BR SCT030 BKN050 OVC080 M02/M04 A3008 480 85 -1400 040/05 RMK AO2 P0000
14840KMKG MKG20060210231012502/10/06 23:10:31  5-MIN KMKG 110410Z 02004KT 4SM -SN BR SCT030 BKN046 OVC085 M02/M04 A3008 480 85 -1400 030/04 RMK AO2 P0000
14840KMKG MKG20060210231512502/10/06 23:15:31  5-MIN KMKG 110415Z 02004KT 3SM -SN BR SCT023 BKN040 OVC085 M02/M04 A3008 480 85 -1400 030/04 RMK AO2 P0000
14840KMKG MKG20060210232012502/10/06 23:20:31  5-MIN KMKG 110420Z 02005KT 3SM -SN BR SCT030 BKN040 OVC085 M02/M04 A3008 480 85 -1400 030/05 RMK AO2 P0000
14840KMKG MKG20060210232512502/10/06 23:25:31  5-MIN KMKG 110425Z 01005KT 5SM -SN BR BKN034 BKN050 OVC065 M02/M04 A3008 480 85 -1400 020/05 RMK AO2 P0000
14840KMKG MKG20060210233012202/10/06 23:30:31  5-MIN KMKG 110430Z 02005KT 7SM -SN SCT034 BKN040 OVC075 M02/M04 A3008 480 85 -1400 020/05 RMK AO2 P0000
14840KMKG MKG20060210233512202/10/06 23:35:31  5-MIN KMKG 110435Z 02004KT 7SM -SN SCT032 BKN040 OVC075 M02/M04 A3008 480 88 -1400 030/04 RMK AO2 P0000
14840KMKG MKG20060210234012502/10/06 23:40:31  5-MIN KMKG 110440Z 02004KT 6SM -SN BR SCT030 BKN040 OVC075 M02/M04 A3008 480 88 -1400 030/04 RMK AO2 P0000
14840KMKG MKG20060210234512502/10/06 23:45:31  5-MIN KMKG 110445Z 02004KT 6SM -SN BR SCT035 BKN060 OVC075 M02/M04 A3008 480 88 -1400 030/04 RMK AO2 P0000
14840KMKG MKG20060210235015202/10/06 23:50:31  5-MIN KMKG 110450Z 02004KT 6SM -SN BR FEW037 BKN060 OVC075 M02/M04 A3008 480 88 -1400 020/04 RMK AO2 SLP196 P0000 T10221039 400001028
14840KMKG MKG20060210235515202/10/06 23:55:31  5-MIN KMKG 110455Z 02004KT 5SM -SN BR FEW032 BKN065 OVC075 M02/M04 A3008 480 88 -1400 020/04 RMK AO2 SLP196 P0000 T10221039 400001028
14840KMKG MKG20060211000011802/11/06 00:00:32  5-MIN KMKG 110500Z 01003KT 4SM -SN BR FEW030 OVC065 M02/M04 A3008 480 88 -1400 010/03 RMK AO2 P0000
14840KMKG MKG20060211000512502/11/06 00:05:31  5-MIN KMKG 110505Z 36003KT 4SM -SN BR FEW034 BKN065 OVC075 M02/M04 A3008 480 88 -1400 010/03 RMK AO2 P0000
14840KMKG MKG20060211001011802/11/06 00:10:31  5-MIN KMKG 110510Z 36003KT 4SM -SN BR FEW037 OVC070 M02/M04 A3008 480 88 -1400 360/03 RMK AO2 P0000
14840KMKG MKG20060211001512902/11/06 00:15:31  5-MIN KMKG 110515Z 36003KT 2 1/2SM -SN BR FEW029 BKN065 OVC080 M02/M04 A3008 480 88 -1400 010/03 RMK AO2 P0000
14840KMKG MKG20060211002011802/11/06 00:20:31  5-MIN KMKG 110520Z 01003KT 2SM -SN BR FEW036 OVC065 M02/M04 A3008 480 88 -1400 010/03 RMK AO2 P0000
14840KMKG MKG20060211002512202/11/06 00:25:31  5-MIN KMKG 110525Z 01004KT 2 1/2SM -SN BR FEW038 OVC065 M02/M04 A3008 480 88 -1400 010/04 RMK AO2 P0000
14840KMKG MKG20060211003012902/11/06 00:30:31  5-MIN KMKG 110530Z 01004KT 2 1/2SM -SN BR FEW036 BKN060 OVC070 M02/M04 A3008 480 88 -1400 020/04 RMK AO2 P0000
14840KMKG MKG20060211003511802/11/06 00:35:31  5-MIN KMKG 110535Z 01004KT 4SM -SN BR FEW036 OVC065 M02/M04 A3008 480 88 -1400 010/04 RMK AO2 P0000
14840KMKG MKG20060211004012502/11/06 00:40:31  5-MIN KMKG 110540Z 36004KT 5SM -SN BR FEW036 BKN065 OVC085 M03/M04 A3008 480 92 -1500 010/04 RMK AO2 P0000
14840KMKG MKG20060211004512502/11/06 00:45:31  5-MIN KMKG 110545Z 01005KT 5SM -SN BR FEW039 BKN065 OVC080 M03/M04 A3008 480 92 -1500 010/05 RMK AO2 P0000
14840KMKG MKG20060211005015402/11/06 00:50:31  5-MIN KMKG 110550Z 01005KT 5SM -SN BR FEW055 SCT065 OVC080 M03/M04 A3008 480 92 -1500 010/05 RMK AO2 SLP195 T10281039 11011 21028 51014
14840KMKG MKG20060211005516502/11/06 00:55:31  5-MIN KMKG 110555Z 01005KT 5SM -SN BR SCT065 OVC080 M03/M04 A3008 480 92 -1500 010/05 RMK AO2 SLP195 P0000 60000 4/003 T10281039 11011 21028 50004
14840KMKG MKG20060211010011802/11/06 01:00:31  5-MIN KMKG 110600Z 36005KT 5SM -SN BR SCT065 OVC080 M03/M04 A3008 480 88 -1500 010/05 RMK AO2 P0000
14840KMKG MKG20060211010511802/11/06 01:05:31  5-MIN KMKG 110605Z 36005KT 6SM -SN BR SCT065 OVC085 M03/M04 A3008 480 88 -1500 010/05 RMK AO2 P0000
14840KMKG MKG20060211011011802/11/06 01:10:31  5-MIN KMKG 110610Z 36005KT 6SM -SN BR SCT065 OVC085 M03/M04 A3008 480 88 -1500 360/05 RMK AO2 P0000
14840KMKG MKG20060211011512002/11/06 01:15:31  5-MIN KMKG 110615Z 36005KT 6SM BR FEW070 OVC085 M03/M04 A3008 480 88 -1500 010/05 RMK AO2 SNE14 P0000
14840KMKG MKG20060211012012002/11/06 01:20:31  5-MIN KMKG 110620Z 36005KT 6SM BR FEW070 OVC085 M03/M04 A3008 480 88 -1500 010/05 RMK AO2 SNE14 P0000
14840KMKG MKG20060211012511702/11/06 01:25:31  5-MIN KMKG 110625Z 01005KT 7SM FEW070 OVC085 M03/M04 A3008 480 88 -1500 010/05 RMK AO2 SNE14 P0000
14840KMKG MKG20060211013011702/11/06 01:30:31  5-MIN KMKG 110630Z 02005KT 7SM SCT070 OVC085 M03/M04 A3008 480 88 -1500 020/05 RMK AO2 SNE14 P0000
14840KMKG MKG20060211013511702/11/06 01:35:31  5-MIN KMKG 110635Z 02005KT 7SM BKN070 OVC085 M03/M04 A3008 480 88 -1500 030/05 RMK AO2 SNE14 P0000
14840KMKG MKG20060211014011702/11/06 01:40:31  5-MIN KMKG 110640Z 02006KT 7SM BKN070 OVC085 M03/M04 A3008 480 88 -1500 020/06 RMK AO2 SNE14 P0000
14840KMKG MKG20060211014511702/11/06 01:45:31  5-MIN KMKG 110645Z 01006KT 7SM BKN070 OVC085 M03/M04 A3008 480 88 -1500 020/06 RMK AO2 SNE14 P0000
14840KMKG MKG20060211015013402/11/06 01:50:31  5-MIN KMKG 110650Z 02005KT 7SM BKN070 OVC085 M03/M05 A3008 480 85 -1500 020/05 RMK AO2 SNE14 SLP195 P0000 T10281050
14840KMKG MKG20060211015512702/11/06 01:55:31  5-MIN KMKG 110655Z 01005KT 7SM OVC075 M03/M05 A3008 480 85 -1500 020/05 RMK AO2 SNE14 SLP195 P0000 T10281050
14840KMKG MKG20060211020009802/11/06 02:00:31  5-MIN KMKG 110700Z 01005KT 7SM OVC080 M03/M05 A3008 480 88 -1600 010/05 RMK AO2
14840KMKG MKG20060211020509802/11/06 02:05:31  5-MIN KMKG 110705Z 01004KT 7SM OVC080 M03/M04 A3008 480 88 -1500 010/04 RMK AO2
14840KMKG MKG20060211021009802/11/06 02:10:31  5-MIN KMKG 110710Z 01003KT 7SM OVC080 M03/M05 A3008 480 88 -1600 010/03 RMK AO2
14840KMKG MKG20060211021509802/11/06 02:15:31  5-MIN KMKG 110715Z 01003KT 7SM OVC080 M03/M04 A3008 480 88 -1500 020/03 RMK AO2
14840KMKG MKG20060211022009802/11/06 02:20:31  5-MIN KMKG 110720Z 01003KT 7SM OVC080 M03/M04 A3008 480 88 -1500 020/03 RMK AO2
14840KMKG MKG20060211022509802/11/06 02:25:31  5-MIN KMKG 110725Z 02003KT 7SM OVC085 M03/M04 A3008 480 92 -1600 020/03 RMK AO2
14840KMKG MKG20060211023009802/11/06 02:30:31  5-MIN KMKG 110730Z 02004KT 7SM OVC085 M03/M04 A3009 480 92 -1600 020/04 RMK AO2
14840KMKG MKG20060211023509802/11/06 02:35:31  5-MIN KMKG 110735Z 02003KT 7SM OVC085 M03/M04 A3008 480 92 -1600 030/03 RMK AO2
14840KMKG MKG20060211024009802/11/06 02:40:31  5-MIN KMKG 110740Z 02003KT 7SM OVC085 M03/M05 A3008 480 85 -1500 030/03 RMK AO2
14840KMKG MKG20060211024509802/11/06 02:45:31  5-MIN KMKG 110745Z 02004KT 7SM OVC085 M03/M05 A3008 480 85 -1500 020/04 RMK AO2
14840KMKG MKG20060211025011502/11/06 02:50:31  5-MIN KMKG 110750Z 02004KT 8SM OVC085 M03/M05 A3008 480 88 -1600 020/04 RMK AO2 SLP196 T10331050
14840KMKG MKG20060211025511502/11/06 02:55:31  5-MIN KMKG 110755Z 02005KT 8SM OVC085 M03/M05 A3008 480 88 -1600 020/05 RMK AO2 SLP196 T10331050
14840KMKG MKG20060211030009802/11/06 03:00:31  5-MIN KMKG 110800Z 02005KT 8SM OVC085 M03/M05 A3008 480 88 -1600 030/05 RMK AO2
14840KMKG MKG20060211030509802/11/06 03:05:31  5-MIN KMKG 110805Z 02004KT 8SM OVC080 M03/M05 A3008 480 88 -1600 030/04 RMK AO2
14840KMKG MKG20060211031009802/11/06 03:10:31  5-MIN KMKG 110810Z 02005KT 8SM OVC080 M03/M05 A3008 480 88 -1600 030/05 RMK AO2
14840KMKG MKG20060211031509802/11/06 03:15:31  5-MIN KMKG 110815Z 02004KT 8SM OVC080 M03/M05 A3008 480 88 -1600 030/04 RMK AO2
14840KMKG MKG20060211032009802/11/06 03:20:31  5-MIN KMKG 110820Z 02004KT 8SM OVC080 M03/M05 A3008 480 88 -1600 030/04 RMK AO2
14840KMKG MKG20060211032509802/11/06 03:25:31  5-MIN KMKG 110825Z 03005KT 8SM OVC080 M03/M05 A3008 490 88 -1600 030/05 RMK AO2
14840KMKG MKG20060211033009802/11/06 03:30:31  5-MIN KMKG 110830Z 04005KT 8SM OVC080 M03/M05 A3008 490 88 -1600 040/05 RMK AO2
14840KMKG MKG20060211033509802/11/06 03:35:31  5-MIN KMKG 110835Z 04005KT 8SM OVC080 M03/M05 A3007 490 85 -1500 040/05 RMK AO2
14840KMKG MKG20060211034009802/11/06 03:40:31  5-MIN KMKG 110840Z 04004KT 7SM OVC080 M03/M05 A3007 490 88 -1600 050/04 RMK AO2
14840KMKG MKG20060211034509802/11/06 03:45:31  5-MIN KMKG 110845Z 04005KT 7SM OVC080 M03/M05 A3007 490 88 -1600 040/05 RMK AO2
14840KMKG MKG20060211035012702/11/06 03:50:31  5-MIN KMKG 110850Z 03004KT 7SM OVC080 M03/M05 A3007 490 88 -1600 040/04 RMK AO2 SLP190 60000 T10331050 50004
14840KMKG MKG20060211035512702/11/06 03:55:31  5-MIN KMKG 110855Z 05004KT 7SM OVC080 M03/M05 A3007 500 88 -1600 050/04 RMK AO2 SLP190 60000 T10331050 58005
14840KMKG MKG20060211040009802/11/06 04:00:31  5-MIN KMKG 110900Z 05004KT 7SM OVC080 M03/M05 A3007 500 88 -1500 050/04 RMK AO2
14840KMKG MKG20060211040509802/11/06 04:05:31  5-MIN KMKG 110905Z 05005KT 7SM OVC080 M03/M05 A3007 500 88 -1600 050/05 RMK AO2
14840KMKG MKG20060211041009802/11/06 04:10:31  5-MIN KMKG 110910Z 05006KT 7SM OVC080 M03/M05 A3007 500 88 -1500 050/06 RMK AO2
14840KMKG MKG20060211041510502/11/06 04:15:31  5-MIN KMKG 110915Z 05005KT 7SM FEW007 OVC080 M03/M05 A3007 500 88 -1500 050/05 RMK AO2
14840KMKG MKG20060211042010502/11/06 04:20:31  5-MIN KMKG 110920Z 06006KT 7SM FEW007 OVC080 M03/M05 A3006 500 88 -1500 060/06 RMK AO2
14840KMKG MKG20060211042510502/11/06 04:25:31  5-MIN KMKG 110925Z 06005KT 7SM FEW007 OVC080 M03/M05 A3006 500 88 -1500 060/05 RMK AO2
14840KMKG MKG20060211043010502/11/06 04:30:31  5-MIN KMKG 110930Z 05006KT 7SM FEW007 OVC080 M04/M05 A3006 500 92 -1600 060/06 RMK AO2
14840KMKG MKG20060211043510802/11/06 04:35:31  5-MIN KMKG 110935Z 05006KT 6SM BR FEW007 OVC080 M04/M05 A3006 500 92 -1600 050/06 RMK AO2
14840KMKG MKG20060211044010802/11/06 04:40:31  5-MIN KMKG 110940Z 05006KT 6SM BR FEW007 OVC080 M04/M05 A3006 500 92 -1600 060/06 RMK AO2
14840KMKG MKG20060211044510802/11/06 04:45:31  5-MIN KMKG 110945Z 05007KT 6SM BR FEW005 OVC080 M04/M05 A3006 500 92 -1600 050/07 RMK AO2
14840KMKG MKG20060211045012502/11/06 04:50:31  5-MIN KMKG 110950Z 05006KT 5SM BR FEW005 OVC080 M04/M05 A3006 500 92 -1600 050/06 RMK AO2 SLP188 T10391050
14840KMKG MKG20060211045512502/11/06 04:55:31  5-MIN KMKG 110955Z 04007KT 5SM BR FEW005 OVC080 M04/M05 A3006 500 92 -1600 050/07 RMK AO2 SLP189 T10391050
14840KMKG MKG20060211050012302/11/06 05:00:31  5-MIN KMKG 111000Z 06008KT 5SM BR SCT005 OVC080 M04/M05 A3007 500 92 -1600 060/08 RMK AO2 CIG 005 RWY 14
14840KMKG MKG20060211050510802/11/06 05:05:31  5-MIN KMKG 111005Z 06010KT 4SM BR BKN005 OVC080 M04/M05 A3007 500 96 -1700 070/10 RMK AO2
14840KMKG MKG20060211051010802/11/06 05:10:31  5-MIN KMKG 111010Z 07007KT 4SM BR BKN003 OVC080 M04/M05 A3007 500 92 -1600 070/07 RMK AO2
14840KMKG MKG20060211051510802/11/06 05:15:31  5-MIN KMKG 111015Z 06008KT 3SM BR BKN003 OVC080 M04/M05 A3007 500 92 -1600 070/08 RMK AO2
14840KMKG MKG20060211052011802/11/06 05:20:31  5-MIN KMKG 111020Z 07009KT 3SM BR OVC003 M04/M05 A3007 490 92 -1600 070/09 RMK AO2 VIS 2 1/2 RWY 14
14840KMKG MKG20060211052510102/11/06 05:25:31  5-MIN KMKG 111025Z 07009KT 3SM BR OVC003 M04/M05 A3007 490 92 -1600 080/09 RMK AO2
14840KMKG MKG20060211053010102/11/06 05:30:31  5-MIN KMKG 111030Z 07011KT 3SM BR OVC003 M04/M04 A3007 490 96 -1600 080/11 RMK AO2
14840KMKG MKG20060211053510102/11/06 05:35:31  5-MIN KMKG 111035Z 07012KT 3SM BR OVC003 M04/M04 A3007 490 96 -1600 080/12 RMK AO2
14840KMKG MKG20060211054010102/11/06 05:40:31  5-MIN KMKG 111040Z 07007KT 3SM BR OVC003 M04/M04 A3007 490 96 -1600 080/07 RMK AO2
14840KMKG MKG20060211054511302/11/06 05:45:31  5-MIN KMKG 111045Z 08008KT 4SM BR OVC003 M04/M05 A3007 490 92 -1600 080/08 RMK AO2 CIG 002V006
14840KMKG MKG20060211055013002/11/06 05:50:31  5-MIN KMKG 111050Z 08007KT 4SM BR OVC003 M04/M05 A3007 490 92 -1600 090/07 RMK AO2 CIG 002V006 SLP191 T10391050
14840KMKG MKG20060211055513002/11/06 05:55:31  5-MIN KMKG 111055Z 09009KT 4SM BR OVC003 M04/M05 A3007 490 92 -1600 090/09 RMK AO2 CIG 003V006 SLP191 T10391050
14840KMKG MKG20060211060010102/11/06 06:00:31  5-MIN KMKG 111100Z 10007KT 4SM BR OVC005 M03/M04 A3007 490 92 -1600 100/07 RMK AO2
14840KMKG MKG20060211060510102/11/06 06:05:31  5-MIN KMKG 111105Z 10007KT 4SM BR OVC005 M04/M05 A3007 490 92 -1600 110/07 RMK AO2
14840KMKG MKG20060211061010102/11/06 06:10:31  5-MIN KMKG 111110Z 11008KT 4SM BR OVC005 M04/M05 A3008 490 92 -1600 110/08 RMK AO2
14840KMKG MKG20060211061510102/11/06 06:15:31  5-MIN KMKG 111115Z 11006KT 4SM BR BKN005 M04/M05 A3008 490 92 -1600 120/06 RMK AO2
14840KMKG MKG20060211062010102/11/06 06:20:31  5-MIN KMKG 111120Z 11005KT 4SM BR BKN005 M04/M05 A3008 490 96 -1700 110/05 RMK AO2
14840KMKG MKG20060211062510102/11/06 06:25:31  5-MIN KMKG 111125Z 11004KT 4SM BR SCT005 M04/M06 A3008 480 92 -1700 110/04 RMK AO2
14840KMKG MKG20060211063010102/11/06 06:30:31  5-MIN KMKG 111130Z 11003KT 4SM BR SCT005 M04/M06 A3008 480 92 -1700 120/03 RMK AO2
14840KMKG MKG20060211063510102/11/06 06:35:31  5-MIN KMKG 111135Z 00000KT 3SM BR FEW005 M05/M06 A3008 480 96 -1800 000/00 RMK AO2
14840KMKG MKG20060211064010202/11/06 06:40:31  5-MIN KMKG 111140Z 00000KT 1SM BR FEW030 M07/M07 A3009 480 100 -2000 000/00 RMK AO2
14840KMKG MKG20060211064510102/11/06 06:45:31  5-MIN KMKG 111145Z 00000KT 2SM BR SCT030 M06/M07 A3009 480 92 -1900 000/00 RMK AO2
14840KMKG MKG20060211065015202/11/06 06:50:31  5-MIN KMKG 111150Z 00000KT 1/2SM FZFG BKN030 M06/M07 A3009 470 92 -1900 000/00 RMK AO2 SLP199 60000 70004 T10561067 11022 21067 58005
14840KMKG MKG20060211065515802/11/06 06:55:31  5-MIN KMKG 111155Z 11004KT 1/2SM FZFG BKN030 M06/M07 A3009 470 92 -1900 120/04 RMK AO2 SLP199 60000 70004 4/003 T10561067 11022 21067 53008
14840KMKG MKG20060211070010102/11/06 07:00:31  5-MIN KMKG 111200Z 10003KT 1SM BR BKN030 M06/M06 A3009 470 96 -1900 100/03 RMK AO2
14840KMKG MKG20060211070510102/11/06 07:05:31  5-MIN KMKG 111205Z 07003KT 2SM BR OVC030 M06/M06 A3009 470 96 -1900 070/03 RMK AO2
14840KMKG MKG20060211071011802/11/06 07:10:31  5-MIN KMKG 111210Z 05003KT 2SM BR OVC030 M06/M06 A3010 470 96 -1900 050/03 RMK AO2 VIS 1 1/4 RWY 14
14840KMKG MKG20060211071510602/11/06 07:15:31  5-MIN KMKG 111215Z 00000KT 2 1/2SM BR OVC030 M06/M06 A3010 460 100 -1900 000/00 RMK AO2
14840KMKG MKG20060211072010102/11/06 07:20:31  5-MIN KMKG 111220Z 06003KT 3SM BR OVC030 M05/M06 A3010 460 96 -1800 060/03 RMK AO2
14840KMKG MKG20060211072510102/11/06 07:25:31  5-MIN KMKG 111225Z 06003KT 3SM BR OVC032 M05/M06 A3010 460 92 -1800 070/03 RMK AO2
14840KMKG MKG20060211073010102/11/06 07:30:31  5-MIN KMKG 111230Z 06003KT 3SM BR OVC032 M05/M06 A3011 460 92 -1800 060/03 RMK AO2
14840KMKG MKG20060211073510102/11/06 07:35:31  5-MIN KMKG 111235Z 07003KT 3SM BR OVC032 M05/M06 A3011 460 92 -1800 070/03 RMK AO2
14840KMKG MKG20060211074010102/11/06 07:40:31  5-MIN KMKG 111240Z 05004KT 4SM BR OVC032 M05/M06 A3011 460 96 -1800 050/04 RMK AO2
14840KMKG MKG20060211074510102/11/06 07:45:31  5-MIN KMKG 111245Z 05003KT 4SM BR OVC032 M05/M06 A3011 460 96 -1800 050/03 RMK AO2
14840KMKG MKG20060211075011802/11/06 07:50:31  5-MIN KMKG 111250Z 05004KT 4SM BR OVC034 M04/M06 A3011 460 92 -1700 060/04 RMK AO2 SLP204 T10441056
14840KMKG MKG20060211075511802/11/06 07:55:31  5-MIN KMKG 111255Z 04005KT 4SM BR OVC034 M04/M06 A3011 460 92 -1700 040/05 RMK AO2 SLP204 T10441056
14840KMKG MKG20060211080012502/11/06 08:00:31  5-MIN KMKG 111300Z 02005KT 3SM BR BKN034 OVC055 M04/M06 A3011 450 92 -1700 020/05 RMK AO2 VIS 2 1/2 RWY 14
14840KMKG MKG20060211080510802/11/06 08:05:31  5-MIN KMKG 111305Z 01006KT 3SM BR BKN036 OVC055 M04/M06 A3011 450 92 -1700 010/06 RMK AO2
14840KMKG MKG20060211081010802/11/06 08:10:31  5-MIN KMKG 111310Z 02005KT 3SM BR BKN038 OVC060 M04/M06 A3011 450 92 -1700 030/05 RMK AO2
14840KMKG MKG20060211081510802/11/06 08:15:31  5-MIN KMKG 111315Z 03005KT 3SM BR BKN038 OVC060 M04/M06 A3011 450 92 -1700 040/05 RMK AO2
14840KMKG MKG20060211082012402/11/06 08:20:31  5-MIN KMKG 111320Z 03004KT 3SM -SN BR BKN036 OVC060 M04/M05 A3011 450 96 -1700 030/04 RMK AO2 SNB20 P0000
14840KMKG MKG20060211082512402/11/06 08:25:31  5-MIN KMKG 111325Z 03004KT 3SM -SN BR BKN036 OVC060 M04/M05 A3011 450 92 -1700 030/04 RMK AO2 SNB20 P0000
14840KMKG MKG20060211083011702/11/06 08:30:31  5-MIN KMKG 111330Z 04004KT 3SM -SN BR OVC036 M04/M05 A3011 450 92 -1700 040/04 RMK AO2 SNB20 P0000
14840KMKG MKG20060211083511702/11/06 08:35:31  5-MIN KMKG 111335Z 06003KT 3SM -SN BR OVC038 M04/M05 A3011 450 92 -1700 070/03 RMK AO2 SNB20 P0000
14840KMKG MKG20060211084014102/11/06 08:40:31  5-MIN KMKG 111340Z 06005KT 3SM -SN BR BKN038 OVC060 M04/M05 A3011 450 92 -1700 060/05 RMK AO2 VIS 2 1/2 RWY 14 SNB20 P0000
14840KMKG MKG20060211084512402/11/06 08:45:31  5-MIN KMKG 111345Z 05005KT 3SM -SN BR BKN040 OVC060 M04/M06 A3011 450 88 -1700 060/05 RMK AO2 SNB20 P0000
14840KMKG MKG20060211085014802/11/06 08:50:31  5-MIN KMKG 111350Z 06005KT 3SM -SN BR FEW036 BKN045 OVC060 M04/M05 A3011 450 92 -1700 060/05 RMK AO2 SNB20 SLP206 P0000 T10391050
14840KMKG MKG20060211085514102/11/06 08:55:31  5-MIN KMKG 111355Z 07004KT 4SM -SN BR BKN045 OVC060 M03/M05 A3011 450 88 -1600 070/04 RMK AO2 SNB20 SLP205 P0000 T10331050
14840KMKG MKG20060211090011802/11/06 09:00:31  5-MIN KMKG 111400Z 07006KT 4SM -SN BR BKN047 OVC060 M03/M05 A3011 450 88 -1600 080/06 RMK AO2 P0000
14840KMKG MKG20060211090511802/11/06 09:05:31  5-MIN KMKG 111405Z 08005KT 4SM -SN BR SCT049 OVC060 M03/M05 A3011 460 88 -1600 090/05 RMK AO2 P0000
14840KMKG MKG20060211091011102/11/06 09:10:31  5-MIN KMKG 111410Z 08008KT 4SM -SN BR OVC060 M03/M05 A3011 460 85 -1500 080/08 RMK AO2 P0000
14840KMKG MKG20060211091511802/11/06 09:15:31  5-MIN KMKG 111415Z 08008KT 5SM -SN BR SCT048 OVC060 M03/M05 A3011 460 85 -1500 080/08 RMK AO2 P0000
14840KMKG MKG20060211092011802/11/06 09:20:31  5-MIN KMKG 111420Z 07008KT 4SM -SN BR SCT034 OVC060 M03/M05 A3011 460 85 -1500 080/08 RMK AO2 P0000
14840KMKG MKG20060211092511802/11/06 09:25:31  5-MIN KMKG 111425Z 08008KT 4SM -SN BR SCT036 OVC060 M03/M05 A3010 460 85 -1500 080/08 RMK AO2 P0000
14840KMKG MKG20060211093011802/11/06 09:30:31  5-MIN KMKG 111430Z 08007KT 6SM -SN BR FEW042 OVC060 M03/M05 A3010 460 85 -1500 080/07 RMK AO2 P0000
14840KMKG MKG20060211093511802/11/06 09:35:31  5-MIN KMKG 111435Z 07008KT 6SM -SN BR FEW036 OVC060 M03/M05 A3010 460 85 -1500 080/08 RMK AO2 P0000
14840KMKG MKG20060211094011502/11/06 09:40:31  5-MIN KMKG 111440Z 08007KT 7SM -SN FEW031 OVC060 M02/M05 A3010 460 81 -1400 080/07 RMK AO2 P0000
14840KMKG MKG20060211094511502/11/06 09:45:31  5-MIN KMKG 111445Z 07006KT 7SM -SN FEW029 OVC060 M02/M05 A3010 460 81 -1400 070/06 RMK AO2 P0000
14840KMKG MKG20060211095013702/11/06 09:50:31  5-MIN KMKG 111450Z 08007KT 8SM -SN OVC060 M02/M05 A3010 470 81 -1400 090/07 RMK AO2 SLP201 P0000 60000 T10221050 53008
14840KMKG MKG20060211095513902/11/06 09:55:31  5-MIN KMKG 111455Z 08007KT 8SM BKN060 M02/M05 A3010 470 81 -1400 080/07 RMK AO2 SNE51 SLP200 P0000 60000 T10221050 50002
14840KMKG MKG20060211100010502/11/06 10:00:31  5-MIN KMKG 111500Z 06008KT 8SM FEW013 OVC055 M02/M05 A3010 470 81 -1400 070/08 RMK AO2
14840KMKG MKG20060211100510502/11/06 10:05:31  5-MIN KMKG 111505Z 08008KT 9SM FEW013 OVC055 M02/M05 A3010 470 81 -1400 080/08 RMK AO2
14840KMKG MKG20060211101010502/11/06 10:10:31  5-MIN KMKG 111510Z 07008KT 9SM FEW013 OVC055 M02/M05 A3010 470 78 -1400 080/08 RMK AO2
14840KMKG MKG20060211101510502/11/06 10:15:31  5-MIN KMKG 111515Z 08008KT 9SM SCT013 BKN055 M02/M05 A3009 470 78 -1400 080/08 RMK AO2
14840KMKG MKG20060211102011202/11/06 10:20:31  5-MIN KMKG 111520Z 07010KT 9SM FEW015 SCT019 BKN055 M02/M05 A3009 470 78 -1400 070/10 RMK AO2
14840KMKG MKG20060211102512002/11/06 10:25:31  5-MIN KMKG 111525Z 08008KT 9SM FEW015 BKN055 M02/M05 A3009 470 78 -1400 090/08 RMK AO2 CIG 014 RWY 14
14840KMKG MKG20060211103012102/11/06 10:30:31  5-MIN KMKG 111530Z 07008KT 10SM SCT017 BKN050 M02/M05 A3009 470 78 -1400 070/08 RMK AO2 CIG 014 RWY 14
14840KMKG MKG20060211103510602/11/06 10:35:31  5-MIN KMKG 111535Z 06008KT 10SM BKN017 BKN050 M02/M05 A3009 470 78 -1400 060/08 RMK AO2
14840KMKG MKG20060211104009902/11/06 10:40:31  5-MIN KMKG 111540Z 06009KT 10SM BKN017 M02/M06 A3009 470 75 -1400 060/09 RMK AO2
14840KMKG MKG20060211104509902/11/06 10:45:31  5-MIN KMKG 111545Z 07008KT 10SM SCT017 M02/M06 A3009 470 78 -1400 070/08 RMK AO2
14840KMKG MKG20060211105009902/11/06 10:50:31  5-MIN KMKG 111550Z 08008KT 10SM SCT017 M02/M06 A3009 470 75 -1400 080/08 RMK AO2
14840KMKG MKG20060211105511602/11/06 10:55:31  5-MIN KMKG 111555Z 08009KT 10SM SCT017 M02/M06 A3009 470 78 -1400 080/09 RMK AO2 SLP198 T10221056
14840KMKG MKG20060211110009902/11/06 11:00:31  5-MIN KMKG 111600Z 08007KT 10SM FEW017 M02/M06 A3009 470 78 -1400 080/07 RMK AO2
14840KMKG MKG20060211110509602/11/06 11:05:31  5-MIN KMKG 111605Z 08008KT 10SM CLR M02/M06 A3009 470 75 -1400 080/08 RMK AO2
14840KMKG MKG20060211111009602/11/06 11:10:31  5-MIN KMKG 111610Z 08008KT 10SM CLR M02/M06 A3009 470 75 -1400 080/08 RMK AO2
14840KMKG MKG20060211111509602/11/06 11:15:31  5-MIN KMKG 111615Z 07007KT 10SM CLR M02/M06 A3009 470 75 -1400 070/07 RMK AO2
14840KMKG MKG20060211112009602/11/06 11:20:31  5-MIN KMKG 111620Z 06008KT 10SM CLR M02/M06 A3009 470 78 -1400 070/08 RMK AO2
14840KMKG MKG20060211112509602/11/06 11:25:31  5-MIN KMKG 111625Z 07007KT 10SM CLR M02/M06 A3009 470 75 -1400 070/07 RMK AO2
14840KMKG MKG20060211113009602/11/06 11:30:31  5-MIN KMKG 111630Z 07005KT 10SM CLR M01/M06 A3009 470 72 -1300 070/05 RMK AO2
14840KMKG MKG20060211113509902/11/06 11:35:31  5-MIN KMKG 111635Z 08008KT 10SM FEW017 M01/M06 A3009 470 72 -1300 090/08 RMK AO2
14840KMKG MKG20060211114009902/11/06 11:40:31  5-MIN KMKG 111640Z 08007KT 10SM FEW021 M01/M06 A3009 470 69 -1300 080/07 RMK AO2
14840KMKG MKG20060211114509902/11/06 11:45:31  5-MIN KMKG 111645Z 08008KT 10SM FEW021 M01/M06 A3009 470 66 -1200 080/08 RMK AO2
14840KMKG MKG20060211115011602/11/06 11:50:31  5-MIN KMKG 111650Z 08007KT 10SM FEW021 M01/M07 A3009 470 63 -1200 080/07 RMK AO2 SLP199 T10061067
14840KMKG MKG20060211115511602/11/06 11:55:31  5-MIN KMKG 111655Z 09009KT 10SM SCT025 M01/M06 A3009 470 66 -1200 090/09 RMK AO2 SLP199 T10061061
14840KMKG MKG20060211120011102/11/06 12:00:31  5-MIN KMKG 111700Z 07009KT 10SM CLR M01/M07 A3009 470 66 -1300 080/09 RMK AO2 CIG 025 RWY 14
14840KMKG MKG20060211120511102/11/06 12:05:31  5-MIN KMKG 111705Z 09007KT 10SM CLR M01/M07 A3009 470 66 -1300 100/07 RMK AO2 CIG 027 RWY 14
14840KMKG MKG20060211121011102/11/06 12:10:31  5-MIN KMKG 111710Z 09006KT 10SM CLR M01/M06 A3009 470 66 -1200 090/06 RMK AO2 CIG 027 RWY 14
14840KMKG MKG20060211121509902/11/06 12:15:31  5-MIN KMKG 111715Z 06005KT 10SM FEW034 M01/M07 A3009 480 63 -1200 070/05 RMK AO2
14840KMKG MKG20060211122009802/11/06 12:20:31  5-MIN KMKG 111720Z 08005KT 10SM SCT032 00/M07 A3009 480 61 -1100 090/05 RMK AO2
14840KMKG MKG20060211122512802/11/06 12:25:31  5-MIN KMKG 111725Z 09008KT 10SM FEW032 SCT041 BKN048 M01/M07 A3009 480 63 -1200 100/08 RMK AO2 CIG 029 RWY 14
14840KMKG MKG20060211123012802/11/06 12:30:31  5-MIN KMKG 111730Z 07006KT 10SM SCT032 SCT038 BKN048 M01/M07 A3009 480 63 -1200 080/06 RMK AO2 CIG 029 RWY 14
14840KMKG MKG20060211123511302/11/06 12:35:31  5-MIN KMKG 111735Z 05007KT 10SM FEW025 BKN032 BKN038 M01/M07 A3009 480 66 -1300 050/07 RMK AO2
14840KMKG MKG20060211124011302/11/06 12:40:31  5-MIN KMKG 111740Z 03007KT 10SM BKN025 BKN036 OVC048 M01/M06 A3009 480 72 -1300 030/07 RMK AO2
14840KMKG MKG20060211124511302/11/06 12:45:31  5-MIN KMKG 111745Z 03008KT 10SM BKN027 BKN034 OVC047 M01/M06 A3008 480 72 -1300 030/08 RMK AO2
14840KMKG MKG20060211125015402/11/06 12:50:31  5-MIN KMKG 111750Z 02007KT 10SM FEW022 BKN037 OVC045 M01/M06 A3008 480 72 -1300 020/07 RMK AO2 SLP196 60000 T10111056 10000 21044 50002
14840KMKG MKG20060211125517002/11/06 12:55:31  5-MIN KMKG 111755Z 02007KT 10SM -SN FEW022 BKN028 OVC041 M01/M06 A3008 480 72 -1300 020/07 RMK AO2 SNB54 SLP195 60000 4/002 T10111056 10000 21044 58005
14840KMKG MKG20060211130012202/11/06 13:00:31  5-MIN KMKG 111800Z 05006KT 9SM -SN FEW022 SCT026 OVC039 M01/M06 A3008 480 72 -1300 050/06 RMK AO2 P0000
14840KMKG MKG20060211130511502/11/06 13:05:31  5-MIN KMKG 111805Z 03006KT 9SM -SN FEW020 OVC039 M01/M06 A3008 480 72 -1300 030/06 RMK AO2 P0000
14840KMKG MKG20060211131011502/11/06 13:10:31  5-MIN KMKG 111810Z 04006KT 9SM -SN FEW020 OVC041 M01/M06 A3008 480 72 -1300 040/06 RMK AO2 P0000
14840KMKG MKG20060211131511502/11/06 13:15:31  5-MIN KMKG 111815Z 03005KT 9SM -SN SCT020 OVC041 M01/M06 A3008 480 72 -1300 040/05 RMK AO2 P0000
14840KMKG MKG20060211132011502/11/06 13:20:31  5-MIN KMKG 111820Z 04007KT 9SM -SN SCT020 OVC039 M01/M06 A3008 490 72 -1300 040/07 RMK AO2 P0000
14840KMKG MKG20060211132511502/11/06 13:25:31  5-MIN KMKG 111825Z 03006KT 9SM -SN SCT022 OVC039 M01/M06 A3008 490 69 -1300 040/06 RMK AO2 P0000
14840KMKG MKG20060211133012202/11/06 13:30:31  5-MIN KMKG 111830Z 04006KT 9SM -SN FEW022 SCT032 OVC039 M01/M06 A3008 490 69 -1300 050/06 RMK AO2 P0000
14840KMKG MKG20060211133511502/11/06 13:35:31  5-MIN KMKG 111835Z 04006KT 9SM -SN FEW024 OVC041 M01/M06 A3007 490 69 -1300 040/06 RMK AO2 P0000
14840KMKG MKG20060211134011702/11/06 13:40:31  5-MIN KMKG 111840Z 03004KT 9SM FEW021 OVC043 M01/M06 A3007 490 69 -1300 040/04 RMK AO2 SNE40 P0000
14840KMKG MKG20060211134511702/11/06 13:45:31  5-MIN KMKG 111845Z 05003KT 9SM FEW023 OVC043 M01/M06 A3007 490 69 -1300 060/03 RMK AO2 SNE40 P0000
14840KMKG MKG20060211135012802/11/06 13:50:31  5-MIN KMKG 111850Z 03005KT 10SM OVC043 M01/M06 A3007 490 69 -1300 030/05 RMK AO2 SNE40 SLP191 P0000 T10111061
14840KMKG MKG20060211135512802/11/06 13:55:31  5-MIN KMKG 111855Z 05004KT 10SM OVC045 M01/M07 A3007 490 66 -1300 050/04 RMK AO2 SNE40 SLP191 P0000 T10111067
14840KMKG MKG20060211140009902/11/06 14:00:31  5-MIN KMKG 111900Z 04003KT 10SM OVC047 M01/M07 A3007 490 66 -1300 050/03 RMK AO2
14840KMKG MKG20060211140509902/11/06 14:05:31  5-MIN KMKG 111905Z 08005KT 10SM OVC047 M01/M07 A3007 500 66 -1300 080/05 RMK AO2
14840KMKG MKG20060211141010602/11/06 14:10:31  5-MIN KMKG 111910Z VRB03KT 10SM BKN047 OVC055 M01/M07 A3006 500 63 -1200 VRB/03 RMK AO2
14840KMKG MKG20060211141510602/11/06 14:15:31  5-MIN KMKG 111915Z 00000KT 10SM BKN049 OVC055 M01/M07 A3006 500 63 -1200 000/00 RMK AO2
14840KMKG MKG20060211142011302/11/06 14:20:31  5-MIN KMKG 111920Z 09004KT 10SM FEW027 BKN049 OVC055 M01/M07 A3006 500 63 -1200 090/04 RMK AO2
14840KMKG MKG20060211142510602/11/06 14:25:31  5-MIN KMKG 111925Z 10004KT 10SM SCT027 OVC049 M01/M06 A3006 500 66 -1200 100/04 RMK AO2
14840KMKG MKG20060211143010602/11/06 14:30:31  5-MIN KMKG 111930Z 00000KT 10SM SCT027 OVC049 M01/M06 A3006 500 69 -1300 000/00 RMK AO2
14840KMKG MKG20060211143510602/11/06 14:35:31  5-MIN KMKG 111935Z 00000KT 10SM SCT027 OVC049 M01/M06 A3006 510 66 -1200 000/00 RMK AO2
14840KMKG MKG20060211144010502/11/06 14:40:31  5-MIN KMKG 111940Z 00000KT 10SM BKN027 OVC049 00/M07 A3005 510 61 -1100 000/00 RMK AO2
14840KMKG MKG20060211144511302/11/06 14:45:31  5-MIN KMKG 111945Z 00000KT 10SM BKN027 BKN031 OVC049 M01/M06 A3005 510 66 -1200 000/00 RMK AO2
14840KMKG MKG20060211145013002/11/06 14:50:31  5-MIN KMKG 111950Z 00000KT 10SM BKN027 BKN031 OVC046 M01/M07 A3005 510 63 -1200 000/00 RMK AO2 SLP184 T10061067
14840KMKG MKG20060211145513002/11/06 14:55:31  5-MIN KMKG 111955Z 36003KT 10SM SCT027 BKN033 OVC046 M01/M07 A3005 510 63 -1200 360/03 RMK AO2 SLP184 T10061067
14840KMKG MKG20060211150010602/11/06 15:00:31  5-MIN KMKG 112000Z 00000KT 10SM BKN027 OVC046 M01/M07 A3005 510 63 -1200 000/00 RMK AO2
14840KMKG MKG20060211150511302/11/06 15:05:31  5-MIN KMKG 112005Z 06006KT 10SM SCT029 BKN037 OVC047 M01/M07 A3005 510 63 -1200 060/06 RMK AO2
14840KMKG MKG20060211151012802/11/06 15:10:31  5-MIN KMKG 112010Z 06006KT 10SM SCT029 BKN040 OVC049 M01/M07 A3005 510 63 -1200 070/06 RMK AO2 CIG 032 RWY 14
14840KMKG MKG20060211151511302/11/06 15:15:31  5-MIN KMKG 112015Z 05006KT 10SM FEW029 BKN042 OVC049 M01/M06 A3005 510 69 -1200 050/06 RMK AO2
14840KMKG MKG20060211152012802/11/06 15:20:31  5-MIN KMKG 112020Z 03005KT 9SM -SN FEW029 BKN042 OVC049 M01/M07 A3005 510 66 -1200 040/05 RMK AO2 SNB16 P0000
14840KMKG MKG20060211152512802/11/06 15:25:31  5-MIN KMKG 112025Z 03006KT 9SM -SN FEW029 BKN038 OVC047 M01/M07 A3004 520 66 -1200 030/06 RMK AO2 SNB16 P0000
14840KMKG MKG20060211153012102/11/06 15:30:31  5-MIN KMKG 112030Z 04004KT 9SM -SN BKN036 OVC049 M01/M07 A3004 520 66 -1200 040/04 RMK AO2 SNB16 P0000
14840KMKG MKG20060211153512802/11/06 15:35:31  5-MIN KMKG 112035Z 05004KT 7SM -SN SCT032 BKN040 OVC050 M01/M06 A3004 520 69 -1200 060/04 RMK AO2 SNB16 P0000
14840KMKG MKG20060211154012802/11/06 15:40:31  5-MIN KMKG 112040Z 07003KT 6SM -SN FEW031 BKN040 OVC055 M01/M06 A3004 520 69 -1200 070/03 RMK AO2 SNB16 P0000
14840KMKG MKG20060211154512802/11/06 15:45:31  5-MIN KMKG 112045Z 06003KT 8SM -SN FEW031 BKN040 OVC055 M01/M06 A3004 520 69 -1200 070/03 RMK AO2 SNB16 P0000
14840KMKG MKG20060211155015002/11/06 15:50:31  5-MIN KMKG 112050Z 00000KT 9SM -SN BKN036 OVC055 M01/M06 A3004 520 69 -1200 000/00 RMK AO2 SNB16 SLP180 P0000 60000 T10111061 58005
14840KMKG MKG20060211155515702/11/06 15:55:31  5-MIN KMKG 112055Z 00000KT 9SM -SN FEW026 BKN034 OVC050 M01/M06 A3004 520 69 -1200 000/00 RMK AO2 SNB16 SLP180 P0000 60000 T10111061 57015
14840KMKG MKG20060211160014102/11/06 16:00:31  5-MIN KMKG 112100Z 00000KT 9SM SCT026 BKN034 OVC050 M01/M06 A3004 520 69 -1200 000/00 RMK AO2 SNE2059 CIG 026 RWY 14 P0000
14840KMKG MKG20060211160512702/11/06 16:05:31  5-MIN KMKG 112105Z 33003KT 10SM BKN024 BKN034 OVC050 M01/M06 A3004 520 69 -1200 340/03 RMK AO2 SNE2059 P0000
14840KMKG MKG20060211161012702/11/06 16:10:31  5-MIN KMKG 112110Z 01005KT 10SM BKN024 BKN032 OVC050 M01/M06 A3003 520 69 -1200 020/05 RMK AO2 SNE2059 P0000
14840KMKG MKG20060211161511902/11/06 16:15:31  5-MIN KMKG 112115Z 01006KT 8SM BKN024 OVC032 M01/M05 A3004 520 75 -1200 010/06 RMK AO2 SNE2059 P0000
14840KMKG MKG20060211162013302/11/06 16:20:31  5-MIN KMKG 112120Z 36006KT 7SM -SN BKN024 BKN037 OVC046 M01/M05 A3004 520 75 -1200 360/06 RMK AO2 SNE2059B16 P0000
14840KMKG MKG20060211162513302/11/06 16:25:31  5-MIN KMKG 112125Z 35006KT 6SM -SN BKN024 BKN039 OVC046 M01/M06 A3004 520 72 -1200 360/06 RMK AO2 SNE2059B16 P0000
14840KMKG MKG20060211163013302/11/06 16:30:31  5-MIN KMKG 112130Z 36005KT 7SM -SN BKN024 BKN032 OVC046 M01/M06 A3004 520 69 -1200 360/05 RMK AO2 SNE2059B16 P0000
14840KMKG MKG20060211163513202/11/06 16:35:31  5-MIN KMKG 112135Z 01006KT 8SM FEW024 BKN039 OVC048 M01/M06 A3003 530 69 -1200 020/06 RMK AO2 SNE2059B16E32 P0000
14840KMKG MKG20060211164013302/11/06 16:40:31  5-MIN KMKG 112140Z 01004KT 9SM -SN FEW026 SCT039 OVC048 M01/M07 A3003 530 63 -1200 010/04 RMK AO2 SNE2059B16 P0000
14840KMKG MKG20060211164512602/11/06 16:45:31  5-MIN KMKG 112145Z 35004KT 9SM -SN FEW026 OVC050 M01/M07 A3003 530 66 -1200 360/04 RMK AO2 SNE2059B16 P0000
14840KMKG MKG20060211165014202/11/06 16:50:31  5-MIN KMKG 112150Z 01004KT 9SM FEW026 OVC050 M01/M07 A3003 530 66 -1200 020/04 RMK AO2 SNE2059B16E46 SLP178 P0000 T10111067
14840KMKG MKG20060211165513602/11/06 16:55:31  5-MIN KMKG 112155Z 04004KT 10SM OVC050 M01/M07 A3003 530 66 -1200 050/04 RMK AO2 SNE2059B16E46 SLP178 P0000 T10111067
14840KMKG MKG20060211170009902/11/06 17:00:31  5-MIN KMKG 112200Z 03003KT 10SM OVC050 M01/M07 A3003 530 66 -1200 040/03 RMK AO2
14840KMKG MKG20060211170509902/11/06 17:05:31  5-MIN KMKG 112205Z 00000KT 10SM OVC050 M01/M07 A3003 530 66 -1200 000/00 RMK AO2
14840KMKG MKG20060211171009902/11/06 17:10:31  5-MIN KMKG 112210Z 02004KT 10SM BKN050 M01/M07 A3003 530 66 -1200 020/04 RMK AO2
14840KMKG MKG20060211171510602/11/06 17:15:31  5-MIN KMKG 112215Z 06004KT 10SM SCT032 BKN050 M01/M06 A3003 530 69 -1200 060/04 RMK AO2
14840KMKG MKG20060211172010602/11/06 17:20:31  5-MIN KMKG 112220Z 07005KT 10SM BKN030 OVC050 M02/M06 A3003 530 72 -1300 080/05 RMK AO2
14840KMKG MKG20060211172510602/11/06 17:25:31  5-MIN KMKG 112225Z 07005KT 10SM BKN030 OVC050 M02/M06 A3003 530 72 -1300 080/05 RMK AO2
14840KMKG MKG20060211173010602/11/06 17:30:31  5-MIN KMKG 112230Z 08004KT 10SM BKN032 OVC050 M01/M06 A3003 530 69 -1200 080/04 RMK AO2
14840KMKG MKG20060211173509902/11/06 17:35:31  5-MIN KMKG 112235Z 06006KT 10SM BKN032 M01/M06 A3003 530 69 -1200 070/06 RMK AO2
14840KMKG MKG20060211174009802/11/06 17:40:31  5-MIN KMKG 112240Z 06007KT 9SM OVC032 M02/M07 A3003 530 69 -1300 070/07 RMK AO2
14840KMKG MKG20060211174510502/11/06 17:45:31  5-MIN KMKG 112245Z 05005KT 9SM BKN032 OVC039 M02/M07 A3003 530 69 -1300 050/05 RMK AO2
14840KMKG MKG20060211175011602/11/06 17:50:31  5-MIN KMKG 112250Z 06005KT 10SM OVC034 M02/M06 A3003 530 72 -1300 060/05 RMK AO2 SLP177 T10171061
14840KMKG MKG20060211175511602/11/06 17:55:31  5-MIN KMKG 112255Z 08004KT 10SM OVC034 M02/M06 A3003 530 75 -1300 090/04 RMK AO2 SLP177 T10171056
14840KMKG MKG20060211180011402/11/06 18:00:31  5-MIN KMKG 112300Z 10005KT 9SM -SN OVC036 M02/M06 A3003 530 75 -1300 100/05 RMK AO2 SNB00 P0000
14840KMKG MKG20060211180512102/11/06 18:05:31  5-MIN KMKG 112305Z 11005KT 8SM -SN BKN036 OVC049 M02/M06 A3003 530 75 -1300 110/05 RMK AO2 SNB00 P0000
14840KMKG MKG20060211181012102/11/06 18:10:31  5-MIN KMKG 112310Z 10004KT 8SM -SN BKN036 OVC049 M02/M06 A3003 530 78 -1400 100/04 RMK AO2 SNB00 P0000
14840KMKG MKG20060211181512102/11/06 18:15:31  5-MIN KMKG 112315Z 08004KT 9SM -SN SCT036 OVC049 M02/M06 A3003 530 78 -1400 090/04 RMK AO2 SNB00 P0000
14840KMKG MKG20060211182012102/11/06 18:20:31  5-MIN KMKG 112320Z 09003KT 9SM -SN SCT038 OVC049 M02/M06 A3003 530 78 -1400 100/03 RMK AO2 SNB00 P0000
14840KMKG MKG20060211182512102/11/06 18:25:31  5-MIN KMKG 112325Z 10003KT 9SM -SN FEW040 OVC049 M03/M06 A3003 530 78 -1400 100/03 RMK AO2 SNB00 P0000
14840KMKG MKG20060211183011302/11/06 18:30:31  5-MIN KMKG 112330Z 00000KT 9SM BKN049 M02/M06 A3003 530 75 -1400 000/00 RMK AO2 SNB00E29 P0000
14840KMKG MKG20060211183511402/11/06 18:35:31  5-MIN KMKG 112335Z 00000KT 10SM BKN049 M02/M06 A3003 530 75 -1400 000/00 RMK AO2 SNB00E29 P0000
14840KMKG MKG20060211184011402/11/06 18:40:31  5-MIN KMKG 112340Z 12003KT 10SM SCT049 M03/M06 A3003 530 78 -1400 120/03 RMK AO2 SNB00E29 P0000
14840KMKG MKG20060211184512102/11/06 18:45:31  5-MIN KMKG 112345Z 12003KT 10SM SCT049 SCT120 M03/M06 A3003 530 78 -1400 120/03 RMK AO2 SNB00E29 P0000
14840KMKG MKG20060211185016202/11/06 18:50:31  5-MIN KMKG 112350Z 12003KT 10SM FEW049 BKN120 M03/M06 A3003 530 81 -1500 120/03 RMK AO2 SNB00E29 SLP178 P0000 60000 T10331061 10000 21033 57015
14840KMKG MKG20060211185516202/11/06 18:55:31  5-MIN KMKG 112355Z 00000KT 10SM FEW049 BKN120 M03/M06 A3003 530 78 -1400 000/00 RMK AO2 SNB00E29 SLP178 P0000 60000 T10281061 10000 21033 56002
14840KMKG MKG20060211190009902/11/06 19:00:31  5-MIN KMKG 120000Z 00000KT 10SM BKN120 M03/M06 A3003 530 78 -1400 000/00 RMK AO2
14840KMKG MKG20060211190509902/11/06 19:05:31  5-MIN KMKG 120005Z 00000KT 10SM BKN120 M03/M06 A3003 530 81 -1500 000/00 RMK AO2
14840KMKG MKG20060211191009902/11/06 19:10:31  5-MIN KMKG 120010Z 00000KT 10SM BKN120 M03/M06 A3003 530 81 -1500 000/00 RMK AO2
14840KMKG MKG20060211191509902/11/06 19:15:31  5-MIN KMKG 120015Z 00000KT 10SM BKN120 M03/M06 A3003 530 78 -1400 000/00 RMK AO2
14840KMKG MKG20060211192009902/11/06 19:20:31  5-MIN KMKG 120020Z 00000KT 10SM OVC120 M03/M06 A3003 530 78 -1400 000/00 RMK AO2
14840KMKG MKG20060211192509902/11/06 19:25:31  5-MIN KMKG 120025Z 00000KT 10SM OVC120 M03/M06 A3003 530 81 -1500 000/00 RMK AO2
14840KMKG MKG20060211193009902/11/06 19:30:31  5-MIN KMKG 120030Z 00000KT 10SM BKN120 M03/M06 A3003 530 81 -1500 000/00 RMK AO2
14840KMKG MKG20060211193509902/11/06 19:35:31  5-MIN KMKG 120035Z 00000KT 10SM BKN120 M03/M06 A3003 530 81 -1500 000/00 RMK AO2
14840KMKG MKG20060211194009902/11/06 19:40:31  5-MIN KMKG 120040Z 00000KT 10SM OVC120 M03/M06 A3003 530 81 -1500 000/00 RMK AO2
14840KMKG MKG20060211194509902/11/06 19:45:31  5-MIN KMKG 120045Z 00000KT 10SM OVC120 M03/M06 A3003 530 81 -1500 000/00 RMK AO2
14840KMKG MKG20060211195011602/11/06 19:50:31  5-MIN KMKG 120050Z 00000KT 10SM OVC110 M03/M07 A3003 530 78 -1500 000/00 RMK AO2 SLP179 T10331067
14840KMKG MKG20060211195511602/11/06 19:55:31  5-MIN KMKG 120055Z 00000KT 10SM OVC110 M04/M07 A3003 530 81 -1600 000/00 RMK AO2 SLP179 T10391067
14840KMKG MKG20060211200009902/11/06 20:00:31  5-MIN KMKG 120100Z 00000KT 10SM OVC110 M04/M07 A3003 530 84 -1700 000/00 RMK AO2
14840KMKG MKG20060211200509902/11/06 20:05:31  5-MIN KMKG 120105Z 00000KT 10SM OVC110 M04/M06 A3003 530 85 -1600 000/00 RMK AO2
14840KMKG MKG20060211201009902/11/06 20:10:31  5-MIN KMKG 120110Z 00000KT 10SM OVC110 M03/M06 A3003 530 85 -1500 000/00 RMK AO2
14840KMKG MKG20060211201509902/11/06 20:15:31  5-MIN KMKG 120115Z 00000KT 10SM OVC110 M04/M06 A3003 530 85 -1600 000/00 RMK AO2
14840KMKG MKG20060211202009902/11/06 20:20:31  5-MIN KMKG 120120Z 00000KT 10SM OVC110 M04/M06 A3003 530 85 -1600 000/00 RMK AO2
14840KMKG MKG20060211202509902/11/06 20:25:31  5-MIN KMKG 120125Z 00000KT 10SM OVC110 M03/M06 A3003 530 81 -1500 000/00 RMK AO2
14840KMKG MKG20060211203009802/11/06 20:30:31  5-MIN KMKG 120130Z 00000KT 9SM OVC110 M06/M08 A3003 530 84 -1800 000/00 RMK AO2
14840KMKG MKG20060211203509802/11/06 20:35:31  5-MIN KMKG 120135Z 00000KT 9SM OVC110 M04/M07 A3003 530 84 -1700 000/00 RMK AO2
14840KMKG MKG20060211204009802/11/06 20:40:31  5-MIN KMKG 120140Z 00000KT 9SM BKN110 M04/M06 A3003 530 88 -1700 000/00 RMK AO2
14840KMKG MKG20060211204509802/11/06 20:45:31  5-MIN KMKG 120145Z 00000KT 9SM BKN110 M05/M07 A3003 530 88 -1700 000/00 RMK AO2
14840KMKG MKG20060211205011502/11/06 20:50:31  5-MIN KMKG 120150Z 00000KT 8SM SCT110 M06/M07 A3003 530 92 -1800 000/00 RMK AO2 SLP179 T10561067
14840KMKG MKG20060211205511502/11/06 20:55:31  5-MIN KMKG 120155Z 00000KT 8SM FEW110 M05/M07 A3003 530 84 -1700 000/00 RMK AO2 SLP179 T10501072
14840KMKG MKG20060211210009802/11/06 21:00:31  5-MIN KMKG 120200Z 00000KT 7SM FEW110 M05/M07 A3003 530 88 -1700 000/00 RMK AO2
14840KMKG MKG20060211210509502/11/06 21:05:31  5-MIN KMKG 120205Z 00000KT 7SM CLR M05/M07 A3003 530 88 -1700 000/00 RMK AO2
14840KMKG MKG20060211211009502/11/06 21:10:31  5-MIN KMKG 120210Z 00000KT 7SM CLR M05/M07 A3003 530 88 -1700 000/00 RMK AO2
14840KMKG MKG20060211211509502/11/06 21:15:31  5-MIN KMKG 120215Z 00000KT 7SM CLR M05/M07 A3003 530 88 -1700 000/00 RMK AO2
14840KMKG MKG20060211212009802/11/06 21:20:31  5-MIN KMKG 120220Z 00000KT 8SM FEW049 M05/M07 A3003 530 88 -1700 000/00 RMK AO2
14840KMKG MKG20060211212509802/11/06 21:25:31  5-MIN KMKG 120225Z 00000KT 8SM FEW049 M06/M07 A3003 530 92 -1800 000/00 RMK AO2
14840KMKG MKG20060211213009802/11/06 21:30:31  5-MIN KMKG 120230Z 00000KT 7SM FEW049 M05/M07 A3003 530 88 -1700 000/00 RMK AO2
14840KMKG MKG20060211213509802/11/06 21:35:31  5-MIN KMKG 120235Z 00000KT 7SM FEW049 M05/M07 A3003 530 88 -1700 000/00 RMK AO2
14840KMKG MKG20060211214012002/11/06 21:40:31  5-MIN KMKG 120240Z 00000KT 7SM SCT049 BKN110 M05/M07 A3003 530 88 -1700 000/00 RMK AO2 CIG 049 RWY 14
14840KMKG MKG20060211214511502/11/06 21:45:31  5-MIN KMKG 120245Z 00000KT 6SM BR FEW049 BKN055 BKN110 M06/M07 A3003 530 88 -1800 000/00 RMK AO2
14840KMKG MKG20060211215014602/11/06 21:50:31  5-MIN KMKG 120250Z 00000KT 5SM BR SCT055 BKN110 M06/M07 A3003 530 92 -1800 000/00 RMK AO2 CIG 050 RWY 14 SLP177 T10561067 56002
14840KMKG MKG20060211215514602/11/06 21:55:31  5-MIN KMKG 120255Z 00000KT 6SM BR SCT055 BKN110 M06/M07 A3003 530 96 -1900 000/00 RMK AO2 CIG 055 RWY 14 SLP177 T10611067 58001
14840KMKG MKG20060211220011502/11/06 22:00:31  5-MIN KMKG 120300Z 00000KT 6SM BR FEW049 BKN060 OVC110 M07/M08 A3003 530 92 -1900 000/00 RMK AO2
14840KMKG MKG20060211220511502/11/06 22:05:31  5-MIN KMKG 120305Z 00000KT 6SM BR FEW049 BKN060 OVC110 M06/M07 A3003 530 92 -1900 000/00 RMK AO2
14840KMKG MKG20060211221011502/11/06 22:10:31  5-MIN KMKG 120310Z 00000KT 6SM BR FEW049 BKN060 OVC110 M07/M07 A3003 530 96 -1900 000/00 RMK AO2
14840KMKG MKG20060211221511502/11/06 22:15:31  5-MIN KMKG 120315Z 00000KT 5SM BR FEW049 BKN060 OVC110 M07/M08 A3003 530 92 -1900 000/00 RMK AO2
14840KMKG MKG20060211222010802/11/06 22:20:31  5-MIN KMKG 120320Z 00000KT 6SM BR FEW047 OVC060 M06/M07 A3002 530 88 -1800 000/00 RMK AO2
14840KMKG MKG20060211222510802/11/06 22:25:31  5-MIN KMKG 120325Z 00000KT 6SM BR FEW047 OVC060 M05/M07 A3002 530 88 -1700 000/00 RMK AO2
14840KMKG MKG20060211223010502/11/06 22:30:31  5-MIN KMKG 120330Z 00000KT 7SM FEW047 OVC060 M05/M06 A3002 530 92 -1700 000/00 RMK AO2
14840KMKG MKG20060211223510802/11/06 22:35:31  5-MIN KMKG 120335Z 00000KT 6SM BR FEW047 OVC055 M06/M06 A3002 540 96 -1800 000/00 RMK AO2
14840KMKG MKG20060211224010802/11/06 22:40:31  5-MIN KMKG 120340Z 00000KT 6SM BR FEW047 OVC055 M06/M07 A3002 540 92 -1800 000/00 RMK AO2
14840KMKG MKG20060211224510802/11/06 22:45:31  5-MIN KMKG 120345Z 00000KT 6SM BR FEW047 OVC055 M05/M07 A3002 540 88 -1700 000/00 RMK AO2
14840KMKG MKG20060211225012202/11/06 22:50:31  5-MIN KMKG 120350Z 00000KT 7SM FEW047 OVC055 M05/M07 A3002 540 88 -1700 000/00 RMK AO2 SLP175 T10501067
14840KMKG MKG20060211225511502/11/06 22:55:31  5-MIN KMKG 120355Z 00000KT 7SM OVC055 M05/M07 A3002 540 88 -1700 000/00 RMK AO2 SLP174 T10501067
14840KMKG MKG20060211230010502/11/06 23:00:31  5-MIN KMKG 120400Z 00000KT 7SM FEW047 OVC055 M05/M07 A3001 540 88 -1700 000/00 RMK AO2
14840KMKG MKG20060211230510502/11/06 23:05:31  5-MIN KMKG 120405Z 00000KT 7SM FEW046 OVC055 M05/M07 A3001 540 88 -1700 000/00 RMK AO2
14840KMKG MKG20060211231010502/11/06 23:10:31  5-MIN KMKG 120410Z 00000KT 7SM FEW045 OVC055 M04/M07 A3001 550 84 -1600 000/00 RMK AO2
14840KMKG MKG20060211231510502/11/06 23:15:31  5-MIN KMKG 120415Z 00000KT 7SM FEW045 OVC055 M05/M06 A3001 550 92 -1700 000/00 RMK AO2
14840KMKG MKG20060211232010502/11/06 23:20:31  5-MIN KMKG 120420Z 00000KT 7SM SCT045 OVC055 M04/M06 A3001 550 88 -1600 000/00 RMK AO2
14840KMKG MKG20060211232510502/11/06 23:25:31  5-MIN KMKG 120425Z 00000KT 7SM SCT047 OVC055 M04/M06 A3001 550 88 -1600 000/00 RMK AO2
14840KMKG MKG20060211233010502/11/06 23:30:31  5-MIN KMKG 120430Z 00000KT 7SM SCT047 OVC055 M04/M06 A3001 550 88 -1600 000/00 RMK AO2
14840KMKG MKG20060211233510502/11/06 23:35:31  5-MIN KMKG 120435Z 00000KT 7SM BKN047 OVC060 M04/M06 A3001 550 88 -1600 000/00 RMK AO2
14840KMKG MKG20060211234010502/11/06 23:40:31  5-MIN KMKG 120440Z 00000KT 8SM BKN043 OVC055 M04/M06 A3000 550 88 -1600 000/00 RMK AO2
14840KMKG MKG20060211234510502/11/06 23:45:31  5-MIN KMKG 120445Z 00000KT 8SM BKN043 OVC055 M04/M06 A3000 550 88 -1600 000/00 RMK AO2
14840KMKG MKG20060211235013202/11/06 23:50:31  5-MIN KMKG 120450Z 36003KT 8SM BKN043 OVC055 M04/M06 A3000 550 85 -1500 360/03 RMK AO2 SLP168 T10391061 400001067
14840KMKG MKG20060211235513202/11/06 23:55:31  5-MIN KMKG 120455Z 36003KT 8SM BKN043 OVC050 M04/M06 A3000 560 85 -1500 360/03 RMK AO2 SLP168 T10391061 400001067
14840KMKG MKG20060212000009802/12/06 00:00:32  5-MIN KMKG 120500Z 36004KT 9SM OVC043 M03/M06 A3000 560 81 -1500 360/04 RMK AO2
14840KMKG MKG20060212000509902/12/06 00:05:31  5-MIN KMKG 120505Z 02005KT 10SM OVC043 M03/M07 A3000 560 74 -1500 030/05 RMK AO2
14840KMKG MKG20060212001011302/12/06 00:10:31  5-MIN KMKG 120510Z 02005KT 10SM BKN041 BKN049 OVC060 M03/M08 A3000 560 71 -1500 020/05 RMK AO2
14840KMKG MKG20060212001511302/12/06 00:15:31  5-MIN KMKG 120515Z 01005KT 10SM BKN041 BKN049 OVC060 M03/M08 A3000 560 68 -1400 020/05 RMK AO2
14840KMKG MKG20060212002010602/12/06 00:20:31  5-MIN KMKG 120520Z 36004KT 10SM SCT041 OVC055 M03/M08 A3000 560 71 -1500 360/04 RMK AO2
14840KMKG MKG20060212002512802/12/06 00:25:31  5-MIN KMKG 120525Z 35003KT 10SM SCT041 BKN050 OVC065 M03/M08 A2999 560 71 -1500 350/03 RMK AO2 CIG 041 RWY 14
14840KMKG MKG20060212003010602/12/06 00:30:31  5-MIN KMKG 120530Z 36005KT 10SM BKN041 OVC060 M03/M08 A2999 560 71 -1500 360/05 RMK AO2
14840KMKG MKG20060212003510602/12/06 00:35:31  5-MIN KMKG 120535Z 36003KT 10SM BKN041 OVC060 M03/M08 A2999 560 71 -1500 360/03 RMK AO2
14840KMKG MKG20060212004010602/12/06 00:40:31  5-MIN KMKG 120540Z 02003KT 10SM BKN041 OVC050 M03/M08 A2999 560 71 -1500 020/03 RMK AO2
14840KMKG MKG20060212004510602/12/06 00:45:31  5-MIN KMKG 120545Z 03003KT 10SM BKN041 OVC050 M03/M08 A2999 570 71 -1500 030/03 RMK AO2
14840KMKG MKG20060212005013402/12/06 00:50:31  5-MIN KMKG 120550Z 02003KT 10SM OVC041 M03/M08 A2999 570 68 -1500 020/03 RMK AO2 SLP163 T10331083 11028 21067 58001
14840KMKG MKG20060212005514002/12/06 00:55:31  5-MIN KMKG 120555Z 00000KT 10SM OVC041 M03/M08 A2999 570 68 -1500 000/00 RMK AO2 SLP163 4/001 T10331083 11028 21067 58013
14840KMKG MKG20060212010009902/12/06 01:00:31  5-MIN KMKG 120600Z 00000KT 10SM OVC043 M03/M08 A2999 570 68 -1500 000/00 RMK AO2
14840KMKG MKG20060212010509902/12/06 01:05:31  5-MIN KMKG 120605Z 01003KT 10SM OVC043 M03/M08 A2999 570 68 -1500 010/03 RMK AO2
14840KMKG MKG20060212011009902/12/06 01:10:31  5-MIN KMKG 120610Z 36003KT 10SM OVC043 M04/M08 A2998 570 71 -1500 010/03 RMK AO2
14840KMKG MKG20060212011510602/12/06 01:15:31  5-MIN KMKG 120615Z 00000KT 10SM BKN043 OVC060 M04/M08 A2998 570 71 -1500 000/00 RMK AO2
14840KMKG MKG20060212012010602/12/06 01:20:31  5-MIN KMKG 120620Z 00000KT 10SM BKN045 OVC060 M04/M08 A2998 570 74 -1600 000/00 RMK AO2
14840KMKG MKG20060212012510602/12/06 01:25:31  5-MIN KMKG 120625Z 01003KT 10SM BKN045 OVC055 M04/M09 A2998 570 71 -1600 020/03 RMK AO2
14840KMKG MKG20060212013011302/12/06 01:30:31  5-MIN KMKG 120630Z 00000KT 10SM BKN045 BKN055 OVC070 M04/M08 A2998 580 71 -1500 000/00 RMK AO2
14840KMKG MKG20060212013511302/12/06 01:35:31  5-MIN KMKG 120635Z 00000KT 10SM SCT045 BKN055 OVC065 M04/M08 A2998 580 71 -1500 000/00 RMK AO2
14840KMKG MKG20060212014010602/12/06 01:40:31  5-MIN KMKG 120640Z 00000KT 10SM BKN045 OVC065 M03/M08 A2998 580 68 -1400 000/00 RMK AO2
14840KMKG MKG20060212014511302/12/06 01:45:31  5-MIN KMKG 120645Z 00000KT 10SM SCT045 BKN055 OVC065 M04/M08 A2998 580 71 -1500 000/00 RMK AO2
14840KMKG MKG20060212015012302/12/06 01:50:31  5-MIN KMKG 120650Z 00000KT 10SM BKN049 OVC065 M06/M09 A2997 580 77 -1700 000/00 RMK AO2 SLP160 T10561089
14840KMKG MKG20060212015512302/12/06 01:55:31  5-MIN KMKG 120655Z 00000KT 10SM BKN049 OVC065 M06/M09 A2997 580 81 -1800 000/00 RMK AO2 SLP159 T10611089
14840KMKG MKG20060212020010602/12/06 02:00:31  5-MIN KMKG 120700Z 11003KT 10SM BKN049 OVC070 M06/M08 A2997 580 81 -1700 110/03 RMK AO2
14840KMKG MKG20060212020510602/12/06 02:05:31  5-MIN KMKG 120705Z 00000KT 10SM BKN049 OVC070 M06/M08 A2997 580 84 -1800 000/00 RMK AO2
14840KMKG MKG20060212021010602/12/06 02:10:31  5-MIN KMKG 120710Z 12004KT 10SM BKN049 OVC065 M06/M08 A2997 580 84 -1800 120/04 RMK AO2
14840KMKG MKG20060212021510602/12/06 02:15:31  5-MIN KMKG 120715Z 12005KT 10SM BKN049 OVC070 M06/M08 A2997 580 84 -1800 120/05 RMK AO2
14840KMKG MKG20060212022010502/12/06 02:20:31  5-MIN KMKG 120720Z 11003KT 9SM BKN049 OVC070 M06/M08 A2997 580 88 -1800 120/03 RMK AO2
14840KMKG MKG20060212022510502/12/06 02:25:31  5-MIN KMKG 120725Z 12003KT 8SM BKN049 OVC070 M06/M08 A2997 590 84 -1700 120/03 RMK AO2
14840KMKG MKG20060212023010502/12/06 02:30:31  5-MIN KMKG 120730Z 11003KT 7SM BKN049 OVC060 M06/M08 A2997 590 88 -1800 110/03 RMK AO2
14840KMKG MKG20060212023510502/12/06 02:35:31  5-MIN KMKG 120735Z 10003KT 7SM BKN055 OVC070 M06/M08 A2997 590 88 -1800 100/03 RMK AO2
14840KMKG MKG20060212024010502/12/06 02:40:31  5-MIN KMKG 120740Z 00000KT 7SM BKN050 OVC070 M06/M08 A2997 590 88 -1800 000/00 RMK AO2
14840KMKG MKG20060212024511202/12/06 02:45:31  5-MIN KMKG 120745Z 00000KT 7SM SCT050 BKN060 OVC070 M06/M08 A2997 590 88 -1800 000/00 RMK AO2
14840KMKG MKG20060212025012902/12/06 02:50:31  5-MIN KMKG 120750Z 00000KT 7SM SCT050 BKN060 OVC070 M06/M08 A2997 590 88 -1800 000/00 RMK AO2 SLP156 T10611078
14840KMKG MKG20060212025512902/12/06 02:55:31  5-MIN KMKG 120755Z 00000KT 7SM FEW047 BKN055 OVC070 M06/M08 A2996 590 88 -1800 000/00 RMK AO2 SLP156 T10611078
14840KMKG MKG20060212030011202/12/06 03:00:31  5-MIN KMKG 120800Z 00000KT 7SM FEW047 SCT055 OVC070 M06/M08 A2996 590 84 -1800 000/00 RMK AO2
14840KMKG MKG20060212030510502/12/06 03:05:31  5-MIN KMKG 120805Z 00000KT 7SM SCT050 OVC070 M06/M08 A2996 590 84 -1700 000/00 RMK AO2
14840KMKG MKG20060212031010502/12/06 03:10:31  5-MIN KMKG 120810Z 00000KT 7SM SCT048 OVC065 M06/M08 A2996 590 84 -1700 000/00 RMK AO2
14840KMKG MKG20060212031510502/12/06 03:15:31  5-MIN KMKG 120815Z 00000KT 7SM SCT048 OVC070 M06/M08 A2996 590 84 -1700 000/00 RMK AO2
14840KMKG MKG20060212032010502/12/06 03:20:31  5-MIN KMKG 120820Z 00000KT 7SM FEW048 OVC070 M06/M08 A2996 590 84 -1700 000/00 RMK AO2
14840KMKG MKG20060212032510502/12/06 03:25:31  5-MIN KMKG 120825Z 00000KT 7SM FEW048 OVC070 M06/M08 A2996 590 88 -1800 000/00 RMK AO2
14840KMKG MKG20060212033010502/12/06 03:30:31  5-MIN KMKG 120830Z 00000KT 7SM FEW050 OVC070 M06/M08 A2996 590 84 -1800 000/00 RMK AO2
14840KMKG MKG20060212033509802/12/06 03:35:31  5-MIN KMKG 120835Z 00000KT 7SM OVC070 M06/M08 A2996 600 81 -1700 000/00 RMK AO2
14840KMKG MKG20060212034009802/12/06 03:40:31  5-MIN KMKG 120840Z 00000KT 7SM OVC065 M06/M08 A2996 600 84 -1700 000/00 RMK AO2
14840KMKG MKG20060212034510102/12/06 03:45:31  5-MIN KMKG 120845Z 00000KT 6SM BR OVC065 M06/M08 A2996 600 88 -1800 000/00 RMK AO2
14840KMKG MKG20060212035012402/12/06 03:50:31  5-MIN KMKG 120850Z 00000KT 6SM BR OVC065 M06/M08 A2995 600 84 -1700 000/00 RMK AO2 SLP153 T10561078 58013
14840KMKG MKG20060212035512402/12/06 03:55:31  5-MIN KMKG 120855Z 00000KT 6SM BR OVC065 M06/M08 A2995 600 84 -1700 000/00 RMK AO2 SLP152 T10561078 56012
14840KMKG MKG20060212040010102/12/06 04:00:31  5-MIN KMKG 120900Z 00000KT 6SM BR OVC065 M06/M08 A2995 600 84 -1700 000/00 RMK AO2
14840KMKG MKG20060212040510102/12/06 04:05:31  5-MIN KMKG 120905Z 00000KT 6SM BR OVC065 M06/M08 A2995 600 84 -1700 000/00 RMK AO2
14840KMKG MKG20060212041009802/12/06 04:10:31  5-MIN KMKG 120910Z 00000KT 7SM OVC065 M06/M08 A2995 600 84 -1700 000/00 RMK AO2
14840KMKG MKG20060212041509802/12/06 04:15:31  5-MIN KMKG 120915Z 00000KT 7SM OVC065 M06/M08 A2995 610 84 -1700 000/00 RMK AO2
14840KMKG MKG20060212042009802/12/06 04:20:31  5-MIN KMKG 120920Z 00000KT 7SM OVC065 M06/M08 A2995 610 84 -1700 000/00 RMK AO2
14840KMKG MKG20060212042509802/12/06 04:25:31  5-MIN KMKG 120925Z 00000KT 7SM OVC065 M06/M08 A2995 610 84 -1700 000/00 RMK AO2
14840KMKG MKG20060212043009802/12/06 04:30:31  5-MIN KMKG 120930Z 00000KT 8SM OVC065 M06/M08 A2994 610 84 -1700 000/00 RMK AO2
14840KMKG MKG20060212043509802/12/06 04:35:31  5-MIN KMKG 120935Z 00000KT 8SM OVC065 M06/M08 A2994 610 84 -1700 000/00 RMK AO2
14840KMKG MKG20060212044009802/12/06 04:40:31  5-MIN KMKG 120940Z 00000KT 7SM OVC065 M06/M08 A2994 610 84 -1700 000/00 RMK AO2
14840KMKG MKG20060212044510502/12/06 04:45:31  5-MIN KMKG 120945Z 00000KT 7SM SCT050 OVC065 M06/M08 A2994 610 84 -1700 000/00 RMK AO2
14840KMKG MKG20060212045012202/12/06 04:50:31  5-MIN KMKG 120950Z 00000KT 7SM SCT050 OVC065 M06/M08 A2994 610 84 -1700 000/00 RMK AO2 SLP148 T10561078
14840KMKG MKG20060212045512202/12/06 04:55:31  5-MIN KMKG 120955Z 00000KT 7SM SCT055 OVC065 M06/M08 A2994 610 84 -1700 000/00 RMK AO2 SLP147 T10561078
14840KMKG MKG20060212050010502/12/06 05:00:31  5-MIN KMKG 121000Z 00000KT 8SM BKN055 OVC065 M06/M08 A2994 610 84 -1700 000/00 RMK AO2
14840KMKG MKG20060212050510502/12/06 05:05:31  5-MIN KMKG 121005Z 00000KT 8SM BKN050 OVC065 M06/M08 A2994 610 84 -1700 000/00 RMK AO2
14840KMKG MKG20060212051010502/12/06 05:10:31  5-MIN KMKG 121010Z 00000KT 8SM BKN050 OVC065 M05/M08 A2994 610 81 -1600 000/00 RMK AO2
14840KMKG MKG20060212051509802/12/06 05:15:31  5-MIN KMKG 121015Z 00000KT 7SM OVC060 M05/M08 A2994 610 81 -1600 000/00 RMK AO2
14840KMKG MKG20060212052010502/12/06 05:20:31  5-MIN KMKG 121020Z 00000KT 7SM BKN055 OVC065 M05/M08 A2994 610 81 -1600 000/00 RMK AO2
14840KMKG MKG20060212052510502/12/06 05:25:31  5-MIN KMKG 121025Z 00000KT 7SM BKN055 OVC065 M06/M08 A2994 620 84 -1700 000/00 RMK AO2
14840KMKG MKG20060212053009802/12/06 05:30:31  5-MIN KMKG 121030Z 00000KT 7SM OVC060 M05/M08 A2994 610 81 -1600 000/00 RMK AO2
14840KMKG MKG20060212053510502/12/06 05:35:31  5-MIN KMKG 121035Z 00000KT 7SM BKN055 OVC065 M06/M08 A2994 610 84 -1700 000/00 RMK AO2
14840KMKG MKG20060212054009802/12/06 05:40:31  5-MIN KMKG 121040Z 00000KT 7SM OVC060 M05/M08 A2994 620 81 -1600 000/00 RMK AO2
14840KMKG MKG20060212054509802/12/06 05:45:31  5-MIN KMKG 121045Z 00000KT 8SM OVC060 M05/M08 A2994 620 81 -1600 000/00 RMK AO2
14840KMKG MKG20060212055011502/12/06 05:50:31  5-MIN KMKG 121050Z 00000KT 8SM OVC060 M05/M08 A2994 620 81 -1600 000/00 RMK AO2 SLP146 T10501078
14840KMKG MKG20060212055512202/12/06 05:55:31  5-MIN KMKG 121055Z 00000KT 8SM SCT055 OVC065 M05/M08 A2993 620 81 -1600 000/00 RMK AO2 SLP146 T10501078
14840KMKG MKG20060212060010502/12/06 06:00:31  5-MIN KMKG 121100Z 00000KT 8SM FEW055 OVC065 M05/M08 A2993 620 81 -1600 000/00 RMK AO2
14840KMKG MKG20060212060509802/12/06 06:05:31  5-MIN KMKG 121105Z 00000KT 8SM OVC065 M06/M08 A2993 620 84 -1700 000/00 RMK AO2
14840KMKG MKG20060212061009802/12/06 06:10:31  5-MIN KMKG 121110Z 00000KT 8SM OVC070 M06/M08 A2993 620 84 -1700 000/00 RMK AO2
14840KMKG MKG20060212061509802/12/06 06:15:31  5-MIN KMKG 121115Z 00000KT 8SM OVC065 M06/M08 A2993 620 84 -1700 000/00 RMK AO2
14840KMKG MKG20060212062009802/12/06 06:20:31  5-MIN KMKG 121120Z 00000KT 8SM OVC070 M06/M08 A2993 620 84 -1700 000/00 RMK AO2
14840KMKG MKG20060212062509802/12/06 06:25:31  5-MIN KMKG 121125Z 00000KT 7SM OVC070 M06/M08 A2993 620 84 -1700 000/00 RMK AO2
14840KMKG MKG20060212063009802/12/06 06:30:31  5-MIN KMKG 121130Z 00000KT 8SM OVC070 M06/M08 A2993 620 84 -1700 000/00 RMK AO2
14840KMKG MKG20060212063509802/12/06 06:35:31  5-MIN KMKG 121135Z 00000KT 8SM OVC070 M06/M08 A2993 620 84 -1700 000/00 RMK AO2
14840KMKG MKG20060212064009802/12/06 06:40:31  5-MIN KMKG 121140Z 00000KT 8SM OVC070 M06/M08 A2993 620 84 -1700 000/00 RMK AO2
14840KMKG MKG20060212064509802/12/06 06:45:31  5-MIN KMKG 121145Z 12004KT 9SM OVC070 M06/M08 A2993 620 81 -1700 130/04 RMK AO2
14840KMKG MKG20060212065014002/12/06 06:50:31  5-MIN KMKG 121150Z 11003KT 9SM FEW050 OVC070 M06/M08 A2993 620 84 -1800 120/03 RMK AO2 SLP146 T10611083 11028 21061 56012
14840KMKG MKG20060212065514602/12/06 06:55:31  5-MIN KMKG 121155Z 13003KT 8SM SCT050 OVC070 M06/M08 A2994 620 84 -1800 140/03 RMK AO2 SLP146 4/001 T10611083 11028 21061 56006
14840KMKG MKG20060212070010502/12/06 07:00:31  5-MIN KMKG 121200Z 00000KT 9SM SCT050 OVC070 M06/M08 A2993 620 84 -1800 000/00 RMK AO2
14840KMKG MKG20060212070510502/12/06 07:05:31  5-MIN KMKG 121205Z 00000KT 9SM SCT050 OVC070 M06/M08 A2994 620 84 -1700 000/00 RMK AO2
14840KMKG MKG20060212071010502/12/06 07:10:31  5-MIN KMKG 121210Z 00000KT 8SM SCT050 OVC070 M06/M08 A2994 620 88 -1800 000/00 RMK AO2
14840KMKG MKG20060212071510502/12/06 07:15:31  5-MIN KMKG 121215Z 18003KT 8SM SCT050 OVC070 M06/M08 A2993 620 88 -1800 190/03 RMK AO2
14840KMKG MKG20060212072010502/12/06 07:20:31  5-MIN KMKG 121220Z 00000KT 8SM FEW050 OVC065 M06/M08 A2994 620 88 -1800 000/00 RMK AO2
14840KMKG MKG20060212072510502/12/06 07:25:31  5-MIN KMKG 121225Z 00000KT 8SM FEW050 OVC065 M06/M08 A2994 610 84 -1700 000/00 RMK AO2
14840KMKG MKG20060212073010502/12/06 07:30:31  5-MIN KMKG 121230Z 10003KT 9SM FEW050 OVC065 M06/M08 A2994 620 84 -1700 100/03 RMK AO2
14840KMKG MKG20060212073509802/12/06 07:35:31  5-MIN KMKG 121235Z 09003KT 8SM OVC065 M06/M08 A2994 610 88 -1800 100/03 RMK AO2
14840KMKG MKG20060212074009802/12/06 07:40:31  5-MIN KMKG 121240Z 09003KT 8SM OVC065 M06/M08 A2994 610 84 -1700 090/03 RMK AO2
14840KMKG MKG20060212074509802/12/06 07:45:31  5-MIN KMKG 121245Z 08004KT 7SM OVC065 M06/M08 A2994 610 84 -1700 090/04 RMK AO2
14840KMKG MKG20060212075011802/12/06 07:50:31  5-MIN KMKG 121250Z 09003KT 6SM BR OVC065 M06/M08 A2994 610 84 -1700 100/03 RMK AO2 SLP148 T10561078
14840KMKG MKG20060212075511802/12/06 07:55:31  5-MIN KMKG 121255Z 00000KT 6SM BR OVC065 M06/M08 A2994 610 84 -1700 000/00 RMK AO2 SLP148 T10561078
14840KMKG MKG20060212080010802/12/06 08:00:31  5-MIN KMKG 121300Z 11003KT 6SM BR FEW049 OVC065 M06/M08 A2994 610 88 -1800 110/03 RMK AO2
14840KMKG MKG20060212080510802/12/06 08:05:31  5-MIN KMKG 121305Z 00000KT 5SM BR SCT049 OVC065 M06/M08 A2994 610 88 -1800 000/00 RMK AO2
14840KMKG MKG20060212081010802/12/06 08:10:31  5-MIN KMKG 121310Z 00000KT 5SM BR SCT049 OVC060 M06/M08 A2995 610 88 -1800 000/00 RMK AO2
14840KMKG MKG20060212081510802/12/06 08:15:31  5-MIN KMKG 121315Z 11003KT 5SM BR BKN049 OVC060 M06/M08 A2995 610 88 -1800 110/03 RMK AO2
14840KMKG MKG20060212082010802/12/06 08:20:31  5-MIN KMKG 121320Z 00000KT 5SM BR BKN047 OVC060 M06/M08 A2995 610 88 -1800 000/00 RMK AO2
14840KMKG MKG20060212082511502/12/06 08:25:31  5-MIN KMKG 121325Z 00000KT 5SM BR BKN047 BKN060 OVC075 M06/M08 A2995 610 88 -1800 000/00 RMK AO2
14840KMKG MKG20060212083011502/12/06 08:30:31  5-MIN KMKG 121330Z 00000KT 5SM BR BKN047 BKN060 OVC075 M06/M08 A2995 610 84 -1800 000/00 RMK AO2
14840KMKG MKG20060212083511502/12/06 08:35:31  5-MIN KMKG 121335Z 00000KT 5SM BR BKN047 BKN060 OVC075 M06/M08 A2995 610 84 -1800 000/00 RMK AO2
14840KMKG MKG20060212084010802/12/06 08:40:31  5-MIN KMKG 121340Z 00000KT 5SM BR SCT045 OVC075 M06/M08 A2995 610 84 -1800 000/00 RMK AO2
14840KMKG MKG20060212084510802/12/06 08:45:31  5-MIN KMKG 121345Z 07003KT 5SM BR SCT045 OVC075 M06/M08 A2995 610 84 -1800 070/03 RMK AO2
14840KMKG MKG20060212085012502/12/06 08:50:31  5-MIN KMKG 121350Z 00000KT 5SM HZ BKN045 OVC075 M06/M08 A2995 610 81 -1700 000/00 RMK AO2 SLP151 T10561083
14840KMKG MKG20060212085512502/12/06 08:55:31  5-MIN KMKG 121355Z 00000KT 5SM BR BKN045 OVC075 M06/M08 A2995 600 81 -1700 000/00 RMK AO2 SLP151 T10561083
14840KMKG MKG20060212090010802/12/06 09:00:31  5-MIN KMKG 121400Z 00000KT 5SM BR BKN047 OVC075 M06/M08 A2995 600 84 -1700 000/00 RMK AO2
14840KMKG MKG20060212090510802/12/06 09:05:31  5-MIN KMKG 121405Z 00000KT 5SM BR BKN047 OVC075 M06/M08 A2995 600 84 -1700 000/00 RMK AO2
14840KMKG MKG20060212091011502/12/06 09:10:31  5-MIN KMKG 121410Z 00000KT 5SM BR BKN047 BKN060 OVC075 M06/M08 A2995 600 84 -1700 000/00 RMK AO2
14840KMKG MKG20060212091511502/12/06 09:15:31  5-MIN KMKG 121415Z 00000KT 5SM HZ SCT047 BKN055 OVC075 M05/M08 A2995 600 81 -1600 000/00 RMK AO2
14840KMKG MKG20060212092011502/12/06 09:20:31  5-MIN KMKG 121420Z 00000KT 5SM HZ FEW045 BKN055 OVC075 M05/M08 A2995 600 81 -1600 000/00 RMK AO2
14840KMKG MKG20060212092510802/12/06 09:25:31  5-MIN KMKG 121425Z 00000KT 6SM HZ BKN055 OVC075 M05/M08 A2995 600 81 -1600 000/00 RMK AO2
14840KMKG MKG20060212093010802/12/06 09:30:31  5-MIN KMKG 121430Z 00000KT 6SM HZ BKN055 OVC075 M05/M08 A2995 600 81 -1600 000/00 RMK AO2
14840KMKG MKG20060212093510102/12/06 09:35:31  5-MIN KMKG 121435Z 00000KT 6SM HZ OVC055 M05/M08 A2995 600 81 -1600 000/00 RMK AO2
14840KMKG MKG20060212094010102/12/06 09:40:31  5-MIN KMKG 121440Z 00000KT 6SM HZ OVC055 M05/M08 A2995 600 81 -1600 000/00 RMK AO2
14840KMKG MKG20060212094509802/12/06 09:45:31  5-MIN KMKG 121445Z 00000KT 7SM OVC055 M04/M08 A2995 600 78 -1600 000/00 RMK AO2
14840KMKG MKG20060212095012102/12/06 09:50:31  5-MIN KMKG 121450Z 00000KT 8SM OVC055 M04/M08 A2995 600 78 -1600 000/00 RMK AO2 SLP152 T10441078 56006
14840KMKG MKG20060212095512102/12/06 09:55:31  5-MIN KMKG 121455Z 00000KT 7SM OVC055 M04/M08 A2995 600 78 -1600 000/00 RMK AO2 SLP152 T10441078 51006
14840KMKG MKG20060212100009802/12/06 10:00:31  5-MIN KMKG 121500Z 00000KT 7SM OVC055 M04/M07 A2995 600 78 -1500 000/00 RMK AO2
14840KMKG MKG20060212100510102/12/06 10:05:31  5-MIN KMKG 121505Z 00000KT 6SM HZ OVC050 M04/M07 A2995 600 78 -1500 000/00 RMK AO2
14840KMKG MKG20060212101010102/12/06 10:10:31  5-MIN KMKG 121510Z 00000KT 6SM HZ OVC050 M04/M07 A2995 600 78 -1500 000/00 RMK AO2
14840KMKG MKG20060212101509802/12/06 10:15:31  5-MIN KMKG 121515Z 00000KT 7SM OVC050 M03/M07 A2995 600 74 -1400 000/00 RMK AO2
14840KMKG MKG20060212102009802/12/06 10:20:31  5-MIN KMKG 121520Z 00000KT 8SM OVC050 M03/M07 A2995 600 75 -1300 000/00 RMK AO2
14840KMKG MKG20060212102509802/12/06 10:25:31  5-MIN KMKG 121525Z 00000KT 8SM OVC050 M03/M06 A2995 600 78 -1300 000/00 RMK AO2
14840KMKG MKG20060212103009802/12/06 10:30:31  5-MIN KMKG 121530Z 00000KT 9SM OVC050 M02/M06 A2995 600 75 -1300 000/00 RMK AO2
14840KMKG MKG20060212103509802/12/06 10:35:31  5-MIN KMKG 121535Z 00000KT 9SM OVC055 M02/M06 A2995 600 78 -1300 000/00 RMK AO2
14840KMKG MKG20060212104010602/12/06 10:40:31  5-MIN KMKG 121540Z 34003KT 10SM BKN055 OVC080 M02/M06 A2995 600 75 -1200 350/03 RMK AO2
14840KMKG MKG20060212104510602/12/06 10:45:31  5-MIN KMKG 121545Z 34005KT 10SM BKN055 OVC080 M02/M06 A2995 600 75 -1200 340/05 RMK AO2
14840KMKG MKG20060212105012302/12/06 10:50:31  5-MIN KMKG 121550Z 34006KT 10SM BKN060 OVC080 M02/M06 A2995 600 75 -1200 350/06 RMK AO2 SLP151 T10171056
14840KMKG MKG20060212105513002/12/06 10:55:31  5-MIN KMKG 121555Z 32006KT 10SM SCT050 BKN065 OVC080 M02/M06 A2995 600 78 -1300 330/06 RMK AO2 SLP151 T10221056
14840KMKG MKG20060212110010602/12/06 11:00:31  5-MIN KMKG 121600Z 35005KT 10SM BKN055 OVC080 M02/M05 A2995 600 78 -1200 350/05 RMK AO2
14840KMKG MKG20060212110510602/12/06 11:05:31  5-MIN KMKG 121605Z 34006KT 10SM BKN055 OVC080 M02/M06 A2995 600 75 -1200 340/06 RMK AO2
14840KMKG MKG20060212111010602/12/06 11:10:31  5-MIN KMKG 121610Z 35005KT 10SM BKN050 OVC065 M02/M06 A2995 600 75 -1200 360/05 RMK AO2
14840KMKG MKG20060212111510602/12/06 11:15:31  5-MIN KMKG 121615Z 36004KT 10SM BKN050 OVC065 M01/M05 A2995 600 75 -1100 360/04 RMK AO2
14840KMKG MKG20060212112010602/12/06 11:20:31  5-MIN KMKG 121620Z 36006KT 10SM BKN050 OVC065 M01/M05 A2995 600 75 -1100 360/06 RMK AO2
14840KMKG MKG20060212112509902/12/06 11:25:31  5-MIN KMKG 121625Z 36004KT 10SM OVC050 M01/M05 A2996 600 75 -1100 360/04 RMK AO2
14840KMKG MKG20060212113010602/12/06 11:30:31  5-MIN KMKG 121630Z 34005KT 10SM FEW016 OVC050 M01/M04 A2996 600 75 -1100 350/05 RMK AO2
14840KMKG MKG20060212113512802/12/06 11:35:31  5-MIN KMKG 121635Z 33005KT 6SM -SN SCT018 SCT040 OVC050 M01/M04 A2996 600 78 -1100 340/05 RMK AO2 SNB35 P0000
14840KMKG MKG20060212114014302/12/06 11:40:31  5-MIN KMKG 121640Z 31004KT 3SM -SN SCT018 BKN039 OVC050 M02/M04 A2996 600 81 -1200 310/04 RMK AO2 SNB35 CIG 016 RWY 14 P0000
14840KMKG MKG20060212114514302/12/06 11:45:31  5-MIN KMKG 121645Z 30004KT 3SM -SN FEW018 BKN033 OVC050 M02/M04 A2996 600 81 -1200 300/04 RMK AO2 SNB35 CIG 016 RWY 14 P0000
14840KMKG MKG20060212115014302/12/06 11:50:31  5-MIN KMKG 121650Z 28005KT 3SM -SN FEW016 BKN026 OVC040 M02/M04 A2996 600 81 -1200 290/05 RMK AO2 SNB35 CIG 016 RWY 14 P0000
14840KMKG MKG20060212115515202/12/06 11:55:31  5-MIN KMKG 121655Z 29005KT 1SM -SN BKN018 OVC040 M02/M04 A2996 590 81 -1200 290/05 RMK AO2 SFC VIS 2 1/2 SNB35 SLP154 P0000 T10171044
14840KMKG MKG20060212120013802/12/06 12:00:31  5-MIN KMKG 121700Z 31006KT 1/2SM SN FZFG SCT006 BKN014 OVC027 M02/M04 A2996 590 88 -1300 310/06 RMK AO2 TWR VIS 1 P0000
14840KMKG MKG20060212120513802/12/06 12:05:31  5-MIN KMKG 121705Z 31004KT 1/4SM SN FZFG SCT002 BKN008 OVC023 M02/M04 A2996 590 88 -1300 310/04 RMK AO2 TWR VIS 1 P0000
14840KMKG MKG20060212121013802/12/06 12:10:31  5-MIN KMKG 121710Z 34003KT 1/4SM SN FZFG SCT002 BKN010 OVC023 M02/M03 A2996 590 92 -1300 350/03 RMK AO2 TWR VIS 1 P0001
14840KMKG MKG20060212121512502/12/06 12:15:31  5-MIN KMKG 121715Z 02003KT 1SM -SN BR SCT002 BKN010 OVC022 M02/M03 A2996 590 92 -1300 030/03 RMK AO2 P0001
14840KMKG MKG20060212122012502/12/06 12:20:31  5-MIN KMKG 121720Z 00000KT 1SM -SN BR SCT002 BKN010 OVC022 M02/M04 A2996 590 88 -1300 000/00 RMK AO2 P0002
14840KMKG MKG20060212122512502/12/06 12:25:31  5-MIN KMKG 121725Z 29004KT 2SM -SN BR SCT002 BKN010 OVC024 M02/M04 A2996 590 85 -1300 290/04 RMK AO2 P0002
14840KMKG MKG20060212123014402/12/06 12:30:31  5-MIN KMKG 121730Z 31004KT 2 1/2SM -SN BR FEW002 BKN020 OVC024 M02/M04 A2996 600 85 -1300 320/04 RMK AO2 CIG 014 RWY 14 P0002
14840KMKG MKG20060212123513702/12/06 12:35:31  5-MIN KMKG 121735Z 30003KT 2SM -SN SCT010 SCT015 OVC022 M02/M04 A2996 600 81 -1200 300/03 RMK AO2 CIG 017 RWY 14 P0002
14840KMKG MKG20060212124012202/12/06 12:40:31  5-MIN KMKG 121740Z 31007KT 1 3/4SM -SN BR BKN012 OVC022 M02/M04 A2996 600 85 -1200 310/07 RMK AO2 P0002
14840KMKG MKG20060212124512202/12/06 12:45:31  5-MIN KMKG 121745Z 32005KT 1 1/4SM -SN BR BKN012 OVC022 M02/M04 A2996 600 88 -1300 320/05 RMK AO2 P0002
14840KMKG MKG20060212125016302/12/06 12:50:31  5-MIN KMKG 121750Z 31004KT 1 1/4SM -SN BR BKN012 OVC022 M02/M04 A2995 600 85 -1200 310/04 RMK AO2 SLP152 P0002 60002 T10171039 11006 21061 51006
14840KMKG MKG20060212125518602/12/06 12:55:31  5-MIN KMKG 121755Z 00000KT 2 1/2SM -SN BR BKN012 OVC022 M02/M04 A2995 600 85 -1200 000/00 RMK AO2 VIS 1 3/4 RWY 14 SLP151 P0002 60002 4/002 T10171039 11006 21061 50000
14840KMKG MKG20060212130012202/12/06 13:00:31  5-MIN KMKG 121800Z 01004KT 6SM -SN SCT012 BKN028 BKN080 M01/M04 A2995 600 78 -1100 010/04 RMK AO2 P0000
14840KMKG MKG20060212130513502/12/06 13:05:31  5-MIN KMKG 121805Z 01005KT 5SM -SN SCT012 BKN028 BKN080 M01/M04 A2995 600 75 -1100 010/05 RMK AO2 VIS 2 RWY 14 P0000
14840KMKG MKG20060212131013902/12/06 13:10:31  5-MIN KMKG 121810Z 36007KT 3SM -SN FEW012 BKN028 BKN080 M01/M04 A2995 610 81 -1100 010/07 RMK AO2 VIS 2 1/2 RWY 14 P0000
14840KMKG MKG20060212131512502/12/06 13:15:31  5-MIN KMKG 121815Z 36006KT 4SM -SN BR SCT019 BKN039 OVC055 M02/M04 A2995 610 85 -1200 010/06 RMK AO2 P0000
14840KMKG MKG20060212132012402/12/06 13:20:31  5-MIN KMKG 121820Z 01005KT 9SM SCT019 BKN039 BKN055 M01/M04 A2995 610 81 -1100 020/05 RMK AO2 SNE19 P0000
14840KMKG MKG20060212132512202/12/06 13:25:31  5-MIN KMKG 121825Z 36005KT 9SM -SN SCT019 BKN039 BKN055 M01/M04 A2994 610 81 -1100 010/05 RMK AO2 P0000
14840KMKG MKG20060212133012202/12/06 13:30:31  5-MIN KMKG 121830Z 35004KT 9SM -SN SCT019 BKN039 BKN055 M01/M05 A2994 610 75 -1100 350/04 RMK AO2 P0000
14840KMKG MKG20060212133512202/12/06 13:35:31  5-MIN KMKG 121835Z VRB04KT 9SM -SN SCT019 BKN039 BKN055 M01/M04 A2994 610 78 -1100 VRB/04 RMK AO2 P0000
14840KMKG MKG20060212134012402/12/06 13:40:31  5-MIN KMKG 121840Z 35004KT 9SM SCT019 BKN039 BKN055 M01/M05 A2994 610 75 -1100 350/04 RMK AO2 SNE36 P0000
14840KMKG MKG20060212134512502/12/06 13:45:31  5-MIN KMKG 121845Z VRB03KT 10SM SCT019 BKN039 BKN055 M01/M05 A2994 610 75 -1100 VRB/03 RMK AO2 SNE36 P0000
14840KMKG MKG20060212135012502/12/06 13:50:31  5-MIN KMKG 121850Z 27011KT 10SM SCT019 BKN027 OVC060 M01/M05 A2994 620 75 -1100 280/11 RMK AO2 SNE36 P0000
14840KMKG MKG20060212135514202/12/06 13:55:31  5-MIN KMKG 121855Z 27009KT 10SM SCT019 BKN028 OVC060 M02/M04 A2994 610 81 -1200 270/09 RMK AO2 SNE36 SLP147 P0000 T10171044
14840KMKG MKG20060212140011302/12/06 14:00:31  5-MIN KMKG 121900Z 27008KT 10SM SCT019 BKN028 OVC060 M02/M04 A2994 610 81 -1200 280/08 RMK AO2
14840KMKG MKG20060212140511302/12/06 14:05:31  5-MIN KMKG 121905Z 27007KT 10SM SCT019 BKN028 OVC060 M02/M04 A2994 610 81 -1200 270/07 RMK AO2
14840KMKG MKG20060212141011302/12/06 14:10:31  5-MIN KMKG 121910Z 27008KT 10SM FEW019 BKN043 OVC070 M02/M04 A2994 620 81 -1200 270/08 RMK AO2
14840KMKG MKG20060212141511302/12/06 14:15:31  5-MIN KMKG 121915Z 27007KT 10SM FEW017 BKN043 BKN070 M02/M04 A2993 620 81 -1200 280/07 RMK AO2
14840KMKG MKG20060212142011302/12/06 14:20:31  5-MIN KMKG 121920Z 27007KT 10SM FEW017 BKN043 BKN070 M02/M04 A2994 620 81 -1200 280/07 RMK AO2
14840KMKG MKG20060212142512802/12/06 14:25:31  5-MIN KMKG 121925Z 28008KT 6SM -SN FEW017 BKN043 BKN070 M02/M04 A2994 620 81 -1200 290/08 RMK AO2 SNB23 P0000
14840KMKG MKG20060212143013102/12/06 14:30:31  5-MIN KMKG 121930Z 30007KT 2SM -SN BR SCT017 BKN032 OVC070 M02/M04 A2993 620 85 -1200 300/07 RMK AO2 SNB23 P0000
14840KMKG MKG20060212143512802/12/06 14:35:31  5-MIN KMKG 121935Z 31007KT 2SM -SN BKN014 BKN030 OVC050 M01/M04 A2993 620 81 -1100 310/07 RMK AO2 SNB23 P0000
14840KMKG MKG20060212144015002/12/06 14:40:31  5-MIN KMKG 121940Z 32012G17KT 3SM -SN BR SCT011 BKN014 OVC055 M02/M04 A2993 620 85 -1200 320/12G17 RMK AO2 VIS 2 RWY 14 SNB23 P0000
14840KMKG MKG20060212144513502/12/06 14:45:31  5-MIN KMKG 121945Z 31013KT 2 1/2SM -SN BR SCT011 BKN014 OVC055 M02/M04 A2993 620 85 -1200 310/13 RMK AO2 SNB23 P0000
14840KMKG MKG20060212145014102/12/06 14:50:31  5-MIN KMKG 121950Z 31011KT 1SM -SN BR BKN011 OVC036 M02/M04 A2993 620 85 -1200 310/11 RMK AO2 SNB23 SLP145 P0000 T10171039
14840KMKG MKG20060212145514602/12/06 14:55:31  5-MIN KMKG 121955Z 30013KT 1/2SM SN FZFG BKN011 OVC026 M02/M04 A2993 620 88 -1300 310/13 RMK AO2 SNB23 SLP145 P0000 T10221039 $
14840KMKG MKG20060212150012302/12/06 15:00:31  5-MIN KMKG 122000Z 30009KT 1/4SM SN FZFG SCT003 OVC011 M02/M04 A2993 620 88 -1300 310/09 RMK AO2 P0000 $
14840KMKG MKG20060212150512302/12/06 15:05:31  5-MIN KMKG 122005Z 30008KT 1/2SM SN FZFG SCT003 OVC011 M02/M04 A2993 620 88 -1300 310/08 RMK AO2 P0000 $
14840KMKG MKG20060212151012102/12/06 15:10:31  5-MIN KMKG 122010Z 30010KT 1/4SM SN FZFG SCT003 OVC011 M02/M04 A2993 620 88 -1300 310/10 RMK AO2 P0000
14840KMKG MKG20060212151512102/12/06 15:15:31  5-MIN KMKG 122015Z 32009KT 1/4SM SN FZFG SCT003 OVC011 M02/M04 A2993 620 88 -1300 320/09 RMK AO2 P0000
14840KMKG MKG20060212152012102/12/06 15:20:31  5-MIN KMKG 122020Z 32007KT 1/4SM SN FZFG SCT003 OVC011 M02/M04 A2994 620 88 -1300 320/07 RMK AO2 P0000
14840KMKG MKG20060212152511802/12/06 15:25:31  5-MIN KMKG 122025Z 32007KT 1SM -SN BR SCT003 OVC011 M02/M04 A2994 620 88 -1300 320/07 RMK AO2 P0000
14840KMKG MKG20060212153011802/12/06 15:30:31  5-MIN KMKG 122030Z 32008KT 1SM -SN BR SCT003 OVC011 M02/M04 A2994 610 88 -1300 320/08 RMK AO2 P0000
14840KMKG MKG20060212153513602/12/06 15:35:31  5-MIN KMKG 122035Z 31008KT 1 3/4SM -SN BR SCT003 OVC011 M02/M04 A2994 610 85 -1200 320/08 RMK AO2 TWR VIS 2 1/2 P0000
14840KMKG MKG20060212154013102/12/06 15:40:31  5-MIN KMKG 122040Z 33012G15KT 2SM -SN SCT003 OVC011 M02/M05 A2994 620 78 -1200 340/12G15 RMK AO2 SFC VIS 3 P0000
14840KMKG MKG20060212154513102/12/06 15:45:31  5-MIN KMKG 122045Z 33011G15KT 2SM -SN SCT003 OVC011 M01/M05 A2994 610 75 -1100 340/11G15 RMK AO2 SFC VIS 7 P0000
14840KMKG MKG20060212155015602/12/06 15:50:31  5-MIN KMKG 122050Z 33013KT 2SM SCT003 OVC011 M01/M06 A2994 610 72 -1100 330/13 RMK AO2 SFC VIS 9 SNE47 SLP147 P0000 60000 T10111056 50000
14840KMKG MKG20060212155514502/12/06 15:55:31  5-MIN KMKG 122055Z 33014KT 10SM -SN SCT003 OVC011 M01/M06 A2994 610 69 -1100 330/14 RMK AO2 SLP148 P0000 60000 T10111061 55003
14840KMKG MKG20060212160011602/12/06 16:00:31  5-MIN KMKG 122100Z 32014KT 10SM -SN BKN023 OVC044 M01/M06 A2994 610 69 -1100 330/14 RMK AO2 P0000
14840KMKG MKG20060212160512902/12/06 16:05:31  5-MIN KMKG 122105Z 33014G19KT 10SM -SN SCT023 BKN028 OVC046 M02/M06 A2994 610 72 -1200 330/14G19 RMK AO2 P0000
14840KMKG MKG20060212161012802/12/06 16:10:31  5-MIN KMKG 122110Z 33015G19KT 9SM -SN SCT025 BKN031 OVC046 M02/M06 A2994 610 72 -1200 340/15G19 RMK AO2 P0000
14840KMKG MKG20060212161512802/12/06 16:15:31  5-MIN KMKG 122115Z 33013G19KT 9SM -SN SCT025 BKN039 OVC046 M02/M06 A2994 610 72 -1200 330/13G19 RMK AO2 P0000
14840KMKG MKG20060212162012102/12/06 16:20:31  5-MIN KMKG 122120Z 32013G18KT 9SM -SN FEW025 OVC044 M02/M06 A2994 610 72 -1200 320/13G18 RMK AO2 P0000
14840KMKG MKG20060212162512802/12/06 16:25:31  5-MIN KMKG 122125Z 32014G19KT 9SM -SN FEW025 BKN041 OVC048 M02/M06 A2995 610 72 -1200 320/14G19 RMK AO2 P0000
14840KMKG MKG20060212163012802/12/06 16:30:31  5-MIN KMKG 122130Z 31012G19KT 9SM -SN FEW025 BKN041 OVC048 M02/M06 A2994 610 72 -1200 320/12G19 RMK AO2 P0000
14840KMKG MKG20060212163512202/12/06 16:35:31  5-MIN KMKG 122135Z 31013KT 8SM -SN FEW022 BKN040 OVC047 M02/M06 A2995 610 75 -1200 320/13 RMK AO2 P0000
14840KMKG MKG20060212164012202/12/06 16:40:31  5-MIN KMKG 122140Z 32012KT 7SM -SN FEW024 BKN033 OVC044 M02/M06 A2995 610 75 -1200 330/12 RMK AO2 P0000
14840KMKG MKG20060212164512202/12/06 16:45:31  5-MIN KMKG 122145Z 32012KT 8SM -SN FEW021 BKN037 OVC044 M02/M06 A2994 610 72 -1200 320/12 RMK AO2 P0000
14840KMKG MKG20060212165014502/12/06 16:50:31  5-MIN KMKG 122150Z 32014G17KT 9SM -SN FEW021 BKN037 OVC055 M02/M06 A2995 610 72 -1200 320/14G17 RMK AO2 SLP150 P0000 T10171061
14840KMKG MKG20060212165513902/12/06 16:55:31  5-MIN KMKG 122155Z 32012KT 9SM -SN FEW021 BKN044 OVC055 M02/M06 A2994 610 72 -1200 320/12 RMK AO2 SLP149 P0000 T10171061
14840KMKG MKG20060212170012802/12/06 17:00:31  5-MIN KMKG 122200Z 33016G19KT 9SM -SN FEW021 SCT035 OVC055 M02/M06 A2995 610 72 -1200 330/16G19 RMK AO2 P0000
14840KMKG MKG20060212170512102/12/06 17:05:31  5-MIN KMKG 122205Z 32012G19KT 9SM -SN FEW021 OVC055 M02/M06 A2995 610 72 -1200 330/12G19 RMK AO2 P0000
14840KMKG MKG20060212171011602/12/06 17:10:31  5-MIN KMKG 122210Z 32009KT 10SM -SN FEW023 OVC055 M02/M06 A2995 610 72 -1200 320/09 RMK AO2 P0000
14840KMKG MKG20060212171512102/12/06 17:15:31  5-MIN KMKG 122215Z 32015G19KT 9SM -SN FEW022 OVC055 M02/M06 A2995 610 72 -1200 330/15G19 RMK AO2 P0000
14840KMKG MKG20060212172012102/12/06 17:20:31  5-MIN KMKG 122220Z 32012G19KT 9SM -SN FEW020 OVC055 M02/M06 A2995 600 75 -1300 330/12G19 RMK AO2 P0000
14840KMKG MKG20060212172511502/12/06 17:25:31  5-MIN KMKG 122225Z 32010KT 9SM -SN FEW020 OVC055 M02/M06 A2995 610 75 -1300 320/10 RMK AO2 P0000
14840KMKG MKG20060212173011502/12/06 17:30:31  5-MIN KMKG 122230Z 32009KT 9SM -SN FEW020 OVC055 M02/M06 A2995 600 75 -1300 330/09 RMK AO2 P0000
14840KMKG MKG20060212173512802/12/06 17:35:31  5-MIN KMKG 122235Z 33011G17KT 9SM -SN SCT020 SCT046 OVC055 M02/M06 A2996 600 75 -1300 330/11G17 RMK AO2 P0000
14840KMKG MKG20060212174012202/12/06 17:40:31  5-MIN KMKG 122240Z 33012KT 9SM -SN SCT020 BKN046 OVC055 M02/M06 A2996 590 75 -1300 330/12 RMK AO2 P0000
14840KMKG MKG20060212174511702/12/06 17:45:31  5-MIN KMKG 122245Z 33011KT 9SM SCT022 BKN055 M02/M06 A2996 590 75 -1300 330/11 RMK AO2 SNE44 P0000
14840KMKG MKG20060212175013502/12/06 17:50:31  5-MIN KMKG 122250Z 32009KT 10SM SCT022 OVC055 M02/M07 A2996 600 72 -1300 320/09 RMK AO2 SNE44 SLP153 P0000 T10221067
14840KMKG MKG20060212175513502/12/06 17:55:31  5-MIN KMKG 122255Z 33014KT 10SM SCT022 OVC055 M02/M07 A2996 600 72 -1300 330/14 RMK AO2 SNE44 SLP154 P0000 T10221067
14840KMKG MKG20060212180010602/12/06 18:00:31  5-MIN KMKG 122300Z 32010KT 10SM SCT022 OVC055 M02/M07 A2996 590 72 -1300 320/10 RMK AO2
14840KMKG MKG20060212180511902/12/06 18:05:31  5-MIN KMKG 122305Z 32010G15KT 10SM FEW022 SCT044 OVC055 M02/M07 A2996 590 72 -1300 320/10G15 RMK AO2
14840KMKG MKG20060212181011302/12/06 18:10:31  5-MIN KMKG 122310Z 32013KT 10SM FEW022 SCT044 OVC055 M02/M07 A2996 590 72 -1300 330/13 RMK AO2
14840KMKG MKG20060212181510602/12/06 18:15:31  5-MIN KMKG 122315Z 32012KT 10SM FEW044 BKN055 M02/M07 A2996 590 72 -1300 320/12 RMK AO2
14840KMKG MKG20060212182010602/12/06 18:20:31  5-MIN KMKG 122320Z 32013KT 10SM FEW044 OVC055 M03/M07 A2997 590 75 -1400 330/13 RMK AO2
14840KMKG MKG20060212182511202/12/06 18:25:31  5-MIN KMKG 122325Z 33014G18KT 10SM FEW044 OVC055 M03/M07 A2997 590 75 -1400 330/14G18 RMK AO2
14840KMKG MKG20060212183011202/12/06 18:30:31  5-MIN KMKG 122330Z 32010G18KT 10SM FEW044 OVC055 M02/M07 A2997 590 72 -1300 330/10G18 RMK AO2
14840KMKG MKG20060212183509902/12/06 18:35:31  5-MIN KMKG 122335Z 32011KT 10SM OVC055 M03/M07 A2997 580 75 -1400 330/11 RMK AO2
14840KMKG MKG20060212184009902/12/06 18:40:31  5-MIN KMKG 122340Z 33011KT 10SM OVC055 M02/M07 A2997 580 72 -1300 330/11 RMK AO2
14840KMKG MKG20060212184511502/12/06 18:45:31  5-MIN KMKG 122345Z 32010KT 10SM -SN OVC055 M02/M06 A2997 580 75 -1300 330/10 RMK AO2 SNB42 P0000
14840KMKG MKG20060212185016202/12/06 18:50:31  5-MIN KMKG 122350Z 33015KT 9SM -SN FEW038 OVC055 M02/M06 A2998 580 75 -1300 330/15 RMK AO2 SNB42 SLP160 P0000 60000 T10221061 11006 21028 55003
14840KMKG MKG20060212185518302/12/06 18:55:31  5-MIN KMKG 122355Z 33012KT 8SM -SN FEW038 OVC055 M02/M06 A2997 580 75 -1300 330/12 RMK AO2 SNB42 CIG 046 RWY 14 SLP160 P0000 60000 4/002 T10221061 11006 21028 53011
14840KMKG MKG20060212190011502/12/06 19:00:31  5-MIN KMKG 130000Z 33011KT 5SM -SN FEW038 OVC055 M03/M06 A2998 580 81 -1400 330/11 RMK AO2 P0000
14840KMKG MKG20060212190512202/12/06 19:05:31  5-MIN KMKG 130005Z 32011KT 6SM -SN FEW038 BKN055 OVC070 M02/M06 A2998 580 78 -1300 320/11 RMK AO2 P0000
14840KMKG MKG20060212191012802/12/06 19:10:31  5-MIN KMKG 130010Z 33014G18KT 9SM -SN FEW040 BKN055 OVC070 M02/M06 A2998 580 78 -1300 330/14G18 RMK AO2 P0000
14840KMKG MKG20060212191514302/12/06 19:15:31  5-MIN KMKG 130015Z 31009G18KT 9SM -SN FEW034 SCT045 OVC060 M02/M06 A2998 570 78 -1300 320/09G18 RMK AO2 CIG 046 RWY 14 P0000
14840KMKG MKG20060212192011502/12/06 19:20:31  5-MIN KMKG 130020Z 31011KT 9SM -SN BKN048 OVC060 M02/M06 A2998 580 75 -1300 320/11 RMK AO2 P0000
14840KMKG MKG20060212192511502/12/06 19:25:31  5-MIN KMKG 130025Z 30011KT 9SM -SN FEW044 OVC060 M02/M06 A2998 570 75 -1300 310/11 RMK AO2 P0000
14840KMKG MKG20060212193011502/12/06 19:30:31  5-MIN KMKG 130030Z 30010KT 9SM -SN FEW028 OVC055 M02/M06 A2999 570 75 -1300 310/10 RMK AO2 P0000
14840KMKG MKG20060212193511502/12/06 19:35:31  5-MIN KMKG 130035Z 30010KT 9SM -SN FEW026 OVC060 M02/M06 A2999 570 75 -1300 310/10 RMK AO2 P0000
14840KMKG MKG20060212194012202/12/06 19:40:31  5-MIN KMKG 130040Z 31011KT 9SM -SN SCT025 BKN055 OVC070 M03/M06 A2999 570 78 -1400 310/11 RMK AO2 P0000
14840KMKG MKG20060212194512202/12/06 19:45:31  5-MIN KMKG 130045Z 31010KT 9SM -SN SCT027 BKN055 OVC070 M03/M06 A2999 570 78 -1400 310/10 RMK AO2 P0000
14840KMKG MKG20060212195012202/12/06 19:50:31  5-MIN KMKG 130050Z 31009KT 9SM -SN BKN027 BKN060 OVC070 M03/M07 A2999 570 75 -1400 310/09 RMK AO2 P0000
14840KMKG MKG20060212195513902/12/06 19:55:31  5-MIN KMKG 130055Z 30009KT 9SM -SN FEW024 BKN029 OVC075 M03/M06 A2999 570 78 -1400 300/09 RMK AO2 SLP163 P0000 T10281061
14840KMKG MKG20060212200012202/12/06 20:00:31  5-MIN KMKG 130100Z 30011KT 9SM -SN FEW024 BKN029 OVC070 M03/M06 A2999 570 78 -1400 300/11 RMK AO2 P0000
14840KMKG MKG20060212200512202/12/06 20:05:31  5-MIN KMKG 130105Z 30009KT 9SM -SN SCT027 BKN037 OVC070 M03/M06 A2999 570 78 -1400 310/09 RMK AO2 P0000
14840KMKG MKG20060212201012202/12/06 20:10:31  5-MIN KMKG 130110Z 31011KT 9SM -SN SCT027 BKN036 OVC070 M03/M06 A2998 570 78 -1400 310/11 RMK AO2 P0000
14840KMKG MKG20060212201513702/12/06 20:15:31  5-MIN KMKG 130115Z 30009KT 9SM -SN SCT023 BKN036 OVC060 M03/M06 A2998 570 78 -1400 300/09 RMK AO2 CIG 023 RWY 14 P0000
14840KMKG MKG20060212202012202/12/06 20:20:31  5-MIN KMKG 130120Z 30012KT 9SM -SN SCT022 BKN034 OVC060 M02/M06 A2999 570 75 -1300 310/12 RMK AO2 P0000
14840KMKG MKG20060212202512802/12/06 20:25:31  5-MIN KMKG 130125Z 31008G17KT 9SM -SN SCT020 BKN041 OVC060 M02/M06 A2999 570 75 -1300 310/08G17 RMK AO2 P0000
14840KMKG MKG20060212203012202/12/06 20:30:31  5-MIN KMKG 130130Z 30012KT 9SM -SN FEW020 BKN037 OVC055 M02/M06 A2998 570 75 -1300 310/12 RMK AO2 P0000
14840KMKG MKG20060212203516002/12/06 20:35:31  5-MIN KMKG 130135Z 33013G16KT 5SM -SN FEW018 BKN037 OVC055 M02/M06 A2999 570 75 -1300 330/13G16 RMK AO2 VIS 1 1/2 RWY 14 CIG 021 RWY 14 P0000
14840KMKG MKG20060212204014702/12/06 20:40:31  5-MIN KMKG 130140Z 34010G16KT 1/4SM -SN FZFG FEW002 BKN019 OVC037 M03/M05 A2999 560 88 -1500 340/10G16 RMK AO2 SFC VIS 1/2 P0000
14840KMKG MKG20060212204514102/12/06 20:45:31  5-MIN KMKG 130145Z 35010KT 1/4SM -SN FZFG BKN002 BKN017 OVC039 M03/M04 A3000 560 92 -1500 350/10 RMK AO2 SFC VIS 1/2 P0001
14840KMKG MKG20060212205014102/12/06 20:50:31  5-MIN KMKG 130150Z 34007KT 1/4SM -SN FZFG BKN002 BKN017 OVC037 M03/M04 A2999 560 92 -1500 350/07 RMK AO2 SFC VIS 1/2 P0002
14840KMKG MKG20060212205515602/12/06 20:55:31  5-MIN KMKG 130155Z 35010KT 1/2SM -SN BR BKN002 BKN013 OVC032 M03/M04 A2999 560 92 -1500 350/10 RMK AO2 SFC VIS 3/4 SLP165 P0002 T10331044
14840KMKG MKG20060212210013302/12/06 21:00:31  5-MIN KMKG 130200Z 35009KT 2SM -SN BR SCT002 OVC018 M03/M05 A2999 560 88 -1500 360/09 RMK AO2 CIG 003 RWY 14 P0000
14840KMKG MKG20060212210515002/12/06 21:05:31  5-MIN KMKG 130205Z 35008KT 2SM -SN BR SCT002 BKN018 OVC028 M03/M04 A2999 570 92 -1500 360/08 RMK AO2 SFC VIS 3 CIG 013 RWY 14 P0000
14840KMKG MKG20060212211013502/12/06 21:10:31  5-MIN KMKG 130210Z 35006KT 2SM -SN BR FEW002 BKN020 OVC030 M03/M05 A2999 570 88 -1500 350/06 RMK AO2 SFC VIS 5 P0000
14840KMKG MKG20060212211513202/12/06 21:15:31  5-MIN KMKG 130215Z 36006KT 2SM -SN FEW002 BKN020 OVC034 M03/M05 A2999 570 88 -1500 360/06 RMK AO2 SFC VIS 7 P0000
14840KMKG MKG20060212212014702/12/06 21:20:31  5-MIN KMKG 130220Z 36006KT 2SM -SN SCT019 BKN028 OVC055 M03/M05 A2999 570 88 -1500 360/06 RMK AO2 SFC VIS 9 CIG 023 RWY 14 P0000
14840KMKG MKG20060212212513202/12/06 21:25:31  5-MIN KMKG 130225Z 35006KT 2SM -SN FEW019 BKN028 OVC055 M03/M05 A2999 570 88 -1500 350/06 RMK AO2 SFC VIS 9 P0000
14840KMKG MKG20060212213013202/12/06 21:30:31  5-MIN KMKG 130230Z 34006KT 2SM -SN FEW021 BKN028 OVC055 M03/M05 A2999 570 88 -1500 350/06 RMK AO2 SFC VIS 9 P0000
14840KMKG MKG20060212213513202/12/06 21:35:31  5-MIN KMKG 130235Z 36005KT 2SM -SN SCT028 BKN035 OVC055 M03/M05 A2999 570 88 -1500 360/05 RMK AO2 SFC VIS 9 P0000
14840KMKG MKG20060212214013202/12/06 21:40:31  5-MIN KMKG 130240Z 36004KT 2SM -SN BKN028 BKN035 OVC055 M03/M05 A2999 570 88 -1500 010/04 RMK AO2 SFC VIS 9 P0000
14840KMKG MKG20060212214513202/12/06 21:45:31  5-MIN KMKG 130245Z 01004KT 2SM -SN BKN028 BKN035 OVC055 M03/M05 A2999 570 88 -1500 010/04 RMK AO2 SFC VIS 9 P0000
14840KMKG MKG20060212215016102/12/06 21:50:31  5-MIN KMKG 130250Z 01004KT 2SM -SN BKN028 BKN035 OVC055 M03/M05 A2999 570 88 -1500 010/04 RMK AO2 SFC VIS 9 SLP164 P0000 60002 T10331050 53011
14840KMKG MKG20060212215514702/12/06 21:55:31  5-MIN KMKG 130255Z 35004KT 2SM -SN OVC028 M03/M05 A2999 570 88 -1500 360/04 RMK AO2 SFC VIS 9 SLP163 P0000 60002 T10331050 50000
14840KMKG MKG20060212220011802/12/06 22:00:31  5-MIN KMKG 130300Z VRB04KT 2SM -SN OVC028 M03/M05 A2999 570 88 -1500 VRB/04 RMK AO2 SFC VIS 8 P0000
14840KMKG MKG20060212220513202/12/06 22:05:31  5-MIN KMKG 130305Z 31006KT 2SM -SN FEW006 SCT023 OVC028 M03/M06 A2998 570 81 -1400 310/06 RMK AO2 SFC VIS 3 P0000
14840KMKG MKG20060212221013902/12/06 22:10:31  5-MIN KMKG 130310Z 29010KT 1 3/4SM -SN BR SCT006 BKN023 OVC028 M03/M06 A2998 570 85 -1500 300/10 RMK AO2 TWR VIS 2 P0001
14840KMKG MKG20060212221511502/12/06 22:15:31  5-MIN KMKG 130315Z 29010KT 2SM -SN SCT008 OVC026 M03/M06 A2998 570 78 -1400 290/10 RMK AO2 P0001
14840KMKG MKG20060212222012902/12/06 22:20:31  5-MIN KMKG 130320Z 31011KT 2SM -SN SCT008 OVC026 M03/M06 A2998 570 78 -1400 310/11 RMK AO2 SFC VIS 2 1/2 P0001
14840KMKG MKG20060212222512502/12/06 22:25:31  5-MIN KMKG 130325Z 32010KT 2SM -SN FEW008 OVC024 M03/M07 A2998 570 75 -1400 330/10 RMK AO2 SFC VIS 3 P0001
14840KMKG MKG20060212223011502/12/06 22:30:31  5-MIN KMKG 130330Z 31006KT 6SM -SN FEW008 OVC026 M03/M07 A2998 570 75 -1400 320/06 RMK AO2 P0001
14840KMKG MKG20060212223511502/12/06 22:35:31  5-MIN KMKG 130335Z 31009KT 9SM -SN FEW008 OVC026 M03/M07 A2998 570 75 -1400 320/09 RMK AO2 P0001
14840KMKG MKG20060212224012802/12/06 22:40:31  5-MIN KMKG 130340Z 31010G17KT 8SM -SN FEW010 BKN024 OVC029 M03/M07 A2998 580 71 -1400 320/10G17 RMK AO2 P0001
14840KMKG MKG20060212224512202/12/06 22:45:31  5-MIN KMKG 130345Z 30010KT 8SM -SN BKN024 BKN029 OVC050 M03/M07 A2998 580 71 -1400 310/10 RMK AO2 P0001
14840KMKG MKG20060212225013702/12/06 22:50:31  5-MIN KMKG 130350Z 31011KT 4SM -SN SCT026 BKN035 OVC050 M03/M07 A2998 580 75 -1400 310/11 RMK AO2 CIG 030 RWY 14 P0001
14840KMKG MKG20060212225515802/12/06 22:55:31  5-MIN KMKG 130355Z 31009KT 1 3/4SM -SN FEW004 BKN032 OVC050 M03/M06 A2998 580 81 -1400 320/09 RMK AO2 CIG 025 RWY 14 SLP160 P0001 T10331061
14840KMKG MKG20060212230012602/12/06 23:00:31  5-MIN KMKG 130400Z 31009KT 1 3/4SM -SN SCT006 BKN027 OVC050 M03/M06 A2998 580 81 -1400 310/09 RMK AO2 P0000
14840KMKG MKG20060212230512602/12/06 23:05:31  5-MIN KMKG 130405Z 30012KT 2 1/2SM -SN SCT006 BKN027 OVC050 M03/M07 A2997 580 78 -1400 300/12 RMK AO2 P0000
14840KMKG MKG20060212231012202/12/06 23:10:31  5-MIN KMKG 130410Z 31013KT 2SM -SN SCT006 BKN028 OVC050 M03/M07 A2997 580 78 -1400 310/13 RMK AO2 P0000
14840KMKG MKG20060212231512602/12/06 23:15:31  5-MIN KMKG 130415Z 31011KT 1 1/2SM -SN SCT006 BKN026 OVC032 M03/M07 A2997 580 78 -1400 310/11 RMK AO2 P0000
14840KMKG MKG20060212232012602/12/06 23:20:31  5-MIN KMKG 130420Z 31011KT 2 1/2SM -SN SCT006 BKN026 OVC033 M03/M07 A2997 580 74 -1400 320/11 RMK AO2 P0000
14840KMKG MKG20060212232512202/12/06 23:25:31  5-MIN KMKG 130425Z 31009KT 5SM -SN FEW006 BKN033 OVC050 M03/M07 A2997 580 74 -1400 320/09 RMK AO2 P0000
14840KMKG MKG20060212233012202/12/06 23:30:31  5-MIN KMKG 130430Z 30009KT 6SM -SN FEW006 BKN033 OVC050 M03/M07 A2998 580 71 -1400 310/09 RMK AO2 P0000
14840KMKG MKG20060212233512802/12/06 23:35:31  5-MIN KMKG 130435Z 31012G16KT 5SM -SN FEW004 BKN035 OVC050 M03/M08 A2997 580 68 -1400 320/12G16 RMK AO2 P0000
14840KMKG MKG20060212234012202/12/06 23:40:31  5-MIN KMKG 130440Z 31011KT 5SM -SN FEW026 BKN035 OVC055 M03/M08 A2997 580 68 -1400 310/11 RMK AO2 P0000
14840KMKG MKG20060212234513702/12/06 23:45:31  5-MIN KMKG 130445Z 31011KT 7SM -SN FEW026 BKN033 OVC050 M03/M08 A2997 580 68 -1400 310/11 RMK AO2 CIG 027 RWY 14 P0000
14840KMKG MKG20060212235017002/12/06 23:50:31  5-MIN KMKG 130450Z 31010G17KT 8SM -SN FEW024 BKN041 OVC050 M03/M08 A2997 590 68 -1400 320/10G17 RMK AO2 CIG 027 RWY 14 SLP156 P0000 T10281078 410061061
14840KMKG MKG20060212235516402/12/06 23:55:31  5-MIN KMKG 130455Z 32010KT 7SM -SN FEW024 BKN041 OVC050 M03/M08 A2997 590 68 -1400 320/10 RMK AO2 CIG 032 RWY 14 SLP156 P0000 T10281078 410061061
14840KMKG MKG20060213000012802/13/06 00:00:32  5-MIN KMKG 130500Z 31009G16KT 7SM -SN FEW026 SCT033 OVC050 M03/M08 A2996 590 71 -1400 320/09G16 RMK AO2 P0000
14840KMKG MKG20060213000512202/13/06 00:05:31  5-MIN KMKG 130505Z 32012KT 7SM -SN FEW033 SCT041 OVC050 M03/M08 A2997 590 71 -1400 330/12 RMK AO2 P0000
14840KMKG MKG20060213001011502/13/06 00:10:31  5-MIN KMKG 130510Z 32010KT 7SM -SN FEW025 OVC050 M03/M08 A2997 590 71 -1400 320/10 RMK AO2 P0000
14840KMKG MKG20060213001511502/13/06 00:15:31  5-MIN KMKG 130515Z 31010KT 8SM -SN FEW041 OVC050 M03/M08 A2997 590 71 -1400 320/10 RMK AO2 P0000
14840KMKG MKG20060213002010802/13/06 00:20:31  5-MIN KMKG 130520Z 32009KT 9SM -SN OVC050 M03/M08 A2996 590 71 -1400 320/09 RMK AO2 P0000
14840KMKG MKG20060213002510802/13/06 00:25:31  5-MIN KMKG 130525Z 32009KT 9SM -SN OVC050 M03/M08 A2996 590 71 -1400 320/09 RMK AO2 P0000
14840KMKG MKG20060213003011402/13/06 00:30:31  5-MIN KMKG 130530Z 31013G18KT 9SM -SN OVC050 M03/M08 A2996 590 68 -1400 320/13G18 RMK AO2 P0000
14840KMKG MKG20060213003511402/13/06 00:35:31  5-MIN KMKG 130535Z 30009G18KT 9SM -SN OVC050 M03/M08 A2996 590 68 -1400 310/09G18 RMK AO2 P0000
14840KMKG MKG20060213004010802/13/06 00:40:31  5-MIN KMKG 130540Z 31009KT 9SM -SN OVC050 M03/M08 A2997 590 68 -1400 320/09 RMK AO2 P0000
14840KMKG MKG20060213004511702/13/06 00:45:31  5-MIN KMKG 130545Z 30008KT 9SM FEW042 OVC050 M03/M08 A2996 590 68 -1400 310/08 RMK AO2 SNE42 P0000
14840KMKG MKG20060213005015902/13/06 00:50:31  5-MIN KMKG 130550Z 30010KT 10SM FEW029 OVC050 M03/M08 A2996 590 68 -1400 310/10 RMK AO2 SNE42 SLP155 P0000 60003 T10331083 11022 21033 50000
14840KMKG MKG20060214132008502/14/06 13:20:31  5-MIN KMKG 141820Z AUTO M M M M /M RMK AO2 PWINO FZRANO TSNO PNO $
14840KMKG MKG20060214132512102/14/06 13:25:31  5-MIN KMKG 141825Z AUTO 22011KT 01/M02 A2981 740 82 -800 220/11 RMK AO2 TSNO CHINO RWY 14 VISNO RWY 14
14840KMKG MKG20060214133010202/14/06 13:30:31  5-MIN KMKG 141830Z 22013KT 7SM 01/M02 A2981 730 82 -800 230/13 RMK AO2 CHINO RWY 14
14840KMKG MKG20060214133509202/14/06 13:35:31  5-MIN KMKG 141835Z 23012KT M M M 230/12 RMK AO2 CHINO RWY 14 VISNO RWY 14
14840KMKG MKG20060214134012302/14/06 13:40:31  5-MIN KMKG 141840Z AUTO 22014KT 01/M02 A2981 730 82 -800 220/14 RMK AO2 TSNO CHINO RWY 14 VISNO RWY 14 $
14840KMKG MKG20060214134510402/14/06 13:45:31  5-MIN KMKG 141845Z 21013KT 7SM 01/M02 A2981 730 78 -700 220/13 RMK AO2 CHINO RWY 14 $
14840KMKG MKG20060214135012002/14/06 13:50:31  5-MIN KMKG 141850Z 22012KT 7SM 01/M02 A2981 730 78 -700 220/12 RMK AO2 SLPNO T00111022 CHINO RWY 14 $
14840KMKG MKG20060214135511402/14/06 13:55:31  5-MIN KMKG 141855Z 22012KT 7SM SCT015 01/M02 A2981 730 78 -700 230/12 RMK AO2 SLPNO T00111022 $
14840KMKG MKG20060214140010402/14/06 14:00:31  5-MIN KMKG 141900Z 22011KT 7SM 01/M02 A2981 730 78 -700 220/11 RMK AO2 CHINO RWY 14 $
14840KMKG MKG20060214140509802/14/06 14:05:31  5-MIN KMKG 141905Z 22015KT 7SM FEW015 01/M02 A2980 740 82 -700 220/15 RMK AO2 $
14840KMKG MKG20060214141009802/14/06 14:10:31  5-MIN KMKG 141910Z 22014KT 7SM FEW015 01/M02 A2980 740 82 -700 230/14 RMK AO2 $
14840KMKG MKG20060214141510402/14/06 14:15:31  5-MIN KMKG 141915Z 22015G21KT 7SM FEW015 01/M02 A2980 740 82 -700 220/15G21 RMK AO2 $
14840KMKG MKG20060214142009802/14/06 14:20:31  5-MIN KMKG 141920Z 21015KT 7SM FEW015 01/M02 A2980 740 82 -700 220/15 RMK AO2 $
14840KMKG MKG20060214142509602/14/06 14:25:31  5-MIN KMKG 141925Z 22016KT 7SM FEW015 01/M02 A2981 740 82 -700 230/16 RMK AO2
14840KMKG MKG20060214143009602/14/06 14:30:31  5-MIN KMKG 141930Z 21017KT 7SM FEW013 01/M02 A2980 740 82 -700 220/17 RMK AO2
14840KMKG MKG20060214143509602/14/06 14:35:31  5-MIN KMKG 141935Z 22012KT 7SM FEW013 01/M02 A2980 740 82 -700 220/12 RMK AO2
14840KMKG MKG20060214144010202/14/06 14:40:31  5-MIN KMKG 141940Z 21016G20KT 7SM FEW013 02/M02 A2980 740 78 -600 210/16G20 RMK AO2
14840KMKG MKG20060214144509602/14/06 14:45:31  5-MIN KMKG 141945Z 21018KT 7SM FEW013 01/M02 A2980 750 82 -700 220/18 RMK AO2
14840KMKG MKG20060214145011802/14/06 14:50:31  5-MIN KMKG 141950Z 21014G19KT 7SM FEW013 02/M02 A2980 750 78 -600 220/14G19 RMK AO2 SLPNO T00171017
14840KMKG MKG20060214145510902/14/06 14:55:31  5-MIN KMKG 141955Z 21014KT 7SM CLR 02/M02 A2980 740 78 -600 220/14 RMK AO2 SLPNO T00171017
14840KMKG MKG20060214150009602/14/06 15:00:31  5-MIN KMKG 142000Z 21013KT 7SM FEW080 02/M02 A2980 740 78 -600 210/13 RMK AO2
14840KMKG MKG20060214150509602/14/06 15:05:31  5-MIN KMKG 142005Z 21015KT 7SM SCT080 02/M02 A2980 740 78 -600 210/15 RMK AO2
14840KMKG MKG20060214151009602/14/06 15:10:31  5-MIN KMKG 142010Z 21014KT 7SM SCT080 02/M02 A2979 750 78 -600 220/14 RMK AO2
14840KMKG MKG20060214151509602/14/06 15:15:31  5-MIN KMKG 142015Z 20014KT 7SM FEW090 02/M02 A2979 750 78 -600 210/14 RMK AO2
14840KMKG MKG20060214152010202/14/06 15:20:31  5-MIN KMKG 142020Z 21014G19KT 7SM SCT095 02/M02 A2979 750 78 -600 210/14G19 RMK AO2
14840KMKG MKG20060214152510202/14/06 15:25:31  5-MIN KMKG 142025Z 20016G20KT 7SM FEW095 02/M02 A2979 750 78 -600 200/16G20 RMK AO2
14840KMKG MKG20060214153010202/14/06 15:30:31  5-MIN KMKG 142030Z 20012G20KT 7SM FEW090 02/M02 A2979 750 78 -600 200/12G20 RMK AO2
14840KMKG MKG20060214153509902/14/06 15:35:31  5-MIN KMKG 142035Z 20015G19KT 7SM CLR 02/M02 A2979 760 78 -600 200/15G19 RMK AO2
14840KMKG MKG20060214154009902/14/06 15:40:31  5-MIN KMKG 142040Z 20012G19KT 7SM CLR 02/M02 A2978 760 78 -600 200/12G19 RMK AO2
14840KMKG MKG20060214154509602/14/06 15:45:31  5-MIN KMKG 142045Z 20017KT 6SM HZ CLR 02/M02 A2978 760 78 -600 200/17 RMK AO2
14840KMKG MKG20060214155010902/14/06 15:50:31  5-MIN KMKG 142050Z 20013KT 7SM CLR 02/M02 A2978 760 78 -600 210/13 RMK AO2 SLPNO T00171017
14840KMKG MKG20060214155510902/14/06 15:55:31  5-MIN KMKG 142055Z 20012KT 7SM CLR 02/M02 A2978 760 78 -600 200/12 RMK AO2 SLPNO T00171017
14840KMKG MKG20060214160009602/14/06 16:00:31  5-MIN KMKG 142100Z 19011KT 7SM FEW110 02/M02 A2978 760 78 -600 200/11 RMK AO2
14840KMKG MKG20060214160509302/14/06 16:05:31  5-MIN KMKG 142105Z 19013KT 8SM CLR 02/M02 A2977 770 75 -500 190/13 RMK AO2
14840KMKG MKG20060214161009902/14/06 16:10:31  5-MIN KMKG 142110Z 20010G16KT 8SM CLR 02/M02 A2977 770 75 -500 200/10G16 RMK AO2
14840KMKG MKG20060214161509302/14/06 16:15:31  5-MIN KMKG 142115Z 19008KT 9SM CLR 02/M02 A2977 770 75 -500 200/08 RMK AO2
14840KMKG MKG20060214162009602/14/06 16:20:31  5-MIN KMKG 142120Z 19009KT 9SM FEW110 02/M02 A2976 770 75 -500 200/09 RMK AO2
14840KMKG MKG20060214162509702/14/06 16:25:31  5-MIN KMKG 142125Z 18008KT 10SM FEW110 02/M02 A2976 780 75 -500 180/08 RMK AO2
14840KMKG MKG20060214163009702/14/06 16:30:31  5-MIN KMKG 142130Z 17006KT 10SM FEW100 02/M02 A2976 780 75 -500 170/06 RMK AO2
14840KMKG MKG20060214163509702/14/06 16:35:31  5-MIN KMKG 142135Z 18007KT 10SM FEW100 02/M02 A2976 780 75 -500 190/07 RMK AO2
14840KMKG MKG20060214164009702/14/06 16:40:31  5-MIN KMKG 142140Z 16007KT 10SM FEW100 02/M02 A2976 780 75 -500 170/07 RMK AO2
14840KMKG MKG20060214164509702/14/06 16:45:31  5-MIN KMKG 142145Z 17007KT 10SM FEW100 03/M02 A2976 780 69 -400 180/07 RMK AO2
14840KMKG MKG20060214165011302/14/06 16:50:31  5-MIN KMKG 142150Z 18009KT 10SM FEW100 03/M02 A2975 780 69 -400 180/09 RMK AO2 SLPNO T00281022
14840KMKG MKG20060214165511302/14/06 16:55:31  5-MIN KMKG 142155Z 16007KT 10SM SCT100 03/M02 A2975 790 69 -400 170/07 RMK AO2 SLPNO T00281022
14840KMKG MKG20060214170009702/14/06 17:00:31  5-MIN KMKG 142200Z 16007KT 10SM FEW100 03/M02 A2975 790 69 -400 170/07 RMK AO2
14840KMKG MKG20060214170509702/14/06 17:05:31  5-MIN KMKG 142205Z 16005KT 10SM SCT100 03/M02 A2975 790 69 -400 170/05 RMK AO2
14840KMKG MKG20060214171009702/14/06 17:10:31  5-MIN KMKG 142210Z 17005KT 10SM BKN100 03/M03 A2975 790 64 -300 170/05 RMK AO2
14840KMKG MKG20060214171509702/14/06 17:15:31  5-MIN KMKG 142215Z 18007KT 10SM BKN100 03/M03 A2975 790 64 -300 190/07 RMK AO2
14840KMKG MKG20060214172009702/14/06 17:20:31  5-MIN KMKG 142220Z 19008KT 10SM BKN100 04/M03 A2975 790 62 -300 190/08 RMK AO2
14840KMKG MKG20060214172509702/14/06 17:25:31  5-MIN KMKG 142225Z 19007KT 10SM BKN100 04/M03 A2975 790 62 -300 200/07 RMK AO2
14840KMKG MKG20060214173009702/14/06 17:30:31  5-MIN KMKG 142230Z 19010KT 10SM OVC100 04/M03 A2975 790 62 -300 190/10 RMK AO2
14840KMKG MKG20060214173509702/14/06 17:35:31  5-MIN KMKG 142235Z 19011KT 10SM OVC100 04/M02 A2974 790 64 -300 200/11 RMK AO2
14840KMKG MKG20060214174009702/14/06 17:40:31  5-MIN KMKG 142240Z 20008KT 10SM OVC100 04/M02 A2974 800 64 -300 200/08 RMK AO2
14840KMKG MKG20060214174509702/14/06 17:45:31  5-MIN KMKG 142245Z 19010KT 10SM OVC100 04/M02 A2974 800 64 -300 190/10 RMK AO2
14840KMKG MKG20060214175011302/14/06 17:50:31  5-MIN KMKG 142250Z 19009KT 10SM OVC100 04/M02 A2974 800 64 -300 200/09 RMK AO2 SLPNO T00391022
14840KMKG MKG20060214175511302/14/06 17:55:31  5-MIN KMKG 142255Z 19006KT 10SM OVC100 03/M02 A2973 800 67 -300 190/06 RMK AO2 SLPNO T00331022
14840KMKG MKG20060214180009702/14/06 18:00:31  5-MIN KMKG 142300Z 18008KT 10SM OVC100 04/M02 A2973 800 64 -300 190/08 RMK AO2
14840KMKG MKG20060214180509702/14/06 18:05:31  5-MIN KMKG 142305Z 17008KT 10SM OVC100 04/M02 A2973 810 64 -300 180/08 RMK AO2
14840KMKG MKG20060214181009702/14/06 18:10:31  5-MIN KMKG 142310Z 16005KT 10SM OVC100 04/M02 A2973 810 64 -300 160/05 RMK AO2
14840KMKG MKG20060214181509702/14/06 18:15:31  5-MIN KMKG 142315Z 16005KT 10SM OVC100 04/M02 A2973 810 62 -200 170/05 RMK AO2
14840KMKG MKG20060214182009702/14/06 18:20:31  5-MIN KMKG 142320Z 16005KT 10SM OVC100 04/M02 A2973 810 62 -200 170/05 RMK AO2
14840KMKG MKG20060214182509702/14/06 18:25:31  5-MIN KMKG 142325Z 16005KT 10SM OVC100 04/M02 A2973 810 62 -200 160/05 RMK AO2
14840KMKG MKG20060214183009702/14/06 18:30:31  5-MIN KMKG 142330Z 14006KT 10SM OVC100 04/M02 A2973 810 62 -200 150/06 RMK AO2
14840KMKG MKG20060214183509702/14/06 18:35:31  5-MIN KMKG 142335Z 15006KT 10SM BKN100 04/M02 A2973 810 62 -200 150/06 RMK AO2
14840KMKG MKG20060214184009702/14/06 18:40:31  5-MIN KMKG 142340Z 15006KT 10SM BKN100 04/M02 A2973 810 62 -200 150/06 RMK AO2
14840KMKG MKG20060214184509702/14/06 18:45:31  5-MIN KMKG 142345Z 13008KT 10SM SCT100 04/M02 A2972 810 67 -200 130/08 RMK AO2
14840KMKG MKG20060214185013102/14/06 18:50:31  5-MIN KMKG 142350Z 12005KT 10SM SCT100 03/M02 A2973 810 70 -300 120/05 RMK AO2 SLPNO 4/001 T00331017 10044 20006
14840KMKG MKG20060214185513702/14/06 18:55:31  5-MIN KMKG 142355Z 13007KT 10SM BKN095 03/M02 A2973 810 70 -300 130/07 RMK AO2 SLPNO 4/001 T00331017 10044 20006 56017
14840KMKG MKG20060214190009702/14/06 19:00:31  5-MIN KMKG 150000Z 13008KT 10SM BKN095 03/M02 A2972 810 70 -300 130/08 RMK AO2
14840KMKG MKG20060214190509702/14/06 19:05:31  5-MIN KMKG 150005Z 13008KT 10SM SCT095 03/M02 A2973 810 67 -300 130/08 RMK AO2
14840KMKG MKG20060214191009702/14/06 19:10:31  5-MIN KMKG 150010Z 12007KT 10SM SCT095 03/M02 A2972 810 67 -300 130/07 RMK AO2
14840KMKG MKG20060214191509702/14/06 19:15:31  5-MIN KMKG 150015Z 12007KT 10SM SCT095 03/M02 A2973 810 67 -300 130/07 RMK AO2
14840KMKG MKG20060214192009702/14/06 19:20:31  5-MIN KMKG 150020Z 12008KT 10SM FEW095 03/M02 A2973 810 67 -300 130/08 RMK AO2
14840KMKG MKG20060214192509702/14/06 19:25:31  5-MIN KMKG 150025Z 12007KT 10SM FEW095 03/M02 A2973 810 67 -300 120/07 RMK AO2
14840KMKG MKG20060214193009402/14/06 19:30:31  5-MIN KMKG 150030Z 12007KT 10SM CLR 03/M02 A2973 810 67 -300 120/07 RMK AO2
14840KMKG MKG20060214193509402/14/06 19:35:31  5-MIN KMKG 150035Z 11007KT 10SM CLR 04/M02 A2973 810 64 -300 120/07 RMK AO2
14840KMKG MKG20060214194009402/14/06 19:40:31  5-MIN KMKG 150040Z 12006KT 10SM CLR 03/M02 A2973 810 67 -300 120/06 RMK AO2
14840KMKG MKG20060214194509402/14/06 19:45:31  5-MIN KMKG 150045Z 11007KT 10SM CLR 03/M02 A2973 810 69 -400 120/07 RMK AO2
14840KMKG MKG20060214195011002/14/06 19:50:31  5-MIN KMKG 150050Z 12008KT 10SM CLR 03/M02 A2972 810 67 -300 120/08 RMK AO2 SLPNO T00331022
14840KMKG MKG20060214195511002/14/06 19:55:31  5-MIN KMKG 150055Z 12008KT 10SM CLR 03/M02 A2972 810 69 -400 120/08 RMK AO2 SLPNO T00281022
14840KMKG MKG20060214200009402/14/06 20:00:31  5-MIN KMKG 150100Z 13008KT 10SM CLR 03/M02 A2972 820 69 -400 130/08 RMK AO2
14840KMKG MKG20060214200509402/14/06 20:05:31  5-MIN KMKG 150105Z 13007KT 10SM CLR 02/M02 A2972 810 72 -500 140/07 RMK AO2
14840KMKG MKG20060214201009402/14/06 20:10:31  5-MIN KMKG 150110Z 14006KT 10SM CLR 02/M02 A2972 810 72 -500 140/06 RMK AO2
14840KMKG MKG20060214201509402/14/06 20:15:31  5-MIN KMKG 150115Z 14005KT 10SM CLR 03/M02 A2972 810 69 -400 150/05 RMK AO2
14840KMKG MKG20060214202009402/14/06 20:20:31  5-MIN KMKG 150120Z 17006KT 10SM CLR 03/M02 A2973 810 67 -300 170/06 RMK AO2
14840KMKG MKG20060214202509402/14/06 20:25:31  5-MIN KMKG 150125Z 19009KT 10SM CLR 05/M02 A2973 810 62 -100 190/09 RMK AO2
14840KMKG MKG20060214203009702/14/06 20:30:31  5-MIN KMKG 150130Z 19014G18KT 10SM CLR 07/M02 A2973 810 55 0 200/14G18 RMK AO2
14840KMKG MKG20060214203509702/14/06 20:35:31  5-MIN KMKG 150135Z 19015G20KT 10SM CLR 07/M02 A2972 810 55 0 190/15G20 RMK AO2
14840KMKG MKG20060214204009702/14/06 20:40:31  5-MIN KMKG 150140Z 19017G21KT 10SM CLR 07/M02 A2972 820 55 0 200/17G21 RMK AO2
14840KMKG MKG20060214204509102/14/06 20:45:31  5-MIN KMKG 150145Z 20018KT 10SM CLR 07/M02 A2972 820 55 0 200/18 RMK AO2
14840KMKG MKG20060214205011302/14/06 20:50:31  5-MIN KMKG 150150Z 20016G22KT 10SM CLR 06/M01 A2972 810 60 0 200/16G22 RMK AO2 SLPNO T00611011
14840KMKG MKG20060214205511302/14/06 20:55:31  5-MIN KMKG 150155Z 20016G23KT 10SM CLR 06/M01 A2972 820 60 0 200/16G23 RMK AO2 SLPNO T00611011
14840KMKG MKG20060214210009702/14/06 21:00:31  5-MIN KMKG 150200Z 20015G23KT 10SM CLR 06/M01 A2972 820 60 0 200/15G23 RMK AO2
14840KMKG MKG20060214210509702/14/06 21:05:31  5-MIN KMKG 150205Z 20015G22KT 10SM CLR 06/M01 A2972 810 60 0 210/15G22 RMK AO2
14840KMKG MKG20060214211009702/14/06 21:10:31  5-MIN KMKG 150210Z 20020G25KT 10SM CLR 06/M02 A2972 810 57 0 200/20G25 RMK AO2
14840KMKG MKG20060214211509702/14/06 21:15:31  5-MIN KMKG 150215Z 20017G25KT 10SM CLR 06/M02 A2972 810 57 0 200/17G25 RMK AO2
14840KMKG MKG20060214212009702/14/06 21:20:31  5-MIN KMKG 150220Z 20018G24KT 10SM CLR 06/M02 A2973 810 57 0 200/18G24 RMK AO2
14840KMKG MKG20060214212509702/14/06 21:25:31  5-MIN KMKG 150225Z 20016G24KT 10SM CLR 06/M01 A2973 810 60 0 200/16G24 RMK AO2
14840KMKG MKG20060214213009702/14/06 21:30:31  5-MIN KMKG 150230Z 20016G23KT 10SM CLR 06/M01 A2973 810 62 0 200/16G23 RMK AO2
14840KMKG MKG20060214213509702/14/06 21:35:31  5-MIN KMKG 150235Z 20015G23KT 10SM CLR 06/M01 A2973 810 62 0 200/15G23 RMK AO2
14840KMKG MKG20060214214010002/14/06 21:40:31  5-MIN KMKG 150240Z 20017G23KT 10SM CLR 06/M01 A2973 810 62 -100 200/17G23 RMK AO2
14840KMKG MKG20060214214510002/14/06 21:45:31  5-MIN KMKG 150245Z 20014G22KT 10SM CLR 06/M01 A2973 800 62 -100 210/14G22 RMK AO2
14840KMKG MKG20060214215014002/14/06 21:50:31  5-MIN KMKG 150250Z 20015G28KT 10SM CLR 06/M01 A2973 800 62 -100 200/15G28 RMK AO2 PK WND 19028/0247 SLPNO T00561011 56017
14840KMKG MKG20060214215514002/14/06 21:55:31  5-MIN KMKG 150255Z 20015G28KT 10SM CLR 05/M01 A2973 810 64 -100 200/15G28 RMK AO2 PK WND 19028/0247 SLPNO T00501011 53002
14840KMKG MKG20060214220009402/14/06 22:00:31  5-MIN KMKG 150300Z 20016KT 10SM CLR 05/M01 A2973 810 64 -100 200/16 RMK AO2
14840KMKG MKG20060214220509402/14/06 22:05:31  5-MIN KMKG 150305Z 20015KT 10SM CLR 05/M01 A2973 800 64 -100 210/15 RMK AO2
14840KMKG MKG20060214221009402/14/06 22:10:31  5-MIN KMKG 150310Z 21013KT 10SM CLR 05/M01 A2973 800 67 -100 210/13 RMK AO2
14840KMKG MKG20060214221509402/14/06 22:15:31  5-MIN KMKG 150315Z 21015KT 10SM CLR 05/M01 A2974 800 67 -100 210/15 RMK AO2
14840KMKG MKG20060214222009402/14/06 22:20:31  5-MIN KMKG 150320Z 21013KT 10SM CLR 04/M01 A2974 800 70 -200 210/13 RMK AO2
14840KMKG MKG20060214222509402/14/06 22:25:31  5-MIN KMKG 150325Z 21011KT 10SM CLR 05/M01 A2974 800 67 -100 220/11 RMK AO2
14840KMKG MKG20060214223009402/14/06 22:30:31  5-MIN KMKG 150330Z 21013KT 10SM CLR 04/M01 A2974 800 70 -200 220/13 RMK AO2
14840KMKG MKG20060214223509402/14/06 22:35:31  5-MIN KMKG 150335Z 21012KT 10SM CLR 04/M01 A2974 800 70 -200 210/12 RMK AO2
14840KMKG MKG20060214224009402/14/06 22:40:31  5-MIN KMKG 150340Z 21012KT 10SM CLR 04/M01 A2974 800 70 -200 220/12 RMK AO2
14840KMKG MKG20060214224509402/14/06 22:45:31  5-MIN KMKG 150345Z 21013KT 10SM CLR 04/M01 A2974 800 70 -200 220/13 RMK AO2
14840KMKG MKG20060214225011002/14/06 22:50:31  5-MIN KMKG 150350Z 21013KT 10SM CLR 04/M01 A2974 790 70 -200 210/13 RMK AO2 SLPNO T00441006
14840KMKG MKG20060214225511002/14/06 22:55:31  5-MIN KMKG 150355Z 22015KT 10SM CLR 05/M01 A2974 790 67 -100 220/15 RMK AO2 SLPNO T00501006
14840KMKG MKG20060214230010002/14/06 23:00:31  5-MIN KMKG 150400Z 30010G19KT 10SM CLR 04/M01 A2975 790 70 -200 300/10G19 RMK AO2
14840KMKG MKG20060214230509302/14/06 23:05:31  5-MIN KMKG 150405Z 26011KT 10SM CLR 04/00 A2976 780 76 -300 260/11 RMK AO2
14840KMKG MKG20060214231009302/14/06 23:10:31  5-MIN KMKG 150410Z 25009KT 10SM CLR 04/00 A2976 780 76 -300 260/09 RMK AO2
14840KMKG MKG20060214231509302/14/06 23:15:31  5-MIN KMKG 150415Z 25007KT 10SM CLR 04/00 A2976 780 76 -300 260/07 RMK AO2
14840KMKG MKG20060214232009302/14/06 23:20:31  5-MIN KMKG 150420Z 24007KT 10SM CLR 03/00 A2976 780 79 -400 250/07 RMK AO2
14840KMKG MKG20060214232509302/14/06 23:25:31  5-MIN KMKG 150425Z 23007KT 10SM CLR 03/00 A2976 780 79 -400 240/07 RMK AO2
14840KMKG MKG20060214233009302/14/06 23:30:31  5-MIN KMKG 150430Z 23007KT 10SM CLR 02/00 A2976 780 85 -500 240/07 RMK AO2
14840KMKG MKG20060214233509302/14/06 23:35:31  5-MIN KMKG 150435Z 23007KT 10SM CLR 03/00 A2976 770 82 -400 230/07 RMK AO2
14840KMKG MKG20060214234009302/14/06 23:40:31  5-MIN KMKG 150440Z 23007KT 10SM CLR 03/00 A2977 770 82 -400 240/07 RMK AO2
14840KMKG MKG20060214234509302/14/06 23:45:31  5-MIN KMKG 150445Z 23007KT 10SM CLR 03/00 A2977 770 82 -400 230/07 RMK AO2
14840KMKG MKG20060214235011902/14/06 23:50:31  5-MIN KMKG 150450Z 22007KT 10SM CLR 03/00 A2977 770 82 -400 230/07 RMK AO2 SLPNO T00280000 400720006
14840KMKG MKG20060214235511902/14/06 23:55:31  5-MIN KMKG 150455Z 22007KT 10SM CLR 03/00 A2977 770 82 -400 230/07 RMK AO2 SLPNO T00280000 400720006
14840KMKG MKG20060215000009302/15/06 00:00:32  5-MIN KMKG 150500Z 23007KT 10SM CLR 03/00 A2977 770 82 -400 230/07 RMK AO2
14840KMKG MKG20060215000509302/15/06 00:05:31  5-MIN KMKG 150505Z 23007KT 10SM CLR 02/00 A2977 770 85 -500 240/07 RMK AO2
14840KMKG MKG20060215001009302/15/06 00:10:31  5-MIN KMKG 150510Z 23007KT 10SM CLR 03/01 A2977 770 85 -400 240/07 RMK AO2
14840KMKG MKG20060215001509302/15/06 00:15:31  5-MIN KMKG 150515Z 24007KT 10SM CLR 02/01 A2977 770 89 -500 250/07 RMK AO2
14840KMKG MKG20060215002009302/15/06 00:20:31  5-MIN KMKG 150520Z 26006KT 10SM CLR 03/01 A2978 760 85 -400 270/06 RMK AO2
14840KMKG MKG20060215002509302/15/06 00:25:31  5-MIN KMKG 150525Z 28006KT 10SM CLR 03/01 A2978 760 85 -400 280/06 RMK AO2
14840KMKG MKG20060215003009302/15/06 00:30:31  5-MIN KMKG 150530Z 31006KT 10SM CLR 03/01 A2978 760 85 -500 310/06 RMK AO2
14840KMKG MKG20060215003509302/15/06 00:35:31  5-MIN KMKG 150535Z 32007KT 10SM CLR 03/01 A2978 760 82 -400 330/07 RMK AO2
14840KMKG MKG20060215004009302/15/06 00:40:31  5-MIN KMKG 150540Z 33008KT 10SM CLR 03/01 A2979 750 85 -500 330/08 RMK AO2
14840KMKG MKG20060215004509302/15/06 00:45:31  5-MIN KMKG 150545Z 36009KT 10SM CLR 03/00 A2980 740 82 -500 360/09 RMK AO2
14840KMKG MKG20060215005012802/15/06 00:50:31  5-MIN KMKG 150550Z 01009KT 10SM CLR 02/M01 A2980 740 82 -500 020/09 RMK AO2 SLPNO T00221006 10072 20017 53002
14840KMKG MKG20060215005512802/15/06 00:55:31  5-MIN KMKG 150555Z 36009KT 10SM CLR 03/M01 A2981 740 75 -500 010/09 RMK AO2 SLPNO T00281011 10072 20017 53024
14840KMKG MKG20060215010009402/15/06 01:00:31  5-MIN KMKG 150600Z 01010KT 10SM CLR 02/M01 A2981 730 78 -600 010/10 RMK AO2
14840KMKG MKG20060215010509402/15/06 01:05:31  5-MIN KMKG 150605Z 01007KT 10SM CLR 02/M01 A2981 730 78 -600 020/07 RMK AO2
14840KMKG MKG20060215011009402/15/06 01:10:31  5-MIN KMKG 150610Z 36010KT 10SM CLR 02/M02 A2982 730 75 -600 360/10 RMK AO2
14840KMKG MKG20060215011509402/15/06 01:15:31  5-MIN KMKG 150615Z 01010KT 10SM CLR 02/M02 A2982 730 75 -600 010/10 RMK AO2
14840KMKG MKG20060215012009402/15/06 01:20:31  5-MIN KMKG 150620Z 35008KT 10SM CLR 02/M02 A2982 720 75 -600 350/08 RMK AO2
14840KMKG MKG20060215012509302/15/06 01:25:31  5-MIN KMKG 150625Z 36010KT 9SM CLR 02/M02 A2982 720 78 -600 010/10 RMK AO2
14840KMKG MKG20060215013009302/15/06 01:30:31  5-MIN KMKG 150630Z 01011KT 9SM CLR 02/M02 A2983 720 78 -600 020/11 RMK AO2
14840KMKG MKG20060215013509302/15/06 01:35:31  5-MIN KMKG 150635Z 01009KT 9SM CLR 02/M02 A2983 710 78 -600 010/09 RMK AO2
14840KMKG MKG20060215014009302/15/06 01:40:31  5-MIN KMKG 150640Z 01006KT 9SM CLR 02/M02 A2983 710 78 -600 010/06 RMK AO2
14840KMKG MKG20060215014509302/15/06 01:45:31  5-MIN KMKG 150645Z 01006KT 9SM CLR 01/M02 A2983 710 82 -700 010/06 RMK AO2
14840KMKG MKG20060215015011002/15/06 01:50:31  5-MIN KMKG 150650Z 01007KT 9SM CLR 01/M02 A2983 710 82 -700 020/07 RMK AO2 SLP109 T00111017
14840KMKG MKG20060215015511002/15/06 01:55:31  5-MIN KMKG 150655Z 01004KT 9SM CLR 01/M02 A2984 710 82 -700 010/04 RMK AO2 SLP111 T00111017
14840KMKG MKG20060215020009302/15/06 02:00:31  5-MIN KMKG 150700Z 35004KT 9SM CLR 01/M02 A2984 700 82 -700 350/04 RMK AO2
14840KMKG MKG20060215020509302/15/06 02:05:31  5-MIN KMKG 150705Z 35005KT 8SM CLR 01/M02 A2985 700 82 -700 360/05 RMK AO2
14840KMKG MKG20060215021009302/15/06 02:10:31  5-MIN KMKG 150710Z 35005KT 8SM CLR 01/M02 A2985 700 85 -800 360/05 RMK AO2
14840KMKG MKG20060215021509302/15/06 02:15:31  5-MIN KMKG 150715Z 36006KT 8SM CLR 01/M02 A2985 700 82 -700 360/06 RMK AO2
14840KMKG MKG20060215022009602/15/06 02:20:31  5-MIN KMKG 150720Z 36005KT 8SM FEW012 01/M02 A2985 690 85 -800 360/05 RMK AO2
14840KMKG MKG20060215022509602/15/06 02:25:31  5-MIN KMKG 150725Z 35004KT 8SM SCT012 01/M02 A2986 690 85 -800 350/04 RMK AO2
14840KMKG MKG20060215023009602/15/06 02:30:31  5-MIN KMKG 150730Z 33005KT 8SM BKN012 01/M01 A2986 680 85 -800 340/05 RMK AO2
14840KMKG MKG20060215023509602/15/06 02:35:31  5-MIN KMKG 150735Z 34006KT 8SM BKN012 01/M01 A2987 680 85 -800 340/06 RMK AO2
14840KMKG MKG20060215024009602/15/06 02:40:31  5-MIN KMKG 150740Z 35005KT 8SM BKN012 01/M01 A2987 680 85 -800 350/05 RMK AO2
14840KMKG MKG20060215024509602/15/06 02:45:31  5-MIN KMKG 150745Z 36005KT 8SM OVC012 01/M01 A2987 680 85 -800 360/05 RMK AO2
14840KMKG MKG20060215025011302/15/06 02:50:31  5-MIN KMKG 150750Z 36005KT 8SM OVC012 01/M01 A2987 680 85 -800 010/05 RMK AO2 SLP121 T00111011
14840KMKG MKG20060215025511302/15/06 02:55:31  5-MIN KMKG 150755Z 35005KT 8SM OVC012 01/M01 A2987 680 85 -800 360/05 RMK AO2 SLP121 T00111011
14840KMKG MKG20060215030009602/15/06 03:00:31  5-MIN KMKG 150800Z 36004KT 8SM OVC012 01/M01 A2987 680 85 -800 360/04 RMK AO2
14840KMKG MKG20060215030509602/15/06 03:05:31  5-MIN KMKG 150805Z 35003KT 8SM OVC012 01/M01 A2987 680 85 -800 360/03 RMK AO2
14840KMKG MKG20060215031009602/15/06 03:10:31  5-MIN KMKG 150810Z 34004KT 8SM OVC012 01/M01 A2988 670 85 -800 350/04 RMK AO2
14840KMKG MKG20060215031509602/15/06 03:15:31  5-MIN KMKG 150815Z 34004KT 8SM OVC012 01/M01 A2988 670 85 -800 340/04 RMK AO2
14840KMKG MKG20060215032009602/15/06 03:20:31  5-MIN KMKG 150820Z 34004KT 8SM OVC012 01/M01 A2988 670 85 -800 350/04 RMK AO2
14840KMKG MKG20060215032509602/15/06 03:25:31  5-MIN KMKG 150825Z 34004KT 8SM OVC012 01/M01 A2988 670 85 -800 350/04 RMK AO2
14840KMKG MKG20060215033009602/15/06 03:30:31  5-MIN KMKG 150830Z 34004KT 8SM OVC012 01/M01 A2988 670 85 -800 350/04 RMK AO2
14840KMKG MKG20060215033509602/15/06 03:35:31  5-MIN KMKG 150835Z 34003KT 8SM OVC012 01/M01 A2988 660 89 -800 340/03 RMK AO2
14840KMKG MKG20060215034009602/15/06 03:40:31  5-MIN KMKG 150840Z 00000KT 8SM BKN012 01/M01 A2988 660 85 -800 000/00 RMK AO2
14840KMKG MKG20060215034509602/15/06 03:45:31  5-MIN KMKG 150845Z 00000KT 9SM BKN012 01/M01 A2988 660 85 -800 000/00 RMK AO2
14840KMKG MKG20060215035009602/15/06 03:50:31  5-MIN KMKG 150850Z 00000KT 8SM SCT012 01/M01 A2988 660 85 -800 000/00 RMK AO2
14840KMKG MKG20060215035511902/15/06 03:55:31  5-MIN KMKG 150855Z 00000KT 9SM FEW012 01/M01 A2988 660 85 -800 000/00 RMK AO2 SLP126 T00111011 51015
14840KMKG MKG20060215040009602/15/06 04:00:31  5-MIN KMKG 150900Z 00000KT 9SM FEW012 01/M01 A2989 660 85 -800 000/00 RMK AO2
14840KMKG MKG20060215040509302/15/06 04:05:31  5-MIN KMKG 150905Z 00000KT 9SM CLR 01/M01 A2989 660 85 -800 000/00 RMK AO2
14840KMKG MKG20060215041009302/15/06 04:10:31  5-MIN KMKG 150910Z 00000KT 8SM CLR 01/M01 A2989 660 89 -900 000/00 RMK AO2
14840KMKG MKG20060215041509302/15/06 04:15:31  5-MIN KMKG 150915Z 30003KT 8SM CLR 00/M02 A2989 650 88 -900 300/03 RMK AO2
14840KMKG MKG20060215042009302/15/06 04:20:31  5-MIN KMKG 150920Z 29004KT 8SM CLR 00/M02 A2989 660 88 -900 300/04 RMK AO2
14840KMKG MKG20060215042509302/15/06 04:25:31  5-MIN KMKG 150925Z 30004KT 8SM CLR 01/M01 A2989 660 89 -900 300/04 RMK AO2
14840KMKG MKG20060215043009302/15/06 04:30:31  5-MIN KMKG 150930Z 30004KT 9SM CLR 00/M01 A2990 650 92 -900 310/04 RMK AO2
14840KMKG MKG20060215043509302/15/06 04:35:31  5-MIN KMKG 150935Z 30004KT 9SM CLR 00/M01 A2990 650 92 -900 300/04 RMK AO2
14840KMKG MKG20060215044009302/15/06 04:40:31  5-MIN KMKG 150940Z 30004KT 9SM CLR 00/M01 A2990 650 92 -900 310/04 RMK AO2
14840KMKG MKG20060215044509302/15/06 04:45:31  5-MIN KMKG 150945Z 29004KT 9SM CLR 01/M01 A2990 640 89 -900 300/04 RMK AO2
14840KMKG MKG20060215045011002/15/06 04:50:31  5-MIN KMKG 150950Z 30004KT 9SM CLR 00/M01 A2991 640 92 -900 300/04 RMK AO2 SLP134 T00001011
14840KMKG MKG20060215045511002/15/06 04:55:31  5-MIN KMKG 150955Z 29004KT 8SM CLR 00/M01 A2991 640 92 -900 290/04 RMK AO2 SLP135 T00001011
14840KMKG MKG20060215050009302/15/06 05:00:31  5-MIN KMKG 151000Z 29003KT 9SM CLR 01/M01 A2991 640 92 -900 290/03 RMK AO2
14840KMKG MKG20060215050509402/15/06 05:05:31  5-MIN KMKG 151005Z 00000KT 8SM CLR 00/M01 A2992 630 92 -1000 000/00 RMK AO2
14840KMKG MKG20060215051009402/15/06 05:10:31  5-MIN KMKG 151010Z 00000KT 8SM CLR 00/M01 A2992 630 92 -1000 000/00 RMK AO2
14840KMKG MKG20060215051509402/15/06 05:15:31  5-MIN KMKG 151015Z 29003KT 9SM CLR 00/M01 A2992 630 92 -1000 300/03 RMK AO2
14840KMKG MKG20060215052009402/15/06 05:20:31  5-MIN KMKG 151020Z 29003KT 10SM CLR 01/M01 A2992 630 92 -900 290/03 RMK AO2
14840KMKG MKG20060215052509402/15/06 05:25:31  5-MIN KMKG 151025Z 28003KT 10SM CLR 01/M01 A2992 630 92 -900 290/03 RMK AO2
14840KMKG MKG20060215053009402/15/06 05:30:31  5-MIN KMKG 151030Z 29003KT 10SM CLR 01/M01 A2993 620 92 -900 290/03 RMK AO2
14840KMKG MKG20060215053509402/15/06 05:35:31  5-MIN KMKG 151035Z 31003KT 10SM CLR 01/M01 A2993 620 92 -900 310/03 RMK AO2
14840KMKG MKG20060215054009402/15/06 05:40:31  5-MIN KMKG 151040Z 31004KT 10SM CLR 01/M01 A2993 620 92 -900 310/04 RMK AO2
14840KMKG MKG20060215054509402/15/06 05:45:31  5-MIN KMKG 151045Z 30005KT 10SM CLR 01/M01 A2993 620 92 -900 300/05 RMK AO2
14840KMKG MKG20060215055011102/15/06 05:50:31  5-MIN KMKG 151050Z 30005KT 10SM CLR 01/M01 A2994 620 92 -900 300/05 RMK AO2 SLP144 T00061006
14840KMKG MKG20060215055511102/15/06 05:55:31  5-MIN KMKG 151055Z 30005KT 10SM CLR 01/M01 A2994 620 92 -900 300/05 RMK AO2 SLP144 T00061006
14840KMKG MKG20060215060009502/15/06 06:00:31  5-MIN KMKG 151100Z 30005KT 10SM CLR 01/00 A2994 610 92 -800 310/05 RMK AO2 $
14840KMKG MKG20060215060509802/15/06 06:05:31  5-MIN KMKG 151105Z 31004KT 10SM FEW049 01/00 A2994 610 92 -800 310/04 RMK AO2 $
14840KMKG MKG20060215061009802/15/06 06:10:31  5-MIN KMKG 151110Z 30006KT 10SM FEW049 01/00 A2994 610 92 -800 310/06 RMK AO2 $
14840KMKG MKG20060215061509802/15/06 06:15:31  5-MIN KMKG 151115Z 31005KT 10SM FEW049 02/00 A2995 610 89 -800 310/05 RMK AO2 $
14840KMKG MKG20060215062010502/15/06 06:20:31  5-MIN KMKG 151120Z 30005KT 10SM FEW049 SCT070 01/00 A2995 600 92 -900 310/05 RMK AO2 $
14840KMKG MKG20060215062510502/15/06 06:25:31  5-MIN KMKG 151125Z 31006KT 10SM FEW049 SCT070 02/00 A2995 600 89 -800 310/06 RMK AO2 $
14840KMKG MKG20060215063010502/15/06 06:30:31  5-MIN KMKG 151130Z 30007KT 10SM FEW049 SCT070 02/00 A2995 600 89 -800 310/07 RMK AO2 $
14840KMKG MKG20060215063509802/15/06 06:35:31  5-MIN KMKG 151135Z 29008KT 10SM FEW070 02/00 A2996 600 89 -800 300/08 RMK AO2 $
14840KMKG MKG20060215064009802/15/06 06:40:31  5-MIN KMKG 151140Z 29008KT 10SM FEW070 02/00 A2996 600 89 -800 300/08 RMK AO2 $
14840KMKG MKG20060215064509802/15/06 06:45:31  5-MIN KMKG 151145Z 30008KT 10SM FEW070 02/00 A2996 600 89 -800 300/08 RMK AO2 $
14840KMKG MKG20060215065013602/15/06 06:50:31  5-MIN KMKG 151150Z 30007KT 10SM CLR 02/00 A2996 600 89 -800 310/07 RMK AO2 SLP149 7//// T00170000 10028 21006 51015 $
14840KMKG MKG20060215065513602/15/06 06:55:31  5-MIN KMKG 151155Z 31008KT 10SM CLR 02/00 A2996 600 85 -700 310/08 RMK AO2 SLP150 7//// T00220000 10028 21006 51024 $
14840KMKG MKG20060215070009502/15/06 07:00:31  5-MIN KMKG 151200Z 30007KT 10SM CLR 02/00 A2996 590 85 -700 310/07 RMK AO2 $
14840KMKG MKG20060215070509502/15/06 07:05:31  5-MIN KMKG 151205Z 31007KT 10SM CLR 02/00 A2996 590 85 -700 320/07 RMK AO2 $
14840KMKG MKG20060215071009502/15/06 07:10:31  5-MIN KMKG 151210Z 31006KT 10SM CLR 02/00 A2996 590 85 -700 320/06 RMK AO2 $
14840KMKG MKG20060215071509502/15/06 07:15:31  5-MIN KMKG 151215Z 32006KT 10SM CLR 02/00 A2996 590 85 -700 330/06 RMK AO2 $
14840KMKG MKG20060215072009502/15/06 07:20:31  5-MIN KMKG 151220Z 32005KT 10SM CLR 02/00 A2996 590 85 -700 330/05 RMK AO2 $
14840KMKG MKG20060215072509502/15/06 07:25:31  5-MIN KMKG 151225Z 32006KT 10SM CLR 02/00 A2997 590 89 -800 320/06 RMK AO2 $
14840KMKG MKG20060215073009602/15/06 07:30:31  5-MIN KMKG 151230Z 32006KT 10SM CLR 02/M01 A2997 590 85 -800 320/06 RMK AO2 $
14840KMKG MKG20060215073509602/15/06 07:35:31  5-MIN KMKG 151235Z 32008KT 10SM CLR 02/M01 A2997 580 82 -700 330/08 RMK AO2 $
14840KMKG MKG20060215074009602/15/06 07:40:31  5-MIN KMKG 151240Z 33008KT 10SM CLR 02/M01 A2998 580 82 -700 330/08 RMK AO2 $
14840KMKG MKG20060215074509602/15/06 07:45:31  5-MIN KMKG 151245Z 32008KT 10SM CLR 02/M01 A2998 580 85 -800 330/08 RMK AO2 $
14840KMKG MKG20060215075011302/15/06 07:50:31  5-MIN KMKG 151250Z 32009KT 10SM CLR 02/M01 A2998 580 85 -800 320/09 RMK AO2 SLP157 T00171006 $
14840KMKG MKG20060215075511302/15/06 07:55:31  5-MIN KMKG 151255Z 32006KT 10SM CLR 02/M01 A2998 580 85 -800 320/06 RMK AO2 SLP159 T00171006 $
14840KMKG MKG20060215080009602/15/06 08:00:31  5-MIN KMKG 151300Z 32006KT 10SM CLR 02/M01 A2998 570 85 -800 330/06 RMK AO2 $
14840KMKG MKG20060215080509602/15/06 08:05:31  5-MIN KMKG 151305Z 32006KT 10SM CLR 02/M01 A2998 570 85 -800 330/06 RMK AO2 $
14840KMKG MKG20060215081009602/15/06 08:10:31  5-MIN KMKG 151310Z 32005KT 10SM CLR 02/M01 A2999 570 85 -800 320/05 RMK AO2 $
14840KMKG MKG20060215081509602/15/06 08:15:31  5-MIN KMKG 151315Z VRB05KT 10SM CLR 02/M01 A2999 560 82 -800 VRB/05 RMK AO2 $
14840KMKG MKG20060215082009602/15/06 08:20:31  5-MIN KMKG 151320Z 31008KT 10SM CLR 02/M01 A2999 560 82 -800 310/08 RMK AO2 $
14840KMKG MKG20060215082509602/15/06 08:25:31  5-MIN KMKG 151325Z 32006KT 10SM CLR 02/M01 A3000 560 82 -800 320/06 RMK AO2 $
14840KMKG MKG20060215083009602/15/06 08:30:31  5-MIN KMKG 151330Z 32005KT 10SM CLR 02/M01 A3000 550 82 -800 320/05 RMK AO2 $
14840KMKG MKG20060215083509602/15/06 08:35:31  5-MIN KMKG 151335Z 31004KT 10SM CLR 02/M01 A3001 550 78 -800 320/04 RMK AO2 $
14840KMKG MKG20060215084009602/15/06 08:40:31  5-MIN KMKG 151340Z 32006KT 10SM CLR 02/M01 A3001 550 82 -900 320/06 RMK AO2 $
14840KMKG MKG20060215084509602/15/06 08:45:31  5-MIN KMKG 151345Z 32006KT 10SM CLR 02/M01 A3001 540 82 -900 320/06 RMK AO2 $
14840KMKG MKG20060215085011302/15/06 08:50:31  5-MIN KMKG 151350Z 33006KT 10SM CLR 02/M01 A3001 540 82 -900 330/06 RMK AO2 SLP169 T00171011 $
14840KMKG MKG20060215085511302/15/06 08:55:31  5-MIN KMKG 151355Z 34006KT 10SM CLR 02/M01 A3002 540 82 -900 340/06 RMK AO2 SLP171 T00171011 $
14840KMKG MKG20060215090009602/15/06 09:00:31  5-MIN KMKG 151400Z 34006KT 10SM CLR 02/M01 A3002 540 82 -900 340/06 RMK AO2 $
14840KMKG MKG20060215090509602/15/06 09:05:31  5-MIN KMKG 151405Z 33006KT 10SM CLR 02/M01 A3002 540 82 -900 330/06 RMK AO2 $
14840KMKG MKG20060215091009602/15/06 09:10:31  5-MIN KMKG 151410Z 32004KT 10SM CLR 02/M01 A3003 530 78 -800 330/04 RMK AO2 $
14840KMKG MKG20060215091509602/15/06 09:15:31  5-MIN KMKG 151415Z 32006KT 10SM CLR 02/M01 A3003 530 78 -800 330/06 RMK AO2 $
14840KMKG MKG20060215092009902/15/06 09:20:31  5-MIN KMKG 151420Z 32006KT 10SM FEW015 02/M01 A3003 530 78 -800 320/06 RMK AO2 $
14840KMKG MKG20060215092509902/15/06 09:25:31  5-MIN KMKG 151425Z 33006KT 10SM FEW015 02/M01 A3004 520 78 -800 330/06 RMK AO2 $
14840KMKG MKG20060215093009902/15/06 09:30:31  5-MIN KMKG 151430Z 32007KT 10SM SCT015 02/M01 A3004 520 78 -800 320/07 RMK AO2 $
14840KMKG MKG20060215093509902/15/06 09:35:31  5-MIN KMKG 151435Z 33007KT 10SM BKN015 02/M01 A3004 520 78 -800 330/07 RMK AO2 $
14840KMKG MKG20060215094009802/15/06 09:40:31  5-MIN KMKG 151440Z 34007KT 9SM BKN015 02/M01 A3004 520 82 -900 340/07 RMK AO2 $
14840KMKG MKG20060215094509802/15/06 09:45:31  5-MIN KMKG 151445Z 33008KT 9SM BKN015 02/M01 A3003 520 82 -900 340/08 RMK AO2 $
14840KMKG MKG20060215095012102/15/06 09:50:31  5-MIN KMKG 151450Z 34009KT 9SM BKN015 02/M01 A3004 520 82 -900 340/09 RMK AO2 SLP177 T00171011 51024 $
14840KMKG MKG20060215095512202/15/06 09:55:31  5-MIN KMKG 151455Z 32006KT 10SM BKN015 02/M01 A3004 520 82 -900 320/06 RMK AO2 SLP179 T00171011 53028 $
14840KMKG MKG20060215100009902/15/06 10:00:31  5-MIN KMKG 151500Z 34006KT 10SM BKN015 02/M01 A3004 520 78 -800 340/06 RMK AO2 $
14840KMKG MKG20060215100509802/15/06 10:05:31  5-MIN KMKG 151505Z 34007KT 9SM SCT015 02/M01 A3005 510 78 -800 350/07 RMK AO2 $
14840KMKG MKG20060215101009902/15/06 10:10:31  5-MIN KMKG 151510Z 35006KT 10SM FEW015 02/M01 A3005 510 78 -800 350/06 RMK AO2 $
14840KMKG MKG20060215101509902/15/06 10:15:31  5-MIN KMKG 151515Z 32006KT 10SM FEW015 02/M01 A3005 510 78 -800 330/06 RMK AO2 $
14840KMKG MKG20060215102009902/15/06 10:20:31  5-MIN KMKG 151520Z 32006KT 10SM FEW015 02/M01 A3006 500 78 -800 320/06 RMK AO2 $
14840KMKG MKG20060215102509902/15/06 10:25:31  5-MIN KMKG 151525Z 34006KT 10SM FEW015 02/M01 A3006 500 78 -800 340/06 RMK AO2 $
14840KMKG MKG20060215103009902/15/06 10:30:31  5-MIN KMKG 151530Z 33006KT 10SM FEW015 02/M01 A3006 500 78 -800 330/06 RMK AO2 $
14840KMKG MKG20060215103509902/15/06 10:35:31  5-MIN KMKG 151535Z 33005KT 10SM SCT017 02/M01 A3007 500 78 -800 340/05 RMK AO2 $
14840KMKG MKG20060215104009902/15/06 10:40:31  5-MIN KMKG 151540Z 36006KT 10SM BKN017 02/M01 A3007 490 78 -900 360/06 RMK AO2 $
14840KMKG MKG20060215104509902/15/06 10:45:31  5-MIN KMKG 151545Z 36005KT 10SM BKN017 02/M01 A3007 490 78 -900 360/05 RMK AO2 $
14840KMKG MKG20060215105011602/15/06 10:50:31  5-MIN KMKG 151550Z 34006KT 10SM BKN017 02/M01 A3007 490 78 -900 340/06 RMK AO2 SLP190 T00221011 $
14840KMKG MKG20060215105511602/15/06 10:55:31  5-MIN KMKG 151555Z 35005KT 10SM BKN017 02/M01 A3008 490 78 -900 360/05 RMK AO2 SLP191 T00221011 $
14840KMKG MKG20060215110009902/15/06 11:00:31  5-MIN KMKG 151600Z 34003KT 10SM BKN017 03/M01 A3008 480 75 -800 350/03 RMK AO2 $
14840KMKG MKG20060215110509902/15/06 11:05:31  5-MIN KMKG 151605Z 34004KT 10SM SCT017 03/M01 A3009 480 75 -800 340/04 RMK AO2 $
14840KMKG MKG20060215111009902/15/06 11:10:31  5-MIN KMKG 151610Z 34004KT 10SM BKN019 03/M02 A3009 480 72 -800 350/04 RMK AO2 $
14840KMKG MKG20060215111509902/15/06 11:15:31  5-MIN KMKG 151615Z 35004KT 10SM BKN019 03/M02 A3009 470 72 -800 350/04 RMK AO2 $
14840KMKG MKG20060215112009902/15/06 11:20:31  5-MIN KMKG 151620Z 01005KT 10SM BKN019 03/M02 A3009 480 72 -800 010/05 RMK AO2 $
14840KMKG MKG20060215112509902/15/06 11:25:31  5-MIN KMKG 151625Z 36003KT 10SM BKN019 03/M02 A3009 470 72 -800 360/03 RMK AO2 $
14840KMKG MKG20060215113009902/15/06 11:30:31  5-MIN KMKG 151630Z 36005KT 10SM BKN019 03/M02 A3010 470 72 -800 010/05 RMK AO2 $
14840KMKG MKG20060215113509902/15/06 11:35:31  5-MIN KMKG 151635Z 36006KT 10SM BKN019 03/M02 A3010 470 72 -800 360/06 RMK AO2 $
14840KMKG MKG20060215114009902/15/06 11:40:31  5-MIN KMKG 151640Z 36005KT 10SM BKN019 03/M02 A3010 460 72 -800 360/05 RMK AO2 $
14840KMKG MKG20060215114509902/15/06 11:45:31  5-MIN KMKG 151645Z 33007KT 10SM BKN021 03/M02 A3010 460 72 -800 330/07 RMK AO2 $
14840KMKG MKG20060215115012302/15/06 11:50:31  5-MIN KMKG 151650Z 33005KT 10SM SCT021 BKN026 03/M02 A3010 460 69 -800 340/05 RMK AO2 SLP199 T00281022 $
14840KMKG MKG20060215115512302/15/06 11:55:31  5-MIN KMKG 151655Z 33005KT 10SM SCT021 BKN026 03/M02 A3010 460 72 -800 330/05 RMK AO2 SLP200 T00281017 $
14840KMKG MKG20060215120010602/15/06 12:00:31  5-MIN KMKG 151700Z 36004KT 10SM SCT021 BKN026 03/M02 A3010 460 72 -800 010/04 RMK AO2 $
14840KMKG MKG20060215120510602/15/06 12:05:31  5-MIN KMKG 151705Z 02004KT 10SM SCT021 BKN026 03/M02 A3010 460 69 -800 020/04 RMK AO2 $
14840KMKG MKG20060215121010602/15/06 12:10:31  5-MIN KMKG 151710Z 36005KT 10SM SCT021 BKN026 03/M02 A3010 460 69 -800 010/05 RMK AO2 $
14840KMKG MKG20060215121510602/15/06 12:15:31  5-MIN KMKG 151715Z 36005KT 10SM SCT021 BKN026 03/M02 A3010 460 67 -800 360/05 RMK AO2 $
14840KMKG MKG20060215122009902/15/06 12:20:31  5-MIN KMKG 151720Z 36006KT 10SM FEW026 03/M02 A3010 460 69 -800 010/06 RMK AO2 $
14840KMKG MKG20060215122509902/15/06 12:25:31  5-MIN KMKG 151725Z 33004KT 10SM SCT024 03/M02 A3010 460 69 -800 330/04 RMK AO2 $
14840KMKG MKG20060215123009902/15/06 12:30:31  5-MIN KMKG 151730Z 33006KT 10SM BKN024 03/M02 A3010 460 69 -800 340/06 RMK AO2 $
14840KMKG MKG20060215123509902/15/06 12:35:31  5-MIN KMKG 151735Z 34007KT 10SM SCT024 03/M02 A3011 460 69 -800 340/07 RMK AO2 $
14840KMKG MKG20060215124009902/15/06 12:40:31  5-MIN KMKG 151740Z 36005KT 10SM BKN024 03/M02 A3010 460 69 -800 360/05 RMK AO2 $
14840KMKG MKG20060215124509902/15/06 12:45:31  5-MIN KMKG 151745Z 36006KT 10SM BKN024 03/M02 A3011 460 67 -800 360/06 RMK AO2 $
14840KMKG MKG20060215125009902/15/06 12:50:31  5-MIN KMKG 151750Z 34006KT 10SM SCT024 03/M02 A3011 460 67 -800 350/06 RMK AO2 $
14840KMKG MKG20060215125513402/15/06 12:55:31  5-MIN KMKG 151755Z 36008KT 10SM SCT024 03/M03 A3011 460 64 -800 010/08 RMK AO2 SLP201 T00331028 10033 20017 51021 $
14840KMKG MKG20060215130009602/15/06 13:00:31  5-MIN KMKG 151800Z 35008KT 10SM CLR 03/M03 A3011 460 61 -800 360/08 RMK AO2 $
14840KMKG MKG20060215130509602/15/06 13:05:31  5-MIN KMKG 151805Z 33007KT 10SM CLR 03/M04 A3011 460 61 -800 330/07 RMK AO2 $
14840KMKG MKG20060215131009602/15/06 13:10:31  5-MIN KMKG 151810Z 34008KT 10SM CLR 03/M04 A3011 460 61 -800 350/08 RMK AO2 $
14840KMKG MKG20060215131509602/15/06 13:15:31  5-MIN KMKG 151815Z 34006KT 10SM CLR 03/M03 A3011 460 61 -800 340/06 RMK AO2 $
14840KMKG MKG20060215132009602/15/06 13:20:31  5-MIN KMKG 151820Z 34008KT 10SM CLR 03/M03 A3010 460 64 -800 340/08 RMK AO2 $
14840KMKG MKG20060215132509602/15/06 13:25:31  5-MIN KMKG 151825Z 33008KT 10SM CLR 03/M03 A3010 460 61 -700 340/08 RMK AO2 $
14840KMKG MKG20060215133009602/15/06 13:30:31  5-MIN KMKG 151830Z 34007KT 10SM CLR 03/M04 A3010 470 57 -700 350/07 RMK AO2 $
14840KMKG MKG20060215133509602/15/06 13:35:31  5-MIN KMKG 151835Z 34007KT 10SM CLR 03/M05 A3010 470 54 -700 340/07 RMK AO2 $
14840KMKG MKG20060215134009602/15/06 13:40:31  5-MIN KMKG 151840Z 31005KT 10SM CLR 03/M04 A3010 470 59 -800 310/05 RMK AO2 $
14840KMKG MKG20060215134509902/15/06 13:45:31  5-MIN KMKG 151845Z 01006KT 10SM FEW120 03/M04 A3009 470 59 -700 020/06 RMK AO2 $
14840KMKG MKG20060215135011602/15/06 13:50:31  5-MIN KMKG 151850Z 35004KT 10SM FEW110 03/M04 A3009 470 59 -700 360/04 RMK AO2 SLP198 T00331039 $
14840KMKG MKG20060215135511602/15/06 13:55:31  5-MIN KMKG 151855Z 34005KT 10SM FEW110 03/M04 A3009 470 59 -700 340/05 RMK AO2 SLP197 T00331039 $
14840KMKG MKG20060215140009902/15/06 14:00:31  5-MIN KMKG 151900Z 35004KT 10SM SCT110 03/M04 A3009 470 61 -800 360/04 RMK AO2 $
14840KMKG MKG20060215140509902/15/06 14:05:31  5-MIN KMKG 151905Z 33004KT 10SM SCT110 03/M04 A3010 470 59 -800 340/04 RMK AO2 $
14840KMKG MKG20060215141009902/15/06 14:10:31  5-MIN KMKG 151910Z 32004KT 10SM SCT110 03/M04 A3009 470 59 -800 330/04 RMK AO2 $
14840KMKG MKG20060215141509902/15/06 14:15:31  5-MIN KMKG 151915Z 33005KT 10SM FEW110 03/M04 A3010 470 61 -800 330/05 RMK AO2 $
14840KMKG MKG20060215142009902/15/06 14:20:31  5-MIN KMKG 151920Z 32003KT 10SM FEW110 03/M04 A3010 470 59 -800 320/03 RMK AO2 $
14840KMKG MKG20060215142509902/15/06 14:25:31  5-MIN KMKG 151925Z 29005KT 10SM SCT110 03/M04 A3010 470 59 -800 300/05 RMK AO2 $
14840KMKG MKG20060215143009902/15/06 14:30:31  5-MIN KMKG 151930Z 31005KT 10SM SCT100 03/M04 A3010 460 59 -800 320/05 RMK AO2 $
14840KMKG MKG20060215143509902/15/06 14:35:31  5-MIN KMKG 151935Z 29005KT 10SM SCT100 03/M04 A3010 470 61 -800 290/05 RMK AO2 $
14840KMKG MKG20060215144009902/15/06 14:40:31  5-MIN KMKG 151940Z 28006KT 10SM SCT100 03/M03 A3010 470 64 -800 280/06 RMK AO2 $
14840KMKG MKG20060215144509902/15/06 14:45:31  5-MIN KMKG 151945Z 29006KT 10SM SCT100 02/M03 A3010 470 67 -900 290/06 RMK AO2 $
14840KMKG MKG20060215145011602/15/06 14:50:31  5-MIN KMKG 151950Z 29006KT 10SM SCT100 02/M03 A3010 470 67 -900 300/06 RMK AO2 SLP198 T00221033 $
14840KMKG MKG20060215145511602/15/06 14:55:31  5-MIN KMKG 151955Z 30006KT 10SM SCT100 02/M03 A3010 470 67 -900 300/06 RMK AO2 SLP199 T00221033 $
14840KMKG MKG20060215150009902/15/06 15:00:31  5-MIN KMKG 152000Z 31006KT 10SM FEW100 02/M03 A3010 470 67 -900 310/06 RMK AO2 $
14840KMKG MKG20060215150509902/15/06 15:05:31  5-MIN KMKG 152005Z 31006KT 10SM FEW100 02/M03 A3010 470 67 -900 310/06 RMK AO2 $
14840KMKG MKG20060215151009902/15/06 15:10:31  5-MIN KMKG 152010Z 30006KT 10SM FEW100 02/M03 A3010 470 67 -900 310/06 RMK AO2 $
14840KMKG MKG20060215151510002/15/06 15:15:31  5-MIN KMKG 152015Z 31006KT 10SM FEW110 02/M04 A3010 470 66 -1000 310/06 RMK AO2 $
14840KMKG MKG20060215152010002/15/06 15:20:31  5-MIN KMKG 152020Z 30007KT 10SM FEW110 02/M04 A3010 470 66 -1000 310/07 RMK AO2 $
14840KMKG MKG20060215152510002/15/06 15:25:31  5-MIN KMKG 152025Z 30007KT 10SM FEW100 02/M04 A3010 460 66 -1000 300/07 RMK AO2 $
14840KMKG MKG20060215153010002/15/06 15:30:31  5-MIN KMKG 152030Z 30007KT 10SM SCT100 02/M04 A3010 460 66 -1000 300/07 RMK AO2 $
14840KMKG MKG20060215153510702/15/06 15:35:31  5-MIN KMKG 152035Z 30008KT 10SM SCT100 BKN110 02/M04 A3010 460 66 -1000 300/08 RMK AO2 $
14840KMKG MKG20060215154010002/15/06 15:40:31  5-MIN KMKG 152040Z 31007KT 10SM SCT095 02/M04 A3010 460 66 -1000 310/07 RMK AO2 $
14840KMKG MKG20060215154510002/15/06 15:45:31  5-MIN KMKG 152045Z 31007KT 10SM SCT095 02/M04 A3011 460 66 -1000 310/07 RMK AO2 $
14840KMKG MKG20060215155012302/15/06 15:50:31  5-MIN KMKG 152050Z 30006KT 10SM BKN090 02/M04 A3010 460 66 -1000 310/06 RMK AO2 SLP201 T00171039 51021 $
14840KMKG MKG20060215155513002/15/06 15:55:31  5-MIN KMKG 152055Z 32006KT 10SM BKN080 BKN095 01/M04 A3010 460 69 -1000 320/06 RMK AO2 SLP200 T00111039 55002 $
14840KMKG MKG20060215160010702/15/06 16:00:31  5-MIN KMKG 152100Z 31005KT 10SM BKN075 BKN095 01/M04 A3010 460 69 -1000 320/05 RMK AO2 $
14840KMKG MKG20060215160510702/15/06 16:05:31  5-MIN KMKG 152105Z 31005KT 10SM BKN075 BKN100 01/M04 A3010 460 69 -1000 310/05 RMK AO2 $
14840KMKG MKG20060215161010702/15/06 16:10:31  5-MIN KMKG 152110Z 32005KT 10SM BKN075 OVC100 02/M04 A3011 460 66 -1000 320/05 RMK AO2 $
14840KMKG MKG20060215161510702/15/06 16:15:31  5-MIN KMKG 152115Z 31007KT 10SM BKN075 OVC100 01/M04 A3011 460 69 -1000 320/07 RMK AO2 $
14840KMKG MKG20060215162010702/15/06 16:20:31  5-MIN KMKG 152120Z 32007KT 10SM BKN070 OVC095 01/M04 A3011 460 69 -1000 320/07 RMK AO2 $
14840KMKG MKG20060215162511402/15/06 16:25:31  5-MIN KMKG 152125Z 33008KT 10SM BKN070 BKN090 OVC100 01/M04 A3011 460 69 -1000 330/08 RMK AO2 $
14840KMKG MKG20060215163011402/15/06 16:30:31  5-MIN KMKG 152130Z 33008KT 10SM SCT070 BKN090 BKN100 01/M04 A3011 460 69 -1000 330/08 RMK AO2 $
14840KMKG MKG20060215163510702/15/06 16:35:31  5-MIN KMKG 152135Z 33008KT 10SM SCT070 BKN090 02/M04 A3011 450 66 -1000 330/08 RMK AO2 $
14840KMKG MKG20060215164010702/15/06 16:40:31  5-MIN KMKG 152140Z 33008KT 10SM SCT065 BKN090 02/M04 A3011 450 66 -1000 330/08 RMK AO2 $
14840KMKG MKG20060215164512202/15/06 16:45:31  5-MIN KMKG 152145Z 33009KT 10SM SCT065 BKN090 02/M04 A3011 450 64 -1000 330/09 RMK AO2 CIG 070 RWY 14 $
14840KMKG MKG20060215165012402/15/06 16:50:31  5-MIN KMKG 152150Z 33008KT 10SM BKN065 BKN085 02/M04 A3011 450 66 -1000 340/08 RMK AO2 SLP204 T00171039 $
14840KMKG MKG20060215165511702/15/06 16:55:31  5-MIN KMKG 152155Z 34006KT 10SM BKN065 02/M04 A3012 450 66 -1000 340/06 RMK AO2 SLP205 T00171039 $
14840KMKG MKG20060215170010002/15/06 17:00:31  5-MIN KMKG 152200Z 35006KT 10SM BKN065 02/M04 A3011 450 66 -1000 350/06 RMK AO2 $
14840KMKG MKG20060215170510702/15/06 17:05:31  5-MIN KMKG 152205Z 36008KT 10SM BKN060 BKN080 02/M04 A3011 450 64 -1000 360/08 RMK AO2 $
14840KMKG MKG20060215171010702/15/06 17:10:31  5-MIN KMKG 152210Z 36009KT 10SM BKN060 OVC075 02/M05 A3011 460 61 -1000 010/09 RMK AO2 $
14840KMKG MKG20060215171510702/15/06 17:15:31  5-MIN KMKG 152215Z 35009KT 10SM BKN060 OVC075 02/M05 A3011 460 61 -1000 360/09 RMK AO2 $
14840KMKG MKG20060215172010702/15/06 17:20:31  5-MIN KMKG 152220Z 35008KT 10SM BKN065 OVC075 01/M05 A3011 460 64 -1000 350/08 RMK AO2 $
14840KMKG MKG20060215172510702/15/06 17:25:31  5-MIN KMKG 152225Z 36009KT 10SM BKN060 OVC075 01/M05 A3011 460 64 -1000 360/09 RMK AO2 $
14840KMKG MKG20060215173011402/15/06 17:30:31  5-MIN KMKG 152230Z 36007KT 10SM BKN065 BKN075 OVC090 01/M06 A3011 460 61 -1000 360/07 RMK AO2 $
14840KMKG MKG20060215173510702/15/06 17:35:31  5-MIN KMKG 152235Z 35006KT 10SM BKN070 OVC090 01/M05 A3011 460 64 -1000 350/06 RMK AO2 $
14840KMKG MKG20060215174011402/15/06 17:40:31  5-MIN KMKG 152240Z 36009KT 10SM SCT070 BKN085 OVC120 01/M05 A3011 460 64 -1000 360/09 RMK AO2 $
14840KMKG MKG20060215174511402/15/06 17:45:31  5-MIN KMKG 152245Z 36008KT 10SM SCT070 BKN095 OVC120 01/M06 A3010 460 61 -1000 010/08 RMK AO2 $
14840KMKG MKG20060215175013102/15/06 17:50:31  5-MIN KMKG 152250Z 36008KT 10SM FEW070 BKN100 OVC120 01/M06 A3010 460 61 -1000 010/08 RMK AO2 SLP201 T00111056 $
14840KMKG MKG20060215175513102/15/06 17:55:31  5-MIN KMKG 152255Z 01007KT 10SM SCT070 BKN100 OVC120 01/M06 A3011 460 61 -1000 020/07 RMK AO2 SLP201 T00111056 $
14840KMKG MKG20060215180011402/15/06 18:00:31  5-MIN KMKG 152300Z 36008KT 10SM FEW070 BKN100 BKN120 01/M06 A3010 460 61 -1000 010/08 RMK AO2 $
14840KMKG MKG20060215180512902/15/06 18:05:31  5-MIN KMKG 152305Z 01007KT 10SM FEW060 SCT075 BKN100 01/M06 A3010 460 58 -1000 010/07 RMK AO2 CIG 075 RWY 14 $
14840KMKG MKG20060215181011402/15/06 18:10:31  5-MIN KMKG 152310Z 01008KT 10SM BKN065 BKN100 OVC120 01/M06 A3010 460 58 -1000 020/08 RMK AO2 $
14840KMKG MKG20060215181510702/15/06 18:15:31  5-MIN KMKG 152315Z 02009KT 10SM BKN065 OVC095 01/M06 A3010 460 58 -1000 020/09 RMK AO2 $
14840KMKG MKG20060215182010702/15/06 18:20:31  5-MIN KMKG 152320Z 01007KT 10SM BKN060 OVC095 01/M06 A3010 460 58 -1000 020/07 RMK AO2 $
14840KMKG MKG20060215182510702/15/06 18:25:31  5-MIN KMKG 152325Z 01007KT 10SM BKN060 OVC095 01/M06 A3011 460 58 -1000 020/07 RMK AO2 $
14840KMKG MKG20060215183010002/15/06 18:30:31  5-MIN KMKG 152330Z 03007KT 10SM OVC060 01/M06 A3011 460 58 -1000 030/07 RMK AO2 $
14840KMKG MKG20060215183510702/15/06 18:35:31  5-MIN KMKG 152335Z 04007KT 10SM BKN060 OVC075 01/M06 A3011 460 58 -1000 040/07 RMK AO2 $
14840KMKG MKG20060215184010702/15/06 18:40:31  5-MIN KMKG 152340Z 03007KT 10SM BKN060 OVC075 01/M06 A3011 460 58 -1000 040/07 RMK AO2 $
14840KMKG MKG20060215184511402/15/06 18:45:31  5-MIN KMKG 152345Z 03006KT 10SM SCT060 BKN075 OVC090 01/M06 A3011 460 58 -1000 030/06 RMK AO2 $
14840KMKG MKG20060215185014202/15/06 18:50:31  5-MIN KMKG 152350Z 02005KT 10SM BKN070 OVC090 01/M06 A3011 450 58 -1000 020/05 RMK AO2 SLP204 T00111061 10033 20011 55002 $
14840KMKG MKG20060215185514202/15/06 18:55:31  5-MIN KMKG 152355Z 04004KT 10SM BKN070 OVC085 01/M06 A3012 450 58 -1000 040/04 RMK AO2 SLP205 T00111061 10033 20011 51005 $
14840KMKG MKG20060215190010702/15/06 19:00:31  5-MIN KMKG 160000Z 06005KT 10SM BKN070 OVC085 01/M06 A3012 440 58 -1100 060/05 RMK AO2 $
14840KMKG MKG20060215190510702/15/06 19:05:31  5-MIN KMKG 160005Z 05004KT 10SM BKN070 OVC090 01/M06 A3013 440 58 -1100 050/04 RMK AO2 $
14840KMKG MKG20060215191010702/15/06 19:10:31  5-MIN KMKG 160010Z 05004KT 10SM BKN070 OVC090 01/M06 A3013 440 58 -1100 060/04 RMK AO2 $
14840KMKG MKG20060215191510702/15/06 19:15:31  5-MIN KMKG 160015Z 04004KT 10SM BKN070 OVC085 01/M06 A3013 440 58 -1100 040/04 RMK AO2 $
14840KMKG MKG20060215192010702/15/06 19:20:31  5-MIN KMKG 160020Z 04006KT 10SM BKN065 OVC085 01/M06 A3014 430 58 -1100 050/06 RMK AO2 $
14840KMKG MKG20060215192510702/15/06 19:25:31  5-MIN KMKG 160025Z 03005KT 10SM BKN060 OVC085 01/M06 A3014 430 58 -1100 040/05 RMK AO2 $
14840KMKG MKG20060215193010702/15/06 19:30:31  5-MIN KMKG 160030Z 04005KT 10SM BKN065 OVC085 01/M06 A3014 430 61 -1100 050/05 RMK AO2 $
14840KMKG MKG20060215193510702/15/06 19:35:31  5-MIN KMKG 160035Z 04006KT 10SM BKN065 OVC080 01/M06 A3014 430 61 -1100 050/06 RMK AO2 $
14840KMKG MKG20060215194010702/15/06 19:40:31  5-MIN KMKG 160040Z 03005KT 10SM BKN060 OVC075 01/M06 A3014 430 61 -1100 040/05 RMK AO2 $
14840KMKG MKG20060215194510702/15/06 19:45:31  5-MIN KMKG 160045Z 03007KT 10SM BKN055 OVC075 01/M06 A3014 430 61 -1100 040/07 RMK AO2 $
14840KMKG MKG20060215195012402/15/06 19:50:31  5-MIN KMKG 160050Z 03006KT 10SM BKN055 OVC080 01/M06 A3014 430 61 -1100 030/06 RMK AO2 SLP212 T00111056 $
14840KMKG MKG20060215195512402/15/06 19:55:31  5-MIN KMKG 160055Z 03009KT 10SM BKN050 OVC075 01/M06 A3013 440 63 -1100 030/09 RMK AO2 SLP210 T00061056 $
14840KMKG MKG20060215200010702/15/06 20:00:31  5-MIN KMKG 160100Z 03008KT 10SM BKN050 OVC070 01/M06 A3013 440 63 -1100 030/08 RMK AO2 $
14840KMKG MKG20060215200510702/15/06 20:05:31  5-MIN KMKG 160105Z 02009KT 10SM BKN050 OVC075 01/M06 A3013 440 63 -1100 030/09 RMK AO2 $
14840KMKG MKG20060215201010702/15/06 20:10:31  5-MIN KMKG 160110Z 02008KT 10SM BKN055 OVC075 01/M06 A3013 440 63 -1100 020/08 RMK AO2 $
14840KMKG MKG20060215201510702/15/06 20:15:31  5-MIN KMKG 160115Z 01009KT 10SM BKN055 OVC075 01/M06 A3013 440 63 -1100 020/09 RMK AO2 $
14840KMKG MKG20060215202010702/15/06 20:20:31  5-MIN KMKG 160120Z 03007KT 10SM BKN055 OVC075 01/M06 A3012 440 63 -1100 030/07 RMK AO2 $
14840KMKG MKG20060215202510702/15/06 20:25:31  5-MIN KMKG 160125Z 02006KT 10SM SCT055 OVC075 01/M06 A3013 440 63 -1100 030/06 RMK AO2 $
14840KMKG MKG20060215203010002/15/06 20:30:31  5-MIN KMKG 160130Z 02007KT 10SM OVC070 01/M06 A3013 440 63 -1100 020/07 RMK AO2 $
14840KMKG MKG20060215203510002/15/06 20:35:31  5-MIN KMKG 160135Z 04009KT 10SM OVC070 01/M06 A3012 440 63 -1100 050/09 RMK AO2 $
14840KMKG MKG20060215204010702/15/06 20:40:31  5-MIN KMKG 160140Z 04008KT 10SM BKN070 OVC085 01/M06 A3012 440 63 -1100 040/08 RMK AO2 $
14840KMKG MKG20060215204510002/15/06 20:45:31  5-MIN KMKG 160145Z 03008KT 10SM OVC070 01/M06 A3012 450 63 -1100 030/08 RMK AO2 $
14840KMKG MKG20060215205011702/15/06 20:50:31  5-MIN KMKG 160150Z 03008KT 10SM OVC065 01/M06 A3012 450 63 -1100 040/08 RMK AO2 SLP205 T00061056 $
14840KMKG MKG20060215205512402/15/06 20:55:31  5-MIN KMKG 160155Z 04010KT 10SM BKN065 OVC080 01/M06 A3011 460 63 -1100 040/10 RMK AO2 SLP203 T00061056 $
14840KMKG MKG20060215210011402/15/06 21:00:31  5-MIN KMKG 160200Z 04010KT 10SM BKN060 BKN070 BKN110 01/M06 A3010 460 61 -1100 040/10 RMK AO2 $
14840KMKG MKG20060215210511402/15/06 21:05:31  5-MIN KMKG 160205Z 04010KT 10SM SCT060 SCT070 BKN110 01/M06 A3010 470 61 -1100 040/10 RMK AO2 $
14840KMKG MKG20060215211011402/15/06 21:10:31  5-MIN KMKG 160210Z 04010KT 10SM SCT060 SCT090 BKN110 01/M06 A3010 470 61 -1100 040/10 RMK AO2 $
14840KMKG MKG20060215211511402/15/06 21:15:31  5-MIN KMKG 160215Z 04009KT 10SM SCT065 SCT080 BKN090 01/M06 A3010 470 61 -1100 040/09 RMK AO2 $
14840KMKG MKG20060215212012902/15/06 21:20:31  5-MIN KMKG 160220Z 03009KT 10SM FEW060 SCT070 BKN110 01/M06 A3010 470 61 -1100 040/09 RMK AO2 CIG 085 RWY 14 $
14840KMKG MKG20060215212511402/15/06 21:25:31  5-MIN KMKG 160225Z 04010KT 10SM SCT065 BKN090 BKN110 01/M06 A3010 470 61 -1100 040/10 RMK AO2 $
14840KMKG MKG20060215213011402/15/06 21:30:31  5-MIN KMKG 160230Z 04009KT 10SM FEW050 BKN060 OVC110 01/M06 A3011 460 61 -1100 040/09 RMK AO2 $
14840KMKG MKG20060215213511402/15/06 21:35:31  5-MIN KMKG 160235Z 04007KT 10SM FEW047 BKN055 BKN070 01/M06 A3011 460 61 -1100 040/07 RMK AO2 $
14840KMKG MKG20060215214010702/15/06 21:40:31  5-MIN KMKG 160240Z 04009KT 10SM BKN046 BKN070 01/M06 A3011 460 61 -1100 040/09 RMK AO2 $
14840KMKG MKG20060215214510002/15/06 21:45:31  5-MIN KMKG 160245Z 04009KT 10SM OVC042 01/M06 A3010 460 61 -1100 040/09 RMK AO2 $
14840KMKG MKG20060215215013002/15/06 21:50:31  5-MIN KMKG 160250Z 04008KT 10SM BKN040 OVC049 01/M06 A3010 460 61 -1100 040/08 RMK AO2 SLP200 T00061061 51005 $
14840KMKG MKG20060215215513702/15/06 21:55:31  5-MIN KMKG 160255Z 04008KT 10SM BKN036 BKN049 OVC070 01/M06 A3010 460 61 -1100 040/08 RMK AO2 SLP200 T00061061 58005 $
14840KMKG MKG20060215220010702/15/06 22:00:31  5-MIN KMKG 160300Z 02009KT 10SM SCT034 OVC065 01/M06 A3010 460 61 -1100 030/09 RMK AO2 $
14840KMKG MKG20060215220510702/15/06 22:05:31  5-MIN KMKG 160305Z 04010KT 10SM SCT032 OVC065 01/M06 A3010 470 61 -1100 040/10 RMK AO2 $
14840KMKG MKG20060215221011402/15/06 22:10:31  5-MIN KMKG 160310Z 03010KT 10SM FEW030 BKN070 OVC085 01/M06 A3009 470 63 -1100 040/10 RMK AO2 $
14840KMKG MKG20060215221511402/15/06 22:15:31  5-MIN KMKG 160315Z 03009KT 10SM FEW030 BKN070 OVC090 01/M06 A3010 470 63 -1100 030/09 RMK AO2 $
14840KMKG MKG20060215222010702/15/06 22:20:31  5-MIN KMKG 160320Z 02008KT 10SM BKN070 OVC090 01/M06 A3010 460 63 -1100 030/08 RMK AO2 $
14840KMKG MKG20060215222510702/15/06 22:25:31  5-MIN KMKG 160325Z 02008KT 10SM BKN070 OVC090 00/M06 A3011 460 66 -1200 030/08 RMK AO2 $
14840KMKG MKG20060215223010702/15/06 22:30:31  5-MIN KMKG 160330Z 02010KT 10SM BKN070 OVC090 00/M05 A3010 470 69 -1200 020/10 RMK AO2 $
14840KMKG MKG20060215223510702/15/06 22:35:31  5-MIN KMKG 160335Z 02011KT 10SM BKN065 OVC080 00/M05 A3010 460 69 -1200 020/11 RMK AO2 $
14840KMKG MKG20060215224010702/15/06 22:40:31  5-MIN KMKG 160340Z 02011KT 10SM BKN065 OVC075 00/M05 A3010 470 69 -1200 030/11 RMK AO2 $
14840KMKG MKG20060215224510002/15/06 22:45:31  5-MIN KMKG 160345Z 02011KT 10SM OVC060 00/M05 A3009 480 69 -1200 030/11 RMK AO2 $
14840KMKG MKG20060215225011702/15/06 22:50:31  5-MIN KMKG 160350Z 02010KT 10SM OVC060 00/M06 A3008 480 66 -1100 030/10 RMK AO2 SLP194 T00001056 $
14840KMKG MKG20060215225511702/15/06 22:55:31  5-MIN KMKG 160355Z 03010KT 10SM OVC060 00/M05 A3008 480 69 -1100 030/10 RMK AO2 SLP194 T00001050 $
14840KMKG MKG20060215230010002/15/06 23:00:31  5-MIN KMKG 160400Z 04012KT 10SM OVC055 00/M05 A3008 480 69 -1100 050/12 RMK AO2 $
14840KMKG MKG20060215230510002/15/06 23:05:31  5-MIN KMKG 160405Z 04012KT 10SM OVC050 00/M05 A3008 480 69 -1100 040/12 RMK AO2 $
14840KMKG MKG20060215231010002/15/06 23:10:31  5-MIN KMKG 160410Z 04009KT 10SM OVC050 00/M05 A3008 480 69 -1100 040/09 RMK AO2 $
14840KMKG MKG20060215231510002/15/06 23:15:31  5-MIN KMKG 160415Z 03009KT 10SM OVC050 00/M05 A3008 480 69 -1100 040/09 RMK AO2 $
14840KMKG MKG20060215232010002/15/06 23:20:31  5-MIN KMKG 160420Z 03010KT 10SM OVC050 00/M05 A3008 480 69 -1100 040/10 RMK AO2 $
14840KMKG MKG20060215232510002/15/06 23:25:31  5-MIN KMKG 160425Z 03009KT 10SM OVC050 00/M05 A3008 480 69 -1100 030/09 RMK AO2 $
14840KMKG MKG20060215233010002/15/06 23:30:31  5-MIN KMKG 160430Z 04010KT 10SM OVC050 00/M04 A3008 480 72 -1100 040/10 RMK AO2 $
14840KMKG MKG20060215233510002/15/06 23:35:31  5-MIN KMKG 160435Z 03011KT 10SM OVC050 00/M04 A3008 480 72 -1100 030/11 RMK AO2 $
14840KMKG MKG20060215234010002/15/06 23:40:31  5-MIN KMKG 160440Z 03011KT 10SM OVC050 00/M04 A3009 480 75 -1200 030/11 RMK AO2 $
14840KMKG MKG20060215234510002/15/06 23:45:31  5-MIN KMKG 160445Z 04009KT 10SM OVC050 00/M04 A3009 480 75 -1200 040/09 RMK AO2 $
14840KMKG MKG20060215235012702/15/06 23:50:31  5-MIN KMKG 160450Z 05010KT 10SM OVC050 00/M04 A3009 480 75 -1200 050/10 RMK AO2 SLP195 T00001039 400331006 $
14840KMKG MKG20060215235512702/15/06 23:55:31  5-MIN KMKG 160455Z 04007KT 10SM OVC050 00/M03 A3009 480 78 -1100 050/07 RMK AO2 SLP195 T00001033 400331006 $
14840KMKG MKG20060216000010002/16/06 00:00:32  5-MIN KMKG 160500Z 04008KT 10SM OVC050 00/M03 A3009 480 78 -1100 050/08 RMK AO2 $
14840KMKG MKG20060216000511502/16/06 00:05:31  5-MIN KMKG 160505Z 03007KT 8SM -SN OVC050 00/M03 A3009 470 78 -1200 030/07 RMK AO2 SNB02 P0000 $
14840KMKG MKG20060216001011602/16/06 00:10:31  5-MIN KMKG 160510Z 03008KT 6SM -SN OVC050 M01/M03 A3010 470 81 -1200 030/08 RMK AO2 SNB02 P0000 $
14840KMKG MKG20060216001512302/16/06 00:15:31  5-MIN KMKG 160515Z 02007KT 6SM -SN FEW022 OVC050 M01/M03 A3009 470 81 -1200 030/07 RMK AO2 SNB02 P0000 $
14840KMKG MKG20060216002012302/16/06 00:20:31  5-MIN KMKG 160520Z 04010KT 8SM -SN FEW022 OVC050 M01/M03 A3009 470 81 -1200 040/10 RMK AO2 SNB02 P0000 $
14840KMKG MKG20060216002511602/16/06 00:25:31  5-MIN KMKG 160525Z 04008KT 8SM -SN OVC050 M01/M03 A3008 480 81 -1200 050/08 RMK AO2 SNB02 P0000 $
14840KMKG MKG20060216003011502/16/06 00:30:31  5-MIN KMKG 160530Z 04010KT 8SM OVC050 M01/M03 A3008 480 81 -1200 050/10 RMK AO2 SNB02E28 P0000 $
14840KMKG MKG20060216003512202/16/06 00:35:31  5-MIN KMKG 160535Z 05009KT 8SM OVC048 M01/M03 A3007 490 81 -1200 050/09 RMK AO2 SNB02E28 PRESFR P0000 $
14840KMKG MKG20060216004011502/16/06 00:40:31  5-MIN KMKG 160540Z 05008KT 7SM OVC048 M01/M03 A3007 490 81 -1200 050/08 RMK AO2 SNB02E28 P0000 $
14840KMKG MKG20060216004512102/16/06 00:45:31  5-MIN KMKG 160545Z 04008G15KT 7SM OVC048 M01/M03 A3008 490 88 -1300 050/08G15 RMK AO2 SNB02E28 P0000 $
14840KMKG MKG20060216005015602/16/06 00:50:31  5-MIN KMKG 160550Z 04012KT 7SM OVC048 M01/M03 A3007 490 88 -1300 040/12 RMK AO2 SNB02E28 SLP190 P0000 60000 T10111028 10011 21011 58005 $
14840KMKG MKG20060216005516602/16/06 00:55:31  5-MIN KMKG 160555Z 04008KT 6SM -SN BR OVC048 M01/M03 A3007 490 85 -1300 050/08 RMK AO2 SNB02E28B51 SLP190 P0000 60000 T10111033 10011 21011 56009 $
14840KMKG MKG20060216010014202/16/06 01:00:31  5-MIN KMKG 160600Z 01009KT 5SM -SN BR FEW010 OVC048 M01/M03 A3009 470 88 -1300 010/09 RMK AO2 CIG 010 RWY 14 PRESRR P0000 $
14840KMKG MKG20060216010513702/16/06 01:05:31  5-MIN KMKG 160605Z 02011KT 6SM BR SCT010 OVC048 M01/M03 A3009 470 88 -1300 030/11 RMK AO2 SNE04 CIG 010 RWY 14 P0000 $
14840KMKG MKG20060216011012002/16/06 01:10:31  5-MIN KMKG 160610Z 01010KT 5SM -SN BR BKN010 OVC048 M01/M03 A3009 470 88 -1300 020/10 RMK AO2 P0000 $
14840KMKG MKG20060216011512702/16/06 01:15:31  5-MIN KMKG 160615Z 02011KT 4SM -SN BR BKN010 BKN034 OVC048 M01/M03 A3009 470 88 -1300 020/11 RMK AO2 P0000 $
14840KMKG MKG20060216012012002/16/06 01:20:31  5-MIN KMKG 160620Z 02008KT 3SM -SN BR BKN010 OVC048 M01/M03 A3009 470 88 -1300 020/08 RMK AO2 P0000 $
14840KMKG MKG20060216012511702/16/06 01:25:31  5-MIN KMKG 160625Z 02009KT 2 1/2SM -SN BR OVC010 M01/M03 A3009 480 88 -1300 020/09 RMK AO2 P0000 $
14840KMKG MKG20060216013012002/16/06 01:30:31  5-MIN KMKG 160630Z 02009KT 2SM -SN BR BKN006 OVC010 M01/M03 A3009 470 88 -1300 020/09 RMK AO2 P0000 $
14840KMKG MKG20060216013512402/16/06 01:35:31  5-MIN KMKG 160635Z 02009KT 1 3/4SM -SN BR BKN006 OVC010 M01/M03 A3009 470 88 -1300 020/09 RMK AO2 P0000 $
14840KMKG MKG20060216014012002/16/06 01:40:31  5-MIN KMKG 160640Z 02008KT 2SM -SN BR BKN006 OVC010 M01/M03 A3010 470 88 -1300 020/08 RMK AO2 P0000 $
14840KMKG MKG20060216014511302/16/06 01:45:31  5-MIN KMKG 160645Z 02008KT 2SM -SN BR OVC006 M01/M03 A3010 470 88 -1300 020/08 RMK AO2 P0000 $
14840KMKG MKG20060216015013002/16/06 01:50:31  5-MIN KMKG 160650Z 02008KT 2SM -SN BR OVC006 M01/M03 A3010 470 88 -1300 030/08 RMK AO2 SLP198 P0000 T10111028 $
14840KMKG MKG20060216015513002/16/06 01:55:31  5-MIN KMKG 160655Z 02009KT 2SM -SN BR OVC006 M01/M03 A3009 470 88 -1300 030/09 RMK AO2 SLP197 P0000 T10111028 $
14840KMKG MKG20060216020011702/16/06 02:00:31  5-MIN KMKG 160700Z 02008KT 1 1/2SM -SN BR OVC006 M01/M03 A3010 470 88 -1300 020/08 RMK AO2 P0000 $
14840KMKG MKG20060216020511702/16/06 02:05:31  5-MIN KMKG 160705Z 03008KT 1 1/4SM -SN BR OVC006 M01/M03 A3010 470 88 -1300 030/08 RMK AO2 P0001 $
14840KMKG MKG20060216021011202/16/06 02:10:31  5-MIN KMKG 160710Z 02010KT 1SM -SN BR VV004 M01/M03 A3009 470 88 -1300 030/10 RMK AO2 P0001 $
14840KMKG MKG20060216021511202/16/06 02:15:31  5-MIN KMKG 160715Z 02009KT 1SM -SN BR VV004 M01/M03 A3009 470 88 -1300 030/09 RMK AO2 P0002 $
14840KMKG MKG20060216022011202/16/06 02:20:31  5-MIN KMKG 160720Z 03008KT 1SM -SN BR VV004 M01/M03 A3010 470 88 -1300 030/08 RMK AO2 P0002 $
14840KMKG MKG20060216022511202/16/06 02:25:31  5-MIN KMKG 160725Z 02007KT 1SM -SN BR VV004 M01/M02 A3010 470 92 -1300 020/07 RMK AO2 P0002 $
14840KMKG MKG20060216023012402/16/06 02:30:31  5-MIN KMKG 160730Z 03010KT 1 1/4SM -SN BR BKN005 OVC008 M01/M02 A3010 470 92 -1300 030/10 RMK AO2 P0002 $
14840KMKG MKG20060216023511702/16/06 02:35:31  5-MIN KMKG 160735Z 03009KT 1 1/4SM -SN BR OVC005 M01/M02 A3009 470 92 -1300 030/09 RMK AO2 P0002 $
14840KMKG MKG20060216024011702/16/06 02:40:31  5-MIN KMKG 160740Z 04010KT 1 1/2SM -SN BR OVC005 M01/M02 A3009 470 92 -1300 040/10 RMK AO2 P0003 $
14840KMKG MKG20060216024511702/16/06 02:45:31  5-MIN KMKG 160745Z 03009KT 1 3/4SM -SN BR OVC005 M01/M02 A3009 470 92 -1300 040/09 RMK AO2 P0003 $
14840KMKG MKG20060216025013402/16/06 02:50:31  5-MIN KMKG 160750Z 04010KT 1 1/2SM -SN BR OVC005 M01/M02 A3009 470 92 -1300 040/10 RMK AO2 SLP197 P0003 T10111022 $
14840KMKG MKG20060216025513402/16/06 02:55:31  5-MIN KMKG 160755Z 04010KT 1 1/4SM -SN BR OVC005 M02/M03 A3008 480 92 -1400 050/10 RMK AO2 SLP195 P0003 T10171028 $
14840KMKG MKG20060216030012302/16/06 03:00:31  5-MIN KMKG 160800Z 05011G17KT 1 1/4SM -SN BR OVC005 M02/M03 A3008 480 92 -1400 050/11G17 RMK AO2 P0000 $
14840KMKG MKG20060216030511702/16/06 03:05:31  5-MIN KMKG 160805Z 04012KT 1 1/2SM -SN BR OVC005 M02/M03 A3009 480 92 -1400 040/12 RMK AO2 P0000 $
14840KMKG MKG20060216031012402/16/06 03:10:31  5-MIN KMKG 160810Z 04010KT 1 1/2SM -SN BR BKN005 OVC009 M02/M03 A3009 480 92 -1400 050/10 RMK AO2 P0000 $
14840KMKG MKG20060216031512402/16/06 03:15:31  5-MIN KMKG 160815Z 05009KT 1 3/4SM -SN BR BKN007 OVC045 M01/M03 A3008 480 88 -1300 050/09 RMK AO2 P0000 $
14840KMKG MKG20060216032012702/16/06 03:20:31  5-MIN KMKG 160820Z 05011KT 2SM -SN BR SCT005 BKN009 OVC045 M01/M03 A3008 490 88 -1300 050/11 RMK AO2 P0000 $
14840KMKG MKG20060216032514602/16/06 03:25:31  5-MIN KMKG 160825Z 05011KT 2 1/2SM -SN BR FEW005 SCT009 OVC043 M01/M03 A3007 490 88 -1300 050/11 RMK AO2 CIG 008 RWY 14 P0000 $
14840KMKG MKG20060216033012702/16/06 03:30:31  5-MIN KMKG 160830Z 05011KT 3SM -SN BR SCT007 OVC043 M01/M03 A3006 500 88 -1300 050/11 RMK AO2 PRESFR P0000 $
14840KMKG MKG20060216033512002/16/06 03:35:31  5-MIN KMKG 160835Z 05012KT 4SM -SN BR FEW005 OVC043 M01/M03 A3006 500 88 -1300 050/12 RMK AO2 P0000 $
14840KMKG MKG20060216034012002/16/06 03:40:31  5-MIN KMKG 160840Z 04011KT 6SM -SN BR FEW007 OVC043 M01/M03 A3006 500 88 -1300 050/11 RMK AO2 P0000 $
14840KMKG MKG20060216034512302/16/06 03:45:31  5-MIN KMKG 160845Z 05010G18KT 8SM -SN FEW009 OVC041 M01/M03 A3006 500 88 -1300 060/10G18 RMK AO2 P0000 $
14840KMKG MKG20060216035014602/16/06 03:50:31  5-MIN KMKG 160850Z 06012KT 9SM -SN FEW009 OVC041 M01/M03 A3005 510 88 -1200 060/12 RMK AO2 SLP182 P0000 60003 T10111028 56009 $
14840KMKG MKG20060216035514602/16/06 03:55:31  5-MIN KMKG 160855Z 05013KT 9SM -SN FEW009 OVC041 M01/M03 A3005 510 88 -1200 060/13 RMK AO2 SLP183 P0000 60003 T10111028 58009 $
14840KMKG MKG20060216040011702/16/06 04:00:31  5-MIN KMKG 160900Z 03012KT 9SM -SN FEW011 OVC041 M01/M03 A3005 510 88 -1300 030/12 RMK AO2 P0000 $
14840KMKG MKG20060216040512302/16/06 04:05:31  5-MIN KMKG 160905Z 04012G18KT 9SM -SN FEW011 OVC039 M01/M03 A3005 510 88 -1200 050/12G18 RMK AO2 P0000 $
14840KMKG MKG20060216041011602/16/06 04:10:31  5-MIN KMKG 160910Z 06014G19KT 9SM -SN OVC039 M01/M03 A3004 520 85 -1200 070/14G19 RMK AO2 P0000 $
14840KMKG MKG20060216041511602/16/06 04:15:31  5-MIN KMKG 160915Z 06014G19KT 9SM -SN OVC039 M01/M03 A3004 520 85 -1200 060/14G19 RMK AO2 P0000 $
14840KMKG MKG20060216042011602/16/06 04:20:31  5-MIN KMKG 160920Z 05012G18KT 9SM -SN OVC039 M01/M03 A3004 520 85 -1200 050/12G18 RMK AO2 P0000 $
14840KMKG MKG20060216042511002/16/06 04:25:31  5-MIN KMKG 160925Z 05012KT 9SM -SN OVC037 M01/M03 A3005 510 85 -1200 050/12 RMK AO2 P0000 $
14840KMKG MKG20060216043011002/16/06 04:30:31  5-MIN KMKG 160930Z 05014KT 9SM -SN OVC037 M01/M03 A3004 520 85 -1200 050/14 RMK AO2 P0000 $
14840KMKG MKG20060216043511002/16/06 04:35:31  5-MIN KMKG 160935Z 05012KT 9SM -SN OVC037 M01/M03 A3004 520 85 -1200 060/12 RMK AO2 P0000 $
14840KMKG MKG20060216044011202/16/06 04:40:31  5-MIN KMKG 160940Z 04013KT 9SM OVC037 M01/M03 A3004 520 81 -1200 040/13 RMK AO2 SNE40 P0000 $
14840KMKG MKG20060216044511202/16/06 04:45:31  5-MIN KMKG 160945Z 05012KT 9SM OVC037 M01/M03 A3004 520 81 -1200 060/12 RMK AO2 SNE40 P0000 $
14840KMKG MKG20060216045013702/16/06 04:50:31  5-MIN KMKG 160950Z 06014KT 10SM FEW018 OVC037 M01/M03 A3003 530 81 -1200 060/14 RMK AO2 SNE40 SLP178 P0000 T10061033 $
14840KMKG MKG20060216045514302/16/06 04:55:31  5-MIN KMKG 160955Z 06012G20KT 10SM SCT020 OVC037 M01/M03 A3004 520 81 -1200 060/12G20 RMK AO2 SNE40 SLP179 P0000 T10061033 $
14840KMKG MKG20060216050011402/16/06 05:00:31  5-MIN KMKG 161000Z 05012G20KT 10SM SCT020 OVC037 M01/M03 A3004 520 85 -1200 060/12G20 RMK AO2 $
14840KMKG MKG20060216050510802/16/06 05:05:31  5-MIN KMKG 161005Z 06015KT 10SM BKN020 OVC037 M01/M03 A3003 530 81 -1200 070/15 RMK AO2 $
14840KMKG MKG20060216051011402/16/06 05:10:31  5-MIN KMKG 161010Z 06015G20KT 10SM BKN018 OVC037 M01/M03 A3003 530 81 -1200 060/15G20 RMK AO2 $
14840KMKG MKG20060216051510802/16/06 05:15:31  5-MIN KMKG 161015Z 06016KT 10SM BKN018 OVC037 M01/M03 A3003 530 81 -1200 070/16 RMK AO2 $
14840KMKG MKG20060216052011402/16/06 05:20:31  5-MIN KMKG 161020Z 07015G24KT 10SM BKN018 OVC037 M01/M03 A3002 530 81 -1100 070/15G24 RMK AO2 $
14840KMKG MKG20060216052510702/16/06 05:25:31  5-MIN KMKG 161025Z 06014G24KT 10SM OVC018 M01/M03 A3002 530 85 -1200 070/14G24 RMK AO2 $
14840KMKG MKG20060216053010102/16/06 05:30:31  5-MIN KMKG 161030Z 08017KT 10SM OVC018 M01/M03 A3002 540 85 -1200 080/17 RMK AO2 $
14840KMKG MKG20060216053510802/16/06 05:35:31  5-MIN KMKG 161035Z 07014KT 10SM BKN018 OVC034 M01/M03 A3002 540 85 -1200 080/14 RMK AO2 $
14840KMKG MKG20060216054010802/16/06 05:40:31  5-MIN KMKG 161040Z 06015KT 10SM BKN018 OVC034 M01/M03 A3002 540 85 -1200 070/15 RMK AO2 $
14840KMKG MKG20060216054510102/16/06 05:45:31  5-MIN KMKG 161045Z 07014KT 10SM OVC018 M01/M03 A3002 540 81 -1100 070/14 RMK AO2 $
14840KMKG MKG20060216055011802/16/06 05:50:31  5-MIN KMKG 161050Z 07013KT 10SM OVC018 M01/M03 A3001 540 81 -1100 080/13 RMK AO2 SLP171 T10061033 $
14840KMKG MKG20060216055512502/16/06 05:55:31  5-MIN KMKG 161055Z 07015KT 10SM BKN018 OVC034 M01/M03 A3001 550 81 -1100 070/15 RMK AO2 SLP170 T10061033 $
14840KMKG MKG20060216060010802/16/06 06:00:31  5-MIN KMKG 161100Z 07013KT 10SM BKN018 OVC034 M01/M03 A3001 550 81 -1100 080/13 RMK AO2 $
14840KMKG MKG20060216060510802/16/06 06:05:31  5-MIN KMKG 161105Z 08015KT 10SM BKN018 OVC034 M01/M03 A3002 540 81 -1100 080/15 RMK AO2 $
14840KMKG MKG20060216061010802/16/06 06:10:31  5-MIN KMKG 161110Z 08015KT 10SM BKN018 OVC032 M01/M03 A3001 550 81 -1100 080/15 RMK AO2 $
14840KMKG MKG20060216061510802/16/06 06:15:31  5-MIN KMKG 161115Z 08015KT 10SM BKN018 OVC032 M01/M03 A3001 550 81 -1100 080/15 RMK AO2 $
14840KMKG MKG20060216062012902/16/06 06:20:31  5-MIN KMKG 161120Z 08016G24KT 10SM SCT018 OVC032 M01/M03 A3001 540 81 -1100 080/16G24 RMK AO2 CIG 019 RWY 14 $
14840KMKG MKG20060216062511402/16/06 06:25:31  5-MIN KMKG 161125Z 08016G24KT 10SM BKN018 OVC032 M01/M03 A3001 550 81 -1100 080/16G24 RMK AO2 $
14840KMKG MKG20060216063011402/16/06 06:30:31  5-MIN KMKG 161130Z 09016G20KT 10SM BKN018 OVC032 M01/M03 A3001 550 81 -1100 090/16G20 RMK AO2 $
14840KMKG MKG20060216063510802/16/06 06:35:31  5-MIN KMKG 161135Z 08016KT 10SM BKN018 OVC030 M01/M03 A3000 560 81 -1100 080/16 RMK AO2 $
14840KMKG MKG20060216064011402/16/06 06:40:31  5-MIN KMKG 161140Z 08019G25KT 10SM BKN018 OVC030 M01/M03 A3000 560 81 -1100 080/19G25 RMK AO2 $
14840KMKG MKG20060216064511402/16/06 06:45:31  5-MIN KMKG 161145Z 08018G25KT 10SM BKN018 OVC030 M01/M04 A2999 560 78 -1100 090/18G25 RMK AO2 $
14840KMKG MKG20060216065016102/16/06 06:50:31  5-MIN KMKG 161150Z 09015G22KT 10SM BKN018 OVC028 M01/M04 A2999 560 78 -1100 090/15G22 RMK AO2 SLP164 60003 70003 T10061039 11006 21017 58009 $
14840KMKG MKG20060216065514802/16/06 06:55:31  5-MIN KMKG 161155Z 09014KT 10SM OVC018 M01/M04 A2999 560 78 -1100 100/14 RMK AO2 SLP163 60003 70003 T10061039 11006 21017 58019 $
14840KMKG MKG20060216070010702/16/06 07:00:31  5-MIN KMKG 161200Z 09014G23KT 10SM OVC018 M01/M04 A3000 560 78 -1100 090/14G23 RMK AO2 $
14840KMKG MKG20060216070510702/16/06 07:05:31  5-MIN KMKG 161205Z 08016G23KT 10SM OVC018 M01/M04 A3000 560 78 -1100 090/16G23 RMK AO2 $
14840KMKG MKG20060216071010702/16/06 07:10:31  5-MIN KMKG 161210Z 08013G22KT 10SM OVC018 M01/M04 A3000 560 78 -1100 080/13G22 RMK AO2 $
14840KMKG MKG20060216071510702/16/06 07:15:31  5-MIN KMKG 161215Z 09016G20KT 10SM OVC018 M01/M04 A3000 560 78 -1100 090/16G20 RMK AO2 $
14840KMKG MKG20060216072010102/16/06 07:20:31  5-MIN KMKG 161220Z 09017KT 10SM OVC018 M01/M04 A3000 560 78 -1100 090/17 RMK AO2 $
14840KMKG MKG20060216072510702/16/06 07:25:31  5-MIN KMKG 161225Z 08015G19KT 10SM OVC018 M01/M04 A3000 560 78 -1100 080/15G19 RMK AO2 $
14840KMKG MKG20060216073010702/16/06 07:30:31  5-MIN KMKG 161230Z 08013G19KT 10SM OVC018 M01/M04 A2999 560 78 -1100 080/13G19 RMK AO2 $
14840KMKG MKG20060216073510102/16/06 07:35:31  5-MIN KMKG 161235Z 08012KT 10SM OVC018 M01/M04 A2999 570 78 -1100 080/12 RMK AO2 $
14840KMKG MKG20060216074010702/16/06 07:40:31  5-MIN KMKG 161240Z 07014G20KT 10SM OVC018 M01/M04 A2998 570 78 -1100 070/14G20 RMK AO2 $
14840KMKG MKG20060216074510702/16/06 07:45:31  5-MIN KMKG 161245Z 08016G21KT 10SM OVC018 M01/M04 A2998 580 78 -1100 080/16G21 RMK AO2 $
14840KMKG MKG20060216075013102/16/06 07:50:31  5-MIN KMKG 161250Z 09015G21KT 10SM BKN018 OVC026 M01/M04 A2999 570 78 -1100 090/15G21 RMK AO2 SLP162 T10061039 $
14840KMKG MKG20060216075511802/16/06 07:55:31  5-MIN KMKG 161255Z 09012KT 10SM OVC018 M01/M04 A2998 570 78 -1100 090/12 RMK AO2 SLP161 T10061039 $
14840KMKG MKG20060216080010102/16/06 08:00:31  5-MIN KMKG 161300Z 09015KT 10SM OVC018 M01/M04 A2998 570 78 -1100 090/15 RMK AO2 $
14840KMKG MKG20060216080510102/16/06 08:05:31  5-MIN KMKG 161305Z 09014KT 10SM OVC018 M01/M04 A2998 580 78 -1100 090/14 RMK AO2 $
14840KMKG MKG20060216081010102/16/06 08:10:31  5-MIN KMKG 161310Z 09015KT 10SM OVC018 M01/M04 A2998 580 78 -1100 090/15 RMK AO2 $
14840KMKG MKG20060216081510102/16/06 08:15:31  5-MIN KMKG 161315Z 08013KT 10SM OVC018 M01/M04 A2997 580 78 -1100 090/13 RMK AO2 $
14840KMKG MKG20060216082010102/16/06 08:20:31  5-MIN KMKG 161320Z 09014KT 10SM OVC016 M01/M04 A2998 580 78 -1100 090/14 RMK AO2 $
14840KMKG MKG20060216082510102/16/06 08:25:31  5-MIN KMKG 161325Z 08013KT 10SM OVC016 M01/M03 A2998 580 81 -1100 090/13 RMK AO2 $
14840KMKG MKG20060216083010102/16/06 08:30:31  5-MIN KMKG 161330Z 09014KT 10SM OVC016 M01/M03 A2997 580 81 -1100 090/14 RMK AO2 $
14840KMKG MKG20060216083510102/16/06 08:35:31  5-MIN KMKG 161335Z 09014KT 10SM OVC016 M01/M03 A2996 590 81 -1100 090/14 RMK AO2 $
14840KMKG MKG20060216084010702/16/06 08:40:31  5-MIN KMKG 161340Z 09014G19KT 10SM OVC016 M01/M03 A2996 590 81 -1100 100/14G19 RMK AO2 $
14840KMKG MKG20060216084510702/16/06 08:45:31  5-MIN KMKG 161345Z 09012G19KT 10SM OVC016 M01/M03 A2996 590 81 -1100 100/12G19 RMK AO2 $
14840KMKG MKG20060216085012402/16/06 08:50:31  5-MIN KMKG 161350Z 09015G22KT 10SM OVC016 M01/M03 A2996 600 81 -1100 090/15G22 RMK AO2 SLP151 T10061033 $
14840KMKG MKG20060216085512402/16/06 08:55:31  5-MIN KMKG 161355Z 09014G22KT 10SM OVC014 M01/M03 A2996 600 81 -1100 090/14G22 RMK AO2 SLP151 T10061033 $
14840KMKG MKG20060216090010102/16/06 09:00:31  5-MIN KMKG 161400Z 09017KT 10SM OVC014 M01/M03 A2995 600 81 -1100 090/17 RMK AO2 $
14840KMKG MKG20060216090510102/16/06 09:05:31  5-MIN KMKG 161405Z 09015KT 10SM OVC014 M01/M03 A2995 600 81 -1100 090/15 RMK AO2 $
14840KMKG MKG20060216091010102/16/06 09:10:31  5-MIN KMKG 161410Z 09014KT 10SM OVC014 M01/M03 A2994 610 81 -1100 090/14 RMK AO2 $
14840KMKG MKG20060216091510102/16/06 09:15:31  5-MIN KMKG 161415Z 09016KT 10SM OVC014 M01/M03 A2994 610 81 -1100 100/16 RMK AO2 $
14840KMKG MKG20060216092010702/16/06 09:20:31  5-MIN KMKG 161420Z 09016G21KT 10SM OVC012 M01/M03 A2994 620 81 -1000 090/16G21 RMK AO2 $
14840KMKG MKG20060216092510102/16/06 09:25:31  5-MIN KMKG 161425Z 09015KT 10SM OVC012 M01/M03 A2993 620 85 -1000 100/15 RMK AO2 $
14840KMKG MKG20060216093011402/16/06 09:30:31  5-MIN KMKG 161430Z 09019G24KT 10SM OVC012 M01/M03 A2992 630 85 -1000 090/19G24 RMK AO2 PRESFR $
14840KMKG MKG20060216093510702/16/06 09:35:31  5-MIN KMKG 161435Z 10018G24KT 10SM OVC012 M01/M03 A2992 630 85 -1000 100/18G24 RMK AO2 $
14840KMKG MKG20060216094010702/16/06 09:40:31  5-MIN KMKG 161440Z 09017G24KT 10SM OVC012 M01/M03 A2991 640 85 -1000 100/17G24 RMK AO2 $
14840KMKG MKG20060216094512502/16/06 09:45:31  5-MIN KMKG 161445Z 10017G28KT 10SM OVC012 M01/M03 A2992 630 85 -1000 100/17G28 RMK AO2 PK WND 08028/1442 $
14840KMKG MKG20060216095014802/16/06 09:50:31  5-MIN KMKG 161450Z 10016G28KT 10SM OVC012 M01/M03 A2991 640 85 -1000 110/16G28 RMK AO2 PK WND 08028/1442 SLP136 T10061028 58019 $
14840KMKG MKG20060216095517402/16/06 09:55:31  5-MIN KMKG 161455Z 09018G23KT 10SM -FZRA OVC010 M01/M03 A2991 640 85 -1000 090/18G23 RMK AO2 PK WND 08028/1442 SLP136 FZRAB52 P0000 60000 T10061028 58027 $
14840KMKG MKG20060216100011902/16/06 10:00:31  5-MIN KMKG 161500Z 08019G23KT 10SM -FZRA OVC010 M01/M02 A2991 640 88 -1000 090/19G23 RMK AO2 P0000 $
14840KMKG MKG20060216100511902/16/06 10:05:31  5-MIN KMKG 161505Z 09018G23KT 10SM -FZRA OVC010 M01/M02 A2990 650 88 -1000 100/18G23 RMK AO2 P0000 $
14840KMKG MKG20060216101011902/16/06 10:10:31  5-MIN KMKG 161510Z 09014G23KT 10SM -FZRA OVC010 M01/M02 A2989 650 88 -1000 090/14G23 RMK AO2 P0000 $
14840KMKG MKG20060216101512102/16/06 10:15:31  5-MIN KMKG 161515Z 09013G23KT 10SM OVC010 M01/M02 A2989 650 88 -1000 090/13G23 RMK AO2 FZRAE11 P0000 $
14840KMKG MKG20060216102011902/16/06 10:20:31  5-MIN KMKG 161520Z 09015G22KT 10SM OVC010 00/M02 A2989 660 85 -900 100/15G22 RMK AO2 FZRAE11 P0000 $
14840KMKG MKG20060216102511902/16/06 10:25:31  5-MIN KMKG 161525Z 09019G24KT 10SM OVC010 00/M02 A2988 670 85 -900 090/19G24 RMK AO2 FZRAE11 P0000 $
14840KMKG MKG20060216103012602/16/06 10:30:31  5-MIN KMKG 161530Z 09019G24KT 10SM OVC010 00/M02 A2987 670 85 -900 090/19G24 RMK AO2 FZRAE11 PRESFR P0000 $
14840KMKG MKG20060216103512602/16/06 10:35:31  5-MIN KMKG 161535Z 09020G24KT 10SM OVC010 00/M02 A2986 680 85 -900 090/20G24 RMK AO2 FZRAE11 PRESFR P0000 $
14840KMKG MKG20060216104012002/16/06 10:40:31  5-MIN KMKG 161540Z 09018KT 10SM OVC010 00/M02 A2986 690 85 -900 100/18 RMK AO2 FZRAE11 PRESFR P0000 $
14840KMKG MKG20060216104512602/16/06 10:45:31  5-MIN KMKG 161545Z 09017G24KT 10SM OVC010 00/M02 A2985 690 85 -900 090/17G24 RMK AO2 FZRAE11 PRESFR P0000 $
14840KMKG MKG20060216105016002/16/06 10:50:31  5-MIN KMKG 161550Z 09018G29KT 9SM OVC010 00/M02 A2984 700 85 -900 090/18G29 RMK AO2 PK WND 08029/1548 FZRAE11 PRESFR SLP113 P0000 T00001022 $
14840KMKG MKG20060216105516002/16/06 10:55:31  5-MIN KMKG 161555Z 09018G29KT 9SM OVC010 00/M02 A2984 710 85 -900 100/18G29 RMK AO2 PK WND 08029/1548 FZRAE11 PRESFR SLP111 P0000 T00001022 $
14840KMKG MKG20060216110010402/16/06 11:00:31  5-MIN KMKG 161600Z 09018G25KT 9SM OVC010 00/M02 A2984 710 85 -900 090/18G25 RMK AO2 $
14840KMKG MKG20060216110514902/16/06 11:05:31  5-MIN KMKG 161605Z 09024G30KT 7SM -FZRA OVC010 00/M02 A2982 730 85 -800 090/24G30 RMK AO2 PK WND 09030/1605 PRESFR FZRAB01 P0000 $
14840KMKG MKG20060216111014502/16/06 11:10:31  5-MIN KMKG 161610Z 09014G30KT 5SM -FZRA BR OVC010 00/M02 A2984 710 85 -900 090/14G30 RMK AO2 PK WND 09030/1605 FZRAB01 P0000 $
14840KMKG MKG20060216111515202/16/06 11:15:31  5-MIN KMKG 161615Z 06006G29KT 5SM -FZRA BR OVC010 00/M02 A2987 680 88 -900 060/06G29 RMK AO2 PK WND 09030/1605 PRESRR FZRAB01 P0000 $
14840KMKG MKG20060216112017502/16/06 11:20:31  5-MIN KMKG 161620Z 06012KT 4SM TS -FZRA BR OVC008 00/M02 A2986 680 88 -900 070/12 RMK AO2 PK WND 09030/1605 FZRAB01 TSB15 TS NW-N MOV NE OCNL LTG IC P0000 $
14840KMKG MKG20060216112518002/16/06 11:25:31  5-MIN KMKG 161625Z 08014G18KT 3SM TS -FZRA BR OVC008 00/M02 A2986 690 88 -900 090/14G18 RMK AO2 PK WND 09030/1605 FZRAB01 TSB15 TS NW-N MOV NE OCNL LTGIC P0000 $
14840KMKG MKG20060216113018402/16/06 11:30:31  5-MIN KMKG 161630Z 10013G19KT 2 1/2SM TS -FZRA BR OVC008 00/M02 A2984 700 88 -900 100/13G19 RMK AO2 PK WND 09030/1605 FZRAB01 TSB15 TS NW-N MOV NE OCNL LTGIC P0000 $
14840KMKG MKG20060216113517402/16/06 11:35:31  5-MIN KMKG 161635Z 09014KT 2SM TS -FZRA BR OVC008 00/M02 A2983 710 88 -900 100/14 RMK AO2 PK WND 09030/1605 FZRAB01 TSB15 TS NW-N MOV NE OCNL LTGIC P0000 $
14840KMKG MKG20060216114018602/16/06 11:40:31  5-MIN KMKG 161640Z 09014KT 2SM TS -FZRA BR OVC008 00/M02 A2983 710 88 -900 100/14 RMK AO2 PK WND 09030/1605 CIG 007V012 FZRAB01 TSB15 TS NW-N MOV NE OCNL LTGIC P0002 $
14840KMKG MKG20060216114519602/16/06 11:45:31  5-MIN KMKG 161645Z 09016G20KT 2 1/2SM TS -FZRA BR OVC008 00/M02 A2983 710 88 -900 090/16G20 RMK AO2 PK WND 09030/1605 CIG 006V013 FZRAB01 TSB15 TS N-NE MOV NE OCNL LTGIC P0002 $
14840KMKG MKG20060216115018702/16/06 11:50:31  5-MIN KMKG 161650Z 10017G22KT 4SM TS -FZRA BR BKN008 OVC012 00/M02 A2982 720 88 -800 100/17G22 RMK AO2 PK WND 09030/1605 FZRAB01 TSB15 TS N-NE MOV NE OCNL LTGIC P0002 $
14840KMKG MKG20060216115519702/16/06 11:55:31  5-MIN KMKG 161655Z 09020G25KT 5SM TS -FZRA BR OVC010 00/M02 A2982 730 88 -800 090/20G25 RMK AO2 PK WND 09030/1605 FZRAB01 TSB15 TS N-NE MOV NE OCNL LTGIC SLP105 P0002 T00001017 $
14840KMKG MKG20060216120016002/16/06 12:00:31  5-MIN KMKG 161700Z 09016G25KT 5SM TS -FZRA BR OVC010 00/M02 A2981 730 88 -800 100/16G25 RMK AO2 CIG 006V013 TS S-SW MOV NE OCNL LTGIC P0000 $
14840KMKG MKG20060216120516702/16/06 12:05:31  5-MIN KMKG 161705Z 09018G24KT 3SM TS -FZRA BR OVC010 00/M02 A2980 740 88 -800 100/18G24 RMK AO2 CIG 006V013 PRESFR TS S-SW MOV NE OCNL LTGIC P0000 $
14840KMKG MKG20060216121017202/16/06 12:10:31  5-MIN KMKG 161710Z 09016G24KT 2 1/2SM TS -FZRA BR BKN008 OVC012 M01/M02 A2980 740 92 -900 100/16G24 RMK AO2 CIG 006V011 TS S-SW MOV NE OCNL LTGIC P0003 $
14840KMKG MKG20060216121514702/16/06 12:15:31  5-MIN KMKG 161715Z 10017KT 2 1/2SM TS -FZRA BR OVC010 M01/M02 A2979 750 92 -900 100/17 RMK AO2 TS S-SW MOV NE OCNL LTGIC P0003 $
14840KMKG MKG20060216122015002/16/06 12:20:31  5-MIN KMKG 161720Z 10015KT 2SM TS -FZRA BR OVC010 M01/M02 A2977 770 92 -900 100/15 RMK AO2 PRESFR TS S-SW MOV NE OCNL LTGIC P0004 $
14840KMKG MKG20060216122515702/16/06 12:25:31  5-MIN KMKG 161725Z 09014G21KT 2SM TS -FZRA BR OVC010 00/M01 A2976 780 92 -800 100/14G21 RMK AO2 PRESFR TS S-SW-W MOV NE OCNL LTGIC P0004 $
14840KMKG MKG20060216123016902/16/06 12:30:31  5-MIN KMKG 161730Z 10015G24KT 2 1/2SM TS -FZRA BR BKN007 OVC012 M01/M02 A2976 780 92 -800 110/15G24 RMK AO2 PRESFR TS S-SW-W MOV NE OCNL LTGIC P0004 $
14840KMKG MKG20060216123515802/16/06 12:35:31  5-MIN KMKG 161735Z 10016G24KT 3SM TS -FZRA BR BKN007 OVC012 M01/M02 A2975 790 92 -800 100/16G24 RMK AO2 TS S-SW-W MOV NE OCNL LTGIC P0005 $
14840KMKG MKG20060216124016502/16/06 12:40:31  5-MIN KMKG 161740Z 10017G24KT 2 1/2SM TS -FZRA BR BKN007 OVC012 M01/M02 A2975 790 92 -800 100/17G24 RMK AO2 TS SE-SW-W MOV NE OCNL LTGICCA P0005 $
14840KMKG MKG20060216124516002/16/06 12:45:31  5-MIN KMKG 161745Z 09017G25KT 2SM TS FZRA BR BKN007 OVC012 M01/M01 A2975 790 96 -800 100/17G25 RMK AO2 TS SE-SW-W MOV NE OCNL LTGICCA P0007 $
14840KMKG MKG20060216125020202/16/06 12:50:31  5-MIN KMKG 161750Z 10014G25KT 2 1/2SM TS FZRA BR BKN007 OVC011 00/M01 A2975 790 92 -800 100/14G25 RMK AO2 SLP082 TS ALQDS MOV NE OCNL LTGICCA P0008 60010 T00001011 10000 21006 58027 $
14840KMKG MKG20060216125519702/16/06 12:55:31  5-MIN KMKG 161755Z 09017G23KT 2 1/2SM TS FZRA BR OVC007 00/M01 A2974 790 92 -800 090/17G23 RMK AO2 SLP079 TS ALQDS MOV NE OCNL LTGICCACG P0010 60012 T00001011 10000 21006 58031 $
14840KMKG MKG20060216130018202/16/06 13:00:31  5-MIN KMKG 161800Z 09018G22KT 2 1/2SM TS FZRA BR BKN007 BKN014 OVC021 00/M01 A2974 800 92 -700 090/18G22 RMK AO2 CIG 006V012 TS ALQDS MOV NE OCNL LTGICCACG P0002 $
14840KMKG MKG20060216130517102/16/06 13:05:31  5-MIN KMKG 161805Z 08015G22KT 3SM TS FZRA BR BKN009 OVC021 00/M01 A2974 800 92 -700 090/15G22 RMK AO2 CIG 006V013 TS ALQDS MOV NE OCNL LTGICCACG P0002 $
14840KMKG MKG20060216131016502/16/06 13:10:31  5-MIN KMKG 161810Z 09014G22KT 5SM TS -FZRA BR OVC009 00/M02 A2975 790 88 -800 090/14G22 RMK AO2 CIG 006V013 TS ALQDS MOV NE OCNL LTGICCACG P0002 $
14840KMKG MKG20060216131517302/16/06 13:15:31  5-MIN KMKG 161815Z 12009KT 4SM TS -FZRA BR BKN009 OVC012 00/M01 A2979 750 92 -800 130/09 RMK AO2 CIG 006V010 PRESRR TS ALQDS MOV NE CONS LTGICCACG P0003 $
14840KMKG MKG20060216132015902/16/06 13:20:31  5-MIN KMKG 161820Z 09013KT 2 1/2SM TS -FZRAGS BR OVC009 00/M01 A2978 760 92 -800 090/13 RMK AO2 GSB16 TS ALQDS MOV NE CONS LTGICCACG P0005 $
14840KMKG MKG20060216132517302/16/06 13:25:31  5-MIN KMKG 161825Z 06012KT 1 3/4SM TS -FZRAGS BR SCT009 BKN012 OVC021 00/M01 A2978 760 92 -800 070/12 RMK AO2 GSB16 TS ALQDS MOV NE CONS LTGICCACG P0019 $
14840KMKG MKG20060216133019002/16/06 13:30:31  5-MIN KMKG 161830Z 34007KT 2 1/2SM TS -FZRAGS BR SCT009 BKN012 OVC021 00/M01 A2981 730 92 -800 340/07 RMK AO2 VIS 1 3/4 RWY 14 GSB16 TS ALQDS MOV NE OCNL LTGICCACG P0021 $
14840KMKG MKG20060216133516402/16/06 13:35:31  5-MIN KMKG 161835Z 06012KT 2SM TS -FZRA BR BKN007 OVC012 00/M01 A2978 760 92 -800 060/12 RMK AO2 GSB16E31 OCNL LTGICCCACG TS ALQDS MOV NE P0025 $
14840KMKG MKG20060216134017002/16/06 13:40:31  5-MIN KMKG 161840Z 04007KT 1 3/4SM TS -FZRA BR BKN007 BKN012 OVC020 00/M01 A2979 760 92 -800 050/07 RMK AO2 GSB16E31 OCNL LTGIC TS ALQDS MOV NE P0029 $
14840KMKG MKG20060216134516602/16/06 13:45:31  5-MIN KMKG 161845Z 07009KT 2SM TS -FZRA BR BKN009 BKN012 OVC020 00/M01 A2977 770 96 -800 070/09 RMK AO2 GSB16E31 OCNL LTGIC TS ALQDS MOV NE P0032 $
14840KMKG MKG20060216135017002/16/06 13:50:31  5-MIN KMKG 161850Z 09014KT 2 1/2SM TS -FZRA BR SCT007 BKN012 OVC020 00/M01 A2974 800 92 -700 090/14 RMK AO2 GSB16E31 OCNL LTGIC TS ALQDS MOV NE P0034 $
14840KMKG MKG20060216135518702/16/06 13:55:31  5-MIN KMKG 161855Z 08014KT 2 1/2SM TS -FZRA BR SCT007 BKN012 OVC027 00/M01 A2973 810 92 -700 090/14 RMK AO2 GSB16E31 OCNL LTGIC TS ALQDS MOV NE SLP074 P0038 T00001011 $
14840KMKG MKG20060216140018502/16/06 14:00:31  5-MIN KMKG 161900Z 08012KT 3SM TS -FZRA BR FEW007 BKN014 OVC033 00/M01 A2973 810 92 -700 080/12 RMK AO2 VIS 2 RWY 14 CIG 009 RWY 14 OCNL LTGIC TS ALQDS MOV NE P0003 $
14840KMKG MKG20060216140516302/16/06 14:05:31  5-MIN KMKG 161905Z 07010G17KT 3SM TS -FZRA BR FEW009 BKN014 OVC028 00/M01 A2972 810 96 -700 080/10G17 RMK AO2 OCNL LTGIC TS ALQDS MOV NE P0006 $
14840KMKG MKG20060216141017402/16/06 14:10:31  5-MIN KMKG 161910Z 07010KT 3SM TS -FZRA BR BKN009 BKN020 OVC026 00/M01 A2972 820 92 -700 070/10 RMK AO2 VIS 2 1/2 RWY 14 OCNL LTGIC TS ALQDS MOV NE P0008 $
14840KMKG MKG20060216141515602/16/06 14:15:31  5-MIN KMKG 161915Z 08012KT 4SM TS -FZRA BR BKN011 BKN019 OVC026 00/M01 A2971 820 96 -700 080/12 RMK AO2 OCNL LTGIC TS NE-S MOV NE P0009 $
14840KMKG MKG20060216142015602/16/06 14:20:31  5-MIN KMKG 161920Z 08010KT 4SM TS -FZRA BR BKN007 BKN019 OVC027 00/M01 A2971 820 92 -700 080/10 RMK AO2 OCNL LTGIC TS NE-S MOV NE P0010 $
14840KMKG MKG20060216142512602/16/06 14:25:31  5-MIN KMKG 161925Z 07009KT 5SM -FZRA BR BKN009 OVC019 00/M01 A2971 830 92 -700 080/09 RMK AO2 TSE21 P0011 $
14840KMKG MKG20060216143013502/16/06 14:30:31  5-MIN KMKG 161930Z 08008KT 7SM -FZRA BKN009 OVC019 00/M01 A2970 830 92 -700 090/08 RMK AO2 TSE21 CIG 006V013 P0011 $
14840KMKG MKG20060216143513702/16/06 14:35:31  5-MIN KMKG 161935Z 08012G17KT 6SM -FZRA BR OVC009 00/M01 A2970 840 92 -700 080/12G17 RMK AO2 TSE21 CIG 006V013 P0012 $
14840KMKG MKG20060216144013702/16/06 14:40:31  5-MIN KMKG 161940Z 08010G17KT 6SM -FZRA BR OVC009 00/M01 A2970 840 92 -700 090/10G17 RMK AO2 TSE21 CIG 006V012 P0012 $
14840KMKG MKG20060216144512802/16/06 14:45:31  5-MIN KMKG 161945Z 09008KT 7SM -FZRA OVC009 00/M01 A2969 840 92 -700 090/08 RMK AO2 TSE21 CIG 006V013 P0013 $
14840KMKG MKG20060216145015502/16/06 14:50:31  5-MIN KMKG 161950Z 08007KT 5SM -FZRA BR OVC009 00/M01 A2968 850 92 -700 080/07 RMK AO2 TSE21 CIG 005V013 PRESFR SLP058 P0013 T00001011 $
14840KMKG MKG20060216145515502/16/06 14:55:31  5-MIN KMKG 161955Z 08011KT 4SM -FZRA BR OVC009 00/M01 A2967 860 92 -700 090/11 RMK AO2 TSE21 CIG 005V013 PRESFR SLP055 P0013 T00001011 $
14840KMKG MKG20060216150012502/16/06 15:00:31  5-MIN KMKG 162000Z 08009KT 5SM -FZRA BR OVC009 00/M01 A2967 860 92 -700 080/09 RMK AO2 CIG 005V013 P0001 $
14840KMKG MKG20060216150512502/16/06 15:05:31  5-MIN KMKG 162005Z 06007KT 6SM -FZRA BR OVC009 00/M01 A2967 860 92 -700 060/07 RMK AO2 CIG 005V013 P0001 $
14840KMKG MKG20060216151012202/16/06 15:10:31  5-MIN KMKG 162010Z 05006KT 8SM -FZRA OVC009 00/M01 A2968 850 92 -700 050/06 RMK AO2 CIG 005V013 P0001 $
14840KMKG MKG20060216151512902/16/06 15:15:31  5-MIN KMKG 162015Z 00000KT 7SM -FZRA OVC009 00/M01 A2970 840 92 -700 000/00 RMK AO2 CIG 005V011 PRESRR P0002 $
14840KMKG MKG20060216152016202/16/06 15:20:31  5-MIN KMKG 162020Z 00000KT 5SM TS -FZRA BR OVC009 00/M01 A2968 850 92 -700 000/00 RMK AO2 CIG 006V011 OCNL LTGICCCCA TSB16 TS SW MOV NE P0004 $
14840KMKG MKG20060216152517402/16/06 15:25:31  5-MIN KMKG 162025Z 00000KT 2 1/2SM TS -FZRA BR OVC009 00/M01 A2966 870 92 -700 000/00 RMK AO2 CIG 006V012 OCNL LTGICCCCA TSB16 TS SW AND OHD MOV NE P0006 $
14840KMKG MKG20060216153018702/16/06 15:30:31  5-MIN KMKG 162030Z 00000KT 3SM TS -FZRA BR OVC009 00/M01 A2965 880 96 -600 000/00 RMK AO2 TWR VIS 4 CIG 006V012 PRESFR OCNL LTGICCCCA TSB16 TS SW AND OHD MOV NE P0010 $
14840KMKG MKG20060216153518702/16/06 15:35:31  5-MIN KMKG 162035Z 09009KT 3SM TS -FZRA BR BKN009 OVC015 00/M01 A2965 880 92 -700 090/09 RMK AO2 TWR VIS 4 CIG 006V012 OCNL LTGICCCCA TSB16 TS SW AND OHD MOV NE P0010 $
14840KMKG MKG20060216154017902/16/06 15:40:31  5-MIN KMKG 162040Z 09009KT 3SM TS -FZRA BR BKN009 OVC017 00/M01 A2965 880 92 -600 090/09 RMK AO2 TWR VIS 4 CIG 006V012 OCNL LTGICCCCA TSB16 TS SE MOV NE P0011 $
14840KMKG MKG20060216154516902/16/06 15:45:31  5-MIN KMKG 162045Z 09009KT 4SM TS -FZRA BR BKN009 OVC017 00/M01 A2965 880 96 -600 090/09 RMK AO2 CIG 006V012 OCNL LTGICCCCA TSB16 TS SE MOV NE P0012 $
14840KMKG MKG20060216155022102/16/06 15:50:31  5-MIN KMKG 162050Z 09009KT 3SM TS -FZRA BR BKN009 OVC017 00/M01 A2965 880 96 -600 090/09 RMK AO2 TWR VIS 4 VIS 2 RWY 14 CIG 006V012 SLP048 OCNL LTGICCCCA TSB16 TS SE MOV NE P0014 60065 T00001006 58031 $
14840KMKG MKG20060216155519302/16/06 15:55:31  5-MIN KMKG 162055Z 09009KT 3SM -FZRA BR BKN007 OVC017 00/M01 A2964 890 96 -600 090/09 RMK AO2 TWR VIS 4 VIS 2 RWY 14 CIG 006V011 SLP044 TSB16E52 P0017 60068 T00001006 58029 $
14840KMKG MKG20060216160015102/16/06 16:00:31  5-MIN KMKG 162100Z 08010KT 2 1/2SM -FZRA BR OVC007 00/M01 A2964 890 96 -600 080/10 RMK AO2 TWR VIS 4 VIS 1 3/4V4 CIG 006V011 P0001 $
14840KMKG MKG20060216160514102/16/06 16:05:31  5-MIN KMKG 162105Z 08008KT 2SM -FZRA BR OVC007 00/M01 A2964 890 96 -600 080/08 RMK AO2 VIS 1 1/2V2 1/2 CIG 006V011 P0004 $
14840KMKG MKG20060216161012502/16/06 16:10:31  5-MIN KMKG 162110Z 08008KT 2SM -FZRA BR OVC007 00/M01 A2964 890 96 -600 080/08 RMK AO2 CIG 005V011 P0008 $
14840KMKG MKG20060216161513202/16/06 16:15:31  5-MIN KMKG 162115Z 08008KT 2SM -FZRA BR BKN007 OVC010 00/M01 A2964 890 96 -600 080/08 RMK AO2 CIG 005V009 P0010 $
14840KMKG MKG20060216162012902/16/06 16:20:31  5-MIN KMKG 162120Z 08008KT 2 1/2SM -FZRA BR OVC007 00/M01 A2963 900 96 -600 080/08 RMK AO2 CIG 005V011 P0013 $
14840KMKG MKG20060216162512502/16/06 16:25:31  5-MIN KMKG 162125Z 08008KT 6SM -FZRA BR OVC007 00/M01 A2964 890 96 -600 080/08 RMK AO2 CIG 005V011 P0014 $
14840KMKG MKG20060216163012502/16/06 16:30:31  5-MIN KMKG 162130Z 08007KT 5SM -FZRA BR OVC007 00/M01 A2963 900 96 -600 080/07 RMK AO2 CIG 005V010 P0015 $
14840KMKG MKG20060216163511302/16/06 16:35:31  5-MIN KMKG 162135Z 08007KT 2SM -FZRA BR OVC007 00/M01 A2963 900 96 -600 080/07 RMK AO2 P0016 $
14840KMKG MKG20060216164012002/16/06 16:40:31  5-MIN KMKG 162140Z 08007KT 3SM -FZRA BR BKN007 OVC010 00/M01 A2963 900 96 -600 080/07 RMK AO2 P0021 $
14840KMKG MKG20060216164511302/16/06 16:45:31  5-MIN KMKG 162145Z 07008KT 3SM -FZRA BR OVC007 00/M01 A2964 890 96 -600 070/08 RMK AO2 P0021 $
14840KMKG MKG20060216165013002/16/06 16:50:31  5-MIN KMKG 162150Z 07008KT 4SM -FZRA BR OVC007 00/M01 A2963 900 96 -600 070/08 RMK AO2 SLP041 P0022 T00001006 $
14840KMKG MKG20060216165513702/16/06 16:55:31  5-MIN KMKG 162155Z 06004KT 4SM -FZRA BR BKN007 OVC014 00/M01 A2962 910 96 -600 060/04 RMK AO2 SLP038 P0023 T00001006 $
14840KMKG MKG20060216170012002/16/06 17:00:31  5-MIN KMKG 162200Z 00000KT 4SM -FZRA BR BKN007 OVC014 00/M01 A2963 900 96 -600 000/00 RMK AO2 P0001 $
14840KMKG MKG20060216170512502/16/06 17:05:31  5-MIN KMKG 162205Z 00000KT 3SM -FZRA BR OVC007 00/M01 A2964 890 96 -600 000/00 RMK AO2 CIG 005V010 P0003 $
14840KMKG MKG20060216171013202/16/06 17:10:31  5-MIN KMKG 162210Z 00000KT 3SM -FZRA BR BKN007 OVC014 00/M01 A2963 900 96 -600 000/00 RMK AO2 CIG 005V009 P0005 $
14840KMKG MKG20060216171513902/16/06 17:15:31  5-MIN KMKG 162215Z 00000KT 4SM -FZRA BR BKN007 BKN014 OVC020 00/M01 A2962 910 92 -600 000/00 RMK AO2 CIG 005V009 P0006 $
14840KMKG MKG20060216172013902/16/06 17:20:31  5-MIN KMKG 162220Z 00000KT 5SM -FZRA BR BKN007 BKN015 OVC020 00/M01 A2962 910 92 -600 000/00 RMK AO2 CIG 005V009 P0007 $
14840KMKG MKG20060216172513202/16/06 17:25:31  5-MIN KMKG 162225Z 00000KT 5SM -FZRA BR BKN007 OVC017 00/M01 A2961 910 96 -600 000/00 RMK AO2 CIG 005V009 P0008 $
14840KMKG MKG20060216173013502/16/06 17:30:31  5-MIN KMKG 162230Z 00000KT 6SM -FZRA BR SCT007 OVC017 00/M01 A2962 910 96 -600 000/00 RMK AO2 CIG 007 RWY 14 P0008 $
14840KMKG MKG20060216173511702/16/06 17:35:31  5-MIN KMKG 162235Z 05008KT 7SM -FZRA SCT007 OVC017 00/M01 A2962 910 96 -600 050/08 RMK AO2 P0009 $
14840KMKG MKG20060216174011702/16/06 17:40:31  5-MIN KMKG 162240Z 05008KT 7SM -FZRA SCT007 OVC017 00/M01 A2961 920 96 -600 050/08 RMK AO2 P0009 $
14840KMKG MKG20060216174511702/16/06 17:45:31  5-MIN KMKG 162245Z 05008KT 8SM -FZRA SCT007 OVC017 00/M01 A2960 930 96 -600 050/08 RMK AO2 P0010 $
14840KMKG MKG20060216175013402/16/06 17:50:31  5-MIN KMKG 162250Z 05008KT 9SM -FZRA FEW007 OVC015 00/M01 A2960 930 96 -600 050/08 RMK AO2 SLP031 P0010 T00001006 $
14840KMKG MKG20060216175515002/16/06 17:55:31  5-MIN KMKG 162255Z 05006KT 10SM -FZRA SCT007 OVC015 00/M01 A2960 920 96 -600 050/06 RMK AO2 CIG 007 RWY 14 SLP032 P0010 T00001006 $
14840KMKG MKG20060216180011802/16/06 18:00:31  5-MIN KMKG 162300Z 00000KT 10SM -FZRA BKN007 OVC015 00/M01 A2960 930 96 -600 000/00 RMK AO2 P0000 $
14840KMKG MKG20060216180511802/16/06 18:05:31  5-MIN KMKG 162305Z 03004KT 10SM -FZRA BKN007 OVC015 00/M01 A2961 920 96 -600 030/04 RMK AO2 P0000 $
14840KMKG MKG20060216181011702/16/06 18:10:31  5-MIN KMKG 162310Z 03004KT 8SM -FZRA BKN007 OVC015 00/M01 A2961 910 96 -600 030/04 RMK AO2 P0000 $
14840KMKG MKG20060216181511702/16/06 18:15:31  5-MIN KMKG 162315Z 03004KT 7SM -FZRA BKN007 OVC015 00/M01 A2961 910 96 -600 030/04 RMK AO2 P0000 $
14840KMKG MKG20060216182011002/16/06 18:20:31  5-MIN KMKG 162320Z 03004KT 8SM -FZRA OVC007 00/M01 A2962 910 96 -600 030/04 RMK AO2 P0000 $
14840KMKG MKG20060216182511102/16/06 18:25:31  5-MIN KMKG 162325Z 03004KT 10SM -FZRA OVC007 00/M01 A2961 920 96 -600 030/04 RMK AO2 P0001 $
14840KMKG MKG20060216183011102/16/06 18:30:31  5-MIN KMKG 162330Z 03004KT 10SM -FZRA OVC007 00/M01 A2961 920 96 -600 030/04 RMK AO2 P0001 $
14840KMKG MKG20060216183512302/16/06 18:35:31  5-MIN KMKG 162335Z 03004KT 10SM -FZRA OVC007 00/M01 A2962 910 96 -600 030/04 RMK AO2 CIG 005V009 P0001 $
14840KMKG MKG20060216184010602/16/06 18:40:31  5-MIN KMKG 162340Z 03004KT -FZRA OVC007 00/M01 A2962 910 96 -600 030/04 RMK AO2 P0001 $
14840KMKG MKG20060216184511102/16/06 18:45:31  5-MIN KMKG 162345Z 03004KT 10SM -FZRA OVC007 00/M01 A2961 910 96 -600 030/04 RMK AO2 P0001 $
14840KMKG MKG20060216185015202/16/06 18:50:31  5-MIN KMKG 162350Z 05004KT 10SM -FZRA OVC007 00/M01 A2962 910 96 -600 050/04 RMK AO2 SLP037 P0001 60102 T00001006 10000 20000 58029 $
14840KMKG MKG20060216185516002/16/06 18:55:31  5-MIN KMKG 162355Z 05004KT 10SM OVC007 00/M00 A2962 910 96 -600 050/04 RMK AO2 FZRAE53 SLP037 4/001 P0001 60102 T00001005 10000 20000 55006 $
14840KMKG MKG20060216190010302/16/06 19:00:31  5-MIN KMKG 170000Z 05004KT 10SM OVC007 00/M00 A2962 910 96 -600 050/04 RMK AO2 PNO $
14840KMKG MKG20060216190510302/16/06 19:05:31  5-MIN KMKG 170005Z 05004KT 10SM OVC007 00/M00 A2963 900 96 -600 050/04 RMK AO2 PNO $
14840KMKG MKG20060216191010302/16/06 19:10:31  5-MIN KMKG 170010Z 05004KT 10SM OVC007 00/M00 A2963 900 96 -600 050/04 RMK AO2 PNO $
14840KMKG MKG20060216191510302/16/06 19:15:31  5-MIN KMKG 170015Z 05004KT 10SM OVC007 00/M00 A2961 910 96 -600 050/04 RMK AO2 PNO $
14840KMKG MKG20060216192010302/16/06 19:20:31  5-MIN KMKG 170020Z 05004KT 10SM OVC007 00/M00 A2962 910 96 -600 050/04 RMK AO2 PNO $
14840KMKG MKG20060216192510302/16/06 19:25:31  5-MIN KMKG 170025Z 05004KT 10SM OVC007 00/M00 A2963 900 96 -600 050/04 RMK AO2 PNO $
14840KMKG MKG20060216193010302/16/06 19:30:31  5-MIN KMKG 170030Z 05004KT 10SM OVC007 00/M00 A2963 900 96 -600 050/04 RMK AO2 PNO $
14840KMKG MKG20060216193510302/16/06 19:35:31  5-MIN KMKG 170035Z 05004KT 10SM OVC007 00/M00 A2963 900 96 -600 050/04 RMK AO2 PNO $
14840KMKG MKG20060216194011002/16/06 19:40:31  5-MIN KMKG 170040Z 05004KT 10SM OVC007 00/M00 A2965 880 96 -600 050/04 RMK AO2 PRESRR PNO $
14840KMKG MKG20060216194510302/16/06 19:45:31  5-MIN KMKG 170045Z 05004KT 10SM OVC007 00/M00 A2964 890 96 -600 050/04 RMK AO2 PNO $
14840KMKG MKG20060216195012002/16/06 19:50:31  5-MIN KMKG 170050Z 05004KT 10SM OVC007 00/M00 A2964 900 96 -600 050/04 RMK AO2 SLP042 T00001005 PNO $
14840KMKG MKG20060216195512002/16/06 19:55:31  5-MIN KMKG 170055Z 05004KT 10SM OVC007 00/M00 A2963 900 96 -600 050/04 RMK AO2 SLP042 T00001005 PNO $
14840KMKG MKG20060216200010302/16/06 20:00:31  5-MIN KMKG 170100Z 05004KT 10SM OVC007 00/M00 A2963 900 96 -600 050/04 RMK AO2 PNO $
14840KMKG MKG20060216200511002/16/06 20:05:31  5-MIN KMKG 170105Z 05004KT 10SM OVC007 00/M00 A2962 910 96 -600 050/04 RMK AO2 PRESFR PNO $
14840KMKG MKG20060216201010302/16/06 20:10:31  5-MIN KMKG 170110Z 05004KT 10SM OVC007 00/M00 A2962 910 96 -600 050/04 RMK AO2 PNO $
14840KMKG MKG20060216201510302/16/06 20:15:31  5-MIN KMKG 170115Z 05004KT 10SM OVC007 00/M00 A2963 900 96 -600 050/04 RMK AO2 PNO $
14840KMKG MKG20060216202010302/16/06 20:20:31  5-MIN KMKG 170120Z 05004KT 10SM OVC007 00/M00 A2964 890 96 -600 050/04 RMK AO2 PNO $
14840KMKG MKG20060216202510302/16/06 20:25:31  5-MIN KMKG 170125Z 05004KT 10SM OVC007 00/M00 A2965 880 96 -600 050/04 RMK AO2 PNO $
14840KMKG MKG20060216203010302/16/06 20:30:31  5-MIN KMKG 170130Z 05004KT 10SM OVC007 00/M00 A2965 880 96 -600 050/04 RMK AO2 PNO $
14840KMKG MKG20060216203510302/16/06 20:35:31  5-MIN KMKG 170135Z 05004KT 10SM OVC007 00/M00 A2965 880 96 -600 050/04 RMK AO2 PNO $
14840KMKG MKG20060216204010302/16/06 20:40:31  5-MIN KMKG 170140Z 05004KT 10SM OVC007 00/M00 A2965 880 96 -600 050/04 RMK AO2 PNO $
14840KMKG MKG20060216204510302/16/06 20:45:31  5-MIN KMKG 170145Z 05004KT 10SM OVC007 00/M00 A2965 880 96 -600 050/04 RMK AO2 PNO $
14840KMKG MKG20060216205012002/16/06 20:50:31  5-MIN KMKG 170150Z 05004KT 10SM OVC007 00/M00 A2965 880 96 -600 050/04 RMK AO2 SLP048 T00001005 PNO $
14840KMKG MKG20060216205511302/16/06 20:55:31  5-MIN KMKG 170155Z 05004KT 10SM OVC012 M00/ A2966 870 M -700 050/04 RMK AO2 SLP051 T1005 PNO $
14840KMKG MKG20060216210010002/16/06 21:00:31  5-MIN KMKG 170200Z 33008KT 10SM OVC012 M00/ A2967 860 M -700 330/08 RMK AO2 PNO $
14840KMKG MKG20060216210510002/16/06 21:05:31  5-MIN KMKG 170205Z 33008KT 10SM OVC012 M00/ A2967 870 M -700 330/08 RMK AO2 PNO $
14840KMKG MKG20060216211010002/16/06 21:10:31  5-MIN KMKG 170210Z 33008KT 10SM OVC012 M00/ A2967 870 M -700 330/08 RMK AO2 PNO $
14840KMKG MKG20060216211510002/16/06 21:15:31  5-MIN KMKG 170215Z 33008KT 10SM OVC012 M00/ A2967 860 M -700 330/08 RMK AO2 PNO $
14840KMKG MKG20060216212010002/16/06 21:20:31  5-MIN KMKG 170220Z 33008KT 10SM OVC012 M00/ A2968 850 M -800 330/08 RMK AO2 PNO $
14840KMKG MKG20060216212510002/16/06 21:25:31  5-MIN KMKG 170225Z 33008KT 10SM OVC012 M00/ A2967 860 M -700 330/08 RMK AO2 PNO $
14840KMKG MKG20060216213011002/16/06 21:30:31  5-MIN KMKG 170230Z 33008KT 10SM -SN OVC012 M00/ A2968 850 M -800 330/08 RMK AO2 SNB27 PNO $
14840KMKG MKG20060216213511002/16/06 21:35:31  5-MIN KMKG 170235Z 33008KT 10SM -SN OVC012 M00/ A2969 850 M -800 330/08 RMK AO2 SNB27 PNO $
14840KMKG MKG20060216214011002/16/06 21:40:31  5-MIN KMKG 170240Z 33008KT 10SM -SN OVC012 M00/ A2969 840 M -800 330/08 RMK AO2 SNB27 PNO $
14840KMKG MKG20060216214511002/16/06 21:45:31  5-MIN KMKG 170245Z 33008KT 10SM -SN OVC012 M00/ A2969 840 M -800 330/08 RMK AO2 SNB27 PNO $
14840KMKG MKG20060216215013502/16/06 21:50:31  5-MIN KMKG 170250Z 33015KT 8SM -SN OVC012 M03/ A2970 840 M -1100 330/15 RMK AO2 SNB27 SLP064 6//// T1028 55006 PNO $
14840KMKG MKG20060216215513502/16/06 21:55:31  5-MIN KMKG 170255Z 33015KT 8SM -SN OVC012 M03/ A2970 830 M -1100 330/15 RMK AO2 SNB27 SLP065 6//// T1028 53027 PNO $
14840KMKG MKG20060216220010402/16/06 22:00:31  5-MIN KMKG 170300Z 33015KT 8SM -SN OVC012 M03/ A2971 830 M -1100 330/15 RMK AO2 PNO $
14840KMKG MKG20060216220510402/16/06 22:05:31  5-MIN KMKG 170305Z 33015KT 8SM -SN OVC012 M03/ A2971 820 M -1100 330/15 RMK AO2 PNO $
14840KMKG MKG20060216221010402/16/06 22:10:31  5-MIN KMKG 170310Z 33015KT 8SM -SN OVC012 M03/ A2972 820 M -1100 330/15 RMK AO2 PNO $
14840KMKG MKG20060216221510402/16/06 22:15:31  5-MIN KMKG 170315Z 33015KT 8SM -SN OVC012 M03/ A2971 820 M -1100 330/15 RMK AO2 PNO $
14840KMKG MKG20060216222010402/16/06 22:20:31  5-MIN KMKG 170320Z 33015KT 8SM -SN OVC012 M03/ A2972 820 M -1100 330/15 RMK AO2 PNO $
14840KMKG MKG20060216222510402/16/06 22:25:31  5-MIN KMKG 170325Z 33015KT 8SM -SN OVC012 M03/ A2972 820 M -1100 330/15 RMK AO2 PNO $
14840KMKG MKG20060216223010402/16/06 22:30:31  5-MIN KMKG 170330Z 33015KT 8SM -SN OVC012 M03/ A2972 810 M -1100 330/15 RMK AO2 PNO $
14840KMKG MKG20060216223510402/16/06 22:35:31  5-MIN KMKG 170335Z 33015KT 8SM -SN OVC012 M03/ A2973 810 M -1100 330/15 RMK AO2 PNO $
14840KMKG MKG20060216224011102/16/06 22:40:31  5-MIN KMKG 170340Z 33015KT 8SM -SN OVC012 M03/ A2974 800 M -1100 330/15 RMK AO2 PRESRR PNO $
14840KMKG MKG20060216224511102/16/06 22:45:31  5-MIN KMKG 170345Z 33015KT 8SM -SN OVC012 M03/ A2975 790 M -1100 330/15 RMK AO2 PRESRR PNO $
14840KMKG MKG20060216225011702/16/06 22:50:31  5-MIN KMKG 170350Z 33015KT 8SM -SN OVC012 M03/ A2975 790 M -1100 330/15 RMK AO2 SLP082 T1028 PNO $
14840KMKG MKG20060216225512602/16/06 22:55:31  5-MIN KMKG 170355Z 33015G21KT 3SM -SN BR OVC009 M04/ A2975 790 M -1300 330/15G21 RMK AO2 SLP081 T1039 PNO $
14840KMKG MKG20060216230011302/16/06 23:00:31  5-MIN KMKG 170400Z 33015G21KT 3SM -SN BR OVC009 M04/ A2975 790 M -1200 330/15G21 RMK AO2 PNO $
14840KMKG MKG20060216230511302/16/06 23:05:31  5-MIN KMKG 170405Z 33015G21KT 3SM -SN BR OVC009 M04/ A2975 790 M -1300 330/15G21 RMK AO2 PNO $
14840KMKG MKG20060216231011302/16/06 23:10:31  5-MIN KMKG 170410Z 33015G21KT 3SM -SN BR OVC009 M04/ A2976 780 M -1300 330/15G21 RMK AO2 PNO $
14840KMKG MKG20060216231512002/16/06 23:15:31  5-MIN KMKG 170415Z 33015G21KT 5SM -SN BR OVC009 M04/ A2977 770 M -1300 330/15G21 RMK AO2 PRESRR PNO $
14840KMKG MKG20060216232011202/16/06 23:20:31  5-MIN KMKG 170420Z 33015G21KT 8SM OVC009 M04/ A2977 770 M -1300 330/15G21 RMK AO2 SNE18 PNO $
14840KMKG MKG20060216232511902/16/06 23:25:31  5-MIN KMKG 170425Z 33015G21KT 8SM OVC009 M04/ A2978 760 M -1300 330/15G21 RMK AO2 SNE18 PRESRR PNO $
14840KMKG MKG20060216233011202/16/06 23:30:31  5-MIN KMKG 170430Z 33015G21KT 8SM OVC009 M04/ A2979 750 M -1300 330/15G21 RMK AO2 SNE18 PNO $
14840KMKG MKG20060216233511902/16/06 23:35:31  5-MIN KMKG 170435Z 33015G21KT 8SM OVC009 M04/ A2980 750 M -1300 330/15G21 RMK AO2 SNE18 PRESRR PNO $
14840KMKG MKG20060216234011902/16/06 23:40:31  5-MIN KMKG 170440Z 33015G21KT 8SM OVC009 M04/ A2980 740 M -1300 330/15G21 RMK AO2 SNE18 PRESRR PNO $
14840KMKG MKG20060216234511202/16/06 23:45:31  5-MIN KMKG 170445Z 33015G21KT 8SM OVC009 M04/ A2980 740 M -1300 330/15G21 RMK AO2 SNE18 PNO $
14840KMKG MKG20060216235013502/16/06 23:50:31  5-MIN KMKG 170450Z 33015G21KT 8SM OVC009 M04/ A2981 740 M -1300 330/15G21 RMK AO2 SNE18 SLP101 T1039 400001039 PNO $
14840KMKG MKG20060216235514202/16/06 23:55:31  5-MIN KMKG 170455Z 33015G21KT 8SM OVC009 M04/ A2982 720 M -1300 330/15G21 RMK AO2 SNE18 PRESRR SLP106 T1039 400001039 PNO $
14840KMKG MKG20060217000010702/17/06 00:00:32  5-MIN KMKG 170500Z 32016G22KT 10SM OVC009 M04/ A2982 720 M -1300 320/16G22 RMK AO2 PNO $
14840KMKG MKG20060217000510702/17/06 00:05:31  5-MIN KMKG 170505Z 32016G22KT 10SM OVC009 M04/ A2982 720 M -1300 320/16G22 RMK AO2 PNO $
14840KMKG MKG20060217001010702/17/06 00:10:31  5-MIN KMKG 170510Z 32016G22KT 10SM OVC009 M04/ A2982 720 M -1300 320/16G22 RMK AO2 PNO $
14840KMKG MKG20060217001510702/17/06 00:15:31  5-MIN KMKG 170515Z 32020G27KT 10SM OVC009 M04/ A2984 710 M -1400 320/20G27 RMK AO2 PNO $
14840KMKG MKG20060217002011402/17/06 00:20:31  5-MIN KMKG 170520Z 32020G27KT 10SM OVC009 M04/ A2984 700 M -1400 320/20G27 RMK AO2 PRESRR PNO $
14840KMKG MKG20060217002511402/17/06 00:25:31  5-MIN KMKG 170525Z 32020G27KT 10SM OVC009 M04/ A2985 690 M -1400 320/20G27 RMK AO2 PRESRR PNO $
14840KMKG MKG20060217003011402/17/06 00:30:31  5-MIN KMKG 170530Z 32020G27KT 10SM OVC009 M04/ A2986 680 M -1400 320/20G27 RMK AO2 PRESRR PNO $
14840KMKG MKG20060217003510702/17/06 00:35:31  5-MIN KMKG 170535Z 32020G27KT 10SM OVC009 M04/ A2986 690 M -1400 320/20G27 RMK AO2 PNO $
14840KMKG MKG20060217004010702/17/06 00:40:31  5-MIN KMKG 170540Z 32020G27KT 10SM OVC009 M04/ A2987 680 M -1400 320/20G27 RMK AO2 PNO $
14840KMKG MKG20060217004510702/17/06 00:45:31  5-MIN KMKG 170545Z 32020G27KT 10SM OVC009 M04/ A2987 670 M -1400 320/20G27 RMK AO2 PNO $
14840KMKG MKG20060217005015102/17/06 00:50:31  5-MIN KMKG 170550Z 32020G27KT 10SM OVC009 M04/ A2988 670 M -1400 320/20G27 RMK AO2 PRESRR SLP127 6//// T1039 10000 21039 53027 PNO $
14840KMKG MKG20060217005515102/17/06 00:55:31  5-MIN KMKG 170555Z 32020G27KT 10SM OVC009 M04/ A2989 660 M -1400 320/20G27 RMK AO2 PRESRR SLP131 6//// T1039 10000 21039 53064 PNO $
14840KMKG MKG20060217010011302/17/06 01:00:31  5-MIN KMKG 170600Z 33015G20KT 8SM OVC009 M04/ A2990 650 M -1500 330/15G20 RMK AO2 PRESRR PNO $
14840KMKG MKG20060217010510602/17/06 01:05:31  5-MIN KMKG 170605Z 33015G20KT 8SM OVC009 M04/ A2991 640 M -1500 330/15G20 RMK AO2 PNO $
14840KMKG MKG20060217011011302/17/06 01:10:31  5-MIN KMKG 170610Z 33015G20KT 8SM OVC009 M04/ A2991 640 M -1500 330/15G20 RMK AO2 PRESRR PNO $
14840KMKG MKG20060217011510602/17/06 01:15:31  5-MIN KMKG 170615Z 33015G20KT 8SM OVC009 M04/ A2992 630 M -1500 330/15G20 RMK AO2 PNO $
14840KMKG MKG20060217012010602/17/06 01:20:31  5-MIN KMKG 170620Z 33015G20KT 8SM OVC009 M04/ A2992 630 M -1500 330/15G20 RMK AO2 PNO $
14840KMKG MKG20060217012510602/17/06 01:25:31  5-MIN KMKG 170625Z 33015G20KT 8SM OVC009 M04/ A2993 620 M -1500 330/15G20 RMK AO2 PNO $
14840KMKG MKG20060217013010602/17/06 01:30:31  5-MIN KMKG 170630Z 33015G20KT 8SM OVC009 M04/ A2993 620 M -1500 330/15G20 RMK AO2 PNO $
14840KMKG MKG20060217013510602/17/06 01:35:31  5-MIN KMKG 170635Z 33015G20KT 8SM OVC009 M04/ A2994 620 M -1500 330/15G20 RMK AO2 PNO $
14840KMKG MKG20060217014011602/17/06 01:40:31  5-MIN KMKG 170640Z 33015G25KT 3SM -SN OVC009 M04/ A2994 610 M -1500 330/15G25 RMK AO2 SNB39 PNO $
14840KMKG MKG20060217014511602/17/06 01:45:31  5-MIN KMKG 170645Z 33015G25KT 3SM -SN OVC009 M04/ A2995 610 M -1600 330/15G25 RMK AO2 SNB39 PNO $
14840KMKG MKG20060217015012902/17/06 01:50:31  5-MIN KMKG 170650Z 33015G25KT 3SM -SN OVC009 M04/ A2995 600 M -1600 330/15G25 RMK AO2 SNB39 SLP150 T1044 PNO $
14840KMKG MKG20060217015512902/17/06 01:55:31  5-MIN KMKG 170655Z 33015G25KT 3SM -SN OVC009 M04/ A2995 600 M -1600 330/15G25 RMK AO2 SNB39 SLP151 T1044 PNO $
14840KMKG MKG20060217020011002/17/06 02:00:31  5-MIN KMKG 170700Z 34015G27KT 3SM -SN OVC008 M04/ A2996 590 M -1600 340/15G27 RMK AO2 PNO $
14840KMKG MKG20060217020511002/17/06 02:05:31  5-MIN KMKG 170705Z 34015G27KT 3SM -SN OVC008 M04/ A2996 590 M -1600 340/15G27 RMK AO2 PNO $
14840KMKG MKG20060217021011702/17/06 02:10:31  5-MIN KMKG 170710Z 34015G27KT 3SM -SN OVC008 M04/ A2997 580 M -1600 340/15G27 RMK AO2 PRESRR PNO $
14840KMKG MKG20060217021511702/17/06 02:15:31  5-MIN KMKG 170715Z 34015G27KT 3SM -SN OVC008 M04/ A2998 570 M -1600 340/15G27 RMK AO2 PRESRR PNO $
14840KMKG MKG20060217022011702/17/06 02:20:31  5-MIN KMKG 170720Z 34015G27KT 3SM -SN OVC008 M04/ A2999 570 M -1600 340/15G27 RMK AO2 PRESRR PNO $
14840KMKG MKG20060217022511702/17/06 02:25:31  5-MIN KMKG 170725Z 34015G27KT 3SM -SN OVC008 M04/ A3000 560 M -1600 340/15G27 RMK AO2 PRESRR PNO $
14840KMKG MKG20060217023011002/17/06 02:30:31  5-MIN KMKG 170730Z 34015G27KT 3SM -SN OVC008 M04/ A3000 560 M -1600 340/15G27 RMK AO2 PNO $
14840KMKG MKG20060217023511002/17/06 02:35:31  5-MIN KMKG 170735Z 34015G27KT 3SM -SN OVC008 M04/ A3000 550 M -1600 340/15G27 RMK AO2 PNO $
14840KMKG MKG20060217024011702/17/06 02:40:31  5-MIN KMKG 170740Z 34015G27KT 3SM -SN OVC008 M04/ A3001 550 M -1600 340/15G27 RMK AO2 PRESRR PNO $
14840KMKG MKG20060217024511002/17/06 02:45:31  5-MIN KMKG 170745Z 34015G27KT 3SM -SN OVC008 M04/ A3001 540 M -1600 340/15G27 RMK AO2 PNO $
14840KMKG MKG20060217025012502/17/06 02:50:31  5-MIN KMKG 170750Z 34020G30KT 1/4SM +SN OVC008 M04/ A3002 540 M -1600 340/20G30 RMK AO2 SLP173 T1044 PNO $
14840KMKG MKG20060217025513602/17/06 02:55:31  5-MIN KMKG 170755Z 34020G30KT 1/2SM SN BLSN OVC005 M04/ A3003 530 M -1600 340/20G30 RMK AO2 PRESRR SLP177 T1044 PNO $
14840KMKG MKG20060217030011502/17/06 03:00:31  5-MIN KMKG 170800Z 32020G33KT 1/2SM SN BLSN VV001 M05/ A3003 530 M -1700 320/20G33 RMK AO2 PNO $
14840KMKG MKG20060217030511502/17/06 03:05:31  5-MIN KMKG 170805Z 32020G33KT 1/2SM SN BLSN VV001 M05/ A3004 520 M -1700 320/20G33 RMK AO2 PNO $
14840KMKG MKG20060217031012202/17/06 03:10:31  5-MIN KMKG 170810Z 32020G33KT 1/2SM SN BLSN VV001 M05/ A3005 510 M -1700 320/20G33 RMK AO2 PRESRR PNO $
14840KMKG MKG20060217031511502/17/06 03:15:31  5-MIN KMKG 170815Z 32020G33KT 1/2SM SN BLSN VV001 M05/ A3005 510 M -1700 320/20G33 RMK AO2 PNO $
14840KMKG MKG20060217032012202/17/06 03:20:31  5-MIN KMKG 170820Z 32020G33KT 1/2SM SN BLSN VV001 M05/ A3006 500 M -1800 320/20G33 RMK AO2 PRESRR PNO $
14840KMKG MKG20060217032511502/17/06 03:25:31  5-MIN KMKG 170825Z 32020G33KT 1/2SM SN BLSN VV001 M05/ A3006 500 M -1800 320/20G33 RMK AO2 PNO $
14840KMKG MKG20060217033011502/17/06 03:30:31  5-MIN KMKG 170830Z 32020G33KT 1SM -SN BLSN OVC006 M05/ A3007 490 M -1800 320/20G33 RMK AO2 PNO $
14840KMKG MKG20060217033512202/17/06 03:35:31  5-MIN KMKG 170835Z 32020G33KT 1SM -SN BLSN OVC006 M05/ A3008 490 M -1800 320/20G33 RMK AO2 PRESRR PNO $
14840KMKG MKG20060217034011502/17/06 03:40:31  5-MIN KMKG 170840Z 32020G33KT 1SM -SN BLSN OVC006 M05/ A3008 480 M -1800 320/20G33 RMK AO2 PNO $
14840KMKG MKG20060217034512202/17/06 03:45:31  5-MIN KMKG 170845Z 32020G33KT 1SM -SN BLSN OVC006 M05/ A3009 470 M -1800 320/20G33 RMK AO2 PRESRR PNO $
14840KMKG MKG20060217035014002/17/06 03:50:31  5-MIN KMKG 170850Z 32020G33KT 1SM -SN BLSN OVC006 M05/ A3009 480 M -1800 320/20G33 RMK AO2 SLP197 6//// T1050 53064 PNO $
14840KMKG MKG20060217035514702/17/06 03:55:31  5-MIN KMKG 170855Z 32020G33KT 1SM -SN BLSN OVC006 M05/ A3010 460 M -1800 320/20G33 RMK AO2 PRESRR SLP202 6//// T1050 53069 PNO $
14840KMKG MKG20060217040012202/17/06 04:00:31  5-MIN KMKG 170900Z 31020G30KT 1SM -SN BLSN OVC005 M05/ A3011 450 M -1800 310/20G30 RMK AO2 PRESRR PNO $
14840KMKG MKG20060217040511502/17/06 04:05:31  5-MIN KMKG 170905Z 31020G30KT 1SM -SN BLSN OVC005 M05/ A3011 450 M -1800 310/20G30 RMK AO2 PNO $
14840KMKG MKG20060217041011502/17/06 04:10:31  5-MIN KMKG 170910Z 31020G30KT 1SM -SN BLSN OVC005 M05/ A3012 450 M -1800 310/20G30 RMK AO2 PNO $
14840KMKG MKG20060217041512202/17/06 04:15:31  5-MIN KMKG 170915Z 31020G30KT 1SM -SN BLSN OVC005 M05/ A3013 440 M -1800 310/20G30 RMK AO2 PRESRR PNO $
14840KMKG MKG20060217042011502/17/06 04:20:31  5-MIN KMKG 170920Z 31020G30KT 1SM -SN BLSN OVC005 M05/ A3013 440 M -1800 310/20G30 RMK AO2 PNO $
14840KMKG MKG20060217042511502/17/06 04:25:31  5-MIN KMKG 170925Z 31020G30KT 1SM -SN BLSN OVC005 M05/ A3014 430 M -1800 310/20G30 RMK AO2 PNO $
14840KMKG MKG20060217043011502/17/06 04:30:31  5-MIN KMKG 170930Z 31020G30KT 1SM -SN BLSN OVC005 M05/ A3014 430 M -1800 310/20G30 RMK AO2 PNO $
14840KMKG MKG20060217043511502/17/06 04:35:31  5-MIN KMKG 170935Z 31020G30KT 1SM -SN BLSN OVC005 M05/ A3013 430 M -1800 310/20G30 RMK AO2 PNO $
14840KMKG MKG20060217044011502/17/06 04:40:31  5-MIN KMKG 170940Z 31020G30KT 1SM -SN BLSN OVC005 M05/ A3015 420 M -1900 310/20G30 RMK AO2 PNO $
14840KMKG MKG20060217044512202/17/06 04:45:31  5-MIN KMKG 170945Z 31020G30KT 1SM -SN BLSN OVC005 M05/ A3016 410 M -1900 310/20G30 RMK AO2 PRESRR PNO $
14840KMKG MKG20060217045012802/17/06 04:50:31  5-MIN KMKG 170950Z 31020G30KT 1SM -SN BLSN OVC005 M05/ A3016 410 M -1900 310/20G30 RMK AO2 SLP221 T1050 PNO $
14840KMKG MKG20060217045512802/17/06 04:55:31  5-MIN KMKG 170955Z 31020G30KT 1SM -SN BLSN OVC005 M05/ A3017 400 M -1900 310/20G30 RMK AO2 SLP224 T1050 PNO $
14840KMKG MKG20060217050011702/17/06 05:00:31  5-MIN KMKG 171000Z 32020G32KT 1/2SM -SN BLSN OVC005 M05/ A3017 400 M -1900 320/20G32 RMK AO2 PNO $
14840KMKG MKG20060217050511702/17/06 05:05:31  5-MIN KMKG 171005Z 32020G32KT 1/2SM -SN BLSN OVC005 M05/ A3018 390 M -1900 320/20G32 RMK AO2 PNO $
14840KMKG MKG20060217051012402/17/06 05:10:31  5-MIN KMKG 171010Z 32020G32KT 1/2SM -SN BLSN OVC005 M05/ A3018 390 M -1900 320/20G32 RMK AO2 PRESRR PNO $
14840KMKG MKG20060217051512402/17/06 05:15:31  5-MIN KMKG 171015Z 32020G32KT 1/2SM -SN BLSN OVC005 M05/ A3019 380 M -1900 320/20G32 RMK AO2 PRESRR PNO $
14840KMKG MKG20060217052012402/17/06 05:20:31  5-MIN KMKG 171020Z 32020G32KT 1/2SM -SN BLSN OVC005 M05/ A3020 370 M -1900 320/20G32 RMK AO2 PRESRR PNO $
14840KMKG MKG20060217052512402/17/06 05:25:31  5-MIN KMKG 171025Z 32020G32KT 1/2SM -SN BLSN OVC005 M05/ A3021 370 M -1900 320/20G32 RMK AO2 PRESRR PNO $
14840KMKG MKG20060217053011702/17/06 05:30:31  5-MIN KMKG 171030Z 32020G32KT 1/2SM -SN BLSN OVC005 M05/ A3020 370 M -1900 320/20G32 RMK AO2 PNO $
14840KMKG MKG20060217053511702/17/06 05:35:31  5-MIN KMKG 171035Z 32020G32KT 1/2SM -SN BLSN OVC005 M05/ A3021 360 M -1900 320/20G32 RMK AO2 PNO $
14840KMKG MKG20060217054011702/17/06 05:40:31  5-MIN KMKG 171040Z 32020G32KT 1/2SM -SN BLSN OVC005 M05/ A3022 360 M -1900 320/20G32 RMK AO2 PNO $
14840KMKG MKG20060217054511702/17/06 05:45:31  5-MIN KMKG 171045Z 32020G32KT 1/2SM -SN BLSN OVC005 M05/ A3022 350 M -1900 320/20G32 RMK AO2 PNO $
14840KMKG MKG20060217055013702/17/06 05:50:31  5-MIN KMKG 171050Z 32020G32KT 1/2SM -SN BLSN OVC005 M05/ A3023 350 M -2000 320/20G32 RMK AO2 PRESRR SLP245 T1050 PNO $
14840KMKG MKG20060217055513702/17/06 05:55:31  5-MIN KMKG 171055Z 32020G32KT 1/2SM -SN BLSN OVC005 M05/ A3024 340 M -2000 320/20G32 RMK AO2 PRESRR SLP248 T1050 PNO $
14840KMKG MKG20060217060011702/17/06 06:00:31  5-MIN KMKG 171100Z 31015G25KT 2SM -SN OVC008 M05/ A3025 330 M -2000 310/15G25 RMK AO2 PRESRR PNO $
14840KMKG MKG20060217060511002/17/06 06:05:31  5-MIN KMKG 171105Z 31015G25KT 2SM -SN OVC008 M05/ A3025 330 M -2000 310/15G25 RMK AO2 PNO $
14840KMKG MKG20060217061011702/17/06 06:10:31  5-MIN KMKG 171110Z 31015G25KT 2SM -SN OVC008 M05/ A3026 320 M -2000 310/15G25 RMK AO2 PRESRR PNO $
14840KMKG MKG20060217061511002/17/06 06:15:31  5-MIN KMKG 171115Z 31015G25KT 2SM -SN OVC008 M05/ A3026 320 M -2000 310/15G25 RMK AO2 PNO $
14840KMKG MKG20060217062011002/17/06 06:20:31  5-MIN KMKG 171120Z 31015G25KT 2SM -SN OVC008 M05/ A3026 320 M -2000 310/15G25 RMK AO2 PNO $
14840KMKG MKG20060217062511002/17/06 06:25:31  5-MIN KMKG 171125Z 31015G25KT 2SM -SN OVC008 M05/ A3026 320 M -2000 310/15G25 RMK AO2 PNO $
14840KMKG MKG20060217063011002/17/06 06:30:31  5-MIN KMKG 171130Z 31015G25KT 2SM -SN OVC008 M05/ A3027 310 M -2000 310/15G25 RMK AO2 PNO $
14840KMKG MKG20060217063511002/17/06 06:35:31  5-MIN KMKG 171135Z 31015G25KT 2SM -SN OVC008 M05/ A3027 310 M -2000 310/15G25 RMK AO2 PNO $
14840KMKG MKG20060217064011002/17/06 06:40:31  5-MIN KMKG 171140Z 31015G25KT 2SM -SN OVC008 M05/ A3028 300 M -2000 310/15G25 RMK AO2 PNO $
14840KMKG MKG20060217064511002/17/06 06:45:31  5-MIN KMKG 171145Z 31015G25KT 2SM -SN OVC008 M05/ A3028 300 M -2000 310/15G25 RMK AO2 PNO $
14840KMKG MKG20060217065016002/17/06 06:50:31  5-MIN KMKG 171150Z 31015G25KT 2SM -SN OVC008 M05/ A3029 290 M -2000 310/15G25 RMK AO2 PRESRR SLP266 6//// 7//// T1050 11044 21050 53069 PNO $
14840KMKG MKG20060217065515302/17/06 06:55:31  5-MIN KMKG 171155Z 31015G25KT 2SM -SN OVC008 M05/ A3029 290 M -2000 310/15G25 RMK AO2 SLP267 6//// 7//// T1050 11044 21050 51063 PNO $
14840KMKG MKG20060217070011002/17/06 07:00:31  5-MIN KMKG 171200Z 31015G25KT 8SM -SN OVC009 M05/ A3030 290 M -2000 310/15G25 RMK AO2 PNO $
14840KMKG MKG20060217070511002/17/06 07:05:31  5-MIN KMKG 171205Z 31015G25KT 2SM -SN OVC009 M05/ A3029 290 M -2000 310/15G25 RMK AO2 PNO $
14840KMKG MKG20060217071011002/17/06 07:10:31  5-MIN KMKG 171210Z 31015G25KT 1SM -SN OVC005 M05/ A3031 280 M -2000 310/15G25 RMK AO2 PNO $
14840KMKG MKG20060217071511002/17/06 07:15:31  5-MIN KMKG 171215Z 31015G25KT 1SM -SN OVC005 M05/ A3031 270 M -2000 310/15G25 RMK AO2 PNO $
14840KMKG MKG20060217072011402/17/06 07:20:31  5-MIN KMKG 171220Z 31015G25KT 1 3/4SM -SN OVC005 M05/ A3031 270 M -2000 310/15G25 RMK AO2 PNO $
14840KMKG MKG20060217072511402/17/06 07:25:31  5-MIN KMKG 171225Z 31015G25KT 1 3/4SM -SN OVC005 M05/ A3032 270 M -2100 310/15G25 RMK AO2 PNO $
14840KMKG MKG20060217073011002/17/06 07:30:31  5-MIN KMKG 171230Z 33013G19KT 2SM -SN OVC005 M05/ A3032 270 M -2100 330/13G19 RMK AO2 PNO $
14840KMKG MKG20060217073511002/17/06 07:35:31  5-MIN KMKG 171235Z 33013G19KT 2SM -SN OVC005 M05/ A3032 260 M -2100 330/13G19 RMK AO2 PNO $
14840KMKG MKG20060217074011002/17/06 07:40:31  5-MIN KMKG 171240Z 33013G19KT 2SM -SN OVC005 M05/ A3033 260 M -2100 330/13G19 RMK AO2 PNO $
14840KMKG MKG20060217074511002/17/06 07:45:31  5-MIN KMKG 171245Z 33013G19KT 2SM -SN OVC005 M05/ A3033 250 M -2100 330/13G19 RMK AO2 PNO $
14840KMKG MKG20060217075011702/17/06 07:50:31  5-MIN KMKG 171250Z 33015G24KT 3SM -SN OVC005 M05/ A3034 250 M -2100 330/15G24 RMK AO2 PRESRR PNO $
14840KMKG MKG20060217075513002/17/06 07:55:31  5-MIN KMKG 171255Z 32015G24KT 3SM -SN BKN008 OVC012 M05/ A3034 240 M -2200 320/15G24 RMK AO2 SLP284 T1055 PNO $
14840KMKG MKG20060217080011702/17/06 08:00:31  5-MIN KMKG 171300Z 32015G24KT 3SM -SN BKN008 OVC012 M05/ A3035 240 M -2200 320/15G24 RMK AO2 PNO $
14840KMKG MKG20060217080512402/17/06 08:05:31  5-MIN KMKG 171305Z 32015G24KT 4SM -SN BKN008 OVC012 M05/ A3036 230 M -2200 320/15G24 RMK AO2 PRESRR PNO $
14840KMKG MKG20060217081012402/17/06 08:10:31  5-MIN KMKG 171310Z 32015G24KT 4SM -SN BKN008 OVC012 M05/ A3036 220 M -2200 320/15G24 RMK AO2 PRESRR PNO $
14840KMKG MKG20060217081512402/17/06 08:15:31  5-MIN KMKG 171315Z 32013G21KT 4SM -SN BKN008 OVC012 M05/ A3037 220 M -2200 320/13G21 RMK AO2 PRESRR PNO $
14840KMKG MKG20060217082011702/17/06 08:20:31  5-MIN KMKG 171320Z 32013G21KT 4SM -SN BKN009 OVC014 M05/ A3036 220 M -2200 320/13G21 RMK AO2 PNO $
14840KMKG MKG20060217082511702/17/06 08:25:31  5-MIN KMKG 171325Z 32013G21KT 4SM -SN BKN009 OVC014 M05/ A3037 220 M -2200 320/13G21 RMK AO2 PNO $
14840KMKG MKG20060217083012402/17/06 08:30:31  5-MIN KMKG 171330Z 32013G21KT 6SM -SN SCT009 BKN014 BKN021 M05/ A3037 220 M -2200 320/13G21 RMK AO2 PNO $
14840KMKG MKG20060217083512402/17/06 08:35:31  5-MIN KMKG 171335Z 32013G21KT 6SM -SN SCT009 BKN014 BKN021 M05/ A3038 210 M -2200 320/13G21 RMK AO2 PNO $
14840KMKG MKG20060217084012402/17/06 08:40:31  5-MIN KMKG 171340Z 32013G21KT 6SM -SN SCT009 BKN014 BKN021 M05/ A3038 200 M -2200 320/13G21 RMK AO2 PNO $
14840KMKG MKG20060217084512402/17/06 08:45:31  5-MIN KMKG 171345Z 32013G23KT 7SM -SN SCT009 BKN014 BKN021 M04/ A3038 210 M -2100 320/13G23 RMK AO2 PNO $
14840KMKG MKG20060217085013902/17/06 08:50:31  5-MIN KMKG 171350Z 32013G23KT 7SM SCT009 BKN014 BKN021 M04/ A3038 200 M -2100 320/13G23 RMK AO2 SNE49 SLP298 T1044 PNO $
14840KMKG MKG20060217085513902/17/06 08:55:31  5-MIN KMKG 171355Z 32013G23KT 7SM SCT009 BKN014 BKN021 M04/ A3038 200 M -2100 320/13G23 RMK AO2 SNE49 SLP298 T1044 PNO $
14840KMKG MKG20060217090012002/17/06 09:00:31  5-MIN KMKG 171400Z 32013G23KT 7SM SCT009 BKN014 BKN021 M04/ A3038 210 M -2100 320/13G23 RMK AO2 PNO $
14840KMKG MKG20060217090512002/17/06 09:05:31  5-MIN KMKG 171405Z 32013G23KT 7SM SCT009 BKN014 BKN021 M04/ A3039 200 M -2100 320/13G23 RMK AO2 PNO $
14840KMKG MKG20060217091012002/17/06 09:10:31  5-MIN KMKG 171410Z 32013G23KT 7SM FEW009 BKN014 BKN021 M04/ A3039 200 M -2100 320/13G23 RMK AO2 PNO $
14840KMKG MKG20060217091512002/17/06 09:15:31  5-MIN KMKG 171415Z 32013G23KT 7SM FEW009 BKN014 BKN021 M04/ A3039 200 M -2100 320/13G23 RMK AO2 PNO $
14840KMKG MKG20060217092012002/17/06 09:20:31  5-MIN KMKG 171420Z 32013G23KT 7SM FEW009 BKN014 BKN021 M04/ A3039 200 M -2100 320/13G23 RMK AO2 PNO $
14840KMKG MKG20060217092512002/17/06 09:25:31  5-MIN KMKG 171425Z 32013G23KT 7SM FEW009 BKN014 BKN021 M04/ A3039 200 M -2100 320/13G23 RMK AO2 PNO $
14840KMKG MKG20060217093012002/17/06 09:30:31  5-MIN KMKG 171430Z 33014G25KT 8SM FEW009 BKN017 BKN024 M04/ A3040 190 M -2100 330/14G25 RMK AO2 PNO $
14840KMKG MKG20060217093512002/17/06 09:35:31  5-MIN KMKG 171435Z 33014G25KT 8SM FEW009 BKN017 BKN024 M04/ A3040 190 M -2100 330/14G25 RMK AO2 PNO $
14840KMKG MKG20060217094012002/17/06 09:40:31  5-MIN KMKG 171440Z 33014G25KT 8SM FEW009 BKN017 BKN024 M04/ A3040 190 M -2100 330/14G25 RMK AO2 PNO $
14840KMKG MKG20060217094512002/17/06 09:45:31  5-MIN KMKG 171445Z 31013G22KT 8SM FEW009 SCT017 BKN024 M04/ A3040 190 M -2100 310/13G22 RMK AO2 PNO $
14840KMKG MKG20060217095014502/17/06 09:50:31  5-MIN KMKG 171450Z 31013G22KT 8SM FEW009 SCT017 BKN024 M04/ A3040 190 M -2100 310/13G22 RMK AO2 SLP306 6//// T1044 51063 PNO $
14840KMKG MKG20060217095514502/17/06 09:55:31  5-MIN KMKG 171455Z 31013G22KT 8SM FEW009 SCT017 BKN024 M04/ A3040 190 M -2100 310/13G22 RMK AO2 SLP304 6//// T1044 51036 PNO $
14840KMKG MKG20060217100012002/17/06 10:00:31  5-MIN KMKG 171500Z 31013G22KT 8SM FEW009 SCT017 BKN024 M04/ A3040 190 M -2100 310/13G22 RMK AO2 PNO $
14840KMKG MKG20060217100512002/17/06 10:05:31  5-MIN KMKG 171505Z 31013G22KT 8SM FEW009 SCT017 BKN024 M04/ A3040 190 M -2100 310/13G22 RMK AO2 PNO $
14840KMKG MKG20060217101012002/17/06 10:10:31  5-MIN KMKG 171510Z 31013G22KT 8SM FEW009 SCT017 BKN024 M04/ A3040 190 M -2100 310/13G22 RMK AO2 PNO $
14840KMKG MKG20060217101512002/17/06 10:15:31  5-MIN KMKG 171515Z 31013G22KT 8SM FEW009 SCT017 BKN024 M04/ A3040 190 M -2100 310/13G22 RMK AO2 PNO $
14840KMKG MKG20060217102012002/17/06 10:20:31  5-MIN KMKG 171520Z 31013G22KT 8SM FEW009 SCT017 BKN024 M04/ A3041 180 M -2100 310/13G22 RMK AO2 PNO $
14840KMKG MKG20060217102512002/17/06 10:25:31  5-MIN KMKG 171525Z 31013G22KT 8SM FEW009 SCT017 BKN024 M04/ A3041 180 M -2100 310/13G22 RMK AO2 PNO $
14840KMKG MKG20060217103012002/17/06 10:30:31  5-MIN KMKG 171530Z 31013G22KT 8SM FEW009 SCT017 BKN024 M04/ A3041 180 M -2100 310/13G22 RMK AO2 PNO $
14840KMKG MKG20060217103512002/17/06 10:35:31  5-MIN KMKG 171535Z 31013G22KT 8SM FEW009 SCT017 BKN024 M04/ A3041 180 M -2100 310/13G22 RMK AO2 PNO $
14840KMKG MKG20060217104012002/17/06 10:40:31  5-MIN KMKG 171540Z 31014G24KT 8SM FEW012 SCT017 BKN024 M04/ A3041 180 M -2000 310/14G24 RMK AO2 PNO $
14840KMKG MKG20060217104512002/17/06 10:45:31  5-MIN KMKG 171545Z 31014G24KT 8SM FEW012 SCT017 BKN024 M04/ A3041 180 M -2000 310/14G24 RMK AO2 PNO $
14840KMKG MKG20060217105013302/17/06 10:50:31  5-MIN KMKG 171550Z 31014G24KT 8SM FEW012 SCT017 BKN024 M04/ A3041 180 M -2000 310/14G24 RMK AO2 SLP308 T1039 PNO $
14840KMKG MKG20060217105513302/17/06 10:55:31  5-MIN KMKG 171555Z 31015G25KT 8SM FEW012 SCT017 BKN024 M04/ A3041 180 M -2000 310/15G25 RMK AO2 SLP307 T1039 PNO $
14840KMKG MKG20060217110012002/17/06 11:00:31  5-MIN KMKG 171600Z 31015G25KT 8SM FEW012 SCT017 BKN024 M04/ A3041 180 M -2000 310/15G25 RMK AO2 PNO $
14840KMKG MKG20060217110512002/17/06 11:05:31  5-MIN KMKG 171605Z 31015G25KT 8SM FEW012 SCT017 BKN024 M04/ A3042 180 M -2000 310/15G25 RMK AO2 PNO $
14840KMKG MKG20060217111012002/17/06 11:10:31  5-MIN KMKG 171610Z 31015G25KT 8SM FEW012 SCT017 BKN024 M04/ A3041 180 M -2000 310/15G25 RMK AO2 PNO $
14840KMKG MKG20060217111512002/17/06 11:15:31  5-MIN KMKG 171615Z 31015G25KT 8SM FEW012 SCT017 BKN024 M04/ A3041 180 M -2000 310/15G25 RMK AO2 PNO $
14840KMKG MKG20060217112012002/17/06 11:20:31  5-MIN KMKG 171620Z 31015G25KT 8SM FEW012 SCT017 BKN024 M04/ A3041 180 M -2000 310/15G25 RMK AO2 PNO $
14840KMKG MKG20060217112512002/17/06 11:25:31  5-MIN KMKG 171625Z 31015G25KT 8SM FEW012 SCT017 BKN024 M04/ A3042 170 M -2000 310/15G25 RMK AO2 PNO $
14840KMKG MKG20060217113012002/17/06 11:30:31  5-MIN KMKG 171630Z 31015G25KT 8SM FEW012 SCT017 BKN024 M04/ A3042 170 M -2000 310/15G25 RMK AO2 PNO $
14840KMKG MKG20060217113512002/17/06 11:35:31  5-MIN KMKG 171635Z 31015G25KT 8SM FEW012 SCT017 BKN024 M04/ A3042 170 M -2000 310/15G25 RMK AO2 PNO $
14840KMKG MKG20060217114012002/17/06 11:40:31  5-MIN KMKG 171640Z 31015G25KT 8SM FEW012 SCT017 BKN024 M04/ A3043 160 M -2000 310/15G25 RMK AO2 PNO $
14840KMKG MKG20060217114511302/17/06 11:45:31  5-MIN KMKG 171645Z 30015G25KT 9SM SCT017 BKN024 M04/ A3043 160 M -2000 300/15G25 RMK AO2 PNO $
14840KMKG MKG20060217115012602/17/06 11:50:31  5-MIN KMKG 171650Z 30015G25KT 9SM SCT017 BKN024 M04/ A3044 150 M -2100 300/15G25 RMK AO2 SLP318 T1039 PNO $
14840KMKG MKG20060217115512602/17/06 11:55:31  5-MIN KMKG 171655Z 30015G25KT 9SM SCT017 BKN024 M04/ A3044 160 M -2000 300/15G25 RMK AO2 SLP317 T1039 PNO $
14840KMKG MKG20060217120011302/17/06 12:00:31  5-MIN KMKG 171700Z 30015G25KT 9SM SCT017 BKN024 M04/ A3043 160 M -2000 300/15G25 RMK AO2 PNO $
14840KMKG MKG20060217120511302/17/06 12:05:31  5-MIN KMKG 171705Z 30015G25KT 9SM SCT017 BKN024 M04/ A3043 160 M -2000 300/15G25 RMK AO2 PNO $
14840KMKG MKG20060217121011302/17/06 12:10:31  5-MIN KMKG 171710Z 30015G25KT 9SM SCT017 BKN024 M04/ A3043 160 M -2000 300/15G25 RMK AO2 PNO $
14840KMKG MKG20060217121511302/17/06 12:15:31  5-MIN KMKG 171715Z 30015G25KT 9SM SCT017 BKN024 M04/ A3044 160 M -2000 300/15G25 RMK AO2 PNO $
14840KMKG MKG20060217122011302/17/06 12:20:31  5-MIN KMKG 171720Z 30015G25KT 9SM SCT017 BKN024 M04/ A3043 160 M -2000 300/15G25 RMK AO2 PNO $
14840KMKG MKG20060217122511302/17/06 12:25:31  5-MIN KMKG 171725Z 30015G25KT 9SM SCT017 BKN024 M04/ A3043 160 M -2000 300/15G25 RMK AO2 PNO $
14840KMKG MKG20060217123011302/17/06 12:30:31  5-MIN KMKG 171730Z 30015G25KT 9SM SCT017 BKN024 M04/ A3043 160 M -2000 300/15G25 RMK AO2 PNO $
14840KMKG MKG20060217123511302/17/06 12:35:31  5-MIN KMKG 171735Z 30015G25KT 9SM SCT017 BKN024 M04/ A3044 160 M -2000 300/15G25 RMK AO2 PNO $
14840KMKG MKG20060217124010602/17/06 12:40:31  5-MIN KMKG 171740Z 30013G18KT 9SM BKN024 M03/ A3044 160 M -2000 300/13G18 RMK AO2 PNO $
14840KMKG MKG20060217124510602/17/06 12:45:31  5-MIN KMKG 171745Z 30013G18KT 9SM BKN024 M03/ A3043 160 M -2000 300/13G18 RMK AO2 PNO $
14840KMKG MKG20060217125014302/17/06 12:50:31  5-MIN KMKG 171750Z 30013G18KT 9SM BKN024 M03/ A3043 160 M -2000 300/13G18 RMK AO2 SLP316 6//// T1033 11033 21056 51036 PNO $
14840KMKG MKG20060217125515902/17/06 12:55:31  5-MIN KMKG 171755Z 30013G18KT 9SM -SN BKN024 M03/ A3043 160 M -2000 300/13G18 RMK AO2 SNB55 SLP314 6//// 4/001 T1033 11033 21056 50010 PNO $
14840KMKG MKG20060217130011002/17/06 13:00:31  5-MIN KMKG 171800Z 30013G18KT 9SM -SN BKN024 M03/ A3043 160 M -2000 300/13G18 RMK AO2 PNO $
14840KMKG MKG20060217130511002/17/06 13:05:31  5-MIN KMKG 171805Z 30013G18KT 9SM -SN BKN024 M03/ A3043 160 M -2000 300/13G18 RMK AO2 PNO $
14840KMKG MKG20060217131011002/17/06 13:10:31  5-MIN KMKG 171810Z 30013G18KT 9SM -SN BKN024 M03/ A3043 160 M -2000 300/13G18 RMK AO2 PNO $
14840KMKG MKG20060217131511002/17/06 13:15:31  5-MIN KMKG 171815Z 30013G18KT 9SM -SN BKN024 M03/ A3044 160 M -2000 300/13G18 RMK AO2 PNO $
14840KMKG MKG20060217132011002/17/06 13:20:31  5-MIN KMKG 171820Z 30013G18KT 9SM -SN BKN024 M03/ A3044 150 M -2000 300/13G18 RMK AO2 PNO $
14840KMKG MKG20060217132511202/17/06 13:25:31  5-MIN KMKG 171825Z 30013G18KT 9SM BKN024 M03/ A3045 150 M -2000 300/13G18 RMK AO2 SNE21 PNO $
14840KMKG MKG20060217133011202/17/06 13:30:31  5-MIN KMKG 171830Z 30013G18KT 9SM BKN024 M03/ A3045 150 M -2000 300/13G18 RMK AO2 SNE21 PNO $
14840KMKG MKG20060217134510202/17/06 13:45:31  5-MIN KMKG 171845Z 30014G19KT 9SM BKN024 M04/ A3045 140 M -2100 300/14G19 RMK AO2 $
14840KMKG MKG20060217135012402/17/06 13:50:31  5-MIN KMKG 171850Z 30014G19KT 10SM BKN029 M06/M11 A3045 140 68 -2400 300/14G19 RMK AO2 SLP322 T10611111 $
14840KMKG MKG20060217135512402/17/06 13:55:31  5-MIN KMKG 171855Z 30014G19KT 10SM BKN029 M06/M11 A3045 140 68 -2400 300/14G19 RMK AO2 SLP323 T10611111 $
14840KMKG MKG20060217140010702/17/06 14:00:31  5-MIN KMKG 171900Z 30014G19KT 10SM BKN029 M07/M12 A3045 140 68 -2400 300/14G19 RMK AO2 $
14840KMKG MKG20060217140510702/17/06 14:05:31  5-MIN KMKG 171905Z 30014G19KT 10SM BKN029 M07/M12 A3045 140 68 -2400 300/14G19 RMK AO2 $
14840KMKG MKG20060217141010702/17/06 14:10:31  5-MIN KMKG 171910Z 30014G19KT 10SM BKN029 M07/M12 A3046 140 68 -2400 300/14G19 RMK AO2 $
14840KMKG MKG20060217141513002/17/06 14:15:31  5-MIN KMKG 171915Z 30014G19KT 10SM -SN BKN027 OVC033 M07/M11 A3046 140 71 -2400 300/14G19 RMK AO2 SNB15 P0000 $
14840KMKG MKG20060217142012902/17/06 14:20:31  5-MIN KMKG 171920Z 30014G19KT 9SM -SN BKN029 OVC033 M07/M11 A3046 140 71 -2400 300/14G19 RMK AO2 SNB15 P0000 $
14840KMKG MKG20060217142512902/17/06 14:25:31  5-MIN KMKG 171925Z 30014G19KT 9SM -SN BKN029 OVC033 M06/M11 A3046 140 68 -2400 300/14G19 RMK AO2 SNB15 P0000 $
14840KMKG MKG20060217143012902/17/06 14:30:31  5-MIN KMKG 171930Z 29014G19KT 9SM -SN BKN029 OVC033 M07/M12 A3046 140 68 -2400 290/14G19 RMK AO2 SNB15 P0000 $
14840KMKG MKG20060217143512202/17/06 14:35:31  5-MIN KMKG 171935Z 29012G18KT 9SM -SN OVC029 M07/M11 A3046 140 71 -2400 290/12G18 RMK AO2 SNB15 P0000 $
14840KMKG MKG20060217144012202/17/06 14:40:31  5-MIN KMKG 171940Z 29012G18KT 9SM -SN OVC029 M06/M11 A3046 140 68 -2400 290/12G18 RMK AO2 SNB15 P0000 $
14840KMKG MKG20060217144512202/17/06 14:45:31  5-MIN KMKG 171945Z 29012G18KT 9SM -SN OVC029 M07/M11 A3046 140 71 -2400 290/12G18 RMK AO2 SNB15 P0000 $
14840KMKG MKG20060217145013602/17/06 14:50:31  5-MIN KMKG 171950Z 29012G18KT 9SM OVC029 M07/M12 A3046 140 68 -2400 290/12G18 RMK AO2 SNB15E49 SLP325 P0000 T10671117
14840KMKG MKG20060217145513702/17/06 14:55:31  5-MIN KMKG 171955Z 29012G18KT 10SM OVC029 M07/M12 A3046 140 68 -2400 290/12G18 RMK AO2 SNB15E49 SLP325 P0000 T10671117
14840KMKG MKG20060217150010502/17/06 15:00:31  5-MIN KMKG 172000Z 29012G18KT 10SM OVC029 M07/M12 A3046 130 68 -2400 290/12G18 RMK AO2
14840KMKG MKG20060217150510502/17/06 15:05:31  5-MIN KMKG 172005Z 29012G18KT 10SM BKN029 M07/M12 A3046 130 68 -2400 290/12G18 RMK AO2
14840KMKG MKG20060217151010502/17/06 15:10:31  5-MIN KMKG 172010Z 29012G18KT 10SM OVC029 M07/M12 A3046 140 68 -2400 290/12G18 RMK AO2
14840KMKG MKG20060217151510502/17/06 15:15:31  5-MIN KMKG 172015Z 29012G18KT 10SM OVC029 M07/M12 A3046 140 68 -2400 290/12G18 RMK AO2
14840KMKG MKG20060217152010502/17/06 15:20:31  5-MIN KMKG 172020Z 29012G18KT 10SM OVC028 M07/M12 A3046 130 68 -2400 290/12G18 RMK AO2
14840KMKG MKG20060217152510502/17/06 15:25:31  5-MIN KMKG 172025Z 29012G18KT 10SM OVC028 M07/M12 A3046 130 68 -2400 290/12G18 RMK AO2
14840KMKG MKG20060217153010502/17/06 15:30:31  5-MIN KMKG 172030Z 29012G18KT 10SM BKN028 M07/M12 A3046 130 68 -2400 290/12G18 RMK AO2
14840KMKG MKG20060217153510502/17/06 15:35:31  5-MIN KMKG 172035Z 29012G18KT 10SM BKN028 M07/M12 A3045 140 68 -2500 290/12G18 RMK AO2
14840KMKG MKG20060217154011202/17/06 15:40:31  5-MIN KMKG 172040Z 29012G18KT 10SM FEW020 OVC028 M07/M12 A3046 140 65 -2400 290/12G18 RMK AO2
14840KMKG MKG20060217154510502/17/06 15:45:31  5-MIN KMKG 172045Z 29012G18KT 10SM OVC028 M07/M12 A3046 140 65 -2400 290/12G18 RMK AO2
14840KMKG MKG20060217155012802/17/06 15:50:31  5-MIN KMKG 172050Z 29012G18KT 10SM OVC028 M07/M11 A3046 140 71 -2400 290/12G18 RMK AO2 SLP325 60000 T10671111
14840KMKG MKG20060217155513502/17/06 15:55:31  5-MIN KMKG 172055Z 29012G18KT 10SM FEW022 OVC028 M07/M12 A3045 140 68 -2400 290/12G18 RMK AO2 SLP324 60000 T10671117
14840KMKG MKG20060217160009902/17/06 16:00:31  5-MIN KMKG 172100Z 00000KT 10SM OVC028 M07/M12 A3046 140 65 -2400 000/00 RMK AO2
14840KMKG MKG20060217160510502/17/06 16:05:31  5-MIN KMKG 172105Z 29012G18KT 10SM OVC028 M07/M12 A3046 140 68 -2400 290/12G18 RMK AO2
14840KMKG MKG20060217161010502/17/06 16:10:31  5-MIN KMKG 172110Z 29012G18KT 10SM OVC028 M07/M12 A3046 140 65 -2400 290/12G18 RMK AO2
14840KMKG MKG20060217161510502/17/06 16:15:31  5-MIN KMKG 172115Z 29012G18KT 10SM OVC028 M07/M12 A3046 140 68 -2500 290/12G18 RMK AO2
14840KMKG MKG20060217162010502/17/06 16:20:31  5-MIN KMKG 172120Z 29012G18KT 10SM OVC028 M07/M12 A3046 140 65 -2400 290/12G18 RMK AO2
14840KMKG MKG20060217162510702/17/06 16:25:31  5-MIN KMKG 172125Z 29012G18KT 10SM OVC030 M07/M12 A3046 140 65 -2400 290/12G18 RMK AO2 $
14840KMKG MKG20060217163010702/17/06 16:30:31  5-MIN KMKG 172130Z 29010G18KT 10SM OVC030 M07/M12 A3046 140 68 -2500 290/10G18 RMK AO2 $
14840KMKG MKG20060217163510702/17/06 16:35:31  5-MIN KMKG 172135Z 29010G18KT 10SM OVC030 M07/M13 A3046 140 65 -2500 290/10G18 RMK AO2 $
14840KMKG MKG20060217164010702/17/06 16:40:31  5-MIN KMKG 172140Z 29010G18KT 10SM OVC030 M07/M12 A3046 130 68 -2500 290/10G18 RMK AO2 $
14840KMKG MKG20060217164510702/17/06 16:45:31  5-MIN KMKG 172145Z 29010G18KT 10SM OVC030 M07/M12 A3046 140 68 -2500 290/10G18 RMK AO2 $
14840KMKG MKG20060217165012402/17/06 16:50:31  5-MIN KMKG 172150Z 29010G18KT 10SM OVC030 M07/M13 A3046 130 65 -2500 290/10G18 RMK AO2 SLP326 T10721128 $
14840KMKG MKG20060217165512202/17/06 16:55:31  5-MIN KMKG 172155Z 29013G19KT 10SM OVC028 M07/M12 A3046 140 71 -2500 290/13G19 RMK AO2 SLP326 T10721117
14840KMKG MKG20060217170010502/17/06 17:00:31  5-MIN KMKG 172200Z 27017G20KT 10SM OVC028 M07/M12 A3046 130 71 -2500 280/17G20 RMK AO2
14840KMKG MKG20060217170510502/17/06 17:05:31  5-MIN KMKG 172205Z 27012G22KT 10SM OVC028 M07/M12 A3046 130 68 -2500 280/12G22 RMK AO2
14840KMKG MKG20060217171011202/17/06 17:10:31  5-MIN KMKG 172210Z 29014G22KT 10SM BKN026 OVC032 M07/M12 A3046 140 68 -2500 290/14G22 RMK AO2
14840KMKG MKG20060217171510502/17/06 17:15:31  5-MIN KMKG 172215Z 30016G23KT 10SM OVC028 M07/M13 A3046 140 65 -2500 300/16G23 RMK AO2
14840KMKG MKG20060217172011202/17/06 17:20:31  5-MIN KMKG 172220Z 28014G23KT 10SM BKN028 OVC033 M08/M13 A3046 140 64 -2600 290/14G23 RMK AO2
14840KMKG MKG20060217172509902/17/06 17:25:31  5-MIN KMKG 172225Z 30013KT 10SM OVC028 M08/M13 A3046 140 67 -2600 300/13 RMK AO2
14840KMKG MKG20060217173009902/17/06 17:30:31  5-MIN KMKG 172230Z 28011KT 10SM OVC028 M08/M12 A3046 140 71 -2600 290/11 RMK AO2
14840KMKG MKG20060217173510602/17/06 17:35:31  5-MIN KMKG 172235Z 29012KT 10SM BKN025 OVC031 M08/M12 A3045 140 71 -2600 290/12 RMK AO2
14840KMKG MKG20060217174011202/17/06 17:40:31  5-MIN KMKG 172240Z 28018G22KT 10SM BKN025 OVC031 M08/M12 A3046 140 71 -2600 280/18G22 RMK AO2
14840KMKG MKG20060217174511202/17/06 17:45:31  5-MIN KMKG 172245Z 28016G22KT 10SM BKN027 OVC032 M08/M12 A3046 140 71 -2600 280/16G22 RMK AO2
14840KMKG MKG20060217175012902/17/06 17:50:31  5-MIN KMKG 172250Z 29016G24KT 10SM BKN027 OVC032 M08/M13 A3046 140 67 -2600 290/16G24 RMK AO2 SLP325 T10781128
14840KMKG MKG20060217175512902/17/06 17:55:31  5-MIN KMKG 172255Z 29014G24KT 10SM BKN027 OVC032 M08/M13 A3046 140 64 -2600 300/14G24 RMK AO2 SLP324 T10781133
14840KMKG MKG20060217180012102/17/06 18:00:31  5-MIN KMKG 172300Z 29013KT 10SM SCT027 OVC032 M08/M13 A3045 140 64 -2600 290/13 RMK AO2 CIG 027 RWY 14
14840KMKG MKG20060217180510502/17/06 18:05:31  5-MIN KMKG 172305Z 29014G22KT 10SM OVC030 M08/M13 A3046 140 67 -2600 290/14G22 RMK AO2
14840KMKG MKG20060217181011202/17/06 18:10:31  5-MIN KMKG 172310Z 29015G22KT 10SM BKN030 OVC040 M08/M13 A3045 140 64 -2600 300/15G22 RMK AO2
14840KMKG MKG20060217181511202/17/06 18:15:31  5-MIN KMKG 172315Z 29014G22KT 10SM BKN030 OVC036 M08/M14 A3046 140 62 -2600 290/14G22 RMK AO2
14840KMKG MKG20060217182011202/17/06 18:20:31  5-MIN KMKG 172320Z 29017G22KT 10SM BKN032 OVC110 M08/M14 A3045 140 64 -2600 290/17G22 RMK AO2
14840KMKG MKG20060217182510502/17/06 18:25:31  5-MIN KMKG 172325Z 29018G22KT 10SM OVC032 M08/M14 A3045 140 64 -2600 300/18G22 RMK AO2
14840KMKG MKG20060217183010502/17/06 18:30:31  5-MIN KMKG 172330Z 30015G22KT 10SM OVC032 M08/M14 A3046 140 64 -2600 310/15G22 RMK AO2
14840KMKG MKG20060217183509902/17/06 18:35:31  5-MIN KMKG 172335Z 30013KT 10SM OVC034 M08/M13 A3045 140 67 -2600 300/13 RMK AO2
14840KMKG MKG20060217184010502/17/06 18:40:31  5-MIN KMKG 172340Z 29014G19KT 10SM OVC032 M08/M13 A3045 140 67 -2600 300/14G19 RMK AO2
14840KMKG MKG20060217184511202/17/06 18:45:31  5-MIN KMKG 172345Z 29015G21KT 10SM BKN030 OVC036 M08/M13 A3045 140 64 -2600 290/15G21 RMK AO2
14840KMKG MKG20060217185014702/17/06 18:50:31  5-MIN KMKG 172350Z 28019G24KT 10SM BKN030 OVC036 M08/M13 A3045 140 64 -2600 280/19G24 RMK AO2 SLP323 4/001 T10781133 11039 21083
14840KMKG MKG20060217185515902/17/06 18:55:31  5-MIN KMKG 172355Z 28018G25KT 10SM BKN032 OVC110 M08/M15 A3045 140 59 -2600 280/18G25 RMK AO2 SLP324 60000 4/001 T10831150 11039 21083 58000
14840KMKG MKG20060217190011202/17/06 19:00:31  5-MIN KMKG 180000Z 27018G25KT 10SM BKN032 OVC110 M08/M15 A3045 140 59 -2600 280/18G25 RMK AO2
14840KMKG MKG20060217190513702/17/06 19:05:31  5-MIN KMKG 180005Z 29022G31KT 10SM FEW029 BKN034 OVC110 M08/M14 A3045 140 62 -2600 290/22G31 RMK AO2 PK WND 28031/0005
14840KMKG MKG20060217191013702/17/06 19:10:31  5-MIN KMKG 180010Z 29016G31KT 10SM FEW029 BKN034 OVC110 M09/M16 A3046 140 59 -2700 290/16G31 RMK AO2 PK WND 28031/0005
14840KMKG MKG20060217191514502/17/06 19:15:31  5-MIN KMKG 180015Z 29016G25KT 10SM SCT034 OVC110 M09/M16 A3046 140 56 -2700 290/16G25 RMK AO2 PK WND 28031/0005 CIG 039 RWY 14
14840KMKG MKG20060217192014502/17/06 19:20:31  5-MIN KMKG 180020Z 30018G25KT 10SM SCT036 OVC110 M09/M16 A3046 140 56 -2700 300/18G25 RMK AO2 PK WND 28031/0005 CIG 039 RWY 14
14840KMKG MKG20060217192513002/17/06 19:25:31  5-MIN KMKG 180025Z 30012G25KT 10SM BKN036 OVC110 M09/M16 A3046 140 56 -2700 300/12G25 RMK AO2 PK WND 28031/0005
14840KMKG MKG20060217193013002/17/06 19:30:31  5-MIN KMKG 180030Z 30019G26KT 10SM BKN036 OVC110 M09/M16 A3046 140 59 -2700 300/19G26 RMK AO2 PK WND 28031/0005
14840KMKG MKG20060217193513002/17/06 19:35:31  5-MIN KMKG 180035Z 30018G26KT 10SM BKN038 OVC110 M09/M16 A3046 140 59 -2700 300/18G26 RMK AO2 PK WND 28031/0005
14840KMKG MKG20060217194013002/17/06 19:40:31  5-MIN KMKG 180040Z 28018G22KT 10SM BKN036 OVC110 M09/M16 A3045 140 59 -2700 290/18G22 RMK AO2 PK WND 28031/0005
14840KMKG MKG20060217194513002/17/06 19:45:31  5-MIN KMKG 180045Z 30017G23KT 10SM BKN036 OVC110 M09/M16 A3045 140 59 -2700 310/17G23 RMK AO2 PK WND 28031/0005
14840KMKG MKG20060217195014002/17/06 19:50:31  5-MIN KMKG 180050Z 30016G23KT 10SM OVC036 M09/M16 A3045 140 61 -2800 310/16G23 RMK AO2 PK WND 28031/0005 SLP325 T10941156
14840KMKG MKG20060217195515602/17/06 19:55:31  5-MIN KMKG 180055Z 29023G28KT 270V330 10SM OVC036 M09/M16 A3045 140 59 -2800 300/23G28 270V330 RMK AO2 PK WND 28031/0005 SLP324 T10941161
14840KMKG MKG20060217200013002/17/06 20:00:31  5-MIN KMKG 180100Z 30017G28KT 10SM BKN036 OVC080 M09/M17 A3045 140 56 -2800 310/17G28 RMK AO2 PK WND 29028/0056
14840KMKG MKG20060217200513702/17/06 20:05:31  5-MIN KMKG 180105Z 29021G29KT 10SM BKN036 BKN075 OVC090 M09/M17 A3045 140 56 -2800 300/21G29 RMK AO2 PK WND 29029/0105
14840KMKG MKG20060217201013702/17/06 20:10:31  5-MIN KMKG 180110Z 29019G29KT 10SM BKN036 BKN080 OVC095 M09/M17 A3045 140 56 -2800 300/19G29 RMK AO2 PK WND 29029/0105
14840KMKG MKG20060217201513702/17/06 20:15:31  5-MIN KMKG 180115Z 29017G27KT 10SM BKN036 BKN080 OVC090 M09/M17 A3046 140 56 -2800 300/17G27 RMK AO2 PK WND 29029/0105
14840KMKG MKG20060217202013702/17/06 20:20:31  5-MIN KMKG 180120Z 29013G24KT 10SM SCT038 BKN080 OVC110 M10/M17 A3046 130 58 -2900 300/13G24 RMK AO2 PK WND 29029/0105
14840KMKG MKG20060217202513702/17/06 20:25:31  5-MIN KMKG 180125Z 28019G24KT 10SM SCT038 BKN080 OVC110 M10/M17 A3046 140 58 -2900 290/19G24 RMK AO2 PK WND 29029/0105
14840KMKG MKG20060217203015202/17/06 20:30:31  5-MIN KMKG 180130Z 29016G23KT 10SM FEW036 SCT080 BKN095 M10/M17 A3046 130 58 -2900 290/16G23 RMK AO2 PK WND 29029/0105 CIG 080 RWY 14
14840KMKG MKG20060217203515202/17/06 20:35:31  5-MIN KMKG 180135Z 29020G23KT 10SM FEW038 SCT080 BKN110 M10/M17 A3046 130 58 -2900 290/20G23 RMK AO2 PK WND 29029/0105 CIG 085 RWY 14
14840KMKG MKG20060217204013002/17/06 20:40:31  5-MIN KMKG 180140Z 28019G29KT 10SM FEW038 BKN110 M10/M17 A3046 140 56 -2900 290/19G29 RMK AO2 PK WND 29029/0137
14840KMKG MKG20060217204513002/17/06 20:45:31  5-MIN KMKG 180145Z 29019G29KT 10SM FEW038 BKN120 M10/M17 A3047 130 56 -2900 290/19G29 RMK AO2 PK WND 29029/0137
14840KMKG MKG20060217205016202/17/06 20:50:31  5-MIN KMKG 180150Z 29015G25KT 10SM SCT039 BKN120 M10/M17 A3046 140 58 -2900 300/15G25 RMK AO2 PK WND 29029/0137 CIG 039 RWY 14 SLP326 T11001167
14840KMKG MKG20060217205516202/17/06 20:55:31  5-MIN KMKG 180155Z 29020G25KT 8SM -SN BKN040 BKN110 M10/M16 A3046 130 61 -2900 290/20G25 RMK AO2 PK WND 29029/0137 SNB55 SLP328 P0000 T11001161
14840KMKG MKG20060217210012802/17/06 21:00:31  5-MIN KMKG 180200Z 30017G25KT 5SM -SN FEW016 BKN036 OVC120 M10/M15 A3046 130 67 -2900 300/17G25 RMK AO2 P0000
14840KMKG MKG20060217210514502/17/06 21:05:31  5-MIN KMKG 180205Z 30017G24KT 3SM -SN FEW014 BKN036 OVC120 M11/M14 A3046 130 73 -2900 310/17G24 RMK AO2 VIS 2 1/2 RWY 14 P0000
14840KMKG MKG20060217211013202/17/06 21:10:31  5-MIN KMKG 180210Z 31018G25KT 2 1/2SM -SN SCT012 BKN028 OVC043 M11/M15 A3047 130 70 -3000 310/18G25 RMK AO2 P0000
14840KMKG MKG20060217211514302/17/06 21:15:31  5-MIN KMKG 180215Z 31017G25KT 3SM -SN SCT012 BKN028 OVC040 M11/M15 A3046 130 70 -2900 310/17G25 RMK AO2 CIG 015 RWY 14 P0000
14840KMKG MKG20060217212014302/17/06 21:20:31  5-MIN KMKG 180220Z 31016G23KT 6SM -SN SCT016 BKN028 OVC034 M11/M16 A3047 130 67 -3000 310/16G23 RMK AO2 CIG 019 RWY 14 P0000
14840KMKG MKG20060217212514802/17/06 21:25:31  5-MIN KMKG 180225Z 30021G26KT 9SM SCT018 BKN028 OVC042 M11/M17 A3046 130 64 -3000 300/21G26 RMK AO2 PK WND 29026/0225 SNE25 P0000
14840KMKG MKG20060217213014602/17/06 21:30:31  5-MIN KMKG 180230Z 31017G26KT 9SM -SN FEW018 BKN036 OVC045 M11/M17 A3047 130 61 -3000 310/17G26 RMK AO2 PK WND 29026/0225 P0000
14840KMKG MKG20060217213514602/17/06 21:35:31  5-MIN KMKG 180235Z 30015G23KT 9SM -SN FEW016 BKN038 OVC045 M11/M18 A3047 130 58 -3000 300/15G23 RMK AO2 PK WND 29026/0225 P0000
14840KMKG MKG20060217214014602/17/06 21:40:31  5-MIN KMKG 180240Z 30016G23KT 9SM -SN FEW026 BKN036 OVC045 M12/M17 A3047 120 64 -3100 310/16G23 RMK AO2 PK WND 29026/0225 P0000
14840KMKG MKG20060217214514102/17/06 21:45:31  5-MIN KMKG 180245Z 31019G25KT 9SM BKN036 OVC045 M12/M18 A3047 120 61 -3100 310/19G25 RMK AO2 PK WND 29026/0225 SNE42 P0000
14840KMKG MKG20060217215017102/17/06 21:50:31  5-MIN KMKG 180250Z 30017G25KT 10SM BKN035 OVC045 M12/M18 A3048 120 61 -3100 310/17G25 RMK AO2 PK WND 29026/0225 SNE42 SLP332 P0000 60000 T11171178 58000
14840KMKG MKG20060217215517102/17/06 21:55:31  5-MIN KMKG 180255Z 29021G27KT 10SM BKN034 OVC043 M12/M18 A3047 120 61 -3100 300/21G27 RMK AO2 PK WND 30027/0255 SNE42 SLP331 P0000 60000 T11171178 53006
14840KMKG MKG20060217220013002/17/06 22:00:31  5-MIN KMKG 180300Z 31019G28KT 10SM FEW030 OVC037 M12/M18 A3047 120 61 -3200 310/19G28 RMK AO2 PK WND 29028/0300
14840KMKG MKG20060217220513002/17/06 22:05:31  5-MIN KMKG 180305Z 30019G28KT 10SM BKN034 OVC042 M12/M18 A3048 120 61 -3200 300/19G28 RMK AO2 PK WND 29028/0300
14840KMKG MKG20060217221013602/17/06 22:10:31  5-MIN KMKG 180310Z 30017G27KT 9SM FEW026 BKN034 OVC120 M12/M18 A3048 120 61 -3200 300/17G27 RMK AO2 PK WND 29028/0300
14840KMKG MKG20060217221515202/17/06 22:15:31  5-MIN KMKG 180315Z 31018G27KT 9SM -SN FEW024 BKN034 OVC042 M12/M17 A3049 110 67 -3200 320/18G27 RMK AO2 PK WND 29028/0300 SNB12 P0000
14840KMKG MKG20060217222015202/17/06 22:20:31  5-MIN KMKG 180320Z 31018G26KT 9SM -SN SCT027 BKN034 OVC042 M12/M17 A3049 110 67 -3200 320/18G26 RMK AO2 PK WND 29028/0300 SNB12 P0000
14840KMKG MKG20060217222515202/17/06 22:25:31  5-MIN KMKG 180325Z 31018G26KT 9SM -SN SCT027 BKN034 OVC042 M13/M18 A3049 110 63 -3300 310/18G26 RMK AO2 PK WND 29028/0300 SNB12 P0000
14840KMKG MKG20060217223015202/17/06 22:30:31  5-MIN KMKG 180330Z 31015G26KT 7SM -SN FEW022 BKN030 OVC044 M13/M18 A3049 110 66 -3300 310/15G26 RMK AO2 PK WND 29028/0300 SNB12 P0000
14840KMKG MKG20060217223518002/17/06 22:35:31  5-MIN KMKG 180335Z 31019G26KT 3SM -SN FEW015 BKN027 OVC041 M13/M17 A3049 110 70 -3300 310/19G26 RMK AO2 PK WND 29028/0300 VIS 2 RWY 14 SNB12 CIG 017 RWY 14 P0000
14840KMKG MKG20060217224018802/17/06 22:40:31  5-MIN KMKG 180340Z 31017G27KT 2 1/2SM -SN SCT013 BKN031 OVC040 M13/M17 A3050 100 70 -3300 310/17G27 RMK AO2 PK WND 29028/0300 VIS 1 1/2 RWY 14 SNB12 CIG 021 RWY 14 P0000
14840KMKG MKG20060217224517102/17/06 22:45:31  5-MIN KMKG 180345Z 31016G27KT 1 3/4SM -SN SCT011 BKN027 OVC044 M13/M17 A3050 100 73 -3400 320/16G27 RMK AO2 PK WND 29028/0300 SNB12 CIG 013 RWY 14 P0000
14840KMKG MKG20060217225017102/17/06 22:50:31  5-MIN KMKG 180350Z 32017G27KT 1 3/4SM -SN SCT009 BKN020 OVC033 M13/M17 A3050 100 73 -3400 320/17G27 RMK AO2 PK WND 29028/0300 SNB12 CIG 013 RWY 14 P0000
14840KMKG MKG20060217225516902/17/06 22:55:31  5-MIN KMKG 180355Z 31016G27KT 3SM -SN BKN013 BKN026 OVC043 M13/M18 A3050 100 66 -3400 320/16G27 RMK AO2 PK WND 29028/0300 SNB12 SLP340 P0000 T11331183
14840KMKG MKG20060217230012802/17/06 23:00:31  5-MIN KMKG 180400Z 31017G26KT 5SM -SN BKN015 BKN026 OVC043 M13/M19 A3050 100 63 -3400 310/17G26 RMK AO2 P0000
14840KMKG MKG20060217230514602/17/06 23:05:31  5-MIN KMKG 180405Z 31016G27KT 5SM -SN BKN015 BKN026 OVC034 M13/M19 A3049 100 63 -3400 310/16G27 RMK AO2 PK WND 29027/0402 P0000
14840KMKG MKG20060217231015902/17/06 23:10:31  5-MIN KMKG 180410Z 31017G27KT 3SM -SN BKN013 BKN026 OVC034 M14/M18 A3050 100 69 -3400 320/17G27 RMK AO2 PK WND 29027/0402 VIS 2 RWY 14 P0000
14840KMKG MKG20060217231515502/17/06 23:15:31  5-MIN KMKG 180415Z 32015G26KT 1 1/2SM -SN BLSN BKN013 BKN019 OVC037 M14/M17 A3050 100 76 -3400 320/15G26 RMK AO2 PK WND 29027/0402 P0000
14840KMKG MKG20060217232015102/17/06 23:20:31  5-MIN KMKG 180420Z 31016G26KT 1SM -SN BLSN BKN011 BKN016 OVC030 M14/M17 A3050 100 76 -3400 320/16G26 RMK AO2 PK WND 29027/0402 P0000
14840KMKG MKG20060217232515102/17/06 23:25:31  5-MIN KMKG 180425Z 31017G26KT 1SM -SN BLSN BKN009 BKN016 OVC030 M14/M17 A3049 100 76 -3400 310/17G26 RMK AO2 PK WND 29027/0402 P0000
14840KMKG MKG20060217233015502/17/06 23:30:31  5-MIN KMKG 180430Z 32018G25KT 1 1/4SM -SN BLSN BKN009 BKN016 OVC037 M14/M18 A3049 110 73 -3400 320/18G25 RMK AO2 PK WND 29027/0402 P0000
14840KMKG MKG20060217233515502/17/06 23:35:31  5-MIN KMKG 180435Z 32017G24KT 1 3/4SM -SN BLSN BKN009 BKN016 OVC037 M14/M18 A3049 110 73 -3400 320/17G24 RMK AO2 PK WND 29027/0402 P0000
14840KMKG MKG20060217234015502/17/06 23:40:31  5-MIN KMKG 180440Z 32013G23KT 1 3/4SM -SN BLSN BKN009 BKN016 OVC027 M14/M18 A3049 100 76 -3500 320/13G23 RMK AO2 PK WND 29027/0402 P0000
14840KMKG MKG20060217234515102/17/06 23:45:31  5-MIN KMKG 180445Z 32020G24KT 2SM -SN BLSN BKN009 BKN024 OVC029 M14/M19 A3049 100 69 -3500 320/20G24 RMK AO2 PK WND 29027/0402 P0000
14840KMKG MKG20060217235016102/17/06 23:50:31  5-MIN KMKG 180450Z 30018G26KT 3SM -SN BLSN BKN016 BKN024 OVC029 M14/M19 A3050 100 66 -3500 300/18G26 RMK AO2 PK WND 29027/0402 P0000 410331144
14840KMKG MKG20060217235517802/17/06 23:55:31  5-MIN KMKG 180455Z 30016G26KT 4SM -SN BLSN BKN018 BKN028 OVC039 M14/M19 A3050 100 66 -3500 310/16G26 RMK AO2 PK WND 29027/0402 SLP343 P0000 T11441194 410331144
14840KMKG MKG20060218000018302/18/06 00:00:32  5-MIN KMKG 180500Z 30016G26KT 3SM -SN BLSN SCT016 BKN020 OVC030 M14/M19 A3050 100 69 -3500 310/16G26 RMK AO2 PK WND 31026/0458 VIS 1 3/4 RWY 14 CIG 015 RWY 14 P0000
14840KMKG MKG20060218000514402/18/06 00:05:31  5-MIN KMKG 180505Z 30014G26KT 2SM -SN BLSN BKN025 OVC038 M14/M18 A3050 100 73 -3500 310/14G26 RMK AO2 PK WND 31026/0458 P0000
14840KMKG MKG20060218001014402/18/06 00:10:31  5-MIN KMKG 180510Z 30017G24KT 3SM -SN BLSN FEW025 OVC032 M14/M20 A3049 100 63 -3500 310/17G24 RMK AO2 PK WND 31026/0458 P0000
14840KMKG MKG20060218001514402/18/06 00:15:31  5-MIN KMKG 180515Z 30015G24KT 4SM -SN BLSN BKN026 OVC036 M14/M19 A3050 100 69 -3500 310/15G24 RMK AO2 PK WND 31026/0458 P0000
14840KMKG MKG20060218002016402/18/06 00:20:31  5-MIN KMKG 180520Z 31011G22KT 3SM -SN BLSN BKN024 BKN033 OVC044 M14/M18 A3050 100 73 -3500 320/11G22 RMK AO2 PK WND 31026/0458 VIS 2 RWY 14 P0000
14840KMKG MKG20060218002517802/18/06 00:25:31  5-MIN KMKG 180525Z 32018G22KT 2SM -SN BLSN SCT017 BKN025 OVC044 M14/M18 A3050 90 73 -3500 330/18G22 RMK AO2 PK WND 31026/0458 VIS 1 RWY 14 CIG 019 RWY 14 P0000
14840KMKG MKG20060218003016402/18/06 00:30:31  5-MIN KMKG 180530Z 32017G24KT 2SM -SN BLSN SCT017 BKN023 OVC045 M14/M18 A3050 100 73 -3500 330/17G24 RMK AO2 PK WND 31026/0458 VIS 1 RWY 14 P0000
14840KMKG MKG20060218003515802/18/06 00:35:31  5-MIN KMKG 180535Z 32016G24KT 2SM -SN BLSN BKN014 BKN023 OVC045 M14/M18 A3050 90 73 -3500 320/16G24 RMK AO2 PK WND 31026/0458 VIS 1V5 P0000
14840KMKG MKG20060218004015102/18/06 00:40:31  5-MIN KMKG 180540Z 31015G24KT 2SM -SN BLSN BKN010 BKN025 OVC043 M14/M19 A3050 100 69 -3500 320/15G24 RMK AO2 PK WND 31026/0458 P0000
14840KMKG MKG20060218004518202/18/06 00:45:31  5-MIN KMKG 180545Z 32016G24KT 2SM -SN BLSN SCT010 BKN025 OVC045 M14/M19 A3050 90 69 -3500 320/16G24 RMK AO2 PK WND 31026/0458 VIS 1 1/4 RWY 14 CIG 016 RWY 14 P0000
14840KMKG MKG20060218005016702/18/06 00:50:31  5-MIN KMKG 180550Z 31015G22KT 1 3/4SM -SN BLSN BKN010 BKN026 OVC045 M14/M18 A3051 90 73 -3500 320/15G22 RMK AO2 PK WND 31026/0458 VIS 1 RWY 14 P0000
14840KMKG MKG20060218005520802/18/06 00:55:31  5-MIN KMKG 180555Z 31016G21KT 1 3/4SM -SN BLSN BKN010 BKN024 OVC036 M14/M18 A3050 90 73 -3500 310/16G21 RMK AO2 PK WND 31026/0458 VIS 1 RWY 14 SLP343 P0000 60000 T11441183 11083 21144 50002
14840KMKG MKG20060218010015002/18/06 01:00:31  5-MIN KMKG 180600Z 31015G24KT 2SM -SN BLSN BKN014 BKN026 OVC034 M15/M19 A3050 100 72 -3600 320/15G24 RMK AO2 VIS 1 1/4 RWY 14 P0000
14840KMKG MKG20060218010515002/18/06 01:05:31  5-MIN KMKG 180605Z 31015G24KT 2SM -SN BLSN BKN014 BKN026 OVC036 M15/M19 A3050 100 69 -3600 310/15G24 RMK AO2 VIS 1 1/4 RWY 14 P0000
14840KMKG MKG20060218011015102/18/06 01:10:31  5-MIN KMKG 180610Z 32017G22KT 1 1/2SM -SN BLSN SCT012 BKN025 OVC038 M15/M19 A3050 90 72 -3600 320/17G22 RMK AO2 CIG 014 RWY 14 P0000
14840KMKG MKG20060218011515102/18/06 01:15:31  5-MIN KMKG 180615Z 32016G22KT 1 1/4SM -SN BLSN SCT012 BKN025 OVC036 M15/M18 A3051 90 76 -3600 320/16G22 RMK AO2 CIG 012 RWY 14 P0000
14840KMKG MKG20060218012014702/18/06 01:20:31  5-MIN KMKG 180620Z 32017G28KT 3/4SM -SN BKN009 BKN025 OVC036 M15/M18 A3051 90 76 -3600 320/17G28 RMK AO2 PK WND 30028/0617 P0000
14840KMKG MKG20060218012515202/18/06 01:25:31  5-MIN KMKG 180625Z 31016G28KT 3/4SM -SN BLSN FEW002 BKN009 OVC025 M14/M18 A3051 90 76 -3500 320/16G28 RMK AO2 PK WND 30028/0617 P0000
14840KMKG MKG20060218013015002/18/06 01:30:31  5-MIN KMKG 180630Z 32017G25KT 1SM -SN BLSN FEW002 BKN007 OVC025 M15/M19 A3051 90 72 -3600 320/17G25 RMK AO2 PK WND 30028/0617 P0000
14840KMKG MKG20060218013515402/18/06 01:35:31  5-MIN KMKG 180635Z 33021G25KT 1 1/4SM -SN BLSN FEW002 BKN007 OVC023 M15/M18 A3052 80 76 -3600 330/21G25 RMK AO2 PK WND 30028/0617 P0000
14840KMKG MKG20060218014015002/18/06 01:40:31  5-MIN KMKG 180640Z 32014G24KT 1SM -SN BLSN FEW002 BKN007 OVC023 M15/M18 A3052 80 76 -3600 320/14G24 RMK AO2 PK WND 30028/0617 P0000
14840KMKG MKG20060218014515202/18/06 01:45:31  5-MIN KMKG 180645Z 32017G22KT 3/4SM -SN BLSN FEW002 BKN005 OVC020 M15/M18 A3052 80 80 -3600 330/17G22 RMK AO2 PK WND 30028/0617 P0000
14840KMKG MKG20060218015016902/18/06 01:50:31  5-MIN KMKG 180650Z 32020G26KT 3/4SM -SN BLSN FEW002 BKN005 OVC020 M16/M18 A3052 80 79 -3700 330/20G26 RMK AO2 PK WND 30028/0617 SLP349 P0000 T11561183
14840KMKG MKG20060218015516802/18/06 01:55:31  5-MIN KMKG 180655Z 32016G26KT 1/2SM SN BLSN BKN005 BKN020 OVC026 M16/M18 A3052 80 83 -3700 330/16G26 RMK AO2 PK WND 30028/0617 SLP349 P0000 T11561178
14840KMKG MKG20060218020012702/18/06 02:00:31  5-MIN KMKG 180700Z 31013G25KT 3/4SM -SN BLSN BKN005 OVC020 M16/M18 A3053 70 79 -3700 320/13G25 RMK AO2 P0000
14840KMKG MKG20060218020512702/18/06 02:05:31  5-MIN KMKG 180705Z 31018G23KT 3/4SM -SN BLSN BKN005 OVC020 M16/M18 A3052 80 79 -3700 310/18G23 RMK AO2 P0000
14840KMKG MKG20060218021012502/18/06 02:10:31  5-MIN KMKG 180710Z 34016G23KT 1SM -SN BLSN BKN005 OVC020 M16/M19 A3054 70 76 -3700 340/16G23 RMK AO2 P0000
14840KMKG MKG20060218021513602/18/06 02:15:31  5-MIN KMKG 180715Z 32018G24KT 1 1/4SM -SN BLSN BKN007 BKN018 OVC023 M16/M19 A3053 70 76 -3700 330/18G24 RMK AO2 P0000
14840KMKG MKG20060218022012502/18/06 02:20:31  5-MIN KMKG 180720Z 33013G24KT 1SM -SN BLSN BKN007 OVC023 M16/M18 A3053 70 79 -3700 340/13G24 RMK AO2 P0000
14840KMKG MKG20060218022512702/18/06 02:25:31  5-MIN KMKG 180725Z 33018G23KT 3/4SM -SN BLSN BKN005 OVC021 M16/M19 A3054 60 76 -3700 340/18G23 RMK AO2 P0000
14840KMKG MKG20060218023011302/18/06 02:30:31  5-MIN KMKG 180730Z 33019KT 3/4SM -SN BLSN VV006 M16/M19 A3054 60 79 -3800 330/19 RMK AO2 P0000
14840KMKG MKG20060218023511302/18/06 02:35:31  5-MIN KMKG 180735Z 34018KT 3/4SM -SN BLSN VV006 M16/M19 A3054 60 76 -3700 340/18 RMK AO2 P0000
14840KMKG MKG20060218024012702/18/06 02:40:31  5-MIN KMKG 180740Z 32017G25KT 3/4SM -SN BLSN BKN006 OVC020 M16/M19 A3054 70 76 -3800 320/17G25 RMK AO2 P0000
14840KMKG MKG20060218024511902/18/06 02:45:31  5-MIN KMKG 180745Z 33019G25KT 3/4SM -SN BLSN VV005 M16/M19 A3054 60 79 -3800 340/19G25 RMK AO2 P0000
14840KMKG MKG20060218025013602/18/06 02:50:31  5-MIN KMKG 180750Z 33019G24KT 3/4SM -SN BLSN VV005 M16/M19 A3054 70 79 -3800 340/19G24 RMK AO2 SLP355 P0000 T11611189
14840KMKG MKG20060218025514402/18/06 02:55:31  5-MIN KMKG 180755Z 33019G25KT 3/4SM -SN BLSN BKN006 OVC026 M16/M19 A3054 60 76 -3800 340/19G25 RMK AO2 SLP355 P0000 T11611194
14840KMKG MKG20060218030012902/18/06 03:00:31  5-MIN KMKG 180800Z 33017G25KT 1 1/4SM -SN BLSN BKN006 OVC026 M16/M20 A3054 60 72 -3800 330/17G25 RMK AO2 P0000
14840KMKG MKG20060218030512902/18/06 03:05:31  5-MIN KMKG 180805Z 33015G25KT 1 3/4SM -SN BLSN BKN010 OVC024 M16/M20 A3054 60 72 -3800 340/15G25 RMK AO2 P0000
14840KMKG MKG20060218031012602/18/06 03:10:31  5-MIN KMKG 180810Z 33014KT 5SM -SN BLSN BKN010 BKN036 OVC047 M16/M21 A3054 60 69 -3800 330/14 RMK AO2 P0000
14840KMKG MKG20060218031514702/18/06 03:15:31  5-MIN KMKG 180815Z 34015KT 2 1/2SM -SN BLSN BKN010 BKN024 OVC047 M16/M21 A3054 60 66 -3700 340/15 RMK AO2 VIS 1 3/4 RWY 14 P0000
14840KMKG MKG20060218032013602/18/06 03:20:31  5-MIN KMKG 180820Z 32013G19KT 1 1/4SM -SN BLSN BKN010 BKN024 OVC047 M16/M19 A3054 70 76 -3800 330/13G19 RMK AO2 P0000
14840KMKG MKG20060218032513602/18/06 03:25:31  5-MIN KMKG 180825Z 33014G19KT 1 3/4SM -SN BLSN BKN010 BKN033 OVC049 M16/M20 A3054 70 72 -3800 330/14G19 RMK AO2 P0000
14840KMKG MKG20060218033014902/18/06 03:30:31  5-MIN KMKG 180830Z 34018G24KT 2SM -SN BLSN BKN012 BKN020 OVC042 M16/M20 A3054 60 72 -3800 340/18G24 RMK AO2 VIS 1 1/4 RWY 14 P0000
14840KMKG MKG20060218033513202/18/06 03:35:31  5-MIN KMKG 180835Z 34016G24KT 1SM -SN BLSN BKN010 BKN020 OVC046 M16/M19 A3054 60 76 -3800 340/16G24 RMK AO2 P0000
14840KMKG MKG20060218034011902/18/06 03:40:31  5-MIN KMKG 180840Z 34017KT 1SM -SN BLSN BKN008 OVC020 M16/M19 A3054 60 76 -3800 340/17 RMK AO2 P0000
14840KMKG MKG20060218034511902/18/06 03:45:31  5-MIN KMKG 180845Z 34014KT 1SM -SN BLSN BKN008 OVC029 M16/M19 A3054 70 76 -3800 340/14 RMK AO2 P0000
14840KMKG MKG20060218035016502/18/06 03:50:31  5-MIN KMKG 180850Z 33017G22KT 1 1/4SM -SN BLSN BKN008 BKN029 OVC044 M16/M19 A3053 70 76 -3800 330/17G22 RMK AO2 SLP354 P0000 60000 T11611194 50002
14840KMKG MKG20060218035515102/18/06 03:55:31  5-MIN KMKG 180855Z 34013G22KT 2 1/2SM -SN BLSN BKN010 M16/M21 A3053 70 69 -3800 340/13G22 RMK AO2 SLP354 P0000 60000 T11611206 50010
14840KMKG MKG20060218040011202/18/06 04:00:31  5-MIN KMKG 180900Z 34012KT 6SM -SN BLSN OVC013 M16/M21 A3054 60 69 -3800 340/12 RMK AO2 P0000
14840KMKG MKG20060218040513902/18/06 04:05:31  5-MIN KMKG 180905Z 34016KT 3SM -SN BLSN BKN015 BKN024 OVC039 M16/M20 A3054 70 72 -3800 350/16 RMK AO2 VIS 2 RWY 14 P0000
14840KMKG MKG20060218041011902/18/06 04:10:31  5-MIN KMKG 180910Z 33015KT 1SM -SN BLSN BKN013 OVC024 M16/M19 A3053 70 76 -3800 340/15 RMK AO2 P0000
14840KMKG MKG20060218041511902/18/06 04:15:31  5-MIN KMKG 180915Z 33013KT 1SM -SN BLSN BKN011 OVC022 M16/M19 A3053 70 76 -3800 340/13 RMK AO2 P0000
14840KMKG MKG20060218042012302/18/06 04:20:31  5-MIN KMKG 180920Z 33014KT 1 3/4SM -SN BLSN BKN011 OVC022 M16/M19 A3053 70 76 -3800 330/14 RMK AO2 P0000
14840KMKG MKG20060218042512302/18/06 04:25:31  5-MIN KMKG 180925Z 34013KT 1 3/4SM -SN BLSN BKN011 OVC022 M16/M19 A3053 70 76 -3800 350/13 RMK AO2 P0000
14840KMKG MKG20060218043014202/18/06 04:30:31  5-MIN KMKG 180930Z 35013KT 2 1/2SM -SN BLSN BKN011 BKN022 OVC027 M16/M19 A3054 70 76 -3800 350/13 RMK AO2 VIS 1 3/4V3 P0000
14840KMKG MKG20060218043512602/18/06 04:35:31  5-MIN KMKG 180935Z 35012KT 2SM -SN BLSN BKN009 BKN018 OVC028 M16/M19 A3054 60 76 -3800 350/12 RMK AO2 P0000
14840KMKG MKG20060218044013602/18/06 04:40:31  5-MIN KMKG 180940Z 33016G22KT 1 1/4SM -SN BLSN BKN009 BKN021 OVC028 M16/M19 A3053 70 76 -3800 330/16G22 RMK AO2 P0000
14840KMKG MKG20060218044514302/18/06 04:45:31  5-MIN KMKG 180945Z 34015G22KT 1 1/4SM -SN BLSN BKN009 OVC028 M16/M19 A3054 60 76 -3800 340/15G22 RMK AO2 VIS 3/4V2 1/2 P0000
14840KMKG MKG20060218045013902/18/06 04:50:31  5-MIN KMKG 180950Z 34016G21KT 1 1/4SM -SN BLSN OVC009 M16/M19 A3054 60 76 -3800 350/16G21 RMK AO2 SLP356 P0000 T11611194
14840KMKG MKG20060218045513902/18/06 04:55:31  5-MIN KMKG 180955Z 34012G21KT 1 1/2SM -SN BLSN OVC011 M16/M19 A3054 70 76 -3800 340/12G21 RMK AO2 SLP355 P0000 T11611194
14840KMKG MKG20060218050011202/18/06 05:00:31  5-MIN KMKG 181000Z 34012KT 3SM -SN BLSN OVC019 M16/M20 A3054 70 72 -3800 350/12 RMK AO2 P0000
14840KMKG MKG20060218050510702/18/06 05:05:31  5-MIN KMKG 181005Z 34012KT 8SM -SN OVC021 M16/M21 A3054 60 69 -3800 340/12 RMK AO2 P0000
14840KMKG MKG20060218051011402/18/06 05:10:31  5-MIN KMKG 181010Z 34015KT 7SM -SN BKN021 OVC038 M16/M21 A3054 60 66 -3800 340/15 RMK AO2 P0000
14840KMKG MKG20060218051511402/18/06 05:15:31  5-MIN KMKG 181015Z 35013KT 3SM -SN BKN019 OVC038 M16/M21 A3054 60 69 -3800 350/13 RMK AO2 P0000
14840KMKG MKG20060218052011802/18/06 05:20:31  5-MIN KMKG 181020Z 35011KT 2 1/2SM -SN BKN017 OVC040 M16/M20 A3055 60 72 -3800 360/11 RMK AO2 P0000
14840KMKG MKG20060218052513502/18/06 05:25:31  5-MIN KMKG 181025Z 35010KT 2 1/2SM -SN BKN019 OVC032 M16/M20 A3054 60 72 -3800 360/10 RMK AO2 VIS 1 1/2 RWY 14 P0000
14840KMKG MKG20060218053013702/18/06 05:30:31  5-MIN KMKG 181030Z 34011G17KT 1 3/4SM -SN BKN012 OVC032 M16/M20 A3054 60 72 -3800 340/11G17 RMK AO2 VIS 1 RWY 14 P0000
14840KMKG MKG20060218053511702/18/06 05:35:31  5-MIN KMKG 181035Z 33014G18KT 1 1/4SM -SN OVC010 M16/M19 A3054 60 76 -3800 330/14G18 RMK AO2 P0000
14840KMKG MKG20060218054011802/18/06 05:40:31  5-MIN KMKG 181040Z 34014KT 1 1/2SM -SN BKN010 OVC040 M16/M19 A3054 60 76 -3800 340/14 RMK AO2 P0000
14840KMKG MKG20060218054513402/18/06 05:45:31  5-MIN KMKG 181045Z 33013KT 3SM -SN BKN010 BKN020 OVC040 M16/M20 A3054 60 72 -3800 330/13 RMK AO2 VIS 2 RWY 14 P0000
14840KMKG MKG20060218055014202/18/06 05:50:31  5-MIN KMKG 181050Z 33015KT 1 1/2SM -SN BKN008 BKN020 OVC040 M16/M20 A3054 60 72 -3800 330/15 RMK AO2 SLP356 P0000 T11611200
14840KMKG MKG20060218055514802/18/06 05:55:31  5-MIN KMKG 181055Z 34013G19KT 1 1/2SM -SN BKN008 BKN018 OVC045 M16/M20 A3054 60 72 -3800 340/13G19 RMK AO2 SLP358 P0000 T11611200
14840KMKG MKG20060218060012702/18/06 06:00:31  5-MIN KMKG 181100Z 34015G21KT 2SM -SN BKN008 BKN018 OVC040 M16/M20 A3055 60 72 -3800 340/15G21 RMK AO2 P0000
14840KMKG MKG20060218060513102/18/06 06:05:31  5-MIN KMKG 181105Z 34014G21KT 1 3/4SM -SN BKN008 BKN018 OVC041 M16/M20 A3054 60 72 -3800 340/14G21 RMK AO2 P0000
14840KMKG MKG20060218061013102/18/06 06:10:31  5-MIN KMKG 181110Z 33015G20KT 1 1/2SM -SN BKN008 BKN018 OVC024 M16/M20 A3054 60 72 -3800 340/15G20 RMK AO2 P0000
14840KMKG MKG20060218061512102/18/06 06:15:31  5-MIN KMKG 181115Z 34010KT 2SM -SN BKN008 BKN018 OVC037 M16/M20 A3055 60 72 -3800 350/10 RMK AO2 P0000
14840KMKG MKG20060218062012102/18/06 06:20:31  5-MIN KMKG 181120Z 34011KT 4SM -SN BKN008 BKN018 OVC046 M16/M20 A3055 50 72 -3800 350/11 RMK AO2 P0000
14840KMKG MKG20060218062514902/18/06 06:25:31  5-MIN KMKG 181125Z 34012KT 5SM -SN SCT010 BKN021 OVC046 M16/M20 A3055 50 72 -3800 350/12 RMK AO2 VIS 2 RWY 14 CIG 015 RWY 14 P0000
14840KMKG MKG20060218063015302/18/06 06:30:31  5-MIN KMKG 181130Z 34014KT 3SM -SN SCT010 BKN023 OVC046 M16/M20 A3055 50 72 -3800 350/14 RMK AO2 VIS 1 1/2 RWY 14 CIG 017 RWY 14 P0000
14840KMKG MKG20060218063513802/18/06 06:35:31  5-MIN KMKG 181135Z 35013KT 1 3/4SM -SN SCT010 BKN018 OVC046 M16/M20 A3055 50 72 -3800 350/13 RMK AO2 VIS 1 RWY 14 P0000
14840KMKG MKG20060218064012502/18/06 06:40:31  5-MIN KMKG 181140Z 34011KT 1 1/4SM -SN BKN008 BKN021 OVC046 M16/M19 A3055 50 76 -3800 350/11 RMK AO2 P0000
14840KMKG MKG20060218064512502/18/06 06:45:31  5-MIN KMKG 181145Z 35010KT 1 1/4SM -SN BKN006 BKN021 OVC046 M16/M19 A3055 50 76 -3800 350/10 RMK AO2 P0000
14840KMKG MKG20060218065017202/18/06 06:50:31  5-MIN KMKG 181150Z 36011KT 1 1/2SM -SN BKN006 BKN021 OVC032 M16/M19 A3055 50 76 -3800 360/11 RMK AO2 SLP360 P0000 60000 7//// T11611194 11144 21161 50010
14840KMKG MKG20060218065517702/18/06 06:55:31  5-MIN KMKG 181155Z 36013G18KT 1 1/4SM -SN BKN006 OVC021 M17/M19 A3056 50 79 -3900 360/13G18 RMK AO2 SLP362 P0000 60000 7//// 4/001 T11671194 11144 21167 53007
14840KMKG MKG20060218070012402/18/06 07:00:31  5-MIN KMKG 181200Z 35012G18KT 1 1/4SM -SN BKN006 OVC021 M17/M20 A3056 50 76 -3900 350/12G18 RMK AO2 P0000
14840KMKG MKG20060218070511802/18/06 07:05:31  5-MIN KMKG 181205Z 01008KT 1 1/4SM -SN BKN004 OVC021 M17/M19 A3056 50 79 -3900 010/08 RMK AO2 P0000
14840KMKG MKG20060218071011402/18/06 07:10:31  5-MIN KMKG 181210Z 35010KT 1SM -SN BKN004 OVC021 M17/M19 A3056 50 79 -3900 350/10 RMK AO2 P0000
14840KMKG MKG20060218071511402/18/06 07:15:31  5-MIN KMKG 181215Z 36010KT 1SM -SN BKN004 OVC021 M17/M19 A3056 50 79 -3900 360/10 RMK AO2 P0000
14840KMKG MKG20060218072010602/18/06 07:20:31  5-MIN KMKG 181220Z 36009KT 1SM -SN VV004 M17/M19 A3056 40 79 -3900 010/09 RMK AO2 P0000
14840KMKG MKG20060218072510602/18/06 07:25:31  5-MIN KMKG 181225Z 36010KT 1SM -SN VV004 M17/M19 A3056 40 79 -3900 360/10 RMK AO2 P0000
14840KMKG MKG20060218073011702/18/06 07:30:31  5-MIN KMKG 181230Z 35011G17KT 1 1/4SM -SN BKN004 M17/M19 A3056 40 79 -3900 360/11G17 RMK AO2 P0000
14840KMKG MKG20060218073512402/18/06 07:35:31  5-MIN KMKG 181235Z 35010G17KT 1 1/2SM -SN BKN006 OVC023 M17/M19 A3056 40 79 -3900 360/10G17 RMK AO2 P0000
14840KMKG MKG20060218074011802/18/06 07:40:31  5-MIN KMKG 181240Z 36010KT 1 1/2SM -SN BKN006 OVC023 M17/M19 A3057 40 79 -3900 010/10 RMK AO2 P0000
14840KMKG MKG20060218074511802/18/06 07:45:31  5-MIN KMKG 181245Z 36011KT 1 1/4SM -SN BKN006 OVC023 M17/M19 A3057 40 79 -3900 010/11 RMK AO2 P0000
14840KMKG MKG20060218075013502/18/06 07:50:31  5-MIN KMKG 181250Z 36009KT 1 1/4SM -SN BKN006 OVC026 M17/M19 A3057 30 79 -3900 360/09 RMK AO2 SLP368 P0000 T11671194
14840KMKG MKG20060218075513502/18/06 07:55:31  5-MIN KMKG 181255Z 36009KT 1 3/4SM -SN BKN006 OVC023 M17/M19 A3057 30 79 -3900 360/09 RMK AO2 SLP368 P0000 T11671194
14840KMKG MKG20060218080012702/18/06 08:00:31  5-MIN KMKG 181300Z 01008G16KT 1 1/2SM -SN BR BKN006 OVC023 M17/M19 A3057 30 83 -3900 020/08G16 RMK AO2 P0000
14840KMKG MKG20060218080513002/18/06 08:05:31  5-MIN KMKG 181305Z 36008G16KT 1SM -SN BR BKN006 BKN013 OVC023 M17/M19 A3057 30 83 -3900 010/08G16 RMK AO2 P0000
14840KMKG MKG20060218081012102/18/06 08:10:31  5-MIN KMKG 181310Z 36007KT 1 1/4SM -SN BR BKN006 OVC023 M17/M19 A3057 30 83 -3900 010/07 RMK AO2 P0000
14840KMKG MKG20060218081512102/18/06 08:15:31  5-MIN KMKG 181315Z 36008KT 1 1/4SM -SN BR BKN006 OVC023 M17/M19 A3058 30 83 -3900 010/08 RMK AO2 P0000
14840KMKG MKG20060218082012002/18/06 08:20:31  5-MIN KMKG 181320Z 36009KT 1 3/4SM -SN BKN008 OVC023 M17/M19 A3058 30 79 -3900 360/09 RMK AO2 P0000 $
14840KMKG MKG20060218082511302/18/06 08:25:31  5-MIN KMKG 181325Z 36009KT 1 3/4SM -SN BKN008 M17/M19 A3058 30 79 -3900 360/09 RMK AO2 P0000 $
14840KMKG MKG20060218083012002/18/06 08:30:31  5-MIN KMKG 181330Z 36006KT 1 3/4SM -SN BKN006 OVC014 M16/M19 A3058 20 79 -3800 010/06 RMK AO2 P0000 $
14840KMKG MKG20060218083512002/18/06 08:35:31  5-MIN KMKG 181335Z 01009KT 1 3/4SM -SN BKN006 OVC021 M16/M19 A3059 20 79 -3800 020/09 RMK AO2 P0000 $
14840KMKG MKG20060218084012002/18/06 08:40:31  5-MIN KMKG 181340Z 36010KT 1 3/4SM -SN BKN008 OVC021 M16/M19 A3059 20 76 -3800 360/10 RMK AO2 P0000 $
14840KMKG MKG20060218084512702/18/06 08:45:31  5-MIN KMKG 181345Z 36011KT 1 3/4SM -SN BKN008 BKN016 OVC021 M17/M19 A3059 20 79 -3900 010/11 RMK AO2 P0000 $
14840KMKG MKG20060218085014402/18/06 08:50:31  5-MIN KMKG 181350Z 36011KT 1 1/4SM -SN BKN008 BKN016 OVC021 M16/M19 A3059 20 76 -3800 360/11 RMK AO2 SLP373 P0000 T11611194 $
14840KMKG MKG20060218085514002/18/06 08:55:31  5-MIN KMKG 181355Z 36010KT 1SM -SN BKN008 BKN016 OVC021 M16/M19 A3059 10 76 -3800 010/10 RMK AO2 SLP375 P0000 T11611194 $
14840KMKG MKG20060218090011602/18/06 09:00:31  5-MIN KMKG 181400Z 36010KT 1SM -SN BKN008 OVC019 M16/M19 A3059 10 79 -3800 360/10 RMK AO2 P0000 $
14840KMKG MKG20060218090511602/18/06 09:05:31  5-MIN KMKG 181405Z 35009KT 1SM -SN BKN008 OVC019 M16/M19 A3059 10 76 -3800 360/09 RMK AO2 P0000 $
14840KMKG MKG20060218091011702/18/06 09:10:31  5-MIN KMKG 181410Z 36009KT 1/2SM SN BKN006 OVC019 M16/M19 A3059 10 79 -3800 360/09 RMK AO2 P0000 $
14840KMKG MKG20060218091511702/18/06 09:15:31  5-MIN KMKG 181415Z 36009KT 1/2SM SN BKN006 OVC017 M16/M19 A3060 10 79 -3900 360/09 RMK AO2 P0000 $
14840KMKG MKG20060218092012302/18/06 09:20:31  5-MIN KMKG 181420Z 35010KT 1SM -SN BKN008 BKN017 OVC024 M16/M19 A3060 10 76 -3900 360/10 RMK AO2 P0000 $
14840KMKG MKG20060218092512902/18/06 09:25:31  5-MIN KMKG 181425Z 35011KT 3SM -SN BKN014 OVC024 M16/M19 A3060 10 76 -3900 360/11 RMK AO2 VIS 2 RWY 14 P0000 $
14840KMKG MKG20060218093011602/18/06 09:30:31  5-MIN KMKG 181430Z 35010KT 5SM -SN BKN014 OVC024 M16/M20 A3060 10 69 -3800 360/10 RMK AO2 P0000 $
14840KMKG MKG20060218093511602/18/06 09:35:31  5-MIN KMKG 181435Z 35009KT 5SM -SN BKN016 OVC023 M16/M20 A3060 10 69 -3800 360/09 RMK AO2 P0000 $
14840KMKG MKG20060218094010902/18/06 09:40:31  5-MIN KMKG 181440Z 32012KT 5SM -SN OVC019 M16/M20 A3060 10 72 -3800 330/12 RMK AO2 P0000 $
14840KMKG MKG20060218094513302/18/06 09:45:31  5-MIN KMKG 181445Z 36013KT 2 1/2SM -SN BKN021 OVC029 M16/M19 A3060 10 72 -3800 360/13 RMK AO2 VIS 1 RWY 14 P0000 $
14840KMKG MKG20060218095014502/18/06 09:50:31  5-MIN KMKG 181450Z 36011KT 1SM -SN BKN016 OVC021 M16/M19 A3060 10 76 -3800 010/11 RMK AO2 SLP377 P0000 60000 T11561189 53007 $
14840KMKG MKG20060218095514702/18/06 09:55:31  5-MIN KMKG 181455Z 34010KT 3/4SM -SN BKN016 OVC026 M16/M19 A3060 10 72 -3800 340/10 RMK AO2 SLP376 P0000 60000 T11561194 51014 $
14840KMKG MKG20060218100012702/18/06 10:00:31  5-MIN KMKG 181500Z 35009KT 1 1/2SM -SN BKN014 BKN021 OVC026 M16/M19 A3060 10 72 -3800 360/09 RMK AO2 P0000 $
14840KMKG MKG20060218100511902/18/06 10:05:31  5-MIN KMKG 181505Z 36013KT 1 3/4SM -SN BKN012 OVC018 M16/M19 A3060 0 72 -3800 360/13 RMK AO2 P0000 $
14840KMKG MKG20060218101012702/18/06 10:10:31  5-MIN KMKG 181510Z 34008KT 1 3/4SM -SN BKN012 BKN018 OVC029 M16/M19 A3060 10 72 -3800 350/08 RMK AO2 P0000 $
14840KMKG MKG20060218101513702/18/06 10:15:31  5-MIN KMKG 181515Z 35009KT 2 1/2SM -SN BKN012 OVC024 M15/M19 A3060 10 72 -3700 350/09 RMK AO2 VIS 1 3/4 RWY 14 P0000 $
14840KMKG MKG20060218102011602/18/06 10:20:31  5-MIN KMKG 181520Z 36008KT 3SM -SN BKN014 OVC024 M15/M19 A3060 10 69 -3700 360/08 RMK AO2 P0000 $
14840KMKG MKG20060218102513702/18/06 10:25:31  5-MIN KMKG 181525Z 34010KT 2 1/2SM -SN BKN014 OVC024 M15/M19 A3060 10 69 -3700 340/10 RMK AO2 VIS 1 3/4 RWY 14 P0000 $
14840KMKG MKG20060218103011502/18/06 10:30:31  5-MIN KMKG 181530Z 34011KT 2SM -SN BKN014 OVC024 M15/M19 A3060 0 69 -3700 340/11 RMK AO2 P0000 $
14840KMKG MKG20060218103512202/18/06 10:35:31  5-MIN KMKG 181535Z 35013G16KT 3SM -SN BKN016 OVC022 M15/M19 A3060 10 69 -3700 360/13G16 RMK AO2 P0000 $
14840KMKG MKG20060218104011402/18/06 10:40:31  5-MIN KMKG 181540Z 34012G16KT 6SM -SN OVC021 M15/M20 A3060 0 66 -3700 340/12G16 RMK AO2 P0000 $
14840KMKG MKG20060218104511902/18/06 10:45:31  5-MIN KMKG 181545Z 34012KT 9SM UP OVC023 M15/M21 A3060 10 63 -3700 340/12 RMK AO2 UPB44SNE44 P0000 $
14840KMKG MKG20060218105013702/18/06 10:50:31  5-MIN KMKG 181550Z 36013KT 2 1/2SM -SN BKN019 OVC025 M15/M21 A3060 10 63 -3700 360/13 RMK AO2 VIS 1 3/4 RWY 14 P0000 $
14840KMKG MKG20060218105515602/18/06 10:55:31  5-MIN KMKG 181555Z 35012KT 1SM -SN BKN016 OVC023 M14/M19 A3060 0 69 -3600 360/12 RMK AO2 SFC VIS 1 1/4 VIS 1/2V5 SLP380 P0000 T11441189 $
14840KMKG MKG20060218110012902/18/06 11:00:31  5-MIN KMKG 181600Z 35011KT 1 1/2SM -SN BKN014 OVC021 M15/M19 A3061 0 69 -3700 360/11 RMK AO2 TWR VIS 2 P0000 $
14840KMKG MKG20060218110512502/18/06 11:05:31  5-MIN KMKG 181605Z 35014KT 2SM -SN BKN016 OVC025 M15/M20 A3061 0 66 -3700 350/14 RMK AO2 SFC VIS 3 P0000 $
14840KMKG MKG20060218111012502/18/06 11:10:31  5-MIN KMKG 181610Z 34012KT 2SM -SN BKN014 BKN027 M14/M21 A3060 0 57 -3600 350/12 RMK AO2 SFC VIS 6 P0000 $
14840KMKG MKG20060218111513302/18/06 11:15:31  5-MIN KMKG 181615Z 34010KT 2SM -SN BKN014 BKN027 BKN035 M14/M21 A3060 10 60 -3600 340/10 RMK AO2 SFC VIS 9 P0000 $
14840KMKG MKG20060218112013302/18/06 11:20:31  5-MIN KMKG 181620Z 34014KT 2SM -SN BKN016 BKN027 BKN035 M14/M21 A3060 10 60 -3600 350/14 RMK AO2 SFC VIS 7 P0000 $
14840KMKG MKG20060218112513302/18/06 11:25:31  5-MIN KMKG 181625Z 33011KT 2SM -SN BKN016 BKN027 OVC033 M14/M21 A3060 10 60 -3600 330/11 RMK AO2 SFC VIS 3 P0000 $
14840KMKG MKG20060218113013302/18/06 11:30:31  5-MIN KMKG 181630Z 32011KT 2SM -SN BKN018 BKN024 OVC031 M14/M20 A3060 10 63 -3600 330/11 RMK AO2 SFC VIS 3 P0000 $
14840KMKG MKG20060218113513702/18/06 11:35:31  5-MIN KMKG 181635Z 33010KT 2SM -SN BKN016 BKN021 BKN029 M14/M19 A3060 10 66 -3600 340/10 RMK AO2 SFC VIS 2 1/2 P0000 $
14840KMKG MKG20060218114013702/18/06 11:40:31  5-MIN KMKG 181640Z 35010KT 2SM -SN BKN016 BKN021 OVC028 M14/M19 A3060 10 63 -3600 350/10 RMK AO2 SFC VIS 2 1/2 P0000 $
14840KMKG MKG20060218114513002/18/06 11:45:31  5-MIN KMKG 181645Z 34014KT 1 3/4SM -SN BKN013 OVC028 M14/M19 A3060 10 69 -3600 340/14 RMK AO2 TWR VIS 2 P0000 $
14840KMKG MKG20060218115013502/18/06 11:50:31  5-MIN KMKG 181650Z 33010KT 3/4SM -SN FEW002 BKN011 OVC028 M14/M19 A3060 10 69 -3600 340/10 RMK AO2 TWR VIS 2 P0000 $
14840KMKG MKG20060218115515002/18/06 11:55:31  5-MIN KMKG 181655Z 35012KT 1/2SM SN FEW002 BKN009 OVC028 M15/M18 A3061 0 76 -3700 350/12 RMK AO2 TWR VIS 2 SLP382 P0000 T11501183 $
14840KMKG MKG20060218120013302/18/06 12:00:31  5-MIN KMKG 181700Z 34013KT 1/2SM SN BKN004 BKN012 OVC026 M14/M18 A3061 0 76 -3600 340/13 RMK AO2 TWR VIS 2 P0000 $
14840KMKG MKG20060218120513202/18/06 12:05:31  5-MIN KMKG 181705Z 33012KT 1SM -SN FEW002 BKN007 OVC026 M14/M18 A3061 0 73 -3600 340/12 RMK AO2 TWR VIS 2 P0000 $
14840KMKG MKG20060218121013602/18/06 12:10:31  5-MIN KMKG 181710Z 34015KT 1 3/4SM -SN FEW002 BKN009 OVC021 M14/M18 A3061 0 73 -3600 340/15 RMK AO2 TWR VIS 2 P0000 $
14840KMKG MKG20060218121513602/18/06 12:15:31  5-MIN KMKG 181715Z 33016KT 1 1/2SM -SN FEW002 BKN011 OVC018 M14/M19 A3061 0 69 -3600 340/16 RMK AO2 TWR VIS 2 P0000 $
14840KMKG MKG20060218122013602/18/06 12:20:31  5-MIN KMKG 181720Z 32009KT 1 3/4SM -SN BKN011 BKN019 OVC029 M14/M18 A3060 0 73 -3600 330/09 RMK AO2 TWR VIS 2 P0000 $
14840KMKG MKG20060218122512202/18/06 12:25:31  5-MIN KMKG 181725Z 32012KT 2SM -SN BKN011 BKN021 OVC033 M14/M18 A3060 0 73 -3600 320/12 RMK AO2 P0000 $
14840KMKG MKG20060218123012202/18/06 12:30:31  5-MIN KMKG 181730Z 33012KT 2SM -SN SCT013 BKN020 OVC026 M14/M19 A3060 0 66 -3600 330/12 RMK AO2 P0000 $
14840KMKG MKG20060218123512202/18/06 12:35:31  5-MIN KMKG 181735Z 33011KT 2SM -SN SCT013 BKN019 OVC031 M14/M18 A3060 0 73 -3600 330/11 RMK AO2 P0000 $
14840KMKG MKG20060218124013702/18/06 12:40:31  5-MIN KMKG 181740Z 33010KT 1 3/4SM -SN SCT013 BKN023 OVC031 M14/M18 A3060 10 73 -3600 330/10 RMK AO2 TWR VIS 2 P0000 $
14840KMKG MKG20060218124513402/18/06 12:45:31  5-MIN KMKG 181745Z 33014KT 3/4SM -SN SCT007 BKN020 OVC027 M14/M18 A3060 0 76 -3600 340/14 RMK AO2 TWR VIS 2 P0000 $
14840KMKG MKG20060218125018902/18/06 12:50:31  5-MIN KMKG 181750Z 35014KT 1/2SM SN SCT007 BKN016 OVC023 M14/M18 A3061 0 73 -3600 350/14 RMK AO2 TWR VIS 2 CIG 009 RWY 14 SLP381 P0000 60000 T11441183 11139 21167 50003 $
14840KMKG MKG20060218125517902/18/06 12:55:31  5-MIN KMKG 181755Z 35012KT 1SM -SN BKN007 BKN019 OVC024 M14/M19 A3060 0 66 -3600 350/12 RMK AO2 TWR VIS 2 SLP380 P0000 60000 4/002 T11441194 11139 21167 50000 $
14840KMKG MKG20060218130013502/18/06 13:00:31  5-MIN KMKG 181800Z 34010KT 3/4SM -SN BKN007 BKN016 OVC022 M14/M18 A3060 10 73 -3600 340/10 RMK AO2 TWR VIS 2 P0000 $
14840KMKG MKG20060218130512802/18/06 13:05:31  5-MIN KMKG 181805Z 33011KT 3/4SM -SN BKN007 OVC017 M14/M18 A3060 10 76 -3600 340/11 RMK AO2 TWR VIS 2 P0000 $
14840KMKG MKG20060218131012602/18/06 13:10:31  5-MIN KMKG 181810Z 32011KT 1SM -SN BKN007 OVC017 M14/M18 A3060 10 76 -3600 320/11 RMK AO2 TWR VIS 2 P0000 $
14840KMKG MKG20060218131513702/18/06 13:15:31  5-MIN KMKG 181815Z 32013KT 1 1/4SM -SN BKN007 BKN017 OVC024 M14/M18 A3059 10 73 -3600 330/13 RMK AO2 TWR VIS 2 P0000 $
14840KMKG MKG20060218132013302/18/06 13:20:31  5-MIN KMKG 181820Z 31011KT 1SM -SN BKN007 BKN017 OVC024 M14/M18 A3059 10 73 -3600 310/11 RMK AO2 TWR VIS 2 P0000 $
14840KMKG MKG20060218132513902/18/06 13:25:31  5-MIN KMKG 181825Z 32012G18KT 1SM -SN BKN007 BKN017 OVC040 M14/M19 A3059 20 69 -3600 330/12G18 RMK AO2 TWR VIS 2 P0000 $
14840KMKG MKG20060218133014302/18/06 13:30:31  5-MIN KMKG 181830Z 32012G18KT 1 1/4SM -SN BKN007 BKN017 OVC023 M14/M19 A3059 20 66 -3500 320/12G18 RMK AO2 TWR VIS 2 P0000 $
14840KMKG MKG20060218133514302/18/06 13:35:31  5-MIN KMKG 181835Z 32010G17KT 1 3/4SM -SN BKN009 BKN017 OVC039 M14/M18 A3058 20 69 -3500 330/10G17 RMK AO2 TWR VIS 2 P0000 $
14840KMKG MKG20060218134013302/18/06 13:40:31  5-MIN KMKG 181840Z 34013KT 2SM -SN BKN009 BKN017 OVC039 M14/M19 A3059 20 66 -3600 340/13 RMK AO2 SFC VIS 3 P0000 $
14840KMKG MKG20060218134513702/18/06 13:45:31  5-MIN KMKG 181845Z 33010KT 2SM -SN BKN009 BKN017 OVC029 M14/M19 A3058 20 69 -3600 330/10 RMK AO2 SFC VIS 2 1/2 P0000 $
14840KMKG MKG20060218135013702/18/06 13:50:31  5-MIN KMKG 181850Z 33012KT 2SM -SN SCT009 BKN017 OVC029 M14/M19 A3058 20 66 -3600 340/12 RMK AO2 SFC VIS 2 1/2 P0000 $
14840KMKG MKG20060218135515002/18/06 13:55:31  5-MIN KMKG 181855Z 33011KT 2SM -SN BKN014 BKN024 OVC035 M14/M21 A3058 20 60 -3600 330/11 RMK AO2 SFC VIS 6 SLP372 P0000 T11441206 $
14840KMKG MKG20060218140012602/18/06 14:00:31  5-MIN KMKG 181900Z 30012KT 2SM -SN BKN018 OVC028 M14/M20 A3058 30 63 -3600 300/12 RMK AO2 SFC VIS 5 P0000 $
14840KMKG MKG20060218140513702/18/06 14:05:31  5-MIN KMKG 181905Z 30010KT 1 3/4SM -SN BKN014 BKN020 OVC028 M14/M19 A3058 30 69 -3600 310/10 RMK AO2 TWR VIS 2 P0000 $
14840KMKG MKG20060218141013302/18/06 14:10:31  5-MIN KMKG 181910Z 33013KT 1SM -SN BKN012 BKN026 OVC033 M14/M18 A3058 30 73 -3600 340/13 RMK AO2 TWR VIS 2 P0000 $
14840KMKG MKG20060218141513702/18/06 14:15:31  5-MIN KMKG 181915Z 33011KT 1 1/4SM -SN BKN012 BKN028 OVC036 M14/M18 A3058 30 73 -3600 330/11 RMK AO2 TWR VIS 2 P0000 $
14840KMKG MKG20060218142013702/18/06 14:20:31  5-MIN KMKG 181920Z 32010KT 2SM -SN BKN014 BKN025 OVC036 M14/M19 A3057 30 66 -3500 320/10 RMK AO2 SFC VIS 2 1/2 P0000 $
14840KMKG MKG20060218142513302/18/06 14:25:31  5-MIN KMKG 181925Z 31009KT 2SM -SN SCT014 BKN025 OVC034 M14/M19 A3057 30 63 -3500 310/09 RMK AO2 SFC VIS 6 P0000 $
14840KMKG MKG20060218143014102/18/06 14:30:31  5-MIN KMKG 181930Z 30012G17KT 2SM SCT012 BKN023 OVC034 M14/M21 A3057 40 57 -3500 310/12G17 RMK AO2 SFC VIS 9 SNE28 P0000 $
14840KMKG MKG20060218143513902/18/06 14:35:31  5-MIN KMKG 181935Z 31011G17KT 2SM -SN SCT019 BKN029 OVC034 M14/M21 A3057 30 57 -3600 320/11G17 RMK AO2 SFC VIS 9 P0000 $
14840KMKG MKG20060218144013302/18/06 14:40:31  5-MIN KMKG 181940Z 32009KT 2SM -SN SCT021 BKN029 OVC034 M14/M19 A3057 30 66 -3600 320/09 RMK AO2 SFC VIS 4 P0000 $
14840KMKG MKG20060218144513702/18/06 14:45:31  5-MIN KMKG 181945Z 33011KT 1 1/4SM -SN BKN013 BKN023 OVC030 M14/M18 A3057 30 73 -3600 330/11 RMK AO2 TWR VIS 2 P0000 $
14840KMKG MKG20060218145015002/18/06 14:50:31  5-MIN KMKG 181950Z 32009KT 1SM -SN BKN011 BKN020 OVC034 M14/M18 A3057 40 73 -3600 330/09 RMK AO2 TWR VIS 2 SLP368 P0000 T11441183 $
14840KMKG MKG20060218145514002/18/06 14:55:31  5-MIN KMKG 181955Z 31008KT 2SM -SN BKN013 BKN023 OVC029 M14/M18 A3057 40 69 -3500 310/08 RMK AO2 SLP368 P0000 T11391183 $
14840KMKG MKG20060218150013702/18/06 15:00:31  5-MIN KMKG 182000Z 31007KT 1 1/4SM -SN BKN011 BKN023 OVC029 M14/M18 A3057 30 73 -3500 310/07 RMK AO2 TWR VIS 2 P0000 $
14840KMKG MKG20060218150513302/18/06 15:05:31  5-MIN KMKG 182005Z 31008KT 1SM -SN BKN009 BKN023 OVC033 M14/M18 A3057 30 73 -3500 310/08 RMK AO2 TWR VIS 2 P0000 $
14840KMKG MKG20060218151013302/18/06 15:10:31  5-MIN KMKG 182010Z 29010KT 2SM -SN BKN009 BKN017 OVC033 M14/M19 A3057 40 66 -3500 300/10 RMK AO2 SFC VIS 4 P0000 $
14840KMKG MKG20060218151513302/18/06 15:15:31  5-MIN KMKG 182015Z 29012KT 2SM -SN BKN013 BKN021 OVC033 M13/M20 A3057 40 58 -3400 290/12 RMK AO2 SFC VIS 9 P0000 $
14840KMKG MKG20060218152013302/18/06 15:20:31  5-MIN KMKG 182020Z 28013KT 2SM -SN SCT015 BKN025 OVC033 M13/M20 A3057 40 58 -3400 290/13 RMK AO2 SFC VIS 9 P0000 $
14840KMKG MKG20060218152512302/18/06 15:25:31  5-MIN KMKG 182025Z 31012KT 9SM -SN FEW013 SCT020 OVC033 M14/M21 A3057 40 57 -3500 310/12 RMK AO2 P0000 $
14840KMKG MKG20060218153012302/18/06 15:30:31  5-MIN KMKG 182030Z 29011KT 9SM -SN FEW018 SCT025 BKN034 M14/M20 A3057 40 60 -3500 300/11 RMK AO2 P0000 $
14840KMKG MKG20060218153514302/18/06 15:35:31  5-MIN KMKG 182035Z 29012KT 3SM -SN SCT025 BKN034 M14/M19 A3056 40 63 -3500 300/12 RMK AO2 SFC VIS 6 VIS 2 1/2 RWY 14 P0000 $
14840KMKG MKG20060218154015402/18/06 15:40:31  5-MIN KMKG 182040Z 30011KT 2SM -SN BKN018 BKN026 OVC034 M14/M18 A3056 40 69 -3500 300/11 RMK AO2 SFC VIS 2 1/2 VIS 1 1/2 RWY 14 P0000 $
14840KMKG MKG20060218154512302/18/06 15:45:31  5-MIN KMKG 182045Z 30008KT 2SM -SN SCT018 BKN026 OVC034 M14/M18 A3057 40 69 -3500 310/08 RMK AO2 P0000 $
14840KMKG MKG20060218155014502/18/06 15:50:31  5-MIN KMKG 182050Z 31011KT 5SM -SN SCT018 OVC034 M14/M19 A3057 40 66 -3500 320/11 RMK AO2 SLP367 P0000 60000 T11391189 50000 $
14840KMKG MKG20060218155514502/18/06 15:55:31  5-MIN KMKG 182055Z 30009KT 9SM -SN SCT018 BKN034 M14/M20 A3057 40 60 -3500 310/09 RMK AO2 SLP367 P0000 60000 T11391200 56013 $
14840KMKG MKG20060218160011602/18/06 16:00:31  5-MIN KMKG 182100Z 30008KT 9SM -SN FEW015 BKN034 M14/M21 A3057 40 57 -3500 300/08 RMK AO2 P0000 $
14840KMKG MKG20060218160512502/18/06 16:05:31  5-MIN KMKG 182105Z 31008G16KT 10SM FEW015 BKN034 M14/M21 A3057 40 57 -3500 310/08G16 RMK AO2 SNE02 P0000 $
14840KMKG MKG20060218161012602/18/06 16:10:31  5-MIN KMKG 182110Z 31010KT 3SM -SN FEW013 BKN034 M14/M20 A3056 40 60 -3500 310/10 RMK AO2 SFC VIS 4 P0000 $
14840KMKG MKG20060218161512202/18/06 16:15:31  5-MIN KMKG 182115Z 30011G16KT 3SM -SN FEW015 BKN034 M14/M19 A3056 40 66 -3500 310/11G16 RMK AO2 P0000 $
14840KMKG MKG20060218162013302/18/06 16:20:31  5-MIN KMKG 182120Z 31011KT 3SM -SN FEW017 BKN030 BKN035 M14/M19 A3056 40 63 -3500 310/11 RMK AO2 SFC VIS 6 P0000 $
14840KMKG MKG20060218162512802/18/06 16:25:31  5-MIN KMKG 182125Z 30009KT 3SM FEW017 BKN034 M14/M20 A3056 40 60 -3500 310/09 RMK AO2 SFC VIS 9 SNE22 P0000 $
14840KMKG MKG20060218163012902/18/06 16:30:31  5-MIN KMKG 182130Z 30009KT 3SM FEW017 OVC034 M14/M19 A3056 40 63 -3500 310/09 RMK AO2 SFC VIS 10 SNE22 P0000 $
14840KMKG MKG20060218163513602/18/06 16:35:31  5-MIN KMKG 182135Z 31009KT 3SM FEW014 SCT028 OVC032 M14/M19 A3056 40 63 -3500 310/09 RMK AO2 SFC VIS 10 SNE22 P0000 $
14840KMKG MKG20060218164013602/18/06 16:40:31  5-MIN KMKG 182140Z 31008KT 3SM -SN FEW010 BKN028 OVC032 M14/M19 A3056 40 66 -3500 320/08 RMK AO2 VIS 1 RWY 14 P0000 $
14840KMKG MKG20060218164515202/18/06 16:45:31  5-MIN KMKG 182145Z 31009KT 1 1/2SM -SN FEW006 BKN028 OVC032 M14/M18 A3056 50 73 -3500 310/09 RMK AO2 TWR VIS 3 VIS 3/4 RWY 14 P0000 $
14840KMKG MKG20060218165014802/18/06 16:50:31  5-MIN KMKG 182150Z 32009KT 1SM -SN FEW006 BKN025 OVC032 M14/M18 A3056 50 73 -3500 330/09 RMK AO2 TWR VIS 3 CIG 020 RWY 14 P0000 $
14840KMKG MKG20060218165514002/18/06 16:55:31  5-MIN KMKG 182155Z 32009KT 3SM -SN FEW006 BKN026 OVC032 M14/M18 A3056 50 73 -3500 320/09 RMK AO2 SLP363 P0000 T11391178 $
14840KMKG MKG20060218170012302/18/06 17:00:31  5-MIN KMKG 182200Z 29013KT 3SM -SN FEW006 SCT026 OVC032 M14/M19 A3055 50 66 -3500 290/13 RMK AO2 P0000 $
14840KMKG MKG20060218170512302/18/06 17:05:31  5-MIN KMKG 182205Z 30011KT 3SM -SN FEW010 SCT025 OVC032 M14/M19 A3055 50 66 -3500 300/11 RMK AO2 P0000 $
14840KMKG MKG20060218171012302/18/06 17:10:31  5-MIN KMKG 182210Z 29010KT 3SM -SN FEW013 SCT025 OVC032 M14/M19 A3055 50 66 -3500 290/10 RMK AO2 P0000 $
14840KMKG MKG20060218171514102/18/06 17:15:31  5-MIN KMKG 182215Z 30009KT 2SM -SN FEW011 BKN025 OVC032 M14/M18 A3055 50 69 -3500 300/09 RMK AO2 TWR VIS 3 VIS 1V4 P0000 $
14840KMKG MKG20060218172014102/18/06 17:20:31  5-MIN KMKG 182220Z 31009KT 1 1/2SM -SN FEW011 BKN025 OVC032 M14/M18 A3055 50 73 -3500 310/09 RMK AO2 TWR VIS 1 3/4 P0000 $
14840KMKG MKG20060218172513702/18/06 17:25:31  5-MIN KMKG 182225Z 31009KT 1 3/4SM -SN FEW011 SCT025 OVC032 M14/M18 A3055 50 69 -3500 310/09 RMK AO2 SFC VIS 2 P0000 $
14840KMKG MKG20060218173015402/18/06 17:30:31  5-MIN KMKG 182230Z 29010KT 1 3/4SM -SN FEW013 BKN023 OVC030 M14/M18 A3055 50 73 -3500 300/10 RMK AO2 SFC VIS 2 1/2 VIS 1 RWY 14 P0000 $
14840KMKG MKG20060218173515402/18/06 17:35:31  5-MIN KMKG 182235Z 30009KT 1 3/4SM -SN FEW013 BKN023 OVC030 M14/M18 A3055 50 73 -3500 300/09 RMK AO2 SFC VIS 3 VIS 1 1/2 RWY 14 P0000 $
14840KMKG MKG20060218174015302/18/06 17:40:31  5-MIN KMKG 182240Z 30010KT 1 3/4SM -SN FEW011 BKN023 OVC030 M14/M18 A3055 50 73 -3500 300/10 RMK AO2 SFC VIS 2 1/2 VIS 1 1/2V5 P0000 $
14840KMKG MKG20060218174515302/18/06 17:45:31  5-MIN KMKG 182245Z 31009KT 1 3/4SM -SN FEW011 SCT023 OVC030 M14/M18 A3055 50 69 -3500 310/09 RMK AO2 SFC VIS 2 VIS 1 1/2V2 1/2 P0000 $
14840KMKG MKG20060218175013002/18/06 17:50:31  5-MIN KMKG 182250Z 30009KT 1 3/4SM -SN FEW023 OVC030 M14/M18 A3055 60 73 -3500 310/09 RMK AO2 SFC VIS 3 P0000 $
14840KMKG MKG20060218175514702/18/06 17:55:31  5-MIN KMKG 182255Z 30010KT 1 3/4SM -SN SCT022 OVC030 M14/M19 A3054 60 63 -3500 310/10 RMK AO2 SFC VIS 6 SLP359 P0000 T11391194 $
14840KMKG MKG20060218180013502/18/06 18:00:31  5-MIN KMKG 182300Z 30009KT 1 3/4SM SCT022 BKN030 BKN035 M14/M20 A3054 60 60 -3500 310/09 RMK AO2 SFC VIS 9 SNE2256 $
14840KMKG MKG20060218180513002/18/06 18:05:31  5-MIN KMKG 182305Z 30009KT 1 3/4SM -SN FEW022 BKN030 M14/M20 A3054 60 60 -3500 300/09 RMK AO2 SFC VIS 8 P0000 $
14840KMKG MKG20060218181012302/18/06 18:10:31  5-MIN KMKG 182310Z 30009KT 1 3/4SM -SN BKN030 M14/M19 A3054 60 66 -3500 310/09 RMK AO2 SFC VIS 5 P0000 $
14840KMKG MKG20060218181513002/18/06 18:15:31  5-MIN KMKG 182315Z 30008KT 1 3/4SM -SN FEW020 BKN030 M14/M19 A3054 60 63 -3500 310/08 RMK AO2 SFC VIS 5 P0000 $
14840KMKG MKG20060218182013202/18/06 18:20:31  5-MIN KMKG 182320Z 30010KT 1 3/4SM FEW020 BKN028 M14/M19 A3054 60 66 -3500 300/10 RMK AO2 SFC VIS 9 SNE18 P0000 $
14840KMKG MKG20060218182512602/18/06 18:25:31  5-MIN KMKG 182325Z 30008KT 1 3/4SM BKN028 M14/M19 A3054 60 66 -3500 310/08 RMK AO2 SFC VIS 10 SNE18 P0000 $
14840KMKG MKG20060218183011202/18/06 18:30:31  5-MIN KMKG 182330Z 29006KT 10SM OVC028 M14/M19 A3054 60 66 -3500 290/06 RMK AO2 SNE18 P0000 $
14840KMKG MKG20060218183511202/18/06 18:35:31  5-MIN KMKG 182335Z 29007KT 10SM OVC028 M14/M18 A3054 60 69 -3500 290/07 RMK AO2 SNE18 P0000 $
14840KMKG MKG20060218184011202/18/06 18:40:31  5-MIN KMKG 182340Z 28010KT 10SM BKN030 M14/M19 A3054 60 66 -3500 290/10 RMK AO2 SNE18 P0000 $
14840KMKG MKG20060218184511202/18/06 18:45:31  5-MIN KMKG 182345Z 29008KT 10SM BKN030 M14/M19 A3054 70 63 -3500 300/08 RMK AO2 SNE18 P0000 $
14840KMKG MKG20060218185014102/18/06 18:50:31  5-MIN KMKG 182350Z 29007KT 10SM OVC030 M13/M19 A3053 70 60 -3400 290/07 RMK AO2 SNE18 SLP356 T11331194 11133 21144 56013 $
14840KMKG MKG20060218185515902/18/06 18:55:31  5-MIN KMKG 182355Z 30008KT 10SM OVC030 M13/M19 A3053 70 63 -3400 300/08 RMK AO2 SNE18 SLP356 P0000 60000 4/002 T11331189 11133 21144 56010 $
14840KMKG MKG20060218190013402/18/06 19:00:31  5-MIN KMKG 190000Z 31009KT 6SM -SN OVC030 M13/M18 A3053 70 66 -3400 310/09 RMK AO2 VIS 2 1/2 RWY 14 SNB2359 P0000 $
14840KMKG MKG20060218190514102/18/06 19:05:31  5-MIN KMKG 190005Z 28007KT 3SM -SN BKN027 OVC032 M13/M18 A3053 70 69 -3400 290/07 RMK AO2 VIS 1 1/2 RWY 14 SNB2359 P0000 $
14840KMKG MKG20060218191014702/18/06 19:10:31  5-MIN KMKG 190010Z 28009G15KT 3SM -SN BKN030 OVC032 M13/M17 A3053 70 73 -3400 280/09G15 RMK AO2 VIS 1 1/2 RWY 14 SNB2359 P0000 $
14840KMKG MKG20060218191514702/18/06 19:15:31  5-MIN KMKG 190015Z 27009G15KT 3SM -SN BKN030 OVC032 M13/M18 A3053 70 69 -3400 270/09G15 RMK AO2 VIS 2 1/2 RWY 14 SNB2359 P0000 $
14840KMKG MKG20060218192012402/18/06 19:20:31  5-MIN KMKG 190020Z 27010KT 5SM -SN BKN030 OVC032 M13/M18 A3053 70 66 -3400 270/10 RMK AO2 SNB2359 P0000 $
14840KMKG MKG20060218192512402/18/06 19:25:31  5-MIN KMKG 190025Z 28011KT 8SM -SN BKN030 OVC032 M13/M19 A3053 70 63 -3400 280/11 RMK AO2 SNB2359 P0000 $
14840KMKG MKG20060218193012302/18/06 19:30:31  5-MIN KMKG 190030Z 27010KT 9SM BKN030 OVC032 M13/M19 A3053 70 63 -3400 280/10 RMK AO2 SNB2359E27 P0000 $
14840KMKG MKG20060218193512402/18/06 19:35:31  5-MIN KMKG 190035Z 27008KT 10SM BKN030 OVC032 M13/M19 A3053 70 63 -3400 270/08 RMK AO2 SNB2359E27 P0000 $
14840KMKG MKG20060218194012402/18/06 19:40:31  5-MIN KMKG 190040Z 27007KT 10SM BKN030 OVC032 M13/M19 A3053 70 63 -3400 270/07 RMK AO2 SNB2359E27 P0000 $
14840KMKG MKG20060218194512402/18/06 19:45:31  5-MIN KMKG 190045Z 29009KT 10SM BKN030 OVC032 M13/M19 A3053 70 63 -3400 290/09 RMK AO2 SNB2359E27 P0000 $
14840KMKG MKG20060218195014702/18/06 19:50:31  5-MIN KMKG 190050Z 29009G15KT 10SM BKN030 OVC035 M13/M18 A3053 70 66 -3400 300/09G15 RMK AO2 SNB2359E27 SLP356 P0000 T11331183 $
14840KMKG MKG20060218195513402/18/06 19:55:31  5-MIN KMKG 190055Z 29011KT 10SM OVC030 M13/M18 A3053 70 63 -3300 290/11 RMK AO2 SNB2359E27 SLP354 P0000 T11281183 $
14840KMKG MKG20060218200010002/18/06 20:00:31  5-MIN KMKG 190100Z 29012KT 10SM BKN030 M13/M18 A3053 70 63 -3300 290/12 RMK AO2 $
14840KMKG MKG20060218200510002/18/06 20:05:31  5-MIN KMKG 190105Z 30007KT 10SM BKN030 M13/M19 A3053 70 63 -3400 300/07 RMK AO2 $
14840KMKG MKG20060218201012202/18/06 20:10:31  5-MIN KMKG 190110Z 29008KT 6SM -SN FEW011 BKN030 M13/M18 A3053 70 63 -3300 300/08 RMK AO2 SNB09 P0000 $
14840KMKG MKG20060218201513902/18/06 20:15:31  5-MIN KMKG 190115Z 29010KT 3SM -SN FEW011 OVC028 M13/M18 A3053 70 66 -3300 290/10 RMK AO2 VIS 1 3/4 RWY 14 SNB09 P0000 $
14840KMKG MKG20060218202013202/18/06 20:20:31  5-MIN KMKG 190120Z 30010KT 4SM -SN BKN030 M13/M17 A3053 70 70 -3300 300/10 RMK AO2 VIS 2 1/2 RWY 14 SNB09 P0000 $
14840KMKG MKG20060218202511502/18/06 20:25:31  5-MIN KMKG 190125Z 29011KT 9SM -SN BKN033 M13/M18 A3053 70 63 -3300 290/11 RMK AO2 SNB09 P0000 $
14840KMKG MKG20060218203011402/18/06 20:30:31  5-MIN KMKG 190130Z 30009KT 9SM BKN033 M13/M18 A3052 80 63 -3300 300/09 RMK AO2 SNB09E26 P0000 $
14840KMKG MKG20060218203511502/18/06 20:35:31  5-MIN KMKG 190135Z 30011KT 10SM BKN033 M13/M18 A3052 80 63 -3300 300/11 RMK AO2 SNB09E26 P0000 $
14840KMKG MKG20060218204011502/18/06 20:40:31  5-MIN KMKG 190140Z 30011KT 8SM -SN BKN033 M13/M18 A3052 80 66 -3300 300/11 RMK AO2 SNB09 P0000 $
14840KMKG MKG20060218204511502/18/06 20:45:31  5-MIN KMKG 190145Z 29009KT 3SM -SN BKN033 M13/M17 A3052 80 73 -3300 300/09 RMK AO2 SNB09 P0000 $
14840KMKG MKG20060218205015002/18/06 20:50:31  5-MIN KMKG 190150Z 27011KT 2 1/2SM -SN FEW007 SCT027 OVC033 M12/M17 A3052 80 70 -3200 280/11 RMK AO2 SNB09 SLP352 P0000 T11221167 $
14840KMKG MKG20060218205513902/18/06 20:55:31  5-MIN KMKG 190155Z 29010KT 3SM -SN FEW007 OVC030 M12/M17 A3052 80 70 -3200 290/10 RMK AO2 SNB09 SLP352 P0000 T11221167 $
14840KMKG MKG20060218210012302/18/06 21:00:31  5-MIN KMKG 190200Z 30008KT 4SM -SN FEW007 BKN030 OVC033 M12/M16 A3052 80 73 -3200 300/08 RMK AO2 P0000 $
14840KMKG MKG20060218210512302/18/06 21:05:31  5-MIN KMKG 190205Z 30012KT 6SM -SN FEW007 BKN030 OVC033 M12/M17 A3052 80 67 -3200 300/12 RMK AO2 P0000 $
14840KMKG MKG20060218211012302/18/06 21:10:31  5-MIN KMKG 190210Z 29009KT 3SM -SN FEW007 BKN030 OVC033 M12/M17 A3052 80 67 -3200 300/09 RMK AO2 P0000 $
14840KMKG MKG20060218211512702/18/06 21:15:31  5-MIN KMKG 190215Z 27010KT 1 3/4SM -SN FEW009 SCT019 OVC028 M12/M17 A3052 80 70 -3200 280/10 RMK AO2 P0000 $
14840KMKG MKG20060218212012302/18/06 21:20:31  5-MIN KMKG 190220Z 29010KT 2SM -SN FEW011 SCT019 OVC030 M12/M17 A3051 90 70 -3200 290/10 RMK AO2 P0000 $
14840KMKG MKG20060218212512302/18/06 21:25:31  5-MIN KMKG 190225Z 28011KT 3SM -SN FEW011 BKN028 OVC033 M12/M17 A3051 90 70 -3200 280/11 RMK AO2 P0000 $
14840KMKG MKG20060218213012302/18/06 21:30:31  5-MIN KMKG 190230Z 27011KT 3SM -SN FEW011 BKN028 OVC033 M12/M16 A3051 90 73 -3200 280/11 RMK AO2 P0000 $
14840KMKG MKG20060218213512302/18/06 21:35:31  5-MIN KMKG 190235Z 28013KT 3SM -SN FEW011 BKN028 OVC033 M12/M16 A3052 80 73 -3200 290/13 RMK AO2 P0000 $
14840KMKG MKG20060218214012302/18/06 21:40:31  5-MIN KMKG 190240Z 28007KT 3SM -SN FEW011 BKN028 OVC033 M12/M17 A3052 80 70 -3200 290/07 RMK AO2 P0000 $
14840KMKG MKG20060218214512302/18/06 21:45:31  5-MIN KMKG 190245Z 29011KT 3SM -SN FEW011 BKN028 OVC033 M12/M16 A3051 90 73 -3200 290/11 RMK AO2 P0000 $
14840KMKG MKG20060218215014002/18/06 21:50:31  5-MIN KMKG 190250Z 29011KT 3SM -SN FEW009 SCT020 OVC030 M12/M17 A3051 90 70 -3200 290/11 RMK AO2 VIS 1 3/4 RWY 14 P0000 $
14840KMKG MKG20060218215516902/18/06 21:55:31  5-MIN KMKG 190255Z 28012KT 4SM -SN FEW011 SCT025 OVC030 M12/M17 A3051 80 70 -3200 290/12 RMK AO2 VIS 2 1/2 RWY 14 SLP350 P0000 60000 T11221167 57006 $
14840KMKG MKG20060218220011602/18/06 22:00:31  5-MIN KMKG 190300Z 28012KT 4SM -SN FEW019 OVC030 M12/M17 A3052 80 70 -3200 280/12 RMK AO2 P0000 $
14840KMKG MKG20060218220512302/18/06 22:05:31  5-MIN KMKG 190305Z 29012KT 2SM -SN FEW005 SCT017 OVC030 M12/M16 A3052 80 73 -3200 300/12 RMK AO2 P0000 $
14840KMKG MKG20060218221012702/18/06 22:10:31  5-MIN KMKG 190310Z 28012KT 1 1/4SM -SN FEW007 SCT015 OVC030 M12/M16 A3051 90 76 -3200 290/12 RMK AO2 P0000 $
14840KMKG MKG20060218221512702/18/06 22:15:31  5-MIN KMKG 190315Z 28011KT 1 3/4SM -SN FEW007 SCT020 OVC030 M12/M16 A3051 90 73 -3200 290/11 RMK AO2 P0000 $
14840KMKG MKG20060218222012702/18/06 22:20:31  5-MIN KMKG 190320Z 29008KT 1 1/2SM -SN FEW007 SCT020 OVC030 M12/M16 A3051 90 73 -3200 290/08 RMK AO2 P0000 $
14840KMKG MKG20060218222513302/18/06 22:25:31  5-MIN KMKG 190325Z 29010G15KT 1 1/2SM -SN FEW007 SCT020 OVC030 M12/M16 A3051 90 76 -3200 290/10G15 RMK AO2 P0000 $
14840KMKG MKG20060218223014602/18/06 22:30:31  5-MIN KMKG 190330Z 29010G15KT 4SM -SN FEW007 SCT022 OVC032 M12/M17 A3051 90 70 -3200 290/10G15 RMK AO2 VIS 2 1/2 RWY 14 P0000 $
14840KMKG MKG20060218223514002/18/06 22:35:31  5-MIN KMKG 190335Z 29011KT 3SM -SN FEW009 BKN027 OVC032 M12/M16 A3051 90 73 -3200 300/11 RMK AO2 VIS 1 1/2 RWY 14 P0000 $
14840KMKG MKG20060218224013302/18/06 22:40:31  5-MIN KMKG 190340Z 29012KT 3SM -SN SCT022 OVC029 M12/M17 A3051 90 70 -3200 290/12 RMK AO2 VIS 1 1/2 RWY 14 P0000 $
14840KMKG MKG20060218224513302/18/06 22:45:31  5-MIN KMKG 190345Z 29010KT 5SM -SN SCT022 OVC031 M12/M17 A3051 90 70 -3200 290/10 RMK AO2 VIS 2 1/2 RWY 14 P0000 $
14840KMKG MKG20060218225014002/18/06 22:50:31  5-MIN KMKG 190350Z 29011KT 4SM -SN FEW012 SCT022 OVC031 M12/M16 A3051 90 73 -3200 300/11 RMK AO2 SLP347 P0000 T11221161 $
14840KMKG MKG20060218225515302/18/06 22:55:31  5-MIN KMKG 190355Z 29009KT 3SM -SN FEW010 SCT022 OVC031 M12/M16 A3051 90 73 -3200 300/09 RMK AO2 VIS 2 RWY 14 SLP347 P0000 T11221161 $
14840KMKG MKG20060218230014002/18/06 23:00:31  5-MIN KMKG 190400Z 30014KT 3SM -SN FEW010 SCT022 OVC031 M12/M16 A3051 90 73 -3200 300/14 RMK AO2 VIS 1 3/4 RWY 14 P0000 $
14840KMKG MKG20060218230512302/18/06 23:05:31  5-MIN KMKG 190405Z 30012KT 3SM -SN FEW010 SCT028 OVC033 M12/M16 A3051 90 73 -3200 300/12 RMK AO2 P0000 $
14840KMKG MKG20060218231012902/18/06 23:10:31  5-MIN KMKG 190410Z 29012G18KT 3SM -SN FEW010 BKN026 OVC033 M12/M17 A3051 90 70 -3200 290/12G18 RMK AO2 P0000 $
14840KMKG MKG20060218231512902/18/06 23:15:31  5-MIN KMKG 190415Z 28011G18KT 3SM -SN FEW010 BKN026 OVC033 M12/M16 A3051 90 73 -3200 290/11G18 RMK AO2 P0000 $
14840KMKG MKG20060218232011602/18/06 23:20:31  5-MIN KMKG 190420Z 29010KT 6SM -SN FEW024 OVC033 M12/M17 A3050 90 67 -3200 300/10 RMK AO2 P0000 $
14840KMKG MKG20060218232511602/18/06 23:25:31  5-MIN KMKG 190425Z 30010KT 7SM -SN FEW026 OVC031 M12/M17 A3051 90 67 -3200 310/10 RMK AO2 P0000 $
14840KMKG MKG20060218233011602/18/06 23:30:31  5-MIN KMKG 190430Z 28013KT 4SM -SN FEW026 OVC031 M12/M17 A3051 90 70 -3200 280/13 RMK AO2 P0000 $
14840KMKG MKG20060218233512202/18/06 23:35:31  5-MIN KMKG 190435Z 28012G17KT 3SM -SN FEW010 OVC031 M12/M16 A3051 90 76 -3200 280/12G17 RMK AO2 P0000 $
14840KMKG MKG20060218234012702/18/06 23:40:31  5-MIN KMKG 190440Z 27011KT 1 3/4SM -SN FEW008 SCT019 OVC031 M12/M15 A3051 90 80 -3200 280/11 RMK AO2 P0000 $
14840KMKG MKG20060218234512702/18/06 23:45:31  5-MIN KMKG 190445Z 29011KT 1 1/2SM -SN FEW006 BKN020 OVC033 M12/M16 A3051 90 76 -3200 290/11 RMK AO2 P0000 $
14840KMKG MKG20060218235015402/18/06 23:50:31  5-MIN KMKG 190450Z 28009KT 1 3/4SM -SN FEW006 BKN024 OVC031 M12/M15 A3050 90 80 -3200 280/09 RMK AO2 SLP345 P0000 T11221150 411221167 $
14840KMKG MKG20060218235517202/18/06 23:55:31  5-MIN KMKG 190455Z 28012KT 2 1/2SM -SN FEW008 BKN020 OVC027 M12/M16 A3050 100 76 -3200 290/12 RMK AO2 VIS 1 1/4 RWY 14 SLP345 P0000 T11221156 411221167 $
14840KMKG MKG20060219000013702/19/06 00:00:32  5-MIN KMKG 190500Z 27012KT 3SM -SN FEW008 BKN020 OVC027 M12/M16 A3050 100 73 -3200 280/12 RMK AO2 VIS 2 RWY 14 P0000 $
14840KMKG MKG20060219000512702/19/06 00:05:31  5-MIN KMKG 190505Z 28013KT 1 3/4SM -SN FEW006 BKN020 OVC027 M12/M16 A3050 90 76 -3200 280/13 RMK AO2 P0000 $
14840KMKG MKG20060219001013302/19/06 00:10:31  5-MIN KMKG 190510Z 28011KT 1 1/4SM -SN BLSN FEW006 BKN020 OVC027 M12/M16 A3050 100 76 -3200 280/11 RMK AO2 P0000 $
14840KMKG MKG20060219001515402/19/06 00:15:31  5-MIN KMKG 190515Z 29013G18KT 1 3/4SM -SN BLSN FEW008 SCT019 OVC027 M12/M16 A3050 100 76 -3200 290/13G18 RMK AO2 CIG 021 RWY 14 P0000 $
14840KMKG MKG20060219002014502/19/06 00:20:31  5-MIN KMKG 190520Z 29012KT 2SM -SN BLSN FEW008 BKN022 OVC027 M12/M16 A3050 100 76 -3200 290/12 RMK AO2 VIS 1 1/2V2 1/2 P0000 $
14840KMKG MKG20060219002512402/19/06 00:25:31  5-MIN KMKG 190525Z 29013KT 3SM -SN FEW008 SCT022 OVC029 M12/M16 A3050 100 73 -3200 300/13 RMK AO2 P0000 $
14840KMKG MKG20060219003012402/19/06 00:30:31  5-MIN KMKG 190530Z 29012KT 4SM -SN FEW006 SCT021 OVC027 M12/M16 A3050 100 73 -3200 290/12 RMK AO2 P0000 $
14840KMKG MKG20060219003512402/19/06 00:35:31  5-MIN KMKG 190535Z 29012KT 2SM -SN FEW008 SCT019 OVC027 M12/M16 A3050 100 76 -3200 290/12 RMK AO2 P0000 $
14840KMKG MKG20060219004012402/19/06 00:40:31  5-MIN KMKG 190540Z 28012KT 3SM -SN FEW008 SCT022 OVC027 M12/M16 A3050 100 76 -3200 290/12 RMK AO2 P0000 $
14840KMKG MKG20060219004511702/19/06 00:45:31  5-MIN KMKG 190545Z 28012KT 6SM -SN FEW008 OVC029 M12/M17 A3049 100 70 -3200 280/12 RMK AO2 P0000 $
14840KMKG MKG20060219005016402/19/06 00:50:31  5-MIN KMKG 190550Z 28012G19KT 7SM -SN SCT023 OVC029 M12/M17 A3049 100 70 -3200 290/12G19 RMK AO2 SLP341 P0000 60000 T11221167 11122 21133 57006 $
14840KMKG MKG20060219005516402/19/06 00:55:31  5-MIN KMKG 190555Z 30011G19KT 5SM -SN BKN025 OVC029 M12/M16 A3049 100 73 -3200 310/11G19 RMK AO2 SLP341 P0000 60000 T11221161 11122 21133 58005 $
14840KMKG MKG20060219010012802/19/06 01:00:31  5-MIN KMKG 190600Z 29010KT 2 1/2SM -SN FEW017 SCT021 OVC027 M12/M16 A3049 100 73 -3200 300/10 RMK AO2 P0000 $
14840KMKG MKG20060219010511702/19/06 01:05:31  5-MIN KMKG 190605Z 29009KT 3SM -SN SCT021 OVC027 M12/M16 A3049 110 76 -3200 290/09 RMK AO2 P0000 $
14840KMKG MKG20060219011012302/19/06 01:10:31  5-MIN KMKG 190610Z 29011G16KT 3SM -SN FEW021 OVC027 M12/M16 A3049 110 73 -3200 290/11G16 RMK AO2 P0000 $
14840KMKG MKG20060219011512402/19/06 01:15:31  5-MIN KMKG 190615Z 28009KT 3SM -SN FEW017 BKN025 OVC030 M12/M17 A3049 110 70 -3200 280/09 RMK AO2 P0000 $
14840KMKG MKG20060219012012402/19/06 01:20:31  5-MIN KMKG 190620Z 29010KT 3SM -SN FEW005 BKN025 OVC029 M12/M16 A3049 110 76 -3200 300/10 RMK AO2 P0000 $
14840KMKG MKG20060219012511702/19/06 01:25:31  5-MIN KMKG 190625Z 31011KT 3SM -SN SCT018 OVC027 M12/M16 A3049 110 73 -3100 310/11 RMK AO2 P0000 $
14840KMKG MKG20060219013011702/19/06 01:30:31  5-MIN KMKG 190630Z 30010KT 6SM -SN FEW018 OVC027 M12/M16 A3049 110 73 -3200 310/10 RMK AO2 P0000 $
14840KMKG MKG20060219013511702/19/06 01:35:31  5-MIN KMKG 190635Z 27013KT 6SM -SN FEW016 OVC027 M12/M17 A3049 110 70 -3200 280/13 RMK AO2 P0000 $
14840KMKG MKG20060219014011702/19/06 01:40:31  5-MIN KMKG 190640Z 31010KT 7SM -SN FEW016 OVC025 M12/M17 A3049 110 70 -3200 310/10 RMK AO2 P0000 $
14840KMKG MKG20060219014511002/19/06 01:45:31  5-MIN KMKG 190645Z 29008KT 5SM -SN OVC025 M12/M16 A3049 110 73 -3200 300/08 RMK AO2 P0000 $
14840KMKG MKG20060219015012702/19/06 01:50:31  5-MIN KMKG 190650Z 29011KT 5SM -SN OVC025 M12/M16 A3048 110 70 -3100 290/11 RMK AO2 SLP338 P0000 T11171161 $
14840KMKG MKG20060219015512702/19/06 01:55:31  5-MIN KMKG 190655Z 30011KT 5SM -SN OVC025 M12/M16 A3048 110 70 -3100 300/11 RMK AO2 SLP338 P0000 T11171161 $
14840KMKG MKG20060219020011002/19/06 02:00:31  5-MIN KMKG 190700Z 28008KT 5SM -SN OVC023 M12/M16 A3048 110 70 -3100 280/08 RMK AO2 P0000 $
14840KMKG MKG20060219020512702/19/06 02:05:31  5-MIN KMKG 190705Z 28010KT 5SM -SN OVC023 M12/M16 A3048 120 70 -3100 290/10 RMK AO2 VIS 2 1/2 RWY 14 P0000 $
14840KMKG MKG20060219021011002/19/06 02:10:31  5-MIN KMKG 190710Z 30012KT 5SM -SN OVC023 M12/M16 A3048 120 70 -3100 300/12 RMK AO2 P0000 $
14840KMKG MKG20060219021511002/19/06 02:15:31  5-MIN KMKG 190715Z 29012KT 6SM -SN OVC023 M12/M16 A3048 120 70 -3100 290/12 RMK AO2 P0000 $
14840KMKG MKG20060219022011002/19/06 02:20:31  5-MIN KMKG 190720Z 29010KT 7SM -SN OVC023 M12/M17 A3048 120 67 -3100 300/10 RMK AO2 P0000 $
14840KMKG MKG20060219022511002/19/06 02:25:31  5-MIN KMKG 190725Z 30014KT 7SM -SN OVC023 M12/M16 A3048 120 70 -3100 300/14 RMK AO2 P0000 $
14840KMKG MKG20060219023011002/19/06 02:30:31  5-MIN KMKG 190730Z 30014KT 6SM -SN OVC023 M12/M16 A3048 120 70 -3100 300/14 RMK AO2 P0000 $
14840KMKG MKG20060219023511002/19/06 02:35:31  5-MIN KMKG 190735Z 29010KT 5SM -SN OVC025 M12/M16 A3048 120 70 -3100 290/10 RMK AO2 P0000 $
14840KMKG MKG20060219024011002/19/06 02:40:31  5-MIN KMKG 190740Z 28007KT 3SM -SN OVC025 M12/M16 A3048 120 73 -3100 280/07 RMK AO2 P0000 $
14840KMKG MKG20060219024511602/19/06 02:45:31  5-MIN KMKG 190745Z 30014G18KT 3SM -SN OVC025 M12/M16 A3048 120 70 -3100 300/14G18 RMK AO2 P0000 $
14840KMKG MKG20060219025014002/19/06 02:50:31  5-MIN KMKG 190750Z 29011G18KT 5SM -SN FEW018 OVC025 M12/M16 A3048 120 70 -3100 300/11G18 RMK AO2 SLP336 P0000 T11171161 $
14840KMKG MKG20060219025513402/19/06 02:55:31  5-MIN KMKG 190755Z 28011KT 5SM -SN BKN023 OVC028 M12/M16 A3048 120 70 -3100 280/11 RMK AO2 SLP336 P0000 T11171161 $
14840KMKG MKG20060219030011002/19/06 03:00:31  5-MIN KMKG 190800Z 28009KT 5SM -SN OVC023 M12/M16 A3048 120 70 -3100 290/09 RMK AO2 P0000 $
14840KMKG MKG20060219030511002/19/06 03:05:31  5-MIN KMKG 190805Z 29008KT 4SM -SN OVC023 M12/M16 A3047 120 73 -3100 300/08 RMK AO2 P0000 $
14840KMKG MKG20060219031011402/19/06 03:10:31  5-MIN KMKG 190810Z 28009KT 2 1/2SM -SN OVC023 M12/M15 A3047 120 76 -3100 290/09 RMK AO2 P0000 $
14840KMKG MKG20060219031511002/19/06 03:15:31  5-MIN KMKG 190815Z 28012KT 3SM -SN OVC023 M12/M15 A3047 120 76 -3100 280/12 RMK AO2 P0000 $
14840KMKG MKG20060219032011002/19/06 03:20:31  5-MIN KMKG 190820Z 28010KT 6SM -SN OVC023 M12/M16 A3047 130 73 -3100 280/10 RMK AO2 P0000 $
14840KMKG MKG20060219032511002/19/06 03:25:31  5-MIN KMKG 190825Z 26011KT 8SM -SN OVC023 M12/M16 A3047 130 73 -3100 270/11 RMK AO2 P0000 $
14840KMKG MKG20060219033011002/19/06 03:30:31  5-MIN KMKG 190830Z 28012KT 8SM -SN OVC023 M11/M16 A3046 130 70 -3000 280/12 RMK AO2 P0000 $
14840KMKG MKG20060219033511602/19/06 03:35:31  5-MIN KMKG 190835Z 29011G18KT 5SM -SN OVC025 M11/M16 A3046 130 70 -3000 290/11G18 RMK AO2 P0000 $
14840KMKG MKG20060219034011002/19/06 03:40:31  5-MIN KMKG 190840Z 28011KT 3SM -SN OVC023 M11/M15 A3046 130 73 -3000 280/11 RMK AO2 P0000 $
14840KMKG MKG20060219034512302/19/06 03:45:31  5-MIN KMKG 190845Z 28012G19KT 4SM -SN BKN023 OVC030 M11/M15 A3046 130 73 -3000 280/12G19 RMK AO2 P0000 $
14840KMKG MKG20060219035015202/19/06 03:50:31  5-MIN KMKG 190850Z 26011G19KT 6SM -SN BKN023 OVC030 M11/M16 A3046 130 67 -3000 270/11G19 RMK AO2 SLP330 P0000 60000 T11111161 58005 $
14840KMKG MKG20060219035515302/19/06 03:55:31  5-MIN KMKG 190855Z 28010KT 3SM -SN FEW011 BKN022 OVC029 M11/M15 A3046 130 73 -3000 280/10 RMK AO2 SLP330 P0000 60000 T11111150 58011 $
14840KMKG MKG20060219040012402/19/06 04:00:31  5-MIN KMKG 190900Z 28008KT 3SM -SN FEW011 BKN022 OVC027 M11/M14 A3046 140 77 -3000 280/08 RMK AO2 P0000 $
14840KMKG MKG20060219040511702/19/06 04:05:31  5-MIN KMKG 190905Z 27011KT 3SM -SN SCT020 OVC029 M11/M15 A3046 140 73 -3000 270/11 RMK AO2 P0000 $
14840KMKG MKG20060219041011702/19/06 04:10:31  5-MIN KMKG 190910Z 28012KT 6SM -SN FEW022 OVC029 M11/M16 A3046 140 70 -3000 280/12 RMK AO2 P0000 $
14840KMKG MKG20060219041511702/19/06 04:15:31  5-MIN KMKG 190915Z 28013KT 6SM -SN FEW022 OVC029 M11/M16 A3045 140 70 -3000 280/13 RMK AO2 P0000 $
14840KMKG MKG20060219042012302/19/06 04:20:31  5-MIN KMKG 190920Z 28011G17KT 5SM -SN SCT022 OVC029 M11/M15 A3045 140 73 -3000 290/11G17 RMK AO2 P0000 $
14840KMKG MKG20060219042511702/19/06 04:25:31  5-MIN KMKG 190925Z 29010KT 4SM -SN FEW022 OVC029 M11/M15 A3045 140 73 -3000 290/10 RMK AO2 P0000 $
14840KMKG MKG20060219043011702/19/06 04:30:31  5-MIN KMKG 190930Z 27010KT 4SM -SN BKN025 OVC029 M11/M15 A3045 140 73 -3000 270/10 RMK AO2 P0000 $
14840KMKG MKG20060219043511702/19/06 04:35:31  5-MIN KMKG 190935Z 28009KT 4SM -SN FEW019 OVC027 M11/M15 A3045 150 73 -3000 280/09 RMK AO2 P0000 $
14840KMKG MKG20060219044011702/19/06 04:40:31  5-MIN KMKG 190940Z 26013KT 6SM -SN BKN025 OVC030 M11/M16 A3044 150 67 -2900 270/13 RMK AO2 P0000 $
14840KMKG MKG20060219044513402/19/06 04:45:31  5-MIN KMKG 190945Z 28012KT 4SM -SN FEW018 OVC025 M11/M15 A3044 150 70 -2900 280/12 RMK AO2 VIS 2 1/2 RWY 14 P0000 $
14840KMKG MKG20060219045014002/19/06 04:50:31  5-MIN KMKG 190950Z 28014G20KT 3SM -SN FEW018 OVC027 M11/M15 A3044 150 70 -2900 290/14G20 RMK AO2 SLP324 P0000 T11061150 $
14840KMKG MKG20060219045514002/19/06 04:55:31  5-MIN KMKG 190955Z 28010G20KT 5SM -SN FEW020 OVC027 M11/M16 A3044 150 67 -2900 280/10G20 RMK AO2 SLP323 P0000 T11061156 $
14840KMKG MKG20060219050011602/19/06 05:00:31  5-MIN KMKG 191000Z 27012G17KT 5SM -SN OVC027 M11/M15 A3044 150 70 -2900 280/12G17 RMK AO2 P0000 $
14840KMKG MKG20060219050511602/19/06 05:05:31  5-MIN KMKG 191005Z 29013G17KT 5SM -SN OVC027 M11/M15 A3044 150 70 -2900 290/13G17 RMK AO2 P0000 $
14840KMKG MKG20060219051011002/19/06 05:10:31  5-MIN KMKG 191010Z 29010KT 5SM -SN OVC027 M11/M15 A3044 150 70 -2900 290/10 RMK AO2 P0000 $
14840KMKG MKG20060219051511602/19/06 05:15:31  5-MIN KMKG 191015Z 29013G17KT 7SM -SN OVC027 M11/M16 A3044 150 67 -2900 300/13G17 RMK AO2 P0000 $
14840KMKG MKG20060219052011002/19/06 05:20:31  5-MIN KMKG 191020Z 29011KT 6SM -SN OVC027 M11/M15 A3044 150 70 -2900 290/11 RMK AO2 P0000 $
14840KMKG MKG20060219052511702/19/06 05:25:31  5-MIN KMKG 191025Z 28007KT 5SM -SN FEW020 OVC027 M11/M15 A3044 150 70 -2900 290/07 RMK AO2 P0000 $
14840KMKG MKG20060219053012302/19/06 05:30:31  5-MIN KMKG 191030Z 28012G15KT 6SM -SN FEW020 OVC027 M11/M14 A3044 150 73 -2900 290/12G15 RMK AO2 P0000 $
14840KMKG MKG20060219053511702/19/06 05:35:31  5-MIN KMKG 191035Z 27009KT 4SM -SN FEW018 OVC025 M11/M14 A3044 150 73 -2900 270/09 RMK AO2 P0000 $
14840KMKG MKG20060219054011702/19/06 05:40:31  5-MIN KMKG 191040Z 27009KT 3SM -SN FEW018 OVC025 M11/M14 A3044 160 73 -2900 280/09 RMK AO2 P0000 $
14840KMKG MKG20060219054512302/19/06 05:45:31  5-MIN KMKG 191045Z 27010G17KT 4SM -SN FEW018 OVC025 M11/M15 A3044 160 70 -2900 280/10G17 RMK AO2 P0000 $
14840KMKG MKG20060219055014002/19/06 05:50:31  5-MIN KMKG 191050Z 28012G17KT 8SM -SN FEW018 OVC025 M11/M15 A3044 150 70 -2900 280/12G17 RMK AO2 SLP322 P0000 T11061150 $
14840KMKG MKG20060219055513402/19/06 05:55:31  5-MIN KMKG 191055Z 27010KT 9SM -SN FEW018 OVC027 M11/M16 A3043 160 67 -2900 270/10 RMK AO2 SLP321 P0000 T11061156 $
14840KMKG MKG20060219060011002/19/06 06:00:31  5-MIN KMKG 191100Z 28012KT 6SM -SN OVC024 M11/M15 A3043 160 70 -2900 290/12 RMK AO2 P0000 $
14840KMKG MKG20060219060511702/19/06 06:05:31  5-MIN KMKG 191105Z 28008KT 5SM -SN SCT022 OVC026 M11/M14 A3043 160 73 -2900 280/08 RMK AO2 P0000 $
14840KMKG MKG20060219061011002/19/06 06:10:31  5-MIN KMKG 191110Z 28007KT 6SM -SN OVC024 M11/M14 A3043 160 73 -2900 280/07 RMK AO2 P0000 $
14840KMKG MKG20060219061511002/19/06 06:15:31  5-MIN KMKG 191115Z 26009KT 7SM -SN OVC024 M10/M14 A3042 170 70 -2800 270/09 RMK AO2 P0000 $
14840KMKG MKG20060219062011002/19/06 06:20:31  5-MIN KMKG 191120Z 27011KT 9SM -SN OVC024 M10/M14 A3042 170 70 -2800 270/11 RMK AO2 P0000 $
14840KMKG MKG20060219062511002/19/06 06:25:31  5-MIN KMKG 191125Z 27009KT 9SM -SN OVC024 M10/M15 A3042 170 67 -2800 270/09 RMK AO2 P0000 $
14840KMKG MKG20060219063011702/19/06 06:30:31  5-MIN KMKG 191130Z 28012KT 9SM -SN BKN024 OVC030 M11/M15 A3042 170 70 -2900 280/12 RMK AO2 P0000 $
14840KMKG MKG20060219063511702/19/06 06:35:31  5-MIN KMKG 191135Z 28011KT 9SM -SN BKN024 OVC029 M11/M15 A3042 170 70 -2900 280/11 RMK AO2 P0000 $
14840KMKG MKG20060219064012302/19/06 06:40:31  5-MIN KMKG 191140Z 28011G18KT 9SM -SN BKN024 OVC031 M10/M15 A3042 170 67 -2800 280/11G18 RMK AO2 P0000 $
14840KMKG MKG20060219064512302/19/06 06:45:31  5-MIN KMKG 191145Z 28012G18KT 9SM -SN BKN024 OVC031 M10/M15 A3042 170 67 -2800 280/12G18 RMK AO2 P0000 $
14840KMKG MKG20060219065015802/19/06 06:50:31  5-MIN KMKG 191150Z 28014KT 9SM -SN BKN024 OVC029 M11/M15 A3041 180 70 -2900 280/14 RMK AO2 SLP313 P0000 60000 T11061150 11100 21122 58011 $
14840KMKG MKG20060219065516402/19/06 06:55:31  5-MIN KMKG 191155Z 29011KT 9SM -SN BKN024 OVC029 M10/M15 A3041 180 67 -2800 290/11 RMK AO2 SLP312 P0000 60000 4/003 T11001150 11100 21122 58017 $
14840KMKG MKG20060219070011702/19/06 07:00:31  5-MIN KMKG 191200Z 27013KT 9SM -SN BKN024 OVC029 M10/M14 A3041 180 70 -2800 280/13 RMK AO2 P0000 $
14840KMKG MKG20060219070511702/19/06 07:05:31  5-MIN KMKG 191205Z 28012KT 9SM -SN BKN024 OVC029 M10/M14 A3041 180 70 -2800 280/12 RMK AO2 P0000 $
14840KMKG MKG20060219071011702/19/06 07:10:31  5-MIN KMKG 191210Z 29010KT 7SM -SN BKN024 OVC029 M10/M14 A3041 180 70 -2800 290/10 RMK AO2 P0000 $
14840KMKG MKG20060219071512302/19/06 07:15:31  5-MIN KMKG 191215Z 27012G16KT 7SM -SN BKN024 OVC029 M10/M14 A3041 180 70 -2800 280/12G16 RMK AO2 P0000 $
14840KMKG MKG20060219072012302/19/06 07:20:31  5-MIN KMKG 191220Z 27012G16KT 8SM -SN BKN024 OVC029 M10/M14 A3041 180 70 -2800 280/12G16 RMK AO2 P0000 $
14840KMKG MKG20060219072511002/19/06 07:25:31  5-MIN KMKG 191225Z 28013KT 9SM -SN OVC024 M10/M14 A3041 180 73 -2800 290/13 RMK AO2 P0000 $
14840KMKG MKG20060219073011002/19/06 07:30:31  5-MIN KMKG 191230Z 27011KT 9SM -SN OVC024 M10/M14 A3040 190 70 -2800 270/11 RMK AO2 P0000 $
14840KMKG MKG20060219073512302/19/06 07:35:31  5-MIN KMKG 191235Z 28013G19KT 9SM -SN BKN022 OVC029 M10/M14 A3040 190 70 -2800 280/13G19 RMK AO2 P0000 $
14840KMKG MKG20060219074012302/19/06 07:40:31  5-MIN KMKG 191240Z 28012G19KT 9SM -SN BKN025 OVC029 M10/M14 A3040 190 70 -2800 280/12G19 RMK AO2 P0000 $
14840KMKG MKG20060219074511702/19/06 07:45:31  5-MIN KMKG 191245Z 26007KT 7SM -SN BKN023 OVC029 M10/M14 A3040 190 70 -2800 270/07 RMK AO2 P0000 $
14840KMKG MKG20060219075013402/19/06 07:50:31  5-MIN KMKG 191250Z 28009KT 5SM -SN BKN021 OVC029 M10/M14 A3040 190 73 -2800 290/09 RMK AO2 SLP308 P0000 T11001139 $
14840KMKG MKG20060219075513402/19/06 07:55:31  5-MIN KMKG 191255Z 28011KT 4SM -SN BKN021 OVC026 M10/M14 A3040 190 73 -2800 280/11 RMK AO2 SLP308 P0000 T11001139 $
14840KMKG MKG20060219080011702/19/06 08:00:31  5-MIN KMKG 191300Z 27010KT 5SM -SN BKN019 OVC026 M10/M14 A3040 190 73 -2800 270/10 RMK AO2 P0000 $
14840KMKG MKG20060219080511002/19/06 08:05:31  5-MIN KMKG 191305Z 26012KT 7SM -SN OVC022 M10/M14 A3040 190 70 -2800 270/12 RMK AO2 P0000 $
14840KMKG MKG20060219081011002/19/06 08:10:31  5-MIN KMKG 191310Z 27010KT 8SM -SN OVC022 M10/M14 A3040 190 70 -2800 270/10 RMK AO2 P0000 $
14840KMKG MKG20060219081511702/19/06 08:15:31  5-MIN KMKG 191315Z 28010KT 9SM -SN BKN020 OVC025 M10/M14 A3040 190 70 -2800 290/10 RMK AO2 P0000 $
14840KMKG MKG20060219082011002/19/06 08:20:31  5-MIN KMKG 191320Z 29009KT 9SM -SN OVC022 M10/M14 A3040 190 70 -2800 290/09 RMK AO2 P0000 $
14840KMKG MKG20060219082511602/19/06 08:25:31  5-MIN KMKG 191325Z 27011G16KT 9SM -SN OVC022 M10/M14 A3040 190 70 -2800 280/11G16 RMK AO2 P0000 $
14840KMKG MKG20060219083011002/19/06 08:30:31  5-MIN KMKG 191330Z 27012KT 6SM -SN OVC024 M10/M14 A3040 190 70 -2800 270/12 RMK AO2 P0000 $
14840KMKG MKG20060219083511002/19/06 08:35:31  5-MIN KMKG 191335Z 28014KT 6SM -SN OVC024 M10/M14 A3040 190 70 -2800 280/14 RMK AO2 P0000 $
14840KMKG MKG20060219084011002/19/06 08:40:31  5-MIN KMKG 191340Z 27011KT 5SM -SN OVC024 M10/M14 A3041 180 70 -2800 280/11 RMK AO2 P0000 $
14840KMKG MKG20060219084511602/19/06 08:45:31  5-MIN KMKG 191345Z 26014G20KT 4SM -SN OVC024 M10/M14 A3041 180 70 -2800 270/14G20 RMK AO2 P0000 $
14840KMKG MKG20060219085013302/19/06 08:50:31  5-MIN KMKG 191350Z 26009G20KT 5SM -SN OVC024 M10/M14 A3041 180 70 -2800 270/09G20 RMK AO2 SLP312 P0000 T11001144 $
14840KMKG MKG20060219085513402/19/06 08:55:31  5-MIN KMKG 191355Z 27012KT 6SM -SN BKN024 OVC030 M10/M14 A3041 180 70 -2800 270/12 RMK AO2 SLP311 P0000 T11001144 $
14840KMKG MKG20060219090011702/19/06 09:00:31  5-MIN KMKG 191400Z 27009KT 8SM -SN BKN024 OVC030 M10/M14 A3041 180 70 -2800 270/09 RMK AO2 P0000 $
14840KMKG MKG20060219090511702/19/06 09:05:31  5-MIN KMKG 191405Z 28009KT 6SM -SN BKN024 OVC030 M10/M14 A3041 180 70 -2800 280/09 RMK AO2 P0000 $
14840KMKG MKG20060219091011702/19/06 09:10:31  5-MIN KMKG 191410Z 28010KT 4SM -SN BKN024 OVC030 M10/M14 A3041 180 73 -2800 280/10 RMK AO2 P0000 $
14840KMKG MKG20060219091513402/19/06 09:15:31  5-MIN KMKG 191415Z 27007KT 4SM -SN BKN024 OVC030 M10/M14 A3041 180 73 -2800 270/07 RMK AO2 VIS 2 1/2 RWY 14 P0000 $
14840KMKG MKG20060219092012302/19/06 09:20:31  5-MIN KMKG 191420Z 27011G17KT 6SM -SN BKN024 OVC030 M10/M14 A3041 180 73 -2800 280/11G17 RMK AO2 P0000 $
14840KMKG MKG20060219092511602/19/06 09:25:31  5-MIN KMKG 191425Z 26013G17KT 9SM -SN OVC024 M09/M14 A3041 180 67 -2700 270/13G17 RMK AO2 P0000 $
14840KMKG MKG20060219093011002/19/06 09:30:31  5-MIN KMKG 191430Z 27011KT 8SM -SN OVC026 M10/M14 A3041 180 70 -2800 280/11 RMK AO2 P0000 $
14840KMKG MKG20060219093511602/19/06 09:35:31  5-MIN KMKG 191435Z 25014G17KT 6SM -SN OVC025 M10/M14 A3042 180 70 -2800 260/14G17 RMK AO2 P0000 $
14840KMKG MKG20060219094011602/19/06 09:40:31  5-MIN KMKG 191440Z 27009G17KT 7SM -SN OVC025 M09/M14 A3042 180 67 -2700 270/09G17 RMK AO2 P0000 $
14840KMKG MKG20060219094511602/19/06 09:45:31  5-MIN KMKG 191445Z 27009G17KT 8SM -SN OVC025 M09/M14 A3041 180 67 -2700 270/09G17 RMK AO2 P0000 $
14840KMKG MKG20060219095014502/19/06 09:50:31  5-MIN KMKG 191450Z 26012G17KT 8SM -SN OVC025 M09/M14 A3041 180 67 -2700 270/12G17 RMK AO2 SLP313 P0000 60000 T10941144 58017 $
14840KMKG MKG20060219095514502/19/06 09:55:31  5-MIN KMKG 191455Z 27012G18KT 9SM -SN OVC025 M09/M14 A3041 180 67 -2700 280/12G18 RMK AO2 SLP312 P0000 60000 T10941144 53000 $
14840KMKG MKG20060219100011602/19/06 10:00:31  5-MIN KMKG 191500Z 28012G18KT 9SM -SN OVC025 M09/M14 A3041 180 67 -2700 280/12G18 RMK AO2 P0000 $
14840KMKG MKG20060219100511002/19/06 10:05:31  5-MIN KMKG 191505Z 28010KT 9SM -SN OVC025 M09/M14 A3041 180 67 -2700 280/10 RMK AO2 P0000 $
14840KMKG MKG20060219101011002/19/06 10:10:31  5-MIN KMKG 191510Z 26013KT 8SM -SN OVC025 M09/M14 A3040 180 67 -2700 270/13 RMK AO2 P0000 $
14840KMKG MKG20060219101511602/19/06 10:15:31  5-MIN KMKG 191515Z 27012G18KT 3SM -SN OVC025 M09/M14 A3041 180 70 -2700 280/12G18 RMK AO2 P0000 $
14840KMKG MKG20060219102011002/19/06 10:20:31  5-MIN KMKG 191520Z 27012KT 3SM -SN OVC025 M09/M13 A3040 190 73 -2700 270/12 RMK AO2 P0000 $
14840KMKG MKG20060219102513302/19/06 10:25:31  5-MIN KMKG 191525Z 26015G19KT 5SM -SN OVC025 M09/M14 A3040 190 70 -2700 260/15G19 RMK AO2 VIS 2 1/2 RWY 14 P0000 $
14840KMKG MKG20060219103011602/19/06 10:30:31  5-MIN KMKG 191530Z 26015G19KT 4SM -SN OVC025 M09/M14 A3040 190 70 -2700 260/15G19 RMK AO2 P0000 $
14840KMKG MKG20060219103511602/19/06 10:35:31  5-MIN KMKG 191535Z 27010G18KT 3SM -SN OVC025 M09/M14 A3040 190 70 -2700 270/10G18 RMK AO2 P0000 $
14840KMKG MKG20060219104012202/19/06 10:40:31  5-MIN KMKG 191540Z 26009KT 2 1/2SM -SN OVC025 M09/M13 A3040 190 73 -2700 260/09 RMK AO2 VIS 2V4 P0000 $
14840KMKG MKG20060219104511002/19/06 10:45:31  5-MIN KMKG 191545Z 27010KT 3SM -SN OVC025 M09/M13 A3040 190 73 -2700 280/10 RMK AO2 P0000 $
14840KMKG MKG20060219105013302/19/06 10:50:31  5-MIN KMKG 191550Z 26014G19KT 3SM -SN OVC025 M09/M14 A3040 190 70 -2700 260/14G19 RMK AO2 SLP307 P0000 T10941139 $
14840KMKG MKG20060219105514402/19/06 10:55:31  5-MIN KMKG 191555Z 25014G19KT 2 1/2SM -SN SCT022 OVC027 M09/M14 A3040 190 70 -2700 250/14G19 RMK AO2 SLP308 P0000 T10941139 $
14840KMKG MKG20060219110011702/19/06 11:00:31  5-MIN KMKG 191600Z 25014KT 4SM -SN FEW020 OVC027 M09/M14 A3040 190 67 -2700 260/14 RMK AO2 P0000 $
14840KMKG MKG20060219110511602/19/06 11:05:31  5-MIN KMKG 191605Z 26014G18KT 6SM -SN OVC027 M09/M14 A3040 190 67 -2700 270/14G18 RMK AO2 P0000 $
14840KMKG MKG20060219111012302/19/06 11:10:31  5-MIN KMKG 191610Z 25014G19KT 3SM -SN BKN023 OVC028 M09/M14 A3040 190 70 -2700 250/14G19 RMK AO2 P0000 $
14840KMKG MKG20060219111511602/19/06 11:15:31  5-MIN KMKG 191615Z 25013G19KT 3SM -SN OVC023 M09/M14 A3040 190 70 -2700 260/13G19 RMK AO2 P0000 $
14840KMKG MKG20060219112011002/19/06 11:20:31  5-MIN KMKG 191620Z 25015KT 4SM -SN OVC023 M09/M14 A3040 190 70 -2700 260/15 RMK AO2 P0000 $
14840KMKG MKG20060219112511602/19/06 11:25:31  5-MIN KMKG 191625Z 26013G19KT 6SM -SN OVC025 M09/M14 A3040 190 70 -2700 270/13G19 RMK AO2 P0000 $
14840KMKG MKG20060219113011602/19/06 11:30:31  5-MIN KMKG 191630Z 26012G19KT 6SM -SN OVC025 M09/M14 A3040 190 70 -2700 270/12G19 RMK AO2 P0000 $
14840KMKG MKG20060219113511602/19/06 11:35:31  5-MIN KMKG 191635Z 25016G21KT 7SM -SN OVC025 M09/M14 A3040 190 67 -2600 250/16G21 RMK AO2 P0000 $
14840KMKG MKG20060219114011602/19/06 11:40:31  5-MIN KMKG 191640Z 26011G21KT 8SM -SN OVC025 M09/M14 A3040 190 67 -2700 270/11G21 RMK AO2 P0000 $
14840KMKG MKG20060219114511002/19/06 11:45:31  5-MIN KMKG 191645Z 26014KT 9SM -SN OVC025 M09/M14 A3039 200 67 -2600 260/14 RMK AO2 P0000 $
14840KMKG MKG20060219115012702/19/06 11:50:31  5-MIN KMKG 191650Z 25012KT 9SM -SN OVC025 M09/M14 A3039 200 67 -2600 250/12 RMK AO2 SLP306 P0000 T10891139 $
14840KMKG MKG20060219115514002/19/06 11:55:31  5-MIN KMKG 191655Z 25013G20KT 9SM -SN BKN025 OVC030 M09/M14 A3039 200 67 -2700 260/13G20 RMK AO2 SLP306 P0000 T10941144 $
14840KMKG MKG20060219120011602/19/06 12:00:31  5-MIN KMKG 191700Z 26012G20KT 9SM -SN OVC027 M09/M14 A3039 200 67 -2600 260/12G20 RMK AO2 P0000 $
14840KMKG MKG20060219120511602/19/06 12:05:31  5-MIN KMKG 191705Z 26012G20KT 9SM -SN OVC027 M09/M14 A3039 200 67 -2600 260/12G20 RMK AO2 P0000 $
14840KMKG MKG20060219121011002/19/06 12:10:31  5-MIN KMKG 191710Z 24014KT 9SM -SN OVC027 M09/M14 A3039 200 67 -2600 250/14 RMK AO2 P0000 $
14840KMKG MKG20060219121511202/19/06 12:15:31  5-MIN KMKG 191715Z 26014KT 9SM OVC027 M09/M14 A3039 200 67 -2600 260/14 RMK AO2 SNE11 P0000 $
14840KMKG MKG20060219122012002/19/06 12:20:31  5-MIN KMKG 191720Z 26013KT 10SM BKN025 OVC030 M09/M14 A3038 210 67 -2600 270/13 RMK AO2 SNE11 P0000 $
14840KMKG MKG20060219122512602/19/06 12:25:31  5-MIN KMKG 191725Z 25012G20KT 10SM BKN025 OVC030 M09/M14 A3038 210 67 -2600 260/12G20 RMK AO2 SNE11 P0000 $
14840KMKG MKG20060219123012602/19/06 12:30:31  5-MIN KMKG 191730Z 24017G22KT 10SM BKN025 OVC030 M09/M14 A3038 210 67 -2600 250/17G22 RMK AO2 SNE11 P0000 $
14840KMKG MKG20060219123512602/19/06 12:35:31  5-MIN KMKG 191735Z 26016G22KT 10SM BKN025 OVC030 M08/M14 A3037 210 64 -2600 260/16G22 RMK AO2 SNE11 P0000 $
14840KMKG MKG20060219124012602/19/06 12:40:31  5-MIN KMKG 191740Z 26012G20KT 10SM BKN025 OVC030 M08/M14 A3037 210 64 -2600 260/12G20 RMK AO2 SNE11 P0000 $
14840KMKG MKG20060219124511302/19/06 12:45:31  5-MIN KMKG 191745Z 25014KT 10SM OVC028 M08/M14 A3037 220 62 -2500 260/14 RMK AO2 SNE11 P0000 $
14840KMKG MKG20060219125015402/19/06 12:50:31  5-MIN KMKG 191750Z 25013KT 10SM OVC029 M08/M14 A3036 220 62 -2500 250/13 RMK AO2 SNE11 SLP295 P0000 60000 T10831144 11083 21100 53000 $
14840KMKG MKG20060219125516002/19/06 12:55:31  5-MIN KMKG 191755Z 27013KT 10SM BKN028 M08/M14 A3036 220 64 -2500 270/13 RMK AO2 SNE11 SLP295 P0000 60000 4/002 T10831139 11083 21100 58016 $
14840KMKG MKG20060219130010702/19/06 13:00:31  5-MIN KMKG 191800Z 27014G19KT 10SM BKN028 M08/M14 A3036 230 64 -2500 270/14G19 RMK AO2 $
14840KMKG MKG20060219130510702/19/06 13:05:31  5-MIN KMKG 191805Z 27015G19KT 10SM BKN028 M08/M14 A3036 230 62 -2500 280/15G19 RMK AO2 $
14840KMKG MKG20060219131010102/19/06 13:10:31  5-MIN KMKG 191810Z 26014KT 10SM BKN028 M08/M14 A3036 230 62 -2500 270/14 RMK AO2 $
14840KMKG MKG20060219131510102/19/06 13:15:31  5-MIN KMKG 191815Z 26011KT 10SM BKN028 M08/M14 A3036 230 64 -2500 270/11 RMK AO2 $
14840KMKG MKG20060219132010102/19/06 13:20:31  5-MIN KMKG 191820Z 27016KT 10SM BKN028 M08/M14 A3036 230 62 -2500 270/16 RMK AO2 $
14840KMKG MKG20060219132511402/19/06 13:25:31  5-MIN KMKG 191825Z 24016G19KT 10SM FEW022 BKN028 M08/M14 A3035 230 62 -2500 250/16G19 RMK AO2 $
14840KMKG MKG20060219133010702/19/06 13:30:31  5-MIN KMKG 191830Z 25013G22KT 10SM BKN028 M08/M14 A3035 240 59 -2400 260/13G22 RMK AO2 $
14840KMKG MKG20060219133510702/19/06 13:35:31  5-MIN KMKG 191835Z 26014G22KT 10SM BKN028 M08/M14 A3034 240 59 -2400 270/14G22 RMK AO2 $
14840KMKG MKG20060219134010602/19/06 13:40:31  5-MIN KMKG 191840Z 25016G19KT 9SM BKN028 M08/M15 A3034 250 56 -2400 260/16G19 RMK AO2 $
14840KMKG MKG20060219134510602/19/06 13:45:31  5-MIN KMKG 191845Z 25014G19KT 9SM BKN028 M08/M15 A3034 250 56 -2400 260/14G19 RMK AO2 $
14840KMKG MKG20060219135012402/19/06 13:50:31  5-MIN KMKG 191850Z 27013G19KT 10SM BKN028 M08/M14 A3033 250 59 -2400 270/13G19 RMK AO2 SLP284 T10781144 $
14840KMKG MKG20060219135512402/19/06 13:55:31  5-MIN KMKG 191855Z 26015G21KT 10SM BKN030 M08/M14 A3033 250 62 -2500 260/15G21 RMK AO2 SLP283 T10831144 $
14840KMKG MKG20060220005515502/20/06 00:55:31  5-MIN KMKG 200555Z 28011G19KT 10SM BKN028 OVC033 M07/M13 A3017 400 65 -2200 290/11G19 RMK AO2 SLP227 4/001 T10721128 11072 21072 58005 $
14840KMKG MKG20060220010010702/20/06 01:00:31  5-MIN KMKG 200600Z 28013G19KT 10SM OVC030 M07/M13 A3017 400 65 -2200 280/13G19 RMK AO2 $
14840KMKG MKG20060220010510102/20/06 01:05:31  5-MIN KMKG 200605Z 28013KT 10SM OVC030 M07/M13 A3017 400 65 -2200 290/13 RMK AO2 $
14840KMKG MKG20060220011010102/20/06 01:10:31  5-MIN KMKG 200610Z 28015KT 10SM OVC030 M07/M12 A3016 410 68 -2200 280/15 RMK AO2 $
14840KMKG MKG20060220011510802/20/06 01:15:31  5-MIN KMKG 200615Z 28014KT 10SM BKN030 OVC034 M07/M12 A3016 410 68 -2200 280/14 RMK AO2 $
14840KMKG MKG20060220012011402/20/06 01:20:31  5-MIN KMKG 200620Z 28015G21KT 10SM BKN030 OVC034 M07/M12 A3016 410 65 -2100 290/15G21 RMK AO2 $
14840KMKG MKG20060220012511402/20/06 01:25:31  5-MIN KMKG 200625Z 28015G21KT 10SM BKN030 OVC034 M07/M13 A3016 410 62 -2100 280/15G21 RMK AO2 $
14840KMKG MKG20060220013010802/20/06 01:30:31  5-MIN KMKG 200630Z 26015KT 10SM BKN028 OVC034 M07/M12 A3016 410 65 -2100 270/15 RMK AO2 $
14840KMKG MKG20060220013510802/20/06 01:35:31  5-MIN KMKG 200635Z 29013KT 10SM BKN028 OVC036 M07/M12 A3016 410 65 -2100 290/13 RMK AO2 $
14840KMKG MKG20060220014011402/20/06 01:40:31  5-MIN KMKG 200640Z 29011G17KT 10SM BKN028 OVC035 M07/M12 A3016 410 65 -2100 290/11G17 RMK AO2 $
14840KMKG MKG20060220014510702/20/06 01:45:31  5-MIN KMKG 200645Z 28014G20KT 10SM OVC028 M07/M12 A3016 410 65 -2100 280/14G20 RMK AO2 $
14840KMKG MKG20060220015012402/20/06 01:50:31  5-MIN KMKG 200650Z 29015G20KT 10SM OVC028 M07/M12 A3016 410 65 -2100 290/15G20 RMK AO2 SLP224 T10671122 $
14840KMKG MKG20060220015512502/20/06 01:55:31  5-MIN KMKG 200655Z 27012KT 10SM BKN028 OVC034 M07/M12 A3016 410 68 -2100 280/12 RMK AO2 SLP223 T10671117 $
14840KMKG MKG20060220020010102/20/06 02:00:31  5-MIN KMKG 200700Z 29013KT 10SM OVC028 M07/M12 A3015 420 68 -2100 290/13 RMK AO2 $
14840KMKG MKG20060220020510702/20/06 02:05:31  5-MIN KMKG 200705Z 28013G18KT 10SM OVC028 M07/M12 A3015 410 65 -2100 290/13G18 RMK AO2 $
14840KMKG MKG20060220021011402/20/06 02:10:31  5-MIN KMKG 200710Z 27012G18KT 10SM BKN028 OVC034 M07/M12 A3015 420 65 -2100 270/12G18 RMK AO2 $
14840KMKG MKG20060220021510802/20/06 02:15:31  5-MIN KMKG 200715Z 29013KT 10SM BKN026 OVC034 M07/M12 A3015 420 68 -2100 290/13 RMK AO2 $
14840KMKG MKG20060220022011402/20/06 02:20:31  5-MIN KMKG 200720Z 28011G18KT 10SM BKN028 OVC034 M07/M12 A3015 410 68 -2100 280/11G18 RMK AO2 $
14840KMKG MKG20060220022510802/20/06 02:25:31  5-MIN KMKG 200725Z 28012KT 10SM BKN028 OVC034 M07/M12 A3015 420 65 -2100 290/12 RMK AO2 $
14840KMKG MKG20060220023010802/20/06 02:30:31  5-MIN KMKG 200730Z 29012KT 10SM BKN028 OVC034 M07/M12 A3015 420 65 -2100 290/12 RMK AO2 $
14840KMKG MKG20060220023510702/20/06 02:35:31  5-MIN KMKG 200735Z 28015G19KT 10SM OVC028 M07/M12 A3015 420 65 -2100 290/15G19 RMK AO2 $
14840KMKG MKG20060220024010702/20/06 02:40:31  5-MIN KMKG 200740Z 29017G21KT 10SM OVC030 M07/M12 A3015 420 65 -2100 290/17G21 RMK AO2 $
14840KMKG MKG20060220024511402/20/06 02:45:31  5-MIN KMKG 200745Z 28011G21KT 10SM BKN028 OVC033 M07/M12 A3015 420 65 -2100 290/11G21 RMK AO2 $
14840KMKG MKG20060220025010102/20/06 02:50:31  5-MIN KMKG 200750Z 28014KT 10SM OVC030 M07/M12 A3015 420 65 -2100 290/14 RMK AO2 $
14840KMKG MKG20060220025511802/20/06 02:55:31  5-MIN KMKG 200755Z 29012KT 10SM OVC030 M07/M12 A3014 420 65 -2100 290/12 RMK AO2 SLP219 T10671122 $
14840KMKG MKG20060220030010702/20/06 03:00:31  5-MIN KMKG 200800Z 28012G19KT 10SM OVC030 M07/M12 A3014 430 65 -2100 290/12G19 RMK AO2 $
14840KMKG MKG20060220030510102/20/06 03:05:31  5-MIN KMKG 200805Z 29011KT 10SM OVC030 M07/M12 A3014 430 65 -2100 290/11 RMK AO2 $
14840KMKG MKG20060220031010102/20/06 03:10:31  5-MIN KMKG 200810Z 29014KT 10SM OVC030 M06/M12 A3014 430 65 -2000 290/14 RMK AO2 $
14840KMKG MKG20060220031510802/20/06 03:15:31  5-MIN KMKG 200815Z 28015KT 10SM BKN030 OVC035 M06/M12 A3013 430 65 -2000 290/15 RMK AO2 $
14840KMKG MKG20060220032010802/20/06 03:20:31  5-MIN KMKG 200820Z 28014KT 10SM BKN030 OVC034 M06/M12 A3013 430 62 -2000 290/14 RMK AO2 $
14840KMKG MKG20060220032510802/20/06 03:25:31  5-MIN KMKG 200825Z 28011KT 10SM BKN028 OVC034 M06/M12 A3013 440 65 -2000 290/11 RMK AO2 $
14840KMKG MKG20060220033010102/20/06 03:30:31  5-MIN KMKG 200830Z 27011KT 10SM OVC030 M06/M12 A3013 440 65 -2000 270/11 RMK AO2 $
14840KMKG MKG20060220033510802/20/06 03:35:31  5-MIN KMKG 200835Z 27012KT 10SM BKN028 OVC033 M06/M12 A3012 440 65 -2000 270/12 RMK AO2 $
14840KMKG MKG20060220034010802/20/06 03:40:31  5-MIN KMKG 200840Z 27012KT 10SM BKN028 OVC033 M06/M12 A3012 450 62 -2000 270/12 RMK AO2 $
14840KMKG MKG20060220034510802/20/06 03:45:31  5-MIN KMKG 200845Z 27012KT 10SM BKN028 OVC033 M06/M12 A3012 450 65 -2000 280/12 RMK AO2 $
14840KMKG MKG20060220035013702/20/06 03:50:31  5-MIN KMKG 200850Z 28012G17KT 10SM BKN028 OVC033 M06/M12 A3011 450 65 -2000 280/12G17 RMK AO2 SLP208 T10611117 58005 $
14840KMKG MKG20060220035513002/20/06 03:55:31  5-MIN KMKG 200855Z 28012G17KT 10SM OVC030 M06/M12 A3011 450 65 -2000 280/12G17 RMK AO2 SLP207 T10611117 58014 $
14840KMKG MKG20060220040011702/20/06 04:00:31  5-MIN KMKG 200900Z 27012KT 230V300 10SM OVC030 M06/M12 A3011 460 65 -2000 280/12 230V300 RMK AO2 $
14840KMKG MKG20060220040510702/20/06 04:05:31  5-MIN KMKG 200905Z 27011G20KT 10SM OVC030 M06/M12 A3010 460 65 -2000 280/11G20 RMK AO2 $
14840KMKG MKG20060220041010702/20/06 04:10:31  5-MIN KMKG 200910Z 27012G20KT 10SM OVC031 M06/M12 A3010 460 65 -2000 280/12G20 RMK AO2 $
14840KMKG MKG20060220041510702/20/06 04:15:31  5-MIN KMKG 200915Z 27011G17KT 10SM OVC031 M06/M12 A3010 460 65 -1900 270/11G17 RMK AO2 $
14840KMKG MKG20060220042010102/20/06 04:20:31  5-MIN KMKG 200920Z 27011KT 10SM OVC029 M06/M12 A3010 470 65 -1900 280/11 RMK AO2 $
14840KMKG MKG20060220042510802/20/06 04:25:31  5-MIN KMKG 200925Z 27012KT 10SM BKN029 OVC034 M06/M11 A3010 460 68 -1900 270/12 RMK AO2 $
14840KMKG MKG20060220043010702/20/06 04:30:31  5-MIN KMKG 200930Z 27015G19KT 10SM OVC029 M06/M12 A3010 470 65 -1900 280/15G19 RMK AO2 $
14840KMKG MKG20060220043511402/20/06 04:35:31  5-MIN KMKG 200935Z 27017G20KT 10SM BKN029 OVC033 M06/M12 A3010 470 65 -1900 270/17G20 RMK AO2 $
14840KMKG MKG20060220044011402/20/06 04:40:31  5-MIN KMKG 200940Z 28013G20KT 10SM BKN029 OVC033 M06/M12 A3009 470 65 -1900 290/13G20 RMK AO2 $
14840KMKG MKG20060220044510702/20/06 04:45:31  5-MIN KMKG 200945Z 27012G19KT 10SM OVC029 M06/M12 A3009 470 65 -1900 270/12G19 RMK AO2 $
14840KMKG MKG20060220045012402/20/06 04:50:31  5-MIN KMKG 200950Z 27014G21KT 10SM OVC029 M06/M12 A3009 470 65 -1900 280/14G21 RMK AO2 SLP200 T10611117 $
14840KMKG MKG20060220045512402/20/06 04:55:31  5-MIN KMKG 200955Z 27013G21KT 10SM OVC027 M06/M11 A3009 470 68 -1900 280/13G21 RMK AO2 SLP201 T10611111 $
14840KMKG MKG20060220050010702/20/06 05:00:31  5-MIN KMKG 201000Z 28012G20KT 10SM OVC027 M06/M11 A3009 480 68 -1900 280/12G20 RMK AO2 $
14840KMKG MKG20060220050510102/20/06 05:05:31  5-MIN KMKG 201005Z 29012KT 10SM OVC029 M06/M11 A3009 480 65 -1900 290/12 RMK AO2 $
14840KMKG MKG20060220051010102/20/06 05:10:31  5-MIN KMKG 201010Z 28013KT 10SM OVC029 M06/M11 A3008 480 68 -1900 290/13 RMK AO2 $
14840KMKG MKG20060220051510102/20/06 05:15:31  5-MIN KMKG 201015Z 28012KT 10SM OVC029 M06/M11 A3008 480 68 -1900 280/12 RMK AO2 $
14840KMKG MKG20060220052010102/20/06 05:20:31  5-MIN KMKG 201020Z 28011KT 10SM OVC029 M06/M11 A3008 480 68 -1900 290/11 RMK AO2 $
14840KMKG MKG20060220052510102/20/06 05:25:31  5-MIN KMKG 201025Z 28011KT 10SM OVC029 M06/M11 A3008 480 68 -1900 280/11 RMK AO2 $
14840KMKG MKG20060220053010702/20/06 05:30:31  5-MIN KMKG 201030Z 28012G19KT 10SM OVC029 M06/M12 A3008 480 65 -1900 280/12G19 RMK AO2 $
14840KMKG MKG20060220053510702/20/06 05:35:31  5-MIN KMKG 201035Z 28014G19KT 10SM OVC029 M06/M12 A3008 480 65 -1900 280/14G19 RMK AO2 $
14840KMKG MKG20060220054010702/20/06 05:40:31  5-MIN KMKG 201040Z 27015G19KT 10SM OVC029 M06/M12 A3008 480 65 -1900 280/15G19 RMK AO2 $
14840KMKG MKG20060220054510702/20/06 05:45:31  5-MIN KMKG 201045Z 27011G19KT 10SM OVC029 M06/M11 A3008 480 68 -1900 280/11G19 RMK AO2 $
14840KMKG MKG20060220055010102/20/06 05:50:31  5-MIN KMKG 201050Z 27013KT 10SM OVC031 M06/M12 A3008 480 65 -1900 270/13 RMK AO2 $
14840KMKG MKG20060220055511802/20/06 05:55:31  5-MIN KMKG 201055Z 28015KT 10SM OVC031 M06/M12 A3008 480 65 -1900 290/15 RMK AO2 SLP197 T10611117 $
14840KMKG MKG20060220060010702/20/06 06:00:31  5-MIN KMKG 201100Z 28013G20KT 10SM OVC031 M06/M12 A3008 480 65 -1900 280/13G20 RMK AO2 $
14840KMKG MKG20060220060510702/20/06 06:05:31  5-MIN KMKG 201105Z 27010G20KT 10SM OVC031 M06/M12 A3008 490 65 -1900 280/10G20 RMK AO2 $
14840KMKG MKG20060220061010802/20/06 06:10:31  5-MIN KMKG 201110Z 28011KT 10SM BKN028 OVC033 M06/M12 A3007 490 65 -1900 280/11 RMK AO2 $
14840KMKG MKG20060220061510702/20/06 06:15:31  5-MIN KMKG 201115Z 27012G19KT 10SM OVC030 M06/M12 A3007 490 65 -1900 280/12G19 RMK AO2 $
14840KMKG MKG20060220062010702/20/06 06:20:31  5-MIN KMKG 201120Z 28012G19KT 10SM OVC028 M06/M11 A3007 490 68 -1900 280/12G19 RMK AO2 $
14840KMKG MKG20060220062510702/20/06 06:25:31  5-MIN KMKG 201125Z 27009G17KT 10SM OVC028 M06/M11 A3007 490 68 -1900 270/09G17 RMK AO2 $
14840KMKG MKG20060220063010102/20/06 06:30:31  5-MIN KMKG 201130Z 26011KT 10SM OVC028 M06/M11 A3007 490 68 -1900 270/11 RMK AO2 $
14840KMKG MKG20060220063510102/20/06 06:35:31  5-MIN KMKG 201135Z 27009KT 10SM OVC028 M06/M11 A3007 490 68 -1900 270/09 RMK AO2 $
14840KMKG MKG20060220064010702/20/06 06:40:31  5-MIN KMKG 201140Z 28012G19KT 10SM OVC026 M06/M11 A3007 490 68 -1900 280/12G19 RMK AO2 $
14840KMKG MKG20060220064510702/20/06 06:45:31  5-MIN KMKG 201145Z 28014G20KT 10SM OVC026 M06/M11 A3007 490 68 -1900 280/14G20 RMK AO2 $
14840KMKG MKG20060220065014202/20/06 06:50:31  5-MIN KMKG 201150Z 27010G20KT 10SM OVC026 M06/M11 A3007 500 65 -1800 280/10G20 RMK AO2 SLP192 T10561111 11056 21072 58014 $
14840KMKG MKG20060220065514202/20/06 06:55:31  5-MIN KMKG 201155Z 27010G19KT 10SM OVC026 M06/M11 A3007 490 65 -1800 270/10G19 RMK AO2 SLP193 T10561111 11056 21072 56007 $
14840KMKG MKG20060220070010702/20/06 07:00:31  5-MIN KMKG 201200Z 26010G19KT 10SM OVC026 M06/M11 A3007 490 65 -1800 260/10G19 RMK AO2 $
14840KMKG MKG20060220070510702/20/06 07:05:31  5-MIN KMKG 201205Z 28012G18KT 10SM OVC028 M06/M11 A3007 490 65 -1800 280/12G18 RMK AO2 $
14840KMKG MKG20060220071010702/20/06 07:10:31  5-MIN KMKG 201210Z 27009G18KT 10SM OVC028 M06/M12 A3007 490 65 -1900 270/09G18 RMK AO2 $
14840KMKG MKG20060220071510702/20/06 07:15:31  5-MIN KMKG 201215Z 28014G17KT 10SM OVC028 M06/M11 A3007 490 68 -1900 280/14G17 RMK AO2 $
14840KMKG MKG20060220072010702/20/06 07:20:31  5-MIN KMKG 201220Z 26010G19KT 10SM OVC028 M06/M11 A3007 490 65 -1800 260/10G19 RMK AO2 $
14840KMKG MKG20060220072510102/20/06 07:25:31  5-MIN KMKG 201225Z 28012KT 10SM OVC028 M06/M11 A3007 490 65 -1800 280/12 RMK AO2 $
14840KMKG MKG20060220073010102/20/06 07:30:31  5-MIN KMKG 201230Z 26013KT 10SM OVC028 M06/M11 A3006 500 65 -1800 260/13 RMK AO2 $
14840KMKG MKG20060220073510102/20/06 07:35:31  5-MIN KMKG 201235Z 26012KT 10SM OVC028 M06/M11 A3006 500 65 -1800 270/12 RMK AO2 $
14840KMKG MKG20060220074010102/20/06 07:40:31  5-MIN KMKG 201240Z 26010KT 10SM OVC026 M06/M11 A3006 500 65 -1800 270/10 RMK AO2 $
14840KMKG MKG20060220074510702/20/06 07:45:31  5-MIN KMKG 201245Z 26013G16KT 10SM OVC026 M06/M11 A3006 500 68 -1800 270/13G16 RMK AO2 $
14840KMKG MKG20060220075012402/20/06 07:50:31  5-MIN KMKG 201250Z 27013G18KT 10SM OVC026 M06/M11 A3006 500 65 -1800 270/13G18 RMK AO2 SLP191 T10561111 $
14840KMKG MKG20060220075512402/20/06 07:55:31  5-MIN KMKG 201255Z 25011G18KT 10SM OVC028 M06/M11 A3006 500 65 -1800 260/11G18 RMK AO2 SLP191 T10561111 $
14840KMKG MKG20060220080010702/20/06 08:00:31  5-MIN KMKG 201300Z 26014G18KT 10SM OVC028 M06/M12 A3006 500 62 -1800 260/14G18 RMK AO2 $
14840KMKG MKG20060220080510702/20/06 08:05:31  5-MIN KMKG 201305Z 27014G19KT 10SM OVC028 M06/M11 A3006 500 65 -1800 270/14G19 RMK AO2 $
14840KMKG MKG20060220081011402/20/06 08:10:31  5-MIN KMKG 201310Z 27014G19KT 10SM BKN028 OVC032 M06/M11 A3007 500 65 -1800 270/14G19 RMK AO2 $
14840KMKG MKG20060220081510102/20/06 08:15:31  5-MIN KMKG 201315Z 26009KT 10SM OVC026 M06/M11 A3006 500 68 -1800 260/09 RMK AO2 $
14840KMKG MKG20060220082010102/20/06 08:20:31  5-MIN KMKG 201320Z 26010KT 10SM OVC026 M06/M11 A3007 490 68 -1800 260/10 RMK AO2 $
14840KMKG MKG20060220082510702/20/06 08:25:31  5-MIN KMKG 201325Z 25012G17KT 10SM OVC027 M06/M11 A3006 500 68 -1800 250/12G17 RMK AO2 $
14840KMKG MKG20060220083011402/20/06 08:30:31  5-MIN KMKG 201330Z 27011G18KT 10SM BKN025 OVC032 M06/M11 A3007 490 65 -1800 270/11G18 RMK AO2 $
14840KMKG MKG20060220083511402/20/06 08:35:31  5-MIN KMKG 201335Z 27014G18KT 10SM BKN025 OVC031 M06/M11 A3007 490 65 -1800 270/14G18 RMK AO2 $
14840KMKG MKG20060220084010802/20/06 08:40:31  5-MIN KMKG 201340Z 27011KT 10SM BKN025 OVC031 M06/M11 A3007 490 65 -1800 270/11 RMK AO2 $
14840KMKG MKG20060220084510102/20/06 08:45:31  5-MIN KMKG 201345Z 27014KT 10SM OVC027 M06/M11 A3007 490 68 -1800 270/14 RMK AO2 $
14840KMKG MKG20060220085011802/20/06 08:50:31  5-MIN KMKG 201350Z 26013KT 10SM OVC027 M06/M11 A3007 490 68 -1800 260/13 RMK AO2 SLP193 T10561106 $
14840KMKG MKG20060220085511802/20/06 08:55:31  5-MIN KMKG 201355Z 26014KT 10SM OVC027 M06/M11 A3008 490 65 -1800 260/14 RMK AO2 SLP195 T10561111 $
14840KMKG MKG20060220090011902/20/06 09:00:31  5-MIN KMKG 201400Z 26011KT 10SM -SN OVC027 M06/M11 A3007 490 68 -1800 260/11 RMK AO2 SNB1359 P0000 $
14840KMKG MKG20060220090512402/20/06 09:05:31  5-MIN KMKG 201405Z 26014G21KT 9SM -SN OVC027 M06/M11 A3007 490 68 -1800 260/14G21 RMK AO2 SNB1359 P0000 $
14840KMKG MKG20060220091012402/20/06 09:10:31  5-MIN KMKG 201410Z 27011G21KT 9SM -SN OVC027 M06/M11 A3007 490 68 -1800 270/11G21 RMK AO2 SNB1359 P0000 $
14840KMKG MKG20060220091513102/20/06 09:15:31  5-MIN KMKG 201415Z 25015G19KT 9SM -SN BKN025 OVC030 M06/M10 A3007 490 71 -1800 260/15G19 RMK AO2 SNB1359 P0000 $
14840KMKG MKG20060220092012402/20/06 09:20:31  5-MIN KMKG 201420Z 25012G19KT 8SM -SN OVC025 M06/M11 A3007 490 68 -1800 260/12G19 RMK AO2 SNB1359 P0000 $
14840KMKG MKG20060220092512402/20/06 09:25:31  5-MIN KMKG 201425Z 26016G21KT 6SM -SN OVC025 M06/M10 A3007 490 71 -1800 270/16G21 RMK AO2 SNB1359 P0000 $
14840KMKG MKG20060220093012402/20/06 09:30:31  5-MIN KMKG 201430Z 25010G21KT 5SM -SN OVC025 M06/M10 A3007 490 71 -1800 260/10G21 RMK AO2 SNB1359 P0000 $
14840KMKG MKG20060220093511802/20/06 09:35:31  5-MIN KMKG 201435Z 25013KT 7SM -SN OVC025 M06/M10 A3007 490 71 -1800 250/13 RMK AO2 SNB1359 P0000 $
14840KMKG MKG20060220094011802/20/06 09:40:31  5-MIN KMKG 201440Z 25013KT 9SM -SN OVC025 M06/M11 A3007 490 68 -1800 250/13 RMK AO2 SNB1359 P0000 $
14840KMKG MKG20060220094511802/20/06 09:45:31  5-MIN KMKG 201445Z 26011KT 8SM -SN OVC027 M06/M11 A3006 500 68 -1800 260/11 RMK AO2 SNB1359 P0000 $
14840KMKG MKG20060220095014702/20/06 09:50:31  5-MIN KMKG 201450Z 26013KT 6SM -SN OVC027 M06/M10 A3006 500 71 -1800 260/13 RMK AO2 SNB1359 SLP190 P0000 60000 T10561100 56007 $
14840KMKG MKG20060220095515302/20/06 09:55:31  5-MIN KMKG 201455Z 26013G18KT 6SM -SN OVC027 M06/M10 A3006 500 71 -1800 270/13G18 RMK AO2 SNB1359 SLP191 P0000 60000 T10561100 58003 $
14840KMKG MKG20060220100011602/20/06 10:00:31  5-MIN KMKG 201500Z 26014G18KT 7SM -SN OVC027 M06/M11 A3006 500 68 -1800 260/14G18 RMK AO2 P0000 $
14840KMKG MKG20060220100511602/20/06 10:05:31  5-MIN KMKG 201505Z 26011G18KT 7SM -SN OVC027 M06/M10 A3006 500 71 -1800 260/11G18 RMK AO2 P0000 $
14840KMKG MKG20060220101011602/20/06 10:10:31  5-MIN KMKG 201510Z 24013G18KT 8SM -SN OVC027 M06/M10 A3006 500 71 -1800 250/13G18 RMK AO2 P0000 $
14840KMKG MKG20060220101511702/20/06 10:15:31  5-MIN KMKG 201515Z 26013KT 9SM -SN BKN026 OVC030 M06/M10 A3006 510 71 -1800 260/13 RMK AO2 P0000 $
14840KMKG MKG20060220102011602/20/06 10:20:31  5-MIN KMKG 201520Z 26011G17KT 9SM -SN OVC026 M05/M11 A3005 510 65 -1700 260/11G17 RMK AO2 P0000 $
14840KMKG MKG20060220102511602/20/06 10:25:31  5-MIN KMKG 201525Z 25013G18KT 9SM -SN OVC028 M06/M11 A3006 510 65 -1800 260/13G18 RMK AO2 P0000 $
14840KMKG MKG20060220103011702/20/06 10:30:31  5-MIN KMKG 201530Z 25011KT 9SM -SN BKN026 OVC031 M05/M11 A3005 510 65 -1700 260/11 RMK AO2 P0000 $
14840KMKG MKG20060220103511702/20/06 10:35:31  5-MIN KMKG 201535Z 25013KT 9SM -SN BKN026 OVC031 M05/M10 A3005 510 68 -1700 250/13 RMK AO2 P0000 $
14840KMKG MKG20060220104012302/20/06 10:40:31  5-MIN KMKG 201540Z 24013G17KT 9SM -SN BKN026 OVC031 M05/M10 A3005 510 68 -1700 250/13G17 RMK AO2 P0000 $
14840KMKG MKG20060220104512302/20/06 10:45:31  5-MIN KMKG 201545Z 25013G17KT 8SM -SN BKN026 OVC031 M05/M10 A3005 510 68 -1700 260/13G17 RMK AO2 P0000 $
14840KMKG MKG20060220105013402/20/06 10:50:31  5-MIN KMKG 201550Z 24013KT 8SM -SN BKN024 OVC031 M05/M10 A3005 510 68 -1700 250/13 RMK AO2 SLP187 P0000 T10501100 $
14840KMKG MKG20060220105513402/20/06 10:55:31  5-MIN KMKG 201555Z 25015KT 8SM -SN BKN026 OVC031 M05/M10 A3005 510 68 -1700 250/15 RMK AO2 SLP187 P0000 T10501100 $
14840KMKG MKG20060220110011702/20/06 11:00:31  5-MIN KMKG 201600Z 26014KT 9SM -SN BKN026 OVC031 M05/M11 A3005 510 65 -1800 260/14 RMK AO2 P0000 $
14840KMKG MKG20060220110512302/20/06 11:05:31  5-MIN KMKG 201605Z 26014G19KT 9SM -SN BKN024 OVC031 M05/M10 A3005 510 68 -1800 260/14G19 RMK AO2 P0000 $
14840KMKG MKG20060220111012302/20/06 11:10:31  5-MIN KMKG 201610Z 24012G19KT 9SM -SN BKN026 OVC031 M05/M10 A3006 500 68 -1800 250/12G19 RMK AO2 P0000 $
14840KMKG MKG20060220111511702/20/06 11:15:31  5-MIN KMKG 201615Z 26014KT 9SM -SN BKN026 OVC031 M05/M10 A3006 500 68 -1800 260/14 RMK AO2 P0000 $
14840KMKG MKG20060220112012302/20/06 11:20:31  5-MIN KMKG 201620Z 26012G20KT 9SM -SN BKN026 OVC031 M04/M10 A3005 510 65 -1700 260/12G20 RMK AO2 P0000 $
14840KMKG MKG20060220112512302/20/06 11:25:31  5-MIN KMKG 201625Z 26014G20KT 9SM -SN SCT024 OVC029 M04/M10 A3005 510 65 -1700 260/14G20 RMK AO2 P0000 $
14840KMKG MKG20060220113012502/20/06 11:30:31  5-MIN KMKG 201630Z 24015G19KT 9SM SCT024 OVC029 M04/M10 A3005 510 65 -1700 250/15G19 RMK AO2 SNE29 P0000 $
14840KMKG MKG20060220113511302/20/06 11:35:31  5-MIN KMKG 201635Z 27010KT 10SM OVC028 M04/M10 A3005 510 65 -1700 270/10 RMK AO2 SNE29 P0000 $
14840KMKG MKG20060220114011902/20/06 11:40:31  5-MIN KMKG 201640Z 25012G19KT 10SM OVC028 M04/M10 A3005 510 65 -1700 260/12G19 RMK AO2 SNE29 P0000 $
14840KMKG MKG20060220114511902/20/06 11:45:31  5-MIN KMKG 201645Z 24016G21KT 10SM OVC028 M04/M10 A3005 510 65 -1700 240/16G21 RMK AO2 SNE29 P0000 $
14840KMKG MKG20060220115013602/20/06 11:50:31  5-MIN KMKG 201650Z 26014G21KT 10SM OVC028 M04/M10 A3005 520 63 -1600 260/14G21 RMK AO2 SNE29 SLP185 P0000 T10391100 $
14840KMKG MKG20060220115513602/20/06 11:55:31  5-MIN KMKG 201655Z 25015G18KT 10SM OVC028 M04/M10 A3005 510 63 -1600 250/15G18 RMK AO2 SNE29 SLP185 P0000 T10391100 $
14840KMKG MKG20060220120010702/20/06 12:00:31  5-MIN KMKG 201700Z 25014G22KT 10SM OVC028 M04/M10 A3005 510 63 -1600 260/14G22 RMK AO2 $
14840KMKG MKG20060220120511402/20/06 12:05:31  5-MIN KMKG 201705Z 25015G22KT 10SM BKN028 OVC034 M04/M10 A3005 520 63 -1600 260/15G22 RMK AO2 $
14840KMKG MKG20060220121010702/20/06 12:10:31  5-MIN KMKG 201710Z 25018G21KT 10SM OVC028 M04/M10 A3004 520 63 -1600 250/18G21 RMK AO2 $
14840KMKG MKG20060220121510702/20/06 12:15:31  5-MIN KMKG 201715Z 25013G21KT 10SM OVC030 M04/M09 A3004 520 65 -1600 260/13G21 RMK AO2 $
14840KMKG MKG20060220122010702/20/06 12:20:31  5-MIN KMKG 201720Z 24019G22KT 10SM OVC030 M04/M09 A3004 520 65 -1600 240/19G22 RMK AO2 $
14840KMKG MKG20060220122510702/20/06 12:25:31  5-MIN KMKG 201725Z 25014G22KT 10SM OVC030 M04/M10 A3003 530 63 -1600 250/14G22 RMK AO2 $
14840KMKG MKG20060220123010702/20/06 12:30:31  5-MIN KMKG 201730Z 25010G20KT 10SM OVC030 M03/M09 A3003 520 63 -1500 250/10G20 RMK AO2 $
14840KMKG MKG20060220123510702/20/06 12:35:31  5-MIN KMKG 201735Z 24016G20KT 10SM OVC030 M03/M09 A3003 530 63 -1500 240/16G20 RMK AO2 $
14840KMKG MKG20060220124011402/20/06 12:40:31  5-MIN KMKG 201740Z 26015G22KT 10SM BKN030 OVC035 M03/M10 A3003 530 60 -1500 260/15G22 RMK AO2 $
14840KMKG MKG20060220124511402/20/06 12:45:31  5-MIN KMKG 201745Z 25017G23KT 10SM BKN030 OVC036 M03/M10 A3003 530 60 -1500 260/17G23 RMK AO2 $
14840KMKG MKG20060220125014802/20/06 12:50:31  5-MIN KMKG 201750Z 24018G23KT 10SM OVC032 M03/M10 A3003 530 60 -1500 240/18G23 RMK AO2 SLP177 60000 T10331100 11033 21061 58003 $
14840KMKG MKG20060220213512502/20/06 21:35:31  5-MIN KMKG 210235Z 25018G25KT 10SM OVC038 M01/M08 A2985 690 60 -1000 260/18G25 RMK AO2 PK WND 24026/0219 $
14840KMKG MKG20060220214012502/20/06 21:40:31  5-MIN KMKG 210240Z 25017G25KT 10SM OVC038 M01/M08 A2985 700 60 -1000 250/17G25 RMK AO2 PK WND 24026/0219 $
14840KMKG MKG20060220214512502/20/06 21:45:31  5-MIN KMKG 210245Z 25014G24KT 10SM OVC038 M01/M08 A2985 700 60 -1000 260/14G24 RMK AO2 PK WND 24026/0219 $
14840KMKG MKG20060220215014802/20/06 21:50:31  5-MIN KMKG 210250Z 25018G24KT 10SM OVC038 M01/M07 A2985 700 63 -1000 250/18G24 RMK AO2 PK WND 24026/0219 SLP116 T10111072 56017 $
14840KMKG MKG20060220215514802/20/06 21:55:31  5-MIN KMKG 210255Z 26020G28KT 10SM OVC038 M01/M08 A2985 690 60 -1000 260/20G28 RMK AO2 PK WND 26028/0253 SLP118 T10111078 56013 $
14840KMKG MKG20060220220010702/20/06 22:00:31  5-MIN KMKG 210300Z 26018G28KT 10SM OVC038 M01/M08 A2985 690 60 -1000 260/18G28 RMK AO2 $
14840KMKG MKG20060220220510702/20/06 22:05:31  5-MIN KMKG 210305Z 26017G24KT 10SM OVC038 M01/M08 A2985 690 60 -1000 260/17G24 RMK AO2 $
14840KMKG MKG20060220221010702/20/06 22:10:31  5-MIN KMKG 210310Z 25017G22KT 10SM OVC038 M01/M07 A2985 700 63 -1000 260/17G22 RMK AO2 $
14840KMKG MKG20060220221510702/20/06 22:15:31  5-MIN KMKG 210315Z 25018G23KT 10SM OVC038 M01/M07 A2985 700 63 -1000 260/18G23 RMK AO2 $
14840KMKG MKG20060220222010702/20/06 22:20:31  5-MIN KMKG 210320Z 25016G23KT 10SM OVC038 M01/M07 A2985 700 63 -1000 260/16G23 RMK AO2 $
14840KMKG MKG20060220222512502/20/06 22:25:31  5-MIN KMKG 210325Z 26016G26KT 10SM OVC038 M01/M07 A2986 690 63 -1000 260/16G26 RMK AO2 PK WND 24026/0321 $
14840KMKG MKG20060220223012502/20/06 22:30:31  5-MIN KMKG 210330Z 26019G27KT 10SM OVC038 M01/M08 A2985 690 58 -1000 260/19G27 RMK AO2 PK WND 26027/0327 $
14840KMKG MKG20060220223512502/20/06 22:35:31  5-MIN KMKG 210335Z 26017G27KT 10SM OVC038 M01/M08 A2985 690 58 -1000 260/17G27 RMK AO2 PK WND 26027/0327 $
14840KMKG MKG20060220224012502/20/06 22:40:31  5-MIN KMKG 210340Z 26014G24KT 10SM OVC036 M01/M08 A2985 690 60 -1000 260/14G24 RMK AO2 PK WND 26027/0327 $
14840KMKG MKG20060220224512502/20/06 22:45:31  5-MIN KMKG 210345Z 25018G24KT 10SM OVC036 M01/M08 A2985 690 60 -1000 260/18G24 RMK AO2 PK WND 26027/0327 $
14840KMKG MKG20060220225014202/20/06 22:50:31  5-MIN KMKG 210350Z 25018G24KT 10SM OVC036 M01/M08 A2985 690 60 -1000 260/18G24 RMK AO2 PK WND 26027/0327 SLP117 T10111078 $
14840KMKG MKG20060220225514202/20/06 22:55:31  5-MIN KMKG 210355Z 26017G25KT 10SM OVC038 M01/M08 A2985 700 60 -1000 260/17G25 RMK AO2 PK WND 26027/0327 SLP115 T10111078 $
14840KMKG MKG20060220230010702/20/06 23:00:31  5-MIN KMKG 210400Z 26015G25KT 10SM OVC036 M01/M08 A2985 700 60 -1000 260/15G25 RMK AO2 $
14840KMKG MKG20060220230510702/20/06 23:05:31  5-MIN KMKG 210405Z 25014G22KT 10SM OVC036 M01/M08 A2985 700 60 -1000 260/14G22 RMK AO2 $
14840KMKG MKG20060220231012502/20/06 23:10:31  5-MIN KMKG 210410Z 26018G26KT 10SM OVC038 M01/M07 A2985 700 63 -1000 270/18G26 RMK AO2 PK WND 26026/0407 $
14840KMKG MKG20060220231512502/20/06 23:15:31  5-MIN KMKG 210415Z 25017G26KT 10SM OVC036 M01/M07 A2984 700 63 -1000 260/17G26 RMK AO2 PK WND 26026/0407 $
14840KMKG MKG20060220232012602/20/06 23:20:31  5-MIN KMKG 210420Z 26012KT 10SM BKN033 OVC042 M01/M07 A2984 700 63 -1000 260/12 RMK AO2 PK WND 26026/0407 $
14840KMKG MKG20060220232512502/20/06 23:25:31  5-MIN KMKG 210425Z 25019G23KT 10SM OVC035 M01/M07 A2984 700 63 -1000 250/19G23 RMK AO2 PK WND 26026/0407 $
14840KMKG MKG20060220233013202/20/06 23:30:31  5-MIN KMKG 210430Z 26017G23KT 10SM SCT030 OVC038 M01/M07 A2984 700 63 -1000 260/17G23 RMK AO2 PK WND 26026/0407 $
14840KMKG MKG20060220233513202/20/06 23:35:31  5-MIN KMKG 210435Z 26015G22KT 10SM SCT030 OVC036 M01/M07 A2984 710 66 -1000 260/15G22 RMK AO2 PK WND 26026/0407 $
14840KMKG MKG20060220234013202/20/06 23:40:31  5-MIN KMKG 210440Z 25014G21KT 10SM BKN032 OVC041 M01/M07 A2984 700 66 -1000 250/14G21 RMK AO2 PK WND 26026/0407 $
14840KMKG MKG20060220234512502/20/06 23:45:31  5-MIN KMKG 210445Z 25016G21KT 10SM OVC032 M01/M07 A2984 700 66 -1000 250/16G21 RMK AO2 PK WND 26026/0407 $
14840KMKG MKG20060220235015902/20/06 23:50:31  5-MIN KMKG 210450Z 26018G23KT 10SM FEW027 OVC032 M01/M07 A2984 700 66 -1000 260/18G23 RMK AO2 PK WND 26026/0407 SLP114 T10111067 410111072 $
14840KMKG MKG20060220235515202/20/06 23:55:31  5-MIN KMKG 210455Z 25018G24KT 10SM OVC032 M01/M07 A2984 710 66 -1000 260/18G24 RMK AO2 PK WND 26026/0407 SLP112 T10111067 410111072 $
14840KMKG MKG20060221000010702/21/06 00:00:32  5-MIN KMKG 210500Z 25018G24KT 10SM OVC032 M02/M07 A2984 710 69 -1100 260/18G24 RMK AO2 $
14840KMKG MKG20060221000510702/21/06 00:05:31  5-MIN KMKG 210505Z 25016G24KT 10SM BKN032 M02/M07 A2983 710 69 -1100 250/16G24 RMK AO2 $
14840KMKG MKG20060221001010702/21/06 00:10:31  5-MIN KMKG 210510Z 25017G22KT 10SM BKN032 M01/M07 A2983 710 66 -1000 260/17G22 RMK AO2 $
14840KMKG MKG20060221001510702/21/06 00:15:31  5-MIN KMKG 210515Z 24020G25KT 10SM BKN032 M01/M07 A2983 720 66 -1000 250/20G25 RMK AO2 $
14840KMKG MKG20060221002010702/21/06 00:20:31  5-MIN KMKG 210520Z 25017G25KT 10SM BKN032 M01/M07 A2982 720 66 -1000 250/17G25 RMK AO2 $
14840KMKG MKG20060221002511402/21/06 00:25:31  5-MIN KMKG 210525Z 24015G25KT 10SM SCT029 SCT037 M02/M07 A2982 720 69 -1100 250/15G25 RMK AO2 $
14840KMKG MKG20060221003011402/21/06 00:30:31  5-MIN KMKG 210530Z 24018G24KT 10SM FEW029 BKN037 M01/M07 A2982 720 66 -1000 250/18G24 RMK AO2 $
14840KMKG MKG20060221003512102/21/06 00:35:31  5-MIN KMKG 210535Z 25019G24KT 10SM FEW029 BKN035 BKN042 M01/M07 A2982 720 66 -1000 250/19G24 RMK AO2 $
14840KMKG MKG20060221004012102/21/06 00:40:31  5-MIN KMKG 210540Z 25020G25KT 10SM FEW029 SCT035 BKN120 M01/M07 A2982 720 66 -1000 250/20G25 RMK AO2 $
14840KMKG MKG20060221004512102/21/06 00:45:31  5-MIN KMKG 210545Z 25018G25KT 10SM FEW029 SCT037 BKN120 M01/M06 A2982 730 69 -1000 250/18G25 RMK AO2 $
14840KMKG MKG20060221005016702/21/06 00:50:31  5-MIN KMKG 210550Z 24018G27KT 10SM FEW029 BKN110 M01/M06 A2982 730 69 -1000 250/18G27 RMK AO2 PK WND 24027/0548 SLP105 T10111061 11011 21017 56013 $
14840KMKG MKG20060221005516702/21/06 00:55:31  5-MIN KMKG 210555Z 25015G27KT 10SM FEW039 BKN110 M01/M06 A2982 730 69 -1000 250/15G27 RMK AO2 PK WND 24027/0548 SLP105 T10111061 11011 21017 58011 $
14840KMKG MKG20060221010012102/21/06 01:00:31  5-MIN KMKG 210600Z 24021G26KT 10SM FEW029 SCT039 BKN110 M01/M06 A2982 730 69 -1000 250/21G26 RMK AO2 $
14840KMKG MKG20060221010512002/21/06 01:05:31  5-MIN KMKG 210605Z 24018G25KT 10SM FEW029 SCT041 OVC110 M01/M06 A2981 730 66 -900 250/18G25 RMK AO2 $
14840KMKG MKG20060221011012002/21/06 01:10:31  5-MIN KMKG 210610Z 25020G24KT 10SM FEW031 SCT042 OVC110 M01/M06 A2981 730 66 -900 250/20G24 RMK AO2 $
14840KMKG MKG20060221011512002/21/06 01:15:31  5-MIN KMKG 210615Z 25018G24KT 10SM FEW031 SCT042 OVC110 M01/M06 A2981 730 66 -900 250/18G24 RMK AO2 $
14840KMKG MKG20060221012012002/21/06 01:20:31  5-MIN KMKG 210620Z 25018G24KT 10SM FEW031 BKN090 OVC110 M01/M06 A2981 730 66 -900 260/18G24 RMK AO2 $
14840KMKG MKG20060221012513502/21/06 01:25:31  5-MIN KMKG 210625Z 25017G23KT 10SM FEW034 BKN090 OVC110 M01/M06 A2981 730 66 -900 250/17G23 RMK AO2 CIG 045 RWY 14 $
14840KMKG MKG20060221013013502/21/06 01:30:31  5-MIN KMKG 210630Z 25016G25KT 10SM FEW034 BKN090 OVC110 M01/M06 A2981 730 66 -900 250/16G25 RMK AO2 CIG 046 RWY 14 $
14840KMKG MKG20060221013512002/21/06 01:35:31  5-MIN KMKG 210635Z 25017G25KT 10SM FEW034 BKN090 OVC110 M01/M06 A2981 730 69 -900 250/17G25 RMK AO2 $
14840KMKG MKG20060221014012002/21/06 01:40:31  5-MIN KMKG 210640Z 24018G24KT 10SM FEW035 BKN090 OVC110 M01/M06 A2981 740 69 -900 250/18G24 RMK AO2 $
14840KMKG MKG20060221014511302/21/06 01:45:31  5-MIN KMKG 210645Z 25015G24KT 10SM FEW035 OVC090 M01/M06 A2980 740 69 -900 250/15G24 RMK AO2 $
14840KMKG MKG20060221015013002/21/06 01:50:31  5-MIN KMKG 210650Z 25017G25KT 10SM FEW035 OVC090 M01/M06 A2981 730 69 -900 250/17G25 RMK AO2 SLP102 T10061056 $
14840KMKG MKG20060221015513002/21/06 01:55:31  5-MIN KMKG 210655Z 25019G25KT 10SM FEW035 OVC090 M01/M06 A2980 740 66 -900 250/19G25 RMK AO2 SLP101 T10061061 $
14840KMKG MKG20060221020013102/21/06 02:00:31  5-MIN KMKG 210700Z 25020G26KT 10SM FEW035 OVC090 M01/M06 A2980 740 66 -900 260/20G26 RMK AO2 PK WND 25026/0700 $
14840KMKG MKG20060221020513102/21/06 02:05:31  5-MIN KMKG 210705Z 26015G26KT 10SM FEW035 OVC090 M01/M06 A2980 740 69 -900 260/15G26 RMK AO2 PK WND 25026/0701 $
14840KMKG MKG20060221021013102/21/06 02:10:31  5-MIN KMKG 210710Z 25020G26KT 10SM FEW035 OVC090 M01/M06 A2980 740 66 -900 260/20G26 RMK AO2 PK WND 25026/0701 $
14840KMKG MKG20060221021513102/21/06 02:15:31  5-MIN KMKG 210715Z 26016G24KT 10SM FEW035 OVC090 M01/M06 A2981 740 66 -900 260/16G24 RMK AO2 PK WND 25026/0701 $
14840KMKG MKG20060221022013102/21/06 02:20:31  5-MIN KMKG 210720Z 26017G26KT 10SM FEW033 OVC090 M01/M06 A2981 740 66 -900 260/17G26 RMK AO2 PK WND 24026/0717 $
14840KMKG MKG20060221022513802/21/06 02:25:31  5-MIN KMKG 210725Z 26018G27KT 10SM FEW035 SCT070 OVC090 M01/M06 A2981 740 66 -900 260/18G27 RMK AO2 PK WND 26027/0721 $
14840KMKG MKG20060221023013802/21/06 02:30:31  5-MIN KMKG 210730Z 26017G27KT 10SM FEW033 BKN070 OVC090 M01/M06 A2981 740 66 -900 270/17G27 RMK AO2 PK WND 26027/0721 $
14840KMKG MKG20060221023513802/21/06 02:35:31  5-MIN KMKG 210735Z 27019G27KT 10SM FEW033 BKN070 OVC090 M01/M06 A2981 730 66 -900 270/19G27 RMK AO2 PK WND 27027/0735 $
14840KMKG MKG20060221024013802/21/06 02:40:31  5-MIN KMKG 210740Z 27015G27KT 10SM FEW029 BKN070 OVC090 M01/M06 A2981 730 66 -900 270/15G27 RMK AO2 PK WND 27027/0735 $
14840KMKG MKG20060221024513802/21/06 02:45:31  5-MIN KMKG 210745Z 27016G26KT 10SM FEW029 BKN070 OVC090 M01/M06 A2981 730 66 -900 270/16G26 RMK AO2 PK WND 27027/0735 $
14840KMKG MKG20060221025015502/21/06 02:50:31  5-MIN KMKG 210750Z 27018G26KT 10SM FEW031 BKN065 OVC090 M01/M06 A2981 730 66 -900 270/18G26 RMK AO2 PK WND 27027/0735 SLP103 T10061061 $
14840KMKG MKG20060221025515502/21/06 02:55:31  5-MIN KMKG 210755Z 27019G26KT 10SM FEW031 BKN060 OVC090 M01/M06 A2981 730 66 -900 270/19G26 RMK AO2 PK WND 27027/0735 SLP102 T10061061 $
14840KMKG MKG20060221030012002/21/06 03:00:31  5-MIN KMKG 210800Z 27015G25KT 10SM FEW031 BKN060 OVC090 M01/M06 A2981 740 66 -900 270/15G25 RMK AO2 $
14840KMKG MKG20060221030511302/21/06 03:05:31  5-MIN KMKG 210805Z 28019G22KT 10SM FEW031 OVC060 M01/M06 A2981 730 66 -900 280/19G22 RMK AO2 $
14840KMKG MKG20060221031011302/21/06 03:10:31  5-MIN KMKG 210810Z 28018G24KT 10SM SCT031 OVC060 M01/M06 A2981 730 66 -900 280/18G24 RMK AO2 $
14840KMKG MKG20060221031511302/21/06 03:15:31  5-MIN KMKG 210815Z 28018G24KT 10SM BKN031 OVC060 M01/M06 A2981 730 66 -900 280/18G24 RMK AO2 $
14840KMKG MKG20060221032011302/21/06 03:20:31  5-MIN KMKG 210820Z 28013G24KT 10SM BKN031 OVC060 M01/M06 A2981 730 66 -900 280/13G24 RMK AO2 $
14840KMKG MKG20060221032511302/21/06 03:25:31  5-MIN KMKG 210825Z 28013G24KT 10SM BKN031 OVC060 M01/M06 A2981 730 66 -900 280/13G24 RMK AO2 $
14840KMKG MKG20060221033011302/21/06 03:30:31  5-MIN KMKG 210830Z 28016G20KT 10SM BKN031 OVC060 M01/M06 A2981 730 66 -900 280/16G20 RMK AO2 $
14840KMKG MKG20060221033510702/21/06 03:35:31  5-MIN KMKG 210835Z 28014G21KT 10SM OVC029 M01/M06 A2980 740 69 -1000 280/14G21 RMK AO2 $
14840KMKG MKG20060221034010702/21/06 03:40:31  5-MIN KMKG 210840Z 28017G21KT 10SM OVC029 M01/M06 A2981 740 69 -1000 290/17G21 RMK AO2 $
14840KMKG MKG20060221034510702/21/06 03:45:31  5-MIN KMKG 210845Z 28014G24KT 10SM OVC029 M01/M07 A2981 740 66 -1000 290/14G24 RMK AO2 $
14840KMKG MKG20060221035013002/21/06 03:50:31  5-MIN KMKG 210850Z 28015G24KT 10SM OVC029 M01/M07 A2981 740 66 -1000 290/15G24 RMK AO2 SLP102 T10111067 58011 $
14840KMKG MKG20060221035513002/21/06 03:55:31  5-MIN KMKG 210855Z 29013G21KT 10SM OVC029 M01/M07 A2981 730 66 -1000 300/13G21 RMK AO2 SLP103 T10111067 55002 $
14840KMKG MKG20060221040010702/21/06 04:00:31  5-MIN KMKG 210900Z 29016G22KT 10SM OVC029 M01/M07 A2981 730 66 -1000 290/16G22 RMK AO2 $
14840KMKG MKG20060221040510702/21/06 04:05:31  5-MIN KMKG 210905Z 29015G22KT 10SM OVC029 M01/M07 A2981 730 66 -1000 290/15G22 RMK AO2 $
14840KMKG MKG20060221041010102/21/06 04:10:31  5-MIN KMKG 210910Z 29013KT 10SM OVC029 M01/M07 A2981 730 66 -1000 290/13 RMK AO2 $
14840KMKG MKG20060221041510102/21/06 04:15:31  5-MIN KMKG 210915Z 28014KT 10SM OVC029 M01/M07 A2981 730 66 -1000 290/14 RMK AO2 $
14840KMKG MKG20060221042010702/21/06 04:20:31  5-MIN KMKG 210920Z 30016G21KT 10SM OVC029 M01/M07 A2982 730 66 -1000 300/16G21 RMK AO2 $
14840KMKG MKG20060221042510702/21/06 04:25:31  5-MIN KMKG 210925Z 29019G24KT 10SM OVC029 M02/M07 A2982 720 66 -1100 290/19G24 RMK AO2 $
14840KMKG MKG20060221043010702/21/06 04:30:31  5-MIN KMKG 210930Z 30014G24KT 10SM OVC029 M02/M07 A2982 720 66 -1100 300/14G24 RMK AO2 $
14840KMKG MKG20060221043510702/21/06 04:35:31  5-MIN KMKG 210935Z 29018G22KT 10SM OVC029 M02/M07 A2983 720 66 -1100 290/18G22 RMK AO2 $
14840KMKG MKG20060221044010702/21/06 04:40:31  5-MIN KMKG 210940Z 30012G22KT 10SM OVC029 M02/M07 A2983 720 66 -1100 300/12G22 RMK AO2 $
14840KMKG MKG20060221044510702/21/06 04:45:31  5-MIN KMKG 210945Z 29014G20KT 10SM OVC029 M02/M07 A2983 720 66 -1100 300/14G20 RMK AO2 $
14840KMKG MKG20060221045012402/21/06 04:50:31  5-MIN KMKG 210950Z 29012G20KT 10SM OVC029 M02/M07 A2983 720 66 -1100 300/12G20 RMK AO2 SLP109 T10171072 $
14840KMKG MKG20060221045512402/21/06 04:55:31  5-MIN KMKG 210955Z 30014G19KT 10SM OVC029 M02/M07 A2983 710 66 -1100 310/14G19 RMK AO2 SLP109 T10171072 $
14840KMKG MKG20060221050010702/21/06 05:00:31  5-MIN KMKG 211000Z 30013G22KT 10SM OVC029 M02/M08 A2983 710 63 -1100 310/13G22 RMK AO2 $
14840KMKG MKG20060221050510702/21/06 05:05:31  5-MIN KMKG 211005Z 30012G22KT 10SM OVC029 M02/M07 A2984 710 66 -1100 300/12G22 RMK AO2 $
14840KMKG MKG20060221051010102/21/06 05:10:31  5-MIN KMKG 211010Z 29010KT 10SM OVC029 M02/M07 A2984 710 66 -1100 300/10 RMK AO2 $
14840KMKG MKG20060221051510702/21/06 05:15:31  5-MIN KMKG 211015Z 29011G18KT 10SM OVC029 M02/M07 A2984 710 66 -1100 300/11G18 RMK AO2 $
14840KMKG MKG20060221052010702/21/06 05:20:31  5-MIN KMKG 211020Z 30014G18KT 10SM OVC029 M02/M08 A2984 700 63 -1100 300/14G18 RMK AO2 $
14840KMKG MKG20060221052511402/21/06 05:25:31  5-MIN KMKG 211025Z 30010G18KT 10SM BKN029 OVC034 M02/M08 A2984 700 66 -1200 310/10G18 RMK AO2 $
14840KMKG MKG20060221053010102/21/06 05:30:31  5-MIN KMKG 211030Z 30013KT 10SM OVC031 M02/M08 A2984 700 63 -1200 300/13 RMK AO2 $
14840KMKG MKG20060221053510102/21/06 05:35:31  5-MIN KMKG 211035Z 30012KT 10SM OVC031 M02/M08 A2985 700 66 -1200 300/12 RMK AO2 $
14840KMKG MKG20060221054010102/21/06 05:40:31  5-MIN KMKG 211040Z 30013KT 10SM OVC031 M02/M08 A2985 700 66 -1200 300/13 RMK AO2 $
14840KMKG MKG20060221054510102/21/06 05:45:31  5-MIN KMKG 211045Z 30014KT 10SM OVC033 M02/M08 A2986 690 63 -1200 300/14 RMK AO2 $
14840KMKG MKG20060221055011802/21/06 05:50:31  5-MIN KMKG 211050Z 29013KT 10SM OVC033 M02/M08 A2986 690 63 -1200 290/13 RMK AO2 SLP118 T10221083 $
14840KMKG MKG20060221055511802/21/06 05:55:31  5-MIN KMKG 211055Z 30012KT 10SM OVC033 M02/M08 A2986 690 63 -1200 300/12 RMK AO2 SLP119 T10221083 $
14840KMKG MKG20060221060010102/21/06 06:00:31  5-MIN KMKG 211100Z 30011KT 10SM OVC033 M02/M08 A2986 690 63 -1200 310/11 RMK AO2 $
14840KMKG MKG20060221060510702/21/06 06:05:31  5-MIN KMKG 211105Z 29013G18KT 10SM OVC033 M02/M08 A2986 690 66 -1200 300/13G18 RMK AO2 $
14840KMKG MKG20060221061010702/21/06 06:10:31  5-MIN KMKG 211110Z 30012G18KT 10SM OVC033 M02/M08 A2986 680 63 -1200 310/12G18 RMK AO2 $
14840KMKG MKG20060221061510702/21/06 06:15:31  5-MIN KMKG 211115Z 30017G20KT 10SM OVC033 M02/M08 A2986 690 63 -1200 300/17G20 RMK AO2 $
14840KMKG MKG20060221062010702/21/06 06:20:31  5-MIN KMKG 211120Z 30012G20KT 10SM OVC033 M02/M08 A2986 690 63 -1200 300/12G20 RMK AO2 $
14840KMKG MKG20060221062510102/21/06 06:25:31  5-MIN KMKG 211125Z 29012KT 10SM OVC033 M02/M08 A2986 680 63 -1200 300/12 RMK AO2 $
14840KMKG MKG20060221063010102/21/06 06:30:31  5-MIN KMKG 211130Z 29013KT 10SM OVC033 M02/M08 A2987 680 66 -1200 300/13 RMK AO2 $
14840KMKG MKG20060221063510102/21/06 06:35:31  5-MIN KMKG 211135Z 30014KT 10SM OVC033 M02/M08 A2987 680 63 -1200 300/14 RMK AO2 $
14840KMKG MKG20060221064010102/21/06 06:40:31  5-MIN KMKG 211140Z 30012KT 10SM OVC033 M02/M09 A2987 680 60 -1200 310/12 RMK AO2 $
14840KMKG MKG20060221064510102/21/06 06:45:31  5-MIN KMKG 211145Z 29014KT 10SM OVC033 M02/M09 A2987 680 60 -1200 290/14 RMK AO2 $
14840KMKG MKG20060221065015502/21/06 06:50:31  5-MIN KMKG 211150Z 30012G19KT 10SM FEW029 OVC035 M02/M09 A2987 670 58 -1200 300/12G19 RMK AO2 SLP124 4/001 T10221094 11006 21022 55002 $
14840KMKG MKG20060221065514802/21/06 06:55:31  5-MIN KMKG 211155Z 31011G19KT 10SM OVC035 M02/M09 A2987 670 58 -1200 320/11G19 RMK AO2 SLP125 4/001 T10221094 11006 21022 51021 $
14840KMKG MKG20060221070010102/21/06 07:00:31  5-MIN KMKG 211200Z 30013KT 10SM OVC035 M02/M09 A2988 670 58 -1200 310/13 RMK AO2 $
14840KMKG MKG20060221070510102/21/06 07:05:31  5-MIN KMKG 211205Z 30010KT 10SM OVC035 M02/M09 A2988 670 58 -1200 310/10 RMK AO2 $
14840KMKG MKG20060221071010702/21/06 07:10:31  5-MIN KMKG 211210Z 29014G17KT 10SM OVC037 M02/M09 A2988 670 60 -1200 300/14G17 RMK AO2 $
14840KMKG MKG20060221071510102/21/06 07:15:31  5-MIN KMKG 211215Z 31011KT 10SM OVC037 M02/M09 A2988 670 58 -1200 310/11 RMK AO2 $
14840KMKG MKG20060221072010102/21/06 07:20:31  5-MIN KMKG 211220Z 31010KT 10SM OVC037 M02/M09 A2988 670 58 -1200 310/10 RMK AO2 $
14840KMKG MKG20060221072510702/21/06 07:25:31  5-MIN KMKG 211225Z 31010G16KT 10SM OVC037 M02/M09 A2988 670 58 -1200 310/10G16 RMK AO2 $
14840KMKG MKG20060221073010702/21/06 07:30:31  5-MIN KMKG 211230Z 31010G16KT 10SM OVC037 M02/M09 A2988 670 60 -1200 310/10G16 RMK AO2 $
14840KMKG MKG20060221073510102/21/06 07:35:31  5-MIN KMKG 211235Z 30008KT 10SM OVC035 M02/M09 A2988 670 60 -1200 310/08 RMK AO2 $
14840KMKG MKG20060221074010102/21/06 07:40:31  5-MIN KMKG 211240Z 32010KT 10SM OVC035 M02/M09 A2988 660 60 -1200 320/10 RMK AO2 $
14840KMKG MKG20060221074510102/21/06 07:45:31  5-MIN KMKG 211245Z 30010KT 10SM OVC035 M02/M09 A2988 660 60 -1200 300/10 RMK AO2 $
14840KMKG MKG20060221075011802/21/06 07:50:31  5-MIN KMKG 211250Z 31009KT 10SM OVC035 M02/M08 A2989 660 63 -1200 310/09 RMK AO2 SLP130 T10221083 $
14840KMKG MKG20060221075511802/21/06 07:55:31  5-MIN KMKG 211255Z 31010KT 10SM OVC033 M02/M08 A2989 660 63 -1200 310/10 RMK AO2 SLP130 T10221083 $
14840KMKG MKG20060221080009902/21/06 08:00:31  5-MIN KMKG 211300Z 31010KT 10SM OVC033 M02/M09 A2989 650 60 -1200 320/10 RMK AO2
14840KMKG MKG20060221080509902/21/06 08:05:31  5-MIN KMKG 211305Z 31012KT 10SM OVC035 M02/M09 A2989 650 60 -1200 320/12 RMK AO2
14840KMKG MKG20060221081009902/21/06 08:10:31  5-MIN KMKG 211310Z 32009KT 10SM OVC035 M02/M09 A2990 650 58 -1200 320/09 RMK AO2
14840KMKG MKG20060221081509902/21/06 08:15:31  5-MIN KMKG 211315Z 32010KT 10SM OVC035 M02/M09 A2990 650 58 -1200 320/10 RMK AO2
14840KMKG MKG20060221082009902/21/06 08:20:31  5-MIN KMKG 211320Z 31009KT 10SM OVC035 M03/M09 A2990 650 60 -1300 310/09 RMK AO2
14840KMKG MKG20060221082509902/21/06 08:25:31  5-MIN KMKG 211325Z 32009KT 10SM OVC035 M02/M09 A2991 640 58 -1200 320/09 RMK AO2
14840KMKG MKG20060221083009902/21/06 08:30:31  5-MIN KMKG 211330Z 30010KT 10SM OVC035 M02/M09 A2991 640 60 -1200 310/10 RMK AO2
14840KMKG MKG20060221083509902/21/06 08:35:31  5-MIN KMKG 211335Z 31007KT 10SM OVC035 M02/M09 A2991 640 58 -1200 310/07 RMK AO2
14840KMKG MKG20060221084009902/21/06 08:40:31  5-MIN KMKG 211340Z 30009KT 10SM OVC035 M02/M09 A2992 630 60 -1200 300/09 RMK AO2
14840KMKG MKG20060221084509902/21/06 08:45:31  5-MIN KMKG 211345Z 30010KT 10SM OVC035 M03/M09 A2992 630 63 -1300 310/10 RMK AO2
14840KMKG MKG20060221085011602/21/06 08:50:31  5-MIN KMKG 211350Z 30011KT 10SM OVC035 M02/M09 A2993 620 58 -1200 310/11 RMK AO2 SLP142 T10221094
14840KMKG MKG20060221085511602/21/06 08:55:31  5-MIN KMKG 211355Z 30011KT 10SM OVC035 M03/M10 A2993 620 58 -1300 300/11 RMK AO2 SLP143 T10281100
14840KMKG MKG20060221090010502/21/06 09:00:31  5-MIN KMKG 211400Z 31008G15KT 10SM OVC035 M03/M10 A2993 620 58 -1300 320/08G15 RMK AO2
14840KMKG MKG20060221090509902/21/06 09:05:31  5-MIN KMKG 211405Z 30009KT 10SM OVC035 M03/M09 A2993 620 60 -1300 300/09 RMK AO2
14840KMKG MKG20060221091009902/21/06 09:10:31  5-MIN KMKG 211410Z 30007KT 10SM OVC035 M03/M09 A2994 610 60 -1300 310/07 RMK AO2
14840KMKG MKG20060221091510502/21/06 09:15:31  5-MIN KMKG 211415Z 31008G15KT 10SM OVC035 M03/M10 A2994 610 58 -1300 310/08G15 RMK AO2
14840KMKG MKG20060221092009902/21/06 09:20:31  5-MIN KMKG 211420Z 30008KT 10SM OVC035 M03/M10 A2994 610 58 -1300 300/08 RMK AO2
14840KMKG MKG20060221092509902/21/06 09:25:31  5-MIN KMKG 211425Z 31008KT 10SM OVC035 M03/M09 A2994 610 60 -1300 310/08 RMK AO2
14840KMKG MKG20060221093009902/21/06 09:30:31  5-MIN KMKG 211430Z 32011KT 10SM OVC035 M02/M10 A2995 610 55 -1300 320/11 RMK AO2
14840KMKG MKG20060221190509602/21/06 19:05:31  5-MIN KMKG 220005Z 23005KT 10SM CLR M04/M09 A2995 600 68 -1500 230/05 RMK AO2
14840KMKG MKG20060221191009602/21/06 19:10:31  5-MIN KMKG 220010Z 23004KT 10SM CLR M04/M09 A2995 600 68 -1500 230/04 RMK AO2
14840KMKG MKG20060221191509602/21/06 19:15:31  5-MIN KMKG 220015Z 22004KT 10SM CLR M04/M09 A2996 600 68 -1500 230/04 RMK AO2
14840KMKG MKG20060221192009602/21/06 19:20:31  5-MIN KMKG 220020Z 20004KT 10SM CLR M04/M09 A2995 600 71 -1600 210/04 RMK AO2
14840KMKG MKG20060221192509602/21/06 19:25:31  5-MIN KMKG 220025Z 20003KT 10SM CLR M05/M09 A2995 600 74 -1600 200/03 RMK AO2
14840KMKG MKG20060221193009602/21/06 19:30:31  5-MIN KMKG 220030Z 20003KT 10SM CLR M04/M09 A2995 610 68 -1600 210/03 RMK AO2
14840KMKG MKG20060221193509602/21/06 19:35:31  5-MIN KMKG 220035Z 18003KT 10SM CLR M04/M09 A2995 610 71 -1600 190/03 RMK AO2
14840KMKG MKG20060221194009602/21/06 19:40:31  5-MIN KMKG 220040Z 17003KT 10SM CLR M04/M09 A2994 610 71 -1500 170/03 RMK AO2
14840KMKG MKG20060221194509602/21/06 19:45:31  5-MIN KMKG 220045Z 00000KT 10SM CLR M04/M09 A2994 610 68 -1500 000/00 RMK AO2
14840KMKG MKG20060221195011302/21/06 19:50:31  5-MIN KMKG 220050Z 00000KT 10SM CLR M05/M09 A2994 610 71 -1600 000/00 RMK AO2 SLP148 T10501094
14840KMKG MKG20060221195511302/21/06 19:55:31  5-MIN KMKG 220055Z 00000KT 10SM CLR M06/M09 A2994 610 77 -1800 000/00 RMK AO2 SLP147 T10611094
14840KMKG MKG20060221200009602/21/06 20:00:31  5-MIN KMKG 220100Z 00000KT 10SM CLR M06/M09 A2994 610 77 -1800 000/00 RMK AO2
14840KMKG MKG20060221200509602/21/06 20:05:31  5-MIN KMKG 220105Z 00000KT 10SM CLR M06/M09 A2994 610 77 -1800 000/00 RMK AO2
14840KMKG MKG20060221201009602/21/06 20:10:31  5-MIN KMKG 220110Z 00000KT 10SM CLR M06/M09 A2994 610 77 -1800 000/00 RMK AO2
14840KMKG MKG20060221201509602/21/06 20:15:31  5-MIN KMKG 220115Z 00000KT 10SM CLR M06/M09 A2994 610 74 -1700 000/00 RMK AO2
14840KMKG MKG20060221202009602/21/06 20:20:31  5-MIN KMKG 220120Z 00000KT 10SM CLR M06/M09 A2994 620 74 -1700 000/00 RMK AO2
14840KMKG MKG20060221202509602/21/06 20:25:31  5-MIN KMKG 220125Z 00000KT 10SM CLR M06/M09 A2994 620 74 -1700 000/00 RMK AO2
14840KMKG MKG20060221203009602/21/06 20:30:31  5-MIN KMKG 220130Z 00000KT 10SM CLR M06/M09 A2993 620 77 -1800 000/00 RMK AO2
14840KMKG MKG20060221203509602/21/06 20:35:31  5-MIN KMKG 220135Z 00000KT 10SM CLR M06/M09 A2993 620 77 -1800 000/00 RMK AO2
14840KMKG MKG20060221204009602/21/06 20:40:31  5-MIN KMKG 220140Z 00000KT 10SM CLR M06/M09 A2993 620 77 -1800 000/00 RMK AO2
14840KMKG MKG20060221204509602/21/06 20:45:31  5-MIN KMKG 220145Z 00000KT 10SM CLR M06/M09 A2993 620 77 -1800 000/00 RMK AO2
14840KMKG MKG20060221205011302/21/06 20:50:31  5-MIN KMKG 220150Z 00000KT 10SM CLR M06/M09 A2993 630 74 -1700 000/00 RMK AO2 SLP143 T10561094
14840KMKG MKG20060221205511302/21/06 20:55:31  5-MIN KMKG 220155Z 00000KT 10SM CLR M06/M09 A2992 630 77 -1700 000/00 RMK AO2 SLP142 T10611094
14840KMKG MKG20060221210009602/21/06 21:00:31  5-MIN KMKG 220200Z 00000KT 10SM CLR M07/M09 A2992 630 81 -1800 000/00 RMK AO2
14840KMKG MKG20060221210509602/21/06 21:05:31  5-MIN KMKG 220205Z 00000KT 10SM CLR M07/M09 A2992 630 81 -1800 000/00 RMK AO2
14840KMKG MKG20060221211009602/21/06 21:10:31  5-MIN KMKG 220210Z 13005KT 10SM CLR M07/M10 A2992 630 81 -1900 140/05 RMK AO2
14840KMKG MKG20060221211509602/21/06 21:15:31  5-MIN KMKG 220215Z 15003KT 10SM CLR M07/M09 A2992 630 81 -1800 150/03 RMK AO2
14840KMKG MKG20060221212009602/21/06 21:20:31  5-MIN KMKG 220220Z 00000KT 10SM CLR M07/M09 A2992 630 81 -1800 000/00 RMK AO2
14840KMKG MKG20060221212509602/21/06 21:25:31  5-MIN KMKG 220225Z 00000KT 10SM CLR M06/M09 A2992 630 77 -1700 000/00 RMK AO2
14840KMKG MKG20060221213009602/21/06 21:30:31  5-MIN KMKG 220230Z 00000KT 10SM CLR M07/M09 A2992 630 81 -1800 000/00 RMK AO2
14840KMKG MKG20060221213509602/21/06 21:35:31  5-MIN KMKG 220235Z 00000KT 10SM CLR M07/M09 A2991 640 81 -1800 000/00 RMK AO2
14840KMKG MKG20060221214009602/21/06 21:40:31  5-MIN KMKG 220240Z 00000KT 10SM CLR M07/M09 A2991 640 81 -1800 000/00 RMK AO2
14840KMKG MKG20060221214509602/21/06 21:45:31  5-MIN KMKG 220245Z 00000KT 10SM CLR M07/M10 A2992 640 81 -1900 000/00 RMK AO2
14840KMKG MKG20060221215011902/21/06 21:50:31  5-MIN KMKG 220250Z 00000KT 10SM CLR M07/M10 A2991 640 81 -1900 000/00 RMK AO2 SLP139 T10721100 58007
14840KMKG MKG20060221215511902/21/06 21:55:31  5-MIN KMKG 220255Z 00000KT 10SM CLR M07/M09 A2991 640 84 -1900 000/00 RMK AO2 SLP139 T10721094 56014
14840KMKG MKG20060221220009602/21/06 22:00:31  5-MIN KMKG 220300Z 00000KT 10SM CLR M07/M09 A2992 630 84 -1900 000/00 RMK AO2
14840KMKG MKG20060221220509602/21/06 22:05:31  5-MIN KMKG 220305Z 00000KT 10SM CLR M07/M09 A2992 630 84 -1900 000/00 RMK AO2
14840KMKG MKG20060221221009602/21/06 22:10:31  5-MIN KMKG 220310Z 00000KT 10SM CLR M07/M10 A2992 630 81 -1900 000/00 RMK AO2
14840KMKG MKG20060221221509602/21/06 22:15:31  5-MIN KMKG 220315Z 00000KT 10SM CLR M07/M10 A2992 630 81 -1900 000/00 RMK AO2
14840KMKG MKG20060221222009602/21/06 22:20:31  5-MIN KMKG 220320Z 14003KT 10SM CLR M07/M09 A2992 630 81 -1800 140/03 RMK AO2
14840KMKG MKG20060221222509602/21/06 22:25:31  5-MIN KMKG 220325Z 13003KT 10SM CLR M07/M09 A2991 640 84 -1900 130/03 RMK AO2
14840KMKG MKG20060221223009602/21/06 22:30:31  5-MIN KMKG 220330Z 13003KT 10SM CLR M07/M10 A2991 640 81 -1900 130/03 RMK AO2
14840KMKG MKG20060221223509602/21/06 22:35:31  5-MIN KMKG 220335Z 12003KT 10SM CLR M08/M10 A2991 640 84 -1900 120/03 RMK AO2
14840KMKG MKG20060221224009602/21/06 22:40:31  5-MIN KMKG 220340Z 00000KT 10SM CLR M07/M09 A2992 630 84 -1900 000/00 RMK AO2
14840KMKG MKG20060221224509602/21/06 22:45:31  5-MIN KMKG 220345Z 16003KT 10SM CLR M08/M10 A2992 630 84 -2000 160/03 RMK AO2
14840KMKG MKG20060221225011302/21/06 22:50:31  5-MIN KMKG 220350Z 15003KT 10SM CLR M08/M10 A2991 640 84 -1900 160/03 RMK AO2 SLP139 T10781100
14840KMKG MKG20060221225511302/21/06 22:55:31  5-MIN KMKG 220355Z 00000KT 10SM CLR M08/M10 A2992 640 88 -2000 000/00 RMK AO2 SLP139 T10831100
14840KMKG MKG20060221230009602/21/06 23:00:31  5-MIN KMKG 220400Z 13004KT 10SM CLR M08/M11 A2991 640 84 -2000 130/04 RMK AO2
14840KMKG MKG20060221230509602/21/06 23:05:31  5-MIN KMKG 220405Z 14004KT 10SM CLR M08/M11 A2991 640 84 -2000 140/04 RMK AO2
14840KMKG MKG20060221231009602/21/06 23:10:31  5-MIN KMKG 220410Z 16004KT 10SM CLR M08/M10 A2992 630 88 -2000 160/04 RMK AO2
14840KMKG MKG20060221231509602/21/06 23:15:31  5-MIN KMKG 220415Z 16004KT 10SM CLR M08/M10 A2991 640 84 -1900 160/04 RMK AO2
14840KMKG MKG20060221232009602/21/06 23:20:31  5-MIN KMKG 220420Z 15004KT 10SM CLR M07/M10 A2991 640 81 -1900 160/04 RMK AO2
14840KMKG MKG20060221232509602/21/06 23:25:31  5-MIN KMKG 220425Z 15003KT 10SM CLR M08/M10 A2992 630 84 -2000 160/03 RMK AO2
14840KMKG MKG20060221233009602/21/06 23:30:31  5-MIN KMKG 220430Z 15004KT 10SM CLR M08/M10 A2991 640 84 -1900 160/04 RMK AO2
14840KMKG MKG20060221233509602/21/06 23:35:31  5-MIN KMKG 220435Z 16003KT 10SM CLR M08/M10 A2991 640 84 -1900 160/03 RMK AO2
14840KMKG MKG20060221234009602/21/06 23:40:31  5-MIN KMKG 220440Z 16004KT 10SM CLR M08/M10 A2992 630 84 -1900 160/04 RMK AO2
14840KMKG MKG20060221234509602/21/06 23:45:31  5-MIN KMKG 220445Z 15004KT 10SM CLR M07/M10 A2991 640 81 -1900 150/04 RMK AO2
14840KMKG MKG20060221235012302/21/06 23:50:31  5-MIN KMKG 220450Z 14005KT 10SM CLR M08/M10 A2991 640 84 -1900 140/05 RMK AO2 SLP137 T10781100 410061083
14840KMKG MKG20060221235512302/21/06 23:55:31  5-MIN KMKG 220455Z 15006KT 10SM CLR M08/M10 A2991 640 84 -1900 150/06 RMK AO2 SLP137 T10781100 410061083
14840KMKG MKG20060222000009602/22/06 00:00:32  5-MIN KMKG 220500Z 16003KT 10SM CLR M07/M10 A2990 650 81 -1900 160/03 RMK AO2
14840KMKG MKG20060222000509602/22/06 00:05:31  5-MIN KMKG 220505Z 00000KT 10SM CLR M07/M09 A2990 650 81 -1800 000/00 RMK AO2
14840KMKG MKG20060222001009602/22/06 00:10:31  5-MIN KMKG 220510Z 00000KT 10SM CLR M07/M09 A2990 650 81 -1800 000/00 RMK AO2
14840KMKG MKG20060222001509602/22/06 00:15:31  5-MIN KMKG 220515Z 16003KT 10SM CLR M07/M09 A2990 650 81 -1800 160/03 RMK AO2
14840KMKG MKG20060222002009602/22/06 00:20:31  5-MIN KMKG 220520Z 15003KT 10SM CLR M07/M09 A2990 650 81 -1800 150/03 RMK AO2
14840KMKG MKG20060222002509602/22/06 00:25:31  5-MIN KMKG 220525Z 14003KT 10SM CLR M07/M09 A2990 650 81 -1800 150/03 RMK AO2
14840KMKG MKG20060222003009502/22/06 00:30:31  5-MIN KMKG 220530Z 14003KT 9SM CLR M07/M09 A2990 650 81 -1800 150/03 RMK AO2
14840KMKG MKG20060222003509502/22/06 00:35:31  5-MIN KMKG 220535Z 14004KT 9SM CLR M07/M09 A2990 650 81 -1800 140/04 RMK AO2
14840KMKG MKG20060222004009502/22/06 00:40:31  5-MIN KMKG 220540Z 14003KT 9SM CLR M07/M09 A2989 650 84 -1900 140/03 RMK AO2
14840KMKG MKG20060222004509502/22/06 00:45:31  5-MIN KMKG 220545Z 14004KT 9SM CLR M07/M09 A2989 660 84 -1800 150/04 RMK AO2
14840KMKG MKG20060222005013002/22/06 00:50:31  5-MIN KMKG 220550Z 15003KT 9SM CLR M07/M09 A2989 660 81 -1800 150/03 RMK AO2 SLP130 T10671094 11039 21083 56014
14840KMKG MKG20060222005513002/22/06 00:55:31  5-MIN KMKG 220555Z 14004KT 9SM CLR M07/M09 A2989 660 84 -1800 150/04 RMK AO2 SLP130 T10721094 11039 21083 58009
14840KMKG MKG20060222010009502/22/06 01:00:31  5-MIN KMKG 220600Z 14005KT 9SM CLR M08/M09 A2988 660 88 -1900 150/05 RMK AO2
14840KMKG MKG20060222010509502/22/06 01:05:31  5-MIN KMKG 220605Z 15005KT 8SM CLR M08/M10 A2988 670 84 -1900 150/05 RMK AO2
14840KMKG MKG20060222011009502/22/06 01:10:31  5-MIN KMKG 220610Z 15004KT 8SM CLR M08/M11 A2988 670 84 -2000 150/04 RMK AO2
14840KMKG MKG20060222011509502/22/06 01:15:31  5-MIN KMKG 220615Z 15003KT 8SM CLR M08/M11 A2988 670 84 -2000 150/03 RMK AO2
14840KMKG MKG20060222012009502/22/06 01:20:31  5-MIN KMKG 220620Z 15004KT 8SM CLR M08/M10 A2988 670 84 -1900 150/04 RMK AO2
14840KMKG MKG20060222012509802/22/06 01:25:31  5-MIN KMKG 220625Z 15004KT 8SM FEW075 M08/M10 A2987 670 84 -1900 150/04 RMK AO2
14840KMKG MKG20060222013009802/22/06 01:30:31  5-MIN KMKG 220630Z 15004KT 8SM SCT080 M08/M09 A2987 670 88 -1900 150/04 RMK AO2
14840KMKG MKG20060222013509802/22/06 01:35:31  5-MIN KMKG 220635Z 14005KT 8SM BKN080 M08/M09 A2987 680 88 -1900 150/05 RMK AO2
14840KMKG MKG20060222014009802/22/06 01:40:31  5-MIN KMKG 220640Z 14005KT 8SM BKN080 M08/M09 A2987 680 88 -1900 140/05 RMK AO2
14840KMKG MKG20060222014509802/22/06 01:45:31  5-MIN KMKG 220645Z 14006KT 8SM BKN080 M07/M09 A2987 680 84 -1800 140/06 RMK AO2
14840KMKG MKG20060222015011502/22/06 01:50:31  5-MIN KMKG 220650Z 13004KT 8SM OVC080 M07/M09 A2987 680 84 -1800 140/04 RMK AO2 SLP123 T10721094
14840KMKG MKG20060222015511502/22/06 01:55:31  5-MIN KMKG 220655Z 14005KT 8SM OVC080 M07/M09 A2987 680 88 -1800 150/05 RMK AO2 SLP123 T10721089
14840KMKG MKG20060222020009802/22/06 02:00:31  5-MIN KMKG 220700Z 14004KT 8SM OVC080 M07/M09 A2987 680 84 -1700 140/04 RMK AO2
14840KMKG MKG20060222020509802/22/06 02:05:31  5-MIN KMKG 220705Z 14004KT 8SM OVC080 M07/M09 A2987 680 84 -1700 140/04 RMK AO2
14840KMKG MKG20060222021009802/22/06 02:10:31  5-MIN KMKG 220710Z 13004KT 8SM OVC080 M07/M09 A2986 680 84 -1700 140/04 RMK AO2
14840KMKG MKG20060222021510502/22/06 02:15:31  5-MIN KMKG 220715Z 13004KT 8SM BKN080 OVC095 M07/M09 A2986 680 84 -1700 140/04 RMK AO2
14840KMKG MKG20060222022009802/22/06 02:20:31  5-MIN KMKG 220720Z 13004KT 8SM OVC085 M07/M08 A2986 680 88 -1700 140/04 RMK AO2
14840KMKG MKG20060222022509802/22/06 02:25:31  5-MIN KMKG 220725Z 13003KT 8SM OVC085 M07/M08 A2986 680 88 -1700 140/03 RMK AO2
14840KMKG MKG20060222023009802/22/06 02:30:31  5-MIN KMKG 220730Z 00000KT 8SM OVC085 M06/M08 A2986 680 84 -1700 000/00 RMK AO2
14840KMKG MKG20060222023512002/22/06 02:35:31  5-MIN KMKG 220735Z 00000KT 8SM SCT065 OVC085 M06/M08 A2986 680 84 -1700 000/00 RMK AO2 CIG 070 RWY 14
14840KMKG MKG20060222024010502/22/06 02:40:31  5-MIN KMKG 220740Z 12003KT 8SM BKN065 OVC085 M06/M08 A2987 680 84 -1700 130/03 RMK AO2
14840KMKG MKG20060222024510502/22/06 02:45:31  5-MIN KMKG 220745Z 12003KT 8SM BKN070 OVC085 M06/M08 A2986 680 84 -1700 120/03 RMK AO2
14840KMKG MKG20060222025012202/22/06 02:50:31  5-MIN KMKG 220750Z 00000KT 8SM BKN070 OVC085 M06/M08 A2986 680 88 -1700 000/00 RMK AO2 SLP122 T10611078
14840KMKG MKG20060222025512202/22/06 02:55:31  5-MIN KMKG 220755Z 12003KT 8SM BKN065 OVC085 M06/M08 A2986 680 84 -1600 120/03 RMK AO2 SLP121 T10561078
14840KMKG MKG20060222030009802/22/06 03:00:31  5-MIN KMKG 220800Z 12004KT 8SM OVC070 M06/M08 A2986 690 84 -1600 130/04 RMK AO2
14840KMKG MKG20060222030510502/22/06 03:05:31  5-MIN KMKG 220805Z 14006KT 8SM BKN070 OVC085 M06/M08 A2986 690 84 -1600 150/06 RMK AO2
14840KMKG MKG20060222031010502/22/06 03:10:31  5-MIN KMKG 220810Z 14007KT 8SM BKN070 OVC085 M05/M08 A2986 690 81 -1500 140/07 RMK AO2
14840KMKG MKG20060222031510502/22/06 03:15:31  5-MIN KMKG 220815Z 13006KT 8SM BKN060 OVC075 M05/M08 A2985 690 81 -1500 140/06 RMK AO2
14840KMKG MKG20060222032010502/22/06 03:20:31  5-MIN KMKG 220820Z 14007KT 8SM BKN055 OVC080 M05/M08 A2985 700 81 -1500 150/07 RMK AO2
14840KMKG MKG20060222032511202/22/06 03:25:31  5-MIN KMKG 220825Z 14006KT 8SM BKN055 BKN070 OVC090 M05/M07 A2984 700 84 -1500 140/06 RMK AO2
14840KMKG MKG20060222033011202/22/06 03:30:31  5-MIN KMKG 220830Z 14005KT 7SM BKN050 BKN065 OVC080 M04/M07 A2985 700 81 -1400 150/05 RMK AO2
14840KMKG MKG20060222033510502/22/06 03:35:31  5-MIN KMKG 220835Z 14005KT 7SM BKN050 OVC065 M04/M07 A2984 700 81 -1400 140/05 RMK AO2
14840KMKG MKG20060222034010502/22/06 03:40:31  5-MIN KMKG 220840Z 15006KT 8SM BKN050 OVC065 M04/M07 A2984 710 81 -1400 150/06 RMK AO2
14840KMKG MKG20060222034510502/22/06 03:45:31  5-MIN KMKG 220845Z 14004KT 7SM BKN055 OVC070 M04/M07 A2984 710 81 -1400 140/04 RMK AO2
14840KMKG MKG20060222035012802/22/06 03:50:31  5-MIN KMKG 220850Z 14007KT 7SM BKN050 OVC065 M04/M07 A2984 710 81 -1400 140/07 RMK AO2 SLP112 T10441072 58009
14840KMKG MKG20060222035512802/22/06 03:55:31  5-MIN KMKG 220855Z 15007KT 7SM BKN048 OVC060 M04/M07 A2983 710 81 -1400 150/07 RMK AO2 SLP111 T10441072 58018
14840KMKG MKG20060222040010502/22/06 04:00:31  5-MIN KMKG 220900Z 15007KT 8SM BKN045 OVC060 M04/M07 A2983 710 78 -1300 160/07 RMK AO2
14840KMKG MKG20060222040510502/22/06 04:05:31  5-MIN KMKG 220905Z 14005KT 8SM BKN043 OVC055 M04/M07 A2983 720 78 -1300 140/05 RMK AO2
14840KMKG MKG20060222041010502/22/06 04:10:31  5-MIN KMKG 220910Z 14004KT 8SM BKN041 OVC055 M04/M07 A2983 720 78 -1300 140/04 RMK AO2
14840KMKG MKG20060222041511202/22/06 04:15:31  5-MIN KMKG 220915Z 18003KT 8SM BKN041 BKN055 OVC070 M04/M07 A2983 710 78 -1300 190/03 RMK AO2
14840KMKG MKG20060222042010502/22/06 04:20:31  5-MIN KMKG 220920Z 15005KT 8SM BKN043 OVC060 M04/M07 A2982 720 78 -1300 150/05 RMK AO2
14840KMKG MKG20060222042510502/22/06 04:25:31  5-MIN KMKG 220925Z VRB03KT 8SM BKN047 OVC060 M04/M07 A2982 720 81 -1300 VRB/03 RMK AO2
14840KMKG MKG20060222043010502/22/06 04:30:31  5-MIN KMKG 220930Z 17004KT 8SM BKN047 OVC060 M03/M07 A2982 730 78 -1300 180/04 RMK AO2
14840KMKG MKG20060222043510502/22/06 04:35:31  5-MIN KMKG 220935Z 15004KT 8SM BKN049 OVC060 M03/M07 A2981 730 78 -1300 150/04 RMK AO2
14840KMKG MKG20060222044010502/22/06 04:40:31  5-MIN KMKG 220940Z 16004KT 8SM BKN060 OVC075 M03/M07 A2981 730 78 -1300 160/04 RMK AO2
14840KMKG MKG20060222044510502/22/06 04:45:31  5-MIN KMKG 220945Z 17005KT 9SM BKN060 OVC080 M03/M07 A2981 730 75 -1200 170/05 RMK AO2
14840KMKG MKG20060222045012202/22/06 04:50:31  5-MIN KMKG 220950Z 16005KT 9SM BKN060 OVC085 M03/M06 A2981 740 78 -1200 160/05 RMK AO2 SLP101 T10281061
14840KMKG MKG20060222045512202/22/06 04:55:31  5-MIN KMKG 220955Z 16006KT 9SM BKN060 OVC085 M03/M06 A2980 740 78 -1200 160/06 RMK AO2 SLP100 T10281061
14840KMKG MKG20060222050012002/22/06 05:00:31  5-MIN KMKG 221000Z 17007KT 9SM SCT065 OVC085 M03/M06 A2980 740 78 -1200 170/07 RMK AO2 CIG 065 RWY 14
14840KMKG MKG20060222050510502/22/06 05:05:31  5-MIN KMKG 221005Z 17007KT 9SM BKN070 OVC090 M03/M06 A2980 740 78 -1200 180/07 RMK AO2
14840KMKG MKG20060222051010502/22/06 05:10:31  5-MIN KMKG 221010Z 17008KT 9SM BKN075 OVC090 M02/M06 A2980 740 75 -1100 170/08 RMK AO2
14840KMKG MKG20060222051509802/22/06 05:15:31  5-MIN KMKG 221015Z 17007KT 9SM OVC080 M03/M06 A2980 750 78 -1200 170/07 RMK AO2
14840KMKG MKG20060222052009802/22/06 05:20:31  5-MIN KMKG 221020Z 18007KT 9SM OVC085 M03/M06 A2980 740 78 -1200 180/07 RMK AO2
14840KMKG MKG20060222052510502/22/06 05:25:31  5-MIN KMKG 221025Z 18007KT 9SM BKN080 OVC095 M03/M06 A2979 750 81 -1200 190/07 RMK AO2
14840KMKG MKG20060222053011202/22/06 05:30:31  5-MIN KMKG 221030Z 19006KT 9SM FEW060 BKN075 OVC090 M02/M06 A2979 750 78 -1100 190/06 RMK AO2
14840KMKG MKG20060222053510502/22/06 05:35:31  5-MIN KMKG 221035Z 18007KT 9SM BKN070 BKN090 M03/M06 A2979 750 81 -1200 190/07 RMK AO2
14840KMKG MKG20060222054012002/22/06 05:40:31  5-MIN KMKG 221040Z 19005KT 9SM FEW065 BKN085 M03/M06 A2980 750 81 -1200 190/05 RMK AO2 CIG 070 RWY 14
14840KMKG MKG20060222054510502/22/06 05:45:31  5-MIN KMKG 221045Z 20004KT 8SM FEW065 SCT085 M03/M06 A2979 750 81 -1200 210/04 RMK AO2
14840KMKG MKG20060222055011502/22/06 05:50:31  5-MIN KMKG 221050Z 21003KT 8SM FEW065 M03/M06 A2979 750 85 -1200 210/03 RMK AO2 SLP097 T10331056
14840KMKG MKG20060222055511502/22/06 05:55:31  5-MIN KMKG 221055Z 21005KT 8SM FEW065 M03/M06 A2980 750 81 -1200 210/05 RMK AO2 SLP098 T10281056
14840KMKG MKG20060222060009802/22/06 06:00:31  5-MIN KMKG 221100Z 20006KT 8SM FEW080 M03/M05 A2980 750 85 -1200 210/06 RMK AO2
14840KMKG MKG20060222060509802/22/06 06:05:31  5-MIN KMKG 221105Z 20006KT 8SM SCT080 M02/M04 A2980 740 85 -1100 210/06 RMK AO2
14840KMKG MKG20060222061009802/22/06 06:10:31  5-MIN KMKG 221110Z 20008KT 8SM BKN080 M02/M04 A2980 740 85 -1000 210/08 RMK AO2
14840KMKG MKG20060222061509802/22/06 06:15:31  5-MIN KMKG 221115Z 20009KT 8SM BKN075 M01/M03 A2980 750 85 -1000 200/09 RMK AO2
14840KMKG MKG20060222062009802/22/06 06:20:31  5-MIN KMKG 221120Z 20008KT 8SM BKN075 M01/M03 A2979 750 88 -1000 210/08 RMK AO2
14840KMKG MKG20060222062509702/22/06 06:25:31  5-MIN KMKG 221125Z 19008KT 8SM OVC075 M01/M03 A2979 750 85 -900 200/08 RMK AO2
14840KMKG MKG20060222063009702/22/06 06:30:31  5-MIN KMKG 221130Z 20009KT 8SM OVC075 M01/M02 A2979 750 88 -900 210/09 RMK AO2
14840KMKG MKG20060222063509602/22/06 06:35:31  5-MIN KMKG 221135Z 20008KT 8SM OVC075 00/M02 A2979 750 85 -800 200/08 RMK AO2
14840KMKG MKG20060222064009602/22/06 06:40:31  5-MIN KMKG 221140Z 20009KT 8SM OVC075 00/M02 A2979 750 85 -800 200/09 RMK AO2
14840KMKG MKG20060222064509602/22/06 06:45:31  5-MIN KMKG 221145Z 20008KT 8SM OVC070 00/M02 A2979 750 85 -800 210/08 RMK AO2
14840KMKG MKG20060222065013102/22/06 06:50:31  5-MIN KMKG 221150Z 22007KT 8SM OVC070 00/M02 A2979 750 88 -800 220/07 RMK AO2 SLP096 T00001017 10000 21083 58018
14840KMKG MKG20060222065513102/22/06 06:55:31  5-MIN KMKG 221155Z 21007KT 7SM OVC070 00/M02 A2979 750 88 -800 210/07 RMK AO2 SLP096 T00001017 10000 21083 56014
14840KMKG MKG20060222070009602/22/06 07:00:31  5-MIN KMKG 221200Z 22006KT 7SM OVC070 00/M02 A2979 750 85 -800 230/06 RMK AO2
14840KMKG MKG20060222071010302/22/06 07:10:31  5-MIN KMKG 221210Z 24009KT 8SM BKN070 OVC085 01/M02 A2979 750 78 -700 240/09 RMK AO2
14840KMKG MKG20060222071510302/22/06 07:15:31  5-MIN KMKG 221215Z 24009KT 9SM BKN070 OVC085 02/M02 A2979 750 75 -600 240/09 RMK AO2
14840KMKG MKG20060222072009602/22/06 07:20:31  5-MIN KMKG 221220Z 24009KT 9SM OVC080 02/M02 A2979 750 75 -600 240/09 RMK AO2
14840KMKG MKG20060222072509602/22/06 07:25:31  5-MIN KMKG 221225Z 25010KT 9SM OVC080 01/M02 A2979 750 78 -700 250/10 RMK AO2
14840KMKG MKG20060222073010302/22/06 07:30:31  5-MIN KMKG 221230Z 24010KT 9SM BKN070 OVC080 02/M02 A2979 750 75 -600 240/10 RMK AO2
14840KMKG MKG20060222073510302/22/06 07:35:31  5-MIN KMKG 221235Z 25010KT 9SM BKN070 OVC080 02/M02 A2979 750 75 -600 250/10 RMK AO2
14840KMKG MKG20060222074010302/22/06 07:40:31  5-MIN KMKG 221240Z 25010KT 9SM BKN070 OVC085 02/M02 A2980 740 75 -600 260/10 RMK AO2
14840KMKG MKG20060222074510302/22/06 07:45:31  5-MIN KMKG 221245Z 25010KT 9SM BKN070 OVC080 02/M02 A2980 740 75 -600 250/10 RMK AO2
14840KMKG MKG20060222075011302/22/06 07:50:31  5-MIN KMKG 221250Z 26009KT 8SM OVC070 02/M02 A2980 740 75 -600 260/09 RMK AO2 SLP100 T00171022
14840KMKG MKG20060222075511302/22/06 07:55:31  5-MIN KMKG 221255Z 26008KT 8SM OVC070 02/M02 A2980 740 75 -600 260/08 RMK AO2 SLP101 T00171022
14840KMKG MKG20060222080009602/22/06 08:00:31  5-MIN KMKG 221300Z 26008KT 8SM OVC070 02/M02 A2980 740 75 -600 270/08 RMK AO2
14840KMKG MKG20060222080509602/22/06 08:05:31  5-MIN KMKG 221305Z 28006KT 9SM OVC070 02/M03 A2980 740 72 -600 280/06 RMK AO2
14840KMKG MKG20060222081009602/22/06 08:10:31  5-MIN KMKG 221310Z 27009KT 9SM OVC070 02/M03 A2980 740 72 -600 270/09 RMK AO2
14840KMKG MKG20060222081509702/22/06 08:15:31  5-MIN KMKG 221315Z 28009KT 10SM OVC070 02/M03 A2980 740 72 -600 280/09 RMK AO2
14840KMKG MKG20060222082009702/22/06 08:20:31  5-MIN KMKG 221320Z 27009KT 10SM OVC070 02/M03 A2981 740 69 -600 270/09 RMK AO2
14840KMKG MKG20060222082509702/22/06 08:25:31  5-MIN KMKG 221325Z 28009KT 10SM OVC070 02/M03 A2981 730 69 -600 280/09 RMK AO2
14840KMKG MKG20060222083009702/22/06 08:30:31  5-MIN KMKG 221330Z 28008KT 10SM OVC070 02/M03 A2981 730 69 -600 280/08 RMK AO2
14840KMKG MKG20060222083509702/22/06 08:35:31  5-MIN KMKG 221335Z 27009KT 10SM OVC070 02/M03 A2981 730 69 -600 270/09 RMK AO2
14840KMKG MKG20060222084009702/22/06 08:40:31  5-MIN KMKG 221340Z 27008KT 10SM OVC065 02/M03 A2981 730 69 -600 280/08 RMK AO2
14840KMKG MKG20060222084509702/22/06 08:45:31  5-MIN KMKG 221345Z 28008KT 10SM OVC065 02/M03 A2982 730 69 -600 280/08 RMK AO2
14840KMKG MKG20060222085011402/22/06 08:50:31  5-MIN KMKG 221350Z 28008KT 10SM OVC065 02/M03 A2982 720 69 -600 280/08 RMK AO2 SLP105 T00171033
14840KMKG MKG20060222085511402/22/06 08:55:31  5-MIN KMKG 221355Z 28008KT 10SM BKN065 02/M03 A2982 730 69 -600 290/08 RMK AO2 SLP105 T00171033
14840KMKG MKG20060222090009702/22/06 09:00:31  5-MIN KMKG 221400Z 28009KT 10SM BKN065 02/M03 A2982 720 69 -600 290/09 RMK AO2
14840KMKG MKG20060222090509702/22/06 09:05:31  5-MIN KMKG 221405Z 27008KT 10SM BKN060 02/M03 A2982 720 69 -600 270/08 RMK AO2
14840KMKG MKG20060222091009702/22/06 09:10:31  5-MIN KMKG 221410Z 28009KT 10SM BKN060 02/M03 A2982 720 69 -600 280/09 RMK AO2
14840KMKG MKG20060222091509702/22/06 09:15:31  5-MIN KMKG 221415Z 27008KT 10SM SCT060 02/M03 A2983 720 69 -600 280/08 RMK AO2
14840KMKG MKG20060222092009702/22/06 09:20:31  5-MIN KMKG 221420Z 27007KT 10SM FEW060 02/M03 A2983 720 69 -600 280/07 RMK AO2
14840KMKG MKG20060222092509702/22/06 09:25:31  5-MIN KMKG 221425Z 28008KT 10SM FEW060 02/M03 A2983 720 69 -600 280/08 RMK AO2
14840KMKG MKG20060222093009702/22/06 09:30:31  5-MIN KMKG 221430Z 28009KT 10SM FEW060 02/M03 A2983 710 69 -600 280/09 RMK AO2
14840KMKG MKG20060222093509402/22/06 09:35:31  5-MIN KMKG 221435Z 27008KT 10SM CLR 02/M03 A2983 710 67 -600 280/08 RMK AO2
14840KMKG MKG20060222094009402/22/06 09:40:31  5-MIN KMKG 221440Z 28010KT 10SM CLR 02/M03 A2983 710 67 -600 280/10 RMK AO2
14840KMKG MKG20060222094509402/22/06 09:45:31  5-MIN KMKG 221445Z 28011KT 10SM CLR 02/M03 A2983 710 67 -600 290/11 RMK AO2
14840KMKG MKG20060222095011702/22/06 09:50:31  5-MIN KMKG 221450Z 29011KT 10SM CLR 02/M03 A2983 710 67 -600 300/11 RMK AO2 SLP110 T00221033 56014
14840KMKG MKG20060222095511702/22/06 09:55:31  5-MIN KMKG 221455Z 28010KT 10SM CLR 02/M03 A2983 710 67 -600 290/10 RMK AO2 SLP111 T00221033 53015
14840KMKG MKG20060222100009402/22/06 10:00:31  5-MIN KMKG 221500Z 27011KT 10SM CLR 02/M03 A2984 710 67 -600 280/11 RMK AO2
14840KMKG MKG20060222100509402/22/06 10:05:31  5-MIN KMKG 221505Z 29011KT 10SM CLR 02/M03 A2984 710 67 -600 290/11 RMK AO2
14840KMKG MKG20060222101009402/22/06 10:10:31  5-MIN KMKG 221510Z 29008KT 10SM CLR 02/M03 A2984 710 67 -600 290/08 RMK AO2
14840KMKG MKG20060222101509402/22/06 10:15:31  5-MIN KMKG 221515Z 29011KT 10SM CLR 02/M03 A2984 710 69 -600 290/11 RMK AO2
14840KMKG MKG20060222102009402/22/06 10:20:31  5-MIN KMKG 221520Z 28010KT 10SM CLR 02/M03 A2984 700 67 -600 280/10 RMK AO2
14840KMKG MKG20060222102509402/22/06 10:25:31  5-MIN KMKG 221525Z 29011KT 10SM CLR 02/M03 A2984 700 67 -600 300/11 RMK AO2
14840KMKG MKG20060222103009402/22/06 10:30:31  5-MIN KMKG 221530Z 28011KT 10SM CLR 02/M03 A2984 700 67 -600 280/11 RMK AO2
14840KMKG MKG20060222103509402/22/06 10:35:31  5-MIN KMKG 221535Z 28011KT 10SM CLR 02/M03 A2984 700 69 -600 280/11 RMK AO2
14840KMKG MKG20060222104009402/22/06 10:40:31  5-MIN KMKG 221540Z 29010KT 10SM CLR 02/M03 A2985 700 69 -600 290/10 RMK AO2
14840KMKG MKG20060222104509402/22/06 10:45:31  5-MIN KMKG 221545Z 28011KT 10SM CLR 02/M03 A2984 700 69 -600 290/11 RMK AO2
14840KMKG MKG20060222105011402/22/06 10:50:31  5-MIN KMKG 221550Z 28012KT 10SM FEW038 02/M03 A2984 700 69 -600 280/12 RMK AO2 SLP114 T00221028
14840KMKG MKG20060222105511402/22/06 10:55:31  5-MIN KMKG 221555Z 28011KT 10SM FEW038 02/M03 A2985 700 67 -600 280/11 RMK AO2 SLP115 T00221033
14840KMKG MKG20060222110009402/22/06 11:00:31  5-MIN KMKG 221600Z 27010KT 10SM CLR 02/M03 A2985 700 67 -600 280/10 RMK AO2
14840KMKG MKG20060222110509402/22/06 11:05:31  5-MIN KMKG 221605Z 28011KT 10SM CLR 02/M03 A2985 700 69 -600 280/11 RMK AO2
14840KMKG MKG20060222111009402/22/06 11:10:31  5-MIN KMKG 221610Z 29012KT 10SM CLR 02/M03 A2985 700 67 -600 290/12 RMK AO2
14840KMKG MKG20060222111509402/22/06 11:15:31  5-MIN KMKG 221615Z 29011KT 10SM CLR 02/M03 A2985 700 67 -600 300/11 RMK AO2
14840KMKG MKG20060222112009402/22/06 11:20:31  5-MIN KMKG 221620Z 28013KT 10SM CLR 02/M03 A2985 700 69 -600 280/13 RMK AO2
14840KMKG MKG20060222112509402/22/06 11:25:31  5-MIN KMKG 221625Z 29013KT 10SM CLR 02/M03 A2985 700 67 -600 300/13 RMK AO2
14840KMKG MKG20060222113009402/22/06 11:30:31  5-MIN KMKG 221630Z 29011KT 10SM CLR 02/M03 A2985 700 67 -600 290/11 RMK AO2
14840KMKG MKG20060222113510002/22/06 11:35:31  5-MIN KMKG 221635Z 29009G16KT 10SM CLR 02/M03 A2985 700 69 -600 290/09G16 RMK AO2
14840KMKG MKG20060222114010002/22/06 11:40:31  5-MIN KMKG 221640Z 29013G17KT 10SM CLR 02/M03 A2985 700 69 -600 290/13G17 RMK AO2
14840KMKG MKG20060222114510002/22/06 11:45:31  5-MIN KMKG 221645Z 30009G17KT 10SM CLR 02/M03 A2985 700 69 -600 300/09G17 RMK AO2
14840KMKG MKG20060222115011102/22/06 11:50:31  5-MIN KMKG 221650Z 30009KT 10SM CLR 02/M03 A2985 700 69 -600 310/09 RMK AO2 SLP116 T00221028
14840KMKG MKG20060222115511402/22/06 11:55:31  5-MIN KMKG 221655Z 31012KT 10SM FEW041 02/M03 A2985 690 67 -600 310/12 RMK AO2 SLP118 T00221033
14840KMKG MKG20060222120009402/22/06 12:00:31  5-MIN KMKG 221700Z 29009KT 10SM CLR 02/M03 A2986 690 67 -600 300/09 RMK AO2
14840KMKG MKG20060222120509402/22/06 12:05:31  5-MIN KMKG 221705Z 30009KT 10SM CLR 02/M03 A2986 690 67 -600 300/09 RMK AO2
14840KMKG MKG20060222121009402/22/06 12:10:31  5-MIN KMKG 221710Z 30010KT 10SM CLR 02/M03 A2986 690 67 -600 300/10 RMK AO2
14840KMKG MKG20060222121509402/22/06 12:15:31  5-MIN KMKG 221715Z 31012KT 10SM CLR 02/M04 A2986 690 61 -600 310/12 RMK AO2
14840KMKG MKG20060222122009402/22/06 12:20:31  5-MIN KMKG 221720Z 30010KT 10SM CLR 02/M03 A2986 690 67 -600 300/10 RMK AO2
14840KMKG MKG20060222122509402/22/06 12:25:31  5-MIN KMKG 221725Z 29010KT 10SM CLR 02/M03 A2986 690 67 -600 300/10 RMK AO2
14840KMKG MKG20060222123009402/22/06 12:30:31  5-MIN KMKG 221730Z 29009KT 10SM CLR 02/M03 A2985 690 67 -600 300/09 RMK AO2
14840KMKG MKG20060222123509402/22/06 12:35:31  5-MIN KMKG 221735Z 30009KT 10SM CLR 02/M03 A2985 690 67 -600 300/09 RMK AO2
14840KMKG MKG20060222124009402/22/06 12:40:31  5-MIN KMKG 221740Z 28009KT 10SM CLR 02/M03 A2985 690 67 -600 280/09 RMK AO2
14840KMKG MKG20060222124509402/22/06 12:45:31  5-MIN KMKG 221745Z 30007KT 10SM CLR 02/M03 A2985 690 67 -600 310/07 RMK AO2
14840KMKG MKG20060222125013202/22/06 12:50:31  5-MIN KMKG 221750Z 30008KT 10SM FEW042 02/M03 A2985 690 69 -600 300/08 RMK AO2 SLP117 T00221028 10022 20000 53015
14840KMKG MKG20060222125513202/22/06 12:55:31  5-MIN KMKG 221755Z 32007KT 10SM FEW042 02/M03 A2985 700 69 -600 320/07 RMK AO2 SLP116 T00221028 10022 20000 50005
14840KMKG MKG20060222130009402/22/06 13:00:31  5-MIN KMKG 221800Z 31007KT 10SM CLR 02/M03 A2985 700 67 -600 320/07 RMK AO2
14840KMKG MKG20060222130509402/22/06 13:05:31  5-MIN KMKG 221805Z 30008KT 10SM CLR 02/M03 A2985 700 67 -600 300/08 RMK AO2
14840KMKG MKG20060222131009402/22/06 13:10:31  5-MIN KMKG 221810Z 32008KT 10SM CLR 02/M03 A2984 700 69 -600 320/08 RMK AO2
14840KMKG MKG20060222131509402/22/06 13:15:31  5-MIN KMKG 221815Z 32008KT 10SM CLR 02/M03 A2984 700 67 -600 320/08 RMK AO2
14840KMKG MKG20060222132009402/22/06 13:20:31  5-MIN KMKG 221820Z 31008KT 10SM CLR 02/M03 A2984 700 67 -600 320/08 RMK AO2
14840KMKG MKG20060222132509402/22/06 13:25:31  5-MIN KMKG 221825Z 32008KT 10SM CLR 02/M03 A2984 710 67 -600 320/08 RMK AO2
14840KMKG MKG20060222133009402/22/06 13:30:31  5-MIN KMKG 221830Z 31008KT 10SM CLR 02/M03 A2984 710 67 -600 310/08 RMK AO2
14840KMKG MKG20060222133509402/22/06 13:35:31  5-MIN KMKG 221835Z 29007KT 10SM CLR 02/M03 A2984 710 67 -600 300/07 RMK AO2
14840KMKG MKG20060222134009402/22/06 13:40:31  5-MIN KMKG 221840Z 31008KT 10SM CLR 02/M03 A2984 710 67 -600 320/08 RMK AO2
14840KMKG MKG20060222134509402/22/06 13:45:31  5-MIN KMKG 221845Z 31008KT 10SM CLR 02/M03 A2984 710 67 -600 320/08 RMK AO2
14840KMKG MKG20060222135011402/22/06 13:50:31  5-MIN KMKG 221850Z 30007KT 10SM FEW042 02/M03 A2984 710 67 -600 300/07 RMK AO2 SLP111 T00221033
14840KMKG MKG20060222135511402/22/06 13:55:31  5-MIN KMKG 221855Z 31008KT 10SM FEW042 02/M03 A2984 710 67 -600 320/08 RMK AO2 SLP111 T00221033
14840KMKG MKG20060222140009402/22/06 14:00:31  5-MIN KMKG 221900Z 32008KT 10SM CLR 02/M03 A2983 710 67 -600 320/08 RMK AO2
14840KMKG MKG20060222140509402/22/06 14:05:31  5-MIN KMKG 221905Z 32008KT 10SM CLR 02/M03 A2983 710 67 -600 320/08 RMK AO2
14840KMKG MKG20060222141009402/22/06 14:10:31  5-MIN KMKG 221910Z 29008KT 10SM CLR 02/M03 A2983 710 67 -600 290/08 RMK AO2
14840KMKG MKG20060222141509402/22/06 14:15:31  5-MIN KMKG 221915Z 28008KT 10SM CLR 02/M03 A2983 710 67 -600 280/08 RMK AO2
14840KMKG MKG20060222142009402/22/06 14:20:31  5-MIN KMKG 221920Z 27008KT 10SM CLR 02/M03 A2983 710 67 -600 270/08 RMK AO2
14840KMKG MKG20060222142509402/22/06 14:25:31  5-MIN KMKG 221925Z 29008KT 10SM CLR 02/M03 A2983 710 67 -600 290/08 RMK AO2
14840KMKG MKG20060222143009402/22/06 14:30:31  5-MIN KMKG 221930Z 29008KT 10SM CLR 02/M03 A2983 720 67 -600 290/08 RMK AO2
14840KMKG MKG20060222143509402/22/06 14:35:31  5-MIN KMKG 221935Z 30007KT 10SM CLR 02/M03 A2983 720 67 -600 310/07 RMK AO2
14840KMKG MKG20060222144009402/22/06 14:40:31  5-MIN KMKG 221940Z 28007KT 10SM CLR 02/M03 A2982 720 67 -600 280/07 RMK AO2
14840KMKG MKG20060222144509402/22/06 14:45:31  5-MIN KMKG 221945Z 26007KT 10SM CLR 02/M03 A2982 720 67 -600 260/07 RMK AO2
14840KMKG MKG20060222145011102/22/06 14:50:31  5-MIN KMKG 221950Z 24009KT 10SM CLR 02/M03 A2982 720 69 -600 250/09 RMK AO2 SLP107 T00221028
14840KMKG MKG20060222145511102/22/06 14:55:31  5-MIN KMKG 221955Z 26007KT 10SM CLR 02/M03 A2982 720 67 -600 270/07 RMK AO2 SLP107 T00221033
14840KMKG MKG20060222150009402/22/06 15:00:31  5-MIN KMKG 222000Z 26007KT 10SM CLR 02/M03 A2982 720 67 -600 260/07 RMK AO2
14840KMKG MKG20060222150509402/22/06 15:05:31  5-MIN KMKG 222005Z 29006KT 10SM CLR 02/M03 A2982 730 69 -600 290/06 RMK AO2
14840KMKG MKG20060222151009402/22/06 15:10:31  5-MIN KMKG 222010Z 30007KT 10SM CLR 02/M03 A2982 720 69 -600 300/07 RMK AO2
14840KMKG MKG20060222151509402/22/06 15:15:31  5-MIN KMKG 222015Z 27007KT 10SM CLR 02/M03 A2982 720 69 -600 270/07 RMK AO2
14840KMKG MKG20060222152009402/22/06 15:20:31  5-MIN KMKG 222020Z 26008KT 10SM CLR 02/M03 A2982 720 69 -600 260/08 RMK AO2
14840KMKG MKG20060222152509402/22/06 15:25:31  5-MIN KMKG 222025Z 28006KT 10SM CLR 02/M03 A2982 720 67 -600 280/06 RMK AO2
14840KMKG MKG20060222153009402/22/06 15:30:31  5-MIN KMKG 222030Z 25009KT 10SM CLR 02/M03 A2982 720 69 -600 250/09 RMK AO2
14840KMKG MKG20060222153509402/22/06 15:35:31  5-MIN KMKG 222035Z 26008KT 10SM CLR 02/M03 A2982 720 69 -600 260/08 RMK AO2
14840KMKG MKG20060222154009402/22/06 15:40:31  5-MIN KMKG 222040Z 27007KT 10SM CLR 02/M03 A2982 720 69 -600 270/07 RMK AO2
14840KMKG MKG20060222154509402/22/06 15:45:31  5-MIN KMKG 222045Z 27006KT 10SM CLR 02/M03 A2983 720 69 -600 270/06 RMK AO2
14840KMKG MKG20060222155011702/22/06 15:50:31  5-MIN KMKG 222050Z 24008KT 10SM CLR 02/M03 A2983 710 72 -600 240/08 RMK AO2 SLP109 T00171028 50005
14840KMKG MKG20060222155511702/22/06 15:55:31  5-MIN KMKG 222055Z 25007KT 10SM CLR 02/M03 A2983 710 69 -600 260/07 RMK AO2 SLP109 T00171033 55007
14840KMKG MKG20060222160009402/22/06 16:00:31  5-MIN KMKG 222100Z 25007KT 10SM CLR 02/M03 A2983 710 69 -600 250/07 RMK AO2
14840KMKG MKG20060222160509702/22/06 16:05:31  5-MIN KMKG 222105Z 27007KT 10SM FEW045 02/M03 A2983 720 72 -600 270/07 RMK AO2
14840KMKG MKG20060222161009702/22/06 16:10:31  5-MIN KMKG 222110Z 26008KT 10SM FEW045 02/M03 A2983 720 72 -600 270/08 RMK AO2
14840KMKG MKG20060222161509702/22/06 16:15:31  5-MIN KMKG 222115Z 24008KT 10SM FEW045 02/M03 A2983 720 72 -600 240/08 RMK AO2
14840KMKG MKG20060222162009702/22/06 16:20:31  5-MIN KMKG 222120Z 22007KT 10SM FEW045 02/M03 A2983 720 72 -600 230/07 RMK AO2
14840KMKG MKG20060222162509702/22/06 16:25:31  5-MIN KMKG 222125Z 24007KT 10SM FEW045 02/M03 A2983 720 72 -600 250/07 RMK AO2
14840KMKG MKG20060222163009702/22/06 16:30:31  5-MIN KMKG 222130Z 25007KT 10SM FEW045 02/M03 A2983 720 69 -600 250/07 RMK AO2
14840KMKG MKG20060222163509702/22/06 16:35:31  5-MIN KMKG 222135Z 27006KT 10SM FEW045 02/M03 A2983 720 69 -600 270/06 RMK AO2
14840KMKG MKG20060222164009702/22/06 16:40:31  5-MIN KMKG 222140Z 27006KT 10SM FEW045 02/M04 A2983 720 66 -600 280/06 RMK AO2
14840KMKG MKG20060222164509702/22/06 16:45:31  5-MIN KMKG 222145Z 23007KT 10SM FEW045 02/M03 A2983 720 69 -600 230/07 RMK AO2
14840KMKG MKG20060222165011402/22/06 16:50:31  5-MIN KMKG 222150Z 23007KT 10SM FEW045 02/M03 A2982 720 72 -600 230/07 RMK AO2 SLP107 T00171028
14840KMKG MKG20060222165511402/22/06 16:55:31  5-MIN KMKG 222155Z 23008KT 10SM FEW045 02/M03 A2982 720 69 -600 230/08 RMK AO2 SLP107 T00171033
14840KMKG MKG20060222170009402/22/06 17:00:31  5-MIN KMKG 222200Z 23007KT 10SM CLR 02/M03 A2983 720 69 -600 240/07 RMK AO2
14840KMKG MKG20060222170509402/22/06 17:05:31  5-MIN KMKG 222205Z 25007KT 10SM CLR 02/M03 A2983 720 69 -600 250/07 RMK AO2
14840KMKG MKG20060222171009402/22/06 17:10:31  5-MIN KMKG 222210Z 22008KT 10SM CLR 02/M03 A2982 720 69 -600 230/08 RMK AO2
14840KMKG MKG20060222171509402/22/06 17:15:31  5-MIN KMKG 222215Z 22007KT 10SM CLR 01/M03 A2982 720 72 -700 220/07 RMK AO2
14840KMKG MKG20060222172009402/22/06 17:20:31  5-MIN KMKG 222220Z 22006KT 10SM CLR 01/M03 A2982 720 72 -700 230/06 RMK AO2
14840KMKG MKG20060222172509402/22/06 17:25:31  5-MIN KMKG 222225Z 23005KT 10SM CLR 01/M03 A2982 720 72 -700 230/05 RMK AO2
14840KMKG MKG20060222173009402/22/06 17:30:31  5-MIN KMKG 222230Z 22005KT 10SM CLR 01/M03 A2982 720 72 -700 220/05 RMK AO2
14840KMKG MKG20060222173509402/22/06 17:35:31  5-MIN KMKG 222235Z 23004KT 10SM CLR 01/M03 A2982 720 72 -700 240/04 RMK AO2
14840KMKG MKG20060222174009402/22/06 17:40:31  5-MIN KMKG 222240Z 23005KT 10SM CLR 01/M03 A2982 720 72 -700 230/05 RMK AO2
14840KMKG MKG20060222174509402/22/06 17:45:31  5-MIN KMKG 222245Z 22005KT 10SM CLR 01/M03 A2982 720 72 -700 230/05 RMK AO2
14840KMKG MKG20060222175011102/22/06 17:50:31  5-MIN KMKG 222250Z 23005KT 10SM CLR 01/M03 A2982 720 72 -700 230/05 RMK AO2 SLP107 T00111033
14840KMKG MKG20060222175511102/22/06 17:55:31  5-MIN KMKG 222255Z 23004KT 10SM CLR 01/M04 A2982 720 69 -700 230/04 RMK AO2 SLP106 T00111039
14840KMKG MKG20060222180009402/22/06 18:00:31  5-MIN KMKG 222300Z 23005KT 10SM CLR 01/M03 A2982 720 75 -800 240/05 RMK AO2
14840KMKG MKG20060222180509402/22/06 18:05:31  5-MIN KMKG 222305Z 24005KT 10SM CLR 01/M04 A2982 720 72 -800 240/05 RMK AO2
14840KMKG MKG20060222181009402/22/06 18:10:31  5-MIN KMKG 222310Z 24004KT 10SM CLR 00/M03 A2983 720 78 -900 250/04 RMK AO2
14840KMKG MKG20060222181509402/22/06 18:15:31  5-MIN KMKG 222315Z 24003KT 10SM CLR 00/M03 A2983 720 78 -900 240/03 RMK AO2
14840KMKG MKG20060222182009402/22/06 18:20:31  5-MIN KMKG 222320Z 23004KT 10SM CLR 00/M04 A2983 720 75 -900 240/04 RMK AO2
14840KMKG MKG20060222182509402/22/06 18:25:31  5-MIN KMKG 222325Z 22003KT 10SM CLR 00/M04 A2983 720 75 -900 220/03 RMK AO2
14840KMKG MKG20060222183009402/22/06 18:30:31  5-MIN KMKG 222330Z 21003KT 10SM CLR 00/M04 A2983 720 75 -900 220/03 RMK AO2
14840KMKG MKG20060222183509402/22/06 18:35:31  5-MIN KMKG 222335Z 21003KT 10SM CLR 00/M04 A2983 720 75 -900 220/03 RMK AO2
14840KMKG MKG20060222184009402/22/06 18:40:31  5-MIN KMKG 222340Z 20003KT 10SM CLR 00/M04 A2983 720 75 -900 210/03 RMK AO2
14840KMKG MKG20060222184509402/22/06 18:45:31  5-MIN KMKG 222345Z 20003KT 10SM CLR 00/M04 A2983 720 75 -900 210/03 RMK AO2
14840KMKG MKG20060222185013002/22/06 18:50:31  5-MIN KMKG 222350Z 00000KT 10SM CLR M01/M03 A2983 710 81 -900 000/00 RMK AO2 SLP108 T10061033 10028 21006 55007
14840KMKG MKG20060222185513002/22/06 18:55:31  5-MIN KMKG 222355Z 00000KT 10SM CLR M01/M04 A2983 710 78 -900 000/00 RMK AO2 SLP110 T10061039 10028 21006 53001
14840KMKG MKG20060222190009502/22/06 19:00:31  5-MIN KMKG 230000Z 20003KT 10SM CLR M01/M04 A2984 710 78 -900 200/03 RMK AO2
14840KMKG MKG20060222190509602/22/06 19:05:31  5-MIN KMKG 230005Z 19003KT 10SM CLR M01/M04 A2984 710 81 -1000 200/03 RMK AO2
14840KMKG MKG20060222191009602/22/06 19:10:31  5-MIN KMKG 230010Z 18003KT 10SM CLR M01/M04 A2984 700 81 -1000 190/03 RMK AO2
14840KMKG MKG20060222191509602/22/06 19:15:31  5-MIN KMKG 230015Z 19003KT 10SM CLR M01/M04 A2985 700 81 -1000 190/03 RMK AO2
14840KMKG MKG20060222192009602/22/06 19:20:31  5-MIN KMKG 230020Z 19003KT 10SM CLR M02/M04 A2985 700 85 -1100 200/03 RMK AO2
14840KMKG MKG20060222192509602/22/06 19:25:31  5-MIN KMKG 230025Z 19003KT 10SM CLR M02/M04 A2985 700 85 -1100 190/03 RMK AO2
14840KMKG MKG20060222193009602/22/06 19:30:31  5-MIN KMKG 230030Z 19003KT 10SM CLR M02/M04 A2985 700 85 -1100 190/03 RMK AO2
14840KMKG MKG20060222193509602/22/06 19:35:31  5-MIN KMKG 230035Z 00000KT 10SM CLR M02/M04 A2985 700 85 -1100 000/00 RMK AO2
14840KMKG MKG20060222194009602/22/06 19:40:31  5-MIN KMKG 230040Z 00000KT 10SM CLR M02/M04 A2985 700 85 -1100 000/00 RMK AO2
14840KMKG MKG20060222194509502/22/06 19:45:31  5-MIN KMKG 230045Z 00000KT 9SM CLR M02/M04 A2985 690 81 -1100 000/00 RMK AO2
14840KMKG MKG20060222195011202/22/06 19:50:31  5-MIN KMKG 230050Z 00000KT 9SM CLR M02/M04 A2985 690 85 -1200 000/00 RMK AO2 SLP116 T10221044
14840KMKG MKG20060222195511202/22/06 19:55:31  5-MIN KMKG 230055Z 00000KT 9SM CLR M02/M04 A2985 690 85 -1200 000/00 RMK AO2 SLP117 T10221044
14840KMKG MKG20060222200009502/22/06 20:00:31  5-MIN KMKG 230100Z 20003KT 9SM CLR M02/M04 A2985 690 88 -1200 200/03 RMK AO2
14840KMKG MKG20060222200509502/22/06 20:05:31  5-MIN KMKG 230105Z 20003KT 9SM CLR M02/M04 A2985 690 88 -1200 200/03 RMK AO2
14840KMKG MKG20060222201009502/22/06 20:10:31  5-MIN KMKG 230110Z 00000KT 9SM CLR M02/M04 A2985 690 88 -1200 000/00 RMK AO2
14840KMKG MKG20060222201509502/22/06 20:15:31  5-MIN KMKG 230115Z 00000KT 8SM CLR M02/M04 A2986 690 88 -1200 000/00 RMK AO2
14840KMKG MKG20060222202009502/22/06 20:20:31  5-MIN KMKG 230120Z 00000KT 8SM CLR M03/M04 A2986 690 88 -1200 000/00 RMK AO2
14840KMKG MKG20060222202509502/22/06 20:25:31  5-MIN KMKG 230125Z 00000KT 8SM CLR M03/M04 A2986 690 88 -1200 000/00 RMK AO2
14840KMKG MKG20060222203009502/22/06 20:30:31  5-MIN KMKG 230130Z 00000KT 7SM CLR M03/M04 A2986 690 88 -1200 000/00 RMK AO2
14840KMKG MKG20060222203509502/22/06 20:35:31  5-MIN KMKG 230135Z 00000KT 7SM CLR M03/M04 A2986 690 88 -1200 000/00 RMK AO2
14840KMKG MKG20060222204009502/22/06 20:40:31  5-MIN KMKG 230140Z 00000KT 7SM CLR M03/M04 A2986 690 92 -1300 000/00 RMK AO2
14840KMKG MKG20060222204509502/22/06 20:45:31  5-MIN KMKG 230145Z 00000KT 7SM CLR M03/M04 A2986 680 88 -1200 000/00 RMK AO2
14840KMKG MKG20060222205011202/22/06 20:50:31  5-MIN KMKG 230150Z 00000KT 7SM CLR M03/M04 A2986 690 88 -1200 000/00 RMK AO2 SLP119 T10281044
14840KMKG MKG20060222205511202/22/06 20:55:31  5-MIN KMKG 230155Z 00000KT 7SM CLR M03/M04 A2986 680 88 -1200 000/00 RMK AO2 SLP119 T10281044
14840KMKG MKG20060222210009502/22/06 21:00:31  5-MIN KMKG 230200Z 00000KT 7SM CLR M03/M04 A2986 680 92 -1300 000/00 RMK AO2
14840KMKG MKG20060222210509502/22/06 21:05:31  5-MIN KMKG 230205Z 00000KT 7SM CLR M03/M04 A2986 680 88 -1200 000/00 RMK AO2
14840KMKG MKG20060222211009502/22/06 21:10:31  5-MIN KMKG 230210Z 00000KT 7SM CLR M03/M04 A2986 680 88 -1200 000/00 RMK AO2
14840KMKG MKG20060222211509502/22/06 21:15:31  5-MIN KMKG 230215Z 00000KT 7SM CLR M03/M04 A2986 680 88 -1200 000/00 RMK AO2
14840KMKG MKG20060222212009502/22/06 21:20:31  5-MIN KMKG 230220Z 00000KT 7SM CLR M03/M04 A2986 680 88 -1200 000/00 RMK AO2
14840KMKG MKG20060222212509502/22/06 21:25:31  5-MIN KMKG 230225Z 00000KT 7SM CLR M03/M04 A2987 680 88 -1200 000/00 RMK AO2
14840KMKG MKG20060222213009502/22/06 21:30:31  5-MIN KMKG 230230Z 00000KT 7SM CLR M03/M05 A2986 680 88 -1300 000/00 RMK AO2
14840KMKG MKG20060222213509802/22/06 21:35:31  5-MIN KMKG 230235Z 00000KT 6SM BR CLR M03/M05 A2987 680 88 -1300 000/00 RMK AO2
14840KMKG MKG20060222214009802/22/06 21:40:31  5-MIN KMKG 230240Z 00000KT 6SM BR CLR M03/M05 A2987 680 88 -1300 000/00 RMK AO2
14840KMKG MKG20060222214509802/22/06 21:45:31  5-MIN KMKG 230245Z 00000KT 6SM BR CLR M03/M05 A2986 680 88 -1300 000/00 RMK AO2
14840KMKG MKG20060222215011802/22/06 21:50:31  5-MIN KMKG 230250Z 16003KT 7SM CLR M03/M05 A2986 680 88 -1300 160/03 RMK AO2 SLP120 T10331050 53001
14840KMKG MKG20060222215511802/22/06 21:55:31  5-MIN KMKG 230255Z 16003KT 7SM CLR M03/M05 A2986 680 88 -1300 160/03 RMK AO2 SLP119 T10331050 51009
14840KMKG MKG20060222220009802/22/06 22:00:31  5-MIN KMKG 230300Z 16003KT 6SM BR CLR M04/M05 A2986 680 92 -1400 170/03 RMK AO2
14840KMKG MKG20060222220509802/22/06 22:05:31  5-MIN KMKG 230305Z 17003KT 6SM BR CLR M04/M05 A2986 680 92 -1400 170/03 RMK AO2
14840KMKG MKG20060222221009802/22/06 22:10:31  5-MIN KMKG 230310Z 00000KT 6SM BR CLR M04/M05 A2986 680 92 -1400 000/00 RMK AO2
14840KMKG MKG20060222221509802/22/06 22:15:31  5-MIN KMKG 230315Z 00000KT 6SM BR CLR M04/M05 A2986 690 92 -1400 000/00 RMK AO2
14840KMKG MKG20060222222009802/22/06 22:20:31  5-MIN KMKG 230320Z 16003KT 6SM BR CLR M04/M05 A2986 690 92 -1400 160/03 RMK AO2
14840KMKG MKG20060222222509802/22/06 22:25:31  5-MIN KMKG 230325Z 16003KT 6SM BR CLR M03/M05 A2986 690 88 -1300 160/03 RMK AO2
14840KMKG MKG20060222223009802/22/06 22:30:31  5-MIN KMKG 230330Z 16003KT 6SM BR CLR M03/M05 A2986 690 88 -1300 170/03 RMK AO2
14840KMKG MKG20060222223509802/22/06 22:35:31  5-MIN KMKG 230335Z 17003KT 6SM BR CLR M04/M05 A2986 690 92 -1400 170/03 RMK AO2
14840KMKG MKG20060222224009802/22/06 22:40:31  5-MIN KMKG 230340Z 00000KT 6SM BR CLR M03/M05 A2986 690 88 -1300 000/00 RMK AO2
14840KMKG MKG20060222224509802/22/06 22:45:31  5-MIN KMKG 230345Z 19003KT 6SM BR CLR M03/M04 A2986 680 92 -1300 190/03 RMK AO2
14840KMKG MKG20060222225011502/22/06 22:50:31  5-MIN KMKG 230350Z 00000KT 6SM BR CLR M03/M04 A2986 690 92 -1300 000/00 RMK AO2 SLP119 T10331044
14840KMKG MKG20060222225511502/22/06 22:55:31  5-MIN KMKG 230355Z 00000KT 5SM BR CLR M04/M05 A2986 690 92 -1400 000/00 RMK AO2 SLP119 T10391050
14840KMKG MKG20060222230009802/22/06 23:00:31  5-MIN KMKG 230400Z 21003KT 5SM BR CLR M03/M04 A2986 690 92 -1300 220/03 RMK AO2
14840KMKG MKG20060222230509802/22/06 23:05:31  5-MIN KMKG 230405Z 20004KT 4SM BR CLR M03/M04 A2986 690 92 -1300 210/04 RMK AO2
14840KMKG MKG20060222231009802/22/06 23:10:31  5-MIN KMKG 230410Z 20004KT 5SM BR CLR M03/M04 A2986 690 92 -1300 200/04 RMK AO2
14840KMKG MKG20060222231509802/22/06 23:15:31  5-MIN KMKG 230415Z 20004KT 5SM BR CLR M03/M04 A2986 690 92 -1300 210/04 RMK AO2
14840KMKG MKG20060222232009802/22/06 23:20:31  5-MIN KMKG 230420Z 22004KT 5SM BR CLR M03/M04 A2986 690 92 -1300 220/04 RMK AO2
14840KMKG MKG20060222232509802/22/06 23:25:31  5-MIN KMKG 230425Z 23005KT 5SM BR CLR M03/M04 A2986 690 88 -1200 240/05 RMK AO2
14840KMKG MKG20060222233009802/22/06 23:30:31  5-MIN KMKG 230430Z 25005KT 6SM BR CLR M03/M04 A2986 690 92 -1200 250/05 RMK AO2
14840KMKG MKG20060222233509502/22/06 23:35:31  5-MIN KMKG 230435Z 26005KT 7SM CLR M02/M04 A2986 690 88 -1200 260/05 RMK AO2
14840KMKG MKG20060222234009502/22/06 23:40:31  5-MIN KMKG 230440Z 26006KT 9SM CLR M02/M04 A2986 690 85 -1100 260/06 RMK AO2
14840KMKG MKG20060222234509602/22/06 23:45:31  5-MIN KMKG 230445Z 26007KT 10SM CLR M01/M04 A2986 690 81 -1000 260/07 RMK AO2
14840KMKG MKG20060222235012102/22/06 23:50:31  5-MIN KMKG 230450Z 26007KT 10SM CLR 00/M03 A2986 690 78 -900 260/07 RMK AO2 SLP117 T00001033 400281083
14840KMKG MKG20060222235512102/22/06 23:55:31  5-MIN KMKG 230455Z 26009KT 10SM CLR 00/M03 A2986 690 78 -900 270/09 RMK AO2 SLP117 T00001033 400281083
14840KMKG MKG20060223000009402/23/06 00:00:32  5-MIN KMKG 230500Z 26008KT 10SM CLR 01/M03 A2986 690 75 -800 260/08 RMK AO2
14840KMKG MKG20060223000509402/23/06 00:05:31  5-MIN KMKG 230505Z 26007KT 10SM CLR 01/M04 A2985 690 72 -800 260/07 RMK AO2
14840KMKG MKG20060223001009402/23/06 00:10:31  5-MIN KMKG 230510Z 26008KT 10SM CLR 01/M04 A2985 690 72 -800 260/08 RMK AO2
14840KMKG MKG20060223001509402/23/06 00:15:31  5-MIN KMKG 230515Z 25007KT 10SM CLR 01/M04 A2985 690 72 -800 260/07 RMK AO2
14840KMKG MKG20060223002009402/23/06 00:20:31  5-MIN KMKG 230520Z 25007KT 10SM CLR 01/M04 A2985 690 72 -800 260/07 RMK AO2
14840KMKG MKG20060223002509702/23/06 00:25:31  5-MIN KMKG 230525Z 25007KT 10SM FEW110 01/M04 A2985 690 72 -800 250/07 RMK AO2
14840KMKG MKG20060223003009702/23/06 00:30:31  5-MIN KMKG 230530Z 25007KT 10SM SCT100 01/M04 A2985 690 72 -800 260/07 RMK AO2
14840KMKG MKG20060223003509702/23/06 00:35:31  5-MIN KMKG 230535Z 25008KT 10SM FEW100 01/M04 A2985 690 72 -800 250/08 RMK AO2
14840KMKG MKG20060223004009702/23/06 00:40:31  5-MIN KMKG 230540Z 25007KT 10SM FEW100 01/M04 A2985 690 72 -800 260/07 RMK AO2
14840KMKG MKG20060223004509702/23/06 00:45:31  5-MIN KMKG 230545Z 25007KT 10SM FEW100 01/M04 A2985 690 72 -800 250/07 RMK AO2
14840KMKG MKG20060223005013202/23/06 00:50:31  5-MIN KMKG 230550Z 25007KT 10SM FEW100 01/M04 A2985 690 72 -800 250/07 RMK AO2 SLP115 T00061039 10006 21039 51009
14840KMKG MKG20060223005513202/23/06 00:55:31  5-MIN KMKG 230555Z 25008KT 10SM FEW100 01/M04 A2985 690 72 -800 250/08 RMK AO2 SLP115 T00061039 10006 21039 58003
14840KMKG MKG20060223010009402/23/06 01:00:31  5-MIN KMKG 230600Z 24008KT 10SM CLR 01/M04 A2985 690 72 -800 250/08 RMK AO2
14840KMKG MKG20060223010509402/23/06 01:05:31  5-MIN KMKG 230605Z 24006KT 10SM CLR 00/M04 A2985 690 75 -900 250/06 RMK AO2
14840KMKG MKG20060223011009402/23/06 01:10:31  5-MIN KMKG 230610Z 24006KT 10SM CLR 00/M04 A2985 690 75 -900 250/06 RMK AO2
14840KMKG MKG20060223011509402/23/06 01:15:31  5-MIN KMKG 230615Z 24007KT 10SM CLR 00/M04 A2985 690 75 -900 250/07 RMK AO2
14840KMKG MKG20060223012009402/23/06 01:20:31  5-MIN KMKG 230620Z 24007KT 10SM CLR 00/M03 A2985 690 78 -900 240/07 RMK AO2
14840KMKG MKG20060223012509702/23/06 01:25:31  5-MIN KMKG 230625Z 24008KT 10SM FEW080 01/M03 A2985 690 75 -800 250/08 RMK AO2
14840KMKG MKG20060223013009702/23/06 01:30:31  5-MIN KMKG 230630Z 24007KT 10SM FEW080 01/M03 A2985 690 75 -800 240/07 RMK AO2
14840KMKG MKG20060223013509702/23/06 01:35:31  5-MIN KMKG 230635Z 24007KT 10SM FEW080 00/M03 A2985 690 78 -900 240/07 RMK AO2
14840KMKG MKG20060223014009902/23/06 01:40:31  5-MIN KMKG 230640Z 24007KT 10SM SCT075 M01/M04 A2986 690 78 -1000 240/07 RMK AO2
14840KMKG MKG20060223014509902/23/06 01:45:31  5-MIN KMKG 230645Z 24006KT 10SM SCT075 M01/M04 A2986 690 78 -1000 240/06 RMK AO2
14840KMKG MKG20060223015011602/23/06 01:50:31  5-MIN KMKG 230650Z 24006KT 10SM FEW075 M01/M04 A2986 690 78 -1000 240/06 RMK AO2 SLP117 T10061039
14840KMKG MKG20060223015511602/23/06 01:55:31  5-MIN KMKG 230655Z 24007KT 10SM FEW075 M01/M04 A2986 690 78 -1000 240/07 RMK AO2 SLP117 T10061039
14840KMKG MKG20060223020009902/23/06 02:00:31  5-MIN KMKG 230700Z 24007KT 10SM FEW075 M01/M04 A2986 690 78 -1000 240/07 RMK AO2
14840KMKG MKG20060223020509702/23/06 02:05:31  5-MIN KMKG 230705Z 24008KT 10SM FEW075 00/M03 A2986 690 78 -900 240/08 RMK AO2
14840KMKG MKG20060223021009702/23/06 02:10:31  5-MIN KMKG 230710Z 24008KT 10SM FEW060 01/M03 A2986 690 75 -800 240/08 RMK AO2
14840KMKG MKG20060223021509702/23/06 02:15:31  5-MIN KMKG 230715Z 23008KT 10SM FEW060 00/M03 A2985 690 78 -900 240/08 RMK AO2
14840KMKG MKG20060223022009702/23/06 02:20:31  5-MIN KMKG 230720Z 24007KT 10SM FEW060 00/M03 A2985 690 78 -900 240/07 RMK AO2
14840KMKG MKG20060223022509702/23/06 02:25:31  5-MIN KMKG 230725Z 24007KT 10SM FEW060 00/M03 A2985 690 78 -900 240/07 RMK AO2
14840KMKG MKG20060223023011102/23/06 02:30:31  5-MIN KMKG 230730Z 24009KT 10SM FEW060 SCT080 SCT090 01/M03 A2985 690 78 -800 240/09 RMK AO2
14840KMKG MKG20060223023511102/23/06 02:35:31  5-MIN KMKG 230735Z 24009KT 10SM FEW060 SCT075 BKN090 01/M03 A2985 690 75 -700 250/09 RMK AO2
14840KMKG MKG20060223024011102/23/06 02:40:31  5-MIN KMKG 230740Z 25008KT 10SM FEW060 SCT075 BKN090 01/M03 A2986 690 75 -700 250/08 RMK AO2
14840KMKG MKG20060223024510402/23/06 02:45:31  5-MIN KMKG 230745Z 25009KT 10SM FEW075 BKN090 01/M03 A2985 690 75 -700 260/09 RMK AO2
14840KMKG MKG20060223025011402/23/06 02:50:31  5-MIN KMKG 230750Z 25010KT 10SM BKN085 01/M03 A2985 690 75 -700 250/10 RMK AO2 SLP116 T00111028
14840KMKG MKG20060223025511402/23/06 02:55:31  5-MIN KMKG 230755Z 25008KT 10SM OVC085 02/M03 A2985 690 72 -700 250/08 RMK AO2 SLP116 T00171028
14840KMKG MKG20060223030009702/23/06 03:00:31  5-MIN KMKG 230800Z 25007KT 10SM OVC085 02/M03 A2985 690 72 -700 250/07 RMK AO2
14840KMKG MKG20060223030509702/23/06 03:05:31  5-MIN KMKG 230805Z 25008KT 10SM OVC085 02/M03 A2985 690 72 -700 250/08 RMK AO2
14840KMKG MKG20060223031009702/23/06 03:10:31  5-MIN KMKG 230810Z 25008KT 10SM OVC085 01/M03 A2985 690 75 -700 250/08 RMK AO2
14840KMKG MKG20060223031509702/23/06 03:15:31  5-MIN KMKG 230815Z 24007KT 10SM OVC080 02/M03 A2985 700 72 -700 250/07 RMK AO2
14840KMKG MKG20060223032009702/23/06 03:20:31  5-MIN KMKG 230820Z 25008KT 10SM OVC080 02/M02 A2985 700 75 -700 250/08 RMK AO2
14840KMKG MKG20060223032509702/23/06 03:25:31  5-MIN KMKG 230825Z 24009KT 10SM OVC080 02/M03 A2985 700 72 -700 250/09 RMK AO2
14840KMKG MKG20060223033009702/23/06 03:30:31  5-MIN KMKG 230830Z 24009KT 10SM OVC075 02/M03 A2985 700 72 -700 250/09 RMK AO2
14840KMKG MKG20060223033509702/23/06 03:35:31  5-MIN KMKG 230835Z 24009KT 10SM OVC070 02/M03 A2985 700 72 -700 240/09 RMK AO2
14840KMKG MKG20060223034009702/23/06 03:40:31  5-MIN KMKG 230840Z 24009KT 10SM OVC070 02/M03 A2984 700 72 -700 240/09 RMK AO2
14840KMKG MKG20060223034509702/23/06 03:45:31  5-MIN KMKG 230845Z 24010KT 10SM OVC070 02/M02 A2984 700 75 -700 240/10 RMK AO2
14840KMKG MKG20060223035012002/23/06 03:50:31  5-MIN KMKG 230850Z 24010KT 10SM OVC070 02/M02 A2984 700 75 -700 240/10 RMK AO2 SLP112 T00171022 58003
14840KMKG MKG20060223035512002/23/06 03:55:31  5-MIN KMKG 230855Z 24009KT 10SM OVC070 02/M02 A2984 700 75 -700 240/09 RMK AO2 SLP111 T00171022 58004
14840KMKG MKG20060223040009702/23/06 04:00:31  5-MIN KMKG 230900Z 24010KT 10SM OVC070 02/M02 A2984 700 75 -700 240/10 RMK AO2
14840KMKG MKG20060223040509702/23/06 04:05:31  5-MIN KMKG 230905Z 24009KT 10SM OVC070 02/M02 A2984 700 75 -700 240/09 RMK AO2
14840KMKG MKG20060223041009702/23/06 04:10:31  5-MIN KMKG 230910Z 24010KT 10SM OVC070 02/M02 A2984 710 75 -700 240/10 RMK AO2
14840KMKG MKG20060223041509702/23/06 04:15:31  5-MIN KMKG 230915Z 24010KT 10SM OVC070 02/M02 A2984 710 75 -700 240/10 RMK AO2
14840KMKG MKG20060223042009702/23/06 04:20:31  5-MIN KMKG 230920Z 24010KT 10SM OVC070 02/M02 A2984 700 75 -700 240/10 RMK AO2
14840KMKG MKG20060223042509702/23/06 04:25:31  5-MIN KMKG 230925Z 24010KT 10SM OVC070 02/M02 A2984 700 75 -700 240/10 RMK AO2
14840KMKG MKG20060223043009702/23/06 04:30:31  5-MIN KMKG 230930Z 23010KT 10SM OVC070 02/M02 A2984 700 75 -700 240/10 RMK AO2
14840KMKG MKG20060223043509702/23/06 04:35:31  5-MIN KMKG 230935Z 23009KT 10SM OVC070 02/M02 A2984 710 75 -700 230/09 RMK AO2
14840KMKG MKG20060223044009702/23/06 04:40:31  5-MIN KMKG 230940Z 23011KT 10SM OVC070 02/M02 A2984 710 75 -700 230/11 RMK AO2
14840KMKG MKG20060223044509702/23/06 04:45:31  5-MIN KMKG 230945Z 22010KT 10SM OVC070 02/M02 A2984 710 75 -700 230/10 RMK AO2
14840KMKG MKG20060223045011402/23/06 04:50:31  5-MIN KMKG 230950Z 22011KT 10SM OVC070 02/M02 A2984 710 75 -700 230/11 RMK AO2 SLP110 T00171022
14840KMKG MKG20060223045512102/23/06 04:55:31  5-MIN KMKG 230955Z 22012KT 10SM BKN065 BKN075 02/M02 A2984 710 75 -700 230/12 RMK AO2 SLP110 T00171022
14840KMKG MKG20060223050009702/23/06 05:00:31  5-MIN KMKG 231000Z 22012KT 10SM BKN070 02/M02 A2984 710 75 -700 230/12 RMK AO2
14840KMKG MKG20060223050509702/23/06 05:05:31  5-MIN KMKG 231005Z 23012KT 10SM SCT070 02/M02 A2984 710 75 -700 230/12 RMK AO2
14840KMKG MKG20060223051009702/23/06 05:10:31  5-MIN KMKG 231010Z 23012KT 10SM SCT065 01/M02 A2984 700 78 -700 230/12 RMK AO2
14840KMKG MKG20060223051509702/23/06 05:15:31  5-MIN KMKG 231015Z 23010KT 10SM FEW060 01/M02 A2984 700 78 -700 230/10 RMK AO2
14840KMKG MKG20060223052009702/23/06 05:20:31  5-MIN KMKG 231020Z 22010KT 10SM FEW060 01/M02 A2984 700 78 -700 230/10 RMK AO2
14840KMKG MKG20060223052509402/23/06 05:25:31  5-MIN KMKG 231025Z 22010KT 10SM CLR 01/M02 A2984 700 78 -700 230/10 RMK AO2
14840KMKG MKG20060223053009402/23/06 05:30:31  5-MIN KMKG 231030Z 23010KT 10SM CLR 01/M02 A2984 710 78 -700 230/10 RMK AO2
14840KMKG MKG20060223053509402/23/06 05:35:31  5-MIN KMKG 231035Z 22011KT 10SM CLR 01/M02 A2984 710 78 -700 230/11 RMK AO2
14840KMKG MKG20060223054009402/23/06 05:40:31  5-MIN KMKG 231040Z 23011KT 10SM CLR 01/M02 A2984 710 78 -700 230/11 RMK AO2
14840KMKG MKG20060223054509402/23/06 05:45:31  5-MIN KMKG 231045Z 22012KT 10SM CLR 01/M02 A2984 710 78 -700 220/12 RMK AO2
14840KMKG MKG20060223055011102/23/06 05:50:31  5-MIN KMKG 231050Z 22011KT 10SM CLR 01/M02 A2983 710 78 -700 220/11 RMK AO2 SLP109 T00111022
14840KMKG MKG20060223055511102/23/06 05:55:31  5-MIN KMKG 231055Z 23010KT 10SM CLR 02/M02 A2984 700 75 -700 240/10 RMK AO2 SLP111 T00171022
14840KMKG MKG20060223060009402/23/06 06:00:31  5-MIN KMKG 231100Z 24010KT 10SM CLR 01/M02 A2984 700 78 -700 240/10 RMK AO2
14840KMKG MKG20060223060509402/23/06 06:05:31  5-MIN KMKG 231105Z 24010KT 10SM CLR 01/M02 A2985 700 78 -700 240/10 RMK AO2
14840KMKG MKG20060223061009402/23/06 06:10:31  5-MIN KMKG 231110Z 24010KT 10SM CLR 01/M02 A2985 690 78 -700 240/10 RMK AO2
14840KMKG MKG20060223061509402/23/06 06:15:31  5-MIN KMKG 231115Z 24010KT 10SM CLR 01/M02 A2985 690 78 -700 240/10 RMK AO2
14840KMKG MKG20060223062009402/23/06 06:20:31  5-MIN KMKG 231120Z 24011KT 10SM CLR 01/M02 A2985 690 78 -700 250/11 RMK AO2
14840KMKG MKG20060223062509402/23/06 06:25:31  5-MIN KMKG 231125Z 25010KT 10SM CLR 02/M03 A2985 690 72 -700 260/10 RMK AO2
14840KMKG MKG20060223063009402/23/06 06:30:31  5-MIN KMKG 231130Z 25009KT 10SM CLR 01/M03 A2985 690 75 -700 260/09 RMK AO2
14840KMKG MKG20060223063509402/23/06 06:35:31  5-MIN KMKG 231135Z 25010KT 10SM CLR 02/M03 A2985 690 72 -700 250/10 RMK AO2
14840KMKG MKG20060223064009402/23/06 06:40:31  5-MIN KMKG 231140Z 25010KT 10SM CLR 02/M03 A2985 690 72 -700 250/10 RMK AO2
14840KMKG MKG20060223064509402/23/06 06:45:31  5-MIN KMKG 231145Z 25009KT 10SM CLR 01/M03 A2985 690 75 -700 250/09 RMK AO2
14840KMKG MKG20060223065012902/23/06 06:50:31  5-MIN KMKG 231150Z 25010KT 10SM CLR 01/M03 A2985 690 75 -700 260/10 RMK AO2 SLP117 T00111028 10017 21006 58004
14840KMKG MKG20060223065512902/23/06 06:55:31  5-MIN KMKG 231155Z 25009KT 10SM CLR 01/M03 A2986 690 75 -700 260/09 RMK AO2 SLP117 T00111028 10017 21006 53005
14840KMKG MKG20060223070009402/23/06 07:00:31  5-MIN KMKG 231200Z 25009KT 10SM CLR 01/M03 A2985 690 75 -700 260/09 RMK AO2
14840KMKG MKG20060223070509402/23/06 07:05:31  5-MIN KMKG 231205Z 25009KT 10SM CLR 01/M03 A2986 690 75 -700 260/09 RMK AO2
14840KMKG MKG20060223071009402/23/06 07:10:31  5-MIN KMKG 231210Z 25010KT 10SM CLR 01/M03 A2985 690 75 -700 250/10 RMK AO2
14840KMKG MKG20060223071509402/23/06 07:15:31  5-MIN KMKG 231215Z 25008KT 10SM CLR 01/M03 A2985 690 75 -700 260/08 RMK AO2
14840KMKG MKG20060223072009402/23/06 07:20:31  5-MIN KMKG 231220Z 25008KT 10SM CLR 01/M03 A2985 690 75 -700 250/08 RMK AO2
14840KMKG MKG20060223072509402/23/06 07:25:31  5-MIN KMKG 231225Z 25008KT 10SM CLR 01/M03 A2985 700 75 -700 250/08 RMK AO2
14840KMKG MKG20060223073009402/23/06 07:30:31  5-MIN KMKG 231230Z 24009KT 10SM CLR 01/M03 A2985 700 75 -700 250/09 RMK AO2
14840KMKG MKG20060223073509702/23/06 07:35:31  5-MIN KMKG 231235Z 25008KT 10SM FEW090 01/M03 A2985 700 75 -700 250/08 RMK AO2
14840KMKG MKG20060223074010402/23/06 07:40:31  5-MIN KMKG 231240Z 25007KT 10SM FEW070 SCT090 01/M03 A2985 700 75 -700 260/07 RMK AO2
14840KMKG MKG20060223074510402/23/06 07:45:31  5-MIN KMKG 231245Z 25009KT 10SM FEW070 SCT090 01/M03 A2985 690 75 -700 250/09 RMK AO2
14840KMKG MKG20060223075011402/23/06 07:50:31  5-MIN KMKG 231250Z 25009KT 10SM FEW070 01/M03 A2985 690 75 -700 260/09 RMK AO2 SLP116 T00111028
14840KMKG MKG20060223075511402/23/06 07:55:31  5-MIN KMKG 231255Z 25008KT 10SM FEW070 01/M03 A2985 690 75 -700 250/08 RMK AO2 SLP116 T00111028
14840KMKG MKG20060223080009702/23/06 08:00:31  5-MIN KMKG 231300Z 26009KT 10SM FEW070 01/M03 A2985 690 75 -700 260/09 RMK AO2
14840KMKG MKG20060223080509702/23/06 08:05:31  5-MIN KMKG 231305Z 26007KT 10SM FEW070 01/M02 A2986 690 78 -700 260/07 RMK AO2
14840KMKG MKG20060223081009402/23/06 08:10:31  5-MIN KMKG 231310Z 26009KT 10SM CLR 02/M02 A2986 690 75 -700 260/09 RMK AO2
14840KMKG MKG20060223081509402/23/06 08:15:31  5-MIN KMKG 231315Z 26009KT 10SM CLR 02/M02 A2986 680 75 -700 270/09 RMK AO2
14840KMKG MKG20060223082009702/23/06 08:20:31  5-MIN KMKG 231320Z 27009KT 10SM FEW065 02/M02 A2987 680 75 -700 270/09 RMK AO2
14840KMKG MKG20060223082509702/23/06 08:25:31  5-MIN KMKG 231325Z 26009KT 10SM SCT065 02/M02 A2987 680 72 -600 270/09 RMK AO2
14840KMKG MKG20060223083009702/23/06 08:30:31  5-MIN KMKG 231330Z 26009KT 10SM BKN065 02/M02 A2986 680 75 -700 270/09 RMK AO2
14840KMKG MKG20060223083509702/23/06 08:35:31  5-MIN KMKG 231335Z 26011KT 10SM BKN070 02/M02 A2987 680 72 -600 260/11 RMK AO2
14840KMKG MKG20060223084009702/23/06 08:40:31  5-MIN KMKG 231340Z 26009KT 10SM BKN065 02/M02 A2986 680 72 -600 260/09 RMK AO2
14840KMKG MKG20060223084509702/23/06 08:45:31  5-MIN KMKG 231345Z 26010KT 10SM OVC070 02/M02 A2987 680 75 -700 270/10 RMK AO2
14840KMKG MKG20060223085011402/23/06 08:50:31  5-MIN KMKG 231350Z 26008KT 10SM OVC070 02/M02 A2987 680 72 -600 260/08 RMK AO2 SLP122 T00221022
14840KMKG MKG20060223085511402/23/06 08:55:31  5-MIN KMKG 231355Z 25011KT 10SM BKN070 02/M03 A2987 680 69 -600 260/11 RMK AO2 SLP122 T00221028
14840KMKG MKG20060223090009702/23/06 09:00:31  5-MIN KMKG 231400Z 27011KT 10SM OVC065 02/M03 A2988 670 69 -600 270/11 RMK AO2
14840KMKG MKG20060223090509702/23/06 09:05:31  5-MIN KMKG 231405Z 27011KT 10SM OVC070 02/M03 A2988 670 72 -700 270/11 RMK AO2
14840KMKG MKG20060223091009702/23/06 09:10:31  5-MIN KMKG 231410Z 27012KT 10SM OVC065 02/M02 A2988 670 75 -700 280/12 RMK AO2
14840KMKG MKG20060223091510302/23/06 09:15:31  5-MIN KMKG 231415Z 27010G18KT 10SM OVC065 02/M02 A2989 660 75 -700 270/10G18 RMK AO2
14840KMKG MKG20060223092010302/23/06 09:20:31  5-MIN KMKG 231420Z 27009G18KT 10SM OVC070 02/M02 A2988 660 75 -700 270/09G18 RMK AO2
14840KMKG MKG20060223092509702/23/06 09:25:31  5-MIN KMKG 231425Z 27012KT 10SM OVC070 02/M03 A2989 660 72 -700 280/12 RMK AO2
14840KMKG MKG20060223093009702/23/06 09:30:31  5-MIN KMKG 231430Z 28011KT 10SM OVC070 02/M03 A2989 660 72 -700 280/11 RMK AO2
14840KMKG MKG20060223093509702/23/06 09:35:31  5-MIN KMKG 231435Z 28012KT 10SM OVC070 02/M03 A2989 660 72 -700 280/12 RMK AO2
14840KMKG MKG20060223094010402/23/06 09:40:31  5-MIN KMKG 231440Z 28010KT 10SM FEW035 OVC070 02/M02 A2989 660 75 -700 280/10 RMK AO2
14840KMKG MKG20060223094511002/23/06 09:45:31  5-MIN KMKG 231445Z 28012G18KT 10SM FEW035 OVC070 02/M02 A2989 660 75 -700 290/12G18 RMK AO2
14840KMKG MKG20060223095012702/23/06 09:50:31  5-MIN KMKG 231450Z 28013KT 10SM SCT035 OVC070 02/M03 A2990 650 72 -700 280/13 RMK AO2 SLP131 T00171028 53005
14840KMKG MKG20060223095512702/23/06 09:55:31  5-MIN KMKG 231455Z 28012KT 10SM BKN035 OVC070 02/M03 A2989 650 69 -700 280/12 RMK AO2 SLP131 T00171033 53013
14840KMKG MKG20060223100011002/23/06 10:00:31  5-MIN KMKG 231500Z 29013G18KT 10SM BKN037 OVC070 02/M03 A2990 650 69 -700 290/13G18 RMK AO2
14840KMKG MKG20060223100512502/23/06 10:05:31  5-MIN KMKG 231505Z 29010G18KT 9SM -SN FEW021 OVC037 02/M03 A2990 650 69 -700 300/10G18 RMK AO2 SNB05 P0000
14840KMKG MKG20060223101012302/23/06 10:10:31  5-MIN KMKG 231510Z 29014KT 2 1/2SM -SN SCT014 OVC037 01/M03 A2990 650 75 -800 290/14 RMK AO2 SNB05 P0000
14840KMKG MKG20060223101513102/23/06 10:15:31  5-MIN KMKG 231515Z 29014KT 3/4SM -SN BKN009 OVC037 01/M02 A2990 650 82 -900 290/14 RMK AO2 TWR VIS 1 SNB05 P0000
14840KMKG MKG20060223102013902/23/06 10:20:31  5-MIN KMKG 231520Z 30010G17KT 1/2SM SN FG BKN009 OVC039 00/M02 A2990 650 85 -900 300/10G17 RMK AO2 TWR VIS 1 SNB05 P0000
14840KMKG MKG20060223102514702/23/06 10:25:31  5-MIN KMKG 231525Z 29013G17KT 3/4SM -SN BR BKN007 BKN011 OVC039 00/M02 A2991 640 88 -900 290/13G17 RMK AO2 TWR VIS 1 SNB05 P0000
14840KMKG MKG20060223103013602/23/06 10:30:31  5-MIN KMKG 231530Z 28011KT 3/4SM -SN BR BKN007 OVC011 M01/M02 A2991 640 92 -1000 290/11 RMK AO2 TWR VIS 1 SNB05 P0000
14840KMKG MKG20060223103511902/23/06 10:35:31  5-MIN KMKG 231535Z 28012KT 1/2SM SN FZFG VV006 M01/M02 A2992 630 92 -1000 290/12 RMK AO2 SNB05 P0000
14840KMKG MKG20060223104014002/23/06 10:40:31  5-MIN KMKG 231540Z 28012KT 1/4SM +SN FZFG BKN004 OVC009 M01/M02 A2992 630 92 -1000 290/12 RMK AO2 TWR VIS 1/2 SNB05 P0000
14840KMKG MKG20060223104514002/23/06 10:45:31  5-MIN KMKG 231545Z 29011KT 1/4SM +SN FZFG BKN004 OVC009 M01/M02 A2992 630 92 -1000 290/11 RMK AO2 TWR VIS 1/2 SNB05 P0000
14840KMKG MKG20060223105015702/23/06 10:50:31  5-MIN KMKG 231550Z 30011KT 1/4SM +SN FZFG BKN004 OVC009 M01/M01 A2992 630 96 -1000 300/11 RMK AO2 TWR VIS 1/2 SNB05 SLP139 P0001 T10061011
14840KMKG MKG20060223105514502/23/06 10:55:31  5-MIN KMKG 231555Z 29012KT 1/4SM +SN FZFG BKN002 OVC007 M01/M01 A2992 630 96 -1000 290/12 RMK AO2 SNB05 SLP139 P0002 T10061011
14840KMKG MKG20060223110012102/23/06 11:00:31  5-MIN KMKG 231600Z 29012KT 1/2SM SN FZFG BKN002 OVC007 M01/M02 A2992 630 92 -1000 290/12 RMK AO2 P0000
14840KMKG MKG20060223110511802/23/06 11:05:31  5-MIN KMKG 231605Z 28010KT 1SM -SN BR SCT002 OVC007 M01/M01 A2991 640 96 -1000 290/10 RMK AO2 P0000
14840KMKG MKG20060223111013202/23/06 11:10:31  5-MIN KMKG 231610Z 28007KT 1SM -SN BR SCT002 OVC007 M01/M01 A2991 640 96 -1000 290/07 RMK AO2 SFC VIS 1 1/2 P0000
14840KMKG MKG20060223111513902/23/06 11:15:31  5-MIN KMKG 231615Z 29010KT 1SM -SN BR FEW002 BKN007 OVC011 M01/M01 A2991 640 96 -1000 290/10 RMK AO2 SFC VIS 1 3/4 P0000
14840KMKG MKG20060223112013102/23/06 11:20:31  5-MIN KMKG 231620Z 29008KT 2SM -SN BR BKN007 BKN012 00/M01 A2992 630 92 -1000 290/08 RMK AO2 SFC VIS 2 1/2 P0000
14840KMKG MKG20060223112513402/23/06 11:25:31  5-MIN KMKG 231625Z 29009KT 2SM -SN BR BKN007 BKN012 OVC017 00/M01 A2992 630 92 -1000 290/09 RMK AO2 SFC VIS 3 P0000
14840KMKG MKG20060223113013102/23/06 11:30:31  5-MIN KMKG 231630Z 29008KT 2SM -SN BR BKN007 OVC012 00/M01 A2992 630 92 -1000 290/08 RMK AO2 SFC VIS 2 1/2 P0000
14840KMKG MKG20060223113513802/23/06 11:35:31  5-MIN KMKG 231635Z 29009KT 2SM -SN BR BKN007 BKN012 OVC043 00/M01 A2992 630 92 -1000 290/09 RMK AO2 SFC VIS 2 1/2 P0000
14840KMKG MKG20060223114012402/23/06 11:40:31  5-MIN KMKG 231640Z 28009KT 5SM -SN BR BKN008 BKN013 OVC041 00/M02 A2993 630 88 -1000 290/09 RMK AO2 P0000
14840KMKG MKG20060223114512102/23/06 11:45:31  5-MIN KMKG 231645Z 29007KT 8SM -SN SCT010 BKN018 OVC041 00/M02 A2993 630 88 -1000 290/07 RMK AO2 P0000
14840KMKG MKG20060223115013802/23/06 11:50:31  5-MIN KMKG 231650Z 28010KT 8SM -SN SCT010 BKN018 OVC041 00/M02 A2993 620 88 -1000 290/10 RMK AO2 SLP142 P0000 T00001017
14840KMKG MKG20060223115513802/23/06 11:55:31  5-MIN KMKG 231655Z 29011KT 8SM -SN FEW010 BKN018 OVC041 00/M02 A2993 620 85 -1000 290/11 RMK AO2 SLP144 P0000 T00001022
14840KMKG MKG20060223120012002/23/06 12:00:31  5-MIN KMKG 231700Z 30011KT 9SM -SN FEW010 BKN020 OVC050 01/M02 A2993 620 82 -900 310/11 RMK AO2 P0000
14840KMKG MKG20060223120512002/23/06 12:05:31  5-MIN KMKG 231705Z 30011KT 9SM -SN FEW018 BKN024 OVC100 01/M03 A2994 620 78 -900 310/11 RMK AO2 P0000
14840KMKG MKG20060223121012202/23/06 12:10:31  5-MIN KMKG 231710Z 30012KT 9SM FEW018 SCT024 BKN030 01/M03 A2994 610 78 -900 300/12 RMK AO2 SNE10 P0000
14840KMKG MKG20060223121512202/23/06 12:15:31  5-MIN KMKG 231715Z 31013KT 9SM FEW018 BKN024 BKN035 01/M03 A2994 610 78 -900 310/13 RMK AO2 SNE10 P0000
14840KMKG MKG20060223122012302/23/06 12:20:31  5-MIN KMKG 231720Z 31014KT 10SM FEW018 SCT026 BKN034 01/M03 A2994 610 75 -900 310/14 RMK AO2 SNE10 P0000
14840KMKG MKG20060223122514402/23/06 12:25:31  5-MIN KMKG 231725Z 32013G20KT 10SM FEW026 SCT035 BKN100 01/M04 A2994 610 72 -900 320/13G20 RMK AO2 SNE10 CIG 035 RWY 14 P0000
14840KMKG MKG20060223123012202/23/06 12:30:31  5-MIN KMKG 231730Z 31015G20KT 10SM FEW026 SCT035 01/M04 A2995 610 69 -900 310/15G20 RMK AO2 SNE10 P0000
14840KMKG MKG20060223123512202/23/06 12:35:31  5-MIN KMKG 231735Z 31014G20KT 10SM SCT026 SCT035 01/M04 A2995 610 69 -900 320/14G20 RMK AO2 SNE10 P0000
14840KMKG MKG20060223124011502/23/06 12:40:31  5-MIN KMKG 231740Z 31014G21KT 10SM SCT026 01/M04 A2995 600 69 -900 310/14G21 RMK AO2 SNE10 P0000
14840KMKG MKG20060223124511502/23/06 12:45:31  5-MIN KMKG 231745Z 30012G21KT 10SM SCT026 01/M04 A2995 600 69 -900 310/12G21 RMK AO2 SNE10 P0000
14840KMKG MKG20060223125015602/23/06 12:50:31  5-MIN KMKG 231750Z 31014G21KT 10SM FEW026 01/M04 A2995 600 66 -900 310/14G21 RMK AO2 SNE10 SLP148 P0000 60002 T00111044 10022 21006 53013
14840KMKG MKG20060223125516902/23/06 12:55:31  5-MIN KMKG 231755Z 31014G24KT 10SM SCT026 BKN035 01/M04 A2995 600 66 -900 320/14G24 RMK AO2 SNE10 SLP148 P0000 60002 4/001 T00111044 10022 21006 51018
14840KMKG MKG20060223130010302/23/06 13:00:31  5-MIN KMKG 231800Z 32014G24KT 10SM FEW026 01/M04 A2995 600 66 -900 330/14G24 RMK AO2
14840KMKG MKG20060223130510302/23/06 13:05:31  5-MIN KMKG 231805Z 31016G21KT 10SM FEW028 01/M05 A2995 610 64 -900 310/16G21 RMK AO2
14840KMKG MKG20060223131011002/23/06 13:10:31  5-MIN KMKG 231810Z 31016G21KT 10SM SCT028 BKN034 01/M04 A2995 600 66 -900 320/16G21 RMK AO2
14840KMKG MKG20060223131511002/23/06 13:15:31  5-MIN KMKG 231815Z 31016G20KT 10SM SCT028 BKN034 01/M05 A2995 600 64 -900 310/16G20 RMK AO2
14840KMKG MKG20060223132011002/23/06 13:20:31  5-MIN KMKG 231820Z 32017G20KT 10SM SCT028 BKN034 01/M06 A2995 600 61 -900 330/17G20 RMK AO2
14840KMKG MKG20060223132511002/23/06 13:25:31  5-MIN KMKG 231825Z 33015G20KT 10SM SCT028 BKN034 01/M06 A2995 600 61 -900 330/15G20 RMK AO2
14840KMKG MKG20060223133010402/23/06 13:30:31  5-MIN KMKG 231830Z 33014KT 10SM SCT028 BKN034 01/M06 A2996 600 61 -900 330/14 RMK AO2
14840KMKG MKG20060223133510402/23/06 13:35:31  5-MIN KMKG 231835Z 32014KT 10SM SCT028 BKN034 01/M06 A2995 600 61 -900 320/14 RMK AO2
14840KMKG MKG20060223134010302/23/06 13:40:31  5-MIN KMKG 231840Z 32014G20KT 10SM BKN037 01/M06 A2996 600 61 -900 330/14G20 RMK AO2
14840KMKG MKG20060223134509702/23/06 13:45:31  5-MIN KMKG 231845Z 32015KT 10SM BKN037 01/M06 A2996 600 61 -900 320/15 RMK AO2
14840KMKG MKG20060223135012002/23/06 13:50:31  5-MIN KMKG 231850Z 32016G25KT 10SM SCT036 01/M06 A2996 590 61 -900 320/16G25 RMK AO2 SLP153 T00111056
14840KMKG MKG20060223135512002/23/06 13:55:31  5-MIN KMKG 231855Z 34020G25KT 10SM BKN036 01/M06 A2996 590 63 -900 340/20G25 RMK AO2 SLP153 T00061056
14840KMKG MKG20060223140010402/23/06 14:00:31  5-MIN KMKG 231900Z 33015G23KT 10SM SCT036 00/M06 A2996 590 66 -1000 340/15G23 RMK AO2
14840KMKG MKG20060223140510302/23/06 14:05:31  5-MIN KMKG 231905Z 32016G24KT 10SM SCT036 01/M06 A2996 590 63 -900 320/16G24 RMK AO2
14840KMKG MKG20060223141010302/23/06 14:10:31  5-MIN KMKG 231910Z 32015G24KT 10SM SCT034 01/M06 A2996 590 61 -900 330/15G24 RMK AO2
14840KMKG MKG20060223141510302/23/06 14:15:31  5-MIN KMKG 231915Z 33018G25KT 10SM SCT034 01/M06 A2997 580 58 -900 340/18G25 RMK AO2
14840KMKG MKG20060223142010302/23/06 14:20:31  5-MIN KMKG 231920Z 31014G25KT 10SM FEW034 01/M07 A2996 590 56 -900 320/14G25 RMK AO2
14840KMKG MKG20060223142510302/23/06 14:25:31  5-MIN KMKG 231925Z 32017G21KT 10SM FEW034 01/M07 A2997 590 56 -900 320/17G21 RMK AO2
14840KMKG MKG20060223143010302/23/06 14:30:31  5-MIN KMKG 231930Z 32011G21KT 10SM SCT034 01/M06 A2997 590 61 -900 320/11G21 RMK AO2
14840KMKG MKG20060223143510402/23/06 14:35:31  5-MIN KMKG 231935Z 33019G23KT 10SM SCT034 01/M06 A2997 580 61 -1000 330/19G23 RMK AO2
14840KMKG MKG20060223144010402/23/06 14:40:31  5-MIN KMKG 231940Z 33015G23KT 10SM SCT034 01/M07 A2998 580 58 -1000 330/15G23 RMK AO2
14840KMKG MKG20060223144510402/23/06 14:45:31  5-MIN KMKG 231945Z 32016G21KT 10SM SCT034 01/M06 A2998 580 61 -1000 330/16G21 RMK AO2
14840KMKG MKG20060223145012102/23/06 14:50:31  5-MIN KMKG 231950Z 32014G21KT 10SM SCT034 01/M07 A2998 580 58 -1000 330/14G21 RMK AO2 SLP157 T00061067
14840KMKG MKG20060223145511502/23/06 14:55:31  5-MIN KMKG 231955Z 31015KT 10SM SCT034 01/M06 A2998 580 61 -1000 310/15 RMK AO2 SLP158 T00061061
14840KMKG MKG20060223150010402/23/06 15:00:31  5-MIN KMKG 232000Z 32012G22KT 10SM FEW034 01/M06 A2999 570 61 -1000 330/12G22 RMK AO2
14840KMKG MKG20060223150510402/23/06 15:05:31  5-MIN KMKG 232005Z 31012G22KT 10SM FEW034 01/M06 A2999 570 61 -1000 320/12G22 RMK AO2
14840KMKG MKG20060223151010402/23/06 15:10:31  5-MIN KMKG 232010Z 33013G21KT 10SM FEW034 01/M06 A2999 570 61 -1000 330/13G21 RMK AO2
14840KMKG MKG20060223151510402/23/06 15:15:31  5-MIN KMKG 232015Z 32015G20KT 10SM FEW034 01/M06 A2999 570 61 -1000 320/15G20 RMK AO2
14840KMKG MKG20060223152010402/23/06 15:20:31  5-MIN KMKG 232020Z 32018G23KT 10SM FEW034 01/M07 A2999 560 56 -1000 330/18G23 RMK AO2
14840KMKG MKG20060223152510402/23/06 15:25:31  5-MIN KMKG 232025Z 33015G23KT 10SM FEW034 00/M07 A2999 570 61 -1000 330/15G23 RMK AO2
14840KMKG MKG20060223153009902/23/06 15:30:31  5-MIN KMKG 232030Z 33017KT 10SM FEW034 M01/M07 A2999 560 61 -1100 330/17 RMK AO2
14840KMKG MKG20060223153509802/23/06 15:35:31  5-MIN KMKG 232035Z 33018KT 10SM FEW034 00/M07 A3000 560 58 -1100 330/18 RMK AO2
14840KMKG MKG20060223154010402/23/06 15:40:31  5-MIN KMKG 232040Z 33018G23KT 10SM FEW034 00/M07 A3000 560 58 -1100 330/18G23 RMK AO2
14840KMKG MKG20060223154510402/23/06 15:45:31  5-MIN KMKG 232045Z 33019G23KT 10SM FEW034 00/M08 A3001 550 56 -1100 330/19G23 RMK AO2
14840KMKG MKG20060223155012702/23/06 15:50:31  5-MIN KMKG 232050Z 32017G23KT 10SM SCT034 00/M08 A3001 550 53 -1100 330/17G23 RMK AO2 SLP169 T00001083 51018
14840KMKG MKG20060223155512702/23/06 15:55:31  5-MIN KMKG 232055Z 33017G22KT 10SM SCT034 00/M07 A3001 550 58 -1100 340/17G22 RMK AO2 SLP169 T00001072 53021
14840KMKG MKG20060223160010402/23/06 16:00:31  5-MIN KMKG 232100Z 32016G22KT 10SM SCT034 00/M08 A3002 540 56 -1100 330/16G22 RMK AO2
14840KMKG MKG20060223160510402/23/06 16:05:31  5-MIN KMKG 232105Z 30016G22KT 10SM SCT034 00/M08 A3002 540 53 -1100 310/16G22 RMK AO2
14840KMKG MKG20060223161010402/23/06 16:10:31  5-MIN KMKG 232110Z 31014G20KT 10SM SCT034 00/M09 A3002 540 49 -1100 310/14G20 RMK AO2
14840KMKG MKG20060223161510402/23/06 16:15:31  5-MIN KMKG 232115Z 32015G22KT 10SM SCT034 00/M09 A3003 530 49 -1100 320/15G22 RMK AO2
14840KMKG MKG20060223162010402/23/06 16:20:31  5-MIN KMKG 232120Z 31013G22KT 10SM SCT034 00/M09 A3003 530 49 -1100 310/13G22 RMK AO2
14840KMKG MKG20060223162510502/23/06 16:25:31  5-MIN KMKG 232125Z 32013G22KT 10SM SCT034 M01/M09 A3003 520 51 -1200 320/13G22 RMK AO2
14840KMKG MKG20060223163010402/23/06 16:30:31  5-MIN KMKG 232130Z 32015G20KT 10SM SCT034 00/M09 A3004 520 49 -1100 330/15G20 RMK AO2
14840KMKG MKG20060223163510502/23/06 16:35:31  5-MIN KMKG 232135Z 30015G23KT 10SM SCT034 M01/M10 A3004 520 49 -1200 310/15G23 RMK AO2
14840KMKG MKG20060223164010402/23/06 16:40:31  5-MIN KMKG 232140Z 32015G23KT 10SM SCT034 00/M11 A3004 520 45 -1100 330/15G23 RMK AO2
14840KMKG MKG20060223164510402/23/06 16:45:31  5-MIN KMKG 232145Z 33015G21KT 10SM SCT034 00/M10 A3005 510 47 -1100 330/15G21 RMK AO2
14840KMKG MKG20060223165012102/23/06 16:50:31  5-MIN KMKG 232150Z 31012G19KT 10SM SCT034 00/M09 A3005 510 49 -1100 320/12G19 RMK AO2 SLP181 T00001094
14840KMKG MKG20060223165512202/23/06 16:55:31  5-MIN KMKG 232155Z 31011G19KT 10SM SCT034 M01/M09 A3005 510 51 -1200 310/11G19 RMK AO2 SLP183 T10061094
14840KMKG MKG20060223170010502/23/06 17:00:31  5-MIN KMKG 232200Z 32014G20KT 10SM SCT035 M01/M09 A3006 500 51 -1200 320/14G20 RMK AO2
14840KMKG MKG20060223170510502/23/06 17:05:31  5-MIN KMKG 232205Z 32013G20KT 10SM SCT035 M01/M09 A3006 500 51 -1200 330/13G20 RMK AO2
14840KMKG MKG20060223171010502/23/06 17:10:31  5-MIN KMKG 232210Z 32013G22KT 10SM SCT035 M01/M09 A3006 500 51 -1200 320/13G22 RMK AO2
14840KMKG MKG20060223171510502/23/06 17:15:31  5-MIN KMKG 232215Z 31014G22KT 10SM SCT035 M01/M09 A3007 490 51 -1200 320/14G22 RMK AO2
14840KMKG MKG20060223172010502/23/06 17:20:31  5-MIN KMKG 232220Z 33013G22KT 10SM SCT035 M01/M09 A3007 490 51 -1200 330/13G22 RMK AO2
14840KMKG MKG20060223172509902/23/06 17:25:31  5-MIN KMKG 232225Z 31010KT 10SM SCT035 M01/M09 A3007 490 51 -1200 320/10 RMK AO2
14840KMKG MKG20060223173010502/23/06 17:30:31  5-MIN KMKG 232230Z 32015G18KT 10SM SCT035 M01/M09 A3007 490 51 -1200 320/15G18 RMK AO2
14840KMKG MKG20060223173510502/23/06 17:35:31  5-MIN KMKG 232235Z 32012G18KT 10SM SCT035 M01/M10 A3008 490 51 -1300 330/12G18 RMK AO2
14840KMKG MKG20060223174009902/23/06 17:40:31  5-MIN KMKG 232240Z 32012KT 10SM SCT035 M01/M09 A3007 490 53 -1300 320/12 RMK AO2
14840KMKG MKG20060223174510502/23/06 17:45:31  5-MIN KMKG 232245Z 31011G18KT 10SM SCT038 M01/M10 A3008 490 51 -1300 320/11G18 RMK AO2
14840KMKG MKG20060223175012202/23/06 17:50:31  5-MIN KMKG 232250Z 32013G18KT 10SM SCT038 M01/M10 A3008 480 51 -1300 320/13G18 RMK AO2 SLP195 T10111100
14840KMKG MKG20060223175512202/23/06 17:55:31  5-MIN KMKG 232255Z 31009G17KT 10SM SCT038 M01/M09 A3008 480 53 -1300 320/09G17 RMK AO2 SLP195 T10111094
14840KMKG MKG20060223180009902/23/06 18:00:31  5-MIN KMKG 232300Z 32012KT 10SM SCT038 M02/M10 A3008 480 53 -1400 320/12 RMK AO2
14840KMKG MKG20060223180509902/23/06 18:05:31  5-MIN KMKG 232305Z 32010KT 10SM SCT038 M02/M09 A3009 480 55 -1400 330/10 RMK AO2
14840KMKG MKG20060223181009902/23/06 18:10:31  5-MIN KMKG 232310Z 32011KT 10SM SCT038 M02/M09 A3009 480 55 -1400 330/11 RMK AO2
14840KMKG MKG20060223181509902/23/06 18:15:31  5-MIN KMKG 232315Z 32012KT 10SM SCT038 M02/M09 A3009 470 55 -1400 320/12 RMK AO2
14840KMKG MKG20060223182009902/23/06 18:20:31  5-MIN KMKG 232320Z 32009KT 10SM SCT038 M02/M09 A3009 470 55 -1400 330/09 RMK AO2
14840KMKG MKG20060223182509902/23/06 18:25:31  5-MIN KMKG 232325Z 32010KT 10SM SCT038 M02/M10 A3009 470 53 -1400 330/10 RMK AO2
14840KMKG MKG20060223183009902/23/06 18:30:31  5-MIN KMKG 232330Z 32008KT 10SM SCT038 M02/M10 A3009 470 53 -1400 330/08 RMK AO2
14840KMKG MKG20060223183509902/23/06 18:35:31  5-MIN KMKG 232335Z 32008KT 10SM SCT038 M02/M10 A3009 470 53 -1400 320/08 RMK AO2
14840KMKG MKG20060223184009902/23/06 18:40:31  5-MIN KMKG 232340Z 32010KT 10SM SCT038 M02/M09 A3010 470 55 -1400 320/10 RMK AO2
14840KMKG MKG20060223184509902/23/06 18:45:31  5-MIN KMKG 232345Z 32009KT 10SM SCT038 M02/M10 A3010 470 53 -1400 330/09 RMK AO2
14840KMKG MKG20060223185013402/23/06 18:50:31  5-MIN KMKG 232350Z 32009KT 10SM SCT038 M02/M10 A3010 460 53 -1400 320/09 RMK AO2 SLP201 T10171100 10011 21022 53021
14840KMKG MKG20060223185514002/23/06 18:55:31  5-MIN KMKG 232355Z 32008KT 10SM FEW038 M02/M10 A3010 460 53 -1400 320/08 RMK AO2 SLP201 4/001 T10171100 10011 21022 51030
14840KMKG MKG20060223190009602/23/06 19:00:31  5-MIN KMKG 240000Z 33011KT 10SM CLR M02/M10 A3010 460 53 -1400 330/11 RMK AO2
14840KMKG MKG20060223190509602/23/06 19:05:31  5-MIN KMKG 240005Z 32009KT 10SM CLR M02/M10 A3011 460 53 -1400 330/09 RMK AO2
14840KMKG MKG20060223191009602/23/06 19:10:31  5-MIN KMKG 240010Z 32008KT 10SM CLR M02/M11 A3011 460 51 -1400 330/08 RMK AO2
14840KMKG MKG20060223191509602/23/06 19:15:31  5-MIN KMKG 240015Z 33011KT 10SM CLR M02/M11 A3011 460 51 -1400 330/11 RMK AO2
14840KMKG MKG20060223192009602/23/06 19:20:31  5-MIN KMKG 240020Z 32009KT 10SM CLR M02/M11 A3011 450 51 -1400 320/09 RMK AO2
14840KMKG MKG20060223192509902/23/06 19:25:31  5-MIN KMKG 240025Z 32009KT 10SM FEW043 M02/M11 A3012 450 53 -1500 320/09 RMK AO2
14840KMKG MKG20060223193010502/23/06 19:30:31  5-MIN KMKG 240030Z 32010G15KT 10SM FEW043 M02/M11 A3012 440 51 -1400 320/10G15 RMK AO2
14840KMKG MKG20060223193509902/23/06 19:35:31  5-MIN KMKG 240035Z 32009KT 10SM FEW043 M02/M10 A3013 440 53 -1400 320/09 RMK AO2
14840KMKG MKG20060223194009902/23/06 19:40:31  5-MIN KMKG 240040Z 32009KT 10SM SCT045 M02/M10 A3013 440 53 -1400 320/09 RMK AO2
14840KMKG MKG20060223194509902/23/06 19:45:31  5-MIN KMKG 240045Z 33007KT 10SM BKN045 M02/M10 A3013 440 53 -1400 330/07 RMK AO2
14840KMKG MKG20060223195011602/23/06 19:50:31  5-MIN KMKG 240050Z 32008KT 10SM BKN045 M02/M10 A3013 430 53 -1400 330/08 RMK AO2 SLP212 T10171100
14840KMKG MKG20060223195511602/23/06 19:55:31  5-MIN KMKG 240055Z 33009KT 10SM BKN045 M02/M10 A3014 430 53 -1400 330/09 RMK AO2 SLP213 T10171100
14840KMKG MKG20060223200009902/23/06 20:00:31  5-MIN KMKG 240100Z 33009KT 10SM BKN045 M02/M10 A3014 430 53 -1400 330/09 RMK AO2
14840KMKG MKG20060223200509902/23/06 20:05:31  5-MIN KMKG 240105Z 32008KT 10SM BKN045 M02/M10 A3014 430 53 -1400 320/08 RMK AO2
14840KMKG MKG20060223201009902/23/06 20:10:31  5-MIN KMKG 240110Z 32009KT 10SM SCT045 M02/M10 A3014 420 53 -1400 320/09 RMK AO2
14840KMKG MKG20060223201509902/23/06 20:15:31  5-MIN KMKG 240115Z 32009KT 10SM SCT048 M02/M10 A3015 420 53 -1400 320/09 RMK AO2
14840KMKG MKG20060223202009902/23/06 20:20:31  5-MIN KMKG 240120Z 32009KT 10SM SCT048 M02/M10 A3015 420 53 -1400 320/09 RMK AO2
14840KMKG MKG20060223202509902/23/06 20:25:31  5-MIN KMKG 240125Z 31010KT 10SM SCT048 M02/M11 A3015 420 51 -1400 310/10 RMK AO2
14840KMKG MKG20060223203009902/23/06 20:30:31  5-MIN KMKG 240130Z 31008KT 10SM FEW048 M02/M10 A3015 420 53 -1400 310/08 RMK AO2
14840KMKG MKG20060223203509902/23/06 20:35:31  5-MIN KMKG 240135Z 31009KT 10SM SCT048 M02/M10 A3015 410 53 -1400 310/09 RMK AO2
14840KMKG MKG20060223204009902/23/06 20:40:31  5-MIN KMKG 240140Z 30009KT 10SM BKN048 M02/M10 A3015 410 53 -1400 310/09 RMK AO2
14840KMKG MKG20060223204509902/23/06 20:45:31  5-MIN KMKG 240145Z 31009KT 10SM BKN048 M02/M10 A3016 410 53 -1400 310/09 RMK AO2
14840KMKG MKG20060223205011602/23/06 20:50:31  5-MIN KMKG 240150Z 31009KT 10SM BKN048 M02/M10 A3016 410 53 -1400 310/09 RMK AO2 SLP220 T10171100
14840KMKG MKG20060223205511602/23/06 20:55:31  5-MIN KMKG 240155Z 31009KT 10SM OVC048 M02/M10 A3016 410 53 -1400 320/09 RMK AO2 SLP221 T10171100
14840KMKG MKG20060223210010602/23/06 21:00:31  5-MIN KMKG 240200Z 31010KT 10SM FEW043 OVC050 M02/M09 A3016 410 55 -1400 320/10 RMK AO2
14840KMKG MKG20060223210510602/23/06 21:05:31  5-MIN KMKG 240205Z 32010KT 10SM FEW041 OVC050 M02/M09 A3016 410 55 -1400 330/10 RMK AO2
14840KMKG MKG20060223211011202/23/06 21:10:31  5-MIN KMKG 240210Z 33014G20KT 10SM SCT039 OVC050 M02/M09 A3017 400 55 -1500 330/14G20 RMK AO2
14840KMKG MKG20060223211511202/23/06 21:15:31  5-MIN KMKG 240215Z 34013G20KT 10SM BKN039 OVC050 M02/M08 A3017 400 60 -1500 350/13G20 RMK AO2
14840KMKG MKG20060223212010602/23/06 21:20:31  5-MIN KMKG 240220Z 35011KT 10SM BKN041 OVC050 M02/M08 A3017 400 60 -1500 350/11 RMK AO2
14840KMKG MKG20060223212510602/23/06 21:25:31  5-MIN KMKG 240225Z 34012KT 10SM BKN041 OVC050 M02/M09 A3018 390 58 -1500 350/12 RMK AO2
14840KMKG MKG20060223213010602/23/06 21:30:31  5-MIN KMKG 240230Z 33009KT 10SM BKN041 OVC050 M02/M08 A3018 390 60 -1500 330/09 RMK AO2
14840KMKG MKG20060223213510602/23/06 21:35:31  5-MIN KMKG 240235Z 33008KT 10SM BKN041 OVC050 M02/M09 A3017 400 58 -1500 330/08 RMK AO2
14840KMKG MKG20060223214010602/23/06 21:40:31  5-MIN KMKG 240240Z 33012KT 10SM BKN041 OVC050 M02/M09 A3018 390 58 -1500 330/12 RMK AO2
14840KMKG MKG20060223214510602/23/06 21:45:31  5-MIN KMKG 240245Z 34010KT 10SM BKN041 OVC050 M02/M09 A3018 390 58 -1500 350/10 RMK AO2
14840KMKG MKG20060223215013502/23/06 21:50:31  5-MIN KMKG 240250Z 33013G17KT 10SM BKN041 OVC050 M02/M09 A3018 390 58 -1500 330/13G17 RMK AO2 SLP227 T10171089 51030
14840KMKG MKG20060223215513502/23/06 21:55:31  5-MIN KMKG 240255Z 33011G17KT 10SM BKN041 OVC050 M02/M09 A3018 390 55 -1500 340/11G17 RMK AO2 SLP228 T10171094 51026
14840KMKG MKG20060223220010602/23/06 22:00:31  5-MIN KMKG 240300Z 33008KT 10SM SCT041 OVC050 M02/M09 A3018 390 55 -1500 340/08 RMK AO2
14840KMKG MKG20060223220509902/23/06 22:05:31  5-MIN KMKG 240305Z 34011KT 10SM OVC045 M02/M09 A3019 380 55 -1500 340/11 RMK AO2
14840KMKG MKG20060223221009902/23/06 22:10:31  5-MIN KMKG 240310Z 33010KT 10SM OVC045 M02/M10 A3019 380 53 -1500 330/10 RMK AO2
14840KMKG MKG20060223221509902/23/06 22:15:31  5-MIN KMKG 240315Z 33008KT 10SM OVC047 M02/M10 A3019 380 53 -1500 330/08 RMK AO2
14840KMKG MKG20060223222010502/23/06 22:20:31  5-MIN KMKG 240320Z 34013G16KT 10SM OVC047 M02/M10 A3019 380 53 -1500 340/13G16 RMK AO2
14840KMKG MKG20060223222509902/23/06 22:25:31  5-MIN KMKG 240325Z 32011KT 10SM OVC047 M02/M10 A3019 380 53 -1500 330/11 RMK AO2
14840KMKG MKG20060223223010502/23/06 22:30:31  5-MIN KMKG 240330Z 33012G20KT 10SM OVC047 M02/M10 A3020 380 53 -1500 330/12G20 RMK AO2
14840KMKG MKG20060223223510502/23/06 22:35:31  5-MIN KMKG 240335Z 31012G20KT 10SM OVC047 M02/M10 A3020 380 53 -1500 320/12G20 RMK AO2
14840KMKG MKG20060223224010502/23/06 22:40:31  5-MIN KMKG 240340Z 33010G17KT 10SM OVC045 M02/M10 A3020 370 53 -1500 330/10G17 RMK AO2
14840KMKG MKG20060223224509902/23/06 22:45:31  5-MIN KMKG 240345Z 33010KT 10SM OVC045 M02/M10 A3020 370 53 -1500 330/10 RMK AO2
14840KMKG MKG20060223225012202/23/06 22:50:31  5-MIN KMKG 240350Z 33012G18KT 10SM OVC045 M02/M10 A3021 370 53 -1500 340/12G18 RMK AO2 SLP237 T10171100
14840KMKG MKG20060223225512202/23/06 22:55:31  5-MIN KMKG 240355Z 33011G18KT 10SM OVC047 M02/M10 A3020 370 53 -1500 330/11G18 RMK AO2 SLP237 T10171100
14840KMKG MKG20060223230009902/23/06 23:00:31  5-MIN KMKG 240400Z 33013KT 10SM OVC048 M02/M10 A3021 370 53 -1500 340/13 RMK AO2
14840KMKG MKG20060223230509902/23/06 23:05:31  5-MIN KMKG 240405Z 33013KT 10SM OVC048 M02/M10 A3021 360 53 -1500 330/13 RMK AO2
14840KMKG MKG20060223231009902/23/06 23:10:31  5-MIN KMKG 240410Z 33010KT 10SM OVC048 M02/M10 A3021 360 53 -1500 340/10 RMK AO2
14840KMKG MKG20060223231509902/23/06 23:15:31  5-MIN KMKG 240415Z 33010KT 10SM OVC048 M02/M10 A3021 360 53 -1500 330/10 RMK AO2
14840KMKG MKG20060223232009902/23/06 23:20:31  5-MIN KMKG 240420Z 33009KT 10SM OVC048 M02/M10 A3021 360 55 -1600 330/09 RMK AO2
14840KMKG MKG20060223232509902/23/06 23:25:31  5-MIN KMKG 240425Z 33010KT 10SM OVC048 M02/M10 A3022 360 55 -1600 330/10 RMK AO2
14840KMKG MKG20060223233009902/23/06 23:30:31  5-MIN KMKG 240430Z 34010KT 10SM OVC048 M02/M11 A3022 360 51 -1600 350/10 RMK AO2
14840KMKG MKG20060223233509902/23/06 23:35:31  5-MIN KMKG 240435Z 34009KT 10SM OVC048 M02/M11 A3022 360 51 -1600 340/09 RMK AO2
14840KMKG MKG20060223234009902/23/06 23:40:31  5-MIN KMKG 240440Z 34013KT 10SM OVC048 M02/M12 A3022 360 48 -1600 340/13 RMK AO2
14840KMKG MKG20060223234509902/23/06 23:45:31  5-MIN KMKG 240445Z 33011KT 10SM OVC048 M02/M12 A3022 360 48 -1600 340/11 RMK AO2
14840KMKG MKG20060223235012602/23/06 23:50:31  5-MIN KMKG 240450Z 34008KT 10SM OVC046 M02/M11 A3022 350 51 -1600 340/08 RMK AO2 SLP242 T10221111 400221022
14840KMKG MKG20060223235512602/23/06 23:55:31  5-MIN KMKG 240455Z 33008KT 10SM OVC046 M02/M11 A3022 350 51 -1600 330/08 RMK AO2 SLP242 T10221111 400221022
14840KMKG MKG20060224000009902/24/06 00:00:32  5-MIN KMKG 240500Z 33006KT 10SM OVC046 M02/M11 A3022 350 51 -1600 330/06 RMK AO2
14840KMKG MKG20060224000509902/24/06 00:05:31  5-MIN KMKG 240505Z 33007KT 10SM OVC046 M02/M11 A3022 350 53 -1600 340/07 RMK AO2
14840KMKG MKG20060224001009902/24/06 00:10:31  5-MIN KMKG 240510Z 33009KT 10SM OVC046 M02/M11 A3023 350 53 -1600 340/09 RMK AO2
14840KMKG MKG20060224001509902/24/06 00:15:31  5-MIN KMKG 240515Z 33011KT 10SM OVC046 M02/M11 A3023 350 53 -1600 330/11 RMK AO2
14840KMKG MKG20060224002009902/24/06 00:20:31  5-MIN KMKG 240520Z 33008KT 10SM OVC046 M02/M11 A3023 350 53 -1600 340/08 RMK AO2
14840KMKG MKG20060224002509902/24/06 00:25:31  5-MIN KMKG 240525Z 32008KT 10SM OVC046 M02/M11 A3023 350 53 -1600 320/08 RMK AO2
14840KMKG MKG20060224003009902/24/06 00:30:31  5-MIN KMKG 240530Z 33011KT 10SM OVC046 M02/M11 A3023 350 53 -1600 340/11 RMK AO2
14840KMKG MKG20060224003509902/24/06 00:35:31  5-MIN KMKG 240535Z 33010KT 10SM OVC046 M02/M11 A3023 350 53 -1600 330/10 RMK AO2
14840KMKG MKG20060224004009902/24/06 00:40:31  5-MIN KMKG 240540Z 33009KT 10SM OVC046 M02/M11 A3023 350 51 -1600 340/09 RMK AO2
14840KMKG MKG20060224004509902/24/06 00:45:31  5-MIN KMKG 240545Z 34007KT 10SM OVC046 M02/M11 A3023 350 51 -1600 340/07 RMK AO2
14840KMKG MKG20060224005013402/24/06 00:50:31  5-MIN KMKG 240550Z 33009KT 10SM OVC046 M02/M11 A3023 340 51 -1600 340/09 RMK AO2 SLP245 T10221111 11017 21028 51026
14840KMKG MKG20060224005513402/24/06 00:55:31  5-MIN KMKG 240555Z 33008KT 10SM OVC046 M02/M11 A3023 340 51 -1600 330/08 RMK AO2 SLP246 T10221111 11017 21028 51017
14840KMKG MKG20060224010009902/24/06 01:00:31  5-MIN KMKG 240600Z 33011KT 10SM OVC048 M02/M11 A3024 340 51 -1600 340/11 RMK AO2
14840KMKG MKG20060224010509902/24/06 01:05:31  5-MIN KMKG 240605Z 32008KT 10SM OVC048 M02/M11 A3024 340 51 -1600 320/08 RMK AO2
14840KMKG MKG20060224011009902/24/06 01:10:31  5-MIN KMKG 240610Z 31007KT 10SM OVC048 M02/M12 A3024 340 48 -1600 320/07 RMK AO2
14840KMKG MKG20060224011509902/24/06 01:15:31  5-MIN KMKG 240615Z 32007KT 10SM OVC048 M02/M12 A3024 330 48 -1600 320/07 RMK AO2
14840KMKG MKG20060224012009902/24/06 01:20:31  5-MIN KMKG 240620Z 33006KT 10SM OVC048 M02/M12 A3025 330 48 -1600 330/06 RMK AO2
14840KMKG MKG20060224012509902/24/06 01:25:31  5-MIN KMKG 240625Z 32006KT 10SM OVC048 M03/M11 A3025 330 53 -1700 320/06 RMK AO2
14840KMKG MKG20060224013009902/24/06 01:30:31  5-MIN KMKG 240630Z 32006KT 10SM OVC048 M02/M12 A3025 330 48 -1600 330/06 RMK AO2
14840KMKG MKG20060224013509902/24/06 01:35:31  5-MIN KMKG 240635Z 32007KT 10SM OVC048 M03/M12 A3025 320 50 -1700 320/07 RMK AO2
14840KMKG MKG20060224014009902/24/06 01:40:31  5-MIN KMKG 240640Z 33008KT 10SM OVC048 M03/M12 A3025 320 50 -1700 330/08 RMK AO2
14840KMKG MKG20060224014509902/24/06 01:45:31  5-MIN KMKG 240645Z 33007KT 10SM OVC048 M03/M11 A3025 320 53 -1700 330/07 RMK AO2
14840KMKG MKG20060224015011602/24/06 01:50:31  5-MIN KMKG 240650Z 33010KT 10SM OVC048 M03/M12 A3025 320 50 -1700 340/10 RMK AO2 SLP252 T10281117
14840KMKG MKG20060224015511602/24/06 01:55:31  5-MIN KMKG 240655Z 34007KT 10SM OVC048 M03/M11 A3025 320 53 -1700 350/07 RMK AO2 SLP254 T10281111
14840KMKG MKG20060224020009902/24/06 02:00:31  5-MIN KMKG 240700Z 34007KT 10SM OVC048 M03/M11 A3025 320 53 -1700 340/07 RMK AO2
14840KMKG MKG20060224020509902/24/06 02:05:31  5-MIN KMKG 240705Z 34007KT 10SM OVC046 M03/M11 A3026 320 53 -1700 350/07 RMK AO2
14840KMKG MKG20060224021009902/24/06 02:10:31  5-MIN KMKG 240710Z 33007KT 10SM OVC046 M03/M11 A3026 310 53 -1700 340/07 RMK AO2
14840KMKG MKG20060224021509902/24/06 02:15:31  5-MIN KMKG 240715Z 33006KT 10SM OVC046 M03/M11 A3027 310 55 -1800 330/06 RMK AO2
14840KMKG MKG20060224022009902/24/06 02:20:31  5-MIN KMKG 240720Z 33006KT 10SM OVC046 M03/M11 A3027 310 53 -1700 330/06 RMK AO2
14840KMKG MKG20060224022509902/24/06 02:25:31  5-MIN KMKG 240725Z 33005KT 10SM OVC046 M03/M11 A3028 300 53 -1700 330/05 RMK AO2
14840KMKG MKG20060224023009902/24/06 02:30:31  5-MIN KMKG 240730Z 33004KT 10SM OVC046 M03/M11 A3028 300 53 -1700 330/04 RMK AO2
14840KMKG MKG20060224023509902/24/06 02:35:31  5-MIN KMKG 240735Z 33005KT 10SM OVC046 M03/M11 A3028 300 53 -1700 330/05 RMK AO2
14840KMKG MKG20060224024009902/24/06 02:40:31  5-MIN KMKG 240740Z 33004KT 10SM OVC046 M03/M12 A3029 290 50 -1700 340/04 RMK AO2
14840KMKG MKG20060224024509902/24/06 02:45:31  5-MIN KMKG 240745Z 34005KT 10SM OVC046 M03/M11 A3028 300 53 -1700 340/05 RMK AO2
14840KMKG MKG20060224025011602/24/06 02:50:31  5-MIN KMKG 240750Z 34006KT 10SM OVC046 M03/M11 A3029 290 53 -1700 340/06 RMK AO2 SLP266 T10281111
14840KMKG MKG20060224025511602/24/06 02:55:31  5-MIN KMKG 240755Z 34005KT 10SM OVC046 M03/M11 A3029 290 53 -1700 340/05 RMK AO2 SLP267 T10281111
14840KMKG MKG20060224030009902/24/06 03:00:31  5-MIN KMKG 240800Z 34007KT 10SM OVC046 M03/M12 A3029 290 50 -1700 340/07 RMK AO2
14840KMKG MKG20060224030509902/24/06 03:05:31  5-MIN KMKG 240805Z 33005KT 10SM OVC046 M03/M12 A3029 290 50 -1700 330/05 RMK AO2
14840KMKG MKG20060224031009902/24/06 03:10:31  5-MIN KMKG 240810Z 34005KT 10SM OVC046 M03/M12 A3030 280 53 -1800 340/05 RMK AO2
14840KMKG MKG20060224031509902/24/06 03:15:31  5-MIN KMKG 240815Z 34006KT 10SM OVC046 M03/M12 A3030 280 53 -1800 340/06 RMK AO2
14840KMKG MKG20060224032009902/24/06 03:20:31  5-MIN KMKG 240820Z 33006KT 10SM OVC046 M03/M12 A3030 280 53 -1800 340/06 RMK AO2
14840KMKG MKG20060224032509902/24/06 03:25:31  5-MIN KMKG 240825Z 33005KT 10SM OVC046 M03/M11 A3031 280 55 -1800 340/05 RMK AO2
14840KMKG MKG20060224033009902/24/06 03:30:31  5-MIN KMKG 240830Z 34004KT 10SM OVC046 M03/M11 A3030 280 55 -1800 350/04 RMK AO2
14840KMKG MKG20060224033509902/24/06 03:35:31  5-MIN KMKG 240835Z 34005KT 10SM OVC046 M03/M11 A3030 280 55 -1800 350/05 RMK AO2
14840KMKG MKG20060224034009902/24/06 03:40:31  5-MIN KMKG 240840Z 35004KT 10SM OVC046 M04/M12 A3030 280 55 -1900 350/04 RMK AO2
14840KMKG MKG20060224034509902/24/06 03:45:31  5-MIN KMKG 240845Z 36004KT 10SM OVC046 M04/M12 A3030 280 55 -1900 360/04 RMK AO2
14840KMKG MKG20060224035012202/24/06 03:50:31  5-MIN KMKG 240850Z 01004KT 10SM OVC046 M04/M12 A3030 280 55 -1900 010/04 RMK AO2 SLP269 T10391117 51017
14840KMKG MKG20060224035512202/24/06 03:55:31  5-MIN KMKG 240855Z 02004KT 10SM OVC046 M04/M12 A3030 280 52 -1900 020/04 RMK AO2 SLP268 T10391122 51021
14840KMKG MKG20060224040009902/24/06 04:00:31  5-MIN KMKG 240900Z 01004KT 10SM OVC046 M04/M12 A3030 280 52 -1900 010/04 RMK AO2
14840KMKG MKG20060224040509902/24/06 04:05:31  5-MIN KMKG 240905Z 01003KT 10SM OVC046 M04/M12 A3030 280 52 -1900 010/03 RMK AO2
14840KMKG MKG20060224041009902/24/06 04:10:31  5-MIN KMKG 240910Z 00000KT 10SM OVC046 M04/M12 A3030 280 52 -1900 000/00 RMK AO2
14840KMKG MKG20060224041509902/24/06 04:15:31  5-MIN KMKG 240915Z 00000KT 10SM OVC046 M04/M12 A3030 280 55 -1900 000/00 RMK AO2
14840KMKG MKG20060224042009902/24/06 04:20:31  5-MIN KMKG 240920Z 00000KT 10SM OVC046 M04/M12 A3030 280 52 -1900 000/00 RMK AO2
14840KMKG MKG20060224042509902/24/06 04:25:31  5-MIN KMKG 240925Z 00000KT 10SM OVC046 M04/M12 A3030 280 52 -1900 000/00 RMK AO2
14840KMKG MKG20060224043009902/24/06 04:30:31  5-MIN KMKG 240930Z 00000KT 10SM OVC046 M04/M11 A3030 280 57 -1900 000/00 RMK AO2
14840KMKG MKG20060224043509902/24/06 04:35:31  5-MIN KMKG 240935Z 00000KT 10SM OVC046 M04/M11 A3030 280 57 -1900 000/00 RMK AO2
14840KMKG MKG20060224044009902/24/06 04:40:31  5-MIN KMKG 240940Z 00000KT 10SM OVC046 M04/M12 A3030 280 55 -1900 000/00 RMK AO2
14840KMKG MKG20060224044509902/24/06 04:45:31  5-MIN KMKG 240945Z 00000KT 10SM OVC044 M04/M11 A3030 280 57 -1900 000/00 RMK AO2
14840KMKG MKG20060224045011602/24/06 04:50:31  5-MIN KMKG 240950Z 00000KT 10SM OVC044 M04/M09 A3030 280 65 -1900 000/00 RMK AO2 SLP270 T10391094
14840KMKG MKG20060224045511602/24/06 04:55:31  5-MIN KMKG 240955Z 00000KT 10SM OVC042 M04/M09 A3030 280 71 -2000 000/00 RMK AO2 SLP270 T10441089
14840KMKG MKG20060224050009902/24/06 05:00:31  5-MIN KMKG 241000Z 00000KT 10SM OVC042 M04/M09 A3030 280 68 -2000 000/00 RMK AO2
14840KMKG MKG20060224050509902/24/06 05:05:31  5-MIN KMKG 241005Z 00000KT 10SM OVC042 M04/M11 A3030 280 60 -1900 000/00 RMK AO2
14840KMKG MKG20060224051009902/24/06 05:10:31  5-MIN KMKG 241010Z 00000KT 10SM OVC042 M04/M11 A3031 270 60 -1900 000/00 RMK AO2
14840KMKG MKG20060224051509902/24/06 05:15:31  5-MIN KMKG 241015Z 00000KT 10SM OVC042 M04/M09 A3031 280 68 -2000 000/00 RMK AO2
14840KMKG MKG20060224052009902/24/06 05:20:31  5-MIN KMKG 241020Z 00000KT 10SM OVC042 M05/M09 A3031 270 74 -2000 000/00 RMK AO2
14840KMKG MKG20060224052509902/24/06 05:25:31  5-MIN KMKG 241025Z 00000KT 10SM OVC042 M05/M09 A3031 270 71 -2000 000/00 RMK AO2
14840KMKG MKG20060224053009902/24/06 05:30:31  5-MIN KMKG 241030Z 00000KT 10SM OVC042 M05/M09 A3031 270 71 -2000 000/00 RMK AO2
14840KMKG MKG20060224053509902/24/06 05:35:31  5-MIN KMKG 241035Z 00000KT 10SM OVC042 M04/M09 A3031 270 71 -2000 000/00 RMK AO2
14840KMKG MKG20060224054009902/24/06 05:40:31  5-MIN KMKG 241040Z 00000KT 10SM OVC042 M05/M09 A3031 270 71 -2000 000/00 RMK AO2
14840KMKG MKG20060224054509902/24/06 05:45:31  5-MIN KMKG 241045Z 00000KT 10SM OVC042 M05/M10 A3031 270 68 -2000 000/00 RMK AO2
14840KMKG MKG20060224055011602/24/06 05:50:31  5-MIN KMKG 241050Z 00000KT 10SM OVC042 M05/M09 A3032 270 71 -2100 000/00 RMK AO2 SLP275 T10501094
14840KMKG MKG20060224055511602/24/06 05:55:31  5-MIN KMKG 241055Z 00000KT 10SM OVC042 M05/M10 A3032 270 68 -2100 000/00 RMK AO2 SLP275 T10501100
14840KMKG MKG20060224060009902/24/06 06:00:31  5-MIN KMKG 241100Z 00000KT 10SM OVC042 M04/M11 A3032 260 62 -2000 000/00 RMK AO2
14840KMKG MKG20060224060509902/24/06 06:05:31  5-MIN KMKG 241105Z 08006KT 10SM OVC042 M05/M10 A3032 260 68 -2100 080/06 RMK AO2
14840KMKG MKG20060224061009902/24/06 06:10:31  5-MIN KMKG 241110Z 09004KT 10SM OVC042 M06/M11 A3032 260 68 -2100 090/04 RMK AO2
14840KMKG MKG20060224061509902/24/06 06:15:31  5-MIN KMKG 241115Z 10004KT 10SM BKN042 M06/M11 A3032 260 65 -2100 100/04 RMK AO2
14840KMKG MKG20060224062009902/24/06 06:20:31  5-MIN KMKG 241120Z 09004KT 10SM BKN042 M06/M11 A3032 260 65 -2100 100/04 RMK AO2
14840KMKG MKG20060224062509902/24/06 06:25:31  5-MIN KMKG 241125Z 09003KT 10SM SCT042 M06/M12 A3032 260 62 -2100 100/03 RMK AO2
14840KMKG MKG20060224063009902/24/06 06:30:31  5-MIN KMKG 241130Z 00000KT 10SM SCT042 M07/M11 A3032 260 71 -2300 000/00 RMK AO2
14840KMKG MKG20060224063509902/24/06 06:35:31  5-MIN KMKG 241135Z 00000KT 10SM FEW040 M06/M11 A3032 260 68 -2200 000/00 RMK AO2
14840KMKG MKG20060224064009902/24/06 06:40:31  5-MIN KMKG 241140Z 00000KT 10SM FEW040 M06/M12 A3033 260 59 -2100 000/00 RMK AO2
14840KMKG MKG20060224064509602/24/06 06:45:31  5-MIN KMKG 241145Z 13003KT 10SM CLR M06/M12 A3033 260 65 -2200 140/03 RMK AO2
14840KMKG MKG20060224065013702/24/06 06:50:31  5-MIN KMKG 241150Z 12003KT 10SM CLR M06/M12 A3033 250 65 -2200 130/03 RMK AO2 SLP280 70002 T10611117 11022 21067 51021
14840KMKG MKG20060224065513702/24/06 06:55:31  5-MIN KMKG 241155Z 00000KT 10SM CLR M06/M12 A3033 250 65 -2200 000/00 RMK AO2 SLP281 70002 T10611117 11022 21067 53012
14840KMKG MKG20060224070009602/24/06 07:00:31  5-MIN KMKG 241200Z 14003KT 10SM CLR M06/M12 A3034 250 65 -2200 150/03 RMK AO2
14840KMKG MKG20060224070509602/24/06 07:05:31  5-MIN KMKG 241205Z 13003KT 10SM CLR M06/M12 A3034 250 65 -2200 130/03 RMK AO2
14840KMKG MKG20060224071009602/24/06 07:10:31  5-MIN KMKG 241210Z 00000KT 10SM CLR M07/M12 A3034 250 68 -2300 000/00 RMK AO2
14840KMKG MKG20060224071509602/24/06 07:15:31  5-MIN KMKG 241215Z 12003KT 10SM CLR M07/M12 A3033 250 68 -2300 120/03 RMK AO2
14840KMKG MKG20060224072009602/24/06 07:20:31  5-MIN KMKG 241220Z 13004KT 10SM CLR M07/M12 A3033 250 68 -2300 130/04 RMK AO2
14840KMKG MKG20060224072509602/24/06 07:25:31  5-MIN KMKG 241225Z 13004KT 10SM CLR M08/M12 A3034 250 74 -2400 130/04 RMK AO2
14840KMKG MKG20060224073009602/24/06 07:30:31  5-MIN KMKG 241230Z 14004KT 10SM CLR M07/M12 A3033 250 71 -2400 140/04 RMK AO2
14840KMKG MKG20060224073509602/24/06 07:35:31  5-MIN KMKG 241235Z 14005KT 10SM CLR M07/M12 A3033 250 71 -2400 140/05 RMK AO2
14840KMKG MKG20060224074009602/24/06 07:40:31  5-MIN KMKG 241240Z 12005KT 10SM CLR M07/M11 A3033 250 74 -2400 130/05 RMK AO2
14840KMKG MKG20060224074509602/24/06 07:45:31  5-MIN KMKG 241245Z 12004KT 10SM CLR M07/M11 A3033 250 74 -2400 130/04 RMK AO2
14840KMKG MKG20060224075011302/24/06 07:50:31  5-MIN KMKG 241250Z 13004KT 10SM CLR M07/M11 A3033 250 74 -2400 130/04 RMK AO2 SLP280 T10721111
14840KMKG MKG20060224075511302/24/06 07:55:31  5-MIN KMKG 241255Z 13005KT 10SM CLR M07/M11 A3033 250 71 -2300 140/05 RMK AO2 SLP281 T10671111
14840KMKG MKG20060224080009602/24/06 08:00:31  5-MIN KMKG 241300Z 14005KT 10SM CLR M07/M11 A3033 250 71 -2300 140/05 RMK AO2
14840KMKG MKG20060224080509602/24/06 08:05:31  5-MIN KMKG 241305Z 13004KT 10SM CLR M07/M11 A3033 250 71 -2300 130/04 RMK AO2
14840KMKG MKG20060224081009602/24/06 08:10:31  5-MIN KMKG 241310Z 13005KT 10SM CLR M06/M11 A3033 250 71 -2200 130/05 RMK AO2
14840KMKG MKG20060224081509602/24/06 08:15:31  5-MIN KMKG 241315Z 13004KT 10SM CLR M06/M11 A3033 250 71 -2200 130/04 RMK AO2
14840KMKG MKG20060224082009602/24/06 08:20:31  5-MIN KMKG 241320Z 14004KT 10SM CLR M06/M11 A3034 250 68 -2100 140/04 RMK AO2
14840KMKG MKG20060224082509602/24/06 08:25:31  5-MIN KMKG 241325Z 14005KT 10SM CLR M06/M11 A3034 240 65 -2200 140/05 RMK AO2
14840KMKG MKG20060224083009602/24/06 08:30:31  5-MIN KMKG 241330Z 15005KT 10SM CLR M06/M11 A3034 240 68 -2200 150/05 RMK AO2
14840KMKG MKG20060224083509602/24/06 08:35:31  5-MIN KMKG 241335Z 14005KT 10SM CLR M05/M11 A3035 240 65 -2100 140/05 RMK AO2
14840KMKG MKG20060224084009602/24/06 08:40:31  5-MIN KMKG 241340Z 14005KT 10SM CLR M04/M11 A3035 230 62 -2000 140/05 RMK AO2
14840KMKG MKG20060224084509602/24/06 08:45:31  5-MIN KMKG 241345Z 13007KT 10SM CLR M04/M11 A3034 240 60 -2000 140/07 RMK AO2
14840KMKG MKG20060224085011302/24/06 08:50:31  5-MIN KMKG 241350Z 14008KT 10SM CLR M04/M11 A3034 240 60 -1900 150/08 RMK AO2 SLP284 T10391106
14840KMKG MKG20060224085511302/24/06 08:55:31  5-MIN KMKG 241355Z 14008KT 10SM CLR M04/M11 A3034 240 57 -1900 140/08 RMK AO2 SLP283 T10391111
14840KMKG MKG20060224090009602/24/06 09:00:31  5-MIN KMKG 241400Z 14007KT 10SM CLR M04/M11 A3034 240 57 -1900 140/07 RMK AO2
14840KMKG MKG20060224090509602/24/06 09:05:31  5-MIN KMKG 241405Z 15007KT 10SM CLR M03/M11 A3034 240 57 -1900 150/07 RMK AO2
14840KMKG MKG20060224091009602/24/06 09:10:31  5-MIN KMKG 241410Z 17007KT 10SM CLR M03/M11 A3035 240 57 -1900 170/07 RMK AO2
14840KMKG MKG20060224091509602/24/06 09:15:31  5-MIN KMKG 241415Z 16008KT 10SM CLR M03/M11 A3035 240 55 -1900 160/08 RMK AO2
14840KMKG MKG20060224092009602/24/06 09:20:31  5-MIN KMKG 241420Z 17008KT 10SM CLR M03/M11 A3035 240 53 -1800 170/08 RMK AO2
14840KMKG MKG20060224092509602/24/06 09:25:31  5-MIN KMKG 241425Z 16007KT 10SM CLR M03/M11 A3035 240 53 -1800 160/07 RMK AO2
14840KMKG MKG20060224093009602/24/06 09:30:31  5-MIN KMKG 241430Z 15008KT 10SM CLR M02/M11 A3035 240 53 -1700 160/08 RMK AO2
14840KMKG MKG20060224093509602/24/06 09:35:31  5-MIN KMKG 241435Z 16007KT 10SM CLR M02/M11 A3036 230 51 -1700 170/07 RMK AO2
14840KMKG MKG20060224094009602/24/06 09:40:31  5-MIN KMKG 241440Z 15008KT 10SM CLR M02/M11 A3036 230 51 -1700 150/08 RMK AO2
14840KMKG MKG20060224094509602/24/06 09:45:31  5-MIN KMKG 241445Z 15007KT 10SM CLR M03/M11 A3035 230 53 -1800 150/07 RMK AO2
14840KMKG MKG20060224095011902/24/06 09:50:31  5-MIN KMKG 241450Z 16008KT 10SM CLR M02/M11 A3035 240 51 -1700 160/08 RMK AO2 SLP285 T10221111 53012
14840KMKG MKG20060224095512202/24/06 09:55:31  5-MIN KMKG 241455Z 15009KT 10SM FEW120 M02/M11 A3034 240 51 -1700 150/09 RMK AO2 SLP284 T10221111 53003
14840KMKG MKG20060224100009902/24/06 10:00:31  5-MIN KMKG 241500Z 15007KT 10SM FEW120 M02/M11 A3034 240 51 -1700 150/07 RMK AO2
14840KMKG MKG20060224100509902/24/06 10:05:31  5-MIN KMKG 241505Z 15007KT 10SM FEW120 M02/M11 A3034 240 51 -1700 160/07 RMK AO2
14840KMKG MKG20060224101009902/24/06 10:10:31  5-MIN KMKG 241510Z 15007KT 10SM FEW120 M02/M11 A3034 250 49 -1600 150/07 RMK AO2
14840KMKG MKG20060224101509902/24/06 10:15:31  5-MIN KMKG 241515Z 13008KT 10SM FEW120 M02/M11 A3034 250 51 -1600 140/08 RMK AO2
14840KMKG MKG20060224102009902/24/06 10:20:31  5-MIN KMKG 241520Z 13009KT 10SM FEW120 M01/M11 A3034 250 49 -1600 130/09 RMK AO2
14840KMKG MKG20060224102509902/24/06 10:25:31  5-MIN KMKG 241525Z 15007KT 10SM FEW110 M01/M11 A3034 250 49 -1600 150/07 RMK AO2
14840KMKG MKG20060224103009902/24/06 10:30:31  5-MIN KMKG 241530Z 14008KT 10SM FEW100 M01/M11 A3033 250 49 -1600 140/08 RMK AO2
14840KMKG MKG20060224103509602/24/06 10:35:31  5-MIN KMKG 241535Z 14008KT 10SM CLR M01/M10 A3033 250 49 -1500 150/08 RMK AO2
14840KMKG MKG20060224104009902/24/06 10:40:31  5-MIN KMKG 241540Z 15006KT 10SM FEW110 M01/M11 A3033 250 49 -1600 150/06 RMK AO2
14840KMKG MKG20060224104509902/24/06 10:45:31  5-MIN KMKG 241545Z 18006KT 10SM FEW110 M01/M10 A3033 250 51 -1600 190/06 RMK AO2
14840KMKG MKG20060224105011302/24/06 10:50:31  5-MIN KMKG 241550Z 18009KT 10SM CLR M01/M10 A3033 250 51 -1600 180/09 RMK AO2 SLP280 T10111100
14840KMKG MKG20060224105511302/24/06 10:55:31  5-MIN KMKG 241555Z 18008KT 10SM CLR M01/M10 A3033 250 49 -1500 180/08 RMK AO2 SLP280 T10061100
14840KMKG MKG20060224110009602/24/06 11:00:31  5-MIN KMKG 241600Z 21012KT 10SM CLR M01/M09 A3033 260 51 -1500 220/12 RMK AO2
14840KMKG MKG20060224110509902/24/06 11:05:31  5-MIN KMKG 241605Z 19008KT 10SM FEW100 M01/M09 A3032 260 53 -1600 200/08 RMK AO2
14840KMKG MKG20060224111011502/24/06 11:10:31  5-MIN KMKG 241610Z 19011KT 160V220 10SM FEW100 M01/M09 A3032 260 51 -1500 190/11 160V220 RMK AO2
14840KMKG MKG20060224111509902/24/06 11:15:31  5-MIN KMKG 241615Z 17008KT 10SM FEW110 M01/M09 A3032 270 51 -1500 170/08 RMK AO2
14840KMKG MKG20060224112009902/24/06 11:20:31  5-MIN KMKG 241620Z 19009KT 10SM SCT110 M01/M09 A3031 270 51 -1500 190/09 RMK AO2
14840KMKG MKG20060224112509902/24/06 11:25:31  5-MIN KMKG 241625Z 18008KT 10SM SCT100 M01/M09 A3031 270 53 -1500 180/08 RMK AO2
14840KMKG MKG20060224113009902/24/06 11:30:31  5-MIN KMKG 241630Z 20008KT 10SM FEW100 M01/M09 A3031 270 51 -1500 200/08 RMK AO2
14840KMKG MKG20060224113509802/24/06 11:35:31  5-MIN KMKG 241635Z 21011KT 10SM SCT100 00/M09 A3031 270 51 -1400 210/11 RMK AO2
14840KMKG MKG20060224114009802/24/06 11:40:31  5-MIN KMKG 241640Z 20011KT 10SM BKN100 00/M09 A3031 270 51 -1400 200/11 RMK AO2
14840KMKG MKG20060224114509802/24/06 11:45:31  5-MIN KMKG 241645Z 18011KT 10SM SCT100 00/M09 A3031 270 49 -1400 190/11 RMK AO2
14840KMKG MKG20060224115011502/24/06 11:50:31  5-MIN KMKG 241650Z 22012KT 10SM BKN100 00/M09 A3031 270 51 -1400 220/12 RMK AO2 SLP273 T00001089
14840KMKG MKG20060224115511502/24/06 11:55:31  5-MIN KMKG 241655Z 20012KT 10SM BKN100 00/M09 A3031 270 51 -1400 200/12 RMK AO2 SLP272 T00001089
14840KMKG MKG20060224120009802/24/06 12:00:31  5-MIN KMKG 241700Z 20011KT 10SM BKN095 00/M09 A3031 270 49 -1400 200/11 RMK AO2
14840KMKG MKG20060224120509802/24/06 12:05:31  5-MIN KMKG 241705Z 21011KT 10SM BKN090 00/M09 A3031 270 49 -1400 220/11 RMK AO2
14840KMKG MKG20060224121009802/24/06 12:10:31  5-MIN KMKG 241710Z 22011KT 10SM BKN095 00/M09 A3031 280 49 -1400 230/11 RMK AO2
14840KMKG MKG20060224121509802/24/06 12:15:31  5-MIN KMKG 241715Z 20013KT 10SM OVC095 00/M09 A3031 280 51 -1400 210/13 RMK AO2
14840KMKG MKG20060224122009902/24/06 12:20:31  5-MIN KMKG 241720Z 19012KT 10SM OVC095 M01/M09 A3030 280 53 -1500 190/12 RMK AO2
14840KMKG MKG20060224122509902/24/06 12:25:31  5-MIN KMKG 241725Z 21012KT 10SM OVC090 M01/M08 A3030 280 56 -1500 210/12 RMK AO2
14840KMKG MKG20060224123010602/24/06 12:30:31  5-MIN KMKG 241730Z 21011KT 10SM BKN090 OVC100 M01/M08 A3030 280 56 -1500 210/11 RMK AO2
14840KMKG MKG20060224123510602/24/06 12:35:31  5-MIN KMKG 241735Z 21013KT 10SM BKN085 OVC100 M01/M08 A3029 290 56 -1500 210/13 RMK AO2
14840KMKG MKG20060224124010602/24/06 12:40:31  5-MIN KMKG 241740Z 20011KT 10SM BKN080 BKN100 M01/M08 A3029 290 56 -1500 200/11 RMK AO2
14840KMKG MKG20060224124509902/24/06 12:45:31  5-MIN KMKG 241745Z 20012KT 10SM BKN080 M01/M08 A3029 290 56 -1500 200/12 RMK AO2
14840KMKG MKG20060224125013402/24/06 12:50:31  5-MIN KMKG 241750Z 20011KT 10SM SCT080 M01/M09 A3029 290 53 -1500 210/11 RMK AO2 SLP265 T10061089 10000 21078 53003
14840KMKG MKG20060224125513402/24/06 12:55:31  5-MIN KMKG 241755Z 20010KT 10SM SCT080 M01/M08 A3028 300 56 -1400 200/10 RMK AO2 SLP264 T10061083 10000 21078 58019
14840KMKG MKG20060224130009902/24/06 13:00:31  5-MIN KMKG 241800Z 21011KT 10SM FEW080 M01/M08 A3028 300 56 -1400 210/11 RMK AO2
14840KMKG MKG20060224130509802/24/06 13:05:31  5-MIN KMKG 241805Z 21009KT 10SM FEW075 00/M08 A3027 310 56 -1400 210/09 RMK AO2
14840KMKG MKG20060224131009902/24/06 13:10:31  5-MIN KMKG 241810Z 21009KT 10SM FEW075 M01/M08 A3027 310 58 -1400 220/09 RMK AO2
14840KMKG MKG20060224131510502/24/06 13:15:31  5-MIN KMKG 241815Z 20010KT 10SM SCT075 00/M08 A3026 320 56 -1300 200/10 RMK AO2 PRESFR
14840KMKG MKG20060224132009902/24/06 13:20:31  5-MIN KMKG 241820Z 18007KT 10SM FEW080 M01/M08 A3026 320 58 -1400 190/07 RMK AO2
14840KMKG MKG20060224132509902/24/06 13:25:31  5-MIN KMKG 241825Z 20011KT 10SM SCT080 M01/M08 A3026 320 58 -1400 200/11 RMK AO2
14840KMKG MKG20060224133009902/24/06 13:30:31  5-MIN KMKG 241830Z 20009KT 10SM BKN080 M01/M08 A3025 320 58 -1400 200/09 RMK AO2
14840KMKG MKG20060224133509902/24/06 13:35:31  5-MIN KMKG 241835Z 20007KT 10SM BKN075 M01/M08 A3025 330 58 -1400 210/07 RMK AO2
14840KMKG MKG20060224134009902/24/06 13:40:31  5-MIN KMKG 241840Z 21010KT 10SM SCT075 M01/M08 A3025 330 58 -1400 220/10 RMK AO2
14840KMKG MKG20060224134509902/24/06 13:45:31  5-MIN KMKG 241845Z 21010KT 10SM SCT075 M01/M08 A3025 330 58 -1400 210/10 RMK AO2
14840KMKG MKG20060224135011602/24/06 13:50:31  5-MIN KMKG 241850Z 21009KT 10SM SCT070 M01/M08 A3024 330 58 -1400 220/09 RMK AO2 SLP250 T10061078
14840KMKG MKG20060224135511602/24/06 13:55:31  5-MIN KMKG 241855Z 21008KT 10SM BKN070 M01/M08 A3024 340 58 -1400 210/08 RMK AO2 SLP249 T10061078
14840KMKG MKG20060224140010602/24/06 14:00:31  5-MIN KMKG 241900Z 19007KT 10SM SCT055 BKN070 M01/M07 A3024 340 61 -1400 200/07 RMK AO2
14840KMKG MKG20060224140510602/24/06 14:05:31  5-MIN KMKG 241905Z 20008KT 10SM SCT050 BKN065 M01/M08 A3023 340 58 -1400 210/08 RMK AO2
14840KMKG MKG20060224141011302/24/06 14:10:31  5-MIN KMKG 241910Z 20007KT 10SM BKN046 BKN060 BKN070 M01/M08 A3022 350 58 -1400 200/07 RMK AO2
14840KMKG MKG20060224141510602/24/06 14:15:31  5-MIN KMKG 241915Z 19007KT 10SM BKN046 BKN065 M01/M08 A3022 350 58 -1400 200/07 RMK AO2
14840KMKG MKG20060224142009902/24/06 14:20:31  5-MIN KMKG 241920Z 21006KT 10SM BKN046 M01/M08 A3022 350 58 -1400 210/06 RMK AO2
14840KMKG MKG20060224142509802/24/06 14:25:31  5-MIN KMKG 241925Z 17005KT 10SM BKN046 00/M07 A3022 360 58 -1300 170/05 RMK AO2
14840KMKG MKG20060224143009802/24/06 14:30:31  5-MIN KMKG 241930Z 19004KT 10SM SCT046 00/M08 A3021 360 56 -1300 190/04 RMK AO2
14840KMKG MKG20060224143509802/24/06 14:35:31  5-MIN KMKG 241935Z VRB04KT 10SM FEW046 00/M08 A3021 360 56 -1300 VRB/04 RMK AO2
14840KMKG MKG20060224144009802/24/06 14:40:31  5-MIN KMKG 241940Z 19007KT 10SM FEW046 01/M08 A3020 370 54 -1200 200/07 RMK AO2
14840KMKG MKG20060224144510502/24/06 14:45:31  5-MIN KMKG 241945Z 18008KT 10SM FEW046 SCT100 01/M08 A3020 370 54 -1200 190/08 RMK AO2
14840KMKG MKG20060224145011502/24/06 14:50:31  5-MIN KMKG 241950Z 14009KT 10SM SCT060 01/M09 A3019 380 47 -1200 150/09 RMK AO2 SLP233 T00061094
14840KMKG MKG20060224145511502/24/06 14:55:31  5-MIN KMKG 241955Z 15011KT 10SM BKN060 01/M09 A3019 380 47 -1200 150/11 RMK AO2 SLP231 T00061094
14840KMKG MKG20060224150009802/24/06 15:00:31  5-MIN KMKG 242000Z 16011KT 10SM BKN055 01/M09 A3018 390 47 -1200 170/11 RMK AO2
14840KMKG MKG20060224150509802/24/06 15:05:31  5-MIN KMKG 242005Z 16010KT 10SM BKN055 01/M09 A3018 390 47 -1200 160/10 RMK AO2
14840KMKG MKG20060224151009802/24/06 15:10:31  5-MIN KMKG 242010Z 18010KT 10SM BKN055 01/M09 A3018 390 47 -1200 180/10 RMK AO2
14840KMKG MKG20060224151510502/24/06 15:15:31  5-MIN KMKG 242015Z 16012KT 10SM BKN055 BKN110 01/M09 A3017 400 47 -1200 160/12 RMK AO2
14840KMKG MKG20060224152010502/24/06 15:20:31  5-MIN KMKG 242020Z 15012KT 10SM SCT055 BKN110 01/M09 A3017 400 47 -1200 150/12 RMK AO2
14840KMKG MKG20060224152510502/24/06 15:25:31  5-MIN KMKG 242025Z 16010KT 10SM SCT055 OVC110 01/M09 A3016 400 47 -1200 160/10 RMK AO2
14840KMKG MKG20060224153010502/24/06 15:30:31  5-MIN KMKG 242030Z 16009KT 10SM FEW055 OVC110 01/M09 A3016 410 49 -1200 170/09 RMK AO2
14840KMKG MKG20060224153510502/24/06 15:35:31  5-MIN KMKG 242035Z 14013KT 10SM BKN110 01/M09 A3015 420 47 -1100 140/13 RMK AO2 PRESFR
14840KMKG MKG20060224154009802/24/06 15:40:31  5-MIN KMKG 242040Z 16011KT 10SM OVC110 01/M09 A3015 420 49 -1200 170/11 RMK AO2
14840KMKG MKG20060224154509802/24/06 15:45:31  5-MIN KMKG 242045Z 16010KT 10SM OVC110 01/M09 A3015 420 49 -1200 160/10 RMK AO2
14840KMKG MKG20060224155012102/24/06 15:50:31  5-MIN KMKG 242050Z 15013KT 10SM OVC110 01/M09 A3014 430 47 -1100 160/13 RMK AO2 SLP213 T00061094 58019
14840KMKG MKG20060224155512102/24/06 15:55:31  5-MIN KMKG 242055Z 14012KT 10SM BKN100 01/M09 A3013 440 49 -1100 140/12 RMK AO2 SLP212 T00061089 58051
14840KMKG MKG20060224160009802/24/06 16:00:31  5-MIN KMKG 242100Z 15013KT 10SM BKN100 01/M09 A3013 440 49 -1100 150/13 RMK AO2
14840KMKG MKG20060224160509802/24/06 16:05:31  5-MIN KMKG 242105Z 14012KT 10SM BKN100 01/M08 A3013 440 51 -1100 150/12 RMK AO2
14840KMKG MKG20060224161009802/24/06 16:10:31  5-MIN KMKG 242110Z 14009KT 10SM SCT100 01/M08 A3012 440 51 -1100 150/09 RMK AO2
14840KMKG MKG20060224161509802/24/06 16:15:31  5-MIN KMKG 242115Z 14010KT 10SM FEW100 01/M08 A3012 450 51 -1100 140/10 RMK AO2
14840KMKG MKG20060224162010502/24/06 16:20:31  5-MIN KMKG 242120Z 15012KT 10SM FEW100 01/M08 A3010 460 49 -1000 150/12 RMK AO2 PRESFR
14840KMKG MKG20060224162509802/24/06 16:25:31  5-MIN KMKG 242125Z 14014KT 10SM FEW100 01/M08 A3010 460 51 -1100 150/14 RMK AO2
14840KMKG MKG20060224163009802/24/06 16:30:31  5-MIN KMKG 242130Z 15015KT 10SM FEW110 01/M08 A3010 460 51 -1100 150/15 RMK AO2
14840KMKG MKG20060224163509802/24/06 16:35:31  5-MIN KMKG 242135Z 14013KT 10SM SCT110 01/M08 A3010 470 51 -1100 140/13 RMK AO2
14840KMKG MKG20060224164009802/24/06 16:40:31  5-MIN KMKG 242140Z 14012KT 10SM SCT110 01/M08 A3009 470 49 -1000 140/12 RMK AO2
14840KMKG MKG20060224164509802/24/06 16:45:31  5-MIN KMKG 242145Z 14013KT 10SM BKN110 01/M08 A3009 470 51 -1000 140/13 RMK AO2
14840KMKG MKG20060224165011502/24/06 16:50:31  5-MIN KMKG 242150Z 14011KT 10SM BKN100 01/M08 A3008 480 51 -1000 150/11 RMK AO2 SLP196 T00111078
14840KMKG MKG20060224165511502/24/06 16:55:31  5-MIN KMKG 242155Z 15015KT 10SM BKN100 01/M08 A3008 490 49 -1000 150/15 RMK AO2 SLP194 T00111083
14840KMKG MKG20060224170011102/24/06 17:00:31  5-MIN KMKG 242200Z 14016G21KT 10SM OVC100 01/M08 A3007 490 49 -1000 140/16G21 RMK AO2 PRESFR
14840KMKG MKG20060224170510402/24/06 17:05:31  5-MIN KMKG 242205Z 15012G21KT 10SM BKN100 01/M08 A3007 500 49 -1000 150/12G21 RMK AO2
14840KMKG MKG20060224171010402/24/06 17:10:31  5-MIN KMKG 242210Z 15013G19KT 10SM BKN100 01/M09 A3006 500 47 -1000 150/13G19 RMK AO2
14840KMKG MKG20060224171510402/24/06 17:15:31  5-MIN KMKG 242215Z 14011G19KT 10SM BKN100 01/M08 A3006 500 49 -1000 150/11G19 RMK AO2
14840KMKG MKG20060224172009802/24/06 17:20:31  5-MIN KMKG 242220Z 14012KT 10SM BKN100 01/M09 A3006 500 47 -1000 140/12 RMK AO2
14840KMKG MKG20060224172509802/24/06 17:25:31  5-MIN KMKG 242225Z 14013KT 10SM BKN100 01/M08 A3005 510 49 -1000 150/13 RMK AO2
14840KMKG MKG20060224173009802/24/06 17:30:31  5-MIN KMKG 242230Z 14012KT 10SM BKN100 01/M08 A3005 510 49 -1000 140/12 RMK AO2
14840KMKG MKG20060224173509802/24/06 17:35:31  5-MIN KMKG 242235Z 14014KT 10SM OVC100 01/M08 A3004 520 49 -1000 150/14 RMK AO2
14840KMKG MKG20060224174009802/24/06 17:40:31  5-MIN KMKG 242240Z 14013KT 10SM OVC100 01/M08 A3004 520 49 -1000 140/13 RMK AO2
14840KMKG MKG20060224174509702/24/06 17:45:31  5-MIN KMKG 242245Z 14010KT 10SM OVC100 01/M08 A3003 530 49 -900 140/10 RMK AO2
14840KMKG MKG20060224175011402/24/06 17:50:31  5-MIN KMKG 242250Z 14013KT 10SM OVC095 01/M08 A3003 530 49 -900 140/13 RMK AO2 SLP178 T00111083
14840KMKG MKG20060224175511402/24/06 17:55:31  5-MIN KMKG 242255Z 14011KT 10SM OVC095 01/M08 A3003 530 49 -900 140/11 RMK AO2 SLP177 T00111083
14840KMKG MKG20060224180009702/24/06 18:00:31  5-MIN KMKG 242300Z 14011KT 10SM OVC095 01/M08 A3002 530 49 -900 140/11 RMK AO2
14840KMKG MKG20060224180509702/24/06 18:05:31  5-MIN KMKG 242305Z 14012KT 10SM OVC095 01/M09 A3002 540 47 -900 140/12 RMK AO2
14840KMKG MKG20060224181009702/24/06 18:10:31  5-MIN KMKG 242310Z 14010KT 10SM OVC095 01/M08 A3002 540 49 -900 150/10 RMK AO2
14840KMKG MKG20060224181510402/24/06 18:15:31  5-MIN KMKG 242315Z 14010KT 10SM BKN090 OVC110 01/M08 A3001 540 49 -900 140/10 RMK AO2
14840KMKG MKG20060224182009702/24/06 18:20:31  5-MIN KMKG 242320Z 15011KT 10SM OVC095 01/M08 A3001 550 49 -900 150/11 RMK AO2
14840KMKG MKG20060224182509702/24/06 18:25:31  5-MIN KMKG 242325Z 14010KT 10SM OVC095 01/M08 A3000 550 49 -900 150/10 RMK AO2
14840KMKG MKG20060224183010402/24/06 18:30:31  5-MIN KMKG 242330Z 14009KT 10SM BKN090 OVC110 01/M08 A3000 560 49 -900 150/09 RMK AO2
14840KMKG MKG20060224183510402/24/06 18:35:31  5-MIN KMKG 242335Z 14010KT 10SM BKN090 OVC110 01/M08 A3000 560 49 -900 150/10 RMK AO2
14840KMKG MKG20060224184010402/24/06 18:40:31  5-MIN KMKG 242340Z 14011KT 10SM BKN090 OVC110 01/M08 A2999 560 49 -900 140/11 RMK AO2
14840KMKG MKG20060224184510402/24/06 18:45:31  5-MIN KMKG 242345Z 14010KT 10SM BKN090 OVC110 01/M08 A2999 570 51 -900 140/10 RMK AO2
14840KMKG MKG20060224185014602/24/06 18:50:31  5-MIN KMKG 242350Z 14009KT 10SM SCT080 BKN095 OVC120 01/M08 A2999 570 51 -900 140/09 RMK AO2 SLP163 T00111078 10011 21006 58051
14840KMKG MKG20060224185514602/24/06 18:55:31  5-MIN KMKG 242355Z 14009KT 10SM SCT080 BKN090 OVC120 01/M08 A2998 570 51 -900 150/09 RMK AO2 SLP162 T00111078 10011 21006 56048
14840KMKG MKG20060224190010402/24/06 19:00:31  5-MIN KMKG 250000Z 14009KT 10SM SCT080 OVC090 01/M08 A2998 570 51 -900 150/09 RMK AO2
14840KMKG MKG20060224190510402/24/06 19:05:31  5-MIN KMKG 250005Z 14009KT 10SM BKN080 OVC090 01/M08 A2998 580 51 -900 140/09 RMK AO2
14840KMKG MKG20060224191010402/24/06 19:10:31  5-MIN KMKG 250010Z 14008KT 10SM BKN080 OVC090 01/M08 A2998 570 51 -900 140/08 RMK AO2
14840KMKG MKG20060224191509702/24/06 19:15:31  5-MIN KMKG 250015Z 14011KT 10SM OVC075 01/M08 A2998 570 51 -900 140/11 RMK AO2
14840KMKG MKG20060224192010402/24/06 19:20:31  5-MIN KMKG 250020Z 14008KT 10SM BKN075 OVC090 01/M08 A2999 570 51 -900 140/08 RMK AO2
14840KMKG MKG20060224192509702/24/06 19:25:31  5-MIN KMKG 250025Z 14008KT 10SM OVC075 01/M08 A2999 570 51 -900 140/08 RMK AO2
14840KMKG MKG20060224193009702/24/06 19:30:31  5-MIN KMKG 250030Z 15007KT 10SM OVC075 02/M08 A3000 560 49 -800 160/07 RMK AO2
14840KMKG MKG20060224193509702/24/06 19:35:31  5-MIN KMKG 250035Z 15006KT 10SM OVC075 02/M08 A3000 560 49 -800 150/06 RMK AO2
14840KMKG MKG20060224194009702/24/06 19:40:31  5-MIN KMKG 250040Z 14006KT 10SM OVC075 02/M08 A3000 560 49 -800 150/06 RMK AO2
14840KMKG MKG20060224194509702/24/06 19:45:31  5-MIN KMKG 250045Z 14006KT 10SM OVC075 02/M08 A3000 560 49 -800 150/06 RMK AO2
14840KMKG MKG20060224195011402/24/06 19:50:31  5-MIN KMKG 250050Z 15006KT 10SM OVC080 02/M08 A3000 560 49 -800 150/06 RMK AO2 SLP167 T00171078
14840KMKG MKG20060224195511402/24/06 19:55:31  5-MIN KMKG 250055Z 14007KT 10SM OVC080 01/M07 A3000 560 54 -900 150/07 RMK AO2 SLP167 T00111072
14840KMKG MKG20060224200009702/24/06 20:00:31  5-MIN KMKG 250100Z 15006KT 10SM OVC080 02/M07 A3000 560 52 -800 150/06 RMK AO2
14840KMKG MKG20060224200509702/24/06 20:05:31  5-MIN KMKG 250105Z 15007KT 10SM OVC075 02/M08 A2999 560 49 -800 150/07 RMK AO2
14840KMKG MKG20060224201009702/24/06 20:10:31  5-MIN KMKG 250110Z 15008KT 10SM OVC075 02/M07 A2999 570 52 -800 150/08 RMK AO2
14840KMKG MKG20060224201509702/24/06 20:15:31  5-MIN KMKG 250115Z 15008KT 10SM OVC075 02/M08 A2999 570 49 -800 150/08 RMK AO2
14840KMKG MKG20060224202009702/24/06 20:20:31  5-MIN KMKG 250120Z 15008KT 10SM OVC070 02/M08 A2998 570 49 -800 150/08 RMK AO2
14840KMKG MKG20060224202509702/24/06 20:25:31  5-MIN KMKG 250125Z 15008KT 10SM OVC070 02/M08 A2998 580 49 -800 150/08 RMK AO2
14840KMKG MKG20060224203009702/24/06 20:30:31  5-MIN KMKG 250130Z 15008KT 10SM OVC070 02/M08 A2997 580 49 -800 150/08 RMK AO2
14840KMKG MKG20060224203509702/24/06 20:35:31  5-MIN KMKG 250135Z 14007KT 10SM OVC070 02/M08 A2997 580 49 -800 150/07 RMK AO2
14840KMKG MKG20060224204009702/24/06 20:40:31  5-MIN KMKG 250140Z 15008KT 10SM OVC070 02/M07 A2997 590 52 -800 150/08 RMK AO2
14840KMKG MKG20060224204509702/24/06 20:45:31  5-MIN KMKG 250145Z 15006KT 10SM OVC070 02/M08 A2997 590 49 -800 150/06 RMK AO2
14840KMKG MKG20060224205011402/24/06 20:50:31  5-MIN KMKG 250150Z 15007KT 10SM OVC070 02/M08 A2996 590 49 -800 150/07 RMK AO2 SLP155 T00171078
14840KMKG MKG20060224205511402/24/06 20:55:31  5-MIN KMKG 250155Z 15006KT 10SM OVC070 02/M07 A2996 590 52 -800 160/06 RMK AO2 SLP153 T00171072
14840KMKG MKG20060224210009702/24/06 21:00:31  5-MIN KMKG 250200Z 16007KT 10SM OVC070 02/M08 A2995 600 49 -800 170/07 RMK AO2
14840KMKG MKG20060224210509702/24/06 21:05:31  5-MIN KMKG 250205Z 16008KT 10SM OVC070 02/M08 A2995 600 47 -700 170/08 RMK AO2
14840KMKG MKG20060224211009702/24/06 21:10:31  5-MIN KMKG 250210Z 16010KT 10SM OVC070 02/M08 A2994 610 47 -700 160/10 RMK AO2
14840KMKG MKG20060224211510402/24/06 21:15:31  5-MIN KMKG 250215Z 16009KT 10SM OVC070 02/M08 A2994 610 47 -700 160/09 RMK AO2 PRESFR
14840KMKG MKG20060224212010402/24/06 21:20:31  5-MIN KMKG 250220Z 16011KT 10SM BKN070 02/M08 A2993 620 47 -700 170/11 RMK AO2 PRESFR
14840KMKG MKG20060224212509702/24/06 21:25:31  5-MIN KMKG 250225Z 16011KT 10SM BKN070 02/M08 A2993 620 47 -700 170/11 RMK AO2
14840KMKG MKG20060224213009702/24/06 21:30:31  5-MIN KMKG 250230Z 17010KT 10SM BKN070 02/M08 A2993 620 47 -700 170/10 RMK AO2
14840KMKG MKG20060224213509702/24/06 21:35:31  5-MIN KMKG 250235Z 16011KT 10SM BKN070 02/M08 A2992 630 47 -700 170/11 RMK AO2
14840KMKG MKG20060224214009702/24/06 21:40:31  5-MIN KMKG 250240Z 17010KT 10SM BKN070 02/M07 A2992 630 50 -700 170/10 RMK AO2
14840KMKG MKG20060224214509702/24/06 21:45:31  5-MIN KMKG 250245Z 16010KT 10SM BKN070 02/M08 A2992 630 47 -700 170/10 RMK AO2
14840KMKG MKG20060224215012002/24/06 21:50:31  5-MIN KMKG 250250Z 17010KT 10SM BKN070 02/M08 A2991 640 47 -700 170/10 RMK AO2 SLP137 T00221078 56048
14840KMKG MKG20060224215512002/24/06 21:55:31  5-MIN KMKG 250255Z 17009KT 10SM BKN070 02/M08 A2991 640 47 -700 170/09 RMK AO2 SLP135 T00221078 58025
14840KMKG MKG20060224220009702/24/06 22:00:31  5-MIN KMKG 250300Z 16010KT 10SM BKN070 02/M07 A2991 640 50 -700 170/10 RMK AO2
14840KMKG MKG20060224220509702/24/06 22:05:31  5-MIN KMKG 250305Z 16009KT 10SM BKN070 02/M07 A2990 650 50 -700 160/09 RMK AO2
14840KMKG MKG20060224221009702/24/06 22:10:31  5-MIN KMKG 250310Z 16011KT 10SM SCT070 02/M07 A2990 650 50 -700 160/11 RMK AO2
14840KMKG MKG20060224221509702/24/06 22:15:31  5-MIN KMKG 250315Z 16011KT 10SM FEW070 02/M07 A2989 660 50 -600 160/11 RMK AO2
14840KMKG MKG20060224222009702/24/06 22:20:31  5-MIN KMKG 250320Z 16011KT 10SM FEW070 02/M07 A2989 660 50 -600 160/11 RMK AO2
14840KMKG MKG20060224222509702/24/06 22:25:31  5-MIN KMKG 250325Z 16009KT 10SM FEW070 02/M07 A2988 670 50 -600 170/09 RMK AO2
14840KMKG MKG20060224223009702/24/06 22:30:31  5-MIN KMKG 250330Z 17010KT 10SM FEW070 02/M07 A2988 670 50 -600 180/10 RMK AO2
14840KMKG MKG20060224223509702/24/06 22:35:31  5-MIN KMKG 250335Z 17012KT 10SM FEW070 03/M07 A2987 670 48 -600 170/12 RMK AO2
14840KMKG MKG20060224224010302/24/06 22:40:31  5-MIN KMKG 250340Z 17012G18KT 10SM FEW070 03/M07 A2987 680 48 -600 170/12G18 RMK AO2
14840KMKG MKG20060224224511002/24/06 22:45:31  5-MIN KMKG 250345Z 18012G18KT 10SM FEW070 SCT120 03/M07 A2987 680 48 -500 180/12G18 RMK AO2
14840KMKG MKG20060224225012702/24/06 22:50:31  5-MIN KMKG 250350Z 18012G19KT 10SM FEW070 SCT120 03/M07 A2986 680 48 -500 180/12G19 RMK AO2 SLP119 T00331067
14840KMKG MKG20060224225512702/24/06 22:55:31  5-MIN KMKG 250355Z 17014G20KT 10SM SCT070 BKN120 04/M07 A2986 690 46 -400 180/14G20 RMK AO2 SLP117 T00391067
14840KMKG MKG20060224230011002/24/06 23:00:31  5-MIN KMKG 250400Z 18016G20KT 10SM BKN075 BKN120 04/M06 A2985 690 46 -300 180/16G20 RMK AO2
14840KMKG MKG20060224230511702/24/06 23:05:31  5-MIN KMKG 250405Z 18017G23KT 10SM BKN075 BKN085 BKN120 04/M06 A2985 700 46 -300 190/17G23 RMK AO2
14840KMKG MKG20060224231011702/24/06 23:10:31  5-MIN KMKG 250410Z 19016G23KT 10SM BKN075 BKN085 OVC120 04/M06 A2984 700 46 -300 190/16G23 RMK AO2
14840KMKG MKG20060224231511002/24/06 23:15:31  5-MIN KMKG 250415Z 19015G22KT 10SM BKN080 BKN120 04/M06 A2984 700 46 -300 190/15G22 RMK AO2
14840KMKG MKG20060224232010302/24/06 23:20:31  5-MIN KMKG 250420Z 19017G23KT 10SM BKN080 04/M06 A2983 710 46 -300 190/17G23 RMK AO2
14840KMKG MKG20060224232510302/24/06 23:25:31  5-MIN KMKG 250425Z 19017G23KT 10SM BKN080 04/M06 A2983 710 48 -300 190/17G23 RMK AO2
14840KMKG MKG20060224233010302/24/06 23:30:31  5-MIN KMKG 250430Z 19016G24KT 10SM OVC080 04/M06 A2983 720 48 -300 190/16G24 RMK AO2
14840KMKG MKG20060224233510302/24/06 23:35:31  5-MIN KMKG 250435Z 19018G24KT 10SM OVC080 04/M06 A2982 720 48 -300 190/18G24 RMK AO2
14840KMKG MKG20060224234010302/24/06 23:40:31  5-MIN KMKG 250440Z 20015G25KT 10SM OVC080 04/M05 A2982 720 52 -400 200/15G25 RMK AO2
14840KMKG MKG20060224234510302/24/06 23:45:31  5-MIN KMKG 250445Z 19018G25KT 10SM OVC080 04/M05 A2982 720 52 -400 200/18G25 RMK AO2
14840KMKG MKG20060224235013002/24/06 23:50:31  5-MIN KMKG 250450Z 19018G25KT 10SM OVC080 04/M04 A2982 730 54 -400 200/18G25 RMK AO2 SLP103 T00391044 400441078
14840KMKG MKG20060224235513002/24/06 23:55:31  5-MIN KMKG 250455Z 19016G24KT 10SM OVC075 04/M04 A2982 730 54 -400 200/16G24 RMK AO2 SLP103 T00391044 400441078
14840KMKG MKG20060225000011002/25/06 00:00:32  5-MIN KMKG 250500Z 20017G23KT 10SM BKN070 OVC085 04/M04 A2981 730 54 -400 200/17G23 RMK AO2
14840KMKG MKG20060225000510302/25/06 00:05:31  5-MIN KMKG 250505Z 20016G23KT 10SM BKN075 04/M04 A2981 730 57 -300 200/16G23 RMK AO2
14840KMKG MKG20060225001010302/25/06 00:10:31  5-MIN KMKG 250510Z 20015G21KT 10SM BKN070 03/M04 A2981 730 59 -400 200/15G21 RMK AO2
14840KMKG MKG20060225001510302/25/06 00:15:31  5-MIN KMKG 250515Z 20016G21KT 10SM SCT070 03/M04 A2981 730 59 -400 200/16G21 RMK AO2
14840KMKG MKG20060225002010302/25/06 00:20:31  5-MIN KMKG 250520Z 20017G21KT 10SM SCT070 03/M03 A2981 730 61 -400 200/17G21 RMK AO2
14840KMKG MKG20060225002510302/25/06 00:25:31  5-MIN KMKG 250525Z 20018G21KT 10SM FEW070 03/M03 A2981 730 61 -400 200/18G21 RMK AO2
14840KMKG MKG20060225003010002/25/06 00:30:31  5-MIN KMKG 250530Z 20020G24KT 10SM CLR 03/M03 A2981 730 61 -400 200/20G24 RMK AO2
14840KMKG MKG20060225003510002/25/06 00:35:31  5-MIN KMKG 250535Z 21013G24KT 10SM CLR 03/M03 A2981 730 64 -400 210/13G24 RMK AO2
14840KMKG MKG20060225004009402/25/06 00:40:31  5-MIN KMKG 250540Z 20013KT 10SM CLR 03/M03 A2980 740 67 -500 210/13 RMK AO2
14840KMKG MKG20060225004509402/25/06 00:45:31  5-MIN KMKG 250545Z 21015KT 10SM CLR 03/M02 A2980 740 67 -400 210/15 RMK AO2
14840KMKG MKG20060225005013202/25/06 00:50:31  5-MIN KMKG 250550Z 21014KT 10SM FEW120 03/M02 A2981 740 67 -400 220/14 RMK AO2 SLP100 T00331022 10044 20011 58025
14840KMKG MKG20060225005513802/25/06 00:55:31  5-MIN KMKG 250555Z 22016G19KT 10SM FEW120 03/M02 A2981 730 70 -400 220/16G19 RMK AO2 SLP100 T00331017 10044 20011 56034
14840KMKG MKG20060225010010302/25/06 01:00:31  5-MIN KMKG 250600Z 21017G21KT 10SM FEW120 03/M02 A2981 730 70 -400 220/17G21 RMK AO2
14840KMKG MKG20060225010510302/25/06 01:05:31  5-MIN KMKG 250605Z 23016G21KT 10SM FEW120 04/M01 A2981 740 70 -300 230/16G21 RMK AO2
14840KMKG MKG20060225011010302/25/06 01:10:31  5-MIN KMKG 250610Z 21019G24KT 10SM FEW120 04/M01 A2981 730 67 -300 220/19G24 RMK AO2
14840KMKG MKG20060225011510302/25/06 01:15:31  5-MIN KMKG 250615Z 23017G25KT 10SM FEW120 04/M01 A2981 730 67 -300 230/17G25 RMK AO2
14840KMKG MKG20060225012010302/25/06 01:20:31  5-MIN KMKG 250620Z 23014G25KT 10SM FEW120 04/M01 A2981 740 70 -300 230/14G25 RMK AO2
14840KMKG MKG20060225012510302/25/06 01:25:31  5-MIN KMKG 250625Z 23016G25KT 10SM FEW120 04/M01 A2981 730 70 -300 230/16G25 RMK AO2
14840KMKG MKG20060225013010302/25/06 01:30:31  5-MIN KMKG 250630Z 24014G25KT 10SM FEW120 04/M01 A2981 730 70 -300 240/14G25 RMK AO2
14840KMKG MKG20060225013510302/25/06 01:35:31  5-MIN KMKG 250635Z 23016G22KT 10SM FEW120 04/M01 A2981 730 70 -300 240/16G22 RMK AO2
14840KMKG MKG20060225014010302/25/06 01:40:31  5-MIN KMKG 250640Z 24014G23KT 10SM FEW120 04/M01 A2981 730 70 -300 240/14G23 RMK AO2
14840KMKG MKG20060225014510302/25/06 01:45:31  5-MIN KMKG 250645Z 24014G23KT 10SM SCT120 04/M01 A2981 730 70 -300 250/14G23 RMK AO2
14840KMKG MKG20060225015011402/25/06 01:50:31  5-MIN KMKG 250650Z 25012KT 10SM BKN120 04/M01 A2981 740 70 -300 250/12 RMK AO2 SLP100 T00441006
14840KMKG MKG20060225015512002/25/06 01:55:31  5-MIN KMKG 250655Z 24015G19KT 10SM BKN120 04/M01 A2981 740 70 -300 250/15G19 RMK AO2 SLP099 T00441006
14840KMKG MKG20060225020010302/25/06 02:00:31  5-MIN KMKG 250700Z 25014G21KT 10SM BKN120 04/M01 A2981 730 70 -300 250/14G21 RMK AO2
14840KMKG MKG20060225020510302/25/06 02:05:31  5-MIN KMKG 250705Z 25015G21KT 10SM OVC120 04/M01 A2981 730 70 -300 260/15G21 RMK AO2
14840KMKG MKG20060225021010302/25/06 02:10:31  5-MIN KMKG 250710Z 26013G21KT 10SM OVC120 04/M01 A2981 730 70 -300 260/13G21 RMK AO2
14840KMKG MKG20060225021510302/25/06 02:15:31  5-MIN KMKG 250715Z 27012G20KT 10SM OVC120 04/M01 A2981 730 70 -300 270/12G20 RMK AO2
14840KMKG MKG20060225022010302/25/06 02:20:31  5-MIN KMKG 250720Z 27015G20KT 10SM OVC120 04/M01 A2981 730 70 -300 280/15G20 RMK AO2
14840KMKG MKG20060225022510302/25/06 02:25:31  5-MIN KMKG 250725Z 27017G21KT 10SM BKN120 04/M01 A2981 730 67 -300 280/17G21 RMK AO2
14840KMKG MKG20060225023010302/25/06 02:30:31  5-MIN KMKG 250730Z 28016G22KT 10SM BKN120 04/M01 A2981 730 67 -300 280/16G22 RMK AO2
14840KMKG MKG20060225023510302/25/06 02:35:31  5-MIN KMKG 250735Z 28013G22KT 10SM BKN120 04/M01 A2981 730 67 -300 290/13G22 RMK AO2
14840KMKG MKG20060225024010302/25/06 02:40:31  5-MIN KMKG 250740Z 29013G20KT 10SM BKN120 04/M01 A2982 720 67 -300 290/13G20 RMK AO2
14840KMKG MKG20060225024510302/25/06 02:45:31  5-MIN KMKG 250745Z 28017G24KT 10SM BKN120 04/M01 A2982 720 67 -300 290/17G24 RMK AO2
14840KMKG MKG20060225025012002/25/06 02:50:31  5-MIN KMKG 250750Z 29017G24KT 10SM BKN120 04/M01 A2983 720 67 -300 300/17G24 RMK AO2 SLP106 T00441011
14840KMKG MKG20060225025512002/25/06 02:55:31  5-MIN KMKG 250755Z 29017G23KT 10SM BKN120 04/M02 A2983 710 67 -400 290/17G23 RMK AO2 SLP107 T00391017
14840KMKG MKG20060225030010302/25/06 03:00:31  5-MIN KMKG 250800Z 29018G25KT 10SM BKN120 04/M02 A2983 710 67 -400 300/18G25 RMK AO2
14840KMKG MKG20060225030510302/25/06 03:05:31  5-MIN KMKG 250805Z 29020G25KT 10SM OVC120 04/M02 A2983 710 67 -400 300/20G25 RMK AO2
14840KMKG MKG20060225031010302/25/06 03:10:31  5-MIN KMKG 250810Z 30019G25KT 10SM OVC120 03/M02 A2983 710 67 -400 300/19G25 RMK AO2
14840KMKG MKG20060225031510302/25/06 03:15:31  5-MIN KMKG 250815Z 30017G24KT 10SM BKN120 03/M02 A2983 710 67 -400 310/17G24 RMK AO2
14840KMKG MKG20060225032012102/25/06 03:20:31  5-MIN KMKG 250820Z 30019G26KT 10SM BKN120 03/M02 A2983 720 67 -400 300/19G26 RMK AO2 PK WND 32026/0818
14840KMKG MKG20060225032512102/25/06 03:25:31  5-MIN KMKG 250825Z 30019G30KT 10SM SCT120 03/M03 A2984 710 64 -400 300/19G30 RMK AO2 PK WND 30030/0822
14840KMKG MKG20060225033012102/25/06 03:30:31  5-MIN KMKG 250830Z 30020G30KT 10SM SCT120 03/M03 A2984 710 67 -500 310/20G30 RMK AO2 PK WND 30030/0822
14840KMKG MKG20060225033512102/25/06 03:35:31  5-MIN KMKG 250835Z 31022G31KT 10SM FEW120 03/M03 A2984 700 64 -500 310/22G31 RMK AO2 PK WND 30031/0835
14840KMKG MKG20060225034012102/25/06 03:40:31  5-MIN KMKG 250840Z 30020G31KT 10SM FEW110 02/M03 A2984 700 67 -600 310/20G31 RMK AO2 PK WND 31031/0837
14840KMKG MKG20060225034511802/25/06 03:45:31  5-MIN KMKG 250845Z 31021G31KT 10SM CLR 02/M04 A2985 700 64 -600 310/21G31 RMK AO2 PK WND 31031/0837
14840KMKG MKG20060225035014102/25/06 03:50:31  5-MIN KMKG 250850Z 30016G28KT 10SM CLR 02/M04 A2985 690 64 -600 310/16G28 RMK AO2 PK WND 31031/0837 SLP115 T00221039 56034
14840KMKG MKG20060225035514102/25/06 03:55:31  5-MIN KMKG 250855Z 31014G28KT 10SM CLR 02/M04 A2986 690 66 -700 320/14G28 RMK AO2 PK WND 31031/0837 SLP116 T00171039 53016
14840KMKG MKG20060225040011802/25/06 04:00:31  5-MIN KMKG 250900Z 31019G26KT 10SM CLR 02/M04 A2986 690 66 -700 320/19G26 RMK AO2 PK WND 28026/0856
14840KMKG MKG20060225040511802/25/06 04:05:31  5-MIN KMKG 250905Z 31020G26KT 10SM CLR 01/M04 A2986 690 69 -700 320/20G26 RMK AO2 PK WND 28026/0856
14840KMKG MKG20060225041011802/25/06 04:10:31  5-MIN KMKG 250910Z 30016G24KT 10SM CLR 01/M03 A2986 690 72 -700 310/16G24 RMK AO2 PK WND 28026/0856
14840KMKG MKG20060225041511702/25/06 04:15:31  5-MIN KMKG 250915Z 32018G24KT 9SM CLR 01/M03 A2987 680 75 -800 320/18G24 RMK AO2 PK WND 28026/0856
14840KMKG MKG20060225042011702/25/06 04:20:31  5-MIN KMKG 250920Z 32021G29KT 9SM CLR 01/M03 A2986 680 75 -800 320/21G29 RMK AO2 PK WND 32029/0919
14840KMKG MKG20060225042512002/25/06 04:25:31  5-MIN KMKG 250925Z 31018G29KT 9SM SCT018 01/M03 A2987 670 75 -800 320/18G29 RMK AO2 PK WND 32029/0919
14840KMKG MKG20060225043012002/25/06 04:30:31  5-MIN KMKG 250930Z 32017G28KT 9SM BKN018 01/M03 A2987 670 75 -800 320/17G28 RMK AO2 PK WND 32029/0919
14840KMKG MKG20060225043512002/25/06 04:35:31  5-MIN KMKG 250935Z 31022G29KT 9SM BKN016 00/M03 A2988 670 81 -900 320/22G29 RMK AO2 PK WND 31029/0934
14840KMKG MKG20060225044012002/25/06 04:40:31  5-MIN KMKG 250940Z 32019G29KT 8SM BKN016 00/M03 A2988 670 78 -900 320/19G29 RMK AO2 PK WND 31029/0934
14840KMKG MKG20060225044512002/25/06 04:45:31  5-MIN KMKG 250945Z 31023G33KT 9SM OVC016 00/M03 A2989 660 78 -900 320/23G33 RMK AO2 PK WND 32033/0944
14840KMKG MKG20060225045014402/25/06 04:50:31  5-MIN KMKG 250950Z 32020G33KT 8SM OVC016 00/M03 A2990 650 81 -900 320/20G33 RMK AO2 PK WND 32033/0944 PRESRR SLP131 T00001028
14840KMKG MKG20060225045514602/25/06 04:55:31  5-MIN KMKG 250955Z 32019G30KT 8SM OVC014 M01/M03 A2991 640 81 -1000 330/19G30 RMK AO2 PK WND 32033/0944 PRESRR SLP135 T10061033
14840KMKG MKG20060225050012902/25/06 05:00:31  5-MIN KMKG 251000Z 33024G33KT 9SM OVC014 M01/M04 A2992 630 78 -1000 330/24G33 RMK AO2 PK WND 31033/1000 PRESRR
14840KMKG MKG20060225050512302/25/06 05:05:31  5-MIN KMKG 251005Z 32020G33KT 10SM OVC014 M01/M04 A2992 630 78 -1000 330/20G33 RMK AO2 PK WND 31033/1000
14840KMKG MKG20060225051013002/25/06 05:10:31  5-MIN KMKG 251010Z 33016G29KT 10SM OVC012 M01/M03 A2993 620 81 -1000 330/16G29 RMK AO2 PK WND 31033/1000 PRESRR
14840KMKG MKG20060225051513002/25/06 05:15:31  5-MIN KMKG 251015Z 33023G29KT 10SM OVC012 M01/M03 A2994 610 81 -1100 340/23G29 RMK AO2 PK WND 31033/1000 PRESRR
14840KMKG MKG20060225052012302/25/06 05:20:31  5-MIN KMKG 251020Z 33024G30KT 10SM OVC012 M01/M04 A2994 610 78 -1100 340/24G30 RMK AO2 PK WND 31033/1000
14840KMKG MKG20060225052512302/25/06 05:25:31  5-MIN KMKG 251025Z 33021G30KT 10SM OVC012 M01/M04 A2994 610 78 -1100 330/21G30 RMK AO2 PK WND 31033/1000
14840KMKG MKG20060225053013002/25/06 05:30:31  5-MIN KMKG 251030Z 32019G30KT 10SM BKN014 OVC018 M01/M04 A2995 610 78 -1100 330/19G30 RMK AO2 PK WND 31033/1000
14840KMKG MKG20060225053512302/25/06 05:35:31  5-MIN KMKG 251035Z 31017G28KT 10SM OVC014 M01/M04 A2995 610 78 -1100 320/17G28 RMK AO2 PK WND 31033/1000
14840KMKG MKG20060225054012302/25/06 05:40:31  5-MIN KMKG 251040Z 32018G28KT 10SM OVC014 M01/M04 A2995 600 78 -1100 320/18G28 RMK AO2 PK WND 31033/1000
14840KMKG MKG20060225054512302/25/06 05:45:31  5-MIN KMKG 251045Z 32018G27KT 10SM OVC014 M01/M04 A2996 600 78 -1100 320/18G27 RMK AO2 PK WND 31033/1000
14840KMKG MKG20060225055014002/25/06 05:50:31  5-MIN KMKG 251050Z 32019G28KT 10SM OVC014 M01/M04 A2996 590 78 -1100 330/19G28 RMK AO2 PK WND 31033/1000 SLP153 T10061039
14840KMKG MKG20060225055514002/25/06 05:55:31  5-MIN KMKG 251055Z 32016G28KT 10SM OVC014 M01/M04 A2996 590 78 -1100 320/16G28 RMK AO2 PK WND 31033/1000 SLP154 T10061039
14840KMKG MKG20060225060012302/25/06 06:00:31  5-MIN KMKG 251100Z 32021G26KT 10SM OVC014 M01/M04 A2997 590 78 -1100 320/21G26 RMK AO2 PK WND 32026/1058
14840KMKG MKG20060225060513002/25/06 06:05:31  5-MIN KMKG 251105Z 32019G28KT 10SM OVC014 M01/M04 A2998 580 81 -1200 320/19G28 RMK AO2 PK WND 32028/1105 PRESRR
14840KMKG MKG20060225061012302/25/06 06:10:31  5-MIN KMKG 251110Z 32017G28KT 10SM OVC014 M01/M04 A2998 570 81 -1200 330/17G28 RMK AO2 PK WND 32028/1105
14840KMKG MKG20060225061513002/25/06 06:15:31  5-MIN KMKG 251115Z 33019G25KT 10SM OVC016 M01/M04 A2999 560 78 -1200 330/19G25 RMK AO2 PK WND 32028/1105 PRESRR
14840KMKG MKG20060225062013002/25/06 06:20:31  5-MIN KMKG 251120Z 32020G27KT 10SM BKN016 OVC020 M01/M04 A2999 560 78 -1200 330/20G27 RMK AO2 PK WND 32028/1105
14840KMKG MKG20060225062513002/25/06 06:25:31  5-MIN KMKG 251125Z 32018G27KT 10SM OVC016 M01/M04 A3001 550 78 -1200 320/18G27 RMK AO2 PK WND 32028/1105 PRESRR
14840KMKG MKG20060225063012302/25/06 06:30:31  5-MIN KMKG 251130Z 32018G27KT 10SM OVC016 M01/M04 A3001 550 78 -1200 330/18G27 RMK AO2 PK WND 32028/1105
14840KMKG MKG20060225063513002/25/06 06:35:31  5-MIN KMKG 251135Z 32018G26KT 10SM OVC016 M02/M04 A3002 540 81 -1300 330/18G26 RMK AO2 PK WND 32028/1105 PRESRR
14840KMKG MKG20060225064012302/25/06 06:40:31  5-MIN KMKG 251140Z 33019G23KT 10SM OVC016 M02/M04 A3003 530 81 -1300 340/19G23 RMK AO2 PK WND 32028/1105
14840KMKG MKG20060225064512302/25/06 06:45:31  5-MIN KMKG 251145Z 33017G25KT 10SM OVC016 M01/M04 A3003 530 78 -1200 330/17G25 RMK AO2 PK WND 32028/1105
14840KMKG MKG20060225065015802/25/06 06:50:31  5-MIN KMKG 251150Z 33017G29KT 10SM OVC016 M01/M04 A3003 530 78 -1200 330/17G29 RMK AO2 PK WND 33029/1147 SLP178 T10111044 10044 21017 53016
14840KMKG MKG20060225065515802/25/06 06:55:31  5-MIN KMKG 251155Z 33017G29KT 10SM OVC016 M01/M04 A3004 520 78 -1200 330/17G29 RMK AO2 PK WND 33029/1147 SLP180 T10111044 10044 21017 53061
14840KMKG MKG20060225070012302/25/06 07:00:31  5-MIN KMKG 251200Z 33015G27KT 10SM OVC016 M01/M04 A3004 520 78 -1200 330/15G27 RMK AO2 PK WND 31027/1156
14840KMKG MKG20060225070512302/25/06 07:05:31  5-MIN KMKG 251205Z 33018G27KT 10SM OVC016 M01/M04 A3004 520 78 -1200 330/18G27 RMK AO2 PK WND 31027/1156
14840KMKG MKG20060225071012302/25/06 07:10:31  5-MIN KMKG 251210Z 33017G24KT 10SM OVC016 M01/M04 A3005 510 78 -1200 330/17G24 RMK AO2 PK WND 31027/1156
14840KMKG MKG20060225071512302/25/06 07:15:31  5-MIN KMKG 251215Z 33019G24KT 10SM OVC016 M01/M04 A3005 510 78 -1300 330/19G24 RMK AO2 PK WND 31027/1156
14840KMKG MKG20060225072013802/25/06 07:20:31  5-MIN KMKG 251220Z 32014G23KT 7SM -SN OVC016 M01/M04 A3006 500 78 -1300 330/14G23 RMK AO2 PK WND 31027/1156 SNB16 P0000
14840KMKG MKG20060225072513902/25/06 07:25:31  5-MIN KMKG 251225Z 32016KT 6SM -SN OVC018 M01/M04 A3006 500 78 -1300 330/16 RMK AO2 PK WND 31027/1156 SNB16 PRESRR P0000
14840KMKG MKG20060225073013202/25/06 07:30:31  5-MIN KMKG 251230Z 33013KT 6SM -SN OVC018 M01/M04 A3007 490 81 -1300 340/13 RMK AO2 PK WND 31027/1156 SNB16 P0000
14840KMKG MKG20060225073513802/25/06 07:35:31  5-MIN KMKG 251235Z 33020G26KT 6SM -SN OVC018 M01/M04 A3007 490 81 -1300 330/20G26 RMK AO2 PK WND 31027/1156 SNB16 P0000
14840KMKG MKG20060225074015202/25/06 07:40:31  5-MIN KMKG 251240Z 35015G26KT 6SM -SN BKN018 OVC023 M01/M04 A3008 480 78 -1300 360/15G26 RMK AO2 PK WND 31027/1156 SNB16 PRESRR P0000
14840KMKG MKG20060225074517402/25/06 07:45:31  5-MIN KMKG 251245Z 36021G25KT 6SM -SN SCT018 BKN023 OVC038 M01/M05 A3009 470 75 -1300 360/21G25 RMK AO2 PK WND 31027/1156 SNB16 CIG 018 RWY 14 PRESRR P0000
14840KMKG MKG20060225075016702/25/06 07:50:31  5-MIN KMKG 251250Z 35022G26KT 6SM -SN SCT018 BKN032 OVC049 M01/M06 A3009 480 72 -1300 350/22G26 RMK AO2 PK WND 31027/1156 SNB16 CIG 026 RWY 14 P0000
14840KMKG MKG20060225075516802/25/06 07:55:31  5-MIN KMKG 251255Z 35022G28KT 9SM FEW018 BKN038 OVC047 M01/M07 A3010 470 66 -1300 360/22G28 RMK AO2 PK WND 34028/1251 SNB16E52 SLP199 P0000 T10111067
14840KMKG MKG20060225080011902/25/06 08:00:31  5-MIN KMKG 251300Z 35016G28KT 10SM FEW020 SCT029 OVC038 M01/M07 A3010 460 66 -1300 350/16G28 RMK AO2
14840KMKG MKG20060225080511202/25/06 08:05:31  5-MIN KMKG 251305Z 34013G23KT 10SM FEW020 OVC036 M01/M07 A3011 450 66 -1300 350/13G23 RMK AO2
14840KMKG MKG20060225081011202/25/06 08:10:31  5-MIN KMKG 251310Z 34014G19KT 10SM FEW030 OVC036 M01/M07 A3011 450 66 -1300 340/14G19 RMK AO2
14840KMKG MKG20060225081510502/25/06 08:15:31  5-MIN KMKG 251315Z 35013G19KT 10SM OVC034 M01/M07 A3012 450 66 -1300 350/13G19 RMK AO2
14840KMKG MKG20060225082010502/25/06 08:20:31  5-MIN KMKG 251320Z 35020G25KT 10SM OVC034 M01/M07 A3013 440 63 -1300 360/20G25 RMK AO2
14840KMKG MKG20060225082512302/25/06 08:25:31  5-MIN KMKG 251325Z 35020G30KT 10SM OVC034 M01/M08 A3013 440 60 -1300 350/20G30 RMK AO2 PK WND 01030/1325
14840KMKG MKG20060225083013002/25/06 08:30:31  5-MIN KMKG 251330Z 35018G30KT 10SM OVC034 M01/M08 A3014 430 60 -1300 360/18G30 RMK AO2 PK WND 01030/1325 PRESRR
14840KMKG MKG20060225083513002/25/06 08:35:31  5-MIN KMKG 251335Z 35014G28KT 10SM BKN036 M01/M08 A3015 420 58 -1400 360/14G28 RMK AO2 PK WND 01030/1325 PRESRR
14840KMKG MKG20060225084013002/25/06 08:40:31  5-MIN KMKG 251340Z 36020G26KT 10SM FEW029 BKN036 M01/M08 A3015 420 58 -1400 360/20G26 RMK AO2 PK WND 01030/1325
14840KMKG MKG20060225084512302/25/06 08:45:31  5-MIN KMKG 251345Z 35015G26KT 10SM BKN036 M01/M08 A3016 410 58 -1400 350/15G26 RMK AO2 PK WND 01030/1325
14840KMKG MKG20060225085014702/25/06 08:50:31  5-MIN KMKG 251350Z 36019G24KT 10SM BKN038 M01/M08 A3016 410 58 -1400 360/19G24 RMK AO2 PK WND 01030/1325 PRESRR SLP222 T10111083
14840KMKG MKG20060225085514002/25/06 08:55:31  5-MIN KMKG 251355Z 36015G24KT 10SM BKN038 M01/M08 A3017 400 58 -1400 360/15G24 RMK AO2 PK WND 01030/1325 SLP223 T10111083
14840KMKG MKG20060225090010602/25/06 09:00:31  5-MIN KMKG 251400Z 35015KT 10SM BKN041 M01/M08 A3018 400 58 -1400 350/15 RMK AO2 PRESRR
14840KMKG MKG20060225090510602/25/06 09:05:31  5-MIN KMKG 251405Z 35014KT 10SM BKN038 OVC045 M01/M08 A3018 390 56 -1300 350/14 RMK AO2
14840KMKG MKG20060225091011202/25/06 09:10:31  5-MIN KMKG 251410Z 36015G21KT 10SM BKN040 OVC048 M01/M08 A3018 390 58 -1400 360/15G21 RMK AO2
14840KMKG MKG20060225091511202/25/06 09:15:31  5-MIN KMKG 251415Z 35017G21KT 10SM BKN040 BKN048 M01/M09 A3018 390 53 -1300 350/17G21 RMK AO2
14840KMKG MKG20060225092011202/25/06 09:20:31  5-MIN KMKG 251420Z 36019G25KT 10SM BKN038 BKN046 M01/M09 A3019 380 53 -1300 010/19G25 RMK AO2
14840KMKG MKG20060225092511102/25/06 09:25:31  5-MIN KMKG 251425Z 35016G25KT 10SM BKN039 OVC047 00/M08 A3019 380 53 -1300 350/16G25 RMK AO2
14840KMKG MKG20060225093010502/25/06 09:30:31  5-MIN KMKG 251430Z 34017KT 10SM BKN039 OVC047 00/M08 A3019 380 53 -1300 350/17 RMK AO2
14840KMKG MKG20060225093510502/25/06 09:35:31  5-MIN KMKG 251435Z 34018G24KT 10SM BKN042 M01/M08 A3020 380 56 -1300 340/18G24 RMK AO2
14840KMKG MKG20060225094011202/25/06 09:40:31  5-MIN KMKG 251440Z 34017G24KT 10SM BKN040 BKN049 M01/M08 A3020 380 56 -1300 340/17G24 RMK AO2
14840KMKG MKG20060225094514302/25/06 09:45:31  5-MIN KMKG 251445Z 34015G21KT 10SM -SN SCT033 OVC044 M01/M08 A3020 370 58 -1400 340/15G21 RMK AO2 SNB44 CIG 035 RWY 14 P0000
14840KMKG MKG20060225095013602/25/06 09:50:31  5-MIN KMKG 251450Z 34017G24KT 3/4SM -SN FEW002 BKN031 OVC047 M02/M06 A3021 370 72 -1500 340/17G24 RMK AO2 SNB44 P0000
14840KMKG MKG20060225095516902/25/06 09:55:31  5-MIN KMKG 251455Z 34012G24KT 1/2SM SN FZFG SCT002 BKN028 OVC047 M03/M05 A3021 360 85 -1600 350/12G24 RMK AO2 SNB44 SLP238 P0000 60000 T10281050 51057
14840KMKG MKG20060225100012202/25/06 10:00:31  5-MIN KMKG 251500Z 35009KT 4SM -SN FEW002 BKN035 OVC050 M02/M05 A3021 360 81 -1600 350/09 RMK AO2 P0000
14840KMKG MKG20060225100512802/25/06 10:05:31  5-MIN KMKG 251505Z 35013G22KT 8SM -SN FEW002 BKN035 OVC055 M02/M05 A3022 360 78 -1500 350/13G22 RMK AO2 P0000
14840KMKG MKG20060225101014602/25/06 10:10:31  5-MIN KMKG 251510Z 35022G28KT 9SM -SN FEW002 BKN033 OVC047 M01/M07 A3022 360 66 -1400 350/22G28 RMK AO2 PK WND 35028/1507 P0000
14840KMKG MKG20060225101514602/25/06 10:15:31  5-MIN KMKG 251515Z 34023G28KT 9SM -SN FEW002 BKN030 BKN046 M01/M07 A3022 350 66 -1400 350/23G28 RMK AO2 PK WND 35028/1507 P0000
14840KMKG MKG20060225102014802/25/06 10:20:31  5-MIN KMKG 251520Z 35016G27KT 9SM FEW002 SCT030 BKN040 M01/M06 A3023 350 69 -1500 350/16G27 RMK AO2 PK WND 35028/1507 SNE17 P0000
14840KMKG MKG20060225102514902/25/06 10:25:31  5-MIN KMKG 251525Z 35015G26KT 10SM SCT030 BKN044 BKN050 M01/M07 A3022 350 66 -1400 350/15G26 RMK AO2 PK WND 35028/1507 SNE17 P0000
14840KMKG MKG20060225103014302/25/06 10:30:31  5-MIN KMKG 251530Z 35014KT 10SM FEW030 SCT037 BKN045 M01/M07 A3022 350 66 -1400 350/14 RMK AO2 PK WND 35028/1507 SNE17 P0000
14840KMKG MKG20060225103514902/25/06 10:35:31  5-MIN KMKG 251535Z 35015G25KT 10SM FEW030 BKN039 BKN048 M01/M07 A3023 350 63 -1400 350/15G25 RMK AO2 PK WND 35028/1507 SNE17 P0000
14840KMKG MKG20060225104014902/25/06 10:40:31  5-MIN KMKG 251540Z 35016G25KT 10SM FEW030 BKN039 BKN048 M01/M07 A3023 340 61 -1400 350/16G25 RMK AO2 PK WND 35028/1507 SNE17 P0000
14840KMKG MKG20060225104514902/25/06 10:45:31  5-MIN KMKG 251545Z 35020G25KT 10SM FEW030 BKN040 OVC048 M01/M07 A3023 340 63 -1500 350/20G25 RMK AO2 PK WND 35028/1507 SNE17 P0000
14840KMKG MKG20060225105015902/25/06 10:50:31  5-MIN KMKG 251550Z 34022G28KT 10SM BKN038 OVC047 M02/M07 A3023 340 66 -1500 340/22G28 RMK AO2 PK WND 34028/1549 SLP245 SNE17 P0000 T10171072
14840KMKG MKG20060225105516602/25/06 10:55:31  5-MIN KMKG 251555Z 34019G28KT 10SM FEW027 BKN038 BKN047 M01/M07 A3023 340 66 -1500 340/19G28 RMK AO2 PK WND 34028/1549 SLP245 SNE17 P0000 T10111067
14840KMKG MKG20060225110013702/25/06 11:00:31  5-MIN KMKG 251600Z 35020G28KT 10SM FEW027 BKN038 BKN047 M01/M07 A3024 330 66 -1500 350/20G28 RMK AO2 PK WND 34028/1558
14840KMKG MKG20060225110513702/25/06 11:05:31  5-MIN KMKG 251605Z 34017G28KT 10SM FEW027 BKN035 OVC044 M01/M07 A3025 330 63 -1500 350/17G28 RMK AO2 PK WND 34028/1558
14840KMKG MKG20060225111013602/25/06 11:10:31  5-MIN KMKG 251610Z 35017G26KT 10SM FEW027 BKN035 BKN044 00/M07 A3025 330 61 -1300 350/17G26 RMK AO2 PK WND 34028/1558
14840KMKG MKG20060225111513702/25/06 11:15:31  5-MIN KMKG 251615Z 34018G25KT 10SM SCT029 BKN035 BKN044 M01/M07 A3025 330 61 -1400 340/18G25 RMK AO2 PK WND 34028/1558
14840KMKG MKG20060225112013702/25/06 11:20:31  5-MIN KMKG 251620Z 34016G22KT 10SM SCT029 BKN036 BKN043 M01/M07 A3025 330 63 -1500 340/16G22 RMK AO2 PK WND 34028/1558
14840KMKG MKG20060225112513002/25/06 11:25:31  5-MIN KMKG 251625Z 35016G24KT 10SM SCT029 OVC039 M01/M07 A3026 320 63 -1500 350/16G24 RMK AO2 PK WND 34028/1558
14840KMKG MKG20060225113013002/25/06 11:30:31  5-MIN KMKG 251630Z 35014G24KT 10SM BKN034 OVC042 M01/M07 A3026 320 61 -1400 350/14G24 RMK AO2 PK WND 34028/1558
14840KMKG MKG20060225113513002/25/06 11:35:31  5-MIN KMKG 251635Z 34017G26KT 10SM SCT029 OVC038 M01/M07 A3026 320 63 -1500 350/17G26 RMK AO2 PK WND 34028/1558
14840KMKG MKG20060225114013002/25/06 11:40:31  5-MIN KMKG 251640Z 35017G26KT 10SM SCT029 OVC038 M01/M07 A3027 310 63 -1500 360/17G26 RMK AO2 PK WND 34028/1558
14840KMKG MKG20060225114513002/25/06 11:45:31  5-MIN KMKG 251645Z 34020G29KT 10SM FEW029 OVC038 M01/M08 A3027 310 60 -1500 350/20G29 RMK AO2 PK WND 34029/1642
14840KMKG MKG20060225115014702/25/06 11:50:31  5-MIN KMKG 251650Z 34018G29KT 10SM FEW029 OVC038 M01/M08 A3027 310 60 -1500 340/18G29 RMK AO2 PK WND 34029/1642 SLP258 T10111078
14840KMKG MKG20060225115514702/25/06 11:55:31  5-MIN KMKG 251655Z 34022G27KT 10SM SCT029 OVC036 M01/M08 A3028 300 58 -1500 350/22G27 RMK AO2 PK WND 34029/1642 SLP259 T10111083
14840KMKG MKG20060225120011202/25/06 12:00:31  5-MIN KMKG 251700Z 34021G24KT 10SM BKN032 OVC039 M01/M08 A3028 300 58 -1500 340/21G24 RMK AO2
14840KMKG MKG20060225120509902/25/06 12:05:31  5-MIN KMKG 251705Z 35018KT 10SM OVC032 M01/M08 A3028 290 58 -1500 350/18 RMK AO2
14840KMKG MKG20060225121009902/25/06 12:10:31  5-MIN KMKG 251710Z 35018KT 10SM OVC033 M01/M08 A3029 290 58 -1500 360/18 RMK AO2
14840KMKG MKG20060225121509902/25/06 12:15:31  5-MIN KMKG 251715Z 35013KT 10SM OVC031 M01/M08 A3029 290 58 -1500 350/13 RMK AO2
14840KMKG MKG20060225122010502/25/06 12:20:31  5-MIN KMKG 251720Z 34016G22KT 10SM OVC031 M01/M08 A3029 290 58 -1500 340/16G22 RMK AO2
14840KMKG MKG20060225122510502/25/06 12:25:31  5-MIN KMKG 251725Z 33018G24KT 10SM OVC031 M01/M08 A3028 300 56 -1400 340/18G24 RMK AO2
14840KMKG MKG20060225123010502/25/06 12:30:31  5-MIN KMKG 251730Z 33017G24KT 10SM OVC031 M01/M08 A3029 290 58 -1500 330/17G24 RMK AO2
14840KMKG MKG20060225123510502/25/06 12:35:31  5-MIN KMKG 251735Z 34017G21KT 10SM BKN031 M01/M08 A3029 290 58 -1500 350/17G21 RMK AO2
14840KMKG MKG20060225124010502/25/06 12:40:31  5-MIN KMKG 251740Z 35017G24KT 10SM BKN031 M01/M08 A3030 280 56 -1500 360/17G24 RMK AO2
14840KMKG MKG20060225124510502/25/06 12:45:31  5-MIN KMKG 251745Z 35014G24KT 10SM BKN031 M01/M09 A3030 280 55 -1500 350/14G24 RMK AO2
14840KMKG MKG20060225125014602/25/06 12:50:31  5-MIN KMKG 251750Z 34018G24KT 10SM BKN031 M01/M09 A3030 280 53 -1500 340/18G24 RMK AO2 SLP268 60000 T10061089 10000 21028 51057
14840KMKG MKG20060225125514502/25/06 12:55:31  5-MIN KMKG 251755Z 34018G25KT 10SM SCT031 00/M08 A3030 280 53 -1400 340/18G25 RMK AO2 SLP267 60000 T00001083 10000 21028 53030
14840KMKG MKG20060225130010402/25/06 13:00:31  5-MIN KMKG 251800Z 35017G25KT 10SM SCT033 00/M09 A3030 280 51 -1400 350/17G25 RMK AO2
14840KMKG MKG20060225130510402/25/06 13:05:31  5-MIN KMKG 251805Z 33016G21KT 10SM SCT033 00/M09 A3030 280 51 -1400 330/16G21 RMK AO2
14840KMKG MKG20060225131010502/25/06 13:10:31  5-MIN KMKG 251810Z 34021G24KT 10SM SCT035 M01/M09 A3030 280 51 -1500 340/21G24 RMK AO2
14840KMKG MKG20060225131512302/25/06 13:15:31  5-MIN KMKG 251815Z 34017G26KT 10SM SCT035 M01/M09 A3031 280 51 -1500 340/17G26 RMK AO2 PK WND 33026/1811
14840KMKG MKG20060225132012202/25/06 13:20:31  5-MIN KMKG 251820Z 34017G22KT 10SM SCT037 00/M09 A3031 270 51 -1400 340/17G22 RMK AO2 PK WND 33026/1811
14840KMKG MKG20060225132512302/25/06 13:25:31  5-MIN KMKG 251825Z 34017G22KT 10SM SCT037 M01/M09 A3031 270 51 -1500 340/17G22 RMK AO2 PK WND 33026/1811
14840KMKG MKG20060225133012202/25/06 13:30:31  5-MIN KMKG 251830Z 34017G23KT 10SM SCT037 00/M10 A3031 270 47 -1400 340/17G23 RMK AO2 PK WND 33026/1811
14840KMKG MKG20060225133512302/25/06 13:35:31  5-MIN KMKG 251835Z 34017G23KT 10SM SCT037 M01/M10 A3031 270 49 -1500 340/17G23 RMK AO2 PK WND 33026/1811
14840KMKG MKG20060225134011702/25/06 13:40:31  5-MIN KMKG 251840Z 34016KT 10SM SCT037 M01/M10 A3031 270 49 -1500 350/16 RMK AO2 PK WND 33026/1811
14840KMKG MKG20060225134511702/25/06 13:45:31  5-MIN KMKG 251845Z 35015KT 10SM SCT037 M01/M10 A3032 260 49 -1500 350/15 RMK AO2 PK WND 33026/1811
14840KMKG MKG20060225135014002/25/06 13:50:31  5-MIN KMKG 251850Z 33018G21KT 10SM SCT037 M01/M11 A3031 270 49 -1600 340/18G21 RMK AO2 PK WND 33026/1811 SLP272 T10111106
14840KMKG MKG20060225135514002/25/06 13:55:31  5-MIN KMKG 251855Z 33015G22KT 10SM SCT038 M01/M11 A3032 270 47 -1500 330/15G22 RMK AO2 PK WND 33026/1811 SLP273 T10061106
14840KMKG MKG20060225140010502/25/06 14:00:31  5-MIN KMKG 251900Z 32015G21KT 10SM FEW038 M01/M11 A3032 260 45 -1500 330/15G21 RMK AO2
14840KMKG MKG20060225140510502/25/06 14:05:31  5-MIN KMKG 251905Z 34016G21KT 10SM FEW038 M01/M11 A3032 260 45 -1500 340/16G21 RMK AO2
14840KMKG MKG20060225141010502/25/06 14:10:31  5-MIN KMKG 251910Z 33018G22KT 10SM FEW038 M01/M11 A3032 260 45 -1500 330/18G22 RMK AO2
14840KMKG MKG20060225141509902/25/06 14:15:31  5-MIN KMKG 251915Z 36018KT 10SM SCT040 M01/M12 A3033 250 43 -1500 360/18 RMK AO2
14840KMKG MKG20060225142010502/25/06 14:20:31  5-MIN KMKG 251920Z 34015G22KT 10SM SCT044 M01/M12 A3033 250 41 -1500 350/15G22 RMK AO2
14840KMKG MKG20060225142510402/25/06 14:25:31  5-MIN KMKG 251925Z 35014G21KT 10SM SCT044 00/M12 A3033 250 41 -1400 350/14G21 RMK AO2
14840KMKG MKG20060225143010502/25/06 14:30:31  5-MIN KMKG 251930Z 34018G23KT 10SM SCT044 M01/M12 A3033 250 41 -1500 350/18G23 RMK AO2
14840KMKG MKG20060225143510502/25/06 14:35:31  5-MIN KMKG 251935Z 35017G23KT 10SM SCT044 M01/M13 A3033 250 39 -1500 350/17G23 RMK AO2
14840KMKG MKG20060225144010502/25/06 14:40:31  5-MIN KMKG 251940Z 33019G23KT 10SM SCT044 M01/M13 A3033 250 39 -1500 340/19G23 RMK AO2
14840KMKG MKG20060225144509902/25/06 14:45:31  5-MIN KMKG 251945Z 35017KT 10SM SCT044 M01/M12 A3033 250 41 -1500 350/17 RMK AO2
14840KMKG MKG20060225145012202/25/06 14:50:31  5-MIN KMKG 251950Z 35017G22KT 10SM SCT044 M01/M12 A3035 240 41 -1500 350/17G22 RMK AO2 SLP283 T10061122
14840KMKG MKG20060225145512202/25/06 14:55:31  5-MIN KMKG 251955Z 35019G25KT 10SM SCT044 M01/M13 A3035 240 41 -1600 360/19G25 RMK AO2 SLP284 T10111128
14840KMKG MKG20060225150010502/25/06 15:00:31  5-MIN KMKG 252000Z 35019G25KT 10SM SCT044 M01/M12 A3035 240 43 -1600 350/19G25 RMK AO2
14840KMKG MKG20060225150512302/25/06 15:05:31  5-MIN KMKG 252005Z 33021G26KT 10SM SCT044 M01/M13 A3034 240 41 -1600 340/21G26 RMK AO2 PK WND 34026/2005
14840KMKG MKG20060225151012302/25/06 15:10:31  5-MIN KMKG 252010Z 34019G26KT 10SM SCT044 M01/M12 A3036 230 43 -1600 340/19G26 RMK AO2 PK WND 34026/2005
14840KMKG MKG20060225151512302/25/06 15:15:31  5-MIN KMKG 252015Z 35015G24KT 10SM SCT044 M01/M13 A3036 220 41 -1600 360/15G24 RMK AO2 PK WND 34026/2005
14840KMKG MKG20060225152012302/25/06 15:20:31  5-MIN KMKG 252020Z 33019G23KT 10SM SCT044 M01/M13 A3036 230 41 -1600 340/19G23 RMK AO2 PK WND 34026/2005
14840KMKG MKG20060225152512302/25/06 15:25:31  5-MIN KMKG 252025Z 33016G23KT 10SM SCT044 M01/M13 A3037 220 41 -1600 340/16G23 RMK AO2 PK WND 34026/2005
14840KMKG MKG20060225153012302/25/06 15:30:31  5-MIN KMKG 252030Z 35016G22KT 10SM SCT044 M01/M14 A3038 210 37 -1600 350/16G22 RMK AO2 PK WND 34026/2005
14840KMKG MKG20060225153512302/25/06 15:35:31  5-MIN KMKG 252035Z 36019G23KT 10SM SCT044 M01/M13 A3038 210 39 -1600 360/19G23 RMK AO2 PK WND 34026/2005
14840KMKG MKG20060225154012302/25/06 15:40:31  5-MIN KMKG 252040Z 33016G26KT 10SM SCT044 M01/M13 A3037 210 41 -1600 330/16G26 RMK AO2 PK WND 35026/2036
14840KMKG MKG20060225154512302/25/06 15:45:31  5-MIN KMKG 252045Z 34020G26KT 10SM SCT044 M02/M13 A3038 210 41 -1700 350/20G26 RMK AO2 PK WND 35026/2036
14840KMKG MKG20060225155014602/25/06 15:50:31  5-MIN KMKG 252050Z 33017G24KT 10SM SCT044 M02/M13 A3038 210 42 -1700 330/17G24 RMK AO2 PK WND 35026/2036 SLP295 T10171128 53030
14840KMKG MKG20060225155514602/25/06 15:55:31  5-MIN KMKG 252055Z 34018G24KT 10SM SCT044 M02/M13 A3038 200 42 -1700 350/18G24 RMK AO2 PK WND 35026/2036 SLP297 T10171128 53028
14840KMKG MKG20060225160010502/25/06 16:00:31  5-MIN KMKG 252100Z 35014G23KT 10SM SCT044 M02/M13 A3039 200 42 -1700 350/14G23 RMK AO2
14840KMKG MKG20060225160510502/25/06 16:05:31  5-MIN KMKG 252105Z 36015G23KT 10SM SCT044 M02/M13 A3039 200 42 -1700 360/15G23 RMK AO2
14840KMKG MKG20060225161010502/25/06 16:10:31  5-MIN KMKG 252110Z 34015G23KT 10SM SCT044 M02/M13 A3039 200 44 -1800 340/15G23 RMK AO2
14840KMKG MKG20060225161510502/25/06 16:15:31  5-MIN KMKG 252115Z 35018G21KT 10SM SCT044 M02/M13 A3040 190 44 -1800 360/18G21 RMK AO2
14840KMKG MKG20060225162010502/25/06 16:20:31  5-MIN KMKG 252120Z 36016G21KT 10SM SCT044 M02/M13 A3040 190 44 -1800 360/16G21 RMK AO2
14840KMKG MKG20060225162510502/25/06 16:25:31  5-MIN KMKG 252125Z 35016G21KT 10SM SCT044 M02/M13 A3040 190 42 -1700 360/16G21 RMK AO2
14840KMKG MKG20060225163009902/25/06 16:30:31  5-MIN KMKG 252130Z 34017KT 10SM SCT044 M02/M13 A3039 190 41 -1700 350/17 RMK AO2
14840KMKG MKG20060225163510502/25/06 16:35:31  5-MIN KMKG 252135Z 34014G21KT 10SM SCT044 M02/M13 A3040 190 41 -1700 340/14G21 RMK AO2
14840KMKG MKG20060225164010502/25/06 16:40:31  5-MIN KMKG 252140Z 33017G21KT 10SM SCT044 M02/M13 A3040 190 44 -1800 330/17G21 RMK AO2
14840KMKG MKG20060225164510502/25/06 16:45:31  5-MIN KMKG 252145Z 33014G21KT 10SM SCT044 M02/M13 A3040 190 44 -1800 330/14G21 RMK AO2
14840KMKG MKG20060225165012202/25/06 16:50:31  5-MIN KMKG 252150Z 32015G22KT 10SM SCT044 M02/M13 A3040 190 41 -1700 330/15G22 RMK AO2 SLP303 T10171133
14840KMKG MKG20060225165512202/25/06 16:55:31  5-MIN KMKG 252155Z 34016G22KT 10SM SCT044 M02/M13 A3041 180 42 -1700 340/16G22 RMK AO2 SLP305 T10171128
14840KMKG MKG20060225170010502/25/06 17:00:31  5-MIN KMKG 252200Z 32017G23KT 10SM BKN049 M02/M14 A3040 190 40 -1800 330/17G23 RMK AO2
14840KMKG MKG20060225170510502/25/06 17:05:31  5-MIN KMKG 252205Z 32015G24KT 10SM BKN049 M03/M14 A3040 190 40 -1900 330/15G24 RMK AO2
14840KMKG MKG20060225171010502/25/06 17:10:31  5-MIN KMKG 252210Z 33015G24KT 10SM SCT049 M03/M14 A3042 180 42 -1900 340/15G24 RMK AO2
14840KMKG MKG20060225171511202/25/06 17:15:31  5-MIN KMKG 252215Z 32015G21KT 10SM SCT049 SCT060 M03/M14 A3042 170 42 -1900 320/15G21 RMK AO2
14840KMKG MKG20060225172011202/25/06 17:20:31  5-MIN KMKG 252220Z 33015G21KT 10SM FEW049 BKN060 M03/M13 A3042 170 44 -1900 330/15G21 RMK AO2
14840KMKG MKG20060225172511902/25/06 17:25:31  5-MIN KMKG 252225Z 33016G20KT 10SM FEW036 SCT049 BKN060 M02/M12 A3042 170 46 -1800 330/16G20 RMK AO2
14840KMKG MKG20060225173011202/25/06 17:30:31  5-MIN KMKG 252230Z 33014G20KT 10SM FEW032 BKN055 M03/M11 A3042 170 57 -2000 330/14G20 RMK AO2
14840KMKG MKG20060225173511302/25/06 17:35:31  5-MIN KMKG 252235Z 34012KT 10SM FEW038 BKN050 BKN060 M03/M11 A3043 160 53 -1900 340/12 RMK AO2
14840KMKG MKG20060225174011902/25/06 17:40:31  5-MIN KMKG 252240Z 35014G18KT 10SM SCT042 BKN050 OVC060 M03/M11 A3043 160 53 -1900 360/14G18 RMK AO2
14840KMKG MKG20060225174511902/25/06 17:45:31  5-MIN KMKG 252245Z 34013G22KT 10SM SCT035 BKN045 OVC060 M03/M11 A3043 160 55 -1900 350/13G22 RMK AO2
14840KMKG MKG20060225175013602/25/06 17:50:31  5-MIN KMKG 252250Z 35012G22KT 10SM FEW035 BKN045 OVC060 M03/M11 A3043 160 55 -2000 350/12G22 RMK AO2 SLP314 T10331111
14840KMKG MKG20060225175513902/25/06 17:55:31  5-MIN KMKG 252255Z 35010KT 10SM -SN SCT039 BKN055 M03/M11 A3043 160 55 -2000 360/10 RMK AO2 SNB51 SLP315 P0000 T10331111
14840KMKG MKG20060225180012202/25/06 18:00:31  5-MIN KMKG 252300Z 35008KT 9SM -SN FEW039 SCT049 BKN060 M03/M12 A3044 160 53 -2000 360/08 RMK AO2 P0000
14840KMKG MKG20060225180512402/25/06 18:05:31  5-MIN KMKG 252305Z 34012KT 9SM FEW041 SCT047 BKN060 M03/M12 A3044 160 53 -2000 340/12 RMK AO2 SNE01 P0000
14840KMKG MKG20060225181011802/25/06 18:10:31  5-MIN KMKG 252310Z 34011KT 10SM FEW043 BKN060 M03/M12 A3044 160 50 -2000 340/11 RMK AO2 SNE01 P0000
14840KMKG MKG20060225181511802/25/06 18:15:31  5-MIN KMKG 252315Z 34012KT 10SM FEW044 BKN060 M03/M12 A3044 150 50 -2000 350/12 RMK AO2 SNE01 P0000
14840KMKG MKG20060225182011802/25/06 18:20:31  5-MIN KMKG 252320Z 34011KT 10SM FEW044 BKN060 M03/M12 A3044 150 50 -2000 350/11 RMK AO2 SNE01 P0000
14840KMKG MKG20060225182511802/25/06 18:25:31  5-MIN KMKG 252325Z 35012KT 10SM SCT048 BKN060 M03/M12 A3044 150 50 -2000 360/12 RMK AO2 SNE01 P0000
14840KMKG MKG20060225183011802/25/06 18:30:31  5-MIN KMKG 252330Z 34011KT 10SM FEW045 OVC060 M03/M12 A3044 150 50 -2000 350/11 RMK AO2 SNE01 P0000
14840KMKG MKG20060225183512502/25/06 18:35:31  5-MIN KMKG 252335Z 34010KT 10SM SCT045 BKN050 OVC065 M03/M12 A3044 150 50 -2000 340/10 RMK AO2 SNE01 P0000
14840KMKG MKG20060225184013302/25/06 18:40:31  5-MIN KMKG 252340Z 33013KT 10SM SCT047 OVC060 M03/M12 A3044 160 50 -2000 330/13 RMK AO2 SNE01 CIG 050 RWY 14 P0000
14840KMKG MKG20060225184513902/25/06 18:45:31  5-MIN KMKG 252345Z 33013G19KT 10SM SCT047 OVC060 M03/M12 A3044 150 50 -2000 340/13G19 RMK AO2 SNE01 CIG 050 RWY 14 P0000
14840KMKG MKG20060225185016502/25/06 18:50:31  5-MIN KMKG 252350Z 36011G19KT 10SM BKN049 OVC060 M03/M12 A3045 150 50 -2000 360/11G19 RMK AO2 SNE01 SLP320 P0000 60000 T10331122 10000 21033 53028
14840KMKG MKG20060225185515902/25/06 18:55:31  5-MIN KMKG 252355Z 35012KT 10SM SCT047 BKN060 M03/M12 A3044 150 50 -2000 360/12 RMK AO2 SNE01 SLP318 P0000 60000 T10331122 10000 21033 51020
14840KMKG MKG20060225190010602/25/06 19:00:31  5-MIN KMKG 260000Z 35009KT 10SM FEW047 BKN060 M03/M12 A3045 150 50 -2000 360/09 RMK AO2
14840KMKG MKG20060225190510602/25/06 19:05:31  5-MIN KMKG 260005Z 35009KT 10SM FEW047 SCT060 M03/M12 A3045 140 50 -2000 360/09 RMK AO2
14840KMKG MKG20060225191010602/25/06 19:10:31  5-MIN KMKG 260010Z 35010KT 10SM FEW047 SCT060 M03/M12 A3045 140 50 -2000 350/10 RMK AO2
14840KMKG MKG20060225191510602/25/06 19:15:31  5-MIN KMKG 260015Z 35009KT 10SM FEW049 SCT060 M03/M12 A3045 140 53 -2000 350/09 RMK AO2
14840KMKG MKG20060225192010602/25/06 19:20:31  5-MIN KMKG 260020Z 35006KT 10SM FEW049 SCT065 M04/M12 A3045 140 55 -2100 350/06 RMK AO2
14840KMKG MKG20060225192509902/25/06 19:25:31  5-MIN KMKG 260025Z 35007KT 10SM SCT065 M04/M12 A3046 140 55 -2100 350/07 RMK AO2
14840KMKG MKG20060225193010602/25/06 19:30:31  5-MIN KMKG 260030Z 34007KT 10SM SCT055 SCT070 M04/M12 A3046 140 55 -2100 350/07 RMK AO2
14840KMKG MKG20060225193510602/25/06 19:35:31  5-MIN KMKG 260035Z 35007KT 10SM FEW055 SCT070 M03/M12 A3046 140 53 -2000 350/07 RMK AO2
14840KMKG MKG20060225194009902/25/06 19:40:31  5-MIN KMKG 260040Z 34006KT 10SM SCT060 M04/M12 A3046 140 55 -2100 350/06 RMK AO2
14840KMKG MKG20060225194509902/25/06 19:45:31  5-MIN KMKG 260045Z 34007KT 10SM FEW055 M04/M12 A3046 140 55 -2100 350/07 RMK AO2
14840KMKG MKG20060225195011602/25/06 19:50:31  5-MIN KMKG 260050Z 34010KT 10SM SCT060 M04/M12 A3046 130 52 -2100 350/10 RMK AO2 SLP325 T10391122
14840KMKG MKG20060225195511602/25/06 19:55:31  5-MIN KMKG 260055Z 35008KT 10SM SCT060 M03/M12 A3046 130 50 -2000 360/08 RMK AO2 SLP325 T10331122
14840KMKG MKG20060225200010602/25/06 20:00:31  5-MIN KMKG 260100Z 35010KT 10SM FEW041 BKN060 M03/M12 A3046 130 50 -2000 350/10 RMK AO2
14840KMKG MKG20060225200510602/25/06 20:05:31  5-MIN KMKG 260105Z 35009KT 10SM FEW045 SCT060 M03/M12 A3046 130 50 -2000 360/09 RMK AO2
14840KMKG MKG20060225201010602/25/06 20:10:31  5-MIN KMKG 260110Z 36007KT 10SM FEW049 BKN065 M03/M12 A3047 130 50 -2000 010/07 RMK AO2
14840KMKG MKG20060225201509902/25/06 20:15:31  5-MIN KMKG 260115Z 35007KT 10SM BKN065 M03/M12 A3046 130 50 -2000 360/07 RMK AO2
14840KMKG MKG20060225202009902/25/06 20:20:31  5-MIN KMKG 260120Z 35007KT 10SM SCT060 M04/M12 A3046 130 55 -2100 350/07 RMK AO2
14840KMKG MKG20060225202510602/25/06 20:25:31  5-MIN KMKG 260125Z 35007KT 10SM FEW055 SCT070 M04/M12 A3046 130 55 -2100 350/07 RMK AO2
14840KMKG MKG20060225203010602/25/06 20:30:31  5-MIN KMKG 260130Z 34008KT 10SM FEW055 SCT070 M03/M12 A3046 130 50 -2000 340/08 RMK AO2
14840KMKG MKG20060225203510602/25/06 20:35:31  5-MIN KMKG 260135Z 34007KT 10SM FEW055 BKN070 M03/M12 A3046 130 50 -2000 340/07 RMK AO2
14840KMKG MKG20060225204009902/25/06 20:40:31  5-MIN KMKG 260140Z 34008KT 10SM BKN070 M03/M12 A3047 130 50 -2000 340/08 RMK AO2
14840KMKG MKG20060225204510602/25/06 20:45:31  5-MIN KMKG 260145Z 35012KT 10SM SCT055 BKN070 M03/M13 A3047 130 48 -2000 350/12 RMK AO2
14840KMKG MKG20060225205012902/25/06 20:50:31  5-MIN KMKG 260150Z 34013G17KT 10SM SCT050 OVC065 M03/M13 A3047 130 44 -1900 340/13G17 RMK AO2 SLP326 T10281133
14840KMKG MKG20060225205512302/25/06 20:55:31  5-MIN KMKG 260155Z 33011KT 10SM SCT050 OVC065 M03/M13 A3047 130 48 -2000 340/11 RMK AO2 SLP327 T10331128
14840KMKG MKG20060225210010602/25/06 21:00:31  5-MIN KMKG 260200Z 34011KT 10SM SCT050 OVC065 M03/M13 A3046 130 48 -2000 340/11 RMK AO2
14840KMKG MKG20060225210510602/25/06 21:05:31  5-MIN KMKG 260205Z 34009KT 10SM FEW048 BKN065 M03/M13 A3047 130 46 -2000 340/09 RMK AO2
14840KMKG MKG20060225211010602/25/06 21:10:31  5-MIN KMKG 260210Z 34009KT 10SM FEW048 BKN060 M03/M13 A3047 130 46 -2000 350/09 RMK AO2
14840KMKG MKG20060225211510602/25/06 21:15:31  5-MIN KMKG 260215Z 35011KT 10SM FEW048 SCT065 M04/M13 A3047 130 48 -2100 360/11 RMK AO2
14840KMKG MKG20060225212009902/25/06 21:20:31  5-MIN KMKG 260220Z 35009KT 10SM FEW048 M04/M14 A3047 130 46 -2100 360/09 RMK AO2
14840KMKG MKG20060225212509902/25/06 21:25:31  5-MIN KMKG 260225Z 36009KT 10SM FEW065 M04/M14 A3047 130 46 -2100 010/09 RMK AO2
14840KMKG MKG20060225213009602/25/06 21:30:31  5-MIN KMKG 260230Z 36007KT 10SM CLR M04/M13 A3047 120 48 -2100 010/07 RMK AO2
14840KMKG MKG20060225213509602/25/06 21:35:31  5-MIN KMKG 260235Z 36006KT 10SM CLR M04/M13 A3047 120 48 -2100 360/06 RMK AO2
14840KMKG MKG20060225214009602/25/06 21:40:31  5-MIN KMKG 260240Z 36008KT 10SM CLR M04/M13 A3047 120 48 -2100 360/08 RMK AO2
14840KMKG MKG20060225214509602/25/06 21:45:31  5-MIN KMKG 260245Z 35008KT 10SM CLR M04/M13 A3047 120 48 -2100 360/08 RMK AO2
14840KMKG MKG20060225215011902/25/06 21:50:31  5-MIN KMKG 260250Z 35008KT 10SM CLR M04/M13 A3048 120 48 -2100 360/08 RMK AO2 SLP329 T10391133 51020
14840KMKG MKG20060225215511902/25/06 21:55:31  5-MIN KMKG 260255Z 02007KT 10SM CLR M04/M13 A3048 120 48 -2100 020/07 RMK AO2 SLP331 T10391133 51011
14840KMKG MKG20060225220009902/25/06 22:00:31  5-MIN KMKG 260300Z 01008KT 10SM FEW060 M04/M13 A3048 120 50 -2100 010/08 RMK AO2
14840KMKG MKG20060225220509902/25/06 22:05:31  5-MIN KMKG 260305Z 36007KT 10SM SCT065 M04/M13 A3048 120 50 -2100 010/07 RMK AO2
14840KMKG MKG20060225221009902/25/06 22:10:31  5-MIN KMKG 260310Z 01007KT 10SM SCT065 M04/M13 A3048 120 50 -2100 010/07 RMK AO2
14840KMKG MKG20060225221510602/25/06 22:15:31  5-MIN KMKG 260315Z 35012KT 10SM FEW048 BKN060 M04/M13 A3048 120 48 -2100 360/12 RMK AO2
14840KMKG MKG20060225222010502/25/06 22:20:31  5-MIN KMKG 260320Z 35011G17KT 10SM BKN060 M04/M14 A3048 120 46 -2100 350/11G17 RMK AO2
14840KMKG MKG20060225222510502/25/06 22:25:31  5-MIN KMKG 260325Z 02008G17KT 10SM BKN060 M04/M13 A3048 110 48 -2100 020/08G17 RMK AO2
14840KMKG MKG20060225223010602/25/06 22:30:31  5-MIN KMKG 260330Z 02009KT 10SM SCT055 BKN065 M04/M14 A3048 110 46 -2100 020/09 RMK AO2
14840KMKG MKG20060225223509902/25/06 22:35:31  5-MIN KMKG 260335Z 01009KT 10SM BKN060 M04/M14 A3048 110 48 -2200 010/09 RMK AO2
14840KMKG MKG20060225224009902/25/06 22:40:31  5-MIN KMKG 260340Z 01008KT 10SM BKN060 M04/M14 A3048 110 48 -2200 010/08 RMK AO2
14840KMKG MKG20060225224509902/25/06 22:45:31  5-MIN KMKG 260345Z 01009KT 10SM BKN055 M04/M14 A3048 110 48 -2200 010/09 RMK AO2
14840KMKG MKG20060225225012302/25/06 22:50:31  5-MIN KMKG 260350Z 36011KT 10SM FEW045 BKN060 M04/M14 A3049 110 48 -2200 010/11 RMK AO2 SLP333 T10441139
14840KMKG MKG20060225225512302/25/06 22:55:31  5-MIN KMKG 260355Z 01008KT 10SM SCT049 BKN060 M04/M14 A3049 110 46 -2200 010/08 RMK AO2 SLP334 T10441144
14840KMKG MKG20060225230010602/25/06 23:00:31  5-MIN KMKG 260400Z 01009KT 10SM SCT049 BKN060 M04/M14 A3049 110 46 -2200 010/09 RMK AO2
14840KMKG MKG20060225230510602/25/06 23:05:31  5-MIN KMKG 260405Z 01008KT 10SM SCT049 BKN060 M04/M14 A3049 110 46 -2200 020/08 RMK AO2
14840KMKG MKG20060225231010602/25/06 23:10:31  5-MIN KMKG 260410Z 01011KT 10SM SCT049 BKN060 M04/M14 A3049 100 46 -2200 020/11 RMK AO2
14840KMKG MKG20060225231510602/25/06 23:15:31  5-MIN KMKG 260415Z 01009KT 10SM SCT049 SCT060 M05/M14 A3050 100 48 -2300 010/09 RMK AO2
14840KMKG MKG20060225232009902/25/06 23:20:31  5-MIN KMKG 260420Z 01009KT 10SM FEW049 M05/M14 A3050 100 48 -2300 010/09 RMK AO2
14840KMKG MKG20060225232509902/25/06 23:25:31  5-MIN KMKG 260425Z 01007KT 10SM FEW049 M05/M14 A3050 100 48 -2300 010/07 RMK AO2
14840KMKG MKG20060225233009902/25/06 23:30:31  5-MIN KMKG 260430Z 02009KT 10SM FEW049 M05/M14 A3050 100 48 -2300 020/09 RMK AO2
14840KMKG MKG20060225233509602/25/06 23:35:31  5-MIN KMKG 260435Z 01008KT 10SM CLR M05/M15 A3050 100 46 -2300 010/08 RMK AO2
14840KMKG MKG20060225234009602/25/06 23:40:31  5-MIN KMKG 260440Z 01011KT 10SM CLR M05/M15 A3050 100 46 -2300 010/11 RMK AO2
14840KMKG MKG20060225234509602/25/06 23:45:31  5-MIN KMKG 260445Z 36009KT 10SM CLR M05/M15 A3050 100 46 -2300 010/09 RMK AO2
14840KMKG MKG20060225235012902/25/06 23:50:31  5-MIN KMKG 260450Z 01007G15KT 10SM CLR M06/M15 A3050 100 48 -2300 010/07G15 RMK AO2 SLP340 T10561150 400441056
14840KMKG MKG20060225235512302/25/06 23:55:31  5-MIN KMKG 260455Z 01010KT 10SM CLR M05/M15 A3050 100 46 -2300 010/10 RMK AO2 SLP338 T10501150 400441056
14840KMKG MKG20060226000009502/26/06 00:00:32  5-MIN KMKG 260500Z 01008KT 10SM CLR M06/M15 A3050 90 48 -2300 010/08 RMK AO2
14840KMKG MKG20060226000509502/26/06 00:05:31  5-MIN KMKG 260505Z 01009KT 10SM CLR M06/M15 A3051 90 48 -2300 010/09 RMK AO2
14840KMKG MKG20060226001009502/26/06 00:10:31  5-MIN KMKG 260510Z 36009KT 10SM CLR M06/M14 A3050 90 50 -2300 010/09 RMK AO2
14840KMKG MKG20060226001509502/26/06 00:15:31  5-MIN KMKG 260515Z 36011KT 10SM CLR M06/M14 A3051 90 50 -2300 010/11 RMK AO2
14840KMKG MKG20060226002009502/26/06 00:20:31  5-MIN KMKG 260520Z 36009KT 10SM CLR M06/M14 A3050 90 50 -2300 010/09 RMK AO2
14840KMKG MKG20060226002509502/26/06 00:25:31  5-MIN KMKG 260525Z 36008KT 10SM CLR M06/M14 A3050 90 50 -2300 360/08 RMK AO2
14840KMKG MKG20060226003009502/26/06 00:30:31  5-MIN KMKG 260530Z 01008KT 10SM CLR M06/M14 A3050 90 50 -2300 010/08 RMK AO2
14840KMKG MKG20060226003509502/26/06 00:35:31  5-MIN KMKG 260535Z 01006KT 10SM CLR M06/M14 A3051 90 50 -2300 020/06 RMK AO2
14840KMKG MKG20060226004009502/26/06 00:40:31  5-MIN KMKG 260540Z 01008KT 10SM CLR M06/M14 A3051 90 52 -2400 010/08 RMK AO2
14840KMKG MKG20060226004509502/26/06 00:45:31  5-MIN KMKG 260545Z 01008KT 10SM CLR M06/M14 A3051 90 50 -2300 020/08 RMK AO2
14840KMKG MKG20060226005013002/26/06 00:50:31  5-MIN KMKG 260550Z 01009KT 10SM CLR M06/M14 A3051 90 50 -2300 010/09 RMK AO2 SLP340 T10561144 11028 21061 51011
14840KMKG MKG20060226005513002/26/06 00:55:31  5-MIN KMKG 260555Z 01010KT 10SM CLR M06/M14 A3051 90 50 -2300 010/10 RMK AO2 SLP340 T10561144 11028 21061 51010
14840KMKG MKG20060226010009502/26/06 01:00:31  5-MIN KMKG 260600Z 01010KT 10SM CLR M06/M14 A3051 90 52 -2400 010/10 RMK AO2
14840KMKG MKG20060226010509502/26/06 01:05:31  5-MIN KMKG 260605Z 01008KT 10SM CLR M06/M14 A3051 90 52 -2400 010/08 RMK AO2
14840KMKG MKG20060226011009502/26/06 01:10:31  5-MIN KMKG 260610Z 01008KT 10SM CLR M06/M14 A3051 90 52 -2400 010/08 RMK AO2
14840KMKG MKG20060226011509502/26/06 01:15:31  5-MIN KMKG 260615Z 01008KT 10SM CLR M06/M14 A3051 90 52 -2400 020/08 RMK AO2
14840KMKG MKG20060226012009502/26/06 01:20:31  5-MIN KMKG 260620Z 01007KT 10SM CLR M06/M14 A3051 90 52 -2400 010/07 RMK AO2
14840KMKG MKG20060226012509502/26/06 01:25:31  5-MIN KMKG 260625Z 01008KT 10SM CLR M06/M14 A3051 90 52 -2400 010/08 RMK AO2
14840KMKG MKG20060226013009502/26/06 01:30:31  5-MIN KMKG 260630Z 02007KT 10SM CLR M07/M14 A3051 90 54 -2500 020/07 RMK AO2
14840KMKG MKG20060226013509502/26/06 01:35:31  5-MIN KMKG 260635Z 01008KT 10SM CLR M06/M14 A3051 90 52 -2400 010/08 RMK AO2
14840KMKG MKG20060226014009502/26/06 01:40:31  5-MIN KMKG 260640Z 36008KT 10SM CLR M06/M14 A3051 80 52 -2400 010/08 RMK AO2
14840KMKG MKG20060226014510102/26/06 01:45:31  5-MIN KMKG 260645Z 01009G14KT 10SM CLR M06/M14 A3052 80 52 -2400 010/09G14 RMK AO2
14840KMKG MKG20060226015011202/26/06 01:50:31  5-MIN KMKG 260650Z 01008KT 10SM CLR M07/M14 A3052 80 54 -2500 010/08 RMK AO2 SLP344 T10671144
14840KMKG MKG20060226015511202/26/06 01:55:31  5-MIN KMKG 260655Z 01009KT 10SM CLR M07/M14 A3052 80 54 -2500 010/09 RMK AO2 SLP345 T10671144
14840KMKG MKG20060226020009502/26/06 02:00:31  5-MIN KMKG 260700Z 01008KT 10SM CLR M07/M14 A3052 80 57 -2500 010/08 RMK AO2
14840KMKG MKG20060226020509502/26/06 02:05:31  5-MIN KMKG 260705Z 01008KT 10SM CLR M07/M14 A3052 80 57 -2500 010/08 RMK AO2
14840KMKG MKG20060226021009502/26/06 02:10:31  5-MIN KMKG 260710Z 01007KT 10SM CLR M07/M14 A3052 80 57 -2500 020/07 RMK AO2
14840KMKG MKG20060226021509502/26/06 02:15:31  5-MIN KMKG 260715Z 01008KT 10SM CLR M07/M14 A3052 80 57 -2500 010/08 RMK AO2
14840KMKG MKG20060226022009502/26/06 02:20:31  5-MIN KMKG 260720Z 01008KT 10SM CLR M07/M14 A3052 80 57 -2500 010/08 RMK AO2
14840KMKG MKG20060226022509502/26/06 02:25:31  5-MIN KMKG 260725Z 02007KT 10SM CLR M07/M14 A3052 80 57 -2500 020/07 RMK AO2
14840KMKG MKG20060226023009502/26/06 02:30:31  5-MIN KMKG 260730Z 02007KT 10SM CLR M07/M14 A3052 80 57 -2500 020/07 RMK AO2
14840KMKG MKG20060226023509502/26/06 02:35:31  5-MIN KMKG 260735Z 01006KT 10SM CLR M07/M14 A3052 80 59 -2600 010/06 RMK AO2
14840KMKG MKG20060226024009502/26/06 02:40:31  5-MIN KMKG 260740Z 02006KT 10SM CLR M07/M14 A3052 80 59 -2600 020/06 RMK AO2
14840KMKG MKG20060226024509502/26/06 02:45:31  5-MIN KMKG 260745Z 01007KT 10SM CLR M07/M14 A3052 80 59 -2600 020/07 RMK AO2
14840KMKG MKG20060226025011502/26/06 02:50:31  5-MIN KMKG 260750Z 02007KT 10SM FEW043 M07/M14 A3052 80 59 -2600 020/07 RMK AO2 SLP345 T10721139
14840KMKG MKG20060226025511502/26/06 02:55:31  5-MIN KMKG 260755Z 01006KT 10SM FEW043 M07/M14 A3052 80 59 -2600 010/06 RMK AO2 SLP345 T10721139
14840KMKG MKG20060226030009502/26/06 03:00:31  5-MIN KMKG 260800Z 01010KT 10SM CLR M07/M14 A3052 80 59 -2600 010/10 RMK AO2
14840KMKG MKG20060226030509502/26/06 03:05:31  5-MIN KMKG 260805Z 01007KT 10SM CLR M07/M14 A3052 80 59 -2600 010/07 RMK AO2
14840KMKG MKG20060226031009802/26/06 03:10:31  5-MIN KMKG 260810Z 02008KT 10SM FEW042 M07/M14 A3052 80 59 -2600 020/08 RMK AO2
14840KMKG MKG20060226031509802/26/06 03:15:31  5-MIN KMKG 260815Z 01009KT 10SM SCT042 M07/M14 A3052 80 59 -2600 010/09 RMK AO2
14840KMKG MKG20060226032009802/26/06 03:20:31  5-MIN KMKG 260820Z 01007KT 10SM SCT042 M07/M14 A3052 80 59 -2600 020/07 RMK AO2
14840KMKG MKG20060226032509802/26/06 03:25:31  5-MIN KMKG 260825Z 01007KT 10SM FEW042 M07/M14 A3051 90 59 -2600 020/07 RMK AO2
14840KMKG MKG20060226033009802/26/06 03:30:31  5-MIN KMKG 260830Z 01008KT 10SM FEW030 M08/M14 A3051 90 62 -2600 020/08 RMK AO2
14840KMKG MKG20060226033510502/26/06 03:35:31  5-MIN KMKG 260835Z 01007KT 10SM SCT028 SCT042 M08/M14 A3051 90 62 -2600 020/07 RMK AO2
14840KMKG MKG20060226034010502/26/06 03:40:31  5-MIN KMKG 260840Z 01006KT 10SM SCT028 SCT042 M08/M14 A3051 90 62 -2600 020/06 RMK AO2
14840KMKG MKG20060226034509802/26/06 03:45:31  5-MIN KMKG 260845Z 01007KT 10SM FEW028 M08/M14 A3051 90 62 -2600 020/07 RMK AO2
14840KMKG MKG20060226035012102/26/06 03:50:31  5-MIN KMKG 260850Z 01006KT 10SM FEW028 M08/M14 A3051 90 62 -2600 020/06 RMK AO2 SLP341 T10781139 51010
14840KMKG MKG20060226035512102/26/06 03:55:31  5-MIN KMKG 260855Z 01007KT 10SM FEW028 M08/M14 A3051 90 62 -2600 020/07 RMK AO2 SLP340 T10781139 58001
14840KMKG MKG20060226040009802/26/06 04:00:31  5-MIN KMKG 260900Z 02006KT 10SM FEW028 M08/M14 A3051 90 62 -2600 020/06 RMK AO2
14840KMKG MKG20060226040509802/26/06 04:05:31  5-MIN KMKG 260905Z 02006KT 10SM FEW028 M08/M14 A3051 90 62 -2600 020/06 RMK AO2
14840KMKG MKG20060226041009802/26/06 04:10:31  5-MIN KMKG 260910Z 02006KT 10SM SCT032 M08/M14 A3051 90 64 -2700 020/06 RMK AO2
14840KMKG MKG20060226041509802/26/06 04:15:31  5-MIN KMKG 260915Z 01006KT 10SM SCT030 M08/M14 A3051 90 59 -2600 010/06 RMK AO2
14840KMKG MKG20060226042009802/26/06 04:20:31  5-MIN KMKG 260920Z 01004KT 10SM SCT030 M08/M14 A3051 90 64 -2700 020/04 RMK AO2
14840KMKG MKG20060226042509802/26/06 04:25:31  5-MIN KMKG 260925Z 02005KT 10SM FEW030 M08/M14 A3051 90 64 -2700 020/05 RMK AO2
14840KMKG MKG20060226043009802/26/06 04:30:31  5-MIN KMKG 260930Z 01005KT 10SM FEW032 M08/M14 A3051 90 64 -2700 010/05 RMK AO2
14840KMKG MKG20060226043509802/26/06 04:35:31  5-MIN KMKG 260935Z 01005KT 10SM FEW032 M08/M14 A3051 90 62 -2700 020/05 RMK AO2
14840KMKG MKG20060226044009502/26/06 04:40:31  5-MIN KMKG 260940Z 02004KT 10SM CLR M08/M14 A3051 90 64 -2700 020/04 RMK AO2
14840KMKG MKG20060226044509502/26/06 04:45:31  5-MIN KMKG 260945Z 02005KT 10SM CLR M08/M14 A3050 90 62 -2700 020/05 RMK AO2
14840KMKG MKG20060226045011202/26/06 04:50:31  5-MIN KMKG 260950Z 01004KT 10SM CLR M08/M14 A3050 90 62 -2700 020/04 RMK AO2 SLP340 T10831144
14840KMKG MKG20060226045511202/26/06 04:55:31  5-MIN KMKG 260955Z 01004KT 10SM CLR M08/M14 A3050 90 62 -2700 020/04 RMK AO2 SLP340 T10831144
14840KMKG MKG20060226050009602/26/06 05:00:31  5-MIN KMKG 261000Z 02003KT 10SM CLR M08/M14 A3050 100 62 -2700 020/03 RMK AO2
14840KMKG MKG20060226050509602/26/06 05:05:31  5-MIN KMKG 261005Z 01003KT 10SM CLR M08/M14 A3050 100 62 -2700 010/03 RMK AO2
14840KMKG MKG20060226051009502/26/06 05:10:31  5-MIN KMKG 261010Z 01003KT 10SM CLR M08/M14 A3050 90 62 -2700 010/03 RMK AO2
14840KMKG MKG20060226051509502/26/06 05:15:31  5-MIN KMKG 261015Z 01003KT 10SM CLR M09/M14 A3050 90 64 -2800 020/03 RMK AO2
14840KMKG MKG20060226052009602/26/06 05:20:31  5-MIN KMKG 261020Z 01003KT 10SM CLR M09/M14 A3050 100 64 -2800 010/03 RMK AO2
14840KMKG MKG20060226052509602/26/06 05:25:31  5-MIN KMKG 261025Z 36003KT 10SM CLR M08/M14 A3050 100 62 -2700 010/03 RMK AO2
14840KMKG MKG20060226053009602/26/06 05:30:31  5-MIN KMKG 261030Z 36003KT 10SM CLR M09/M14 A3050 100 64 -2800 010/03 RMK AO2
14840KMKG MKG20060226053509602/26/06 05:35:31  5-MIN KMKG 261035Z 01003KT 10SM CLR M09/M14 A3050 100 64 -2800 010/03 RMK AO2
14840KMKG MKG20060226054009602/26/06 05:40:31  5-MIN KMKG 261040Z 01003KT 10SM CLR M08/M14 A3050 100 62 -2700 010/03 RMK AO2
14840KMKG MKG20060226054509602/26/06 05:45:31  5-MIN KMKG 261045Z 02003KT 10SM CLR M08/M14 A3050 100 62 -2700 020/03 RMK AO2
14840KMKG MKG20060226055011302/26/06 05:50:31  5-MIN KMKG 261050Z 02003KT 10SM CLR M08/M14 A3050 100 62 -2700 020/03 RMK AO2 SLP340 T10831144
14840KMKG MKG20060226055511202/26/06 05:55:31  5-MIN KMKG 261055Z 02003KT 10SM CLR M08/M14 A3050 90 62 -2700 030/03 RMK AO2 SLP341 T10831144
14840KMKG MKG20060226060009502/26/06 06:00:31  5-MIN KMKG 261100Z 00000KT 10SM CLR M08/M14 A3051 90 62 -2700 000/00 RMK AO2
14840KMKG MKG20060226060509502/26/06 06:05:31  5-MIN KMKG 261105Z 00000KT 10SM CLR M10/M14 A3051 90 73 -2900 000/00 RMK AO2
14840KMKG MKG20060226061009502/26/06 06:10:31  5-MIN KMKG 261110Z 00000KT 10SM CLR M11/M14 A3051 90 77 -3000 000/00 RMK AO2
14840KMKG MKG20060226061509502/26/06 06:15:31  5-MIN KMKG 261115Z 00000KT 10SM CLR M11/M14 A3051 90 77 -3100 000/00 RMK AO2
14840KMKG MKG20060226062009502/26/06 06:20:31  5-MIN KMKG 261120Z 00000KT 10SM CLR M11/M14 A3051 90 77 -3100 000/00 RMK AO2
14840KMKG MKG20060226062509502/26/06 06:25:31  5-MIN KMKG 261125Z 00000KT 10SM CLR M11/M14 A3051 90 73 -3000 000/00 RMK AO2
14840KMKG MKG20060226063009502/26/06 06:30:31  5-MIN KMKG 261130Z 00000KT 10SM CLR M11/M14 A3051 90 73 -3000 000/00 RMK AO2
14840KMKG MKG20060226063509502/26/06 06:35:31  5-MIN KMKG 261135Z 00000KT 10SM CLR M11/M14 A3051 90 77 -3100 000/00 RMK AO2
14840KMKG MKG20060226064009502/26/06 06:40:31  5-MIN KMKG 261140Z 00000KT 10SM CLR M11/M14 A3052 80 77 -3100 000/00 RMK AO2
14840KMKG MKG20060226064509502/26/06 06:45:31  5-MIN KMKG 261145Z 00000KT 10SM CLR M11/M14 A3052 80 77 -3100 000/00 RMK AO2
14840KMKG MKG20060226065013002/26/06 06:50:31  5-MIN KMKG 261150Z 11003KT 10SM CLR M11/M14 A3052 80 77 -3100 110/03 RMK AO2 SLP346 T11111144 11056 21111 58001
14840KMKG MKG20060226065513002/26/06 06:55:31  5-MIN KMKG 261155Z 11003KT 10SM CLR M11/M14 A3052 80 77 -3100 110/03 RMK AO2 SLP346 T11111144 11056 21111 53004
14840KMKG MKG20060226070009502/26/06 07:00:31  5-MIN KMKG 261200Z 00000KT 10SM CLR M11/M14 A3052 80 77 -3100 000/00 RMK AO2
14840KMKG MKG20060226070509502/26/06 07:05:31  5-MIN KMKG 261205Z 00000KT 10SM CLR M12/M14 A3052 80 80 -3200 000/00 RMK AO2
14840KMKG MKG20060226071009502/26/06 07:10:31  5-MIN KMKG 261210Z 00000KT 10SM CLR M11/M14 A3052 80 80 -3100 000/00 RMK AO2
14840KMKG MKG20060226071509502/26/06 07:15:31  5-MIN KMKG 261215Z 00000KT 10SM CLR M11/M14 A3052 80 80 -3100 000/00 RMK AO2
14840KMKG MKG20060226072009502/26/06 07:20:31  5-MIN KMKG 261220Z 00000KT 10SM CLR M11/M14 A3052 80 80 -3100 000/00 RMK AO2
14840KMKG MKG20060226072509502/26/06 07:25:31  5-MIN KMKG 261225Z 00000KT 10SM CLR M11/M14 A3052 80 80 -3100 000/00 RMK AO2
14840KMKG MKG20060226073009802/26/06 07:30:31  5-MIN KMKG 261230Z 00000KT 10SM FEW038 M11/M14 A3052 80 77 -3100 000/00 RMK AO2
14840KMKG MKG20060226073509802/26/06 07:35:31  5-MIN KMKG 261235Z 00000KT 10SM FEW038 M11/M14 A3052 80 77 -3100 000/00 RMK AO2
14840KMKG MKG20060226074009802/26/06 07:40:31  5-MIN KMKG 261240Z 00000KT 10SM SCT038 M11/M14 A3052 80 80 -3100 000/00 RMK AO2
14840KMKG MKG20060226074509802/26/06 07:45:31  5-MIN KMKG 261245Z 00000KT 10SM SCT038 M11/M14 A3052 80 80 -3100 000/00 RMK AO2
14840KMKG MKG20060226075011502/26/06 07:50:31  5-MIN KMKG 261250Z 00000KT 10SM SCT038 M11/M14 A3052 80 80 -3100 000/00 RMK AO2 SLP347 T11111139
14840KMKG MKG20060226075511502/26/06 07:55:31  5-MIN KMKG 261255Z 00000KT 10SM FEW038 M11/M14 A3052 80 80 -3100 000/00 RMK AO2 SLP347 T11111139
14840KMKG MKG20060226080009802/26/06 08:00:31  5-MIN KMKG 261300Z 00000KT 10SM SCT038 M11/M13 A3052 80 80 -3000 000/00 RMK AO2
14840KMKG MKG20060226080510502/26/06 08:05:31  5-MIN KMKG 261305Z 00000KT 10SM FEW031 SCT038 M11/M13 A3052 80 84 -3000 000/00 RMK AO2
14840KMKG MKG20060226081010502/26/06 08:10:31  5-MIN KMKG 261310Z 00000KT 10SM FEW031 SCT038 M10/M13 A3052 80 80 -2900 000/00 RMK AO2
14840KMKG MKG20060226081510502/26/06 08:15:31  5-MIN KMKG 261315Z 00000KT 10SM FEW031 BKN038 M09/M13 A3052 80 77 -2900 000/00 RMK AO2
14840KMKG MKG20060226082010502/26/06 08:20:31  5-MIN KMKG 261320Z 00000KT 10SM FEW031 SCT038 M09/M13 A3052 80 77 -2900 000/00 RMK AO2
14840KMKG MKG20060226082510502/26/06 08:25:31  5-MIN KMKG 261325Z 00000KT 10SM FEW031 BKN038 M09/M13 A3052 80 77 -2900 000/00 RMK AO2
14840KMKG MKG20060226083010502/26/06 08:30:31  5-MIN KMKG 261330Z 00000KT 10SM FEW029 BKN038 M09/M12 A3052 80 77 -2800 000/00 RMK AO2
14840KMKG MKG20060226083510502/26/06 08:35:31  5-MIN KMKG 261335Z 00000KT 10SM FEW029 BKN038 M08/M12 A3052 80 74 -2700 000/00 RMK AO2
14840KMKG MKG20060226084010502/26/06 08:40:31  5-MIN KMKG 261340Z 14003KT 10SM FEW031 BKN040 M08/M12 A3052 80 74 -2700 140/03 RMK AO2
14840KMKG MKG20060226084510502/26/06 08:45:31  5-MIN KMKG 261345Z 15003KT 10SM FEW033 BKN040 M08/M12 A3052 80 71 -2700 150/03 RMK AO2
14840KMKG MKG20060226085012202/26/06 08:50:31  5-MIN KMKG 261350Z 16003KT 10SM FEW030 OVC040 M08/M13 A3053 80 67 -2700 160/03 RMK AO2 SLP347 T10781128
14840KMKG MKG20060226085512202/26/06 08:55:31  5-MIN KMKG 261355Z 00000KT 10SM FEW030 OVC040 M07/M13 A3053 70 65 -2600 000/00 RMK AO2 SLP348 T10721128
14840KMKG MKG20060226090010502/26/06 09:00:31  5-MIN KMKG 261400Z 00000KT 10SM FEW030 BKN040 M07/M13 A3053 70 62 -2600 000/00 RMK AO2
14840KMKG MKG20060226090510502/26/06 09:05:31  5-MIN KMKG 261405Z 00000KT 10SM FEW030 BKN040 M07/M13 A3053 70 62 -2600 000/00 RMK AO2
14840KMKG MKG20060226091010502/26/06 09:10:31  5-MIN KMKG 261410Z 11003KT 10SM FEW030 BKN040 M07/M13 A3053 70 62 -2600 110/03 RMK AO2
14840KMKG MKG20060226091510502/26/06 09:15:31  5-MIN KMKG 261415Z 00000KT 10SM FEW030 BKN040 M07/M13 A3053 70 59 -2500 000/00 RMK AO2
14840KMKG MKG20060226092010502/26/06 09:20:31  5-MIN KMKG 261420Z 00000KT 10SM FEW030 BKN040 M07/M13 A3053 70 59 -2500 000/00 RMK AO2
14840KMKG MKG20060226092510502/26/06 09:25:31  5-MIN KMKG 261425Z 00000KT 10SM FEW030 BKN040 M07/M13 A3053 70 59 -2500 000/00 RMK AO2
14840KMKG MKG20060226093010502/26/06 09:30:31  5-MIN KMKG 261430Z 00000KT 10SM FEW030 BKN040 M06/M13 A3053 70 57 -2400 000/00 RMK AO2
14840KMKG MKG20060226093510502/26/06 09:35:31  5-MIN KMKG 261435Z VRB04KT 10SM FEW030 BKN040 M06/M13 A3053 70 59 -2400 VRB/04 RMK AO2
14840KMKG MKG20060226094010502/26/06 09:40:31  5-MIN KMKG 261440Z VRB04KT 10SM FEW030 SCT038 M06/M13 A3053 70 54 -2400 VRB/04 RMK AO2
14840KMKG MKG20060226094510502/26/06 09:45:31  5-MIN KMKG 261445Z 00000KT 10SM FEW030 SCT038 M06/M14 A3053 80 52 -2400 000/00 RMK AO2
14840KMKG MKG20060226095012802/26/06 09:50:31  5-MIN KMKG 261450Z VRB03KT 10SM FEW030 BKN040 M06/M14 A3052 80 52 -2400 VRB/03 RMK AO2 SLP347 T10561139 53004
14840KMKG MKG20060226095512802/26/06 09:55:31  5-MIN KMKG 261455Z 31003KT 10SM FEW030 BKN043 M05/M13 A3052 80 52 -2300 310/03 RMK AO2 SLP346 T10501133 50002
14840KMKG MKG20060226100009802/26/06 10:00:31  5-MIN KMKG 261500Z 00000KT 10SM BKN043 M06/M13 A3052 80 54 -2400 000/00 RMK AO2
14840KMKG MKG20060226100509802/26/06 10:05:31  5-MIN KMKG 261505Z VRB03KT 10SM BKN043 M05/M13 A3052 80 52 -2300 VRB/03 RMK AO2
14840KMKG MKG20060226101009802/26/06 10:10:31  5-MIN KMKG 261510Z 23003KT 10SM BKN043 M06/M14 A3052 80 54 -2400 230/03 RMK AO2
14840KMKG MKG20060226101509802/26/06 10:15:31  5-MIN KMKG 261515Z 32004KT 10SM OVC043 M06/M14 A3052 80 52 -2400 320/04 RMK AO2
14840KMKG MKG20060226102009802/26/06 10:20:31  5-MIN KMKG 261520Z 00000KT 10SM OVC043 M06/M14 A3052 80 52 -2400 000/00 RMK AO2
14840KMKG MKG20060226102509802/26/06 10:25:31  5-MIN KMKG 261525Z VRB03KT 10SM BKN043 M06/M13 A3051 90 54 -2400 VRB/03 RMK AO2
14840KMKG MKG20060226103009802/26/06 10:30:31  5-MIN KMKG 261530Z 28004KT 10SM BKN043 M05/M13 A3051 90 52 -2300 280/04 RMK AO2
14840KMKG MKG20060226103509802/26/06 10:35:31  5-MIN KMKG 261535Z 25004KT 10SM BKN043 M05/M13 A3051 90 52 -2300 250/04 RMK AO2
14840KMKG MKG20060226104009802/26/06 10:40:31  5-MIN KMKG 261540Z VRB05KT 10SM BKN043 M04/M13 A3051 90 50 -2200 VRB/05 RMK AO2
14840KMKG MKG20060226104510502/26/06 10:45:31  5-MIN KMKG 261545Z VRB04KT 10SM SCT031 BKN043 M04/M13 A3051 90 50 -2200 VRB/04 RMK AO2
14840KMKG MKG20060226105012202/26/06 10:50:31  5-MIN KMKG 261550Z VRB03KT 10SM SCT031 BKN043 M04/M13 A3050 90 50 -2200 VRB/03 RMK AO2 SLP340 T10441133
14840KMKG MKG20060226105512302/26/06 10:55:31  5-MIN KMKG 261555Z 00000KT 10SM SCT031 BKN043 M04/M13 A3050 100 48 -2100 000/00 RMK AO2 SLP339 T10391133
14840KMKG MKG20060226110010602/26/06 11:00:31  5-MIN KMKG 261600Z VRB05KT 10SM FEW029 BKN040 M04/M13 A3050 100 48 -2100 VRB/05 RMK AO2
14840KMKG MKG20060226110509902/26/06 11:05:31  5-MIN KMKG 261605Z 32005KT 10SM BKN038 M05/M14 A3050 100 50 -2300 330/05 RMK AO2
14840KMKG MKG20060226111009902/26/06 11:10:31  5-MIN KMKG 261610Z 29007KT 10SM BKN038 M04/M13 A3049 100 50 -2200 290/07 RMK AO2
14840KMKG MKG20060226111509902/26/06 11:15:31  5-MIN KMKG 261615Z 28010KT 10SM BKN040 M04/M13 A3049 110 50 -2200 280/10 RMK AO2
14840KMKG MKG20060226112009902/26/06 11:20:31  5-MIN KMKG 261620Z 28008KT 10SM SCT038 M04/M13 A3049 110 48 -2100 280/08 RMK AO2
14840KMKG MKG20060226112509902/26/06 11:25:31  5-MIN KMKG 261625Z VRB05KT 10SM BKN040 M04/M13 A3049 110 50 -2200 VRB/05 RMK AO2
14840KMKG MKG20060226113009902/26/06 11:30:31  5-MIN KMKG 261630Z 28007KT 10SM BKN040 M04/M13 A3048 110 50 -2100 290/07 RMK AO2
14840KMKG MKG20060226113509902/26/06 11:35:31  5-MIN KMKG 261635Z 25007KT 10SM BKN040 M04/M13 A3048 120 48 -2100 260/07 RMK AO2
14840KMKG MKG20060226114009902/26/06 11:40:31  5-MIN KMKG 261640Z 26008KT 10SM SCT038 M04/M13 A3048 120 50 -2100 270/08 RMK AO2
14840KMKG MKG20060226114509902/26/06 11:45:31  5-MIN KMKG 261645Z 30009KT 10SM SCT038 M04/M13 A3048 120 50 -2100 300/09 RMK AO2
14840KMKG MKG20060226115011602/26/06 11:50:31  5-MIN KMKG 261650Z VRB05KT 10SM SCT038 M04/M13 A3048 120 50 -2100 VRB/05 RMK AO2 SLP330 T10391128
14840KMKG MKG20060226115511602/26/06 11:55:31  5-MIN KMKG 261655Z 25007KT 10SM FEW040 M04/M13 A3047 120 50 -2100 260/07 RMK AO2 SLP329 T10391128
14840KMKG MKG20060226120009602/26/06 12:00:31  5-MIN KMKG 261700Z 25009KT 10SM CLR M04/M13 A3047 120 50 -2100 250/09 RMK AO2
14840KMKG MKG20060226120509602/26/06 12:05:31  5-MIN KMKG 261705Z 26007KT 10SM CLR M04/M13 A3047 120 50 -2100 270/07 RMK AO2
14840KMKG MKG20060226121009902/26/06 12:10:31  5-MIN KMKG 261710Z 27010KT 10SM SCT040 M03/M12 A3047 120 50 -2000 270/10 RMK AO2
14840KMKG MKG20060226121509902/26/06 12:15:31  5-MIN KMKG 261715Z 25008KT 10SM SCT040 M04/M13 A3047 130 50 -2100 260/08 RMK AO2
14840KMKG MKG20060226122009902/26/06 12:20:31  5-MIN KMKG 261720Z 26006KT 10SM SCT040 M04/M12 A3047 130 52 -2100 270/06 RMK AO2
14840KMKG MKG20060226122509902/26/06 12:25:31  5-MIN KMKG 261725Z 25011KT 10SM SCT040 M04/M12 A3047 130 52 -2100 250/11 RMK AO2
14840KMKG MKG20060226123009902/26/06 12:30:31  5-MIN KMKG 261730Z 29005KT 10SM BKN035 M04/M13 A3046 130 50 -2100 290/05 RMK AO2
14840KMKG MKG20060226123509902/26/06 12:35:31  5-MIN KMKG 261735Z 26007KT 10SM BKN035 M04/M12 A3046 130 52 -2100 260/07 RMK AO2
14840KMKG MKG20060226124009902/26/06 12:40:31  5-MIN KMKG 261740Z 25008KT 10SM BKN035 M03/M12 A3046 130 53 -2000 260/08 RMK AO2
14840KMKG MKG20060226124511502/26/06 12:45:31  5-MIN KMKG 261745Z 27007KT 220V290 10SM BKN040 M03/M12 A3046 140 50 -2000 270/07 220V290 RMK AO2
14840KMKG MKG20060226125013402/26/06 12:50:31  5-MIN KMKG 261750Z VRB06KT 10SM BKN040 M03/M12 A3045 140 50 -2000 VRB/06 RMK AO2 SLP323 T10331122 11028 21117 50002
14840KMKG MKG20060226125513402/26/06 12:55:31  5-MIN KMKG 261755Z 26008KT 10SM BKN040 M03/M12 A3045 140 50 -1900 260/08 RMK AO2 SLP322 T10281117 11028 21117 56024
14840KMKG MKG20060226130009902/26/06 13:00:31  5-MIN KMKG 261800Z 24010KT 10SM SCT040 M03/M12 A3045 140 50 -2000 250/10 RMK AO2
14840KMKG MKG20060226130510502/26/06 13:05:31  5-MIN KMKG 261805Z 25010G15KT 10SM BKN040 M03/M12 A3045 150 53 -2000 260/10G15 RMK AO2
14840KMKG MKG20060226131009902/26/06 13:10:31  5-MIN KMKG 261810Z 26009KT 10SM BKN040 M03/M13 A3044 150 48 -2000 260/09 RMK AO2
14840KMKG MKG20060226131510502/26/06 13:15:31  5-MIN KMKG 261815Z 27011G16KT 10SM BKN040 M02/M13 A3044 150 44 -1800 280/11G16 RMK AO2
14840KMKG MKG20060226132010502/26/06 13:20:31  5-MIN KMKG 261820Z 28010G16KT 10SM SCT040 M03/M14 A3044 150 42 -1900 290/10G16 RMK AO2
14840KMKG MKG20060226132510502/26/06 13:25:31  5-MIN KMKG 261825Z 28008G16KT 10SM SCT040 M03/M14 A3044 160 42 -2000 280/08G16 RMK AO2
14840KMKG MKG20060226133012102/26/06 13:30:31  5-MIN KMKG 261830Z 29013G16KT 240V320 10SM SCT040 M03/M14 A3043 160 42 -1900 290/13G16 240V320 RMK AO2
14840KMKG MKG20060226133510502/26/06 13:35:31  5-MIN KMKG 261835Z 29015G19KT 10SM SCT042 M03/M15 A3043 160 39 -1900 300/15G19 RMK AO2
14840KMKG MKG20060226134010502/26/06 13:40:31  5-MIN KMKG 261840Z 29011G19KT 10SM FEW042 M03/M15 A3043 160 40 -2000 300/11G19 RMK AO2
14840KMKG MKG20060226134509902/26/06 13:45:31  5-MIN KMKG 261845Z 30010KT 10SM FEW044 M03/M14 A3042 170 40 -1900 310/10 RMK AO2
14840KMKG MKG20060226135011602/26/06 13:50:31  5-MIN KMKG 261850Z 28012KT 10SM FEW044 M03/M15 A3042 170 39 -1900 280/12 RMK AO2 SLP312 T10281150
14840KMKG MKG20060226135511602/26/06 13:55:31  5-MIN KMKG 261855Z 28009KT 10SM FEW044 M03/M16 A3042 170 38 -2000 280/09 RMK AO2 SLP311 T10331156
14840KMKG MKG20060226140010502/26/06 14:00:31  5-MIN KMKG 261900Z 29011G17KT 10SM FEW095 M03/M15 A3042 170 40 -2000 290/11G17 RMK AO2
14840KMKG MKG20060226140509902/26/06 14:05:31  5-MIN KMKG 261905Z 27012KT 10SM SCT095 M03/M16 A3041 180 38 -1900 280/12 RMK AO2
14840KMKG MKG20060226141009902/26/06 14:10:31  5-MIN KMKG 261910Z 30010KT 10SM BKN095 M03/M16 A3041 180 38 -1900 300/10 RMK AO2
14840KMKG MKG20060226141509902/26/06 14:15:31  5-MIN KMKG 261915Z 28012KT 10SM BKN095 M03/M16 A3041 180 38 -1900 280/12 RMK AO2
14840KMKG MKG20060226142009902/26/06 14:20:31  5-MIN KMKG 261920Z 28010KT 10SM BKN095 M03/M16 A3041 180 38 -1900 280/10 RMK AO2
14840KMKG MKG20060226142510502/26/06 14:25:31  5-MIN KMKG 261925Z 29012G18KT 10SM SCT095 M03/M16 A3040 180 37 -1900 290/12G18 RMK AO2
14840KMKG MKG20060226143012102/26/06 14:30:31  5-MIN KMKG 261930Z 27013G18KT 250V310 10SM SCT095 M03/M16 A3040 190 35 -1900 270/13G18 250V310 RMK AO2
14840KMKG MKG20060226143509902/26/06 14:35:31  5-MIN KMKG 261935Z 29011KT 10SM FEW095 M03/M16 A3040 190 37 -1900 300/11 RMK AO2
14840KMKG MKG20060226144010502/26/06 14:40:31  5-MIN KMKG 261940Z 28012G17KT 10SM FEW095 M03/M16 A3040 190 37 -1900 280/12G17 RMK AO2
14840KMKG MKG20060226144509602/26/06 14:45:31  5-MIN KMKG 261945Z 28012KT 10SM CLR M03/M16 A3039 200 37 -1900 280/12 RMK AO2
14840KMKG MKG20060226145011602/26/06 14:50:31  5-MIN KMKG 261950Z 29012KT 10SM FEW095 M03/M16 A3039 200 37 -1900 300/12 RMK AO2 SLP301 T10331161
14840KMKG MKG20060226145511602/26/06 14:55:31  5-MIN KMKG 261955Z 28011KT 10SM FEW095 M03/M16 A3038 200 37 -1800 280/11 RMK AO2 SLP299 T10281156
14840KMKG MKG20060226150009602/26/06 15:00:31  5-MIN KMKG 262000Z 25013KT 10SM CLR M03/M15 A3038 210 39 -1800 260/13 RMK AO2
14840KMKG MKG20060226150509602/26/06 15:05:31  5-MIN KMKG 262005Z 28011KT 10SM CLR M03/M14 A3038 210 40 -1800 280/11 RMK AO2
14840KMKG MKG20060226151010502/26/06 15:10:31  5-MIN KMKG 262010Z 28016G19KT 10SM FEW095 M03/M15 A3037 210 40 -1900 290/16G19 RMK AO2
14840KMKG MKG20060226151512102/26/06 15:15:31  5-MIN KMKG 262015Z 27012G19KT 240V300 10SM FEW095 M03/M15 A3038 210 40 -1900 270/12G19 240V300 RMK AO2
14840KMKG MKG20060226152009902/26/06 15:20:31  5-MIN KMKG 262020Z 27010KT 10SM FEW095 M03/M16 A3037 210 38 -1900 280/10 RMK AO2
14840KMKG MKG20060226152509902/26/06 15:25:31  5-MIN KMKG 262025Z 30010KT 10SM FEW095 M04/M15 A3038 210 42 -2000 300/10 RMK AO2
14840KMKG MKG20060226153010502/26/06 15:30:31  5-MIN KMKG 262030Z 29014G19KT 10SM FEW095 M03/M16 A3037 220 38 -1900 300/14G19 RMK AO2
14840KMKG MKG20060226153510502/26/06 15:35:31  5-MIN KMKG 262035Z 29013G19KT 10SM FEW095 M03/M16 A3037 220 38 -1900 290/13G19 RMK AO2
14840KMKG MKG20060226154009902/26/06 15:40:31  5-MIN KMKG 262040Z 28012KT 10SM FEW095 M04/M15 A3037 220 42 -2000 280/12 RMK AO2
14840KMKG MKG20060226154510502/26/06 15:45:31  5-MIN KMKG 262045Z 27012G17KT 10SM FEW095 M03/M15 A3037 220 40 -1900 270/12G17 RMK AO2
14840KMKG MKG20060226155012802/26/06 15:50:31  5-MIN KMKG 262050Z 29012G17KT 10SM FEW095 M03/M14 A3037 220 42 -1900 290/12G17 RMK AO2 SLP294 T10331144 56024
14840KMKG MKG20060226155512202/26/06 15:55:31  5-MIN KMKG 262055Z 27012KT 10SM FEW045 M04/M15 A3037 220 42 -2000 270/12 RMK AO2 SLP294 T10391150 56029
14840KMKG MKG20060226160009902/26/06 16:00:31  5-MIN KMKG 262100Z 29012KT 10SM BKN085 M04/M16 A3036 220 40 -2000 290/12 RMK AO2
14840KMKG MKG20060226160509902/26/06 16:05:31  5-MIN KMKG 262105Z 28013KT 10SM BKN085 M04/M16 A3036 220 38 -2000 280/13 RMK AO2
14840KMKG MKG20060226161009902/26/06 16:10:31  5-MIN KMKG 262110Z 29012KT 10SM BKN080 M04/M16 A3036 220 40 -2000 300/12 RMK AO2
14840KMKG MKG20060226161509902/26/06 16:15:31  5-MIN KMKG 262115Z 29013KT 10SM SCT080 M04/M16 A3036 230 40 -2000 290/13 RMK AO2
14840KMKG MKG20060226162010502/26/06 16:20:31  5-MIN KMKG 262120Z 28013G17KT 10SM FEW080 M04/M16 A3035 230 40 -2000 290/13G17 RMK AO2
14840KMKG MKG20060226162510502/26/06 16:25:31  5-MIN KMKG 262125Z 28010G17KT 10SM FEW075 M04/M15 A3035 240 42 -1900 290/10G17 RMK AO2
14840KMKG MKG20060226163009902/26/06 16:30:31  5-MIN KMKG 262130Z 27011KT 10SM FEW075 M04/M14 A3035 240 44 -1900 270/11 RMK AO2
14840KMKG MKG20060226163509902/26/06 16:35:31  5-MIN KMKG 262135Z 26011KT 10SM FEW075 M04/M15 A3034 240 42 -1900 270/11 RMK AO2
14840KMKG MKG20060226164009602/26/06 16:40:31  5-MIN KMKG 262140Z 26009KT 10SM CLR M04/M16 A3034 240 40 -1900 270/09 RMK AO2
14840KMKG MKG20060226164509602/26/06 16:45:31  5-MIN KMKG 262145Z 26011KT 10SM CLR M03/M16 A3034 240 38 -1900 270/11 RMK AO2
14840KMKG MKG20060226165011302/26/06 16:50:31  5-MIN KMKG 262150Z 28011KT 10SM CLR M04/M16 A3034 250 40 -1900 290/11 RMK AO2 SLP284 T10391156
14840KMKG MKG20060226165512202/26/06 16:55:31  5-MIN KMKG 262155Z 27012G17KT 10SM FEW070 M04/M16 A3034 250 38 -1900 270/12G17 RMK AO2 SLP284 T10391161
14840KMKG MKG20060226170010202/26/06 17:00:31  5-MIN KMKG 262200Z 28009G17KT 10SM CLR M04/M16 A3033 250 38 -1900 280/09G17 RMK AO2
14840KMKG MKG20060226170509602/26/06 17:05:31  5-MIN KMKG 262205Z 28009KT 10SM CLR M03/M15 A3033 250 40 -1900 290/09 RMK AO2
14840KMKG MKG20060226171009602/26/06 17:10:31  5-MIN KMKG 262210Z 27008KT 10SM CLR M04/M16 A3033 250 40 -1900 270/08 RMK AO2
14840KMKG MKG20060226171509602/26/06 17:15:31  5-MIN KMKG 262215Z 27010KT 10SM CLR M04/M16 A3033 250 38 -1900 280/10 RMK AO2
14840KMKG MKG20060226172009602/26/06 17:20:31  5-MIN KMKG 262220Z 27007KT 10SM CLR M04/M16 A3032 260 40 -1900 280/07 RMK AO2
14840KMKG MKG20060226172509602/26/06 17:25:31  5-MIN KMKG 262225Z 29008KT 10SM CLR M04/M16 A3032 260 40 -1900 290/08 RMK AO2
14840KMKG MKG20060226173009602/26/06 17:30:31  5-MIN KMKG 262230Z 28011KT 10SM CLR M04/M16 A3032 260 40 -1900 280/11 RMK AO2
14840KMKG MKG20060226173509602/26/06 17:35:31  5-MIN KMKG 262235Z 27010KT 10SM CLR M04/M16 A3032 270 38 -1900 270/10 RMK AO2
14840KMKG MKG20060226174009602/26/06 17:40:31  5-MIN KMKG 262240Z 27007KT 10SM CLR M04/M16 A3031 270 40 -1900 270/07 RMK AO2
14840KMKG MKG20060226174509602/26/06 17:45:31  5-MIN KMKG 262245Z 28010KT 10SM CLR M04/M16 A3031 270 40 -1900 280/10 RMK AO2
14840KMKG MKG20060226175011602/26/06 17:50:31  5-MIN KMKG 262250Z 27011KT 10SM FEW110 M04/M16 A3031 270 38 -1900 270/11 RMK AO2 SLP274 T10391161
14840KMKG MKG20060226175511302/26/06 17:55:31  5-MIN KMKG 262255Z 27009KT 10SM CLR M04/M16 A3031 280 40 -1900 270/09 RMK AO2 SLP273 T10391156
14840KMKG MKG20060226180009602/26/06 18:00:31  5-MIN KMKG 262300Z 28009KT 10SM CLR M04/M16 A3030 280 40 -1900 290/09 RMK AO2
14840KMKG MKG20060226180509602/26/06 18:05:31  5-MIN KMKG 262305Z 28008KT 10SM CLR M04/M16 A3030 280 40 -1900 280/08 RMK AO2
14840KMKG MKG20060226181009602/26/06 18:10:31  5-MIN KMKG 262310Z 28006KT 10SM CLR M04/M16 A3030 280 40 -1900 280/06 RMK AO2
14840KMKG MKG20060226181509602/26/06 18:15:31  5-MIN KMKG 262315Z 26009KT 10SM CLR M04/M15 A3029 290 42 -1900 260/09 RMK AO2
14840KMKG MKG20060226182009902/26/06 18:20:31  5-MIN KMKG 262320Z 28008KT 10SM FEW085 M04/M15 A3029 290 42 -1900 280/08 RMK AO2
14840KMKG MKG20060226182509902/26/06 18:25:31  5-MIN KMKG 262325Z 28008KT 10SM SCT080 M04/M16 A3029 290 40 -1900 280/08 RMK AO2
14840KMKG MKG20060226183010602/26/06 18:30:31  5-MIN KMKG 262330Z 27009KT 10SM SCT075 BKN090 M04/M16 A3029 290 40 -1900 270/09 RMK AO2
14840KMKG MKG20060226183510602/26/06 18:35:31  5-MIN KMKG 262335Z 27007KT 10SM BKN070 BKN085 M04/M15 A3029 290 42 -1900 270/07 RMK AO2
14840KMKG MKG20060226184010602/26/06 18:40:31  5-MIN KMKG 262340Z 27008KT 10SM SCT070 BKN085 M04/M15 A3028 300 42 -1900 270/08 RMK AO2
14840KMKG MKG20060226184510602/26/06 18:45:31  5-MIN KMKG 262345Z 28006KT 10SM SCT075 BKN090 M04/M14 A3028 300 44 -1900 280/06 RMK AO2
14840KMKG MKG20060226185014102/26/06 18:50:31  5-MIN KMKG 262350Z 28006KT 10SM SCT075 SCT090 M04/M14 A3028 300 44 -1900 280/06 RMK AO2 SLP267 T10391144 11022 21039 56029
14840KMKG MKG20060226185513402/26/06 18:55:31  5-MIN KMKG 262355Z 27007KT 10SM FEW070 M04/M14 A3028 300 44 -1900 270/07 RMK AO2 SLP265 T10391144 11022 21039 56029
14840KMKG MKG20060226190009902/26/06 19:00:31  5-MIN KMKG 270000Z 27007KT 10SM FEW070 M04/M14 A3028 300 46 -1900 270/07 RMK AO2
14840KMKG MKG20060226190509602/26/06 19:05:31  5-MIN KMKG 270005Z 26008KT 10SM CLR M04/M14 A3028 300 46 -1900 260/08 RMK AO2
14840KMKG MKG20060226191009602/26/06 19:10:31  5-MIN KMKG 270010Z 27006KT 10SM CLR M04/M14 A3027 300 46 -1900 270/06 RMK AO2
14840KMKG MKG20060226191509902/26/06 19:15:31  5-MIN KMKG 270015Z 26007KT 10SM SCT090 M04/M14 A3027 310 46 -1900 270/07 RMK AO2
14840KMKG MKG20060226192009902/26/06 19:20:31  5-MIN KMKG 270020Z 27008KT 10SM BKN090 M04/M14 A3027 310 46 -1900 270/08 RMK AO2
14840KMKG MKG20060226192509902/26/06 19:25:31  5-MIN KMKG 270025Z 24006KT 10SM BKN090 M04/M13 A3027 310 48 -1900 250/06 RMK AO2
14840KMKG MKG20060226193010602/26/06 19:30:31  5-MIN KMKG 270030Z 25006KT 10SM FEW075 BKN090 M04/M13 A3026 310 48 -1800 250/06 RMK AO2
14840KMKG MKG20060226193509902/26/06 19:35:31  5-MIN KMKG 270035Z 25009KT 10SM OVC085 M03/M13 A3026 320 46 -1800 260/09 RMK AO2
14840KMKG MKG20060226194009902/26/06 19:40:31  5-MIN KMKG 270040Z 25009KT 10SM OVC085 M03/M14 A3026 320 44 -1800 260/09 RMK AO2
14840KMKG MKG20060226194510602/26/06 19:45:31  5-MIN KMKG 270045Z 26008KT 10SM BKN075 OVC090 M03/M14 A3026 320 44 -1800 260/08 RMK AO2
14840KMKG MKG20060226195012302/26/06 19:50:31  5-MIN KMKG 270050Z 27007KT 10SM BKN070 OVC090 M03/M14 A3026 320 44 -1800 270/07 RMK AO2 SLP257 T10331139
14840KMKG MKG20060226195512302/26/06 19:55:31  5-MIN KMKG 270055Z 26009KT 10SM BKN070 OVC085 M03/M13 A3026 320 46 -1800 260/09 RMK AO2 SLP258 T10331133
14840KMKG MKG20060226200009902/26/06 20:00:31  5-MIN KMKG 270100Z 26008KT 10SM OVC075 M03/M14 A3025 320 42 -1700 260/08 RMK AO2
14840KMKG MKG20060226200509902/26/06 20:05:31  5-MIN KMKG 270105Z 25009KT 10SM OVC070 M03/M14 A3025 330 40 -1700 260/09 RMK AO2
14840KMKG MKG20060226201010602/26/06 20:10:31  5-MIN KMKG 270110Z 25007KT 10SM BKN070 OVC080 M03/M14 A3025 330 40 -1700 250/07 RMK AO2
14840KMKG MKG20060226201510602/26/06 20:15:31  5-MIN KMKG 270115Z 27008KT 10SM BKN065 OVC080 M03/M14 A3025 330 40 -1700 270/08 RMK AO2
14840KMKG MKG20060226202010602/26/06 20:20:31  5-MIN KMKG 270120Z 26010KT 10SM BKN060 OVC080 M03/M16 A3024 330 37 -1700 270/10 RMK AO2
14840KMKG MKG20060226202512102/26/06 20:25:31  5-MIN KMKG 270125Z 27012KT 10SM SCT065 OVC080 M03/M16 A3024 330 37 -1700 270/12 RMK AO2 CIG 060 RWY 14
14840KMKG MKG20060226203010602/26/06 20:30:31  5-MIN KMKG 270130Z 27011KT 10SM FEW060 OVC075 M03/M15 A3024 340 39 -1700 270/11 RMK AO2
14840KMKG MKG20060226203510602/26/06 20:35:31  5-MIN KMKG 270135Z 28007KT 10SM FEW055 OVC070 M03/M15 A3024 340 39 -1700 280/07 RMK AO2
14840KMKG MKG20060226204009902/26/06 20:40:31  5-MIN KMKG 270140Z 28008KT 10SM OVC070 M03/M14 A3024 340 40 -1700 290/08 RMK AO2
14840KMKG MKG20060226204509902/26/06 20:45:31  5-MIN KMKG 270145Z 29009KT 10SM OVC070 M03/M14 A3024 340 42 -1700 290/09 RMK AO2
14840KMKG MKG20060226205011602/26/06 20:50:31  5-MIN KMKG 270150Z 28010KT 10SM OVC070 M03/M14 A3024 340 42 -1700 290/10 RMK AO2 SLP249 T10281139
14840KMKG MKG20060226205511602/26/06 20:55:31  5-MIN KMKG 270155Z 27011KT 10SM OVC070 M03/M13 A3024 340 44 -1700 280/11 RMK AO2 SLP249 T10281133
14840KMKG MKG20060226210009902/26/06 21:00:31  5-MIN KMKG 270200Z 29009KT 10SM OVC070 M03/M13 A3023 340 46 -1700 290/09 RMK AO2
14840KMKG MKG20060226210509902/26/06 21:05:31  5-MIN KMKG 270205Z 30009KT 10SM OVC075 M03/M13 A3023 350 46 -1700 300/09 RMK AO2
14840KMKG MKG20060226211009902/26/06 21:10:31  5-MIN KMKG 270210Z 28012KT 10SM OVC075 M03/M12 A3023 340 48 -1700 280/12 RMK AO2
14840KMKG MKG20060226211511402/26/06 21:15:31  5-MIN KMKG 270215Z 28009KT 10SM OVC080 M03/M12 A3023 350 48 -1700 280/09 RMK AO2 CIG 065 RWY 14
14840KMKG MKG20060226212009902/26/06 21:20:31  5-MIN KMKG 270220Z 28009KT 10SM OVC080 M03/M12 A3023 350 50 -1700 290/09 RMK AO2
14840KMKG MKG20060226212511402/26/06 21:25:31  5-MIN KMKG 270225Z 28010KT 10SM OVC080 M03/M12 A3022 350 50 -1700 290/10 RMK AO2 CIG 065 RWY 14
14840KMKG MKG20060226213012102/26/06 21:30:31  5-MIN KMKG 270230Z 28009KT 10SM SCT060 OVC080 M03/M12 A3023 350 50 -1700 280/09 RMK AO2 CIG 060 RWY 14
14840KMKG MKG20060226213511302/26/06 21:35:31  5-MIN KMKG 270235Z 30008KT 10SM FEW049 BKN060 OVC080 M03/M12 A3023 350 50 -1700 300/08 RMK AO2
14840KMKG MKG20060226214010602/26/06 21:40:31  5-MIN KMKG 270240Z 29007KT 10SM BKN055 OVC080 M03/M12 A3022 350 50 -1700 300/07 RMK AO2
14840KMKG MKG20060226214510602/26/06 21:45:31  5-MIN KMKG 270245Z 30008KT 10SM BKN050 OVC080 M03/M11 A3022 350 53 -1700 300/08 RMK AO2
14840KMKG MKG20060226215013602/26/06 21:50:31  5-MIN KMKG 270250Z 29009KT 10SM BKN050 BKN060 OVC075 M03/M11 A3022 350 53 -1700 290/09 RMK AO2 SLP244 T10281111 56029
14840KMKG MKG20060226215512902/26/06 21:55:31  5-MIN KMKG 270255Z 30007KT 10SM BKN050 OVC060 M03/M11 A3022 360 53 -1700 300/07 RMK AO2 SLP243 T10281111 56020
14840KMKG MKG20060226220010602/26/06 22:00:31  5-MIN KMKG 270300Z 27006KT 10SM BKN050 OVC060 M03/M11 A3022 360 53 -1700 280/06 RMK AO2
14840KMKG MKG20060226220510602/26/06 22:05:31  5-MIN KMKG 270305Z 29008KT 10SM BKN055 OVC065 M03/M11 A3021 360 53 -1600 290/08 RMK AO2
14840KMKG MKG20060226221009902/26/06 22:10:31  5-MIN KMKG 270310Z 28005KT 10SM OVC060 M03/M12 A3021 360 50 -1600 280/05 RMK AO2
14840KMKG MKG20060226221509902/26/06 22:15:31  5-MIN KMKG 270315Z 27007KT 10SM OVC060 M03/M12 A3021 360 50 -1600 280/07 RMK AO2
14840KMKG MKG20060226222009902/26/06 22:20:31  5-MIN KMKG 270320Z 27007KT 10SM OVC060 M02/M12 A3021 360 48 -1600 280/07 RMK AO2
14840KMKG MKG20060226222509902/26/06 22:25:31  5-MIN KMKG 270325Z 27009KT 10SM OVC060 M02/M11 A3021 370 51 -1600 270/09 RMK AO2
14840KMKG MKG20060226223009902/26/06 22:30:31  5-MIN KMKG 270330Z 28009KT 10SM OVC055 M02/M11 A3020 370 51 -1600 280/09 RMK AO2
14840KMKG MKG20060226223510602/26/06 22:35:31  5-MIN KMKG 270335Z 28008KT 10SM BKN055 OVC070 M02/M11 A3020 370 51 -1600 280/08 RMK AO2
14840KMKG MKG20060226224009902/26/06 22:40:31  5-MIN KMKG 270340Z 28008KT 10SM OVC055 M02/M11 A3020 370 51 -1600 280/08 RMK AO2
14840KMKG MKG20060226224509902/26/06 22:45:31  5-MIN KMKG 270345Z 27008KT 10SM OVC055 M02/M11 A3020 370 51 -1600 280/08 RMK AO2
14840KMKG MKG20060226225011602/26/06 22:50:31  5-MIN KMKG 270350Z 27009KT 10SM OVC050 M02/M11 A3020 380 51 -1600 270/09 RMK AO2 SLP235 T10221111
14840KMKG MKG20060226225511602/26/06 22:55:31  5-MIN KMKG 270355Z 28010KT 10SM OVC050 M02/M11 A3019 380 49 -1500 280/10 RMK AO2 SLP233 T10171111
14840KMKG MKG20060226230009902/26/06 23:00:31  5-MIN KMKG 270400Z 28008KT 10SM OVC050 M02/M11 A3019 380 51 -1500 290/08 RMK AO2
14840KMKG MKG20060226230509902/26/06 23:05:31  5-MIN KMKG 270405Z 27009KT 10SM OVC050 M02/M11 A3019 380 51 -1500 270/09 RMK AO2
14840KMKG MKG20060226231009902/26/06 23:10:31  5-MIN KMKG 270410Z 28012KT 10SM OVC050 M02/M11 A3019 380 51 -1500 280/12 RMK AO2
14840KMKG MKG20060226231509902/26/06 23:15:31  5-MIN KMKG 270415Z 27008KT 10SM OVC050 M02/M11 A3019 390 51 -1500 280/08 RMK AO2
14840KMKG MKG20060226232009902/26/06 23:20:31  5-MIN KMKG 270420Z 27009KT 10SM OVC050 M02/M11 A3018 390 51 -1500 270/09 RMK AO2
14840KMKG MKG20060226232509902/26/06 23:25:31  5-MIN KMKG 270425Z 28010KT 10SM OVC050 M02/M11 A3018 390 51 -1500 280/10 RMK AO2
14840KMKG MKG20060226233009902/26/06 23:30:31  5-MIN KMKG 270430Z 28011KT 10SM OVC055 M01/M11 A3018 400 49 -1400 290/11 RMK AO2
14840KMKG MKG20060226233509902/26/06 23:35:31  5-MIN KMKG 270435Z 28012KT 10SM OVC055 M01/M11 A3018 400 49 -1400 280/12 RMK AO2
14840KMKG MKG20060226234010502/26/06 23:40:31  5-MIN KMKG 270440Z 27009G17KT 10SM OVC055 M01/M11 A3017 400 49 -1400 270/09G17 RMK AO2
14840KMKG MKG20060226234509902/26/06 23:45:31  5-MIN KMKG 270445Z 28010KT 10SM OVC055 M01/M11 A3017 400 49 -1400 280/10 RMK AO2
14840KMKG MKG20060226235012602/26/06 23:50:31  5-MIN KMKG 270450Z 27013KT 10SM OVC055 M01/M11 A3017 400 49 -1400 270/13 RMK AO2 SLP224 T10111106 410111117
14840KMKG MKG20060226235513302/26/06 23:55:31  5-MIN KMKG 270455Z 27012KT 10SM BKN055 OVC065 M01/M11 A3016 410 49 -1400 280/12 RMK AO2 SLP223 T10111106 410111117
14840KMKG MKG20060227000010602/27/06 00:00:32  5-MIN KMKG 270500Z 28010KT 10SM BKN055 OVC065 M01/M10 A3016 410 51 -1400 280/10 RMK AO2
14840KMKG MKG20060227000510602/27/06 00:05:31  5-MIN KMKG 270505Z 28010KT 10SM BKN060 OVC075 M01/M11 A3016 410 49 -1400 280/10 RMK AO2
14840KMKG MKG20060227001011302/27/06 00:10:31  5-MIN KMKG 270510Z 28012KT 10SM BKN055 BKN070 OVC080 M01/M11 A3016 410 49 -1400 280/12 RMK AO2
14840KMKG MKG20060227001511302/27/06 00:15:31  5-MIN KMKG 270515Z 28010KT 10SM BKN055 BKN070 OVC080 M01/M11 A3016 410 49 -1400 280/10 RMK AO2
14840KMKG MKG20060227002010602/27/06 00:20:31  5-MIN KMKG 270520Z 28012KT 10SM BKN060 OVC080 M01/M11 A3016 410 49 -1400 280/12 RMK AO2
14840KMKG MKG20060227002511302/27/06 00:25:31  5-MIN KMKG 270525Z 29014KT 10SM FEW050 BKN060 OVC080 M01/M11 A3015 420 49 -1400 290/14 RMK AO2
14840KMKG MKG20060227003011302/27/06 00:30:31  5-MIN KMKG 270530Z 27010KT 10SM FEW050 BKN060 OVC080 M01/M10 A3015 420 51 -1400 280/10 RMK AO2
14840KMKG MKG20060227003511302/27/06 00:35:31  5-MIN KMKG 270535Z 28014KT 10SM FEW050 BKN060 OVC085 M01/M11 A3015 420 47 -1300 280/14 RMK AO2
14840KMKG MKG20060227004011902/27/06 00:40:31  5-MIN KMKG 270540Z 27013G18KT 10SM SCT050 BKN065 OVC085 M01/M11 A3014 420 47 -1300 280/13G18 RMK AO2
14840KMKG MKG20060227004511902/27/06 00:45:31  5-MIN KMKG 270545Z 27011G18KT 10SM FEW050 BKN060 OVC080 M01/M11 A3014 430 47 -1300 280/11G18 RMK AO2
14840KMKG MKG20060227005014702/27/06 00:50:31  5-MIN KMKG 270550Z 27012G18KT 10SM BKN060 OVC080 M01/M11 A3014 430 47 -1300 280/12G18 RMK AO2 SLP215 T10061106 11006 21039 56020
14840KMKG MKG20060227005514702/27/06 00:55:31  5-MIN KMKG 270555Z 28014G18KT 10SM BKN060 OVC080 M01/M11 A3014 430 47 -1300 290/14G18 RMK AO2 SLP215 T10061106 11006 21039 57026
14840KMKG MKG20060227010010602/27/06 01:00:31  5-MIN KMKG 270600Z 27010KT 10SM BKN055 OVC080 M01/M10 A3014 430 49 -1300 270/10 RMK AO2
14840KMKG MKG20060227010511202/27/06 01:05:31  5-MIN KMKG 270605Z 27014G19KT 10SM BKN060 OVC080 M01/M11 A3014 430 47 -1300 280/14G19 RMK AO2
14840KMKG MKG20060227011011202/27/06 01:10:31  5-MIN KMKG 270610Z 28012G19KT 10SM BKN060 OVC080 M01/M10 A3014 430 49 -1300 280/12G19 RMK AO2
14840KMKG MKG20060227011511202/27/06 01:15:31  5-MIN KMKG 270615Z 27011G17KT 10SM BKN055 OVC080 M01/M10 A3014 430 49 -1300 270/11G17 RMK AO2
14840KMKG MKG20060227012011202/27/06 01:20:31  5-MIN KMKG 270620Z 27010G17KT 10SM BKN055 OVC080 M01/M11 A3014 430 47 -1300 280/10G17 RMK AO2
14840KMKG MKG20060227012510602/27/06 01:25:31  5-MIN KMKG 270625Z 28009KT 10SM SCT060 OVC080 M01/M10 A3014 430 49 -1300 280/09 RMK AO2
14840KMKG MKG20060227013011202/27/06 01:30:31  5-MIN KMKG 270630Z 28011G17KT 10SM BKN060 OVC080 M01/M10 A3013 430 49 -1300 280/11G17 RMK AO2
14840KMKG MKG20060227013510602/27/06 01:35:31  5-MIN KMKG 270635Z 28009KT 10SM BKN060 OVC080 M01/M10 A3013 440 49 -1300 290/09 RMK AO2
14840KMKG MKG20060227014011202/27/06 01:40:31  5-MIN KMKG 270640Z 28012G18KT 10SM BKN055 OVC080 M01/M10 A3013 440 49 -1300 280/12G18 RMK AO2
14840KMKG MKG20060227014510502/27/06 01:45:31  5-MIN KMKG 270645Z 28013KT 10SM BKN055 OVC080 00/M10 A3013 440 47 -1200 280/13 RMK AO2
14840KMKG MKG20060227015012102/27/06 01:50:31  5-MIN KMKG 270650Z 27011G21KT 10SM OVC055 00/M11 A3013 440 45 -1200 280/11G21 RMK AO2 SLP210 T00001106
14840KMKG MKG20060227015514302/27/06 01:55:31  5-MIN KMKG 270655Z 28015G21KT 10SM SCT049 OVC060 00/M10 A3013 440 47 -1200 290/15G21 RMK AO2 CIG 050 RWY 14 SLP210 T00001100
14840KMKG MKG20060227020010402/27/06 02:00:31  5-MIN KMKG 270700Z 30013G19KT 10SM OVC055 00/M11 A3013 440 45 -1200 310/13G19 RMK AO2
14840KMKG MKG20060227020510602/27/06 02:05:31  5-MIN KMKG 270705Z 28013KT 10SM BKN055 OVC070 M01/M11 A3012 440 47 -1300 280/13 RMK AO2
14840KMKG MKG20060227021011202/27/06 02:10:31  5-MIN KMKG 270710Z 29012KT 10SM BKN050 BKN060 OVC070 00/M11 A3012 440 45 -1200 300/12 RMK AO2
14840KMKG MKG20060227021510502/27/06 02:15:31  5-MIN KMKG 270715Z 30011KT 10SM BKN050 OVC065 00/M11 A3012 440 45 -1200 300/11 RMK AO2
14840KMKG MKG20060227022011202/27/06 02:20:31  5-MIN KMKG 270720Z 28012KT 10SM FEW043 BKN050 OVC070 00/M10 A3012 440 47 -1200 280/12 RMK AO2
14840KMKG MKG20060227022511202/27/06 02:25:31  5-MIN KMKG 270725Z 28012KT 10SM SCT043 BKN050 OVC070 00/M10 A3012 440 47 -1200 290/12 RMK AO2
14840KMKG MKG20060227023011902/27/06 02:30:31  5-MIN KMKG 270730Z 28014G20KT 10SM SCT042 BKN050 OVC065 M01/M09 A3013 440 51 -1300 280/14G20 RMK AO2
14840KMKG MKG20060227023511902/27/06 02:35:31  5-MIN KMKG 270735Z 28015G20KT 10SM SCT038 BKN047 OVC060 M01/M09 A3013 440 53 -1300 280/15G20 RMK AO2
14840KMKG MKG20060227024012102/27/06 02:40:31  5-MIN KMKG 270740Z 29011KT 10SM SCT041 OVC050 M01/M08 A3013 440 56 -1300 300/11 RMK AO2 CIG 041 RWY 14
14840KMKG MKG20060227024512802/27/06 02:45:31  5-MIN KMKG 270745Z 28015KT 10SM SCT040 BKN050 OVC065 M01/M08 A3013 440 56 -1300 280/15 RMK AO2 CIG 043 RWY 14
14840KMKG MKG20060227025013602/27/06 02:50:31  5-MIN KMKG 270750Z 29012G20KT 10SM SCT038 BKN050 OVC065 M01/M08 A3012 440 58 -1300 290/12G20 RMK AO2 SLP209 T10111083
14840KMKG MKG20060227025514502/27/06 02:55:31  5-MIN KMKG 270755Z 31014KT 10SM SCT038 BKN050 OVC065 M01/M08 A3012 440 60 -1300 310/14 RMK AO2 CIG 043 RWY 14 SLP210 T10111078
14840KMKG MKG20060227030012702/27/06 03:00:31  5-MIN KMKG 270800Z 30013G21KT 10SM SCT036 OVC055 M01/M08 A3012 440 60 -1300 310/13G21 RMK AO2 CIG 043 RWY 14
14840KMKG MKG20060227030513402/27/06 03:05:31  5-MIN KMKG 270805Z 30014G21KT 10SM FEW036 BKN060 OVC070 M01/M07 A3012 450 63 -1300 310/14G21 RMK AO2 CIG 045 RWY 14
14840KMKG MKG20060227031012802/27/06 03:10:31  5-MIN KMKG 270810Z 30012KT 10SM FEW036 SCT044 OVC055 M01/M07 A3012 450 63 -1300 310/12 RMK AO2 CIG 045 RWY 14
14840KMKG MKG20060227031512802/27/06 03:15:31  5-MIN KMKG 270815Z 30012KT 10SM SCT038 BKN048 OVC065 M01/M07 A3011 450 63 -1300 300/12 RMK AO2 CIG 041 RWY 14
14840KMKG MKG20060227032011202/27/06 03:20:31  5-MIN KMKG 270820Z 30014KT 9SM SCT037 BKN044 OVC055 M01/M07 A3011 450 63 -1300 300/14 RMK AO2
14840KMKG MKG20060227032514902/27/06 03:25:31  5-MIN KMKG 270825Z 30014G19KT 7SM -SN SCT041 BKN049 OVC060 M01/M07 A3011 450 66 -1300 300/14G19 RMK AO2 SNB22 CIG 039 RWY 14 P0000
14840KMKG MKG20060227033014902/27/06 03:30:31  5-MIN KMKG 270830Z 29013G19KT 7SM -SN SCT041 BKN049 OVC060 M01/M07 A3011 460 66 -1300 300/13G19 RMK AO2 SNB22 CIG 039 RWY 14 P0000
14840KMKG MKG20060227033514102/27/06 03:35:31  5-MIN KMKG 270835Z 30013G19KT 7SM SCT039 OVC050 M01/M07 A3011 460 66 -1300 300/13G19 RMK AO2 SNB22E31 CIG 039 RWY 14 P0000
14840KMKG MKG20060227034013402/27/06 03:40:31  5-MIN KMKG 270840Z 30011G19KT 5SM -SN SCT033 BKN042 OVC055 M01/M07 A3011 460 66 -1300 300/11G19 RMK AO2 SNB22 P0000
14840KMKG MKG20060227034512802/27/06 03:45:31  5-MIN KMKG 270845Z 30012KT 4SM -SN FEW025 BKN033 OVC055 M02/M06 A3011 460 72 -1400 310/12 RMK AO2 SNB22 P0000
14840KMKG MKG20060227035015702/27/06 03:50:31  5-MIN KMKG 270850Z 29012KT 3SM -SN SCT025 BKN037 OVC050 M02/M06 A3010 460 72 -1400 300/12 RMK AO2 SNB22 SLP203 P0000 60000 T10171061 57026
14840KMKG MKG20060227035516702/27/06 03:55:31  5-MIN KMKG 270855Z 30015G19KT 2 1/2SM -SN SCT018 BKN025 OVC050 M02/M06 A3010 460 75 -1400 300/15G19 RMK AO2 SNB22 SLP202 P0000 60000 T10171056 58012
14840KMKG MKG20060227040012802/27/06 04:00:31  5-MIN KMKG 270900Z 29010G19KT 2SM -SN SCT016 BKN025 OVC045 M02/M06 A3010 460 75 -1400 300/10G19 RMK AO2 P0000
14840KMKG MKG20060227040512202/27/06 04:05:31  5-MIN KMKG 270905Z 30011KT 2SM -SN BKN018 BKN025 OVC035 M02/M05 A3010 460 78 -1400 310/11 RMK AO2 P0000
14840KMKG MKG20060227041012202/27/06 04:10:31  5-MIN KMKG 270910Z 32009KT 2SM -SN BKN016 BKN023 OVC040 M02/M05 A3010 470 81 -1400 320/09 RMK AO2 P0000
14840KMKG MKG20060227041512202/27/06 04:15:31  5-MIN KMKG 270915Z 32008KT 2SM -SN SCT012 BKN018 OVC025 M02/M05 A3010 460 81 -1400 320/08 RMK AO2 P0000
14840KMKG MKG20060227042012602/27/06 04:20:31  5-MIN KMKG 270920Z 32009KT 2 1/2SM -SN BKN015 BKN026 OVC045 M02/M05 A3010 470 81 -1400 330/09 RMK AO2 P0000
14840KMKG MKG20060227042512602/27/06 04:25:31  5-MIN KMKG 270925Z 32010KT 2 1/2SM -SN BKN017 BKN025 OVC037 M02/M05 A3010 460 81 -1400 330/10 RMK AO2 P0000
14840KMKG MKG20060227043012502/27/06 04:30:31  5-MIN KMKG 270930Z 33010KT 2SM -SN BR BKN015 BKN022 OVC036 M03/M05 A3010 470 85 -1500 330/10 RMK AO2 P0000
14840KMKG MKG20060227043512502/27/06 04:35:31  5-MIN KMKG 270935Z 32009KT 2SM -SN BR SCT015 BKN024 OVC055 M03/M05 A3010 470 85 -1500 330/09 RMK AO2 P0000
14840KMKG MKG20060227044012902/27/06 04:40:31  5-MIN KMKG 270940Z 33012KT 2 1/2SM -SN BR SCT022 BKN038 OVC055 M03/M05 A3010 470 85 -1500 330/12 RMK AO2 P0000
14840KMKG MKG20060227044513702/27/06 04:45:31  5-MIN KMKG 270945Z 32011KT 3SM -SN SCT024 SCT038 OVC060 M03/M06 A3010 470 81 -1500 330/11 RMK AO2 CIG 036 RWY 14 P0000
14840KMKG MKG20060227045014702/27/06 04:50:31  5-MIN KMKG 270950Z 33008KT 4SM -SN SCT022 OVC060 M03/M06 A3010 470 81 -1500 330/08 RMK AO2 CIG 038 RWY 14 SLP202 P0000 T10281056
14840KMKG MKG20060227045515702/27/06 04:55:31  5-MIN KMKG 270955Z 33011KT 4SM -SN BR FEW016 SCT028 OVC060 M03/M05 A3010 470 85 -1500 340/11 RMK AO2 CIG 040 RWY 14 SLP201 P0000 T10281050
14840KMKG MKG20060227050013702/27/06 05:00:31  5-MIN KMKG 271000Z 34012KT 4SM -SN FEW014 SCT048 OVC060 M03/M06 A3010 470 81 -1500 350/12 RMK AO2 CIG 042 RWY 14 P0000
14840KMKG MKG20060227050514002/27/06 05:05:31  5-MIN KMKG 271005Z 34010KT 3SM -SN BR SCT014 SCT045 OVC060 M03/M06 A3010 460 85 -1600 340/10 RMK AO2 CIG 042 RWY 14 P0000
14840KMKG MKG20060227051012502/27/06 05:10:31  5-MIN KMKG 271010Z 34008KT 3SM -SN BR FEW016 BKN049 OVC065 M03/M06 A3010 460 85 -1600 340/08 RMK AO2 P0000
14840KMKG MKG20060227051512502/27/06 05:15:31  5-MIN KMKG 271015Z 32010KT 4SM -SN BR FEW016 BKN049 OVC065 M03/M06 A3010 470 85 -1600 330/10 RMK AO2 P0000
14840KMKG MKG20060227052012202/27/06 05:20:31  5-MIN KMKG 271020Z 33008KT 4SM -SN FEW016 BKN055 OVC070 M03/M06 A3010 470 81 -1600 340/08 RMK AO2 P0000
14840KMKG MKG20060227052511502/27/06 05:25:31  5-MIN KMKG 271025Z 33009KT 5SM -SN FEW016 OVC060 M03/M06 A3010 470 81 -1600 330/09 RMK AO2 P0000
14840KMKG MKG20060227053011502/27/06 05:30:31  5-MIN KMKG 271030Z 33007KT 6SM -SN BKN060 OVC080 M03/M06 A3010 470 81 -1600 330/07 RMK AO2 P0000
14840KMKG MKG20060227053511702/27/06 05:35:31  5-MIN KMKG 271035Z 33007KT 8SM BKN065 OVC080 M03/M06 A3009 470 85 -1600 330/07 RMK AO2 SNE31 P0000
14840KMKG MKG20060227054011702/27/06 05:40:31  5-MIN KMKG 271040Z 34008KT 9SM BKN065 OVC080 M03/M06 A3009 470 85 -1600 340/08 RMK AO2 SNE31 P0000
14840KMKG MKG20060227054511802/27/06 05:45:31  5-MIN KMKG 271045Z 34008KT 10SM BKN070 OVC090 M03/M06 A3009 470 85 -1600 350/08 RMK AO2 SNE31 P0000
14840KMKG MKG20060227055013502/27/06 05:50:31  5-MIN KMKG 271050Z 33007KT 10SM BKN070 OVC090 M03/M06 A3009 470 85 -1600 340/07 RMK AO2 SNE31 SLP200 P0000 T10331056
14840KMKG MKG20060227055514202/27/06 05:55:31  5-MIN KMKG 271055Z 34006KT 10SM BKN065 BKN080 OVC095 M03/M06 A3009 470 85 -1600 340/06 RMK AO2 SNE31 SLP200 P0000 T10331056
14840KMKG MKG20060227060011202/27/06 06:00:31  5-MIN KMKG 271100Z 34006KT 9SM FEW025 BKN065 OVC095 M03/M06 A3009 470 85 -1600 350/06 RMK AO2
14840KMKG MKG20060227060513102/27/06 06:05:31  5-MIN KMKG 271105Z 33006KT 6SM -SN BR SCT021 BKN065 OVC080 M03/M06 A3009 470 85 -1600 340/06 RMK AO2 SNB03 P0000
14840KMKG MKG20060227061014602/27/06 06:10:31  5-MIN KMKG 271110Z 33007KT 5SM -SN BR FEW017 BKN055 OVC070 M03/M06 A3009 470 85 -1600 340/07 RMK AO2 SNB03 CIG 048 RWY 14 P0000
14840KMKG MKG20060227061514602/27/06 06:15:31  5-MIN KMKG 271115Z 33005KT 5SM -SN BR FEW020 BKN055 OVC070 M03/M06 A3009 470 85 -1600 340/05 RMK AO2 SNB03 CIG 048 RWY 14 P0000
14840KMKG MKG20060227062014602/27/06 06:20:31  5-MIN KMKG 271120Z 34006KT 5SM -SN BR FEW020 SCT047 OVC060 M03/M06 A3009 470 85 -1600 340/06 RMK AO2 SNB03 CIG 046 RWY 14 P0000
14840KMKG MKG20060227062513102/27/06 06:25:31  5-MIN KMKG 271125Z 34005KT 4SM -SN BR SCT020 BKN040 OVC060 M03/M06 A3009 470 85 -1600 340/05 RMK AO2 SNB03 P0000
14840KMKG MKG20060227063013102/27/06 06:30:31  5-MIN KMKG 271130Z 34005KT 4SM -SN BR BKN020 BKN038 OVC060 M03/M05 A3009 470 88 -1600 350/05 RMK AO2 SNB03 P0000
14840KMKG MKG20060227063513102/27/06 06:35:31  5-MIN KMKG 271135Z 34006KT 3SM -SN BR SCT020 BKN035 OVC060 M03/M05 A3009 470 88 -1600 350/06 RMK AO2 SNB03 P0000
14840KMKG MKG20060227064015202/27/06 06:40:31  5-MIN KMKG 271140Z 35006KT 2 1/2SM -SN BR FEW011 BKN027 OVC035 M03/M05 A3009 470 88 -1600 350/06 RMK AO2 VIS 1 3/4 RWY 14 SNB03 P0000
14840KMKG MKG20060227064513102/27/06 06:45:31  5-MIN KMKG 271145Z 35007KT 2SM -SN BR FEW011 BKN021 OVC030 M03/M05 A3009 470 88 -1600 360/07 RMK AO2 SNB03 P0000
14840KMKG MKG20060227065017202/27/06 06:50:31  5-MIN KMKG 271150Z 36008KT 2SM -SN BR FEW011 BKN021 OVC033 M03/M06 A3009 470 85 -1600 360/08 RMK AO2 SNB03 SLP200 P0000 60000 T10331056 10000 21033 58012
14840KMKG MKG20060227065517202/27/06 06:55:31  5-MIN KMKG 271155Z 35010KT 2SM -SN BR FEW012 BKN032 OVC060 M03/M06 A3010 470 85 -1600 360/10 RMK AO2 SNB03 SLP201 P0000 60000 T10331056 10000 21033 55002
14840KMKG MKG20060227070012502/27/06 07:00:31  5-MIN KMKG 271200Z 01008KT 2SM -SN BR SCT024 BKN041 OVC065 M04/M06 A3010 470 88 -1700 010/08 RMK AO2 P0000
14840KMKG MKG20060227070512902/27/06 07:05:31  5-MIN KMKG 271205Z 36009KT 2 1/2SM -SN BR FEW024 BKN045 OVC070 M04/M06 A3010 470 85 -1700 360/09 RMK AO2 P0000
14840KMKG MKG20060227071012502/27/06 07:10:31  5-MIN KMKG 271210Z 36008KT 3SM -SN BR FEW024 BKN049 OVC070 M04/M06 A3010 470 85 -1700 360/08 RMK AO2 P0000
14840KMKG MKG20060227071512502/27/06 07:15:31  5-MIN KMKG 271215Z 36007KT 3SM -SN BR FEW026 BKN049 OVC065 M04/M06 A3010 470 85 -1700 360/07 RMK AO2 P0000
14840KMKG MKG20060227072011802/27/06 07:20:31  5-MIN KMKG 271220Z 36008KT 3SM -SN BR BKN047 OVC065 M04/M06 A3010 470 85 -1700 360/08 RMK AO2 P0000
14840KMKG MKG20060227072511802/27/06 07:25:31  5-MIN KMKG 271225Z 36008KT 4SM -SN BR BKN043 OVC070 M04/M06 A3010 470 85 -1700 010/08 RMK AO2 P0000
14840KMKG MKG20060227073012502/27/06 07:30:31  5-MIN KMKG 271230Z 36008KT 4SM -SN BR FEW020 BKN036 OVC070 M04/M06 A3010 460 85 -1700 360/08 RMK AO2 P0000
14840KMKG MKG20060227073512502/27/06 07:35:31  5-MIN KMKG 271235Z 36008KT 3SM -SN BR FEW020 BKN032 OVC042 M04/M06 A3010 460 85 -1700 360/08 RMK AO2 P0000
14840KMKG MKG20060227074014402/27/06 07:40:31  5-MIN KMKG 271240Z 35006KT 1 3/4SM -SN BR SCT027 BKN038 OVC046 M04/M06 A3010 460 85 -1700 350/06 RMK AO2 CIG 026 RWY 14 P0000
14840KMKG MKG20060227074514402/27/06 07:45:31  5-MIN KMKG 271245Z 35006KT 1 1/4SM -SN BR SCT020 BKN038 OVC045 M04/M06 A3010 460 85 -1700 350/06 RMK AO2 CIG 024 RWY 14 P0000
14840KMKG MKG20060227075015002/27/06 07:50:31  5-MIN KMKG 271250Z 35006KT 1SM -SN BR SCT020 OVC036 M04/M06 A3010 460 85 -1700 350/06 RMK AO2 CIG 024 RWY 14 SLP203 P0000 T10391061
14840KMKG MKG20060227075513902/27/06 07:55:31  5-MIN KMKG 271255Z 35005KT 1 1/2SM -SN BR BKN020 OVC036 M04/M06 A3010 460 85 -1700 350/05 RMK AO2 SLP203 P0001 T10391061
14840KMKG MKG20060227080012202/27/06 08:00:31  5-MIN KMKG 271300Z 02006KT 1 1/4SM -SN BR BKN020 OVC036 M04/M06 A3010 460 85 -1700 020/06 RMK AO2 P0000
14840KMKG MKG20060227080511802/27/06 08:05:31  5-MIN KMKG 271305Z 01005KT 1SM -SN BR BKN020 OVC036 M04/M06 A3010 460 88 -1700 020/05 RMK AO2 P0000
14840KMKG MKG20060227081012202/27/06 08:10:31  5-MIN KMKG 271310Z 01005KT 1 1/4SM -SN BR BKN020 OVC036 M04/M06 A3011 460 88 -1700 020/05 RMK AO2 P0000
14840KMKG MKG20060227081512202/27/06 08:15:31  5-MIN KMKG 271315Z 02007KT 1 1/4SM -SN BR BKN020 OVC036 M04/M06 A3011 460 88 -1700 020/07 RMK AO2 P0000
14840KMKG MKG20060227082014402/27/06 08:20:31  5-MIN KMKG 271320Z 03005KT 1 1/2SM -SN BR FEW013 SCT042 OVC060 M04/M06 A3011 460 88 -1700 030/05 RMK AO2 CIG 046 RWY 14 P0000
14840KMKG MKG20060227082513702/27/06 08:25:31  5-MIN KMKG 271325Z 03004KT 1 1/2SM -SN BR FEW009 OVC060 M04/M06 A3011 460 85 -1700 030/04 RMK AO2 CIG 048 RWY 14 P0000
14840KMKG MKG20060227083012502/27/06 08:30:31  5-MIN KMKG 271330Z 05006KT 2SM -SN BR FEW012 BKN055 OVC065 M04/M06 A3011 460 85 -1700 050/06 RMK AO2 P0000
14840KMKG MKG20060227083512502/27/06 08:35:31  5-MIN KMKG 271335Z 04006KT 2SM -SN BR FEW009 BKN055 OVC065 M04/M06 A3011 460 88 -1700 050/06 RMK AO2 P0000
14840KMKG MKG20060227084013202/27/06 08:40:31  5-MIN KMKG 271340Z 04006KT 1 3/4SM -SN BR SCT013 OVC060 M04/M06 A3011 460 88 -1700 040/06 RMK AO2 TWR VIS 2 P0000
14840KMKG MKG20060227084513202/27/06 08:45:31  5-MIN KMKG 271345Z 04007KT 1 3/4SM -SN BR FEW010 OVC060 M04/M07 A3011 450 84 -1700 040/07 RMK AO2 TWR VIS 2 P0000
14840KMKG MKG20060227085014902/27/06 08:50:31  5-MIN KMKG 271350Z 04007KT 1 3/4SM -SN BR FEW012 OVC060 M04/M07 A3011 450 84 -1700 040/07 RMK AO2 TWR VIS 2 SLP207 P0000 T10441067
14840KMKG MKG20060227085514202/27/06 08:55:31  5-MIN KMKG 271355Z 03008KT 2SM -SN BR FEW012 SCT050 OVC060 M04/M07 A3011 450 84 -1700 030/08 RMK AO2 SLP207 P0000 T10441067
14840KMKG MKG20060227090013602/27/06 09:00:31  5-MIN KMKG 271400Z 03007KT 2SM -SN FEW012 SCT050 OVC060 M04/M07 A3011 450 81 -1700 030/07 RMK AO2 SFC VIS 2 1/2 P0000
14840KMKG MKG20060227090512502/27/06 09:05:31  5-MIN KMKG 271405Z 03008KT 2SM -SN BKN050 OVC060 M04/M07 A3011 450 81 -1700 040/08 RMK AO2 SFC VIS 4 P0000
14840KMKG MKG20060227091012502/27/06 09:10:31  5-MIN KMKG 271410Z 03008KT 2SM -SN BKN046 OVC060 M04/M07 A3011 450 81 -1700 030/08 RMK AO2 SFC VIS 3 P0000
14840KMKG MKG20060227091512202/27/06 09:15:31  5-MIN KMKG 271415Z 02007KT 2SM -SN BKN041 BKN050 OVC060 M04/M07 A3011 450 81 -1700 020/07 RMK AO2 P0000
14840KMKG MKG20060227092011502/27/06 09:20:31  5-MIN KMKG 271420Z 02007KT 2SM -SN BKN041 OVC055 M04/M07 A3011 450 81 -1700 020/07 RMK AO2 P0000
14840KMKG MKG20060227092512202/27/06 09:25:31  5-MIN KMKG 271425Z 03004KT 2SM -SN FEW016 BKN041 OVC050 M04/M07 A3011 450 81 -1700 030/04 RMK AO2 P0000
14840KMKG MKG20060227093012202/27/06 09:30:31  5-MIN KMKG 271430Z 03005KT 2SM -SN FEW014 BKN041 OVC055 M04/M07 A3011 450 81 -1700 030/05 RMK AO2 P0000
14840KMKG MKG20060227093512502/27/06 09:35:31  5-MIN KMKG 271435Z 04007KT 2SM -SN BR SCT014 BKN041 OVC055 M04/M07 A3011 460 84 -1700 040/07 RMK AO2 P0000
14840KMKG MKG20060227094012202/27/06 09:40:31  5-MIN KMKG 271440Z 04007KT 2SM -SN BKN014 BKN041 OVC049 M04/M07 A3011 460 81 -1700 040/07 RMK AO2 P0000
14840KMKG MKG20060227094512902/27/06 09:45:31  5-MIN KMKG 271445Z 04007KT 2SM -SN BKN014 OVC044 M04/M08 A3011 460 78 -1700 040/07 RMK AO2 SFC VIS 2 1/2 P0000
14840KMKG MKG20060227095015802/27/06 09:50:31  5-MIN KMKG 271450Z 05008KT 2SM -SN BKN014 OVC046 M04/M08 A3010 460 78 -1700 050/08 RMK AO2 SFC VIS 2 1/2 SLP204 P0000 60001 T10441078 55002
14840KMKG MKG20060227095515802/27/06 09:55:31  5-MIN KMKG 271455Z 04006KT 2SM -SN BKN014 OVC048 M04/M07 A3010 460 81 -1700 050/06 RMK AO2 SFC VIS 2 1/2 SLP203 P0000 60001 T10441072 50002
14840KMKG MKG20060227100012502/27/06 10:00:31  5-MIN KMKG 271500Z 04006KT 2SM -SN SCT014 OVC048 M04/M08 A3010 460 74 -1700 040/06 RMK AO2 SFC VIS 3 P0000
14840KMKG MKG20060227100513202/27/06 10:05:31  5-MIN KMKG 271505Z 04007KT 2SM -SN SCT016 BKN045 OVC050 M04/M08 A3010 470 78 -1700 040/07 RMK AO2 SFC VIS 3 P0000
14840KMKG MKG20060227101012502/27/06 10:10:31  5-MIN KMKG 271510Z 03007KT 2SM -SN FEW016 OVC048 M04/M08 A3010 460 78 -1700 030/07 RMK AO2 SFC VIS 4 P0000
14840KMKG MKG20060227101512502/27/06 10:15:31  5-MIN KMKG 271515Z 04009KT 2SM -SN FEW016 OVC048 M04/M08 A3010 470 74 -1700 050/09 RMK AO2 SFC VIS 4 P0000
14840KMKG MKG20060227102010802/27/06 10:20:31  5-MIN KMKG 271520Z 04005KT 4SM -SN OVC048 M04/M08 A3010 470 71 -1700 040/05 RMK AO2 P0000
14840KMKG MKG20060227102511502/27/06 10:25:31  5-MIN KMKG 271525Z 05006KT 4SM -SN BKN048 OVC060 M04/M08 A3009 470 74 -1700 050/06 RMK AO2 P0000
14840KMKG MKG20060227103011502/27/06 10:30:31  5-MIN KMKG 271530Z 04004KT 4SM -SN BKN050 OVC060 M04/M08 A3009 470 74 -1600 040/04 RMK AO2 P0000
14840KMKG MKG20060227103512202/27/06 10:35:31  5-MIN KMKG 271535Z 05004KT 5SM -SN BKN050 BKN060 OVC095 M04/M08 A3009 470 74 -1600 060/04 RMK AO2 P0000
14840KMKG MKG20060227104011702/27/06 10:40:31  5-MIN KMKG 271540Z 04004KT 7SM BKN055 OVC095 M03/M08 A3009 470 71 -1600 040/04 RMK AO2 SNE38 P0000
14840KMKG MKG20060227104511802/27/06 10:45:31  5-MIN KMKG 271545Z 03006KT 10SM BKN055 OVC095 M04/M08 A3009 480 71 -1600 030/06 RMK AO2 SNE38 P0000
14840KMKG MKG20060227105015002/27/06 10:50:31  5-MIN KMKG 271550Z 04004KT 10SM BKN060 OVC100 M04/M08 A3009 480 71 -1600 040/04 RMK AO2 SNE38 CIG 050 RWY 14 SLP197 P0000 T10391083
14840KMKG MKG20060227105515002/27/06 10:55:31  5-MIN KMKG 271555Z 06005KT 10SM BKN060 OVC100 M03/M08 A3009 480 71 -1600 060/05 RMK AO2 SNE38 CIG 050 RWY 14 SLP197 P0000 T10331078
14840KMKG MKG20060227110012102/27/06 11:00:31  5-MIN KMKG 271600Z VRB03KT 10SM BKN060 OVC095 M04/M08 A3008 480 74 -1600 VRB/03 RMK AO2 CIG 050 RWY 14
14840KMKG MKG20060227110512102/27/06 11:05:31  5-MIN KMKG 271605Z 04006KT 10SM BKN060 OVC100 M03/M08 A3008 480 68 -1600 040/06 RMK AO2 CIG 050 RWY 14
14840KMKG MKG20060227111010602/27/06 11:10:31  5-MIN KMKG 271610Z 03004KT 10SM BKN060 OVC100 M03/M08 A3008 480 68 -1600 040/04 RMK AO2
14840KMKG MKG20060227111511302/27/06 11:15:31  5-MIN KMKG 271615Z 05003KT 10SM BKN060 BKN070 OVC100 M03/M09 A3008 480 65 -1600 050/03 RMK AO2
14840KMKG MKG20060227112012802/27/06 11:20:31  5-MIN KMKG 271620Z 00000KT 10SM BKN060 BKN070 OVC095 M03/M09 A3008 490 65 -1600 000/00 RMK AO2 CIG 050 RWY 14
14840KMKG MKG20060227112510602/27/06 11:25:31  5-MIN KMKG 271625Z 33003KT 10SM BKN060 OVC095 M03/M08 A3007 490 68 -1600 340/03 RMK AO2
14840KMKG MKG20060227113012802/27/06 11:30:31  5-MIN KMKG 271630Z 00000KT 10SM FEW055 SCT070 OVC090 M03/M08 A3007 490 68 -1600 000/00 RMK AO2 CIG 060 RWY 14
14840KMKG MKG20060227113512802/27/06 11:35:31  5-MIN KMKG 271635Z 04005KT 10SM SCT055 BKN080 OVC090 M03/M09 A3007 490 63 -1500 040/05 RMK AO2 CIG 060 RWY 14
14840KMKG MKG20060227114012802/27/06 11:40:31  5-MIN KMKG 271640Z 05003KT 10SM SCT055 SCT070 OVC085 M03/M09 A3007 490 63 -1500 050/03 RMK AO2 CIG 060 RWY 14
14840KMKG MKG20060227114511302/27/06 11:45:31  5-MIN KMKG 271645Z VRB03KT 10SM FEW055 BKN080 OVC090 M03/M09 A3007 490 63 -1500 VRB/03 RMK AO2
14840KMKG MKG20060227115012302/27/06 11:50:31  5-MIN KMKG 271650Z VRB03KT 10SM BKN080 OVC090 M02/M09 A3007 490 60 -1400 VRB/03 RMK AO2 SLP191 T10221089
14840KMKG MKG20060227115512302/27/06 11:55:31  5-MIN KMKG 271655Z VRB04KT 10SM FEW060 OVC090 M03/M08 A3007 490 66 -1500 VRB/04 RMK AO2 SLP191 T10281083
14840KMKG MKG20060227120012802/27/06 12:00:31  5-MIN KMKG 271700Z 34005KT 10SM SCT060 BKN080 OVC095 M03/M09 A3007 490 63 -1500 340/05 RMK AO2 CIG 060 RWY 14
14840KMKG MKG20060227120511302/27/06 12:05:31  5-MIN KMKG 271705Z 32004KT 10SM SCT060 BKN080 OVC095 M03/M09 A3007 490 63 -1500 320/04 RMK AO2
14840KMKG MKG20060227121012802/27/06 12:10:31  5-MIN KMKG 271710Z 36003KT 10SM SCT065 BKN080 OVC095 M03/M09 A3007 500 65 -1600 360/03 RMK AO2 CIG 065 RWY 14
14840KMKG MKG20060227121512802/27/06 12:15:31  5-MIN KMKG 271715Z 04005KT 10SM SCT060 BKN080 OVC095 M02/M08 A3006 500 63 -1400 040/05 RMK AO2 CIG 060 RWY 14
14840KMKG MKG20060227122012802/27/06 12:20:31  5-MIN KMKG 271720Z VRB03KT 10SM SCT060 BKN075 OVC095 M02/M08 A3006 500 63 -1400 VRB/03 RMK AO2 CIG 060 RWY 14
14840KMKG MKG20060227122511302/27/06 12:25:31  5-MIN KMKG 271725Z 02004KT 10SM BKN065 BKN080 OVC095 M02/M08 A3006 500 63 -1400 020/04 RMK AO2
14840KMKG MKG20060227123011302/27/06 12:30:31  5-MIN KMKG 271730Z VRB03KT 10SM BKN070 BKN080 OVC090 M02/M08 A3006 500 63 -1400 VRB/03 RMK AO2
14840KMKG MKG20060227123510602/27/06 12:35:31  5-MIN KMKG 271735Z 04006KT 10SM BKN065 OVC090 M02/M08 A3006 510 60 -1300 050/06 RMK AO2
14840KMKG MKG20060227124010602/27/06 12:40:31  5-MIN KMKG 271740Z VRB03KT 10SM BKN065 OVC090 M02/M09 A3005 510 60 -1400 VRB/03 RMK AO2
14840KMKG MKG20060227124512102/27/06 12:45:31  5-MIN KMKG 271745Z 03004KT 10SM BKN065 OVC090 M02/M09 A3005 510 58 -1300 040/04 RMK AO2 CIG 050 RWY 14
14840KMKG MKG20060227125016202/27/06 12:50:31  5-MIN KMKG 271750Z 00000KT 10SM BKN065 OVC090 M02/M09 A3005 510 60 -1400 000/00 RMK AO2 CIG 048 RWY 14 SLP184 60001 T10221089 11017 21044 50002
14840KMKG MKG20060227125516202/27/06 12:55:31  5-MIN KMKG 271755Z 31005KT 10SM BKN070 OVC090 M02/M09 A3005 510 58 -1300 310/05 RMK AO2 CIG 050 RWY 14 SLP183 60001 T10171089 11017 21044 58019
14840KMKG MKG20060227130012102/27/06 13:00:31  5-MIN KMKG 271800Z 35004KT 10SM BKN065 OVC090 M02/M09 A3004 520 60 -1400 350/04 RMK AO2 CIG 050 RWY 14
14840KMKG MKG20060227130512802/27/06 13:05:31  5-MIN KMKG 271805Z 34004KT 10SM FEW039 SCT060 OVC090 M02/M09 A3004 520 58 -1400 340/04 RMK AO2 CIG 050 RWY 14
14840KMKG MKG20060227131012802/27/06 13:10:31  5-MIN KMKG 271810Z 36005KT 10SM FEW039 BKN080 OVC090 M02/M09 A3004 520 58 -1300 360/05 RMK AO2 CIG 047 RWY 14
14840KMKG MKG20060227131512802/27/06 13:15:31  5-MIN KMKG 271815Z 35006KT 10SM FEW037 BKN080 OVC095 M02/M09 A3004 520 55 -1300 350/06 RMK AO2 CIG 049 RWY 14
14840KMKG MKG20060227132012802/27/06 13:20:31  5-MIN KMKG 271820Z 33005KT 10SM FEW037 SCT065 OVC080 M02/M09 A3004 520 55 -1300 340/05 RMK AO2 CIG 055 RWY 14
14840KMKG MKG20060227132512802/27/06 13:25:31  5-MIN KMKG 271825Z 31005KT 10SM FEW037 SCT060 OVC080 M02/M10 A3004 520 55 -1400 310/05 RMK AO2 CIG 055 RWY 14
14840KMKG MKG20060227133012802/27/06 13:30:31  5-MIN KMKG 271830Z 33004KT 10SM FEW037 BKN060 OVC090 M02/M10 A3004 520 55 -1400 330/04 RMK AO2 CIG 050 RWY 14
14840KMKG MKG20060227133511302/27/06 13:35:31  5-MIN KMKG 271835Z 31003KT 10SM FEW037 BKN055 OVC080 M02/M10 A3004 520 53 -1300 310/03 RMK AO2
14840KMKG MKG20060227134011302/27/06 13:40:31  5-MIN KMKG 271840Z 33006KT 10SM FEW040 BKN055 OVC080 M02/M09 A3004 520 55 -1300 340/06 RMK AO2
14840KMKG MKG20060227134511302/27/06 13:45:31  5-MIN KMKG 271845Z 35007KT 10SM FEW040 BKN060 OVC080 M02/M10 A3004 520 53 -1300 360/07 RMK AO2
14840KMKG MKG20060227135011602/27/06 13:50:31  5-MIN KMKG 271850Z 35006KT 10SM OVC060 M02/M11 A3004 520 51 -1300 360/06 RMK AO2 SLP179 T10171106
14840KMKG MKG20060227135512302/27/06 13:55:31  5-MIN KMKG 271855Z 35004KT 10SM FEW041 OVC060 M02/M11 A3004 520 51 -1300 360/04 RMK AO2 SLP178 T10171106
14840KMKG MKG20060227140009902/27/06 14:00:31  5-MIN KMKG 271900Z 35003KT 10SM OVC060 M02/M11 A3003 530 49 -1300 350/03 RMK AO2
14840KMKG MKG20060227140509902/27/06 14:05:31  5-MIN KMKG 271905Z 34008KT 10SM OVC060 M02/M11 A3003 530 51 -1300 350/08 RMK AO2
14840KMKG MKG20060227141010602/27/06 14:10:31  5-MIN KMKG 271910Z 33007KT 10SM FEW040 OVC060 M01/M10 A3003 530 51 -1200 330/07 RMK AO2
14840KMKG MKG20060227141510602/27/06 14:15:31  5-MIN KMKG 271915Z 35005KT 10SM FEW040 OVC055 M02/M11 A3003 530 51 -1300 360/05 RMK AO2
14840KMKG MKG20060227142012102/27/06 14:20:31  5-MIN KMKG 271920Z VRB03KT 10SM FEW040 OVC060 M01/M11 A3002 540 49 -1200 VRB/03 RMK AO2 CIG 050 RWY 14
14840KMKG MKG20060227142510602/27/06 14:25:31  5-MIN KMKG 271925Z 28003KT 10SM FEW040 OVC060 M02/M11 A3002 530 51 -1300 280/03 RMK AO2
14840KMKG MKG20060227143010602/27/06 14:30:31  5-MIN KMKG 271930Z 31005KT 10SM FEW040 OVC065 M02/M10 A3002 540 53 -1300 310/05 RMK AO2
14840KMKG MKG20060227143510602/27/06 14:35:31  5-MIN KMKG 271935Z 33007KT 10SM FEW040 OVC065 M01/M11 A3002 540 49 -1200 340/07 RMK AO2
14840KMKG MKG20060227144009902/27/06 14:40:31  5-MIN KMKG 271940Z 33005KT 10SM BKN070 M01/M12 A3002 540 45 -1200 340/05 RMK AO2
14840KMKG MKG20060227144510602/27/06 14:45:31  5-MIN KMKG 271945Z 32004KT 10SM BKN070 OVC095 M02/M12 A3002 540 44 -1300 320/04 RMK AO2
14840KMKG MKG20060227145012302/27/06 14:50:31  5-MIN KMKG 271950Z 36010KT 10SM BKN070 OVC095 M01/M12 A3002 540 43 -1100 010/10 RMK AO2 SLP172 T10061117
14840KMKG MKG20060227145512302/27/06 14:55:31  5-MIN KMKG 271955Z 33006KT 10SM BKN070 OVC095 M01/M12 A3001 540 43 -1200 340/06 RMK AO2 SLP172 T10111122
14840KMKG MKG20060227150012102/27/06 15:00:31  5-MIN KMKG 272000Z 33009KT 10SM SCT070 OVC090 M01/M12 A3002 540 45 -1200 330/09 RMK AO2 CIG 075 RWY 14
14840KMKG MKG20060227150512102/27/06 15:05:31  5-MIN KMKG 272005Z 33006KT 10SM SCT075 OVC090 M01/M12 A3002 540 45 -1200 330/06 RMK AO2 CIG 075 RWY 14
14840KMKG MKG20060227151009902/27/06 15:10:31  5-MIN KMKG 272010Z 01007KT 10SM OVC090 M01/M12 A3002 540 43 -1200 010/07 RMK AO2
14840KMKG MKG20060227151509902/27/06 15:15:31  5-MIN KMKG 272015Z VRB03KT 10SM OVC085 M01/M13 A3002 540 41 -1200 VRB/03 RMK AO2
14840KMKG MKG20060227152009902/27/06 15:20:31  5-MIN KMKG 272020Z VRB04KT 10SM OVC085 M01/M12 A3002 540 43 -1200 VRB/04 RMK AO2
14840KMKG MKG20060227152510602/27/06 15:25:31  5-MIN KMKG 272025Z 32006KT 10SM BKN080 OVC090 M01/M12 A3001 540 43 -1200 330/06 RMK AO2
14840KMKG MKG20060227153010602/27/06 15:30:31  5-MIN KMKG 272030Z 33005KT 10SM BKN075 OVC090 M01/M12 A3002 540 43 -1200 340/05 RMK AO2
14840KMKG MKG20060227153510602/27/06 15:35:31  5-MIN KMKG 272035Z 34007KT 10SM BKN075 OVC090 M01/M12 A3002 540 43 -1200 350/07 RMK AO2
14840KMKG MKG20060227154009902/27/06 15:40:31  5-MIN KMKG 272040Z 36006KT 10SM OVC075 M01/M12 A3002 540 43 -1200 360/06 RMK AO2
14840KMKG MKG20060227154509902/27/06 15:45:31  5-MIN KMKG 272045Z VRB05KT 10SM OVC075 M01/M12 A3002 540 43 -1200 VRB/05 RMK AO2
14840KMKG MKG20060227155012202/27/06 15:50:31  5-MIN KMKG 272050Z 36004KT 10SM OVC075 M01/M13 A3002 540 41 -1200 360/04 RMK AO2 SLP175 T10111128 58019
14840KMKG MKG20060227155512202/27/06 15:55:31  5-MIN KMKG 272055Z 35006KT 10SM OVC075 M01/M12 A3003 530 43 -1200 350/06 RMK AO2 SLP176 T10111122 55006
14840KMKG MKG20060227160009902/27/06 16:00:31  5-MIN KMKG 272100Z 01005KT 10SM OVC075 M01/M12 A3003 530 43 -1200 010/05 RMK AO2
14840KMKG MKG20060227160509902/27/06 16:05:31  5-MIN KMKG 272105Z VRB05KT 10SM OVC075 M01/M12 A3002 540 43 -1200 VRB/05 RMK AO2
14840KMKG MKG20060227161010602/27/06 16:10:31  5-MIN KMKG 272110Z 36008KT 10SM BKN075 OVC100 M01/M13 A3002 540 41 -1200 360/08 RMK AO2
14840KMKG MKG20060227161510602/27/06 16:15:31  5-MIN KMKG 272115Z 36004KT 10SM BKN075 OVC100 M01/M12 A3002 540 43 -1200 360/04 RMK AO2
14840KMKG MKG20060227162010602/27/06 16:20:31  5-MIN KMKG 272120Z 35005KT 10SM SCT075 OVC100 M01/M12 A3002 540 43 -1200 360/05 RMK AO2
14840KMKG MKG20060227162510602/27/06 16:25:31  5-MIN KMKG 272125Z 04004KT 10SM SCT075 OVC100 M01/M13 A3002 540 41 -1200 050/04 RMK AO2
14840KMKG MKG20060227163010602/27/06 16:30:31  5-MIN KMKG 272130Z 03007KT 10SM FEW075 OVC100 M01/M12 A3002 540 43 -1200 030/07 RMK AO2
14840KMKG MKG20060227163510602/27/06 16:35:31  5-MIN KMKG 272135Z 03007KT 10SM FEW075 OVC100 M01/M12 A3002 540 43 -1200 040/07 RMK AO2
14840KMKG MKG20060227164010602/27/06 16:40:31  5-MIN KMKG 272140Z 04008KT 10SM FEW070 OVC100 M01/M12 A3002 540 43 -1200 040/08 RMK AO2
14840KMKG MKG20060227164510602/27/06 16:45:31  5-MIN KMKG 272145Z 02006KT 10SM FEW075 OVC095 M01/M12 A3002 540 43 -1200 030/06 RMK AO2
14840KMKG MKG20060227165013002/27/06 16:50:31  5-MIN KMKG 272150Z 36006KT 10SM FEW075 BKN090 OVC100 M01/M12 A3002 530 43 -1200 010/06 RMK AO2 SLP176 T10111122
14840KMKG MKG20060227165512302/27/06 16:55:31  5-MIN KMKG 272155Z 36008KT 10SM FEW070 OVC090 M02/M12 A3003 530 44 -1300 360/08 RMK AO2 SLP176 T10171122
14840KMKG MKG20060227170010602/27/06 17:00:31  5-MIN KMKG 272200Z 02006KT 10SM FEW070 OVC085 M02/M13 A3003 530 42 -1300 020/06 RMK AO2
14840KMKG MKG20060227170509902/27/06 17:05:31  5-MIN KMKG 272205Z 01007KT 10SM OVC085 M02/M13 A3003 530 42 -1300 020/07 RMK AO2
14840KMKG MKG20060227171009902/27/06 17:10:31  5-MIN KMKG 272210Z 02006KT 10SM OVC090 M02/M12 A3003 530 44 -1300 020/06 RMK AO2
14840KMKG MKG20060227171509902/27/06 17:15:31  5-MIN KMKG 272215Z 04007KT 10SM OVC090 M02/M12 A3003 530 44 -1300 040/07 RMK AO2
14840KMKG MKG20060227172009902/27/06 17:20:31  5-MIN KMKG 272220Z 36007KT 10SM OVC090 M02/M12 A3003 530 44 -1300 360/07 RMK AO2
14840KMKG MKG20060227172509902/27/06 17:25:31  5-MIN KMKG 272225Z 02007KT 10SM OVC090 M02/M12 A3003 530 44 -1300 020/07 RMK AO2
14840KMKG MKG20060227173009902/27/06 17:30:31  5-MIN KMKG 272230Z 01008KT 10SM OVC095 M02/M12 A3003 530 44 -1300 010/08 RMK AO2
14840KMKG MKG20060227173509902/27/06 17:35:31  5-MIN KMKG 272235Z 01008KT 10SM OVC095 M02/M13 A3003 530 42 -1300 020/08 RMK AO2
14840KMKG MKG20060227174009902/27/06 17:40:31  5-MIN KMKG 272240Z 02007KT 10SM OVC100 M02/M13 A3003 530 44 -1400 020/07 RMK AO2
14840KMKG MKG20060227174509902/27/06 17:45:31  5-MIN KMKG 272245Z 02007KT 10SM OVC095 M02/M12 A3003 530 46 -1400 020/07 RMK AO2
14840KMKG MKG20060227175011602/27/06 17:50:31  5-MIN KMKG 272250Z 36007KT 10SM BKN095 M02/M12 A3003 530 46 -1400 360/07 RMK AO2 SLP178 T10221122
14840KMKG MKG20060227175511602/27/06 17:55:31  5-MIN KMKG 272255Z 02007KT 10SM BKN095 M02/M12 A3003 530 46 -1400 020/07 RMK AO2 SLP178 T10221122
14840KMKG MKG20060227180009902/27/06 18:00:31  5-MIN KMKG 272300Z 01007KT 10SM BKN095 M02/M12 A3003 530 46 -1400 020/07 RMK AO2
14840KMKG MKG20060227180509902/27/06 18:05:31  5-MIN KMKG 272305Z 01009KT 10SM BKN095 M02/M12 A3004 520 46 -1400 020/09 RMK AO2
14840KMKG MKG20060227181009902/27/06 18:10:31  5-MIN KMKG 272310Z 02008KT 10SM BKN095 M03/M13 A3004 520 46 -1400 020/08 RMK AO2
14840KMKG MKG20060227181509902/27/06 18:15:31  5-MIN KMKG 272315Z 01010KT 10SM BKN095 M03/M13 A3004 520 46 -1400 020/10 RMK AO2
14840KMKG MKG20060227182009902/27/06 18:20:31  5-MIN KMKG 272320Z 36007KT 10SM BKN095 M03/M13 A3004 520 46 -1400 010/07 RMK AO2
14840KMKG MKG20060227182509902/27/06 18:25:31  5-MIN KMKG 272325Z 36006KT 10SM BKN095 M03/M12 A3004 520 48 -1400 360/06 RMK AO2
14840KMKG MKG20060227183009902/27/06 18:30:31  5-MIN KMKG 272330Z 36008KT 10SM OVC095 M03/M12 A3004 520 50 -1500 010/08 RMK AO2
14840KMKG MKG20060227183509902/27/06 18:35:31  5-MIN KMKG 272335Z 36006KT 10SM OVC090 M03/M12 A3004 520 50 -1500 010/06 RMK AO2
14840KMKG MKG20060227184009902/27/06 18:40:31  5-MIN KMKG 272340Z 36008KT 10SM BKN090 M03/M12 A3004 520 50 -1500 010/08 RMK AO2
14840KMKG MKG20060227184509902/27/06 18:45:31  5-MIN KMKG 272345Z 36007KT 10SM BKN090 M03/M12 A3004 520 50 -1500 360/07 RMK AO2
14840KMKG MKG20060227185013402/27/06 18:50:31  5-MIN KMKG 272350Z 01006KT 10SM BKN090 M03/M12 A3004 520 50 -1500 010/06 RMK AO2 SLP183 T10331122 11006 21033 55006
14840KMKG MKG20060227185513402/27/06 18:55:31  5-MIN KMKG 272355Z 01008KT 10SM SCT090 M03/M13 A3004 520 48 -1500 020/08 RMK AO2 SLP183 T10331128 11006 21033 53005
14840KMKG MKG20060227200009602/27/06 20:00:31  5-MIN KMKG 280100Z 36009KT 10SM CLR M04/M13 A3007 490 52 -1700 010/09 RMK AO2
14840KMKG MKG20060227200509602/27/06 20:05:31  5-MIN KMKG 280105Z 36008KT 10SM CLR M04/M13 A3007 490 52 -1700 360/08 RMK AO2
14840KMKG MKG20060227201009602/27/06 20:10:31  5-MIN KMKG 280110Z 36008KT 10SM CLR M04/M13 A3007 490 52 -1700 360/08 RMK AO2
14840KMKG MKG20060227201509602/27/06 20:15:31  5-MIN KMKG 280115Z 36008KT 10SM CLR M04/M13 A3007 490 52 -1700 010/08 RMK AO2
14840KMKG MKG20060227202009602/27/06 20:20:31  5-MIN KMKG 280120Z 01008KT 10SM CLR M04/M13 A3007 490 52 -1700 010/08 RMK AO2
14840KMKG MKG20060227202509602/27/06 20:25:31  5-MIN KMKG 280125Z 01008KT 10SM CLR M05/M13 A3007 490 55 -1800 010/08 RMK AO2
14840KMKG MKG20060227203009602/27/06 20:30:31  5-MIN KMKG 280130Z 01010KT 10SM CLR M05/M13 A3007 490 55 -1800 010/10 RMK AO2
14840KMKG MKG20060227203509602/27/06 20:35:31  5-MIN KMKG 280135Z 01010KT 10SM CLR M05/M13 A3007 490 55 -1800 010/10 RMK AO2
14840KMKG MKG20060227204009602/27/06 20:40:31  5-MIN KMKG 280140Z 36009KT 10SM CLR M05/M13 A3007 490 55 -1800 010/09 RMK AO2
14840KMKG MKG20060227204509602/27/06 20:45:31  5-MIN KMKG 280145Z 01008KT 10SM CLR M05/M13 A3007 490 55 -1800 020/08 RMK AO2
14840KMKG MKG20060227205011302/27/06 20:50:31  5-MIN KMKG 280150Z 01010KT 10SM CLR M06/M13 A3008 480 57 -1900 020/10 RMK AO2 SLP195 T10561128
14840KMKG MKG20060227205511302/27/06 20:55:31  5-MIN KMKG 280155Z 01010KT 10SM CLR M06/M13 A3008 480 57 -1900 020/10 RMK AO2 SLP195 T10561128
14840KMKG MKG20060227210009602/27/06 21:00:31  5-MIN KMKG 280200Z 01009KT 10SM CLR M06/M13 A3008 480 57 -1900 010/09 RMK AO2
14840KMKG MKG20060227210509602/27/06 21:05:31  5-MIN KMKG 280205Z 01009KT 10SM CLR M06/M13 A3008 480 57 -1900 010/09 RMK AO2
14840KMKG MKG20060227211009602/27/06 21:10:31  5-MIN KMKG 280210Z 01010KT 10SM CLR M06/M13 A3008 480 57 -1900 020/10 RMK AO2
14840KMKG MKG20060227211509602/27/06 21:15:31  5-MIN KMKG 280215Z 01009KT 10SM CLR M06/M13 A3008 480 57 -1900 020/09 RMK AO2
14840KMKG MKG20060227212009602/27/06 21:20:31  5-MIN KMKG 280220Z 36010KT 10SM CLR M06/M13 A3008 480 57 -1900 010/10 RMK AO2
14840KMKG MKG20060227212509602/27/06 21:25:31  5-MIN KMKG 280225Z 01009KT 10SM CLR M06/M13 A3009 480 59 -1900 010/09 RMK AO2
14840KMKG MKG20060227213009602/27/06 21:30:31  5-MIN KMKG 280230Z 01007KT 10SM CLR M06/M13 A3009 480 59 -1900 010/07 RMK AO2
14840KMKG MKG20060227213509602/27/06 21:35:31  5-MIN KMKG 280235Z 01010KT 10SM CLR M06/M13 A3009 480 59 -1900 010/10 RMK AO2
14840KMKG MKG20060227214009602/27/06 21:40:31  5-MIN KMKG 280240Z 36007KT 10SM CLR M06/M13 A3009 470 59 -1900 010/07 RMK AO2
14840KMKG MKG20060227214509602/27/06 21:45:31  5-MIN KMKG 280245Z 01009KT 10SM CLR M06/M13 A3009 470 59 -1900 010/09 RMK AO2
14840KMKG MKG20060227215011902/27/06 21:50:31  5-MIN KMKG 280250Z 01008KT 10SM CLR M06/M13 A3009 470 59 -1900 020/08 RMK AO2 SLP200 T10611128 53005
14840KMKG MKG20060227215511902/27/06 21:55:31  5-MIN KMKG 280255Z 02007KT 10SM CLR M06/M13 A3009 470 59 -1900 030/07 RMK AO2 SLP199 T10611128 51016
14840KMKG MKG20060227220009602/27/06 22:00:31  5-MIN KMKG 280300Z 02008KT 10SM CLR M06/M13 A3009 470 59 -1900 020/08 RMK AO2
14840KMKG MKG20060227220509602/27/06 22:05:31  5-MIN KMKG 280305Z 02008KT 10SM CLR M06/M13 A3009 470 59 -1900 020/08 RMK AO2
14840KMKG MKG20060227221009602/27/06 22:10:31  5-MIN KMKG 280310Z 02008KT 10SM CLR M06/M13 A3009 470 59 -1900 030/08 RMK AO2
14840KMKG MKG20060227221509602/27/06 22:15:31  5-MIN KMKG 280315Z 02008KT 10SM CLR M07/M13 A3010 470 62 -2000 030/08 RMK AO2
14840KMKG MKG20060227222009602/27/06 22:20:31  5-MIN KMKG 280320Z 03007KT 10SM CLR M06/M13 A3009 470 59 -1900 030/07 RMK AO2
14840KMKG MKG20060227222509602/27/06 22:25:31  5-MIN KMKG 280325Z 03008KT 10SM CLR M07/M13 A3009 470 62 -2000 030/08 RMK AO2
14840KMKG MKG20060227223009602/27/06 22:30:31  5-MIN KMKG 280330Z 02008KT 10SM CLR M07/M13 A3009 470 62 -2000 030/08 RMK AO2
14840KMKG MKG20060227223509602/27/06 22:35:31  5-MIN KMKG 280335Z 03007KT 10SM CLR M07/M13 A3009 470 59 -2000 030/07 RMK AO2
14840KMKG MKG20060227224009602/27/06 22:40:31  5-MIN KMKG 280340Z 03007KT 10SM CLR M07/M13 A3009 480 59 -2000 030/07 RMK AO2
14840KMKG MKG20060227224509602/27/06 22:45:31  5-MIN KMKG 280345Z 03006KT 10SM CLR M07/M13 A3009 480 59 -2000 040/06 RMK AO2
14840KMKG MKG20060227225011302/27/06 22:50:31  5-MIN KMKG 280350Z 03007KT 10SM CLR M07/M13 A3009 470 59 -2000 040/07 RMK AO2 SLP199 T10671133
14840KMKG MKG20060227225511302/27/06 22:55:31  5-MIN KMKG 280355Z 03007KT 10SM CLR M07/M13 A3009 480 59 -2000 040/07 RMK AO2 SLP198 T10671133
14840KMKG MKG20060227230009602/27/06 23:00:31  5-MIN KMKG 280400Z 04007KT 10SM CLR M07/M13 A3008 480 59 -2000 050/07 RMK AO2
14840KMKG MKG20060227230509602/27/06 23:05:31  5-MIN KMKG 280405Z 05005KT 10SM CLR M07/M13 A3008 480 59 -2000 050/05 RMK AO2
14840KMKG MKG20060227231009602/27/06 23:10:31  5-MIN KMKG 280410Z 04005KT 10SM CLR M07/M13 A3008 480 59 -2000 050/05 RMK AO2
14840KMKG MKG20060227231509602/27/06 23:15:31  5-MIN KMKG 280415Z 04005KT 10SM CLR M07/M13 A3008 480 59 -2000 050/05 RMK AO2
14840KMKG MKG20060227232009602/27/06 23:20:31  5-MIN KMKG 280420Z 05005KT 10SM CLR M07/M13 A3008 480 59 -2000 050/05 RMK AO2
14840KMKG MKG20060227232509602/27/06 23:25:31  5-MIN KMKG 280425Z 06003KT 10SM CLR M07/M13 A3008 480 62 -2100 060/03 RMK AO2
14840KMKG MKG20060227233009602/27/06 23:30:31  5-MIN KMKG 280430Z 06003KT 10SM CLR M07/M13 A3008 490 62 -2100 060/03 RMK AO2
14840KMKG MKG20060227233509602/27/06 23:35:31  5-MIN KMKG 280435Z 06005KT 10SM CLR M07/M13 A3008 490 62 -2100 060/05 RMK AO2
14840KMKG MKG20060227234009602/27/06 23:40:31  5-MIN KMKG 280440Z 06004KT 10SM CLR M07/M13 A3008 480 62 -2100 060/04 RMK AO2
14840KMKG MKG20060227234509602/27/06 23:45:31  5-MIN KMKG 280445Z 07004KT 10SM CLR M07/M13 A3008 480 62 -2100 070/04 RMK AO2
14840KMKG MKG20060227235012302/27/06 23:50:31  5-MIN KMKG 280450Z 06003KT 10SM CLR M07/M13 A3008 480 62 -2100 060/03 RMK AO2 SLP195 T10721133 400001072
14840KMKG MKG20060227235512302/27/06 23:55:31  5-MIN KMKG 280455Z 06003KT 10SM CLR M07/M13 A3008 480 62 -2100 070/03 RMK AO2 SLP196 T10721133 400001072
14840KMKG MKG20060228000009602/28/06 00:00:32  5-MIN KMKG 280500Z 06003KT 10SM CLR M07/M13 A3008 480 62 -2100 060/03 RMK AO2
14840KMKG MKG20060228000509602/28/06 00:05:31  5-MIN KMKG 280505Z 06003KT 10SM CLR M07/M13 A3009 480 62 -2100 060/03 RMK AO2
14840KMKG MKG20060228001009602/28/06 00:10:31  5-MIN KMKG 280510Z 00000KT 10SM CLR M07/M13 A3009 480 65 -2100 000/00 RMK AO2
14840KMKG MKG20060228001509602/28/06 00:15:31  5-MIN KMKG 280515Z 00000KT 10SM CLR M07/M13 A3008 480 62 -2100 000/00 RMK AO2
14840KMKG MKG20060228002009602/28/06 00:20:31  5-MIN KMKG 280520Z 00000KT 10SM CLR M07/M13 A3008 480 62 -2100 000/00 RMK AO2
14840KMKG MKG20060228002509602/28/06 00:25:31  5-MIN KMKG 280525Z 00000KT 10SM CLR M08/M13 A3008 480 64 -2100 000/00 RMK AO2
14840KMKG MKG20060228003009602/28/06 00:30:31  5-MIN KMKG 280530Z 00000KT 10SM CLR M07/M13 A3008 480 62 -2100 000/00 RMK AO2
14840KMKG MKG20060228003509602/28/06 00:35:31  5-MIN KMKG 280535Z 00000KT 10SM CLR M07/M13 A3008 480 62 -2100 000/00 RMK AO2
14840KMKG MKG20060228004009602/28/06 00:40:31  5-MIN KMKG 280540Z 00000KT 10SM CLR M08/M13 A3008 480 64 -2100 000/00 RMK AO2
14840KMKG MKG20060228004509602/28/06 00:45:31  5-MIN KMKG 280545Z 00000KT 10SM CLR M08/M13 A3008 480 64 -2100 000/00 RMK AO2
14840KMKG MKG20060228005013102/28/06 00:50:31  5-MIN KMKG 280550Z 00000KT 10SM CLR M08/M13 A3009 480 64 -2100 000/00 RMK AO2 SLP198 T10781133 11039 21078 51016
14840KMKG MKG20060228005513102/28/06 00:55:31  5-MIN KMKG 280555Z 00000KT 10SM CLR M08/M13 A3009 480 64 -2100 000/00 RMK AO2 SLP198 T10781133 11039 21078 55001
14840KMKG MKG20060228010009602/28/06 01:00:31  5-MIN KMKG 280600Z 00000KT 10SM CLR M08/M13 A3009 480 67 -2100 000/00 RMK AO2
14840KMKG MKG20060228010509602/28/06 01:05:31  5-MIN KMKG 280605Z 00000KT 10SM CLR M08/M12 A3008 480 74 -2200 000/00 RMK AO2
14840KMKG MKG20060228011009602/28/06 01:10:31  5-MIN KMKG 280610Z 00000KT 10SM CLR M08/M12 A3008 480 74 -2200 000/00 RMK AO2
14840KMKG MKG20060228011509602/28/06 01:15:31  5-MIN KMKG 280615Z 00000KT 10SM CLR M08/M12 A3009 480 74 -2200 000/00 RMK AO2
14840KMKG MKG20060228012009602/28/06 01:20:31  5-MIN KMKG 280620Z 00000KT 10SM CLR M09/M12 A3008 480 77 -2300 000/00 RMK AO2
14840KMKG MKG20060228012509602/28/06 01:25:31  5-MIN KMKG 280625Z 00000KT 10SM CLR M09/M12 A3009 480 77 -2300 000/00 RMK AO2
14840KMKG MKG20060228013009602/28/06 01:30:31  5-MIN KMKG 280630Z 00000KT 10SM CLR M09/M12 A3009 480 77 -2300 000/00 RMK AO2
14840KMKG MKG20060228013509602/28/06 01:35:31  5-MIN KMKG 280635Z 00000KT 10SM CLR M09/M12 A3008 480 77 -2300 000/00 RMK AO2
14840KMKG MKG20060228014009602/28/06 01:40:31  5-MIN KMKG 280640Z 00000KT 10SM CLR M08/M12 A3008 480 74 -2200 000/00 RMK AO2
14840KMKG MKG20060228014509602/28/06 01:45:31  5-MIN KMKG 280645Z 00000KT 10SM CLR M08/M12 A3008 480 74 -2200 000/00 RMK AO2
14840KMKG MKG20060228015011302/28/06 01:50:31  5-MIN KMKG 280650Z 00000KT 10SM CLR M08/M12 A3008 490 74 -2200 000/00 RMK AO2 SLP195 T10831122
14840KMKG MKG20060228015511302/28/06 01:55:31  5-MIN KMKG 280655Z 00000KT 10SM CLR M08/M12 A3008 490 74 -2200 000/00 RMK AO2 SLP194 T10831122
14840KMKG MKG20060228020009602/28/06 02:00:31  5-MIN KMKG 280700Z 00000KT 10SM CLR M09/M12 A3008 490 77 -2300 000/00 RMK AO2
14840KMKG MKG20060228020509602/28/06 02:05:31  5-MIN KMKG 280705Z 00000KT 10SM CLR M09/M12 A3007 490 77 -2300 000/00 RMK AO2
14840KMKG MKG20060228021009602/28/06 02:10:31  5-MIN KMKG 280710Z 00000KT 10SM CLR M09/M12 A3007 490 77 -2300 000/00 RMK AO2
14840KMKG MKG20060228021509602/28/06 02:15:31  5-MIN KMKG 280715Z 00000KT 10SM CLR M09/M12 A3007 490 77 -2300 000/00 RMK AO2
14840KMKG MKG20060228022009602/28/06 02:20:31  5-MIN KMKG 280720Z 00000KT 10SM CLR M09/M13 A3007 490 74 -2300 000/00 RMK AO2
14840KMKG MKG20060228022509602/28/06 02:25:31  5-MIN KMKG 280725Z 00000KT 10SM CLR M09/M13 A3007 490 74 -2300 000/00 RMK AO2
14840KMKG MKG20060228023009602/28/06 02:30:31  5-MIN KMKG 280730Z 00000KT 10SM CLR M09/M13 A3007 490 74 -2300 000/00 RMK AO2
14840KMKG MKG20060228023509602/28/06 02:35:31  5-MIN KMKG 280735Z 00000KT 10SM CLR M09/M13 A3007 490 74 -2300 000/00 RMK AO2
14840KMKG MKG20060228024009602/28/06 02:40:31  5-MIN KMKG 280740Z 00000KT 10SM CLR M09/M12 A3007 490 77 -2300 000/00 RMK AO2
14840KMKG MKG20060228024509602/28/06 02:45:31  5-MIN KMKG 280745Z 00000KT 10SM CLR M09/M12 A3007 490 77 -2300 000/00 RMK AO2
14840KMKG MKG20060228025011302/28/06 02:50:31  5-MIN KMKG 280750Z 00000KT 10SM CLR M09/M12 A3007 490 80 -2300 000/00 RMK AO2 SLP193 T10941122
14840KMKG MKG20060228025511302/28/06 02:55:31  5-MIN KMKG 280755Z 00000KT 10SM CLR M09/M12 A3007 490 80 -2300 000/00 RMK AO2 SLP193 T10941122
14840KMKG MKG20060228030009602/28/06 03:00:31  5-MIN KMKG 280800Z 00000KT 10SM CLR M09/M12 A3007 490 77 -2300 000/00 RMK AO2
14840KMKG MKG20060228030509602/28/06 03:05:31  5-MIN KMKG 280805Z 00000KT 10SM CLR M09/M13 A3007 490 74 -2300 000/00 RMK AO2
14840KMKG MKG20060228031009602/28/06 03:10:31  5-MIN KMKG 280810Z 00000KT 10SM CLR M09/M12 A3007 490 77 -2300 000/00 RMK AO2
14840KMKG MKG20060228031509602/28/06 03:15:31  5-MIN KMKG 280815Z 00000KT 10SM CLR M09/M12 A3008 490 77 -2300 000/00 RMK AO2
14840KMKG MKG20060228032009602/28/06 03:20:31  5-MIN KMKG 280820Z 00000KT 10SM CLR M09/M12 A3008 480 80 -2400 000/00 RMK AO2
14840KMKG MKG20060228032509602/28/06 03:25:31  5-MIN KMKG 280825Z 00000KT 10SM CLR M09/M12 A3008 480 77 -2300 000/00 RMK AO2
14840KMKG MKG20060228033009602/28/06 03:30:31  5-MIN KMKG 280830Z 00000KT 10SM CLR M09/M12 A3008 480 77 -2300 000/00 RMK AO2
14840KMKG MKG20060228033509602/28/06 03:35:31  5-MIN KMKG 280835Z 00000KT 10SM CLR M09/M12 A3008 480 80 -2400 000/00 RMK AO2
14840KMKG MKG20060228034009602/28/06 03:40:31  5-MIN KMKG 280840Z 00000KT 10SM CLR M09/M12 A3008 490 80 -2400 000/00 RMK AO2
14840KMKG MKG20060228034509602/28/06 03:45:31  5-MIN KMKG 280845Z 00000KT 10SM CLR M09/M12 A3008 480 80 -2400 000/00 RMK AO2
14840KMKG MKG20060228035011902/28/06 03:50:31  5-MIN KMKG 280850Z 00000KT 10SM CLR M09/M12 A3008 480 77 -2300 000/00 RMK AO2 SLP195 T10891122 55001
14840KMKG MKG20060228035511902/28/06 03:55:31  5-MIN KMKG 280855Z 00000KT 10SM CLR M09/M12 A3008 490 77 -2300 000/00 RMK AO2 SLP195 T10891122 55003
14840KMKG MKG20060228040009602/28/06 04:00:31  5-MIN KMKG 280900Z 00000KT 10SM CLR M09/M12 A3008 480 77 -2300 000/00 RMK AO2
14840KMKG MKG20060228040509602/28/06 04:05:31  5-MIN KMKG 280905Z 00000KT 10SM CLR M09/M12 A3007 490 80 -2400 000/00 RMK AO2
14840KMKG MKG20060228041009602/28/06 04:10:31  5-MIN KMKG 280910Z 00000KT 10SM CLR M09/M12 A3007 490 80 -2300 000/00 RMK AO2
14840KMKG MKG20060228041509602/28/06 04:15:31  5-MIN KMKG 280915Z 09003KT 10SM CLR M10/M12 A3007 490 84 -2400 100/03 RMK AO2
14840KMKG MKG20060228042009602/28/06 04:20:31  5-MIN KMKG 280920Z 09003KT 10SM CLR M10/M12 A3007 490 84 -2400 090/03 RMK AO2
14840KMKG MKG20060228042509602/28/06 04:25:31  5-MIN KMKG 280925Z 00000KT 10SM CLR M09/M12 A3008 490 80 -2400 000/00 RMK AO2
14840KMKG MKG20060228043009602/28/06 04:30:31  5-MIN KMKG 280930Z 00000KT 10SM CLR M09/M12 A3008 490 80 -2400 000/00 RMK AO2
14840KMKG MKG20060228043509602/28/06 04:35:31  5-MIN KMKG 280935Z 00000KT 10SM CLR M09/M12 A3008 490 80 -2400 000/00 RMK AO2
14840KMKG MKG20060228044009602/28/06 04:40:31  5-MIN KMKG 280940Z 00000KT 10SM CLR M09/M12 A3008 480 80 -2400 000/00 RMK AO2
14840KMKG MKG20060228044509602/28/06 04:45:31  5-MIN KMKG 280945Z 00000KT 10SM CLR M09/M12 A3008 480 80 -2400 000/00 RMK AO2
14840KMKG MKG20060228045011302/28/06 04:50:31  5-MIN KMKG 280950Z 00000KT 10SM CLR M09/M12 A3008 480 80 -2400 000/00 RMK AO2 SLP196 T10941122
14840KMKG MKG20060228045511302/28/06 04:55:31  5-MIN KMKG 280955Z 00000KT 10SM CLR M09/M12 A3008 480 80 -2400 000/00 RMK AO2 SLP197 T10941122
14840KMKG MKG20060228050009602/28/06 05:00:31  5-MIN KMKG 281000Z 00000KT 10SM CLR M09/M12 A3009 480 80 -2400 000/00 RMK AO2
14840KMKG MKG20060228050509602/28/06 05:05:31  5-MIN KMKG 281005Z 00000KT 10SM CLR M09/M12 A3009 480 80 -2400 000/00 RMK AO2
14840KMKG MKG20060228051009602/28/06 05:10:31  5-MIN KMKG 281010Z 00000KT 10SM CLR M09/M12 A3009 470 80 -2400 000/00 RMK AO2
14840KMKG MKG20060228051509602/28/06 05:15:31  5-MIN KMKG 281015Z 00000KT 10SM CLR M09/M12 A3009 470 80 -2400 000/00 RMK AO2
14840KMKG MKG20060228052009602/28/06 05:20:31  5-MIN KMKG 281020Z 00000KT 10SM CLR M09/M12 A3010 470 80 -2400 000/00 RMK AO2
14840KMKG MKG20060228052509602/28/06 05:25:31  5-MIN KMKG 281025Z 00000KT 10SM CLR M09/M12 A3010 460 77 -2300 000/00 RMK AO2
14840KMKG MKG20060228053009602/28/06 05:30:31  5-MIN KMKG 281030Z 00000KT 10SM CLR M09/M12 A3010 460 77 -2300 000/00 RMK AO2
14840KMKG MKG20060228053509602/28/06 05:35:31  5-MIN KMKG 281035Z 00000KT 10SM CLR M09/M12 A3010 460 77 -2300 000/00 RMK AO2
14840KMKG MKG20060228054009602/28/06 05:40:31  5-MIN KMKG 281040Z 00000KT 10SM CLR M09/M12 A3010 460 77 -2300 000/00 RMK AO2
14840KMKG MKG20060228054509602/28/06 05:45:31  5-MIN KMKG 281045Z 00000KT 10SM CLR M09/M12 A3010 460 77 -2300 000/00 RMK AO2
14840KMKG MKG20060228055011302/28/06 05:50:31  5-MIN KMKG 281050Z 00000KT 10SM CLR M09/M12 A3011 460 77 -2300 000/00 RMK AO2 SLP206 T10891122
14840KMKG MKG20060228055511302/28/06 05:55:31  5-MIN KMKG 281055Z 00000KT 10SM CLR M09/M12 A3011 460 77 -2300 000/00 RMK AO2 SLP205 T10891122
14840KMKG MKG20060228060009602/28/06 06:00:31  5-MIN KMKG 281100Z 00000KT 10SM CLR M09/M12 A3011 460 77 -2300 000/00 RMK AO2
14840KMKG MKG20060228060509602/28/06 06:05:31  5-MIN KMKG 281105Z 00000KT 10SM CLR M09/M12 A3010 460 77 -2300 000/00 RMK AO2
14840KMKG MKG20060228061009602/28/06 06:10:31  5-MIN KMKG 281110Z 00000KT 10SM CLR M09/M12 A3011 460 80 -2400 000/00 RMK AO2
14840KMKG MKG20060228061509602/28/06 06:15:31  5-MIN KMKG 281115Z 00000KT 10SM CLR M09/M12 A3011 460 80 -2400 000/00 RMK AO2
14840KMKG MKG20060228062009602/28/06 06:20:31  5-MIN KMKG 281120Z 00000KT 10SM CLR M09/M12 A3011 460 84 -2400 000/00 RMK AO2
14840KMKG MKG20060228062509602/28/06 06:25:31  5-MIN KMKG 281125Z 00000KT 10SM CLR M09/M12 A3010 460 84 -2400 000/00 RMK AO2
14840KMKG MKG20060228063009602/28/06 06:30:31  5-MIN KMKG 281130Z 00000KT 10SM CLR M09/M12 A3010 460 84 -2400 000/00 RMK AO2
14840KMKG MKG20060228063509602/28/06 06:35:31  5-MIN KMKG 281135Z 00000KT 10SM CLR M09/M12 A3010 470 84 -2400 000/00 RMK AO2
14840KMKG MKG20060228064009602/28/06 06:40:31  5-MIN KMKG 281140Z 00000KT 10SM CLR M09/M12 A3010 470 80 -2300 000/00 RMK AO2
14840KMKG MKG20060228064509602/28/06 06:45:31  5-MIN KMKG 281145Z 00000KT 10SM CLR M09/M12 A3010 470 84 -2400 000/00 RMK AO2
14840KMKG MKG20060228065013702/28/06 06:50:31  5-MIN KMKG 281150Z 00000KT 10SM CLR M09/M12 A3010 470 84 -2400 000/00 RMK AO2 SLP202 70001 T10941117 11078 21100 55003
14840KMKG MKG20060228065513702/28/06 06:55:31  5-MIN KMKG 281155Z 00000KT 10SM CLR M09/M12 A3010 470 84 -2400 000/00 RMK AO2 SLP203 70001 T10941117 11078 21100 50007
14840KMKG MKG20060228070009602/28/06 07:00:31  5-MIN KMKG 281200Z 00000KT 10SM CLR M09/M12 A3010 470 80 -2300 000/00 RMK AO2
14840KMKG MKG20060228070509602/28/06 07:05:31  5-MIN KMKG 281205Z 00000KT 10SM CLR M09/M12 A3010 470 80 -2300 000/00 RMK AO2
14840KMKG MKG20060228071009602/28/06 07:10:31  5-MIN KMKG 281210Z 00000KT 10SM CLR M09/M12 A3010 470 80 -2300 000/00 RMK AO2
14840KMKG MKG20060228071509602/28/06 07:15:31  5-MIN KMKG 281215Z 00000KT 10SM CLR M09/M12 A3010 460 80 -2300 000/00 RMK AO2
14840KMKG MKG20060228072009602/28/06 07:20:31  5-MIN KMKG 281220Z 00000KT 10SM CLR M09/M12 A3010 470 77 -2300 000/00 RMK AO2
14840KMKG MKG20060228072509602/28/06 07:25:31  5-MIN KMKG 281225Z 00000KT 10SM CLR M09/M12 A3010 470 77 -2300 000/00 RMK AO2
14840KMKG MKG20060228073009602/28/06 07:30:31  5-MIN KMKG 281230Z 00000KT 10SM CLR M09/M12 A3010 470 80 -2300 000/00 RMK AO2
14840KMKG MKG20060228073509602/28/06 07:35:31  5-MIN KMKG 281235Z 00000KT 10SM CLR M09/M12 A3010 460 80 -2300 000/00 RMK AO2
14840KMKG MKG20060228074009602/28/06 07:40:31  5-MIN KMKG 281240Z 00000KT 10SM CLR M09/M12 A3010 460 84 -2400 000/00 RMK AO2
14840KMKG MKG20060228074509602/28/06 07:45:31  5-MIN KMKG 281245Z 00000KT 10SM CLR M09/M12 A3010 460 84 -2400 000/00 RMK AO2
14840KMKG MKG20060228075011302/28/06 07:50:31  5-MIN KMKG 281250Z 00000KT 10SM CLR M09/M12 A3010 460 84 -2400 000/00 RMK AO2 SLP205 T10941117
14840KMKG MKG20060228075511302/28/06 07:55:31  5-MIN KMKG 281255Z 00000KT 10SM CLR M09/M12 A3010 460 80 -2300 000/00 RMK AO2 SLP204 T10891117
14840KMKG MKG20060228080009602/28/06 08:00:31  5-MIN KMKG 281300Z 00000KT 10SM CLR M09/M12 A3010 470 80 -2300 000/00 RMK AO2
14840KMKG MKG20060228080509602/28/06 08:05:31  5-MIN KMKG 281305Z 00000KT 10SM CLR M09/M12 A3010 470 80 -2300 000/00 RMK AO2
14840KMKG MKG20060228081009602/28/06 08:10:31  5-MIN KMKG 281310Z 00000KT 10SM CLR M08/M12 A3009 470 77 -2200 000/00 RMK AO2
14840KMKG MKG20060228081509602/28/06 08:15:31  5-MIN KMKG 281315Z 00000KT 10SM CLR M08/M11 A3009 470 80 -2200 000/00 RMK AO2
14840KMKG MKG20060228082009602/28/06 08:20:31  5-MIN KMKG 281320Z 00000KT 10SM CLR M08/M12 A3009 470 74 -2200 000/00 RMK AO2
14840KMKG MKG20060228082509902/28/06 08:25:31  5-MIN KMKG 281325Z 00000KT 10SM FEW100 M08/M11 A3010 470 77 -2200 000/00 RMK AO2
14840KMKG MKG20060228083009902/28/06 08:30:31  5-MIN KMKG 281330Z 00000KT 10SM FEW100 M07/M11 A3009 470 74 -2100 000/00 RMK AO2
14840KMKG MKG20060228083509902/28/06 08:35:31  5-MIN KMKG 281335Z 00000KT 10SM FEW100 M07/M11 A3009 470 74 -2100 000/00 RMK AO2
14840KMKG MKG20060228084009902/28/06 08:40:31  5-MIN KMKG 281340Z 00000KT 10SM FEW100 M07/M11 A3009 470 71 -2000 000/00 RMK AO2
14840KMKG MKG20060228084509902/28/06 08:45:31  5-MIN KMKG 281345Z 00000KT 10SM FEW100 M07/M11 A3009 470 71 -2000 000/00 RMK AO2
14840KMKG MKG20060228085011302/28/06 08:50:31  5-MIN KMKG 281350Z 00000KT 10SM CLR M07/M11 A3009 470 71 -2000 000/00 RMK AO2 SLP200 T10671111
14840KMKG MKG20060228085511302/28/06 08:55:31  5-MIN KMKG 281355Z 12003KT 10SM CLR M06/M11 A3009 480 68 -1900 120/03 RMK AO2 SLP199 T10611111
14840KMKG MKG20060228090009602/28/06 09:00:31  5-MIN KMKG 281400Z 10003KT 10SM CLR M06/M11 A3009 470 65 -1900 110/03 RMK AO2
14840KMKG MKG20060228090509902/28/06 09:05:31  5-MIN KMKG 281405Z 00000KT 10SM FEW110 M06/M12 A3009 470 62 -1900 000/00 RMK AO2
14840KMKG MKG20060228091009902/28/06 09:10:31  5-MIN KMKG 281410Z VRB03KT 10SM FEW110 M06/M12 A3009 480 62 -1900 VRB/03 RMK AO2
14840KMKG MKG20060228091509902/28/06 09:15:31  5-MIN KMKG 281415Z 00000KT 10SM FEW110 M06/M12 A3009 470 62 -1900 000/00 RMK AO2
14840KMKG MKG20060228092009902/28/06 09:20:31  5-MIN KMKG 281420Z 00000KT 10SM SCT110 M06/M12 A3009 480 62 -1900 000/00 RMK AO2
14840KMKG MKG20060228092509902/28/06 09:25:31  5-MIN KMKG 281425Z 00000KT 10SM SCT110 M06/M11 A3009 470 65 -1900 000/00 RMK AO2
14840KMKG MKG20060228093009902/28/06 09:30:31  5-MIN KMKG 281430Z 00000KT 10SM FEW110 M05/M12 A3009 470 60 -1800 000/00 RMK AO2
14840KMKG MKG20060228093509902/28/06 09:35:31  5-MIN KMKG 281435Z VRB03KT 10SM FEW110 M05/M12 A3009 480 60 -1800 VRB/03 RMK AO2
14840KMKG MKG20060228094009902/28/06 09:40:31  5-MIN KMKG 281440Z 00000KT 10SM FEW120 M04/M11 A3009 470 60 -1700 000/00 RMK AO2
14840KMKG MKG20060228094509902/28/06 09:45:31  5-MIN KMKG 281445Z VRB03KT 10SM FEW120 M04/M11 A3009 480 60 -1700 VRB/03 RMK AO2
14840KMKG MKG20060228095011902/28/06 09:50:31  5-MIN KMKG 281450Z 00000KT 10SM CLR M04/M12 A3008 480 57 -1700 000/00 RMK AO2 SLP197 T10441117 50007
14840KMKG MKG20060228095511902/28/06 09:55:31  5-MIN KMKG 281455Z 02004KT 10SM CLR M04/M11 A3008 480 57 -1600 020/04 RMK AO2 SLP196 T10391111 58005
14840KMKG MKG20060228100009602/28/06 10:00:31  5-MIN KMKG 281500Z VRB03KT 10SM CLR M04/M11 A3008 480 57 -1600 VRB/03 RMK AO2
14840KMKG MKG20060228100509602/28/06 10:05:31  5-MIN KMKG 281505Z 00000KT 10SM CLR M04/M11 A3008 480 57 -1600 000/00 RMK AO2
14840KMKG MKG20060228101009602/28/06 10:10:31  5-MIN KMKG 281510Z VRB03KT 10SM CLR M04/M11 A3008 480 57 -1600 VRB/03 RMK AO2
14840KMKG MKG20060228101509602/28/06 10:15:31  5-MIN KMKG 281515Z 00000KT 10SM CLR M04/M12 A3008 490 55 -1600 000/00 RMK AO2
14840KMKG MKG20060228102009602/28/06 10:20:31  5-MIN KMKG 281520Z 29003KT 10SM CLR M04/M12 A3008 490 55 -1600 300/03 RMK AO2
14840KMKG MKG20060228102509602/28/06 10:25:31  5-MIN KMKG 281525Z 00000KT 10SM CLR M04/M11 A3007 490 57 -1600 000/00 RMK AO2
14840KMKG MKG20060228103009602/28/06 10:30:31  5-MIN KMKG 281530Z 25003KT 10SM CLR M04/M12 A3008 490 57 -1700 250/03 RMK AO2
14840KMKG MKG20060228103509602/28/06 10:35:31  5-MIN KMKG 281535Z VRB03KT 10SM CLR M04/M11 A3007 490 57 -1600 VRB/03 RMK AO2
14840KMKG MKG20060228104009602/28/06 10:40:31  5-MIN KMKG 281540Z VRB04KT 10SM CLR M04/M11 A3007 490 57 -1600 VRB/04 RMK AO2
14840KMKG MKG20060228104509602/28/06 10:45:31  5-MIN KMKG 281545Z VRB03KT 10SM CLR M04/M11 A3007 500 57 -1600 VRB/03 RMK AO2
14840KMKG MKG20060228105011302/28/06 10:50:31  5-MIN KMKG 281550Z 00000KT 10SM CLR M04/M11 A3007 500 57 -1600 000/00 RMK AO2 SLP191 T10391111
14840KMKG MKG20060228105511602/28/06 10:55:31  5-MIN KMKG 281555Z 00000KT 10SM FEW045 M03/M11 A3007 490 55 -1600 000/00 RMK AO2 SLP192 T10331111
14840KMKG MKG20060228110009602/28/06 11:00:31  5-MIN KMKG 281600Z 00000KT 10SM CLR M03/M11 A3007 490 55 -1500 000/00 RMK AO2
14840KMKG MKG20060228110509602/28/06 11:05:31  5-MIN KMKG 281605Z 34005KT 10SM CLR M03/M11 A3007 490 55 -1500 340/05 RMK AO2
14840KMKG MKG20060228111009602/28/06 11:10:31  5-MIN KMKG 281610Z VRB06KT 10SM CLR M02/M11 A3007 500 53 -1400 VRB/06 RMK AO2
14840KMKG MKG20060228111509602/28/06 11:15:31  5-MIN KMKG 281615Z VRB04KT 10SM CLR M02/M11 A3007 490 53 -1400 VRB/04 RMK AO2
14840KMKG MKG20060228112009602/28/06 11:20:31  5-MIN KMKG 281620Z 35007KT 10SM CLR M02/M10 A3007 500 55 -1400 350/07 RMK AO2
14840KMKG MKG20060228112509902/28/06 11:25:31  5-MIN KMKG 281625Z 36007KT 10SM FEW032 M02/M11 A3007 490 53 -1400 360/07 RMK AO2
14840KMKG MKG20060228113009902/28/06 11:30:31  5-MIN KMKG 281630Z 34006KT 10SM FEW032 M02/M11 A3007 500 53 -1400 340/06 RMK AO2
14840KMKG MKG20060228113509902/28/06 11:35:31  5-MIN KMKG 281635Z 30008KT 10SM FEW032 M02/M11 A3007 500 53 -1400 310/08 RMK AO2
14840KMKG MKG20060228114009902/28/06 11:40:31  5-MIN KMKG 281640Z VRB04KT 10SM SCT032 M03/M11 A3006 500 55 -1500 VRB/04 RMK AO2
14840KMKG MKG20060228114511502/28/06 11:45:31  5-MIN KMKG 281645Z 30008KT 260V030 10SM SCT032 M02/M10 A3006 500 55 -1400 300/08 260V030 RMK AO2
14840KMKG MKG20060228115011602/28/06 11:50:31  5-MIN KMKG 281650Z 25006KT 10SM SCT032 M02/M10 A3006 500 55 -1400 260/06 RMK AO2 SLP188 T10221100
14840KMKG MKG20060228115511602/28/06 11:55:31  5-MIN KMKG 281655Z 22008KT 10SM SCT032 M03/M10 A3005 510 58 -1500 230/08 RMK AO2 SLP186 T10281100
14840KMKG MKG20060228120009902/28/06 12:00:31  5-MIN KMKG 281700Z VRB05KT 10SM FEW032 M03/M11 A3005 510 55 -1500 VRB/05 RMK AO2
14840KMKG MKG20060228120509902/28/06 12:05:31  5-MIN KMKG 281705Z 29006KT 10SM FEW032 M03/M11 A3005 510 55 -1500 290/06 RMK AO2
14840KMKG MKG20060228121009902/28/06 12:10:31  5-MIN KMKG 281710Z 30007KT 10SM FEW032 M03/M11 A3005 510 55 -1500 300/07 RMK AO2
14840KMKG MKG20060228121509902/28/06 12:15:31  5-MIN KMKG 281715Z 26007KT 10SM FEW032 M02/M10 A3006 500 55 -1400 260/07 RMK AO2
14840KMKG MKG20060228122009902/28/06 12:20:31  5-MIN KMKG 281720Z 28010KT 10SM SCT032 M02/M10 A3006 500 53 -1300 290/10 RMK AO2
14840KMKG MKG20060228122509902/28/06 12:25:31  5-MIN KMKG 281725Z 29007KT 10SM SCT032 M02/M10 A3005 510 55 -1400 300/07 RMK AO2
14840KMKG MKG20060228123009902/28/06 12:30:31  5-MIN KMKG 281730Z 28008KT 10SM SCT032 M02/M09 A3005 510 58 -1400 290/08 RMK AO2
14840KMKG MKG20060228123509902/28/06 12:35:31  5-MIN KMKG 281735Z 25007KT 10SM SCT032 M02/M10 A3006 500 55 -1400 250/07 RMK AO2
14840KMKG MKG20060228124009902/28/06 12:40:31  5-MIN KMKG 281740Z 29008KT 10SM SCT032 M02/M09 A3005 510 58 -1400 290/08 RMK AO2
14840KMKG MKG20060228124509902/28/06 12:45:31  5-MIN KMKG 281745Z 27009KT 10SM SCT032 M02/M09 A3005 510 58 -1400 270/09 RMK AO2
14840KMKG MKG20060228125013402/28/06 12:50:31  5-MIN KMKG 281750Z 28009KT 10SM SCT032 M02/M09 A3004 520 58 -1400 290/09 RMK AO2 SLP184 T10221094 11017 21094 58005
14840KMKG MKG20060228125513402/28/06 12:55:31  5-MIN KMKG 281755Z 29009KT 10SM SCT032 M02/M09 A3005 510 58 -1400 290/09 RMK AO2 SLP185 T10221094 11017 21094 56011
14840KMKG MKG20060228130009902/28/06 13:00:31  5-MIN KMKG 281800Z 26007KT 10SM SCT032 M03/M10 A3005 510 58 -1500 260/07 RMK AO2
14840KMKG MKG20060228130511502/28/06 13:05:31  5-MIN KMKG 281805Z 25008KT 230V290 10SM SCT032 M02/M09 A3005 510 58 -1400 250/08 230V290 RMK AO2
14840KMKG MKG20060228131009902/28/06 13:10:31  5-MIN KMKG 281810Z 26010KT 10SM SCT029 M02/M09 A3005 510 58 -1400 270/10 RMK AO2
14840KMKG MKG20060228131509902/28/06 13:15:31  5-MIN KMKG 281815Z 26010KT 10SM SCT029 M02/M09 A3005 510 58 -1400 260/10 RMK AO2
14840KMKG MKG20060228132010502/28/06 13:20:31  5-MIN KMKG 281820Z 28008G14KT 10SM SCT029 M02/M09 A3004 520 55 -1300 290/08G14 RMK AO2
14840KMKG MKG20060228132510502/28/06 13:25:31  5-MIN KMKG 281825Z 25008G14KT 10SM SCT029 M02/M09 A3003 520 58 -1400 260/08G14 RMK AO2
14840KMKG MKG20060228133009902/28/06 13:30:31  5-MIN KMKG 281830Z 28010KT 10SM SCT029 M02/M09 A3004 520 58 -1400 280/10 RMK AO2
14840KMKG MKG20060228133509902/28/06 13:35:31  5-MIN KMKG 281835Z 27007KT 10SM SCT029 M02/M09 A3004 520 58 -1400 270/07 RMK AO2
14840KMKG MKG20060228134010502/28/06 13:40:31  5-MIN KMKG 281840Z 29006G14KT 10SM SCT031 M02/M09 A3003 530 55 -1300 290/06G14 RMK AO2
14840KMKG MKG20060228134510502/28/06 13:45:31  5-MIN KMKG 281845Z 30009G14KT 10SM SCT031 M02/M09 A3004 520 58 -1400 310/09G14 RMK AO2
14840KMKG MKG20060228135011602/28/06 13:50:31  5-MIN KMKG 281850Z 25009KT 10SM SCT031 M02/M09 A3003 530 58 -1400 260/09 RMK AO2 SLP178 T10221094
14840KMKG MKG20060228135511602/28/06 13:55:31  5-MIN KMKG 281855Z 28011KT 10SM SCT031 M02/M09 A3003 530 55 -1300 280/11 RMK AO2 SLP177 T10171094
14840KMKG MKG20060228140011502/28/06 14:00:31  5-MIN KMKG 281900Z 28009KT 260V320 10SM SCT031 M02/M09 A3002 530 55 -1300 290/09 260V320 RMK AO2
14840KMKG MKG20060228140509902/28/06 14:05:31  5-MIN KMKG 281905Z 28008KT 10SM SCT031 M02/M09 A3003 530 58 -1400 280/08 RMK AO2
14840KMKG MKG20060228141009902/28/06 14:10:31  5-MIN KMKG 281910Z VRB05KT 10SM SCT028 M03/M09 A3003 530 60 -1400 VRB/05 RMK AO2
14840KMKG MKG20060228141511502/28/06 14:15:31  5-MIN KMKG 281915Z 28007KT 240V320 10SM SCT028 M02/M09 A3003 530 58 -1400 290/07 240V320 RMK AO2
14840KMKG MKG20060228142009902/28/06 14:20:31  5-MIN KMKG 281920Z 26008KT 10SM SCT028 M02/M09 A3002 540 60 -1400 270/08 RMK AO2
14840KMKG MKG20060228142509902/28/06 14:25:31  5-MIN KMKG 281925Z 23007KT 10SM SCT028 M02/M09 A3002 540 60 -1400 240/07 RMK AO2
14840KMKG MKG20060228143009902/28/06 14:30:31  5-MIN KMKG 281930Z 25009KT 10SM SCT028 M02/M09 A3002 540 60 -1400 260/09 RMK AO2
14840KMKG MKG20060228143509902/28/06 14:35:31  5-MIN KMKG 281935Z 26008KT 10SM SCT028 M02/M09 A3002 540 60 -1400 270/08 RMK AO2
14840KMKG MKG20060228144009902/28/06 14:40:31  5-MIN KMKG 281940Z 25009KT 10SM SCT028 M02/M09 A3001 540 60 -1300 250/09 RMK AO2
14840KMKG MKG20060228144509902/28/06 14:45:31  5-MIN KMKG 281945Z 28008KT 10SM SCT028 M02/M09 A3002 540 60 -1400 280/08 RMK AO2
14840KMKG MKG20060228145011602/28/06 14:50:31  5-MIN KMKG 281950Z 28008KT 10SM SCT028 M02/M09 A3002 540 60 -1400 280/08 RMK AO2 SLP175 T10221089
14840KMKG MKG20060228145511602/28/06 14:55:31  5-MIN KMKG 281955Z 26010KT 10SM BKN026 M02/M09 A3001 550 60 -1300 260/10 RMK AO2 SLP172 T10221089
14840KMKG MKG20060228150009902/28/06 15:00:31  5-MIN KMKG 282000Z 26007KT 10SM BKN026 M03/M09 A3001 550 60 -1400 260/07 RMK AO2
14840KMKG MKG20060228150509902/28/06 15:05:31  5-MIN KMKG 282005Z 28007KT 10SM BKN026 M02/M09 A3000 550 60 -1300 280/07 RMK AO2
14840KMKG MKG20060228151009902/28/06 15:10:31  5-MIN KMKG 282010Z 29007KT 10SM SCT026 M03/M09 A3000 560 63 -1400 290/07 RMK AO2
14840KMKG MKG20060228151509902/28/06 15:15:31  5-MIN KMKG 282015Z 27009KT 10SM SCT026 M03/M09 A3000 560 63 -1400 270/09 RMK AO2
14840KMKG MKG20060228152009902/28/06 15:20:31  5-MIN KMKG 282020Z VRB05KT 10SM SCT026 M03/M09 A3000 560 63 -1400 VRB/05 RMK AO2
14840KMKG MKG20060228152509902/28/06 15:25:31  5-MIN KMKG 282025Z 27007KT 10SM FEW026 M03/M09 A3000 560 63 -1400 270/07 RMK AO2
14840KMKG MKG20060228153009902/28/06 15:30:31  5-MIN KMKG 282030Z 26007KT 10SM FEW026 M03/M09 A3000 560 63 -1400 260/07 RMK AO2
14840KMKG MKG20060228153509902/28/06 15:35:31  5-MIN KMKG 282035Z 25007KT 10SM FEW026 M03/M09 A3000 560 63 -1400 250/07 RMK AO2
14840KMKG MKG20060228154009602/28/06 15:40:31  5-MIN KMKG 282040Z 27007KT 10SM CLR M03/M09 A3000 550 63 -1400 270/07 RMK AO2
14840KMKG MKG20060228154509602/28/06 15:45:31  5-MIN KMKG 282045Z 28007KT 10SM CLR M03/M09 A3000 560 63 -1400 280/07 RMK AO2
14840KMKG MKG20060228155011902/28/06 15:50:31  5-MIN KMKG 282050Z 26007KT 10SM CLR M03/M08 A3000 560 66 -1400 270/07 RMK AO2 SLP168 T10281083 56011
14840KMKG MKG20060228155512202/28/06 15:55:31  5-MIN KMKG 282055Z 27006KT 10SM SCT028 M03/M08 A3000 560 66 -1400 270/06 RMK AO2 SLP168 T10281083 56017
14840KMKG MKG20060228160009602/28/06 16:00:31  5-MIN KMKG 282100Z 26006KT 10SM CLR M03/M08 A3000 560 66 -1400 270/06 RMK AO2
14840KMKG MKG20060228160509602/28/06 16:05:31  5-MIN KMKG 282105Z 28006KT 10SM CLR M03/M08 A3000 560 66 -1400 280/06 RMK AO2
14840KMKG MKG20060228161009602/28/06 16:10:31  5-MIN KMKG 282110Z 29008KT 10SM CLR M03/M08 A3000 560 66 -1400 290/08 RMK AO2
14840KMKG MKG20060228161509602/28/06 16:15:31  5-MIN KMKG 282115Z 30006KT 10SM CLR M03/M08 A3000 560 66 -1400 300/06 RMK AO2
14840KMKG MKG20060228162009602/28/06 16:20:31  5-MIN KMKG 282120Z 27006KT 10SM CLR M03/M08 A2999 560 66 -1400 270/06 RMK AO2
14840KMKG MKG20060228162509902/28/06 16:25:31  5-MIN KMKG 282125Z 28007KT 10SM FEW024 M03/M08 A2999 560 66 -1400 280/07 RMK AO2
14840KMKG MKG20060228163009902/28/06 16:30:31  5-MIN KMKG 282130Z 29006KT 10SM FEW024 M02/M08 A2999 560 63 -1300 290/06 RMK AO2
14840KMKG MKG20060228163509902/28/06 16:35:31  5-MIN KMKG 282135Z 28006KT 10SM FEW026 M03/M08 A2999 560 66 -1400 280/06 RMK AO2
14840KMKG MKG20060228164009902/28/06 16:40:31  5-MIN KMKG 282140Z 33005KT 10SM SCT026 M02/M08 A2999 560 66 -1300 330/05 RMK AO2
14840KMKG MKG20060228164509902/28/06 16:45:31  5-MIN KMKG 282145Z 30005KT 10SM SCT026 M02/M08 A2999 560 66 -1300 300/05 RMK AO2
14840KMKG MKG20060228165009902/28/06 16:50:31  5-MIN KMKG 282150Z 29005KT 10SM BKN026 M02/M08 A2999 560 66 -1300 290/05 RMK AO2
14840KMKG MKG20060228165511602/28/06 16:55:31  5-MIN KMKG 282155Z 32004KT 10SM BKN026 M02/M08 A2999 570 66 -1300 320/04 RMK AO2 SLP165 T10221078
14840KMKG MKG20060228170009902/28/06 17:00:31  5-MIN KMKG 282200Z 29004KT 10SM BKN024 M02/M08 A2998 570 66 -1300 290/04 RMK AO2
14840KMKG MKG20060228170509902/28/06 17:05:31  5-MIN KMKG 282205Z 28005KT 10SM BKN024 M02/M08 A2998 570 66 -1300 280/05 RMK AO2
14840KMKG MKG20060228171009902/28/06 17:10:31  5-MIN KMKG 282210Z 30006KT 10SM BKN024 M02/M08 A2998 570 66 -1300 310/06 RMK AO2
14840KMKG MKG20060228171509902/28/06 17:15:31  5-MIN KMKG 282215Z 29006KT 10SM BKN024 M02/M08 A2998 580 66 -1300 300/06 RMK AO2
14840KMKG MKG20060228172010602/28/06 17:20:31  5-MIN KMKG 282220Z 34006KT 10SM BKN024 BKN120 M02/M08 A2998 570 63 -1200 340/06 RMK AO2
14840KMKG MKG20060228172510602/28/06 17:25:31  5-MIN KMKG 282225Z 32005KT 10SM SCT024 BKN120 M02/M08 A2998 580 63 -1200 330/05 RMK AO2
14840KMKG MKG20060228173010602/28/06 17:30:31  5-MIN KMKG 282230Z 30005KT 10SM FEW024 BKN120 M02/M08 A2998 580 63 -1300 310/05 RMK AO2
14840KMKG MKG20060228173510602/28/06 17:35:31  5-MIN KMKG 282235Z 31005KT 10SM FEW024 SCT120 M02/M08 A2998 570 63 -1300 310/05 RMK AO2
14840KMKG MKG20060228174009902/28/06 17:40:31  5-MIN KMKG 282240Z 32005KT 10SM FEW120 M02/M09 A2998 580 60 -1300 330/05 RMK AO2
14840KMKG MKG20060228174509902/28/06 17:45:31  5-MIN KMKG 282245Z 34004KT 10SM FEW120 M03/M09 A2998 580 63 -1400 340/04 RMK AO2
14840KMKG MKG20060228175011602/28/06 17:50:31  5-MIN KMKG 282250Z 34005KT 10SM FEW120 M03/M09 A2998 580 63 -1400 340/05 RMK AO2 SLP162 T10281089
14840KMKG MKG20060228175511302/28/06 17:55:31  5-MIN KMKG 282255Z 34004KT 10SM CLR M03/M08 A2998 580 66 -1400 340/04 RMK AO2 SLP161 T10281083
14840KMKG MKG20060228180009902/28/06 18:00:31  5-MIN KMKG 282300Z 35004KT 10SM FEW024 M03/M08 A2997 580 66 -1400 350/04 RMK AO2
14840KMKG MKG20060228180509902/28/06 18:05:31  5-MIN KMKG 282305Z 35004KT 10SM FEW024 M02/M09 A2997 580 60 -1300 360/04 RMK AO2
14840KMKG MKG20060228181009902/28/06 18:10:31  5-MIN KMKG 282310Z 32004KT 10SM FEW024 M02/M09 A2997 580 60 -1300 330/04 RMK AO2
14840KMKG MKG20060228181509902/28/06 18:15:31  5-MIN KMKG 282315Z 33003KT 10SM FEW024 M02/M09 A2997 580 60 -1300 330/03 RMK AO2
14840KMKG MKG20060228182009902/28/06 18:20:31  5-MIN KMKG 282320Z 33004KT 10SM FEW024 M02/M09 A2997 580 60 -1300 330/04 RMK AO2
14840KMKG MKG20060228182509902/28/06 18:25:31  5-MIN KMKG 282325Z 34003KT 10SM FEW024 M02/M09 A2997 590 60 -1300 340/03 RMK AO2
14840KMKG MKG20060228183009902/28/06 18:30:31  5-MIN KMKG 282330Z 34003KT 10SM FEW024 M02/M09 A2997 590 60 -1300 340/03 RMK AO2
14840KMKG MKG20060228183509902/28/06 18:35:31  5-MIN KMKG 282335Z 35004KT 10SM FEW024 M03/M09 A2997 590 60 -1400 360/04 RMK AO2
14840KMKG MKG20060228184009902/28/06 18:40:31  5-MIN KMKG 282340Z 01004KT 10SM FEW024 M03/M09 A2997 590 60 -1400 010/04 RMK AO2
14840KMKG MKG20060228184509902/28/06 18:45:31  5-MIN KMKG 282345Z 35004KT 10SM FEW024 M03/M09 A2997 580 60 -1400 360/04 RMK AO2
14840KMKG MKG20060228185013402/28/06 18:50:31  5-MIN KMKG 282350Z 36004KT 10SM SCT110 M03/M09 A2997 580 63 -1400 360/04 RMK AO2 SLP159 T10281089 11017 21028 56017
14840KMKG MKG20060228185513402/28/06 18:55:31  5-MIN KMKG 282355Z 01004KT 10SM SCT110 M03/M09 A2997 580 65 -1400 010/04 RMK AO2 SLP159 T10331089 11017 21033 58006
14840KMKG MKG20060228190009902/28/06 19:00:31  5-MIN KMKG 010000Z 02004KT 10SM SCT110 M03/M09 A2997 580 60 -1400 020/04 RMK AO2
14840KMKG MKG20060228190509902/28/06 19:05:31  5-MIN KMKG 010005Z 02004KT 10SM SCT110 M03/M09 A2997 580 60 -1400 020/04 RMK AO2
14840KMKG MKG20060228191009902/28/06 19:10:31  5-MIN KMKG 010010Z 02004KT 10SM BKN110 M03/M09 A2998 580 60 -1400 020/04 RMK AO2
14840KMKG MKG20060228191509902/28/06 19:15:31  5-MIN KMKG 010015Z 02004KT 10SM BKN110 M03/M09 A2998 580 60 -1400 020/04 RMK AO2
14840KMKG MKG20060228192009902/28/06 19:20:31  5-MIN KMKG 010020Z 02005KT 10SM BKN110 M03/M09 A2998 570 60 -1400 020/05 RMK AO2
14840KMKG MKG20060228192509902/28/06 19:25:31  5-MIN KMKG 010025Z 36005KT 10SM OVC110 M03/M09 A2998 580 60 -1400 010/05 RMK AO2
14840KMKG MKG20060228193009902/28/06 19:30:31  5-MIN KMKG 010030Z 01004KT 10SM OVC100 M03/M09 A2998 580 60 -1400 010/04 RMK AO2
14840KMKG MKG20060228193509902/28/06 19:35:31  5-MIN KMKG 010035Z 01005KT 10SM OVC100 M03/M09 A2998 570 60 -1400 010/05 RMK AO2
14840KMKG MKG20060228194009902/28/06 19:40:31  5-MIN KMKG 010040Z 01004KT 10SM OVC100 M03/M09 A2998 580 60 -1400 010/04 RMK AO2
14840KMKG MKG20060228194509902/28/06 19:45:31  5-MIN KMKG 010045Z 01004KT 10SM OVC100 M02/M09 A2998 570 58 -1300 010/04 RMK AO2
14840KMKG MKG20060228195011602/28/06 19:50:31  5-MIN KMKG 010050Z 01004KT 10SM OVC100 M02/M09 A2998 580 58 -1300 010/04 RMK AO2 SLP162 T10221094
14840KMKG MKG20060228195511602/28/06 19:55:31  5-MIN KMKG 010055Z 36005KT 10SM OVC100 M02/M09 A2998 580 58 -1300 360/05 RMK AO2 SLP162 T10221094
14840KMKG MKG20060228200009902/28/06 20:00:31  5-MIN KMKG 010100Z 01006KT 10SM OVC100 M02/M09 A2998 570 58 -1300 020/06 RMK AO2
14840KMKG MKG20060228200509902/28/06 20:05:31  5-MIN KMKG 010105Z 02005KT 10SM OVC100 M02/M10 A2998 580 55 -1300 020/05 RMK AO2
14840KMKG MKG20060228201009902/28/06 20:10:31  5-MIN KMKG 010110Z 02006KT 10SM OVC100 M02/M10 A2998 580 55 -1300 020/06 RMK AO2
14840KMKG MKG20060228201509902/28/06 20:15:31  5-MIN KMKG 010115Z 02005KT 10SM OVC095 M02/M10 A2998 580 55 -1300 020/05 RMK AO2
14840KMKG MKG20060228202009902/28/06 20:20:31  5-MIN KMKG 010120Z 02006KT 10SM OVC095 M02/M10 A2998 570 55 -1300 020/06 RMK AO2
14840KMKG MKG20060228202509902/28/06 20:25:31  5-MIN KMKG 010125Z 36005KT 10SM OVC095 M03/M10 A2998 580 58 -1400 360/05 RMK AO2
14840KMKG MKG20060228203009902/28/06 20:30:31  5-MIN KMKG 010130Z 36005KT 10SM OVC095 M03/M10 A2998 570 58 -1400 360/05 RMK AO2
14840KMKG MKG20060228203509902/28/06 20:35:31  5-MIN KMKG 010135Z 01004KT 10SM BKN095 M03/M11 A2998 570 55 -1400 010/04 RMK AO2
14840KMKG MKG20060228204009902/28/06 20:40:31  5-MIN KMKG 010140Z 01003KT 10SM BKN095 M03/M10 A2999 570 60 -1500 010/03 RMK AO2
14840KMKG MKG20060228204509902/28/06 20:45:31  5-MIN KMKG 010145Z 36004KT 10SM SCT095 M03/M10 A2999 570 60 -1500 360/04 RMK AO2
14840KMKG MKG20060228205011602/28/06 20:50:31  5-MIN KMKG 010150Z 01004KT 10SM SCT095 M03/M10 A2999 570 60 -1500 010/04 RMK AO2 SLP164 T10331100
14840KMKG MKG20060228205511602/28/06 20:55:31  5-MIN KMKG 010155Z 02005KT 10SM SCT095 M03/M10 A2999 570 60 -1500 030/05 RMK AO2 SLP164 T10331100
14840KMKG MKG20060228210009902/28/06 21:00:31  5-MIN KMKG 010200Z 02005KT 10SM FEW095 M03/M11 A2998 570 57 -1500 020/05 RMK AO2
14840KMKG MKG20060228210509902/28/06 21:05:31  5-MIN KMKG 010205Z 02005KT 10SM FEW095 M03/M11 A2998 570 57 -1500 030/05 RMK AO2
14840KMKG MKG20060228211009902/28/06 21:10:31  5-MIN KMKG 010210Z 03005KT 10SM FEW095 M03/M11 A2998 580 57 -1400 040/05 RMK AO2
14840KMKG MKG20060228211509902/28/06 21:15:31  5-MIN KMKG 010215Z 03005KT 10SM FEW095 M03/M10 A2997 580 60 -1400 040/05 RMK AO2
14840KMKG MKG20060228212009902/28/06 21:20:31  5-MIN KMKG 010220Z 02005KT 10SM FEW095 M03/M11 A2997 580 57 -1400 030/05 RMK AO2
14840KMKG MKG20060228212509602/28/06 21:25:31  5-MIN KMKG 010225Z 03004KT 10SM CLR M03/M11 A2997 590 57 -1400 030/04 RMK AO2
14840KMKG MKG20060228213009602/28/06 21:30:31  5-MIN KMKG 010230Z 03003KT 10SM CLR M04/M11 A2997 580 60 -1500 030/03 RMK AO2
14840KMKG MKG20060228213509602/28/06 21:35:31  5-MIN KMKG 010235Z 03004KT 10SM CLR M04/M11 A2998 580 60 -1500 030/04 RMK AO2
14840KMKG MKG20060228214009602/28/06 21:40:31  5-MIN KMKG 010240Z 02004KT 10SM CLR M04/M11 A2998 570 60 -1500 020/04 RMK AO2
14840KMKG MKG20060228214509602/28/06 21:45:31  5-MIN KMKG 010245Z 02004KT 10SM CLR M04/M11 A2998 580 60 -1500 030/04 RMK AO2
14840KMKG MKG20060228215011902/28/06 21:50:31  5-MIN KMKG 010250Z 03004KT 10SM CLR M04/M11 A2998 580 60 -1500 040/04 RMK AO2 SLP160 T10391106 58006
14840KMKG MKG20060228215511902/28/06 21:55:31  5-MIN KMKG 010255Z 04003KT 10SM CLR M04/M11 A2998 580 60 -1500 050/03 RMK AO2 SLP161 T10391106 50003
14840KMKG MKG20060228220009602/28/06 22:00:31  5-MIN KMKG 010300Z 05003KT 10SM CLR M04/M11 A2999 570 60 -1500 050/03 RMK AO2
14840KMKG MKG20060228220509602/28/06 22:05:31  5-MIN KMKG 010305Z 00000KT 10SM CLR M04/M11 A2999 570 57 -1500 000/00 RMK AO2
14840KMKG MKG20060228221009602/28/06 22:10:31  5-MIN KMKG 010310Z 00000KT 10SM CLR M04/M11 A2999 570 60 -1500 000/00 RMK AO2
14840KMKG MKG20060228221509602/28/06 22:15:31  5-MIN KMKG 010315Z 00000KT 10SM CLR M04/M11 A2999 570 57 -1500 000/00 RMK AO2
14840KMKG MKG20060228222009602/28/06 22:20:31  5-MIN KMKG 010320Z 00000KT 10SM CLR M04/M11 A2999 570 60 -1500 000/00 RMK AO2
14840KMKG MKG20060228222509602/28/06 22:25:31  5-MIN KMKG 010325Z 23003KT 10SM CLR M04/M09 A2999 560 68 -1600 240/03 RMK AO2
14840KMKG MKG20060228223009602/28/06 22:30:31  5-MIN KMKG 010330Z 24003KT 10SM CLR M04/M09 A2999 560 68 -1600 240/03 RMK AO2
14840KMKG MKG20060228223509602/28/06 22:35:31  5-MIN KMKG 010335Z 24003KT 10SM CLR M05/M09 A2999 560 74 -1700 240/03 RMK AO2
14840KMKG MKG20060228224009602/28/06 22:40:31  5-MIN KMKG 010340Z 24003KT 10SM CLR M05/M09 A2999 570 74 -1700 240/03 RMK AO2
14840KMKG MKG20060228224509602/28/06 22:45:31  5-MIN KMKG 010345Z 00000KT 10SM CLR M05/M09 A2999 570 74 -1700 000/00 RMK AO2
14840KMKG MKG20060228225011302/28/06 22:50:31  5-MIN KMKG 010350Z 00000KT 10SM CLR M05/M09 A2999 570 71 -1700 000/00 RMK AO2 SLP164 T10501094
14840KMKG MKG20060228225511302/28/06 22:55:31  5-MIN KMKG 010355Z 00000KT 10SM CLR M05/M09 A2999 570 71 -1700 000/00 RMK AO2 SLP165 T10501094
14840KMKG MKG20060228230009602/28/06 23:00:31  5-MIN KMKG 010400Z 00000KT 10SM CLR M05/M09 A2999 570 74 -1700 000/00 RMK AO2
14840KMKG MKG20060228230509602/28/06 23:05:31  5-MIN KMKG 010405Z 00000KT 10SM CLR M05/M09 A2999 570 74 -1700 000/00 RMK AO2
14840KMKG MKG20060228231009602/28/06 23:10:31  5-MIN KMKG 010410Z 00000KT 10SM CLR M05/M08 A2999 560 77 -1700 000/00 RMK AO2
14840KMKG MKG20060228231509602/28/06 23:15:31  5-MIN KMKG 010415Z 00000KT 10SM CLR M05/M09 A2999 560 74 -1700 000/00 RMK AO2
14840KMKG MKG20060228232009602/28/06 23:20:31  5-MIN KMKG 010420Z 00000KT 10SM CLR M05/M09 A2999 560 74 -1700 000/00 RMK AO2
14840KMKG MKG20060228232509602/28/06 23:25:31  5-MIN KMKG 010425Z 00000KT 10SM CLR M05/M09 A2999 560 74 -1700 000/00 RMK AO2
14840KMKG MKG20060228233009602/28/06 23:30:31  5-MIN KMKG 010430Z 00000KT 10SM CLR M05/M09 A3000 560 74 -1700 000/00 RMK AO2
14840KMKG MKG20060228233509602/28/06 23:35:31  5-MIN KMKG 010435Z 00000KT 10SM CLR M05/M08 A2999 560 77 -1700 000/00 RMK AO2
14840KMKG MKG20060228234009602/28/06 23:40:31  5-MIN KMKG 010440Z 00000KT 10SM CLR M06/M09 A2999 570 77 -1700 000/00 RMK AO2
14840KMKG MKG20060228234509602/28/06 23:45:31  5-MIN KMKG 010445Z 09003KT 10SM CLR M06/M09 A2999 570 74 -1700 090/03 RMK AO2
14840KMKG MKG20060228235012302/28/06 23:50:31  5-MIN KMKG 010450Z 00000KT 10SM CLR M06/M09 A2999 570 74 -1700 000/00 RMK AO2 SLP164 T10561094 410171100
14840KMKG MKG20060228235512302/28/06 23:55:31  5-MIN KMKG 010455Z 00000KT 10SM CLR M06/M09 A2999 560 77 -1700 000/00 RMK AO2 SLP165 T10561089 410171100
