14840KMKG MKG20060309150512403/09/06 15:05:31  5-MIN KMKG 092005Z 21007KT 1SM -RA BR OVC002 08/08 A2931 1200 96 700 220/07 RMK AO2 SFC VIS 2 RAB05 P0000
14840KMKG MKG20060309151012803/09/06 15:10:31  5-MIN KMKG 092010Z 21006KT 1SM -RA BR OVC002 08/08 A2930 1210 96 700 210/06 RMK AO2 SFC VIS 2 1/2 RAB05 P0000
14840KMKG MKG20060309151512703/09/06 15:15:31  5-MIN KMKG 092015Z 20007KT 1SM BR OVC002 08/08 A2930 1210 96 700 200/07 RMK AO2 SFC VIS 2 1/2 RAB05E15 P0000
14840KMKG MKG20060309152012403/09/06 15:20:31  5-MIN KMKG 092020Z 19006KT 1SM -RA BR OVC002 08/08 A2929 1210 96 700 190/06 RMK AO2 SFC VIS 2 RAB05 P0000
14840KMKG MKG20060309152512803/09/06 15:25:31  5-MIN KMKG 092025Z 19006KT 1SM -RA BR OVC002 08/08 A2929 1220 96 700 190/06 RMK AO2 SFC VIS 1 1/2 RAB05 P0000
14840KMKG MKG20060309153012803/09/06 15:30:31  5-MIN KMKG 092030Z 18006KT 1SM -RA BR OVC002 08/08 A2928 1220 96 800 190/06 RMK AO2 SFC VIS 1 1/2 RAB05 P0000
14840KMKG MKG20060309153512803/09/06 15:35:31  5-MIN KMKG 092035Z 19005KT 1SM -RA BR OVC002 08/08 A2929 1220 96 800 190/05 RMK AO2 SFC VIS 1 1/4 RAB05 P0001
14840KMKG MKG20060309154012803/09/06 15:40:31  5-MIN KMKG 092040Z 19005KT 1SM -RA BR OVC002 08/08 A2929 1220 96 800 190/05 RMK AO2 SFC VIS 1 1/2 RAB05 P0001
14840KMKG MKG20060309154513503/09/06 15:45:31  5-MIN KMKG 092045Z 18005KT 1SM -RA BR BKN002 OVC009 08/08 A2929 1220 96 800 180/05 RMK AO2 SFC VIS 1 1/2 RAB05 P0001
14840KMKG MKG20060309155016403/09/06 15:50:31  5-MIN KMKG 092050Z 18006KT 1SM -RA BR BKN002 OVC009 08/08 A2929 1220 96 800 180/06 RMK AO2 SFC VIS 1 3/4 RAB05 SLP920 P0001 60002 T00830078 50004
14840KMKG MKG20060309155515903/09/06 15:55:31  5-MIN KMKG 092055Z 18005KT 1SM BR BKN002 OVC009 08/08 A2929 1220 96 800 180/05 RMK AO2 SFC VIS 3 RAB05E54 SLP920 P0001 60002 T00830078 58020
14840KMKG MKG20060309160011503/09/06 16:00:31  5-MIN KMKG 092100Z 17006KT 1SM BR BKN002 OVC009 08/08 A2928 1220 96 800 180/06 RMK AO2 SFC VIS 3
14840KMKG MKG20060309160512303/09/06 16:05:31  5-MIN KMKG 092105Z 17006KT 1 1/2SM BR SCT002 OVC009 08/08 A2928 1230 96 800 170/06 RMK AO2 SFC VIS 2 1/2
14840KMKG MKG20060309161012303/09/06 16:10:31  5-MIN KMKG 092110Z 16006KT 1 1/2SM BR SCT002 OVC009 08/08 A2928 1230 96 800 160/06 RMK AO2 SFC VIS 2 1/2
14840KMKG MKG20060309161511603/09/06 16:15:31  5-MIN KMKG 092115Z 16007KT 1 1/2SM BR OVC007 08/07 A2927 1230 96 700 160/07 RMK AO2 SFC VIS 1 3/4
14840KMKG MKG20060309162011003/09/06 16:20:31  5-MIN KMKG 092120Z 15006KT 1 1/2SM BR BKN003 OVC007 08/08 A2927 1240 100 700 160/06 RMK AO2
14840KMKG MKG20060309162512303/09/06 16:25:31  5-MIN KMKG 092125Z 15006KT 1 1/4SM BR BKN003 OVC007 08/08 A2926 1240 96 800 150/06 RMK AO2 TWR VIS 1 1/2
14840KMKG MKG20060309163012303/09/06 16:30:31  5-MIN KMKG 092130Z 14005KT 1 1/4SM BR SCT003 OVC007 08/08 A2926 1250 96 800 140/05 RMK AO2 TWR VIS 1 1/2
14840KMKG MKG20060309163511903/09/06 16:35:31  5-MIN KMKG 092135Z 13005KT 1SM BR BKN003 OVC007 08/08 A2926 1250 96 800 140/05 RMK AO2 TWR VIS 1 1/2
14840KMKG MKG20060309164012003/09/06 16:40:31  5-MIN KMKG 092140Z 14005KT 1SM BR BKN003 OVC007 08/08 A2926 1250 100 700 140/05 RMK AO2 TWR VIS 1 1/2
14840KMKG MKG20060309164513703/09/06 16:45:31  5-MIN KMKG 092145Z 16004KT 1SM BR BKN003 OVC007 08/08 A2926 1240 96 800 170/04 RMK AO2 TWR VIS 1 1/2 CIG 002V005 P0001
14840KMKG MKG20060309165014603/09/06 16:50:31  5-MIN KMKG 092150Z 17003KT 1 1/4SM BR OVC003 08/08 A2927 1240 100 700 170/03 RMK AO2 TWR VIS 1 1/2 CIG 002V006 SLP913 T00780078
14840KMKG MKG20060309165515303/09/06 16:55:31  5-MIN KMKG 092155Z 17003KT 1 1/4SM BR BKN003 OVC006 08/08 A2926 1240 100 700 170/03 RMK AO2 TWR VIS 1 1/2 CIG 002V005 SLP912 T00780078
14840KMKG MKG20060309170012503/09/06 17:00:31  5-MIN KMKG 092200Z 00000KT 1SM BR OVC003 08/08 A2926 1250 100 700 000/00 RMK AO2 TWR VIS 1 1/2 CIG 002V006
14840KMKG MKG20060309170514303/09/06 17:05:31  5-MIN KMKG 092205Z 00000KT 3/4SM -RA BR OVC003 08/08 A2926 1250 100 700 000/00 RMK AO2 TWR VIS 1 1/2 RAB04 CIG 002V005 P0000
14840KMKG MKG20060309171014303/09/06 17:10:31  5-MIN KMKG 092210Z 00000KT 3/4SM -RA BR OVC003 08/08 A2926 1250 100 700 000/00 RMK AO2 TWR VIS 1 1/2 RAB04 CIG 002V005 P0001
14840KMKG MKG20060309171514203/09/06 17:15:31  5-MIN KMKG 092215Z 00000KT 3/4SM -RA BR OVC003 08/07 A2927 1240 96 700 000/00 RMK AO2 TWR VIS 1 1/2 RAB04 CIG 002V005 P0001
14840KMKG MKG20060309172012903/09/06 17:20:31  5-MIN KMKG 092220Z 00000KT 3/4SM BR OVC003 08/07 A2926 1240 96 700 000/00 RMK AO2 TWR VIS 1 1/2 RAB04E19 P0001
14840KMKG MKG20060309172512503/09/06 17:25:31  5-MIN KMKG 092225Z 00000KT 3/4SM BR OVC003 08/07 A2926 1240 96 700 000/00 RMK AO2 TWR VIS 1 RAB04E19 P0001
14840KMKG MKG20060309173013703/09/06 17:30:31  5-MIN KMKG 092230Z 29003KT 1/2SM FG OVC003 08/07 A2926 1240 96 700 300/03 RMK AO2 TWR VIS 1 RAB04E19 CIG 002V005 P0001
14840KMKG MKG20060309173513903/09/06 17:35:31  5-MIN KMKG 092235Z 32005KT 1/4SM FG OVC003 08/07 A2925 1250 96 700 330/05 RMK AO2 TWR VIS 1/2 RAB04E19 CIG 002V005 P0001
14840KMKG MKG20060309174012803/09/06 17:40:31  5-MIN KMKG 092240Z 33003KT 1/4SM FG OVC003 07/07 A2926 1250 100 700 330/03 RMK AO2 TWR VIS 1/4 RAB04E19 P0001
14840KMKG MKG20060309174512803/09/06 17:45:31  5-MIN KMKG 092245Z 00000KT 1/4SM FG OVC003 07/07 A2926 1250 100 600 000/00 RMK AO2 TWR VIS 1/4 RAB04E19 P0001
14840KMKG MKG20060309175015203/09/06 17:50:31  5-MIN KMKG 092250Z 00000KT 1/4SM -RA FG OVC003 07/07 A2926 1240 100 600 000/00 RMK AO2 TWR VIS 1/2 RAB04E19B46 SLP912 P0001 T00720072
14840KMKG MKG20060309175515203/09/06 17:55:31  5-MIN KMKG 092255Z 00000KT 1/4SM -RA FG OVC003 07/07 A2927 1240 100 600 000/00 RMK AO2 TWR VIS 3/4 RAB04E19B46 SLP913 P0001 T00720072
14840KMKG MKG20060309180012203/09/06 18:00:31  5-MIN KMKG 092300Z 15003KT 1/2SM -RA FG OVC003 07/07 A2927 1240 96 600 160/03 RMK AO2 TWR VIS 3/4 P0000
14840KMKG MKG20060309180511703/09/06 18:05:31  5-MIN KMKG 092305Z 18003KT 3/4SM -RA BR BKN003 OVC008 08/07 A2926 1240 96 700 180/03 RMK AO2 P0000
14840KMKG MKG20060309181012003/09/06 18:10:31  5-MIN KMKG 092310Z 18005KT 1 1/2SM -RA BR BKN003 OVC008 08/08 A2927 1240 100 700 190/05 RMK AO2 P0001
14840KMKG MKG20060309181513203/09/06 18:15:31  5-MIN KMKG 092315Z 19005KT 3SM -RA BR BKN003 OVC008 08/08 A2927 1240 96 800 190/05 RMK AO2 VIS 1 1/2 RWY 14 P0001
14840KMKG MKG20060309182012203/09/06 18:20:31  5-MIN KMKG 092320Z 19006KT 2 1/2SM -RA BR OVC003 08/08 A2927 1230 96 800 200/06 RMK AO2 SFC VIS 4 P0001
14840KMKG MKG20060309182512203/09/06 18:25:31  5-MIN KMKG 092325Z 19006KT 2 1/2SM -RA BR OVC003 08/08 A2927 1240 96 800 200/06 RMK AO2 SFC VIS 5 P0001
14840KMKG MKG20060309183012203/09/06 18:30:31  5-MIN KMKG 092330Z 21005KT 2 1/2SM -RA BR OVC003 08/08 A2927 1240 96 800 210/05 RMK AO2 SFC VIS 5 P0001
14840KMKG MKG20060309183512203/09/06 18:35:31  5-MIN KMKG 092335Z 22005KT 2 1/2SM -RA BR OVC003 08/08 A2926 1240 96 800 230/05 RMK AO2 SFC VIS 5 P0001
14840KMKG MKG20060309184012203/09/06 18:40:31  5-MIN KMKG 092340Z 24004KT 2 1/2SM -RA BR OVC003 08/08 A2926 1250 96 800 240/04 RMK AO2 SFC VIS 5 P0001
14840KMKG MKG20060309184512903/09/06 18:45:31  5-MIN KMKG 092345Z 23004KT 2 1/2SM -RA BR BKN003 OVC013 08/08 A2926 1240 96 800 230/04 RMK AO2 SFC VIS 4 P0002
14840KMKG MKG20060309185017003/09/06 18:50:31  5-MIN KMKG 092350Z 24004KT 2 1/2SM -RA BR BKN003 OVC013 08/08 A2926 1240 96 800 250/04 RMK AO2 SFC VIS 3 SLP911 P0002 60006 T00830078 10094 20056 58020
14840KMKG MKG20060309185516003/09/06 18:55:31  5-MIN KMKG 092355Z 22004KT 2 1/2SM -RA BR BKN003 OVC013 08/08 A2926 1250 96 800 220/04 RMK AO2 SLP910 P0003 60007 T00830078 10094 20056 56009
14840KMKG MKG20060309190012903/09/06 19:00:31  5-MIN KMKG 100000Z 22004KT 2SM RA BR BKN003 OVC015 08/08 A2925 1250 100 700 220/04 RMK AO2 TWR VIS 2 1/2 P0001
14840KMKG MKG20060309190513403/09/06 19:05:31  5-MIN KMKG 100005Z 00000KT 1 3/4SM -RA BR BKN003 OVC015 08/08 A2925 1260 100 700 000/00 RMK AO2 TWR VIS 2 1/2 P0002
14840KMKG MKG20060309191013003/09/06 19:10:31  5-MIN KMKG 100010Z 00000KT 1SM -RA BR BKN003 OVC015 08/08 A2925 1260 100 700 000/00 RMK AO2 TWR VIS 2 1/2 P0003
14840KMKG MKG20060309191511703/09/06 19:15:31  5-MIN KMKG 100015Z 28004KT 1/2SM -RA FG BKN003 OVC015 08/07 A2925 1250 96 700 290/04 RMK AO2 P0004
14840KMKG MKG20060309192011003/09/06 19:20:31  5-MIN KMKG 100020Z 30004KT 3/4SM -RA BR OVC003 08/07 A2925 1250 96 700 310/04 RMK AO2 P0004
14840KMKG MKG20060309192512403/09/06 19:25:31  5-MIN KMKG 100025Z VRB03KT 1SM -RA BR OVC003 08/08 A2925 1260 100 700 VRB/03 RMK AO2 VIS 1/4 RWY 14 P0005
14840KMKG MKG20060309193012803/09/06 19:30:31  5-MIN KMKG 100030Z 29005KT 1 3/4SM -RA BR OVC003 08/08 A2925 1250 100 700 290/05 RMK AO2 VIS 1/2 RWY 14 P0005
14840KMKG MKG20060309193512103/09/06 19:35:31  5-MIN KMKG 100035Z 31005KT 4SM -RA BR OVC003 08/07 A2925 1260 96 700 320/05 RMK AO2 VIS 1 RWY 14 P0005
14840KMKG MKG20060309194012503/09/06 19:40:31  5-MIN KMKG 100040Z 29007KT 5SM -RA BR OVC003 07/07 A2925 1260 96 700 300/07 RMK AO2 VIS 1 1/2 RWY 14 P0005
14840KMKG MKG20060309194512403/09/06 19:45:31  5-MIN KMKG 100045Z 30005KT 6SM -RA BR OVC003 06/06 A2925 1260 100 500 310/05 RMK AO2 VIS 3/4 RWY 14 P0005
14840KMKG MKG20060309195013503/09/06 19:50:31  5-MIN KMKG 100050Z 30005KT 7SM -RA OVC003 06/06 A2925 1260 96 500 310/05 RMK AO2 VIS 1 RWY 14 SLP906 P0006 T00610056
14840KMKG MKG20060309195514903/09/06 19:55:31  5-MIN KMKG 100055Z 32005KT 8SM -RA OVC003 06/06 A2925 1260 96 500 330/05 RMK AO2 VIS 3/4 RWY 14 CIG 002V006 SLP908 P0006 T00610056
14840KMKG MKG20060309200013003/09/06 20:00:31  5-MIN KMKG 100100Z 33005KT 7SM -RA OVC003 06/06 A2924 1260 96 500 330/05 RMK AO2 VIS 1 RWY 14 CIG 002V007 P0000
14840KMKG MKG20060309200513303/09/06 20:05:31  5-MIN KMKG 100105Z 33005KT 6SM -RA BR OVC003 06/06 A2924 1270 96 500 340/05 RMK AO2 VIS 1 RWY 14 CIG 002V007 P0000
14840KMKG MKG20060309201013403/09/06 20:10:31  5-MIN KMKG 100110Z 35004KT 5SM -RA BR OVC005 06/06 A2924 1270 100 500 350/04 RMK AO2 VIS 1 RWY 14 CIG 002V007 P0000
14840KMKG MKG20060309201514503/09/06 20:15:31  5-MIN KMKG 100115Z 35004KT 4SM -RA BR BKN003 OVC007 06/06 A2924 1270 100 500 360/04 RMK AO2 VIS 1 1/4 RWY 14 CIG 002V006 P0000
14840KMKG MKG20060309202014003/09/06 20:20:31  5-MIN KMKG 100120Z 01006KT 4SM -RA BR BKN003 OVC007 06/06 A2924 1270 96 500 020/06 RMK AO2 VIS 2 RWY 14 CIG 002V006 P0000
14840KMKG MKG20060309202512703/09/06 20:25:31  5-MIN KMKG 100125Z 01005KT 5SM -RA BR BKN003 OVC007 06/06 A2923 1270 96 500 010/05 RMK AO2 CIG 002V006 P0000
14840KMKG MKG20060309203012903/09/06 20:30:31  5-MIN KMKG 100130Z 36006KT 6SM BR SCT003 OVC007 06/06 A2924 1270 96 500 010/06 RMK AO2 RAE30 CIG 005V010 P0000
14840KMKG MKG20060309203511403/09/06 20:35:31  5-MIN KMKG 100135Z 36005KT 7SM FEW003 OVC007 06/06 A2923 1270 96 500 010/05 RMK AO2 RAE30 P0000
14840KMKG MKG20060309204011703/09/06 20:40:31  5-MIN KMKG 100140Z 36005KT 6SM BR FEW003 OVC007 06/06 A2923 1270 96 500 010/05 RMK AO2 RAE30 P0000
14840KMKG MKG20060309204511503/09/06 20:45:31  5-MIN KMKG 100145Z 36004KT 5SM -RA BR FEW003 OVC007 06/06 A2923 1270 96 500 360/04 RMK AO2 P0000
14840KMKG MKG20060309205016303/09/06 20:50:31  5-MIN KMKG 100150Z 36005KT 3SM RA BR OVC009 06/06 A2923 1270 100 500 360/05 RMK AO2 VIS 2 1/2 RWY 14 CIG 007V012 SLP901 RAE30B45 P0000 T00610061
14840KMKG MKG20060309205517003/09/06 20:55:31  5-MIN KMKG 100155Z 36005KT 3SM RA BR BKN009 OVC012 06/06 A2923 1270 100 500 360/05 RMK AO2 VIS 1 3/4 RWY 14 CIG 008V011 SLP901 RAE30B45 P0002 T00610061
14840KMKG MKG20060309210012503/09/06 21:00:31  5-MIN KMKG 100200Z 01006KT 3SM -RA BR OVC011 07/06 A2923 1270 96 600 010/06 RMK AO2 VIS 1 3/4 RWY 14 P0000
14840KMKG MKG20060309210512103/09/06 21:05:31  5-MIN KMKG 100205Z 36006KT 4SM -RA BR OVC011 07/06 A2923 1280 96 600 010/06 RMK AO2 VIS 2 RWY 14 P0001
14840KMKG MKG20060309211012403/09/06 21:10:31  5-MIN KMKG 100210Z 36007KT 4SM RA BR OVC011 07/06 A2922 1280 96 600 360/07 RMK AO2 VIS 2 1/2 RWY 14 P0002
14840KMKG MKG20060309211511503/09/06 21:15:31  5-MIN KMKG 100215Z 36007KT 5SM -RA BR FEW004 OVC011 07/06 A2922 1280 96 600 360/07 RMK AO2 P0002
14840KMKG MKG20060309212013003/09/06 21:20:31  5-MIN KMKG 100220Z 36006KT 5SM -RA BR FEW004 OVC011 07/06 A2922 1290 96 600 360/06 RMK AO2 CIG 004 RWY 14 P0003
14840KMKG MKG20060309212514203/09/06 21:25:31  5-MIN KMKG 100225Z 35006KT 3SM RA BR SCT004 OVC011 06/06 A2922 1290 96 600 350/06 RMK AO2 VIS 2 RWY 14 CIG 004 RWY 14 P0004
14840KMKG MKG20060309213014303/09/06 21:30:31  5-MIN KMKG 100230Z 36007KT 2 1/2SM RA BR BKN004 OVC011 06/06 A2922 1290 96 600 360/07 RMK AO2 VIS 1 RWY 14 CIG 002V008 P0005
14840KMKG MKG20060309213514403/09/06 21:35:31  5-MIN KMKG 100235Z 36006KT 3SM -RA BR BKN004 OVC011 06/06 A2921 1290 96 600 360/06 RMK AO2 VIS 1 1/4 RWY 14 CIG 002V008 P0006
14840KMKG MKG20060309214014403/09/06 21:40:31  5-MIN KMKG 100240Z 36006KT 3SM -RA BR BKN004 OVC011 06/06 A2921 1290 96 600 360/06 RMK AO2 VIS 1 3/4 RWY 14 CIG 002V008 P0007
14840KMKG MKG20060309214512103/09/06 21:45:31  5-MIN KMKG 100245Z 36007KT 4SM -RA BR OVC004 06/06 A2921 1290 96 600 360/07 RMK AO2 VIS 2 RWY 14 P0007
14840KMKG MKG20060309215016103/09/06 21:50:31  5-MIN KMKG 100250Z 01009KT 3SM RA BR OVC004 06/06 A2921 1300 96 600 010/09 RMK AO2 VIS 2 RWY 14 CIG 002V008 SLP893 P0008 60016 T00610056 56009
14840KMKG MKG20060309215514903/09/06 21:55:31  5-MIN KMKG 100255Z 36006KT 3SM RA BR OVC004 06/06 A2922 1290 96 600 010/06 RMK AO2 VIS 2 RWY 14 SLP896 P0010 60018 T00610056 58014
14840KMKG MKG20060309220010803/09/06 22:00:31  5-MIN KMKG 100300Z 36007KT 4SM -RA BR OVC004 06/06 A2922 1290 96 600 010/07 RMK AO2 P0001
14840KMKG MKG20060309220510703/09/06 22:05:31  5-MIN KMKG 100305Z 01008KT 3SM RA BR OVC004 06/06 A2921 1300 96 600 010/08 RMK AO2 P0002
14840KMKG MKG20060309221011203/09/06 22:10:31  5-MIN KMKG 100310Z 02008KT 2 1/2SM RA BR OVC004 06/06 A2920 1300 100 600 030/08 RMK AO2 P0004
14840KMKG MKG20060309221511303/09/06 22:15:31  5-MIN KMKG 100315Z 02007KT 2 1/2SM -RA BR OVC004 06/06 A2920 1310 100 600 020/07 RMK AO2 P0004
14840KMKG MKG20060309222012503/09/06 22:20:31  5-MIN KMKG 100320Z 02008KT 2 1/2SM RA BR BKN004 BKN011 OVC021 07/06 A2920 1310 96 700 030/08 RMK AO2 P0006
14840KMKG MKG20060309222512603/09/06 22:25:31  5-MIN KMKG 100325Z 02009KT 2 1/2SM -RA BR BKN004 BKN011 OVC021 07/06 A2919 1310 96 700 020/09 RMK AO2 P0007
14840KMKG MKG20060309223011503/09/06 22:30:31  5-MIN KMKG 100330Z 01009KT 3SM -RA BR BKN004 OVC011 07/06 A2920 1310 93 700 020/09 RMK AO2 P0008
14840KMKG MKG20060309223511503/09/06 22:35:31  5-MIN KMKG 100335Z 01009KT 4SM -RA BR BKN004 OVC014 06/06 A2919 1310 96 600 010/09 RMK AO2 P0009
14840KMKG MKG20060309224012103/09/06 22:40:31  5-MIN KMKG 100340Z 01011KT 3SM RA BR BKN004 BKN014 OVC022 06/06 A2919 1310 96 600 020/11 RMK AO2 P0009
14840KMKG MKG20060309224512603/09/06 22:45:31  5-MIN KMKG 100345Z 01008KT 2 1/2SM -RA BR BKN004 BKN014 OVC022 06/06 A2919 1310 96 600 020/08 RMK AO2 P0010
14840KMKG MKG20060309225013203/09/06 22:50:31  5-MIN KMKG 100350Z 02008KT 3SM -RA BR BKN004 OVC014 06/06 A2919 1310 96 600 020/08 RMK AO2 SLP886 P0010 T00610056
14840KMKG MKG20060309225513203/09/06 22:55:31  5-MIN KMKG 100355Z 02009KT 4SM -RA BR BKN004 OVC014 06/06 A2918 1320 96 600 020/09 RMK AO2 SLP885 P0011 T00610056
14840KMKG MKG20060309230012103/09/06 23:00:31  5-MIN KMKG 100400Z 36007KT 3SM RA BR BKN004 BKN014 OVC023 06/06 A2919 1320 96 600 010/07 RMK AO2 P0001
14840KMKG MKG20060309230511503/09/06 23:05:31  5-MIN KMKG 100405Z 01009KT 3SM -RA BR BKN004 OVC023 06/06 A2919 1320 96 600 020/09 RMK AO2 P0001
14840KMKG MKG20060309231010703/09/06 23:10:31  5-MIN KMKG 100410Z 36007KT 3SM RA BR OVC004 06/06 A2919 1320 96 600 360/07 RMK AO2 P0002
14840KMKG MKG20060309231510703/09/06 23:15:31  5-MIN KMKG 100415Z 36007KT 3SM RA BR OVC004 06/05 A2919 1310 93 600 360/07 RMK AO2 P0003
14840KMKG MKG20060309232010703/09/06 23:20:31  5-MIN KMKG 100420Z 36008KT 3SM RA BR OVC004 06/05 A2918 1320 96 500 360/08 RMK AO2 P0004
14840KMKG MKG20060309232511103/09/06 23:25:31  5-MIN KMKG 100425Z 35007KT 2 1/2SM RA BR OVC004 06/05 A2919 1320 96 500 360/07 RMK AO2 P0006
14840KMKG MKG20060309233011103/09/06 23:30:31  5-MIN KMKG 100430Z 36008KT 2 1/2SM RA BR OVC004 06/05 A2918 1320 96 500 360/08 RMK AO2 P0007
14840KMKG MKG20060309233511103/09/06 23:35:31  5-MIN KMKG 100435Z 01009KT 2 1/2SM RA BR OVC004 06/05 A2918 1320 96 500 020/09 RMK AO2 P0009
14840KMKG MKG20060309234011803/09/06 23:40:31  5-MIN KMKG 100440Z 01007KT 2 1/2SM RA BR BKN004 OVC024 06/05 A2918 1320 96 500 020/07 RMK AO2 P0011
14840KMKG MKG20060309234511803/09/06 23:45:31  5-MIN KMKG 100445Z 01007KT 2 1/2SM RA BR BKN004 OVC024 06/05 A2918 1320 96 500 020/07 RMK AO2 P0012
14840KMKG MKG20060309235011703/09/06 23:50:31  5-MIN KMKG 100450Z 35006KT 3SM RA BR OVC004 06/05 A2919 1320 96 500 350/06 RMK AO2 P0015 401060056
14840KMKG MKG20060309235513403/09/06 23:55:31  5-MIN KMKG 100455Z 35008KT 4SM RA BR OVC004 05/04 A2919 1310 96 500 350/08 RMK AO2 SLP886 P0016 T00500044 401060050
14840KMKG MKG20060310000010703/10/06 00:00:32  5-MIN KMKG 100500Z 36006KT 4SM RA BR OVC004 05/04 A2919 1320 96 500 360/06 RMK AO2 P0002
14840KMKG MKG20060310000510703/10/06 00:05:31  5-MIN KMKG 100505Z 01007KT 4SM RA BR OVC004 05/04 A2919 1320 96 500 010/07 RMK AO2 P0003
14840KMKG MKG20060310001010703/10/06 00:10:31  5-MIN KMKG 100510Z 01009KT 4SM RA BR OVC004 05/04 A2918 1320 96 500 020/09 RMK AO2 P0004
14840KMKG MKG20060310001512603/10/06 00:15:31  5-MIN KMKG 100515Z 01008KT 4SM RA BR BKN004 OVC029 05/04 A2918 1320 96 500 020/08 RMK AO2 CIG 004V007 P0006
14840KMKG MKG20060310002011403/10/06 00:20:31  5-MIN KMKG 100520Z 02007KT 4SM RA BR BKN004 OVC029 05/04 A2919 1320 96 500 020/07 RMK AO2 P0008
14840KMKG MKG20060310002511403/10/06 00:25:31  5-MIN KMKG 100525Z 02007KT 4SM RA BR BKN004 OVC037 05/04 A2919 1320 96 500 020/07 RMK AO2 P0009
14840KMKG MKG20060310003011403/10/06 00:30:31  5-MIN KMKG 100530Z 01007KT 5SM RA BR BKN004 OVC037 05/04 A2918 1320 96 500 010/07 RMK AO2 P0009
14840KMKG MKG20060310003511503/10/06 00:35:31  5-MIN KMKG 100535Z 02009KT 6SM -RA BR BKN004 OVC038 05/04 A2918 1320 96 500 020/09 RMK AO2 P0010
14840KMKG MKG20060310004011403/10/06 00:40:31  5-MIN KMKG 100540Z 01008KT 5SM RA BR BKN004 OVC038 05/04 A2918 1320 96 500 020/08 RMK AO2 P0012
14840KMKG MKG20060310004512103/10/06 00:45:31  5-MIN KMKG 100545Z 36008KT 5SM RA BR BKN004 BKN010 OVC039 05/04 A2918 1320 96 500 360/08 RMK AO2 P0013
14840KMKG MKG20060310005016303/10/06 00:50:31  5-MIN KMKG 100550Z 35007KT 6SM -RA BR BKN004 BKN010 OVC039 05/04 A2919 1320 92 500 350/07 RMK AO2 SLP886 P0014 60059 T00500039 10083 20050 58014
14840KMKG MKG20060310005514603/10/06 00:55:31  5-MIN KMKG 100555Z 36009KT 8SM -RA OVC004 04/04 A2919 1320 96 400 360/09 RMK AO2 SLP885 P0015 60060 T00440039 10083 20044 56010
14840KMKG MKG20060310010010403/10/06 01:00:31  5-MIN KMKG 100600Z 36008KT 7SM RA OVC004 04/04 A2918 1320 96 400 010/08 RMK AO2 P0001
14840KMKG MKG20060310010510503/10/06 01:05:31  5-MIN KMKG 100605Z 01009KT 7SM -RA OVC004 04/04 A2918 1320 96 400 010/09 RMK AO2 P0002
14840KMKG MKG20060310011010403/10/06 01:10:31  5-MIN KMKG 100610Z 01009KT 7SM RA OVC004 04/04 A2918 1320 96 400 020/09 RMK AO2 P0002
14840KMKG MKG20060310011510503/10/06 01:15:31  5-MIN KMKG 100615Z 01009KT 8SM -RA OVC004 04/04 A2918 1320 96 400 020/09 RMK AO2 P0003
14840KMKG MKG20060310012011303/10/06 01:20:31  5-MIN KMKG 100620Z 36010KT 10SM -RA BKN006 OVC055 04/04 A2919 1320 96 400 010/10 RMK AO2 P0004
14840KMKG MKG20060310012511303/10/06 01:25:31  5-MIN KMKG 100625Z 01009KT 10SM -RA BKN006 OVC055 04/04 A2919 1310 96 400 010/09 RMK AO2 P0004
14840KMKG MKG20060310013011303/10/06 01:30:31  5-MIN KMKG 100630Z 01009KT 10SM -RA BKN006 OVC055 04/04 A2919 1310 96 400 010/09 RMK AO2 P0004
14840KMKG MKG20060310013512003/10/06 01:35:31  5-MIN KMKG 100635Z 02011KT 10SM -RA BKN006 BKN040 OVC060 04/04 A2918 1320 96 400 020/11 RMK AO2 P0004
14840KMKG MKG20060310014013503/10/06 01:40:31  5-MIN KMKG 100640Z 02011KT 10SM -RA SCT006 SCT046 OVC060 05/04 A2918 1320 92 500 020/11 RMK AO2 CIG 006 RWY 14 P0004
14840KMKG MKG20060310014513503/10/06 01:45:31  5-MIN KMKG 100645Z 02009KT 10SM -RA FEW006 SCT043 OVC060 05/04 A2918 1320 92 500 020/09 RMK AO2 CIG 027 RWY 14 P0004
14840KMKG MKG20060310015015203/10/06 01:50:31  5-MIN KMKG 100650Z 01010KT 10SM -RA FEW006 SCT041 OVC060 05/04 A2919 1310 92 500 010/10 RMK AO2 CIG 038 RWY 14 SLP887 P0004 T00500039
14840KMKG MKG20060310015513703/10/06 01:55:31  5-MIN KMKG 100655Z 02010KT 10SM -RA FEW006 SCT044 OVC060 05/04 A2919 1320 92 500 020/10 RMK AO2 SLP887 P0004 T00500039
14840KMKG MKG20060310020011903/10/06 02:00:31  5-MIN KMKG 100700Z 02009KT 9SM -RA FEW006 SCT044 OVC060 05/04 A2919 1310 92 500 020/09 RMK AO2 P0000
14840KMKG MKG20060310020511203/10/06 02:05:31  5-MIN KMKG 100705Z 02008KT 9SM -RA FEW006 OVC065 05/04 A2919 1310 92 500 020/08 RMK AO2 P0001
14840KMKG MKG20060310021012803/10/06 02:10:31  5-MIN KMKG 100710Z 35009KT 10SM -RA SCT006 OVC065 04/04 A2920 1310 96 400 350/09 RMK AO2 CIG 036 RWY 14 P0001
14840KMKG MKG20060310021512003/10/06 02:15:31  5-MIN KMKG 100715Z 34009KT 10SM -RA BKN006 BKN046 OVC065 04/04 A2920 1300 96 400 340/09 RMK AO2 P0001
14840KMKG MKG20060310022012003/10/06 02:20:31  5-MIN KMKG 100720Z 35009KT 10SM -RA BKN006 BKN046 OVC065 04/04 A2920 1300 96 400 350/09 RMK AO2 P0001
14840KMKG MKG20060310022511303/10/06 02:25:31  5-MIN KMKG 100725Z 35009KT 10SM -RA BKN006 OVC065 04/04 A2921 1300 96 400 350/09 RMK AO2 P0001
14840KMKG MKG20060310023011303/10/06 02:30:31  5-MIN KMKG 100730Z 35010KT 10SM -RA BKN006 OVC070 04/04 A2921 1300 96 400 360/10 RMK AO2 P0001
14840KMKG MKG20060310023510603/10/06 02:35:31  5-MIN KMKG 100735Z 35010KT 10SM -RA OVC006 04/03 A2921 1300 92 400 360/10 RMK AO2 P0001
14840KMKG MKG20060310024010603/10/06 02:40:31  5-MIN KMKG 100740Z 36011KT 10SM -RA OVC006 04/03 A2921 1300 92 400 010/11 RMK AO2 P0001
14840KMKG MKG20060310024510603/10/06 02:45:31  5-MIN KMKG 100745Z 35011KT 10SM -RA OVC006 04/03 A2921 1300 92 400 360/11 RMK AO2 P0001
14840KMKG MKG20060310025012103/10/06 02:50:31  5-MIN KMKG 100750Z 01010KT 8SM RA OVC006 04/03 A2920 1300 92 400 010/10 RMK AO2 SLP893 P0003 T00440033
14840KMKG MKG20060310025513603/10/06 02:55:31  5-MIN KMKG 100755Z 01008KT 6SM RA BR OVC006 04/03 A2921 1300 92 400 010/08 RMK AO2 CIG 005V009 SLP893 P0004 T00440033
14840KMKG MKG20060310030010503/10/06 03:00:31  5-MIN KMKG 100800Z 36010KT 7SM -RA OVC006 04/03 A2921 1290 96 300 360/10 RMK AO2 P0000
14840KMKG MKG20060310030511703/10/06 03:05:31  5-MIN KMKG 100805Z 33012KT 8SM -RA OVC006 04/03 A2922 1290 96 300 330/12 RMK AO2 CIG 005V010 P0001
14840KMKG MKG20060310031012403/10/06 03:10:31  5-MIN KMKG 100810Z 32012KT 8SM -RA OVC006 04/03 A2923 1280 92 300 330/12 RMK AO2 CIG 005V010 PRESRR P0002
14840KMKG MKG20060310031512403/10/06 03:15:31  5-MIN KMKG 100815Z 32012KT 9SM -RA OVC006 04/03 A2924 1270 92 300 330/12 RMK AO2 CIG 005V010 PRESRR P0002
14840KMKG MKG20060310032010603/10/06 03:20:31  5-MIN KMKG 100820Z 34014KT 10SM -RA OVC006 03/03 A2924 1260 96 200 340/14 RMK AO2 P0002
14840KMKG MKG20060310032510603/10/06 03:25:31  5-MIN KMKG 100825Z 34014KT 10SM -RA OVC006 03/02 A2925 1260 92 200 340/14 RMK AO2 P0002
14840KMKG MKG20060310033012003/10/06 03:30:31  5-MIN KMKG 100830Z 34013KT 10SM OVC006 03/02 A2925 1260 92 200 340/13 RMK AO2 RAE29 CIG 005V009 P0002
14840KMKG MKG20060310033512603/10/06 03:35:31  5-MIN KMKG 100835Z 34014G20KT 10SM OVC006 03/02 A2926 1250 92 200 340/14G20 RMK AO2 RAE29 CIG 005V012 P0002
14840KMKG MKG20060310034013303/10/06 03:40:31  5-MIN KMKG 100840Z 34013G21KT 10SM OVC008 03/02 A2926 1240 89 200 350/13G21 RMK AO2 RAE29 CIG 005V012 PRESRR P0002
14840KMKG MKG20060310034512603/10/06 03:45:31  5-MIN KMKG 100845Z 34013G21KT 10SM OVC008 03/02 A2927 1240 89 200 340/13G21 RMK AO2 RAE29 CIG 006V013 P0002
14840KMKG MKG20060310035014903/10/06 03:50:31  5-MIN KMKG 100850Z 35013KT 10SM OVC008 03/02 A2927 1240 89 200 350/13 RMK AO2 RAE29 CIG 006V013 SLP914 P0002 60010 T00330017 56010
14840KMKG MKG20060310035515603/10/06 03:55:31  5-MIN KMKG 100855Z 35012KT 10SM BKN008 OVC023 03/02 A2927 1240 89 200 350/12 RMK AO2 RAE29 CIG 006V011 SLP915 P0002 60010 T00330017 53028
14840KMKG MKG20060310040011503/10/06 04:00:31  5-MIN KMKG 100900Z 34012KT 10SM BKN008 OVC023 03/02 A2928 1230 89 200 340/12 RMK AO2 CIG 007V011
14840KMKG MKG20060310040510303/10/06 04:05:31  5-MIN KMKG 100905Z 34012KT 10SM BKN010 OVC023 03/02 A2928 1230 89 100 340/12 RMK AO2
14840KMKG MKG20060310041011003/10/06 04:10:31  5-MIN KMKG 100910Z 33012KT 10SM BKN010 OVC023 03/02 A2929 1220 89 100 340/12 RMK AO2 PRESRR
14840KMKG MKG20060310041511003/10/06 04:15:31  5-MIN KMKG 100915Z 34009KT 10SM BKN010 OVC023 03/02 A2930 1210 89 100 340/09 RMK AO2 PRESRR
14840KMKG MKG20060310042011003/10/06 04:20:31  5-MIN KMKG 100920Z 34010KT 10SM BKN010 OVC023 03/02 A2931 1200 89 100 340/10 RMK AO2 PRESRR
14840KMKG MKG20060310042510303/10/06 04:25:31  5-MIN KMKG 100925Z 34011KT 10SM OVC010 03/02 A2931 1200 89 100 340/11 RMK AO2 PRESRR
14840KMKG MKG20060310043011503/10/06 04:30:31  5-MIN KMKG 100930Z 34011KT 10SM OVC010 03/02 A2932 1190 89 100 340/11 RMK AO2 CIG 008V012 PRESRR
14840KMKG MKG20060310043510603/10/06 04:35:31  5-MIN KMKG 100935Z 33010KT 10SM OVC008 03/02 A2933 1180 92 0 330/10 RMK AO2 CIG 007V012
14840KMKG MKG20060310044011303/10/06 04:40:31  5-MIN KMKG 100940Z 34011KT 10SM OVC008 03/02 A2933 1180 92 0 340/11 RMK AO2 CIG 007V011 PRESRR
14840KMKG MKG20060310044511303/10/06 04:45:31  5-MIN KMKG 100945Z 34013KT 10SM OVC008 03/02 A2934 1170 92 0 340/13 RMK AO2 CIG 007V011 PRESRR
14840KMKG MKG20060310045011803/10/06 04:50:31  5-MIN KMKG 100950Z 34015KT 10SM OVC008 03/02 A2935 1170 92 0 340/15 RMK AO2 PRESRR SLP941 T00280017
14840KMKG MKG20060310045511803/10/06 04:55:31  5-MIN KMKG 100955Z 34013KT 10SM OVC008 03/02 A2936 1160 92 0 340/13 RMK AO2 PRESRR SLP944 T00280017
14840KMKG MKG20060310050010103/10/06 05:00:31  5-MIN KMKG 101000Z 33011KT 10SM OVC008 03/02 A2936 1150 92 0 340/11 RMK AO2 PRESRR
14840KMKG MKG20060310050510703/10/06 05:05:31  5-MIN KMKG 101005Z 34011G18KT 10SM OVC008 03/02 A2937 1140 92 0 340/11G18 RMK AO2 PRESRR
14840KMKG MKG20060310051010003/10/06 05:10:31  5-MIN KMKG 101010Z 34011G18KT 10SM OVC008 03/02 A2938 1140 92 0 340/11G18 RMK AO2
14840KMKG MKG20060310051510103/10/06 05:15:31  5-MIN KMKG 101015Z 34011KT 10SM OVC008 03/02 A2938 1130 92 0 340/11 RMK AO2 PRESRR
14840KMKG MKG20060310052009403/10/06 05:20:31  5-MIN KMKG 101020Z 33012KT 10SM OVC008 03/02 A2939 1130 92 0 340/12 RMK AO2
14840KMKG MKG20060310052510103/10/06 05:25:31  5-MIN KMKG 101025Z 33015KT 10SM OVC008 03/02 A2940 1120 92 0 340/15 RMK AO2 PRESRR
14840KMKG MKG20060310053010003/10/06 05:30:31  5-MIN KMKG 101030Z 34014G19KT 10SM OVC008 03/02 A2940 1110 92 0 340/14G19 RMK AO2
14840KMKG MKG20060310053509903/10/06 05:35:31  5-MIN KMKG 101035Z 34014G19KT 9SM OVC008 03/02 A2940 1110 92 0 340/14G19 RMK AO2
14840KMKG MKG20060310054010003/10/06 05:40:31  5-MIN KMKG 101040Z 34012KT 9SM OVC008 03/02 A2942 1100 92 0 340/12 RMK AO2 PRESRR
14840KMKG MKG20060310054510003/10/06 05:45:31  5-MIN KMKG 101045Z 34012KT 8SM OVC008 03/02 A2943 1090 92 0 340/12 RMK AO2 PRESRR
14840KMKG MKG20060310055012603/10/06 05:50:31  5-MIN KMKG 101050Z 34014G19KT 8SM OVC008 03/02 A2944 1080 92 -100 350/14G19 RMK AO2 PRESRR SLP972 T00280017
14840KMKG MKG20060310055511903/10/06 05:55:31  5-MIN KMKG 101055Z 34015G21KT 8SM OVC008 03/01 A2944 1080 89 -100 340/15G21 RMK AO2 SLP973 T00280011
14840KMKG MKG20060310060010203/10/06 06:00:31  5-MIN KMKG 101100Z 34013G21KT 8SM OVC008 03/01 A2945 1070 89 -100 350/13G21 RMK AO2
14840KMKG MKG20060310060509603/10/06 06:05:31  5-MIN KMKG 101105Z 34010KT 7SM OVC008 03/02 A2945 1070 92 -100 340/10 RMK AO2
14840KMKG MKG20060310061010903/10/06 06:10:31  5-MIN KMKG 101110Z 34015G19KT 7SM OVC008 03/02 A2946 1060 92 -100 340/15G19 RMK AO2 PRESRR
14840KMKG MKG20060310061510203/10/06 06:15:31  5-MIN KMKG 101115Z 34014G19KT 7SM OVC008 03/01 A2946 1060 89 -100 340/14G19 RMK AO2
14840KMKG MKG20060310062009603/10/06 06:20:31  5-MIN KMKG 101120Z 34012KT 7SM OVC008 03/01 A2947 1050 89 -100 350/12 RMK AO2
14840KMKG MKG20060310062509603/10/06 06:25:31  5-MIN KMKG 101125Z 34013KT 7SM OVC008 03/02 A2947 1050 92 -100 340/13 RMK AO2
14840KMKG MKG20060310063010303/10/06 06:30:31  5-MIN KMKG 101130Z 34012KT 7SM OVC008 03/02 A2948 1040 92 -100 340/12 RMK AO2 PRESRR
14840KMKG MKG20060310063509903/10/06 06:35:31  5-MIN KMKG 101135Z 34011KT 6SM BR OVC008 03/02 A2948 1040 92 -100 340/11 RMK AO2
14840KMKG MKG20060310064009903/10/06 06:40:31  5-MIN KMKG 101140Z 33012KT 6SM BR OVC006 03/02 A2949 1040 92 -100 340/12 RMK AO2
14840KMKG MKG20060310064509903/10/06 06:45:31  5-MIN KMKG 101145Z 34011KT 6SM BR OVC006 03/02 A2949 1030 92 -100 340/11 RMK AO2
14840KMKG MKG20060310065014603/10/06 06:50:31  5-MIN KMKG 101150Z 33011KT 5SM BR OVC006 03/02 A2950 1020 92 -100 340/11 RMK AO2 SLP993 60010 70079 T00280017 10050 20028 53028
14840KMKG MKG20060310065515303/10/06 06:55:31  5-MIN KMKG 101155Z 33013KT 5SM BR OVC006 03/02 A2951 1020 92 -100 330/13 RMK AO2 PRESRR SLP995 60010 70079 T00280017 10050 20028 51078
14840KMKG MKG20060310070010603/10/06 07:00:31  5-MIN KMKG 101200Z 33010KT 5SM BR OVC006 03/02 A2951 1010 92 -100 340/10 RMK AO2 PRESRR
14840KMKG MKG20060310070510603/10/06 07:05:31  5-MIN KMKG 101205Z 32008KT 5SM BR OVC006 03/02 A2952 1000 92 -200 330/08 RMK AO2 PRESRR
14840KMKG MKG20060310071010503/10/06 07:10:31  5-MIN KMKG 101210Z 33009KT 5SM BR OVC006 03/02 A2953 990 92 -200 330/09 RMK AO2 PRESRR
14840KMKG MKG20060310071509803/10/06 07:15:31  5-MIN KMKG 101215Z 32009KT 5SM BR OVC006 03/02 A2954 990 92 -200 330/09 RMK AO2
14840KMKG MKG20060310072010503/10/06 07:20:31  5-MIN KMKG 101220Z 32008KT 6SM BR OVC006 03/02 A2955 980 92 -200 330/08 RMK AO2 PRESRR
14840KMKG MKG20060310072510503/10/06 07:25:31  5-MIN KMKG 101225Z 32006KT 6SM BR OVC006 03/02 A2955 970 92 -200 320/06 RMK AO2 PRESRR
14840KMKG MKG20060310073011703/10/06 07:30:31  5-MIN KMKG 101230Z 31007KT 6SM BR OVC006 03/02 A2956 960 92 -200 310/07 RMK AO2 CIG 005V011 PRESRR
14840KMKG MKG20060310073512403/10/06 07:35:31  5-MIN KMKG 101235Z 30009KT 6SM BR BKN006 BKN011 OVC021 03/02 A2956 960 92 -200 310/09 RMK AO2 CIG 005V009
14840KMKG MKG20060310074012403/10/06 07:40:31  5-MIN KMKG 101240Z 31008KT 6SM BR BKN008 BKN013 OVC021 03/01 A2956 960 89 -200 320/08 RMK AO2 CIG 006V010
14840KMKG MKG20060310074511703/10/06 07:45:31  5-MIN KMKG 101245Z 30007KT 6SM BR BKN008 OVC021 03/01 A2957 960 89 -200 310/07 RMK AO2 CIG 006V014
14840KMKG MKG20060310075011703/10/06 07:50:31  5-MIN KMKG 101250Z 32008KT 6SM BR BKN008 OVC021 03/02 A2957 950 92 -200 330/08 RMK AO2 CIG 006V012
14840KMKG MKG20060310075514103/10/06 07:55:31  5-MIN KMKG 101255Z 31007KT 6SM BR BKN010 BKN013 OVC021 03/02 A2958 950 92 -200 320/07 RMK AO2 CIG 007V012 SLP021 T00280017
14840KMKG MKG20060310080013303/10/06 08:00:31  5-MIN KMKG 101300Z 30007KT 280V340 6SM BR BKN008 OVC021 03/02 A2958 940 92 -200 310/07 280V340 RMK AO2 CIG 006V012
14840KMKG MKG20060310080512403/10/06 08:05:31  5-MIN KMKG 101305Z 31008KT 6SM BR BKN008 OVC021 03/02 A2959 940 92 -200 310/08 RMK AO2 CIG 006V012 PRESRR
14840KMKG MKG20060310081012403/10/06 08:10:31  5-MIN KMKG 101310Z 30010KT 6SM BR BKN008 OVC021 03/01 A2960 930 89 -200 310/10 RMK AO2 CIG 006V012 PRESRR
14840KMKG MKG20060310081511703/10/06 08:15:31  5-MIN KMKG 101315Z 31009KT 6SM BR OVC008 03/01 A2961 910 89 -300 310/09 RMK AO2 CIG 006V011 PRESRR
14840KMKG MKG20060310082011003/10/06 08:20:31  5-MIN KMKG 101320Z 32009KT 6SM BR OVC008 03/01 A2961 920 89 -300 320/09 RMK AO2 CIG 006V012
14840KMKG MKG20060310082510203/10/06 08:25:31  5-MIN KMKG 101325Z 33010KT 7SM BKN008 OVC012 03/01 A2961 920 89 -300 330/10 RMK AO2
14840KMKG MKG20060310083010703/10/06 08:30:31  5-MIN KMKG 101330Z 33013KT 7SM OVC008 03/01 A2961 920 89 -300 330/13 RMK AO2 CIG 006V013
14840KMKG MKG20060310083511003/10/06 08:35:31  5-MIN KMKG 101335Z 33010KT 6SM BR OVC008 03/01 A2962 910 89 -300 340/10 RMK AO2 CIG 006V013
14840KMKG MKG20060310084011003/10/06 08:40:31  5-MIN KMKG 101340Z 33010KT 6SM BR OVC008 03/01 A2962 910 89 -300 340/10 RMK AO2 CIG 006V014
14840KMKG MKG20060310084511703/10/06 08:45:31  5-MIN KMKG 101345Z 32008KT 6SM BR OVC008 03/01 A2964 900 89 -300 330/08 RMK AO2 CIG 006V012 PRESRR
14840KMKG MKG20060310085013103/10/06 08:50:31  5-MIN KMKG 101350Z 31007KT 7SM OVC008 03/01 A2964 890 89 -300 310/07 RMK AO2 CIG 006V012 PRESRR SLP043 T00280011
14840KMKG MKG20060310085513103/10/06 08:55:31  5-MIN KMKG 101355Z 30008KT 7SM OVC008 03/01 A2965 880 89 -300 310/08 RMK AO2 CIG 007V012 PRESRR SLP046 T00280011
14840KMKG MKG20060310090011403/10/06 09:00:31  5-MIN KMKG 101400Z 30008KT 8SM OVC008 03/01 A2966 870 89 -300 300/08 RMK AO2 CIG 007V013 PRESRR
14840KMKG MKG20060310090510703/10/06 09:05:31  5-MIN KMKG 101405Z 31009KT 8SM OVC008 03/01 A2966 870 89 -300 320/09 RMK AO2 CIG 007V013
14840KMKG MKG20060310091011403/10/06 09:10:31  5-MIN KMKG 101410Z 31008KT 9SM OVC010 03/01 A2967 860 85 -300 320/08 RMK AO2 CIG 007V013 PRESRR
14840KMKG MKG20060310091510703/10/06 09:15:31  5-MIN KMKG 101415Z 32006KT 9SM OVC010 03/01 A2967 860 85 -300 320/06 RMK AO2 CIG 007V013
14840KMKG MKG20060310092009503/10/06 09:20:31  5-MIN KMKG 101420Z 31007KT 9SM OVC010 03/01 A2968 860 85 -300 310/07 RMK AO2
14840KMKG MKG20060310092509503/10/06 09:25:31  5-MIN KMKG 101425Z 31010KT 9SM OVC010 03/01 A2969 850 85 -300 310/10 RMK AO2
14840KMKG MKG20060310093009603/10/06 09:30:31  5-MIN KMKG 101430Z 31008KT 10SM OVC010 03/01 A2969 840 85 -300 310/08 RMK AO2
14840KMKG MKG20060310093509603/10/06 09:35:31  5-MIN KMKG 101435Z 30009KT 10SM OVC010 03/01 A2970 840 85 -400 300/09 RMK AO2
14840KMKG MKG20060310094009603/10/06 09:40:31  5-MIN KMKG 101440Z 30010KT 10SM OVC010 03/01 A2970 830 85 -400 300/10 RMK AO2
14840KMKG MKG20060310094510303/10/06 09:45:31  5-MIN KMKG 101445Z 30009KT 10SM OVC010 03/01 A2971 820 85 -400 310/09 RMK AO2 PRESRR
14840KMKG MKG20060310095012603/10/06 09:50:31  5-MIN KMKG 101450Z 30008KT 10SM OVC010 03/01 A2972 820 85 -400 300/08 RMK AO2 PRESRR SLP068 T00280006 51078
14840KMKG MKG20060310095511903/10/06 09:55:31  5-MIN KMKG 101455Z 30009KT 10SM OVC010 03/01 A2972 820 85 -400 300/09 RMK AO2 SLP069 T00280006 51071
14840KMKG MKG20060310100009603/10/06 10:00:31  5-MIN KMKG 101500Z 28009KT 10SM OVC012 03/01 A2972 810 85 -400 290/09 RMK AO2
14840KMKG MKG20060310100509603/10/06 10:05:31  5-MIN KMKG 101505Z 29011KT 10SM OVC012 03/01 A2973 800 85 -400 290/11 RMK AO2
14840KMKG MKG20060310101009603/10/06 10:10:31  5-MIN KMKG 101510Z 29009KT 10SM OVC012 03/01 A2973 800 85 -400 290/09 RMK AO2
14840KMKG MKG20060310101509603/10/06 10:15:31  5-MIN KMKG 101515Z 29011KT 10SM OVC012 03/01 A2973 800 85 -400 300/11 RMK AO2
14840KMKG MKG20060310102009603/10/06 10:20:31  5-MIN KMKG 101520Z 30008KT 10SM OVC012 03/01 A2973 800 85 -400 310/08 RMK AO2
14840KMKG MKG20060310102509603/10/06 10:25:31  5-MIN KMKG 101525Z 30008KT 10SM OVC012 03/01 A2974 800 85 -400 300/08 RMK AO2
14840KMKG MKG20060310103009603/10/06 10:30:31  5-MIN KMKG 101530Z 29011KT 10SM OVC012 03/01 A2974 800 89 -400 300/11 RMK AO2
14840KMKG MKG20060310103509603/10/06 10:35:31  5-MIN KMKG 101535Z 29009KT 10SM OVC012 03/01 A2975 790 85 -300 290/09 RMK AO2
14840KMKG MKG20060310104009503/10/06 10:40:31  5-MIN KMKG 101540Z 30010KT 9SM OVC014 03/01 A2975 790 85 -300 300/10 RMK AO2
14840KMKG MKG20060310104509503/10/06 10:45:31  5-MIN KMKG 101545Z 30008KT 9SM OVC014 03/01 A2975 790 85 -300 310/08 RMK AO2
14840KMKG MKG20060310105012703/10/06 10:50:31  5-MIN KMKG 101550Z 30011KT 9SM OVC014 03/01 A2975 790 85 -300 300/11 RMK AO2 CIG 009 RWY 14 SLP079 T00330011
14840KMKG MKG20060310105511203/10/06 10:55:31  5-MIN KMKG 101555Z 30010KT 9SM OVC012 03/01 A2976 780 85 -400 300/10 RMK AO2 SLP081 T00330011
14840KMKG MKG20060310110009503/10/06 11:00:31  5-MIN KMKG 101600Z 29010KT 9SM OVC012 03/01 A2976 780 85 -400 300/10 RMK AO2
14840KMKG MKG20060310110510203/10/06 11:05:31  5-MIN KMKG 101605Z 30011KT 9SM BKN010 OVC018 03/01 A2977 770 89 -400 310/11 RMK AO2
14840KMKG MKG20060310111012103/10/06 11:10:31  5-MIN KMKG 101610Z 29008KT 9SM BKN010 OVC018 03/01 A2977 770 85 -400 290/08 RMK AO2 CIG 008V014 PRESRR
14840KMKG MKG20060310111511403/10/06 11:15:31  5-MIN KMKG 101615Z 28009KT 9SM OVC010 03/01 A2978 760 89 -400 280/09 RMK AO2 CIG 008V012 PRESRR
14840KMKG MKG20060310112010803/10/06 11:20:31  5-MIN KMKG 101620Z 29010KT 10SM OVC010 03/01 A2978 760 89 -500 290/10 RMK AO2 CIG 008V012
14840KMKG MKG20060310112510803/10/06 11:25:31  5-MIN KMKG 101625Z 28011KT 10SM OVC010 03/01 A2978 760 89 -500 280/11 RMK AO2 CIG 008V012
14840KMKG MKG20060310113010303/10/06 11:30:31  5-MIN KMKG 101630Z 29008KT 10SM BKN010 OVC017 03/01 A2978 760 85 -400 290/08 RMK AO2
14840KMKG MKG20060310113510303/10/06 11:35:31  5-MIN KMKG 101635Z 29009KT 10SM BKN008 OVC017 03/01 A2979 750 85 -400 300/09 RMK AO2
14840KMKG MKG20060310114010303/10/06 11:40:31  5-MIN KMKG 101640Z 28008KT 10SM BKN008 OVC019 03/01 A2979 750 85 -400 280/08 RMK AO2
14840KMKG MKG20060310114511503/10/06 11:45:31  5-MIN KMKG 101645Z 29012KT 10SM BKN008 OVC019 03/01 A2979 750 85 -400 290/12 RMK AO2 CIG 007V012
14840KMKG MKG20060310115013203/10/06 11:50:31  5-MIN KMKG 101650Z 29009KT 10SM BKN008 OVC019 03/01 A2979 750 85 -400 300/09 RMK AO2 CIG 007V012 SLP093 T00330011
14840KMKG MKG20060310115513203/10/06 11:55:31  5-MIN KMKG 101655Z 28009KT 10SM BKN008 OVC019 03/01 A2980 740 85 -400 280/09 RMK AO2 CIG 007V012 SLP096 T00330011
14840KMKG MKG20060310120011503/10/06 12:00:31  5-MIN KMKG 101700Z 28010KT 10SM BKN010 OVC019 04/02 A2981 740 85 -300 280/10 RMK AO2 CIG 007V013
14840KMKG MKG20060310120512203/10/06 12:05:31  5-MIN KMKG 101705Z 28010KT 10SM BKN010 BKN013 OVC019 03/01 A2981 740 85 -400 280/10 RMK AO2 CIG 008V012
14840KMKG MKG20060310121011403/10/06 12:10:31  5-MIN KMKG 101710Z 28011KT 9SM BKN010 OVC019 03/01 A2981 730 85 -400 290/11 RMK AO2 CIG 008V013
14840KMKG MKG20060310121511403/10/06 12:15:31  5-MIN KMKG 101715Z 28010KT 9SM BKN010 OVC019 03/01 A2982 730 85 -400 280/10 RMK AO2 CIG 008V013
14840KMKG MKG20060310122011403/10/06 12:20:31  5-MIN KMKG 101720Z 29010KT 9SM BKN010 OVC019 03/01 A2981 730 85 -400 300/10 RMK AO2 CIG 008V013
14840KMKG MKG20060310122511403/10/06 12:25:31  5-MIN KMKG 101725Z 29010KT 9SM BKN010 OVC019 03/01 A2981 730 85 -400 290/10 RMK AO2 CIG 008V013
14840KMKG MKG20060310123010903/10/06 12:30:31  5-MIN KMKG 101730Z 28008KT 9SM BKN010 BKN013 OVC019 03/01 A2981 730 85 -400 290/08 RMK AO2
14840KMKG MKG20060310123511403/10/06 12:35:31  5-MIN KMKG 101735Z 27010KT 9SM BKN010 OVC019 03/01 A2982 720 85 -400 280/10 RMK AO2 CIG 008V014
14840KMKG MKG20060310124011403/10/06 12:40:31  5-MIN KMKG 101740Z 29008KT 8SM BKN010 OVC017 03/01 A2982 720 89 -500 290/08 RMK AO2 CIG 008V013
14840KMKG MKG20060310124511703/10/06 12:45:31  5-MIN KMKG 101745Z 28007KT 8SM SCT010 OVC015 03/01 A2982 720 85 -400 280/07 RMK AO2 CIG 009 RWY 14
14840KMKG MKG20060310125015203/10/06 12:50:31  5-MIN KMKG 101750Z 26008KT 8SM SCT008 OVC015 03/01 A2982 720 89 -500 260/08 RMK AO2 CIG 009 RWY 14 SLP104 T00280011 10039 20028 51071
14840KMKG MKG20060310125511703/10/06 12:55:31  5-MIN KMKG 101755Z 26009KT 8SM SCT008 OVC015 03/01 A2983 720 85 -400 260/09 RMK AO2 CIG 009 RWY 14
14840KMKG MKG20060310130011703/10/06 13:00:31  5-MIN KMKG 101800Z 27009KT 8SM SCT008 OVC015 03/01 A2983 720 85 -400 280/09 RMK AO2 CIG 009 RWY 14
14840KMKG MKG20060310130511703/10/06 13:05:31  5-MIN KMKG 101805Z 28009KT 9SM SCT008 OVC015 03/01 A2983 720 85 -500 280/09 RMK AO2 CIG 009 RWY 14
14840KMKG MKG20060310131011403/10/06 13:10:31  5-MIN KMKG 101810Z 27008KT 9SM BKN008 OVC015 03/01 A2983 720 85 -400 270/08 RMK AO2 CIG 008V013
14840KMKG MKG20060310131510203/10/06 13:15:31  5-MIN KMKG 101815Z 27009KT 9SM BKN008 OVC015 03/01 A2983 720 85 -400 280/09 RMK AO2
14840KMKG MKG20060310132010303/10/06 13:20:31  5-MIN KMKG 101820Z 28009KT 10SM BKN008 OVC017 03/01 A2983 710 82 -400 280/09 RMK AO2
14840KMKG MKG20060310132510303/10/06 13:25:31  5-MIN KMKG 101825Z 26009KT 10SM BKN008 OVC017 03/01 A2983 710 85 -400 260/09 RMK AO2
14840KMKG MKG20060310133010303/10/06 13:30:31  5-MIN KMKG 101830Z 26007KT 10SM BKN008 OVC017 03/01 A2983 710 82 -400 270/07 RMK AO2
14840KMKG MKG20060310133511503/10/06 13:35:31  5-MIN KMKG 101835Z 25008KT 10SM BKN010 OVC017 03/01 A2984 710 85 -400 260/08 RMK AO2 CIG 008V014
14840KMKG MKG20060310134010303/10/06 13:40:31  5-MIN KMKG 101840Z 26009KT 10SM SCT010 OVC017 03/01 A2984 710 82 -400 270/09 RMK AO2
14840KMKG MKG20060310134510303/10/06 13:45:31  5-MIN KMKG 101845Z 26008KT 10SM FEW010 OVC015 03/00 A2984 700 79 -400 260/08 RMK AO2
14840KMKG MKG20060310135012003/10/06 13:50:31  5-MIN KMKG 101850Z 27008KT 10SM FEW011 OVC017 04/00 A2984 700 76 -400 270/08 RMK AO2 SLP110 T00390000
14840KMKG MKG20060310135511303/10/06 13:55:31  5-MIN KMKG 101855Z 27009KT 10SM OVC015 04/00 A2984 700 76 -400 270/09 RMK AO2 SLP111 T00390000
14840KMKG MKG20060310140009603/10/06 14:00:31  5-MIN KMKG 101900Z 27009KT 10SM OVC015 04/00 A2984 700 76 -400 280/09 RMK AO2
14840KMKG MKG20060310140509603/10/06 14:05:31  5-MIN KMKG 101905Z 27006KT 10SM OVC017 04/01 A2985 700 79 -400 280/06 RMK AO2
14840KMKG MKG20060310141009603/10/06 14:10:31  5-MIN KMKG 101910Z 26009KT 10SM OVC017 04/00 A2985 690 76 -400 260/09 RMK AO2
14840KMKG MKG20060310141509603/10/06 14:15:31  5-MIN KMKG 101915Z 24007KT 10SM OVC017 04/00 A2985 700 76 -400 240/07 RMK AO2
14840KMKG MKG20060310142009603/10/06 14:20:31  5-MIN KMKG 101920Z 25007KT 10SM OVC017 04/00 A2985 700 76 -400 250/07 RMK AO2
14840KMKG MKG20060310142509603/10/06 14:25:31  5-MIN KMKG 101925Z 24006KT 10SM OVC017 04/00 A2985 690 76 -400 250/06 RMK AO2
14840KMKG MKG20060310143009603/10/06 14:30:31  5-MIN KMKG 101930Z 26009KT 10SM OVC017 04/00 A2985 690 76 -400 260/09 RMK AO2
14840KMKG MKG20060310143509603/10/06 14:35:31  5-MIN KMKG 101935Z 28007KT 10SM OVC017 04/00 A2986 690 76 -400 280/07 RMK AO2
14840KMKG MKG20060310144009603/10/06 14:40:31  5-MIN KMKG 101940Z 27009KT 10SM OVC017 04/00 A2986 680 76 -400 280/09 RMK AO2
14840KMKG MKG20060310144509603/10/06 14:45:31  5-MIN KMKG 101945Z 25009KT 10SM OVC017 04/00 A2987 680 76 -400 250/09 RMK AO2
14840KMKG MKG20060310145011303/10/06 14:50:31  5-MIN KMKG 101950Z 27008KT 10SM OVC017 04/00 A2987 680 76 -400 270/08 RMK AO2 SLP120 T00390000
14840KMKG MKG20060310145511303/10/06 14:55:31  5-MIN KMKG 101955Z 26008KT 10SM OVC017 04/00 A2987 680 76 -400 260/08 RMK AO2 SLP120 T00390000
14840KMKG MKG20060310150009603/10/06 15:00:31  5-MIN KMKG 102000Z 23008KT 10SM OVC017 04/00 A2987 680 76 -400 240/08 RMK AO2
14840KMKG MKG20060310150509603/10/06 15:05:31  5-MIN KMKG 102005Z 24007KT 10SM OVC017 04/00 A2988 670 76 -400 250/07 RMK AO2
14840KMKG MKG20060310151009603/10/06 15:10:31  5-MIN KMKG 102010Z 24008KT 10SM OVC017 04/00 A2988 670 76 -400 250/08 RMK AO2
14840KMKG MKG20060310151509603/10/06 15:15:31  5-MIN KMKG 102015Z 25008KT 10SM OVC017 04/00 A2988 670 76 -400 250/08 RMK AO2
14840KMKG MKG20060310152009603/10/06 15:20:31  5-MIN KMKG 102020Z 24009KT 10SM OVC017 04/00 A2988 660 76 -400 250/09 RMK AO2
14840KMKG MKG20060310152509603/10/06 15:25:31  5-MIN KMKG 102025Z 24009KT 10SM OVC017 04/00 A2989 660 76 -400 240/09 RMK AO2
14840KMKG MKG20060310153009603/10/06 15:30:31  5-MIN KMKG 102030Z 23009KT 10SM OVC017 04/00 A2989 660 76 -400 230/09 RMK AO2
14840KMKG MKG20060310153509603/10/06 15:35:31  5-MIN KMKG 102035Z 23010KT 10SM OVC017 04/00 A2989 650 76 -400 230/10 RMK AO2
14840KMKG MKG20060310154009603/10/06 15:40:31  5-MIN KMKG 102040Z 22010KT 10SM OVC017 04/00 A2990 650 76 -400 220/10 RMK AO2
14840KMKG MKG20060310154509603/10/06 15:45:31  5-MIN KMKG 102045Z 23009KT 10SM OVC017 04/00 A2990 650 76 -500 240/09 RMK AO2
14840KMKG MKG20060310155011903/10/06 15:50:31  5-MIN KMKG 102050Z 22007KT 10SM OVC017 04/00 A2990 650 76 -500 220/07 RMK AO2 SLP131 T00390000 51035
14840KMKG MKG20060310155511903/10/06 15:55:31  5-MIN KMKG 102055Z 22007KT 10SM OVC017 04/01 A2990 650 76 -400 230/07 RMK AO2 SLP130 T00440006 53025
14840KMKG MKG20060310160009603/10/06 16:00:31  5-MIN KMKG 102100Z 22010KT 10SM OVC017 04/00 A2990 650 76 -500 230/10 RMK AO2
14840KMKG MKG20060310160509603/10/06 16:05:31  5-MIN KMKG 102105Z 21009KT 10SM OVC017 04/00 A2990 650 76 -500 220/09 RMK AO2
14840KMKG MKG20060310161009603/10/06 16:10:31  5-MIN KMKG 102110Z 22010KT 10SM OVC017 04/00 A2990 640 76 -500 220/10 RMK AO2
14840KMKG MKG20060310161509603/10/06 16:15:31  5-MIN KMKG 102115Z 24009KT 10SM OVC017 04/00 A2991 640 76 -500 240/09 RMK AO2
14840KMKG MKG20060310162009603/10/06 16:20:31  5-MIN KMKG 102120Z 23008KT 10SM OVC017 04/00 A2991 640 76 -500 230/08 RMK AO2
14840KMKG MKG20060310162509603/10/06 16:25:31  5-MIN KMKG 102125Z 22008KT 10SM OVC017 04/00 A2991 640 76 -500 220/08 RMK AO2
14840KMKG MKG20060310163009603/10/06 16:30:31  5-MIN KMKG 102130Z 21010KT 10SM OVC017 04/00 A2992 630 76 -500 210/10 RMK AO2
14840KMKG MKG20060310163509603/10/06 16:35:31  5-MIN KMKG 102135Z 22007KT 10SM OVC017 04/00 A2992 630 76 -500 220/07 RMK AO2
14840KMKG MKG20060310164009603/10/06 16:40:31  5-MIN KMKG 102140Z 20006KT 10SM OVC017 04/01 A2992 630 76 -400 200/06 RMK AO2
14840KMKG MKG20060310164509603/10/06 16:45:31  5-MIN KMKG 102145Z 21008KT 10SM OVC017 04/00 A2992 640 73 -400 220/08 RMK AO2
14840KMKG MKG20060310165011303/10/06 16:50:31  5-MIN KMKG 102150Z 22008KT 10SM OVC017 04/00 A2991 640 73 -400 220/08 RMK AO2 SLP135 T00440000
14840KMKG MKG20060310165511303/10/06 16:55:31  5-MIN KMKG 102155Z 21007KT 10SM BKN017 04/00 A2991 640 73 -400 210/07 RMK AO2 SLP134 T00440000
14840KMKG MKG20060310170009603/10/06 17:00:31  5-MIN KMKG 102200Z 21004KT 10SM BKN017 04/00 A2991 640 73 -400 210/04 RMK AO2
14840KMKG MKG20060310170509603/10/06 17:05:31  5-MIN KMKG 102205Z 20007KT 10SM SCT017 04/00 A2991 640 76 -500 210/07 RMK AO2
14840KMKG MKG20060310171009603/10/06 17:10:31  5-MIN KMKG 102210Z 20006KT 10SM BKN017 04/00 A2992 630 76 -500 200/06 RMK AO2
14840KMKG MKG20060310171509603/10/06 17:15:31  5-MIN KMKG 102215Z 21007KT 10SM SCT017 04/00 A2992 630 76 -500 210/07 RMK AO2
14840KMKG MKG20060310172009603/10/06 17:20:31  5-MIN KMKG 102220Z 19007KT 10SM SCT017 04/00 A2992 630 76 -500 190/07 RMK AO2
14840KMKG MKG20060310172509603/10/06 17:25:31  5-MIN KMKG 102225Z 18005KT 10SM SCT017 04/00 A2992 630 73 -400 180/05 RMK AO2
14840KMKG MKG20060310173009603/10/06 17:30:31  5-MIN KMKG 102230Z 17004KT 10SM SCT017 04/01 A2992 630 76 -400 180/04 RMK AO2
14840KMKG MKG20060310173509603/10/06 17:35:31  5-MIN KMKG 102235Z 19005KT 10SM FEW017 04/01 A2992 630 76 -400 190/05 RMK AO2
14840KMKG MKG20060310174009603/10/06 17:40:31  5-MIN KMKG 102240Z 18004KT 10SM FEW017 04/00 A2992 630 76 -500 180/04 RMK AO2
14840KMKG MKG20060310174509603/10/06 17:45:31  5-MIN KMKG 102245Z 20003KT 10SM FEW017 04/00 A2992 630 76 -500 200/03 RMK AO2
14840KMKG MKG20060310175011303/10/06 17:50:31  5-MIN KMKG 102250Z 19003KT 10SM FEW017 04/00 A2993 620 76 -500 200/03 RMK AO2 SLP139 T00390000
14840KMKG MKG20060310175511003/10/06 17:55:31  5-MIN KMKG 102255Z 18004KT 10SM CLR 04/00 A2993 620 76 -500 190/04 RMK AO2 SLP139 T00390000
14840KMKG MKG20060310180009303/10/06 18:00:31  5-MIN KMKG 102300Z 15004KT 10SM CLR 04/00 A2993 620 76 -500 150/04 RMK AO2
14840KMKG MKG20060310180509303/10/06 18:05:31  5-MIN KMKG 102305Z 15004KT 10SM CLR 04/00 A2993 620 76 -500 150/04 RMK AO2
14840KMKG MKG20060310181009303/10/06 18:10:31  5-MIN KMKG 102310Z 16004KT 10SM CLR 04/00 A2993 620 76 -500 160/04 RMK AO2
14840KMKG MKG20060310181509303/10/06 18:15:31  5-MIN KMKG 102315Z 14003KT 10SM CLR 04/00 A2993 620 76 -500 150/03 RMK AO2
14840KMKG MKG20060310182009303/10/06 18:20:31  5-MIN KMKG 102320Z 16005KT 10SM CLR 04/00 A2993 620 76 -500 170/05 RMK AO2
14840KMKG MKG20060310182509303/10/06 18:25:31  5-MIN KMKG 102325Z 15005KT 10SM CLR 04/00 A2994 620 76 -500 160/05 RMK AO2
14840KMKG MKG20060310183009303/10/06 18:30:31  5-MIN KMKG 102330Z 16004KT 10SM CLR 03/00 A2994 610 79 -600 170/04 RMK AO2
14840KMKG MKG20060310183509303/10/06 18:35:31  5-MIN KMKG 102335Z 15005KT 10SM CLR 03/00 A2994 610 79 -600 160/05 RMK AO2
14840KMKG MKG20060310184009303/10/06 18:40:31  5-MIN KMKG 102340Z 15005KT 10SM CLR 03/00 A2994 610 79 -600 160/05 RMK AO2
14840KMKG MKG20060310184509303/10/06 18:45:31  5-MIN KMKG 102345Z 15006KT 10SM CLR 03/00 A2994 610 82 -600 150/06 RMK AO2
14840KMKG MKG20060310185012803/10/06 18:50:31  5-MIN KMKG 102350Z 15006KT 10SM CLR 03/00 A2995 610 82 -600 150/06 RMK AO2 SLP146 T00280000 10044 20028 53025
14840KMKG MKG20060310185512803/10/06 18:55:31  5-MIN KMKG 102355Z 15006KT 10SM CLR 03/00 A2995 600 82 -600 150/06 RMK AO2 SLP147 T00280000 10044 20028 53017
14840KMKG MKG20060310190009303/10/06 19:00:31  5-MIN KMKG 110000Z 15006KT 10SM CLR 03/00 A2995 600 82 -600 150/06 RMK AO2
14840KMKG MKG20060310190509403/10/06 19:05:31  5-MIN KMKG 110005Z 15006KT 10SM CLR 03/M01 A2995 600 79 -600 150/06 RMK AO2
14840KMKG MKG20060310191009303/10/06 19:10:31  5-MIN KMKG 110010Z 15005KT 10SM CLR 03/00 A2995 600 82 -600 150/05 RMK AO2
14840KMKG MKG20060310191509403/10/06 19:15:31  5-MIN KMKG 110015Z 15005KT 10SM CLR 02/M01 A2996 600 82 -700 150/05 RMK AO2
14840KMKG MKG20060310192009403/10/06 19:20:31  5-MIN KMKG 110020Z 15005KT 10SM CLR 02/M01 A2996 590 82 -700 150/05 RMK AO2
14840KMKG MKG20060310192509403/10/06 19:25:31  5-MIN KMKG 110025Z 16005KT 10SM CLR 02/M01 A2996 590 82 -700 160/05 RMK AO2
14840KMKG MKG20060310193009303/10/06 19:30:31  5-MIN KMKG 110030Z 15005KT 10SM CLR 02/00 A2997 590 85 -700 150/05 RMK AO2
14840KMKG MKG20060310193509403/10/06 19:35:31  5-MIN KMKG 110035Z 15005KT 10SM CLR 02/M01 A2997 580 82 -700 150/05 RMK AO2
14840KMKG MKG20060310194009403/10/06 19:40:31  5-MIN KMKG 110040Z 15006KT 10SM CLR 02/M01 A2997 580 82 -700 150/06 RMK AO2
14840KMKG MKG20060310194509303/10/06 19:45:31  5-MIN KMKG 110045Z 15005KT 9SM CLR 02/M01 A2997 580 82 -700 160/05 RMK AO2
14840KMKG MKG20060310195010903/10/06 19:50:31  5-MIN KMKG 110050Z 15004KT 9SM CLR 02/00 A2998 580 85 -700 160/04 RMK AO2 SLP157 T00220000
14840KMKG MKG20060310195510903/10/06 19:55:31  5-MIN KMKG 110055Z 15005KT 9SM CLR 02/00 A2998 580 85 -700 160/05 RMK AO2 SLP157 T00220000
14840KMKG MKG20060310200009203/10/06 20:00:31  5-MIN KMKG 110100Z 15005KT 8SM CLR 02/00 A2998 570 85 -800 150/05 RMK AO2
14840KMKG MKG20060310200509203/10/06 20:05:31  5-MIN KMKG 110105Z 15005KT 8SM CLR 02/00 A2998 570 85 -800 150/05 RMK AO2
14840KMKG MKG20060310201009203/10/06 20:10:31  5-MIN KMKG 110110Z 15004KT 8SM CLR 02/00 A2998 570 85 -800 150/04 RMK AO2
14840KMKG MKG20060310201509203/10/06 20:15:31  5-MIN KMKG 110115Z 14005KT 7SM CLR 02/00 A2998 570 85 -800 140/05 RMK AO2
14840KMKG MKG20060310202009203/10/06 20:20:31  5-MIN KMKG 110120Z 14004KT 7SM CLR 02/00 A2998 570 89 -800 140/04 RMK AO2
14840KMKG MKG20060310202509303/10/06 20:25:31  5-MIN KMKG 110125Z 13004KT 7SM CLR 01/M01 A2998 570 89 -900 140/04 RMK AO2
14840KMKG MKG20060310203009303/10/06 20:30:31  5-MIN KMKG 110130Z 13004KT 7SM CLR 02/M01 A2998 570 85 -800 140/04 RMK AO2
14840KMKG MKG20060310203509603/10/06 20:35:31  5-MIN KMKG 110135Z 12003KT 6SM BR CLR 02/M01 A2998 570 85 -800 130/03 RMK AO2
14840KMKG MKG20060310204009603/10/06 20:40:31  5-MIN KMKG 110140Z 00000KT 6SM BR CLR 02/M01 A2998 570 85 -800 000/00 RMK AO2
14840KMKG MKG20060310204509503/10/06 20:45:31  5-MIN KMKG 110145Z 10003KT 6SM BR CLR 02/00 A2999 570 89 -800 110/03 RMK AO2
14840KMKG MKG20060310205011303/10/06 20:50:31  5-MIN KMKG 110150Z 10003KT 6SM BR CLR 02/M01 A2998 570 85 -800 100/03 RMK AO2 SLP160 T00171006
14840KMKG MKG20060310205511303/10/06 20:55:31  5-MIN KMKG 110155Z 08004KT 6SM BR CLR 01/M01 A2999 570 89 -900 080/04 RMK AO2 SLP161 T00111006
14840KMKG MKG20060310210009603/10/06 21:00:31  5-MIN KMKG 110200Z 08003KT 6SM BR CLR 02/M01 A2999 570 85 -800 080/03 RMK AO2
14840KMKG MKG20060310210509603/10/06 21:05:31  5-MIN KMKG 110205Z 08003KT 6SM BR CLR 02/M01 A2999 570 85 -800 090/03 RMK AO2
14840KMKG MKG20060310211009603/10/06 21:10:31  5-MIN KMKG 110210Z 10004KT 6SM BR CLR 01/M01 A2999 570 89 -900 100/04 RMK AO2
14840KMKG MKG20060310211509603/10/06 21:15:31  5-MIN KMKG 110215Z 12004KT 5SM BR CLR 01/M01 A2999 570 89 -900 130/04 RMK AO2
14840KMKG MKG20060310212009703/10/06 21:20:31  5-MIN KMKG 110220Z 12004KT 5SM BR CLR 01/M01 A2999 560 89 -1000 130/04 RMK AO2
14840KMKG MKG20060310212509703/10/06 21:25:31  5-MIN KMKG 110225Z 12004KT 5SM BR CLR 01/M01 A2999 560 89 -1000 130/04 RMK AO2
14840KMKG MKG20060310213009703/10/06 21:30:31  5-MIN KMKG 110230Z 12004KT 5SM BR CLR 01/M01 A2999 570 92 -1000 120/04 RMK AO2
14840KMKG MKG20060310213509703/10/06 21:35:31  5-MIN KMKG 110235Z 11004KT 5SM BR CLR 01/M01 A2999 570 92 -1000 110/04 RMK AO2
14840KMKG MKG20060310214009703/10/06 21:40:31  5-MIN KMKG 110240Z 11004KT 5SM BR CLR 01/M01 A2999 570 92 -1000 110/04 RMK AO2
14840KMKG MKG20060310214509703/10/06 21:45:31  5-MIN KMKG 110245Z 13004KT 5SM BR CLR 01/M01 A2999 570 92 -1000 130/04 RMK AO2
14840KMKG MKG20060310215012003/10/06 21:50:31  5-MIN KMKG 110250Z 13004KT 5SM BR CLR 00/M01 A2999 560 96 -1000 130/04 RMK AO2 SLP162 T00001006 53017
14840KMKG MKG20060310215512003/10/06 21:55:31  5-MIN KMKG 110255Z 12004KT 5SM BR CLR 00/M01 A2999 560 92 -1000 130/04 RMK AO2 SLP163 T00001011 51014
14840KMKG MKG20060310220009703/10/06 22:00:31  5-MIN KMKG 110300Z 12004KT 4SM BR CLR 00/M01 A3000 560 92 -1000 130/04 RMK AO2
14840KMKG MKG20060310220509703/10/06 22:05:31  5-MIN KMKG 110305Z 12004KT 4SM BR CLR 00/M01 A2999 560 92 -1000 120/04 RMK AO2
14840KMKG MKG20060310221009703/10/06 22:10:31  5-MIN KMKG 110310Z 12005KT 4SM BR CLR 00/M01 A3000 560 92 -1000 120/05 RMK AO2
14840KMKG MKG20060310221509703/10/06 22:15:31  5-MIN KMKG 110315Z 13005KT 4SM BR CLR 00/M01 A3000 560 92 -1100 130/05 RMK AO2
14840KMKG MKG20060310222009703/10/06 22:20:31  5-MIN KMKG 110320Z 14006KT 4SM BR CLR 00/M01 A3000 550 96 -1100 140/06 RMK AO2
14840KMKG MKG20060310222509703/10/06 22:25:31  5-MIN KMKG 110325Z 14006KT 4SM BR CLR 01/M01 A3001 550 92 -1000 150/06 RMK AO2
14840KMKG MKG20060310223009603/10/06 22:30:31  5-MIN KMKG 110330Z 15007KT 5SM BR CLR 01/M01 A3001 550 89 -900 150/07 RMK AO2
14840KMKG MKG20060310223509503/10/06 22:35:31  5-MIN KMKG 110335Z 16006KT 5SM BR CLR 01/00 A3002 540 92 -900 160/06 RMK AO2
14840KMKG MKG20060310224009503/10/06 22:40:31  5-MIN KMKG 110340Z 16005KT 5SM BR CLR 02/00 A3002 540 89 -900 170/05 RMK AO2
14840KMKG MKG20060310224509503/10/06 22:45:31  5-MIN KMKG 110345Z 16006KT 5SM BR CLR 02/00 A3002 540 89 -900 160/06 RMK AO2
14840KMKG MKG20060310225011203/10/06 22:50:31  5-MIN KMKG 110350Z 15006KT 5SM BR CLR 02/00 A3002 540 89 -900 160/06 RMK AO2 SLP171 T00170000
14840KMKG MKG20060310225511203/10/06 22:55:31  5-MIN KMKG 110355Z 14006KT 5SM BR CLR 02/00 A3002 540 89 -900 150/06 RMK AO2 SLP171 T00170000
14840KMKG MKG20060310230009503/10/06 23:00:31  5-MIN KMKG 110400Z 14006KT 5SM BR CLR 01/00 A3002 540 92 -900 150/06 RMK AO2
14840KMKG MKG20060310230509503/10/06 23:05:31  5-MIN KMKG 110405Z 14006KT 5SM BR CLR 01/00 A3002 540 92 -900 150/06 RMK AO2
14840KMKG MKG20060310231009503/10/06 23:10:31  5-MIN KMKG 110410Z 15006KT 5SM BR CLR 02/00 A3002 540 89 -900 150/06 RMK AO2
14840KMKG MKG20060310231509503/10/06 23:15:31  5-MIN KMKG 110415Z 14006KT 5SM BR CLR 02/00 A3002 530 89 -900 150/06 RMK AO2
14840KMKG MKG20060310232009503/10/06 23:20:31  5-MIN KMKG 110420Z 15006KT 5SM BR CLR 02/00 A3003 530 89 -900 150/06 RMK AO2
14840KMKG MKG20060310232509503/10/06 23:25:31  5-MIN KMKG 110425Z 14005KT 5SM BR CLR 02/00 A3003 530 89 -900 150/05 RMK AO2
14840KMKG MKG20060310233009503/10/06 23:30:31  5-MIN KMKG 110430Z 14006KT 5SM BR CLR 01/00 A3003 530 92 -900 150/06 RMK AO2
14840KMKG MKG20060310233509503/10/06 23:35:31  5-MIN KMKG 110435Z 14006KT 5SM BR CLR 01/00 A3003 530 92 -900 150/06 RMK AO2
14840KMKG MKG20060310234009503/10/06 23:40:31  5-MIN KMKG 110440Z 14006KT 5SM BR CLR 01/00 A3003 530 92 -900 140/06 RMK AO2
14840KMKG MKG20060310234509503/10/06 23:45:31  5-MIN KMKG 110445Z 14005KT 5SM BR CLR 01/00 A3003 530 92 -900 140/05 RMK AO2
14840KMKG MKG20060310235012203/10/06 23:50:31  5-MIN KMKG 110450Z 14006KT 5SM BR CLR 01/00 A3003 530 92 -900 140/06 RMK AO2 SLP175 T00110000 400500000
14840KMKG MKG20060310235512203/10/06 23:55:31  5-MIN KMKG 110455Z 14006KT 5SM BR CLR 01/00 A3003 530 92 -900 140/06 RMK AO2 SLP176 T00110000 400500000
14840KMKG MKG20060311000009603/11/06 00:00:32  5-MIN KMKG 110500Z 15006KT 5SM BR CLR 01/00 A3003 530 92 -1000 150/06 RMK AO2
14840KMKG MKG20060311000509503/11/06 00:05:31  5-MIN KMKG 110505Z 15006KT 5SM BR CLR 02/01 A3003 530 92 -900 150/06 RMK AO2
14840KMKG MKG20060311001009503/11/06 00:10:31  5-MIN KMKG 110510Z 15006KT 5SM BR CLR 02/01 A3003 530 92 -900 150/06 RMK AO2
14840KMKG MKG20060311001509503/11/06 00:15:31  5-MIN KMKG 110515Z 15005KT 5SM BR CLR 02/01 A3003 520 89 -800 160/05 RMK AO2
14840KMKG MKG20060311002009503/11/06 00:20:31  5-MIN KMKG 110520Z 15005KT 5SM BR CLR 02/01 A3004 520 89 -800 160/05 RMK AO2
14840KMKG MKG20060311002509503/11/06 00:25:31  5-MIN KMKG 110525Z 16005KT 5SM BR CLR 02/01 A3004 520 89 -800 160/05 RMK AO2
14840KMKG MKG20060311003009503/11/06 00:30:31  5-MIN KMKG 110530Z 16006KT 6SM BR CLR 02/01 A3004 520 89 -800 160/06 RMK AO2
14840KMKG MKG20060311003509503/11/06 00:35:31  5-MIN KMKG 110535Z 16006KT 6SM BR CLR 03/01 A3004 520 85 -800 160/06 RMK AO2
14840KMKG MKG20060311004009503/11/06 00:40:31  5-MIN KMKG 110540Z 15006KT 6SM BR CLR 03/01 A3004 520 85 -800 150/06 RMK AO2
14840KMKG MKG20060311004509503/11/06 00:45:31  5-MIN KMKG 110545Z 15006KT 6SM BR CLR 02/01 A3004 520 89 -800 150/06 RMK AO2
14840KMKG MKG20060311005013003/11/06 00:50:31  5-MIN KMKG 110550Z 14005KT 5SM BR CLR 02/01 A3004 520 89 -800 150/05 RMK AO2 SLP178 T00220006 10028 20000 51014
14840KMKG MKG20060311005513003/11/06 00:55:31  5-MIN KMKG 110555Z 15005KT 5SM BR CLR 02/01 A3004 520 92 -900 150/05 RMK AO2 SLP178 T00170006 10028 20000 51016
14840KMKG MKG20060311010009503/11/06 01:00:31  5-MIN KMKG 110600Z 15005KT 5SM BR CLR 02/01 A3004 520 89 -800 160/05 RMK AO2
14840KMKG MKG20060311010509503/11/06 01:05:31  5-MIN KMKG 110605Z 15005KT 5SM BR CLR 02/01 A3005 510 89 -800 160/05 RMK AO2
14840KMKG MKG20060311011009803/11/06 01:10:31  5-MIN KMKG 110610Z 16005KT 5SM BR FEW120 02/01 A3005 510 92 -800 160/05 RMK AO2
14840KMKG MKG20060311011509803/11/06 01:15:31  5-MIN KMKG 110615Z 15005KT 6SM BR SCT120 03/01 A3005 510 89 -800 150/05 RMK AO2
14840KMKG MKG20060311012009803/11/06 01:20:31  5-MIN KMKG 110620Z 15005KT 6SM BR BKN120 03/01 A3005 510 89 -800 150/05 RMK AO2
14840KMKG MKG20060311012509803/11/06 01:25:31  5-MIN KMKG 110625Z 14006KT 5SM BR BKN120 03/01 A3005 510 89 -800 150/06 RMK AO2
14840KMKG MKG20060311013009803/11/06 01:30:31  5-MIN KMKG 110630Z 14006KT 5SM BR BKN120 02/01 A3005 510 92 -800 140/06 RMK AO2
14840KMKG MKG20060311013509803/11/06 01:35:31  5-MIN KMKG 110635Z 14006KT 5SM BR BKN120 02/01 A3005 510 92 -800 140/06 RMK AO2
14840KMKG MKG20060311014009803/11/06 01:40:31  5-MIN KMKG 110640Z 13006KT 5SM BR BKN120 02/01 A3005 510 92 -800 140/06 RMK AO2
14840KMKG MKG20060311014509803/11/06 01:45:31  5-MIN KMKG 110645Z 14007KT 5SM BR BKN120 02/01 A3005 510 89 -800 140/07 RMK AO2
14840KMKG MKG20060311015011503/11/06 01:50:31  5-MIN KMKG 110650Z 14005KT 5SM BR SCT120 02/01 A3005 510 89 -800 140/05 RMK AO2 SLP182 T00220006
14840KMKG MKG20060311015511503/11/06 01:55:31  5-MIN KMKG 110655Z 14006KT 5SM BR FEW120 02/01 A3005 510 89 -800 150/06 RMK AO2 SLP181 T00220006
14840KMKG MKG20060311020009803/11/06 02:00:31  5-MIN KMKG 110700Z 15005KT 5SM BR FEW120 02/01 A3006 500 92 -900 150/05 RMK AO2
14840KMKG MKG20060311020509503/11/06 02:05:31  5-MIN KMKG 110705Z 14005KT 5SM BR CLR 02/01 A3006 510 92 -900 140/05 RMK AO2
14840KMKG MKG20060311021009603/11/06 02:10:31  5-MIN KMKG 110710Z 14005KT 5SM BR CLR 01/00 A3006 500 92 -1000 140/05 RMK AO2
14840KMKG MKG20060311021509603/11/06 02:15:31  5-MIN KMKG 110715Z 14005KT 5SM BR CLR 01/00 A3006 500 92 -1000 140/05 RMK AO2
14840KMKG MKG20060311022009603/11/06 02:20:31  5-MIN KMKG 110720Z 13004KT 5SM BR CLR 01/00 A3006 500 92 -1000 130/04 RMK AO2
14840KMKG MKG20060311022509603/11/06 02:25:31  5-MIN KMKG 110725Z 13004KT 4SM BR CLR 01/00 A3006 500 96 -1100 140/04 RMK AO2
14840KMKG MKG20060311023009703/11/06 02:30:31  5-MIN KMKG 110730Z 13005KT 4SM BR CLR 01/M01 A3006 500 92 -1100 140/05 RMK AO2
14840KMKG MKG20060311023509703/11/06 02:35:31  5-MIN KMKG 110735Z 13006KT 4SM BR CLR 00/M01 A3006 500 96 -1100 130/06 RMK AO2
14840KMKG MKG20060311024009703/11/06 02:40:31  5-MIN KMKG 110740Z 12007KT 4SM BR CLR 01/M01 A3005 510 92 -1000 120/07 RMK AO2
14840KMKG MKG20060311024509703/11/06 02:45:31  5-MIN KMKG 110745Z 13007KT 4SM BR CLR 01/M01 A3005 510 92 -1000 130/07 RMK AO2
14840KMKG MKG20060311025011403/11/06 02:50:31  5-MIN KMKG 110750Z 13008KT 4SM BR CLR 01/M01 A3005 510 92 -1000 130/08 RMK AO2 SLP183 T00061006
14840KMKG MKG20060311025511403/11/06 02:55:31  5-MIN KMKG 110755Z 13007KT 4SM BR CLR 01/M01 A3005 510 92 -1000 130/07 RMK AO2 SLP183 T00061006
14840KMKG MKG20060311030009703/11/06 03:00:31  5-MIN KMKG 110800Z 14007KT 4SM BR CLR 01/M01 A3005 510 92 -1000 140/07 RMK AO2
14840KMKG MKG20060311030509603/11/06 03:05:31  5-MIN KMKG 110805Z 14007KT 4SM BR CLR 01/00 A3005 510 92 -1000 140/07 RMK AO2
14840KMKG MKG20060311031009603/11/06 03:10:31  5-MIN KMKG 110810Z 14007KT 4SM BR CLR 01/00 A3005 510 92 -1000 150/07 RMK AO2
14840KMKG MKG20060311031509603/11/06 03:15:31  5-MIN KMKG 110815Z 15005KT 4SM BR CLR 01/00 A3006 500 92 -1000 160/05 RMK AO2
14840KMKG MKG20060311032009603/11/06 03:20:31  5-MIN KMKG 110820Z 16005KT 4SM BR CLR 01/01 A3006 500 96 -1000 170/05 RMK AO2
14840KMKG MKG20060311032509603/11/06 03:25:31  5-MIN KMKG 110825Z 14005KT 4SM BR CLR 01/01 A3005 510 96 -1000 140/05 RMK AO2
14840KMKG MKG20060311033009603/11/06 03:30:31  5-MIN KMKG 110830Z 12006KT 3SM BR CLR 01/00 A3005 510 96 -1000 130/06 RMK AO2
14840KMKG MKG20060311033509703/11/06 03:35:31  5-MIN KMKG 110835Z 12006KT 3SM BR CLR 01/M01 A3005 510 92 -1000 130/06 RMK AO2
14840KMKG MKG20060311034009703/11/06 03:40:31  5-MIN KMKG 110840Z 12006KT 3SM BR CLR 01/M01 A3005 510 92 -1000 130/06 RMK AO2
14840KMKG MKG20060311034509703/11/06 03:45:31  5-MIN KMKG 110845Z 12007KT 3SM BR CLR 00/M01 A3004 520 96 -1100 120/07 RMK AO2
14840KMKG MKG20060311035011903/11/06 03:50:31  5-MIN KMKG 110850Z 11007KT 3SM BR CLR 01/00 A3004 520 96 -1000 120/07 RMK AO2 SLP178 T00060000 51016
14840KMKG MKG20060311035511903/11/06 03:55:31  5-MIN KMKG 110855Z 12006KT 3SM BR CLR 01/00 A3004 520 92 -1000 120/06 RMK AO2 SLP178 T00110000 58000
14840KMKG MKG20060311040009603/11/06 04:00:31  5-MIN KMKG 110900Z 10005KT 3SM BR CLR 01/00 A3004 520 96 -1000 110/05 RMK AO2
14840KMKG MKG20060311040509603/11/06 04:05:31  5-MIN KMKG 110905Z 11005KT 3SM BR CLR 01/00 A3004 520 96 -1000 110/05 RMK AO2
14840KMKG MKG20060311041009603/11/06 04:10:31  5-MIN KMKG 110910Z 11006KT 3SM BR CLR 01/00 A3003 530 92 -1000 110/06 RMK AO2
14840KMKG MKG20060311041509603/11/06 04:15:31  5-MIN KMKG 110915Z 11006KT 3SM BR CLR 01/00 A3003 530 92 -1000 120/06 RMK AO2
14840KMKG MKG20060311042009503/11/06 04:20:31  5-MIN KMKG 110920Z 11005KT 3SM BR CLR 01/00 A3003 530 92 -900 110/05 RMK AO2
14840KMKG MKG20060311042509603/11/06 04:25:31  5-MIN KMKG 110925Z 11005KT 3SM BR CLR 01/00 A3003 530 92 -1000 110/05 RMK AO2
14840KMKG MKG20060311043009603/11/06 04:30:31  5-MIN KMKG 110930Z 12006KT 3SM BR CLR 01/00 A3004 520 96 -1000 120/06 RMK AO2
14840KMKG MKG20060311043509703/11/06 04:35:31  5-MIN KMKG 110935Z 12006KT 3SM BR CLR 01/M01 A3004 520 92 -1000 130/06 RMK AO2
14840KMKG MKG20060311044010103/11/06 04:40:31  5-MIN KMKG 110940Z 12007KT 2 1/2SM BR CLR 00/M01 A3004 520 92 -1100 120/07 RMK AO2
14840KMKG MKG20060311044510103/11/06 04:45:31  5-MIN KMKG 110945Z 12007KT 2 1/2SM BR CLR 00/M01 A3004 520 96 -1100 120/07 RMK AO2
14840KMKG MKG20060311045011803/11/06 04:50:31  5-MIN KMKG 110950Z 12006KT 2 1/2SM BR CLR 01/M01 A3004 520 92 -1000 130/06 RMK AO2 SLP179 T00061006
14840KMKG MKG20060311045511803/11/06 04:55:31  5-MIN KMKG 110955Z 12006KT 2 1/2SM BR CLR 00/M01 A3005 510 96 -1100 130/06 RMK AO2 SLP181 T00001006
14840KMKG MKG20060311050010103/11/06 05:00:31  5-MIN KMKG 111000Z 12006KT 2 1/2SM BR CLR 00/M01 A3005 510 96 -1100 120/06 RMK AO2
14840KMKG MKG20060311050509703/11/06 05:05:31  5-MIN KMKG 111005Z 11006KT 3SM BR CLR 01/M01 A3005 510 92 -1000 110/06 RMK AO2
14840KMKG MKG20060311051009603/11/06 05:10:31  5-MIN KMKG 111010Z 11005KT 3SM BR CLR 01/00 A3005 510 92 -1000 110/05 RMK AO2
14840KMKG MKG20060311051509603/11/06 05:15:31  5-MIN KMKG 111015Z 11005KT 3SM BR CLR 01/00 A3005 510 92 -1000 110/05 RMK AO2
14840KMKG MKG20060311052009603/11/06 05:20:31  5-MIN KMKG 111020Z 10006KT 3SM BR CLR 01/00 A3005 510 92 -1000 110/06 RMK AO2
14840KMKG MKG20060311052509503/11/06 05:25:31  5-MIN KMKG 111025Z 12006KT 3SM BR CLR 02/01 A3005 510 92 -900 120/06 RMK AO2
14840KMKG MKG20060311053009603/11/06 05:30:31  5-MIN KMKG 111030Z 12008KT 3SM BR CLR 01/00 A3005 510 92 -1000 130/08 RMK AO2
14840KMKG MKG20060311053509603/11/06 05:35:31  5-MIN KMKG 111035Z 12008KT 3SM BR CLR 01/00 A3005 510 92 -1000 130/08 RMK AO2
14840KMKG MKG20060311054009603/11/06 05:40:31  5-MIN KMKG 111040Z 12008KT 3SM BR CLR 01/00 A3005 510 92 -1000 130/08 RMK AO2
14840KMKG MKG20060311054509603/11/06 05:45:31  5-MIN KMKG 111045Z 11008KT 3SM BR CLR 01/01 A3005 520 96 -1000 120/08 RMK AO2
14840KMKG MKG20060311055011203/11/06 05:50:31  5-MIN KMKG 111050Z 12008KT 3SM BR CLR 02/01 A3004 520 92 -900 120/08 RMK AO2 SLP179 T00170006
14840KMKG MKG20060311055511303/11/06 05:55:31  5-MIN KMKG 111055Z 13008KT 3SM BR CLR 01/01 A3004 520 96 -1000 130/08 RMK AO2 SLP179 T00110006
14840KMKG MKG20060311060009603/11/06 06:00:31  5-MIN KMKG 111100Z 14008KT 3SM BR CLR 01/01 A3004 520 96 -1000 140/08 RMK AO2
14840KMKG MKG20060311060509603/11/06 06:05:31  5-MIN KMKG 111105Z 13009KT 3SM BR CLR 01/01 A3004 520 96 -1000 140/09 RMK AO2
14840KMKG MKG20060311061009603/11/06 06:10:31  5-MIN KMKG 111110Z 13008KT 5SM BR CLR 01/01 A3005 510 96 -1000 140/08 RMK AO2
14840KMKG MKG20060311061509603/11/06 06:15:31  5-MIN KMKG 111115Z 13007KT 5SM BR CLR 01/01 A3005 510 96 -1000 130/07 RMK AO2
14840KMKG MKG20060311062009503/11/06 06:20:31  5-MIN KMKG 111120Z 13007KT 5SM BR CLR 02/01 A3005 510 92 -900 130/07 RMK AO2
14840KMKG MKG20060311062509803/11/06 06:25:31  5-MIN KMKG 111125Z 13006KT 5SM BR FEW120 02/01 A3005 510 92 -900 140/06 RMK AO2
14840KMKG MKG20060311063009803/11/06 06:30:31  5-MIN KMKG 111130Z 14008KT 4SM BR FEW110 02/01 A3005 510 92 -900 140/08 RMK AO2
14840KMKG MKG20060311063509803/11/06 06:35:31  5-MIN KMKG 111135Z 13008KT 4SM BR FEW110 02/01 A3004 520 92 -900 130/08 RMK AO2
14840KMKG MKG20060311064010503/11/06 06:40:31  5-MIN KMKG 111140Z 12009KT 3SM BR SCT110 02/01 A3003 530 96 -900 130/09 RMK AO2 PRESFR
14840KMKG MKG20060311064510503/11/06 06:45:31  5-MIN KMKG 111145Z 12010KT 3SM BR SCT100 02/01 A3003 530 92 -800 120/10 RMK AO2 PRESFR
14840KMKG MKG20060311065013303/11/06 06:50:31  5-MIN KMKG 111150Z 12009KT 3SM BR SCT100 02/01 A3003 530 92 -800 120/09 RMK AO2 SLP173 T00220011 10028 20000 58000
14840KMKG MKG20060311065513303/11/06 06:55:31  5-MIN KMKG 111155Z 11010KT 3SM BR SCT100 02/01 A3002 540 92 -800 120/10 RMK AO2 SLP171 T00220011 10028 20000 58007
14840KMKG MKG20060311070009803/11/06 07:00:31  5-MIN KMKG 111200Z 12009KT 3SM BR SCT100 02/01 A3002 540 92 -800 120/09 RMK AO2
14840KMKG MKG20060311070509803/11/06 07:05:31  5-MIN KMKG 111205Z 12009KT 3SM BR SCT100 02/01 A3001 540 92 -800 120/09 RMK AO2
14840KMKG MKG20060311071009803/11/06 07:10:31  5-MIN KMKG 111210Z 11008KT 3SM BR FEW100 02/01 A3001 550 92 -800 120/08 RMK AO2
14840KMKG MKG20060311071509803/11/06 07:15:31  5-MIN KMKG 111215Z 12011KT 3SM BR FEW120 02/01 A3000 550 92 -800 120/11 RMK AO2
14840KMKG MKG20060311072009803/11/06 07:20:31  5-MIN KMKG 111220Z 12012KT 3SM BR FEW120 02/01 A3000 560 92 -800 120/12 RMK AO2
14840KMKG MKG20060311072510503/11/06 07:25:31  5-MIN KMKG 111225Z 11012KT 3SM BR FEW120 02/01 A2999 560 92 -800 120/12 RMK AO2 PRESFR
14840KMKG MKG20060311073010503/11/06 07:30:31  5-MIN KMKG 111230Z 11013KT 3SM BR FEW120 03/02 A2998 570 92 -700 110/13 RMK AO2 PRESFR
14840KMKG MKG20060311073509803/11/06 07:35:31  5-MIN KMKG 111235Z 12012KT 3SM BR FEW120 03/02 A2998 570 89 -600 120/12 RMK AO2
14840KMKG MKG20060311074009803/11/06 07:40:31  5-MIN KMKG 111240Z 12012KT 3SM BR FEW120 03/02 A2998 570 89 -600 130/12 RMK AO2
14840KMKG MKG20060311074509803/11/06 07:45:31  5-MIN KMKG 111245Z 12012KT 3SM BR FEW110 03/02 A2999 570 89 -600 120/12 RMK AO2
14840KMKG MKG20060311075011503/11/06 07:50:31  5-MIN KMKG 111250Z 12013KT 3SM BR FEW110 04/02 A2999 570 89 -600 120/13 RMK AO2 SLP161 T00390022
14840KMKG MKG20060311075511503/11/06 07:55:31  5-MIN KMKG 111255Z 12010KT 4SM BR FEW110 04/02 A2999 560 89 -600 120/10 RMK AO2 SLP162 T00390022
14840KMKG MKG20060311080009503/11/06 08:00:31  5-MIN KMKG 111300Z 13009KT 4SM BR CLR 04/02 A3000 550 89 -600 140/09 RMK AO2
14840KMKG MKG20060311080510203/11/06 08:05:31  5-MIN KMKG 111305Z 14010KT 4SM BR CLR 04/02 A3001 540 89 -600 140/10 RMK AO2 PRESRR
14840KMKG MKG20060311081009503/11/06 08:10:31  5-MIN KMKG 111310Z 12010KT 4SM BR CLR 04/02 A3001 550 85 -500 130/10 RMK AO2
14840KMKG MKG20060311081509503/11/06 08:15:31  5-MIN KMKG 111315Z 13010KT 4SM BR CLR 04/03 A3002 540 89 -500 130/10 RMK AO2
14840KMKG MKG20060311082009503/11/06 08:20:31  5-MIN KMKG 111320Z 12011KT 4SM BR CLR 04/03 A3002 540 89 -500 130/11 RMK AO2
14840KMKG MKG20060311082509503/11/06 08:25:31  5-MIN KMKG 111325Z 12011KT 4SM BR CLR 05/03 A3002 540 85 -400 130/11 RMK AO2
14840KMKG MKG20060311083009503/11/06 08:30:31  5-MIN KMKG 111330Z 12011KT 4SM BR CLR 05/03 A3001 540 85 -400 120/11 RMK AO2
14840KMKG MKG20060311083509803/11/06 08:35:31  5-MIN KMKG 111335Z 11011KT 5SM BR FEW120 05/03 A3001 550 85 -400 120/11 RMK AO2
14840KMKG MKG20060311084009803/11/06 08:40:31  5-MIN KMKG 111340Z 12009KT 5SM BR FEW120 05/03 A3001 550 85 -400 120/09 RMK AO2
14840KMKG MKG20060311084509503/11/06 08:45:31  5-MIN KMKG 111345Z 12009KT 5SM BR CLR 05/03 A3001 550 85 -400 120/09 RMK AO2
14840KMKG MKG20060311085011203/11/06 08:50:31  5-MIN KMKG 111350Z 12010KT 5SM HZ CLR 06/03 A3001 550 82 -400 120/10 RMK AO2 SLP168 T00560028
14840KMKG MKG20060311085511203/11/06 08:55:31  5-MIN KMKG 111355Z 11010KT 5SM HZ CLR 06/03 A3001 550 82 -400 120/10 RMK AO2 SLP167 T00560028
14840KMKG MKG20060311090009503/11/06 09:00:31  5-MIN KMKG 111400Z 11012KT 5SM HZ CLR 06/03 A3000 550 82 -300 120/12 RMK AO2
14840KMKG MKG20060311090509503/11/06 09:05:31  5-MIN KMKG 111405Z 12013KT 5SM HZ CLR 06/03 A3000 560 82 -300 120/13 RMK AO2
14840KMKG MKG20060311091009503/11/06 09:10:31  5-MIN KMKG 111410Z 13013KT 5SM HZ CLR 07/03 A3001 540 79 -200 130/13 RMK AO2
14840KMKG MKG20060311091509503/11/06 09:15:31  5-MIN KMKG 111415Z 13014KT 5SM HZ CLR 07/04 A3001 550 82 -200 130/14 RMK AO2
14840KMKG MKG20060311092009503/11/06 09:20:31  5-MIN KMKG 111420Z 12015KT 6SM HZ CLR 07/04 A3000 550 79 -200 130/15 RMK AO2
14840KMKG MKG20060311092509503/11/06 09:25:31  5-MIN KMKG 111425Z 12014KT 6SM HZ CLR 08/04 A3000 550 76 -100 120/14 RMK AO2
14840KMKG MKG20060311093009503/11/06 09:30:31  5-MIN KMKG 111430Z 12016KT 6SM HZ CLR 07/04 A3001 550 79 -200 130/16 RMK AO2
14840KMKG MKG20060311093509503/11/06 09:35:31  5-MIN KMKG 111435Z 13013KT 6SM HZ CLR 07/03 A3001 550 76 -200 130/13 RMK AO2
14840KMKG MKG20060311094009503/11/06 09:40:31  5-MIN KMKG 111440Z 12014KT 6SM HZ CLR 08/04 A3001 550 76 -100 120/14 RMK AO2
14840KMKG MKG20060311094509203/11/06 09:45:31  5-MIN KMKG 111445Z 13015KT 6SM HZ CLR 08/04 A3001 540 73 0 130/15 RMK AO2
14840KMKG MKG20060311095011503/11/06 09:50:31  5-MIN KMKG 111450Z 12013KT 6SM HZ CLR 09/04 A3002 540 73 0 130/13 RMK AO2 SLP171 T00890044 58007
14840KMKG MKG20060311095511503/11/06 09:55:31  5-MIN KMKG 111455Z 12015KT 6SM HZ CLR 09/04 A3002 540 73 0 130/15 RMK AO2 SLP171 T00890044 53001
14840KMKG MKG20060311100009203/11/06 10:00:31  5-MIN KMKG 111500Z 12017KT 6SM HZ CLR 08/04 A3002 540 73 0 130/17 RMK AO2
14840KMKG MKG20060311100508903/11/06 10:05:31  5-MIN KMKG 111505Z 13015KT 7SM CLR 08/04 A3001 550 73 0 130/15 RMK AO2
14840KMKG MKG20060311101008903/11/06 10:10:31  5-MIN KMKG 111510Z 12016KT 7SM CLR 09/04 A3001 550 71 0 120/16 RMK AO2
14840KMKG MKG20060311101508903/11/06 10:15:31  5-MIN KMKG 111515Z 13016KT 7SM CLR 09/04 A3001 550 73 0 140/16 RMK AO2
14840KMKG MKG20060311102008903/11/06 10:20:31  5-MIN KMKG 111520Z 13017KT 7SM CLR 09/04 A3000 550 73 0 130/17 RMK AO2
14840KMKG MKG20060311102508903/11/06 10:25:31  5-MIN KMKG 111525Z 12015KT 7SM CLR 09/04 A3000 560 73 0 130/15 RMK AO2
14840KMKG MKG20060311103008903/11/06 10:30:31  5-MIN KMKG 111530Z 12013KT 7SM CLR 09/04 A3000 560 73 0 120/13 RMK AO2
14840KMKG MKG20060311103509703/11/06 10:35:31  5-MIN KMKG 111535Z 12014G20KT 7SM CLR 09/04 A2999 560 71 100 120/14G20 RMK AO2
14840KMKG MKG20060311104009703/11/06 10:40:31  5-MIN KMKG 111540Z 11015G20KT 7SM CLR 09/04 A2999 560 71 100 120/15G20 RMK AO2
14840KMKG MKG20060311104509703/11/06 10:45:31  5-MIN KMKG 111545Z 11015G20KT 7SM CLR 10/04 A2999 560 68 100 110/15G20 RMK AO2
14840KMKG MKG20060311105011703/11/06 10:50:31  5-MIN KMKG 111550Z 12018G22KT 7SM FEW120 10/04 A2998 570 68 200 120/18G22 RMK AO2 SLP157 T01000044
14840KMKG MKG20060311105511703/11/06 10:55:31  5-MIN KMKG 111555Z 12017G23KT 7SM FEW120 11/04 A2998 580 66 200 120/17G23 RMK AO2 SLP156 T01060044
14840KMKG MKG20060311110009703/11/06 11:00:31  5-MIN KMKG 111600Z 12017G23KT 8SM CLR 11/04 A2998 580 66 200 120/17G23 RMK AO2
14840KMKG MKG20060311110509403/11/06 11:05:31  5-MIN KMKG 111605Z 12014KT 8SM FEW120 12/05 A2998 570 63 400 120/14 RMK AO2
14840KMKG MKG20060311111009403/11/06 11:10:31  5-MIN KMKG 111610Z 13016KT 8SM FEW110 11/05 A2998 580 66 300 130/16 RMK AO2
14840KMKG MKG20060311111510003/11/06 11:15:31  5-MIN KMKG 111615Z 13018G22KT 8SM FEW110 11/05 A2998 580 66 300 130/18G22 RMK AO2
14840KMKG MKG20060311112009403/11/06 11:20:31  5-MIN KMKG 111620Z 13020KT 9SM FEW110 11/04 A2999 570 63 300 140/20 RMK AO2
14840KMKG MKG20060311112509403/11/06 11:25:31  5-MIN KMKG 111625Z 12016KT 9SM FEW110 12/05 A2998 570 63 300 130/16 RMK AO2
14840KMKG MKG20060311113009403/11/06 11:30:31  5-MIN KMKG 111630Z 14016KT 9SM FEW110 12/05 A2998 570 63 400 140/16 RMK AO2
14840KMKG MKG20060311113509103/11/06 11:35:31  5-MIN KMKG 111635Z 12015KT 9SM CLR 12/05 A2998 570 61 400 130/15 RMK AO2
14840KMKG MKG20060311114009203/11/06 11:40:31  5-MIN KMKG 111640Z 13018KT 10SM CLR 12/05 A2998 570 61 400 130/18 RMK AO2
14840KMKG MKG20060311114509203/11/06 11:45:31  5-MIN KMKG 111645Z 15018KT 10SM CLR 13/05 A2999 570 59 500 150/18 RMK AO2
14840KMKG MKG20060311115010903/11/06 11:50:31  5-MIN KMKG 111650Z 13018KT 10SM CLR 13/05 A2999 570 59 500 140/18 RMK AO2 SLP158 T01280050
14840KMKG MKG20060311115511503/11/06 11:55:31  5-MIN KMKG 111655Z 15015G23KT 10SM CLR 13/05 A2998 570 57 500 150/15G23 RMK AO2 SLP157 T01330050
14840KMKG MKG20060311120009203/11/06 12:00:31  5-MIN KMKG 111700Z 14015KT 10SM CLR 13/06 A2998 580 59 600 150/15 RMK AO2
14840KMKG MKG20060311120509203/11/06 12:05:31  5-MIN KMKG 111705Z 13017KT 10SM CLR 14/06 A2997 580 57 600 130/17 RMK AO2
14840KMKG MKG20060311121009803/11/06 12:10:31  5-MIN KMKG 111710Z 13016G21KT 10SM CLR 14/06 A2997 580 57 600 130/16G21 RMK AO2
14840KMKG MKG20060311121509803/11/06 12:15:31  5-MIN KMKG 111715Z 14015G21KT 10SM CLR 14/06 A2997 580 55 700 140/15G21 RMK AO2
14840KMKG MKG20060311122009803/11/06 12:20:31  5-MIN KMKG 111720Z 14015G23KT 10SM CLR 14/06 A2997 580 55 700 150/15G23 RMK AO2
14840KMKG MKG20060311122509803/11/06 12:25:31  5-MIN KMKG 111725Z 15019G23KT 10SM CLR 14/06 A2997 590 55 700 150/19G23 RMK AO2
14840KMKG MKG20060311123009803/11/06 12:30:31  5-MIN KMKG 111730Z 14015G22KT 10SM CLR 15/06 A2997 580 53 800 140/15G22 RMK AO2
14840KMKG MKG20060311123509803/11/06 12:35:31  5-MIN KMKG 111735Z 15014G22KT 10SM CLR 15/06 A2997 590 53 800 150/14G22 RMK AO2
14840KMKG MKG20060311124009803/11/06 12:40:31  5-MIN KMKG 111740Z 15017G22KT 10SM CLR 16/06 A2997 590 53 800 150/17G22 RMK AO2
14840KMKG MKG20060311124509203/11/06 12:45:31  5-MIN KMKG 111745Z 14021KT 10SM CLR 15/06 A2996 590 53 800 140/21 RMK AO2
14840KMKG MKG20060311125013303/11/06 12:50:31  5-MIN KMKG 111750Z 14017G22KT 10SM CLR 15/06 A2996 590 53 800 140/17G22 RMK AO2 SLP148 T01500056 10156 20022 53001
14840KMKG MKG20060311125513303/11/06 12:55:31  5-MIN KMKG 111755Z 13016G22KT 10SM CLR 16/06 A2996 600 51 800 130/16G22 RMK AO2 SLP147 T01560056 10156 20022 56021
14840KMKG MKG20060311130009203/11/06 13:00:31  5-MIN KMKG 111800Z 14015KT 10SM CLR 16/06 A2995 600 51 800 140/15 RMK AO2
14840KMKG MKG20060311130509803/11/06 13:05:31  5-MIN KMKG 111805Z 15017G22KT 10SM CLR 16/06 A2996 600 51 800 150/17G22 RMK AO2
14840KMKG MKG20060311131009203/11/06 13:10:31  5-MIN KMKG 111810Z 13018KT 10SM CLR 16/06 A2995 600 51 800 130/18 RMK AO2
14840KMKG MKG20060311131509803/11/06 13:15:31  5-MIN KMKG 111815Z 14018G24KT 10SM CLR 16/06 A2996 590 51 800 150/18G24 RMK AO2
14840KMKG MKG20060311132009803/11/06 13:20:31  5-MIN KMKG 111820Z 14019G24KT 10SM CLR 16/06 A2995 600 49 900 140/19G24 RMK AO2
14840KMKG MKG20060311132509803/11/06 13:25:31  5-MIN KMKG 111825Z 15014G24KT 10SM CLR 16/06 A2995 600 49 900 150/14G24 RMK AO2
14840KMKG MKG20060311133009203/11/06 13:30:31  5-MIN KMKG 111830Z 14016KT 10SM CLR 16/06 A2996 600 49 900 150/16 RMK AO2
14840KMKG MKG20060311133509203/11/06 13:35:31  5-MIN KMKG 111835Z 16015KT 10SM CLR 16/06 A2996 600 49 900 170/15 RMK AO2
14840KMKG MKG20060311134009903/11/06 13:40:31  5-MIN KMKG 111840Z 15018G24KT 10SM CLR 17/06 A2995 600 49 1000 150/18G24 RMK AO2
14840KMKG MKG20060311134509903/11/06 13:45:31  5-MIN KMKG 111845Z 16019G25KT 10SM CLR 17/06 A2995 610 47 1000 160/19G25 RMK AO2
14840KMKG MKG20060311135011603/11/06 13:50:31  5-MIN KMKG 111850Z 15019G25KT 10SM CLR 17/06 A2994 610 47 1000 160/19G25 RMK AO2 SLP142 T01670056
14840KMKG MKG20060311135511003/11/06 13:55:31  5-MIN KMKG 111855Z 15017KT 10SM CLR 17/06 A2994 610 47 1000 150/17 RMK AO2 SLP141 T01670056
14840KMKG MKG20060311140009903/11/06 14:00:31  5-MIN KMKG 111900Z 15016G24KT 10SM CLR 17/06 A2993 620 47 1100 160/16G24 RMK AO2
14840KMKG MKG20060311140509903/11/06 14:05:31  5-MIN KMKG 111905Z 15018G24KT 10SM CLR 17/06 A2993 620 46 1100 150/18G24 RMK AO2
14840KMKG MKG20060311141009903/11/06 14:10:31  5-MIN KMKG 111910Z 14020G25KT 10SM CLR 17/06 A2992 630 46 1100 150/20G25 RMK AO2
14840KMKG MKG20060311141512403/11/06 14:15:31  5-MIN KMKG 111915Z 15020G27KT 10SM CLR 17/06 A2991 640 46 1100 160/20G27 RMK AO2 PK WND 15027/1915 PRESFR
14840KMKG MKG20060311142011703/11/06 14:20:31  5-MIN KMKG 111920Z 14019G27KT 10SM CLR 17/06 A2991 640 47 1100 150/19G27 RMK AO2 PK WND 15027/1915
14840KMKG MKG20060311142511703/11/06 14:25:31  5-MIN KMKG 111925Z 15018G23KT 10SM CLR 17/06 A2991 640 47 1100 150/18G23 RMK AO2 PK WND 15027/1915
14840KMKG MKG20060311143011703/11/06 14:30:31  5-MIN KMKG 111930Z 16017G24KT 10SM CLR 18/06 A2990 650 46 1200 160/17G24 RMK AO2 PK WND 15027/1915
14840KMKG MKG20060311143511703/11/06 14:35:31  5-MIN KMKG 111935Z 14016G24KT 10SM CLR 18/06 A2990 650 44 1200 150/16G24 RMK AO2 PK WND 15027/1915
14840KMKG MKG20060311144011703/11/06 14:40:31  5-MIN KMKG 111940Z 16014G22KT 10SM CLR 18/06 A2990 650 44 1200 160/14G22 RMK AO2 PK WND 15027/1915
14840KMKG MKG20060311144511703/11/06 14:45:31  5-MIN KMKG 111945Z 15018G22KT 10SM CLR 18/06 A2990 650 44 1200 150/18G22 RMK AO2 PK WND 15027/1915
14840KMKG MKG20060311145013403/11/06 14:50:31  5-MIN KMKG 111950Z 16018G27KT 10SM CLR 18/06 A2991 640 42 1200 160/18G27 RMK AO2 PK WND 14027/1948 SLP129 T01830056
14840KMKG MKG20060311145513403/11/06 14:55:31  5-MIN KMKG 111955Z 15014G27KT 10SM CLR 18/06 A2990 650 42 1200 160/14G27 RMK AO2 PK WND 14027/1948 SLP128 T01830056
14840KMKG MKG20060311150009903/11/06 15:00:31  5-MIN KMKG 112000Z 16014G23KT 10SM CLR 19/06 A2991 640 43 1300 170/14G23 RMK AO2
14840KMKG MKG20060311150509903/11/06 15:05:31  5-MIN KMKG 112005Z 15015G20KT 10SM CLR 19/06 A2991 640 43 1300 150/15G20 RMK AO2
14840KMKG MKG20060311151009903/11/06 15:10:31  5-MIN KMKG 112010Z 16019G24KT 10SM CLR 18/06 A2990 650 42 1200 160/19G24 RMK AO2
14840KMKG MKG20060311151511703/11/06 15:15:31  5-MIN KMKG 112015Z 15016G26KT 10SM CLR 18/06 A2991 640 42 1200 160/16G26 RMK AO2 PK WND 15026/2013
14840KMKG MKG20060311152011703/11/06 15:20:31  5-MIN KMKG 112020Z 16021G26KT 10SM CLR 19/06 A2991 640 41 1300 170/21G26 RMK AO2 PK WND 15026/2013
14840KMKG MKG20060311152511703/11/06 15:25:31  5-MIN KMKG 112025Z 15015G24KT 10SM CLR 18/06 A2991 640 42 1200 160/15G24 RMK AO2 PK WND 15026/2013
14840KMKG MKG20060311153011703/11/06 15:30:31  5-MIN KMKG 112030Z 16017G24KT 10SM CLR 19/06 A2991 640 43 1300 160/17G24 RMK AO2 PK WND 15026/2013
14840KMKG MKG20060311153511703/11/06 15:35:31  5-MIN KMKG 112035Z 16013G24KT 10SM CLR 19/06 A2991 640 43 1300 170/13G24 RMK AO2 PK WND 15026/2013
14840KMKG MKG20060311154011703/11/06 15:40:31  5-MIN KMKG 112040Z 17015G20KT 10SM CLR 19/06 A2991 640 43 1300 180/15G20 RMK AO2 PK WND 15026/2013
14840KMKG MKG20060311154511703/11/06 15:45:31  5-MIN KMKG 112045Z 16015G22KT 10SM CLR 19/06 A2991 640 43 1300 160/15G22 RMK AO2 PK WND 15026/2013
14840KMKG MKG20060311155014003/11/06 15:50:31  5-MIN KMKG 112050Z 16013G22KT 10SM CLR 18/06 A2992 630 46 1100 160/13G22 RMK AO2 PK WND 15026/2013 SLP134 T01780061 56021
14840KMKG MKG20060311155513403/11/06 15:55:31  5-MIN KMKG 112055Z 17011KT 10SM CLR 19/07 A2992 630 44 1300 170/11 RMK AO2 PK WND 15026/2013 SLP134 T01890067 55013
14840KMKG MKG20060311160009903/11/06 16:00:31  5-MIN KMKG 112100Z 17014G18KT 10SM CLR 19/07 A2992 630 43 1300 180/14G18 RMK AO2
14840KMKG MKG20060311160509903/11/06 16:05:31  5-MIN KMKG 112105Z 17011G18KT 10SM CLR 19/07 A2993 630 43 1300 180/11G18 RMK AO2
14840KMKG MKG20060311161009303/11/06 16:10:31  5-MIN KMKG 112110Z 21013KT 10SM CLR 18/06 A2993 620 44 1200 210/13 RMK AO2
14840KMKG MKG20060311161509303/11/06 16:15:31  5-MIN KMKG 112115Z 21012KT 10SM CLR 18/06 A2993 620 46 1100 210/12 RMK AO2
14840KMKG MKG20060311162009903/11/06 16:20:31  5-MIN KMKG 112120Z 20014G17KT 10SM CLR 17/06 A2993 620 47 1100 210/14G17 RMK AO2
14840KMKG MKG20060311162509303/11/06 16:25:31  5-MIN KMKG 112125Z 20011KT 10SM CLR 17/06 A2993 620 47 1100 200/11 RMK AO2
14840KMKG MKG20060311163009903/11/06 16:30:31  5-MIN KMKG 112130Z 19014G18KT 10SM CLR 18/06 A2992 630 46 1100 200/14G18 RMK AO2
14840KMKG MKG20060311163509303/11/06 16:35:31  5-MIN KMKG 112135Z 19014KT 10SM CLR 18/07 A2992 630 48 1100 200/14 RMK AO2
14840KMKG MKG20060311164009303/11/06 16:40:31  5-MIN KMKG 112140Z 19012KT 10SM CLR 17/07 A2992 630 49 1100 200/12 RMK AO2
14840KMKG MKG20060311164509303/11/06 16:45:31  5-MIN KMKG 112145Z 20011KT 10SM CLR 17/07 A2992 630 49 1100 200/11 RMK AO2
14840KMKG MKG20060311165011303/11/06 16:50:31  5-MIN KMKG 112150Z 19012KT 10SM FEW050 17/07 A2992 630 49 1100 200/12 RMK AO2 SLP133 T01720067
14840KMKG MKG20060311165511303/11/06 16:55:31  5-MIN KMKG 112155Z 19012KT 10SM FEW050 17/07 A2992 630 49 1100 200/12 RMK AO2 SLP133 T01720067
14840KMKG MKG20060311170010203/11/06 17:00:31  5-MIN KMKG 112200Z 20016G19KT 10SM SCT050 17/07 A2992 630 51 1000 200/16G19 RMK AO2
14840KMKG MKG20060311170510203/11/06 17:05:31  5-MIN KMKG 112205Z 19011G19KT 10SM SCT050 17/07 A2991 640 51 1000 200/11G19 RMK AO2
14840KMKG MKG20060311171010303/11/06 17:10:31  5-MIN KMKG 112210Z 19014KT 10SM SCT050 BKN100 17/07 A2991 640 51 1000 190/14 RMK AO2
14840KMKG MKG20060311171510303/11/06 17:15:31  5-MIN KMKG 112215Z 18012KT 10SM SCT050 SCT100 17/07 A2991 640 51 1000 180/12 RMK AO2
14840KMKG MKG20060311172010303/11/06 17:20:31  5-MIN KMKG 112220Z 19011KT 10SM SCT050 SCT100 17/07 A2991 640 49 1100 190/11 RMK AO2
14840KMKG MKG20060311172510303/11/06 17:25:31  5-MIN KMKG 112225Z 17010KT 10SM SCT050 SCT100 17/07 A2991 640 49 1100 180/10 RMK AO2
14840KMKG MKG20060311173010303/11/06 17:30:31  5-MIN KMKG 112230Z 19009KT 10SM SCT050 SCT100 18/07 A2991 640 49 1200 190/09 RMK AO2
14840KMKG MKG20060311173510303/11/06 17:35:31  5-MIN KMKG 112235Z 17010KT 10SM SCT050 SCT100 18/07 A2990 650 49 1200 170/10 RMK AO2
14840KMKG MKG20060311174010303/11/06 17:40:31  5-MIN KMKG 112240Z 18008KT 10SM SCT050 SCT100 18/07 A2990 650 49 1200 180/08 RMK AO2
14840KMKG MKG20060311174510303/11/06 17:45:31  5-MIN KMKG 112245Z 16009KT 10SM FEW055 SCT095 18/07 A2990 650 49 1200 160/09 RMK AO2
14840KMKG MKG20060311175012003/11/06 17:50:31  5-MIN KMKG 112250Z 17013KT 10SM FEW055 SCT095 18/07 A2990 650 49 1200 170/13 RMK AO2 SLP126 T01780072
14840KMKG MKG20060311175512003/11/06 17:55:31  5-MIN KMKG 112255Z 17012KT 10SM FEW055 SCT095 18/07 A2989 660 49 1200 180/12 RMK AO2 SLP125 T01780072
14840KMKG MKG20060311180009603/11/06 18:00:31  5-MIN KMKG 112300Z 16014KT 10SM FEW055 17/07 A2989 660 51 1100 160/14 RMK AO2
14840KMKG MKG20060311180509603/11/06 18:05:31  5-MIN KMKG 112305Z 16015KT 10SM FEW055 17/07 A2989 660 51 1100 170/15 RMK AO2
14840KMKG MKG20060311181010903/11/06 18:10:31  5-MIN KMKG 112310Z 16014G20KT 10SM SCT046 SCT055 17/08 A2989 660 53 1100 160/14G20 RMK AO2
14840KMKG MKG20060311181510203/11/06 18:15:31  5-MIN KMKG 112315Z 16014G20KT 10SM SCT046 17/08 A2989 660 53 1100 170/14G20 RMK AO2
14840KMKG MKG20060311182009603/11/06 18:20:31  5-MIN KMKG 112320Z 16013KT 10SM BKN044 17/08 A2989 660 55 1000 160/13 RMK AO2
14840KMKG MKG20060311182510203/11/06 18:25:31  5-MIN KMKG 112325Z 15014G19KT 10SM BKN044 17/08 A2989 660 55 1100 150/14G19 RMK AO2
14840KMKG MKG20060311183010203/11/06 18:30:31  5-MIN KMKG 112330Z 15015G19KT 10SM BKN044 17/08 A2988 670 55 1100 150/15G19 RMK AO2
14840KMKG MKG20060311183510203/11/06 18:35:31  5-MIN KMKG 112335Z 15011G21KT 10SM BKN044 17/08 A2988 670 55 1100 150/11G21 RMK AO2
14840KMKG MKG20060311184010203/11/06 18:40:31  5-MIN KMKG 112340Z 14011G21KT 10SM BKN042 16/08 A2988 660 57 1000 150/11G21 RMK AO2
14840KMKG MKG20060311184510203/11/06 18:45:31  5-MIN KMKG 112345Z 15013G19KT 10SM BKN042 16/08 A2988 660 57 1000 150/13G19 RMK AO2
14840KMKG MKG20060311185013603/11/06 18:50:31  5-MIN KMKG 112350Z 14014G19KT 10SM SCT040 16/08 A2988 660 59 900 150/14G19 RMK AO2 SLP122 T01560078 10194 20156 55013
14840KMKG MKG20060311185513003/11/06 18:55:31  5-MIN KMKG 112355Z 15013KT 10SM SCT040 16/08 A2988 660 59 900 150/13 RMK AO2 SLP122 T01560078 10194 20156 58012
14840KMKG MKG20060311190009503/11/06 19:00:31  5-MIN KMKG 120000Z 15012KT 10SM FEW040 16/08 A2988 660 59 900 160/12 RMK AO2
14840KMKG MKG20060311190509503/11/06 19:05:31  5-MIN KMKG 120005Z 15012KT 10SM FEW040 16/08 A2988 670 62 900 160/12 RMK AO2
14840KMKG MKG20060311191009503/11/06 19:10:31  5-MIN KMKG 120010Z 16011KT 10SM FEW040 15/08 A2988 660 64 900 160/11 RMK AO2
14840KMKG MKG20060311191509203/11/06 19:15:31  5-MIN KMKG 120015Z 15013KT 10SM CLR 15/08 A2988 670 64 900 160/13 RMK AO2
14840KMKG MKG20060311192009203/11/06 19:20:31  5-MIN KMKG 120020Z 15013KT 10SM CLR 15/08 A2988 670 64 900 160/13 RMK AO2
14840KMKG MKG20060311192509203/11/06 19:25:31  5-MIN KMKG 120025Z 15010KT 10SM CLR 15/08 A2988 670 64 900 160/10 RMK AO2
14840KMKG MKG20060311193009203/11/06 19:30:31  5-MIN KMKG 120030Z 15011KT 10SM CLR 15/08 A2988 670 64 900 160/11 RMK AO2
14840KMKG MKG20060311193509503/11/06 19:35:31  5-MIN KMKG 120035Z 16013KT 10SM FEW034 14/08 A2988 670 66 800 160/13 RMK AO2
14840KMKG MKG20060311194009503/11/06 19:40:31  5-MIN KMKG 120040Z 17012KT 10SM SCT034 15/08 A2988 670 64 900 170/12 RMK AO2
14840KMKG MKG20060311194509503/11/06 19:45:31  5-MIN KMKG 120045Z 16011KT 10SM BKN034 15/08 A2989 660 64 900 160/11 RMK AO2
14840KMKG MKG20060311195011203/11/06 19:50:31  5-MIN KMKG 120050Z 16010KT 10SM BKN034 14/08 A2990 650 66 800 160/10 RMK AO2 SLP126 T01440083
14840KMKG MKG20060311195511903/11/06 19:55:31  5-MIN KMKG 120055Z 17012KT 10SM BKN034 14/08 A2990 640 66 800 180/12 RMK AO2 PRESRR SLP129 T01440083
14840KMKG MKG20060311200009503/11/06 20:00:31  5-MIN KMKG 120100Z 16009KT 10SM OVC032 14/09 A2990 650 69 800 170/09 RMK AO2
14840KMKG MKG20060311200509503/11/06 20:05:31  5-MIN KMKG 120105Z 16011KT 10SM OVC032 14/09 A2990 650 69 800 170/11 RMK AO2
14840KMKG MKG20060311201009503/11/06 20:10:31  5-MIN KMKG 120110Z 16008KT 10SM OVC032 14/09 A2990 650 69 800 160/08 RMK AO2
14840KMKG MKG20060311201509503/11/06 20:15:31  5-MIN KMKG 120115Z 17010KT 10SM OVC030 14/09 A2990 650 69 800 170/10 RMK AO2
14840KMKG MKG20060311202009503/11/06 20:20:31  5-MIN KMKG 120120Z 16009KT 10SM OVC030 14/09 A2991 640 69 800 170/09 RMK AO2
14840KMKG MKG20060311202509503/11/06 20:25:31  5-MIN KMKG 120125Z 16010KT 10SM OVC028 14/09 A2991 640 69 800 160/10 RMK AO2
14840KMKG MKG20060311203009503/11/06 20:30:31  5-MIN KMKG 120130Z 16009KT 10SM OVC028 14/09 A2991 640 71 700 170/09 RMK AO2
14840KMKG MKG20060311203509503/11/06 20:35:31  5-MIN KMKG 120135Z 16010KT 10SM OVC028 14/09 A2991 640 71 700 170/10 RMK AO2
14840KMKG MKG20060311204009503/11/06 20:40:31  5-MIN KMKG 120140Z 17009KT 10SM OVC028 14/09 A2991 640 71 700 170/09 RMK AO2
14840KMKG MKG20060311204509503/11/06 20:45:31  5-MIN KMKG 120145Z 16012KT 10SM OVC028 14/09 A2991 640 69 800 160/12 RMK AO2
14840KMKG MKG20060311205011203/11/06 20:50:31  5-MIN KMKG 120150Z 17010KT 10SM OVC028 14/09 A2992 630 69 800 170/10 RMK AO2 SLP133 T01440089
14840KMKG MKG20060311205511203/11/06 20:55:31  5-MIN KMKG 120155Z 16009KT 10SM OVC028 14/09 A2991 640 71 700 170/09 RMK AO2 SLP132 T01390089
14840KMKG MKG20060311210009503/11/06 21:00:31  5-MIN KMKG 120200Z 16009KT 10SM OVC028 14/09 A2991 640 71 700 170/09 RMK AO2
14840KMKG MKG20060311210509503/11/06 21:05:31  5-MIN KMKG 120205Z 16010KT 10SM OVC028 14/09 A2990 640 71 700 160/10 RMK AO2
14840KMKG MKG20060311211009503/11/06 21:10:31  5-MIN KMKG 120210Z 16010KT 10SM OVC026 14/09 A2990 650 71 700 160/10 RMK AO2
14840KMKG MKG20060311211509503/11/06 21:15:31  5-MIN KMKG 120215Z 15010KT 10SM OVC026 14/09 A2990 650 71 700 150/10 RMK AO2
14840KMKG MKG20060311212009503/11/06 21:20:31  5-MIN KMKG 120220Z 16007KT 10SM OVC026 14/09 A2991 640 71 700 160/07 RMK AO2
14840KMKG MKG20060311212509503/11/06 21:25:31  5-MIN KMKG 120225Z 16009KT 10SM OVC026 14/09 A2991 640 71 700 160/09 RMK AO2
14840KMKG MKG20060311213009503/11/06 21:30:31  5-MIN KMKG 120230Z 15009KT 10SM OVC026 14/09 A2991 640 71 700 160/09 RMK AO2
14840KMKG MKG20060311213510203/11/06 21:35:31  5-MIN KMKG 120235Z 16010KT 10SM BKN026 OVC044 14/09 A2990 650 71 700 160/10 RMK AO2
14840KMKG MKG20060311214012403/11/06 21:40:31  5-MIN KMKG 120240Z 16009KT 10SM SCT026 BKN035 OVC044 14/09 A2990 650 71 700 160/09 RMK AO2 CIG 026 RWY 14
14840KMKG MKG20060311214512403/11/06 21:45:31  5-MIN KMKG 120245Z 16009KT 10SM SCT026 BKN035 OVC044 14/09 A2990 650 71 700 160/09 RMK AO2 CIG 028 RWY 14
14840KMKG MKG20060311215010903/11/06 21:50:31  5-MIN KMKG 120250Z 16010KT 10SM BKN026 BKN035 OVC044 14/09 A2990 650 71 700 160/10 RMK AO2
14840KMKG MKG20060311215512503/11/06 21:55:31  5-MIN KMKG 120255Z 15010KT 10SM BKN026 OVC044 14/09 A2989 660 71 700 160/10 RMK AO2 SLP124 T01390089 58004
14840KMKG MKG20060311220010903/11/06 22:00:31  5-MIN KMKG 120300Z 16011KT 10SM SCT026 SCT035 BKN046 14/09 A2989 660 71 700 160/11 RMK AO2
14840KMKG MKG20060311220510903/11/06 22:05:31  5-MIN KMKG 120305Z 16011KT 10SM SCT026 SCT035 BKN046 14/09 A2990 650 71 700 160/11 RMK AO2
14840KMKG MKG20060311221010203/11/06 22:10:31  5-MIN KMKG 120310Z 16009KT 10SM SCT026 BKN043 14/09 A2989 660 71 700 160/09 RMK AO2
14840KMKG MKG20060311221510203/11/06 22:15:31  5-MIN KMKG 120315Z 15011KT 10SM FEW026 BKN043 14/09 A2990 650 71 700 160/11 RMK AO2
14840KMKG MKG20060311222010203/11/06 22:20:31  5-MIN KMKG 120320Z 16009KT 10SM FEW026 SCT043 14/09 A2990 650 71 700 170/09 RMK AO2
14840KMKG MKG20060311222509503/11/06 22:25:31  5-MIN KMKG 120325Z 17010KT 10SM BKN041 14/09 A2991 640 71 700 170/10 RMK AO2
14840KMKG MKG20060311223010203/11/06 22:30:31  5-MIN KMKG 120330Z 17009KT 10SM FEW025 BKN041 14/09 A2991 640 71 700 170/09 RMK AO2
14840KMKG MKG20060311223511703/11/06 22:35:31  5-MIN KMKG 120335Z 17009KT 10SM SCT025 BKN041 14/09 A2991 640 74 700 180/09 RMK AO2 CIG 026 RWY 14
14840KMKG MKG20060311224010203/11/06 22:40:31  5-MIN KMKG 120340Z 17010KT 10SM BKN025 OVC039 14/09 A2992 630 74 700 170/10 RMK AO2
14840KMKG MKG20060311224510203/11/06 22:45:31  5-MIN KMKG 120345Z 17008KT 10SM BKN023 OVC039 14/09 A2992 630 74 700 180/08 RMK AO2
14840KMKG MKG20060311225012603/11/06 22:50:31  5-MIN KMKG 120350Z 16007KT 10SM BKN023 BKN031 OVC039 14/09 A2991 640 74 700 170/07 RMK AO2 SLP131 T01390094
14840KMKG MKG20060311225513503/11/06 22:55:31  5-MIN KMKG 120355Z 16006KT 10SM -RA BKN023 OVC034 13/09 A2990 650 77 600 160/06 RMK AO2 RAB55 SLP127 P0000 T01330094
14840KMKG MKG20060312001012703/12/06 00:10:31  5-MIN KMKG 120510Z 18009KT 10SM -RA BKN015 BKN019 OVC080 14/11 A2989 660 83 700 190/09 RMK AO2 RAB0457 P0000
14840KMKG MKG20060312001513503/12/06 00:15:31  5-MIN KMKG 120515Z 18010KT 10SM -RA SCT015 OVC080 14/11 A2988 660 83 700 190/10 RMK AO2 RAB0457 CIG 014 RWY 14 P0000
14840KMKG MKG20060312002012003/12/06 00:20:31  5-MIN KMKG 120520Z 19011KT 10SM -RA SCT015 OVC080 14/11 A2988 660 83 700 190/11 RMK AO2 RAB0457 P0000
14840KMKG MKG20060312002512003/12/06 00:25:31  5-MIN KMKG 120525Z 19011KT 10SM -RA SCT013 OVC080 14/12 A2989 660 86 700 190/11 RMK AO2 RAB0457 P0000
14840KMKG MKG20060312003013403/12/06 00:30:31  5-MIN KMKG 120530Z 20013KT 10SM SCT011 OVC080 14/12 A2990 650 86 700 200/13 RMK AO2 RAB0457E29 CIG 026 RWY 14 P0000
14840KMKG MKG20060312003511903/12/06 00:35:31  5-MIN KMKG 120535Z 19013KT 10SM BKN011 OVC080 14/12 A2989 660 86 700 200/13 RMK AO2 RAB0457E29 P0000
14840KMKG MKG20060312004011903/12/06 00:40:31  5-MIN KMKG 120540Z 18014KT 10SM BKN011 OVC080 14/12 A2989 660 86 700 190/14 RMK AO2 RAB0457E29 P0000
14840KMKG MKG20060312004511903/12/06 00:45:31  5-MIN KMKG 120545Z 19014KT 10SM BKN011 OVC080 14/12 A2989 660 86 700 190/14 RMK AO2 RAB0457E29 P0000
14840KMKG MKG20060312005015903/12/06 00:50:31  5-MIN KMKG 120550Z 19014G19KT 10SM OVC011 14/12 A2989 660 86 700 190/14G19 RMK AO2 RAB0457E29 SLP121 P0000 60000 T01390117 10156 20133 58004
14840KMKG MKG20060312005515903/12/06 00:55:31  5-MIN KMKG 120555Z 19014G19KT 10SM OVC011 14/12 A2988 660 86 700 190/14G19 RMK AO2 RAB0457E29 SLP119 P0000 60000 T01390117 10156 20133 58003
14840KMKG MKG20060312010010103/12/06 01:00:31  5-MIN KMKG 120600Z 19012G19KT 10SM OVC009 14/12 A2988 670 90 700 190/12G19 RMK AO2
14840KMKG MKG20060312010509503/12/06 01:05:31  5-MIN KMKG 120605Z 18011KT 10SM OVC009 14/12 A2988 670 90 700 180/11 RMK AO2
14840KMKG MKG20060312011010203/12/06 01:10:31  5-MIN KMKG 120610Z 19013KT 10SM BKN009 OVC080 14/12 A2988 660 90 700 190/13 RMK AO2
14840KMKG MKG20060312011510203/12/06 01:15:31  5-MIN KMKG 120615Z 18008KT 10SM BKN009 OVC075 14/12 A2988 660 90 700 180/08 RMK AO2
14840KMKG MKG20060312012011703/12/06 01:20:31  5-MIN KMKG 120620Z 19006KT 10SM SCT009 OVC075 14/12 A2989 660 90 700 200/06 RMK AO2 CIG 010 RWY 14
14840KMKG MKG20060312012511703/12/06 01:25:31  5-MIN KMKG 120625Z 17011KT 10SM SCT009 OVC075 14/12 A2988 670 90 700 170/11 RMK AO2 CIG 010 RWY 14
14840KMKG MKG20060312013012303/12/06 01:30:31  5-MIN KMKG 120630Z 17012G16KT 10SM SCT009 OVC075 14/13 A2988 660 90 800 180/12G16 RMK AO2 CIG 010 RWY 14
14840KMKG MKG20060312013510203/12/06 01:35:31  5-MIN KMKG 120635Z 18008KT 10SM FEW011 OVC075 14/13 A2989 660 90 800 190/08 RMK AO2
14840KMKG MKG20060312014010203/12/06 01:40:31  5-MIN KMKG 120640Z 17007KT 10SM FEW011 OVC070 14/13 A2989 660 90 800 180/07 RMK AO2
14840KMKG MKG20060312014510203/12/06 01:45:31  5-MIN KMKG 120645Z 18007KT 10SM FEW011 OVC075 14/13 A2989 660 90 800 180/07 RMK AO2
14840KMKG MKG20060312015011903/12/06 01:50:31  5-MIN KMKG 120650Z 19006KT 10SM FEW011 OVC075 14/13 A2989 660 90 800 190/06 RMK AO2 SLP120 T01440128
14840KMKG MKG20060312015511903/12/06 01:55:31  5-MIN KMKG 120655Z 19007KT 10SM FEW011 OVC070 14/13 A2989 660 90 800 200/07 RMK AO2 SLP121 T01440128
14840KMKG MKG20060312020009503/12/06 02:00:31  5-MIN KMKG 120700Z 19008KT 10SM OVC070 14/13 A2989 660 93 700 190/08 RMK AO2
14840KMKG MKG20060312020509503/12/06 02:05:31  5-MIN KMKG 120705Z 19006KT 10SM OVC070 14/13 A2989 660 90 800 190/06 RMK AO2
14840KMKG MKG20060312021009503/12/06 02:10:31  5-MIN KMKG 120710Z 19007KT 10SM OVC070 14/13 A2989 660 93 700 200/07 RMK AO2
14840KMKG MKG20060312021509503/12/06 02:15:31  5-MIN KMKG 120715Z 20007KT 10SM OVC070 14/12 A2990 650 90 700 200/07 RMK AO2
14840KMKG MKG20060312022009503/12/06 02:20:31  5-MIN KMKG 120720Z 21007KT 10SM OVC070 14/12 A2990 650 90 700 220/07 RMK AO2
14840KMKG MKG20060312022509503/12/06 02:25:31  5-MIN KMKG 120725Z 22006KT 10SM OVC070 14/12 A2990 650 90 700 220/06 RMK AO2
14840KMKG MKG20060312023009503/12/06 02:30:31  5-MIN KMKG 120730Z 22007KT 10SM OVC070 14/12 A2990 650 90 700 220/07 RMK AO2
14840KMKG MKG20060312023509503/12/06 02:35:31  5-MIN KMKG 120735Z 21007KT 10SM OVC070 14/12 A2990 650 90 700 220/07 RMK AO2
14840KMKG MKG20060312024009503/12/06 02:40:31  5-MIN KMKG 120740Z 21008KT 10SM OVC065 14/12 A2990 650 90 700 210/08 RMK AO2
14840KMKG MKG20060312024509503/12/06 02:45:31  5-MIN KMKG 120745Z 22007KT 10SM OVC065 14/12 A2990 650 90 700 230/07 RMK AO2
14840KMKG MKG20060312025011403/12/06 02:50:31  5-MIN KMKG 120750Z 28013KT 8SM FEW007 OVC065 12/11 A2990 650 93 500 280/13 RMK AO2 VIS 2 RWY 14
14840KMKG MKG20060312025514503/12/06 02:55:31  5-MIN KMKG 120755Z 29014KT 1 1/4SM BR SCT002 BKN013 OVC065 10/09 A2991 640 93 200 290/14 RMK AO2 VIS 1/2 RWY 14 CIG 009 RWY 14
14840KMKG MKG20060312030010603/12/06 03:00:31  5-MIN KMKG 120800Z 29010KT 1/2SM FG BKN002 BKN065 09/08 A2991 640 96 100 290/10 RMK AO2
14840KMKG MKG20060312030510503/12/06 03:05:31  5-MIN KMKG 120805Z 29009KT 1/2SM FG BKN002 BKN065 08/08 A2991 640 100 0 290/09 RMK AO2
14840KMKG MKG20060312031010603/12/06 03:10:31  5-MIN KMKG 120810Z 28008KT 1/4SM FG BKN002 BKN065 09/08 A2991 640 96 100 280/08 RMK AO2
14840KMKG MKG20060312031509903/12/06 03:15:31  5-MIN KMKG 120815Z 27007KT 1/2SM FG OVC002 09/08 A2991 640 96 100 280/07 RMK AO2
14840KMKG MKG20060312032010003/12/06 03:20:31  5-MIN KMKG 120820Z 24007KT 1/2SM FG OVC002 09/09 A2990 650 100 100 250/07 RMK AO2
14840KMKG MKG20060312032510003/12/06 03:25:31  5-MIN KMKG 120825Z 23007KT 1/2SM FG OVC002 09/09 A2990 650 100 100 230/07 RMK AO2
14840KMKG MKG20060312033009903/12/06 03:30:31  5-MIN KMKG 120830Z 24006KT 1/2SM FG OVC002 09/09 A2990 650 96 200 240/06 RMK AO2
14840KMKG MKG20060312033510003/12/06 03:35:31  5-MIN KMKG 120835Z 27006KT 1/2SM FG OVC002 09/09 A2991 640 100 200 280/06 RMK AO2
14840KMKG MKG20060312034009803/12/06 03:40:31  5-MIN KMKG 120840Z 29007KT 1SM BR OVC002 09/09 A2991 640 100 200 290/07 RMK AO2
14840KMKG MKG20060312034510003/12/06 03:45:31  5-MIN KMKG 120845Z 30007KT 3/4SM BR OVC002 09/09 A2991 640 100 200 300/07 RMK AO2
14840KMKG MKG20060312035012903/12/06 03:50:31  5-MIN KMKG 120850Z 29007KT 1SM -RA BR OVC002 09/09 A2990 650 100 200 290/07 RMK AO2 VIS 1/4 RWY 14 RAB50 P0000
14840KMKG MKG20060312035515703/12/06 03:55:31  5-MIN KMKG 120855Z 30006KT 1SM -RA BR OVC002 10/09 A2990 650 96 200 300/06 RMK AO2 VIS 1/4 RWY 14 RAB50 SLP127 P0000 60000 T01000094 50006
14840KMKG MKG20060312040012103/12/06 04:00:31  5-MIN KMKG 120900Z 28007KT 1SM RA BR OVC002 10/09 A2991 640 96 200 290/07 RMK AO2 VIS 1/4 RWY 14 P0001
14840KMKG MKG20060312040513303/12/06 04:05:31  5-MIN KMKG 120905Z 29008KT 1 1/2SM RA BR BKN002 OVC031 10/10 A2991 640 100 200 300/08 RMK AO2 VIS 1/4 RWY 14 P0003
14840KMKG MKG20060312041012903/12/06 04:10:31  5-MIN KMKG 120910Z 30010KT 3SM -RA BR BKN002 OVC031 10/09 A2991 640 96 200 300/10 RMK AO2 VIS 1/4 RWY 14 P0003
14840KMKG MKG20060312041513403/12/06 04:15:31  5-MIN KMKG 120915Z 30009KT 6SM -RA BR SCT002 BKN033 OVC041 10/09 A2992 630 96 200 300/09 RMK AO2 VIS 1 RWY 14 P0003
14840KMKG MKG20060312042011803/12/06 04:20:31  5-MIN KMKG 120920Z 30010KT 8SM -RA SCT002 BKN035 OVC070 10/09 A2992 640 93 200 310/10 RMK AO2 P0003
14840KMKG MKG20060312042513303/12/06 04:25:31  5-MIN KMKG 120925Z 32010KT 8SM -RA FEW002 BKN044 OVC085 09/09 A2991 640 96 200 320/10 RMK AO2 CIG 037 RWY 14 P0003
14840KMKG MKG20060312043011803/12/06 04:30:31  5-MIN KMKG 120930Z 32009KT 7SM -RA SCT010 BKN033 OVC065 09/09 A2991 640 96 200 320/09 RMK AO2 P0003
14840KMKG MKG20060312043513303/12/06 04:35:31  5-MIN KMKG 120935Z 32012KT 7SM -RA SCT010 BKN033 OVC065 09/08 A2992 630 96 100 330/12 RMK AO2 CIG 007 RWY 14 P0003
14840KMKG MKG20060312044013003/12/06 04:40:31  5-MIN KMKG 120940Z 33010KT 7SM -RA BKN008 BKN033 OVC065 09/08 A2992 630 96 100 330/10 RMK AO2 CIG 005V017 P0003
14840KMKG MKG20060312044512303/12/06 04:45:31  5-MIN KMKG 120945Z 32010KT 6SM BR SCT008 BKN033 OVC065 09/08 A2992 630 93 100 330/10 RMK AO2 RAE43 P0003
14840KMKG MKG20060312045014003/12/06 04:50:31  5-MIN KMKG 120950Z 33010KT 6SM BR SCT008 BKN033 OVC060 09/08 A2993 630 93 100 330/10 RMK AO2 RAE43 SLP134 P0003 T00890078
14840KMKG MKG20060312045513103/12/06 04:55:31  5-MIN KMKG 120955Z 32009KT 5SM BR SCT008 OVC033 08/08 A2993 620 96 0 330/09 RMK AO2 RAE43 SLP136 P0003 T00830078
14840KMKG MKG20060312050010203/12/06 05:00:31  5-MIN KMKG 121000Z 31008KT 5SM BR FEW006 OVC033 08/08 A2993 620 96 0 320/08 RMK AO2
14840KMKG MKG20060312050510203/12/06 05:05:31  5-MIN KMKG 121005Z 32008KT 5SM BR FEW006 OVC033 08/08 A2993 620 96 0 320/08 RMK AO2
14840KMKG MKG20060312051010203/12/06 05:10:31  5-MIN KMKG 121010Z 32008KT 5SM BR FEW008 OVC033 08/08 A2993 620 96 0 320/08 RMK AO2
14840KMKG MKG20060312051510203/12/06 05:15:31  5-MIN KMKG 121015Z 33008KT 5SM BR SCT008 OVC033 08/08 A2994 620 96 0 330/08 RMK AO2
14840KMKG MKG20060312052010903/12/06 05:20:31  5-MIN KMKG 121020Z 33008KT 5SM BR SCT008 BKN033 OVC043 08/07 A2994 620 93 0 330/08 RMK AO2
14840KMKG MKG20060312052510903/12/06 05:25:31  5-MIN KMKG 121025Z 34006KT 5SM BR FEW008 BKN033 OVC043 08/08 A2994 620 96 0 340/06 RMK AO2
14840KMKG MKG20060312053010903/12/06 05:30:31  5-MIN KMKG 121030Z 34008KT 5SM BR FEW008 BKN033 OVC045 08/08 A2994 610 96 0 350/08 RMK AO2
14840KMKG MKG20060312053511103/12/06 05:35:31  5-MIN KMKG 121035Z 36010KT 5SM BR FEW008 BKN033 OVC045 09/07 A2994 610 89 100 360/10 RMK AO2
14840KMKG MKG20060312054011103/12/06 05:40:31  5-MIN KMKG 121040Z 36011KT 6SM BR FEW008 BKN033 OVC045 09/07 A2995 610 86 100 360/11 RMK AO2
14840KMKG MKG20060312054509903/12/06 05:45:31  5-MIN KMKG 121045Z 01013KT 8SM BKN033 OVC045 09/06 A2995 600 79 0 010/13 RMK AO2
14840KMKG MKG20060312055011603/12/06 05:50:31  5-MIN KMKG 121050Z 36011KT 8SM BKN033 OVC045 08/06 A2995 600 82 0 010/11 RMK AO2 SLP143 T00830056
14840KMKG MKG20060312055511503/12/06 05:55:31  5-MIN KMKG 121055Z 36009G18KT 8SM OVC035 08/05 A2996 600 79 0 010/09G18 RMK AO2 SLP145 T00830050
14840KMKG MKG20060312060009203/12/06 06:00:31  5-MIN KMKG 121100Z 36012KT 7SM OVC037 08/05 A2996 590 79 0 010/12 RMK AO2
14840KMKG MKG20060312060509203/12/06 06:05:31  5-MIN KMKG 121105Z 36009KT 7SM OVC037 08/05 A2997 590 79 0 010/09 RMK AO2
14840KMKG MKG20060312061010203/12/06 06:10:31  5-MIN KMKG 121110Z 01010KT 7SM BKN039 OVC047 08/05 A2997 580 82 -100 010/10 RMK AO2
14840KMKG MKG20060312061510203/12/06 06:15:31  5-MIN KMKG 121115Z 01007KT 7SM BKN039 OVC047 08/04 A2997 580 79 -100 010/07 RMK AO2
14840KMKG MKG20060312062010803/12/06 06:20:31  5-MIN KMKG 121120Z 36012G15KT 7SM BKN041 OVC055 08/04 A2997 580 79 -100 360/12G15 RMK AO2
14840KMKG MKG20060312062510803/12/06 06:25:31  5-MIN KMKG 121125Z 36008G15KT 7SM SCT041 OVC055 08/04 A2998 580 79 -100 360/08G15 RMK AO2
14840KMKG MKG20060312063010203/12/06 06:30:31  5-MIN KMKG 121130Z 35008KT 7SM SCT045 OVC055 08/04 A2998 580 79 -100 360/08 RMK AO2
14840KMKG MKG20060312063509503/12/06 06:35:31  5-MIN KMKG 121135Z 35007KT 7SM BKN055 07/04 A2998 570 82 -100 360/07 RMK AO2
14840KMKG MKG20060312064009503/12/06 06:40:31  5-MIN KMKG 121140Z 01008KT 7SM BKN055 07/04 A2998 570 79 -100 010/08 RMK AO2
14840KMKG MKG20060312064509503/12/06 06:45:31  5-MIN KMKG 121145Z 01007KT 7SM SCT055 07/04 A2999 570 79 -100 010/07 RMK AO2
14840KMKG MKG20060312065014203/12/06 06:50:31  5-MIN KMKG 121150Z 01007KT 7SM FEW060 07/04 A2998 570 79 -100 020/07 RMK AO2 SLP155 60003 70003 T00720039 10144 20067 50006
14840KMKG MKG20060312065514203/12/06 06:55:31  5-MIN KMKG 121155Z 02007KT 7SM FEW060 07/04 A2998 570 82 -200 020/07 RMK AO2 SLP155 60003 70003 T00670039 10144 20067 53019
14840KMKG MKG20060312070009203/12/06 07:00:31  5-MIN KMKG 121200Z 01008KT 7SM CLR 07/04 A2998 570 82 -200 020/08 RMK AO2
14840KMKG MKG20060312070509503/12/06 07:05:31  5-MIN KMKG 121205Z 01008KT 6SM HZ CLR 07/04 A2998 570 82 -200 020/08 RMK AO2
14840KMKG MKG20060312071009803/12/06 07:10:31  5-MIN KMKG 121210Z 01006KT 6SM HZ FEW060 07/04 A2998 570 82 -200 010/06 RMK AO2
14840KMKG MKG20060312071509803/12/06 07:15:31  5-MIN KMKG 121215Z 01006KT 5SM HZ FEW060 07/04 A2998 580 82 -200 020/06 RMK AO2
14840KMKG MKG20060312072009503/12/06 07:20:31  5-MIN KMKG 121220Z 01007KT 5SM BR CLR 06/04 A2998 580 86 -300 020/07 RMK AO2
14840KMKG MKG20060312072509503/12/06 07:25:31  5-MIN KMKG 121225Z 02008KT 5SM BR CLR 06/04 A2997 580 86 -300 020/08 RMK AO2
14840KMKG MKG20060312073009503/12/06 07:30:31  5-MIN KMKG 121230Z 01008KT 5SM BR CLR 06/04 A2997 590 86 -300 010/08 RMK AO2
14840KMKG MKG20060312073509503/12/06 07:35:31  5-MIN KMKG 121235Z 01007KT 5SM BR CLR 06/04 A2996 590 86 -300 010/07 RMK AO2
14840KMKG MKG20060312074009503/12/06 07:40:31  5-MIN KMKG 121240Z 01008KT 5SM BR CLR 06/04 A2997 590 86 -300 010/08 RMK AO2
14840KMKG MKG20060312074509503/12/06 07:45:31  5-MIN KMKG 121245Z 01008KT 5SM BR CLR 06/04 A2997 590 86 -300 010/08 RMK AO2
14840KMKG MKG20060312075011203/12/06 07:50:31  5-MIN KMKG 121250Z 36007KT 5SM BR CLR 06/04 A2997 580 86 -300 010/07 RMK AO2 SLP152 T00610039
14840KMKG MKG20060312075511203/12/06 07:55:31  5-MIN KMKG 121255Z 36008KT 5SM BR CLR 06/04 A2998 580 86 -300 360/08 RMK AO2 SLP153 T00610039
14840KMKG MKG20060312080009503/12/06 08:00:31  5-MIN KMKG 121300Z 36007KT 5SM BR CLR 06/04 A2998 580 86 -300 360/07 RMK AO2
14840KMKG MKG20060312080509503/12/06 08:05:31  5-MIN KMKG 121305Z 36008KT 5SM BR CLR 06/04 A2998 570 86 -300 360/08 RMK AO2
14840KMKG MKG20060312081009503/12/06 08:10:31  5-MIN KMKG 121310Z 01008KT 5SM BR CLR 06/04 A2998 570 86 -300 010/08 RMK AO2
14840KMKG MKG20060312081509503/12/06 08:15:31  5-MIN KMKG 121315Z 36008KT 5SM BR CLR 06/04 A2999 570 86 -300 360/08 RMK AO2
14840KMKG MKG20060312082009503/12/06 08:20:31  5-MIN KMKG 121320Z 01008KT 5SM BR CLR 06/04 A2999 570 86 -300 010/08 RMK AO2
14840KMKG MKG20060312082509503/12/06 08:25:31  5-MIN KMKG 121325Z 01010KT 5SM HZ CLR 07/04 A2999 560 82 -200 010/10 RMK AO2
14840KMKG MKG20060312083009503/12/06 08:30:31  5-MIN KMKG 121330Z 01010KT 5SM HZ CLR 06/03 A2999 560 82 -300 010/10 RMK AO2
14840KMKG MKG20060312083509503/12/06 08:35:31  5-MIN KMKG 121335Z 01009KT 5SM HZ CLR 06/03 A3000 560 82 -300 020/09 RMK AO2
14840KMKG MKG20060312084009503/12/06 08:40:31  5-MIN KMKG 121340Z 01008KT 5SM HZ CLR 07/03 A3001 550 79 -200 010/08 RMK AO2
14840KMKG MKG20060312084509503/12/06 08:45:31  5-MIN KMKG 121345Z 36009KT 5SM HZ CLR 07/04 A3001 550 82 -200 010/09 RMK AO2
14840KMKG MKG20060312085011203/12/06 08:50:31  5-MIN KMKG 121350Z 36010KT 5SM HZ CLR 07/04 A3001 540 82 -200 010/10 RMK AO2 SLP166 T00670039
14840KMKG MKG20060312085511203/12/06 08:55:31  5-MIN KMKG 121355Z 36011KT 5SM BR CLR 07/04 A3002 540 82 -200 010/11 RMK AO2 SLP167 T00670039
14840KMKG MKG20060312090009503/12/06 09:00:31  5-MIN KMKG 121400Z 35012KT 5SM BR CLR 07/04 A3002 540 79 -200 360/12 RMK AO2
14840KMKG MKG20060312090509503/12/06 09:05:31  5-MIN KMKG 121405Z 01011KT 6SM BR CLR 07/04 A3002 540 79 -200 010/11 RMK AO2
14840KMKG MKG20060312091009503/12/06 09:10:31  5-MIN KMKG 121410Z 01010KT 6SM BR CLR 07/03 A3002 530 76 -200 010/10 RMK AO2
14840KMKG MKG20060312091509203/12/06 09:15:31  5-MIN KMKG 121415Z 36009KT 7SM CLR 08/04 A3003 530 76 -100 360/09 RMK AO2
14840KMKG MKG20060312092009203/12/06 09:20:31  5-MIN KMKG 121420Z 36011KT 7SM CLR 08/03 A3003 530 73 -100 360/11 RMK AO2
14840KMKG MKG20060312092509203/12/06 09:25:31  5-MIN KMKG 121425Z 36011KT 8SM CLR 08/03 A3003 530 70 -100 360/11 RMK AO2
14840KMKG MKG20060312093009203/12/06 09:30:31  5-MIN KMKG 121430Z 01011KT 9SM CLR 08/03 A3004 520 68 -100 020/11 RMK AO2
14840KMKG MKG20060312093509203/12/06 09:35:31  5-MIN KMKG 121435Z 01013KT 9SM CLR 08/03 A3003 520 68 -100 010/13 RMK AO2
14840KMKG MKG20060312094009203/12/06 09:40:31  5-MIN KMKG 121440Z 02012KT 9SM CLR 08/03 A3003 530 68 -100 030/12 RMK AO2
14840KMKG MKG20060312094509303/12/06 09:45:31  5-MIN KMKG 121445Z 03010KT 10SM CLR 08/03 A3003 530 68 -100 030/10 RMK AO2
14840KMKG MKG20060312095011303/12/06 09:50:31  5-MIN KMKG 121450Z 01010KT 10SM CLR 09/02 A3003 530 63 0 010/10 RMK AO2 SLP170 T00890022 53019
14840KMKG MKG20060312095511303/12/06 09:55:31  5-MIN KMKG 121455Z 01011KT 10SM CLR 09/02 A3003 530 63 0 020/11 RMK AO2 SLP171 T00890022 53015
14840KMKG MKG20060312100009003/12/06 10:00:31  5-MIN KMKG 121500Z 01008KT 10SM CLR 09/02 A3003 530 63 0 020/08 RMK AO2
14840KMKG MKG20060312100509003/12/06 10:05:31  5-MIN KMKG 121505Z 01010KT 10SM CLR 09/02 A3003 530 63 0 010/10 RMK AO2
14840KMKG MKG20060312101009003/12/06 10:10:31  5-MIN KMKG 121510Z 02008KT 10SM CLR 09/02 A3003 530 60 0 020/08 RMK AO2
14840KMKG MKG20060312101509003/12/06 10:15:31  5-MIN KMKG 121515Z 01007KT 10SM CLR 09/02 A3003 530 60 0 020/07 RMK AO2
14840KMKG MKG20060312102009203/12/06 10:20:31  5-MIN KMKG 121520Z 02007KT 10SM CLR 10/02 A3003 530 58 100 030/07 RMK AO2
14840KMKG MKG20060312102509203/12/06 10:25:31  5-MIN KMKG 121525Z 04009KT 10SM CLR 10/02 A3002 540 56 100 050/09 RMK AO2
14840KMKG MKG20060312103009203/12/06 10:30:31  5-MIN KMKG 121530Z 04010KT 10SM CLR 10/02 A3002 540 56 100 050/10 RMK AO2
14840KMKG MKG20060312103509203/12/06 10:35:31  5-MIN KMKG 121535Z 05009KT 10SM CLR 10/02 A3002 540 56 100 050/09 RMK AO2
14840KMKG MKG20060312104009203/12/06 10:40:31  5-MIN KMKG 121540Z 03010KT 10SM CLR 11/02 A3001 540 54 200 040/10 RMK AO2
14840KMKG MKG20060312104509203/12/06 10:45:31  5-MIN KMKG 121545Z 03009KT 10SM CLR 11/02 A3001 550 54 200 030/09 RMK AO2
14840KMKG MKG20060312105010903/12/06 10:50:31  5-MIN KMKG 121550Z 05009KT 10SM CLR 11/02 A3001 550 54 200 060/09 RMK AO2 SLP164 T01060017
14840KMKG MKG20060312105510903/12/06 10:55:31  5-MIN KMKG 121555Z 06010KT 10SM CLR 11/02 A3001 550 52 300 060/10 RMK AO2 SLP164 T01110017
14840KMKG MKG20060312110009203/12/06 11:00:31  5-MIN KMKG 121600Z 03013KT 10SM CLR 11/01 A3001 550 48 300 030/13 RMK AO2
14840KMKG MKG20060312110509203/12/06 11:05:31  5-MIN KMKG 121605Z 04008KT 10SM CLR 12/01 A3001 540 46 300 040/08 RMK AO2
14840KMKG MKG20060312111009203/12/06 11:10:31  5-MIN KMKG 121610Z 06007KT 10SM CLR 12/01 A3001 540 48 300 060/07 RMK AO2
14840KMKG MKG20060312111509203/12/06 11:15:31  5-MIN KMKG 121615Z 07007KT 10SM CLR 12/02 A3001 540 50 300 080/07 RMK AO2
14840KMKG MKG20060312112009203/12/06 11:20:31  5-MIN KMKG 121620Z 05009KT 10SM CLR 12/01 A3001 550 48 300 060/09 RMK AO2
14840KMKG MKG20060312112509203/12/06 11:25:31  5-MIN KMKG 121625Z 05011KT 10SM CLR 12/01 A3001 550 46 300 060/11 RMK AO2
14840KMKG MKG20060312113009203/12/06 11:30:31  5-MIN KMKG 121630Z 05011KT 10SM CLR 12/01 A3001 550 46 300 060/11 RMK AO2
14840KMKG MKG20060312113509203/12/06 11:35:31  5-MIN KMKG 121635Z 04009KT 10SM CLR 12/01 A3000 550 48 300 040/09 RMK AO2
14840KMKG MKG20060312114009203/12/06 11:40:31  5-MIN KMKG 121640Z 05008KT 10SM CLR 12/01 A3001 550 46 300 060/08 RMK AO2
14840KMKG MKG20060312114509203/12/06 11:45:31  5-MIN KMKG 121645Z 07010KT 10SM CLR 12/01 A3001 550 48 300 080/10 RMK AO2
14840KMKG MKG20060312115010903/12/06 11:50:31  5-MIN KMKG 121650Z 06010KT 10SM CLR 12/01 A3001 540 46 300 070/10 RMK AO2 SLP165 T01170006
14840KMKG MKG20060312115510903/12/06 11:55:31  5-MIN KMKG 121655Z 06007KT 10SM CLR 12/01 A3001 540 46 300 070/07 RMK AO2 SLP165 T01170006
14840KMKG MKG20060312120009203/12/06 12:00:31  5-MIN KMKG 121700Z 05008KT 10SM CLR 12/01 A3002 540 48 300 050/08 RMK AO2
14840KMKG MKG20060312120509203/12/06 12:05:31  5-MIN KMKG 121705Z 07007KT 10SM CLR 12/01 A3002 540 48 300 080/07 RMK AO2
14840KMKG MKG20060312121009203/12/06 12:10:31  5-MIN KMKG 121710Z 06006KT 10SM CLR 12/02 A3001 550 48 400 060/06 RMK AO2
14840KMKG MKG20060312121509203/12/06 12:15:31  5-MIN KMKG 121715Z 03007KT 10SM CLR 12/01 A3001 550 46 400 040/07 RMK AO2
14840KMKG MKG20060312122009203/12/06 12:20:31  5-MIN KMKG 121720Z 04008KT 10SM CLR 12/02 A3001 550 48 400 040/08 RMK AO2
14840KMKG MKG20060312122509203/12/06 12:25:31  5-MIN KMKG 121725Z 06006KT 10SM CLR 12/02 A3000 550 48 400 060/06 RMK AO2
14840KMKG MKG20060312123009203/12/06 12:30:31  5-MIN KMKG 121730Z 08008KT 10SM CLR 13/01 A3000 560 44 500 080/08 RMK AO2
14840KMKG MKG20060312123509203/12/06 12:35:31  5-MIN KMKG 121735Z 03007KT 10SM CLR 13/01 A3000 550 44 500 040/07 RMK AO2
14840KMKG MKG20060312124009203/12/06 12:40:31  5-MIN KMKG 121740Z 04008KT 10SM CLR 13/01 A3000 550 44 500 040/08 RMK AO2
14840KMKG MKG20060312124510803/12/06 12:45:31  5-MIN KMKG 121745Z 03007KT 010V080 10SM CLR 13/01 A3001 550 43 500 030/07 010V080 RMK AO2
14840KMKG MKG20060312125012703/12/06 12:50:31  5-MIN KMKG 121750Z 07004KT 10SM CLR 13/01 A3001 550 41 500 070/04 RMK AO2 SLP163 T01330006 10133 20061 53015
14840KMKG MKG20060312125513003/12/06 12:55:31  5-MIN KMKG 121755Z 04006KT 10SM FEW120 14/01 A3001 550 41 600 050/06 RMK AO2 SLP161 T01390011 10139 20061 56008
14840KMKG MKG20060312130009203/12/06 13:00:31  5-MIN KMKG 121800Z 03007KT 10SM CLR 14/01 A3000 560 41 600 040/07 RMK AO2
14840KMKG MKG20060312130509203/12/06 13:05:31  5-MIN KMKG 121805Z 03007KT 10SM CLR 13/01 A2999 560 41 500 030/07 RMK AO2
14840KMKG MKG20060312131009903/12/06 13:10:31  5-MIN KMKG 121810Z 05004KT 10SM CLR 13/01 A2999 570 43 500 060/04 RMK AO2 PRESFR
14840KMKG MKG20060312131509203/12/06 13:15:31  5-MIN KMKG 121815Z 06008KT 10SM CLR 14/01 A2999 570 41 600 070/08 RMK AO2
14840KMKG MKG20060312132009203/12/06 13:20:31  5-MIN KMKG 121820Z 01004KT 10SM CLR 14/01 A2999 570 41 600 010/04 RMK AO2
14840KMKG MKG20060312132509203/12/06 13:25:31  5-MIN KMKG 121825Z 07006KT 10SM CLR 14/01 A2998 570 41 600 070/06 RMK AO2
14840KMKG MKG20060312133010803/12/06 13:30:31  5-MIN KMKG 121830Z 05008KT 020V100 10SM CLR 14/01 A2998 570 41 600 050/08 020V100 RMK AO2
14840KMKG MKG20060312133509203/12/06 13:35:31  5-MIN KMKG 121835Z 05007KT 10SM CLR 14/01 A2998 570 40 700 060/07 RMK AO2
14840KMKG MKG20060312134009203/12/06 13:40:31  5-MIN KMKG 121840Z 03003KT 10SM CLR 14/01 A2998 570 41 600 040/03 RMK AO2
14840KMKG MKG20060312134509203/12/06 13:45:31  5-MIN KMKG 121845Z 05007KT 10SM CLR 14/01 A2998 570 38 700 060/07 RMK AO2
14840KMKG MKG20060312135010903/12/06 13:50:31  5-MIN KMKG 121850Z 09005KT 10SM CLR 14/01 A2998 580 40 600 090/05 RMK AO2 SLP151 T01390006
14840KMKG MKG20060312135511203/12/06 13:55:31  5-MIN KMKG 121855Z 11007KT 10SM FEW080 14/01 A2997 580 38 700 110/07 RMK AO2 SLP150 T01440006
14840KMKG MKG20060312140009203/12/06 14:00:31  5-MIN KMKG 121900Z 06008KT 10SM CLR 14/01 A2997 590 38 700 070/08 RMK AO2
14840KMKG MKG20060312140509203/12/06 14:05:31  5-MIN KMKG 121905Z 06009KT 10SM CLR 14/01 A2996 590 40 700 060/09 RMK AO2
14840KMKG MKG20060312141009203/12/06 14:10:31  5-MIN KMKG 121910Z 06007KT 10SM CLR 14/01 A2996 600 40 700 060/07 RMK AO2
14840KMKG MKG20060312141509203/12/06 14:15:31  5-MIN KMKG 121915Z 06008KT 10SM CLR 15/01 A2995 600 38 800 070/08 RMK AO2
14840KMKG MKG20060312142009203/12/06 14:20:31  5-MIN KMKG 121920Z 09007KT 10SM CLR 14/01 A2995 610 38 700 100/07 RMK AO2
14840KMKG MKG20060312142509203/12/06 14:25:31  5-MIN KMKG 121925Z 06010KT 10SM CLR 14/00 A2994 610 37 700 070/10 RMK AO2
14840KMKG MKG20060312143009303/12/06 14:30:31  5-MIN KMKG 121930Z 07009KT 10SM CLR 14/M01 A2994 610 37 700 080/09 RMK AO2
14840KMKG MKG20060312143509303/12/06 14:35:31  5-MIN KMKG 121935Z 07011KT 10SM CLR 14/M01 A2994 610 37 700 070/11 RMK AO2
14840KMKG MKG20060312144009203/12/06 14:40:31  5-MIN KMKG 121940Z 05011KT 10SM CLR 14/00 A2993 620 38 700 060/11 RMK AO2
14840KMKG MKG20060312144509203/12/06 14:45:31  5-MIN KMKG 121945Z 05009KT 10SM CLR 14/00 A2994 620 38 700 060/09 RMK AO2
14840KMKG MKG20060312145011203/12/06 14:50:31  5-MIN KMKG 121950Z 05008KT 10SM FEW080 14/00 A2995 610 38 700 060/08 RMK AO2 SLP141 T01390000
14840KMKG MKG20060312145511203/12/06 14:55:31  5-MIN KMKG 121955Z 06009KT 10SM FEW080 14/00 A2995 610 38 700 060/09 RMK AO2 SLP142 T01390000
14840KMKG MKG20060312150009203/12/06 15:00:31  5-MIN KMKG 122000Z 05008KT 10SM CLR 14/00 A2994 610 38 700 050/08 RMK AO2
14840KMKG MKG20060312150509203/12/06 15:05:31  5-MIN KMKG 122005Z 04007KT 10SM CLR 14/00 A2994 610 38 700 050/07 RMK AO2
14840KMKG MKG20060312151009203/12/06 15:10:31  5-MIN KMKG 122010Z 04009KT 10SM CLR 14/00 A2994 610 38 700 040/09 RMK AO2
14840KMKG MKG20060312151509203/12/06 15:15:31  5-MIN KMKG 122015Z 06009KT 10SM CLR 14/01 A2994 610 40 700 060/09 RMK AO2
14840KMKG MKG20060312152009203/12/06 15:20:31  5-MIN KMKG 122020Z 05008KT 10SM CLR 13/01 A2994 610 41 600 060/08 RMK AO2
14840KMKG MKG20060312152509203/12/06 15:25:31  5-MIN KMKG 122025Z 05009KT 10SM CLR 13/01 A2994 610 43 600 050/09 RMK AO2
14840KMKG MKG20060312153009203/12/06 15:30:31  5-MIN KMKG 122030Z 07006KT 10SM CLR 14/02 A2995 600 43 700 070/06 RMK AO2
14840KMKG MKG20060312153509203/12/06 15:35:31  5-MIN KMKG 122035Z 05005KT 10SM CLR 14/01 A2995 600 41 600 050/05 RMK AO2
14840KMKG MKG20060312154009203/12/06 15:40:31  5-MIN KMKG 122040Z 03005KT 10SM CLR 14/01 A2996 590 41 600 030/05 RMK AO2
14840KMKG MKG20060312154509203/12/06 15:45:31  5-MIN KMKG 122045Z 05004KT 10SM CLR 14/01 A2996 590 41 600 060/04 RMK AO2
14840KMKG MKG20060312155012503/12/06 15:50:31  5-MIN KMKG 122050Z 05003KT 10SM FEW039 14/01 A2997 580 41 600 050/03 RMK AO2 PRESRR SLP150 T01390011 56008
14840KMKG MKG20060312155511803/12/06 15:55:31  5-MIN KMKG 122055Z 03005KT 10SM SCT039 14/02 A2997 580 43 600 030/05 RMK AO2 SLP151 T01390017 55011
14840KMKG MKG20060312160009503/12/06 16:00:31  5-MIN KMKG 122100Z 02005KT 10SM BKN039 14/02 A2997 580 43 600 030/05 RMK AO2
14840KMKG MKG20060312160509503/12/06 16:05:31  5-MIN KMKG 122105Z 04006KT 10SM BKN039 14/02 A2998 580 43 600 040/06 RMK AO2
14840KMKG MKG20060312161009503/12/06 16:10:31  5-MIN KMKG 122110Z 05006KT 10SM BKN039 14/02 A2998 580 43 600 060/06 RMK AO2
14840KMKG MKG20060312161509503/12/06 16:15:31  5-MIN KMKG 122115Z 05005KT 10SM SCT039 14/02 A2998 580 43 600 060/05 RMK AO2
14840KMKG MKG20060312162009503/12/06 16:20:31  5-MIN KMKG 122120Z 03005KT 10SM SCT039 14/02 A2998 580 43 600 040/05 RMK AO2
14840KMKG MKG20060312162509503/12/06 16:25:31  5-MIN KMKG 122125Z 04006KT 10SM FEW039 14/02 A2997 590 43 600 040/06 RMK AO2
14840KMKG MKG20060312163009503/12/06 16:30:31  5-MIN KMKG 122130Z 06008KT 10SM FEW039 14/02 A2996 590 45 600 060/08 RMK AO2
14840KMKG MKG20060312163509203/12/06 16:35:31  5-MIN KMKG 122135Z 04008KT 10SM CLR 14/02 A2996 590 43 600 050/08 RMK AO2
14840KMKG MKG20060312164009903/12/06 16:40:31  5-MIN KMKG 122140Z 07009KT 10SM CLR 14/02 A2995 600 43 600 070/09 RMK AO2 PRESFR
14840KMKG MKG20060312164509503/12/06 16:45:31  5-MIN KMKG 122145Z 06008KT 10SM FEW043 14/01 A2995 600 41 600 070/08 RMK AO2
14840KMKG MKG20060312165011203/12/06 16:50:31  5-MIN KMKG 122150Z 06009KT 10SM SCT041 13/01 A2995 600 43 600 070/09 RMK AO2 SLP143 T01330011
14840KMKG MKG20060312165511203/12/06 16:55:31  5-MIN KMKG 122155Z 06009KT 10SM BKN041 13/01 A2994 610 43 600 070/09 RMK AO2 SLP141 T01330011
14840KMKG MKG20060312170009503/12/06 17:00:31  5-MIN KMKG 122200Z 06009KT 10SM BKN041 13/01 A2994 610 43 600 060/09 RMK AO2
14840KMKG MKG20060312170509503/12/06 17:05:31  5-MIN KMKG 122205Z 07011KT 10SM BKN043 13/01 A2993 620 43 600 070/11 RMK AO2
14840KMKG MKG20060312171009503/12/06 17:10:31  5-MIN KMKG 122210Z 06010KT 10SM OVC043 13/01 A2993 620 43 600 060/10 RMK AO2
14840KMKG MKG20060312171509503/12/06 17:15:31  5-MIN KMKG 122215Z 07010KT 10SM OVC040 13/02 A2993 620 45 600 080/10 RMK AO2
14840KMKG MKG20060312172010203/12/06 17:20:31  5-MIN KMKG 122220Z 08010KT 10SM BKN038 OVC046 13/01 A2992 630 43 600 080/10 RMK AO2
14840KMKG MKG20060312172510203/12/06 17:25:31  5-MIN KMKG 122225Z 07011KT 10SM BKN038 OVC045 13/02 A2992 630 45 600 080/11 RMK AO2
14840KMKG MKG20060312173010203/12/06 17:30:31  5-MIN KMKG 122230Z 07009KT 10SM BKN038 OVC047 13/01 A2992 630 43 600 070/09 RMK AO2
14840KMKG MKG20060312173510203/12/06 17:35:31  5-MIN KMKG 122235Z 06009KT 10SM BKN038 OVC049 13/02 A2992 630 45 600 070/09 RMK AO2
14840KMKG MKG20060312174010203/12/06 17:40:31  5-MIN KMKG 122240Z 06007KT 10SM BKN038 BKN049 13/02 A2992 630 46 600 060/07 RMK AO2
14840KMKG MKG20060312174510203/12/06 17:45:31  5-MIN KMKG 122245Z 07009KT 10SM SCT038 BKN049 13/02 A2992 630 46 600 070/09 RMK AO2
14840KMKG MKG20060312175011903/12/06 17:50:31  5-MIN KMKG 122250Z 07009KT 10SM FEW038 BKN049 13/02 A2992 630 46 500 070/09 RMK AO2 SLP136 T01280017
14840KMKG MKG20060312175511903/12/06 17:55:31  5-MIN KMKG 122255Z 07010KT 10SM FEW038 SCT049 12/01 A2993 630 46 500 070/10 RMK AO2 SLP136 T01220011
14840KMKG MKG20060312180009503/12/06 18:00:31  5-MIN KMKG 122300Z 07011KT 10SM FEW049 12/01 A2993 620 46 500 070/11 RMK AO2
14840KMKG MKG20060312180510203/12/06 18:05:31  5-MIN KMKG 122305Z 07011KT 10SM FEW041 SCT049 12/01 A2993 630 46 500 080/11 RMK AO2
14840KMKG MKG20060312181010203/12/06 18:10:31  5-MIN KMKG 122310Z 07011KT 10SM FEW041 SCT049 12/01 A2993 630 46 500 080/11 RMK AO2
14840KMKG MKG20060312181510203/12/06 18:15:31  5-MIN KMKG 122315Z 07011KT 10SM FEW039 BKN049 12/02 A2992 630 48 500 070/11 RMK AO2
14840KMKG MKG20060312182010203/12/06 18:20:31  5-MIN KMKG 122320Z 07011KT 10SM FEW039 BKN049 12/01 A2991 640 46 500 080/11 RMK AO2
14840KMKG MKG20060312182510903/12/06 18:25:31  5-MIN KMKG 122325Z 07011KT 10SM FEW039 BKN049 12/02 A2991 640 48 500 070/11 RMK AO2 PRESFR
14840KMKG MKG20060312183010203/12/06 18:30:31  5-MIN KMKG 122330Z 07013KT 10SM FEW039 OVC049 12/02 A2990 650 48 500 070/13 RMK AO2
14840KMKG MKG20060312183509503/12/06 18:35:31  5-MIN KMKG 122335Z 07011KT 10SM OVC049 12/02 A2990 650 48 500 070/11 RMK AO2
14840KMKG MKG20060312184009503/12/06 18:40:31  5-MIN KMKG 122340Z 06013KT 10SM OVC049 12/02 A2989 660 50 500 070/13 RMK AO2
14840KMKG MKG20060312184509503/12/06 18:45:31  5-MIN KMKG 122345Z 06013KT 10SM BKN049 12/02 A2989 660 50 500 070/13 RMK AO2
14840KMKG MKG20060312185013003/12/06 18:50:31  5-MIN KMKG 122350Z 07013KT 10SM BKN049 12/02 A2989 660 50 500 070/13 RMK AO2 SLP123 T01170017 10150 20117 55011
14840KMKG MKG20060312185513003/12/06 18:55:31  5-MIN KMKG 122355Z 07013KT 10SM BKN047 12/02 A2988 670 50 500 070/13 RMK AO2 SLP121 T01170017 10150 20117 58030
14840KMKG MKG20060312190009503/12/06 19:00:31  5-MIN KMKG 130000Z 07011KT 10SM SCT047 12/02 A2988 660 50 500 070/11 RMK AO2
14840KMKG MKG20060312190509503/12/06 19:05:31  5-MIN KMKG 130005Z 07010KT 10SM FEW047 12/02 A2989 660 50 500 070/10 RMK AO2
14840KMKG MKG20060312191009503/12/06 19:10:31  5-MIN KMKG 130010Z 07009KT 10SM FEW047 11/02 A2988 660 52 400 070/09 RMK AO2
14840KMKG MKG20060312191509203/12/06 19:15:31  5-MIN KMKG 130015Z 07010KT 10SM CLR 11/02 A2988 670 52 400 080/10 RMK AO2
14840KMKG MKG20060312192009203/12/06 19:20:31  5-MIN KMKG 130020Z 07010KT 10SM CLR 11/02 A2988 670 52 400 070/10 RMK AO2
14840KMKG MKG20060312192509203/12/06 19:25:31  5-MIN KMKG 130025Z 07012KT 10SM CLR 11/02 A2988 670 52 400 080/12 RMK AO2
14840KMKG MKG20060312193009203/12/06 19:30:31  5-MIN KMKG 130030Z 07012KT 10SM CLR 11/02 A2988 670 52 400 070/12 RMK AO2
14840KMKG MKG20060312193509203/12/06 19:35:31  5-MIN KMKG 130035Z 07010KT 10SM CLR 11/02 A2988 660 52 400 070/10 RMK AO2
14840KMKG MKG20060312194009203/12/06 19:40:31  5-MIN KMKG 130040Z 07011KT 10SM CLR 11/02 A2988 670 52 400 070/11 RMK AO2
14840KMKG MKG20060312194509203/12/06 19:45:31  5-MIN KMKG 130045Z 08009KT 10SM CLR 11/02 A2988 670 52 400 080/09 RMK AO2
14840KMKG MKG20060312195011203/12/06 19:50:31  5-MIN KMKG 130050Z 08009KT 10SM FEW055 11/02 A2988 670 52 400 080/09 RMK AO2 SLP119 T01110017
14840KMKG MKG20060312195511203/12/06 19:55:31  5-MIN KMKG 130055Z 07010KT 10SM SCT055 11/02 A2987 680 54 400 080/10 RMK AO2 SLP117 T01060017
14840KMKG MKG20060312200010203/12/06 20:00:31  5-MIN KMKG 130100Z 08011KT 10SM SCT055 11/02 A2986 690 54 400 080/11 RMK AO2 PRESFR
14840KMKG MKG20060312200509503/12/06 20:05:31  5-MIN KMKG 130105Z 08009KT 10SM SCT055 11/02 A2986 690 56 400 090/09 RMK AO2
14840KMKG MKG20060312201009503/12/06 20:10:31  5-MIN KMKG 130110Z 08011KT 10SM BKN055 11/02 A2986 690 56 400 080/11 RMK AO2
14840KMKG MKG20060312201509503/12/06 20:15:31  5-MIN KMKG 130115Z 09012KT 10SM BKN055 11/03 A2985 700 58 400 090/12 RMK AO2
14840KMKG MKG20060312202009503/12/06 20:20:31  5-MIN KMKG 130120Z 10010KT 10SM SCT055 11/03 A2986 680 58 400 100/10 RMK AO2
14840KMKG MKG20060312202509503/12/06 20:25:31  5-MIN KMKG 130125Z 09010KT 10SM BKN055 11/03 A2986 690 56 400 090/10 RMK AO2
14840KMKG MKG20060312203010203/12/06 20:30:31  5-MIN KMKG 130130Z 08011KT 10SM BKN055 BKN110 11/03 A2985 700 58 400 090/11 RMK AO2
14840KMKG MKG20060312203510203/12/06 20:35:31  5-MIN KMKG 130135Z 09014KT 10SM BKN055 BKN110 11/03 A2984 700 58 400 100/14 RMK AO2
14840KMKG MKG20060312204010903/12/06 20:40:31  5-MIN KMKG 130140Z 09014KT 10SM BKN055 BKN110 11/03 A2983 710 61 400 100/14 RMK AO2 PRESFR
14840KMKG MKG20060312204510903/12/06 20:45:31  5-MIN KMKG 130145Z 10013KT 10SM FEW023 BKN055 BKN110 11/03 A2983 710 61 400 100/13 RMK AO2
14840KMKG MKG20060312205013203/12/06 20:50:31  5-MIN KMKG 130150Z 10011G18KT 10SM FEW023 BKN060 OVC110 11/03 A2984 710 61 400 110/11G18 RMK AO2 SLP106 T01060033
14840KMKG MKG20060312205511903/12/06 20:55:31  5-MIN KMKG 130155Z 10010KT 10SM BKN060 BKN110 11/04 A2984 700 63 400 100/10 RMK AO2 SLP108 T01060039
14840KMKG MKG20060312210010903/12/06 21:00:31  5-MIN KMKG 130200Z 11014KT 10SM FEW025 BKN060 OVC110 11/04 A2983 710 63 400 110/14 RMK AO2
14840KMKG MKG20060312210510903/12/06 21:05:31  5-MIN KMKG 130205Z 10013KT 10SM FEW025 OVC055 11/04 A2981 730 63 400 100/13 RMK AO2 PRESFR
14840KMKG MKG20060312211013103/12/06 21:10:31  5-MIN KMKG 130210Z 09012KT 9SM -RA FEW025 SCT040 OVC055 11/05 A2980 740 68 400 100/12 RMK AO2 RAB08 PRESFR P0000
14840KMKG MKG20060312211512403/12/06 21:15:31  5-MIN KMKG 130215Z 09011KT 8SM -RA FEW020 BKN040 OVC120 10/06 A2981 730 74 400 090/11 RMK AO2 RAB08 P0000
14840KMKG MKG20060312212012403/12/06 21:20:31  5-MIN KMKG 130220Z 06012KT 9SM -RA SCT017 BKN040 OVC120 10/06 A2981 740 74 400 070/12 RMK AO2 RAB08 P0000
14840KMKG MKG20060312212513503/12/06 21:25:31  5-MIN KMKG 130225Z 08010KT 9SM -RA BKN019 BKN040 OVC055 10/06 A2981 730 74 300 080/10 RMK AO2 RAB08 LTG DSNT W P0000
14840KMKG MKG20060312213013103/12/06 21:30:31  5-MIN KMKG 130230Z 09012KT 10SM BKN019 BKN040 OVC120 10/06 A2983 720 77 300 090/12 RMK AO2 RAB08E28 PRESRR P0000
14840KMKG MKG20060312213511603/12/06 21:35:31  5-MIN KMKG 130235Z 09011KT 9SM BKN019 OVC037 11/06 A2983 720 74 400 100/11 RMK AO2 RAB08E28 P0000
14840KMKG MKG20060312214010903/12/06 21:40:31  5-MIN KMKG 130240Z 09012KT 9SM OVC019 11/06 A2982 720 74 400 100/12 RMK AO2 RAB08E28 P0000
14840KMKG MKG20060312214512203/12/06 21:45:31  5-MIN KMKG 130245Z 10012G19KT 8SM BKN019 OVC085 11/06 A2982 720 74 400 110/12G19 RMK AO2 RAB08E28 P0000
14840KMKG MKG20060312215017503/12/06 21:50:31  5-MIN KMKG 130250Z 09016KT 7SM -TSRA BKN019 BKN040 OVC090 11/07 A2980 740 77 400 100/16 RMK AO2 TSB50RAB08E28B50 PRESFR OCNL LTGICCG TSB50 S-SW MOV NE P0000
14840KMKG MKG20060312215519203/12/06 21:55:31  5-MIN KMKG 130255Z 10013KT 6SM -TSRA BKN019 BKN043 OVC055 10/07 A2981 730 80 300 100/13 RMK AO2 SLP097 OCNL LTGICCG RAB08E28B52 TSB50 S-SW MOV NE P0000 60000 T01000067 58024
14840KMKG MKG20060312220014803/12/06 22:00:31  5-MIN KMKG 130300Z 11012KT 6SM -TSRA SCT019 BKN033 OVC070 10/07 A2982 720 83 300 120/12 RMK AO2 OCNL LTGICCG TS S-SW MOV NE P0001
14840KMKG MKG20060312220514803/12/06 22:05:31  5-MIN KMKG 130305Z 10014KT 5SM -TSRA FEW019 BKN038 OVC065 10/07 A2980 740 83 400 100/14 RMK AO2 OCNL LTGICCG TS S-SW MOV NE P0001
14840KMKG MKG20060312221015703/12/06 22:10:31  5-MIN KMKG 130310Z 10011G20KT 5SM -TSRA BR FEW019 BKN028 OVC060 10/08 A2980 740 86 400 100/11G20 RMK AO2 OCNL LTGICCG TS S-SW MOV NE P0002
14840KMKG MKG20060312221515603/12/06 22:15:31  5-MIN KMKG 130315Z 11011G20KT 4SM TSRA BR FEW017 BKN024 OVC055 10/08 A2980 740 86 400 110/11G20 RMK AO2 OCNL LTGICCG TS S-NW MOV NE P0003
14840KMKG MKG20060312222015003/12/06 22:20:31  5-MIN KMKG 130320Z 09013KT 3SM TSRA BR SCT017 BKN029 OVC060 10/08 A2980 740 86 400 090/13 RMK AO2 OCNL LTGICCG TS S-NW MOV NE P0005
14840KMKG MKG20060312222515103/12/06 22:25:31  5-MIN KMKG 130325Z 09014KT 3SM +TSRA BR SCT015 BKN021 OVC029 09/08 A2979 750 93 300 090/14 RMK AO2 OCNL LTGICCG TS S-NW MOV NE P0007
14840KMKG MKG20060312223014303/12/06 22:30:31  5-MIN KMKG 130330Z 08014KT 3SM TSRA BR BKN015 OVC029 09/08 A2978 760 93 300 090/14 RMK AO2 OCNL LTGICCG TS S-NW MOV NE P0010
14840KMKG MKG20060312223515003/12/06 22:35:31  5-MIN KMKG 130335Z 09015KT 3SM TSRA BR BKN013 OVC029 09/08 A2978 760 89 300 090/15 RMK AO2 PRESFR OCNL LTGICCG TS S-NW MOV NE P0011
14840KMKG MKG20060312224015603/12/06 22:40:31  5-MIN KMKG 130340Z 09016G22KT 3SM TSRA BR SCT010 BKN016 OVC029 09/08 A2977 770 93 300 090/16G22 RMK AO2 OCNL LTGICCG TS S-NW MOV NE P0014
14840KMKG MKG20060312224516303/12/06 22:45:31  5-MIN KMKG 130345Z 09016G22KT 3SM TSRA BR BKN010 BKN016 OVC029 09/08 A2977 770 93 300 090/16G22 RMK AO2 PRESFR OCNL LTGICCG TS S-NW MOV NE P0016
14840KMKG MKG20060312225016703/12/06 22:50:31  5-MIN KMKG 130350Z 09017KT 3SM TSRA BR BKN010 BKN014 OVC029 09/08 A2976 780 89 300 100/17 RMK AO2 SLP079 OCNL LTGICCG TS S-NW MOV NE P0019 T00940078
14840KMKG MKG20060312225516003/12/06 22:55:31  5-MIN KMKG 130355Z 10016KT 3SM TSRA BR BKN010 OVC029 09/08 A2975 790 89 400 100/16 RMK AO2 OCNL LTGICCG TS S-NW MOV NE SLP079 P0021 T00940078
14840KMKG MKG20060312230013603/12/06 23:00:31  5-MIN KMKG 130400Z 10017KT 3SM TSRA BR OVC010 09/08 A2975 790 93 300 100/17 RMK AO2 OCNL LTGICCG TS S-SW MOV NE P0003
14840KMKG MKG20060312230513603/12/06 23:05:31  5-MIN KMKG 130405Z 10016KT 3SM TSRA BR OVC010 09/08 A2974 800 93 300 100/16 RMK AO2 OCNL LTGICCG TS S-SW MOV NE P0006
14840KMKG MKG20060312231014903/12/06 23:10:31  5-MIN KMKG 130410Z 09017G22KT 3SM TSRA BR OVC010 09/08 A2973 810 93 300 100/17G22 RMK AO2 PRESFR OCNL LTGICCG TS S-SW MOV NE P0007
14840KMKG MKG20060312231515403/12/06 23:15:31  5-MIN KMKG 130415Z 09019G23KT 2 1/2SM +TSRA BR OVC010 09/08 A2973 810 93 300 090/19G23 RMK AO2 OCNL LTGICCG TS S-SW MOV NE PRESFR P0011
14840KMKG MKG20060312232015503/12/06 23:20:31  5-MIN KMKG 130420Z 08017G23KT 2 1/2SM +TSRA BR OVC010 09/08 A2972 810 93 300 090/17G23 RMK AO2 OCNL LTGICCG TS SE-SW MOV NE PRESFR P0013
14840KMKG MKG20060312232516803/12/06 23:25:31  5-MIN KMKG 130425Z 09019G27KT 3SM TSRA BR OVC010 09/08 A2972 820 93 300 100/19G27 RMK AO2 PK WND 10027/0424 OCNL LTGICCG TS SE-SW MOV NE PRESFR P0016
14840KMKG MKG20060312233016103/12/06 23:30:31  5-MIN KMKG 130430Z 10018G27KT 3SM TSRA BR OVC010 09/08 A2971 820 93 300 110/18G27 RMK AO2 PK WND 10027/0424 OCNL LTGICCG TS SE-SW MOV NE P0017
14840KMKG MKG20060312233516103/12/06 23:35:31  5-MIN KMKG 130435Z 10016G23KT 3SM TSRA BR OVC010 09/07 A2971 820 89 300 100/16G23 RMK AO2 PK WND 10027/0424 OCNL LTGICCG TS SE-SW MOV NE P0018
14840KMKG MKG20060312234016503/12/06 23:40:31  5-MIN KMKG 130440Z 11021G25KT 2 1/2SM TSRA BR OVC010 08/07 A2971 830 93 300 110/21G25 RMK AO2 PK WND 10027/0424 OCNL LTGICCG TS SE-SW MOV NE P0021
14840KMKG MKG20060312234516203/12/06 23:45:31  5-MIN KMKG 130445Z 12023G29KT 2SM +TSRA BR OVC010 08/07 A2970 840 93 300 120/23G29 RMK AO2 PK WND 12029/0444 OCNL LTGICCG TS SE-SW MOV NE P0024
14840KMKG MKG20060312235019503/12/06 23:50:31  5-MIN KMKG 130450Z 11025G31KT 2SM TSRA BR OVC010 08/07 A2968 860 93 200 110/25G31 RMK AO2 PK WND 11031/0449 PRESFR SLP051 OCNL LTGICCG TS SE-SW MOV NE P0025 T00780067 401500061
14840KMKG MKG20060312235519203/12/06 23:55:31  5-MIN KMKG 130455Z 12021G31KT 2 1/2SM TSRA BR OVC010 08/07 A2969 840 89 300 120/21G31 RMK AO2 PK WND 11031/0449 SLP056 OCNL LTGICCG TS SE-SW MOV NE P0028 T00830067 401500061
14840KMKG MKG20060313000014903/13/06 00:00:32  5-MIN KMKG 130500Z 10018G30KT 3SM TSRA BR OVC010 08/07 A2966 870 93 300 100/18G30 RMK AO2 PRESFR OCNL LTGICCG TS SW MOV NE P0001 $
14840KMKG MKG20060313000514903/13/06 00:05:31  5-MIN KMKG 130505Z 09017G23KT 3SM TSRA BR SCT007 OVC010 08/07 A2966 870 93 300 100/17G23 RMK AO2 OCNL LTGICCG TS SW MOV NE P0002 $
14840KMKG MKG20060313001016003/13/06 00:10:31  5-MIN KMKG 130510Z 09018G26KT 3SM TSRA BR OVC007 08/07 A2966 870 93 300 090/18G26 RMK AO2 PK WND 10026/0507 OCNL LTGICCG TS SW MOV NE P0003 $
14840KMKG MKG20060313001516703/13/06 00:15:31  5-MIN KMKG 130515Z 11014G26KT 4SM TSRA BR BKN007 OVC011 08/07 A2967 870 93 200 110/14G26 RMK AO2 PK WND 10026/0507 OCNL LTGICCG TS SW MOV NE P0005 $
14840KMKG MKG20060313002016803/13/06 00:20:31  5-MIN KMKG 130520Z 11019G25KT 4SM -TSRA BR BKN007 BKN011 07/06 A2968 860 93 200 110/19G25 RMK AO2 PK WND 10026/0507 OCNL LTGICCG TS SW MOV NE P0006 $
14840KMKG MKG20060313002516703/13/06 00:25:31  5-MIN KMKG 130525Z 10018G25KT 4SM TSRA BR BKN007 OVC014 07/06 A2966 870 93 200 110/18G25 RMK AO2 PK WND 10026/0507 OCNL LTGICCG TS SW MOV NE P0007 $
14840KMKG MKG20060313003016103/13/06 00:30:31  5-MIN KMKG 130530Z 09019KT 3SM TSRA BR BKN007 OVC012 07/06 A2966 880 93 200 090/19 RMK AO2 PK WND 10026/0507 OCNL LTGICCG TS SW MOV NE P0009 $
14840KMKG MKG20060313003516603/13/06 00:35:31  5-MIN KMKG 130535Z 13016G23KT 3SM TSRA BR BKN007 OVC012 07/06 A2972 820 93 100 130/16G23 RMK AO2 PK WND 10026/0507 FRQ LTGICCG TS SW MOV NE P0012 $
14840KMKG MKG20060313004018003/13/06 00:40:31  5-MIN KMKG 130540Z 09016G24KT 1 3/4SM +TSRA BR FEW002 BKN007 OVC012 07/06 A2968 860 96 100 090/16G24 RMK AO2 PK WND 10026/0507 CONS LTGICCG TS OHD MOV NE P0016 $
14840KMKG MKG20060313004518003/13/06 00:45:31  5-MIN KMKG 130545Z 10015G24KT 1 1/4SM +TSRA BR FEW002 BKN007 OVC012 07/06 A2968 860 96 100 100/15G24 RMK AO2 PK WND 10026/0507 CONS LTGICCG TS OHD MOV NE P0041 $
14840KMKG MKG20060313005016703/13/06 00:50:31  5-MIN KMKG 130550Z 10020KT 1SM +TSRA BR BKN002 BKN007 OVC012 06/06 A2966 870 96 0 110/20 RMK AO2 PK WND 10026/0507 FRQ LTGICCG TS OHD MOV NE P0068 $
14840KMKG MKG20060313005519403/13/06 00:55:31  5-MIN KMKG 130555Z 11020KT 1SM +TSRA BR OVC006 06/06 A2966 870 96 0 120/20 RMK AO2 PK WND 10026/0507 SLP047 FRQ LTGICCG TS OHD MOV NE P0076 60125 T00610056 10117 20061 56048 $
14840KMKG MKG20060313010014403/13/06 01:00:31  5-MIN KMKG 130600Z 12020G25KT 1 1/4SM +TSRA BR OVC006 06/06 A2967 860 96 0 120/20G25 RMK AO2 FRQ LTGICCG TS SW MOV NE P0018 $
14840KMKG MKG20060313010517103/13/06 01:05:31  5-MIN KMKG 130605Z 12022G27KT 1 1/4SM +TSRA BR SCT003 OVC006 06/06 A2966 870 96 100 120/22G27 RMK AO2 PK WND 12027/0602 FRQ LTGICCG TS SW MOV NE P0029 $
14840KMKG MKG20060313011017203/13/06 01:10:31  5-MIN KMKG 130610Z 11021G29KT 1 1/4SM +TSRA BR SCT003 OVC008 06/06 A2964 890 96 100 110/21G29 RMK AO2 PK WND 11029/0608 OCNL LTGICCG TS SW MOV NE P0041 $
14840KMKG MKG20060313011517203/13/06 01:15:31  5-MIN KMKG 130615Z 10023G29KT 1 3/4SM +TSRA BR FEW003 OVC008 06/06 A2964 890 96 100 100/23G29 RMK AO2 PK WND 10029/0615 OCNL LTGICCG TS SW MOV NE P0056 $
14840KMKG MKG20060313012019403/13/06 01:20:31  5-MIN KMKG 130620Z 08019G29KT 3SM TSRA BR FEW003 BKN010 OVC050 06/06 A2963 900 96 100 090/19G29 RMK AO2 PK WND 10029/0615 VIS 2 RWY 14 PRESFR OCNL LTGICCG TS SW MOV NE P0056 $
14840KMKG MKG20060313012518103/13/06 01:25:31  5-MIN KMKG 130625Z 10018G28KT 4SM TSRA BR FEW003 BKN012 OVC050 06/06 A2961 920 96 100 100/18G28 RMK AO2 PK WND 10029/0615 PRESFR OCNL LTGICCG TS SW MOV NE P0059 $
14840KMKG MKG20060313013017503/13/06 01:30:31  5-MIN KMKG 130630Z 12020G23KT 3SM +TSRA BR FEW003 BKN014 OVC050 06/06 A2962 910 96 100 120/20G23 RMK AO2 PK WND 10029/0615 OCNL LTGICCG TS SW MOV NE P0061 $
14840KMKG MKG20060313013517403/13/06 01:35:31  5-MIN KMKG 130635Z 11013G23KT 2SM +TSRA BR BKN012 BKN037 OVC050 06/06 A2962 910 96 100 110/13G23 RMK AO2 PK WND 10029/0615 FRQ LTGICCG TS SW MOV NE P0074 $
14840KMKG MKG20060313014019503/13/06 01:40:31  5-MIN KMKG 130640Z 12029G34KT 2 1/2SM -TSRA BR SCT012 BKN028 OVC050 06/06 A2962 910 96 100 120/29G34 RMK AO2 PK WND 11034/0639 VIS 1 3/4 RWY 14 FRQ LTGICCG TS SW MOV NE P0076 $
14840KMKG MKG20060313014517403/13/06 01:45:31  5-MIN KMKG 130645Z 10028G35KT 5SM -TSRA BR FEW014 BKN028 OVC050 06/06 A2962 910 96 100 100/28G35 RMK AO2 PK WND 10035/0642 FRQ LTGICCG TS SW MOV NE P0076 $
14840KMKG MKG20060313015019103/13/06 01:50:31  5-MIN KMKG 130650Z 09025G35KT 6SM -TSRA BR FEW014 BKN026 OVC035 06/06 A2961 920 96 100 100/25G35 RMK AO2 PK WND 10035/0642 SLP028 FRQ LTGICCG TS SW MOV NE P0080 T00610056 $
14840KMKG MKG20060313015519103/13/06 01:55:31  5-MIN KMKG 130655Z 09024G32KT 6SM -TSRA BR FEW010 BKN024 OVC035 06/06 A2963 900 96 100 090/24G32 RMK AO2 PK WND 10035/0642 SLP036 FRQ LTGICCG TS SW MOV NE P0080 T00610056 $
14840KMKG MKG20060313020017603/13/06 02:00:31  5-MIN KMKG 130700Z 35019G32KT 5SM TSRA BKN021 BKN026 OVC034 06/03 A2973 800 82 0 350/19G32 RMK AO2 PK WND 09027/0656 PRESRR OCNL LTGICCG TS SW MOV NE P0001 $
14840KMKG MKG20060313020518703/13/06 02:05:31  5-MIN KMKG 130705Z 04022G34KT 4SM TSRA FEW014 BKN023 OVC028 06/03 A2978 760 82 0 040/22G34 RMK AO2 PK WND 01034/0703 WSHFT 0647 PRESRR OCNL LTGICCG TS SW MOV NE P0001 $
14840KMKG MKG20060313021018003/13/06 02:10:31  5-MIN KMKG 130710Z 10024G34KT 2SM +TSRA FEW004 SCT014 OVC023 06/03 A2971 820 82 0 100/24G34 RMK AO2 PK WND 01034/0703 WSHFT 0647 FRQ LTGICCG TS SW MOV NE P0012 $
14840KMKG MKG20060313021518503/13/06 02:15:31  5-MIN KMKG 130715Z 09027G33KT 1 1/2SM +TSRA BKN004 BKN014 OVC021 06/03 A2969 840 82 0 090/27G33 RMK AO2 PK WND 01034/0703 WSHFT 0647 OCNL LTGICCG TS SW MOV NE P0027 $
14840KMKG MKG20060313022019103/13/06 02:20:31  5-MIN KMKG 130720Z 10024G33KT 1 1/4SM +TSRA BR BKN004 BKN014 OVC021 04/03 A2967 860 92 -100 100/24G33 RMK AO2 PK WND 01034/0703 WSHFT 0647 OCNL LTGICCG TS SW MOV NE P0041 $
14840KMKG MKG20060313022519103/13/06 02:25:31  5-MIN KMKG 130725Z 10023G31KT 1 1/4SM +TSRA BR BKN004 BKN014 OVC021 04/03 A2965 890 92 -100 100/23G31 RMK AO2 PK WND 01034/0703 WSHFT 0647 OCNL LTGICCG TS SW MOV NE P0057 $
14840KMKG MKG20060313023018403/13/06 02:30:31  5-MIN KMKG 130730Z 10023G29KT 1 1/4SM +TSRA BR FEW002 OVC006 04/03 A2964 890 92 -100 100/23G29 RMK AO2 PK WND 01034/0703 WSHFT 0647 OCNL LTGICCG TS SW MOV NE P0071 $
14840KMKG MKG20060313023517703/13/06 02:35:31  5-MIN KMKG 130735Z 10019G28KT 1 3/4SM +TSRA BR OVC006 04/03 A2963 900 92 -100 100/19G28 RMK AO2 PK WND 01034/0703 WSHFT 0647 OCNL LTGICCG TS SW MOV NE P0080 $
14840KMKG MKG20060313024019403/13/06 02:40:31  5-MIN KMKG 130740Z 09020G27KT 2 1/2SM +TSRA BR OVC008 04/03 A2962 900 92 -100 100/20G27 RMK AO2 PK WND 01034/0703 WSHFT 0647 VIS 1 3/4 RWY 14 OCNL LTGICCG TS SW MOV NE P0085 $
14840KMKG MKG20060313024518003/13/06 02:45:31  5-MIN KMKG 130745Z 10015G25KT 3SM +TSRA BR BKN010 OVC038 04/03 A2963 900 92 -100 110/15G25 RMK AO2 PK WND 01034/0703 WSHFT 0647 OCNL LTGICCG TS SW MOV NE P0089 $
14840KMKG MKG20060313025019503/13/06 02:50:31  5-MIN KMKG 130750Z 11017KT 2 1/2SM +TSRA BR BKN010 OVC035 04/03 A2963 900 92 -100 120/17 RMK AO2 PK WND 01034/0703 WSHFT 0647 SLP037 OCNL LTGICCG TS SW MOV NE P0094 T00440033 $
14840KMKG MKG20060313025521003/13/06 02:55:31  5-MIN KMKG 130755Z 11017KT 2 1/2SM +TSRA BR SCT010 OVC035 04/03 A2962 910 92 -100 110/17 RMK AO2 PK WND 01034/0703 WSHFT 0647 CIG 018 RWY 14 SLP032 OCNL LTGICCG TS SW MOV NE P0098 T00440033 $
14840KMKG MKG20060313030016403/13/06 03:00:31  5-MIN KMKG 130800Z 11017KT 3SM +TSRA BR SCT014 BKN035 OVC044 05/04 A2962 910 92 0 110/17 RMK AO2 CIG 018 RWY 14 OCNL LTGICCG TS SW MOV NE P0004 $
14840KMKG MKG20060313030516303/13/06 03:05:31  5-MIN KMKG 130805Z 10013KT 4SM TSRA BR SCT014 BKN035 OVC044 05/04 A2962 910 92 0 110/13 RMK AO2 CIG 020 RWY 14 OCNL LTGICCG TS SW MOV NE P0007 $
14840KMKG MKG20060313031017703/13/06 03:10:31  5-MIN KMKG 130810Z 09016G21KT 4SM +TSRA BR SCT014 BKN035 OVC044 05/04 A2960 930 92 0 100/16G21 RMK AO2 CIG 022 RWY 14 PRESFR OCNL LTGICCG TS SW MOV NE P0009 $
14840KMKG MKG20060313031518703/13/06 03:15:31  5-MIN KMKG 130815Z 10020G24KT 3SM +TSRA BR SCT014 BKN029 OVC043 05/04 A2961 920 92 0 100/20G24 RMK AO2 VIS 2 1/2 RWY 14 CIG 022 RWY 14 OCNL LTGICCG TS SW MOV NE P0014 $
14840KMKG MKG20060313032015403/13/06 03:20:31  5-MIN KMKG 130820Z 10014G24KT 4SM TSRA BR BKN014 BKN033 OVC043 05/03 A2962 910 89 0 100/14G24 RMK AO2 OCNL LTGICCG TS SW MOV NE P0016 $
14840KMKG MKG20060313032514503/13/06 03:25:31  5-MIN KMKG 130825Z 11013KT 4SM +TSRA BR BKN014 OVC033 04/03 A2964 890 92 -100 120/13 RMK AO2 OCNL LTGICCG TS SW MOV NE P0019 $
14840KMKG MKG20060313033015103/13/06 03:30:31  5-MIN KMKG 130830Z 10017G21KT 3SM +TSRA BR SCT014 OVC033 04/03 A2964 890 92 -100 110/17G21 RMK AO2 OCNL LTGICCG TS SW MOV NE P0022 $
14840KMKG MKG20060313033514403/13/06 03:35:31  5-MIN KMKG 130835Z 09018KT 3SM TSRA BR SCT014 OVC035 04/03 A2963 900 92 -100 090/18 RMK AO2 OCNL LTGICCG TS SW MOV NE P0026 $
14840KMKG MKG20060313034016703/13/06 03:40:31  5-MIN KMKG 130840Z 08019G23KT 3SM TSRA BR SCT014 OVC035 04/02 A2962 900 89 -100 090/19G23 RMK AO2 VIS 2 1/2 RWY 14 OCNL LTGICCG TS SW MOV NE P0028 $
14840KMKG MKG20060313034515803/13/06 03:45:31  5-MIN KMKG 130845Z 09017G23KT 5SM -TSRA BR SCT018 OVC037 03/02 A2961 920 92 -200 090/17G23 RMK AO2 PRESFR OCNL LTGICCG TS SW MOV NE P0029 $
14840KMKG MKG20060313035020503/13/06 03:50:31  5-MIN KMKG 130850Z 10019G26KT 6SM -TSRA BR SCT024 OVC037 03/02 A2959 940 92 -200 100/19G26 RMK AO2 PK WND 08026/0848 PRESFR SLP022 OCNL LTGICCG TS SW MOV NE P0030 60208 T00330022 56048 $
14840KMKG MKG20060313035518003/13/06 03:55:31  5-MIN KMKG 130855Z 09019G26KT 8SM -RA FEW008 BKN024 OVC037 03/02 A2959 940 92 -200 090/19G26 RMK AO2 PK WND 08026/0848 TSE53 SLP022 P0030 60208 T00330022 56024 $
14840KMKG MKG20060313040012703/13/06 04:00:31  5-MIN KMKG 130900Z 10018G23KT 9SM -RA SCT008 BKN022 OVC037 03/02 A2958 940 92 -200 110/18G23 RMK AO2 P0000 $
14840KMKG MKG20060313040512803/13/06 04:05:31  5-MIN KMKG 130905Z 09020G25KT 10SM -RA FEW008 BKN022 BKN040 03/02 A2957 950 92 -100 100/20G25 RMK AO2 P0000 $
14840KMKG MKG20060313041013503/13/06 04:10:31  5-MIN KMKG 130910Z 09018G25KT 10SM -RA FEW008 BKN024 BKN038 03/02 A2956 970 92 -200 100/18G25 RMK AO2 PRESFR P0000 $
14840KMKG MKG20060313041513003/13/06 04:15:31  5-MIN KMKG 130915Z 09019G25KT 10SM FEW008 SCT024 03/02 A2955 980 92 -200 090/19G25 RMK AO2 RAE12 PRESFR P0000 $
14840KMKG MKG20060313042013003/13/06 04:20:31  5-MIN KMKG 130920Z 09016G23KT 10SM FEW008 SCT022 SCT085 03/02 A2956 970 92 -200 100/16G23 RMK AO2 RAE12 P0000 $
14840KMKG MKG20060313042513003/13/06 04:25:31  5-MIN KMKG 130925Z 10016G23KT 10SM FEW008 SCT080 BKN090 03/02 A2957 960 92 -200 110/16G23 RMK AO2 RAE12 P0000 $
14840KMKG MKG20060313043012303/13/06 04:30:31  5-MIN KMKG 130930Z 11015G18KT 10SM -RA BKN080 03/02 A2957 960 92 -200 110/15G18 RMK AO2 RAE12B30 P0000 $
14840KMKG MKG20060313043512403/13/06 04:35:31  5-MIN KMKG 130935Z 10016KT 10SM -RA BKN075 BKN085 03/02 A2956 970 92 -200 100/16 RMK AO2 RAE12B30 P0000 $
14840KMKG MKG20060313044012303/13/06 04:40:31  5-MIN KMKG 130940Z 11015KT 9SM -RA FEW047 BKN080 03/02 A2956 970 92 -200 110/15 RMK AO2 RAE12B30 P0001 $
14840KMKG MKG20060313044515403/13/06 04:45:31  5-MIN KMKG 130945Z 11016KT 5SM RA BR FEW011 BKN075 OVC090 03/02 A2953 990 92 -200 110/16 RMK AO2 RAE12B30 CIG 050 RWY 14 PRESFR P0003 $
14840KMKG MKG20060313045013103/13/06 04:50:31  5-MIN KMKG 130950Z 11019G24KT 6SM RA BR BKN026 OVC080 03/02 A2953 990 92 -200 110/19G24 RMK AO2 RAE12B30 P0004 $
14840KMKG MKG20060313045515303/13/06 04:55:31  5-MIN KMKG 130955Z 10018G24KT 9SM -RA FEW007 BKN031 OVC085 03/02 A2953 990 92 -200 100/18G24 RMK AO2 RAE12B30 SLP003 P0004 T00280017 $
14840KMKG MKG20060313050012803/13/06 05:00:31  5-MIN KMKG 131000Z 12015G23KT 10SM -RA FEW007 BKN034 OVC075 03/02 A2954 980 92 -200 120/15G23 RMK AO2 P0001 $
14840KMKG MKG20060313050512203/13/06 05:05:31  5-MIN KMKG 131005Z 11015KT 10SM -RA FEW007 BKN031 OVC095 03/02 A2954 980 92 -200 120/15 RMK AO2 P0001 $
14840KMKG MKG20060313051012303/13/06 05:10:31  5-MIN KMKG 131010Z 10014KT 10SM -RA FEW007 BKN035 OVC095 03/02 A2952 1000 96 -100 110/14 RMK AO2 P0001 $
14840KMKG MKG20060313051512303/13/06 05:15:31  5-MIN KMKG 131015Z 11013KT 10SM -RA FEW007 BKN035 OVC100 03/02 A2953 1000 92 -200 110/13 RMK AO2 P0001 $
14840KMKG MKG20060313052012803/13/06 05:20:31  5-MIN KMKG 131020Z 10011G18KT 10SM -RA FEW007 BKN037 BKN060 03/02 A2953 990 96 -200 100/11G18 RMK AO2 P0001 $
14840KMKG MKG20060313052512303/13/06 05:25:31  5-MIN KMKG 131025Z 09012KT 10SM -RA SCT007 BKN055 BKN100 03/02 A2952 1000 92 -200 100/12 RMK AO2 P0001 $
14840KMKG MKG20060313053012503/13/06 05:30:31  5-MIN KMKG 131030Z 10012KT 10SM FEW007 BKN055 BKN095 03/02 A2952 1000 92 -100 100/12 RMK AO2 RAE26 P0001 $
14840KMKG MKG20060313053512303/13/06 05:35:31  5-MIN KMKG 131035Z 09011KT 10SM -RA FEW007 SCT050 BKN095 03/02 A2952 1010 92 -100 100/11 RMK AO2 P0001 $
14840KMKG MKG20060313054012303/13/06 05:40:31  5-MIN KMKG 131040Z 10014KT 10SM -RA FEW007 SCT050 BKN090 03/02 A2951 1010 92 -100 100/14 RMK AO2 P0001 $
14840KMKG MKG20060313054511603/13/06 05:45:31  5-MIN KMKG 131045Z 11008KT 10SM -RA FEW007 OVC085 03/02 A2952 1000 92 -200 110/08 RMK AO2 P0001 $
14840KMKG MKG20060313055013903/13/06 05:50:31  5-MIN KMKG 131050Z 10013G16KT 10SM -RA FEW007 OVC080 03/02 A2952 1010 92 -100 100/13G16 RMK AO2 SLP998 P0001 T00280017 $
14840KMKG MKG20060313055513203/13/06 05:55:31  5-MIN KMKG 131055Z 11014KT 9SM -RA FEW055 OVC080 03/02 A2952 1000 96 -100 120/14 RMK AO2 SLP999 P0002 T00280022 $
14840KMKG MKG20060313060012103/13/06 06:00:31  5-MIN KMKG 131100Z 11013KT 7SM RA FEW049 BKN075 OVC090 03/02 A2952 1010 96 -100 110/13 RMK AO2 P0000 $
14840KMKG MKG20060313060512403/13/06 06:05:31  5-MIN KMKG 131105Z 10011KT 5SM RA BR SCT038 BKN065 OVC080 03/02 A2951 1020 96 -100 110/11 RMK AO2 P0001 $
14840KMKG MKG20060313061011803/13/06 06:10:31  5-MIN KMKG 131110Z 11014KT 6SM -RA BR SCT034 OVC080 03/02 A2950 1020 96 -100 110/14 RMK AO2 P0002 $
14840KMKG MKG20060313061512503/13/06 06:15:31  5-MIN KMKG 131115Z 10017G20KT 9SM -RA SCT034 OVC080 03/02 A2949 1030 92 0 100/17G20 RMK AO2 PRESFR P0002 $
14840KMKG MKG20060313062012303/13/06 06:20:31  5-MIN KMKG 131120Z 11014KT 10SM -RA FEW036 BKN070 OVC085 03/02 A2950 1030 92 -100 110/14 RMK AO2 P0002 $
14840KMKG MKG20060313062512003/13/06 06:25:31  5-MIN KMKG 131125Z 10010KT 10SM -RA FEW007 SCT036 OVC070 03/02 A2948 1040 92 0 100/10 RMK AO2 P0002 $
14840KMKG MKG20060313063012003/13/06 06:30:31  5-MIN KMKG 131130Z 09011KT 10SM -RA SCT007 BKN065 OVC080 03/02 A2949 1030 92 0 100/11 RMK AO2 P0002 $
14840KMKG MKG20060313063512203/13/06 06:35:31  5-MIN KMKG 131135Z 10010KT 10SM SCT007 BKN065 OVC080 03/02 A2949 1030 92 0 110/10 RMK AO2 RAE33 P0002 $
14840KMKG MKG20060313064011503/13/06 06:40:31  5-MIN KMKG 131140Z 10013KT 10SM SCT007 OVC070 03/02 A2949 1030 92 0 110/13 RMK AO2 RAE33 P0002 $
14840KMKG MKG20060313064513603/13/06 06:45:31  5-MIN KMKG 131145Z 10011G17KT 10SM SCT007 OVC065 03/02 A2949 1030 92 0 100/11G17 RMK AO2 RAE33 CIG 007 RWY 14 P0002 $
14840KMKG MKG20060313065012103/13/06 06:50:31  5-MIN KMKG 131150Z 11012G17KT 10SM BKN007 OVC060 03/02 A2949 1030 92 0 110/12G17 RMK AO2 RAE33 P0002 $
14840KMKG MKG20060313065517703/13/06 06:55:31  5-MIN KMKG 131155Z 11014KT 10SM SCT007 OVC060 03/02 A2948 1040 92 0 110/14 RMK AO2 RAE33 CIG 007 RWY 14 SLP987 P0002 60216 70341 T00330022 10061 20028 56017 $
14840KMKG MKG20060313070011803/13/06 07:00:31  5-MIN KMKG 131200Z 11012KT 10SM SCT007 OVC060 03/02 A2948 1040 92 0 110/12 RMK AO2 CIG 007 RWY 14 $
14840KMKG MKG20060313070510303/13/06 07:05:31  5-MIN KMKG 131205Z 11011KT 10SM BKN007 OVC060 03/02 A2949 1030 92 0 120/11 RMK AO2 $
14840KMKG MKG20060313071010303/13/06 07:10:31  5-MIN KMKG 131210Z 10012KT 10SM BKN007 OVC055 03/02 A2949 1030 92 0 110/12 RMK AO2 $
14840KMKG MKG20060313071510603/13/06 07:15:31  5-MIN KMKG 131215Z 12015KT 10SM BKN007 OVC055 03/02 A2950 1020 92 -100 120/15 RMK AO2 $
14840KMKG MKG20060313072010603/13/06 07:20:31  5-MIN KMKG 131220Z 11015KT 10SM BKN007 OVC055 03/02 A2950 1020 89 -100 110/15 RMK AO2 $
14840KMKG MKG20060313072509903/13/06 07:25:31  5-MIN KMKG 131225Z 10013KT 10SM OVC007 03/02 A2950 1020 92 -100 100/13 RMK AO2 $
14840KMKG MKG20060313073009903/13/06 07:30:31  5-MIN KMKG 131230Z 10012KT 10SM OVC007 03/02 A2949 1030 96 -100 100/12 RMK AO2 $
14840KMKG MKG20060313073509903/13/06 07:35:31  5-MIN KMKG 131235Z 10012KT 10SM OVC007 03/02 A2949 1030 92 -100 100/12 RMK AO2 $
14840KMKG MKG20060313074009903/13/06 07:40:31  5-MIN KMKG 131240Z 11013KT 10SM OVC007 03/02 A2949 1030 96 -100 110/13 RMK AO2 $
14840KMKG MKG20060313074509903/13/06 07:45:31  5-MIN KMKG 131245Z 10013KT 10SM OVC007 03/02 A2949 1030 96 -100 110/13 RMK AO2 $
14840KMKG MKG20060313075011603/13/06 07:50:31  5-MIN KMKG 131250Z 10014KT 10SM OVC007 03/02 A2949 1030 96 -100 110/14 RMK AO2 SLP990 T00280022 $
14840KMKG MKG20060313075511403/13/06 07:55:31  5-MIN KMKG 131255Z 09012KT 10SM OVC007 03/02 A2949 1030 96 -100 100/12 RMK AO2 SLP987 T00280022
14840KMKG MKG20060313080009703/13/06 08:00:31  5-MIN KMKG 131300Z 10013KT 10SM OVC007 03/02 A2949 1030 96 -100 110/13 RMK AO2
14840KMKG MKG20060313080509703/13/06 08:05:31  5-MIN KMKG 131305Z 11012KT 10SM OVC007 03/02 A2949 1040 96 -100 110/12 RMK AO2
14840KMKG MKG20060313081009703/13/06 08:10:31  5-MIN KMKG 131310Z 10015KT 10SM OVC007 03/02 A2947 1050 92 -100 100/15 RMK AO2
14840KMKG MKG20060313081509403/13/06 08:15:31  5-MIN KMKG 131315Z 10012KT 10SM OVC007 03/02 A2947 1050 92 0 100/12 RMK AO2
14840KMKG MKG20060313082009403/13/06 08:20:31  5-MIN KMKG 131320Z 10013KT 10SM OVC007 03/02 A2947 1050 92 0 110/13 RMK AO2
14840KMKG MKG20060313082509403/13/06 08:25:31  5-MIN KMKG 131325Z 10013KT 10SM OVC007 03/02 A2946 1060 92 0 110/13 RMK AO2
14840KMKG MKG20060313083009403/13/06 08:30:31  5-MIN KMKG 131330Z 11014KT 10SM OVC007 03/02 A2946 1060 92 0 110/14 RMK AO2
14840KMKG MKG20060313083510103/13/06 08:35:31  5-MIN KMKG 131335Z 11014KT 10SM OVC007 03/02 A2945 1070 92 0 110/14 RMK AO2 PRESFR
14840KMKG MKG20060313084010703/13/06 08:40:31  5-MIN KMKG 131340Z 11014G20KT 10SM OVC007 03/02 A2944 1080 92 0 110/14G20 RMK AO2 PRESFR
14840KMKG MKG20060313084510003/13/06 08:45:31  5-MIN KMKG 131345Z 11015G20KT 10SM OVC007 03/02 A2944 1080 92 0 110/15G20 RMK AO2
14840KMKG MKG20060313085011103/13/06 08:50:31  5-MIN KMKG 131350Z 11014KT 10SM OVC007 03/02 A2944 1080 92 0 110/14 RMK AO2 SLP970 T00330022
14840KMKG MKG20060313085511103/13/06 08:55:31  5-MIN KMKG 131355Z 11015KT 10SM OVC007 04/03 A2943 1090 92 0 120/15 RMK AO2 SLP969 T00390028
14840KMKG MKG20060313090009403/13/06 09:00:31  5-MIN KMKG 131400Z 11014KT 10SM OVC007 04/03 A2943 1090 92 0 120/14 RMK AO2
14840KMKG MKG20060313090509603/13/06 09:05:31  5-MIN KMKG 131405Z 11015KT 10SM OVC005 04/03 A2942 1100 92 100 120/15 RMK AO2
14840KMKG MKG20060313091010303/13/06 09:10:31  5-MIN KMKG 131410Z 11012KT 10SM OVC005 04/03 A2941 1100 92 100 110/12 RMK AO2 PRESFR
14840KMKG MKG20060313091509603/13/06 09:15:31  5-MIN KMKG 131415Z 11013KT 10SM OVC005 04/03 A2941 1110 92 100 110/13 RMK AO2
14840KMKG MKG20060313092009603/13/06 09:20:31  5-MIN KMKG 131420Z 12013KT 10SM OVC005 04/03 A2940 1110 92 100 120/13 RMK AO2
14840KMKG MKG20060313092509603/13/06 09:25:31  5-MIN KMKG 131425Z 12015KT 10SM OVC005 04/03 A2940 1120 92 200 120/15 RMK AO2
14840KMKG MKG20060313093009603/13/06 09:30:31  5-MIN KMKG 131430Z 12015KT 10SM OVC005 04/03 A2939 1120 92 200 120/15 RMK AO2
14840KMKG MKG20060313093510303/13/06 09:35:31  5-MIN KMKG 131435Z 11013KT 10SM OVC005 05/03 A2939 1130 89 200 120/13 RMK AO2 PRESFR
14840KMKG MKG20060313094010303/13/06 09:40:31  5-MIN KMKG 131440Z 12011KT 10SM OVC005 05/04 A2938 1130 92 200 120/11 RMK AO2 PRESFR
14840KMKG MKG20060313094510303/13/06 09:45:31  5-MIN KMKG 131445Z 11012KT 10SM OVC005 05/04 A2937 1140 92 200 120/12 RMK AO2 PRESFR
14840KMKG MKG20060313095011903/13/06 09:50:31  5-MIN KMKG 131450Z 11011KT 10SM OVC005 05/04 A2937 1140 92 200 120/11 RMK AO2 SLP949 T00500039 56017
14840KMKG MKG20060313095512603/13/06 09:55:31  5-MIN KMKG 131455Z 12015KT 10SM BKN005 OVC029 05/04 A2937 1150 92 300 130/15 RMK AO2 SLP947 T00500039 58039
14840KMKG MKG20060313100010303/13/06 10:00:31  5-MIN KMKG 131500Z 12012KT 10SM BKN005 OVC029 06/04 A2936 1150 89 300 120/12 RMK AO2
14840KMKG MKG20060313100510303/13/06 10:05:31  5-MIN KMKG 131505Z 12012KT 10SM BKN005 OVC029 06/04 A2936 1150 92 300 120/12 RMK AO2
14840KMKG MKG20060313101010303/13/06 10:10:31  5-MIN KMKG 131510Z 13012KT 10SM SCT005 OVC027 06/04 A2935 1160 92 300 130/12 RMK AO2
14840KMKG MKG20060313101511003/13/06 10:15:31  5-MIN KMKG 131515Z 12012KT 10SM SCT005 OVC027 06/04 A2935 1170 92 300 130/12 RMK AO2 PRESFR
14840KMKG MKG20060313102011003/13/06 10:20:31  5-MIN KMKG 131520Z 12014KT 10SM SCT005 OVC027 06/05 A2933 1180 93 400 130/14 RMK AO2 PRESFR
14840KMKG MKG20060313102511003/13/06 10:25:31  5-MIN KMKG 131525Z 13015KT 10SM FEW005 SCT029 07/06 A2933 1180 89 600 140/15 RMK AO2 PRESFR
14840KMKG MKG20060313103010303/13/06 10:30:31  5-MIN KMKG 131530Z 13014KT 10SM FEW005 SCT029 08/06 A2933 1180 89 600 130/14 RMK AO2
14840KMKG MKG20060313103510303/13/06 10:35:31  5-MIN KMKG 131535Z 12014KT 10SM FEW005 SCT029 07/06 A2932 1190 89 600 130/14 RMK AO2
14840KMKG MKG20060313104009603/13/06 10:40:31  5-MIN KMKG 131540Z 13013KT 10SM FEW031 08/06 A2932 1190 89 600 130/13 RMK AO2
14840KMKG MKG20060313104509303/13/06 10:45:31  5-MIN KMKG 131545Z 13013KT 10SM CLR 08/06 A2932 1190 86 700 130/13 RMK AO2
14840KMKG MKG20060313105011003/13/06 10:50:31  5-MIN KMKG 131550Z 14013KT 10SM CLR 09/07 A2931 1200 86 800 140/13 RMK AO2 SLP928 T00890067
14840KMKG MKG20060313105511303/13/06 10:55:31  5-MIN KMKG 131555Z 13013KT 10SM FEW029 09/07 A2930 1210 86 900 130/13 RMK AO2 SLP924 T00940072
14840KMKG MKG20060313110009303/13/06 11:00:31  5-MIN KMKG 131600Z 13012KT 10SM CLR 10/07 A2930 1210 83 900 130/12 RMK AO2
14840KMKG MKG20060313110509303/13/06 11:05:31  5-MIN KMKG 131605Z 14011KT 10SM CLR 10/08 A2931 1200 86 900 140/11 RMK AO2
14840KMKG MKG20060313111009403/13/06 11:10:31  5-MIN KMKG 131610Z 14012KT 10SM CLR 11/08 A2930 1200 86 1000 140/12 RMK AO2
14840KMKG MKG20060313111509403/13/06 11:15:31  5-MIN KMKG 131615Z 15012KT 10SM CLR 11/08 A2930 1200 83 1100 150/12 RMK AO2
14840KMKG MKG20060313112009403/13/06 11:20:31  5-MIN KMKG 131620Z 15011KT 10SM CLR 11/08 A2930 1210 83 1100 150/11 RMK AO2
14840KMKG MKG20060313112509403/13/06 11:25:31  5-MIN KMKG 131625Z 15012KT 10SM CLR 12/09 A2930 1210 83 1100 150/12 RMK AO2
14840KMKG MKG20060313113009703/13/06 11:30:31  5-MIN KMKG 131630Z 15011KT 10SM FEW090 12/09 A2930 1210 80 1200 160/11 RMK AO2
14840KMKG MKG20060313113510303/13/06 11:35:31  5-MIN KMKG 131635Z 15011KT 10SM FEW090 13/09 A2930 1210 80 1300 150/11 RMK AO2 P0001
14840KMKG MKG20060313114010303/13/06 11:40:31  5-MIN KMKG 131640Z 15012KT 10SM FEW090 13/09 A2930 1210 80 1300 160/12 RMK AO2 P0001
14840KMKG MKG20060313114510303/13/06 11:45:31  5-MIN KMKG 131645Z 16009KT 10SM SCT095 13/09 A2930 1210 77 1300 170/09 RMK AO2 P0001
14840KMKG MKG20060313115012003/13/06 11:50:31  5-MIN KMKG 131650Z 16011KT 10SM SCT095 14/10 A2929 1210 77 1400 170/11 RMK AO2 SLP920 P0001 T01390100
14840KMKG MKG20060313115512003/13/06 11:55:31  5-MIN KMKG 131655Z 18011KT 10SM SCT090 14/10 A2930 1210 74 1500 180/11 RMK AO2 SLP921 P0001 T01440100
14840KMKG MKG20060313120012803/13/06 12:00:31  5-MIN KMKG 131700Z 21020G27KT 10SM FEW049 SCT090 16/10 A2930 1210 69 1600 220/20G27 RMK AO2 PK WND 21027/1659
14840KMKG MKG20060313120513903/13/06 12:05:31  5-MIN KMKG 131705Z 22021G31KT 10SM FEW055 SCT080 16/09 A2931 1200 67 1600 220/21G31 RMK AO2 PK WND 21031/1703 WSHFT 1651
14840KMKG MKG20060313121013903/13/06 12:10:31  5-MIN KMKG 131710Z 23022G34KT 10SM FEW055 SCT080 14/08 A2931 1200 66 1500 230/22G34 RMK AO2 PK WND 22034/1706 WSHFT 1651
14840KMKG MKG20060313121513903/13/06 12:15:31  5-MIN KMKG 131715Z 22022G34KT 10SM FEW055 SCT080 14/08 A2931 1200 66 1400 230/22G34 RMK AO2 PK WND 22034/1706 WSHFT 1651
14840KMKG MKG20060313122013903/13/06 12:20:31  5-MIN KMKG 131720Z 23020G28KT 10SM FEW055 SCT080 14/07 A2931 1200 64 1400 230/20G28 RMK AO2 PK WND 22034/1706 WSHFT 1651
14840KMKG MKG20060313122513903/13/06 12:25:31  5-MIN KMKG 131725Z 23021G28KT 10SM FEW055 SCT080 14/07 A2932 1190 64 1400 230/21G28 RMK AO2 PK WND 22034/1706 WSHFT 1651
14840KMKG MKG20060313123013903/13/06 12:30:31  5-MIN KMKG 131730Z 23023G30KT 10SM FEW055 SCT080 13/07 A2932 1190 64 1300 240/23G30 RMK AO2 PK WND 22034/1706 WSHFT 1651
14840KMKG MKG20060313123513903/13/06 12:35:31  5-MIN KMKG 131735Z 23019G30KT 10SM FEW055 SCT080 13/07 A2932 1190 66 1200 230/19G30 RMK AO2 PK WND 22034/1706 WSHFT 1651
14840KMKG MKG20060313124013203/13/06 12:40:31  5-MIN KMKG 131740Z 23020G27KT 10SM SCT046 13/06 A2932 1190 63 1200 230/20G27 RMK AO2 PK WND 22034/1706 WSHFT 1651
14840KMKG MKG20060313124513203/13/06 12:45:31  5-MIN KMKG 131745Z 23020G27KT 10SM BKN046 12/06 A2932 1190 63 1200 230/20G27 RMK AO2 PK WND 22034/1706 WSHFT 1651
14840KMKG MKG20060313125018003/13/06 12:50:31  5-MIN KMKG 131750Z 23020G27KT 10SM BKN046 BKN055 12/05 A2932 1190 63 1100 230/20G27 RMK AO2 PK WND 22034/1706 WSHFT 1651 SLP931 60001 T01170050 10156 20028 58039
14840KMKG MKG20060313125516803/13/06 12:55:31  5-MIN KMKG 131755Z 23020KT 10SM BKN046 BKN055 11/05 A2932 1190 66 1000 230/20 RMK AO2 PK WND 22034/1706 WSHFT 1651 SLP931 T01110050 10156 20028 55015
14840KMKG MKG20060313130012803/13/06 13:00:31  5-MIN KMKG 131800Z 23021G26KT 10SM BKN046 OVC055 11/05 A2933 1190 66 1000 230/21G26 RMK AO2 PK WND 24026/1800
14840KMKG MKG20060313130512803/13/06 13:05:31  5-MIN KMKG 131805Z 23021G28KT 10SM BKN046 BKN055 12/05 A2932 1190 63 1100 240/21G28 RMK AO2 PK WND 23028/1802
14840KMKG MKG20060313131012803/13/06 13:10:31  5-MIN KMKG 131810Z 23020G28KT 10SM BKN048 BKN055 12/05 A2933 1180 63 1100 240/20G28 RMK AO2 PK WND 23028/1802
14840KMKG MKG20060313131512803/13/06 13:15:31  5-MIN KMKG 131815Z 24020G27KT 10SM SCT048 SCT055 11/05 A2933 1180 66 1000 240/20G27 RMK AO2 PK WND 23028/1802
14840KMKG MKG20060313132012103/13/06 13:20:31  5-MIN KMKG 131820Z 24021G28KT 10SM FEW048 11/05 A2932 1190 66 1000 240/21G28 RMK AO2 PK WND 24028/1819
14840KMKG MKG20060313132512103/13/06 13:25:31  5-MIN KMKG 131825Z 23026G34KT 10SM FEW048 11/05 A2933 1180 66 1000 240/26G34 RMK AO2 PK WND 24034/1822
14840KMKG MKG20060313133011803/13/06 13:30:31  5-MIN KMKG 131830Z 24023G34KT 10SM CLR 11/05 A2933 1180 66 1000 240/23G34 RMK AO2 PK WND 24034/1822
14840KMKG MKG20060313133511803/13/06 13:35:31  5-MIN KMKG 131835Z 24024G30KT 10SM CLR 11/05 A2933 1180 66 1000 240/24G30 RMK AO2 PK WND 24034/1822
14840KMKG MKG20060313134011803/13/06 13:40:31  5-MIN KMKG 131840Z 23026G34KT 10SM CLR 12/06 A2933 1180 66 1100 240/26G34 RMK AO2 PK WND 23034/1839
14840KMKG MKG20060313134512103/13/06 13:45:31  5-MIN KMKG 131845Z 23027G35KT 10SM FEW037 11/06 A2933 1180 68 1000 240/27G35 RMK AO2 PK WND 24035/1844
14840KMKG MKG20060313135013803/13/06 13:50:31  5-MIN KMKG 131850Z 23025G35KT 10SM FEW037 11/06 A2934 1180 68 1000 230/25G35 RMK AO2 PK WND 24035/1844 SLP936 T01110056
14840KMKG MKG20060313135513803/13/06 13:55:31  5-MIN KMKG 131855Z 22025G32KT 10SM FEW037 11/06 A2933 1180 68 1000 230/25G32 RMK AO2 PK WND 24035/1844 SLP933 T01110056
14840KMKG MKG20060313140011803/13/06 14:00:31  5-MIN KMKG 131900Z 22024G32KT 10SM CLR 11/05 A2933 1180 66 1000 230/24G32 RMK AO2 PK WND 23032/1900
14840KMKG MKG20060313140511803/13/06 14:05:31  5-MIN KMKG 131905Z 22027G34KT 10SM CLR 11/05 A2934 1180 68 1000 230/27G34 RMK AO2 PK WND 22034/1904
14840KMKG MKG20060313141011803/13/06 14:10:31  5-MIN KMKG 131910Z 23023G34KT 10SM CLR 11/05 A2934 1170 68 1000 230/23G34 RMK AO2 PK WND 22034/1904
14840KMKG MKG20060313141512003/13/06 14:15:31  5-MIN KMKG 131915Z 23021G31KT 10SM FEW027 10/05 A2934 1170 71 900 230/21G31 RMK AO2 PK WND 22034/1904
14840KMKG MKG20060313142012003/13/06 14:20:31  5-MIN KMKG 131920Z 23024G29KT 10SM FEW027 10/05 A2934 1170 71 900 240/24G29 RMK AO2 PK WND 22034/1904
14840KMKG MKG20060313142512003/13/06 14:25:31  5-MIN KMKG 131925Z 23023G30KT 10SM FEW027 10/04 A2935 1160 68 900 240/23G30 RMK AO2 PK WND 22034/1904
14840KMKG MKG20060313143012003/13/06 14:30:31  5-MIN KMKG 131930Z 24023G32KT 10SM FEW027 10/04 A2935 1170 68 900 240/23G32 RMK AO2 PK WND 22034/1904
14840KMKG MKG20060313143512703/13/06 14:35:31  5-MIN KMKG 131935Z 24020G32KT 10SM FEW027 SCT037 09/04 A2935 1170 71 800 240/20G32 RMK AO2 PK WND 22034/1904
14840KMKG MKG20060313144012703/13/06 14:40:31  5-MIN KMKG 131940Z 23026G32KT 10SM FEW027 BKN037 09/04 A2935 1160 71 700 240/26G32 RMK AO2 PK WND 22034/1904
14840KMKG MKG20060313144512003/13/06 14:45:31  5-MIN KMKG 131945Z 23023G32KT 10SM BKN035 08/03 A2935 1160 70 700 230/23G32 RMK AO2 PK WND 22034/1904
14840KMKG MKG20060313145013703/13/06 14:50:31  5-MIN KMKG 131950Z 23022G31KT 10SM BKN035 08/03 A2935 1160 70 700 230/22G31 RMK AO2 PK WND 22034/1904 SLP942 T00830033
14840KMKG MKG20060313145513703/13/06 14:55:31  5-MIN KMKG 131955Z 23021G31KT 10SM OVC035 08/03 A2935 1160 73 600 230/21G31 RMK AO2 PK WND 22034/1904 SLP943 T00780033
14840KMKG MKG20060313150013403/13/06 15:00:31  5-MIN KMKG 132000Z 24022G31KT 10SM FEW023 BKN030 OVC035 08/03 A2936 1160 73 600 240/22G31 RMK AO2 PK WND 24031/2000
14840KMKG MKG20060313150514203/13/06 15:05:31  5-MIN KMKG 132005Z 23023G31KT 10SM SCT021 OVC035 07/03 A2936 1150 73 500 230/23G31 RMK AO2 PK WND 24031/2000 CIG 029 RWY 14
14840KMKG MKG20060313151012703/13/06 15:10:31  5-MIN KMKG 132010Z 24021G29KT 10SM BKN021 OVC033 07/03 A2936 1150 76 500 240/21G29 RMK AO2 PK WND 24031/2000
14840KMKG MKG20060313151514903/13/06 15:15:31  5-MIN KMKG 132015Z 24021G33KT 10SM SCT019 BKN025 OVC035 07/03 A2937 1140 76 500 240/21G33 RMK AO2 PK WND 25033/2012 CIG 019 RWY 14
14840KMKG MKG20060313152012703/13/06 15:20:31  5-MIN KMKG 132020Z 24022G33KT 10SM BKN022 OVC028 07/03 A2937 1140 76 500 240/22G33 RMK AO2 PK WND 25033/2012
14840KMKG MKG20060313152512703/13/06 15:25:31  5-MIN KMKG 132025Z 24022G31KT 10SM BKN020 OVC026 06/03 A2937 1140 79 400 240/22G31 RMK AO2 PK WND 25033/2012
14840KMKG MKG20060313153012703/13/06 15:30:31  5-MIN KMKG 132030Z 24022G30KT 10SM BKN020 OVC026 06/03 A2938 1140 79 400 240/22G30 RMK AO2 PK WND 25033/2012
14840KMKG MKG20060313153512703/13/06 15:35:31  5-MIN KMKG 132035Z 23025G29KT 10SM BKN022 OVC027 06/03 A2938 1140 79 400 230/25G29 RMK AO2 PK WND 25033/2012
14840KMKG MKG20060313154012703/13/06 15:40:31  5-MIN KMKG 132040Z 24020G29KT 10SM BKN025 OVC030 06/03 A2938 1130 79 400 240/20G29 RMK AO2 PK WND 25033/2012
14840KMKG MKG20060313154512703/13/06 15:45:31  5-MIN KMKG 132045Z 23022G29KT 10SM BKN023 OVC030 06/03 A2938 1130 79 400 230/22G29 RMK AO2 PK WND 25033/2012
14840KMKG MKG20060313155012703/13/06 15:50:31  5-MIN KMKG 132050Z 23021G29KT 10SM FEW020 OVC030 06/02 A2938 1130 76 400 230/21G29 RMK AO2 PK WND 25033/2012
14840KMKG MKG20060313155514303/13/06 15:55:31  5-MIN KMKG 132055Z 23020G28KT 10SM OVC031 06/02 A2938 1130 76 400 240/20G28 RMK AO2 PK WND 25033/2012 SLP954 T00610022 53020
14840KMKG MKG20060313160012703/13/06 16:00:31  5-MIN KMKG 132100Z 23022G28KT 10SM FEW025 OVC031 06/02 A2938 1130 73 400 230/22G28 RMK AO2 PK WND 24027/2057
14840KMKG MKG20060313160512003/13/06 16:05:31  5-MIN KMKG 132105Z 23019G28KT 10SM OVC033 06/02 A2939 1130 76 300 230/19G28 RMK AO2 PK WND 22028/2102
14840KMKG MKG20060313161012003/13/06 16:10:31  5-MIN KMKG 132110Z 23022G28KT 10SM OVC033 06/02 A2938 1130 76 300 230/22G28 RMK AO2 PK WND 22028/2102
14840KMKG MKG20060313161512003/13/06 16:15:31  5-MIN KMKG 132115Z 22019G28KT 10SM OVC033 06/02 A2938 1130 76 300 230/19G28 RMK AO2 PK WND 22028/2113
14840KMKG MKG20060313162012003/13/06 16:20:31  5-MIN KMKG 132120Z 22020G28KT 10SM OVC033 06/02 A2939 1130 76 300 230/20G28 RMK AO2 PK WND 22028/2113
14840KMKG MKG20060313162512003/13/06 16:25:31  5-MIN KMKG 132125Z 23022G28KT 10SM OVC033 06/02 A2939 1130 76 300 230/22G28 RMK AO2 PK WND 23028/2123
14840KMKG MKG20060313163012003/13/06 16:30:31  5-MIN KMKG 132130Z 22024G32KT 10SM OVC035 06/02 A2939 1130 76 300 230/24G32 RMK AO2 PK WND 23032/2129
14840KMKG MKG20060313163512003/13/06 16:35:31  5-MIN KMKG 132135Z 22023G32KT 10SM OVC035 06/01 A2939 1130 73 300 230/23G32 RMK AO2 PK WND 23032/2129
14840KMKG MKG20060313164012003/13/06 16:40:31  5-MIN KMKG 132140Z 23023G30KT 10SM OVC035 06/01 A2939 1130 73 300 230/23G30 RMK AO2 PK WND 23032/2129
14840KMKG MKG20060313164512003/13/06 16:45:31  5-MIN KMKG 132145Z 23021G30KT 10SM OVC032 06/01 A2939 1120 73 300 230/21G30 RMK AO2 PK WND 23032/2129
14840KMKG MKG20060313165013703/13/06 16:50:31  5-MIN KMKG 132150Z 23019G28KT 10SM OVC032 06/01 A2940 1120 73 300 230/19G28 RMK AO2 PK WND 23032/2129 SLP959 T00560011
14840KMKG MKG20060313165513703/13/06 16:55:31  5-MIN KMKG 132155Z 23021G28KT 10SM OVC034 06/01 A2939 1120 73 300 230/21G28 RMK AO2 PK WND 23032/2129 SLP958 T00560011
14840KMKG MKG20060313170012003/13/06 17:00:31  5-MIN KMKG 132200Z 23022G30KT 10SM OVC032 05/01 A2940 1120 76 200 240/22G30 RMK AO2 PK WND 24030/2200
14840KMKG MKG20060313170512003/13/06 17:05:31  5-MIN KMKG 132205Z 24021G31KT 10SM OVC032 05/01 A2940 1110 76 200 240/21G31 RMK AO2 PK WND 24031/2204
14840KMKG MKG20060313171012003/13/06 17:10:31  5-MIN KMKG 132210Z 24022G31KT 10SM OVC032 05/01 A2940 1110 73 200 240/22G31 RMK AO2 PK WND 24031/2204
14840KMKG MKG20060313171512003/13/06 17:15:31  5-MIN KMKG 132215Z 24017G29KT 10SM OVC032 05/01 A2940 1110 73 200 240/17G29 RMK AO2 PK WND 24031/2204
14840KMKG MKG20060313172012003/13/06 17:20:31  5-MIN KMKG 132220Z 24019G29KT 10SM OVC034 05/00 A2940 1110 70 200 250/19G29 RMK AO2 PK WND 24031/2204
14840KMKG MKG20060313172512703/13/06 17:25:31  5-MIN KMKG 132225Z 24016G29KT 10SM BKN034 OVC043 05/00 A2940 1110 70 200 240/16G29 RMK AO2 PK WND 24031/2204
14840KMKG MKG20060313173012703/13/06 17:30:31  5-MIN KMKG 132230Z 23023G29KT 10SM BKN032 OVC043 05/00 A2940 1110 70 200 240/23G29 RMK AO2 PK WND 24031/2204
14840KMKG MKG20060313173512703/13/06 17:35:31  5-MIN KMKG 132235Z 24020G29KT 10SM SCT034 OVC043 05/00 A2941 1110 70 200 250/20G29 RMK AO2 PK WND 24031/2204
14840KMKG MKG20060313174012103/13/06 17:40:31  5-MIN KMKG 132240Z 24023G29KT 10SM OVC041 05/M01 A2940 1110 67 200 250/23G29 RMK AO2 PK WND 24031/2204
14840KMKG MKG20060313174512103/13/06 17:45:31  5-MIN KMKG 132245Z 24021G31KT 10SM OVC041 05/M01 A2941 1110 67 200 240/21G31 RMK AO2 PK WND 23031/2242
14840KMKG MKG20060313175013803/13/06 17:50:31  5-MIN KMKG 132250Z 24024G31KT 10SM OVC041 05/M01 A2941 1110 67 200 240/24G31 RMK AO2 PK WND 23031/2242 SLP963 T00501006
14840KMKG MKG20060313175513803/13/06 17:55:31  5-MIN KMKG 132255Z 24021G30KT 10SM OVC041 05/M01 A2941 1110 67 200 240/21G30 RMK AO2 PK WND 23031/2242 SLP963 T00501006
14840KMKG MKG20060313180012103/13/06 18:00:31  5-MIN KMKG 132300Z 24022G29KT 10SM OVC041 05/M01 A2941 1100 67 200 240/22G29 RMK AO2 PK WND 24029/2300
14840KMKG MKG20060313180512803/13/06 18:05:31  5-MIN KMKG 132305Z 24021G29KT 10SM SCT037 OVC045 04/M01 A2942 1100 70 100 240/21G29 RMK AO2 PK WND 24029/2300
14840KMKG MKG20060313181013503/13/06 18:10:31  5-MIN KMKG 132310Z 24021G27KT 10SM BKN040 BKN049 OVC055 04/M01 A2942 1100 70 100 250/21G27 RMK AO2 PK WND 24029/2300
14840KMKG MKG20060313181512803/13/06 18:15:31  5-MIN KMKG 132315Z 24021G27KT 10SM BKN040 OVC055 04/M01 A2941 1100 70 100 240/21G27 RMK AO2 PK WND 24029/2300
14840KMKG MKG20060313182012803/13/06 18:20:31  5-MIN KMKG 132320Z 24023G27KT 10SM SCT040 OVC049 04/M01 A2942 1100 70 100 250/23G27 RMK AO2 PK WND 24029/2300
14840KMKG MKG20060313182513503/13/06 18:25:31  5-MIN KMKG 132325Z 25020G27KT 10SM BKN042 BKN049 OVC055 04/M01 A2943 1090 70 100 250/20G27 RMK AO2 PK WND 24029/2300
14840KMKG MKG20060313183013503/13/06 18:30:31  5-MIN KMKG 132330Z 25021G32KT 10SM BKN039 BKN047 OVC055 04/M01 A2942 1090 70 100 260/21G32 RMK AO2 PK WND 25032/2330
14840KMKG MKG20060313183513503/13/06 18:35:31  5-MIN KMKG 132335Z 26019G32KT 10SM BKN039 BKN047 OVC055 04/M01 A2943 1090 70 100 260/19G32 RMK AO2 PK WND 25032/2330
14840KMKG MKG20060313184013503/13/06 18:40:31  5-MIN KMKG 132340Z 25022G30KT 10SM BKN037 BKN047 OVC055 04/M01 A2943 1090 70 100 250/22G30 RMK AO2 PK WND 25032/2330
14840KMKG MKG20060313184513503/13/06 18:45:31  5-MIN KMKG 132345Z 26021G30KT 10SM BKN037 BKN047 OVC060 04/M01 A2943 1090 70 100 260/21G30 RMK AO2 PK WND 25032/2330
14840KMKG MKG20060313185016803/13/06 18:50:31  5-MIN KMKG 132350Z 25021G29KT 10SM SCT034 BKN042 BKN060 04/M01 A2944 1080 73 0 260/21G29 RMK AO2 PK WND 25032/2330 SLP973 T00391006 10117 20039 53020
14840KMKG MKG20060313185516803/13/06 18:55:31  5-MIN KMKG 132355Z 25023G30KT 10SM SCT034 BKN042 BKN060 04/M01 A2944 1080 73 0 260/23G30 RMK AO2 PK WND 25032/2330 SLP974 T00391006 10117 20039 53019
14840KMKG MKG20060313190013303/13/06 19:00:31  5-MIN KMKG 140000Z 25018G30KT 10SM FEW030 BKN036 OVC060 04/M01 A2944 1070 73 0 260/18G30 RMK AO2 PK WND 25027/0000
14840KMKG MKG20060313190512603/13/06 19:05:31  5-MIN KMKG 140005Z 25019G30KT 10SM BKN033 OVC060 04/M01 A2944 1070 73 0 250/19G30 RMK AO2 PK WND 25030/0004
14840KMKG MKG20060313191012603/13/06 19:10:31  5-MIN KMKG 140010Z 25020G30KT 10SM BKN033 OVC060 04/M01 A2945 1070 73 0 260/20G30 RMK AO2 PK WND 26030/0010
14840KMKG MKG20060313191513303/13/06 19:15:31  5-MIN KMKG 140015Z 26020G30KT 10SM SCT029 BKN035 OVC065 04/M01 A2946 1060 73 0 260/20G30 RMK AO2 PK WND 26030/0010
14840KMKG MKG20060313192014803/13/06 19:20:31  5-MIN KMKG 140020Z 25020G28KT 10SM FEW023 SCT028 OVC035 04/M01 A2946 1060 73 0 260/20G28 RMK AO2 PK WND 26030/0010 CIG 029 RWY 14
14840KMKG MKG20060313192513203/13/06 19:25:31  5-MIN KMKG 140025Z 25021G28KT 10SM SCT028 BKN032 OVC049 03/00 A2946 1060 79 0 260/21G28 RMK AO2 PK WND 26030/0010
14840KMKG MKG20060313193013303/13/06 19:30:31  5-MIN KMKG 140030Z 26020G28KT 10SM FEW026 BKN037 OVC075 03/M01 A2946 1060 76 0 260/20G28 RMK AO2 PK WND 26030/0010
14840KMKG MKG20060313193513203/13/06 19:35:31  5-MIN KMKG 140035Z 26023G32KT 10SM FEW021 BKN039 OVC075 03/00 A2947 1050 79 0 260/23G32 RMK AO2 PK WND 26032/0032
14840KMKG MKG20060313194013503/13/06 19:40:31  5-MIN KMKG 140040Z 26021G33KT 10SM FEW022 BKN039 OVC047 03/00 A2947 1050 82 -100 260/21G33 RMK AO2 PK WND 26033/0039
14840KMKG MKG20060313194513503/13/06 19:45:31  5-MIN KMKG 140045Z 26017G33KT 10SM SCT022 BKN039 OVC047 03/00 A2947 1050 82 -100 270/17G33 RMK AO2 PK WND 26033/0039
14840KMKG MKG20060313195013203/13/06 19:50:31  5-MIN KMKG 140050Z 26017G28KT 10SM BKN022 BKN038 OVC047 03/00 A2947 1050 79 0 260/17G28 RMK AO2 PK WND 26033/0039
14840KMKG MKG20060313195516503/13/06 19:55:31  5-MIN KMKG 140055Z 27023G34KT 10SM -RA BKN022 BKN038 BKN047 03/00 A2948 1040 79 0 270/23G34 RMK AO2 PK WND 28034/0055 RAB51 SLP987 P0000 T00330000
14840KMKG MKG20060313200014603/13/06 20:00:31  5-MIN KMKG 140100Z 27021G34KT 10SM -RA SCT020 BKN025 OVC043 03/M02 A2948 1040 72 -100 270/21G34 RMK AO2 PK WND 27033/0056 P0000
14840KMKG MKG20060313200514103/13/06 20:05:31  5-MIN KMKG 140105Z 27022G33KT 10SM SCT020 OVC043 03/M02 A2949 1040 69 -100 270/22G33 RMK AO2 PK WND 27033/0056 RAE02 P0000
14840KMKG MKG20060313201014803/13/06 20:10:31  5-MIN KMKG 140110Z 27020G29KT 10SM SCT020 SCT025 BKN043 03/M02 A2949 1030 72 -100 270/20G29 RMK AO2 PK WND 27033/0056 RAE02 P0000
14840KMKG MKG20060313201514803/13/06 20:15:31  5-MIN KMKG 140115Z 27017G29KT 10SM SCT020 SCT025 BKN043 03/M02 A2949 1030 72 -100 270/17G29 RMK AO2 PK WND 27033/0056 RAE02 P0000
14840KMKG MKG20060313202014803/13/06 20:20:31  5-MIN KMKG 140120Z 27025G39KT 10SM SCT020 SCT025 BKN043 03/M02 A2949 1030 69 -100 280/25G39 RMK AO2 PK WND 27039/0119 RAE02 P0000
14840KMKG MKG20060313202514803/13/06 20:25:31  5-MIN KMKG 140125Z 26019G39KT 10SM SCT020 SCT025 BKN043 03/M03 A2949 1030 64 -100 270/19G39 RMK AO2 PK WND 27039/0119 RAE02 P0000
14840KMKG MKG20060313203014803/13/06 20:30:31  5-MIN KMKG 140130Z 27020G31KT 10SM SCT020 SCT025 BKN043 03/M03 A2950 1020 64 -100 280/20G31 RMK AO2 PK WND 27039/0119 RAE02 P0000
14840KMKG MKG20060313203514803/13/06 20:35:31  5-MIN KMKG 140135Z 27022G32KT 10SM SCT020 SCT025 BKN043 03/M03 A2950 1020 64 -100 270/22G32 RMK AO2 PK WND 27039/0119 RAE02 P0000
14840KMKG MKG20060313204014103/13/06 20:40:31  5-MIN KMKG 140140Z 27023G34KT 10SM FEW025 OVC037 02/M03 A2951 1020 67 -200 270/23G34 RMK AO2 PK WND 27039/0119 RAE02 P0000
14840KMKG MKG20060313204513403/13/06 20:45:31  5-MIN KMKG 140145Z 27020G34KT 10SM OVC037 02/M03 A2950 1020 67 -200 270/20G34 RMK AO2 PK WND 27039/0119 RAE02 P0000
14840KMKG MKG20060313205015803/13/06 20:50:31  5-MIN KMKG 140150Z 27025G38KT 10SM FEW028 OVC037 02/M04 A2951 1010 64 -200 280/25G38 RMK AO2 PK WND 27039/0119 RAE02 SLP997 P0000 T00221039
14840KMKG MKG20060313205515803/13/06 20:55:31  5-MIN KMKG 140155Z 27026G40KT 10SM FEW029 BKN036 02/M04 A2951 1010 61 -200 280/26G40 RMK AO2 PK WND 28040/0153 RAE02 SLP999 P0000 T00221044
14840KMKG MKG20060313210012203/13/06 21:00:31  5-MIN KMKG 140200Z 27024G40KT 10SM OVC034 02/M04 A2951 1010 64 -300 280/24G40 RMK AO2 PK WND 27035/0200
14840KMKG MKG20060313210512903/13/06 21:05:31  5-MIN KMKG 140205Z 28023G35KT 10SM FEW028 OVC034 02/M04 A2952 1010 66 -300 290/23G35 RMK AO2 PK WND 27035/0200
14840KMKG MKG20060313211012903/13/06 21:10:31  5-MIN KMKG 140210Z 29022G33KT 10SM FEW028 OVC036 02/M04 A2952 1000 66 -300 300/22G33 RMK AO2 PK WND 27035/0200
14840KMKG MKG20060313211512903/13/06 21:15:31  5-MIN KMKG 140215Z 28025G40KT 10SM BKN034 OVC042 02/M04 A2952 1000 64 -300 290/25G40 RMK AO2 PK WND 28040/0213
14840KMKG MKG20060313212012103/13/06 21:20:31  5-MIN KMKG 140220Z 28025G40KT 10SM OVC037 02/M05 A2953 990 61 -300 290/25G40 RMK AO2 PK WND 28040/0213
14840KMKG MKG20060313212512103/13/06 21:25:31  5-MIN KMKG 140225Z 29021G34KT 10SM OVC037 02/M04 A2953 990 64 -300 290/21G34 RMK AO2 PK WND 28040/0213
14840KMKG MKG20060313213012103/13/06 21:30:31  5-MIN KMKG 140230Z 29026G32KT 10SM OVC037 02/M04 A2953 990 64 -300 290/26G32 RMK AO2 PK WND 28040/0213
14840KMKG MKG20060313213512803/13/06 21:35:31  5-MIN KMKG 140235Z 29021G32KT 10SM BKN035 OVC042 01/M05 A2954 990 64 -400 290/21G32 RMK AO2 PK WND 28040/0213
14840KMKG MKG20060313214012803/13/06 21:40:31  5-MIN KMKG 140240Z 28019G32KT 10SM BKN030 OVC038 01/M04 A2954 990 66 -400 280/19G32 RMK AO2 PK WND 28040/0213
14840KMKG MKG20060313214512803/13/06 21:45:31  5-MIN KMKG 140245Z 28026G37KT 10SM BKN030 OVC038 01/M04 A2954 990 66 -400 280/26G37 RMK AO2 PK WND 28040/0213
14840KMKG MKG20060313215015703/13/06 21:50:31  5-MIN KMKG 140250Z 28023G37KT 10SM SCT030 BKN036 01/M04 A2954 980 66 -400 280/23G37 RMK AO2 PK WND 28040/0213 SLP009 60000 T00111044 53019
14840KMKG MKG20060313215515703/13/06 21:55:31  5-MIN KMKG 140255Z 28026G33KT 10SM SCT030 BKN036 01/M05 A2955 980 64 -400 280/26G33 RMK AO2 PK WND 28040/0213 SLP010 60000 T00111050 51035
14840KMKG MKG20060313220013503/13/06 22:00:31  5-MIN KMKG 140300Z 28018G33KT 10SM BKN030 OVC037 01/M05 A2956 970 64 -400 290/18G33 RMK AO2 PK WND 28029/0257 PRESRR
14840KMKG MKG20060313220512803/13/06 22:05:31  5-MIN KMKG 140305Z 28027G37KT 10SM BKN030 OVC037 01/M05 A2955 970 64 -400 280/27G37 RMK AO2 PK WND 28037/0305
14840KMKG MKG20060313221012803/13/06 22:10:31  5-MIN KMKG 140310Z 29024G37KT 10SM BKN030 OVC037 01/M05 A2956 970 66 -500 290/24G37 RMK AO2 PK WND 28037/0305
14840KMKG MKG20060313221512803/13/06 22:15:31  5-MIN KMKG 140315Z 30020G29KT 10SM BKN030 OVC037 01/M05 A2956 960 66 -500 300/20G29 RMK AO2 PK WND 28037/0305
14840KMKG MKG20060313222012803/13/06 22:20:31  5-MIN KMKG 140320Z 29023G29KT 10SM BKN030 OVC036 01/M05 A2956 960 66 -500 290/23G29 RMK AO2 PK WND 28037/0305
14840KMKG MKG20060313222512803/13/06 22:25:31  5-MIN KMKG 140325Z 29021G33KT 10SM BKN030 OVC036 01/M05 A2957 960 66 -500 290/21G33 RMK AO2 PK WND 28037/0305
14840KMKG MKG20060313223012803/13/06 22:30:31  5-MIN KMKG 140330Z 29021G39KT 10SM BKN030 OVC036 01/M06 A2957 950 63 -500 290/21G39 RMK AO2 PK WND 29039/0326
14840KMKG MKG20060313223512803/13/06 22:35:31  5-MIN KMKG 140335Z 30024G39KT 10SM BKN030 OVC036 01/M05 A2958 950 66 -500 300/24G39 RMK AO2 PK WND 29039/0326
14840KMKG MKG20060313224012803/13/06 22:40:31  5-MIN KMKG 140340Z 30021G35KT 10SM BKN030 OVC036 01/M05 A2958 950 66 -500 300/21G35 RMK AO2 PK WND 29039/0326
14840KMKG MKG20060313224512803/13/06 22:45:31  5-MIN KMKG 140345Z 30023G35KT 10SM BKN028 BKN036 01/M06 A2958 940 63 -500 300/23G35 RMK AO2 PK WND 29039/0326
14840KMKG MKG20060313225014503/13/06 22:50:31  5-MIN KMKG 140350Z 29020G30KT 10SM BKN028 BKN036 01/M05 A2959 940 66 -500 300/20G30 RMK AO2 PK WND 29039/0326 SLP023 T00061050
14840KMKG MKG20060313225513803/13/06 22:55:31  5-MIN KMKG 140355Z 29018G28KT 10SM BKN032 01/M05 A2959 940 66 -500 290/18G28 RMK AO2 PK WND 29039/0326 SLP022 T00061050
14840KMKG MKG20060313230012003/13/06 23:00:31  5-MIN KMKG 140400Z 30015G28KT 9SM -SN OVC032 01/M05 A2958 950 66 -500 300/15G28 RMK AO2 SNB0356 P0000
14840KMKG MKG20060313230513803/13/06 23:05:31  5-MIN KMKG 140405Z 29021G28KT 9SM -SN OVC032 01/M05 A2959 940 66 -500 290/21G28 RMK AO2 PK WND 28028/0405 SNB0356 P0000
14840KMKG MKG20060313231013803/13/06 23:10:31  5-MIN KMKG 140410Z 29019G30KT 9SM -SN OVC031 01/M05 A2959 940 66 -500 290/19G30 RMK AO2 PK WND 30030/0410 SNB0356 P0000
14840KMKG MKG20060313231513703/13/06 23:15:31  5-MIN KMKG 140415Z 29022G30KT 9SM OVC033 01/M06 A2959 940 63 -500 290/22G30 RMK AO2 PK WND 28030/0415 SNB0356E15 P0000
14840KMKG MKG20060313232015903/13/06 23:20:31  5-MIN KMKG 140420Z 28023G30KT 9SM SCT030 OVC035 01/M06 A2959 930 63 -500 290/23G30 RMK AO2 PK WND 31030/0420 SNB0356E15 CIG 030 RWY 14 P0000
14840KMKG MKG20060313232514503/13/06 23:25:31  5-MIN KMKG 140425Z 29019G34KT 8SM -SN SCT030 OVC035 00/M06 A2960 930 66 -600 290/19G34 RMK AO2 PK WND 29034/0422 SNB0356 P0000
14840KMKG MKG20060313233014503/13/06 23:30:31  5-MIN KMKG 140430Z 28020G34KT 8SM -SN FEW030 OVC035 01/M06 A2960 920 63 -500 290/20G34 RMK AO2 PK WND 29034/0422 SNB0356 P0000
14840KMKG MKG20060313233513703/13/06 23:35:31  5-MIN KMKG 140435Z 29022G32KT 9SM OVC037 01/M06 A2961 920 61 -500 290/22G32 RMK AO2 PK WND 29034/0422 SNB0356E33 P0000
14840KMKG MKG20060313234013803/13/06 23:40:31  5-MIN KMKG 140440Z 29016G32KT 10SM OVC037 01/M06 A2960 920 61 -500 290/16G32 RMK AO2 PK WND 29034/0422 SNB0356E33 P0000
14840KMKG MKG20060313234513803/13/06 23:45:31  5-MIN KMKG 140445Z 28017G27KT 10SM OVC035 01/M06 A2961 920 63 -500 290/17G27 RMK AO2 PK WND 29034/0422 SNB0356E33 P0000
14840KMKG MKG20060313235017203/13/06 23:50:31  5-MIN KMKG 140450Z 28022G28KT 10SM SCT031 OVC039 01/M06 A2960 920 63 -500 280/22G28 RMK AO2 PK WND 29034/0422 SNB0356E33 SLP028 P0000 T00061056 401561061
14840KMKG MKG20060313235517203/13/06 23:55:31  5-MIN KMKG 140455Z 29022G29KT 10SM BKN036 OVC046 00/M06 A2960 920 63 -600 290/22G29 RMK AO2 PK WND 29034/0422 SNB0356E33 SLP028 P0000 T00001061 401561061
14840KMKG MKG20060314000012803/14/06 00:00:32  5-MIN KMKG 140500Z 29020G29KT 10SM BKN035 OVC046 00/M06 A2960 920 63 -600 290/20G29 RMK AO2 PK WND 28028/0458
14840KMKG MKG20060314000515003/14/06 00:05:31  5-MIN KMKG 140505Z 29020G28KT 10SM FEW029 SCT036 OVC046 00/M07 A2961 920 61 -600 300/20G28 RMK AO2 PK WND 28028/0458 CIG 039 RWY 14
14840KMKG MKG20060314001013503/14/06 00:10:31  5-MIN KMKG 140510Z 29021G26KT 10SM FEW031 BKN046 OVC065 00/M07 A2961 920 61 -600 300/21G26 RMK AO2 PK WND 28028/0458
14840KMKG MKG20060314001513503/14/06 00:15:31  5-MIN KMKG 140515Z 28021G26KT 10SM FEW031 BKN041 OVC065 01/M06 A2961 920 63 -500 290/21G26 RMK AO2 PK WND 28028/0458
14840KMKG MKG20060314002012803/14/06 00:20:31  5-MIN KMKG 140520Z 28021G26KT 10SM FEW032 OVC043 01/M06 A2961 920 63 -500 290/21G26 RMK AO2 PK WND 28028/0458
14840KMKG MKG20060314002512803/14/06 00:25:31  5-MIN KMKG 140525Z 29017G25KT 10SM SCT032 OVC043 01/M05 A2961 920 66 -500 290/17G25 RMK AO2 PK WND 28028/0458
14840KMKG MKG20060314003012803/14/06 00:30:31  5-MIN KMKG 140530Z 29022G28KT 10SM FEW030 OVC041 01/M06 A2961 920 63 -500 290/22G28 RMK AO2 PK WND 29028/0530
14840KMKG MKG20060314003512803/14/06 00:35:31  5-MIN KMKG 140535Z 29021G28KT 10SM FEW030 OVC041 01/M06 A2961 920 63 -500 290/21G28 RMK AO2 PK WND 29028/0534
14840KMKG MKG20060314004013503/14/06 00:40:31  5-MIN KMKG 140540Z 29021G28KT 10SM FEW025 SCT031 OVC041 01/M05 A2962 910 66 -500 290/21G28 RMK AO2 PK WND 29028/0534
14840KMKG MKG20060314004515003/14/06 00:45:31  5-MIN KMKG 140545Z 29018G27KT 9SM -SN SCT028 BKN037 OVC044 01/M04 A2962 910 69 -500 300/18G27 RMK AO2 PK WND 29028/0534 SNB41 P0000
14840KMKG MKG20060314005019103/14/06 00:50:31  5-MIN KMKG 140550Z 28017G27KT 9SM -SN SCT025 BKN031 OVC040 01/M04 A2962 910 69 -500 290/17G27 RMK AO2 PK WND 29028/0534 SNB41 SLP034 P0000 60000 T00061044 10039 20000 51035
14840KMKG MKG20060314005519003/14/06 00:55:31  5-MIN KMKG 140555Z 29016G30KT 9SM SCT025 BKN031 OVC040 00/M05 A2963 900 69 -600 290/16G30 RMK AO2 PK WND 30030/0551 SNB41E51 SLP036 P0000 60000 T00001050 10039 20000 53013
14840KMKG MKG20060314010012803/14/06 01:00:31  5-MIN KMKG 140600Z 29017G30KT 10SM BKN025 OVC032 00/M05 A2962 900 69 -600 290/17G30 RMK AO2 PK WND 27029/0556
14840KMKG MKG20060314010512803/14/06 01:05:31  5-MIN KMKG 140605Z 29020G29KT 10SM BKN025 OVC034 00/M06 A2963 900 66 -600 290/20G29 RMK AO2 PK WND 30029/0603
14840KMKG MKG20060314011012803/14/06 01:10:31  5-MIN KMKG 140610Z 29022G29KT 10SM SCT025 OVC034 00/M06 A2963 900 66 -600 300/22G29 RMK AO2 PK WND 30029/0603
14840KMKG MKG20060314011512803/14/06 01:15:31  5-MIN KMKG 140615Z 30021G31KT 10SM SCT025 OVC034 00/M06 A2963 900 63 -600 300/21G31 RMK AO2 PK WND 28031/0611
14840KMKG MKG20060314012012803/14/06 01:20:31  5-MIN KMKG 140620Z 29022G31KT 10SM SCT025 OVC034 00/M06 A2963 900 66 -600 290/22G31 RMK AO2 PK WND 28031/0611
14840KMKG MKG20060314012512803/14/06 01:25:31  5-MIN KMKG 140625Z 28022G32KT 10SM FEW027 OVC034 00/M05 A2963 900 69 -600 280/22G32 RMK AO2 PK WND 28032/0625
14840KMKG MKG20060314013012803/14/06 01:30:31  5-MIN KMKG 140630Z 29024G32KT 10SM FEW027 OVC034 00/M06 A2963 900 66 -600 290/24G32 RMK AO2 PK WND 28032/0625
14840KMKG MKG20060314013512803/14/06 01:35:31  5-MIN KMKG 140635Z 29022G31KT 10SM FEW027 OVC034 00/M06 A2963 900 66 -600 290/22G31 RMK AO2 PK WND 28032/0625
14840KMKG MKG20060314014012803/14/06 01:40:31  5-MIN KMKG 140640Z 29021G31KT 10SM FEW027 OVC034 00/M06 A2964 890 63 -600 300/21G31 RMK AO2 PK WND 28032/0625
14840KMKG MKG20060314014512803/14/06 01:45:31  5-MIN KMKG 140645Z 30025G30KT 10SM FEW027 OVC034 00/M06 A2964 890 63 -600 300/25G30 RMK AO2 PK WND 28032/0625
14840KMKG MKG20060314015014503/14/06 01:50:31  5-MIN KMKG 140650Z 29023G30KT 10SM SCT027 OVC034 00/M06 A2964 890 66 -600 290/23G30 RMK AO2 PK WND 28032/0625 SLP041 T00001056
14840KMKG MKG20060314015514503/14/06 01:55:31  5-MIN KMKG 140655Z 29020G30KT 10SM SCT028 OVC035 00/M06 A2964 890 66 -600 290/20G30 RMK AO2 PK WND 28032/0625 SLP042 T00001056
14840KMKG MKG20060314020012803/14/06 02:00:31  5-MIN KMKG 140700Z 30021G29KT 10SM SCT028 OVC033 00/M06 A2965 880 63 -600 300/21G29 RMK AO2 PK WND 29029/0700
14840KMKG MKG20060314020512103/14/06 02:05:31  5-MIN KMKG 140705Z 29016G29KT 10SM OVC032 00/M06 A2964 890 63 -600 300/16G29 RMK AO2 PK WND 29029/0700
14840KMKG MKG20060314021012803/14/06 02:10:31  5-MIN KMKG 140710Z 29024G31KT 10SM SCT028 OVC035 00/M06 A2965 890 63 -600 300/24G31 RMK AO2 PK WND 28031/0709
14840KMKG MKG20060314021512803/14/06 02:15:31  5-MIN KMKG 140715Z 28021G31KT 10SM SCT027 OVC033 00/M06 A2965 880 66 -600 290/21G31 RMK AO2 PK WND 28031/0709
14840KMKG MKG20060314022014403/14/06 02:20:31  5-MIN KMKG 140720Z 27021G28KT 10SM UP SCT024 OVC033 M01/M05 A2965 880 72 -700 270/21G28 RMK AO2 PK WND 28031/0709 UPB16 P0000
14840KMKG MKG20060314022514403/14/06 02:25:31  5-MIN KMKG 140725Z 28018G28KT 7SM -SN BKN024 OVC033 M01/M05 A2965 880 72 -700 290/18G28 RMK AO2 PK WND 28031/0709 SNB16 P0000
14840KMKG MKG20060314023015103/14/06 02:30:31  5-MIN KMKG 140730Z 29019G28KT 6SM -SN FEW020 BKN026 OVC033 M01/M04 A2965 880 75 -700 290/19G28 RMK AO2 PK WND 28031/0709 SNB16 P0000
14840KMKG MKG20060314023514403/14/06 02:35:31  5-MIN KMKG 140735Z 29019G28KT 6SM -SN BKN023 OVC028 M01/M05 A2965 880 72 -700 290/19G28 RMK AO2 PK WND 28031/0709 SNB16 P0000
14840KMKG MKG20060314024014403/14/06 02:40:31  5-MIN KMKG 140740Z 29024G30KT 7SM -SN SCT019 OVC025 M01/M04 A2965 880 75 -700 290/24G30 RMK AO2 PK WND 28031/0709 SNB16 P0000
14840KMKG MKG20060314024514403/14/06 02:45:31  5-MIN KMKG 140745Z 28021G30KT 8SM -SN BKN019 OVC025 M01/M05 A2965 880 75 -800 290/21G30 RMK AO2 PK WND 28031/0709 SNB16 P0000
14840KMKG MKG20060314025016803/14/06 02:50:31  5-MIN KMKG 140750Z 29021G28KT 9SM -SN FEW018 BKN024 OVC029 M01/M06 A2965 880 72 -800 290/21G28 RMK AO2 PK WND 28031/0709 SLP046 SNB16 P0000 T10111056
14840KMKG MKG20060314025516103/14/06 02:55:31  5-MIN KMKG 140755Z 28019G28KT 8SM -SN FEW018 OVC027 M01/M06 A2965 880 72 -800 290/19G28 RMK AO2 PK WND 28031/0709 SNB16 SLP046 P0000 T10111056
14840KMKG MKG20060314030012703/14/06 03:00:31  5-MIN KMKG 140800Z 30016G24KT 8SM -SN FEW018 BKN024 OVC029 M01/M06 A2965 880 72 -800 300/16G24 RMK AO2 P0000
14840KMKG MKG20060314030513803/14/06 03:05:31  5-MIN KMKG 140805Z 30020G29KT 7SM -SN BKN022 OVC029 M01/M06 A2966 870 72 -800 300/20G29 RMK AO2 PK WND 29029/0805 P0000
14840KMKG MKG20060314031014503/14/06 03:10:31  5-MIN KMKG 140810Z 30022G29KT 6SM -SN BKN022 BKN029 OVC035 M01/M06 A2966 870 72 -800 300/22G29 RMK AO2 PK WND 30029/0808 P0000
14840KMKG MKG20060314031514503/14/06 03:15:31  5-MIN KMKG 140815Z 29016G29KT 5SM -SN BKN022 BKN030 OVC035 M01/M05 A2966 870 75 -800 290/16G29 RMK AO2 PK WND 30029/0808 P0000
14840KMKG MKG20060314032016203/14/06 03:20:31  5-MIN KMKG 140820Z 29020G29KT 4SM -SN FEW013 BKN022 OVC033 M02/M06 A2966 870 75 -900 300/20G29 RMK AO2 PK WND 30029/0818 VIS 2 1/2 RWY 14 P0000
14840KMKG MKG20060314032514503/14/06 03:25:31  5-MIN KMKG 140825Z 29023G29KT 4SM -SN FEW013 SCT022 OVC033 M02/M06 A2967 860 75 -900 290/23G29 RMK AO2 PK WND 29029/0825 P0000
14840KMKG MKG20060314033014503/14/06 03:30:31  5-MIN KMKG 140830Z 29018G29KT 7SM -SN FEW013 BKN034 OVC042 M01/M06 A2966 870 72 -800 290/18G29 RMK AO2 PK WND 29029/0825 P0000
14840KMKG MKG20060314033514503/14/06 03:35:31  5-MIN KMKG 140835Z 30020G27KT 5SM -SN SCT019 BKN034 OVC065 M02/M05 A2966 870 78 -900 300/20G27 RMK AO2 PK WND 29029/0825 P0000
14840KMKG MKG20060314034014503/14/06 03:40:31  5-MIN KMKG 140840Z 29017G27KT 3SM -SN BKN019 BKN033 OVC043 M02/M05 A2966 870 78 -900 300/17G27 RMK AO2 PK WND 29029/0825 P0000
14840KMKG MKG20060314034514903/14/06 03:45:31  5-MIN KMKG 140845Z 29021G29KT 2 1/2SM -SN BKN017 BKN032 OVC040 M02/M05 A2967 860 78 -900 300/21G29 RMK AO2 PK WND 30029/0845 P0000
14840KMKG MKG20060314035014903/14/06 03:50:31  5-MIN KMKG 140850Z 29017G29KT 1 3/4SM -SN FEW010 BKN019 OVC065 M02/M05 A2967 860 78 -900 290/17G29 RMK AO2 PK WND 29029/0846 P0000
14840KMKG MKG20060314035517403/14/06 03:55:31  5-MIN KMKG 140855Z 29018G29KT 2SM -SN FEW012 BKN019 OVC042 M02/M05 A2967 870 78 -900 300/18G29 RMK AO2 PK WND 29029/0846 SLP052 P0000 60000 T10171050 51008
14840KMKG MKG20060314040012703/14/06 04:00:31  5-MIN KMKG 140900Z 29021G25KT 3SM -SN BKN015 BKN022 OVC030 M02/M05 A2967 860 78 -900 300/21G25 RMK AO2 P0000
14840KMKG MKG20060314040514503/14/06 04:05:31  5-MIN KMKG 140905Z 30022G29KT 4SM -SN SCT010 BKN018 OVC030 M02/M06 A2968 860 75 -900 310/22G29 RMK AO2 PK WND 29029/0905 P0000
14840KMKG MKG20060314041014503/14/06 04:10:31  5-MIN KMKG 140910Z 29021G29KT 3SM -SN SCT010 BKN018 OVC027 M02/M06 A2967 860 72 -900 290/21G29 RMK AO2 PK WND 30029/0906 P0000
14840KMKG MKG20060314041516003/14/06 04:15:31  5-MIN KMKG 140915Z 30017G26KT 4SM -SN FEW010 SCT020 OVC027 M02/M06 A2968 860 72 -900 300/17G26 RMK AO2 PK WND 30029/0906 CIG 021 RWY 14 P0000
14840KMKG MKG20060314042014503/14/06 04:20:31  5-MIN KMKG 140920Z 29020G26KT 6SM -SN FEW015 BKN025 OVC041 M02/M06 A2968 850 72 -900 300/20G26 RMK AO2 PK WND 30029/0906 P0000
14840KMKG MKG20060314042514503/14/06 04:25:31  5-MIN KMKG 140925Z 31020G28KT 8SM -SN BKN025 BKN031 OVC050 M02/M07 A2968 850 66 -900 310/20G28 RMK AO2 PK WND 30029/0906 P0000
14840KMKG MKG20060314043014703/14/06 04:30:31  5-MIN KMKG 140930Z 30021G28KT 9SM FEW025 BKN030 OVC050 M01/M08 A2968 850 60 -800 300/21G28 RMK AO2 PK WND 30029/0906 SNE28 P0000
14840KMKG MKG20060314043514803/14/06 04:35:31  5-MIN KMKG 140935Z 30019G28KT 10SM SCT027 BKN033 OVC050 M01/M08 A2969 850 60 -800 300/19G28 RMK AO2 PK WND 30029/0906 SNE28 P0000
14840KMKG MKG20060314044014503/14/06 04:40:31  5-MIN KMKG 140940Z 30022G28KT 8SM -SN FEW025 BKN033 OVC050 M02/M07 A2969 850 66 -900 310/22G28 RMK AO2 PK WND 30029/0906 P0000
14840KMKG MKG20060314044514503/14/06 04:45:31  5-MIN KMKG 140945Z 30019G30KT 8SM -SN BKN030 BKN041 OVC050 M02/M08 A2969 840 63 -900 310/19G30 RMK AO2 PK WND 30030/0941 P0000
14840KMKG MKG20060314045016203/14/06 04:50:31  5-MIN KMKG 140950Z 29018G30KT 8SM -SN SCT028 BKN034 OVC050 M02/M07 A2969 840 69 -900 300/18G30 RMK AO2 PK WND 30030/0941 SLP061 P0000 T10171067
14840KMKG MKG20060314045516203/14/06 04:55:31  5-MIN KMKG 140955Z 30018G33KT 8SM -SN FEW028 BKN034 OVC043 M02/M07 A2969 840 66 -900 300/18G33 RMK AO2 PK WND 29033/0951 SLP061 P0000 T10171072
14840KMKG MKG20060314050013803/14/06 05:00:31  5-MIN KMKG 141000Z 29022G33KT 7SM -SN BKN032 OVC041 M02/M07 A2970 840 66 -900 300/22G33 RMK AO2 PK WND 31033/0957 P0000
14840KMKG MKG20060314050513803/14/06 05:05:31  5-MIN KMKG 141005Z 30015G33KT 7SM -SN BKN032 OVC041 M02/M07 A2970 840 66 -900 300/15G33 RMK AO2 PK WND 31033/0957 P0000
14840KMKG MKG20060314051015503/14/06 05:10:31  5-MIN KMKG 141010Z 30018G26KT 9SM SCT030 OVC038 M02/M08 A2970 840 63 -900 300/18G26 RMK AO2 PK WND 31033/0957 SNE10 CIG 031 RWY 14 P0000
14840KMKG MKG20060314051514703/14/06 05:15:31  5-MIN KMKG 141015Z 30022G30KT 9SM BKN033 BKN042 OVC049 M01/M08 A2971 830 60 -900 300/22G30 RMK AO2 PK WND 31033/0957 SNE10 P0000
14840KMKG MKG20060314052014803/14/06 05:20:31  5-MIN KMKG 141020Z 30020G30KT 10SM BKN035 BKN042 OVC049 M01/M08 A2971 830 60 -900 310/20G30 RMK AO2 PK WND 31033/0957 SNE10 P0000
14840KMKG MKG20060314052516303/14/06 05:25:31  5-MIN KMKG 141025Z 30020G31KT 10SM SCT032 BKN042 OVC049 M01/M08 A2971 820 60 -900 300/20G31 RMK AO2 PK WND 31033/0957 SNE10 CIG 035 RWY 14 P0000
14840KMKG MKG20060314053014803/14/06 05:30:31  5-MIN KMKG 141030Z 30021G31KT 10SM BKN036 BKN047 OVC055 M02/M08 A2972 820 63 -900 300/21G31 RMK AO2 PK WND 31033/0957 SNE10 P0000
14840KMKG MKG20060314053517003/14/06 05:35:31  5-MIN KMKG 141035Z 30018G28KT 10SM -SN SCT033 BKN041 OVC050 M02/M07 A2972 820 66 -900 310/18G28 RMK AO2 PK WND 31033/0957 SNE10B33 CIG 033 RWY 14 P0000
14840KMKG MKG20060314054015403/14/06 05:40:31  5-MIN KMKG 141040Z 29020G27KT 9SM -SN FEW026 BKN033 OVC055 M02/M07 A2972 810 66 -900 300/20G27 RMK AO2 PK WND 31033/0957 SNE10B33 P0000
14840KMKG MKG20060314054515403/14/06 05:45:31  5-MIN KMKG 141045Z 30018G25KT 6SM -SN BKN029 BKN033 OVC048 M02/M07 A2972 810 69 -900 300/18G25 RMK AO2 PK WND 31033/0957 SNE10B33 P0000
14840KMKG MKG20060314055015403/14/06 05:50:31  5-MIN KMKG 141050Z 30020G26KT 6SM -SN BKN027 BKN036 OVC055 M02/M07 A2973 810 69 -900 300/20G26 RMK AO2 PK WND 31033/0957 SNE10B33 P0000
14840KMKG MKG20060314055517103/14/06 05:55:31  5-MIN KMKG 141055Z 29021G30KT 5SM -SN BKN025 BKN033 OVC042 M02/M07 A2972 810 69 -900 290/21G30 RMK AO2 PK WND 31033/0957 SNE10B33 SLP071 P0000 T10171067
14840KMKG MKG20060314060014603/14/06 06:00:31  5-MIN KMKG 141100Z 30020G30KT 5SM -SN BKN027 BKN035 OVC042 M02/M07 A2973 810 69 -1000 310/20G30 RMK AO2 PK WND 30026/1100 P0000
14840KMKG MKG20060314060514503/14/06 06:05:31  5-MIN KMKG 141105Z 30019G27KT 8SM -SN BKN027 BKN038 OVC050 M02/M07 A2973 810 66 -900 310/19G27 RMK AO2 PK WND 29027/1101 P0000
14840KMKG MKG20060314061013903/14/06 06:10:31  5-MIN KMKG 141110Z 30023G30KT 7SM -SN BKN027 OVC035 M02/M07 A2973 800 69 -1000 310/23G30 RMK AO2 PK WND 30030/1109 P0000
14840KMKG MKG20060314061514503/14/06 06:15:31  5-MIN KMKG 141115Z 30023G30KT 6SM -SN SCT023 BKN027 OVC038 M02/M07 A2973 810 66 -900 310/23G30 RMK AO2 PK WND 30030/1115 P0000
14840KMKG MKG20060314062013903/14/06 06:20:31  5-MIN KMKG 141120Z 29019G30KT 6SM -SN BKN024 OVC037 M02/M07 A2973 800 66 -1000 300/19G30 RMK AO2 PK WND 30030/1115 P0000
14840KMKG MKG20060314062513903/14/06 06:25:31  5-MIN KMKG 141125Z 29021G28KT 6SM -SN BKN027 OVC037 M02/M07 A2974 800 66 -1000 300/21G28 RMK AO2 PK WND 30030/1115 P0000
14840KMKG MKG20060314063013903/14/06 06:30:31  5-MIN KMKG 141130Z 29023G33KT 6SM -SN BKN025 OVC037 M02/M07 A2974 800 69 -1000 300/23G33 RMK AO2 PK WND 30033/1130 P0000
14840KMKG MKG20060314063514603/14/06 06:35:31  5-MIN KMKG 141135Z 29022G33KT 4SM -SN SCT020 BKN028 OVC037 M02/M07 A2975 790 69 -1000 290/22G33 RMK AO2 PK WND 30033/1130 P0000
14840KMKG MKG20060314064014603/14/06 06:40:31  5-MIN KMKG 141140Z 30018G31KT 5SM -SN SCT020 BKN028 OVC050 M02/M07 A2974 790 69 -1000 310/18G31 RMK AO2 PK WND 30033/1130 P0000
14840KMKG MKG20060314064514603/14/06 06:45:31  5-MIN KMKG 141145Z 30021G28KT 8SM -SN FEW024 BKN034 OVC046 M02/M07 A2974 800 66 -1000 310/21G28 RMK AO2 PK WND 30033/1130 P0000
14840KMKG MKG20060314065019303/14/06 06:50:31  5-MIN KMKG 141150Z 30024G32KT 8SM -SN FEW022 BKN034 OVC046 M02/M07 A2975 790 66 -1000 300/24G32 RMK AO2 PK WND 30033/1130 SLP080 P0000 60000 70001 T10171072 10000 21017 53027
14840KMKG MKG20060314065519203/14/06 06:55:31  5-MIN KMKG 141155Z 29020G32KT 9SM -SN FEW022 BKN034 OVC050 M01/M07 A2975 790 63 -900 300/20G32 RMK AO2 PK WND 30033/1130 SLP079 P0000 60000 70001 T10111072 10000 21017 50018
14840KMKG MKG20060314070014503/14/06 07:00:31  5-MIN KMKG 141200Z 30020G29KT 9SM -SN SCT026 BKN034 OVC047 M01/M07 A2976 780 66 -900 310/20G29 RMK AO2 PK WND 30029/1158 P0000
14840KMKG MKG20060314070514503/14/06 07:05:31  5-MIN KMKG 141205Z 30015G29KT 8SM -SN SCT026 BKN034 OVC047 M01/M07 A2975 780 66 -900 310/15G29 RMK AO2 PK WND 30029/1158 P0000
14840KMKG MKG20060314071014603/14/06 07:10:31  5-MIN KMKG 141210Z 29018G25KT 8SM -SN BKN028 BKN040 OVC049 M02/M06 A2976 780 72 -1000 290/18G25 RMK AO2 PK WND 30029/1158 P0000
14840KMKG MKG20060314071514603/14/06 07:15:31  5-MIN KMKG 141215Z 30023G30KT 6SM -SN BKN028 BKN035 OVC046 M02/M07 A2976 780 69 -1000 310/23G30 RMK AO2 PK WND 31030/1214 P0000
14840KMKG MKG20060314072014603/14/06 07:20:31  5-MIN KMKG 141220Z 30022G31KT 6SM -SN BKN028 BKN034 OVC042 M02/M07 A2977 770 69 -1000 300/22G31 RMK AO2 PK WND 31031/1218 P0000
14840KMKG MKG20060314072513903/14/06 07:25:31  5-MIN KMKG 141225Z 30024G31KT 6SM -SN BKN028 OVC035 M02/M07 A2977 770 69 -1000 300/24G31 RMK AO2 PK WND 31031/1218 P0000
14840KMKG MKG20060314073013803/14/06 07:30:31  5-MIN KMKG 141230Z 30020G29KT 7SM -SN BKN028 OVC039 M01/M07 A2977 770 63 -900 300/20G29 RMK AO2 PK WND 31031/1218 P0000
14840KMKG MKG20060314073514503/14/06 07:35:31  5-MIN KMKG 141235Z 29017G25KT 9SM -SN BKN028 BKN034 OVC043 M01/M07 A2977 770 66 -900 300/17G25 RMK AO2 PK WND 31031/1218 P0000
14840KMKG MKG20060314074014703/14/06 07:40:31  5-MIN KMKG 141240Z 30022G27KT 9SM BKN028 BKN035 OVC043 M01/M07 A2978 760 63 -900 300/22G27 RMK AO2 PK WND 31031/1218 SNE37 P0000
14840KMKG MKG20060314074513903/14/06 07:45:31  5-MIN KMKG 141245Z 29018G30KT 10SM -SN BKN028 OVC035 M01/M07 A2978 760 66 -900 300/18G30 RMK AO2 PK WND 31031/1218 P0000
14840KMKG MKG20060314075015503/14/06 07:50:31  5-MIN KMKG 141250Z 29019G30KT 9SM -SN BKN028 OVC035 M01/M07 A2978 760 63 -900 300/19G30 RMK AO2 PK WND 31031/1218 SLP092 P0000 T10111072
14840KMKG MKG20060314075515503/14/06 07:55:31  5-MIN KMKG 141255Z 29018G30KT 9SM -SN BKN030 OVC039 M01/M07 A2979 750 66 -900 290/18G30 RMK AO2 PK WND 31031/1218 SLP093 P0000 T10111067
14840KMKG MKG20060314080013903/14/06 08:00:31  5-MIN KMKG 141300Z 30018G27KT 7SM -SN BKN028 OVC038 M02/M07 A2979 750 69 -1000 300/18G27 RMK AO2 PK WND 28026/1256 P0000
14840KMKG MKG20060314080513903/14/06 08:05:31  5-MIN KMKG 141305Z 29018G26KT 6SM -SN BKN028 OVC038 M02/M07 A2979 750 69 -1000 290/18G26 RMK AO2 PK WND 28026/1303 P0000
14840KMKG MKG20060314081013903/14/06 08:10:31  5-MIN KMKG 141310Z 30022G29KT 6SM -SN BKN027 OVC033 M02/M07 A2980 750 69 -1000 300/22G29 RMK AO2 PK WND 30029/1310 P0000
14840KMKG MKG20060314081513903/14/06 08:15:31  5-MIN KMKG 141315Z 30019G29KT 6SM -SN BKN027 OVC033 M02/M07 A2980 740 69 -1000 300/19G29 RMK AO2 PK WND 30029/1310 P0000
14840KMKG MKG20060314082013903/14/06 08:20:31  5-MIN KMKG 141320Z 29021G28KT 9SM -SN BKN029 OVC036 M02/M07 A2980 740 66 -1000 300/21G28 RMK AO2 PK WND 30029/1310 P0000
14840KMKG MKG20060314082513903/14/06 08:25:31  5-MIN KMKG 141325Z 30023G29KT 9SM -SN BKN027 OVC036 M01/M08 A2980 740 60 -1000 300/23G29 RMK AO2 PK WND 29029/1325 P0000
14840KMKG MKG20060314083013203/14/06 08:30:31  5-MIN KMKG 141330Z 30016G29KT 9SM -SN OVC031 M01/M07 A2980 740 63 -1000 310/16G29 RMK AO2 PK WND 29029/1325 P0000
14840KMKG MKG20060314083513903/14/06 08:35:31  5-MIN KMKG 141335Z 29016G24KT 9SM -SN BKN031 OVC040 M01/M07 A2981 740 63 -1000 300/16G24 RMK AO2 PK WND 29029/1325 P0000
14840KMKG MKG20060314084013203/14/06 08:40:31  5-MIN KMKG 141340Z 30017G24KT 9SM -SN OVC031 M01/M07 A2981 730 63 -1000 300/17G24 RMK AO2 PK WND 29029/1325 P0000
14840KMKG MKG20060314084513903/14/06 08:45:31  5-MIN KMKG 141345Z 29021G29KT 9SM -SN BKN031 OVC041 M02/M07 A2981 730 66 -1000 290/21G29 RMK AO2 PK WND 28029/1344 P0000
14840KMKG MKG20060314085015603/14/06 08:50:31  5-MIN KMKG 141350Z 30020G29KT 9SM -SN BKN031 OVC041 M02/M08 A2981 730 63 -1000 310/20G29 RMK AO2 PK WND 28029/1344 SLP102 P0000 T10171078
14840KMKG MKG20060314085514903/14/06 08:55:31  5-MIN KMKG 141355Z 30019G28KT 9SM -SN OVC033 M02/M08 A2982 720 63 -1100 300/19G28 RMK AO2 PK WND 28029/1344 SLP105 P0000 T10171078
14840KMKG MKG20060314090013203/14/06 09:00:31  5-MIN KMKG 141400Z 30019G28KT 9SM -SN OVC033 M02/M08 A2982 720 63 -1100 300/19G28 RMK AO2 PK WND 30028/1358 P0000
14840KMKG MKG20060314090513903/14/06 09:05:31  5-MIN KMKG 141405Z 30024G29KT 9SM -SN BKN033 OVC040 M02/M08 A2982 720 63 -1100 300/24G29 RMK AO2 PK WND 30029/1405 P0000
14840KMKG MKG20060314091013203/14/06 09:10:31  5-MIN KMKG 141410Z 30019G29KT 9SM -SN OVC033 M02/M08 A2982 720 63 -1100 310/19G29 RMK AO2 PK WND 30029/1405 P0000
14840KMKG MKG20060314091513203/14/06 09:15:31  5-MIN KMKG 141415Z 30020G26KT 9SM -SN OVC033 M02/M08 A2983 720 63 -1100 300/20G26 RMK AO2 PK WND 30029/1405 P0000
14840KMKG MKG20060314092013203/14/06 09:20:31  5-MIN KMKG 141420Z 30019G26KT 9SM -SN OVC033 M02/M08 A2983 710 63 -1100 310/19G26 RMK AO2 PK WND 30029/1405 P0000
14840KMKG MKG20060314092513203/14/06 09:25:31  5-MIN KMKG 141425Z 30018G26KT 9SM -SN OVC033 M02/M08 A2983 710 63 -1100 300/18G26 RMK AO2 PK WND 30029/1405 P0000
14840KMKG MKG20060314093013203/14/06 09:30:31  5-MIN KMKG 141430Z 30020G25KT 9SM -SN OVC033 M02/M08 A2984 710 63 -1100 300/20G25 RMK AO2 PK WND 30029/1405 P0000
14840KMKG MKG20060314093513203/14/06 09:35:31  5-MIN KMKG 141435Z 31019G26KT 9SM -SN OVC033 M02/M08 A2984 710 63 -1100 310/19G26 RMK AO2 PK WND 30029/1405 P0000
14840KMKG MKG20060314094013203/14/06 09:40:31  5-MIN KMKG 141440Z 30016G26KT 9SM -SN OVC033 M02/M07 A2984 710 66 -1100 300/16G26 RMK AO2 PK WND 30029/1405 P0000
14840KMKG MKG20060314094515603/14/06 09:45:31  5-MIN KMKG 141445Z 30014G25KT 9SM SCT026 OVC033 M02/M07 A2984 710 66 -1100 310/14G25 RMK AO2 PK WND 30029/1405 SNE41 CIG 028 RWY 14 P0000
14840KMKG MKG20060314095014203/14/06 09:50:31  5-MIN KMKG 141450Z 30019G25KT 10SM BKN026 OVC033 M02/M07 A2984 710 66 -1100 300/19G25 RMK AO2 PK WND 30029/1405 SNE41 P0000
14840KMKG MKG20060314095516903/14/06 09:55:31  5-MIN KMKG 141455Z 30017G25KT 10SM -SN BKN026 OVC033 M02/M07 A2985 700 66 -1100 310/17G25 RMK AO2 PK WND 30029/1405 SLP114 P0000 60000 T10171072 51033
14840KMKG MKG20060314100012103/14/06 10:00:31  5-MIN KMKG 141500Z 30014G23KT 9SM -SN BKN026 OVC033 M02/M07 A2984 700 69 -1100 300/14G23 RMK AO2 P0000
14840KMKG MKG20060314100512103/14/06 10:05:31  5-MIN KMKG 141505Z 30015G21KT 9SM -SN BKN026 OVC033 M02/M07 A2984 700 69 -1100 300/15G21 RMK AO2 P0000
14840KMKG MKG20060314101011403/14/06 10:10:31  5-MIN KMKG 141510Z 31017G21KT 9SM -SN OVC026 M02/M07 A2984 700 69 -1100 310/17G21 RMK AO2 P0000
14840KMKG MKG20060314101511403/14/06 10:15:31  5-MIN KMKG 141515Z 29018G24KT 9SM -SN OVC026 M02/M07 A2985 700 69 -1100 290/18G24 RMK AO2 P0000
14840KMKG MKG20060314102011403/14/06 10:20:31  5-MIN KMKG 141520Z 28020G25KT 9SM -SN OVC026 M02/M07 A2985 700 69 -1100 290/20G25 RMK AO2 P0000
14840KMKG MKG20060314102511403/14/06 10:25:31  5-MIN KMKG 141525Z 29018G25KT 9SM -SN OVC026 M02/M07 A2985 690 69 -1100 300/18G25 RMK AO2 P0000
14840KMKG MKG20060314103011403/14/06 10:30:31  5-MIN KMKG 141530Z 30014G23KT 9SM -SN OVC026 M02/M07 A2985 700 69 -1100 300/14G23 RMK AO2 P0000
14840KMKG MKG20060314103513903/14/06 10:35:31  5-MIN KMKG 141535Z 30016G26KT 9SM -SN BKN024 OVC032 M01/M07 A2985 690 66 -1000 310/16G26 RMK AO2 PK WND 30026/1533 P0000
14840KMKG MKG20060314104014103/14/06 10:40:31  5-MIN KMKG 141540Z 29016G26KT 9SM BKN024 OVC034 M01/M07 A2985 690 66 -1000 290/16G26 RMK AO2 PK WND 30026/1533 SNE36 P0000
14840KMKG MKG20060314104514203/14/06 10:45:31  5-MIN KMKG 141545Z 29015G25KT 10SM BKN024 OVC034 M01/M07 A2985 690 66 -1000 290/15G25 RMK AO2 PK WND 30026/1533 SNE36 P0000
14840KMKG MKG20060314105014203/14/06 10:50:31  5-MIN KMKG 141550Z 30016G23KT 10SM SCT024 OVC034 M01/M07 A2986 690 66 -1000 300/16G23 RMK AO2 PK WND 30026/1533 SNE36 P0000
14840KMKG MKG20060314105516603/14/06 10:55:31  5-MIN KMKG 141555Z 30016G23KT 10SM FEW022 SCT027 OVC034 M02/M07 A2986 680 66 -1100 300/16G23 RMK AO2 PK WND 30026/1533 SNE36 SLP119 P0000 T10171072
14840KMKG MKG20060314110011903/14/06 11:00:31  5-MIN KMKG 141600Z 29015G23KT 10SM FEW022 SCT027 OVC034 M02/M07 A2986 690 69 -1100 300/15G23 RMK AO2
14840KMKG MKG20060314110512703/14/06 11:05:31  5-MIN KMKG 141605Z 30014G23KT 10SM SCT023 OVC032 M02/M07 A2987 680 69 -1100 300/14G23 RMK AO2 CIG 025 RWY 14
14840KMKG MKG20060314111011203/14/06 11:10:31  5-MIN KMKG 141610Z 30016G22KT 10SM BKN023 OVC032 M02/M07 A2987 680 69 -1100 300/16G22 RMK AO2
14840KMKG MKG20060314111511203/14/06 11:15:31  5-MIN KMKG 141615Z 30015G22KT 10SM BKN023 OVC032 M02/M07 A2987 680 69 -1100 310/15G22 RMK AO2
14840KMKG MKG20060314112011203/14/06 11:20:31  5-MIN KMKG 141620Z 30017G22KT 10SM BKN023 OVC030 M02/M07 A2987 680 69 -1100 310/17G22 RMK AO2
14840KMKG MKG20060314112510503/14/06 11:25:31  5-MIN KMKG 141625Z 29019G23KT 10SM OVC023 M02/M07 A2987 680 69 -1100 300/19G23 RMK AO2
14840KMKG MKG20060314113010503/14/06 11:30:31  5-MIN KMKG 141630Z 30016G23KT 10SM OVC023 M02/M07 A2987 680 66 -1100 300/16G23 RMK AO2
14840KMKG MKG20060314113510503/14/06 11:35:31  5-MIN KMKG 141635Z 30016G22KT 10SM OVC023 M02/M07 A2987 680 66 -1100 300/16G22 RMK AO2
14840KMKG MKG20060314114010503/14/06 11:40:31  5-MIN KMKG 141640Z 30016G22KT 10SM OVC023 M02/M07 A2987 670 66 -1100 300/16G22 RMK AO2
14840KMKG MKG20060314114509903/14/06 11:45:31  5-MIN KMKG 141645Z 28016KT 10SM OVC025 M02/M07 A2987 670 66 -1100 290/16 RMK AO2
14840KMKG MKG20060314115012203/14/06 11:50:31  5-MIN KMKG 141650Z 30016G21KT 10SM OVC025 M02/M07 A2987 670 69 -1100 300/16G21 RMK AO2 SLP123 T10171067
14840KMKG MKG20060314115512203/14/06 11:55:31  5-MIN KMKG 141655Z 29017G22KT 10SM OVC025 M02/M07 A2987 670 69 -1100 300/17G22 RMK AO2 SLP124 T10171067
14840KMKG MKG20060314120010503/14/06 12:00:31  5-MIN KMKG 141700Z 29015G22KT 10SM OVC025 M01/M07 A2987 670 66 -1000 290/15G22 RMK AO2
14840KMKG MKG20060314120510503/14/06 12:05:31  5-MIN KMKG 141705Z 29012G21KT 10SM OVC025 M01/M07 A2987 670 66 -1000 300/12G21 RMK AO2
14840KMKG MKG20060314121009903/14/06 12:10:31  5-MIN KMKG 141710Z 30017KT 10SM OVC025 M01/M07 A2988 670 66 -1000 300/17 RMK AO2
14840KMKG MKG20060314121510503/14/06 12:15:31  5-MIN KMKG 141715Z 31015G19KT 10SM OVC025 M02/M07 A2988 670 66 -1100 310/15G19 RMK AO2
14840KMKG MKG20060314122010603/14/06 12:20:31  5-MIN KMKG 141720Z 28015KT 10SM SCT022 OVC027 M02/M07 A2988 670 69 -1100 290/15 RMK AO2
14840KMKG MKG20060314122510503/14/06 12:25:31  5-MIN KMKG 141725Z 30017G22KT 10SM OVC025 M01/M07 A2988 670 66 -1100 300/17G22 RMK AO2
14840KMKG MKG20060314123010503/14/06 12:30:31  5-MIN KMKG 141730Z 31016G22KT 10SM OVC025 M02/M07 A2989 660 66 -1100 310/16G22 RMK AO2
14840KMKG MKG20060314123510503/14/06 12:35:31  5-MIN KMKG 141735Z 30013G22KT 10SM OVC025 M02/M07 A2989 660 69 -1100 310/13G22 RMK AO2
14840KMKG MKG20060314124012303/14/06 12:40:31  5-MIN KMKG 141740Z 29019G26KT 10SM OVC025 M02/M07 A2989 660 69 -1100 290/19G26 RMK AO2 PK WND 30026/1740
14840KMKG MKG20060314124512303/14/06 12:45:31  5-MIN KMKG 141745Z 29014G26KT 10SM OVC025 M02/M07 A2989 660 69 -1100 300/14G26 RMK AO2 PK WND 30026/1740
14840KMKG MKG20060314125016403/14/06 12:50:31  5-MIN KMKG 141750Z 30017G22KT 10SM OVC025 M02/M07 A2989 660 69 -1100 300/17G22 RMK AO2 PK WND 30026/1740 SLP129 60000 T10171067 11011 21017 51033
14840KMKG MKG20060314125516403/14/06 12:55:31  5-MIN KMKG 141755Z 30017G22KT 10SM OVC025 M01/M07 A2989 660 66 -1100 300/17G22 RMK AO2 PK WND 30026/1740 SLP130 60000 T10111067 11011 21017 53011
14840KMKG MKG20060314130011203/14/06 13:00:31  5-MIN KMKG 141800Z 30017G22KT 10SM BKN025 OVC031 M01/M07 A2989 660 63 -1100 300/17G22 RMK AO2
14840KMKG MKG20060314130510503/14/06 13:05:31  5-MIN KMKG 141805Z 30012G22KT 10SM OVC025 M02/M07 A2990 650 69 -1100 310/12G22 RMK AO2
14840KMKG MKG20060314131010503/14/06 13:10:31  5-MIN KMKG 141810Z 30016G20KT 10SM OVC025 M02/M07 A2990 650 69 -1100 300/16G20 RMK AO2
14840KMKG MKG20060314131510503/14/06 13:15:31  5-MIN KMKG 141815Z 30017G24KT 10SM OVC025 M02/M07 A2990 650 69 -1100 310/17G24 RMK AO2
14840KMKG MKG20060314132010503/14/06 13:20:31  5-MIN KMKG 141820Z 28015G24KT 10SM OVC027 M01/M07 A2989 650 66 -1100 280/15G24 RMK AO2
14840KMKG MKG20060314132510503/14/06 13:25:31  5-MIN KMKG 141825Z 29015G22KT 10SM OVC025 M01/M07 A2990 650 66 -1100 300/15G22 RMK AO2
14840KMKG MKG20060314133010503/14/06 13:30:31  5-MIN KMKG 141830Z 29016G22KT 10SM OVC025 M02/M07 A2990 650 69 -1100 290/16G22 RMK AO2
14840KMKG MKG20060314133510503/14/06 13:35:31  5-MIN KMKG 141835Z 29017G21KT 10SM OVC025 M02/M07 A2990 650 66 -1100 300/17G21 RMK AO2
14840KMKG MKG20060314134010503/14/06 13:40:31  5-MIN KMKG 141840Z 30014G23KT 10SM OVC025 M02/M07 A2990 650 69 -1100 300/14G23 RMK AO2
14840KMKG MKG20060314134510503/14/06 13:45:31  5-MIN KMKG 141845Z 28016G23KT 10SM OVC025 M02/M07 A2990 650 69 -1100 290/16G23 RMK AO2
14840KMKG MKG20060314135012203/14/06 13:50:31  5-MIN KMKG 141850Z 29016G21KT 10SM OVC023 M02/M07 A2990 650 69 -1100 300/16G21 RMK AO2 SLP132 T10171067
14840KMKG MKG20060314135512203/14/06 13:55:31  5-MIN KMKG 141855Z 29016G25KT 10SM OVC023 M02/M07 A2990 650 66 -1100 290/16G25 RMK AO2 SLP131 T10171072
14840KMKG MKG20060314140010503/14/06 14:00:31  5-MIN KMKG 141900Z 29017G25KT 10SM OVC023 M02/M07 A2990 650 69 -1100 290/17G25 RMK AO2
14840KMKG MKG20060314140510503/14/06 14:05:31  5-MIN KMKG 141905Z 30015G23KT 10SM OVC023 M02/M07 A2989 660 69 -1100 300/15G23 RMK AO2
14840KMKG MKG20060314141010503/14/06 14:10:31  5-MIN KMKG 141910Z 30015G23KT 10SM OVC023 M02/M07 A2990 650 69 -1100 310/15G23 RMK AO2
14840KMKG MKG20060314141511203/14/06 14:15:31  5-MIN KMKG 141915Z 30015G21KT 10SM BKN024 OVC029 M01/M07 A2990 650 66 -1100 300/15G21 RMK AO2
14840KMKG MKG20060314142010503/14/06 14:20:31  5-MIN KMKG 141920Z 30016G21KT 10SM OVC026 M02/M07 A2990 650 69 -1100 310/16G21 RMK AO2
14840KMKG MKG20060314142510503/14/06 14:25:31  5-MIN KMKG 141925Z 30016G21KT 10SM OVC024 M02/M07 A2990 650 69 -1100 310/16G21 RMK AO2
14840KMKG MKG20060314143010503/14/06 14:30:31  5-MIN KMKG 141930Z 30018G23KT 10SM OVC024 M02/M07 A2990 640 69 -1200 300/18G23 RMK AO2
14840KMKG MKG20060314143510503/14/06 14:35:31  5-MIN KMKG 141935Z 30017G23KT 10SM OVC026 M02/M07 A2990 650 69 -1100 300/17G23 RMK AO2
14840KMKG MKG20060314144010503/14/06 14:40:31  5-MIN KMKG 141940Z 29014G21KT 10SM OVC026 M02/M07 A2991 640 66 -1200 300/14G21 RMK AO2
14840KMKG MKG20060314144509903/14/06 14:45:31  5-MIN KMKG 141945Z 30013KT 10SM OVC024 M02/M07 A2991 640 69 -1200 300/13 RMK AO2
14840KMKG MKG20060314145012203/14/06 14:50:31  5-MIN KMKG 141950Z 30014G20KT 10SM OVC024 M02/M07 A2990 650 69 -1200 300/14G20 RMK AO2 SLP135 T10171067
14840KMKG MKG20060314145512203/14/06 14:55:31  5-MIN KMKG 141955Z 30018G23KT 10SM OVC024 M02/M07 A2991 640 66 -1200 310/18G23 RMK AO2 SLP137 T10171072
14840KMKG MKG20060314150010503/14/06 15:00:31  5-MIN KMKG 142000Z 30015G23KT 10SM OVC024 M02/M07 A2991 640 69 -1200 300/15G23 RMK AO2
14840KMKG MKG20060314150510503/14/06 15:05:31  5-MIN KMKG 142005Z 30012G20KT 10SM OVC024 M02/M07 A2991 640 69 -1200 300/12G20 RMK AO2
14840KMKG MKG20060314151010503/14/06 15:10:31  5-MIN KMKG 142010Z 30016G22KT 10SM OVC024 M01/M07 A2991 640 66 -1100 300/16G22 RMK AO2
14840KMKG MKG20060314151510503/14/06 15:15:31  5-MIN KMKG 142015Z 29014G22KT 10SM OVC024 M01/M07 A2991 640 66 -1100 290/14G22 RMK AO2
14840KMKG MKG20060314152010503/14/06 15:20:31  5-MIN KMKG 142020Z 30019G24KT 10SM OVC026 M01/M07 A2992 630 66 -1100 300/19G24 RMK AO2
14840KMKG MKG20060314152512103/14/06 15:25:31  5-MIN KMKG 142025Z 29014G24KT 280V350 10SM OVC026 M01/M07 A2992 630 66 -1100 300/14G24 280V350 RMK AO2
14840KMKG MKG20060314153010503/14/06 15:30:31  5-MIN KMKG 142030Z 29014G21KT 10SM OVC026 M01/M07 A2992 630 66 -1100 300/14G21 RMK AO2
14840KMKG MKG20060314153510503/14/06 15:35:31  5-MIN KMKG 142035Z 30016G21KT 10SM OVC026 M01/M07 A2992 630 66 -1100 310/16G21 RMK AO2
14840KMKG MKG20060314154010503/14/06 15:40:31  5-MIN KMKG 142040Z 30014G21KT 10SM OVC028 M01/M07 A2993 630 66 -1100 310/14G21 RMK AO2
14840KMKG MKG20060314154510503/14/06 15:45:31  5-MIN KMKG 142045Z 29017G20KT 10SM OVC028 M01/M07 A2993 630 66 -1100 300/17G20 RMK AO2
14840KMKG MKG20060314155012203/14/06 15:50:31  5-MIN KMKG 142050Z 30015KT 10SM OVC028 M01/M07 A2992 630 63 -1000 300/15 RMK AO2 SLP141 T10061067 53011
14840KMKG MKG20060314155512803/14/06 15:55:31  5-MIN KMKG 142055Z 30016G19KT 10SM OVC028 M01/M07 A2993 630 66 -1100 300/16G19 RMK AO2 SLP142 T10111067 53011
14840KMKG MKG20060314160010503/14/06 16:00:31  5-MIN KMKG 142100Z 31014G21KT 10SM OVC028 M01/M07 A2993 620 63 -1000 310/14G21 RMK AO2
14840KMKG MKG20060314160510503/14/06 16:05:31  5-MIN KMKG 142105Z 31014G21KT 10SM OVC028 M01/M07 A2993 620 63 -1000 310/14G21 RMK AO2
14840KMKG MKG20060314161010503/14/06 16:10:31  5-MIN KMKG 142110Z 30014G20KT 10SM OVC028 M01/M06 A2993 620 66 -1000 310/14G20 RMK AO2
14840KMKG MKG20060314161510503/14/06 16:15:31  5-MIN KMKG 142115Z 30016G20KT 10SM OVC026 M01/M06 A2993 620 66 -1000 300/16G20 RMK AO2
14840KMKG MKG20060314162010503/14/06 16:20:31  5-MIN KMKG 142120Z 30015G20KT 10SM OVC026 M01/M06 A2993 620 66 -1000 310/15G20 RMK AO2
14840KMKG MKG20060314162510503/14/06 16:25:31  5-MIN KMKG 142125Z 30011G19KT 10SM OVC028 M01/M06 A2993 620 66 -1000 300/11G19 RMK AO2
14840KMKG MKG20060314163011203/14/06 16:30:31  5-MIN KMKG 142130Z 31014G20KT 10SM BKN026 OVC032 M01/M06 A2993 620 66 -1000 310/14G20 RMK AO2
14840KMKG MKG20060314163510503/14/06 16:35:31  5-MIN KMKG 142135Z 30012G20KT 10SM OVC026 M01/M06 A2993 620 66 -1000 300/12G20 RMK AO2
14840KMKG MKG20060314164011203/14/06 16:40:31  5-MIN KMKG 142140Z 30013G18KT 10SM BKN028 OVC033 M01/M06 A2993 620 69 -1000 300/13G18 RMK AO2
14840KMKG MKG20060314164511203/14/06 16:45:31  5-MIN KMKG 142145Z 30013G18KT 10SM BKN028 OVC032 M01/M06 A2994 610 69 -1000 300/13G18 RMK AO2
14840KMKG MKG20060314165012903/14/06 16:50:31  5-MIN KMKG 142150Z 30013G18KT 10SM BKN028 OVC036 M01/M06 A2994 610 69 -1100 300/13G18 RMK AO2 SLP147 T10061056
14840KMKG MKG20060314165512303/14/06 16:55:31  5-MIN KMKG 142155Z 31015KT 10SM BKN028 BKN036 M01/M06 A2994 610 69 -1000 310/15 RMK AO2 SLP146 T10061056
14840KMKG MKG20060314170010503/14/06 17:00:31  5-MIN KMKG 142200Z 30012KT 10SM BKN028 OVC035 00/M06 A2994 620 66 -1000 310/12 RMK AO2
14840KMKG MKG20060314170511103/14/06 17:05:31  5-MIN KMKG 142205Z 31014G17KT 10SM BKN028 BKN034 00/M06 A2994 610 66 -1000 310/14G17 RMK AO2
14840KMKG MKG20060314171011103/14/06 17:10:31  5-MIN KMKG 142210Z 30012G17KT 10SM BKN028 BKN034 00/M06 A2994 610 66 -1000 310/12G17 RMK AO2
14840KMKG MKG20060314171511103/14/06 17:15:31  5-MIN KMKG 142215Z 31011G16KT 10SM BKN028 BKN034 00/M06 A2994 610 66 -1000 320/11G16 RMK AO2
14840KMKG MKG20060314172011103/14/06 17:20:31  5-MIN KMKG 142220Z 30014G17KT 10SM BKN028 BKN034 00/M06 A2994 610 66 -1000 300/14G17 RMK AO2
14840KMKG MKG20060314172511103/14/06 17:25:31  5-MIN KMKG 142225Z 30013G19KT 10SM BKN028 BKN034 00/M06 A2993 620 66 -1000 300/13G19 RMK AO2
14840KMKG MKG20060314173011103/14/06 17:30:31  5-MIN KMKG 142230Z 30011G23KT 10SM BKN028 BKN034 00/M06 A2994 620 66 -1000 310/11G23 RMK AO2
14840KMKG MKG20060314173511103/14/06 17:35:31  5-MIN KMKG 142235Z 31013G23KT 10SM BKN028 BKN034 00/M06 A2994 610 66 -1000 310/13G23 RMK AO2
14840KMKG MKG20060314174010503/14/06 17:40:31  5-MIN KMKG 142240Z 30012KT 10SM BKN028 BKN034 00/M06 A2994 610 66 -1000 310/12 RMK AO2
14840KMKG MKG20060314174510503/14/06 17:45:31  5-MIN KMKG 142245Z 31012KT 10SM BKN028 BKN034 00/M06 A2994 610 66 -1000 320/12 RMK AO2
14840KMKG MKG20060314175009803/14/06 17:50:31  5-MIN KMKG 142250Z 32010KT 10SM OVC040 00/M06 A2994 610 66 -1000 320/10 RMK AO2
14840KMKG MKG20060314175511503/14/06 17:55:31  5-MIN KMKG 142255Z 31009KT 10SM BKN040 00/M06 A2994 620 66 -1000 310/09 RMK AO2 SLP145 T00001056
14840KMKG MKG20060314180009803/14/06 18:00:31  5-MIN KMKG 142300Z 31009KT 10SM OVC040 00/M06 A2994 610 66 -1000 320/09 RMK AO2
14840KMKG MKG20060314180509803/14/06 18:05:31  5-MIN KMKG 142305Z 31012KT 10SM OVC040 00/M06 A2994 610 66 -1000 320/12 RMK AO2
14840KMKG MKG20060314181009803/14/06 18:10:31  5-MIN KMKG 142310Z 31010KT 10SM OVC042 00/M06 A2994 610 66 -1000 320/10 RMK AO2
14840KMKG MKG20060314181509803/14/06 18:15:31  5-MIN KMKG 142315Z 32011KT 10SM OVC042 00/M06 A2994 610 66 -1000 320/11 RMK AO2
14840KMKG MKG20060314182009803/14/06 18:20:31  5-MIN KMKG 142320Z 30011KT 10SM OVC042 00/M05 A2994 610 69 -1000 310/11 RMK AO2
14840KMKG MKG20060314182511003/14/06 18:25:31  5-MIN KMKG 142325Z 31016G22KT 10SM BKN040 OVC047 01/M06 A2994 610 63 -900 310/16G22 RMK AO2
14840KMKG MKG20060314183011003/14/06 18:30:31  5-MIN KMKG 142330Z 31010G22KT 10SM BKN040 OVC047 01/M06 A2994 610 61 -900 310/10G22 RMK AO2
14840KMKG MKG20060314183510303/14/06 18:35:31  5-MIN KMKG 142335Z 30014G19KT 10SM OVC042 01/M06 A2994 610 61 -900 310/14G19 RMK AO2
14840KMKG MKG20060314184011003/14/06 18:40:31  5-MIN KMKG 142340Z 31015G21KT 10SM BKN042 OVC049 01/M06 A2994 610 61 -900 310/15G21 RMK AO2
14840KMKG MKG20060314184510303/14/06 18:45:31  5-MIN KMKG 142345Z 30015G23KT 10SM OVC044 01/M07 A2994 610 58 -900 300/15G23 RMK AO2
14840KMKG MKG20060314185013803/14/06 18:50:31  5-MIN KMKG 142350Z 32013G23KT 10SM OVC041 01/M07 A2994 610 58 -900 320/13G23 RMK AO2 SLP147 T00061067 10006 21017 53011
14840KMKG MKG20060314185513803/14/06 18:55:31  5-MIN KMKG 142355Z 31014G21KT 10SM OVC043 01/M06 A2995 610 61 -900 310/14G21 RMK AO2 SLP148 T00061061 10006 21017 51006
14840KMKG MKG20060314190010303/14/06 19:00:31  5-MIN KMKG 150000Z 31014G24KT 10SM OVC043 01/M06 A2995 610 61 -900 310/14G24 RMK AO2
14840KMKG MKG20060314190510303/14/06 19:05:31  5-MIN KMKG 150005Z 31013G24KT 10SM OVC043 01/M07 A2994 610 58 -900 310/13G24 RMK AO2
14840KMKG MKG20060314191010303/14/06 19:10:31  5-MIN KMKG 150010Z 31015G22KT 10SM BKN045 01/M07 A2994 610 56 -900 310/15G22 RMK AO2
14840KMKG MKG20060314191512103/14/06 19:15:31  5-MIN KMKG 150015Z 30019G26KT 10SM BKN045 01/M07 A2994 610 56 -900 310/19G26 RMK AO2 PK WND 31026/0015
14840KMKG MKG20060314192012103/14/06 19:20:31  5-MIN KMKG 150020Z 30017G26KT 10SM BKN045 01/M07 A2995 610 56 -900 310/17G26 RMK AO2 PK WND 29026/0020
14840KMKG MKG20060314192512103/14/06 19:25:31  5-MIN KMKG 150025Z 30015G26KT 10SM BKN047 01/M08 A2995 600 54 -900 310/15G26 RMK AO2 PK WND 29026/0020
14840KMKG MKG20060314193012103/14/06 19:30:31  5-MIN KMKG 150030Z 32019G27KT 10SM BKN047 01/M07 A2995 600 54 -900 320/19G27 RMK AO2 PK WND 32027/0030
14840KMKG MKG20060314193512103/14/06 19:35:31  5-MIN KMKG 150035Z 31019G27KT 10SM BKN047 01/M08 A2995 600 51 -900 320/19G27 RMK AO2 PK WND 32027/0030
14840KMKG MKG20060314194012803/14/06 19:40:31  5-MIN KMKG 150040Z 30013G24KT 10SM BKN043 OVC050 01/M08 A2995 600 51 -900 310/13G24 RMK AO2 PK WND 32027/0030
14840KMKG MKG20060314194512803/14/06 19:45:31  5-MIN KMKG 150045Z 30020G27KT 10SM BKN043 OVC050 01/M07 A2995 600 54 -900 300/20G27 RMK AO2 PK WND 28027/0044
14840KMKG MKG20060314195014503/14/06 19:50:31  5-MIN KMKG 150050Z 30017G27KT 10SM BKN043 OVC050 01/M08 A2995 600 51 -900 300/17G27 RMK AO2 PK WND 28027/0044 SLP150 T00111078
14840KMKG MKG20060314195514503/14/06 19:55:31  5-MIN KMKG 150055Z 31015G25KT 10SM BKN043 OVC050 01/M08 A2996 590 54 -900 310/15G25 RMK AO2 PK WND 28027/0044 SLP152 T00061078
14840KMKG MKG20060314200010303/14/06 20:00:31  5-MIN KMKG 150100Z 31018G24KT 10SM OVC043 01/M08 A2996 600 51 -900 310/18G24 RMK AO2
14840KMKG MKG20060314200510303/14/06 20:05:31  5-MIN KMKG 150105Z 30017G24KT 10SM OVC043 01/M08 A2996 600 54 -900 310/17G24 RMK AO2
14840KMKG MKG20060314201012103/14/06 20:10:31  5-MIN KMKG 150110Z 30019G27KT 10SM OVC045 01/M08 A2996 590 51 -900 310/19G27 RMK AO2 PK WND 30027/0109
14840KMKG MKG20060314201512103/14/06 20:15:31  5-MIN KMKG 150115Z 31019G27KT 10SM OVC045 01/M08 A2996 590 51 -900 310/19G27 RMK AO2 PK WND 31027/0114
14840KMKG MKG20060314202012103/14/06 20:20:31  5-MIN KMKG 150120Z 30021G27KT 10SM OVC045 01/M08 A2996 590 51 -900 310/21G27 RMK AO2 PK WND 31027/0114
14840KMKG MKG20060314202512103/14/06 20:25:31  5-MIN KMKG 150125Z 31014G26KT 10SM OVC045 01/M08 A2997 590 51 -900 310/14G26 RMK AO2 PK WND 31027/0114
14840KMKG MKG20060314203012103/14/06 20:30:31  5-MIN KMKG 150130Z 30017G25KT 10SM OVC047 01/M08 A2997 590 54 -900 310/17G25 RMK AO2 PK WND 31027/0114
14840KMKG MKG20060314203512103/14/06 20:35:31  5-MIN KMKG 150135Z 32013G25KT 10SM OVC047 01/M07 A2997 580 56 -900 320/13G25 RMK AO2 PK WND 31027/0114
14840KMKG MKG20060314204012103/14/06 20:40:31  5-MIN KMKG 150140Z 32013G22KT 10SM OVC047 01/M07 A2997 590 58 -900 330/13G22 RMK AO2 PK WND 31027/0114
14840KMKG MKG20060314204512103/14/06 20:45:31  5-MIN KMKG 150145Z 31010G19KT 10SM OVC047 01/M06 A2997 580 61 -900 310/10G19 RMK AO2 PK WND 31027/0114
14840KMKG MKG20060314205013903/14/06 20:50:31  5-MIN KMKG 150150Z 31014G19KT 10SM OVC047 00/M06 A2997 580 63 -1000 310/14G19 RMK AO2 PK WND 31027/0114 SLP157 T00001061
14840KMKG MKG20060314205513903/14/06 20:55:31  5-MIN KMKG 150155Z 31010G19KT 10SM OVC047 00/M06 A2997 580 63 -1000 310/10G19 RMK AO2 PK WND 31027/0114 SLP157 T00001061
14840KMKG MKG20060314210011803/14/06 21:00:31  5-MIN KMKG 150200Z 31013G20KT 10SM FEW034 BKN045 OVC050 00/M06 A2998 580 63 -1000 320/13G20 RMK AO2
14840KMKG MKG20060314210511103/14/06 21:05:31  5-MIN KMKG 150205Z 32013G21KT 10SM FEW034 OVC047 00/M06 A2998 580 63 -1000 320/13G21 RMK AO2
14840KMKG MKG20060314211010403/14/06 21:10:31  5-MIN KMKG 150210Z 32013G22KT 10SM OVC047 00/M06 A2998 580 63 -1000 320/13G22 RMK AO2
14840KMKG MKG20060314211511103/14/06 21:15:31  5-MIN KMKG 150215Z 32017G24KT 10SM SCT038 OVC047 00/M06 A2998 570 63 -1000 320/17G24 RMK AO2
14840KMKG MKG20060314212011103/14/06 21:20:31  5-MIN KMKG 150220Z 33017G24KT 10SM FEW038 OVC049 00/M06 A2998 570 63 -1000 330/17G24 RMK AO2
14840KMKG MKG20060314212512903/14/06 21:25:31  5-MIN KMKG 150225Z 32017G27KT 10SM FEW036 OVC049 00/M07 A2999 570 61 -1000 320/17G27 RMK AO2 PK WND 33027/0221
14840KMKG MKG20060314213013003/14/06 21:30:31  5-MIN KMKG 150230Z 32018G27KT 10SM FEW036 BKN049 M01/M07 A2999 570 63 -1100 330/18G27 RMK AO2 PK WND 33027/0221
14840KMKG MKG20060314213513003/14/06 21:35:31  5-MIN KMKG 150235Z 33019G25KT 10SM FEW039 BKN047 M01/M07 A2999 570 63 -1100 330/19G25 RMK AO2 PK WND 33027/0221
14840KMKG MKG20060314214013003/14/06 21:40:31  5-MIN KMKG 150240Z 31016G28KT 10SM FEW037 SCT047 M01/M07 A2999 560 61 -1100 320/16G28 RMK AO2 PK WND 32028/0238
14840KMKG MKG20060314214512303/14/06 21:45:31  5-MIN KMKG 150245Z 32020G28KT 10SM FEW049 M01/M07 A2999 560 63 -1100 320/20G28 RMK AO2 PK WND 32028/0238
14840KMKG MKG20060314215014603/14/06 21:50:31  5-MIN KMKG 150250Z 32019G26KT 10SM FEW043 M01/M07 A2999 560 61 -1100 330/19G26 RMK AO2 PK WND 32028/0238 SLP164 T10061072 51006
14840KMKG MKG20060314215514603/14/06 21:55:31  5-MIN KMKG 150255Z 32014G26KT 10SM FEW048 M01/M07 A2999 560 61 -1100 320/14G26 RMK AO2 PK WND 32028/0238 SLP166 T10061072 53016
14840KMKG MKG20060314220010203/14/06 22:00:31  5-MIN KMKG 150300Z 32014G24KT 10SM CLR M01/M07 A3000 560 63 -1200 330/14G24 RMK AO2
14840KMKG MKG20060314220512303/14/06 22:05:31  5-MIN KMKG 150305Z 32019G26KT 10SM FEW031 M01/M07 A3000 560 63 -1200 330/19G26 RMK AO2 PK WND 33026/0302
14840KMKG MKG20060314221012303/14/06 22:10:31  5-MIN KMKG 150310Z 31013G26KT 10SM FEW031 M01/M07 A3000 560 63 -1200 320/13G26 RMK AO2 PK WND 33026/0302
14840KMKG MKG20060314221512303/14/06 22:15:31  5-MIN KMKG 150315Z 31016G24KT 10SM FEW031 M01/M07 A3000 560 63 -1200 310/16G24 RMK AO2 PK WND 33026/0302
14840KMKG MKG20060314222012303/14/06 22:20:31  5-MIN KMKG 150320Z 32020G29KT 10SM SCT033 M01/M07 A3001 550 63 -1200 320/20G29 RMK AO2 PK WND 30029/0318
14840KMKG MKG20060314222512303/14/06 22:25:31  5-MIN KMKG 150325Z 32022G29KT 10SM SCT033 M01/M08 A3001 550 60 -1200 320/22G29 RMK AO2 PK WND 32029/0325
14840KMKG MKG20060314223012303/14/06 22:30:31  5-MIN KMKG 150330Z 32017G29KT 10SM BKN033 M01/M08 A3001 550 60 -1200 330/17G29 RMK AO2 PK WND 32029/0325
14840KMKG MKG20060314223512303/14/06 22:35:31  5-MIN KMKG 150335Z 31015G27KT 10SM SCT033 M01/M08 A3001 550 60 -1200 320/15G27 RMK AO2 PK WND 32029/0325
14840KMKG MKG20060314224012303/14/06 22:40:31  5-MIN KMKG 150340Z 31014G22KT 10SM SCT033 M01/M08 A3001 550 60 -1200 320/14G22 RMK AO2 PK WND 32029/0325
14840KMKG MKG20060314224512303/14/06 22:45:31  5-MIN KMKG 150345Z 31016G23KT 10SM SCT033 M01/M08 A3001 550 60 -1200 320/16G23 RMK AO2 PK WND 32029/0325
14840KMKG MKG20060314225014703/14/06 22:50:31  5-MIN KMKG 150350Z 32020G29KT 10SM FEW033 SCT041 M01/M08 A3001 540 58 -1200 320/20G29 RMK AO2 PK WND 31029/0350 SLP172 T10111083
14840KMKG MKG20060314225514703/14/06 22:55:31  5-MIN KMKG 150355Z 31019G29KT 10SM SCT035 SCT045 M01/M09 A3002 540 55 -1200 310/19G29 RMK AO2 PK WND 31029/0350 SLP173 T10111089
14840KMKG MKG20060314230012703/14/06 23:00:31  5-MIN KMKG 150400Z 30016G27KT 10SM SCT037 BKN045 M01/M08 A3002 540 58 -1200 310/16G27 RMK AO2 CIG 036 RWY 14
14840KMKG MKG20060314230511203/14/06 23:05:31  5-MIN KMKG 150405Z 31018G25KT 10SM BKN037 BKN045 M01/M08 A3002 540 58 -1200 310/18G25 RMK AO2
14840KMKG MKG20060314231011203/14/06 23:10:31  5-MIN KMKG 150410Z 31017G25KT 10SM BKN037 BKN045 M01/M08 A3002 540 58 -1200 310/17G25 RMK AO2
14840KMKG MKG20060314231511203/14/06 23:15:31  5-MIN KMKG 150415Z 32018G25KT 10SM BKN037 OVC045 M01/M08 A3002 540 58 -1200 320/18G25 RMK AO2
14840KMKG MKG20060314232010503/14/06 23:20:31  5-MIN KMKG 150420Z 31015G25KT 10SM OVC037 M01/M08 A3002 530 58 -1200 320/15G25 RMK AO2
14840KMKG MKG20060314232510503/14/06 23:25:31  5-MIN KMKG 150425Z 31017G25KT 10SM OVC037 M01/M08 A3003 530 58 -1200 310/17G25 RMK AO2
14840KMKG MKG20060314233010503/14/06 23:30:31  5-MIN KMKG 150430Z 32015G25KT 10SM OVC037 M01/M08 A3003 530 60 -1200 320/15G25 RMK AO2
14840KMKG MKG20060314233510503/14/06 23:35:31  5-MIN KMKG 150435Z 32014G24KT 10SM OVC037 M01/M08 A3003 530 60 -1200 320/14G24 RMK AO2
14840KMKG MKG20060314234010503/14/06 23:40:31  5-MIN KMKG 150440Z 32014G22KT 10SM OVC037 M01/M08 A3003 530 60 -1200 320/14G22 RMK AO2
14840KMKG MKG20060314234510503/14/06 23:45:31  5-MIN KMKG 150445Z 31012G22KT 10SM OVC037 M01/M08 A3003 520 60 -1200 310/12G22 RMK AO2
14840KMKG MKG20060314235015003/14/06 23:50:31  5-MIN KMKG 150450Z 32018G31KT 10SM OVC037 M01/M08 A3004 520 60 -1200 320/18G31 RMK AO2 PK WND 32031/0449 SLP179 T10111078 400111017
14840KMKG MKG20060314235515003/14/06 23:55:31  5-MIN KMKG 150455Z 32017G31KT 10SM OVC037 M01/M08 A3003 530 60 -1200 320/17G31 RMK AO2 PK WND 32031/0449 SLP178 T10111078 400111017
14840KMKG MKG20060315000010503/15/06 00:00:32  5-MIN KMKG 150500Z 32017G23KT 10SM OVC037 M01/M08 A3003 530 60 -1200 320/17G23 RMK AO2
14840KMKG MKG20060315000512303/15/06 00:05:31  5-MIN KMKG 150505Z 31018G27KT 10SM OVC037 M01/M08 A3003 530 60 -1200 320/18G27 RMK AO2 PK WND 32027/0503
14840KMKG MKG20060315001012303/15/06 00:10:31  5-MIN KMKG 150510Z 31016G27KT 10SM OVC037 M01/M08 A3004 520 60 -1200 320/16G27 RMK AO2 PK WND 32027/0503
14840KMKG MKG20060315001512303/15/06 00:15:31  5-MIN KMKG 150515Z 33018G24KT 10SM OVC037 M01/M08 A3004 520 60 -1200 330/18G24 RMK AO2 PK WND 32027/0503
14840KMKG MKG20060315002012303/15/06 00:20:31  5-MIN KMKG 150520Z 32019G24KT 10SM OVC037 M01/M08 A3004 520 60 -1200 330/19G24 RMK AO2 PK WND 32027/0503
14840KMKG MKG20060315002512303/15/06 00:25:31  5-MIN KMKG 150525Z 33015G23KT 10SM OVC037 M01/M08 A3004 520 60 -1200 330/15G23 RMK AO2 PK WND 32027/0503
14840KMKG MKG20060315003013003/15/06 00:30:31  5-MIN KMKG 150530Z 32020G25KT 10SM BKN035 OVC041 M01/M08 A3003 520 60 -1200 330/20G25 RMK AO2 PK WND 32027/0503
14840KMKG MKG20060315003514603/15/06 00:35:31  5-MIN KMKG 150535Z 32018G26KT 10SM -SN BKN036 OVC043 M01/M08 A3004 520 60 -1200 330/18G26 RMK AO2 PK WND 32027/0503 SNB31 P0000
14840KMKG MKG20060315004013703/15/06 00:40:31  5-MIN KMKG 150540Z 33020G26KT 9SM OVC036 M01/M08 A3004 520 60 -1200 330/20G26 RMK AO2 PK WND 32027/0503 SNB31E40 P0000
14840KMKG MKG20060315004514403/15/06 00:45:31  5-MIN KMKG 150545Z 31016G25KT 9SM BKN036 OVC042 M01/M08 A3003 520 60 -1200 320/16G25 RMK AO2 PK WND 32027/0503 SNB31E40 P0000
14840KMKG MKG20060315005018603/15/06 00:50:31  5-MIN KMKG 150550Z 32018G25KT 10SM BKN035 OVC042 M01/M08 A3003 530 58 -1200 320/18G25 RMK AO2 PK WND 32027/0503 SNB31E40 SLP178 P0000 60000 T10111083 10011 21011 53016
14840KMKG MKG20060315005517903/15/06 00:55:31  5-MIN KMKG 150555Z 31015G24KT 10SM OVC035 M01/M08 A3003 530 60 -1200 320/15G24 RMK AO2 PK WND 32027/0503 SNB31E40 SLP179 P0000 60000 T10111078 10011 21011 51013
14840KMKG MKG20060315010010503/15/06 01:00:31  5-MIN KMKG 150600Z 32021G25KT 10SM OVC035 M01/M08 A3004 520 58 -1200 330/21G25 RMK AO2
14840KMKG MKG20060315010510503/15/06 01:05:31  5-MIN KMKG 150605Z 32018G25KT 10SM OVC035 M01/M08 A3004 520 60 -1200 320/18G25 RMK AO2
14840KMKG MKG20060315011010503/15/06 01:10:31  5-MIN KMKG 150610Z 32018G22KT 10SM OVC035 M01/M08 A3004 520 60 -1200 330/18G22 RMK AO2
14840KMKG MKG20060315011510503/15/06 01:15:31  5-MIN KMKG 150615Z 32019G25KT 10SM OVC035 M01/M08 A3004 520 60 -1200 320/19G25 RMK AO2
14840KMKG MKG20060315012010503/15/06 01:20:31  5-MIN KMKG 150620Z 32018G25KT 10SM OVC035 M01/M08 A3004 520 58 -1200 320/18G25 RMK AO2
14840KMKG MKG20060315012510503/15/06 01:25:31  5-MIN KMKG 150625Z 32015G23KT 10SM OVC035 M01/M08 A3004 520 58 -1200 320/15G23 RMK AO2
14840KMKG MKG20060315013010503/15/06 01:30:31  5-MIN KMKG 150630Z 31013G21KT 10SM OVC035 M01/M08 A3004 520 60 -1200 320/13G21 RMK AO2
14840KMKG MKG20060315013510503/15/06 01:35:31  5-MIN KMKG 150635Z 32016G22KT 10SM OVC035 M01/M08 A3005 510 60 -1200 330/16G22 RMK AO2
14840KMKG MKG20060315014010503/15/06 01:40:31  5-MIN KMKG 150640Z 32013G22KT 10SM OVC035 M01/M08 A3004 520 60 -1200 320/13G22 RMK AO2
14840KMKG MKG20060315014510503/15/06 01:45:31  5-MIN KMKG 150645Z 32018G23KT 10SM OVC033 M01/M08 A3005 510 60 -1200 330/18G23 RMK AO2
14840KMKG MKG20060315015012203/15/06 01:50:31  5-MIN KMKG 150650Z 33017G25KT 10SM OVC033 M01/M08 A3005 510 60 -1200 330/17G25 RMK AO2 SLP184 T10111078
14840KMKG MKG20060315015512203/15/06 01:55:31  5-MIN KMKG 150655Z 32014G25KT 10SM OVC033 M01/M08 A3005 510 60 -1200 330/14G25 RMK AO2 SLP184 T10111078
14840KMKG MKG20060315020010503/15/06 02:00:31  5-MIN KMKG 150700Z 32015G23KT 10SM OVC033 M01/M08 A3006 510 60 -1300 330/15G23 RMK AO2
14840KMKG MKG20060315020510503/15/06 02:05:31  5-MIN KMKG 150705Z 32015G25KT 10SM OVC033 M01/M08 A3005 510 58 -1300 330/15G25 RMK AO2
14840KMKG MKG20060315021010503/15/06 02:10:31  5-MIN KMKG 150710Z 33013G25KT 10SM OVC033 M01/M08 A3006 500 60 -1300 330/13G25 RMK AO2
14840KMKG MKG20060315021510503/15/06 02:15:31  5-MIN KMKG 150715Z 32013G21KT 10SM OVC033 M01/M08 A3006 500 58 -1300 320/13G21 RMK AO2
14840KMKG MKG20060315022010503/15/06 02:20:31  5-MIN KMKG 150720Z 33015G21KT 10SM OVC033 M02/M08 A3006 500 60 -1300 330/15G21 RMK AO2
14840KMKG MKG20060315022510503/15/06 02:25:31  5-MIN KMKG 150725Z 31015G21KT 10SM OVC033 M02/M08 A3006 500 60 -1300 320/15G21 RMK AO2
14840KMKG MKG20060315023010503/15/06 02:30:31  5-MIN KMKG 150730Z 32015G22KT 10SM OVC033 M02/M08 A3006 500 60 -1300 320/15G22 RMK AO2
14840KMKG MKG20060315023510503/15/06 02:35:31  5-MIN KMKG 150735Z 32017G22KT 10SM OVC033 M02/M08 A3006 500 60 -1300 320/17G22 RMK AO2
14840KMKG MKG20060315024010503/15/06 02:40:31  5-MIN KMKG 150740Z 32012G22KT 10SM OVC033 M02/M08 A3006 500 60 -1300 320/12G22 RMK AO2
14840KMKG MKG20060315024510503/15/06 02:45:31  5-MIN KMKG 150745Z 32013G21KT 10SM BKN033 M02/M08 A3007 500 60 -1300 330/13G21 RMK AO2
14840KMKG MKG20060315025012203/15/06 02:50:31  5-MIN KMKG 150750Z 32015G21KT 10SM BKN033 M02/M08 A3007 500 63 -1300 320/15G21 RMK AO2 SLP190 T10171078
14840KMKG MKG20060315025512203/15/06 02:55:31  5-MIN KMKG 150755Z 31014G20KT 10SM BKN031 M02/M08 A3007 500 63 -1300 320/14G20 RMK AO2 SLP190 T10171078
14840KMKG MKG20060315030010503/15/06 03:00:31  5-MIN KMKG 150800Z 31013G21KT 10SM BKN031 M02/M08 A3006 500 63 -1300 310/13G21 RMK AO2
14840KMKG MKG20060315030510503/15/06 03:05:31  5-MIN KMKG 150805Z 32014G21KT 10SM BKN031 M02/M08 A3007 490 63 -1300 320/14G21 RMK AO2
14840KMKG MKG20060315031010503/15/06 03:10:31  5-MIN KMKG 150810Z 31013G19KT 10SM OVC031 M02/M08 A3007 490 63 -1300 320/13G19 RMK AO2
14840KMKG MKG20060315031510503/15/06 03:15:31  5-MIN KMKG 150815Z 32014G19KT 10SM OVC031 M02/M08 A3007 490 63 -1300 320/14G19 RMK AO2
14840KMKG MKG20060315032010503/15/06 03:20:31  5-MIN KMKG 150820Z 33017G21KT 10SM OVC033 M02/M08 A3007 490 63 -1300 330/17G21 RMK AO2
14840KMKG MKG20060315032510503/15/06 03:25:31  5-MIN KMKG 150825Z 32012G21KT 10SM OVC033 M02/M07 A3007 490 66 -1300 320/12G21 RMK AO2
14840KMKG MKG20060315033010503/15/06 03:30:31  5-MIN KMKG 150830Z 32016G23KT 10SM OVC033 M02/M07 A3007 490 66 -1300 330/16G23 RMK AO2
14840KMKG MKG20060315033510503/15/06 03:35:31  5-MIN KMKG 150835Z 32017G23KT 10SM OVC033 M02/M08 A3007 490 63 -1300 320/17G23 RMK AO2
14840KMKG MKG20060315034010503/15/06 03:40:31  5-MIN KMKG 150840Z 32018G22KT 10SM OVC033 M02/M07 A3007 490 66 -1300 330/18G22 RMK AO2
14840KMKG MKG20060315034510503/15/06 03:45:31  5-MIN KMKG 150845Z 33015G22KT 10SM OVC033 M02/M08 A3008 490 63 -1400 330/15G22 RMK AO2
14840KMKG MKG20060315035012203/15/06 03:50:31  5-MIN KMKG 150850Z 33016KT 10SM OVC033 M02/M07 A3008 480 66 -1400 330/16 RMK AO2 SLP194 T10171072 51013
14840KMKG MKG20060315035512203/15/06 03:55:31  5-MIN KMKG 150855Z 33014KT 10SM OVC033 M02/M08 A3008 480 63 -1400 330/14 RMK AO2 SLP194 T10171078 51015
14840KMKG MKG20060315040009903/15/06 04:00:31  5-MIN KMKG 150900Z 32014KT 10SM OVC033 M02/M08 A3008 480 63 -1400 320/14 RMK AO2
14840KMKG MKG20060315040509903/15/06 04:05:31  5-MIN KMKG 150905Z 32012KT 10SM BKN033 M02/M07 A3008 480 66 -1400 330/12 RMK AO2
14840KMKG MKG20060315041010503/15/06 04:10:31  5-MIN KMKG 150910Z 33013G20KT 10SM BKN033 M02/M07 A3008 480 66 -1400 330/13G20 RMK AO2
14840KMKG MKG20060315041510503/15/06 04:15:31  5-MIN KMKG 150915Z 33015G21KT 10SM BKN031 M02/M08 A3008 480 63 -1400 330/15G21 RMK AO2
14840KMKG MKG20060315042010503/15/06 04:20:31  5-MIN KMKG 150920Z 31013G21KT 10SM BKN031 M02/M07 A3008 480 66 -1400 320/13G21 RMK AO2
14840KMKG MKG20060315042510503/15/06 04:25:31  5-MIN KMKG 150925Z 32015G20KT 10SM SCT030 M02/M07 A3009 470 66 -1400 330/15G20 RMK AO2
14840KMKG MKG20060315043010503/15/06 04:30:31  5-MIN KMKG 150930Z 33017G20KT 10SM FEW027 M02/M07 A3009 470 66 -1400 330/17G20 RMK AO2
14840KMKG MKG20060315043509903/15/06 04:35:31  5-MIN KMKG 150935Z 33016KT 10SM FEW027 M02/M07 A3009 470 66 -1400 330/16 RMK AO2
14840KMKG MKG20060315044010503/15/06 04:40:31  5-MIN KMKG 150940Z 32013G20KT 10SM FEW027 M02/M07 A3009 470 66 -1400 330/13G20 RMK AO2
14840KMKG MKG20060315044510203/15/06 04:45:31  5-MIN KMKG 150945Z 33014G19KT 10SM CLR M02/M07 A3009 470 66 -1400 330/14G19 RMK AO2
14840KMKG MKG20060315045012203/15/06 04:50:31  5-MIN KMKG 150950Z 32013G18KT 10SM FEW027 M02/M07 A3009 470 66 -1400 330/13G18 RMK AO2 SLP199 T10171072
14840KMKG MKG20060315045511903/15/06 04:55:31  5-MIN KMKG 150955Z 32016G22KT 10SM CLR M02/M07 A3009 470 66 -1400 330/16G22 RMK AO2 SLP199 T10171072
14840KMKG MKG20060315050010503/15/06 05:00:31  5-MIN KMKG 151000Z 32014G22KT 10SM FEW027 M02/M07 A3010 470 66 -1400 330/14G22 RMK AO2
14840KMKG MKG20060315050510503/15/06 05:05:31  5-MIN KMKG 151005Z 33015G21KT 10SM FEW027 M02/M07 A3010 470 66 -1400 330/15G21 RMK AO2
14840KMKG MKG20060315051009903/15/06 05:10:31  5-MIN KMKG 151010Z 33016KT 10SM SCT027 M02/M07 A3010 470 66 -1400 330/16 RMK AO2
14840KMKG MKG20060315051509903/15/06 05:15:31  5-MIN KMKG 151015Z 33012KT 10SM SCT027 M02/M07 A3010 460 66 -1400 330/12 RMK AO2
14840KMKG MKG20060315052010503/15/06 05:20:31  5-MIN KMKG 151020Z 33016G19KT 10SM SCT027 M02/M07 A3011 460 66 -1400 330/16G19 RMK AO2
14840KMKG MKG20060315052510503/15/06 05:25:31  5-MIN KMKG 151025Z 32010G19KT 10SM BKN027 M02/M07 A3011 460 66 -1400 330/10G19 RMK AO2
14840KMKG MKG20060315053011203/15/06 05:30:31  5-MIN KMKG 151030Z 33012G17KT 10SM BKN027 M02/M07 A3012 450 66 -1400 340/12G17 RMK AO2 PRESRR
14840KMKG MKG20060315053510503/15/06 05:35:31  5-MIN KMKG 151035Z 32011G18KT 10SM BKN029 M02/M07 A3012 440 66 -1400 320/11G18 RMK AO2
14840KMKG MKG20060315054010503/15/06 05:40:31  5-MIN KMKG 151040Z 32012G18KT 10SM BKN029 M02/M07 A3012 440 66 -1400 320/12G18 RMK AO2
14840KMKG MKG20060315054509903/15/06 05:45:31  5-MIN KMKG 151045Z 31013KT 10SM BKN029 M02/M07 A3013 440 66 -1400 320/13 RMK AO2
14840KMKG MKG20060315055012203/15/06 05:50:31  5-MIN KMKG 151050Z 31013G18KT 10SM OVC029 M02/M07 A3013 440 66 -1400 320/13G18 RMK AO2 SLP210 T10171072
14840KMKG MKG20060315055512203/15/06 05:55:31  5-MIN KMKG 151055Z 33015G19KT 10SM OVC029 M02/M07 A3013 440 66 -1400 330/15G19 RMK AO2 SLP209 T10171072
14840KMKG MKG20060315060010503/15/06 06:00:31  5-MIN KMKG 151100Z 33010G19KT 10SM OVC029 M02/M07 A3013 440 66 -1400 330/10G19 RMK AO2
14840KMKG MKG20060315060509903/15/06 06:05:31  5-MIN KMKG 151105Z 32010KT 10SM OVC029 M02/M07 A3013 430 66 -1400 330/10 RMK AO2
14840KMKG MKG20060315061010503/15/06 06:10:31  5-MIN KMKG 151110Z 33012G18KT 10SM OVC029 M02/M07 A3013 430 66 -1400 330/12G18 RMK AO2
14840KMKG MKG20060315061510503/15/06 06:15:31  5-MIN KMKG 151115Z 31014G18KT 10SM OVC031 M02/M07 A3014 430 66 -1400 320/14G18 RMK AO2
14840KMKG MKG20060315062010503/15/06 06:20:31  5-MIN KMKG 151120Z 31013G19KT 10SM OVC029 M02/M07 A3014 430 66 -1400 320/13G19 RMK AO2
14840KMKG MKG20060315062510503/15/06 06:25:31  5-MIN KMKG 151125Z 33014G19KT 10SM OVC029 M02/M07 A3014 430 66 -1400 330/14G19 RMK AO2
14840KMKG MKG20060315063010503/15/06 06:30:31  5-MIN KMKG 151130Z 33013G19KT 10SM BKN029 M02/M07 A3014 430 66 -1400 330/13G19 RMK AO2
14840KMKG MKG20060315063510503/15/06 06:35:31  5-MIN KMKG 151135Z 30012G18KT 10SM OVC031 M02/M07 A3014 430 66 -1400 310/12G18 RMK AO2
14840KMKG MKG20060315064010503/15/06 06:40:31  5-MIN KMKG 151140Z 31011G18KT 10SM OVC031 M02/M07 A3014 430 66 -1400 320/11G18 RMK AO2
14840KMKG MKG20060315064509903/15/06 06:45:31  5-MIN KMKG 151145Z 32011KT 10SM OVC031 M02/M07 A3014 420 66 -1400 320/11 RMK AO2
14840KMKG MKG20060315065014003/15/06 06:50:31  5-MIN KMKG 151150Z 32013G17KT 10SM OVC031 M02/M07 A3014 420 66 -1400 320/13G17 RMK AO2 SLP215 T10171072 11011 21017 51015
14840KMKG MKG20060315065514003/15/06 06:55:31  5-MIN KMKG 151155Z 32014G22KT 10SM OVC031 M02/M07 A3015 420 66 -1400 320/14G22 RMK AO2 SLP216 T10171072 11011 21017 53023
14840KMKG MKG20060315070010503/15/06 07:00:31  5-MIN KMKG 151200Z 32011G22KT 10SM OVC031 M02/M07 A3015 420 66 -1400 320/11G22 RMK AO2
14840KMKG MKG20060315070510603/15/06 07:05:31  5-MIN KMKG 151205Z 32016KT 10SM BKN031 OVC035 M02/M07 A3015 420 66 -1400 320/16 RMK AO2
14840KMKG MKG20060315071010503/15/06 07:10:31  5-MIN KMKG 151210Z 31014G18KT 10SM OVC031 M02/M07 A3015 420 66 -1400 310/14G18 RMK AO2
14840KMKG MKG20060315071510503/15/06 07:15:31  5-MIN KMKG 151215Z 31010G18KT 10SM OVC031 M02/M07 A3015 420 66 -1400 310/10G18 RMK AO2
14840KMKG MKG20060315072011203/15/06 07:20:31  5-MIN KMKG 151220Z 31012G18KT 10SM BKN031 OVC037 M02/M07 A3016 410 66 -1400 320/12G18 RMK AO2
14840KMKG MKG20060315072512803/15/06 07:25:31  5-MIN KMKG 151225Z 32011G19KT 290V350 10SM BKN031 OVC037 M02/M07 A3015 410 66 -1400 330/11G19 290V350 RMK AO2
14840KMKG MKG20060315073011203/15/06 07:30:31  5-MIN KMKG 151230Z 32012G19KT 10SM BKN030 OVC038 M02/M07 A3016 410 66 -1400 320/12G19 RMK AO2
14840KMKG MKG20060315073511203/15/06 07:35:31  5-MIN KMKG 151235Z 32013G18KT 10SM SCT027 OVC033 M02/M07 A3016 410 66 -1400 320/13G18 RMK AO2
14840KMKG MKG20060315074011203/15/06 07:40:31  5-MIN KMKG 151240Z 31010G18KT 10SM SCT027 OVC033 M02/M07 A3016 410 66 -1400 310/10G18 RMK AO2
14840KMKG MKG20060315074510603/15/06 07:45:31  5-MIN KMKG 151245Z 30013KT 10SM BKN027 OVC033 M02/M07 A3017 400 66 -1500 310/13 RMK AO2
14840KMKG MKG20060315075011203/15/06 07:50:31  5-MIN KMKG 151250Z 31012G19KT 10SM BKN029 BKN033 M02/M07 A3017 400 66 -1500 310/12G19 RMK AO2
14840KMKG MKG20060315075512903/15/06 07:55:31  5-MIN KMKG 151255Z 32010G19KT 10SM BKN029 BKN033 M02/M07 A3017 400 69 -1500 320/10G19 RMK AO2 SLP224 T10171067
14840KMKG MKG20060315080011203/15/06 08:00:31  5-MIN KMKG 151300Z 33012G18KT 10SM BKN029 OVC033 M01/M07 A3017 400 66 -1400 330/12G18 RMK AO2
14840KMKG MKG20060315080511203/15/06 08:05:31  5-MIN KMKG 151305Z 31015G18KT 10SM BKN029 OVC033 M02/M07 A3017 400 66 -1500 310/15G18 RMK AO2
14840KMKG MKG20060315081010503/15/06 08:10:31  5-MIN KMKG 151310Z 31014G20KT 10SM OVC029 M02/M07 A3017 400 66 -1500 320/14G20 RMK AO2
14840KMKG MKG20060315081510503/15/06 08:15:31  5-MIN KMKG 151315Z 32011G20KT 10SM OVC027 M01/M07 A3017 400 63 -1400 320/11G20 RMK AO2
14840KMKG MKG20060315082010503/15/06 08:20:31  5-MIN KMKG 151320Z 31012G19KT 10SM OVC027 M01/M07 A3017 400 63 -1400 320/12G19 RMK AO2
14840KMKG MKG20060315082509903/15/06 08:25:31  5-MIN KMKG 151325Z 32014KT 10SM OVC027 M01/M07 A3018 400 63 -1400 320/14 RMK AO2
14840KMKG MKG20060315083010503/15/06 08:30:31  5-MIN KMKG 151330Z 31010G18KT 10SM OVC027 M01/M07 A3018 390 66 -1400 320/10G18 RMK AO2
14840KMKG MKG20060315083510503/15/06 08:35:31  5-MIN KMKG 151335Z 31013G18KT 10SM OVC027 M01/M07 A3018 390 63 -1400 320/13G18 RMK AO2
14840KMKG MKG20060315084010503/15/06 08:40:31  5-MIN KMKG 151340Z 32016G20KT 10SM BKN027 M01/M07 A3017 400 63 -1400 320/16G20 RMK AO2
14840KMKG MKG20060315084510503/15/06 08:45:31  5-MIN KMKG 151345Z 32015G20KT 10SM BKN027 M01/M07 A3018 390 63 -1400 330/15G20 RMK AO2
14840KMKG MKG20060315085013803/15/06 08:50:31  5-MIN KMKG 151350Z 32011G20KT 290V350 10SM BKN027 M01/M07 A3018 390 63 -1400 320/11G20 290V350 RMK AO2 SLP228 T10111072
14840KMKG MKG20060315085512203/15/06 08:55:31  5-MIN KMKG 151355Z 32014G19KT 10SM BKN027 M01/M07 A3019 390 63 -1400 330/14G19 RMK AO2 SLP229 T10111072
14840KMKG MKG20060315090010503/15/06 09:00:31  5-MIN KMKG 151400Z 32012G19KT 10SM BKN027 M01/M07 A3019 390 63 -1400 320/12G19 RMK AO2
14840KMKG MKG20060315090509903/15/06 09:05:31  5-MIN KMKG 151405Z 33012KT 10SM BKN027 M01/M07 A3019 390 61 -1300 330/12 RMK AO2
14840KMKG MKG20060315091010503/15/06 09:10:31  5-MIN KMKG 151410Z 33014G19KT 10SM BKN027 M01/M07 A3019 380 63 -1300 330/14G19 RMK AO2
14840KMKG MKG20060315091510503/15/06 09:15:31  5-MIN KMKG 151415Z 32015G19KT 10SM BKN027 M01/M07 A3018 390 63 -1300 320/15G19 RMK AO2
14840KMKG MKG20060315092010503/15/06 09:20:31  5-MIN KMKG 151420Z 32015G21KT 10SM BKN027 M01/M07 A3018 390 63 -1400 330/15G21 RMK AO2
14840KMKG MKG20060315092510503/15/06 09:25:31  5-MIN KMKG 151425Z 32015G21KT 10SM BKN027 M01/M07 A3019 380 63 -1400 320/15G21 RMK AO2
14840KMKG MKG20060315093010503/15/06 09:30:31  5-MIN KMKG 151430Z 33014G21KT 10SM SCT027 M01/M07 A3019 390 61 -1300 330/14G21 RMK AO2
14840KMKG MKG20060315093510503/15/06 09:35:31  5-MIN KMKG 151435Z 33013G21KT 10SM BKN027 M01/M07 A3019 380 61 -1300 330/13G21 RMK AO2
14840KMKG MKG20060315094010503/15/06 09:40:31  5-MIN KMKG 151440Z 33016G21KT 10SM BKN027 M01/M07 A3019 380 61 -1300 330/16G21 RMK AO2
14840KMKG MKG20060315094510403/15/06 09:45:31  5-MIN KMKG 151445Z 33014G21KT 10SM BKN027 00/M07 A3019 380 61 -1300 330/14G21 RMK AO2
14840KMKG MKG20060315095012703/15/06 09:50:31  5-MIN KMKG 151450Z 32011G19KT 10SM BKN027 00/M07 A3019 380 61 -1300 330/11G19 RMK AO2 SLP231 T00001067 53023
14840KMKG MKG20060315095512703/15/06 09:55:31  5-MIN KMKG 151455Z 31013G19KT 10SM BKN027 00/M07 A3019 380 61 -1300 320/13G19 RMK AO2 SLP232 T00001067 51016
14840KMKG MKG20060315100010503/15/06 10:00:31  5-MIN KMKG 151500Z 31012G20KT 10SM BKN027 M01/M07 A3019 380 63 -1300 320/12G20 RMK AO2
14840KMKG MKG20060315100510403/15/06 10:05:31  5-MIN KMKG 151505Z 31013G20KT 10SM BKN027 00/M07 A3019 380 61 -1300 310/13G20 RMK AO2
14840KMKG MKG20060315101010503/15/06 10:10:31  5-MIN KMKG 151510Z 32013G21KT 10SM BKN027 M01/M07 A3019 380 63 -1400 320/13G21 RMK AO2
14840KMKG MKG20060315101510403/15/06 10:15:31  5-MIN KMKG 151515Z 33015G21KT 10SM BKN027 00/M07 A3019 380 58 -1300 340/15G21 RMK AO2
14840KMKG MKG20060315102010403/15/06 10:20:31  5-MIN KMKG 151520Z 33012G20KT 10SM BKN027 00/M07 A3020 380 58 -1300 330/12G20 RMK AO2
14840KMKG MKG20060315102510503/15/06 10:25:31  5-MIN KMKG 151525Z 33017G20KT 10SM BKN027 M01/M07 A3020 380 61 -1300 330/17G20 RMK AO2
14840KMKG MKG20060315103010403/15/06 10:30:31  5-MIN KMKG 151530Z 32012G20KT 10SM BKN027 01/M07 A3020 370 58 -1200 320/12G20 RMK AO2
14840KMKG MKG20060315103510403/15/06 10:35:31  5-MIN KMKG 151535Z 31012G20KT 10SM SCT027 00/M07 A3019 380 58 -1300 310/12G20 RMK AO2
14840KMKG MKG20060315104010403/15/06 10:40:31  5-MIN KMKG 151540Z 32011G20KT 10SM BKN027 01/M07 A3020 380 56 -1200 330/11G20 RMK AO2
14840KMKG MKG20060315104510403/15/06 10:45:31  5-MIN KMKG 151545Z 32013G20KT 10SM BKN027 00/M07 A3020 380 58 -1300 320/13G20 RMK AO2
14840KMKG MKG20060315105012103/15/06 10:50:31  5-MIN KMKG 151550Z 33014G20KT 10SM BKN029 00/M07 A3020 380 58 -1300 340/14G20 RMK AO2 SLP233 T00001072
14840KMKG MKG20060315105512103/15/06 10:55:31  5-MIN KMKG 151555Z 33014G19KT 10SM BKN029 01/M07 A3020 370 56 -1100 330/14G19 RMK AO2 SLP235 T00111067
14840KMKG MKG20060315110010403/15/06 11:00:31  5-MIN KMKG 151600Z 31012G19KT 10SM BKN029 01/M07 A3020 370 58 -1200 320/12G19 RMK AO2
14840KMKG MKG20060315110510403/15/06 11:05:31  5-MIN KMKG 151605Z 32013G18KT 10SM BKN029 01/M07 A3020 370 56 -1200 330/13G18 RMK AO2
14840KMKG MKG20060315111010403/15/06 11:10:31  5-MIN KMKG 151610Z 30015G19KT 10SM BKN029 01/M07 A3020 370 58 -1200 310/15G19 RMK AO2
14840KMKG MKG20060315111510403/15/06 11:15:31  5-MIN KMKG 151615Z 31012G19KT 10SM BKN029 01/M07 A3019 380 58 -1200 320/12G19 RMK AO2
14840KMKG MKG20060315112010403/15/06 11:20:31  5-MIN KMKG 151620Z 31011G18KT 10SM BKN029 01/M07 A3019 380 58 -1200 320/11G18 RMK AO2
14840KMKG MKG20060315112510403/15/06 11:25:31  5-MIN KMKG 151625Z 32013G18KT 10SM BKN027 01/M06 A3019 380 61 -1200 320/13G18 RMK AO2
14840KMKG MKG20060315113010403/15/06 11:30:31  5-MIN KMKG 151630Z 32012G18KT 10SM BKN027 01/M07 A3019 380 58 -1200 320/12G18 RMK AO2
14840KMKG MKG20060315113510403/15/06 11:35:31  5-MIN KMKG 151635Z 32015G19KT 10SM BKN027 01/M07 A3019 380 56 -1200 320/15G19 RMK AO2
14840KMKG MKG20060315114010403/15/06 11:40:31  5-MIN KMKG 151640Z 31012G19KT 10SM BKN027 01/M07 A3019 380 58 -1200 310/12G19 RMK AO2
14840KMKG MKG20060315114512003/15/06 11:45:31  5-MIN KMKG 151645Z 31008G19KT 290V350 10SM BKN027 01/M07 A3019 380 56 -1100 320/08G19 290V350 RMK AO2
14840KMKG MKG20060315115012103/15/06 11:50:31  5-MIN KMKG 151650Z 30012G16KT 10SM BKN027 01/M07 A3019 380 56 -1200 310/12G16 RMK AO2 SLP231 T00061072
14840KMKG MKG20060315115512103/15/06 11:55:31  5-MIN KMKG 151655Z 30013G19KT 10SM BKN027 01/M07 A3019 380 56 -1200 310/13G19 RMK AO2 SLP231 T00061072
14840KMKG MKG20060315120010403/15/06 12:00:31  5-MIN KMKG 151700Z 30012G19KT 10SM BKN029 01/M07 A3019 380 58 -1200 300/12G19 RMK AO2
14840KMKG MKG20060315120509803/15/06 12:05:31  5-MIN KMKG 151705Z 30012KT 10SM BKN029 01/M07 A3019 380 58 -1200 300/12 RMK AO2
14840KMKG MKG20060315121009803/15/06 12:10:31  5-MIN KMKG 151710Z 29012KT 10SM SCT029 01/M07 A3019 390 58 -1200 300/12 RMK AO2
14840KMKG MKG20060315121509803/15/06 12:15:31  5-MIN KMKG 151715Z 30013KT 10SM SCT029 01/M07 A3019 380 56 -1100 300/13 RMK AO2
14840KMKG MKG20060315122009803/15/06 12:20:31  5-MIN KMKG 151720Z 30009KT 10SM SCT029 01/M07 A3019 380 58 -1200 300/09 RMK AO2
14840KMKG MKG20060315122511403/15/06 12:25:31  5-MIN KMKG 151725Z 30010KT 280V340 10SM SCT029 01/M07 A3019 380 56 -1100 300/10 280V340 RMK AO2
14840KMKG MKG20060315123009803/15/06 12:30:31  5-MIN KMKG 151730Z 29010KT 10SM SCT029 01/M07 A3019 380 56 -1100 300/10 RMK AO2
14840KMKG MKG20060315123510403/15/06 12:35:31  5-MIN KMKG 151735Z 28014G18KT 10SM SCT029 01/M06 A3019 380 58 -1100 290/14G18 RMK AO2
14840KMKG MKG20060315124010403/15/06 12:40:31  5-MIN KMKG 151740Z 28013G19KT 10SM SCT029 01/M07 A3019 380 56 -1100 290/13G19 RMK AO2
14840KMKG MKG20060315124510403/15/06 12:45:31  5-MIN KMKG 151745Z 29012G19KT 10SM SCT029 01/M06 A3019 380 58 -1100 290/12G19 RMK AO2
14840KMKG MKG20060315125013303/15/06 12:50:31  5-MIN KMKG 151750Z 29012KT 10SM SCT029 01/M07 A3019 380 56 -1100 290/12 RMK AO2 SLP232 T00111067 10011 21017 51016
14840KMKG MKG20060315125513303/15/06 12:55:31  5-MIN KMKG 151755Z 29010KT 10SM SCT029 01/M07 A3020 380 56 -1100 290/10 RMK AO2 SLP233 T00111067 10011 21017 52001
14840KMKG MKG20060315130009803/15/06 13:00:31  5-MIN KMKG 151800Z 30015KT 10SM SCT029 01/M07 A3020 380 56 -1100 300/15 RMK AO2
14840KMKG MKG20060315130510403/15/06 13:05:31  5-MIN KMKG 151805Z 29017G20KT 10SM SCT029 01/M07 A3020 370 56 -1100 290/17G20 RMK AO2
14840KMKG MKG20060315131009803/15/06 13:10:31  5-MIN KMKG 151810Z 28016KT 10SM SCT029 01/M07 A3020 370 58 -1200 290/16 RMK AO2
14840KMKG MKG20060315131510403/15/06 13:15:31  5-MIN KMKG 151815Z 29013G19KT 10SM SCT029 01/M07 A3020 370 58 -1200 290/13G19 RMK AO2
14840KMKG MKG20060315132010403/15/06 13:20:31  5-MIN KMKG 151820Z 29015G19KT 10SM SCT029 01/M06 A3020 370 61 -1200 300/15G19 RMK AO2
14840KMKG MKG20060315132509803/15/06 13:25:31  5-MIN KMKG 151825Z 30014KT 10SM SCT029 01/M07 A3020 370 58 -1200 300/14 RMK AO2
14840KMKG MKG20060315133010403/15/06 13:30:31  5-MIN KMKG 151830Z 29016G21KT 10SM SCT029 01/M06 A3020 370 58 -1100 290/16G21 RMK AO2
14840KMKG MKG20060315133510403/15/06 13:35:31  5-MIN KMKG 151835Z 30013G21KT 10SM SCT029 01/M06 A3021 370 58 -1100 300/13G21 RMK AO2
14840KMKG MKG20060315134010403/15/06 13:40:31  5-MIN KMKG 151840Z 31012G20KT 10SM SCT029 01/M06 A3021 360 61 -1200 310/12G20 RMK AO2
14840KMKG MKG20060315134510403/15/06 13:45:31  5-MIN KMKG 151845Z 31014G18KT 10SM SCT029 01/M06 A3021 360 61 -1200 310/14G18 RMK AO2
14840KMKG MKG20060315135012103/15/06 13:50:31  5-MIN KMKG 151850Z 30015G19KT 10SM SCT025 01/M07 A3021 360 58 -1200 300/15G19 RMK AO2 SLP238 T00061067
14840KMKG MKG20060315135512103/15/06 13:55:31  5-MIN KMKG 151855Z 29015G19KT 10SM SCT025 01/M07 A3021 360 58 -1200 300/15G19 RMK AO2 SLP238 T00061067
14840KMKG MKG20060315140009803/15/06 14:00:31  5-MIN KMKG 151900Z 32014KT 10SM BKN025 01/M06 A3020 370 61 -1200 330/14 RMK AO2
14840KMKG MKG20060315140509803/15/06 14:05:31  5-MIN KMKG 151905Z 30014KT 10SM BKN025 01/M07 A3021 370 58 -1200 300/14 RMK AO2
14840KMKG MKG20060315141009803/15/06 14:10:31  5-MIN KMKG 151910Z 30012KT 10SM SCT025 01/M07 A3021 360 58 -1200 310/12 RMK AO2
14840KMKG MKG20060315141509803/15/06 14:15:31  5-MIN KMKG 151915Z 29012KT 10SM BKN025 01/M06 A3021 360 61 -1200 290/12 RMK AO2
14840KMKG MKG20060315142010403/15/06 14:20:31  5-MIN KMKG 151920Z 29012G17KT 10SM BKN025 01/M06 A3021 360 58 -1200 290/12G17 RMK AO2
14840KMKG MKG20060315142510403/15/06 14:25:31  5-MIN KMKG 151925Z 27017G22KT 10SM BKN025 01/M07 A3021 360 56 -1200 280/17G22 RMK AO2
14840KMKG MKG20060315143010403/15/06 14:30:31  5-MIN KMKG 151930Z 29013G22KT 10SM BKN027 01/M07 A3021 360 56 -1200 290/13G22 RMK AO2
14840KMKG MKG20060315143510403/15/06 14:35:31  5-MIN KMKG 151935Z 27017G21KT 10SM BKN027 01/M07 A3021 360 58 -1200 280/17G21 RMK AO2
14840KMKG MKG20060315144010403/15/06 14:40:31  5-MIN KMKG 151940Z 29013G21KT 10SM OVC027 00/M07 A3021 360 61 -1300 300/13G21 RMK AO2
14840KMKG MKG20060315144509803/15/06 14:45:31  5-MIN KMKG 151945Z 28014KT 10SM OVC027 01/M07 A3021 360 58 -1200 280/14 RMK AO2
14840KMKG MKG20060315145011503/15/06 14:50:31  5-MIN KMKG 151950Z 30014KT 10SM BKN027 01/M07 A3021 370 56 -1100 300/14 RMK AO2 SLP237 T00111067
14840KMKG MKG20060315145511503/15/06 14:55:31  5-MIN KMKG 151955Z 28011KT 10SM OVC027 01/M07 A3020 370 56 -1100 280/11 RMK AO2 SLP236 T00111067
14840KMKG MKG20060315150009803/15/06 15:00:31  5-MIN KMKG 152000Z 30016KT 10SM OVC027 01/M07 A3021 370 56 -1100 300/16 RMK AO2
14840KMKG MKG20060315150510403/15/06 15:05:31  5-MIN KMKG 152005Z 30014G21KT 10SM BKN027 00/M07 A3020 370 61 -1300 300/14G21 RMK AO2
14840KMKG MKG20060315151010403/15/06 15:10:31  5-MIN KMKG 152010Z 28015G21KT 10SM BKN027 01/M07 A3020 370 58 -1200 290/15G21 RMK AO2
14840KMKG MKG20060315151510403/15/06 15:15:31  5-MIN KMKG 152015Z 29014G20KT 10SM BKN027 01/M07 A3020 370 58 -1200 290/14G20 RMK AO2
14840KMKG MKG20060315152009803/15/06 15:20:31  5-MIN KMKG 152020Z 31011KT 10SM SCT027 01/M07 A3020 370 58 -1200 320/11 RMK AO2
14840KMKG MKG20060315152509803/15/06 15:25:31  5-MIN KMKG 152025Z 30012KT 10SM SCT027 01/M07 A3020 370 58 -1200 310/12 RMK AO2
14840KMKG MKG20060315153009803/15/06 15:30:31  5-MIN KMKG 152030Z 30013KT 10SM FEW027 01/M07 A3020 370 58 -1200 310/13 RMK AO2
14840KMKG MKG20060315153509803/15/06 15:35:31  5-MIN KMKG 152035Z 31013KT 10SM FEW027 01/M07 A3020 370 58 -1200 310/13 RMK AO2
14840KMKG MKG20060315154009503/15/06 15:40:31  5-MIN KMKG 152040Z 30013KT 10SM CLR 01/M06 A3020 370 58 -1100 300/13 RMK AO2
14840KMKG MKG20060315154509503/15/06 15:45:31  5-MIN KMKG 152045Z 30012KT 10SM CLR 01/M07 A3020 370 58 -1200 300/12 RMK AO2
14840KMKG MKG20060315155011803/15/06 15:50:31  5-MIN KMKG 152050Z 31013KT 10SM CLR 01/M07 A3020 370 58 -1200 310/13 RMK AO2 SLP235 T00061067 52001
14840KMKG MKG20060315155512703/15/06 15:55:31  5-MIN KMKG 152055Z 30009G16KT 10SM FEW027 01/M07 A3020 370 56 -1200 310/09G16 RMK AO2 SLP235 T00061072 50002
14840KMKG MKG20060315160010103/15/06 16:00:31  5-MIN KMKG 152100Z 29013G17KT 10SM CLR 01/M07 A3020 370 56 -1200 290/13G17 RMK AO2
14840KMKG MKG20060315160510103/15/06 16:05:31  5-MIN KMKG 152105Z 29013G17KT 10SM CLR 01/M07 A3020 370 58 -1200 290/13G17 RMK AO2
14840KMKG MKG20060315161009503/15/06 16:10:31  5-MIN KMKG 152110Z 29013KT 10SM CLR 01/M07 A3020 370 56 -1200 290/13 RMK AO2
14840KMKG MKG20060315161509503/15/06 16:15:31  5-MIN KMKG 152115Z 29012KT 10SM CLR 01/M07 A3020 370 54 -1100 300/12 RMK AO2
14840KMKG MKG20060315162009503/15/06 16:20:31  5-MIN KMKG 152120Z 32009KT 10SM CLR 01/M07 A3020 370 54 -1100 320/09 RMK AO2
14840KMKG MKG20060315162510103/15/06 16:25:31  5-MIN KMKG 152125Z 29013G16KT 10SM CLR 01/M07 A3020 370 54 -1100 290/13G16 RMK AO2
14840KMKG MKG20060315163010603/15/06 16:30:31  5-MIN KMKG 152130Z AUTO 29013G16KT 10SM CLR 01/M07 A3021 370 56 -1200 300/13G16 RMK AO2
14840KMKG MKG20060315163510503/15/06 16:35:31  5-MIN KMKG 152135Z AUTO 31010KT 10SM CLR 01/M07 A3020 370 56 -1200 310/10 RMK AO2 TSNO
14840KMKG MKG20060315164010503/15/06 16:40:31  5-MIN KMKG 152140Z AUTO 31010KT 10SM CLR 01/M07 A3021 370 56 -1100 320/10 RMK AO2 TSNO
14840KMKG MKG20060315164510503/15/06 16:45:31  5-MIN KMKG 152145Z AUTO 30009KT 10SM CLR 01/M07 A3021 370 56 -1200 300/09 RMK AO2 TSNO
14840KMKG MKG20060315165011203/15/06 16:50:31  5-MIN KMKG 152150Z 30012KT 10SM CLR 01/M07 A3021 370 56 -1100 310/12 RMK AO2 SLP237 T00111067
14840KMKG MKG20060315165511203/15/06 16:55:31  5-MIN KMKG 152155Z 29011KT 10SM CLR 01/M07 A3020 370 58 -1200 300/11 RMK AO2 SLP236 T00061067
14840KMKG MKG20060315170009503/15/06 17:00:31  5-MIN KMKG 152200Z 28010KT 10SM CLR 01/M07 A3020 370 58 -1200 280/10 RMK AO2
14840KMKG MKG20060315170509503/15/06 17:05:31  5-MIN KMKG 152205Z 29010KT 10SM CLR 01/M07 A3020 370 58 -1200 290/10 RMK AO2
14840KMKG MKG20060315171009503/15/06 17:10:31  5-MIN KMKG 152210Z 31008KT 10SM CLR 01/M07 A3020 370 58 -1200 320/08 RMK AO2
14840KMKG MKG20060315171509503/15/06 17:15:31  5-MIN KMKG 152215Z 31010KT 10SM CLR 01/M07 A3020 370 58 -1200 310/10 RMK AO2
14840KMKG MKG20060315172009503/15/06 17:20:31  5-MIN KMKG 152220Z 29011KT 10SM CLR 01/M07 A3020 370 58 -1200 300/11 RMK AO2
14840KMKG MKG20060315172509503/15/06 17:25:31  5-MIN KMKG 152225Z 29011KT 10SM CLR 01/M07 A3020 370 56 -1200 290/11 RMK AO2
14840KMKG MKG20060315173009503/15/06 17:30:31  5-MIN KMKG 152230Z 28009KT 10SM CLR 01/M07 A3020 370 58 -1200 290/09 RMK AO2
14840KMKG MKG20060315173509503/15/06 17:35:31  5-MIN KMKG 152235Z 28010KT 10SM CLR 01/M07 A3020 370 58 -1200 280/10 RMK AO2
14840KMKG MKG20060315174009503/15/06 17:40:31  5-MIN KMKG 152240Z 29009KT 10SM CLR 01/M07 A3020 370 58 -1200 290/09 RMK AO2
14840KMKG MKG20060315174509503/15/06 17:45:31  5-MIN KMKG 152245Z 29010KT 10SM CLR 01/M07 A3020 370 58 -1200 290/10 RMK AO2
14840KMKG MKG20060315175011203/15/06 17:50:31  5-MIN KMKG 152250Z 29008KT 10SM CLR 01/M07 A3020 380 58 -1200 290/08 RMK AO2 SLP233 T00061067
14840KMKG MKG20060315175511203/15/06 17:55:31  5-MIN KMKG 152255Z 29010KT 10SM CLR 00/M07 A3020 370 61 -1300 300/10 RMK AO2 SLP234 T00001067
14840KMKG MKG20060315180009503/15/06 18:00:31  5-MIN KMKG 152300Z 29009KT 10SM CLR 00/M07 A3020 380 61 -1300 290/09 RMK AO2
14840KMKG MKG20060315180509503/15/06 18:05:31  5-MIN KMKG 152305Z 30008KT 10SM CLR 00/M07 A3020 380 58 -1300 310/08 RMK AO2
14840KMKG MKG20060315181009503/15/06 18:10:31  5-MIN KMKG 152310Z 29008KT 10SM CLR 00/M07 A3019 380 58 -1300 290/08 RMK AO2
14840KMKG MKG20060315181509603/15/06 18:15:31  5-MIN KMKG 152315Z 28008KT 10SM CLR M01/M07 A3020 380 63 -1300 290/08 RMK AO2
14840KMKG MKG20060315182009603/15/06 18:20:31  5-MIN KMKG 152320Z 30007KT 10SM CLR M01/M07 A3020 380 61 -1300 300/07 RMK AO2
14840KMKG MKG20060315182509603/15/06 18:25:31  5-MIN KMKG 152325Z 30006KT 10SM CLR M01/M07 A3020 380 63 -1300 300/06 RMK AO2
14840KMKG MKG20060315183009603/15/06 18:30:31  5-MIN KMKG 152330Z 29006KT 10SM CLR M01/M07 A3019 380 63 -1300 290/06 RMK AO2
14840KMKG MKG20060315183509603/15/06 18:35:31  5-MIN KMKG 152335Z 30006KT 10SM CLR M01/M07 A3019 380 63 -1300 300/06 RMK AO2
14840KMKG MKG20060315184009603/15/06 18:40:31  5-MIN KMKG 152340Z 30006KT 10SM CLR M01/M07 A3019 380 63 -1300 310/06 RMK AO2
14840KMKG MKG20060315184509603/15/06 18:45:31  5-MIN KMKG 152345Z 32006KT 10SM CLR M01/M07 A3019 380 63 -1300 320/06 RMK AO2
14840KMKG MKG20060315185013103/15/06 18:50:31  5-MIN KMKG 152350Z 30005KT 10SM CLR M01/M07 A3019 380 63 -1300 300/05 RMK AO2 SLP232 T10061067 10011 21006 50002
14840KMKG MKG20060315185513103/15/06 18:55:31  5-MIN KMKG 152355Z 29005KT 10SM CLR M01/M07 A3019 380 66 -1400 300/05 RMK AO2 SLP231 T10111067 10011 21011 58004
14840KMKG MKG20060315190009603/15/06 19:00:31  5-MIN KMKG 160000Z 30004KT 10SM CLR M01/M07 A3019 380 66 -1400 310/04 RMK AO2
14840KMKG MKG20060315190509603/15/06 19:05:31  5-MIN KMKG 160005Z 30005KT 10SM CLR M01/M07 A3019 380 66 -1400 300/05 RMK AO2
14840KMKG MKG20060315191009603/15/06 19:10:31  5-MIN KMKG 160010Z 30004KT 10SM CLR M01/M07 A3019 380 66 -1400 310/04 RMK AO2
14840KMKG MKG20060315191509603/15/06 19:15:31  5-MIN KMKG 160015Z 31003KT 10SM CLR M01/M07 A3019 380 66 -1400 320/03 RMK AO2
14840KMKG MKG20060315192009603/15/06 19:20:31  5-MIN KMKG 160020Z 31003KT 10SM CLR M01/M07 A3019 380 66 -1400 310/03 RMK AO2
14840KMKG MKG20060315192509603/15/06 19:25:31  5-MIN KMKG 160025Z 31004KT 10SM CLR M01/M07 A3019 380 66 -1400 310/04 RMK AO2
14840KMKG MKG20060315193009603/15/06 19:30:31  5-MIN KMKG 160030Z 32003KT 10SM CLR M01/M07 A3019 380 66 -1400 320/03 RMK AO2
14840KMKG MKG20060315193509603/15/06 19:35:31  5-MIN KMKG 160035Z 32003KT 10SM CLR M01/M07 A3019 380 66 -1400 330/03 RMK AO2
14840KMKG MKG20060315194009603/15/06 19:40:31  5-MIN KMKG 160040Z 34003KT 10SM CLR M01/M07 A3019 380 66 -1400 340/03 RMK AO2
14840KMKG MKG20060315194509603/15/06 19:45:31  5-MIN KMKG 160045Z 00000KT 10SM CLR M02/M06 A3019 380 72 -1500 000/00 RMK AO2
14840KMKG MKG20060315195011303/15/06 19:50:31  5-MIN KMKG 160050Z 00000KT 10SM CLR M01/M07 A3019 380 66 -1400 000/00 RMK AO2 SLP233 T10111067
14840KMKG MKG20060315195511303/15/06 19:55:31  5-MIN KMKG 160055Z 00000KT 10SM CLR M01/M07 A3019 380 66 -1400 000/00 RMK AO2 SLP233 T10111067
14840KMKG MKG20060315200009603/15/06 20:00:31  5-MIN KMKG 160100Z 00000KT 10SM CLR M01/M07 A3019 380 66 -1400 000/00 RMK AO2
14840KMKG MKG20060315200509603/15/06 20:05:31  5-MIN KMKG 160105Z 00000KT 10SM CLR M01/M06 A3020 380 69 -1400 000/00 RMK AO2
14840KMKG MKG20060315201009603/15/06 20:10:31  5-MIN KMKG 160110Z 00000KT 10SM CLR M01/M06 A3020 380 69 -1400 000/00 RMK AO2
14840KMKG MKG20060315201509603/15/06 20:15:31  5-MIN KMKG 160115Z 00000KT 10SM CLR M01/M06 A3020 380 69 -1400 000/00 RMK AO2
14840KMKG MKG20060315202009603/15/06 20:20:31  5-MIN KMKG 160120Z 00000KT 10SM CLR M01/M06 A3020 370 69 -1400 000/00 RMK AO2
14840KMKG MKG20060315202509603/15/06 20:25:31  5-MIN KMKG 160125Z 30003KT 10SM CLR M01/M06 A3020 370 69 -1400 300/03 RMK AO2
14840KMKG MKG20060315203009603/15/06 20:30:31  5-MIN KMKG 160130Z 30003KT 10SM CLR M01/M06 A3020 370 69 -1400 300/03 RMK AO2
14840KMKG MKG20060315203509603/15/06 20:35:31  5-MIN KMKG 160135Z 00000KT 10SM CLR M01/M06 A3020 370 69 -1400 000/00 RMK AO2
14840KMKG MKG20060315204009603/15/06 20:40:31  5-MIN KMKG 160140Z 00000KT 10SM CLR M01/M06 A3021 360 69 -1400 000/00 RMK AO2
14840KMKG MKG20060315204509603/15/06 20:45:31  5-MIN KMKG 160145Z 00000KT 10SM CLR M02/M06 A3021 360 72 -1500 000/00 RMK AO2
14840KMKG MKG20060315205011303/15/06 20:50:31  5-MIN KMKG 160150Z 00000KT 10SM CLR M02/M06 A3021 360 72 -1500 000/00 RMK AO2 SLP240 T10171061
14840KMKG MKG20060315205511303/15/06 20:55:31  5-MIN KMKG 160155Z 00000KT 10SM CLR M02/M06 A3021 360 72 -1500 000/00 RMK AO2 SLP240 T10171061
14840KMKG MKG20060315210009603/15/06 21:00:31  5-MIN KMKG 160200Z 00000KT 10SM CLR M02/M06 A3021 360 72 -1500 000/00 RMK AO2
14840KMKG MKG20060315210509603/15/06 21:05:31  5-MIN KMKG 160205Z 00000KT 10SM CLR M02/M06 A3021 360 75 -1500 000/00 RMK AO2
14840KMKG MKG20060315211009603/15/06 21:10:31  5-MIN KMKG 160210Z 00000KT 10SM CLR M02/M06 A3022 360 75 -1600 000/00 RMK AO2
14840KMKG MKG20060315211509603/15/06 21:15:31  5-MIN KMKG 160215Z 00000KT 10SM CLR M02/M06 A3022 350 72 -1500 000/00 RMK AO2
14840KMKG MKG20060315212009603/15/06 21:20:31  5-MIN KMKG 160220Z 00000KT 10SM CLR M02/M06 A3022 360 75 -1500 000/00 RMK AO2
14840KMKG MKG20060315212509603/15/06 21:25:31  5-MIN KMKG 160225Z 00000KT 10SM CLR M02/M06 A3022 360 75 -1500 000/00 RMK AO2
14840KMKG MKG20060315213009603/15/06 21:30:31  5-MIN KMKG 160230Z 00000KT 10SM CLR M02/M06 A3022 360 78 -1600 000/00 RMK AO2
14840KMKG MKG20060315213509603/15/06 21:35:31  5-MIN KMKG 160235Z 00000KT 10SM CLR M02/M06 A3022 360 75 -1600 000/00 RMK AO2
14840KMKG MKG20060315214009603/15/06 21:40:31  5-MIN KMKG 160240Z 00000KT 10SM CLR M02/M06 A3022 360 75 -1500 000/00 RMK AO2
14840KMKG MKG20060315214509603/15/06 21:45:31  5-MIN KMKG 160245Z 00000KT 10SM CLR M02/M06 A3022 360 78 -1600 000/00 RMK AO2
14840KMKG MKG20060315215011903/15/06 21:50:31  5-MIN KMKG 160250Z 00000KT 10SM CLR M02/M06 A3022 360 72 -1500 000/00 RMK AO2 SLP241 T10171061 58004
14840KMKG MKG20060315215511903/15/06 21:55:31  5-MIN KMKG 160255Z 00000KT 10SM CLR M02/M06 A3022 360 78 -1600 000/00 RMK AO2 SLP241 T10221056 53009
14840KMKG MKG20060315220009603/15/06 22:00:31  5-MIN KMKG 160300Z 00000KT 10SM CLR M02/M06 A3021 360 75 -1500 000/00 RMK AO2
14840KMKG MKG20060315220509603/15/06 22:05:31  5-MIN KMKG 160305Z 00000KT 10SM CLR M02/M06 A3021 360 78 -1600 000/00 RMK AO2
14840KMKG MKG20060315221009603/15/06 22:10:31  5-MIN KMKG 160310Z 00000KT 10SM CLR M02/M06 A3021 360 78 -1600 000/00 RMK AO2
14840KMKG MKG20060315221509603/15/06 22:15:31  5-MIN KMKG 160315Z 00000KT 10SM CLR M02/M06 A3021 360 78 -1600 000/00 RMK AO2
14840KMKG MKG20060315222009603/15/06 22:20:31  5-MIN KMKG 160320Z 00000KT 10SM CLR M02/M06 A3021 360 78 -1600 000/00 RMK AO2
14840KMKG MKG20060315222509603/15/06 22:25:31  5-MIN KMKG 160325Z 00000KT 10SM CLR M02/M06 A3021 360 78 -1600 000/00 RMK AO2
14840KMKG MKG20060315223009603/15/06 22:30:31  5-MIN KMKG 160330Z 00000KT 10SM CLR M02/M06 A3022 360 78 -1600 000/00 RMK AO2
14840KMKG MKG20060315223509603/15/06 22:35:31  5-MIN KMKG 160335Z 00000KT 10SM CLR M02/M06 A3022 360 78 -1600 000/00 RMK AO2
14840KMKG MKG20060315224009603/15/06 22:40:31  5-MIN KMKG 160340Z 00000KT 10SM CLR M03/M06 A3022 360 81 -1700 000/00 RMK AO2
14840KMKG MKG20060315224509603/15/06 22:45:31  5-MIN KMKG 160345Z 00000KT 10SM CLR M03/M06 A3022 350 81 -1700 000/00 RMK AO2
14840KMKG MKG20060315225011303/15/06 22:50:31  5-MIN KMKG 160350Z 22003KT 10SM CLR M03/M06 A3022 350 81 -1700 230/03 RMK AO2 SLP242 T10281056
14840KMKG MKG20060315225511303/15/06 22:55:31  5-MIN KMKG 160355Z 22004KT 10SM CLR M03/M06 A3022 350 81 -1700 230/04 RMK AO2 SLP242 T10281056
14840KMKG MKG20060315230009603/15/06 23:00:31  5-MIN KMKG 160400Z 22004KT 10SM CLR M03/M06 A3022 350 81 -1700 220/04 RMK AO2
14840KMKG MKG20060315230509603/15/06 23:05:31  5-MIN KMKG 160405Z 20003KT 10SM CLR M03/M06 A3022 350 81 -1700 210/03 RMK AO2
14840KMKG MKG20060315231009603/15/06 23:10:31  5-MIN KMKG 160410Z 00000KT 10SM CLR M03/M06 A3022 350 81 -1700 000/00 RMK AO2
14840KMKG MKG20060315231509603/15/06 23:15:31  5-MIN KMKG 160415Z 19003KT 10SM CLR M03/M06 A3022 350 81 -1700 190/03 RMK AO2
14840KMKG MKG20060315232009603/15/06 23:20:31  5-MIN KMKG 160420Z 00000KT 10SM CLR M03/M05 A3022 350 85 -1700 000/00 RMK AO2
14840KMKG MKG20060315232509603/15/06 23:25:31  5-MIN KMKG 160425Z 00000KT 10SM CLR M03/M05 A3022 350 85 -1700 000/00 RMK AO2
14840KMKG MKG20060315233009603/15/06 23:30:31  5-MIN KMKG 160430Z 00000KT 10SM CLR M03/M05 A3022 350 85 -1700 000/00 RMK AO2
14840KMKG MKG20060315233509603/15/06 23:35:31  5-MIN KMKG 160435Z 00000KT 10SM CLR M03/M05 A3022 350 85 -1700 000/00 RMK AO2
14840KMKG MKG20060315234009603/15/06 23:40:31  5-MIN KMKG 160440Z 00000KT 10SM CLR M02/M06 A3022 350 78 -1600 000/00 RMK AO2
14840KMKG MKG20060315234509903/15/06 23:45:31  5-MIN KMKG 160445Z 00000KT 10SM FEW120 M02/M06 A3022 350 78 -1600 000/00 RMK AO2
14840KMKG MKG20060315235012603/15/06 23:50:31  5-MIN KMKG 160450Z 00000KT 10SM SCT110 M02/M06 A3022 350 78 -1600 000/00 RMK AO2 SLP242 T10221056 400111028
14840KMKG MKG20060315235512603/15/06 23:55:31  5-MIN KMKG 160455Z 00000KT 10SM SCT110 M02/M06 A3022 350 78 -1600 000/00 RMK AO2 SLP242 T10221056 400111028
14840KMKG MKG20060316000009903/16/06 00:00:32  5-MIN KMKG 160500Z 00000KT 10SM BKN110 M02/M05 A3022 350 81 -1600 000/00 RMK AO2
14840KMKG MKG20060316000509903/16/06 00:05:31  5-MIN KMKG 160505Z 00000KT 10SM BKN110 M02/M05 A3022 350 81 -1600 000/00 RMK AO2
14840KMKG MKG20060316001009903/16/06 00:10:31  5-MIN KMKG 160510Z 00000KT 10SM OVC110 M02/M05 A3022 350 81 -1600 000/00 RMK AO2
14840KMKG MKG20060316001509903/16/06 00:15:31  5-MIN KMKG 160515Z 00000KT 10SM OVC110 M02/M05 A3022 350 81 -1600 000/00 RMK AO2
14840KMKG MKG20060316002009903/16/06 00:20:31  5-MIN KMKG 160520Z 00000KT 10SM BKN110 M02/M05 A3022 350 81 -1600 000/00 RMK AO2
14840KMKG MKG20060316002509903/16/06 00:25:31  5-MIN KMKG 160525Z 00000KT 10SM BKN110 M02/M05 A3022 350 81 -1600 000/00 RMK AO2
14840KMKG MKG20060316003009903/16/06 00:30:31  5-MIN KMKG 160530Z 00000KT 10SM BKN110 M02/M04 A3022 350 85 -1600 000/00 RMK AO2
14840KMKG MKG20060316003509903/16/06 00:35:31  5-MIN KMKG 160535Z 00000KT 10SM BKN110 M02/M04 A3022 350 85 -1600 000/00 RMK AO2
14840KMKG MKG20060316004009903/16/06 00:40:31  5-MIN KMKG 160540Z 00000KT 10SM BKN100 M02/M05 A3022 350 81 -1600 000/00 RMK AO2
14840KMKG MKG20060316004509903/16/06 00:45:31  5-MIN KMKG 160545Z 00000KT 10SM BKN100 M02/M05 A3022 350 81 -1600 000/00 RMK AO2
14840KMKG MKG20060316005013403/16/06 00:50:31  5-MIN KMKG 160550Z 00000KT 10SM BKN100 M02/M05 A3023 350 81 -1600 000/00 RMK AO2 SLP243 T10221050 11011 21028 53009
14840KMKG MKG20060316005513403/16/06 00:55:31  5-MIN KMKG 160555Z 00000KT 10SM OVC100 M02/M04 A3022 350 85 -1600 000/00 RMK AO2 SLP243 T10221044 11011 21028 51002
14840KMKG MKG20060316010009903/16/06 01:00:31  5-MIN KMKG 160600Z 00000KT 10SM OVC100 M02/M04 A3022 350 81 -1500 000/00 RMK AO2
14840KMKG MKG20060316010509903/16/06 01:05:31  5-MIN KMKG 160605Z 00000KT 10SM OVC100 M02/M04 A3022 350 81 -1500 000/00 RMK AO2
14840KMKG MKG20060316011009903/16/06 01:10:31  5-MIN KMKG 160610Z 00000KT 10SM BKN100 M02/M04 A3022 360 85 -1600 000/00 RMK AO2
14840KMKG MKG20060316011509903/16/06 01:15:31  5-MIN KMKG 160615Z 00000KT 10SM BKN100 M02/M04 A3022 350 85 -1600 000/00 RMK AO2
14840KMKG MKG20060316012009903/16/06 01:20:31  5-MIN KMKG 160620Z 00000KT 10SM BKN110 M02/M04 A3022 350 85 -1600 000/00 RMK AO2
14840KMKG MKG20060316012509903/16/06 01:25:31  5-MIN KMKG 160625Z 00000KT 10SM BKN110 M02/M04 A3022 360 81 -1500 000/00 RMK AO2
14840KMKG MKG20060316013009903/16/06 01:30:31  5-MIN KMKG 160630Z 00000KT 10SM BKN110 M02/M04 A3022 360 85 -1600 000/00 RMK AO2
14840KMKG MKG20060316013509903/16/06 01:35:31  5-MIN KMKG 160635Z 13003KT 10SM BKN100 M02/M04 A3021 360 81 -1500 130/03 RMK AO2
14840KMKG MKG20060316014009903/16/06 01:40:31  5-MIN KMKG 160640Z 13003KT 10SM BKN100 M02/M04 A3022 360 81 -1500 140/03 RMK AO2
14840KMKG MKG20060316014509903/16/06 01:45:31  5-MIN KMKG 160645Z 13003KT 10SM BKN110 M02/M04 A3022 360 81 -1500 130/03 RMK AO2
14840KMKG MKG20060316015011603/16/06 01:50:31  5-MIN KMKG 160650Z 13003KT 10SM BKN110 M02/M04 A3022 360 81 -1500 130/03 RMK AO2 SLP240 T10171044
14840KMKG MKG20060316015511603/16/06 01:55:31  5-MIN KMKG 160655Z 00000KT 10SM BKN110 M02/M04 A3022 360 85 -1600 000/00 RMK AO2 SLP240 T10221044
14840KMKG MKG20060316020010603/16/06 02:00:31  5-MIN KMKG 160700Z 00000KT 10SM BKN100 BKN120 M02/M04 A3022 360 85 -1600 000/00 RMK AO2
14840KMKG MKG20060316020510603/16/06 02:05:31  5-MIN KMKG 160705Z 00000KT 10SM BKN100 BKN120 M02/M04 A3021 360 81 -1500 000/00 RMK AO2
14840KMKG MKG20060316021010603/16/06 02:10:31  5-MIN KMKG 160710Z 00000KT 10SM BKN100 OVC120 M02/M04 A3021 360 81 -1500 000/00 RMK AO2
14840KMKG MKG20060316021510603/16/06 02:15:31  5-MIN KMKG 160715Z 00000KT 10SM BKN100 OVC120 M02/M04 A3021 360 81 -1500 000/00 RMK AO2
14840KMKG MKG20060316022009903/16/06 02:20:31  5-MIN KMKG 160720Z 00000KT 10SM OVC100 M02/M04 A3021 360 81 -1500 000/00 RMK AO2
14840KMKG MKG20060316022509903/16/06 02:25:31  5-MIN KMKG 160725Z 00000KT 10SM OVC100 M02/M05 A3021 360 78 -1500 000/00 RMK AO2
14840KMKG MKG20060316023009903/16/06 02:30:31  5-MIN KMKG 160730Z 00000KT 10SM BKN100 M02/M05 A3021 360 78 -1500 000/00 RMK AO2
14840KMKG MKG20060316023509903/16/06 02:35:31  5-MIN KMKG 160735Z 00000KT 10SM SCT100 M02/M05 A3021 370 78 -1500 000/00 RMK AO2
14840KMKG MKG20060316024009903/16/06 02:40:31  5-MIN KMKG 160740Z 00000KT 10SM SCT100 M02/M05 A3021 370 78 -1500 000/00 RMK AO2
14840KMKG MKG20060316024509903/16/06 02:45:31  5-MIN KMKG 160745Z 00000KT 10SM FEW090 M02/M05 A3021 370 78 -1500 000/00 RMK AO2
14840KMKG MKG20060316025011603/16/06 02:50:31  5-MIN KMKG 160750Z 00000KT 10SM FEW100 M02/M04 A3021 370 85 -1600 000/00 RMK AO2 SLP236 T10221044
14840KMKG MKG20060316025511603/16/06 02:55:31  5-MIN KMKG 160755Z 00000KT 10SM SCT080 M02/M05 A3020 370 81 -1600 000/00 RMK AO2 SLP236 T10221050
14840KMKG MKG20060316030009903/16/06 03:00:31  5-MIN KMKG 160800Z 00000KT 10SM BKN080 M02/M05 A3020 370 81 -1600 000/00 RMK AO2
14840KMKG MKG20060316030509903/16/06 03:05:31  5-MIN KMKG 160805Z 00000KT 10SM SCT080 M02/M05 A3020 370 81 -1600 000/00 RMK AO2
14840KMKG MKG20060316031009903/16/06 03:10:31  5-MIN KMKG 160810Z 00000KT 10SM SCT080 M02/M05 A3020 380 81 -1600 000/00 RMK AO2
14840KMKG MKG20060316031509903/16/06 03:15:31  5-MIN KMKG 160815Z 13003KT 10SM SCT080 M02/M05 A3019 380 81 -1600 140/03 RMK AO2
14840KMKG MKG20060316032009903/16/06 03:20:31  5-MIN KMKG 160820Z 13003KT 10SM SCT075 M02/M05 A3019 380 81 -1600 130/03 RMK AO2
14840KMKG MKG20060316032509903/16/06 03:25:31  5-MIN KMKG 160825Z 00000KT 10SM SCT070 M02/M05 A3019 380 81 -1600 000/00 RMK AO2
14840KMKG MKG20060316033009903/16/06 03:30:31  5-MIN KMKG 160830Z 11003KT 10SM FEW070 M02/M05 A3019 390 78 -1500 120/03 RMK AO2
14840KMKG MKG20060316033509903/16/06 03:35:31  5-MIN KMKG 160835Z 00000KT 10SM FEW070 M02/M05 A3018 390 81 -1500 000/00 RMK AO2
14840KMKG MKG20060316034009903/16/06 03:40:31  5-MIN KMKG 160840Z 00000KT 10SM FEW070 M02/M05 A3018 390 81 -1500 000/00 RMK AO2
14840KMKG MKG20060316034509903/16/06 03:45:31  5-MIN KMKG 160845Z 00000KT 10SM FEW070 M03/M05 A3018 390 85 -1600 000/00 RMK AO2
14840KMKG MKG20060316035011903/16/06 03:50:31  5-MIN KMKG 160850Z 00000KT 10SM CLR M03/M05 A3018 390 85 -1600 000/00 RMK AO2 SLP230 T10281050 51002
14840KMKG MKG20060316035511903/16/06 03:55:31  5-MIN KMKG 160855Z 00000KT 10SM CLR M02/M05 A3018 390 81 -1500 000/00 RMK AO2 SLP229 T10221050 58014
14840KMKG MKG20060316040009603/16/06 04:00:31  5-MIN KMKG 160900Z 00000KT 10SM CLR M02/M05 A3018 390 81 -1500 000/00 RMK AO2
14840KMKG MKG20060316040509603/16/06 04:05:31  5-MIN KMKG 160905Z 00000KT 10SM CLR M03/M05 A3018 390 85 -1600 000/00 RMK AO2
14840KMKG MKG20060316041009603/16/06 04:10:31  5-MIN KMKG 160910Z 00000KT 10SM CLR M02/M05 A3018 390 81 -1500 000/00 RMK AO2
14840KMKG MKG20060316041509603/16/06 04:15:31  5-MIN KMKG 160915Z 00000KT 10SM CLR M02/M05 A3018 390 81 -1500 000/00 RMK AO2
14840KMKG MKG20060316042009603/16/06 04:20:31  5-MIN KMKG 160920Z 00000KT 10SM CLR M02/M05 A3017 400 81 -1500 000/00 RMK AO2
14840KMKG MKG20060316042509603/16/06 04:25:31  5-MIN KMKG 160925Z 00000KT 10SM CLR M02/M05 A3017 400 81 -1500 000/00 RMK AO2
14840KMKG MKG20060316043009603/16/06 04:30:31  5-MIN KMKG 160930Z 00000KT 10SM CLR M02/M05 A3017 400 81 -1500 000/00 RMK AO2
14840KMKG MKG20060316043509603/16/06 04:35:31  5-MIN KMKG 160935Z 00000KT 10SM CLR M02/M05 A3017 400 81 -1500 000/00 RMK AO2
14840KMKG MKG20060316044009603/16/06 04:40:31  5-MIN KMKG 160940Z 00000KT 10SM CLR M02/M06 A3017 400 78 -1500 000/00 RMK AO2
14840KMKG MKG20060316044509903/16/06 04:45:31  5-MIN KMKG 160945Z 00000KT 10SM FEW085 M02/M06 A3018 390 78 -1500 000/00 RMK AO2
14840KMKG MKG20060316045011603/16/06 04:50:31  5-MIN KMKG 160950Z 00000KT 10SM SCT090 M03/M06 A3018 390 81 -1600 000/00 RMK AO2 SLP228 T10281056
14840KMKG MKG20060316045511603/16/06 04:55:31  5-MIN KMKG 160955Z 00000KT 10SM BKN090 M03/M06 A3018 390 81 -1600 000/00 RMK AO2 SLP230 T10281056
14840KMKG MKG20060316050009903/16/06 05:00:31  5-MIN KMKG 161000Z 00000KT 10SM BKN090 M03/M05 A3019 390 85 -1600 000/00 RMK AO2
14840KMKG MKG20060316050509903/16/06 05:05:31  5-MIN KMKG 161005Z 00000KT 10SM BKN090 M02/M05 A3019 390 81 -1500 000/00 RMK AO2
14840KMKG MKG20060316051009903/16/06 05:10:31  5-MIN KMKG 161010Z 00000KT 10SM OVC090 M02/M05 A3019 380 81 -1500 000/00 RMK AO2
14840KMKG MKG20060316051509903/16/06 05:15:31  5-MIN KMKG 161015Z 00000KT 10SM OVC090 M02/M05 A3019 380 81 -1500 000/00 RMK AO2
14840KMKG MKG20060316052009903/16/06 05:20:31  5-MIN KMKG 161020Z 00000KT 10SM OVC090 M02/M04 A3019 380 85 -1600 000/00 RMK AO2
14840KMKG MKG20060316052509903/16/06 05:25:31  5-MIN KMKG 161025Z 00000KT 10SM OVC090 M02/M04 A3019 380 85 -1600 000/00 RMK AO2
14840KMKG MKG20060316053009903/16/06 05:30:31  5-MIN KMKG 161030Z 00000KT 10SM OVC090 M02/M04 A3019 380 85 -1600 000/00 RMK AO2
14840KMKG MKG20060316053509903/16/06 05:35:31  5-MIN KMKG 161035Z 00000KT 10SM OVC090 M02/M04 A3019 380 85 -1600 000/00 RMK AO2
14840KMKG MKG20060316054010603/16/06 05:40:31  5-MIN KMKG 161040Z 00000KT 10SM BKN090 OVC110 M02/M04 A3019 380 85 -1600 000/00 RMK AO2
14840KMKG MKG20060316054510603/16/06 05:45:31  5-MIN KMKG 161045Z 00000KT 10SM BKN090 OVC110 M02/M04 A3019 380 85 -1600 000/00 RMK AO2
14840KMKG MKG20060316055012303/16/06 05:50:31  5-MIN KMKG 161050Z 00000KT 10SM SCT090 OVC110 M02/M04 A3019 380 85 -1600 000/00 RMK AO2 SLP232 T10221044
14840KMKG MKG20060316055512303/16/06 05:55:31  5-MIN KMKG 161055Z 00000KT 10SM FEW090 OVC110 M02/M05 A3019 380 81 -1600 000/00 RMK AO2 SLP233 T10221050
14840KMKG MKG20060316060010603/16/06 06:00:31  5-MIN KMKG 161100Z 00000KT 10SM FEW090 OVC110 M02/M05 A3019 380 81 -1600 000/00 RMK AO2
14840KMKG MKG20060316060509903/16/06 06:05:31  5-MIN KMKG 161105Z 12003KT 10SM OVC110 M02/M04 A3019 380 85 -1600 120/03 RMK AO2
14840KMKG MKG20060316061012103/16/06 06:10:31  5-MIN KMKG 161110Z 12003KT 10SM SCT090 OVC110 M02/M04 A3019 380 85 -1600 130/03 RMK AO2 CIG 090 RWY 14
14840KMKG MKG20060316061511303/16/06 06:15:31  5-MIN KMKG 161115Z 12004KT 10SM SCT080 BKN100 OVC120 M02/M04 A3019 380 81 -1500 120/04 RMK AO2
14840KMKG MKG20060316062010603/16/06 06:20:31  5-MIN KMKG 161120Z 11004KT 10SM BKN075 OVC100 M02/M04 A3019 380 81 -1500 110/04 RMK AO2
14840KMKG MKG20060316062510603/16/06 06:25:31  5-MIN KMKG 161125Z 10004KT 10SM BKN080 OVC100 M02/M04 A3018 390 81 -1500 100/04 RMK AO2
14840KMKG MKG20060316063010603/16/06 06:30:31  5-MIN KMKG 161130Z 09004KT 10SM BKN080 OVC095 M02/M04 A3018 390 81 -1500 100/04 RMK AO2
14840KMKG MKG20060316063509903/16/06 06:35:31  5-MIN KMKG 161135Z 09003KT 10SM OVC085 M02/M04 A3018 390 81 -1500 100/03 RMK AO2
14840KMKG MKG20060316064009903/16/06 06:40:31  5-MIN KMKG 161140Z 11003KT 10SM OVC080 M02/M04 A3018 390 81 -1500 110/03 RMK AO2
14840KMKG MKG20060316064509903/16/06 06:45:31  5-MIN KMKG 161145Z 10003KT 10SM OVC085 M02/M04 A3018 390 81 -1500 100/03 RMK AO2
14840KMKG MKG20060316065013403/16/06 06:50:31  5-MIN KMKG 161150Z 11003KT 10SM OVC085 M02/M04 A3018 390 81 -1500 110/03 RMK AO2 SLP230 T10171044 11017 21028 58014
14840KMKG MKG20060316065513403/16/06 06:55:31  5-MIN KMKG 161155Z 00000KT 10SM OVC085 M02/M04 A3018 390 81 -1500 000/00 RMK AO2 SLP230 T10171044 11017 21028 50000
14840KMKG MKG20060316070010603/16/06 07:00:31  5-MIN KMKG 161200Z 00000KT 10SM BKN080 OVC095 M02/M04 A3019 390 81 -1500 000/00 RMK AO2
14840KMKG MKG20060316070510603/16/06 07:05:31  5-MIN KMKG 161205Z 00000KT 10SM BKN075 OVC090 M02/M04 A3019 380 81 -1500 000/00 RMK AO2
14840KMKG MKG20060316071010603/16/06 07:10:31  5-MIN KMKG 161210Z 00000KT 10SM BKN075 OVC090 M02/M04 A3019 380 81 -1500 000/00 RMK AO2
14840KMKG MKG20060316071510603/16/06 07:15:31  5-MIN KMKG 161215Z 11003KT 10SM BKN075 OVC090 M02/M04 A3019 380 81 -1500 120/03 RMK AO2
14840KMKG MKG20060316072010603/16/06 07:20:31  5-MIN KMKG 161220Z 00000KT 10SM BKN080 OVC090 M02/M04 A3019 380 81 -1500 000/00 RMK AO2
14840KMKG MKG20060316072510603/16/06 07:25:31  5-MIN KMKG 161225Z 00000KT 10SM FEW070 OVC085 M02/M04 A3019 380 81 -1500 000/00 RMK AO2
14840KMKG MKG20060316073010603/16/06 07:30:31  5-MIN KMKG 161230Z 12004KT 10SM FEW070 OVC085 M02/M04 A3019 380 81 -1500 130/04 RMK AO2
14840KMKG MKG20060316073510603/16/06 07:35:31  5-MIN KMKG 161235Z 13004KT 10SM FEW070 OVC085 M01/M04 A3019 380 78 -1400 130/04 RMK AO2
14840KMKG MKG20060316074009903/16/06 07:40:31  5-MIN KMKG 161240Z 13004KT 10SM BKN085 M01/M04 A3019 380 78 -1400 130/04 RMK AO2
14840KMKG MKG20060316074509903/16/06 07:45:31  5-MIN KMKG 161245Z 12004KT 10SM BKN085 M01/M04 A3019 380 78 -1400 130/04 RMK AO2
14840KMKG MKG20060316075013803/16/06 07:50:31  5-MIN KMKG 161250Z 08005KT 10SM SCT070 BKN090 M01/M04 A3020 370 78 -1400 080/05 RMK AO2 CIG 065 RWY 14 SLP235 T10111044
14840KMKG MKG20060316075512303/16/06 07:55:31  5-MIN KMKG 161255Z 08003KT 10SM BKN060 BKN090 M01/M04 A3020 370 81 -1400 090/03 RMK AO2 SLP235 T10111039
14840KMKG MKG20060316080010603/16/06 08:00:31  5-MIN KMKG 161300Z 09005KT 10SM BKN050 BKN090 M01/M04 A3020 370 81 -1400 100/05 RMK AO2
14840KMKG MKG20060316080509903/16/06 08:05:31  5-MIN KMKG 161305Z 09004KT 10SM BKN048 M01/M04 A3020 380 78 -1400 090/04 RMK AO2
14840KMKG MKG20060316081009903/16/06 08:10:31  5-MIN KMKG 161310Z 08005KT 10SM BKN044 M01/M04 A3019 380 78 -1400 090/05 RMK AO2
14840KMKG MKG20060316081509903/16/06 08:15:31  5-MIN KMKG 161315Z 09005KT 10SM BKN042 M01/M04 A3019 380 78 -1400 100/05 RMK AO2
14840KMKG MKG20060316082010603/16/06 08:20:31  5-MIN KMKG 161320Z 08008KT 10SM BKN042 BKN090 M01/M04 A3019 380 78 -1400 080/08 RMK AO2
14840KMKG MKG20060316082512103/16/06 08:25:31  5-MIN KMKG 161325Z 07009KT 10SM SCT042 BKN090 M01/M04 A3019 380 78 -1400 080/09 RMK AO2 CIG 045 RWY 14
14840KMKG MKG20060316083010603/16/06 08:30:31  5-MIN KMKG 161330Z 07009KT 10SM BKN048 BKN085 M01/M04 A3019 390 78 -1400 070/09 RMK AO2
14840KMKG MKG20060316083510603/16/06 08:35:31  5-MIN KMKG 161335Z 07007KT 10SM BKN050 BKN085 M01/M04 A3019 390 78 -1400 070/07 RMK AO2
14840KMKG MKG20060316084010603/16/06 08:40:31  5-MIN KMKG 161340Z 08009KT 10SM BKN050 BKN085 M01/M04 A3019 380 78 -1400 080/09 RMK AO2
14840KMKG MKG20060316084510603/16/06 08:45:31  5-MIN KMKG 161345Z 08007KT 10SM BKN050 BKN085 M01/M05 A3019 380 72 -1300 080/07 RMK AO2
14840KMKG MKG20060316085012303/16/06 08:50:31  5-MIN KMKG 161350Z 08008KT 10SM BKN050 BKN085 M01/M04 A3018 390 75 -1300 080/08 RMK AO2 SLP230 T10061044
14840KMKG MKG20060316085511603/16/06 08:55:31  5-MIN KMKG 161355Z 08009KT 10SM BKN050 M01/M05 A3018 390 72 -1300 090/09 RMK AO2 SLP230 T10061050
14840KMKG MKG20060316090009903/16/06 09:00:31  5-MIN KMKG 161400Z 09009KT 10SM BKN050 M01/M05 A3018 390 72 -1300 100/09 RMK AO2
14840KMKG MKG20060316090509903/16/06 09:05:31  5-MIN KMKG 161405Z 08009KT 10SM OVC050 M01/M05 A3018 390 72 -1300 090/09 RMK AO2
14840KMKG MKG20060316091009903/16/06 09:10:31  5-MIN KMKG 161410Z 08007KT 10SM OVC050 M01/M05 A3018 390 72 -1300 090/07 RMK AO2
14840KMKG MKG20060316091509803/16/06 09:15:31  5-MIN KMKG 161415Z 09007KT 10SM BKN050 00/M04 A3018 390 72 -1300 090/07 RMK AO2
14840KMKG MKG20060316092009803/16/06 09:20:31  5-MIN KMKG 161420Z 10007KT 10SM BKN048 00/M05 A3018 390 69 -1300 100/07 RMK AO2
14840KMKG MKG20060316092509803/16/06 09:25:31  5-MIN KMKG 161425Z 08008KT 10SM BKN048 00/M05 A3018 390 69 -1300 090/08 RMK AO2
14840KMKG MKG20060316093009803/16/06 09:30:31  5-MIN KMKG 161430Z 07007KT 10SM OVC048 00/M05 A3018 390 69 -1300 080/07 RMK AO2
14840KMKG MKG20060316093509803/16/06 09:35:31  5-MIN KMKG 161435Z 08008KT 10SM BKN048 01/M05 A3018 390 66 -1200 080/08 RMK AO2
14840KMKG MKG20060316094010503/16/06 09:40:31  5-MIN KMKG 161440Z 08008KT 10SM BKN048 BKN080 01/M05 A3018 390 66 -1200 080/08 RMK AO2
14840KMKG MKG20060316094510503/16/06 09:45:31  5-MIN KMKG 161445Z 10007KT 10SM SCT048 BKN085 01/M05 A3018 390 66 -1200 100/07 RMK AO2
14840KMKG MKG20060316095012803/16/06 09:50:31  5-MIN KMKG 161450Z 09006KT 10SM SCT048 BKN085 01/M05 A3018 390 66 -1200 090/06 RMK AO2 SLP227 T00061050 50000
14840KMKG MKG20060316095512803/16/06 09:55:31  5-MIN KMKG 161455Z 10008KT 10SM FEW048 BKN085 01/M05 A3018 390 66 -1200 100/08 RMK AO2 SLP227 T00061050 58002
14840KMKG MKG20060316100010503/16/06 10:00:31  5-MIN KMKG 161500Z 08008KT 10SM FEW048 BKN080 01/M06 A3018 390 63 -1200 090/08 RMK AO2
14840KMKG MKG20060316100510503/16/06 10:05:31  5-MIN KMKG 161505Z 08008KT 10SM FEW048 BKN080 01/M06 A3018 390 63 -1200 090/08 RMK AO2
14840KMKG MKG20060316101009803/16/06 10:10:31  5-MIN KMKG 161510Z 08007KT 10SM BKN080 01/M06 A3017 400 63 -1200 090/07 RMK AO2
14840KMKG MKG20060316101509803/16/06 10:15:31  5-MIN KMKG 161515Z 08007KT 10SM BKN080 01/M05 A3017 400 66 -1200 090/07 RMK AO2
14840KMKG MKG20060316102009803/16/06 10:20:31  5-MIN KMKG 161520Z 08009KT 10SM BKN080 01/M05 A3017 400 64 -1100 080/09 RMK AO2
14840KMKG MKG20060316102509803/16/06 10:25:31  5-MIN KMKG 161525Z 08007KT 10SM BKN080 01/M05 A3017 400 64 -1100 090/07 RMK AO2
14840KMKG MKG20060316103009803/16/06 10:30:31  5-MIN KMKG 161530Z 10008KT 10SM SCT080 01/M05 A3017 400 66 -1200 110/08 RMK AO2
14840KMKG MKG20060316103509803/16/06 10:35:31  5-MIN KMKG 161535Z 11009KT 10SM SCT080 01/M05 A3017 400 66 -1200 110/09 RMK AO2
14840KMKG MKG20060316104009803/16/06 10:40:31  5-MIN KMKG 161540Z 11009KT 10SM FEW070 01/M05 A3017 400 64 -1100 110/09 RMK AO2
14840KMKG MKG20060316104509803/16/06 10:45:31  5-MIN KMKG 161545Z 10008KT 10SM FEW055 01/M05 A3018 400 66 -1200 110/08 RMK AO2
14840KMKG MKG20060316105011503/16/06 10:50:31  5-MIN KMKG 161550Z 10008KT 10SM FEW050 01/M05 A3018 390 66 -1200 110/08 RMK AO2 SLP228 T00061050
14840KMKG MKG20060316105511503/16/06 10:55:31  5-MIN KMKG 161555Z 10008KT 10SM BKN050 01/M05 A3018 390 66 -1200 110/08 RMK AO2 SLP227 T00061050
14840KMKG MKG20060316110009803/16/06 11:00:31  5-MIN KMKG 161600Z 10007KT 10SM SCT048 01/M05 A3018 390 66 -1200 100/07 RMK AO2
14840KMKG MKG20060316110509803/16/06 11:05:31  5-MIN KMKG 161605Z 11009KT 10SM SCT048 01/M04 A3017 400 69 -1200 120/09 RMK AO2
14840KMKG MKG20060316111009803/16/06 11:10:31  5-MIN KMKG 161610Z 11008KT 10SM SCT048 01/M05 A3017 400 66 -1200 110/08 RMK AO2
14840KMKG MKG20060316111509803/16/06 11:15:31  5-MIN KMKG 161615Z 10009KT 10SM SCT050 01/M05 A3017 400 66 -1200 110/09 RMK AO2
14840KMKG MKG20060316112010503/16/06 11:20:31  5-MIN KMKG 161620Z 09008KT 10SM FEW041 BKN048 01/M05 A3017 400 66 -1200 090/08 RMK AO2
14840KMKG MKG20060316112509803/16/06 11:25:31  5-MIN KMKG 161625Z 10008KT 10SM BKN046 01/M05 A3017 400 66 -1200 100/08 RMK AO2
14840KMKG MKG20060316113010503/16/06 11:30:31  5-MIN KMKG 161630Z 10008KT 10SM BKN044 BKN050 01/M05 A3017 400 66 -1200 110/08 RMK AO2
14840KMKG MKG20060316113509803/16/06 11:35:31  5-MIN KMKG 161635Z 10007KT 10SM BKN042 01/M05 A3017 400 66 -1200 100/07 RMK AO2
14840KMKG MKG20060316114009803/16/06 11:40:31  5-MIN KMKG 161640Z 09007KT 10SM OVC040 01/M05 A3017 400 66 -1200 100/07 RMK AO2
14840KMKG MKG20060316114509803/16/06 11:45:31  5-MIN KMKG 161645Z 11008KT 10SM OVC038 01/M05 A3017 400 66 -1200 110/08 RMK AO2
14840KMKG MKG20060316115011503/16/06 11:50:31  5-MIN KMKG 161650Z 10008KT 10SM OVC036 01/M05 A3017 400 66 -1200 110/08 RMK AO2 SLP225 T00061050
14840KMKG MKG20060316115511503/16/06 11:55:31  5-MIN KMKG 161655Z 10007KT 10SM OVC032 01/M05 A3017 400 66 -1200 100/07 RMK AO2 SLP225 T00061050
14840KMKG MKG20060316120009803/16/06 12:00:31  5-MIN KMKG 161700Z 10007KT 10SM OVC030 01/M05 A3017 400 66 -1200 110/07 RMK AO2
14840KMKG MKG20060316120509803/16/06 12:05:31  5-MIN KMKG 161705Z 12007KT 10SM OVC028 01/M05 A3017 400 66 -1200 120/07 RMK AO2
14840KMKG MKG20060316121011403/16/06 12:10:31  5-MIN KMKG 161710Z 11007KT 10SM -SN OVC026 01/M05 A3017 400 64 -1100 110/07 RMK AO2 SNB06 P0000
14840KMKG MKG20060316121511303/16/06 12:15:31  5-MIN KMKG 161715Z 10006KT 9SM -SN OVC026 01/M05 A3017 400 64 -1100 110/06 RMK AO2 SNB06 P0000
14840KMKG MKG20060316122011303/16/06 12:20:31  5-MIN KMKG 161720Z 10007KT 8SM -SN OVC024 01/M05 A3017 400 64 -1100 110/07 RMK AO2 SNB06 P0000
14840KMKG MKG20060316122511303/16/06 12:25:31  5-MIN KMKG 161725Z 09007KT 5SM -SN OVC022 01/M05 A3017 400 64 -1100 100/07 RMK AO2 SNB06 P0000
14840KMKG MKG20060316123011303/16/06 12:30:31  5-MIN KMKG 161730Z 11008KT 3SM -SN OVC018 01/M04 A3017 400 66 -1100 110/08 RMK AO2 SNB06 P0000
14840KMKG MKG20060316123511703/16/06 12:35:31  5-MIN KMKG 161735Z 10007KT 2 1/2SM -SN OVC016 01/M04 A3017 400 66 -1100 100/07 RMK AO2 SNB06 P0000
14840KMKG MKG20060316124011703/16/06 12:40:31  5-MIN KMKG 161740Z 08009KT 2 1/2SM -SN OVC016 01/M04 A3017 400 72 -1200 080/09 RMK AO2 SNB06 P0000
14840KMKG MKG20060316124511703/16/06 12:45:31  5-MIN KMKG 161745Z 07008KT 2 1/2SM -SN OVC014 01/M04 A3016 410 69 -1100 070/08 RMK AO2 SNB06 P0000
14840KMKG MKG20060316125015803/16/06 12:50:31  5-MIN KMKG 161750Z 09009KT 2 1/2SM -SN OVC012 01/M03 A3016 410 72 -1100 100/09 RMK AO2 SNB06 SLP221 P0000 60000 T00111033 10011 21017 58002
14840KMKG MKG20060316125516103/16/06 12:55:31  5-MIN KMKG 161755Z 08010KT 3SM -SN BKN012 OVC029 01/M03 A3016 410 72 -1100 090/10 RMK AO2 SNB06 SLP221 P0000 60000 T00111033 10011 21017 58006
14840KMKG MKG20060316130012103/16/06 13:00:31  5-MIN KMKG 161800Z 10007KT 3SM -SN BKN012 BKN024 OVC029 01/M03 A3016 410 75 -1200 100/07 RMK AO2 P0000
14840KMKG MKG20060316130512103/16/06 13:05:31  5-MIN KMKG 161805Z 08009KT 4SM -SN BKN012 BKN024 OVC031 01/M03 A3016 410 75 -1200 080/09 RMK AO2 P0000
14840KMKG MKG20060316131012103/16/06 13:10:31  5-MIN KMKG 161810Z 08010KT 6SM -SN SCT012 BKN022 OVC031 01/M03 A3016 410 75 -1200 080/10 RMK AO2 P0000
14840KMKG MKG20060316131512103/16/06 13:15:31  5-MIN KMKG 161815Z 08009KT 8SM -SN SCT018 BKN024 OVC041 01/M03 A3015 420 72 -1100 090/09 RMK AO2 P0000
14840KMKG MKG20060316132012103/16/06 13:20:31  5-MIN KMKG 161820Z 07008KT 9SM -SN SCT021 BKN029 OVC041 01/M04 A3015 420 69 -1100 070/08 RMK AO2 P0000
14840KMKG MKG20060316132512303/16/06 13:25:31  5-MIN KMKG 161825Z 09007KT 9SM FEW021 BKN033 OVC041 01/M04 A3015 420 69 -1100 090/07 RMK AO2 SNE23 P0000
14840KMKG MKG20060316133011703/16/06 13:30:31  5-MIN KMKG 161830Z 07008KT 10SM FEW021 OVC036 01/M04 A3015 420 69 -1100 070/08 RMK AO2 SNE23 P0000
14840KMKG MKG20060316133511703/16/06 13:35:31  5-MIN KMKG 161835Z 10010KT 10SM FEW021 OVC036 01/M04 A3014 420 69 -1100 100/10 RMK AO2 SNE23 P0000
14840KMKG MKG20060316134011003/16/06 13:40:31  5-MIN KMKG 161840Z 09008KT 10SM OVC036 01/M04 A3014 430 69 -1100 100/08 RMK AO2 SNE23 P0000
14840KMKG MKG20060316134511003/16/06 13:45:31  5-MIN KMKG 161845Z 10008KT 10SM OVC034 01/M04 A3014 430 69 -1100 100/08 RMK AO2 SNE23 P0000
14840KMKG MKG20060316135013403/16/06 13:50:31  5-MIN KMKG 161850Z 09007KT 10SM FEW025 OVC034 01/M04 A3014 430 69 -1100 090/07 RMK AO2 SNE23 SLP213 P0000 T00111039
14840KMKG MKG20060316135514103/16/06 13:55:31  5-MIN KMKG 161855Z 10007KT 10SM -SN SCT025 OVC030 01/M04 A3013 430 69 -1100 110/07 RMK AO2 SNE23B52 SLP212 P0000 T00111039
14840KMKG MKG20060316140010703/16/06 14:00:31  5-MIN KMKG 161900Z 09008KT 7SM -SN OVC025 01/M04 A3013 440 69 -1100 090/08 RMK AO2 P0000
14840KMKG MKG20060316140510703/16/06 14:05:31  5-MIN KMKG 161905Z 07007KT 3SM -SN OVC023 01/M03 A3013 440 72 -1100 070/07 RMK AO2 P0000
14840KMKG MKG20060316141011803/16/06 14:10:31  5-MIN KMKG 161910Z 07007KT 2 1/2SM -SN BKN020 OVC025 01/M03 A3013 440 72 -1100 080/07 RMK AO2 P0000
14840KMKG MKG20060316141511403/16/06 14:15:31  5-MIN KMKG 161915Z 08008KT 3SM -SN BKN018 OVC025 01/M03 A3013 440 75 -1100 080/08 RMK AO2 P0000
14840KMKG MKG20060316142012403/16/06 14:20:31  5-MIN KMKG 161920Z 07006KT 3SM -SN BKN016 OVC025 01/M03 A3012 440 75 -1100 080/06 RMK AO2 SFC VIS 4 P0000
14840KMKG MKG20060316142512403/16/06 14:25:31  5-MIN KMKG 161925Z 06007KT 3SM -SN BKN016 OVC025 01/M02 A3012 440 78 -1100 070/07 RMK AO2 SFC VIS 4 P0000
14840KMKG MKG20060316143012403/16/06 14:30:31  5-MIN KMKG 161930Z 09008KT 3SM -SN BKN018 OVC025 01/M03 A3012 450 75 -1000 100/08 RMK AO2 SFC VIS 5 P0000
14840KMKG MKG20060316143512403/16/06 14:35:31  5-MIN KMKG 161935Z 09007KT 3SM -SN BKN018 OVC025 01/M03 A3012 450 75 -1000 100/07 RMK AO2 SFC VIS 4 P0000
14840KMKG MKG20060316144011403/16/06 14:40:31  5-MIN KMKG 161940Z 10008KT 4SM -SN BKN018 OVC025 01/M03 A3012 450 75 -1000 100/08 RMK AO2 P0000
14840KMKG MKG20060316144511403/16/06 14:45:31  5-MIN KMKG 161945Z 08008KT 4SM -SN BKN016 OVC025 01/M03 A3012 450 75 -1000 080/08 RMK AO2 P0000
14840KMKG MKG20060316145013103/16/06 14:50:31  5-MIN KMKG 161950Z 08009KT 4SM -SN BKN016 OVC025 01/M03 A3012 450 75 -1000 090/09 RMK AO2 SLP206 P0000 T00111028
14840KMKG MKG20060316145513103/16/06 14:55:31  5-MIN KMKG 161955Z 09008KT 5SM -SN BKN016 OVC039 01/M03 A3012 450 72 -1000 090/08 RMK AO2 SLP206 P0000 T00111033
14840KMKG MKG20060316150011403/16/06 15:00:31  5-MIN KMKG 162000Z 09008KT 6SM -SN BKN018 OVC040 01/M03 A3012 450 72 -1000 100/08 RMK AO2 P0000
14840KMKG MKG20060316150511603/16/06 15:05:31  5-MIN KMKG 162005Z 10008KT 8SM BKN023 OVC040 01/M03 A3012 450 72 -1000 100/08 RMK AO2 SNE01 P0000
14840KMKG MKG20060316151011703/16/06 15:10:31  5-MIN KMKG 162010Z 12007KT 10SM BKN027 OVC038 01/M03 A3012 450 75 -1000 120/07 RMK AO2 SNE01 P0000
14840KMKG MKG20060316151511703/16/06 15:15:31  5-MIN KMKG 162015Z 10005KT 10SM BKN029 OVC038 01/M03 A3012 450 72 -1000 100/05 RMK AO2 SNE01 P0000
14840KMKG MKG20060316152012403/16/06 15:20:31  5-MIN KMKG 162020Z 09009KT 10SM -SN BKN029 OVC038 01/M04 A3012 450 69 -1000 100/09 RMK AO2 SNE01B18 P0000
14840KMKG MKG20060316152512303/16/06 15:25:31  5-MIN KMKG 162025Z 10010KT 7SM -SN FEW023 OVC029 01/M04 A3012 450 69 -1000 100/10 RMK AO2 SNE01B18 P0000
14840KMKG MKG20060316153011603/16/06 15:30:31  5-MIN KMKG 162030Z 07008KT 6SM -SN OVC027 01/M04 A3012 450 69 -1000 070/08 RMK AO2 SNE01B18 P0000
14840KMKG MKG20060316153511603/16/06 15:35:31  5-MIN KMKG 162035Z 05007KT 6SM -SN OVC025 01/M04 A3011 450 66 -1000 060/07 RMK AO2 SNE01B18 P0000
14840KMKG MKG20060316154011603/16/06 15:40:31  5-MIN KMKG 162040Z 11007KT 6SM -SN OVC025 01/M04 A3011 450 69 -1000 110/07 RMK AO2 SNE01B18 P0000
14840KMKG MKG20060316154511603/16/06 15:45:31  5-MIN KMKG 162045Z 10006KT 7SM -SN OVC023 01/M04 A3011 460 69 -1000 100/06 RMK AO2 SNE01B18 P0000
14840KMKG MKG20060316155015903/16/06 15:50:31  5-MIN KMKG 162050Z 09008KT 7SM -SN BKN021 BKN026 OVC036 01/M04 A3011 460 69 -1000 090/08 RMK AO2 SNE01B18 SLP204 P0000 60000 T00111039 58006
14840KMKG MKG20060316155515203/16/06 15:55:31  5-MIN KMKG 162055Z 10007KT 8SM -SN BKN021 OVC036 01/M04 A3011 460 69 -1000 100/07 RMK AO2 SNE01B18 SLP203 P0000 60000 T00111039 56018
14840KMKG MKG20060316160011403/16/06 16:00:31  5-MIN KMKG 162100Z 11007KT 9SM -SN BKN021 OVC036 01/M04 A3011 460 69 -1000 110/07 RMK AO2 P0000
14840KMKG MKG20060316160512103/16/06 16:05:31  5-MIN KMKG 162105Z 09007KT 9SM -SN BKN023 BKN036 OVC050 01/M04 A3011 460 69 -1000 090/07 RMK AO2 P0000
14840KMKG MKG20060316161011403/16/06 16:10:31  5-MIN KMKG 162110Z 10007KT 9SM -SN BKN032 OVC050 01/M04 A3010 460 69 -1000 100/07 RMK AO2 P0000
14840KMKG MKG20060316161511403/16/06 16:15:31  5-MIN KMKG 162115Z 09007KT 9SM -SN BKN036 OVC055 01/M04 A3010 460 66 -1000 100/07 RMK AO2 P0000
14840KMKG MKG20060316162012103/16/06 16:20:31  5-MIN KMKG 162120Z 09006KT 9SM -SN BKN038 BKN049 OVC060 02/M04 A3010 460 64 -1000 100/06 RMK AO2 P0000
14840KMKG MKG20060316162511603/16/06 16:25:31  5-MIN KMKG 162125Z 10008KT 9SM BKN045 OVC060 02/M05 A3010 460 61 -1000 100/08 RMK AO2 SNE21 P0000
14840KMKG MKG20060316163011703/16/06 16:30:31  5-MIN KMKG 162130Z 12006KT 10SM BKN047 OVC060 02/M04 A3010 460 64 -1000 130/06 RMK AO2 SNE21 P0000
14840KMKG MKG20060316163511003/16/06 16:35:31  5-MIN KMKG 162135Z 12005KT 10SM OVC049 01/M04 A3010 460 69 -1000 120/05 RMK AO2 SNE21 P0000
14840KMKG MKG20060316164011003/16/06 16:40:31  5-MIN KMKG 162140Z 11006KT 10SM OVC049 02/M04 A3010 460 64 -1000 120/06 RMK AO2 SNE21 P0000
14840KMKG MKG20060316164511003/16/06 16:45:31  5-MIN KMKG 162145Z 10006KT 10SM OVC045 02/M05 A3010 460 61 -1000 100/06 RMK AO2 SNE21 P0000
14840KMKG MKG20060316165013403/16/06 16:50:31  5-MIN KMKG 162150Z 10007KT 10SM BKN040 OVC049 02/M06 A3010 460 59 -1000 100/07 RMK AO2 SNE21 SLP202 P0000 T00171056
14840KMKG MKG20060316165513403/16/06 16:55:31  5-MIN KMKG 162155Z 09006KT 10SM BKN038 OVC049 02/M06 A3010 460 59 -1000 090/06 RMK AO2 SNE21 SLP202 P0000 T00171056
14840KMKG MKG20060316170009803/16/06 17:00:31  5-MIN KMKG 162200Z 11005KT 10SM OVC038 02/M05 A3010 460 61 -1000 110/05 RMK AO2
14840KMKG MKG20060316170510503/16/06 17:05:31  5-MIN KMKG 162205Z 10006KT 10SM BKN036 OVC047 02/M06 A3011 460 59 -1000 100/06 RMK AO2
14840KMKG MKG20060316171010503/16/06 17:10:31  5-MIN KMKG 162210Z 10005KT 10SM BKN036 OVC047 02/M06 A3011 460 59 -1000 110/05 RMK AO2
14840KMKG MKG20060316171510503/16/06 17:15:31  5-MIN KMKG 162215Z 09005KT 10SM BKN036 OVC047 02/M06 A3011 460 59 -1000 100/05 RMK AO2
14840KMKG MKG20060316172010503/16/06 17:20:31  5-MIN KMKG 162220Z 10006KT 10SM BKN040 OVC047 02/M06 A3011 460 59 -1000 100/06 RMK AO2
14840KMKG MKG20060316172510503/16/06 17:25:31  5-MIN KMKG 162225Z 10005KT 10SM BKN042 OVC049 02/M06 A3011 460 59 -1000 100/05 RMK AO2
14840KMKG MKG20060316173010503/16/06 17:30:31  5-MIN KMKG 162230Z 09005KT 10SM BKN044 OVC055 02/M06 A3011 450 59 -1000 100/05 RMK AO2
14840KMKG MKG20060316173509803/16/06 17:35:31  5-MIN KMKG 162235Z 11005KT 10SM OVC046 02/M06 A3011 450 59 -1000 120/05 RMK AO2
14840KMKG MKG20060316174009803/16/06 17:40:31  5-MIN KMKG 162240Z 11004KT 10SM OVC046 02/M06 A3011 450 59 -1000 110/04 RMK AO2
14840KMKG MKG20060316174509803/16/06 17:45:31  5-MIN KMKG 162245Z 11004KT 10SM OVC048 02/M06 A3012 450 59 -1000 110/04 RMK AO2
14840KMKG MKG20060316175011503/16/06 17:50:31  5-MIN KMKG 162250Z 11003KT 10SM OVC046 02/M06 A3012 450 56 -1000 110/03 RMK AO2 SLP206 T00171061
14840KMKG MKG20060316175511503/16/06 17:55:31  5-MIN KMKG 162255Z 11003KT 10SM OVC046 02/M06 A3012 450 56 -1000 110/03 RMK AO2 SLP207 T00171061
14840KMKG MKG20060316180009703/16/06 18:00:31  5-MIN KMKG 162300Z 09005KT 10SM OVC044 02/M06 A3012 450 54 -900 090/05 RMK AO2
14840KMKG MKG20060316180509703/16/06 18:05:31  5-MIN KMKG 162305Z 07006KT 10SM OVC044 02/M07 A3012 440 52 -900 080/06 RMK AO2
14840KMKG MKG20060316181009703/16/06 18:10:31  5-MIN KMKG 162310Z 07004KT 10SM OVC042 02/M08 A3012 440 47 -900 070/04 RMK AO2
14840KMKG MKG20060316181510403/16/06 18:15:31  5-MIN KMKG 162315Z 06005KT 10SM BKN042 OVC085 02/M07 A3012 440 50 -900 070/05 RMK AO2
14840KMKG MKG20060316182010403/16/06 18:20:31  5-MIN KMKG 162320Z 07006KT 10SM BKN042 OVC090 02/M07 A3012 440 50 -900 070/06 RMK AO2
14840KMKG MKG20060316182510403/16/06 18:25:31  5-MIN KMKG 162325Z 06006KT 10SM BKN042 OVC085 02/M07 A3012 440 50 -900 070/06 RMK AO2
14840KMKG MKG20060316183010403/16/06 18:30:31  5-MIN KMKG 162330Z 07005KT 10SM BKN044 OVC085 02/M07 A3013 440 50 -900 070/05 RMK AO2
14840KMKG MKG20060316183510403/16/06 18:35:31  5-MIN KMKG 162335Z 06004KT 10SM BKN046 OVC090 02/M07 A3013 440 50 -900 070/04 RMK AO2
14840KMKG MKG20060316184010403/16/06 18:40:31  5-MIN KMKG 162340Z 06004KT 10SM BKN046 BKN090 02/M07 A3013 440 50 -900 070/04 RMK AO2
14840KMKG MKG20060316184511903/16/06 18:45:31  5-MIN KMKG 162345Z 07004KT 10SM SCT049 BKN100 02/M07 A3013 440 50 -900 070/04 RMK AO2 CIG 048 RWY 14
14840KMKG MKG20060316185016103/16/06 18:50:31  5-MIN KMKG 162350Z 06003KT 10SM SCT055 BKN100 02/M07 A3013 440 54 -1000 070/03 RMK AO2 CIG 050 RWY 14 SLP211 60000 T00171067 10022 20006 56018
14840KMKG MKG20060316185516103/16/06 18:55:31  5-MIN KMKG 162355Z 07004KT 10SM SCT070 BKN100 02/M07 A3013 440 54 -1000 070/04 RMK AO2 CIG 060 RWY 14 SLP211 60000 T00171067 10022 20006 53008
14840KMKG MKG20060316190011303/16/06 19:00:31  5-MIN KMKG 170000Z 07003KT 10SM BKN095 02/M07 A3013 440 54 -1000 080/03 RMK AO2 CIG 060 RWY 14
14840KMKG MKG20060316190511303/16/06 19:05:31  5-MIN KMKG 170005Z 12004KT 10SM BKN100 02/M07 A3013 430 54 -1000 130/04 RMK AO2 CIG 065 RWY 14
14840KMKG MKG20060316191011303/16/06 19:10:31  5-MIN KMKG 170010Z 14004KT 10SM BKN100 01/M04 A3013 430 66 -1100 140/04 RMK AO2 CIG 080 RWY 14
14840KMKG MKG20060316191509803/16/06 19:15:31  5-MIN KMKG 170015Z 13003KT 10SM OVC100 01/M04 A3013 430 69 -1100 140/03 RMK AO2
14840KMKG MKG20060316192009803/16/06 19:20:31  5-MIN KMKG 170020Z 14004KT 10SM OVC100 01/M04 A3013 430 72 -1100 140/04 RMK AO2
14840KMKG MKG20060316192509803/16/06 19:25:31  5-MIN KMKG 170025Z 14004KT 10SM OVC100 01/M03 A3013 430 75 -1100 140/04 RMK AO2
14840KMKG MKG20060316193009803/16/06 19:30:31  5-MIN KMKG 170030Z 13003KT 10SM OVC100 01/M03 A3014 430 75 -1100 140/03 RMK AO2
14840KMKG MKG20060316193509803/16/06 19:35:31  5-MIN KMKG 170035Z 14003KT 10SM OVC100 01/M03 A3014 430 75 -1100 140/03 RMK AO2
14840KMKG MKG20060316194009803/16/06 19:40:31  5-MIN KMKG 170040Z 14003KT 10SM OVC100 01/M03 A3014 430 75 -1100 150/03 RMK AO2
14840KMKG MKG20060316194509803/16/06 19:45:31  5-MIN KMKG 170045Z 14003KT 10SM OVC100 01/M03 A3014 430 75 -1100 140/03 RMK AO2
14840KMKG MKG20060316195011503/16/06 19:50:31  5-MIN KMKG 170050Z 00000KT 10SM OVC100 01/M03 A3014 430 75 -1100 000/00 RMK AO2 SLP213 T00061033
14840KMKG MKG20060316195511503/16/06 19:55:31  5-MIN KMKG 170055Z 00000KT 10SM OVC100 01/M03 A3014 430 75 -1100 000/00 RMK AO2 SLP213 T00061033
14840KMKG MKG20060316200009803/16/06 20:00:31  5-MIN KMKG 170100Z 14003KT 10SM OVC100 00/M03 A3014 430 78 -1200 150/03 RMK AO2
14840KMKG MKG20060316200509803/16/06 20:05:31  5-MIN KMKG 170105Z 15003KT 10SM OVC100 00/M03 A3014 430 78 -1200 150/03 RMK AO2
14840KMKG MKG20060316201009803/16/06 20:10:31  5-MIN KMKG 170110Z 00000KT 10SM OVC100 01/M03 A3014 430 75 -1100 000/00 RMK AO2
14840KMKG MKG20060316201509803/16/06 20:15:31  5-MIN KMKG 170115Z 00000KT 10SM OVC100 01/M03 A3014 430 75 -1100 000/00 RMK AO2
14840KMKG MKG20060316202009803/16/06 20:20:31  5-MIN KMKG 170120Z 00000KT 10SM OVC100 00/M03 A3014 430 78 -1200 000/00 RMK AO2
14840KMKG MKG20060316202509803/16/06 20:25:31  5-MIN KMKG 170125Z 00000KT 10SM OVC100 00/M03 A3014 420 78 -1200 000/00 RMK AO2
14840KMKG MKG20060316203009803/16/06 20:30:31  5-MIN KMKG 170130Z 00000KT 10SM OVC100 00/M03 A3015 420 78 -1200 000/00 RMK AO2
14840KMKG MKG20060316203509803/16/06 20:35:31  5-MIN KMKG 170135Z 00000KT 10SM BKN100 00/M03 A3015 420 78 -1200 000/00 RMK AO2
14840KMKG MKG20060316204009803/16/06 20:40:31  5-MIN KMKG 170140Z 00000KT 10SM BKN100 00/M03 A3015 420 78 -1200 000/00 RMK AO2
14840KMKG MKG20060316204509803/16/06 20:45:31  5-MIN KMKG 170145Z 00000KT 10SM BKN100 00/M03 A3015 420 78 -1200 000/00 RMK AO2
14840KMKG MKG20060316205011503/16/06 20:50:31  5-MIN KMKG 170150Z 00000KT 10SM BKN110 00/M03 A3015 420 78 -1200 000/00 RMK AO2 SLP218 T00001033
14840KMKG MKG20060316205511503/16/06 20:55:31  5-MIN KMKG 170155Z 00000KT 10SM BKN110 00/M03 A3015 420 78 -1200 000/00 RMK AO2 SLP218 T00001033
14840KMKG MKG20060316210009803/16/06 21:00:31  5-MIN KMKG 170200Z 00000KT 10SM BKN110 00/M03 A3015 410 78 -1200 000/00 RMK AO2
14840KMKG MKG20060316210509803/16/06 21:05:31  5-MIN KMKG 170205Z 00000KT 10SM OVC110 00/M03 A3016 410 78 -1200 000/00 RMK AO2
14840KMKG MKG20060316211009803/16/06 21:10:31  5-MIN KMKG 170210Z 00000KT 10SM OVC110 00/M03 A3016 410 78 -1200 000/00 RMK AO2
14840KMKG MKG20060316211510603/16/06 21:15:31  5-MIN KMKG 170215Z 00000KT 10SM FEW065 OVC110 M01/M03 A3016 410 81 -1300 000/00 RMK AO2
14840KMKG MKG20060316212012103/16/06 21:20:31  5-MIN KMKG 170220Z 00000KT 10SM SCT065 OVC110 M01/M03 A3016 410 81 -1300 000/00 RMK AO2 CIG 065 RWY 14
14840KMKG MKG20060316212510603/16/06 21:25:31  5-MIN KMKG 170225Z 00000KT 10SM BKN065 OVC110 M01/M03 A3016 410 81 -1300 000/00 RMK AO2
14840KMKG MKG20060316213010603/16/06 21:30:31  5-MIN KMKG 170230Z 00000KT 10SM BKN070 OVC110 M01/M03 A3016 410 81 -1300 000/00 RMK AO2
14840KMKG MKG20060316213510603/16/06 21:35:31  5-MIN KMKG 170235Z 00000KT 10SM BKN070 BKN110 M01/M04 A3016 410 81 -1400 000/00 RMK AO2
14840KMKG MKG20060316214010603/16/06 21:40:31  5-MIN KMKG 170240Z 30003KT 10SM BKN070 BKN110 M01/M04 A3017 400 81 -1400 310/03 RMK AO2
14840KMKG MKG20060316214509903/16/06 21:45:31  5-MIN KMKG 170245Z 00000KT 10SM BKN070 M01/M03 A3017 400 85 -1400 000/00 RMK AO2
14840KMKG MKG20060316215012203/16/06 21:50:31  5-MIN KMKG 170250Z 32004KT 10SM BKN070 M01/M04 A3017 400 81 -1400 330/04 RMK AO2 SLP224 T10111039 53008
14840KMKG MKG20060316215512203/16/06 21:55:31  5-MIN KMKG 170255Z 33005KT 10SM BKN075 M01/M04 A3017 400 81 -1400 340/05 RMK AO2 SLP225 T10111039 53014
14840KMKG MKG20060316220009803/16/06 22:00:31  5-MIN KMKG 170300Z 33004KT 10SM BKN075 00/M03 A3017 400 81 -1300 340/04 RMK AO2
14840KMKG MKG20060316220509803/16/06 22:05:31  5-MIN KMKG 170305Z 35005KT 10SM BKN075 00/M03 A3018 390 78 -1300 350/05 RMK AO2
14840KMKG MKG20060316221009903/16/06 22:10:31  5-MIN KMKG 170310Z 36005KT 10SM BKN075 M01/M04 A3018 390 78 -1300 360/05 RMK AO2
14840KMKG MKG20060316221509903/16/06 22:15:31  5-MIN KMKG 170315Z 36006KT 10SM SCT075 M01/M05 A3018 390 72 -1300 010/06 RMK AO2
14840KMKG MKG20060316222009903/16/06 22:20:31  5-MIN KMKG 170320Z 01006KT 10SM SCT075 M01/M06 A3018 390 66 -1300 010/06 RMK AO2
14840KMKG MKG20060316222509903/16/06 22:25:31  5-MIN KMKG 170325Z 02006KT 10SM FEW075 M01/M07 A3019 390 63 -1300 030/06 RMK AO2
14840KMKG MKG20060316223009803/16/06 22:30:31  5-MIN KMKG 170330Z 02006KT 10SM FEW075 00/M07 A3019 390 61 -1300 020/06 RMK AO2
14840KMKG MKG20060316223509503/16/06 22:35:31  5-MIN KMKG 170335Z 03006KT 10SM CLR 00/M07 A3019 390 58 -1300 030/06 RMK AO2
14840KMKG MKG20060316224009503/16/06 22:40:31  5-MIN KMKG 170340Z 03006KT 10SM CLR 00/M07 A3019 380 58 -1300 030/06 RMK AO2
14840KMKG MKG20060316224509503/16/06 22:45:31  5-MIN KMKG 170345Z 02005KT 10SM CLR 00/M07 A3019 380 58 -1300 030/05 RMK AO2
14840KMKG MKG20060316225011203/16/06 22:50:31  5-MIN KMKG 170350Z 02006KT 10SM CLR 00/M07 A3019 380 58 -1300 020/06 RMK AO2 SLP231 T00001072
14840KMKG MKG20060316225511203/16/06 22:55:31  5-MIN KMKG 170355Z 02006KT 10SM CLR 00/M07 A3019 380 58 -1300 020/06 RMK AO2 SLP231 T00001072
14840KMKG MKG20060316230009603/16/06 23:00:31  5-MIN KMKG 170400Z 02007KT 10SM CLR M01/M07 A3019 380 61 -1300 030/07 RMK AO2
14840KMKG MKG20060316230509603/16/06 23:05:31  5-MIN KMKG 170405Z 02007KT 10SM CLR M01/M07 A3019 380 61 -1300 020/07 RMK AO2
14840KMKG MKG20060316231009603/16/06 23:10:31  5-MIN KMKG 170410Z 01008KT 10SM CLR M01/M08 A3020 380 58 -1300 020/08 RMK AO2
14840KMKG MKG20060316231509603/16/06 23:15:31  5-MIN KMKG 170415Z 02007KT 10SM CLR M01/M08 A3020 370 58 -1300 020/07 RMK AO2
14840KMKG MKG20060316232009603/16/06 23:20:31  5-MIN KMKG 170420Z 02007KT 10SM CLR M01/M08 A3020 370 58 -1400 020/07 RMK AO2
14840KMKG MKG20060316232509603/16/06 23:25:31  5-MIN KMKG 170425Z 02008KT 10SM CLR M01/M08 A3020 370 58 -1400 020/08 RMK AO2
14840KMKG MKG20060316233009603/16/06 23:30:31  5-MIN KMKG 170430Z 02007KT 10SM CLR M01/M08 A3020 370 58 -1400 020/07 RMK AO2
14840KMKG MKG20060316233509603/16/06 23:35:31  5-MIN KMKG 170435Z 02009KT 10SM CLR M01/M08 A3020 370 56 -1400 030/09 RMK AO2
14840KMKG MKG20060316234009603/16/06 23:40:31  5-MIN KMKG 170440Z 03009KT 10SM CLR M01/M08 A3020 370 56 -1400 030/09 RMK AO2
14840KMKG MKG20060316234509603/16/06 23:45:31  5-MIN KMKG 170445Z 03009KT 10SM CLR M01/M08 A3021 370 56 -1400 030/09 RMK AO2
14840KMKG MKG20060316235012303/16/06 23:50:31  5-MIN KMKG 170450Z 03008KT 10SM CLR M01/M09 A3021 370 53 -1400 030/08 RMK AO2 SLP237 T10061089 400221028
14840KMKG MKG20060316235512303/16/06 23:55:31  5-MIN KMKG 170455Z 03009KT 10SM CLR M01/M08 A3021 370 58 -1400 030/09 RMK AO2 SLP237 T10111083 400221028
14840KMKG MKG20060317000009603/17/06 00:00:32  5-MIN KMKG 170500Z 04010KT 10SM CLR M01/M09 A3021 360 55 -1400 040/10 RMK AO2
14840KMKG MKG20060317000509603/17/06 00:05:31  5-MIN KMKG 170505Z 03011KT 10SM CLR M01/M09 A3021 360 55 -1400 030/11 RMK AO2
14840KMKG MKG20060317001009603/17/06 00:10:31  5-MIN KMKG 170510Z 03007KT 10SM CLR M01/M09 A3021 360 55 -1400 040/07 RMK AO2
14840KMKG MKG20060317001509603/17/06 00:15:31  5-MIN KMKG 170515Z 03008KT 10SM CLR M01/M09 A3021 360 55 -1400 040/08 RMK AO2
14840KMKG MKG20060317002009603/17/06 00:20:31  5-MIN KMKG 170520Z 03009KT 10SM CLR M01/M09 A3021 360 55 -1400 040/09 RMK AO2
14840KMKG MKG20060317002509603/17/06 00:25:31  5-MIN KMKG 170525Z 03008KT 10SM CLR M01/M09 A3021 360 55 -1400 030/08 RMK AO2
14840KMKG MKG20060317003009603/17/06 00:30:31  5-MIN KMKG 170530Z 03007KT 10SM CLR M01/M09 A3022 360 55 -1400 040/07 RMK AO2
14840KMKG MKG20060317003509603/17/06 00:35:31  5-MIN KMKG 170535Z 03007KT 10SM CLR M02/M09 A3022 360 58 -1500 030/07 RMK AO2
14840KMKG MKG20060317004009603/17/06 00:40:31  5-MIN KMKG 170540Z 03007KT 10SM CLR M02/M09 A3022 360 58 -1500 030/07 RMK AO2
14840KMKG MKG20060317004509603/17/06 00:45:31  5-MIN KMKG 170545Z 03008KT 10SM CLR M02/M09 A3022 350 58 -1500 030/08 RMK AO2
14840KMKG MKG20060317005013103/17/06 00:50:31  5-MIN KMKG 170550Z 03008KT 10SM CLR M02/M09 A3022 350 58 -1500 030/08 RMK AO2 SLP242 T10171089 10017 21017 53014
14840KMKG MKG20060317005513103/17/06 00:55:31  5-MIN KMKG 170555Z 03008KT 10SM CLR M02/M09 A3022 350 58 -1500 030/08 RMK AO2 SLP242 T10171089 10017 21017 51016
14840KMKG MKG20060317010009603/17/06 01:00:31  5-MIN KMKG 170600Z 03008KT 10SM CLR M02/M09 A3022 350 58 -1500 040/08 RMK AO2
14840KMKG MKG20060317010509603/17/06 01:05:31  5-MIN KMKG 170605Z 04008KT 10SM CLR M02/M09 A3023 350 58 -1500 040/08 RMK AO2
14840KMKG MKG20060317011009603/17/06 01:10:31  5-MIN KMKG 170610Z 03009KT 10SM CLR M02/M09 A3023 340 58 -1500 040/09 RMK AO2
14840KMKG MKG20060317011509603/17/06 01:15:31  5-MIN KMKG 170615Z 03008KT 10SM CLR M02/M09 A3023 340 55 -1500 040/08 RMK AO2
14840KMKG MKG20060317012009603/17/06 01:20:31  5-MIN KMKG 170620Z 03008KT 10SM CLR M02/M09 A3023 340 58 -1500 030/08 RMK AO2
14840KMKG MKG20060317012509603/17/06 01:25:31  5-MIN KMKG 170625Z 03006KT 10SM CLR M02/M09 A3024 340 60 -1600 040/06 RMK AO2
14840KMKG MKG20060317013009603/17/06 01:30:31  5-MIN KMKG 170630Z 03008KT 10SM CLR M02/M09 A3024 340 58 -1500 040/08 RMK AO2
14840KMKG MKG20060317013509603/17/06 01:35:31  5-MIN KMKG 170635Z 03008KT 10SM CLR M02/M09 A3024 330 58 -1500 030/08 RMK AO2
14840KMKG MKG20060317014009603/17/06 01:40:31  5-MIN KMKG 170640Z 03009KT 10SM CLR M02/M09 A3025 330 58 -1500 040/09 RMK AO2
14840KMKG MKG20060317014509603/17/06 01:45:31  5-MIN KMKG 170645Z 03009KT 10SM CLR M02/M09 A3025 330 60 -1600 040/09 RMK AO2
14840KMKG MKG20060317015011303/17/06 01:50:31  5-MIN KMKG 170650Z 04009KT 10SM CLR M02/M09 A3025 330 60 -1600 040/09 RMK AO2 SLP251 T10221089
14840KMKG MKG20060317015511303/17/06 01:55:31  5-MIN KMKG 170655Z 04007KT 10SM CLR M02/M09 A3025 330 60 -1600 040/07 RMK AO2 SLP251 T10221089
14840KMKG MKG20060317020009603/17/06 02:00:31  5-MIN KMKG 170700Z 04007KT 10SM CLR M02/M09 A3025 320 60 -1600 040/07 RMK AO2
14840KMKG MKG20060317020509603/17/06 02:05:31  5-MIN KMKG 170705Z 03007KT 10SM CLR M02/M09 A3026 320 60 -1600 040/07 RMK AO2
14840KMKG MKG20060317021009603/17/06 02:10:31  5-MIN KMKG 170710Z 04008KT 10SM CLR M02/M09 A3026 320 60 -1600 040/08 RMK AO2
14840KMKG MKG20060317021509603/17/06 02:15:31  5-MIN KMKG 170715Z 04007KT 10SM CLR M02/M09 A3026 320 60 -1600 040/07 RMK AO2
14840KMKG MKG20060317022009603/17/06 02:20:31  5-MIN KMKG 170720Z 03007KT 10SM CLR M02/M09 A3026 320 60 -1600 030/07 RMK AO2
14840KMKG MKG20060317022509603/17/06 02:25:31  5-MIN KMKG 170725Z 03007KT 10SM CLR M02/M09 A3026 310 60 -1600 040/07 RMK AO2
14840KMKG MKG20060317023009603/17/06 02:30:31  5-MIN KMKG 170730Z 03007KT 10SM CLR M03/M09 A3027 310 63 -1700 040/07 RMK AO2
14840KMKG MKG20060317023509603/17/06 02:35:31  5-MIN KMKG 170735Z 03007KT 10SM CLR M02/M09 A3027 310 60 -1600 030/07 RMK AO2
14840KMKG MKG20060317024009603/17/06 02:40:31  5-MIN KMKG 170740Z 03007KT 10SM CLR M02/M09 A3027 310 60 -1600 030/07 RMK AO2
14840KMKG MKG20060317024509603/17/06 02:45:31  5-MIN KMKG 170745Z 03007KT 10SM CLR M03/M09 A3027 310 63 -1700 040/07 RMK AO2
14840KMKG MKG20060317025011303/17/06 02:50:31  5-MIN KMKG 170750Z 04007KT 10SM CLR M03/M09 A3027 310 63 -1700 040/07 RMK AO2 SLP258 T10281089
14840KMKG MKG20060317025511303/17/06 02:55:31  5-MIN KMKG 170755Z 03008KT 10SM CLR M03/M09 A3027 310 63 -1700 040/08 RMK AO2 SLP259 T10281089
14840KMKG MKG20060317030009603/17/06 03:00:31  5-MIN KMKG 170800Z 03007KT 10SM CLR M03/M09 A3027 310 63 -1700 030/07 RMK AO2
14840KMKG MKG20060317031009603/17/06 03:10:31  5-MIN KMKG 170810Z 03007KT 10SM CLR M03/M09 A3028 300 63 -1700 030/07 RMK AO2
14840KMKG MKG20060317031509603/17/06 03:15:31  5-MIN KMKG 170815Z 03008KT 10SM CLR M03/M09 A3027 300 63 -1700 030/08 RMK AO2
14840KMKG MKG20060317032009603/17/06 03:20:31  5-MIN KMKG 170820Z 02006KT 10SM CLR M03/M09 A3028 300 63 -1700 030/06 RMK AO2
14840KMKG MKG20060317032509603/17/06 03:25:31  5-MIN KMKG 170825Z 03007KT 10SM CLR M03/M09 A3028 300 63 -1700 030/07 RMK AO2
14840KMKG MKG20060317033009603/17/06 03:30:31  5-MIN KMKG 170830Z 02007KT 10SM CLR M03/M09 A3028 300 63 -1700 020/07 RMK AO2
14840KMKG MKG20060317033509603/17/06 03:35:31  5-MIN KMKG 170835Z 02007KT 10SM CLR M03/M09 A3028 300 63 -1700 030/07 RMK AO2
14840KMKG MKG20060317034009603/17/06 03:40:31  5-MIN KMKG 170840Z 02007KT 10SM CLR M03/M09 A3028 300 63 -1700 030/07 RMK AO2
14840KMKG MKG20060317034509603/17/06 03:45:31  5-MIN KMKG 170845Z 03007KT 10SM CLR M03/M09 A3028 290 65 -1800 030/07 RMK AO2
14840KMKG MKG20060317035011903/17/06 03:50:31  5-MIN KMKG 170850Z 02007KT 10SM CLR M03/M09 A3029 290 63 -1700 030/07 RMK AO2 SLP263 T10281089 51016
14840KMKG MKG20060317035511903/17/06 03:55:31  5-MIN KMKG 170855Z 02008KT 10SM CLR M03/M08 A3029 290 66 -1700 030/08 RMK AO2 SLP264 T10281083 51022
14840KMKG MKG20060317040009603/17/06 04:00:31  5-MIN KMKG 170900Z 01008KT 10SM CLR M03/M08 A3029 290 66 -1700 020/08 RMK AO2
14840KMKG MKG20060317040509603/17/06 04:05:31  5-MIN KMKG 170905Z 01007KT 10SM CLR M03/M08 A3029 290 66 -1700 010/07 RMK AO2
14840KMKG MKG20060317041009603/17/06 04:10:31  5-MIN KMKG 170910Z 01008KT 10SM CLR M03/M08 A3029 290 68 -1800 020/08 RMK AO2
14840KMKG MKG20060317041509603/17/06 04:15:31  5-MIN KMKG 170915Z 01006KT 10SM CLR M03/M08 A3029 290 68 -1800 020/06 RMK AO2
14840KMKG MKG20060317042009603/17/06 04:20:31  5-MIN KMKG 170920Z 02008KT 10SM CLR M03/M08 A3029 290 68 -1800 020/08 RMK AO2
14840KMKG MKG20060317042509603/17/06 04:25:31  5-MIN KMKG 170925Z 02008KT 10SM CLR M03/M08 A3029 290 68 -1800 030/08 RMK AO2
14840KMKG MKG20060317043009603/17/06 04:30:31  5-MIN KMKG 170930Z 02008KT 10SM CLR M03/M08 A3030 280 68 -1800 020/08 RMK AO2
14840KMKG MKG20060317043509603/17/06 04:35:31  5-MIN KMKG 170935Z 02009KT 10SM CLR M03/M08 A3030 280 68 -1800 020/09 RMK AO2
14840KMKG MKG20060317044009603/17/06 04:40:31  5-MIN KMKG 170940Z 02008KT 10SM CLR M03/M08 A3030 280 68 -1800 030/08 RMK AO2
14840KMKG MKG20060317044509603/17/06 04:45:31  5-MIN KMKG 170945Z 02008KT 10SM CLR M03/M08 A3030 280 71 -1800 020/08 RMK AO2
14840KMKG MKG20060317045011303/17/06 04:50:31  5-MIN KMKG 170950Z 03008KT 10SM CLR M03/M08 A3030 280 71 -1800 030/08 RMK AO2 SLP270 T10331078
14840KMKG MKG20060317045511303/17/06 04:55:31  5-MIN KMKG 170955Z 02008KT 10SM CLR M03/M08 A3031 270 71 -1800 030/08 RMK AO2 SLP271 T10331078
14840KMKG MKG20060317050009603/17/06 05:00:31  5-MIN KMKG 171000Z 02007KT 10SM CLR M03/M08 A3031 270 71 -1800 030/07 RMK AO2
14840KMKG MKG20060317050509603/17/06 05:05:31  5-MIN KMKG 171005Z 01008KT 10SM CLR M03/M08 A3031 270 71 -1800 020/08 RMK AO2
14840KMKG MKG20060317051009603/17/06 05:10:31  5-MIN KMKG 171010Z 02007KT 10SM CLR M04/M08 A3032 270 74 -1900 020/07 RMK AO2
14840KMKG MKG20060317051509603/17/06 05:15:31  5-MIN KMKG 171015Z 02007KT 10SM CLR M04/M08 A3032 260 74 -1900 030/07 RMK AO2
14840KMKG MKG20060317052009603/17/06 05:20:31  5-MIN KMKG 171020Z 02007KT 10SM CLR M03/M07 A3032 260 74 -1800 030/07 RMK AO2
14840KMKG MKG20060317052509603/17/06 05:25:31  5-MIN KMKG 171025Z 03006KT 10SM CLR M03/M07 A3032 260 74 -1800 030/06 RMK AO2
14840KMKG MKG20060317053009603/17/06 05:30:31  5-MIN KMKG 171030Z 02006KT 10SM CLR M04/M07 A3032 260 78 -1900 030/06 RMK AO2
14840KMKG MKG20060317053509603/17/06 05:35:31  5-MIN KMKG 171035Z 02007KT 10SM CLR M04/M07 A3032 260 78 -1900 020/07 RMK AO2
14840KMKG MKG20060317054009603/17/06 05:40:31  5-MIN KMKG 171040Z 03006KT 10SM CLR M04/M07 A3033 260 78 -1900 030/06 RMK AO2
14840KMKG MKG20060317054509603/17/06 05:45:31  5-MIN KMKG 171045Z 03006KT 10SM CLR M04/M07 A3033 250 78 -1900 030/06 RMK AO2
14840KMKG MKG20060317055011303/17/06 05:50:31  5-MIN KMKG 171050Z 02006KT 10SM CLR M04/M07 A3033 250 78 -1900 030/06 RMK AO2 SLP280 T10391072
14840KMKG MKG20060317055511303/17/06 05:55:31  5-MIN KMKG 171055Z 02006KT 10SM CLR M04/M07 A3033 250 78 -1900 030/06 RMK AO2 SLP280 T10391072
14840KMKG MKG20060317060009603/17/06 06:00:31  5-MIN KMKG 171100Z 02006KT 10SM CLR M04/M07 A3033 250 78 -1900 030/06 RMK AO2
14840KMKG MKG20060317060509603/17/06 06:05:31  5-MIN KMKG 171105Z 01007KT 10SM CLR M04/M07 A3034 250 78 -1900 020/07 RMK AO2
14840KMKG MKG20060317061009603/17/06 06:10:31  5-MIN KMKG 171110Z 02006KT 10SM CLR M04/M07 A3034 250 78 -1900 020/06 RMK AO2
14840KMKG MKG20060317061509603/17/06 06:15:31  5-MIN KMKG 171115Z 02007KT 10SM CLR M04/M07 A3034 240 78 -1900 030/07 RMK AO2
14840KMKG MKG20060317062009603/17/06 06:20:31  5-MIN KMKG 171120Z 02007KT 10SM CLR M04/M07 A3034 240 78 -1900 020/07 RMK AO2
14840KMKG MKG20060317062509603/17/06 06:25:31  5-MIN KMKG 171125Z 02007KT 10SM CLR M04/M07 A3035 240 78 -1900 030/07 RMK AO2
14840KMKG MKG20060317063009603/17/06 06:30:31  5-MIN KMKG 171130Z 02006KT 10SM CLR M04/M07 A3035 240 78 -1900 030/06 RMK AO2
14840KMKG MKG20060317063509603/17/06 06:35:31  5-MIN KMKG 171135Z 03006KT 10SM CLR M04/M07 A3035 240 78 -1900 030/06 RMK AO2
14840KMKG MKG20060317064009603/17/06 06:40:31  5-MIN KMKG 171140Z 02005KT 10SM CLR M04/M07 A3035 240 81 -2000 030/05 RMK AO2
14840KMKG MKG20060317064509603/17/06 06:45:31  5-MIN KMKG 171145Z 02005KT 10SM CLR M04/M07 A3035 240 78 -1900 020/05 RMK AO2
14840KMKG MKG20060317065013403/17/06 06:50:31  5-MIN KMKG 171150Z 01006KT 10SM FEW120 M04/M07 A3035 240 78 -1900 020/06 RMK AO2 SLP286 T10391072 11017 21044 51022
14840KMKG MKG20060317065513403/17/06 06:55:31  5-MIN KMKG 171155Z 01005KT 10SM SCT120 M04/M07 A3035 240 78 -1900 020/05 RMK AO2 SLP286 T10391072 11017 21044 51021
14840KMKG MKG20060317070009903/17/06 07:00:31  5-MIN KMKG 171200Z 03007KT 10SM BKN120 M04/M07 A3035 240 78 -1900 040/07 RMK AO2
14840KMKG MKG20060317070509903/17/06 07:05:31  5-MIN KMKG 171205Z 02006KT 10SM SCT120 M04/M07 A3035 240 78 -1900 030/06 RMK AO2
14840KMKG MKG20060317071009903/17/06 07:10:31  5-MIN KMKG 171210Z 02006KT 10SM SCT120 M04/M07 A3035 240 78 -1900 020/06 RMK AO2
14840KMKG MKG20060317071509903/17/06 07:15:31  5-MIN KMKG 171215Z 01005KT 10SM SCT120 M04/M07 A3035 230 78 -2000 020/05 RMK AO2
14840KMKG MKG20060317072009903/17/06 07:20:31  5-MIN KMKG 171220Z 01005KT 10SM SCT120 M04/M07 A3036 230 78 -2000 020/05 RMK AO2
14840KMKG MKG20060317072509903/17/06 07:25:31  5-MIN KMKG 171225Z 02006KT 10SM BKN120 M04/M07 A3036 220 78 -2000 020/06 RMK AO2
14840KMKG MKG20060317073009903/17/06 07:30:31  5-MIN KMKG 171230Z 01006KT 10SM BKN120 M04/M07 A3036 220 78 -2000 020/06 RMK AO2
14840KMKG MKG20060317073509903/17/06 07:35:31  5-MIN KMKG 171235Z 02006KT 10SM BKN120 M04/M07 A3036 220 78 -2000 020/06 RMK AO2
14840KMKG MKG20060317074009903/17/06 07:40:31  5-MIN KMKG 171240Z 03005KT 10SM SCT120 M04/M07 A3036 220 78 -2000 030/05 RMK AO2
14840KMKG MKG20060317074509903/17/06 07:45:31  5-MIN KMKG 171245Z 02007KT 10SM SCT120 M04/M07 A3036 220 78 -2000 020/07 RMK AO2
14840KMKG MKG20060317075011603/17/06 07:50:31  5-MIN KMKG 171250Z 02006KT 10SM SCT120 M03/M07 A3036 220 74 -1900 020/06 RMK AO2 SLP292 T10331072
14840KMKG MKG20060317075511603/17/06 07:55:31  5-MIN KMKG 171255Z 02005KT 10SM FEW120 M03/M07 A3037 220 74 -1900 020/05 RMK AO2 SLP292 T10331072
14840KMKG MKG20060317080009603/17/06 08:00:31  5-MIN KMKG 171300Z 02006KT 10SM CLR M03/M07 A3037 220 74 -1900 030/06 RMK AO2
14840KMKG MKG20060317080509603/17/06 08:05:31  5-MIN KMKG 171305Z 02005KT 10SM CLR M03/M07 A3037 220 74 -1900 030/05 RMK AO2
14840KMKG MKG20060317081009603/17/06 08:10:31  5-MIN KMKG 171310Z 02006KT 10SM CLR M03/M07 A3037 210 74 -1900 020/06 RMK AO2
14840KMKG MKG20060317081509603/17/06 08:15:31  5-MIN KMKG 171315Z 36005KT 10SM CLR M03/M07 A3038 210 74 -1900 360/05 RMK AO2
14840KMKG MKG20060317082009603/17/06 08:20:31  5-MIN KMKG 171320Z 02005KT 10SM CLR M03/M07 A3038 210 75 -1800 020/05 RMK AO2
14840KMKG MKG20060317082509603/17/06 08:25:31  5-MIN KMKG 171325Z 36007KT 10SM CLR M03/M07 A3038 210 75 -1800 360/07 RMK AO2
14840KMKG MKG20060317083009603/17/06 08:30:31  5-MIN KMKG 171330Z 01007KT 10SM CLR M03/M07 A3038 200 75 -1800 020/07 RMK AO2
14840KMKG MKG20060317083509603/17/06 08:35:31  5-MIN KMKG 171335Z 36006KT 10SM CLR M03/M07 A3039 200 75 -1800 010/06 RMK AO2
14840KMKG MKG20060317084009603/17/06 08:40:31  5-MIN KMKG 171340Z 02007KT 10SM CLR M02/M07 A3039 200 72 -1800 020/07 RMK AO2
14840KMKG MKG20060317084509603/17/06 08:45:31  5-MIN KMKG 171345Z 36006KT 10SM CLR M02/M07 A3038 200 72 -1800 010/06 RMK AO2
14840KMKG MKG20060317085011303/17/06 08:50:31  5-MIN KMKG 171350Z 36007KT 10SM CLR M02/M07 A3038 200 72 -1800 360/07 RMK AO2 SLP298 T10221067
14840KMKG MKG20060317085511303/17/06 08:55:31  5-MIN KMKG 171355Z 01008KT 10SM CLR M02/M07 A3039 200 72 -1800 020/08 RMK AO2 SLP298 T10221067
14840KMKG MKG20060317090009603/17/06 09:00:31  5-MIN KMKG 171400Z 01006KT 10SM CLR M02/M07 A3039 200 72 -1800 010/06 RMK AO2
14840KMKG MKG20060317090509603/17/06 09:05:31  5-MIN KMKG 171405Z 01005KT 10SM CLR M02/M07 A3039 200 72 -1800 020/05 RMK AO2
14840KMKG MKG20060317091009603/17/06 09:10:31  5-MIN KMKG 171410Z 03008KT 10SM CLR M02/M07 A3039 200 69 -1700 040/08 RMK AO2
14840KMKG MKG20060317091509603/17/06 09:15:31  5-MIN KMKG 171415Z 03008KT 10SM CLR M02/M07 A3038 200 69 -1700 030/08 RMK AO2
14840KMKG MKG20060317092009603/17/06 09:20:31  5-MIN KMKG 171420Z 04007KT 10SM CLR M02/M07 A3038 200 66 -1700 040/07 RMK AO2
14840KMKG MKG20060317092509603/17/06 09:25:31  5-MIN KMKG 171425Z 01007KT 10SM CLR M02/M07 A3038 200 66 -1700 020/07 RMK AO2
14840KMKG MKG20060317093009603/17/06 09:30:31  5-MIN KMKG 171430Z 36006KT 10SM CLR M01/M07 A3039 200 66 -1600 010/06 RMK AO2
14840KMKG MKG20060317093509603/17/06 09:35:31  5-MIN KMKG 171435Z 01006KT 10SM CLR M01/M07 A3039 200 66 -1600 010/06 RMK AO2
14840KMKG MKG20060317094009603/17/06 09:40:31  5-MIN KMKG 171440Z 01006KT 10SM CLR M01/M07 A3039 200 63 -1600 010/06 RMK AO2
14840KMKG MKG20060317094509603/17/06 09:45:31  5-MIN KMKG 171445Z VRB06KT 10SM CLR M01/M07 A3039 200 63 -1600 VRB/06 RMK AO2
14840KMKG MKG20060317095011803/17/06 09:50:31  5-MIN KMKG 171450Z VRB06KT 10SM CLR 00/M07 A3039 200 61 -1500 VRB/06 RMK AO2 SLP298 T00001067 51021
14840KMKG MKG20060317095511803/17/06 09:55:31  5-MIN KMKG 171455Z 35008KT 10SM CLR 00/M07 A3039 200 61 -1500 360/08 RMK AO2 SLP298 T00001067 51013
14840KMKG MKG20060317100009503/17/06 10:00:31  5-MIN KMKG 171500Z 35007KT 10SM CLR 00/M07 A3039 200 58 -1500 360/07 RMK AO2
14840KMKG MKG20060317100509503/17/06 10:05:31  5-MIN KMKG 171505Z 36008KT 10SM CLR 00/M07 A3039 200 58 -1500 360/08 RMK AO2
14840KMKG MKG20060317101009503/17/06 10:10:31  5-MIN KMKG 171510Z 01008KT 10SM CLR 00/M07 A3039 200 58 -1500 020/08 RMK AO2
14840KMKG MKG20060317101509503/17/06 10:15:31  5-MIN KMKG 171515Z 02009KT 10SM CLR 01/M07 A3039 200 56 -1400 020/09 RMK AO2
14840KMKG MKG20060317102009503/17/06 10:20:31  5-MIN KMKG 171520Z 36009KT 10SM CLR 01/M07 A3039 200 56 -1400 360/09 RMK AO2
14840KMKG MKG20060317102509503/17/06 10:25:31  5-MIN KMKG 171525Z 35008KT 10SM CLR 01/M07 A3039 200 56 -1400 360/08 RMK AO2
14840KMKG MKG20060317103009503/17/06 10:30:31  5-MIN KMKG 171530Z 35011KT 10SM CLR 01/M07 A3039 200 54 -1400 350/11 RMK AO2
14840KMKG MKG20060317103509503/17/06 10:35:31  5-MIN KMKG 171535Z 36011KT 10SM CLR 01/M07 A3039 200 54 -1400 360/11 RMK AO2
14840KMKG MKG20060317104009803/17/06 10:40:31  5-MIN KMKG 171540Z 36010KT 10SM FEW033 01/M08 A3039 200 51 -1400 010/10 RMK AO2
14840KMKG MKG20060317104509803/17/06 10:45:31  5-MIN KMKG 171545Z 36008KT 10SM FEW033 01/M07 A3039 200 54 -1400 010/08 RMK AO2
14840KMKG MKG20060317105011503/17/06 10:50:31  5-MIN KMKG 171550Z 36007KT 10SM FEW033 02/M07 A3039 200 52 -1300 360/07 RMK AO2 SLP299 T00171072
14840KMKG MKG20060317105512103/17/06 10:55:31  5-MIN KMKG 171555Z 34009G16KT 10SM FEW033 02/M07 A3039 200 52 -1300 350/09G16 RMK AO2 SLP298 T00171072
14840KMKG MKG20060317110010403/17/06 11:00:31  5-MIN KMKG 171600Z 35010G16KT 10SM FEW033 02/M08 A3039 200 49 -1300 350/10G16 RMK AO2
14840KMKG MKG20060317110509803/17/06 11:05:31  5-MIN KMKG 171605Z 34007KT 10SM FEW033 02/M08 A3039 200 49 -1300 340/07 RMK AO2
14840KMKG MKG20060317111009803/17/06 11:10:31  5-MIN KMKG 171610Z 01009KT 10SM FEW033 02/M08 A3039 200 47 -1200 010/09 RMK AO2
14840KMKG MKG20060317111509803/17/06 11:15:31  5-MIN KMKG 171615Z 35006KT 10SM FEW033 02/M08 A3039 200 47 -1200 360/06 RMK AO2
14840KMKG MKG20060317112009803/17/06 11:20:31  5-MIN KMKG 171620Z 01008KT 10SM FEW033 02/M08 A3038 200 47 -1200 010/08 RMK AO2
14840KMKG MKG20060317112509803/17/06 11:25:31  5-MIN KMKG 171625Z 34007KT 10SM FEW033 02/M08 A3038 210 47 -1200 340/07 RMK AO2
14840KMKG MKG20060317113009803/17/06 11:30:31  5-MIN KMKG 171630Z 03007KT 10SM FEW033 02/M08 A3038 210 45 -1200 030/07 RMK AO2
14840KMKG MKG20060317113509803/17/06 11:35:31  5-MIN KMKG 171635Z VRB06KT 10SM FEW033 03/M08 A3038 210 44 -1100 VRB/06 RMK AO2
14840KMKG MKG20060317114009803/17/06 11:40:31  5-MIN KMKG 171640Z 34010KT 10SM FEW037 03/M08 A3038 210 44 -1100 350/10 RMK AO2
14840KMKG MKG20060317114509803/17/06 11:45:31  5-MIN KMKG 171645Z 33007KT 10SM FEW037 03/M08 A3038 210 44 -1100 340/07 RMK AO2
14840KMKG MKG20060317115011503/17/06 11:50:31  5-MIN KMKG 171650Z 32010KT 10SM FEW039 03/M08 A3038 200 44 -1100 330/10 RMK AO2 SLP296 T00331078
14840KMKG MKG20060317115511503/17/06 11:55:31  5-MIN KMKG 171655Z 33010KT 10SM FEW043 03/M08 A3038 210 46 -1100 340/10 RMK AO2 SLP295 T00281078
14840KMKG MKG20060317120009803/17/06 12:00:31  5-MIN KMKG 171700Z 35008KT 10SM FEW043 03/M08 A3038 200 44 -1100 360/08 RMK AO2
14840KMKG MKG20060317120509803/17/06 12:05:31  5-MIN KMKG 171705Z 33008KT 10SM FEW043 03/M08 A3038 210 44 -1100 330/08 RMK AO2
14840KMKG MKG20060317121009803/17/06 12:10:31  5-MIN KMKG 171710Z 01006KT 10SM FEW043 03/M09 A3038 210 42 -1100 020/06 RMK AO2
14840KMKG MKG20060317121509803/17/06 12:15:31  5-MIN KMKG 171715Z VRB04KT 10SM FEW043 03/M09 A3038 210 42 -1100 VRB/04 RMK AO2
14840KMKG MKG20060317122009803/17/06 12:20:31  5-MIN KMKG 171720Z 01007KT 10SM SCT047 03/M08 A3038 210 42 -1100 020/07 RMK AO2
14840KMKG MKG20060317122509803/17/06 12:25:31  5-MIN KMKG 171725Z 36006KT 10SM FEW047 03/M09 A3038 210 40 -1100 010/06 RMK AO2
14840KMKG MKG20060317123009803/17/06 12:30:31  5-MIN KMKG 171730Z VRB06KT 10SM FEW047 03/M09 A3038 210 40 -1100 VRB/06 RMK AO2
14840KMKG MKG20060317123510403/17/06 12:35:31  5-MIN KMKG 171735Z 32008G14KT 10SM FEW047 04/M09 A3037 210 39 -1000 330/08G14 RMK AO2
14840KMKG MKG20060317124010403/17/06 12:40:31  5-MIN KMKG 171740Z 36009G14KT 10SM FEW047 04/M09 A3038 210 39 -1000 360/09G14 RMK AO2
14840KMKG MKG20060317124509803/17/06 12:45:31  5-MIN KMKG 171745Z VRB05KT 10SM FEW047 03/M09 A3037 210 39 -1100 VRB/05 RMK AO2
14840KMKG MKG20060317125013303/17/06 12:50:31  5-MIN KMKG 171750Z 32007KT 10SM FEW047 04/M09 A3037 220 39 -1000 330/07 RMK AO2 SLP291 T00391089 10039 21039 51013
14840KMKG MKG20060317125513303/17/06 12:55:31  5-MIN KMKG 171755Z 30009KT 10SM FEW047 04/M07 A3037 220 44 -1000 310/09 RMK AO2 SLP291 T00391072 10039 21039 58006
14840KMKG MKG20060317130009803/17/06 13:00:31  5-MIN KMKG 171800Z 30014KT 10SM FEW047 04/M08 A3037 220 42 -1000 310/14 RMK AO2
14840KMKG MKG20060317130510403/17/06 13:05:31  5-MIN KMKG 171805Z 31012G16KT 10SM FEW047 03/M06 A3037 220 50 -1100 310/12G16 RMK AO2
14840KMKG MKG20060317131009803/17/06 13:10:31  5-MIN KMKG 171810Z 30015KT 10SM FEW047 03/M06 A3036 220 50 -1000 300/15 RMK AO2
14840KMKG MKG20060317131509803/17/06 13:15:31  5-MIN KMKG 171815Z 30014KT 10SM FEW047 03/M06 A3036 220 50 -1100 300/14 RMK AO2
14840KMKG MKG20060317132009803/17/06 13:20:31  5-MIN KMKG 171820Z 29014KT 10SM FEW047 03/M06 A3036 220 50 -1100 300/14 RMK AO2
14840KMKG MKG20060317132509803/17/06 13:25:31  5-MIN KMKG 171825Z 30015KT 10SM FEW047 03/M06 A3036 220 52 -1100 300/15 RMK AO2
14840KMKG MKG20060317133010403/17/06 13:30:31  5-MIN KMKG 171830Z 30015G20KT 10SM FEW047 03/M07 A3036 220 50 -1100 310/15G20 RMK AO2
14840KMKG MKG20060317133509803/17/06 13:35:31  5-MIN KMKG 171835Z 30016KT 10SM FEW047 03/M07 A3036 220 50 -1100 300/16 RMK AO2
14840KMKG MKG20060317134009803/17/06 13:40:31  5-MIN KMKG 171840Z 30014KT 10SM FEW047 03/M06 A3037 220 52 -1100 300/14 RMK AO2
14840KMKG MKG20060317134509803/17/06 13:45:31  5-MIN KMKG 171845Z 30017KT 10SM FEW047 03/M07 A3036 220 50 -1100 300/17 RMK AO2
14840KMKG MKG20060317135011503/17/06 13:50:31  5-MIN KMKG 171850Z 31011KT 10SM FEW047 03/M06 A3036 220 52 -1100 310/11 RMK AO2 SLP289 T00281061
14840KMKG MKG20060317135511503/17/06 13:55:31  5-MIN KMKG 171855Z 30013KT 10SM FEW047 03/M06 A3036 230 50 -1000 310/13 RMK AO2 SLP289 T00331061
14840KMKG MKG20060317140010403/17/06 14:00:31  5-MIN KMKG 171900Z 31015G21KT 10SM FEW047 03/M06 A3036 230 52 -1100 310/15G21 RMK AO2
14840KMKG MKG20060317140510403/17/06 14:05:31  5-MIN KMKG 171905Z 30015G21KT 10SM FEW047 02/M06 A3036 230 54 -1200 310/15G21 RMK AO2
14840KMKG MKG20060317141009803/17/06 14:10:31  5-MIN KMKG 171910Z 31013KT 10SM FEW047 03/M06 A3036 230 52 -1100 320/13 RMK AO2
14840KMKG MKG20060317141510403/17/06 14:15:31  5-MIN KMKG 171915Z 31016G20KT 10SM FEW047 03/M06 A3036 230 52 -1100 320/16G20 RMK AO2
14840KMKG MKG20060317142010403/17/06 14:20:31  5-MIN KMKG 171920Z 31015G20KT 10SM FEW047 02/M06 A3036 230 54 -1200 320/15G20 RMK AO2
14840KMKG MKG20060317142509803/17/06 14:25:31  5-MIN KMKG 171925Z 30016KT 10SM FEW047 02/M06 A3036 230 54 -1200 300/16 RMK AO2
14840KMKG MKG20060317143009803/17/06 14:30:31  5-MIN KMKG 171930Z 30015KT 10SM FEW047 02/M06 A3035 230 54 -1200 310/15 RMK AO2
14840KMKG MKG20060317143510403/17/06 14:35:31  5-MIN KMKG 171935Z 31016G20KT 10SM FEW047 02/M06 A3035 230 54 -1200 310/16G20 RMK AO2
14840KMKG MKG20060317144010403/17/06 14:40:31  5-MIN KMKG 171940Z 30016G23KT 10SM FEW047 02/M06 A3035 230 54 -1200 310/16G23 RMK AO2
14840KMKG MKG20060317144510403/17/06 14:45:31  5-MIN KMKG 171945Z 31014G23KT 10SM FEW047 02/M06 A3035 230 54 -1200 310/14G23 RMK AO2
14840KMKG MKG20060317145011503/17/06 14:50:31  5-MIN KMKG 171950Z 31013KT 10SM FEW047 03/M06 A3035 240 52 -1100 320/13 RMK AO2 SLP285 T00281061
14840KMKG MKG20060317145511503/17/06 14:55:31  5-MIN KMKG 171955Z 30014KT 10SM FEW047 03/M06 A3034 240 52 -1100 300/14 RMK AO2 SLP284 T00281061
14840KMKG MKG20060317150009803/17/06 15:00:31  5-MIN KMKG 172000Z 30016KT 10SM FEW047 02/M06 A3035 240 54 -1200 300/16 RMK AO2
14840KMKG MKG20060317150509803/17/06 15:05:31  5-MIN KMKG 172005Z 32013KT 10SM FEW047 02/M06 A3035 240 54 -1200 320/13 RMK AO2
14840KMKG MKG20060317151009803/17/06 15:10:31  5-MIN KMKG 172010Z 31012KT 10SM FEW047 02/M06 A3035 240 54 -1200 310/12 RMK AO2
14840KMKG MKG20060317151509803/17/06 15:15:31  5-MIN KMKG 172015Z 30012KT 10SM FEW047 02/M06 A3035 240 56 -1200 310/12 RMK AO2
14840KMKG MKG20060317152009803/17/06 15:20:31  5-MIN KMKG 172020Z 31014KT 10SM FEW047 02/M06 A3035 230 56 -1200 320/14 RMK AO2
14840KMKG MKG20060317152510403/17/06 15:25:31  5-MIN KMKG 172025Z 32013G18KT 10SM FEW047 02/M06 A3035 230 54 -1200 320/13G18 RMK AO2
14840KMKG MKG20060317153010403/17/06 15:30:31  5-MIN KMKG 172030Z 32012G18KT 10SM FEW047 02/M06 A3035 230 54 -1200 320/12G18 RMK AO2
14840KMKG MKG20060317153510403/17/06 15:35:31  5-MIN KMKG 172035Z 31016G21KT 10SM FEW047 02/M06 A3035 230 54 -1200 310/16G21 RMK AO2
14840KMKG MKG20060317154010403/17/06 15:40:31  5-MIN KMKG 172040Z 31012G21KT 10SM FEW047 02/M07 A3035 230 54 -1200 320/12G21 RMK AO2
14840KMKG MKG20060317154509803/17/06 15:45:31  5-MIN KMKG 172045Z 31011KT 10SM FEW047 02/M06 A3035 230 54 -1200 320/11 RMK AO2
14840KMKG MKG20060317155012703/17/06 15:50:31  5-MIN KMKG 172050Z 31015G19KT 10SM FEW047 02/M06 A3036 230 56 -1300 310/15G19 RMK AO2 SLP288 T00171061 58006
14840KMKG MKG20060317155512703/17/06 15:55:31  5-MIN KMKG 172055Z 31014G19KT 10SM FEW047 02/M06 A3036 230 56 -1300 320/14G19 RMK AO2 SLP288 T00171061 55003
14840KMKG MKG20060317160010403/17/06 16:00:31  5-MIN KMKG 172100Z 30014G20KT 10SM FEW047 02/M07 A3036 230 54 -1300 310/14G20 RMK AO2
14840KMKG MKG20060317160510403/17/06 16:05:31  5-MIN KMKG 172105Z 31012G20KT 10SM FEW047 02/M07 A3036 220 54 -1300 320/12G20 RMK AO2
14840KMKG MKG20060317161010403/17/06 16:10:31  5-MIN KMKG 172110Z 33012G18KT 10SM FEW047 02/M06 A3036 220 54 -1200 330/12G18 RMK AO2
14840KMKG MKG20060317161509803/17/06 16:15:31  5-MIN KMKG 172115Z 32011KT 10SM FEW047 02/M06 A3036 220 54 -1200 320/11 RMK AO2
14840KMKG MKG20060317162009803/17/06 16:20:31  5-MIN KMKG 172120Z 31013KT 10SM FEW047 02/M06 A3036 220 56 -1300 310/13 RMK AO2
14840KMKG MKG20060317162509803/17/06 16:25:31  5-MIN KMKG 172125Z 32012KT 10SM FEW047 02/M06 A3037 220 56 -1300 330/12 RMK AO2
14840KMKG MKG20060317163010403/17/06 16:30:31  5-MIN KMKG 172130Z 31009G17KT 10SM FEW047 02/M06 A3037 220 56 -1300 320/09G17 RMK AO2
14840KMKG MKG20060317163510403/17/06 16:35:31  5-MIN KMKG 172135Z 31012G17KT 10SM FEW047 02/M07 A3037 220 54 -1300 320/12G17 RMK AO2
14840KMKG MKG20060317164009803/17/06 16:40:31  5-MIN KMKG 172140Z 34012KT 10SM FEW047 02/M06 A3037 210 54 -1200 350/12 RMK AO2
14840KMKG MKG20060317164509803/17/06 16:45:31  5-MIN KMKG 172145Z 33011KT 10SM FEW047 02/M07 A3037 210 52 -1200 340/11 RMK AO2
14840KMKG MKG20060317165011503/17/06 16:50:31  5-MIN KMKG 172150Z 35013KT 10SM FEW047 02/M07 A3038 210 50 -1200 360/13 RMK AO2 SLP294 T00221072
14840KMKG MKG20060317165511503/17/06 16:55:31  5-MIN KMKG 172155Z 35012KT 10SM FEW047 02/M07 A3037 210 52 -1300 350/12 RMK AO2 SLP294 T00171072
14840KMKG MKG20060317170009803/17/06 17:00:31  5-MIN KMKG 172200Z 34014KT 10SM FEW047 02/M07 A3037 210 52 -1300 350/14 RMK AO2
14840KMKG MKG20060317170509803/17/06 17:05:31  5-MIN KMKG 172205Z 35013KT 10SM FEW047 02/M08 A3037 210 49 -1300 350/13 RMK AO2
14840KMKG MKG20060317171009803/17/06 17:10:31  5-MIN KMKG 172210Z 35013KT 10SM FEW047 01/M08 A3037 210 51 -1300 350/13 RMK AO2
14840KMKG MKG20060317171509803/17/06 17:15:31  5-MIN KMKG 172215Z 34016KT 10SM FEW047 01/M08 A3037 210 51 -1300 350/16 RMK AO2
14840KMKG MKG20060317172009803/17/06 17:20:31  5-MIN KMKG 172220Z 33015KT 10SM FEW047 01/M08 A3038 210 51 -1300 340/15 RMK AO2
14840KMKG MKG20060317172509803/17/06 17:25:31  5-MIN KMKG 172225Z 34016KT 10SM FEW047 01/M08 A3037 220 51 -1300 340/16 RMK AO2
14840KMKG MKG20060317173009803/17/06 17:30:31  5-MIN KMKG 172230Z 35014KT 10SM FEW047 01/M08 A3037 220 49 -1300 350/14 RMK AO2
14840KMKG MKG20060317173509803/17/06 17:35:31  5-MIN KMKG 172235Z 33015KT 10SM FEW047 01/M08 A3037 220 51 -1400 330/15 RMK AO2
14840KMKG MKG20060317174009803/17/06 17:40:31  5-MIN KMKG 172240Z 33014KT 10SM FEW047 01/M08 A3037 220 51 -1400 340/14 RMK AO2
14840KMKG MKG20060317174509803/17/06 17:45:31  5-MIN KMKG 172245Z 33013KT 10SM FEW047 01/M08 A3037 220 51 -1400 330/13 RMK AO2
14840KMKG MKG20060317175011503/17/06 17:50:31  5-MIN KMKG 172250Z 32014KT 10SM FEW047 00/M08 A3037 220 53 -1500 320/14 RMK AO2 SLP293 T00001083
14840KMKG MKG20060317175511503/17/06 17:55:31  5-MIN KMKG 172255Z 33014KT 10SM FEW047 00/M08 A3037 210 56 -1500 330/14 RMK AO2 SLP295 T00001078
14840KMKG MKG20060317180009503/17/06 18:00:31  5-MIN KMKG 172300Z 33015KT 10SM CLR 00/M08 A3037 220 53 -1500 340/15 RMK AO2
14840KMKG MKG20060317180509503/17/06 18:05:31  5-MIN KMKG 172305Z 34017KT 10SM CLR 00/M09 A3037 220 51 -1500 340/17 RMK AO2
14840KMKG MKG20060317181009503/17/06 18:10:31  5-MIN KMKG 172310Z 33014KT 10SM CLR 00/M09 A3037 220 51 -1500 340/14 RMK AO2
14840KMKG MKG20060317181509603/17/06 18:15:31  5-MIN KMKG 172315Z 34015KT 10SM CLR M01/M09 A3037 220 53 -1500 340/15 RMK AO2
14840KMKG MKG20060317182009603/17/06 18:20:31  5-MIN KMKG 172320Z 34016KT 10SM CLR M01/M09 A3037 210 53 -1500 340/16 RMK AO2
14840KMKG MKG20060317182509603/17/06 18:25:31  5-MIN KMKG 172325Z 34014KT 10SM CLR M01/M09 A3037 210 53 -1600 350/14 RMK AO2
14840KMKG MKG20060317183009603/17/06 18:30:31  5-MIN KMKG 172330Z 33015KT 10SM CLR M01/M09 A3037 210 53 -1500 340/15 RMK AO2
14840KMKG MKG20060317183509603/17/06 18:35:31  5-MIN KMKG 172335Z 34014KT 10SM CLR M01/M09 A3038 210 55 -1600 350/14 RMK AO2
14840KMKG MKG20060317184009603/17/06 18:40:31  5-MIN KMKG 172340Z 35016KT 10SM CLR M01/M09 A3038 210 55 -1600 350/16 RMK AO2
14840KMKG MKG20060317184509603/17/06 18:45:31  5-MIN KMKG 172345Z 34017KT 10SM CLR M01/M09 A3038 200 53 -1600 350/17 RMK AO2
14840KMKG MKG20060317185013703/17/06 18:50:31  5-MIN KMKG 172350Z 34011G20KT 10SM CLR M01/M09 A3038 210 53 -1600 350/11G20 RMK AO2 SLP297 T10111094 10039 21011 55003
14840KMKG MKG20060317185513703/17/06 18:55:31  5-MIN KMKG 172355Z 35014G19KT 10SM CLR M01/M09 A3038 210 53 -1600 350/14G19 RMK AO2 SLP297 T10111094 10039 21011 51008
14840KMKG MKG20060317190009603/17/06 19:00:31  5-MIN KMKG 180000Z 34014KT 10SM CLR M01/M09 A3038 200 53 -1600 350/14 RMK AO2
14840KMKG MKG20060317190509603/17/06 19:05:31  5-MIN KMKG 180005Z 34011KT 10SM CLR M02/M09 A3039 200 55 -1700 350/11 RMK AO2
14840KMKG MKG20060317191009603/17/06 19:10:31  5-MIN KMKG 180010Z 35012KT 10SM CLR M02/M09 A3039 200 55 -1700 350/12 RMK AO2
14840KMKG MKG20060317191509603/17/06 19:15:31  5-MIN KMKG 180015Z 35012KT 10SM CLR M02/M10 A3039 200 53 -1700 360/12 RMK AO2
14840KMKG MKG20060317192009603/17/06 19:20:31  5-MIN KMKG 180020Z 34011KT 10SM CLR M02/M10 A3039 200 53 -1700 350/11 RMK AO2
14840KMKG MKG20060317192509603/17/06 19:25:31  5-MIN KMKG 180025Z 35011KT 10SM CLR M02/M11 A3039 200 51 -1700 350/11 RMK AO2
14840KMKG MKG20060317193009603/17/06 19:30:31  5-MIN KMKG 180030Z 35010KT 10SM CLR M02/M11 A3039 200 49 -1700 360/10 RMK AO2
14840KMKG MKG20060317193509603/17/06 19:35:31  5-MIN KMKG 180035Z 35012KT 10SM CLR M02/M11 A3039 200 49 -1700 360/12 RMK AO2
14840KMKG MKG20060317194009603/17/06 19:40:31  5-MIN KMKG 180040Z 35009KT 10SM CLR M02/M11 A3039 200 51 -1800 350/09 RMK AO2
14840KMKG MKG20060317194509603/17/06 19:45:31  5-MIN KMKG 180045Z 35010KT 10SM CLR M02/M11 A3039 200 51 -1800 350/10 RMK AO2
14840KMKG MKG20060317195011303/17/06 19:50:31  5-MIN KMKG 180050Z 36011KT 10SM CLR M02/M11 A3039 200 51 -1800 360/11 RMK AO2 SLP300 T10221111
14840KMKG MKG20060317195511303/17/06 19:55:31  5-MIN KMKG 180055Z 35012KT 10SM CLR M02/M11 A3039 200 51 -1800 360/12 RMK AO2 SLP299 T10221111
14840KMKG MKG20060317200009603/17/06 20:00:31  5-MIN KMKG 180100Z 36010KT 10SM CLR M02/M11 A3039 200 51 -1800 010/10 RMK AO2
14840KMKG MKG20060317200510203/17/06 20:05:31  5-MIN KMKG 180105Z 35012G17KT 10SM CLR M02/M12 A3039 200 48 -1800 360/12G17 RMK AO2
14840KMKG MKG20060317201010203/17/06 20:10:31  5-MIN KMKG 180110Z 35014G17KT 10SM CLR M02/M12 A3039 200 48 -1800 360/14G17 RMK AO2
14840KMKG MKG20060317201509603/17/06 20:15:31  5-MIN KMKG 180115Z 36010KT 10SM CLR M02/M12 A3039 200 48 -1800 010/10 RMK AO2
14840KMKG MKG20060317202009603/17/06 20:20:31  5-MIN KMKG 180120Z 36011KT 10SM CLR M02/M12 A3039 200 48 -1800 360/11 RMK AO2
14840KMKG MKG20060317202510203/17/06 20:25:31  5-MIN KMKG 180125Z 36013G17KT 10SM CLR M02/M11 A3039 200 51 -1800 360/13G17 RMK AO2
14840KMKG MKG20060317203010203/17/06 20:30:31  5-MIN KMKG 180130Z 36012G17KT 10SM CLR M02/M11 A3039 200 51 -1800 360/12G17 RMK AO2
14840KMKG MKG20060317203509603/17/06 20:35:31  5-MIN KMKG 180135Z 36011KT 10SM CLR M02/M11 A3039 200 51 -1800 360/11 RMK AO2
14840KMKG MKG20060317204009603/17/06 20:40:31  5-MIN KMKG 180140Z 36010KT 10SM CLR M02/M11 A3039 200 51 -1800 360/10 RMK AO2
14840KMKG MKG20060317204509603/17/06 20:45:31  5-MIN KMKG 180145Z 36012KT 10SM CLR M02/M11 A3039 200 53 -1800 010/12 RMK AO2
14840KMKG MKG20060317205011303/17/06 20:50:31  5-MIN KMKG 180150Z 36011KT 10SM CLR M02/M11 A3040 190 53 -1800 010/11 RMK AO2 SLP302 T10221106
14840KMKG MKG20060317205511303/17/06 20:55:31  5-MIN KMKG 180155Z 36013KT 10SM CLR M03/M11 A3040 190 55 -1900 010/13 RMK AO2 SLP302 T10281106
14840KMKG MKG20060317210009603/17/06 21:00:31  5-MIN KMKG 180200Z 36012KT 10SM CLR M03/M11 A3040 190 55 -1900 360/12 RMK AO2
14840KMKG MKG20060317210509603/17/06 21:05:31  5-MIN KMKG 180205Z 36011KT 10SM CLR M03/M10 A3040 190 58 -1900 360/11 RMK AO2
14840KMKG MKG20060317211009603/17/06 21:10:31  5-MIN KMKG 180210Z 36009KT 10SM CLR M03/M10 A3040 190 58 -1900 010/09 RMK AO2
14840KMKG MKG20060317211509603/17/06 21:15:31  5-MIN KMKG 180215Z 36010KT 10SM CLR M03/M10 A3040 190 58 -1900 360/10 RMK AO2
14840KMKG MKG20060317212009603/17/06 21:20:31  5-MIN KMKG 180220Z 01009KT 10SM CLR M03/M10 A3040 190 58 -1900 010/09 RMK AO2
14840KMKG MKG20060317212509603/17/06 21:25:31  5-MIN KMKG 180225Z 01011KT 10SM CLR M03/M10 A3040 190 58 -1900 010/11 RMK AO2
14840KMKG MKG20060317213009603/17/06 21:30:31  5-MIN KMKG 180230Z 01012KT 10SM CLR M03/M10 A3040 190 58 -1900 010/12 RMK AO2
14840KMKG MKG20060317213509603/17/06 21:35:31  5-MIN KMKG 180235Z 36009KT 10SM CLR M03/M10 A3040 190 58 -1900 010/09 RMK AO2
14840KMKG MKG20060317214009603/17/06 21:40:31  5-MIN KMKG 180240Z 01009KT 10SM CLR M03/M10 A3040 190 58 -1900 010/09 RMK AO2
14840KMKG MKG20060317214509603/17/06 21:45:31  5-MIN KMKG 180245Z 36010KT 10SM CLR M03/M10 A3040 190 60 -1900 010/10 RMK AO2
14840KMKG MKG20060317215011903/17/06 21:50:31  5-MIN KMKG 180250Z 36010KT 10SM CLR M03/M10 A3039 190 58 -1900 010/10 RMK AO2 SLP301 T10281100 51008
14840KMKG MKG20060317215511903/17/06 21:55:31  5-MIN KMKG 180255Z 36008KT 10SM CLR M03/M10 A3039 200 60 -1900 010/08 RMK AO2 SLP301 T10331100 50004
14840KMKG MKG20060317220009603/17/06 22:00:31  5-MIN KMKG 180300Z 36010KT 10SM CLR M03/M10 A3039 190 60 -1900 360/10 RMK AO2
14840KMKG MKG20060317220509603/17/06 22:05:31  5-MIN KMKG 180305Z 36008KT 10SM CLR M03/M10 A3039 190 60 -1900 010/08 RMK AO2
14840KMKG MKG20060317221009603/17/06 22:10:31  5-MIN KMKG 180310Z 01009KT 10SM CLR M03/M09 A3039 200 63 -1900 010/09 RMK AO2
14840KMKG MKG20060317221509603/17/06 22:15:31  5-MIN KMKG 180315Z 01007KT 10SM CLR M03/M09 A3039 200 63 -1900 020/07 RMK AO2
14840KMKG MKG20060317222009603/17/06 22:20:31  5-MIN KMKG 180320Z 01006KT 10SM CLR M03/M09 A3039 200 63 -1900 010/06 RMK AO2
14840KMKG MKG20060317222509603/17/06 22:25:31  5-MIN KMKG 180325Z 01008KT 10SM CLR M03/M09 A3039 200 63 -1900 010/08 RMK AO2
14840KMKG MKG20060317223009603/17/06 22:30:31  5-MIN KMKG 180330Z 36008KT 10SM CLR M03/M09 A3039 200 63 -1900 010/08 RMK AO2
14840KMKG MKG20060317223509603/17/06 22:35:31  5-MIN KMKG 180335Z 01007KT 10SM CLR M03/M09 A3039 200 63 -1900 010/07 RMK AO2
14840KMKG MKG20060317224009603/17/06 22:40:31  5-MIN KMKG 180340Z 36008KT 10SM CLR M03/M09 A3039 200 63 -1900 360/08 RMK AO2
14840KMKG MKG20060317224509603/17/06 22:45:31  5-MIN KMKG 180345Z 01007KT 10SM CLR M03/M09 A3039 190 63 -1900 010/07 RMK AO2
14840KMKG MKG20060317225011303/17/06 22:50:31  5-MIN KMKG 180350Z 36007KT 10SM CLR M03/M09 A3039 190 63 -1900 360/07 RMK AO2 SLP301 T10331094
14840KMKG MKG20060317225511303/17/06 22:55:31  5-MIN KMKG 180355Z 01006KT 10SM CLR M04/M09 A3039 200 65 -2000 010/06 RMK AO2 SLP301 T10391094
14840KMKG MKG20060317230009603/17/06 23:00:31  5-MIN KMKG 180400Z 36007KT 10SM CLR M03/M09 A3039 200 63 -1900 010/07 RMK AO2
14840KMKG MKG20060317230509603/17/06 23:05:31  5-MIN KMKG 180405Z 01007KT 10SM CLR M03/M09 A3039 200 63 -1900 010/07 RMK AO2
14840KMKG MKG20060317231009603/17/06 23:10:31  5-MIN KMKG 180410Z 36008KT 10SM CLR M03/M09 A3039 200 63 -1900 360/08 RMK AO2
14840KMKG MKG20060317231509603/17/06 23:15:31  5-MIN KMKG 180415Z 01007KT 10SM CLR M03/M09 A3039 200 63 -1900 010/07 RMK AO2
14840KMKG MKG20060317232009603/17/06 23:20:31  5-MIN KMKG 180420Z 01006KT 10SM CLR M03/M09 A3039 200 63 -1900 010/06 RMK AO2
14840KMKG MKG20060317232509603/17/06 23:25:31  5-MIN KMKG 180425Z 36005KT 10SM CLR M03/M09 A3039 200 63 -1900 010/05 RMK AO2
14840KMKG MKG20060317233009603/17/06 23:30:31  5-MIN KMKG 180430Z 01005KT 10SM CLR M03/M09 A3039 200 63 -1900 020/05 RMK AO2
14840KMKG MKG20060317233509603/17/06 23:35:31  5-MIN KMKG 180435Z 01006KT 10SM CLR M04/M09 A3039 200 65 -2000 010/06 RMK AO2
14840KMKG MKG20060317234009603/17/06 23:40:31  5-MIN KMKG 180440Z 01006KT 10SM CLR M04/M09 A3039 200 65 -2000 020/06 RMK AO2
14840KMKG MKG20060317234509603/17/06 23:45:31  5-MIN KMKG 180445Z 01005KT 10SM CLR M03/M09 A3039 200 63 -1900 010/05 RMK AO2
14840KMKG MKG20060317235012303/17/06 23:50:31  5-MIN KMKG 180450Z 36005KT 10SM CLR M03/M09 A3039 200 63 -1900 010/05 RMK AO2 SLP298 T10331094 400391044
14840KMKG MKG20060317235512303/17/06 23:55:31  5-MIN KMKG 180455Z 01005KT 10SM CLR M04/M09 A3039 200 65 -2000 010/05 RMK AO2 SLP298 T10391094 400391044
14840KMKG MKG20060318000009603/18/06 00:00:32  5-MIN KMKG 180500Z 36006KT 10SM CLR M03/M09 A3039 200 63 -1900 360/06 RMK AO2
14840KMKG MKG20060318000509603/18/06 00:05:31  5-MIN KMKG 180505Z 36006KT 10SM CLR M04/M09 A3038 200 68 -2000 360/06 RMK AO2
14840KMKG MKG20060318001009603/18/06 00:10:31  5-MIN KMKG 180510Z 36006KT 10SM CLR M04/M09 A3038 200 68 -2000 010/06 RMK AO2
14840KMKG MKG20060318001509603/18/06 00:15:31  5-MIN KMKG 180515Z 36007KT 10SM CLR M03/M09 A3038 200 63 -1900 010/07 RMK AO2
14840KMKG MKG20060318002009603/18/06 00:20:31  5-MIN KMKG 180520Z 35004KT 10SM CLR M03/M09 A3039 200 63 -1900 360/04 RMK AO2
14840KMKG MKG20060318002509603/18/06 00:25:31  5-MIN KMKG 180525Z 36004KT 10SM CLR M04/M09 A3038 200 65 -2000 360/04 RMK AO2
14840KMKG MKG20060318003009603/18/06 00:30:31  5-MIN KMKG 180530Z 36006KT 10SM CLR M04/M09 A3038 200 65 -2000 360/06 RMK AO2
14840KMKG MKG20060318003509603/18/06 00:35:31  5-MIN KMKG 180535Z 01006KT 10SM CLR M04/M09 A3038 210 65 -2000 010/06 RMK AO2
14840KMKG MKG20060318004009603/18/06 00:40:31  5-MIN KMKG 180540Z 36005KT 10SM CLR M04/M09 A3038 210 65 -2000 360/05 RMK AO2
14840KMKG MKG20060318004509603/18/06 00:45:31  5-MIN KMKG 180545Z 36007KT 10SM CLR M04/M09 A3038 200 68 -2000 010/07 RMK AO2
14840KMKG MKG20060318005013103/18/06 00:50:31  5-MIN KMKG 180550Z 36006KT 10SM CLR M03/M09 A3038 210 65 -1900 360/06 RMK AO2 SLP296 T10331089 11011 21039 50004
14840KMKG MKG20060318005513103/18/06 00:55:31  5-MIN KMKG 180555Z 36006KT 10SM CLR M04/M09 A3038 210 68 -2000 360/06 RMK AO2 SLP296 T10391089 11011 21039 58004
14840KMKG MKG20060318010009603/18/06 01:00:31  5-MIN KMKG 180600Z 35007KT 10SM CLR M04/M09 A3038 210 68 -2000 350/07 RMK AO2
14840KMKG MKG20060318010509603/18/06 01:05:31  5-MIN KMKG 180605Z 34007KT 10SM CLR M04/M09 A3038 210 68 -2000 350/07 RMK AO2
14840KMKG MKG20060318011009603/18/06 01:10:31  5-MIN KMKG 180610Z 34006KT 10SM CLR M04/M09 A3038 210 68 -2000 340/06 RMK AO2
14840KMKG MKG20060318011509603/18/06 01:15:31  5-MIN KMKG 180615Z 35006KT 10SM CLR M04/M09 A3038 200 68 -2000 350/06 RMK AO2
14840KMKG MKG20060318012009603/18/06 01:20:31  5-MIN KMKG 180620Z 35008KT 10SM CLR M04/M09 A3038 210 68 -2000 350/08 RMK AO2
14840KMKG MKG20060318012509603/18/06 01:25:31  5-MIN KMKG 180625Z 35007KT 10SM CLR M04/M09 A3039 200 68 -2000 350/07 RMK AO2
14840KMKG MKG20060318013009603/18/06 01:30:31  5-MIN KMKG 180630Z 35007KT 10SM CLR M04/M09 A3039 200 65 -2000 350/07 RMK AO2
14840KMKG MKG20060318013509603/18/06 01:35:31  5-MIN KMKG 180635Z 35007KT 10SM CLR M04/M09 A3039 200 65 -2000 350/07 RMK AO2
14840KMKG MKG20060318014009603/18/06 01:40:31  5-MIN KMKG 180640Z 35007KT 10SM CLR M04/M09 A3038 200 65 -2000 350/07 RMK AO2
14840KMKG MKG20060318014509603/18/06 01:45:31  5-MIN KMKG 180645Z 35010KT 10SM CLR M04/M09 A3039 200 65 -2000 360/10 RMK AO2
14840KMKG MKG20060318015011303/18/06 01:50:31  5-MIN KMKG 180650Z 36010KT 10SM CLR M04/M10 A3039 200 63 -2000 360/10 RMK AO2 SLP298 T10391100
14840KMKG MKG20060318015511303/18/06 01:55:31  5-MIN KMKG 180655Z 35009KT 10SM CLR M04/M10 A3039 200 63 -2000 360/09 RMK AO2 SLP299 T10391100
14840KMKG MKG20060318020009603/18/06 02:00:31  5-MIN KMKG 180700Z 01010KT 10SM CLR M04/M10 A3039 200 63 -2000 010/10 RMK AO2
14840KMKG MKG20060318020509603/18/06 02:05:31  5-MIN KMKG 180705Z 36009KT 10SM CLR M04/M10 A3038 200 63 -2000 010/09 RMK AO2
14840KMKG MKG20060318021009603/18/06 02:10:31  5-MIN KMKG 180710Z 01010KT 10SM CLR M04/M11 A3038 210 60 -2000 010/10 RMK AO2
14840KMKG MKG20060318021509603/18/06 02:15:31  5-MIN KMKG 180715Z 01009KT 10SM CLR M04/M11 A3038 210 60 -2000 010/09 RMK AO2
14840KMKG MKG20060318022009603/18/06 02:20:31  5-MIN KMKG 180720Z 36010KT 10SM CLR M04/M11 A3038 210 60 -2000 010/10 RMK AO2
14840KMKG MKG20060318022509603/18/06 02:25:31  5-MIN KMKG 180725Z 01010KT 10SM CLR M04/M11 A3038 210 60 -2000 010/10 RMK AO2
14840KMKG MKG20060318023009603/18/06 02:30:31  5-MIN KMKG 180730Z 01009KT 10SM CLR M04/M11 A3038 210 60 -2000 010/09 RMK AO2
14840KMKG MKG20060318023509603/18/06 02:35:31  5-MIN KMKG 180735Z 01010KT 10SM CLR M04/M11 A3038 210 60 -2000 010/10 RMK AO2
14840KMKG MKG20060318024010203/18/06 02:40:31  5-MIN KMKG 180740Z 01012G19KT 10SM CLR M04/M11 A3038 210 62 -2100 020/12G19 RMK AO2
14840KMKG MKG20060318024510203/18/06 02:45:31  5-MIN KMKG 180745Z 01012G19KT 10SM CLR M04/M11 A3038 210 62 -2100 010/12G19 RMK AO2
14840KMKG MKG20060318025011303/18/06 02:50:31  5-MIN KMKG 180750Z 01009KT 10SM CLR M04/M11 A3038 210 62 -2100 010/09 RMK AO2 SLP296 T10441106
14840KMKG MKG20060318025511303/18/06 02:55:31  5-MIN KMKG 180755Z 36011KT 10SM CLR M04/M11 A3038 210 62 -2100 010/11 RMK AO2 SLP297 T10441106
14840KMKG MKG20060318030009603/18/06 03:00:31  5-MIN KMKG 180800Z 01010KT 10SM CLR M04/M11 A3038 210 62 -2100 010/10 RMK AO2
14840KMKG MKG20060318030509603/18/06 03:05:31  5-MIN KMKG 180805Z 36009KT 10SM CLR M04/M11 A3038 200 62 -2100 010/09 RMK AO2
14840KMKG MKG20060318031009603/18/06 03:10:31  5-MIN KMKG 180810Z 36009KT 10SM CLR M04/M11 A3038 200 62 -2100 010/09 RMK AO2
14840KMKG MKG20060318031509603/18/06 03:15:31  5-MIN KMKG 180815Z 01008KT 10SM CLR M04/M11 A3038 210 62 -2100 010/08 RMK AO2
14840KMKG MKG20060318032009603/18/06 03:20:31  5-MIN KMKG 180820Z 01006KT 10SM CLR M05/M11 A3038 210 65 -2100 010/06 RMK AO2
14840KMKG MKG20060318032509603/18/06 03:25:31  5-MIN KMKG 180825Z 01008KT 10SM CLR M05/M11 A3038 210 65 -2100 010/08 RMK AO2
14840KMKG MKG20060318033009603/18/06 03:30:31  5-MIN KMKG 180830Z 01007KT 10SM CLR M05/M11 A3038 210 65 -2100 010/07 RMK AO2
14840KMKG MKG20060318033509603/18/06 03:35:31  5-MIN KMKG 180835Z 36008KT 10SM CLR M05/M11 A3038 210 65 -2100 010/08 RMK AO2
14840KMKG MKG20060318034009603/18/06 03:40:31  5-MIN KMKG 180840Z 36006KT 10SM CLR M05/M11 A3038 210 65 -2100 010/06 RMK AO2
14840KMKG MKG20060318034509603/18/06 03:45:31  5-MIN KMKG 180845Z 35008KT 10SM CLR M05/M11 A3038 210 65 -2100 360/08 RMK AO2
14840KMKG MKG20060318035011903/18/06 03:50:31  5-MIN KMKG 180850Z 36008KT 10SM CLR M05/M11 A3038 210 65 -2100 010/08 RMK AO2 SLP295 T10501106 58004
14840KMKG MKG20060318035511903/18/06 03:55:31  5-MIN KMKG 180855Z 36007KT 10SM CLR M05/M11 A3038 210 65 -2100 360/07 RMK AO2 SLP296 T10501106 58001
14840KMKG MKG20060318040009603/18/06 04:00:31  5-MIN KMKG 180900Z 36007KT 10SM CLR M05/M11 A3038 210 65 -2100 010/07 RMK AO2
14840KMKG MKG20060318040509603/18/06 04:05:31  5-MIN KMKG 180905Z 01008KT 10SM CLR M05/M11 A3038 210 65 -2100 010/08 RMK AO2
14840KMKG MKG20060318041009603/18/06 04:10:31  5-MIN KMKG 180910Z 36007KT 10SM CLR M05/M11 A3038 200 65 -2100 010/07 RMK AO2
14840KMKG MKG20060318041509603/18/06 04:15:31  5-MIN KMKG 180915Z 36006KT 10SM CLR M06/M11 A3039 200 68 -2200 010/06 RMK AO2
14840KMKG MKG20060318042009603/18/06 04:20:31  5-MIN KMKG 180920Z 34005KT 10SM CLR M06/M11 A3039 200 68 -2200 350/05 RMK AO2
14840KMKG MKG20060318042509603/18/06 04:25:31  5-MIN KMKG 180925Z 35005KT 10SM CLR M06/M11 A3039 200 68 -2200 360/05 RMK AO2
14840KMKG MKG20060318043009603/18/06 04:30:31  5-MIN KMKG 180930Z 35006KT 10SM CLR M06/M11 A3039 200 68 -2200 350/06 RMK AO2
14840KMKG MKG20060318043509603/18/06 04:35:31  5-MIN KMKG 180935Z 36005KT 10SM CLR M06/M11 A3039 200 68 -2200 360/05 RMK AO2
14840KMKG MKG20060318044009603/18/06 04:40:31  5-MIN KMKG 180940Z 35006KT 10SM CLR M06/M11 A3039 200 68 -2200 350/06 RMK AO2
14840KMKG MKG20060318044509603/18/06 04:45:31  5-MIN KMKG 180945Z 35005KT 10SM CLR M06/M11 A3039 190 68 -2200 350/05 RMK AO2
14840KMKG MKG20060318045011303/18/06 04:50:31  5-MIN KMKG 180950Z 35005KT 10SM CLR M06/M11 A3039 190 68 -2200 350/05 RMK AO2 SLP302 T10561106
14840KMKG MKG20060318045511303/18/06 04:55:31  5-MIN KMKG 180955Z 35006KT 10SM CLR M06/M11 A3040 190 68 -2200 360/06 RMK AO2 SLP302 T10561106
14840KMKG MKG20060318050009603/18/06 05:00:31  5-MIN KMKG 181000Z 36004KT 10SM CLR M06/M11 A3040 190 68 -2200 360/04 RMK AO2
14840KMKG MKG20060318050509603/18/06 05:05:31  5-MIN KMKG 181005Z 35005KT 10SM CLR M06/M10 A3040 190 71 -2200 350/05 RMK AO2
14840KMKG MKG20060318051009603/18/06 05:10:31  5-MIN KMKG 181010Z 35004KT 10SM CLR M06/M11 A3040 190 71 -2300 350/04 RMK AO2
14840KMKG MKG20060318051509603/18/06 05:15:31  5-MIN KMKG 181015Z 35003KT 10SM CLR M06/M11 A3040 190 71 -2300 360/03 RMK AO2
14840KMKG MKG20060318052009603/18/06 05:20:31  5-MIN KMKG 181020Z 35003KT 10SM CLR M06/M11 A3040 190 68 -2200 360/03 RMK AO2
14840KMKG MKG20060318052509603/18/06 05:25:31  5-MIN KMKG 181025Z 34004KT 10SM CLR M06/M11 A3040 190 71 -2300 350/04 RMK AO2
14840KMKG MKG20060318053009603/18/06 05:30:31  5-MIN KMKG 181030Z 33003KT 10SM CLR M06/M11 A3040 190 71 -2300 330/03 RMK AO2
14840KMKG MKG20060318053509603/18/06 05:35:31  5-MIN KMKG 181035Z 32004KT 10SM CLR M06/M11 A3040 190 68 -2200 320/04 RMK AO2
14840KMKG MKG20060318054009603/18/06 05:40:31  5-MIN KMKG 181040Z 33004KT 10SM CLR M06/M11 A3040 190 68 -2200 330/04 RMK AO2
14840KMKG MKG20060318054509603/18/06 05:45:31  5-MIN KMKG 181045Z 34004KT 10SM CLR M06/M11 A3040 190 71 -2300 340/04 RMK AO2
14840KMKG MKG20060318055011303/18/06 05:50:31  5-MIN KMKG 181050Z 36004KT 10SM CLR M06/M11 A3040 190 71 -2300 360/04 RMK AO2 SLP304 T10611106
14840KMKG MKG20060318055511303/18/06 05:55:31  5-MIN KMKG 181055Z 36004KT 10SM CLR M07/M10 A3040 190 77 -2400 360/04 RMK AO2 SLP304 T10671100
14840KMKG MKG20060318060009603/18/06 06:00:31  5-MIN KMKG 181100Z 36004KT 10SM CLR M06/M10 A3040 190 74 -2300 360/04 RMK AO2
14840KMKG MKG20060318060509603/18/06 06:05:31  5-MIN KMKG 181105Z 36004KT 10SM CLR M06/M10 A3040 190 74 -2300 360/04 RMK AO2
14840KMKG MKG20060318061009603/18/06 06:10:31  5-MIN KMKG 181110Z 36006KT 10SM CLR M06/M10 A3040 190 71 -2200 010/06 RMK AO2
14840KMKG MKG20060318061509603/18/06 06:15:31  5-MIN KMKG 181115Z 36006KT 10SM CLR M06/M10 A3040 190 71 -2200 010/06 RMK AO2
14840KMKG MKG20060318062009603/18/06 06:20:31  5-MIN KMKG 181120Z 36006KT 10SM CLR M05/M10 A3040 190 68 -2100 360/06 RMK AO2
14840KMKG MKG20060318062509603/18/06 06:25:31  5-MIN KMKG 181125Z 36005KT 10SM CLR M05/M10 A3040 190 68 -2100 360/05 RMK AO2
14840KMKG MKG20060318063009603/18/06 06:30:31  5-MIN KMKG 181130Z 36006KT 10SM CLR M05/M09 A3040 190 71 -2100 360/06 RMK AO2
14840KMKG MKG20060318063509603/18/06 06:35:31  5-MIN KMKG 181135Z 36007KT 10SM CLR M04/M09 A3040 190 68 -2100 010/07 RMK AO2
14840KMKG MKG20060318064009903/18/06 06:40:31  5-MIN KMKG 181140Z 36007KT 10SM SCT020 M05/M09 A3040 190 71 -2100 010/07 RMK AO2
14840KMKG MKG20060318064509903/18/06 06:45:31  5-MIN KMKG 181145Z 01006KT 10SM SCT020 M05/M09 A3040 190 71 -2100 010/06 RMK AO2
14840KMKG MKG20060318065013403/18/06 06:50:31  5-MIN KMKG 181150Z 36006KT 10SM SCT020 M05/M09 A3040 190 71 -2100 360/06 RMK AO2 SLP304 T10501094 11039 21067 58001
14840KMKG MKG20060318065513403/18/06 06:55:31  5-MIN KMKG 181155Z 36006KT 10SM SCT030 M04/M09 A3040 190 68 -2100 360/06 RMK AO2 SLP303 T10441094 11039 21067 50007
14840KMKG MKG20060318070009903/18/06 07:00:31  5-MIN KMKG 181200Z 36006KT 10SM SCT033 M04/M09 A3040 190 68 -2100 360/06 RMK AO2
14840KMKG MKG20060318070509903/18/06 07:05:31  5-MIN KMKG 181205Z 35005KT 10SM SCT033 M04/M09 A3040 190 71 -2100 360/05 RMK AO2
14840KMKG MKG20060318071009903/18/06 07:10:31  5-MIN KMKG 181210Z 01005KT 10SM BKN033 M04/M09 A3040 190 71 -2100 010/05 RMK AO2
14840KMKG MKG20060318071509903/18/06 07:15:31  5-MIN KMKG 181215Z 36007KT 10SM BKN033 M04/M09 A3040 190 68 -2000 010/07 RMK AO2
14840KMKG MKG20060318072009903/18/06 07:20:31  5-MIN KMKG 181220Z 36006KT 10SM BKN033 M04/M09 A3040 190 68 -2000 360/06 RMK AO2
14840KMKG MKG20060318072509903/18/06 07:25:31  5-MIN KMKG 181225Z 35007KT 10SM BKN033 M04/M09 A3040 190 68 -2000 350/07 RMK AO2
14840KMKG MKG20060318073009903/18/06 07:30:31  5-MIN KMKG 181230Z 34008KT 10SM SCT033 M04/M09 A3040 190 68 -2000 350/08 RMK AO2
14840KMKG MKG20060318073509903/18/06 07:35:31  5-MIN KMKG 181235Z 34008KT 10SM SCT033 M04/M09 A3040 190 68 -2000 340/08 RMK AO2
14840KMKG MKG20060318074009903/18/06 07:40:31  5-MIN KMKG 181240Z 34010KT 10SM FEW033 M04/M09 A3040 190 68 -2000 350/10 RMK AO2
14840KMKG MKG20060318074509903/18/06 07:45:31  5-MIN KMKG 181245Z 34012KT 10SM FEW033 M03/M09 A3040 190 65 -1900 340/12 RMK AO2
14840KMKG MKG20060318075011303/18/06 07:50:31  5-MIN KMKG 181250Z 34011KT 10SM CLR M03/M09 A3040 190 65 -1900 340/11 RMK AO2 SLP303 T10331089
14840KMKG MKG20060318075511603/18/06 07:55:31  5-MIN KMKG 181255Z 34013KT 10SM SCT033 M03/M09 A3040 190 63 -1900 340/13 RMK AO2 SLP303 T10281089
14840KMKG MKG20060318080009903/18/06 08:00:31  5-MIN KMKG 181300Z 35012KT 10SM FEW033 M03/M09 A3040 190 63 -1900 350/12 RMK AO2
14840KMKG MKG20060318080509903/18/06 08:05:31  5-MIN KMKG 181305Z 35011KT 10SM SCT033 M03/M09 A3040 190 63 -1900 350/11 RMK AO2
14840KMKG MKG20060318081009903/18/06 08:10:31  5-MIN KMKG 181310Z 35014KT 10SM BKN033 M03/M09 A3040 190 63 -1900 350/14 RMK AO2
14840KMKG MKG20060318081509903/18/06 08:15:31  5-MIN KMKG 181315Z 34013KT 10SM BKN033 M02/M09 A3040 190 60 -1800 340/13 RMK AO2
14840KMKG MKG20060318082009903/18/06 08:20:31  5-MIN KMKG 181320Z 34012KT 10SM BKN033 M02/M09 A3040 190 60 -1800 340/12 RMK AO2
14840KMKG MKG20060318082509903/18/06 08:25:31  5-MIN KMKG 181325Z 34011KT 10SM BKN033 M03/M09 A3040 190 63 -1900 350/11 RMK AO2
14840KMKG MKG20060318083009903/18/06 08:30:31  5-MIN KMKG 181330Z 35010KT 10SM BKN033 M02/M09 A3040 180 60 -1800 350/10 RMK AO2
14840KMKG MKG20060318083510603/18/06 08:35:31  5-MIN KMKG 181335Z 35009KT 10SM FEW028 BKN033 M02/M09 A3041 180 60 -1800 350/09 RMK AO2
14840KMKG MKG20060318084009903/18/06 08:40:31  5-MIN KMKG 181340Z 33010KT 10SM BKN033 M02/M09 A3040 190 60 -1800 340/10 RMK AO2
14840KMKG MKG20060318084509903/18/06 08:45:31  5-MIN KMKG 181345Z 34010KT 10SM BKN033 M02/M08 A3040 190 63 -1800 340/10 RMK AO2
14840KMKG MKG20060318085011603/18/06 08:50:31  5-MIN KMKG 181350Z 34010KT 10SM BKN033 M02/M08 A3041 180 63 -1800 350/10 RMK AO2 SLP305 T10221083
14840KMKG MKG20060318085511603/18/06 08:55:31  5-MIN KMKG 181355Z 35009KT 10SM BKN033 M02/M08 A3041 180 60 -1700 350/09 RMK AO2 SLP305 T10171083
14840KMKG MKG20060318090009903/18/06 09:00:31  5-MIN KMKG 181400Z 33008KT 10SM BKN033 M01/M08 A3040 190 58 -1700 340/08 RMK AO2
14840KMKG MKG20060318090509903/18/06 09:05:31  5-MIN KMKG 181405Z 33013KT 10SM BKN033 M01/M08 A3040 190 58 -1600 330/13 RMK AO2
14840KMKG MKG20060318091009903/18/06 09:10:31  5-MIN KMKG 181410Z 33011KT 10SM SCT033 M01/M08 A3040 190 58 -1600 330/11 RMK AO2
14840KMKG MKG20060318091509903/18/06 09:15:31  5-MIN KMKG 181415Z 33010KT 10SM SCT033 M01/M08 A3039 200 58 -1600 340/10 RMK AO2
14840KMKG MKG20060318092010503/18/06 09:20:31  5-MIN KMKG 181420Z 33012G18KT 10SM SCT033 M01/M08 A3039 200 58 -1600 330/12G18 RMK AO2
14840KMKG MKG20060318092510503/18/06 09:25:31  5-MIN KMKG 181425Z 33016G22KT 10SM FEW031 M02/M09 A3039 200 58 -1700 330/16G22 RMK AO2
14840KMKG MKG20060318093010503/18/06 09:30:31  5-MIN KMKG 181430Z 35012G22KT 10SM FEW031 M01/M09 A3040 190 55 -1600 350/12G22 RMK AO2
14840KMKG MKG20060318093509903/18/06 09:35:31  5-MIN KMKG 181435Z 35012KT 10SM FEW031 M01/M09 A3039 190 55 -1600 350/12 RMK AO2
14840KMKG MKG20060318094009903/18/06 09:40:31  5-MIN KMKG 181440Z 33016KT 10SM FEW031 M01/M09 A3039 200 53 -1600 340/16 RMK AO2
14840KMKG MKG20060318094509903/18/06 09:45:31  5-MIN KMKG 181445Z 35014KT 10SM FEW031 M01/M09 A3039 200 53 -1600 350/14 RMK AO2
14840KMKG MKG20060318095012503/18/06 09:50:31  5-MIN KMKG 181450Z 36011G19KT 10SM CLR M01/M09 A3039 200 51 -1600 360/11G19 RMK AO2 SLP301 T10061094 50007
14840KMKG MKG20060318095512103/18/06 09:55:31  5-MIN KMKG 181455Z 35011KT 10SM FEW033 00/M09 A3039 200 51 -1500 360/11 RMK AO2 SLP301 T00001089 58002
14840KMKG MKG20060318100009803/18/06 10:00:31  5-MIN KMKG 181500Z 34008KT 10SM FEW034 00/M09 A3039 200 51 -1500 350/08 RMK AO2
14840KMKG MKG20060318100509803/18/06 10:05:31  5-MIN KMKG 181505Z 34009KT 10SM FEW034 00/M09 A3039 200 51 -1500 340/09 RMK AO2
14840KMKG MKG20060318101009803/18/06 10:10:31  5-MIN KMKG 181510Z 36010KT 10SM FEW034 00/M09 A3039 200 51 -1500 360/10 RMK AO2
14840KMKG MKG20060318101509803/18/06 10:15:31  5-MIN KMKG 181515Z 34010KT 10SM FEW034 00/M09 A3039 200 51 -1500 340/10 RMK AO2
14840KMKG MKG20060318102009803/18/06 10:20:31  5-MIN KMKG 181520Z 34010KT 10SM SCT034 01/M08 A3039 200 51 -1400 340/10 RMK AO2
14840KMKG MKG20060318102509803/18/06 10:25:31  5-MIN KMKG 181525Z 33011KT 10SM SCT034 00/M09 A3038 200 51 -1500 340/11 RMK AO2
14840KMKG MKG20060318103009803/18/06 10:30:31  5-MIN KMKG 181530Z 32012KT 10SM SCT034 00/M09 A3038 210 51 -1500 320/12 RMK AO2
14840KMKG MKG20060318103509803/18/06 10:35:31  5-MIN KMKG 181535Z 33011KT 10SM SCT034 00/M09 A3038 200 51 -1500 330/11 RMK AO2
14840KMKG MKG20060318104009803/18/06 10:40:31  5-MIN KMKG 181540Z 36012KT 10SM SCT034 01/M08 A3039 200 51 -1400 360/12 RMK AO2
14840KMKG MKG20060318104509803/18/06 10:45:31  5-MIN KMKG 181545Z 33013KT 10SM SCT034 01/M08 A3039 200 51 -1400 340/13 RMK AO2
14840KMKG MKG20060318105011503/18/06 10:50:31  5-MIN KMKG 181550Z 33011KT 10SM SCT034 00/M09 A3038 200 51 -1500 330/11 RMK AO2 SLP298 T00001089
14840KMKG MKG20060318105511503/18/06 10:55:31  5-MIN KMKG 181555Z 33010KT 10SM SCT034 01/M09 A3039 200 49 -1400 340/10 RMK AO2 SLP299 T00061089
14840KMKG MKG20060318110010403/18/06 11:00:31  5-MIN KMKG 181600Z 35010G17KT 10SM FEW034 01/M09 A3039 200 47 -1400 350/10G17 RMK AO2
14840KMKG MKG20060318110510403/18/06 11:05:31  5-MIN KMKG 181605Z 33011G17KT 10SM FEW034 01/M09 A3038 200 49 -1400 340/11G17 RMK AO2
14840KMKG MKG20060318111010403/18/06 11:10:31  5-MIN KMKG 181610Z 33013G17KT 10SM FEW036 01/M09 A3038 210 47 -1400 340/13G17 RMK AO2
14840KMKG MKG20060318111509803/18/06 11:15:31  5-MIN KMKG 181615Z 34016KT 10SM FEW036 01/M09 A3039 200 47 -1400 350/16 RMK AO2
14840KMKG MKG20060318112009803/18/06 11:20:31  5-MIN KMKG 181620Z 35013KT 10SM FEW036 01/M09 A3039 200 47 -1400 350/13 RMK AO2
14840KMKG MKG20060318112510103/18/06 11:25:31  5-MIN KMKG 181625Z 36014G19KT 10SM CLR 01/M09 A3039 200 47 -1400 360/14G19 RMK AO2
14840KMKG MKG20060318113010103/18/06 11:30:31  5-MIN KMKG 181630Z 35011G19KT 10SM CLR 01/M08 A3038 200 49 -1400 350/11G19 RMK AO2
14840KMKG MKG20060318113509803/18/06 11:35:31  5-MIN KMKG 181635Z 33016KT 10SM FEW036 01/M08 A3038 210 49 -1300 340/16 RMK AO2
14840KMKG MKG20060318114010403/18/06 11:40:31  5-MIN KMKG 181640Z 34015G19KT 10SM FEW036 01/M09 A3038 210 47 -1300 350/15G19 RMK AO2
14840KMKG MKG20060318114510403/18/06 11:45:31  5-MIN KMKG 181645Z 34012G19KT 10SM FEW036 01/M09 A3038 210 47 -1300 350/12G19 RMK AO2
14840KMKG MKG20060318115011503/18/06 11:50:31  5-MIN KMKG 181650Z 35012KT 10SM FEW036 01/M09 A3038 210 47 -1300 350/12 RMK AO2 SLP296 T00111089
14840KMKG MKG20060318115512103/18/06 11:55:31  5-MIN KMKG 181655Z 36012G18KT 10SM FEW036 01/M09 A3038 210 47 -1300 360/12G18 RMK AO2 SLP295 T00111089
14840KMKG MKG20060318120010403/18/06 12:00:31  5-MIN KMKG 181700Z 33011G18KT 10SM FEW040 01/M09 A3037 210 47 -1300 340/11G18 RMK AO2
14840KMKG MKG20060318120510403/18/06 12:05:31  5-MIN KMKG 181705Z 35012G18KT 10SM FEW040 01/M09 A3038 210 45 -1300 360/12G18 RMK AO2
14840KMKG MKG20060318121010403/18/06 12:10:31  5-MIN KMKG 181710Z 34012G18KT 10SM FEW040 02/M09 A3037 210 45 -1300 340/12G18 RMK AO2
14840KMKG MKG20060318121510403/18/06 12:15:31  5-MIN KMKG 181715Z 34010G16KT 10SM FEW040 01/M09 A3037 210 47 -1300 340/10G16 RMK AO2
14840KMKG MKG20060318122010403/18/06 12:20:31  5-MIN KMKG 181720Z 33011G16KT 10SM FEW040 02/M09 A3037 210 45 -1300 340/11G16 RMK AO2
14840KMKG MKG20060318122509803/18/06 12:25:31  5-MIN KMKG 181725Z 30011KT 10SM FEW040 01/M08 A3037 220 51 -1300 310/11 RMK AO2
14840KMKG MKG20060318123009803/18/06 12:30:31  5-MIN KMKG 181730Z 30013KT 10SM FEW040 01/M07 A3037 220 54 -1300 300/13 RMK AO2
14840KMKG MKG20060318123509803/18/06 12:35:31  5-MIN KMKG 181735Z 30013KT 10SM FEW040 01/M08 A3037 220 54 -1400 300/13 RMK AO2
14840KMKG MKG20060318124009803/18/06 12:40:31  5-MIN KMKG 181740Z 31012KT 10SM FEW040 01/M07 A3036 220 56 -1400 310/12 RMK AO2
14840KMKG MKG20060318124509803/18/06 12:45:31  5-MIN KMKG 181745Z 30011KT 10SM FEW040 01/M07 A3036 220 54 -1300 300/11 RMK AO2
14840KMKG MKG20060318125013303/18/06 12:50:31  5-MIN KMKG 181750Z 30013KT 10SM FEW040 01/M07 A3036 220 54 -1300 310/13 RMK AO2 SLP291 T00111072 10017 21044 58002
14840KMKG MKG20060318125513003/18/06 12:55:31  5-MIN KMKG 181755Z 29015KT 10SM CLR 01/M07 A3036 220 56 -1300 300/15 RMK AO2 SLP290 T00111067 10017 21044 58010
14840KMKG MKG20060318130009503/18/06 13:00:31  5-MIN KMKG 181800Z 29013KT 10SM CLR 01/M07 A3036 230 54 -1300 300/13 RMK AO2
14840KMKG MKG20060318130509503/18/06 13:05:31  5-MIN KMKG 181805Z 30014KT 10SM CLR 01/M07 A3036 230 54 -1300 300/14 RMK AO2
14840KMKG MKG20060318131010103/18/06 13:10:31  5-MIN KMKG 181810Z 30013G19KT 10SM CLR 01/M08 A3036 230 51 -1300 300/13G19 RMK AO2
14840KMKG MKG20060318131510103/18/06 13:15:31  5-MIN KMKG 181815Z 31011G19KT 10SM CLR 01/M07 A3035 230 54 -1300 320/11G19 RMK AO2
14840KMKG MKG20060318132010103/18/06 13:20:31  5-MIN KMKG 181820Z 31014G18KT 10SM CLR 02/M08 A3035 230 49 -1200 310/14G18 RMK AO2
14840KMKG MKG20060318132510103/18/06 13:25:31  5-MIN KMKG 181825Z 30016G20KT 10SM CLR 01/M08 A3035 240 51 -1300 310/16G20 RMK AO2
14840KMKG MKG20060318133010103/18/06 13:30:31  5-MIN KMKG 181830Z 30015G20KT 10SM CLR 01/M08 A3035 240 51 -1300 300/15G20 RMK AO2
14840KMKG MKG20060318133510103/18/06 13:35:31  5-MIN KMKG 181835Z 30016G20KT 10SM CLR 01/M08 A3035 240 51 -1300 300/16G20 RMK AO2
14840KMKG MKG20060318134010103/18/06 13:40:31  5-MIN KMKG 181840Z 31013G20KT 10SM CLR 01/M08 A3035 240 51 -1300 310/13G20 RMK AO2
14840KMKG MKG20060318134510103/18/06 13:45:31  5-MIN KMKG 181845Z 32015G20KT 10SM CLR 01/M08 A3035 240 51 -1300 320/15G20 RMK AO2
14840KMKG MKG20060318135011203/18/06 13:50:31  5-MIN KMKG 181850Z 30016KT 10SM CLR 01/M08 A3034 240 51 -1300 300/16 RMK AO2 SLP284 T00111078
14840KMKG MKG20060318135511203/18/06 13:55:31  5-MIN KMKG 181855Z 30014KT 10SM CLR 02/M07 A3034 240 52 -1200 300/14 RMK AO2 SLP284 T00171072
14840KMKG MKG20060318140010103/18/06 14:00:31  5-MIN KMKG 181900Z 31015G19KT 10SM CLR 02/M07 A3034 240 52 -1200 310/15G19 RMK AO2
14840KMKG MKG20060318140510103/18/06 14:05:31  5-MIN KMKG 181905Z 31015G22KT 10SM CLR 01/M08 A3034 250 54 -1400 320/15G22 RMK AO2
14840KMKG MKG20060318141010103/18/06 14:10:31  5-MIN KMKG 181910Z 30016G22KT 10SM CLR 01/M08 A3034 250 51 -1300 300/16G22 RMK AO2
14840KMKG MKG20060318141510103/18/06 14:15:31  5-MIN KMKG 181915Z 31017G20KT 10SM CLR 01/M08 A3033 250 51 -1300 310/17G20 RMK AO2
14840KMKG MKG20060318142010103/18/06 14:20:31  5-MIN KMKG 181920Z 30013G20KT 10SM CLR 01/M08 A3033 250 51 -1300 310/13G20 RMK AO2
14840KMKG MKG20060318142510103/18/06 14:25:31  5-MIN KMKG 181925Z 30016G20KT 10SM CLR 01/M08 A3033 250 51 -1300 300/16G20 RMK AO2
14840KMKG MKG20060318143010103/18/06 14:30:31  5-MIN KMKG 181930Z 31016G20KT 10SM CLR 01/M08 A3033 250 54 -1400 310/16G20 RMK AO2
14840KMKG MKG20060318143510103/18/06 14:35:31  5-MIN KMKG 181935Z 30016G22KT 10SM CLR 01/M08 A3033 250 54 -1400 300/16G22 RMK AO2
14840KMKG MKG20060318144010103/18/06 14:40:31  5-MIN KMKG 181940Z 31013G22KT 10SM CLR 01/M08 A3033 250 51 -1300 310/13G22 RMK AO2
14840KMKG MKG20060318144510103/18/06 14:45:31  5-MIN KMKG 181945Z 30017G22KT 10SM CLR 01/M08 A3033 260 54 -1400 310/17G22 RMK AO2
14840KMKG MKG20060318145011803/18/06 14:50:31  5-MIN KMKG 181950Z 30014G24KT 10SM CLR 01/M08 A3033 250 54 -1400 310/14G24 RMK AO2 SLP279 T00061078
14840KMKG MKG20060318145511803/18/06 14:55:31  5-MIN KMKG 181955Z 31017G24KT 10SM CLR 01/M08 A3033 250 54 -1400 310/17G24 RMK AO2 SLP280 T00061078
14840KMKG MKG20060318150010103/18/06 15:00:31  5-MIN KMKG 182000Z 30018G23KT 10SM CLR 01/M08 A3032 260 51 -1400 310/18G23 RMK AO2
14840KMKG MKG20060318150510103/18/06 15:05:31  5-MIN KMKG 182005Z 31017G22KT 10SM CLR 01/M08 A3033 260 54 -1400 310/17G22 RMK AO2
14840KMKG MKG20060318151010103/18/06 15:10:31  5-MIN KMKG 182010Z 30016G22KT 10SM CLR 01/M08 A3033 260 54 -1400 300/16G22 RMK AO2
14840KMKG MKG20060318151510103/18/06 15:15:31  5-MIN KMKG 182015Z 29019G24KT 10SM CLR 01/M08 A3032 260 54 -1400 300/19G24 RMK AO2
14840KMKG MKG20060318152010103/18/06 15:20:31  5-MIN KMKG 182020Z 31014G24KT 10SM CLR 01/M08 A3032 260 54 -1400 320/14G24 RMK AO2
14840KMKG MKG20060318152510103/18/06 15:25:31  5-MIN KMKG 182025Z 31015G24KT 10SM CLR 01/M08 A3033 260 54 -1400 310/15G24 RMK AO2
14840KMKG MKG20060318153010103/18/06 15:30:31  5-MIN KMKG 182030Z 31017G24KT 10SM CLR 01/M08 A3032 260 54 -1400 320/17G24 RMK AO2
14840KMKG MKG20060318153510103/18/06 15:35:31  5-MIN KMKG 182035Z 31012G22KT 10SM CLR 01/M08 A3032 260 54 -1300 320/12G22 RMK AO2
14840KMKG MKG20060318154010103/18/06 15:40:31  5-MIN KMKG 182040Z 33014G19KT 10SM CLR 01/M08 A3033 260 54 -1400 330/14G19 RMK AO2
14840KMKG MKG20060318154510103/18/06 15:45:31  5-MIN KMKG 182045Z 32013G19KT 10SM CLR 01/M08 A3033 260 51 -1300 320/13G19 RMK AO2
14840KMKG MKG20060318155012403/18/06 15:50:31  5-MIN KMKG 182050Z 32015G20KT 10SM CLR 01/M08 A3032 260 54 -1300 330/15G20 RMK AO2 SLP277 T00061078 58010
14840KMKG MKG20060318155512703/18/06 15:55:31  5-MIN KMKG 182055Z 31013G21KT 10SM FEW050 00/M08 A3032 260 56 -1400 310/13G21 RMK AO2 SLP277 T00001078 56014
14840KMKG MKG20060318160010403/18/06 16:00:31  5-MIN KMKG 182100Z 31016G21KT 10SM FEW050 01/M08 A3032 260 54 -1300 320/16G21 RMK AO2
14840KMKG MKG20060318160510403/18/06 16:05:31  5-MIN KMKG 182105Z 31017G21KT 10SM FEW040 00/M08 A3032 270 56 -1400 310/17G21 RMK AO2
14840KMKG MKG20060318161010403/18/06 16:10:31  5-MIN KMKG 182110Z 31012G22KT 10SM FEW040 00/M08 A3032 270 56 -1400 320/12G22 RMK AO2
14840KMKG MKG20060318161510403/18/06 16:15:31  5-MIN KMKG 182115Z 32017G22KT 10SM FEW040 00/M08 A3032 260 53 -1400 320/17G22 RMK AO2
14840KMKG MKG20060318162010403/18/06 16:20:31  5-MIN KMKG 182120Z 33016G22KT 10SM FEW040 00/M08 A3032 260 53 -1400 330/16G22 RMK AO2
14840KMKG MKG20060318162510403/18/06 16:25:31  5-MIN KMKG 182125Z 32013G21KT 10SM FEW040 00/M08 A3032 260 53 -1400 320/13G21 RMK AO2
14840KMKG MKG20060318163010403/18/06 16:30:31  5-MIN KMKG 182130Z 33013G21KT 10SM FEW040 00/M08 A3032 260 56 -1400 340/13G21 RMK AO2
14840KMKG MKG20060318163510403/18/06 16:35:31  5-MIN KMKG 182135Z 33016G20KT 10SM FEW040 01/M08 A3032 270 54 -1300 330/16G20 RMK AO2
14840KMKG MKG20060318164010403/18/06 16:40:31  5-MIN KMKG 182140Z 33015G20KT 10SM FEW040 01/M08 A3032 270 54 -1300 330/15G20 RMK AO2
14840KMKG MKG20060318164509803/18/06 16:45:31  5-MIN KMKG 182145Z 32017KT 10SM FEW040 00/M08 A3032 260 53 -1400 320/17 RMK AO2
14840KMKG MKG20060318165012103/18/06 16:50:31  5-MIN KMKG 182150Z 33015G21KT 10SM FEW035 00/M08 A3032 260 53 -1400 330/15G21 RMK AO2 SLP276 T00001083
14840KMKG MKG20060318165512103/18/06 16:55:31  5-MIN KMKG 182155Z 33015G20KT 10SM FEW035 01/M08 A3031 270 51 -1300 330/15G20 RMK AO2 SLP274 T00061083
14840KMKG MKG20060318170010103/18/06 17:00:31  5-MIN KMKG 182200Z 33012G22KT 10SM CLR 01/M08 A3032 260 51 -1400 340/12G22 RMK AO2
14840KMKG MKG20060318170510103/18/06 17:05:31  5-MIN KMKG 182205Z 35015G22KT 10SM CLR 01/M08 A3032 260 51 -1300 360/15G22 RMK AO2
14840KMKG MKG20060318171010403/18/06 17:10:31  5-MIN KMKG 182210Z 34017G22KT 10SM FEW035 01/M09 A3032 260 47 -1300 340/17G22 RMK AO2
14840KMKG MKG20060318171510403/18/06 17:15:31  5-MIN KMKG 182215Z 34016G24KT 10SM FEW035 01/M09 A3032 260 47 -1300 350/16G24 RMK AO2
14840KMKG MKG20060318172010403/18/06 17:20:31  5-MIN KMKG 182220Z 35013G24KT 10SM FEW035 01/M09 A3032 260 47 -1300 360/13G24 RMK AO2
14840KMKG MKG20060318172509803/18/06 17:25:31  5-MIN KMKG 182225Z 33017KT 10SM FEW035 01/M10 A3031 270 45 -1300 330/17 RMK AO2
14840KMKG MKG20060318173010403/18/06 17:30:31  5-MIN KMKG 182230Z 34016G24KT 10SM FEW035 00/M10 A3032 260 47 -1400 340/16G24 RMK AO2
14840KMKG MKG20060318173510403/18/06 17:35:31  5-MIN KMKG 182235Z 34014G24KT 10SM FEW035 01/M09 A3032 260 47 -1300 350/14G24 RMK AO2
14840KMKG MKG20060318174010403/18/06 17:40:31  5-MIN KMKG 182240Z 33015G21KT 10SM FEW035 01/M10 A3032 260 45 -1300 330/15G21 RMK AO2
14840KMKG MKG20060318174510403/18/06 17:45:31  5-MIN KMKG 182245Z 33017G21KT 10SM FEW035 00/M11 A3032 260 43 -1400 340/17G21 RMK AO2
14840KMKG MKG20060318175012103/18/06 17:50:31  5-MIN KMKG 182250Z 33017G23KT 10SM FEW035 00/M11 A3032 260 43 -1400 340/17G23 RMK AO2 SLP277 T00001111
14840KMKG MKG20060318175512103/18/06 17:55:31  5-MIN KMKG 182255Z 34014G23KT 10SM FEW035 00/M11 A3032 260 43 -1400 340/14G23 RMK AO2 SLP277 T00001111
14840KMKG MKG20060318180009803/18/06 18:00:31  5-MIN KMKG 182300Z 34014KT 10SM FEW035 00/M11 A3032 260 43 -1400 340/14 RMK AO2
14840KMKG MKG20060318180509803/18/06 18:05:31  5-MIN KMKG 182305Z 33013KT 10SM FEW035 00/M11 A3032 260 43 -1400 340/13 RMK AO2
14840KMKG MKG20060318181009803/18/06 18:10:31  5-MIN KMKG 182310Z 34016KT 10SM FEW035 00/M11 A3032 260 43 -1400 340/16 RMK AO2
14840KMKG MKG20060318181509803/18/06 18:15:31  5-MIN KMKG 182315Z 34013KT 10SM FEW035 00/M11 A3032 260 43 -1400 350/13 RMK AO2
14840KMKG MKG20060318182009903/18/06 18:20:31  5-MIN KMKG 182320Z 34016KT 10SM FEW035 M01/M12 A3032 260 43 -1500 340/16 RMK AO2
14840KMKG MKG20060318182509903/18/06 18:25:31  5-MIN KMKG 182325Z 34014KT 10SM FEW035 M01/M12 A3032 260 43 -1500 350/14 RMK AO2
14840KMKG MKG20060318183009903/18/06 18:30:31  5-MIN KMKG 182330Z 34013KT 10SM FEW035 M01/M12 A3032 260 43 -1500 340/13 RMK AO2
14840KMKG MKG20060318183509903/18/06 18:35:31  5-MIN KMKG 182335Z 34010KT 10SM FEW035 M01/M12 A3032 260 43 -1500 340/10 RMK AO2
14840KMKG MKG20060318184009603/18/06 18:40:31  5-MIN KMKG 182340Z 34011KT 10SM CLR M01/M12 A3032 260 43 -1500 340/11 RMK AO2
14840KMKG MKG20060318184509603/18/06 18:45:31  5-MIN KMKG 182345Z 34010KT 10SM CLR M01/M11 A3032 260 45 -1500 340/10 RMK AO2
14840KMKG MKG20060318185013103/18/06 18:50:31  5-MIN KMKG 182350Z 34010KT 10SM CLR M01/M12 A3032 260 45 -1600 350/10 RMK AO2 SLP277 T10111117 10017 21011 56014
14840KMKG MKG20060318185513103/18/06 18:55:31  5-MIN KMKG 182355Z 34010KT 10SM CLR M01/M12 A3032 260 45 -1600 350/10 RMK AO2 SLP277 T10111117 10017 21011 55000
14840KMKG MKG20060318190009603/18/06 19:00:31  5-MIN KMKG 190000Z 34010KT 10SM CLR M01/M12 A3032 260 45 -1600 350/10 RMK AO2
14840KMKG MKG20060318190509603/18/06 19:05:31  5-MIN KMKG 190005Z 35010KT 10SM CLR M01/M12 A3032 260 45 -1600 350/10 RMK AO2
14840KMKG MKG20060318191009603/18/06 19:10:31  5-MIN KMKG 190010Z 35008KT 10SM CLR M01/M12 A3033 260 45 -1600 360/08 RMK AO2
14840KMKG MKG20060318191509603/18/06 19:15:31  5-MIN KMKG 190015Z 34007KT 10SM CLR M01/M11 A3033 260 47 -1600 350/07 RMK AO2
14840KMKG MKG20060318192009603/18/06 19:20:31  5-MIN KMKG 190020Z 34009KT 10SM CLR M01/M11 A3033 260 47 -1600 340/09 RMK AO2
14840KMKG MKG20060318192509603/18/06 19:25:31  5-MIN KMKG 190025Z 33008KT 10SM CLR M02/M11 A3033 260 49 -1600 330/08 RMK AO2
14840KMKG MKG20060318193009603/18/06 19:30:31  5-MIN KMKG 190030Z 33010KT 10SM CLR M01/M11 A3033 260 47 -1600 330/10 RMK AO2
14840KMKG MKG20060318193509603/18/06 19:35:31  5-MIN KMKG 190035Z 33009KT 10SM CLR M02/M11 A3033 260 49 -1600 330/09 RMK AO2
14840KMKG MKG20060318194009603/18/06 19:40:31  5-MIN KMKG 190040Z 34008KT 10SM CLR M02/M11 A3033 260 49 -1600 340/08 RMK AO2
14840KMKG MKG20060318194509603/18/06 19:45:31  5-MIN KMKG 190045Z 33008KT 10SM CLR M02/M11 A3032 260 49 -1600 330/08 RMK AO2
14840KMKG MKG20060318195011303/18/06 19:50:31  5-MIN KMKG 190050Z 33007KT 10SM CLR M02/M11 A3033 260 49 -1600 330/07 RMK AO2 SLP278 T10171111
14840KMKG MKG20060318195511303/18/06 19:55:31  5-MIN KMKG 190055Z 33007KT 10SM CLR M02/M11 A3033 260 49 -1600 340/07 RMK AO2 SLP278 T10171111
14840KMKG MKG20060318201009603/18/06 20:10:31  5-MIN KMKG 190110Z 32006KT 10SM CLR M02/M11 A3032 260 51 -1600 330/06 RMK AO2
14840KMKG MKG20060318201509603/18/06 20:15:31  5-MIN KMKG 190115Z 33008KT 10SM CLR M02/M11 A3032 260 51 -1600 330/08 RMK AO2
14840KMKG MKG20060318202009603/18/06 20:20:31  5-MIN KMKG 190120Z 33008KT 10SM CLR M02/M11 A3032 260 51 -1600 330/08 RMK AO2
14840KMKG MKG20060318202509603/18/06 20:25:31  5-MIN KMKG 190125Z 33008KT 10SM CLR M02/M11 A3032 260 51 -1600 330/08 RMK AO2
14840KMKG MKG20060318203009603/18/06 20:30:31  5-MIN KMKG 190130Z 32007KT 10SM CLR M02/M11 A3032 260 51 -1600 330/07 RMK AO2
14840KMKG MKG20060318203509603/18/06 20:35:31  5-MIN KMKG 190135Z 32006KT 10SM CLR M02/M11 A3032 260 51 -1600 330/06 RMK AO2
14840KMKG MKG20060318204009603/18/06 20:40:31  5-MIN KMKG 190140Z 32007KT 10SM CLR M02/M11 A3032 260 53 -1700 330/07 RMK AO2
14840KMKG MKG20060318204509603/18/06 20:45:31  5-MIN KMKG 190145Z 33007KT 10SM CLR M02/M11 A3032 260 53 -1700 330/07 RMK AO2
14840KMKG MKG20060318205011303/18/06 20:50:31  5-MIN KMKG 190150Z 33006KT 10SM CLR M02/M11 A3032 260 53 -1700 330/06 RMK AO2 SLP276 T10221106
14840KMKG MKG20060318205511303/18/06 20:55:31  5-MIN KMKG 190155Z 32005KT 10SM CLR M02/M11 A3032 260 51 -1600 320/05 RMK AO2 SLP277 T10171106
14840KMKG MKG20060318210009603/18/06 21:00:31  5-MIN KMKG 190200Z 30003KT 10SM CLR M02/M11 A3032 260 53 -1700 300/03 RMK AO2
14840KMKG MKG20060318210509603/18/06 21:05:31  5-MIN KMKG 190205Z 00000KT 10SM CLR M03/M10 A3032 260 58 -1800 000/00 RMK AO2
14840KMKG MKG20060318211009603/18/06 21:10:31  5-MIN KMKG 190210Z 00000KT 10SM CLR M03/M10 A3032 260 58 -1800 000/00 RMK AO2
14840KMKG MKG20060318211509603/18/06 21:15:31  5-MIN KMKG 190215Z 31003KT 10SM CLR M02/M10 A3033 260 55 -1700 310/03 RMK AO2
14840KMKG MKG20060318212009603/18/06 21:20:31  5-MIN KMKG 190220Z 32005KT 10SM CLR M02/M10 A3033 260 55 -1700 320/05 RMK AO2
14840KMKG MKG20060318212509603/18/06 21:25:31  5-MIN KMKG 190225Z 33004KT 10SM CLR M02/M10 A3033 260 55 -1700 340/04 RMK AO2
14840KMKG MKG20060318213009603/18/06 21:30:31  5-MIN KMKG 190230Z 33004KT 10SM CLR M02/M09 A3033 260 58 -1700 340/04 RMK AO2
14840KMKG MKG20060318213509603/18/06 21:35:31  5-MIN KMKG 190235Z 35003KT 10SM CLR M03/M09 A3033 260 60 -1800 350/03 RMK AO2
14840KMKG MKG20060318214009603/18/06 21:40:31  5-MIN KMKG 190240Z 36003KT 10SM CLR M03/M09 A3033 260 60 -1800 360/03 RMK AO2
14840KMKG MKG20060318214509603/18/06 21:45:31  5-MIN KMKG 190245Z 35003KT 10SM CLR M03/M09 A3033 250 60 -1800 360/03 RMK AO2
14840KMKG MKG20060318215011903/18/06 21:50:31  5-MIN KMKG 190250Z 35003KT 10SM CLR M03/M09 A3033 250 60 -1800 360/03 RMK AO2 SLP279 T10281094 55000
14840KMKG MKG20060318215511903/18/06 21:55:31  5-MIN KMKG 190255Z 00000KT 10SM CLR M03/M09 A3033 250 60 -1800 000/00 RMK AO2 SLP280 T10281094 53003
14840KMKG MKG20060318220009603/18/06 22:00:31  5-MIN KMKG 190300Z 01003KT 10SM CLR M03/M09 A3033 250 60 -1800 020/03 RMK AO2
14840KMKG MKG20060318220509603/18/06 22:05:31  5-MIN KMKG 190305Z 02003KT 10SM CLR M03/M10 A3033 250 58 -1800 020/03 RMK AO2
14840KMKG MKG20060318221009603/18/06 22:10:31  5-MIN KMKG 190310Z 36003KT 10SM CLR M03/M10 A3033 250 58 -1800 010/03 RMK AO2
14840KMKG MKG20060318221509603/18/06 22:15:31  5-MIN KMKG 190315Z 33003KT 10SM CLR M03/M10 A3033 250 58 -1800 340/03 RMK AO2
14840KMKG MKG20060318222009603/18/06 22:20:31  5-MIN KMKG 190320Z 00000KT 10SM CLR M03/M09 A3033 250 63 -1900 000/00 RMK AO2
14840KMKG MKG20060318222509603/18/06 22:25:31  5-MIN KMKG 190325Z 00000KT 10SM CLR M03/M09 A3033 250 60 -1800 000/00 RMK AO2
14840KMKG MKG20060318223009603/18/06 22:30:31  5-MIN KMKG 190330Z 00000KT 10SM CLR M03/M09 A3033 250 60 -1800 000/00 RMK AO2
14840KMKG MKG20060318223509603/18/06 22:35:31  5-MIN KMKG 190335Z 00000KT 10SM CLR M03/M09 A3033 250 63 -1900 000/00 RMK AO2
14840KMKG MKG20060318224009603/18/06 22:40:31  5-MIN KMKG 190340Z 00000KT 10SM CLR M04/M09 A3033 260 68 -2000 000/00 RMK AO2
14840KMKG MKG20060318224509603/18/06 22:45:31  5-MIN KMKG 190345Z 00000KT 10SM CLR M04/M09 A3033 250 68 -2000 000/00 RMK AO2
14840KMKG MKG20060318225011303/18/06 22:50:31  5-MIN KMKG 190350Z 00000KT 10SM CLR M04/M09 A3033 260 68 -2000 000/00 RMK AO2 SLP279 T10441094
14840KMKG MKG20060318225511303/18/06 22:55:31  5-MIN KMKG 190355Z 00000KT 10SM CLR M03/M09 A3033 250 63 -1900 000/00 RMK AO2 SLP279 T10331094
14840KMKG MKG20060318230009603/18/06 23:00:31  5-MIN KMKG 190400Z 00000KT 10SM CLR M03/M09 A3033 250 63 -1900 000/00 RMK AO2
14840KMKG MKG20060318230509603/18/06 23:05:31  5-MIN KMKG 190405Z 34003KT 10SM CLR M03/M09 A3033 260 63 -1900 350/03 RMK AO2
14840KMKG MKG20060318231009603/18/06 23:10:31  5-MIN KMKG 190410Z 35005KT 10SM CLR M03/M09 A3033 260 65 -1900 360/05 RMK AO2
14840KMKG MKG20060318231509603/18/06 23:15:31  5-MIN KMKG 190415Z 35008KT 10SM CLR M03/M09 A3033 250 63 -1800 360/08 RMK AO2
14840KMKG MKG20060318232009603/18/06 23:20:31  5-MIN KMKG 190420Z 36009KT 10SM CLR M02/M08 A3033 260 63 -1700 010/09 RMK AO2
14840KMKG MKG20060318232509603/18/06 23:25:31  5-MIN KMKG 190425Z 36006KT 10SM CLR M02/M09 A3033 250 60 -1700 360/06 RMK AO2
14840KMKG MKG20060318233009603/18/06 23:30:31  5-MIN KMKG 190430Z 35007KT 10SM CLR M02/M08 A3033 250 63 -1700 350/07 RMK AO2
14840KMKG MKG20060318233509603/18/06 23:35:31  5-MIN KMKG 190435Z 34006KT 10SM CLR M02/M09 A3033 250 60 -1700 350/06 RMK AO2
14840KMKG MKG20060318234009603/18/06 23:40:31  5-MIN KMKG 190440Z 34006KT 10SM CLR M02/M09 A3033 250 60 -1700 350/06 RMK AO2
14840KMKG MKG20060318234509603/18/06 23:45:31  5-MIN KMKG 190445Z 34007KT 10SM CLR M02/M09 A3033 250 60 -1700 340/07 RMK AO2
14840KMKG MKG20060318235012303/18/06 23:50:31  5-MIN KMKG 190450Z 33007KT 10SM CLR M03/M09 A3033 250 63 -1800 330/07 RMK AO2 SLP278 T10281089 400171067
14840KMKG MKG20060318235512303/18/06 23:55:31  5-MIN KMKG 190455Z 34007KT 10SM CLR M03/M09 A3033 250 63 -1800 340/07 RMK AO2 SLP278 T10281089 400171067
14840KMKG MKG20060319000009603/19/06 00:00:32  5-MIN KMKG 190500Z 34006KT 10SM CLR M03/M08 A3033 260 66 -1800 340/06 RMK AO2
14840KMKG MKG20060319000509603/19/06 00:05:31  5-MIN KMKG 190505Z 33006KT 10SM CLR M03/M08 A3033 250 66 -1800 340/06 RMK AO2
14840KMKG MKG20060319001009603/19/06 00:10:31  5-MIN KMKG 190510Z 34006KT 10SM CLR M03/M08 A3033 250 66 -1800 340/06 RMK AO2
14840KMKG MKG20060319001509603/19/06 00:15:31  5-MIN KMKG 190515Z 34006KT 10SM CLR M03/M08 A3033 250 68 -1900 350/06 RMK AO2
14840KMKG MKG20060319002009603/19/06 00:20:31  5-MIN KMKG 190520Z 34007KT 10SM CLR M03/M08 A3033 250 66 -1800 350/07 RMK AO2
14840KMKG MKG20060319002509603/19/06 00:25:31  5-MIN KMKG 190525Z 35007KT 10SM CLR M03/M08 A3033 260 66 -1800 350/07 RMK AO2
14840KMKG MKG20060319003009603/19/06 00:30:31  5-MIN KMKG 190530Z 34005KT 10SM CLR M03/M08 A3033 260 66 -1800 350/05 RMK AO2
14840KMKG MKG20060319003509603/19/06 00:35:31  5-MIN KMKG 190535Z 33004KT 10SM CLR M03/M08 A3033 260 68 -1800 340/04 RMK AO2
14840KMKG MKG20060319004009603/19/06 00:40:31  5-MIN KMKG 190540Z 33004KT 10SM CLR M03/M08 A3033 260 68 -1800 330/04 RMK AO2
14840KMKG MKG20060319004509603/19/06 00:45:31  5-MIN KMKG 190545Z 32005KT 10SM CLR M03/M08 A3033 260 68 -1800 330/05 RMK AO2
14840KMKG MKG20060319005013103/19/06 00:50:31  5-MIN KMKG 190550Z 31005KT 10SM CLR M03/M08 A3033 260 68 -1800 310/05 RMK AO2 SLP278 T10331083 11011 21044 53003
14840KMKG MKG20060319005513103/19/06 00:55:31  5-MIN KMKG 190555Z 32005KT 10SM CLR M03/M08 A3032 260 66 -1800 320/05 RMK AO2 SLP277 T10281083 11011 21044 58002
14840KMKG MKG20060319010009603/19/06 01:00:31  5-MIN KMKG 190600Z 32005KT 10SM CLR M03/M08 A3032 260 66 -1800 330/05 RMK AO2
14840KMKG MKG20060319010509603/19/06 01:05:31  5-MIN KMKG 190605Z 32006KT 10SM CLR M03/M08 A3033 260 71 -1800 330/06 RMK AO2
14840KMKG MKG20060319011009603/19/06 01:10:31  5-MIN KMKG 190610Z 32005KT 10SM CLR M03/M08 A3033 260 68 -1800 320/05 RMK AO2
14840KMKG MKG20060319011509603/19/06 01:15:31  5-MIN KMKG 190615Z 32004KT 10SM CLR M03/M08 A3033 260 68 -1800 320/04 RMK AO2
14840KMKG MKG20060319012009603/19/06 01:20:31  5-MIN KMKG 190620Z 33005KT 10SM CLR M03/M08 A3033 260 68 -1800 330/05 RMK AO2
14840KMKG MKG20060319012509603/19/06 01:25:31  5-MIN KMKG 190625Z 34008KT 10SM CLR M03/M08 A3032 260 71 -1800 340/08 RMK AO2
14840KMKG MKG20060319013009603/19/06 01:30:31  5-MIN KMKG 190630Z 34007KT 10SM CLR M03/M08 A3032 260 71 -1800 350/07 RMK AO2
14840KMKG MKG20060319013509603/19/06 01:35:31  5-MIN KMKG 190635Z 34008KT 10SM CLR M03/M08 A3032 260 71 -1800 350/08 RMK AO2
14840KMKG MKG20060319014009603/19/06 01:40:31  5-MIN KMKG 190640Z 34007KT 10SM CLR M03/M08 A3032 260 68 -1800 340/07 RMK AO2
14840KMKG MKG20060319014509603/19/06 01:45:31  5-MIN KMKG 190645Z 35007KT 10SM CLR M03/M08 A3032 260 71 -1800 350/07 RMK AO2
14840KMKG MKG20060319015011303/19/06 01:50:31  5-MIN KMKG 190650Z 34007KT 10SM CLR M03/M08 A3032 260 68 -1800 350/07 RMK AO2 SLP275 T10281078
14840KMKG MKG20060319015511303/19/06 01:55:31  5-MIN KMKG 190655Z 34007KT 10SM CLR M03/M08 A3032 260 71 -1800 350/07 RMK AO2 SLP275 T10331078
14840KMKG MKG20060319020009603/19/06 02:00:31  5-MIN KMKG 190700Z 34008KT 10SM CLR M03/M08 A3032 260 68 -1800 350/08 RMK AO2
14840KMKG MKG20060319020509603/19/06 02:05:31  5-MIN KMKG 190705Z 34008KT 10SM CLR M03/M08 A3032 260 68 -1800 340/08 RMK AO2
14840KMKG MKG20060319021009603/19/06 02:10:31  5-MIN KMKG 190710Z 34007KT 10SM CLR M03/M07 A3032 260 71 -1800 340/07 RMK AO2
14840KMKG MKG20060319021509603/19/06 02:15:31  5-MIN KMKG 190715Z 34007KT 10SM CLR M03/M08 A3032 260 68 -1800 340/07 RMK AO2
14840KMKG MKG20060319022009603/19/06 02:20:31  5-MIN KMKG 190720Z 34008KT 10SM CLR M03/M08 A3032 260 68 -1800 340/08 RMK AO2
14840KMKG MKG20060319022509603/19/06 02:25:31  5-MIN KMKG 190725Z 34008KT 10SM CLR M03/M08 A3032 260 68 -1800 340/08 RMK AO2
14840KMKG MKG20060319023009603/19/06 02:30:31  5-MIN KMKG 190730Z 33010KT 10SM CLR M03/M08 A3032 260 68 -1800 340/10 RMK AO2
14840KMKG MKG20060319023509603/19/06 02:35:31  5-MIN KMKG 190735Z 33010KT 10SM CLR M03/M08 A3032 260 68 -1800 340/10 RMK AO2
14840KMKG MKG20060319024009603/19/06 02:40:31  5-MIN KMKG 190740Z 33011KT 10SM CLR M02/M08 A3032 260 66 -1700 340/11 RMK AO2
14840KMKG MKG20060319024509603/19/06 02:45:31  5-MIN KMKG 190745Z 34010KT 10SM CLR M02/M08 A3032 260 63 -1700 340/10 RMK AO2
14840KMKG MKG20060319025011303/19/06 02:50:31  5-MIN KMKG 190750Z 34012KT 10SM CLR M02/M08 A3032 270 63 -1700 350/12 RMK AO2 SLP274 T10221083
14840KMKG MKG20060319025511303/19/06 02:55:31  5-MIN KMKG 190755Z 34011KT 10SM CLR M02/M08 A3032 270 63 -1700 340/11 RMK AO2 SLP274 T10221083
14840KMKG MKG20060319030009603/19/06 03:00:31  5-MIN KMKG 190800Z 34010KT 10SM CLR M02/M08 A3031 270 63 -1700 340/10 RMK AO2
14840KMKG MKG20060319030509603/19/06 03:05:31  5-MIN KMKG 190805Z 34011KT 10SM CLR M02/M08 A3031 270 63 -1700 340/11 RMK AO2
14840KMKG MKG20060319031009603/19/06 03:10:31  5-MIN KMKG 190810Z 33008KT 10SM CLR M03/M08 A3031 270 66 -1800 340/08 RMK AO2
14840KMKG MKG20060319031509603/19/06 03:15:31  5-MIN KMKG 190815Z 34009KT 10SM CLR M02/M08 A3031 280 63 -1700 340/09 RMK AO2
14840KMKG MKG20060319032009603/19/06 03:20:31  5-MIN KMKG 190820Z 34008KT 10SM CLR M03/M08 A3031 280 66 -1800 340/08 RMK AO2
14840KMKG MKG20060319032509603/19/06 03:25:31  5-MIN KMKG 190825Z 34009KT 10SM CLR M03/M08 A3030 280 66 -1800 340/09 RMK AO2
14840KMKG MKG20060319033009603/19/06 03:30:31  5-MIN KMKG 190830Z 34009KT 10SM CLR M03/M08 A3030 280 66 -1700 340/09 RMK AO2
14840KMKG MKG20060319033509603/19/06 03:35:31  5-MIN KMKG 190835Z 34009KT 10SM CLR M03/M08 A3030 280 66 -1700 350/09 RMK AO2
14840KMKG MKG20060319034009603/19/06 03:40:31  5-MIN KMKG 190840Z 34007KT 10SM CLR M03/M08 A3030 280 66 -1700 340/07 RMK AO2
14840KMKG MKG20060319034509603/19/06 03:45:31  5-MIN KMKG 190845Z 34009KT 10SM CLR M03/M08 A3030 280 66 -1700 340/09 RMK AO2
14840KMKG MKG20060319035011903/19/06 03:50:31  5-MIN KMKG 190850Z 34008KT 10SM CLR M03/M08 A3030 280 66 -1700 350/08 RMK AO2 SLP270 T10281083 58002
14840KMKG MKG20060319035511903/19/06 03:55:31  5-MIN KMKG 190855Z 34007KT 10SM CLR M03/M08 A3030 280 66 -1700 350/07 RMK AO2 SLP269 T10281083 58008
14840KMKG MKG20060319040009603/19/06 04:00:31  5-MIN KMKG 190900Z 34007KT 10SM CLR M03/M08 A3030 280 66 -1700 340/07 RMK AO2
14840KMKG MKG20060319040509603/19/06 04:05:31  5-MIN KMKG 190905Z 34007KT 10SM CLR M03/M08 A3030 280 66 -1700 350/07 RMK AO2
14840KMKG MKG20060319041009603/19/06 04:10:31  5-MIN KMKG 190910Z 34008KT 10SM CLR M03/M08 A3029 290 66 -1700 350/08 RMK AO2
14840KMKG MKG20060319041509603/19/06 04:15:31  5-MIN KMKG 190915Z 35008KT 10SM CLR M03/M08 A3029 290 66 -1700 350/08 RMK AO2
14840KMKG MKG20060319042009603/19/06 04:20:31  5-MIN KMKG 190920Z 34009KT 10SM CLR M03/M08 A3029 290 66 -1700 350/09 RMK AO2
14840KMKG MKG20060319042509603/19/06 04:25:31  5-MIN KMKG 190925Z 35009KT 10SM CLR M03/M08 A3029 290 66 -1700 350/09 RMK AO2
14840KMKG MKG20060319043009603/19/06 04:30:31  5-MIN KMKG 190930Z 35008KT 10SM CLR M03/M08 A3029 290 66 -1700 350/08 RMK AO2
14840KMKG MKG20060319043509603/19/06 04:35:31  5-MIN KMKG 190935Z 35008KT 10SM CLR M03/M08 A3028 290 66 -1700 350/08 RMK AO2
14840KMKG MKG20060319044009603/19/06 04:40:31  5-MIN KMKG 190940Z 34008KT 10SM CLR M03/M08 A3028 300 66 -1700 350/08 RMK AO2
14840KMKG MKG20060319044509603/19/06 04:45:31  5-MIN KMKG 190945Z 35009KT 10SM CLR M03/M08 A3028 300 66 -1700 350/09 RMK AO2
14840KMKG MKG20060319045011303/19/06 04:50:31  5-MIN KMKG 190950Z 35008KT 10SM CLR M03/M08 A3028 290 66 -1700 350/08 RMK AO2 SLP264 T10281083
14840KMKG MKG20060319045511303/19/06 04:55:31  5-MIN KMKG 190955Z 35009KT 10SM CLR M03/M08 A3028 300 66 -1700 350/09 RMK AO2 SLP264 T10281083
14840KMKG MKG20060319050009603/19/06 05:00:31  5-MIN KMKG 191000Z 35008KT 10SM CLR M03/M08 A3028 300 66 -1700 350/08 RMK AO2
14840KMKG MKG20060319050509603/19/06 05:05:31  5-MIN KMKG 191005Z 35009KT 10SM CLR M03/M08 A3028 300 66 -1700 350/09 RMK AO2
14840KMKG MKG20060319051009603/19/06 05:10:31  5-MIN KMKG 191010Z 35008KT 10SM CLR M03/M08 A3028 300 66 -1700 350/08 RMK AO2
14840KMKG MKG20060319051509603/19/06 05:15:31  5-MIN KMKG 191015Z 35007KT 10SM CLR M03/M08 A3028 300 66 -1700 350/07 RMK AO2
14840KMKG MKG20060319052009603/19/06 05:20:31  5-MIN KMKG 191020Z 34008KT 10SM CLR M03/M08 A3028 300 68 -1800 340/08 RMK AO2
14840KMKG MKG20060319052509603/19/06 05:25:31  5-MIN KMKG 191025Z 35008KT 10SM CLR M03/M08 A3028 300 66 -1700 350/08 RMK AO2
14840KMKG MKG20060319053009603/19/06 05:30:31  5-MIN KMKG 191030Z 34009KT 10SM CLR M03/M08 A3028 300 68 -1800 350/09 RMK AO2
14840KMKG MKG20060319053509603/19/06 05:35:31  5-MIN KMKG 191035Z 34007KT 10SM CLR M03/M08 A3028 300 66 -1700 350/07 RMK AO2
14840KMKG MKG20060319054009603/19/06 05:40:31  5-MIN KMKG 191040Z 34007KT 10SM CLR M03/M08 A3028 300 68 -1800 350/07 RMK AO2
14840KMKG MKG20060319054509603/19/06 05:45:31  5-MIN KMKG 191045Z 34008KT 10SM CLR M03/M08 A3028 300 68 -1800 340/08 RMK AO2
14840KMKG MKG20060319055011303/19/06 05:50:31  5-MIN KMKG 191050Z 34006KT 10SM CLR M03/M08 A3028 300 68 -1800 340/06 RMK AO2 SLP263 T10331083
14840KMKG MKG20060319055511303/19/06 05:55:31  5-MIN KMKG 191055Z 34006KT 10SM CLR M03/M08 A3028 300 68 -1800 340/06 RMK AO2 SLP264 T10331083
14840KMKG MKG20060319060009603/19/06 06:00:31  5-MIN KMKG 191100Z 33004KT 10SM CLR M04/M08 A3028 300 71 -1900 330/04 RMK AO2
14840KMKG MKG20060319060509603/19/06 06:05:31  5-MIN KMKG 191105Z 33004KT 10SM CLR M04/M08 A3029 290 71 -1900 330/04 RMK AO2
14840KMKG MKG20060319061009603/19/06 06:10:31  5-MIN KMKG 191110Z 33005KT 10SM CLR M04/M08 A3029 290 71 -1900 330/05 RMK AO2
14840KMKG MKG20060319061509603/19/06 06:15:31  5-MIN KMKG 191115Z 32005KT 10SM CLR M04/M08 A3029 290 71 -1900 330/05 RMK AO2
14840KMKG MKG20060319062009603/19/06 06:20:31  5-MIN KMKG 191120Z 32005KT 10SM CLR M04/M08 A3029 290 71 -1900 330/05 RMK AO2
14840KMKG MKG20060319062509603/19/06 06:25:31  5-MIN KMKG 191125Z 33005KT 10SM CLR M03/M08 A3029 290 68 -1800 330/05 RMK AO2
14840KMKG MKG20060319063009603/19/06 06:30:31  5-MIN KMKG 191130Z 32006KT 10SM CLR M03/M08 A3029 290 71 -1800 320/06 RMK AO2
14840KMKG MKG20060319063509603/19/06 06:35:31  5-MIN KMKG 191135Z 32006KT 10SM CLR M03/M08 A3029 290 68 -1700 330/06 RMK AO2
14840KMKG MKG20060319064009603/19/06 06:40:31  5-MIN KMKG 191140Z 32006KT 10SM CLR M03/M08 A3029 290 68 -1700 330/06 RMK AO2
14840KMKG MKG20060319064509603/19/06 06:45:31  5-MIN KMKG 191145Z 32006KT 10SM CLR M03/M08 A3029 290 71 -1800 330/06 RMK AO2
14840KMKG MKG20060319065013103/19/06 06:50:31  5-MIN KMKG 191150Z 33006KT 10SM CLR M03/M08 A3029 290 71 -1800 340/06 RMK AO2 SLP267 T10331078 11022 21039 58008
14840KMKG MKG20060319065513103/19/06 06:55:31  5-MIN KMKG 191155Z 33005KT 10SM CLR M03/M08 A3029 290 71 -1800 340/05 RMK AO2 SLP267 T10331078 11022 21039 55002
14840KMKG MKG20060319070009603/19/06 07:00:31  5-MIN KMKG 191200Z 33006KT 10SM CLR M04/M08 A3029 290 74 -1900 340/06 RMK AO2
14840KMKG MKG20060319070509603/19/06 07:05:31  5-MIN KMKG 191205Z 32005KT 10SM CLR M03/M08 A3029 290 71 -1800 330/05 RMK AO2
14840KMKG MKG20060319071009603/19/06 07:10:31  5-MIN KMKG 191210Z 32005KT 10SM CLR M03/M08 A3029 290 71 -1800 320/05 RMK AO2
14840KMKG MKG20060319071509603/19/06 07:15:31  5-MIN KMKG 191215Z 32004KT 10SM CLR M03/M08 A3029 290 68 -1700 320/04 RMK AO2
14840KMKG MKG20060319072009603/19/06 07:20:31  5-MIN KMKG 191220Z 33005KT 10SM CLR M03/M07 A3029 290 71 -1700 340/05 RMK AO2
14840KMKG MKG20060319072509603/19/06 07:25:31  5-MIN KMKG 191225Z 33007KT 10SM CLR M03/M07 A3029 290 71 -1700 340/07 RMK AO2
14840KMKG MKG20060319073009603/19/06 07:30:31  5-MIN KMKG 191230Z 33006KT 10SM CLR M02/M07 A3030 290 69 -1700 330/06 RMK AO2
14840KMKG MKG20060319073509603/19/06 07:35:31  5-MIN KMKG 191235Z 33005KT 10SM CLR M02/M07 A3030 280 69 -1700 330/05 RMK AO2
14840KMKG MKG20060319074009603/19/06 07:40:31  5-MIN KMKG 191240Z 34005KT 10SM CLR M02/M07 A3030 280 69 -1700 340/05 RMK AO2
14840KMKG MKG20060319074509603/19/06 07:45:31  5-MIN KMKG 191245Z 34005KT 10SM CLR M02/M07 A3029 290 69 -1600 340/05 RMK AO2
14840KMKG MKG20060319075011303/19/06 07:50:31  5-MIN KMKG 191250Z 34006KT 10SM CLR M02/M07 A3029 290 69 -1600 350/06 RMK AO2 SLP267 T10171067
14840KMKG MKG20060319075511303/19/06 07:55:31  5-MIN KMKG 191255Z 35006KT 10SM CLR M02/M07 A3029 290 69 -1600 350/06 RMK AO2 SLP268 T10171067
14840KMKG MKG20060319080009603/19/06 08:00:31  5-MIN KMKG 191300Z 34005KT 10SM CLR M01/M07 A3029 290 66 -1500 340/05 RMK AO2
14840KMKG MKG20060319080509603/19/06 08:05:31  5-MIN KMKG 191305Z 33005KT 10SM CLR M01/M07 A3029 290 66 -1500 340/05 RMK AO2
14840KMKG MKG20060319081009603/19/06 08:10:31  5-MIN KMKG 191310Z 34007KT 10SM CLR M01/M07 A3029 290 66 -1500 340/07 RMK AO2
14840KMKG MKG20060319081509603/19/06 08:15:31  5-MIN KMKG 191315Z 33007KT 10SM CLR M01/M07 A3030 290 66 -1500 340/07 RMK AO2
14840KMKG MKG20060319082009603/19/06 08:20:31  5-MIN KMKG 191320Z 34008KT 10SM CLR M01/M07 A3029 290 66 -1500 340/08 RMK AO2
14840KMKG MKG20060319082509603/19/06 08:25:31  5-MIN KMKG 191325Z 34008KT 10SM CLR M01/M07 A3029 290 63 -1500 350/08 RMK AO2
14840KMKG MKG20060319083009603/19/06 08:30:31  5-MIN KMKG 191330Z 34006KT 10SM CLR M01/M07 A3029 290 63 -1500 350/06 RMK AO2
14840KMKG MKG20060319083509603/19/06 08:35:31  5-MIN KMKG 191335Z 34007KT 10SM CLR M01/M07 A3029 290 63 -1500 340/07 RMK AO2
14840KMKG MKG20060319084009503/19/06 08:40:31  5-MIN KMKG 191340Z 35007KT 10SM CLR 00/M07 A3029 290 61 -1400 350/07 RMK AO2
14840KMKG MKG20060319084509503/19/06 08:45:31  5-MIN KMKG 191345Z 34007KT 10SM CLR 00/M07 A3029 290 61 -1400 350/07 RMK AO2
14840KMKG MKG20060319085011203/19/06 08:50:31  5-MIN KMKG 191350Z 34009KT 10SM CLR 00/M07 A3029 290 61 -1400 340/09 RMK AO2 SLP267 T00001067
14840KMKG MKG20060319085511203/19/06 08:55:31  5-MIN KMKG 191355Z 35007KT 10SM CLR 00/M07 A3029 290 61 -1400 350/07 RMK AO2 SLP266 T00001067
14840KMKG MKG20060319090009503/19/06 09:00:31  5-MIN KMKG 191400Z 34010KT 10SM CLR 00/M06 A3029 290 63 -1400 340/10 RMK AO2
14840KMKG MKG20060319090509503/19/06 09:05:31  5-MIN KMKG 191405Z 34010KT 10SM CLR 00/M07 A3029 290 61 -1400 340/10 RMK AO2
14840KMKG MKG20060319091009503/19/06 09:10:31  5-MIN KMKG 191410Z 35008KT 10SM CLR 00/M07 A3029 290 61 -1400 350/08 RMK AO2
14840KMKG MKG20060319091509503/19/06 09:15:31  5-MIN KMKG 191415Z 34009KT 10SM CLR 01/M07 A3029 290 58 -1300 350/09 RMK AO2
14840KMKG MKG20060319092009503/19/06 09:20:31  5-MIN KMKG 191420Z 33010KT 10SM CLR 01/M06 A3029 290 61 -1300 340/10 RMK AO2
14840KMKG MKG20060319092509503/19/06 09:25:31  5-MIN KMKG 191425Z 36009KT 10SM CLR 01/M07 A3029 290 58 -1300 360/09 RMK AO2
14840KMKG MKG20060319093009503/19/06 09:30:31  5-MIN KMKG 191430Z 34008KT 10SM CLR 01/M06 A3029 290 61 -1300 340/08 RMK AO2
14840KMKG MKG20060319093509503/19/06 09:35:31  5-MIN KMKG 191435Z 35007KT 10SM CLR 01/M06 A3029 290 58 -1200 350/07 RMK AO2
14840KMKG MKG20060319094009503/19/06 09:40:31  5-MIN KMKG 191440Z 35009KT 10SM CLR 01/M06 A3028 300 58 -1200 350/09 RMK AO2
14840KMKG MKG20060319094509503/19/06 09:45:31  5-MIN KMKG 191445Z 35008KT 10SM CLR 02/M07 A3028 300 54 -1200 350/08 RMK AO2
14840KMKG MKG20060319095011803/19/06 09:50:31  5-MIN KMKG 191450Z 33011KT 10SM CLR 02/M07 A3028 300 54 -1200 330/11 RMK AO2 SLP262 T00171067 55002
14840KMKG MKG20060319095511803/19/06 09:55:31  5-MIN KMKG 191455Z 34011KT 10SM CLR 02/M07 A3028 300 52 -1200 340/11 RMK AO2 SLP262 T00171072 58003
14840KMKG MKG20060319100009503/19/06 10:00:31  5-MIN KMKG 191500Z 35011KT 10SM CLR 02/M07 A3028 300 52 -1200 350/11 RMK AO2
14840KMKG MKG20060319100509503/19/06 10:05:31  5-MIN KMKG 191505Z 34010KT 10SM CLR 02/M08 A3028 300 47 -1100 350/10 RMK AO2
14840KMKG MKG20060319101009503/19/06 10:10:31  5-MIN KMKG 191510Z 35008KT 10SM CLR 02/M07 A3028 300 50 -1100 350/08 RMK AO2
14840KMKG MKG20060319101509503/19/06 10:15:31  5-MIN KMKG 191515Z 34011KT 10SM CLR 02/M07 A3028 300 50 -1100 350/11 RMK AO2
14840KMKG MKG20060319102009503/19/06 10:20:31  5-MIN KMKG 191520Z 34009KT 10SM CLR 02/M08 A3028 300 47 -1100 340/09 RMK AO2
14840KMKG MKG20060319102509503/19/06 10:25:31  5-MIN KMKG 191525Z 31009KT 10SM CLR 02/M08 A3027 310 47 -1100 320/09 RMK AO2
14840KMKG MKG20060319103009503/19/06 10:30:31  5-MIN KMKG 191530Z 32010KT 10SM CLR 02/M08 A3027 310 47 -1100 320/10 RMK AO2
14840KMKG MKG20060319103509503/19/06 10:35:31  5-MIN KMKG 191535Z 31009KT 10SM CLR 02/M08 A3027 310 45 -1100 310/09 RMK AO2
14840KMKG MKG20060319104009503/19/06 10:40:31  5-MIN KMKG 191540Z 33009KT 10SM CLR 03/M08 A3027 300 46 -1000 330/09 RMK AO2
14840KMKG MKG20060319104509503/19/06 10:45:31  5-MIN KMKG 191545Z 30011KT 10SM CLR 03/M07 A3027 310 50 -1000 300/11 RMK AO2
14840KMKG MKG20060319105011203/19/06 10:50:31  5-MIN KMKG 191550Z 30009KT 10SM CLR 02/M06 A3028 300 54 -1100 300/09 RMK AO2 SLP262 T00221061
14840KMKG MKG20060319105511203/19/06 10:55:31  5-MIN KMKG 191555Z 30011KT 10SM CLR 02/M06 A3027 300 54 -1100 310/11 RMK AO2 SLP260 T00221061
14840KMKG MKG20060319110009503/19/06 11:00:31  5-MIN KMKG 191600Z 30011KT 10SM CLR 02/M06 A3027 310 54 -1100 310/11 RMK AO2
14840KMKG MKG20060319110509503/19/06 11:05:31  5-MIN KMKG 191605Z 31010KT 10SM CLR 03/M06 A3027 310 52 -1000 320/10 RMK AO2
14840KMKG MKG20060319111009503/19/06 11:10:31  5-MIN KMKG 191610Z 31010KT 10SM CLR 02/M06 A3027 310 54 -1100 310/10 RMK AO2
14840KMKG MKG20060319111509503/19/06 11:15:31  5-MIN KMKG 191615Z 30010KT 10SM CLR 02/M06 A3027 310 54 -1100 310/10 RMK AO2
14840KMKG MKG20060319112010103/19/06 11:20:31  5-MIN KMKG 191620Z 30013G16KT 10SM CLR 03/M06 A3027 310 52 -1000 310/13G16 RMK AO2
14840KMKG MKG20060319112509503/19/06 11:25:31  5-MIN KMKG 191625Z 30011KT 10SM CLR 02/M06 A3027 310 54 -1100 300/11 RMK AO2
14840KMKG MKG20060319113009503/19/06 11:30:31  5-MIN KMKG 191630Z 30012KT 10SM CLR 03/M06 A3027 310 52 -1000 300/12 RMK AO2
14840KMKG MKG20060319113509503/19/06 11:35:31  5-MIN KMKG 191635Z 30013KT 10SM CLR 02/M06 A3027 310 54 -1100 310/13 RMK AO2
14840KMKG MKG20060319114009503/19/06 11:40:31  5-MIN KMKG 191640Z 31013KT 10SM CLR 02/M06 A3027 310 54 -1100 310/13 RMK AO2
14840KMKG MKG20060319114509503/19/06 11:45:31  5-MIN KMKG 191645Z 31012KT 10SM CLR 02/M07 A3027 310 52 -1100 320/12 RMK AO2
14840KMKG MKG20060319115011803/19/06 11:50:31  5-MIN KMKG 191650Z 31012G18KT 10SM CLR 02/M07 A3027 310 52 -1100 310/12G18 RMK AO2 SLP258 T00221067
14840KMKG MKG20060319115511803/19/06 11:55:31  5-MIN KMKG 191655Z 31014G18KT 10SM CLR 02/M06 A3027 310 54 -1100 310/14G18 RMK AO2 SLP259 T00221061
14840KMKG MKG20060319120009503/19/06 12:00:31  5-MIN KMKG 191700Z 31014KT 10SM CLR 02/M06 A3027 310 54 -1100 310/14 RMK AO2
14840KMKG MKG20060319120510103/19/06 12:05:31  5-MIN KMKG 191705Z 29015G19KT 10SM CLR 02/M06 A3027 310 54 -1100 300/15G19 RMK AO2
14840KMKG MKG20060319121009503/19/06 12:10:31  5-MIN KMKG 191710Z 30015KT 10SM CLR 03/M06 A3027 310 52 -1000 300/15 RMK AO2
14840KMKG MKG20060319121509503/19/06 12:15:31  5-MIN KMKG 191715Z 31013KT 10SM CLR 02/M06 A3027 310 54 -1100 310/13 RMK AO2
14840KMKG MKG20060319122009503/19/06 12:20:31  5-MIN KMKG 191720Z 30014KT 10SM CLR 02/M06 A3027 310 54 -1100 300/14 RMK AO2
14840KMKG MKG20060319122509503/19/06 12:25:31  5-MIN KMKG 191725Z 30014KT 10SM CLR 02/M06 A3027 310 54 -1100 310/14 RMK AO2
14840KMKG MKG20060319123009503/19/06 12:30:31  5-MIN KMKG 191730Z 31011KT 10SM CLR 03/M06 A3027 310 54 -1000 320/11 RMK AO2
14840KMKG MKG20060319123509503/19/06 12:35:31  5-MIN KMKG 191735Z 29014KT 10SM CLR 03/M06 A3027 310 54 -1000 300/14 RMK AO2
14840KMKG MKG20060319124009503/19/06 12:40:31  5-MIN KMKG 191740Z 29015KT 10SM CLR 03/M06 A3027 310 54 -1000 290/15 RMK AO2
14840KMKG MKG20060319124509503/19/06 12:45:31  5-MIN KMKG 191745Z 29014KT 10SM CLR 03/M06 A3027 300 54 -1000 300/14 RMK AO2
14840KMKG MKG20060319125013003/19/06 12:50:31  5-MIN KMKG 191750Z 30015KT 10SM CLR 03/M06 A3027 310 54 -1000 300/15 RMK AO2 SLP259 T00281056 10033 21039 58003
14840KMKG MKG20060319125513003/19/06 12:55:31  5-MIN KMKG 191755Z 30013KT 10SM CLR 03/M06 A3027 310 54 -1000 300/13 RMK AO2 SLP258 T00281056 10033 21039 56004
14840KMKG MKG20060319130010003/19/06 13:00:31  5-MIN KMKG 191800Z 31010G18KT 10SM CLR 03/M06 A3027 310 52 -900 310/10G18 RMK AO2
14840KMKG MKG20060319130510103/19/06 13:05:31  5-MIN KMKG 191805Z 29015G20KT 10SM CLR 03/M06 A3027 310 54 -1000 290/15G20 RMK AO2
14840KMKG MKG20060319131010103/19/06 13:10:31  5-MIN KMKG 191810Z 30013G20KT 10SM CLR 03/M06 A3027 310 54 -1000 310/13G20 RMK AO2
14840KMKG MKG20060319131509403/19/06 13:15:31  5-MIN KMKG 191815Z 31012KT 10SM CLR 03/M05 A3026 310 54 -900 310/12 RMK AO2
14840KMKG MKG20060319132009403/19/06 13:20:31  5-MIN KMKG 191820Z 30014KT 10SM CLR 03/M05 A3026 310 54 -900 310/14 RMK AO2
14840KMKG MKG20060319132510103/19/06 13:25:31  5-MIN KMKG 191825Z 31011G17KT 10SM CLR 03/M06 A3026 320 54 -1000 310/11G17 RMK AO2
14840KMKG MKG20060319133009403/19/06 13:30:31  5-MIN KMKG 191830Z 30013KT 10SM CLR 03/M05 A3026 320 54 -900 300/13 RMK AO2
14840KMKG MKG20060319133509403/19/06 13:35:31  5-MIN KMKG 191835Z 30014KT 10SM CLR 03/M05 A3026 320 54 -900 300/14 RMK AO2
14840KMKG MKG20060319134009503/19/06 13:40:31  5-MIN KMKG 191840Z 30012KT 10SM CLR 03/M05 A3026 320 56 -1000 310/12 RMK AO2
14840KMKG MKG20060319134509503/19/06 13:45:31  5-MIN KMKG 191845Z 31013KT 10SM CLR 03/M06 A3026 320 54 -1000 320/13 RMK AO2
14840KMKG MKG20060319135011103/19/06 13:50:31  5-MIN KMKG 191850Z 30013KT 10SM CLR 03/M06 A3026 320 52 -900 300/13 RMK AO2 SLP254 T00331056
14840KMKG MKG20060319135511203/19/06 13:55:31  5-MIN KMKG 191855Z 30014KT 10SM CLR 03/M06 A3026 320 54 -1000 310/14 RMK AO2 SLP253 T00281056
14840KMKG MKG20060319140009403/19/06 14:00:31  5-MIN KMKG 191900Z 30015KT 10SM CLR 03/M05 A3025 320 54 -900 300/15 RMK AO2
14840KMKG MKG20060319140509503/19/06 14:05:31  5-MIN KMKG 191905Z 31012KT 10SM CLR 03/M05 A3025 330 56 -1000 310/12 RMK AO2
14840KMKG MKG20060319141010003/19/06 14:10:31  5-MIN KMKG 191910Z 31014G20KT 10SM CLR 03/M05 A3025 330 54 -900 310/14G20 RMK AO2
14840KMKG MKG20060319141510103/19/06 14:15:31  5-MIN KMKG 191915Z 31012G20KT 10SM CLR 03/M05 A3025 330 56 -1000 310/12G20 RMK AO2
14840KMKG MKG20060319142009403/19/06 14:20:31  5-MIN KMKG 191920Z 29015KT 10SM CLR 03/M04 A3025 330 57 -900 290/15 RMK AO2
14840KMKG MKG20060319142510103/19/06 14:25:31  5-MIN KMKG 191925Z 29013G19KT 10SM CLR 03/M05 A3025 330 56 -1000 300/13G19 RMK AO2
14840KMKG MKG20060319143009503/19/06 14:30:31  5-MIN KMKG 191930Z 31014KT 10SM CLR 03/M05 A3025 320 56 -1000 310/14 RMK AO2
14840KMKG MKG20060319143509503/19/06 14:35:31  5-MIN KMKG 191935Z 30018KT 10SM CLR 03/M05 A3025 330 56 -1000 300/18 RMK AO2
14840KMKG MKG20060319144010103/19/06 14:40:31  5-MIN KMKG 191940Z 30013G20KT 10SM CLR 03/M05 A3025 330 56 -1000 300/13G20 RMK AO2
14840KMKG MKG20060319144510103/19/06 14:45:31  5-MIN KMKG 191945Z 29015G19KT 10SM CLR 03/M05 A3025 330 56 -1000 290/15G19 RMK AO2
14840KMKG MKG20060319145011803/19/06 14:50:31  5-MIN KMKG 191950Z 30016G21KT 10SM CLR 03/M05 A3025 330 56 -1000 300/16G21 RMK AO2 SLP251 T00281050
14840KMKG MKG20060319145511803/19/06 14:55:31  5-MIN KMKG 191955Z 30017G22KT 10SM CLR 03/M05 A3025 330 56 -1000 300/17G22 RMK AO2 SLP251 T00281050
14840KMKG MKG20060319150010103/19/06 15:00:31  5-MIN KMKG 192000Z 30012G22KT 10SM CLR 03/M05 A3025 330 56 -1000 300/12G22 RMK AO2
14840KMKG MKG20060319150510103/19/06 15:05:31  5-MIN KMKG 192005Z 30015G20KT 10SM CLR 03/M05 A3025 330 56 -1000 310/15G20 RMK AO2
14840KMKG MKG20060319151009503/19/06 15:10:31  5-MIN KMKG 192010Z 30016KT 10SM CLR 02/M05 A3025 330 59 -1100 300/16 RMK AO2
14840KMKG MKG20060319151510103/19/06 15:15:31  5-MIN KMKG 192015Z 29016G21KT 10SM CLR 03/M05 A3025 330 56 -1000 300/16G21 RMK AO2
14840KMKG MKG20060319152010103/19/06 15:20:31  5-MIN KMKG 192020Z 30016G21KT 10SM CLR 02/M05 A3025 320 59 -1100 310/16G21 RMK AO2
14840KMKG MKG20060319152510103/19/06 15:25:31  5-MIN KMKG 192025Z 30016G20KT 10SM CLR 02/M05 A3025 330 59 -1100 300/16G20 RMK AO2
14840KMKG MKG20060319153010103/19/06 15:30:31  5-MIN KMKG 192030Z 30011G20KT 10SM CLR 03/M04 A3025 330 59 -1000 310/11G20 RMK AO2
14840KMKG MKG20060319153510103/19/06 15:35:31  5-MIN KMKG 192035Z 31011G18KT 10SM CLR 03/M05 A3026 320 56 -1000 310/11G18 RMK AO2
14840KMKG MKG20060319154009503/19/06 15:40:31  5-MIN KMKG 192040Z 31012KT 10SM CLR 03/M04 A3026 320 59 -1000 310/12 RMK AO2
14840KMKG MKG20060319154509503/19/06 15:45:31  5-MIN KMKG 192045Z 32015KT 10SM CLR 02/M05 A3026 320 59 -1100 320/15 RMK AO2
14840KMKG MKG20060319155011803/19/06 15:50:31  5-MIN KMKG 192050Z 31012KT 10SM CLR 02/M05 A3026 320 59 -1100 310/12 RMK AO2 SLP256 T00221050 56004
14840KMKG MKG20060319155511803/19/06 15:55:31  5-MIN KMKG 192055Z 31015KT 10SM CLR 02/M05 A3026 320 59 -1100 310/15 RMK AO2 SLP255 T00221050 55003
14840KMKG MKG20060319160009503/19/06 16:00:31  5-MIN KMKG 192100Z 30014KT 10SM CLR 02/M05 A3026 320 59 -1100 300/14 RMK AO2
14840KMKG MKG20060319160510103/19/06 16:05:31  5-MIN KMKG 192105Z 30014G20KT 10SM CLR 02/M05 A3026 320 59 -1100 310/14G20 RMK AO2
14840KMKG MKG20060319161010103/19/06 16:10:31  5-MIN KMKG 192110Z 30017G21KT 10SM CLR 02/M06 A3026 320 56 -1100 300/17G21 RMK AO2
14840KMKG MKG20060319161510103/19/06 16:15:31  5-MIN KMKG 192115Z 30014G21KT 10SM CLR 02/M05 A3026 320 59 -1100 300/14G21 RMK AO2
14840KMKG MKG20060319162010103/19/06 16:20:31  5-MIN KMKG 192120Z 31015G19KT 10SM CLR 02/M05 A3026 320 59 -1100 310/15G19 RMK AO2
14840KMKG MKG20060319162510103/19/06 16:25:31  5-MIN KMKG 192125Z 31014G19KT 10SM CLR 02/M06 A3026 320 56 -1100 310/14G19 RMK AO2
14840KMKG MKG20060319163009503/19/06 16:30:31  5-MIN KMKG 192130Z 30016KT 10SM CLR 02/M06 A3026 320 56 -1100 310/16 RMK AO2
14840KMKG MKG20060319163509503/19/06 16:35:31  5-MIN KMKG 192135Z 30013KT 10SM CLR 02/M06 A3026 320 56 -1100 310/13 RMK AO2
14840KMKG MKG20060319164009503/19/06 16:40:31  5-MIN KMKG 192140Z 30012KT 10SM CLR 02/M06 A3026 310 56 -1100 310/12 RMK AO2
14840KMKG MKG20060319164510103/19/06 16:45:31  5-MIN KMKG 192145Z 31015G18KT 10SM CLR 02/M06 A3026 310 54 -1100 320/15G18 RMK AO2
14840KMKG MKG20060319165011803/19/06 16:50:31  5-MIN KMKG 192150Z 30012G19KT 10SM CLR 02/M06 A3026 320 56 -1100 310/12G19 RMK AO2 SLP254 T00171061
14840KMKG MKG20060319165511803/19/06 16:55:31  5-MIN KMKG 192155Z 31010G19KT 10SM CLR 02/M06 A3026 320 54 -1100 320/10G19 RMK AO2 SLP254 T00221061
14840KMKG MKG20060319170010103/19/06 17:00:31  5-MIN KMKG 192200Z 32014G18KT 10SM CLR 02/M06 A3026 320 54 -1100 320/14G18 RMK AO2
14840KMKG MKG20060319170510103/19/06 17:05:31  5-MIN KMKG 192205Z 31013G18KT 10SM CLR 02/M06 A3026 320 56 -1100 320/13G18 RMK AO2
14840KMKG MKG20060319171010103/19/06 17:10:31  5-MIN KMKG 192210Z 32011G18KT 10SM CLR 02/M07 A3026 320 54 -1100 320/11G18 RMK AO2
14840KMKG MKG20060319171510103/19/06 17:15:31  5-MIN KMKG 192215Z 32010G19KT 10SM CLR 02/M06 A3026 320 54 -1100 330/10G19 RMK AO2
14840KMKG MKG20060319172010103/19/06 17:20:31  5-MIN KMKG 192220Z 31011G19KT 10SM CLR 02/M06 A3025 320 56 -1100 310/11G19 RMK AO2
14840KMKG MKG20060319172510103/19/06 17:25:31  5-MIN KMKG 192225Z 32012G16KT 10SM CLR 02/M07 A3025 320 52 -1100 330/12G16 RMK AO2
14840KMKG MKG20060319173009503/19/06 17:30:31  5-MIN KMKG 192230Z 33012KT 10SM CLR 02/M07 A3026 320 52 -1100 330/12 RMK AO2
14840KMKG MKG20060319173509503/19/06 17:35:31  5-MIN KMKG 192235Z 33009KT 10SM CLR 02/M07 A3025 320 52 -1100 340/09 RMK AO2
14840KMKG MKG20060319174010103/19/06 17:40:31  5-MIN KMKG 192240Z 33011G17KT 10SM CLR 02/M08 A3025 320 47 -1100 330/11G17 RMK AO2
14840KMKG MKG20060319174509503/19/06 17:45:31  5-MIN KMKG 192245Z 32010KT 10SM CLR 02/M08 A3025 320 47 -1100 320/10 RMK AO2
14840KMKG MKG20060319175011203/19/06 17:50:31  5-MIN KMKG 192250Z 32010KT 10SM CLR 02/M08 A3025 320 47 -1100 330/10 RMK AO2 SLP252 T00221078
14840KMKG MKG20060319175511203/19/06 17:55:31  5-MIN KMKG 192255Z 33012KT 10SM CLR 02/M08 A3025 330 47 -1100 340/12 RMK AO2 SLP252 T00221078
14840KMKG MKG20060319180009503/19/06 18:00:31  5-MIN KMKG 192300Z 33011KT 10SM CLR 02/M08 A3025 320 45 -1100 340/11 RMK AO2
14840KMKG MKG20060319180509503/19/06 18:05:31  5-MIN KMKG 192305Z 32009KT 10SM CLR 02/M08 A3026 320 47 -1100 330/09 RMK AO2
14840KMKG MKG20060319181009503/19/06 18:10:31  5-MIN KMKG 192310Z 32007KT 10SM CLR 02/M08 A3026 320 47 -1100 330/07 RMK AO2
14840KMKG MKG20060319181509503/19/06 18:15:31  5-MIN KMKG 192315Z 32010KT 10SM CLR 02/M08 A3026 320 45 -1100 320/10 RMK AO2
14840KMKG MKG20060319182009503/19/06 18:20:31  5-MIN KMKG 192320Z 32007KT 10SM CLR 02/M09 A3026 320 44 -1100 330/07 RMK AO2
14840KMKG MKG20060319182509503/19/06 18:25:31  5-MIN KMKG 192325Z 32008KT 10SM CLR 02/M08 A3026 320 45 -1100 320/08 RMK AO2
14840KMKG MKG20060319183009503/19/06 18:30:31  5-MIN KMKG 192330Z 34007KT 10SM CLR 02/M09 A3026 320 44 -1100 340/07 RMK AO2
14840KMKG MKG20060319183509503/19/06 18:35:31  5-MIN KMKG 192335Z 34008KT 10SM CLR 02/M09 A3026 320 43 -1100 340/08 RMK AO2
14840KMKG MKG20060319184009503/19/06 18:40:31  5-MIN KMKG 192340Z 33009KT 10SM CLR 02/M09 A3026 320 43 -1100 340/09 RMK AO2
14840KMKG MKG20060319184509503/19/06 18:45:31  5-MIN KMKG 192345Z 34008KT 10SM CLR 01/M10 A3026 320 43 -1200 350/08 RMK AO2
14840KMKG MKG20060319185013003/19/06 18:50:31  5-MIN KMKG 192350Z 33007KT 10SM CLR 01/M09 A3026 310 45 -1200 330/07 RMK AO2 SLP257 T00111094 10033 20011 55003
14840KMKG MKG20060319185513003/19/06 18:55:31  5-MIN KMKG 192355Z 32005KT 10SM CLR 01/M09 A3026 320 45 -1200 320/05 RMK AO2 SLP256 T00111094 10033 20011 55000
14840KMKG MKG20060319190009503/19/06 19:00:31  5-MIN KMKG 200000Z 33006KT 10SM CLR 01/M09 A3026 310 45 -1200 330/06 RMK AO2
14840KMKG MKG20060319190509503/19/06 19:05:31  5-MIN KMKG 200005Z 35006KT 10SM CLR 01/M09 A3026 320 47 -1300 360/06 RMK AO2
14840KMKG MKG20060319191009503/19/06 19:10:31  5-MIN KMKG 200010Z 34007KT 10SM CLR 01/M10 A3026 320 45 -1300 350/07 RMK AO2
14840KMKG MKG20060319191509503/19/06 19:15:31  5-MIN KMKG 200015Z 35007KT 10SM CLR 01/M11 A3026 320 43 -1300 350/07 RMK AO2
14840KMKG MKG20060319192009503/19/06 19:20:31  5-MIN KMKG 200020Z 34006KT 10SM CLR 01/M11 A3026 320 43 -1300 340/06 RMK AO2
14840KMKG MKG20060319192509503/19/06 19:25:31  5-MIN KMKG 200025Z 33005KT 10SM CLR 01/M11 A3026 320 43 -1300 330/05 RMK AO2
14840KMKG MKG20060319193009503/19/06 19:30:31  5-MIN KMKG 200030Z VRB03KT 10SM CLR 01/M11 A3026 320 43 -1300 VRB/03 RMK AO2
14840KMKG MKG20060319193509503/19/06 19:35:31  5-MIN KMKG 200035Z 27003KT 10SM CLR 00/M10 A3026 320 47 -1300 280/03 RMK AO2
14840KMKG MKG20060319194009603/19/06 19:40:31  5-MIN KMKG 200040Z 26004KT 10SM CLR M01/M09 A3026 320 51 -1400 270/04 RMK AO2
14840KMKG MKG20060319194509603/19/06 19:45:31  5-MIN KMKG 200045Z 26004KT 10SM CLR M01/M09 A3026 320 53 -1500 260/04 RMK AO2
14840KMKG MKG20060319195011303/19/06 19:50:31  5-MIN KMKG 200050Z 28004KT 10SM CLR M02/M09 A3026 320 58 -1600 280/04 RMK AO2 SLP255 T10171089
14840KMKG MKG20060319195511303/19/06 19:55:31  5-MIN KMKG 200055Z 29004KT 10SM CLR M01/M08 A3026 320 58 -1500 290/04 RMK AO2 SLP255 T10111083
14840KMKG MKG20060319200009603/19/06 20:00:31  5-MIN KMKG 200100Z 29004KT 10SM CLR M01/M07 A3026 320 63 -1500 300/04 RMK AO2
14840KMKG MKG20060319200509603/19/06 20:05:31  5-MIN KMKG 200105Z 30004KT 10SM CLR M01/M07 A3025 320 61 -1400 300/04 RMK AO2
14840KMKG MKG20060319201009603/19/06 20:10:31  5-MIN KMKG 200110Z 29003KT 10SM CLR M01/M07 A3026 320 63 -1400 300/03 RMK AO2
14840KMKG MKG20060319201509603/19/06 20:15:31  5-MIN KMKG 200115Z 30004KT 10SM CLR M01/M07 A3026 320 66 -1500 300/04 RMK AO2
14840KMKG MKG20060319202009603/19/06 20:20:31  5-MIN KMKG 200120Z 31004KT 10SM CLR M01/M06 A3026 320 69 -1500 310/04 RMK AO2
14840KMKG MKG20060319202509603/19/06 20:25:31  5-MIN KMKG 200125Z 32003KT 10SM CLR M01/M06 A3026 320 69 -1400 320/03 RMK AO2
14840KMKG MKG20060319203009603/19/06 20:30:31  5-MIN KMKG 200130Z 31003KT 10SM CLR M01/M06 A3026 320 72 -1500 310/03 RMK AO2
14840KMKG MKG20060319203509603/19/06 20:35:31  5-MIN KMKG 200135Z VRB03KT 10SM CLR M01/M06 A3026 320 72 -1500 VRB/03 RMK AO2
14840KMKG MKG20060319204009603/19/06 20:40:31  5-MIN KMKG 200140Z 28003KT 10SM CLR M01/M06 A3026 320 72 -1500 280/03 RMK AO2
14840KMKG MKG20060319204509603/19/06 20:45:31  5-MIN KMKG 200145Z 27003KT 10SM CLR M01/M06 A3026 320 72 -1500 280/03 RMK AO2
14840KMKG MKG20060319205011303/19/06 20:50:31  5-MIN KMKG 200150Z 27003KT 10SM CLR M01/M06 A3026 320 72 -1500 270/03 RMK AO2 SLP255 T10111056
14840KMKG MKG20060319205511303/19/06 20:55:31  5-MIN KMKG 200155Z 27003KT 10SM CLR M02/M06 A3026 320 75 -1600 280/03 RMK AO2 SLP254 T10171056
14840KMKG MKG20060319210009603/19/06 21:00:31  5-MIN KMKG 200200Z 28003KT 10SM CLR M02/M06 A3026 320 75 -1600 280/03 RMK AO2
14840KMKG MKG20060319210509603/19/06 21:05:31  5-MIN KMKG 200205Z 29003KT 10SM CLR M01/M06 A3026 320 72 -1500 290/03 RMK AO2
14840KMKG MKG20060319211009603/19/06 21:10:31  5-MIN KMKG 200210Z 30003KT 10SM CLR M01/M06 A3026 320 72 -1500 310/03 RMK AO2
14840KMKG MKG20060319211509603/19/06 21:15:31  5-MIN KMKG 200215Z 31004KT 10SM CLR M01/M05 A3026 320 75 -1500 310/04 RMK AO2
14840KMKG MKG20060319212009603/19/06 21:20:31  5-MIN KMKG 200220Z 30003KT 10SM CLR M01/M05 A3026 320 75 -1500 310/03 RMK AO2
14840KMKG MKG20060319212509603/19/06 21:25:31  5-MIN KMKG 200225Z 30003KT 10SM CLR M01/M05 A3026 320 75 -1500 310/03 RMK AO2
14840KMKG MKG20060319213009603/19/06 21:30:31  5-MIN KMKG 200230Z 32003KT 10SM CLR M01/M05 A3026 320 75 -1500 320/03 RMK AO2
14840KMKG MKG20060319213509603/19/06 21:35:31  5-MIN KMKG 200235Z 31003KT 10SM CLR M01/M05 A3026 320 75 -1500 320/03 RMK AO2
14840KMKG MKG20060319214009603/19/06 21:40:31  5-MIN KMKG 200240Z 31004KT 10SM CLR M01/M05 A3026 320 72 -1400 320/04 RMK AO2
14840KMKG MKG20060319214509603/19/06 21:45:31  5-MIN KMKG 200245Z 33004KT 10SM CLR M01/M05 A3026 320 75 -1500 340/04 RMK AO2
14840KMKG MKG20060319215011903/19/06 21:50:31  5-MIN KMKG 200250Z 33004KT 10SM CLR M01/M05 A3026 320 75 -1500 330/04 RMK AO2 SLP254 T10111050 55000
14840KMKG MKG20060319215511903/19/06 21:55:31  5-MIN KMKG 200255Z 32004KT 10SM CLR M01/M05 A3026 320 75 -1500 330/04 RMK AO2 SLP255 T10111050 55000
14840KMKG MKG20060319220009603/19/06 22:00:31  5-MIN KMKG 200300Z 00000KT 10SM CLR M01/M05 A3026 320 75 -1500 000/00 RMK AO2
14840KMKG MKG20060319220509603/19/06 22:05:31  5-MIN KMKG 200305Z 33003KT 10SM CLR M01/M06 A3027 310 72 -1500 340/03 RMK AO2
14840KMKG MKG20060319221009603/19/06 22:10:31  5-MIN KMKG 200310Z 34003KT 10SM CLR M02/M06 A3027 310 75 -1600 350/03 RMK AO2
14840KMKG MKG20060319221509603/19/06 22:15:31  5-MIN KMKG 200315Z 34004KT 10SM CLR M02/M06 A3027 310 75 -1600 350/04 RMK AO2
14840KMKG MKG20060319222009603/19/06 22:20:31  5-MIN KMKG 200320Z 35005KT 10SM CLR M02/M06 A3027 310 75 -1600 360/05 RMK AO2
14840KMKG MKG20060319222509603/19/06 22:25:31  5-MIN KMKG 200325Z 35005KT 10SM CLR M02/M06 A3027 310 78 -1600 360/05 RMK AO2
14840KMKG MKG20060319223009603/19/06 22:30:31  5-MIN KMKG 200330Z 34005KT 10SM CLR M02/M06 A3028 300 75 -1600 350/05 RMK AO2
14840KMKG MKG20060319223509603/19/06 22:35:31  5-MIN KMKG 200335Z 34005KT 10SM CLR M02/M06 A3028 300 75 -1600 350/05 RMK AO2
14840KMKG MKG20060319224009603/19/06 22:40:31  5-MIN KMKG 200340Z 34006KT 10SM CLR M01/M06 A3028 300 72 -1500 350/06 RMK AO2
14840KMKG MKG20060319224509603/19/06 22:45:31  5-MIN KMKG 200345Z 33005KT 10SM CLR M02/M06 A3028 300 75 -1600 340/05 RMK AO2
14840KMKG MKG20060319225011303/19/06 22:50:31  5-MIN KMKG 200350Z 34008KT 10SM CLR M02/M06 A3028 300 75 -1600 340/08 RMK AO2 SLP262 T10171056
14840KMKG MKG20060319225511303/19/06 22:55:31  5-MIN KMKG 200355Z 34007KT 10SM CLR M01/M06 A3029 290 72 -1500 340/07 RMK AO2 SLP264 T10111056
14840KMKG MKG20060319230009603/19/06 23:00:31  5-MIN KMKG 200400Z 33006KT 10SM CLR M01/M06 A3029 290 72 -1500 340/06 RMK AO2
14840KMKG MKG20060319230509603/19/06 23:05:31  5-MIN KMKG 200405Z 34006KT 10SM CLR M01/M06 A3029 290 72 -1500 350/06 RMK AO2
14840KMKG MKG20060319231009603/19/06 23:10:31  5-MIN KMKG 200410Z 36006KT 10SM CLR M01/M06 A3029 290 72 -1500 360/06 RMK AO2
14840KMKG MKG20060319231509603/19/06 23:15:31  5-MIN KMKG 200415Z 01010KT 10SM CLR M01/M06 A3029 290 72 -1500 010/10 RMK AO2
14840KMKG MKG20060319232009603/19/06 23:20:31  5-MIN KMKG 200420Z 01010KT 10SM CLR M01/M06 A3029 290 72 -1500 010/10 RMK AO2
14840KMKG MKG20060319232509603/19/06 23:25:31  5-MIN KMKG 200425Z 01011KT 10SM CLR M01/M06 A3030 280 69 -1500 010/11 RMK AO2
14840KMKG MKG20060319233010203/19/06 23:30:31  5-MIN KMKG 200430Z 01011G18KT 10SM CLR M01/M07 A3029 290 66 -1500 010/11G18 RMK AO2
14840KMKG MKG20060319233510203/19/06 23:35:31  5-MIN KMKG 200435Z 01011G18KT 10SM CLR M01/M07 A3029 290 66 -1500 010/11G18 RMK AO2
14840KMKG MKG20060319234009603/19/06 23:40:31  5-MIN KMKG 200440Z 01010KT 10SM CLR M01/M07 A3029 290 63 -1500 010/10 RMK AO2
14840KMKG MKG20060319234509603/19/06 23:45:31  5-MIN KMKG 200445Z 02010KT 10SM CLR M01/M07 A3029 290 63 -1500 020/10 RMK AO2
14840KMKG MKG20060319235012303/19/06 23:50:31  5-MIN KMKG 200450Z 01008KT 10SM CLR M01/M08 A3029 290 60 -1500 020/08 RMK AO2 SLP265 T10111078 400331039
14840KMKG MKG20060319235512303/19/06 23:55:31  5-MIN KMKG 200455Z 01007KT 10SM CLR M01/M08 A3029 290 60 -1500 010/07 RMK AO2 SLP264 T10111078 400331039
14840KMKG MKG20060320000009603/20/06 00:00:32  5-MIN KMKG 200500Z 01009KT 10SM CLR M02/M08 A3029 290 63 -1600 010/09 RMK AO2
14840KMKG MKG20060320000509603/20/06 00:05:31  5-MIN KMKG 200505Z 36008KT 10SM CLR M01/M08 A3029 290 60 -1500 010/08 RMK AO2
14840KMKG MKG20060320001009603/20/06 00:10:31  5-MIN KMKG 200510Z 01009KT 10SM CLR M02/M08 A3029 290 63 -1600 010/09 RMK AO2
14840KMKG MKG20060320001509603/20/06 00:15:31  5-MIN KMKG 200515Z 01009KT 10SM CLR M02/M08 A3029 290 63 -1600 010/09 RMK AO2
14840KMKG MKG20060320002009603/20/06 00:20:31  5-MIN KMKG 200520Z 02009KT 10SM CLR M02/M08 A3029 290 60 -1600 020/09 RMK AO2
14840KMKG MKG20060320002509603/20/06 00:25:31  5-MIN KMKG 200525Z 01009KT 10SM CLR M02/M08 A3028 300 60 -1600 020/09 RMK AO2
14840KMKG MKG20060320003009603/20/06 00:30:31  5-MIN KMKG 200530Z 02009KT 10SM CLR M02/M08 A3028 300 60 -1600 020/09 RMK AO2
14840KMKG MKG20060320003509603/20/06 00:35:31  5-MIN KMKG 200535Z 02009KT 10SM CLR M02/M08 A3028 300 60 -1600 020/09 RMK AO2
14840KMKG MKG20060320004009603/20/06 00:40:31  5-MIN KMKG 200540Z 02009KT 10SM CLR M02/M08 A3029 290 60 -1600 030/09 RMK AO2
14840KMKG MKG20060320004509603/20/06 00:45:31  5-MIN KMKG 200545Z 02008KT 10SM CLR M02/M08 A3029 290 60 -1600 030/08 RMK AO2
14840KMKG MKG20060320005013103/20/06 00:50:31  5-MIN KMKG 200550Z 02008KT 10SM CLR M02/M08 A3029 290 60 -1600 030/08 RMK AO2 SLP264 T10171083 10011 21022 55000
14840KMKG MKG20060320005513103/20/06 00:55:31  5-MIN KMKG 200555Z 02008KT 10SM CLR M02/M08 A3028 300 63 -1700 020/08 RMK AO2 SLP263 T10221083 10011 21022 50008
14840KMKG MKG20060320010009603/20/06 01:00:31  5-MIN KMKG 200600Z 01009KT 10SM CLR M02/M08 A3029 290 60 -1600 020/09 RMK AO2
14840KMKG MKG20060320010509603/20/06 01:05:31  5-MIN KMKG 200605Z 02009KT 10SM CLR M02/M08 A3029 290 63 -1700 020/09 RMK AO2
14840KMKG MKG20060320011009603/20/06 01:10:31  5-MIN KMKG 200610Z 02009KT 10SM CLR M02/M08 A3029 290 60 -1600 020/09 RMK AO2
14840KMKG MKG20060320011509603/20/06 01:15:31  5-MIN KMKG 200615Z 02008KT 10SM CLR M02/M08 A3029 290 63 -1700 020/08 RMK AO2
14840KMKG MKG20060320012009603/20/06 01:20:31  5-MIN KMKG 200620Z 02007KT 10SM CLR M02/M09 A3030 280 60 -1700 020/07 RMK AO2
14840KMKG MKG20060320012509603/20/06 01:25:31  5-MIN KMKG 200625Z 01007KT 10SM CLR M02/M09 A3030 280 60 -1700 020/07 RMK AO2
14840KMKG MKG20060320013009603/20/06 01:30:31  5-MIN KMKG 200630Z 01007KT 10SM CLR M02/M09 A3030 280 60 -1700 010/07 RMK AO2
14840KMKG MKG20060320013509603/20/06 01:35:31  5-MIN KMKG 200635Z 02007KT 10SM CLR M02/M09 A3030 280 60 -1700 020/07 RMK AO2
14840KMKG MKG20060320014009603/20/06 01:40:31  5-MIN KMKG 200640Z 01008KT 10SM CLR M02/M09 A3030 280 60 -1700 020/08 RMK AO2
14840KMKG MKG20060320014509603/20/06 01:45:31  5-MIN KMKG 200645Z 01007KT 10SM CLR M02/M09 A3030 280 60 -1700 020/07 RMK AO2
14840KMKG MKG20060320015011303/20/06 01:50:31  5-MIN KMKG 200650Z 02007KT 10SM CLR M02/M09 A3030 280 60 -1700 020/07 RMK AO2 SLP269 T10221089
14840KMKG MKG20060320015511303/20/06 01:55:31  5-MIN KMKG 200655Z 02006KT 10SM CLR M03/M09 A3031 280 63 -1800 020/06 RMK AO2 SLP270 T10281089
14840KMKG MKG20060320020009603/20/06 02:00:31  5-MIN KMKG 200700Z 02006KT 10SM CLR M03/M09 A3031 270 63 -1800 020/06 RMK AO2
14840KMKG MKG20060320020509603/20/06 02:05:31  5-MIN KMKG 200705Z 01006KT 10SM CLR M03/M09 A3031 270 63 -1800 020/06 RMK AO2
14840KMKG MKG20060320021009603/20/06 02:10:31  5-MIN KMKG 200710Z 02006KT 10SM CLR M03/M09 A3031 270 63 -1800 020/06 RMK AO2
14840KMKG MKG20060320021509603/20/06 02:15:31  5-MIN KMKG 200715Z 01005KT 10SM CLR M03/M09 A3032 270 63 -1800 020/05 RMK AO2
14840KMKG MKG20060320022009603/20/06 02:20:31  5-MIN KMKG 200720Z 01006KT 10SM CLR M03/M09 A3032 260 63 -1800 010/06 RMK AO2
14840KMKG MKG20060320022509603/20/06 02:25:31  5-MIN KMKG 200725Z 02005KT 10SM CLR M03/M09 A3032 260 63 -1800 020/05 RMK AO2
14840KMKG MKG20060320023009603/20/06 02:30:31  5-MIN KMKG 200730Z 01005KT 10SM CLR M03/M09 A3032 260 63 -1800 020/05 RMK AO2
14840KMKG MKG20060320023509603/20/06 02:35:31  5-MIN KMKG 200735Z 01004KT 10SM CLR M03/M09 A3032 260 65 -1800 010/04 RMK AO2
14840KMKG MKG20060320024009603/20/06 02:40:31  5-MIN KMKG 200740Z 00000KT 10SM CLR M03/M09 A3032 260 63 -1800 000/00 RMK AO2
14840KMKG MKG20060320024509603/20/06 02:45:31  5-MIN KMKG 200745Z 00000KT 10SM CLR M03/M09 A3033 260 65 -1800 000/00 RMK AO2
14840KMKG MKG20060320025011303/20/06 02:50:31  5-MIN KMKG 200750Z 00000KT 10SM CLR M03/M09 A3032 260 65 -1800 000/00 RMK AO2 SLP276 T10331089
14840KMKG MKG20060320025511303/20/06 02:55:31  5-MIN KMKG 200755Z 36003KT 10SM CLR M03/M09 A3032 260 65 -1800 010/03 RMK AO2 SLP274 T10331089
14840KMKG MKG20060320030009603/20/06 03:00:31  5-MIN KMKG 200800Z 01004KT 10SM CLR M03/M09 A3032 260 65 -1800 010/04 RMK AO2
14840KMKG MKG20060320030509603/20/06 03:05:31  5-MIN KMKG 200805Z 36004KT 10SM CLR M03/M09 A3032 260 65 -1800 010/04 RMK AO2
14840KMKG MKG20060320031009603/20/06 03:10:31  5-MIN KMKG 200810Z 36004KT 10SM CLR M03/M09 A3032 260 65 -1800 360/04 RMK AO2
14840KMKG MKG20060320031509603/20/06 03:15:31  5-MIN KMKG 200815Z 36003KT 10SM CLR M04/M09 A3032 260 68 -2000 360/03 RMK AO2
14840KMKG MKG20060320032009603/20/06 03:20:31  5-MIN KMKG 200820Z 36004KT 10SM CLR M04/M09 A3032 270 68 -1900 010/04 RMK AO2
14840KMKG MKG20060320032509603/20/06 03:25:31  5-MIN KMKG 200825Z 36004KT 10SM CLR M04/M09 A3031 270 68 -1900 360/04 RMK AO2
14840KMKG MKG20060320033009603/20/06 03:30:31  5-MIN KMKG 200830Z 36004KT 10SM CLR M04/M09 A3031 270 68 -1900 360/04 RMK AO2
14840KMKG MKG20060320033509603/20/06 03:35:31  5-MIN KMKG 200835Z 35003KT 10SM CLR M04/M09 A3032 260 68 -1900 360/03 RMK AO2
14840KMKG MKG20060320034009603/20/06 03:40:31  5-MIN KMKG 200840Z 36004KT 10SM CLR M04/M09 A3032 260 68 -1900 360/04 RMK AO2
14840KMKG MKG20060320034509603/20/06 03:45:31  5-MIN KMKG 200845Z 36004KT 10SM CLR M04/M09 A3032 270 71 -2000 360/04 RMK AO2
14840KMKG MKG20060320035011903/20/06 03:50:31  5-MIN KMKG 200850Z 01005KT 10SM CLR M04/M09 A3031 270 68 -1900 010/05 RMK AO2 SLP273 T10391089 50008
14840KMKG MKG20060320035511903/20/06 03:55:31  5-MIN KMKG 200855Z 01005KT 10SM CLR M04/M09 A3031 270 68 -1900 010/05 RMK AO2 SLP272 T10391089 50008
14840KMKG MKG20060320040009603/20/06 04:00:31  5-MIN KMKG 200900Z 01005KT 10SM CLR M04/M09 A3031 270 68 -1900 010/05 RMK AO2
14840KMKG MKG20060320040509603/20/06 04:05:31  5-MIN KMKG 200905Z 01005KT 10SM CLR M04/M09 A3031 270 68 -1900 010/05 RMK AO2
14840KMKG MKG20060320041009603/20/06 04:10:31  5-MIN KMKG 200910Z 01005KT 10SM CLR M04/M09 A3031 280 68 -1900 010/05 RMK AO2
14840KMKG MKG20060320041509603/20/06 04:15:31  5-MIN KMKG 200915Z 01005KT 10SM CLR M04/M09 A3031 270 68 -1900 010/05 RMK AO2
14840KMKG MKG20060320042009603/20/06 04:20:31  5-MIN KMKG 200920Z 36004KT 10SM CLR M04/M09 A3031 280 68 -1900 010/04 RMK AO2
14840KMKG MKG20060320042509603/20/06 04:25:31  5-MIN KMKG 200925Z 36005KT 10SM CLR M04/M09 A3030 280 68 -1900 010/05 RMK AO2
14840KMKG MKG20060320043009603/20/06 04:30:31  5-MIN KMKG 200930Z 01005KT 10SM CLR M04/M09 A3030 280 71 -2000 010/05 RMK AO2
14840KMKG MKG20060320043509603/20/06 04:35:31  5-MIN KMKG 200935Z 01004KT 10SM CLR M04/M09 A3030 280 68 -1900 010/04 RMK AO2
14840KMKG MKG20060320044009603/20/06 04:40:31  5-MIN KMKG 200940Z 01005KT 10SM CLR M04/M09 A3030 280 68 -1900 010/05 RMK AO2
14840KMKG MKG20060320044509603/20/06 04:45:31  5-MIN KMKG 200945Z 36005KT 10SM CLR M04/M09 A3030 280 71 -2000 010/05 RMK AO2
14840KMKG MKG20060320045011303/20/06 04:50:31  5-MIN KMKG 200950Z 01005KT 10SM CLR M04/M09 A3030 280 71 -2000 010/05 RMK AO2 SLP269 T10441089
14840KMKG MKG20060320045511303/20/06 04:55:31  5-MIN KMKG 200955Z 01005KT 10SM CLR M04/M09 A3030 280 68 -1900 010/05 RMK AO2 SLP268 T10391089
14840KMKG MKG20060320050009603/20/06 05:00:31  5-MIN KMKG 201000Z 01006KT 10SM CLR M04/M09 A3030 280 68 -1900 010/06 RMK AO2
14840KMKG MKG20060320050509603/20/06 05:05:31  5-MIN KMKG 201005Z 01005KT 10SM CLR M04/M09 A3029 290 71 -2000 020/05 RMK AO2
14840KMKG MKG20060320051009603/20/06 05:10:31  5-MIN KMKG 201010Z 01005KT 10SM CLR M04/M09 A3029 290 71 -2000 020/05 RMK AO2
14840KMKG MKG20060320051509603/20/06 05:15:31  5-MIN KMKG 201015Z 01005KT 10SM CLR M04/M09 A3029 290 68 -2000 010/05 RMK AO2
14840KMKG MKG20060320052009603/20/06 05:20:31  5-MIN KMKG 201020Z 01005KT 10SM CLR M04/M09 A3029 290 68 -1900 010/05 RMK AO2
14840KMKG MKG20060320052509603/20/06 05:25:31  5-MIN KMKG 201025Z 01006KT 10SM CLR M04/M09 A3028 300 71 -1900 010/06 RMK AO2
14840KMKG MKG20060320053009603/20/06 05:30:31  5-MIN KMKG 201030Z 02005KT 10SM CLR M04/M09 A3028 300 71 -1900 020/05 RMK AO2
14840KMKG MKG20060320053509603/20/06 05:35:31  5-MIN KMKG 201035Z 02006KT 10SM CLR M04/M09 A3028 300 68 -1900 030/06 RMK AO2
14840KMKG MKG20060320054009603/20/06 05:40:31  5-MIN KMKG 201040Z 02006KT 10SM CLR M04/M09 A3028 300 68 -1900 030/06 RMK AO2
14840KMKG MKG20060320054509603/20/06 05:45:31  5-MIN KMKG 201045Z 02005KT 10SM CLR M04/M09 A3028 300 68 -1900 030/05 RMK AO2
14840KMKG MKG20060320055011303/20/06 05:50:31  5-MIN KMKG 201050Z 02006KT 10SM CLR M04/M09 A3028 300 68 -1900 020/06 RMK AO2 SLP262 T10391089
14840KMKG MKG20060320055511303/20/06 05:55:31  5-MIN KMKG 201055Z 02007KT 10SM CLR M04/M09 A3028 300 68 -1900 030/07 RMK AO2 SLP260 T10391089
14840KMKG MKG20060320060009603/20/06 06:00:31  5-MIN KMKG 201100Z 02007KT 10SM CLR M04/M09 A3028 300 68 -1900 030/07 RMK AO2
14840KMKG MKG20060320060509603/20/06 06:05:31  5-MIN KMKG 201105Z 02006KT 10SM CLR M04/M09 A3028 300 68 -1900 020/06 RMK AO2
14840KMKG MKG20060320061009603/20/06 06:10:31  5-MIN KMKG 201110Z 02006KT 10SM CLR M04/M09 A3027 300 68 -1900 030/06 RMK AO2
14840KMKG MKG20060320061509603/20/06 06:15:31  5-MIN KMKG 201115Z 02007KT 10SM CLR M04/M09 A3028 300 68 -1900 030/07 RMK AO2
14840KMKG MKG20060320062009603/20/06 06:20:31  5-MIN KMKG 201120Z 02007KT 10SM CLR M04/M09 A3028 300 68 -1900 020/07 RMK AO2
14840KMKG MKG20060320062509603/20/06 06:25:31  5-MIN KMKG 201125Z 02007KT 10SM CLR M03/M09 A3028 300 65 -1800 020/07 RMK AO2
14840KMKG MKG20060320063009603/20/06 06:30:31  5-MIN KMKG 201130Z 02007KT 10SM CLR M04/M09 A3028 300 68 -1900 020/07 RMK AO2
14840KMKG MKG20060320063509603/20/06 06:35:31  5-MIN KMKG 201135Z 02007KT 10SM CLR M03/M09 A3028 300 63 -1800 030/07 RMK AO2
14840KMKG MKG20060320064009603/20/06 06:40:31  5-MIN KMKG 201140Z 02008KT 10SM CLR M03/M09 A3028 300 65 -1800 020/08 RMK AO2
14840KMKG MKG20060320064509603/20/06 06:45:31  5-MIN KMKG 201145Z 02009KT 10SM CLR M03/M09 A3029 290 65 -1800 020/09 RMK AO2
14840KMKG MKG20060320065013103/20/06 06:50:31  5-MIN KMKG 201150Z 02007KT 10SM CLR M03/M09 A3029 290 65 -1800 020/07 RMK AO2 SLP265 T10331089 11017 21044 50008
14840KMKG MKG20060320065513103/20/06 06:55:31  5-MIN KMKG 201155Z 02008KT 10SM CLR M03/M09 A3030 280 63 -1700 020/08 RMK AO2 SLP268 T10281089 11017 21044 55004
14840KMKG MKG20060320070009603/20/06 07:00:31  5-MIN KMKG 201200Z 02007KT 10SM CLR M03/M09 A3030 280 63 -1700 020/07 RMK AO2
14840KMKG MKG20060320070509603/20/06 07:05:31  5-MIN KMKG 201205Z 02007KT 10SM CLR M03/M09 A3030 280 63 -1800 020/07 RMK AO2
14840KMKG MKG20060320071009603/20/06 07:10:31  5-MIN KMKG 201210Z 02008KT 10SM CLR M03/M09 A3030 280 63 -1700 020/08 RMK AO2
14840KMKG MKG20060320071509603/20/06 07:15:31  5-MIN KMKG 201215Z 02009KT 10SM CLR M03/M09 A3030 280 63 -1700 030/09 RMK AO2
14840KMKG MKG20060320072009603/20/06 07:20:31  5-MIN KMKG 201220Z 02010KT 10SM CLR M02/M09 A3029 290 58 -1700 020/10 RMK AO2
14840KMKG MKG20060320072509603/20/06 07:25:31  5-MIN KMKG 201225Z 02007KT 10SM CLR M02/M09 A3029 290 60 -1700 020/07 RMK AO2
14840KMKG MKG20060320073009603/20/06 07:30:31  5-MIN KMKG 201230Z 03009KT 10SM CLR M03/M09 A3030 280 60 -1700 030/09 RMK AO2
14840KMKG MKG20060320073509603/20/06 07:35:31  5-MIN KMKG 201235Z 02007KT 10SM CLR M02/M09 A3030 280 58 -1700 020/07 RMK AO2
14840KMKG MKG20060320074009603/20/06 07:40:31  5-MIN KMKG 201240Z 03008KT 10SM CLR M02/M09 A3030 280 58 -1700 040/08 RMK AO2
14840KMKG MKG20060320074509603/20/06 07:45:31  5-MIN KMKG 201245Z 04008KT 10SM CLR M02/M09 A3030 280 58 -1700 040/08 RMK AO2
14840KMKG MKG20060320075011903/20/06 07:50:31  5-MIN KMKG 201250Z 04011G16KT 10SM CLR M02/M09 A3030 280 58 -1700 040/11G16 RMK AO2 SLP270 T10221094
14840KMKG MKG20060320075512203/20/06 07:55:31  5-MIN KMKG 201255Z 04009G16KT 10SM FEW110 M02/M09 A3030 280 58 -1700 040/09G16 RMK AO2 SLP271 T10221094
14840KMKG MKG20060320080009603/20/06 08:00:31  5-MIN KMKG 201300Z 04009KT 10SM CLR M02/M09 A3030 280 58 -1700 040/09 RMK AO2
14840KMKG MKG20060320080509603/20/06 08:05:31  5-MIN KMKG 201305Z 04008KT 10SM CLR M02/M09 A3030 280 58 -1700 040/08 RMK AO2
14840KMKG MKG20060320081009603/20/06 08:10:31  5-MIN KMKG 201310Z 05008KT 10SM CLR M02/M09 A3030 280 58 -1700 060/08 RMK AO2
14840KMKG MKG20060320081509603/20/06 08:15:31  5-MIN KMKG 201315Z 05008KT 10SM CLR M02/M09 A3030 280 55 -1600 060/08 RMK AO2
14840KMKG MKG20060320082009603/20/06 08:20:31  5-MIN KMKG 201320Z 05007KT 10SM CLR M02/M09 A3030 280 55 -1600 060/07 RMK AO2
14840KMKG MKG20060320082509603/20/06 08:25:31  5-MIN KMKG 201325Z 05008KT 10SM CLR M02/M09 A3030 280 55 -1600 060/08 RMK AO2
14840KMKG MKG20060320083009603/20/06 08:30:31  5-MIN KMKG 201330Z 06009KT 10SM CLR M02/M09 A3029 290 55 -1600 070/09 RMK AO2
14840KMKG MKG20060320083509603/20/06 08:35:31  5-MIN KMKG 201335Z 06008KT 10SM CLR M02/M09 A3029 290 55 -1600 060/08 RMK AO2
14840KMKG MKG20060320084009603/20/06 08:40:31  5-MIN KMKG 201340Z 06008KT 10SM CLR M02/M09 A3029 290 55 -1600 060/08 RMK AO2
14840KMKG MKG20060320084509603/20/06 08:45:31  5-MIN KMKG 201345Z 05007KT 10SM CLR M01/M09 A3029 290 55 -1500 050/07 RMK AO2
14840KMKG MKG20060320085011603/20/06 08:50:31  5-MIN KMKG 201350Z 06007KT 10SM FEW110 M01/M09 A3029 290 55 -1500 070/07 RMK AO2 SLP267 T10111089
14840KMKG MKG20060320085511603/20/06 08:55:31  5-MIN KMKG 201355Z 04008KT 10SM FEW110 M01/M09 A3029 290 55 -1500 040/08 RMK AO2 SLP267 T10111089
14840KMKG MKG20060320090009603/20/06 09:00:31  5-MIN KMKG 201400Z 06007KT 10SM CLR M01/M09 A3030 280 53 -1500 060/07 RMK AO2
14840KMKG MKG20060320090509603/20/06 09:05:31  5-MIN KMKG 201405Z 07008KT 10SM CLR M01/M09 A3030 280 53 -1500 070/08 RMK AO2
14840KMKG MKG20060320091009603/20/06 09:10:31  5-MIN KMKG 201410Z 07008KT 10SM CLR M01/M09 A3030 280 53 -1500 080/08 RMK AO2
14840KMKG MKG20060320091509603/20/06 09:15:31  5-MIN KMKG 201415Z 06010KT 10SM CLR M01/M09 A3030 280 51 -1500 070/10 RMK AO2
14840KMKG MKG20060320092009603/20/06 09:20:31  5-MIN KMKG 201420Z 05010KT 10SM CLR M01/M09 A3030 280 51 -1500 050/10 RMK AO2
14840KMKG MKG20060320092509603/20/06 09:25:31  5-MIN KMKG 201425Z 07009KT 10SM CLR M01/M10 A3030 280 49 -1500 070/09 RMK AO2
14840KMKG MKG20060320093009603/20/06 09:30:31  5-MIN KMKG 201430Z 06009KT 10SM CLR M01/M09 A3030 280 51 -1500 070/09 RMK AO2
14840KMKG MKG20060320093510203/20/06 09:35:31  5-MIN KMKG 201435Z 07012G16KT 10SM CLR M01/M10 A3031 280 49 -1500 070/12G16 RMK AO2
14840KMKG MKG20060320094009603/20/06 09:40:31  5-MIN KMKG 201440Z 04009KT 10SM CLR M01/M11 A3031 270 47 -1500 050/09 RMK AO2
14840KMKG MKG20060320094509603/20/06 09:45:31  5-MIN KMKG 201445Z 04008KT 10SM CLR M01/M10 A3031 270 49 -1500 050/08 RMK AO2
14840KMKG MKG20060320095011903/20/06 09:50:31  5-MIN KMKG 201450Z 07010KT 10SM CLR M01/M11 A3031 270 47 -1500 080/10 RMK AO2 SLP272 T10061106 55004
14840KMKG MKG20060320095512103/20/06 09:55:31  5-MIN KMKG 201455Z 05011KT 10SM FEW100 00/M11 A3031 270 45 -1400 060/11 RMK AO2 SLP273 T00001106 53005
14840KMKG MKG20060320100009603/20/06 10:00:31  5-MIN KMKG 201500Z 06013KT 10SM CLR M01/M11 A3031 270 45 -1500 060/13 RMK AO2
14840KMKG MKG20060320100509503/20/06 10:05:31  5-MIN KMKG 201505Z 05011KT 10SM CLR 00/M11 A3031 270 43 -1400 050/11 RMK AO2
14840KMKG MKG20060320101009503/20/06 10:10:31  5-MIN KMKG 201510Z 05007KT 10SM CLR 00/M11 A3031 270 45 -1400 060/07 RMK AO2
14840KMKG MKG20060320101509503/20/06 10:15:31  5-MIN KMKG 201515Z 03011KT 10SM CLR 00/M11 A3031 280 43 -1400 030/11 RMK AO2
14840KMKG MKG20060320102009503/20/06 10:20:31  5-MIN KMKG 201520Z 05009KT 10SM CLR 01/M11 A3030 280 43 -1300 050/09 RMK AO2
14840KMKG MKG20060320102509503/20/06 10:25:31  5-MIN KMKG 201525Z 03010KT 10SM CLR 01/M11 A3030 280 43 -1300 030/10 RMK AO2
14840KMKG MKG20060320103009503/20/06 10:30:31  5-MIN KMKG 201530Z 05008KT 10SM CLR 01/M11 A3030 280 41 -1300 060/08 RMK AO2
14840KMKG MKG20060320103509503/20/06 10:35:31  5-MIN KMKG 201535Z 08011KT 10SM CLR 01/M11 A3029 290 41 -1200 080/11 RMK AO2
14840KMKG MKG20060320104010103/20/06 10:40:31  5-MIN KMKG 201540Z 07009G14KT 10SM CLR 01/M11 A3030 280 41 -1300 080/09G14 RMK AO2
14840KMKG MKG20060320104510103/20/06 10:45:31  5-MIN KMKG 201545Z 08009G17KT 10SM CLR 01/M11 A3030 280 41 -1300 080/09G17 RMK AO2
14840KMKG MKG20060320105011803/20/06 10:50:31  5-MIN KMKG 201550Z 07009G17KT 10SM CLR 01/M11 A3031 280 41 -1300 070/09G17 RMK AO2 SLP270 T00061111
14840KMKG MKG20060320105511803/20/06 10:55:31  5-MIN KMKG 201555Z 09008G15KT 10SM CLR 01/M11 A3030 280 41 -1300 090/08G15 RMK AO2 SLP268 T00111106
14840KMKG MKG20060320110009503/20/06 11:00:31  5-MIN KMKG 201600Z 04007KT 10SM CLR 01/M11 A3030 280 41 -1300 050/07 RMK AO2
14840KMKG MKG20060320110509503/20/06 11:05:31  5-MIN KMKG 201605Z 04010KT 10SM CLR 01/M11 A3030 280 41 -1300 040/10 RMK AO2
14840KMKG MKG20060320111009503/20/06 11:10:31  5-MIN KMKG 201610Z 04006KT 10SM CLR 01/M11 A3030 280 41 -1300 040/06 RMK AO2
14840KMKG MKG20060320111509503/20/06 11:15:31  5-MIN KMKG 201615Z 06004KT 10SM CLR 01/M11 A3031 280 41 -1300 070/04 RMK AO2
14840KMKG MKG20060320112009503/20/06 11:20:31  5-MIN KMKG 201620Z 02006KT 10SM CLR 02/M11 A3031 280 40 -1200 030/06 RMK AO2
14840KMKG MKG20060320112509503/20/06 11:25:31  5-MIN KMKG 201625Z VRB04KT 10SM CLR 02/M11 A3031 270 40 -1200 VRB/04 RMK AO2
14840KMKG MKG20060320113009503/20/06 11:30:31  5-MIN KMKG 201630Z VRB04KT 10SM CLR 02/M11 A3031 270 40 -1200 VRB/04 RMK AO2
14840KMKG MKG20060320113509503/20/06 11:35:31  5-MIN KMKG 201635Z 05005KT 10SM CLR 02/M11 A3031 280 40 -1200 050/05 RMK AO2
14840KMKG MKG20060320114009503/20/06 11:40:31  5-MIN KMKG 201640Z VRB05KT 10SM CLR 02/M11 A3030 280 40 -1200 VRB/05 RMK AO2
14840KMKG MKG20060320114509503/20/06 11:45:31  5-MIN KMKG 201645Z 06008KT 10SM CLR 02/M11 A3030 280 38 -1100 060/08 RMK AO2
14840KMKG MKG20060320115011203/20/06 11:50:31  5-MIN KMKG 201650Z VRB05KT 10SM CLR 02/M11 A3029 290 38 -1100 VRB/05 RMK AO2 SLP266 T00221106
14840KMKG MKG20060320115511503/20/06 11:55:31  5-MIN KMKG 201655Z 10009KT 10SM FEW100 02/M11 A3029 290 38 -1200 110/09 RMK AO2 SLP266 T00171111
14840KMKG MKG20060320120009503/20/06 12:00:31  5-MIN KMKG 201700Z 11008KT 10SM CLR 02/M11 A3029 290 37 -1100 110/08 RMK AO2
14840KMKG MKG20060320120509503/20/06 12:05:31  5-MIN KMKG 201705Z 11007KT 10SM CLR 02/M11 A3029 290 37 -1100 110/07 RMK AO2
14840KMKG MKG20060320121009503/20/06 12:10:31  5-MIN KMKG 201710Z 12006KT 10SM CLR 02/M11 A3029 290 38 -1100 120/06 RMK AO2
14840KMKG MKG20060320121509503/20/06 12:15:31  5-MIN KMKG 201715Z VRB05KT 10SM CLR 03/M11 A3029 290 37 -1000 VRB/05 RMK AO2
14840KMKG MKG20060320122010103/20/06 12:20:31  5-MIN KMKG 201720Z 09005G14KT 10SM CLR 02/M11 A3029 290 38 -1100 090/05G14 RMK AO2
14840KMKG MKG20060320122510103/20/06 12:25:31  5-MIN KMKG 201725Z 08008G14KT 10SM CLR 03/M11 A3029 290 37 -1000 080/08G14 RMK AO2
14840KMKG MKG20060320123009503/20/06 12:30:31  5-MIN KMKG 201730Z 07008KT 10SM CLR 03/M11 A3029 290 37 -1000 070/08 RMK AO2
14840KMKG MKG20060320123509503/20/06 12:35:31  5-MIN KMKG 201735Z VRB04KT 10SM CLR 03/M11 A3029 290 37 -1000 VRB/04 RMK AO2
14840KMKG MKG20060320124009503/20/06 12:40:31  5-MIN KMKG 201740Z 03008KT 10SM CLR 03/M11 A3028 300 35 -1000 040/08 RMK AO2
14840KMKG MKG20060320124509503/20/06 12:45:31  5-MIN KMKG 201745Z VRB05KT 10SM CLR 03/M11 A3028 300 37 -1000 VRB/05 RMK AO2
14840KMKG MKG20060320125013003/20/06 12:50:31  5-MIN KMKG 201750Z 04007KT 10SM CLR 03/M11 A3028 300 35 -1000 050/07 RMK AO2 SLP261 T00331106 10033 21028 53005
14840KMKG MKG20060320125513003/20/06 12:55:31  5-MIN KMKG 201755Z VRB05KT 10SM CLR 03/M11 A3028 300 35 -1000 VRB/05 RMK AO2 SLP262 T00331106 10033 21028 56011
14840KMKG MKG20060320130009503/20/06 13:00:31  5-MIN KMKG 201800Z 04005KT 10SM CLR 03/M11 A3028 300 35 -1000 040/05 RMK AO2
14840KMKG MKG20060320130509403/20/06 13:05:31  5-MIN KMKG 201805Z VRB06KT 10SM CLR 04/M10 A3028 300 35 -900 VRB/06 RMK AO2
14840KMKG MKG20060320131009503/20/06 13:10:31  5-MIN KMKG 201810Z VRB05KT 10SM CLR 03/M11 A3028 300 35 -1000 VRB/05 RMK AO2
14840KMKG MKG20060320131509503/20/06 13:15:31  5-MIN KMKG 201815Z 09008KT 10SM CLR 03/M11 A3028 300 35 -1000 100/08 RMK AO2
14840KMKG MKG20060320132009403/20/06 13:20:31  5-MIN KMKG 201820Z 10006KT 10SM CLR 03/M11 A3028 300 35 -900 100/06 RMK AO2
14840KMKG MKG20060320132510003/20/06 13:25:31  5-MIN KMKG 201825Z 07009G18KT 10SM CLR 04/M11 A3027 300 34 -900 080/09G18 RMK AO2
14840KMKG MKG20060320133010003/20/06 13:30:31  5-MIN KMKG 201830Z 03007G18KT 10SM CLR 04/M10 A3028 300 35 -900 030/07G18 RMK AO2
14840KMKG MKG20060320133511003/20/06 13:35:31  5-MIN KMKG 201835Z 04007KT 360V060 10SM CLR 04/M10 A3027 310 35 -900 040/07 360V060 RMK AO2
14840KMKG MKG20060320134009403/20/06 13:40:31  5-MIN KMKG 201840Z VRB05KT 10SM CLR 04/M11 A3027 310 34 -900 VRB/05 RMK AO2
14840KMKG MKG20060320134509403/20/06 13:45:31  5-MIN KMKG 201845Z 36008KT 10SM CLR 04/M10 A3027 310 34 -800 010/08 RMK AO2
14840KMKG MKG20060320135011103/20/06 13:50:31  5-MIN KMKG 201850Z 01007KT 10SM CLR 04/M10 A3027 310 34 -800 010/07 RMK AO2 SLP257 T00441100
14840KMKG MKG20060320135511103/20/06 13:55:31  5-MIN KMKG 201855Z 34007KT 10SM CLR 04/M10 A3026 310 34 -800 340/07 RMK AO2 SLP255 T00441100
14840KMKG MKG20060320140009403/20/06 14:00:31  5-MIN KMKG 201900Z 08007KT 10SM CLR 04/M10 A3026 320 34 -800 080/07 RMK AO2
14840KMKG MKG20060320140509403/20/06 14:05:31  5-MIN KMKG 201905Z 10007KT 10SM CLR 04/M10 A3026 320 34 -800 110/07 RMK AO2
14840KMKG MKG20060320141009403/20/06 14:10:31  5-MIN KMKG 201910Z VRB03KT 10SM CLR 04/M11 A3026 320 33 -800 VRB/03 RMK AO2
14840KMKG MKG20060320141509403/20/06 14:15:31  5-MIN KMKG 201915Z 06009KT 10SM CLR 04/M11 A3026 320 33 -800 060/09 RMK AO2
14840KMKG MKG20060320142009403/20/06 14:20:31  5-MIN KMKG 201920Z VRB05KT 10SM CLR 04/M10 A3025 330 34 -800 VRB/05 RMK AO2
14840KMKG MKG20060320142509403/20/06 14:25:31  5-MIN KMKG 201925Z VRB06KT 10SM CLR 05/M10 A3025 330 33 -700 VRB/06 RMK AO2
14840KMKG MKG20060320143009403/20/06 14:30:31  5-MIN KMKG 201930Z VRB04KT 10SM CLR 04/M11 A3024 330 33 -800 VRB/04 RMK AO2
14840KMKG MKG20060320143511003/20/06 14:35:31  5-MIN KMKG 201935Z 05007KT 360V100 10SM CLR 04/M11 A3024 330 33 -800 050/07 360V100 RMK AO2
14840KMKG MKG20060320144011003/20/06 14:40:31  5-MIN KMKG 201940Z 02008KT 340V060 10SM CLR 05/M11 A3024 340 31 -700 020/08 340V060 RMK AO2
14840KMKG MKG20060320144509403/20/06 14:45:31  5-MIN KMKG 201945Z 05007KT 10SM CLR 05/M11 A3024 340 31 -700 050/07 RMK AO2
14840KMKG MKG20060320145011103/20/06 14:50:31  5-MIN KMKG 201950Z VRB06KT 10SM CLR 05/M11 A3023 340 31 -700 VRB/06 RMK AO2 SLP245 T00501106
14840KMKG MKG20060320145513303/20/06 14:55:31  5-MIN KMKG 201955Z 04008G16KT 010V080 10SM CLR 05/M11 A3023 340 31 -700 040/08G16 010V080 RMK AO2 SLP244 T00501106
14840KMKG MKG20060320150010003/20/06 15:00:31  5-MIN KMKG 202000Z 06004G16KT 10SM CLR 04/M11 A3022 350 33 -800 070/04G16 RMK AO2
14840KMKG MKG20060320150510003/20/06 15:05:31  5-MIN KMKG 202005Z 11010G14KT 10SM CLR 05/M11 A3022 350 31 -700 120/10G14 RMK AO2
14840KMKG MKG20060320151009403/20/06 15:10:31  5-MIN KMKG 202010Z 07013KT 10SM CLR 05/M11 A3022 350 31 -700 080/13 RMK AO2
14840KMKG MKG20060320151509403/20/06 15:15:31  5-MIN KMKG 202015Z 10010KT 10SM CLR 05/M11 A3022 350 31 -700 110/10 RMK AO2
14840KMKG MKG20060320152009403/20/06 15:20:31  5-MIN KMKG 202020Z VRB04KT 10SM CLR 05/M11 A3022 360 31 -700 VRB/04 RMK AO2
14840KMKG MKG20060320152510003/20/06 15:25:31  5-MIN KMKG 202025Z 06010G16KT 10SM CLR 06/M11 A3022 350 30 -600 070/10G16 RMK AO2
14840KMKG MKG20060320153010003/20/06 15:30:31  5-MIN KMKG 202030Z 09010G16KT 10SM CLR 05/M11 A3022 360 31 -700 090/10G16 RMK AO2
14840KMKG MKG20060320153509403/20/06 15:35:31  5-MIN KMKG 202035Z 10009KT 10SM CLR 05/M11 A3022 360 31 -700 100/09 RMK AO2
14840KMKG MKG20060320154009403/20/06 15:40:31  5-MIN KMKG 202040Z 09006KT 10SM CLR 06/M11 A3022 350 30 -600 100/06 RMK AO2
14840KMKG MKG20060320154509403/20/06 15:45:31  5-MIN KMKG 202045Z 10005KT 10SM CLR 05/M11 A3021 360 31 -700 100/05 RMK AO2
14840KMKG MKG20060320155011703/20/06 15:50:31  5-MIN KMKG 202050Z 09011KT 10SM CLR 05/M11 A3021 360 31 -700 090/11 RMK AO2 SLP239 T00501106 56011
14840KMKG MKG20060320155511703/20/06 15:55:31  5-MIN KMKG 202055Z 08010KT 10SM CLR 05/M11 A3021 360 31 -700 090/10 RMK AO2 SLP238 T00501106 58024
14840KMKG MKG20060320160009403/20/06 16:00:31  5-MIN KMKG 202100Z 09010KT 10SM CLR 06/M11 A3021 370 30 -600 100/10 RMK AO2
14840KMKG MKG20060320160509403/20/06 16:05:31  5-MIN KMKG 202105Z 07010KT 10SM CLR 05/M11 A3021 370 31 -700 070/10 RMK AO2
14840KMKG MKG20060320161009403/20/06 16:10:31  5-MIN KMKG 202110Z 06010KT 10SM CLR 05/M11 A3020 370 31 -700 070/10 RMK AO2
14840KMKG MKG20060320161509403/20/06 16:15:31  5-MIN KMKG 202115Z VRB03KT 10SM CLR 04/M11 A3020 370 33 -700 VRB/03 RMK AO2
14840KMKG MKG20060320162010003/20/06 16:20:31  5-MIN KMKG 202120Z 07012G15KT 10SM CLR 06/M11 A3020 370 30 -600 080/12G15 RMK AO2
14840KMKG MKG20060320162511603/20/06 16:25:31  5-MIN KMKG 202125Z 08010G15KT 040V100 10SM CLR 06/M11 A3020 370 30 -600 080/10G15 040V100 RMK AO2
14840KMKG MKG20060320163010003/20/06 16:30:31  5-MIN KMKG 202130Z 08011G16KT 10SM CLR 05/M11 A3019 380 30 -600 080/11G16 RMK AO2
14840KMKG MKG20060320163510003/20/06 16:35:31  5-MIN KMKG 202135Z 08007G16KT 10SM CLR 05/M11 A3019 380 31 -600 080/07G16 RMK AO2
14840KMKG MKG20060320164010003/20/06 16:40:31  5-MIN KMKG 202140Z 07011G15KT 10SM CLR 05/M11 A3019 380 31 -600 070/11G15 RMK AO2
14840KMKG MKG20060320164509403/20/06 16:45:31  5-MIN KMKG 202145Z 06013KT 10SM CLR 06/M11 A3018 390 30 -600 070/13 RMK AO2
14840KMKG MKG20060320165011103/20/06 16:50:31  5-MIN KMKG 202150Z 08012KT 10SM CLR 05/M11 A3019 380 30 -600 080/12 RMK AO2 SLP231 T00501111
14840KMKG MKG20060320165511103/20/06 16:55:31  5-MIN KMKG 202155Z 09009KT 10SM CLR 05/M11 A3019 380 30 -600 100/09 RMK AO2 SLP230 T00501111
14840KMKG MKG20060320170009403/20/06 17:00:31  5-MIN KMKG 202200Z 09011KT 10SM CLR 05/M11 A3019 390 30 -600 100/11 RMK AO2
14840KMKG MKG20060320170509403/20/06 17:05:31  5-MIN KMKG 202205Z 07012KT 10SM CLR 05/M11 A3019 390 30 -600 080/12 RMK AO2
14840KMKG MKG20060320171009403/20/06 17:10:31  5-MIN KMKG 202210Z 08009KT 10SM CLR 05/M11 A3018 390 30 -600 090/09 RMK AO2
14840KMKG MKG20060320171509403/20/06 17:15:31  5-MIN KMKG 202215Z 09012KT 10SM CLR 05/M11 A3019 390 30 -600 090/12 RMK AO2
14840KMKG MKG20060320172009403/20/06 17:20:31  5-MIN KMKG 202220Z 07010KT 10SM CLR 05/M11 A3018 390 30 -600 080/10 RMK AO2
14840KMKG MKG20060320172509403/20/06 17:25:31  5-MIN KMKG 202225Z 07013KT 10SM CLR 05/M11 A3018 390 30 -600 070/13 RMK AO2
14840KMKG MKG20060320173009403/20/06 17:30:31  5-MIN KMKG 202230Z 07010KT 10SM CLR 04/M11 A3018 390 31 -700 070/10 RMK AO2
14840KMKG MKG20060320173509403/20/06 17:35:31  5-MIN KMKG 202235Z 09011KT 10SM CLR 04/M11 A3018 390 31 -700 090/11 RMK AO2
14840KMKG MKG20060320174009403/20/06 17:40:31  5-MIN KMKG 202240Z 06011KT 10SM CLR 04/M11 A3018 390 31 -700 060/11 RMK AO2
14840KMKG MKG20060320174509403/20/06 17:45:31  5-MIN KMKG 202245Z 07011KT 10SM CLR 04/M11 A3018 400 31 -700 070/11 RMK AO2
14840KMKG MKG20060320175011103/20/06 17:50:31  5-MIN KMKG 202250Z 07010KT 10SM CLR 04/M11 A3018 390 31 -700 080/10 RMK AO2 SLP227 T00441111
14840KMKG MKG20060320175511103/20/06 17:55:31  5-MIN KMKG 202255Z 07013KT 10SM CLR 04/M11 A3018 390 31 -700 080/13 RMK AO2 SLP228 T00441111
14840KMKG MKG20060320180009403/20/06 18:00:31  5-MIN KMKG 202300Z 06011KT 10SM CLR 04/M12 A3018 390 30 -700 060/11 RMK AO2
14840KMKG MKG20060320180509403/20/06 18:05:31  5-MIN KMKG 202305Z 07010KT 10SM CLR 04/M12 A3018 390 31 -800 070/10 RMK AO2
14840KMKG MKG20060320181009403/20/06 18:10:31  5-MIN KMKG 202310Z 08011KT 10SM CLR 04/M12 A3018 390 31 -800 080/11 RMK AO2
14840KMKG MKG20060320181509403/20/06 18:15:31  5-MIN KMKG 202315Z 08010KT 10SM CLR 04/M12 A3018 390 31 -800 090/10 RMK AO2
14840KMKG MKG20060320182009403/20/06 18:20:31  5-MIN KMKG 202320Z 10009KT 10SM CLR 03/M10 A3018 390 37 -800 110/09 RMK AO2
14840KMKG MKG20060320182509403/20/06 18:25:31  5-MIN KMKG 202325Z 10011KT 10SM CLR 03/M10 A3019 380 37 -900 100/11 RMK AO2
14840KMKG MKG20060320183009403/20/06 18:30:31  5-MIN KMKG 202330Z 10008KT 10SM CLR 03/M10 A3019 380 38 -900 110/08 RMK AO2
14840KMKG MKG20060320183509403/20/06 18:35:31  5-MIN KMKG 202335Z 11009KT 10SM CLR 03/M10 A3019 380 38 -900 120/09 RMK AO2
14840KMKG MKG20060320184009403/20/06 18:40:31  5-MIN KMKG 202340Z 10009KT 10SM CLR 03/M10 A3019 380 38 -900 100/09 RMK AO2
14840KMKG MKG20060320184509403/20/06 18:45:31  5-MIN KMKG 202345Z 10011KT 10SM CLR 03/M10 A3019 390 38 -900 100/11 RMK AO2
14840KMKG MKG20060320185013003/20/06 18:50:31  5-MIN KMKG 202350Z 11009KT 10SM CLR 02/M10 A3020 370 40 -1000 110/09 RMK AO2 SLP234 T00221100 10056 20022 58024
14840KMKG MKG20060320185513003/20/06 18:55:31  5-MIN KMKG 202355Z 12008KT 10SM CLR 02/M10 A3020 370 40 -1000 120/08 RMK AO2 SLP235 T00221100 10056 20022 55002
14840KMKG MKG20060320190009503/20/06 19:00:31  5-MIN KMKG 210000Z 11007KT 10SM CLR 02/M10 A3020 370 42 -1100 110/07 RMK AO2
14840KMKG MKG20060320190509503/20/06 19:05:31  5-MIN KMKG 210005Z 11009KT 10SM CLR 02/M10 A3021 370 40 -1000 110/09 RMK AO2
14840KMKG MKG20060320191009503/20/06 19:10:31  5-MIN KMKG 210010Z 10007KT 10SM CLR 02/M10 A3021 370 42 -1100 110/07 RMK AO2
14840KMKG MKG20060320191509503/20/06 19:15:31  5-MIN KMKG 210015Z 11006KT 10SM CLR 02/M10 A3021 370 42 -1100 110/06 RMK AO2
14840KMKG MKG20060320192009503/20/06 19:20:31  5-MIN KMKG 210020Z 09005KT 10SM CLR 01/M10 A3020 370 43 -1100 090/05 RMK AO2
14840KMKG MKG20060320192509503/20/06 19:25:31  5-MIN KMKG 210025Z 09007KT 10SM CLR 01/M10 A3021 370 43 -1100 100/07 RMK AO2
14840KMKG MKG20060320193009503/20/06 19:30:31  5-MIN KMKG 210030Z 09006KT 10SM CLR 01/M10 A3021 370 43 -1100 100/06 RMK AO2
14840KMKG MKG20060320193509503/20/06 19:35:31  5-MIN KMKG 210035Z 09007KT 10SM CLR 01/M10 A3020 370 43 -1100 090/07 RMK AO2
14840KMKG MKG20060320194009503/20/06 19:40:31  5-MIN KMKG 210040Z 08007KT 10SM CLR 01/M10 A3020 370 45 -1200 090/07 RMK AO2
14840KMKG MKG20060320194509503/20/06 19:45:31  5-MIN KMKG 210045Z 08007KT 10SM CLR 01/M10 A3020 370 45 -1200 080/07 RMK AO2
14840KMKG MKG20060320195011203/20/06 19:50:31  5-MIN KMKG 210050Z 07007KT 10SM CLR 01/M09 A3021 370 47 -1200 080/07 RMK AO2 SLP236 T00061094
14840KMKG MKG20060320195511203/20/06 19:55:31  5-MIN KMKG 210055Z 07006KT 10SM CLR 01/M09 A3021 370 47 -1200 080/06 RMK AO2 SLP237 T00061094
14840KMKG MKG20060320200009503/20/06 20:00:31  5-MIN KMKG 210100Z 06006KT 10SM CLR 00/M09 A3021 370 49 -1300 070/06 RMK AO2
14840KMKG MKG20060320200509503/20/06 20:05:31  5-MIN KMKG 210105Z 07006KT 10SM CLR 00/M09 A3021 370 49 -1300 070/06 RMK AO2
14840KMKG MKG20060320201009503/20/06 20:10:31  5-MIN KMKG 210110Z 07008KT 10SM CLR 01/M09 A3021 370 47 -1200 070/08 RMK AO2
14840KMKG MKG20060320201509503/20/06 20:15:31  5-MIN KMKG 210115Z 09011KT 10SM CLR 01/M09 A3021 370 47 -1200 100/11 RMK AO2
14840KMKG MKG20060320202009503/20/06 20:20:31  5-MIN KMKG 210120Z 11008KT 10SM CLR 01/M09 A3021 370 49 -1200 110/08 RMK AO2
14840KMKG MKG20060320202509503/20/06 20:25:31  5-MIN KMKG 210125Z 11008KT 10SM CLR 00/M09 A3020 370 51 -1300 110/08 RMK AO2
14840KMKG MKG20060320203009503/20/06 20:30:31  5-MIN KMKG 210130Z 09008KT 10SM CLR 00/M09 A3020 380 51 -1300 100/08 RMK AO2
14840KMKG MKG20060320203509503/20/06 20:35:31  5-MIN KMKG 210135Z 10009KT 10SM CLR 00/M09 A3020 380 51 -1300 100/09 RMK AO2
14840KMKG MKG20060320204009503/20/06 20:40:31  5-MIN KMKG 210140Z 09009KT 10SM CLR 00/M08 A3020 380 53 -1300 100/09 RMK AO2
14840KMKG MKG20060320204509503/20/06 20:45:31  5-MIN KMKG 210145Z 10009KT 10SM CLR 00/M08 A3020 380 53 -1300 100/09 RMK AO2
14840KMKG MKG20060320205011303/20/06 20:50:31  5-MIN KMKG 210150Z 09010KT 10SM CLR M01/M08 A3020 380 58 -1300 100/10 RMK AO2 SLP233 T10061078
14840KMKG MKG20060320205511303/20/06 20:55:31  5-MIN KMKG 210155Z 09008KT 10SM CLR M01/M08 A3020 380 58 -1300 090/08 RMK AO2 SLP233 T10061078
14840KMKG MKG20060320210009603/20/06 21:00:31  5-MIN KMKG 210200Z 09010KT 10SM CLR M01/M08 A3019 380 58 -1300 090/10 RMK AO2
14840KMKG MKG20060320210509603/20/06 21:05:31  5-MIN KMKG 210205Z 08006KT 10SM CLR M01/M08 A3019 380 60 -1400 080/06 RMK AO2
14840KMKG MKG20060320211009603/20/06 21:10:31  5-MIN KMKG 210210Z 09010KT 10SM CLR M01/M08 A3019 380 60 -1400 090/10 RMK AO2
14840KMKG MKG20060320211509603/20/06 21:15:31  5-MIN KMKG 210215Z 08008KT 10SM CLR M01/M08 A3020 380 60 -1400 090/08 RMK AO2
14840KMKG MKG20060320212009603/20/06 21:20:31  5-MIN KMKG 210220Z 08007KT 10SM CLR M01/M08 A3020 380 60 -1400 090/07 RMK AO2
14840KMKG MKG20060320212509603/20/06 21:25:31  5-MIN KMKG 210225Z 08009KT 10SM CLR M01/M08 A3019 380 60 -1400 090/09 RMK AO2
14840KMKG MKG20060320213009603/20/06 21:30:31  5-MIN KMKG 210230Z 08010KT 10SM CLR M01/M08 A3019 380 60 -1400 080/10 RMK AO2
14840KMKG MKG20060320213509603/20/06 21:35:31  5-MIN KMKG 210235Z 07010KT 10SM CLR M01/M08 A3018 390 60 -1400 080/10 RMK AO2
14840KMKG MKG20060320214010303/20/06 21:40:31  5-MIN KMKG 210240Z 08011KT 10SM CLR M01/M08 A3017 400 60 -1400 080/11 RMK AO2 PRESFR
14840KMKG MKG20060320214509603/20/06 21:45:31  5-MIN KMKG 210245Z 08011KT 10SM CLR M02/M08 A3017 400 63 -1500 080/11 RMK AO2
14840KMKG MKG20060320215011903/20/06 21:50:31  5-MIN KMKG 210250Z 08011KT 10SM CLR M02/M08 A3017 400 63 -1500 080/11 RMK AO2 SLP224 T10171078 55002
14840KMKG MKG20060320215511903/20/06 21:55:31  5-MIN KMKG 210255Z 08011KT 10SM CLR M02/M08 A3017 400 63 -1500 080/11 RMK AO2 SLP224 T10171078 58012
14840KMKG MKG20060320220009603/20/06 22:00:31  5-MIN KMKG 210300Z 08012KT 10SM CLR M02/M08 A3017 400 63 -1500 080/12 RMK AO2
14840KMKG MKG20060320220509603/20/06 22:05:31  5-MIN KMKG 210305Z 07011KT 10SM CLR M02/M08 A3017 400 63 -1500 080/11 RMK AO2
14840KMKG MKG20060320221009603/20/06 22:10:31  5-MIN KMKG 210310Z 08012KT 10SM CLR M02/M08 A3017 400 63 -1500 090/12 RMK AO2
14840KMKG MKG20060320221509603/20/06 22:15:31  5-MIN KMKG 210315Z 09010KT 10SM CLR M02/M08 A3018 390 63 -1500 090/10 RMK AO2
14840KMKG MKG20060320222009603/20/06 22:20:31  5-MIN KMKG 210320Z 08008KT 10SM CLR M02/M08 A3017 400 63 -1500 090/08 RMK AO2
14840KMKG MKG20060320222509603/20/06 22:25:31  5-MIN KMKG 210325Z 08010KT 10SM CLR M02/M08 A3018 400 66 -1500 090/10 RMK AO2
14840KMKG MKG20060320223009603/20/06 22:30:31  5-MIN KMKG 210330Z 09009KT 10SM CLR M02/M08 A3018 390 66 -1500 090/09 RMK AO2
14840KMKG MKG20060320223509603/20/06 22:35:31  5-MIN KMKG 210335Z 09010KT 10SM CLR M02/M08 A3018 390 63 -1500 090/10 RMK AO2
14840KMKG MKG20060320224009603/20/06 22:40:31  5-MIN KMKG 210340Z 09012KT 10SM CLR M02/M08 A3018 390 63 -1500 090/12 RMK AO2
14840KMKG MKG20060320224509603/20/06 22:45:31  5-MIN KMKG 210345Z 08011KT 10SM CLR M02/M08 A3018 390 63 -1500 080/11 RMK AO2
14840KMKG MKG20060320225011303/20/06 22:50:31  5-MIN KMKG 210350Z 09012KT 10SM CLR M02/M08 A3019 380 63 -1500 090/12 RMK AO2 SLP231 T10221083
14840KMKG MKG20060320225511903/20/06 22:55:31  5-MIN KMKG 210355Z 09011G18KT 10SM CLR M02/M08 A3019 380 63 -1600 100/11G18 RMK AO2 SLP231 T10221083
14840KMKG MKG20060320230010203/20/06 23:00:31  5-MIN KMKG 210400Z 08010G18KT 10SM CLR M02/M08 A3019 380 63 -1500 090/10G18 RMK AO2
14840KMKG MKG20060320230509603/20/06 23:05:31  5-MIN KMKG 210405Z 08008KT 10SM CLR M03/M08 A3019 380 66 -1600 080/08 RMK AO2
14840KMKG MKG20060320231009603/20/06 23:10:31  5-MIN KMKG 210410Z 07016KT 10SM CLR M03/M08 A3019 380 66 -1600 080/16 RMK AO2
14840KMKG MKG20060320231509603/20/06 23:15:31  5-MIN KMKG 210415Z 07015KT 10SM CLR M03/M09 A3019 380 63 -1600 080/15 RMK AO2
14840KMKG MKG20060320232009603/20/06 23:20:31  5-MIN KMKG 210420Z 08014KT 10SM CLR M03/M09 A3019 380 63 -1600 080/14 RMK AO2
14840KMKG MKG20060320232509603/20/06 23:25:31  5-MIN KMKG 210425Z 08014KT 10SM CLR M03/M09 A3019 380 63 -1600 080/14 RMK AO2
14840KMKG MKG20060320233009603/20/06 23:30:31  5-MIN KMKG 210430Z 08013KT 10SM CLR M03/M09 A3020 380 65 -1700 090/13 RMK AO2
14840KMKG MKG20060320233509603/20/06 23:35:31  5-MIN KMKG 210435Z 08013KT 10SM CLR M03/M09 A3020 370 65 -1700 090/13 RMK AO2
14840KMKG MKG20060320234009603/20/06 23:40:31  5-MIN KMKG 210440Z 07012KT 10SM CLR M03/M09 A3020 370 65 -1700 070/12 RMK AO2
14840KMKG MKG20060320234509603/20/06 23:45:31  5-MIN KMKG 210445Z 08014KT 10SM CLR M03/M09 A3020 370 65 -1700 090/14 RMK AO2
14840KMKG MKG20060320235012303/20/06 23:50:31  5-MIN KMKG 210450Z 08015KT 10SM CLR M04/M09 A3020 370 68 -1800 080/15 RMK AO2 SLP235 T10391089 400561044
14840KMKG MKG20060320235512303/20/06 23:55:31  5-MIN KMKG 210455Z 07012KT 10SM CLR M04/M09 A3020 370 68 -1800 080/12 RMK AO2 SLP235 T10391089 400561044
14840KMKG MKG20060321000009603/21/06 00:00:32  5-MIN KMKG 210500Z 07013KT 10SM CLR M04/M09 A3020 370 65 -1800 070/13 RMK AO2
14840KMKG MKG20060321000509603/21/06 00:05:31  5-MIN KMKG 210505Z 07012KT 10SM CLR M04/M09 A3021 370 65 -1800 080/12 RMK AO2
14840KMKG MKG20060321001009603/21/06 00:10:31  5-MIN KMKG 210510Z 08011KT 10SM CLR M04/M09 A3021 370 65 -1800 080/11 RMK AO2
14840KMKG MKG20060321001509603/21/06 00:15:31  5-MIN KMKG 210515Z 08013KT 10SM CLR M04/M09 A3021 360 65 -1800 090/13 RMK AO2
14840KMKG MKG20060321002009603/21/06 00:20:31  5-MIN KMKG 210520Z 08010KT 10SM CLR M04/M09 A3022 360 68 -1900 090/10 RMK AO2
14840KMKG MKG20060321002509603/21/06 00:25:31  5-MIN KMKG 210525Z 08012KT 10SM CLR M04/M09 A3022 360 68 -1900 080/12 RMK AO2
14840KMKG MKG20060321003009603/21/06 00:30:31  5-MIN KMKG 210530Z 07011KT 10SM CLR M04/M09 A3022 360 71 -1900 080/11 RMK AO2
14840KMKG MKG20060321003509603/21/06 00:35:31  5-MIN KMKG 210535Z 07010KT 10SM CLR M04/M09 A3022 360 71 -1900 080/10 RMK AO2
14840KMKG MKG20060321004009603/21/06 00:40:31  5-MIN KMKG 210540Z 07010KT 10SM CLR M04/M09 A3022 360 71 -1900 080/10 RMK AO2
14840KMKG MKG20060321004509603/21/06 00:45:31  5-MIN KMKG 210545Z 08011KT 10SM CLR M04/M09 A3022 360 71 -1900 080/11 RMK AO2
14840KMKG MKG20060321005013103/21/06 00:50:31  5-MIN KMKG 210550Z 07010KT 10SM CLR M04/M09 A3022 360 71 -1900 080/10 RMK AO2 SLP240 T10441089 10022 21044 58012
14840KMKG MKG20060321005513103/21/06 00:55:31  5-MIN KMKG 210555Z 07012KT 10SM CLR M04/M09 A3022 360 71 -1900 080/12 RMK AO2 SLP240 T10441089 10022 21044 51016
14840KMKG MKG20060321010009603/21/06 01:00:31  5-MIN KMKG 210600Z 07010KT 10SM CLR M04/M09 A3022 360 71 -1900 070/10 RMK AO2
14840KMKG MKG20060321010509603/21/06 01:05:31  5-MIN KMKG 210605Z 07012KT 10SM CLR M04/M09 A3022 360 71 -1900 070/12 RMK AO2
14840KMKG MKG20060321011009603/21/06 01:10:31  5-MIN KMKG 210610Z 07012KT 10SM CLR M04/M09 A3022 350 71 -1900 070/12 RMK AO2
14840KMKG MKG20060321011509603/21/06 01:15:31  5-MIN KMKG 210615Z 07010KT 10SM CLR M04/M09 A3022 350 71 -1900 080/10 RMK AO2
14840KMKG MKG20060321012009603/21/06 01:20:31  5-MIN KMKG 210620Z 07011KT 10SM CLR M04/M09 A3023 350 71 -1900 080/11 RMK AO2
14840KMKG MKG20060321012509603/21/06 01:25:31  5-MIN KMKG 210625Z 07010KT 10SM CLR M04/M09 A3023 350 71 -1900 070/10 RMK AO2
14840KMKG MKG20060321013009603/21/06 01:30:31  5-MIN KMKG 210630Z 08010KT 10SM CLR M04/M09 A3023 350 71 -1900 080/10 RMK AO2
14840KMKG MKG20060321013509603/21/06 01:35:31  5-MIN KMKG 210635Z 07010KT 10SM CLR M04/M09 A3022 350 71 -1900 070/10 RMK AO2
14840KMKG MKG20060321014009603/21/06 01:40:31  5-MIN KMKG 210640Z 06009KT 10SM CLR M04/M09 A3023 350 68 -1900 070/09 RMK AO2
14840KMKG MKG20060321014509603/21/06 01:45:31  5-MIN KMKG 210645Z 07009KT 10SM CLR M04/M09 A3022 350 68 -1900 070/09 RMK AO2
14840KMKG MKG20060321015011303/21/06 01:50:31  5-MIN KMKG 210650Z 07010KT 10SM CLR M04/M09 A3022 350 68 -1900 070/10 RMK AO2 SLP243 T10441094
14840KMKG MKG20060321015511303/21/06 01:55:31  5-MIN KMKG 210655Z 07009KT 10SM CLR M04/M10 A3022 350 65 -1900 070/09 RMK AO2 SLP242 T10441100
14840KMKG MKG20060321020009603/21/06 02:00:31  5-MIN KMKG 210700Z 06011KT 10SM CLR M04/M10 A3023 350 65 -1900 070/11 RMK AO2
14840KMKG MKG20060321020509603/21/06 02:05:31  5-MIN KMKG 210705Z 07009KT 10SM CLR M04/M10 A3023 350 65 -1900 070/09 RMK AO2
14840KMKG MKG20060321021010203/21/06 02:10:31  5-MIN KMKG 210710Z 06012G17KT 10SM CLR M04/M10 A3023 350 65 -1900 070/12G17 RMK AO2
14840KMKG MKG20060321021510203/21/06 02:15:31  5-MIN KMKG 210715Z 06012G17KT 10SM CLR M04/M11 A3023 350 62 -1900 070/12G17 RMK AO2
14840KMKG MKG20060321022009603/21/06 02:20:31  5-MIN KMKG 210720Z 06011KT 10SM CLR M04/M11 A3022 350 62 -1900 060/11 RMK AO2
14840KMKG MKG20060321022510203/21/06 02:25:31  5-MIN KMKG 210725Z 07012G18KT 10SM CLR M04/M11 A3022 350 62 -1900 070/12G18 RMK AO2
14840KMKG MKG20060321023010203/21/06 02:30:31  5-MIN KMKG 210730Z 07010G19KT 10SM CLR M04/M11 A3022 350 62 -1900 070/10G19 RMK AO2
14840KMKG MKG20060321023510203/21/06 02:35:31  5-MIN KMKG 210735Z 07010G19KT 10SM CLR M04/M11 A3022 350 62 -1900 070/10G19 RMK AO2
14840KMKG MKG20060321024010203/21/06 02:40:31  5-MIN KMKG 210740Z 06011G18KT 10SM CLR M04/M11 A3022 350 62 -1900 060/11G18 RMK AO2
14840KMKG MKG20060321024510203/21/06 02:45:31  5-MIN KMKG 210745Z 06012G18KT 10SM CLR M04/M11 A3022 350 62 -1900 070/12G18 RMK AO2
14840KMKG MKG20060321025011303/21/06 02:50:31  5-MIN KMKG 210750Z 05010KT 10SM CLR M04/M11 A3022 360 62 -1900 060/10 RMK AO2 SLP241 T10441106
14840KMKG MKG20060321025511303/21/06 02:55:31  5-MIN KMKG 210755Z 05011KT 10SM CLR M04/M11 A3022 360 62 -1900 060/11 RMK AO2 SLP241 T10441106
14840KMKG MKG20060321030009603/21/06 03:00:31  5-MIN KMKG 210800Z 06010KT 10SM CLR M05/M11 A3022 360 65 -1900 060/10 RMK AO2
14840KMKG MKG20060321030509603/21/06 03:05:31  5-MIN KMKG 210805Z 06009KT 10SM CLR M05/M11 A3022 360 65 -1900 060/09 RMK AO2
14840KMKG MKG20060321031009603/21/06 03:10:31  5-MIN KMKG 210810Z 06010KT 10SM CLR M05/M11 A3022 360 65 -1900 060/10 RMK AO2
14840KMKG MKG20060321031509603/21/06 03:15:31  5-MIN KMKG 210815Z 07010KT 10SM CLR M05/M11 A3021 360 65 -1900 070/10 RMK AO2
14840KMKG MKG20060321032009603/21/06 03:20:31  5-MIN KMKG 210820Z 07011KT 10SM CLR M05/M11 A3021 370 65 -1900 070/11 RMK AO2
14840KMKG MKG20060321032510203/21/06 03:25:31  5-MIN KMKG 210825Z 07012G17KT 10SM CLR M05/M11 A3020 370 65 -1900 080/12G17 RMK AO2
14840KMKG MKG20060321033009603/21/06 03:30:31  5-MIN KMKG 210830Z 08013KT 10SM CLR M05/M11 A3020 370 65 -1900 080/13 RMK AO2
14840KMKG MKG20060321033509603/21/06 03:35:31  5-MIN KMKG 210835Z 07013KT 10SM CLR M05/M11 A3020 370 65 -1900 080/13 RMK AO2
14840KMKG MKG20060321034009603/21/06 03:40:31  5-MIN KMKG 210840Z 07009KT 10SM CLR M05/M11 A3020 380 65 -1900 080/09 RMK AO2
14840KMKG MKG20060321034509603/21/06 03:45:31  5-MIN KMKG 210845Z 06011KT 10SM CLR M05/M11 A3020 380 65 -1900 070/11 RMK AO2
14840KMKG MKG20060321035011903/21/06 03:50:31  5-MIN KMKG 210850Z 07011KT 10SM CLR M05/M11 A3019 380 65 -1900 070/11 RMK AO2 SLP233 T10501106 51016
14840KMKG MKG20060321035511903/21/06 03:55:31  5-MIN KMKG 210855Z 06010KT 10SM CLR M05/M11 A3019 380 65 -1900 060/10 RMK AO2 SLP232 T10501106 58007
14840KMKG MKG20060321040009603/21/06 04:00:31  5-MIN KMKG 210900Z 06010KT 10SM CLR M05/M11 A3019 380 65 -1900 060/10 RMK AO2
14840KMKG MKG20060321040509603/21/06 04:05:31  5-MIN KMKG 210905Z 06010KT 10SM CLR M05/M11 A3018 390 65 -1900 070/10 RMK AO2
14840KMKG MKG20060321041009603/21/06 04:10:31  5-MIN KMKG 210910Z 07012KT 10SM CLR M05/M11 A3018 390 65 -1900 070/12 RMK AO2
14840KMKG MKG20060321041509603/21/06 04:15:31  5-MIN KMKG 210915Z 07010KT 10SM CLR M05/M11 A3018 390 65 -1900 070/10 RMK AO2
14840KMKG MKG20060321042009603/21/06 04:20:31  5-MIN KMKG 210920Z 07008KT 10SM CLR M05/M11 A3017 400 65 -1900 080/08 RMK AO2
14840KMKG MKG20060321042509603/21/06 04:25:31  5-MIN KMKG 210925Z 07008KT 10SM CLR M05/M11 A3017 400 65 -1900 080/08 RMK AO2
14840KMKG MKG20060321043009603/21/06 04:30:31  5-MIN KMKG 210930Z 07009KT 10SM CLR M05/M11 A3017 400 65 -1900 070/09 RMK AO2
14840KMKG MKG20060321043509603/21/06 04:35:31  5-MIN KMKG 210935Z 07007KT 10SM CLR M05/M11 A3017 400 65 -1900 070/07 RMK AO2
14840KMKG MKG20060321044009603/21/06 04:40:31  5-MIN KMKG 210940Z 06007KT 10SM CLR M05/M11 A3017 400 65 -1900 060/07 RMK AO2
14840KMKG MKG20060321044509603/21/06 04:45:31  5-MIN KMKG 210945Z 05006KT 10SM CLR M05/M11 A3016 410 65 -1900 050/06 RMK AO2
14840KMKG MKG20060321045011303/21/06 04:50:31  5-MIN KMKG 210950Z 05008KT 10SM CLR M05/M11 A3016 410 65 -1900 060/08 RMK AO2 SLP222 T10501106
14840KMKG MKG20060321045511303/21/06 04:55:31  5-MIN KMKG 210955Z 05007KT 10SM CLR M05/M11 A3016 410 65 -1900 060/07 RMK AO2 SLP222 T10501106
14840KMKG MKG20060321050009603/21/06 05:00:31  5-MIN KMKG 211000Z 05010KT 10SM CLR M05/M11 A3016 410 62 -1900 050/10 RMK AO2
14840KMKG MKG20060321050509603/21/06 05:05:31  5-MIN KMKG 211005Z 05010KT 10SM CLR M05/M11 A3016 410 62 -1900 050/10 RMK AO2
14840KMKG MKG20060321051009603/21/06 05:10:31  5-MIN KMKG 211010Z 05007KT 10SM CLR M05/M11 A3015 420 62 -1900 060/07 RMK AO2
14840KMKG MKG20060321051509603/21/06 05:15:31  5-MIN KMKG 211015Z 05010KT 10SM CLR M05/M11 A3015 420 62 -1900 060/10 RMK AO2
14840KMKG MKG20060321052009603/21/06 05:20:31  5-MIN KMKG 211020Z 04009KT 10SM CLR M05/M11 A3015 420 62 -1900 050/09 RMK AO2
14840KMKG MKG20060321052509603/21/06 05:25:31  5-MIN KMKG 211025Z 05011KT 10SM CLR M05/M11 A3014 430 62 -1800 060/11 RMK AO2
14840KMKG MKG20060321053009603/21/06 05:30:31  5-MIN KMKG 211030Z 05010KT 10SM CLR M05/M11 A3014 430 62 -1800 050/10 RMK AO2
14840KMKG MKG20060321053509603/21/06 05:35:31  5-MIN KMKG 211035Z 04008KT 10SM CLR M05/M11 A3013 440 62 -1800 040/08 RMK AO2
14840KMKG MKG20060321054009603/21/06 05:40:31  5-MIN KMKG 211040Z 05008KT 10SM CLR M05/M11 A3013 430 62 -1800 050/08 RMK AO2
14840KMKG MKG20060321054509603/21/06 05:45:31  5-MIN KMKG 211045Z 04009KT 10SM CLR M05/M11 A3013 440 62 -1800 050/09 RMK AO2
14840KMKG MKG20060321055011303/21/06 05:50:31  5-MIN KMKG 211050Z 03007KT 10SM CLR M05/M11 A3013 440 62 -1800 030/07 RMK AO2 SLP210 T10501111
14840KMKG MKG20060321055511303/21/06 05:55:31  5-MIN KMKG 211055Z 03009KT 10SM CLR M05/M11 A3013 440 62 -1800 030/09 RMK AO2 SLP211 T10501111
14840KMKG MKG20060321060009603/21/06 06:00:31  5-MIN KMKG 211100Z 02009KT 10SM CLR M05/M11 A3013 440 65 -1800 030/09 RMK AO2
14840KMKG MKG20060321060509603/21/06 06:05:31  5-MIN KMKG 211105Z 04008KT 10SM CLR M05/M11 A3013 440 65 -1800 040/08 RMK AO2
14840KMKG MKG20060321061009603/21/06 06:10:31  5-MIN KMKG 211110Z 03011KT 10SM CLR M05/M11 A3013 440 62 -1800 030/11 RMK AO2
14840KMKG MKG20060321061509603/21/06 06:15:31  5-MIN KMKG 211115Z 03009KT 10SM CLR M05/M11 A3013 440 62 -1800 030/09 RMK AO2
14840KMKG MKG20060321062009603/21/06 06:20:31  5-MIN KMKG 211120Z 04010KT 10SM CLR M05/M11 A3013 440 62 -1800 050/10 RMK AO2
14840KMKG MKG20060321062509603/21/06 06:25:31  5-MIN KMKG 211125Z 04009KT 10SM CLR M05/M11 A3013 440 62 -1800 040/09 RMK AO2
14840KMKG MKG20060321063009603/21/06 06:30:31  5-MIN KMKG 211130Z 05009KT 10SM CLR M05/M11 A3013 440 62 -1800 050/09 RMK AO2
14840KMKG MKG20060321063509603/21/06 06:35:31  5-MIN KMKG 211135Z 04008KT 10SM CLR M05/M11 A3013 440 62 -1800 050/08 RMK AO2
14840KMKG MKG20060321064009603/21/06 06:40:31  5-MIN KMKG 211140Z 06008KT 10SM CLR M05/M11 A3013 430 62 -1800 060/08 RMK AO2
14840KMKG MKG20060321064509603/21/06 06:45:31  5-MIN KMKG 211145Z 04009KT 10SM CLR M05/M11 A3013 440 62 -1800 050/09 RMK AO2
14840KMKG MKG20060321065013103/21/06 06:50:31  5-MIN KMKG 211150Z 05008KT 10SM CLR M05/M11 A3013 440 62 -1800 050/08 RMK AO2 SLP212 T10501111 11044 21050 58007
14840KMKG MKG20060321065513103/21/06 06:55:31  5-MIN KMKG 211155Z 05010KT 10SM CLR M05/M11 A3013 430 62 -1800 050/10 RMK AO2 SLP212 T10501111 11044 21050 55021
14840KMKG MKG20060321070009603/21/06 07:00:31  5-MIN KMKG 211200Z 06008KT 10SM CLR M05/M11 A3013 440 62 -1800 060/08 RMK AO2
14840KMKG MKG20060321070509603/21/06 07:05:31  5-MIN KMKG 211205Z 05010KT 10SM CLR M05/M11 A3013 440 62 -1800 050/10 RMK AO2
14840KMKG MKG20060321071009603/21/06 07:10:31  5-MIN KMKG 211210Z 05010KT 10SM CLR M04/M11 A3013 430 60 -1800 060/10 RMK AO2
14840KMKG MKG20060321071509603/21/06 07:15:31  5-MIN KMKG 211215Z 06009KT 10SM CLR M04/M11 A3013 440 60 -1800 060/09 RMK AO2
14840KMKG MKG20060321072009603/21/06 07:20:31  5-MIN KMKG 211220Z 05008KT 10SM CLR M04/M11 A3013 440 60 -1800 050/08 RMK AO2
14840KMKG MKG20060321072509603/21/06 07:25:31  5-MIN KMKG 211225Z 05008KT 10SM CLR M04/M11 A3013 440 60 -1800 060/08 RMK AO2
14840KMKG MKG20060321073009603/21/06 07:30:31  5-MIN KMKG 211230Z 04010KT 10SM CLR M04/M11 A3013 440 60 -1800 050/10 RMK AO2
14840KMKG MKG20060321073509603/21/06 07:35:31  5-MIN KMKG 211235Z 04009KT 10SM CLR M04/M12 A3013 440 57 -1800 050/09 RMK AO2
14840KMKG MKG20060321074010203/21/06 07:40:31  5-MIN KMKG 211240Z 05006G14KT 10SM CLR M04/M11 A3013 440 60 -1800 060/06G14 RMK AO2
14840KMKG MKG20060321074509603/21/06 07:45:31  5-MIN KMKG 211245Z 06008KT 10SM CLR M04/M11 A3013 430 60 -1800 060/08 RMK AO2
14840KMKG MKG20060321075011303/21/06 07:50:31  5-MIN KMKG 211250Z 05008KT 10SM CLR M04/M11 A3013 430 60 -1800 050/08 RMK AO2 SLP212 T10441111
14840KMKG MKG20060321075511303/21/06 07:55:31  5-MIN KMKG 211255Z 05009KT 10SM CLR M04/M11 A3013 440 60 -1800 060/09 RMK AO2 SLP212 T10441111
14840KMKG MKG20060321080009603/21/06 08:00:31  5-MIN KMKG 211300Z 05008KT 10SM CLR M04/M11 A3013 440 60 -1800 050/08 RMK AO2
14840KMKG MKG20060321080509603/21/06 08:05:31  5-MIN KMKG 211305Z 05010KT 10SM CLR M04/M12 A3013 430 57 -1800 050/10 RMK AO2
14840KMKG MKG20060321081009603/21/06 08:10:31  5-MIN KMKG 211310Z 05011KT 10SM CLR M04/M12 A3013 440 55 -1700 060/11 RMK AO2
14840KMKG MKG20060321081509603/21/06 08:15:31  5-MIN KMKG 211315Z 05012KT 10SM CLR M04/M12 A3013 440 57 -1800 050/12 RMK AO2
14840KMKG MKG20060321082009603/21/06 08:20:31  5-MIN KMKG 211320Z 04010KT 10SM CLR M04/M12 A3013 440 55 -1700 050/10 RMK AO2
14840KMKG MKG20060321082509603/21/06 08:25:31  5-MIN KMKG 211325Z 05011KT 10SM CLR M04/M12 A3013 440 55 -1700 050/11 RMK AO2
14840KMKG MKG20060321083009603/21/06 08:30:31  5-MIN KMKG 211330Z 06011KT 10SM CLR M04/M11 A3013 440 57 -1700 060/11 RMK AO2
14840KMKG MKG20060321083510203/21/06 08:35:31  5-MIN KMKG 211335Z 05012G16KT 10SM CLR M04/M12 A3013 440 55 -1700 060/12G16 RMK AO2
14840KMKG MKG20060321084010203/21/06 08:40:31  5-MIN KMKG 211340Z 05010G16KT 10SM CLR M04/M11 A3013 440 57 -1700 050/10G16 RMK AO2
14840KMKG MKG20060321084509603/21/06 08:45:31  5-MIN KMKG 211345Z 04011KT 10SM CLR M04/M11 A3013 440 57 -1700 040/11 RMK AO2
14840KMKG MKG20060321085011303/21/06 08:50:31  5-MIN KMKG 211350Z 05011KT 10SM CLR M04/M12 A3013 440 55 -1700 060/11 RMK AO2 SLP212 T10391117
14840KMKG MKG20060321085511903/21/06 08:55:31  5-MIN KMKG 211355Z 04013G17KT 10SM CLR M03/M11 A3013 440 55 -1600 040/13G17 RMK AO2 SLP211 T10331111
14840KMKG MKG20060321090009603/21/06 09:00:31  5-MIN KMKG 211400Z 04015KT 10SM CLR M03/M12 A3013 440 53 -1600 050/15 RMK AO2
14840KMKG MKG20060321090509603/21/06 09:05:31  5-MIN KMKG 211405Z 04011KT 10SM CLR M03/M11 A3013 440 55 -1600 050/11 RMK AO2
14840KMKG MKG20060321091009603/21/06 09:10:31  5-MIN KMKG 211410Z 04009KT 10SM CLR M03/M11 A3013 430 55 -1600 050/09 RMK AO2
14840KMKG MKG20060321091509603/21/06 09:15:31  5-MIN KMKG 211415Z 04009KT 10SM CLR M03/M11 A3013 440 55 -1600 040/09 RMK AO2
14840KMKG MKG20060321092009603/21/06 09:20:31  5-MIN KMKG 211420Z 04010KT 10SM CLR M03/M11 A3013 440 53 -1600 040/10 RMK AO2
14840KMKG MKG20060321092509603/21/06 09:25:31  5-MIN KMKG 211425Z 03012KT 10SM CLR M03/M12 A3013 440 50 -1600 040/12 RMK AO2
14840KMKG MKG20060321093009603/21/06 09:30:31  5-MIN KMKG 211430Z 03011KT 10SM CLR M03/M11 A3013 430 53 -1600 040/11 RMK AO2
14840KMKG MKG20060321093509603/21/06 09:35:31  5-MIN KMKG 211435Z 05012KT 10SM CLR M03/M11 A3013 440 53 -1600 050/12 RMK AO2
14840KMKG MKG20060321094009903/21/06 09:40:31  5-MIN KMKG 211440Z 03011KT 10SM FEW034 M03/M12 A3013 440 53 -1600 030/11 RMK AO2
14840KMKG MKG20060321094509903/21/06 09:45:31  5-MIN KMKG 211445Z 03014KT 10SM FEW034 M03/M12 A3013 430 53 -1600 040/14 RMK AO2
14840KMKG MKG20060321095012803/21/06 09:50:31  5-MIN KMKG 211450Z 04009G17KT 10SM FEW034 M03/M11 A3013 440 53 -1600 050/09G17 RMK AO2 SLP212 T10281111 55021
14840KMKG MKG20060321095512203/21/06 09:55:31  5-MIN KMKG 211455Z 05010KT 10SM FEW034 M03/M11 A3013 430 53 -1600 050/10 RMK AO2 SLP213 T10281111 53000
14840KMKG MKG20060321100009903/21/06 10:00:31  5-MIN KMKG 211500Z 05012KT 10SM FEW034 M03/M11 A3013 440 53 -1600 060/12 RMK AO2
14840KMKG MKG20060321100509903/21/06 10:05:31  5-MIN KMKG 211505Z 04011KT 10SM FEW034 M03/M11 A3013 430 53 -1600 050/11 RMK AO2
14840KMKG MKG20060321101009903/21/06 10:10:31  5-MIN KMKG 211510Z 04011KT 10SM FEW034 M03/M11 A3013 430 53 -1600 040/11 RMK AO2
14840KMKG MKG20060321101509903/21/06 10:15:31  5-MIN KMKG 211515Z 04009KT 10SM FEW034 M03/M11 A3013 430 53 -1600 040/09 RMK AO2
14840KMKG MKG20060321102009903/21/06 10:20:31  5-MIN KMKG 211520Z 04013KT 10SM FEW034 M03/M11 A3013 440 53 -1600 050/13 RMK AO2
14840KMKG MKG20060321102509903/21/06 10:25:31  5-MIN KMKG 211525Z 04011KT 10SM FEW034 M02/M11 A3013 430 51 -1500 040/11 RMK AO2
14840KMKG MKG20060321103009903/21/06 10:30:31  5-MIN KMKG 211530Z 06010KT 10SM FEW034 M03/M11 A3013 440 53 -1600 060/10 RMK AO2
14840KMKG MKG20060321103509903/21/06 10:35:31  5-MIN KMKG 211535Z 04010KT 10SM FEW034 M02/M11 A3013 440 51 -1500 050/10 RMK AO2
14840KMKG MKG20060321104009903/21/06 10:40:31  5-MIN KMKG 211540Z 03009KT 10SM FEW034 M02/M11 A3013 440 51 -1500 030/09 RMK AO2
14840KMKG MKG20060321104509903/21/06 10:45:31  5-MIN KMKG 211545Z 05011KT 10SM FEW034 M02/M11 A3013 430 51 -1500 060/11 RMK AO2
14840KMKG MKG20060321105011603/21/06 10:50:31  5-MIN KMKG 211550Z 05010KT 10SM FEW034 M02/M11 A3013 440 51 -1500 050/10 RMK AO2 SLP212 T10221111
14840KMKG MKG20060321105511603/21/06 10:55:31  5-MIN KMKG 211555Z 04012KT 10SM FEW034 M02/M11 A3013 430 51 -1500 050/12 RMK AO2 SLP213 T10221111
14840KMKG MKG20060321110009903/21/06 11:00:31  5-MIN KMKG 211600Z 04009KT 10SM FEW034 M02/M11 A3013 440 49 -1400 040/09 RMK AO2
14840KMKG MKG20060321110509903/21/06 11:05:31  5-MIN KMKG 211605Z 05011KT 10SM FEW034 M02/M12 A3013 440 46 -1400 060/11 RMK AO2
14840KMKG MKG20060321111009903/21/06 11:10:31  5-MIN KMKG 211610Z 04011KT 10SM FEW034 M02/M12 A3013 440 46 -1400 040/11 RMK AO2
14840KMKG MKG20060321111509903/21/06 11:15:31  5-MIN KMKG 211615Z 03010KT 10SM FEW034 M02/M12 A3013 440 46 -1400 030/10 RMK AO2
14840KMKG MKG20060321112009903/21/06 11:20:31  5-MIN KMKG 211620Z 05010KT 10SM FEW034 M02/M12 A3013 440 46 -1400 050/10 RMK AO2
14840KMKG MKG20060321112509903/21/06 11:25:31  5-MIN KMKG 211625Z 03012KT 10SM FEW034 M01/M11 A3013 440 47 -1300 030/12 RMK AO2
14840KMKG MKG20060321113009903/21/06 11:30:31  5-MIN KMKG 211630Z 02009KT 10SM FEW034 M01/M11 A3013 440 47 -1300 020/09 RMK AO2
14840KMKG MKG20060321113509903/21/06 11:35:31  5-MIN KMKG 211635Z 01011KT 10SM FEW034 M01/M12 A3013 440 45 -1300 010/11 RMK AO2
14840KMKG MKG20060321114009903/21/06 11:40:31  5-MIN KMKG 211640Z 02011KT 10SM FEW034 M01/M12 A3012 440 45 -1300 020/11 RMK AO2
14840KMKG MKG20060321114509903/21/06 11:45:31  5-MIN KMKG 211645Z 02010KT 10SM FEW034 M01/M12 A3012 440 45 -1300 020/10 RMK AO2
14840KMKG MKG20060321115011603/21/06 11:50:31  5-MIN KMKG 211650Z 02010KT 10SM FEW037 M01/M12 A3012 440 45 -1300 020/10 RMK AO2 SLP209 T10111117
14840KMKG MKG20060321115511603/21/06 11:55:31  5-MIN KMKG 211655Z 02009KT 10SM FEW037 M01/M12 A3012 440 45 -1300 020/09 RMK AO2 SLP209 T10111117
14840KMKG MKG20060321120009903/21/06 12:00:31  5-MIN KMKG 211700Z 03009KT 10SM FEW037 M01/M12 A3012 450 45 -1300 040/09 RMK AO2
14840KMKG MKG20060321120510503/21/06 12:05:31  5-MIN KMKG 211705Z 04010G15KT 10SM FEW037 M01/M12 A3012 450 43 -1300 050/10G15 RMK AO2
14840KMKG MKG20060321121010503/21/06 12:10:31  5-MIN KMKG 211710Z 04010G15KT 10SM FEW037 M01/M12 A3012 450 45 -1300 040/10G15 RMK AO2
14840KMKG MKG20060321121510503/21/06 12:15:31  5-MIN KMKG 211715Z 36009G15KT 10SM FEW037 M01/M12 A3012 450 43 -1300 360/09G15 RMK AO2
14840KMKG MKG20060321122009803/21/06 12:20:31  5-MIN KMKG 211720Z 01007KT 10SM FEW037 00/M12 A3012 450 41 -1200 010/07 RMK AO2
14840KMKG MKG20060321122509903/21/06 12:25:31  5-MIN KMKG 211725Z 05010KT 10SM FEW037 M01/M12 A3011 450 43 -1300 060/10 RMK AO2
14840KMKG MKG20060321123009803/21/06 12:30:31  5-MIN KMKG 211730Z 02008KT 10SM FEW037 00/M12 A3011 450 41 -1200 030/08 RMK AO2
14840KMKG MKG20060321123509803/21/06 12:35:31  5-MIN KMKG 211735Z 06011KT 10SM FEW037 00/M12 A3011 450 41 -1200 070/11 RMK AO2
14840KMKG MKG20060321124009803/21/06 12:40:31  5-MIN KMKG 211740Z 07009KT 10SM FEW037 00/M12 A3011 450 41 -1200 070/09 RMK AO2
14840KMKG MKG20060321124509803/21/06 12:45:31  5-MIN KMKG 211745Z 36009KT 10SM FEW037 01/M12 A3011 450 39 -1100 010/09 RMK AO2
14840KMKG MKG20060321125013303/21/06 12:50:31  5-MIN KMKG 211750Z 36012KT 10SM FEW037 00/M12 A3011 460 41 -1200 360/12 RMK AO2 SLP205 T00001117 10006 21050 53000
14840KMKG MKG20060321125513303/21/06 12:55:31  5-MIN KMKG 211755Z 01012KT 10SM FEW037 00/M12 A3011 460 41 -1200 020/12 RMK AO2 SLP204 T00001117 10006 21050 58008
14840KMKG MKG20060321130009803/21/06 13:00:31  5-MIN KMKG 211800Z 02011KT 10SM FEW039 00/M12 A3011 460 41 -1200 030/11 RMK AO2
14840KMKG MKG20060321130510403/21/06 13:05:31  5-MIN KMKG 211805Z 36012G15KT 10SM FEW039 01/M12 A3010 460 39 -1100 360/12G15 RMK AO2
14840KMKG MKG20060321131010403/21/06 13:10:31  5-MIN KMKG 211810Z 02011G15KT 10SM FEW039 01/M12 A3010 460 39 -1100 020/11G15 RMK AO2
14840KMKG MKG20060321131509803/21/06 13:15:31  5-MIN KMKG 211815Z 03013KT 10SM FEW039 01/M12 A3010 460 39 -1100 030/13 RMK AO2
14840KMKG MKG20060321132009803/21/06 13:20:31  5-MIN KMKG 211820Z 03009KT 10SM FEW039 01/M12 A3010 460 38 -1100 040/09 RMK AO2
14840KMKG MKG20060321132509803/21/06 13:25:31  5-MIN KMKG 211825Z 01009KT 10SM FEW039 01/M12 A3010 470 38 -1000 010/09 RMK AO2
14840KMKG MKG20060321133009803/21/06 13:30:31  5-MIN KMKG 211830Z 03008KT 10SM FEW039 02/M12 A3010 470 36 -1000 030/08 RMK AO2
14840KMKG MKG20060321133509803/21/06 13:35:31  5-MIN KMKG 211835Z 35009KT 10SM FEW039 02/M12 A3009 470 36 -1000 360/09 RMK AO2
14840KMKG MKG20060321134009803/21/06 13:40:31  5-MIN KMKG 211840Z 02010KT 10SM FEW039 02/M12 A3010 470 36 -1000 030/10 RMK AO2
14840KMKG MKG20060321134509803/21/06 13:45:31  5-MIN KMKG 211845Z 03010KT 10SM FEW039 02/M12 A3010 470 36 -1000 030/10 RMK AO2
14840KMKG MKG20060321135011403/21/06 13:50:31  5-MIN KMKG 211850Z 05008KT 10SM FEW039 02/M12 A3009 470 36 -900 050/08 RMK AO2 SLP198 T00171117
14840KMKG MKG20060321135511403/21/06 13:55:31  5-MIN KMKG 211855Z 35010KT 10SM FEW041 02/M12 A3009 480 35 -900 350/10 RMK AO2 SLP197 T00221117
14840KMKG MKG20060321140010303/21/06 14:00:31  5-MIN KMKG 211900Z 02012G17KT 10SM FEW041 02/M12 A3009 480 35 -900 020/12G17 RMK AO2
14840KMKG MKG20060321140510303/21/06 14:05:31  5-MIN KMKG 211905Z 03011G18KT 10SM FEW041 02/M12 A3009 480 35 -900 030/11G18 RMK AO2
14840KMKG MKG20060321141010303/21/06 14:10:31  5-MIN KMKG 211910Z 35008G18KT 10SM FEW041 02/M12 A3008 480 35 -900 360/08G18 RMK AO2
14840KMKG MKG20060321141510303/21/06 14:15:31  5-MIN KMKG 211915Z 02015G18KT 10SM FEW041 02/M12 A3008 480 35 -900 020/15G18 RMK AO2
14840KMKG MKG20060321142010303/21/06 14:20:31  5-MIN KMKG 211920Z 02010G18KT 10SM FEW041 02/M12 A3008 480 33 -900 020/10G18 RMK AO2
14840KMKG MKG20060321142510303/21/06 14:25:31  5-MIN KMKG 211925Z 01007G14KT 10SM FEW041 02/M12 A3008 490 33 -900 010/07G14 RMK AO2
14840KMKG MKG20060321143009703/21/06 14:30:31  5-MIN KMKG 211930Z 02011KT 10SM FEW041 03/M12 A3008 490 34 -800 030/11 RMK AO2
14840KMKG MKG20060321143510303/21/06 14:35:31  5-MIN KMKG 211935Z 01013G17KT 10SM FEW041 03/M12 A3008 490 34 -800 010/13G17 RMK AO2
14840KMKG MKG20060321144010303/21/06 14:40:31  5-MIN KMKG 211940Z 02011G17KT 10SM FEW041 03/M12 A3008 490 34 -800 030/11G17 RMK AO2
14840KMKG MKG20060321144511303/21/06 14:45:31  5-MIN KMKG 211945Z 35012KT 330V040 10SM FEW041 03/M12 A3007 490 34 -800 350/12 330V040 RMK AO2
14840KMKG MKG20060321145012003/21/06 14:50:31  5-MIN KMKG 211950Z 01011G19KT 10SM FEW041 03/M12 A3008 490 34 -800 010/11G19 RMK AO2 SLP192 T00281117
14840KMKG MKG20060321145512003/21/06 14:55:31  5-MIN KMKG 211955Z 34011G19KT 10SM FEW041 03/M12 A3007 490 34 -800 350/11G19 RMK AO2 SLP190 T00281117
14840KMKG MKG20060321150010303/21/06 15:00:31  5-MIN KMKG 212000Z 35012G18KT 10SM FEW041 03/M11 A3007 490 35 -800 360/12G18 RMK AO2
14840KMKG MKG20060321150510303/21/06 15:05:31  5-MIN KMKG 212005Z 01007G18KT 10SM FEW041 03/M12 A3007 500 34 -800 020/07G18 RMK AO2
14840KMKG MKG20060321151010303/21/06 15:10:31  5-MIN KMKG 212010Z 36009G15KT 10SM FEW041 03/M11 A3007 490 35 -800 360/09G15 RMK AO2
14840KMKG MKG20060321151510303/21/06 15:15:31  5-MIN KMKG 212015Z 02007G15KT 10SM FEW041 03/M12 A3007 500 32 -700 030/07G15 RMK AO2
14840KMKG MKG20060321152010303/21/06 15:20:31  5-MIN KMKG 212020Z 01015G20KT 10SM FEW041 03/M11 A3007 490 34 -700 020/15G20 RMK AO2
14840KMKG MKG20060321152510303/21/06 15:25:31  5-MIN KMKG 212025Z 36013G20KT 10SM FEW041 03/M12 A3007 490 32 -700 360/13G20 RMK AO2
14840KMKG MKG20060321153009703/21/06 15:30:31  5-MIN KMKG 212030Z 36013KT 10SM FEW041 03/M12 A3007 490 31 -700 010/13 RMK AO2
14840KMKG MKG20060321153509703/21/06 15:35:31  5-MIN KMKG 212035Z 36014KT 10SM FEW041 03/M12 A3007 490 32 -800 360/14 RMK AO2
14840KMKG MKG20060321154009703/21/06 15:40:31  5-MIN KMKG 212040Z 01010KT 10SM FEW041 03/M12 A3007 490 31 -700 020/10 RMK AO2
14840KMKG MKG20060321154511903/21/06 15:45:31  5-MIN KMKG 212045Z 04010G19KT 360V060 10SM FEW041 04/M11 A3007 500 32 -600 040/10G19 360V060 RMK AO2
14840KMKG MKG20060321155012603/21/06 15:50:31  5-MIN KMKG 212050Z 01014G19KT 10SM FEW041 03/M12 A3007 490 32 -700 020/14G19 RMK AO2 SLP190 T00331117 58008
14840KMKG MKG20060321155512003/21/06 15:55:31  5-MIN KMKG 212055Z 36012KT 10SM FEW041 03/M12 A3007 500 31 -700 360/12 RMK AO2 SLP189 T00331122 56014
14840KMKG MKG20060321160009403/21/06 16:00:31  5-MIN KMKG 212100Z 36009KT 10SM CLR 03/M12 A3006 500 32 -700 010/09 RMK AO2
14840KMKG MKG20060321160510003/21/06 16:05:31  5-MIN KMKG 212105Z 01012G20KT 10SM CLR 03/M12 A3006 500 31 -700 020/12G20 RMK AO2
14840KMKG MKG20060321161010003/21/06 16:10:31  5-MIN KMKG 212110Z 35013G20KT 10SM CLR 03/M12 A3006 500 32 -700 360/13G20 RMK AO2
14840KMKG MKG20060321161510003/21/06 16:15:31  5-MIN KMKG 212115Z 01011G18KT 10SM CLR 03/M12 A3006 500 32 -800 020/11G18 RMK AO2
14840KMKG MKG20060321162010003/21/06 16:20:31  5-MIN KMKG 212120Z 36012G18KT 10SM CLR 03/M12 A3007 500 31 -700 360/12G18 RMK AO2
14840KMKG MKG20060321162509403/21/06 16:25:31  5-MIN KMKG 212125Z 34012KT 10SM CLR 04/M11 A3006 500 34 -600 340/12 RMK AO2
14840KMKG MKG20060321163009403/21/06 16:30:31  5-MIN KMKG 212130Z 32017KT 10SM CLR 03/M09 A3006 510 42 -800 330/17 RMK AO2
14840KMKG MKG20060321163510003/21/06 16:35:31  5-MIN KMKG 212135Z 33014G21KT 10SM CLR 03/M08 A3006 510 44 -800 330/14G21 RMK AO2
14840KMKG MKG20060321164010003/21/06 16:40:31  5-MIN KMKG 212140Z 33015G21KT 10SM CLR 03/M08 A3006 500 46 -800 330/15G21 RMK AO2
14840KMKG MKG20060321164510003/21/06 16:45:31  5-MIN KMKG 212145Z 33013G21KT 10SM CLR 03/M08 A3007 500 44 -800 340/13G21 RMK AO2
14840KMKG MKG20060321165012003/21/06 16:50:31  5-MIN KMKG 212150Z 36018G23KT 10SM FEW040 03/M08 A3007 490 44 -800 360/18G23 RMK AO2 SLP191 T00281083
14840KMKG MKG20060321165512003/21/06 16:55:31  5-MIN KMKG 212155Z 36017G23KT 10SM FEW040 02/M09 A3007 490 42 -900 010/17G23 RMK AO2 SLP193 T00221094
14840KMKG MKG20060321170009403/21/06 17:00:31  5-MIN KMKG 212200Z 01013KT 10SM CLR 03/M09 A3008 490 42 -800 010/13 RMK AO2
14840KMKG MKG20060321170509403/21/06 17:05:31  5-MIN KMKG 212205Z 35016KT 10SM CLR 02/M09 A3007 490 44 -900 360/16 RMK AO2
14840KMKG MKG20060321171010003/21/06 17:10:31  5-MIN KMKG 212210Z 01014G21KT 10SM CLR 02/M09 A3008 480 44 -900 010/14G21 RMK AO2
14840KMKG MKG20060321171510003/21/06 17:15:31  5-MIN KMKG 212215Z 36016G21KT 10SM CLR 02/M09 A3008 480 43 -900 360/16G21 RMK AO2
14840KMKG MKG20060321172009403/21/06 17:20:31  5-MIN KMKG 212220Z 35016KT 10SM CLR 02/M09 A3008 480 43 -900 350/16 RMK AO2
14840KMKG MKG20060321172510003/21/06 17:25:31  5-MIN KMKG 212225Z 35016G20KT 10SM CLR 02/M09 A3008 480 43 -900 350/16G20 RMK AO2
14840KMKG MKG20060321173010003/21/06 17:30:31  5-MIN KMKG 212230Z 35014G21KT 10SM CLR 02/M09 A3008 480 45 -900 350/14G21 RMK AO2
14840KMKG MKG20060321173510003/21/06 17:35:31  5-MIN KMKG 212235Z 33016G21KT 10SM CLR 02/M08 A3008 480 47 -900 340/16G21 RMK AO2
14840KMKG MKG20060321174010003/21/06 17:40:31  5-MIN KMKG 212240Z 34016G21KT 10SM CLR 02/M08 A3008 480 47 -900 340/16G21 RMK AO2
14840KMKG MKG20060321174510003/21/06 17:45:31  5-MIN KMKG 212245Z 36015G22KT 10SM CLR 02/M09 A3009 470 45 -900 360/15G22 RMK AO2
14840KMKG MKG20060321175011803/21/06 17:50:31  5-MIN KMKG 212250Z 35014G22KT 10SM CLR 01/M10 A3009 470 43 -1000 350/14G22 RMK AO2 SLP199 T00111100
14840KMKG MKG20060321175512103/21/06 17:55:31  5-MIN KMKG 212255Z 36016G22KT 10SM FEW040 01/M11 A3010 470 43 -1100 360/16G22 RMK AO2 SLP201 T00061106
14840KMKG MKG20060321180010103/21/06 18:00:31  5-MIN KMKG 212300Z 35017G22KT 10SM CLR 01/M11 A3010 470 41 -1100 360/17G22 RMK AO2
14840KMKG MKG20060321180510103/21/06 18:05:31  5-MIN KMKG 212305Z 35019G23KT 10SM CLR 01/M11 A3010 460 41 -1100 360/19G23 RMK AO2
14840KMKG MKG20060321181010103/21/06 18:10:31  5-MIN KMKG 212310Z 35019G25KT 10SM CLR 00/M11 A3010 460 45 -1200 360/19G25 RMK AO2
14840KMKG MKG20060321181510103/21/06 18:15:31  5-MIN KMKG 212315Z 36014G25KT 10SM CLR 00/M10 A3011 460 47 -1200 360/14G25 RMK AO2
14840KMKG MKG20060321182010103/21/06 18:20:31  5-MIN KMKG 212320Z 36019G25KT 10SM CLR 00/M10 A3011 450 47 -1200 010/19G25 RMK AO2
14840KMKG MKG20060321182511903/21/06 18:25:31  5-MIN KMKG 212325Z 36019G26KT 10SM CLR 00/M11 A3011 460 45 -1200 360/19G26 RMK AO2 PK WND 01026/2324
14840KMKG MKG20060321183012003/21/06 18:30:31  5-MIN KMKG 212330Z 36018G26KT 10SM CLR M01/M11 A3011 450 47 -1200 360/18G26 RMK AO2 PK WND 01026/2326
14840KMKG MKG20060321183512003/21/06 18:35:31  5-MIN KMKG 212335Z 36017G26KT 10SM CLR M01/M10 A3011 450 49 -1200 360/17G26 RMK AO2 PK WND 01026/2326
14840KMKG MKG20060321184012003/21/06 18:40:31  5-MIN KMKG 212340Z 36017G23KT 10SM CLR M01/M10 A3011 450 49 -1200 360/17G23 RMK AO2 PK WND 01026/2326
14840KMKG MKG20060321184512003/21/06 18:45:31  5-MIN KMKG 212345Z 36015G23KT 10SM CLR M01/M09 A3012 450 53 -1300 010/15G23 RMK AO2 PK WND 01026/2326
14840KMKG MKG20060321185014903/21/06 18:50:31  5-MIN KMKG 212350Z 36014KT 10SM CLR M01/M09 A3012 450 53 -1300 360/14 RMK AO2 PK WND 01026/2326 SLP207 T10111094 10039 21011 56014
14840KMKG MKG20060321185515803/21/06 18:55:31  5-MIN KMKG 212355Z 35017G20KT 10SM FEW040 M01/M09 A3012 450 53 -1300 360/17G20 RMK AO2 PK WND 01026/2326 SLP208 T10111094 10039 21011 53018
14840KMKG MKG20060321190009603/21/06 19:00:31  5-MIN KMKG 220000Z 36015KT 10SM CLR M01/M09 A3012 450 53 -1300 360/15 RMK AO2
14840KMKG MKG20060321190510203/21/06 19:05:31  5-MIN KMKG 220005Z 36015G21KT 10SM CLR M01/M10 A3013 440 51 -1300 010/15G21 RMK AO2
14840KMKG MKG20060321191010203/21/06 19:10:31  5-MIN KMKG 220010Z 35014G21KT 10SM CLR M01/M10 A3012 440 51 -1300 360/14G21 RMK AO2
14840KMKG MKG20060321191510203/21/06 19:15:31  5-MIN KMKG 220015Z 36016G21KT 10SM CLR M01/M09 A3013 440 53 -1300 360/16G21 RMK AO2
14840KMKG MKG20060321192009603/21/06 19:20:31  5-MIN KMKG 220020Z 35014KT 10SM CLR M01/M10 A3012 440 51 -1300 350/14 RMK AO2
14840KMKG MKG20060321192510203/21/06 19:25:31  5-MIN KMKG 220025Z 35013G19KT 10SM CLR M01/M10 A3012 440 51 -1300 360/13G19 RMK AO2
14840KMKG MKG20060321193010203/21/06 19:30:31  5-MIN KMKG 220030Z 36016G22KT 10SM CLR M01/M10 A3012 440 51 -1300 010/16G22 RMK AO2
14840KMKG MKG20060321193510203/21/06 19:35:31  5-MIN KMKG 220035Z 36012G22KT 10SM CLR M01/M09 A3013 440 53 -1300 360/12G22 RMK AO2
14840KMKG MKG20060321194009603/21/06 19:40:31  5-MIN KMKG 220040Z 36013KT 10SM CLR M02/M09 A3013 440 55 -1400 010/13 RMK AO2
14840KMKG MKG20060321194509603/21/06 19:45:31  5-MIN KMKG 220045Z 36010KT 10SM CLR M02/M09 A3013 440 55 -1400 360/10 RMK AO2
14840KMKG MKG20060321195011903/21/06 19:50:31  5-MIN KMKG 220050Z 36014G21KT 10SM CLR M02/M09 A3013 440 55 -1400 360/14G21 RMK AO2 SLP210 T10171094
14840KMKG MKG20060321195511903/21/06 19:55:31  5-MIN KMKG 220055Z 36013G21KT 10SM CLR M02/M09 A3013 440 55 -1400 010/13G21 RMK AO2 SLP211 T10171094
14840KMKG MKG20060321200010203/21/06 20:00:31  5-MIN KMKG 220100Z 35012G17KT 10SM CLR M02/M09 A3012 440 55 -1400 360/12G17 RMK AO2
14840KMKG MKG20060321200510203/21/06 20:05:31  5-MIN KMKG 220105Z 35010G17KT 10SM CLR M02/M09 A3013 440 58 -1400 360/10G17 RMK AO2
14840KMKG MKG20060321201009603/21/06 20:10:31  5-MIN KMKG 220110Z 35012KT 10SM CLR M02/M09 A3013 440 58 -1400 360/12 RMK AO2
14840KMKG MKG20060321201509603/21/06 20:15:31  5-MIN KMKG 220115Z 36011KT 10SM CLR M02/M09 A3012 440 58 -1400 010/11 RMK AO2
14840KMKG MKG20060321202009603/21/06 20:20:31  5-MIN KMKG 220120Z 36010KT 10SM CLR M02/M09 A3013 440 58 -1400 360/10 RMK AO2
14840KMKG MKG20060321202510203/21/06 20:25:31  5-MIN KMKG 220125Z 36013G18KT 10SM CLR M02/M09 A3013 440 58 -1400 360/13G18 RMK AO2
14840KMKG MKG20060321203011803/21/06 20:30:31  5-MIN KMKG 220130Z 36013G18KT 340V040 10SM CLR M02/M09 A3012 440 58 -1400 010/13G18 340V040 RMK AO2
14840KMKG MKG20060321203510203/21/06 20:35:31  5-MIN KMKG 220135Z 36011G18KT 10SM CLR M02/M09 A3013 440 58 -1400 360/11G18 RMK AO2
14840KMKG MKG20060321204009603/21/06 20:40:31  5-MIN KMKG 220140Z 36012KT 10SM CLR M02/M09 A3013 440 58 -1400 360/12 RMK AO2
14840KMKG MKG20060321204510203/21/06 20:45:31  5-MIN KMKG 220145Z 36012G17KT 10SM CLR M02/M09 A3013 440 58 -1400 010/12G17 RMK AO2
14840KMKG MKG20060321205011903/21/06 20:50:31  5-MIN KMKG 220150Z 36011G17KT 10SM CLR M02/M09 A3013 440 58 -1400 010/11G17 RMK AO2 SLP211 T10171089
14840KMKG MKG20060321205511303/21/06 20:55:31  5-MIN KMKG 220155Z 36010KT 10SM CLR M02/M09 A3013 440 58 -1400 360/10 RMK AO2 SLP212 T10171089
14840KMKG MKG20060321210009603/21/06 21:00:31  5-MIN KMKG 220200Z 35011KT 10SM CLR M02/M08 A3013 440 60 -1400 360/11 RMK AO2
14840KMKG MKG20060321210510203/21/06 21:05:31  5-MIN KMKG 220205Z 36010G18KT 10SM CLR M02/M08 A3013 440 60 -1400 360/10G18 RMK AO2
14840KMKG MKG20060321211010203/21/06 21:10:31  5-MIN KMKG 220210Z 36010G18KT 10SM CLR M02/M08 A3013 440 60 -1400 360/10G18 RMK AO2
14840KMKG MKG20060321211509603/21/06 21:15:31  5-MIN KMKG 220215Z 35010KT 10SM CLR M02/M08 A3013 440 60 -1400 360/10 RMK AO2
14840KMKG MKG20060321212009603/21/06 21:20:31  5-MIN KMKG 220220Z 35010KT 10SM CLR M02/M08 A3013 440 60 -1400 360/10 RMK AO2
14840KMKG MKG20060321212509603/21/06 21:25:31  5-MIN KMKG 220225Z 36009KT 10SM CLR M02/M08 A3013 440 60 -1400 360/09 RMK AO2
14840KMKG MKG20060321213009603/21/06 21:30:31  5-MIN KMKG 220230Z 35012KT 10SM CLR M02/M08 A3013 440 60 -1400 360/12 RMK AO2
14840KMKG MKG20060321213509603/21/06 21:35:31  5-MIN KMKG 220235Z 36008KT 10SM CLR M02/M08 A3013 440 60 -1400 360/08 RMK AO2
14840KMKG MKG20060321214009603/21/06 21:40:31  5-MIN KMKG 220240Z 35011KT 10SM CLR M02/M08 A3013 440 60 -1400 350/11 RMK AO2
14840KMKG MKG20060321214509603/21/06 21:45:31  5-MIN KMKG 220245Z 35008KT 10SM CLR M02/M08 A3013 440 60 -1400 360/08 RMK AO2
14840KMKG MKG20060321215011903/21/06 21:50:31  5-MIN KMKG 220250Z 36010KT 10SM CLR M02/M08 A3013 440 60 -1400 360/10 RMK AO2 SLP210 T10171083 53018
14840KMKG MKG20060321215511903/21/06 21:55:31  5-MIN KMKG 220255Z 35009KT 10SM CLR M02/M08 A3013 440 60 -1400 350/09 RMK AO2 SLP210 T10171083 50003
14840KMKG MKG20060321220009603/21/06 22:00:31  5-MIN KMKG 220300Z 35010KT 10SM CLR M02/M08 A3012 440 60 -1400 350/10 RMK AO2
14840KMKG MKG20060321220509603/21/06 22:05:31  5-MIN KMKG 220305Z 35011KT 10SM CLR M02/M08 A3013 440 63 -1400 350/11 RMK AO2
14840KMKG MKG20060321221009603/21/06 22:10:31  5-MIN KMKG 220310Z 36010KT 10SM CLR M02/M08 A3013 440 63 -1400 360/10 RMK AO2
14840KMKG MKG20060321221509603/21/06 22:15:31  5-MIN KMKG 220315Z 35010KT 10SM CLR M02/M08 A3013 440 63 -1400 360/10 RMK AO2
14840KMKG MKG20060321222009603/21/06 22:20:31  5-MIN KMKG 220320Z 36009KT 10SM CLR M02/M08 A3013 440 63 -1400 360/09 RMK AO2
14840KMKG MKG20060321222509603/21/06 22:25:31  5-MIN KMKG 220325Z 35009KT 10SM CLR M02/M08 A3013 440 63 -1400 350/09 RMK AO2
14840KMKG MKG20060321223009603/21/06 22:30:31  5-MIN KMKG 220330Z 35009KT 10SM CLR M02/M08 A3013 440 66 -1500 350/09 RMK AO2
14840KMKG MKG20060321223509603/21/06 22:35:31  5-MIN KMKG 220335Z 35008KT 10SM CLR M02/M07 A3012 440 69 -1500 350/08 RMK AO2
14840KMKG MKG20060321224009603/21/06 22:40:31  5-MIN KMKG 220340Z 35009KT 10SM CLR M02/M07 A3012 440 69 -1500 360/09 RMK AO2
14840KMKG MKG20060321224509603/21/06 22:45:31  5-MIN KMKG 220345Z 35010KT 10SM CLR M02/M07 A3013 440 69 -1500 350/10 RMK AO2
14840KMKG MKG20060321225011303/21/06 22:50:31  5-MIN KMKG 220350Z 35009KT 10SM CLR M02/M07 A3013 440 69 -1500 350/09 RMK AO2 SLP211 T10221072
14840KMKG MKG20060321225511303/21/06 22:55:31  5-MIN KMKG 220355Z 35010KT 10SM CLR M02/M07 A3013 440 69 -1500 350/10 RMK AO2 SLP211 T10221072
14840KMKG MKG20060321230009603/21/06 23:00:31  5-MIN KMKG 220400Z 35008KT 10SM CLR M02/M07 A3013 440 69 -1500 350/08 RMK AO2
14840KMKG MKG20060321230509603/21/06 23:05:31  5-MIN KMKG 220405Z 35007KT 10SM CLR M02/M07 A3013 440 69 -1500 360/07 RMK AO2
14840KMKG MKG20060321231009603/21/06 23:10:31  5-MIN KMKG 220410Z 35009KT 10SM CLR M02/M07 A3013 440 69 -1500 350/09 RMK AO2
14840KMKG MKG20060321231509603/21/06 23:15:31  5-MIN KMKG 220415Z 35009KT 10SM CLR M02/M07 A3013 440 72 -1500 350/09 RMK AO2
14840KMKG MKG20060321232009603/21/06 23:20:31  5-MIN KMKG 220420Z 35009KT 10SM CLR M02/M07 A3013 440 72 -1500 360/09 RMK AO2
14840KMKG MKG20060321232509603/21/06 23:25:31  5-MIN KMKG 220425Z 35007KT 10SM CLR M02/M07 A3013 440 72 -1500 350/07 RMK AO2
14840KMKG MKG20060321233009603/21/06 23:30:31  5-MIN KMKG 220430Z 34009KT 10SM CLR M02/M07 A3013 440 72 -1500 350/09 RMK AO2
14840KMKG MKG20060321233509803/21/06 23:35:31  5-MIN KMKG 220435Z 34008KT 10SM CLR M02/M07 A3013 440 72 -1500 340/08 RMK AO2 $
14840KMKG MKG20060321234009803/21/06 23:40:31  5-MIN KMKG 220440Z 34010KT 10SM CLR M02/M07 A3013 440 72 -1500 340/10 RMK AO2 $
14840KMKG MKG20060321234510103/21/06 23:45:31  5-MIN KMKG 220445Z 34008KT 10SM FEW036 M02/M07 A3013 430 72 -1500 340/08 RMK AO2 $
14840KMKG MKG20060321235012803/21/06 23:50:31  5-MIN KMKG 220450Z 34008KT 10SM SCT034 M02/M07 A3013 430 72 -1500 340/08 RMK AO2 SLP213 T10221067 400391050 $
14840KMKG MKG20060321235512803/21/06 23:55:31  5-MIN KMKG 220455Z 33007KT 10SM BKN034 M02/M06 A3013 430 72 -1400 330/07 RMK AO2 SLP213 T10171061 400391050 $
14840KMKG MKG20060322000010103/22/06 00:00:32  5-MIN KMKG 220500Z 33007KT 10SM BKN032 M02/M06 A3013 430 72 -1400 330/07 RMK AO2 $
14840KMKG MKG20060322000510803/22/06 00:05:31  5-MIN KMKG 220505Z 34007KT 10SM BKN030 BKN035 M02/M06 A3013 430 72 -1400 340/07 RMK AO2 $
14840KMKG MKG20060322001010803/22/06 00:10:31  5-MIN KMKG 220510Z 33008KT 10SM BKN028 OVC035 M02/M06 A3013 430 72 -1400 330/08 RMK AO2 $
14840KMKG MKG20060322001510803/22/06 00:15:31  5-MIN KMKG 220515Z 33008KT 10SM BKN028 OVC035 M02/M06 A3013 430 72 -1400 330/08 RMK AO2 $
14840KMKG MKG20060322002010103/22/06 00:20:31  5-MIN KMKG 220520Z 32007KT 10SM OVC028 M02/M06 A3013 430 72 -1400 330/07 RMK AO2 $
14840KMKG MKG20060322002510103/22/06 00:25:31  5-MIN KMKG 220525Z 33006KT 10SM OVC028 M02/M06 A3013 430 72 -1400 330/06 RMK AO2 $
14840KMKG MKG20060322003010103/22/06 00:30:31  5-MIN KMKG 220530Z 32006KT 10SM OVC028 M02/M06 A3013 430 72 -1400 320/06 RMK AO2 $
14840KMKG MKG20060322003510103/22/06 00:35:31  5-MIN KMKG 220535Z 33006KT 10SM OVC028 M02/M06 A3013 430 72 -1400 340/06 RMK AO2 $
14840KMKG MKG20060322004010103/22/06 00:40:31  5-MIN KMKG 220540Z 32007KT 10SM OVC028 M02/M06 A3013 430 72 -1400 330/07 RMK AO2 $
14840KMKG MKG20060322004510103/22/06 00:45:31  5-MIN KMKG 220545Z 33005KT 10SM OVC032 M02/M06 A3013 430 72 -1400 330/05 RMK AO2 $
14840KMKG MKG20060322005013603/22/06 00:50:31  5-MIN KMKG 220550Z 33008KT 10SM OVC032 M02/M06 A3014 430 72 -1400 330/08 RMK AO2 SLP213 T10171061 11011 21022 52003 $
14840KMKG MKG20060322005513603/22/06 00:55:31  5-MIN KMKG 220555Z 32006KT 10SM OVC034 M02/M06 A3014 430 72 -1400 320/06 RMK AO2 SLP212 T10171061 11011 21022 50003 $
14840KMKG MKG20060322050510003/22/06 05:05:31  5-MIN KMKG 221005Z 33014KT 10SM OVC023 00/M05 A3014 430 69 -1200 330/14 RMK AO2 $
14840KMKG MKG20060322051010003/22/06 05:10:31  5-MIN KMKG 221010Z 33014KT 10SM OVC023 00/M05 A3015 420 69 -1200 330/14 RMK AO2 $
14840KMKG MKG20060322051510003/22/06 05:15:31  5-MIN KMKG 221015Z 33016KT 10SM OVC023 00/M05 A3015 420 69 -1200 340/16 RMK AO2 $
14840KMKG MKG20060322052010603/22/06 05:20:31  5-MIN KMKG 221020Z 33011G20KT 10SM OVC023 00/M05 A3015 410 69 -1200 330/11G20 RMK AO2 $
14840KMKG MKG20060322052510003/22/06 05:25:31  5-MIN KMKG 221025Z 32013KT 10SM OVC023 00/M05 A3015 420 69 -1200 330/13 RMK AO2 $
14840KMKG MKG20060322053010003/22/06 05:30:31  5-MIN KMKG 221030Z 34012KT 10SM OVC023 00/M05 A3015 420 69 -1200 340/12 RMK AO2 $
14840KMKG MKG20060322053510003/22/06 05:35:31  5-MIN KMKG 221035Z 34012KT 10SM OVC023 00/M05 A3015 410 69 -1200 340/12 RMK AO2 $
14840KMKG MKG20060322054010003/22/06 05:40:31  5-MIN KMKG 221040Z 34012KT 10SM OVC023 00/M05 A3016 410 69 -1200 340/12 RMK AO2 $
14840KMKG MKG20060322054510603/22/06 05:45:31  5-MIN KMKG 221045Z 33013G17KT 10SM OVC023 00/M05 A3016 410 69 -1200 330/13G17 RMK AO2 $
14840KMKG MKG20060322055012303/22/06 05:50:31  5-MIN KMKG 221050Z 33010G17KT 10SM OVC023 00/M05 A3016 410 69 -1200 330/10G17 RMK AO2 SLP219 T00001050 $
14840KMKG MKG20060322055511703/22/06 05:55:31  5-MIN KMKG 221055Z 33013KT 10SM OVC023 00/M05 A3016 410 69 -1200 330/13 RMK AO2 SLP219 T00001050 $
14840KMKG MKG20060322060010603/22/06 06:00:31  5-MIN KMKG 221100Z 32011G19KT 10SM OVC023 00/M05 A3015 420 69 -1200 320/11G19 RMK AO2 $
14840KMKG MKG20060322060510603/22/06 06:05:31  5-MIN KMKG 221105Z 32013G19KT 10SM OVC023 00/M05 A3015 410 69 -1200 320/13G19 RMK AO2 $
14840KMKG MKG20060322061010003/22/06 06:10:31  5-MIN KMKG 221110Z 33014KT 10SM OVC023 00/M05 A3016 410 69 -1200 330/14 RMK AO2 $
14840KMKG MKG20060322061510003/22/06 06:15:31  5-MIN KMKG 221115Z 33011KT 10SM OVC023 00/M05 A3016 410 69 -1200 340/11 RMK AO2 $
14840KMKG MKG20060322062010003/22/06 06:20:31  5-MIN KMKG 221120Z 32008KT 10SM OVC023 00/M05 A3016 410 69 -1200 330/08 RMK AO2 $
14840KMKG MKG20060322062510003/22/06 06:25:31  5-MIN KMKG 221125Z 33008KT 10SM OVC023 00/M05 A3017 400 69 -1200 340/08 RMK AO2 $
14840KMKG MKG20060322063010003/22/06 06:30:31  5-MIN KMKG 221130Z 33011KT 10SM OVC023 00/M05 A3017 400 69 -1200 330/11 RMK AO2 $
14840KMKG MKG20060322063510003/22/06 06:35:31  5-MIN KMKG 221135Z 31009KT 10SM OVC023 00/M05 A3017 400 69 -1200 320/09 RMK AO2 $
14840KMKG MKG20060322064010603/22/06 06:40:31  5-MIN KMKG 221140Z 32012G17KT 10SM OVC023 00/M05 A3017 400 69 -1200 320/12G17 RMK AO2 $
14840KMKG MKG20060322064510603/22/06 06:45:31  5-MIN KMKG 221145Z 32011G17KT 10SM OVC023 00/M05 A3017 400 69 -1200 330/11G17 RMK AO2 $
14840KMKG MKG20060322065013503/22/06 06:50:31  5-MIN KMKG 221150Z 33010KT 10SM OVC023 00/M05 A3017 400 69 -1200 330/10 RMK AO2 SLP223 T00001050 10000 21017 58003 $
14840KMKG MKG20060322065515103/22/06 06:55:31  5-MIN KMKG 221155Z 33012KT 280V350 10SM OVC023 00/M05 A3017 400 69 -1200 330/12 280V350 RMK AO2 SLP224 T00001050 10000 21017 51014 $
14840KMKG MKG20060322070010003/22/06 07:00:31  5-MIN KMKG 221200Z 33013KT 10SM OVC023 00/M05 A3017 400 69 -1200 330/13 RMK AO2 $
14840KMKG MKG20060322070510003/22/06 07:05:31  5-MIN KMKG 221205Z 32010KT 10SM OVC023 00/M05 A3017 400 69 -1200 320/10 RMK AO2 $
14840KMKG MKG20060322071010003/22/06 07:10:31  5-MIN KMKG 221210Z 31011KT 10SM OVC023 00/M05 A3017 400 69 -1200 320/11 RMK AO2 $
14840KMKG MKG20060322071510603/22/06 07:15:31  5-MIN KMKG 221215Z 32012G17KT 10SM OVC023 00/M05 A3017 400 69 -1200 330/12G17 RMK AO2 $
14840KMKG MKG20060322072010603/22/06 07:20:31  5-MIN KMKG 221220Z 32010G17KT 10SM OVC023 00/M05 A3017 400 69 -1200 320/10G17 RMK AO2 $
14840KMKG MKG20060322072510003/22/06 07:25:31  5-MIN KMKG 221225Z 32009KT 10SM OVC023 00/M05 A3017 400 69 -1200 320/09 RMK AO2 $
14840KMKG MKG20060322073010003/22/06 07:30:31  5-MIN KMKG 221230Z 32010KT 10SM OVC023 00/M04 A3017 400 72 -1200 330/10 RMK AO2 $
14840KMKG MKG20060322073510003/22/06 07:35:31  5-MIN KMKG 221235Z 32009KT 10SM OVC023 00/M04 A3017 400 72 -1200 320/09 RMK AO2 $
14840KMKG MKG20060322074010003/22/06 07:40:31  5-MIN KMKG 221240Z 32012KT 10SM OVC021 00/M04 A3017 400 72 -1200 320/12 RMK AO2 $
14840KMKG MKG20060322074510003/22/06 07:45:31  5-MIN KMKG 221245Z 32010KT 10SM OVC021 00/M04 A3017 400 72 -1300 320/10 RMK AO2 $
14840KMKG MKG20060322075011703/22/06 07:50:31  5-MIN KMKG 221250Z 32009KT 10SM OVC021 00/M04 A3018 390 72 -1300 320/09 RMK AO2 SLP227 T00001044 $
14840KMKG MKG20060322075511703/22/06 07:55:31  5-MIN KMKG 221255Z 31008KT 10SM OVC021 00/M04 A3018 390 72 -1300 320/08 RMK AO2 SLP227 T00001044 $
14840KMKG MKG20060322080009803/22/06 08:00:31  5-MIN KMKG 221300Z 32008KT 10SM OVC021 00/M04 A3018 390 72 -1300 330/08 RMK AO2
14840KMKG MKG20060322080509803/22/06 08:05:31  5-MIN KMKG 221305Z 32010KT 10SM OVC021 00/M04 A3018 390 72 -1300 320/10 RMK AO2
14840KMKG MKG20060322081010403/22/06 08:10:31  5-MIN KMKG 221310Z 32013G17KT 10SM OVC021 00/M04 A3018 390 72 -1300 330/13G17 RMK AO2
14840KMKG MKG20060322081510403/22/06 08:15:31  5-MIN KMKG 221315Z 34010G17KT 10SM OVC021 00/M04 A3018 390 72 -1300 350/10G17 RMK AO2
14840KMKG MKG20060322082009803/22/06 08:20:31  5-MIN KMKG 221320Z 32009KT 10SM OVC021 00/M04 A3018 390 72 -1300 330/09 RMK AO2
14840KMKG MKG20060322082509803/22/06 08:25:31  5-MIN KMKG 221325Z 32008KT 10SM OVC021 00/M04 A3018 390 72 -1300 330/08 RMK AO2
14840KMKG MKG20060322083010403/22/06 08:30:31  5-MIN KMKG 221330Z 32009G16KT 10SM OVC021 00/M04 A3018 390 72 -1300 330/09G16 RMK AO2
14840KMKG MKG20060322083510403/22/06 08:35:31  5-MIN KMKG 221335Z 31009G16KT 10SM OVC021 00/M04 A3018 390 72 -1300 320/09G16 RMK AO2
14840KMKG MKG20060322084009803/22/06 08:40:31  5-MIN KMKG 221340Z 32009KT 10SM OVC021 00/M04 A3018 390 72 -1300 320/09 RMK AO2
14840KMKG MKG20060322084509803/22/06 08:45:31  5-MIN KMKG 221345Z 31007KT 10SM OVC021 00/M04 A3018 390 72 -1300 310/07 RMK AO2
14840KMKG MKG20060322085011503/22/06 08:50:31  5-MIN KMKG 221350Z 32010KT 10SM OVC021 00/M04 A3018 390 72 -1300 330/10 RMK AO2 SLP228 T00001044
14840KMKG MKG20060322085511503/22/06 08:55:31  5-MIN KMKG 221355Z 29008KT 10SM OVC021 01/M04 A3018 390 69 -1200 300/08 RMK AO2 SLP228 T00061044
14840KMKG MKG20060322090009803/22/06 09:00:31  5-MIN KMKG 221400Z 31010KT 10SM OVC021 00/M04 A3018 390 72 -1300 310/10 RMK AO2
14840KMKG MKG20060322090509803/22/06 09:05:31  5-MIN KMKG 221405Z 32008KT 10SM OVC021 01/M04 A3018 390 69 -1200 320/08 RMK AO2
14840KMKG MKG20060322091009803/22/06 09:10:31  5-MIN KMKG 221410Z 33011KT 10SM OVC021 01/M04 A3018 390 72 -1200 340/11 RMK AO2
14840KMKG MKG20060322091509803/22/06 09:15:31  5-MIN KMKG 221415Z 31009KT 10SM OVC021 01/M04 A3018 390 72 -1200 310/09 RMK AO2
14840KMKG MKG20060322092009803/22/06 09:20:31  5-MIN KMKG 221420Z 33010KT 10SM OVC019 01/M04 A3018 390 72 -1200 330/10 RMK AO2
14840KMKG MKG20060322092509803/22/06 09:25:31  5-MIN KMKG 221425Z 31010KT 10SM OVC019 01/M04 A3018 390 72 -1200 320/10 RMK AO2
14840KMKG MKG20060322093009803/22/06 09:30:31  5-MIN KMKG 221430Z 31009KT 10SM OVC019 01/M04 A3018 390 72 -1200 310/09 RMK AO2
14840KMKG MKG20060322093509803/22/06 09:35:31  5-MIN KMKG 221435Z 31011KT 10SM OVC019 01/M04 A3018 390 72 -1200 320/11 RMK AO2
14840KMKG MKG20060322094009803/22/06 09:40:31  5-MIN KMKG 221440Z 30012KT 10SM OVC019 01/M04 A3018 390 72 -1200 310/12 RMK AO2
14840KMKG MKG20060322094509803/22/06 09:45:31  5-MIN KMKG 221445Z 31008KT 10SM OVC019 01/M04 A3018 390 72 -1200 320/08 RMK AO2
14840KMKG MKG20060322095012103/22/06 09:50:31  5-MIN KMKG 221450Z 32010KT 10SM OVC019 01/M04 A3018 390 72 -1200 320/10 RMK AO2 SLP228 T00061039 51014
14840KMKG MKG20060322095512103/22/06 09:55:31  5-MIN KMKG 221455Z 32009KT 10SM OVC019 01/M04 A3018 390 72 -1200 320/09 RMK AO2 SLP229 T00061039 51005
14840KMKG MKG20060322100009803/22/06 10:00:31  5-MIN KMKG 221500Z 32009KT 10SM OVC019 01/M04 A3018 390 72 -1200 320/09 RMK AO2
14840KMKG MKG20060322100509803/22/06 10:05:31  5-MIN KMKG 221505Z 30010KT 10SM OVC021 01/M04 A3018 390 72 -1200 310/10 RMK AO2
14840KMKG MKG20060322101009803/22/06 10:10:31  5-MIN KMKG 221510Z 30013KT 10SM OVC021 01/M04 A3018 390 72 -1200 310/13 RMK AO2
14840KMKG MKG20060322101509803/22/06 10:15:31  5-MIN KMKG 221515Z 31013KT 10SM OVC021 01/M04 A3018 390 69 -1200 310/13 RMK AO2
14840KMKG MKG20060322102010403/22/06 10:20:31  5-MIN KMKG 221520Z 32009G16KT 10SM OVC021 01/M04 A3018 390 69 -1200 330/09G16 RMK AO2
14840KMKG MKG20060322102510403/22/06 10:25:31  5-MIN KMKG 221525Z 30012G17KT 10SM OVC021 01/M04 A3018 390 69 -1200 310/12G17 RMK AO2
14840KMKG MKG20060322103010403/22/06 10:30:31  5-MIN KMKG 221530Z 31012G17KT 10SM OVC021 01/M04 A3018 390 69 -1200 320/12G17 RMK AO2
14840KMKG MKG20060322103509803/22/06 10:35:31  5-MIN KMKG 221535Z 31012KT 10SM OVC021 01/M04 A3018 390 69 -1200 310/12 RMK AO2
14840KMKG MKG20060322104009803/22/06 10:40:31  5-MIN KMKG 221540Z 31012KT 10SM OVC021 01/M04 A3018 390 69 -1200 310/12 RMK AO2
14840KMKG MKG20060322104509803/22/06 10:45:31  5-MIN KMKG 221545Z 31012KT 10SM OVC021 01/M04 A3018 390 69 -1200 310/12 RMK AO2
14840KMKG MKG20060322105011503/22/06 10:50:31  5-MIN KMKG 221550Z 31011KT 10SM OVC021 01/M04 A3018 390 69 -1200 310/11 RMK AO2 SLP229 T00061044
14840KMKG MKG20060322105512103/22/06 10:55:31  5-MIN KMKG 221555Z 31012G16KT 10SM OVC021 01/M04 A3019 390 69 -1200 320/12G16 RMK AO2 SLP230 T00061044
14840KMKG MKG20060322110010403/22/06 11:00:31  5-MIN KMKG 221600Z 30010G16KT 10SM OVC021 01/M04 A3019 390 66 -1100 310/10G16 RMK AO2
14840KMKG MKG20060322110509803/22/06 11:05:31  5-MIN KMKG 221605Z 29013KT 10SM OVC021 01/M04 A3019 380 69 -1200 300/13 RMK AO2
14840KMKG MKG20060322111010403/22/06 11:10:31  5-MIN KMKG 221610Z 32013G17KT 10SM OVC021 01/M04 A3019 380 69 -1200 320/13G17 RMK AO2
14840KMKG MKG20060322111510403/22/06 11:15:31  5-MIN KMKG 221615Z 31011G17KT 10SM OVC021 01/M04 A3019 380 66 -1100 320/11G17 RMK AO2
14840KMKG MKG20060322112009803/22/06 11:20:31  5-MIN KMKG 221620Z 30011KT 10SM OVC021 01/M04 A3019 390 69 -1100 300/11 RMK AO2
14840KMKG MKG20060322112510403/22/06 11:25:31  5-MIN KMKG 221625Z 29012G16KT 10SM OVC023 01/M04 A3018 390 69 -1100 300/12G16 RMK AO2
14840KMKG MKG20060322113010403/22/06 11:30:31  5-MIN KMKG 221630Z 31012G17KT 10SM OVC021 01/M04 A3018 390 66 -1100 310/12G17 RMK AO2
14840KMKG MKG20060322113510403/22/06 11:35:31  5-MIN KMKG 221635Z 31010G17KT 10SM OVC021 01/M04 A3018 390 66 -1100 310/10G17 RMK AO2
14840KMKG MKG20060322114010403/22/06 11:40:31  5-MIN KMKG 221640Z 32009G18KT 10SM OVC021 01/M04 A3019 390 66 -1100 320/09G18 RMK AO2
14840KMKG MKG20060322114510403/22/06 11:45:31  5-MIN KMKG 221645Z 31011G18KT 10SM OVC021 01/M04 A3018 390 66 -1100 320/11G18 RMK AO2
14840KMKG MKG20060322115011503/22/06 11:50:31  5-MIN KMKG 221650Z 32013KT 10SM OVC021 01/M04 A3018 390 66 -1100 320/13 RMK AO2 SLP229 T00111044
14840KMKG MKG20060322115511503/22/06 11:55:31  5-MIN KMKG 221655Z 30014KT 10SM OVC021 01/M04 A3018 390 66 -1100 300/14 RMK AO2 SLP228 T00111044
14840KMKG MKG20060322120010003/22/06 12:00:31  5-MIN KMKG 221700Z 31010KT 10SM OVC021 01/M04 A3018 390 69 -1100 310/10 RMK AO2 $
14840KMKG MKG20060322120510003/22/06 12:05:31  5-MIN KMKG 221705Z 31010KT 10SM OVC021 01/M04 A3018 390 69 -1100 310/10 RMK AO2 $
14840KMKG MKG20060322121010603/22/06 12:10:31  5-MIN KMKG 221710Z 31012G17KT 10SM OVC021 01/M04 A3018 390 69 -1100 320/12G17 RMK AO2 $
14840KMKG MKG20060322121510003/22/06 12:15:31  5-MIN KMKG 221715Z 31012KT 10SM OVC021 01/M04 A3018 390 69 -1100 320/12 RMK AO2 $
14840KMKG MKG20060322122011303/22/06 12:20:31  5-MIN KMKG 221720Z 30012G18KT 10SM BKN022 OVC030 02/M04 A3018 390 64 -1000 310/12G18 RMK AO2 $
14840KMKG MKG20060322122511303/22/06 12:25:31  5-MIN KMKG 221725Z 32014G17KT 10SM BKN022 OVC030 02/M04 A3018 390 64 -1000 320/14G17 RMK AO2 $
14840KMKG MKG20060322123010703/22/06 12:30:31  5-MIN KMKG 221730Z 31011KT 10SM BKN022 OVC030 02/M04 A3018 390 64 -1000 310/11 RMK AO2 $
14840KMKG MKG20060322123510703/22/06 12:35:31  5-MIN KMKG 221735Z 30013KT 10SM BKN022 BKN030 02/M04 A3018 390 61 -1000 310/13 RMK AO2 $
14840KMKG MKG20060322124010703/22/06 12:40:31  5-MIN KMKG 221740Z 31013KT 10SM BKN022 BKN030 02/M04 A3018 390 64 -1000 310/13 RMK AO2 $
14840KMKG MKG20060322124511303/22/06 12:45:31  5-MIN KMKG 221745Z 29014G22KT 10SM BKN022 BKN030 02/M04 A3018 390 64 -1000 300/14G22 RMK AO2 $
14840KMKG MKG20060322125014803/22/06 12:50:31  5-MIN KMKG 221750Z 30014G22KT 10SM BKN022 BKN030 02/M04 A3018 390 64 -1000 310/14G22 RMK AO2 SLP227 T00171044 10022 20000 51005 $
14840KMKG MKG20060322125514803/22/06 12:55:31  5-MIN KMKG 221755Z 30011G18KT 10SM BKN022 OVC030 02/M04 A3018 390 64 -1000 310/11G18 RMK AO2 SLP227 T00171044 10022 20000 58001 $
14840KMKG MKG20060322130010703/22/06 13:00:31  5-MIN KMKG 221800Z 31014KT 10SM BKN022 OVC030 02/M04 A3018 390 64 -1000 320/14 RMK AO2 $
14840KMKG MKG20060322130510703/22/06 13:05:31  5-MIN KMKG 221805Z 28014KT 10SM BKN022 OVC030 02/M04 A3018 390 66 -1000 290/14 RMK AO2 $
14840KMKG MKG20060322131010703/22/06 13:10:31  5-MIN KMKG 221810Z 29016KT 10SM BKN022 OVC030 02/M04 A3018 390 61 -1000 300/16 RMK AO2 $
14840KMKG MKG20060322131510703/22/06 13:15:31  5-MIN KMKG 221815Z 29014KT 10SM BKN022 OVC030 02/M04 A3018 390 64 -1000 290/14 RMK AO2 $
14840KMKG MKG20060322132011103/22/06 13:20:31  5-MIN KMKG 221820Z 29015KT 10SM BKN022 OVC030 02/M04 A3018 390 64 -1000 300/15 RMK AO2 PNO $
14840KMKG MKG20060322132511103/22/06 13:25:31  5-MIN KMKG 221825Z 32012KT 10SM BKN022 OVC030 02/M04 A3018 390 64 -1000 320/12 RMK AO2 PNO $
14840KMKG MKG20060322133011103/22/06 13:30:31  5-MIN KMKG 221830Z 30016KT 10SM BKN022 OVC030 02/M04 A3018 390 64 -1000 300/16 RMK AO2 PNO $
14840KMKG MKG20060322133511103/22/06 13:35:31  5-MIN KMKG 221835Z 30015KT 10SM BKN022 OVC030 02/M04 A3018 390 64 -1000 300/15 RMK AO2 PNO $
14840KMKG MKG20060322134011103/22/06 13:40:31  5-MIN KMKG 221840Z 30014KT 10SM BKN022 OVC030 02/M04 A3018 390 64 -1000 310/14 RMK AO2 PNO $
14840KMKG MKG20060322134511703/22/06 13:45:31  5-MIN KMKG 221845Z 30015G19KT 10SM BKN022 OVC030 02/M04 A3018 390 64 -1000 300/15G19 RMK AO2 PNO $
14840KMKG MKG20060322135012803/22/06 13:50:31  5-MIN KMKG 221850Z 30014KT 10SM BKN024 OVC030 02/M04 A3017 400 64 -1000 300/14 RMK AO2 SLP226 T00171044 PNO $
14840KMKG MKG20060322135512103/22/06 13:55:31  5-MIN KMKG 221855Z 30014KT 10SM OVC024 02/M04 A3018 390 64 -1000 300/14 RMK AO2 SLP226 T00171044 PNO $
14840KMKG MKG20060322140010403/22/06 14:00:31  5-MIN KMKG 221900Z 30015KT 10SM OVC024 02/M04 A3017 400 64 -1000 310/15 RMK AO2 PNO $
14840KMKG MKG20060322140509803/22/06 14:05:31  5-MIN KMKG 221905Z 31012KT 10SM OVC024 02/M04 A3018 400 64 -1000 310/12 RMK AO2
14840KMKG MKG20060322141010403/22/06 14:10:31  5-MIN KMKG 221910Z 32013G21KT 10SM OVC024 02/M04 A3018 390 64 -1000 330/13G21 RMK AO2
14840KMKG MKG20060322141510403/22/06 14:15:31  5-MIN KMKG 221915Z 30013G21KT 10SM OVC024 02/M04 A3017 400 61 -1000 300/13G21 RMK AO2
14840KMKG MKG20060322142010403/22/06 14:20:31  5-MIN KMKG 221920Z 31014G19KT 10SM OVC024 02/M04 A3017 400 61 -1000 320/14G19 RMK AO2
14840KMKG MKG20060322142509803/22/06 14:25:31  5-MIN KMKG 221925Z 31014KT 10SM OVC024 02/M04 A3017 400 64 -1000 320/14 RMK AO2
14840KMKG MKG20060322143010403/22/06 14:30:31  5-MIN KMKG 221930Z 31011G19KT 10SM OVC024 02/M04 A3017 400 64 -1000 320/11G19 RMK AO2
14840KMKG MKG20060322143510403/22/06 14:35:31  5-MIN KMKG 221935Z 30017G20KT 10SM OVC024 02/M04 A3017 400 64 -1000 310/17G20 RMK AO2
14840KMKG MKG20060322144010403/22/06 14:40:31  5-MIN KMKG 221940Z 29015G20KT 10SM OVC024 02/M04 A3017 400 64 -1000 300/15G20 RMK AO2
14840KMKG MKG20060322144511103/22/06 14:45:31  5-MIN KMKG 221945Z 31014G20KT 10SM BKN024 OVC031 02/M04 A3018 390 64 -1000 320/14G20 RMK AO2
14840KMKG MKG20060322145011503/22/06 14:50:31  5-MIN KMKG 221950Z 30014KT 10SM OVC028 02/M05 A3018 390 61 -1000 300/14 RMK AO2 SLP227 T00171050
14840KMKG MKG20060322145511503/22/06 14:55:31  5-MIN KMKG 221955Z 31011KT 10SM OVC028 02/M04 A3018 390 64 -1000 310/11 RMK AO2 SLP227 T00171044
14840KMKG MKG20060322150009803/22/06 15:00:31  5-MIN KMKG 222000Z 30012KT 10SM OVC028 01/M05 A3018 390 64 -1100 310/12 RMK AO2
14840KMKG MKG20060322150509803/22/06 15:05:31  5-MIN KMKG 222005Z 30009KT 10SM OVC028 02/M05 A3018 390 61 -1000 300/09 RMK AO2
14840KMKG MKG20060322151010403/22/06 15:10:31  5-MIN KMKG 222010Z 31011G17KT 10SM OVC030 02/M05 A3018 390 61 -1000 320/11G17 RMK AO2
14840KMKG MKG20060322151510403/22/06 15:15:31  5-MIN KMKG 222015Z 33011G17KT 10SM OVC032 02/M04 A3018 390 64 -1000 330/11G17 RMK AO2
14840KMKG MKG20060322152009803/22/06 15:20:31  5-MIN KMKG 222020Z 31009KT 10SM OVC032 02/M04 A3018 390 61 -1000 310/09 RMK AO2
14840KMKG MKG20060322152510403/22/06 15:25:31  5-MIN KMKG 222025Z 30012G17KT 10SM OVC034 02/M05 A3018 390 61 -1000 300/12G17 RMK AO2
14840KMKG MKG20060322153009803/22/06 15:30:31  5-MIN KMKG 222030Z 30012KT 10SM OVC034 02/M04 A3018 390 64 -1000 300/12 RMK AO2
14840KMKG MKG20060322153509803/22/06 15:35:31  5-MIN KMKG 222035Z 31011KT 10SM OVC036 02/M04 A3018 390 64 -1000 310/11 RMK AO2
14840KMKG MKG20060322154009803/22/06 15:40:31  5-MIN KMKG 222040Z 31009KT 10SM OVC036 02/M04 A3018 390 64 -1000 320/09 RMK AO2
14840KMKG MKG20060322154509803/22/06 15:45:31  5-MIN KMKG 222045Z 31011KT 10SM OVC038 02/M04 A3018 390 61 -1000 320/11 RMK AO2
14840KMKG MKG20060322155012103/22/06 15:50:31  5-MIN KMKG 222050Z 31010KT 10SM OVC038 02/M04 A3018 390 64 -1000 310/10 RMK AO2 SLP226 T00171044 58001
14840KMKG MKG20060322155512103/22/06 15:55:31  5-MIN KMKG 222055Z 32012KT 10SM OVC038 02/M05 A3018 390 61 -1000 330/12 RMK AO2 SLP226 T00171050 56001
14840KMKG MKG20060322160009803/22/06 16:00:31  5-MIN KMKG 222100Z 34011KT 10SM OVC038 02/M05 A3018 390 59 -1000 340/11 RMK AO2
14840KMKG MKG20060322160509803/22/06 16:05:31  5-MIN KMKG 222105Z 33011KT 10SM OVC038 02/M05 A3018 390 59 -1000 330/11 RMK AO2
14840KMKG MKG20060322161009803/22/06 16:10:31  5-MIN KMKG 222110Z 34011KT 10SM OVC040 02/M05 A3018 390 59 -1000 340/11 RMK AO2
14840KMKG MKG20060322161509803/22/06 16:15:31  5-MIN KMKG 222115Z 35010KT 10SM OVC040 02/M05 A3018 390 59 -1000 350/10 RMK AO2
14840KMKG MKG20060322162009803/22/06 16:20:31  5-MIN KMKG 222120Z 36010KT 10SM OVC040 02/M05 A3018 390 59 -1000 360/10 RMK AO2
14840KMKG MKG20060322162509803/22/06 16:25:31  5-MIN KMKG 222125Z 35008KT 10SM OVC042 02/M04 A3017 400 61 -1000 350/08 RMK AO2
14840KMKG MKG20060322163009803/22/06 16:30:31  5-MIN KMKG 222130Z 33009KT 10SM OVC042 02/M04 A3017 400 61 -1000 340/09 RMK AO2
14840KMKG MKG20060322163509803/22/06 16:35:31  5-MIN KMKG 222135Z 36009KT 10SM OVC042 02/M05 A3017 400 59 -1000 010/09 RMK AO2
14840KMKG MKG20060322164009803/22/06 16:40:31  5-MIN KMKG 222140Z 35010KT 10SM OVC046 02/M05 A3017 400 59 -1000 350/10 RMK AO2
14840KMKG MKG20060322164509803/22/06 16:45:31  5-MIN KMKG 222145Z 34010KT 10SM OVC046 02/M05 A3017 400 59 -1000 350/10 RMK AO2
14840KMKG MKG20060322165011503/22/06 16:50:31  5-MIN KMKG 222150Z 34006KT 10SM OVC048 02/M05 A3017 400 59 -1000 340/06 RMK AO2 SLP223 T00221050
14840KMKG MKG20060322165511503/22/06 16:55:31  5-MIN KMKG 222155Z 33009KT 10SM OVC048 02/M05 A3017 400 59 -1000 340/09 RMK AO2 SLP224 T00221050
14840KMKG MKG20060322170009803/22/06 17:00:31  5-MIN KMKG 222200Z 36009KT 10SM OVC048 02/M05 A3017 400 59 -1000 360/09 RMK AO2
14840KMKG MKG20060322170509803/22/06 17:05:31  5-MIN KMKG 222205Z 34006KT 10SM OVC050 02/M05 A3017 400 59 -1000 340/06 RMK AO2
14840KMKG MKG20060322171009803/22/06 17:10:31  5-MIN KMKG 222210Z 33006KT 10SM OVC050 02/M05 A3017 400 59 -1000 340/06 RMK AO2
14840KMKG MKG20060322171509703/22/06 17:15:31  5-MIN KMKG 222215Z 35005KT 10SM OVC050 03/M05 A3017 400 56 -900 350/05 RMK AO2
14840KMKG MKG20060322172009803/22/06 17:20:31  5-MIN KMKG 222220Z 33004KT 10SM OVC050 02/M04 A3017 400 61 -1000 340/04 RMK AO2
14840KMKG MKG20060322172509803/22/06 17:25:31  5-MIN KMKG 222225Z 33006KT 10SM OVC050 02/M05 A3017 400 59 -1000 330/06 RMK AO2
14840KMKG MKG20060322173009803/22/06 17:30:31  5-MIN KMKG 222230Z 35005KT 10SM OVC050 02/M05 A3017 400 59 -1000 350/05 RMK AO2
14840KMKG MKG20060322173509703/22/06 17:35:31  5-MIN KMKG 222235Z 36005KT 10SM OVC050 03/M04 A3017 400 59 -900 360/05 RMK AO2
14840KMKG MKG20060322174009703/22/06 17:40:31  5-MIN KMKG 222240Z 35006KT 10SM OVC050 03/M04 A3017 400 59 -900 350/06 RMK AO2
14840KMKG MKG20060322174509803/22/06 17:45:31  5-MIN KMKG 222245Z 36006KT 10SM OVC055 02/M04 A3018 390 61 -1000 360/06 RMK AO2
14840KMKG MKG20060322175011503/22/06 17:50:31  5-MIN KMKG 222250Z 34004KT 10SM OVC055 02/M04 A3018 390 61 -1000 350/04 RMK AO2 SLP226 T00221044
14840KMKG MKG20060322175511503/22/06 17:55:31  5-MIN KMKG 222255Z 32005KT 10SM OVC055 02/M04 A3018 390 61 -1000 330/05 RMK AO2 SLP226 T00221044
14840KMKG MKG20060322180009803/22/06 18:00:31  5-MIN KMKG 222300Z 31004KT 10SM OVC055 02/M05 A3018 390 59 -1000 320/04 RMK AO2
14840KMKG MKG20060322180509803/22/06 18:05:31  5-MIN KMKG 222305Z 33005KT 10SM OVC055 02/M05 A3018 390 59 -1000 340/05 RMK AO2
14840KMKG MKG20060322181010503/22/06 18:10:31  5-MIN KMKG 222310Z 35007KT 10SM FEW049 OVC060 02/M05 A3018 390 59 -1000 360/07 RMK AO2
14840KMKG MKG20060322181510503/22/06 18:15:31  5-MIN KMKG 222315Z 33004KT 10SM FEW049 OVC060 02/M05 A3018 390 59 -1000 340/04 RMK AO2
14840KMKG MKG20060322182010503/22/06 18:20:31  5-MIN KMKG 222320Z 33004KT 10SM SCT050 OVC060 02/M05 A3018 390 59 -1000 340/04 RMK AO2
14840KMKG MKG20060322182509803/22/06 18:25:31  5-MIN KMKG 222325Z 33005KT 10SM OVC060 02/M05 A3018 390 59 -1000 340/05 RMK AO2
14840KMKG MKG20060322183009803/22/06 18:30:31  5-MIN KMKG 222330Z 34003KT 10SM OVC060 02/M05 A3018 390 59 -1000 340/03 RMK AO2
14840KMKG MKG20060322183509803/22/06 18:35:31  5-MIN KMKG 222335Z 33003KT 10SM OVC060 02/M05 A3018 390 59 -1000 330/03 RMK AO2
14840KMKG MKG20060322184009803/22/06 18:40:31  5-MIN KMKG 222340Z 32004KT 10SM OVC060 02/M05 A3019 380 59 -1000 330/04 RMK AO2
14840KMKG MKG20060322184509803/22/06 18:45:31  5-MIN KMKG 222345Z 34004KT 10SM OVC060 02/M05 A3019 380 59 -1000 340/04 RMK AO2
14840KMKG MKG20060322185013903/22/06 18:50:31  5-MIN KMKG 222350Z 27004KT 10SM OVC060 02/M04 A3019 380 66 -1100 270/04 RMK AO2 SLP229 6//// T00171039 10028 20011 56001
14840KMKG MKG20060322185513303/22/06 18:55:31  5-MIN KMKG 222355Z 28003KT 10SM OVC060 02/M03 A3019 380 69 -1100 280/03 RMK AO2 SLP229 T00171033 10028 20011 53004
14840KMKG MKG20060322190009803/22/06 19:00:31  5-MIN KMKG 230000Z 27004KT 10SM OVC060 02/M03 A3019 380 69 -1100 270/04 RMK AO2
14840KMKG MKG20060322190509803/22/06 19:05:31  5-MIN KMKG 230005Z 27004KT 10SM OVC060 02/M03 A3019 380 69 -1100 280/04 RMK AO2
14840KMKG MKG20060322191009803/22/06 19:10:31  5-MIN KMKG 230010Z 27004KT 10SM OVC060 02/M03 A3019 380 69 -1100 280/04 RMK AO2
14840KMKG MKG20060322191509803/22/06 19:15:31  5-MIN KMKG 230015Z 26004KT 10SM OVC060 01/M03 A3019 380 72 -1100 260/04 RMK AO2
14840KMKG MKG20060322192010503/22/06 19:20:31  5-MIN KMKG 230020Z 28004KT 10SM BKN050 OVC065 01/M03 A3019 380 72 -1100 280/04 RMK AO2
14840KMKG MKG20060322192510503/22/06 19:25:31  5-MIN KMKG 230025Z 26005KT 10SM BKN050 OVC065 01/M03 A3019 380 72 -1100 260/05 RMK AO2
14840KMKG MKG20060322193010503/22/06 19:30:31  5-MIN KMKG 230030Z 25005KT 10SM BKN050 OVC065 01/M03 A3019 380 72 -1100 260/05 RMK AO2
14840KMKG MKG20060322193510503/22/06 19:35:31  5-MIN KMKG 230035Z 26005KT 10SM BKN050 OVC065 01/M03 A3019 380 72 -1100 260/05 RMK AO2
14840KMKG MKG20060322194010503/22/06 19:40:31  5-MIN KMKG 230040Z 26004KT 10SM BKN050 OVC065 01/M03 A3019 380 72 -1100 270/04 RMK AO2
14840KMKG MKG20060322194509803/22/06 19:45:31  5-MIN KMKG 230045Z 27005KT 10SM OVC055 01/M03 A3019 380 72 -1100 270/05 RMK AO2
14840KMKG MKG20060322195012203/22/06 19:50:31  5-MIN KMKG 230050Z 26004KT 10SM BKN050 OVC065 01/M03 A3020 380 72 -1100 270/04 RMK AO2 SLP233 T00111033
14840KMKG MKG20060322195511503/22/06 19:55:31  5-MIN KMKG 230055Z 27004KT 10SM OVC060 01/M03 A3020 380 72 -1100 270/04 RMK AO2 SLP233 T00111033
14840KMKG MKG20060322200009803/22/06 20:00:31  5-MIN KMKG 230100Z 28004KT 10SM OVC060 01/M03 A3020 380 72 -1100 280/04 RMK AO2
14840KMKG MKG20060322200509803/22/06 20:05:31  5-MIN KMKG 230105Z 29004KT 10SM OVC060 01/M03 A3020 380 72 -1100 290/04 RMK AO2
14840KMKG MKG20060322201009803/22/06 20:10:31  5-MIN KMKG 230110Z 29004KT 10SM OVC060 01/M03 A3020 380 75 -1100 300/04 RMK AO2
14840KMKG MKG20060322201509803/22/06 20:15:31  5-MIN KMKG 230115Z 30004KT 10SM OVC060 01/M03 A3020 370 75 -1100 300/04 RMK AO2
14840KMKG MKG20060322202009803/22/06 20:20:31  5-MIN KMKG 230120Z 29003KT 10SM OVC060 01/M03 A3020 370 75 -1100 290/03 RMK AO2
14840KMKG MKG20060322202509803/22/06 20:25:31  5-MIN KMKG 230125Z 27003KT 10SM OVC060 01/M03 A3020 370 75 -1100 270/03 RMK AO2
14840KMKG MKG20060322203009803/22/06 20:30:31  5-MIN KMKG 230130Z 26004KT 10SM OVC055 01/M03 A3020 370 75 -1100 270/04 RMK AO2
14840KMKG MKG20060322203509803/22/06 20:35:31  5-MIN KMKG 230135Z 27004KT 10SM OVC055 01/M03 A3020 370 75 -1100 270/04 RMK AO2
14840KMKG MKG20060322204009803/22/06 20:40:31  5-MIN KMKG 230140Z 27004KT 10SM OVC060 01/M03 A3020 370 75 -1100 270/04 RMK AO2
14840KMKG MKG20060322204509803/22/06 20:45:31  5-MIN KMKG 230145Z 27004KT 10SM OVC060 01/M03 A3020 370 75 -1100 270/04 RMK AO2
14840KMKG MKG20060322205011503/22/06 20:50:31  5-MIN KMKG 230150Z 28004KT 10SM OVC060 01/M03 A3021 370 75 -1100 280/04 RMK AO2 SLP236 T00111028
14840KMKG MKG20060322205511503/22/06 20:55:31  5-MIN KMKG 230155Z 29003KT 10SM OVC060 01/M03 A3021 370 75 -1100 300/03 RMK AO2 SLP236 T00111028
14840KMKG MKG20060322210009803/22/06 21:00:31  5-MIN KMKG 230200Z 30004KT 10SM OVC065 01/M03 A3021 360 75 -1200 300/04 RMK AO2
14840KMKG MKG20060322210509803/22/06 21:05:31  5-MIN KMKG 230205Z 29003KT 10SM OVC065 01/M03 A3021 360 75 -1200 290/03 RMK AO2
14840KMKG MKG20060322211009803/22/06 21:10:31  5-MIN KMKG 230210Z 28003KT 10SM OVC065 01/M03 A3021 360 75 -1200 290/03 RMK AO2
14840KMKG MKG20060322211509803/22/06 21:15:31  5-MIN KMKG 230215Z 00000KT 10SM OVC065 01/M03 A3021 360 75 -1200 000/00 RMK AO2
14840KMKG MKG20060322212009803/22/06 21:20:31  5-MIN KMKG 230220Z 28003KT 10SM OVC065 01/M03 A3021 360 75 -1200 280/03 RMK AO2
14840KMKG MKG20060322212509803/22/06 21:25:31  5-MIN KMKG 230225Z 28003KT 10SM OVC065 01/M03 A3022 360 75 -1200 280/03 RMK AO2
14840KMKG MKG20060322213009803/22/06 21:30:31  5-MIN KMKG 230230Z 28004KT 10SM OVC060 01/M03 A3022 360 75 -1200 280/04 RMK AO2
14840KMKG MKG20060322213509803/22/06 21:35:31  5-MIN KMKG 230235Z 28004KT 10SM OVC060 01/M03 A3022 360 75 -1200 290/04 RMK AO2
14840KMKG MKG20060322214009803/22/06 21:40:31  5-MIN KMKG 230240Z 29004KT 10SM OVC060 01/M03 A3022 350 75 -1200 290/04 RMK AO2
14840KMKG MKG20060322214509803/22/06 21:45:31  5-MIN KMKG 230245Z 29004KT 10SM OVC060 01/M03 A3022 360 75 -1200 300/04 RMK AO2
14840KMKG MKG20060322215012103/22/06 21:50:31  5-MIN KMKG 230250Z 30004KT 10SM OVC060 01/M03 A3022 350 75 -1200 300/04 RMK AO2 SLP240 T00111028 53004
14840KMKG MKG20060322215512103/22/06 21:55:31  5-MIN KMKG 230255Z 29004KT 10SM OVC060 01/M03 A3022 350 75 -1200 300/04 RMK AO2 SLP241 T00111028 53011
14840KMKG MKG20060322220009803/22/06 22:00:31  5-MIN KMKG 230300Z 29003KT 10SM OVC060 01/M03 A3022 350 75 -1200 290/03 RMK AO2
14840KMKG MKG20060322220509803/22/06 22:05:31  5-MIN KMKG 230305Z 29004KT 10SM OVC060 01/M03 A3022 350 75 -1200 290/04 RMK AO2
14840KMKG MKG20060322221010503/22/06 22:10:31  5-MIN KMKG 230310Z 29004KT 10SM SCT050 OVC060 01/M03 A3022 350 75 -1200 300/04 RMK AO2
14840KMKG MKG20060322221510503/22/06 22:15:31  5-MIN KMKG 230315Z 29005KT 10SM BKN050 OVC060 01/M03 A3023 350 75 -1200 290/05 RMK AO2
14840KMKG MKG20060322222010503/22/06 22:20:31  5-MIN KMKG 230320Z 30004KT 10SM BKN050 OVC060 01/M03 A3023 350 75 -1200 300/04 RMK AO2
14840KMKG MKG20060322222510503/22/06 22:25:31  5-MIN KMKG 230325Z 30003KT 10SM BKN050 OVC060 01/M03 A3023 350 75 -1200 300/03 RMK AO2
14840KMKG MKG20060322223010503/22/06 22:30:31  5-MIN KMKG 230330Z 30003KT 10SM BKN050 OVC060 01/M03 A3023 350 75 -1200 310/03 RMK AO2
14840KMKG MKG20060322223509803/22/06 22:35:31  5-MIN KMKG 230335Z 31003KT 10SM OVC050 01/M03 A3022 350 75 -1200 310/03 RMK AO2
14840KMKG MKG20060322224009803/22/06 22:40:31  5-MIN KMKG 230340Z 30003KT 10SM OVC050 01/M03 A3023 350 75 -1200 300/03 RMK AO2
14840KMKG MKG20060322224509803/22/06 22:45:31  5-MIN KMKG 230345Z 30003KT 10SM OVC050 01/M03 A3023 350 75 -1200 310/03 RMK AO2
14840KMKG MKG20060322225011503/22/06 22:50:31  5-MIN KMKG 230350Z 30004KT 10SM OVC048 01/M03 A3023 350 75 -1200 310/04 RMK AO2 SLP243 T00111028
14840KMKG MKG20060322225511503/22/06 22:55:31  5-MIN KMKG 230355Z 33003KT 10SM OVC048 02/M03 A3023 350 72 -1100 330/03 RMK AO2 SLP242 T00171028
14840KMKG MKG20060322230009803/22/06 23:00:31  5-MIN KMKG 230400Z 33005KT 10SM OVC048 02/M03 A3023 350 72 -1100 340/05 RMK AO2
14840KMKG MKG20060322230510503/22/06 23:05:31  5-MIN KMKG 230405Z 33006KT 10SM FEW039 OVC048 02/M03 A3023 350 72 -1100 330/06 RMK AO2
14840KMKG MKG20060322231009803/22/06 23:10:31  5-MIN KMKG 230410Z 34005KT 10SM OVC048 02/M03 A3023 350 72 -1100 350/05 RMK AO2
14840KMKG MKG20060322231510503/22/06 23:15:31  5-MIN KMKG 230415Z 36006KT 10SM BKN048 OVC060 02/M03 A3023 350 72 -1100 010/06 RMK AO2
14840KMKG MKG20060322232011203/22/06 23:20:31  5-MIN KMKG 230420Z 36006KT 10SM FEW040 BKN048 OVC065 02/M03 A3023 350 69 -1100 360/06 RMK AO2
14840KMKG MKG20060322232511203/22/06 23:25:31  5-MIN KMKG 230425Z 01005KT 10SM FEW040 BKN050 OVC060 02/M03 A3023 350 69 -1100 010/05 RMK AO2
14840KMKG MKG20060322233011203/22/06 23:30:31  5-MIN KMKG 230430Z 01005KT 10SM FEW040 BKN050 OVC060 02/M03 A3022 350 69 -1100 010/05 RMK AO2
14840KMKG MKG20060322233512003/22/06 23:35:31  5-MIN KMKG 230435Z 36006KT 10SM SCT050 OVC060 02/M04 A3022 350 66 -1100 360/06 RMK AO2 CIG 050 RWY 14
14840KMKG MKG20060322234010503/22/06 23:40:31  5-MIN KMKG 230440Z 36006KT 10SM FEW050 OVC060 02/M04 A3023 350 66 -1100 360/06 RMK AO2
14840KMKG MKG20060322234510503/22/06 23:45:31  5-MIN KMKG 230445Z 36004KT 10SM FEW050 OVC060 02/M04 A3022 350 66 -1100 360/04 RMK AO2
14840KMKG MKG20060322235013203/22/06 23:50:31  5-MIN KMKG 230450Z 36004KT 10SM FEW050 OVC060 01/M03 A3022 350 72 -1200 010/04 RMK AO2 SLP242 T00111033 400441017
14840KMKG MKG20060322235513203/22/06 23:55:31  5-MIN KMKG 230455Z 36004KT 10SM FEW033 OVC060 02/M04 A3022 350 66 -1100 360/04 RMK AO2 SLP242 T00171039 400441017
14840KMKG MKG20060323000010503/23/06 00:00:32  5-MIN KMKG 230500Z 36004KT 10SM SCT031 OVC060 02/M04 A3022 350 66 -1100 010/04 RMK AO2
14840KMKG MKG20060323000510503/23/06 00:05:31  5-MIN KMKG 230505Z 36003KT 10SM BKN031 OVC060 02/M04 A3022 350 66 -1100 010/03 RMK AO2
14840KMKG MKG20060323001010503/23/06 00:10:31  5-MIN KMKG 230510Z 36003KT 10SM BKN031 OVC060 01/M03 A3022 350 72 -1200 360/03 RMK AO2
14840KMKG MKG20060323001510503/23/06 00:15:31  5-MIN KMKG 230515Z 34004KT 10SM BKN029 OVC060 01/M03 A3022 350 72 -1200 350/04 RMK AO2
14840KMKG MKG20060323002009803/23/06 00:20:31  5-MIN KMKG 230520Z 33005KT 10SM OVC029 02/M03 A3023 350 69 -1100 340/05 RMK AO2
14840KMKG MKG20060323002509803/23/06 00:25:31  5-MIN KMKG 230525Z 34006KT 10SM OVC029 02/M03 A3023 350 69 -1100 340/06 RMK AO2
14840KMKG MKG20060323003009803/23/06 00:30:31  5-MIN KMKG 230530Z 35005KT 10SM OVC027 02/M03 A3023 350 69 -1100 360/05 RMK AO2
14840KMKG MKG20060323003509803/23/06 00:35:31  5-MIN KMKG 230535Z 34005KT 10SM OVC027 02/M03 A3023 350 69 -1100 350/05 RMK AO2
14840KMKG MKG20060323004009803/23/06 00:40:31  5-MIN KMKG 230540Z 34004KT 10SM OVC027 02/M03 A3023 350 69 -1100 340/04 RMK AO2
14840KMKG MKG20060323004509803/23/06 00:45:31  5-MIN KMKG 230545Z 33005KT 10SM OVC027 01/M03 A3023 350 72 -1200 340/05 RMK AO2
14840KMKG MKG20060323005013303/23/06 00:50:31  5-MIN KMKG 230550Z 34005KT 10SM OVC027 01/M03 A3023 350 72 -1200 340/05 RMK AO2 SLP242 T00111033 10017 20011 53011
14840KMKG MKG20060323005513303/23/06 00:55:31  5-MIN KMKG 230555Z 35005KT 10SM OVC027 01/M03 A3023 350 72 -1200 350/05 RMK AO2 SLP243 T00111033 10017 20011 51002
14840KMKG MKG20060323010009803/23/06 01:00:31  5-MIN KMKG 230600Z 34004KT 10SM OVC027 01/M03 A3023 350 72 -1200 340/04 RMK AO2
14840KMKG MKG20060323010509803/23/06 01:05:31  5-MIN KMKG 230605Z 33005KT 10SM OVC027 01/M03 A3023 350 72 -1200 340/05 RMK AO2
14840KMKG MKG20060323011010503/23/06 01:10:31  5-MIN KMKG 230610Z 33006KT 10SM BKN027 OVC055 01/M03 A3023 350 72 -1200 340/06 RMK AO2
14840KMKG MKG20060323011510503/23/06 01:15:31  5-MIN KMKG 230615Z 35006KT 10SM BKN027 OVC055 01/M03 A3022 350 72 -1200 350/06 RMK AO2
14840KMKG MKG20060323012010503/23/06 01:20:31  5-MIN KMKG 230620Z 35005KT 10SM SCT027 OVC055 01/M03 A3023 350 72 -1200 350/05 RMK AO2
14840KMKG MKG20060323012510503/23/06 01:25:31  5-MIN KMKG 230625Z 33005KT 10SM SCT027 OVC055 01/M03 A3023 350 75 -1200 340/05 RMK AO2
14840KMKG MKG20060323013010503/23/06 01:30:31  5-MIN KMKG 230630Z 34005KT 10SM FEW027 OVC055 01/M03 A3023 350 75 -1200 350/05 RMK AO2
14840KMKG MKG20060323013510503/23/06 01:35:31  5-MIN KMKG 230635Z 33004KT 10SM FEW025 OVC055 01/M03 A3023 350 75 -1200 330/04 RMK AO2
14840KMKG MKG20060323014010503/23/06 01:40:31  5-MIN KMKG 230640Z 34005KT 10SM FEW020 OVC055 01/M03 A3023 350 75 -1200 350/05 RMK AO2
14840KMKG MKG20060323014510503/23/06 01:45:31  5-MIN KMKG 230645Z 33005KT 10SM SCT020 OVC055 01/M03 A3023 340 75 -1200 330/05 RMK AO2
14840KMKG MKG20060323015012203/23/06 01:50:31  5-MIN KMKG 230650Z 31003KT 10SM FEW020 OVC055 01/M03 A3023 340 75 -1200 320/03 RMK AO2 SLP244 T00111028
14840KMKG MKG20060323015512203/23/06 01:55:31  5-MIN KMKG 230655Z 33004KT 10SM FEW020 OVC055 01/M02 A3023 350 78 -1200 330/04 RMK AO2 SLP244 T00111022
14840KMKG MKG20060323020010503/23/06 02:00:31  5-MIN KMKG 230700Z 32004KT 10SM FEW020 OVC055 01/M02 A3023 350 78 -1200 330/04 RMK AO2
14840KMKG MKG20060323020510503/23/06 02:05:31  5-MIN KMKG 230705Z 29004KT 10SM FEW020 OVC055 01/M02 A3023 340 82 -1200 300/04 RMK AO2
14840KMKG MKG20060323021010503/23/06 02:10:31  5-MIN KMKG 230710Z 30004KT 10SM FEW037 OVC055 01/M02 A3023 350 82 -1200 310/04 RMK AO2
14840KMKG MKG20060323021509803/23/06 02:15:31  5-MIN KMKG 230715Z 31004KT 10SM OVC055 01/M02 A3023 350 78 -1200 310/04 RMK AO2
14840KMKG MKG20060323022009803/23/06 02:20:31  5-MIN KMKG 230720Z 33003KT 10SM OVC055 01/M02 A3023 350 82 -1200 340/03 RMK AO2
14840KMKG MKG20060323022509803/23/06 02:25:31  5-MIN KMKG 230725Z 00000KT 10SM OVC055 01/M02 A3023 350 85 -1200 000/00 RMK AO2
14840KMKG MKG20060323023009803/23/06 02:30:31  5-MIN KMKG 230730Z 00000KT 10SM OVC055 01/M02 A3023 350 82 -1200 000/00 RMK AO2
14840KMKG MKG20060323023509803/23/06 02:35:31  5-MIN KMKG 230735Z 31003KT 10SM OVC055 01/M02 A3023 350 85 -1200 310/03 RMK AO2
14840KMKG MKG20060323024009803/23/06 02:40:31  5-MIN KMKG 230740Z 30003KT 10SM OVC055 01/M02 A3023 350 85 -1200 310/03 RMK AO2
14840KMKG MKG20060323024509803/23/06 02:45:31  5-MIN KMKG 230745Z 31003KT 10SM OVC055 01/M02 A3022 350 85 -1200 320/03 RMK AO2
14840KMKG MKG20060323025011503/23/06 02:50:31  5-MIN KMKG 230750Z 33003KT 10SM OVC055 01/M02 A3023 350 85 -1200 330/03 RMK AO2 SLP242 T00061017
14840KMKG MKG20060323025511503/23/06 02:55:31  5-MIN KMKG 230755Z 32003KT 10SM OVC055 01/M02 A3023 350 85 -1200 330/03 RMK AO2 SLP242 T00061017
14840KMKG MKG20060323030009803/23/06 03:00:31  5-MIN KMKG 230800Z 34003KT 10SM OVC055 01/M02 A3022 350 85 -1200 350/03 RMK AO2
14840KMKG MKG20060323030509803/23/06 03:05:31  5-MIN KMKG 230805Z 34003KT 10SM OVC055 01/M02 A3022 350 85 -1200 350/03 RMK AO2
14840KMKG MKG20060323031009803/23/06 03:10:31  5-MIN KMKG 230810Z 34004KT 10SM OVC055 01/M02 A3022 350 85 -1200 340/04 RMK AO2
14840KMKG MKG20060323031509803/23/06 03:15:31  5-MIN KMKG 230815Z 35005KT 10SM OVC060 01/M02 A3022 350 82 -1200 350/05 RMK AO2
14840KMKG MKG20060323032009803/23/06 03:20:31  5-MIN KMKG 230820Z 36004KT 10SM OVC055 01/M02 A3022 350 82 -1200 010/04 RMK AO2
14840KMKG MKG20060323032509803/23/06 03:25:31  5-MIN KMKG 230825Z 36004KT 10SM OVC055 01/M02 A3022 350 82 -1200 010/04 RMK AO2
14840KMKG MKG20060323033009803/23/06 03:30:31  5-MIN KMKG 230830Z 36005KT 10SM OVC055 00/M03 A3022 350 81 -1300 360/05 RMK AO2
14840KMKG MKG20060323033509803/23/06 03:35:31  5-MIN KMKG 230835Z 36005KT 10SM BKN055 00/M03 A3022 350 81 -1300 010/05 RMK AO2
14840KMKG MKG20060323034009803/23/06 03:40:31  5-MIN KMKG 230840Z 36004KT 10SM BKN055 00/M03 A3022 350 81 -1300 010/04 RMK AO2
14840KMKG MKG20060323034509903/23/06 03:45:31  5-MIN KMKG 230845Z 01005KT 10SM BKN055 M01/M03 A3023 350 85 -1400 010/05 RMK AO2
14840KMKG MKG20060323035012203/23/06 03:50:31  5-MIN KMKG 230850Z 01005KT 10SM SCT055 M01/M03 A3023 350 85 -1400 010/05 RMK AO2 SLP243 T10061028 51002
14840KMKG MKG20060323035512103/23/06 03:55:31  5-MIN KMKG 230855Z 36005KT 10SM FEW055 00/M03 A3023 350 81 -1300 010/05 RMK AO2 SLP242 T00001028 58001
14840KMKG MKG20060323040009903/23/06 04:00:31  5-MIN KMKG 230900Z 01005KT 10SM FEW055 M01/M03 A3023 350 85 -1400 010/05 RMK AO2
14840KMKG MKG20060323040509603/23/06 04:05:31  5-MIN KMKG 230905Z 01005KT 10SM CLR M01/M03 A3023 350 85 -1400 010/05 RMK AO2
14840KMKG MKG20060323041009903/23/06 04:10:31  5-MIN KMKG 230910Z 02004KT 10SM FEW050 M01/M03 A3023 350 85 -1400 020/04 RMK AO2
14840KMKG MKG20060323041509903/23/06 04:15:31  5-MIN KMKG 230915Z 01004KT 10SM SCT050 M01/M03 A3023 350 85 -1400 020/04 RMK AO2
14840KMKG MKG20060323042009903/23/06 04:20:31  5-MIN KMKG 230920Z 01004KT 10SM FEW050 M01/M03 A3023 350 85 -1400 020/04 RMK AO2
14840KMKG MKG20060323042509903/23/06 04:25:31  5-MIN KMKG 230925Z 02004KT 10SM FEW050 M01/M03 A3023 350 85 -1500 020/04 RMK AO2
14840KMKG MKG20060323043009903/23/06 04:30:31  5-MIN KMKG 230930Z 02003KT 10SM FEW050 M01/M03 A3023 350 85 -1400 030/03 RMK AO2
14840KMKG MKG20060323043509903/23/06 04:35:31  5-MIN KMKG 230935Z 03003KT 10SM FEW050 M01/M03 A3023 350 85 -1400 030/03 RMK AO2
14840KMKG MKG20060323044009903/23/06 04:40:31  5-MIN KMKG 230940Z 02003KT 10SM FEW048 M01/M03 A3023 350 85 -1400 030/03 RMK AO2
14840KMKG MKG20060323044509603/23/06 04:45:31  5-MIN KMKG 230945Z 02003KT 10SM CLR M01/M03 A3023 350 85 -1400 030/03 RMK AO2
14840KMKG MKG20060323045011303/23/06 04:50:31  5-MIN KMKG 230950Z 00000KT 10SM CLR M02/M04 A3023 340 85 -1500 000/00 RMK AO2 SLP245 T10171039
14840KMKG MKG20060323045511303/23/06 04:55:31  5-MIN KMKG 230955Z 00000KT 10SM CLR M02/M03 A3023 340 88 -1500 000/00 RMK AO2 SLP245 T10171033
14840KMKG MKG20060323050009603/23/06 05:00:31  5-MIN KMKG 231000Z 00000KT 10SM CLR M02/M03 A3023 340 88 -1500 000/00 RMK AO2
14840KMKG MKG20060323050509603/23/06 05:05:31  5-MIN KMKG 231005Z 00000KT 10SM CLR M02/M03 A3023 340 92 -1500 000/00 RMK AO2
14840KMKG MKG20060323051009603/23/06 05:10:31  5-MIN KMKG 231010Z 00000KT 10SM CLR M02/M03 A3023 340 88 -1500 000/00 RMK AO2
14840KMKG MKG20060323051509603/23/06 05:15:31  5-MIN KMKG 231015Z 00000KT 10SM CLR M03/M04 A3023 340 92 -1700 000/00 RMK AO2
14840KMKG MKG20060323052009603/23/06 05:20:31  5-MIN KMKG 231020Z 00000KT 10SM CLR M02/M04 A3024 340 88 -1600 000/00 RMK AO2
14840KMKG MKG20060323052509603/23/06 05:25:31  5-MIN KMKG 231025Z 00000KT 10SM CLR M02/M03 A3024 340 92 -1600 000/00 RMK AO2
14840KMKG MKG20060323053009603/23/06 05:30:31  5-MIN KMKG 231030Z 00000KT 10SM CLR M02/M03 A3024 340 92 -1600 000/00 RMK AO2
14840KMKG MKG20060323053509903/23/06 05:35:31  5-MIN KMKG 231035Z 00000KT 10SM FEW026 M03/M03 A3024 340 96 -1700 000/00 RMK AO2
14840KMKG MKG20060323054009903/23/06 05:40:31  5-MIN KMKG 231040Z 00000KT 10SM BKN024 M03/M03 A3024 340 96 -1700 000/00 RMK AO2
14840KMKG MKG20060323054509903/23/06 05:45:31  5-MIN KMKG 231045Z 00000KT 10SM BKN024 M03/M04 A3024 340 92 -1700 000/00 RMK AO2
14840KMKG MKG20060323055009903/23/06 05:50:31  5-MIN KMKG 231050Z 00000KT 10SM SCT024 M03/M03 A3024 330 96 -1700 000/00 RMK AO2
14840KMKG MKG20060323055511603/23/06 05:55:31  5-MIN KMKG 231055Z 00000KT 10SM SCT024 M02/M04 A3024 330 88 -1600 000/00 RMK AO2 SLP249 T10221039
14840KMKG MKG20060323060009903/23/06 06:00:31  5-MIN KMKG 231100Z 00000KT 10SM SCT024 M03/M04 A3024 330 92 -1700 000/00 RMK AO2
14840KMKG MKG20060323060509903/23/06 06:05:31  5-MIN KMKG 231105Z 00000KT 10SM SCT026 M03/M04 A3024 330 92 -1700 000/00 RMK AO2
14840KMKG MKG20060323061009903/23/06 06:10:31  5-MIN KMKG 231110Z 00000KT 10SM BKN026 M02/M04 A3024 330 88 -1600 000/00 RMK AO2
14840KMKG MKG20060323061509903/23/06 06:15:31  5-MIN KMKG 231115Z 00000KT 10SM BKN026 M03/M04 A3025 330 92 -1700 000/00 RMK AO2
14840KMKG MKG20060323062009903/23/06 06:20:31  5-MIN KMKG 231120Z 00000KT 10SM BKN026 M03/M04 A3025 330 88 -1700 000/00 RMK AO2
14840KMKG MKG20060323062509903/23/06 06:25:31  5-MIN KMKG 231125Z 00000KT 10SM OVC026 M03/M04 A3024 330 88 -1700 000/00 RMK AO2
14840KMKG MKG20060323063009903/23/06 06:30:31  5-MIN KMKG 231130Z 00000KT 10SM OVC026 M02/M04 A3025 330 88 -1600 000/00 RMK AO2
14840KMKG MKG20060323063509903/23/06 06:35:31  5-MIN KMKG 231135Z 00000KT 10SM OVC024 M02/M04 A3025 330 88 -1600 000/00 RMK AO2
14840KMKG MKG20060323064009903/23/06 06:40:31  5-MIN KMKG 231140Z 00000KT 10SM OVC024 M02/M03 A3025 330 92 -1600 000/00 RMK AO2
14840KMKG MKG20060323064510603/23/06 06:45:31  5-MIN KMKG 231145Z 00000KT 10SM BKN024 OVC037 M02/M03 A3025 330 92 -1600 000/00 RMK AO2
14840KMKG MKG20060323065015403/23/06 06:50:31  5-MIN KMKG 231150Z 00000KT 10SM FEW020 BKN024 OVC037 M02/M03 A3025 330 92 -1500 000/00 RMK AO2 SLP251 7//// T10171028 10011 21033 58001
14840KMKG MKG20060323065514803/23/06 06:55:31  5-MIN KMKG 231155Z 00000KT 10SM FEW020 BKN024 OVC037 M02/M03 A3025 330 92 -1600 000/00 RMK AO2 SLP251 T10221033 10011 21033 51006
14840KMKG MKG20060323070010603/23/06 07:00:31  5-MIN KMKG 231200Z 00000KT 10SM SCT024 OVC037 M02/M03 A3025 330 92 -1600 000/00 RMK AO2
14840KMKG MKG20060323070512803/23/06 07:05:31  5-MIN KMKG 231205Z 00000KT 10SM SCT020 SCT026 OVC037 M02/M03 A3025 320 88 -1600 000/00 RMK AO2 CIG 021 RWY 14
14840KMKG MKG20060323071011303/23/06 07:10:31  5-MIN KMKG 231210Z 00000KT 10SM BKN022 BKN028 OVC037 M02/M03 A3025 320 88 -1600 000/00 RMK AO2
14840KMKG MKG20060323071511303/23/06 07:15:31  5-MIN KMKG 231215Z 00000KT 10SM SCT022 BKN026 OVC037 M02/M03 A3025 320 88 -1600 000/00 RMK AO2
14840KMKG MKG20060323072011303/23/06 07:20:31  5-MIN KMKG 231220Z 00000KT 10SM FEW022 SCT026 OVC037 M02/M03 A3025 320 92 -1600 000/00 RMK AO2
14840KMKG MKG20060323072511303/23/06 07:25:31  5-MIN KMKG 231225Z 00000KT 10SM FEW022 BKN035 OVC044 M01/M03 A3026 320 88 -1500 000/00 RMK AO2
14840KMKG MKG20060323073011303/23/06 07:30:31  5-MIN KMKG 231230Z 00000KT 10SM FEW022 BKN037 OVC044 M01/M03 A3026 320 88 -1500 000/00 RMK AO2
14840KMKG MKG20060323073511303/23/06 07:35:31  5-MIN KMKG 231235Z 00000KT 10SM FEW024 SCT037 OVC044 M01/M02 A3026 320 92 -1500 000/00 RMK AO2
14840KMKG MKG20060323074010603/23/06 07:40:31  5-MIN KMKG 231240Z 00000KT 10SM FEW024 OVC044 M01/M02 A3026 320 88 -1400 000/00 RMK AO2
14840KMKG MKG20060323074510603/23/06 07:45:31  5-MIN KMKG 231245Z 00000KT 10SM FEW037 OVC046 M01/M02 A3026 320 88 -1400 000/00 RMK AO2
14840KMKG MKG20060323075011603/23/06 07:50:31  5-MIN KMKG 231250Z 00000KT 10SM OVC046 M01/M02 A3026 320 88 -1400 000/00 RMK AO2 SLP254 T10061022
14840KMKG MKG20060323075512303/23/06 07:55:31  5-MIN KMKG 231255Z 00000KT 10SM FEW036 OVC046 M01/M02 A3026 320 88 -1400 000/00 RMK AO2 SLP255 T10061022
14840KMKG MKG20060323080009803/23/06 08:00:31  5-MIN KMKG 231300Z 00000KT 10SM OVC044 00/M02 A3026 320 85 -1300 000/00 RMK AO2
14840KMKG MKG20060323080509803/23/06 08:05:31  5-MIN KMKG 231305Z 00000KT 10SM OVC044 00/M02 A3026 320 85 -1300 000/00 RMK AO2
14840KMKG MKG20060323081009803/23/06 08:10:31  5-MIN KMKG 231310Z 00000KT 10SM OVC044 00/M02 A3026 320 85 -1300 000/00 RMK AO2
14840KMKG MKG20060323081509803/23/06 08:15:31  5-MIN KMKG 231315Z 00000KT 10SM OVC044 01/M02 A3026 320 82 -1300 000/00 RMK AO2
14840KMKG MKG20060323082009803/23/06 08:20:31  5-MIN KMKG 231320Z 00000KT 10SM OVC044 01/M02 A3026 320 85 -1300 000/00 RMK AO2
14840KMKG MKG20060323082509803/23/06 08:25:31  5-MIN KMKG 231325Z 34003KT 10SM OVC044 01/M02 A3026 320 82 -1300 340/03 RMK AO2
14840KMKG MKG20060323083009803/23/06 08:30:31  5-MIN KMKG 231330Z 35003KT 10SM OVC044 01/M02 A3026 320 82 -1300 360/03 RMK AO2
14840KMKG MKG20060323083509803/23/06 08:35:31  5-MIN KMKG 231335Z 00000KT 10SM OVC046 01/M02 A3026 320 78 -1200 000/00 RMK AO2
14840KMKG MKG20060323084009803/23/06 08:40:31  5-MIN KMKG 231340Z 36004KT 10SM OVC046 01/M03 A3026 320 78 -1300 360/04 RMK AO2
14840KMKG MKG20060323084510503/23/06 08:45:31  5-MIN KMKG 231345Z VRB05KT 10SM FEW019 OVC046 01/M03 A3026 320 75 -1200 VRB/05 RMK AO2
14840KMKG MKG20060323085012203/23/06 08:50:31  5-MIN KMKG 231350Z VRB03KT 10SM SCT019 BKN046 01/M03 A3026 320 75 -1200 VRB/03 RMK AO2 SLP253 T00111028
14840KMKG MKG20060323085512203/23/06 08:55:31  5-MIN KMKG 231355Z 03004KT 10SM SCT019 BKN046 02/M02 A3026 320 72 -1100 040/04 RMK AO2 SLP252 T00221022
14840KMKG MKG20060323090010503/23/06 09:00:31  5-MIN KMKG 231400Z 05004KT 10SM SCT019 BKN046 02/M03 A3026 320 69 -1100 050/04 RMK AO2
14840KMKG MKG20060323090510503/23/06 09:05:31  5-MIN KMKG 231405Z 06007KT 10SM BKN019 BKN046 02/M03 A3026 320 69 -1100 060/07 RMK AO2
14840KMKG MKG20060323091010503/23/06 09:10:31  5-MIN KMKG 231410Z VRB05KT 10SM BKN017 BKN044 02/M03 A3026 320 72 -1100 VRB/05 RMK AO2
14840KMKG MKG20060323091510503/23/06 09:15:31  5-MIN KMKG 231415Z 04007KT 10SM BKN017 BKN042 02/M03 A3026 320 72 -1100 050/07 RMK AO2
14840KMKG MKG20060323092010503/23/06 09:20:31  5-MIN KMKG 231420Z VRB04KT 10SM BKN017 BKN042 02/M03 A3026 320 69 -1100 VRB/04 RMK AO2
14840KMKG MKG20060323092510503/23/06 09:25:31  5-MIN KMKG 231425Z 35004KT 10SM SCT017 OVC042 02/M03 A3026 320 67 -1100 350/04 RMK AO2
14840KMKG MKG20060323093010503/23/06 09:30:31  5-MIN KMKG 231430Z 36006KT 10SM SCT017 OVC042 02/M03 A3026 320 67 -1100 360/06 RMK AO2
14840KMKG MKG20060323093510503/23/06 09:35:31  5-MIN KMKG 231435Z 33003KT 10SM FEW019 OVC042 02/M03 A3026 320 67 -1100 330/03 RMK AO2
14840KMKG MKG20060323094010503/23/06 09:40:31  5-MIN KMKG 231440Z 00000KT 10SM FEW019 BKN042 02/M03 A3026 320 69 -1100 000/00 RMK AO2
14840KMKG MKG20060323094510503/23/06 09:45:31  5-MIN KMKG 231445Z 02004KT 10SM SCT019 BKN042 03/M03 A3026 320 67 -1000 020/04 RMK AO2
14840KMKG MKG20060323095012803/23/06 09:50:31  5-MIN KMKG 231450Z 36004KT 10SM FEW021 OVC042 03/M03 A3026 320 64 -1000 010/04 RMK AO2 SLP253 T00281033 51006
14840KMKG MKG20060323095512803/23/06 09:55:31  5-MIN KMKG 231455Z 33004KT 10SM SCT021 BKN042 03/M03 A3026 320 64 -1000 340/04 RMK AO2 SLP253 T00281033 51003
14840KMKG MKG20060323100011203/23/06 10:00:31  5-MIN KMKG 231500Z 01006KT 10SM SCT023 SCT027 OVC042 03/M03 A3026 320 64 -1000 020/06 RMK AO2
14840KMKG MKG20060323100511203/23/06 10:05:31  5-MIN KMKG 231505Z VRB04KT 10SM BKN023 BKN027 OVC042 03/M03 A3026 320 64 -1000 VRB/04 RMK AO2
14840KMKG MKG20060323101010503/23/06 10:10:31  5-MIN KMKG 231510Z VRB05KT 10SM BKN023 OVC044 03/M03 A3026 320 64 -1000 VRB/05 RMK AO2
14840KMKG MKG20060323101510503/23/06 10:15:31  5-MIN KMKG 231515Z VRB04KT 10SM SCT023 OVC044 03/M03 A3025 320 64 -1000 VRB/04 RMK AO2
14840KMKG MKG20060323102011203/23/06 10:20:31  5-MIN KMKG 231520Z VRB03KT 10SM SCT023 SCT032 OVC044 03/M03 A3025 320 64 -1000 VRB/03 RMK AO2
14840KMKG MKG20060323102511203/23/06 10:25:31  5-MIN KMKG 231525Z 00000KT 10SM SCT023 BKN031 OVC044 02/M04 A3025 320 64 -1100 000/00 RMK AO2
14840KMKG MKG20060323103012703/23/06 10:30:31  5-MIN KMKG 231530Z 00000KT 10SM FEW023 BKN029 OVC042 02/M03 A3025 320 67 -1100 000/00 RMK AO2 CIG 024 RWY 14
14840KMKG MKG20060323103510503/23/06 10:35:31  5-MIN KMKG 231535Z 33006KT 10SM BKN028 OVC042 02/M04 A3025 320 64 -1100 340/06 RMK AO2
14840KMKG MKG20060323104011203/23/06 10:40:31  5-MIN KMKG 231540Z 32004KT 10SM BKN028 BKN036 OVC042 02/M04 A3025 330 64 -1100 320/04 RMK AO2
14840KMKG MKG20060323104512003/23/06 10:45:31  5-MIN KMKG 231545Z VRB03KT 10SM SCT030 OVC037 02/M04 A3025 330 64 -1100 VRB/03 RMK AO2 CIG 027 RWY 14
14840KMKG MKG20060323105012203/23/06 10:50:31  5-MIN KMKG 231550Z 32007KT 10SM SCT028 BKN037 03/M04 A3025 330 61 -1000 330/07 RMK AO2 SLP251 T00281039
14840KMKG MKG20060323105512203/23/06 10:55:31  5-MIN KMKG 231555Z 31007KT 10SM SCT029 BKN037 02/M03 A3025 330 67 -1100 320/07 RMK AO2 SLP250 T00221033
14840KMKG MKG20060323110010503/23/06 11:00:31  5-MIN KMKG 231600Z 32005KT 10SM FEW029 OVC035 02/M03 A3025 330 67 -1100 320/05 RMK AO2
14840KMKG MKG20060323110510503/23/06 11:05:31  5-MIN KMKG 231605Z 31005KT 10SM FEW029 OVC037 02/M03 A3025 330 67 -1100 320/05 RMK AO2
14840KMKG MKG20060323111009803/23/06 11:10:31  5-MIN KMKG 231610Z 32006KT 10SM OVC037 03/M03 A3025 330 67 -1000 320/06 RMK AO2
14840KMKG MKG20060323111509803/23/06 11:15:31  5-MIN KMKG 231615Z 31006KT 10SM OVC037 03/M03 A3025 330 67 -1000 310/06 RMK AO2
14840KMKG MKG20060323112009803/23/06 11:20:31  5-MIN KMKG 231620Z 30005KT 10SM OVC039 02/M03 A3025 330 67 -1100 300/05 RMK AO2
14840KMKG MKG20060323112510503/23/06 11:25:31  5-MIN KMKG 231625Z 30007KT 10SM BKN039 OVC048 03/M03 A3025 330 64 -1000 300/07 RMK AO2
14840KMKG MKG20060323113009803/23/06 11:30:31  5-MIN KMKG 231630Z 32007KT 10SM OVC041 03/M03 A3025 330 64 -1000 320/07 RMK AO2
14840KMKG MKG20060323113509803/23/06 11:35:31  5-MIN KMKG 231635Z 30006KT 10SM OVC041 03/M03 A3024 330 64 -1000 310/06 RMK AO2
14840KMKG MKG20060323114009803/23/06 11:40:31  5-MIN KMKG 231640Z 30007KT 10SM OVC041 03/M03 A3024 330 67 -1000 300/07 RMK AO2
14840KMKG MKG20060323114509803/23/06 11:45:31  5-MIN KMKG 231645Z 32007KT 10SM OVC039 02/M03 A3024 330 67 -1100 320/07 RMK AO2
14840KMKG MKG20060323115011503/23/06 11:50:31  5-MIN KMKG 231650Z 30005KT 10SM OVC039 02/M03 A3024 330 67 -1000 300/05 RMK AO2 SLP248 T00221033
14840KMKG MKG20060323115512203/23/06 11:55:31  5-MIN KMKG 231655Z 29005KT 10SM BKN039 BKN047 03/M03 A3024 340 67 -1000 300/05 RMK AO2 SLP247 T00281028
14840KMKG MKG20060323120010403/23/06 12:00:31  5-MIN KMKG 231700Z 31005KT 10SM BKN039 OVC050 03/M03 A3024 340 64 -900 310/05 RMK AO2
14840KMKG MKG20060323120512003/23/06 12:05:31  5-MIN KMKG 231705Z 32007KT 10SM SCT037 OVC048 03/M03 A3024 340 67 -1000 320/07 RMK AO2 CIG 038 RWY 14
14840KMKG MKG20060323121012003/23/06 12:10:31  5-MIN KMKG 231710Z VRB03KT 10SM SCT037 OVC048 03/M03 A3024 340 64 -1000 VRB/03 RMK AO2 CIG 041 RWY 14
14840KMKG MKG20060323121512703/23/06 12:15:31  5-MIN KMKG 231715Z 31005KT 10SM FEW026 SCT037 OVC048 03/M04 A3024 340 59 -1000 320/05 RMK AO2 CIG 040 RWY 14
14840KMKG MKG20060323122012703/23/06 12:20:31  5-MIN KMKG 231720Z 28009KT 10SM SCT028 BKN043 OVC050 03/M04 A3024 340 61 -1000 290/09 RMK AO2 CIG 029 RWY 14
14840KMKG MKG20060323122511203/23/06 12:25:31  5-MIN KMKG 231725Z 32009KT 10SM SCT028 BKN043 OVC050 03/M04 A3023 340 59 -1000 330/09 RMK AO2
14840KMKG MKG20060323123011203/23/06 12:30:31  5-MIN KMKG 231730Z 30008KT 10SM SCT028 BKN035 OVC045 02/M04 A3023 340 61 -1000 310/08 RMK AO2
14840KMKG MKG20060323123512703/23/06 12:35:31  5-MIN KMKG 231735Z 32009KT 10SM FEW028 BKN036 OVC043 02/M04 A3023 340 61 -1000 320/09 RMK AO2 CIG 030 RWY 14
14840KMKG MKG20060323124010503/23/06 12:40:31  5-MIN KMKG 231740Z 31008KT 10SM FEW028 OVC038 02/M04 A3023 340 64 -1000 310/08 RMK AO2
14840KMKG MKG20060323124510503/23/06 12:45:31  5-MIN KMKG 231745Z 29007KT 10SM FEW031 OVC041 03/M04 A3023 340 61 -1000 300/07 RMK AO2
14840KMKG MKG20060323125014003/23/06 12:50:31  5-MIN KMKG 231750Z 31007KT 10SM FEW031 OVC041 02/M04 A3023 340 64 -1000 310/07 RMK AO2 SLP244 T00221039 10033 21022 51003
14840KMKG MKG20060323125513303/23/06 12:55:31  5-MIN KMKG 231755Z 31010KT 10SM BKN041 03/M03 A3023 340 64 -1000 310/10 RMK AO2 SLP244 T00281033 10033 21022 58008
14840KMKG MKG20060323130012103/23/06 13:00:31  5-MIN KMKG 231800Z 33007KT 10SM -SN SCT034 OVC043 02/M03 A3023 340 67 -1000 330/07 RMK AO2 SNB00 P0000
14840KMKG MKG20060323130512003/23/06 13:05:31  5-MIN KMKG 231805Z 34007KT 9SM -SN FEW031 OVC043 03/M03 A3023 340 64 -1000 350/07 RMK AO2 SNB00 P0000
14840KMKG MKG20060323131012003/23/06 13:10:31  5-MIN KMKG 231810Z 35008KT 9SM -SN FEW031 OVC043 03/M03 A3023 340 64 -1000 350/08 RMK AO2 SNB00 P0000
14840KMKG MKG20060323131511903/23/06 13:15:31  5-MIN KMKG 231815Z 34007KT 9SM -SN FEW031 OVC043 03/M04 A3023 340 59 -900 340/07 RMK AO2 SNB00 P0000
14840KMKG MKG20060323132011903/23/06 13:20:31  5-MIN KMKG 231820Z 35007KT 9SM -SN FEW031 OVC043 03/M04 A3023 340 57 -900 360/07 RMK AO2 SNB00 P0000
14840KMKG MKG20060323132511803/23/06 13:25:31  5-MIN KMKG 231825Z 01005KT 9SM FEW031 OVC043 04/M04 A3023 350 54 -800 010/05 RMK AO2 SNB00E22 P0000
14840KMKG MKG20060323133011903/23/06 13:30:31  5-MIN KMKG 231830Z 36007KT 10SM SCT029 OVC043 03/M05 A3023 350 54 -900 360/07 RMK AO2 SNB00E22 P0000
14840KMKG MKG20060323133514103/23/06 13:35:31  5-MIN KMKG 231835Z 33009KT 10SM SCT029 BKN038 OVC045 03/M03 A3023 350 61 -900 340/09 RMK AO2 SNB00E22 CIG 028 RWY 14 P0000
14840KMKG MKG20060323134012603/23/06 13:40:31  5-MIN KMKG 231840Z 33009KT 10SM FEW026 BKN032 OVC043 03/M03 A3023 350 61 -900 340/09 RMK AO2 SNB00E22 P0000
14840KMKG MKG20060323134512703/23/06 13:45:31  5-MIN KMKG 231845Z 31006KT 10SM FEW028 BKN037 OVC045 03/M03 A3023 350 64 -1000 310/06 RMK AO2 SNB00E22 P0000
14840KMKG MKG20060323135013703/23/06 13:50:31  5-MIN KMKG 231850Z 32007KT 10SM FEW028 OVC037 03/M03 A3023 350 64 -1000 330/07 RMK AO2 SNB00E22 SLP242 P0000 T00281033
14840KMKG MKG20060323135513703/23/06 13:55:31  5-MIN KMKG 231855Z 32006KT 10SM FEW028 BKN037 03/M03 A3023 350 64 -1000 320/06 RMK AO2 SNB00E22 SLP242 P0000 T00281033
14840KMKG MKG20060323140010503/23/06 14:00:31  5-MIN KMKG 231900Z 32005KT 10SM FEW029 OVC037 03/M04 A3023 350 61 -1000 330/05 RMK AO2
14840KMKG MKG20060323140509803/23/06 14:05:31  5-MIN KMKG 231905Z 30004KT 10SM OVC035 03/M04 A3023 350 61 -1000 310/04 RMK AO2
14840KMKG MKG20060323141009803/23/06 14:10:31  5-MIN KMKG 231910Z 33006KT 10SM OVC035 03/M04 A3022 350 61 -1000 330/06 RMK AO2
14840KMKG MKG20060323141509803/23/06 14:15:31  5-MIN KMKG 231915Z 27004KT 10SM OVC033 03/M04 A3022 350 59 -1000 280/04 RMK AO2
14840KMKG MKG20060323142009803/23/06 14:20:31  5-MIN KMKG 231920Z 28005KT 10SM OVC033 03/M05 A3022 350 56 -1000 280/05 RMK AO2
14840KMKG MKG20060323142509803/23/06 14:25:31  5-MIN KMKG 231925Z 27006KT 10SM OVC033 03/M06 A3022 350 52 -1000 270/06 RMK AO2
14840KMKG MKG20060323143010403/23/06 14:30:31  5-MIN KMKG 231930Z 28008KT 10SM BKN033 OVC050 03/M06 A3022 350 50 -900 280/08 RMK AO2
14840KMKG MKG20060323143510403/23/06 14:35:31  5-MIN KMKG 231935Z 26009KT 10SM BKN033 OVC050 04/M06 A3022 350 50 -800 260/09 RMK AO2
14840KMKG MKG20060323144010403/23/06 14:40:31  5-MIN KMKG 231940Z 26010KT 10SM BKN033 OVC050 05/M05 A3022 360 48 -700 260/10 RMK AO2
14840KMKG MKG20060323144510403/23/06 14:45:31  5-MIN KMKG 231945Z 28011KT 10SM BKN035 OVC048 04/M06 A3022 360 50 -800 280/11 RMK AO2
14840KMKG MKG20060323145012103/23/06 14:50:31  5-MIN KMKG 231950Z 28012KT 10SM BKN038 OVC048 04/M06 A3022 360 50 -800 280/12 RMK AO2 SLP239 T00391056
14840KMKG MKG20060323145512103/23/06 14:55:31  5-MIN KMKG 231955Z 29011KT 10SM BKN038 BKN048 04/M06 A3022 360 50 -800 300/11 RMK AO2 SLP240 T00391056
14840KMKG MKG20060323150009703/23/06 15:00:31  5-MIN KMKG 232000Z 31011KT 10SM OVC040 03/M06 A3022 360 52 -900 310/11 RMK AO2
14840KMKG MKG20060323150509703/23/06 15:05:31  5-MIN KMKG 232005Z 30009KT 10SM OVC040 03/M06 A3022 360 52 -900 300/09 RMK AO2
14840KMKG MKG20060323151010403/23/06 15:10:31  5-MIN KMKG 232010Z 28011KT 10SM BKN042 OVC050 04/M06 A3022 360 50 -800 290/11 RMK AO2
14840KMKG MKG20060323151510403/23/06 15:15:31  5-MIN KMKG 232015Z 28012KT 10SM BKN042 OVC050 04/M06 A3022 360 50 -800 280/12 RMK AO2
14840KMKG MKG20060323152011903/23/06 15:20:31  5-MIN KMKG 232020Z 31011KT 10SM SCT042 OVC050 04/M05 A3021 360 50 -700 310/11 RMK AO2 CIG 043 RWY 14
14840KMKG MKG20060323152510403/23/06 15:25:31  5-MIN KMKG 232025Z 31011KT 10SM BKN042 OVC050 04/M04 A3021 360 52 -700 320/11 RMK AO2
14840KMKG MKG20060323153010403/23/06 15:30:31  5-MIN KMKG 232030Z 29012KT 10SM BKN042 OVC050 04/M05 A3021 360 50 -700 300/12 RMK AO2
14840KMKG MKG20060323153510403/23/06 15:35:31  5-MIN KMKG 232035Z 30012KT 10SM BKN040 OVC050 03/M05 A3021 360 54 -900 300/12 RMK AO2
14840KMKG MKG20060323154010403/23/06 15:40:31  5-MIN KMKG 232040Z 29010KT 10SM BKN040 OVC050 04/M05 A3022 360 52 -800 290/10 RMK AO2
14840KMKG MKG20060323154510403/23/06 15:45:31  5-MIN KMKG 232045Z 29009KT 10SM BKN040 BKN055 04/M04 A3021 360 52 -700 300/09 RMK AO2
14840KMKG MKG20060323155013903/23/06 15:50:31  5-MIN KMKG 232050Z 30012G15KT 10SM BKN040 BKN050 04/M06 A3021 360 48 -700 310/12G15 RMK AO2 SLP238 60000 T00441056 58008
14840KMKG MKG20060323155513303/23/06 15:55:31  5-MIN KMKG 232055Z 30010KT 10SM SCT040 BKN055 04/M05 A3021 360 52 -800 310/10 RMK AO2 SLP238 60000 T00391050 57006
14840KMKG MKG20060323160010403/23/06 16:00:31  5-MIN KMKG 232100Z 30012KT 10SM FEW040 SCT055 03/M06 A3021 360 52 -900 300/12 RMK AO2
14840KMKG MKG20060323160509703/23/06 16:05:31  5-MIN KMKG 232105Z 30013KT 10SM FEW042 03/M05 A3021 360 54 -900 300/13 RMK AO2
14840KMKG MKG20060323161010403/23/06 16:10:31  5-MIN KMKG 232110Z 31010KT 10SM FEW042 BKN055 03/M05 A3021 360 54 -900 310/10 RMK AO2
14840KMKG MKG20060323161512003/23/06 16:15:31  5-MIN KMKG 232115Z 30010KT 270V330 10SM FEW042 BKN055 03/M04 A3021 360 57 -900 300/10 270V330 RMK AO2
14840KMKG MKG20060323162010403/23/06 16:20:31  5-MIN KMKG 232120Z 30013KT 10SM FEW042 BKN055 03/M05 A3021 360 54 -900 300/13 RMK AO2
14840KMKG MKG20060323162510403/23/06 16:25:31  5-MIN KMKG 232125Z 29012KT 10SM FEW042 BKN055 03/M06 A3021 360 52 -900 300/12 RMK AO2
14840KMKG MKG20060323163010403/23/06 16:30:31  5-MIN KMKG 232130Z 31009KT 10SM FEW042 BKN055 03/M04 A3021 360 57 -900 310/09 RMK AO2
14840KMKG MKG20060323163510403/23/06 16:35:31  5-MIN KMKG 232135Z 30009KT 10SM FEW042 BKN055 03/M05 A3021 360 54 -900 300/09 RMK AO2
14840KMKG MKG20060323164010403/23/06 16:40:31  5-MIN KMKG 232140Z 29010KT 10SM FEW042 BKN055 03/M05 A3021 360 54 -900 300/10 RMK AO2
14840KMKG MKG20060323164510503/23/06 16:45:31  5-MIN KMKG 232145Z 29009KT 10SM FEW042 BKN055 03/M04 A3022 360 59 -1000 300/09 RMK AO2
14840KMKG MKG20060323165011503/23/06 16:50:31  5-MIN KMKG 232150Z 30010KT 10SM BKN080 03/M04 A3022 360 59 -1000 310/10 RMK AO2 SLP240 T00281044
14840KMKG MKG20060323165511503/23/06 16:55:31  5-MIN KMKG 232155Z 29011KT 10SM BKN080 03/M04 A3022 360 59 -1000 290/11 RMK AO2 SLP240 T00281044
14840KMKG MKG20060323170009803/23/06 17:00:31  5-MIN KMKG 232200Z 30011KT 10SM BKN080 03/M04 A3022 360 59 -1000 300/11 RMK AO2
14840KMKG MKG20060323170510503/23/06 17:05:31  5-MIN KMKG 232205Z 29011KT 10SM FEW044 BKN075 02/M05 A3022 360 59 -1000 300/11 RMK AO2
14840KMKG MKG20060323171010503/23/06 17:10:31  5-MIN KMKG 232210Z 29008KT 10SM SCT044 BKN075 03/M05 A3022 360 56 -1000 290/08 RMK AO2
14840KMKG MKG20060323171511203/23/06 17:15:31  5-MIN KMKG 232215Z 31009KT 10SM SCT044 SCT050 OVC080 03/M04 A3022 350 59 -1000 310/09 RMK AO2
14840KMKG MKG20060323172011203/23/06 17:20:31  5-MIN KMKG 232220Z 29011KT 10SM SCT044 BKN050 OVC075 03/M06 A3022 350 54 -1000 290/11 RMK AO2
14840KMKG MKG20060323172511203/23/06 17:25:31  5-MIN KMKG 232225Z 29010KT 10SM BKN044 BKN050 OVC075 03/M06 A3022 350 54 -1000 290/10 RMK AO2
14840KMKG MKG20060323173012003/23/06 17:30:31  5-MIN KMKG 232230Z 32007KT 270V340 10SM BKN044 OVC050 03/M04 A3022 350 57 -900 320/07 270V340 RMK AO2
14840KMKG MKG20060323173510503/23/06 17:35:31  5-MIN KMKG 232235Z 33008KT 10SM BKN044 OVC050 03/M04 A3022 350 59 -1000 330/08 RMK AO2
14840KMKG MKG20060323174009803/23/06 17:40:31  5-MIN KMKG 232240Z 32007KT 10SM OVC044 03/M04 A3022 350 59 -1000 320/07 RMK AO2
14840KMKG MKG20060323174509803/23/06 17:45:31  5-MIN KMKG 232245Z 30009KT 10SM OVC044 02/M05 A3022 350 59 -1000 300/09 RMK AO2
14840KMKG MKG20060323175011503/23/06 17:50:31  5-MIN KMKG 232250Z 29007KT 10SM BKN044 02/M06 A3022 350 56 -1000 300/07 RMK AO2 SLP242 T00221056
14840KMKG MKG20060323175511503/23/06 17:55:31  5-MIN KMKG 232255Z 29008KT 10SM BKN044 02/M06 A3022 350 56 -1000 290/08 RMK AO2 SLP242 T00221056
14840KMKG MKG20060323180010503/23/06 18:00:31  5-MIN KMKG 232300Z 29008KT 10SM BKN047 OVC080 02/M06 A3022 350 56 -1000 300/08 RMK AO2
14840KMKG MKG20060323180510503/23/06 18:05:31  5-MIN KMKG 232305Z 29008KT 10SM BKN047 OVC080 02/M06 A3022 350 59 -1100 290/08 RMK AO2
14840KMKG MKG20060323181010503/23/06 18:10:31  5-MIN KMKG 232310Z 30006KT 10SM BKN049 OVC080 02/M05 A3022 350 61 -1100 300/06 RMK AO2
14840KMKG MKG20060323181510503/23/06 18:15:31  5-MIN KMKG 232315Z 30006KT 10SM BKN049 OVC080 02/M04 A3022 350 64 -1100 300/06 RMK AO2
14840KMKG MKG20060323182010503/23/06 18:20:31  5-MIN KMKG 232320Z 31006KT 10SM BKN049 BKN080 02/M04 A3022 350 64 -1100 310/06 RMK AO2
14840KMKG MKG20060323182510503/23/06 18:25:31  5-MIN KMKG 232325Z 32008KT 10SM SCT049 BKN080 02/M04 A3022 350 64 -1100 320/08 RMK AO2
14840KMKG MKG20060323183010503/23/06 18:30:31  5-MIN KMKG 232330Z 31006KT 10SM SCT049 SCT080 02/M05 A3022 350 61 -1100 320/06 RMK AO2
14840KMKG MKG20060323183509803/23/06 18:35:31  5-MIN KMKG 232335Z 30005KT 10SM SCT049 02/M04 A3022 350 64 -1100 300/05 RMK AO2
14840KMKG MKG20060323184009803/23/06 18:40:31  5-MIN KMKG 232340Z 30007KT 10SM FEW049 01/M04 A3022 350 66 -1200 300/07 RMK AO2
14840KMKG MKG20060323184509803/23/06 18:45:31  5-MIN KMKG 232345Z 29007KT 10SM FEW049 01/M04 A3022 350 66 -1200 300/07 RMK AO2
14840KMKG MKG20060323185014603/23/06 18:50:31  5-MIN KMKG 232350Z 30006KT 10SM SCT044 BKN080 01/M04 A3022 350 69 -1200 300/06 RMK AO2 SLP241 60000 T00111039 10050 20011 57006
14840KMKG MKG20060323185514603/23/06 18:55:31  5-MIN KMKG 232355Z 29007KT 10SM SCT044 BKN080 01/M04 A3022 350 72 -1200 300/07 RMK AO2 SLP241 60000 T00061039 10050 20006 50002
14840KMKG MKG20060323190009503/23/06 19:00:31  5-MIN KMKG 240000Z 29007KT 10SM CLR 01/M04 A3022 360 69 -1200 300/07 RMK AO2
14840KMKG MKG20060323190509503/23/06 19:05:31  5-MIN KMKG 240005Z 29005KT 10SM CLR 01/M04 A3022 360 69 -1200 290/05 RMK AO2
14840KMKG MKG20060323191009503/23/06 19:10:31  5-MIN KMKG 240010Z 29006KT 10SM CLR 01/M04 A3022 360 72 -1200 300/06 RMK AO2
14840KMKG MKG20060323191509503/23/06 19:15:31  5-MIN KMKG 240015Z 29006KT 10SM CLR 01/M04 A3022 360 72 -1200 290/06 RMK AO2
14840KMKG MKG20060323192009503/23/06 19:20:31  5-MIN KMKG 240020Z 29006KT 10SM CLR 01/M04 A3022 360 72 -1200 300/06 RMK AO2
14840KMKG MKG20060323192509503/23/06 19:25:31  5-MIN KMKG 240025Z 29005KT 10SM CLR 01/M04 A3022 360 72 -1200 290/05 RMK AO2
14840KMKG MKG20060323193009503/23/06 19:30:31  5-MIN KMKG 240030Z 29005KT 10SM CLR 00/M04 A3022 360 75 -1300 290/05 RMK AO2
14840KMKG MKG20060323193509503/23/06 19:35:31  5-MIN KMKG 240035Z 30005KT 10SM CLR 00/M04 A3021 360 75 -1300 300/05 RMK AO2
14840KMKG MKG20060323194009503/23/06 19:40:31  5-MIN KMKG 240040Z 29004KT 10SM CLR 00/M04 A3021 360 75 -1300 290/04 RMK AO2
14840KMKG MKG20060323194509503/23/06 19:45:31  5-MIN KMKG 240045Z 29004KT 10SM CLR 00/M04 A3021 360 75 -1300 290/04 RMK AO2
14840KMKG MKG20060323195012203/23/06 19:50:31  5-MIN KMKG 240050Z 29003KT 10SM FEW044 BKN080 00/M04 A3021 360 75 -1300 290/03 RMK AO2 SLP238 T00001039
14840KMKG MKG20060323195512203/23/06 19:55:31  5-MIN KMKG 240055Z 28003KT 10SM FEW044 BKN080 00/M04 A3021 360 75 -1300 290/03 RMK AO2 SLP238 T00001039
14840KMKG MKG20060323200010503/23/06 20:00:31  5-MIN KMKG 240100Z 28003KT 10SM FEW044 BKN080 00/M04 A3021 360 75 -1300 280/03 RMK AO2
14840KMKG MKG20060323200510503/23/06 20:05:31  5-MIN KMKG 240105Z 28003KT 10SM FEW044 BKN080 00/M03 A3021 360 78 -1300 280/03 RMK AO2
14840KMKG MKG20060323201010503/23/06 20:10:31  5-MIN KMKG 240110Z 28003KT 10SM FEW044 BKN080 00/M03 A3021 360 78 -1300 280/03 RMK AO2
14840KMKG MKG20060323201510503/23/06 20:15:31  5-MIN KMKG 240115Z 28003KT 10SM FEW044 BKN080 00/M03 A3021 360 78 -1300 290/03 RMK AO2
14840KMKG MKG20060323202010503/23/06 20:20:31  5-MIN KMKG 240120Z 29003KT 10SM FEW044 BKN080 00/M03 A3021 360 78 -1300 290/03 RMK AO2
14840KMKG MKG20060323202510503/23/06 20:25:31  5-MIN KMKG 240125Z 30003KT 10SM FEW044 BKN080 00/M03 A3021 360 78 -1300 310/03 RMK AO2
14840KMKG MKG20060323203010503/23/06 20:30:31  5-MIN KMKG 240130Z 00000KT 10SM FEW044 BKN080 00/M03 A3021 360 78 -1300 000/00 RMK AO2
14840KMKG MKG20060323203510503/23/06 20:35:31  5-MIN KMKG 240135Z 33004KT 10SM FEW044 BKN080 00/M03 A3021 360 78 -1300 340/04 RMK AO2
14840KMKG MKG20060323204010603/23/06 20:40:31  5-MIN KMKG 240140Z 34005KT 10SM FEW044 BKN080 M01/M03 A3021 360 81 -1400 340/05 RMK AO2
14840KMKG MKG20060323204510603/23/06 20:45:31  5-MIN KMKG 240145Z 34006KT 10SM FEW044 BKN080 M01/M03 A3021 360 81 -1400 350/06 RMK AO2
14840KMKG MKG20060323205011603/23/06 20:50:31  5-MIN KMKG 240150Z 34006KT 10SM FEW044 M01/M04 A3021 360 78 -1400 350/06 RMK AO2 SLP238 T10061039
14840KMKG MKG20060323205511603/23/06 20:55:31  5-MIN KMKG 240155Z 35005KT 10SM FEW044 M01/M03 A3021 360 81 -1400 360/05 RMK AO2 SLP237 T10061033
14840KMKG MKG20060323210009603/23/06 21:00:31  5-MIN KMKG 240200Z 01004KT 10SM CLR M01/M03 A3021 360 81 -1400 010/04 RMK AO2
14840KMKG MKG20060323210509503/23/06 21:05:31  5-MIN KMKG 240205Z 36005KT 10SM CLR 00/M04 A3021 360 75 -1300 010/05 RMK AO2
14840KMKG MKG20060323211009503/23/06 21:10:31  5-MIN KMKG 240210Z 36005KT 10SM CLR 00/M03 A3021 360 78 -1300 010/05 RMK AO2
14840KMKG MKG20060323211509503/23/06 21:15:31  5-MIN KMKG 240215Z 36004KT 10SM CLR 00/M03 A3021 360 78 -1300 010/04 RMK AO2
14840KMKG MKG20060323212009503/23/06 21:20:31  5-MIN KMKG 240220Z 36004KT 10SM CLR 00/M03 A3021 360 78 -1300 360/04 RMK AO2
14840KMKG MKG20060323212509603/23/06 21:25:31  5-MIN KMKG 240225Z 35004KT 10SM CLR M01/M04 A3021 360 78 -1400 360/04 RMK AO2
14840KMKG MKG20060323213009603/23/06 21:30:31  5-MIN KMKG 240230Z 35003KT 10SM CLR M01/M03 A3021 360 81 -1400 360/03 RMK AO2
14840KMKG MKG20060323213509503/23/06 21:35:31  5-MIN KMKG 240235Z 35003KT 10SM CLR 00/M03 A3021 370 78 -1300 360/03 RMK AO2
14840KMKG MKG20060323214009603/23/06 21:40:31  5-MIN KMKG 240240Z 36004KT 10SM CLR M01/M04 A3021 370 78 -1400 010/04 RMK AO2
14840KMKG MKG20060323214509603/23/06 21:45:31  5-MIN KMKG 240245Z 36003KT 10SM CLR M01/M04 A3021 370 78 -1400 010/03 RMK AO2
14840KMKG MKG20060323215011903/23/06 21:50:31  5-MIN KMKG 240250Z 36004KT 10SM CLR M01/M04 A3021 370 78 -1400 360/04 RMK AO2 SLP236 T10061039 50002
14840KMKG MKG20060323215512203/23/06 21:55:31  5-MIN KMKG 240255Z 01005KT 10SM FEW045 M01/M03 A3021 370 81 -1400 010/05 RMK AO2 SLP236 T10061033 56004
14840KMKG MKG20060323220009603/23/06 22:00:31  5-MIN KMKG 240300Z 36003KT 10SM CLR M01/M03 A3021 370 81 -1400 010/03 RMK AO2
14840KMKG MKG20060323220509603/23/06 22:05:31  5-MIN KMKG 240305Z 36004KT 10SM CLR M01/M03 A3021 370 81 -1400 010/04 RMK AO2
14840KMKG MKG20060323221009603/23/06 22:10:31  5-MIN KMKG 240310Z 36004KT 10SM CLR M01/M03 A3021 370 81 -1400 010/04 RMK AO2
14840KMKG MKG20060323221509603/23/06 22:15:31  5-MIN KMKG 240315Z 01004KT 10SM CLR M01/M03 A3020 370 81 -1400 010/04 RMK AO2
14840KMKG MKG20060323222011103/23/06 22:20:31  5-MIN KMKG 240320Z 36003KT 10SM CLR M01/M03 A3020 370 81 -1400 010/03 RMK AO2 CIG 070 RWY 14
14840KMKG MKG20060323222509903/23/06 22:25:31  5-MIN KMKG 240325Z 01004KT 10SM SCT070 M01/M03 A3020 370 81 -1400 010/04 RMK AO2
14840KMKG MKG20060323223009903/23/06 22:30:31  5-MIN KMKG 240330Z 01004KT 10SM BKN065 M01/M03 A3020 370 81 -1400 020/04 RMK AO2
14840KMKG MKG20060323223509903/23/06 22:35:31  5-MIN KMKG 240335Z 01004KT 10SM BKN070 M01/M03 A3020 370 81 -1400 010/04 RMK AO2
14840KMKG MKG20060323224009903/23/06 22:40:31  5-MIN KMKG 240340Z 01005KT 10SM BKN070 M01/M03 A3020 370 81 -1400 010/05 RMK AO2
14840KMKG MKG20060323224509903/23/06 22:45:31  5-MIN KMKG 240345Z 01004KT 10SM OVC065 M01/M03 A3020 370 81 -1300 010/04 RMK AO2
14840KMKG MKG20060323225011603/23/06 22:50:31  5-MIN KMKG 240350Z 01004KT 10SM BKN065 M01/M03 A3020 380 81 -1300 010/04 RMK AO2 SLP232 T10061033
14840KMKG MKG20060323225511603/23/06 22:55:31  5-MIN KMKG 240355Z 01004KT 10SM BKN065 M01/M03 A3020 380 81 -1300 020/04 RMK AO2 SLP232 T10061033
14840KMKG MKG20060323230009903/23/06 23:00:31  5-MIN KMKG 240400Z 02005KT 10SM OVC065 M01/M03 A3019 380 85 -1300 020/05 RMK AO2
14840KMKG MKG20060323230509903/23/06 23:05:31  5-MIN KMKG 240405Z 02004KT 10SM OVC065 M01/M03 A3019 380 85 -1300 020/04 RMK AO2
14840KMKG MKG20060323231009803/23/06 23:10:31  5-MIN KMKG 240410Z 02004KT 10SM OVC060 00/M03 A3019 380 81 -1300 020/04 RMK AO2
14840KMKG MKG20060323231509803/23/06 23:15:31  5-MIN KMKG 240415Z 01004KT 10SM OVC060 00/M03 A3019 380 81 -1300 020/04 RMK AO2
14840KMKG MKG20060323232009803/23/06 23:20:31  5-MIN KMKG 240420Z 02004KT 10SM OVC060 00/M03 A3019 380 81 -1300 020/04 RMK AO2
14840KMKG MKG20060323232509803/23/06 23:25:31  5-MIN KMKG 240425Z 01003KT 10SM OVC060 00/M03 A3019 380 81 -1300 020/03 RMK AO2
14840KMKG MKG20060323233009803/23/06 23:30:31  5-MIN KMKG 240430Z 01003KT 10SM OVC060 00/M03 A3019 390 81 -1300 020/03 RMK AO2
14840KMKG MKG20060323233509803/23/06 23:35:31  5-MIN KMKG 240435Z 01004KT 10SM OVC065 00/M03 A3019 390 81 -1300 020/04 RMK AO2
14840KMKG MKG20060323234009803/23/06 23:40:31  5-MIN KMKG 240440Z 01004KT 10SM OVC065 00/M02 A3019 390 85 -1300 020/04 RMK AO2
14840KMKG MKG20060323234509803/23/06 23:45:31  5-MIN KMKG 240445Z 01004KT 10SM OVC065 00/M02 A3018 390 85 -1300 010/04 RMK AO2
14840KMKG MKG20060323235012503/23/06 23:50:31  5-MIN KMKG 240450Z 01004KT 10SM OVC065 00/M02 A3018 390 85 -1300 010/04 RMK AO2 SLP228 T00001022 400501033
14840KMKG MKG20060323235512503/23/06 23:55:31  5-MIN KMKG 240455Z 01004KT 10SM OVC065 00/M02 A3018 390 85 -1300 010/04 RMK AO2 SLP227 T00001022 400501033
14840KMKG MKG20060324000009803/24/06 00:00:32  5-MIN KMKG 240500Z 01004KT 10SM OVC065 00/M02 A3018 390 85 -1300 010/04 RMK AO2
14840KMKG MKG20060324000510503/24/06 00:05:31  5-MIN KMKG 240505Z 01004KT 10SM FEW050 OVC065 00/M02 A3018 390 85 -1300 010/04 RMK AO2
14840KMKG MKG20060324001010503/24/06 00:10:31  5-MIN KMKG 240510Z 01004KT 10SM FEW055 OVC065 00/M02 A3018 390 85 -1300 010/04 RMK AO2
14840KMKG MKG20060324001509803/24/06 00:15:31  5-MIN KMKG 240515Z 01004KT 10SM OVC070 00/M02 A3018 390 85 -1300 010/04 RMK AO2
14840KMKG MKG20060324002009803/24/06 00:20:31  5-MIN KMKG 240520Z 01004KT 10SM OVC070 00/M02 A3018 390 85 -1300 010/04 RMK AO2
14840KMKG MKG20060324002509803/24/06 00:25:31  5-MIN KMKG 240525Z 01004KT 10SM OVC070 00/M02 A3018 390 85 -1300 010/04 RMK AO2
14840KMKG MKG20060324003009803/24/06 00:30:31  5-MIN KMKG 240530Z 01004KT 10SM OVC070 00/M02 A3018 390 88 -1300 010/04 RMK AO2
14840KMKG MKG20060324003509803/24/06 00:35:31  5-MIN KMKG 240535Z 01005KT 10SM OVC070 00/M02 A3018 400 88 -1300 010/05 RMK AO2
14840KMKG MKG20060324004009803/24/06 00:40:31  5-MIN KMKG 240540Z 01005KT 10SM OVC070 00/M02 A3017 400 88 -1300 010/05 RMK AO2
14840KMKG MKG20060324004509803/24/06 00:45:31  5-MIN KMKG 240545Z 01005KT 10SM OVC070 00/M02 A3017 400 88 -1200 010/05 RMK AO2
14840KMKG MKG20060324005013303/24/06 00:50:31  5-MIN KMKG 240550Z 01005KT 10SM OVC070 00/M02 A3017 400 88 -1200 020/05 RMK AO2 SLP224 T00001017 10006 21006 56004
14840KMKG MKG20060324005513303/24/06 00:55:31  5-MIN KMKG 240555Z 01005KT 10SM OVC070 00/M02 A3017 400 88 -1200 010/05 RMK AO2 SLP224 T00001017 10006 21006 56012
14840KMKG MKG20060324010009803/24/06 01:00:31  5-MIN KMKG 240600Z 01005KT 10SM OVC070 00/M02 A3017 400 88 -1200 020/05 RMK AO2
14840KMKG MKG20060324010509803/24/06 01:05:31  5-MIN KMKG 240605Z 02005KT 10SM OVC070 00/M02 A3017 400 88 -1200 030/05 RMK AO2
14840KMKG MKG20060324011009803/24/06 01:10:31  5-MIN KMKG 240610Z 02004KT 10SM OVC070 00/M02 A3017 400 88 -1200 030/04 RMK AO2
14840KMKG MKG20060324011510503/24/06 01:15:31  5-MIN KMKG 240615Z 02004KT 10SM FEW060 OVC070 00/M02 A3017 400 88 -1200 030/04 RMK AO2
14840KMKG MKG20060324012009803/24/06 01:20:31  5-MIN KMKG 240620Z 02005KT 10SM OVC070 00/M02 A3017 400 88 -1200 020/05 RMK AO2
14840KMKG MKG20060324012509803/24/06 01:25:31  5-MIN KMKG 240625Z 02004KT 10SM OVC070 00/M02 A3017 400 88 -1200 020/04 RMK AO2
14840KMKG MKG20060324013009803/24/06 01:30:31  5-MIN KMKG 240630Z 01004KT 10SM OVC065 00/M02 A3017 400 88 -1200 010/04 RMK AO2
14840KMKG MKG20060324013509803/24/06 01:35:31  5-MIN KMKG 240635Z 02004KT 10SM OVC065 00/M02 A3017 400 88 -1200 020/04 RMK AO2
14840KMKG MKG20060324014009803/24/06 01:40:31  5-MIN KMKG 240640Z 02004KT 10SM OVC070 00/M02 A3017 400 88 -1200 020/04 RMK AO2
14840KMKG MKG20060324014509803/24/06 01:45:31  5-MIN KMKG 240645Z 02004KT 10SM OVC070 00/M02 A3017 400 88 -1200 020/04 RMK AO2
14840KMKG MKG20060324015011503/24/06 01:50:31  5-MIN KMKG 240650Z 01003KT 10SM OVC070 00/M02 A3016 410 88 -1200 020/03 RMK AO2 SLP221 T00001017
14840KMKG MKG20060324015511503/24/06 01:55:31  5-MIN KMKG 240655Z 02004KT 10SM OVC070 00/M02 A3016 410 88 -1200 020/04 RMK AO2 SLP221 T00001017
14840KMKG MKG20060324020009803/24/06 02:00:31  5-MIN KMKG 240700Z 02003KT 10SM OVC070 00/M02 A3016 410 88 -1200 020/03 RMK AO2
14840KMKG MKG20060324020509803/24/06 02:05:31  5-MIN KMKG 240705Z 02003KT 10SM OVC070 00/M02 A3016 410 88 -1200 030/03 RMK AO2
14840KMKG MKG20060324021009803/24/06 02:10:31  5-MIN KMKG 240710Z 03004KT 10SM OVC070 00/M02 A3016 410 88 -1200 040/04 RMK AO2
14840KMKG MKG20060324021509803/24/06 02:15:31  5-MIN KMKG 240715Z 02003KT 10SM OVC070 00/M02 A3016 410 88 -1200 020/03 RMK AO2
14840KMKG MKG20060324022009803/24/06 02:20:31  5-MIN KMKG 240720Z 01003KT 10SM OVC070 00/M02 A3016 410 88 -1200 020/03 RMK AO2
14840KMKG MKG20060324022509803/24/06 02:25:31  5-MIN KMKG 240725Z 00000KT 10SM OVC070 00/M02 A3016 410 88 -1200 000/00 RMK AO2
14840KMKG MKG20060324023009803/24/06 02:30:31  5-MIN KMKG 240730Z 02003KT 10SM OVC070 00/M02 A3016 410 88 -1200 020/03 RMK AO2
14840KMKG MKG20060324023509703/24/06 02:35:31  5-MIN KMKG 240735Z 03003KT 9SM OVC065 00/M02 A3016 410 88 -1200 030/03 RMK AO2
14840KMKG MKG20060324024011303/24/06 02:40:31  5-MIN KMKG 240740Z 00000KT 8SM -SN OVC065 00/M02 A3016 410 88 -1200 000/00 RMK AO2 SNB36 P0000
14840KMKG MKG20060324024511603/24/06 02:45:31  5-MIN KMKG 240745Z 01003KT 6SM -SN BR OVC065 00/M02 A3016 410 88 -1200 020/03 RMK AO2 SNB36 P0000
14840KMKG MKG20060324025013303/24/06 02:50:31  5-MIN KMKG 240750Z 00000KT 6SM -SN BR OVC060 00/M02 A3016 410 88 -1200 000/00 RMK AO2 SNB36 SLP219 P0000 T00001017
14840KMKG MKG20060324025513003/24/06 02:55:31  5-MIN KMKG 240755Z 00000KT 7SM -SN OVC060 00/M02 A3016 410 88 -1200 000/00 RMK AO2 SNB36 SLP219 P0000 T00001017
14840KMKG MKG20060324030012503/24/06 03:00:31  5-MIN KMKG 240800Z 00000KT 6SM -SN BR OVC060 00/M02 A3016 410 88 -1200 000/00 RMK AO2 CIG 050 RWY 14 P0000
14840KMKG MKG20060324030513203/24/06 03:05:31  5-MIN KMKG 240805Z 06003KT 5SM -SN BR FEW038 OVC060 00/M02 A3015 410 88 -1200 060/03 RMK AO2 CIG 046 RWY 14 P0000
14840KMKG MKG20060324031013203/24/06 03:10:31  5-MIN KMKG 240810Z 00000KT 5SM -SN BR SCT038 OVC060 00/M02 A3015 420 88 -1200 000/00 RMK AO2 CIG 042 RWY 14 P0000
14840KMKG MKG20060324031513203/24/06 03:15:31  5-MIN KMKG 240815Z 00000KT 5SM -SN BR SCT038 OVC060 00/M01 A3015 420 92 -1200 000/00 RMK AO2 CIG 042 RWY 14 P0000
14840KMKG MKG20060324032012403/24/06 03:20:31  5-MIN KMKG 240820Z 00000KT 4SM -SN BR SCT038 BKN050 OVC065 00/M02 A3015 420 88 -1200 000/00 RMK AO2 P0000
14840KMKG MKG20060324032513903/24/06 03:25:31  5-MIN KMKG 240825Z 00000KT 4SM -SN BR FEW038 BKN050 OVC065 00/M02 A3015 420 88 -1200 000/00 RMK AO2 CIG 038 RWY 14 P0000
14840KMKG MKG20060324033013903/24/06 03:30:31  5-MIN KMKG 240830Z 00000KT 4SM -SN BR FEW022 BKN050 OVC070 00/M02 A3015 420 88 -1200 000/00 RMK AO2 CIG 042 RWY 14 P0000
14840KMKG MKG20060324033513903/24/06 03:35:31  5-MIN KMKG 240835Z 00000KT 4SM -SN BR FEW022 BKN050 OVC070 00/M01 A3015 420 92 -1200 000/00 RMK AO2 CIG 028 RWY 14 P0000
14840KMKG MKG20060324034013903/24/06 03:40:31  5-MIN KMKG 240840Z 00000KT 4SM -SN BR FEW020 BKN050 OVC065 00/M01 A3015 420 92 -1200 000/00 RMK AO2 CIG 026 RWY 14 P0000
14840KMKG MKG20060324034513903/24/06 03:45:31  5-MIN KMKG 240845Z 00000KT 4SM -SN BR FEW019 BKN050 OVC065 00/M01 A3015 420 92 -1200 000/00 RMK AO2 CIG 039 RWY 14 P0000
14840KMKG MKG20060324035016803/24/06 03:50:31  5-MIN KMKG 240850Z 00000KT 4SM -SN BR FEW019 BKN048 OVC065 00/M01 A3015 420 92 -1200 000/00 RMK AO2 CIG 041 RWY 14 SLP216 P0000 60000 T00001011 56012
14840KMKG MKG20060324035515303/24/06 03:55:31  5-MIN KMKG 240855Z 00000KT 3SM -SN BR SCT019 BKN042 OVC065 00/M01 A3015 420 92 -1200 000/00 RMK AO2 SLP216 P0000 60000 T00001011 58008
14840KMKG MKG20060324040012403/24/06 04:00:31  5-MIN KMKG 240900Z 00000KT 3SM -SN BR BKN019 BKN042 OVC065 00/M01 A3015 420 92 -1200 000/00 RMK AO2 P0000
14840KMKG MKG20060324040512503/24/06 04:05:31  5-MIN KMKG 240905Z 00000KT 3SM -SN BR BKN019 BKN042 OVC065 M01/M01 A3015 420 96 -1300 000/00 RMK AO2 P0000
14840KMKG MKG20060324041012503/24/06 04:10:31  5-MIN KMKG 240910Z 00000KT 3SM -SN BR SCT019 BKN042 OVC070 M01/M01 A3015 420 96 -1300 000/00 RMK AO2 P0000
14840KMKG MKG20060324041514003/24/06 04:15:31  5-MIN KMKG 240915Z 00000KT 3SM -SN BR SCT019 SCT042 OVC065 M01/M01 A3014 420 96 -1300 000/00 RMK AO2 CIG 047 RWY 14 P0000
14840KMKG MKG20060324042013303/24/06 04:20:31  5-MIN KMKG 240920Z 00000KT 3SM -SN BR SCT019 OVC065 M01/M01 A3014 420 96 -1300 000/00 RMK AO2 CIG 049 RWY 14 P0000
14840KMKG MKG20060324042513303/24/06 04:25:31  5-MIN KMKG 240925Z 00000KT 3SM -SN BR FEW019 OVC065 M01/M01 A3015 420 96 -1300 000/00 RMK AO2 CIG 049 RWY 14 P0000
14840KMKG MKG20060324043011803/24/06 04:30:31  5-MIN KMKG 240930Z 00000KT 3SM -SN BR FEW019 OVC065 M01/M01 A3015 420 96 -1300 000/00 RMK AO2 P0000
14840KMKG MKG20060324043511103/24/06 04:35:31  5-MIN KMKG 240935Z 00000KT 3SM -SN BR OVC065 M01/M01 A3015 420 96 -1300 000/00 RMK AO2 P0000
14840KMKG MKG20060324044013303/24/06 04:40:31  5-MIN KMKG 240940Z 00000KT 3SM -SN BR FEW019 OVC060 M01/M01 A3015 420 96 -1300 000/00 RMK AO2 CIG 039 RWY 14 P0000
14840KMKG MKG20060324044514003/24/06 04:45:31  5-MIN KMKG 240945Z 00000KT 3SM -SN BR SCT019 SCT041 OVC060 M01/M01 A3015 420 96 -1300 000/00 RMK AO2 CIG 032 RWY 14 P0000
14840KMKG MKG20060324045014003/24/06 04:50:31  5-MIN KMKG 240950Z 01003KT 3SM -SN BR FEW009 BKN041 OVC065 M01/M01 A3015 420 96 -1300 020/03 RMK AO2 CIG 030 RWY 14 P0000
14840KMKG MKG20060324045514603/24/06 04:55:31  5-MIN KMKG 240955Z 00000KT 2 1/2SM -SN BR FEW009 BKN021 OVC065 M01/M01 A3015 420 96 -1300 000/00 RMK AO2 SLP215 P0000 T10061011
14840KMKG MKG20060324050012903/24/06 05:00:31  5-MIN KMKG 241000Z 00000KT 2 1/2SM -SN BR FEW009 BKN019 OVC060 M01/M01 A3014 420 96 -1300 000/00 RMK AO2 P0000
14840KMKG MKG20060324050514003/24/06 05:05:31  5-MIN KMKG 241005Z 00000KT 3SM -SN BR SCT012 BKN018 OVC060 M01/M01 A3015 420 96 -1300 000/00 RMK AO2 CIG 013 RWY 14 P0001
14840KMKG MKG20060324051012503/24/06 05:10:31  5-MIN KMKG 241010Z 00000KT 3SM -SN BR BKN012 BKN018 OVC060 M01/M01 A3015 420 96 -1300 000/00 RMK AO2 P0001
14840KMKG MKG20060324051511803/24/06 05:15:31  5-MIN KMKG 241015Z 00000KT 3SM -SN BR BKN012 OVC060 M01/M01 A3015 420 96 -1300 000/00 RMK AO2 P0001
14840KMKG MKG20060324052011803/24/06 05:20:31  5-MIN KMKG 241020Z 00000KT 3SM -SN BR FEW006 OVC012 M01/M01 A3015 420 96 -1300 000/00 RMK AO2 P0001
14840KMKG MKG20060324052512103/24/06 05:25:31  5-MIN KMKG 241025Z 00000KT 2 1/2SM -SN BR FEW006 OVC012 00/M01 A3015 420 92 -1200 000/00 RMK AO2 P0001
14840KMKG MKG20060324053011703/24/06 05:30:31  5-MIN KMKG 241030Z 02003KT 2SM -SN BR FEW006 OVC012 00/M01 A3015 420 92 -1200 030/03 RMK AO2 P0001
14840KMKG MKG20060324053511703/24/06 05:35:31  5-MIN KMKG 241035Z 00000KT 2SM -SN BR FEW004 OVC012 00/M01 A3015 420 92 -1200 000/00 RMK AO2 P0001
14840KMKG MKG20060324054012103/24/06 05:40:31  5-MIN KMKG 241040Z 00000KT 2 1/2SM -SN BR FEW004 OVC012 00/M01 A3015 420 92 -1200 000/00 RMK AO2 P0001
14840KMKG MKG20060324054512103/24/06 05:45:31  5-MIN KMKG 241045Z 00000KT 2 1/2SM -SN BR FEW004 OVC012 00/M01 A3015 420 92 -1200 000/00 RMK AO2 P0001
14840KMKG MKG20060324055013403/24/06 05:50:31  5-MIN KMKG 241050Z 00000KT 2SM -SN BR FEW004 OVC012 00/M01 A3015 420 92 -1200 000/00 RMK AO2 SLP215 P0001 T00001011
14840KMKG MKG20060324055513403/24/06 05:55:31  5-MIN KMKG 241055Z 00000KT 2SM -SN BR FEW004 OVC012 00/M01 A3015 420 92 -1200 000/00 RMK AO2 SLP215 P0001 T00001011
14840KMKG MKG20060324060012103/24/06 06:00:31  5-MIN KMKG 241100Z 00000KT 2 1/2SM -SN BR FEW004 OVC012 00/M01 A3015 420 92 -1200 000/00 RMK AO2 P0000
14840KMKG MKG20060324060512103/24/06 06:05:31  5-MIN KMKG 241105Z 00000KT 2 1/2SM -SN BR FEW004 OVC012 00/M01 A3015 420 92 -1200 000/00 RMK AO2 P0000
14840KMKG MKG20060324061012103/24/06 06:10:31  5-MIN KMKG 241110Z 00000KT 2 1/2SM -SN BR SCT004 OVC012 00/M01 A3015 420 92 -1200 000/00 RMK AO2 P0000
14840KMKG MKG20060324061512203/24/06 06:15:31  5-MIN KMKG 241115Z 02003KT 2 1/2SM -SN BR SCT004 OVC012 M01/M01 A3015 420 96 -1300 020/03 RMK AO2 P0000
14840KMKG MKG20060324062011803/24/06 06:20:31  5-MIN KMKG 241120Z 36003KT 2SM -SN BR BKN004 OVC012 M01/M01 A3014 420 96 -1300 010/03 RMK AO2 P0000
14840KMKG MKG20060324062512203/24/06 06:25:31  5-MIN KMKG 241125Z 36003KT 1 1/2SM -SN BR BKN004 OVC012 M01/M01 A3014 420 96 -1300 010/03 RMK AO2 P0001
14840KMKG MKG20060324063012203/24/06 06:30:31  5-MIN KMKG 241130Z 01003KT 1 1/2SM -SN BR BKN004 OVC012 M01/M01 A3014 420 96 -1300 010/03 RMK AO2 P0001
14840KMKG MKG20060324063512203/24/06 06:35:31  5-MIN KMKG 241135Z 02003KT 1 1/4SM -SN BR BKN004 OVC012 M01/M01 A3014 420 96 -1300 020/03 RMK AO2 P0001
14840KMKG MKG20060324064011803/24/06 06:40:31  5-MIN KMKG 241140Z 00000KT 1SM -SN BR BKN004 OVC012 M01/M01 A3014 420 96 -1300 000/00 RMK AO2 P0001
14840KMKG MKG20060324064511203/24/06 06:45:31  5-MIN KMKG 241145Z 00000KT 3/4SM -SN BR VV004 M01/M01 A3015 420 96 -1300 000/00 RMK AO2 P0002
14840KMKG MKG20060324065012103/24/06 06:50:31  5-MIN KMKG 241150Z 00000KT 1/2SM SN FZFG BKN004 OVC010 M01/M01 A3015 420 96 -1300 000/00 RMK AO2 P0002
14840KMKG MKG20060324065516803/24/06 06:55:31  5-MIN KMKG 241155Z 00000KT 1/2SM SN FZFG BKN004 OVC010 M01/M01 A3015 420 96 -1300 000/00 RMK AO2 SLP216 P0003 60004 70004 T10061011 10000 21006 56000
14840KMKG MKG20060324070011803/24/06 07:00:31  5-MIN KMKG 241200Z 00000KT 1SM -SN BR BKN004 OVC010 M01/M01 A3015 420 96 -1300 000/00 RMK AO2 P0000
14840KMKG MKG20060324070512203/24/06 07:05:31  5-MIN KMKG 241205Z 00000KT 1 1/2SM -SN BR BKN004 OVC010 M01/M01 A3014 420 96 -1300 000/00 RMK AO2 P0000
14840KMKG MKG20060324071012203/24/06 07:10:31  5-MIN KMKG 241210Z 00000KT 2 1/2SM -SN BR BKN004 OVC010 M01/M01 A3015 420 96 -1300 000/00 RMK AO2 P0000
14840KMKG MKG20060324071511803/24/06 07:15:31  5-MIN KMKG 241215Z 00000KT 3SM -SN BR BKN004 OVC010 M01/M01 A3015 420 96 -1300 000/00 RMK AO2 P0000
14840KMKG MKG20060324072011103/24/06 07:20:31  5-MIN KMKG 241220Z 00000KT 4SM -SN BR OVC004 M01/M01 A3015 420 96 -1300 000/00 RMK AO2 P0000
14840KMKG MKG20060324072511303/24/06 07:25:31  5-MIN KMKG 241225Z 01003KT 5SM BR OVC004 M01/M01 A3015 420 96 -1300 010/03 RMK AO2 SNE24 P0000
14840KMKG MKG20060324073011203/24/06 07:30:31  5-MIN KMKG 241230Z 00000KT 6SM BR OVC004 00/M01 A3015 420 92 -1200 000/00 RMK AO2 SNE24 P0000
14840KMKG MKG20060324073511203/24/06 07:35:31  5-MIN KMKG 241235Z 00000KT 6SM BR OVC004 00/M01 A3015 420 92 -1200 000/00 RMK AO2 SNE24 P0000
14840KMKG MKG20060324074010703/24/06 07:40:31  5-MIN KMKG 241240Z 01003KT 7SM -SN OVC004 00/M01 A3015 420 92 -1200 020/03 RMK AO2 P0000
14840KMKG MKG20060324074511403/24/06 07:45:31  5-MIN KMKG 241245Z 02003KT 8SM -SN BKN004 OVC011 00/M01 A3015 420 92 -1200 020/03 RMK AO2 P0000
14840KMKG MKG20060324075013103/24/06 07:50:31  5-MIN KMKG 241250Z 00000KT 8SM -SN BKN004 OVC011 00/M01 A3015 420 92 -1200 000/00 RMK AO2 SLP218 P0000 T00001011
14840KMKG MKG20060324075513103/24/06 07:55:31  5-MIN KMKG 241255Z 00000KT 8SM -SN BKN004 OVC011 00/M01 A3015 420 92 -1200 000/00 RMK AO2 SLP218 P0000 T00001011
14840KMKG MKG20060324080012903/24/06 08:00:31  5-MIN KMKG 241300Z 00000KT 8SM -SN SCT004 OVC011 00/M01 A3015 420 92 -1200 000/00 RMK AO2 CIG 004 RWY 14 P0000
14840KMKG MKG20060324080512903/24/06 08:05:31  5-MIN KMKG 241305Z 01003KT 9SM -SN SCT004 OVC011 00/M01 A3015 420 92 -1200 010/03 RMK AO2 CIG 004 RWY 14 P0000
14840KMKG MKG20060324081011603/24/06 08:10:31  5-MIN KMKG 241310Z 00000KT 9SM BKN004 OVC011 00/M01 A3015 420 92 -1200 000/00 RMK AO2 SNE10 P0000
14840KMKG MKG20060324081511603/24/06 08:15:31  5-MIN KMKG 241315Z 01003KT 9SM BKN004 OVC011 00/M01 A3015 420 92 -1200 010/03 RMK AO2 SNE10 P0000
14840KMKG MKG20060324082011703/24/06 08:20:31  5-MIN KMKG 241320Z 00000KT 10SM BKN006 OVC013 00/M01 A3015 420 92 -1200 000/00 RMK AO2 SNE10 P0000
14840KMKG MKG20060324082511003/24/06 08:25:31  5-MIN KMKG 241325Z 01003KT 10SM OVC006 00/M01 A3015 420 92 -1200 010/03 RMK AO2 SNE10 P0000
14840KMKG MKG20060324083011003/24/06 08:30:31  5-MIN KMKG 241330Z 36003KT 10SM OVC006 01/M01 A3015 420 89 -1200 360/03 RMK AO2 SNE10 P0000
14840KMKG MKG20060324083511003/24/06 08:35:31  5-MIN KMKG 241335Z 36003KT 10SM OVC006 01/M01 A3015 420 89 -1200 010/03 RMK AO2 SNE10 P0000
14840KMKG MKG20060324084011003/24/06 08:40:31  5-MIN KMKG 241340Z 36003KT 10SM OVC006 01/M01 A3015 420 89 -1100 010/03 RMK AO2 SNE10 P0000
14840KMKG MKG20060324084511003/24/06 08:45:31  5-MIN KMKG 241345Z 01004KT 10SM OVC006 01/M01 A3015 420 89 -1100 010/04 RMK AO2 SNE10 P0000
14840KMKG MKG20060324085012703/24/06 08:50:31  5-MIN KMKG 241350Z 02004KT 10SM OVC006 00/M01 A3015 420 92 -1200 020/04 RMK AO2 SNE10 SLP216 P0000 T00001011
14840KMKG MKG20060324085512703/24/06 08:55:31  5-MIN KMKG 241355Z 00000KT 10SM OVC006 01/M01 A3015 420 89 -1100 000/00 RMK AO2 SNE10 SLP216 P0000 T00061011
14840KMKG MKG20060324090009803/24/06 09:00:31  5-MIN KMKG 241400Z 03003KT 10SM OVC006 01/M01 A3015 420 89 -1100 040/03 RMK AO2
14840KMKG MKG20060324090509803/24/06 09:05:31  5-MIN KMKG 241405Z 03004KT 10SM OVC006 01/M01 A3015 420 89 -1100 030/04 RMK AO2
14840KMKG MKG20060324091009803/24/06 09:10:31  5-MIN KMKG 241410Z 02004KT 10SM OVC006 01/M01 A3015 420 89 -1100 020/04 RMK AO2
14840KMKG MKG20060324091510503/24/06 09:15:31  5-MIN KMKG 241415Z 00000KT 10SM BKN006 OVC013 01/M01 A3014 420 89 -1100 000/00 RMK AO2
14840KMKG MKG20060324092010503/24/06 09:20:31  5-MIN KMKG 241420Z 06003KT 10SM BKN006 OVC013 01/M01 A3014 420 89 -1100 060/03 RMK AO2
14840KMKG MKG20060324092512403/24/06 09:25:31  5-MIN KMKG 241425Z 00000KT 10SM BKN006 BKN013 OVC075 01/M01 A3014 420 89 -1100 000/00 RMK AO2 CIG 006V010
14840KMKG MKG20060324093014303/24/06 09:30:31  5-MIN KMKG 241430Z 00000KT 10SM -SN SCT006 BKN013 OVC075 01/M01 A3014 420 89 -1100 000/00 RMK AO2 SNB30 CIG 008 RWY 14 P0000
14840KMKG MKG20060324093513203/24/06 09:35:31  5-MIN KMKG 241435Z 00000KT 8SM -SN BKN009 OVC013 01/M01 A3014 420 89 -1100 000/00 RMK AO2 SNB30 CIG 006V012 P0000
14840KMKG MKG20060324094013503/24/06 09:40:31  5-MIN KMKG 241440Z 00000KT 5SM -SN BR BKN009 OVC013 01/M01 A3014 430 89 -1100 000/00 RMK AO2 SNB30 CIG 007V012 P0000
14840KMKG MKG20060324094513503/24/06 09:45:31  5-MIN KMKG 241445Z 00000KT 3SM -SN BR BKN009 OVC013 01/M01 A3014 430 85 -1100 000/00 RMK AO2 SNB30 CIG 007V011 P0000
14840KMKG MKG20060324095013503/24/06 09:50:31  5-MIN KMKG 241450Z 04003KT 4SM -SN BR BKN011 OVC014 01/M01 A3014 430 85 -1100 040/03 RMK AO2 SNB30 CIG 007V013 P0000
14840KMKG MKG20060324095514503/24/06 09:55:31  5-MIN KMKG 241455Z 00000KT 4SM -SN BR OVC011 01/M01 A3014 430 85 -1100 000/00 RMK AO2 SNB30 SLP215 P0000 60000 T00111011 56003
14840KMKG MKG20060324100012903/24/06 10:00:31  5-MIN KMKG 241500Z 05003KT 4SM -SN BR BKN011 OVC014 01/M01 A3014 430 89 -1100 050/03 RMK AO2 CIG 007V013 P0000
14840KMKG MKG20060324100510703/24/06 10:05:31  5-MIN KMKG 241505Z 02003KT 4SM -SN OVC012 02/M01 A3014 420 82 -1000 030/03 RMK AO2 P0000
14840KMKG MKG20060324101011003/24/06 10:10:31  5-MIN KMKG 241510Z 00000KT 5SM -SN BR OVC012 01/M01 A3014 420 85 -1100 000/00 RMK AO2 P0000
14840KMKG MKG20060324101510703/24/06 10:15:31  5-MIN KMKG 241515Z 00000KT 7SM -SN OVC012 01/M01 A3014 420 85 -1100 000/00 RMK AO2 P0000
14840KMKG MKG20060324102012603/24/06 10:20:31  5-MIN KMKG 241520Z 02003KT 8SM -SN BKN009 OVC012 02/M01 A3014 420 85 -1000 030/03 RMK AO2 CIG 008V011 P0000
14840KMKG MKG20060324102512903/24/06 10:25:31  5-MIN KMKG 241525Z 06003KT 6SM -SN BR BKN009 OVC012 01/M01 A3014 420 85 -1100 070/03 RMK AO2 CIG 008V012 P0000
14840KMKG MKG20060324103012603/24/06 10:30:31  5-MIN KMKG 241530Z 03004KT 5SM -SN BKN009 OVC014 02/M01 A3014 420 82 -1000 030/04 RMK AO2 CIG 008V012 P0001
14840KMKG MKG20060324103512603/24/06 10:35:31  5-MIN KMKG 241535Z 00000KT 6SM -SN BKN009 OVC014 02/M01 A3014 420 82 -1000 000/00 RMK AO2 CIG 008V013 P0001
14840KMKG MKG20060324104011703/24/06 10:40:31  5-MIN KMKG 241540Z 00000KT 6SM -SN BR SCT009 OVC014 02/M01 A3014 420 85 -1000 000/00 RMK AO2 P0001
14840KMKG MKG20060324104511403/24/06 10:45:31  5-MIN KMKG 241545Z 00000KT 7SM -SN SCT009 OVC014 02/M01 A3014 420 85 -1000 000/00 RMK AO2 P0001
14840KMKG MKG20060324105011403/24/06 10:50:31  5-MIN KMKG 241550Z 00000KT 8SM -SN FEW009 OVC016 02/M01 A3014 420 85 -1000 000/00 RMK AO2 P0001
14840KMKG MKG20060324105513103/24/06 10:55:31  5-MIN KMKG 241555Z 03003KT 8SM -SN SCT009 OVC016 02/M01 A3014 420 85 -1000 040/03 RMK AO2 SLP215 P0001 T00171006
14840KMKG MKG20060324110012003/24/06 11:00:31  5-MIN KMKG 241600Z 02003KT 7SM -SN FEW009 BKN016 OVC021 02/M01 A3014 420 82 -900 030/03 RMK AO2 P0000
14840KMKG MKG20060324110512003/24/06 11:05:31  5-MIN KMKG 241605Z 00000KT 6SM -SN FEW010 BKN016 OVC021 02/M01 A3014 420 82 -900 000/00 RMK AO2 P0000
14840KMKG MKG20060324111011303/24/06 11:10:31  5-MIN KMKG 241610Z 00000KT 8SM -SN BKN012 OVC020 02/M01 A3014 420 82 -900 000/00 RMK AO2 P0000
14840KMKG MKG20060324111512403/24/06 11:15:31  5-MIN KMKG 241615Z 32004KT 8SM -SN BKN010 OVC020 02/00 A3014 420 85 -900 320/04 RMK AO2 CIG 009V014 P0000
14840KMKG MKG20060324112011403/24/06 11:20:31  5-MIN KMKG 241620Z 00000KT 8SM -SN BKN010 OVC017 02/M01 A3014 420 85 -1000 000/00 RMK AO2 P0000
14840KMKG MKG20060324112511403/24/06 11:25:31  5-MIN KMKG 241625Z 00000KT 8SM -SN BKN010 OVC014 02/M01 A3014 420 85 -1000 000/00 RMK AO2 P0000
14840KMKG MKG20060324113011203/24/06 11:30:31  5-MIN KMKG 241630Z 32003KT 8SM -SN BKN012 OVC017 02/00 A3014 430 85 -900 330/03 RMK AO2 P0000
14840KMKG MKG20060324113511903/24/06 11:35:31  5-MIN KMKG 241635Z 00000KT 9SM -SN BKN012 BKN017 OVC036 02/00 A3014 430 85 -900 000/00 RMK AO2 P0000
14840KMKG MKG20060324114012003/24/06 11:40:31  5-MIN KMKG 241640Z 00000KT 9SM -SN SCT010 BKN015 OVC036 02/M01 A3014 430 82 -900 000/00 RMK AO2 P0000
14840KMKG MKG20060324114512003/24/06 11:45:31  5-MIN KMKG 241645Z 36005KT 9SM -SN FEW010 BKN013 OVC020 02/M01 A3014 430 82 -900 360/05 RMK AO2 P0000
14840KMKG MKG20060324115013003/24/06 11:50:31  5-MIN KMKG 241650Z VRB03KT 9SM -SN BKN013 OVC017 02/M01 A3014 430 82 -900 VRB/03 RMK AO2 SLP213 P0000 T00221006
14840KMKG MKG20060324115513003/24/06 11:55:31  5-MIN KMKG 241655Z 35005KT 9SM -SN BKN013 OVC017 02/M01 A3014 430 82 -900 350/05 RMK AO2 SLP212 P0000 T00221006
14840KMKG MKG20060324120011203/24/06 12:00:31  5-MIN KMKG 241700Z 35006KT 9SM -SN BKN013 OVC019 02/00 A3014 430 85 -900 350/06 RMK AO2 P0000
14840KMKG MKG20060324120511903/24/06 12:05:31  5-MIN KMKG 241705Z 34006KT 9SM -SN FEW010 BKN013 OVC022 03/01 A3014 430 85 -900 340/06 RMK AO2 P0000
14840KMKG MKG20060324121012103/24/06 12:10:31  5-MIN KMKG 241710Z 33006KT 9SM FEW010 BKN015 OVC022 03/01 A3013 430 85 -900 340/06 RMK AO2 SNE06 P0000
14840KMKG MKG20060324121511503/24/06 12:15:31  5-MIN KMKG 241715Z 33005KT 10SM BKN013 BKN020 03/01 A3013 440 82 -800 330/05 RMK AO2 SNE06 P0000
14840KMKG MKG20060324122011503/24/06 12:20:31  5-MIN KMKG 241720Z VRB05KT 10SM BKN015 BKN020 04/01 A3013 440 79 -700 VRB/05 RMK AO2 SNE06 P0000
14840KMKG MKG20060324122511503/24/06 12:25:31  5-MIN KMKG 241725Z 33005KT 10SM BKN015 BKN020 03/01 A3013 440 82 -800 340/05 RMK AO2 SNE06 P0000
14840KMKG MKG20060324123013703/24/06 12:30:31  5-MIN KMKG 241730Z VRB05KT 10SM SCT015 BKN020 BKN030 03/00 A3013 440 79 -800 VRB/05 RMK AO2 SNE06 CIG 013 RWY 14 P0000
14840KMKG MKG20060324123513803/24/06 12:35:31  5-MIN KMKG 241735Z 32005KT 10SM FEW013 SCT020 BKN030 03/M01 A3013 440 76 -800 320/05 RMK AO2 SNE06 CIG 022 RWY 14 P0000
14840KMKG MKG20060324124013003/24/06 12:40:31  5-MIN KMKG 241740Z 33005KT 10SM SCT015 BKN035 04/00 A3013 440 76 -700 330/05 RMK AO2 SNE06 CIG 015 RWY 14 P0000
14840KMKG MKG20060324124513803/24/06 12:45:31  5-MIN KMKG 241745Z 33006KT 10SM SCT015 SCT029 BKN035 03/M01 A3012 440 76 -800 340/06 RMK AO2 SNE06 CIG 025 RWY 14 P0000
14840KMKG MKG20060324125017803/24/06 12:50:31  5-MIN KMKG 241750Z 31005KT 10SM FEW015 BKN035 OVC095 04/00 A3013 440 76 -700 310/05 RMK AO2 SNE06 CIG 028 RWY 14 SLP208 P0000 60001 T00390000 10039 21006 56003
14840KMKG MKG20060324125517803/24/06 12:55:31  5-MIN KMKG 241755Z 29009KT 10SM FEW017 BKN043 OVC095 04/00 A3012 440 76 -700 300/09 RMK AO2 SNE06 CIG 030 RWY 14 SLP207 P0000 60001 T00390000 10044 21006 58007
14840KMKG MKG20060324130011003/24/06 13:00:31  5-MIN KMKG 241800Z 30008KT 10SM FEW019 BKN034 OVC095 03/00 A3012 450 79 -800 300/08 RMK AO2
14840KMKG MKG20060324130511003/24/06 13:05:31  5-MIN KMKG 241805Z 30009KT 10SM FEW019 BKN025 OVC095 03/00 A3012 450 82 -800 300/09 RMK AO2
14840KMKG MKG20060324131012603/24/06 13:10:31  5-MIN KMKG 241810Z 29009KT 10SM -SN SCT019 BKN025 OVC095 03/00 A3012 450 82 -800 290/09 RMK AO2 SNB09 P0000
14840KMKG MKG20060324131512503/24/06 13:15:31  5-MIN KMKG 241815Z 31009KT 9SM -SN SCT012 BKN020 OVC095 03/00 A3012 450 82 -800 310/09 RMK AO2 SNB09 P0000
14840KMKG MKG20060324132012603/24/06 13:20:31  5-MIN KMKG 241820Z 31010KT 7SM -SN SCT010 BKN018 OVC043 02/00 A3012 450 89 -1000 310/10 RMK AO2 SNB09 P0000
14840KMKG MKG20060324132516203/24/06 13:25:31  5-MIN KMKG 241825Z 30011KT 2 1/2SM -SN BR BKN010 BKN015 OVC025 02/00 A3012 450 89 -1000 310/11 RMK AO2 VIS 1 1/2 RWY 14 CIG 006V013 SNB09 P0000
14840KMKG MKG20060324133015803/24/06 13:30:31  5-MIN KMKG 241830Z 31008KT 1 3/4SM -SN BR BKN006 BKN013 OVC025 01/00 A3012 440 92 -1100 310/08 RMK AO2 VIS 1 RWY 14 CIG 006V010 SNB09 P0000
14840KMKG MKG20060324133512603/24/06 13:35:31  5-MIN KMKG 241835Z 32009KT 1 1/2SM -SN BR BKN008 OVC015 01/00 A3012 450 92 -1100 320/09 RMK AO2 SNB09 P0001
14840KMKG MKG20060324134011503/24/06 13:40:31  5-MIN KMKG 241840Z 32009KT 2SM -SN BR OVC008 02/00 A3012 450 89 -1000 330/09 RMK AO2 SNB09 P0001
14840KMKG MKG20060324134513603/24/06 13:45:31  5-MIN KMKG 241845Z 32010KT 1SM -SN BR BKN006 OVC010 01/00 A3012 450 92 -1000 330/10 RMK AO2 SFC VIS 1 1/2 SNB09 P0001
14840KMKG MKG20060324135013503/24/06 13:50:31  5-MIN KMKG 241850Z 33010KT 3/4SM -SN BR BKN006 OVC012 01/M01 A3012 450 92 -1100 330/10 RMK AO2 TWR VIS 1 SNB09 P0002
14840KMKG MKG20060324135514103/24/06 13:55:31  5-MIN KMKG 241855Z 33009KT 1/2SM SN FG BKN003 OVC008 01/M01 A3012 450 92 -1100 330/09 RMK AO2 SLP207 SNB09 P0003 T00061006
14840KMKG MKG20060324140011803/24/06 14:00:31  5-MIN KMKG 241900Z 32006KT 1/2SM SN FG BKN003 OVC009 01/M01 A3012 450 92 -1100 320/06 RMK AO2 P0001
14840KMKG MKG20060324140511803/24/06 14:05:31  5-MIN KMKG 241905Z 31008KT 3/4SM -SN BR BKN003 OVC009 01/00 A3012 450 96 -1100 310/08 RMK AO2 P0001
14840KMKG MKG20060324141011803/24/06 14:10:31  5-MIN KMKG 241910Z 31008KT 3/4SM -SN BR BKN003 OVC009 01/00 A3012 450 96 -1100 310/08 RMK AO2 P0001
14840KMKG MKG20060324141511803/24/06 14:15:31  5-MIN KMKG 241915Z 31006KT 3/4SM -SN BR BKN003 OVC009 01/00 A3012 450 96 -1100 310/06 RMK AO2 P0002
14840KMKG MKG20060324142012203/24/06 14:20:31  5-MIN KMKG 241920Z 31005KT 1/2SM -SN BR VV003 01/00 A3012 450 96 -1100 310/05 RMK AO2 SFC VIS 3/4 P0003
14840KMKG MKG20060324142512203/24/06 14:25:31  5-MIN KMKG 241925Z 30005KT 1/2SM -SN BR VV003 01/00 A3012 450 96 -1100 310/05 RMK AO2 SFC VIS 3/4 P0004
14840KMKG MKG20060324143012203/24/06 14:30:31  5-MIN KMKG 241930Z 33005KT 1/2SM -SN BR VV004 01/00 A3012 450 96 -1100 340/05 RMK AO2 SFC VIS 3/4 P0005
14840KMKG MKG20060324143512203/24/06 14:35:31  5-MIN KMKG 241935Z 36005KT 1/2SM -SN BR VV004 01/00 A3012 450 96 -1100 010/05 RMK AO2 SFC VIS 3/4 P0005
14840KMKG MKG20060324144012103/24/06 14:40:31  5-MIN KMKG 241940Z 36006KT 1/2SM -SN BR OVC005 01/00 A3012 450 96 -1100 360/06 RMK AO2 SFC VIS 1 P0005
14840KMKG MKG20060324144512103/24/06 14:45:31  5-MIN KMKG 241945Z 34007KT 1/2SM -SN BR OVC005 01/00 A3012 450 96 -1100 350/07 RMK AO2 SFC VIS 2 P0005
14840KMKG MKG20060324145013803/24/06 14:50:31  5-MIN KMKG 241950Z 33008KT 1/2SM -SN BR OVC007 01/00 A3011 450 96 -1100 330/08 RMK AO2 SFC VIS 3 SLP205 P0005 T00060000
14840KMKG MKG20060324145514503/24/06 14:55:31  5-MIN KMKG 241955Z 32008KT 1/2SM -SN BR BKN007 BKN015 01/00 A3011 450 92 -1000 320/08 RMK AO2 SFC VIS 3 SLP205 P0006 T00110000
14840KMKG MKG20060324150012603/24/06 15:00:31  5-MIN KMKG 242000Z 32005KT 2SM -SN BR FEW007 BKN014 01/00 A3011 450 92 -1000 320/05 RMK AO2 SFC VIS 6 P0000
14840KMKG MKG20060324150512303/24/06 15:05:31  5-MIN KMKG 242005Z 31005KT 2SM -SN FEW007 BKN023 01/00 A3011 450 92 -1000 320/05 RMK AO2 SFC VIS 9 P0000
14840KMKG MKG20060324151012303/24/06 15:10:31  5-MIN KMKG 242010Z 32006KT 2SM -SN FEW007 BKN025 01/01 A3011 450 96 -1000 320/06 RMK AO2 SFC VIS 8 P0000
14840KMKG MKG20060324151513303/24/06 15:15:31  5-MIN KMKG 242015Z 31006KT 2SM -SN BR SCT005 BKN025 BKN055 01/00 A3012 450 92 -1000 320/06 RMK AO2 SFC VIS 3 P0000
14840KMKG MKG20060324152013703/24/06 15:20:31  5-MIN KMKG 242020Z 31007KT 1SM -SN BR SCT005 BKN025 BKN055 01/00 A3011 450 92 -1000 310/07 RMK AO2 SFC VIS 1 1/2 P0000
14840KMKG MKG20060324152513303/24/06 15:25:31  5-MIN KMKG 242025Z 30005KT 1SM -SN BR SCT005 BKN021 BKN060 01/00 A3012 450 92 -1000 310/05 RMK AO2 SFC VIS 2 P0000
14840KMKG MKG20060324153013003/24/06 15:30:31  5-MIN KMKG 242030Z 30009KT 1SM -SN BR BKN003 BKN019 01/00 A3011 450 92 -1000 300/09 RMK AO2 SFC VIS 1 3/4 P0000
14840KMKG MKG20060324153510903/24/06 15:35:31  5-MIN KMKG 242035Z 30007KT 1SM -SN BR OVC005 01/00 A3012 450 96 -1100 300/07 RMK AO2 P0001
14840KMKG MKG20060324154010803/24/06 15:40:31  5-MIN KMKG 242040Z 30007KT 1SM -SN BR VV005 01/00 A3012 450 96 -1100 300/07 RMK AO2 P0001
14840KMKG MKG20060324154513003/24/06 15:45:31  5-MIN KMKG 242045Z 30006KT 1SM -SN BR BKN005 OVC014 01/00 A3012 450 96 -1100 300/06 RMK AO2 SFC VIS 1 1/4 P0001
14840KMKG MKG20060324155014503/24/06 15:50:31  5-MIN KMKG 242050Z 31004KT 1SM -SN BR BKN005 OVC014 01/00 A3012 450 96 -1100 310/04 RMK AO2 SLP207 P0001 60010 T00060000 58007
14840KMKG MKG20060324155514503/24/06 15:55:31  5-MIN KMKG 242055Z 30004KT 1SM -SN BR BKN005 OVC014 01/00 A3012 450 96 -1100 300/04 RMK AO2 SLP207 P0002 60011 T00060000 55002
14840KMKG MKG20060324160011603/24/06 16:00:31  5-MIN KMKG 242100Z 28004KT 1SM -SN BR BKN005 OVC014 01/00 A3012 450 96 -1100 290/04 RMK AO2 P0000
14840KMKG MKG20060324160512803/24/06 16:05:31  5-MIN KMKG 242105Z 27006KT 3/4SM -SN BR BKN005 OVC014 01/00 A3011 450 96 -1100 270/06 RMK AO2 TWR VIS 1 P0000
14840KMKG MKG20060324161010803/24/06 16:10:31  5-MIN KMKG 242110Z 28004KT 1SM -SN BR VV015 01/00 A3011 450 96 -1100 280/04 RMK AO2 P0000
14840KMKG MKG20060324161511903/24/06 16:15:31  5-MIN KMKG 242115Z 32005KT 1SM -SN BR OVC020 01/00 A3012 450 96 -1100 320/05 RMK AO2 SFC VIS 4 P0000
14840KMKG MKG20060324162011903/24/06 16:20:31  5-MIN KMKG 242120Z 32004KT 2SM -SN BR OVC020 01/00 A3012 450 96 -1100 320/04 RMK AO2 SFC VIS 5 P0000
14840KMKG MKG20060324162511603/24/06 16:25:31  5-MIN KMKG 242125Z 29004KT 2SM -SN BR BKN015 OVC019 01/00 A3012 450 96 -1100 300/04 RMK AO2 P0001
14840KMKG MKG20060324163012303/24/06 16:30:31  5-MIN KMKG 242130Z 28003KT 1 3/4SM -SN BR OVC015 01/00 A3011 450 96 -1100 290/03 RMK AO2 TWR VIS 2 P0001
14840KMKG MKG20060324163513803/24/06 16:35:31  5-MIN KMKG 242135Z 28003KT 2SM -SN BR OVC017 01/00 A3012 450 96 -1100 280/03 RMK AO2 SFC VIS 2 1/2 CIG 003 RWY 14 P0001
14840KMKG MKG20060324164013403/24/06 16:40:31  5-MIN KMKG 242140Z 28003KT 2SM -SN BR OVC017 01/00 A3011 450 96 -1100 280/03 RMK AO2 SFC VIS 4 CIG 003 RWY 14 P0001
14840KMKG MKG20060324164513803/24/06 16:45:31  5-MIN KMKG 242145Z 29004KT 2SM -SN BKN015 OVC055 01/01 A3012 450 96 -1000 290/04 RMK AO2 SFC VIS 7 CIG 003 RWY 14 P0001
14840KMKG MKG20060324165014703/24/06 16:50:31  5-MIN KMKG 242150Z 31005KT 2SM FEW002 BKN015 OVC070 01/01 A3012 450 96 -1000 310/05 RMK AO2 SFC VIS 9 SNE49 CIG 003 RWY 14 P0001
14840KMKG MKG20060324165515503/24/06 16:55:31  5-MIN KMKG 242155Z 29004KT 10SM FEW002 BKN060 OVC070 01/01 A3012 450 96 -1000 300/04 RMK AO2 SNE49 CIG 003 RWY 14 SLP206 P0001 T00110006
14840KMKG MKG20060324170012603/24/06 17:00:31  5-MIN KMKG 242200Z 29005KT 10SM SCT024 SCT060 OVC070 02/01 A3012 450 92 -1000 300/05 RMK AO2 CIG 029 RWY 14
14840KMKG MKG20060324170511103/24/06 17:05:31  5-MIN KMKG 242205Z 30004KT 10SM FEW044 SCT060 OVC070 02/01 A3012 450 92 -1000 300/04 RMK AO2
14840KMKG MKG20060324171011203/24/06 17:10:31  5-MIN KMKG 242210Z 31003KT 10SM OVC065 02/01 A3012 450 92 -1000 320/03 RMK AO2 CIG 050 RWY 14
14840KMKG MKG20060324171509703/24/06 17:15:31  5-MIN KMKG 242215Z 30003KT 10SM OVC070 02/00 A3012 450 89 -1000 310/03 RMK AO2
14840KMKG MKG20060324172009603/24/06 17:20:31  5-MIN KMKG 242220Z 31003KT 10SM OVC070 02/01 A3012 450 89 -900 320/03 RMK AO2
14840KMKG MKG20060324172509603/24/06 17:25:31  5-MIN KMKG 242225Z 35003KT 10SM OVC065 02/01 A3012 450 89 -900 360/03 RMK AO2
14840KMKG MKG20060324173009603/24/06 17:30:31  5-MIN KMKG 242230Z 00000KT 10SM OVC060 02/00 A3012 450 85 -900 000/00 RMK AO2
14840KMKG MKG20060324173511803/24/06 17:35:31  5-MIN KMKG 242235Z 01003KT 10SM SCT043 OVC060 02/01 A3012 450 89 -900 020/03 RMK AO2 CIG 047 RWY 14
14840KMKG MKG20060324174013403/24/06 17:40:31  5-MIN KMKG 242240Z 02003KT 10SM -RA SCT038 OVC060 02/01 A3012 450 89 -900 020/03 RMK AO2 RAB37 CIG 043 RWY 14 P0000
14840KMKG MKG20060324174511903/24/06 17:45:31  5-MIN KMKG 242245Z 02004KT 10SM -RA BKN042 OVC060 02/01 A3012 450 89 -900 020/04 RMK AO2 RAB37 P0000
14840KMKG MKG20060324175013503/24/06 17:50:31  5-MIN KMKG 242250Z 01003KT 10SM BKN045 OVC060 02/01 A3012 450 89 -900 010/03 RMK AO2 RAB37E47 SLP206 P0000 T00220006
14840KMKG MKG20060324175513503/24/06 17:55:31  5-MIN KMKG 242255Z 01004KT 10SM BKN047 OVC055 02/01 A3012 450 89 -900 010/04 RMK AO2 RAB37E47 SLP206 P0000 T00220006
14840KMKG MKG20060324180010303/24/06 18:00:31  5-MIN KMKG 242300Z 01004KT 10SM BKN047 OVC060 02/00 A3012 440 85 -900 010/04 RMK AO2
14840KMKG MKG20060324180510303/24/06 18:05:31  5-MIN KMKG 242305Z 01006KT 10SM BKN047 OVC060 02/00 A3012 440 85 -900 010/06 RMK AO2
14840KMKG MKG20060324181010303/24/06 18:10:31  5-MIN KMKG 242310Z 04003KT 10SM BKN049 OVC060 02/00 A3012 440 85 -900 040/03 RMK AO2
14840KMKG MKG20060324181509603/24/06 18:15:31  5-MIN KMKG 242315Z 04003KT 10SM OVC050 02/00 A3012 440 85 -900 050/03 RMK AO2
14840KMKG MKG20060324182009603/24/06 18:20:31  5-MIN KMKG 242320Z 04003KT 10SM OVC055 02/00 A3012 440 85 -900 050/03 RMK AO2
14840KMKG MKG20060324182510303/24/06 18:25:31  5-MIN KMKG 242325Z 04003KT 10SM BKN055 OVC075 02/00 A3012 440 85 -900 040/03 RMK AO2
14840KMKG MKG20060324183010303/24/06 18:30:31  5-MIN KMKG 242330Z 00000KT 10SM BKN055 OVC070 02/00 A3012 440 85 -900 000/00 RMK AO2
14840KMKG MKG20060324183510303/24/06 18:35:31  5-MIN KMKG 242335Z 04003KT 10SM SCT060 OVC070 02/01 A3012 440 89 -900 050/03 RMK AO2
14840KMKG MKG20060324184011103/24/06 18:40:31  5-MIN KMKG 242340Z 01004KT 10SM FEW060 BKN070 OVC085 02/00 A3012 440 89 -1000 020/04 RMK AO2
14840KMKG MKG20060324184510403/24/06 18:45:31  5-MIN KMKG 242345Z 00000KT 10SM BKN070 OVC085 02/00 A3012 440 89 -1000 000/00 RMK AO2
14840KMKG MKG20060324185014503/24/06 18:50:31  5-MIN KMKG 242350Z 01003KT 10SM BKN070 OVC085 02/00 A3012 440 89 -1000 010/03 RMK AO2 SLP209 60012 T00170000 10039 20006 55002
14840KMKG MKG20060324185514503/24/06 18:55:31  5-MIN KMKG 242355Z 36003KT 10SM BKN070 BKN085 02/01 A3012 440 92 -1000 010/03 RMK AO2 SLP208 60012 T00170006 10039 20006 53002
14840KMKG MKG20060324190010403/24/06 19:00:31  5-MIN KMKG 250000Z 00000KT 10SM BKN065 OVC085 02/01 A3012 440 92 -1000 000/00 RMK AO2
14840KMKG MKG20060324190510403/24/06 19:05:31  5-MIN KMKG 250005Z 00000KT 10SM BKN060 OVC085 02/01 A3012 440 92 -1000 000/00 RMK AO2
14840KMKG MKG20060324191011103/24/06 19:10:31  5-MIN KMKG 250010Z 00000KT 10SM SCT050 BKN065 OVC080 02/01 A3012 450 92 -1000 000/00 RMK AO2
14840KMKG MKG20060324191511103/24/06 19:15:31  5-MIN KMKG 250015Z 00000KT 10SM BKN050 BKN065 OVC080 02/01 A3012 440 92 -1000 000/00 RMK AO2
14840KMKG MKG20060324192011103/24/06 19:20:31  5-MIN KMKG 250020Z 00000KT 10SM SCT050 BKN060 OVC070 02/00 A3012 440 89 -1000 000/00 RMK AO2
14840KMKG MKG20060324192511103/24/06 19:25:31  5-MIN KMKG 250025Z 00000KT 10SM SCT050 BKN060 OVC070 02/00 A3012 440 89 -1000 000/00 RMK AO2
14840KMKG MKG20060324193010403/24/06 19:30:31  5-MIN KMKG 250030Z 00000KT 10SM BKN055 OVC070 02/00 A3012 440 89 -1000 000/00 RMK AO2
14840KMKG MKG20060324193510403/24/06 19:35:31  5-MIN KMKG 250035Z 00000KT 10SM SCT055 OVC070 02/00 A3012 440 89 -1000 000/00 RMK AO2
14840KMKG MKG20060324194010403/24/06 19:40:31  5-MIN KMKG 250040Z 00000KT 10SM FEW055 OVC070 02/00 A3012 440 89 -1000 000/00 RMK AO2
14840KMKG MKG20060324194509703/24/06 19:45:31  5-MIN KMKG 250045Z 00000KT 10SM OVC070 02/00 A3012 440 89 -1000 000/00 RMK AO2
14840KMKG MKG20060324195011403/24/06 19:50:31  5-MIN KMKG 250050Z 00000KT 10SM OVC070 02/00 A3012 440 89 -1000 000/00 RMK AO2 SLP207 T00170000
14840KMKG MKG20060324195511403/24/06 19:55:31  5-MIN KMKG 250055Z 00000KT 10SM BKN070 01/00 A3012 440 92 -1100 000/00 RMK AO2 SLP208 T00110000
14840KMKG MKG20060324200009703/24/06 20:00:31  5-MIN KMKG 250100Z 00000KT 10SM OVC070 01/00 A3012 440 92 -1100 000/00 RMK AO2
14840KMKG MKG20060324200509703/24/06 20:05:31  5-MIN KMKG 250105Z 30003KT 10SM OVC070 01/00 A3012 440 92 -1100 300/03 RMK AO2
14840KMKG MKG20060324201009703/24/06 20:10:31  5-MIN KMKG 250110Z 29004KT 10SM OVC070 01/00 A3012 440 92 -1100 300/04 RMK AO2
14840KMKG MKG20060324201510403/24/06 20:15:31  5-MIN KMKG 250115Z 28004KT 10SM FEW060 OVC075 01/00 A3012 440 92 -1100 290/04 RMK AO2
14840KMKG MKG20060324202009803/24/06 20:20:31  5-MIN KMKG 250120Z 28004KT 10SM OVC070 01/M01 A3012 440 92 -1100 280/04 RMK AO2
14840KMKG MKG20060324202509703/24/06 20:25:31  5-MIN KMKG 250125Z 29005KT 9SM OVC070 01/M01 A3012 450 92 -1100 300/05 RMK AO2
14840KMKG MKG20060324203012003/24/06 20:30:31  5-MIN KMKG 250130Z 29004KT 10SM SCT065 OVC080 01/M01 A3012 450 92 -1100 300/04 RMK AO2 CIG 060 RWY 14
14840KMKG MKG20060324203512003/24/06 20:35:31  5-MIN KMKG 250135Z 29005KT 10SM SCT060 OVC075 01/M01 A3012 450 92 -1100 300/05 RMK AO2 CIG 060 RWY 14
14840KMKG MKG20060324204010503/24/06 20:40:31  5-MIN KMKG 250140Z 30004KT 10SM BKN060 OVC075 01/M01 A3012 450 92 -1100 300/04 RMK AO2
14840KMKG MKG20060324204510503/24/06 20:45:31  5-MIN KMKG 250145Z 31005KT 10SM BKN065 OVC080 01/M01 A3012 440 89 -1100 310/05 RMK AO2
14840KMKG MKG20060324205012203/24/06 20:50:31  5-MIN KMKG 250150Z 29005KT 10SM BKN065 OVC080 01/M01 A3012 440 89 -1100 300/05 RMK AO2 SLP208 T00061011
14840KMKG MKG20060324205512203/24/06 20:55:31  5-MIN KMKG 250155Z 29004KT 10SM BKN065 BKN080 01/M01 A3012 440 89 -1100 290/04 RMK AO2 SLP208 T00061011
14840KMKG MKG20060324210009803/24/06 21:00:31  5-MIN KMKG 250200Z 30003KT 10SM OVC065 01/M01 A3012 440 89 -1100 310/03 RMK AO2
14840KMKG MKG20060324210509803/24/06 21:05:31  5-MIN KMKG 250205Z 30004KT 10SM OVC065 01/M01 A3012 440 89 -1100 300/04 RMK AO2
14840KMKG MKG20060324211009803/24/06 21:10:31  5-MIN KMKG 250210Z 00000KT 10SM OVC065 01/M01 A3012 440 89 -1100 000/00 RMK AO2
14840KMKG MKG20060324211510503/24/06 21:15:31  5-MIN KMKG 250215Z 31004KT 10SM BKN065 OVC095 01/M01 A3012 450 89 -1100 310/04 RMK AO2
14840KMKG MKG20060324212010503/24/06 21:20:31  5-MIN KMKG 250220Z 33007KT 10SM BKN070 OVC095 01/M02 A3012 450 85 -1100 340/07 RMK AO2
14840KMKG MKG20060324212510503/24/06 21:25:31  5-MIN KMKG 250225Z 34005KT 10SM BKN070 OVC095 01/M02 A3012 440 85 -1100 340/05 RMK AO2
14840KMKG MKG20060324213010503/24/06 21:30:31  5-MIN KMKG 250230Z 34005KT 10SM BKN070 BKN095 00/M02 A3012 440 88 -1200 340/05 RMK AO2
14840KMKG MKG20060324213510503/24/06 21:35:31  5-MIN KMKG 250235Z 33005KT 10SM BKN070 BKN095 00/M02 A3012 450 88 -1200 340/05 RMK AO2
14840KMKG MKG20060324214009803/24/06 21:40:31  5-MIN KMKG 250240Z 33007KT 10SM BKN070 00/M02 A3012 450 88 -1200 330/07 RMK AO2
14840KMKG MKG20060324214509803/24/06 21:45:31  5-MIN KMKG 250245Z 33007KT 10SM SCT065 00/M02 A3012 450 88 -1200 330/07 RMK AO2
14840KMKG MKG20060324215012103/24/06 21:50:31  5-MIN KMKG 250250Z 33007KT 10SM BKN065 00/M02 A3012 450 88 -1200 330/07 RMK AO2 SLP207 T00001017 53002
14840KMKG MKG20060324215512103/24/06 21:55:31  5-MIN KMKG 250255Z 34008KT 10SM BKN065 00/M02 A3012 440 85 -1200 340/08 RMK AO2 SLP208 T00001022 57001
14840KMKG MKG20060324220009803/24/06 22:00:31  5-MIN KMKG 250300Z 34008KT 10SM FEW065 00/M02 A3012 440 85 -1200 350/08 RMK AO2
14840KMKG MKG20060324220509803/24/06 22:05:31  5-MIN KMKG 250305Z 34007KT 10SM FEW065 00/M02 A3012 450 85 -1200 340/07 RMK AO2
14840KMKG MKG20060324221009803/24/06 22:10:31  5-MIN KMKG 250310Z 33009KT 10SM FEW060 00/M02 A3012 450 85 -1200 340/09 RMK AO2
14840KMKG MKG20060324221509803/24/06 22:15:31  5-MIN KMKG 250315Z 33008KT 10SM FEW060 00/M02 A3012 450 85 -1200 330/08 RMK AO2
14840KMKG MKG20060324222009803/24/06 22:20:31  5-MIN KMKG 250320Z 34007KT 10SM FEW060 00/M02 A3012 450 85 -1200 340/07 RMK AO2
14840KMKG MKG20060324222509803/24/06 22:25:31  5-MIN KMKG 250325Z 33007KT 10SM FEW060 00/M02 A3012 450 85 -1200 340/07 RMK AO2
14840KMKG MKG20060324223009803/24/06 22:30:31  5-MIN KMKG 250330Z 33008KT 10SM FEW060 00/M02 A3012 450 85 -1200 330/08 RMK AO2
14840KMKG MKG20060324223509803/24/06 22:35:31  5-MIN KMKG 250335Z 33007KT 10SM FEW060 00/M02 A3012 450 85 -1200 330/07 RMK AO2
14840KMKG MKG20060324224009503/24/06 22:40:31  5-MIN KMKG 250340Z 33007KT 10SM CLR 00/M02 A3011 450 88 -1200 340/07 RMK AO2
14840KMKG MKG20060324224509503/24/06 22:45:31  5-MIN KMKG 250345Z 33009KT 10SM CLR 00/M02 A3011 450 88 -1200 330/09 RMK AO2
14840KMKG MKG20060324225011503/24/06 22:50:31  5-MIN KMKG 250350Z 33008KT 10SM FEW060 00/M02 A3011 450 88 -1200 330/08 RMK AO2 SLP204 T00001017
14840KMKG MKG20060324225511503/24/06 22:55:31  5-MIN KMKG 250355Z 33008KT 10SM FEW060 00/M02 A3011 450 88 -1200 340/08 RMK AO2 SLP204 T00001017
14840KMKG MKG20060324230009503/24/06 23:00:31  5-MIN KMKG 250400Z 34006KT 10SM CLR 00/M02 A3012 450 88 -1200 350/06 RMK AO2
14840KMKG MKG20060324230509503/24/06 23:05:31  5-MIN KMKG 250405Z 34006KT 10SM CLR 00/M02 A3012 450 88 -1200 340/06 RMK AO2
14840KMKG MKG20060324231009503/24/06 23:10:31  5-MIN KMKG 250410Z 34006KT 10SM CLR 00/M02 A3012 450 88 -1200 350/06 RMK AO2
14840KMKG MKG20060324231509503/24/06 23:15:31  5-MIN KMKG 250415Z 35007KT 10SM CLR 00/M02 A3012 450 88 -1200 350/07 RMK AO2
14840KMKG MKG20060324232009503/24/06 23:20:31  5-MIN KMKG 250420Z 35007KT 10SM CLR 00/M02 A3012 450 88 -1200 350/07 RMK AO2
14840KMKG MKG20060324232509503/24/06 23:25:31  5-MIN KMKG 250425Z 34007KT 10SM CLR 00/M02 A3012 450 88 -1200 350/07 RMK AO2
14840KMKG MKG20060324233009503/24/06 23:30:31  5-MIN KMKG 250430Z 34008KT 10SM CLR 00/M02 A3012 450 88 -1200 340/08 RMK AO2
14840KMKG MKG20060324233509503/24/06 23:35:31  5-MIN KMKG 250435Z 35008KT 10SM CLR 00/M02 A3012 450 88 -1200 350/08 RMK AO2
14840KMKG MKG20060324234009803/24/06 23:40:31  5-MIN KMKG 250440Z 35008KT 10SM FEW120 00/M02 A3011 450 88 -1200 350/08 RMK AO2
14840KMKG MKG20060324234509803/24/06 23:45:31  5-MIN KMKG 250445Z 35007KT 10SM FEW120 00/M02 A3011 450 88 -1200 350/07 RMK AO2
14840KMKG MKG20060324235012503/24/06 23:50:31  5-MIN KMKG 250450Z 35008KT 10SM FEW120 00/M02 A3011 450 88 -1200 350/08 RMK AO2 SLP204 T00001017 400441006
14840KMKG MKG20060324235512503/24/06 23:55:31  5-MIN KMKG 250455Z 35009KT 10SM FEW120 00/M02 A3011 450 88 -1200 350/09 RMK AO2 SLP204 T00001017 400441006
14840KMKG MKG20060325000009803/25/06 00:00:32  5-MIN KMKG 250500Z 34008KT 10SM SCT120 00/M02 A3011 450 88 -1200 350/08 RMK AO2
14840KMKG MKG20060325000509803/25/06 00:05:31  5-MIN KMKG 250505Z 34007KT 10SM SCT120 00/M02 A3011 450 88 -1200 350/07 RMK AO2
14840KMKG MKG20060325001009803/25/06 00:10:31  5-MIN KMKG 250510Z 34007KT 10SM FEW120 00/M02 A3011 450 88 -1200 340/07 RMK AO2
14840KMKG MKG20060325001509803/25/06 00:15:31  5-MIN KMKG 250515Z 34008KT 10SM FEW120 00/M02 A3011 450 88 -1200 350/08 RMK AO2
14840KMKG MKG20060325002009803/25/06 00:20:31  5-MIN KMKG 250520Z 35007KT 10SM FEW120 00/M02 A3011 460 88 -1200 350/07 RMK AO2
14840KMKG MKG20060325002509803/25/06 00:25:31  5-MIN KMKG 250525Z 35007KT 10SM FEW120 00/M02 A3011 460 88 -1200 360/07 RMK AO2
14840KMKG MKG20060325003009503/25/06 00:30:31  5-MIN KMKG 250530Z 35007KT 10SM CLR 00/M02 A3011 460 88 -1200 360/07 RMK AO2
14840KMKG MKG20060325003509503/25/06 00:35:31  5-MIN KMKG 250535Z 35007KT 10SM CLR 00/M02 A3011 460 88 -1200 360/07 RMK AO2
14840KMKG MKG20060325004009503/25/06 00:40:31  5-MIN KMKG 250540Z 35007KT 10SM CLR 00/M02 A3011 460 88 -1200 350/07 RMK AO2
14840KMKG MKG20060325004509503/25/06 00:45:31  5-MIN KMKG 250545Z 35007KT 10SM CLR 00/M02 A3011 460 88 -1200 360/07 RMK AO2
14840KMKG MKG20060325005013103/25/06 00:50:31  5-MIN KMKG 250550Z 35007KT 10SM CLR M01/M02 A3011 460 92 -1200 360/07 RMK AO2 SLP202 T10061017 10017 21006 57001
14840KMKG MKG20060325005513003/25/06 00:55:31  5-MIN KMKG 250555Z 35007KT 10SM CLR 00/M02 A3011 460 88 -1200 360/07 RMK AO2 SLP202 T00001017 10017 21006 56005
14840KMKG MKG20060325010009503/25/06 01:00:31  5-MIN KMKG 250600Z 36008KT 10SM CLR 00/M02 A3011 460 88 -1200 360/08 RMK AO2
14840KMKG MKG20060325010509503/25/06 01:05:31  5-MIN KMKG 250605Z 35007KT 10SM CLR 00/M02 A3011 460 88 -1200 360/07 RMK AO2
14840KMKG MKG20060325011009503/25/06 01:10:31  5-MIN KMKG 250610Z 36007KT 10SM CLR 00/M02 A3011 460 88 -1200 010/07 RMK AO2
14840KMKG MKG20060325011509503/25/06 01:15:31  5-MIN KMKG 250615Z 36006KT 10SM CLR 00/M02 A3011 460 88 -1200 360/06 RMK AO2
14840KMKG MKG20060325012009503/25/06 01:20:31  5-MIN KMKG 250620Z 36007KT 10SM CLR 00/M02 A3011 460 88 -1200 360/07 RMK AO2
14840KMKG MKG20060325012509503/25/06 01:25:31  5-MIN KMKG 250625Z 36007KT 10SM CLR 00/M02 A3011 460 88 -1200 360/07 RMK AO2
14840KMKG MKG20060325013009803/25/06 01:30:31  5-MIN KMKG 250630Z 36007KT 10SM FEW050 00/M02 A3011 460 88 -1200 360/07 RMK AO2
14840KMKG MKG20060325013509803/25/06 01:35:31  5-MIN KMKG 250635Z 01007KT 10SM SCT050 00/M02 A3011 460 88 -1200 010/07 RMK AO2
14840KMKG MKG20060325014009803/25/06 01:40:31  5-MIN KMKG 250640Z 01006KT 10SM BKN050 00/M02 A3011 460 88 -1200 010/06 RMK AO2
14840KMKG MKG20060325014509803/25/06 01:45:31  5-MIN KMKG 250645Z 01006KT 10SM SCT050 00/M02 A3011 460 88 -1200 010/06 RMK AO2
14840KMKG MKG20060325015011503/25/06 01:50:31  5-MIN KMKG 250650Z 01005KT 10SM BKN050 00/M02 A3011 460 88 -1200 010/05 RMK AO2 SLP204 T00001017
14840KMKG MKG20060325015511503/25/06 01:55:31  5-MIN KMKG 250655Z 01005KT 10SM BKN050 00/M02 A3011 460 88 -1200 010/05 RMK AO2 SLP203 T00001017
14840KMKG MKG20060325020009803/25/06 02:00:31  5-MIN KMKG 250700Z 01006KT 10SM BKN050 00/M01 A3011 460 92 -1200 010/06 RMK AO2
14840KMKG MKG20060325020509803/25/06 02:05:31  5-MIN KMKG 250705Z 36006KT 10SM BKN050 00/M01 A3011 460 92 -1200 360/06 RMK AO2
14840KMKG MKG20060325021009803/25/06 02:10:31  5-MIN KMKG 250710Z 35006KT 10SM BKN050 00/M01 A3011 460 92 -1200 360/06 RMK AO2
14840KMKG MKG20060325021509803/25/06 02:15:31  5-MIN KMKG 250715Z 36006KT 10SM OVC050 00/M01 A3011 460 92 -1200 360/06 RMK AO2
14840KMKG MKG20060325022009803/25/06 02:20:31  5-MIN KMKG 250720Z 36006KT 10SM OVC050 00/M01 A3011 460 92 -1200 360/06 RMK AO2
14840KMKG MKG20060325022509803/25/06 02:25:31  5-MIN KMKG 250725Z 35007KT 10SM BKN050 00/M01 A3011 460 92 -1200 360/07 RMK AO2
14840KMKG MKG20060325023009803/25/06 02:30:31  5-MIN KMKG 250730Z 34007KT 10SM BKN050 00/M01 A3011 460 92 -1200 350/07 RMK AO2
14840KMKG MKG20060325023509803/25/06 02:35:31  5-MIN KMKG 250735Z 35006KT 10SM BKN050 00/M01 A3011 460 92 -1200 350/06 RMK AO2
14840KMKG MKG20060325024009803/25/06 02:40:31  5-MIN KMKG 250740Z 35007KT 10SM SCT050 00/M02 A3011 460 88 -1200 350/07 RMK AO2
14840KMKG MKG20060325024510503/25/06 02:45:31  5-MIN KMKG 250745Z 35006KT 10SM FEW012 SCT050 00/M01 A3011 460 92 -1200 350/06 RMK AO2
14840KMKG MKG20060325025012203/25/06 02:50:31  5-MIN KMKG 250750Z 34007KT 10SM FEW012 SCT120 00/M01 A3011 460 92 -1200 350/07 RMK AO2 SLP203 T00001011
14840KMKG MKG20060325025512203/25/06 02:55:31  5-MIN KMKG 250755Z 34005KT 10SM FEW012 SCT120 00/M02 A3011 460 88 -1200 340/05 RMK AO2 SLP202 T00001017
14840KMKG MKG20060325030010503/25/06 03:00:31  5-MIN KMKG 250800Z 34006KT 10SM FEW012 SCT120 00/M02 A3011 460 88 -1200 350/06 RMK AO2
14840KMKG MKG20060325030512703/25/06 03:05:31  5-MIN KMKG 250805Z 35006KT 10SM FEW012 SCT055 BKN120 00/M01 A3010 460 92 -1200 350/06 RMK AO2 CIG 055 RWY 14
14840KMKG MKG20060325031011203/25/06 03:10:31  5-MIN KMKG 250810Z 34006KT 10SM FEW012 BKN055 BKN120 00/M01 A3010 460 92 -1200 350/06 RMK AO2
14840KMKG MKG20060325031510503/25/06 03:15:31  5-MIN KMKG 250815Z 35006KT 10SM BKN055 BKN120 00/M01 A3010 460 92 -1200 350/06 RMK AO2
14840KMKG MKG20060325032010503/25/06 03:20:31  5-MIN KMKG 250820Z 35006KT 10SM BKN055 OVC120 00/M01 A3010 460 92 -1200 350/06 RMK AO2
14840KMKG MKG20060325032509803/25/06 03:25:31  5-MIN KMKG 250825Z 36007KT 10SM OVC055 00/M01 A3010 460 92 -1200 360/07 RMK AO2
14840KMKG MKG20060325033010503/25/06 03:30:31  5-MIN KMKG 250830Z 36007KT 10SM FEW034 OVC055 00/M01 A3010 460 92 -1200 360/07 RMK AO2
14840KMKG MKG20060325033510503/25/06 03:35:31  5-MIN KMKG 250835Z 35007KT 10SM FEW034 OVC055 00/M01 A3010 460 92 -1200 360/07 RMK AO2
14840KMKG MKG20060325034009803/25/06 03:40:31  5-MIN KMKG 250840Z 36006KT 10SM OVC055 00/M01 A3010 460 92 -1200 360/06 RMK AO2
14840KMKG MKG20060325034510503/25/06 03:45:31  5-MIN KMKG 250845Z 36007KT 10SM FEW035 OVC055 00/M01 A3010 460 92 -1200 010/07 RMK AO2
14840KMKG MKG20060325035012803/25/06 03:50:31  5-MIN KMKG 250850Z 01007KT 10SM SCT035 OVC055 00/M01 A3010 460 92 -1200 010/07 RMK AO2 SLP202 T00001011 56005
14840KMKG MKG20060325035513503/25/06 03:55:31  5-MIN KMKG 250855Z 01007KT 10SM FEW031 BKN038 OVC055 00/M01 A3011 460 92 -1200 010/07 RMK AO2 SLP202 T00001011 57001
14840KMKG MKG20060325040011103/25/06 04:00:31  5-MIN KMKG 250900Z 01008KT 9SM FEW030 BKN038 OVC055 00/M01 A3011 460 92 -1200 010/08 RMK AO2
14840KMKG MKG20060325040510403/25/06 04:05:31  5-MIN KMKG 250905Z 01008KT 8SM BKN040 OVC055 00/M01 A3011 460 92 -1200 010/08 RMK AO2
14840KMKG MKG20060325041012603/25/06 04:10:31  5-MIN KMKG 250910Z 01007KT 7SM SCT038 BKN046 OVC075 00/M01 A3011 460 92 -1200 010/07 RMK AO2 CIG 039 RWY 14
14840KMKG MKG20060325041511103/25/06 04:15:31  5-MIN KMKG 250915Z 36007KT 7SM SCT038 BKN046 OVC060 00/M01 A3011 460 92 -1200 010/07 RMK AO2
14840KMKG MKG20060325042011203/25/06 04:20:31  5-MIN KMKG 250920Z 02007KT 10SM SCT038 BKN046 OVC060 00/M01 A3011 460 92 -1200 020/07 RMK AO2
14840KMKG MKG20060325042512703/25/06 04:25:31  5-MIN KMKG 250925Z 01006KT 10SM SCT041 BKN060 OVC070 00/M01 A3011 460 92 -1200 010/06 RMK AO2 CIG 050 RWY 14
14840KMKG MKG20060325043010503/25/06 04:30:31  5-MIN KMKG 250930Z 02005KT 10SM FEW043 OVC065 00/M02 A3011 460 88 -1200 020/05 RMK AO2
14840KMKG MKG20060325043510503/25/06 04:35:31  5-MIN KMKG 250935Z 00000KT 10SM FEW060 OVC070 00/M02 A3011 460 88 -1200 000/00 RMK AO2
14840KMKG MKG20060325044010503/25/06 04:40:31  5-MIN KMKG 250940Z 00000KT 10SM FEW060 OVC080 00/M02 A3011 450 88 -1200 000/00 RMK AO2
14840KMKG MKG20060325044510503/25/06 04:45:31  5-MIN KMKG 250945Z 00000KT 10SM FEW070 OVC080 00/M02 A3011 450 88 -1200 000/00 RMK AO2
14840KMKG MKG20060325045011503/25/06 04:50:31  5-MIN KMKG 250950Z 00000KT 10SM OVC085 00/M02 A3011 450 88 -1200 000/00 RMK AO2 SLP205 T00001017
14840KMKG MKG20060325045511503/25/06 04:55:31  5-MIN KMKG 250955Z 00000KT 10SM OVC090 00/M02 A3011 450 88 -1200 000/00 RMK AO2 SLP205 T00001017
14840KMKG MKG20060325050009803/25/06 05:00:31  5-MIN KMKG 251000Z 00000KT 10SM OVC085 00/M02 A3012 450 88 -1200 000/00 RMK AO2
14840KMKG MKG20060325050509803/25/06 05:05:31  5-MIN KMKG 251005Z 00000KT 10SM OVC085 00/M02 A3012 450 88 -1200 000/00 RMK AO2
14840KMKG MKG20060325051009803/25/06 05:10:31  5-MIN KMKG 251010Z 00000KT 10SM OVC085 00/M02 A3012 450 88 -1200 000/00 RMK AO2
14840KMKG MKG20060325051509803/25/06 05:15:31  5-MIN KMKG 251015Z 00000KT 10SM OVC085 00/M02 A3012 450 88 -1200 000/00 RMK AO2
14840KMKG MKG20060325052009803/25/06 05:20:31  5-MIN KMKG 251020Z 00000KT 10SM OVC080 00/M02 A3012 450 88 -1200 000/00 RMK AO2
14840KMKG MKG20060325052509803/25/06 05:25:31  5-MIN KMKG 251025Z 00000KT 10SM OVC080 00/M02 A3012 440 88 -1200 000/00 RMK AO2
14840KMKG MKG20060325053009803/25/06 05:30:31  5-MIN KMKG 251030Z 00000KT 10SM OVC080 00/M01 A3012 440 92 -1200 000/00 RMK AO2
14840KMKG MKG20060325053509803/25/06 05:35:31  5-MIN KMKG 251035Z 00000KT 10SM OVC080 00/M01 A3012 440 92 -1200 000/00 RMK AO2
14840KMKG MKG20060325054009803/25/06 05:40:31  5-MIN KMKG 251040Z 00000KT 10SM OVC080 00/M02 A3013 440 88 -1200 000/00 RMK AO2
14840KMKG MKG20060325054509803/25/06 05:45:31  5-MIN KMKG 251045Z 00000KT 10SM OVC080 00/M02 A3013 440 88 -1200 000/00 RMK AO2
14840KMKG MKG20060325055011503/25/06 05:50:31  5-MIN KMKG 251050Z 00000KT 10SM OVC075 00/M02 A3013 440 88 -1200 000/00 RMK AO2 SLP209 T00001017
14840KMKG MKG20060325055511503/25/06 05:55:31  5-MIN KMKG 251055Z 00000KT 10SM OVC070 00/M02 A3013 440 88 -1200 000/00 RMK AO2 SLP209 T00001017
14840KMKG MKG20060325060009803/25/06 06:00:31  5-MIN KMKG 251100Z 00000KT 10SM OVC065 00/M02 A3013 440 88 -1200 000/00 RMK AO2
14840KMKG MKG20060325060509803/25/06 06:05:31  5-MIN KMKG 251105Z 00000KT 10SM OVC065 00/M02 A3013 440 88 -1200 000/00 RMK AO2
14840KMKG MKG20060325061009803/25/06 06:10:31  5-MIN KMKG 251110Z 00000KT 10SM OVC060 00/M02 A3013 430 88 -1200 000/00 RMK AO2
14840KMKG MKG20060325061509803/25/06 06:15:31  5-MIN KMKG 251115Z 00000KT 10SM OVC060 00/M02 A3013 430 88 -1200 000/00 RMK AO2
14840KMKG MKG20060325062010503/25/06 06:20:31  5-MIN KMKG 251120Z 00000KT 10SM BKN055 OVC070 00/M02 A3014 430 88 -1200 000/00 RMK AO2
14840KMKG MKG20060325062510503/25/06 06:25:31  5-MIN KMKG 251125Z 00000KT 10SM BKN055 OVC070 00/M02 A3014 430 88 -1200 000/00 RMK AO2
14840KMKG MKG20060325063010503/25/06 06:30:31  5-MIN KMKG 251130Z 00000KT 10SM BKN055 OVC070 00/M02 A3014 430 88 -1200 000/00 RMK AO2
14840KMKG MKG20060325063512703/25/06 06:35:31  5-MIN KMKG 251135Z 00000KT 10SM SCT050 BKN070 OVC095 00/M02 A3014 430 88 -1200 000/00 RMK AO2 CIG 050 RWY 14
14840KMKG MKG20060325064012703/25/06 06:40:31  5-MIN KMKG 251140Z 00000KT 10SM SCT055 BKN070 OVC095 00/M02 A3014 430 88 -1200 000/00 RMK AO2 CIG 055 RWY 14
14840KMKG MKG20060325064512703/25/06 06:45:31  5-MIN KMKG 251145Z 00000KT 10SM FEW055 BKN075 OVC095 00/M02 A3014 430 88 -1200 000/00 RMK AO2 CIG 055 RWY 14
14840KMKG MKG20060325065015303/25/06 06:50:31  5-MIN KMKG 251150Z 00000KT 10SM FEW060 BKN070 OVC095 00/M02 A3014 430 88 -1200 000/00 RMK AO2 SLP214 70013 T00001017 10000 20000 57001
14840KMKG MKG20060325065514703/25/06 06:55:31  5-MIN KMKG 251155Z 00000KT 10SM BKN070 OVC095 M01/M02 A3014 420 92 -1300 000/00 RMK AO2 SLP215 70013 T10061017 10000 21006 53013
14840KMKG MKG20060325070010503/25/06 07:00:31  5-MIN KMKG 251200Z 00000KT 10SM BKN070 OVC095 00/M02 A3015 420 88 -1200 000/00 RMK AO2
14840KMKG MKG20060325070509803/25/06 07:05:31  5-MIN KMKG 251205Z 00000KT 10SM OVC070 00/M02 A3015 420 88 -1200 000/00 RMK AO2
14840KMKG MKG20060325071009803/25/06 07:10:31  5-MIN KMKG 251210Z 00000KT 10SM OVC075 00/M01 A3015 420 92 -1200 000/00 RMK AO2
14840KMKG MKG20060325071509803/25/06 07:15:31  5-MIN KMKG 251215Z 00000KT 10SM OVC070 00/M01 A3015 420 92 -1200 000/00 RMK AO2
14840KMKG MKG20060325072009803/25/06 07:20:31  5-MIN KMKG 251220Z 34005KT 10SM OVC070 01/M01 A3015 420 89 -1200 350/05 RMK AO2
14840KMKG MKG20060325072509803/25/06 07:25:31  5-MIN KMKG 251225Z 34005KT 10SM OVC075 01/M01 A3015 420 89 -1200 350/05 RMK AO2
14840KMKG MKG20060325073009803/25/06 07:30:31  5-MIN KMKG 251230Z 34005KT 10SM OVC075 01/M01 A3015 410 89 -1200 350/05 RMK AO2
14840KMKG MKG20060325073509803/25/06 07:35:31  5-MIN KMKG 251235Z 34006KT 10SM OVC070 01/M01 A3016 410 89 -1200 340/06 RMK AO2
14840KMKG MKG20060325074009803/25/06 07:40:31  5-MIN KMKG 251240Z 33005KT 10SM OVC070 01/M01 A3016 410 89 -1200 340/05 RMK AO2
14840KMKG MKG20060325074509803/25/06 07:45:31  5-MIN KMKG 251245Z 33006KT 10SM OVC070 01/M01 A3016 410 89 -1200 340/06 RMK AO2
14840KMKG MKG20060325075011503/25/06 07:50:31  5-MIN KMKG 251250Z 33006KT 10SM OVC070 01/M01 A3016 410 89 -1200 340/06 RMK AO2 SLP219 T00061011
14840KMKG MKG20060325075512203/25/06 07:55:31  5-MIN KMKG 251255Z 34006KT 10SM FEW050 OVC065 01/M01 A3016 410 89 -1200 340/06 RMK AO2 SLP219 T00061011
14840KMKG MKG20060325080010503/25/06 08:00:31  5-MIN KMKG 251300Z 34006KT 10SM FEW050 OVC065 01/M01 A3016 410 89 -1200 340/06 RMK AO2
14840KMKG MKG20060325080509803/25/06 08:05:31  5-MIN KMKG 251305Z 34004KT 10SM OVC070 01/M01 A3016 410 85 -1100 340/04 RMK AO2
14840KMKG MKG20060325081009803/25/06 08:10:31  5-MIN KMKG 251310Z 33007KT 10SM OVC065 01/M01 A3016 410 85 -1100 340/07 RMK AO2
14840KMKG MKG20060325081509803/25/06 08:15:31  5-MIN KMKG 251315Z 35007KT 10SM OVC065 01/M01 A3016 410 85 -1100 350/07 RMK AO2
14840KMKG MKG20060325082010503/25/06 08:20:31  5-MIN KMKG 251320Z 35007KT 10SM FEW010 OVC065 01/M01 A3016 410 85 -1100 350/07 RMK AO2
14840KMKG MKG20060325082510503/25/06 08:25:31  5-MIN KMKG 251325Z 35008KT 10SM SCT010 OVC065 01/M01 A3017 400 89 -1100 350/08 RMK AO2
14840KMKG MKG20060325083010503/25/06 08:30:31  5-MIN KMKG 251330Z 35010KT 10SM BKN010 OVC065 01/M01 A3017 400 85 -1100 360/10 RMK AO2
14840KMKG MKG20060325083510503/25/06 08:35:31  5-MIN KMKG 251335Z 35010KT 10SM BKN010 OVC065 01/M01 A3017 400 89 -1100 360/10 RMK AO2
14840KMKG MKG20060325084010503/25/06 08:40:31  5-MIN KMKG 251340Z 35008KT 10SM BKN010 OVC060 01/M01 A3017 400 85 -1100 350/08 RMK AO2
14840KMKG MKG20060325084511403/25/06 08:45:31  5-MIN KMKG 251345Z 35008KT 10SM -SN OVC010 01/M01 A3017 400 89 -1100 360/08 RMK AO2 SNB45 P0000
14840KMKG MKG20060325085013003/25/06 08:50:31  5-MIN KMKG 251350Z 35008KT 8SM -SN OVC010 01/M01 A3017 400 89 -1100 360/08 RMK AO2 SNB45 SLP223 P0000 T00111006
14840KMKG MKG20060325085513303/25/06 08:55:31  5-MIN KMKG 251355Z 35008KT 6SM -SN BR OVC010 01/M01 A3017 400 89 -1100 350/08 RMK AO2 SNB45 SLP223 P0000 T00111006
14840KMKG MKG20060325090012203/25/06 09:00:31  5-MIN KMKG 251400Z 35007KT 6SM -SN BR OVC010 01/M01 A3017 400 89 -1100 350/07 RMK AO2 CIG 009V012 P0000
14840KMKG MKG20060325090511803/25/06 09:05:31  5-MIN KMKG 251405Z 34006KT 7SM -SN OVC010 02/00 A3017 400 89 -1000 350/06 RMK AO2 CIG 009V012 P0000
14840KMKG MKG20060325091011803/25/06 09:10:31  5-MIN KMKG 251410Z 35007KT 9SM -SN OVC010 02/00 A3017 400 89 -1000 360/07 RMK AO2 CIG 008V012 P0000
14840KMKG MKG20060325091511803/25/06 09:15:31  5-MIN KMKG 251415Z 36007KT 9SM -SN OVC010 02/00 A3017 400 89 -1000 360/07 RMK AO2 CIG 008V013 P0000
14840KMKG MKG20060325092011803/25/06 09:20:31  5-MIN KMKG 251420Z 35007KT 9SM -SN OVC010 02/00 A3017 400 89 -1000 350/07 RMK AO2 CIG 007V013 P0000
14840KMKG MKG20060325092511803/25/06 09:25:31  5-MIN KMKG 251425Z 34007KT 9SM -SN OVC010 02/00 A3017 400 89 -1000 340/07 RMK AO2 CIG 007V014 P0000
14840KMKG MKG20060325093012503/25/06 09:30:31  5-MIN KMKG 251430Z 34009KT 9SM -SN BKN010 OVC041 02/00 A3017 400 89 -1000 340/09 RMK AO2 CIG 007V014 P0000
14840KMKG MKG20060325093513203/25/06 09:35:31  5-MIN KMKG 251435Z 34007KT 9SM -SN BKN010 BKN013 OVC041 02/00 A3017 400 89 -1000 340/07 RMK AO2 CIG 007V011 P0000
14840KMKG MKG20060325094013003/25/06 09:40:31  5-MIN KMKG 251440Z 34008KT 9SM SCT010 OVC041 02/00 A3017 400 85 -1000 350/08 RMK AO2 SNE36 CIG 012 RWY 14 P0000
14840KMKG MKG20060325094511603/25/06 09:45:31  5-MIN KMKG 251445Z 35007KT 10SM SCT010 OVC041 02/00 A3017 400 85 -1000 350/07 RMK AO2 SNE36 P0000
14840KMKG MKG20060325095014503/25/06 09:50:31  5-MIN KMKG 251450Z 34009KT 10SM SCT010 OVC041 02/00 A3017 400 85 -1000 340/09 RMK AO2 SNE36 SLP225 P0000 60000 T00220000 53013
14840KMKG MKG20060325095514503/25/06 09:55:31  5-MIN KMKG 251455Z 35011KT 10SM SCT012 OVC041 02/00 A3017 400 85 -1000 350/11 RMK AO2 SNE36 SLP225 P0000 60000 T00220000 51010
14840KMKG MKG20060325100010903/25/06 10:00:31  5-MIN KMKG 251500Z 36009G15KT 10SM FEW012 OVC043 03/00 A3018 390 82 -900 010/09G15 RMK AO2
14840KMKG MKG20060325100510303/25/06 10:05:31  5-MIN KMKG 251505Z 35010KT 10SM SCT012 OVC041 03/00 A3018 390 82 -900 350/10 RMK AO2
14840KMKG MKG20060325101010303/25/06 10:10:31  5-MIN KMKG 251510Z 35009KT 10SM BKN014 OVC041 03/00 A3018 390 82 -900 360/09 RMK AO2
14840KMKG MKG20060325101510303/25/06 10:15:31  5-MIN KMKG 251515Z 36012KT 10SM BKN014 OVC041 03/00 A3018 390 82 -900 010/12 RMK AO2
14840KMKG MKG20060325102010403/25/06 10:20:31  5-MIN KMKG 251520Z 36010KT 10SM BKN016 OVC039 03/M01 A3018 390 79 -900 360/10 RMK AO2
14840KMKG MKG20060325102510403/25/06 10:25:31  5-MIN KMKG 251525Z 35011KT 10SM BKN016 OVC039 03/M01 A3018 390 79 -900 360/11 RMK AO2
14840KMKG MKG20060325103009703/25/06 10:30:31  5-MIN KMKG 251530Z 35010KT 10SM OVC016 03/M01 A3018 390 79 -900 360/10 RMK AO2
14840KMKG MKG20060325103509703/25/06 10:35:31  5-MIN KMKG 251535Z 35008KT 10SM OVC016 03/M01 A3018 390 79 -900 360/08 RMK AO2
14840KMKG MKG20060325104010403/25/06 10:40:31  5-MIN KMKG 251540Z 36010KT 10SM BKN016 OVC022 03/M01 A3018 390 79 -900 010/10 RMK AO2
14840KMKG MKG20060325104509703/25/06 10:45:31  5-MIN KMKG 251545Z 01010KT 10SM OVC016 03/M01 A3019 390 79 -900 010/10 RMK AO2
14840KMKG MKG20060325105012103/25/06 10:50:31  5-MIN KMKG 251550Z 01007KT 10SM BKN018 OVC025 03/M01 A3019 390 76 -800 010/07 RMK AO2 SLP229 T00331006
14840KMKG MKG20060325105512003/25/06 10:55:31  5-MIN KMKG 251555Z 35007KT 10SM BKN018 OVC025 03/00 A3019 390 79 -800 350/07 RMK AO2 SLP229 T00330000
14840KMKG MKG20060325110010303/25/06 11:00:31  5-MIN KMKG 251600Z 36007KT 10SM BKN018 OVC025 04/00 A3019 390 76 -800 010/07 RMK AO2
14840KMKG MKG20060325110510303/25/06 11:05:31  5-MIN KMKG 251605Z 34008KT 10SM BKN018 OVC024 04/00 A3018 390 76 -800 350/08 RMK AO2
14840KMKG MKG20060325111010403/25/06 11:10:31  5-MIN KMKG 251610Z 34008KT 10SM BKN018 OVC024 04/M01 A3019 380 73 -800 350/08 RMK AO2
14840KMKG MKG20060325111510403/25/06 11:15:31  5-MIN KMKG 251615Z 35009KT 10SM BKN021 OVC029 04/M01 A3019 390 73 -800 350/09 RMK AO2
14840KMKG MKG20060325112010403/25/06 11:20:31  5-MIN KMKG 251620Z 34011KT 10SM BKN021 OVC027 04/M01 A3019 390 73 -800 340/11 RMK AO2
14840KMKG MKG20060325112511103/25/06 11:25:31  5-MIN KMKG 251625Z 35011KT 10SM SCT021 BKN025 OVC032 04/M01 A3019 380 73 -800 350/11 RMK AO2
14840KMKG MKG20060325113012603/25/06 11:30:31  5-MIN KMKG 251630Z 33011KT 10SM -RA SCT021 BKN030 OVC055 04/00 A3019 390 73 -700 330/11 RMK AO2 RAB27 P0000
14840KMKG MKG20060325113512603/25/06 11:35:31  5-MIN KMKG 251635Z 35011KT 10SM -RA SCT023 BKN028 OVC055 05/00 A3018 390 70 -600 350/11 RMK AO2 RAB27 P0000
14840KMKG MKG20060325114012503/25/06 11:40:31  5-MIN KMKG 251640Z 35009KT 10SM FEW023 BKN037 OVC055 05/00 A3019 390 70 -600 350/09 RMK AO2 RAB27E36 P0000
14840KMKG MKG20060325114512503/25/06 11:45:31  5-MIN KMKG 251645Z 32008KT 10SM SCT023 SCT036 OVC050 04/00 A3019 390 73 -700 320/08 RMK AO2 RAB27E36 P0000
14840KMKG MKG20060325115014303/25/06 11:50:31  5-MIN KMKG 251650Z 34008KT 10SM SCT023 BKN036 OVC050 04/M01 A3019 380 70 -700 350/08 RMK AO2 RAB27E36 SLP229 P0000 T00441006
14840KMKG MKG20060325115514303/25/06 11:55:31  5-MIN KMKG 251655Z 33009KT 10SM FEW021 BKN026 OVC055 04/M01 A3019 380 70 -700 330/09 RMK AO2 RAB27E36 SLP229 P0000 T00441006
14840KMKG MKG20060325120011003/25/06 12:00:31  5-MIN KMKG 251700Z 32009KT 10SM BKN023 BKN029 OVC050 04/00 A3019 390 76 -800 330/09 RMK AO2
14840KMKG MKG20060325120511003/25/06 12:05:31  5-MIN KMKG 251705Z 34011KT 10SM BKN024 BKN030 OVC050 04/00 A3019 380 76 -800 340/11 RMK AO2
14840KMKG MKG20060325121011003/25/06 12:10:31  5-MIN KMKG 251710Z 32009KT 10SM SCT022 BKN027 OVC038 04/01 A3019 380 79 -800 330/09 RMK AO2
14840KMKG MKG20060325121511003/25/06 12:15:31  5-MIN KMKG 251715Z 31009KT 10SM FEW016 BKN027 OVC040 04/01 A3018 390 79 -800 320/09 RMK AO2
14840KMKG MKG20060325122011003/25/06 12:20:31  5-MIN KMKG 251720Z 32007KT 10SM FEW016 BKN028 OVC037 04/01 A3018 390 79 -800 320/07 RMK AO2
14840KMKG MKG20060325122511003/25/06 12:25:31  5-MIN KMKG 251725Z 33008KT 10SM SCT016 BKN023 OVC032 04/01 A3019 390 79 -800 330/08 RMK AO2
14840KMKG MKG20060325123011003/25/06 12:30:31  5-MIN KMKG 251730Z 32008KT 10SM BKN015 BKN023 OVC032 04/01 A3018 390 79 -800 320/08 RMK AO2
14840KMKG MKG20060325123511003/25/06 12:35:31  5-MIN KMKG 251735Z 31010KT 10SM SCT013 BKN019 OVC038 04/01 A3018 390 79 -700 310/10 RMK AO2
14840KMKG MKG20060325124011003/25/06 12:40:31  5-MIN KMKG 251740Z 31010KT 10SM SCT013 BKN019 OVC038 04/01 A3018 390 79 -700 310/10 RMK AO2
14840KMKG MKG20060325124512503/25/06 12:45:31  5-MIN KMKG 251745Z 31011KT 9SM -RA FEW013 BKN027 OVC050 04/02 A3018 390 85 -800 310/11 RMK AO2 RAB41 P0000
14840KMKG MKG20060325125016603/25/06 12:50:31  5-MIN KMKG 251750Z 31009KT 9SM -RA FEW010 BKN017 OVC050 04/02 A3018 390 85 -700 310/09 RMK AO2 RAB41 SLP227 P0000 60000 T00440022 10050 21006 51010
14840KMKG MKG20060325125516703/25/06 12:55:31  5-MIN KMKG 251755Z 30009KT 10SM -RA FEW010 BKN015 BKN050 04/02 A3018 390 85 -800 300/09 RMK AO2 RAB41 SLP227 P0000 60000 T00390017 10050 21006 50002
14840KMKG MKG20060325130012403/25/06 13:00:31  5-MIN KMKG 251800Z 32009KT 10SM FEW010 BKN026 OVC050 04/02 A3018 390 82 -700 320/09 RMK AO2 RAE1757 P0000
14840KMKG MKG20060325130512403/25/06 13:05:31  5-MIN KMKG 251805Z 28010KT 10SM FEW010 SCT015 OVC050 04/02 A3018 390 82 -700 290/10 RMK AO2 RAE1757 P0000
14840KMKG MKG20060325131012403/25/06 13:10:31  5-MIN KMKG 251810Z 31012KT 10SM SCT010 BKN017 OVC050 04/01 A3017 400 79 -700 320/12 RMK AO2 RAE1757 P0000
14840KMKG MKG20060325131512003/25/06 13:15:31  5-MIN KMKG 251815Z 32009KT 10SM -RA BKN012 BKN021 OVC050 04/01 A3018 390 82 -800 330/09 RMK AO2 P0000
14840KMKG MKG20060325132012003/25/06 13:20:31  5-MIN KMKG 251820Z 30009KT 10SM -RA FEW008 BKN012 OVC050 04/01 A3017 400 82 -800 310/09 RMK AO2 P0000
14840KMKG MKG20060325132511903/25/06 13:25:31  5-MIN KMKG 251825Z 30011KT 9SM -RA SCT008 BKN012 OVC050 03/02 A3017 400 89 -800 300/11 RMK AO2 P0000
14840KMKG MKG20060325133011903/25/06 13:30:31  5-MIN KMKG 251830Z 32011KT 9SM -RA BKN010 BKN024 OVC050 03/01 A3017 400 85 -800 320/11 RMK AO2 P0000
14840KMKG MKG20060325133512203/25/06 13:35:31  5-MIN KMKG 251835Z 31010KT 10SM BKN012 BKN024 OVC048 05/02 A3017 400 82 -600 310/10 RMK AO2 RAE34 P0000
14840KMKG MKG20060325134012203/25/06 13:40:31  5-MIN KMKG 251840Z 32010KT 10SM FEW008 BKN013 BKN029 05/02 A3017 400 79 -600 330/10 RMK AO2 RAE34 P0000
14840KMKG MKG20060325134511503/25/06 13:45:31  5-MIN KMKG 251845Z 32013KT 10SM FEW008 BKN013 06/02 A3017 400 76 -600 330/13 RMK AO2 RAE34 P0000
14840KMKG MKG20060325135013903/25/06 13:50:31  5-MIN KMKG 251850Z 32011KT 10SM SCT010 BKN016 BKN036 06/01 A3017 400 73 -600 330/11 RMK AO2 RAE34 SLP222 P0000 T00560011
14840KMKG MKG20060325135513903/25/06 13:55:31  5-MIN KMKG 251855Z 31010KT 10SM SCT014 BKN036 BKN048 05/01 A3017 400 76 -600 310/10 RMK AO2 RAE34 SLP221 P0000 T00500011
14840KMKG MKG20060325140011003/25/06 14:00:31  5-MIN KMKG 251900Z 31009KT 10SM SCT014 BKN036 BKN047 05/01 A3016 410 76 -600 310/09 RMK AO2
14840KMKG MKG20060325140511003/25/06 14:05:31  5-MIN KMKG 251905Z 30009KT 10SM SCT014 BKN036 OVC047 05/01 A3016 410 76 -600 310/09 RMK AO2
14840KMKG MKG20060325141011003/25/06 14:10:31  5-MIN KMKG 251910Z 31008KT 10SM SCT016 BKN036 BKN047 06/02 A3016 410 73 -500 320/08 RMK AO2
14840KMKG MKG20060325141511003/25/06 14:15:31  5-MIN KMKG 251915Z 31010KT 10SM SCT016 BKN026 OVC048 06/01 A3016 410 73 -500 320/10 RMK AO2
14840KMKG MKG20060325142012003/25/06 14:20:31  5-MIN KMKG 251920Z 32011KT 10SM -RA SCT016 BKN026 OVC048 06/02 A3016 410 76 -500 320/11 RMK AO2 RAB17
14840KMKG MKG20060325142512003/25/06 14:25:31  5-MIN KMKG 251925Z 30011KT 10SM -RA BKN018 BKN026 OVC090 06/02 A3016 410 73 -500 310/11 RMK AO2 RAB17
14840KMKG MKG20060325143011903/25/06 14:30:31  5-MIN KMKG 251930Z 32010KT 10SM BKN018 BKN025 OVC090 06/01 A3016 410 70 -500 320/10 RMK AO2 RAB17E27
14840KMKG MKG20060325143511903/25/06 14:35:31  5-MIN KMKG 251935Z 30011KT 10SM BKN018 BKN027 OVC090 06/02 A3015 420 73 -500 300/11 RMK AO2 RAB17E27
14840KMKG MKG20060325144011903/25/06 14:40:31  5-MIN KMKG 251940Z 30013KT 10SM BKN018 BKN028 OVC090 07/02 A3015 420 70 -400 310/13 RMK AO2 RAB17E27
14840KMKG MKG20060325144511203/25/06 14:45:31  5-MIN KMKG 251945Z 30012KT 10SM BKN018 BKN090 06/01 A3015 420 70 -500 310/12 RMK AO2 RAB17E27
14840KMKG MKG20060325145011203/25/06 14:50:31  5-MIN KMKG 251950Z 30012KT 10SM SCT018 BKN090 06/01 A3015 420 70 -500 310/12 RMK AO2 RAB17E27
14840KMKG MKG20060325145512903/25/06 14:55:31  5-MIN KMKG 251955Z 31013KT 10SM SCT018 BKN090 06/01 A3015 420 70 -500 310/13 RMK AO2 RAB17E27 SLP215 T00560006
14840KMKG MKG20060325150010303/25/06 15:00:31  5-MIN KMKG 252000Z 30011KT 10SM FEW018 SCT090 06/01 A3015 420 70 -500 300/11 RMK AO2
14840KMKG MKG20060325150509603/25/06 15:05:31  5-MIN KMKG 252005Z 31009KT 10SM FEW018 06/01 A3015 420 70 -500 320/09 RMK AO2
14840KMKG MKG20060325151009603/25/06 15:10:31  5-MIN KMKG 252010Z 32010KT 10SM FEW037 06/01 A3015 420 70 -500 320/10 RMK AO2
14840KMKG MKG20060325151511003/25/06 15:15:31  5-MIN KMKG 252015Z 31011KT 10SM FEW030 SCT040 SCT048 07/01 A3015 420 67 -400 310/11 RMK AO2
14840KMKG MKG20060325152014103/25/06 15:20:31  5-MIN KMKG 252020Z 32011KT 10SM -RA SCT025 SCT033 BKN045 06/01 A3015 420 70 -500 320/11 RMK AO2 RAB20 CIG 035 RWY 14 P0000
14840KMKG MKG20060325152512503/25/06 15:25:31  5-MIN KMKG 252025Z 35012KT 8SM -RA SCT017 BKN025 BKN033 05/01 A3016 410 76 -600 350/12 RMK AO2 RAB20 P0000
14840KMKG MKG20060325153014303/25/06 15:30:31  5-MIN KMKG 252030Z 36010KT 5SM -RA BR SCT017 BKN025 BKN033 04/02 A3016 410 85 -800 360/10 RMK AO2 RAB20 CIG 017 RWY 14 P0000
14840KMKG MKG20060325153512803/25/06 15:35:31  5-MIN KMKG 252035Z 36008KT 5SM -RA BR BKN017 BKN025 OVC045 04/02 A3016 410 85 -700 360/08 RMK AO2 RAB20 P0000
14840KMKG MKG20060325154011803/25/06 15:40:31  5-MIN KMKG 252040Z 34007KT 8SM -RA BKN023 OVC031 04/02 A3016 410 85 -700 350/07 RMK AO2 RAB20 P0000
14840KMKG MKG20060325154512603/25/06 15:45:31  5-MIN KMKG 252045Z 35007KT 10SM -RA FEW018 BKN023 OVC047 06/03 A3016 410 82 -500 360/07 RMK AO2 RAB20 P0000
14840KMKG MKG20060325155015403/25/06 15:50:31  5-MIN KMKG 252050Z 35005KT 10SM SCT020 BKN028 OVC100 06/02 A3016 410 79 -500 350/05 RMK AO2 RAB20E47 SLP218 P0000 60001 T00560022 50002
14840KMKG MKG20060325155515403/25/06 15:55:31  5-MIN KMKG 252055Z 36007KT 10SM FEW020 SCT028 BKN038 06/02 A3016 410 76 -500 360/07 RMK AO2 RAB20E47 SLP217 P0000 60001 T00610022 55003
14840KMKG MKG20060325160014103/25/06 16:00:31  5-MIN KMKG 252100Z 36009KT 10SM -RA SCT018 BKN030 BKN038 05/02 A3016 410 79 -600 360/09 RMK AO2 RAB00 CIG 020 RWY 14 P0000
14840KMKG MKG20060325160514003/25/06 16:05:31  5-MIN KMKG 252105Z 33012G18KT 6SM PLRA BR SCT017 BKN024 OVC100 03/01 A3016 410 85 -800 340/12G18 RMK AO2 RAB00PLB03 P0001
14840KMKG MKG20060325161014203/25/06 16:10:31  5-MIN KMKG 252110Z 36011G18KT 6SM -RA BR SCT017 BKN024 BKN100 03/01 A3017 400 85 -800 360/11G18 RMK AO2 RAB00PLB03E06 P0002
14840KMKG MKG20060325161513403/25/06 16:15:31  5-MIN KMKG 252115Z 35008KT 10SM -RA SCT017 BKN024 BKN100 04/01 A3017 400 82 -800 350/08 RMK AO2 RAB00PLB03E06 P0002
14840KMKG MKG20060325162013403/25/06 16:20:31  5-MIN KMKG 252120Z 35008KT 10SM -RA FEW017 BKN032 BKN095 04/02 A3017 400 82 -700 360/08 RMK AO2 RAB00PLB03E06 P0002
14840KMKG MKG20060325162513303/25/06 16:25:31  5-MIN KMKG 252125Z 34009KT 10SM SCT019 BKN037 BKN100 04/02 A3017 400 82 -700 340/09 RMK AO2 RAB00E23PLB03E06 P0002
14840KMKG MKG20060325163013303/25/06 16:30:31  5-MIN KMKG 252130Z 33008KT 10SM SCT019 BKN037 BKN100 04/02 A3017 400 82 -700 340/08 RMK AO2 RAB00E23PLB03E06 P0002
14840KMKG MKG20060325163513303/25/06 16:35:31  5-MIN KMKG 252135Z 34008KT 10SM FEW015 BKN048 BKN095 04/01 A3016 400 79 -700 340/08 RMK AO2 RAB00E23PLB03E06 P0002
14840KMKG MKG20060325164013303/25/06 16:40:31  5-MIN KMKG 252140Z 34009KT 10SM FEW015 BKN048 BKN095 05/02 A3016 410 79 -600 340/09 RMK AO2 RAB00E23PLB03E06 P0002
14840KMKG MKG20060325164513303/25/06 16:45:31  5-MIN KMKG 252145Z 33008KT 10SM FEW015 BKN048 BKN095 06/02 A3016 410 79 -500 340/08 RMK AO2 RAB00E23PLB03E06 P0002
14840KMKG MKG20060325165014303/25/06 16:50:31  5-MIN KMKG 252150Z 34009KT 10SM SCT048 BKN060 06/02 A3016 410 79 -500 340/09 RMK AO2 RAB00E23PLB03E06 SLP220 P0002 T00560022
14840KMKG MKG20060325165514303/25/06 16:55:31  5-MIN KMKG 252155Z 33009KT 10SM SCT048 BKN060 06/02 A3016 410 73 -500 330/09 RMK AO2 RAB00E23PLB03E06 SLP220 P0002 T00610017
14840KMKG MKG20060325170009603/25/06 17:00:31  5-MIN KMKG 252200Z 35007KT 10SM OVC055 06/02 A3017 400 73 -500 360/07 RMK AO2
14840KMKG MKG20060325170509603/25/06 17:05:31  5-MIN KMKG 252205Z 36007KT 10SM OVC055 07/02 A3016 410 70 -400 360/07 RMK AO2
14840KMKG MKG20060325171010303/25/06 17:10:31  5-MIN KMKG 252210Z 35008KT 10SM FEW015 BKN055 07/02 A3016 410 70 -400 350/08 RMK AO2
14840KMKG MKG20060325171510303/25/06 17:15:31  5-MIN KMKG 252215Z 34007KT 10SM FEW015 BKN055 07/02 A3016 410 70 -400 340/07 RMK AO2
14840KMKG MKG20060325172011003/25/06 17:20:31  5-MIN KMKG 252220Z 36008KT 10SM FEW022 SCT035 OVC055 06/01 A3016 410 70 -500 360/08 RMK AO2
14840KMKG MKG20060325172511003/25/06 17:25:31  5-MIN KMKG 252225Z 36009KT 10SM FEW023 BKN041 OVC055 06/01 A3016 410 70 -500 360/09 RMK AO2
14840KMKG MKG20060325173012603/25/06 17:30:31  5-MIN KMKG 252230Z VRB04KT 10SM -RA FEW023 BKN045 OVC055 06/01 A3016 410 70 -500 VRB/04 RMK AO2 RAB29 P0000
14840KMKG MKG20060325173512603/25/06 17:35:31  5-MIN KMKG 252235Z VRB04KT 10SM -RA FEW023 SCT037 BKN047 06/02 A3016 410 73 -500 VRB/04 RMK AO2 RAB29 P0000
14840KMKG MKG20060325174012503/25/06 17:40:31  5-MIN KMKG 252240Z 32006KT 10SM FEW023 SCT040 BKN055 06/02 A3016 410 73 -500 330/06 RMK AO2 RAB29E40 P0000
14840KMKG MKG20060325174511803/25/06 17:45:31  5-MIN KMKG 252245Z 32009KT 10SM FEW023 OVC055 06/01 A3016 410 67 -500 330/09 RMK AO2 RAB29E40 P0000
14840KMKG MKG20060325175014303/25/06 17:50:31  5-MIN KMKG 252250Z 33010KT 10SM FEW038 SCT044 OVC055 07/M01 A3016 410 60 -400 330/10 RMK AO2 RAB29E40 SLP220 P0000 T00671006
14840KMKG MKG20060325175513603/25/06 17:55:31  5-MIN KMKG 252255Z 33014KT 10SM FEW038 BKN055 07/M01 A3016 400 57 -400 340/14 RMK AO2 RAB29E40 SLP221 P0000 T00671011
14840KMKG MKG20060325180011103/25/06 18:00:31  5-MIN KMKG 252300Z 34012KT 10SM FEW035 BKN047 OVC055 06/M01 A3017 400 60 -500 350/12 RMK AO2
14840KMKG MKG20060325180510403/25/06 18:05:31  5-MIN KMKG 252305Z 33014KT 10SM FEW040 BKN050 06/M02 A3017 400 59 -600 340/14 RMK AO2
14840KMKG MKG20060325181010403/25/06 18:10:31  5-MIN KMKG 252310Z 33011KT 10SM FEW042 BKN050 06/M02 A3017 400 57 -600 330/11 RMK AO2
14840KMKG MKG20060325181510403/25/06 18:15:31  5-MIN KMKG 252315Z 33011KT 10SM FEW042 SCT050 05/M02 A3017 400 59 -600 340/11 RMK AO2
14840KMKG MKG20060325182009703/25/06 18:20:31  5-MIN KMKG 252320Z 33013KT 10SM SCT048 05/M02 A3017 400 59 -600 340/13 RMK AO2
14840KMKG MKG20060325182509703/25/06 18:25:31  5-MIN KMKG 252325Z 34013KT 10SM FEW050 05/M02 A3018 390 59 -600 350/13 RMK AO2
14840KMKG MKG20060325183010403/25/06 18:30:31  5-MIN KMKG 252330Z 33013KT 10SM FEW038 SCT055 04/M02 A3018 400 62 -700 340/13 RMK AO2
14840KMKG MKG20060325183511003/25/06 18:35:31  5-MIN KMKG 252335Z 33014G19KT 10SM FEW038 SCT055 04/M03 A3018 390 59 -700 340/14G19 RMK AO2
14840KMKG MKG20060325184010403/25/06 18:40:31  5-MIN KMKG 252340Z 34015KT 10SM FEW038 SCT055 04/M03 A3018 390 59 -700 340/15 RMK AO2
14840KMKG MKG20060325184511003/25/06 18:45:31  5-MIN KMKG 252345Z 34016G20KT 10SM FEW038 SCT055 04/M03 A3018 390 62 -800 340/16G20 RMK AO2
14840KMKG MKG20060325185015103/25/06 18:50:31  5-MIN KMKG 252350Z 34013G20KT 10SM FEW038 SCT055 04/M03 A3018 390 59 -800 340/13G20 RMK AO2 SLP228 60003 T00391033 10067 20033 55003
14840KMKG MKG20060325185514503/25/06 18:55:31  5-MIN KMKG 252355Z 34011KT 10SM FEW038 SCT055 04/M03 A3019 390 59 -800 340/11 RMK AO2 SLP228 60003 T00391033 10067 20033 53010
14840KMKG MKG20060325190010403/25/06 19:00:31  5-MIN KMKG 260000Z 34012KT 10SM FEW038 SCT055 04/M03 A3019 380 59 -800 340/12 RMK AO2
14840KMKG MKG20060325190510403/25/06 19:05:31  5-MIN KMKG 260005Z 34014KT 10SM FEW038 SCT055 03/M03 A3019 380 61 -900 350/14 RMK AO2
14840KMKG MKG20060325191010403/25/06 19:10:31  5-MIN KMKG 260010Z 35012KT 10SM FEW038 SCT055 03/M03 A3019 380 61 -900 350/12 RMK AO2
14840KMKG MKG20060325191510403/25/06 19:15:31  5-MIN KMKG 260015Z 36012KT 10SM FEW038 SCT055 03/M03 A3019 380 61 -900 360/12 RMK AO2
14840KMKG MKG20060325192010403/25/06 19:20:31  5-MIN KMKG 260020Z 35010KT 10SM FEW038 SCT055 03/M03 A3019 380 61 -900 350/10 RMK AO2
14840KMKG MKG20060325192510403/25/06 19:25:31  5-MIN KMKG 260025Z 35011KT 10SM FEW038 SCT055 03/M04 A3020 380 59 -900 350/11 RMK AO2
14840KMKG MKG20060325193010403/25/06 19:30:31  5-MIN KMKG 260030Z 36010KT 10SM FEW038 SCT055 03/M04 A3020 380 59 -900 360/10 RMK AO2
14840KMKG MKG20060325193510403/25/06 19:35:31  5-MIN KMKG 260035Z 35010KT 10SM FEW038 SCT055 03/M04 A3020 380 59 -900 360/10 RMK AO2
14840KMKG MKG20060325194010403/25/06 19:40:31  5-MIN KMKG 260040Z 35010KT 10SM FEW038 SCT055 03/M04 A3020 370 61 -900 360/10 RMK AO2
14840KMKG MKG20060325194510403/25/06 19:45:31  5-MIN KMKG 260045Z 35008KT 10SM FEW038 SCT055 03/M04 A3020 370 61 -900 360/08 RMK AO2
14840KMKG MKG20060325195011403/25/06 19:50:31  5-MIN KMKG 260050Z 35009KT 10SM FEW054 03/M04 A3020 370 61 -900 360/09 RMK AO2 SLP234 T00281039
14840KMKG MKG20060325195511403/25/06 19:55:31  5-MIN KMKG 260055Z 35008KT 10SM FEW054 03/M04 A3020 370 61 -900 350/08 RMK AO2 SLP234 T00281039
14840KMKG MKG20060325200009403/25/06 20:00:31  5-MIN KMKG 260100Z 35008KT 10SM CLR 03/M04 A3020 370 61 -900 350/08 RMK AO2
14840KMKG MKG20060325200509403/25/06 20:05:31  5-MIN KMKG 260105Z 35008KT 10SM CLR 03/M04 A3020 370 61 -900 360/08 RMK AO2
14840KMKG MKG20060325201009403/25/06 20:10:31  5-MIN KMKG 260110Z 36008KT 10SM CLR 03/M04 A3020 370 59 -900 360/08 RMK AO2
14840KMKG MKG20060325201509403/25/06 20:15:31  5-MIN KMKG 260115Z 36007KT 10SM CLR 03/M04 A3020 370 59 -900 010/07 RMK AO2
14840KMKG MKG20060325202009403/25/06 20:20:31  5-MIN KMKG 260120Z 01007KT 10SM CLR 03/M04 A3020 370 59 -900 010/07 RMK AO2
14840KMKG MKG20060325202509703/25/06 20:25:31  5-MIN KMKG 260125Z 01007KT 10SM FEW070 03/M04 A3020 370 59 -900 020/07 RMK AO2
14840KMKG MKG20060325203009803/25/06 20:30:31  5-MIN KMKG 260130Z 02005KT 10SM FEW070 02/M04 A3020 370 61 -1000 020/05 RMK AO2
14840KMKG MKG20060325203509703/25/06 20:35:31  5-MIN KMKG 260135Z 02005KT 10SM FEW075 03/M04 A3020 370 59 -900 030/05 RMK AO2
14840KMKG MKG20060325204009803/25/06 20:40:31  5-MIN KMKG 260140Z 02006KT 10SM FEW075 02/M04 A3021 370 61 -1000 020/06 RMK AO2
14840KMKG MKG20060325204509803/25/06 20:45:31  5-MIN KMKG 260145Z 01006KT 10SM FEW070 02/M04 A3021 360 61 -1000 010/06 RMK AO2
14840KMKG MKG20060325205011503/25/06 20:50:31  5-MIN KMKG 260150Z 36006KT 10SM FEW070 02/M04 A3021 360 61 -1000 010/06 RMK AO2 SLP238 T00221044
14840KMKG MKG20060325205511503/25/06 20:55:31  5-MIN KMKG 260155Z 01007KT 10SM FEW070 02/M04 A3021 360 64 -1100 010/07 RMK AO2 SLP238 T00171044
14840KMKG MKG20060325210009803/25/06 21:00:31  5-MIN KMKG 260200Z 36006KT 10SM FEW070 02/M04 A3021 360 61 -1000 010/06 RMK AO2
14840KMKG MKG20060325210509503/25/06 21:05:31  5-MIN KMKG 260205Z 36005KT 10SM CLR 02/M04 A3021 360 64 -1100 360/05 RMK AO2
14840KMKG MKG20060325211009503/25/06 21:10:31  5-MIN KMKG 260210Z 36006KT 10SM CLR 02/M04 A3022 360 64 -1100 360/06 RMK AO2
14840KMKG MKG20060325211509503/25/06 21:15:31  5-MIN KMKG 260215Z 34007KT 10SM CLR 02/M04 A3022 360 64 -1100 350/07 RMK AO2
14840KMKG MKG20060325212009503/25/06 21:20:31  5-MIN KMKG 260220Z 34008KT 10SM CLR 02/M04 A3022 360 64 -1100 340/08 RMK AO2
14840KMKG MKG20060325212509503/25/06 21:25:31  5-MIN KMKG 260225Z 34007KT 10SM CLR 02/M04 A3022 350 66 -1100 340/07 RMK AO2
14840KMKG MKG20060325213009503/25/06 21:30:31  5-MIN KMKG 260230Z 34010KT 10SM CLR 02/M04 A3022 350 64 -1100 340/10 RMK AO2
14840KMKG MKG20060325213509503/25/06 21:35:31  5-MIN KMKG 260235Z 34008KT 10SM CLR 02/M04 A3022 350 64 -1100 340/08 RMK AO2
14840KMKG MKG20060325214009503/25/06 21:40:31  5-MIN KMKG 260240Z 34008KT 10SM CLR 02/M04 A3022 350 64 -1100 350/08 RMK AO2
14840KMKG MKG20060325214509503/25/06 21:45:31  5-MIN KMKG 260245Z 34007KT 10SM CLR 01/M04 A3022 350 66 -1200 340/07 RMK AO2
14840KMKG MKG20060325215011803/25/06 21:50:31  5-MIN KMKG 260250Z 34008KT 10SM CLR 02/M04 A3022 350 64 -1100 340/08 RMK AO2 SLP241 T00171044 53010
14840KMKG MKG20060325215511803/25/06 21:55:31  5-MIN KMKG 260255Z 34008KT 10SM CLR 01/M04 A3022 350 66 -1200 340/08 RMK AO2 SLP240 T00111044 51012
14840KMKG MKG20060325220009503/25/06 22:00:31  5-MIN KMKG 260300Z 34008KT 10SM CLR 02/M04 A3022 350 64 -1100 350/08 RMK AO2
14840KMKG MKG20060325220509503/25/06 22:05:31  5-MIN KMKG 260305Z 34009KT 10SM CLR 01/M04 A3022 350 66 -1200 340/09 RMK AO2
14840KMKG MKG20060325221009503/25/06 22:10:31  5-MIN KMKG 260310Z 34007KT 10SM CLR 01/M04 A3022 350 66 -1200 350/07 RMK AO2
14840KMKG MKG20060325221509503/25/06 22:15:31  5-MIN KMKG 260315Z 34007KT 10SM CLR 01/M04 A3022 350 66 -1200 340/07 RMK AO2
14840KMKG MKG20060325222009503/25/06 22:20:31  5-MIN KMKG 260320Z 34007KT 10SM CLR 01/M04 A3022 350 69 -1200 340/07 RMK AO2
14840KMKG MKG20060325222509503/25/06 22:25:31  5-MIN KMKG 260325Z 34006KT 10SM CLR 01/M04 A3022 350 69 -1200 350/06 RMK AO2
14840KMKG MKG20060325223009503/25/06 22:30:31  5-MIN KMKG 260330Z 34007KT 10SM CLR 01/M04 A3022 360 69 -1200 350/07 RMK AO2
14840KMKG MKG20060325223509503/25/06 22:35:31  5-MIN KMKG 260335Z 34006KT 10SM CLR 01/M04 A3022 360 69 -1200 350/06 RMK AO2
14840KMKG MKG20060325224009503/25/06 22:40:31  5-MIN KMKG 260340Z 34007KT 10SM CLR 01/M04 A3022 360 69 -1200 340/07 RMK AO2
14840KMKG MKG20060325224509503/25/06 22:45:31  5-MIN KMKG 260345Z 34007KT 10SM CLR 01/M04 A3022 360 69 -1200 340/07 RMK AO2
14840KMKG MKG20060325225011203/25/06 22:50:31  5-MIN KMKG 260350Z 34007KT 10SM CLR 01/M04 A3022 360 69 -1200 350/07 RMK AO2 SLP239 T00061044
14840KMKG MKG20060325225511203/25/06 22:55:31  5-MIN KMKG 260355Z 35007KT 10SM CLR 00/M04 A3022 350 75 -1300 350/07 RMK AO2 SLP240 T00001039
14840KMKG MKG20060325230009503/25/06 23:00:31  5-MIN KMKG 260400Z 34007KT 10SM CLR 01/M04 A3022 350 72 -1200 350/07 RMK AO2
14840KMKG MKG20060325230509503/25/06 23:05:31  5-MIN KMKG 260405Z 33007KT 10SM CLR 00/M04 A3022 350 75 -1300 340/07 RMK AO2
14840KMKG MKG20060325231009503/25/06 23:10:31  5-MIN KMKG 260410Z 33006KT 10SM CLR 00/M04 A3022 350 75 -1300 340/06 RMK AO2
14840KMKG MKG20060325231509503/25/06 23:15:31  5-MIN KMKG 260415Z 34007KT 10SM CLR 00/M04 A3022 350 75 -1300 340/07 RMK AO2
14840KMKG MKG20060325232009503/25/06 23:20:31  5-MIN KMKG 260420Z 33007KT 10SM CLR 00/M04 A3022 350 75 -1300 330/07 RMK AO2
14840KMKG MKG20060325232509503/25/06 23:25:31  5-MIN KMKG 260425Z 33007KT 10SM CLR 00/M04 A3022 360 75 -1300 330/07 RMK AO2
14840KMKG MKG20060325233009503/25/06 23:30:31  5-MIN KMKG 260430Z 32007KT 10SM CLR 00/M04 A3022 360 75 -1300 330/07 RMK AO2
14840KMKG MKG20060325233509503/25/06 23:35:31  5-MIN KMKG 260435Z 32006KT 10SM CLR 00/M04 A3022 360 75 -1300 330/06 RMK AO2
14840KMKG MKG20060325234009503/25/06 23:40:31  5-MIN KMKG 260440Z 33006KT 10SM CLR 00/M04 A3022 360 75 -1300 330/06 RMK AO2
14840KMKG MKG20060325234509503/25/06 23:45:31  5-MIN KMKG 260445Z 33006KT 10SM CLR 00/M04 A3022 360 75 -1300 340/06 RMK AO2
14840KMKG MKG20060325235012203/25/06 23:50:31  5-MIN KMKG 260450Z 33006KT 10SM CLR 00/M04 A3022 360 75 -1300 340/06 RMK AO2 SLP240 T00001039 400671006
14840KMKG MKG20060325235512303/25/06 23:55:31  5-MIN KMKG 260455Z 33006KT 10SM CLR M01/M04 A3022 360 78 -1400 340/06 RMK AO2 SLP239 T10061039 400671006
14840KMKG MKG20060326000009603/26/06 00:00:32  5-MIN KMKG 260500Z 33007KT 10SM CLR M01/M04 A3022 360 78 -1400 340/07 RMK AO2
14840KMKG MKG20060326000509603/26/06 00:05:31  5-MIN KMKG 260505Z 33006KT 10SM CLR M01/M04 A3022 360 78 -1400 340/06 RMK AO2
14840KMKG MKG20060326001009503/26/06 00:10:31  5-MIN KMKG 260510Z 34006KT 10SM CLR 00/M04 A3022 360 75 -1300 340/06 RMK AO2
14840KMKG MKG20060326001509603/26/06 00:15:31  5-MIN KMKG 260515Z 34007KT 10SM CLR M01/M04 A3022 360 78 -1400 350/07 RMK AO2
14840KMKG MKG20060326002009503/26/06 00:20:31  5-MIN KMKG 260520Z 34007KT 10SM CLR 00/M04 A3022 360 75 -1300 340/07 RMK AO2
14840KMKG MKG20060326002509503/26/06 00:25:31  5-MIN KMKG 260525Z 34007KT 10SM CLR 00/M04 A3022 350 75 -1300 340/07 RMK AO2
14840KMKG MKG20060326003009503/26/06 00:30:31  5-MIN KMKG 260530Z 34008KT 10SM CLR 00/M04 A3022 360 75 -1300 340/08 RMK AO2
14840KMKG MKG20060326003509503/26/06 00:35:31  5-MIN KMKG 260535Z 34006KT 10SM CLR 00/M04 A3022 360 75 -1300 350/06 RMK AO2
14840KMKG MKG20060326004009603/26/06 00:40:31  5-MIN KMKG 260540Z 34005KT 10SM CLR M01/M04 A3022 360 78 -1400 340/05 RMK AO2
14840KMKG MKG20060326004509603/26/06 00:45:31  5-MIN KMKG 260545Z 34005KT 10SM CLR M01/M04 A3022 360 78 -1400 340/05 RMK AO2
14840KMKG MKG20060326005013103/26/06 00:50:31  5-MIN KMKG 260550Z 33005KT 10SM CLR M01/M04 A3022 360 78 -1400 340/05 RMK AO2 SLP240 T10061039 10039 21006 51012
14840KMKG MKG20060326005513103/26/06 00:55:31  5-MIN KMKG 260555Z 33007KT 10SM CLR M01/M04 A3022 360 78 -1400 340/07 RMK AO2 SLP239 T10061039 10039 21006 56001
14840KMKG MKG20060326010009803/26/06 01:00:31  5-MIN KMKG 260600Z 33006KT 10SM FEW047 00/M04 A3022 360 75 -1300 330/06 RMK AO2
14840KMKG MKG20060326010509803/26/06 01:05:31  5-MIN KMKG 260605Z 33006KT 10SM SCT047 00/M04 A3022 360 75 -1300 330/06 RMK AO2
14840KMKG MKG20060326011009803/26/06 01:10:31  5-MIN KMKG 260610Z 33007KT 10SM BKN047 00/M04 A3022 360 75 -1300 330/07 RMK AO2
14840KMKG MKG20060326011509803/26/06 01:15:31  5-MIN KMKG 260615Z 33007KT 10SM BKN047 00/M04 A3022 360 75 -1300 330/07 RMK AO2
14840KMKG MKG20060326012009803/26/06 01:20:31  5-MIN KMKG 260620Z 33007KT 10SM BKN047 00/M04 A3022 350 75 -1300 340/07 RMK AO2
14840KMKG MKG20060326012509803/26/06 01:25:31  5-MIN KMKG 260625Z 33006KT 10SM OVC047 01/M04 A3022 350 72 -1200 330/06 RMK AO2
14840KMKG MKG20060326013009803/26/06 01:30:31  5-MIN KMKG 260630Z 33007KT 10SM OVC047 01/M04 A3022 350 72 -1200 340/07 RMK AO2
14840KMKG MKG20060326013509803/26/06 01:35:31  5-MIN KMKG 260635Z 34007KT 10SM BKN047 00/M04 A3022 350 75 -1300 340/07 RMK AO2
14840KMKG MKG20060326014009803/26/06 01:40:31  5-MIN KMKG 260640Z 34008KT 10SM BKN047 00/M04 A3022 350 75 -1300 340/08 RMK AO2
14840KMKG MKG20060326014509803/26/06 01:45:31  5-MIN KMKG 260645Z 34007KT 10SM BKN047 00/M04 A3022 350 75 -1300 340/07 RMK AO2
14840KMKG MKG20060326015011503/26/06 01:50:31  5-MIN KMKG 260650Z 34006KT 10SM BKN047 00/M04 A3022 350 75 -1300 340/06 RMK AO2 SLP239 T00001039
14840KMKG MKG20060326015511503/26/06 01:55:31  5-MIN KMKG 260655Z 34007KT 10SM BKN049 00/M04 A3022 350 72 -1300 340/07 RMK AO2 SLP239 T00001044
14840KMKG MKG20060326020009803/26/06 02:00:31  5-MIN KMKG 260700Z 34006KT 10SM BKN049 00/M04 A3022 360 72 -1300 350/06 RMK AO2
14840KMKG MKG20060326020509803/26/06 02:05:31  5-MIN KMKG 260705Z 33005KT 10SM OVC049 00/M04 A3022 360 72 -1300 340/05 RMK AO2
14840KMKG MKG20060326021009803/26/06 02:10:31  5-MIN KMKG 260710Z 33005KT 10SM OVC049 00/M04 A3022 360 72 -1300 330/05 RMK AO2
14840KMKG MKG20060326021509803/26/06 02:15:31  5-MIN KMKG 260715Z 32005KT 10SM OVC049 00/M04 A3022 360 72 -1300 330/05 RMK AO2
14840KMKG MKG20060326022009803/26/06 02:20:31  5-MIN KMKG 260720Z 32004KT 10SM OVC049 00/M04 A3022 360 72 -1300 330/04 RMK AO2
14840KMKG MKG20060326022509803/26/06 02:25:31  5-MIN KMKG 260725Z 33005KT 10SM OVC049 01/M04 A3022 360 69 -1200 330/05 RMK AO2
14840KMKG MKG20060326023009803/26/06 02:30:31  5-MIN KMKG 260730Z 33004KT 10SM OVC047 00/M04 A3022 360 72 -1300 330/04 RMK AO2
14840KMKG MKG20060326023509803/26/06 02:35:31  5-MIN KMKG 260735Z 33006KT 10SM OVC047 01/M04 A3022 360 69 -1200 340/06 RMK AO2
14840KMKG MKG20060326024009803/26/06 02:40:31  5-MIN KMKG 260740Z 33006KT 10SM OVC047 01/M04 A3022 360 69 -1200 340/06 RMK AO2
14840KMKG MKG20060326024509803/26/06 02:45:31  5-MIN KMKG 260745Z 34006KT 10SM OVC047 01/M04 A3022 360 69 -1200 340/06 RMK AO2
14840KMKG MKG20060326025011503/26/06 02:50:31  5-MIN KMKG 260750Z 35007KT 10SM OVC047 01/M04 A3022 360 69 -1200 350/07 RMK AO2 SLP238 T00061044
14840KMKG MKG20060326025511503/26/06 02:55:31  5-MIN KMKG 260755Z 35007KT 10SM OVC047 01/M04 A3022 360 69 -1200 360/07 RMK AO2 SLP238 T00061044
14840KMKG MKG20060326030009803/26/06 03:00:31  5-MIN KMKG 260800Z 35007KT 10SM OVC045 01/M04 A3022 360 69 -1200 360/07 RMK AO2
14840KMKG MKG20060326030509803/26/06 03:05:31  5-MIN KMKG 260805Z 34008KT 10SM OVC045 01/M04 A3022 360 69 -1200 350/08 RMK AO2
14840KMKG MKG20060326031009803/26/06 03:10:31  5-MIN KMKG 260810Z 35007KT 10SM OVC045 01/M04 A3022 360 69 -1200 350/07 RMK AO2
14840KMKG MKG20060326031509803/26/06 03:15:31  5-MIN KMKG 260815Z 35008KT 10SM OVC043 01/M04 A3022 360 69 -1200 350/08 RMK AO2
14840KMKG MKG20060326032009803/26/06 03:20:31  5-MIN KMKG 260820Z 36008KT 10SM OVC043 01/M04 A3022 360 69 -1200 360/08 RMK AO2
14840KMKG MKG20060326032509803/26/06 03:25:31  5-MIN KMKG 260825Z 35009KT 10SM OVC043 01/M04 A3022 360 69 -1200 350/09 RMK AO2
14840KMKG MKG20060326033009803/26/06 03:30:31  5-MIN KMKG 260830Z 35008KT 10SM OVC041 01/M05 A3022 350 66 -1200 350/08 RMK AO2
14840KMKG MKG20060326033509803/26/06 03:35:31  5-MIN KMKG 260835Z 36007KT 10SM OVC041 01/M04 A3022 350 69 -1200 360/07 RMK AO2
14840KMKG MKG20060326034009803/26/06 03:40:31  5-MIN KMKG 260840Z 35007KT 10SM OVC041 01/M05 A3022 350 66 -1200 350/07 RMK AO2
14840KMKG MKG20060326034509803/26/06 03:45:31  5-MIN KMKG 260845Z 35008KT 10SM OVC041 01/M05 A3022 350 66 -1200 350/08 RMK AO2
14840KMKG MKG20060326035012103/26/06 03:50:31  5-MIN KMKG 260850Z 35009KT 10SM OVC039 01/M05 A3022 350 66 -1200 350/09 RMK AO2 SLP240 T00061050 56001
14840KMKG MKG20060326035512103/26/06 03:55:31  5-MIN KMKG 260855Z 34008KT 10SM OVC039 01/M05 A3022 350 66 -1200 350/08 RMK AO2 SLP240 T00061050 53002
14840KMKG MKG20060326040009803/26/06 04:00:31  5-MIN KMKG 260900Z 35007KT 10SM OVC039 01/M05 A3022 350 66 -1200 350/07 RMK AO2
14840KMKG MKG20060326040509803/26/06 04:05:31  5-MIN KMKG 260905Z 35007KT 10SM OVC039 01/M05 A3022 350 66 -1200 350/07 RMK AO2
14840KMKG MKG20060326041009803/26/06 04:10:31  5-MIN KMKG 260910Z 35007KT 10SM OVC039 01/M05 A3022 350 66 -1200 350/07 RMK AO2
14840KMKG MKG20060326041509803/26/06 04:15:31  5-MIN KMKG 260915Z 35006KT 10SM OVC039 01/M05 A3023 350 66 -1200 350/06 RMK AO2
14840KMKG MKG20060326042009803/26/06 04:20:31  5-MIN KMKG 260920Z 35007KT 10SM OVC041 01/M05 A3023 350 66 -1200 350/07 RMK AO2
14840KMKG MKG20060326042509803/26/06 04:25:31  5-MIN KMKG 260925Z 36005KT 10SM OVC041 01/M05 A3023 350 66 -1200 360/05 RMK AO2
14840KMKG MKG20060326043009803/26/06 04:30:31  5-MIN KMKG 260930Z 35006KT 10SM OVC043 01/M05 A3023 350 66 -1200 360/06 RMK AO2
14840KMKG MKG20060326043509803/26/06 04:35:31  5-MIN KMKG 260935Z 35005KT 10SM OVC043 01/M05 A3023 350 66 -1200 350/05 RMK AO2
14840KMKG MKG20060326044009803/26/06 04:40:31  5-MIN KMKG 260940Z 36005KT 10SM OVC043 01/M05 A3023 350 66 -1200 360/05 RMK AO2
14840KMKG MKG20060326044509803/26/06 04:45:31  5-MIN KMKG 260945Z 36005KT 10SM OVC045 01/M05 A3023 340 66 -1200 360/05 RMK AO2
14840KMKG MKG20060326045011503/26/06 04:50:31  5-MIN KMKG 260950Z 36005KT 10SM OVC045 01/M05 A3023 340 66 -1200 360/05 RMK AO2 SLP243 T00061050
14840KMKG MKG20060326045511503/26/06 04:55:31  5-MIN KMKG 260955Z 36004KT 10SM OVC045 01/M05 A3023 340 66 -1200 360/04 RMK AO2 SLP244 T00061050
14840KMKG MKG20060326050009803/26/06 05:00:31  5-MIN KMKG 261000Z 35004KT 10SM OVC045 01/M05 A3023 340 66 -1200 350/04 RMK AO2
14840KMKG MKG20060326050509803/26/06 05:05:31  5-MIN KMKG 261005Z 35005KT 10SM OVC043 01/M05 A3023 340 66 -1300 360/05 RMK AO2
14840KMKG MKG20060326051009803/26/06 05:10:31  5-MIN KMKG 261010Z 36005KT 10SM OVC043 01/M05 A3024 340 66 -1300 360/05 RMK AO2
14840KMKG MKG20060326051509803/26/06 05:15:31  5-MIN KMKG 261015Z 01004KT 10SM OVC041 01/M05 A3024 340 66 -1300 020/04 RMK AO2
14840KMKG MKG20060326052009803/26/06 05:20:31  5-MIN KMKG 261020Z 01003KT 10SM OVC041 01/M06 A3024 340 63 -1300 020/03 RMK AO2
14840KMKG MKG20060326052509803/26/06 05:25:31  5-MIN KMKG 261025Z 01003KT 10SM OVC041 01/M05 A3024 340 66 -1300 010/03 RMK AO2
14840KMKG MKG20060326053009803/26/06 05:30:31  5-MIN KMKG 261030Z 36003KT 10SM OVC041 01/M05 A3024 340 66 -1300 010/03 RMK AO2
14840KMKG MKG20060326053509803/26/06 05:35:31  5-MIN KMKG 261035Z 33003KT 10SM OVC041 01/M05 A3024 340 66 -1300 330/03 RMK AO2
14840KMKG MKG20060326054009803/26/06 05:40:31  5-MIN KMKG 261040Z 33004KT 10SM OVC043 01/M05 A3024 340 66 -1300 340/04 RMK AO2
14840KMKG MKG20060326054509803/26/06 05:45:31  5-MIN KMKG 261045Z 34003KT 10SM OVC045 01/M05 A3024 340 66 -1300 350/03 RMK AO2
14840KMKG MKG20060326055011503/26/06 05:50:31  5-MIN KMKG 261050Z 32003KT 10SM OVC045 01/M05 A3024 340 66 -1300 330/03 RMK AO2 SLP246 T00061050
14840KMKG MKG20060326055511503/26/06 05:55:31  5-MIN KMKG 261055Z 33003KT 10SM OVC047 01/M05 A3024 330 66 -1300 340/03 RMK AO2 SLP247 T00061050
14840KMKG MKG20060326060009803/26/06 06:00:31  5-MIN KMKG 261100Z 35003KT 10SM OVC047 01/M05 A3025 330 66 -1300 350/03 RMK AO2
14840KMKG MKG20060326060509803/26/06 06:05:31  5-MIN KMKG 261105Z 36003KT 10SM OVC047 01/M04 A3025 330 69 -1300 360/03 RMK AO2
14840KMKG MKG20060326061009803/26/06 06:10:31  5-MIN KMKG 261110Z 36003KT 10SM OVC047 01/M05 A3025 330 66 -1300 010/03 RMK AO2
14840KMKG MKG20060326061509803/26/06 06:15:31  5-MIN KMKG 261115Z 36003KT 10SM OVC047 01/M05 A3025 330 66 -1300 010/03 RMK AO2
14840KMKG MKG20060326062009803/26/06 06:20:31  5-MIN KMKG 261120Z 36004KT 10SM OVC047 01/M05 A3025 330 66 -1300 010/04 RMK AO2
14840KMKG MKG20060326062509803/26/06 06:25:31  5-MIN KMKG 261125Z 36003KT 10SM OVC047 01/M05 A3025 320 66 -1300 360/03 RMK AO2
14840KMKG MKG20060326063009803/26/06 06:30:31  5-MIN KMKG 261130Z 00000KT 10SM OVC049 01/M05 A3025 320 66 -1300 000/00 RMK AO2
14840KMKG MKG20060326063509803/26/06 06:35:31  5-MIN KMKG 261135Z 00000KT 10SM OVC049 01/M04 A3025 320 69 -1300 000/00 RMK AO2
14840KMKG MKG20060326064009803/26/06 06:40:31  5-MIN KMKG 261140Z 00000KT 10SM OVC049 01/M05 A3025 320 66 -1300 000/00 RMK AO2
14840KMKG MKG20060326064509803/26/06 06:45:31  5-MIN KMKG 261145Z 00000KT 10SM OVC049 01/M05 A3025 320 66 -1300 000/00 RMK AO2
14840KMKG MKG20060326065013903/26/06 06:50:31  5-MIN KMKG 261150Z 35003KT 10SM OVC049 01/M05 A3026 320 66 -1300 350/03 RMK AO2 SLP253 70003 T00061050 10006 21006 53002
14840KMKG MKG20060326065513903/26/06 06:55:31  5-MIN KMKG 261155Z 00000KT 10SM OVC049 01/M04 A3026 320 69 -1300 000/00 RMK AO2 SLP253 70003 T00061044 10006 21006 53012
14840KMKG MKG20060326070009803/26/06 07:00:31  5-MIN KMKG 261200Z 00000KT 10SM OVC049 01/M04 A3026 320 69 -1300 000/00 RMK AO2
14840KMKG MKG20060326070509803/26/06 07:05:31  5-MIN KMKG 261205Z 00000KT 10SM OVC049 01/M05 A3026 320 66 -1300 000/00 RMK AO2
14840KMKG MKG20060326071009803/26/06 07:10:31  5-MIN KMKG 261210Z 00000KT 10SM OVC049 01/M05 A3026 320 66 -1300 000/00 RMK AO2
14840KMKG MKG20060326071509803/26/06 07:15:31  5-MIN KMKG 261215Z 36003KT 10SM OVC049 01/M04 A3026 320 69 -1300 360/03 RMK AO2
14840KMKG MKG20060326072009803/26/06 07:20:31  5-MIN KMKG 261220Z 00000KT 10SM OVC049 01/M04 A3026 320 69 -1300 000/00 RMK AO2
14840KMKG MKG20060326072509803/26/06 07:25:31  5-MIN KMKG 261225Z 00000KT 10SM OVC049 01/M04 A3026 310 66 -1200 000/00 RMK AO2
14840KMKG MKG20060326073009803/26/06 07:30:31  5-MIN KMKG 261230Z 33003KT 10SM OVC049 01/M04 A3026 310 66 -1200 330/03 RMK AO2
14840KMKG MKG20060326073510503/26/06 07:35:31  5-MIN KMKG 261235Z 33003KT 10SM FEW024 OVC049 01/M04 A3026 310 66 -1200 330/03 RMK AO2
14840KMKG MKG20060326074010503/26/06 07:40:31  5-MIN KMKG 261240Z 00000KT 10SM SCT024 OVC049 01/M05 A3027 310 64 -1200 000/00 RMK AO2
14840KMKG MKG20060326074512003/26/06 07:45:31  5-MIN KMKG 261245Z 32003KT 10SM SCT024 OVC049 01/M04 A3027 310 66 -1200 330/03 RMK AO2 CIG 025 RWY 14
14840KMKG MKG20060326075012203/26/06 07:50:31  5-MIN KMKG 261250Z 32004KT 10SM SCT024 OVC049 01/M04 A3027 310 66 -1200 330/04 RMK AO2 SLP256 T00111044
14840KMKG MKG20060326075512203/26/06 07:55:31  5-MIN KMKG 261255Z 33003KT 10SM SCT024 OVC049 01/M04 A3027 310 66 -1200 340/03 RMK AO2 SLP256 T00111044
14840KMKG MKG20060326080010503/26/06 08:00:31  5-MIN KMKG 261300Z 34004KT 10SM FEW024 OVC049 02/M04 A3027 310 64 -1100 340/04 RMK AO2
14840KMKG MKG20060326080510503/26/06 08:05:31  5-MIN KMKG 261305Z 35007KT 10SM FEW024 OVC049 02/M04 A3027 310 64 -1100 350/07 RMK AO2
14840KMKG MKG20060326081010503/26/06 08:10:31  5-MIN KMKG 261310Z 35006KT 10SM FEW026 OVC049 02/M04 A3027 310 64 -1200 360/06 RMK AO2
14840KMKG MKG20060326081509803/26/06 08:15:31  5-MIN KMKG 261315Z 36006KT 10SM OVC049 02/M04 A3027 310 66 -1200 360/06 RMK AO2
14840KMKG MKG20060326082009803/26/06 08:20:31  5-MIN KMKG 261320Z 36007KT 10SM OVC049 02/M04 A3027 310 66 -1200 010/07 RMK AO2
14840KMKG MKG20060326082509803/26/06 08:25:31  5-MIN KMKG 261325Z 36008KT 10SM OVC049 02/M04 A3027 310 66 -1200 010/08 RMK AO2
14840KMKG MKG20060326083009803/26/06 08:30:31  5-MIN KMKG 261330Z 36008KT 10SM OVC049 02/M04 A3027 310 66 -1200 010/08 RMK AO2
14840KMKG MKG20060326083509803/26/06 08:35:31  5-MIN KMKG 261335Z 02006KT 10SM OVC049 02/M04 A3028 300 64 -1200 020/06 RMK AO2
14840KMKG MKG20060326084009803/26/06 08:40:31  5-MIN KMKG 261340Z 01006KT 10SM OVC049 02/M04 A3028 300 64 -1200 010/06 RMK AO2
14840KMKG MKG20060326084509803/26/06 08:45:31  5-MIN KMKG 261345Z 02007KT 10SM OVC049 02/M04 A3028 300 64 -1200 020/07 RMK AO2
14840KMKG MKG20060326085011503/26/06 08:50:31  5-MIN KMKG 261350Z 02008KT 10SM OVC049 02/M04 A3028 300 64 -1200 020/08 RMK AO2 SLP260 T00171044
14840KMKG MKG20060326085511503/26/06 08:55:31  5-MIN KMKG 261355Z 01009KT 10SM OVC049 02/M04 A3028 300 64 -1200 010/09 RMK AO2 SLP259 T00171044
14840KMKG MKG20060326090009803/26/06 09:00:31  5-MIN KMKG 261400Z 02007KT 10SM OVC049 02/M04 A3028 300 64 -1200 020/07 RMK AO2
14840KMKG MKG20060326090509803/26/06 09:05:31  5-MIN KMKG 261405Z 36008KT 10SM OVC049 02/M04 A3028 300 64 -1200 010/08 RMK AO2
14840KMKG MKG20060326091009803/26/06 09:10:31  5-MIN KMKG 261410Z 36006KT 10SM BKN049 02/M04 A3028 300 64 -1100 010/06 RMK AO2
14840KMKG MKG20060326091509803/26/06 09:15:31  5-MIN KMKG 261415Z 02006KT 10SM OVC049 02/M04 A3028 300 64 -1100 030/06 RMK AO2
14840KMKG MKG20060326092009803/26/06 09:20:31  5-MIN KMKG 261420Z 04006KT 10SM OVC047 03/M04 A3028 300 61 -1000 040/06 RMK AO2
14840KMKG MKG20060326092509803/26/06 09:25:31  5-MIN KMKG 261425Z 04006KT 10SM OVC047 03/M04 A3028 300 61 -1000 040/06 RMK AO2
14840KMKG MKG20060326093009803/26/06 09:30:31  5-MIN KMKG 261430Z 36006KT 10SM OVC047 02/M04 A3028 300 64 -1100 010/06 RMK AO2
14840KMKG MKG20060326093509803/26/06 09:35:31  5-MIN KMKG 261435Z 36006KT 10SM OVC047 02/M04 A3028 300 64 -1100 010/06 RMK AO2
14840KMKG MKG20060326094009803/26/06 09:40:31  5-MIN KMKG 261440Z 34007KT 10SM OVC047 02/M04 A3028 300 64 -1100 350/07 RMK AO2
14840KMKG MKG20060326094509803/26/06 09:45:31  5-MIN KMKG 261445Z 03007KT 10SM OVC045 02/M04 A3029 290 64 -1100 030/07 RMK AO2
14840KMKG MKG20060326095012103/26/06 09:50:31  5-MIN KMKG 261450Z VRB04KT 10SM OVC045 02/M04 A3029 290 64 -1100 VRB/04 RMK AO2 SLP263 T00221039 53012
14840KMKG MKG20060326095512103/26/06 09:55:31  5-MIN KMKG 261455Z 01006KT 10SM OVC045 02/M04 A3029 290 64 -1100 010/06 RMK AO2 SLP263 T00221039 52010
14840KMKG MKG20060326100009803/26/06 10:00:31  5-MIN KMKG 261500Z VRB05KT 10SM BKN043 02/M04 A3029 290 64 -1100 VRB/05 RMK AO2
14840KMKG MKG20060326100509803/26/06 10:05:31  5-MIN KMKG 261505Z 02005KT 10SM BKN043 03/M04 A3029 290 61 -1000 020/05 RMK AO2
14840KMKG MKG20060326101010503/26/06 10:10:31  5-MIN KMKG 261510Z 34006KT 10SM FEW028 BKN043 02/M04 A3029 290 64 -1100 350/06 RMK AO2
14840KMKG MKG20060326101511203/26/06 10:15:31  5-MIN KMKG 261515Z 35006KT 10SM FEW028 SCT034 BKN043 03/M04 A3029 290 61 -1000 350/06 RMK AO2
14840KMKG MKG20060326102011203/26/06 10:20:31  5-MIN KMKG 261520Z 33005KT 10SM FEW028 SCT035 BKN042 03/M04 A3029 290 61 -1000 330/05 RMK AO2
14840KMKG MKG20060326102510503/26/06 10:25:31  5-MIN KMKG 261525Z 06005KT 10SM SCT030 BKN040 03/M04 A3029 290 59 -1000 060/05 RMK AO2
14840KMKG MKG20060326103010503/26/06 10:30:31  5-MIN KMKG 261530Z 00000KT 10SM SCT030 BKN038 03/M04 A3029 290 59 -1000 000/00 RMK AO2
14840KMKG MKG20060326103510503/26/06 10:35:31  5-MIN KMKG 261535Z VRB06KT 10SM FEW030 BKN038 03/M04 A3029 290 59 -1000 VRB/06 RMK AO2
14840KMKG MKG20060326104009803/26/06 10:40:31  5-MIN KMKG 261540Z 03007KT 10SM OVC036 03/M05 A3029 290 56 -1000 030/07 RMK AO2
14840KMKG MKG20060326104509803/26/06 10:45:31  5-MIN KMKG 261545Z 03005KT 10SM OVC036 03/M05 A3029 290 56 -1000 040/05 RMK AO2
14840KMKG MKG20060326105011503/26/06 10:50:31  5-MIN KMKG 261550Z 01007KT 10SM OVC036 03/M05 A3029 290 54 -1000 010/07 RMK AO2 SLP264 T00331050
14840KMKG MKG20060326105511503/26/06 10:55:31  5-MIN KMKG 261555Z 35004KT 10SM OVC036 03/M05 A3029 290 56 -1000 350/04 RMK AO2 SLP265 T00281050
14840KMKG MKG20060326110009803/26/06 11:00:31  5-MIN KMKG 261600Z 35004KT 10SM OVC036 03/M05 A3029 290 56 -1000 350/04 RMK AO2
14840KMKG MKG20060326110509803/26/06 11:05:31  5-MIN KMKG 261605Z VRB03KT 10SM OVC036 03/M04 A3029 290 57 -1000 VRB/03 RMK AO2
14840KMKG MKG20060326111009703/26/06 11:10:31  5-MIN KMKG 261610Z VRB03KT 10SM OVC036 04/M04 A3029 290 54 -900 VRB/03 RMK AO2
14840KMKG MKG20060326111509703/26/06 11:15:31  5-MIN KMKG 261615Z 02006KT 10SM OVC036 04/M04 A3029 290 54 -900 020/06 RMK AO2
14840KMKG MKG20060326112009703/26/06 11:20:31  5-MIN KMKG 261620Z VRB03KT 10SM OVC036 04/M04 A3029 290 54 -900 VRB/03 RMK AO2
14840KMKG MKG20060326112509703/26/06 11:25:31  5-MIN KMKG 261625Z VRB03KT 10SM OVC036 04/M04 A3029 290 54 -900 VRB/03 RMK AO2
14840KMKG MKG20060326113009703/26/06 11:30:31  5-MIN KMKG 261630Z 07006KT 10SM OVC038 05/M04 A3029 290 50 -800 080/06 RMK AO2
14840KMKG MKG20060326113509703/26/06 11:35:31  5-MIN KMKG 261635Z 06006KT 10SM BKN038 04/M05 A3029 290 50 -800 070/06 RMK AO2
14840KMKG MKG20060326114009703/26/06 11:40:31  5-MIN KMKG 261640Z VRB03KT 10SM BKN036 05/M05 A3029 290 48 -800 VRB/03 RMK AO2
14840KMKG MKG20060326114509703/26/06 11:45:31  5-MIN KMKG 261645Z VRB04KT 10SM SCT038 05/M05 A3029 290 48 -800 VRB/04 RMK AO2
14840KMKG MKG20060326115011403/26/06 11:50:31  5-MIN KMKG 261650Z 04005KT 10SM SCT038 05/M05 A3029 290 48 -800 050/05 RMK AO2 SLP262 T00501050
14840KMKG MKG20060326115511403/26/06 11:55:31  5-MIN KMKG 261655Z VRB04KT 10SM FEW038 05/M05 A3029 290 48 -800 VRB/04 RMK AO2 SLP263 T00501050
14840KMKG MKG20060326120009403/26/06 12:00:31  5-MIN KMKG 261700Z VRB04KT 10SM CLR 05/M05 A3029 290 48 -800 VRB/04 RMK AO2
14840KMKG MKG20060326120509703/26/06 12:05:31  5-MIN KMKG 261705Z VRB04KT 10SM FEW038 06/M05 A3029 290 46 -700 VRB/04 RMK AO2
14840KMKG MKG20060326121009703/26/06 12:10:31  5-MIN KMKG 261710Z 00000KT 10SM FEW038 06/M05 A3029 290 46 -700 000/00 RMK AO2
14840KMKG MKG20060326121509703/26/06 12:15:31  5-MIN KMKG 261715Z VRB04KT 10SM FEW038 06/M05 A3029 290 46 -700 VRB/04 RMK AO2
14840KMKG MKG20060326122009703/26/06 12:20:31  5-MIN KMKG 261720Z VRB04KT 10SM FEW038 06/M05 A3029 290 45 -600 VRB/04 RMK AO2
14840KMKG MKG20060326122509703/26/06 12:25:31  5-MIN KMKG 261725Z VRB03KT 10SM FEW038 06/M04 A3028 300 48 -700 VRB/03 RMK AO2
14840KMKG MKG20060326123009703/26/06 12:30:31  5-MIN KMKG 261730Z 13007KT 10SM FEW038 06/M04 A3028 300 48 -700 130/07 RMK AO2
14840KMKG MKG20060326123509703/26/06 12:35:31  5-MIN KMKG 261735Z 00000KT 10SM FEW038 05/M06 A3028 300 46 -700 000/00 RMK AO2
14840KMKG MKG20060326124009703/26/06 12:40:31  5-MIN KMKG 261740Z VRB05KT 10SM FEW038 06/M05 A3028 300 46 -700 VRB/05 RMK AO2
14840KMKG MKG20060326124511303/26/06 12:45:31  5-MIN KMKG 261745Z 07007KT 050V120 10SM SCT043 07/M05 A3028 300 43 -500 070/07 050V120 RMK AO2
14840KMKG MKG20060326125013203/26/06 12:50:31  5-MIN KMKG 261750Z 05005KT 10SM BKN045 07/M06 A3028 300 41 -500 050/05 RMK AO2 SLP260 T00671056 10067 20006 52010
14840KMKG MKG20060326125513203/26/06 12:55:31  5-MIN KMKG 261755Z 30004KT 10SM BKN045 06/M06 A3028 300 44 -700 310/04 RMK AO2 SLP259 T00561056 10067 20006 58003
14840KMKG MKG20060326130009703/26/06 13:00:31  5-MIN KMKG 261800Z VRB04KT 10SM BKN045 06/M06 A3028 300 44 -700 VRB/04 RMK AO2
14840KMKG MKG20060326130509703/26/06 13:05:31  5-MIN KMKG 261805Z 25008KT 10SM BKN045 06/M02 A3027 300 57 -700 250/08 RMK AO2
14840KMKG MKG20060326131009703/26/06 13:10:31  5-MIN KMKG 261810Z 29010KT 10SM BKN047 06/M02 A3027 300 57 -600 290/10 RMK AO2
14840KMKG MKG20060326131509703/26/06 13:15:31  5-MIN KMKG 261815Z 29008KT 10SM BKN047 05/M02 A3027 310 59 -700 290/08 RMK AO2
14840KMKG MKG20060326132009703/26/06 13:20:31  5-MIN KMKG 261820Z 27008KT 10SM BKN047 06/M02 A3027 310 57 -700 270/08 RMK AO2
14840KMKG MKG20060326132509703/26/06 13:25:31  5-MIN KMKG 261825Z 26009KT 10SM BKN047 06/M02 A3027 310 59 -700 260/09 RMK AO2
14840KMKG MKG20060326133009703/26/06 13:30:31  5-MIN KMKG 261830Z 26011KT 10SM OVC047 06/M02 A3027 310 59 -700 270/11 RMK AO2
14840KMKG MKG20060326133509703/26/06 13:35:31  5-MIN KMKG 261835Z 27011KT 10SM OVC047 06/M02 A3027 310 59 -700 270/11 RMK AO2
14840KMKG MKG20060326134009703/26/06 13:40:31  5-MIN KMKG 261840Z 27010KT 10SM BKN047 05/M02 A3027 310 62 -700 280/10 RMK AO2
14840KMKG MKG20060326134509703/26/06 13:45:31  5-MIN KMKG 261845Z 26010KT 10SM BKN047 06/M02 A3027 310 59 -700 270/10 RMK AO2
14840KMKG MKG20060326135011403/26/06 13:50:31  5-MIN KMKG 261850Z 27011KT 10SM SCT049 05/M02 A3027 310 62 -700 280/11 RMK AO2 SLP255 T00501017
14840KMKG MKG20060326135511403/26/06 13:55:31  5-MIN KMKG 261855Z 25012KT 10SM SCT049 06/M02 A3027 310 57 -700 260/12 RMK AO2 SLP255 T00561022
14840KMKG MKG20060326140009703/26/06 14:00:31  5-MIN KMKG 261900Z 28010KT 10SM FEW049 06/M02 A3026 310 57 -700 290/10 RMK AO2
14840KMKG MKG20060326140509403/26/06 14:05:31  5-MIN KMKG 261905Z 29012KT 10SM CLR 06/M02 A3026 310 59 -700 290/12 RMK AO2
14840KMKG MKG20060326141009403/26/06 14:10:31  5-MIN KMKG 261910Z 27011KT 10SM CLR 06/M02 A3026 310 57 -700 280/11 RMK AO2
14840KMKG MKG20060326141509703/26/06 14:15:31  5-MIN KMKG 261915Z 29010KT 10SM SCT049 05/M02 A3026 310 59 -700 290/10 RMK AO2
14840KMKG MKG20060326142009703/26/06 14:20:31  5-MIN KMKG 261920Z 28010KT 10SM SCT049 06/M02 A3026 310 57 -700 290/10 RMK AO2
14840KMKG MKG20060326142511303/26/06 14:25:31  5-MIN KMKG 261925Z 28010KT 240V310 10SM SCT049 04/M03 A3026 310 59 -800 280/10 240V310 RMK AO2
14840KMKG MKG20060326143009703/26/06 14:30:31  5-MIN KMKG 261930Z 27011KT 10SM SCT049 06/M02 A3026 310 57 -700 270/11 RMK AO2
14840KMKG MKG20060326143509703/26/06 14:35:31  5-MIN KMKG 261935Z 27010KT 10SM SCT049 05/M02 A3026 320 59 -700 270/10 RMK AO2
14840KMKG MKG20060326144009703/26/06 14:40:31  5-MIN KMKG 261940Z 28010KT 10SM SCT049 05/M03 A3026 310 57 -700 280/10 RMK AO2
14840KMKG MKG20060326144509703/26/06 14:45:31  5-MIN KMKG 261945Z 26010KT 10SM SCT049 06/M02 A3026 310 57 -700 260/10 RMK AO2
14840KMKG MKG20060326145011403/26/06 14:50:31  5-MIN KMKG 261950Z 28011KT 10SM SCT049 05/M03 A3026 310 57 -700 280/11 RMK AO2 SLP254 T00501028
14840KMKG MKG20060326145511403/26/06 14:55:31  5-MIN KMKG 261955Z 28008KT 10SM SCT049 05/M03 A3026 310 55 -700 280/08 RMK AO2 SLP254 T00501033
14840KMKG MKG20060326150009403/26/06 15:00:31  5-MIN KMKG 262000Z 27009KT 10SM CLR 05/M03 A3026 320 55 -700 270/09 RMK AO2
14840KMKG MKG20060326150509403/26/06 15:05:31  5-MIN KMKG 262005Z 26009KT 10SM CLR 05/M03 A3026 320 57 -700 270/09 RMK AO2
14840KMKG MKG20060326151009703/26/06 15:10:31  5-MIN KMKG 262010Z 26010KT 10SM FEW049 05/M03 A3026 320 57 -700 270/10 RMK AO2
14840KMKG MKG20060326151509703/26/06 15:15:31  5-MIN KMKG 262015Z 27009KT 10SM FEW049 06/M03 A3026 320 55 -700 270/09 RMK AO2
14840KMKG MKG20060326152009703/26/06 15:20:31  5-MIN KMKG 262020Z 29009KT 10SM FEW049 05/M03 A3026 320 57 -700 290/09 RMK AO2
14840KMKG MKG20060326152509703/26/06 15:25:31  5-MIN KMKG 262025Z 27009KT 10SM FEW049 06/M03 A3026 320 55 -700 280/09 RMK AO2
14840KMKG MKG20060326153009703/26/06 15:30:31  5-MIN KMKG 262030Z 29012KT 10SM FEW049 05/M02 A3026 320 59 -700 300/12 RMK AO2
14840KMKG MKG20060326153509703/26/06 15:35:31  5-MIN KMKG 262035Z 29011KT 10SM FEW049 05/M03 A3026 320 57 -700 290/11 RMK AO2
14840KMKG MKG20060326154009703/26/06 15:40:31  5-MIN KMKG 262040Z 29010KT 10SM FEW049 05/M03 A3026 310 57 -700 300/10 RMK AO2
14840KMKG MKG20060326154509703/26/06 15:45:31  5-MIN KMKG 262045Z 29011KT 10SM FEW049 05/M03 A3026 320 55 -700 300/11 RMK AO2
14840KMKG MKG20060326155012003/26/06 15:50:31  5-MIN KMKG 262050Z 28009KT 10SM SCT049 04/M03 A3026 320 59 -800 280/09 RMK AO2 SLP254 T00441028 58003
14840KMKG MKG20060326155512003/26/06 15:55:31  5-MIN KMKG 262055Z 28009KT 10SM SCT037 05/M03 A3026 320 55 -700 280/09 RMK AO2 SLP253 T00501033 56005
14840KMKG MKG20060326160009703/26/06 16:00:31  5-MIN KMKG 262100Z 29008KT 10SM SCT037 05/M03 A3026 310 57 -700 290/08 RMK AO2
14840KMKG MKG20060326160509703/26/06 16:05:31  5-MIN KMKG 262105Z 27009KT 10SM SCT037 05/M03 A3026 320 57 -700 270/09 RMK AO2
14840KMKG MKG20060326161009703/26/06 16:10:31  5-MIN KMKG 262110Z 27010KT 10SM SCT037 05/M03 A3026 320 55 -700 280/10 RMK AO2
14840KMKG MKG20060326161511303/26/06 16:15:31  5-MIN KMKG 262115Z 28008KT 250V310 10SM SCT037 06/M03 A3026 320 53 -700 290/08 250V310 RMK AO2
14840KMKG MKG20060326162009703/26/06 16:20:31  5-MIN KMKG 262120Z 27010KT 10SM SCT037 05/M03 A3026 320 57 -700 280/10 RMK AO2
14840KMKG MKG20060326162509703/26/06 16:25:31  5-MIN KMKG 262125Z 29010KT 10SM SCT037 05/M03 A3026 320 57 -700 290/10 RMK AO2
14840KMKG MKG20060326163009703/26/06 16:30:31  5-MIN KMKG 262130Z 29010KT 10SM SCT037 05/M03 A3026 320 57 -700 290/10 RMK AO2
14840KMKG MKG20060326163509703/26/06 16:35:31  5-MIN KMKG 262135Z 29010KT 10SM SCT037 05/M02 A3026 320 59 -700 300/10 RMK AO2
14840KMKG MKG20060326164009703/26/06 16:40:31  5-MIN KMKG 262140Z 28011KT 10SM SCT037 04/M02 A3026 320 62 -800 280/11 RMK AO2
14840KMKG MKG20060326164509703/26/06 16:45:31  5-MIN KMKG 262145Z 29009KT 10SM SCT037 04/M03 A3026 320 59 -800 290/09 RMK AO2
14840KMKG MKG20060326165011403/26/06 16:50:31  5-MIN KMKG 262150Z 29009KT 10SM SCT037 04/M03 A3026 320 59 -800 290/09 RMK AO2 SLP253 T00441028
14840KMKG MKG20060326165511403/26/06 16:55:31  5-MIN KMKG 262155Z 28009KT 10SM FEW037 04/M03 A3026 320 59 -800 280/09 RMK AO2 SLP253 T00441028
14840KMKG MKG20060326170009403/26/06 17:00:31  5-MIN KMKG 262200Z 29009KT 10SM CLR 04/M02 A3026 320 62 -800 290/09 RMK AO2
14840KMKG MKG20060326170509403/26/06 17:05:31  5-MIN KMKG 262205Z 29008KT 10SM CLR 04/M02 A3026 320 62 -800 290/08 RMK AO2
14840KMKG MKG20060326171009403/26/06 17:10:31  5-MIN KMKG 262210Z 29009KT 10SM CLR 04/M02 A3026 320 62 -800 300/09 RMK AO2
14840KMKG MKG20060326171509403/26/06 17:15:31  5-MIN KMKG 262215Z 28008KT 10SM CLR 04/M02 A3026 320 64 -900 280/08 RMK AO2
14840KMKG MKG20060326172009403/26/06 17:20:31  5-MIN KMKG 262220Z 28009KT 10SM CLR 04/M02 A3026 320 64 -900 290/09 RMK AO2
14840KMKG MKG20060326172509403/26/06 17:25:31  5-MIN KMKG 262225Z 28007KT 10SM CLR 04/M02 A3026 320 64 -900 290/07 RMK AO2
14840KMKG MKG20060326173009403/26/06 17:30:31  5-MIN KMKG 262230Z 29008KT 10SM CLR 04/M02 A3026 320 67 -900 290/08 RMK AO2
14840KMKG MKG20060326173509403/26/06 17:35:31  5-MIN KMKG 262235Z 28009KT 10SM CLR 04/M02 A3026 320 64 -900 280/09 RMK AO2
14840KMKG MKG20060326174009403/26/06 17:40:31  5-MIN KMKG 262240Z 27009KT 10SM CLR 03/M02 A3026 320 67 -900 270/09 RMK AO2
14840KMKG MKG20060326174509403/26/06 17:45:31  5-MIN KMKG 262245Z 28008KT 10SM CLR 03/M02 A3026 320 67 -900 290/08 RMK AO2
14840KMKG MKG20060326175011403/26/06 17:50:31  5-MIN KMKG 262250Z 27009KT 10SM FEW040 03/M02 A3026 310 67 -900 280/09 RMK AO2 SLP255 T00331022
14840KMKG MKG20060326175511403/26/06 17:55:31  5-MIN KMKG 262255Z 27008KT 10SM FEW040 03/M02 A3026 310 67 -900 280/08 RMK AO2 SLP255 T00331022
14840KMKG MKG20060326180009403/26/06 18:00:31  5-MIN KMKG 262300Z 27007KT 10SM CLR 03/M02 A3026 310 67 -900 270/07 RMK AO2
14840KMKG MKG20060326180509403/26/06 18:05:31  5-MIN KMKG 262305Z 29008KT 10SM CLR 03/M02 A3027 310 67 -900 300/08 RMK AO2
14840KMKG MKG20060326181009403/26/06 18:10:31  5-MIN KMKG 262310Z 28006KT 10SM CLR 03/M02 A3027 310 67 -900 290/06 RMK AO2
14840KMKG MKG20060326181509503/26/06 18:15:31  5-MIN KMKG 262315Z 26008KT 10SM CLR 03/M02 A3027 310 69 -1000 270/08 RMK AO2
14840KMKG MKG20060326182009503/26/06 18:20:31  5-MIN KMKG 262320Z 28008KT 10SM CLR 03/M02 A3027 310 69 -1000 280/08 RMK AO2
14840KMKG MKG20060326182509503/26/06 18:25:31  5-MIN KMKG 262325Z 28007KT 10SM CLR 03/M02 A3027 310 69 -1000 280/07 RMK AO2
14840KMKG MKG20060326183009503/26/06 18:30:31  5-MIN KMKG 262330Z 29007KT 10SM CLR 03/M02 A3027 310 69 -1000 300/07 RMK AO2
14840KMKG MKG20060326183509503/26/06 18:35:31  5-MIN KMKG 262335Z 30005KT 10SM CLR 03/M03 A3027 310 67 -1000 300/05 RMK AO2
14840KMKG MKG20060326184009503/26/06 18:40:31  5-MIN KMKG 262340Z 30006KT 10SM CLR 03/M02 A3026 310 69 -1000 300/06 RMK AO2
14840KMKG MKG20060326184509503/26/06 18:45:31  5-MIN KMKG 262345Z 28004KT 10SM CLR 02/M02 A3026 310 72 -1100 290/04 RMK AO2
14840KMKG MKG20060326185013003/26/06 18:50:31  5-MIN KMKG 262350Z 28004KT 10SM CLR 02/M02 A3026 310 72 -1100 280/04 RMK AO2 SLP255 T00221022 10061 20022 56005
14840KMKG MKG20060326185513003/26/06 18:55:31  5-MIN KMKG 262355Z 27005KT 10SM CLR 02/M02 A3026 320 75 -1100 280/05 RMK AO2 SLP255 T00171022 10061 20017 52000
14840KMKG MKG20060326190009503/26/06 19:00:31  5-MIN KMKG 270000Z 28003KT 10SM CLR 02/M02 A3026 320 75 -1100 290/03 RMK AO2
14840KMKG MKG20060326190509503/26/06 19:05:31  5-MIN KMKG 270005Z 29003KT 10SM CLR 02/M02 A3026 310 75 -1100 290/03 RMK AO2
14840KMKG MKG20060326191009503/26/06 19:10:31  5-MIN KMKG 270010Z 29004KT 10SM CLR 02/M02 A3027 310 75 -1100 290/04 RMK AO2
14840KMKG MKG20060326191509503/26/06 19:15:31  5-MIN KMKG 270015Z 29004KT 10SM CLR 02/M02 A3027 310 75 -1100 290/04 RMK AO2
14840KMKG MKG20060326192009503/26/06 19:20:31  5-MIN KMKG 270020Z 28004KT 10SM CLR 02/M02 A3027 310 75 -1100 290/04 RMK AO2
14840KMKG MKG20060326192509503/26/06 19:25:31  5-MIN KMKG 270025Z 28003KT 10SM CLR 01/M02 A3027 310 78 -1200 290/03 RMK AO2
14840KMKG MKG20060326193009503/26/06 19:30:31  5-MIN KMKG 270030Z 29004KT 10SM CLR 01/M02 A3027 310 78 -1200 290/04 RMK AO2
14840KMKG MKG20060326193509503/26/06 19:35:31  5-MIN KMKG 270035Z 30003KT 10SM CLR 01/M02 A3027 310 78 -1200 300/03 RMK AO2
14840KMKG MKG20060326194009503/26/06 19:40:31  5-MIN KMKG 270040Z 29003KT 10SM CLR 01/M02 A3027 310 78 -1200 290/03 RMK AO2
14840KMKG MKG20060326194509503/26/06 19:45:31  5-MIN KMKG 270045Z 27003KT 10SM CLR 01/M02 A3027 310 78 -1200 270/03 RMK AO2
14840KMKG MKG20060326195011203/26/06 19:50:31  5-MIN KMKG 270050Z 25003KT 10SM CLR 01/M02 A3027 310 78 -1200 260/03 RMK AO2 SLP258 T00111022
14840KMKG MKG20060326195511203/26/06 19:55:31  5-MIN KMKG 270055Z 28003KT 10SM CLR 01/M02 A3027 310 78 -1200 280/03 RMK AO2 SLP257 T00111022
14840KMKG MKG20060326200009503/26/06 20:00:31  5-MIN KMKG 270100Z 29003KT 10SM CLR 01/M02 A3027 310 78 -1200 290/03 RMK AO2
14840KMKG MKG20060326200509503/26/06 20:05:31  5-MIN KMKG 270105Z 27003KT 10SM CLR 01/M02 A3027 310 82 -1200 270/03 RMK AO2
14840KMKG MKG20060326201009503/26/06 20:10:31  5-MIN KMKG 270110Z 00000KT 10SM CLR 01/M02 A3027 310 85 -1300 000/00 RMK AO2
14840KMKG MKG20060326201509503/26/06 20:15:31  5-MIN KMKG 270115Z 00000KT 10SM CLR 00/M02 A3027 310 85 -1400 000/00 RMK AO2
14840KMKG MKG20060326202009503/26/06 20:20:31  5-MIN KMKG 270120Z 00000KT 10SM CLR 01/M02 A3027 310 82 -1300 000/00 RMK AO2
14840KMKG MKG20060326202509503/26/06 20:25:31  5-MIN KMKG 270125Z 00000KT 10SM CLR 01/M02 A3027 310 82 -1300 000/00 RMK AO2
14840KMKG MKG20060326203009503/26/06 20:30:31  5-MIN KMKG 270130Z 00000KT 10SM CLR 00/M02 A3027 310 85 -1400 000/00 RMK AO2
14840KMKG MKG20060326203509603/26/06 20:35:31  5-MIN KMKG 270135Z 00000KT 10SM CLR M01/M02 A3027 300 88 -1400 000/00 RMK AO2
14840KMKG MKG20060326204009503/26/06 20:40:31  5-MIN KMKG 270140Z 30003KT 10SM CLR 00/M02 A3028 300 85 -1400 310/03 RMK AO2
14840KMKG MKG20060326204509503/26/06 20:45:31  5-MIN KMKG 270145Z 00000KT 10SM CLR 00/M02 A3028 300 85 -1400 000/00 RMK AO2
14840KMKG MKG20060326205011303/26/06 20:50:31  5-MIN KMKG 270150Z 00000KT 10SM CLR M01/M03 A3028 300 88 -1500 000/00 RMK AO2 SLP261 T10111028
14840KMKG MKG20060326205511303/26/06 20:55:31  5-MIN KMKG 270155Z 00000KT 10SM CLR M01/M03 A3028 300 88 -1500 000/00 RMK AO2 SLP261 T10111028
14840KMKG MKG20060326210009603/26/06 21:00:31  5-MIN KMKG 270200Z 00000KT 10SM CLR M01/M03 A3028 300 85 -1400 000/00 RMK AO2
14840KMKG MKG20060326210509503/26/06 21:05:31  5-MIN KMKG 270205Z 00000KT 10SM CLR 00/M02 A3028 300 85 -1400 000/00 RMK AO2
14840KMKG MKG20060326211009603/26/06 21:10:31  5-MIN KMKG 270210Z 00000KT 10SM CLR M01/M02 A3028 300 88 -1400 000/00 RMK AO2
14840KMKG MKG20060326211509603/26/06 21:15:31  5-MIN KMKG 270215Z 00000KT 10SM CLR M01/M02 A3028 300 88 -1400 000/00 RMK AO2
14840KMKG MKG20060326212009603/26/06 21:20:31  5-MIN KMKG 270220Z 00000KT 10SM CLR M01/M03 A3029 290 88 -1500 000/00 RMK AO2
14840KMKG MKG20060326212509603/26/06 21:25:31  5-MIN KMKG 270225Z 00000KT 10SM CLR M01/M03 A3029 290 88 -1500 000/00 RMK AO2
14840KMKG MKG20060326213009603/26/06 21:30:31  5-MIN KMKG 270230Z 00000KT 10SM CLR M01/M03 A3029 290 88 -1500 000/00 RMK AO2
14840KMKG MKG20060326213509603/26/06 21:35:31  5-MIN KMKG 270235Z 00000KT 10SM CLR M02/M03 A3029 290 92 -1600 000/00 RMK AO2
14840KMKG MKG20060326214009603/26/06 21:40:31  5-MIN KMKG 270240Z 00000KT 10SM CLR M02/M03 A3029 290 92 -1600 000/00 RMK AO2
14840KMKG MKG20060326214509603/26/06 21:45:31  5-MIN KMKG 270245Z 00000KT 10SM CLR M01/M03 A3029 290 88 -1500 000/00 RMK AO2
14840KMKG MKG20060326215011903/26/06 21:50:31  5-MIN KMKG 270250Z 00000KT 10SM CLR M01/M03 A3029 290 88 -1500 000/00 RMK AO2 SLP264 T10111028 52000
14840KMKG MKG20060326215511903/26/06 21:55:31  5-MIN KMKG 270255Z 00000KT 10SM CLR M02/M03 A3029 290 92 -1600 000/00 RMK AO2 SLP264 T10171028 53008
14840KMKG MKG20060326220009603/26/06 22:00:31  5-MIN KMKG 270300Z 00000KT 10SM CLR M01/M03 A3029 290 85 -1500 000/00 RMK AO2
14840KMKG MKG20060326220509603/26/06 22:05:31  5-MIN KMKG 270305Z 00000KT 10SM CLR M01/M03 A3029 290 88 -1500 000/00 RMK AO2
14840KMKG MKG20060326221009603/26/06 22:10:31  5-MIN KMKG 270310Z 00000KT 10SM CLR M02/M03 A3029 290 92 -1600 000/00 RMK AO2
14840KMKG MKG20060326221509603/26/06 22:15:31  5-MIN KMKG 270315Z 00000KT 10SM CLR M02/M03 A3029 290 88 -1600 000/00 RMK AO2
14840KMKG MKG20060326222009603/26/06 22:20:31  5-MIN KMKG 270320Z 22003KT 10SM CLR M02/M03 A3029 290 92 -1700 220/03 RMK AO2
14840KMKG MKG20060326222509603/26/06 22:25:31  5-MIN KMKG 270325Z 00000KT 10SM CLR M02/M04 A3029 290 88 -1700 000/00 RMK AO2
14840KMKG MKG20060326223009603/26/06 22:30:31  5-MIN KMKG 270330Z 24003KT 10SM CLR M02/M03 A3029 290 88 -1600 240/03 RMK AO2
14840KMKG MKG20060326223509603/26/06 22:35:31  5-MIN KMKG 270335Z 00000KT 10SM CLR M02/M03 A3029 290 92 -1700 000/00 RMK AO2
14840KMKG MKG20060326224009603/26/06 22:40:31  5-MIN KMKG 270340Z 00000KT 10SM CLR M02/M03 A3029 290 92 -1700 000/00 RMK AO2
14840KMKG MKG20060326224509603/26/06 22:45:31  5-MIN KMKG 270345Z 00000KT 10SM CLR M03/M04 A3029 290 92 -1700 000/00 RMK AO2
14840KMKG MKG20060326225011303/26/06 22:50:31  5-MIN KMKG 270350Z 00000KT 10SM CLR M03/M04 A3029 290 92 -1700 000/00 RMK AO2 SLP266 T10281039
14840KMKG MKG20060326225511303/26/06 22:55:31  5-MIN KMKG 270355Z 00000KT 10SM CLR M03/M04 A3029 290 92 -1700 000/00 RMK AO2 SLP266 T10281039
14840KMKG MKG20060326230009603/26/06 23:00:31  5-MIN KMKG 270400Z 00000KT 10SM CLR M03/M04 A3029 290 92 -1700 000/00 RMK AO2
14840KMKG MKG20060326230509603/26/06 23:05:31  5-MIN KMKG 270405Z 00000KT 10SM CLR M03/M04 A3029 290 92 -1700 000/00 RMK AO2
14840KMKG MKG20060326231009603/26/06 23:10:31  5-MIN KMKG 270410Z 00000KT 10SM CLR M02/M03 A3029 290 92 -1700 000/00 RMK AO2
14840KMKG MKG20060326231509603/26/06 23:15:31  5-MIN KMKG 270415Z 00000KT 10SM CLR M02/M03 A3029 290 92 -1700 000/00 RMK AO2
14840KMKG MKG20060326232009603/26/06 23:20:31  5-MIN KMKG 270420Z 00000KT 10SM CLR M02/M03 A3029 290 92 -1700 000/00 RMK AO2
14840KMKG MKG20060326232509603/26/06 23:25:31  5-MIN KMKG 270425Z 00000KT 10SM CLR M02/M04 A3029 290 88 -1700 000/00 RMK AO2
14840KMKG MKG20060326233009603/26/06 23:30:31  5-MIN KMKG 270430Z 00000KT 10SM CLR M03/M04 A3029 290 92 -1700 000/00 RMK AO2
14840KMKG MKG20060326233509603/26/06 23:35:31  5-MIN KMKG 270435Z 00000KT 10SM CLR M03/M04 A3029 290 88 -1700 000/00 RMK AO2
14840KMKG MKG20060326234009603/26/06 23:40:31  5-MIN KMKG 270440Z 00000KT 10SM CLR M03/M04 A3029 290 92 -1700 000/00 RMK AO2
14840KMKG MKG20060326234509603/26/06 23:45:31  5-MIN KMKG 270445Z 00000KT 10SM CLR M03/M04 A3029 290 92 -1700 000/00 RMK AO2
14840KMKG MKG20060326235012303/26/06 23:50:31  5-MIN KMKG 270450Z 00000KT 10SM CLR M03/M04 A3029 290 92 -1700 000/00 RMK AO2 SLP264 T10281039 400671028
14840KMKG MKG20060326235512303/26/06 23:55:31  5-MIN KMKG 270455Z 00000KT 10SM CLR M03/M04 A3029 290 92 -1700 000/00 RMK AO2 SLP264 T10281039 400671028
14840KMKG MKG20060327000009603/27/06 00:00:32  5-MIN KMKG 270500Z 00000KT 10SM CLR M03/M04 A3029 290 92 -1700 000/00 RMK AO2
14840KMKG MKG20060327000509603/27/06 00:05:31  5-MIN KMKG 270505Z 22003KT 10SM CLR M02/M04 A3029 290 88 -1700 230/03 RMK AO2
14840KMKG MKG20060327001009603/27/06 00:10:31  5-MIN KMKG 270510Z 00000KT 10SM CLR M03/M04 A3029 290 92 -1700 000/00 RMK AO2
14840KMKG MKG20060327001509603/27/06 00:15:31  5-MIN KMKG 270515Z 00000KT 10SM CLR M03/M04 A3029 290 92 -1700 000/00 RMK AO2
14840KMKG MKG20060327002009603/27/06 00:20:31  5-MIN KMKG 270520Z 00000KT 10SM CLR M03/M04 A3029 290 92 -1800 000/00 RMK AO2
14840KMKG MKG20060327002509603/27/06 00:25:31  5-MIN KMKG 270525Z 00000KT 10SM CLR M04/M05 A3029 290 92 -1900 000/00 RMK AO2
14840KMKG MKG20060327003009503/27/06 00:30:31  5-MIN KMKG 270530Z 00000KT 9SM CLR M03/M04 A3029 290 92 -1800 000/00 RMK AO2
14840KMKG MKG20060327003509503/27/06 00:35:31  5-MIN KMKG 270535Z 00000KT 7SM CLR M03/M04 A3029 290 88 -1700 000/00 RMK AO2
14840KMKG MKG20060327004009503/27/06 00:40:31  5-MIN KMKG 270540Z 00000KT 8SM CLR M03/M05 A3029 290 88 -1800 000/00 RMK AO2
14840KMKG MKG20060327004509603/27/06 00:45:31  5-MIN KMKG 270545Z 00000KT 10SM CLR M03/M04 A3029 290 88 -1700 000/00 RMK AO2
14840KMKG MKG20060327005013103/27/06 00:50:31  5-MIN KMKG 270550Z 00000KT 10SM CLR M03/M04 A3029 290 88 -1700 000/00 RMK AO2 SLP265 T10281044 10017 21039 53008
14840KMKG MKG20060327005513103/27/06 00:55:31  5-MIN KMKG 270555Z 00000KT 10SM CLR M03/M04 A3030 290 88 -1700 000/00 RMK AO2 SLP266 T10281044 10017 21039 53002
14840KMKG MKG20060327010009603/27/06 01:00:31  5-MIN KMKG 270600Z 00000KT 10SM CLR M03/M04 A3030 280 88 -1700 000/00 RMK AO2
14840KMKG MKG20060327010509503/27/06 01:05:31  5-MIN KMKG 270605Z 00000KT 9SM CLR M03/M04 A3030 280 92 -1800 000/00 RMK AO2
14840KMKG MKG20060327011009503/27/06 01:10:31  5-MIN KMKG 270610Z 00000KT 9SM CLR M03/M04 A3030 280 92 -1800 000/00 RMK AO2
14840KMKG MKG20060327011509603/27/06 01:15:31  5-MIN KMKG 270615Z 00000KT 10SM CLR M03/M04 A3030 280 88 -1700 000/00 RMK AO2
14840KMKG MKG20060327012009603/27/06 01:20:31  5-MIN KMKG 270620Z 00000KT 10SM CLR M03/M04 A3030 280 92 -1800 000/00 RMK AO2
14840KMKG MKG20060327012509603/27/06 01:25:31  5-MIN KMKG 270625Z 00000KT 10SM CLR M03/M04 A3030 280 92 -1800 000/00 RMK AO2
14840KMKG MKG20060327013009603/27/06 01:30:31  5-MIN KMKG 270630Z 00000KT 10SM CLR M03/M05 A3030 280 88 -1800 000/00 RMK AO2
14840KMKG MKG20060327013509503/27/06 01:35:31  5-MIN KMKG 270635Z 00000KT 9SM CLR M03/M04 A3030 280 92 -1800 000/00 RMK AO2
14840KMKG MKG20060327014009503/27/06 01:40:31  5-MIN KMKG 270640Z 00000KT 9SM CLR M03/M04 A3030 280 92 -1800 000/00 RMK AO2
14840KMKG MKG20060327014509603/27/06 01:45:31  5-MIN KMKG 270645Z 00000KT 10SM CLR M03/M04 A3030 280 92 -1800 000/00 RMK AO2
14840KMKG MKG20060327015011303/27/06 01:50:31  5-MIN KMKG 270650Z 00000KT 10SM CLR M03/M05 A3030 280 88 -1800 000/00 RMK AO2 SLP266 T10331050
14840KMKG MKG20060327015511303/27/06 01:55:31  5-MIN KMKG 270655Z 00000KT 10SM CLR M03/M06 A3030 280 85 -1800 000/00 RMK AO2 SLP266 T10331056
14840KMKG MKG20060327020009603/27/06 02:00:31  5-MIN KMKG 270700Z 00000KT 10SM CLR M04/M06 A3030 280 88 -1900 000/00 RMK AO2
14840KMKG MKG20060327020509603/27/06 02:05:31  5-MIN KMKG 270705Z 00000KT 10SM CLR M04/M06 A3030 280 88 -1900 000/00 RMK AO2
14840KMKG MKG20060327021009603/27/06 02:10:31  5-MIN KMKG 270710Z 00000KT 10SM CLR M04/M06 A3030 280 88 -1900 000/00 RMK AO2
14840KMKG MKG20060327021509603/27/06 02:15:31  5-MIN KMKG 270715Z 00000KT 10SM CLR M04/M06 A3030 280 88 -1900 000/00 RMK AO2
14840KMKG MKG20060327022009603/27/06 02:20:31  5-MIN KMKG 270720Z 00000KT 10SM CLR M04/M05 A3030 280 92 -1900 000/00 RMK AO2
14840KMKG MKG20060327022509603/27/06 02:25:31  5-MIN KMKG 270725Z 00000KT 10SM CLR M03/M05 A3030 280 88 -1800 000/00 RMK AO2
14840KMKG MKG20060327023009603/27/06 02:30:31  5-MIN KMKG 270730Z 00000KT 10SM CLR M03/M05 A3030 280 88 -1800 000/00 RMK AO2
14840KMKG MKG20060327023509603/27/06 02:35:31  5-MIN KMKG 270735Z 00000KT 10SM CLR M03/M05 A3030 280 88 -1800 000/00 RMK AO2
14840KMKG MKG20060327024009603/27/06 02:40:31  5-MIN KMKG 270740Z 00000KT 10SM CLR M03/M05 A3030 280 88 -1800 000/00 RMK AO2
14840KMKG MKG20060327024509603/27/06 02:45:31  5-MIN KMKG 270745Z 00000KT 10SM CLR M03/M06 A3030 280 85 -1800 000/00 RMK AO2
14840KMKG MKG20060327025011303/27/06 02:50:31  5-MIN KMKG 270750Z 00000KT 10SM CLR M03/M05 A3030 280 88 -1800 000/00 RMK AO2 SLP268 T10331050
14840KMKG MKG20060327025511203/27/06 02:55:31  5-MIN KMKG 270755Z 00000KT 9SM CLR M03/M05 A3030 280 88 -1800 000/00 RMK AO2 SLP267 T10331050
14840KMKG MKG20060327030009503/27/06 03:00:31  5-MIN KMKG 270800Z 00000KT 9SM CLR M03/M06 A3030 280 85 -1800 000/00 RMK AO2
14840KMKG MKG20060327030509603/27/06 03:05:31  5-MIN KMKG 270805Z 00000KT 10SM CLR M04/M06 A3030 280 88 -1900 000/00 RMK AO2
14840KMKG MKG20060327031009603/27/06 03:10:31  5-MIN KMKG 270810Z 00000KT 10SM CLR M04/M06 A3030 280 88 -1900 000/00 RMK AO2
14840KMKG MKG20060327031509603/27/06 03:15:31  5-MIN KMKG 270815Z 00000KT 10SM CLR M04/M06 A3030 280 88 -1900 000/00 RMK AO2
14840KMKG MKG20060327032009603/27/06 03:20:31  5-MIN KMKG 270820Z 00000KT 10SM CLR M04/M06 A3030 280 88 -1900 000/00 RMK AO2
14840KMKG MKG20060327032509603/27/06 03:25:31  5-MIN KMKG 270825Z 00000KT 10SM CLR M04/M06 A3030 280 88 -1900 000/00 RMK AO2
14840KMKG MKG20060327033009603/27/06 03:30:31  5-MIN KMKG 270830Z 00000KT 10SM CLR M04/M06 A3030 280 88 -1900 000/00 RMK AO2
14840KMKG MKG20060327033509603/27/06 03:35:31  5-MIN KMKG 270835Z 00000KT 10SM CLR M04/M06 A3030 280 88 -1900 000/00 RMK AO2
14840KMKG MKG20060327034009603/27/06 03:40:31  5-MIN KMKG 270840Z 00000KT 10SM CLR M04/M06 A3030 280 88 -1900 000/00 RMK AO2
14840KMKG MKG20060327034509603/27/06 03:45:31  5-MIN KMKG 270845Z 00000KT 10SM CLR M04/M06 A3030 280 88 -2000 000/00 RMK AO2
14840KMKG MKG20060327035011903/27/06 03:50:31  5-MIN KMKG 270850Z 00000KT 10SM CLR M04/M06 A3030 280 88 -2000 000/00 RMK AO2 SLP270 T10441061 53002
14840KMKG MKG20060327035511903/27/06 03:55:31  5-MIN KMKG 270855Z 00000KT 10SM CLR M04/M06 A3030 280 85 -1900 000/00 RMK AO2 SLP269 T10391061 53002
14840KMKG MKG20060327040009603/27/06 04:00:31  5-MIN KMKG 270900Z 00000KT 10SM CLR M04/M06 A3030 280 88 -2000 000/00 RMK AO2
14840KMKG MKG20060327040509603/27/06 04:05:31  5-MIN KMKG 270905Z 00000KT 10SM CLR M04/M06 A3030 280 88 -2000 000/00 RMK AO2
14840KMKG MKG20060327041009603/27/06 04:10:31  5-MIN KMKG 270910Z 11003KT 10SM CLR M04/M06 A3030 280 88 -2000 110/03 RMK AO2
14840KMKG MKG20060327041509603/27/06 04:15:31  5-MIN KMKG 270915Z 12003KT 10SM CLR M04/M06 A3030 280 92 -2000 120/03 RMK AO2
14840KMKG MKG20060327042009603/27/06 04:20:31  5-MIN KMKG 270920Z 12003KT 10SM CLR M06/M07 A3030 280 92 -2100 120/03 RMK AO2
14840KMKG MKG20060327042509603/27/06 04:25:31  5-MIN KMKG 270925Z 11003KT 10SM CLR M06/M07 A3029 290 92 -2100 110/03 RMK AO2
14840KMKG MKG20060327043009603/27/06 04:30:31  5-MIN KMKG 270930Z 00000KT 10SM CLR M06/M07 A3029 290 92 -2100 000/00 RMK AO2
14840KMKG MKG20060327043509603/27/06 04:35:31  5-MIN KMKG 270935Z 00000KT 10SM CLR M06/M07 A3029 290 88 -2100 000/00 RMK AO2
14840KMKG MKG20060327044009603/27/06 04:40:31  5-MIN KMKG 270940Z 00000KT 10SM CLR M06/M07 A3029 290 92 -2100 000/00 RMK AO2
14840KMKG MKG20060327044509603/27/06 04:45:31  5-MIN KMKG 270945Z 00000KT 10SM CLR M06/M07 A3029 290 92 -2100 000/00 RMK AO2
14840KMKG MKG20060327045011303/27/06 04:50:31  5-MIN KMKG 270950Z 14003KT 10SM CLR M05/M07 A3029 290 88 -2000 140/03 RMK AO2 SLP266 T10501067
14840KMKG MKG20060327045511303/27/06 04:55:31  5-MIN KMKG 270955Z 14003KT 10SM CLR M05/M07 A3029 290 88 -2000 150/03 RMK AO2 SLP266 T10501067
14840KMKG MKG20060327050009603/27/06 05:00:31  5-MIN KMKG 271000Z 00000KT 10SM CLR M05/M07 A3029 290 88 -2000 000/00 RMK AO2
14840KMKG MKG20060327050509603/27/06 05:05:31  5-MIN KMKG 271005Z 12003KT 10SM CLR M05/M07 A3029 290 88 -2000 130/03 RMK AO2
14840KMKG MKG20060327051009603/27/06 05:10:31  5-MIN KMKG 271010Z 13004KT 10SM CLR M05/M07 A3029 290 88 -2000 130/04 RMK AO2
14840KMKG MKG20060327051509603/27/06 05:15:31  5-MIN KMKG 271015Z 12003KT 10SM CLR M05/M07 A3029 290 88 -2000 120/03 RMK AO2
14840KMKG MKG20060327052009803/27/06 05:20:31  5-MIN KMKG 271020Z 00000KT 9SM FEW001 M05/M06 A3029 290 92 -2000 000/00 RMK AO2
14840KMKG MKG20060327052509803/27/06 05:25:31  5-MIN KMKG 271025Z 13003KT 9SM FEW001 M05/M07 A3029 290 88 -2000 140/03 RMK AO2
14840KMKG MKG20060327053009503/27/06 05:30:31  5-MIN KMKG 271030Z 13004KT 9SM CLR M06/M07 A3029 290 92 -2100 140/04 RMK AO2
14840KMKG MKG20060327053509503/27/06 05:35:31  5-MIN KMKG 271035Z 12004KT 9SM CLR M06/M07 A3029 290 88 -2100 130/04 RMK AO2
14840KMKG MKG20060327054009503/27/06 05:40:31  5-MIN KMKG 271040Z 13004KT 9SM CLR M06/M07 A3029 290 92 -2200 130/04 RMK AO2
14840KMKG MKG20060327054509503/27/06 05:45:31  5-MIN KMKG 271045Z 13003KT 9SM CLR M06/M07 A3029 290 88 -2100 130/03 RMK AO2
14840KMKG MKG20060327055011203/27/06 05:50:31  5-MIN KMKG 271050Z 13003KT 9SM CLR M06/M07 A3029 290 92 -2200 130/03 RMK AO2 SLP265 T10611072
14840KMKG MKG20060327055511203/27/06 05:55:31  5-MIN KMKG 271055Z 13003KT 8SM CLR M06/M07 A3029 290 92 -2200 130/03 RMK AO2 SLP265 T10611072
14840KMKG MKG20060327060009503/27/06 06:00:31  5-MIN KMKG 271100Z 14003KT 8SM CLR M06/M07 A3029 290 92 -2100 150/03 RMK AO2
14840KMKG MKG20060327060509503/27/06 06:05:31  5-MIN KMKG 271105Z 13004KT 8SM CLR M04/M06 A3029 290 88 -2000 140/04 RMK AO2
14840KMKG MKG20060327061009503/27/06 06:10:31  5-MIN KMKG 271110Z 13004KT 8SM CLR M04/M06 A3029 290 92 -2000 130/04 RMK AO2
14840KMKG MKG20060327061509503/27/06 06:15:31  5-MIN KMKG 271115Z 00000KT 8SM CLR M04/M06 A3029 290 88 -2000 000/00 RMK AO2
14840KMKG MKG20060327062009503/27/06 06:20:31  5-MIN KMKG 271120Z 15003KT 8SM CLR M05/M06 A3029 290 92 -2000 150/03 RMK AO2
14840KMKG MKG20060327062509503/27/06 06:25:31  5-MIN KMKG 271125Z 00000KT 8SM CLR M04/M06 A3030 280 88 -2000 000/00 RMK AO2
14840KMKG MKG20060327063009503/27/06 06:30:31  5-MIN KMKG 271130Z 00000KT 8SM CLR M04/M06 A3030 280 88 -2000 000/00 RMK AO2
14840KMKG MKG20060327063509503/27/06 06:35:31  5-MIN KMKG 271135Z 00000KT 7SM CLR M05/M06 A3030 280 92 -2000 000/00 RMK AO2
14840KMKG MKG20060327064009503/27/06 06:40:31  5-MIN KMKG 271140Z 00000KT 7SM CLR M06/M07 A3031 280 92 -2100 000/00 RMK AO2
14840KMKG MKG20060327064509503/27/06 06:45:31  5-MIN KMKG 271145Z 00000KT 7SM CLR M05/M07 A3031 270 88 -2000 000/00 RMK AO2
14840KMKG MKG20060327065013003/27/06 06:50:31  5-MIN KMKG 271150Z 00000KT 7SM CLR M04/M07 A3031 270 84 -2000 000/00 RMK AO2 SLP272 T10441067 11028 21061 53002
14840KMKG MKG20060327065513003/27/06 06:55:31  5-MIN KMKG 271155Z 00000KT 7SM CLR M04/M06 A3031 270 88 -2000 000/00 RMK AO2 SLP272 T10441061 11028 21061 53002
14840KMKG MKG20060327070009803/27/06 07:00:31  5-MIN KMKG 271200Z 00000KT 6SM BR CLR M04/M06 A3031 270 88 -2000 000/00 RMK AO2
14840KMKG MKG20060327070509803/27/06 07:05:31  5-MIN KMKG 271205Z 00000KT 6SM BR CLR M04/M06 A3031 270 92 -2000 000/00 RMK AO2
14840KMKG MKG20060327071009503/27/06 07:10:31  5-MIN KMKG 271210Z 00000KT 7SM CLR M04/M06 A3031 270 92 -2000 000/00 RMK AO2
14840KMKG MKG20060327071509503/27/06 07:15:31  5-MIN KMKG 271215Z 00000KT 7SM CLR M04/M06 A3031 270 88 -1900 000/00 RMK AO2
14840KMKG MKG20060327072009503/27/06 07:20:31  5-MIN KMKG 271220Z 00000KT 7SM CLR M04/M06 A3031 270 88 -1900 000/00 RMK AO2
14840KMKG MKG20060327072509503/27/06 07:25:31  5-MIN KMKG 271225Z 00000KT 7SM CLR M03/M05 A3031 270 88 -1800 000/00 RMK AO2
14840KMKG MKG20060327073009803/27/06 07:30:31  5-MIN KMKG 271230Z 00000KT 6SM BR CLR M03/M05 A3031 270 88 -1800 000/00 RMK AO2
14840KMKG MKG20060327073509803/27/06 07:35:31  5-MIN KMKG 271235Z 00000KT 6SM BR CLR M03/M04 A3031 270 88 -1800 000/00 RMK AO2
14840KMKG MKG20060327074009803/27/06 07:40:31  5-MIN KMKG 271240Z 00000KT 6SM BR CLR M03/M04 A3031 270 92 -1800 000/00 RMK AO2
14840KMKG MKG20060327074509803/27/06 07:45:31  5-MIN KMKG 271245Z 00000KT 6SM BR CLR M02/M04 A3031 270 88 -1700 000/00 RMK AO2
14840KMKG MKG20060327075011503/27/06 07:50:31  5-MIN KMKG 271250Z 24003KT 6SM BR CLR M02/M03 A3031 270 92 -1700 250/03 RMK AO2 SLP273 T10221033
14840KMKG MKG20060327075511503/27/06 07:55:31  5-MIN KMKG 271255Z 00000KT 6SM BR CLR M02/M04 A3031 270 88 -1700 000/00 RMK AO2 SLP273 T10221039
14840KMKG MKG20060327080009503/27/06 08:00:31  5-MIN KMKG 271300Z 00000KT 7SM CLR M02/M03 A3031 270 88 -1600 000/00 RMK AO2
14840KMKG MKG20060327080509503/27/06 08:05:31  5-MIN KMKG 271305Z 00000KT 7SM CLR M02/M03 A3031 270 88 -1600 000/00 RMK AO2
14840KMKG MKG20060327081009503/27/06 08:10:31  5-MIN KMKG 271310Z 10004KT 8SM CLR M01/M03 A3031 280 85 -1500 110/04 RMK AO2
14840KMKG MKG20060327081509503/27/06 08:15:31  5-MIN KMKG 271315Z 11003KT 8SM CLR M01/M03 A3031 270 88 -1500 110/03 RMK AO2
14840KMKG MKG20060327082009503/27/06 08:20:31  5-MIN KMKG 271320Z 00000KT 8SM CLR M01/M03 A3031 270 85 -1500 000/00 RMK AO2
14840KMKG MKG20060327082509503/27/06 08:25:31  5-MIN KMKG 271325Z 12003KT 9SM CLR M01/M02 A3031 270 88 -1500 130/03 RMK AO2
14840KMKG MKG20060327083009403/27/06 08:30:31  5-MIN KMKG 271330Z 12003KT 9SM CLR 00/M02 A3031 270 85 -1400 130/03 RMK AO2
14840KMKG MKG20060327083509403/27/06 08:35:31  5-MIN KMKG 271335Z 14003KT 9SM CLR 01/M02 A3031 270 82 -1300 150/03 RMK AO2
14840KMKG MKG20060327084009403/27/06 08:40:31  5-MIN KMKG 271340Z 13004KT 9SM CLR 01/M02 A3031 270 78 -1300 130/04 RMK AO2
14840KMKG MKG20060327084509403/27/06 08:45:31  5-MIN KMKG 271345Z 11005KT 9SM CLR 01/M02 A3031 280 78 -1300 120/05 RMK AO2
14840KMKG MKG20060327085011203/27/06 08:50:31  5-MIN KMKG 271350Z 12005KT 10SM CLR 02/M02 A3030 280 78 -1200 120/05 RMK AO2 SLP270 T00171017
14840KMKG MKG20060327085511203/27/06 08:55:31  5-MIN KMKG 271355Z 12006KT 10SM CLR 02/M02 A3030 280 72 -1100 130/06 RMK AO2 SLP270 T00221022
14840KMKG MKG20060327090009503/27/06 09:00:31  5-MIN KMKG 271400Z 12006KT 10SM CLR 02/M03 A3031 280 69 -1100 130/06 RMK AO2
14840KMKG MKG20060327090509503/27/06 09:05:31  5-MIN KMKG 271405Z 12006KT 10SM CLR 02/M03 A3031 270 69 -1100 130/06 RMK AO2
14840KMKG MKG20060327091009503/27/06 09:10:31  5-MIN KMKG 271410Z 14006KT 10SM CLR 03/M03 A3031 270 67 -1100 140/06 RMK AO2
14840KMKG MKG20060327091509503/27/06 09:15:31  5-MIN KMKG 271415Z 16006KT 10SM CLR 03/M03 A3031 270 64 -1000 160/06 RMK AO2
14840KMKG MKG20060327092009503/27/06 09:20:31  5-MIN KMKG 271420Z 16006KT 10SM CLR 03/M03 A3031 270 61 -1000 170/06 RMK AO2
14840KMKG MKG20060327092509403/27/06 09:25:31  5-MIN KMKG 271425Z 14005KT 10SM CLR 04/M03 A3031 270 59 -900 140/05 RMK AO2
14840KMKG MKG20060327093009403/27/06 09:30:31  5-MIN KMKG 271430Z 16005KT 10SM CLR 04/M03 A3031 270 59 -900 170/05 RMK AO2
14840KMKG MKG20060327093509403/27/06 09:35:31  5-MIN KMKG 271435Z 14006KT 10SM CLR 04/M03 A3031 270 57 -900 150/06 RMK AO2
14840KMKG MKG20060327094009403/27/06 09:40:31  5-MIN KMKG 271440Z VRB05KT 10SM CLR 04/M04 A3031 270 55 -900 VRB/05 RMK AO2
14840KMKG MKG20060327094509403/27/06 09:45:31  5-MIN KMKG 271445Z VRB04KT 10SM CLR 05/M04 A3031 270 52 -800 VRB/04 RMK AO2
14840KMKG MKG20060327095011703/27/06 09:50:31  5-MIN KMKG 271450Z 20006KT 10SM CLR 05/M04 A3031 270 52 -800 200/06 RMK AO2 SLP270 T00501039 53002
14840KMKG MKG20060327095511703/27/06 09:55:31  5-MIN KMKG 271455Z VRB06KT 10SM CLR 05/M04 A3031 270 52 -800 VRB/06 RMK AO2 SLP271 T00501039 51001
14840KMKG MKG20060327100009403/27/06 10:00:31  5-MIN KMKG 271500Z VRB06KT 10SM CLR 05/M04 A3031 270 52 -800 VRB/06 RMK AO2
14840KMKG MKG20060327100509403/27/06 10:05:31  5-MIN KMKG 271505Z 20007KT 10SM CLR 06/M04 A3031 270 50 -700 200/07 RMK AO2
14840KMKG MKG20060327101009403/27/06 10:10:31  5-MIN KMKG 271510Z 19008KT 10SM CLR 06/M04 A3031 270 48 -700 190/08 RMK AO2
14840KMKG MKG20060327101509403/27/06 10:15:31  5-MIN KMKG 271515Z 19007KT 10SM CLR 06/M04 A3031 270 48 -700 200/07 RMK AO2
14840KMKG MKG20060327102009703/27/06 10:20:31  5-MIN KMKG 271520Z 19006KT 10SM FEW085 06/M05 A3031 270 46 -700 190/06 RMK AO2
14840KMKG MKG20060327102509703/27/06 10:25:31  5-MIN KMKG 271525Z 18008KT 10SM FEW085 06/M04 A3031 270 46 -600 180/08 RMK AO2
14840KMKG MKG20060327103009403/27/06 10:30:31  5-MIN KMKG 271530Z 19007KT 10SM CLR 06/M04 A3031 270 46 -600 190/07 RMK AO2
14840KMKG MKG20060327103509403/27/06 10:35:31  5-MIN KMKG 271535Z 17008KT 10SM CLR 06/M04 A3031 280 48 -700 170/08 RMK AO2
14840KMKG MKG20060327104009703/27/06 10:40:31  5-MIN KMKG 271540Z 17007KT 10SM FEW085 06/M04 A3030 280 48 -700 180/07 RMK AO2
14840KMKG MKG20060327104509703/27/06 10:45:31  5-MIN KMKG 271545Z 17005KT 10SM FEW085 06/M04 A3030 280 48 -600 170/05 RMK AO2
14840KMKG MKG20060327105011103/27/06 10:50:31  5-MIN KMKG 271550Z VRB06KT 10SM CLR 06/M04 A3030 280 46 -600 VRB/06 RMK AO2 SLP268 T00611044
14840KMKG MKG20060327105511403/27/06 10:55:31  5-MIN KMKG 271555Z 14006KT 10SM FEW085 06/M04 A3030 280 46 -600 150/06 RMK AO2 SLP268 T00611044
14840KMKG MKG20060327110011603/27/06 11:00:31  5-MIN KMKG 271600Z 18007G14KT 150V240 10SM CLR 07/M04 A3030 280 45 -600 180/07G14 150V240 RMK AO2
14840KMKG MKG20060327110510003/27/06 11:05:31  5-MIN KMKG 271605Z 20007G14KT 10SM CLR 06/M04 A3030 280 46 -600 200/07G14 RMK AO2
14840KMKG MKG20060327111009403/27/06 11:10:31  5-MIN KMKG 271610Z 20006KT 10SM CLR 06/M04 A3030 280 48 -700 200/06 RMK AO2
14840KMKG MKG20060327111509403/27/06 11:15:31  5-MIN KMKG 271615Z 21009KT 10SM CLR 07/M04 A3029 290 45 -600 210/09 RMK AO2
14840KMKG MKG20060327112009403/27/06 11:20:31  5-MIN KMKG 271620Z 22008KT 10SM CLR 07/M04 A3029 290 45 -600 230/08 RMK AO2
14840KMKG MKG20060327112509403/27/06 11:25:31  5-MIN KMKG 271625Z 23007KT 10SM CLR 07/M04 A3029 290 45 -600 240/07 RMK AO2
14840KMKG MKG20060327113009403/27/06 11:30:31  5-MIN KMKG 271630Z 23007KT 10SM CLR 07/M05 A3029 290 43 -600 230/07 RMK AO2
14840KMKG MKG20060327113509403/27/06 11:35:31  5-MIN KMKG 271635Z 21008KT 10SM CLR 07/M04 A3028 300 45 -500 210/08 RMK AO2
14840KMKG MKG20060327114009403/27/06 11:40:31  5-MIN KMKG 271640Z VRB06KT 10SM CLR 07/M04 A3028 300 43 -500 VRB/06 RMK AO2
14840KMKG MKG20060327114510003/27/06 11:45:31  5-MIN KMKG 271645Z 23012G15KT 10SM CLR 07/M04 A3028 300 43 -500 240/12G15 RMK AO2
14840KMKG MKG20060327115011703/27/06 11:50:31  5-MIN KMKG 271650Z 24007G15KT 10SM CLR 07/M04 A3028 300 43 -500 240/07G15 RMK AO2 SLP260 T00721044
14840KMKG MKG20060327115511403/27/06 11:55:31  5-MIN KMKG 271655Z 20009KT 10SM FEW080 08/M04 A3028 300 41 -400 200/09 RMK AO2 SLP259 T00781044
14840KMKG MKG20060327120009103/27/06 12:00:31  5-MIN KMKG 271700Z 22010KT CLR 07/M05 A3028 300 41 -500 220/10 RMK AO2 $
14840KMKG MKG20060327120509103/27/06 12:05:31  5-MIN KMKG 271705Z 22011KT CLR 08/M05 A3028 300 40 -400 220/11 RMK AO2 $
14840KMKG MKG20060327121009103/27/06 12:10:31  5-MIN KMKG 271710Z 21009KT CLR 08/M05 A3027 300 40 -400 220/09 RMK AO2 $
14840KMKG MKG20060327121509103/27/06 12:15:31  5-MIN KMKG 271715Z 22011KT CLR 07/M05 A3027 310 41 -500 230/11 RMK AO2 $
14840KMKG MKG20060327122009103/27/06 12:20:31  5-MIN KMKG 271720Z 20009KT CLR 07/M06 A3027 310 40 -500 210/09 RMK AO2 $
14840KMKG MKG20060327122509103/27/06 12:25:31  5-MIN KMKG 271725Z 19007KT CLR 08/M06 A3027 310 36 -400 190/07 RMK AO2 $
14840KMKG MKG20060327123009103/27/06 12:30:31  5-MIN KMKG 271730Z 18007KT CLR 07/M06 A3027 310 38 -500 180/07 RMK AO2 $
14840KMKG MKG20060327123509103/27/06 12:35:31  5-MIN KMKG 271735Z VRB05KT CLR 08/M06 A3026 310 38 -400 VRB/05 RMK AO2 $
14840KMKG MKG20060327124009103/27/06 12:40:31  5-MIN KMKG 271740Z 20009KT CLR 08/M06 A3026 320 38 -400 200/09 RMK AO2 $
14840KMKG MKG20060327124508103/27/06 12:45:31  5-MIN KMKG 271745Z CLR 08/M06 A3026 320 38 -400 M /M RMK AO2 $
14840KMKG MKG20060327125011603/27/06 12:50:31  5-MIN KMKG 271750Z CLR 08/M06 A3025 320 38 -400 M /M RMK AO2 SLP251 T00781056 10078 21050 51001 $
14840KMKG MKG20060327125513103/27/06 12:55:31  5-MIN KMKG 271755Z 21010KT 10SM CLR 08/M06 A3025 320 37 -300 210/10 RMK AO2 SLP251 T00831056 10083 21050 58019 $
14840KMKG MKG20060327130008103/27/06 13:00:31  5-MIN KMKG 271800Z CLR 08/M06 A3025 330 37 -300 M /M RMK AO2 $
14840KMKG MKG20060327130508103/27/06 13:05:31  5-MIN KMKG 271805Z CLR 08/M05 A3025 330 38 -300 M /M RMK AO2 $
14840KMKG MKG20060327131008103/27/06 13:10:31  5-MIN KMKG 271810Z CLR 08/M06 A3025 330 37 -300 M /M RMK AO2 $
14840KMKG MKG20060327131508103/27/06 13:15:31  5-MIN KMKG 271815Z CLR 08/M06 A3025 330 37 -300 M /M RMK AO2 $
14840KMKG MKG20060327132008103/27/06 13:20:31  5-MIN KMKG 271820Z CLR 08/M06 A3025 330 37 -300 M /M RMK AO2 $
14840KMKG MKG20060327132508103/27/06 13:25:31  5-MIN KMKG 271825Z CLR 08/M06 A3024 330 37 -300 M /M RMK AO2 $
14840KMKG MKG20060327133008403/27/06 13:30:31  5-MIN KMKG 271830Z FEW090 08/M06 A3024 330 37 -300 M /M RMK AO2 $
14840KMKG MKG20060327133511003/27/06 13:35:31  5-MIN KMKG 271835Z 19008KT 160V360 FEW090 08/M06 A3024 340 37 -300 190/08 160V360 RMK AO2 $
14840KMKG MKG20060327134010703/27/06 13:40:31  5-MIN KMKG 271840Z 19008KT 160V360 CLR 08/M06 A3024 340 37 -300 190/08 160V360 RMK AO2 $
14840KMKG MKG20060327134509103/27/06 13:45:31  5-MIN KMKG 271845Z 22012KT CLR 09/M06 A3023 340 35 -200 230/12 RMK AO2 $
14840KMKG MKG20060327135011603/27/06 13:50:31  5-MIN KMKG 271850Z 22009KT 10SM FEW090 09/M06 A3023 340 35 -200 220/09 RMK AO2 SLP243 T00891056 $
14840KMKG MKG20060327135511603/27/06 13:55:31  5-MIN KMKG 271855Z 20010KT 10SM FEW090 09/M06 A3023 350 35 -200 210/10 RMK AO2 SLP242 T00891056 $
14840KMKG MKG20060327140008703/27/06 14:00:31  5-MIN KMKG 271900Z 22008KT 09/M06 A3023 350 35 -200 230/08 RMK AO2 $
14840KMKG MKG20060327140508703/27/06 14:05:31  5-MIN KMKG 271905Z 25010KT 09/M05 A3023 350 37 -200 250/10 RMK AO2 $
14840KMKG MKG20060327141008703/27/06 14:10:31  5-MIN KMKG 271910Z 24009KT 08/M05 A3022 350 38 -300 240/09 RMK AO2 $
14840KMKG MKG20060327141508703/27/06 14:15:31  5-MIN KMKG 271915Z 24009KT 08/M05 A3022 350 38 -300 250/09 RMK AO2 $
14840KMKG MKG20060327142008703/27/06 14:20:31  5-MIN KMKG 271920Z 23010KT 09/M05 A3022 350 37 -200 240/10 RMK AO2 $
14840KMKG MKG20060327142508703/27/06 14:25:31  5-MIN KMKG 271925Z 23010KT 08/M05 A3022 350 38 -300 230/10 RMK AO2 $
14840KMKG MKG20060327143008703/27/06 14:30:31  5-MIN KMKG 271930Z 23010KT 08/M04 A3022 360 40 -300 240/10 RMK AO2 $
14840KMKG MKG20060327143508703/27/06 14:35:31  5-MIN KMKG 271935Z 24010KT 08/M04 A3022 360 40 -300 240/10 RMK AO2 $
14840KMKG MKG20060327144008703/27/06 14:40:31  5-MIN KMKG 271940Z 23010KT 08/M04 A3021 360 40 -300 240/10 RMK AO2 $
14840KMKG MKG20060327144508703/27/06 14:45:31  5-MIN KMKG 271945Z 24010KT 08/M05 A3021 360 38 -300 240/10 RMK AO2 $
14840KMKG MKG20060327145010403/27/06 14:50:31  5-MIN KMKG 271950Z 22010KT 09/M04 A3021 360 38 -200 230/10 RMK AO2 SLP236 T00891044 $
14840KMKG MKG20060327145511603/27/06 14:55:31  5-MIN KMKG 271955Z 24011KT 10SM FEW070 08/M05 A3021 360 38 -300 250/11 RMK AO2 SLP236 T00831050 $
14840KMKG MKG20060327150008703/27/06 15:00:31  5-MIN KMKG 272000Z 24010KT 08/M05 A3021 360 38 -300 250/10 RMK AO2 $
14840KMKG MKG20060327150510703/27/06 15:05:31  5-MIN KMKG 272005Z 23010KT 10SM CLR 08/M05 A3021 370 38 -300 240/10 RMK AO2 CHINO RWY 14
14840KMKG MKG20060327151010703/27/06 15:10:31  5-MIN KMKG 272010Z 27008KT 10SM CLR 08/M05 A3020 370 38 -300 270/08 RMK AO2 CHINO RWY 14
14840KMKG MKG20060327151510703/27/06 15:15:31  5-MIN KMKG 272015Z 26008KT 10SM CLR 08/M05 A3020 370 40 -300 260/08 RMK AO2 CHINO RWY 14
14840KMKG MKG20060327152010703/27/06 15:20:31  5-MIN KMKG 272020Z 25009KT 10SM CLR 08/M05 A3020 370 40 -300 250/09 RMK AO2 CHINO RWY 14
14840KMKG MKG20060327152510703/27/06 15:25:31  5-MIN KMKG 272025Z 24009KT 10SM CLR 08/M05 A3020 370 40 -300 250/09 RMK AO2 CHINO RWY 14
14840KMKG MKG20060327153009403/27/06 15:30:31  5-MIN KMKG 272030Z 26009KT 10SM CLR 07/M05 A3020 370 41 -400 270/09 RMK AO2
14840KMKG MKG20060327153509403/27/06 15:35:31  5-MIN KMKG 272035Z 26006KT 10SM CLR 07/M05 A3020 370 41 -400 260/06 RMK AO2
14840KMKG MKG20060327154009403/27/06 15:40:31  5-MIN KMKG 272040Z 27008KT 10SM CLR 08/M05 A3020 380 40 -300 270/08 RMK AO2
14840KMKG MKG20060327154509403/27/06 15:45:31  5-MIN KMKG 272045Z 25009KT 10SM CLR 08/M05 A3020 380 40 -300 260/09 RMK AO2
14840KMKG MKG20060327155011703/27/06 15:50:31  5-MIN KMKG 272050Z 26007KT 10SM CLR 08/M05 A3019 380 40 -300 270/07 RMK AO2 SLP231 T00781050 58019
14840KMKG MKG20060327155511703/27/06 15:55:31  5-MIN KMKG 272055Z 27007KT 10SM CLR 08/M05 A3019 380 40 -300 270/07 RMK AO2 SLP231 T00781050 56020
14840KMKG MKG20060327160009403/27/06 16:00:31  5-MIN KMKG 272100Z 26007KT 10SM CLR 08/M05 A3019 380 40 -300 260/07 RMK AO2
14840KMKG MKG20060327160509403/27/06 16:05:31  5-MIN KMKG 272105Z 27007KT 10SM CLR 08/M05 A3019 380 40 -300 280/07 RMK AO2
14840KMKG MKG20060327161009403/27/06 16:10:31  5-MIN KMKG 272110Z 27007KT 10SM CLR 08/M05 A3019 380 40 -300 280/07 RMK AO2
14840KMKG MKG20060327161509403/27/06 16:15:31  5-MIN KMKG 272115Z 29007KT 10SM CLR 08/M05 A3019 390 40 -300 290/07 RMK AO2
14840KMKG MKG20060327162009403/27/06 16:20:31  5-MIN KMKG 272120Z 26006KT 10SM CLR 07/M05 A3018 390 41 -400 260/06 RMK AO2
14840KMKG MKG20060327162509403/27/06 16:25:31  5-MIN KMKG 272125Z 25006KT 10SM CLR 07/M06 A3018 390 40 -400 250/06 RMK AO2
14840KMKG MKG20060327163009403/27/06 16:30:31  5-MIN KMKG 272130Z 25006KT 10SM CLR 07/M05 A3018 390 41 -400 250/06 RMK AO2
14840KMKG MKG20060327163509403/27/06 16:35:31  5-MIN KMKG 272135Z 25006KT 10SM CLR 07/M06 A3018 390 40 -400 250/06 RMK AO2
14840KMKG MKG20060327164009403/27/06 16:40:31  5-MIN KMKG 272140Z 26005KT 10SM CLR 07/M06 A3018 390 40 -400 260/05 RMK AO2
14840KMKG MKG20060327164509403/27/06 16:45:31  5-MIN KMKG 272145Z 29005KT 10SM CLR 07/M05 A3018 390 41 -400 300/05 RMK AO2
14840KMKG MKG20060327165011103/27/06 16:50:31  5-MIN KMKG 272150Z 28004KT 10SM CLR 07/M05 A3018 390 41 -400 280/04 RMK AO2 SLP226 T00721050
14840KMKG MKG20060327165511103/27/06 16:55:31  5-MIN KMKG 272155Z 29004KT 10SM CLR 07/M05 A3018 390 41 -400 290/04 RMK AO2 SLP225 T00721050
14840KMKG MKG20060327170009403/27/06 17:00:31  5-MIN KMKG 272200Z 28003KT 10SM CLR 07/M05 A3018 400 41 -400 280/03 RMK AO2
14840KMKG MKG20060327170509403/27/06 17:05:31  5-MIN KMKG 272205Z 29003KT 10SM CLR 07/M05 A3017 400 41 -400 290/03 RMK AO2
14840KMKG MKG20060327171009403/27/06 17:10:31  5-MIN KMKG 272210Z 30003KT 10SM CLR 07/M05 A3017 400 41 -400 300/03 RMK AO2
14840KMKG MKG20060327171509403/27/06 17:15:31  5-MIN KMKG 272215Z 00000KT 10SM CLR 07/M06 A3017 400 40 -400 000/00 RMK AO2
14840KMKG MKG20060327172009703/27/06 17:20:31  5-MIN KMKG 272220Z 00000KT 10SM FEW120 07/M05 A3017 400 41 -300 000/00 RMK AO2
14840KMKG MKG20060327172509703/27/06 17:25:31  5-MIN KMKG 272225Z 00000KT 10SM FEW120 07/M06 A3017 400 40 -300 000/00 RMK AO2
14840KMKG MKG20060327173009703/27/06 17:30:31  5-MIN KMKG 272230Z 00000KT 10SM FEW120 07/M05 A3017 400 41 -300 000/00 RMK AO2
14840KMKG MKG20060327173509703/27/06 17:35:31  5-MIN KMKG 272235Z 00000KT 10SM FEW120 07/M06 A3017 400 40 -300 000/00 RMK AO2
14840KMKG MKG20060327174009703/27/06 17:40:31  5-MIN KMKG 272240Z 00000KT 10SM FEW095 07/M05 A3016 400 41 -300 000/00 RMK AO2
14840KMKG MKG20060327174510403/27/06 17:45:31  5-MIN KMKG 272245Z 00000KT 10SM FEW090 SCT120 07/M05 A3016 410 41 -300 000/00 RMK AO2
14840KMKG MKG20060327175011403/27/06 17:50:31  5-MIN KMKG 272250Z 00000KT 10SM SCT090 07/M05 A3016 410 41 -300 000/00 RMK AO2 SLP221 T00721050
14840KMKG MKG20060327175511403/27/06 17:55:31  5-MIN KMKG 272255Z 00000KT 10SM SCT090 07/M05 A3016 410 41 -300 000/00 RMK AO2 SLP221 T00721050
14840KMKG MKG20060327180009703/27/06 18:00:31  5-MIN KMKG 272300Z 00000KT 10SM FEW085 07/M04 A3016 410 43 -300 000/00 RMK AO2
14840KMKG MKG20060327180509703/27/06 18:05:31  5-MIN KMKG 272305Z 03004KT 10SM FEW085 07/M04 A3016 410 43 -300 040/04 RMK AO2
14840KMKG MKG20060327181010403/27/06 18:10:31  5-MIN KMKG 272310Z 00000KT 10SM FEW085 SCT120 07/M05 A3015 410 41 -300 000/00 RMK AO2
14840KMKG MKG20060327181510403/27/06 18:15:31  5-MIN KMKG 272315Z 00000KT 10SM FEW085 SCT110 07/M04 A3015 420 43 -300 000/00 RMK AO2
14840KMKG MKG20060327182010403/27/06 18:20:31  5-MIN KMKG 272320Z 08004KT 10SM FEW090 SCT110 07/M04 A3015 420 43 -300 080/04 RMK AO2
14840KMKG MKG20060327182510403/27/06 18:25:31  5-MIN KMKG 272325Z 07004KT 10SM FEW085 SCT110 07/M04 A3015 420 43 -300 070/04 RMK AO2
14840KMKG MKG20060327183010403/27/06 18:30:31  5-MIN KMKG 272330Z 07003KT 10SM FEW090 SCT110 07/M04 A3015 420 43 -300 070/03 RMK AO2
14840KMKG MKG20060327183510403/27/06 18:35:31  5-MIN KMKG 272335Z 07005KT 10SM SCT095 BKN110 07/M04 A3015 420 45 -300 080/05 RMK AO2
14840KMKG MKG20060327184009703/27/06 18:40:31  5-MIN KMKG 272340Z 07005KT 10SM BKN095 07/M04 A3014 420 43 -300 070/05 RMK AO2
14840KMKG MKG20060327184510403/27/06 18:45:31  5-MIN KMKG 272345Z 07005KT 10SM BKN100 BKN120 07/M04 A3014 420 45 -300 080/05 RMK AO2
14840KMKG MKG20060327185015403/27/06 18:50:31  5-MIN KMKG 272350Z 07005KT 10SM SCT100 BKN120 07/M04 A3014 430 45 -400 080/05 RMK AO2 CIG 100 RWY 14 SLP214 T00671044 10094 20067 56020
14840KMKG MKG20060327185513203/27/06 18:55:31  5-MIN KMKG 272355Z 07005KT 10SM OVC110 07/M04 A3014 430 45 -400 080/05 RMK AO2 SLP214 T00671044 10094 20067 58017
14840KMKG MKG20060327190009703/27/06 19:00:31  5-MIN KMKG 280000Z 07005KT 10SM OVC110 07/M04 A3014 430 47 -400 080/05 RMK AO2
14840KMKG MKG20060327190509703/27/06 19:05:31  5-MIN KMKG 280005Z 08004KT 10SM OVC110 07/M04 A3014 430 47 -400 080/04 RMK AO2
14840KMKG MKG20060327191009703/27/06 19:10:31  5-MIN KMKG 280010Z 07004KT 10SM OVC110 07/M04 A3014 430 47 -400 070/04 RMK AO2
14840KMKG MKG20060327191509703/27/06 19:15:31  5-MIN KMKG 280015Z 06004KT 10SM OVC110 06/M04 A3014 430 48 -500 070/04 RMK AO2
14840KMKG MKG20060327192009703/27/06 19:20:31  5-MIN KMKG 280020Z 07004KT 10SM OVC110 07/M04 A3014 430 47 -400 070/04 RMK AO2
14840KMKG MKG20060327192509703/27/06 19:25:31  5-MIN KMKG 280025Z 07004KT 10SM OVC110 07/M04 A3014 430 47 -400 080/04 RMK AO2
14840KMKG MKG20060327193009703/27/06 19:30:31  5-MIN KMKG 280030Z 06005KT 10SM BKN110 06/M04 A3014 430 48 -400 060/05 RMK AO2
14840KMKG MKG20060327193509703/27/06 19:35:31  5-MIN KMKG 280035Z 07005KT 10SM BKN120 06/M04 A3014 430 48 -400 070/05 RMK AO2
14840KMKG MKG20060327194009703/27/06 19:40:31  5-MIN KMKG 280040Z 07005KT 10SM OVC120 06/M04 A3014 430 48 -400 070/05 RMK AO2
14840KMKG MKG20060327194509703/27/06 19:45:31  5-MIN KMKG 280045Z 06005KT 10SM OVC110 06/M04 A3013 430 48 -400 070/05 RMK AO2
14840KMKG MKG20060327195011403/27/06 19:50:31  5-MIN KMKG 280050Z 06006KT 10SM OVC110 07/M04 A3013 430 47 -400 070/06 RMK AO2 SLP211 T00671039
14840KMKG MKG20060327195511403/27/06 19:55:31  5-MIN KMKG 280055Z 07005KT 10SM OVC110 06/M04 A3013 430 48 -400 070/05 RMK AO2 SLP210 T00611039
14840KMKG MKG20060327200009703/27/06 20:00:31  5-MIN KMKG 280100Z 07005KT 10SM OVC110 06/M04 A3013 440 48 -400 080/05 RMK AO2
14840KMKG MKG20060327200509703/27/06 20:05:31  5-MIN KMKG 280105Z 07005KT 10SM OVC110 06/M04 A3013 440 48 -400 070/05 RMK AO2
14840KMKG MKG20060327201009703/27/06 20:10:31  5-MIN KMKG 280110Z 07005KT 10SM OVC110 06/M04 A3013 440 48 -400 080/05 RMK AO2
14840KMKG MKG20060327201509703/27/06 20:15:31  5-MIN KMKG 280115Z 07006KT 10SM OVC120 06/M04 A3013 440 48 -400 070/06 RMK AO2
14840KMKG MKG20060327202009703/27/06 20:20:31  5-MIN KMKG 280120Z 07006KT 10SM OVC120 06/M04 A3013 440 48 -400 070/06 RMK AO2
14840KMKG MKG20060327202509703/27/06 20:25:31  5-MIN KMKG 280125Z 07006KT 10SM OVC120 06/M04 A3013 440 48 -400 070/06 RMK AO2
14840KMKG MKG20060327203009703/27/06 20:30:31  5-MIN KMKG 280130Z 07005KT 10SM OVC120 06/M04 A3013 430 46 -400 070/05 RMK AO2
14840KMKG MKG20060327203509703/27/06 20:35:31  5-MIN KMKG 280135Z 07005KT 10SM OVC120 06/M04 A3013 430 48 -400 070/05 RMK AO2
14840KMKG MKG20060327204009703/27/06 20:40:31  5-MIN KMKG 280140Z 07005KT 10SM OVC110 06/M04 A3013 430 48 -400 080/05 RMK AO2
14840KMKG MKG20060327204509703/27/06 20:45:31  5-MIN KMKG 280145Z 07006KT 10SM OVC110 06/M04 A3013 430 46 -400 080/06 RMK AO2
14840KMKG MKG20060327205011403/27/06 20:50:31  5-MIN KMKG 280150Z 07005KT 10SM OVC110 06/M04 A3013 430 46 -400 080/05 RMK AO2 SLP210 T00611044
14840KMKG MKG20060327205511403/27/06 20:55:31  5-MIN KMKG 280155Z 08005KT 10SM OVC110 06/M04 A3013 430 46 -400 080/05 RMK AO2 SLP210 T00611044
14840KMKG MKG20060327210010403/27/06 21:00:31  5-MIN KMKG 280200Z 07006KT 10SM BKN100 OVC120 06/M04 A3013 430 48 -400 070/06 RMK AO2
14840KMKG MKG20060327210509703/27/06 21:05:31  5-MIN KMKG 280205Z 07006KT 10SM OVC095 06/M04 A3013 430 46 -400 070/06 RMK AO2
14840KMKG MKG20060327211010403/27/06 21:10:31  5-MIN KMKG 280210Z 07006KT 10SM SCT075 OVC100 06/M04 A3013 430 46 -400 070/06 RMK AO2
14840KMKG MKG20060327211510403/27/06 21:15:31  5-MIN KMKG 280215Z 07006KT 10SM BKN070 OVC100 06/M04 A3013 430 46 -400 070/06 RMK AO2
14840KMKG MKG20060327212010403/27/06 21:20:31  5-MIN KMKG 280220Z 07005KT 10SM BKN070 OVC100 06/M04 A3013 430 46 -400 070/05 RMK AO2
14840KMKG MKG20060327212509703/27/06 21:25:31  5-MIN KMKG 280225Z 07005KT 10SM OVC070 06/M04 A3014 430 48 -400 070/05 RMK AO2
14840KMKG MKG20060327213010403/27/06 21:30:31  5-MIN KMKG 280230Z 07004KT 10SM BKN065 OVC100 06/M04 A3014 430 48 -400 070/04 RMK AO2
14840KMKG MKG20060327213511103/27/06 21:35:31  5-MIN KMKG 280235Z 07004KT 10SM BKN060 BKN080 OVC100 06/M04 A3014 430 48 -400 070/04 RMK AO2
14840KMKG MKG20060327214011103/27/06 21:40:31  5-MIN KMKG 280240Z 07004KT 10SM BKN060 BKN080 OVC100 06/M04 A3014 430 48 -400 080/04 RMK AO2
14840KMKG MKG20060327214510403/27/06 21:45:31  5-MIN KMKG 280245Z 07004KT 10SM BKN060 OVC080 06/M04 A3014 430 48 -400 080/04 RMK AO2
14840KMKG MKG20060327215012703/27/06 21:50:31  5-MIN KMKG 280250Z 07004KT 10SM BKN060 OVC100 06/M04 A3014 430 48 -400 070/04 RMK AO2 SLP210 T00611039 58017
14840KMKG MKG20060327215512703/27/06 21:55:31  5-MIN KMKG 280255Z 07005KT 10SM BKN055 OVC100 06/M04 A3014 430 48 -400 070/05 RMK AO2 SLP210 T00611039 55001
14840KMKG MKG20060327220009703/27/06 22:00:31  5-MIN KMKG 280300Z 22005KT 10SM BKN055 06/M04 A3014 430 48 -500 220/05 RMK AO2
14840KMKG MKG20060327220509703/27/06 22:05:31  5-MIN KMKG 280305Z 15004KT 10SM BKN055 06/M04 A3014 430 46 -500 150/04 RMK AO2
14840KMKG MKG20060327221010403/27/06 22:10:31  5-MIN KMKG 280310Z 12005KT 10SM BKN055 BKN085 06/M04 A3014 430 46 -500 130/05 RMK AO2
14840KMKG MKG20060327221510403/27/06 22:15:31  5-MIN KMKG 280315Z VRB03KT 10SM BKN055 BKN085 06/M04 A3014 430 46 -500 VRB/03 RMK AO2
14840KMKG MKG20060327222011103/27/06 22:20:31  5-MIN KMKG 280320Z 21004KT 10SM SCT047 BKN055 BKN085 06/M04 A3014 420 50 -500 210/04 RMK AO2
14840KMKG MKG20060327222512603/27/06 22:25:31  5-MIN KMKG 280325Z 19004KT 10SM FEW043 SCT055 BKN085 06/M04 A3014 420 48 -500 190/04 RMK AO2 CIG 070 RWY 14
14840KMKG MKG20060327223012603/27/06 22:30:31  5-MIN KMKG 280330Z 22005KT 10SM FEW045 SCT055 BKN080 06/M03 A3015 420 53 -500 220/05 RMK AO2 CIG 060 RWY 14
14840KMKG MKG20060327223512603/27/06 22:35:31  5-MIN KMKG 280335Z 21006KT 10SM SCT047 SCT055 BKN080 06/M03 A3015 420 53 -500 210/06 RMK AO2 CIG 055 RWY 14
14840KMKG MKG20060327224011103/27/06 22:40:31  5-MIN KMKG 280340Z 21008KT 10SM FEW039 BKN050 BKN080 06/M03 A3015 420 53 -500 210/08 RMK AO2
14840KMKG MKG20060327224510403/27/06 22:45:31  5-MIN KMKG 280345Z 21008KT 10SM BKN050 BKN075 06/M03 A3015 420 51 -500 210/08 RMK AO2
14840KMKG MKG20060327225012803/27/06 22:50:31  5-MIN KMKG 280350Z 21006KT 10SM FEW043 BKN050 BKN075 06/M03 A3015 420 53 -500 220/06 RMK AO2 SLP214 T00561033
14840KMKG MKG20060327225512803/27/06 22:55:31  5-MIN KMKG 280355Z 20005KT 10SM FEW043 BKN050 BKN070 06/M03 A3015 420 53 -500 200/05 RMK AO2 SLP213 T00561033
14840KMKG MKG20060327230011903/27/06 23:00:31  5-MIN KMKG 280400Z 19005KT 10SM SCT050 OVC075 06/M03 A3015 420 55 -500 200/05 RMK AO2 CIG 048 RWY 14
14840KMKG MKG20060327230511103/27/06 23:05:31  5-MIN KMKG 280405Z 19005KT 10SM FEW050 BKN075 OVC100 06/M03 A3015 420 55 -500 190/05 RMK AO2
14840KMKG MKG20060327231011103/27/06 23:10:31  5-MIN KMKG 280410Z 19003KT 10SM FEW050 BKN075 OVC100 06/M03 A3015 420 53 -500 190/03 RMK AO2
14840KMKG MKG20060327231510403/27/06 23:15:31  5-MIN KMKG 280415Z 19005KT 10SM SCT075 BKN100 06/M02 A3015 420 57 -500 200/05 RMK AO2
14840KMKG MKG20060327232010403/27/06 23:20:31  5-MIN KMKG 280420Z 19004KT 10SM SCT075 OVC100 06/M02 A3015 420 59 -500 190/04 RMK AO2
14840KMKG MKG20060327232510403/27/06 23:25:31  5-MIN KMKG 280425Z 19006KT 10SM FEW075 OVC100 06/M02 A3015 420 59 -500 190/06 RMK AO2
14840KMKG MKG20060327233010403/27/06 23:30:31  5-MIN KMKG 280430Z 18008KT 10SM SCT070 OVC100 06/M01 A3015 420 62 -500 180/08 RMK AO2
14840KMKG MKG20060327233510403/27/06 23:35:31  5-MIN KMKG 280435Z 18008KT 10SM BKN070 OVC100 06/M01 A3015 420 62 -500 180/08 RMK AO2
14840KMKG MKG20060327234010303/27/06 23:40:31  5-MIN KMKG 280440Z 18006KT 10SM BKN070 OVC100 06/00 A3015 420 67 -500 180/06 RMK AO2
14840KMKG MKG20060327234509603/27/06 23:45:31  5-MIN KMKG 280445Z 18009KT 10SM BKN070 06/00 A3015 420 67 -500 180/09 RMK AO2
14840KMKG MKG20060327235013003/27/06 23:50:31  5-MIN KMKG 280450Z 17007KT 10SM FEW036 OVC070 06/00 A3015 420 65 -500 180/07 RMK AO2 SLP213 T00610000 400941061
14840KMKG MKG20060327235513703/27/06 23:55:31  5-MIN KMKG 280455Z 18007KT 10SM FEW036 SCT048 OVC070 06/00 A3015 420 67 -500 180/07 RMK AO2 SLP212 T00560000 400941061
14840KMKG MKG20060328000011003/28/06 00:00:32  5-MIN KMKG 280500Z 15006KT 10SM FEW039 BKN050 OVC070 06/00 A3015 420 67 -500 160/06 RMK AO2
14840KMKG MKG20060328000511003/28/06 00:05:31  5-MIN KMKG 280505Z 16006KT 10SM SCT039 BKN050 OVC070 06/01 A3015 420 70 -500 160/06 RMK AO2
14840KMKG MKG20060328001012603/28/06 00:10:31  5-MIN KMKG 280510Z 16005KT 10SM -RA BKN035 BKN050 OVC070 06/01 A3015 420 70 -500 160/05 RMK AO2 RAB09 P0000
14840KMKG MKG20060328001512103/28/06 00:15:31  5-MIN KMKG 280515Z 14008KT 10SM -RA BKN035 OVC047 06/01 A3014 420 70 -500 140/08 RMK AO2 RAB09 P0000 $
14840KMKG MKG20060328002014803/28/06 00:20:31  5-MIN KMKG 280520Z 15008KT 9SM -RA SCT035 OVC045 05/01 A3014 420 76 -600 150/08 RMK AO2 RAB09 CIG 035 RWY 14 P0000 VISNO RWY 14 $
14840KMKG MKG20060328002514803/28/06 00:25:31  5-MIN KMKG 280525Z 14006KT 9SM -RA SCT035 OVC047 05/01 A3014 430 76 -600 150/06 RMK AO2 RAB09 CIG 035 RWY 14 P0000 VISNO RWY 14 $
14840KMKG MKG20060328003014803/28/06 00:30:31  5-MIN KMKG 280530Z 13008KT 8SM -RA SCT033 OVC047 05/02 A3014 430 79 -600 140/08 RMK AO2 RAB09 CIG 035 RWY 14 P0000 VISNO RWY 14 $
14840KMKG MKG20060328003514803/28/06 00:35:31  5-MIN KMKG 280535Z 13007KT 8SM -RA SCT029 OVC047 04/02 A3014 430 82 -700 140/07 RMK AO2 RAB09 CIG 033 RWY 14 P0000 VISNO RWY 14 $
14840KMKG MKG20060328004014803/28/06 00:40:31  5-MIN KMKG 280540Z 13006KT 8SM -RA BKN045 OVC100 04/02 A3014 430 82 -700 130/06 RMK AO2 RAB09 CIG 036 RWY 14 P0000 VISNO RWY 14 $
14840KMKG MKG20060328004515503/28/06 00:45:31  5-MIN KMKG 280545Z 12006KT 8SM -RA SCT047 BKN055 OVC100 04/02 A3014 430 82 -700 130/06 RMK AO2 RAB09 CIG 040 RWY 14 P0000 VISNO RWY 14 $
14840KMKG MKG20060328005019603/28/06 00:50:31  5-MIN KMKG 280550Z 12005KT 8SM -RA SCT047 BKN060 OVC095 04/02 A3014 430 85 -700 120/05 RMK AO2 RAB09 CIG 042 RWY 14 SLP210 P0000 60000 T00440022 10067 20044 55001 VISNO RWY 14 $
14840KMKG MKG20060328005519503/28/06 00:55:31  5-MIN KMKG 280555Z 12005KT 8SM FEW045 SCT060 OVC100 04/02 A3014 430 85 -700 120/05 RMK AO2 RAB09E54 CIG 042 RWY 14 SLP209 P0000 60000 T00440022 10067 20044 58000 VISNO RWY 14 $
14840KMKG MKG20060328010014803/28/06 01:00:31  5-MIN KMKG 280600Z 12006KT 7SM -RA SCT070 OVC100 04/02 A3014 430 85 -700 120/06 RMK AO2 RAB00 CIG 042 RWY 14 P0000 VISNO RWY 14 $
14840KMKG MKG20060328010514803/28/06 01:05:31  5-MIN KMKG 280605Z 12005KT 7SM -RA FEW070 OVC095 04/02 A3014 430 85 -700 120/05 RMK AO2 RAB00 CIG 070 RWY 14 P0000 VISNO RWY 14 $
14840KMKG MKG20060328011014803/28/06 01:10:31  5-MIN KMKG 280610Z 12006KT 7SM -RA SCT070 OVC095 04/02 A3014 430 85 -700 120/06 RMK AO2 RAB00 CIG 070 RWY 14 P0000 VISNO RWY 14 $
14840KMKG MKG20060328011513303/28/06 01:15:31  5-MIN KMKG 280615Z 11006KT 7SM -RA BKN070 OVC095 04/02 A3014 430 85 -700 110/06 RMK AO2 RAB00 P0000 VISNO RWY 14 $
14840KMKG MKG20060328012013303/28/06 01:20:31  5-MIN KMKG 280620Z 10005KT 7SM -RA BKN070 OVC095 04/02 A3013 430 85 -700 100/05 RMK AO2 RAB00 P0000 VISNO RWY 14 $
14840KMKG MKG20060328012512603/28/06 01:25:31  5-MIN KMKG 280625Z 10005KT 7SM -RA OVC070 04/02 A3013 430 85 -700 110/05 RMK AO2 RAB00 P0000 VISNO RWY 14 $
14840KMKG MKG20060328013012603/28/06 01:30:31  5-MIN KMKG 280630Z 10006KT 7SM -RA OVC070 04/02 A3013 430 85 -600 110/06 RMK AO2 RAB00 P0000 VISNO RWY 14 $
14840KMKG MKG20060328013512503/28/06 01:35:31  5-MIN KMKG 280635Z 10005KT 7SM OVC065 04/02 A3013 440 89 -700 110/05 RMK AO2 RAB00E34 P0000 VISNO RWY 14 $
14840KMKG MKG20060328014012903/28/06 01:40:31  5-MIN KMKG 280640Z 10005KT 6SM -RA BR OVC065 04/02 A3013 440 89 -700 110/05 RMK AO2 RAB00 P0000 VISNO RWY 14 $
14840KMKG MKG20060328014513603/28/06 01:45:31  5-MIN KMKG 280645Z 11006KT 6SM -RA BR FEW035 OVC065 04/02 A3013 440 89 -700 110/06 RMK AO2 RAB00 P0000 VISNO RWY 14 $
14840KMKG MKG20060328015016003/28/06 01:50:31  5-MIN KMKG 280650Z 11006KT 6SM -RA BR SCT035 SCT049 OVC065 04/02 A3013 440 89 -700 110/06 RMK AO2 RAB00 SLP206 P0000 T00390022 VISNO RWY 14 $
14840KMKG MKG20060328015516003/28/06 01:55:31  5-MIN KMKG 280655Z 10006KT 6SM -RA BR SCT035 BKN055 OVC070 04/02 A3012 440 89 -700 110/06 RMK AO2 RAB00 SLP205 P0000 T00390022 VISNO RWY 14 $
14840KMKG MKG20060328020013703/28/06 02:00:31  5-MIN KMKG 280700Z 10006KT 6SM -RA BR SCT035 BKN050 OVC065 04/02 A3012 440 89 -700 100/06 RMK AO2 P0000 VISNO RWY 14 $
14840KMKG MKG20060328020513703/28/06 02:05:31  5-MIN KMKG 280705Z 09006KT 6SM -RA BR SCT035 BKN050 OVC065 04/03 A3012 440 92 -700 090/06 RMK AO2 P0000 VISNO RWY 14 $
14840KMKG MKG20060328021013703/28/06 02:10:31  5-MIN KMKG 280710Z 09006KT 5SM -RA BR SCT035 BKN050 OVC065 04/02 A3012 450 89 -700 090/06 RMK AO2 P0000 VISNO RWY 14 $
14840KMKG MKG20060328021513703/28/06 02:15:31  5-MIN KMKG 280715Z 09007KT 6SM -RA BR FEW035 BKN050 OVC065 04/03 A3012 450 92 -700 090/07 RMK AO2 P0000 VISNO RWY 14 $
14840KMKG MKG20060328022013703/28/06 02:20:31  5-MIN KMKG 280720Z 09006KT 6SM -RA BR FEW035 BKN048 OVC065 04/02 A3012 450 89 -700 090/06 RMK AO2 P0000 VISNO RWY 14 $
14840KMKG MKG20060328022513003/28/06 02:25:31  5-MIN KMKG 280725Z 09006KT 6SM -RA BR BKN048 OVC065 04/03 A3011 450 92 -700 090/06 RMK AO2 P0000 VISNO RWY 14 $
14840KMKG MKG20060328023013003/28/06 02:30:31  5-MIN KMKG 280730Z 09006KT 6SM -RA BR BKN048 OVC060 04/03 A3011 450 92 -700 090/06 RMK AO2 P0001 VISNO RWY 14 $
14840KMKG MKG20060328023513003/28/06 02:35:31  5-MIN KMKG 280735Z 08007KT 6SM -RA BR BKN048 OVC060 04/02 A3011 450 89 -700 090/07 RMK AO2 P0001 VISNO RWY 14 $
14840KMKG MKG20060328024014503/28/06 02:40:31  5-MIN KMKG 280740Z 08007KT 6SM -RA BR SCT046 OVC060 04/02 A3011 460 89 -700 080/07 RMK AO2 CIG 046 RWY 14 P0001 VISNO RWY 14 $
14840KMKG MKG20060328024513003/28/06 02:45:31  5-MIN KMKG 280745Z 08007KT 6SM -RA BR SCT046 OVC055 04/02 A3011 460 89 -700 090/07 RMK AO2 P0001 VISNO RWY 14 $
14840KMKG MKG20060328025014903/28/06 02:50:31  5-MIN KMKG 280750Z 08007KT 6SM BR FEW046 OVC055 04/02 A3011 460 89 -700 090/07 RMK AO2 RAE49 SLP199 P0001 T00390022 VISNO RWY 14 $
14840KMKG MKG20060328025514203/28/06 02:55:31  5-MIN KMKG 280755Z 08008KT 6SM BR OVC055 04/02 A3011 460 89 -700 090/08 RMK AO2 RAE49 SLP200 P0001 T00390022 VISNO RWY 14 $
14840KMKG MKG20060328030011303/28/06 03:00:31  5-MIN KMKG 280800Z 09008KT 5SM BR OVC055 04/02 A3010 460 89 -700 090/08 RMK AO2 VISNO RWY 14 $
14840KMKG MKG20060328030512003/28/06 03:05:31  5-MIN KMKG 280805Z 08007KT 5SM BR FEW042 OVC055 04/02 A3010 460 89 -700 090/07 RMK AO2 VISNO RWY 14 $
14840KMKG MKG20060328031012003/28/06 03:10:31  5-MIN KMKG 280810Z 08007KT 5SM BR SCT042 OVC055 04/02 A3010 460 89 -700 080/07 RMK AO2 VISNO RWY 14 $
14840KMKG MKG20060328031512003/28/06 03:15:31  5-MIN KMKG 280815Z 08006KT 5SM BR SCT042 OVC050 04/02 A3010 460 89 -700 080/06 RMK AO2 VISNO RWY 14 $
14840KMKG MKG20060328032012003/28/06 03:20:31  5-MIN KMKG 280820Z 09006KT 5SM BR BKN045 OVC050 04/03 A3010 460 92 -700 100/06 RMK AO2 VISNO RWY 14 $
14840KMKG MKG20060328032512003/28/06 03:25:31  5-MIN KMKG 280825Z 09006KT 5SM BR BKN043 OVC050 04/03 A3010 460 92 -700 090/06 RMK AO2 VISNO RWY 14 $
14840KMKG MKG20060328033011303/28/06 03:30:31  5-MIN KMKG 280830Z 09005KT 5SM BR OVC045 04/02 A3010 460 89 -700 090/05 RMK AO2 VISNO RWY 14 $
14840KMKG MKG20060328033511303/28/06 03:35:31  5-MIN KMKG 280835Z 09006KT 5SM BR OVC045 04/02 A3010 460 89 -700 090/06 RMK AO2 VISNO RWY 14 $
14840KMKG MKG20060328034011303/28/06 03:40:31  5-MIN KMKG 280840Z 10005KT 5SM BR OVC045 04/02 A3010 460 89 -700 110/05 RMK AO2 VISNO RWY 14 $
14840KMKG MKG20060328034511303/28/06 03:45:31  5-MIN KMKG 280845Z 10006KT 5SM BR OVC043 04/02 A3010 460 89 -700 100/06 RMK AO2 VISNO RWY 14 $
14840KMKG MKG20060328035014203/28/06 03:50:31  5-MIN KMKG 280850Z 10006KT 5SM BR OVC043 04/02 A3010 460 89 -700 100/06 RMK AO2 SLP198 60001 T00390022 58000 VISNO RWY 14 $
14840KMKG MKG20060328035514903/28/06 03:55:31  5-MIN KMKG 280855Z 10006KT 5SM BR BKN036 OVC044 04/03 A3010 460 92 -700 100/06 RMK AO2 SLP198 60001 T00390028 56012 VISNO RWY 14 $
14840KMKG MKG20060328040012003/28/06 04:00:31  5-MIN KMKG 280900Z 10006KT 5SM BR BKN036 OVC044 04/02 A3010 470 89 -700 100/06 RMK AO2 VISNO RWY 14 $
14840KMKG MKG20060328040512003/28/06 04:05:31  5-MIN KMKG 280905Z 10006KT 5SM BR BKN036 OVC044 04/03 A3010 460 92 -700 100/06 RMK AO2 VISNO RWY 14 $
14840KMKG MKG20060328041011303/28/06 04:10:31  5-MIN KMKG 280910Z 10006KT 5SM BR OVC036 04/03 A3010 460 92 -700 110/06 RMK AO2 VISNO RWY 14 $
14840KMKG MKG20060328041511303/28/06 04:15:31  5-MIN KMKG 280915Z 10007KT 5SM BR OVC034 04/02 A3010 470 89 -700 100/07 RMK AO2 VISNO RWY 14 $
14840KMKG MKG20060328042011303/28/06 04:20:31  5-MIN KMKG 280920Z 10006KT 5SM BR OVC034 04/02 A3010 470 89 -700 100/06 RMK AO2 VISNO RWY 14 $
14840KMKG MKG20060328042512003/28/06 04:25:31  5-MIN KMKG 280925Z 09007KT 5SM BR BKN036 OVC044 04/02 A3010 470 89 -700 090/07 RMK AO2 VISNO RWY 14 $
14840KMKG MKG20060328043012003/28/06 04:30:31  5-MIN KMKG 280930Z 08006KT 5SM BR BKN036 OVC044 04/02 A3010 470 89 -700 090/06 RMK AO2 VISNO RWY 14 $
14840KMKG MKG20060328043512003/28/06 04:35:31  5-MIN KMKG 280935Z 08006KT 5SM BR SCT034 OVC046 04/02 A3010 460 89 -700 080/06 RMK AO2 VISNO RWY 14 $
14840KMKG MKG20060328044012003/28/06 04:40:31  5-MIN KMKG 280940Z 07005KT 5SM BR FEW036 OVC046 04/02 A3010 460 89 -700 080/05 RMK AO2 VISNO RWY 14 $
14840KMKG MKG20060328044511303/28/06 04:45:31  5-MIN KMKG 280945Z 08005KT 5SM BR OVC045 04/02 A3010 460 89 -700 080/05 RMK AO2 VISNO RWY 14 $
14840KMKG MKG20060328045013703/28/06 04:50:31  5-MIN KMKG 280950Z 07005KT 5SM BR BKN045 OVC060 04/02 A3010 460 89 -700 070/05 RMK AO2 SLP198 T00390022 VISNO RWY 14 $
14840KMKG MKG20060328045513703/28/06 04:55:31  5-MIN KMKG 280955Z 07006KT 5SM BR BKN045 OVC060 04/02 A3010 460 89 -700 070/06 RMK AO2 SLP199 T00390022 VISNO RWY 14 $
14840KMKG MKG20060328050012003/28/06 05:00:31  5-MIN KMKG 281000Z 06005KT 5SM BR SCT045 OVC055 04/02 A3011 460 89 -700 070/05 RMK AO2 VISNO RWY 14 $
14840KMKG MKG20060328050512003/28/06 05:05:31  5-MIN KMKG 281005Z 06006KT 5SM BR SCT045 OVC055 04/02 A3011 460 89 -700 060/06 RMK AO2 VISNO RWY 14 $
14840KMKG MKG20060328051012003/28/06 05:10:31  5-MIN KMKG 281010Z 07005KT 5SM BR FEW043 OVC055 04/02 A3011 460 89 -700 070/05 RMK AO2 VISNO RWY 14 $
14840KMKG MKG20060328051511303/28/06 05:15:31  5-MIN KMKG 281015Z 07006KT 5SM BR OVC055 04/02 A3011 460 89 -700 070/06 RMK AO2 VISNO RWY 14 $
14840KMKG MKG20060328052011303/28/06 05:20:31  5-MIN KMKG 281020Z 07006KT 5SM BR OVC055 04/02 A3011 460 89 -700 070/06 RMK AO2 VISNO RWY 14 $
14840KMKG MKG20060328052512003/28/06 05:25:31  5-MIN KMKG 281025Z 07006KT 5SM BR BKN055 OVC065 04/02 A3011 460 89 -700 070/06 RMK AO2 VISNO RWY 14 $
14840KMKG MKG20060328053011303/28/06 05:30:31  5-MIN KMKG 281030Z 06007KT 5SM BR OVC060 04/02 A3010 460 89 -700 060/07 RMK AO2 VISNO RWY 14 $
14840KMKG MKG20060328053512003/28/06 05:35:31  5-MIN KMKG 281035Z 05008KT 5SM BR FEW050 OVC065 04/02 A3010 460 89 -700 050/08 RMK AO2 VISNO RWY 14 $
14840KMKG MKG20060328054012003/28/06 05:40:31  5-MIN KMKG 281040Z 06007KT 5SM BR FEW050 OVC070 04/02 A3010 460 89 -700 060/07 RMK AO2 VISNO RWY 14 $
14840KMKG MKG20060328054512003/28/06 05:45:31  5-MIN KMKG 281045Z 06006KT 5SM BR FEW055 OVC070 04/02 A3011 460 89 -700 070/06 RMK AO2 VISNO RWY 14 $
14840KMKG MKG20060328055013003/28/06 05:50:31  5-MIN KMKG 281050Z 07005KT 6SM BR OVC070 04/02 A3011 460 89 -700 070/05 RMK AO2 SLP201 T00390022 VISNO RWY 14 $
14840KMKG MKG20060328055513703/28/06 05:55:31  5-MIN KMKG 281055Z 07006KT 6SM BR FEW035 OVC070 04/02 A3011 460 89 -700 070/06 RMK AO2 SLP201 T00390022 VISNO RWY 14 $
14840KMKG MKG20060328060012003/28/06 06:00:31  5-MIN KMKG 281100Z 07006KT 6SM BR SCT035 OVC070 04/02 A3011 450 89 -700 070/06 RMK AO2 VISNO RWY 14 $
14840KMKG MKG20060328060512003/28/06 06:05:31  5-MIN KMKG 281105Z 07006KT 6SM BR FEW035 OVC070 04/02 A3011 450 89 -700 070/06 RMK AO2 VISNO RWY 14 $
14840KMKG MKG20060328061012003/28/06 06:10:31  5-MIN KMKG 281110Z 07006KT 6SM BR FEW035 OVC070 04/02 A3011 450 89 -700 070/06 RMK AO2 VISNO RWY 14 $
14840KMKG MKG20060328061512703/28/06 06:15:31  5-MIN KMKG 281115Z 07005KT 6SM BR SCT037 SCT046 OVC070 04/02 A3011 450 89 -700 080/05 RMK AO2 VISNO RWY 14 $
14840KMKG MKG20060328062012003/28/06 06:20:31  5-MIN KMKG 281120Z 07006KT 6SM BR BKN037 OVC070 04/02 A3012 450 89 -700 080/06 RMK AO2 VISNO RWY 14 $
14840KMKG MKG20060328062512003/28/06 06:25:31  5-MIN KMKG 281125Z 06007KT 6SM BR BKN039 OVC070 04/02 A3012 450 89 -700 060/07 RMK AO2 VISNO RWY 14 $
14840KMKG MKG20060328063012003/28/06 06:30:31  5-MIN KMKG 281130Z 05006KT 6SM BR BKN043 OVC070 04/02 A3012 450 89 -700 050/06 RMK AO2 VISNO RWY 14 $
14840KMKG MKG20060328063511303/28/06 06:35:31  5-MIN KMKG 281135Z 06007KT 6SM BR OVC043 04/02 A3012 450 89 -700 070/07 RMK AO2 VISNO RWY 14 $
14840KMKG MKG20060328064011303/28/06 06:40:31  5-MIN KMKG 281140Z 07005KT 6SM BR OVC041 04/02 A3012 450 89 -700 070/05 RMK AO2 VISNO RWY 14 $
14840KMKG MKG20060328064512003/28/06 06:45:31  5-MIN KMKG 281145Z 07005KT 6SM BR BKN038 OVC045 04/02 A3012 450 89 -700 070/05 RMK AO2 VISNO RWY 14 $
14840KMKG MKG20060328065016703/28/06 06:50:31  5-MIN KMKG 281150Z 06006KT 6SM BR BKN038 OVC045 04/02 A3012 440 89 -700 070/06 RMK AO2 SLP205 60001 70001 T00390022 10044 20039 56012 VISNO RWY 14 $
14840KMKG MKG20060328065516003/28/06 06:55:31  5-MIN KMKG 281155Z 06006KT 6SM BR OVC040 04/02 A3012 440 89 -700 070/06 RMK AO2 SLP206 60001 70001 T00390022 10044 20039 53008 VISNO RWY 14 $
14840KMKG MKG20060328070011303/28/06 07:00:31  5-MIN KMKG 281200Z 06006KT 6SM BR OVC040 04/02 A3013 440 89 -700 060/06 RMK AO2 VISNO RWY 14 $
14840KMKG MKG20060328070512003/28/06 07:05:31  5-MIN KMKG 281205Z 07006KT 5SM BR BKN040 OVC046 04/02 A3013 440 89 -700 070/06 RMK AO2 VISNO RWY 14 $
14840KMKG MKG20060328071012003/28/06 07:10:31  5-MIN KMKG 281210Z 07006KT 5SM BR SCT039 OVC046 04/02 A3013 440 89 -700 070/06 RMK AO2 VISNO RWY 14 $
14840KMKG MKG20060328071511303/28/06 07:15:31  5-MIN KMKG 281215Z 06006KT 5SM BR OVC043 04/02 A3013 440 89 -700 070/06 RMK AO2 VISNO RWY 14 $
14840KMKG MKG20060328072011303/28/06 07:20:31  5-MIN KMKG 281220Z 06007KT 5SM BR OVC043 04/02 A3013 440 89 -700 070/07 RMK AO2 VISNO RWY 14 $
14840KMKG MKG20060328072512003/28/06 07:25:31  5-MIN KMKG 281225Z 06007KT 5SM BR BKN036 OVC045 04/02 A3013 430 89 -700 060/07 RMK AO2 VISNO RWY 14 $
14840KMKG MKG20060328073012003/28/06 07:30:31  5-MIN KMKG 281230Z 06008KT 5SM BR BKN036 OVC045 04/02 A3013 430 85 -700 060/08 RMK AO2 VISNO RWY 14 $
14840KMKG MKG20060328073512003/28/06 07:35:31  5-MIN KMKG 281235Z 06007KT 5SM BR BKN036 OVC045 04/02 A3014 430 85 -700 060/07 RMK AO2 VISNO RWY 14 $
14840KMKG MKG20060328074011303/28/06 07:40:31  5-MIN KMKG 281240Z 06007KT 5SM BR OVC036 04/02 A3014 430 85 -700 070/07 RMK AO2 VISNO RWY 14 $
14840KMKG MKG20060328074511103/28/06 07:45:31  5-MIN KMKG 281245Z 06007KT 5SM BR OVC036 04/02 A3014 430 85 -700 060/07 RMK AO2 VISNO RWY 14
14840KMKG MKG20060328075012803/28/06 07:50:31  5-MIN KMKG 281250Z 06008KT 5SM BR OVC036 04/02 A3014 430 85 -700 070/08 RMK AO2 SLP211 T00440022 VISNO RWY 14
14840KMKG MKG20060328075512803/28/06 07:55:31  5-MIN KMKG 281255Z 06007KT 5SM BR OVC036 04/02 A3014 430 85 -700 060/07 RMK AO2 SLP211 T00440022 VISNO RWY 14
14840KMKG MKG20060328080011303/28/06 08:00:31  5-MIN KMKG 281300Z 06009KT 5SM BR OVC038 04/02 A3014 430 85 -700 070/09 RMK AO2 VISNO RWY 14 $
14840KMKG MKG20060328080512003/28/06 08:05:31  5-MIN KMKG 281305Z 06008KT 5SM BR BKN038 OVC049 04/02 A3014 430 85 -700 070/08 RMK AO2 VISNO RWY 14 $
14840KMKG MKG20060328081011803/28/06 08:10:31  5-MIN KMKG 281310Z 07007KT 5SM BR BKN038 OVC049 04/02 A3014 430 85 -700 070/07 RMK AO2 VISNO RWY 14
14840KMKG MKG20060328081511803/28/06 08:15:31  5-MIN KMKG 281315Z 08008KT 5SM HZ SCT038 OVC049 05/02 A3014 430 82 -600 080/08 RMK AO2 VISNO RWY 14
14840KMKG MKG20060328082011803/28/06 08:20:31  5-MIN KMKG 281320Z 09008KT 5SM HZ SCT038 OVC049 05/02 A3014 430 82 -600 100/08 RMK AO2 VISNO RWY 14
14840KMKG MKG20060328082511803/28/06 08:25:31  5-MIN KMKG 281325Z 10007KT 5SM HZ FEW040 OVC049 05/02 A3014 430 82 -600 100/07 RMK AO2 VISNO RWY 14
14840KMKG MKG20060328083011803/28/06 08:30:31  5-MIN KMKG 281330Z 10007KT 5SM HZ BKN049 OVC065 05/02 A3014 430 82 -600 100/07 RMK AO2 VISNO RWY 14
14840KMKG MKG20060328083511803/28/06 08:35:31  5-MIN KMKG 281335Z 08007KT 5SM HZ BKN049 OVC065 05/02 A3014 430 82 -600 090/07 RMK AO2 VISNO RWY 14
14840KMKG MKG20060328084013303/28/06 08:40:31  5-MIN KMKG 281340Z 08009KT 5SM HZ FEW037 OVC060 05/02 A3014 420 82 -600 080/09 RMK AO2 CIG 050 RWY 14 VISNO RWY 14
14840KMKG MKG20060328084513303/28/06 08:45:31  5-MIN KMKG 281345Z 08006KT 5SM HZ SCT037 BKN060 05/02 A3014 420 82 -600 090/06 RMK AO2 CIG 040 RWY 14 VISNO RWY 14
14840KMKG MKG20060328085015003/28/06 08:50:31  5-MIN KMKG 281350Z 08008KT 5SM HZ SCT039 BKN060 05/02 A3014 420 82 -600 090/08 RMK AO2 CIG 040 RWY 14 SLP213 T00500022 VISNO RWY 14
14840KMKG MKG20060328085513503/28/06 08:55:31  5-MIN KMKG 281355Z 08009KT 5SM HZ BKN039 BKN065 06/02 A3015 420 79 -500 090/09 RMK AO2 SLP213 T00560022 VISNO RWY 14
14840KMKG MKG20060328090011803/28/06 09:00:31  5-MIN KMKG 281400Z 07009KT 6SM HZ BKN039 BKN065 06/03 A3015 420 82 -500 070/09 RMK AO2 VISNO RWY 14
14840KMKG MKG20060328090511103/28/06 09:05:31  5-MIN KMKG 281405Z 08009KT 6SM HZ OVC039 06/02 A3015 420 79 -500 080/09 RMK AO2 VISNO RWY 14
14840KMKG MKG20060328091011103/28/06 09:10:31  5-MIN KMKG 281410Z 08008KT 6SM HZ OVC039 06/03 A3015 420 82 -500 090/08 RMK AO2 VISNO RWY 14
14840KMKG MKG20060328091511103/28/06 09:15:31  5-MIN KMKG 281415Z 08009KT 6SM HZ OVC039 06/03 A3015 420 82 -500 080/09 RMK AO2 VISNO RWY 14
14840KMKG MKG20060328092011103/28/06 09:20:31  5-MIN KMKG 281420Z 09009KT 6SM HZ OVC039 06/02 A3015 420 79 -500 090/09 RMK AO2 VISNO RWY 14
14840KMKG MKG20060328092511803/28/06 09:25:31  5-MIN KMKG 281425Z 08011KT 6SM HZ FEW016 OVC039 06/02 A3015 420 79 -500 080/11 RMK AO2 VISNO RWY 14
14840KMKG MKG20060328093011803/28/06 09:30:31  5-MIN KMKG 281430Z 09010KT 6SM HZ FEW016 OVC039 06/02 A3015 420 79 -500 090/10 RMK AO2 VISNO RWY 14
14840KMKG MKG20060328093511803/28/06 09:35:31  5-MIN KMKG 281435Z 08010KT 6SM HZ FEW016 OVC037 06/02 A3015 420 76 -500 080/10 RMK AO2 VISNO RWY 14
14840KMKG MKG20060328094011803/28/06 09:40:31  5-MIN KMKG 281440Z 10009KT 6SM HZ FEW016 OVC037 06/02 A3015 420 79 -500 100/09 RMK AO2 VISNO RWY 14
14840KMKG MKG20060328094511803/28/06 09:45:31  5-MIN KMKG 281445Z 09011KT 6SM HZ FEW016 OVC037 06/02 A3015 420 76 -500 090/11 RMK AO2 VISNO RWY 14
14840KMKG MKG20060328095014103/28/06 09:50:31  5-MIN KMKG 281450Z 09010KT 6SM HZ FEW016 OVC037 06/02 A3015 420 76 -500 100/10 RMK AO2 SLP215 T00610022 53008 VISNO RWY 14
14840KMKG MKG20060328095514103/28/06 09:55:31  5-MIN KMKG 281455Z 09008KT 6SM HZ SCT016 OVC037 06/02 A3015 410 76 -500 100/08 RMK AO2 SLP216 T00610022 51010 VISNO RWY 14
14840KMKG MKG20060328100011803/28/06 10:00:31  5-MIN KMKG 281500Z 09009KT 6SM HZ BKN016 OVC037 06/02 A3016 410 76 -500 090/09 RMK AO2 VISNO RWY 14
14840KMKG MKG20060328100511803/28/06 10:05:31  5-MIN KMKG 281505Z 10009KT 6SM HZ BKN016 OVC037 06/02 A3016 410 79 -500 100/09 RMK AO2 VISNO RWY 14
14840KMKG MKG20060328101012003/28/06 10:10:31  5-MIN KMKG 281510Z 09008KT 6SM HZ BKN016 OVC037 06/02 A3016 410 76 -500 090/08 RMK AO2 VISNO RWY 14 $
14840KMKG MKG20060328101512003/28/06 10:15:31  5-MIN KMKG 281515Z 08010KT 6SM HZ BKN016 OVC037 06/02 A3016 410 76 -500 090/10 RMK AO2 VISNO RWY 14 $
14840KMKG MKG20060328102011103/28/06 10:20:31  5-MIN KMKG 281520Z 10008KT 6SM HZ OVC016 06/02 A3016 410 76 -500 100/08 RMK AO2 VISNO RWY 14
14840KMKG MKG20060328102509803/28/06 10:25:31  5-MIN KMKG 281525Z 09006KT 6SM HZ OVC016 06/02 A3017 400 76 -500 100/06 RMK AO2
14840KMKG MKG20060328103009803/28/06 10:30:31  5-MIN KMKG 281530Z 09010KT 6SM HZ OVC016 06/02 A3017 400 76 -500 090/10 RMK AO2
14840KMKG MKG20060328103509803/28/06 10:35:31  5-MIN KMKG 281535Z 09007KT 6SM HZ OVC016 06/03 A3016 400 79 -500 100/07 RMK AO2
14840KMKG MKG20060328104009803/28/06 10:40:31  5-MIN KMKG 281540Z 10007KT 6SM HZ OVC016 07/03 A3016 410 76 -400 100/07 RMK AO2
14840KMKG MKG20060328104509803/28/06 10:45:31  5-MIN KMKG 281545Z 09010KT 6SM HZ OVC016 07/02 A3016 410 73 -400 090/10 RMK AO2
14840KMKG MKG20060328105011503/28/06 10:50:31  5-MIN KMKG 281550Z 08008KT 6SM HZ OVC016 07/02 A3017 400 73 -400 090/08 RMK AO2 SLP220 T00670022
14840KMKG MKG20060328105511503/28/06 10:55:31  5-MIN KMKG 281555Z 11009KT 6SM HZ OVC016 07/02 A3016 410 73 -400 110/09 RMK AO2 SLP219 T00670022
14840KMKG MKG20060328110010403/28/06 11:00:31  5-MIN KMKG 281600Z 10008KT 6SM HZ OVC016 07/02 A3017 400 73 -400 110/08 RMK AO2 PNO $
14840KMKG MKG20060328110510403/28/06 11:05:31  5-MIN KMKG 281605Z 09009KT 6SM HZ OVC018 07/02 A3017 400 73 -400 100/09 RMK AO2 PNO $
14840KMKG MKG20060328111010403/28/06 11:10:31  5-MIN KMKG 281610Z 10008KT 6SM HZ OVC018 07/02 A3017 400 73 -400 110/08 RMK AO2 PNO $
14840KMKG MKG20060328111510403/28/06 11:15:31  5-MIN KMKG 281615Z 08010KT 6SM HZ OVC018 07/02 A3017 400 73 -400 090/10 RMK AO2 PNO $
14840KMKG MKG20060328112010103/28/06 11:20:31  5-MIN KMKG 281620Z 09009KT 7SM OVC018 07/02 A3017 400 73 -400 090/09 RMK AO2 PNO $
14840KMKG MKG20060328112510103/28/06 11:25:31  5-MIN KMKG 281625Z 10009KT 7SM OVC018 07/02 A3018 390 73 -400 100/09 RMK AO2 PNO $
14840KMKG MKG20060328113009503/28/06 11:30:31  5-MIN KMKG 281630Z 11008KT 7SM OVC018 07/02 A3018 390 73 -400 110/08 RMK AO2
14840KMKG MKG20060328113509503/28/06 11:35:31  5-MIN KMKG 281635Z 10007KT 7SM OVC018 07/02 A3018 400 70 -400 110/07 RMK AO2
14840KMKG MKG20060328114009503/28/06 11:40:31  5-MIN KMKG 281640Z 08008KT 7SM OVC018 07/02 A3018 390 70 -400 090/08 RMK AO2
14840KMKG MKG20060328114509503/28/06 11:45:31  5-MIN KMKG 281645Z 07006KT 7SM OVC018 07/02 A3018 400 70 -400 070/06 RMK AO2
14840KMKG MKG20060328115011203/28/06 11:50:31  5-MIN KMKG 281650Z 09008KT 7SM OVC020 07/02 A3018 400 70 -400 090/08 RMK AO2 SLP222 T00720022
14840KMKG MKG20060328115511203/28/06 11:55:31  5-MIN KMKG 281655Z 09008KT 7SM OVC020 07/02 A3018 400 70 -400 090/08 RMK AO2 SLP222 T00720022
14840KMKG MKG20060328120009503/28/06 12:00:31  5-MIN KMKG 281700Z 09007KT 7SM OVC020 08/02 A3017 400 68 -300 090/07 RMK AO2
14840KMKG MKG20060328120509803/28/06 12:05:31  5-MIN KMKG 281705Z 09008KT 6SM HZ OVC020 07/02 A3017 400 70 -400 090/08 RMK AO2
14840KMKG MKG20060328121010203/28/06 12:10:31  5-MIN KMKG 281710Z 07007KT 7SM BKN020 OVC050 07/02 A3017 400 70 -400 080/07 RMK AO2
14840KMKG MKG20060328121510203/28/06 12:15:31  5-MIN KMKG 281715Z 10008KT 7SM BKN020 OVC050 08/02 A3017 400 68 -300 100/08 RMK AO2
14840KMKG MKG20060328122010903/28/06 12:20:31  5-MIN KMKG 281720Z 12006KT 8SM SCT020 BKN025 OVC050 08/02 A3017 400 68 -300 120/06 RMK AO2
14840KMKG MKG20060328122510203/28/06 12:25:31  5-MIN KMKG 281725Z 11008KT 8SM BKN022 OVC050 08/02 A3017 400 68 -300 110/08 RMK AO2
14840KMKG MKG20060328123010203/28/06 12:30:31  5-MIN KMKG 281730Z 11008KT 8SM BKN024 OVC050 08/02 A3017 400 65 -200 120/08 RMK AO2
14840KMKG MKG20060328123510203/28/06 12:35:31  5-MIN KMKG 281735Z 09007KT 8SM BKN024 OVC050 08/02 A3017 400 68 -300 100/07 RMK AO2
14840KMKG MKG20060328124010203/28/06 12:40:31  5-MIN KMKG 281740Z 08006KT 8SM BKN026 OVC050 08/02 A3017 400 65 -200 090/06 RMK AO2
14840KMKG MKG20060328124509503/28/06 12:45:31  5-MIN KMKG 281745Z 11007KT 8SM OVC026 08/02 A3017 400 65 -200 120/07 RMK AO2
14840KMKG MKG20060328125013003/28/06 12:50:31  5-MIN KMKG 281750Z 09006KT 8SM OVC026 09/02 A3017 400 63 -100 100/06 RMK AO2 SLP221 T00890022 10089 20039 51010
14840KMKG MKG20060328125513003/28/06 12:55:31  5-MIN KMKG 281755Z 12006KT 8SM OVC026 09/02 A3017 400 63 -100 120/06 RMK AO2 SLP220 T00890022 10089 20039 50005
14840KMKG MKG20060328130011103/28/06 13:00:31  5-MIN KMKG 281800Z 09008KT 060V120 8SM OVC026 09/02 A3017 400 63 -100 100/08 060V120 RMK AO2
14840KMKG MKG20060328130510203/28/06 13:05:31  5-MIN KMKG 281805Z 12009KT 8SM BKN026 OVC030 09/02 A3017 400 63 -100 120/09 RMK AO2
14840KMKG MKG20060328131010903/28/06 13:10:31  5-MIN KMKG 281810Z 09005KT 8SM BKN026 BKN030 OVC050 09/02 A3017 400 63 -100 090/05 RMK AO2
14840KMKG MKG20060328131510203/28/06 13:15:31  5-MIN KMKG 281815Z 11009KT 8SM BKN026 OVC050 09/02 A3017 400 60 -100 110/09 RMK AO2
14840KMKG MKG20060328132010203/28/06 13:20:31  5-MIN KMKG 281820Z 13007KT 8SM BKN026 OVC050 09/02 A3016 410 60 -100 130/07 RMK AO2
14840KMKG MKG20060328132509903/28/06 13:25:31  5-MIN KMKG 281825Z 10007KT 9SM BKN026 OVC050 10/03 A3016 410 60 0 110/07 RMK AO2
14840KMKG MKG20060328133010203/28/06 13:30:31  5-MIN KMKG 281830Z VRB03KT 9SM BKN028 OVC050 09/02 A3016 410 60 -100 VRB/03 RMK AO2
14840KMKG MKG20060328133509903/28/06 13:35:31  5-MIN KMKG 281835Z 12005KT 9SM BKN028 OVC050 10/02 A3016 410 58 0 120/05 RMK AO2
14840KMKG MKG20060328134010003/28/06 13:40:31  5-MIN KMKG 281840Z 11009KT 10SM BKN028 OVC050 10/02 A3016 410 58 0 110/09 RMK AO2
14840KMKG MKG20060328134510003/28/06 13:45:31  5-MIN KMKG 281845Z 04006KT 10SM BKN028 BKN050 10/02 A3016 410 58 0 040/06 RMK AO2
14840KMKG MKG20060328135011603/28/06 13:50:31  5-MIN KMKG 281850Z 10008KT 9SM BKN028 BKN050 11/02 A3016 410 56 0 100/08 RMK AO2 SLP216 T01060022
14840KMKG MKG20060328135511003/28/06 13:55:31  5-MIN KMKG 281855Z VRB05KT 10SM BKN028 10/02 A3016 410 56 0 VRB/05 RMK AO2 SLP216 T01000017
14840KMKG MKG20060328140009303/28/06 14:00:31  5-MIN KMKG 281900Z VRB04KT 10SM OVC028 10/02 A3016 410 56 0 VRB/04 RMK AO2
14840KMKG MKG20060328140509603/28/06 14:05:31  5-MIN KMKG 281905Z VRB05KT 10SM OVC028 09/02 A3016 410 58 -100 VRB/05 RMK AO2
14840KMKG MKG20060328141009303/28/06 14:10:31  5-MIN KMKG 281910Z VRB06KT 10SM OVC030 10/02 A3016 410 56 0 VRB/06 RMK AO2
14840KMKG MKG20060328141509503/28/06 14:15:31  5-MIN KMKG 281915Z 11008KT 10SM OVC030 11/02 A3016 410 52 100 110/08 RMK AO2
14840KMKG MKG20060328142009303/28/06 14:20:31  5-MIN KMKG 281920Z 13007KT 10SM BKN030 11/01 A3015 410 52 0 130/07 RMK AO2
14840KMKG MKG20060328142509303/28/06 14:25:31  5-MIN KMKG 281925Z VRB03KT 10SM BKN033 11/02 A3015 420 54 0 VRB/03 RMK AO2
14840KMKG MKG20060328143009303/28/06 14:30:31  5-MIN KMKG 281930Z VRB03KT 10SM BKN033 11/01 A3015 420 52 0 VRB/03 RMK AO2
14840KMKG MKG20060328143509303/28/06 14:35:31  5-MIN KMKG 281935Z 05007KT 10SM BKN035 10/01 A3015 420 54 0 050/07 RMK AO2
14840KMKG MKG20060328144010003/28/06 14:40:31  5-MIN KMKG 281940Z 03006KT 10SM BKN036 OVC044 10/01 A3015 420 54 0 040/06 RMK AO2
14840KMKG MKG20060328144510003/28/06 14:45:31  5-MIN KMKG 281945Z 04007KT 10SM BKN036 OVC044 10/01 A3015 420 54 0 050/07 RMK AO2
14840KMKG MKG20060328145011303/28/06 14:50:31  5-MIN KMKG 281950Z 04004KT 10SM OVC036 09/01 A3015 420 56 -100 040/04 RMK AO2 SLP214 T00940011
14840KMKG MKG20060328145511303/28/06 14:55:31  5-MIN KMKG 281955Z 04004KT 10SM OVC036 09/01 A3015 410 56 -100 040/04 RMK AO2 SLP215 T00940011
14840KMKG MKG20060328150009603/28/06 15:00:31  5-MIN KMKG 282000Z VRB03KT 10SM OVC036 09/01 A3016 410 56 -100 VRB/03 RMK AO2
14840KMKG MKG20060328150509603/28/06 15:05:31  5-MIN KMKG 282005Z VRB04KT 10SM OVC036 09/01 A3016 410 56 -100 VRB/04 RMK AO2
14840KMKG MKG20060328151010303/28/06 15:10:31  5-MIN KMKG 282010Z 25008KT 10SM BKN036 OVC042 08/02 A3016 410 65 -300 260/08 RMK AO2
14840KMKG MKG20060328151510303/28/06 15:15:31  5-MIN KMKG 282015Z 28010KT 10SM BKN036 OVC046 08/02 A3016 410 65 -300 280/10 RMK AO2
14840KMKG MKG20060328152010303/28/06 15:20:31  5-MIN KMKG 282020Z 28009KT 10SM SCT036 OVC046 07/02 A3016 410 68 -300 280/09 RMK AO2
14840KMKG MKG20060328152510303/28/06 15:25:31  5-MIN KMKG 282025Z 29010KT 10SM BKN038 OVC048 07/02 A3016 410 68 -300 290/10 RMK AO2
14840KMKG MKG20060328153010303/28/06 15:30:31  5-MIN KMKG 282030Z 29010KT 10SM BKN038 OVC048 07/02 A3016 410 68 -300 290/10 RMK AO2
14840KMKG MKG20060328153510303/28/06 15:35:31  5-MIN KMKG 282035Z 28010KT 10SM BKN040 OVC048 07/02 A3016 410 68 -300 290/10 RMK AO2
14840KMKG MKG20060328154010303/28/06 15:40:31  5-MIN KMKG 282040Z 29007KT 10SM BKN040 OVC048 07/01 A3016 410 65 -300 300/07 RMK AO2
14840KMKG MKG20060328154509603/28/06 15:45:31  5-MIN KMKG 282045Z 31008KT 10SM OVC040 07/02 A3016 410 68 -300 310/08 RMK AO2
14840KMKG MKG20060328155011903/28/06 15:50:31  5-MIN KMKG 282050Z 31008KT 10SM OVC043 07/01 A3016 410 65 -300 310/08 RMK AO2 SLP219 T00720011 50005
14840KMKG MKG20060328155511903/28/06 15:55:31  5-MIN KMKG 282055Z 30007KT 10SM OVC043 07/01 A3016 410 65 -300 310/07 RMK AO2 SLP218 T00720011 55003
14840KMKG MKG20060328160009603/28/06 16:00:31  5-MIN KMKG 282100Z 30007KT 10SM OVC043 07/01 A3016 410 65 -300 310/07 RMK AO2
14840KMKG MKG20060328160509603/28/06 16:05:31  5-MIN KMKG 282105Z 31007KT 10SM OVC041 07/01 A3016 410 65 -300 310/07 RMK AO2
14840KMKG MKG20060328161009603/28/06 16:10:31  5-MIN KMKG 282110Z 30006KT 10SM OVC041 07/01 A3016 410 65 -300 310/06 RMK AO2
14840KMKG MKG20060328161509603/28/06 16:15:31  5-MIN KMKG 282115Z 29005KT 10SM OVC039 07/01 A3017 400 65 -300 300/05 RMK AO2
14840KMKG MKG20060328162009603/28/06 16:20:31  5-MIN KMKG 282120Z 28005KT 10SM OVC039 08/01 A3017 400 62 -300 290/05 RMK AO2
14840KMKG MKG20060328162510303/28/06 16:25:31  5-MIN KMKG 282125Z 27005KT 10SM BKN039 OVC049 08/01 A3017 400 62 -300 280/05 RMK AO2
14840KMKG MKG20060328163010303/28/06 16:30:31  5-MIN KMKG 282130Z 29004KT 10SM BKN039 OVC049 08/01 A3017 400 62 -300 300/04 RMK AO2
14840KMKG MKG20060328163510303/28/06 16:35:31  5-MIN KMKG 282135Z 28004KT 10SM SCT039 OVC049 08/01 A3017 400 60 -200 280/04 RMK AO2
14840KMKG MKG20060328164010303/28/06 16:40:31  5-MIN KMKG 282140Z 28005KT 10SM SCT039 OVC049 08/01 A3017 400 60 -200 290/05 RMK AO2
14840KMKG MKG20060328164510303/28/06 16:45:31  5-MIN KMKG 282145Z 28005KT 10SM FEW041 OVC049 08/01 A3017 400 60 -200 290/05 RMK AO2
14840KMKG MKG20060328165011303/28/06 16:50:31  5-MIN KMKG 282150Z 28005KT 10SM OVC049 08/01 A3017 400 60 -200 280/05 RMK AO2 SLP220 T00830011
14840KMKG MKG20060328165511303/28/06 16:55:31  5-MIN KMKG 282155Z 28006KT 10SM BKN049 08/01 A3017 400 60 -200 280/06 RMK AO2 SLP220 T00830011
14840KMKG MKG20060328170009603/28/06 17:00:31  5-MIN KMKG 282200Z 27005KT 10SM OVC049 08/01 A3017 400 60 -200 280/05 RMK AO2
14840KMKG MKG20060328170509603/28/06 17:05:31  5-MIN KMKG 282205Z 28006KT 10SM OVC049 09/01 A3017 400 58 -100 280/06 RMK AO2
14840KMKG MKG20060328171009603/28/06 17:10:31  5-MIN KMKG 282210Z 28007KT 10SM OVC049 08/01 A3017 400 60 -200 280/07 RMK AO2
14840KMKG MKG20060328171509603/28/06 17:15:31  5-MIN KMKG 282215Z 27006KT 10SM OVC049 09/01 A3017 400 58 -100 270/06 RMK AO2
14840KMKG MKG20060328172009603/28/06 17:20:31  5-MIN KMKG 282220Z 26005KT 10SM OVC049 09/01 A3017 400 58 -100 260/05 RMK AO2
14840KMKG MKG20060328172509603/28/06 17:25:31  5-MIN KMKG 282225Z 26006KT 10SM OVC049 09/01 A3017 400 58 -200 260/06 RMK AO2
14840KMKG MKG20060328173009603/28/06 17:30:31  5-MIN KMKG 282230Z 27006KT 10SM OVC049 09/01 A3017 400 58 -200 270/06 RMK AO2
14840KMKG MKG20060328173509603/28/06 17:35:31  5-MIN KMKG 282235Z 28007KT 10SM BKN049 08/01 A3018 400 60 -200 280/07 RMK AO2
14840KMKG MKG20060328174009603/28/06 17:40:31  5-MIN KMKG 282240Z 28008KT 10SM BKN049 08/01 A3018 390 58 -200 280/08 RMK AO2
14840KMKG MKG20060328174509603/28/06 17:45:31  5-MIN KMKG 282245Z 27007KT 10SM SCT049 08/01 A3018 390 58 -200 280/07 RMK AO2
14840KMKG MKG20060328175011303/28/06 17:50:31  5-MIN KMKG 282250Z 27007KT 10SM FEW049 08/01 A3018 390 58 -200 280/07 RMK AO2 SLP225 T00830006
14840KMKG MKG20060328175511303/28/06 17:55:31  5-MIN KMKG 282255Z 29007KT 10SM SCT049 08/01 A3018 390 58 -200 290/07 RMK AO2 SLP225 T00830006
14840KMKG MKG20060328180009303/28/06 18:00:31  5-MIN KMKG 282300Z 30007KT 10SM CLR 08/01 A3018 390 60 -300 300/07 RMK AO2
14840KMKG MKG20060328180509603/28/06 18:05:31  5-MIN KMKG 282305Z 29007KT 10SM FEW050 08/01 A3019 390 60 -300 290/07 RMK AO2
14840KMKG MKG20060328181009603/28/06 18:10:31  5-MIN KMKG 282310Z 29007KT 10SM SCT050 08/01 A3019 380 60 -300 290/07 RMK AO2
14840KMKG MKG20060328181509603/28/06 18:15:31  5-MIN KMKG 282315Z 28006KT 10SM BKN050 08/01 A3019 380 60 -300 290/06 RMK AO2
14840KMKG MKG20060328182009603/28/06 18:20:31  5-MIN KMKG 282320Z 30006KT 10SM BKN050 08/01 A3019 380 60 -300 300/06 RMK AO2
14840KMKG MKG20060328182509603/28/06 18:25:31  5-MIN KMKG 282325Z 32005KT 10SM BKN050 08/01 A3019 380 60 -300 320/05 RMK AO2
14840KMKG MKG20060328183009603/28/06 18:30:31  5-MIN KMKG 282330Z 32007KT 10SM SCT050 08/01 A3019 380 60 -300 320/07 RMK AO2
14840KMKG MKG20060328183509603/28/06 18:35:31  5-MIN KMKG 282335Z 31006KT 10SM BKN050 07/00 A3019 380 60 -400 310/06 RMK AO2
14840KMKG MKG20060328184009603/28/06 18:40:31  5-MIN KMKG 282340Z 30006KT 10SM SCT050 07/00 A3019 380 60 -400 310/06 RMK AO2
14840KMKG MKG20060328184509703/28/06 18:45:31  5-MIN KMKG 282345Z 31006KT 10SM FEW050 07/M01 A3020 380 57 -400 310/06 RMK AO2
14840KMKG MKG20060328185013203/28/06 18:50:31  5-MIN KMKG 282350Z 31005KT 10SM FEW050 07/M01 A3020 380 60 -400 320/05 RMK AO2 SLP230 T00671006 10111 20067 55003
14840KMKG MKG20060328185513203/28/06 18:55:31  5-MIN KMKG 282355Z 32005KT 10SM FEW050 07/M01 A3020 380 60 -400 320/05 RMK AO2 SLP230 T00671006 10111 20067 53012
14840KMKG MKG20060328190009703/28/06 19:00:31  5-MIN KMKG 290000Z 32005KT 10SM FEW050 07/M01 A3020 380 60 -400 320/05 RMK AO2
14840KMKG MKG20060328190509403/28/06 19:05:31  5-MIN KMKG 290005Z 31005KT 10SM CLR 07/M01 A3020 370 60 -500 310/05 RMK AO2
14840KMKG MKG20060328191009403/28/06 19:10:31  5-MIN KMKG 290010Z 30005KT 10SM CLR 07/M01 A3020 370 60 -500 300/05 RMK AO2
14840KMKG MKG20060328191509403/28/06 19:15:31  5-MIN KMKG 290015Z 31005KT 10SM CLR 06/M01 A3020 370 62 -500 320/05 RMK AO2
14840KMKG MKG20060328192009403/28/06 19:20:31  5-MIN KMKG 290020Z 31004KT 10SM CLR 07/M01 A3020 370 60 -500 320/04 RMK AO2
14840KMKG MKG20060328192509403/28/06 19:25:31  5-MIN KMKG 290025Z 32004KT 10SM CLR 07/M01 A3020 370 57 -500 320/04 RMK AO2
14840KMKG MKG20060328193009403/28/06 19:30:31  5-MIN KMKG 290030Z 31004KT 10SM CLR 06/M01 A3020 370 60 -500 320/04 RMK AO2
14840KMKG MKG20060328193509403/28/06 19:35:31  5-MIN KMKG 290035Z 31003KT 10SM CLR 06/M01 A3020 380 60 -500 310/03 RMK AO2
14840KMKG MKG20060328194009403/28/06 19:40:31  5-MIN KMKG 290040Z 32003KT 10SM CLR 06/M01 A3020 370 60 -500 330/03 RMK AO2
14840KMKG MKG20060328194509403/28/06 19:45:31  5-MIN KMKG 290045Z 32004KT 10SM CLR 07/M01 A3020 370 57 -500 330/04 RMK AO2
14840KMKG MKG20060328195011103/28/06 19:50:31  5-MIN KMKG 290050Z 33004KT 10SM CLR 07/M01 A3020 370 57 -500 330/04 RMK AO2 SLP232 T00671011
14840KMKG MKG20060328195511103/28/06 19:55:31  5-MIN KMKG 290055Z 31004KT 10SM CLR 07/M01 A3020 370 57 -500 320/04 RMK AO2 SLP233 T00671011
14840KMKG MKG20060328200009403/28/06 20:00:31  5-MIN KMKG 290100Z 31004KT 10SM CLR 06/M02 A3021 370 57 -500 310/04 RMK AO2
14840KMKG MKG20060328200509403/28/06 20:05:31  5-MIN KMKG 290105Z 31004KT 10SM CLR 06/M02 A3021 370 59 -600 320/04 RMK AO2
14840KMKG MKG20060328201009403/28/06 20:10:31  5-MIN KMKG 290110Z 31004KT 10SM CLR 06/M02 A3021 360 59 -600 310/04 RMK AO2
14840KMKG MKG20060328201509403/28/06 20:15:31  5-MIN KMKG 290115Z 31004KT 10SM CLR 06/M02 A3021 360 59 -600 320/04 RMK AO2
14840KMKG MKG20060328202009403/28/06 20:20:31  5-MIN KMKG 290120Z 31004KT 10SM CLR 06/M02 A3021 360 59 -600 320/04 RMK AO2
14840KMKG MKG20060328202509403/28/06 20:25:31  5-MIN KMKG 290125Z 31003KT 10SM CLR 06/M02 A3021 360 57 -600 320/03 RMK AO2
14840KMKG MKG20060328203009403/28/06 20:30:31  5-MIN KMKG 290130Z 31003KT 10SM CLR 06/M02 A3021 360 57 -600 310/03 RMK AO2
14840KMKG MKG20060328203509403/28/06 20:35:31  5-MIN KMKG 290135Z 31004KT 10SM CLR 05/M02 A3021 360 59 -700 310/04 RMK AO2
14840KMKG MKG20060328204009403/28/06 20:40:31  5-MIN KMKG 290140Z 31004KT 10SM CLR 04/M02 A3021 360 62 -700 310/04 RMK AO2
14840KMKG MKG20060328204509403/28/06 20:45:31  5-MIN KMKG 290145Z 31005KT 10SM CLR 04/M02 A3022 360 62 -700 320/05 RMK AO2
14840KMKG MKG20060328205011103/28/06 20:50:31  5-MIN KMKG 290150Z 31003KT 10SM CLR 04/M02 A3022 360 62 -700 310/03 RMK AO2 SLP237 T00441022
14840KMKG MKG20060328205511103/28/06 20:55:31  5-MIN KMKG 290155Z 00000KT 10SM CLR 03/M02 A3021 360 72 -900 000/00 RMK AO2 SLP237 T00281017
14840KMKG MKG20060328210009403/28/06 21:00:31  5-MIN KMKG 290200Z 00000KT 10SM CLR 03/M01 A3021 360 75 -900 000/00 RMK AO2
14840KMKG MKG20060328210509503/28/06 21:05:31  5-MIN KMKG 290205Z 00000KT 10SM CLR 03/M02 A3022 360 72 -1000 000/00 RMK AO2
14840KMKG MKG20060328211009503/28/06 21:10:31  5-MIN KMKG 290210Z 00000KT 10SM CLR 02/M02 A3022 350 75 -1000 000/00 RMK AO2
14840KMKG MKG20060328211509503/28/06 21:15:31  5-MIN KMKG 290215Z 00000KT 10SM CLR 01/M02 A3022 350 82 -1200 000/00 RMK AO2
14840KMKG MKG20060328212009503/28/06 21:20:31  5-MIN KMKG 290220Z 00000KT 10SM CLR 01/M02 A3022 350 82 -1200 000/00 RMK AO2
14840KMKG MKG20060328212509503/28/06 21:25:31  5-MIN KMKG 290225Z 00000KT 10SM CLR 03/M02 A3023 350 72 -1000 000/00 RMK AO2
14840KMKG MKG20060328213009503/28/06 21:30:31  5-MIN KMKG 290230Z 00000KT 10SM CLR 02/M02 A3023 350 75 -1000 000/00 RMK AO2
14840KMKG MKG20060328213509503/28/06 21:35:31  5-MIN KMKG 290235Z 00000KT 10SM CLR 02/M02 A3023 340 75 -1000 000/00 RMK AO2
14840KMKG MKG20060328214009503/28/06 21:40:31  5-MIN KMKG 290240Z 00000KT 10SM CLR 02/M02 A3023 340 75 -1000 000/00 RMK AO2
14840KMKG MKG20060328214509503/28/06 21:45:31  5-MIN KMKG 290245Z 00000KT 10SM CLR 02/M02 A3024 340 78 -1100 000/00 RMK AO2
14840KMKG MKG20060328215011803/28/06 21:50:31  5-MIN KMKG 290250Z 33003KT 10SM CLR 02/M02 A3024 340 78 -1100 340/03 RMK AO2 SLP245 T00171017 53012
14840KMKG MKG20060328215511803/28/06 21:55:31  5-MIN KMKG 290255Z 00000KT 10SM CLR 02/M02 A3024 340 78 -1100 000/00 RMK AO2 SLP245 T00171017 53013
14840KMKG MKG20060328220009503/28/06 22:00:31  5-MIN KMKG 290300Z 00000KT 10SM CLR 02/M02 A3024 340 78 -1100 000/00 RMK AO2
14840KMKG MKG20060328220509503/28/06 22:05:31  5-MIN KMKG 290305Z 00000KT 10SM CLR 02/M02 A3024 340 78 -1100 000/00 RMK AO2
14840KMKG MKG20060328221009803/28/06 22:10:31  5-MIN KMKG 290310Z 00000KT 10SM SCT032 02/M02 A3024 340 75 -1000 000/00 RMK AO2
14840KMKG MKG20060328221509803/28/06 22:15:31  5-MIN KMKG 290315Z 00000KT 10SM BKN032 02/M02 A3024 340 75 -1000 000/00 RMK AO2
14840KMKG MKG20060328222009803/28/06 22:20:31  5-MIN KMKG 290320Z 00000KT 10SM BKN032 02/M02 A3024 340 78 -1100 000/00 RMK AO2
14840KMKG MKG20060328222509803/28/06 22:25:31  5-MIN KMKG 290325Z 00000KT 10SM BKN032 01/M02 A3024 340 82 -1200 000/00 RMK AO2
14840KMKG MKG20060328223009803/28/06 22:30:31  5-MIN KMKG 290330Z 00000KT 10SM SCT032 01/M02 A3024 340 82 -1200 000/00 RMK AO2
14840KMKG MKG20060328223509803/28/06 22:35:31  5-MIN KMKG 290335Z 00000KT 10SM SCT032 01/M02 A3023 340 82 -1300 000/00 RMK AO2
14840KMKG MKG20060328224009803/28/06 22:40:31  5-MIN KMKG 290340Z 15003KT 10SM FEW032 01/M02 A3023 340 82 -1200 160/03 RMK AO2
14840KMKG MKG20060328224509803/28/06 22:45:31  5-MIN KMKG 290345Z 00000KT 10SM FEW032 01/M02 A3023 340 82 -1200 000/00 RMK AO2
14840KMKG MKG20060328225011203/28/06 22:50:31  5-MIN KMKG 290350Z 00000KT 10SM CLR 00/M03 A3023 340 81 -1300 000/00 RMK AO2 SLP243 T00001028
14840KMKG MKG20060328225511203/28/06 22:55:31  5-MIN KMKG 290355Z 00000KT 10SM CLR 01/M03 A3023 340 78 -1200 000/00 RMK AO2 SLP243 T00061028
14840KMKG MKG20060328230009503/28/06 23:00:31  5-MIN KMKG 290400Z 00000KT 10SM CLR 00/M03 A3023 340 81 -1300 000/00 RMK AO2
14840KMKG MKG20060328230509503/28/06 23:05:31  5-MIN KMKG 290405Z 00000KT 10SM CLR 00/M03 A3023 340 81 -1300 000/00 RMK AO2
14840KMKG MKG20060328231009503/28/06 23:10:31  5-MIN KMKG 290410Z 00000KT 10SM CLR 00/M03 A3024 340 81 -1300 000/00 RMK AO2
14840KMKG MKG20060328231509503/28/06 23:15:31  5-MIN KMKG 290415Z 00000KT 10SM CLR 00/M03 A3024 340 81 -1300 000/00 RMK AO2
14840KMKG MKG20060328232009603/28/06 23:20:31  5-MIN KMKG 290420Z 00000KT 10SM CLR M01/M03 A3024 340 85 -1400 000/00 RMK AO2
14840KMKG MKG20060328232509503/28/06 23:25:31  5-MIN KMKG 290425Z 00000KT 10SM CLR 01/M03 A3024 340 78 -1300 000/00 RMK AO2
14840KMKG MKG20060328233009503/28/06 23:30:31  5-MIN KMKG 290430Z 00000KT 10SM CLR 00/M03 A3023 340 81 -1300 000/00 RMK AO2
14840KMKG MKG20060328233509503/28/06 23:35:31  5-MIN KMKG 290435Z 23003KT 10SM CLR 00/M03 A3024 340 81 -1300 230/03 RMK AO2
14840KMKG MKG20060328234009603/28/06 23:40:31  5-MIN KMKG 290440Z 00000KT 10SM CLR M01/M03 A3024 340 85 -1400 000/00 RMK AO2
14840KMKG MKG20060328234509603/28/06 23:45:31  5-MIN KMKG 290445Z 00000KT 10SM CLR M01/M03 A3024 340 85 -1400 000/00 RMK AO2
14840KMKG MKG20060328235012203/28/06 23:50:31  5-MIN KMKG 290450Z 00000KT 10SM CLR 00/M03 A3024 340 81 -1300 000/00 RMK AO2 SLP245 T00001028 401111006
14840KMKG MKG20060328235512203/28/06 23:55:31  5-MIN KMKG 290455Z 00000KT 10SM CLR 00/M03 A3024 340 81 -1300 000/00 RMK AO2 SLP245 T00001028 401111006
14840KMKG MKG20060329000009503/29/06 00:00:32  5-MIN KMKG 290500Z 00000KT 10SM CLR 00/M03 A3024 340 81 -1300 000/00 RMK AO2
14840KMKG MKG20060329000509503/29/06 00:05:31  5-MIN KMKG 290505Z 00000KT 9SM CLR M01/M03 A3024 340 85 -1400 000/00 RMK AO2
14840KMKG MKG20060329001009503/29/06 00:10:31  5-MIN KMKG 290510Z 00000KT 9SM CLR M01/M03 A3024 340 85 -1400 000/00 RMK AO2
14840KMKG MKG20060329001509503/29/06 00:15:31  5-MIN KMKG 290515Z 00000KT 9SM CLR M01/M03 A3024 340 85 -1400 000/00 RMK AO2
14840KMKG MKG20060329002009503/29/06 00:20:31  5-MIN KMKG 290520Z 00000KT 9SM CLR M01/M03 A3024 340 81 -1400 000/00 RMK AO2
14840KMKG MKG20060329002509503/29/06 00:25:31  5-MIN KMKG 290525Z 00000KT 10SM CLR 00/M03 A3024 340 81 -1300 000/00 RMK AO2
14840KMKG MKG20060329003009503/29/06 00:30:31  5-MIN KMKG 290530Z 00000KT 9SM CLR M01/M03 A3024 340 85 -1400 000/00 RMK AO2
14840KMKG MKG20060329003509503/29/06 00:35:31  5-MIN KMKG 290535Z 00000KT 9SM CLR M01/M03 A3024 340 85 -1400 000/00 RMK AO2
14840KMKG MKG20060329004009503/29/06 00:40:31  5-MIN KMKG 290540Z 00000KT 9SM CLR M01/M03 A3024 340 81 -1400 000/00 RMK AO2
14840KMKG MKG20060329004509503/29/06 00:45:31  5-MIN KMKG 290545Z 00000KT 8SM CLR M01/M03 A3024 340 81 -1400 000/00 RMK AO2
14840KMKG MKG20060329005013003/29/06 00:50:31  5-MIN KMKG 290550Z 00000KT 8SM CLR M01/M03 A3024 340 81 -1400 000/00 RMK AO2 SLP246 T10061033 10067 21006 53013
14840KMKG MKG20060329005513003/29/06 00:55:31  5-MIN KMKG 290555Z 00000KT 8SM CLR M01/M03 A3024 330 85 -1400 000/00 RMK AO2 SLP247 T10061028 10067 21006 53002
14840KMKG MKG20060329010009403/29/06 01:00:31  5-MIN KMKG 290600Z 00000KT 9SM CLR 00/M03 A3024 340 81 -1300 000/00 RMK AO2
14840KMKG MKG20060329010509403/29/06 01:05:31  5-MIN KMKG 290605Z 00000KT 9SM CLR 00/M03 A3024 340 81 -1300 000/00 RMK AO2
14840KMKG MKG20060329011009403/29/06 01:10:31  5-MIN KMKG 290610Z 00000KT 9SM CLR 00/M03 A3024 340 81 -1300 000/00 RMK AO2
14840KMKG MKG20060329011509603/29/06 01:15:31  5-MIN KMKG 290615Z 00000KT 10SM CLR M01/M03 A3024 340 88 -1500 000/00 RMK AO2
14840KMKG MKG20060329012009603/29/06 01:20:31  5-MIN KMKG 290620Z 00000KT 10SM CLR M01/M03 A3024 330 88 -1500 000/00 RMK AO2
14840KMKG MKG20060329012509603/29/06 01:25:31  5-MIN KMKG 290625Z 00000KT 10SM CLR M01/M03 A3024 330 85 -1500 000/00 RMK AO2
14840KMKG MKG20060329013009503/29/06 01:30:31  5-MIN KMKG 290630Z 00000KT 8SM CLR M02/M03 A3025 330 92 -1500 000/00 RMK AO2
14840KMKG MKG20060329013509503/29/06 01:35:31  5-MIN KMKG 290635Z 00000KT 8SM CLR M02/M03 A3025 330 92 -1500 000/00 RMK AO2
14840KMKG MKG20060329014009503/29/06 01:40:31  5-MIN KMKG 290640Z 00000KT 8SM CLR M02/M03 A3025 330 92 -1500 000/00 RMK AO2
14840KMKG MKG20060329014509503/29/06 01:45:31  5-MIN KMKG 290645Z 00000KT 8SM CLR M02/M03 A3025 330 92 -1500 000/00 RMK AO2
14840KMKG MKG20060329015011203/29/06 01:50:31  5-MIN KMKG 290650Z 00000KT 8SM CLR M02/M03 A3025 330 88 -1500 000/00 RMK AO2 SLP248 T10171033
14840KMKG MKG20060329015511203/29/06 01:55:31  5-MIN KMKG 290655Z 00000KT 8SM CLR M01/M03 A3024 330 85 -1500 000/00 RMK AO2 SLP247 T10111033
14840KMKG MKG20060329020009503/29/06 02:00:31  5-MIN KMKG 290700Z 00000KT 8SM CLR M01/M03 A3024 330 85 -1500 000/00 RMK AO2
14840KMKG MKG20060329020509503/29/06 02:05:31  5-MIN KMKG 290705Z 00000KT 9SM CLR M01/M03 A3024 330 85 -1500 000/00 RMK AO2
14840KMKG MKG20060329021009503/29/06 02:10:31  5-MIN KMKG 290710Z 00000KT 8SM CLR M01/M03 A3024 330 85 -1500 000/00 RMK AO2
14840KMKG MKG20060329021509503/29/06 02:15:31  5-MIN KMKG 290715Z 00000KT 7SM CLR M02/M03 A3024 330 88 -1500 000/00 RMK AO2
14840KMKG MKG20060329022009503/29/06 02:20:31  5-MIN KMKG 290720Z 00000KT 7SM CLR M01/M03 A3024 330 88 -1500 000/00 RMK AO2
14840KMKG MKG20060329022509503/29/06 02:25:31  5-MIN KMKG 290725Z 00000KT 7SM CLR M02/M03 A3024 330 92 -1500 000/00 RMK AO2
14840KMKG MKG20060329023009503/29/06 02:30:31  5-MIN KMKG 290730Z 00000KT 7SM CLR M02/M03 A3024 330 88 -1500 000/00 RMK AO2
14840KMKG MKG20060329023509503/29/06 02:35:31  5-MIN KMKG 290735Z 00000KT 8SM CLR M02/M03 A3024 330 88 -1500 000/00 RMK AO2
14840KMKG MKG20060329024009503/29/06 02:40:31  5-MIN KMKG 290740Z 00000KT 8SM CLR M02/M04 A3024 330 85 -1500 000/00 RMK AO2
14840KMKG MKG20060329024509503/29/06 02:45:31  5-MIN KMKG 290745Z 00000KT 8SM CLR M02/M03 A3024 330 88 -1500 000/00 RMK AO2
14840KMKG MKG20060329025011203/29/06 02:50:31  5-MIN KMKG 290750Z 00000KT 8SM CLR M02/M03 A3024 330 88 -1500 000/00 RMK AO2 SLP247 T10171033
14840KMKG MKG20060329025511203/29/06 02:55:31  5-MIN KMKG 290755Z 00000KT 8SM CLR M02/M03 A3024 330 92 -1500 000/00 RMK AO2 SLP248 T10171028
14840KMKG MKG20060329030009503/29/06 03:00:31  5-MIN KMKG 290800Z 00000KT 8SM CLR M02/M03 A3024 330 92 -1500 000/00 RMK AO2
14840KMKG MKG20060329030509503/29/06 03:05:31  5-MIN KMKG 290805Z 00000KT 7SM CLR M02/M03 A3024 330 92 -1500 000/00 RMK AO2
14840KMKG MKG20060329031009503/29/06 03:10:31  5-MIN KMKG 290810Z 00000KT 7SM CLR M02/M03 A3024 330 92 -1500 000/00 RMK AO2
14840KMKG MKG20060329031509503/29/06 03:15:31  5-MIN KMKG 290815Z 00000KT 9SM CLR M02/M03 A3024 330 88 -1500 000/00 RMK AO2
14840KMKG MKG20060329032009503/29/06 03:20:31  5-MIN KMKG 290820Z 00000KT 9SM CLR M01/M03 A3024 330 85 -1500 000/00 RMK AO2
14840KMKG MKG20060329032509503/29/06 03:25:31  5-MIN KMKG 290825Z 00000KT 9SM CLR M02/M04 A3024 330 88 -1600 000/00 RMK AO2
14840KMKG MKG20060329033009503/29/06 03:30:31  5-MIN KMKG 290830Z 00000KT 8SM CLR M02/M04 A3024 330 88 -1600 000/00 RMK AO2
14840KMKG MKG20060329033509803/29/06 03:35:31  5-MIN KMKG 290835Z 00000KT 6SM BR CLR M02/M03 A3024 330 92 -1600 000/00 RMK AO2
14840KMKG MKG20060329034009803/29/06 03:40:31  5-MIN KMKG 290840Z 00000KT 5SM BR CLR M02/M03 A3024 330 92 -1600 000/00 RMK AO2
14840KMKG MKG20060329034509803/29/06 03:45:31  5-MIN KMKG 290845Z 00000KT 6SM BR CLR M02/M03 A3024 330 92 -1600 000/00 RMK AO2
14840KMKG MKG20060329035011803/29/06 03:50:31  5-MIN KMKG 290850Z 00000KT 7SM CLR M02/M04 A3024 330 88 -1600 000/00 RMK AO2 SLP247 T10221039 53002
14840KMKG MKG20060329035511803/29/06 03:55:31  5-MIN KMKG 290855Z 00000KT 7SM CLR M02/M04 A3024 330 88 -1600 000/00 RMK AO2 SLP247 T10221039 50000
14840KMKG MKG20060329040009503/29/06 04:00:31  5-MIN KMKG 290900Z 00000KT 7SM CLR M03/M04 A3024 330 92 -1700 000/00 RMK AO2
14840KMKG MKG20060329040509503/29/06 04:05:31  5-MIN KMKG 290905Z 14003KT 7SM CLR M02/M04 A3024 330 88 -1600 140/03 RMK AO2
14840KMKG MKG20060329041009503/29/06 04:10:31  5-MIN KMKG 290910Z 00000KT 7SM CLR M02/M03 A3024 330 92 -1600 000/00 RMK AO2
14840KMKG MKG20060329041509503/29/06 04:15:31  5-MIN KMKG 290915Z 00000KT 7SM CLR M02/M03 A3024 330 92 -1600 000/00 RMK AO2
14840KMKG MKG20060329042009503/29/06 04:20:31  5-MIN KMKG 290920Z 00000KT 7SM CLR M02/M03 A3024 330 92 -1600 000/00 RMK AO2
14840KMKG MKG20060329042509503/29/06 04:25:31  5-MIN KMKG 290925Z 00000KT 8SM CLR M02/M04 A3024 330 88 -1600 000/00 RMK AO2
14840KMKG MKG20060329043009503/29/06 04:30:31  5-MIN KMKG 290930Z 00000KT 8SM CLR M02/M04 A3024 330 88 -1600 000/00 RMK AO2
14840KMKG MKG20060329043509503/29/06 04:35:31  5-MIN KMKG 290935Z 00000KT 8SM CLR M03/M04 A3025 330 92 -1700 000/00 RMK AO2
14840KMKG MKG20060329044009503/29/06 04:40:31  5-MIN KMKG 290940Z 00000KT 8SM CLR M03/M04 A3025 330 92 -1700 000/00 RMK AO2
14840KMKG MKG20060329044509503/29/06 04:45:31  5-MIN KMKG 290945Z 00000KT 8SM CLR M03/M04 A3025 330 92 -1700 000/00 RMK AO2
14840KMKG MKG20060329045011203/29/06 04:50:31  5-MIN KMKG 290950Z 00000KT 8SM CLR M02/M04 A3025 330 88 -1600 000/00 RMK AO2 SLP250 T10221039
14840KMKG MKG20060329045511203/29/06 04:55:31  5-MIN KMKG 290955Z 00000KT 7SM CLR M02/M03 A3025 320 92 -1600 000/00 RMK AO2 SLP250 T10221033
14840KMKG MKG20060329050009503/29/06 05:00:31  5-MIN KMKG 291000Z 00000KT 7SM CLR M02/M04 A3025 320 88 -1600 000/00 RMK AO2
14840KMKG MKG20060329050509503/29/06 05:05:31  5-MIN KMKG 291005Z 00000KT 7SM CLR M02/M04 A3026 320 88 -1600 000/00 RMK AO2
14840KMKG MKG20060329051009503/29/06 05:10:31  5-MIN KMKG 291010Z 00000KT 7SM CLR M02/M04 A3026 320 88 -1600 000/00 RMK AO2
14840KMKG MKG20060329051509503/29/06 05:15:31  5-MIN KMKG 291015Z 00000KT 7SM CLR M02/M04 A3026 320 88 -1600 000/00 RMK AO2
14840KMKG MKG20060329052009503/29/06 05:20:31  5-MIN KMKG 291020Z 00000KT 7SM CLR M02/M04 A3026 320 88 -1600 000/00 RMK AO2
14840KMKG MKG20060329052509503/29/06 05:25:31  5-MIN KMKG 291025Z 00000KT 7SM CLR M02/M04 A3026 320 88 -1600 000/00 RMK AO2
14840KMKG MKG20060329053009503/29/06 05:30:31  5-MIN KMKG 291030Z 00000KT 7SM CLR M02/M04 A3026 320 88 -1600 000/00 RMK AO2
14840KMKG MKG20060329053509503/29/06 05:35:31  5-MIN KMKG 291035Z 00000KT 7SM CLR M03/M04 A3026 320 92 -1700 000/00 RMK AO2
14840KMKG MKG20060329054009503/29/06 05:40:31  5-MIN KMKG 291040Z 00000KT 7SM CLR M03/M04 A3026 320 92 -1700 000/00 RMK AO2
14840KMKG MKG20060329054509503/29/06 05:45:31  5-MIN KMKG 291045Z 00000KT 7SM CLR M03/M04 A3026 310 92 -1700 000/00 RMK AO2
14840KMKG MKG20060329055011503/29/06 05:50:31  5-MIN KMKG 291050Z 00000KT 6SM BR CLR M02/M04 A3026 310 88 -1600 000/00 RMK AO2 SLP255 T10221039
14840KMKG MKG20060329055511503/29/06 05:55:31  5-MIN KMKG 291055Z 00000KT 6SM BR CLR M02/M03 A3027 310 92 -1600 000/00 RMK AO2 SLP255 T10221033
14840KMKG MKG20060329060009503/29/06 06:00:31  5-MIN KMKG 291100Z 00000KT 7SM CLR M03/M04 A3027 310 92 -1700 000/00 RMK AO2
14840KMKG MKG20060329060509503/29/06 06:05:31  5-MIN KMKG 291105Z 00000KT 7SM CLR M03/M04 A3027 310 92 -1700 000/00 RMK AO2
14840KMKG MKG20060329061009803/29/06 06:10:31  5-MIN KMKG 291110Z 00000KT 6SM BR CLR M03/M04 A3027 310 92 -1700 000/00 RMK AO2
14840KMKG MKG20060329061509803/29/06 06:15:31  5-MIN KMKG 291115Z 29003KT 6SM BR CLR M03/M04 A3027 300 88 -1700 300/03 RMK AO2
14840KMKG MKG20060329062009803/29/06 06:20:31  5-MIN KMKG 291120Z 29003KT 6SM BR CLR M03/M04 A3027 300 92 -1700 290/03 RMK AO2
14840KMKG MKG20060329062509803/29/06 06:25:31  5-MIN KMKG 291125Z 00000KT 6SM BR CLR M03/M04 A3027 300 92 -1700 000/00 RMK AO2
14840KMKG MKG20060329063011503/29/06 06:30:31  5-MIN KMKG 291130Z 00000KT 5SM BR CLR M03/M04 A3028 300 96 -1800 000/00 RMK AO2 VIS 2 1/2 RWY 14
14840KMKG MKG20060329063511503/29/06 06:35:31  5-MIN KMKG 291135Z 00000KT 5SM BR CLR M04/M05 A3028 300 92 -1900 000/00 RMK AO2 VIS 1 3/4 RWY 14
14840KMKG MKG20060329064011503/29/06 06:40:31  5-MIN KMKG 291140Z 00000KT 5SM BR CLR M03/M04 A3028 300 88 -1700 000/00 RMK AO2 VIS 1 3/4 RWY 14
14840KMKG MKG20060329064511503/29/06 06:45:31  5-MIN KMKG 291145Z 00000KT 6SM BR CLR M03/M04 A3028 300 88 -1700 000/00 RMK AO2 VIS 1 3/4 RWY 14
14840KMKG MKG20060329065015003/29/06 06:50:31  5-MIN KMKG 291150Z 00000KT 6SM BR CLR M03/M04 A3028 300 88 -1700 000/00 RMK AO2 VIS 1 1/2 RWY 14 SLP261 T10281044 10000 21039 50000
14840KMKG MKG20060329065515003/29/06 06:55:31  5-MIN KMKG 291155Z 35003KT 6SM BR CLR M02/M04 A3028 300 85 -1700 350/03 RMK AO2 VIS 1 1/2 RWY 14 SLP261 T10221044 10000 21039 53014
14840KMKG MKG20060329070011803/29/06 07:00:31  5-MIN KMKG 291200Z 36003KT 4SM BR FEW036 M02/M03 A3028 300 92 -1700 010/03 RMK AO2 VIS 1 1/4 RWY 14
14840KMKG MKG20060329070511803/29/06 07:05:31  5-MIN KMKG 291205Z 00000KT 4SM BR FEW036 M02/M03 A3028 300 92 -1600 000/00 RMK AO2 VIS 1 1/2 RWY 14
14840KMKG MKG20060329071011803/29/06 07:10:31  5-MIN KMKG 291210Z 00000KT 4SM BR FEW036 M02/M03 A3028 300 92 -1700 000/00 RMK AO2 VIS 1 3/4 RWY 14
14840KMKG MKG20060329071511803/29/06 07:15:31  5-MIN KMKG 291215Z 00000KT 4SM BR FEW036 M02/M03 A3029 290 92 -1600 000/00 RMK AO2 VIS 1 3/4 RWY 14
14840KMKG MKG20060329072011403/29/06 07:20:31  5-MIN KMKG 291220Z 08003KT 4SM BR FEW036 M02/M03 A3029 290 88 -1600 080/03 RMK AO2 VIS 2 RWY 14
14840KMKG MKG20060329072511803/29/06 07:25:31  5-MIN KMKG 291225Z 08003KT 5SM BR FEW036 M02/M03 A3029 290 92 -1600 080/03 RMK AO2 VIS 1 3/4 RWY 14
14840KMKG MKG20060329073011803/29/06 07:30:31  5-MIN KMKG 291230Z 00000KT 4SM BR FEW036 M01/M03 A3029 290 88 -1500 000/00 RMK AO2 VIS 1 3/4 RWY 14
14840KMKG MKG20060329073511803/29/06 07:35:31  5-MIN KMKG 291235Z 00000KT 4SM BR SCT036 M01/M02 A3029 290 92 -1500 000/00 RMK AO2 VIS 1 3/4 RWY 14
14840KMKG MKG20060329074011803/29/06 07:40:31  5-MIN KMKG 291240Z 00000KT 4SM BR SCT036 M01/M02 A3029 290 92 -1500 000/00 RMK AO2 VIS 1 3/4 RWY 14
14840KMKG MKG20060329074511303/29/06 07:45:31  5-MIN KMKG 291245Z 00000KT 4SM BR SCT036 00/M01 A3029 290 92 -1400 000/00 RMK AO2 VIS 2 RWY 14
14840KMKG MKG20060329075013003/29/06 07:50:31  5-MIN KMKG 291250Z 00000KT 4SM BR BKN036 00/M01 A3030 280 92 -1400 000/00 RMK AO2 VIS 2 RWY 14 SLP265 T00001011
14840KMKG MKG20060329075513003/29/06 07:55:31  5-MIN KMKG 291255Z 00000KT 4SM BR BKN036 00/M01 A3030 280 92 -1400 000/00 RMK AO2 VIS 2 RWY 14 SLP265 T00001011
14840KMKG MKG20060329080011703/29/06 08:00:31  5-MIN KMKG 291300Z 00000KT 4SM BR BKN036 01/M01 A3030 280 92 -1300 000/00 RMK AO2 VIS 2 1/2 RWY 14
14840KMKG MKG20060329080511703/29/06 08:05:31  5-MIN KMKG 291305Z 00000KT 4SM BR BKN036 01/M01 A3030 280 89 -1300 000/00 RMK AO2 VIS 2 1/2 RWY 14
14840KMKG MKG20060329081011603/29/06 08:10:31  5-MIN KMKG 291310Z 00000KT 4SM BR BKN036 02/00 A3030 280 89 -1200 000/00 RMK AO2 VIS 2 1/2 RWY 14
14840KMKG MKG20060329081511603/29/06 08:15:31  5-MIN KMKG 291315Z 00000KT 5SM BR BKN036 02/01 A3030 280 92 -1200 000/00 RMK AO2 VIS 2 1/2 RWY 14
14840KMKG MKG20060329082009903/29/06 08:20:31  5-MIN KMKG 291320Z 00000KT 6SM BR BKN036 02/01 A3030 280 89 -1100 000/00 RMK AO2
14840KMKG MKG20060329082509903/29/06 08:25:31  5-MIN KMKG 291325Z 00000KT 6SM BR BKN036 02/01 A3030 280 89 -1100 000/00 RMK AO2
14840KMKG MKG20060329083009903/29/06 08:30:31  5-MIN KMKG 291330Z 12003KT 6SM BR BKN036 03/01 A3030 280 89 -1100 120/03 RMK AO2
14840KMKG MKG20060329083509903/29/06 08:35:31  5-MIN KMKG 291335Z 00000KT 6SM BR OVC036 03/01 A3030 280 89 -1000 000/00 RMK AO2
14840KMKG MKG20060329084009903/29/06 08:40:31  5-MIN KMKG 291340Z 00000KT 6SM BR OVC036 03/01 A3030 280 85 -1000 000/00 RMK AO2
14840KMKG MKG20060329084509603/29/06 08:45:31  5-MIN KMKG 291345Z 00000KT 7SM OVC036 03/01 A3031 280 85 -1000 000/00 RMK AO2
14840KMKG MKG20060329085011303/29/06 08:50:31  5-MIN KMKG 291350Z 22003KT 8SM OVC036 03/01 A3031 270 85 -1000 220/03 RMK AO2 SLP269 T00330011
14840KMKG MKG20060329085511303/29/06 08:55:31  5-MIN KMKG 291355Z 00000KT 8SM BKN038 03/02 A3031 270 89 -1000 000/00 RMK AO2 SLP269 T00330017
14840KMKG MKG20060329090009503/29/06 09:00:31  5-MIN KMKG 291400Z 00000KT 8SM OVC038 04/02 A3031 270 85 -900 000/00 RMK AO2
14840KMKG MKG20060329090509503/29/06 09:05:31  5-MIN KMKG 291405Z 16003KT 9SM OVC038 04/01 A3031 270 82 -900 160/03 RMK AO2
14840KMKG MKG20060329091009603/29/06 09:10:31  5-MIN KMKG 291410Z 00000KT 10SM OVC038 04/01 A3031 270 79 -900 000/00 RMK AO2
14840KMKG MKG20060329091509603/29/06 09:15:31  5-MIN KMKG 291415Z 18003KT 10SM OVC038 05/01 A3031 270 76 -800 190/03 RMK AO2
14840KMKG MKG20060329092009603/29/06 09:20:31  5-MIN KMKG 291420Z 20003KT 10SM OVC038 05/01 A3031 270 73 -800 210/03 RMK AO2
14840KMKG MKG20060329092509603/29/06 09:25:31  5-MIN KMKG 291425Z 19003KT 10SM OVC038 05/01 A3031 270 73 -800 200/03 RMK AO2
14840KMKG MKG20060329093009603/29/06 09:30:31  5-MIN KMKG 291430Z 20004KT 10SM OVC038 06/01 A3032 270 70 -700 200/04 RMK AO2
14840KMKG MKG20060329093509603/29/06 09:35:31  5-MIN KMKG 291435Z 19003KT 10SM OVC038 06/01 A3032 270 70 -700 200/03 RMK AO2
14840KMKG MKG20060329094009603/29/06 09:40:31  5-MIN KMKG 291440Z 20004KT 10SM OVC038 06/01 A3032 260 70 -700 210/04 RMK AO2
14840KMKG MKG20060329094509603/29/06 09:45:31  5-MIN KMKG 291445Z 20003KT 10SM OVC038 07/01 A3032 260 67 -600 200/03 RMK AO2
14840KMKG MKG20060329095011903/29/06 09:50:31  5-MIN KMKG 291450Z 18003KT 10SM OVC038 07/01 A3032 260 67 -600 190/03 RMK AO2 SLP273 T00670011 53014
14840KMKG MKG20060329095511903/29/06 09:55:31  5-MIN KMKG 291455Z 18004KT 10SM OVC038 07/01 A3032 260 67 -600 180/04 RMK AO2 SLP273 T00670011 51013
14840KMKG MKG20060329100009603/29/06 10:00:31  5-MIN KMKG 291500Z VRB03KT 10SM OVC038 07/01 A3032 260 65 -500 VRB/03 RMK AO2
14840KMKG MKG20060329100509603/29/06 10:05:31  5-MIN KMKG 291505Z 19004KT 10SM OVC038 07/01 A3032 260 65 -500 190/04 RMK AO2
14840KMKG MKG20060329101009603/29/06 10:10:31  5-MIN KMKG 291510Z 18004KT 10SM OVC038 07/01 A3032 260 65 -500 190/04 RMK AO2
14840KMKG MKG20060329101509603/29/06 10:15:31  5-MIN KMKG 291515Z 20004KT 10SM OVC038 08/01 A3032 260 62 -500 200/04 RMK AO2
14840KMKG MKG20060329102009603/29/06 10:20:31  5-MIN KMKG 291520Z 19004KT 10SM OVC038 08/01 A3032 260 62 -500 200/04 RMK AO2
14840KMKG MKG20060329102509603/29/06 10:25:31  5-MIN KMKG 291525Z 20004KT 10SM OVC038 08/01 A3032 260 62 -500 210/04 RMK AO2
14840KMKG MKG20060329103009603/29/06 10:30:31  5-MIN KMKG 291530Z 20004KT 10SM OVC038 08/01 A3032 260 62 -500 200/04 RMK AO2
14840KMKG MKG20060329103509603/29/06 10:35:31  5-MIN KMKG 291535Z VRB04KT 10SM OVC038 08/01 A3032 260 62 -500 VRB/04 RMK AO2
14840KMKG MKG20060329104009503/29/06 10:40:31  5-MIN KMKG 291540Z 19004KT 9SM OVC038 08/01 A3032 260 60 -400 190/04 RMK AO2
14840KMKG MKG20060329104509503/29/06 10:45:31  5-MIN KMKG 291545Z 22005KT 9SM OVC038 08/02 A3033 260 63 -400 220/05 RMK AO2
14840KMKG MKG20060329105011303/29/06 10:50:31  5-MIN KMKG 291550Z 23009KT 10SM OVC038 08/01 A3033 260 60 -400 230/09 RMK AO2 SLP275 T00830011
14840KMKG MKG20060329105511303/29/06 10:55:31  5-MIN KMKG 291555Z 22007KT 10SM OVC038 08/01 A3033 260 60 -500 220/07 RMK AO2 SLP276 T00780006
14840KMKG MKG20060329110009603/29/06 11:00:31  5-MIN KMKG 291600Z 22008KT 10SM OVC038 08/01 A3033 260 60 -500 220/08 RMK AO2
14840KMKG MKG20060329110509603/29/06 11:05:31  5-MIN KMKG 291605Z 22007KT 10SM OVC038 08/01 A3033 260 62 -500 220/07 RMK AO2
14840KMKG MKG20060329111009603/29/06 11:10:31  5-MIN KMKG 291610Z 21007KT 10SM OVC038 08/01 A3033 260 60 -500 210/07 RMK AO2
14840KMKG MKG20060329111509503/29/06 11:15:31  5-MIN KMKG 291615Z 21006KT 9SM OVC038 08/01 A3033 250 60 -500 210/06 RMK AO2
14840KMKG MKG20060329112009503/29/06 11:20:31  5-MIN KMKG 291620Z 22007KT 9SM OVC038 08/01 A3033 250 62 -500 230/07 RMK AO2
14840KMKG MKG20060329112509503/29/06 11:25:31  5-MIN KMKG 291625Z 23007KT 9SM OVC038 08/01 A3033 250 62 -500 230/07 RMK AO2
14840KMKG MKG20060329113009503/29/06 11:30:31  5-MIN KMKG 291630Z 24007KT 9SM OVC038 08/01 A3033 250 62 -500 240/07 RMK AO2
14840KMKG MKG20060329113509503/29/06 11:35:31  5-MIN KMKG 291635Z 22006KT 9SM OVC038 07/01 A3033 250 65 -500 230/06 RMK AO2
14840KMKG MKG20060329114009503/29/06 11:40:31  5-MIN KMKG 291640Z 22008KT 9SM OVC038 07/01 A3033 250 65 -500 220/08 RMK AO2
14840KMKG MKG20060329114509503/29/06 11:45:31  5-MIN KMKG 291645Z 22006KT 8SM OVC038 07/01 A3033 250 65 -500 220/06 RMK AO2
14840KMKG MKG20060329115011203/29/06 11:50:31  5-MIN KMKG 291650Z 21005KT 8SM OVC038 07/01 A3033 260 65 -500 220/05 RMK AO2 SLP276 T00720011
14840KMKG MKG20060329115511203/29/06 11:55:31  5-MIN KMKG 291655Z 19005KT 8SM OVC038 08/01 A3033 260 62 -500 200/05 RMK AO2 SLP275 T00780011
14840KMKG MKG20060329120009503/29/06 12:00:31  5-MIN KMKG 291700Z 22005KT 8SM OVC038 08/01 A3032 260 62 -500 220/05 RMK AO2
14840KMKG MKG20060329120509503/29/06 12:05:31  5-MIN KMKG 291705Z 22004KT 8SM OVC038 08/01 A3032 260 62 -500 230/04 RMK AO2
14840KMKG MKG20060329121009503/29/06 12:10:31  5-MIN KMKG 291710Z 22005KT 8SM OVC038 08/01 A3032 260 62 -500 220/05 RMK AO2
14840KMKG MKG20060329121509503/29/06 12:15:31  5-MIN KMKG 291715Z 22005KT 8SM OVC038 08/01 A3032 260 62 -500 230/05 RMK AO2
14840KMKG MKG20060329122009503/29/06 12:20:31  5-MIN KMKG 291720Z VRB05KT 8SM OVC038 08/02 A3032 260 63 -400 VRB/05 RMK AO2
14840KMKG MKG20060329122509503/29/06 12:25:31  5-MIN KMKG 291725Z 23005KT 8SM OVC038 08/02 A3032 260 63 -400 240/05 RMK AO2
14840KMKG MKG20060329123009503/29/06 12:30:31  5-MIN KMKG 291730Z 24005KT 8SM OVC038 08/02 A3032 260 63 -400 240/05 RMK AO2
14840KMKG MKG20060329123509503/29/06 12:35:31  5-MIN KMKG 291735Z 27005KT 9SM OVC038 08/02 A3032 260 63 -400 280/05 RMK AO2
14840KMKG MKG20060329124009503/29/06 12:40:31  5-MIN KMKG 291740Z 24008KT 8SM OVC038 08/02 A3032 260 63 -400 240/08 RMK AO2
14840KMKG MKG20060329124509503/29/06 12:45:31  5-MIN KMKG 291745Z 23007KT 8SM OVC040 08/02 A3032 270 63 -400 230/07 RMK AO2
14840KMKG MKG20060329125013003/29/06 12:50:31  5-MIN KMKG 291750Z 23006KT 8SM OVC040 08/02 A3032 270 63 -400 230/06 RMK AO2 SLP272 T00830017 10083 21022 51013
14840KMKG MKG20060329125513003/29/06 12:55:31  5-MIN KMKG 291755Z 23006KT 8SM OVC040 08/02 A3031 270 65 -400 230/06 RMK AO2 SLP271 T00830022 10083 21022 58002
14840KMKG MKG20060329130009503/29/06 13:00:31  5-MIN KMKG 291800Z 21007KT 8SM OVC040 08/02 A3031 270 65 -400 220/07 RMK AO2
14840KMKG MKG20060329130509503/29/06 13:05:31  5-MIN KMKG 291805Z 23006KT 8SM OVC040 09/02 A3031 270 63 -300 230/06 RMK AO2
14840KMKG MKG20060329131009503/29/06 13:10:31  5-MIN KMKG 291810Z 18006KT 8SM OVC040 09/02 A3031 270 63 -300 190/06 RMK AO2
14840KMKG MKG20060329131509503/29/06 13:15:31  5-MIN KMKG 291815Z 23006KT 8SM OVC040 09/02 A3031 270 63 -300 230/06 RMK AO2
14840KMKG MKG20060329132009503/29/06 13:20:31  5-MIN KMKG 291820Z 23006KT 8SM OVC042 09/02 A3031 280 60 -200 230/06 RMK AO2
14840KMKG MKG20060329132509503/29/06 13:25:31  5-MIN KMKG 291825Z 23006KT 9SM OVC042 09/02 A3031 280 60 -200 230/06 RMK AO2
14840KMKG MKG20060329133009603/29/06 13:30:31  5-MIN KMKG 291830Z 23007KT 10SM OVC042 09/02 A3030 280 58 -200 240/07 RMK AO2
14840KMKG MKG20060329133509603/29/06 13:35:31  5-MIN KMKG 291835Z 23008KT 10SM OVC042 09/02 A3030 280 58 -200 230/08 RMK AO2
14840KMKG MKG20060329134009603/29/06 13:40:31  5-MIN KMKG 291840Z 23007KT 10SM OVC042 09/02 A3030 280 58 -200 230/07 RMK AO2
14840KMKG MKG20060329134509603/29/06 13:45:31  5-MIN KMKG 291845Z 24009KT 10SM OVC042 10/02 A3030 280 56 -200 240/09 RMK AO2
14840KMKG MKG20060329135011303/29/06 13:50:31  5-MIN KMKG 291850Z 20008KT 10SM OVC044 10/02 A3030 280 56 -200 210/08 RMK AO2 SLP266 T01000017
14840KMKG MKG20060329135511303/29/06 13:55:31  5-MIN KMKG 291855Z 22008KT 10SM OVC044 10/01 A3029 290 54 -200 220/08 RMK AO2 SLP265 T01000011
14840KMKG MKG20060329140009603/29/06 14:00:31  5-MIN KMKG 291900Z 22008KT 10SM OVC044 10/01 A3029 290 54 -200 220/08 RMK AO2
14840KMKG MKG20060329140509603/29/06 14:05:31  5-MIN KMKG 291905Z 23008KT 10SM OVC044 10/01 A3029 290 54 -200 230/08 RMK AO2
14840KMKG MKG20060329141009603/29/06 14:10:31  5-MIN KMKG 291910Z 22008KT 10SM OVC044 10/01 A3029 290 54 -100 220/08 RMK AO2
14840KMKG MKG20060329141509603/29/06 14:15:31  5-MIN KMKG 291915Z 20008KT 10SM OVC044 10/01 A3029 290 54 -100 210/08 RMK AO2
14840KMKG MKG20060329142009603/29/06 14:20:31  5-MIN KMKG 291920Z 24007KT 10SM OVC044 10/01 A3029 290 54 -100 240/07 RMK AO2
14840KMKG MKG20060329142509603/29/06 14:25:31  5-MIN KMKG 291925Z 21010KT 10SM OVC044 10/01 A3029 290 54 -100 210/10 RMK AO2
14840KMKG MKG20060329143009603/29/06 14:30:31  5-MIN KMKG 291930Z 21006KT 10SM OVC044 10/01 A3028 300 54 -100 220/06 RMK AO2
14840KMKG MKG20060329143509603/29/06 14:35:31  5-MIN KMKG 291935Z 19009KT 10SM OVC044 10/01 A3028 300 54 -100 200/09 RMK AO2
14840KMKG MKG20060329144009603/29/06 14:40:31  5-MIN KMKG 291940Z 23008KT 10SM OVC044 11/01 A3028 300 52 -100 240/08 RMK AO2
14840KMKG MKG20060329144509603/29/06 14:45:31  5-MIN KMKG 291945Z 23008KT 10SM OVC044 11/01 A3028 300 52 -100 230/08 RMK AO2
14840KMKG MKG20060329145011303/29/06 14:50:31  5-MIN KMKG 291950Z 23009KT 10SM OVC044 11/01 A3027 310 52 -100 240/09 RMK AO2 SLP257 T01060011
14840KMKG MKG20060329145511303/29/06 14:55:31  5-MIN KMKG 291955Z 23008KT 10SM OVC044 10/01 A3027 310 52 -100 240/08 RMK AO2 SLP257 T01000006
14840KMKG MKG20060329150009603/29/06 15:00:31  5-MIN KMKG 292000Z 23010KT 10SM OVC044 10/01 A3027 310 54 -100 240/10 RMK AO2
14840KMKG MKG20060329150509603/29/06 15:05:31  5-MIN KMKG 292005Z 23009KT 10SM OVC044 10/01 A3027 310 54 -100 230/09 RMK AO2
14840KMKG MKG20060329151009603/29/06 15:10:31  5-MIN KMKG 292010Z 25009KT 10SM OVC044 10/01 A3027 310 54 -100 250/09 RMK AO2
14840KMKG MKG20060329151509603/29/06 15:15:31  5-MIN KMKG 292015Z 25010KT 10SM OVC044 11/02 A3027 310 54 -100 250/10 RMK AO2
14840KMKG MKG20060329152009603/29/06 15:20:31  5-MIN KMKG 292020Z 24008KT 10SM OVC044 09/02 A3027 310 58 -200 240/08 RMK AO2
14840KMKG MKG20060329152509603/29/06 15:25:31  5-MIN KMKG 292025Z 25007KT 10SM OVC044 09/02 A3027 310 60 -200 260/07 RMK AO2
14840KMKG MKG20060329153009603/29/06 15:30:31  5-MIN KMKG 292030Z 23008KT 10SM OVC044 10/02 A3027 310 58 -100 240/08 RMK AO2
14840KMKG MKG20060329153509603/29/06 15:35:31  5-MIN KMKG 292035Z 22007KT 10SM OVC044 09/02 A3027 310 63 -300 220/07 RMK AO2
14840KMKG MKG20060329154009603/29/06 15:40:31  5-MIN KMKG 292040Z 22007KT 10SM OVC044 09/02 A3026 320 60 -200 220/07 RMK AO2
14840KMKG MKG20060329154509603/29/06 15:45:31  5-MIN KMKG 292045Z 23008KT 10SM OVC044 09/02 A3026 320 60 -200 240/08 RMK AO2
14840KMKG MKG20060329155011903/29/06 15:50:31  5-MIN KMKG 292050Z 25007KT 10SM OVC044 09/02 A3026 320 60 -200 250/07 RMK AO2 SLP253 T00940022 58002
14840KMKG MKG20060329155511803/29/06 15:55:31  5-MIN KMKG 292055Z 23008KT 9SM OVC042 09/03 A3026 320 65 -300 240/08 RMK AO2 SLP253 T00890028 56018
14840KMKG MKG20060329160009503/29/06 16:00:31  5-MIN KMKG 292100Z 24008KT 8SM OVC042 09/03 A3026 320 65 -300 240/08 RMK AO2
14840KMKG MKG20060329160509503/29/06 16:05:31  5-MIN KMKG 292105Z 23008KT 8SM OVC042 09/03 A3026 320 65 -300 230/08 RMK AO2
14840KMKG MKG20060329161009503/29/06 16:10:31  5-MIN KMKG 292110Z 24008KT 8SM OVC042 09/03 A3026 320 65 -200 240/08 RMK AO2
14840KMKG MKG20060329161509503/29/06 16:15:31  5-MIN KMKG 292115Z 24008KT 8SM OVC042 09/03 A3026 320 65 -300 250/08 RMK AO2
14840KMKG MKG20060329162009503/29/06 16:20:31  5-MIN KMKG 292120Z 24008KT 7SM OVC042 08/03 A3026 320 68 -300 250/08 RMK AO2
14840KMKG MKG20060329162509503/29/06 16:25:31  5-MIN KMKG 292125Z 24007KT 7SM OVC042 08/03 A3026 320 68 -300 250/07 RMK AO2
14840KMKG MKG20060329163009503/29/06 16:30:31  5-MIN KMKG 292130Z 23007KT 7SM OVC042 08/03 A3026 320 68 -300 240/07 RMK AO2
14840KMKG MKG20060329163509503/29/06 16:35:31  5-MIN KMKG 292135Z 24007KT 7SM OVC042 08/03 A3026 320 68 -300 250/07 RMK AO2
14840KMKG MKG20060329164009503/29/06 16:40:31  5-MIN KMKG 292140Z 23007KT 7SM OVC042 08/03 A3026 320 68 -300 230/07 RMK AO2
14840KMKG MKG20060329164509503/29/06 16:45:31  5-MIN KMKG 292145Z 23006KT 7SM OVC042 08/03 A3025 320 68 -300 240/06 RMK AO2
14840KMKG MKG20060329165011203/29/06 16:50:31  5-MIN KMKG 292150Z 23006KT 7SM OVC042 08/03 A3025 320 68 -300 240/06 RMK AO2 SLP251 T00830028
14840KMKG MKG20060329165511203/29/06 16:55:31  5-MIN KMKG 292155Z 24005KT 7SM OVC042 08/03 A3025 320 68 -300 250/05 RMK AO2 SLP250 T00830028
14840KMKG MKG20060329170009803/29/06 17:00:31  5-MIN KMKG 292200Z 24007KT 6SM HZ OVC040 08/03 A3025 320 68 -300 240/07 RMK AO2
14840KMKG MKG20060329170509803/29/06 17:05:31  5-MIN KMKG 292205Z 23007KT 6SM HZ OVC040 08/03 A3025 330 68 -300 240/07 RMK AO2
14840KMKG MKG20060329171009803/29/06 17:10:31  5-MIN KMKG 292210Z 24007KT 5SM HZ OVC040 08/03 A3025 330 70 -300 240/07 RMK AO2
14840KMKG MKG20060329171509803/29/06 17:15:31  5-MIN KMKG 292215Z 24007KT 5SM HZ OVC040 08/03 A3025 330 70 -300 240/07 RMK AO2
14840KMKG MKG20060329172009803/29/06 17:20:31  5-MIN KMKG 292220Z 24006KT 5SM HZ OVC040 08/03 A3025 330 73 -400 240/06 RMK AO2
14840KMKG MKG20060329172509803/29/06 17:25:31  5-MIN KMKG 292225Z 23005KT 5SM HZ OVC042 08/03 A3024 330 73 -400 240/05 RMK AO2
14840KMKG MKG20060329173009803/29/06 17:30:31  5-MIN KMKG 292230Z 25004KT 5SM HZ OVC042 08/03 A3024 330 70 -300 250/04 RMK AO2
14840KMKG MKG20060329173509803/29/06 17:35:31  5-MIN KMKG 292235Z 25004KT 5SM HZ OVC042 08/03 A3024 330 73 -400 260/04 RMK AO2
14840KMKG MKG20060329174009803/29/06 17:40:31  5-MIN KMKG 292240Z 24004KT 5SM HZ OVC042 08/03 A3024 330 70 -300 250/04 RMK AO2
14840KMKG MKG20060329174509803/29/06 17:45:31  5-MIN KMKG 292245Z 23005KT 5SM HZ OVC042 08/03 A3024 330 70 -300 230/05 RMK AO2
14840KMKG MKG20060329175011503/29/06 17:50:31  5-MIN KMKG 292250Z 24004KT 5SM HZ OVC042 08/03 A3024 340 68 -300 250/04 RMK AO2 SLP246 T00830028
14840KMKG MKG20060329175511503/29/06 17:55:31  5-MIN KMKG 292255Z 00000KT 5SM HZ OVC042 08/03 A3024 340 70 -400 000/00 RMK AO2 SLP245 T00780028
14840KMKG MKG20060329180009803/29/06 18:00:31  5-MIN KMKG 292300Z 24003KT 5SM HZ OVC042 08/03 A3024 340 68 -300 240/03 RMK AO2
14840KMKG MKG20060329180509803/29/06 18:05:31  5-MIN KMKG 292305Z 23004KT 5SM HZ OVC042 08/03 A3024 340 68 -300 240/04 RMK AO2
14840KMKG MKG20060329181009803/29/06 18:10:31  5-MIN KMKG 292310Z 22003KT 6SM HZ OVC042 08/03 A3023 340 70 -400 230/03 RMK AO2
14840KMKG MKG20060329181509803/29/06 18:15:31  5-MIN KMKG 292315Z 22003KT 6SM HZ OVC042 08/03 A3023 340 68 -300 230/03 RMK AO2
14840KMKG MKG20060329182009803/29/06 18:20:31  5-MIN KMKG 292320Z 20004KT 6SM HZ OVC042 08/02 A3023 340 65 -300 210/04 RMK AO2
14840KMKG MKG20060329182509503/29/06 18:25:31  5-MIN KMKG 292325Z 24004KT 7SM OVC042 08/02 A3023 340 65 -300 250/04 RMK AO2
14840KMKG MKG20060329183009803/29/06 18:30:31  5-MIN KMKG 292330Z 23004KT 6SM HZ OVC042 08/02 A3023 340 68 -400 230/04 RMK AO2
14840KMKG MKG20060329183509803/29/06 18:35:31  5-MIN KMKG 292335Z 22003KT 6SM HZ OVC040 08/02 A3023 340 68 -400 220/03 RMK AO2
14840KMKG MKG20060329184009803/29/06 18:40:31  5-MIN KMKG 292340Z 19004KT 6SM HZ OVC040 08/02 A3023 340 68 -400 190/04 RMK AO2
14840KMKG MKG20060329184509803/29/06 18:45:31  5-MIN KMKG 292345Z 17004KT 6SM HZ OVC040 08/02 A3023 340 68 -400 180/04 RMK AO2
14840KMKG MKG20060329185013303/29/06 18:50:31  5-MIN KMKG 292350Z 19004KT 6SM HZ OVC040 07/02 A3023 340 70 -400 190/04 RMK AO2 SLP244 T00720022 10106 20072 56018
14840KMKG MKG20060329185513303/29/06 18:55:31  5-MIN KMKG 292355Z 00000KT 6SM HZ BKN040 07/02 A3023 350 70 -400 000/00 RMK AO2 SLP242 T00720022 10106 20072 57010
14840KMKG MKG20060329190009803/29/06 19:00:31  5-MIN KMKG 300000Z 16003KT 6SM HZ BKN040 07/02 A3023 350 70 -400 160/03 RMK AO2
14840KMKG MKG20060329190509803/29/06 19:05:31  5-MIN KMKG 300005Z 15004KT 6SM HZ SCT040 07/02 A3023 350 68 -400 150/04 RMK AO2
14840KMKG MKG20060329191009803/29/06 19:10:31  5-MIN KMKG 300010Z 16004KT 6SM HZ FEW040 07/02 A3023 350 70 -500 160/04 RMK AO2
14840KMKG MKG20060329191509803/29/06 19:15:31  5-MIN KMKG 300015Z 16003KT 6SM HZ FEW040 07/02 A3022 350 68 -400 160/03 RMK AO2
14840KMKG MKG20060329192009803/29/06 19:20:31  5-MIN KMKG 300020Z 16003KT 6SM HZ FEW040 07/02 A3022 350 68 -400 170/03 RMK AO2
14840KMKG MKG20060329192509203/29/06 19:25:31  5-MIN KMKG 300025Z 16003KT 7SM CLR 07/02 A3022 350 70 -500 160/03 RMK AO2
14840KMKG MKG20060329193009203/29/06 19:30:31  5-MIN KMKG 300030Z 16003KT 7SM CLR 07/02 A3022 350 70 -500 160/03 RMK AO2
14840KMKG MKG20060329193509203/29/06 19:35:31  5-MIN KMKG 300035Z 14003KT 7SM CLR 06/02 A3022 350 73 -500 150/03 RMK AO2
14840KMKG MKG20060329194009203/29/06 19:40:31  5-MIN KMKG 300040Z 15004KT 7SM CLR 06/02 A3022 350 76 -600 150/04 RMK AO2
14840KMKG MKG20060329194509503/29/06 19:45:31  5-MIN KMKG 300045Z 15004KT 6SM HZ CLR 05/01 A3022 360 76 -700 150/04 RMK AO2
14840KMKG MKG20060329195011203/29/06 19:50:31  5-MIN KMKG 300050Z 15003KT 6SM HZ CLR 05/01 A3022 350 76 -700 150/03 RMK AO2 SLP239 T00500011
14840KMKG MKG20060329195511203/29/06 19:55:31  5-MIN KMKG 300055Z 16003KT 6SM HZ CLR 04/01 A3022 350 79 -800 160/03 RMK AO2 SLP241 T00440011
14840KMKG MKG20060329200009503/29/06 20:00:31  5-MIN KMKG 300100Z 00000KT 6SM HZ CLR 04/01 A3022 350 79 -800 000/00 RMK AO2
14840KMKG MKG20060329200509503/29/06 20:05:31  5-MIN KMKG 300105Z 00000KT 6SM HZ CLR 04/01 A3022 350 79 -800 000/00 RMK AO2
14840KMKG MKG20060329201009503/29/06 20:10:31  5-MIN KMKG 300110Z 13003KT 6SM HZ CLR 05/01 A3022 350 76 -700 130/03 RMK AO2
14840KMKG MKG20060329201509503/29/06 20:15:31  5-MIN KMKG 300115Z 14003KT 6SM HZ CLR 06/02 A3022 350 76 -600 140/03 RMK AO2
14840KMKG MKG20060329202009503/29/06 20:20:31  5-MIN KMKG 300120Z 14003KT 6SM HZ CLR 04/01 A3022 350 79 -800 140/03 RMK AO2
14840KMKG MKG20060329202509503/29/06 20:25:31  5-MIN KMKG 300125Z 00000KT 6SM HZ CLR 04/01 A3022 350 79 -800 000/00 RMK AO2
14840KMKG MKG20060329203009503/29/06 20:30:31  5-MIN KMKG 300130Z 00000KT 6SM HZ CLR 04/01 A3022 350 79 -800 000/00 RMK AO2
14840KMKG MKG20060329203509503/29/06 20:35:31  5-MIN KMKG 300135Z 00000KT 5SM HZ CLR 04/01 A3022 350 79 -800 000/00 RMK AO2
14840KMKG MKG20060329204009503/29/06 20:40:31  5-MIN KMKG 300140Z 00000KT 5SM HZ CLR 04/01 A3022 350 79 -800 000/00 RMK AO2
14840KMKG MKG20060329204509503/29/06 20:45:31  5-MIN KMKG 300145Z 00000KT 5SM HZ CLR 04/01 A3023 350 79 -800 000/00 RMK AO2
14840KMKG MKG20060329205011203/29/06 20:50:31  5-MIN KMKG 300150Z 00000KT 6SM HZ CLR 04/01 A3023 350 82 -800 000/00 RMK AO2 SLP241 T00390011
14840KMKG MKG20060329205511203/29/06 20:55:31  5-MIN KMKG 300155Z 00000KT 5SM BR CLR 03/01 A3023 350 85 -900 000/00 RMK AO2 SLP241 T00330011
14840KMKG MKG20060329210009503/29/06 21:00:31  5-MIN KMKG 300200Z 00000KT 5SM HZ CLR 04/01 A3022 350 82 -800 000/00 RMK AO2
14840KMKG MKG20060329210509603/29/06 21:05:31  5-MIN KMKG 300205Z 00000KT 5SM BR CLR 03/01 A3022 350 89 -1000 000/00 RMK AO2
14840KMKG MKG20060329211009603/29/06 21:10:31  5-MIN KMKG 300210Z 00000KT 5SM BR CLR 03/01 A3022 350 85 -1000 000/00 RMK AO2
14840KMKG MKG20060329211509503/29/06 21:15:31  5-MIN KMKG 300215Z 00000KT 5SM HZ CLR 03/01 A3022 350 82 -900 000/00 RMK AO2
14840KMKG MKG20060329212009603/29/06 21:20:31  5-MIN KMKG 300220Z 00000KT 5SM HZ CLR 03/00 A3022 350 82 -1000 000/00 RMK AO2
14840KMKG MKG20060329212509603/29/06 21:25:31  5-MIN KMKG 300225Z 00000KT 5SM BR CLR 02/00 A3022 350 85 -1000 000/00 RMK AO2
14840KMKG MKG20060329213009603/29/06 21:30:31  5-MIN KMKG 300230Z 12003KT 4SM BR CLR 02/00 A3022 350 85 -1000 120/03 RMK AO2
14840KMKG MKG20060329213509603/29/06 21:35:31  5-MIN KMKG 300235Z 12003KT 4SM BR CLR 02/00 A3022 350 85 -1000 120/03 RMK AO2
14840KMKG MKG20060329214009603/29/06 21:40:31  5-MIN KMKG 300240Z 12003KT 5SM BR CLR 02/00 A3022 350 89 -1100 130/03 RMK AO2
14840KMKG MKG20060329214509603/29/06 21:45:31  5-MIN KMKG 300245Z 13003KT 5SM BR CLR 02/00 A3022 350 89 -1100 130/03 RMK AO2
14840KMKG MKG20060329215011903/29/06 21:50:31  5-MIN KMKG 300250Z 14003KT 4SM BR CLR 02/00 A3022 350 89 -1100 140/03 RMK AO2 SLP240 T00170000 57010
14840KMKG MKG20060329215511903/29/06 21:55:31  5-MIN KMKG 300255Z 00000KT 4SM BR CLR 02/01 A3022 350 89 -1000 000/00 RMK AO2 SLP239 T00220006 56003
14840KMKG MKG20060329220009603/29/06 22:00:31  5-MIN KMKG 300300Z 00000KT 4SM BR CLR 02/00 A3022 350 85 -1000 000/00 RMK AO2
14840KMKG MKG20060329220509603/29/06 22:05:31  5-MIN KMKG 300305Z 00000KT 4SM BR CLR 02/00 A3022 350 85 -1000 000/00 RMK AO2
14840KMKG MKG20060329221009603/29/06 22:10:31  5-MIN KMKG 300310Z 00000KT 4SM BR CLR 02/00 A3022 350 85 -1000 000/00 RMK AO2
14840KMKG MKG20060329221509903/29/06 22:15:31  5-MIN KMKG 300315Z 00000KT 4SM BR FEW037 02/00 A3022 350 89 -1100 000/00 RMK AO2
14840KMKG MKG20060329222009903/29/06 22:20:31  5-MIN KMKG 300320Z 13003KT 4SM BR SCT037 02/00 A3022 360 89 -1100 130/03 RMK AO2
14840KMKG MKG20060329222509903/29/06 22:25:31  5-MIN KMKG 300325Z 13003KT 5SM BR BKN037 02/00 A3022 350 89 -1100 140/03 RMK AO2
14840KMKG MKG20060329223009903/29/06 22:30:31  5-MIN KMKG 300330Z 00000KT 5SM BR BKN037 02/00 A3022 360 89 -1100 000/00 RMK AO2
14840KMKG MKG20060329223510003/29/06 22:35:31  5-MIN KMKG 300335Z 00000KT 5SM BR BKN037 01/M01 A3022 360 89 -1200 000/00 RMK AO2
14840KMKG MKG20060329224009903/29/06 22:40:31  5-MIN KMKG 300340Z 00000KT 5SM BR BKN037 02/00 A3022 360 85 -1000 000/00 RMK AO2
14840KMKG MKG20060329224509903/29/06 22:45:31  5-MIN KMKG 300345Z 00000KT 5SM BR OVC037 02/00 A3021 360 89 -1100 000/00 RMK AO2
14840KMKG MKG20060329225011603/29/06 22:50:31  5-MIN KMKG 300350Z 00000KT 4SM BR BKN037 02/00 A3021 360 89 -1100 000/00 RMK AO2 SLP236 T00170000
14840KMKG MKG20060329225511703/29/06 22:55:31  5-MIN KMKG 300355Z 12003KT 4SM BR SCT037 01/M01 A3021 360 89 -1200 120/03 RMK AO2 SLP237 T00111006
14840KMKG MKG20060329230010003/29/06 23:00:31  5-MIN KMKG 300400Z 13003KT 4SM BR SCT037 01/M01 A3021 360 89 -1200 130/03 RMK AO2
14840KMKG MKG20060329230510003/29/06 23:05:31  5-MIN KMKG 300405Z 13003KT 4SM BR FEW037 01/M01 A3021 360 89 -1200 140/03 RMK AO2
14840KMKG MKG20060329231010003/29/06 23:10:31  5-MIN KMKG 300410Z 14003KT 4SM BR SCT037 01/M01 A3021 360 92 -1200 140/03 RMK AO2
14840KMKG MKG20060329231510003/29/06 23:15:31  5-MIN KMKG 300415Z 14003KT 4SM BR SCT037 01/M01 A3021 360 89 -1200 150/03 RMK AO2
14840KMKG MKG20060329232009903/29/06 23:20:31  5-MIN KMKG 300420Z 14003KT 4SM BR BKN037 02/00 A3021 360 89 -1100 140/03 RMK AO2
14840KMKG MKG20060329232509903/29/06 23:25:31  5-MIN KMKG 300425Z 00000KT 4SM BR BKN037 02/00 A3021 360 89 -1100 000/00 RMK AO2
14840KMKG MKG20060329233009903/29/06 23:30:31  5-MIN KMKG 300430Z 00000KT 4SM BR BKN037 02/00 A3021 360 89 -1100 000/00 RMK AO2
14840KMKG MKG20060329233509903/29/06 23:35:31  5-MIN KMKG 300435Z 13003KT 4SM BR OVC037 02/00 A3021 370 89 -1100 130/03 RMK AO2
14840KMKG MKG20060329234009903/29/06 23:40:31  5-MIN KMKG 300440Z 13005KT 4SM BR OVC037 02/01 A3020 370 89 -1000 130/05 RMK AO2
14840KMKG MKG20060329234509903/29/06 23:45:31  5-MIN KMKG 300445Z 13004KT 4SM BR OVC035 02/01 A3020 370 89 -1000 140/04 RMK AO2
14840KMKG MKG20060329235012503/29/06 23:50:31  5-MIN KMKG 300450Z 14005KT 5SM BR OVC035 03/01 A3021 370 85 -900 140/05 RMK AO2 SLP234 T00280006 401061039
14840KMKG MKG20060329235512503/29/06 23:55:31  5-MIN KMKG 300455Z 15003KT 5SM BR OVC035 03/01 A3021 360 89 -900 160/03 RMK AO2 SLP234 T00280011 401061039
14840KMKG MKG20060330000009803/30/06 00:00:32  5-MIN KMKG 300500Z 15003KT 5SM BR OVC035 03/01 A3021 370 89 -900 150/03 RMK AO2
14840KMKG MKG20060330000509803/30/06 00:05:31  5-MIN KMKG 300505Z 13003KT 5SM BR OVC035 03/01 A3020 370 89 -900 140/03 RMK AO2
14840KMKG MKG20060330001009803/30/06 00:10:31  5-MIN KMKG 300510Z 13004KT 5SM BR OVC035 03/01 A3020 370 85 -900 140/04 RMK AO2
14840KMKG MKG20060330001509803/30/06 00:15:31  5-MIN KMKG 300515Z 14004KT 5SM BR OVC035 03/01 A3020 370 89 -900 150/04 RMK AO2
14840KMKG MKG20060330002009803/30/06 00:20:31  5-MIN KMKG 300520Z 16004KT 5SM BR OVC035 03/01 A3020 370 89 -900 160/04 RMK AO2
14840KMKG MKG20060330002509803/30/06 00:25:31  5-MIN KMKG 300525Z 15005KT 5SM BR OVC035 03/02 A3020 370 89 -900 150/05 RMK AO2
14840KMKG MKG20060330003009803/30/06 00:30:31  5-MIN KMKG 300530Z 14005KT 4SM BR OVC035 04/02 A3020 380 85 -800 150/05 RMK AO2
14840KMKG MKG20060330003509803/30/06 00:35:31  5-MIN KMKG 300535Z 16005KT 4SM BR OVC035 04/02 A3020 380 85 -800 160/05 RMK AO2
14840KMKG MKG20060330004009803/30/06 00:40:31  5-MIN KMKG 300540Z 16005KT 4SM BR OVC035 04/02 A3020 370 85 -800 170/05 RMK AO2
14840KMKG MKG20060330004509803/30/06 00:45:31  5-MIN KMKG 300545Z 16005KT 5SM HZ OVC035 04/02 A3020 380 82 -700 170/05 RMK AO2
14840KMKG MKG20060330005013303/30/06 00:50:31  5-MIN KMKG 300550Z 16005KT 5SM HZ OVC035 05/02 A3019 380 82 -700 160/05 RMK AO2 SLP229 T00500022 10078 20006 56003
14840KMKG MKG20060330005513303/30/06 00:55:31  5-MIN KMKG 300555Z 17007KT 5SM HZ OVC035 05/02 A3020 380 82 -700 170/07 RMK AO2 SLP229 T00500022 10078 20006 58008
14840KMKG MKG20060330010009803/30/06 01:00:31  5-MIN KMKG 300600Z 17006KT 5SM HZ OVC035 06/02 A3020 380 76 -600 170/06 RMK AO2
14840KMKG MKG20060330010509803/30/06 01:05:31  5-MIN KMKG 300605Z 17006KT 5SM HZ OVC035 06/02 A3020 380 79 -600 170/06 RMK AO2
14840KMKG MKG20060330011009803/30/06 01:10:31  5-MIN KMKG 300610Z 17005KT 5SM HZ OVC035 06/02 A3020 380 79 -600 180/05 RMK AO2
14840KMKG MKG20060330011509803/30/06 01:15:31  5-MIN KMKG 300615Z 17006KT 5SM HZ OVC035 06/02 A3020 370 79 -600 180/06 RMK AO2
14840KMKG MKG20060330012009803/30/06 01:20:31  5-MIN KMKG 300620Z 18006KT 5SM HZ OVC035 06/02 A3020 370 79 -600 180/06 RMK AO2
14840KMKG MKG20060330012509803/30/06 01:25:31  5-MIN KMKG 300625Z 18007KT 5SM HZ OVC033 06/02 A3020 370 79 -600 180/07 RMK AO2
14840KMKG MKG20060330013009803/30/06 01:30:31  5-MIN KMKG 300630Z 18006KT 5SM HZ OVC033 06/02 A3020 370 76 -500 180/06 RMK AO2
14840KMKG MKG20060330013509803/30/06 01:35:31  5-MIN KMKG 300635Z 17006KT 5SM HZ OVC033 06/02 A3020 370 76 -500 170/06 RMK AO2
14840KMKG MKG20060330014009803/30/06 01:40:31  5-MIN KMKG 300640Z 17006KT 5SM HZ OVC033 06/02 A3020 370 76 -500 180/06 RMK AO2
14840KMKG MKG20060330014509803/30/06 01:45:31  5-MIN KMKG 300645Z 18006KT 5SM HZ OVC033 06/02 A3020 370 76 -500 180/06 RMK AO2
14840KMKG MKG20060330015011503/30/06 01:50:31  5-MIN KMKG 300650Z 17007KT 6SM HZ OVC033 07/02 A3020 370 73 -400 170/07 RMK AO2 SLP230 T00670022
14840KMKG MKG20060330015511503/30/06 01:55:31  5-MIN KMKG 300655Z 17006KT 6SM HZ OVC033 07/02 A3020 370 73 -400 170/06 RMK AO2 SLP230 T00670022
14840KMKG MKG20060330020009803/30/06 02:00:31  5-MIN KMKG 300700Z 18006KT 6SM HZ OVC033 07/02 A3020 370 73 -400 190/06 RMK AO2
14840KMKG MKG20060330020509503/30/06 02:05:31  5-MIN KMKG 300705Z 18006KT 7SM OVC033 07/02 A3020 380 70 -400 190/06 RMK AO2
14840KMKG MKG20060330021009503/30/06 02:10:31  5-MIN KMKG 300710Z 19008KT 7SM OVC033 07/02 A3020 380 70 -400 200/08 RMK AO2
14840KMKG MKG20060330021509503/30/06 02:15:31  5-MIN KMKG 300715Z 19005KT 8SM OVC031 07/02 A3019 380 70 -400 190/05 RMK AO2
14840KMKG MKG20060330022009503/30/06 02:20:31  5-MIN KMKG 300720Z 20009KT 8SM BKN031 07/02 A3019 380 70 -400 210/09 RMK AO2
14840KMKG MKG20060330022509503/30/06 02:25:31  5-MIN KMKG 300725Z 20006KT 8SM BKN031 07/02 A3019 380 73 -400 200/06 RMK AO2
14840KMKG MKG20060330023009503/30/06 02:30:31  5-MIN KMKG 300730Z 19005KT 8SM SCT031 07/02 A3019 380 70 -400 190/05 RMK AO2
14840KMKG MKG20060330023509503/30/06 02:35:31  5-MIN KMKG 300735Z 20006KT 8SM SCT031 07/02 A3019 380 70 -400 200/06 RMK AO2
14840KMKG MKG20060330024009503/30/06 02:40:31  5-MIN KMKG 300740Z 19005KT 8SM BKN033 07/02 A3019 390 73 -400 190/05 RMK AO2
14840KMKG MKG20060330024509503/30/06 02:45:31  5-MIN KMKG 300745Z 19005KT 8SM BKN033 07/02 A3019 390 73 -400 190/05 RMK AO2
14840KMKG MKG20060330025011203/30/06 02:50:31  5-MIN KMKG 300750Z 19005KT 8SM BKN033 07/02 A3018 390 73 -400 200/05 RMK AO2 SLP224 T00670022
14840KMKG MKG20060330025511203/30/06 02:55:31  5-MIN KMKG 300755Z 18005KT 8SM BKN033 07/02 A3018 390 73 -400 190/05 RMK AO2 SLP225 T00670022
14840KMKG MKG20060330030009503/30/06 03:00:31  5-MIN KMKG 300800Z 16003KT 8SM OVC033 07/02 A3018 390 73 -400 170/03 RMK AO2
14840KMKG MKG20060330030509503/30/06 03:05:31  5-MIN KMKG 300805Z 13004KT 7SM OVC033 06/02 A3018 390 79 -600 140/04 RMK AO2
14840KMKG MKG20060330031009803/30/06 03:10:31  5-MIN KMKG 300810Z 13005KT 6SM HZ OVC033 06/02 A3018 390 79 -600 130/05 RMK AO2
14840KMKG MKG20060330031509803/30/06 03:15:31  5-MIN KMKG 300815Z 13005KT 6SM HZ OVC033 06/02 A3018 390 79 -600 140/05 RMK AO2
14840KMKG MKG20060330032009803/30/06 03:20:31  5-MIN KMKG 300820Z 13005KT 6SM HZ BKN033 05/02 A3018 390 79 -600 130/05 RMK AO2
14840KMKG MKG20060330032509803/30/06 03:25:31  5-MIN KMKG 300825Z 13005KT 6SM HZ BKN033 04/02 A3018 400 82 -700 130/05 RMK AO2
14840KMKG MKG20060330033009803/30/06 03:30:31  5-MIN KMKG 300830Z 13005KT 6SM BR SCT033 04/02 A3018 390 85 -800 130/05 RMK AO2
14840KMKG MKG20060330033509803/30/06 03:35:31  5-MIN KMKG 300835Z 13006KT 6SM BR SCT033 03/01 A3018 390 85 -800 130/06 RMK AO2
14840KMKG MKG20060330034009803/30/06 03:40:31  5-MIN KMKG 300840Z 13005KT 5SM BR FEW033 03/01 A3018 400 85 -800 130/05 RMK AO2
14840KMKG MKG20060330034509503/30/06 03:45:31  5-MIN KMKG 300845Z 13006KT 5SM BR CLR 03/01 A3017 400 89 -900 130/06 RMK AO2
14840KMKG MKG20060330035011803/30/06 03:50:31  5-MIN KMKG 300850Z 13006KT 5SM BR CLR 03/01 A3017 400 89 -900 140/06 RMK AO2 SLP221 T00280011 58008
14840KMKG MKG20060330035511803/30/06 03:55:31  5-MIN KMKG 300855Z 14005KT 5SM BR CLR 03/01 A3017 400 89 -900 140/05 RMK AO2 SLP222 T00280011 58008
14840KMKG MKG20060330040009503/30/06 04:00:31  5-MIN KMKG 300900Z 14005KT 5SM BR CLR 03/01 A3017 400 89 -900 140/05 RMK AO2
14840KMKG MKG20060330040509503/30/06 04:05:31  5-MIN KMKG 300905Z 14005KT 5SM BR CLR 03/01 A3017 400 89 -900 140/05 RMK AO2
14840KMKG MKG20060330041009503/30/06 04:10:31  5-MIN KMKG 300910Z 14005KT 5SM BR CLR 03/01 A3017 400 89 -900 150/05 RMK AO2
14840KMKG MKG20060330041509503/30/06 04:15:31  5-MIN KMKG 300915Z 14005KT 5SM BR CLR 03/01 A3017 400 89 -900 140/05 RMK AO2
14840KMKG MKG20060330042009503/30/06 04:20:31  5-MIN KMKG 300920Z 14005KT 5SM BR CLR 03/01 A3017 400 89 -900 140/05 RMK AO2
14840KMKG MKG20060330042509503/30/06 04:25:31  5-MIN KMKG 300925Z 14005KT 5SM BR CLR 03/01 A3017 400 89 -900 140/05 RMK AO2
14840KMKG MKG20060330043009503/30/06 04:30:31  5-MIN KMKG 300930Z 14006KT 5SM BR CLR 03/01 A3016 410 85 -900 150/06 RMK AO2
14840KMKG MKG20060330043509603/30/06 04:35:31  5-MIN KMKG 300935Z 14007KT 5SM BR CLR 02/01 A3016 410 89 -1000 150/07 RMK AO2
14840KMKG MKG20060330044009603/30/06 04:40:31  5-MIN KMKG 300940Z 14007KT 4SM BR CLR 02/01 A3016 410 89 -1000 150/07 RMK AO2
14840KMKG MKG20060330044509603/30/06 04:45:31  5-MIN KMKG 300945Z 14006KT 4SM BR CLR 02/01 A3016 410 89 -1000 140/06 RMK AO2
14840KMKG MKG20060330045011303/30/06 04:50:31  5-MIN KMKG 300950Z 14007KT 4SM BR CLR 02/01 A3016 410 89 -1000 140/07 RMK AO2 SLP217 T00220006
14840KMKG MKG20060330045511303/30/06 04:55:31  5-MIN KMKG 300955Z 14007KT 4SM BR CLR 02/01 A3016 410 89 -1000 140/07 RMK AO2 SLP217 T00220006
14840KMKG MKG20060330050009603/30/06 05:00:31  5-MIN KMKG 301000Z 14007KT 4SM BR CLR 02/01 A3016 410 92 -1000 150/07 RMK AO2
14840KMKG MKG20060330050509603/30/06 05:05:31  5-MIN KMKG 301005Z 14006KT 4SM BR CLR 02/01 A3016 410 89 -1000 150/06 RMK AO2
14840KMKG MKG20060330051009603/30/06 05:10:31  5-MIN KMKG 301010Z 15007KT 4SM BR CLR 02/01 A3016 410 89 -1000 150/07 RMK AO2
14840KMKG MKG20060330051509503/30/06 05:15:31  5-MIN KMKG 301015Z 14007KT 4SM BR CLR 02/01 A3015 410 89 -900 150/07 RMK AO2
14840KMKG MKG20060330052009503/30/06 05:20:31  5-MIN KMKG 301020Z 14007KT 4SM BR CLR 02/01 A3015 420 89 -900 150/07 RMK AO2
14840KMKG MKG20060330052509503/30/06 05:25:31  5-MIN KMKG 301025Z 14006KT 4SM BR CLR 02/01 A3015 420 89 -900 150/06 RMK AO2
14840KMKG MKG20060330053009603/30/06 05:30:31  5-MIN KMKG 301030Z 14005KT 4SM BR CLR 02/01 A3015 410 89 -1000 150/05 RMK AO2
14840KMKG MKG20060330053509603/30/06 05:35:31  5-MIN KMKG 301035Z 15005KT 4SM BR CLR 02/01 A3016 410 89 -1000 150/05 RMK AO2
14840KMKG MKG20060330054009503/30/06 05:40:31  5-MIN KMKG 301040Z 15004KT 4SM BR CLR 03/01 A3016 410 85 -900 150/04 RMK AO2
14840KMKG MKG20060330054509503/30/06 05:45:31  5-MIN KMKG 301045Z 13004KT 4SM BR CLR 03/01 A3016 410 85 -900 140/04 RMK AO2
14840KMKG MKG20060330055011203/30/06 05:50:31  5-MIN KMKG 301050Z 12004KT 4SM BR CLR 03/01 A3016 410 85 -900 120/04 RMK AO2 SLP219 T00280006
14840KMKG MKG20060330055512903/30/06 05:55:31  5-MIN KMKG 301055Z 11004KT 4SM BR CLR 03/01 A3016 410 89 -900 120/04 RMK AO2 VIS 2 1/2 RWY 14 SLP218 T00280011
14840KMKG MKG20060330060011303/30/06 06:00:31  5-MIN KMKG 301100Z 12005KT 4SM BR CLR 02/01 A3016 410 89 -1000 130/05 RMK AO2 VIS 2 1/2 RWY 14
14840KMKG MKG20060330060509603/30/06 06:05:31  5-MIN KMKG 301105Z 13005KT 4SM BR CLR 02/00 A3016 410 89 -1000 130/05 RMK AO2
14840KMKG MKG20060330061009603/30/06 06:10:31  5-MIN KMKG 301110Z 13005KT 4SM BR CLR 01/00 A3016 410 92 -1100 140/05 RMK AO2
14840KMKG MKG20060330061509603/30/06 06:15:31  5-MIN KMKG 301115Z 13005KT 4SM BR CLR 02/00 A3016 410 89 -1000 130/05 RMK AO2
14840KMKG MKG20060330062009603/30/06 06:20:31  5-MIN KMKG 301120Z 13006KT 4SM BR CLR 02/01 A3016 410 92 -1000 130/06 RMK AO2
14840KMKG MKG20060330062508803/30/06 06:25:31  5-MIN KMKG 301125Z 4SM BR CLR 01/00 A3016 410 92 -1100 M /M RMK AO2 $
14840KMKG MKG20060330063009803/30/06 06:30:31  5-MIN KMKG 301130Z 13007KT 3SM BR CLR 01/00 A3016 410 92 -1100 140/07 RMK AO2 $
14840KMKG MKG20060330063510203/30/06 06:35:31  5-MIN KMKG 301135Z 13007KT 2 1/2SM BR CLR 01/00 A3016 410 92 -1100 140/07 RMK AO2 $
14840KMKG MKG20060330064010203/30/06 06:40:31  5-MIN KMKG 301140Z 14006KT 2 1/2SM BR CLR 02/00 A3016 410 89 -1000 140/06 RMK AO2 $
14840KMKG MKG20060330064511103/30/06 06:45:31  5-MIN KMKG 301145Z 13006KT 3SM BR CLR 02/01 A3017 400 89 -1000 140/06 RMK AO2 VIS 2 RWY 14 $
14840KMKG MKG20060330065014603/30/06 06:50:31  5-MIN KMKG 301150Z 13006KT 3SM BR CLR 02/01 A3017 400 92 -1000 140/06 RMK AO2 VIS 2 RWY 14 SLP221 T00170006 10072 20011 55002 $
14840KMKG MKG20060330065514603/30/06 06:55:31  5-MIN KMKG 301155Z 13006KT 3SM BR CLR 02/00 A3017 400 89 -1000 130/06 RMK AO2 VIS 2 RWY 14 SLP221 T00170000 10072 20011 51003 $
14840KMKG MKG20060330070011103/30/06 07:00:31  5-MIN KMKG 301200Z 14005KT 3SM BR CLR 02/01 A3017 400 92 -1000 140/05 RMK AO2 VIS 2 RWY 14 $
14840KMKG MKG20060330070511103/30/06 07:05:31  5-MIN KMKG 301205Z 14005KT 3SM BR CLR 02/01 A3017 400 89 -1000 140/05 RMK AO2 VIS 2 RWY 14 $
14840KMKG MKG20060330071011103/30/06 07:10:31  5-MIN KMKG 301210Z 14005KT 3SM BR CLR 02/01 A3017 400 92 -1000 140/05 RMK AO2 VIS 2 RWY 14 $
14840KMKG MKG20060330071511003/30/06 07:15:31  5-MIN KMKG 301215Z 14006KT 3SM BR CLR 03/01 A3017 400 89 -900 140/06 RMK AO2 VIS 2 RWY 14 $
14840KMKG MKG20060330072011003/30/06 07:20:31  5-MIN KMKG 301220Z 14006KT 3SM BR CLR 03/02 A3017 400 89 -800 140/06 RMK AO2 VIS 2 RWY 14 $
14840KMKG MKG20060330072511003/30/06 07:25:31  5-MIN KMKG 301225Z 14007KT 3SM BR CLR 04/02 A3017 400 85 -700 150/07 RMK AO2 VIS 2 RWY 14 $
14840KMKG MKG20060330073011003/30/06 07:30:31  5-MIN KMKG 301230Z 15007KT 3SM HZ CLR 05/02 A3017 400 82 -600 150/07 RMK AO2 VIS 2 RWY 14 $
14840KMKG MKG20060330073511003/30/06 07:35:31  5-MIN KMKG 301235Z 14006KT 3SM HZ CLR 05/02 A3017 400 82 -600 150/06 RMK AO2 VIS 2 RWY 14 $
14840KMKG MKG20060330074011003/30/06 07:40:31  5-MIN KMKG 301240Z 15008KT 3SM HZ CLR 05/02 A3017 400 82 -600 150/08 RMK AO2 VIS 2 RWY 14 $
14840KMKG MKG20060330074511003/30/06 07:45:31  5-MIN KMKG 301245Z 15007KT 3SM HZ CLR 06/02 A3017 400 79 -600 150/07 RMK AO2 VIS 2 RWY 14 $
14840KMKG MKG20060330075012703/30/06 07:50:31  5-MIN KMKG 301250Z 15008KT 3SM HZ CLR 06/02 A3017 400 79 -600 150/08 RMK AO2 VIS 2 RWY 14 SLP221 T00560022 $
14840KMKG MKG20060330075512703/30/06 07:55:31  5-MIN KMKG 301255Z 16008KT 3SM HZ CLR 06/03 A3017 400 79 -500 160/08 RMK AO2 VIS 2 RWY 14 SLP221 T00610028 $
14840KMKG MKG20060330080011003/30/06 08:00:31  5-MIN KMKG 301300Z 15007KT 3SM HZ CLR 06/03 A3017 400 79 -500 160/07 RMK AO2 VIS 2 RWY 14 $
14840KMKG MKG20060330080511003/30/06 08:05:31  5-MIN KMKG 301305Z 16008KT 3SM HZ CLR 07/03 A3017 400 76 -400 160/08 RMK AO2 VIS 2 RWY 14 $
14840KMKG MKG20060330081011203/30/06 08:10:31  5-MIN KMKG 301310Z 15008KT 3SM HZ CLR 07/03 A3016 410 76 -400 150/08 RMK AO2 VIS 2 1/2 RWY 14
14840KMKG MKG20060330081511203/30/06 08:15:31  5-MIN KMKG 301315Z 16007KT 4SM HZ CLR 07/03 A3017 400 73 -300 160/07 RMK AO2 VIS 2 1/2 RWY 14
14840KMKG MKG20060330082011203/30/06 08:20:31  5-MIN KMKG 301320Z 16007KT 4SM HZ CLR 07/03 A3017 400 73 -300 170/07 RMK AO2 VIS 2 1/2 RWY 14
14840KMKG MKG20060330082511203/30/06 08:25:31  5-MIN KMKG 301325Z 17008KT 4SM HZ CLR 08/03 A3017 400 70 -300 170/08 RMK AO2 VIS 2 1/2 RWY 14
14840KMKG MKG20060330083011203/30/06 08:30:31  5-MIN KMKG 301330Z 17009KT 4SM HZ CLR 08/03 A3017 400 73 -300 170/09 RMK AO2 VIS 2 1/2 RWY 14
14840KMKG MKG20060330083511203/30/06 08:35:31  5-MIN KMKG 301335Z 17007KT 4SM HZ CLR 08/03 A3017 400 70 -200 170/07 RMK AO2 VIS 2 1/2 RWY 14
14840KMKG MKG20060330084011203/30/06 08:40:31  5-MIN KMKG 301340Z 16009KT 4SM HZ CLR 08/03 A3016 410 70 -200 170/09 RMK AO2 VIS 2 1/2 RWY 14
14840KMKG MKG20060330084511203/30/06 08:45:31  5-MIN KMKG 301345Z 17008KT 4SM HZ CLR 09/03 A3016 410 68 -100 170/08 RMK AO2 VIS 2 1/2 RWY 14
14840KMKG MKG20060330085011203/30/06 08:50:31  5-MIN KMKG 301350Z 15008KT 4SM HZ CLR 09/03 A3016 410 68 -100 150/08 RMK AO2 SLP217 T00890033
14840KMKG MKG20060330085511203/30/06 08:55:31  5-MIN KMKG 301355Z 16008KT 4SM HZ CLR 09/03 A3016 410 68 -100 160/08 RMK AO2 SLP218 T00890033
14840KMKG MKG20060330090009503/30/06 09:00:31  5-MIN KMKG 301400Z 16007KT 5SM HZ CLR 09/03 A3016 410 65 -100 160/07 RMK AO2
14840KMKG MKG20060330090509203/30/06 09:05:31  5-MIN KMKG 301405Z 15007KT 5SM HZ CLR 10/03 A3016 410 63 0 160/07 RMK AO2
14840KMKG MKG20060330091009203/30/06 09:10:31  5-MIN KMKG 301410Z 16007KT 5SM HZ CLR 10/04 A3016 410 65 0 160/07 RMK AO2
14840KMKG MKG20060330091509203/30/06 09:15:31  5-MIN KMKG 301415Z 17007KT 5SM HZ CLR 11/04 A3016 410 63 0 170/07 RMK AO2
14840KMKG MKG20060330092009403/30/06 09:20:31  5-MIN KMKG 301420Z 18008KT 5SM HZ CLR 11/04 A3016 410 61 100 180/08 RMK AO2
14840KMKG MKG20060330092509403/30/06 09:25:31  5-MIN KMKG 301425Z 17012KT 6SM HZ CLR 12/04 A3016 410 58 100 180/12 RMK AO2
14840KMKG MKG20060330093009103/30/06 09:30:31  5-MIN KMKG 301430Z 20012KT 8SM CLR 12/04 A3016 410 58 100 200/12 RMK AO2
14840KMKG MKG20060330093509803/30/06 09:35:31  5-MIN KMKG 301435Z 19015G19KT 10SM CLR 12/04 A3016 410 58 100 190/15G19 RMK AO2
14840KMKG MKG20060330094009803/30/06 09:40:31  5-MIN KMKG 301440Z 19014G19KT 10SM CLR 12/04 A3016 410 58 200 190/14G19 RMK AO2
14840KMKG MKG20060330094509203/30/06 09:45:31  5-MIN KMKG 301445Z 19016KT 10SM CLR 12/04 A3016 410 58 200 190/16 RMK AO2
14840KMKG MKG20060330095011503/30/06 09:50:31  5-MIN KMKG 301450Z 19013KT 10SM CLR 12/04 A3015 420 58 200 200/13 RMK AO2 SLP214 T01170039 51003
14840KMKG MKG20060330095511503/30/06 09:55:31  5-MIN KMKG 301455Z 19015KT 10SM CLR 12/04 A3015 420 56 200 190/15 RMK AO2 SLP214 T01220039 58005
14840KMKG MKG20060330100009203/30/06 10:00:31  5-MIN KMKG 301500Z 20013KT 10SM CLR 12/04 A3015 420 56 200 200/13 RMK AO2
14840KMKG MKG20060330100509203/30/06 10:05:31  5-MIN KMKG 301505Z 19012KT 10SM CLR 12/04 A3015 420 56 200 200/12 RMK AO2
14840KMKG MKG20060330101009203/30/06 10:10:31  5-MIN KMKG 301510Z 19014KT 10SM CLR 12/04 A3015 420 56 200 190/14 RMK AO2
14840KMKG MKG20060330101509803/30/06 10:15:31  5-MIN KMKG 301515Z 18012G19KT 10SM CLR 12/04 A3014 420 56 200 190/12G19 RMK AO2
14840KMKG MKG20060330102009803/30/06 10:20:31  5-MIN KMKG 301520Z 20012G19KT 10SM CLR 13/04 A3014 420 52 400 200/12G19 RMK AO2
14840KMKG MKG20060330102509803/30/06 10:25:31  5-MIN KMKG 301525Z 19013G19KT 10SM CLR 13/04 A3014 430 54 300 190/13G19 RMK AO2
14840KMKG MKG20060330103009803/30/06 10:30:31  5-MIN KMKG 301530Z 19013G19KT 10SM CLR 13/04 A3014 430 52 400 200/13G19 RMK AO2
14840KMKG MKG20060330103509203/30/06 10:35:31  5-MIN KMKG 301535Z 20012KT 10SM CLR 13/04 A3014 430 52 400 210/12 RMK AO2
14840KMKG MKG20060330104009203/30/06 10:40:31  5-MIN KMKG 301540Z 20015KT 10SM CLR 13/04 A3014 430 52 400 200/15 RMK AO2
14840KMKG MKG20060330104509203/30/06 10:45:31  5-MIN KMKG 301545Z 20012KT 10SM CLR 13/04 A3013 430 52 400 210/12 RMK AO2
14840KMKG MKG20060330105011503/30/06 10:50:31  5-MIN KMKG 301550Z 19014G20KT 10SM CLR 14/04 A3013 440 50 400 190/14G20 RMK AO2 SLP207 T01390039
14840KMKG MKG20060330105511503/30/06 10:55:31  5-MIN KMKG 301555Z 20012G20KT 10SM CLR 14/04 A3013 440 50 400 200/12G20 RMK AO2 SLP206 T01390039
14840KMKG MKG20060330110009203/30/06 11:00:31  5-MIN KMKG 301600Z 19014KT 10SM CLR 14/04 A3013 440 50 400 200/14 RMK AO2
14840KMKG MKG20060330110509203/30/06 11:05:31  5-MIN KMKG 301605Z 20013KT 10SM CLR 14/04 A3013 440 50 500 210/13 RMK AO2
14840KMKG MKG20060330111009203/30/06 11:10:31  5-MIN KMKG 301610Z 20014KT 10SM CLR 14/04 A3012 440 50 500 200/14 RMK AO2
14840KMKG MKG20060330111509803/30/06 11:15:31  5-MIN KMKG 301615Z 20013G20KT 10SM CLR 14/04 A3012 440 50 500 200/13G20 RMK AO2
14840KMKG MKG20060330112009803/30/06 11:20:31  5-MIN KMKG 301620Z 20015G20KT 10SM CLR 14/04 A3012 450 49 500 210/15G20 RMK AO2
14840KMKG MKG20060330112509803/30/06 11:25:31  5-MIN KMKG 301625Z 20017G21KT 10SM CLR 14/04 A3012 450 49 500 200/17G21 RMK AO2
14840KMKG MKG20060330113009803/30/06 11:30:31  5-MIN KMKG 301630Z 21017G21KT 10SM CLR 14/04 A3012 450 49 500 210/17G21 RMK AO2
14840KMKG MKG20060330113509203/30/06 11:35:31  5-MIN KMKG 301635Z 20015KT 10SM CLR 14/04 A3011 460 49 500 200/15 RMK AO2
14840KMKG MKG20060330114009503/30/06 11:40:31  5-MIN KMKG 301640Z 20015KT 10SM FEW085 14/04 A3011 450 49 500 200/15 RMK AO2
14840KMKG MKG20060330114509203/30/06 11:45:31  5-MIN KMKG 301645Z 20015KT 10SM CLR 14/04 A3011 460 49 500 210/15 RMK AO2
14840KMKG MKG20060330115011503/30/06 11:50:31  5-MIN KMKG 301650Z 20015G20KT 10SM CLR 14/04 A3011 460 49 500 200/15G20 RMK AO2 SLP198 T01440039
14840KMKG MKG20060330115511803/30/06 11:55:31  5-MIN KMKG 301655Z 20016G20KT 10SM FEW085 15/04 A3010 460 47 600 210/16G20 RMK AO2 SLP197 T01500039
14840KMKG MKG20060330120010103/30/06 12:00:31  5-MIN KMKG 301700Z 20018G22KT 10SM FEW085 15/04 A3011 460 47 600 210/18G22 RMK AO2
14840KMKG MKG20060330120510103/30/06 12:05:31  5-MIN KMKG 301705Z 20017G23KT 10SM FEW090 14/03 A3011 460 47 500 210/17G23 RMK AO2
14840KMKG MKG20060330121009803/30/06 12:10:31  5-MIN KMKG 301710Z 20015G23KT 10SM CLR 15/04 A3011 460 47 600 200/15G23 RMK AO2
14840KMKG MKG20060330121510103/30/06 12:15:31  5-MIN KMKG 301715Z 21016G23KT 10SM FEW090 15/04 A3011 460 47 600 220/16G23 RMK AO2
14840KMKG MKG20060330122009803/30/06 12:20:31  5-MIN KMKG 301720Z 22019G23KT 10SM CLR 15/04 A3010 460 47 600 220/19G23 RMK AO2
14840KMKG MKG20060330122509803/30/06 12:25:31  5-MIN KMKG 301725Z 21017G23KT 10SM CLR 15/04 A3010 460 47 600 210/17G23 RMK AO2
14840KMKG MKG20060330123009803/30/06 12:30:31  5-MIN KMKG 301730Z 20016G23KT 10SM CLR 15/04 A3010 460 47 600 200/16G23 RMK AO2
14840KMKG MKG20060330123509203/30/06 12:35:31  5-MIN KMKG 301735Z 21016KT 10SM CLR 16/04 A3010 470 45 700 210/16 RMK AO2
14840KMKG MKG20060330124009803/30/06 12:40:31  5-MIN KMKG 301740Z 20015G21KT 10SM CLR 15/04 A3010 470 47 600 200/15G21 RMK AO2
14840KMKG MKG20060330124509803/30/06 12:45:31  5-MIN KMKG 301745Z 21014G22KT 10SM CLR 16/04 A3010 470 45 700 210/14G22 RMK AO2
14840KMKG MKG20060330125013303/30/06 12:50:31  5-MIN KMKG 301750Z 21015G22KT 10SM CLR 16/04 A3009 470 45 700 210/15G22 RMK AO2 SLP194 T01560039 10161 20017 58005
14840KMKG MKG20060330125513303/30/06 12:55:31  5-MIN KMKG 301755Z 21014G21KT 10SM CLR 16/04 A3009 470 45 700 210/14G21 RMK AO2 SLP193 T01560039 10161 20017 56019
14840KMKG MKG20060330130009203/30/06 13:00:31  5-MIN KMKG 301800Z 21014KT 10SM CLR 15/04 A3009 470 47 600 220/14 RMK AO2
14840KMKG MKG20060330130509203/30/06 13:05:31  5-MIN KMKG 301805Z 22016KT 10SM CLR 16/04 A3009 480 45 700 220/16 RMK AO2
14840KMKG MKG20060330131009803/30/06 13:10:31  5-MIN KMKG 301810Z 21016G21KT 10SM CLR 16/04 A3009 480 45 700 220/16G21 RMK AO2
14840KMKG MKG20060330131509203/30/06 13:15:31  5-MIN KMKG 301815Z 21017KT 10SM CLR 16/04 A3009 480 45 700 220/17 RMK AO2
14840KMKG MKG20060330132009203/30/06 13:20:31  5-MIN KMKG 301820Z 22015KT 10SM CLR 16/04 A3008 480 45 700 220/15 RMK AO2
14840KMKG MKG20060330132509803/30/06 13:25:31  5-MIN KMKG 301825Z 22014G22KT 10SM CLR 16/04 A3008 480 45 700 220/14G22 RMK AO2
14840KMKG MKG20060330133009803/30/06 13:30:31  5-MIN KMKG 301830Z 21016G22KT 10SM CLR 16/04 A3007 490 45 700 210/16G22 RMK AO2
14840KMKG MKG20060330133509203/30/06 13:35:31  5-MIN KMKG 301835Z 22015KT 10SM CLR 16/04 A3007 490 44 800 220/15 RMK AO2
14840KMKG MKG20060330134009203/30/06 13:40:31  5-MIN KMKG 301840Z 20012KT 10SM CLR 16/04 A3007 500 45 700 210/12 RMK AO2
14840KMKG MKG20060330134509203/30/06 13:45:31  5-MIN KMKG 301845Z 22015KT 10SM CLR 16/04 A3006 500 44 800 220/15 RMK AO2
14840KMKG MKG20060330135010903/30/06 13:50:31  5-MIN KMKG 301850Z 22015KT 10SM CLR 16/04 A3006 500 44 800 220/15 RMK AO2 SLP181 T01610039
14840KMKG MKG20060330135510903/30/06 13:55:31  5-MIN KMKG 301855Z 22013KT 10SM CLR 16/04 A3006 500 44 800 220/13 RMK AO2 SLP180 T01610039
14840KMKG MKG20060330140009203/30/06 14:00:31  5-MIN KMKG 301900Z 21014KT 10SM CLR 16/04 A3006 500 45 700 220/14 RMK AO2
14840KMKG MKG20060330140509203/30/06 14:05:31  5-MIN KMKG 301905Z 21012KT 10SM CLR 16/04 A3005 510 45 700 210/12 RMK AO2
14840KMKG MKG20060330141009203/30/06 14:10:31  5-MIN KMKG 301910Z 21011KT 10SM CLR 16/04 A3004 520 44 800 210/11 RMK AO2
14840KMKG MKG20060330141509203/30/06 14:15:31  5-MIN KMKG 301915Z 21011KT 10SM CLR 16/04 A3004 520 44 800 220/11 RMK AO2
14840KMKG MKG20060330142009203/30/06 14:20:31  5-MIN KMKG 301920Z 20011KT 10SM CLR 16/04 A3004 520 44 800 200/11 RMK AO2
14840KMKG MKG20060330142509203/30/06 14:25:31  5-MIN KMKG 301925Z 18011KT 10SM CLR 16/04 A3004 520 44 800 180/11 RMK AO2
14840KMKG MKG20060330143009203/30/06 14:30:31  5-MIN KMKG 301930Z 19012KT 10SM CLR 16/04 A3003 530 44 800 200/12 RMK AO2
14840KMKG MKG20060330143509203/30/06 14:35:31  5-MIN KMKG 301935Z 21011KT 10SM CLR 16/04 A3003 530 44 800 210/11 RMK AO2
14840KMKG MKG20060330144009203/30/06 14:40:31  5-MIN KMKG 301940Z 20010KT 10SM CLR 17/04 A3003 530 42 900 200/10 RMK AO2
14840KMKG MKG20060330144509203/30/06 14:45:31  5-MIN KMKG 301945Z 19010KT 10SM CLR 16/04 A3002 530 44 800 200/10 RMK AO2
14840KMKG MKG20060330145011003/30/06 14:50:31  5-MIN KMKG 301950Z 23008KT 10SM CLR 17/04 A3003 530 42 1000 230/08 RMK AO2 SLP169 T01720044
14840KMKG MKG20060330145511003/30/06 14:55:31  5-MIN KMKG 301955Z 23013KT 10SM CLR 17/04 A3002 530 42 1000 230/13 RMK AO2 SLP169 T01720044
14840KMKG MKG20060330150009203/30/06 15:00:31  5-MIN KMKG 302000Z 23011KT 10SM CLR 16/04 A3002 540 44 800 230/11 RMK AO2
14840KMKG MKG20060330150509203/30/06 15:05:31  5-MIN KMKG 302005Z 22010KT 10SM CLR 16/04 A3002 540 44 800 220/10 RMK AO2
14840KMKG MKG20060330151009203/30/06 15:10:31  5-MIN KMKG 302010Z 22012KT 10SM CLR 16/04 A3002 540 44 800 220/12 RMK AO2
14840KMKG MKG20060330151509203/30/06 15:15:31  5-MIN KMKG 302015Z 21011KT 10SM CLR 16/04 A3002 540 44 800 210/11 RMK AO2
14840KMKG MKG20060330152009203/30/06 15:20:31  5-MIN KMKG 302020Z 22010KT 10SM CLR 16/04 A3002 540 44 800 220/10 RMK AO2
14840KMKG MKG20060330152509203/30/06 15:25:31  5-MIN KMKG 302025Z 20008KT 10SM CLR 16/04 A3002 540 44 800 210/08 RMK AO2
14840KMKG MKG20060330153009203/30/06 15:30:31  5-MIN KMKG 302030Z 21008KT 10SM CLR 16/04 A3001 540 45 800 210/08 RMK AO2
14840KMKG MKG20060330153509203/30/06 15:35:31  5-MIN KMKG 302035Z 22009KT 10SM CLR 16/04 A3001 540 44 800 220/09 RMK AO2
14840KMKG MKG20060330154009203/30/06 15:40:31  5-MIN KMKG 302040Z 23008KT 10SM CLR 16/04 A3001 550 44 800 230/08 RMK AO2
14840KMKG MKG20060330154509203/30/06 15:45:31  5-MIN KMKG 302045Z 21009KT 10SM CLR 17/04 A3001 550 42 900 220/09 RMK AO2
14840KMKG MKG20060330155011503/30/06 15:50:31  5-MIN KMKG 302050Z 22011KT 10SM CLR 17/04 A3001 550 42 900 220/11 RMK AO2 SLP165 T01670039 56019
14840KMKG MKG20060330155511503/30/06 15:55:31  5-MIN KMKG 302055Z 22012KT 10SM CLR 17/04 A3001 550 42 900 230/12 RMK AO2 SLP165 T01670039 56028
14840KMKG MKG20060330160009203/30/06 16:00:31  5-MIN KMKG 302100Z 22011KT 10SM CLR 17/04 A3001 550 42 900 230/11 RMK AO2
14840KMKG MKG20060330160509203/30/06 16:05:31  5-MIN KMKG 302105Z 22010KT 10SM CLR 17/04 A3001 550 42 900 220/10 RMK AO2
14840KMKG MKG20060330161009303/30/06 16:10:31  5-MIN KMKG 302110Z 21009KT 10SM CLR 17/04 A3001 550 41 1000 220/09 RMK AO2
14840KMKG MKG20060330161509203/30/06 16:15:31  5-MIN KMKG 302115Z 22011KT 10SM CLR 17/04 A3001 550 42 900 230/11 RMK AO2
14840KMKG MKG20060330162009203/30/06 16:20:31  5-MIN KMKG 302120Z 22011KT 10SM CLR 17/04 A3001 550 42 900 220/11 RMK AO2
14840KMKG MKG20060330162509203/30/06 16:25:31  5-MIN KMKG 302125Z 22010KT 10SM CLR 17/04 A3001 550 42 900 220/10 RMK AO2
14840KMKG MKG20060330163009203/30/06 16:30:31  5-MIN KMKG 302130Z 22008KT 10SM CLR 16/04 A3000 550 44 900 220/08 RMK AO2
14840KMKG MKG20060330163509203/30/06 16:35:31  5-MIN KMKG 302135Z 21007KT 10SM CLR 17/04 A3000 550 42 900 210/07 RMK AO2
14840KMKG MKG20060330164009203/30/06 16:40:31  5-MIN KMKG 302140Z 19006KT 10SM CLR 17/04 A3000 560 42 900 190/06 RMK AO2
14840KMKG MKG20060330164509203/30/06 16:45:31  5-MIN KMKG 302145Z 19009KT 10SM CLR 16/04 A3000 560 44 900 190/09 RMK AO2
14840KMKG MKG20060330165010903/30/06 16:50:31  5-MIN KMKG 302150Z 18008KT 10SM CLR 17/04 A2999 560 42 900 180/08 RMK AO2 SLP159 T01670039
14840KMKG MKG20060330165510903/30/06 16:55:31  5-MIN KMKG 302155Z 18008KT 10SM CLR 17/04 A2999 570 42 900 180/08 RMK AO2 SLP157 T01670039
14840KMKG MKG20060330170009203/30/06 17:00:31  5-MIN KMKG 302200Z 18007KT 10SM CLR 17/04 A2998 570 42 900 190/07 RMK AO2
14840KMKG MKG20060330170509303/30/06 17:05:31  5-MIN KMKG 302205Z 18010KT 10SM CLR 17/04 A2998 570 41 1000 190/10 RMK AO2
14840KMKG MKG20060330171009303/30/06 17:10:31  5-MIN KMKG 302210Z 18008KT 10SM CLR 17/04 A2998 570 41 1000 180/08 RMK AO2
14840KMKG MKG20060330171509303/30/06 17:15:31  5-MIN KMKG 302215Z 18009KT 10SM CLR 17/04 A2998 580 41 1000 190/09 RMK AO2
14840KMKG MKG20060330172009303/30/06 17:20:31  5-MIN KMKG 302220Z 18006KT 10SM CLR 17/04 A2998 580 41 1000 180/06 RMK AO2
14840KMKG MKG20060330172509303/30/06 17:25:31  5-MIN KMKG 302225Z 18009KT 10SM CLR 17/04 A2997 580 41 1000 190/09 RMK AO2
14840KMKG MKG20060330173009303/30/06 17:30:31  5-MIN KMKG 302230Z 18010KT 10SM CLR 17/03 A2997 580 39 1000 180/10 RMK AO2
14840KMKG MKG20060330173509303/30/06 17:35:31  5-MIN KMKG 302235Z 19007KT 10SM CLR 17/03 A2997 580 39 1000 190/07 RMK AO2
14840KMKG MKG20060330174009303/30/06 17:40:31  5-MIN KMKG 302240Z 18008KT 10SM CLR 17/03 A2997 580 39 1000 180/08 RMK AO2
14840KMKG MKG20060330174509303/30/06 17:45:31  5-MIN KMKG 302245Z 20006KT 10SM CLR 17/04 A2997 590 41 1000 210/06 RMK AO2
14840KMKG MKG20060330175011003/30/06 17:50:31  5-MIN KMKG 302250Z 19009KT 10SM CLR 17/03 A2997 590 39 1000 190/09 RMK AO2 SLP150 T01720033
14840KMKG MKG20060330175511303/30/06 17:55:31  5-MIN KMKG 302255Z 19007KT 10SM FEW090 17/03 A2996 590 39 1000 200/07 RMK AO2 SLP149 T01720033
14840KMKG MKG20060330180009303/30/06 18:00:31  5-MIN KMKG 302300Z 18007KT 10SM CLR 17/03 A2996 600 39 1000 180/07 RMK AO2
14840KMKG MKG20060330180509303/30/06 18:05:31  5-MIN KMKG 302305Z 16005KT 10SM CLR 17/03 A2995 600 39 1000 160/05 RMK AO2
14840KMKG MKG20060330181009303/30/06 18:10:31  5-MIN KMKG 302310Z 15006KT 10SM CLR 17/03 A2995 600 39 1000 150/06 RMK AO2
14840KMKG MKG20060330181509303/30/06 18:15:31  5-MIN KMKG 302315Z VRB05KT 10SM CLR 17/04 A2995 610 41 1000 VRB/05 RMK AO2
14840KMKG MKG20060330182009603/30/06 18:20:31  5-MIN KMKG 302320Z 17005KT 10SM FEW085 17/04 A2994 610 41 1100 170/05 RMK AO2
14840KMKG MKG20060330182509603/30/06 18:25:31  5-MIN KMKG 302325Z 16005KT 10SM FEW085 17/04 A2995 610 41 1000 170/05 RMK AO2
14840KMKG MKG20060330183009303/30/06 18:30:31  5-MIN KMKG 302330Z 16004KT 10SM CLR 17/04 A2994 610 41 1100 160/04 RMK AO2
14840KMKG MKG20060330183509303/30/06 18:35:31  5-MIN KMKG 302335Z 15005KT 10SM CLR 17/04 A2994 610 41 1100 150/05 RMK AO2
14840KMKG MKG20060330184009303/30/06 18:40:31  5-MIN KMKG 302340Z 14004KT 10SM CLR 17/04 A2994 610 42 1000 150/04 RMK AO2
14840KMKG MKG20060330184509203/30/06 18:45:31  5-MIN KMKG 302345Z 15004KT 10SM CLR 16/04 A2994 610 44 900 150/04 RMK AO2
14840KMKG MKG20060330185013003/30/06 18:50:31  5-MIN KMKG 302350Z 15005KT 10SM FEW090 16/04 A2994 620 44 900 150/05 RMK AO2 SLP139 T01610039 10172 20150 56028
14840KMKG MKG20060330185513003/30/06 18:55:31  5-MIN KMKG 302355Z 15004KT 10SM FEW090 16/04 A2993 620 45 900 150/04 RMK AO2 SLP139 T01560039 10172 20150 58025
14840KMKG MKG20060330190009203/30/06 19:00:31  5-MIN KMKG 310000Z 15005KT 10SM CLR 16/04 A2993 620 45 900 150/05 RMK AO2
14840KMKG MKG20060330190509203/30/06 19:05:31  5-MIN KMKG 310005Z 14007KT 10SM CLR 16/04 A2993 620 45 900 150/07 RMK AO2
14840KMKG MKG20060330191009503/30/06 19:10:31  5-MIN KMKG 310010Z 15006KT 10SM FEW100 16/04 A2993 620 45 900 160/06 RMK AO2
14840KMKG MKG20060330191509503/30/06 19:15:31  5-MIN KMKG 310015Z 15007KT 10SM SCT100 16/03 A2993 620 42 900 150/07 RMK AO2
14840KMKG MKG20060330192009603/30/06 19:20:31  5-MIN KMKG 310020Z 15007KT 10SM SCT100 17/03 A2993 620 40 1000 160/07 RMK AO2
14840KMKG MKG20060330192509603/30/06 19:25:31  5-MIN KMKG 310025Z 15007KT 10SM FEW100 17/03 A2993 630 40 1000 150/07 RMK AO2
14840KMKG MKG20060330193009603/30/06 19:30:31  5-MIN KMKG 310030Z 15008KT 10SM FEW100 17/03 A2993 620 40 1000 160/08 RMK AO2
14840KMKG MKG20060330193509503/30/06 19:35:31  5-MIN KMKG 310035Z 15007KT 10SM FEW100 16/03 A2992 630 42 900 150/07 RMK AO2
14840KMKG MKG20060330194009503/30/06 19:40:31  5-MIN KMKG 310040Z 15008KT 10SM FEW100 16/03 A2992 630 42 900 150/08 RMK AO2
14840KMKG MKG20060330194509203/30/06 19:45:31  5-MIN KMKG 310045Z 14008KT 10SM CLR 16/03 A2992 630 42 900 150/08 RMK AO2
14840KMKG MKG20060330195010903/30/06 19:50:31  5-MIN KMKG 310050Z 14008KT 10SM CLR 16/03 A2992 630 43 900 150/08 RMK AO2 SLP134 T01560033
14840KMKG MKG20060330195511203/30/06 19:55:31  5-MIN KMKG 310055Z 14008KT 10SM FEW100 16/03 A2992 630 43 900 150/08 RMK AO2 SLP133 T01560033
14840KMKG MKG20060330200009503/30/06 20:00:31  5-MIN KMKG 310100Z 14006KT 10SM SCT110 16/03 A2992 640 43 900 150/06 RMK AO2
14840KMKG MKG20060330200509503/30/06 20:05:31  5-MIN KMKG 310105Z 14007KT 10SM FEW110 15/03 A2992 630 45 800 150/07 RMK AO2
14840KMKG MKG20060330201009503/30/06 20:10:31  5-MIN KMKG 310110Z 15007KT 10SM FEW110 15/03 A2992 630 45 800 150/07 RMK AO2
14840KMKG MKG20060330201509503/30/06 20:15:31  5-MIN KMKG 310115Z 15006KT 10SM SCT110 16/03 A2992 630 43 900 150/06 RMK AO2
14840KMKG MKG20060330202009503/30/06 20:20:31  5-MIN KMKG 310120Z 15006KT 10SM BKN110 15/03 A2992 630 45 800 150/06 RMK AO2
14840KMKG MKG20060330202509503/30/06 20:25:31  5-MIN KMKG 310125Z 15008KT 10SM BKN110 16/03 A2993 630 42 900 150/08 RMK AO2
14840KMKG MKG20060330203009503/30/06 20:30:31  5-MIN KMKG 310130Z 15008KT 10SM SCT110 16/03 A2992 630 42 900 150/08 RMK AO2
14840KMKG MKG20060330203509503/30/06 20:35:31  5-MIN KMKG 310135Z 15008KT 10SM FEW110 16/03 A2993 630 43 900 150/08 RMK AO2
14840KMKG MKG20060330204009503/30/06 20:40:31  5-MIN KMKG 310140Z 15008KT 10SM FEW110 16/03 A2992 630 43 900 150/08 RMK AO2
14840KMKG MKG20060330204509503/30/06 20:45:31  5-MIN KMKG 310145Z 15009KT 10SM SCT110 16/03 A2993 620 43 900 150/09 RMK AO2
14840KMKG MKG20060330205011203/30/06 20:50:31  5-MIN KMKG 310150Z 14009KT 10SM FEW120 15/03 A2992 630 45 800 140/09 RMK AO2 SLP134 T01500033
14840KMKG MKG20060330205511203/30/06 20:55:31  5-MIN KMKG 310155Z 14009KT 10SM FEW120 15/03 A2992 630 45 800 150/09 RMK AO2 SLP134 T01500033
14840KMKG MKG20060330210009503/30/06 21:00:31  5-MIN KMKG 310200Z 14008KT 10SM FEW120 15/03 A2993 620 45 800 150/08 RMK AO2
14840KMKG MKG20060330210509503/30/06 21:05:31  5-MIN KMKG 310205Z 15008KT 10SM FEW120 15/03 A2993 620 45 800 150/08 RMK AO2
14840KMKG MKG20060330211009503/30/06 21:10:31  5-MIN KMKG 310210Z 15008KT 10SM FEW120 15/03 A2993 630 45 800 150/08 RMK AO2
14840KMKG MKG20060330211509203/30/06 21:15:31  5-MIN KMKG 310215Z 15008KT 10SM CLR 15/03 A2992 630 45 800 150/08 RMK AO2
14840KMKG MKG20060330212009503/30/06 21:20:31  5-MIN KMKG 310220Z 14009KT 10SM FEW110 15/03 A2992 630 45 800 150/09 RMK AO2
14840KMKG MKG20060330212509503/30/06 21:25:31  5-MIN KMKG 310225Z 14010KT 10SM FEW110 15/03 A2991 640 45 800 150/10 RMK AO2
14840KMKG MKG20060330213009203/30/06 21:30:31  5-MIN KMKG 310230Z 15008KT 10SM CLR 15/03 A2992 630 45 800 150/08 RMK AO2
14840KMKG MKG20060330213509203/30/06 21:35:31  5-MIN KMKG 310235Z 14008KT 10SM CLR 15/03 A2991 640 45 800 150/08 RMK AO2
14840KMKG MKG20060330214009203/30/06 21:40:31  5-MIN KMKG 310240Z 14008KT 10SM CLR 14/03 A2991 640 47 800 140/08 RMK AO2
14840KMKG MKG20060330214509203/30/06 21:45:31  5-MIN KMKG 310245Z 14009KT 10SM CLR 14/03 A2991 640 47 800 150/09 RMK AO2
14840KMKG MKG20060330215011503/30/06 21:50:31  5-MIN KMKG 310250Z 14008KT 10SM CLR 14/03 A2990 640 47 800 150/08 RMK AO2 SLP127 T01440033 58025
14840KMKG MKG20060330215511803/30/06 21:55:31  5-MIN KMKG 310255Z 14009KT 10SM FEW100 14/03 A2990 650 47 800 140/09 RMK AO2 SLP126 T01440033 58010
14840KMKG MKG20060330220009203/30/06 22:00:31  5-MIN KMKG 310300Z 14009KT 10SM CLR 14/03 A2990 650 48 700 140/09 RMK AO2
14840KMKG MKG20060330220509203/30/06 22:05:31  5-MIN KMKG 310305Z 14010KT 10SM CLR 14/03 A2991 640 48 700 140/10 RMK AO2
14840KMKG MKG20060330221009503/30/06 22:10:31  5-MIN KMKG 310310Z 15011KT 10SM FEW120 15/03 A2991 640 45 800 150/11 RMK AO2
14840KMKG MKG20060330221509503/30/06 22:15:31  5-MIN KMKG 310315Z 15010KT 10SM FEW120 15/03 A2991 640 45 800 150/10 RMK AO2
14840KMKG MKG20060330222009503/30/06 22:20:31  5-MIN KMKG 310320Z 15010KT 10SM FEW120 15/03 A2990 650 45 800 150/10 RMK AO2
14840KMKG MKG20060330222509503/30/06 22:25:31  5-MIN KMKG 310325Z 15010KT 10SM FEW120 16/03 A2991 640 43 900 150/10 RMK AO2
14840KMKG MKG20060330223009503/30/06 22:30:31  5-MIN KMKG 310330Z 15012KT 10SM FEW120 16/03 A2990 640 43 900 150/12 RMK AO2
14840KMKG MKG20060330223509503/30/06 22:35:31  5-MIN KMKG 310335Z 15012KT 10SM FEW120 16/03 A2990 650 43 900 150/12 RMK AO2
14840KMKG MKG20060330224009203/30/06 22:40:31  5-MIN KMKG 310340Z 14010KT 10SM CLR 15/03 A2990 650 45 800 150/10 RMK AO2
14840KMKG MKG20060330224509203/30/06 22:45:31  5-MIN KMKG 310345Z 15010KT 10SM CLR 15/03 A2989 660 45 800 150/10 RMK AO2
14840KMKG MKG20060330225010903/30/06 22:50:31  5-MIN KMKG 310350Z 15012KT 10SM CLR 16/03 A2989 660 43 900 150/12 RMK AO2 SLP121 T01560033
14840KMKG MKG20060330225510903/30/06 22:55:31  5-MIN KMKG 310355Z 15011KT 10SM CLR 16/03 A2989 660 43 900 150/11 RMK AO2 SLP120 T01560033
14840KMKG MKG20060330230009203/30/06 23:00:31  5-MIN KMKG 310400Z 15011KT 10SM CLR 16/03 A2988 660 43 900 150/11 RMK AO2
14840KMKG MKG20060330230509203/30/06 23:05:31  5-MIN KMKG 310405Z 15011KT 10SM CLR 16/03 A2988 670 43 900 150/11 RMK AO2
14840KMKG MKG20060330231009203/30/06 23:10:31  5-MIN KMKG 310410Z 16011KT 10SM CLR 16/03 A2988 670 43 900 160/11 RMK AO2
14840KMKG MKG20060330231509203/30/06 23:15:31  5-MIN KMKG 310415Z 15013KT 10SM CLR 16/03 A2988 670 43 900 150/13 RMK AO2
14840KMKG MKG20060330232009203/30/06 23:20:31  5-MIN KMKG 310420Z 15010KT 10SM CLR 16/03 A2987 670 43 900 150/10 RMK AO2
14840KMKG MKG20060330232509203/30/06 23:25:31  5-MIN KMKG 310425Z 15010KT 10SM CLR 16/03 A2987 680 43 900 160/10 RMK AO2
14840KMKG MKG20060330233009203/30/06 23:30:31  5-MIN KMKG 310430Z 15012KT 10SM CLR 16/03 A2987 680 43 900 150/12 RMK AO2
14840KMKG MKG20060330233509203/30/06 23:35:31  5-MIN KMKG 310435Z 15010KT 10SM CLR 16/03 A2987 680 43 900 150/10 RMK AO2
14840KMKG MKG20060330234009303/30/06 23:40:31  5-MIN KMKG 310440Z 14011KT 10SM CLR 16/03 A2986 690 43 1000 150/11 RMK AO2
14840KMKG MKG20060330234509203/30/06 23:45:31  5-MIN KMKG 310445Z 14010KT 10SM CLR 15/04 A2986 690 47 900 150/10 RMK AO2
14840KMKG MKG20060330235011903/30/06 23:50:31  5-MIN KMKG 310450Z 14011KT 10SM CLR 15/04 A2986 690 47 900 140/11 RMK AO2 SLP110 T01500039 401720011
14840KMKG MKG20060330235511903/30/06 23:55:31  5-MIN KMKG 310455Z 14010KT 10SM CLR 15/04 A2985 690 47 900 150/10 RMK AO2 SLP109 T01500039 401720011
14840KMKG MKG20060331000009203/31/06 00:00:32  5-MIN KMKG 310500Z 14011KT 10SM CLR 15/04 A2985 690 47 900 140/11 RMK AO2
14840KMKG MKG20060331000509203/31/06 00:05:31  5-MIN KMKG 310505Z 14011KT 10SM CLR 14/04 A2985 700 49 800 140/11 RMK AO2
14840KMKG MKG20060331001009203/31/06 00:10:31  5-MIN KMKG 310510Z 14010KT 10SM CLR 14/04 A2985 700 49 800 140/10 RMK AO2
14840KMKG MKG20060331001509203/31/06 00:15:31  5-MIN KMKG 310515Z 14011KT 10SM CLR 14/04 A2984 700 49 800 140/11 RMK AO2
14840KMKG MKG20060331002009203/31/06 00:20:31  5-MIN KMKG 310520Z 14010KT 10SM CLR 14/04 A2984 700 49 800 140/10 RMK AO2
14840KMKG MKG20060331002509203/31/06 00:25:31  5-MIN KMKG 310525Z 14011KT 10SM CLR 14/04 A2984 710 49 800 140/11 RMK AO2
14840KMKG MKG20060331003009203/31/06 00:30:31  5-MIN KMKG 310530Z 14012KT 10SM CLR 14/04 A2984 710 49 800 150/12 RMK AO2
14840KMKG MKG20060331003509203/31/06 00:35:31  5-MIN KMKG 310535Z 14011KT 10SM CLR 15/03 A2984 710 45 900 150/11 RMK AO2
14840KMKG MKG20060331004009203/31/06 00:40:31  5-MIN KMKG 310540Z 15011KT 10SM CLR 15/03 A2983 710 45 900 150/11 RMK AO2
14840KMKG MKG20060331004509203/31/06 00:45:31  5-MIN KMKG 310545Z 14012KT 10SM CLR 15/03 A2983 710 45 900 150/12 RMK AO2
14840KMKG MKG20060331005012703/31/06 00:50:31  5-MIN KMKG 310550Z 14012KT 10SM CLR 15/03 A2983 720 45 900 150/12 RMK AO2 SLP100 T01500033 10167 20139 58010
14840KMKG MKG20060331005512803/31/06 00:55:31  5-MIN KMKG 310555Z 15011KT 10SM CLR 16/03 A2983 720 43 1000 150/11 RMK AO2 SLP099 T01560033 10167 20139 58025
14840KMKG MKG20060331010009303/31/06 01:00:31  5-MIN KMKG 310600Z 15013KT 10SM CLR 16/03 A2982 720 43 1000 150/13 RMK AO2
14840KMKG MKG20060331010509303/31/06 01:05:31  5-MIN KMKG 310605Z 15012KT 10SM CLR 16/03 A2982 720 43 1000 150/12 RMK AO2
14840KMKG MKG20060331011009303/31/06 01:10:31  5-MIN KMKG 310610Z 14011KT 10SM CLR 16/03 A2982 730 43 1000 150/11 RMK AO2
14840KMKG MKG20060331011509303/31/06 01:15:31  5-MIN KMKG 310615Z 14014KT 10SM CLR 16/03 A2981 730 43 1000 150/14 RMK AO2
14840KMKG MKG20060331012009303/31/06 01:20:31  5-MIN KMKG 310620Z 15012KT 10SM CLR 16/03 A2981 730 43 1000 150/12 RMK AO2
14840KMKG MKG20060331012509303/31/06 01:25:31  5-MIN KMKG 310625Z 14013KT 10SM CLR 16/03 A2981 730 43 1000 150/13 RMK AO2
14840KMKG MKG20060331013009303/31/06 01:30:31  5-MIN KMKG 310630Z 15010KT 10SM CLR 16/03 A2981 730 43 1000 150/10 RMK AO2
14840KMKG MKG20060331013509303/31/06 01:35:31  5-MIN KMKG 310635Z 15010KT 10SM CLR 16/03 A2982 730 43 1000 160/10 RMK AO2
14840KMKG MKG20060331014009303/31/06 01:40:31  5-MIN KMKG 310640Z 15011KT 10SM CLR 16/03 A2982 730 43 1000 160/11 RMK AO2
14840KMKG MKG20060331014509303/31/06 01:45:31  5-MIN KMKG 310645Z 16011KT 10SM CLR 16/03 A2981 730 43 1000 160/11 RMK AO2
14840KMKG MKG20060331015011003/31/06 01:50:31  5-MIN KMKG 310650Z 15012KT 10SM CLR 16/03 A2981 730 43 1000 150/12 RMK AO2 SLP093 T01560033
14840KMKG MKG20060331015511003/31/06 01:55:31  5-MIN KMKG 310655Z 15013KT 10SM CLR 15/03 A2980 740 45 1000 150/13 RMK AO2 SLP091 T01500033
14840KMKG MKG20060331020009303/31/06 02:00:31  5-MIN KMKG 310700Z 15012KT 10SM CLR 16/03 A2980 740 43 1000 160/12 RMK AO2
14840KMKG MKG20060331020509603/31/06 02:05:31  5-MIN KMKG 310705Z 15011KT 10SM FEW120 16/03 A2980 750 43 1000 150/11 RMK AO2
14840KMKG MKG20060331021009603/31/06 02:10:31  5-MIN KMKG 310710Z 15012KT 10SM FEW120 16/03 A2979 750 43 1000 150/12 RMK AO2
14840KMKG MKG20060331021509603/31/06 02:15:31  5-MIN KMKG 310715Z 15012KT 10SM SCT120 16/03 A2979 750 43 1000 160/12 RMK AO2
14840KMKG MKG20060331022009603/31/06 02:20:31  5-MIN KMKG 310720Z 15011KT 10SM SCT120 16/03 A2978 760 43 1000 150/11 RMK AO2
14840KMKG MKG20060331022509603/31/06 02:25:31  5-MIN KMKG 310725Z 15011KT 10SM SCT110 16/03 A2978 760 43 1000 150/11 RMK AO2
14840KMKG MKG20060331023009603/31/06 02:30:31  5-MIN KMKG 310730Z 15012KT 10SM SCT110 16/03 A2978 760 43 1000 150/12 RMK AO2
14840KMKG MKG20060331023509603/31/06 02:35:31  5-MIN KMKG 310735Z 15012KT 10SM FEW110 16/03 A2977 770 43 1000 150/12 RMK AO2
14840KMKG MKG20060331024009603/31/06 02:40:31  5-MIN KMKG 310740Z 15012KT 10SM FEW110 16/03 A2977 770 43 1100 150/12 RMK AO2
14840KMKG MKG20060331024510203/31/06 02:45:31  5-MIN KMKG 310745Z 15012G18KT 10SM FEW110 16/03 A2976 770 43 1100 150/12G18 RMK AO2
14840KMKG MKG20060331025011003/31/06 02:50:31  5-MIN KMKG 310750Z 15012KT 10SM CLR 16/03 A2976 780 42 1100 160/12 RMK AO2 SLP077 T01610033
14840KMKG MKG20060331025511003/31/06 02:55:31  5-MIN KMKG 310755Z 15011KT 10SM CLR 16/03 A2976 780 42 1100 160/11 RMK AO2 SLP076 T01610033
14840KMKG MKG20060331030009303/31/06 03:00:31  5-MIN KMKG 310800Z 15011KT 10SM CLR 16/03 A2975 790 42 1100 150/11 RMK AO2
14840KMKG MKG20060331030509303/31/06 03:05:31  5-MIN KMKG 310805Z 14013KT 10SM CLR 16/03 A2974 790 42 1100 150/13 RMK AO2
14840KMKG MKG20060331031009303/31/06 03:10:31  5-MIN KMKG 310810Z 15014KT 10SM CLR 16/04 A2974 800 44 1200 150/14 RMK AO2
14840KMKG MKG20060331031510603/31/06 03:15:31  5-MIN KMKG 310815Z 15016G19KT 10SM CLR 16/04 A2973 800 44 1200 150/16G19 RMK AO2 PRESFR
14840KMKG MKG20060331032009603/31/06 03:20:31  5-MIN KMKG 310820Z 15014KT 10SM FEW110 17/04 A2973 810 42 1200 150/14 RMK AO2
14840KMKG MKG20060331032510203/31/06 03:25:31  5-MIN KMKG 310825Z 15012G18KT 10SM FEW110 17/04 A2973 810 42 1200 150/12G18 RMK AO2
14840KMKG MKG20060331033009603/31/06 03:30:31  5-MIN KMKG 310830Z 15015KT 10SM FEW080 17/04 A2972 810 42 1200 160/15 RMK AO2
14840KMKG MKG20060331033510903/31/06 03:35:31  5-MIN KMKG 310835Z 15015G21KT 10SM FEW090 SCT110 17/04 A2972 820 42 1200 160/15G21 RMK AO2
14840KMKG MKG20060331034010203/31/06 03:40:31  5-MIN KMKG 310840Z 16015G21KT 10SM FEW100 17/04 A2972 820 42 1200 160/15G21 RMK AO2
14840KMKG MKG20060331034510903/31/06 03:45:31  5-MIN KMKG 310845Z 16013G21KT 10SM FEW090 SCT110 17/04 A2971 820 42 1200 160/13G21 RMK AO2
14840KMKG MKG20060331035013203/31/06 03:50:31  5-MIN KMKG 310850Z 15016G21KT 10SM FEW090 SCT110 17/04 A2971 830 42 1300 160/16G21 RMK AO2 SLP060 T01670039 58025
14840KMKG MKG20060331035513203/31/06 03:55:31  5-MIN KMKG 310855Z 16016G21KT 10SM FEW090 SCT110 17/04 A2970 830 44 1300 160/16G21 RMK AO2 SLP058 T01670044 58041
14840KMKG MKG20060331040009603/31/06 04:00:31  5-MIN KMKG 310900Z 15013KT 10SM FEW110 17/04 A2970 830 44 1300 160/13 RMK AO2
14840KMKG MKG20060331040510203/31/06 04:05:31  5-MIN KMKG 310905Z 16015G20KT 10SM FEW110 17/04 A2970 830 44 1300 160/15G20 RMK AO2
14840KMKG MKG20060331041010203/31/06 04:10:31  5-MIN KMKG 310910Z 15014G20KT 10SM FEW065 17/04 A2969 840 44 1300 160/14G20 RMK AO2
14840KMKG MKG20060331041510203/31/06 04:15:31  5-MIN KMKG 310915Z 16011G20KT 10SM SCT060 17/04 A2970 840 44 1300 160/11G20 RMK AO2
14840KMKG MKG20060331042010203/31/06 04:20:31  5-MIN KMKG 310920Z 16014G20KT 10SM BKN060 17/05 A2969 840 45 1300 160/14G20 RMK AO2
14840KMKG MKG20060331042509603/31/06 04:25:31  5-MIN KMKG 310925Z 16014KT 10SM BKN060 17/05 A2969 840 45 1300 160/14 RMK AO2
14840KMKG MKG20060331043009603/31/06 04:30:31  5-MIN KMKG 310930Z 16011KT 10SM BKN060 17/05 A2969 840 45 1300 160/11 RMK AO2
14840KMKG MKG20060331043510903/31/06 04:35:31  5-MIN KMKG 310935Z 16013G20KT 10SM BKN060 OVC075 17/05 A2969 850 45 1300 160/13G20 RMK AO2
14840KMKG MKG20060331044011603/31/06 04:40:31  5-MIN KMKG 310940Z 16012G20KT 10SM BKN060 BKN075 OVC100 17/06 A2968 850 47 1300 170/12G20 RMK AO2
14840KMKG MKG20060331044511003/31/06 04:45:31  5-MIN KMKG 310945Z 16012KT 10SM SCT044 BKN060 OVC070 17/06 A2968 850 47 1300 160/12 RMK AO2
14840KMKG MKG20060331045012703/31/06 04:50:31  5-MIN KMKG 310950Z 16013KT 10SM BKN044 BKN060 OVC075 17/06 A2968 860 47 1300 160/13 RMK AO2 SLP049 T01670056
14840KMKG MKG20060331045513303/31/06 04:55:31  5-MIN KMKG 310955Z 16015G20KT 10SM BKN044 BKN060 OVC075 17/06 A2968 860 47 1400 170/15G20 RMK AO2 SLP048 T01720061
14840KMKG MKG20060331050010903/31/06 05:00:31  5-MIN KMKG 311000Z 18014G23KT 10SM BKN044 OVC075 17/06 A2968 860 47 1400 180/14G23 RMK AO2
14840KMKG MKG20060331050510203/31/06 05:05:31  5-MIN KMKG 311005Z 17015G23KT 10SM OVC044 18/07 A2967 860 48 1400 180/15G23 RMK AO2
14840KMKG MKG20060331051010203/31/06 05:10:31  5-MIN KMKG 311010Z 18018G24KT 10SM OVC042 18/07 A2967 860 48 1500 180/18G24 RMK AO2
14840KMKG MKG20060331051512003/31/06 05:15:31  5-MIN KMKG 311015Z 18021G29KT 10SM OVC042 19/07 A2967 870 46 1600 180/21G29 RMK AO2 PK WND 18029/1014
14840KMKG MKG20060331052012003/31/06 05:20:31  5-MIN KMKG 311020Z 19018G29KT 10SM OVC042 19/08 A2967 870 48 1600 190/18G29 RMK AO2 PK WND 18029/1014
14840KMKG MKG20060331052512003/31/06 05:25:31  5-MIN KMKG 311025Z 18019G32KT 10SM OVC040 19/07 A2967 860 46 1600 190/19G32 RMK AO2 PK WND 17032/1021
14840KMKG MKG20060331053012003/31/06 05:30:31  5-MIN KMKG 311030Z 19021G32KT 10SM OVC040 18/07 A2967 870 48 1500 190/21G32 RMK AO2 PK WND 17032/1021
14840KMKG MKG20060331053512003/31/06 05:35:31  5-MIN KMKG 311035Z 19017G25KT 10SM OVC040 18/07 A2967 860 48 1500 200/17G25 RMK AO2 PK WND 17032/1021
14840KMKG MKG20060331054012003/31/06 05:40:31  5-MIN KMKG 311040Z 19022G27KT 10SM OVC040 18/07 A2966 870 48 1500 200/22G27 RMK AO2 PK WND 17032/1021
14840KMKG MKG20060331054512003/31/06 05:45:31  5-MIN KMKG 311045Z 19016G30KT 10SM OVC040 18/08 A2967 870 50 1500 190/16G30 RMK AO2 PK WND 17032/1021
14840KMKG MKG20060331055013703/31/06 05:50:31  5-MIN KMKG 311050Z 19021G30KT 10SM OVC040 18/08 A2967 870 50 1500 190/21G30 RMK AO2 PK WND 17032/1021 SLP044 T01830078
14840KMKG MKG20060331055513703/31/06 05:55:31  5-MIN KMKG 311055Z 19024G34KT 10SM OVC038 18/08 A2967 860 51 1400 190/24G34 RMK AO2 PK WND 18034/1054 SLP045 T01780078
14840KMKG MKG20060331060013803/31/06 06:00:31  5-MIN KMKG 311100Z 19024G34KT 10SM -RA OVC038 17/09 A2967 860 57 1400 200/24G34 RMK AO2 PK WND 19030/1100 RAB1056 P0000
14840KMKG MKG20060331060513803/31/06 06:05:31  5-MIN KMKG 311105Z 19022G30KT 10SM -RA OVC038 16/09 A2967 870 64 1200 190/22G30 RMK AO2 PK WND 19030/1101 RAB1056 P0000
14840KMKG MKG20060331061013803/31/06 06:10:31  5-MIN KMKG 311110Z 18026G35KT 10SM -RA OVC038 16/10 A2967 860 69 1200 190/26G35 RMK AO2 PK WND 19035/1110 RAB1056 P0000
14840KMKG MKG20060331061514503/31/06 06:15:31  5-MIN KMKG 311115Z 19025G35KT 10SM -RA BKN038 OVC085 15/10 A2967 860 72 1100 200/25G35 RMK AO2 PK WND 19035/1110 RAB1056 P0000
14840KMKG MKG20060331062014503/31/06 06:20:31  5-MIN KMKG 311120Z 19029G37KT 10SM -RA BKN038 OVC090 15/10 A2967 860 72 1100 200/29G37 RMK AO2 PK WND 19037/1119 RAB1056 P0000
14840KMKG MKG20060331062514403/31/06 06:25:31  5-MIN KMKG 311125Z 19026G37KT 9SM -RA BKN038 OVC090 14/11 A2967 870 77 1000 190/26G37 RMK AO2 PK WND 19037/1119 RAB1056 P0000
14840KMKG MKG20060331063014403/31/06 06:30:31  5-MIN KMKG 311130Z 19023G33KT 8SM -RA BKN038 OVC090 14/11 A2966 870 80 1000 190/23G33 RMK AO2 PK WND 19037/1119 RAB1056 P0000
14840KMKG MKG20060331063514403/31/06 06:35:31  5-MIN KMKG 311135Z 18024G33KT 9SM -RA SCT036 OVC085 14/11 A2965 880 80 1000 190/24G33 RMK AO2 PK WND 19037/1119 RAB1056 P0002
14840KMKG MKG20060331064015103/31/06 06:40:31  5-MIN KMKG 311140Z 19017G30KT 9SM -RA FEW031 SCT038 OVC085 14/11 A2965 880 83 1000 190/17G30 RMK AO2 PK WND 19037/1119 RAB1056 P0002
14840KMKG MKG20060331064514303/31/06 06:45:31  5-MIN KMKG 311145Z 18018G27KT 7SM RA BKN037 OVC085 14/11 A2965 880 83 1000 190/18G27 RMK AO2 PK WND 19037/1119 RAB1056 P0003
14840KMKG MKG20060331065019703/31/06 06:50:31  5-MIN KMKG 311150Z 18017G27KT 7SM -RA BKN043 OVC085 13/11 A2964 890 86 900 180/17G27 RMK AO2 PK WND 19037/1119 RAB1056 PRESFR SLP035 P0004 60004 70004 T01330111 10189 20133 58041
14840KMKG MKG20060331065519103/31/06 06:55:31  5-MIN KMKG 311155Z 18016G29KT 9SM -RA SCT043 OVC090 14/11 A2965 880 83 1000 190/16G29 RMK AO2 PK WND 19037/1119 RAB1056 SLP038 P0004 60004 70004 T01390111 10189 20133 56019
14840KMKG MKG20060331070011903/31/06 07:00:31  5-MIN KMKG 311200Z 19018G29KT 10SM -RA SCT042 OVC095 14/12 A2965 880 86 1000 190/18G29 RMK AO2 P0000
14840KMKG MKG20060331070512103/31/06 07:05:31  5-MIN KMKG 311205Z 18018G24KT 10SM SCT046 OVC100 14/12 A2966 880 86 1000 190/18G24 RMK AO2 RAE05 P0000
14840KMKG MKG20060331071013903/31/06 07:10:31  5-MIN KMKG 311210Z 18018G26KT 10SM SCT060 OVC100 14/12 A2965 880 83 1100 180/18G26 RMK AO2 PK WND 17026/1210 RAE05 P0000
14840KMKG MKG20060331071513903/31/06 07:15:31  5-MIN KMKG 311215Z 19020G30KT 10SM FEW065 OVC100 15/12 A2966 870 80 1100 190/20G30 RMK AO2 PK WND 18030/1212 RAE05 P0000
14840KMKG MKG20060331072013203/31/06 07:20:31  5-MIN KMKG 311220Z 18019G30KT 10SM OVC100 15/12 A2966 880 80 1100 190/19G30 RMK AO2 PK WND 18030/1212 RAE05 P0000
14840KMKG MKG20060331072513203/31/06 07:25:31  5-MIN KMKG 311225Z 18018G29KT 10SM OVC100 15/12 A2965 880 80 1100 180/18G29 RMK AO2 PK WND 18030/1212 RAE05 P0000
14840KMKG MKG20060331073013203/31/06 07:30:31  5-MIN KMKG 311230Z 18017G29KT 10SM OVC100 15/12 A2966 870 80 1100 190/17G29 RMK AO2 PK WND 18030/1212 RAE05 P0000
14840KMKG MKG20060331073513203/31/06 07:35:31  5-MIN KMKG 311235Z 18019G24KT 10SM BKN100 15/11 A2966 880 77 1100 180/19G24 RMK AO2 PK WND 18030/1212 RAE05 P0000
14840KMKG MKG20060331074013203/31/06 07:40:31  5-MIN KMKG 311240Z 18020G26KT 10SM BKN100 16/11 A2966 870 74 1200 190/20G26 RMK AO2 PK WND 18030/1212 RAE05 P0000
14840KMKG MKG20060331074513203/31/06 07:45:31  5-MIN KMKG 311245Z 18019G26KT 10SM SCT100 16/11 A2966 870 74 1200 190/19G26 RMK AO2 PK WND 18030/1212 RAE05 P0000
14840KMKG MKG20060331075014903/31/06 07:50:31  5-MIN KMKG 311250Z 19022G32KT 10SM SCT095 16/11 A2966 870 74 1200 190/22G32 RMK AO2 PK WND 19032/1249 RAE05 SLP042 P0000 T01560111
14840KMKG MKG20060331075515603/31/06 07:55:31  5-MIN KMKG 311255Z 18022G32KT 10SM FEW012 SCT100 15/11 A2966 870 77 1100 190/22G32 RMK AO2 PK WND 19032/1249 RAE05 SLP042 P0000 T01500111
14840KMKG MKG20060331080012003/31/06 08:00:31  5-MIN KMKG 311300Z 19017G30KT 10SM FEW090 15/11 A2966 870 77 1100 190/17G30 RMK AO2 PK WND 18028/1257
14840KMKG MKG20060331080511703/31/06 08:05:31  5-MIN KMKG 311305Z 19020G27KT 10SM CLR 15/11 A2966 870 77 1100 190/20G27 RMK AO2 PK WND 18028/1257
14840KMKG MKG20060331081011703/31/06 08:10:31  5-MIN KMKG 311310Z 19022G28KT 10SM CLR 15/11 A2966 870 77 1100 190/22G28 RMK AO2 PK WND 20028/1309
14840KMKG MKG20060331081511703/31/06 08:15:31  5-MIN KMKG 311315Z 19025G31KT 10SM CLR 15/11 A2966 870 77 1100 200/25G31 RMK AO2 PK WND 19031/1315
14840KMKG MKG20060331082011703/31/06 08:20:31  5-MIN KMKG 311320Z 19024G31KT 10SM CLR 15/11 A2966 870 77 1100 190/24G31 RMK AO2 PK WND 19031/1319
14840KMKG MKG20060331082511703/31/06 08:25:31  5-MIN KMKG 311325Z 19023G32KT 10SM CLR 15/11 A2966 870 77 1100 190/23G32 RMK AO2 PK WND 19032/1321
14840KMKG MKG20060331083011703/31/06 08:30:31  5-MIN KMKG 311330Z 19023G32KT 10SM CLR 15/11 A2966 870 74 1100 200/23G32 RMK AO2 PK WND 19032/1321
14840KMKG MKG20060331083511703/31/06 08:35:31  5-MIN KMKG 311335Z 20020G28KT 10SM CLR 14/11 A2966 870 77 1000 200/20G28 RMK AO2 PK WND 19032/1321
14840KMKG MKG20060331084011703/31/06 08:40:31  5-MIN KMKG 311340Z 19025G29KT 10SM CLR 14/11 A2966 870 77 1000 190/25G29 RMK AO2 PK WND 19032/1321
14840KMKG MKG20060331084511703/31/06 08:45:31  5-MIN KMKG 311345Z 19026G34KT 10SM CLR 14/11 A2966 870 77 1000 200/26G34 RMK AO2 PK WND 19034/1344
14840KMKG MKG20060331085014403/31/06 08:50:31  5-MIN KMKG 311350Z 20027G34KT 10SM FEW022 SCT090 14/10 A2966 870 74 1000 200/27G34 RMK AO2 PK WND 19034/1344 SLP044 T01440100
14840KMKG MKG20060331085514403/31/06 08:55:31  5-MIN KMKG 311355Z 19024G33KT 10SM FEW022 SCT090 14/10 A2966 870 77 1000 200/24G33 RMK AO2 PK WND 19034/1344 SLP043 T01390100
14840KMKG MKG20060331090012703/31/06 09:00:31  5-MIN KMKG 311400Z 20024G33KT 10SM FEW022 SCT090 14/10 A2966 870 77 1000 200/24G33 RMK AO2 PK WND 20032/1400
14840KMKG MKG20060331090512003/31/06 09:05:31  5-MIN KMKG 311405Z 19026G32KT 10SM SCT034 14/10 A2966 870 77 1000 200/26G32 RMK AO2 PK WND 18032/1404
14840KMKG MKG20060331091012003/31/06 09:10:31  5-MIN KMKG 311410Z 20024G33KT 10SM SCT032 14/10 A2966 880 77 1000 200/24G33 RMK AO2 PK WND 19033/1410
14840KMKG MKG20060331091511903/31/06 09:15:31  5-MIN KMKG 311415Z 20023G33KT 10SM BKN030 13/10 A2966 870 80 900 200/23G33 RMK AO2 PK WND 19033/1410
14840KMKG MKG20060331092011903/31/06 09:20:31  5-MIN KMKG 311420Z 20025G32KT 10SM BKN030 13/09 A2966 870 77 900 200/25G32 RMK AO2 PK WND 19033/1410
14840KMKG MKG20060331092512603/31/06 09:25:31  5-MIN KMKG 311425Z 20024G31KT 10SM BKN028 OVC033 13/09 A2966 870 80 900 200/24G31 RMK AO2 PK WND 19033/1410
14840KMKG MKG20060331093012603/31/06 09:30:31  5-MIN KMKG 311430Z 20022G32KT 10SM BKN028 OVC033 13/09 A2966 870 80 800 200/22G32 RMK AO2 PK WND 19033/1410
14840KMKG MKG20060331093511903/31/06 09:35:31  5-MIN KMKG 311435Z 20025G32KT 10SM OVC028 13/09 A2966 870 80 800 200/25G32 RMK AO2 PK WND 19033/1410
14840KMKG MKG20060331094011903/31/06 09:40:31  5-MIN KMKG 311440Z 20023G32KT 10SM OVC028 13/09 A2966 870 80 900 200/23G32 RMK AO2 PK WND 19033/1410
14840KMKG MKG20060331094511903/31/06 09:45:31  5-MIN KMKG 311445Z 19024G31KT 10SM OVC028 12/09 A2966 870 83 800 200/24G31 RMK AO2 PK WND 19033/1410
14840KMKG MKG20060331095014803/31/06 09:50:31  5-MIN KMKG 311450Z 20024G31KT 10SM OVC028 12/09 A2966 870 80 800 200/24G31 RMK AO2 PK WND 19033/1410 SLP044 60000 T01220089 56019
14840KMKG MKG20060331095514803/31/06 09:55:31  5-MIN KMKG 311455Z 20023G31KT 10SM OVC028 12/09 A2967 870 80 800 210/23G31 RMK AO2 PK WND 19033/1410 SLP046 60000 T01220089 51006
14840KMKG MKG20060331100011903/31/06 10:00:31  5-MIN KMKG 311500Z 20021G31KT 10SM OVC030 12/09 A2967 870 80 800 210/21G31 RMK AO2 PK WND 19031/1458
14840KMKG MKG20060331100511903/31/06 10:05:31  5-MIN KMKG 311505Z 20024G31KT 10SM OVC030 13/09 A2967 870 77 800 210/24G31 RMK AO2 PK WND 21031/1505
14840KMKG MKG20060331101012603/31/06 10:10:31  5-MIN KMKG 311510Z 20019G31KT 10SM BKN030 OVC034 13/09 A2967 870 77 800 210/19G31 RMK AO2 PK WND 21031/1505
14840KMKG MKG20060331101512603/31/06 10:15:31  5-MIN KMKG 311515Z 20021G30KT 10SM BKN030 OVC034 12/09 A2967 870 80 800 200/21G30 RMK AO2 PK WND 21031/1505
14840KMKG MKG20060331102011903/31/06 10:20:31  5-MIN KMKG 311520Z 20021G30KT 10SM OVC030 12/09 A2967 860 80 800 210/21G30 RMK AO2 PK WND 21031/1505
14840KMKG MKG20060331102511903/31/06 10:25:31  5-MIN KMKG 311525Z 20021G30KT 10SM OVC030 12/09 A2967 860 80 800 210/21G30 RMK AO2 PK WND 21031/1505
14840KMKG MKG20060331103011903/31/06 10:30:31  5-MIN KMKG 311530Z 20022G30KT 10SM OVC030 13/09 A2967 870 77 800 210/22G30 RMK AO2 PK WND 21031/1505
14840KMKG MKG20060331103511903/31/06 10:35:31  5-MIN KMKG 311535Z 20020G30KT 10SM OVC030 13/09 A2967 870 77 800 210/20G30 RMK AO2 PK WND 21031/1505
14840KMKG MKG20060331104011903/31/06 10:40:31  5-MIN KMKG 311540Z 21023G30KT 10SM OVC030 13/09 A2966 870 77 800 210/23G30 RMK AO2 PK WND 21031/1505
14840KMKG MKG20060331104511903/31/06 10:45:31  5-MIN KMKG 311545Z 20022G28KT 10SM OVC028 13/09 A2966 870 74 900 210/22G28 RMK AO2 PK WND 21031/1505
14840KMKG MKG20060331105011903/31/06 10:50:31  5-MIN KMKG 311550Z 20023G28KT 10SM OVC028 13/09 A2967 870 74 900 200/23G28 RMK AO2 PK WND 21031/1505
14840KMKG MKG20060331105513603/31/06 10:55:31  5-MIN KMKG 311555Z 20021G31KT 10SM OVC028 13/09 A2967 860 74 900 210/21G31 RMK AO2 PK WND 21031/1551 SLP047 T01330089
14840KMKG MKG20060331110012003/31/06 11:00:31  5-MIN KMKG 311600Z 20020G31KT 10SM BKN028 14/09 A2966 870 71 1000 210/20G31 RMK AO2 PK WND 20027/1600
14840KMKG MKG20060331110512003/31/06 11:05:31  5-MIN KMKG 311605Z 21023G31KT 10SM BKN028 14/09 A2967 870 71 1000 210/23G31 RMK AO2 PK WND 21031/1602
14840KMKG MKG20060331111012003/31/06 11:10:31  5-MIN KMKG 311610Z 21024G35KT 10SM SCT028 14/09 A2967 870 69 1000 210/24G35 RMK AO2 PK WND 21035/1609
14840KMKG MKG20060331111512003/31/06 11:15:31  5-MIN KMKG 311615Z 21021G35KT 10SM FEW028 14/09 A2967 860 71 1000 210/21G35 RMK AO2 PK WND 21035/1609
14840KMKG MKG20060331112012003/31/06 11:20:31  5-MIN KMKG 311620Z 21023G30KT 10SM FEW028 14/08 A2967 860 69 1000 210/23G30 RMK AO2 PK WND 21035/1609
14840KMKG MKG20060331112511703/31/06 11:25:31  5-MIN KMKG 311625Z 21025G32KT 10SM CLR 14/08 A2967 860 69 1000 210/25G32 RMK AO2 PK WND 21035/1609
14840KMKG MKG20060331113011703/31/06 11:30:31  5-MIN KMKG 311630Z 20020G32KT 10SM CLR 14/08 A2967 860 69 1000 210/20G32 RMK AO2 PK WND 21035/1609
14840KMKG MKG20060331113511703/31/06 11:35:31  5-MIN KMKG 311635Z 21024G28KT 10SM CLR 14/08 A2967 860 66 1000 210/24G28 RMK AO2 PK WND 21035/1609
14840KMKG MKG20060331114012003/31/06 11:40:31  5-MIN KMKG 311640Z 21021G30KT 10SM FEW028 14/08 A2967 860 66 1000 210/21G30 RMK AO2 PK WND 21035/1609
14840KMKG MKG20060331114512003/31/06 11:45:31  5-MIN KMKG 311645Z 21021G30KT 10SM FEW028 14/08 A2967 860 66 1000 210/21G30 RMK AO2 PK WND 21035/1609
14840KMKG MKG20060331115013703/31/06 11:50:31  5-MIN KMKG 311650Z 21022G29KT 10SM FEW028 14/08 A2967 860 66 1000 210/22G29 RMK AO2 PK WND 21035/1609 SLP046 T01440083
14840KMKG MKG20060331115513703/31/06 11:55:31  5-MIN KMKG 311655Z 20021G29KT 10SM FEW028 15/08 A2966 870 64 1100 200/21G29 RMK AO2 PK WND 21035/1609 SLP044 T01500083
14840KMKG MKG20060331120012003/31/06 12:00:31  5-MIN KMKG 311700Z 21021G31KT 10SM FEW028 15/08 A2967 870 64 1100 210/21G31 RMK AO2 PK WND 21031/1657
14840KMKG MKG20060331120512003/31/06 12:05:31  5-MIN KMKG 311705Z 21021G31KT 10SM FEW028 15/08 A2966 870 64 1100 210/21G31 RMK AO2 PK WND 21031/1657
14840KMKG MKG20060331121012003/31/06 12:10:31  5-MIN KMKG 311710Z 21019G29KT 10SM FEW028 16/08 A2966 870 62 1200 210/19G29 RMK AO2 PK WND 21031/1657
14840KMKG MKG20060331121512003/31/06 12:15:31  5-MIN KMKG 311715Z 21020G30KT 10SM FEW028 16/08 A2966 870 62 1200 210/20G30 RMK AO2 PK WND 21031/1657
14840KMKG MKG20060331122012003/31/06 12:20:31  5-MIN KMKG 311720Z 21023G30KT 10SM FEW028 16/08 A2966 880 62 1200 210/23G30 RMK AO2 PK WND 21031/1657
14840KMKG MKG20060331122511903/31/06 12:25:31  5-MIN KMKG 311725Z 21020G28KT 9SM FEW028 16/08 A2966 880 59 1200 210/20G28 RMK AO2 PK WND 21031/1657
14840KMKG MKG20060331123011903/31/06 12:30:31  5-MIN KMKG 311730Z 21020G27KT 9SM FEW028 16/08 A2966 880 62 1200 210/20G27 RMK AO2 PK WND 21031/1657
14840KMKG MKG20060331123512003/31/06 12:35:31  5-MIN KMKG 311735Z 21022G30KT 10SM FEW028 16/08 A2965 880 62 1200 210/22G30 RMK AO2 PK WND 21031/1657
14840KMKG MKG20060331124012003/31/06 12:40:31  5-MIN KMKG 311740Z 21021G30KT 10SM FEW028 16/08 A2965 880 59 1300 220/21G30 RMK AO2 PK WND 21031/1657
14840KMKG MKG20060331124512003/31/06 12:45:31  5-MIN KMKG 311745Z 21020G28KT 10SM FEW050 16/08 A2965 880 59 1300 220/20G28 RMK AO2 PK WND 21031/1657
14840KMKG MKG20060331125016103/31/06 12:50:31  5-MIN KMKG 311750Z 21020G27KT 10SM SCT050 16/08 A2965 880 59 1200 220/20G27 RMK AO2 PK WND 21031/1657 SLP040 60000 T01560078 10161 20122 51006
14840KMKG MKG20060331125516103/31/06 12:55:31  5-MIN KMKG 311755Z 20020G25KT 10SM BKN050 16/08 A2965 880 59 1200 210/20G25 RMK AO2 PK WND 21031/1657 SLP040 60000 T01560078 10161 20122 58005
14840KMKG MKG20060331130012003/31/06 13:00:31  5-MIN KMKG 311800Z 21016G26KT 10SM BKN050 16/08 A2965 890 59 1200 210/16G26 RMK AO2 PK WND 21026/1758
14840KMKG MKG20060331130512003/31/06 13:05:31  5-MIN KMKG 311805Z 21016G26KT 10SM OVC050 15/08 A2965 890 62 1100 210/16G26 RMK AO2 PK WND 21026/1758
14840KMKG MKG20060331131011403/31/06 13:10:31  5-MIN KMKG 311810Z 21017KT 10SM OVC048 15/08 A2964 890 62 1100 210/17 RMK AO2 PK WND 21026/1758
14840KMKG MKG20060331131511403/31/06 13:15:31  5-MIN KMKG 311815Z 20018KT 10SM OVC048 15/08 A2964 890 62 1100 210/18 RMK AO2 PK WND 21026/1758
14840KMKG MKG20060331132012703/31/06 13:20:31  5-MIN KMKG 311820Z 21019G23KT 10SM BKN050 OVC065 14/07 A2964 890 61 1100 210/19G23 RMK AO2 PK WND 21026/1758
14840KMKG MKG20060331132513403/31/06 13:25:31  5-MIN KMKG 311825Z 21017G24KT 10SM BKN048 BKN060 OVC075 14/07 A2964 890 61 1100 210/17G24 RMK AO2 PK WND 21026/1758
14840KMKG MKG20060331133013403/31/06 13:30:31  5-MIN KMKG 311830Z 21017G24KT 10SM BKN048 BKN060 OVC075 14/07 A2964 900 61 1100 220/17G24 RMK AO2 PK WND 21026/1758
14840KMKG MKG20060331133512103/31/06 13:35:31  5-MIN KMKG 311835Z 21016KT 10SM SCT048 OVC060 14/08 A2963 900 64 1100 220/16 RMK AO2 PK WND 21026/1758
14840KMKG MKG20060331134012703/31/06 13:40:31  5-MIN KMKG 311840Z 21013G21KT 10SM BKN048 OVC060 14/08 A2963 900 64 1100 210/13G21 RMK AO2 PK WND 21026/1758
14840KMKG MKG20060331134513403/31/06 13:45:31  5-MIN KMKG 311845Z 20016G20KT 10SM BKN046 BKN060 OVC075 14/08 A2963 900 66 1000 210/16G20 RMK AO2 PK WND 21026/1758
14840KMKG MKG20060331135015103/31/06 13:50:31  5-MIN KMKG 311850Z 20015G20KT 10SM SCT046 BKN055 OVC070 14/08 A2962 910 66 1000 200/15G20 RMK AO2 PK WND 21026/1758 SLP030 T01390078
14840KMKG MKG20060331135514503/31/06 13:55:31  5-MIN KMKG 311855Z 20013KT 10SM SCT046 BKN060 OVC075 14/08 A2962 910 66 1000 200/13 RMK AO2 PK WND 21026/1758 SLP030 T01390078
14840KMKG MKG20060331140012503/31/06 14:00:31  5-MIN KMKG 311900Z 20014KT 10SM FEW046 SCT055 OVC075 14/08 A2961 920 64 1100 210/14 RMK AO2 CIG 060 RWY 14
14840KMKG MKG20060331140510303/31/06 14:05:31  5-MIN KMKG 311905Z 21014KT 10SM FEW046 OVC080 15/08 A2961 920 62 1200 210/14 RMK AO2
14840KMKG MKG20060331141010303/31/06 14:10:31  5-MIN KMKG 311910Z 20015KT 10SM FEW044 OVC080 15/08 A2961 920 62 1200 210/15 RMK AO2
14840KMKG MKG20060331141510303/31/06 14:15:31  5-MIN KMKG 311915Z 20013KT 10SM FEW065 OVC080 15/08 A2960 930 62 1200 210/13 RMK AO2
14840KMKG MKG20060331142012403/31/06 14:20:31  5-MIN KMKG 311920Z 19012G19KT 10SM SCT065 OVC080 15/08 A2960 930 62 1200 200/12G19 RMK AO2 CIG 065 RWY 14
14840KMKG MKG20060331142510303/31/06 14:25:31  5-MIN KMKG 311925Z 20013KT 10SM BKN060 OVC080 15/08 A2960 930 62 1200 200/13 RMK AO2
14840KMKG MKG20060331143010303/31/06 14:30:31  5-MIN KMKG 311930Z 20014KT 10SM BKN065 OVC080 15/08 A2959 930 62 1200 200/14 RMK AO2
14840KMKG MKG20060331143510303/31/06 14:35:31  5-MIN KMKG 311935Z 21014KT 10SM BKN065 OVC080 15/08 A2959 940 62 1200 210/14 RMK AO2
14840KMKG MKG20060331144010303/31/06 14:40:31  5-MIN KMKG 311940Z 21014KT 10SM BKN060 OVC080 15/08 A2959 940 62 1200 210/14 RMK AO2
14840KMKG MKG20060331144510903/31/06 14:45:31  5-MIN KMKG 311945Z 21015G20KT 10SM BKN060 OVC090 15/08 A2959 940 62 1200 210/15G20 RMK AO2
14840KMKG MKG20060331145013303/31/06 14:50:31  5-MIN KMKG 311950Z 21019G23KT 10SM BKN060 BKN080 OVC090 16/07 A2958 940 57 1300 210/19G23 RMK AO2 SLP017 T01560072
14840KMKG MKG20060331145513303/31/06 14:55:31  5-MIN KMKG 311955Z 21018G24KT 10SM SCT060 BKN080 OVC090 16/07 A2958 940 57 1300 210/18G24 RMK AO2 SLP017 T01560072
14840KMKG MKG20060331150011603/31/06 15:00:31  5-MIN KMKG 312000Z 21018G24KT 10SM FEW060 BKN080 BKN090 16/07 A2958 940 57 1300 220/18G24 RMK AO2
14840KMKG MKG20060331150513403/31/06 15:05:31  5-MIN KMKG 312005Z 21022G27KT 10SM FEW060 BKN075 BKN090 16/07 A2958 940 57 1300 220/22G27 RMK AO2 PK WND 21027/2005
14840KMKG MKG20060331151013403/31/06 15:10:31  5-MIN KMKG 312010Z 21020G27KT 10SM FEW065 SCT080 BKN090 15/07 A2958 940 57 1200 220/20G27 RMK AO2 PK WND 21027/2005
14840KMKG MKG20060331151512703/31/06 15:15:31  5-MIN KMKG 312015Z 22020G25KT 10SM BKN070 BKN090 15/07 A2958 940 57 1200 220/20G25 RMK AO2 PK WND 21027/2005
14840KMKG MKG20060331152012703/31/06 15:20:31  5-MIN KMKG 312020Z 22018G25KT 10SM BKN070 BKN085 14/06 A2959 940 57 1100 230/18G25 RMK AO2 PK WND 21027/2005
14840KMKG MKG20060331152513403/31/06 15:25:31  5-MIN KMKG 312025Z 22017G24KT 10SM SCT065 BKN080 BKN090 14/06 A2959 940 59 1100 230/17G24 RMK AO2 PK WND 21027/2005
14840KMKG MKG20060331153012103/31/06 15:30:31  5-MIN KMKG 312030Z 22018KT 10SM BKN075 BKN090 13/06 A2959 940 61 1000 230/18 RMK AO2 PK WND 21027/2005
14840KMKG MKG20060331153511403/31/06 15:35:31  5-MIN KMKG 312035Z 23017KT 10SM BKN075 13/06 A2959 940 61 1000 230/17 RMK AO2 PK WND 21027/2005
14840KMKG MKG20060331154011903/31/06 15:40:31  5-MIN KMKG 312040Z 22014G22KT 10SM OVC075 13/06 A2959 940 63 900 220/14G22 RMK AO2 PK WND 21027/2005
14840KMKG MKG20060331154512603/31/06 15:45:31  5-MIN KMKG 312045Z 22014G21KT 10SM FEW065 OVC080 12/06 A2959 940 63 900 220/14G21 RMK AO2 PK WND 21027/2005
14840KMKG MKG20060331155014203/31/06 15:50:31  5-MIN KMKG 312050Z 22013KT 10SM OVC075 12/06 A2959 940 63 900 220/13 RMK AO2 PK WND 21027/2005 SLP020 60001 T01220056 58005
14840KMKG MKG20060331155513603/31/06 15:55:31  5-MIN KMKG 312055Z 22013KT 10SM OVC075 12/06 A2959 940 63 900 230/13 RMK AO2 PK WND 21027/2005 SLP019 T01220056 55021
14840KMKG MKG20060331160009503/31/06 16:00:31  5-MIN KMKG 312100Z 22011KT 10SM OVC075 13/06 A2959 940 61 900 230/11 RMK AO2
14840KMKG MKG20060331160509503/31/06 16:05:31  5-MIN KMKG 312105Z 23011KT 10SM OVC075 12/06 A2959 940 63 900 230/11 RMK AO2
14840KMKG MKG20060331161009503/31/06 16:10:31  5-MIN KMKG 312110Z 23013KT 10SM OVC075 13/06 A2959 940 63 900 230/13 RMK AO2
14840KMKG MKG20060331161509503/31/06 16:15:31  5-MIN KMKG 312115Z 23011KT 10SM OVC075 13/06 A2959 940 61 900 230/11 RMK AO2
14840KMKG MKG20060331162009603/31/06 16:20:31  5-MIN KMKG 312120Z 24013KT 10SM OVC075 13/06 A2959 940 61 1000 240/13 RMK AO2
14840KMKG MKG20060331162510103/31/06 16:25:31  5-MIN KMKG 312125Z 24013G18KT 10SM OVC075 13/06 A2958 950 61 900 240/13G18 RMK AO2
14840KMKG MKG20060331163009503/31/06 16:30:31  5-MIN KMKG 312130Z 24014KT 10SM OVC070 13/06 A2958 940 61 900 240/14 RMK AO2
14840KMKG MKG20060331163509503/31/06 16:35:31  5-MIN KMKG 312135Z 24013KT 10SM OVC070 12/06 A2958 940 63 900 240/13 RMK AO2
14840KMKG MKG20060331164009503/31/06 16:40:31  5-MIN KMKG 312140Z 24012KT 10SM OVC070 12/05 A2958 950 61 900 240/12 RMK AO2
14840KMKG MKG20060331164509503/31/06 16:45:31  5-MIN KMKG 312145Z 24013KT 10SM OVC070 12/05 A2958 950 63 800 240/13 RMK AO2
14840KMKG MKG20060331165011203/31/06 16:50:31  5-MIN KMKG 312150Z 24014KT 10SM OVC070 12/05 A2958 950 61 900 240/14 RMK AO2 SLP015 T01220050
14840KMKG MKG20060331165511803/31/06 16:55:31  5-MIN KMKG 312155Z 24014G20KT 10SM OVC075 12/05 A2957 950 61 900 250/14G20 RMK AO2 SLP014 T01220050
14840KMKG MKG20060331170010803/31/06 17:00:31  5-MIN KMKG 312200Z 24015G20KT 10SM BKN070 OVC080 12/05 A2958 950 61 900 240/15G20 RMK AO2
14840KMKG MKG20060331170510803/31/06 17:05:31  5-MIN KMKG 312205Z 24017G22KT 10SM BKN070 OVC080 12/05 A2958 950 63 800 250/17G22 RMK AO2
14840KMKG MKG20060331171010103/31/06 17:10:31  5-MIN KMKG 312210Z 24015G22KT 10SM OVC075 12/05 A2959 940 63 800 240/15G22 RMK AO2
14840KMKG MKG20060331171510103/31/06 17:15:31  5-MIN KMKG 312215Z 24016G22KT 10SM OVC075 11/05 A2959 940 66 700 240/16G22 RMK AO2
14840KMKG MKG20060331172010803/31/06 17:20:31  5-MIN KMKG 312220Z 25016G21KT 10SM BKN070 OVC085 11/05 A2959 940 68 700 250/16G21 RMK AO2
14840KMKG MKG20060331172509503/31/06 17:25:31  5-MIN KMKG 312225Z 25014KT 10SM OVC070 10/04 A2960 930 68 600 260/14 RMK AO2
14840KMKG MKG20060331173011703/31/06 17:30:31  5-MIN KMKG 312230Z 26014G19KT 10SM -RA OVC070 09/04 A2960 930 71 500 260/14G19 RMK AO2 RAB29 P0000
14840KMKG MKG20060331173512403/31/06 17:35:31  5-MIN KMKG 312235Z 27014G19KT 10SM -RA FEW055 OVC070 09/05 A2960 930 74 500 270/14G19 RMK AO2 RAB29 P0000
14840KMKG MKG20060331174011803/31/06 17:40:31  5-MIN KMKG 312240Z 27016KT 10SM -RA FEW055 OVC070 09/06 A2961 920 79 400 270/16 RMK AO2 RAB29 P0000
14840KMKG MKG20060331174512403/31/06 17:45:31  5-MIN KMKG 312245Z 27015G22KT 10SM -RA FEW044 OVC065 08/06 A2961 920 82 400 280/15G22 RMK AO2 RAB29 P0000
14840KMKG MKG20060331175014703/31/06 17:50:31  5-MIN KMKG 312250Z 28017G22KT 9SM -RA FEW044 OVC065 08/06 A2962 910 86 400 280/17G22 RMK AO2 RAB29 PRESRR SLP030 P0000 T00830061
14840KMKG MKG20060331175514703/31/06 17:55:31  5-MIN KMKG 312255Z 28015G23KT 9SM -RA FEW044 OVC065 08/06 A2963 900 89 300 280/15G23 RMK AO2 RAB29 PRESRR SLP033 P0000 T00780061
14840KMKG MKG20060331180011003/31/06 18:00:31  5-MIN KMKG 312300Z 28017G23KT 9SM -RA OVC065 08/06 A2963 900 86 300 290/17G23 RMK AO2 P0001
14840KMKG MKG20060331180512403/31/06 18:05:31  5-MIN KMKG 312305Z 28018G24KT 7SM -RA FEW017 SCT041 OVC060 08/06 A2963 900 86 300 280/18G24 RMK AO2 P0001
14840KMKG MKG20060331181014503/31/06 18:10:31  5-MIN KMKG 312310Z 28020G26KT 6SM -RA BR FEW017 BKN047 OVC060 07/06 A2963 900 89 200 280/20G26 RMK AO2 PK WND 28026/2309 P0002
14840KMKG MKG20060331181514403/31/06 18:15:31  5-MIN KMKG 312315Z 27017G26KT 5SM RA BR FEW017 BKN035 OVC060 07/06 A2964 890 89 200 280/17G26 RMK AO2 PK WND 28026/2309 P0003
14840KMKG MKG20060331182014403/31/06 18:20:31  5-MIN KMKG 312320Z 26015G23KT 5SM RA BR FEW019 BKN025 OVC060 07/06 A2964 890 89 200 270/15G23 RMK AO2 PK WND 28026/2309 P0004
14840KMKG MKG20060331182514503/31/06 18:25:31  5-MIN KMKG 312325Z 27014G23KT 6SM -RA BR FEW019 BKN025 OVC060 07/06 A2965 880 93 100 270/14G23 RMK AO2 PK WND 28026/2309 P0004
14840KMKG MKG20060331183014403/31/06 18:30:31  5-MIN KMKG 312330Z 26015G21KT 6SM RA BR SCT019 BKN025 OVC034 07/05 A2965 880 89 100 270/15G21 RMK AO2 PK WND 28026/2309 P0005
14840KMKG MKG20060331183513703/31/06 18:35:31  5-MIN KMKG 312335Z 26015G22KT 6SM RA BR SCT019 OVC027 07/05 A2965 880 89 100 260/15G22 RMK AO2 PK WND 28026/2309 P0006
14840KMKG MKG20060331184013703/31/06 18:40:31  5-MIN KMKG 312340Z 26014G22KT 6SM RA BR FEW019 OVC027 07/05 A2965 880 89 100 260/14G22 RMK AO2 PK WND 28026/2309 P0007
14840KMKG MKG20060331184514403/31/06 18:45:31  5-MIN KMKG 312345Z 26014G21KT 6SM RA BR FEW019 BKN025 OVC035 07/05 A2966 880 89 100 260/14G21 RMK AO2 PK WND 28026/2309 P0007
14840KMKG MKG20060331185018303/31/06 18:50:31  5-MIN KMKG 312350Z 26016G21KT 8SM -RA SCT019 BKN028 OVC035 07/05 A2966 880 89 100 260/16G21 RMK AO2 PK WND 28026/2309 SLP045 P0008 60009 T00670050 10156 20067 55021
14840KMKG MKG20060331185518303/31/06 18:55:31  5-MIN KMKG 312355Z 25013G21KT 9SM -RA SCT019 BKN028 OVC037 06/05 A2966 880 93 100 260/13G21 RMK AO2 PK WND 28026/2309 SLP045 P0008 60009 T00610050 10156 20061 53023
14840KMKG MKG20060331190011803/31/06 19:00:31  5-MIN KMKG 010000Z 26016KT 9SM -RA FEW019 BKN028 OVC041 06/05 A2966 880 93 100 260/16 RMK AO2 P0001
14840KMKG MKG20060331190512503/31/06 19:05:31  5-MIN KMKG 010005Z 26014G21KT 10SM -RA FEW019 BKN030 OVC043 07/04 A2966 880 86 100 260/14G21 RMK AO2 P0001
14840KMKG MKG20060331191012503/31/06 19:10:31  5-MIN KMKG 010010Z 25013G21KT 10SM -RA FEW019 BKN028 OVC039 07/04 A2965 880 86 100 260/13G21 RMK AO2 P0001
14840KMKG MKG20060331191512103/31/06 19:15:31  5-MIN KMKG 010015Z 25012KT 10SM FEW021 BKN026 OVC041 07/04 A2965 880 86 100 250/12 RMK AO2 RAE12 P0001
14840KMKG MKG20060331192011403/31/06 19:20:31  5-MIN KMKG 010020Z 25014KT 10SM BKN024 OVC041 06/04 A2965 880 89 100 250/14 RMK AO2 RAE12 P0001
14840KMKG MKG20060331192511403/31/06 19:25:31  5-MIN KMKG 010025Z 25013KT 10SM BKN024 OVC043 06/04 A2966 880 89 100 250/13 RMK AO2 RAE12 P0001
14840KMKG MKG20060331193011403/31/06 19:30:31  5-MIN KMKG 010030Z 25014KT 10SM BKN024 OVC028 06/04 A2965 880 89 100 260/14 RMK AO2 RAE12 P0001
14840KMKG MKG20060331193511403/31/06 19:35:31  5-MIN KMKG 010035Z 25013KT 10SM BKN024 OVC029 06/04 A2966 880 89 100 250/13 RMK AO2 RAE12 P0001
14840KMKG MKG20060331194012003/31/06 19:40:31  5-MIN KMKG 010040Z 25014G19KT 10SM BKN024 OVC028 06/04 A2966 880 89 100 250/14G19 RMK AO2 RAE12 P0001
14840KMKG MKG20060331194512003/31/06 19:45:31  5-MIN KMKG 010045Z 24015G20KT 10SM BKN024 OVC028 06/04 A2965 880 89 100 250/15G20 RMK AO2 RAE12 P0001
14840KMKG MKG20060331195014403/31/06 19:50:31  5-MIN KMKG 010050Z 24013G20KT 10SM BKN024 BKN032 OVC049 06/04 A2966 880 89 100 250/13G20 RMK AO2 RAE12 SLP043 P0001 T00610044
14840KMKG MKG20060331195514403/31/06 19:55:31  5-MIN KMKG 010055Z 25017G21KT 10SM BKN027 BKN032 OVC049 06/04 A2965 880 86 100 250/17G21 RMK AO2 RAE12 SLP044 P0001 T00610039
14840KMKG MKG20060331200011503/31/06 20:00:31  5-MIN KMKG 010100Z 25016G21KT 10SM SCT025 BKN030 OVC049 07/04 A2965 880 82 100 250/16G21 RMK AO2
14840KMKG MKG20060331200511503/31/06 20:05:31  5-MIN KMKG 010105Z 25019G23KT 10SM BKN028 BKN032 OVC049 07/04 A2966 880 82 100 250/19G23 RMK AO2
14840KMKG MKG20060331201010803/31/06 20:10:31  5-MIN KMKG 010110Z 25015G23KT 10SM BKN030 OVC049 07/04 A2966 880 82 100 250/15G23 RMK AO2
14840KMKG MKG20060331201510803/31/06 20:15:31  5-MIN KMKG 010115Z 25016G22KT 10SM BKN028 OVC033 07/04 A2965 880 82 100 250/16G22 RMK AO2
14840KMKG MKG20060331202010803/31/06 20:20:31  5-MIN KMKG 010120Z 24017G23KT 10SM BKN028 OVC033 06/04 A2965 880 86 100 240/17G23 RMK AO2
14840KMKG MKG20060331202511703/31/06 20:25:31  5-MIN KMKG 010125Z 24015G23KT 10SM -RA OVC028 06/04 A2966 880 86 100 240/15G23 RMK AO2 RAB21 P0000
14840KMKG MKG20060331203012503/31/06 20:30:31  5-MIN KMKG 010130Z 24014KT 10SM -RA BKN028 BKN034 OVC050 06/04 A2966 870 86 100 240/14 RMK AO2 RAB21 P0000
14840KMKG MKG20060331203511803/31/06 20:35:31  5-MIN KMKG 010135Z 24015KT 10SM -RA BKN028 OVC050 06/04 A2966 870 86 100 240/15 RMK AO2 RAB21 P0000
14840KMKG MKG20060331204011603/31/06 20:40:31  5-MIN KMKG 010140Z 24015KT 10SM -RA BKN026 OVC050 06/04 A2966 870 89 0 240/15 RMK AO2 RAB21 P0000
14840KMKG MKG20060331204512203/31/06 20:45:31  5-MIN KMKG 010145Z 24018G22KT 10SM -RA BKN026 OVC050 06/04 A2966 870 89 0 240/18G22 RMK AO2 RAB21 P0000
14840KMKG MKG20060331205013203/31/06 20:50:31  5-MIN KMKG 010150Z 24015G22KT 10SM -RA OVC024 06/04 A2966 870 86 0 240/15G22 RMK AO2 RAB21 SLP046 P0000 T00610039
14840KMKG MKG20060331205513203/31/06 20:55:31  5-MIN KMKG 010155Z 24015G20KT 10SM -RA OVC024 06/04 A2966 870 86 0 250/15G20 RMK AO2 RAB21 SLP047 P0000 T00610039
14840KMKG MKG20060331211012703/31/06 21:10:31  5-MIN KMKG 010210Z 24019G27KT 10SM -RA OVC020 06/04 A2967 860 86 0 250/19G27 RMK AO2 PK WND 24027/0209 P0000
14840KMKG MKG20060331211512703/31/06 21:15:31  5-MIN KMKG 010215Z 24019G27KT 10SM -RA OVC020 06/04 A2967 860 86 0 250/19G27 RMK AO2 PK WND 24027/0209 P0000
14840KMKG MKG20060331212012703/31/06 21:20:31  5-MIN KMKG 010220Z 24018G25KT 10SM -RA OVC020 06/04 A2967 860 86 0 240/18G25 RMK AO2 PK WND 24027/0209 P0000
14840KMKG MKG20060331212512703/31/06 21:25:31  5-MIN KMKG 010225Z 24016G25KT 10SM -RA OVC020 06/04 A2968 860 86 0 250/16G25 RMK AO2 PK WND 24027/0209 P0000
14840KMKG MKG20060331213012703/31/06 21:30:31  5-MIN KMKG 010230Z 25019G24KT 10SM -RA OVC020 06/04 A2967 860 86 0 250/19G24 RMK AO2 PK WND 24027/0209 P0000
14840KMKG MKG20060331213512703/31/06 21:35:31  5-MIN KMKG 010235Z 24017G24KT 10SM -RA OVC020 06/04 A2968 860 86 0 250/17G24 RMK AO2 PK WND 24027/0209 P0000
14840KMKG MKG20060331214012903/31/06 21:40:31  5-MIN KMKG 010240Z 24017G23KT 10SM OVC020 06/04 A2968 860 86 0 250/17G23 RMK AO2 PK WND 24027/0209 RAE39 P0000
14840KMKG MKG20060331214512903/31/06 21:45:31  5-MIN KMKG 010245Z 24017G23KT 10SM OVC020 06/04 A2968 850 86 0 250/17G23 RMK AO2 PK WND 24027/0209 RAE39 P0000
14840KMKG MKG20060331215015803/31/06 21:50:31  5-MIN KMKG 010250Z 24016G23KT 10SM OVC020 06/04 A2968 850 86 0 240/16G23 RMK AO2 PK WND 24027/0209 RAE39 SLP052 P0000 60001 T00610039 53023
14840KMKG MKG20060331215515803/31/06 21:55:31  5-MIN KMKG 010255Z 24019G23KT 10SM OVC020 06/04 A2968 850 89 0 250/19G23 RMK AO2 PK WND 24027/0209 RAE39 SLP052 P0000 60001 T00560039 53007
14840KMKG MKG20060331220009903/31/06 22:00:31  5-MIN KMKG 010300Z 24016G24KT 10SM OVC020 06/04 A2968 850 89 0 250/16G24 RMK AO2
14840KMKG MKG20060331220509903/31/06 22:05:31  5-MIN KMKG 010305Z 24014G25KT 10SM OVC018 06/04 A2968 850 89 0 250/14G25 RMK AO2
14840KMKG MKG20060331221009903/31/06 22:10:31  5-MIN KMKG 010310Z 25015G25KT 10SM OVC018 06/04 A2968 850 86 0 250/15G25 RMK AO2
14840KMKG MKG20060331221509303/31/06 22:15:31  5-MIN KMKG 010315Z 25016KT 10SM OVC018 06/04 A2968 850 86 0 250/16 RMK AO2
14840KMKG MKG20060331222009903/31/06 22:20:31  5-MIN KMKG 010320Z 24018G22KT 10SM OVC018 06/04 A2968 850 86 0 250/18G22 RMK AO2
14840KMKG MKG20060331222509903/31/06 22:25:31  5-MIN KMKG 010325Z 25018G22KT 10SM OVC018 06/04 A2968 850 86 0 250/18G22 RMK AO2
14840KMKG MKG20060331223009903/31/06 22:30:31  5-MIN KMKG 010330Z 24014G22KT 10SM OVC016 06/04 A2968 850 86 0 250/14G22 RMK AO2
14840KMKG MKG20060331223509903/31/06 22:35:31  5-MIN KMKG 010335Z 25017G24KT 10SM OVC016 06/04 A2968 850 86 0 250/17G24 RMK AO2
14840KMKG MKG20060331224009903/31/06 22:40:31  5-MIN KMKG 010340Z 25018G24KT 10SM OVC016 06/04 A2968 850 86 0 250/18G24 RMK AO2
14840KMKG MKG20060331224509903/31/06 22:45:31  5-MIN KMKG 010345Z 25017G22KT 10SM OVC016 06/04 A2969 850 86 0 250/17G22 RMK AO2
14840KMKG MKG20060331225011603/31/06 22:50:31  5-MIN KMKG 010350Z 25015G24KT 10SM OVC016 06/04 A2969 850 86 0 250/15G24 RMK AO2 SLP055 T00610039
14840KMKG MKG20060331225511603/31/06 22:55:31  5-MIN KMKG 010355Z 25016G24KT 10SM OVC016 06/04 A2969 850 86 0 250/16G24 RMK AO2 SLP055 T00610039
14840KMKG MKG20060331230009903/31/06 23:00:31  5-MIN KMKG 010400Z 24017G22KT 10SM OVC016 06/04 A2969 840 86 0 250/17G22 RMK AO2
14840KMKG MKG20060331230509903/31/06 23:05:31  5-MIN KMKG 010405Z 24016G24KT 10SM OVC016 06/04 A2969 840 86 0 240/16G24 RMK AO2
14840KMKG MKG20060331231009903/31/06 23:10:31  5-MIN KMKG 010410Z 25017G24KT 10SM OVC016 06/04 A2969 840 89 0 250/17G24 RMK AO2
14840KMKG MKG20060331231509903/31/06 23:15:31  5-MIN KMKG 010415Z 25013G22KT 10SM OVC016 06/04 A2969 840 89 0 250/13G22 RMK AO2
14840KMKG MKG20060331232009903/31/06 23:20:31  5-MIN KMKG 010420Z 25016G21KT 10SM OVC016 06/04 A2969 840 89 0 250/16G21 RMK AO2
14840KMKG MKG20060331232509903/31/06 23:25:31  5-MIN KMKG 010425Z 25015G21KT 10SM OVC016 06/04 A2970 840 89 0 250/15G21 RMK AO2
14840KMKG MKG20060331233009903/31/06 23:30:31  5-MIN KMKG 010430Z 25015G19KT 10SM OVC016 06/04 A2970 840 89 0 250/15G19 RMK AO2
14840KMKG MKG20060331233509903/31/06 23:35:31  5-MIN KMKG 010435Z 25015G20KT 10SM OVC016 06/04 A2970 840 89 0 250/15G20 RMK AO2
14840KMKG MKG20060331234009903/31/06 23:40:31  5-MIN KMKG 010440Z 24017G22KT 10SM OVC016 06/04 A2970 830 89 0 250/17G22 RMK AO2
14840KMKG MKG20060331234509903/31/06 23:45:31  5-MIN KMKG 010445Z 24015G22KT 10SM OVC016 06/04 A2970 830 89 0 250/15G22 RMK AO2
14840KMKG MKG20060331235012603/31/06 23:50:31  5-MIN KMKG 010450Z 25015G22KT 10SM OVC016 06/04 A2970 830 89 0 250/15G22 RMK AO2 SLP060 T00560039 401890056
14840KMKG MKG20060331235512603/31/06 23:55:31  5-MIN KMKG 010455Z 25017G21KT 10SM OVC014 06/04 A2970 830 89 0 250/17G21 RMK AO2 SLP060 T00560039 401890056
