14840KMKG MKG20000401010009404/01/00 01:00:31  5-MIN KMKG 010600Z 18007KT 10SM CLR 09/M07 A3009 470 32 -100 190/07 RMK AO2
14840KMKG MKG20000401010512804/01/00 01:05:31  5-MIN KMKG 010605Z 19009KT 10SM CLR 10/M07 A3009 470 30 013KT 10SM CLR 11/M07 A3008 480 28 200 200/13 RMK AO2
14840KMKG MKG20000401021509304/01/00 02:15:31  5-MIN KMKG 010715Z 20011KT 10SM CLR 11/M07 A3008 480 29 100 200/11 RMK AO2
14840KMKG MKG20000401022013604/01/00 02:20:31  5-MIN KMKG 010720Z 20012KT 10SM CLR 11/M07 A3008 480 27 200 200/O2014KT 10SM CLR 10/M04 A3009 470 36 0 210/14 RMK AO2
14840KMKG MKG20000401033009104/01/00 03:30:31  5-MIN KMKG 010830Z 20014KT 10SM CLR 10/M04 A3009 470 37 0 200/14 RMK AO2
14840KMKG MKG20000401000009404/01/00 00:00:31  5-MIN KMKG 010500Z 15004KT 10SM CLR 04/M06 A3010 470 50 -700 150/04 RMK AO2
14840KMKG MKG20000401000509404/01/00 00:05:31  5-MIN KMKG 010505Z 15003KT 10SM CLR 04/M06 A3010 460 50 -700 160/03 RMK AO2
14840KMKG MKG20000401001009404/01/00 00:10:31  5-MIN KMKG 010510Z 17003KT 10SM CLR 04/M06 A3010 470 48 -600 170/03 RMK AO2
14840KMKG MKG20000401001509404/01/00 00:15:31  5-MIN KMKG 010515Z 16003KT 10SM CLR 04/M06 A3010 470 46 -600 170/03 RMK AO2
14840KMKG MKG20000401002009404/01/00 00:20:31  5-MIN KMKG 010520Z 16003KT 10SM CLR 04/M06 A3010 470 48 -600 160/03 RMK AO2
14840KMKG MKG20000401002509404/01/00 00:25:31  5-MIN KMKG 010525Z 16003KT 10SM CLR 04/M05 A3010 470 52 -700 170/03 RMK AO2
14840KMKG MKG20000401003009404/01/00 00:30:31  5-MIN KMKG 010530Z 16003KT 10SM CLR 04/M05 A3009 470 50 -600 160/03 RMK AO2
14840KMKG MKG20000401003509404/01/00 00:35:31  5-MIN KMKG 010535Z 15004KT 10SM CLR 04/M06 A3009 470 48 -600 160/04 RMK AO2
14840KMKG MKG20000401004009404/01/00 00:40:31  5-MIN KMKG 010540Z 16005KT 10SM CLR 05/M06 A3009 470 46 -500 160/05 RMK AO2
14840KMKG MKG20000401004509404/01/00 00:45:31  5-MIN KMKG 010545Z 18005KT 10SM CLR 05/M06 A3009 470 46 -500 180/05 RMK AO2
14840KMKG MKG20000401005012904/01/00 00:50:31  5-MIN KMKG 010550Z 18006KT 10SM CLR 06/M06 A3009 470 44 -500 180/06 RMK AO2 SLP193 T00561056 10089 20039 58011
14840KMKG MKG20000401005512904/01/00 00:55:31  5-MIN KMKG 010555Z 18006KT 10SM CLR 08/M06 A3009 470 35 -100 180/06 RMK AO2 SLP192 T00831061 10089 20039 56013
14840KMKG MKG20000401010009404/01/00 01:00:31  5-MIN KMKG 010600Z 18007KT 10SM CLR 09/M07 A3009 470 32 -100 190/07 RMK AO2
14840KMKG MKG20000401010509104/01/00 01:05:31  5-MIN KMKG 010605Z 19009KT 10SM CLR 10/M07 A3009 470 30 0 190/09 RMK AO2
14840KMKG MKG20000401011009304/01/00 01:10:31  5-MIN KMKG 010610Z 19010KT 10SM CLR 11/M07 A3009 470 28 100 190/10 RMK AO2
14840KMKG MKG20000401011509304/01/00 01:15:31  5-MIN KMKG 010615Z 19010KT 10SM CLR 11/M07 A3009 470 28 100 200/10 RMK AO2
14840KMKG MKG20000401012009304/01/00 01:20:31  5-MIN KMKG 010620Z 19011KT 10SM CLR 11/M07 A3009 470 27 200 200/11 RMK AO2
14840KMKG MKG20000401012509304/01/00 01:25:31  5-MIN KMKG 010625Z 19011KT 10SM CLR 11/M07 A3009 480 27 200 200/11 RMK AO2
14840KMKG MKG20000401013009304/01/00 01:30:31  5-MIN KMKG 010630Z 19013KT 10SM CLR 11/M07 A3009 480 27 200 200/13 RMK AO2
14840KMKG MKG20000401013509304/01/00 01:35:31  5-MIN KMKG 010635Z 20010KT 10SM CLR 11/M07 A3009 480 27 200 200/10 RMK AO2
14840KMKG MKG20000401014009304/01/00 01:40:31  5-MIN KMKG 010640Z 19012KT 10SM CLR 11/M07 A3009 480 28 200 200/12 RMK AO2
14840KMKG MKG20000401014509904/01/00 01:45:31  5-MIN KMKG 010645Z 20012G18KT 10SM CLR 11/M07 A3009 480 28 200 200/12G18 RMK AO2
14840KMKG MKG20000401015011604/01/00 01:50:31  5-MIN KMKG 010650Z 20010G18KT 10SM CLR 11/M07 A3008 480 28 200 200/10G18 RMK AO2 SLP189 T01111067
14840KMKG MKG20000401015511004/01/00 01:55:31  5-MIN KMKG 010655Z 20011KT 10SM CLR 11/M07 A3008 480 28 200 200/11 RMK AO2 SLP190 T01111067
14840KMKG MKG20000401020009304/01/00 02:00:31  5-MIN KMKG 010700Z 20012KT 10SM CLR 11/M07 A3008 480 29 100 200/12 RMK AO2
14840KMKG MKG20000401020509304/01/00 02:05:31  5-MIN KMKG 010705Z 20012KT 10SM CLR 11/M07 A3008 480 27 200 200/12 RMK AO2
14840KMKG MKG20000401021009304/01/00 02:10:31  5-MIN KMKG 010710Z 20013KT 10SM CLR 11/M07 A3008 480 28 200 200/13 RMK AO2
14840KMKG MKG20000401021509304/01/00 02:15:31  5-MIN KMKG 010715Z 20011KT 10SM CLR 11/M07 A3008 480 29 100 200/11 RMK AO2
14840KMKG MKG20000401022009304/01/00 02:20:31  5-MIN KMKG 010720Z 20012KT 10SM CLR 11/M07 A3008 480 27 200 200/12 RMK AO2
14840KMKG MKG20000401022509904/01/00 02:25:31  5-MIN KMKG 010725Z 20013G19KT 10SM CLR 11/M07 A3008 480 29 100 200/13G19 RMK AO2
14840KMKG MKG20000401023009904/01/00 02:30:31  5-MIN KMKG 010730Z 19012G19KT 10SM CLR 11/M07 A3008 490 29 100 200/12G19 RMK AO2
14840KMKG MKG20000401023509304/01/00 02:35:31  5-MIN KMKG 010735Z 20013KT 10SM CLR 11/M07 A3008 480 29 100 200/13 RMK AO2
14840KMKG MKG20000401024009304/01/00 02:40:31  5-MIN KMKG 010740Z 20013KT 10SM CLR 11/M06 A3008 480 30 100 200/13 RMK AO2
14840KMKG MKG20000401024509304/01/00 02:45:31  5-MIN KMKG 010745Z 20013KT 10SM CLR 11/M06 A3008 480 30 100 200/13 RMK AO2
14840KMKG MKG20000401025011004/01/00 02:50:31  5-MIN KMKG 010750Z 20013KT 10SM CLR 11/M06 A3008 480 31 100 200/13 RMK AO2 SLP188 T01061056
14840KMKG MKG20000401025511004/01/00 02:55:31  5-MIN KMKG 010755Z 20014KT 10SM CLR 11/M06 A3008 480 31 100 200/14 RMK AO2 SLP189 T01061056
14840KMKG MKG20000401030009304/01/00 03:00:31  5-MIN KMKG 010800Z 20014KT 10SM CLR 11/M05 A3008 480 33 100 210/14 RMK AO2
14840KMKG MKG20000401030509904/01/00 03:05:31  5-MIN KMKG 010805Z 20014G20KT 10SM CLR 11/M05 A3009 480 33 100 210/14G20 RMK AO2
14840KMKG MKG20000401031009304/01/00 03:10:31  5-MIN KMKG 010810Z 20014KT 10SM CLR 11/M04 A3009 480 34 100 200/14 RMK AO2
14840KMKG MKG20000401031509704/01/00 03:15:31  5-MIN KMKG 010815Z 20014G19KT 10SM CLR 10/M04 A3009 480 36 0 200/14G19 RMK AO2
14840KMKG MKG20000401032009104/01/00 03:20:31  5-MIN KMKG 010820Z 20013KT 10SM CLR 10/M04 A3009 470 36 0 200/13 RMK AO2
14840KMKG MKG20000401032509104/01/00 03:25:31  5-MIN KMKG 010825Z 20014KT 10SM CLR 10/M04 A3009 470 36 0 210/14 RMK AO2
14840KMKG MKG20000401033009104/01/00 03:30:31  5-MIN KMKG 010830Z 20014KT 10SM CLR 10/M04 A3009 470 37 0 200/14 RMK AO2
14840KMKG MKG20000401033509104/01/00 03:35:31  5-MIN KMKG 010835Z 20013KT 10SM CLR 09/M04 A3009 470 39 0 210/13 RMK AO2
14840KMKG MKG20000401034009104/01/00 03:40:31  5-MIN KMKG 010840Z 21013KT 10SM CLR 09/M04 A3009 470 39 0 210/13 RMK AO2
14840KMKG MKG20000401034510004/01/00 03:45:31  5-MIN KMKG 010845Z 21013G19KT 10SM CLR 09/M03 A3009 470 42 -100 210/13G19 RMK AO2
14840KMKG MKG20000401035011704/01/00 03:50:31  5-MIN KMKG 010850Z 20012KT 10SM CLR 09/M03 A3009 470 43 -100 210/12 RMK AO2 SLP193 T00891028 56013
14840KMKG MKG20000401035511704/01/00 03:55:31  5-MIN KMKG 010855Z 21012KT 10SM CLR 09/M03 A3009 470 43 -100 210/12 RMK AO2 SLP193 T00891028 53001
14840KMKG MKG20000401040009104/01/00 04:00:31  5-MIN KMKG 010900Z 21016KT 10SM CLR 09/M03 A3009 470 40 0 210/16 RMK AO2
14840KMKG MKG20000401040510004/01/00 04:05:31  5-MIN KMKG 010905Z 21013G22KT 10SM CLR 09/M03 A3009 470 43 -100 210/13G22 RMK AO2
14840KMKG MKG20000401041010004/01/00 04:10:31  5-MIN KMKG 010910Z 21014G22KT 10SM CLR 09/M03 A3009 470 43 -100 220/14G22 RMK AO2
14840KMKG MKG20000401041510004/01/00 04:15:31  5-MIN KMKG 010915Z 21013G20KT 10SM CLR 08/M03 A3010 470 45 -100 220/13G20 RMK AO2
14840KMKG MKG20000401042009404/01/00 04:20:31  5-MIN KMKG 010920Z 21013KT 10SM CLR 08/M02 A3010 460 47 -100 220/13 RMK AO2
14840KMKG MKG20000401042509404/01/00 04:25:31  5-MIN KMKG 010925Z 22013KT 10SM CLR 08/M02 A3010 460 51 -200 220/13 RMK AO2
14840KMKG MKG20000401043009404/01/00 04:30:31  5-MIN KMKG 010930Z 21014KT 10SM CLR 08/M01 A3010 460 53 -200 220/14 RMK AO2
14840KMKG MKG20000401043509404/01/00 04:35:31  5-MIN KMKG 010935Z 22011KT 10SM CLR 07/M01 A3010 460 55 -300 220/11 RMK AO2
14840KMKG MKG20000401044009404/01/00 04:40:31  5-MIN KMKG 010940Z 22011KT 10SM CLR 07/M01 A3010 460 57 -300 220/11 RMK AO2
14840KMKG MKG20000401044509404/01/00 04:45:31  5-MIN KMKG 010945Z 21010KT 10SM CLR 07/M01 A3010 460 60 -300 220/10 RMK AO2
14840KMKG MKG20000401045011104/01/00 04:50:31  5-MIN KMKG 010950Z 21010KT 10SM CLR 07/M01 A3010 460 60 -300 220/10 RMK AO2 SLP196 T00671006
14840KMKG MKG20000401045512604/01/00 04:55:31  5-MIN KMKG 010955Z 21010KT 10SM CLR 07/M01 A3010 470 60 -300 210/10 RMK AO2 SLP195 T0067-300 210/10 RMK AO2
14840KMKG MKG20000401055011004/01/00 05:50:31  5-MIN KMKG 011050Z 21011KT 10SM CLR 07/00 A3010 470 60 -300 210/11 RMK AO2 SLP194 T00720000
14840KMKG MKG20000401055512704/01/00 05:55:31  5-MIN KMKG 011055Z 21009KT 10SM CLR 07/00 A3010 470 60 -300 220/09 RMK AO2 SLP194 T00722 -300 220/03 RMK AO2
14840KMKG MKG20000401071009304/01/00 07:10:31  5-MIN KMKG 011210Z 20006KT 10SM CLR 07/01 A3011 460 65 -300 200/06 RMK AO2
14840KMKG MKG20000401071509304/01/00 07:15:31  5-MIN KMKG 011215Z 20007KT 10SM CLR 07/01 A3011 460 67 -300 210/07 RMK AO2
14840KMKG MKG20000401072009504/01/00 07:20:31  5-MIN7  KMKG 011320Z 23006KT 10SM CLR 08/02 A3010 470 65 -200 230/06 RMK AO2
14840KMKG MKG20000401082509304/01/00 08:25:31  5-MIN KMKG 011325Z 22007KT 10SM CLR 08/02 A3010 460 65 -200 230/07 RMK AO2
14840KMKG MKG20000401083008004/01/00 08:30:31  5-MIN KMKG 011330Z 22007KT 10SM CLR 08/02 A3011 450 604/01/00
14840KMKG MKG20000401094009604/01/00 09:40:31  5-MIN KMKG 011440Z 00000KT 10SM FEW120 09/02 A3011 460 63 -100 000/00 RMK AO2
14840KMKG MKG20000401094504104/01/00 09:45:31  5-MIN KMKG 011445Z 000
14840KMKG MKG20000401105011204/01/00 10:50:31  5-MIN KMKG 011550Z 34005KT 10SM FEW085 12/02 A3009 470 50 200 350/05 RMK AO2 SLP193 T01170017
14840KMKG MKG20000401111509204/01/00 11:15:31  5-MIN KMKG 011615Z 31005KT 10SM CLR 12/02 A3008 480 48 300 320/05 RMK AO2
14840KMKG MKG20000401112009504/01/00 11:20:31  5-MIN KMKG 011620Z VRB04KT 10SM FEW095 12/02 A3009 480 48 300 VRB/04 RMK AO2
14840KMKG MKG20000401122009204/01/00 12:20:31  5-MIN KMKG 011720Z 28009KT 10SM CLR 11/02 A3011 450 56 100 290/09 RMK AO2
14840KMKG MKG20000401122509004/01/00 12:25:31  5-MIN KMKG 011725Z 28008KT 10SM CLR 10/02 A3011 460 56 0 290/08 RMK AO2
14840KMKG MKG20000401123004904/01/00 12:30:31  5-MIN KMKG 011730Z 29010KT 106
14840KMKG MKG20000401133509504/01/00 13:35:31  5-MIN KMKG 011835Z 26005KT 10SM FEW110 11/03 A3008 480 56 200 270/05 RMK AO2
14840KMKG MKG20000401134009504/01/00 13:40:31  5-MIN KMKG 011840Z 24005KT 10SM FEW100 11/03 A3008 480 58 100 250/05 RMK AO2
14840KMKG MKG20000401134508604/01/00 13:45:31  5-MIN KMKG 011845Z 26005KT 1052 300 000/00 RMK AO2 SLP175 T01170022
14840KMKG MKG20000401145511204/01/00 14:55:31  5-MIN KMKG 011955Z 00000KT 10SM SCT095 12/02 A3004 520 50 400 000/00 RMK AO2 SLP174 T01220022
14840KMKG MKG20000401150009504/01/00 15:00:31  5-MIN KMKG 012000Z 26003KT 10SM SCT095 12/02 A3004 520 52 300 270/03 RMK AO2
14840KMKG MKG20000401150509504/01/00 15:05:31  5-MIN KMKG 012005Z VRB03KT 10SM SCT100 12/02 A3003 530 50 400 VRB/03 RMK AO2
14840KMKG MKG20000401151009504/01/00 15:10:31  5-MIN KMKG 012010Z 25003KT 10SM SCT100 12/02 A3003 530 52 300 250/03 RMK AO2
14840KMKG MKG20000401151509504/01/00 15:15:31  5-MIN KMKG 012015Z 00000KT 10SM FEW095 12/02 A3003 530 52 300 000/00 RMK AO2
14840KMKG MKG20000401152009504/01/00 15:20:31  5-MIN KMKG 012020Z 00000KT 10SM FEW095 12/02 A3003 530 52 300 000/00 RMK AO2
14840KMKG MKG20000401152509504/01/00 15:25:31  5-MIN KMKG 012025Z 26005KT 10SM SCT095 12/03 A3003 530 52 400 270/05 RMK AO2
14840KMKG MKG20000401153009504/01/00 15:30:31  5-MIN KMKG 012030Z VRB03KT 10SM SCT095 12/03 A3002 540 52 400 VRB/03 RMK AO2
14840KMKG MKG20000401153509504/01/00 15:35:31  5-MIN KMKG 012035Z 27004KT 10SM FEW095 12/03 A3002 540 52 400 280/04 RMK AO2
14840KMKG MKG20000401154009504/01/00 15:40:31  5-MIN KMKG 012040Z 28005KT 10SM FEW095 12/03 A3002 540 54 300 280/05 RMK AO2
14840KMKG MKG20000401154509504/01/00 15:45:31  5-MIN KMKG 012045Z 27005KT 10SM FEW095 12/02 A3002 540 52 300 270/05 RMK AO2
14840KMKG MKG20000401155011804/01/00 15:50:31  5-MIN KMKG 012050Z 29005KT 10SM FEW095 12/03 A3002 540 54 300 290/05 RMK AO2 SLP168 T01170028 56002
14840KMKG MKG20000401155511804/01/00 15:55:31  5-MIN KMKG 012055Z 28005KT 10SM SCT080 12/02 A3002 540 52 300 280/05 RMK AO2 SLP168 T01170022 57025
14840KMKG MKG20000401160015104/01/00 16:00:31  5-MIN KMKG 012100Z 27004KT 10SM BKN0804/01/00 16:10:31  5-MIN KMKG 012110Z 28004KT 10SM BKN080 12/02 A3002 540 52 300 280/04 RMK AO2
14840KMKG MKG20000401161509504/01/00 16:15:31  5-MIN KMKG 012115Z 25004KT 10SM BKN080 12/02 A3001 540 52 300 260/04 RMK AO2
14840KMKG MKG20000401162008904/01/00 16:20:31  5-MIN KMKG 012120Z 260 SM SCT075 09/02 A3000 550 60 100 280/04 RMK AO2
14840KMKG MKG20000401172509504/01/00 17:25:31  5-MIN KMKG 012225Z 27004KT 10SM SCT075 09/02 A3001 550 60 100 280/04 RMK AO2
14840KMKG MKG20000401173007004/01/00 17:30:31  5-MIN KMKG 012230Z 00000KT 10SM SCT075 BKN120 09/02
14840KMKG MKG20000401180009304/01/00 18:00:31  5-MIN KMKG 012300Z 27004KT 10SM BKN120 09/02 A3000 550 63 0 280/04 RMK AO2
14840KMKG MKG20000401180510004/01/00 18:05:31  5-MIN KMKG 012305Z 27004KT 10SM FEW080 OVC120 09/03 A3000 550 65 0 280/04 RMK AO2
14840KMKG MKG20000401185513504/01/00 18:55:31  5-MIN KMKG 012355Z 00000KT 10SM BKN070 OVC120 08/03 A3000 560 68 0 000/00 RMK AO2 SLP163 T00830028 10122 20083 56006
14840KMKG MKG20000401190013304/01/00 19:00:31  5-MIN KMKG 020000Z 00000KT 10SM BKN065 OVC080 08/03 A3000 560 68 0 000/00 RMK AO2 A2999 570 70 -100 000/00 RMK AO2
14840KMKG MKG20000401193509604/01/00 19:35:31  5-MIN KMKG 020035Z 00000KT 10SM OVC070 08/03 A2999 570 70 -100 000/00 RMK AO2
14840KMKG MKG20000401194014104/01/00 19:40:31  5-MIN KMKG 020040Z 00000KT 10SM OVC070 08/03 A2999 560 70 -100 000/00 RMK AO2 A3001 550 82 -200 220/03 RMK AO2 RAB19 P0000
14840KMKG MKG20000401204011204/01/00 20:40:31  5-MIN KMKG 020140Z 20004KT 10SM -RA OVC048 07/04 A3002 540 82 -200 210/04 RMK AO2 RAB19 P0000
14840KMKG MKG20000401204511304/01/00 20:45:31  5-MIN KMKG 020145Z 18004KT 8SM -RA OVC048 07/04 A3001 05 A3001550 89 -200 000/00 RMK AO2 P0000
14840KMKG MKG20000401212510504/01/00 21:25:31  5-MIN KMKG 020225Z 00000KT 9SM -RA OVC045 07/05 A3001 550 89 -200 000/00 RMK AO2 P0000
14840KMKG MKG20000401213011804/01/00 21:30:31  5-MIN KMKG 020230Z 00000KT 9SM -RA OVC045 07/04 A3001 550 86 -0 000/00 RMK AO2 CIG 043 RWY 14 P0001
14840KMKG MKG20000401221513004/01/00 22:15:31  5-MIN KMKG 020315Z 00000KT 6SM -RA BR SCT041 OVC050 07/06 A3001 550 93 -200 000/00 RMK AO2 CIG 042 RWY 14 P0001
14840KMKG MKG20000401225012904/01/00 22:50:31  5-MIN KMKG 020350Z 00000KT 7SM -RA FEW047 OVC070 07/06 A2999 570 93 -200 000/00 RMK AO2 SLP158 P0002 T00670056
14840KMKG MKG20000401225511604/01/00 22:55:31  5-MIN KMKG 020355Z 00000KT 6SM -RA BR FEW047 OVC070 07/06 A2999 570 93 -200 000/00 R6 1 401280039
14840KMKG MKG20000401235515904/01/00 23:55:31  5-MIN KMKG 020455Z 00000KT 4SM -RA BR SCT035 OVC055 07/06 A2998 570 96 -200 000/00 RMK AO2 VIS 2 1/2 RWY 14 SLP156 P0003 T00670061 401280039
14840KMKG MKG20000402005515604/02/00 00:55:31  5-MIN KMKG 020555Z 24004KT 5SM -RA BR BKN039 OVC055 07/06 A2996 590 96 -200 250/04 RMK AO2 SLP149 P0004 60009 T00670061 10083 20067 56016
14840KMKG MKG20000402010011504/02/00 01:00:31  5-MIN KMKG 020600Z 24004KT 5SM -RA BR BKN039 OVC055 07/06 A2996 590 96 -200 250/04 RMK AO2 P0001
14840KMKG MKG20000402010511504/02/00 01:05:31  5-MIN KMKG 020605Z 24004KT 4SM -RA BR BKN037 OVC055 07/06 A2997 590 96 -200 240/04 RMK AO2 P0001
14840KMKG MKG20000402011011504/02/00 01:10:31  5-MIN KMKG 020610Z 24004KT 4SM -RA BR BKN035 OVC055 07/06 A2996 590 96 -200 240/04 RMK AO2 P0001
14840KMKG MKG20000402011510804/02/00 01:15:31  5-MIN KMKG 020615Z 24003KT 4SM -RA BR OVC035 07/06 A2996 590 96 -200 240/03 RMK AO2 P0002
14840KMKG MKG20000402012010804/02/00 01:20:31  5-MIN KMKG 020620Z 23003KT 4SM -RA BR OVC035 07/06 A2996 590 96 -200 230/03 RMK AO2 P0002
14840KMKG MKG20000402012510804/02/00 01:25:31  5-MIN KMKG 020625Z 00000KT 4SM -RA BR OVC035 07/06 A2996 590 96 -200 000/00 RMK AO2 P0002
14840KMKG MKG20000402013017204/02/00 01:30:31  5-MIN KMKG 020630Z 00000KT 4SM -RA BR BKN037 OVC050 07/06 A2995 600 96 -200 000/00 RMK AO2 P0003 K AO2 CIG 037 RWY 14 P0003MKG 020635Z 00000KT 4SM -RA BR
14840KMKG MKG20000402014512204/02/00 01:45:31  5-MIN KMKG 020645Z 00000KT 4SM -RA BR SCT039 BKN050 OVC065 07/06 A2995 610 96 -200 000/00 RMK AO2 P0003
14840KMKG MKG20000402015007004/02/00 01:50:31  5-MIN KMKG 020650Z 00000KT 5SM -RA BR FEW041 BKN050
14840KMKG MKG20000402024014004/02/00 02:40:31  5-MIN KMKG 020740Z 00000KT 3SM -RA BR FEW027 SCT035 OVC050 07/07 A2994 620 100 -200 000/00 RMK AO2 VIS 1 3/4 RWY 14 P0000
14840KMKG MKG20000402024509504/02/00 02:45:31  5-MIN KMKG 020745Z 00000KT 3SM -RA BR FEW035 OVC050 07/07 A2994 610 100 -200
14840KMKG MKG20000402033513704/02/00 03:35:31  5-MIN KMKG 020835Z 17004KT 2 1/2SM -RA BR SCT038 OVC046 07/07 A2994 620 100 -200 170/04 RMK AO2 VIS 1 3/4 RWY 14 P0002
14840KMKG MKG20000402034009804/02/00 03:40:31  5-MIN KMKG 020840Z 15003KT 2 1/2SM -RA BR OVC046 07/07  000/00 RMK AO2 P00000/0
14840KMKG MKG20000402044512004/02/00 04:45:31  5-MIN KMKG 020945Z 14003KT 1 3/4SM -RA BR BKN048 OVC065 07/07 A2992 630 100 -100 140/03 RMK AO2 P0000
14840KMKG MKG20000402045014304/02/00 04:50:31  5-MIN KMKG 020950Z 14003KT 1 3/4SM -RA BR BKN048 OVC060 1/2SM BR OVC070 06/06 A2991  640 100 -200 000/00 RMK AO2 RAE09 P0001
14840KMKG MKG20000402055013204/02/00 05:50:31  5-MIN KMKG 021050Z 00000KT 1 1/2SM BR OVC070 06/06 A2991 640 100 -200 000/00 RMK AO2 RAE09 SLP132 P0001 T00610061
14840KMKG MKG20000402055503504/02/00 05:55:31  5-MIN KMKG 02991
14840KMKG MKG20000402065509504/02/00 06:55:31  5-MIN KMKG 021155Z 00000KT 1SM BR OVC003 07/06 A2994 620  96 -100 000/00 620
14840KMKG MKG20000402075512604/02/00 07:55:31  5-MIN KMKG 021255Z 00000KT M1/4SM FG BKN001 OVC005 06/06 A2992 630 100 -200 000/00 RMK AO2 SLP135 T00610061
14840KMKG MKG20000402080020304/02/00 08:00:31  5-MIN KMKG 021300Z 00000KT M1/4SM FG VV001 06/06 A2992 630 100 -200 000/00 RMK AO2 04/02/00 KMKG 021355Z 00000KT 1/4SM FG VV001 07/07 A2992 630 100 -100 000/00 RMK AO2 SLP135 T00720072
14840KMKG MKG20000402082010104/02/00 08:20:31  5-MIN KMKG 021320Z 00000KT M1/4SM FG VV001 06/06 A2992 630 100 -200 000/00 RMK AO2
14840KMKG MKG20000402082507604/02/00 08:25:31  5-MIN KMKG 021325Z 00000KT M1/4SM FG  -100 000/00 RMK AO2
14840KMKG MKG20000402092512004/02/00 09:25:31  5-MIN KMKG 021425Z 00000KT 2 1/2SM BR BKN003 07/07 A2992 630 100 -100 000/00 RMK AO2 VIS 1 1/4 RWY 14
14840KMKG MKG20000402093011604/02/00 09:30:31  5-MIN KMKG 021430Z 00000KT 3SM BR BKN003 07/07 A2992 630 100 -100 000/002V006  200 190/05 RMK AO2
14840KMKG MKG20000402102510104/02/00 10:25:31  5-MIN KMKG 021525Z VRB03KT 9SM SCT016 SCT022 10/06 A2993 620 77 200 VRB/03 RMK AO2
14840KMKG MKG20000402103013204/02/00 10:30:31  5-MIN KMKG 021530Z 22007KT 8SM SCT016 SCT022 10/07 A2992 630 83 200 230/07 RMK AO2 04/02/00992 300 VRB/04 RMK AO2
14840KMKG MKG20000402114009404/02/00 11:40:31  5-MIN KMKG 021640Z 00000KT 8SM BKN021 11/07 A2991 640 77 300 000/00 RMK AO2
14840KMKG MKG20000402221010804/02/00 22:10:31  5-MIN KMKG 030310Z 00000KT 5SM BR CLR 04/04 A2985 700 96 -300 000/00 RMK AO2 VIS 2 RWY 14
14840KMKG MKG20000402221510804/02/00 22:15:31  5-MIN KMKG 030315Z 00000KT 5SM BR CLR 05/04 A2985 700 92 -300 000/00 RMK AO2 VIS 2 RWY 14
14840KMKG MKG20000402222011204/02/00 22:20:31  5-MIN KMKG 030320Z 00000KT 5SM BR CLR 05/04 A2985 700 92 -300 000/00 RMK AO2 VIS 1 1/2 RWY 14
14840KMKG MKG20000402222511204/02/00 22:25:31  5-MIN KMKG 030325Z 00000KT 6SM BR CLR 04/04 A2984 700 96 -300 000/00 RMK AO2 VIS 1 3/4 RWY 14
14840KMKG MKG20000402223011204/02/00 22:30:31  5-MIN KMKG 030330Z 00000KT 6SM BR CLR 04/03 A2984 700 96 -400 000/00 RMK AO2 VIS 2 1/2 RWY 14
14840KMKG MKG20000402223510804/02/00 22:35:31  5-MIN KMKG 030335Z 12003KT 5SM BR CLR 04/03 A2984 700 96 -400 130/03 RMK AO2 VIS 2 RWY 14
14840KMKG MKG20000402224010804/02/00 22:40:31  5-MIN KMKG 030340Z 12004KT 5SM BR CLR 04/03 A2984 700 92 -400 130/04 RMK AO2 VIS 2 RWY 14
14840KMKG MKG20000402224511204/02/00 22:45:31  5-MIN KMKG 030345Z 12005KT 4SM BR CLR 04/03 A2984 700 96 -400 120/05 RMK AO2 VIS 2 1/2 RWY 14
14840KMKG MKG20000402225013004/02/00 22:50:31  5-MIN KMKG 030350Z 12005KT 4SM BR CLR 03/03 A2984 700 100 -400 120/05 RMK AO2 VIS 1 3/4 RWY 14 SLP108 T00330033
14840KMKG MKG20000402225512904/02/00 22:55:31  5-MIN KMKG 030355Z 12003KT 4SM BR CLR 04/03 A2984 710 96 -400 120/03 RMK AO2 VIS 1 1/4 RWY 14 SLP107 T00390033
14840KMKG MKG20000402230011204/02/00 23:00:31  5-MIN KMKG 030400Z 11003KT 4SM BR CLR 04/03 A2984 710 96 -400 120/03 RMK AO2 VIS 1 3/4 RWY 14
14840KMKG MKG20000402230510804/02/00 23:05:31  5-MIN KMKG 030405Z 00000KT 4SM BR CLR 04/03 A2984 700 96 -400 000/00 RMK AO2 VIS 2 RWY 14
14840KMKG MKG20000402231011204/02/00 23:10:31  5-MIN KMKG 030410Z 00000KT 5SM BR CLR 04/03 A2984 710 96 -400 000/00 RMK AO2 VIS 1 3/4 RWY 14
14840KMKG MKG20000402231511204/02/00 23:15:31  5-MIN KMKG 030415Z 00000KT 5SM BR CLR 04/03 A2984 710 96 -400 000/00 RMK AO2 VIS 1 3/4 RWY 14
14840KMKG MKG20000402232011204/02/00 23:20:31  5-MIN KMKG 030420Z 07003KT 4SM BR CLR 04/04 A2984 710 96 -300 070/03 RMK AO2 VIS 1 3/4 RWY 14
14840KMKG MKG20000402232511204/02/00 23:25:31  5-MIN KMKG 030425Z 08003KT 5SM BR CLR 04/03 A2984 710 96 -400 080/03 RMK AO2 VIS 1 1/4 RWY 14
14840KMKG MKG20000402233011204/02/00 23:30:31  5-MIN KMKG 030430Z 06003KT 4SM BR CLR 04/03 A2983 710 96 -400 060/03 RMK AO2 VIS 1 1/4 RWY 14
14840KMKG MKG20000402233510804/02/00 23:35:31  5-MIN KMKG 030435Z 07003KT 4SM BR CLR 04/03 A2983 710 96 -400 070/03 RMK AO2 VIS 2 RWY 14
14840KMKG MKG20000402234011204/02/00 23:40:31  5-MIN KMKG 030440Z 09003KT 4SM BR CLR 04/03 A2983 720 96 -400 090/03 RMK AO2 VIS 2 1/2 RWY 14
14840KMKG MKG20000402234510804/02/00 23:45:31  5-MIN KMKG 030445Z 09003KT 5SM BR CLR 04/04 A2983 720 96 -300 090/03 RMK AO2 VIS 2 RWY 14
14840KMKG MKG20000402235013504/02/00 23:50:31  5-MIN KMKG 030450Z 00000KT 5SM BR CLR 04/03 A2982 720 96 -400 000/00 RMK AO2 VIS 2 RWY 14 SLP102 T00390033 401220033
14840KMKG MKG20000402235513504/02/00 23:55:31  5-MIN KMKG 030455Z 00000KT 4SM BR CLR 03/03 A2982 720 96 -400 000/00 RMK AO2 VIS 2 RWY 14 SLP103 T00330028 401220033
14840KMKG MKG20000403000011204/03/00 00:00:31  5-MIN KMKG 030500Z 11003KT 4SM BR CLR 04/03 A2982 720 92 -400 120/03 RMK AO2 VIS 1 1/2 RWY 14
14840KMKG MKG20000403000511204/03/00 00:05:31  5-MIN KMKG 030505Z 00000KT 4SM BR CLR 03/03 A2982 720 96 -400 000/00 RMK AO2 VIS 1 1/4 RWY 14
14840KMKG MKG20000403001011204/03/00 00:10:31  5-MIN KMKG 030510Z 00000KT 4SM BR CLR 04/03 A2982 720 96 -400 000/00 RMK AO2 VIS 1 1/2 RWY 14
14840KMKG MKG20000403001511504/03/00 00:15:31  5-MIN KMKG 030515Z 00000KT 5SM BR FEW036 04/03 A2982 720 92 -400 000/00 RMK AO2 VIS 1 3/4 RWY 14
14840KMKG MKG20000403002011804/03/00 00:20:31  5-MIN KMKG 030520Z 07003KT 5SM BR SCT038 SCT080 04/03 A2982 730 92 -400 070/03 RMK AO2 VIS 2 RWY 14
14840KMKG MKG20000403002510504/03/00 00:25:31  5-MIN KMKG 030525Z 10004KT 5SM BR SCT038 BKN080 04/03 A2982 730 92 -400 100/04 RMK AO2
14840KMKG MKG20000403003011204/03/00 00:30:31  5-MIN KMKG 030530Z 00000KT 5SM BR FEW030 BKN038 BKN080 04/03 A2982 730 92 -400 000/00 RMK AO2
14840KMKG MKG20000403003511204/03/00 00:35:31  5-MIN KMKG 030535Z 13003KT 5SM BR SCT030 BKN038 BKN080 04/03 A2982 730 96 -400 140/03 RMK AO2
14840KMKG MKG20000403004011204/03/00 00:40:31  5-MIN KMKG 030540Z 13004KT 5SM BR SCT030 BKN038 OVC080 04/03 A2982 720 96 -400 140/04 RMK AO2
14840KMKG MKG20000403004511204/03/00 00:45:31  5-MIN KMKG 030545Z 13004KT 5SM BR FEW030 BKN040 OVC080 04/04 A2981 730 96 -300 130/04 RMK AO2
14840KMKG MKG20000403005014704/03/00 00:50:31  5-MIN KMKG 030550Z 13003KT 5SM BR FEW030 BKN040 OVC080 05/04 A2982 730 92 -200 130/03 RMK AO2 SLP099 T00500039 10083 20028 58001
14840KMKG MKG20000403005514704/03/00 00:55:31  5-MIN KMKG 030555Z 12004KT 5SM BR FEW030 SCT040 OVC080 05/04 A2982 730 92 -200 130/04 RMK AO2 SLP100 T00500039 10083 20028 56011
14840KMKG MKG20000403010010504/03/00 01:00:31  5-MIN KMKG 030600Z 12004KT 6SM BR FEW030 OVC080 05/04 A2982 730 92 -200 120/04 RMK AO2
14840KMKG MKG20000403010510504/03/00 01:05:31  5-MIN KMKG 030605Z 11003KT 6SM BR FEW041 OVC080 05/04 A2982 730 92 -200 120/03 RMK AO2
14840KMKG MKG20000403011010504/03/00 01:10:31  5-MIN KMKG 030610Z 00000KT 6SM BR FEW041 OVC080 05/04 A2981 730 92 -200 000/00 RMK AO2
14840KMKG MKG20000403011509804/03/00 01:15:31  5-MIN KMKG 030615Z 09003KT 5SM BR OVC080 05/04 A2981 730 92 -200 100/03 RMK AO2
14840KMKG MKG20000403012009804/03/00 01:20:31  5-MIN KMKG 030620Z 10003KT 6SM BR BKN080 04/03 A2981 730 92 -300 100/03 RMK AO2
14840KMKG MKG20000403012509804/03/00 01:25:31  5-MIN KMKG 030625Z 00000KT 6SM BR BKN080 04/03 A2981 740 92 -300 000/00 RMK AO2
14840KMKG MKG20000403013009804/03/00 01:30:31  5-MIN KMKG 030630Z 06003KT 6SM BR SCT080 04/03 A2980 740 92 -300 060/03 RMK AO2
14840KMKG MKG20000403013509804/03/00 01:35:31  5-MIN KMKG 030635Z 00000KT 6SM BR FEW080 04/03 A2980 740 92 -300 000/00 RMK AO2
14840KMKG MKG20000403014009804/03/00 01:40:31  5-MIN KMKG 030640Z 00000KT 6SM BR FEW080 05/04 A2980 740 92 -200 000/00 RMK AO2
14840KMKG MKG20000403014509504/03/00 01:45:31  5-MIN KMKG 030645Z 00000KT 6SM BR CLR 05/04 A2980 740 92 -200 000/00 RMK AO2
14840KMKG MKG20000403015011204/03/00 01:50:31  5-MIN KMKG 030650Z 00000KT 6SM BR CLR 05/04 A2980 740 92 -200 000/00 RMK AO2 SLP094 T00500039
14840KMKG MKG20000403015511204/03/00 01:55:31  5-MIN KMKG 030655Z 00000KT 6SM BR CLR 04/04 A2980 740 96 -300 000/00 RMK AO2 SLP094 T00440039
14840KMKG MKG20000403020009504/03/00 02:00:31  5-MIN KMKG 030700Z 00000KT 6SM BR CLR 04/03 A2980 740 92 -300 000/00 RMK AO2
14840KMKG MKG20000403020509504/03/00 02:05:31  5-MIN KMKG 030705Z 00000KT 6SM BR CLR 04/03 A2980 750 92 -300 000/00 RMK AO2
14840KMKG MKG20000403021009504/03/00 02:10:31  5-MIN KMKG 030710Z 00000KT 6SM BR CLR 04/03 A2980 750 92 -300 000/00 RMK AO2
14840KMKG MKG20000403021511204/03/00 02:15:31  5-MIN KMKG 030715Z 00000KT 6SM BR CLR 04/03 A2979 750 92 -300 000/00 RMK AO2 VIS 2 1/2 RWY 14
14840KMKG MKG20000403022011204/03/00 02:20:31  5-MIN KMKG 030720Z 00000KT 5SM BR CLR 04/03 A2979 750 92 -300 000/00 RMK AO2 VIS 2 1/2 RWY 14
14840KMKG MKG20000403022509504/03/00 02:25:31  5-MIN KMKG 030725Z 00000KT 5SM BR CLR 04/03 A2979 750 92 -300 000/00 RMK AO2
14840KMKG MKG20000403023009504/03/00 02:30:31  5-MIN KMKG 030730Z 00000KT 5SM BR CLR 03/03 A2979 750 96 -400 000/00 RMK AO2
14840KMKG MKG20000403023509504/03/00 02:35:31  5-MIN KMKG 030735Z 00000KT 5SM BR CLR 03/03 A2979 750 96 -400 000/00 RMK AO2
14840KMKG MKG20000403024009504/03/00 02:40:31  5-MIN KMKG 030740Z 00000KT 6SM BR CLR 04/03 A2979 750 92 -300 000/00 RMK AO2
14840KMKG MKG20000403024509504/03/00 02:45:31  5-MIN KMKG 030745Z 12003KT 6SM BR CLR 03/03 A2978 760 96 -400 130/03 RMK AO2
14840KMKG MKG20000403025012904/03/00 02:50:31  5-MIN KMKG 030750Z 14003KT 6SM BR CLR 03/02 A2978 760 92 -400 140/03 RMK AO2 VIS 2 1/2 RWY 14 SLP087 T00330022
14840KMKG MKG20000403025511204/03/00 02:55:31  5-MIN KMKG 030755Z 14003KT 5SM BR CLR 03/02 A2978 760 92 -400 150/03 RMK AO2 SLP086 T00330022
14840KMKG MKG20000403030009504/03/00 03:00:31  5-MIN KMKG 030800Z 14003KT 4SM BR CLR 03/03 A2977 770 96 -400 140/03 RMK AO2
14840KMKG MKG20000403030514404/03/00 03:05:31  5-MIN KMKG 030805Z 13003KT 4SM BR CLR 03/03 A2977 770 KMKG 030820Z 13003KT 4SM BR CLR 04/03 A2977 770 96  -300 130/03 RMK AO2
14840KMKG MKG20000403032509504/03/00 03:25:31  5-MIN KMKG 030825Z 00000KT 4SM BR CLR 03/03 A2977 770 96 -400 000/00 RMK AO2
14840KMKG MKG20000403033009504/03/00 03:30:31  5-MIN KMKG 030830Z 14003KT 4SM BR CLR 03/02 A2977 770/05 RMKAO2 VIS 1 RWY 14
14840KMKG MKG20000403043509504/03/00 04:35:31  5-MIN KMKG 030935Z 15004KT 2SM BR CLR 03/02 A2974 790 96 -400 150/04 RMK AO2
14840KMKG MKG20000403044011204/03/00 04:40:31  5-MIN KMKG 030940Z 00000KT 2SM BR CLR 03/02 A2975 790 96 -400 000/00 RMK AO2 04/03/00 04:45:3
14840KMKG MKG20000403053511004/03/00 05:35:31  5-MIN KMKG 031035Z 13005KT 1 3/4SM BR SCT041 BKN085 03/03 A2974 800 100 -400 130/05 RMK AO2
14840KMKG MKG20000403054010904/03/00 05:40:31  5-MIN KMKG 031040Z 12005KT 1 1/2SM BR SCT041 BKN085 04/03 A2974 800 96 -300 120/05 RMK AO2
14840KMKG MKG20000403063511904/03/00 06:35:31  5-MIN KMKG 031135Z 15007KT 2SM BR BKN060 OVC080 07/07 A2974 790 96 100 150/07 RMK AO2 RAB08E19 P0000
14840KMKG MKG20000403064014504/03/00 06:40:31  5-MIN KMKG 031140Z 14008KT 1 3/4SM BR BKN065 OVC085 08/07 A2974 800 93 200 140/08 RMK AO2 RAB08E19 P 810 93 200 150/05 RMK AO2
14840KMKG MKG20000403073010104/03/00 07:30:31  5-MIN KMKG 031230Z 14006KT 1 3/4SM BR FEW060 08/07 A2973 810 93 200 150/06 RMK AO2
14840KMKG MKG20000403073510304/03/00 07:35:31  5-MIN KMKG 031235Z 15006KT 1 3/4SM BR FEW055 08/07 A2972 810 93 200 150/06 RMK AO2 2
14840KMKG MKG20000403082509804/03/00 08:25:31  5-MIN KMKG 031325Z 17007KT 2 1/2SM BR CLR 10/08 A2971 830 86 500 180/07 RMK AO2
14840KMKG MKG20000403083009804/03/00 08:30:31  5-MIN KMKG 031330Z 17007KT 2 1/2SM HZ CLR 11/08 A2970 840 83 500 180/07 RMK AO2
14840KMKG MKG20000403083507604/03/00 08:35:31  5-MIN KMKG 031335Z 18 600 180/07 RMK AO2 SLP062 T01110078
14840KMKG MKG20000403090009404/03/00 09:00:31  5-MIN KMKG 031400Z 18009KT 3SM HZ CLR 12/08 A2971 830 77 700 190/09 RMK AO2
14840KMKG MKG20000403090511404/03/00 09:05:31  5-MIN KMKG 031405Z 18011KT 3SM HZ CLR 12/07 A2972 820 74 700 180/11 RMK AO2 04/03/00/10 RMK AO2
14840KMKG MKG20000403100509404/03/00 10:05:31  5-MIN KMKG 031505Z 19009KT 4SM HZ CLR 13/07 A2972 820 66 900 200/09 RMK AO2
14840KMKG MKG20000403101009404/03/00 10:10:31  5-MIN KMKG 031510Z 19012KT 4SM HZ CLR 13/07 A2971 820 66 900 190/12 RMK AO2
14840KMKG MKG20000403101509404/03/00 10:15:31  5-MIN KMKG 031515Z 21011KT 4SM HZ CLR 13/07 A2972 810 66 800 220/11 RMK AO2
14840KMKG MKG20000403102009404/03/00 10:20:31  5-MIN KMKG 031520Z 20014KT 4SM HZ CLR 13/07 A2972 810 64 800 210/14 RMK AO2
14840KMKG MKG20000403102509404/03/00 10:25:31  5-MIN KMKG 031525Z 19013KT 4SM HZ CLR 13/07 A2972 820 64 900 190/13 RMK AO2
14840KMKG MKG20000403103009404/03/00 10:30:31  5-MIN KMKG 031530Z 19014KT 4SM HZ CLR 13/07 A2971 820 69 800 190/14 RMK AO2
14840KMKG MKG20000403103509404/03/00 10:35:31  5-MIN KMKG 031535Z 19013KT 4SM HZ CLR 13/07 A2972 820 69 800 190/13 RMK AO2
14840KMKG MKG20000403104009404/03/00 10:40:31  5-MIN KMKG 031540Z 19009KT 4SM HZ CLR 13/07 A2971 820 69 800 190/09 RMK AO2
14840KMKG MKG20000403104509404/03/00 10:45:31  5-MIN KMKG 031545Z 20012KT 4SM HZ CLR 13/07 A2972 820 66 900 210/12 RMK AO2
14840KMKG MKG20000403105011104/03/00 10:50:31  5-MIN KMKG 031550Z 20013KT 4SM HZ CLR 13/07 A2972 810 66 800 210/13 RMK AO2 SLP068 T01330072
14840KMKG MKG20000403105511104/03/00 10:55:31  5-MIN KMKG 031555Z 22014KT 4SM HZ CLR 13/07 A2973 810 69 800 220/14 RMK AO2 SLP070 T01280072
14840KMKG MKG20000403110009404/03/00 11:00:31  5-MIN KMKG 031600Z 22014KT 4SM HZ CLR 13/07 A2973 810 69 800 220/14 RMK AO2
14840KMKG MKG20000403110510004/03/00 11:05:31  5-MIN KMKG 031605Z 22015G20KT 4SM HZ CLR 12/07 A2973 810 68 700 220/15G20 RMK AO2
14840KMKG MKG20000403111010004/03/00 11:10:31  5-MIN KMKG 031610Z 22013G20KT 4SM HZ CLR 12/07 A2973 810 71 700 230/13G20 RMK AO2
14840KMKG MKG20000403111509404/03/00 11:15:31  5-MIN KMKG 031615Z 22016KT 4SM HZ CLR 12/07 A2973 800 71 600 230/16 RMK AO2
14840KMKG MKG20000403112010004/03/00 11:20:31  5-MIN KMKG 031620Z 23015G19KT 3SM HZ CLR 11/07 A2973 800 74 600 240/15G19 RMK AO2
14840KMKG MKG20000403112509404/03/00 11:25:31  5-MIN KMKG 031625Z 23013KT 3SM HZ CLR 11/07 A2973 810 74 600 230/13 RMK AO2
14840KMKG MKG20000403113009404/03/00 11:30:31  5-MIN KMKG 031630Z 24011KT 3SM HZ CLR 11/07 A2973 810 74 600 240/11 RMK AO2
14840KMKG MKG20000403113509404/03/00 11:35:31  5-MIN KMKG 031635Z 23011KT 3SM HZ CLR 12/07 A2973 810 71 600 240/11 RMK AO2
14840KMKG MKG20000403114011704/03/00 11:40:31  5-MIN KMKG 031640Z 24011G16KT 3SM HZ CLR 12/07 A2973 810 74 600 240/11G16 RMK AO2 VIS 2 1/2 RWY 14
14840KMKG MKG20000403114510004/03/00 11:45:31  5-MIN KMKG 031645Z 25010G18KT 3SM HZ CLR 11/07 A2973 810 74 600 260/10G18 RMK AO2
14840KMKG MKG20000403115011704/03/00 11:50:31  5-MIN KMKG 031650Z 25012G18KT 3SM HZ CLR 11/07 A2973 810 77 500 250/12G18 RMK AO2 SLP070 T01060067
14840KMKG MKG20000403115511104/03/00 11:55:31  5-MIN KMKG 031655Z 25011KT 3SM HZ CLR 11/07 A2973 810 77 500 250/11 RMK AO2 SLP069 T01060067
14840KMKG MKG20000403120009404/03/00 12:00:31  5-MIN KMKG 031700Z 25012KT 3SM HZ CLR 11/06 A2972 810 74 500 260/12 RMK AO2
14840KMKG MKG20000403120511604/03/00 12:05:31  5-MIN KMKG 031705Z 27010G17KT 240V310 3SM HZ CLR 11/06 A2972 820 74 500 280/10G17 240V310 RMK AO2
14840KMKG MKG20000403121009404/03/00 12:10:31  5-MIN KMKG 031710Z 29010KT 3SM HZ CLR 11/06 A2971 820 74 500 290/10 RMK AO2
14840KMKG MKG20000403121509404/03/00 12:15:31  5-MIN KMKG 031715Z 30009KT 3SM HZ CLR 10/06 A2971 830 77 500 300/09 RMK AO2
14840KMKG MKG20000403122009704/03/00 12:20:31  5-MIN KMKG 031720Z 29009KT 3SM HZ FEW110 10/06 A2971 830 77 500 300/09 RMK AO2
14840KMKG MKG20000403122509704/03/00 12:25:31  5-MIN KMKG 031725Z 29012KT 3SM HZ FEW110 09/06 A2970 830 79 400 300/12 RMK AO2
14840KMKG MKG20000403123009404/03/00 12:30:31  5-MIN KMKG 031730Z 29008KT 3SM HZ CLR 10/06 A2970 840 77 500 290/08 RMK AO2
14840KMKG MKG20000403123509704/03/00 12:35:31  5-MIN KMKG 031735Z 30008KT 3SM HZ FEW110 10/06 A2970 840 77 500 310/08 RMK AO2
14840KMKG MKG20000403124009704/03/00 12:40:31  5-MIN KMKG 031740Z 30009KT 3SM HZ FEW110 10/06 A2969 840 74 500 300/09 RMK AO2
14840KMKG MKG20000403124509404/03/00 12:45:31  5-MIN KMKG 031745Z 29010KT 3SM HZ CLR 10/06 A2969 840 74 500 290/10 RMK AO2
14840KMKG MKG20000403125012904/03/00 12:50:31  5-MIN KMKG 031750Z 29009KT 3SM HZ CLR 09/06 A2969 840 79 400 290/09 RMK AO2 SLP059 T00940061 10139 20078 55003
14840KMKG MKG20000403125513204/03/00 12:55:31  5-MIN KMKG 031755Z 30010KT 3SM HZ FEW110 09/06 A2970 840 76 400 300/10 RMK AO2 SLP059 T00940056 10139 20078 58010
14840KMKG MKG20000403130009704/03/00 13:00:31  5-MIN KMKG 031800Z 29010KT 3SM HZ FEW100 09/06 A2970 830 76 400 290/10 RMK AO2
14840KMKG MKG20000403130509704/03/00 13:05:31  5-MIN KMKG 031805Z 30009KT 3SM HZ FEW100 10/06 A2970 840 74 500 300/09 RMK AO2
14840KMKG MKG20000403131009704/03/00 13:10:31  5-MIN KMKG 031810Z 31009KT 3SM HZ FEW100 10/06 A2970 840 77 500 320/09 RMK AO2
14840KMKG MKG20000403131509704/03/00 13:15:31  5-MIN KMKG 031815Z 33009KT 3SM HZ FEW100 10/06 A2969 840 74 500 340/09 RMK AO2
14840KMKG MKG20000403132009704/03/00 13:20:31  5-MIN KMKG 031820Z 32008KT 4SM HZ FEW100 11/06 A2968 850 74 600 320/08 RMK AO2
14840KMKG MKG20000403132509704/03/00 13:25:31  5-MIN KMKG 031825Z 32008KT 4SM HZ FEW100 11/06 A2968 850 74 600 330/08 RMK AO2
14840KMKG MKG20000403133010304/03/00 13:30:31  5-MIN KMKG 031830Z 32012G16KT 4SM HZ FEW100 11/06 A2968 860 71 600 320/12G16 RMK AO2
14840KMKG MKG20000403133509704/03/00 13:35:31  5-MIN KMKG 031835Z 32011KT 4SM HZ FEW100 10/06 A2968 860 74 500 320/11 RMK AO2
14840KMKG MKG20000403134009704/03/00 13:40:31  5-MIN KMKG 031840Z 32010KT 5SM HZ FEW100 10/05 A2968 860 71 500 320/10 RMK AO2
14840KMKG MKG20000403134509704/03/00 13:45:31  5-MIN KMKG 031845Z 32010KT 5SM HZ SCT100 10/05 A2968 850 71 500 320/10 RMK AO2
14840KMKG MKG20000403135011404/03/00 13:50:31  5-MIN KMKG 031850Z 33009KT 6SM HZ SCT100 11/06 A2968 860 71 600 330/09 RMK AO2 SLP053 T01060056
14840KMKG MKG20000403135511404/03/00 13:55:31  5-MIN KMKG 031855Z 31010KT 6SM HZ SCT095 10/04 A2968 850 68 500 310/10 RMK AO2 SLP055 T01000044
14840KMKG MKG20000403140009404/03/00 14:00:31  5-MIN KMKG 031900Z 32009KT 7SM BKN090 10/04 A2968 850 68 500 320/09 RMK AO2
14840KMKG MKG20000403140509404/03/00 14:05:31  5-MIN KMKG 031905Z 33009KT 7SM BKN085 10/04 A2968 860 68 500 340/09 RMK AO2
14840KMKG MKG20000403141009404/03/00 14:10:31  5-MIN KMKG 031910Z 33009KT 7SM BKN085 10/04 A2968 860 68 500 330/09 RMK AO2
14840KMKG MKG20000403141509404/03/00 14:15:31  5-MIN KMKG 031915Z 33007KT 7SM BKN080 11/05 A2968 860 68 600 340/07 RMK AO2
14840KMKG MKG20000403142009404/03/00 14:20:31  5-MIN KMKG 031920Z 32006KT 8SM SCT085 11/05 A2968 850 66 600 320/06 RMK AO2
14840KMKG MKG20000403142509404/03/00 14:25:31  5-MIN KMKG 031925Z 32007KT 9SM SCT085 11/04 A2968 850 63 600 330/07 RMK AO2
14840KMKG MKG20000403143009504/03/00 14:30:31  5-MIN KMKG 031930Z 34006KT 10SM SCT085 11/04 A2968 860 61 600 350/06 RMK AO2
14840KMKG MKG20000403143509504/03/00 14:35:31  5-MIN KMKG 031935Z VRB03KT 10SM SCT080 11/04 A2968 860 61 600 VRB/03 RMK AO2
14840KMKG MKG20000403144009504/03/00 14:40:31  5-MIN KMKG 031940Z 34004KT 10SM BKN080 11/04 A2967 860 63 600 340/04 RMK AO2
14840KMKG MKG20000403144509504/03/00 14:45:31  5-MIN KMKG 031945Z 32004KT 10SM BKN080 11/04 A2967 860 61 600 330/04 RMK AO2
14840KMKG MKG20000403145011204/03/00 14:50:31  5-MIN KMKG 031950Z 29006KT 10SM SCT080 11/04 A2967 870 61 600 290/06 RMK AO2 SLP049 T01110039
14840KMKG MKG20000403145511204/03/00 14:55:31  5-MIN KMKG 031955Z 32005KT 10SM SCT080 12/03 A2967 860 56 700 330/05 RMK AO2 SLP050 T01170033
14840KMKG MKG20000403150009504/03/00 15:00:31  5-MIN KMKG 032000Z 31007KT 10SM BKN080 11/03 A2967 860 58 600 310/07 RMK AO2
14840KMKG MKG20000403150509504/03/00 15:05:31  5-MIN KMKG 032005Z 26008KT 10SM BKN080 12/03 A2967 860 54 700 270/08 RMK AO2
14840KMKG MKG20000403151009504/03/00 15:10:31  5-MIN KMKG 032010Z 29010KT 10SM BKN090 12/02 A2967 860 52 700 300/10 RMK AO2
14840KMKG MKG20000403151510204/03/00 15:15:31  5-MIN KMKG 032015Z 29008KT 10SM FEW080 BKN100 11/02 A2968 860 54 600 290/08 RMK AO2
14840KMKG MKG20000403152010204/03/00 15:20:31  5-MIN KMKG 032020Z 27009KT 10SM FEW080 BKN100 11/02 A2967 860 54 600 280/09 RMK AO2
14840KMKG MKG20000403152510204/03/00 15:25:31  5-MIN KMKG 032025Z 28006KT 10SM FEW080 BKN100 11/02 A2967 860 54 600 280/06 RMK AO2
14840KMKG MKG20000403153009504/03/00 15:30:31  5-MIN KMKG 032030Z 27008KT 10SM BKN100 12/02 A2967 860 52 700 270/08 RMK AO2
14840KMKG MKG20000403153509504/03/00 15:35:31  5-MIN KMKG 032035Z 28006KT 10SM BKN100 12/02 A2968 860 52 700 280/06 RMK AO2
14840KMKG MKG20000403154009504/03/00 15:40:31  5-MIN KMKG 032040Z 26007KT 10SM BKN100 11/02 A2967 860 52 600 270/07 RMK AO2
14840KMKG MKG20000403154509504/03/00 15:45:31  5-MIN KMKG 032045Z 26006KT 10SM BKN100 12/02 A2967 870 50 700 270/06 RMK AO2
14840KMKG MKG20000403155011804/03/00 15:50:31  5-MIN KMKG 032050Z 23007KT 10SM BKN100 12/02 A2967 870 52 700 230/07 RMK AO2 SLP049 T01170022 58010
14840KMKG MKG20000403155511804/03/00 15:55:31  5-MIN KMKG 032055Z 25007KT 10SM SCT100 12/02 A2966 870 52 700 250/07 RMK AO2 SLP048 T01170022 56011
14840KMKG MKG20000403160009504/03/00 16:00:31  5-MIN KMKG 032100Z 25006KT 10SM SCT100 12/02 A2966 870 50 700 260/06 RMK AO2
14840KMKG MKG20000403160509504/03/00 16:05:31  5-MIN KMKG 032105Z 26005KT 10SM FEW100 12/02 A2967 870 50 700 270/05 RMK AO2
14840KMKG MKG20000403161009504/03/00 16:10:31  5-MIN KMKG 032110Z 25004KT 10SM FEW100 12/02 A2966 870 50 700 250/04 RMK AO2
14840KMKG MKG20000403161509204/03/00 16:15:31  5-MIN KMKG 032115Z 26005KT 10SM CLR 12/02 A2966 880 48 800 270/05 RMK AO2
14840KMKG MKG20000403162009204/03/00 16:20:31  5-MIN KMKG 032120Z 28005KT 10SM CLR 12/01 A2965 880 46 800 280/05 RMK AO2
14840KMKG MKG20000403162509204/03/00 16:25:31  5-MIN KMKG 032125Z 25005KT 10SM CLR 12/02 A2966 880 48 800 250/05 RMK AO2
14840KMKG MKG20000403163009504/03/00 16:30:31  5-MIN KMKG 032130Z 22006KT 10SM FEW110 11/02 A2966 880 52 700 220/06 RMK AO2
14840KMKG MKG20000403163509504/03/00 16:35:31  5-MIN KMKG 032135Z 21008KT 10SM SCT110 11/02 A2966 870 52 700 220/08 RMK AO2
14840KMKG MKG20000403164009504/03/00 16:40:31  5-MIN KMKG 032140Z 23007KT 10SM SCT110 11/02 A2966 870 52 700 230/07 RMK AO2
14840KMKG MKG20000403164509504/03/00 16:45:31  5-MIN KMKG 032145Z 21007KT 10SM BKN120 12/02 A2966 870 50 700 220/07 RMK AO2
14840KMKG MKG20000403165011204/03/00 16:50:31  5-MIN KMKG 032150Z 22007KT 10SM BKN120 11/02 A2966 870 52 700 220/07 RMK AO2 SLP046 T01110017
14840KMKG MKG20000403165511204/03/00 16:55:31  5-MIN KMKG 032155Z 22006KT 10SM BKN120 11/02 A2966 870 52 700 220/06 RMK AO2 SLP046 T01110017
14840KMKG MKG20000403170009504/03/00 17:00:31  5-MIN KMKG 032200Z 22008KT 10SM BKN120 11/01 A2966 870 52 600 230/08 RMK AO2
14840KMKG MKG20000403170509504/03/00 17:05:31  5-MIN KMKG 032205Z 22009KT 10SM BKN120 11/01 A2967 870 52 600 230/09 RMK AO2
14840KMKG MKG20000403171009504/03/00 17:10:31  5-MIN KMKG 032210Z 20008KT 10SM OVC120 11/02 A2967 860 54 600 210/08 RMK AO2
14840KMKG MKG20000403171509504/03/00 17:15:31  5-MIN KMKG 032215Z 21009KT 10SM BKN120 11/02 A2966 870 54 700 210/09 RMK AO2
14840KMKG MKG20000403172009504/03/00 17:20:31  5-MIN KMKG 032220Z 21008KT 10SM BKN120 11/02 A2966 870 54 700 220/08 RMK AO2
14840KMKG MKG20000403172509504/03/00 17:25:31  5-MIN KMKG 032225Z 20009KT 10SM BKN120 11/02 A2966 870 54 700 200/09 RMK AO2
14840KMKG MKG20000403173009504/03/00 17:30:31  5-MIN KMKG 032230Z 21007KT 10SM BKN120 11/02 A2966 870 54 600 210/07 RMK AO2
14840KMKG MKG20000403173509504/03/00 17:35:31  5-MIN KMKG 032235Z 21007KT 10SM SCT120 11/02 A2966 870 54 700 210/07 RMK AO2
14840KMKG MKG20000403174009504/03/00 17:40:31  5-MIN KMKG 032240Z 22010KT 10SM SCT120 11/02 A2967 860 54 600 220/10 RMK AO2
14840KMKG MKG20000403174509504/03/00 17:45:31  5-MIN KMKG 032245Z 21009KT 10SM FEW120 11/02 A2967 860 56 600 220/09 RMK AO2
14840KMKG MKG20000403175011904/03/00 17:50:31  5-MIN KMKG 032250Z 21010KT 10SM FEW085 SCT120 11/02 A2967 860 56 600 210/10 RMK AO2 SLP051 T01060022
14840KMKG MKG20000403175511904/03/00 17:55:31  5-MIN KMKG 032255Z 20010KT 10SM SCT085 SCT120 10/02 A2967 860 58 500 200/10 RMK AO2 SLP051 T01000022
14840KMKG MKG20000403180009504/03/00 18:00:31  5-MIN KMKG 032300Z 21011KT 10SM BKN085 10/02 A2967 860 58 500 210/11 RMK AO2
14840KMKG MKG20000403180509504/03/00 18:05:31  5-MIN KMKG 032305Z 21009KT 10SM BKN085 10/02 A2968 860 58 500 210/09 RMK AO2
14840KMKG MKG20000403181009504/03/00 18:10:31  5-MIN KMKG 032310Z 20008KT 10SM BKN085 10/03 A2967 870 60 500 200/08 RMK AO2
14840KMKG MKG20000403181509504/03/00 18:15:31  5-MIN KMKG 032315Z 21008KT 10SM BKN085 09/03 A2966 870 63 500 220/08 RMK AO2
14840KMKG MKG20000403182009504/03/00 18:20:31  5-MIN KMKG 032320Z 22007KT 10SM OVC085 09/03 A2967 860 63 400 220/07 RMK AO2
14840KMKG MKG20000403182510204/03/00 18:25:31  5-MIN KMKG 032325Z 22006KT 10SM FEW075 OVC090 09/03 A2967 860 63 400 220/06 RMK AO2
14840KMKG MKG20000403183010204/03/00 18:30:31  5-MIN KMKG 032330Z 21008KT 10SM FEW075 OVC090 09/03 A2967 860 63 400 220/08 RMK AO2
14840KMKG MKG20000403183510204/03/00 18:35:31  5-MIN KMKG 032335Z 21007KT 10SM FEW075 OVC090 09/03 A2967 860 63 400 220/07 RMK AO2
14840KMKG MKG20000403184010204/03/00 18:40:31  5-MIN KMKG 032340Z 22007KT 10SM FEW075 OVC090 09/03 A2967 860 63 400 220/07 RMK AO2
14840KMKG MKG20000403184509504/03/00 18:45:31  5-MIN KMKG 032345Z 21006KT 10SM OVC085 09/03 A2968 860 63 400 220/06 RMK AO2
14840KMKG MKG20000403185013004/03/00 18:50:31  5-MIN KMKG 032350Z 23005KT 10SM OVC085 09/03 A2968 850 65 400 230/05 RMK AO2 SLP053 T00890028 10122 20089 56011
14840KMKG MKG20000403185513704/03/00 18:55:31  5-MIN KMKG 032355Z 23006KT 10SM BKN070 OVC090 09/03 A2968 860 65 400 240/06 RMK AO2 SLP053 T00890028 10122 20089 53005
14840KMKG MKG20000403190010204/03/00 19:00:31  5-MIN KMKG 040000Z 23006KT 10SM SCT075 OVC090 09/03 A2967 860 65 400 230/06 RMK AO2
14840KMKG MKG20000403190510204/03/00 19:05:31  5-MIN KMKG 040005Z 23004KT 10SM SCT070 OVC085 09/03 A2967 860 65 400 230/04 RMK AO2
14840KMKG MKG20000403191011704/03/00 19:10:31  5-MIN KMKG 040010Z 23004KT 10SM SCT065 OVC085 09/03 A2967 870 65 400 230/04 RMK AO2 CIG 065 RWY 14
14840KMKG MKG20000403191510204/03/00 19:15:31  5-MIN KMKG 040015Z 23005KT 10SM BKN060 OVC080 09/03 A2967 860 65 400 240/05 RMK AO2
14840KMKG MKG20000403192010204/03/00 19:20:31  5-MIN KMKG 040020Z 23006KT 10SM BKN060 OVC085 09/03 A2967 870 65 400 230/06 RMK AO2
14840KMKG MKG20000403192510204/03/00 19:25:31  5-MIN KMKG 040025Z 24005KT 10SM BKN060 OVC085 08/03 A2966 870 68 300 240/05 RMK AO2
14840KMKG MKG20000403193010204/03/00 19:30:31  5-MIN KMKG 040030Z 23005KT 10SM BKN060 OVC090 08/03 A2966 870 68 300 240/05 RMK AO2
14840KMKG MKG20000403193510904/03/00 19:35:31  5-MIN KMKG 040035Z 24005KT 10SM SCT060 BKN075 OVC090 08/03 A2966 870 68 300 250/05 RMK AO2
14840KMKG MKG20000403194010904/03/00 19:40:31  5-MIN KMKG 040040Z 24006KT 10SM BKN060 BKN075 OVC090 08/03 A2967 860 70 300 250/06 RMK AO2
14840KMKG MKG20000403194510904/03/00 19:45:31  5-MIN KMKG 040045Z 25007KT 10SM BKN055 BKN070 OVC090 08/03 A2967 860 70 300 260/07 RMK AO2
14840KMKG MKG20000403195014104/03/00 19:50:31  5-MIN KMKG 040050Z 24008KT 10SM SCT055 BKN070 OVC090 08/03 A2967 860 73 200 250/08 RMK AO2 CIG 055 RWY 14 SLP051 T00780033
14840KMKG MKG20000403195512604/03/00 19:55:31  5-MIN KMKG 040055Z 24007KT 10SM BKN055 BKN070 OVC090 08/03 A2968 860 73 200 250/07 RMK AO2 SLP052 T00780033
14840KMKG MKG20000403200010204/03/00 20:00:31  5-MIN KMKG 040100Z 26008KT 10SM BKN060 OVC090 08/03 A2967 860 73 200 270/08 RMK AO2
14840KMKG MKG20000403200510204/03/00 20:05:31  5-MIN KMKG 040105Z 27010KT 10SM BKN055 OVC070 07/03 A2968 860 76 200 270/10 RMK AO2
14840KMKG MKG20000403201010004/03/00 20:10:31  5-MIN KMKG 040110Z 30012G16KT 9SM OVC055 08/03 A2967 860 73 200 300/12G16 RMK AO2
14840KMKG MKG20000403201511404/03/00 20:15:31  5-MIN KMKG 040115Z 30011G18KT 8SM BKN055 BKN070 OVC095 07/03 A2967 860 76 200 300/11G18 RMK AO2
14840KMKG MKG20000403202010704/03/00 20:20:31  5-MIN KMKG 040120Z 30009G18KT 7SM BKN055 OVC100 07/04 A2967 860 82 100 300/09G18 RMK AO2
14840KMKG MKG20000403202510204/03/00 20:25:31  5-MIN KMKG 040125Z 30009KT 6SM BR SCT055 OVC100 06/04 A2967 860 86 0 310/09 RMK AO2
14840KMKG MKG20000403203010204/03/00 20:30:31  5-MIN KMKG 040130Z 31008KT 6SM BR SCT055 OVC095 06/04 A2967 860 86 0 310/08 RMK AO2
14840KMKG MKG20000403203510404/03/00 20:35:31  5-MIN KMKG 040135Z 29010KT 6SM HZ FEW055 OVC095 07/04 A2968 860 82 100 300/10 RMK AO2
14840KMKG MKG20000403204009404/03/00 20:40:31  5-MIN KMKG 040140Z 32007KT 7SM OVC100 07/04 A2967 860 82 100 320/07 RMK AO2
14840KMKG MKG20000403204509404/03/00 20:45:31  5-MIN KMKG 040145Z 32007KT 7SM OVC100 07/04 A2968 860 82 100 320/07 RMK AO2
14840KMKG MKG20000403205011104/03/00 20:50:31  5-MIN KMKG 040150Z 31008KT 7SM OVC100 07/04 A2968 850 82 100 320/08 RMK AO2 SLP053 T00670039
14840KMKG MKG20000403205511104/03/00 20:55:31  5-MIN KMKG 040155Z 31007KT 7SM OVC100 07/04 A2968 850 82 100 310/07 RMK AO2 SLP053 T00670039
14840KMKG MKG20000403210009404/03/00 21:00:31  5-MIN KMKG 040200Z 32008KT 8SM OVC100 07/04 A2968 850 82 100 330/08 RMK AO2
14840KMKG MKG20000403210509404/03/00 21:05:31  5-MIN KMKG 040205Z 32009KT 9SM OVC100 07/03 A2968 860 79 100 320/09 RMK AO2
14840KMKG MKG20000403211009504/03/00 21:10:31  5-MIN KMKG 040210Z 32009KT 10SM OVC100 07/03 A2968 860 79 100 320/09 RMK AO2
14840KMKG MKG20000403211510204/03/00 21:15:31  5-MIN KMKG 040215Z 32009KT 10SM FEW039 OVC100 07/03 A2967 860 73 200 320/09 RMK AO2
14840KMKG MKG20000403212010204/03/00 21:20:31  5-MIN KMKG 040220Z 32008KT 10SM SCT039 OVC100 07/02 A2967 860 70 200 330/08 RMK AO2
14840KMKG MKG20000403212510204/03/00 21:25:31  5-MIN KMKG 040225Z 32009KT 10SM SCT039 OVC100 07/02 A2967 860 70 200 320/09 RMK AO2
14840KMKG MKG20000403213010204/03/00 21:30:31  5-MIN KMKG 040230Z 32011KT 10SM BKN039 OVC100 07/02 A2967 860 68 200 320/11 RMK AO2
14840KMKG MKG20000403213510204/03/00 21:35:31  5-MIN KMKG 040235Z 31011KT 10SM BKN041 OVC100 07/02 A2967 860 68 200 320/11 RMK AO2
14840KMKG MKG20000403214010204/03/00 21:40:31  5-MIN KMKG 040240Z 31008KT 10SM BKN041 OVC100 07/02 A2967 860 68 200 320/08 RMK AO2
14840KMKG MKG20000403214510104/03/00 21:45:31  5-MIN KMKG 040245Z 31009G16KT 10SM OVC043 07/02 A2967 860 68 200 320/09G16 RMK AO2
14840KMKG MKG20000403215012404/03/00 21:50:31  5-MIN KMKG 040250Z 31010G16KT 10SM OVC043 07/02 A2967 860 68 200 320/10G16 RMK AO2 SLP049 T00720017 53005
14840KMKG MKG20000403215512504/03/00 21:55:31  5-MIN KMKG 040255Z 31011KT 10SM BKN043 OVC050 07/02 A2967 860 68 200 320/11 RMK AO2 SLP049 T00720017 58003
14840KMKG MKG20000403220010104/03/00 22:00:31  5-MIN KMKG 040300Z 32014G18KT 10SM OVC045 07/02 A2966 870 68 200 320/14G18 RMK AO2
14840KMKG MKG20000403220509504/03/00 22:05:31  5-MIN KMKG 040305Z 32014KT 10SM OVC047 07/02 A2966 870 68 200 330/14 RMK AO2
14840KMKG MKG20000403221010104/03/00 22:10:31  5-MIN KMKG 040310Z 32014G19KT 10SM OVC049 07/02 A2966 870 68 200 320/14G19 RMK AO2
14840KMKG MKG20000403221510104/03/00 22:15:31  5-MIN KMKG 040315Z 32012G19KT 10SM OVC049 07/02 A2966 870 70 100 320/12G19 RMK AO2
14840KMKG MKG20000403222010104/03/00 22:20:31  5-MIN KMKG 040320Z 32019G24KT 10SM OVC049 07/02 A2966 870 70 100 330/19G24 RMK AO2
14840KMKG MKG20000403222510104/03/00 22:25:31  5-MIN KMKG 040325Z 33018G24KT 10SM OVC049 07/01 A2966 870 67 100 330/18G24 RMK AO2
14840KMKG MKG20000403223009904/03/00 22:30:31  5-MIN KMKG 040330Z 34016G24KT 10SM OVC049 06/01 A2967 860 67 0 340/16G24 RMK AO2
14840KMKG MKG20000403223519504/03/00 22:35:31  5-MIN KMKG 040335Z 33020G28KT 10SM OVC049 06/00 A2967 870 65 0 340/20G28 RMK AO2 PK WND 33028/0335 6 KMKG 040410Z 34014G22KT 10SM OVC055 06/M02 A2967 860 57 0 350/14G22 RMK AO2
14840KMKG MKG20000403231510004/03/00 23:15:31  5-MIN KMKG 040415Z 33014G20KT 10SM OVC055 06/M02 A2967 870 57 0 330/14G20 RMK AO2
14840KMKG MKG20000403232008404/03/00 23:20:31  5-MIN KMKG 040420Z 33019G23KT 10SM OV7 870 57 0 330/18G24 RMK AO2
14840KMKG MKG20000404002010304/04/00 00:20:31  5-MIN KMKG 040520Z 33018G25KT 10SM OVC045 04/M03 A2967 870 59 -100 330/18G25 RMK AO2
14840KMKG MKG20000404002510904/04/00 00:25:31  5-MIN KMKG 040525Z 33016G27KT 10SM OVC047 04/M03 A2967 A2968 850 62 -200 340/15G24 RMK AO2
14840KMKG MKG20000404013011004/04/00 01:30:31  5-MIN KMKG 040630Z 33017G20KT 10SM SCT030 OVC055 03/M03 A2967 860 64 -300 330/17G20 RMK AO2
14840KMKG MKG20000404013509804/04/00 01:35:31  5-MIN KMKG 040635Z 32013G20KT 10SM SCT030 SCT041 OVC055 03/M03 A2968 860RMK AO2
14840KMKG MKG20000404022511104/04/00 02:25:31  5-MIN KMKG 040725Z 34010KT 10SM SCT035 BKN045 OVC060 03/M04 A2968 860 61 -300 340/10 RMK AO2
14840KMKG MKG20000404023011504/04/00 02:30:31  5-MIN KMKG 040730Z 32015G19KT 10SM FEW033 BKN045 OVC060 03/M04 A2967 860 61 -300 320/15G19 RMK A
14840KMKG MKG20000404033511004/04/00 03:35:31  5-MIN KMKG 040835Z 33014G19KT 10SM BKN037 OVC055 02/M04 A2967 860 64 -400 340/14G19 RMK AO2
14840KMKG MKG20000404034011004/04/00 03:40:31  5-MIN KMKG 040840Z 32014G22KT 10SM BKN037 OVC055 02/M04 A2967 860 64 -400 330/14G22 RMK AO2
14840KMKG MKG20000404034511704/04/00 03:45:31  5-MIN KMKG 040845Z 34013G22KT 10SM SCT031 BKN039 OVC055 02/M03 A2967 860 67 -400 340/13G22 RMK AO2
14840KMKG MKG20000404035013404/04/00 03:50:31  5-MIN KMKG 040850Z 32012KT 10SM BKN031 BKN039 OVC055 02/M03 A2967 860 67 -400 320/12 RMK AO2 SLP051 T00221033 53001
14840KMKG MKG20000404035512704/04/00 03:55:31  5-MIN KMKG 040855Z 33012KT 10SM BKN031 OVC055 02/M04 A2967 860 64 -400 330/12 RMK AO2 SLP051 T00221039 50000
14840KMKG MKG20000404040010404/04/00 04:00:31  5-MIN KMKG 040900Z 33014KT 10SM BKN031 OVC038 02/M04 A2967 860 64 -400 330/14 RMK AO2
14840KMKG MKG20000404040509704/04/00 04:05:31  5-MIN KMKG 040905Z 34014KT 10SM OVC031 02/M04 A2967 860 64 -400 340/14 RMK AO2
14840KMKG MKG20000404041010304/04/00 04:10:31  5-MIN KMKG 040910Z 33014G18KT 10SM OVC031 02/M04 A2967 860 64 -400 330/14G18 RMK AO2
14840KMKG MKG20000404041509704/04/00 04:15:31  5-MIN KMKG 040915Z 33016KT 10SM OVC031 02/M03 A2967 860 67 -400 330/16 RMK AO2
14840KMKG MKG20000404042011204/04/00 04:20:31  5-MIN KMKG 040920Z 32016KT 10SM UP OVC031 02/M03 A2967 860 67 -400 330/16 RMK AO2 UPB16 P0000
14840KMKG MKG20000404042512604/04/00 04:25:31  5-MIN KMKG 040925Z 34014KT 10SM UP SCT027 BKN033 OVC055 02/M03 A2968 850 72 -500 340/14 RMK AO2 UPB16 P0000
14840KMKG MKG20000404043012604/04/00 04:30:31  5-MIN KMKG 040930Z 33016KT 10SM UP BKN030 BKN035 OVC055 02/M02 A2968 860 75 -500 340/16 RMK AO2 UPB16 P0000
14840KMKG MKG20000404043512604/04/00 04:35:31  5-MIN KMKG 040935Z 33017KT 10SM UP BKN030 BKN035 OVC055 02/M02 A2968 850 75 -500 330/17 RMK AO2 UPB16 P0000
14840KMKG MKG20000404044013404/04/00 04:40:31  5-MIN KMKG 040940Z 33015KT 8SM -SN SCT028 BKN036 OVC055 01/M02 A2968 850 78 -500 340/15 RMK AO2 UPB16E36SNB36 P0000
14840KMKG MKG20000404044514904/04/00 04:45:31  5-MIN KMKG 040945Z 33011KT 5SM -SN SCT027 BKN038 OVC050 01/M02 A2968 850 82 -500 340/11 RMK AO2 UPB16E36SNB36 CIG 030 RWY 14 P0000
14840KMKG MKG20000404045016904/04/00 04:50:31  5-MIN KMKG 040950Z 34012KT 5SM -SN BR SCT026 BKN040 OVC050 01/M01 A2968 850 85 -500 340/12 RMK AO2 UPB16E36SNB36 CIG 030 RWY 14 SLP056 P0000 T00111011
14840KMKG MKG20000404045515404/04/00 04:55:31  5-MIN KMKG 040955Z 33011KT 4SM -SN BR BKN026 BKN038 OVC050 01/M01 A2968 850 85 -500 330/11 RMK AO2 UPB16E36SNB36 SLP055 P0000 T00111011
14840KMKG MKG20000404050012304/04/00 05:00:31  5-MIN KMKG 041000Z 32011KT 4SM -SN BR BKN024 BKN029 OVC038 01/M01 A2968 850 85 -500 320/11 RMK AO2 P0000
14840KMKG MKG20000404050512304/04/00 05:05:31  5-MIN KMKG 041005Z 32013KT 3SM -SN BR BKN024 BKN032 OVC039 01/M01 A2968 850 85 -500 320/13 RMK AO2 P0000
14840KMKG MKG20000404051012004/04/00 05:10:31  5-MIN KMKG 041010Z 32013KT 2 1/2SM -SN BR BKN022 OVC036 01/M01 A2968 850 89 -600 320/13 RMK AO2 P0000
14840KMKG MKG20000404051511604/04/00 05:15:31  5-MIN KMKG 041015Z 33012KT 2SM -SN BR BKN020 OVC036 01/M01 A2969 850 89 -600 340/12 RMK AO2 P0000
14840KMKG MKG20000404052014404/04/00 05:20:31  5-MIN KMKG 041020Z 32010KT 2 1/2SM -SN BR BKN020 BKN036 OVC047 01/M01 A2968 850 89 -600 320/10 RMK AO2 VIS 1 3/4 RWY 14 P0000
14840KMKG MKG20000404052512704/04/00 05:25:31  5-MIN KMKG 041025Z 32012KT 2 1/2SM -SN BR BKN020 BKN036 OVC047 01/M01 A2969 850 89 -600 320/12 RMK AO2 P0000
14840KMKG MKG20000404053014404/04/00 05:30:31  5-MIN KMKG 041030Z 33011KT 2 1/2SM -SN BR FEW013 BKN018 OVC047 01/M01 A2969 850 89 -600 330/11 RMK AO2 VIS 1 1/2 RWY 14 P0000
14840KMKG MKG20000404053514404/04/00 05:35:31  5-MIN KMKG 041035Z 32012KT 2 1/2SM -SN BR FEW013 BKN018 OVC043 01/M01 A2969 850 92 -600 320/12 RMK AO2 VIS 1 1/2 RWY 14 P0000
14840KMKG MKG20000404054012304/04/00 05:40:31  5-MIN KMKG 041040Z 32012KT 2SM -SN BR FEW011 BKN018 OVC046 01/M01 A2969 850 92 -600 330/12 RMK AO2 P0000
14840KMKG MKG20000404054512704/04/00 05:45:31  5-MIN KMKG 041045Z 33011KT 2 1/2SM -SN BR FEW011 BKN020 OVC046 01/M01 A2969 850 92 -600 330/11 RMK AO2 P0000
14840KMKG MKG20000404055015904/04/00 05:50:31  5-MIN KMKG 041050Z 33012G17KT 3SM -SN BR FEW011 BKN020 OVC046 01/M01 A2969 840 92 -600 330/12G17 RMK AO2 VIS 2 RWY 14 SLP058 P0000 T00061006
14840KMKG MKG20000404055515204/04/00 05:55:31  5-MIN KMKG 041055Z 32012KT 2 1/2SM -SN BR FEW011 BKN018 OVC044 01/M01 A2969 850 92 -600 320/12 RMK AO2 VIS 2V3 SLP057 P0000 T00061006
14840KMKG MKG20000404060012704/04/00 06:00:31  5-MIN KMKG 041100Z 32012KT 2 1/2SM -SN BR FEW012 BKN018 OVC046 01/M01 A2969 850 92 -600 320/12 RMK AO2 P0000
14840KMKG MKG20000404060513804/04/00 06:05:31  5-MIN KMKG 041105Z 32013KT 3SM -SN BR SCT018 BKN035 OVC055 01/M01 A2969 850 92 -600 330/13 RMK AO2 CIG 018 RWY 14 P0000
14840KMKG MKG20000404061013804/04/00 06:10:31  5-MIN KMKG 041110Z 32012KT 4SM -SN BR SCT018 BKN055 OVC070 01/M01 A2969 850 89 -600 330/12 RMK AO2 CIG 044 RWY 14 P0000
14840KMKG MKG20000404061512304/04/00 06:15:31  5-MIN KMKG 041115Z 32013KT 6SM -SN BR FEW018 BKN055 OVC070 01/M01 A2969 840 89 -600 320/13 RMK AO2 P0000
14840KMKG MKG20000404062012004/04/00 06:20:31  5-MIN KMKG 041120Z 33010KT 7SM -SN FEW016 SCT055 OVC070 01/M01 A2969 840 89 -600 330/10 RMK AO2 P0000
14840KMKG MKG20000404062512004/04/00 06:25:31  5-MIN KMKG 041125Z 33011KT 8SM -SN FEW016 SCT055 OVC070 01/M01 A2969 840 89 -600 330/11 RMK AO2 P0000
14840KMKG MKG20000404063011304/04/00 06:30:31  5-MIN KMKG 041130Z 33012KT 8SM -SN FEW018 OVC070 01/M01 A2969 840 89 -600 330/12 RMK AO2 P0000
14840KMKG MKG20000404063511604/04/00 06:35:31  5-MIN KMKG 041135Z 33012KT 6SM -SN BR FEW055 OVC075 01/M01 A2970 840 89 -600 330/12 RMK AO2 P0000
14840KMKG MKG20000404064011304/04/00 06:40:31  5-MIN KMKG 041140Z 32011KT 7SM -SN FEW026 OVC075 01/M01 A2970 840 89 -600 330/11 RMK AO2 P0000
14840KMKG MKG20000404064512704/04/00 06:45:31  5-MIN KMKG 041145Z 32015KT 1 3/4SM -SN BR FEW015 SCT025 OVC075 01/M01 A2970 840 89 -600 330/15 RMK AO2 P0000
14840KMKG MKG20000404065016604/04/00 06:50:31  5-MIN KMKG 041150Z 34011KT 3/4SM -SN BR SCT013 BKN023 OVC075 00/M01 A2970 830 96 -700 350/11 RMK AO2 SLP064 P0000 60000 T00001006 10044 20000 50000
14840KMKG MKG20000404065516504/04/00 06:55:31  5-MIN KMKG 041155Z 33009KT 1/2SM SN FG FEW006 BKN014 OVC075 00/M01 A2971 830 96 -700 330/09 RMK AO2 SLP064 P0000 60000 T00001006 10044 20000 53011
14840KMKG MKG20000404070013004/04/00 07:00:31  5-MIN KMKG 041200Z 33011G17KT 1/2SM SN FG SCT004 BKN011 OVC075 00/M01 A2971 830 96 -700 330/11G17 RMK AO2 P0000
14840KMKG MKG20000404070513004/04/00 07:05:31  5-MIN KMKG 041205Z 32013G19KT 1/2SM SN FG BKN006 BKN013 OVC075 00/M01 A2971 830 96 -700 330/13G19 RMK AO2 P0001
14840KMKG MKG20000404071013004/04/00 07:10:31  5-MIN KMKG 041210Z 31014G19KT 3/4SM -SN BR BKN006 BKN013 OVC018 01/00 A2970 830 96 -600 320/14G19 RMK AO2 P0001
14840KMKG MKG20000404071511704/04/00 07:15:31  5-MIN KMKG 041215Z 32016KT 1/2SM SN FG BKN006 OVC013 00/M01 A2971 820 96 -700 320/16 RMK AO2 P0001
14840KMKG MKG20000404072011704/04/00 07:20:31  5-MIN KMKG 041220Z 32013KT 1/2SM SN FG BKN006 OVC013 00/M01 A2971 820 96 -700 330/13 RMK AO2 P0001
14840KMKG MKG20000404072511804/04/00 07:25:31  5-MIN KMKG 041225Z 33014KT 1/2SM -SN FG BKN006 OVC013 00/M01 A2971 830 96 -700 330/14 RMK AO2 P0001
14840KMKG MKG20000404073011704/04/00 07:30:31  5-MIN KMKG 041230Z 32015KT 1/2SM SN FG BKN008 OVC013 00/M01 A2972 820 96 -700 330/15 RMK AO2 P0001
14840KMKG MKG20000404073511804/04/00 07:35:31  5-MIN KMKG 041235Z 33016KT 3/4SM -SN BR BKN008 OVC013 00/M01 A2972 820 96 -700 330/16 RMK AO2 P0001
14840KMKG MKG20000404074012304/04/00 07:40:31  5-MIN KMKG 041240Z 33017KT 1SM -SN BR FEW008 BKN011 OVC018 01/M01 A2972 820 92 -700 330/17 RMK AO2 P0001
14840KMKG MKG20000404074512704/04/00 07:45:31  5-MIN KMKG 041245Z 32015KT 1 1/2SM -SN BR BKN011 BKN018 OVC041 01/M01 A2972 820 89 -700 330/15 RMK AO2 P0001
14840KMKG MKG20000404075016804/04/00 07:50:31  5-MIN KMKG 041250Z 33013KT 3SM -SN BR SCT011 BKN018 OVC041 01/M01 A2972 820 89 -700 330/13 RMK AO2 VIS 2 RWY 14 CIG 011 RWY 14 SLP069 P0001 T00061011
14840KMKG MKG20000404075514604/04/00 07:55:31  5-MIN KMKG 041255Z 32014G19KT 1SM -SN BR BKN013 BKN018 OVC041 01/M01 A2972 810 92 -700 330/14G19 RMK AO2 SLP071 P0001 T00061006
14840KMKG MKG20000404080013304/04/00 08:00:31  5-MIN KMKG 041300Z 31013G19KT 1 1/2SM -SN BR BKN013 BKN018 OVC041 01/M01 A2972 810 92 -700 320/13G19 RMK AO2 P0000
14840KMKG MKG20000404080513104/04/00 08:05:31  5-MIN KMKG 041305Z 32018G23KT 3/4SM -SN BR BKN013 BKN018 OVC041 01/M01 A2973 810 92 -700 320/18G23 RMK AO2 P0000
14840KMKG MKG20000404081013104/04/00 08:10:31  5-MIN KMKG 041310Z 32014G23KT 3/4SM -SN BR BKN011 BKN016 OVC039 00/M01 A2973 810 96 -700 330/14G23 RMK AO2 P0000
14840KMKG MKG20000404081514304/04/00 08:15:31  5-MIN KMKG 041315Z 32012G19KT 1 1/2SM -SN BR FEW008 BKN014 OVC032 01/M01 A2973 810 92 -700 330/12G19 RMK AO2 VIS 1/2V5 P0000
14840KMKG MKG20000404082012204/04/00 08:20:31  5-MIN KMKG 041320Z 32014G19KT 4SM -SN BR BKN010 OVC017 01/M01 A2973 810 92 -700 320/14G19 RMK AO2 P0000
14840KMKG MKG20000404082513904/04/00 08:25:31  5-MIN KMKG 041325Z 31012G19KT 5SM -SN BR SCT010 OVC016 01/M01 A2973 810 89 -700 320/12G19 RMK AO2 VIS 2 1/2 RWY 14 P0000
14840KMKG MKG20000404083013104/04/00 08:30:31  5-MIN KMKG 041330Z 34016G19KT 3/4SM -SN BR BKN010 BKN014 OVC018 01/M01 A2974 800 89 -700 340/16G19 RMK AO2 P0000
14840KMKG MKG20000404083513004/04/00 08:35:31  5-MIN KMKG 041335Z 33017G22KT 1/2SM SN FG BKN007 BKN013 OVC020 00/M01 A2974 800 92 -700 330/17G22 RMK AO2 P0000
14840KMKG MKG20000404084013104/04/00 08:40:31  5-MIN KMKG 041340Z 33014G22KT 1/2SM -SN FG BKN012 BKN020 OVC033 00/M01 A2974 800 92 -800 330/14G22 RMK AO2 P0000
14840KMKG MKG20000404084520704/04/00 08:45:31  5-MIN KMKG 041345Z 34016KT 2SM -SN BR BKN012 BKN022 OVC035 00/M01 A2974 790 92 -800 340/16 RMK AO2 VIS 1 1/4 RWY 14 P0000 EW025 BKN036 OVC048  01/M02 A2975 790 85 -700 320/15 RMK AO2 P0000
14840KMKG MKG20000404092012604/04/00 09:20:31  5-MIN KMKG 041420Z 33015G21KT 5SM -SN FEW022 BKN036 OVC048 01/M02 A2975 790 82 -700 330/15G21 RMK AO2 P0000
14840KMKG MKG20000404100512004/04/00 10:05:31  5-MIN KMKG 041505Z 32018KT 7SM -SN SCT021 BKN039 OVC048 01/M02 A2977 770 85 -700 330/18 RMK AO2 P0000
14840KMKG MKG20000404101007404/04/00 10:10:31  5-MIN KMKG 041510Z 33016KT 8SM -SN FEW021 BKN039 OVC046
14840KMKG MKG20000404105516104/04/00 10:55:31  5-MIN KMKG 041555Z 32016G23KT 10SM FEW026 BKN060 OVC070 01/M03 A2978 760 72 -700 330/16G23 RMK AO2 SNE17 CIG 037 RWY 14 SLP090 P0000 T00111033
14840KMKG MKG20000404110009804/04/00 11:00:31  5-MIN KMKG 041600Z 32016G23KT 10SM FEW027 BKN044 OVC060  SLP094 P0000 T00171033
14840KMKG MKG20000404115514904/04/00 11:55:31  5-MIN KMKG 041655Z 32016G23KT 8SM -SN BKN028 BKN034 OVC041 02/M03 A2980 740 69 -600 320/16G23 RMK AO2 SNB15 SLP096 P0000 T00171033
14840KMKG MKG20000404120014804/04/00 12:00:31  5-MIN KMKG 041700Z 32018G25KT 9SM -SN SCT028 19G24 RMK AO2 PK WND 30027/1730 SNE05 SLP102 P0000 60002 T00171050 10017 20000 51020
14840KMKG MKG20000404125524204/04/00 12:55:31  5-MIN KMKG 041755Z 34016G23KT 10SM OVC041 02/M05 A2982 720 61 -600 340/16G23 RMK AO2 PK WND 30027/1730 SNE05 SLP104 P0000 60002 01902/M04 A2983 710 61 -600 330/16G22 RMK AO2 PK WND 30026/1816 SNB20E30 SLP108 P0000 T00221044
14840KMKG MKG20000404135516304/04/00 13:55:31  5-MIN KMKG 041855Z 32015G22KT 10SM SCT034 BKN049 OVC055 02/M04 A2983 720 61 -600 320/15G22 RMK AO2 PK WND 30026/1816 SNB55 10E26 P0000 T00221044
14840KMKG MKG20000404150010404/04/00 15:00:31  5-MIN KMKG 042000Z 33012KT 10SM BKN049 OVC060 02/M04 A2984 700 61 -600 330/12 RMK AO2
14840KMKG MKG20000404150517004/04/00 15:05:31  5-MIN KMKG 042005Z 33012KT 10SM SCT049 OVC060 03/M04 A2984 700 59 -500 330/12 RMK AO2 00016G24KT 10SM SCT047 04/M06 A2984 700 48 -400 290/16G24 RMK AO2
14840KMKG MKG20000404160510304/04/00 16:05:31  5-MIN KMKG 042105Z 30013G20KT 10SM SCT047 04/M06 A2985 700 48 -300 310/13G20 RMK AO2
14840KMKG MKG20000404161010304/04/00 16:10:31  5-MIN KMKG 042110Z 30014G20KT 10SM SCT047 04/M06 A2985 700 50 -400 300/14G20 RMK AO2
14840KMKG MKG20000404161510304/04/00 16:15:31  5-MIN KMKG 042115Z 29014G18KT 10SM SCT047 04/M06 A2985 700 50 -400 300/14G18 RMK AO2
14840KMKG MKG20000404162009704/04/00 16:20:31  5-MIN KMKG 042120Z 29017KT 10SM SCT047 04/M06 A2985 700 50 -400 290/17 RMK AO2
14840KMKG MKG20000404162510304/04/00 16:25:31  5-MIN KMKG 042125Z 32018G21KT 10SM SCT047 04/M06 A2986 690 50 -400 320/18G21 RMK AO2
14840KMKG MKG20000404163011004/04/00 16:30:31  5-MIN KMKG 042130Z 29015G21KT 10SM FEW039 BKN070 04/M06 A2985 690 50 -400 300/15G21 RMK AO2
14840KMKG MKG20000404163510404/04/00 16:35:31  5-MIN KMKG 042135Z 29013KT 10SM SCT037 BKN070 04/M05 A2986 690 52 -400 300/13 RMK AO2
14840KMKG MKG20000404164011004/04/00 16:40:31  5-MIN KMKG 042140Z 32012G19KT 10SM SCT037 BKN070 03/M06 A2986 690 52 -500 320/12G19 RMK AO2
14840KMKG MKG20000404164511004/04/00 16:45:31  5-MIN KMKG 042145Z 30013G19KT 10SM SCT037 BKN070 03/M06 A2986 690 52 -500 300/13G19 RMK AO2
14840KMKG MKG20000404165012704/04/00 16:50:31  5-MIN KMKG 042150Z 29011G19KT 10SM FEW037 SCT070 03/M05 A2986 680 56 -500 300/11G19 RMK AO2 SLP118 T00281050
14840KMKG MKG20000404165512104/04/00 16:55:31  5-MIN KMKG 042155Z 31012KT 10SM FEW037 SCT075 03/M05 A2986 680 54 -500 320/12 RMK AO2 SLP119 T00331050
14840KMKG MKG20000404174012604/04/00 17:40:31  5-MIN KMKG 042240Z 29012KT 4SM -SN SCT028 BKN037 OVC080 02/M02 A2988 670 75 -700 290/12 RMK AO2 SNB13 P0000
14840KMKG MKG20000404182512104/04/00 18:25:31  5-MIN KMKG 042325Z 29008KT 10SM FEW015 BKN080 02/M03 A2988 660 72 -700 300/08 RMK AO2 SNB2257E15 P0000
14840KMKG MKG20000404183012104/04/00 18:30:31  5-MIN KMKG 042330Z 28007KT 10SM BKN080 02/M03 A2988 660 72 -700 290/07 RMK AO2 SNB2257E15 P0000 MK AO2
14840KMKG MKG20000404193009704/04/00 19:30:31  5-MIN KMKG 050030Z 00000KT 10SM BKN070 01/M03 A2989 660 75 -900 000/00 RMK AO2
14840KMKG MKG20000404193509704/04/00 19:35:31  5-MIN KMKG 050035Z 25003KT 10SM BKN070 01/M03 A2989 660 78 -900 260/03 RMK AO2
14840KMKG MKG20000404194004204/04/00 19:40:31  5-MIN KMKG 050040Z 2460
14840KMKG MKG20000404205011604/04/00 20:50:31  5-MIN KMKG 050150Z 20004KT 10SM BKN080 M02/M03 A2990 650 92 -1100 200/04 RMK AO2 SLP132 T10171028
14840KMKG MKG20000404205511604/04/00 20:55:31  5-MIN KMKG 050155Z 20005KT 10SM BKN080 M02/M03 A2990 650 92 -1200 210/05 RMK AO2 SLP133 T10221033
14840KMKG MKG20000404220009904/04/00 22:00:31  5-MIN KMKG 050300Z 20003KT 10SM BKN070 M02/M04 A2990 650 88 -1200 200/03 RMK AO2
14840KMKG MKG20000404220509904/04/00 22:05:31  5-MIN KMKG 050305Z 20004KT 10SM BKN070 M03/M04 A2990 650 92 -1300 200/04 RMK AO2
14840KMKG MKG20000404221003504/04/00 22:10:31  5-MIN KMKG 05650
14840KMKG MKG20000404230509604/04/00 23:05:31  5-MIN KMKG 050405Z 00000KT 10SM CLR M01/M03 A2990 650 88 -1100 000/00 RMK AO2
14840KMKG MKG20000404231009604/04/00 23:10:31  5-MIN KMKG 050410Z 00000KT 10SM CLR M02/M03 A2990 650 88 -1100 000/00 RMK AO2
14840KMKG MKG20000404231510104/04/00 23:15:31  5-MIN KMKG 050415Z 00 88 000KT 10SM CLR M02/M03 A2990 650 92  -1200 000/00 RMK AO2
14840KMKG MKG20000405002009604/05/00 00:20:31  5-MIN KMKG 050520Z 00000KT 10SM CLR M02/M03 A2990 650 92 -1200 000/00 RMK AO2
14840KMKG MKG20000405002511204/05/00 00:25:31  5-MIN KMKG 050525Z 00000KT 10SM CLR M03/M03 A2990 650 96K AO22991 640 92 -1400 000/00 RMK AO2
14840KMKG MKG20000405013509604/05/00 01:35:31  5-MIN KMKG 050635Z 00000KT 10SM CLR M04/M04 A2991 640 96 -1400 000/00 RMK AO2
14840KMKG MKG20000405023509604/05/00 02:35:31  5-MIN KMKG 050735Z 00000KT 10SM CLR M05/M06 A2990 650 92 -1600 000/00 RMK AO2
14840KMKG MKG20000405024009604/05/00 02:40:31  5-MIN KMKG 050740Z 00000KT 10SM CLR M04/M06 A2990 650 92 -1500 000/00 RMK AO2
14840KMKG MKG20000405024516004/05/00 02:45:31  5-MIN KMKG 050745Z 0004/05/00 03:55:31  5-MIN KMKG 050855Z 00000KT 10SM CLR M04/M06 A2990 650 88  -1500 000/00 RMK AO2 SLP132 T10441061 55001
14840KMKG MKG20000405040009604/05/00 04:00:31  5-MIN KMKG 050900Z 00000KT 10SM CLR M06/M07 A2990 650 92 -1600 000/00 RMK AO2
14840KMKG MKG20000405040502904/05/00 04:05:31  5-MINK AO2
14840KMKG MKG20000405050509604/05/00 05:05:31  5-MIN KMKG 051005Z 00000KT 10SM CLR M06/M07 A2990 650 92 -1600 000/00 RMK AO2
14840KMKG MKG20000405051009604/05/00 05:10:31  5-MIN KMKG 051010Z 00000KT 10SM CLR M06/M07 A2990 650 92 -1600 000/00 RMK AO2
14840KMKG MKG20000405051503504/05/00 05:15:31  5-MIN KMKG 05 88
14840KMKG MKG20000405061509604/05/00 06:15:31  5-MIN KMKG 051115Z 13004KT 10SM CLR M06/M07 A2988 670 92 -1600 140/04 RMK AO2
14840KMKG MKG20000405062009604/05/00 06:20:31  5-MIN KMKG 051120Z 14004KT 10SM CLR M06/M07 A2988 660 92 -1600 150/04 RMK AO2
14840KMKG MKG20000405062509604/05/00 06:25:31  5-MIN KMKG 051125Z 00000KT 10SM CLR M06/M07 A2989 660 92 -1700 000/00 RMK AO2
14840KMKG MKG20000405063009604/05/00 06:30:31  5-MIN KMKG 051130Z 00000KT 10SM CLR M06/M07 A2989 660 92 -1600 000/00 RMK AO2
14840KMKG MKG20000405063509604/05/00 06:35:31  5-MIN KMKG 051135Z 00000KT 10SM CLR M06/M07 A2989 660 92 -1600 000/00 RMK AO2
14840KMKG MKG20000405064009604/05/00 06:40:31  5-MIN KMKG 051140Z 00000KT 10SM CLR M06/M07 A2988 660 92 -1600 000/00 RMK AO2
14840KMKG MKG20000405064509604/05/00 06:45:31  5-MIN KMKG 051145Z 00000KT 10SM CLR M05/M07 A2989 660 88 -1600 000/00 RMK AO2
14840KMKG MKG20000405065013704/05/00 06:50:31  5-MIN KMKG 051150Z 00000KT 10SM CLR M05/M07 A2989 650 88 -1600 000/00 RMK AO2 SLP131 70002 T10501067 11033 21061 55001
14840KMKG MKG20000405065513704/05/00 06:55:31  5-MIN KMKG 051155Z 00000KT 10SM CLR M05/M07 A2990 650 88 -1600 000/00 RMK AO2 SLP133 70002 T10501067 11033 21061 55000
14840KMKG MKG20000405070009604/05/00 07:00:31  5-MIN KMKG 051200Z 00000KT 10SM CLR M05/M07 A2990 650 88 -1600 000/00 RMK AO2
14840KMKG MKG20000405070509604/05/00 07:05:31  5-MIN KMKG 051205Z 00000KT 10SM CLR M04/M06 A2991 640 88 -1500 000/00 RMK AO2
14840KMKG MKG20000405071009604/05/00 07:10:31  5-MIN KMKG 051210Z 00000KT 10SM CLR M04/M06 A2990 650 88 -1400 000/00 RMK AO2
14840KMKG MKG20000405071509604/05/00 07:15:31  5-MIN KMKG 051215Z 00000KT 10SM CLR M04/M05 A2990 650 92 -1400 000/00 RMK AO2
14840KMKG MKG20000405072009604/05/00 07:20:31  5-MIN KMKG 051220Z 00000KT 10SM CLR M03/M04 A2989 650 92 -1400 000/00 RMK AO2
14840KMKG MKG20000405072509904/05/00 07:25:31  5-MIN KMKG 051225Z 00000KT 10SM FEW110 M03/M05 A2990 650 88 -1400 000/00 RMK AO2
14840KMKG MKG20000405073009904/05/00 07:30:31  5-MIN KMKG 051230Z 00000KT 10SM FEW110 M02/M04 A2990 650 85 -1200 000/00 RMK AO2
14840KMKG MKG20000405073509904/05/00 07:35:31  5-MIN KMKG 051235Z 00000KT 10SM FEW110 M02/M04 A2991 640 88 -1200 000/00 RMK AO2
14840KMKG MKG20000405074009904/05/00 07:40:31  5-MIN KMKG 051240Z 00000KT 10SM FEW100 M01/M03 A2991 640 85 -1100 000/00 RMK AO2
14840KMKG MKG20000405074509904/05/00 07:45:31  5-MIN KMKG 051245Z 00000KT 10SM FEW100 M01/M03 A2991 640 85 -1000 000/00 RMK AO2
14840KMKG MKG20000405075011404/05/00 07:50:31  5-MIN KMKG 051250Z 00000KT 10SM FEW100 00/M02 A2991 640 85 -900 000/00 RMK AO2 SLP136 T00001022
14840KMKG MKG20000405075511404/05/00 07:55:31  5-MIN KMKG 051255Z 00000KT 10SM FEW100 01/M02 A2991 640 82 -900 000/00 RMK AO2 SLP135 T00061022
14840KMKG MKG20000405080009704/05/00 08:00:31  5-MIN KMKG 051300Z 00000KT 10SM FEW100 01/M02 A2991 640 78 -800 000/00 RMK AO2
14840KMKG MKG20000405080509704/05/00 08:05:31  5-MIN KMKG 051305Z 00000KT 10SM FEW100 02/M03 A2991 640 72 -700 000/00 RMK AO2
14840KMKG MKG20000405081009704/05/00 08:10:31  5-MIN KMKG 051310Z 00000KT 10SM FEW100 02/M02 A2991 640 75 -700 000/00 RMK AO2
14840KMKG MKG20000405081509404/05/00 08:15:31  5-MIN KMKG 051315Z 22003KT 10SM CLR 03/M02 A2991 640 69 -600 220/03 RMK AO2
14840KMKG MKG20000405082009404/05/00 08:20:31  5-MIN KMKG 051320Z 21004KT 10SM CLR 03/M03 A2991 640 64 -500 220/04 RMK AO2
14840KMKG MKG20000405082509704/05/00 08:25:31  5-MIN KMKG 051325Z VRB05KT 10SM FEW100 04/M03 A2991 640 62 -500 VRB/05 RMK AO2
14840KMKG MKG20000405083009704/05/00 08:30:31  5-MIN KMKG 051330Z 22007KT 10SM SCT100 04/M04 A2992 630 57 -500 220/07 RMK AO2
14840KMKG MKG20000405083503404/05/00 08:35:31  5-MIN KMKG 0530
14840KMKG MKG20000405085011404/05/00 08:50:31  5-MIN KMKG 051350Z 23007KT 10SM BKN095 04/M04 A2991 640 52 -400 230/07 RMK AO2 SLP136 T00441044
14840KMKG MKG20000405085511404/05/00 08:55:31  5-MIN KMKG 051355Z 22007KT 10SM BKN095 05/M04 A2991 640 52 -300 230/07 RMK AO2 SLP136 T00501039
14840KMKG MKG20000405100009704/05/00 10:00:31  5-MIN KMKG 051500Z 21006KT 10SM BKN110 06/M04 A2989 660 48 -200 210/06 RMK AO2
14840KMKG MKG20000405100509704/05/00 10:05:31  5-MIN KMKG 051505Z 19008KT 10SM BKN100 06/M04 A2989 660 48 -200 190/08 RMK AO2
14840KMKG MKG20000405101008304/05/00 10:10:31  5-MIN KMKG 051510Z 17R 08/M07 A2986 680 34 100 200/13G18 RMK AO2
14840KMKG MKG20000405111509304/05/00 11:15:31  5-MIN KMKG 051615Z 20013KT 10SM CLR 08/M07 A2986 690 34 100 210/13 RMK AO2
14840KMKG MKG20000405112009604/05/00 11:20:31  5-MIN KMKG 051620Z 19015KT 10SM CLR 08/M06 A2985 690 35 100 200/15 RMK AO2 00
14840KMKG MKG20000405121509304/05/00 12:15:31  5-MIN KMKG 051715Z 18013KT 10SM CLR 08/M07 A2982 720 32 100 180/13 RMK AO2
14840KMKG MKG20000405122009304/05/00 12:20:31  5-MIN KMKG 051720Z 19011KT 10SM CLR 08/M07 A2982 720 32 100 200/11 RMK AO2
14840KMKG MKG20000405132509904/05/00 13:25:31  5-MIN KMKG 051825Z 19015G21KT 10SM CLR 09/M08 A2979 760 27 300 190/15G21 RMK AO2
14840KMKG MKG20000405133009904/05/00 13:30:31  5-MIN KMKG 051830Z 18011G21KT 10SM CLR 09/M08 A2978 760 27 300 190/11G21 RMK AO2
14840KMKG MKG20000405133503404/05/00 13:35:31  5-MIN KMKG 0527
14840KMKG MKG20000405144009604/05/00 14:40:31  5-MIN KMKG 051940Z 19015KT 10SM SCT095 11/M09 A2972 820 24 500 190/15 RMK AO2
14840KMKG MKG20000405144509604/05/00 14:45:31  5-MIN KMKG 051945Z 17012KT 10SM FEW090 11/M08 A2971 820 25 500 180/12 RMK AO2
14840KMKG MKG20000405145011304/05/00 14:50:31  5-MIN KMKG 051950Z 18012KT 10SM FEW090 11/M08 A2971 830 25 500 180/12 RMK AO2 SLP065 T01061083
14840KMKG MKG20000405145512004/05/00 14:55:31  5-MIN KMKG 051955Z 17014KT 10SM FEW095 11/M08 A2970 830 25 500 170/14 RMK AO2 PRESFR SLP063 T01061083
14840KMKG MKG20000405150009604/05/00 15:00:31  5-MIN KMKG 052000Z 18012KT 10SM FEW090 11/M08 A2970 830 25 500 180/12 RMK AO2
14840KMKG MKG20000405150509604/05/00 15:05:31  5-MIN KMKG 052005Z 17010KT 10SM FEW090 11/M08 A2970 840 25 500 170/10 RMK AO2
14840KMKG MKG20000405151009604/05/00 15:10:31  5-MIN KMKG 052010Z 17011KT 10SM FEW090 11/M08 A2969 850 25 600 170/11 RMK AO2
14840KMKG MKG20000405151510304/05/00 15:15:31  5-MIN KMKG 052015Z 18012KT 10SM FEW090 11/M08 A2968 850 25 600 180/12 RMK AO2 PRESFR
14840KMKG MKG20000405152009304/05/00 15:20:31  5-MIN KMKG 052020Z 18010KT 10SM CLR 11/M08 A2968 860 25 600 180/10 RMK AO2
14840KMKG MKG20000405152509304/05/00 15:25:31  5-MIN KMKG 052025Z 17007KT 10SM CLR 11/M08 A2967 860 27 600 170/07 RMK AO2
14840KMKG MKG20000405153009604/05/00 15:30:31  5-MIN KMKG 052030Z 17007KT 10SM FEW065 11/M08 A2968 860 27 600 170/07 RMK AO2
14840KMKG MKG20000405153509604/05/00 15:35:31  5-MIN KMKG 052035Z 18008KT 10SM SCT065 11/M08 A2968 850 27 600 180/08 RMK AO2
14840KMKG MKG20000405154009604/05/00 15:40:31  5-MIN KMKG 052040Z 19007KT 10SM BKN060 11/M08 A2968 850 27 600 190/07 RMK AO2
14840KMKG MKG20000405154509604/05/00 15:45:31  5-MIN KMKG 052045Z 17008KT 10SM BKN060 11/M08 A2967 860 27 600 180/08 RMK AO2
14840KMKG MKG20000405155011904/05/00 15:50:31  5-MIN KMKG 052050Z 16008KT 10SM BKN060 11/M07 A2967 860 28 600 170/08 RMK AO2 SLP053 T01061072 56026
14840KMKG MKG20000405155512604/05/00 15:55:31  5-MIN KMKG 052055Z 23011KT 10SM BKN048 OVC060 10/M07 A2967 860 30 500 230/11 RMK AO2 SLP052 T01001067 56047
14840KMKG MKG20000405160010904/05/00 16:00:31  5-MIN KMKG 052100Z 19011G17KT 10SM BKN046 OVC060 10/M05 A2967 860 34 500 190/11G17 RMK AO2
14840KMKG MKG20000405160511904/05/00 16:05:31  5-MIN KMKG 052105Z 19008KT 10SM -RA BKN045 OVC060 09/M02 A2967 860 45 400 190/08 RMK AO2 RAB02 P0000
14840KMKG MKG20000405161011904/05/00 16:10:31  5-MIN KMKG 052110Z 16010KT 10SM -RA BKN045 OVC055 09/M02 A2966 870 47 400 160/10 RMK AO2 RAB02 P0000
14840KMKG MKG20000405161512504/05/00 16:15:31  5-MIN KMKG 052115Z 16012G16KT 10SM -RA BKN045 OVC055 09/M02 A2966 870 47 400 160/12G16 RMK AO2 RAB02 P0000
14840KMKG MKG20000405162011704/05/00 16:20:31  5-MIN KMKG 052120Z 15010G16KT 10SM OVC049 09/M03 A2965 880 42 500 160/10G16 RMK AO2 RAB02E18 P0000
14840KMKG MKG20000405162511104/05/00 16:25:31  5-MIN KMKG 052125Z 17008KT 10SM OVC049 09/M03 A2965 880 42 500 180/08 RMK AO2 RAB02E18 P0000
14840KMKG MKG20000405163011804/05/00 16:30:31  5-MIN KMKG 052130Z 16008KT 10SM OVC049 09/M03 A2964 890 42 500 170/08 RMK AO2 RAB02E18 PRESFR P0000
14840KMKG MKG20000405163511804/05/00 16:35:31  5-MIN KMKG 052135Z 15011KT 10SM OVC049 09/M03 A2963 900 40 500 150/11 RMK AO2 RAB02E18 PRESFR P0000
14840KMKG MKG20000405164011804/05/00 16:40:31  5-MIN KMKG 052140Z 16011KT 10SM BKN049 OVC060 10/M03 A2963 900 39 600 160/11 RMK AO2 RAB02E18 P0000
14840KMKG MKG20000405164511804/05/00 16:45:31  5-MIN KMKG 052145Z 14012KT 10SM BKN049 BKN055 10/M03 A2963 900 39 600 150/12 RMK AO2 RAB02E18 P0000
14840KMKG MKG20000405165014204/05/00 16:50:31  5-MIN KMKG 052150Z 15014KT 10SM BKN049 BKN060 BKN095 10/M04 A2962 910 37 600 160/14 RMK AO2 RAB02E18 SLP037 P0000 T01001039
14840KMKG MKG20000405165516404/05/00 16:55:31  5-MIN KMKG 052155Z 14013KT 10SM SCT049 BKN060 BKN070 10/M04 A2961 920 37 600 150/13 RMK AO2 RAB02E18 CIG 049 RWY 14 PRESFR SLP033 P0000 T01001039
14840KMKG MKG20000405170010304/05/00 17:00:31  5-MIN KMKG 052200Z 15011KT 10SM SCT049 BKN065 10/M03 A2962 910 39 600 160/11 RMK AO2
14840KMKG MKG20000405170510904/05/00 17:05:31  5-MIN KMKG 052205Z 16016G20KT 10SM FEW049 BKN065 10/M04 A2962 910 37 600 170/16G20 RMK AO2
14840KMKG MKG20000405171011604/05/00 17:10:31  5-MIN KMKG 052210Z 15014G20KT 10SM FEW049 BKN065 OVC095 10/M04 A2961 920 37 600 150/14G20 RMK AO2
14840KMKG MKG20000405171509604/05/00 17:15:31  5-MIN KMKG 052215Z 16013KT 10SM BKN065 09/M04 A2961 910 39 500 160/13 RMK AO2
14840KMKG MKG20000405172009604/05/00 17:20:31  5-MIN KMKG 052220Z 15011KT 10SM OVC065 09/M03 A2961 920 40 500 150/11 RMK AO2
14840KMKG MKG20000405172511804/05/00 17:25:31  5-MIN KMKG 052225Z 16013G17KT 10SM -RA OVC060 09/M03 A2962 910 42 500 160/13G17 RMK AO2 RAB21 P0000
14840KMKG MKG20000405173011804/05/00 17:30:31  5-MIN KMKG 052230Z 16013G18KT 10SM -RA OVC060 09/M03 A2962 910 42 500 160/13G18 RMK AO2 RAB21 P0000
14840KMKG MKG20000405173511704/05/00 17:35:31  5-MIN KMKG 052235Z 16013G18KT 10SM OVC065 09/M03 A2962 910 42 500 160/13G18 RMK AO2 RAB21E32 P0000
14840KMKG MKG20000405174011804/05/00 17:40:31  5-MIN KMKG 052240Z 15014KT 10SM BKN060 OVC100 09/M03 A2961 920 43 400 150/14 RMK AO2 RAB21E32 P0000
14840KMKG MKG20000405174511804/05/00 17:45:31  5-MIN KMKG 052245Z 15014KT 10SM BKN060 OVC100 09/M03 A2961 910 43 400 150/14 RMK AO2 RAB21E32 P0000
14840KMKG MKG20000405175013504/05/00 17:50:31  5-MIN KMKG 052250Z 14013KT 10SM BKN065 OVC100 09/M03 A2962 910 43 400 140/13 RMK AO2 RAB21E32 SLP035 P0000 T00891028
14840KMKG MKG20000405175513504/05/00 17:55:31  5-MIN KMKG 052255Z 14012KT 10SM BKN065 OVC100 09/M03 A2961 920 43 400 140/12 RMK AO2 RAB21E32 SLP034 P0000 T00891028
14840KMKG MKG20000405180010304/05/00 18:00:31  5-MIN KMKG 052300Z 14010KT 10SM BKN065 OVC100 09/M03 A2962 910 43 400 150/10 RMK AO2
14840KMKG MKG20000405180510304/05/00 18:05:31  5-MIN KMKG 052305Z 14011KT 10SM SCT070 OVC100 09/M03 A2962 910 43 400 140/11 RMK AO2
14840KMKG MKG20000405181010304/05/00 18:10:31  5-MIN KMKG 052310Z 14011KT 10SM FEW070 OVC095 09/M03 A2962 910 43 400 150/11 RMK AO2
14840KMKG MKG20000405181510304/05/00 18:15:31  5-MIN KMKG 052315Z 14011KT 10SM FEW070 OVC095 09/M03 A2962 910 43 400 140/11 RMK AO2
14840KMKG MKG20000405182010304/05/00 18:20:31  5-MIN KMKG 052320Z 14013KT 10SM FEW070 OVC095 09/M03 A2961 920 43 400 140/13 RMK AO2
14840KMKG MKG20000405182511104/05/00 18:25:31  5-MIN KMKG 052325Z 13013KT 10SM OVC095 09/M03 A2960 930 43 500 143 500 140/12 RMK AO2 PRESFR
14840KMKG MKG20000405192509604/05/00 19:25:31  5-MIN KMKG 060025Z 13012KT 10SM BKN095 08/M03 A2955 970 45 400 130/12 RMK AO2
14840KMKG MKG20000405193009604/05/00 19:30:31  5-MIN KMKG 060030Z 13012KT 10SM BKN095 08/M03 A2955 970 45 400 130/12 RMK AO2
14840KMKG MKG20000405204509504/05/00 20:45:31  5-MIN KMKG 060145Z 13012KT 10SM CLR 08/M03 A2948 1040 45  500 140/12 RMK AO2
14840KMKG MKG20000405205010304/05/00 20:50:31  5-MIN KMKG 060150Z 13014KT 10 42 700 150/16G22 RMK AO2 PRESFR SLP957 T00891033 58064
14840KMKG MKG20000405220010704/05/00 22:00:31  5-MIN KMKG 060300Z 14014G22KT 10SM CLR 09/M03 A2939 1120 42 700 150/14G22 RMK AO2 PRESFR
14840KMKG MKG20000405220510004/05/00 22:05:31  5-MIN KMKG 060305Z 14016KT 10SM CLR 09/M03 A2938 1130 40 42 900 160/14G19 RMK AO2
14840KMKG MKG20000405231510004/05/00 23:15:31  5-MIN KMKG 060415Z 18013G25KT 10SM CLR 10/M02 A2933 1180 44 900 180/13G25 RMK AO2
14840KMKG MKG20000405232010104/05/00 23:20:31  5-MIN KMKG 060420Z 18015G25KT 10SM CLR 11/M01 A2933 1180 44 1000 190/15G25 RMK AO2
14840KMKG MKG20000405232510104/05/00 23:25:31  5-MIN KMKG 060425Z 17015G21KT 10SM CLR 11/M01 A2932 1190 44 1000 170/15G21 RMK AO2
14840KMKG MKG20000405233008504/05/00 23:30:31  5-MIN KMKG 060430Z 18016G22KT 10SM CLR 12/M01 A2932 12  23027/0509
14840KMKG MKG20000406002011804/06/00 00:20:31  5-MIN KMKG 060520Z 21016G27KT 10SM CLR 11/03 A2932 1190 58 1000 210/16G27 RMK AO2 PK WND 21027/0516
14840KMKG MKG20000406002507404/06/00 00:25:31  5-MIN KMKG 060525Z 21019G27KT 10SM CLR 10/03 A2932 1190
14840KMKG MKG20000406012509904/06/00 01:25:31  5-MIN KMKG 060625Z 26013G22KT 10SM CLR 10/02 A2934 1170 58 900 260/13G22 RMK AO2
14840KMKG MKG20000406013009504/06/00 01:30:31  5-MIN KMKG 060630Z 2658 A2938 113056 800 290/17G22 RMK AO2 PK WND 29028/0705
14840KMKG MKG20000406023511704/06/00 02:35:31  5-MIN KMKG 060735Z 28016G22KT 10SM CLR 09/01 A2938 1130 56 800 280/16G22 RMK AO2 PK WND 29028/0705
14840KMKG MKG20000406034016704/06/00 03:40:31  5-MIN KMKG 060840Z 27018G25KT 10SM OVC055 10/01 A2940 1110 52 800 280/18G25 RMK AO2 PK WND 28030/0756 1080 60 600 270/15G25 RMK AO2 SLP972 T00830011
14840KMKG MKG20000406050010204/06/00 05:00:31  5-MIN KMKG 061000Z 27016G21KT 10SM OVC050 08/01 A2944 1080 60 600 280/16G21 RMK AO2
14840KMKG MKG20000406054012004/06/00 05:40:31  5-MIN KMKG 061040Z 29016G23KT 10SM OVC050 08/01 A2946 1060 62 500 290/16G23 RMK AO2 PK WND 27027/1030
14840KMKG MKG20000406054507004/06/00 05:45:31  5-MIN KMKG 061045Z 28016G23KT 10SM OVC048 08/ K AO2
14840KMKG MKG20000406064010204/06/00 06:40:31  5-MIN KMKG 061140Z 29015G22KT 10SM BKN048 07/00 A2951 1010 62 300 290/15G22 RMK AO2
14840KMKG MKG20000406064510204/06/00 06:45:31  5-MIN KMKG 061145Z 29018G24KT 10SM OVC048 07/01 A2951 1010 65 300 290/18G24 RMK AO2
14840KMKG MKG20000406065008704/06/00 06:50:31  5-MINN043 07/00 A2955 970 62 200 290/11G27 RMK AO2 PK WND 29027/1236
14840KMKG MKG20000406075013604/06/00 07:50:31  5-MIN KMKG 061250Z 29016G20KT 10SM BKN043 07/00 A2955 970 62 200 290/16G20 RMK AO2 PK WND 29027/1236 SLP010 T00670000
14840KMKG MKG20000406075507004/06/00 07:55:31  5-MIN KMKG 06 00 290/14G24 RMK AO2 SLP027 T00670000
14840KMKG MKG20000406090010104/06/00 09:00:31  5-MIN KMKG 061400Z 28017G24KT 10SM OVC040 07/00 A2960 930 60 300 290/17G24 RMK AO2
14840KMKG MKG20000406090507204/06/00 09:05:31  5-MIN KMKG 061405Z 28016G21KT 10SM OVC040 07/00 A2961
14840KMKG MKG20000406101510104/06/00 10:15:31  5-MIN KMKG 061515Z 27012G19KT 10SM OVC040 07/01 A2966 870 65 100 270/12G19 RMK AO2
14840KMKG MKG20000406102005404/06/00 10:20:31  5-MIN KMKG 06 65 200 260/12 RMK AO2
14840KMKG MKG20000406112010104/06/00 11:20:31  5-MIN KMKG 061620Z 26013G19KT 10SM OVC042 07/01 A2969 840 65 200 270/13G19 RMK AO2
14840KMKG MKG20000406112509504/06/00 11:25:31  5-MIN KMKG 061625Z 25014KT 10SM OVC042 07/01 A2969 840 65 100 260/14 RMK AO2
14840KMKG MKG20000406113009504/06/00 11:30:31  5-MIN KMKG 061630Z 26011KT 10SM OVC044 07/02 A2970 840 68 100 270/11 RMK AO2
14840KMKG MKG20000406113510104/06/00 11:35:31  5-MIN KMKG 061635Z 27013G18KT 10SM OVC044 08/02 A2970 840 65 200 270/13G18 RMK AO2
14840KMKG MKG20000406114010104/06/00 11:40:31  5-MIN KMKG 061640Z 27015G19KT 10SM OVC044 08/01 A2970 840 62 200 270/15G19 RMK AO2
14840KMKG MKG20000406114510104/06/00 11:45:31  5-MIN KMKG 061645Z 27011G19KT 10SM OVC044 08/01 A2970 830 62 200 270/11G19 RMK AO2
14840KMKG MKG20000406115011804/06/00 11:50:31  5-MIN KMKG 061650Z 27014G21KT 10SM OVC044 08/01 A2970 830 60 200 280/14G21 RMK AO2 SLP061 T00780006
14840KMKG MKG20000406115511804/06/00 11:55:31  5-MIN KMKG 061655Z 28016G21KT 10SM OVC046 08/01 A2971 830 60 200 280/16G21 RMK AO2 SLP063 T00780006
14840KMKG MKG20000406120011104/06/00 12:00:31  5-MIN KMKG 061700Z AUTO 27014G20KT 10SM OVC046 08/01 A2971 820 60 200 270/14G20 RMK AO2 TSNO
14840KMKG MKG20000406120509504/06/00 12:05:31  5-MIN KMKG 061705Z 27012KT 10SM OVC046 08/01 A2971 820 60 200 270/12 RMK AO2
14840KMKG MKG20000406121009504/06/00 12:10:31  5-MIN KMKG 061710Z 27013KT 10SM OVC048 08/01 A2972 820 58 300 270/13 RMK AO2
14840KMKG MKG20000406121509504/06/00 12:15:31  5-MIN KMKG 061715Z 27012KT 10SM OVC048 08/01 A2972 820 58 300 270/12 RMK AO2
14840KMKG MKG20000406122009504/06/00 12:20:31  5-MIN KMKG 061720Z 26013KT 10SM OVC048 08/01 A2972 820 60 200 270/13 RMK AO2
14840KMKG MKG20000406122509504/06/00 12:25:31  5-MIN KMKG 061725Z 27011KT 10SM OVC048 08/01 A2972 810 62 200 270/11 RMK AO2
14840KMKG MKG20000406123009504/06/00 12:30:31  5-MIN KMKG 061730Z 26013KT 10SM OVC050 08/01 A2972 810 60 200 270/13 RMK AO2
14840KMKG MKG20000406123509504/06/00 12:35:31  5-MIN KMKG 061735Z 27010KT 10SM OVC050 09/01 A2973 810 58 300 270/10 RMK AO2
14840KMKG MKG20000406124009504/06/00 12:40:31  5-MIN KMKG 061740Z 26012KT 10SM OVC050 08/01 A2973 810 58 200 260/12 RMK AO2
14840KMKG MKG20000406124509504/06/00 12:45:31  5-MIN KMKG 061745Z 27011KT 10SM OVC050 09/01 A2973 810 56 300 270/11 RMK AO2
14840KMKG MKG20000406125013604/06/00 12:50:31  5-MIN KMKG 061750Z 25013G18KT 10SM OVC050 09/01 A2973 810 56 300 260/13G18 RMK AO2 SLP069 T00890006 10089 20067 53041
14840KMKG MKG20000406125513604/06/00 12:55:31  5-MIN KMKG 061755Z 26013G19KT 10SM BKN050 09/01 A2973 810 53 400 260/13G19 RMK AO2 SLP069 T00940006 10094 20067 51028
14840KMKG MKG20000406130010104/06/00 13:00:31  5-MIN KMKG 061800Z 27014G19KT 10SM BKN050 09/01 A2973 810 56 400 270/14G19 RMK AO2
14840KMKG MKG20000406130509504/06/00 13:05:31  5-MIN KMKG 061805Z 27012KT 10SM BKN050 10/01 A2973 810 52 400 280/12 RMK AO2
14840KMKG MKG20000406131010104/06/00 13:10:31  5-MIN KMKG 061810Z 27014G20KT 10SM SCT055 10/00 A2973 810 49 400 280/14G20 RMK AO2
14840KMKG MKG20000406131510104/06/00 13:15:31  5-MIN KMKG 061815Z 27011G20KT 10SM FEW055 10/01 A2973 800 52 400 280/11G20 RMK AO2
14840KMKG MKG20000406132010104/06/00 13:20:31  5-MIN KMKG 061820Z 27014G19KT 10SM FEW055 10/00 A2974 800 49 400 270/14G19 RMK AO2
14840KMKG MKG20000406132510104/06/00 13:25:31  5-MIN KMKG 061825Z 29011G19KT 10SM FEW055 11/00 A2974 800 48 500 290/11G19 RMK AO2
14840KMKG MKG20000406133009204/06/00 13:30:31  5-MIN KMKG 061830Z 28012KT 10SM CLR 11/00 A2974 800 48 500 280/12 RMK AO2
14840KMKG MKG20000406133509504/06/00 13:35:31  5-MIN KMKG 061835Z 28013KT 10SM FEW055 10/00 A2974 800 49 400 280/13 RMK AO2
14840KMKG MKG20000406134009504/06/00 13:40:31  5-MIN KMKG 061840Z 28013KT 10SM FEW055 11/01 A2974 800 50 500 280/13 RMK AO2
14840KMKG MKG20000406134509504/06/00 13:45:31  5-MIN KMKG 061845Z 28011KT 10SM FEW055 11/00 A2974 800 48 500 280/11 RMK AO2
14840KMKG MKG20000406135012804/06/00 13:50:31  5-MIN KMKG 061850Z 30012KT 260V320 10SM FEW055 11/00 A2974 800 46 600 300/12 260V320 RMK AO2 SLP074 T01110000
14840KMKG MKG20000406135511804/06/00 13:55:31  5-MIN KMKG 061855Z 27014G17KT 10SM FEW055 11/00 A2975 790 48 500 280/14G17 RMK AO2 SLP075 T01060000
14840KMKG MKG20000406140009504/06/00 14:00:31  5-MIN KMKG 061900Z 27012KT 10SM FEW055 11/00 A2975 790 48 500 280/12 RMK AO2
14840KMKG MKG20000406140509504/06/00 14:05:31  5-MIN KMKG 061905Z 29013KT 10SM FEW055 11/00 A2975 790 48 500 290/13 RMK AO2
14840KMKG MKG20000406141010104/06/00 14:10:31  5-MIN KMKG 061910Z 28012G18KT 10SM FEW055 11/00 A2975 790 48 500 290/12G18 RMK AO2
14840KMKG MKG20000406141510104/06/00 14:15:31  5-MIN KMKG 061915Z 29011G18KT 10SM FEW055 11/01 A2975 780 50 500 290/11G18 RMK AO2
14840KMKG MKG20000406142009504/06/00 14:20:31  5-MIN KMKG 061920Z 27012KT 10SM FEW055 11/00 A2976 780 48 500 270/12 RMK AO2
14840KMKG MKG20000406142509504/06/00 14:25:31  5-MIN KMKG 061925Z 27011KT 10SM FEW055 11/00 A2976 780 48 500 270/11 RMK AO2
14840KMKG MKG20000406143010104/06/00 14:30:31  5-MIN KMKG 061930Z 27011G17KT 10SM FEW055 11/00 A2976 780 46 500 280/11G17 RMK AO2
14840KMKG MKG20000406143510104/06/00 14:35:31  5-MIN KMKG 061935Z 26013G17KT 10SM FEW055 11/01 A2976 780 50 500 260/13G17 RMK AO2
14840KMKG MKG20000406144009504/06/00 14:40:31  5-MIN KMKG 061940Z 25011KT 10SM FEW055 11/01 A2976 780 52 500 260/11 RMK AO2
14840KMKG MKG20000406144509504/06/00 14:45:31  5-MIN KMKG 061945Z 27009KT 10SM FEW055 10/01 A2976 780 54 400 280/09 RMK AO2
14840KMKG MKG20000406145011204/06/00 14:50:31  5-MIN KMKG 061950Z 26011KT 10SM FEW055 11/01 A2976 780 52 500 260/11 RMK AO2 SLP080 T01060011
14840KMKG MKG20000406145511204/06/00 14:55:31  5-MIN KMKG 061955Z 26010KT 10SM FEW055 10/01 A2976 780 54 400 270/10 RMK AO2 SLP080 T01000011
14840KMKG MKG20000406150009204/06/00 15:00:31  5-MIN KMKG 062000Z 24009KT 10SM CLR 11/01 A2976 780 52 500 250/09 RMK AO2
14840KMKG MKG20000406150509204/06/00 15:05:31  5-MIN KMKG 062005Z 25010KT 10SM CLR 10/01 A2976 770 54 400 260/10 RMK AO2
14840KMKG MKG20000406151009804/06/00 15:10:31  5-MIN KMKG 062010Z 24008G17KT 10SM CLR 11/02 A2977 770 54 500 250/08G17 RMK AO2
14840KMKG MKG20000406151509804/06/00 15:15:31  5-MIN KMKG 062015Z 26008G17KT 10SM CLR 11/01 A2977 770 52 500 260/08G17 RMK AO2
14840KMKG MKG20000406152009204/06/00 15:20:31  5-MIN KMKG 062020Z 25007KT 10SM CLR 11/01 A2977 770 50 500 260/07 RMK AO2
14840KMKG MKG20000406152509204/06/00 15:25:31  5-MIN KMKG 062025Z 25007KT 10SM CLR 11/01 A2977 770 50 500 250/07 RMK AO2
14840KMKG MKG20000406153009204/06/00 15:30:31  5-MIN KMKG 062030Z 25007KT 10SM CLR 11/01 A2977 770 52 500 260/07 RMK AO2
14840KMKG MKG20000406153510804/06/00 15:35:31  5-MIN KMKG 062035Z 27009KT 250V310 10SM CLR 11/01 A2977 770 50 500 270/09 250V310 RMK AO2
14840KMKG MKG20000406154009204/06/00 15:40:31  5-MIN KMKG 062040Z 30009KT 10SM CLR 11/00 A2977 770 48 500 300/09 RMK AO2
14840KMKG MKG20000406154510804/06/00 15:45:31  5-MIN KMKG 062045Z 29007KT 260V330 10SM CLR 11/01 A2977 770 48 500 300/07 260V330 RMK AO2
14840KMKG MKG20000406155011504/06/00 15:50:31  5-MIN KMKG 062050Z 28009KT 10SM CLR 11/00 A2977 770 46 500 280/09 RMK AO2 SLP084 T01110000 51028
14840KMKG MKG20000406155511504/06/00 15:55:31  5-MIN KMKG 062055Z 25007KT 10SM CLR 11/01 A2978 760 48 500 260/07 RMK AO2 SLP085 T01110006 51016
14840KMKG MKG20000406160009204/06/00 16:00:31  5-MIN KMKG 062100Z 25007KT 10SM CLR 11/01 A2978 760 52 500 260/07 RMK AO2
14840KMKG MKG20000406160510804/06/00 16:05:31  5-MIN KMKG 062105Z 28008KT 230V290 10SM CLR 11/01 A2978 760 50 500 280/08 230V290 RMK AO2
14840KMKG MKG20000406161009204/06/00 16:10:31  5-MIN KMKG 062110Z 26008KT 10SM CLR 11/01 A2977 770 50 500 270/08 RMK AO2
14840KMKG MKG20000406161506204/06/00 16:15:31  5-MIN KMKG 062115Z 288 46400 310/06 RMK AO2
14840KMKG MKG20000406171009304/06/00 17:10:31  5-MIN KMKG 062210Z 27007KT 10SM CLR 11/M01 A2978 760 44 500 280/07 RMK AO2
14840KMKG MKG20000406171509304/06/00 17:15:31  5-MIN KMKG 062215Z 26007KT 10SM CLR 11/M01 A2978 760 46 400 270/07 RMK AO2
14840KMKG MKG20000406172002604/06/00 17:20:31  5-MINO2
14840KMKG MKG20000406182509204/06/00 18:25:31  5-MIN KMKG 062325Z 23006KT 10SM CLR 09/00 A2980 750 53 200 230/06 RMK AO2
14840KMKG MKG20000406183009304/06/00 18:30:31  5-MIN KMKG 062330Z 23007KT 10SM CLR 09/M01 A2980 740 51 200 230/07 RMK AO2
14840KMKG MKG20000406195011004/06/00 19:50:31  5-MIN KMKG 070050Z 00000KT 10SM CLR 06/01 A2981 730 70 -100 000/00 RMK AO2 SLP098 T00610011
14840KMKG MKG20000406195511004/06/00 19:55:31  5-MIN KMKG 070055Z 19003KT 10SM CLR 06/01 A2981 730 70 -100 190/03 RMK AO2 SLP099 T00610011
14840KMKG MKG20000406211509304/06/00 21:15:31  5-MIN KMKG 070215Z 20003KT 10SM CLR 03/01 A2985 690 85 -500 200/03 RMK AO2
14840KMKG MKG20000406212010004/06/00 21:20:31  5-MIN KMKG 070220Z 20003KT 10003KT 10SM CLR 02/01 A2988 670 89-600 230/03 RMK AO2
14840KMKG MKG20000406221009304/06/00 22:10:31  5-MIN KMKG 070310Z 00000KT 10SM CLR 02/00 A2988 670 85 -600 000/00 RMK AO2
14840KMKG MKG20000406225011004/06/00 22:50:31  5-MIN KMKG 070350Z 00000KT 10SM CLR 04/01 A2987 670 82 -400 000/00 RMK AO2 SLP121 T00390011
14840KMKG MKG20000406225508004/06/00 22:55:31  5-MIN KMKG 070355Z 00000KT 10SM CLR 03/01 A2988 670 804/06/00
14840KMKG MKG20000407000011604/07/00 00:00:31  5-MIN KMKG 070500Z 00000KT 10SM FEW120 03/02 A2990 650 89 -500 000/00 RMK AO2 04/07/00 00:05:30 3
14840KMKG MKG20000407011009604/07/00 01:10:31  5-MIN KMKG 070610Z 07004KT 10SM BKN120 03/01 A2989 660 85 -500 080/04 RMK AO2
14840KMKG MKG20000407011508004/07/00 01:15:31  5-MIN KMKG 070615Z 07003KT 10SM OVC120 82 -400 060/04 RMK AO2
14840KMKG MKG20000407022509604/07/00 02:25:31  5-MIN KMKG 070725Z 06006KT 10SM OVC110 04/01 A2989 660 79 -400 060/06 RMK AO2
14840KMKG MKG20000407023009604/07/00 02:30:31  5-MIN KMKG 070730Z 05007KT 10SM OVC110 04/01 A2989 660 79 -400 060/07 RMK AO2
14840KMKG MKG20000407023509604/07/00 02:35:31  5-MIN KMKG 070735Z 06007KT 10SM OVC110 04/01 A2989 660 79 -400 070/07 RMK AO2
14840KMKG MKG20000407024009604/07/00 02:40:31  5-MIN KMKG 070740Z 08007KT 10SM OVC110 04/01 A2988 660 79 -400 080/07 RMK AO2
14840KMKG MKG20000407024509604/07/00 02:45:31  5-MIN KMKG 070745Z 07007KT 10SM OVC110 04/01 A2988 670 79 -400 080/07 RMK AO2
14840KMKG MKG20000407025011304/07/00 02:50:31  5-MIN KMKG 070750Z 06005KT 10SM OVC110 04/01 A2988 670 79 -400 060/05 RMK AO2 SLP122 T00440011
14840KMKG MKG20000407025511304/07/00 02:55:31  5-MIN KMKG 070755Z 07006KT 10SM OVC100 05/01 A2988 670 73 -300 080/06 RMK AO2 SLP120 T00500006
14840KMKG MKG20000407030009604/07/00 03:00:31  5-MIN KMKG 070800Z 07006KT 10SM OVC100 05/01 A2988 670 73 -300 070/06 RMK AO2
14840KMKG MKG20000407030509604/07/00 03:05:31  5-MIN KMKG 070805Z 07005KT 10SM OVC100 05/01 A2988 670 73 -300 070/05 RMK AO2
14840KMKG MKG20000407031009604/07/00 03:10:31  5-MIN KMKG 070810Z 08005KT 10SM OVC100 05/01 A2987 670 73 -300 080/05 RMK AO2
14840KMKG MKG20000407031509604/07/00 03:15:31  5-MIN KMKG 070815Z 07005KT 10SM OVC100 05/01 A2987 670 73 -300 070/05 RMK AO2
14840KMKG MKG20000407032009604/07/00 03:20:31  5-MIN KMKG 070820Z 07006KT 10SM OVC100 05/01 A2987 680 73 -300 080/06 RMK AO2
14840KMKG MKG20000407032509604/07/00 03:25:31  5-MIN KMKG 070825Z 08006KT 10SM OVC100 05/01 A2987 680 73 -300 080/06 RMK AO2
14840KMKG MKG20000407033009604/07/00 03:30:31  5-MIN KMKG 070830Z 07006KT 10SM OVC100 05/00 A2987 680 70 -300 070/06 RMK AO2
14840KMKG MKG20000407033509604/07/00 03:35:31  5-MIN KMKG 070835Z 07006KT 10SM OVC100 05/00 A2987 680 70 -300 070/06 RMK AO2
14840KMKG MKG20000407034009604/07/00 03:40:31  5-MIN KMKG 070840Z 08006KT 10SM OVC110 05/00 A2986 680 70 -300 080/06 RMK AO2
14840KMKG MKG20000407034509604/07/00 03:45:31  5-MIN KMKG 070845Z 07008KT 10SM OVC100 05/00 A2986 680 70 -300 070/08 RMK AO2
14840KMKG MKG20000407035012004/07/00 03:50:31  5-MIN KMKG 070850Z 07009KT 10SM OVC100 05/M01 A2986 690 67 -300 070/09 RMK AO2 SLP114 T00501006 50006
14840KMKG MKG20000407035512004/07/00 03:55:31  5-MIN KMKG 070855Z 07010KT 10SM OVC100 05/M01 A2985 690 67 -300 080/10 RMK AO2 SLP113 T00501006 58013
14840KMKG MKG20000407040009704/07/00 04:00:31  5-MIN KMKG 070900Z 08010KT 10SM OVC100 05/M01 A2985 700 67 -300 080/10 RMK AO2
14840KMKG MKG20000407040509704/07/00 04:05:31  5-MIN KMKG 070905Z 08009KT 10SM BKN100 04/M01 A2985 690 70 -300 080/09 RMK AO2
14840KMKG MKG20000407041009704/07/00 04:10:31  5-MIN KMKG 070910Z 08007KT 10SM BKN100 04/M01 A2986 690 70 -300 080/07 RMK AO2
14840KMKG MKG20000407041509704/07/00 04:15:31  5-MIN KMKG 070915Z 07008KT 10SM SCT100 04/M01 A2986 690 70 -400 070/08 RMK AO2
14840KMKG MKG20000407042009704/07/00 04:20:31  5-MIN KMKG 070920Z 07008KT 10SM FEW100 04/M01 A2986 690 67 -300 070/08 RMK AO2
14840KMKG MKG20000407042509704/07/00 04:25:31  5-MIN KMKG 070925Z 06008KT 10SM FEW100 04/M01 A2985 690 70 -400 070/08 RMK AO2
14840KMKG MKG20000407043009404/07/00 04:30:31  5-MIN KMKG 070930Z 06009KT 10SM CLR 04/M01 A2985 690 67 -300 060/09 RMK AO2
14840KMKG MKG20000407043509404/07/00 04:35:31  5-MIN KMKG 070935Z 06010KT 10SM CLR 04/M01 A2985 690 67 -300 060/10 RMK AO2
14840KMKG MKG20000407044009404/07/00 04:40:31  5-MIN KMKG 070940Z 07009KT 10SM CLR 04/M01 A2985 700 70 -400 070/09 RMK AO2
14840KMKG MKG20000407044509404/07/00 04:45:31  5-MIN KMKG 070945Z 07008KT 10SM CLR 04/M01 A2984 700 70 -400 070/08 RMK AO2
14840KMKG MKG20000407045011104/07/00 04:50:31  5-MIN KMKG 070950Z 08008KT 10SM CLR 04/M01 A2986 690 70 -400 080/08 RMK AO2 SLP113 T00391011
14840KMKG MKG20000407045511104/07/00 04:55:31  5-MIN KMKG 070955Z 07009KT 10SM CLR 04/M01 A2984 700 70 -400 080/09 RMK AO2 SLP110 T00391011
14840KMKG MKG20000407050009404/07/00 05:00:31  5-MIN KMKG 071000Z 06009KT 10SM CLR 04/M01 A2984 700 70 -400 070/09 RMK AO2
14840KMKG MKG20000407050509404/07/00 05:05:31  5-MIN KMKG 071005Z 07010KT 10SM CLR 04/M01 A2985 700 70 -400 070/10 RMK AO2
14840KMKG MKG20000407051009404/07/00 05:10:31  5-MIN KMKG 071010Z 07010KT 10SM CLR 04/M01 A2984 700 70 -400 070/10 RMK AO2
14840KMKG MKG20000407051509404/07/00 05:15:31  5-MIN KMKG 071015Z 07009KT 10SM CLR 04/M01 A2985 700 70 -400 080/09 RMK AO2
14840KMKG MKG20000407052009404/07/00 05:20:31  5-MIN KMKG 071020Z 07010KT 10SM CLR 04/M01 A2985 700 70 -400 070/10 RMK AO2
14840KMKG MKG20000407052509404/07/00 05:25:31  5-MIN KMKG 071025Z 07009KT 10SM CLR 04/M01 A2985 700 70 -400 070/09 RMK AO2
14840KMKG MKG20000407053009404/07/00 05:30:31  5-MIN KMKG 071030Z 06009KT 10SM CLR 04/M01 A2985 690 70 -400 060/09 RMK AO2
14840KMKG MKG20000407053509404/07/00 05:35:31  5-MIN KMKG 071035Z 07009KT 10SM CLR 04/M01 A2986 690 70 -400 070/09 RMK AO2
14840KMKG MKG20000407054009404/07/00 05:40:31  5-MIN KMKG 071040Z 07009KT 10SM CLR 04/M01 A2986 690 70 -400 070/09 RMK AO2
14840KMKG MKG20000407054509404/07/00 05:45:31  5-MIN KMKG 071045Z 07010KT 10SM CLR 04/M01 A2986 680 70 -400 070/10 RMK AO2
14840KMKG MKG20000407055011104/07/00 05:50:31  5-MIN KMKG 071050Z 07009KT 10SM CLR 04/M01 A2986 680 70 -400 070/09 RMK AO2 SLP116 T00391011
14840KMKG MKG20000407055511104/07/00 05:55:31  5-MIN KMKG 071055Z 06008KT 10SM CLR 04/M01 A2986 680 70 -400 070/08 RMK AO2 SLP116 T00391011
14840KMKG MKG20000407060009404/07/00 06:00:31  5-MIN KMKG 071100Z 07009KT 10SM CLR 04/M01 A2986 690 70 -400 070/09 RMK AO2
14840KMKG MKG20000407060509404/07/00 06:05:31  5-MIN KMKG 071105Z 07010KT 10SM CLR 04/M01 A2986 690 70 -400 070/10 RMK AO2
14840KMKG MKG20000407061009404/07/00 06:10:31  5-MIN KMKG 071110Z 07011KT 10SM CLR 04/M01 A2986 690 70 -400 080/11 RMK AO2
14840KMKG MKG20000407061509404/07/00 06:15:31  5-MIN KMKG 071115Z 07009KT 10SM CLR 04/M01 A2987 680 70 -400 070/09 RMK AO2
14840KMKG MKG20000407062009404/07/00 06:20:31  5-MIN KMKG 071120Z 07009KT 10SM CLR 04/M01 A2987 680 70 -400 080/09 RMK AO2
14840KMKG MKG20000407062509404/07/00 06:25:31  5-MIN KMKG 071125Z 07010KT 10SM CLR 04/M01 A2986 680 70 -400 070/10 RMK AO2
14840KMKG MKG20000407063009404/07/00 06:30:31  5-MIN KMKG 071130Z 06010KT 10SM CLR 04/M01 A2986 680 70 -400 070/10 RMK AO2
14840KMKG MKG20000407063509404/07/00 06:35:31  5-MIN KMKG 071135Z 06010KT 10SM CLR 04/M02 A2987 670 67 -400 060/10 RMK AO2
14840KMKG MKG20000407064009704/07/00 06:40:31  5-MIN KMKG 071140Z 06010KT 10SM FEW110 04/M02 A2987 680 67 -400 070/10 RMK AO2
14840KMKG MKG20000407064509704/07/00 06:45:31  5-MIN KMKG 071145Z 06009KT 10SM FEW110 04/M02 A2988 670 67 -400 070/09 RMK AO2
14840KMKG MKG20000407065013204/07/00 06:50:31  5-MIN KMKG 071150Z 07009KT 10SM FEW110 04/M02 A2987 670 67 -400 070/09 RMK AO2 SLP120 T00391017 10050 20033 58013
14840KMKG MKG20000407065513204/07/00 06:55:31  5-MIN KMKG 071155Z 07010KT 10SM FEW110 04/M01 A2987 670 70 -400 070/10 RMK AO2 SLP120 T00391011 10050 20033 53006
14840KMKG MKG20000407070009704/07/00 07:00:31  5-MIN KMKG 071200Z 07009KT 10SM FEW100 04/M01 A2987 680 70 -400 080/09 RMK AO2
14840KMKG MKG20000407070509704/07/00 07:05:31  5-MIN KMKG 071205Z 07010KT 10SM FEW090 04/M01 A2988 670 67 -400 080/10 RMK AO2
14840KMKG MKG20000407071009704/07/00 07:10:31  5-MIN KMKG 071210Z 07010KT 10SM FEW080 04/M02 A2988 670 64 -400 080/10 RMK AO2
14840KMKG MKG20000407071509704/07/00 07:15:31  5-MIN KMKG 071215Z 07011KT 10SM FEW075 04/M02 A2988 670 64 -400 070/11 RMK AO2
14840KMKG MKG20000407072009704/07/00 07:20:31  5-MIN KMKG 071220Z 07010KT 10SM FEW075 04/M02 A2988 670 64 -400 080/10 RMK AO2
14840KMKG MKG20000407072509704/07/00 07:25:31  5-MIN KMKG 071225Z 08010KT 10SM FEW075 04/M01 A2988 670 67 -400 080/10 RMK AO2
14840KMKG MKG20000407073009704/07/00 07:30:31  5-MIN KMKG 071230Z 07011KT 10SM FEW080 04/M01 A2988 670 67 -400 080/11 RMK AO2
14840KMKG MKG20000407073509704/07/00 07:35:31  5-MIN KMKG 071235Z 08011KT 10SM FEW075 04/M02 A2988 670 64 -400 080/11 RMK AO2
14840KMKG MKG20000407074009704/07/00 07:40:31  5-MIN KMKG 071240Z 07012KT 10SM FEW075 04/M02 A2988 670 64 -400 080/12 RMK AO2
14840KMKG MKG20000407074510704/07/00 07:45:31  5-MIN KMKG 071245Z AUTO 07012KT 10SM SCT075 04/M02 A2989 660 64 -400 070/12 RMK AO2 TSNO
14840KMKG MKG20000407075012404/07/00 07:50:31  5-MIN KMKG 071250Z AUTO 06011KT 10SM SCT070 04/M02 A2989 660 64 -400 060/11 RMK AO2 SLP126 T00441017 TSNO
14840KMKG MKG20000407075513104/07/00 07:55:31  5-MIN KMKG 071255Z AUTO 07011KT 10SM BKN070 04/M02 A2990 650 64 -400 070/11 RMK AO2 PRESRR SLP129 T00441017 TSNO
14840KMKG MKG20000407080011404/07/00 08:00:31  5-MIN KMKG 071300Z AUTO 07011KT 10SM BKN065 BKN080 04/M02 A2990 650 64 -400 070/11 RMK AO2 TSNO
14840KMKG MKG20000407080510704/07/00 08:05:31  5-MIN KMKG 071305Z AUTO 07012KT 10SM BKN065 04/M01 A2990 650 67 -400 070/12 RMK AO2 TSNO
14840KMKG MKG20000407081010704/07/00 08:10:31  5-MIN KMKG 071310Z AUTO 07010KT 10SM BKN070 04/M01 A2991 640 67 -400 070/10 RMK AO2 TSNO
14840KMKG MKG20000407081511404/07/00 08:15:31  5-MIN KMKG 071315Z AUTO 07009KT 10SM BKN065 04/M01 A2992 630 67 -400 070/09 RMK AO2 PRESRR TSNO
14840KMKG MKG20000407082011404/07/00 08:20:31  5-MIN KMKG 071320Z AUTO 07012KT 10SM BKN065 04/M01 A2993 620 67 -400 070/12 RMK AO2 PRESRR TSNO
14840KMKG MKG20000407082511404/07/00 08:25:31  5-MIN KMKG 071325Z AUTO 07011KT 10SM OVC065 04/M01 A2993 620 67 -400 080/11 RMK AO2 PRESRR TSNO
14840KMKG MKG20000407083010704/07/00 08:30:31  5-MIN KMKG 071330Z AUTO 06011KT 10SM BKN070 04/M01 A2994 620 67 -400 070/11 RMK AO2 TSNO
14840KMKG MKG20000407083512104/07/00 08:35:31  5-MIN KMKG 071335Z AUTO 06013KT 10SM FEW045 BKN060 BKN070 04/M01 A2993 620 67 -400 070/13 RMK AO2 TSNO
14840KMKG MKG20000407084011404/07/00 08:40:31  5-MIN KMKG 071340Z AUTO 06013KT 10SM FEW043 BKN060 05/M01 A2994 620 64 -400 060/13 RMK AO2 TSNO
14840KMKG MKG20000407084512104/07/00 08:45:31  5-MIN KMKG 071345Z AUTO 06012KT 10SM FEW041 BKN050 BKN070 04/M01 A2994 610 67 -400 060/12 RMK AO2 TSNO
14840KMKG MKG20000407085013804/07/00 08:50:31  5-MIN KMKG 071350Z AUTO 06012KT 10SM FEW032 BKN048 BKN065 04/M01 A2994 610 67 -400 060/12 RMK AO2 SLP145 T00441011 TSNO
14840KMKG MKG20000407085513804/07/00 08:55:31  5-MIN KMKG 071355Z AUTO 06013KT 10SM BKN043 BKN050 BKN060 04/M01 A2994 610 67 -400 070/13 RMK AO2 SLP145 T00441011 TSNO
14840KMKG MKG20000407090013904/07/00 09:00:31  5-MIN KMKG 071400Z AUTO 06011KT 10SM -RA BKN041 BKN050 OVC065 04/M01 A2994 610 67 -400 070/11 RMK AO2 RAB1358 P0000 TSNO
14840KMKG MKG20000407090513904/07/00 09:05:31  5-MIN KMKG 071405Z AUTO 06015KT 10SM -RA BKN041 BKN050 OVC065 04/M01 A2994 620 67 -400 070/15 RMK AO2 RAB1358 P0000 TSNO
14840KMKG MKG20000407091013104/07/00 09:10:31  5-MIN KMKG 071410Z AUTO 06015KT 10SM BKN039 OVC050 04/M01 A2993 620 67 -400 060/15 RMK AO2 RAB1358E08 P0000 TSNO
14840KMKG MKG20000407091513804/07/00 09:15:31  5-MIN KMKG 071415Z AUTO 05011KT 10SM BKN039 BKN047 OVC055 04/M01 A2993 620 67 -400 060/11 RMK AO2 RAB1358E08 P0000 TSNO
14840KMKG MKG20000407092013104/07/00 09:20:31  5-MIN KMKG 071420Z AUTO 05011KT 10SM BKN041 OVC050 04/M01 A2993 620 67 -400 050/11 RMK AO2 RAB1358E08 P0000 TSNO
14840KMKG MKG20000407092512504/07/00 09:25:31  5-MIN KMKG 071425Z AUTO 04013KT 10SM -RA OVC039 04/M01 A2993 620 70 -400 050/13 RMK AO2 RAB1358 P0000 TSNO
14840KMKG MKG20000407093012504/07/00 09:30:31  5-MIN KMKG 071430Z AUTO 03012KT 10SM -RA OVC039 04/M01 A2993 620 70 -400 040/12 RMK AO2 RAB1358 P0000 TSNO
14840KMKG MKG20000407093513204/07/00 09:35:31  5-MIN KMKG 071435Z AUTO 04009KT 10SM -RA BKN041 OVC050 04/M01 A2993 620 70 -400 040/09 RMK AO2 RAB1358 P0000 TSNO
14840KMKG MKG20000407094013104/07/00 09:40:31  5-MIN KMKG 071440Z AUTO 04011KT 10SM BKN043 OVC055 04/M01 A2993 620 70 -400 050/11 RMK AO2 RAB1358E40 P0000 TSNO
14840KMKG MKG20000407094512404/07/00 09:45:31  5-MIN KMKG 071445Z AUTO 04015KT 10SM OVC041 04/M01 A2993 630 70 -400 050/15 RMK AO2 RAB1358E40 P0000 TSNO
14840KMKG MKG20000407095015304/07/00 09:50:31  5-MIN KMKG 071450Z AUTO 05014KT 10SM OVC039 04/M01 A2993 630 70 -400 050/14 RMK AO2 RAB1358E40 SLP139 P0000 60000 T00441006 53006 TSNO
14840KMKG MKG20000407095515304/07/00 09:55:31  5-MIN KMKG 071455Z AUTO 04011KT 10SM OVC039 04/M01 A2993 620 70 -400 050/11 RMK AO2 RAB1358E40 SLP140 P0000 60000 T00441006 50018 TSNO
14840KMKG MKG20000407100012904/07/00 10:00:31  5-MIN KMKG 071500Z AUTO 05012G19KT 10SM -RA OVC039 04/M01 A2993 630 73 -500 050/12G19 RMK AO2 RAB00 P0000 TSNO
14840KMKG MKG20000407100512804/07/00 10:05:31  5-MIN KMKG 071505Z AUTO 05011G19KT 10SM -RA OVC037 04/00 A2993 620 76 -500 050/11G19 RMK AO2 RAB00 P0000 TSNO
14840KMKG MKG20000407101012204/07/00 10:10:31  5-MIN KMKG 071510Z AUTO 05011KT 10SM -RA OVC035 04/00 A2993 620 76 -500 050/11 RMK AO2 RAB00 P0000 TSNO
14840KMKG MKG20000407101512204/07/00 10:15:31  5-MIN KMKG 071515Z AUTO 04012KT 10SM -RA OVC033 04/01 A2993 620 79 -500 050/12 RMK AO2 RAB00 P0000 TSNO
14840KMKG MKG20000407102012104/07/00 10:20:31  5-MIN KMKG 071520Z AUTO 05012KT 9SM -RA OVC033 03/01 A2993 620 82 -600 050/12 RMK AO2 RAB00 P0000 TSNO
14840KMKG MKG20000407102512104/07/00 10:25:31  5-MIN KMKG 071525Z AUTO 05011KT 9SM -RA OVC031 03/01 A2993 620 82 -600 050/11 RMK AO2 RAB00 P0000 TSNO
14840KMKG MKG20000407103012104/07/00 10:30:31  5-MIN KMKG 071530Z AUTO 06013KT 8SM -RA OVC029 03/01 A2993 620 82 -600 070/13 RMK AO2 RAB00 P0001 TSNO
14840KMKG MKG20000407103512704/07/00 10:35:31  5-MIN KMKG 071535Z AUTO 06013G18KT 7SM -RA OVC029 03/01 A2993 620 82 -600 070/13G18 RMK AO2 RAB00 P0001 TSNO
14840KMKG MKG20000407104012104/07/00 10:40:31  5-MIN KMKG 071540Z AUTO 05013KT 7SM -RA OVC029 03/01 A2992 630 85 -500 050/13 RMK AO2 RAB00 P0002 TSNO
14840KMKG MKG20000407104512104/07/00 10:45:31  5-MIN KMKG 071545Z AUTO 05012KT 8SM -RA OVC029 03/01 A2992 630 85 -500 050/12 RMK AO2 RAB00 P0002 TSNO
14840KMKG MKG20000407105014404/07/00 10:50:31  5-MIN KMKG 071550Z AUTO 05012G18KT 8SM -RA OVC029 03/01 A2991 640 85 -500 050/12G18 RMK AO2 RAB00 SLP135 P0002 T00330011 TSNO
14840KMKG MKG20000407105515104/07/00 10:55:31  5-MIN KMKG 071555Z AUTO 05012G18KT 7SM -RA OVC029 03/01 A2990 650 89 -600 050/12G18 RMK AO2 RAB00 PRESFR SLP131 P0003 T00280011 TSNO
14840KMKG MKG20000407110011804/07/00 11:00:31  5-MIN KMKG 071600Z AUTO 05013KT 6SM -RA BR OVC029 03/01 A2991 640 89 -600 050/13 RMK AO2 P0000 TSNO
14840KMKG MKG20000407110511504/07/00 11:05:31  5-MIN KMKG 071605Z AUTO 04011KT 7SM -RA OVC029 03/01 A2992 630 89 -600 050/11 RMK AO2 P0000 TSNO
14840KMKG MKG20000407111011504/07/00 11:10:31  5-MIN KMKG 071610Z AUTO 04011KT 8SM -RA OVC031 03/01 A2992 630 89 -600 040/11 RMK AO2 P0000 TSNO
14840KMKG MKG20000407111512204/07/00 11:15:31  5-MIN KMKG 071615Z AUTO 03012KT 9SM -RA OVC031 03/01 A2994 620 89 -600 030/12 RMK AO2 PRESRR P0000 TSNO
14840KMKG MKG20000407112011504/07/00 11:20:31  5-MIN KMKG 071620Z AUTO 03011KT 9SM -RA OVC031 03/01 A2994 610 89 -600 040/11 RMK AO2 P0001 TSNO
14840KMKG MKG20000407112512104/07/00 11:25:31  5-MIN KMKG 071625Z AUTO 04011G16KT 8SM -RA OVC031 03/01 A2994 610 89 -600 040/11G16 RMK AO2 P0001 TSNO
14840KMKG MKG20000407113011504/07/00 11:30:31  5-MIN KMKG 071630Z AUTO 04009KT 7SM -RA OVC031 03/01 A2995 610 89 -600 040/09 RMK AO2 P0002 TSNO
14840KMKG MKG20000407113511804/07/00 11:35:31  5-MIN KMKG 071635Z AUTO 04011KT 6SM -RA BR OVC029 03/01 A2995 610 89 -600 040/11 RMK AO2 P0002 TSNO
14840KMKG MKG20000407114011304/07/00 11:40:31  5-MIN KMKG 071640Z 04012G17KT 5SM RA BR OVC029 02/01 A2994 610 92 -700 050/12G17 RMK AO2 P0003
14840KMKG MKG20000407114510704/07/00 11:45:31  5-MIN KMKG 071645Z 03013KT 4SM RA BR OVC027 02/01 A2993 620 92 -700 040/13 RMK AO2 P0005
14840KMKG MKG20000407115014104/07/00 11:50:31  5-MIN KMKG 071650Z 04010KT 4SM RA BR OVC027 02/01 A2993 620 92 -700 050/10 RMK AO2 VIS 2 1/2 RWY 14 SLP141 P0006 T00220011
14840KMKG MKG20000407115512504/07/00 11:55:31  5-MIN KMKG 071655Z 05010KT 5SM -RA BR OVC025 02/01 A2993 630 92 -700 050/10 RMK AO2 SLP139 P0006 T00220011
14840KMKG MKG20000407120010704/07/00 12:00:31  5-MIN KMKG 071700Z 05012KT 5SM RA BR OVC025 02/01 A2992 630 92 -700 060/12 RMK AO2 P0001
14840KMKG MKG20000407120510704/07/00 12:05:31  5-MIN KMKG 071705Z 05011KT 4SM RA BR OVC025 02/01 A2992 630 92 -700 050/11 RMK AO2 P0002
14840KMKG MKG20000407121011404/07/00 12:10:31  5-MIN KMKG 071710Z 05013KT 4SM RA BR FEW008 OVC025 02/01 A2991 640 92 -700 060/13 RMK AO2 P0003
14840KMKG MKG20000407121511404/07/00 12:15:31  5-MIN KMKG 071715Z 04012KT 4SM RA BR FEW008 OVC023 02/01 A2991 640 96 -700 050/12 RMK AO2 P0004
14840KMKG MKG20000407122012104/07/00 12:20:31  5-MIN KMKG 071720Z 04012KT 4SM RA BR FEW008 OVC023 02/01 A2990 650 96 -700 050/12 RMK AO2 PRESFR P0005
14840KMKG MKG20000407122512204/07/00 12:25:31  5-MIN KMKG 071725Z 04010KT 5SM -RA BR FEW008 BKN023 OVC035 02/01 A2990 650 96 -700 040/10 RMK AO2 P0006
14840KMKG MKG20000407123012204/07/00 12:30:31  5-MIN KMKG 071730Z 05010KT 6SM -RA BR FEW008 BKN023 OVC035 02/01 A2990 650 96 -700 060/10 RMK AO2 P0006
14840KMKG MKG20000407123511904/07/00 12:35:31  5-MIN KMKG 071735Z 05012KT 8SM -RA FEW008 BKN023 OVC035 02/01 A2990 650 92 -700 050/12 RMK AO2 P0006
14840KMKG MKG20000407124014104/07/00 12:40:31  5-MIN KMKG 071740Z 04011G17KT 10SM -RA SCT008 BKN023 OVC035 02/01 A2990 650 92 -700 050/11G17 RMK AO2 CIG 007 RWY 14 P0006
14840KMKG MKG20000407124514104/07/00 12:45:31  5-MIN KMKG 071745Z 04012G17KT 10SM -RA SCT008 BKN027 OVC035 02/01 A2990 650 92 -700 040/12G17 RMK AO2 CIG 007 RWY 14 P0006
14840KMKG MKG20000407125017604/07/00 12:50:31  5-MIN KMKG 071750Z 04011KT 10SM -RA SCT008 BKN029 OVC035 02/02 A2989 660 96 -600 050/11 RMK AO2 CIG 007 RWY 14 SLP128 P0006 60015 T00220017 10050 20017 50018
14840KMKG MKG20000407125516004/07/00 12:55:31  5-MIN KMKG 071755Z 05011KT 8SM -RA BKN008 OVC033 02/01 A2988 670 92 -600 050/11 RMK AO2 PRESFR SLP123 P0007 60016 T00220011 10050 20017 58016
14840KMKG MKG20000407130013504/07/00 13:00:31  5-MIN KMKG 071800Z 04015G18KT 6SM -RA BR BKN008 BKN030 OVC035 02/01 A2987 680 92 -600 050/15G18 RMK AO2 PRESFR P0000
14840KMKG MKG20000407130512204/07/00 13:05:31  5-MIN KMKG 071805Z 04014KT 5SM -RA BR BKN008 OVC030 02/01 A2986 680 92 -600 050/14 RMK AO2 PRESFR P0001
14840KMKG MKG20000407131011504/07/00 13:10:31  5-MIN KMKG 071810Z 05013KT 6SM -RA BR BKN008 OVC028 02/01 A2986 680 92 -600 050/13 RMK AO2 P0001
14840KMKG MKG20000407131511804/07/00 13:15:31  5-MIN KMKG 071815Z 05012G19KT 8SM -RA BKN008 OVC024 02/01 A2986 690 92 -600 050/12G19 RMK AO2 P0001
14840KMKG MKG20000407132011204/07/00 13:20:31  5-MIN KMKG 071820Z 05013KT 7SM -RA BKN008 OVC024 02/02 A2985 690 96 -600 060/13 RMK AO2 P0001
14840KMKG MKG20000407132511104/07/00 13:25:31  5-MIN KMKG 071825Z 05013G20KT 7SM -RA OVC008 02/02 A2985 690 96 -600 050/13G20 RMK AO2 P0001
14840KMKG MKG20000407133011104/07/00 13:30:31  5-MIN KMKG 071830Z 04012G20KT 7SM -RA OVC008 02/02 A2984 700 96 -600 040/12G20 RMK AO2 P0002
14840KMKG MKG20000407133511104/07/00 13:35:31  5-MIN KMKG 071835Z 04014G19KT 8SM -RA OVC008 02/02 A2985 700 96 -600 040/14G19 RMK AO2 P0002
14840KMKG MKG20000407134009604/07/00 13:40:31  5-MIN KMKG 071840Z 06014G19KT 8SM -RA984  700 96 -600 060/11G19 RMK AO2 P0002
14840KMKG MKG20000407135012504/07/00 13:50:31  5-MIN KMKG 071850Z 05011KT 6SM -RA BR OVC008 02/02 A2984 700 96 -600 060/11 RMK AO2 SLP111 P0003 T00220017
14840KMKG MKG20000407135507104/07/00 13:55:31  5-MIN KMKG 071855Z 05012KT 5SM -RASN BR OVC008 02/02
14840KMKG MKG20000407145513504/07/00 14:55:31  5-MIN KMKG 071955Z 06010KT 3/4SM -SN BR OVC007 01/01 A2983 710 96 -700 060/10 RMK AO2 RAE1857 SLP107 P0010 T00110006
14840KMKG MKG20000407150013604/07/00 15:00:31  5-MIN KMKG 072000Z 06012KT 3/4SM -SN BR OVC007 01/01 A2983 710 96 -700 060/12  SNINCR 1/1 P0006 60019 T00060006 56021
14840KMKG MKG20000407160011704/07/00 16:00:31  5-MIN KMKG 072100Z 05012KT 1/2SM SN FG OVC005 01/01 A2981 730 100 -800 050/12 RMK AO2 PRESFR P0001
14840KMKG MKG20000407160516204/07/00 16:05:31  5-MIN KMKG 072105Z 05011KT 1/2SM SN FG OVC005 01/01 013KT 1 3/4SM -SN BR BKN007 OVC012 01/01 A2980 740 96 -700 040/13 RMK AO2 CIG 005V010 P0000
14840KMKG MKG20000407170522404/07/00 17:05:31  5-MIN KMKG 072205Z 04013G17KT 1 3/4SM -SN BR BKN007 OVC012 01/01 A2980 740 96 -700 040/13G17 RMK AO2 CIG 005V010 P0000 04/07/00 BKN009 OVC015 01/01 A2978 760 96 -700 050/14 RMK AO2 CIG 006V011 PRESFR P0001
14840KMKG MKG20000407175015404/07/00 17:50:31  5-MIN KMKG 072250Z 05014G21KT 2 1/2SM -SN BR BKN009 OVC015 01/01 A2977 770 96 -600 050/14G21 RMK AO2 CIG 006V011 PRESFR SLP086 P0001 T0
14840KMKG MKG20000407184013304/07/00 18:40:31  5-MIN KMKG 072340Z 04012G17KT 1SM -SN BR BKN007 OVC013 01/01 A2979 750 96 -700 040/12G17 RMK AO2 CIG 005V010 P0001
14840KMKG MKG20000407184509904/07/00 18:45:31  5-MIN KMKG 072345Z 04011G17KT 3/4SM -SN BR BKN007 OVC013 01/01 A2979 750 96 -700
14840KMKG MKG20000407194512504/07/00 19:45:31  5-MIN KMKG 080045Z 02015G22KT 1 3/4SM -SN BR SCT007 OVC012 01/00 A2983 720 96 -800 030/15G22 RMK AO2 P0001
14840KMKG MKG20000407195011704/07/00 19:50:31  5-MIN KMKG 080050Z 02016G20KT 2SM -SN BR FEW007 OVC012 01/00 A2982 720 96 -800 030/16G2 2 14 P0000
14840KMKG MKG20000407204511904/07/00 20:45:31  5-MIN KMKG 080145Z 02014G21KT 1 1/2SM -SN BR OVC015 01/M01 A2984 700 92 -800 030/14G21 RMK AO2 P0000
14840KMKG MKG20000407211511904/07/00 21:15:31  5-MIN KMKG 080215Z 02017G23KT 1 1/2SM -SN BR OVC012 00/M01 A2984 710 96 -900 030/17G23 RMK AO2 P0000
14840KMKG MKG20000407212018004/07/00 21:20:31  5-MIN KMKG 080220Z 02014G23KT 1 1/2SM -SN BR OVC012 01/M01 A2983 710 92 -800  -SN BR SCT009OVC015 01/M01 A2984 700 92 -800 020/12G20 RMK AO2 CIG 009 RWY 14 P0000
14840KMKG MKG20000407221020404/07/00 22:10:31  5-MIN KMKG 080310Z 02012G20KT 1 1/4SM -SN BR SCT007 OVC015 00/00 A2983 710 100 -900 020/12G20 RMK AO2 P0000 BKN015 OVC019 01/M01 A2983 720 92 -800 020/14G22 RMK AO2 CIG 010 RWY 14 P0000
14840KMKG MKG20000407231011504/07/00 23:10:31  5-MIN KMKG 080410Z 02014G22KT 2SM -SN BR OVC012 01/M01 A2983 720 92 -800 020/14G22 RMK AO2 P0000
14840KMKG MKG20000407231513404/07/00 23:15:31  5-MIN KMKG 080415Z 01 0505Z 01015G20KT 3/4SM -SN BR BKN008 OVC014  00/M01 A2983 710 96 -900 010/15G20 RMK AO2 P0000
14840KMKG MKG20000408001013904/08/00 00:10:31  5-MIN KMKG 080510Z 01012G20KT 1SM -SN BR BKN008 OVC014 00/M01 A2983 710 96 -900 010/12G20 RMK AO2 P0000 04/08/00 00:15:3
14840KMKG MKG20000408011011504/08/00 01:10:31  5-MIN KMKG 080610Z 36014G20KT 2SM -SN BR OVC015 00/M01 A2985 700 92 -900 010/14G20 RMK AO2 P0000
14840KMKG MKG20000408014011204/08/00 01:40:31  5-MIN KMKG 080640Z 36013G21KT 1 1/4SM -SN BR BKN011 OVC018 M01/M01 A2985 690 96 -1000 010/130
14840KMKG MKG20000408023013504/08/00 02:30:31  5-MIN KMKG 080730Z 36014G22KT 1 1/2SM -SN BR FEW013 BKN021 OVC041 M01/M02 A2986 690 92 -1000 010/14G22 RMK AO2 P0000
14840KMKG MKG20000408023515704/08/00 02:35:31  5-MIN KMKG 080735Z 36014G22KT 1 1/2SM -SN BR FEW013 BKN023 OVC044 M01/M02 A2986 690 A2987 680 88 -1000 360/13 RMK AO2 CIG 044 RWY 14 P0000
14840KMKG MKG20000408032513904/08/00 03:25:31  5-MIN KMKG 080825Z 36015G21KT 3SM -SN BR FEW050 OVC065 M01/M02 A2988 670 88 -1000 360/15G21 RMK AO2 CIG 046 RWY 14 P0000
14840KMKG MKG20000408033004104/08/00 03:30:31  5-MIN KMKG 080830Z 360
14840KMKG MKG20000408042518404/08/00 04:25:31  5-MIN KMKG 080925Z 36014G22KT 10SM UP BKN070 OVC090 M01/M03 A2990 650 85 -1000 360/14G22 RMK  10SM OVC090 M01/M04 A2993 620 78 -1000 350/15G21 RMK AO2 CIG 075 RWY 14
14840KMKG MKG20000408052509904/08/00 05:25:31  5-MIN KMKG 081025Z 36014KT 10SM OVC090 M01/M04 A2993 620 75 -1000 360/14 RMK AO2
14840KMKG MKG20000408053006404/08/00 05:30:31  5-MIN KMKG 081030Z 36014KT 10SM OVC090 M01/M0
14840KMKG MKG20000408064009904/08/00 06:40:31  5-MIN KMKG 081140Z 36016KT 10SM OVC090 M01/M05 A2997 590 75 -1200 360/16 RMK AO2
14840KMKG MKG20000408064509904/08/00 06:45:31  5-MIN KMKG 081145Z 35013KT 10SM OVC090 M01/M05 A2997 580 75 -1200 360/13 RMK AO2
14840KMKG MKG20000408065003404/08/00 06:50:31  5-MIN KMKG 0897
14840KMKG MKG20000408075012204/08/00 07:50:31  5-MIN KMKG 081250Z 36012G20KT 10SM SCT110 M01/M06 A3000 560 69 -1200 360/12G20 RMK AO2 SLP167 T10111061
14840KMKG MKG20000408085011304/08/00 08:50:31  5-MIN KMKG 081350Z 35015KT 10SM CLR M01/M06 A3002 540 66 -1100 350/15 RMK AO2 SLP172 T10061061
14840KMKG MKG20000408085512404/08/00 08:55:31  5-MIN KMKG 081355Z 36017G22KT 10SM FEW040 M01/M07 A3002 540 63 -1100 360/17G22 RMK AO2 SLP173 T10061067 7
14840KMKG MKG20000408101011904/08/00 10:10:31  5-MIN KMKG 081510Z 35016G27KT 10SM CLR 01/M07 A3004 520 58 -1000 350/16G27 RMK AO2 PK WND 01027/1502
14840KMKG MKG20000408101518604/08/00 10:15:31  5-MIN KMKG 081515Z 35016G23KT 10SM CLR 01/M07 A3004 520 58 -1000 360/16G23 RMK AO2 PK WND 01027/61 1620Z 34018G23KT 10SM CLR 02/M06 A3006 500 56 -900 340/18G23 RMK AO2
14840KMKG MKG20000408112510004/08/00 11:25:31  5-MIN KMKG 081625Z 34015G23KT 10SM CLR 02/M06 A3006 500 56 -900 350/15G23 RMK AO2
14840KMKG MKG20000408113009104/08/00 11:30:31  5-MIN KMKG 081630Z 35016KT 10SM CLR 02/M06 A32 52 -900 360/17G22 RMK AO2
14840KMKG MKG20000408123510004/08/00 12:35:31  5-MIN KMKG 081735Z 35017G22KT 10SM CLR 02/M07 A3007 490 50 -900 350/17G22 RMK AO2
14840KMKG MKG20000408124007404/08/00 12:40:31  5-MIN KMKG 081740Z 34013G21KT 10SM CLR 02/M07 A3008 490
14840KMKG MKG20000408125016304/08/00 12:50:31  5-MIN KMKG 081750Z 33017G21KT 10SM CLR 02/M06 A3007 490 54 -900 340/17G21 RMK AO2 SLP190 T00221061 10028 21011 51019 7057 -700 330/17G22 RMK AO2
14840KMKG MKG20000408135011704/08/00 13:50:31  5-MIN KMKG 081850Z 33016G22KT 10SM CLR 03/M05 A3010 470 54 -700 340/16G22 RMK AO2 SLP198 T00331050
14840KMKG MKG20000408135508204/08/00 13:55:31  5-MIN KMKG 081855Z 34013KT 10SM FEW045 03/M05 A3010 460 57 -700
14840KMKG MKG20000408145512704/08/00 14:55:31  5-MIN KMKG 081955Z 32014G22KT 10SM CLR 03/M05 A3011 460 54 -800 330/14G22 RMK AO2 SLP202 T00331050 04/08/002
14840KMKG MKG20000408154509404/08/00 15:45:31  5-MIN KMKG 082045Z 33018KT 10SM CLR 03/M06 A3012 450 52 -800 330/18 RMK AO2
14840KMKG MKG20000408155011704/08/00 15:50:31  5-MIN KMKG 082050Z 33019KT 10SM CLR 03/M06 A3012 440 52 -800 330/19 RMK AO2 SLP207 T00331056 51014
14840KMKG MKG20000408155513204/08/00 15:55:31  5-MIN 16:50:31  5-MIN KMKG 082150Z 34012G20KT 10SM CLR 04/M08 A3013 44042 -700 340/12G20 RMK AO2 SLP209 T00391078
14840KMKG MKG20000408165511104/08/00 16:55:31  5-MIN KMKG 082155Z 34013KT 10SM CLR 04/M08 A3013 440 42 -700 340/13 RMK AO2 SLP210 T00391078
14840KMKG MKG20000408180509404/08/00 18:05:31  5-MIN KMKG 082305Z 34011KT 10SM CLR 03/M08 A3013 440 46 -900 350/11 RMK AO2
14840KMKG MKG20000408181009704/08/00 18:10:31  5-MIN KMKG 082310Z 34010KT 10SM FEW100 03/M08 A3014 430 46 -900 340/10 RMK AO2
14840KMKG MKG20000408184009704/08/00 18:40:31  5-MIN KMKG 082340Z 34008KT 10SM FEW100 03/M07 A3014 430 46 -800 340/08 RMK AO2
14840KMKG MKG20000408195011204/08/00 19:50:31  5-MIN KMKG 090050Z 27005KT 10SM CLR 01/M05 A3012 440 64 -1100 280/05 RMK AO2 SLP208 T00111050
14840KMKG MKG20000408195504204/08/00 19:55:31  5-MIN KMKG 090055Z 2764
14840KMKG MKG20000408205511404/08/00 20:55:31  5-MIN KMKG 090155Z 25004KT 10SM CLR M01/M04 A3014 430 75  -1300 260/04 RMK AO2 SLP212 T10061044
14840KMKG MKG20000408210012104/08/00 21:00:31  5-MIN04/08/00 22:05:31  5-MIN KMKG 090305Z 23003KT 10SM CLR M01/M04 A3013 440 81  -1300 230/03 RMK AO2
14840KMKG MKG20000408221009604/08/00 22:10:31  5-MIN KMKG 090310Z 22003KT 10SM CLR M01/M04 A3013 440 81 -1300 220/03 RMK AO2
14840KMKG MKG20000408221509604/08/00 22:15:31  5-MIN KMKG 090315Z 21004KT 10SM CLR M01/M04 A3012 440 78 -1300 220/04 RMK AO2
14840KMKG MKG20000408222009604/08/00 22:20:31  5-MIN KMKG 090320Z 21003KT 10SM CLR M01/M04 A3012 440 78 -1300 220/03 RMK AO2
14840KMKG MKG20000408222509604/08/00 22:25:31  5-MIN KMKG 090325Z 21004KT 10SM CLR M01/M04 A3012 450 78 -1300 210/04 RMK AO2
14840KMKG MKG20000408223009604/08/00 22:30:31  5-MIN KMKG 090330Z 21004KT 10SM CLR M01/M04 A3012 450 78 -1300 210/04 RMK AO2
14840KMKG MKG20000408223509504/08/00 22:35:31  5-MIN KMKG 090335Z 20004KT 10SM CLR 00/M04 A3011 450 75 -1200 200/04 RMK AO2
14840KMKG MKG20000408224009604/08/00 22:40:31  5-MIN KMKG 090340Z 21004KT 10SM CLR M01/M04 A3011 460 78 -1200 210/04 RMK AO2
14840KMKG MKG20000408224509604/08/00 22:45:31  5-MIN KMKG 090345Z 21004KT 10SM CLR M01/M04 A3011 460 78 -1200 220/04 RMK AO2
14840KMKG MKG20000408225011304/08/00 22:50:31  5-MIN KMKG 090350Z 21004KT 10SM CLR M01/M04 A3010 460 81 -1300 210/04 RMK AO2 SLP202 T10111039
14840KMKG MKG20000408225511304/08/00 22:55:31  5-MIN KMKG 090355Z 21004KT 10SM CLR M01/M04 A3010 460 81 -1300 220/04 RMK AO2 SLP202 T10111039
14840KMKG MKG20000408230009604/08/00 23:00:31  5-MIN KMKG 090400Z 21004KT 10SM CLR M01/M03 A3010 460 81 -1200 220/04 RMK AO2
14840KMKG MKG20000408230509604/08/00 23:05:31  5-MIN KMKG 090405Z 20004KT 10SM CLR M01/M03 A3010 460 81 -1200 210/04 RMK AO2
14840KMKG MKG20000408231009604/08/00 23:10:31  5-MIN KMKG 090410Z 20003KT 10SM CLR M01/M03 A3010 460 85 -1300 200/03 RMK AO2
14840KMKG MKG20000408231509604/08/00 23:15:31  5-MIN KMKG 090415Z 21003KT 10SM CLR M01/M04 A3010 460 81 -1300 220/03 RMK AO2
14840KMKG MKG20000408232009604/08/00 23:20:31  5-MIN KMKG 090420Z 22007KT 10SM CLR M01/M03 A3010 460 85 -1300 230/07 RMK AO2
14840KMKG MKG20000408232509604/08/00 23:25:31  5-MIN KMKG 090425Z 23007KT 10SM CLR M01/M03 A3010 470 85 -1200 230/07 RMK AO2
14840KMKG MKG20000408233011104/08/00 23:30:31  5-MIN KMKG 090430Z 23007KT 10SM CLR M01/M02 A3010 460 88 -1200 240/07 RM-1200 240/07 RMK AO2
14840KMKG MKG20000408234509504/08/00 23:45:31  5-MIN KMKG 090445Z 24007KT 10SM CLR 01/M02 A3010 460 82 -1100 240/07 RMK AO2
14840KMKG MKG20000408235013504/08/00 23:50:31  5-MIN KMKG 090450Z 23006KT 10SM CLR 00/M02 A3010 460 85 2/M02 A3008 480 78 2 SLP200 T00001022 40 -900 240/05 RMK AO2
14840KMKG MKG20000409010509404/09/00 01:05:31  5-MIN KMKG 090605Z 23007KT 10SM CLR 02/M02 A3008 490 75 -900 240/07 RMK AO2
14840KMKG MKG20000409011009404/09/00 01:10:31  5-MIN KMKG 090610Z 23006KT 10SM CLR 02/M01 A3008 490 78 -900 240/06 RMK AO2
14840KMKG MKG20000409022009404/09/00 02:20:31  5-MIN KMKG 090720Z 25008KT 10SM CLR 03/M01 A3003 530 75 -700 260/08 RMK AO2
14840KMKG MKG20000409030009704/09/00 03:00:31  5-MIN KMKG 090800Z 23007KT 10SM SCT110 03/M01 A3002 540 76 -700 230/07 RMK AO2
14840KMKG MKG20000409030507404/09/00 03:05:31  5-MIN KMKG 090805Z 24010KT 10SM BKN100 03/M01 A3002 540
14840KMKG MKG20000409033511104/09/00 03:35:31  5-MIN KMKG 090835Z 24012KT 10SM BKN070 BKN090 OVC100 04/M01 A3003 530 73 -600 240/12 RMK AO2
14840KMKG MKG20000409034012104/09/00 03:40:31  5-MIN KMKG 090840Z 23010KT 10SM BKN065 OVC100 04/00 A3003 530 76 -600 240/10 RMK AO2 04/09/00 03:45:33
14840KMKG MKG20000409042518104/09/00 04:25:31  5-MIN KMKG 090925Z 24006KT 10SM OVC024 03/M02 A3003 530 67 -700 240/06 RMK AO2 RAE10SNB10E19 P0000 04/09/00OVC032 02/M01 A3001 550 82 -800 230/13G18 RMK AO2 P0000
14840KMKG MKG20000409051012804/09/00 05:10:31  5-MIN KMKG 091010Z 21014G18KT 6SM -SN BR BKN014 BKN021 OVC029 02/00 A3001 550 85 -800 220/14G18 RMK AO2 P0000
14840KMKG MKG20000409053511504/09/00 05:35:31  5-MIN KMKG 091035Z 22013KT 2SM -SN BR BKN007 OVC013 01/00 A3000 560 92 -900 220/13 RMK AO2 P0002
14840KMKG MKG20000409054011204/09/00 05:40:31  5-MIN KMKG 091040Z 21012KT 1 3/4SM -SN BR OVC007 01/01 A2999 560 96 -900 220/12 RMK AO2 P0002
14840KMKG MKG20000409064510904/09/00 06:45:31  5-MIN KMKG 091145Z 19009KT 5SM -SN BR OVC005 01/01 A2996  600 96 -900 200/09 RMK AO2 P0002
14840KMKG MKG20000409065002504/09/00 06:50:31  5-MIN0
14840KMKG MKG20000409074513204/09/00 07:45:31  5-MIN KMKG 091245Z 20012KT 4SM -RA BR OVC005 02/01 A2995  610 96 -800 210/12 RMK AO2 RAB45SNE45 CIG 004V009 P0002
14840KMKG MKG20000409083512404/09/00 08:35:31  5-MIN KMKG 091335Z 19013KT 5SM -RA BR FEW007 OVC045 03/02 A2992 630 96 -600 200/13 RMK AO2 RAE01B21 P0000
14840KMKG MKG20000409084007204/09/00 08:40:31  5-MIN KMKG 091340Z 20012KT 5SM BR FEW007 OVC043 03/02
14840KMKG MKG20000409095512504/09/00 09:55:31  5-MIN KMKG 091455Z 23014KT 10SM FEW045 06/02 A2990 650 76 -200 230/14 RMK AO2 SLP129 60002 T00610022 56020
14840KMKG MKG20000409102509604/09/00 10:25:31  5-MIN KMKG 091525Z 25009KT 10SM FEW045 06/01 A2990 650 70 -200 260/09 RMK AO2
14840KMKG MKG20000409103011104/09/00 10:30:31  5-MIN KMKG 091530Z 26013G17KT 10SM FEW045 07/01 A2990 650 67 -100 270/13G17 RMK AO2 04/09/00
14840KMKG MKG20000409112509904/09/00 11:25:31  5-MIN KMKG 091625Z 29015G25KT 10SM FEW045 07/01 A2989 660 65 0 290/15G25 RMK AO2
14840KMKG MKG20000409113013004/09/00 11:30:31  5-MIN KMKG 091630Z 28017G25KT O2 10SM FEW022 SCT045 07/01 A2991 640 67 -100 310/19G27 RMK AO2 PK WND 33029/1720
14840KMKG MKG20000409123512704/09/00 12:35:31  5-MIN KMKG 091735Z 30020G28KT 10SM FEW022 SCT045 07/01 A2990 650 67 -100 300/20G28 RMK AO2 PK WND 33029/1720
14840KMKG MKG20000409124003004/09/00 12:40:31  5-MIN1 1813
14840KMKG MKG20000409133011704/09/00 13:30:31  5-MIN KMKG 091830Z 31015G24KT 10SM SCT045 08/01 A2993 620 60 0 320/15G24 RMK AO2 PK WND 30028/1813
14840KMKG MKG20000409133514804/09/00 13:35:31  5-MIN KMKG 091835Z 30016G24KT 10SM FEW034 SCT045 08/01 A2993 620 62 0 310/16G24 RMK AO2 PK WND 01 A2995600 60 0 320/17G20 RMK AO2
14840KMKG MKG20000409144009904/09/00 14:40:31  5-MIN KMKG 091940Z 30015G22KT 10SM SCT049 08/00 A2995 610 58 0 310/15G22 RMK AO2
14840KMKG MKG20000409144509704/09/00 14:45:31  5-MIN KMKG 091945Z 32015G23KT 10SM SCT049 08/00 A2995 600 55 0 320/15G23 RMK A
14840KMKG MKG20000409155012304/09/00 15:50:31  5-MIN KMKG 092050Z 31013G22KT 10SM SCT049 08/M02 A2997 590 47 0 310/13G22 RMK AO2 SLP152 T00831022 53006
14840KMKG MKG20000409155507304/09/00 15:55:31  5-MIN KMKG 092055Z 31011G19KT 10SM SCT049 08/M03 A2997
14840KMKG MKG20000409170510404/09/00 17:05:31  5-MIN KMKG 092205Z 29009KT 10SM FEW050 SCT065 08/M02 A2998 570 49 -100 300/09 RMK AO2
14840KMKG MKG20000409171009704/09/00 17:10:31  5-MIN KMKG 092210Z 30008KT 10SM SCT065 08/M02 A2998 570 49 -100 300/08 RMK AO2
14840KMKG MKG20000409172009704/09/00 17:20:31  5-MIN KMKG 092220Z 30008KT 10SM SCT065 07/M03 A2999 570 49 -100 310/08 RMK AO2
14840KMKG MKG20000409172505604/09/00 17:25:31  5-MIN KMKG 092225Z 31008KT 10SM SCT06
14840KMKG MKG20000409182510404/09/00 18:25:31  5-MIN KMKG 092325Z 34009KT 10SM FEW055 SCT070 07/M02 A2999 570 53 -200 340/09 RMK AO2
14840KMKG MKG20000409183010404/09/00 18:30:31  5-MIN KMKG 092330Z 34008KT 10SM SCT065 BKN085 07/M02 A2999 560 53 -200 350/08 RMK AO2
14840KMKG MKG20000409183502404/09/00 18:35:31  5-MIN
14840KMKG MKG20000409194509704/09/00 19:45:31  5-MIN KMKG 100045Z 36007KT 10SM FEW075 04/M02 A3002 540 62 -500 010/07 RMK AO2
14840KMKG MKG20000409195018904/09/00 19:50:31  5-MIN KMKG 100050Z 36008KT 10SM FEW075 05/M02 A3002 540 59 -400 010/08 RMK AO2 SLP170 T00501022 006KT 10SM FEW075 04/M03 A3006 510 62 -600 360/06 RMK AO2 SLP183 T00391028
14840KMKG MKG20000409210009704/09/00 21:00:31  5-MIN KMKG 100200Z 36007KT 10SM FEW073 04/M03 A3006 500 62 -600 360/07 RMK AO2
14840KMKG MKG20000409210509704/09/00 21:05:31  5-MIN KMKG 100205Z 36008KT 10SM FEW073 04/M03 A3006 500 62 -600 360/08 RMK AO2
14840KMKG MKG20000409211009704/09/00 21:10:31  5-MIN KMKG 100210Z 36009KT 10SM FEW073 04/M03 A3006 500 62 -600 360/09 RMK AO2
14840KMKG MKG20000409211509704/09/00 21:15:31  5-MIN KMKG 100215Z 36008KT 10SM FEW073 04/M03 A3007 490 59 -600 360/08 RMK AO2
14840KMKG MKG20000409212009704/09/00 21:20:31  5-MIN KMKG 100220Z 01009KT 10SM FEW073 03/M04 A3007 490 59 -700 010/09 RMK AO2
14840KMKG MKG20000409212509704/09/00 21:25:31  5-MIN KMKG 100225Z 36006KT 10SM FEW073 03/M04 A3007 490 59 -700 010/06 RMK AO2
14840KMKG MKG20000409213009704/09/00 21:30:31  5-MIN KMKG 100230Z 36007KT 10SM FEW073 03/M04 A3007 490 61 -800 010/07 RMK AO2
14840KMKG MKG20000409213509704/09/00 21:35:31  5-MIN KMKG 100235Z 36007KT 10SM FEW073 03/M04 A3007 490 61 -800 010/07 RMK AO2
14840KMKG MKG20000409214009704/09/00 21:40:31  5-MIN KMKG 100240Z 36007KT 10SM FEW073 03/M04 A3008 490 61 -800 360/07 RMK AO2
14840KMKG MKG20000409214509704/09/00 21:45:31  5-MIN KMKG 100245Z 36007KT 10SM FEW073 03/M04 A3008 480 57 -700 360/07 RMK AO2
14840KMKG MKG20000409215012004/09/00 21:50:31  5-MIN KMKG 100250Z 36009KT 10SM FEW073 03/M04 A3008 480 59 -800 010/09 RMK AO2 SLP192 T00281044 53008
14840KMKG MKG20000409215512004/09/00 21:55:31  5-MIN KMKG 100255Z 36008KT 10SM FEW073 03/M04 A3008 480 59 -800 010/08 RMK AO2 SLP193 T00281044 53029
14840KMKG MKG20000409220009404/09/00 22:00:31  5-MIN KMKG 100300Z 36010KT 10SM CLR 03/M05 A3008 480 56 -800 360/10 RMK AO2
14840KMKG MKG20000409220509404/09/00 22:05:31  5-MIN KMKG 100305Z 35009KT 10SM CLR 03/M06 A3009 480 54 -800 360/09 RMK AO2
14840KMKG MKG20000409221009404/09/00 22:10:31  5-MIN KMKG 100310Z 35006KT 10SM CLR 03/M05 A3009 470 56 -800 350/06 RMK AO2
14840KMKG MKG20000409221509404/09/00 22:15:31  5-MIN KMKG 100315Z 35007KT 10SM CLR 02/M04 A3009 470 61 -900 360/07 RMK AO2
14840KMKG MKG20000409222009404/09/00 22:20:31  5-MIN KMKG 100320Z 36009KT 10SM CLR 03/M05 A3009 470 56 -800 360/09 RMK AO2
14840KMKG MKG20000409222509404/09/00 22:25:31  5-MIN KMKG 100325Z 36008KT 10SM CLR 03/M06 A3009 470 54 -800 360/08 RMK AO2
14840KMKG MKG20000409223009404/09/00 22:30:31  5-MIN KMKG 100330Z 36008KT 10SM CLR 03/M06 A3009 470 54 -800 360/08 RMK AO2
14840KMKG MKG20000409223509404/09/00 22:35:31  5-MIN KMKG 100335Z 36009KT 10SM CLR 03/M06 A3010 470 54 -800 360/09 RMK AO2
14840KMKG MKG20000409224009404/09/00 22:40:31  5-MIN KMKG 100340Z 35009KT 10SM CLR 03/M06 A3010 470 54 -800 360/09 RMK AO2
14840KMKG MKG20000409224509404/09/00 22:45:31  5-MIN KMKG 100345Z 35008KT 10SM CLR 03/M06 A3010 460 54 -800 360/08 RMK AO2
14840KMKG MKG20000409225011104/09/00 22:50:31  5-MIN KMKG 100350Z 35008KT 10SM CLR 02/M06 A3010 460 56 -900 360/08 RMK AO2 SLP197 T00221056
14840KMKG MKG20000409225511104/09/00 22:55:31  5-MIN KMKG 100355Z 35009KT 10SM CLR 02/M06 A3010 460 56 -900 350/09 RMK AO2 SLP199 T00221056
14840KMKG MKG20000409230009404/09/00 23:00:31  5-MIN KMKG 100400Z 35008KT 10SM CLR 02/M06 A3011 460 56 -900 350/08 RMK AO2
14840KMKG MKG20000409230509404/09/00 23:05:31  5-MIN KMKG 100405Z 35007KT 10SM CLR 02/M06 A3011 460 56 -900 350/07 RMK AO2
14840KMKG MKG20000409231009404/09/00 23:10:31  5-MIN KMKG 100410Z 35009KT 10SM CLR 02/M06 A3011 450 56 -900 350/09 RMK AO2
14840KMKG MKG20000409231509404/09/00 23:15:31  5-MIN KMKG 100415Z 35008KT 10SM CLR 02/M06 A3011 450 56 -900 360/08 RMK AO2
14840KMKG MKG20000409232009404/09/00 23:20:31  5-MIN KMKG 100420Z 36008KT 10SM CLR 02/M06 A3011 450 56 -900 360/08 RMK AO2
14840KMKG MKG20000409232509404/09/00 23:25:31  5-MIN KMKG 100425Z 36009KT 10SM CLR 02/M06 A3012 450 56 -900 360/09 RMK AO2
14840KMKG MKG20000409233009404/09/00 23:30:31  5-MIN KMKG 100430Z 35007KT 10SM CLR 02/M06 A3012 450 56 -900 360/07 RMK AO2
14840KMKG MKG20000409233509404/09/00 23:35:31  5-MIN KMKG 100435Z 35009KT 10SM CLR 02/M05 A3012 450 59 -900 350/09 RMK AO2
14840KMKG MKG20000409234009504/09/00 23:40:31  5-MIN KMKG 100440Z 35008KT 10SM CLR 02/M05 A3012 450 61 -1000 350/08 RMK AO2
14840KMKG MKG20000409234509504/09/00 23:45:31  5-MIN KMKG 100445Z 35007KT 10SM CLR 02/M05 A3012 440 61 -1000 350/07 RMK AO2
14840KMKG MKG20000409235012204/09/00 23:50:31  5-MIN KMKG 100450Z 35009KT 10SM CLR 02/M05 A3012 440 61 -1000 360/09 RMK AO2 SLP206 T00171050 400830006
14840KMKG MKG20000409235512204/09/00 23:55:31  5-MIN KMKG 100455Z 36009KT 10SM CLR 02/M05 A3012 440 61 -1000 360/09 RMK AO2 SLP207 T00171050 400830006
14840KMKG MKG20000410000009504/10/00 00:00:31  5-MIN KMKG 100500Z 36009KT 10SM CLR 02/M05 A3013 440 61 -1000 360/09 RMK AO2
14840KMKG MKG20000410000509504/10/00 00:05:31  5-MIN KMKG 100505Z 36008KT 10SM CLR 02/M05 A3013 440 61 -1000 360/08 RMK AO2
14840KMKG MKG20000410001009504/10/00 00:10:31  5-MIN KMKG 100510Z 36007KT 10SM CLR 02/M05 A3013 440 61 -1000 010/07 RMK AO2
14840KMKG MKG20000410001509504/10/00 00:15:31  5-MIN KMKG 100515Z 36008KT 10SM CLR 01/M05 A3014 430 64 -1100 360/08 RMK AO2
14840KMKG MKG20000410002009504/10/00 00:20:31  5-MIN KMKG 100520Z 36008KT 10SM CLR 01/M05 A3014 430 64 -1100 010/08 RMK AO2
14840KMKG MKG20000410002509504/10/00 00:25:31  5-MIN KMKG 100525Z 36008KT 10SM CLR 01/M05 A3014 430 64 -1100 360/08 RMK AO2
14840KMKG MKG20000410003009504/10/00 00:30:31  5-MIN KMKG 100530Z 35010KT 10SM CLR 01/M05 A3014 430 64 -1100 360/10 RMK AO2
14840KMKG MKG20000410003509504/10/00 00:35:31  5-MIN KMKG 100535Z 36008KT 10SM CLR 01/M05 A3014 430 64 -1100 360/08 RMK AO2
14840KMKG MKG20000410004009504/10/00 00:40:31  5-MIN KMKG 100540Z 01008KT 10SM CLR 01/M04 A3014 420 66 -1100 010/08 RMK AO2
14840KMKG MKG20000410004509504/10/00 00:45:31  5-MIN KMKG 100545Z 36009KT 10SM CLR 01/M05 A3015 420 64 -1100 010/09 RMK AO2
14840KMKG MKG20000410005013004/10/00 00:50:31  5-MIN KMKG 100550Z 01008KT 10SM CLR 01/M05 A3015 420 66 -1200 010/08 RMK AO2 SLP215 T00061050 10061 20006 53029
14840KMKG MKG20000410005513004/10/00 00:55:31  5-MIN KMKG 100555Z 36008KT 10SM CLR 01/M04 A3015 420 69 -1200 360/08 RMK AO2 SLP216 T00061044 10061 20006 53022
14840KMKG MKG20000410010009504/10/00 01:00:31  5-MIN KMKG 100600Z 36009KT 10SM CLR 01/M04 A3015 410 69 -1200 010/09 RMK AO2
14840KMKG MKG20000410010509504/10/00 01:05:31  5-MIN KMKG 100605Z 01008KT 10SM CLR 01/M05 A3016 410 66 -1200 010/08 RMK AO2
14840KMKG MKG20000410011009504/10/00 01:10:31  5-MIN KMKG 100610Z 36008KT 10SM CLR 01/M04 A3016 410 69 -1200 010/08 RMK AO2
14840KMKG MKG20000410011509504/10/00 01:15:31  5-MIN KMKG 100615Z 01008KT 10SM CLR 01/M04 A3016 410 69 -1200 010/08 RMK AO2
14840KMKG MKG20000410012009504/10/00 01:20:31  5-MIN KMKG 100620Z 36007KT 10SM CLR 00/M04 A3016 410 72 -1200 360/07 RMK AO2
14840KMKG MKG20000410012509504/10/00 01:25:31  5-MIN KMKG 100625Z 36007KT 10SM CLR 00/M04 A3016 400 72 -1200 360/07 RMK AO2
14840KMKG MKG20000410013009504/10/00 01:30:31  5-MIN KMKG 100630Z 36008KT 10SM CLR 00/M04 A3017 400 72 -1200 360/08 RMK AO2
14840KMKG MKG20000410013509504/10/00 01:35:31  5-MIN KMKG 100635Z 36009KT 10SM CLR 00/M04 A3017 400 72 -1200 010/09 RMK AO2
14840KMKG MKG20000410014009504/10/00 01:40:31  5-MIN KMKG 100640Z 01008KT 10SM CLR 00/M04 A3017 400 72 -1200 010/08 RMK AO2
14840KMKG MKG20000410014509504/10/00 01:45:31  5-MIN KMKG 100645Z 36007KT 10SM CLR 00/M05 A3017 400 69 -1200 010/07 RMK AO2
14840KMKG MKG20000410015011204/10/00 01:50:31  5-MIN KMKG 100650Z 01007KT 10SM CLR 00/M05 A3017 400 69 -1200 010/07 RMK AO2 SLP222 T00001050
14840KMKG MKG20000410015511304/10/00 01:55:31  5-MIN KMKG 100655Z 36007KT 10SM CLR M01/M05 A3017 400 72 -1300 360/07 RMK AO2 SLP223 T10061050
14840KMKG MKG20000410020009504/10/00 02:00:31  5-MIN KMKG 100700Z 36008KT 10SM CLR 00/M05 A3017 400 69 -1200 360/08 RMK AO2
14840KMKG MKG20000410020509604/10/00 02:05:31  5-MIN KMKG 100705Z 36009KT 10SM CLR M01/M05 A3017 400 72 -1300 010/09 RMK AO2
14840KMKG MKG20000410021009604/10/00 02:10:31  5-MIN KMKG 100710Z 36007KT 10SM CLR M01/M05 A3017 400 72 -1300 360/07 RMK AO2
14840KMKG MKG20000410021509604/10/00 02:15:31  5-MIN KMKG 100715Z 36007KT 10SM CLR M01/M05 A3018 400 72 -1300 360/07 RMK AO2
14840KMKG MKG20000410022009604/10/00 02:20:31  5-MIN KMKG 100720Z 01005KT 10SM CLR M01/M05 A3018 390 72 -1300 010/05 RMK AO2
14840KMKG MKG20000410022509604/10/00 02:25:31  5-MIN KMKG 100725Z 01005KT 10SM CLR M01/M05 A3018 390 72 -1300 020/05 RMK AO2
14840KMKG MKG20000410023009604/10/00 02:30:31  5-MIN KMKG 100730Z 01006KT 10SM CLR M01/M05 A3018 390 72 -1300 020/06 RMK AO2
14840KMKG MKG20000410023509604/10/00 02:35:31  5-MIN KMKG 100735Z 01006KT 10SM CLR M01/M05 A3018 390 72 -1300 020/06 RMK AO2
14840KMKG MKG20000410024009604/10/00 02:40:31  5-MIN KMKG 100740Z 01007KT 10SM CLR M01/M05 A3018 390 72 -1300 010/07 RMK AO2
14840KMKG MKG20000410024509604/10/00 02:45:31  5-MIN KMKG 100745Z 01004KT 10SM CLR M01/M05 A3018 390 72 -1300 010/04 RMK AO2
14840KMKG MKG20000410025011304/10/00 02:50:31  5-MIN KMKG 100750Z 01005KT 10SM CLR M01/M05 A3018 390 75 -1400 020/05 RMK AO2 SLP226 T10111050
14840KMKG MKG20000410025511304/10/00 02:55:31  5-MIN KMKG 100755Z 01005KT 10SM CLR M01/M05 A3019 390 75 -1400 010/05 RMK AO2 SLP227 T10111050
14840KMKG MKG20000410030009604/10/00 03:00:31  5-MIN KMKG 100800Z 36004KT 10SM CLR M01/M05 A3019 390 75 -1400 010/04 RMK AO2
14840KMKG MKG20000410030509604/10/00 03:05:31  5-MIN KMKG 100805Z 36006KT 10SM CLR M01/M05 A3019 380 75 -1400 010/06 RMK AO2
14840KMKG MKG20000410031009604/10/00 03:10:31  5-MIN KMKG 100810Z 36006KT 10SM CLR M01/M05 A3019 380 75 -1400 360/06 RMK AO2
14840KMKG MKG20000410031509604/10/00 03:15:31  5-MIN KMKG 100815Z 36006KT 10SM CLR M01/M05 A3019 380 75 -1400 360/06 RMK AO2
14840KMKG MKG20000410032009604/10/00 03:20:31  5-MIN KMKG 100820Z 36006KT 10SM CLR M01/M05 A3019 380 75 -1400 010/06 RMK AO2
14840KMKG MKG20000410032509604/10/00 03:25:31  5-MIN KMKG 100825Z 36006KT 10SM CLR M01/M05 A3019 380 75 -1400 010/06 RMK AO2
14840KMKG MKG20000410033009604/10/00 03:30:31  5-MIN KMKG 100830Z 36005KT 10SM CLR M01/M05 A3020 370 75 -1400 360/05 RMK AO2
14840KMKG MKG20000410033509604/10/00 03:35:31  5-MIN KMKG 100835Z 35006KT 10SM CLR M01/M05 A3020 370 75 -1400 350/06 RMK AO2
14840KMKG MKG20000410034009604/10/00 03:40:31  5-MIN KMKG 100840Z 36004KT 10SM CLR M01/M05 A3020 370 75 -1400 360/04 RMK AO2
14840KMKG MKG20000410034509604/10/00 03:45:31  5-MIN KMKG 100845Z 36005KT 10SM CLR M02/M06 A3020 370 75 -1500 360/05 RMK AO2
14840KMKG MKG20000410035011904/10/00 03:50:31  5-MIN KMKG 100850Z 01007KT 10SM CLR M01/M06 A3021 370 72 -1400 020/07 RMK AO2 SLP235 T10111056 53022
14840KMKG MKG20000410035511904/10/00 03:55:31  5-MIN KMKG 100855Z 01006KT 10SM CLR M01/M06 A3021 360 72 -1400 010/06 RMK AO2 SLP236 T10111056 53020
14840KMKG MKG20000410040009604/10/00 04:00:31  5-MIN KMKG 100900Z 01005KT 10SM CLR M01/M06 A3021 360 72 -1400 010/05 RMK AO2
14840KMKG MKG20000410040509604/10/00 04:05:31  5-MIN KMKG 100905Z 36006KT 10SM CLR M01/M06 A3021 360 69 -1400 010/06 RMK AO2
14840KMKG MKG20000410041009604/10/00 04:10:31  5-MIN KMKG 100910Z 36006KT 10SM CLR M01/M06 A3021 360 69 -1400 010/06 RMK AO2
14840KMKG MKG20000410041509604/10/00 04:15:31  5-MIN KMKG 100915Z 36005KT 10SM CLR M01/M06 A3021 360 69 -1400 360/05 RMK AO2
14840KMKG MKG20000410042009604/10/00 04:20:31  5-MIN KMKG 100920Z 36006KT 10SM CLR M01/M06 A3021 360 69 -1400 360/06 RMK AO2
14840KMKG MKG20000410042509604/10/00 04:25:31  5-MIN KMKG 100925Z 35005KT 10SM CLR M01/M06 A3021 360 69 -1400 360/05 RMK AO2
14840KMKG MKG20000410043009604/10/00 04:30:31  5-MIN KMKG 100930Z 36004KT 10SM CLR M01/M06 A3021 360 69 -1400 360/04 RMK AO2
14840KMKG MKG20000410043509604/10/00 04:35:31  5-MIN KMKG 100935Z 35004KT 10SM CLR M02/M06 A3021 360 72 -1500 350/04 RMK AO2
14840KMKG MKG20000410044009604/10/00 04:40:31  5-MIN KMKG 100940Z 36005KT 10SM CLR M02/M06 A3022 360 72 -1500 360/05 RMK AO2
14840KMKG MKG20000410044509604/10/00 04:45:31  5-MIN KMKG 100945Z 35004KT 10SM CLR M02/M07 A3022 360 69 -1500 350/04 RMK AO2
14840KMKG MKG20000410045011304/10/00 04:50:31  5-MIN KMKG 100950Z 34006KT 10SM CLR M02/M07 A3022 350 69 -1500 340/06 RMK AO2 SLP239 T10171067
14840KMKG MKG20000410045511304/10/00 04:55:31  5-MIN KMKG 100955Z 34006KT 10SM CLR M01/M07 A3022 350 66 -1400 350/06 RMK AO2 SLP240 T10111067
14840KMKG MKG20000410050009604/10/00 05:00:31  5-MIN KMKG 101000Z 35006KT 10SM CLR M01/M07 A3022 350 66 -1400 350/06 RMK AO2
14840KMKG MKG20000410050509604/10/00 05:05:31  5-MIN KMKG 101005Z 36005KT 10SM CLR M02/M07 A3022 350 69 -1500 360/05 RMK AO2
14840KMKG MKG20000410051009604/10/00 05:10:31  5-MIN KMKG 101010Z 36006KT 10SM CLR M02/M07 A3022 350 66 -1500 360/06 RMK AO2
14840KMKG MKG20000410051509604/10/00 05:15:31  5-MIN KMKG 101015Z 35006KT 10SM CLR M02/M07 A3023 350 66 -1500 360/06 RMK AO2
14840KMKG MKG20000410052009604/10/00 05:20:31  5-MIN KMKG 101020Z 35005KT 10SM CLR M02/M07 A3023 350 66 -1500 360/05 RMK AO2
14840KMKG MKG20000410052509604/10/00 05:25:31  5-MIN KMKG 101025Z 36005KT 10SM CLR M02/M07 A3023 340 66 -1500 360/05 RMK AO2
14840KMKG MKG20000410053009604/10/00 05:30:31  5-MIN KMKG 101030Z 36005KT 10SM CLR M02/M07 A3023 340 66 -1500 360/05 RMK AO2
14840KMKG MKG20000410053509604/10/00 05:35:31  5-MIN KMKG 101035Z 35004KT 10SM CLR M02/M07 A3023 340 66 -1500 360/04 RMK AO2
14840KMKG MKG20000410054009604/10/00 05:40:31  5-MIN KMKG 101040Z 35005KT 10SM CLR M02/M07 A3024 340 66 -1500 350/05 RMK AO2
14840KMKG MKG20000410054509604/10/00 05:45:31  5-MIN KMKG 101045Z 34007KT 10SM CLR M02/M07 A3024 340 66 -1500 350/07 RMK AO2
14840KMKG MKG20000410055011304/10/00 05:50:31  5-MIN KMKG 101050Z 34007KT 10SM CLR M01/M07 A3024 340 63 -1500 350/07 RMK AO2 SLP246 T10111072
14840KMKG MKG20000410055511304/10/00 05:55:31  5-MIN KMKG 101055Z 35006KT 10SM CLR M01/M07 A3024 330 63 -1500 350/06 RMK AO2 SLP247 T10111072
14840KMKG MKG20000410060009904/10/00 06:00:31  5-MIN KMKG 101100Z 35007KT 10SM FEW032 M01/M07 A3025 330 63 -1500 350/07 RMK AO2
14840KMKG MKG20000410060509904/10/00 06:05:31  5-MIN KMKG 101105Z 35007KT 10SM FEW032 M01/M07 A3025 330 63 -1500 350/07 RMK AO2
14840KMKG MKG20000410061009904/10/00 06:10:31  5-MIN KMKG 101110Z 34007KT 10SM FEW032 M01/M07 A3025 320 63 -1500 350/07 RMK AO2
14840KMKG MKG20000410061509904/10/00 06:15:31  5-MIN KMKG 101115Z 36006KT 10SM FEW032 M01/M07 A3026 320 63 -1500 360/06 RMK AO2
14840KMKG MKG20000410062009904/10/00 06:20:31  5-MIN KMKG 101120Z 36006KT 10SM FEW032 M01/M07 A3026 320 66 -1500 360/06 RMK AO2
14840KMKG MKG20000410062509904/10/00 06:25:31  5-MIN KMKG 101125Z 35005KT 10SM FEW032 M01/M07 A3026 320 63 -1500 350/05 RMK AO2
14840KMKG MKG20000410063009904/10/00 06:30:31  5-MIN KMKG 101130Z 35006KT 10SM FEW032 M01/M07 A3026 320 61 -1400 360/06 RMK AO2
14840KMKG MKG20000410063509904/10/00 06:35:31  5-MIN KMKG 101135Z 36006KT 10SM FEW032 M01/M07 A3026 310 63 -1400 010/06 RMK AO2
14840KMKG MKG20000410064009904/10/00 06:40:31  5-MIN KMKG 101140Z 36006KT 10SM FEW032 M01/M07 A3027 310 63 -1400 360/06 RMK AO2
14840KMKG MKG20000410064509904/10/00 06:45:31  5-MIN KMKG 101145Z 36005KT 10SM FEW032 M01/M07 A3027 310 63 -1400 360/05 RMK AO2
14840KMKG MKG20000410065014004/10/00 06:50:31  5-MIN KMKG 101150Z 35005KT 10SM FEW032 M01/M07 A3027 310 63 -1400 360/05 RMK AO2 SLP256 70002 T10061067 10006 21017 53020
14840KMKG MKG20000410065514004/10/00 06:55:31  5-MIN KMKG 101155Z 35005KT 10SM FEW032 M01/M07 A3027 310 63 -1400 360/05 RMK AO2 SLP256 70002 T10061067 10006 21017 53020
14840KMKG MKG20000410070009904/10/00 07:00:31  5-MIN KMKG 101200Z 01006KT 10SM FEW032 M01/M07 A3027 310 63 -1400 010/06 RMK AO2
14840KMKG MKG20000410070509904/10/00 07:05:31  5-MIN KMKG 101205Z 01005KT 10SM FEW032 M01/M07 A3028 300 63 -1400 010/05 RMK AO2
14840KMKG MKG20000410071009804/10/00 07:10:31  5-MIN KMKG 101210Z 35006KT 10SM FEW032 00/M07 A3028 300 61 -1400 360/06 RMK AO2
14840KMKG MKG20000410071509804/10/00 07:15:31  5-MIN KMKG 101215Z 35005KT 10SM FEW032 00/M07 A3028 300 61 -1400 360/05 RMK AO2
14840KMKG MKG20000410072009804/10/00 07:20:31  5-MIN KMKG 101220Z 36005KT 10SM FEW032 00/M07 A3028 300 61 -1400 360/05 RMK AO2
14840KMKG MKG20000410072509804/10/00 07:25:31  5-MIN KMKG 101225Z 35005KT 10SM FEW032 00/M07 A3028 300 61 -1400 350/05 RMK AO2
14840KMKG MKG20000410073009804/10/00 07:30:31  5-MIN KMKG 101230Z 33007KT 10SM FEW032 00/M07 A3028 300 61 -1400 340/07 RMK AO2
14840KMKG MKG20000410073509804/10/00 07:35:31  5-MIN KMKG 101235Z 36006KT 10SM FEW032 00/M07 A3029 290 58 -1400 360/06 RMK AO2
14840KMKG MKG20000410074009804/10/00 07:40:31  5-MIN KMKG 101240Z 36006KT 10SM FEW032 01/M07 A3029 290 58 -1300 360/06 RMK AO2
14840KMKG MKG20000410074509804/10/00 07:45:31  5-MIN KMKG 101245Z 36010KT 10SM FEW032 01/M07 A3029 290 56 -1300 010/10 RMK AO2
14840KMKG MKG20000410075011504/10/00 07:50:31  5-MIN KMKG 101250Z 36006KT 10SM FEW032 01/M07 A3029 290 56 -1300 360/06 RMK AO2 SLP264 T00061072
14840KMKG MKG20000410075511504/10/00 07:55:31  5-MIN KMKG 101255Z 36009KT 10SM FEW032 01/M07 A3029 290 56 -1300 010/09 RMK AO2 SLP264 T00061072
14840KMKG MKG20000410080009804/10/00 08:00:31  5-MIN KMKG 101300Z 36008KT 10SM FEW032 01/M07 A3029 290 56 -1300 010/08 RMK AO2
14840KMKG MKG20000410080511404/10/00 08:05:31  5-MIN KMKG 101305Z 36007KT 330V040 10SM FEW032 01/M07 A3029 290 56 -1300 010/07 330V040 RMK AO2
14840KMKG MKG20000410081009804/10/00 08:10:31  5-MIN KMKG 101310Z 36008KT 10SM FEW032 01/M08 A3030 280 54 -1300 010/08 RMK AO2
14840KMKG MKG20000410081509804/10/00 08:15:31  5-MIN KMKG 101315Z 35008KT 10SM FEW032 01/M07 A3030 280 56 -1300 360/08 RMK AO2
14840KMKG MKG20000410082009804/10/00 08:20:31  5-MIN KMKG 101320Z 02010KT 10SM FEW032 01/M08 A3029 290 54 -1300 020/10 RMK AO2
14840KMKG MKG20000410082510404/10/00 08:25:31  5-MIN KMKG 101325Z 36010G15KT 10SM FEW032 01/M07 A3030 280 56 -1300 010/10G15 RMK AO2
14840KMKG MKG20000410083012404/10/00 08:30:31  5-MIN KMKG 101330Z 02010G15KT 10SM FEW032 01/M08 A3030 SM FEW032 01/M07 A3029 290 54 -1200 010/12 RMK AO2
14840KMKG MKG20000410085011504/10/00 08:50:31  5-MIN KMKG 101350Z 02008KT 10SM FEW032 01/M07 A3029 290 54 -1200 020/08 RMK AO2 SLP264 T00111072
14840KMKG MKG20000410085509204/10/00 08:55:31  5-MIN KMKG 101355Z 02010KT 10SM FEW034 01/M0790 0049 -1200 060/05 RMK AO2
14840KMKG MKG20000410101009804/10/00 10:10:31  5-MIN KMKG 101510Z 03006KT 10SM FEW034 02/M08 A3029 290 49 -1200 030/06 RMK AO2
14840KMKG MKG20000410101509804/10/00 10:15:31  5-MIN KMKG 101515Z 04006KT 10SM FEW034 02/M08 A3029 290 49 -1200 050/06 RMK AO2
14840KMKG MKG20000410111509804/10/00 11:15:31  5-MIN KMKG 101615Z VRB05KT 10SM FEW034 03/M08 A3030 290 44 -1000 VRB/05 RMK AO2
14840KMKG MKG20000410112009804/10/00 11:20:31  5-MIN KMKG 101620Z VRB03KT 10SM FEW034 03/M09 A3030 290 42 -1000 VRB/03 RMK AO2
14840KMKG MKG20000410112506304/10/00 11:25:31  5-MIN KMKG 101625Z VR52 -1000 280/09 RMK AO2
14840KMKG MKG20000410123009504/10/00 12:30:31  5-MIN KMKG 101730Z 27011KT 10SM CLR 03/M06 A3029 290 52 -1000 280/11 RMK AO2
14840KMKG MKG20000410123513504/10/00 12:35:31  5-MIN KMKG 101735Z 25010KT 10SM CLR 03/M06 A3029 290 54 -1000 260/10 RMK AO2 3/M06 A3030 280 54 -1000 270/10 RMK AO2
14840KMKG MKG20000410134509504/10/00 13:45:31  5-MIN KMKG 101845Z 28008KT 10SM CLR 03/M06 A3029 290 54 -1000 290/08 RMK AO2
14840KMKG MKG20000410135007404/10/00 13:50:31  5-MIN KMKG 101850Z 27010KT 10SM CLR 03/M05 A3030 280 56
14840KMKG MKG20000410150009504/10/00 15:00:31  5-MIN KMKG 102000Z 28007KT 10SM CLR 02/M06 A3029 290 56 -1100 290/07 RMK AO2
14840KMKG MKG20000410152009504/10/00 15:20:31  5-MIN KMKG 102020Z 29008KT 10SM CLR 02/M05 A3028 300 59 -1100 300/08 RMK AO2
14840KMKG MKG20000410152509504/10/00 15:25:31  5-MIN KMKG 102025Z 32008KT 10SM CLR 02/M06 A3028 300 56 -1100 320/08 RMK AO2
14840KMKG MKG20000410153006004/10/00 15:30:31  5-MIN KMKG 102030Z 31-1100 VRB/05 RMK AO2
14840KMKG MKG20000410164509504/10/00 16:45:31  5-MIN KMKG 102145Z 32006KT 10SM CLR 03/M05 A3027 310 56 -1000 320/06 RMK AO2
14840KMKG MKG20000410165017604/10/00 16:50:31  5-MIN KMKG 102150Z 31005KT 10SM CLR 02/M06 A3027 310 56 -1100 320/05 RMK AO2 SLP259 T00221056 04/10/00003KT 10SM CLR 02/M06 A3027 310 56 -1100 290/03 RMK AO2
14840KMKG MKG20000410180509504/10/00 18:05:31  5-MIN KMKG 102305Z 32003KT 10SM CLR 03/M06 A3027 310 54 -1000 330/03 RMK AO2
14840KMKG MKG20000410181009504/10/00 18:10:31  5-MIN KMKG 102310Z 00000KT 10SM CLR 03/M06 A3027 310 54 -1000 000/00 RMK AO2
14840KMKG MKG20000410181509504/10/00 18:15:31  5-MIN KMKG 102315Z 29003KT 10SM CLR 03/M06 A3027 310 54 -1000 300/03 RMK AO2
14840KMKG MKG20000410182009504/10/00 18:20:31  5-MIN KMKG 102320Z 34004KT 10SM CLR 03/M05 A3027 310 56 -1000 340/04 RMK AO2
14840KMKG MKG20000410182509804/10/00 18:25:31  5-MIN KMKG 102325Z 33003KT 10SM FEW110 03/M05 A3028 300 56 -1000 330/03 RMK AO2
14840KMKG MKG20000410183009804/10/00 18:30:31  5-MIN KMKG 102330Z 32003KT 10SM FEW120 03/M05 A3028 300 56 -1000 330/03 RMK AO2
14840KMKG MKG20000410183509804/10/00 18:35:31  5-MIN KMKG 102335Z 34004KT 10SM SCT110 03/M05 A3028 300 56 -1000 350/04 RMK AO2
14840KMKG MKG20000410184009804/10/00 18:40:31  5-MIN KMKG 102340Z 00000KT 10SM SCT110 03/M05 A3028 300 56 -1000 000/00 RMK AO2
14840KMKG MKG20000410184509804/10/00 18:45:31  5-MIN KMKG 102345Z 34003KT 10SM BKN110 03/M05 A3028 300 56 -1000 340/03 RMK AO2
14840KMKG MKG20000410185013304/10/00 18:50:31  5-MIN KMKG 102350Z 33004KT 10SM BKN110 03/M05 A3028 300 56 -1000 340/04 RMK AO2 SLP260 T00281050 10033 20022 58007
14840KMKG MKG20000410185513304/10/00 18:55:31  5-MIN KMKG 102355Z 32003KT 10SM OVC110 03/M05 A3028 300 56 -1000 320/03 RMK AO2 SLP260 T00281050 10033 20022 53001
14840KMKG MKG20000410190009804/10/00 19:00:31  5-MIN KMKG 110000Z 32004KT 10SM OVC110 03/M05 A3028 300 56 -1000 330/04 RMK AO2
14840KMKG MKG20000410190509804/10/00 19:05:31  5-MIN KMKG 110005Z 33003KT 10SM OVC110 03/M04 A3028 300 59 -1000 340/03 RMK AO2
14840KMKG MKG20000410191009804/10/00 19:10:31  5-MIN KMKG 110010Z 35003KT 10SM OVC100 03/M04 A3028 300 59 -1000 360/03 RMK AO2
14840KMKG MKG20000410191509804/10/00 19:15:31  5-MIN KMKG 110015Z 34003KT 10SM OVC100 03/M04 A3028 300 59 -1000 340/03 RMK AO2
14840KMKG MKG20000410192009804/10/00 19:20:31  5-MIN KMKG 110020Z 34003KT 10SM OVC100 03/M04 A3028 300 59 -1000 350/03 RMK AO2
14840KMKG MKG20000410192509804/10/00 19:25:31  5-MIN KMKG 110025Z 33003KT 10SM OVC100 03/M04 A3028 300 59 -1000 340/03 RMK AO2
14840KMKG MKG20000410193009804/10/00 19:30:31  5-MIN KMKG 110030Z 33003KT 10SM OVC100 03/M04 A3027 300 59 -1000 340/03 RMK AO2
14840KMKG MKG20000410193509804/10/00 19:35:31  5-MIN KMKG 110035Z 34003KT 10SM OVC110 03/M04 A3027 300 61 -1000 350/03 RMK AO2
14840KMKG MKG20000410194009804/10/00 19:40:31  5-MIN KMKG 110040Z 00000KT 10SM OVC110 03/M04 A3027 300 59 -1000 000/00 RMK AO2
14840KMKG MKG20000410194509804/10/00 19:45:31  5-MIN KMKG 110045Z 00000KT 10SM OVC110 03/M04 A3027 310 59 -1000 000/00 RMK AO2
14840KMKG MKG20000410195011504/10/00 19:50:31  5-MIN KMKG 110050Z 00000KT 10SM OVC110 03/M04 A3027 310 59 -1000 000/00 RMK AO2 SLP258 T00281044
14840KMKG MKG20000410195511504/10/00 19:55:31  5-MIN KMKG 110055Z 01003KT 10SM OVC100 03/M04 A3027 310 59 -1000 020/03 RMK AO2 SLP257 T00281044
14840KMKG MKG20000410200009804/10/00 20:00:31  5-MIN KMKG 110100Z 02003KT 10SM OVC100 03/M04 A3027 310 59 -1000 030/03 RMK AO2
14840KMKG MKG20000410200509804/10/00 20:05:31  5-MIN KMKG 110105Z 03003KT 10SM OVC095 03/M04 A3027 310 59 -1000 030/03 RMK AO2
14840KMKG MKG20000410201009804/10/00 20:10:31  5-MIN KMKG 110110Z 03004KT 10SM OVC095 03/M04 A3027 310 59 -1000 030/04 RMK AO2
14840KMKG MKG20000410201509804/10/00 20:15:31  5-MIN KMKG 110115Z 02003KT 10SM OVC090 03/M04 A3027 310 59 -1000 030/03 RMK AO2
14840KMKG MKG20000410202009804/10/00 20:20:31  5-MIN KMKG 110120Z 04004KT 10SM OVC090 03/M04 A3027 310 59 -1000 040/04 RMK AO2
14840KMKG MKG20000410202509804/10/00 20:25:31  5-MIN KMKG 110125Z 03005KT 10SM OVC090 03/M04 A3026 310 59 -1000 030/05 RMK AO2
14840KMKG MKG20000410203009804/10/00 20:30:31  5-MIN KMKG 110130Z 03005KT 10SM OVC090 03/M04 A3026 310 59 -1000 040/05 RMK AO2
14840KMKG MKG20000410203509804/10/00 20:35:31  5-MIN KMKG 110135Z 03004KT 10SM OVC090 03/M04 A3026 310 59 -1000 040/04 RMK AO2
14840KMKG MKG20000410204009804/10/00 20:40:31  5-MIN KMKG 110140Z 04004KT 10SM OVC090 03/M04 A3026 320 59 -1000 040/04 RMK AO2
14840KMKG MKG20000410204509804/10/00 20:45:31  5-MIN KMKG 110145Z 04005KT 10SM OVC090 03/M04 A3026 320 59 -1000 050/05 RMK AO2
14840KMKG MKG20000410205011504/10/00 20:50:31  5-MIN KMKG 110150Z 05005KT 10SM OVC090 03/M04 A3026 320 59 -1000 050/05 RMK AO2 SLP253 T00281044
14840KMKG MKG20000410205511504/10/00 20:55:31  5-MIN KMKG 110155Z 05004KT 10SM BKN090 03/M04 A3026 320 59 -1000 060/04 RMK AO2 SLP253 T00281044
14840KMKG MKG20000410210009804/10/00 21:00:31  5-MIN KMKG 110200Z 06006KT 10SM BKN090 03/M04 A3025 320 59 -1000 070/06 RMK AO2
14840KMKG MKG20000410210509804/10/00 21:05:31  5-MIN KMKG 110205Z 06006KT 10SM BKN090 03/M04 A3026 320 59 -1000 060/06 RMK AO2
14840KMKG MKG20000410211012004/10/00 21:10:31  5-MIN KMKG 110210Z 05007KT 10SM SCT080 BKN095 03/M05 A3026 320 56 -1000 060/07 RMK AO2 CIG 080 RWY 14
14840KMKG MKG20000410211512004/10/00 21:15:31  5-MIN KMKG 110215Z 05006KT 10SM SCT080 BKN095 02/M05 A3025 320 59 -1100 050/06 RMK AO2 CIG 080 RWY 14
14840KMKG MKG20000410212009804/10/00 21:20:31  5-MIN KMKG 110220Z 04007KT 10SM BKN085 03/M05 A3026 320 56 -1000 050/07 RMK AO2
14840KMKG MKG20000410212510504/10/00 21:25:31  5-MIN KMKG 110225Z 05006KT 10SM BKN080 OVC095 03/M05 A3025 320 56 -1000 060/06 RMK AO2
14840KMKG MKG20000410213010504/10/00 21:30:31  5-MIN KMKG 110230Z 05005KT 10SM BKN075 OVC095 02/M04 A3026 320 61 -1100 050/05 RMK AO2
14840KMKG MKG20000410213509804/10/00 21:35:31  5-MIN KMKG 110235Z 04004KT 10SM OVC075 03/M05 A3026 320 56 -1000 040/04 RMK AO2
14840KMKG MKG20000410214010504/10/00 21:40:31  5-MIN KMKG 110240Z 05005KT 10SM BKN070 OVC080 03/M05 A3026 320 56 -1000 050/05 RMK AO2
14840KMKG MKG20000410214509804/10/00 21:45:31  5-MIN KMKG 110245Z 05004KT 10SM OVC070 03/M04 A3026 320 59 -1000 050/04 RMK AO2
14840KMKG MKG20000410215012104/10/00 21:50:31  5-MIN KMKG 110250Z 05005KT 10SM OVC065 03/M05 A3026 320 56 -1000 060/05 RMK AO2 SLP252 T00281050 53001
14840KMKG MKG20000410215512104/10/00 21:55:31  5-MIN KMKG 110255Z 06004KT 10SM OVC060 03/M05 A3025 320 56 -1000 060/04 RMK AO2 SLP252 T00281050 56008
14840KMKG MKG20000410220010504/10/00 22:00:31  5-MIN KMKG 110300Z 05004KT 10SM BKN050 OVC065 03/M04 A3025 320 59 -1000 050/04 RMK AO2
14840KMKG MKG20000410220510504/10/00 22:05:31  5-MIN KMKG 110305Z 06005KT 10SM BKN048 OVC065 02/M05 A3025 320 59 -1100 060/05 RMK AO2
14840KMKG MKG20000410221010504/10/00 22:10:31  5-MIN KMKG 110310Z 06006KT 10SM BKN046 OVC070 02/M05 A3025 320 59 -1100 060/06 RMK AO2
14840KMKG MKG20000410221509804/10/00 22:15:31  5-MIN KMKG 110315Z 04006KT 10SM OVC046 02/M05 A3026 320 59 -1100 050/06 RMK AO2
14840KMKG MKG20000410222005804/10/00 22:20:31  5-MIN A3025 320 59 -1100 060/06 RMK AO2
14840KMKG MKG20000410223510504/10/00 22:35:31  5-MIN KMKG 110335Z 07005KT 10SM BKN040 OVC060 02/M05 A3025 320 59 -1100 070/05 RMK AO2
14840KMKG MKG20000410224007104/10/00 22:40:31  5-MIN KMKG 110340Z 10003KT 10SM BKN046 BKN060 OVC110
14840KMKG MKG20000410233512104/10/00 23:35:31  5-MIN KMKG 110435Z 07005KT 10SM FEW038 BKN050 OVC060 03/M04 A3024 340 59 -1000 070/05 RMK AO2 04/10/00
14840KMKG MKG20000411004011804/11/00 00:40:31  5-MIN KMKG 110540Z 08003KT 2 1/2SM -SN BKN021 OVC046 02/M02 A3024 340 78 -1100 080/03 RMK AO2 P0000
14840KMKG MKG20000411004511704/11/00 00:45:31  5-MIN KMKG 110545Z 07005KT 2 1/2SM -SN BR BKN019 OVC046 01/M01 A3024 340 85 -1200 070/05 RMK AO201
14840KMKG MKG20000411015506904/11/00 01:55:31  5-MIN KMKG 110655Z 06008KT 6SM UP BR BKN024 OVC039
14840KMKG MKG20000411030007004/11/00 03:00:31  5-MIN KMKG 110800Z 06008KT 3SM -SN BR OVC038 01/M01
14840KMKG MKG20000411040011404/11/00 04:00:31  5-MIN KMKG 110900Z 06009KT 2 1/2SM -SN BR OVC038 00/M01 A3020 380 96 -1300 070/09 RMK AO2 P0000
14840KMKG MKG20000411040511404/11/00 04:05:31  5-MIN KMKG 110905Z 06009KT 2 1/2SM -SN BR OVC038 00/M01 A3020 370 96 -1300 070/09 RMK AO2 P0001
14840KMKG MKG20000411041011404/11/00 04:10:31  5-MIN KMKG 110910Z 06010KT 2 1/2SM -SN BR OVC038 00/M01 A3019 380 96 -1300 070/10 RMK AO2 P0001
14840KMKG MKG20000411041511004/11/00 04:15:31  5-MIN KMKG 110915Z 06009KT 3SM -SN BR OVC038 00/M01 A3019 380 96 -1300 070/09 RMK AO2 P0001
14840KMKG MKG20000411042011004/11/00 04:20:31  5-MIN KMKG 110920Z 07011KT 4SM -SN BR OVC038 00/M01 A3019 380 96 -1300 070/11 RMK AO2 P0001
14840KMKG MKG20000411042512004/11/00 04:25:31  5-MIN KMKG 110925Z 06009KT 5SM UP BR OVC038 00/M01 A3019 380 96 -1300 070/09 RMK AO2 UPB24SNE24 P0001
14840KMKG MKG20000411043011004/11/00 04:30:31  5-MIN KMKG 110930Z 07009KT 6SM -SN BR OVC038 00/M01 A3019 380 96 -1300 070/09 RMK AO2 P0001
14840KMKG MKG20000411043511004/11/00 04:35:31  5-MIN KMKG 110935Z 07012KT 6SM -SN BR OVC036 00/M01 A3019 380 92 -1300 070/12 RMK AO2 P0001
14840KMKG MKG20000411044011004/11/00 04:40:31  5-MIN KMKG 110940Z 06010KT 7SM -SN BR OVC036 00/M01 A3019 380 92 -1300 070/10 RMK AO2 P0001
14840KMKG MKG20000411044511004/11/00 04:45:31  5-MIN KMKG 110945Z 07009KT 8SM -SN BR OVC036 00/M01 A3019 380 92 -1300 070/09 RMK AO2 P0001
14840KMKG MKG20000411045012704/11/00 04:50:31  5-MIN KMKG 110950Z 06010KT 7SM -SN BR OVC036 00/M01 A3019 380 92 -1300 060/10 RMK AO2 SLP230 P0001 T00001011
14840KMKG MKG20000411045512704/11/00 04:55:31  5-MIN KMKG 110955Z 06009KT 6SM -SN BR OVC036 00/M01 A3019 380 92 -1300 060/09 RMK AO2 SLP230 P0001 T00001011
14840KMKG MKG20000411050011704/11/00 05:00:31  5-MIN KMKG 111000Z 05007KT 6SM -SN BR FEW010 OVC036 00/M01 A3019 380 92 -1300 060/07 RMK AO2 P0000
14840KMKG MKG20000411050511704/11/00 05:05:31  5-MIN KMKG 111005Z 06010KT 5SM -SN BR SCT010 OVC036 00/M01 A3019 380 92 -1300 060/10 RMK AO2 P0000
14840KMKG MKG20000411051011704/11/00 05:10:31  5-MIN KMKG 111010Z 07011KT 4SM -SN BR SCT010 OVC036 00/M01 A3019 380 92 -1300 070/11 RMK AO2 P0000
14840KMKG MKG20000411051511704/11/00 05:15:31  5-MIN KMKG 111015Z 06009KT 4SM -SN BR FEW010 OVC036 00/M01 A3019 380 92 -1300 060/09 RMK AO2 P0000
14840KMKG MKG20000411052011804/11/00 05:20:31  5-MIN KMKG 111020Z 05009KT 5SM -SN BR FEW010 OVC036 M01/M02 A3019 380 92 -1300 060/09 RMK AO2 P0000
14840KMKG MKG20000411052511804/11/00 05:25:31  5-MIN KMKG 111025Z 06009KT 5SM -SN BR FEW010 OVC036 M01/M02 A3019 380 92 -1300 060/09 RMK AO2 P0000
14840KMKG MKG20000411053011804/11/00 05:30:31  5-MIN KMKG 111030Z 05009KT 5SM -SN BR FEW010 OVC036 M01/M02 A3019 380 92 -1300 060/09 RMK AO2 P0000
14840KMKG MKG20000411053511104/11/00 05:35:31  5-MIN KMKG 111035Z 06010KT 4SM -SN BR OVC036 M01/M02 A3019 380 92 -1300 060/10 RMK AO2 P0001
14840KMKG MKG20000411054011804/11/00 05:40:31  5-MIN KMKG 111040Z 06008KT 5SM -SN BR BKN036 OVC044 M01/M02 A3019 380 92 -1300 060/08 RMK AO2 P0001
14840KMKG MKG20000411054511804/11/00 05:45:31  5-MIN KMKG 111045Z 05009KT 5SM -SN BR BKN036 OVC044 M01/M02 A3019 380 92 -1300 060/09 RMK AO2 P0001
14840KMKG MKG20000411055013504/11/00 05:50:31  5-MIN KMKG 111050Z 05009KT 4SM -SN BR SCT036 OVC044 M01/M02 A3019 380 92 -1300 050/09 RMK AO2 SLP231 P0001 T10061017
14840KMKG MKG20000411055512804/11/00 05:55:31  5-MIN KMKG 111055Z 05009KT 3SM -SN BR OVC041 M01/M02 A3019 380 92 -1300 050/09 RMK AO2 SLP231 P0001 T10061017
14840KMKG MKG20000411060011104/11/00 06:00:31  5-MIN KMKG 111100Z 05010KT 3SM -SN BR OVC042 M01/M02 A3019 380 92 -1300 060/10 RMK AO2 P0000
14840KMKG MKG20000411060513304/11/00 06:05:31  5-MIN KMKG 111105Z 05006KT 3SM -SN BR FEW011 OVC044 M01/M02 A3020 370 92 -1300 060/06 RMK AO2 CIG 034 RWY 14 P0000
14840KMKG MKG20000411061014004/11/00 06:10:31  5-MIN KMKG 111110Z 06008KT 3SM -SN BR FEW011 SCT036 OVC044 M01/M02 A3020 370 92 -1300 060/08 RMK AO2 CIG 030 RWY 14 P0000
14840KMKG MKG20000411061514404/11/00 06:15:31  5-MIN KMKG 111115Z 06009KT 2 1/2SM -SN BR FEW011 BKN036 OVC044 M01/M02 A3020 370 92 -1300 060/09 RMK AO2 CIG 028 RWY 14 P0000
14840KMKG MKG20000411062014404/11/00 06:20:31  5-MIN KMKG 111120Z 05009KT 2 1/2SM -SN BR FEW011 BKN036 OVC044 M01/M02 A3020 370 92 -1400 050/09 RMK AO2 CIG 028 RWY 14 P0001
14840KMKG MKG20000411064512904/11/00 06:45:31  5-MIN KMKG 111145Z 05008KT 2 1/2SM -SN BR FEW011 BKN020 OVC036 M01/M01 A3020 370 96 -1400 060/08 RMK AO2 P0001
14840KMKG MKG20000411065010704/11/00 06:50:31  5-MIN KMKG 111150Z 06008KT 2 1/2SM -SN BR SCT011 OVC020  CIG 008 RWY 14 P0000-1400 060/0
14840KMKG MKG20000411073014004/11/00 07:30:31  5-MIN KMKG 111230Z 06010KT 1SM -SN BR SCT010 BKN013 OVC034 M01/M01 A3020 370 96 -1400 070/10 RMK AO2 CIG 008 RWY 14 P0000
14840KMKG MKG20000411073507004/11/00 07:35:31  5-MIN KMKG 111235Z 06013G16KT 1 1/4SM -SN BR BKN010
14840KMKG MKG20000411080513304/11/00 08:05:31  5-MIN KMKG 111305Z 07010KT 2SM -SN BR SCT010 OVC034 M01/M02 A3020 370 92 -1400 070/10 RMK AO2 CIG 010 RWY 14 P0000
14840KMKG MKG20000411081010304/11/00 08:10:31  5-MIN KMKG 111310Z 05010KT 2SM -SN BR SCT010 OVC034 221/M02 A3020 370 92 -1400 060/1
14840KMKG MKG20000411085515004/11/00 08:55:31  5-MIN KMKG 111355Z 06011KT 2SM -SN BR SCT010 OVC036 M01/M02 A3021 360 88 -1400 070/11 RMK AO2 CIG 011 RWY 14 SLP236 P0000 T10061022
14840KMKG MKG20000411090007704/11/00 09:00:31  5-MIN KMKG 111400Z 05008KT 1 1/2SM -SN BR SCT010 OVC036 14
14840KMKG MKG20000411095015404/11/00 09:50:31  5-MIN KMKG 111450Z 06008KT 3SM -SN BR SCT010 SCT021 OVC038 M01/M02 A3021 360 92 -1400 060/08 RMK AO2 SLP237 P0000 60001 T10061017 53000
14840KMKG MKG20000411095510104/11/00 09:55:31  5-MIN KMKG 111455Z 06009KT 3SM -SN BR SCT010 SCT019  88 -1300 060/11 RMK AO2 P0000
14840KMKG MKG20000411105013404/11/00 10:50:31  5-MIN KMKG 111550Z 05012KT 5SM -SN BR FEW012 OVC034 00/M02 A3021 360 85 -1300 050/12 RMK AO2 SLP238 P0000 T00001022
14840KMKG MKG20000411105507204/11/00 10:55:31  5-MIN KMKG 111555Z 05009KT 4SM -SN FEW012 OVC034 01/M
14840KMKG MKG20000411120012104/11/00 12:00:31  5-MIN KMKG 111700Z 04008KT 6SM BR BKN016 OVC034 01/M01 A3021 370 85 -1200 050/08 RMK AO2 SNE1659 P0000
14840KMKG MKG20000411124011404/11/00 12:40:31  5-MIN KMKG 111740Z 04009KT 9SM -SN BKN016 OVC033 02/M01 A3021 360 82 -1100 050/09 RMK AO2 P0000
14840KMKG MKG20000411124511404/11/00 12:45:31  5-MIN KMKG 111745Z 03006KT 9SM -SN BKN016 OVC033 02/M01 A3021 360 85 -1100 030/06 RMK AO2 P0000
14840KMKG MKG20000411125014804/11/00 12:50:31  5-MIN KMKG 111750Z 03009KT 9SM -SN OVC016 02/M01 A3021 360 82 -1100 030/09 RMK AO2 SLP238 P0000 60001 T00171011 10017 21006 51004
14840KMKG MKG20000411125515704/11/00 12:55:31  5-MIN KMKG 111755Z 03008KT 9SM BKN016 OVC022 02/M01 A3021 360 82 -1100 030/08 RMK AO2 SNE54 SLP238 P0000 60001 T00171011 10017 21006 53001
14840KMKG MKG20000411130009804/11/00 13:00:31  5-MIN KMKG 111800Z 06007KT 10SM OVC018 02/M01 A3021 360 82 -1100 060/07 RMK AO2
14840KMKG MKG20000411130509804/11/00 13:05:31  5-MIN KMKG 111805Z 05006KT 10SM OVC018 02/M01 A3021 360 82 -1000 050/06 RMK AO2
14840KMKG MKG20000411131009804/11/00 13:10:31  5-MIN KMKG 111810Z 05006KT 10SM OVC018 02/M01 A3021 360 82 -1000 050/06 RMK AO2
14840KMKG MKG20000411131509804/11/00 13:15:31  5-MIN KMKG 111815Z 05007KT 10SM OVC018 02/M01 A3021 360 82 -1000 060/07 RMK AO2
14840KMKG MKG20000411132009804/11/00 13:20:31  5-MIN KMKG 111820Z 06006KT 10SM OVC018 02/M01 A3022 360 78 -1000 060/06 RMK AO2
14840KMKG MKG20000411132509804/11/00 13:25:31  5-MIN KMKG 111825Z 05006KT 10SM OVC018 02/M01 A3022 350 82 -1000 060/06 RMK AO2
14840KMKG MKG20000411133009804/11/00 13:30:31  5-MIN KMKG 111830Z 02006KT 10SM OVC018 02/M01 A3022 350 78 -1000 030/06 RMK AO2
14840KMKG MKG20000411133509804/11/00 13:35:31  5-MIN KMKG 111835Z 03008KT 10SM OVC018 02/M01 A3022 350 82 -1100 030/08 RMK AO2
14840KMKG MKG20000411134009804/11/00 13:40:31  5-MIN KMKG 111840Z 04006KT 10SM OVC018 02/M01 A3022 350 82 -1100 050/06 RMK AO2
14840KMKG MKG20000411134509804/11/00 13:45:31  5-MIN KMKG 111845Z 04007KT 10SM OVC018 02/M01 A3023 350 78 -1000 040/07 RMK AO2
14840KMKG MKG20000411135011504/11/00 13:50:31  5-MIN KMKG 111850Z 03007KT 10SM OVC018 02/M01 A3022 350 78 -1000 030/07 RMK AO2 SLP242 T00221011
14840KMKG MKG20000411135511504/11/00 13:55:31  5-MIN KMKG 111855Z 04007KT 10SM OVC018 02/M01 A3022 350 82 -1000 040/07 RMK AO2 SLP242 T00221006
14840KMKG MKG20000411140009804/11/00 14:00:31  5-MIN KMKG 111900Z 03007KT 10SM OVC018 02/M01 A3022 350 78 -1000 040/07 RMK AO2
14840KMKG MKG20000411140509804/11/00 14:05:31  5-MIN KMKG 111905Z 03008KT 10SM OVC018 02/M01 A3023 350 82 -1000 040/08 RMK AO2
14840KMKG MKG20000411141009804/11/00 14:10:31  5-MIN KMKG 111910Z 06008KT 10SM OVC018 02/M01 A3022 350 78 -1000 070/08 RMK AO2
14840KMKG MKG20000411141509804/11/00 14:15:31  5-MIN KMKG 111915Z 03005KT 10SM OVC018 02/M01 A3022 350 78 -1000 030/05 RMK AO2
14840KMKG MKG20000411142009804/11/00 14:20:31  5-MIN KMKG 111920Z 04005KT 10SM OVC018 02/M01 A3022 350 78 -1000 050/05 RMK AO2
14840KMKG MKG20000411142509804/11/00 14:25:31  5-MIN KMKG 111925Z 03007KT 10SM OVC018 02/M01 A3022 350 78 -1000 030/07 RMK AO2
14840KMKG MKG20000411143009804/11/00 14:30:31  5-MIN KMKG 111930Z 06006KT 10SM OVC018 03/M01 A3022 350 79 -1000 060/06 RMK AO2
14840KMKG MKG20000411143509804/11/00 14:35:31  5-MIN KMKG 111935Z 04007KT 10SM OVC018 02/M01 A3023 350 78 -1000 040/07 RMK AO2
14840KMKG MKG20000411144009804/11/00 14:40:31  5-MIN KMKG 111940Z 03007KT 10SM OVC018 02/M01 A3023 350 78 -1000 030/07 RMK AO2
14840KMKG MKG20000411144509804/11/00 14:45:31  5-MIN KMKG 111945Z 03006KT 10SM OVC020 02/M01 A3023 350 78 -1000 030/06 RMK AO2
14840KMKG MKG20000411145011504/11/00 14:50:31  5-MIN KMKG 111950Z VRB03KT 10SM OVC020 02/M01 A3023 340 78 -1000 VRB/03 RMK AO2 SLP244 T00221011
14840KMKG MKG20000411145511504/11/00 14:55:31  5-MIN KMKG 111955Z 06007KT 10SM OVC018 02/M01 A3023 350 78 -1000 070/07 RMK AO2 SLP244 T00221011
14840KMKG MKG20000411150009804/11/00 15:00:31  5-MIN KMKG 112000Z 05004KT 10SM OVC018 02/M01 A3023 340 82 -1000 050/04 RMK AO2
14840KMKG MKG20000411150509804/11/00 15:05:31  5-MIN KMKG 112005Z 03006KT 10SM OVC018 02/M01 A3023 340 78 -1000 040/06 RMK AO2
14840KMKG MKG20000411151009804/11/00 15:10:31  5-MIN KMKG 112010Z 36007KT 10SM OVC018 02/M01 A3023 340 78 -1000 010/07 RMK AO2
14840KMKG MKG20000411151509804/11/00 15:15:31  5-MIN KMKG 112015Z 36006KT 10SM OVC018 02/M01 A3023 340 78 -1000 360/06 RMK AO2
14840KMKG MKG20000411152009804/11/00 15:20:31  5-MIN KMKG 112020Z 36007KT 10SM OVC018 02/M01 A3024 340 78 -1000 360/07 RMK AO2
14840KMKG MKG20000411152509804/11/00 15:25:31  5-MIN KMKG 112025Z 36007KT 10SM OVC018 02/M01 A3024 340 78 -1000 010/07 RMK AO2
14840KMKG MKG20000411153009804/11/00 15:30:31  5-MIN KMKG 112030Z 01006KT 10SM OVC018 02/M01 A3024 340 78 -1000 010/06 RMK AO2
14840KMKG MKG20000411153509804/11/00 15:35:31  5-MIN KMKG 112035Z 02007KT 10SM OVC020 02/M01 A3024 340 78 -1000 020/07 RMK AO2
14840KMKG MKG20000411154009804/11/00 15:40:31  5-MIN KMKG 112040Z 02007KT 10SM OVC020 02/M01 A3024 340 78 -1000 020/07 RMK AO2
14840KMKG MKG20000411154509704/11/00 15:45:31  5-MIN KMKG 112045Z 01006KT 9SM OVC020 02/M01 A3024 340 78 -1000 010/06 RMK AO2
14840KMKG MKG20000411155012004/11/00 15:50:31  5-MIN KMKG 112050Z 01006KT 8SM OVC020 02/M01 A3024 340 78 -1000 020/06 RMK AO2 SLP247 T00221011 53001
14840KMKG MKG20000411155515704/11/00 15:55:31  5-MIN KMKG 112055Z 36008KT 8SM -SN OVC020 02/M01 A3024 340 78 -1000 010/08 RMK AO2 SNB51 SLP247 PRESENT WX -SG P0000 60000 T00221011 53009
14840KMKG MKG20000411160010704/11/00 16:00:31  5-MIN KMKG 112100Z 36007KT 8SM -SN OVC020 02/M01 A3024 330 82 -1100 010/07 RMK AO2 P0000
14840KMKG MKG20000411160511404/11/00 16:05:31  5-MIN KMKG 112105Z 35006KT 8SM -SN FEW015 OVC020 02/M01 A3024 330 82 -1100 350/06 RMK AO2 P0000
14840KMKG MKG20000411161011404/11/00 16:10:31  5-MIN KMKG 112110Z 02007KT 8SM -SN FEW015 OVC022 02/M01 A3025 330 82 -1100 030/07 RMK AO2 P0000
14840KMKG MKG20000411161511404/11/00 16:15:31  5-MIN KMKG 112115Z 36007KT 9SM -SN FEW015 OVC022 02/M01 A3025 330 82 -1100 010/07 RMK AO2 P0000
14840KMKG MKG20000411162011404/11/00 16:20:31  5-MIN KMKG 112120Z 36007KT 9SM -SN FEW017 OVC024 02/M01 A3025 330 82 -1100 010/07 RMK AO2 P0000
14840KMKG MKG20000411162511404/11/00 16:25:31  5-MIN KMKG 112125Z 01007KT 9SM -SN FEW017 OVC024 02/M01 A3025 330 82 -1100 010/07 RMK AO2 P0000
14840KMKG MKG20000411163011404/11/00 16:30:31  5-MIN KMKG 112130Z 01006KT 9SM -SN FEW017 OVC024 02/M01 A3025 320 78 -1100 020/06 RMK AO2 P0000
14840KMKG MKG20000411163511404/11/00 16:35:31  5-MIN KMKG 112135Z 02006KT 9SM -SN FEW017 OVC024 02/M01 A3026 320 78 -1100 020/06 RMK AO2 P0000
14840KMKG MKG20000411164011404/11/00 16:40:31  5-MIN KMKG 112140Z 35007KT 9SM -SN SCT017 OVC024 02/M01 A3026 320 78 -1100 350/07 RMK AO2 P0000
14840KMKG MKG20000411164511604/11/00 16:45:31  5-MIN KMKG 112145Z 01005KT 9SM SCT017 OVC026 02/M01 A3026 320 82 -1100 020/05 RMK AO2 SNE42 P0000
14840KMKG MKG20000411165013404/11/00 16:50:31  5-MIN KMKG 112150Z 36005KT 10SM FEW017 OVC026 02/M01 A3026 310 82 -1100 360/05 RMK AO2 SNE42 SLP255 P0000 T00221006
14840KMKG MKG20000411165514904/11/00 16:55:31  5-MIN KMKG 112155Z 36007KT 10SM SCT017 OVC026 02/M01 A3027 310 82 -1100 010/07 RMK AO2 SNE42 CIG 016 RWY 14 SLP256 P0000 T00221006
14840KMKG MKG20000411170010504/11/00 17:00:31  5-MIN KMKG 112200Z 35006KT 10SM BKN017 OVC026 02/M01 A3027 310 82 -1100 360/06 RMK AO2
14840KMKG MKG20000411170510504/11/00 17:05:31  5-MIN KMKG 112205Z 36007KT 10SM BKN017 OVC026 02/M01 A3027 310 82 -1100 360/07 RMK AO2
14840KMKG MKG20000411171010504/11/00 17:10:31  5-MIN KMKG 112210Z 34006KT 10SM BKN019 OVC026 02/M01 A3027 310 82 -1100 350/06 RMK AO2
14840KMKG MKG20000411171507404/11/00 17:15:31  5-MIN KMKG 112215Z 34006KT 10SM OVC019 02/M01 A3027 310
14840KMKG MKG20000411180510504/11/00 18:05:31  5-MIN KMKG 112305Z 34005KT 10SM FEW018 OVC025 02/M01 A3028 300 82 -1100 350/05 RMK AO2
14840KMKG MKG20000411181010504/11/00 18:10:31  5-MIN KMKG 112310Z 35006KT 10SM FEW020 OVC027 02/M01 A3028 300 82 -1100 350/06 RMK AO2
14840KMKG MKG20000411181502404/11/00 18:15:31  5-MIN
14840KMKG MKG20000411191010504/11/00 19:10:31  5-MIN KMKG 120010Z 32007KT 10SM BKN018 OVC026 02/M01 A3029 290 82 -1100 330/07 RMK AO2
14840KMKG MKG20000411191510504/11/00 19:15:31  5-MIN KMKG 120015Z 32005KT 10SM SCT018 OVC026 02/M01 A3029 290 82 -1100 320/05 RMK AO2
14840KMKG MKG20000411192004804/11/00 19:20:31  5-MIN 75 -1200 340/09 RMK AO2
14840KMKG MKG20000411203509804/11/00 20:35:31  5-MIN KMKG 120135Z 32009KT 10SM FEW033 01/M02 A3033 260 78 -1300 330/09 RMK AO2
14840KMKG MKG20000411204013804/11/00 20:40:31  5-MIN KMKG 120140Z 33009KT 10SM CLR 01/M02 A3033 260 78 -1300 330/09 RMK AO2 04/11/00 20:45:350 78 -1400 310/03 RMK AO2
14840KMKG MKG20000411214509804/11/00 21:45:31  5-MIN KMKG 120245Z 31004KT 10SM SCT070 01/M03 A3033 250 78 -1400 320/04 RMK AO2
14840KMKG MKG20000411215010904/11/00 21:50:31  5-MIN KMKG 120250Z 32003KT 10SM BKN075 00/M03 A3033 250 78 -1400 330/03 RMK AO2 SLP279 T50
14840KMKG MKG20000411225511604/11/00 22:55:31  5-MIN KMKG 120355Z 19003KT 10SM OVC080 M02/M03 A3033 250 96 -1700 200/03 RMK AO2 SLP278 T10221028
14840KMKG MKG20000411230015304/11/00 23:00:31  5-MIN KMKG 120400Z 19003KT 10SM OVC080 M03/M03 A3033 250 96 -1800 190/03 RMK AO2 04/11/00 23:05:3260 A3033 250 92 -1600 240/03 RMK AO2
14840KMKG MKG20000411233510604/11/00 23:35:31  5-MIN KMKG 120435Z 24003KT 10SM FEW070 OVC085 M02/M03 A3033 250 92 -1600 240/03 RMK AO2
14840KMKG MKG20000412002012804/12/00 00:20:31  5-MIN KMKG 120520Z 00000KT 10SM SCT060 SCT075 OVC090 M02/M03 A3034 240 92 -1700 000/00 RMK AO2 CIG 060 RWY 14
14840KMKG MKG20000412002505804/12/00 00:25:31  5-MIN A3035 240 88 -1400 280/03 RMK AO2
14840KMKG MKG20000412011512704/12/00 01:15:31  5-MIN KMKG 120615Z 28003KT 10SM FEW020 SCT027 OVC035 01/M02 A3035 240 85 -1400 280/03 RMK AO2 CIG 029 RWY 14
14840KMKG MKG20000412012012404/12/00 01:20:31  5-MIN KMKG 120620Z 28004KT 10SM SCT022 BKN027 OVC035 OVC032 01/00 A3035 240 96 -1400 300/03 RMK AO2 P0000
14840KMKG MKG20000412021512304/12/00 02:15:31  5-MIN KMKG 120715Z 29004KT 2SM -SN BR FEW003 BKN019 OVC026 01/00 A3035 230 96 -1400 290/04 RMK AO2 P0000
14840KMKG MKG20000412032513504/12/00 03:25:31  5-MIN KMKG 120825Z 28007KT 10SM BKN018 BKN028 OVC070 02/00 A3036 230 89 -1300 290/07 RMK AO2 SNE11 CIG 011V023 P0000
14840KMKG MKG20000412033013504/12/00 03:30:31  5-MIN KMKG 120830Z 29007KT 10SM BKN016 BKN028 OVC055 02/00 A3036 230 89 -1300 290/07 RMK AO2 SNE11 CIG 012V023 P0000
14840KMKG MKG20000412033512304/12/00 03:35:31  5-MIN KMKG 120835Z 28006KT 10SM FEW016 BKN036 OVC060 01/00 A3036 230 92 -1300 280/06 RMK AO2 SNE11 P0000
14840KMKG MKG20000412034012304/12/00 03:40:31  5-MIN KMKG 120840Z 28007KT 10SM FEW018 SCT036 OVC060 02/00 A3036 230 89 -1300 290/07 RMK AO2 SNE11 P0000
14840KMKG MKG20000412034511604/12/00 03:45:31  5-MIN KMKG 120845Z 28005KT 10SM FEW016 OVC065 02/00 A3036 220 89 -1300 290/05 RMK AO2 SNE11 P0000
14840KMKG MKG20000412035015204/12/00 03:50:31  5-MIN KMKG 120850Z 29005KT 10SM FEW016 SCT060 OVC070 02/00 A3036 220 89 -1300 300/05 RMK AO2 SNE11 SLP289 P0000 60002 T00170000 53006
14840KMKG MKG20000412035514504/12/00 03:55:31  5-MIN KMKG 120855Z 29007KT 10SM FEW043 OVC065 02/00 A3036 220 89 -1300 300/07 RMK AO2 SNE11 SLP289 P0000 60002 T00170000 53004
14840KMKG MKG20000412040003204/12/00 04:00:31  5-MIN KMKG 12
14840KMKG MKG20000412044011204/12/00 04:40:31  5-MIN KMKG 120940Z 01009KT 10SM SCT024 BKN034 BKN047 01/M01 A3037 220 85 -1300 010/09 RMK AO2
14840KMKG MKG20000412044512204/12/00 04:45:31  5-MIN KMKG 120945Z 36007KT 10SM SCT024 BKN047 01/M01 A3037 220 89 -1400 010/07 RMK AO2 04/12/00 04:50:3
14840KMKG MKG20000412051509604/12/00 05:15:31  5-MIN KMKG 121015Z 34005KT 10SM CLR M01/M02 A3038 210 88 -1600 350/05 RMK AO2
14840KMKG MKG20000412052009604/12/00 05:20:31  5-MIN KMKG 121020Z 33004KT 10SM CLR M01/M02 A3038 210 88 -1600 340/04 RMK AO2
14840KMKG MKG20000412052506104/12/00 05:25:31  5-MIN KMKG 121025Z 34 -1800 070/03 RMK AO2
14840KMKG MKG20000412062009804/12/00 06:20:31  5-MIN KMKG 121120Z 09003KT 6SM BR CLR M03/M04 A3040 190 92 -1900 090/03 RMK AO2
14840KMKG MKG20000412062514204/12/00 06:25:31  5-MIN KMKG 121125Z 12003KT 4SM BR CLR M03/M04 A3040 190 92 -1900 120/03 RMK AO2 2 /12/00 06:30:3170 92 -1800 000/00 RMK AO2
14840KMKG MKG20000412070510104/12/00 07:05:31  5-MIN KMKG 121205Z 00000KT 4SM BR FEW024 M02/M03 A3042 170 92 -1700 000/00 RMK AO2
14840KMKG MKG20000412071014404/12/00 07:10:31  5-MIN KMKG 121210Z 00000KT 4SM BR FEW024 M01/M02 A3043 170 92 -1700 000/00 RMK AO2 4 03/M01 A3044 150 72 -1100 310/06 RMK AO2
14840KMKG MKG20000412081009804/12/00 08:10:31  5-MIN KMKG 121310Z 32005KT 10SM FEW026 03/M02 A3044 150 70 -1100 320/05 RMK AO2
14840KMKG MKG20000412081507404/12/00 08:15:31  5-MIN KMKG 121315Z 31008KT 10SM FEW026 03/M02 A3045 150
14840KMKG MKG20000412092009804/12/00 09:20:31  5-MIN KMKG 121420Z 29009KT 10SM FEW026 04/M02 A3045 140 64 -1000 300/09 RMK AO2
14840KMKG MKG20000412092515304/12/00 09:25:31  5-MIN KMKG 121425Z 30007KT 10SM CLR 004/12/00 10:30:31  5-MIN KMKG 121530Z 26008KT 10SM FEW032 06/M02 A3048 120 59 -900 270/08 RMK AO2
14840KMKG MKG20000412103509704/12/00 10:35:31  5-MIN KMKG 121535Z 28010KT 10SM FEW032 06/M02 A3048 120 59 -900 280/10 RMK AO2
14840KMKG MKG20000412104010004/12/00 10:40:31  5-MIN KMKG 121540Z 26008G14KT 10SM CLR 06/M02 A3048 110 59 -900 270/08G14 RMK AO2
14840KMKG MKG20000412104509704/12/00 10:45:31  5-MIN KMKG 121545Z 26011KT 10SM FEW032 06/M01 A3048 110 65 -900 260/11 RMK AO2
14840KMKG MKG20000412105011404/12/00 10:50:31  5-MIN KMKG 121550Z 24009KT 10SM FEW032 06/M01 A3048 110 65 -900 240/09 RMK AO2 SLP330 T00561006
14840KMKG MKG20000412105513004/12/00 10:55:31  5-MIN KMKG 121555Z 25011KT 230V310 10SM FEW028 06/M01 A3048 110 62 -900 250/11 230V310 RMK AO2 SLP330 T00561011
14840KMKG MKG20000412110009704/12/00 11:00:31  5-MIN KMKG 121600Z 25009KT 10SM FEW028 06/M01 A3048 110 62 -900 250/09 RMK AO2
14840KMKG MKG20000412110509704/12/00 11:05:31  5-MIN KMKG 121605Z 25010KT 10SM FEW028 06/M02 A3048 110 59 -900 250/10 RMK AO2
14840KMKG MKG20000412111009704/12/00 11:10:31  5-MIN KMKG 121610Z 25010KT 10SM FEW028 06/M02 A3048 110 59 -900 260/10 RMK AO2
14840KMKG MKG20000412111509704/12/00 11:15:31  5-MIN KMKG 121615Z 24009KT 10SM FEW028 06/M02 A3048 110 59 -900 250/09 RMK AO2
14840KMKG MKG20000412112009704/12/00 11:20:31  5-MIN KMKG 121620Z 25011KT 10SM FEW028 06/M02 A3048 110 59 -900 250/11 RMK AO2
14840KMKG MKG20000412112509704/12/00 11:25:31  5-MIN KMKG 121625Z 25013KT 10SM FEW028 06/M01 A3049 110 60 -800 260/13 RMK AO2
14840KMKG MKG20000412113009704/12/00 11:30:31  5-MIN KMKG 121630Z 26008KT 10SM FEW028 06/M02 A3049 110 59 -900 270/08 RMK AO2
14840KMKG MKG20000412113511004/12/00 11:35:31  5-MIN KMKG 121635Z 30013G17KT 10SM SCT028 SCT034 06/M01 A3049 110 62 -900 300/13G17 RMK AO2
14840KMKG MKG20000412114010304/12/00 11:40:31  5-MIN KMKG 121640Z 25009G17KT 10SM SCT027 06/M01 A3049 110 65 -900 250/09G17 RMK AO2
14840KMKG MKG20000412114510404/12/00 11:45:31  5-MIN KMKG 121645Z 27009G18KT 10SM SCT027 05/M01 A3049 110 64 -1000 270/09G18 RMK AO2
14840KMKG MKG20000412115012704/12/00 11:50:31  5-MIN KMKG 121650Z 29012G18KT 10SM SCT027 SCT035 06/M02 A3048 110 59 -900 290/12G18 RMK AO2 SLP330 T00561017
14840KMKG MKG20000412115512104/12/00 11:55:31  5-MIN KMKG 121655Z 30011KT 10SM FEW025 SCT032 06/M02 A3049 110 59 -900 300/11 RMK AO2 SLP331 T00561017
14840KMKG MKG20000412120010504/12/00 12:00:31  5-MIN KMKG 121700Z 30009KT 10SM FEW027 SCT034 05/M02 A3048 110 62 -1000 310/09 RMK AO2
14840KMKG MKG20000412120510404/12/00 12:05:31  5-MIN KMKG 121705Z 30010KT 10SM FEW024 SCT035 06/M01 A3048 110 62 -900 310/10 RMK AO2
14840KMKG MKG20000412121009704/12/00 12:10:31  5-MIN KMKG 121710Z 30010KT 10SM FEW024 06/M02 A3048 110 57 -800 310/10 RMK AO2
14840KMKG MKG20000412121509704/12/00 12:15:31  5-MIN KMKG 121715Z 27012KT 10SM FEW026 06/M03 A3048 120 53 -800 280/12 RMK AO2
14840KMKG MKG20000412122010404/12/00 12:20:31  5-MIN KMKG 121720Z 28010KT 10SM FEW026 SCT036 06/M02 A3048 110 57 -800 280/10 RMK AO2
14840KMKG MKG20000412122509704/12/00 12:25:31  5-MIN KMKG 121725Z 28012KT 10SM FEW026 06/M02 A3048 110 55 -800 280/12 RMK AO2
14840KMKG MKG20000412123009704/12/00 12:30:31  5-MIN KMKG 121730Z 27009KT 10SM FEW026 06/M03 A3048 110 55 -900 280/09 RMK AO2
14840KMKG MKG20000412123509704/12/00 12:35:31  5-MIN KMKG 121735Z 30010KT 10SM FEW026 06/M02 A3048 110 57 -800 300/10 RMK AO2
14840KMKG MKG20000412124009704/12/00 12:40:31  5-MIN KMKG 121740Z 30011KT 10SM FEW026 06/M02 A3048 110 57 -800 300/11 RMK AO2
14840KMKG MKG20000412124509704/12/00 12:45:31  5-MIN KMKG 121745Z 27010KT 10SM FEW028 06/M02 A3048 110 57 -900 280/10 RMK AO2
14840KMKG MKG20000412125013204/12/00 12:50:31  5-MIN KMKG 121750Z 30010KT 10SM FEW030 06/M02 A3048 120 57 -800 300/10 RMK AO2 SLP328 T00611017 10061 21028 51017
14840KMKG MKG20000412125513204/12/00 12:55:31  5-MIN KMKG 121755Z 29012KT 10SM SCT030 06/M02 A3048 120 55 -800 290/12 RMK AO2 SLP327 T00611022 10061 21028 50003
14840KMKG MKG20000412130009704/12/00 13:00:31  5-MIN KMKG 121800Z 29009KT 10SM SCT030 06/M02 A3048 120 57 -900 300/09 RMK AO2
14840KMKG MKG20000412130509704/12/00 13:05:31  5-MIN KMKG 121805Z 29011KT 10SM SCT030 06/M02 A3048 120 57 -900 290/11 RMK AO2
14840KMKG MKG20000412131009704/12/00 13:10:31  5-MIN KMKG 121810Z 29011KT 10SM SCT030 06/M02 A3048 120 57 -900 290/11 RMK AO2
14840KMKG MKG20000412131509704/12/00 13:15:31  5-MIN KMKG 121815Z 28011KT 10SM SCT030 06/M03 A3048 120 55 -900 280/11 RMK AO2
14840KMKG MKG20000412132009704/12/00 13:20:31  5-MIN KMKG 121820Z 29011KT 10SM SCT030 06/M03 A3048 120 53 -900 290/11 RMK AO2
14840KMKG MKG20000412132509704/12/00 13:25:31  5-MIN KMKG 121825Z 29011KT 10SM SCT030 06/M03 A3048 120 53 -800 290/11 RMK AO2
14840KMKG MKG20000412133009704/12/00 13:30:31  5-MIN KMKG 121830Z 27011KT 10SM SCT030 06/M03 A3047 120 53 -800 280/11 RMK AO2
14840KMKG MKG20000412133510304/12/00 13:35:31  5-MIN KMKG 121835Z 29011G17KT 10SM SCT030 06/M03 A3047 120 55 -900 300/11G17 RMK AO2
14840KMKG MKG20000412134009704/12/00 13:40:31  5-MIN KMKG 121840Z 28011KT 10SM SCT030 06/M03 A3047 120 53 -900 280/11 RMK AO2
14840KMKG MKG20000412134509704/12/00 13:45:31  5-MIN KMKG 121845Z 27011KT 10SM SCT030 06/M03 A3047 120 55 -900 280/11 RMK AO2
14840KMKG MKG20000412135012004/12/00 13:50:31  5-MIN KMKG 121850Z 29010G16KT 10SM SCT030 06/M03 A3047 130 53 -800 290/10G16 RMK AO2 SLP324 T00611028
14840KMKG MKG20000412135512004/12/00 13:55:31  5-MIN KMKG 121855Z 30011G16KT 10SM SCT030 06/M03 A3047 130 53 -900 300/11G16 RMK AO2 SLP324 T00561033
14840KMKG MKG20000412140009704/12/00 14:00:31  5-MIN KMKG 121900Z 30010KT 10SM SCT030 06/M03 A3047 130 55 -900 300/10 RMK AO2
14840KMKG MKG20000412140509704/12/00 14:05:31  5-MIN KMKG 121905Z 28012KT 10SM SCT030 06/M03 A3047 130 51 -800 280/12 RMK AO2
14840KMKG MKG20000412141009704/12/00 14:10:31  5-MIN KMKG 121910Z 29010KT 10SM SCT030 06/M03 A3046 130 51 -800 290/10 RMK AO2
14840KMKG MKG20000412141509704/12/00 14:15:31  5-MIN KMKG 121915Z 30009KT 10SM FEW030 06/M03 A3046 130 53 -800 310/09 RMK AO2
14840KMKG MKG20000412142009704/12/00 14:20:31  5-MIN KMKG 121920Z 31009KT 10SM FEW030 06/M05 A3046 140 45 -800 310/09 RMK AO2
14840KMKG MKG20000412142509704/12/00 14:25:31  5-MIN KMKG 121925Z 31009KT 10SM FEW030 06/M03 A3045 140 51 -800 320/09 RMK AO2
14840KMKG MKG20000412143009704/12/00 14:30:31  5-MIN KMKG 121930Z 29012KT 10SM FEW030 06/M04 A3045 140 48 -800 290/12 RMK AO2
14840KMKG MKG20000412143509704/12/00 14:35:31  5-MIN KMKG 121935Z 29010KT 10SM FEW030 06/M04 A3045 140 48 -800 290/10 RMK AO2
14840KMKG MKG20000412144010304/12/00 14:40:31  5-MIN KMKG 121940Z 29010G15KT 10SM FEW030 06/M04 A3045 140 50 -900 300/10G15 RMK AO2
14840KMKG MKG20000412144510304/12/00 14:45:31  5-MIN KMKG 121945Z 31009G15KT 10SM FEW030 06/M04 A3045 150 46 -800 320/09G15 RMK AO2
14840KMKG MKG20000412145011404/12/00 14:50:31  5-MIN KMKG 121950Z 30011KT 10SM FEW030 06/M04 A3045 150 46 -800 300/11 RMK AO2 SLP316 T00611044
14840KMKG MKG20000412145511404/12/00 14:55:31  5-MIN KMKG 121955Z 29009KT 10SM FEW030 07/M05 A3044 150 43 -700 300/09 RMK AO2 SLP316 T00671050
14840KMKG MKG20000412150009404/12/00 15:00:31  5-MIN KMKG 122000Z 29011KT 10SM CLR 06/M06 A3044 150 41 -800 290/11 RMK AO2
14840KMKG MKG20000412150509404/12/00 15:05:31  5-MIN KMKG 122005Z 30010KT 10SM CLR 07/M06 A3044 150 39 -700 300/10 RMK AO2
14840KMKG MKG20000412151009404/12/00 15:10:31  5-MIN KMKG 122010Z 29010KT 10SM CLR 07/M07 A3044 150 38 -700 300/10 RMK AO2
14840KMKG MKG20000412151509404/12/00 15:15:31  5-MIN KMKG 122015Z 30008KT 10SM CLR 06/M07 A3044 160 39 -800 300/08 RMK AO2
14840KMKG MKG20000412152009704/12/00 15:20:31  5-MIN KMKG 122020Z 30007KT 10SM FEW030 06/M06 A3043 160 41 -800 310/07 RMK AO2
14840KMKG MKG20000412152509704/12/00 15:25:31  5-MIN KMKG 122025Z 28009KT 10SM FEW030 07/M06 A3043 160 41 -700 280/09 RMK AO2
14840KMKG MKG20000412153009704/12/00 15:30:31  5-MIN KMKG 122030Z 30006KT 10SM FEW030 06/M06 A3043 160 41 -800 300/06 RMK AO2
14840KMKG MKG20000412153509704/12/00 15:35:31  5-MIN KMKG 122035Z 26011KT 10SM FEW030 07/M06 A3043 160 41 -700 270/11 RMK AO2
14840KMKG MKG20000412154009704/12/00 15:40:31  5-MIN KMKG 122040Z 26013KT 10SM FEW030 07/M07 A3044 160 36 -700 260/13 RMK AO2
14840KMKG MKG20000412154509704/12/00 15:45:31  5-MIN KMKG 122045Z 27012KT 10SM FEW030 06/M07 A3044 160 38 -800 270/12 RMK AO2
14840KMKG MKG20000412155012004/12/00 15:50:31  5-MIN KMKG 122050Z 28012KT 10SM FEW030 07/M06 A3043 160 39 -700 280/12 RMK AO2 SLP312 T00671061 50003
14840KMKG MKG20000412155507404/12/00 15:55:31  5-MIN KMKG 122055Z 27013KT 10SM FEW030 06/M07 A3044 160
14840KMKG MKG20000412161509404/12/00 16:15:31  5-MIN KMKG 122115Z 27011KT 10SM CLR 06/M07 A3044 160 39 -800 270/11 RMK AO2
14840KMKG MKG20000412162011804/12/00 16:20:31  5-MIN KMKG 122120Z 28010KT 10SM CLR 06/M07 A3010KT 10SM CLR 05/M04 A3044 150 52 -900 260/10 RMK AO2
14840KMKG MKG20000412172009404/12/00 17:20:31  5-MIN KMKG 122220Z 26009KT 10SM CLR 05/M04 A3044 150 52 -900 260/09 RMK AO2
14840KMKG MKG20000412172507404/12/00 17:25:31  5-MIN KMKG 122225Z 28010KT 10SM CLR 05/M04 A3044 150 52
14840KMKG MKG20000412183519304/12/00 18:35:31  5-MIN KMKG 122335Z 26007KT 10SM CLR 03/M04 A3044 160 57 -1100 260/07 RMK AO2 SM BKN120 03/M04 A3046 130 KG 122340Z 26007KT 10SM CLR 0 59 -1200 300/04 RMK AO2 SLP321 T00331039
14840KMKG MKG20000412200009804/12/00 20:00:31  5-MIN KMKG 130100Z 31004KT 10SM BKN120 03/M04 A3046 130 59 -1200 320/04 RMK AO2
14840KMKG MKG20000412200506604/12/00 20:05:31  5-MIN KMKG 130105Z 32005KT 10SM BKN110 03/M0430
14840KMKG MKG20000412211509804/12/00 21:15:31  5-MIN KMKG 130215Z 35003KT 10SM OVC100 03/M04 A3047 130 59 -1200 350/03 RMK AO2
14840KMKG MKG20000412212013804/12/00 21:20:31  5-MIN KMKG 130220Z 00000KT 10 22:20:31  5-MIN KMKG 130320Z 22004KT 10SM OVC110 02/M03 A3046 130 69 -1300 220/04 RMK AO2
14840KMKG MKG20000412222509804/12/00 22:25:31  5-MIN KMKG 130325Z 20004KT 10SM OVC110 02/M03 A3046 130 72 -1400 200/04 RMK AO2
14840KMKG MKG20000412225011504/12/00 22:50:31  5-MIN KMKG 130350Z 00000KT 10SM OVC100 02/M03 A3046 140 67 -1300 000/00 RMK AO2 SLP320 T00221033
14840KMKG MKG20000412225514404/12/00 22:55:31  5-MIN KMKG 130355Z 27003KT 10SM OVC100 02/M03 A3046 130 72 -1400 280/03 RMK AO2 SLP321 T00171028 30SLP320 T00111028 400671033
14840KMKG MKG20000412235512504/12/00 23:55:31  5-MIN KMKG 130455Z 00000KT 10SM OVC100 02/M03 A3046 140 72 -1400 000/00 RMK AO2 SLP320 T00171028 400671033
14840KMKG MKG20000413000010304/13/00 00:00:31  5-MIN KMKG 130500Z 00000KT 10SM OVC095 01/M03 A3046 140 75 -1400-1600 000/00 RMK AO2
14840KMKG MKG20000413010509504/13/00 01:05:31  5-MIN KMKG 130605Z 00000KT 10SM CLR 00/M04 A3044 160 75 -1500 000/00 RMK AO2
14840KMKG MKG20000413011011804/13/00 01:10:31  5-MIN KMKG 130610Z 00000KT 10SM CLR M01/M04 A3044 160 81 -1700 000/00 RMK AO2 04/13/00 01:15:3K AO2
14840KMKG MKG20000413022009604/13/00 02:20:31  5-MIN KMKG 130720Z 00000KT 10SM CLR M01/M04 A3042 170 81 -1700 000/00 RMK AO2
14840KMKG MKG20000413022509604/13/00 02:25:31  5-MIN KMKG 130725Z 00000KT 10SM CLR M02/M04 A3042 170 85 -1700 000/00 RMK AO2
14840KMKG MKG20000413023009604/13/00 02:30:31  5-MIN KMKG 130730Z 13004KT 10SM CLR M02/M04 A3041 180 85 -1700 130/04 RMK AO2
14840KMKG MKG20000413023509604/13/00 02:35:31  5-MIN KMKG 130735Z 12005KT 10SM CLR M02/M04 A3041 180 85 -1800 120/05 RMK AO2
14840KMKG MKG20000413024008004/13/00 02:40:31  5-MIN KMKG 130740Z 11004KT 10SM CLR M03/M04 A0 130/03 RMK AO2
14840KMKG MKG20000413034009904/13/00 03:40:31  5-MIN KMKG 130840Z 13004KT 10SM BKN120 M02/M04 A3041 180 85 -1700 130/04 RMK AO2
14840KMKG MKG20000413034511904/13/00 03:45:31  5-MIN KMKG 130845Z 11004KT 10SM SCT120 M02/M04 A3041 180 85 -1700 120/04 RMK AO2 04/13/00 03:50:3180
14840KMKG MKG20000413045011604/13/00 04:50:31  5-MIN KMKG 130950Z 09003KT 10SM BKN120 M01/M03 A3040 190 85 -1600 100/03 RMK AO2 SLP301 T10061028
14840KMKG MKG20000413045511604/13/00 04:55:31  5-MIN KMKG 130955Z 10003KT 10SM BKN120 M01/M03 A3040 190 85 -1600 100/03 RMK AO2 SLP301 T10061028
14840KMKG MKG20000413055512604/13/00 05:55:31  5-MIN KMKG 131055Z 12005KT 8SM BKN100 M01/M03 A3039 200 88 -1600 120/05 RMK AO2 SLP298 T10111028 04/13/0000
14840KMKG MKG20000413065013204/13/00 06:50:31  5-MIN KMKG 131150Z 12005KT 8SM BKN095 00/M02 A3038 200 85 -1500 120/05 RMK AO2 SLP296 T00001022 10006 21028 56010
14840KMKG MKG20000413065512104/13/00 06:55:31  5-MIN KMKG 131155Z 12005KT 8SM BKN095 00/M02 A3038 210 85 -1500 130/05 RMK AO2 SLP296 T 130/08 RMK AO2
14840KMKG MKG20000413080509804/13/00 08:05:31  5-MIN KMKG 131305Z 13008KT 10SM OVC090 02/M03 A3036 230 69 -1300 130/08 RMK AO2
14840KMKG MKG20000413081009804/13/00 08:10:31  5-MIN KMKG 131310Z 13007KT 10SM OVC090 02/M04 A3036 220 66 -1300 130/07 RMK AO2
14840KMKG MKG20000413081509804/13/00 08:15:31  5-MIN KMKG 131315Z 13007KT 10SM OVC090 02/M04 A3037 220 64 -1200 130/07 RMK AO2
14840KMKG MKG20000413082009804/13/00 08:20:31  5-MIN KMKG 131320Z 13006KT 10SM OVC090 02/M04 A3037 220 64 -1200 140/06 RMK AO2
14840KMKG MKG20000413082509804/13/00 08:25:31  5-MIN KMKG 131325Z 14006KT 10SM OVC090 02/M04 A3037 220 64 -1200 140/06 RMK AO2
14840KMKG MKG20000413083009804/13/00 08:30:31  5-MIN KMKG 131330Z 13007KT 10SM OVC090 03/M04 A3036 220 59 -1100 130/07 RMK AO2
14840KMKG MKG20000413083509804/13/00 08:35:31  5-MIN KMKG 131335Z 14007KT 10SM OVC090 03/M04 A3037 220 59 -1100 140/07 RMK AO2
14840KMKG MKG20000413084009804/13/00 08:40:31  5-MIN KMKG 131340Z 14007KT 10SM OVC090 03/M04 A3037 220 59 -1100 150/07 RMK AO2
14840KMKG MKG20000413084509804/13/00 08:45:31  5-MIN KMKG 131345Z 14007KT 10SM OVC090 03/M04 A3037 220 59 -1100 150/07 RMK AO2
14840KMKG MKG20000413085011504/13/00 08:50:31  5-MIN KMKG 131350Z 13007KT 10SM OVC090 03/M04 A3036 220 57 -1100 140/07 RMK AO2 SLP288 T00331044
14840KMKG MKG20000413085511504/13/00 08:55:31  5-MIN KMKG 131355Z 13006KT 10SM OVC090 03/M04 A3037 220 57 -1100 140/06 RMK AO2 SLP290 T00331044
14840KMKG MKG20000413090009804/13/00 09:00:31  5-MIN KMKG 131400Z 14008KT 10SM OVC090 04/M04 A3036 220 57 -1000 140/08 RMK AO2
14840KMKG MKG20000413090509804/13/00 09:05:31  5-MIN KMKG 131405Z 14008KT 10SM BKN090 04/M04 A3036 230 54 -1000 140/08 RMK AO2
14840KMKG MKG20000413091009704/13/00 09:10:31  5-MIN KMKG 131410Z 15007KT 10SM BKN085 04/M04 A3036 230 52 -900 150/07 RMK AO2
14840KMKG MKG20000413091509704/13/00 09:15:31  5-MIN KMKG 131415Z 15008KT 10SM BKN085 04/M04 A3036 230 52 -900 160/08 RMK AO2
14840KMKG MKG20000413092010404/13/00 09:20:31  5-MIN KMKG 131420Z 16008KT 10SM SCT070 BKN090 04/M04 A3035 230 52 -900 160/08 RMK AO2
14840KMKG MKG20000413092510404/13/00 09:25:31  5-MIN KMKG 131425Z 16008KT 10SM SCT065 BKN085 04/M04 A3035 240 55 -900 160/08 RMK AO2
14840KMKG MKG20000413093010404/13/00 09:30:31  5-MIN KMKG 131430Z 16008KT 10SM FEW065 SCT090 05/M03 A3034 240 55 -800 160/08 RMK AO2
14840KMKG MKG20000413093510404/13/00 09:35:31  5-MIN KMKG 131435Z 17008KT 10SM SCT065 SCT085 05/M04 A3035 240 52 -800 170/08 RMK AO2
14840KMKG MKG20000413094009704/13/00 09:40:31  5-MIN KMKG 131440Z 15007KT 10SM FEW065 06/M03 A3034 240 53 -800 160/07 RMK AO2
14840KMKG MKG20000413094509704/13/00 09:45:31  5-MIN KMKG 131445Z 16007KT 10SM SCT065 06/M03 A3034 240 53 -700 160/07 RMK AO2
14840KMKG MKG20000413095012004/13/00 09:50:31  5-MIN KMKG 131450Z 16009KT 10SM SCT060 06/M03 A3034 250 51 -700 160/09 RMK AO2 SLP279 T00611033 58008
14840KMKG MKG20000413095512004/13/00 09:55:31  5-MIN KMKG 131455Z 16007KT 10SM FEW060 06/M03 A3034 250 51 -700 170/07 RMK AO2 SLP278 T00611033 58015
14840KMKG MKG20000413100009704/13/00 10:00:31  5-MIN KMKG 131500Z 17009KT 10SM FEW060 06/M03 A3034 250 51 -700 170/09 RMK AO2
14840KMKG MKG20000413100509704/13/00 10:05:31  5-MIN KMKG 131505Z 17010KT 10SM FEW048 06/M03 A3034 250 51 -700 180/10 RMK AO2
14840KMKG MKG20000413101009704/13/00 10:10:31  5-MIN KMKG 131510Z 17010KT 10SM FEW050 06/M03 A3034 240 53 -700 180/10 RMK AO2
14840KMKG MKG20000413101509704/13/00 10:15:31  5-MIN KMKG 131515Z 16008KT 10SM FEW060 06/M03 A3033 250 51 -700 170/08 RMK AO2
14840KMKG MKG20000413102009704/13/00 10:20:31  5-MIN KMKG 131520Z 17007KT 10SM FEW060 06/M03 A3033 250 53 -700 170/07 RMK AO2
14840KMKG MKG20000413102509704/13/00 10:25:31  5-MIN KMKG 131525Z 17010KT 10SM FEW065 07/M03 A3033 250 51 -600 170/10 RMK AO2
14840KMKG MKG20000413103009704/13/00 10:30:31  5-MIN KMKG 131530Z 17009KT 10SM FEW060 06/M03 A3033 250 51 -700 180/09 RMK AO2
14840KMKG MKG20000413103510404/13/00 10:35:31  5-MIN KMKG 131535Z 17009KT 10SM FEW060 SCT090 07/M03 A3033 250 51 -600 170/09 RMK AO2
14840KMKG MKG20000413104010404/13/00 10:40:31  5-MIN KMKG 131540Z 17011KT 10SM FEW060 BKN085 06/M03 A3033 250 51 -700 180/11 RMK AO2
14840KMKG MKG20000413104510404/13/00 10:45:31  5-MIN KMKG 131545Z 18008KT 10SM FEW050 BKN085 06/M03 A3034 250 51 -700 180/08 RMK AO2
14840KMKG MKG20000413105012104/13/00 10:50:31  5-MIN KMKG 131550Z 17009KT 10SM FEW055 BKN085 06/M03 A3033 250 53 -700 180/09 RMK AO2 SLP278 T00611028
14840KMKG MKG20000413105512104/13/00 10:55:31  5-MIN KMKG 131555Z 17008KT 10SM FEW055 BKN085 07/M03 A3033 250 51 -600 170/08 RMK AO2 SLP278 T00671028
14840KMKG MKG20000413110010404/13/00 11:00:31  5-MIN KMKG 131600Z 16006KT 10SM FEW050 BKN085 07/M03 A3033 250 51 -600 160/06 RMK AO2
14840KMKG MKG20000413110510404/13/00 11:05:31  5-MIN KMKG 131605Z 16007KT 10SM FEW050 BKN085 07/M03 A3033 250 51 -600 160/07 RMK AO2
14840KMKG MKG20000413111009704/13/00 11:10:31  5-MIN KMKG 131610Z 17006KT 10SM BKN080 07/M03 A3034 250 51 -600 170/06 RMK AO2
14840KMKG MKG20000413111509704/13/00 11:15:31  5-MIN KMKG 131615Z 17006KT 10SM BKN080 07/M03 A3034 250 51 -600 170/06 RMK AO2
14840KMKG MKG20000413112009704/13/00 11:20:31  5-MIN KMKG 131620Z 17006KT 10SM BKN080 07/M03 A3034 250 51 -600 170/06 RMK AO2
14840KMKG MKG20000413112510404/13/00 11:25:31  5-MIN KMKG 131625Z 16007KT 10SM FEW055 BKN080 07/M03 A3033 250 51 -600 170/07 RMK AO2
14840KMKG MKG20000413113010404/13/00 11:30:31  5-MIN KMKG 131630Z 15007KT 10SM SCT050 BKN080 07/M03 A3032 260 49 -500 150/07 RMK AO2
14840KMKG MKG20000413113511904/13/00 11:35:31  5-MIN KMKG 131635Z 16007KT 10SM SCT050 BKN080 07/M03 A3032 260 49 -500 160/07 RMK AO2 CIG 050 RWY 14
14840KMKG MKG20000413114010404/13/00 11:40:31  5-MIN KMKG 131640Z 15006KT 10SM FEW050 BKN080 07/M03 A3032 260 49 -500 150/06 RMK AO2
14840KMKG MKG20000413114510404/13/00 11:45:31  5-MIN KMKG 131645Z 15008KT 10SM FEW050 BKN085 07/M03 A3032 260 49 -500 150/08 RMK AO2
14840KMKG MKG20000413115012104/13/00 11:50:31  5-MIN KMKG 131650Z 15006KT 10SM FEW050 BKN085 07/M02 A3031 270 51 -500 150/06 RMK AO2 SLP271 T00721022
14840KMKG MKG20000413115512104/13/00 11:55:31  5-MIN KMKG 131655Z 14008KT 10SM FEW050 SCT085 07/M02 A3031 270 51 -500 140/08 RMK AO2 SLP270 T00721022
14840KMKG MKG20000413120009704/13/00 12:00:31  5-MIN KMKG 131700Z 14008KT 10SM SCT085 07/M02 A3030 280 51 -500 140/08 RMK AO2
14840KMKG MKG20000413120509704/13/00 12:05:31  5-MIN KMKG 131705Z 15009KT 10SM SCT085 07/M02 A3030 280 51 -500 150/09 RMK AO2
14840KMKG MKG20000413121010404/13/00 12:10:31  5-MIN KMKG 131710Z 14010KT 10SM SCT085 08/M02 A3029 290 49 -400 140/10 RMK AO2 PRESFR
14840KMKG MKG20000413121509704/13/00 12:15:31  5-MIN KMKG 131715Z 15009KT 10SM BKN085 08/M02 A3029 290 49 -400 150/09 RMK AO2
14840KMKG MKG20000413122009704/13/00 12:20:31  5-MIN KMKG 131720Z 14010KT 10SM BKN085 08/M03 A3028 300 47 -400 150/10 RMK AO2
14840KMKG MKG20000413122510404/13/00 12:25:31  5-MIN KMKG 131725Z 14010KT 10SM BKN085 08/M03 A3028 300 47 -400 140/10 RMK AO2 PRESFR
14840KMKG MKG20000413123009704/13/00 12:30:31  5-MIN KMKG 131730Z 14010KT 10SM BKN080 08/M03 A3028 300 45 -300 150/10 RMK AO2
14840KMKG MKG20000413123509704/13/00 12:35:31  5-MIN KMKG 131735Z 15011KT 10SM BKN080 09/M02 A3028 300 45 -300 160/11 RMK AO2
14840KMKG MKG20000413124009704/13/00 12:40:31  5-MIN KMKG 131740Z 16011KT 10SM BKN080 09/M02 A3027 310 45 -300 170/11 RMK AO2
14840KMKG MKG20000413124509704/13/00 12:45:31  5-MIN KMKG 131745Z 15009KT 10SM BKN080 09/M02 A3027 310 45 -300 150/09 RMK AO2
14840KMKG MKG20000413125013204/13/00 12:50:31  5-MIN KMKG 131750Z 16008KT 10SM BKN080 09/M02 A3027 310 44 -200 160/08 RMK AO2 SLP254 T00941022 10094 20000 58015
14840KMKG MKG20000413125518204/13/00 12:55:31  5-MIN KMKG 131755Z 15011KT 10SM OVC080 09/M02 A3027 310 45 -300 150/11 RMK AO2 SLP254 T00891022 10094 20000 58024 04/13/000 09/M02 A3026 320 44 -200 150/12 RMK AO2
14840KMKG MKG20000413130509704/13/00 13:05:31  5-MIN KMKG 131805Z 15009KT 10SM OVC080 09/M03 A3026 320 42 -200 150/09 RMK AO2
14840KMKG MKG20000413131017104/13/00 13:10:31  5-MIN KMKG 131810Z 16009KT 10SM OVC080 09/M02 A3026 320 44 -200 160/09 RMK AO2  KMKG 131915Z 21010KT 10SM OVC090 09/M02 A3024 330 45 -200 210/10 RMK AO2
14840KMKG MKG20000413142009704/13/00 14:20:31  5-MIN KMKG 131920Z 20008KT 10SM OVC090 09/M02 A3024 340 45 -200 210/08 RMK AO2
14840KMKG MKG20000413142513804/13/00 14:25:31  5-MIN KMKG 131925Z 21006KT 10SM OVC090 09/M02  KMKG 132030Z 22008KT 10SM FEW090 10/M02 A3022 360 42 -100 220/08 RMK AO2
14840KMKG MKG20000413153509704/13/00 15:35:31  5-MIN KMKG 132035Z 23010KT 10SM SCT090 10/M02 A3021 360 42 -100 230/10 RMK AO2
14840KMKG MKG20000413165513604/13/00 16:55:31  5-MIN KMKG 132155Z 21009KT 9SM -RA BKN038 OVC047 09/M01 A3020 380 51 -200 220/09 RMK AO2 RAB41 SLP231 P0000 T00891006
14840KMKG MKG20000413170011604/13/00 17:00:31  5-MIN KMKG 132200Z 18011KT 10SM -RA BKN036 OVC045 09/01 A3019 380 56 -200 190/111 P0003 T00720039
14840KMKG MKG20000413180011204/13/00 18:00:31  5-MIN KMKG 132300Z 16008KT 7SM -RA BKN047 OVC060 07/03 A3017 400 76 -300 160/08 RMK AO2 P0000
14840KMKG MKG20000413180512704/13/00 18:05:31  5-MIN KMKG 132305Z 15008KT 7SM -RA SCT047 OVC060 07/04 A3017 400 79 -300 160/08 RMK AO2 050 1010620067 58020
14840KMKG MKG20000413185515604/13/00 18:55:31  5-MIN KMKG 132355Z 12007KT 3SM -RA BR BKN047 OVC060 07/06 A3015 420 93 -400 130/07 RMK AO2 SLP215 P0004 60007 T00670056 10106 20067 58018
14840KMKG MKG20000413195019304/13/00 19:50:31  5-MIN KMKG 140050Z 11006KT 8SM -RA BKN065 OVC080 07/06 A3014 430 93 -400 120/06 RMK AO2 SLP213 P0002 T00670056 M BR OVC060 07/06 A3014 430  93 -300 120/06 RMK AO2 RAE10 P0000
14840KMKG MKG20000413205012404/13/00 20:50:31  5-MIN KMKG 140150Z 11006KT 7SM OVC060 07/06 A3014 430 93 -300 120/06 RMK AO2 RAE10 SLP211 P0000 T00720061
14840KMKG MKG20000413205504904/13/00 20:55:31  5-MIN KMKG 140155Z 11006KT 7S6
14840KMKG MKG20000413215012704/13/00 21:50:31  5-MIN KMKG 140250Z 13007KT 6SM BR SCT110 06/05 A3014 430 93 -400 130/07 RMK AO2 SLP210 60002 T00610050 58018
14840KMKG MKG20000413215510704/13/00 21:55:31  5-MIN KMKG 140255Z 13007KT 6SM BR BKN110 06/05 A3013 430 92 -500 130/06 RMK AO2 SLP209 6
14840KMKG MKG20000413230509804/13/00 23:05:31  5-MIN KMKG 140405Z 13007KT 6SM BR OVC090 06/04 A3012 440 92 -500 130/07 RMK AO2
14840KMKG MKG20000413231009804/13/00 23:10:31  5-MIN KMKG 140410Z 13007KT 6SM BR OVC090 06/04 A3012 450 92 -500 130/07 RMK AO2
14840KMKG MKG20000413231509804/13/00 23:15:31  5-MIN KMKG 140415Z 13007KT 6SM BR OVC090 06/04 A3012 450 92 -500 140/07 RMK AO2
14840KMKG MKG20000413232009804/13/00 23:20:31  5-MIN KMKG 140420Z 13007KT 6SM BR BKN090 06/04 A3012 450 92 -500 130/07 RMK AO2
14840KMKG MKG20000413232509504/13/00 23:25:31  5-MIN KMKG 140425Z 13007KT 7SM BKN090 06/04 A3012 450 89 -500 130/07 RMK AO2
14840KMKG MKG20000413233009504/13/00 23:30:31  5-MIN KMKG 140430Z 13006KT 7SM SCT090 06/04 A3012 450 89 -500 130/06 RMK AO2
14840KMKG MKG20000413233509504/13/00 23:35:31  5-MIN KMKG 140435Z 12006KT 7SM SCT090 06/04 A3012 440 89 -500 120/06 RMK AO2
14840KMKG MKG20000413234009504/13/00 23:40:31  5-MIN KMKG 140440Z 12006KT 7SM BKN095 06/04 A3012 440 89 -500 120/06 RMK AO2
14840KMKG MKG20000413234509504/13/00 23:45:31  5-MIN KMKG 140445Z 12007KT 7SM BKN095 06/04 A3012 450 86 -400 130/07 RMK AO2
14840KMKG MKG20000413235012204/13/00 23:50:31  5-MIN KMKG 140450Z 13007KT 8SM BKN095 06/04 A3012 450 86 -400 130/07 RMK AO2 SLP202 T00610039 401061028
14840KMKG MKG20000413235512204/13/00 23:55:31  5-MIN KMKG 140455Z 12007KT 8SM BKN095 06/04 A3011 450 86 -400 130/07 RMK AO2 SLP202 T00610039 401061028
14840KMKG MKG20000414000009504/14/00 00:00:31  5-MIN KMKG 140500Z 12007KT 8SM OVC095 06/04 A3012 450 86 -400 130/07 RMK AO2
14840KMKG MKG20000414000509504/14/00 00:05:31  5-MIN KMKG 140505Z 13006KT 9SM OVC095 07/04 A3012 450 82 -400 130/06 RMK AO2
14840KMKG MKG20000414001009504/14/00 00:10:31  5-MIN KMKG 140510Z 13006KT 9SM OVC095 07/04 A3012 450 82 -400 140/06 RMK AO2
14840KMKG MKG20000414001509604/14/00 00:15:31  5-MIN KMKG 140515Z 13007KT 10SM OVC095 07/03 A3011 450 79 -400 130/07 RMK AO2
14840KMKG MKG20000414002009604/14/00 00:20:31  5-MIN KMKG 140520Z 13007KT 10SM OVC095 07/04 A3011 460 82 -300 130/07 RMK AO2
14840KMKG MKG20000414002512604/14/00 00:25:31  5-MIN04/14/00 01:15:31  5-MIN KMKG 140615Z 15008KT 10SM OVC100 08/02 A3010 470 63 -100 150/08 RMK AO2 P0001
14840KMKG MKG20000414012010204/14/00 01:20:31  5-MIN KMKG 140620Z 15009KT 10SM OVC100 08/02 A3010 470 63 -100 150/09 RMK AO2 P0001
14840KMKG MKG20000414012508004/14/00 01:25:31  5-MIN KMKG 14SM FEW100 08/01 A3009 480 62 -200 150/08 RMK AO2
14840KMKG MKG20000414023009604/14/00 02:30:31  5-MIN KMKG 140730Z 15008KT 10SM FEW100 08/01 A3008 480 62 -200 150/08 RMK AO2
14840KMKG MKG20000414023507304/14/00 02:35:31  5-MIN KMKG 140735Z 15008KT 10SM FEW100 08/01 A3008 480
14840KMKG MKG20000414040009304/14/00 04:00:31  5-MIN KMKG 140900Z 16007KT 10SM CLR 07/01 A3008 480 65 -300 160/07 RMK AO2
14840KMKG MKG20000414040506104/14/00 04:05:31  5-MIN4/01 A3007 490 76 -600 150/06 RMK AO2
14840KMKG MKG20000414051509304/14/00 05:15:31  5-MIN KMKG 141015Z 15006KT 10SM CLR 05/01 A3007 490 76 -500 150/06 RMK AO2
14840KMKG MKG20000414052010604/14/00 05:20:31  5-MIN KMKG 141020Z 15006KT 10SM CLR 06/01 A3007 490 73 -400 160/06 RMK AO2 04/14/000AO2
14840KMKG MKG20000414063009304/14/00 06:30:31  5-MIN KMKG 141130Z 16007KT 10SM CLR 08/01 A3007 490 62 -200 160/07 RMK AO2
14840KMKG MKG20000414063509304/14/00 06:35:31  5-MIN KMKG 141135Z 16006KT 10SM CLR 07/01 A3008 490 65 -200 160/06 RMK AO2
14840KMKG MKG20000414064009304/14/00 06:40:31  5-MIN KMKG 141140Z 16006KT 10SM CLR 06/01 A3008 490 70 -400 160/06 RMK AO2
14840KMKG MKG20000414064509304/14/00 06:45:31  5-MIN KMKG 141145Z 15006KT 10SM CLR 07/01 A3008 490 67 -300 160/06 RMK AO2
14840KMKG MKG20000414065012804/14/00 06:50:31  5-MIN KMKG 141150Z 16007KT 10SM CLR 07/01 A3007 490 65 -200 160/07 RMK AO2 SLP188 T00720011 10083 20044 56007
14840KMKG MKG20000414065513404/14/00 06:55:31  5-MIN KMKG 141155Z 16006KT 10SM CLR 07/01 A3008 490 67 -300 160/06 RMK AO2 SLP188 70009 T00670011 10083 20044 55003
14840KMKG MKG20000414070009304/14/00 07:00:31  5-MIN KMKG 141200Z 16006KT 10SM CLR 07/01 A3008 490 65 -200 170/06 RMK AO2
14840KMKG MKG20000414070509304/14/00 07:05:31  5-MIN KMKG 141205Z 17007KT 10SM CLR 08/01 A3008 490 60 -100 180/07 RMK AO2
14840KMKG MKG20000414071009004/14/00 07:10:31  5-MIN KMKG 141210Z 18008KT 10SM CLR 09/01 A3008 480 56 0 190/08 RMK AO2
14840KMKG MKG20000414071509004/14/00 07:15:31  5-MIN KMKG 141215Z 18006KT 10SM CLR 09/01 A3008 480 56 0 180/06 RMK AO2
14840KMKG MKG20000414072009604/14/00 07:20:31  5-MIN KMKG 141220Z 18009G14KT 10SM CLR 09/02 A3008 480 58 0 190/09G14 RMK AO2
14840KMKG MKG20000414072509604/14/00 07:25:31  5-MIN KMKG 141225Z 18012G16KT 10SM CLR 10/01 A3008 480 54 0 180/12G16 RMK AO2
14840KMKG MKG20000414073009804/14/00 07:30:31  5-MIN KMKG 141230Z 18013G16KT 10SM CLR 11/01 A3008 480 52 100 190/13G16 RMK AO2
14840KMKG MKG20000414073509204/14/00 07:35:31  5-MIN KMKG 141235Z 18011KT 10SM CLR 11/01 A3008 480 52 100 190/11 RMK AO2
14840KMKG MKG20000414074009804/14/00 07:40:31  5-MIN KMKG 141240Z 19011G18KT 10SM CLR 11/02 A3008 480 52 200 190/11G18 RMK AO2
14840KMKG MKG20000414074509804/14/00 07:45:31  5-MIN KMKG 141245Z 19013G18KT 10SM CLR 11/01 A3008 490 50 200 190/13G18 RMK AO2
14840KMKG MKG20000414075011504/14/00 07:50:31  5-MIN KMKG 141250Z 19011G18KT 10SM CLR 11/02 A3008 490 52 200 200/11G18 RMK AO2 SLP187 T01110017
14840KMKG MKG20000414075510904/14/00 07:55:31  5-MIN KMKG 141255Z 19014KT 10SM CLR 11/02 A3007 490 52 200 200/14 RMK AO2 SLP187 T01110017
14840KMKG MKG20000414080009204/14/00 08:00:31  5-MIN KMKG 141300Z 19013KT 10SM CLR 11/01 A3007 490 50 200 200/13 RMK AO2
14840KMKG MKG20000414080509204/14/00 08:05:31  5-MIN KMKG 141305Z 19013KT 10SM CLR 11/02 A3007 490 52 200 190/13 RMK AO2
14840KMKG MKG20000414081009204/14/00 08:10:31  5-MIN KMKG 141310Z 19013KT 10SM CLR 11/02 A3007 490 52 200 190/13 RMK AO2
14840KMKG MKG20000414081509204/14/00 08:15:31  5-MIN KMKG 141315Z 19015KT 10SM CLR 12/02 A3007 490 52 200 190/15 RMK AO2
14840KMKG MKG20000414082009204/14/00 08:20:31  5-MIN KMKG 141320Z 19013KT 10SM CLR 12/02 A3007 490 50 200 200/13 RMK AO2
14840KMKG MKG20000414082509204/14/00 08:25:31  5-MIN KMKG 141325Z 20015KT 10SM CLR 12/02 A3007 490 50 200 200/15 RMK AO2
14840KMKG MKG20000414083009204/14/00 08:30:31  5-MIN KMKG 141330Z 19013KT 10SM CLR 12/02 A3007 490 52 200 200/13 RMK AO2
14840KMKG MKG20000414083509204/14/00 08:35:31  5-MIN KMKG 141335Z 19013KT 10SM CLR 12/02 A3007 490 52 300 190/13 RMK AO2
14840KMKG MKG20000414084009204/14/00 08:40:31  5-MIN KMKG 141340Z 20014KT 10SM CLR 12/02 A3007 490 52 300 200/14 RMK AO2
14840KMKG MKG20000414084509204/14/00 08:45:31  5-MIN KMKG 141345Z 19016KT 10SM CLR 12/02 A3007 490 52 300 190/16 RMK AO2
14840KMKG MKG20000414085011504/14/00 08:50:31  5-MIN KMKG 141350Z 20012G19KT 10SM CLR 12/03 A3006 500 52 300 200/12G19 RMK AO2 SLP184 T01220028
14840KMKG MKG20000414085511504/14/00 08:55:31  5-MIN KMKG 141355Z 20014G19KT 10SM CLR 12/03 A3007 500 52 300 200/14G19 RMK AO2 SLP184 T01220028
14840KMKG MKG20000414090009804/14/00 09:00:31  5-MIN KMKG 141400Z 20015G20KT 10SM CLR 12/03 A3007 500 52 300 200/15G20 RMK AO2
14840KMKG MKG20000414090509804/14/00 09:05:31  5-MIN KMKG 141405Z 20012G20KT 10SM CLR 12/03 A3007 500 52 300 200/12G20 RMK AO2
14840KMKG MKG20000414091009204/14/00 09:10:31  5-MIN KMKG 141410Z 20013KT 10SM CLR 12/03 A3006 500 54 300 200/13 RMK AO2
14840KMKG MKG20000414091509804/14/00 09:15:31  5-MIN KMKG 141415Z 20014G19KT 10SM CLR 12/03 A3006 500 54 300 210/14G19 RMK AO2
14840KMKG MKG20000414092009804/14/00 09:20:31  5-MIN KMKG 141420Z 20014G19KT 10SM CLR 13/04 A3007 500 54 400 200/14G19 RMK AO2
14840KMKG MKG20000414092509804/14/00 09:25:31  5-MIN KMKG 141425Z 20014G19KT 10SM CLR 13/04 A3007 500 54 400 200/14G19 RMK AO2
14840KMKG MKG20000414093009804/14/00 09:30:31  5-MIN KMKG 141430Z 20016G19KT 10SM CLR 13/04 A3006 500 56 400 210/16G19 RMK AO2
14840KMKG MKG20000414093509804/14/00 09:35:31  5-MIN KMKG 141435Z 20013G19KT 10SM CLR 13/04 A3006 500 56 400 200/13G19 RMK AO2
14840KMKG MKG20000414094009804/14/00 09:40:31  5-MIN KMKG 141440Z 20014G19KT 10SM CLR 13/04 A3007 500 56 400 200/14G19 RMK AO2
14840KMKG MKG20000414094509204/14/00 09:45:31  5-MIN KMKG 141445Z 20015KT 10SM CLR 13/04 A3007 500 56 400 200/15 RMK AO2
14840KMKG MKG20000414095011504/14/00 09:50:31  5-MIN KMKG 141450Z 20014KT 10SM CLR 13/04 A3006 500 56 400 200/14 RMK AO2 SLP183 T01280044 55003
14840KMKG MKG20000414095511504/14/00 09:55:31  5-MIN KMKG 141455Z 20013KT 10SM CLR 13/04 A3006 500 56 400 200/13 RMK AO2 SLP183 T01280044 58004
14840KMKG MKG20000414100009804/14/00 10:00:31  5-MIN KMKG 141500Z 20015G19KT 10SM CLR 13/04 A3006 500 54 500 210/15G19 RMK AO2
14840KMKG MKG20000414100509804/14/00 10:05:31  5-MIN KMKG 141505Z 19013G19KT 10SM CLR 13/04 A3006 500 54 500 200/13G19 RMK AO2
14840KMKG MKG20000414101009204/14/00 10:10:31  5-MIN KMKG 141510Z 19013KT 10SM CLR 13/04 A3006 500 54 500 200/13 RMK AO2
14840KMKG MKG20000414101509204/14/00 10:15:31  5-MIN KMKG 141515Z 19013KT 10SM CLR 13/04 A3006 500 54 500 190/13 RMK AO2
14840KMKG MKG20000414102009204/14/00 10:20:31  5-MIN KMKG 141520Z 19012KT 10SM CLR 13/04 A3006 500 54 500 190/12 RMK AO2
14840KMKG MKG20000414102509804/14/00 10:25:31  5-MIN KMKG 141525Z 19014G18KT 10SM CLR 13/04 A3006 500 54 500 190/14G18 RMK AO2
14840KMKG MKG20000414103009204/14/00 10:30:31  5-MIN KMKG 141530Z 19015KT 10SM CLR 13/05 A3006 500 57 500 190/15 RMK AO2
14840KMKG MKG20000414103509804/14/00 10:35:31  5-MIN KMKG 141535Z 20016G21KT 10SM CLR 13/05 A3006 500 57 500 210/16G21 RMK AO2
14840KMKG MKG20000414104009804/14/00 10:40:31  5-MIN KMKG 141540Z 19013G21KT 10SM CLR 13/05 A3006 500 57 500 190/13G21 RMK AO2
14840KMKG MKG20000414104509204/14/00 10:45:31  5-MIN KMKG 141545Z 19016KT 10SM CLR 14/05 A3006 500 55 500 190/16 RMK AO2
14840KMKG MKG20000414105011504/14/00 10:50:31  5-MIN KMKG 141550Z 19017G22KT 10SM CLR 14/05 A3006 500 55 500 200/17G22 RMK AO2 SLP183 T01390050
14840KMKG MKG20000414105511504/14/00 10:55:31  5-MIN KMKG 141555Z 19016G22KT 10SM CLR 14/05 A3006 500 55 500 190/16G22 RMK AO2 SLP183 T01390050
14840KMKG MKG20000414110009204/14/00 11:00:31  5-MIN KMKG 141600Z 18014KT 10SM CLR 14/05 A3006 500 55 500 190/14 RMK AO2
14840KMKG MKG20000414110509804/14/00 11:05:31  5-MIN KMKG 141605Z 19019G24KT 10SM CLR 14/05 A3006 500 55 500 190/19G24 RMK AO2
14840KMKG MKG20000414111009804/14/00 11:10:31  5-MIN KMKG 141610Z 19017G24KT 10SM CLR 14/05 A3006 500 55 500 200/17G24 RMK AO2
14840KMKG MKG20000414111509804/14/00 11:15:31  5-MIN KMKG 141615Z 20017G23KT 10SM CLR 14/06 A3006 500 55 600 200/17G23 RMK AO2
14840KMKG MKG20000414112009804/14/00 11:20:31  5-MIN KMKG 141620Z 20014G22KT 10SM CLR 14/06 A3006 500 55 600 200/14G22 RMK AO2
14840KMKG MKG20000414112509804/14/00 11:25:31  5-MIN KMKG 141625Z 19018G22KT 10SM CLR 14/06 A3006 500 57 500 200/18G22 RMK AO2
14840KMKG MKG20000414113009804/14/00 11:30:31  5-MIN KMKG 141630Z 19016G22KT 10SM CLR 14/06 A3006 500 55 600 200/16G22 RMK AO2
14840KMKG MKG20000414113509804/14/00 11:35:31  5-MIN KMKG 141635Z 20015G25KT 10SM CLR 14/06 A3006 500 55 600 200/15G25 RMK AO2
14840KMKG MKG20000414114009804/14/00 11:40:31  5-MIN KMKG 141640Z 19016G25KT 10SM CLR 14/06 A3006 500 55 600 200/16G25 RMK AO2
14840KMKG MKG20000414114509804/14/00 11:45:31  5-MIN KMKG 141645Z 20018G22KT 10SM CLR 15/06 A3006 500 53 700 200/18G22 RMK AO2
14840KMKG MKG20000414115011504/14/00 11:50:31  5-MIN KMKG 141650Z 19018G22KT 10SM CLR 15/06 A3006 510 53 700 200/18G22 RMK AO2 SLP180 T01500056
14840KMKG MKG20000414115514004/14/00 11:55:31  5-MIN KMKG 141655Z 20015G22KT 10SM CLR 15/06 A3005 510 53 700 200/15G22 RMK AO2 SLP179 T01500056 55 700 200/16G25 RMK AO2
14840KMKG MKG20000414121009804/14/00 12:10:31  5-MIN KMKG 141710Z 19019G24KT 10SM CLR 15/06 A3005 510 55 700 200/19G24 RMK AO2
14840KMKG MKG20000414121515904/14/00 12:15:31  5-MIN KMKG 141715Z 19016G24KT 10SM CLR 15/06 A3005 510 55 700 200/16G24 RMK AO2 04/14/000A3001 54051 900 200/19G27 RMK AO2 PK WND 20027/1813
14840KMKG MKG20000414132011704/14/00 13:20:31  5-MIN KMKG 141820Z 19017G27KT 10SM CLR 17/07 A3001 550 51 1000 190/17G27 RMK AO2 PK WND 20027/1813
14840KMKG MKG20000414132513104/14/00 13:25:31  5-MIN KMKG 141825Z 19019G24KT 10SM CLR 18/07  10SM CLR 18/07A2998 57046 1100 200/18G25 RMK AO2 PK WND 19027/1900
14840KMKG MKG20000414142511704/14/00 14:25:31  5-MIN KMKG 141925Z 19016G25KT 10SM CLR 19/07 A2998 580 44 1200 200/16G25 RMK AO2 PK WND 19027/1900
14840KMKG MKG20000414143005104/14/00 14:30:31  5-MIN KMKG 141930Z 19014G22KT0 2
14840KMKG MKG20000414153009304/14/00 15:30:31  5-MIN KMKG 142030Z 20016KT 10SM CLR 20/04 A2996 600 35 1400 210/16 RMK AO2
14840KMKG MKG20000414153509904/14/00 15:35:31  5-MIN KMKG 142035Z 19016G23KT 10SM CLR 20/05 A2995 600 37 1400 200/16G23 RMK AO2
14840KMKG MKG20000414154008604/14/00 15:40:31  5-MIN KMKG 142040Z 20 SM CLR 19/07 A2993 620 43 1300 210/11 RMK AO2
14840KMKG MKG20000414164509304/14/00 16:45:31  5-MIN KMKG 142145Z 21011KT 10SM CLR 19/06 A2993 620 41 1300 220/11 RMK AO2
14840KMKG MKG20000414165010704/14/00 16:50:31  5-MIN KMKG 142150Z 21013KT 10SM CLR 19/06 A2993 620 41 1300 220/13 RMK 0061 34 T01940056
14840KMKG MKG20000414175511004/14/00 17:55:31  5-MIN KMKG 142255Z 20008KT 10SM CLR 19/06 A2992 630 40 1300 200/08 RMK AO2 SLP133 T01940056
14840KMKG MKG20000414180009304/14/00 18:00:31  5-MIN KMKG 142300Z 21009KT 10SM CLR 19/06 A2992 630 41 1300 210/09 RMK AO2
14840KMKG MKG20000414180513804/14/00 18:05:31  5-MIN KMKG 142305Z 21010KT 10SM CLR 19/06 A2992 630 41 1300 210AO2007KT 10SM CLR 17/06 A2991 640 46 1100 200/07 RMK AO2
14840KMKG MKG20000414191009304/14/00 19:10:31  5-MIN KMKG 150010Z 19006KT 10SM CLR 17/05 A2991 640 44 1100 190/06 RMK AO2
14840KMKG MKG20000414191510904/14/00 19:15:31  5-MIN KMKG 150015Z 18007KT 10SM CLR 17/05 A2990 640 44 1100 190/07 RMK 1200 200/11 RMK AO2
14840KMKG MKG20000414203509304/14/00 20:35:31  5-MIN KMKG 150135Z 19012KT 10SM CLR 18/06 A2990 640 44 1200 200/12 RMK AO2
14840KMKG MKG20000414204009304/14/00 20:40:31  5-MIN KMKG 150140Z 19012KT 10SM CLR 18/06 A2990 650 44 1200 190/12 RMK AO2
14840KMKG MKG20000414204505404/14/00 20:45:31  5-MIN6 91 640 531200 190/14 RMK AO2
14840KMKG MKG20000414214009904/14/00 21:40:31  5-MIN KMKG 150240Z 19014G19KT 10SM CLR 18/08 A2991 640 53 1200 190/14G19 RMK AO2
14840KMKG MKG20000414221009904/14/00 22:10:31  5-MIN KMKG 150310Z 19014G21KT 10SM CLR 18/09 A2991 640 54 1200 200/14G21 RMK AO2
14840KMKG MKG20000414221509904/14/00 22:15:31  5-MIN KMKG 150315Z 19018G22KT 10SM CLR 18/09 A2991 640 56 1200 200/18G22 RMK AO2
14840KMKG MKG20000414222009904/14/00 22:20:31  5-MIN KMKG 150320Z 19017G22KT 10SM CLR 18/09 A2991 640 58 1200 190/17G22 RMK AO2
14840KMKG MKG20000414222509904/14/00 22:25:31  5-MIN KMKG 150325Z 19019G22KT 10SM CLR 18/09 A2991 640 56 1200 200/19G22 RMK AO2
14840KMKG MKG20000414223009304/14/00 22:30:31  5-MIN KMKG 150330Z 19017KT 10SM CLR 18/09 A2991 640 58 1200 200/17 RMK AO2
14840KMKG MKG20000414223509304/14/00 22:35:31  5-MIN KMKG 150335Z 19018KT 10SM CLR 18/09 A2991 640 58 1200 200/18 RMK AO2
14840KMKG MKG20000414224009304/14/00 22:40:31  5-MIN KMKG 150340Z 19017KT 10SM CLR 18/09 A2991 640 58 1200 200/17 RMK AO2
14840KMKG MKG20000414224509304/14/00 22:45:31  5-MIN KMKG 150345Z 19016KT 10SM CLR 17/09 A2991 640 60 1100 200/16 RMK AO2
14840KMKG MKG20000414225011004/14/00 22:50:31  5-MIN KMKG 150350Z 20017KT 10SM CLR 17/09 A2991 640 60 1100 200/17 RMK AO2 SLP129 T01720094
14840KMKG MKG20000414225511604/14/00 22:55:31  5-MIN KMKG 150355Z 20017G23KT 10SM CLR 17/09 A2991 640 60 1100 200/17G23 RMK AO2 SLP129 T01720094
14840KMKG MKG20000414230009904/14/00 23:00:31  5-MIN KMKG 150400Z 19017G24KT 10SM CLR 17/09 A2992 630 60 1100 200/17G24 RMK AO2
14840KMKG MKG20000414230509904/14/00 23:05:31  5-MIN KMKG 150405Z 19017G24KT 10SM CLR 17/10 A2992 630 62 1100 200/17G24 RMK AO2
14840KMKG MKG20000414231009904/14/00 23:10:31  5-MIN KMKG 150410Z 19016G22KT 10SM CLR 17/10 A2992 630 64 1000 200/16G22 RMK AO2
14840KMKG MKG20000414231509904/14/00 23:15:31  5-MIN KMKG 150415Z 20018G24KT 10SM CLR 17/10 A2992 640 64 1000 200/18G24 RMK AO2
14840KMKG MKG20000414232009904/14/00 23:20:31  5-MIN KMKG 150420Z 20020G24KT 10SM CLR 17/10 A2991 640 64 1000 200/20G24 RMK AO2
14840KMKG MKG20000414232511704/14/00 23:25:31  5-MIN KMKG 150425Z 19017G26KT 10SM CLR 17/10 A2991 640 64 1000 200/17G26 RMK AO2 PK WND 20026/0421
14840KMKG MKG20000414233011704/14/00 23:30:31  5-MIN KMKG 150430Z 20016G26KT 10SM CLR 17/10 A2991 640 64 1000 200/16G26 RMK AO2 PK WND 20026/0421
14840KMKG MKG20000414233511704/14/00 23:35:31  5-MIN KMKG 150435Z 19018G26KT 10SM CLR 17/10 A2991 640 64 1000 200/18G26 RMK AO2 PK WND 21026/0432
14840KMKG MKG20000414234011704/14/00 23:40:31  5-MIN KMKG 150440Z 20016G26KT 10SM CLR 17/11 A2991 640 67 1000 200/16G26 RMK AO2 PK WND 21026/0432
14840KMKG MKG20000414234511704/14/00 23:45:31  5-MIN KMKG 150445Z 19017G23KT 10SM CLR 16/11 A2991 640 69 1000 200/17G23 RMK AO2 PK WND 21026/0432
14840KMKG MKG20000414235014404/14/00 23:50:31  5-MIN KMKG 150450Z 19019G24KT 10SM CLR 16/11 A2991 640 69 1000 200/19G24 RMK AO2 PK WND 21026/0432 SLP129 T01610106 402000044
14840KMKG MKG20000414235514404/14/00 23:55:31  5-MIN KMKG 150455Z 19020G25KT 10SM CLR 16/11 A2991 640 69 1000 200/20G25 RMK AO2 PK WND 21026/0432 SLP128 T01610106 402000044
14840KMKG MKG20000415000009904/15/00 00:00:31  5-MIN KMKG 150500Z 19017G25KT 10SM CLR 16/11 A2991 640 69 1000 200/17G25 RMK AO2
14840KMKG MKG20000415000511704/15/00 00:05:31  5-MIN KMKG 150505Z 20019G26KT 10SM CLR 16/11 A2991 640 69 1000 200/19G26 RMK AO2 PK WND 19026/0502
14840KMKG MKG20000415001011604/15/00 00:10:31  5-MIN KMKG 150510Z 20019G26KT 10SM CLR 16/11 A2991 640 72 900 210/19G26 RMK AO2 PK WND 19026/0502
14840KMKG MKG20000415001511604/15/00 00:15:31  5-MIN KMKG 150515Z 20017G24KT 10SM CLR 16/11 A2991 640 72 900 200/17G24 RMK AO2 PK WND 19026/0502
14840KMKG MKG20000415002011604/15/00 00:20:31  5-MIN KMKG 150520Z 20019G24KT 10SM CLR 16/11 A2991 640 72 900 200/19G24 RMK AO2 PK WND 19026/0502
14840KMKG MKG20000415002511504/15/00 00:25:31  5-MIN KMKG 150525Z 20016G24KT 9SM CLR 16/11 A2991 640 72 900 210/16G24 RMK AO2 PK WND 19026/0502
14840KMKG MKG20000415003011504/15/00 00:30:31  5-MIN KMKG 150530Z 20019G24KT 9SM CLR 16/11 A2991 640 72 900 200/19G24 RMK AO2 PK WND 19026/0502
14840KMKG MKG20000415003511504/15/00 00:35:31  5-MIN KMKG 150535Z 20018G24KT 9SM CLR 15/11 A2991 640 74 800 210/18G24 RMK AO2 PK WND 19026/0502
14840KMKG MKG20000415004011504/15/00 00:40:31  5-MIN KMKG 150540Z 21017G23KT 9SM CLR 15/11 A2991 640 74 800 210/17G23 RMK AO2 PK WND 19026/0502
14840KMKG MKG20000415004511504/15/00 00:45:31  5-MIN KMKG 150545Z 20017G22KT 9SM CLR 15/11 A2991 640 74 800 200/17G22 RMK AO2 PK WND 19026/0502
14840KMKG MKG20000415005015004/15/00 00:50:31  5-MIN KMKG 150550Z 20017G22KT 9SM CLR 14/11 A2991 640 77 800 210/17G22 RMK AO2 PK WND 19026/0502 SLP129 T01440106 10183 20144 56002
14840KMKG MKG20000415005515004/15/00 00:55:31  5-MIN KMKG 150555Z 20016G22KT 9SM CLR 14/10 A2991 640 74 800 200/16G22 RMK AO2 PK WND 19026/0502 SLP128 T01440100 10183 20144 50003
14840KMKG MKG20000415010009704/15/00 01:00:31  5-MIN KMKG 150600Z 20015G21KT 8SM CLR 14/11 A2991 640 77 800 200/15G21 RMK AO2
14840KMKG MKG20000415010509704/15/00 01:05:31  5-MIN KMKG 150605Z 20017G22KT 8SM CLR 14/11 A2991 640 77 800 200/17G22 RMK AO2
14840KMKG MKG20000415011009704/15/00 01:10:31  5-MIN KMKG 150610Z 21018G22KT 8SM CLR 14/11 A2991 640 77 800 210/18G22 RMK AO2
14840KMKG MKG20000415011509704/15/00 01:15:31  5-MIN KMKG 150615Z 20017G23KT 8SM CLR 14/11 A2991 640 77 800 210/17G23 RMK AO2
14840KMKG MKG20000415012009704/15/00 01:20:31  5-MIN KMKG 150620Z 20018G23KT 8SM CLR 14/11 A2991 640 77 800 200/18G23 RMK AO2
14840KMKG MKG20000415012509704/15/00 01:25:31  5-MIN KMKG 150625Z 20016G23KT 8SM CLR 14/11 A2991 640 77 800 210/16G23 RMK AO2
14840KMKG MKG20000415013009104/15/00 01:30:31  5-MIN KMKG 150630Z 20013KT 8SM CLR 14/11 A2991 640 80 700 210/13 RMK AO2
14840KMKG MKG20000415013509104/15/00 01:35:31  5-MIN KMKG 150635Z 20013KT 8SM CLR 14/11 A2991 640 80 700 210/13 RMK AO2
14840KMKG MKG20000415014009104/15/00 01:40:31  5-MIN KMKG 150640Z 20013KT 8SM CLR 14/11 A2991 640 80 700 210/13 RMK AO2
14840KMKG MKG20000415014509104/15/00 01:45:31  5-MIN KMKG 150645Z 20013KT 8SM CLR 14/11 A2991 640 80 700 210/13 RMK AO2
14840KMKG MKG20000415015010804/15/00 01:50:31  5-MIN KMKG 150650Z 20014KT 8SM CLR 14/11 A2991 640 80 700 200/14 RMK AO2 SLP129 T01390106
14840KMKG MKG20000415015510804/15/00 01:55:31  5-MIN KMKG 150655Z 20014KT 8SM CLR 14/11 A2991 640 80 700 210/14 RMK AO2 SLP130 T01390106
14840KMKG MKG20000415020009104/15/00 02:00:31  5-MIN KMKG 150700Z 20012KT 7SM CLR 13/11 A2991 640 83 600 200/12 RMK AO2
14840KMKG MKG20000415020509704/15/00 02:05:31  5-MIN KMKG 150705Z 20014G19KT 7SM CLR 14/11 A2991 640 80 700 200/14G19 RMK AO2
14840KMKG MKG20000415021009704/15/00 02:10:31  5-MIN KMKG 150710Z 20014G19KT 7SM CLR 13/11 A2992 630 83 600 200/14G19 RMK AO2
14840KMKG MKG20000415021509104/15/00 02:15:31  5-MIN KMKG 150715Z 20013KT 7SM CLR 13/11 A2992 630 83 600 200/13 RMK AO2
14840KMKG MKG20000415022009104/15/00 02:20:31  5-MIN KMKG 150720Z 20012KT 7SM CLR 13/11 A2991 640 83 600 200/12 RMK AO2
14840KMKG MKG20000415022509104/15/00 02:25:31  5-MIN KMKG 150725Z 20012KT 7SM CLR 14/11 A2991 640 80 700 200/12 RMK AO2
14840KMKG MKG20000415023009104/15/00 02:30:31  5-MIN KMKG 150730Z 20012KT 7SM CLR 14/11 A2991 640 80 700 200/12 RMK AO2
14840KMKG MKG20000415023509104/15/00 02:35:31  5-MIN KMKG 150735Z 20015KT 7SM CLR 13/11 A2992 630 83 600 200/15 RMK AO2
14840KMKG MKG20000415024009704/15/00 02:40:31  5-MIN KMKG 150740Z 20016G20KT 7SM CLR 14/11 A2992 630 80 700 200/16G20 RMK AO2
14840KMKG MKG20000415024510004/15/00 02:45:31  5-MIN KMKG 150745Z 20014G20KT 6SM HZ CLR 14/11 A2992 630 80 700 200/14G20 RMK AO2
14840KMKG MKG20000415025011104/15/00 02:50:31  5-MIN KMKG 150750Z 20014KT 6SM HZ CLR 14/11 A2992 630 80 700 210/14 RMK AO2 SLP130 T01390106
14840KMKG MKG20000415025511104/15/00 02:55:31  5-MIN KMKG 150755Z 21016KT 6SM HZ CLR 14/11 A2992 630 83 700 210/16 RMK AO2 SLP131 T01390111
14840KMKG MKG20000415030009404/15/00 03:00:31  5-MIN KMKG 150800Z 21016KT 6SM HZ CLR 14/11 A2992 630 83 700 210/16 RMK AO2
14840KMKG MKG20000415030510004/15/00 03:05:31  5-MIN KMKG 150805Z 20016G21KT 6SM HZ CLR 14/11 A2992 630 83 700 210/16G21 RMK AO2
14840KMKG MKG20000415031009404/15/00 03:10:31  5-MIN KMKG 150810Z 20015KT 6SM BR CLR 13/11 A2992 630 86 600 210/15 RMK AO2
14840KMKG MKG20000415031509404/15/00 03:15:31  5-MIN KMKG 150815Z 21014KT 6SM HZ CLR 13/11 A2992 630 83 600 210/14 RMK AO2
14840KMKG MKG20000415032007804/15/00 03:20:31  5-MIN KMKG 150820Z 21015KT 6SM HZ CLR 83 32 T01330111 50003
14840KMKG MKG20000415035511704/15/00 03:55:31  5-MIN KMKG 150855Z 20013KT 5SM BR CLR 13/11 A2992 630 86 600 210/13 RMK AO2 SLP132 T01330111 51004
14840KMKG MKG20000415040014504/15/00 04:00:31  5-MIN KMKG 150900Z 21013KT 5SM BR CLR 13/11 A2992 630 86 600 210/13 RMK AO2  86M BR CLR 13/11 A2992 630 89  600 210/12 RMK AO2
14840KMKG MKG20000415051009404/15/00 05:10:31  5-MIN KMKG 151010Z 20015KT 4SM BR CLR 12/11 A2992 630 89 500 200/15 RMK AO2
14840KMKG MKG20000415051514604/15/00 05:15:31  5-MIN KMKG 151015Z 21012KT 4SM BR CLR 12/11 A2992 630 89 500 210/12 RMK 010KT 4SM BR CLR 12/11 A2992 630 93  500 210/10 RMK AO2
14840KMKG MKG20000415061009404/15/00 06:10:31  5-MIN KMKG 151110Z 20009KT 3SM BR CLR 12/11 A2992 630 93 500 210/09 RMK AO2
14840KMKG MKG20000415061507204/15/00 06:15:31  5-MIN KMKG 151115Z 20009KT 2 1/2SM BR CLR 12/11 A2992
14840KMKG MKG20000415072510804/15/00 07:25:31  5-MIN KMKG 151225Z 20010KT 2 1/2SM BR CLR 12/11 A2993 620 89 500 200/10 RMK AO2 SFC VIS 3
14840KMKG MKG20000415073009604/15/00 07:30:31  5-MIN KMKG 15 1330Z 21011KT 4SM HZ CLR 14/11 A2995 600 80  700 210/11 RMK AO2
14840KMKG MKG20000415083509404/15/00 08:35:31  5-MIN KMKG 151335Z 20011KT 4SM HZ CLR 14/11 A2995 600 83 700 200/11 RMK AO2
14840KMKG MKG20000415084007604/15/00 08:40:31  5-MIN KMKG 151340Z 20012KT 4SM HZ CLR 14/11 A2995 610 802
14840KMKG MKG20000415094509704/15/00 09:45:31  5-MIN KMKG 151445Z 21013KT 4SM HZ BKN022 14/11 A2996 590 80 700 210/13 RMK AO2
14840KMKG MKG20000415104009704/15/00 10:40:31  5-MIN KMKG 151540Z 22015KT 4SM HZ OVC018 14/11 A2997 580 80 700 230/15 RMK AO2
14840KMKG MKG20000415104504304/15/00 10:45:31  5-MIN KMKG 151545Z 22580
14840KMKG MKG20000415113011104/15/00 11:30:31  5-MIN KMKG 151630Z 21010KT 2 1/2SM HZ OVC016 14/11 A2998 580 83 600 210/10 RMK AO2 SFC VIS 4
14840KMKG MKG20000415113512304/15/00 11:35:31  5-MIN KMKG 151635Z 22012KT 2 1/2SM HZ OVC016 13/11 A2998 570 83 600 220/12 RMK AO2 SFC VIS 4 04/15/00998
14840KMKG MKG20000415123011104/15/00 12:30:31  5-MIN KMKG 151730Z 23011KT 2 1/2SM HZ OVC014 13/11 A2998 580 83 600 230/11 RMK AO2 SFC VIS 4
14840KMKG MKG20000415123523004/15/00 12:35:31  5-MIN KMKG 151735Z 24008KT 2 1/2SM BR OVC012 13/11 A2998 570 86 500 240/08 RMK AO2 SFC VIS 4 04/15/00998 KMKG 151830Z 26006KT 2 1/2SM BR BKN007 OVC012 11/09 A2998 580 89 200 270/06 RMK AO2 SFC VIS 3 VIS 2 RWY 14
14840KMKG MKG20000415065013304/15/00 06:50:31  5-MIN KMKG 151150Z 19011KT 2 1/2SM BR CLR 12/11 A2993 620 93 400 200/11 RMK AO2 SLP134 T01170106 10144 20117 51004
14840KMKG MKG20000415065513304/15/00 06:55:31  5-MIN KMKG 151155Z 20011KT 2 1/2SM BR CLR 12/11 A2993 620 93 400 200/11 RMK AO2 SLP134 T01170106 10144 20117 53003
14840KMKG MKG20000415070009804/15/00 07:00:31  5-MIN KMKG 151200Z 20010KT 2 1/2SM BR CLR 12/11 A2993 620 93 400 200/10 RMK AO2
14840KMKG MKG20000415070509804/15/00 07:05:31  5-MIN KMKG 151205Z 20012KT 2 1/2SM BR CLR 12/11 A2993 620 93 500 200/12 RMK AO2
14840KMKG MKG20000415071009804/15/00 07:10:31  5-MIN KMKG 151210Z 20012KT 2 1/2SM BR CLR 12/11 A2993 620 93 500 200/12 RMK AO2
14840KMKG MKG20000415071509804/15/00 07:15:31  5-MIN KMKG 151215Z 20011KT 2 1/2SM BR CLR 12/11 A2993 620 93 500 200/11 RMK AO2
14840KMKG MKG20000415072009804/15/00 07:20:31  5-MIN KMKG 151220Z 20012KT 2 1/2SM BR CLR 12/11 A2993 620 89 500 200/12 RMK AO2
14840KMKG MKG20000415072510804/15/00 07:25:31  5-MIN KMKG 151225Z 20010KT 2 1/2SM BR CLR 12/11 A2993 620 89 500 200/10 RMK AO2 SFC VIS 3
14840KMKG MKG20000415073010804/15/00 07:30:31  5-MIN KMKG 151230Z 20009KT 2 1/2SM BR CLR 12/11 A2994 610 93 500 210/09 RMK AO2 SFC VIS 3
14840KMKG MKG20000415073510804/15/00 07:35:31  5-MIN KMKG 151235Z 20009KT 2 1/2SM BR CLR 12/11 A2994 610 93 500 200/09 RMK AO2 SFC VIS 3
14840KMKG MKG20000415074010804/15/00 07:40:31  5-MIN KMKG 151240Z 19011KT 2 1/2SM BR CLR 12/11 A2994 610 89 500 190/11 RMK AO2 SFC VIS 3
14840KMKG MKG20000415074510804/15/00 07:45:31  5-MIN KMKG 151245Z 20009KT 2 1/2SM BR CLR 12/11 A2994 610 89 500 200/09 RMK AO2 SFC VIS 3
14840KMKG MKG20000415075012504/15/00 07:50:31  5-MIN KMKG 151250Z 20010KT 2 1/2SM BR CLR 13/11 A2994 610 86 500 200/10 RMK AO2 SFC VIS 3 SLP139 T01280106
14840KMKG MKG20000415075512504/15/00 07:55:31  5-MIN KMKG 151255Z 19009KT 2 1/2SM BR CLR 13/11 A2995 610 89 500 190/09 RMK AO2 SFC VIS 3 SLP140 T01280111
14840KMKG MKG20000415080010804/15/00 08:00:31  5-MIN KMKG 151300Z 19010KT 2 1/2SM BR CLR 13/11 A2995 610 89 500 200/10 RMK AO2 SFC VIS 3
14840KMKG MKG20000415080509404/15/00 08:05:31  5-MIN KMKG 151305Z 19009KT 3SM BR CLR 13/11 A2995 610 86 600 200/09 RMK AO2
14840KMKG MKG20000415081009404/15/00 08:10:31  5-MIN KMKG 151310Z 20010KT 4SM BR CLR 13/11 A2994 610 86 600 200/10 RMK AO2
14840KMKG MKG20000415081509404/15/00 08:15:31  5-MIN KMKG 151315Z 19012KT 4SM HZ CLR 14/11 A2994 610 83 700 200/12 RMK AO2
14840KMKG MKG20000415082009404/15/00 08:20:31  5-MIN KMKG 151320Z 19011KT 4SM HZ CLR 14/11 A2994 610 83 700 190/11 RMK AO2
14840KMKG MKG20000415082509404/15/00 08:25:31  5-MIN KMKG 151325Z 20011KT 4SM HZ CLR 14/11 A2995 610 83 700 210/11 RMK AO2
14840KMKG MKG20000415083009404/15/00 08:30:31  5-MIN KMKG 151330Z 21011KT 4SM HZ CLR 14/11 A2995 600 80 700 210/11 RMK AO2
14840KMKG MKG20000415083509404/15/00 08:35:31  5-MIN KMKG 151335Z 20011KT 4SM HZ CLR 14/11 A2995 600 83 700 200/11 RMK AO2
14840KMKG MKG20000415084009404/15/00 08:40:31  5-MIN KMKG 151340Z 20012KT 4SM HZ CLR 14/11 A2995 610 80 700 200/12 RMK AO2
14840KMKG MKG20000415084509404/15/00 08:45:31  5-MIN KMKG 151345Z 21011KT 4SM HZ CLR 14/11 A2995 610 80 700 210/11 RMK AO2
14840KMKG MKG20000415085011104/15/00 08:50:31  5-MIN KMKG 151350Z 20012KT 4SM HZ CLR 14/12 A2995 600 83 700 200/12 RMK AO2 SLP141 T01440117
14840KMKG MKG20000415085511104/15/00 08:55:31  5-MIN KMKG 151355Z 20014KT 4SM HZ CLR 15/12 A2995 610 80 800 210/14 RMK AO2 SLP141 T01500117
14840KMKG MKG20000415090010004/15/00 09:00:31  5-MIN KMKG 151400Z 21012G19KT 4SM HZ CLR 14/12 A2995 600 83 700 210/12G19 RMK AO2
14840KMKG MKG20000415090509404/15/00 09:05:31  5-MIN KMKG 151405Z 20012KT 4SM HZ CLR 15/12 A2995 600 80 800 200/12 RMK AO2
14840KMKG MKG20000415091010004/15/00 09:10:31  5-MIN KMKG 151410Z 20014G19KT 4SM HZ CLR 15/12 A2995 600 80 800 210/14G19 RMK AO2
14840KMKG MKG20000415091509404/15/00 09:15:31  5-MIN KMKG 151415Z 21014KT 4SM HZ CLR 15/12 A2996 600 80 800 220/14 RMK AO2
14840KMKG MKG20000415092009404/15/00 09:20:31  5-MIN KMKG 151420Z 21015KT 4SM HZ CLR 14/12 A2996 600 83 700 210/15 RMK AO2
14840KMKG MKG20000415092509404/15/00 09:25:31  5-MIN KMKG 151425Z 20016KT 4SM HZ CLR 15/12 A2996 600 80 800 210/16 RMK AO2
14840KMKG MKG20000415093009704/15/00 09:30:31  5-MIN KMKG 151430Z 21015KT 4SM HZ FEW026 14/11 A2996 590 80 700 210/15 RMK AO2
14840KMKG MKG20000415093509704/15/00 09:35:31  5-MIN KMKG 151435Z 20015KT 4SM HZ FEW026 14/11 A2996 590 80 700 210/15 RMK AO2
14840KMKG MKG20000415094009704/15/00 09:40:31  5-MIN KMKG 151440Z 20015KT 4SM HZ SCT024 15/12 A2996 590 80 800 210/15 RMK AO2
14840KMKG MKG20000415094509704/15/00 09:45:31  5-MIN KMKG 151445Z 21013KT 4SM HZ BKN022 14/11 A2996 590 80 700 210/13 RMK AO2
14840KMKG MKG20000415095012004/15/00 09:50:31  5-MIN KMKG 151450Z 21015KT 4SM HZ BKN022 14/11 A2997 590 83 600 210/15 RMK AO2 SLP147 T01390111 53003
14840KMKG MKG20000415095512004/15/00 09:55:31  5-MIN KMKG 151455Z 21015KT 4SM HZ BKN022 14/11 A2997 590 80 700 210/15 RMK AO2 SLP148 T01440111 53013
14840KMKG MKG20000415100009704/15/00 10:00:31  5-MIN KMKG 151500Z 20015KT 4SM HZ BKN020 14/11 A2997 580 83 600 210/15 RMK AO2
14840KMKG MKG20000415100509704/15/00 10:05:31  5-MIN KMKG 151505Z 21015KT 4SM HZ OVC020 14/11 A2997 580 83 600 210/15 RMK AO2
14840KMKG MKG20000415101010304/15/00 10:10:31  5-MIN KMKG 151510Z 21013G20KT 4SM HZ OVC020 14/11 A2997 580 83 600 210/13G20 RMK AO2
14840KMKG MKG20000415101509704/15/00 10:15:31  5-MIN KMKG 151515Z 21014KT 4SM HZ OVC018 14/11 A2997 580 83 600 220/14 RMK AO2
14840KMKG MKG20000415102009704/15/00 10:20:31  5-MIN KMKG 151520Z 21013KT 4SM HZ OVC018 14/11 A2997 580 80 700 220/13 RMK AO2
14840KMKG MKG20000415102509704/15/00 10:25:31  5-MIN KMKG 151525Z 21015KT 4SM HZ OVC018 14/11 A2997 590 80 700 210/15 RMK AO2
14840KMKG MKG20000415103009704/15/00 10:30:31  5-MIN KMKG 151530Z 22014KT 4SM HZ OVC018 14/11 A2997 580 80 700 220/14 RMK AO2
14840KMKG MKG20000415103509704/15/00 10:35:31  5-MIN KMKG 151535Z 21014KT 4SM HZ OVC018 14/11 A2997 580 83 600 220/14 RMK AO2
14840KMKG MKG20000415104009704/15/00 10:40:31  5-MIN KMKG 151540Z 22015KT 4SM HZ OVC018 14/11 A2997 580 80 700 230/15 RMK AO2
14840KMKG MKG20000415104509704/15/00 10:45:31  5-MIN KMKG 151545Z 22015KT 4SM HZ OVC016 14/11 A2997 580 83 600 220/15 RMK AO2
14840KMKG MKG20000415105011404/15/00 10:50:31  5-MIN KMKG 151550Z 21013KT 4SM HZ OVC016 14/11 A2997 580 80 700 210/13 RMK AO2 SLP149 T01440111
14840KMKG MKG20000415105511404/15/00 10:55:31  5-MIN KMKG 151555Z 21010KT 4SM HZ OVC016 14/11 A2997 580 80 700 220/10 RMK AO2 SLP150 T01440111
14840KMKG MKG20000415110009704/15/00 11:00:31  5-MIN KMKG 151600Z 21013KT 4SM HZ OVC016 14/11 A2998 580 83 600 220/13 RMK AO2
14840KMKG MKG20000415110511104/15/00 11:05:31  5-MIN KMKG 151605Z 20012KT 2 1/2SM HZ OVC016 14/11 A2997 580 80 700 210/12 RMK AO2 SFC VIS 4
14840KMKG MKG20000415111011104/15/00 11:10:31  5-MIN KMKG 151610Z 22011KT 2 1/2SM HZ OVC016 14/11 A2998 580 83 600 230/11 RMK AO2 SFC VIS 4
14840KMKG MKG20000415111511104/15/00 11:15:31  5-MIN KMKG 151615Z 22010KT 2 1/2SM HZ OVC016 14/11 A2998 580 83 600 220/10 RMK AO2 SFC VIS 4
14840KMKG MKG20000415112011104/15/00 11:20:31  5-MIN KMKG 151620Z 22010KT 2 1/2SM HZ OVC016 14/11 A2998 570 83 600 220/10 RMK AO2 SFC VIS 4
14840KMKG MKG20000415112511104/15/00 11:25:31  5-MIN KMKG 151625Z 22010KT 2 1/2SM HZ OVC016 14/11 A2998 570 83 600 220/10 RMK AO2 SFC VIS 4
14840KMKG MKG20000415113011104/15/00 11:30:31  5-MIN KMKG 151630Z 21010KT 2 1/2SM HZ OVC016 14/11 A2998 580 83 600 210/10 RMK AO2 SFC VIS 4
14840KMKG MKG20000415113511104/15/00 11:35:31  5-MIN KMKG 151635Z 22012KT 2 1/2SM HZ OVC016 13/11 A2998 570 83 600 220/12 RMK AO2 SFC VIS 4
14840KMKG MKG20000415114011104/15/00 11:40:31  5-MIN KMKG 151640Z 22010KT 2 1/2SM HZ OVC016 13/11 A2998 570 83 500 220/10 RMK AO2 SFC VIS 4
14840KMKG MKG20000415114511104/15/00 11:45:31  5-MIN KMKG 151645Z 21012KT 2 1/2SM HZ OVC014 13/11 A2998 570 83 500 220/12 RMK AO2 SFC VIS 4
14840KMKG MKG20000415115012804/15/00 11:50:31  5-MIN KMKG 151650Z 21012KT 2 1/2SM HZ OVC014 13/11 A2998 570 83 500 210/12 RMK AO2 SFC VIS 4 SLP153 T01330106
14840KMKG MKG20000415115512804/15/00 11:55:31  5-MIN KMKG 151655Z 21011KT 2 1/2SM BR OVC014 13/11 A2998 570 86 500 220/11 RMK AO2 SFC VIS 4 SLP153 T01280106
14840KMKG MKG20000415120011104/15/00 12:00:31  5-MIN KMKG 151700Z 21011KT 2 1/2SM HZ OVC014 13/11 A2998 580 83 600 220/11 RMK AO2 SFC VIS 4
14840KMKG MKG20000415120511104/15/00 12:05:31  5-MIN KMKG 151705Z 22010KT 2 1/2SM BR OVC014 13/11 A2998 580 86 600 220/10 RMK AO2 SFC VIS 4
14840KMKG MKG20000415121013704/15/00 12:10:31  5-MIN KMKG 151710Z 22012KT 2 1/2SM BR OVC014 13/11 A299811/09 A2998 580 89 200 250/08 RMK AO2 SFC VIS 3 CIG 007 RWY 14
14840KMKG MKG20000415131011804/15/00 13:10:31  5-MIN KMKG 151810Z 25008KT 2 1/2SM BR BKN007 OVC012 11/09 A2998 580 86 300 250/08 RMK AO2 SFC VIS 3
14840KMKG MKG20000415142011204/15/00 14:20:31  5-MIN KMKG 151920Z VRB04KT 2 1/2SM HZ OVC012 13/10 A2997  580 83 500 VRB/04 RMK AO2 SFC VIS 4
14840KMKG MKG20000415142507504/15/00 14:25:31  5-MIN KMKG 151925Z 27004KT 2 1/2SM HZ OVC012 13/10 A2998
14840KMKG MKG20000415152512404/15/00 15:25:31  5-MIN KMKG 152025Z 00000KT 2 1/2SM HZ OVC014 13/10 A2996  590 80 600 000/00 RMK AO2 SFC VIS 4 04/15/00996
14840KMKG MKG20000415162509704/15/00 16:25:31  5-MIN KMKG 152125Z 31007KT 5SM HZ BKN016 15/10 A2996 590 72 800 320/07 RMK AO2
14840KMKG MKG20000415163009704/15/00 16:30:31  5-MIN KMKG 152130Z 31007KT 5SM HZ BKN016 14/09 A2996 590 72 700 310/07 RMK AO2
14840KMKG MKG20000415174009404/15/00 17:40:31  5-MIN KMKG 152240Z 01004KT 6SM HZ CLR 14/11 A2995 600 77 700 020/04 RMK AO2
14840KMKG MKG20000415174509404/15/00 17:45:31  5-MIN KMKG 152245Z 34004KT 6SM HZ CLR 14/11 A2995 600 77 700 340/04 RMK AO2
14840KMKG MKG20000415182009404/15/00 18:20:31  5-MIN KMKG 152320Z 33004KT 4SM HZ CLR 14/09 A2995 600 74 700 330/04 RMK AO2
14840KMKG MKG20000415182509404/15/00 18:25:31  5-MIN KMKG 152325Z 32004KT 4SM HZ CLR 13/09 A2995 600 77 600 320/04 RMK AO2
14840KMKG MKG20000415183013904/15/00 18:30:31  5-MIN KMKG 152330Z 33005KT 4S04/15/00 19:35:31  5-MIN KMKG 160035Z 02007KT 7SM CLR 13/09 A2995 600 80 500 020/07 RMK AO2
14840KMKG MKG20000415194009104/15/00 19:40:31  5-MIN KMKG 160040Z 01007KT 8SM CLR 13/09 A2995 600 80 500 020/07 RMK AO2
14840KMKG MKG20000415194508304/15/00 19:45:31  5-MIN KMKG 160045Z 36007KT 8SM CLR 1312 RMK AO2 SLP165 T01000056
14840KMKG MKG20000415205510904/15/00 20:55:31  5-MIN KMKG 160155Z 01012KT 10SM CLR 10/05 A3002 540 71 100 010/12 RMK AO2 SLP166 T01000050
14840KMKG MKG20000415210009804/15/00 21:00:31  5-MIN KMKG 160200Z 02014G18KT 10SM CLR 10/05 A3002 540 71 100 020/14G18 RMK AO2
14840KMKG MKG20000415220010204/15/00 22:00:31  5-MIN KMKG 160300Z 05010KT 10SM SCT065 BKN095 10/05 A3001 550 71 100 050/10 RMK AO2
14840KMKG MKG20000415220510204/15/00 22:05:31  5-MIN KMKG 160305Z 05008KT 10SM SCT060 OVC100 10/05 A3001 550 71 100 050/08 RMK AO2
14840KMKG MKG20000415225013604/15/00 22:50:31  5-MIN KMKG 160350Z 03008KT 10SM SCT065 OVC100 10/05 A3001 550 71 100 030/08 RMK AO2 SLP164 T01000050 04/15/00 22:55:3
14840KMKG MKG20000415235512704/15/00 23:55:31  5-MIN KMKG 160455Z 04009KT 10SM FEW070 OVC100 09/04 A3002 540 71 0 040/09 RMK AO2 SLP166 T00940044 401610094
14840KMKG MKG20000416000017004/16/00 00:00:31  5-MIN KMKG 160500Z 04009KT 10SM OVC100 09/04 A3002 540 73 0 040/09 RMK AO2 04/16/00 00:05:3009KT 10SM FEW070 OVC100 09/05 A3004 520 76 0 060/09 RMK AO2
14840KMKG MKG20000416011010004/16/00 01:10:31  5-MIN KMKG 160610Z 05009KT 10SM FEW070 OVC100 09/05 A3004 520 76 0 050/09 RMK AO2
14840KMKG MKG20000416011509004/16/00 01:15:31  5-MIN KMKG 160615Z 06010KT 10SM FEW065 OVC100 09/05 79 0 070/08 RMK AO2
14840KMKG MKG20000416022509304/16/00 02:25:31  5-MIN KMKG 160725Z 06009KT 10SM SCT120 08/05 A3002 540 79 0 060/09 RMK AO2
14840KMKG MKG20000416023014904/16/00 02:30:31  5-MIN KMKG 160730Z 05010KT 10SM FEW060 BKN120 08/05 A3002 540 79 0 060/10 RMK AO2 04/16/00 02:35:3A3004 520 82 -100 050/06 RMK AO2
14840KMKG MKG20000416035012604/16/00 03:50:31  5-MIN KMKG 160850Z 06005KT 10SM BKN038 OVC080 08/06 A3004 520 82 -100 060/05 RMK AO2 SLP175 T00830056 53013
14840KMKG MKG20000416040509604/16/00 04:05:31  5-MIN KMKG 160905Z 06006KT 10SM OVC036 08/06 A3004 520 82 -100 070/06 RMK AO2
14840KMKG MKG20000416041004904/16/00 04:10:31  5-MIN KMKG 160910Z 06006KT 100
14840KMKG MKG20000416051509604/16/00 05:15:31  5-MIN KMKG 161015Z 08008KT 10SM OVC034 08/06 A3005 510 82 -100 080/08 RMK AO2
14840KMKG MKG20000416052010304/16/00 05:20:31  5-MIN KMKG 161020Z 08007KT 10SM BKN034 OVC080 08/06 A3005 510 82 -100 080/07 RMK AO2
14840KMKG MKG20000416052503204/16/00 05:25:31  5-MIN KMKG 16
14840KMKG MKG20000416062009604/16/00 06:20:31  5-MIN KMKG 161120Z 09010KT 10SM FEW085 08/04 A3006 500 79 -200 090/10 RMK AO2
14840KMKG MKG20000416062509304/16/00 06:25:31  5-MIN KMKG 161125Z 08009KT 10SM CLR 08/04 A3006 500 79 -200 090/09 RMK AO2
14840KMKG MKG20000416063004104/16/00 06:30:31  5-MIN KMKG 161130Z 080
14840KMKG MKG20000416073009604/16/00 07:30:31  5-MIN KMKG 161230Z 09011KT 10SM OVC029 08/04 A3008 480 76 -100 090/11 RMK AO2
14840KMKG MKG20000416073509604/16/00 07:35:31  5-MIN KMKG 161235Z 08011KT 10SM OVC029 08/04 A3008 480 76 -100 090/11 RMK AO2
14840KMKG MKG20000416074509604/16/00 07:45:31  5-MIN KMKG 161245Z 08014KT 10SM OVC029 08/04 A3009 480 73 -100 080/14 RMK AO2
14840KMKG MKG20000416075004104/16/00 07:50:31  5-MIN KMKG 161250Z 080
14840KMKG MKG20000416090510204/16/00 09:05:31  5-MIN KMKG 161405Z 08015G19KT 10SM OVC027 08/04 A3009 470 73 -100 080/15G19 RMK AO2
14840KMKG MKG20000416091010204/16/00 09:10:31  5-MIN KMKG 161410Z 10014G19KT 10SM OVC027 08/04 A3009 470 76 -100 100/14G19 RMK AO2
14840KMKG MKG20000416091513504/16/00 09:15:31  5-MIN KMKG 1604/16/00 10:05:31  5-MIN KMKG 161505Z 08016KT 10SM FEW018 OVC027 09/04 A3010 460 73 -100 080/16 RMK AO2
14840KMKG MKG20000416101010304/16/00 10:10:31  5-MIN KMKG 161510Z 09015KT 10SM FEW018 OVC027 09/04 A3010 460 71 -100 090/15 RMK AO2
14840KMKG MKG20000416101502404/16/00 10:15:31  5-MIN
14840KMKG MKG20000416111009304/16/00 11:10:31  5-MIN KMKG 161610Z 09014KT 10SM OVC025 09/04 A3010 470 68 0 100/14 RMK AO2
14840KMKG MKG20000416111509904/16/00 11:15:31  5-MIN KMKG 161615Z 10015G19KT 10SM OVC025 09/04 A3010 470 68 0 100/15G19 RMK AO2
14840KMKG MKG20000416112004104/16/00 11:20:31  5-MIN KMKG 161620Z 080
14840KMKG MKG20000416121510604/16/00 12:15:31  5-MIN KMKG 161715Z 08014G20KT 10SM BKN021 OVC028 09/04 A3010 470 68 0 080/14G20 RMK AO2
14840KMKG MKG20000416122018404/16/00 12:20:31  5-MIN KMKG 161720Z 08015G21KT 10SM BKN021 OVC028 09/03 A3010 470 68 -100 090/15G21 RMK AO2 04/16/00 12:25:33 014KT 10SM OVC021 08/03 A3009 470 70 -100 100/14 RMK AO2
14840KMKG MKG20000416133009604/16/00 13:30:31  5-MIN KMKG 161830Z 08014KT 10SM OVC021 08/03 A3009 470 70 -100 090/14 RMK AO2
14840KMKG MKG20000416134509604/16/00 13:45:31  5-MIN KMKG 161845Z 08014KT 10SM OVC023 08/03 A3009 470 70 -100 080/14 RMK AO2
14840KMKG MKG20000416135014404/16/00 13:50:31  5-MIN KMKG 161850Z 09012KT 10SM OVC023 08/03 A3009 470  10SM -RA OVC023 08/04 A3008 480 76 -200 090/13G18 RMK AO2 RAB06 P0000
14840KMKG MKG20000416144511804/16/00 14:45:31  5-MIN KMKG 161945Z 07016G19KT 10SM -RA OVC023 08/03 A3008 480 73 -200 080/16G19 RMK AO2 RAB06 P0000
14840KMKG MKG20000416145011504/16/00 14:50:31  5-MIN KMKG 161950Z 08014KT 1003 A3006 500 70 -100 080/17G21 RMK AO2 SLP183 60000 T00830033 58002
14840KMKG MKG20000416155512504/16/00 15:55:31  5-MIN KMKG 162055Z 09013KT 10SM OVC025 08/03 A3006 500 68 -100 090/13 RMK AO2 SLP184 60000 T00830028 58011
14840KMKG MKG20000416160007604/16/00 16:00:31  5-MIN KMKG 162100Z 07 A3006 510 70 -200 090/14G22 RMK AO2
14840KMKG MKG20000416170510304/16/00 17:05:31  5-MIN KMKG 162205Z 08016KT 10SM FEW029 OVC050 08/03 A3005 510 70 -200 080/16 RMK AO2
14840KMKG MKG20000416171010304/16/00 17:10:31  5-MIN KMKG 162210Z 07016KT 10SM FEW029 OVC050 07/03 A3005 510 73 -200 080/16 RMK AO2
14840KMKG MKG20000416171510304/16/00 17:15:31  5-MIN KMKG 162215Z 08016KT 10SM FEW029 OVC055 07/03 A3005 510 73 -200 080/16 RMK AO2
14840KMKG MKG20000416172009604/16/00 17:20:31  5-MIN KMKG 162220Z 08017KT 10SM OVC055 08/03 A3005 510 70 -100 090/17 RMK AO2
14840KMKG MKG20000416172510304/16/00 17:25:31  5-MIN KMKG 162225Z 08015KT 10SM FEW027 OVC055 08/03 A3004 520 70 -100 080/15 RMK AO2
14840KMKG MKG20000416173010904/16/00 17:30:31  5-MIN KMKG 162230Z 08015G20KT 10SM FEW027 OVC055 08/03 A3004 520 70 -100 090/15G20 RMK AO2
14840KMKG MKG20000416173510904/16/00 17:35:31  5-MIN KMKG 162235Z 08013G20KT 10SM FEW027 OVC055 08/03 A3004 520 70 -100 090/13G20 RMK AO2
14840KMKG MKG20000416174010904/16/00 17:40:31  5-MIN KMKG 162240Z 08019G22KT 10SM FEW027 OVC055 07/03 A3004 520 73 -200 080/19G22 RMK AO2
14840KMKG MKG20000416174510904/16/00 17:45:31  5-MIN KMKG 162245Z 09013G22KT 10SM FEW027 OVC055 07/03 A3004 520 73 -200 090/13G22 RMK AO2
14840KMKG MKG20000416175012004/16/00 17:50:31  5-MIN KMKG 162250Z 07014KT 10SM FEW027 OVC055 07/03 A3003 520 73 -200 080/14 RMK AO2 SLP174 T00720028
14840KMKG MKG20000416175512604/16/00 17:55:31  5-MIN KMKG 162255Z 08018G21KT 10SM FEW027 OVC055 07/03 A3004 520 73 -200 090/18G21 RMK AO2 SLP175 T00720028
14840KMKG MKG20000416180010204/16/00 18:00:31  5-MIN KMKG 162300Z 09015G25KT 10SM SCT060 07/03 A3003 530 73 -200 090/15G25 RMK AO2
14840KMKG MKG20000416180510204/16/00 18:05:31  5-MIN KMKG 162305Z 07016G25KT 10SM SCT060 07/02 A3003 530 70 -200 070/16G25 RMK AO2
14840KMKG MKG20000416181010204/16/00 18:10:31  5-MIN KMKG 162310Z 07013G22KT 10SM SCT060 07/03 A3003 530 73 -200 070/13G22 RMK AO2
14840KMKG MKG20000416181509604/16/00 18:15:31  5-MIN KMKG 162315Z 08012KT 10SM SCT060 07/03 A3004 520 73 -200 080/12 RMK AO2
14840KMKG MKG20000416182009604/16/00 18:20:31  5-MIN KMKG 162320Z 08013KT 10SM BKN060 07/03 A3004 520 73 -200 090/13 RMK AO2
14840KMKG MKG20000416182510204/16/00 18:25:31  5-MIN KMKG 162325Z 07016G19KT 10SM BKN060 07/02 A3003 530 70 -200 070/16G19 RMK AO2
14840KMKG MKG20000416183009604/16/00 18:30:31  5-MIN KMKG 162330Z 08017KT 10SM BKN060 07/02 A3003 530 73 -300 090/17 RMK AO2
14840KMKG MKG20000416183509604/16/00 18:35:31  5-MIN KMKG 162335Z 09015KT 10SM BKN060 07/02 A3003 530 73 -300 090/15 RMK AO2
14840KMKG MKG20000416184010304/16/00 18:40:31  5-MIN KMKG 162340Z 08017KT 10SM FEW045 BKN060 07/02 A3004 520 73 -300 080/17 RMK AO2
14840KMKG MKG20000416184510304/16/00 18:45:31  5-MIN KMKG 162345Z 08018KT 10SM FEW045 BKN060 07/02 A3004 520 73 -300 090/18 RMK AO2
14840KMKG MKG20000416185015004/16/00 18:50:31  5-MIN KMKG 162350Z 08016G24KT 10SM FEW045 BKN060 07/02 A3003 530 73 -300 090/16G24 RMK AO2 SLP173 60000 T00670022 10089 20067 58011
14840KMKG MKG20000416185515004/16/00 18:55:31  5-MIN KMKG 162355Z 08020G24KT 10SM SCT045 BKN060 07/02 A3003 530 73 -300 090/20G24 RMK AO2 SLP171 60000 T00670022 10089 20067 58012
14840KMKG MKG20000416190010904/16/00 19:00:31  5-MIN KMKG 170000Z 08018G24KT 10SM SCT045 BKN060 06/02 A3002 540 76 -300 090/18G24 RMK AO2
14840KMKG MKG20000416190510904/16/00 19:05:31  5-MIN KMKG 170005Z 08018G24KT 10SM SCT045 BKN060 06/02 A3002 530 76 -300 080/18G24 RMK AO2
14840KMKG MKG20000416191010904/16/00 19:10:31  5-MIN KMKG 170010Z 08012G22KT 10SM SCT045 BKN060 06/02 A3002 540 76 -300 090/12G22 RMK AO2
14840KMKG MKG20000416191510304/16/00 19:15:31  5-MIN KMKG 170015Z 08013KT 10SM SCT045 BKN060 06/02 A3002 540 76 -300 090/13 RMK AO2
14840KMKG MKG20000416192010304/16/00 19:20:31  5-MIN KMKG 170020Z 08016KT 10SM SCT045 BKN060 06/02 A3002 540 76 -300 090/16 RMK AO2
14840KMKG MKG20000416192510904/16/00 19:25:31  5-MIN KMKG 170025Z 08016G21KT 10SM SCT045 BKN060 06/02 A3002 540 76 -400 080/16G21 RMK AO2
14840KMKG MKG20000416193010204/16/00 19:30:31  5-MIN KMKG 170030Z 08013G21KT 10SM BKN060 06/02 A3003 530 76 -400 080/13G21 RMK AO2
14840KMKG MKG20000416193510204/16/00 19:35:31  5-MIN KMKG 170035Z 08013G20KT 10SM BKN065 06/02 A3003 530 76 -400 080/13G20 RMK AO2
14840KMKG MKG20000416194010204/16/00 19:40:31  5-MIN KMKG 170040Z 07015G21KT 10SM BKN065 06/02 A3003 530 76 -400 080/15G21 RMK AO2
14840KMKG MKG20000416194518104/16/00 19:45:31  5-MIN KMKG 170045Z 07015G21KT 10SM SCT040 BKN065 06/02 A3003 530 76 -400 080/15G21 RMK AO2 0135Z 08016KT 10SM SCT042 BKN070 05/02 A3003 530 79 -500 090/16 RMK AO2
14840KMKG MKG20000416204010904/16/00 20:40:31  5-MIN KMKG 170140Z 08018G23KT 10SM SCT042 BKN070 05/02 A3003 530 79 -500 090/18G23 RMK AO2
14840KMKG MKG20000416204511804/16/00 20:45:31  5-MIN KMKG 170145Z 09020G26KT 10SM SC013KT 10SM SCT036 OVC070 04/01A3003 520 79 -500 090/13 RMK AO2
14840KMKG MKG20000416214510904/16/00 21:45:31  5-MIN KMKG 170245Z 09016G23KT 10SM SCT036 OVC070 04/01 A3004 520 79 -500 100/16G23 RMK AO2
14840KMKG MKG20000416215008004/16/00 21:50:31  5-MIN KMKG 170250Z 09016G23KT 10SM SCT036 OVC04/16/00 22:40:3
14840KMKG MKG20000416224515504/16/00 22:45:31  5-MIN KMKG 170345Z 07017KT 10SM SCT041 BKN080 04/01 A3002 540 76 -500 080/17 RMK AO2  04/01 A3001 540 76 -500 090/16 RMK AO2 RAB35 P0000
14840KMKG MKG20000416234012804/16/00 23:40:31  5-MIN KMKG 170440Z 09019KT 5SM +RA BR SCT035 BKN045 OVC060 04/02 A3001 540 85 -600 090/19 RMK AO2 RAB35 P0006
14840KMKG MKG20000416234505504/16/00 23:45:31  5-MIN KMKG 170445Z 08018G24KT 3SM +3
14840KMKG MKG20000417004013004/17/00 00:40:31  5-MIN KMKG 170540Z 09014G22KT 10SM SCT035 BKN042 BKN060 04/02 A3001 550 85 -600 090/14G22 RMK AO2 RAE0459 P0000
14840KMKG MKG20000417004516004/17/00 00:45:31  5-MIN KMKG 170545Z 08015KT 10SM SCT035 BKN042 BKN065 04/02 A3000 550 85 -600 090/15 R1 60 92 -600 090/15 RMK AO2 VIS 2 1/2 RWY 14 RAB22 P0012
14840KMKG MKG20000417015015404/17/00 01:50:31  5-MIN KMKG 170650Z 08013KT 3SM RA BR BKN037 OVC050 03/02 A3000 560 92 -600 080/13 RMK AO2 VIS 2 1/2 RWY 14 RAB22 SLP163 P0014 T00330022
14840KMKG MKG20000417015513004/17/00 01:55:31  5-MIN KMKG 170655Z 08013KT 4SM RA BR OVC037 03/02 A3000 560 92 -600 090/13 RMK AO2 RAB22 SLP163 P0016 T00330022
14840KMKG MKG20000417020011504/17/00 02:00:31  5-MIN KMKG 170700Z 08012KT 3SM +RA BR BKN034 OVC070 03/02 A3000 560 92 -600 080/12 RMK AO2 P0005
14840KMKG MKG20000417020513604/17/00 02:05:31  5-MIN KMKG 170705Z 08012KT 2 1/2SM +RA BR BKN034 OVC065 03/02 A3000 560 92 -600 080/12 RMK AO2 VIS 1 3/4 RWY 14 P0009
14840KMKG MKG20000417021014304/17/00 02:10:31  5-MIN KMKG 170710Z 08014KT 4SM -RA BR SCT036 OVC060 03/02 A3000 560 92 -600 090/14 RMK AO2 VIS 2 RWY 14 CIG 032 RWY 14 P0010
14840KMKG MKG20000417021511904/17/00 02:15:31  5-MIN KMKG 170715Z 08014KT 9SM -RA SCT036 SCT048 OVC060 04/02 A2999 560 89 -600 090/14 RMK AO2 P0010
14840KMKG MKG20000417022012204/17/00 02:20:31  5-MIN KMKG 170720Z 08014KT 10SM FEW029 BKN044 OVC055 04/02 A2999 560 89 -600 080/14 RMK AO2 RAE18 P0010
14840KMKG MKG20000417022511504/17/00 02:25:31  5-MIN KMKG 170725Z 08015KT 10SM BKN044 OVC060 04/02 A2999 570 89 -600 080/15 RMK AO2 RAE18 P0010
14840KMKG MKG20000417023011304/17/00 02:30:31  5-MIN KMKG 170730Z 08016KT 10SM -RA BKN046 OVC060 04/02 A2999 570 89 -500 090/16 RMK AO2 P0010
14840KMKG MKG20000417023511304/17/00 02:35:31  5-MIN KMKG 170735Z 08013KT 10SM -RA BKN046 OVC060 04/02 A2998 570 89 -500 080/13 RMK AO2 P0010
14840KMKG MKG20000417024011404/17/00 02:40:31  5-MIN KMKG 170740Z 07013G20KT 10SM OVC046 04/02 A2998 570 89 -500 080/13G20 RMK AO2 RAE38 P0010
14840KMKG MKG20000417024511404/17/00 02:45:31  5-MIN KMKG 170745Z 08013G20KT 10SM OVC046 04/02 A2998 570 89 -500 080/13G20 RMK AO2 RAE38 P0010
14840KMKG MKG20000417025013104/17/00 02:50:31  5-MIN KMKG 170750Z 08013G18KT 10SM OVC046 04/02 A2998 570 89 -500 080/13G18 RMK AO2 RAE38 SLP157 P0010 T00390022
14840KMKG MKG20000417025512404/17/00 02:55:31  5-MIN KMKG 170755Z 07013KT 9SM OVC046 04/02 A2998 570 89 -500 080/13 RMK AO2 RAE38 SLP157 P0010 T00390022
14840KMKG MKG20000417030009504/17/00 03:00:31  5-MIN KMKG 170800Z 08014KT 9SM OVC046 04/02 A2998 580 89 -500 080/14 RMK AO2
14840KMKG MKG20000417030509504/17/00 03:05:31  5-MIN KMKG 170805Z 08012KT 9SM OVC046 04/02 A2998 580 89 -500 080/12 RMK AO2
14840KMKG MKG20000417031009604/17/00 03:10:31  5-MIN KMKG 170810Z 07013KT 10SM OVC046 04/02 A2998 580 89 -500 080/13 RMK AO2
14840KMKG MKG20000417031510204/17/00 03:15:31  5-MIN KMKG 170815Z 08017G20KT 10SM OVC046 04/02 A2997 590 89 -500 080/17G20 RMK AO2
14840KMKG MKG20000417032009604/17/00 03:20:31  5-MIN KMKG 170820Z 08015KT 10SM OVC046 04/02 A2997 580 89 -500 080/15 RMK AO2
14840KMKG MKG20000417032509604/17/00 03:25:31  5-MIN KMKG 170825Z 08015KT 10SM OVC048 04/02 A2997 590 89 -500 090/15 RMK AO2
14840KMKG MKG20000417033010304/17/00 03:30:31  5-MIN KMKG 170830Z 08016KT 10SM BKN048 OVC060 04/02 A2997 590 89 -500 080/16 RMK AO2
14840KMKG MKG20000417033509604/17/00 03:35:31  5-MIN KMKG 170835Z 07014KT 10SM OVC050 04/02 A2997 590 89 -500 080/14 RMK AO2
14840KMKG MKG20000417034010204/17/00 03:40:31  5-MIN KMKG 170840Z 08017G23KT 10SM OVC050 04/02 A2997 590 89 -500 090/17G23 RMK AO2
14840KMKG MKG20000417034510904/17/00 03:45:31  5-MIN KMKG 170845Z 09014G23KT 10SM BKN050 OVC060 04/02 A2997 580 89 -500 090/14G23 RMK AO2
14840KMKG MKG20000417035012504/17/00 03:50:31  5-MIN KMKG 170850Z 08015KT 10SM OVC055 04/02 A2997 580 89 -500 080/15 RMK AO2 SLP154 60026 T00390022 56012
14840KMKG MKG20000417035513804/17/00 03:55:31  5-MIN KMKG 170855Z 08017G21KT 10SM FEW012 OVC050 04/02 A2997 590 89 -500 090/17G21 RMK AO2 SLP153 60026 T00390022 58010
14840KMKG MKG20000417040011604/17/00 04:00:31  5-MIN KMKG 170900Z 08013G21KT 10SM FEW012 SCT019 OVC050 04/02 A2997 590 89 -500 080/13G21 RMK AO2
14840KMKG MKG20000417040510304/17/00 04:05:31  5-MIN KMKG 170905Z 07016KT 10SM SCT019 OVC055 04/02 A2996 590 89 -500 080/16 RMK AO2
14840KMKG MKG20000417041010304/17/00 04:10:31  5-MIN KMKG 170910Z 08016KT 10SM FEW019 OVC055 04/02 A2996 590 89 -500 080/16 RMK AO2
14840KMKG MKG20000417041514904/17/00 04:15:31  5-MIN KMKG 170915Z 08018G26KT 10SM FEW019 SCT028 OVC055 04/02 A2996 590 89 -500 080/18G26 RMK AO2 PK WND 08026/0913 CIG 029 RWY 14
14840KMKG MKG20000417042013404/17/00 04:20:31  5-MIN KMKG 170920Z 07017G26KT 10SM FEW019 BKN028 OVC055 04/02 A2996 590 89 -500 080/17G26 RMK AO2 PK WND 08026/0913
14840KMKG MKG20000417042513404/17/00 04:25:31  5-MIN KMKG 170925Z 08015G22KT 10SM FEW019 BKN028 OVC055 04/02 A2996 590 89 -500 090/15G22 RMK AO2 PK WND 08026/0913
14840KMKG MKG20000417043012704/17/00 04:30:31  5-MIN KMKG 170930Z 08013G20KT 10SM BKN028 OVC055 04/02 A2996 590 89 -500 080/13G20 RMK AO2 PK WND 08026/0913
14840KMKG MKG20000417043512104/17/00 04:35:31  5-MIN KMKG 170935Z 08014KT 10SM FEW022 OVC028 04/03 A2996 590 92 -500 080/14 RMK AO2 PK WND 08026/0913
14840KMKG MKG20000417044013604/17/00 04:40:31  5-MIN KMKG 170940Z 07014KT 10SM SCT022 OVC028 04/03 A2997 590 92 -500 070/14 RMK AO2 PK WND 08026/0913 CIG 022 RWY 14
14840KMKG MKG20000417044512104/17/00 04:45:31  5-MIN KMKG 170945Z 07011KT 10SM BKN022 OVC028 04/03 A2996 590 92 -500 070/11 RMK AO2 PK WND 08026/0913
14840KMKG MKG20000417045013104/17/00 04:50:31  5-MIN KMKG 170950Z 07011KT 10SM OVC025 04/03 A2997 590 92 -500 070/11 RMK AO2 PK WND 08026/0913 SLP152 T00390028
14840KMKG MKG20000417045513104/17/00 04:55:31  5-MIN KMKG 170955Z 07009KT 10SM OVC024 04/03 A2997 590 92 -500 080/09 RMK AO2 PK WND 08026/0913 SLP152 T00390028
14840KMKG MKG20000417050010304/17/00 05:00:31  5-MIN KMKG 171000Z 07012KT 10SM FEW012 OVC024 04/03 A2997 590 92 -500 070/12 RMK AO2
14840KMKG MKG20000417050510304/17/00 05:05:31  5-MIN KMKG 171005Z 07013KT 10SM FEW012 OVC024 04/03 A2997 590 92 -500 070/13 RMK AO2
14840KMKG MKG20000417051010304/17/00 05:10:31  5-MIN KMKG 171010Z 08010KT 10SM FEW012 OVC024 04/03 A2997 580 89 -500 080/10 RMK AO2
14840KMKG MKG20000417051510304/17/00 05:15:31  5-MIN KMKG 171015Z 07012KT 10SM FEW012 OVC022 04/03 A2997 580 89 -500 080/12 RMK AO2
14840KMKG MKG20000417052010304/17/00 05:20:31  5-MIN KMKG 171020Z 07013KT 10SM FEW012 OVC022 04/03 A2997 590 89 -500 080/13 RMK AO2
14840KMKG MKG20000417052510304/17/00 05:25:31  5-MIN KMKG 171025Z 07016KT 10SM FEW012 OVC022 04/03 A2997 590 89 -500 080/16 RMK AO2
14840KMKG MKG20000417053010304/17/00 05:30:31  5-MIN KMKG 171030Z 07012KT 10SM SCT012 OVC020 04/03 A2997 590 89 -500 070/12 RMK AO2
14840KMKG MKG20000417053510304/17/00 05:35:31  5-MIN KMKG 171035Z 07014KT 10SM FEW012 OVC020 04/03 A2997 590 89 -500 070/14 RMK AO2
14840KMKG MKG20000417054010304/17/00 05:40:31  5-MIN KMKG 171040Z 07014KT 10SM FEW012 OVC020 04/03 A2997 580 89 -500 070/14 RMK AO2
14840KMKG MKG20000417054510904/17/00 05:45:31  5-MIN KMKG 171045Z 07016G20KT 10SM SCT012 OVC020 04/03 A2997 580 89 -500 080/16G20 RMK AO2
14840KMKG MKG20000417055014104/17/00 05:50:31  5-MIN KMKG 171050Z 07013G20KT 10SM SCT012 OVC020 04/03 A2997 580 89 -500 070/13G20 RMK AO2 CIG 013 RWY 14 SLP154 T00440028
14840KMKG MKG20000417055513504/17/00 05:55:31  5-MIN KMKG 171055Z 07013KT 10SM SCT012 OVC020 04/03 A2997 580 89 -500 080/13 RMK AO2 CIG 013 RWY 14 SLP154 T00440028
14840KMKG MKG20000417060011804/17/00 06:00:31  5-MIN KMKG 171100Z 07012KT 10SM SCT012 OVC020 04/03 A2997 580 89 -500 070/12 RMK AO2 CIG 013 RWY 14
14840KMKG MKG20000417060512404/17/00 06:05:31  5-MIN KMKG 171105Z 07014G19KT 10SM SCT012 OVC020 04/03 A2998 580 92 -500 080/14G19 RMK AO2 CIG 013 RWY 14
14840KMKG MKG20000417061012404/17/00 06:10:31  5-MIN KMKG 171110Z 07011G19KT 10SM SCT012 OVC020 04/03 A2998 580 92 -500 080/11G19 RMK AO2 CIG 013 RWY 14
14840KMKG MKG20000417061510304/17/00 06:15:31  5-MIN KMKG 171115Z 07013KT 10SM SCT012 OVC020 04/03 A2997 580 89 -500 080/13 RMK AO2
14840KMKG MKG20000417064511904/17/00 06:45:31  5-MIN KMKG 171145Z 07012KT 10SM -RA BKN012 OVC018 04/03 A2999 570 92 -600 080/12 RMK AO2 RAB29 P0000
14840KMKG MKG20000417065012304/17/00 06:50:31  5-MIN KMKG 171150Z 07010KT 10SM -RA OVC012 04/03 A299 VC012 04/02 A3000 560 89 -600 060/09 RMK AO2 P0000
14840KMKG MKG20000417075012204/17/00 07:50:31  5-MIN KMKG 171250Z 06010KT 9SM -RA OVC012 04/03 A3000 560 92 -600 070/10 RMK AO2 SLP163 P0000 T00390028
14840KMKG MKG20000417075514504/17/00 07:55:31  5-MIN KMKG 171255Z 06010KT 8SM -RA OVC014 04/009KT 7SM -RA OVC020 04/03 A3001550 92 -500 070/09 RMK AO2 SLP167 P0003 T00440033
14840KMKG MKG20000417090015904/17/00 09:00:31  5-MIN KMKG 171400Z 07011KT 7SM -RA OVC020 04/03 A3001 550 92 -500 080/11 RMK AO2 P0000 400 080/10 RMK AO2 SLP167 P0001 60004 T00500033 51006
14840KMKG MKG20000417100010804/17/00 10:00:31  5-MIN KMKG 171500Z 07010KT 6SM -RA BR OVC020 05/04 A3001 550 92 -400 070/10 RMK AO2 P0001
14840KMKG MKG20000417100514804/17/00 10:05:31  5-MIN KMKG 171505Z 08012KT 4SM RA BR OVC020 05/03 A3001  OVC018 05/03 A3001  540 89 -400 080/13G17 RMK AO2 SLP168 P0004 T00500033
14840KMKG MKG20000417110011104/17/00 11:00:31  5-MIN KMKG 171600Z 07009G17KT 8SM -RA OVC018 06/03 A3001 550 85 -400 080/09G17 RMK AO2 P0000
14840KMKG MKG20000417110508504/17/00 11:05:31  5-MIN KMKG 171605Z 07011G18KT001  540 89 -300 050/05 RMK AO2 P0000
14840KMKG MKG20000417121010804/17/00 12:10:31  5-MIN KMKG 171710Z 05006KT 4SM -RA BR OVC020 06/04 A3001 540 89 -300 050/06 RMK AO2 P0001
14840KMKG MKG20000417121510504/17/00 12:15:31  5-MIN KMKG 171715Z 05005KT 8SM -RA OVC020 07/04 A3001 540 86 -200 050/05 RMK AO2 P0001
14840KMKG MKG20000417122010604/17/00 12:20:31  5-MIN KMKG 171720Z 05006KT 10SM -RA OVC020 07/05 A3001 550 89 -200 050/06 RMK AO2 P0001
14840KMKG MKG20000417122510804/17/00 12:25:31  5-MIN KMKG 171725Z 06009KT 10SM OVC020 07/04 A3001 550 82 -200 060/09 RMK AO2 RAE21 P0001
14840KMKG MKG20000417123010804/17/00 12:30:31  5-MIN KMKG 171730Z 06008KT 10SM OVC020 07/05 A3001 550 86 -200 060/08 RMK AO2 RAE21 P0001
14840KMKG MKG20000417123510804/17/00 12:35:31  5-MIN KMKG 171735Z 07008KT 10SM OVC020 07/05 A3001 550 86 -200 070/08 RMK AO2 RAE21 P0001
14840KMKG MKG20000417124010804/17/00 12:40:31  5-MIN KMKG 171740Z 06009KT 10SM OVC020 08/05 A3001 550 82 -100 070/09 RMK AO2 RAE21 P0001
14840KMKG MKG20000417124511504/17/00 12:45:31  5-MIN KMKG 171745Z 07008KT 10SM -RA OVC020 08/04 A3001 540 79 -100 070/08 RMK AO2 RAE21B41 P0001
14840KMKG MKG20000417125015604/17/00 12:50:31  5-MIN KMKG 171750Z 07009KT 10SM -RA OVC020 08/05 A3001 550 82 -100 070/09 RMK AO2 RAE21B41 SLP167 P0001 60011 T00780050 10078 20039 51006
14840KMKG MKG20000417125515304/17/00 12:55:31  5-MIN KMKG 171755Z 06006KT 10SM -RA OVC020 08/05 A3001 550 79 0 070/06 RMK AO2 RAE21B41 SLP167 P0001 60011 T00830050 10083 20039 50000
14840KMKG MKG20000417130010304/17/00 13:00:31  5-MIN KMKG 171800Z 06007KT 10SM -RA OVC022 08/05 A3001 540 79 0 060/07 RMK AO2 P0000
14840KMKG MKG20000417130510504/17/00 13:05:31  5-MIN KMKG 171805Z 06008KT 10SM OVC022 08/04 A3001 540 76 0 060/08 RMK AO2 RAE04 P0000
14840KMKG MKG20000417131010504/17/00 13:10:31  5-MIN KMKG 171810Z 05007KT 10SM OVC022 08/04 A3002 540 76 0 050/07 RMK AO2 RAE04 P0000
14840KMKG MKG20000417131510504/17/00 13:15:31  5-MIN KMKG 171815Z 06006KT 10SM OVC022 08/05 A3002 540 79 0 060/06 RMK AO2 RAE04 P0000
14840KMKG MKG20000417132010504/17/00 13:20:31  5-MIN KMKG 171820Z VRB06KT 10SM OVC022 08/05 A3002 540 79 0 VRB/06 RMK AO2 RAE04 P0000
14840KMKG MKG20000417132510504/17/00 13:25:31  5-MIN KMKG 171825Z 05006KT 10SM OVC024 08/04 A3002 540 76 0 060/06 RMK AO2 RAE04 P0000
14840KMKG MKG20000417133010504/17/00 13:30:31  5-MIN KMKG 171830Z 05007KT 10SM OVC024 08/04 A3002 540 76 0 060/07 RMK AO2 RAE04 P0000
14840KMKG MKG20000417133510504/17/00 13:35:31  5-MIN KMKG 171835Z 05006KT 10SM OVC024 09/05 A3002 540 76 0 050/06 RMK AO2 RAE04 P0000
14840KMKG MKG20000417134010504/17/00 13:40:31  5-MIN KMKG 171840Z 04006KT 10SM OVC024 09/04 A3002 540 73 0 050/06 RMK AO2 RAE04 P0000
14840KMKG MKG20000417134510504/17/00 13:45:31  5-MIN KMKG 171845Z 06006KT 10SM OVC024 09/04 A3002 540 73 0 060/06 RMK AO2 RAE04 P0000
14840KMKG MKG20000417135012204/17/00 13:50:31  5-MIN KMKG 171850Z 06006KT 10SM OVC026 09/04 A3001 540 73 0 060/06 RMK AO2 RAE04 SLP168 P0000 T00890044
14840KMKG MKG20000417135512204/17/00 13:55:31  5-MIN KMKG 171855Z 05009KT 10SM OVC026 09/04 A3001 540 73 0 060/09 RMK AO2 RAE04 SLP168 P0000 T00890044
14840KMKG MKG20000417140009304/17/00 14:00:31  5-MIN KMKG 171900Z 07007KT 10SM OVC026 09/04 A3001 550 73 0 080/07 RMK AO2
14840KMKG MKG20000417140509504/17/00 14:05:31  5-MIN KMKG 171905Z 06007KT 10SM OVC026 09/05 A3001 550 74 100 070/07 RMK AO2
14840KMKG MKG20000417141009504/17/00 14:10:31  5-MIN KMKG 171910Z 07009KT 10SM OVC026 09/04 A3001 550 71 100 070/09 RMK AO2
14840KMKG MKG20000417141509504/17/00 14:15:31  5-MIN KMKG 171915Z 06010KT 10SM OVC026 09/04 A3001 550 71 100 070/10 RMK AO2
14840KMKG MKG20000417142009504/17/00 14:20:31  5-MIN KMKG 171920Z 06011KT 10SM OVC026 09/04 A3001 550 71 100 060/11 RMK AO2
14840KMKG MKG20000417142509304/17/00 14:25:31  5-MIN KMKG 171925Z 06008KT 10SM OVC026 09/04 A3001 550 73 0 060/08 RMK AO2
14840KMKG MKG20000417143009304/17/00 14:30:31  5-MIN KMKG 171930Z 07010KT 10SM OVC026 09/04 A3001 550 73 0 070/10 RMK AO2
14840KMKG MKG20000417143509304/17/00 14:35:31  5-MIN KMKG 171935Z 07010KT 10SM OVC026 09/04 A3000 550 73 0 070/10 RMK AO2
14840KMKG MKG20000417144009304/17/00 14:40:31  5-MIN KMKG 171940Z 06010KT 10SM OVC028 09/04 A3000 560 71 0 070/10 RMK AO2
14840KMKG MKG20000417144509304/17/00 14:45:31  5-MIN KMKG 171945Z 06009KT 10SM OVC028 09/04 A3000 560 71 0 060/09 RMK AO2
14840KMKG MKG20000417145011004/17/00 14:50:31  5-MIN KMKG 171950Z 06007KT 10SM OVC028 09/04 A3000 560 71 0 060/07 RMK AO2 SLP162 T00890039
14840KMKG MKG20000417145511204/17/00 14:55:31  5-MIN KMKG 171955Z 06007KT 10SM OVC028 09/04 A3000 560 68 100 070/07 RMK AO2 SLP162 T00940039
14840KMKG MKG20000417150009504/17/00 15:00:31  5-MIN KMKG 172000Z 07008KT 10SM OVC028 09/04 A3000 560 68 100 070/08 RMK AO2
14840KMKG MKG20000417150509504/17/00 15:05:31  5-MIN KMKG 172005Z 07008KT 10SM OVC030 09/04 A3000 560 68 100 080/08 RMK AO2
14840KMKG MKG20000417151009504/17/00 15:10:31  5-MIN KMKG 172010Z 08007KT 10SM OVC029 09/04 A3000 560 68 100 080/07 RMK AO2
14840KMKG MKG20000417151509504/17/00 15:15:31  5-MIN KMKG 172015Z 06009KT 10SM OVC029 09/04 A3000 560 71 100 060/09 RMK AO2
14840KMKG MKG20000417152009504/17/00 15:20:31  5-MIN KMKG 172020Z 07010KT 10SM OVC029 09/04 A2999 560 68 100 080/10 RMK AO2
14840KMKG MKG20000417152514304/17/00 15:25:31  5-MIN KMKG 172025Z 06010KT 1004/17/00 15:35:31  5-MIN KMKG 172035Z 06008KT 10SM OVC029 09/04 A2999 560 68 100 070/08 RMK AO2
14840KMKG MKG20000417154009504/17/00 15:40:31  5-MIN KMKG 172040Z 06007KT 10SM OVC029 09/04 A2999 560 68 100 070/07 RMK AO2
14840KMKG MKG20000417154504104/17/00 15:45:31  5-MIN KMKG 172045Z 050
14840KMKG MKG20000417165512304/17/00 16:55:31  5-MIN KMKG 172155Z 02003KT 10SM -RA OVC031 10/04 A2999 570 68 100 020/03 RMK AO2 RAB50 SLP158 P0000 T019
14840KMKG MKG20000417175012904/17/00 17:50:31  5-MIN KMKG 172250Z 34003KT 6SM -RA BR BKN033 OVC055 08/07 A2999 570 93 0 350/03 RMK AO2 SLP159 P0000 T00830072
14840KMKG MKG20000417175510504/17/00 17:55:31  5-MIN KMKG 172255Z 35004KT 5SM -RA BR BKN033 OVC055 08/07 A2999 570 93 0 350/04 RMK 72
14840KMKG MKG20000417184510304/17/00 18:45:31  5-MIN KMKG 172345Z 05007KT 10SM -RA OVC042 09/04 A3000 550 73 0 050/07 RMK AO2 P0002
14840KMKG MKG20000417185012904/17/00 18:50:31  5-MIN KMKG 172350Z 05007KT 9SM -RA OVC042 09/04 A3000 550 73 0 050/07 RMK AO2 SLP164 P0002 60003 T00890044 101
14840KMKG MKG20000417195012404/17/00 19:50:31  5-MIN KMKG 180050Z 05004KT 6SM RA BR OVC036 08/06 A3002 540 89 -100 050/04 RMK AO2 SLP170 P0009 T00780061
14840KMKG MKG20000417195512704/17/00 19:55:31  5-MIN KMKG 180055Z 04005KT 6SM -RA BR OVC036 08/06 A3002 540 86 -100 040/05 RMK AO2 SLP156 6 P0003 T00720056
14840KMKG MKG20000417210010604/17/00 21:00:31  5-MIN KMKG 180200Z 05005KT 10SM -RA OVC034 07/06 A3004 520 89 -200 060/05 RMK AO2 P0000
14840KMKG MKG20000417210514004/17/00 21:05:31  5-MIN KMKG 180205Z 05005KT 10SM -RA OVC034 07/06 A3004 520 89 -200 060/05 RMK AO2 P0000 4500 89 -400 050/04 RMK AO2 P0000
14840KMKG MKG20000417221510604/17/00 22:15:31  5-MIN KMKG 180315Z 06003KT 10SM -RA OVC034 06/04 A3006 500 89 -400 060/03 RMK AO2 P0000
14840KMKG MKG20000417230009604/17/00 23:00:31  5-MIN KMKG 180400Z 08007KT 10SM OVC032 06/03 A3006 510 85 -400 080/07 RMK AO2
14840KMKG MKG20000417230518604/17/00 23:05:31  5-MIN KMKG 180405Z 08006KT 10SM -RA OVC032 06/04 A3006 510 89 -400 080/06 RMK AO2 RAB05 P0000 04/17/0050500Z 04005KT 10SM OVC032 06/03 A3006 510 85 -400 050/05 RMK AO2
14840KMKG MKG20000418000509604/18/00 00:05:31  5-MIN KMKG 180505Z 06005KT 10SM OVC032 06/03 A3006 500 85 -400 060/05 RMK AO2
14840KMKG MKG20000418001012204/18/00 00:10:31  5-MIN KMKG 180510Z 06007KT 10SM OVC032 05/03 A3006 500 SM OVC030 05/03 A3006 500 85 -500 000/00 RMK AO2
14840KMKG MKG20000418011009604/18/00 01:10:31  5-MIN KMKG 180610Z 04003KT 10SM OVC030 05/03 A3006 500 85 -500 050/03 RMK AO2
14840KMKG MKG20000418011509604/18/00 01:15:31  5-MIN KMKG 180615Z 04003KT 10SM OVC030 05/03 A3006 500 85 -500 050/03 RMK AO2
14840KMKG MKG20000418012009604/18/00 01:20:31  5-MIN KMKG 180620Z 04005KT 10SM OVC030 05/03 A3006 500 85 -500 040/05 RMK AO2
14840KMKG MKG20000418012509604/18/00 01:25:31  5-MIN KMKG 180625Z 05006KT 10SM OVC030 04/02 A3006 500 85 -600 060/06 RMK AO2
14840KMKG MKG20000418013009604/18/00 01:30:31  5-MIN KMKG 180630Z 06005KT 10SM OVC030 04/03 A3006 500 89 -600 070/05 RMK AO2
14840KMKG MKG20000418013509604/18/00 01:35:31  5-MIN KMKG 180635Z 06005KT 10SM OVC030 05/03 A3006 500 85 -500 060/05 RMK AO2
14840KMKG MKG20000418014009604/18/00 01:40:31  5-MIN KMKG 180640Z 07006KT 10SM OVC030 05/03 A3006 510 85 -500 070/06 RMK AO2
14840KMKG MKG20000418014509604/18/00 01:45:31  5-MIN KMKG 180645Z 06005KT 10SM OVC030 04/02 A3005 510 85 -600 070/05 RMK AO2
14840KMKG MKG20000418015011304/18/00 01:50:31  5-MIN KMKG 180650Z 08006KT 10SM OVC030 04/02 A3005 510 85 -600 080/06 RMK AO2 SLP180 T00440022
14840KMKG MKG20000418015511304/18/00 01:55:31  5-MIN KMKG 180655Z 07007KT 10SM OVC030 04/02 A3005 510 85 -600 070/07 RMK AO2 SLP179 T00440022
14840KMKG MKG20000418020009604/18/00 02:00:31  5-MIN KMKG 180700Z 07007KT 10SM OVC030 04/03 A3005 510 89 -500 070/07 RMK AO2
14840KMKG MKG20000418020509604/18/00 02:05:31  5-MIN KMKG 180705Z 07005KT 10SM OVC030 04/03 A3005 520 89 -500 070/05 RMK AO2
14840KMKG MKG20000418021009604/18/00 02:10:31  5-MIN KMKG 180710Z 07005KT 10SM OVC030 04/02 A3004 520 85 -500 080/05 RMK AO2
14840KMKG MKG20000418021509604/18/00 02:15:31  5-MIN KMKG 180715Z 08005KT 10SM OVC030 04/03 A3004 520 89 -500 090/05 RMK AO2
14840KMKG MKG20000418022009604/18/00 02:20:31  5-MIN KMKG 180720Z 09004KT 10SM OVC030 04/03 A3004 520 89 -500 090/04 RMK AO2
14840KMKG MKG20000418022509604/18/00 02:25:31  5-MIN KMKG 180725Z 08005KT 10SM OVC030 04/03 A3004 520 89 -500 080/05 RMK AO2
14840KMKG MKG20000418023009604/18/00 02:30:31  5-MIN KMKG 180730Z 06005KT 10SM OVC030 04/03 A3004 520 89 -500 070/05 RMK AO2
14840KMKG MKG20000418023509604/18/00 02:35:31  5-MIN KMKG 180735Z 00000KT 10SM OVC030 04/03 A3005 510 89 -500 000/00 RMK AO2
14840KMKG MKG20000418024009604/18/00 02:40:31  5-MIN KMKG 180740Z 00000KT 10SM OVC030 04/03 A3005 510 89 -600 000/00 RMK AO2
14840KMKG MKG20000418024509604/18/00 02:45:31  5-MIN KMKG 180745Z 00000KT 10SM OVC030 04/02 A3005 510 85 -600 000/00 RMK AO2
14840KMKG MKG20000418025011304/18/00 02:50:31  5-MIN KMKG 180750Z 00000KT 10SM OVC030 04/02 A3005 510 85 -600 000/00 RMK AO2 SLP179 T00440022
14840KMKG MKG20000418025511304/18/00 02:55:31  5-MIN KMKG 180755Z 07003KT 10SM OVC030 05/02 A3005 510 82 -500 080/03 RMK AO2 SLP179 T00500022
14840KMKG MKG20000418030009604/18/00 03:00:31  5-MIN KMKG 180800Z 09004KT 10SM OVC030 04/02 A3005 510 85 -500 090/04 RMK AO2
14840KMKG MKG20000418030509604/18/00 03:05:31  5-MIN KMKG 180805Z 08004KT 10SM OVC030 04/02 A3005 510 85 -600 090/04 RMK AO2
14840KMKG MKG20000418031009604/18/00 03:10:31  5-MIN KMKG 180810Z 08003KT 10SM OVC030 05/02 A3005 510 82 -500 080/03 RMK AO2
14840KMKG MKG20000418031509604/18/00 03:15:31  5-MIN KMKG 180815Z 08003KT 10SM OVC030 05/02 A3005 510 82 -500 090/03 RMK AO2
14840KMKG MKG20000418032009604/18/00 03:20:31  5-MIN KMKG 180820Z 06003KT 10SM OVC030 04/02 A3005 510 85 -600 060/03 RMK AO2
14840KMKG MKG20000418032509604/18/00 03:25:31  5-MIN KMKG 180825Z 06004KT 10SM OVC030 04/02 A3005 510 85 -600 070/04 RMK AO2
14840KMKG MKG20000418033009604/18/00 03:30:31  5-MIN KMKG 180830Z 07004KT 10SM OVC030 04/02 A3005 510 85 -600 070/04 RMK AO2
14840KMKG MKG20000418033509604/18/00 03:35:31  5-MIN KMKG 180835Z 07004KT 10SM OVC030 04/03 A3005 510 89 -600 080/04 RMK AO2
14840KMKG MKG20000418034009604/18/00 03:40:31  5-MIN KMKG 180840Z 07005KT 10SM OVC030 04/02 A3005 510 85 -500 080/05 RMK AO2
14840KMKG MKG20000418034509604/18/00 03:45:31  5-MIN KMKG 180845Z 07005KT 10SM OVC030 04/02 A3004 520 85 -500 080/05 RMK AO2
14840KMKG MKG20000418035008104/18/00 03:50:31  5-MIN KMKG 180850Z 09004KT 10SM OVC030 MK AO2 SLP176 T00440022
14840KMKG MKG20000418045511304/18/00 04:55:31  5-MIN KMKG 180955Z 07004KT 10SM OVC030 04/02 A3004 520 85 -500 080/04 RMK AO2 SLP177 T00440022
14840KMKG MKG20000418050009804/18/00 05:00:31  5-MIN KMKG 181000Z 07004KT 10SM OVC030 04/02 A3004 520 85 -500 080/04 RMK AO2 0
14840KMKG MKG20000418061009604/18/00 06:10:31  5-MIN KMKG 181110Z 09005KT 10SM OVC046 04/02 A3004 520 85 -500 100/05 RMK AO2
14840KMKG MKG20000418061509604/18/00 06:15:31  5-MIN KMKG 181115Z 10006KT 10SM OVC046 04/02 A3003 530 85 -500 110/06 RMK AO2
14840KMKG MKG20000418062006504/18/00 06:20:31  5-MIN KMKG 181120Z 100 082 -500 000/00 RMK AO2
14840KMKG MKG20000418072509604/18/00 07:25:31  5-MIN KMKG 181225Z 31003KT 10SM OVC028 05/02 A3009 480 82 -500 310/03 RMK AO2
14840KMKG MKG20000418073015204/18/00 07:30:31  5-MIN KMKG 181230Z 00000KT 10SM OVC030 05/02 A3009 480 82 -500 000/00 RMK AO2 04/18/00 07:35:3 06/02 A3008 480 76 -400 000/00 RMK AO2
14840KMKG MKG20000418083510304/18/00 08:35:31  5-MIN KMKG 181335Z 13003KT 10SM FEW019 OVC027 06/02 A3008 490 76 -400 130/03 RMK AO2
14840KMKG MKG20000418084007304/18/00 08:40:31  5-MIN KMKG 181340Z 00000KT 10SM OVC027 06/02 A3007 490
14840KMKG MKG20000418095011904/18/00 09:50:31  5-MIN KMKG 181450Z 23005KT 10SM OVC025 07/03 A3008 480 79 -300 240/05 RMK AO2 SLP190 T00670033 53004
14840KMKG MKG20000418095511904/18/00 09:55:31  5-MIN KMKG 181455Z 20004KT 10SM OVC025 07/03 A3008 490 79 -300 210/04 RMK AO2 SLP189 T00670033 51008
14840KMKG MKG20000418100009604/18/00 10:00:31  5-MIN KMKG 181500Z 00000KT 10SM OVC025 07/03 A3007 490 79 -300 000/00 RMK AO2
14840KMKG MKG20000418100509604/18/00 10:05:31  5-MIN KMKG 181505Z 00000KT 10SM OVC025 07/03 A3007 490 79 -300 000/00 RMK AO2
14840KMKG MKG20000418101009604/18/00 10:10:31  5-MIN KMKG 181510Z 00000KT 10SM OVC025 07/03 A3007 490 76 -200 000/00 RMK AO2
14840KMKG MKG20000418101509604/18/00 10:15:31  5-MIN KMKG 181515Z 00000KT 10SM OVC023 07/03 A3007 490 76 -200 000/00 RMK AO2
14840KMKG MKG20000418102009604/18/00 10:20:31  5-MIN KMKG 181520Z VRB03KT 10SM OVC023 07/03 A3007 490 76 -200 VRB/03 RMK AO2
14840KMKG MKG20000418102509604/18/00 10:25:31  5-MIN KMKG 181525Z 00000KT 10SM OVC023 07/03 A3007 490 76 -200 000/00 RMK AO2
14840KMKG MKG20000418103009604/18/00 10:30:31  5-MIN KMKG 181530Z 12003KT 10SM OVC023 08/03 A3007 490 73 -200 120/03 RMK AO2
14840KMKG MKG20000418103509604/18/00 10:35:31  5-MIN KMKG 181535Z 00000KT 10SM OVC023 07/03 A3007 490 76 -200 000/00 RMK AO2
14840KMKG MKG20000418104009604/18/00 10:40:31  5-MIN KMKG 181540Z 00000KT 10SM OVC023 08/03 A3007 490 73 -200 000/00 RMK AO2
14840KMKG MKG20000418104509604/18/00 10:45:31  5-MIN KMKG 181545Z 00000KT 10SM OVC023 07/03 A3007 490 76 -200 000/00 RMK AO2
14840KMKG MKG20000418105011304/18/00 10:50:31  5-MIN KMKG 181550Z 00000KT 10SM OVC023 08/03 A3007 490 73 -200 000/00 RMK AO2 SLP186 T00780033
14840KMKG MKG20000418105511304/18/00 10:55:31  5-MIN KMKG 181555Z 13003KT 10SM OVC023 08/03 A3007 490 73 -200 140/03 RMK AO2 SLP186 T00780033
14840KMKG MKG20000418110009604/18/00 11:00:31  5-MIN KMKG 181600Z 00000KT 10SM OVC023 08/04 A3007 490 73 -100 000/00 RMK AO2
14840KMKG MKG20000418110509604/18/00 11:05:31  5-MIN KMKG 181605Z 00000KT 10SM OVC023 08/03 A3007 490 73 -200 000/00 RMK AO2
14840KMKG MKG20000418111009604/18/00 11:10:31  5-MIN KMKG 181610Z 00000KT 10SM OVC023 08/04 A3007 490 73 -100 000/00 RMK AO2
14840KMKG MKG20000418111509604/18/00 11:15:31  5-MIN KMKG 181615Z 00000KT 10SM OVC023 08/04 A3007 490 73 -100 000/00 RMK AO2
14840KMKG MKG20000418112009604/18/00 11:20:31  5-MIN KMKG 181620Z 00000KT 10SM OVC023 08/04 A3007 490 73 -100 000/00 RMK AO2
14840KMKG MKG20000418112509604/18/00 11:25:31  5-MIN KMKG 181625Z 00000KT 10SM OVC023 08/04 A3007 490 73 -100 000/00 RMK AO2
14840KMKG MKG20000418113009304/18/00 11:30:31  5-MIN KMKG 181630Z 00000KT 10SM OVC023 09/04 A3007 490 73 0 000/00 RMK AO2
14840KMKG MKG20000418113509604/18/00 11:35:31  5-MIN KMKG 181635Z 27005KT 10SM OVC025 08/04 A3007 490 73 -100 270/05 RMK AO2
14840KMKG MKG20000418114009604/18/00 11:40:31  5-MIN KMKG 181640Z VRB04KT 10SM OVC025 08/04 A3007 490 73 -100 VRB/04 RMK AO2
14840KMKG MKG20000418114509604/18/00 11:45:31  5-MIN KMKG 181645Z 25004KT 10SM OVC025 08/04 A3007 490 73 -100 250/04 RMK AO2
14840KMKG MKG20000418115011004/18/00 11:50:31  5-MIN KMKG 181650Z 26006KT 10SM OVC025 09/04 A3007 490 71 0 260/06 RMK AO2 SLP186 T00890039
14840KMKG MKG20000418115511004/18/00 11:55:31  5-MIN KMKG 181655Z 24005KT 10SM OVC025 09/04 A3007 490 73 0 240/05 RMK AO2 SLP185 T00890044
14840KMKG MKG20000418120009604/18/00 12:00:31  5-MIN KMKG 181700Z 24005KT 10SM OVC025 08/04 A3007 500 73 -100 250/05 RMK AO2
14840KMKG MKG20000418120509604/18/00 12:05:31  5-MIN KMKG 181705Z 25005KT 10SM OVC025 08/04 A3006 500 73 -100 250/05 RMK AO2
14840KMKG MKG20000418121009604/18/00 12:10:31  5-MIN KMKG 181710Z 24005KT 10SM OVC025 08/04 A3006 500 73 -100 250/05 RMK AO2
14840KMKG MKG20000418121509604/18/00 12:15:31  5-MIN KMKG 181715Z 23005KT 10SM OVC025 08/04 A3006 500 73 -100 240/05 RMK AO2
14840KMKG MKG20000418122009604/18/00 12:20:31  5-MIN KMKG 181720Z 25006KT 10SM OVC025 08/04 A3006 500 73 -100 250/06 RMK AO2
14840KMKG MKG20000418122509604/18/00 12:25:31  5-MIN KMKG 181725Z 24007KT 10SM OVC025 08/04 A3006 500 73 -100 250/07 RMK AO2
14840KMKG MKG20000418123009604/18/00 12:30:31  5-MIN KMKG 181730Z 25006KT 10SM OVC025 08/04 A3006 500 73 -100 260/06 RMK AO2
14840KMKG MKG20000418123509604/18/00 12:35:31  5-MIN KMKG 181735Z 25005KT 10SM OVC025 08/04 A3006 500 73 -100 260/05 RMK AO2
14840KMKG MKG20000418124009604/18/00 12:40:31  5-MIN KMKG 181740Z 26005KT 10SM OVC027 08/04 A3006 500 73 -100 260/05 RMK AO2
14840KMKG MKG20000418124509604/18/00 12:45:31  5-MIN KMKG 181745Z 26005KT 10SM OVC027 08/04 A3006 500 73 -100 260/05 RMK AO2
14840KMKG MKG20000418125013804/18/00 12:50:31  5-MIN KMKG 181750Z 25004KT 10SM BKN025 OVC030 08/04 A3006 510 73 -100 260/04 RMK AO2 SLP181 T00830039 10089 20050 51008
14840KMKG MKG20000418125513504/18/00 12:55:31  5-MIN KMKG 181755Z 00000KT 10SM BKN027 OVC034 09/04 A3005 510 71 0 000/00 RMK AO2 SLP180 T00890039 10089 20050 58008
14840KMKG MKG20000418130010004/18/00 13:00:31  5-MIN KMKG 181800Z 24004KT 10SM BKN027 OVC034 09/04 A3006 510 71 0 250/04 RMK AO2
14840KMKG MKG20000418130510004/18/00 13:05:31  5-MIN KMKG 181805Z 25007KT 10SM BKN027 OVC034 09/04 A3006 510 73 0 250/07 RMK AO2
14840KMKG MKG20000418131010304/18/00 13:10:31  5-MIN KMKG 181810Z 26009KT 10SM BKN027 OVC034 08/04 A3006 510 73 -100 270/09 RMK AO2
14840KMKG MKG20000418131510304/18/00 13:15:31  5-MIN KMKG 181815Z 26009KT 10SM BKN027 OVC034 08/04 A3005 510 73 -100 270/09 RMK AO2
14840KMKG MKG20000418132010304/18/00 13:20:31  5-MIN KMKG 181820Z 25008KT 10SM BKN027 OVC034 08/04 A3005 510 76 -100 260/08 RMK AO2
14840KMKG MKG20000418132509604/18/00 13:25:31  5-MIN KMKG 181825Z 26008KT 10SM OVC027 08/03 A3005 510 73 -100 260/08 RMK AO2
14840KMKG MKG20000418133009604/18/00 13:30:31  5-MIN KMKG 181830Z 25007KT 10SM OVC027 08/04 A3005 510 76 -100 260/07 RMK AO2
14840KMKG MKG20000418133509604/18/00 13:35:31  5-MIN KMKG 181835Z 25007KT 10SM OVC027 08/04 A3005 510 76 -100 250/07 RMK AO2
14840KMKG MKG20000418134009604/18/00 13:40:31  5-MIN KMKG 181840Z 23005KT 10SM OVC027 08/04 A3005 510 76 -100 240/05 RMK AO2
14840KMKG MKG20000418134509604/18/00 13:45:31  5-MIN KMKG 181845Z 25007KT 10SM OVC027 08/04 A3005 510 73 -100 250/07 RMK AO2
14840KMKG MKG20000418135011304/18/00 13:50:31  5-MIN KMKG 181850Z 25006KT 10SM OVC027 08/04 A3004 520 73 -100 250/06 RMK AO2 SLP176 T00830039
14840KMKG MKG20000418135511304/18/00 13:55:31  5-MIN KMKG 181855Z VRB06KT 10SM OVC027 08/04 A3004 520 73 -100 VRB/06 RMK AO2 SLP176 T00830039
14840KMKG MKG20000418140009604/18/00 14:00:31  5-MIN KMKG 181900Z 24006KT 10SM OVC027 08/04 A3004 520 73 -100 250/06 RMK AO2
14840KMKG MKG20000418140509604/18/00 14:05:31  5-MIN KMKG 181905Z 22005KT 10SM OVC027 08/04 A3003 530 73 -100 220/05 RMK AO2
14840KMKG MKG20000418141009304/18/00 14:10:31  5-MIN KMKG 181910Z 23004KT 10SM OVC027 08/04 A3002 530 73 0 230/04 RMK AO2
14840KMKG MKG20000418141510004/18/00 14:15:31  5-MIN KMKG 181915Z VRB04KT 10SM OVC029 09/04 A3001 550 73 0 VRB/04 RMK AO2 PRESFR
14840KMKG MKG20000418142007204/18/00 14:20:31  5-MIN KMKG 181920Z 16006KT 100 76 -100 250/09 RMK AO2
14840KMKG MKG20000418151509604/18/00 15:15:31  5-MIN KMKG 182015Z 26007KT 10SM OVC025 08/04 A3004 520 76 -100 260/07 RMK AO2
14840KMKG MKG20000418152017904/18/00 15:20:31  5-MIN KMKG 182020Z 25006KT 10SM OVC025 07/04 A3004 520 79 -200 260/06 RMK AO2 04/18/00 15:25:30 2125Z 27006KT 10SM OVC023 07/04 A3003 530 86 -300 270/06 RMK AO2
14840KMKG MKG20000418163009604/18/00 16:30:31  5-MIN KMKG 182130Z 27007KT 10SM OVC023 07/04 A3003 530 86 -300 270/07 RMK AO2
14840KMKG MKG20000418163509604/18/00 16:35:31  5-MIN KMKG 182135Z 27007KT 10SM OVC023 07/04 A3003 530 82 -200 230/05 RMK AO2
14840KMKG MKG20000418175011304/18/00 17:50:31  5-MIN KMKG 182250Z 25005KT 10SM OVC023 07/04 A3001 550 82 -200 250/05 RMK AO2 SLP167 T00720044
14840KMKG MKG20000418175507304/18/00 17:55:31  5-MIN KMKG 182255Z 25007KT 10SM OVC023 07/04 A3001 550
14840KMKG MKG20000418190509604/18/00 19:05:31  5-MIN KMKG 190005Z 22005KT 10SM OVC021 06/04 A3001 550 89 -300 220/05 RMK AO2
14840KMKG MKG20000418191004904/18/00 19:10:31  5-MIN KMKG 190010Z 23005KT 100
14840KMKG MKG20000418201509604/18/00 20:15:31  5-MIN KMKG 190115Z 15003KT 10SM OVC021 06/04 A2999 570 89 -300 150/03 RMK AO2
14840KMKG MKG20000418202009604/18/00 20:20:31  5-MIN KMKG 190120Z 14005KT 10SM OVC021 06/04 A2998 580 89 -300 140/05 RMK AO2
14840KMKG MKG20000418210009604/18/00 21:00:31  5-MIN KMKG 190200Z 00000KT 10SM OVC021 07/04 A3001 550 86 -200 000/00 RMK AO2
14840KMKG MKG20000418210509604/18/00 21:05:31  5-MIN KMKG 190205Z 00000KT 10SM OVC021 07/04 A3001 550 86 -200 000/00 RMK AO2
14840KMKG MKG20000418211007304/18/00 21:10:31  5-MIN KMKG 190210Z 000 A3002 54089 -200 150/03 RMK AO2
14840KMKG MKG20000418222509604/18/00 22:25:31  5-MIN KMKG 190325Z 00000KT 10SM OVC021 07/05 A3002 540 89 -200 000/00 RMK AO2
14840KMKG MKG20000418223012804/18/00 22:30:31  5-MIN KMKG 190330Z 00000KT 10SM OVC021 07/05 A3002 540 89 -300 000/00 RMK AO2 04/18/00086 -200 000/00 RMK AO2
14840KMKG MKG20000418233510304/18/00 23:35:31  5-MIN KMKG 190435Z 00000KT 10SM BKN023 OVC027 07/05 A3005 510 86 -200 000/00 RMK AO2
14840KMKG MKG20000418234016904/18/00 23:40:31  5-MIN KMKG 190440Z 36003KT 10SM OVC025 07/05 A3005 510 86 -200 360/03 RMK AO2 04/18/000540Z 22003KT 10SM OVC025 07/06 A3007 500 89 -200 220/03 RMK AO2
14840KMKG MKG20000419004509604/19/00 00:45:31  5-MIN KMKG 190545Z 24003KT 10SM OVC025 07/06 A3007 490 89 -200 240/03 RMK AO2
14840KMKG MKG20000419005013104/19/00 00:50:31  5-MIN KMKG 190550Z 00000KT 10SM OVC025 07/06 A3007 500 89 -200 000/00 RMK AO2 SLP185 T00720056 10072 20056 53001
14840KMKG MKG20000419005513104/19/00 00:55:31  5-MIN KMKG 190555Z 00000KT 10SM OVC025 07/06 A3007 500 89 -200 000/00 RMK AO2 SLP185 T00720056 10072 20056 51017
14840KMKG MKG20000419010009604/19/00 01:00:31  5-MIN KMKG 190600Z 00000KT 10SM OVC025 07/06 A3006 500 89 -200 000/00 RMK AO2
14840KMKG MKG20000419010509604/19/00 01:05:31  5-MIN KMKG 190605Z 00000KT 10SM OVC025 07/06 A3006 500 89 -200 000/00 RMK AO2
14840KMKG MKG20000419011009604/19/00 01:10:31  5-MIN KMKG 190610Z 00000KT 10SM OVC025 07/06 A3006 500 89 -200 000/00 RMK AO2
14840KMKG MKG20000419011509604/19/00 01:15:31  5-MIN KMKG 190615Z 00000KT 10SM OVC025 07/06 A3006 500 89 -200 000/00 RMK AO2
14840KMKG MKG20000419012009604/19/00 01:20:31  5-MIN KMKG 190620Z 00000KT 10SM OVC025 07/06 A3006 500 89 -200 000/00 RMK AO2
14840KMKG MKG20000419012510304/19/00 01:25:31  5-MIN KMKG 190625Z 00000KT 10SM BKN025 OVC033 07/06 A3006 500 89 -200 000/00 RMK AO2
14840KMKG MKG20000419013011804/19/00 01:30:31  5-MIN KMKG 190630Z 00000KT 10SM SCT025 OVC033 07/06 A3006 500 89 -200 000/00 RMK AO2 CIG 026 RWY 14
14840KMKG MKG20000419013511804/19/00 01:35:31  5-MIN KMKG 190635Z 00000KT 10SM SCT025 OVC033 07/06 A3006 510 89 -200 000/00 RMK AO2 CIG 024 RWY 14
14840KMKG MKG20000419014010304/19/00 01:40:31  5-MIN KMKG 190640Z 00000KT 10SM BKN025 OVC033 07/06 A3006 510 89 -200 000/00 RMK AO2
14840KMKG MKG20000419014510304/19/00 01:45:31  5-MIN KMKG 190645Z 00000KT 10SM BKN025 OVC033 07/06 A3006 510 89 -200 000/00 RMK AO2
14840KMKG MKG20000419015007004/19/00 01:50:31  5-MIN KMKG 190650Z 00000KT 10SM BKN025 OVC033 07/06
14840KMKG MKG20000419030515904/19/00 03:05:31  5-MIN KMKG 190805Z 20004KT 10SM SCT022 OVC030 07/06 A3006 510 89 -200 200/04 RMK AO2 CIG 022 RWY 14 04/19/00A3007 500 89 -200 210/04 RMK AO2
14840KMKG MKG20000419041009504/19/00 04:10:31  5-MIN KMKG 190910Z 21004KT 9SM OVC022 07/06 A3007 490 89 -200 210/04 RMK AO2
14840KMKG MKG20000419041517604/19/00 04:15:31  5-MIN KMKG 190915Z 19004KT 9SM OVC022 07/06 A3006 500 93 -200 190/04 RMK AO2 04/19/00 KMKG 191010Z 00000KT 8SM OVC022 08/06 A3004 520 89  -100 000/00 RMK AO2
14840KMKG MKG20000419051509504/19/00 05:15:31  5-MIN KMKG 191015Z 00000KT 7SM OVC022 08/06 A3004 520 89 -100 000/00 RMK AO2
14840KMKG MKG20000419052007204/19/00 05:20:31  5-MIN KMKG 191020Z 10003KT 7SM OVC022 08/06 A3004 520
14840KMKG MKG20000419063014404/19/00 06:30:31  5-MIN KMKG 191130Z 07005KT 6SM BR SCT022 OVC029 08/06 A3003 530 89 -100 080/05 RMK AO2 CIG 022 RWY 14 04/19/00 06:35:3RMK AO2
14840KMKG MKG20000419073509804/19/00 07:35:31  5-MIN KMKG 191235Z 06006KT 6SM BR OVC022 08/06 A3004 520 86 -100 070/06 RMK AO2
14840KMKG MKG20000419074009804/19/00 07:40:31  5-MIN KMKG 191240Z 06007KT 6SM BR OVC022 08/06 A3003 530 86 -100 070/07 RMK AO2
14840KMKG MKG20000419085011404/19/00 08:50:31  5-MIN KMKG 191350Z 09008KT 6SM HZ OVC024 10/07 A3006 500 80 100 090/08 RMK AO2 SLP182 T01000067
14840KMKG MKG20000419095512704/19/00 09:55:31  5-MIN KMKG 191455Z 11007KT 6SM HZ FEW021 BKN028 11/06 A3006 500 74 100 110/07 RMK AO2 SLP182 T01060061 53004
14840KMKG MKG20000419100010804/19/00 10:00:31  5-MIN KMKG 191500Z 08009KT 6SM HZ FEW021 OVC028 11/06 A3006 500 71 200 090/09 RMK AO2 510
14840KMKG MKG20000419110510204/19/00 11:05:31  5-MIN KMKG 191605Z 12010KT 7SM FEW022 OVC028 12/06 A3004  520 68 300 120/10 RMK AO2
14840KMKG MKG20000419111010104/19/00 11:10:31  5-MIN KMKG 191610Z 12012KT 7SM FEW022 OVC028 12/07 A3004 520 71 300 130/12 RMK AO2
14840KMKG MKG20000419111509404/19/00 11:15:31  5-MIN KMKG 191615Z 13009KT 7SM OVC028 11/07 A3004 520 74 200 130/09 RMK AO2
14840KMKG MKG20000419112010104/19/00 11:20:31  5-MIN KMKG 191620Z 12011KT 7SM BKN024 OVC028 12/07 A3004 520 71 300 120/11 RMK AO2
14840KMKG MKG20000419112510104/19/00 11:25:31  5-MIN KMKG 191625Z 14009KT 7SM BKN024 OVC028 11/07 A3004 520 74 200 140/09 RMK AO2
14840KMKG MKG20000419113010104/19/00 11:30:31  5-MIN KMKG 191630Z 13009KT 7SM BKN024 OVC028 11/07 A3005 510 74 200 140/09 RMK AO2
14840KMKG MKG20000419113510104/19/00 11:35:31  5-MIN KMKG 191635Z 12009KT 7SM BKN024 OVC028 11/07 A3004 520 74 200 130/09 RMK AO2
14840KMKG MKG20000419114009404/19/00 11:40:31  5-MIN KMKG 191640Z 13008KT 7SM OVC024 11/07 A3005 510 74 200 130/08 RMK AO2
14840KMKG MKG20000419114509404/19/00 11:45:31  5-MIN KMKG 191645Z 14008KT 7SM OVC024 11/07 A3005 510 74 200 140/08 RMK AO2
14840KMKG MKG20000419115011104/19/00 11:50:31  5-MIN KMKG 191650Z 13010KT 7SM OVC024 11/07 A3005 510 74 200 130/10 RMK AO2 SLP180 T01110067
14840KMKG MKG20000419115511104/19/00 11:55:31  5-MIN KMKG 191655Z 12009KT 7SM OVC024 11/07 A3006 500 74 200 130/09 RMK AO2 SLP181 T01110067
14840KMKG MKG20000419120009404/19/00 12:00:31  5-MIN KMKG 191700Z 11007KT 7SM OVC024 12/07 A3006 500 71 300 120/07 RMK AO2
14840KMKG MKG20000419120509404/19/00 12:05:31  5-MIN KMKG 191705Z 11008KT 7SM OVC024 11/07 A3006 500 74 200 120/08 RMK AO2
14840KMKG MKG20000419121009404/19/00 12:10:31  5-MIN KMKG 191710Z 11006KT 7SM OVC024 11/07 A3006 500 74 200 120/06 RMK AO2
14840KMKG MKG20000419121509404/19/00 12:15:31  5-MIN KMKG 191715Z 11005KT 7SM OVC024 12/07 A3006 500 71 300 110/05 RMK AO2
14840KMKG MKG20000419122011004/19/00 12:20:31  5-MIN KMKG 191720Z 10008KT 7SM -RA OVC024 12/07 A3006 500 71 300 110/08 RMK AO2 RAB19 P0000
14840KMKG MKG20000419122511004/19/00 12:25:31  5-MIN KMKG 191725Z 08009KT 7SM -RA OVC024 11/07 A3006 500 74 200 090/09 RMK AO2 RAB19 P0000
14840KMKG MKG20000419123011704/19/00 12:30:31  5-MIN KMKG 191730Z 10007KT 6SM -RA BKN024 OVC031 11/07 A3006 500 74 200 100/07 RMK AO2 RAB19 P0000
14840KMKG MKG20000419123511704/19/00 12:35:31  5-MIN KMKG 191735Z 08007KT 5SM -RA BKN024 BKN031 11/07 A3007 500 77 200 090/07 RMK AO2 RAB19 P0000
14840KMKG MKG20000419124011704/19/00 12:40:31  5-MIN KMKG 191740Z 08005KT 5SM -RA BKN024 BKN031 11/07 A3007 490 77 200 090/05 RMK AO2 RAB19 P0001
14840KMKG MKG20000419124519604/19/00 12:45:31  5-MIN KMKG 191745Z 09004KT 4SM -RA SCT024 OVC029 11/07 A3008 480 77 20001 M -RA BKN026 11/07 A3009 480 80 100 090/03 RMK AO2 RAB19 SLP191 P0002 60002 T01060072 10117 20078 53009
14840KMKG MKG20000419130023804/19/00 13:00:31  5-MIN KMKG 191800Z 08003KT 3SM -RA OVC026 11/08 A3009 470 83 100 090/03 RMK AO2 VIS 2 1/2 RWY 14 P0001  4/19/00 KMKG 191855Z 05004KT 1 3/4SM RA BR BKN022 OVC031 10/09 A3011 460 93 0 060/04 RMK AO2 SLP197 P0013 T01000089
14840KMKG MKG20000419140012504/19/00 14:00:31  5-MIN KMKG 191900Z 06005KT 1 3/4SM RA BR BKN022 OVC031 10/09 A3010 470 93 0 070/05 RMK AO2 P0001 04/19/001
14840KMKG MKG20000419145513504/19/00 14:55:31  5-MIN KMKG 191955Z 11012KT 2 1/2SM -RA BR FEW018 SCT110 09/09 A2999 560 96 100 110/12 RMK AO2 SLP160 P0012 T00940089
14840KMKG MKG20000419150010004/19/00 15:00:31  5-MIN KMKG 192000Z 11010KT 2 1/2SM -RA BR FEW020 SCT100 09/09 A3000 560 96 100 19
14840KMKG MKG20000419155016104/19/00 15:50:31  5-MIN KMKG 192050Z 10006KT 2 1/2SM BR BKN009 10/09 A3000 560 93 100 110/06 RMK AO2 RAE43 CIG 007V012 PRESRR SLP161 P0000 60025 T01000089 53009
14840KMKG MKG20000419155509604/19/00 15:55:31  5-MIN KMKG 192055Z 11005KT 2 1/2SM BR BKN009 10/09 A30008TSB07 W MOV SE P0000
14840KMKG MKG20000419164016404/19/00 16:40:31  5-MIN KMKG 192140Z 08011KT 2 1/2SM TS BR BKN011 OVC046 10/09 A2997 580 93 200 090/11 RMK AO2 OCNL LTGIC RAB18E40 TSB07 W MOV SE CIG 009V014 P0000
14840KMKG MKG20000419164520504/19/00 16:45:31  5-MIN KMKG 192145Z 08011KT 2 04/19/00 17:30:31  5-MIN KMKG 192230Z 09011KT 2 1/2SM -TSRA BR FEW042 BKN080 OVC100 10/09 A2996 590 93 200 100/11 RMK AO2 FRQ LTGCCCG RAB13 TS W MOV SE P0000
14840KMKG MKG20000419173506904/19/00 17:35:31  5-MIN KMKG 192235Z 09012KT 2 1/2SM -TSRA BR SCT030
14840KMKG MKG20000419182014704/19/00 18:20:31  5-MIN KMKG 192320Z 10012KT 2 1/2SM -TSRA BR OVC085 10/09 A2993 620 93 200 100/12 RMK AO2 FRQ LTGCCCG TS NE-E MOV SE PRESRR P0000
14840KMKG MKG20000419182507504/19/00 18:25:31  5-MIN KMKG 192325Z 10012KT 2 1/2SM -TSRA BR OVC085 10/09
14840KMKG MKG20000419190509704/19/00 19:05:31  5-MIN KMKG 200005Z 08011KT 4SM BR OVC075 09/08 A2994 620 93 100 090/11 RMK AO2
14840KMKG MKG20000419191013804/19/00 19:10:31  5-MIN KMKG 200010Z 09012KT 4SM BR OVC075 09/08 A2994 610 93 100 090/12 RMK AO2  89 200 080/14 RMK AO2IN KMKG 200015Z 09
14840KMKG MKG20000419202009704/19/00 20:20:31  5-MIN KMKG 200120Z 08012KT 6SM BR OVC070 10/08 A2994 620 89 200 090/12 RMK AO2
14840KMKG MKG20000419202511304/19/00 20:25:31  5-MIN KMKG 200125Z 08011KT 6SM BR OVC070 10/08 A2995 600 89 200 080/11 RMK AO2 PRESRR 04/19/00
14840KMKG MKG20000419212013404/19/00 21:20:31  5-MIN KMKG 200220Z 10009KT 6SM -TSRA BR OVC080 10/08 A2998 570 89 200 100/09 RMK AO2 OCNL LTGICCG TS SE MOV E P0001
14840KMKG MKG20000419212509904/19/00 21:25:31  5-MIN KMKG 200225Z 09010KT 6SM TS BR OVC080 10/08 A2998 580 89 200 090/10 RMK AO
14840KMKG MKG20000419221011304/19/00 22:10:31  5-MIN KMKG 200310Z 08013KT 6SM -RA BR OVC075 09/08 A2996 600 93 100 080/13 RMK AO2 RAB03 P0000
14840KMKG MKG20000419221512104/19/00 22:15:31  5-MIN KMKG 200315Z 08012KT 6SM BR OVC075 09/08 A2996 590 93 100 090/12 RMK AO2 RAB03E15 P0000 84/19/00
14840KMKG MKG20000419231510704/19/00 23:15:31  5-MIN KMKG 200415Z 09014KT 5SM -RA BR OVC070 09/08 A2993 620 93 100 090/14 RMK AO2 P0000
14840KMKG MKG20000419233010904/19/00 23:30:31  5-MIN KMKG 200430Z 09013KT 4SM BR OVC065 09/08 A2994 610 96 100 090/13 RMK AO2 RAE21 P0000
14840KMKG MKG20000419233512604/19/00 23:35:31  5-MIN KMKG 200435Z 09012KT 4SM BR OVC060 09/08 A2994 610 93 100 090/12 RMK AO2 RAE21 P0000 04/19/00 23:40:3
14840KMKG MKG20000420003518104/20/00 00:35:31  5-MIN KMKG 200535Z 09014G20KT 4SM -TSRA BR FEW011 BKN046 OVC055 09/08 A2991 640 93 200 090/14G20 RMK AO2 VIS 2 1/2 RWY 14 OCNL LTGICCC RAB16 TSB32 NW MOV NE P0001
14840KMKG MKG20000420012516204/20/00 01:25:31  5-MIN KMKG 200625Z 08015KT 3SM -RA BR FEW008 OVC043 09/08 A2988 670 96 100 090/15 RMK AO2 VIS 2 1/2 RWY 14 TSE20 PRESFR P0000 04/20/00 01:30:35
14840KMKG MKG20000420021519804/20/00 02:15:31  5-MIN KMKG 200715Z 09016KT 3SM +TSRA BR BKN008 BKN034 OVC041 09/08 A2983 720 96 200 090/16 RMK AO2 VIS 2 RWY 14 CIG 007V012 PRESFR OCNL LTGICCCCG TSB04 SW MOV NE CIG 006V012 P0003
14840KMKG MKG20000420022007604/20/00 02:20:31  5-MIN KMKG 200720Z 08AND NE MOV NE SLP105 P0015 T00890083
14840KMKG MKG20000420030013104/20/00 03:00:31  5-MIN KMKG 200800Z 09011KT 2 1/2SM TSRA BR OVC008 09/08 A2982 720 96 200 090/11 RMK AO2 CIG 005V010 PRESFR P0002
14840KMKG MKG20000420030514104/20/00 03:05:31  5-MIN KMKG 200805Z 08018G21KT 2 1/2SM TSRA BR 3 +750 96 200 100/16 RMK AO2 TSE48 PRESFR SLP090 P0016 60032 T00890083 56018
14840KMKG MKG20000420035514804/20/00 03:55:31  5-MIN KMKG 200855Z 09012G21KT 4SM -RA BR OVC008 09/08 A2979 750 96 200 100/12G21 RMK AO2 TSE48 SLP090 P0016 60032 T00890083 56040
14840KMKG MKG20000420045013304/20/00 04:50:31  5-MIN KMKG 200950Z 09011KT 6SM -RA BR OVC008 08/08 A2979 750 96 200 100/11 RMK AO2 TSB10E50 SLP091 P0020 T00830078
14840KMKG MKG20000420051011904/20/00 05:10:31  5-MIN KMKG 201010Z 08006KT 4SM +RA BR OVC008 09/08 A2983 710 96 200 090/06 RMK AO2 CIG 006V012 P0006
14840KMKG MKG20000420051513604/20/00 05:15:31  5-MIN KMKG 201015Z 07009KT 2 1/2SM +RA BR OV08 M RA BR OVC008 08/08 A2980 740 96 200 090/13 RMK AO2 CIG 006V011 P0005
14840KMKG MKG20000420062011804/20/00 06:20:31  5-MIN KMKG 201120Z 09012KT 4SM RA BR OVC008 08/08 A2980 740 96 200 100/12 RMK AO2 CIG 006V011 P0006
14840KMKG MKG20000420062518604/20/00 06:25:31  5-MIN KMKG 201125Z 09015G19KT04/20/00 07:10:31  5-MIN KMKG 201210Z 10019G34KT 10SM BKN008 OVC037 08/08 A2964 890 96 300 110/19G34 RMK AO2 PK WND 12034/1201 RAE03 P0000
14840KMKG MKG20000420071516704/20/00 07:15:31  5-MIN KMKG 201215Z 10024G32KT 10SM OVC008 09/08 A2964 890 96 400 100/24G32 RMK 1300Z 11019G25KT 10SM OVC008 09/08 A2966 880 93 500 110/19G25 RMK AO2
14840KMKG MKG20000420080510104/20/00 08:05:31  5-MIN KMKG 201305Z 11020G25KT 10SM OVC008 09/08 A2965 880 93 500 110/20G25 RMK AO2
14840KMKG MKG20000420091009504/20/00 09:10:31  5-MIN KMKG 201410Z 09014KT 10SM OVC008 10/09 A2964 890 93 500 100/14 RMK AO2
14840KMKG MKG20000420091516704/20/00 09:15:31  5-MIN KMKG 201415Z 09016KT 10SM OVC008 10/09 A2964 890 93 500 100/16 RMK AO2 010/09 A2960 930 96 600 080/21G25 RMK AO2 VIS 1 1/4 RWY 14 PRESFR P0001
14840KMKG MKG20000420100512604/20/00 10:05:31  5-MIN KMKG 201505Z 07017G25KT 2SM RA BR BKN010 OVC021 10/09 A2959 940 96 600 080/17G25 RMK AO2 PRESFR P0003
14840KMKG MKG20000420101004004/20/00 10:10:31  5-MIN KMKG 201510Z 07
14840KMKG MKG20000420103520004/20/00 10:35:31  5-MIN KMKG 201535Z 09010G19KT 4SM TSRA BR OVC008 10/09 A2962 910 96 600 090/10G19 RMK AO2 PK WND 08026/1507 VIS 2 1/2 RWY 14 TSB15 CIG 006V012 PRESRR OCNL LTGICCG TS OHD MOV N P0011
14840KMKG MKG20000420104018304/20/00 10:40:31  5-MIN KMKG 201540Z 10007KT 3SM TSRA BR OVC010 10/09 A2962 910 96 600 110/07 RMK AO2 PK WND 08026/1507 VIS 2 RWY 14 TSB15 CIG 006V012 OCNL LTGICCG TS OHD MOV N P0014
14840KMKG MKG20000420104519204/20/00 10:45:31  5-MIN KMKG 201545Z 10006KT 2 1/2SM +TSRA BR OVC010 10/09 A2961 920 96 600 100/06 RMK AO2 PK WND 08026/1507 VIS 1 1/2 RWY 14 TSB15 CIG 006V012 OCNL LTGICCG TS OHD MOV N P0016
14840KMKG MKG20000420105020404/20/00 10:50:31  5-MIN KMKG 201550Z 06012KT 3SM TSRA BR OVC010 10/09 A2960 930 96 600 070/12 RMK AO2 PK WND 08026/1507 VIS 1 1/2 RWY 14 TSB15 CIG 007V012 SLP024 OCNL LTGICCG TS OHD MOV N P0017 T01000094
14840KMKG MKG20000420105520404/20/00 10:55:31  5-MIN KMKG 201555Z 10009KT 4SM -TSRA BR BKN010 OVC020 10/09 A2961 920 96 600 100/09 RMK AO2 PK WND 08026/1507 VIS 2 RWY 14 TSB15 CIG 007V013 SLP029 OCNL LTGIC TS N MOV N P0018 T01000094
14840KMKG MKG20000420110013504/20/00 11:00:31  5-MIN KMKG 201600Z 09011KT 5SM -TSRA BR BKN010 BKN013 OVC018 10/09 A2960 930 96 600 100/11 RMK AO2 CIG 007V011 P0000
14840KMKG MKG20000420110516004/20/00 11:05:31  5-MIN KMKG 201605Z 09010KT 6SM -TSRA BR SCT010 BKN018 OVC026 10/09 A2960 930 96 600 100/10 RMK AO2 CIG 009 RWY 14 OCNL LTGIC TS S MOV N P0001
14840KMKG MKG20000420111014504/20/00 11:10:31  5-MIN KMKG 201610Z 10009KT 6SM -TSRA BR FEW008 BKN014 OVC026 10/09 A2961 920 96 600 100/09 RMK AO2 OCNL LTGIC TS S MOV N P0001
14840KMKG MKG20000420111514504/20/00 11:15:31  5-MIN KMKG 201615Z 09010KT 5SM -TSRA BR SCT010 BKN014 OVC019 10/09 A2961 920 96 600 100/10 RMK AO2 OCNL LTGIC TS S MOV N P0001
14840KMKG MKG20000420112013804/20/00 11:20:31  5-MIN KMKG 201620Z 10011KT 6SM -TSRA BR BKN012 OVC019 10/09 A2959 930 96 600 100/11 RMK AO2 OCNL LTGIC TS S MOV N P0001
14840KMKG MKG20000420112512104/20/00 11:25:31  5-MIN KMKG 201625Z 10010KT 6SM -RA BR BKN012 OVC019 10/10 A2959 930 100 600 100/10 RMK AO2 TSE21 P0001
14840KMKG MKG20000420113011804/20/00 11:30:31  5-MIN KMKG 201630Z 09009KT 7SM FEW006 OVC010 11/10 A2959 940 96 700 090/09 RMK AO2 TSE21RAE30 P0001
14840KMKG MKG20000420113513104/20/00 11:35:31  5-MIN KMKG 201635Z 09014G18KT 7SM FEW006 OVC010 11/10 A2957 950 96 700 090/14G18 RMK AO2 RAE30TSE21 PRESFR P0001
14840KMKG MKG20000420114012904/20/00 11:40:31  5-MIN KMKG 201640Z 09011G19KT 7SM OVC010 11/10 A2957 960 93 800 100/11G19 RMK AO2 CIG 005V013 RAE30TSE21 P0001
14840KMKG MKG20000420114512904/20/00 11:45:31  5-MIN KMKG 201645Z 09014G19KT 8SM OVC010 11/10 A2956 960 93 800 090/14G19 RMK AO2 CIG 005V013 RAE30TSE21 P0001
14840KMKG MKG20000420115012804/20/00 11:50:31  5-MIN KMKG 201650Z 08013KT 8SM OVC010 11/11 A2956 970 96 800 090/13 RMK AO2 SLP011 RAE30TSE21 P0001 T01110106
14840KMKG MKG20000420115513904/20/00 11:55:31  5-MIN KMKG 201655Z 09013KT 9SM OVC010 11/11 A2956 960 96 800 090/13 RMK AO2 RAE30TSE21 CIG006V013 SLP011 P0001 T01110106
14840KMKG MKG20000420120010704/20/00 12:00:31  5-MIN KMKG 201700Z 10011KT 10SM OVC010 11/10 A2957 960 93 800 100/11 RMK AO2 CIG 007V013
14840KMKG MKG20000420120510704/20/00 12:05:31  5-MIN KMKG 201705Z 09013KT 10SM OVC010 11/10 A2956 960 93 800 090/13 RMK AO2 CIG 007V013
14840KMKG MKG20000420121011304/20/00 12:10:31  5-MIN KMKG 201710Z 09011G18KT 10SM OVC010 12/11 A2957 960 93 800 100/11G18 RMK AO2 CIG 007V013
14840KMKG MKG20000420121509504/20/00 12:15:31  5-MIN KMKG 201715Z 09013KT 10SM OVC010 12/11 A2957 960 93 800 100/13 RMK AO2
14840KMKG MKG20000420122009504/20/00 12:20:31  5-MIN KMKG 201720Z 10013KT 10SM OVC010 12/11 A2957 950 93 800 100/13 RMK AO2
14840KMKG MKG20000420122509504/20/00 12:25:31  5-MIN KMKG 201725Z 09013KT 10SM OVC010 12/11 A2957 950 93 800 100/13 RMK AO2
14840KMKG MKG20000420123009504/20/00 12:30:31  5-MIN KMKG 201730Z 10011KT 10SM OVC010 12/11 A2957 960 93 800 110/11 RMK AO2
14840KMKG MKG20000420123509504/20/00 12:35:31  5-MIN KMKG 201735Z 11012KT 10SM OVC010 12/11 A2957 950 93 800 110/12 RMK AO2
14840KMKG MKG20000420124010104/20/00 12:40:31  5-MIN KMKG 201740Z 10010G17KT 10SM OVC010 12/11 A2958 950 89 900 110/10G17 RMK AO2
14840KMKG MKG20000420124510104/20/00 12:45:31  5-MIN KMKG 201745Z 11015G19KT 10SM OVC012 12/11 A2959 940 89 900 110/15G19 RMK AO2
14840KMKG MKG20000420125014904/20/00 12:50:31  5-MIN KMKG 201750Z 10012G19KT 10SM OVC012 12/11 A2959 930 89 900 110/12G19 RMK AO2 PRESRR SLP023 60030 T01220106 10122 20083 58011
14840KMKG MKG20000420125514304/20/00 12:55:31  5-MIN KMKG 201755Z 11013KT 10SM OVC012 12/11 A2960 930 89 900 120/13 RMK AO2 PRESRR SLP025 60030 T01220106 10122 20083 55007
14840KMKG MKG20000420130009504/20/00 13:00:31  5-MIN KMKG 201800Z 12012KT 10SM OVC012 12/11 A2960 930 89 900 120/12 RMK AO2
14840KMKG MKG20000420130509504/20/00 13:05:31  5-MIN KMKG 201805Z 11012KT 10SM OVC012 12/11 A2960 930 89 900 120/12 RMK AO2
14840KMKG MKG20000420131010104/20/00 13:10:31  5-MIN KMKG 201810Z 11013G20KT 10SM OVC012 12/11 A2960 930 89 900 110/13G20 RMK AO2
14840KMKG MKG20000420131511704/20/00 13:15:31  5-MIN KMKG 201815Z 11012G20KT 10SM -RA OVC012 12/11 A2960 930 89 900 110/12G20 RMK AO2 RAB12 P0000
14840KMKG MKG20000420132011104/20/00 13:20:31  5-MIN KMKG 201820Z 11013KT 10SM -RA OVC012 12/11 A2960 930 89 900 110/13 RMK AO2 RAB12 P0000
14840KMKG MKG20000420132511004/20/00 13:25:31  5-MIN KMKG 201825Z 11011KT 8SM -RA OVC012 12/11 A2959 930 89 900 110/11 RMK AO2 RAB12 P0000
14840KMKG MKG20000420133011004/20/00 13:30:31  5-MIN KMKG 201830Z 11011KT 7SM -RA OVC012 12/11 A2958 940 93 900 110/11 RMK AO2 RAB12 P0001
14840KMKG MKG20000420133512004/20/00 13:35:31  5-MIN KMKG 201835Z 11013KT 6SM -RA BR OVC012 12/11 A2958 950 93 900 110/13 RMK AO2 RAB12 PRESFR P0001
14840KMKG MKG20000420134011204/20/00 13:40:31  5-MIN KMKG 201840Z 10012KT 4SM RA BR OVC014 12/11 A2957 950 93 900 100/12 RMK AO2 RAB12 P0002
14840KMKG MKG20000420134515704/20/00 13:45:31  5-MIN KMKG 201845Z 10012KT 3SM TSRA BR BKN014 OVC031 12/11 A2957 950 93 900 110/12 RMK AO2 TSB45RAB12 OCNL LTGIC SW TS SW-OHD MOV NE P0002
14840KMKG MKG20000420135018204/20/00 13:50:31  5-MIN KMKG 201850Z 10011KT 3SM -TSRA BR BKN014 BKN023 OVC031 12/11 A2957 960 93 900 110/11 RMK AO2 SLP015 OCNL LTGIC SW RAB12TSB45 TS SW-OHD MOV NE P0003 T01220111
14840KMKG MKG20000420135518204/20/00 13:55:31  5-MIN KMKG 201855Z 10014KT 4SM -TSRA BR SCT014 BKN023 OVC029 12/11 A2956 960 96 800 110/14 RMK AO2 OCNL LTGIC SW RAB12TSB45 TS SW-OHD MOV NE SLP014 P0003 T01170111
14840KMKG MKG20000420140015204/20/00 14:00:31  5-MIN KMKG 201900Z 10012KT 5SM -TSRA BR FEW014 BKN023 OVC029 12/11 A2956 970 96 800 100/12 RMK AO2 OCNL LTGIC OHD TS OHD MOV NE P0000
14840KMKG MKG20000420140520904/20/00 14:05:31  5-MIN KMKG 201905Z 08011KT 4SM -TSRA BR FEW009 BKN023 OVC029 12/11 A2955 980 96 800 080/11 RMKE 023 OVC029 12/11 A2952 1010 96 900 080/14G19 RMK AO2 OCNL LTGIC OHD TS OHD MOV NE PRESFR P0002
14840KMKG MKG20000420142013904/20/00 14:20:31  5-MIN KMKG 201920Z 08018KT 4SM -TSRA BR BKN009 BKN023 OVC027 12/11 A2947 1040 96 900 080/18 RMK AO2 OCNL LTGIC OHD TS NE
14840KMKG MKG20000420151512204/20/00 15:15:31  5-MIN KMKG 202015Z 08018G23KT 10SM BKN007 OVC012 13/12 A2943 1090 93 1100 090/18G23 RMK AO2 CIG 006V010
14840KMKG MKG20000420161513804/20/00 16:15:31  5-MIN KMKG 202115Z 07015KT 10SM OVC010 13/11 A2945 1070 89 1100 070/15 RMK AO2 1040 89 900 070/15G19 RMK AO2 202120Z 07
14840KMKG MKG20000420172010204/20/00 17:20:31  5-MIN KMKG 202220Z 06014G19KT 10SM OVC010 12/10 A2949 1030 89 900 060/14G19 RMK AO2
14840KMKG MKG20000420172510104/20/00 17:25:31  5-MIN KMKG 202225Z 06015G22KT 9SM OVC010 11/10 A2949 1030 93 900 070/15G22 RMK AO2
14840KMKG MKG20000420182010404/20/00 18:20:31  5-MIN KMKG 202320Z 07018G22KT 4SM BR OVC008 09/09 A2950 1020 96 600 070/18G22 RMK AO2
14840KMKG MKG20000420182510404/20/00 18:25:31  5-MIN KMKG 202325Z 06014G22KT 4SM BR OVC008 09/09 A2950 1020 96 600 060/14G22 RMK AO2
14840KMKG MKG20000420191010804/20/00 19:10:31  5-MIN KMKG 210010Z 05015G23KT 2 1/2SM BR OVC006 09/08 A2949 1030 96 600 050/15G23 RMK AO2
14840KMKG MKG20000420191510404/20/00 19:15:31  5-MIN KMKG 210015Z 06017G23KT 3SM BR OVC006 09/08 A2949 1030 96 600 060/17G23 RMK AO2
14840KMKG MKG20000420192014504/20/00 19:20:31  5-MIN04/20/00 19:35:31  5-MIN KMKG 210035Z 06020G25KT 5SM BROVC006 09/08 A2950 1030 96 600 070/20G25 RMK AO2 PK WND 07026/0025
14840KMKG MKG20000420194007404/20/00 19:40:31  5-MIN KMKG 210040Z 06015G25KT 5SM BR OVC006 09/08 A2950
14840KMKG MKG20000420202510404/20/00 20:25:31  5-MIN KMKG 210125Z 05020G23KT 5SM BR OVC006 09/08 A2950 1020 93 600 060/20G23 RMK AO2
14840KMKG MKG20000420203013004/20/00 20:30:31  5-MIN KMKG 210130Z 05020G27KT 4SM -RA BR OVC006 09/08 A2950 1020 93 600 060/20G27 RMK AO2 PK WND 06027/0130 RA0
14840KMKG MKG20000420205516604/20/00 20:55:31  5-MIN KMKG 210155Z 06019G23KT 4SM BR OVC006 08/08 A2950 1020 96 500 060/19G23 RMK AO2 PK WND 06027/0132 RAB26E55 CIG 005V010 SLP993 P0000 T00830078
14840KMKG MKG20000420210008004/20/00 21:00:31  5-MIN KMKG 210200Z 06018G22KT 4SM -RA BR OVC006 08/08 21:40:3
14840KMKG MKG20000420215016904/20/00 21:50:31  5-MIN KMKG 210250Z 06014G22KT 5SM RA BR BKN008 OVC015 08/07 A2951 1010 96 400 070/14G22 RMK AO2 RAB0156 CIG 006V011 SLP996 P0015 60015 T00780072 50017
14840KMKG MKG20000420215506504/20/00 21:55:31  5-MIN KMKG 210255Z 06013G21KT 4SM +RA BR BK013
14840KMKG MKG20000420225018404/20/00 22:50:31  5-MIN KMKG 210350Z 06011KT 4SM +RA BR SCT014 BKN038 OVC045 08/07 A2952 1000 7 011G18KT 5SM RA BR BKN015 BKN022 OVC042 07/07 A2952 1000 96 300 070/11G18 RMK AO2 P0011
14840KMKG MKG20000420234512104/20/00 23:45:31  5-MIN KMKG 210445Z 06012KT 5SM RA BR SCT014 BKN023 OVC055 07/07 A2952 1000 96 300 070/12 RMK AO2 P0012
14840KMKG MKG20000420235007604/20/00 23:50:31  5-MIN2 OVC022 07/06 A2954 980 96 300 050/12 RMK AO2 P0011
14840KMKG MKG20000421004511704/21/00 00:45:31  5-MIN KMKG 210545Z 05013KT 7SM RA FEW012 SCT016 OVC022 07/06 A2954 980 93 300 060/13 RMK AO2 P0012
14840KMKG MKG20000421005008004/21/00 00:50:31  5-MIN KMKG 210550Z 05013KT 7SM RA FEW012 OVC022 07/0604/21/00
14840KMKG MKG20000421015012404/21/00 01:50:31  5-MIN KMKG 210650Z 03009KT 5SM RA BR BKN024 OVC034 06/06  A2955 970 96 200 020/09 RMK AO2 P00197 P0015 T0
14840KMKG MKG20000421025013704/21/00 02:50:31  5-MIN KMKG 210750Z 36008KT 5SM RA BR SCT013 BKN017 OVC023 06/06 A2955 970 96 200 010/08 RMK AO2 SLP009 P0020 T00610056
14840KMKG MKG20000421032512004/21/00 03:25:31  5-MIN KMKG 210825Z 36010KT 4SM RA BR FEW009 BKN016 OVC030 06/06 A2956 970 96 200 010/10 RMK AO2 P0010
14840KMKG MKG20000421033010404/21/00 03:30:31  5-MIN KMKG 210830Z 36010KT 4SM RA BR FEW010 B12 57 950 93 200 010/14G18 RMK AO2 P0002
14840KMKG MKG20000421041011604/21/00 04:10:31  5-MIN KMKG 210910Z 01011G21KT 7SM RA BKN013 OVC019 06/05 A2958 950 93 100 020/11G21 RMK AO2 P0003
14840KMKG MKG20000421041509404/21/00 04:15:31  5-MIN KMKG 210915Z 01015G21KT 8SM -RA BKN013 BKN018 OVC024 026RMK AO2 P0000
14840KMKG MKG20000421050511804/21/00 05:05:31  5-MIN KMKG 211005Z 01013KT 7SM -RA BKN014 BKN020 OVC028 06/04 A2959 930 92 100 010/13 RMK AO2 P0000
14840KMKG MKG20000421051015404/21/00 05:10:31  5-MIN KMKG 211010Z 01011G19KT 6SM -RA BR BKN014 BKN020 OVC026 06/04 A2959 930 9P0001 OVC02105/04 A2963 900 92 0 010/11G18 RMK AO2 P0001
14840KMKG MKG20000421061011504/21/00 06:10:31  5-MIN KMKG 211110Z 35011G18KT 9SM -RA BKN015 OVC021 05/04 A2962 910 92 0 360/11G18 RMK AO2 P0002
14840KMKG MKG20000421061508604/21/00 06:15:31  5-MIN KMKG 211115Z 36013KT 10SM -RA OVC017 053 /15G22 RMK AO2 P0001
14840KMKG MKG20000421071011804/21/00 07:10:31  5-MIN KMKG 211210Z 01015G20KT 8SM -RA BKN014 OVC019 04/03 A2966 880 92 -100 020/15G20 RMK AO2 P0001
14840KMKG MKG20000421071509504/21/00 07:15:31  5-MIN KMKG 211215Z 01014G20KT 8SM -RA OVC016 04/03 A2966 870 92 -100 0200001
14840KMKG MKG20000421072011104/21/00 07:20:31  5-MIN KMKG 211220Z 01014G20KT 7SM -RA OVC016 04/03 A2966 870 92 -100 020/14G20 RMK AO2 P0001
14840KMKG MKG20000421072511804/21/00 07:25:31  5-MIN KMKG 211225Z 01016G22KT 7SM -RA BKN017 OVC026 04/03 A2966 870 92 -100 010/16G22 RMK AO2 P0002
14840KMKG MKG20000421073011804/21/00 07:30:31  5-MIN KMKG 211230Z 01015G22KT 8SM -RA BKN017 OVC025 04/03 A2967 870 92 -100 020/15G22 RMK AO2 P0002
14840KMKG MKG20000421073511804/21/00 07:35:31  5-MIN KMKG 211235Z 01014G19KT 9SM -RA BKN017 OVC023 04/03 A2967 870 92 -100 010/14G19 RMK AO2 P0002
14840KMKG MKG20000421083511104/21/00 08:35:31  5-MIN KMKG 211335Z 01015G21KT 7SM -RA OVC017 04/03 A2969 840 92 -100 010/15G21 RMK AO2 P0002
14840KMKG MKG20000421084011804/21/00 08:40:31  5-MIN KMKG 211340Z 01016G21KT 7SM -RA BKN017 OVC023 04/03 A2970 840 92 -100 010/16G21 RMK AO2 P0002
14840KMKG MKG20000421095013004/21/00 09:50:31  5-MIN KMKG 211450Z 01012G21KT 6SM -RA BR OVC018 05/03 A2972 810 89 -100 010/12G21 RMK AO2 SLP068 P0002 60008 T0
14840KMKG MKG20000421105013504/21/00 10:50:31  5-MIN KMKG 211550Z 01015G23KT 8SM -RA SCT015 OVC021 06/04 A2975 790 89 -100 010/15G23 RMK AO2 SLP078 P0002 T00560039
14840KMKG MKG20000421105507004/21/00 10:55:31  5-MIN KMKG 211555Z 02014G21KT 7SM -RA BKN015 OVC021
14840KMKG MKG20000421120016504/21/00 12:00:31  5-MIN KMKG 211700Z 02013KT 10SM -RA BKN018 OVC022 07/05 A2977 770 89 0 020/13 RMK AO2 P0000 04/21/00SLP087 P0000 60013 T00780050 10078 20044 51025
14840KMKG MKG20000421125518604/21/00 12:55:31  5-MIN KMKG 211755Z 01012G21KT 10SM -RA SCT022 BKN029 OVC065 08/05 A2978 760 82 100 020/12G21 RMK AO2 SLP087 P0000 60013 T00780050 10078 20044 51018 04/21/00 13:00:3065
14840KMKG MKG20000421135513104/21/00 13:55:31  5-MIN KMKG 211855Z 02010KT 10SM BKN030 OVC040 09/04 A2979 750 73 200 020/10 RMK AO2 RAE03 SLP093 P0000 T00890044
14840KMKG MKG20000421140016404/21/00 14:00:31  5-MIN KMKG 211900Z 02011KT 10SM SCT030 OVC040 09/04 A2980 740 71 200 020/11 RMK AO2 010G18KT 10SM OVC038 11/03 A2981 740 61 400 030/10G18 RMK AO2
14840KMKG MKG20000421151010204/21/00 15:10:31  5-MIN KMKG 212010Z 03010KT 10SM BKN038 OVC060 11/04 A2981 730 61 500 030/10 RMK AO2
14840KMKG MKG20000421151507004/21/00 15:15:31  5-MIN KMKG 212015Z 03010KT 10SM BKN039 BKN060 11/03
14840KMKG MKG20000421161510104/21/00 16:15:31  5-MIN KMKG 212115Z 01012G17KT 10SM OVC043 12/04 A2982 730 56 600 020/12G17 RMK AO2
14840KMKG MKG20000421162018104/21/00 16:20:31  5-MIN KMKG 212120Z 01011KT 10SM BKN043 OVC060 12/04 A2982 730 56 600 010/11 RMK AO2  KMKG 212225Z 02012KT 10SM BKN045 OVC065 12/03 A2983 710 54 600 020/12 RMK AO2
14840KMKG MKG20000421173009504/21/00 17:30:31  5-MIN KMKG 212230Z 03009KT 10SM OVC045 12/04 A2984 710 56 600 030/09 RMK AO2
14840KMKG MKG20000421173508004/21/00 17:35:31  5-MIN KMKG 212235Z 04011KT 10SM OVC040 056 500 010/08 RMK AO2
14840KMKG MKG20000421183509204/21/00 18:35:31  5-MIN KMKG 212335Z 01009KT 10SM CLR 12/03 A2985 690 56 500 010/09 RMK AO2
14840KMKG MKG20000421184009204/21/00 18:40:31  5-MIN KMKG 212340Z 01011KT 10SM CLR 12/03 A2986 690 56 500 020/11 RMK AO2
14840KMKG MKG20000421193009204/21/00 19:30:31  5-MIN KMKG 220030Z 36005KT 10SM CLR 11/03 A2987 680 58 300 010/05 RMK AO2
14840KMKG MKG20000421193508604/21/00 19:35:31  5-MIN KMKG 220035Z 31006KT 105 8/01 A2988 670 60 100 350/07 RMK AO2
14840KMKG MKG20000421204509204/21/00 20:45:31  5-MIN KMKG 220145Z 34008KT 10SM CLR 08/01 A2988 660 58 100 350/08 RMK AO2
14840KMKG MKG20000421205007304/21/00 20:50:31  5-MIN KMKG 220150Z 34009KT 10SM CLR 09/00 A2989 660 53
14840KMKG MKG20000421221509404/21/00 22:15:31  5-MIN KMKG 220315Z 35007KT 10SM CLR 07/M01 A2989 650 57 -100 350/07 RMK AO2
14840KMKG MKG20000421222009404/21/00 22:20:31  5-MIN KMKG 220320Z 35007KT 10SM CLR 07/M01 A2989 650 57 -100 350/07 RMK AO2
14840KMKG MKG20000421222505904/21/00 22:25:31  5-MIN KMKG 220325Z 35008KT 10/05 RMK AO2
14840KMKG MKG20000421233009404/21/00 23:30:31  5-MIN KMKG 220430Z 03004KT 10SM CLR 06/M03 A2990 650 51 -200 030/04 RMK AO2
14840KMKG MKG20000421233509404/21/00 23:35:31  5-MIN KMKG 220435Z 04004KT 10SM CLR 06/M03 A2990 650 53 -200 050/04 RMK AO2
14840KMKG MKG20000421234010904/21/00 23:40:31  5-MIN KMKG 221  5-MIN KMKG 220530Z 00000KT 10SM CLR 02/M02 A2991 640 75-700 000/00 RMK AO2
14840KMKG MKG20000422003509404/22/00 00:35:31  5-MIN KMKG 220535Z 00000KT 10SM CLR 02/M02 A2991 640 75 -700 000/00 RMK AO2
14840KMKG MKG20000422011009404/22/00 01:10:31  5-MIN KMKG 220610Z 00000KT 10SM CLR 02/M01 A2990 650 82 -700 000/00 RMK AO2
14840KMKG MKG20000422011511804/22/00 01:15:31  5-MIN KMKG 220615Z 00000KT 10SM CLR 02/00 A2990 650 8SM CLR 04/M02 A2989 660 64 -400 360/04 RMK AO2
14840KMKG MKG20000422022509404/22/00 02:25:31  5-MIN KMKG 220725Z 01005KT 10SM CLR 04/M02 A2988 670 64 -400 020/05 RMK AO2
14840KMKG MKG20000422023011004/22/00 02:30:31  5-MIN KMKG 220730Z 04005KT 10SM CLR 03/M03 A2988 670 64 -500 040/05 RMK -800 360/04 RMK AO2
14840KMKG MKG20000422032509404/22/00 03:25:31  5-MIN KMKG 220825Z 01004KT 10SM CLR 02/M03 A2988 670 72 -700 020/04 RMK AO2
14840KMKG MKG20000422033009404/22/00 03:30:31  5-MIN KMKG 220830Z 01004KT 10SM CLR 03/M02 A2988 670 69 -600 010/04 RMK AO2
14840KMKG MKG20000422033504604/22/00 03:35:31  5-MIN72 -600 330/03 RMK AO2
14840KMKG MKG20000422044009404/22/00 04:40:31  5-MIN KMKG 220940Z 29003KT 10SM CLR 02/M02 A2988 670 72 -600 300/03 RMK AO2
14840KMKG MKG20000422044509604/22/00 04:45:31  5-MIN KMKG 220945Z 30004KT 10SM CLR M01/M03 A2988 670 85 -1000 300/04 RMK AO2
14840KMKG MKG20000422045011304/22/00 04:50:31  5-MIN KMKG 220950Z 00000KT 10SM CLR M01/M03 A2988 670 85 -1100 000/00 RMK AO2 SLP123 T10111033
14840KMKG MKG20000422045511304/22/00 04:55:31  5-MIN KMKG 220955Z 00000KT 10SM CLR M01/M03 A2988 670 88 -1100 000/00 RMK AO2 SLP122 T10111028
14840KMKG MKG20000422050009604/22/00 05:00:31  5-MIN KMKG 221000Z 00000KT 10SM CLR M01/M02 A2988 670 88 -1000 000/00 RMK AO2
14840KMKG MKG20000422050509604/22/00 05:05:31  5-MIN KMKG 221005Z 26003KT 10SM CLR M01/M03 A2988 660 88 -1100 270/03 RMK AO2
14840KMKG MKG20000422051009604/22/00 05:10:31  5-MIN KMKG 221010Z 28004KT 10SM CLR M01/M02 A2988 660 92 -1100 290/04 RMK AO2
14840KMKG MKG20000422051509604/22/00 05:15:31  5-MIN KMKG 221015Z 28005KT 10SM CLR M01/M03 A2988 660 85 -1000 280/05 RMK AO2
14840KMKG MKG20000422052009604/22/00 05:20:31  5-MIN KMKG 221020Z 28006KT 10SM CLR M01/M03 A2989 660 85 -1000 290/06 RMK AO2
14840KMKG MKG20000422052509404/22/00 05:25:31  5-MIN KMKG 221025Z 29005KT 10SM CLR 01/M03 A2989 660 78 -900 290/05 RMK AO2
14840KMKG MKG20000422053009404/22/00 05:30:31  5-MIN KMKG 221030Z 29004KT 10SM CLR 02/M03 A2989 660 72 -700 300/04 RMK AO2
14840KMKG MKG20000422053509404/22/00 05:35:31  5-MIN KMKG 221035Z 31003KT 10SM CLR 01/M03 A2989 660 75 -900 320/03 RMK AO2
14840KMKG MKG20000422054009404/22/00 05:40:31  5-MIN KMKG 221040Z 00000KT 10SM CLR 01/M03 A2989 660 75 -900 000/00 RMK AO2
14840KMKG MKG20000422054509404/22/00 05:45:31  5-MIN KMKG 221045Z 31003KT 10SM CLR 02/M03 A2989 660 72 -700 310/03 RMK AO2
14840KMKG MKG20000422055011104/22/00 05:50:31  5-MIN KMKG 221050Z 32003KT 10SM CLR 01/M03 A2989 660 75 -800 320/03 RMK AO2 SLP126 T00111028
14840KMKG MKG20000422055511104/22/00 05:55:31  5-MIN KMKG 221055Z 00000KT 10SM CLR 00/M03 A2989 660 81 -900 000/00 RMK AO2 SLP127 T00001028
14840KMKG MKG20000422060009404/22/00 06:00:31  5-MIN KMKG 221100Z 29003KT 10SM CLR 00/M03 A2990 650 81 -900 290/03 RMK AO2
14840KMKG MKG20000422060509404/22/00 06:05:31  5-MIN KMKG 221105Z 00000KT 10SM CLR 00/M03 A2990 650 81 -900 000/00 RMK AO2
14840KMKG MKG20000422061009604/22/00 06:10:31  5-MIN KMKG 221110Z 00000KT 10SM CLR M02/M03 A2990 650 92 -1100 000/00 RMK AO2
14840KMKG MKG20000422061509604/22/00 06:15:31  5-MIN KMKG 221115Z 32003KT 10SM CLR M01/M03 A2990 650 88 -1100 320/03 RMK AO2
14840KMKG MKG20000422062009604/22/00 06:20:31  5-MIN KMKG 221120Z 29004KT 10SM CLR M01/M02 A2990 640 88 -1000 300/04 RMK AO2
14840KMKG MKG20000422062510504/22/00 06:25:31  5-MIN KMKG 221125Z 29004KT 10SM CLR M01/M02 A2991 640 92 -1100 2 88-700 000/00 RMK AO2
14840KMKG MKG20000422070509304/22/00 07:05:31  5-MIN KMKG 221205Z 00000KT 10SM CLR 03/01 A2991 640 85 -600 000/00 RMK AO2
14840KMKG MKG20000422071009304/22/00 07:10:31  5-MIN KMKG 221210Z 00000KT 10SM CLR 04/01 A2991 640 82 -500 000/00 RMK AO2
14840KMKG MKG20000422071508504/22/00 07:15:31  5-MIN2 1315Z 34003KT 10SM CLR 08/00 A2991 640 55 0  350/03 RMK AO2
14840KMKG MKG20000422082009104/22/00 08:20:31  5-MIN KMKG 221320Z 31003KT 10SM CLR 08/M01 A2991 640 55 0 320/03 RMK AO2
14840KMKG MKG20000422082508304/22/00 08:25:31  5-MIN KMKG 221325Z 32003KT 10SM CLR 08/M01 A2991 640 51 0 330/03
14840KMKG MKG20000422093509304/22/00 09:35:31  5-MIN KMKG 221435Z VRB04KT 10SM CLR 11/M02 A2990 640 42 300 VRB/04 RMK AO2
14840KMKG MKG20000422094009304/22/00 09:40:31  5-MIN KMKG 221440Z VRB03KT 10SM CLR 11/M01 A2990 650 44 400 VRB/03 RMK AO2
14840KMKG MKG20000422094515804/22/00 09:45:31  5-MIN KMKG 221445Z VRB03KT 1004/22/00 10:50:31  5-MIN KMKG 221550Z 27008KT 10SM CLR 11/M03 A2990 650 37 400 280/08 RMK AO2 SLP129 T01111028
14840KMKG MKG20000422105511004/22/00 10:55:31  5-MIN KMKG 221555Z 27009KT 10SM CLR 12/M02 A2990 650 38 400 270/09 RMK AO2 SLP128 T01171022
14840KMKG MKG20000422110009304/22/00 11:00:31  5-MIN KMKG 221705Z 28009KT 10SM CLR 12/M03 A2989 650 35 500 290/09 RMK AO2
14840KMKG MKG20000422121009304/22/00 12:10:31  5-MIN KMKG 221710Z 28010KT 10SM CLR 12/M03 A2989 660 35 500 280/10 RMK AO2
14840KMKG MKG20000422121509304/22/00 12:15:31  5-MIN KMKG 221715Z 29009KT 10SM CLR 12/M02 A2989 660 36 500 290/09 RMK AO2
14840KMKG MKG20000422122003404/22/00 12:20:31  5-MIN KMKG 2238
14840KMKG MKG20000422133509304/22/00 13:35:31  5-MIN KMKG 221835Z 27011KT 10SM CLR 11/M02 A2988 670 41 400 280/11 RMK AO2
14840KMKG MKG20000422134009304/22/00 13:40:31  5-MIN KMKG 221840Z 27012KT 10SM CLR 12/M01 A2988 670 41 500 280/12 RMK AO2
14840KMKG MKG20000422134515804/22/00 13:45:31  5-MIN KMKG 221845Z 26012KT 1004/22/00 14:55:31  5-MIN KMKG 221955Z 30011KT 10SM CLR 12/M03 A2986 690 33 600 310/11 RMK AO2 SLP114 T01221033
14840KMKG MKG20000422150009304/22/00 15:00:31  5-MIN KMKG 222000Z 28009KT 10SM CLR 12/M03 A2985 690 33 600 290/09 RMK AO2
14840KMKG MKG20000422150503404/22/00 15:05:31  5-MIN KMKG 22O2
14840KMKG MKG20000422161009304/22/00 16:10:31  5-MIN KMKG 222110Z 29010KT 10SM CLR 13/M04 A2984 710 30 700 290/10 RMK AO2
14840KMKG MKG20000422161513304/22/00 16:15:31  5-MIN KMKG 222115Z 29009KT 10SM CLR 11  5-MIN KMKG 222215Z 27008KT 10SM CLR 12/M04 A2983 710 32 600 270/08 RMK AO2
14840KMKG MKG20000422162009304/22/00 16:20:31  5-MIN KMKG 222120Z 29009KT 10SM CLR 12/M04 A2983 710 31 600 290/09 RMK AO2
14840KMKG MKG20000422162509304/22/00 16:25:31  5-MIN KMKG 222125Z 27007KT 10SM CLR 13/M04 A2983 710 30 700 280/07 RMK AO2
14840KMKG MKG20000422163009304/22/00 16:30:31  5-MIN KMKG 222130Z 28006KT 10SM CLR 13/M04 A2983 710 30 700 290/06 RMK AO2
14840KMKG MKG20000422163509304/22/00 16:35:31  5-MIN KMKG 222135Z 28007KT 10SM CLR 13/M04 A2983 710 28 700 280/07 RMK AO2
14840KMKG MKG20000422164009304/22/00 16:40:31  5-MIN KMKG 222140Z 27007KT 10SM CLR 13/M04 A2983 710 28 700 280/07 RMK AO2
14840KMKG MKG20000422164509304/22/00 16:45:31  5-MIN KMKG 222145Z 26007KT 10SM CLR 13/M04 A2983 710 28 700 260/07 RMK AO2
14840KMKG MKG20000422165011004/22/00 16:50:31  5-MIN KMKG 222150Z 27008KT 10SM CLR 13/M03 A2983 710 31 700 280/08 RMK AO2 SLP106 T01331033
14840KMKG MKG20000422165511004/22/00 16:55:31  5-MIN KMKG 222155Z 27007KT 10SM CLR 13/M04 A2983 710 30 700 270/07 RMK AO2 SLP106 T01331039
14840KMKG MKG20000422170009304/22/00 17:00:31  5-MIN KMKG 222200Z 27007KT 10SM CLR 13/M04 A2983 710 31 700 280/07 RMK AO2
14840KMKG MKG20000422170509304/22/00 17:05:31  5-MIN KMKG 222205Z 27008KT 10SM CLR 13/M04 A2983 710 31 700 270/08 RMK AO2
14840KMKG MKG20000422171009304/22/00 17:10:31  5-MIN KMKG 222210Z 27008KT 10SM CLR 13/M04 A2983 710 31 700 270/08 RMK AO2
14840KMKG MKG20000422171509304/22/00 17:15:31  5-MIN KMKG 222215Z 27008KT 10SM CLR 12/M04 A2983 710 32 600 270/08 RMK AO2
14840KMKG MKG20000422172009304/22/00 17:20:31  5-MIN KMKG 222220Z 26008KT 10SM CLR 12/M03 A2984 710 33 600 270/08 RMK AO2
14840KMKG MKG20000422172509304/22/00 17:25:31  5-MIN KMKG 222225Z 27007KT 10SM CLR 12/M02 A2984 710 38 500 270/07 RMK AO2
14840KMKG MKG20000422173009304/22/00 17:30:31  5-MIN KMKG 222230Z 27007KT 10SM CLR 12/M02 A2983 710 38 500 270/07 RMK AO2
14840KMKG MKG20000422173512804/22/00 17:35:31  5-MIN KMKG 222235Z 26006KT 10SM CLR 11/M02 A2984 710 39 500 270/SM CLR 11/M02 A2984 710 39 400 290/07 RMK AO2
14840KMKG MKG20000422175011004/22/00 17:50:31  5-MIN KMKG 222250Z 27007KT 10SM CLR 11/M02 A2984 700 39 400 280/07 RMK AO2 SLP109 T01111022
14840KMKG MKG20000422175513004/22/00 17:55:31  5-MIN KMKG 222255Z 26007KT 10SM CLR 11/M02 A2984 700 39 O2300 260/04 RMK AO2 SLP107 T00941022 10133 20094 56001
14840KMKG MKG20000422190009304/22/00 19:00:31  5-MIN KMKG 230000Z 25004KT 10SM CLR 09/M02 A2983 710 45 200 260/04 RMK AO2
14840KMKG MKG20000422190508504/22/00 19:05:31  5-MIN KMKG 230005Z 24004KT 10SM CLR 08/M01 A2983 710 51 100 240/O2
14840KMKG MKG20000422202509304/22/00 20:25:31  5-MIN KMKG 230125Z 00000KT 10SM CLR 06/01 A2983 710 70 -200 000/00 RMK AO2
14840KMKG MKG20000422203009304/22/00 20:30:31  5-MIN KMKG 230130Z 00000KT 10SM CLR 05/01 A2983 710 76 -200 000/00 RMK AO2
14840KMKG MKG20000422203507704/22/00 20:35:31  5-MIN KMKG 230135Z 00000KT 1084 710 79 -300 000/00 RMK AO2
14840KMKG MKG20000422214509304/22/00 21:45:31  5-MIN KMKG 230245Z 00000KT 10SM CLR 03/01 A2984 700 82 -500 000/00 RMK AO2
14840KMKG MKG20000422215013404/22/00 21:50:31  5-MIN KMKG 230250Z 00000KT 10SM CLR 03/01 A2984 700 82 -500 000/00 RMK AO2 SLP109 T00330006 560AO2 SLP110 T00220006
14840KMKG MKG20000422230009304/22/00 23:00:31  5-MIN KMKG 230400Z 00000KT 10SM CLR 02/01 A2985 700 92 -700 000/00 RMK AO2
14840KMKG MKG20000422230509304/22/00 23:05:31  5-MIN KMKG 230405Z 00000KT 10SM CLR 02/01 A2985 700 92 -700 000/00 RMK AO2
14840KMKG MKG20000422232009304/22/00 23:20:31  5-MIN KMKG 230420Z 00000KT 10SM CLR 02/01 A2985 690 92 -700 000/00 RMK AO2
14840KMKG MKG20000422232509304/22/00 23:25:31  5-MIN KMKG 230425Z 00000KT 10SM CLR 02/00 A2986 690 89 -700 000/00 RMK AO2
14840KMKG MKG20000422233004304/22/00 23:30:31  5-MIN-800 000/00 RMK AO2
14840KMKG MKG20000423003509304/23/00 00:35:31  5-MIN KMKG 230535Z 00000KT 10SM CLR 01/00 A2987 680 92 -800 000/00 RMK AO2
14840KMKG MKG20000423004009304/23/00 00:40:31  5-MIN KMKG 230540Z 00000KT 10SM CLR 02/01 A2987 680 92 -700 000/00 RMK AO2
14840KMKG MKG20000423004502504/23/00 00:45:31  5-MIN9
14840KMKG MKG20000423014509604/23/00 01:45:31  5-MIN KMKG 230645Z 36003KT 10SM SCT110 05/01 A2988 670 76 -300 360/03 RMK AO2
14840KMKG MKG20000423015011304/23/00 01:50:31  5-MIN KMKG 230650Z 33005KT 10SM SCT110 05/02 A2988 660 79 -300 330/05 RMK AO2 SLP123 T00500017
14840KMKG MKG20000423015502504/23/00 01:55:31  5-MIN0
14840KMKG MKG20000423025511304/23/00 02:55:31  5-MIN KMKG 230755Z 00000KT 10SM OVC100 06/01 A2988 670 70 -200 000/00 RMK AO2 SLP120 T00560006
14840KMKG MKG20000423030009604/23/00 03:00:31  5-MIN KMKG 230800Z 00000KT 10SM OVC100 06/01 A2988 670 67 -200 000/00 RMK AO2
14840KMKG MKG20000423030509604/23/00 03:05:31  5-MIN KMKG 230805Z 00000KT 10SM OVC100 06/01 A2988 660 73 -200 000/00 RMK AO2
14840KMKG MKG20000423031009604/23/00 03:10:31  5-MIN KMKG 230810Z 00000KT 10SM OVC095 06/01 A2988 660 73 -200 000/00 RMK AO2
14840KMKG MKG20000423031509604/23/00 03:15:31  5-MIN KMKG 230815Z 00000KT 10SM OVC095 05/02 A2988 660 82 -300 000/00 RMK AO2
14840KMKG MKG20000423032009604/23/00 03:20:31  5-MIN KMKG 230820Z 00000KT 10SM OVC090 05/02 A2989 660 82 -300 000/00 RMK AO2
14840KMKG MKG20000423032509604/23/00 03:25:31  5-MIN KMKG 230825Z 29003KT 10SM OVC090 04/03 A2989 660 89 -400 290/03 RMK AO2
14840KMKG MKG20000423033009604/23/00 03:30:31  5-MIN KMKG 230830Z 00000KT 10SM OVC090 05/03 A2988 660 85 -300 000/00 RMK AO2
14840KMKG MKG20000423033510304/23/00 03:35:31  5-MIN KMKG 230835Z 00000KT 10SM BKN090 OVC110 05/03 A2989 660 85 -300 000/00 RMK AO2
14840KMKG MKG20000423034010304/23/00 03:40:31  5-MIN KMKG 230840Z 29005KT 10SM BKN090 OVC110 05/03 A2989 660 85 -300 300/05 RMK AO2
14840KMKG MKG20000423034510304/23/00 03:45:31  5-MIN KMKG 230845Z 31005KT 10SM BKN100 OVC110 06/01 A2989 660 70 -200 310/05 RMK AO2
14840KMKG MKG20000423035012604/23/00 03:50:31  5-MIN KMKG 230850Z 32006KT 10SM BKN100 OVC110 06/01 A2989 660 70 -200 320/06 RMK AO2 SLP124 T00610011 53011
14840KMKG MKG20000423035512604/23/00 03:55:31  5-MIN KMKG 230855Z 32005KT 10SM BKN095 OVC110 06/02 A2989 660 73 -200 330/05 RMK AO2 SLP124 T00610017 53004
14840KMKG MKG20000423040009604/23/00 04:00:31  5-MIN KMKG 230900Z 33004KT 10SM OVC095 06/02 A2989 660 73 -200 330/04 RMK AO2
14840KMKG MKG20000423040509604/23/00 04:05:31  5-MIN KMKG 230905Z 32003KT 10SM OVC090 06/02 A2989 660 73 -200 320/03 RMK AO2
14840KMKG MKG20000423041009604/23/00 04:10:31  5-MIN KMKG 230910Z 00000KT 10SM OVC090 06/02 A2989 660 73 -200 000/00 RMK AO2
14840KMKG MKG20000423041509604/23/00 04:15:31  5-MIN KMKG 230915Z 32003KT 10SM OVC090 06/02 A2989 660 73 -200 330/03 RMK AO2
14840KMKG MKG20000423042009604/23/00 04:20:31  5-MIN KMKG 230920Z 01003KT 10SM OVC085 06/02 A2989 660 73 -200 010/03 RMK AO2
14840KMKG MKG20000423042509604/23/00 04:25:31  5-MIN KMKG 230925Z 03003KT 10SM OVC085 06/02 A2989 660 76 -200 030/03 RMK AO2
14840KMKG MKG20000423043009604/23/00 04:30:31  5-MIN KMKG 230930Z 34003KT 10SM OVC085 06/02 A2988 660 73 -200 340/03 RMK AO2
14840KMKG MKG20000423043509604/23/00 04:35:31  5-MIN KMKG 230935Z 33005KT 10SM OVC080 06/02 A2988 670 76 -200 330/05 RMK AO2
14840KMKG MKG20000423044009604/23/00 04:40:31  5-MIN KMKG 230940Z 35003KT 10SM OVC075 06/02 A2988 660 76 -200 350/03 RMK AO2
14840KMKG MKG20000423044510304/23/00 04:45:31  5-MIN KMKG 230945Z 00000KT 10SM BKN075 OVC095 06/02 A2989 660 76 -200 000/00 RMK AO2
14840KMKG MKG20000423045013504/23/00 04:50:31  5-MIN KMKG 230950Z 00000KT 10SM SCT075 OVC090 06/02 A2989 660 76 -200 000/00 RMK AO2 CIG 070 RWY 14 SLP125 T00610022
14840KMKG MKG20000423045512004/23/00 04:55:31  5-MIN KMKG 230955Z 36004KT 10SM SCT075 OVC090 07/02 A2989 660 73 -100 360/04 RMK AO2 SLP123 T00670022
14840KMKG MKG20000423050010304/23/00 05:00:31  5-MIN KMKG 231000Z 33006KT 10SM FEW070 OVC090 07/02 A2989 660 70 -100 330/06 RMK AO2
14840KMKG MKG20000423050510304/23/00 05:05:31  5-MIN KMKG 231005Z 33007KT 10SM FEW075 OVC090 07/02 A2989 660 70 -100 340/07 RMK AO2
14840KMKG MKG20000423061009604/23/00 06:10:31  5-MIN KMKG 231110Z 16003KT 10SM OVC080 06/03 A2989 650 79 -200 160/03 RMK AO2
14840KMKG MKG20000423061509604/23/00 06:15:31  5-MIN KMKG 231115Z 17003KT 10SM OVC080 06/03 A2990 650 79 -200 170/03 RMK AO2
14840KMKG MKG20000423062004104/23/00 06:20:31  5-MIN KMKG 231120Z 190
14840KMKG MKG20000423073009304/23/00 07:30:31  5-MIN KMKG 231230Z 00000KT 10SM BKN060 08/04 A2993 620 76 0 000/00 RMK AO2
14840KMKG MKG20000423073510004/23/00 07:35:31  5-MIN KMKG 231235Z VRB03KT 10SM SCT050 BKN065 08/03 A2993 620 73 0 VRB/03 RMK AO2
14840KMKG MKG20000423085012604/23/00 08:50:31  5-MIN KMKG 231350Z 00000KT 10SM -RA BKN070 08/04 A2996 590 73 0 000/00 RMK AO2 RAB27 SLP149 P0000 T00830039
14840KMKG MKG20000423085510904/23/00 08:55:31  5-MIN KMKG 231355Z 36003KT 10SM BKN070 08/04 A2996 590 73 0 360/03 RMK AO2 RAB27E53 SLP039
14840KMKG MKG20000423095014104/23/00 09:50:31  5-MIN KMKG 231450Z 08005KT 10SM OVC070 09/05 A2995 610 76 100 090/05 RMK AO2 RAB1359E26 SLP145 P0000 60000 T00890050 53009
14840KMKG MKG20000423095509304/23/00 09:55:31  5-MIN KMKG 231455Z 08004KT 10SM OVC070 09/05 A2995 600 76 100 080/04 RM011
14840KMKG MKG20000423105011204/23/00 10:50:31  5-MIN KMKG 231550Z 16003KT 10SM OVC075 10/06 A2996 600 74 200 170/03 RMK AO2 SLP149 T01000056
14840KMKG MKG20000423111509504/23/00 11:15:31  5-MIN KMKG 231615Z 00000KT 10SM OVC070 10/05 A2996 600 71 200 000/00 RMK AO2
14840KMKG MKG20000423112009504/23/00 11:20:31  5-MIN KMKG 231620Z 00000KT 10SM OVC070 11/05 A2995 600 68 200 000/00 RMK AO2
14840KMKG MKG20000423112506204/23/00 11:25:31  5-MIN68 300 000/00 RMK AO2 SLP145 T01110056
14840KMKG MKG20000423115511204/23/00 11:55:31  5-MIN KMKG 231655Z 00000KT 10SM OVC085 11/06 A2994 610 71 300 000/00 RMK AO2 SLP144 T01110061
14840KMKG MKG20000423120014504/23/00 12:00:31  5-MIN KMKG 231700Z 00000KT 10SM OVC085 12/06 A2994 610 68 400 0066 500 080/04 RMK AO2 SLP141 60000 T01220061 10128 20061 58004
14840KMKG MKG20000423130009504/23/00 13:00:31  5-MIN KMKG 231800Z 07006KT 10SM OVC090 13/06 A2993 620 63 500 070/06 RMK AO2
14840KMKG MKG20000423130511804/23/00 13:05:31  5-MIN KMKG 231805Z 08005KT 10SM OVC090 12/06 A2994 620 K AO20 13/06 A2993 620 63 500 090/07 RMK AO2
14840KMKG MKG20000423135011204/23/00 13:50:31  5-MIN KMKG 231850Z VRB05KT 10SM BKN090 13/06 A2994 620 63 500 VRB/05 RMK AO2 SLP140 T01280061
14840KMKG MKG20000423135507304/23/00 13:55:31  5-MIN KMKG 231855Z 11007KT 10SM BKN090 13/06 A2994 610
14840KMKG MKG20000423145011904/23/00 14:50:31  5-MIN KMKG 231950Z 00000KT 10SM FEW045 BKN095 13/06 A2994 610 61 500 000/00 RMK AO2 SLP140 T01280056
14840KMKG MKG20000423145502604/23/00 14:55:31  5-MIN 0
14840KMKG MKG20000423155512504/23/00 15:55:31  5-MIN KMKG 232055Z 27005KT 10SM FEW045 BKN100 12/05 A2993 620 63 400 280/05 RMK AO2 SLP139 T01170050 58001
14840KMKG MKG20000423160010204/23/00 16:00:31  5-MIN KMKG 232100Z 28005KT 10SM FEW045 BKN100 12/05 A2993 620 63 400 280/05 RMK AO2
14840KMKG MKG20000423170509504/23/00 17:05:31  5-MIN KMKG 232205Z 25004KT 10SM BKN110 11/04 A2994 620 61 300 250/04 RMK AO2
14840KMKG MKG20000423171009504/23/00 17:10:31  5-MIN KMKG 232210Z 26003KT 10SM BKN110 11/04 A2994 610 61 300 270/03 RMK AO2
14840KMKG MKG20000423171509504/23/00 17:15:31  5-MIN KMKG 232215Z 26004KT 10SM SCT110 11/04 A2994 610 63 300 270/04 RMK AO2
14840KMKG MKG20000423172009504/23/00 17:20:31  5-MIN KMKG 232220Z 26003KT 10SM SCT110 11/04 A2994 610 61 300 260/03 RMK AO2
14840KMKG MKG20000423172504104/23/00 17:25:31  5-MIN KMKG 232225Z 240
14840KMKG MKG20000423183509504/23/00 18:35:31  5-MIN KMKG 232335Z 29005KT 10SM SCT110 11/04 A2994 620 61 300 290/05 RMK AO2
14840KMKG MKG20000423184009504/23/00 18:40:31  5-MIN KMKG 232340Z 28005KT 10SM SCT110 11/04 A2994 610 61 300 290/05 RMK AO2
14840KMKG MKG20000423184516004/23/00 18:45:31  5-MIN KMKG 232345Z 28005KT 1004/23/00 19:50:31  5-MIN KMKG 240050Z 27004KT 10SM SCT120 11/04 A2995 610 63 300 280/04 RMK AO2 SLP144 T01060039
14840KMKG MKG20000423195512204/23/00 19:55:31  5-MIN KMKG 240055Z 29004KT 10SM BKN120 10/04 A2995 600 68 200 290/04 RMK AO2 SLP144 T01000044 04/23/000
14840KMKG MKG20000423210509504/23/00 21:05:31  5-MIN KMKG 240205Z 32005KT 10SM BKN120 10/04 A2997 590 68 200 320/05 RMK AO2
14840KMKG MKG20000423211009504/23/00 21:10:31  5-MIN KMKG 240210Z 32004KT 10SM SCT110 10/04 A2997 590 68 200 320/04 RMK AO2
14840KMKG MKG20000423215011604/23/00 21:50:31  5-MIN KMKG 240250Z 35005KT 10SM SCT120 09/04 A2998 580 73 0 350/05 RMK AO2 SLP154 T00890044 53003
14840KMKG MKG20000423215502504/23/00 21:55:31  5-MIN0
14840KMKG MKG20000423224509604/23/00 22:45:31  5-MIN KMKG 240345Z 34005KT 10SM BKN120 07/03 A2997 580 79 -200 340/05 RMK AO2
14840KMKG MKG20000423225011304/23/00 22:50:31  5-MIN KMKG 240350Z 34004KT 10SM BKN120 06/03 A2997 580 82 -300 350/04 RMK AO2 SLP153 T00560028
14840KMKG MKG20000424000009304/24/00 00:00:31  5-MIN KMKG 240500Z 03005KT 10SM CLR 07/03 A2997 580 76 -100 040/05 RMK AO2
14840KMKG MKG20000424000509304/24/00 00:05:31  5-MIN KMKG 240505Z 03004KT 10SM CLR 07/03 A2997 580 79 -200 030/04 RMK AO2
14840KMKG MKG20000424001007204/24/00 00:10:31  5-MIN KMKG 240510Z 02004KT 106 89 -500 000/00 RMK AO2
14840KMKG MKG20000424011509604/24/00 01:15:31  5-MIN KMKG 240615Z 00000KT 10SM FEW120 04/03 A2998 580 89 -500 000/00 RMK AO2
14840KMKG MKG20000424012009604/24/00 01:20:31  5-MIN KMKG 240620Z 00000KT 10SM FEW120 04/03 A2998 580 89 -500 000/00 RMK AO2
14840KMKG MKG20000424012509604/24/00 01:25:31  5-MIN KMKG 240625Z 00000KT 10SM FEW120 04/03 A2998 580 89 -500 000/00 RMK AO2
14840KMKG MKG20000424013009604/24/00 01:30:31  5-MIN KMKG 240630Z 35003KT 10SM FEW120 04/03 A2998 580 89 -500 350/03 RMK AO2
14840KMKG MKG20000424013509304/24/00 01:35:31  5-MIN KMKG 240635Z 36004KT 10SM CLR 05/03 A2998 580 89 -400 360/04 RMK AO2
14840KMKG MKG20000424014009304/24/00 01:40:31  5-MIN KMKG 240640Z 02003KT 10SM CLR 06/03 A2998 580 85 -300 030/03 RMK AO2
14840KMKG MKG20000424014509304/24/00 01:45:31  5-MIN KMKG 240645Z 00000KT 10SM CLR 04/03 A2998 580 89 -500 000/00 RMK AO2
14840KMKG MKG20000424015011004/24/00 01:50:31  5-MIN KMKG 240650Z 00000KT 10SM CLR 05/03 A2997 580 85 -400 000/00 RMK AO2 SLP153 T00500028
14840KMKG MKG20000424015511304/24/00 01:55:31  5-MIN KMKG 240655Z 05003KT 10SM FEW120 05/03 A2997 580 85 -400 050/03 RMK AO2 SLP153 T00500028
14840KMKG MKG20000424020009604/24/00 02:00:31  5-MIN KMKG 240700Z 00000KT 10SM SCT120 05/03 A2998 580 85 -400 000/00 RMK AO2
14840KMKG MKG20000424020509604/24/00 02:05:31  5-MIN KMKG 240705Z 00000KT 10SM SCT120 06/03 A2998 580 85 -300 000/00 RMK AO2
14840KMKG MKG20000424021009604/24/00 02:10:31  5-MIN KMKG 240710Z 00000KT 10SM SCT120 06/03 A2998 580 85 -300 000/00 RMK AO2
14840KMKG MKG20000424021509604/24/00 02:15:31  5-MIN KMKG 240715Z 16003KT 10SM SCT120 06/03 A2998 580 85 -300 160/03 RMK AO2
14840KMKG MKG20000424022009604/24/00 02:20:31  5-MIN KMKG 240720Z 00000KT 10SM SCT120 04/03 A2998 580 92 -500 000/00 RMK AO2
14840KMKG MKG20000424022509604/24/00 02:25:31  5-MIN KMKG 240725Z 00000KT 10SM SCT120 04/03 A2998 580 89 -500 000/00 RMK AO2
14840KMKG MKG20000424023009604/24/00 02:30:31  5-MIN KMKG 240730Z 00000KT 10SM SCT120 04/02 A2998 580 89 -500 000/00 RMK AO2
14840KMKG MKG20000424023509604/24/00 02:35:31  5-MIN KMKG 240735Z 00000KT 10SM SCT120 04/03 A2998 580 89 -500 000/00 RMK AO2
14840KMKG MKG20000424024009604/24/00 02:40:31  5-MIN KMKG 240740Z 00000KT 10SM SCT120 04/03 A2998 580 89 -500 000/00 RMK AO2
14840KMKG MKG20000424024509604/24/00 02:45:31  5-MIN KMKG 240745Z 00000KT 10SM FEW120 04/03 A2998 580 89 -500 000/00 RMK AO2
14840KMKG MKG20000424025011304/24/00 02:50:31  5-MIN KMKG 240750Z 00000KT 10SM FEW120 04/03 A2998 580 92 -500 000/00 RMK AO2 SLP155 T00390028
14840KMKG MKG20000424025519904/24/00 02:55:31  5-MIN KMKG 240755Z 00000KT 10SM FEW120 05/03 A2998 580 85 -400 000/00 RMK AO2 SLP154 T00500028 04/24/00 03:00:3 KMKG 240845Z 00000KT 10SM CLR 05/03 A2998 580 89 -400 000/00 RMK AO2
14840KMKG MKG20000424035011604/24/00 03:50:31  5-MIN KMKG 240850Z 00000KT 10SM CLR 04/03 A2998 580 89 -500 000/00 RMK AO2 SLP156 T00440028 55000
14840KMKG MKG20000424035504904/24/00 03:55:31  5-MIN KMKG 240855Z 00000KT 102
14840KMKG MKG20000424044509304/24/00 04:45:31  5-MIN KMKG 240945Z 03006KT 10SM CLR 06/02 A2999 570 79 -300 030/06 RMK AO2
14840KMKG MKG20000424045011104/24/00 04:50:31  5-MIN KMKG 240950Z 03006KT 10SM CLR 06/02 A299 SM CLR 07/01 A3000 550 65 -200 060/08 RMK AO2
14840KMKG MKG20000424055011004/24/00 05:50:31  5-MIN KMKG 241050Z 05008KT 10SM CLR 07/01 A3000 550 65 -200 060/08 RMK AO2 SLP163 T00720011
14840KMKG MKG20000424055507504/24/00 05:55:31  5-MIN KMKG 241055Z 05007KT 10SM CLR 07/01 A3000 550 65 5
14840KMKG MKG20000424071009004/24/00 07:10:31  5-MIN KMKG 241210Z 07010KT 10SM CLR 09/01 A3003 530 56 0 080/10 RMK AO2
14840KMKG MKG20000424071509004/24/00 07:15:31  5-MIN KMKG 241215Z 07010KT 10SM CLR 09/01 A3003 530 56 0 070/10 RMK AO2
14840KMKG MKG20000424072014804/24/00 07:20:31  5-MIN KMKG 241220Z 07011KT 10SM CLR 004/24/00 08:30:31  5-MIN KMKG 241330Z 09010KT 10SM CLR 13/02 A3004 520 48 400 100/10 RMK AO2
14840KMKG MKG20000424083509204/24/00 08:35:31  5-MIN KMKG 241335Z 09009KT 10SM CLR 13/02 A3004 520 48 400 100/09 RMK AO2
14840KMKG MKG20000424084009204/24/00 08:40:31  5-MIN KMKG 241340Z 08010KT 10SM CLR 13/02 A3004 520 48 400 090/10 RMK AO2
14840KMKG MKG20000424084509204/24/00 08:45:31  5-MIN KMKG 241345Z 09009KT 10SM CLR 13/02 A3004 520 46 500 100/09 RMK AO2
14840KMKG MKG20000424085012404/24/00 08:50:31  5-MIN KMKG 2404/24/00 10:00:31  5-MIN KMKG 241500Z 10009KT 10SM CLR 16/02 A3004 520 39 800 110/09 RMK AO2
14840KMKG MKG20000424100509204/24/00 10:05:31  5-MIN KMKG 241505Z 04007KT 10SM CLR 16/03 A3004 520 40 800 050/07 RMK AO2
14840KMKG MKG20000424101006104/24/00 10:10:31  5-MIN KMKG 241510Z 04007KT 100 /11 RMK AO2
14840KMKG MKG20000424112509304/24/00 11:25:31  5-MIN KMKG 241625Z 09010KT 10SM CLR 18/02 A3004 520 35 1000 090/10 RMK AO2
14840KMKG MKG20000424113009304/24/00 11:30:31  5-MIN KMKG 241630Z 06011KT 10SM CLR 18/02 A3004 520 35 1000 070/11 RMK AO2
14840KMKG MKG20000424113508904/24/00 11:35:31  5-MIN KMKG 245 2010KT 10SM CLR 18/M01 A3003 530 27 1100 060/10 RMK AO2
14840KMKG MKG20000424124009304/24/00 12:40:31  5-MIN KMKG 241740Z 05008KT 10SM CLR 19/00 A3003 530 28 1200 050/08 RMK AO2
14840KMKG MKG20000424124510904/24/00 12:45:31  5-MIN KMKG 241745Z 36008KT 330V040 10SM CLR 19/01 A3002 530 29 1200 010/08 330V040 RMK AO2
14840KMKG MKG20000424125014404/24/00 12:50:31  5-MIN KMKG 241750Z 07011KT 030V090 10SM CLR 19/01 A3002 540 29 1200 070/11 030V090 RMK AO2 SLP168 T01890006 10194 20089 51004
14840KMKG MKG20000424125512804/24/00 12:55:31  5-MIN KMKG 241755Z 05010KT 10SM CLR 19/01 A3002 540 29 1200 050/10 RMK AO2 SLP168 T01940011 10194 20089 58006
14840KMKG MKG20000424130009304/24/00 13:00:31  5-MIN KMKG 241800Z 03011KT 10SM CLR 19/01 A3002 540 29 1200 030/11 RMK AO2
14840KMKG MKG20000424130509904/24/00 13:05:31  5-MIN KMKG 241805Z VRB05G15KT 10SM CLR 19/00 A3002 540 28 1200 VRB/05G15 RMK AO2
14840KMKG MKG20000424131009904/24/00 13:10:31  5-MIN KMKG 241810Z 35007G15KT 10SM CLR 19/00 A3002 540 28 1200 350/07G15 RMK AO2
14840KMKG MKG20000424131509904/24/00 13:15:31  5-MIN KMKG 241815Z 03010G15KT 10SM CLR 19/00 A3002 540 28 1200 030/10G15 RMK AO2
14840KMKG MKG20000424132009904/24/00 13:20:31  5-MIN KMKG 241820Z 02011G15KT 10SM CLR 19/00 A3002 540 27 1200 020/11G15 RMK AO2
14840KMKG MKG20000424132509404/24/00 13:25:31  5-MIN KMKG 241825Z 05013KT 10SM CLR 19/M01 A3002 540 26 1200 050/13 RMK AO2
14840KMKG MKG20000424133009404/24/00 13:30:31  5-MIN KMKG 241830Z 03007KT 10SM CLR 19/M01 A3001 540 26 1200 030/07 RMK AO2
14840KMKG MKG20000424133510004/24/00 13:35:31  5-MIN KMKG 241835Z 02010G16KT 10SM CLR 19/M01 A3001 540 25 1200 020/10G16 RMK AO2
14840KMKG MKG20000424134010004/24/00 13:40:31  5-MIN KMKG 241840Z 01009G16KT 10SM CLR 19/M02 A3001 550 24 1200 020/09G16 RMK AO2
14840KMKG MKG20000424134510004/24/00 13:45:31  5-MIN KMKG 241845Z 03008G15KT 10SM CLR 19/M02 A3001 550 23 1200 030/08G15 RMK AO2
14840KMKG MKG20000424135011704/24/00 13:50:31  5-MIN KMKG 241850Z 36012G16KT 10SM CLR 19/M02 A3001 550 23 1200 010/12G16 RMK AO2 SLP164 T01941022
14840KMKG MKG20000424135511704/24/00 13:55:31  5-MIN KMKG 241855Z 35009G16KT 10SM CLR 19/M01 A3001 550 25 1200 360/09G16 RMK AO2 SLP164 T01941011
14840KMKG MKG20000424140010004/24/00 14:00:31  5-MIN KMKG 241900Z 36013G17KT 10SM CLR 19/M02 A3001 550 23 1200 360/13G17 RMK AO2
14840KMKG MKG20000424140510004/24/00 14:05:31  5-MIN KMKG 241905Z 35006G17KT 10SM CLR 19/M02 A3001 550 24 1200 350/06G17 RMK AO2
14840KMKG MKG20000424141012304/24/00 14:10:31  5-MIN KMKG 241910Z 01007KT 340V050 10SM CLR 20/M02 A3000 550 23 1300 020/07 340VAO2 AO2 SLP158 T02001028
14840KMKG MKG20000424145511704/24/00 14:55:31  5-MIN KMKG 241955Z 10008G23KT 10SM CLR 20/M02 A2998 570 23 1300 100/08G23 RMK AO2 SLP155 T02001017
14840KMKG MKG20000424150007404/24/00 15:00:31  5-MIN KMKG 242000Z 05009G23KT 10SM CLR 21/M01 A2999 570
14840KMKG MKG20000424161011804/24/00 16:10:31  5-MIN KMKG 242110Z 07009G30KT 10SM CLR 20/M01 A2998 580 25 1300 070/09G30 RMK AO2 PK WND 09030/2101
14840KMKG MKG20000424172009404/24/00 17:20:31  5-MIN KMKG 242220Z 11008KT 10SM CLR 19/M01 A2997 580 26 1200 110/08 RMK AO2
14840KMKG MKG20000424172509404/24/00 17:25:31  5-MIN KMKG 242225Z 10008KT 10SM CLR 19/M01 A2997 580 26 1200 100/08 RMK AO2
14840KMKG MKG20000424173010004/24/00 17:30:31  5-MIN KMKG 242230Z 10010KT 10010KT 10SM CLR 17/M02 A2998 570261000 110/10 RMK AO2
14840KMKG MKG20000424184509404/24/00 18:45:31  5-MIN KMKG 242345Z 11012KT 10SM CLR 17/M02 A2999 570 26 1000 110/12 RMK AO2
14840KMKG MKG20000424185007404/24/00 18:50:31  5-MIN KMKG 242350Z 10010KT 10SM CLR 17/M03 A2999 570 25
14840KMKG MKG20000424193009304/24/00 19:30:31  5-MIN KMKG 250030Z 09008KT 10SM CLR 16/M03 A3000 560 27 800 090/08 RMK AO2
14840KMKG MKG20000424193506904/24/00 19:35:31  5-MIN KMKG 250035Z 10009KT 1028 400 100/09 RMK AO2
14840KMKG MKG20000424204009204/24/00 20:40:31  5-MIN KMKG 250140Z 10008KT 10SM CLR 13/00 A3004 520 41 400 100/08 RMK AO2
14840KMKG MKG20000424204509204/24/00 20:45:31  5-MIN KMKG 250145Z 09008KT 10SM CLR 13/00 A3004 520 41 400 100/08 RMK AO2
14840KMKG MKG20000424205012904/24/00 20:50:31  5-MIN KMKG 2504/24/00 22:00:31  5-MIN KMKG 250300Z 09013G19KT 10SM CLR 10/M04 A3008 490 36 0 090/13G19 RMK AO2
14840KMKG MKG20000424220509104/24/00 22:05:31  5-MIN KMKG 250305Z 09011KT 10SM CLR 09/M06 A3008 490 34 0 090/11 RMK AO2
14840KMKG MKG20000424221006704/24/00 22:10:31  5-MIN KMKG 250310Z 09008KT 10-300 060/06 RMK AO2
14840KMKG MKG20000424232009404/24/00 23:20:31  5-MIN KMKG 250420Z 06007KT 10SM CLR 07/M07 A3008 480 35 -300 070/07 RMK AO2
14840KMKG MKG20000424232509404/24/00 23:25:31  5-MIN KMKG 250425Z 06006KT 10SM CLR 07/M07 A3008 480 36 -300 070/06 RMK AO2
14840KMKG MKG20000424233002704/24/00 23:30:31  5-MINAO2
14840KMKG MKG20000425002009404/25/00 00:20:31  5-MIN KMKG 250520Z 03004KT 10SM CLR 06/M06 A3009 480 43 -400 030/04 RMK AO2
14840KMKG MKG20000425002509404/25/00 00:25:31  5-MIN KMKG 250525Z 02004KT 10SM CLR 07/M06 A3009 480 41 -300 030/04 RMK AO2
14840KMKG MKG20000425003009404/25/00 00:30:31  5-MIN KMKG 250530Z 03003KT 10SM CLR 06/M05 A3009 480 45 -400 030/03 RMK AO2
14840KMKG MKG20000425003509404/25/00 00:35:31  5-MIN KMKG 250535Z 02003KT 10SM CLR 06/M06 A3009 480 43 -400 020/03 RMK AO2
14840KMKG MKG20000425004009404/25/00 00:40:31  5-MIN KMKG 250540Z 02003KT 10SM CLR 06/M06 A3009 480 43 -400 020/03 RMK AO2
14840KMKG MKG20000425004509404/25/00 00:45:31  5-MIN KMKG 250545Z 03003KT 10SM CLR 06/M06 A3009 480 43 -400 030/03 RMK AO2
14840KMKG MKG20000425005012904/25/00 00:50:31  5-MIN KMKG 250550Z 00000KT 10SM CLR 05/M06 A3008 480 46 -500 000/00 RMK AO2 SLP189 T00501056 10167 20050 52028
14840KMKG MKG20000425005512904/25/00 00:55:31  5-MIN KMKG 250555Z 00000KT 10SM CLR 06/M05 A3008 480 46 -500 000/00 RMK AO2 SLP189 T00561050 10167 20050 50003
14840KMKG MKG20000425010009404/25/00 01:00:31  5-MIN KMKG 250600Z 00000KT 10SM CLR 06/M05 A3008 480 46 -500 000/00 RMK AO2
14840KMKG MKG20000425010509404/25/00 01:05:31  5-MIN KMKG 250605Z 00000KT 10SM CLR 06/M04 A3008 480 48 -500 000/00 RMK AO2
14840KMKG MKG20000425011009404/25/00 01:10:31  5-MIN KMKG 250610Z 00000KT 10SM CLR 05/M04 A3008 480 52 -500 000/00 RMK AO2
14840KMKG MKG20000425011509404/25/00 01:15:31  5-MIN KMKG 250615Z 00000KT 10SM CLR 06/M04 A3008 480 50 -500 000/00 RMK AO2
14840KMKG MKG20000425012009404/25/00 01:20:31  5-MIN KMKG 250620Z 03003KT 10SM CLR 06/M04 A3008 480 48 -500 030/03 RMK AO2
14840KMKG MKG20000425012509404/25/00 01:25:31  5-MIN KMKG 250625Z 02003KT 10SM CLR 05/M04 A3008 480 50 -500 020/03 RMK AO2
14840KMKG MKG20000425013009404/25/00 01:30:31  5-MIN KMKG 250630Z 02003KT 10SM CLR 05/M04 A3008 480 50 -500 030/03 RMK AO2
14840KMKG MKG20000425013509404/25/00 01:35:31  5-MIN KMKG 250635Z 00000KT 10SM CLR 05/M04 A3008 480 50 -500 000/00 RMK AO2
14840KMKG MKG20000425014009404/25/00 01:40:31  5-MIN KMKG 250640Z 00000KT 10SM CLR 05/M04 A3008 480 50 -500 000/00 RMK AO2
14840KMKG MKG20000425014509404/25/00 01:45:31  5-MIN KMKG 250645Z 00000KT 10SM CLR 04/M04 A3008 480 57 -700 000/00 RMK AO2
14840KMKG MKG20000425015011104/25/00 01:50:31  5-MIN KMKG 250650Z 00000KT 10SM CLR 03/M04 A3008 480 57 -700 000/00 RMK AO2 SLP187 T00331044
14840KMKG MKG20000425015511104/25/00 01:55:31  5-MIN KMKG 250655Z 00000KT 10SM CLR 03/M04 A3008 480 59 -700 000/00 RMK AO2 SLP187 T00331039
14840KMKG MKG20000425020009404/25/00 02:00:31  5-MIN KMKG 250700Z 00000KT 10SM CLR 03/M04 A3008 480 59 -700 000/00 RMK AO2
14840KMKG MKG20000425020509404/25/00 02:05:31  5-MIN KMKG 250705Z 00000KT 10SM CLR 02/M04 A3008 490 61 -900 000/00 RMK AO2
14840KMKG MKG20000425021009404/25/00 02:10:31  5-MIN KMKG 250710Z 36004KT 10SM CLR 02/M04 A3008 490 61 -900 010/04 RMK AO2
14840KMKG MKG20000425021509404/25/00 02:15:31  5-MIN KMKG 250715Z 36005KT 10SM CLR 02/M04 A3008 490 64 -900 010/05 RMK AO2
14840KMKG MKG20000425022009404/25/00 02:20:31  5-MIN KMKG 250720Z 01005KT 10SM CLR 03/M03 A3007 490 61 -700 010/05 RMK AO2
14840KMKG MKG20000425022509404/25/00 02:25:31  5-MIN KMKG 250725Z 36006KT 10SM CLR 03/M03 A3007 490 67 -800 010/06 RMK AO2
14840KMKG MKG20000425023009404/25/00 02:30:31  5-MIN KMKG 250730Z 36006KT 10SM CLR 03/M03 A3007 490 61 -700 010/06 RMK AO2
14840KMKG MKG20000425023509404/25/00 02:35:31  5-MIN KMKG 250735Z 01007KT 10SM CLR 03/M04 A3007 490 59 -700 010/07 RMK AO2
14840KMKG MKG20000425024009404/25/00 02:40:31  5-MIN KMKG 250740Z 01006KT 10SM CLR 04/M04 A3007 490 54 -600 010/06 RMK AO2
14840KMKG MKG20000425024509404/25/00 02:45:31  5-MIN KMKG 250745Z 01007KT 10SM CLR 04/M04 A3007 490 54 -600 010/07 RMK AO2
14840KMKG MKG20000425025011104/25/00 02:50:31  5-MIN KMKG 250750Z 01006KT 10SM CLR 04/M04 A3007 490 52 -600 020/06 RMK AO2 SLP184 T00441044
14840KMKG MKG20000425025511104/25/00 02:55:31  5-MIN KMKG 250755Z 01006KT 10SM CLR 04/M04 A3007 490 52 -600 010/06 RMK AO2 SLP184 T00441044
14840KMKG MKG20000425030009404/25/00 03:00:31  5-MIN KMKG 250800Z 01006KT 10SM CLR 04/M04 A3007 490 52 -600 010/06 RMK AO2
14840KMKG MKG20000425030509404/25/00 03:05:31  5-MIN KMKG 250805Z 01006KT 10SM CLR 04/M04 A3007 490 52 -600 010/06 RMK AO2
14840KMKG MKG20000425031009404/25/00 03:10:31  5-MIN KMKG 250810Z 01006KT 10SM CLR 04/M04 A3007 490 52 -600 010/06 RMK AO2
14840KMKG MKG20000425031509404/25/00 03:15:31  5-MIN KMKG 250815Z 36007KT 10SM CLR 04/M04 A3007 490 52 -600 010/07 RMK AO2
14840KMKG MKG20000425032009404/25/00 03:20:31  5-MIN KMKG 250820Z 01007KT 10SM CLR 04/M04 A3007 490 55 -600 010/07 RMK AO2
14840KMKG MKG20000425032509404/25/00 03:25:31  5-MIN KMKG 250825Z 01007KT 10SM CLR 04/M04 A3007 490 52 -600 010/07 RMK AO2
14840KMKG MKG20000425033009404/25/00 03:30:31  5-MIN KMKG 250830Z 01007KT 10SM CLR 04/M04 A3007 490 52 -600 010/07 RMK AO2
14840KMKG MKG20000425033509404/25/00 03:35:31  5-MIN KMKG 250835Z 01006KT 10SM CLR 04/M04 A3008 490 52 -600 010/06 RMK AO2
14840KMKG MKG20000425034009404/25/00 03:40:31  5-MIN KMKG 250840Z 36006KT 10SM CLR 04/M04 A3008 480 52 -600 010/06 RMK AO2
14840KMKG MKG20000425034509404/25/00 03:45:31  5-MIN KMKG 250845Z 01007KT 10SM CLR 04/M04 A3008 480 52 -600 010/07 RMK AO2
14840KMKG MKG20000425035011704/25/00 03:50:31  5-MIN KMKG 250850Z 01007KT 10SM CLR 05/M04 A3008 480 50 -500 010/07 RMK AO2 SLP188 T00501044 50003
14840KMKG MKG20000425035511704/25/00 03:55:31  5-MIN KMKG 250855Z 36007KT 10SM CLR 04/M04 A3008 480 52 -600 010/07 RMK AO2 SLP189 T00441044 53000
14840KMKG MKG20000425040009404/25/00 04:00:31  5-MIN KMKG 250900Z 01007KT 10SM CLR 04/M04 A3008 480 52 -600 010/07 RMK AO2
14840KMKG MKG20000425040509404/25/00 04:05:31  5-MIN KMKG 250905Z 01006KT 10SM CLR 04/M04 A3008 480 52 -600 020/06 RMK AO2
14840KMKG MKG20000425041009404/25/00 04:10:31  5-MIN KMKG 250910Z 02006KT 10SM CLR 04/M04 A3008 480 52 -600 020/06 RMK AO2
14840KMKG MKG20000425041509404/25/00 04:15:31  5-MIN KMKG 250915Z 02006KT 10SM CLR 04/M04 A3009 480 52 -600 020/06 RMK AO2
14840KMKG MKG20000425042009404/25/00 04:20:31  5-MIN KMKG 250920Z 02007KT 10SM CLR 05/M05 A3009 480 48 -500 020/07 RMK AO2
14840KMKG MKG20000425042509404/25/00 04:25:31  5-MIN KMKG 250925Z 02006KT 10SM CLR 05/M05 A3009 470 48 -500 030/06 RMK AO2
14840KMKG MKG20000425043009404/25/00 04:30:31  5-MIN KMKG 250930Z 02005KT 10SM CLR 05/M05 A3009 470 48 -500 030/05 RMK AO2
14840KMKG MKG20000425043509404/25/00 04:35:31  5-MIN KMKG 250935Z 02005KT 10SM CLR 04/M06 A3009 470 48 -600 030/05 RMK AO2
14840KMKG MKG20000425044009404/25/00 04:40:31  5-MIN KMKG 250940Z 02006KT 10SM CLR 04/M06 A3009 470 48 -600 020/06 RMK AO2
14840KMKG MKG20000425044509404/25/00 04:45:31  5-MIN KMKG 250945Z 02006KT 10SM CLR 05/M06 A3009 470 46 -500 030/06 RMK AO2
14840KMKG MKG20000425045011104/25/00 04:50:31  5-MIN KMKG 250950Z 03006KT 10SM CLR 05/M06 A3009 470 46 -500 030/06 RMK AO2 SLP192 T00501056
14840KMKG MKG20000425045511104/25/00 04:55:31  5-MIN KMKG 250955Z 03006KT 10SM CLR 05/M06 A3009 470 46 -500 030/06 RMK AO2 SLP192 T00501056
14840KMKG MKG20000425050009404/25/00 05:00:31  5-MIN KMKG 251000Z 03007KT 10SM CLR 05/M06 A3009 470 46 -500 030/07 RMK AO2
14840KMKG MKG20000425050509404/25/00 05:05:31  5-MIN KMKG 251005Z 02008KT 10SM CLR 05/M06 A3010 470 46 -500 030/08 RMK AO2
14840KMKG MKG20000425051009404/25/00 05:10:31  5-MIN KMKG 251010Z 03007KT 10SM CLR 05/M06 A3010 470 46 -500 030/07 RMK AO2
14840KMKG MKG20000425051509404/25/00 05:15:31  5-MIN KMKG 251015Z 03007KT 10SM CLR 05/M06 A3010 470 46 -500 030/07 RMK AO2
14840KMKG MKG20000425052009404/25/00 05:20:31  5-MIN KMKG 251020Z 03008KT 10SM CLR 06/M06 A3010 470 44 -500 030/08 RMK AO2
14840KMKG MKG20000425052509404/25/00 05:25:31  5-MIN KMKG 251025Z 03008KT 10SM CLR 05/M06 A3010 460 46 -500 030/08 RMK AO2
14840KMKG MKG20000425053009404/25/00 05:30:31  5-MIN KMKG 251030Z 02007KT 10SM CLR 05/M06 A3010 460 46 -500 030/07 RMK AO2
14840KMKG MKG20000425053509404/25/00 05:35:31  5-MIN KMKG 251035Z 02008KT 10SM CLR 05/M06 A3010 460 46 -500 030/08 RMK AO2
14840KMKG MKG20000425054009404/25/00 05:40:31  5-MIN KMKG 251040Z 02006KT 10SM CLR 05/M06 A3010 460 46 -500 030/06 RMK AO2
14840KMKG MKG20000425054509404/25/00 05:45:31  5-MIN KMKG 251045Z 02007KT 10SM CLR 05/M06 A3010 460 44 -500 020/07 RMK AO2
14840KMKG MKG20000425055011104/25/00 05:50:31  5-MIN KMKG 251050Z 02007KT 10SM CLR 05/M06 A3010 460 44 -500 020/07 RMK AO2 SLP196 T00501061
14840KMKG MKG20000425055511104/25/00 05:55:31  5-MIN KMKG 251055Z 02008KT 10SM CLR 05/M06 A3011 460 44 -500 030/08 RMK AO2 SLP196 T00501061
14840KMKG MKG20000425060009404/25/00 06:00:31  5-MIN KMKG 251100Z 03007KT 10SM CLR 05/M06 A3011 460 44 -600 030/07 RMK AO2
14840KMKG MKG20000425060509404/25/00 06:05:31  5-MIN KMKG 251105Z 03008KT 10SM CLR 05/M06 A3011 460 44 -600 030/08 RMK AO2
14840KMKG MKG20000425061009404/25/00 06:10:31  5-MIN KMKG 251110Z 02007KT 10SM CLR 06/M06 A3011 450 43 -500 030/07 RMK AO2
14840KMKG MKG20000425061509404/25/00 06:15:31  5-MIN KMKG 251115Z 02007KT 10SM CLR 06/M06 A3011 450 43 -500 030/07 RMK AO2
14840KMKG MKG20000425062009404/25/00 06:20:31  5-MIN KMKG 251120Z 02006KT 10SM CLR 06/M06 A3011 450 43 -500 030/06 RMK AO2
14840KMKG MKG20000425062509404/25/00 06:25:31  5-MIN KMKG 251125Z 02007KT 10SM CLR 06/M06 A3011 450 44 -500 020/07 RMK AO2
14840KMKG MKG20000425063009404/25/00 06:30:31  5-MIN KMKG 251130Z 03007KT 10SM CLR 06/M06 A3012 450 41 -400 030/07 RMK AO2
14840KMKG MKG20000425063509404/25/00 06:35:31  5-MIN KMKG 251135Z 03007KT 10SM CLR 06/M06 A3012 450 41 -400 040/07 RMK AO2
14840KMKG MKG20000425064009404/25/00 06:40:31  5-MIN KMKG 251140Z 03007KT 10SM CLR 06/M06 A3012 450 41 -400 040/07 RMK AO2
14840KMKG MKG20000425064509404/25/00 06:45:31  5-MIN KMKG 251145Z 03007KT 10SM CLR 07/M06 A3012 450 39 -400 040/07 RMK AO2
14840KMKG MKG20000425065012904/25/00 06:50:31  5-MIN KMKG 251150Z 03008KT 10SM CLR 07/M06 A3012 450 41 -400 040/08 RMK AO2 SLP202 T00671056 10067 20022 53000
14840KMKG MKG20000425065512904/25/00 06:55:31  5-MIN KMKG 251155Z 04008KT 10SM CLR 07/M06 A3012 440 41 -400 040/08 RMK AO2 SLP203 T00671056 10067 20022 53013
14840KMKG MKG20000425070009404/25/00 07:00:31  5-MIN KMKG 251200Z 04007KT 10SM CLR 07/M06 A3013 440 40 -300 040/07 RMK AO2
14840KMKG MKG20000425070509404/25/00 07:05:31  5-MIN KMKG 251205Z 04008KT 10SM CLR 07/M06 A3013 440 40 -300 040/08 RMK AO2
14840KMKG MKG20000425071009404/25/00 07:10:31  5-MIN KMKG 251210Z 03008KT 10SM CLR 07/M06 A3013 440 40 -300 040/08 RMK AO2
14840KMKG MKG20000425071509404/25/00 07:15:31  5-MIN KMKG 251215Z 04008KT 10SM CLR 08/M06 A3013 440 38 -200 040/08 RMK AO2
14840KMKG MKG20000425072009404/25/00 07:20:31  5-MIN KMKG 251220Z 04009KT 10SM CLR 08/M06 A3013 440 38 -200 040/09 RMK AO2
14840KMKG MKG20000425072509404/25/00 07:25:31  5-MIN KMKG 251225Z 04009KT 10SM CLR 08/M06 A3013 440 38 -200 040/09 RMK AO2
14840KMKG MKG20000425073009404/25/00 07:30:31  5-MIN KMKG 251230Z 04008KT 10SM CLR 08/M06 A3013 440 38 -200 050/08 RMK AO2
14840KMKG MKG20000425073509404/25/00 07:35:31  5-MIN KMKG 251235Z 05009KT 10SM CLR 08/M06 A3013 430 37 -200 050/09 RMK AO2
14840KMKG MKG20000425074009404/25/00 07:40:31  5-MIN KMKG 251240Z 05008KT 10SM CLR 08/M06 A3013 430 37 -200 050/08 RMK AO2
14840KMKG MKG20000425074509404/25/00 07:45:31  5-MIN KMKG 251245Z 04009KT 10SM CLR 08/M06 A3014 430 37 -200 040/09 RMK AO2
14840KMKG MKG20000425075011104/25/00 07:50:31  5-MIN KMKG 251250Z 05009KT 10SM CLR 09/M06 A3014 430 35 -100 050/09 RMK AO2 SLP207 T00891056
14840KMKG MKG20000425075511104/25/00 07:55:31  5-MIN KMKG 251255Z 05009KT 10SM CLR 09/M06 A3014 430 35 -100 050/09 RMK AO2 SLP207 T00891056
14840KMKG MKG20000425080009404/25/00 08:00:31  5-MIN KMKG 251300Z 04009KT 10SM CLR 09/M06 A3014 430 35 -100 040/09 RMK AO2
14840KMKG MKG20000425080509104/25/00 08:05:31  5-MIN KMKG 251305Z 05008KT 10SM CLR 09/M06 A3014 430 34 0 050/08 RMK AO2
14840KMKG MKG20000425081009104/25/00 08:10:31  5-MIN KMKG 251310Z 05008KT 10SM CLR 09/M06 A3014 430 34 0 060/08 RMK AO2
14840KMKG MKG20000425081509104/25/00 08:15:31  5-MIN KMKG 251315Z 06008KT 10SM CLR 10/M06 A3014 430 33 0 070/08 RMK AO2
14840KMKG MKG20000425082009104/25/00 08:20:31  5-MIN KMKG 251320Z 06008KT 10SM CLR 10/M06 A3014 430 33 0 060/08 RMK AO2
14840KMKG MKG20000425082509104/25/00 08:25:31  5-MIN KMKG 251325Z 04006KT 10SM CLR 11/M05 A3014 430 33 0 050/06 RMK AO2
14840KMKG MKG20000425083009104/25/00 08:30:31  5-MIN KMKG 251330Z 05006KT 10SM CLR 11/M06 A3013 430 31 0 050/06 RMK AO2
14840KMKG MKG20000425083509304/25/00 08:35:31  5-MIN KMKG 251335Z 04006KT 10SM CLR 11/M06 A3013 430 30 100 040/06 RMK AO2
14840KMKG MKG20000425084009304/25/00 08:40:31  5-MIN KMKG 251340Z 04007KT 10SM CLR 11/M06 A3014 430 30 100 050/07 RMK AO2
14840KMKG MKG20000425084509304/25/00 08:45:31  5-MIN KMKG 251345Z 03005KT 10SM CLR 11/M06 A3014 430 30 100 030/05 RMK AO2
14840KMKG MKG20000425085011004/25/00 08:50:31  5-MIN KMKG 251350Z 04006KT 10SM CLR 12/M06 A3014 430 29 200 050/06 RMK AO2 SLP207 T01171056
14840KMKG MKG20000425085511004/25/00 08:55:31  5-MIN KMKG 251355Z 05008KT 10SM CLR 12/M06 A3014 430 28 200 050/08 RMK AO2 SLP207 T01171061
14840KMKG MKG20000425090009304/25/00 09:00:31  5-MIN KMKG 251400Z 06009KT 10SM CLR 12/M07 A3014 430 26 200 060/09 RMK AO2
14840KMKG MKG20000425090509304/25/00 09:05:31  5-MIN KMKG 251405Z 06007KT 10SM CLR 13/M06 A3014 430 26 300 070/07 RMK AO2
14840KMKG MKG20000425091009304/25/00 09:10:31  5-MIN KMKG 251410Z 05009KT 10SM CLR 13/M06 A3014 430 26 300 060/09 RMK AO2
14840KMKG MKG20000425091509304/25/00 09:15:31  5-MIN KMKG 251415Z 08010KT 10SM CLR 13/M07 A3014 430 24 300 080/10 RMK AO2
14840KMKG MKG20000425092009304/25/00 09:20:31  5-MIN KMKG 251420Z 07008KT 10SM CLR 13/M07 A3014 430 25 300 070/08 RMK AO2
14840KMKG MKG20000425092509304/25/00 09:25:31  5-MIN KMKG 251425Z 06011KT 10SM CLR 13/M07 A3014 430 24 400 070/11 RMK AO2
14840KMKG MKG20000425093009304/25/00 09:30:31  5-MIN KMKG 251430Z 06009KT 10SM CLR 13/M07 A3014 430 24 400 060/09 RMK AO2
14840KMKG MKG20000425093509304/25/00 09:35:31  5-MIN KMKG 251435Z 07008KT 10SM CLR 13/M08 A3014 430 22 400 080/08 RMK AO2
14840KMKG MKG20000425094009304/25/00 09:40:31  5-MIN KMKG 251440Z 06007KT 10SM CLR 14/M07 A3014 430 23 400 060/07 RMK AO2
14840KMKG MKG20000425094509304/25/00 09:45:31  5-MIN KMKG 251445Z 05008KT 10SM CLR 14/M07 A3014 430 23 400 060/08 RMK AO2
14840KMKG MKG20000425095011604/25/00 09:50:31  5-MIN KMKG 251450Z 07008KT 10SM CLR 14/M07 A3014 430 23 400 070/08 RMK AO2 SLP208 T01391067 53013
14840KMKG MKG20000425095511604/25/00 09:55:31  5-MIN KMKG 251455Z VRB06KT 10SM CLR 14/M07 A3014 430 21 500 VRB/06 RMK AO2 SLP207 T01441072 51004
14840KMKG MKG20000425100009304/25/00 10:00:31  5-MIN KMKG 251500Z 03007KT 10SM CLR 14/M07 A3014 430 23 400 040/07 RMK AO2
14840KMKG MKG20000425100509304/25/00 10:05:31  5-MIN KMKG 251505Z 03009KT 10SM CLR 14/M06 A3014 430 23 500 040/09 RMK AO2
14840KMKG MKG20000425101009304/25/00 10:10:31  5-MIN KMKG 251510Z 03007KT 10SM CLR 14/M06 A3013 430 23 500 030/07 RMK AO2
14840KMKG MKG20000425101509304/25/00 10:15:31  5-MIN KMKG 251515Z 05012KT 10SM CLR 14/M07 A3014 430 22 500 050/12 RMK AO2
14840KMKG MKG20000425102009304/25/00 10:20:31  5-MIN KMKG 251520Z 05010KT 10SM CLR 14/M07 A3014 430 22 500 050/10 RMK AO2
14840KMKG MKG20000425102509304/25/00 10:25:31  5-MIN KMKG 251525Z 03012KT 10SM CLR 14/M07 A3014 430 21 500 040/12 RMK AO2
14840KMKG MKG20000425103009304/25/00 10:30:31  5-MIN KMKG 251530Z 03011KT 10SM CLR 15/M07 A3014 430 21 600 030/11 RMK AO2
14840KMKG MKG20000425103509304/25/00 10:35:31  5-MIN KMKG 251535Z 06011KT 10SM CLR 15/M07 A3013 430 22 600 060/11 RMK AO2
14840KMKG MKG20000425104009904/25/00 10:40:31  5-MIN KMKG 251540Z 06010G16KT 10SM CLR 16/M07 A3013 430 20 600 060/10G16 RMK AO2
14840KMKG MKG20000425104509904/25/00 10:45:31  5-MIN KMKG 251545Z 05008G16KT 10SM CLR 16/M07 A3013 430 20 600 060/08G16 RMK AO2
14840KMKG MKG20000425105011004/25/00 10:50:31  5-MIN KMKG 251550Z 08010KT 10SM CLR 16/M07 A3013 430 20 700 080/10 RMK AO2 SLP206 T01611067
14840KMKG MKG20000425105511004/25/00 10:55:31  5-MIN KMKG 251555Z 34007KT 10SM CLR 16/M05 A3013 430 23 700 350/07 RMK AO2 SLP206 T01611050
14840KMKG MKG20000425110009304/25/00 11:00:31  5-MIN KMKG 251600Z 01011KT 10SM CLR 16/M05 A3013 440 24 600 020/11 RMK AO2
14840KMKG MKG20000425110509304/25/00 11:05:31  5-MIN KMKG 251605Z 01008KT 10SM CLR 16/M06 A3013 430 22 600 010/08 RMK AO2
14840KMKG MKG20000425111009304/25/00 11:10:31  5-MIN KMKG 251610Z 01008KT 10SM CLR 16/M06 A3013 440 23 600 010/08 RMK AO2
14840KMKG MKG20000425111509304/25/00 11:15:31  5-MIN KMKG 251615Z 03011KT 10SM CLR 16/M06 A3013 440 22 700 030/11 RMK AO2
14840KMKG MKG20000425112009304/25/00 11:20:31  5-MIN KMKG 251620Z 02009KT 10SM CLR 16/M06 A3013 440 22 700 030/09 RMK AO2
14840KMKG MKG20000425112509304/25/00 11:25:31  5-MIN KMKG 251625Z 05009KT 10SM CLR 16/M06 A3013 440 22 700 050/09 RMK AO2
14840KMKG MKG20000425113010904/25/00 11:30:31  5-MIN KMKG 251630Z 01011KT 340V040 10SM CLR 16/M06 A3013 440 22 700 020/11 340V040 RMK AO2
14840KMKG MKG20000425113509304/25/00 11:35:31  5-MIN KMKG 251635Z 03011KT 10SM CLR 17/M05 A3013 440 22 800 040/11 RMK AO2
14840KMKG MKG20000425114009304/25/00 11:40:31  5-MIN KMKG 251640Z 02010KT 10SM CLR 17/M06 A3013 440 21 800 020/10 RMK AO2
14840KMKG MKG20000425114509304/25/00 11:45:31  5-MIN KMKG 251645Z 03008KT 10SM CLR 17/M06 A3012 440 21 800 040/08 RMK AO2
14840KMKG MKG20000425115011004/25/00 11:50:31  5-MIN KMKG 251650Z 03011KT 10SM CLR 17/M06 A3012 440 20 800 030/11 RMK AO2 SLP203 T01671061
14840KMKG MKG20000425115511004/25/00 11:55:31  5-MIN KMKG 251655Z 05011KT 10SM CLR 17/M06 A3012 450 20 800 050/11 RMK AO2 SLP202 T01721056
14840KMKG MKG20000425120009304/25/00 12:00:31  5-MIN KMKG 251700Z 05011KT 10SM CLR 17/M06 A3013 440 19 800 060/11 RMK AO2
14840KMKG MKG20000425120509904/25/00 12:05:31  5-MIN KMKG 251705Z 03009G16KT 10SM CLR 17/M06 A3012 450 20 800 040/09G16 RMK AO2
14840KMKG MKG20000425121009304/25/00 12:10:31  5-MIN KMKG 251710Z 04008KT 10SM CLR 17/M06 A3012 450 20 800 050/08 RMK AO2
14840KMKG MKG20000425121509304/25/00 12:15:31  5-MIN KMKG 251715Z 01010KT 10SM CLR 17/M06 A3012 450 20 900 010/10 RMK AO2
14840KMKG MKG20000425122015604/25/00 12:20:31  5-MIN KMKG 251720Z VRB06G16KT 10SM CL04/25/00 13:25:31  5-MIN KMKG 251825Z 06011G14KT 10SM CLR 18/M04 A3011 450 21 1000 070/11G14 RMK AO2
14840KMKG MKG20000425133009404/25/00 13:30:31  5-MIN KMKG 251830Z 03007KT 10SM CLR 18/M06 A3011 460 19 1000 040/07 RMK AO2
14840KMKG MKG20000425133504004/25/00 13:35:31  5-MIN KMKG 251835Z 05
14840KMKG MKG20000425143511004/25/00 14:35:31  5-MIN KMKG 251935Z 02009KT 330V070 10SM CLR 20/M02 A3009 480 23 1200 020/09 330V070 RMK AO2
14840KMKG MKG20000425144019704/25/00 14:40:31  5-MIN KMKG 251940Z 03009KT 340V060 10SM CLR 19/M03 A3008 480 21 1100 030/09 340V060 RMK AO2 04/25/00 14:45:3 KMKG 252035Z 29007KT 10SM CLR 18/M01 A3006 500 28 1000 290/07 RMK AO2
14840KMKG MKG20000425154009304/25/00 15:40:31  5-MIN KMKG 252040Z 33007KT 10SM CLR 19/01 A3006 500 29 1100 330/07 RMK AO2
14840KMKG MKG20000425154509404/25/00 15:45:31  5-MIN KMKG 252045Z 30008KT 10SM CLR 19/M01 A3007 490 27 1000 310/12 RMK AO2
14840KMKG MKG20000425165011104/25/00 16:50:31  5-MIN KMKG 252150Z 30011KT 10SM CLR 18/M02 A3005 510 26 1000 300/11 RMK AO2 SLP178 T01781017
14840KMKG MKG20000425165511704/25/00 16:55:31  5-MIN KMKG 252155Z 30013KT 10SM CLR 18/M02 A3005 510 25 1000 310/13 RMK AO2 SLP1900 330/10 RMK AO2
14840KMKG MKG20000425180509304/25/00 18:05:31  5-MIN KMKG 252305Z 32009KT 10SM CLR 17/M02 A3005 510 27 900 320/09 RMK AO2
14840KMKG MKG20000425181009304/25/00 18:10:31  5-MIN KMKG 252310Z 33008KT 10SM CLR 17/M01 A3005 510 28 900 340/08 RMK AO2
14840KMKG MKG20000425182509304/25/00 18:25:31  5-MIN KMKG 252325Z 33011KT 10SM CLR 17/M02 A3005 510 28 900 340/11 RMK AO2
14840KMKG MKG20000425190009304/25/00 19:00:31  5-MIN KMKG 260000Z 36007KT 10SM CLR 16/M01 A3006 500 33 700 360/07 RMK AO2
14840KMKG MKG20000425190509904/25/00 19:05:31  5-MIN KMKG 260005Z 35008KT 10SM CLR 1SM CLR 14/M02 A3007 49032500 020/04 RMK AO2
14840KMKG MKG20000425201509304/25/00 20:15:31  5-MIN KMKG 260115Z 01005KT 10SM CLR 14/M02 A3007 490 31 600 020/05 RMK AO2
14840KMKG MKG20000425202011404/25/00 20:20:31  5-MIN KMKG 260120Z 03004KT 10SM CLR 14/M02 A3008 490 32 500 040/04 RMK AO2 44100 120/06 RMK AO2
14840KMKG MKG20000425211509304/25/00 21:15:31  5-MIN KMKG 260215Z 11007KT 10SM CLR 11/M01 A3010 460 44 100 120/07 RMK AO2
14840KMKG MKG20000425212009304/25/00 21:20:31  5-MIN KMKG 260220Z 11007KT 10SM CLR 11/M01 A3010 460 44 100 110/07 RMK AO2
14840KMKG MKG20000425212502504/25/00 21:25:31  5-MIN2
14840KMKG MKG20000425222009304/25/00 22:20:31  5-MIN KMKG 260320Z 12009KT 10SM CLR 11/M02 A3012 440 40 100 120/09 RMK AO2
14840KMKG MKG20000425222509104/25/00 22:25:31  5-MIN KMKG 260325Z 11009KT 10SM CLR 10/M03 A3012 440 40 0 120/09 RMK AO2
14840KMKG MKG20000425223012104/25/00 22:30:31  5-MIN KMKG 260330Z 11009KT 10O2  KMKG 260435Z 11006KT 10SM CLR 07/M08 A3014 430 32 -300 110/06 RMK AO2
14840KMKG MKG20000425234009404/25/00 23:40:31  5-MIN KMKG 260440Z 10005KT 10SM CLR 07/M08 A3014 430 32 -300 110/05 RMK AO2
14840KMKG MKG20000426043009504/26/00 04:30:31  5-MIN KMKG 260930Z 00000KT 10SM CLR 02/M06 A3013 440 56 -1000 000/00 RMK AO2
14840KMKG MKG20000426043509404/26/00 04:35:31  5-MIN KMKG 260935Z 34003KT 10SM CLR 03/M06 A3013 440 52 -900 350/03 RMK AO2
14840KMKG MKG20000426044009404/26/00 04:40:31  5-MIN KMKG 260940Z 35003KT 10SM CLR 03/M06 A3013 440 52 -900 350/03 RMK AO2
14840KMKG MKG20000426044509404/26/00 04:45:31  5-MIN KMKG 260945Z 34003KT 10SM CLR 03/M05 A3013 440 54 -800 350/03 RMK AO2
14840KMKG MKG20000426045011104/26/00 04:50:31  5-MIN KMKG 260950Z 34004KT 10SM CLR 03/M06 A3013 440 54 -900 340/04 RMK AO2 SLP206 T00281056
14840KMKG MKG20000426045511104/26/00 04:55:31  5-MIN KMKG 260955Z 34003KT 10SM CLR 02/M05 A3013 430 59 -900 350/03 RMK AO2 SLP207 T00221050
14840KMKG MKG20000426050009404/26/00 05:00:31  5-MIN KMKG 261000Z 36003KT 10SM CLR 02/M06 A3013 430 56 -900 010/03 RMK AO2
14840KMKG MKG20000426050509404/26/00 05:05:31  5-MIN KMKG 261005Z 00000KT 10SM CLR 03/M06 A3013 440 54 -900 000/00 RMK AO2
14840KMKG MKG20000426051009404/26/00 05:10:31  5-MIN KMKG 261010Z 00000KT 10SM CLR 03/M06 A3013 430 52 -900 000/00 RMK AO2
14840KMKG MKG20000426051509404/26/00 05:15:31  5-MIN KMKG 261015Z 33003KT 10SM CLR 02/M06 A3014 430 56 -900 330/03 RMK AO2
14840KMKG MKG20000426052009404/26/00 05:20:31  5-MIN KMKG 261020Z 00000KT 10SM CLR 03/M06 A3014 430 54 -900 000/00 RMK AO2
14840KMKG MKG20000426052509404/26/00 05:25:31  5-MIN KMKG 261025Z 34003KT 10SM CLR 03/M05 A3014 430 54 -800 340/03 RMK AO2
14840KMKG MKG20000426053009404/26/00 05:30:31  5-MIN KMKG 261030Z 34003KT 10SM CLR 03/M05 A3014 430 56 -900 350/03 RMK AO2
14840KMKG MKG20000426053509404/26/00 05:35:31  5-MIN KMKG 261035Z 35003KT 10SM CLR 03/M06 A3014 430 52 -800 350/03 RMK AO2
14840KMKG MKG20000426054009404/26/00 05:40:31  5-MIN KMKG 261040Z 34003KT 10SM CLR 03/M06 A3014 430 54 -900 350/03 RMK AO2
14840KMKG MKG20000426054509504/26/00 05:45:31  5-MIN KMKG 261045Z 00000KT 10SM CLR 02/M06 A3014 430 59 -1000 000/00 RMK AO2
14840KMKG MKG20000426055011204/26/00 05:50:31  5-MIN KMKG 261050Z 00000KT 10SM CLR 02/M05 A3014 430 61 -1000 000/00 RMK AO2 SLP210 T00171050
14840KMKG MKG20000426055511204/26/00 05:55:31  5-MIN KMKG 261055Z 00000KT 10SM CLR 02/M05 A3014 420 61 -1000 000/00 RMK AO2 SLP211 T00171050
14840KMKG MKG20000426060009504/26/00 06:00:31  5-MIN KMKG 261100Z 00000KT 10SM CLR 02/M05 A3015 420 61 -1000 000/00 RMK AO2
14840KMKG MKG20000426060509504/26/00 06:05:31  5-MIN KMKG 261105Z 00000KT 10SM CLR 02/M05 A3015 420 61 -1000 000/00 RMK AO2
14840KMKG MKG20000426061009504/26/00 06:10:31  5-MIN KMKG 261110Z 00000KT 10SM CLR 01/M04 A3015 420 66 -1100 000/00 RMK AO2
14840KMKG MKG20000426061509504/26/00 06:15:31  5-MIN KMKG 261115Z 00000KT 10SM CLR 01/M04 A3015 420 66 -1100 000/00 RMK AO2
14840KMKG MKG20000426062009504/26/00 06:20:31  5-MIN KMKG 261120Z 00000KT 10SM CLR 02/M04 A3015 420 64 -1000 000/00 RMK AO2
14840KMKG MKG20000426062509504/26/00 06:25:31  5-MIN KMKG 261125Z 00000KT 10SM CLR 02/M04 A3015 420 64 -1000 000/00 RMK AO2
14840KMKG MKG20000426063009504/26/00 06:30:31  5-MIN KMKG 261130Z 34003KT 10SM CLR 01/M04 A3015 410 69 -1100 350/03 RMK AO2
14840KMKG MKG20000426063509504/26/00 06:35:31  5-MIN KMKG 261135Z 34003KT 10SM CLR 01/M03 A3016 410 72 -1100 340/03 RMK AO2
14840KMKG MKG20000426064009504/26/00 06:40:31  5-MIN KMKG 261140Z 34003KT 10SM CLR 02/M03 A3016 410 72 -1000 350/03 RMK AO2
14840KMKG MKG20000426064509504/26/00 06:45:31  5-MIN KMKG 261145Z 00000KT 10SM CLR 02/M02 A3016 410 72 -1000 000/00 RMK AO2
14840KMKG MKG20000426065012904/26/00 06:50:31  5-MIN KMKG 261150Z 00000KT 10SM CLR 03/M02 A3016 410 72 -900 000/00 RMK AO2 SLP216 T00281017 10061 20011 55000
14840KMKG MKG20000426065512904/26/00 06:55:31  5-MIN KMKG 261155Z 00000KT 10SM CLR 04/M01 A3016 410 67 -700 000/00 RMK AO2 SLP216 T00441011 10061 20011 53009
14840KMKG MKG20000426070009304/26/00 07:00:31  5-MIN KMKG 261200Z 00000KT 10SM CLR 05/00 A3016 410 70 -600 000/00 RMK AO2
14840KMKG MKG20000426070509404/26/00 07:05:31  5-MIN KMKG 261205Z 00000KT 10SM CLR 06/M03 A3016 410 53 -500 000/00 RMK AO2
14840KMKG MKG20000426071009404/26/00 07:10:31  5-MIN KMKG 261210Z 00000KT 10SM CLR 07/M03 A3016 410 49 -400 000/00 RMK AO2
14840KMKG MKG20000426071509404/26/00 07:15:31  5-MIN KMKG 261215Z 00000KT 10SM CLR 07/M04 A3016 410 47 -400 000/00 RMK AO2
14840KMKG MKG20000426072009404/26/00 07:20:31  5-MIN KMKG 261220Z 00000KT 10SM CLR 07/M04 A3016 410 45 -300 000/00 RMK AO2
14840KMKG MKG20000426072509404/26/00 07:25:31  5-MIN KMKG 261225Z 00000KT 10SM CLR 07/M04 A3016 410 45 -300 000/00 RMK AO2
14840KMKG MKG20000426073009404/26/00 07:30:31  5-MIN KMKG 261230Z 00000KT 10SM CLR 08/M04 A3016 410 43 -300 000/00 RMK AO2
14840KMKG MKG20000426073509404/26/00 07:35:31  5-MIN KMKG 261235Z 00000KT 10SM CLR 08/M04 A3016 410 43 -300 000/00 RMK AO2
14840KMKG MKG20000426074009404/26/00 07:40:31  5-MIN KMKG 261240Z 00000KT 10SM CLR 08/M03 A3016 410 43 -200 000/00 RMK AO2
14840KMKG MKG20000426074509404/26/00 07:45:31  5-MIN KMKG 261245Z 00000KT 10SM CLR 08/M03 A3016 410 45 -200 000/00 RMK AO2
14840KMKG MKG20000426075011104/26/00 07:50:31  5-MIN KMKG 261250Z 07003KT 10SM CLR 09/M04 A3016 410 40 -100 080/03 RMK AO2 SLP214 T00891039
14840KMKG MKG20000426075511104/26/00 07:55:31  5-MIN KMKG 261255Z 07003KT 10SM CLR 09/M04 A3016 410 37 -100 080/03 RMK AO2 SLP214 T00941044
14840KMKG MKG20000426080009404/26/00 08:00:31  5-MIN KMKG 261300Z 00000KT 10SM CLR 09/M05 A3016 410 35 -100 000/00 RMK AO2
14840KMKG MKG20000426080509404/26/00 08:05:31  5-MIN KMKG 261305Z 00000KT 10SM CLR 09/M04 A3016 410 37 -100 000/00 RMK AO2
14840KMKG MKG20000426081009104/26/00 08:10:31  5-MIN KMKG 261310Z 00000KT 10SM CLR 11/M04 A3016 410 36 0 000/00 RMK AO2
14840KMKG MKG20000426081509104/26/00 08:15:31  5-MIN KMKG 261315Z 00000KT 10SM CLR 11/M04 A3016 410 34 0 000/00 RMK AO2
14840KMKG MKG20000426082009304/26/00 08:20:31  5-MIN KMKG 261320Z 00000KT 10SM CLR 11/M07 A3016 410 28 100 000/00 RMK AO2
14840KMKG MKG20000426082509304/26/00 08:25:31  5-MIN KMKG 261325Z 00000KT 10SM CLR 12/M06 A3016 410 29 200 000/00 RMK AO2
14840KMKG MKG20000426083009304/26/00 08:30:31  5-MIN KMKG 261330Z 00000KT 10SM CLR 11/M06 A3016 410 29 100 000/00 RMK AO2
14840KMKG MKG20000426083509304/26/00 08:35:31  5-MIN KMKG 261335Z 00000KT 10SM CLR 12/M04 A3016 410 32 200 000/00 RMK AO2
14840KMKG MKG20000426084009304/26/00 08:40:31  5-MIN KMKG 261340Z VRB03KT 10SM CLR 12/M05 A3016 410 30 200 VRB/03 RMK AO2
14840KMKG MKG20000426084509304/26/00 08:45:31  5-MIN KMKG 261345Z VRB03KT 10SM CLR 12/M05 A3016 410 29 200 VRB/03 RMK AO2
14840KMKG MKG20000426085011004/26/00 08:50:31  5-MIN KMKG 261350Z 00000KT 10SM CLR 12/M06 A3015 410 27 200 000/00 RMK AO2 SLP213 T01221061
14840KMKG MKG20000426085511004/26/00 08:55:31  5-MIN KMKG 261355Z 32003KT 10SM CLR 13/M07 A3015 410 25 300 330/03 RMK AO2 SLP213 T01281067
14840KMKG MKG20000426090009304/26/00 09:00:31  5-MIN KMKG 261400Z 00000KT 10SM CLR 13/M07 A3015 410 25 300 000/00 RMK AO2
14840KMKG MKG20000426090509304/26/00 09:05:31  5-MIN KMKG 261405Z 00000KT 10SM CLR 13/M07 A3015 420 24 300 000/00 RMK AO2
14840KMKG MKG20000426091009304/26/00 09:10:31  5-MIN KMKG 261410Z 00000KT 10SM CLR 13/M06 A3015 420 25 400 000/00 RMK AO2
14840KMKG MKG20000426091509304/26/00 09:15:31  5-MIN KMKG 261415Z 28003KT 10SM CLR 13/M07 A3015 420 24 400 280/03 RMK AO2
14840KMKG MKG20000426092009304/26/00 09:20:31  5-MIN KMKG 261420Z VRB03KT 10SM CLR 13/M07 A3015 420 24 400 VRB/03 RMK AO2
14840KMKG MKG20000426092509304/26/00 09:25:31  5-MIN KMKG 261425Z VRB05KT 10SM CLR 14/M07 A3015 420 23 400 VRB/05 RMK AO2
14840KMKG MKG20000426093009304/26/00 09:30:31  5-MIN KMKG 261430Z 31005KT 10SM CLR 14/M07 A3015 420 22 400 310/05 RMK AO2
14840KMKG MKG20000426093509304/26/00 09:35:31  5-MIN KMKG 261435Z 29006KT 10SM CLR 13/M03 A3015 420 32 400 300/06 RMK AO2
14840KMKG MKG20000426094009304/26/00 09:40:31  5-MIN KMKG 261440Z 27006KT 10SM CLR 13/M02 A3015 420 34 400 280/06 RMK AO2
14840KMKG MKG20000426094509304/26/00 09:45:31  5-MIN KMKG 261445Z 25004KT 10SM CLR 13/M02 A3015 420 35 400 250/04 RMK AO2
14840KMKG MKG20000426095011604/26/00 09:50:31  5-MIN KMKG 261450Z 30004KT 10SM CLR 13/M04 A3015 420 30 400 300/04 RMK AO2 SLP212 T01331039 53009
14840KMKG MKG20000426095511604/26/00 09:55:31  5-MIN KMKG 261455Z VRB03KT 10SM CLR 14/M02 A3015 420 32 400 VRB/03 RMK AO2 SLP212 T01391022 58003
14840KMKG MKG20000426100009304/26/00 10:00:31  5-MIN KMKG 261500Z VRB03KT 10SM CLR 14/M03 A3015 420 30 400 VRB/03 RMK AO2
14840KMKG MKG20000426100509304/26/00 10:05:31  5-MIN KMKG 261505Z VRB04KT 10SM CLR 14/M04 A3015 420 26 500 VRB/04 RMK AO2
14840KMKG MKG20000426101009304/26/00 10:10:31  5-MIN KMKG 261510Z VRB04KT 10SM CLR 14/M03 A3015 420 29 500 VRB/04 RMK AO2
14840KMKG MKG20000426101506104/26/00 10:15:31  5-MIN KMKG 261515Z 33O2 400 290/10 RMK AO2
14840KMKG MKG20000426112009304/26/00 11:20:31  5-MIN KMKG 261620Z 28011KT 10SM CLR 14/M07 A3014 420 23 400 290/11 RMK AO2
14840KMKG MKG20000426112509304/26/00 11:25:31  5-MIN KMKG 261625Z 27010KT 10SM CLR 14/M06 A3014 420 24 400 280/10 RMK AO2
14840KMKG MKG20000426113008004/26/00 11:30:31  5-MIN23 011KT 10SM CLR 14/M07 A3013 440 22 500 280/11 RMK AO2
14840KMKG MKG20000426125012804/26/00 12:50:31  5-MIN KMKG 261750Z 30012KT 10SM CLR 14/M07 A3012 440 23 500 300/12 RMK AO2 SLP204 T01391067 10150 20044 58003
14840KMKG MKG20000426125507404/26/00 12:55:31  5-MIN KMKG 261755Z 30012KT 10SM CLR 1500 280/12 RMK AO2
14840KMKG MKG20000426140509304/26/00 14:05:31  5-MIN KMKG 261905Z 28013KT 10SM CLR 14/M08 A3011 450 20 500 290/13 RMK AO2
14840KMKG MKG20000426141009304/26/00 14:10:31  5-MIN KMKG 261910Z 28012KT 10SM CLR 14/M08 A3011 450 20 500 290/12 RMK AO2
14840KMKG MKG20000426141502604/26/00 14:15:31  5-MIN21
14840KMKG MKG20000426152009304/26/00 15:20:31  5-MIN KMKG 262020Z 29010KT 10SM CLR 13/M07 A3009 470 24 400 300/10 RMK AO2
14840KMKG MKG20000426152509304/26/00 15:25:31  5-MIN KMKG 262025Z 29011KT 10SM CLR 13/M07 A3009 470 25 400 290/11 RMK AO2
14840KMKG MKG20000426153009304/26/00 15:30:31  5-MIN KMKG 262030Z 29012KT 10SM CLR 13/M07 A3009 480 24 400 290/12 RMK AO2
14840KMKG MKG20000426161009304/26/00 16:10:31  5-MIN KMKG 262110Z 31009KT 10SM CLR 13/M06 A3008 480 26 400 310/09 RMK AO2
14840KMKG MKG20000426161509304/26/00 16:15:31  5-MIN KMKG 262115Z 31010KT 10SM CLR 13/M05 A3008 480 27 400 310/10 RMK AO2
14840KMKG MKG20000426162009304/26/00 16:20:31  5-MIN KMKG 262120Z 29008KT 10SM CLR 13/M05 A3008 480 27 400 300/08 RMK AO2
14840KMKG MKG20000426162507904/26/00 16:25:31  5-MIN KMKG 262125Z 28008KT 10O2 007 500 26500 270/07 RMK AO2
14840KMKG MKG20000426172509304/26/00 17:25:31  5-MIN KMKG 262225Z 27007KT 10SM CLR 13/M06 A3006 500 25 500 280/07 RMK AO2
14840KMKG MKG20000426173009304/26/00 17:30:31  5-MIN KMKG 262230Z 27006KT 10SM CLR 13/M07 A3006 500 24 500 270/06 RMK AO2
14840KMKG MKG20000426184009304/26/00 18:40:31  5-MIN KMKG 262340Z 28007KT 10SM CLR 12/M06 A3005 510 28 300 280/07 RMK AO2
14840KMKG MKG20000426184512004/26/00 18:45:31  5-MIN KMKG 262345Z 28007KT 10 000KT 10SM CLR 08/M04 A3005 510 43 -100 000/00 RMK AO2 SLP179 T00781039
14840KMKG MKG20000426195511104/26/00 19:55:31  5-MIN KMKG 270055Z 00000KT 10SM CLR 08/M03 A3005 510 47 -100 000/00 RMK AO2 SLP179 T00781028
14840KMKG MKG20000426200010504/26/00 20:00:31  5-MIN KMKG 270100Z 22004KT 1043 000KT 10SM CLR 06/M01 A3005 510 60 -300 000/00 RMK AO2
14840KMKG MKG20000426211009404/26/00 21:10:31  5-MIN KMKG 270210Z 28003KT 10SM CLR 07/M01 A3005 510 57 -300 280/03 RMK AO2
14840KMKG MKG20000426213009404/26/00 21:30:31  5-MIN KMKG 270230Z 00000KT 10SM CLR 06/M01 A3005 510 65 -400 000/00 RMK AO2
14840KMKG MKG20000426213509404/26/00 21:35:31  5-MIN KMKG 270235Z 00000KT 10SM CLR 06/M01 A3005 510 65 -400 000/00 RMK AO2
14840KMKG MKG20000426214008104/26/00 21:40:31  5-MIN65 000KT 10SM CLR 04/M01 A3005 510 73 -600 000/00 RMK AO2
14840KMKG MKG20000426223009404/26/00 22:30:31  5-MIN KMKG 270330Z 10003KT 10SM CLR 04/M01 A3005 510 73 -600 110/03 RMK AO2
14840KMKG MKG20000426223510204/26/00 22:35:31  5-MIN KMKG 270335Z 00000KT 10SM CLR 06/M01 A3005 510 65 -400 000-700 000/00 RMK AO2
14840KMKG MKG20000426231509404/26/00 23:15:31  5-MIN KMKG 270415Z 00000KT 10SM CLR 03/M01 A3004 520 76 -700 000/00 RMK AO2
14840KMKG MKG20000426232009404/26/00 23:20:31  5-MIN KMKG 270420Z 00000KT 10SM CLR 03/M01 A3004 520 72 -700 000/00 RMK AO2
14840KMKG MKG20000426232502604/26/00 23:25:31  5-MIN72
14840KMKG MKG20000427001009404/27/00 00:10:31  5-MIN KMKG 270510Z 00000KT 10SM CLR 02/M01 A3003 530 78 -800 000/00 RMK AO2
14840KMKG MKG20000427001509404/27/00 00:15:31  5-MIN KMKG 270515Z 00000KT 10SM CLR 03/M01 A3003 530 75 -700 000/00 RMK AO2
14840KMKG MKG20000427002014204/27/00 00:20:31  5-MIN KMKG 270520Z 00000KT 1004/27/00 01:20:31  5-MIN KMKG 270620Z 00000KT 10SM CLR 02/M01 A3001 550 82 -900 000/00 RMK AO2
14840KMKG MKG20000427012509404/27/00 01:25:31  5-MIN KMKG 270625Z 00000KT 10SM CLR 02/M01 A3001 550 78 -800 000/00 RMK AO2
14840KMKG MKG20000427013014204/27/00 01:30:31  5-MIN KMKG 270630Z 00000KT 1004/27/00 02:35:31  5-MIN KMKG 270735Z 00000KT 10SM CLR 03/M02 A2999 570 72 -700 000/00 RMK AO2
14840KMKG MKG20000427024009404/27/00 02:40:31  5-MIN KMKG 270740Z 00000KT 10SM CLR 03/M02 A2999 570 72 -700 000/00 RMK AO2
14840KMKG MKG20000427024509404/27/00 02:45:31  5-MIN KMKG 270745Z 00000KT 10SM CLR 03/M02 A2999 570 70 -600 000/00 RMK AO2
14840KMKG MKG20000427025013004/27/00 02:50:31  5-MIN KMKG 270750Z 00000KT 10SM CLR 03/M02 A2999 570 69 -700 000/00 RMK AO2 SLP158 T00281022 04/27/00 02:55:308
14840KMKG MKG20000427040009404/27/00 04:00:31  5-MIN KMKG 270900Z 13003KT 10SM CLR 01/M02 A2997 580 78 -900 130/03 RMK AO2
14840KMKG MKG20000427040509404/27/00 04:05:31  5-MIN KMKG 270905Z 12003KT 10SM CLR 01/M02 A2997 580 78 -900 130/03 RMK AO2
14840KMKG MKG20000427041006704/27/00 04:10:31  5-MIN KMKG 270910Z 12003KT 10-900 000/00 RMK AO2
14840KMKG MKG20000427051009404/27/00 05:10:31  5-MIN KMKG 271010Z 00000KT 10SM CLR 01/M03 A2997 590 75 -900 000/00 RMK AO2
14840KMKG MKG20000427051509404/27/00 05:15:31  5-MIN KMKG 271015Z 00000KT 10SM CLR 02/M03 A2997 580 72 -800 000/00 RMK AO2
14840KMKG MKG20000427052011804/27/00 05:20:31  5-MIN04/27/00 06:35:31  5-MIN KMKG 271135Z 10005KT 10SM CLR 03/M03 A2996 590 64 -700 100/05 RMK AO2
14840KMKG MKG20000427064009404/27/00 06:40:31  5-MIN KMKG 271140Z 10003KT 10SM CLR 03/M03 A2996 590 64 -600 100/03 RMK AO2
14840KMKG MKG20000427064509404/27/00 06:45:31  5-MIN KMKG 271145Z 10004KT 10SM CLR 04/M03 A2996 600 62 -500 100/04 RMK AO2
14840KMKG MKG20000427065012904/27/00 06:50:31  5-MIN KMKG 271150Z 10003KT 10SM CLR 04/M03 A2996 590 57 -400 110/03 RMK AO2 SLP148 T00441033 10044 20006 56015
14840KMKG MKG20000427065512904/27/00 06:55:31  5-MIN KMKG 271155Z 10004KT 10SM CLR 05/M03 A2996 600 55 -400 110/04 RMK AO2 SLP148 T00501033 10050 20006 56006
14840KMKG MKG20000427070009404/27/00 07:00:31  5-MIN KMKG 271200Z 11005KT 10SM CLR 05/M03 A2996 600 55 -400 110/05 RMK AO2
14840KMKG MKG20000427070509404/27/00 07:05:31  5-MIN KMKG 271205Z 11004KT 10SM CLR 06/M03 A2996 600 53 -300 110/04 RMK AO2
14840KMKG MKG20000427071009404/27/00 07:10:31  5-MIN KMKG 271210Z 11005KT 10SM CLR 06/M03 A2996 600 53 -200 120/05 RMK AO2
14840KMKG MKG20000427071509404/27/00 07:15:31  5-MIN KMKG 271215Z 12006KT 10SM CLR 07/M03 A2996 590 51 -200 120/06 RMK AO2
14840KMKG MKG20000427072009404/27/00 07:20:31  5-MIN KMKG 271220Z 11005KT 10SM CLR 07/M03 A2996 590 51 -200 120/05 RMK AO2
14840KMKG MKG20000427072509404/27/00 07:25:31  5-MIN KMKG 271225Z 12006KT 10SM CLR 07/M03 A2996 600 49 -100 120/06 RMK AO2
14840KMKG MKG20000427073009104/27/00 07:30:31  5-MIN KMKG 271230Z 12006KT 10SM CLR 08/M03 A2996 600 47 0 120/06 RMK AO2
14840KMKG MKG20000427073509104/27/00 07:35:31  5-MIN KMKG 271235Z 12007KT 10SM CLR 08/M02 A2996 600 49 0 120/07 RMK AO2
14840KMKG MKG20000427074009104/27/00 07:40:31  5-MIN KMKG 271240Z 12007KT 10SM CLR 08/M02 A2996 600 47 0 120/07 RMK AO2
14840KMKG MKG20000427074509104/27/00 07:45:31  5-MIN KMKG 271245Z 12007KT 10SM CLR 09/M02 A2996 600 45 0 120/07 RMK AO2
14840KMKG MKG20000427075010804/27/00 07:50:31  5-MIN KMKG 271250Z 12007KT 10SM CLR 09/M02 A2995 600 45 0 120/07 RMK AO2 SLP147 T00891022
14840KMKG MKG20000427075511004/27/00 07:55:31  5-MIN KMKG 271255Z 12008KT 10SM CLR 09/M02 A2995 600 45 100 120/08 RMK AO2 SLP145 T00941017
14840KMKG MKG20000427080009304/27/00 08:00:31  5-MIN KMKG 271300Z 12007KT 10SM CLR 09/M02 A2995 600 45 100 120/07 RMK AO2
14840KMKG MKG20000427080509304/27/00 08:05:31  5-MIN KMKG 271305Z 11009KT 10SM CLR 10/M01 A2995 600 46 200 120/09 RMK AO2
14840KMKG MKG20000427081009304/27/00 08:10:31  5-MIN KMKG 271310Z 12008KT 10SM CLR 10/M01 A2995 600 46 200 120/08 RMK AO2
14840KMKG MKG20000427081509304/27/00 08:15:31  5-MIN KMKG 271315Z 12007KT 10SM CLR 11/M01 A2995 600 44 300 130/07 RMK AO2
14840KMKG MKG20000427082009304/27/00 08:20:31  5-MIN KMKG 271320Z 11006KT 10SM CLR 11/M01 A2995 600 44 300 120/06 RMK AO2
14840KMKG MKG20000427082509304/27/00 08:25:31  5-MIN KMKG 271325Z 11007KT 10SM CLR 11/M01 A2995 600 44 300 110/07 RMK AO2
14840KMKG MKG20000427083009304/27/00 08:30:31  5-MIN KMKG 271330Z 09007KT 10SM CLR 12/M01 A2995 600 42 400 100/07 RMK AO2
14840KMKG MKG20000427083509304/27/00 08:35:31  5-MIN KMKG 271335Z 09008KT 10SM CLR 11/M01 A2995 600 42 300 100/08 RMK AO2
14840KMKG MKG20000427084009304/27/00 08:40:31  5-MIN KMKG 271340Z 11007KT 10SM CLR 12/M01 A2995 600 42 400 110/07 RMK AO2
14840KMKG MKG20000427084509304/27/00 08:45:31  5-MIN KMKG 271345Z 11007KT 10SM CLR 12/M01 A2995 610 41 500 110/07 RMK AO2
14840KMKG MKG20000427085011004/27/00 08:50:31  5-MIN KMKG 271350Z 11008KT 10SM CLR 12/M01 A2995 610 39 500 120/08 RMK AO2 SLP143 T01221011
14840KMKG MKG20000427085511004/27/00 08:55:31  5-MIN KMKG 271355Z 12009KT 10SM CLR 13/M01 A2995 610 38 500 120/09 RMK AO2 SLP143 T01281011
14840KMKG MKG20000427090009304/27/00 09:00:31  5-MIN KMKG 271400Z 11009KT 10SM CLR 13/M01 A2995 610 36 600 110/09 RMK AO2
14840KMKG MKG20000427090509304/27/00 09:05:31  5-MIN KMKG 271405Z 11008KT 10SM CLR 13/M01 A2994 610 38 500 120/08 RMK AO2
14840KMKG MKG20000427091009304/27/00 09:10:31  5-MIN KMKG 271410Z 11008KT 10SM CLR 13/M01 A2994 610 38 600 120/08 RMK AO2
14840KMKG MKG20000427091509304/27/00 09:15:31  5-MIN KMKG 271415Z 09008KT 10SM CLR 13/M01 A2994 610 38 600 090/08 RMK AO2
14840KMKG MKG20000427092009304/27/00 09:20:31  5-MIN KMKG 271420Z 10008KT 10SM CLR 13/M01 A2994 610 38 600 110/08 RMK AO2
14840KMKG MKG20000427092509304/27/00 09:25:31  5-MIN KMKG 271425Z 10008KT 10SM CLR 14/M01 A2994 610 37 700 100/08 RMK AO2
14840KMKG MKG20000427093008404/27/00 09:30:31  5-MIN KMKG 271430Z 11008KT 10SM CLR 14/00 A298 900 130/07 RMK AO2
14840KMKG MKG20000427102009304/27/00 10:20:31  5-MIN KMKG 271520Z 10007KT 10SM CLR 16/M02 A2994 610 28 900 110/07 RMK AO2
14840KMKG MKG20000427102509404/27/00 10:25:31  5-MIN KMKG 271525Z 10008KT 10SM CLR 17/M02 A2994 610 28 1000 110/08 RMK AO2
14840KMKG MKG20000427103002604/27/00 10:30:31  5-MIN26
14840KMKG MKG20000427113511004/27/00 11:35:31  5-MIN KMKG 271635Z 14009KT 120V180 10SM CLR 18/M03 A2992 630 23 1200 140/09 120V180 RMK AO2
14840KMKG MKG20000427114009404/27/00 11:40:31  5-MIN KMKG 271640Z VRB06KT 10SM CLR 18/M03 A2992 630 23 1200 VRB/06 RMK AO2
14840KMKG MKG20000427114508604/27/00 11:45:31  5-MIN KMKG 271400 110/09 RMK AO2 SLP129 T02001044 10200 20050 58011
14840KMKG MKG20000427130009404/27/00 13:00:31  5-MIN KMKG 271800Z VRB03KT 10SM CLR 19/M05 A2991 640 18 1400 VRB/03 RMK AO2
14840KMKG MKG20000427130508604/27/00 13:05:31  5-MIN KMKG 271805Z 06010KT 10SM CLR 20/M04 A2991 640 19 1400 070AO2
14840KMKG MKG20000427142009304/27/00 14:20:31  5-MIN KMKG 271920Z 27008KT 10SM CLR 19/01 A2990 650 30 1300 270/08 RMK AO2
14840KMKG MKG20000427142505904/27/00 14:25:31  5-MIN KMKG 271925Z 27009KT 10SM CLR 1AO2
14840KMKG MKG20000427153009404/27/00 15:30:31  5-MIN KMKG 272030Z 29009KT 10SM CLR 19/M01 A2989 660 25 1300 300/09 RMK AO2
14840KMKG MKG20000427153509404/27/00 15:35:31  5-MIN KMKG 272035Z 27008KT 10SM CLR 18/M01 A2989 660 26 1200 280/08 RMK AO2
14840KMKG MKG20000427154014204/27/00 15:40:31  5-MIN KMKG 272040Z 28009KT 1004/27/00 16:45:31  5-MIN KMKG 272145Z 29008KT 10SM CLR 17/M01 A2990 650 28 1100 300/08 RMK AO2
14840KMKG MKG20000427165011104/27/00 16:50:31  5-MIN KMKG 272150Z 28008KT 10SM CLR 18/M01 A2990 650 28 1200 290/08 RMK AO2 SLP127 T01781006
14840KMKG MKG20000427165506804/27/00 16:55:31  5-MIN KMKG 271100 310/07 RMK AO2 SLP130 T01721017
14840KMKG MKG20000427175011104/27/00 17:50:31  5-MIN KMKG 272250Z 31007KT 10SM CLR 17/M01 A2991 640 28 1100 310/07 RMK AO2 SLP130 T01721011
