14840KMKG MKG20000601002511306/01/00 00:25:31  5-MIN KMKG 010525Z 27006KT 5SM -RA BR FEW070 14/13 A3010 470 96 500 270/06 RMK AO2 RAB23 P0000
14840KMKG MKG20000601003017806/01/00 00:30:31  5-MIN KMKG 010530Z 29005KT 5SM -RA BR FEW070 14/13 A3010 460 96 500 290/05 RMK AO2 RAB23 P0000  FEW006 BKN050BKN095 14/13 A3006 500 96 500 020/04 RMK AO2 P0000
14840KMKG MKG20000601011011506/01/00 01:10:31  5-MIN KMKG 010610Z 36003KT 4SM -RA BR SCT006 BKN050 14/14 A3006 500 100 500 360/03 RMK AO2 P0000
14840KMKG MKG20000601011506506/01/00 01:15:31  5-MIN KMKG 010615Z 00000KT 4SM -RA BRT01440139
14840KMKG MKG20000601015514806/01/00 01:55:31  5-MIN KMKG 010655Z 00000KT 4SM -RA BR FEW006 BKN100 14/14 A3006 510 96 600 000/00 RMK AO2 VIS 2 1/2 RWY 14 SLP177 P0001 T01440139
14840KMKG MKG20000601020007406/01/00 02:00:31  5-MIN KMKG 010700Z 00000KT 3SM -RA BR FEW006 BKN095 000
14840KMKG MKG20000601024016606/01/00 02:40:31  5-MIN KMKG 010740Z 36007KT 2 1/2SM TSRA BR FEW005 OVC048 14/14 A3010 460 96 500 010/07 RMK AO2 VIS 1 3/4 RWY 14 TSB29 OCNL LTGIC W TS W MOV E P0005
14840KMKG MKG20000601024508006/01/00 02:45:31  5-MIN KMKG 010745Z 02006KT 2SM TSRA BR FEW005 OVC041 06/01/00
14840KMKG MKG20000601025018406/01/00 02:50:31  5-MIN KMKG 010750Z 00000KT 2 1/2SM TSRA BR FEW005 OVC039 14/14 A3010 460 100 500 000/00 RMK AO2 VIS 1 3/4 RWY 14 TSB29 SLP193 OCNL LTGIC W TS W MOV E P0007 T01440144
14840KMKG MKG20000601025517006/01/00 02:55:31  5-MIN KMKG 010755Z 03004KT 2 1/2SM RA BR FEW005 OVC039 14/14 A3009 470 100 600 030/04 RMK AO2 VIS 1 3/4 RWY 14 TSB29E54 SLP190 TSB29E55 P0008 T01440144
14840KMKG MKG20000601030013606/01/00 03:00:31  5-MIN KMKG 010800Z 05006KT 2 1/2SM -RA BR FEW005 OVC041 14/14 A3008 480 100 600 050/06 RMK AO2 VIS 1 3/4 RWY 14 P0001
14840KMKG MKG20000601030513506/01/00 03:05:31  5-MIN KMKG 010805Z 00000KT 2 1/2SM RA BR FEW005 OVC042 14/14 A3009 470 100 600 000/00 RMK AO2 VIS 1 3/4 RWY 14 P0002
14840KMKG MKG20000601031011906/01/00 03:10:31  5-MIN KMKG 010810Z 06005KT 2 1/2SM -RA BR FEW005 OVC038 14/14 A3008 480 100 600 060/05 RMK AO2 P0002
14840KMKG MKG20000601031511506/01/00 03:15:31  5-MIN KMKG 010815Z 08005KT 3SM -RA BR FEW005 OVC036 14/14 A3008 480 100 600 080/05 RMK AO2 P0003
14840KMKG MKG20000601032012806/01/00 03:20:31  5-MIN KMKG 010820Z 07004KT 3SM -RA BR FEW005 OVC036 14/14 A3008 480 100 600 080/04 RMK AO2 VIS 2 RWY 14 P0003
14840KMKG MKG20000601032512706/01/00 03:25:31  5-MIN KMKG 010825Z 00000KT 3SM -RA BR BKN036 OVC120 14/14 A3009 470 96 600 000/00 RMK AO2 VIS 2 RWY 14 P0004
14840KMKG MKG20000601033012106/01/00 03:30:31  5-MIN KMKG 010830Z 00000KT 3SM -RA BR FEW005 BKN034 OVC110 14/14 A3009 470 96 600 000/00 RMK AO2 P0004
14840KMKG MKG20000601033514106/01/00 03:35:31  5-MIN KMKG 010835Z 00000KT 3SM -RA BR SCT005 BKN031 OVC110 14/14 A3011 460 96 500 000/00 RMK AO2 VIS 2 RWY 14 PRESRR P0005
14840KMKG MKG20000601034011806/01/00 03:40:31  5-MIN KMKG 010840Z 00000KT 2 1/2SM RA BR SCT005 OVC029 14/14 A3011 460 100 500 000/00 RMK AO2 P0006
14840KMKG MKG20000601034511806/01/00 03:45:31  5-MIN KMKG 010845Z 17003KT 2 1/2SM RA BR BKN005 OVC027 14/14 A3010 460 100 500 170/03 RMK AO2 P0007
14840KMKG MKG20000601035015706/01/00 03:50:31  5-MIN KMKG 010850Z 00000KT 3SM -RA BR BKN005 OVC029 14/14 A3010 470 100 500 000/00 RMK AO2 VIS 2 RWY 14 SLP193 P0008 60017 T01440144 55012
14840KMKG MKG20000601035515706/01/00 03:55:31  5-MIN KMKG 010855Z 17003KT 3SM -RA BR SCT005 OVC027 14/14 A3010 470 100 500 170/03 RMK AO2 VIS 2 RWY 14 SLP193 P0008 60017 T01440144 53014
14840KMKG MKG20000601040013306/01/00 04:00:31  5-MIN KMKG 010900Z 08003KT 2 1/2SM -RA BR SCT005 BKN029 OVC110 14/14 A3009 480 100 600 080/03 RMK AO2 PRESFR P0001
14840KMKG MKG20000601040512206/01/00 04:05:31  5-MIN KMKG 010905Z 09003KT 2SM -RA BR SCT005 BKN031 OVC110 14/14 A3009 470 100 600 100/03 RMK AO2 P0001
14840KMKG MKG20000601041012206/01/00 04:10:31  5-MIN KMKG 010910Z 09004KT 2SM -RA BR FEW005 SCT031 OVC110 14/14 A3009 480 100 600 090/04 RMK AO2 P0002
14840KMKG MKG20000601041514306/01/00 04:15:31  5-MIN KMKG 010915Z 12004KT 2 1/2SM -RA BR FEW005 SCT031 OVC110 14/14 A3009 480 100 600 120/04 RMK AO2 VIS 1 3/4 RWY 14 P0002
14840KMKG MKG20000601042011906/01/00 04:20:31  5-MIN KMKG 010920Z 09005KT 2 1/2SM -RA BR SCT039 OVC110 14/14 A3008 480 100 600 090/05 RMK AO2 P0002
14840KMKG MKG20000601042511506/01/00 04:25:31  5-MIN KMKG 010925Z 08004KT 2SM -RA BR BKN040 OVC110 14/14 A3008 480 100 600 080/04 RMK AO2 P0003
14840KMKG MKG20000601043011506/01/00 04:30:31  5-MIN KMKG 010930Z 08005KT 2SM -RA BR BKN042 OVC110 14/14 A3008 480 100 600 080/05 RMK AO2 P0003
14840KMKG MKG20000601043513606/01/00 04:35:31  5-MIN KMKG 010935Z 07004KT 2 1/2SM -RA BR BKN044 OVC110 14/14 A3008 480 100 600 080/04 RMK AO2 VIS 1 3/4 RWY 14 P0004
14840KMKG MKG20000601044013606/01/00 04:40:31  5-MIN KMKG 010940Z 07004KT 2 1/2SM -RA BR BKN044 OVC110 14/14 A3008 480 100 600 070/04 RMK AO2 VIS 1 3/4 RWY 14 P0004
14840KMKG MKG20000601044511106/01/00 04:45:31  5-MIN KMKG 010945Z VRB03KT 2 1/2SM RA BR BKN042 14/14 A3008 480 100 600 VRB/03 RMK AO2 P0005
14840KMKG MKG20000601045012906/01/00 04:50:31  5-MIN KMKG 010950Z 19003KT 2 1/2SM -RA BR BKN040 14/14 A3009 470 100 600 200/03 RMK AO2 SLP192 P0005 T01440144
14840KMKG MKG20000601045512506/01/00 04:55:31  5-MIN KMKG 010955Z 21007KT 3SM -RA BR SCT043 14/14 A3010 460 100 500 210/07 RMK AO2 SLP194 P0005 T01440144
14840KMKG MKG20000601050011206/01/00 05:00:31  5-MIN KMKG 011000Z 19008KT 2 1/2SM -RA BR SCT043 14/14 A3009 470 100 600 200/08 RMK AO2 P0000
14840KMKG MKG20000601050513106/01/00 05:05:31  5-MIN KMKG 011005Z 18006KT 2 1/2SM BR FEW039 14/14 A3009 480 100 600 180/06 RMK AO2 VIS 1 3/4 RWY 14 RAE01 P0000
14840KMKG MKG20000601051013806/01/00 05:10:31  5-MIN KMKG 011010Z 16007KT 2 1/2SM BR FEW024 14/14 A3007 490 100 600 170/07 RMK AO2 VIS 1 3/4 RWY 14 RAE01 PRESFR P0000
14840KMKG MKG20000601051513806/01/00 05:15:31  5-MIN KMKG 011015Z 14009KT 2 1/2SM BR SCT045 14/14 A3006 500 100 600 140/09 RMK AO2 VIS 1 3/4 RWY 14 RAE01 PRESFR P0000
14840KMKG MKG20000601052013806/01/00 05:20:31  5-MIN KMKG 011020Z 12007KT 2 1/2SM BR SCT045 14/14 A3005 510 100 600 120/07 RMK AO2 VIS 1 3/4 RWY 14 RAE01 PRESFR P0000
14840KMKG MKG20000601052513106/01/00 05:25:31  5-MIN KMKG 011025Z 09004KT 2 1/2SM BR SCT045 14/14 A3006 500 100 600 100/04 RMK AO2 VIS 1 3/4 RWY 14 RAE01 P0000
14840KMKG MKG20000601053011406/01/00 05:30:31  5-MIN KMKG 011030Z 12004KT 2 1/2SM BR SCT045 14/14 A3006 500 100 600 130/04 RMK AO2 RAE01 P0000
14840KMKG MKG20000601053511406/01/00 05:35:31  5-MIN KMKG 011035Z 12003KT 2 1/2SM BR SCT040 14/14 A3006 500 100 600 120/03 RMK AO2 RAE01 P0000
14840KMKG MKG20000601054011306/01/00 05:40:31  5-MIN KMKG 011040Z 11005KT 2 1/2SM BR SCT040 15/14 A3006 510 96 700 110/05 RMK AO2 RAE01 P0000
14840KMKG MKG20000601054512006/01/00 05:45:31  5-MIN KMKG 011045Z 11005KT 2 1/2SM BR SCT040 OVC120 15/14 A3005 510 96 700 110/05 RMK AO2 RAE01 P0000
14840KMKG MKG20000601055013006/01/00 05:50:31  5-MIN KMKG 011050Z 10004KT 2 1/2SM BR OVC120 15/14 A3006 500 96 700 100/04 RMK AO2 RAE01 SLP180 P0000 T01500144
14840KMKG MKG20000601055513106/01/00 05:55:31  5-MIN KMKG 011055Z 09003KT 2 1/2SM BR OVC120 15/15 A3008 490 100 600 100/03 RMK AO2 RAE01 SLP184 P0000 T01500150
14840KMKG MKG20000601060017306/01/00 06:00:31  5-MIN KMKG 011100Z 00000KT 3SM -TSRA BR OVC120 15/15 A3009 480 100 600 000/00 RMK AO2 VIS 2 RWY 14 TSB00RAB1056 PRESRR OCNL LTGIC W TSB58 TS W MOV E P0000
14840KMKG MKG20000601060516706/01/00 06:05:31  5-MIN KMKG 011105Z 00000KT 3SM -TSRA BR SCT100 OVC120 15/15 A3009 470 100 600 000/00 RMK AO2 TSB00RAB1056 PRESRR OCNL LTGIC W TSB58 TS W MOV E P0000
14840KMKG MKG20000601061017306/01/00 06:10:31  5-MIN KMKG 011110Z 00000KT 3SM TS BR BKN100 OVC120 15/15 A3010 470 100 600 000/00 RMK AO2 VIS 2 RWY 14 TSB00RAB1056E06 OCNL LTGIC W TSB58 TS W MOV E P0000
14840KMKG MKG20000601061518806/01/00 06:15:31  5-MIN KMKG 011115Z 01004KT 3SM -TSRA BR BKN100 OVC120 15/15 A3011 460 100 600 010/04 RMK AO2 VIS 1 1/2 RWY 14 TSB00RAB1056 PRESRR OCNL LTGCGCCIC W TSB58 TS W MOV E P0000
14840KMKG MKG20000601062018606/01/00 06:20:31  5-MIN KMKG 011120Z 31007KT 2 1/2SM -TSRA BR BKN095 OVC120 15/15 A3014 430 100 600 320/07 RMK AO2 VIS 1 1/2 RWY 14 TSB00RAB1056 PRESRR OCNL LTGCGCCIC W TS W MOV E P0000
14840KMKG MKG20000601062517206/01/00 06:25:31  5-MIN KMKG 011125Z 30009KT 2 1/2SM -TSRA BR FEW036 OVC095 15/15 A3017 400 100 500 310/09 RMK AO2 TSB00RAB1056 PRESRR FRQ LTGCGCCIC OHD TS OHD MOV E P0000
14840KMKG MKG20000601063019906/01/00 06:30:31  5-MIN KMKG 011130Z 27019G26KT 2SM +TSRA BR FEW010 SCT036 OVC095 15/15 A3020 380 100 500 270/19G26 RMK AO2 PK WND 27026/1129 TSB00RAB1056 PRESRR FRQ LTGCGCCIC OHD TS OHD MOV E P0008
14840KMKG MKG20000601063519806/01/00 06:35:31  5-MIN KMKG 011135Z 03006G26KT 1SM +TSRA BR SCT008 BKN036 OVC095 14/14 A3015 420 100 500 030/06G26 RMK AO2 PK WND 27026/1129 FRQ LTGCGCCIC OHD TSB00RAB1056E06B10 TS OHD MOV E P0027
14840KMKG MKG20000601064018806/01/00 06:40:31  5-MIN KMKG 011140Z 20007KT 1SM +TSRA BR FEW006 BKN011 OVC095 15/14 A3014 430 96 600 200/07 RMK AO2 PK WND 27026/1129 CONS LTGCGCCIC TSB00RAB1056E06B10 TS OHD MOV E P0030
14840KMKG MKG20000601064520506/01/00 06:45:31  5-MIN KMKG 011145Z 08008KT 2SM +TSRA BR FEW004 BKN028 OVC090 15/14 A3011 460 96 600 090/08 RMK AO2 PK WND 27026/1129 VIS 1 1/4 RWY 14 CONS LTGCGCCIC TSB00RAB1056E06B10 TS OHD MOV E P0032
14840KMKG MKG20000601065024106/01/00 06:50:31  5-MIN KMKG 011150Z 13007KT 3SM -TSRA BR FEW004 BKN033 15/14 A3011 450 96 600 130/07 RMK AO2 PK WND 27026/1129 VIS 2 RWY 14 SLP196 CONS LTGCGCCIC TSB00RAB1056E06B10 TS OHD MOV E P0032 60054 70056 T01500144 10150 20139 53014
14840KMKG MKG20000601065524506/01/00 06:55:31  5-MIN KMKG 011155Z 14008KT 4SM TSRA BR SCT004 OVC030 15/15 A3011 450 100 600 140/08 RMK AO2 PK WND 27026/1129 VIS 2 1/2 RWY 14 SLP197 CONS LTGCGCCIC TSB00RAB1056E06B10 TS OHD MOV E P0033 60055 70057 T01500150 10150 20139 53006
14840KMKG MKG20000601070017006/01/00 07:00:31  5-MIN KMKG 011200Z 11007KT 4SM -TSRA BR SCT004 OVC028 15/15 A3011 460 100 600 110/07 RMK AO2 VIS 2 1/2 RWY 14 CONS LTGICCCCGCA TS S AND OHD MOV E P0001
14840KMKG MKG20000601070517706/01/00 07:05:31  5-MIN KMKG 011205Z 12007KT 4SM -TSRA BR FEW004 BKN033 OVC120 15/15 A3010 460 100 600 120/07 RMK AO2 VIS 2 1/2 RWY 14 CONS LTGICCCCGCA TS S AND OHD MOV E P0001
14840KMKG MKG20000601071017706/01/00 07:10:31  5-MIN KMKG 011210Z 12007KT 4SM -TSRA BR FEW004 BKN040 OVC110 15/15 A3010 460 100 600 130/07 RMK AO2 VIS 2 1/2 RWY 14 CONS LTGICCCCGCA TS S AND OHD MOV E P0001
14840KMKG MKG20000601071517706/01/00 07:15:31  5-MIN KMKG 011215Z 13008KT 3SM -TSRA BR FEW004 SCT035 OVC110 15/15 A3010 460 100 600 130/08 RMK AO2 VIS 2 1/2 RWY 14 CONS LTGICCCCGCA TS S AND OHD MOV E P0001
14840KMKG MKG20000601072017106/01/00 07:20:31  5-MIN KMKG 011220Z 14008KT 3SM -TSRA BR SCT004 SCT031 OVC100 15/15 A3011 460 100 600 140/08 RMK AO2 VIS 2 RWY 14 OCNL LTGICCGCA TS S AND OHD MOV E P0001
14840KMKG MKG20000601072517106/01/00 07:25:31  5-MIN KMKG 011225Z 16006KT 3SM -TSRA BR SCT004 SCT031 OVC100 15/15 A3011 460 100 600 160/06 RMK AO2 VIS 2 RWY 14 OCNL LTGICCGCA TS S AND OHD MOV E P0001
14840KMKG MKG20000601073017506/01/00 07:30:31  5-MIN KMKG 011230Z 15007KT 4SM -TSRA BR SCT004 SCT031 OVC100 15/15 A3011 460 100 600 160/07 RMK AO2 VIS 2 1/2 RWY 14 OCNL LTGICCGCA TS S AND OHD MOV E P0001
14840KMKG MKG20000601073517706/01/00 07:35:31  5-MIN KMKG 011235Z 16006KT 4SM TS BR SCT004 SCT031 OVC100 16/15 A3010 460 96 700 160/06 RMK AO2 VIS 2 1/2 RWY 14 RAE34 OCNL LTGICCGCA TS S AND OHD MOV E P0001
14840KMKG MKG20000601074015806/01/00 07:40:31  5-MIN KMKG 011240Z 15008KT 4SM BR SCT004 SCT031 OVC095 16/15 A3010 470 96 700 150/08 RMK AO2 VIS 2 1/2 RWY 14 RAE34 TSE37 LTG DSNT SE P0001
14840KMKG MKG20000601074515906/01/00 07:45:31  5-MIN KMKG 011245Z 15007KT 4SM BR SCT004 SCT031 BKN095 16/16 A3009 470 100 700 160/07 RMK AO2 VIS 2 1/2 RWY 14 RAE34 TSE37 LTG DSNT SE P0001
14840KMKG MKG20000601075016406/01/00 07:50:31  5-MIN KMKG 011250Z 15007KT 4SM BR SCT004 SCT031 BKN095 16/16 A3009 470 100 700 150/07 RMK AO2 VIS 2 1/2 RWY 14 SLP188 RAE34 TSE37 P0001 T01560156
14840KMKG MKG20000601075516406/01/00 07:55:31  5-MIN KMKG 011255Z 15006KT 4SM BR SCT004 SCT031 BKN095 16/16 A3009 470 100 800 150/06 RMK AO2 VIS 2 1/2 RWY 14 RAE34 TSE37 SLP189 P0001 T01610161
14840KMKG MKG20000601080010506/01/00 08:00:31  5-MIN KMKG 011300Z 15005KT 4SM BR FEW004 BKN095 16/16 A3009 470 100 800 150/05 RMK AO2
14840KMKG MKG20000601080510506/01/00 08:05:31  5-MIN KMKG 011305Z 14005KT 4SM BR SCT004 BKN100 16/16 A3009 470 100 800 150/05 RMK AO2
14840KMKG MKG20000601081010506/01/00 08:10:31  5-MIN KMKG 011310Z 15006KT 4SM BR FEW004 BKN100 16/16 A3009 480 100 800 150/06 RMK AO2
14840KMKG MKG20000601081512106/01/00 08:15:31  5-MIN KMKG 011315Z 16007KT 4SM -RA BR FEW004 SCT100 16/16 A3008 480 100 800 160/07 RMK AO2 RAB14 P0000
14840KMKG MKG20000601082012006/01/00 08:20:31  5-MIN KMKG 011320Z 15009KT 4SM -RA BR FEW004 SCT100 17/16 A3008 490 96 800 160/09 RMK AO2 RAB14 P0000
14840KMKG MKG20000601082512106/01/00 08:25:31  5-MIN KMKG 011325Z 16010KT 5SM -RA BR FEW004 SCT090 17/17 A3008 490 100 800 160/10 RMK AO2 RAB14 P0000
14840KMKG MKG20000601083011906/01/00 08:30:31  5-MIN KMKG 011330Z 16008KT 6SM BR FEW004 SCT090 17/17 A3007 490 96 900 160/08 RMK AO2 RAB14E28 P0000
14840KMKG MKG20000601083511906/01/00 08:35:31  5-MIN KMKG 011335Z 16009KT 6SM BR FEW004 SCT090 17/17 A3007 490 96 900 160/09 RMK AO2 RAB14E28 P0000
14840KMKG MKG20000601084011706/01/00 08:40:31  5-MIN KMKG 011340Z 16006KT 7SM FEW004 SCT090 17/17 A3007 490 100 900 170/06 RMK AO2 RAB14E28 P0000
14840KMKG MKG20000601084511706/01/00 08:45:31  5-MIN KMKG 011345Z 16007KT 8SM FEW004 SCT090 18/17 A3007 490 96 1000 160/07 RMK AO2 RAB14E28 P0000
14840KMKG MKG20000601085013406/01/00 08:50:31  5-MIN KMKG 011350Z 16005KT 9SM FEW004 SCT090 18/17 A3007 490 96 1000 160/05 RMK AO2 RAB14E28 SLP183 P0000 T01780172
14840KMKG MKG20000601085513406/01/00 08:55:31  5-MIN KMKG 011355Z 15005KT 9SM FEW004 SCT090 18/17 A3007 490 96 1000 160/05 RMK AO2 RAB14E28 SLP182 P0000 T01780172
14840KMKG MKG20000601090009506/01/00 09:00:31  5-MIN KMKG 011400Z 16006KT 9SM SCT090 18/17 A3007 490 93 1000 170/06 RMK AO2
14840KMKG MKG20000601090509506/01/00 09:05:31  5-MIN KMKG 011405Z VRB05KT 9SM SCT090 18/18 A3007 490 96 1000 VRB/05 RMK AO2
14840KMKG MKG20000601091009606/01/00 09:10:31  5-MIN KMKG 011410Z 15006KT 10SM SCT090 18/18 A3007 490 96 1000 150/06 RMK AO2
14840KMKG MKG20000601091509606/01/00 09:15:31  5-MIN KMKG 011415Z 15008KT 10SM SCT090 19/18 A3007 500 93 1100 160/08 RMK AO2
14840KMKG MKG20000601092009606/01/00 09:20:31  5-MIN KMKG 011420Z 16007KT 10SM SCT090 19/18 A3006 500 90 1200 160/07 RMK AO2
14840KMKG MKG20000601092509606/01/00 09:25:31  5-MIN KMKG 011425Z 16005KT 10SM SCT090 19/18 A3006 500 90 1200 160/05 RMK AO2
14840KMKG MKG20000601093009606/01/00 09:30:31  5-MIN KMKG 011430Z 15008KT 10SM FEW090 19/18 A3006 500 90 1200 150/08 RMK AO2
14840KMKG MKG20000601093509606/01/00 09:35:31  5-MIN KMKG 011435Z 15006KT 10SM FEW090 20/18 A3006 510 87 1200 150/06 RMK AO2
14840KMKG MKG20000601094009606/01/00 09:40:31  5-MIN KMKG 011440Z 16007KT 10SM FEW090 20/18 A3005 510 90 1200 160/07 RMK AO2
14840KMKG MKG20000601094509606/01/00 09:45:31  5-MIN KMKG 011445Z 15007KT 10SM FEW090 21/18 A3005 510 87 1300 150/07 RMK AO2
14840KMKG MKG20000601095012506/01/00 09:50:31  5-MIN KMKG 011450Z 15006KT 10SM FEW090 21/18 A3005 510 87 1300 150/06 RMK AO2 SLP176 60001 T02060183 53006
14840KMKG MKG20000601095512506/01/00 09:55:31  5-MIN KMKG 011455Z 15007KT 10SM FEW090 21/18 A3005 510 84 1400 160/07 RMK AO2 SLP175 60001 T02110183 56021
14840KMKG MKG20000601100009306/01/00 10:00:31  5-MIN KMKG 011500Z 14007KT 10SM CLR 21/18 A3005 510 84 1400 140/07 RMK AO2
14840KMKG MKG20000601100509306/01/00 10:05:31  5-MIN KMKG 011505Z 14007KT 10SM CLR 22/19 A3005 510 84 1400 150/07 RMK AO2
14840KMKG MKG20000601101009306/01/00 10:10:31  5-MIN KMKG 011510Z 15007KT 10SM CLR 22/19 A3005 510 84 1400 160/07 RMK AO2
14840KMKG MKG20000601110009306/01/00 11:00:31  5-MIN KMKG 011600Z 16009KT 10SM CLR 23/19 A3004 520 78 1600 160/09 RMK AO2
14840KMKG MKG20000601110509206/01/00 11:05:31  5-MIN KMKG 011605Z 16007KT 9SM CLR 23/19 A3004 520 78 1600 160/07 RMK AO2
14840KMKG MKG20000601111009206/01/00 11:10:31  5-MIN KMKG 011610Z 17007KT 9SM CLR 23/19 A3003 530 81 1600 170/07 RMK AO2
14840KMKG MKG20000601111509306/01/00 11:15:31  5-MIN KMKG 011615Z 16007KT 10SM CLR 23/19 A3003 530 78 1700 160/07 RMK AO2
14840KMKG MKG20000601112009306/01/00 11:20:31  5-MIN KMKG 011620Z 16009KT 10SM CLR 23/19 A3003 530 78 1700 170/09 RMK AO2
14840KMKG MKG20000601112509306/01/00 11:25:31  5-MIN KMKG 011625Z 16009KT 10SM CLR 23/19 A3003 530 76 1700 160/09 RMK AO2
14840KMKG MKG20000601113009306/01/00 11:30:31  5-MIN KMKG 011630Z 16008KT 10SM CLR 23/19 A3002 530 78 1700 160/08 RMK AO2
14840KMKG MKG20000601113509306/01/00 11:35:31  5-MIN KMKG 011635Z 17009KT 10SM CLR 23/19 A3002 540 78 1700 170/09 RMK AO2
14840KMKG MKG20000601114009306/01/00 11:40:31  5-MIN KMKG 011640Z 15007KT 10SM CLR 24/19 A3002 530 76 1700 160/07 RMK AO2
14840KMKG MKG20000601114509306/01/00 11:45:31  5-MIN KMKG 011645Z 17007KT 10SM CLR 24/20 A3003 530 76 1800 170/07 RMK AO2
14840KMKG MKG20000601115011006/01/00 11:50:31  5-MIN KMKG 011650Z 18007KT 10SM CLR 24/20 A3003 530 76 1800 180/07 RMK AO2 SLP168 T02440200
14840KMKG MKG20000601115511006/01/00 11:55:31  5-MIN KMKG 011655Z 19009KT 10SM CLR 24/20 A3003 530 76 1800 190/09 RMK AO2 SLP169 T02440200
14840KMKG MKG20000601120009906/01/00 12:00:31  5-MIN KMKG 011700Z 18012KT 10SM CLR 25/20 A3003 530 73 1800 180/12 RMK AO2 P0001
14840KMKG MKG20000601120509906/01/00 12:05:31  5-MIN KMKG 011705Z 19013KT 10SM CLR 24/19 A3003 530 73 1800 190/13 RMK AO2 P0001
14840KMKG MKG20000601121010506/01/00 12:10:31  5-MIN KMKG 011710Z 19011G18KT 10SM CLR 24/19 A3004 520 73 1800 190/11G18 RMK AO2 P0001
14840KMKG MKG20000601121509906/01/00 12:15:31  5-MIN KMKG 011715Z 18012G18KT 10SM CLR 24/19 A3004 520 73 1700 190/12G18 RMK AO2
14840KMKG MKG20000601122009306/01/00 12:20:31  5-MIN KMKG 011720Z 18013KT 10SM CLR 24/19 A3004 520 76 1700 190/13 RMK AO2
14840KMKG MKG20000601122509906/01/00 12:25:31  5-MIN KMKG 011725Z 19011G17KT 10SM CLR 24/19 A3004 520 73 1800 190/11G17 RMK AO2
14840KMKG MKG20000601123009306/01/00 12:30:31  5-MIN KMKG 011730Z 19012KT 10SM CLR 24/19 A3003 530 73 1800 200/12 RMK AO2
14840KMKG MKG20000601123509906/01/00 12:35:31  5-MIN KMKG 011735Z 20014G19KT 10SM CLR 24/19 A3003 530 73 1800 200/14G19 RMK AO2
14840KMKG MKG20000601124009806/01/00 12:40:31  5-MIN KMKG 011740Z 19015G19KT 9SM CLR 24/19 A3003 530 76 1700 190/15G19 RMK AO2
14840KMKG MKG20000601124509206/01/00 12:45:31  5-MIN KMKG 011745Z 20015KT 8SM CLR 24/19 A3004 520 76 1700 200/15 RMK AO2
14840KMKG MKG20000601125012706/01/00 12:50:31  5-MIN KMKG 011750Z 21014KT 7SM CLR 24/19 A3004 520 76 1700 220/14 RMK AO2 SLP171 T02390194 10250 20150 56021
14840KMKG MKG20000601125513306/01/00 12:55:31  5-MIN KMKG 011755Z 21015G18KT 7SM CLR 23/19 A3004 520 78 1600 210/15G18 RMK AO2 SLP171 T02330194 10250 20150 55004
14840KMKG MKG20000601130009806/01/00 13:00:31  5-MIN KMKG 011800Z 21011G19KT 7SM CLR 23/19 A3004 520 78 1600 220/11G19 RMK AO2
14840KMKG MKG20000601130509806/01/00 13:05:31  5-MIN KMKG 011805Z 21011G19KT 7SM CLR 23/19 A3004 520 78 1600 210/11G19 RMK AO2
14840KMKG MKG20000601131009206/01/00 13:10:31  5-MIN KMKG 011810Z 21012KT 7SM CLR 23/19 A3004 520 78 1600 210/12 RMK AO2
14840KMKG MKG20000601131509506/01/00 13:15:31  5-MIN KMKG 011815Z 21011KT 6SM HZ CLR 22/19 A3004 520 81 1500 220/11 RMK AO2
14840KMKG MKG20000601132009506/01/00 13:20:31  5-MIN KMKG 011820Z 20012KT 6SM HZ CLR 22/19 A3004 520 81 1500 210/12 RMK AO2
14840KMKG MKG20000601132509806/01/00 13:25:31  5-MIN KMKG 011825Z 21011KT 6SM HZ SCT060 22/19 A3004 520 81 1500 210/11 RMK AO2
14840KMKG MKG20000601133009806/01/00 13:30:31  5-MIN KMKG 011830Z 20011KT 6SM HZ BKN055 22/19 A3004 520 81 1500 200/11 RMK AO2
14840KMKG MKG20000601133509806/01/00 13:35:31  5-MIN KMKG 011835Z 21009KT 5SM HZ BKN055 22/19 A3004 520 84 1500 210/09 RMK AO2
14840KMKG MKG20000601134009806/01/00 13:40:31  5-MIN KMKG 011840Z 20010KT 5SM HZ BKN055 22/19 A3004 520 84 1500 200/10 RMK AO2
14840KMKG MKG20000601134509806/01/00 13:45:31  5-MIN KMKG 011845Z 21011KT 5SM HZ BKN055 22/19 A3003 530 84 1500 210/11 RMK AO2
14840KMKG MKG20000601135011506/01/00 13:50:31  5-MIN KMKG 011850Z 20009KT 5SM HZ BKN055 22/19 A3003 530 81 1500 200/09 RMK AO2 SLP167 T02220189
14840KMKG MKG20000601135511506/01/00 13:55:31  5-MIN KMKG 011855Z 21008KT 5SM HZ BKN055 22/19 A3003 530 84 1500 210/08 RMK AO2 SLP166 T02220194
14840KMKG MKG20000601140010506/01/00 14:00:31  5-MIN KMKG 011900Z 22009KT 5SM HZ BKN055 BKN070 22/19 A3003 530 84 1500 220/09 RMK AO2
14840KMKG MKG20000601140510506/01/00 14:05:31  5-MIN KMKG 011905Z 21011KT 5SM HZ BKN055 BKN065 22/19 A3002 540 81 1500 210/11 RMK AO2
14840KMKG MKG20000601141009806/01/00 14:10:31  5-MIN KMKG 011910Z 21008KT 5SM HZ BKN055 22/19 A3002 540 81 1500 220/08 RMK AO2
14840KMKG MKG20000601141512006/01/00 14:15:31  5-MIN KMKG 011915Z 21009KT 5SM HZ SCT050 BKN060 22/19 A3001 540 81 1600 210/09 RMK AO2 CIG 050 RWY 14
14840KMKG MKG20000601142009806/01/00 14:20:31  5-MIN KMKG 011920Z 20010KT 5SM HZ BKN055 23/19 A3001 550 81 1600 200/10 RMK AO2
14840KMKG MKG20000601142509806/01/00 14:25:31  5-MIN KMKG 011925Z 20013KT 5SM HZ BKN050 23/19 A3001 550 81 1600 210/13 RMK AO2
14840KMKG MKG20000601143009806/01/00 14:30:31  5-MIN KMKG 011930Z 20011KT 5SM HZ BKN055 23/19 A3001 550 78 1700 200/11 RMK AO2
14840KMKG MKG20000601143509806/01/00 14:35:31  5-MIN KMKG 011935Z 21010KT 5SM HZ SCT050 24/20 A3001 550 78 1700 220/10 RMK AO2
14840KMKG MKG20000601144009806/01/00 14:40:31  5-MIN KMKG 011940Z 21011KT 5SM HZ SCT050 23/19 A3001 550 78 1700 210/11 RMK AO2
14840KMKG MKG20000601144509806/01/00 14:45:31  5-MIN KMKG 011945Z 21010KT 5SM HZ BKN050 23/19 A3001 550 81 1600 210/10 RMK AO2
14840KMKG MKG20000601145011506/01/00 14:50:31  5-MIN KMKG 011950Z 22010KT 5SM HZ BKN050 23/19 A3001 550 81 1600 220/10 RMK AO2 SLP160 T02280194
14840KMKG MKG20000601145511506/01/00 14:55:31  5-MIN KMKG 011955Z 21010KT 5SM HZ BKN050 23/19 A3001 550 81 1600 210/10 RMK AO2 SLP159 T02280194
14840KMKG MKG20000601150009806/01/00 15:00:31  5-MIN KMKG 012000Z 20011KT 5SM HZ BKN050 23/19 A3000 560 81 1600 210/11 RMK AO2
14840KMKG MKG20000601150509806/01/00 15:05:31  5-MIN KMKG 012005Z 20009KT 5SM HZ BKN050 23/19 A2999 560 78 1700 200/09 RMK AO2
14840KMKG MKG20000601151010506/01/00 15:10:31  5-MIN KMKG 012010Z 19011KT 5SM HZ SCT050 23/19 A2999 570 78 1700 200/11 RMK AO2 PRESFR
14840KMKG MKG20000601151509806/01/00 15:15:31  5-MIN KMKG 012015Z 20010KT 5SM HZ SCT050 23/19 A2998 570 78 1700 200/10 RMK AO2
14840KMKG MKG20000601152009806/01/00 15:20:31  5-MIN KMKG 012020Z 19009KT 5SM HZ FEW050 23/19 A2998 570 78 1700 200/09 RMK AO2
14840KMKG MKG20000601152509806/01/00 15:25:31  5-MIN KMKG 012025Z 20008KT 5SM HZ FEW050 23/19 A2998 580 78 1700 200/08 RMK AO2
14840KMKG MKG20000601153009506/01/00 15:30:31  5-MIN KMKG 012030Z 21008KT 5SM HZ CLR 24/20 A2997 580 78 1800 220/08 RMK AO2
14840KMKG MKG20000601153509506/01/00 15:35:31  5-MIN KMKG 012035Z 19009KT 5SM HZ CLR 24/20 A2996 590 76 1900 190/09 RMK AO2
14840KMKG MKG20000601154009506/01/00 15:40:31  5-MIN KMKG 012040Z 21009KT 5SM HZ CLR 25/21 A2996 590 76 1900 210/09 RMK AO2
14840KMKG MKG20000601154509506/01/00 15:45:31  5-MIN KMKG 012045Z 19009KT 5SM HZ CLR 25/21 A2996 590 76 1900 190/09 RMK AO2
14840KMKG MKG20000601155011806/01/00 15:50:31  5-MIN KMKG 012050Z 20010KT 5SM HZ CLR 25/21 A2996 590 76 1900 200/10 RMK AO2 SLP144 T02500206 55004
14840KMKG MKG20000601155511806/01/00 15:55:31  5-MIN KMKG 012055Z 20010KT 6SM HZ CLR 25/21 A2996 590 76 1900 200/10 RMK AO2 SLP143 T02500206 58027
14840KMKG MKG20000601160009506/01/00 16:00:31  5-MIN KMKG 012100Z 20009KT 6SM HZ CLR 26/21 A2996 600 73 2000 200/09 RMK AO2
14840KMKG MKG20000601160509506/01/00 16:05:31  5-MIN KMKG 012105Z 19009KT 6SM HZ CLR 26/21 A2996 600 73 2000 190/09 RMK AO2
14840KMKG MKG20000601161009506/01/00 16:10:31  5-MIN KMKG 012110Z 20012KT 6SM HZ CLR 26/21 A2995 600 73 2000 210/12 RMK AO2
14840KMKG MKG20000601161509506/01/00 16:15:31  5-MIN KMKG 012115Z 20011KT 6SM HZ CLR 26/21 A2995 600 73 2000 200/11 RMK AO2
14840KMKG MKG20000601162009506/01/00 16:20:31  5-MIN KMKG 012120Z 18010KT 6SM HZ CLR 26/21 A2995 610 73 2100 180/10 RMK AO2
14840KMKG MKG20000601162512006/01/00 16:25:31  5-MIN06/01/00 16:30:31  5-MIN KMKG 012130Z 19008KT 6SM HZ CLR 26/21 A2994 610 73  2000 190/08 RMK AO2
14840KMKG MKG20000601163509506/01/00 16:35:31  5-MIN KMKG 012135Z 19009KT 6SM HZ CLR 26/21 A2994 610 73 2000 190/09 RMK AO2
14840KMKG MKG20000601164008406/01/00 16:40:31  5-MIN KMKG 012140Z 19 73  2100 190/13G20 RMK AO2 SLP125 T02610211
14840KMKG MKG20000601180009206/01/00 18:00:31  5-MIN KMKG 012300Z 19011KT 7SM CLR 26/21 A2991 640 73 2100 200/11 RMK AO2
14840KMKG MKG20000601180509406/01/00 18:05:31  5-MIN KMKG 012305Z 19011KT 7SM CLR 26/21 A2991 640 73 2100 200/11 RMK AO2 $
14840KMKG MKG20000601191009406/01/00 19:10:31  5-MIN KMKG 020010Z 19009KT 7SM CLR 25/21 A2990 650 79 2000 190/09 RMK AO2 $
14840KMKG MKG20000601191507006/01/00 19:15:31  5-MIN KMKG 020015Z 19009KT 7S 2000 210/17 RMK AO2 $
14840KMKG MKG20000601201010306/01/00 20:10:31  5-MIN KMKG 020110Z 21014G20KT 9SM SCT080 25/19 A2992 630 71 2000 220/14G20 RMK AO2 $
14840KMKG MKG20000601201510706/01/00 20:15:31  5-MIN KMKG 020115Z 21015G21KT 9SM FEW080 25/19 A2991 640 71 2000 210/15G21 RMK AO2 $ 640
14840KMKG MKG20000601211014506/01/00 21:10:31  5-MIN KMKG 020210Z 26011G21KT 230V300 9SM -TSRA FEW050 OVC065 18/16 A2999 570 87 1100 260/11G21 230V300 RMK AO2 PRESRR P0000 $
14840KMKG MKG20000601211509106/01/00 21:15:31  5-MIN KMKG 020215Z 27016G21KT 9SM -TSRA OVC065 18/16 A2999 560 87 1100 $
14840KMKG MKG20000601220513306/01/00 22:05:31  5-MIN KMKG 020305Z 30005KT 6SM -TSRA BR BKN041 BKN070 OVC120 18/17 A2994 610 93 1100 310/05 RMK AO2 PRESFR P0002 $
14840KMKG MKG20000601222513006/01/00 22:25:31  5-MIN KMKG 020325Z 20009KT 6SM -RA BR BKN041 BKN070 OVC110 17/17 A2991 640 96 1100 200/09 RMK AO2 TSE19 P0005 $
14840KMKG MKG20000601232015006/01/00 23:20:31  5-MIN KMKG 020420Z 25014KT 10SM -TSRA BKN049 BKN120 22/16 A2989 660 68 1600 250/14 RMK AO2 PRESRR OCNL LTGICCGCA TS W MOV E P0000 $
14840KMKG MKG20000601232507906/01/00 23:25:31  5-MIN KMKG 020425Z 24013KT 10SM -TSRA BKN050 BKN120 22/16 A2
14840KMKG MKG20000602002010106/02/00 00:20:31  5-MIN KMKG 020520Z 22017G22KT 10SM CLR 19/16 A2989 660 84 1300 220/17G22 RMK AO2 $
14840KMKG MKG20000602002510906/02/00 00:25:31  5-MIN KMKG 020525Z 21015G22KT009KT 10SM CLR 18/16 A2989 660 901200 250/09 RMK AO2 PRESRR $
14840KMKG MKG20000602012510106/02/00 01:25:31  5-MIN KMKG 020625Z 26012G16KT 10SM CLR 18/16 A2990 650 90 1200 260/12G16 RMK AO2 $
14840KMKG MKG20000602023512406/02/00 02:35:31  5-MIN KMKG 020735Z 24010KT 10SM BKN006 BKN029 OVC110 16/16 A2992 630 100 900 240/10 RMK AO2 CIG 004V009 $
14840KMKG MKG20000602081510106/02/00 08:15:31  5-MIN KMKG 021315Z 33014G21KT 10SM OVC023 14/09 A3004 520 74 500 330/14G21 RMK AO2
14840KMKG MKG20000602082010106/02/00 08:20:31  5-MIN KMKG 021320Z 32011G19KT 10SM OVC023 14/09 A3004 520 74 500 330/11G19 RMK AO2
14840KMKG MKG20000602082509506/02/00 08:25:31  5-MIN KMKG 021325Z 32011KT 10SM OVC023 14/10 A3005 510 77 500 330/11 RMK AO2
14840KMKG MKG20000602083009506/02/00 08:30:31  5-MIN KMKG 021330Z 33013KT 10SM OVC023 14/09 A3005 510 74 500 340/13 RMK AO2
14840KMKG MKG20000602083509506/02/00 08:35:31  5-MIN KMKG 021335Z 33012KT 10SM OVC023 14/09 A3005 510 74 500 330/12 RMK AO2
14840KMKG MKG20000602084010106/02/00 08:40:31  5-MIN KMKG 021340Z 32012G18KT 10SM OVC023 14/09 A3005 510 74 500 320/12G18 RMK AO2
14840KMKG MKG20000602084509506/02/00 08:45:31  5-MIN KMKG 021345Z 32011KT 10SM OVC023 14/09 A3005 510 74 500 330/11 RMK AO2
14840KMKG MKG20000602085011206/02/00 08:50:31  5-MIN KMKG 021350Z 33013KT 10SM OVC025 14/09 A3006 500 74 500 330/13 RMK AO2 SLP177 T01390094
14840KMKG MKG20000602085511206/02/00 08:55:31  5-MIN KMKG 021355Z 32013KT 10SM OVC025 14/09 A3006 510 72 600 320/13 RMK AO2 SLP177 T01440094
14840KMKG MKG20000602090009506/02/00 09:00:31  5-MIN KMKG 021400Z 32013KT 10SM OVC025 14/09 A3005 510 71 500 330/13 RMK AO2
14840KMKG MKG20000602090509506/02/00 09:05:31  5-MIN KMKG 021405Z 33012KT 10SM OVC025 15/09 A3006 500 69 700 330/12 RMK AO2
14840KMKG MKG20000602091010106/02/00 09:10:31  5-MIN KMKG 021410Z 33017G20KT 10SM BKN025 15/09 A3005 510 69 700 330/17G20 RMK AO2
14840KMKG MKG20000602091510106/02/00 09:15:31  5-MIN KMKG 021415Z 34012G20KT 10SM OVC027 14/09 A3006 500 69 600 340/12G20 RMK AO2
14840KMKG MKG20000602092010106/02/00 09:20:31  5-MIN KMKG 021420Z 32017G24KT 10SM OVC027 14/09 A3005 510 69 600 330/17G24 RMK AO2
14840KMKG MKG20000602092510106/02/00 09:25:31  5-MIN KMKG 021425Z 33012G24KT 10SM OVC027 14/09 A3007 500 69 600 330/12G24 RMK AO2
14840KMKG MKG20000602093010106/02/00 09:30:31  5-MIN KMKG 021430Z 32015G21KT 10SM OVC027 14/09 A3006 500 69 600 330/15G21 RMK AO2
14840KMKG MKG20000602093510106/02/00 09:35:31  5-MIN KMKG 021435Z 32016G21KT 10SM OVC027 14/08 A3007 490 69 500 330/16G21 RMK AO2
14840KMKG MKG20000602094009506/02/00 09:40:31  5-MIN KMKG 021440Z 33016KT 10SM OVC027 14/08 A3007 500 69 500 330/16 RMK AO2
14840KMKG MKG20000602094509506/02/00 09:45:31  5-MIN KMKG 021445Z 34013KT 10SM BKN027 14/09 A3008 490 69 600 340/13 RMK AO2
14840KMKG MKG20000602095012406/02/00 09:50:31  5-MIN KMKG 021450Z 33012G18KT 10SM BKN027 14/09 A3008 490 69 600 340/12G18 RMK AO2 SLP184 T01440089 51021
14840KMKG MKG20000602095511806/02/00 09:55:31  5-MIN KMKG 021455Z 33013KT 10SM BKN027 14/08 A3008 490 69 500 330/13 RMK AO2 SLP184 T01390083 51027
14840KMKG MKG20000602100009506/02/00 10:00:31  5-MIN KMKG 021500Z 33013KT 10SM BKN029 14/09 A3008 490 69 600 340/13 RMK AO2
14840KMKG MKG20000602100509506/02/00 10:05:31  5-MIN KMKG 021505Z 33013KT 10SM BKN029 14/08 A3008 480 66 600 340/13 RMK AO2
14840KMKG MKG20000602101009506/02/00 10:10:31  5-MIN KMKG 021510Z 33011KT 10SM BKN029 14/08 A3008 480 66 600 330/11 RMK AO2
14840KMKG MKG20000602101509506/02/00 10:15:31  5-MIN KMKG 021515Z 33011KT 10SM BKN029 14/09 A3008 480 69 600 340/11 RMK AO2
14840KMKG MKG20000602102009506/02/00 10:20:31  5-MIN KMKG 021520Z 34013KT 10SM BKN029 14/09 A3009 480 69 600 340/13 RMK AO2
14840KMKG MKG20000602102509506/02/00 10:25:31  5-MIN KMKG 021525Z 32010KT 10SM BKN029 14/09 A3009 480 69 600 320/10 RMK AO2
14840KMKG MKG20000602103009506/02/00 10:30:31  5-MIN KMKG 021530Z 33012KT 10SM BKN029 14/09 A3009 470 69 600 330/12 RMK AO2
14840KMKG MKG20000602103510106/02/00 10:35:31  5-MIN KMKG 021535Z 32013G20KT 10SM BKN029 14/08 A3009 470 66 600 330/13G20 RMK AO2
14840KMKG MKG20000602104010106/02/00 10:40:31  5-MIN KMKG 021540Z 34014G20KT 10SM BKN029 14/08 A3010 470 66 500 340/14G20 RMK AO2
14840KMKG MKG20000602104510106/02/00 10:45:31  5-MIN KMKG 021545Z 35015G20KT 10SM BKN029 15/09 A3010 460 66 600 350/15G20 RMK AO2
14840KMKG MKG20000602105011806/02/00 10:50:31  5-MIN KMKG 021550Z 35013G19KT 10SM BKN031 16/09 A3011 460 64 700 360/13G19 RMK AO2 SLP195 T01560089
14840KMKG MKG20000602105511206/02/00 10:55:31  5-MIN KMKG 021555Z 36013KT 10SM BKN031 16/09 A3010 460 64 700 360/13 RMK AO2 SLP193 T01560089
14840KMKG MKG20000602110009506/02/00 11:00:31  5-MIN KMKG 021600Z 33015KT 10SM BKN031 15/09 A3010 470 66 600 330/15 RMK AO2
14840KMKG MKG20000602110509506/02/00 11:05:31  5-MIN KMKG 021605Z 32015KT 10SM BKN031 16/09 A3010 470 64 700 330/15 RMK AO2
14840KMKG MKG20000602111010106/02/00 11:10:31  5-MIN KMKG 021610Z 34015G20KT 10SM BKN031 16/09 A3010 460 64 700 340/15G20 RMK AO2
14840KMKG MKG20000602111510106/02/00 11:15:31  5-MIN KMKG 021615Z 33015G19KT 10SM BKN031 16/09 A3010 460 62 700 340/15G19 RMK AO2
14840KMKG MKG20000602112010106/02/00 11:20:31  5-MIN KMKG 021620Z 33014G19KT 10SM SCT031 16/09 A3010 460 62 700 330/14G19 RMK AO2
14840KMKG MKG20000602112510106/02/00 11:25:31  5-MIN KMKG 021625Z 34015G20KT 10SM FEW031 17/09 A3010 470 60 800 340/15G20 RMK AO2
14840KMKG MKG20000602113009506/02/00 11:30:31  5-MIN KMKG 021630Z 35014KT 10SM FEW031 17/09 A3010 460 60 900 350/14 RMK AO2
14840KMKG MKG20000602113510106/02/00 11:35:31  5-MIN KMKG 021635Z 32014G17KT 10SM SCT031 17/09 A3010 460 62 800 320/14G17 RMK AO2
14840KMKG MKG20000602114010106/02/00 11:40:31  5-MIN KMKG 021640Z 30010G17KT 10SM BKN031 16/09 A3010 460 67 700 300/10G17 RMK AO2
14840KMKG MKG20000602114509506/02/00 11:45:31  5-MIN KMKG 021645Z 33009KT 10SM BKN031 16/09 A3011 460 64 700 330/09 RMK AO2
14840KMKG MKG20000602115011806/02/00 11:50:31  5-MIN KMKG 021650Z 29014G19KT 10SM BKN033 16/09 A3011 460 64 700 290/14G19 RMK AO2 SLP194 T01610094
14840KMKG MKG20000602115511806/02/00 11:55:31  5-MIN KMKG 021655Z 34015G20KT 10SM BKN033 16/09 A3012 450 62 700 350/15G20 RMK AO2 SLP198 T01610089
14840KMKG MKG20000602120010106/02/00 12:00:31  5-MIN KMKG 021700Z 35015G23KT 10SM BKN035 17/09 A3012 450 60 800 350/15G23 RMK AO2
14840KMKG MKG20000602120510106/02/00 12:05:31  5-MIN KMKG 021705Z 34013G23KT 10SM BKN035 17/08 A3012 450 57 800 340/13G23 RMK AO2
14840KMKG MKG20000602121010106/02/00 12:10:31  5-MIN KMKG 021710Z 34016G21KT 10SM BKN035 16/08 A3012 440 59 700 340/16G21 RMK AO2
14840KMKG MKG20000602121510106/02/00 12:15:31  5-MIN KMKG 021715Z 34015G21KT 10SM BKN035 17/09 A3012 440 60 800 340/15G21 RMK AO2
14840KMKG MKG20000602122010106/02/00 12:20:31  5-MIN KMKG 021720Z 35018G21KT 10SM SCT035 17/09 A3012 440 57 800 360/18G21 RMK AO2
14840KMKG MKG20000602122510106/02/00 12:25:31  5-MIN KMKG 021725Z 34016G23KT 10SM SCT035 17/09 A3012 440 57 800 340/16G23 RMK AO2
14840KMKG MKG20000602123010106/02/00 12:30:31  5-MIN KMKG 021730Z 34016G23KT 10SM SCT035 17/09 A3013 440 57 800 340/16G23 RMK AO2
14840KMKG MKG20000602123510106/02/00 12:35:31  5-MIN KMKG 021735Z 34015G20KT 10SM SCT035 17/09 A3013 440 60 800 340/15G20 RMK AO2
14840KMKG MKG20000602124010106/02/00 12:40:31  5-MIN KMKG 021740Z 34015G21KT 10SM SCT035 16/08 A3013 440 59 700 350/15G21 RMK AO2
14840KMKG MKG20000602124510106/02/00 12:45:31  5-MIN KMKG 021745Z 33016G21KT 10SM BKN035 17/09 A3013 440 57 800 340/16G21 RMK AO2
14840KMKG MKG20000602125013606/02/00 12:50:31  5-MIN KMKG 021750Z 35017G22KT 10SM BKN035 17/08 A3014 430 57 800 350/17G22 RMK AO2 SLP204 T01670083 10172 20133 51027
14840KMKG MKG20000602125513606/02/00 12:55:31  5-MIN KMKG 021755Z 33014G24KT 10SM BKN035 17/09 A3013 440 60 800 340/14G24 RMK AO2 SLP202 T01670089 10172 20133 51018
14840KMKG MKG20000602130010106/02/00 13:00:31  5-MIN KMKG 021800Z 35016G24KT 10SM BKN035 17/09 A3014 430 60 800 350/16G24 RMK AO2
14840KMKG MKG20000602130510106/02/00 13:05:31  5-MIN KMKG 021805Z 34012G19KT 10SM BKN035 16/08 A3014 430 59 700 340/12G19 RMK AO2
14840KMKG MKG20000602131010106/02/00 13:10:31  5-MIN KMKG 021810Z 33014G19KT 10SM BKN035 17/09 A3014 430 60 800 340/14G19 RMK AO2
14840KMKG MKG20000602131510106/02/00 13:15:31  5-MIN KMKG 021815Z 36015G21KT 10SM BKN035 16/08 A3014 430 59 700 360/15G21 RMK AO2
14840KMKG MKG20000602132010106/02/00 13:20:31  5-MIN KMKG 021820Z 35010G21KT 10SM BKN035 17/09 A3014 430 60 800 350/10G21 RMK AO2
14840KMKG MKG20000602132509506/02/00 13:25:31  5-MIN KMKG 021825Z 32013KT 10SM BKN035 17/09 A3014 430 60 800 330/13 RMK AO2
14840KMKG MKG20000602133009506/02/00 13:30:31  5-MIN KMKG 021830Z 31015KT 10SM OVC035 16/08 A3013 430 59 700 320/15 RMK AO2
14840KMKG MKG20000602133510106/02/00 13:35:31  5-MIN KMKG 021835Z 34013G18KT 10SM BKN035 16/09 A3015 420 62 700 340/13G18 RMK AO2
14840KMKG MKG20000602134011106/02/00 13:40:31  5-MIN KMKG 021840Z 34014G18KT 10SM BKN037 17/09 A3015 420 57 800 350/14G18 RMK AO2 06/02/000
14840KMKG MKG20000602144010106/02/00 14:40:31  5-MIN KMKG 021940Z 33015G20KT 10SM BKN039 17/08 A3015 420 55 800 340/15G20 RMK AO2
14840KMKG MKG20000602144510106/02/00 14:45:31  5-MIN KMKG 021945Z 32015G21KT 10SM SCT039 17/08 A3015 420 55 800 330/15G21 RMK AO2
14840KMKG MKG20000602145006806/02/00 14:50:31  5-MIN KMKG 0240/10 RMK AO2 SLP211 T01670083 51018
14840KMKG MKG20000602155511806/02/00 15:55:31  5-MIN KMKG 022055Z 30010KT 10SM BKN047 17/09 A3015 420 60 800 300/10 RMK AO2 SLP210 T01720094 51007
14840KMKG MKG20000602160012106/02/00 16:00:31  5-MIN KMKG 022100Z 30010KT 10SM BKN047 16/10 A3015 420 67 700 37 18/08 A3015 420 53 900 320/12 RMK AO2
14840KMKG MKG20000602170510106/02/00 17:05:31  5-MIN KMKG 022205Z 31016G20KT 10SM BKN047 18/08 A3015 420 53 900 320/16G20 RMK AO2
14840KMKG MKG20000602171008906/02/00 17:10:31  5-MIN KMKG 022210Z 32014G20KT 10SM BKN047 18/08 A3015 420 53 900 330/1
14840KMKG MKG20000602181510106/02/00 18:15:31  5-MIN KMKG 022315Z 36016G19KT 10SM SCT041 17/08 A3018 390 53 800 360/16G19 RMK AO2
14840KMKG MKG20000602182010106/02/00 18:20:31  5-MIN KMKG 022320Z 35013G19KT 10SM SCT041 17/08 A3018 390 55 800 360/13G19 RMK AO2
14840KMKG MKG20000602182503306/02/00 18:25:31  5-MIN KMKG 020
14840KMKG MKG20000602192009206/02/00 19:20:31  5-MIN KMKG 030020Z 02009KT 10SM CLR 16/08 A3020 380 57 600 020/09 RMK AO2
14840KMKG MKG20000602192510106/02/00 19:25:31  5-MIN KMKG 030025Z 02012G16KT 10SM FEW043 16/08 A3020 370 59 600 020/12G16 RMK AO2
14840KMKG MKG20000602200509206/02/00 20:05:31  5-MIN KMKG 030105Z 03008KT 10SM CLR 14/08 A3022 360 64 400 030/08 RMK AO2
14840KMKG MKG20000602201009206/02/00 20:10:31  5-MIN KMKG 030110Z 02007KT 10SM CLR 14/08 A3021 360 64 400 020/07 RMK AO2
14840KMKG MKG20000602201508606/02/00 20:15:31  5-MIN KMKG 030115Z 01008KT 106 2/07 A3024 340 71 100 010/05 RMK AO2
14840KMKG MKG20000602212509206/02/00 21:25:31  5-MIN KMKG 030225Z 01007KT 10SM CLR 12/07 A3024 330 71 100 020/07 RMK AO2
14840KMKG MKG20000602213016006/02/00 21:30:31  5-MIN KMKG 030230Z 01007KT 10SM CLR 12/07 A3025 330 71 100 010/07 RMK AO2  KMKG 030335Z 01006KT 10SM CLR 11/07 A3027 310 74 0  020/06 RMK AO2
14840KMKG MKG20000602224009006/02/00 22:40:31  5-MIN KMKG 030340Z 01007KT 10SM CLR 11/07 A3027 310 74 0 020/07 RMK AO2
14840KMKG MKG20000602224509506/02/00 22:45:31  5-MIN KMKG 030345Z 02006KT 10SM CLR 11/07 A3027 310 74 00-100 020/06 RMK AO2
14840KMKG MKG20000602235012006/02/00 23:50:31  5-MIN KMKG 030450Z 01005KT 10SM CLR 10/07 A3027 310 80 -100 020/05 RMK AO2 SLP252 T01000067 401940100
14840KMKG MKG20000602235512006/02/00 23:55:31  5-MIN KMKG 030455Z 02005KT 10SM CLR 10/07 A3027 310 80 -100 020/05 RMK AO2 SLP252 T01000067 401940100
14840KMKG MKG20000603000009306/03/00 00:00:31  5-MIN KMKG 030500Z 02006KT 10SM CLR 10/07 A3027 310 80 -100 020/06 RMK AO2
14840KMKG MKG20000603000509306/03/00 00:05:31  5-MIN KMKG 030505Z 02006KT 10SM CLR 10/07 A3027 310 80 -100 020/06 RMK AO2
14840KMKG MKG20000603001009306/03/00 00:10:31  5-MIN KMKG 030510Z 01005KT 10SM CLR 10/06 A3027 300 74 -100 020/05 RMK AO2
14840KMKG MKG20000603001509306/03/00 00:15:31  5-MIN KMKG 030515Z 01006KT 10SM CLR 10/06 A3027 300 77 -100 010/06 RMK AO2
14840KMKG MKG20000603002009306/03/00 00:20:31  5-MIN KMKG 030520Z 01007KT 10SM CLR 10/06 A3027 300 77 -100 020/07 RMK AO2
14840KMKG MKG20000603002509306/03/00 00:25:31  5-MIN KMKG 030525Z 01007KT 10SM CLR 10/06 A3028 300 77 -100 010/07 RMK AO2
14840KMKG MKG20000603003009306/03/00 00:30:31  5-MIN KMKG 030530Z 01007KT 10SM CLR 10/06 A3028 300 77 -100 020/07 RMK AO2
14840KMKG MKG20000603003509306/03/00 00:35:31  5-MIN KMKG 030535Z 02006KT 10SM CLR 09/06 A3028 300 79 -200 020/06 RMK AO2
14840KMKG MKG20000603004009306/03/00 00:40:31  5-MIN KMKG 030540Z 01007KT 10SM CLR 09/06 A3028 300 79 -200 020/07 RMK AO2
14840KMKG MKG20000603004509306/03/00 00:45:31  5-MIN KMKG 030545Z 01006KT 10SM CLR 10/06 A3028 300 77 -100 020/06 RMK AO2
14840KMKG MKG20000603005012806/03/00 00:50:31  5-MIN KMKG 030550Z 02006KT 10SM CLR 09/06 A3027 310 79 -200 020/06 RMK AO2 SLP252 T00940061 10161 20094 53025
14840KMKG MKG20000603005512806/03/00 00:55:31  5-MIN KMKG 030555Z 01007KT 10SM CLR 09/06 A3027 300 79 -200 020/07 RMK AO2 SLP253 T00940061 10161 20094 51005
14840KMKG MKG20000603010009306/03/00 01:00:31  5-MIN KMKG 030600Z 01006KT 10SM CLR 09/06 A3028 300 79 -200 010/06 RMK AO2
14840KMKG MKG20000603010509306/03/00 01:05:31  5-MIN KMKG 030605Z 01006KT 10SM CLR 09/06 A3028 300 79 -200 010/06 RMK AO2
14840KMKG MKG20000603011009306/03/00 01:10:31  5-MIN KMKG 030610Z 01006KT 10SM CLR 09/06 A3028 300 79 -200 020/06 RMK AO2
14840KMKG MKG20000603011509306/03/00 01:15:31  5-MIN KMKG 030615Z 02006KT 10SM CLR 09/06 A3028 300 79 -200 020/06 RMK AO2
14840KMKG MKG20000603012009306/03/00 01:20:31  5-MIN KMKG 030620Z 01006KT 10SM CLR 09/06 A3028 300 79 -200 020/06 RMK AO2
14840KMKG MKG20000603012509306/03/00 01:25:31  5-MIN KMKG 030625Z 01005KT 10SM CLR 09/06 A3028 300 79 -200 020/05 RMK AO2
14840KMKG MKG20000603013009306/03/00 01:30:31  5-MIN KMKG 030630Z 01006KT 10SM CLR 09/06 A3028 300 79 -200 020/06 RMK AO2
14840KMKG MKG20000603013509306/03/00 01:35:31  5-MIN KMKG 030635Z 02006KT 10SM CLR 09/06 A3028 300 79 -200 020/06 RMK AO2
14840KMKG MKG20000603014009306/03/00 01:40:31  5-MIN KMKG 030640Z 02006KT 10SM CLR 09/06 A3028 300 83 -300 020/06 RMK AO2
14840KMKG MKG20000603014509306/03/00 01:45:31  5-MIN KMKG 030645Z 03005KT 10SM CLR 09/06 A3028 300 83 -300 030/05 RMK AO2
14840KMKG MKG20000603015011006/03/00 01:50:31  5-MIN KMKG 030650Z 02005KT 10SM CLR 09/06 A3028 300 83 -300 020/05 RMK AO2 SLP255 T00890061
14840KMKG MKG20000603015511006/03/00 01:55:31  5-MIN KMKG 030655Z 02006KT 10SM CLR 09/06 A3028 300 83 -300 020/06 RMK AO2 SLP255 T00890061
14840KMKG MKG20000603020009306/03/00 02:00:31  5-MIN KMKG 030700Z 02005KT 10SM CLR 09/06 A3028 300 83 -300 030/05 RMK AO2
14840KMKG MKG20000603020509306/03/00 02:05:31  5-MIN KMKG 030705Z 03004KT 10SM CLR 09/06 A3028 300 83 -300 030/04 RMK AO2
14840KMKG MKG20000603021009306/03/00 02:10:31  5-MIN KMKG 030710Z 03005KT 10SM CLR 09/06 A3028 300 83 -300 030/05 RMK AO2
14840KMKG MKG20000603021509306/03/00 02:15:31  5-MIN KMKG 030715Z 04004KT 10SM CLR 09/06 A3028 300 83 -300 040/04 RMK AO2
14840KMKG MKG20000603022009306/03/00 02:20:31  5-MIN KMKG 030720Z 04003KT 10SM CLR 08/06 A3028 300 86 -300 040/03 RMK AO2
14840KMKG MKG20000603022509306/03/00 02:25:31  5-MIN KMKG 030725Z 00000KT 10SM CLR 08/06 A3029 290 86 -300 000/00 RMK AO2
14840KMKG MKG20000603023009306/03/00 02:30:31  5-MIN KMKG 030730Z 00000KT 10SM CLR 08/06 A3029 290 82 -300 000/00 RMK AO2
14840KMKG MKG20000603023509306/03/00 02:35:31  5-MIN KMKG 030735Z 00000KT 10SM CLR 08/06 A3029 290 82 -300 000/00 RMK AO2
14840KMKG MKG20000603024009306/03/00 02:40:31  5-MIN KMKG 030740Z 00000KT 10SM CLR 08/06 A3029 290 82 -400 000/00 RMK AO2
14840KMKG MKG20000603024509306/03/00 02:45:31  5-MIN KMKG 030745Z 00000KT 10SM CLR 08/06 A3029 290 86 -400 000/00 RMK AO2
14840KMKG MKG20000603025011006/03/00 02:50:31  5-MIN KMKG 030750Z 00000KT 10SM CLR 08/06 A3029 290 86 -400 000/00 RMK AO2 SLP260 T00780056
14840KMKG MKG20000603025511006/03/00 02:55:31  5-MIN KMKG 030755Z 00000KT 10SM CLR 07/05 A3029 290 89 -600 000/00 RMK AO2 SLP260 T00670050
14840KMKG MKG20000603030009306/03/00 03:00:31  5-MIN KMKG 030800Z 00000KT 10SM CLR 07/06 A3029 290 89 -500 000/00 RMK AO2
14840KMKG MKG20000603030509306/03/00 03:05:31  5-MIN KMKG 030805Z 00000KT 10SM CLR 07/06 A3029 290 89 -500 000/00 RMK AO2
14840KMKG MKG20000603031009306/03/00 03:10:31  5-MIN KMKG 030810Z 00000KT 10SM CLR 07/06 A3029 290 89 -500 000/00 RMK AO2
14840KMKG MKG20000603031509306/03/00 03:15:31  5-MIN KMKG 030815Z 00000KT 10SM CLR 07/06 A3029 290 89 -500 000/00 RMK AO2
14840KMKG MKG20000603032009306/03/00 03:20:31  5-MIN KMKG 030820Z 00000KT 10SM CLR 07/06 A3029 290 93 -600 000/00 RMK AO2
14840KMKG MKG20000603032509306/03/00 03:25:31  5-MIN KMKG 030825Z 02003KT 10SM CLR 07/06 A3029 290 89 -500 020/03 RMK AO2
14840KMKG MKG20000603033009306/03/00 03:30:31  5-MIN KMKG 030830Z 36003KT 10SM CLR 07/06 A3029 290 89 -500 010/03 RMK AO2
14840KMKG MKG20000603033509306/03/00 03:35:31  5-MIN KMKG 030835Z 36005KT 10SM CLR 07/05 A3029 290 89 -600 360/05 RMK AO2
14840KMKG MKG20000603034009306/03/00 03:40:31  5-MIN KMKG 030840Z 01005KT 10SM CLR 07/06 A3029 290 89 -500 010/05 RMK AO2
14840KMKG MKG20000603034509306/03/00 03:45:31  5-MIN KMKG 030845Z 36005KT 10SM CLR 07/06 A3029 290 89 -500 010/05 RMK AO2
14840KMKG MKG20000603035011606/03/00 03:50:31  5-MIN KMKG 030850Z 01005KT 10SM CLR 07/06 A3029 290 89 -500 010/05 RMK AO2 SLP259 T00720056 51005
14840KMKG MKG20000603035511606/03/00 03:55:31  5-MIN KMKG 030855Z 01005KT 10SM CLR 07/06 A3029 290 89 -500 010/05 RMK AO2 SLP259 T00720056 50005
14840KMKG MKG20000603040009306/03/00 04:00:31  5-MIN KMKG 030900Z 01005KT 10SM CLR 07/06 A3029 290 89 -500 020/05 RMK AO2
14840KMKG MKG20000603040509306/03/00 04:05:31  5-MIN KMKG 030905Z 01006KT 10SM CLR 07/06 A3029 290 89 -500 010/06 RMK AO2
14840KMKG MKG20000603041009306/03/00 04:10:31  5-MIN KMKG 030910Z 36006KT 10SM CLR 07/06 A3029 290 89 -500 010/06 RMK AO2
14840KMKG MKG20000603041509306/03/00 04:15:31  5-MIN KMKG 030915Z 01006KT 10SM CLR 07/06 A3029 290 89 -500 010/06 RMK AO2
14840KMKG MKG20000603042009306/03/00 04:20:31  5-MIN KMKG 030920Z 01005KT 10SM CLR 07/06 A3030 280 89 -500 010/05 RMK AO2
14840KMKG MKG20000603042509306/03/00 04:25:31  5-MIN KMKG 030925Z 02005KT 10SM CLR 07/06 A3030 280 89 -500 020/05 RMK AO2
14840KMKG MKG20000603043009306/03/00 04:30:31  5-MIN KMKG 030930Z 02004KT 10SM CLR 07/06 A3030 280 89 -500 020/04 RMK AO2
14840KMKG MKG20000603043509306/03/00 04:35:31  5-MIN KMKG 030935Z 02005KT 10SM CLR 07/06 A3030 280 89 -500 020/05 RMK AO2
14840KMKG MKG20000603044008206/03/00 04:40:31  5-MIN KMKG 030940Z 01005KT 10SM CLR 07/06 A30-600 020/04 RMKAO2
14840KMKG MKG20000603052509306/03/00 05:25:31  5-MIN KMKG 031025Z 01004KT 10SM CLR 07/05 A3031 270 89 -600 020/04 RMK AO2
14840KMKG MKG20000603053009306/03/00 05:30:31  5-MIN KMKG 031030Z 36005KT 10SM CLR 07/06 A3031 270 93 -600 010/05 RMK AO2
14840KMKG MKG20000603053506406/03/00 05:35:31  5-MIN3 AO2 SLP269 T00940061 10094 20067 50005
14840KMKG MKG20000603065512806/03/00 06:55:31  5-MIN KMKG 031155Z 05007KT 10SM CLR 09/07 A3033 260 83 -300 050/07 RMK AO2 SLP271 T00940067 10094 20067 53012
14840KMKG MKG20000603081009006/03/00 08:10:31  5-MIN KMKG 031310Z VRB05KT 10SM CLR 12/07 A3034 250 71 0 VRB/05 RMK AO2
14840KMKG MKG20000603081509006/03/00 08:15:31  5-MIN KMKG 031315Z 09006KT 10SM CLR 12/07 A3034 250 68 0 100/06 RMK AO2
14840KMKG MKG20000603082016706/03/00 08:20:31  5-MIN KMKG 031320Z 08005KT 10SM CLR 106/03/00 09:25:31  5-MIN KMKG 031425Z 11007KT 060V130 10SM FEW032 14/07 A3033 250 59 300 120/07 060V130 RMK AO2
14840KMKG MKG20000603093009506/03/00 09:30:31  5-MIN KMKG 031430Z 12006KT 10SM FEW034 14/06 A3033 250 59 200 130/06 RMK AO2
14840KMKG MKG20000603093509706/03/00 09:35:31  5-MIN0  KMKG 031530Z 08007KT 10SM BKN038 15/06 A3032 260 53 400 080/07 RMK AO2
14840KMKG MKG20000603103509506/03/00 10:35:31  5-MIN KMKG 031535Z 08008KT 10SM BKN038 14/06 A3032 260 59 200 080/08 RMK AO2
14840KMKG MKG20000603104009506/03/00 10:40:31  5-MIN KMKG 031540Z 09009KT 10SM BKN038 14/06 A3032 260 57 300 100/09 RMK AO2
14840KMKG MKG20000603104509506/03/00 10:45:31  5-MIN KMKG 031545Z 08008KT 10SM OVC038 15/06 A3032 270 55 400 080/08 RMK AO2
14840KMKG MKG20000603105011206/03/00 10:50:31  5-MIN KMKG 031550Z 09009KT 10SM BKN038 16/07 A3032 270 55 400 090/09 RMK AO2 SLP267 T01560067
14840KMKG MKG20000603105511206/03/00 10:55:31  5-MIN KMKG 031555Z 12007KT 10SM BKN040 16/07 A3032 260 57 400 120/07 RMK AO2 SLP268 T01560072
14840KMKG MKG20000603110009506/03/00 11:00:31  5-MIN KMKG 031600Z 15008KT 10SM BKN040 14/06 A3032 260 57 300 150/08 RMK AO2
14840KMKG MKG20000603110509506/03/00 11:05:31  5-MIN KMKG 031605Z VRB04KT 10SM BKN040 14/06 A3032 270 55 300 VRB/04 RMK AO2
14840KMKG MKG20000603111009506/03/00 11:10:31  5-MIN KMKG 031610Z VRB05KT 10SM BKN040 14/06 A3032 270 57 300 VRB/05 RMK AO2
14840KMKG MKG20000603111509506/03/00 11:15:31  5-MIN KMKG 031615Z 07003KT 10SM BKN040 15/06 A3032 270 55 400 080/03 RMK AO2
14840KMKG MKG20000603112009506/03/00 11:20:31  5-MIN KMKG 031620Z 11007KT 10SM BKN040 16/07 A3032 270 55 400 120/07 RMK AO2
14840KMKG MKG20000603112509506/03/00 11:25:31  5-MIN KMKG 031625Z 10006KT 10SM BKN040 16/07 A3032 270 53 500 100/06 RMK AO2
14840KMKG MKG20000603113011106/03/00 11:30:31  5-MIN KMKG 031630Z 10007KT 060V140 10SM BKN040 16/07 A3032 270 53 500 100/07 060V140 RMK AO2
14840KMKG MKG20000603113509506/03/00 11:35:31  5-MIN KMKG 031635Z 12006KT 10SM BKN040 16/07 A3031 270 53 500 120/06 RMK AO2
14840KMKG MKG20000603114009506/03/00 11:40:31  5-MIN KMKG 031640Z VRB04KT 10SM BKN040 16/06 A3031 270 53 400 VRB/04 RMK AO2
14840KMKG MKG20000603114511106/03/00 11:45:31  5-MIN KMKG 031645Z 08008KT 040V140 10SM BKN040 16/07 A3031 280 55 400 080/08 040V140 RMK AO2
14840KMKG MKG20000603115011206/03/00 11:50:31  5-MIN KMKG 031650Z 12007KT 10SM BKN040 16/07 A3031 270 53 500 120/07 RMK AO2 SLP264 T01610067
14840KMKG MKG20000603115511206/03/00 11:55:31  5-MIN KMKG 031655Z 07005KT 10SM BKN040 16/07 A3031 270 55 400 070/05 RMK AO2 SLP265 T01560067
14840KMKG MKG20000603120009506/03/00 12:00:31  5-MIN KMKG 031700Z 03005KT 10SM BKN040 16/06 A3030 280 53 400 030/05 RMK AO2
14840KMKG MKG20000603120507106/03/00 12:05:31  5-MIN KMKG 031705Z 35004KT 100 69 300 280/09 RMK AO2
14840KMKG MKG20000603125013006/03/00 12:50:31  5-MIN KMKG 031750Z 27006KT 10SM BKN042 14/09 A3029 290 69 300 280/06 RMK AO2 SLP259 T01440089 10167 20094 58002
14840KMKG MKG20000603125510306/03/00 12:55:31  5-MIN KMKG 031755Z 28007KT 10SM BKN042 15/09 A3029 290 66 400 266 300 280/08 RMK AO2
14840KMKG MKG20000603140509506/03/00 14:05:31  5-MIN KMKG 031905Z 27007KT 10SM BKN044 15/08 A3027 300 64 400 280/07 RMK AO2
14840KMKG MKG20000603141011306/03/00 14:10:31  5-MIN KMKG 031910Z 27010KT 10SM SCT044 15/08 A3027 310 64 400 280/10 RMK AO2 06/03/00 14:15:30
14840KMKG MKG20000603152509506/03/00 15:25:31  5-MIN KMKG 032025Z 30009KT 10SM FEW048 16/08 A3026 320 59 500 300/09 RMK AO2
14840KMKG MKG20000603153009506/03/00 15:30:31  5-MIN KMKG 032030Z 30009KT 10SM FEW048 16/08 A3026 320 59 500 310/09 RMK AO2
14840KMKG MKG20000603153514306/03/00 15:35:31  5-MIN KMKG 032035Z 30010KT 1006/03/00 16:35:31  5-MIN KMKG 032135Z 29007KT 10SM FEW048 15/07 A3023 350 57 500 290/07 RMK AO2
14840KMKG MKG20000603164009506/03/00 16:40:31  5-MIN KMKG 032140Z 27008KT 10SM FEW048 15/07 A3022 350 57 500 280/08 RMK AO2
14840KMKG MKG20000603164512206/03/00 16:45:31  5-MIN KMKG 032145Z 290 2250Z 28008KT 10SM FEW050 14/07 A3021 360 59 400 290/08 RMK AO2 SLP233 T01440067
14840KMKG MKG20000603175511206/03/00 17:55:31  5-MIN KMKG 032255Z 27007KT 10SM FEW050 14/07 A3021 360 59 400 270/07 RMK AO2 SLP233 T01440067
14840KMKG MKG20000605023010706/05/00 02:30:31  5-MIN KMKG 050730Z 05006KT 6SM -RA BR OVC055 11/11 A3009 470 96 200 050/06 RMK AO2 P0006
14840KMKG MKG20000605023510706/05/00 02:35:31  5-MIN KMKG 050735Z 05006KT 6SM -RA BR OVC060 11/11 A3009 480 96 200 050/06 RMK AO2 P0007
14840KMKG MKG20000605024010406/05/00 02:40:31  5-MIN KMKG 050740Z 05008KT 7SM -RA OVC060 11/10 A3009 480 93 200 060/08 RMK AO2 P0007
14840KMKG MKG20000605024510406/05/00 02:45:31  5-MIN KMKG 050745Z 05007KT 7SM -RA OVC060 11/10 A3008 480 93 200 050/07 RMK AO2 P0008
14840KMKG MKG20000605025012106/05/00 02:50:31  5-MIN KMKG 050750Z 04008KT 7SM -RA OVC060 11/11 A3008 480 96 200 050/08 RMK AO2 SLP187 P0008 T01110106
14840KMKG MKG20000605025512106/05/00 02:55:31  5-MIN KMKG 050755Z 05008KT 8SM -RA OVC060 11/11 A3008 480 96 200 050/08 RMK AO2 SLP186 P0008 T01110106
14840KMKG MKG20000605030010406/05/00 03:00:31  5-MIN KMKG 050800Z 04010KT 9SM -RA OVC060 11/11 A3008 480 96 200 050/10 RMK AO2 P0000
14840KMKG MKG20000605030510506/05/00 03:05:31  5-MIN KMKG 050805Z 05008KT 10SM -RA OVC060 11/10 A3008 480 93 200 050/08 RMK AO2 P0000
14840KMKG MKG20000605031010506/05/00 03:10:31  5-MIN KMKG 050810Z 04008KT 10SM -RA OVC060 11/11 A3008 490 96 200 050/08 RMK AO2 P0001
14840KMKG MKG20000605031510506/05/00 03:15:31  5-MIN KMKG 050815Z 05009KT 10SM -RA OVC065 11/11 A3008 490 96 200 060/09 RMK AO2 P0001
14840KMKG MKG20000605032010506/05/00 03:20:31  5-MIN KMKG 050820Z 06011KT 10SM -RA OVC065 11/11 A3008 490 96 200 060/11 RMK AO2 P0001
14840KMKG MKG20000605032510506/05/00 03:25:31  5-MIN KMKG 050825Z 06010KT 10SM -RA OVC065 11/10 A3007 490 93 200 070/10 RMK AO2 P0001
14840KMKG MKG20000605033010506/05/00 03:30:31  5-MIN KMKG 050830Z 06010KT 10SM -RA OVC070 11/10 A3007 490 93 200 060/10 RMK AO2 P0001
14840KMKG MKG20000605033510506/05/00 03:35:31  5-MIN KMKG 050835Z 04009KT 10SM -RA OVC070 11/10 A3008 490 93 200 050/09 RMK AO2 P0001
14840KMKG MKG20000605034010506/05/00 03:40:31  5-MIN KMKG 050840Z 06010KT 10SM -RA OVC070 11/10 A3008 490 93 200 060/10 RMK AO2 P0001
14840KMKG MKG20000605034511206/05/00 03:45:31  5-MIN KMKG 050845Z 04010KT 10SM -RA FEW055 OVC070 11/10 A3008 490 93 200 050/10 RMK AO2 P0001
14840KMKG MKG20000605035013406/05/00 03:50:31  5-MIN KMKG 050850Z 05009KT 10SM -RA OVC070 11/10 A3008 490 93 200 050/09 RMK AO2 SLP185 P0002 60017 T01110100 56003
14840KMKG MKG20000605035513406/05/00 03:55:31  5-MIN KMKG 050855Z 05009KT 10SM -RA OVC070 11/10 A3008 490 93 200 050/09 RMK AO2 SLP184 P0002 60017 T01110100 58004
14840KMKG MKG20000605040010506/05/00 04:00:31  5-MIN KMKG 050900Z 04009KT 10SM -RA OVC070 11/10 A3008 490 93 200 050/09 RMK AO2 P0000
14840KMKG MKG20000605040510506/05/00 04:05:31  5-MIN KMKG 050905Z 03010KT 10SM -RA OVC070 11/10 A3008 490 93 200 040/10 RMK AO2 P0000
14840KMKG MKG20000605041010506/05/00 04:10:31  5-MIN KMKG 050910Z 04011KT 10SM -RA OVC070 11/10 A3008 490 93 200 050/11 RMK AO2 P0000
14840KMKG MKG20000605041510506/05/00 04:15:31  5-MIN KMKG 050915Z 04011KT 10SM -RA OVC070 11/10 A3008 480 93 200 050/11 RMK AO2 P0000
14840KMKG MKG20000605042010506/05/00 04:20:31  5-MIN KMKG 050920Z 04009KT 10SM -RA OVC070 11/10 A3008 480 93 200 050/09 RMK AO2 P0000
14840KMKG MKG20000605042510506/05/00 04:25:31  5-MIN KMKG 050925Z 04010KT 10SM -RA OVC070 11/10 A3008 480 93 200 040/10 RMK AO2 P0001
14840KMKG MKG20000605043010406/05/00 04:30:31  5-MIN KMKG 050930Z 05010KT 9SM -RA OVC070 11/10 A3008 490 93 200 050/10 RMK AO2 P0001
14840KMKG MKG20000605043510406/05/00 04:35:31  5-MIN KMKG 050935Z 04010KT 9SM -RA OVC070 11/10 A3008 490 93 200 050/10 RMK AO2 P0002
14840KMKG MKG20000605044010506/05/00 04:40:31  5-MIN KMKG 050940Z 05010KT 10SM -RA OVC070 11/10 A3008 480 93 200 050/10 RMK AO2 P0002
14840KMKG MKG20000605044510506/05/00 04:45:31  5-MIN KMKG 050945Z 04010KT 10SM -RA OVC070 11/10 A3008 480 93 200 050/10 RMK AO2 P0002
14840KMKG MKG20000605045012206/05/00 04:50:31  5-MIN KMKG 050950Z 05010KT 10SM -RA OVC070 11/10 A3008 480 93 200 050/10 RMK AO2 SLP186 P0002 T01110100
14840KMKG MKG20000605045512906/05/00 04:55:31  5-MIN KMKG 050955Z 05010KT 10SM -RA BKN065 OVC075 11/10 A3008 480 93 200 050/10 RMK AO2 SLP185 P0002 T01110100
14840KMKG MKG20000605050010506/05/00 05:00:31  5-MIN KMKG 051000Z 05010KT 10SM -RA OVC065 11/10 A3008 490 93 200 050/10 RMK AO2 P0001
14840KMKG MKG20000605050510406/05/00 05:05:31  5-MIN KMKG 051005Z 05011KT 9SM -RA OVC065 11/10 A3008 490 93 200 050/11 RMK AO2 P0001
14840KMKG MKG20000605051010406/05/00 05:10:31  5-MIN KMKG 051010Z 05012KT 9SM -RA OVC060 11/10 A3008 480 93 200 060/12 RMK AO2 P0002
14840KMKG MKG20000605051510506/05/00 05:15:31  5-MIN KMKG 051015Z 04010KT 10SM -RA OVC060 11/10 A3008 480 93 200 050/10 RMK AO2 P0002
14840KMKG MKG20000605052010506/05/00 05:20:31  5-MIN KMKG 051020Z 04011KT 10SM -RA OVC060 11/10 A3008 480 93 200 050/11 RMK AO2 P0002
14840KMKG MKG20000605052510506/05/00 05:25:31  5-MIN KMKG 051025Z 04010KT 10SM -RA OVC060 11/10 A3008 490 93 200 050/10 RMK AO2 P0002
14840KMKG MKG20000605053010506/05/00 05:30:31  5-MIN KMKG 051030Z 04010KT 10SM -RA OVC060 11/10 A3007 490 93 200 050/10 RMK AO2 P0002
14840KMKG MKG20000605053510506/05/00 05:35:31  5-MIN KMKG 051035Z 04010KT 10SM -RA OVC065 11/09 A3007 490 89 200 050/10 RMK AO2 P0002
14840KMKG MKG20000605054010506/05/00 05:40:31  5-MIN KMKG 051040Z 05010KT 10SM -RA OVC065 11/10 A3007 490 93 200 060/10 RMK AO2 P0002
14840KMKG MKG20000605054510506/05/00 05:45:31  5-MIN KMKG 051045Z 05012KT 10SM -RA OVC070 11/09 A3007 490 89 200 050/12 RMK AO2 P0002
14840KMKG MKG20000605055012406/05/00 05:50:31  5-MIN KMKG 051050Z 05011KT 10SM OVC070 11/09 A3007 490 89 200 050/11 RMK AO2 RAE47 SLP184 P0002 T01110094
14840KMKG MKG20000605055513106/05/00 05:55:31  5-MIN KMKG 051055Z 05012KT 10SM BKN070 OVC090 11/09 A3007 490 89 200 050/12 RMK AO2 RAE47 SLP184 P0002 T01110094
14840KMKG MKG20000605060010206/05/00 06:00:31  5-MIN KMKG 051100Z 05011KT 10SM BKN070 OVC090 11/09 A3007 490 89 200 050/11 RMK AO2
14840KMKG MKG20000605060510206/05/00 06:05:31  5-MIN KMKG 051105Z 05009KT 10SM BKN070 OVC090 11/09 A3007 490 89 200 050/09 RMK AO2
14840KMKG MKG20000605061010206/05/00 06:10:31  5-MIN KMKG 051110Z 05010KT 10SM BKN075 OVC090 11/09 A3007 490 89 200 050/10 RMK AO2
14840KMKG MKG20000605061510206/05/00 06:15:31  5-MIN KMKG 051115Z 05010KT 10SM BKN075 OVC090 11/10 A3007 490 93 200 060/10 RMK AO2
14840KMKG MKG20000605062011806/05/00 06:20:31  5-MIN KMKG 051120Z 05010KT 10SM -RA BKN075 OVC090 11/09 A3007 490 89 200 060/10 RMK AO2 RAB17 P0000
14840KMKG MKG20000605062511806/05/00 06:25:31  5-MIN KMKG 051125Z 05010KT 10SM -RA SCT075 OVC090 11/09 A3007 490 89 200 050/10 RMK AO2 RAB17 P0000
14840KMKG MKG20000605063011806/05/00 06:30:31  5-MIN KMKG 051130Z 05009KT 10SM -RA SCT075 OVC090 11/09 A3007 490 89 200 050/09 RMK AO2 RAB17 P0001
14840KMKG MKG20000605063511806/05/00 06:35:31  5-MIN KMKG 051135Z 05009KT 10SM -RA SCT075 BKN090 11/10 A3007 490 93 200 050/09 RMK AO2 RAB17 P0001
14840KMKG MKG20000605064013306/05/00 06:40:31  5-MIN KMKG 051140Z 04008KT 10SM -RA FEW070 BKN090 12/10 A3007 490 89 200 050/08 RMK AO2 RAB17 CIG 070 RWY 14 P0001
14840KMKG MKG20000605064513306/05/00 06:45:31  5-MIN KMKG 051145Z 05010KT 10SM -RA SCT065 BKN090 12/10 A3008 490 89 200 050/10 RMK AO2 RAB17 CIG 060 RWY 14 P0001
14840KMKG MKG20000605065016506/05/00 06:50:31  5-MIN KMKG 051150Z 05010KT 10SM -RA BKN070 BKN090 12/10 A3008 490 89 200 060/10 RMK AO2 RAB17 SLP185 P0001 60022 70044 T01170100 10122 20111 58004
14840KMKG MKG20000605065516406/05/00 06:55:31  5-MIN KMKG 051155Z 04010KT 10SM BKN070 BKN090 12/10 A3008 490 89 200 050/10 RMK AO2 RAB17E55 SLP185 P0001 60022 70044 T01170100 10122 20111 55000
14840KMKG MKG20000605070010206/05/00 07:00:31  5-MIN KMKG 051200Z 05011KT 10SM BKN070 OVC095 12/10 A3008 490 89 200 050/11 RMK AO2
14840KMKG MKG20000605070509506/05/00 07:05:31  5-MIN KMKG 051205Z 05010KT 10SM BKN070 12/10 A3007 490 89 200 060/10 RMK AO2
14840KMKG MKG20000605071009506/05/00 07:10:31  5-MIN KMKG 051210Z 05011KT 10SM OVC070 12/10 A3007 490 89 200 050/11 RMK AO2
14840KMKG MKG20000605071509506/05/00 07:15:31  5-MIN KMKG 051215Z 05010KT 10SM OVC075 12/10 A3007 490 89 200 050/10 RMK AO2
14840KMKG MKG20000605072009506/05/00 07:20:31  5-MIN KMKG 051220Z 04010KT 10SM OVC070 12/10 A3008 490 89 200 050/10 RMK AO2
14840KMKG MKG20000605072509506/05/00 07:25:31  5-MIN KMKG 051225Z 05008KT 10SM OVC070 12/10 A3008 490 86 300 050/08 RMK AO2
14840KMKG MKG20000605073009506/05/00 07:30:31  5-MIN KMKG 051230Z 05009KT 10SM OVC070 12/11 A3008 490 89 300 050/09 RMK AO2
14840KMKG MKG20000605082009506/05/00 08:20:31  5-MIN KMKG 051320Z 06010KT 10SM OVC080 12/10 A3009 480 86 300 060/10 RMK AO2
14840KMKG MKG20000605082509506/05/00 08:25:31  5-MIN KMKG 051325Z 05011KT 10SM OVC080 12/10 A3009 470 86 300 060/11 RMK AO2
14840KMKG MKG20000605083004106/05/00 08:30:31  5-MIN KMKG 051330Z 050
14840KMKG MKG20000605093509506/05/00 09:35:31  5-MIN KMKG 051435Z 06010KT 10SM SCT090 13/10 A3008 480 80 400 060/10 RMK AO2
14840KMKG MKG20000605094014306/05/00 09:40:31  5-MIN KMKG 051440Z 06010KT 10SM SCT090 SCT110 14/11 A3008 480 80 500 060/10 RMK AO2 74 600 050/12 RMK AO2 SLP194 T0150010605
14840KMKG MKG20000605110009506/05/00 11:00:31  5-MIN KMKG 051600Z 04010KT 10SM BKN095 16/11 A3010 460 72 700 040/10 RMK AO2
14840KMKG MKG20000605110516406/05/00 11:05:31  5-MIN KMKG 051605Z 04010KT 10SM BKN095 16/11 A3010 460 72 700 040/10 RMK AO2 015G19KT 10SM FEW020 SCT100 17/10 A3011 460 62 900 050/15G19 RMK AO2
14840KMKG MKG20000605121010206/05/00 12:10:31  5-MIN KMKG 051710Z 06013KT 10SM FEW020 SCT100 17/10 A3010 460 62 900 060/13 RMK AO2
14840KMKG MKG20000605130510806/05/00 13:05:31  5-MIN KMKG 051805Z 05012G19KT 10SM FEW030 SCT100 18/09 A3010 460 58 900 060/12G19 RMK AO2
14840KMKG MKG20000605131014006/05/00 13:10:31  5-MIN KMKG 051810Z 06011G19KT 10SM FEW030 SCT100 18/09 A3010 460 58 900 060/11G19 RMK AO2 06/05/00 13:15:3LP191 T01940094
14840KMKG MKG20000605135511906/05/00 13:55:31  5-MIN KMKG 051855Z 04013G18KT 10SM BKN042 19/09 A3009 470 54 1100 050/13G18 RMK AO2 SLP191 T01890094
14840KMKG MKG20000605144516806/05/00 14:45:31  5-MIN KMKG 051945Z 07011G19KT 10SM FEW047 BKN060 OVC090 17/08 A3010 470 55 900 070/11G19 RMK AO2 06/05/000 48 1000 060/12G17 RMK AO2 RAB1959E08 P0000
14840KMKG MKG20000605153512706/05/00 15:35:31  5-MIN KMKG 052035Z 06012KT 10SM SCT050 SCT070 BKN080 19/08 A3010 460 48 1100 070/12 RMK AO2 RAB1959E08 P0000
14840KMKG MKG20000605154006406/05/00 15:40:31  5-MIN KMKG 052040Z 07014KT 10SM BKN050 BKN070
14840KMKG MKG20000605163509606/05/00 16:35:31  5-MIN KMKG 052135Z 07009KT 10SM BKN065 18/06 A3011 460 44 1000 070/09 RMK AO2
14840KMKG MKG20000605164009606/05/00 16:40:31  5-MIN KMKG 052140Z 07011KT 10SM BKN065 18/07 A3010 460 46 1000 080/11 RMK AO2
14840KMKG MKG20000605164508206/05/00 16:45:31  5-MIN KMKG 052145Z 060 0 18/05 A3010 460 41 1000 070/09 RMK AO2
14840KMKG MKG20000605175011206/05/00 17:50:31  5-MIN KMKG 052250Z 04011KT 10SM SCT080 18/05 A3010 460 42 900 050/11 RMK AO2 SLP195 T01780050
14840KMKG MKG20000605175507306/05/00 17:55:31  5-MIN KMKG 052255Z 06010KT 10SM SCT080 18/04 A3010 460
14840KMKG MKG20000605180008306/05/00 18:00:31  5-MIN KMKG 052300Z 05010KT 10SM FEW080 18/04 A3011 460 39 1000 0
14840KMKG MKG20000605191009206/05/00 19:10:31  5-MIN KMKG 060010Z 06011KT 10SM CLR 17/02 A3011 450 35 900 060/11 RMK AO2
14840KMKG MKG20000605191509206/05/00 19:15:31  5-MIN KMKG 060015Z 05009KT 10SM CLR 17/02 A3012 450 35 900 060/09 RMK AO2
14840KMKG MKG20000605192004906/05/00 19:20:31  5-MIN KMKG 060020Z 04007KT 105
14840KMKG MKG20000605203009206/05/00 20:30:31  5-MIN KMKG 060130Z 06005KT 10SM CLR 14/02 A3013 440 43 500 060/05 RMK AO2
14840KMKG MKG20000605203506506/05/00 20:35:31  5-MIN KMKG 060135Z 08003KT 10SM CLR 14/02 A303
14840KMKG MKG20000605214509206/05/00 21:45:31  5-MIN KMKG 060245Z 00000KT 10SM CLR 11/04 A3015 420 61 100 000/00 RMK AO2
14840KMKG MKG20000605215006706/05/00 21:50:31  5-MIN KMKG 060250Z 00000KT 10SM CLR 11/04 A301 4
14840KMKG MKG20000605225011006/05/00 22:50:31  5-MIN KMKG 060350Z 00000KT 10SM CLR 09/05 A3016 410 74 -100 000/00 RMK AO2 SLP214 T00940050
14840KMKG MKG20000605225511006/05/00 22:55:31  5-MIN KMKG 060355Z 00000KT 10SM CLR 09/05 A3016 410 76 -100 000/00 RMK AO2 SLP214 T00890050
14840KMKG MKG20000605233509306/05/00 23:35:31  5-MIN KMKG 060435Z 00000KT 10SM CLR 09/06 A3016 410 79 -100 000/00 RMK AO2
14840KMKG MKG20000605234009306/05/00 23:40:31  5-MIN KMKG 060440Z 00000KT 10SM CLR 08/06 A3016 410 82 -200 000/00 RMK AO2
14840KMKG MKG20000605234510806/05/00 23:45:31  5-MIN KMKG 060445Z 00000KT 100535Z 00000KT 10SM CLR 08/06 A3016 410 86-300 000/00 RMK AO2
14840KMKG MKG20000606004009306/06/00 00:40:31  5-MIN KMKG 060540Z 00000KT 10SM CLR 08/06 A3016 410 86 -300 000/00 RMK AO2
14840KMKG MKG20000606004514406/06/00 00:45:31  5-MIN KMKG 060545Z 00000KT 10SM CLR 07/06 A3016 410 89 -300 000SM CLR 07/05 A3016 410 89 -400 000/00 RMK AO2 SLP215 T00670050
14840KMKG MKG20000606015511006/06/00 01:55:31  5-MIN KMKG 060655Z 00000KT 10SM CLR 07/05 A3016 410 89 -400 000/00 RMK AO2 SLP216 T00670050
14840KMKG MKG20000606020009306/06/00 02:00:31  5-MIN KMKG 060700Z 00000KT 10SM CLR 06/05 A3018 390 93 -500 320/03 RMK AO2
14840KMKG MKG20000606031009306/06/00 03:10:31  5-MIN KMKG 060810Z 32003KT 10SM CLR 06/04 A3018 390 89 -500 320/03 RMK AO2
14840KMKG MKG20000606031516306/06/00 03:15:31  5-MIN KMKG 060815Z 33004KT 10SM CLR 06/04 A3018 390 92 -600 340/04 RMK AO2 06/06/00 03:20:3000KT 10SM CLR 06/04 A3019 380 92 -600 000/00 RMK AO2
14840KMKG MKG20000606042509306/06/00 04:25:31  5-MIN KMKG 060925Z 33004KT 10SM CLR 06/05 A3019 380 93 -500 330/04 RMK AO2
14840KMKG MKG20000606043009306/06/00 04:30:31  5-MIN KMKG 060930Z 33004KT 10SM CLR 06/04 A3019 380 92 -600 330/04 RMK AO2
14840KMKG MKG20000606043509306/06/00 04:35:31  5-MIN KMKG 060935Z 33005KT 10SM CLR 06/04 A3019 380 92 -600 330/05 RMK AO2
14840KMKG MKG20000606044009306/06/00 04:40:31  5-MIN KMKG 060940Z 33004KT 10SM CLR 06/04 A3019 380 89 -600 340/04 RMK AO2
14840KMKG MKG20000606044509306/06/00 04:45:31  5-MIN KMKG 060945Z 34003KT 10SM CLR 06/04 A3019 380 89 -600 340/03 RMK AO2
14840KMKG MKG20000606045011006/06/00 04:50:31  5-MIN KMKG 060950Z 34003KT 10SM CLR 06/04 A3020 380 89 -600 340/03 RMK AO2 SLP227 T00560039
14840KMKG MKG20000606045511006/06/00 04:55:31  5-MIN KMKG 060955Z 00000KT 10SM CLR 06/04 A3020 370 89 -500 000/00 RMK AO2 SLP228 T00610044
14840KMKG MKG20000606050009306/06/00 05:00:31  5-MIN KMKG 061000Z 00000KT 10SM CLR 06/04 A3020 370 89 -500 000/00 RMK AO2
14840KMKG MKG20000606050509306/06/00 05:05:31  5-MIN KMKG 061005Z 00000KT 10SM CLR 06/04 A3020 370 89 -500 000/00 RMK AO2
14840KMKG MKG20000606051009306/06/00 05:10:31  5-MIN KMKG 061010Z 00000KT 10SM CLR 06/04 A3020 370 89 -500 000/00 RMK AO2
14840KMKG MKG20000606051509306/06/00 05:15:31  5-MIN KMKG 061015Z 00000KT 10SM CLR 06/04 A3020 370 92 -600 000/00 RMK AO2
14840KMKG MKG20000606052009306/06/00 05:20:31  5-MIN KMKG 061020Z 00000KT 10SM CLR 06/04 A3020 370 92 -600 000/00 RMK AO2
14840KMKG MKG20000606052509306/06/00 05:25:31  5-MIN KMKG 061025Z 00000KT 10SM CLR 06/04 A3021 370 92 -600 000/00 RMK AO2
14840KMKG MKG20000606053009306/06/00 05:30:31  5-MIN KMKG 061030Z 00000KT 10SM CLR 06/04 A3021 370 92 -600 000/00 RMK AO2
14840KMKG MKG20000606053509306/06/00 05:35:31  5-MIN KMKG 061035Z 00000KT 10SM CLR 06/04 A3021 370 92 -600 000/00 RMK AO2
14840KMKG MKG20000606054009306/06/00 05:40:31  5-MIN KMKG 061040Z 00000KT 10SM CLR 06/04 A3021 360 92 -600 000/00 RMK AO2
14840KMKG MKG20000606054509306/06/00 05:45:31  5-MIN KMKG 061045Z 00000KT 10SM CLR 06/04 A3021 360 89 -500 000/00 RMK AO2
14840KMKG MKG20000606055011006/06/00 05:50:31  5-MIN KMKG 061050Z 00000KT 10SM CLR 06/04 A3021 360 89 -500 000/00 RMK AO2 SLP234 T00610044
14840KMKG MKG20000606055511006/06/00 05:55:31  5-MIN KMKG 061055Z 34003KT 10SM CLR 06/04 A3022 360 89 -500 340/03 RMK AO2 SLP234 T00610044
14840KMKG MKG20000606060009306/06/00 06:00:31  5-MIN KMKG 061100Z 34003KT 10SM CLR 07/04 A3022 360 86 -500 350/03 RMK AO2
14840KMKG MKG20000606060509306/06/00 06:05:31  5-MIN KMKG 061105Z 35003KT 10SM CLR 07/06 A3022 360 89 -400 350/03 RMK AO2
14840KMKG MKG20000606061009306/06/00 06:10:31  5-MIN KMKG 061110Z 35003KT 10SM CLR 08/06 A3022 360 86 -300 350/03 RMK AO2
14840KMKG MKG20000606061509306/06/00 06:15:31  5-MIN KMKG 061115Z 33003KT 10SM CLR 09/07 A3022 350 86 -200 330/03 RMK AO2
14840KMKG MKG20000606062009306/06/00 06:20:31  5-MIN KMKG 061120Z 00000KT 10SM CLR 10/07 A3022 350 83 -100 000/00 RMK AO2
14840KMKG MKG20000606062509306/06/00 06:25:31  5-MIN KMKG 061125Z 00000KT 10SM CLR 09/07 A3022 350 89 -200 000/00 RMK AO2
14840KMKG MKG20000606063009306/06/00 06:30:31  5-MIN KMKG 061130Z 00000KT 10SM CLR 09/07 A3022 350 86 -100 000/00 RMK AO2
14840KMKG MKG20000606063509306/06/00 06:35:31  5-MIN KMKG 061135Z 00000KT 10SM CLR 10/08 A3022 350 86 -100 000/00 RMK AO2
14840KMKG MKG20000606064009306/06/00 06:40:31  5-MIN KMKG 061140Z 00000KT 10SM CLR 10/08 A3023 350 86 -100 000/00 RMK AO2
14840KMKG MKG20000606064509206/06/00 06:45:31  5-MIN KMKG 061145Z 33003KT 10SM CLR 12/08 A3023 350 77 100 340/03 RMK AO2
14840KMKG MKG20000606065012706/06/00 06:50:31  5-MIN KMKG 061150Z 00000KT 10SM CLR 12/07 A3023 340 71 100 000/00 RMK AO2 SLP237 T01220072 10122 20056 53007
14840KMKG MKG20000606065512706/06/00 06:55:31  5-MIN KMKG 061155Z 33003KT 10SM CLR 12/07 A3023 340 68 100 330/03 RMK AO2 SLP237 T01220067 10122 20056 53016
14840KMKG MKG20000606070009206/06/00 07:00:31  5-MIN KMKG 061200Z 34003KT 10SM CLR 13/07 A3023 340 66 200 340/03 RMK AO2
14840KMKG MKG20000606070509206/06/00 07:05:31  5-MIN KMKG 061205Z 33004KT 10SM CLR 13/06 A3023 340 61 300 330/04 RMK AO2
14840KMKG MKG20000606071009206/06/00 07:10:31  5-MIN KMKG 061210Z 33004KT 10SM CLR 13/06 A3023 340 59 300 330/04 RMK AO2
14840KMKG MKG20000606071509206/06/00 07:15:31  5-MIN KMKG 061215Z 33004KT 10SM CLR 14/06 A3024 340 59 300 330/04 RMK AO2
14840KMKG MKG20000606072009206/06/00 07:20:31  5-MIN KMKG 061220Z 33005KT 10SM CLR 14/05 A3024 340 55 300 330/05 RMK AO2
14840KMKG MKG20000606072509206/06/00 07:25:31  5-MIN KMKG 061225Z 34004KT 10SM CLR 14/05 A3024 340 53 400 340/04 RMK AO2
14840KMKG MKG20000606073009206/06/00 07:30:31  5-MIN KMKG 061230Z 35003KT 10SM CLR 14/04 A3024 340 51 400 350/03 RMK AO2
14840KMKG MKG20000606073509206/06/00 07:35:31  5-MIN KMKG 061235Z 34003KT 10SM CLR 15/05 A3024 340 51 500 350/03 RMK AO2
14840KMKG MKG20000606074009206/06/00 07:40:31  5-MIN KMKG 061240Z 34007KT 10SM CLR 15/04 A3024 340 47 500 340/07 RMK AO2
14840KMKG MKG20000606074509206/06/00 07:45:31  5-MIN KMKG 061245Z 34006KT 10SM CLR 15/04 A3024 340 47 500 350/06 RMK AO2
14840KMKG MKG20000606075010906/06/00 07:50:31  5-MIN KMKG 061250Z 34005KT 10SM CLR 15/04 A3024 340 47 500 350/05 RMK AO2 SLP240 T01500039
14840KMKG MKG20000606075510906/06/00 07:55:31  5-MIN KMKG 061255Z 34005KT 10SM CLR 16/04 A3024 340 45 500 350/05 RMK AO2 SLP240 T01560039
14840KMKG MKG20000606080009206/06/00 08:00:31  5-MIN KMKG 061300Z 34004KT 10SM CLR 16/03 A3024 340 43 500 340/04 RMK AO2
14840KMKG MKG20000606080509206/06/00 08:05:31  5-MIN KMKG 061305Z 33006KT 10SM CLR 16/03 A3024 340 42 600 340/06 RMK AO2
14840KMKG MKG20000606081009206/06/00 08:10:31  5-MIN KMKG 061310Z 33005KT 10SM CLR 16/03 A3024 330 42 600 330/05 RMK AO2
14840KMKG MKG20000606081509206/06/00 08:15:31  5-MIN KMKG 061315Z 33005KT 10SM CLR 16/03 A3024 330 42 600 330/05 RMK AO2
14840KMKG MKG20000606082009206/06/00 08:20:31  5-MIN KMKG 061320Z 31007KT 10SM CLR 17/03 A3024 330 40 600 310/07 RMK AO2
14840KMKG MKG20000606082509206/06/00 08:25:31  5-MIN KMKG 061325Z VRB05KT 10SM CLR 17/03 A3024 330 40 600 VRB/05 RMK AO2
14840KMKG MKG20000606083009206/06/00 08:30:31  5-MIN KMKG 061330Z 32005KT 10SM CLR 17/04 A3024 330 41 700 320/05 RMK AO2
14840KMKG MKG20000606083509206/06/00 08:35:31  5-MIN KMKG 061335Z 32005KT 10SM CLR 17/04 A3024 330 41 700 330/05 RMK AO2
14840KMKG MKG20000606084009206/06/00 08:40:31  5-MIN KMKG 061340Z 32006KT 10SM CLR 17/04 A3024 330 41 700 320/06 RMK AO2
14840KMKG MKG20000606084509206/06/00 08:45:31  5-MIN KMKG 061345Z VRB05KT 10SM CLR 17/03 A3024 330 39 700 VRB/05 RMK AO2
14840KMKG MKG20000606085010906/06/00 08:50:31  5-MIN KMKG 061350Z 32006KT 10SM CLR 17/03 A3025 330 39 700 320/06 RMK AO2 SLP242 T01720033
14840KMKG MKG20000606085510906/06/00 08:55:31  5-MIN KMKG 061355Z 30007KT 10SM CLR 18/03 A3025 330 36 800 310/07 RMK AO2 SLP242 T01780028
14840KMKG MKG20000606090009206/06/00 09:00:31  5-MIN KMKG 061400Z 33007KT 10SM CLR 17/03 A3025 330 37 700 330/07 RMK AO2
14840KMKG MKG20000606090509206/06/00 09:05:31  5-MIN KMKG 061405Z 28005KT 10SM CLR 18/04 A3024 330 39 800 290/05 RMK AO2
14840KMKG MKG20000606091009206/06/00 09:10:31  5-MIN KMKG 061410Z 29008KT 10SM CLR 18/04 A3025 330 39 800 290/08 RMK AO2
14840KMKG MKG20000606091509206/06/00 09:15:31  5-MIN KMKG 061415Z 28007KT 10SM CLR 18/03 A3025 330 36 800 290/07 RMK AO2
14840KMKG MKG20000606092009206/06/00 09:20:31  5-MIN KMKG 061420Z 29008KT 10SM CLR 18/03 A3025 330 36 800 290/08 RMK AO2
14840KMKG MKG20000606092509206/06/00 09:25:31  5-MIN KMKG 061425Z 29008KT 10SM CLR 18/02 A3025 330 35 800 300/08 RMK AO2
14840KMKG MKG20000606093009206/06/00 09:30:31  5-MIN KMKG 061430Z 30007KT 10SM CLR 18/02 A3025 330 35 800 300/07 RMK AO2
14840KMKG MKG20000606093509206/06/00 09:35:31  5-MIN KMKG 061435Z 30006KT 10SM CLR 18/03 A3025 330 35 800 310/06 RMK AO2
14840KMKG MKG20000606094009206/06/00 09:40:31  5-MIN KMKG 061440Z 30007KT 10SM CLR 18/03 A3025 320 35 800 310/07 RMK AO2
14840KMKG MKG20000606094509206/06/00 09:45:31  5-MIN KMKG 061445Z 27008KT 10SM CLR 18/03 A3025 330 36 800 270/08 RMK AO2
14840KMKG MKG20000606095011506/06/00 09:50:31  5-MIN KMKG 061450Z 29009KT 10SM CLR 18/03 A3025 330 36 800 290/09 RMK AO2 SLP244 T01830033 53016
14840KMKG MKG20000606095511506/06/00 09:55:31  5-MIN KMKG 061455Z 30008KT 10SM CLR 18/03 A3025 330 35 800 310/08 RMK AO2 SLP245 T01830028 51006
14840KMKG MKG20000606100009206/06/00 10:00:31  5-MIN KMKG 061500Z 28007KT 10SM CLR 18/03 A3025 330 35 800 290/07 RMK AO2
14840KMKG MKG20000606100509206/06/00 10:05:31  5-MIN KMKG 061505Z 30006KT 10SM CLR 18/03 A3025 330 36 800 310/06 RMK AO2
14840KMKG MKG20000606101009206/06/00 10:10:31  5-MIN KMKG 061510Z 28009KT 10SM CLR 19/04 A3025 330 36 900 280/09 RMK AO2
14840KMKG MKG20000606101509206/06/00 10:15:31  5-MIN KMKG 061515Z 27009KT 10SM CLR 18/03 A3025 330 36 800 270/09 RMK AO2
14840KMKG MKG20000606102009206/06/00 10:20:31  5-MIN KMKG 061520Z 27009KT 10SM CLR 18/03 A3025 330 35 800 270/09 RMK AO2
14840KMKG MKG20000606102509206/06/00 10:25:31  5-MIN KMKG 061525Z 27008KT 10SM CLR 18/02 A3025 330 34 800 270/08 RMK AO2
14840KMKG MKG20000606103009206/06/00 10:30:31  5-MIN KMKG 061530Z 30008KT 10SM CLR 18/03 A3025 330 35 800 300/08 RMK AO2
14840KMKG MKG20000606103509206/06/00 10:35:31  5-MIN KMKG 061535Z 30008KT 10SM CLR 18/02 A3025 330 34 800 310/08 RMK AO2
14840KMKG MKG20000606104009206/06/00 10:40:31  5-MIN KMKG 061540Z 27009KT 10SM CLR 19/03 A3025 330 35 900 270/09 RMK AO2
14840KMKG MKG20000606104509206/06/00 10:45:31  5-MIN KMKG 061545Z 28010KT 10SM CLR 19/03 A3025 330 34 900 290/10 RMK AO2
14840KMKG MKG20000606105010906/06/00 10:50:31  5-MIN KMKG 061550Z 27009KT 10SM CLR 18/02 A3025 330 34 800 280/09 RMK AO2 SLP244 T01830022
14840KMKG MKG20000606105510906/06/00 10:55:31  5-MIN KMKG 061555Z 29009KT 10SM CLR 19/03 A3025 330 34 900 290/09 RMK AO2 SLP244 T01890028
14840KMKG MKG20000606110009306/06/00 11:00:31  5-MIN KMKG 061600Z 29008KT 10SM CLR 19/03 A3025 330 34 1000 290/08 RMK AO2
14840KMKG MKG20000606110509206/06/00 11:05:31  5-MIN KMKG 061605Z 30009KT 10SM CLR 19/03 A3025 330 34 900 300/09 RMK AO2
14840KMKG MKG20000606111009206/06/00 11:10:31  5-MIN KMKG 061610Z 27009KT 10SM CLR 19/03 A3025 330 35 900 280/09 RMK AO2
14840KMKG MKG20000606111509306/06/00 11:15:31  5-MIN KMKG 061615Z 28009KT 10SM CLR 19/04 A3025 330 35 1000 280/09 RMK AO2
14840KMKG MKG20000606112009306/06/00 11:20:31  5-MIN KMKG 061620Z 28011KT 10SM CLR 19/04 A3025 330 35 1000 290/11 RMK AO2
14840KMKG MKG20000606112509206/06/00 11:25:31  5-MIN KMKG 061625Z 27010KT 10SM CLR 19/03 A3025 330 35 900 270/10 RMK AO2
14840KMKG MKG20000606113009206/06/00 11:30:31  5-MIN KMKG 061630Z 27011KT 10SM CLR 19/04 A3025 320 36 900 270/11 RMK AO2
14840KMKG MKG20000606113509206/06/00 11:35:31  5-MIN KMKG 061635Z 28010KT 10SM CLR 19/04 A3025 320 38 900 290/10 RMK AO2
14840KMKG MKG20000606114009206/06/00 11:40:31  5-MIN KMKG 061640Z 28011KT 10SM CLR 19/05 A3025 320 39 900 280/11 RMK AO2
14840KMKG MKG20000606114509206/06/00 11:45:31  5-MIN KMKG 061645Z 28010KT 10SM CLR 18/05 A3025 320 41 800 280/10 RMK AO2
14840KMKG MKG20000606115010906/06/00 11:50:31  5-MIN KMKG 061650Z 29011KT 10SM CLR 18/05 A3025 320 41 800 290/11 RMK AO2 SLP246 T01830050
14840KMKG MKG20000606115510906/06/00 11:55:31  5-MIN KMKG 061655Z 29008KT 10SM CLR 19/05 A3025 320 39 900 300/08 RMK AO2 SLP246 T01890050
14840KMKG MKG20000606120009206/06/00 12:00:31  5-MIN KMKG 061700Z 29011KT 10SM CLR 19/04 A3025 330 38 900 290/11 RMK AO2
14840KMKG MKG20000606120510206/06/00 12:05:31  5-MIN KMKG 061705Z AUTO 29011KT 10SM CLR 18/04 A3025 330 39 800 290/11 RMK AO2 TSNO
14840KMKG MKG20000606121010206/06/00 12:10:31  5-MIN KMKG 061710Z AUTO 27010KT 10SM CLR 18/04 A3025 330 39 800 280/10 RMK AO2 TSNO
14840KMKG MKG20000606121510206/06/00 12:15:31  5-MIN KMKG 061715Z AUTO 28011KT 10SM CLR 19/04 A3025 330 38 900 290/11 RMK AO2 TSNO
14840KMKG MKG20000606122010206/06/00 12:20:31  5-MIN KMKG 061720Z AUTO 28010KT 10SM CLR 19/04 A3025 330 38 900 290/10 RMK AO2 TSNO
14840KMKG MKG20000606122510206/06/00 12:25:31  5-MIN KMKG 061725Z AUTO 29011KT 10SM CLR 19/04 A3025 330 38 900 290/11 RMK AO2 TSNO
14840KMKG MKG20000606123009206/06/00 12:30:31  5-MIN KMKG 061730Z 27009KT 10SM CLR 19/04 A3025 330 36 900 280/09 RMK AO2
14840KMKG MKG20000606123509206/06/00 12:35:31  5-MIN KMKG 061735Z 27010KT 10SM CLR 19/03 A3025 330 35 900 270/10 RMK AO2
14840KMKG MKG20000606124009206/06/00 12:40:31  5-MIN KMKG 061740Z 28011KT 10SM CLR 19/03 A3025 330 35 900 290/11 RMK AO2
14840KMKG MKG20000606124509306/06/00 12:45:31  5-MIN KMKG 061745Z 29010KT 10SM CLR 19/03 A3025 330 33 1000 290/10 RMK AO2
14840KMKG MKG20000606125012706/06/00 12:50:31  5-MIN KMKG 061750Z 29008KT 10SM CLR 19/03 A3025 330 34 900 290/08 RMK AO2 SLP243 T01890028 10194 20128 51006
14840KMKG MKG20000606125512706/06/00 12:55:31  5-MIN KMKG 061755Z 31009KT 10SM CLR 19/02 A3024 330 32 900 310/09 RMK AO2 SLP242 T01890022 10194 20128 58002
14840KMKG MKG20000606130010906/06/00 13:00:31  5-MIN KMKG 061800Z 30008KT 250V320 10SM CLR 19/03 A3024 330 34 1000 300/08 250V320 RMK AO2
14840KMKG MKG20000606130509306/06/00 13:05:31  5-MIN KMKG 061805Z 25009KT 10SM CLR 20/03 A3024 340 33 1000 260/09 RMK AO2
14840KMKG MKG20000606131009306/06/00 13:10:31  5-MIN KMKG 061810Z 26010KT 10SM CLR 19/03 A3024 340 33 1000 260/10 RMK AO2
14840KMKG MKG20000606131509306/06/00 13:15:31  5-MIN KMKG 061815Z 26009KT 10SM CLR 19/03 A3024 340 33 1000 260/09 RMK AO2
14840KMKG MKG20000606132009306/06/00 13:20:31  5-MIN KMKG 061820Z 26009KT 10SM CLR 19/03 A3024 340 33 1000 260/09 RMK AO2
14840KMKG MKG20000606132509306/06/00 13:25:31  5-MIN KMKG 061825Z 27011KT 10SM CLR 19/03 A3024 340 34 1000 270/11 RMK AO2
14840KMKG MKG20000606133009306/06/00 13:30:31  5-MIN KMKG 061830Z 27011KT 10SM CLR 19/03 A3024 340 34 1000 270/11 RMK AO2
14840KMKG MKG20000606133509306/06/00 13:35:31  5-MIN KMKG 061835Z 27011KT 10SM CLR 19/03 A3024 340 34 1000 270/11 RMK AO2
14840KMKG MKG20000606134009206/06/00 13:40:31  5-MIN KMKG 061840Z 27010KT 10SM CLR 19/03 A3024 340 34 900 270/10 RMK AO2
14840KMKG MKG20000606134509306/06/00 13:45:31  5-MIN KMKG 061845Z 27010KT 10SM CLR 19/03 A3024 340 34 1000 280/10 RMK AO2
14840KMKG MKG20000606135011006/06/00 13:50:31  5-MIN KMKG 061850Z 27010KT 10SM CLR 19/03 A3024 340 33 1000 270/10 RMK AO2 SLP241 T01940028
14840KMKG MKG20000606135511006/06/00 13:55:31  5-MIN KMKG 061855Z 29010KT 10SM CLR 19/03 A3024 340 33 1000 290/10 RMK AO2 SLP241 T01940028
14840KMKG MKG20000606140009306/06/00 14:00:31  5-MIN KMKG 061900Z 28011KT 10SM CLR 19/03 A3024 340 33 1000 280/11 RMK AO2
14840KMKG MKG20000606140509306/06/00 14:05:31  5-MIN KMKG 061905Z 28010KT 10SM CLR 19/02 A3024 340 31 1000 280/10 RMK AO2
14840KMKG MKG20000606141009206/06/00 14:10:31  5-MIN KMKG 061910Z 28009KT 10SM CLR 19/02 A3024 340 31 900 280/09 RMK AO2
14840KMKG MKG20000606141509206/06/00 14:15:31  5-MIN KMKG 061915Z 28011KT 10SM CLR 19/02 A3024 340 31 900 290/11 RMK AO2
14840KMKG MKG20000606142009206/06/00 14:20:31  5-MIN KMKG 061920Z 27011KT 10SM CLR 19/02 A3024 340 32 900 270/11 RMK AO2
14840KMKG MKG20000606142509206/06/00 14:25:31  5-MIN KMKG 061925Z 27010KT 10SM CLR 19/02 A3024 340 32 900 270/10 RMK AO2
14840KMKG MKG20000606143009206/06/00 14:30:31  5-MIN KMKG 061930Z 27010KT 10SM CLR 19/02 A3023 340 32 900 280/10 RMK AO2
14840KMKG MKG20000606143509206/06/00 14:35:31  5-MIN KMKG 061935Z 26010KT 10SM CLR 19/02 A3023 340 32 900 270/10 RMK AO2
14840KMKG MKG20000606144009206/06/00 14:40:31  5-MIN KMKG 061940Z 27009KT 10SM CLR 19/02 A3023 340 32 900 270/09 RMK AO2
14840KMKG MKG20000606144509206/06/00 14:45:31  5-MIN KMKG 061945Z 28008KT 10SM CLR 19/03 A3023 340 34 900 280/08 RMK AO2
14840KMKG MKG20000606145010906/06/00 14:50:31  5-MIN KMKG 061950Z 27008KT 10SM CLR 19/03 A3023 340 35 900 280/08 RMK AO2 SLP239 T01890033
14840KMKG MKG20000606145510906/06/00 14:55:31  5-MIN KMKG 061955Z 27009KT 10SM CLR 19/03 A3023 340 34 900 270/09 RMK AO2 SLP239 T01890028
14840KMKG MKG20000606150009206/06/00 15:00:31  5-MIN KMKG 062000Z 27010KT 10SM CLR 19/02 A3023 340 32 900 270/10 RMK AO2
14840KMKG MKG20000606150509206/06/00 15:05:31  5-MIN KMKG 062005Z 28009KT 10SM CLR 19/02 A3023 340 32 900 280/09 RMK AO2
14840KMKG MKG20000606151009206/06/00 15:10:31  5-MIN KMKG 062010Z 26008KT 10SM CLR 19/02 A3023 340 32 900 260/08 RMK AO2
14840KMKG MKG20000606151509206/06/00 15:15:31  5-MIN KMKG 062015Z 27009KT 10SM CLR 19/02 A3023 350 32 900 280/09 RMK AO2
14840KMKG MKG20000606152009206/06/00 15:20:31  5-MIN KMKG 062020Z 27008KT 10SM CLR 19/03 A3023 350 34 900 280/08 RMK AO2
14840KMKG MKG20000606152509206/06/00 15:25:31  5-MIN KMKG 062025Z 27009KT 10SM CLR 19/03 A3023 350 34 900 270/09 RMK AO2
14840KMKG MKG20000606153009206/06/00 15:30:31  5-MIN KMKG 062030Z 28008KT 10SM CLR 19/03 A3023 350 35 900 280/08 RMK AO2
14840KMKG MKG20000606153509206/06/00 15:35:31  5-MIN KMKG 062035Z 28010KT 10SM CLR 19/04 A3023 350 36 900 280/10 RMK AO2
14840KMKG MKG20000606154009206/06/00 15:40:31  5-MIN KMKG 062040Z 27008KT 10SM CLR 19/03 A3023 350 35 900 280/08 RMK AO2
14840KMKG MKG20000606154509206/06/00 15:45:31  5-MIN KMKG 062045Z 27008KT 10SM CLR 19/04 A3023 350 36 900 270/08 RMK AO2
14840KMKG MKG20000606155011506/06/00 15:50:31  5-MIN KMKG 062050Z 25009KT 10SM CLR 18/04 A3023 340 38 900 250/09 RMK AO2 SLP240 T01830039 58002
14840KMKG MKG20000606155511506/06/00 15:55:31  5-MIN KMKG 062055Z 28007KT 10SM CLR 18/04 A3023 340 38 900 280/07 RMK AO2 SLP239 T01830039 56004
14840KMKG MKG20000606160009206/06/00 16:00:31  5-MIN KMKG 062100Z 25008KT 10SM CLR 19/05 A3023 340 39 900 260/08 RMK AO2
14840KMKG MKG20000606160509206/06/00 16:05:31  5-MIN KMKG 062105Z 26008KT 10SM CLR 18/04 A3023 340 39 900 270/08 RMK AO2
14840KMKG MKG20000606161009206/06/00 16:10:31  5-MIN KMKG 062110Z 25007KT 10SM CLR 18/05 A3023 340 41 900 260/07 RMK AO2
14840KMKG MKG20000606161509206/06/00 16:15:31  5-MIN KMKG 062115Z 26007KT 10SM CLR 18/05 A3023 340 42 800 270/07 RMK AO2
14840KMKG MKG20000606162009206/06/00 16:20:31  5-MIN KMKG 062120Z 26007KT 10SM CLR 19/06 A3023 340 43 900 260/07 RMK AO2
14840KMKG MKG20000606162509206/06/00 16:25:31  5-MIN KMKG 062125Z 26008KT 10SM CLR 18/06 A3023 340 44 900 260/08 RMK AO2
14840KMKG MKG20000606163009206/06/00 16:30:31  5-MIN KMKG 062130Z 25009KT 10SM CLR 18/06 A3023 350 46 800 260/09 RMK AO2
14840KMKG MKG20000606163509206/06/00 16:35:31  5-MIN KMKG 062135Z 25009KT 10SM CLR 17/06 A3023 350 46 700 250/09 RMK AO2
14840KMKG MKG20000606164009206/06/00 16:40:31  5-MIN KMKG 062140Z 25007KT 10SM CLR 18/06 A3023 350 46 800 250/07 RMK AO2
14840KMKG MKG20000606164509206/06/00 16:45:31  5-MIN KMKG 062145Z 25007KT 10SM CLR 18/06 A3022 350 46 800 260/07 RMK AO2
14840KMKG MKG20000606165010906/06/00 16:50:31  5-MIN KMKG 062150Z 26008KT 10SM CLR 18/06 A3022 350 46 800 260/08 RMK AO2 SLP236 T01780061
14840KMKG MKG20000606165510906/06/00 16:55:31  5-MIN KMKG 062155Z 27008KT 10SM CLR 17/06 A3022 350 46 700 270/08 RMK AO2 SLP236 T01720056
14840KMKG MKG20000606170009206/06/00 17:00:31  5-MIN KMKG 062200Z 26006KT 10SM CLR 18/07 A3022 350 48 800 270/06 RMK AO2
14840KMKG MKG20000606170509206/06/00 17:05:31  5-MIN KMKG 062205Z 26007KT 10SM CLR 17/06 A3022 350 47 700 260/07 RMK AO2
14840KMKG MKG20000606171009206/06/00 17:10:31  5-MIN KMKG 062210Z 26007KT 10SM CLR 17/06 A3022 350 47 700 270/07 RMK AO2
14840KMKG MKG20000606171509206/06/00 17:15:31  5-MIN KMKG 062215Z 25007KT 10SM CLR 17/06 A3022 350 46 700 260/07 RMK AO2
14840KMKG MKG20000606172009206/06/00 17:20:31  5-MIN KMKG 062220Z 25006KT 10SM CLR 17/06 A3022 350 47 700 250/06 RMK AO2
14840KMKG MKG20000606172509206/06/00 17:25:31  5-MIN KMKG 062225Z 26006KT 10SM CLR 18/06 A3022 360 46 800 260/06 RMK AO2
14840KMKG MKG20000606173009206/06/00 17:30:31  5-MIN KMKG 062230Z 23006KT 10SM CLR 17/06 A3022 360 47 700 230/06 RMK AO2
14840KMKG MKG20000606173509206/06/00 17:35:31  5-MIN KMKG 062235Z 23006KT 10SM CLR 18/06 A3022 360 46 800 240/06 RMK AO2
14840KMKG MKG20000606174009206/06/00 17:40:31  5-MIN KMKG 062240Z 25006KT 10SM CLR 18/06 A3022 360 46 800 250/06 RMK AO2
14840KMKG MKG20000606174509206/06/00 17:45:31  5-MIN KMKG 062245Z 24007KT 10SM CLR 18/07 A3022 360 48 800 250/07 RMK AO2
14840KMKG MKG20000606175010906/06/00 17:50:31  5-MIN KMKG 062250Z 26007KT 10SM CLR 17/07 A3022 360 49 700 260/07 RMK AO2 SLP235 T01720067
14840KMKG MKG20000606175510906/06/00 17:55:31  5-MIN KMKG 062255Z 24007KT 10SM CLR 17/07 A3022 360 49 700 240/07 RMK AO2 SLP235 T01720067
14840KMKG MKG20000606180009206/06/00 18:00:31  5-MIN KMKG 062300Z 24007KT 10SM CLR 17/07 A3022 360 51 700 250/07 RMK AO2
14840KMKG MKG20000606180509206/06/00 18:05:31  5-MIN KMKG 062305Z 25007KT 10SM CLR 17/07 A3021 360 51 700 260/07 RMK AO2
14840KMKG MKG20000606181009206/06/00 18:10:31  5-MIN KMKG 062310Z 25006KT 10SM CLR 17/07 A3021 360 51 700 260/06 RMK AO2
14840KMKG MKG20000606181509206/06/00 18:15:31  5-MIN KMKG 062315Z 26007KT 10SM CLR 17/07 A3021 360 53 700 260/07 RMK AO2
14840KMKG MKG20000606182009206/06/00 18:20:31  5-MIN KMKG 062320Z 26007KT 10SM CLR 17/08 A3021 360 55 700 260/07 RMK AO2
14840KMKG MKG20000606182509206/06/00 18:25:31  5-MIN KMKG 062325Z 25009KT 10SM CLR 17/08 A3022 360 55 700 260/09 RMK AO2
14840KMKG MKG20000606183009206/06/00 18:30:31  5-MIN KMKG 062330Z 25008KT 10SM CLR 16/08 A3021 360 57 600 250/08 RMK AO2
14840KMKG MKG20000606183509206/06/00 18:35:31  5-MIN KMKG 062335Z 25007KT 10SM CLR 16/08 A3021 360 59 600 250/07 RMK AO2
14840KMKG MKG20000606184009206/06/00 18:40:31  5-MIN KMKG 062340Z 25007KT 10SM CLR 16/08 A3021 360 62 600 260/07 RMK AO2
14840KMKG MKG20000606184509206/06/00 18:45:31  5-MIN KMKG 062345Z 25007KT 10SM CLR 16/08 A3021 360 62 500 250/07 RMK AO2
14840KMKG MKG20000606185012706/06/00 18:50:31  5-MIN KMKG 062350Z 25005KT 10SM CLR 16/08 A3021 360 62 500 260/05 RMK AO2 SLP233 T01560083 10200 20156 56004
14840KMKG MKG20000606185512706/06/00 18:55:31  5-MIN KMKG 062355Z 25005KT 10SM CLR 16/08 A3021 360 62 600 260/05 RMK AO2 SLP232 T01560083 10200 20156 56006
14840KMKG MKG20000606190009206/06/00 19:00:31  5-MIN KMKG 070000Z 25004KT 10SM CLR 16/08 A3021 360 62 600 250/04 RMK AO2
14840KMKG MKG20000606190509206/06/00 19:05:31  5-MIN KMKG 070005Z 24005KT 10SM CLR 15/08 A3021 360 64 500 240/05 RMK AO2
14840KMKG MKG20000606191009206/06/00 19:10:31  5-MIN KMKG 070010Z 24005KT 10SM CLR 15/08 A3021 360 64 500 250/05 RMK AO2
14840KMKG MKG20000606191509206/06/00 19:15:31  5-MIN KMKG 070015Z 24004KT 10SM CLR 15/08 A3021 360 64 500 240/04 RMK AO2
14840KMKG MKG20000606192009206/06/00 19:20:31  5-MIN KMKG 070020Z 23006KT 10SM CLR 15/08 A3021 370 64 500 240/06 RMK AO2
14840KMKG MKG20000606192509206/06/00 19:25:31  5-MIN KMKG 070025Z 24006KT 10SM CLR 15/08 A3021 370 64 500 250/06 RMK AO2
14840KMKG MKG20000606193009206/06/00 19:30:31  5-MIN KMKG 070030Z 24005KT 10SM CLR 14/08 A3021 360 66 400 240/05 RMK AO2
14840KMKG MKG20000606193509206/06/00 19:35:31  5-MIN KMKG 070035Z 24004KT 10SM CLR 14/09 A3021 360 69 400 240/04 RMK AO2
14840KMKG MKG20000606194009206/06/00 19:40:31  5-MIN KMKG 070040Z 25005KT 10SM CLR 14/09 A3021 360 69 400 260/05 RMK AO2
14840KMKG MKG20000606194509206/06/00 19:45:31  5-MIN KMKG 070045Z 24004KT 10SM CLR 14/09 A3021 360 69 400 250/04 RMK AO2
14840KMKG MKG20000606195010906/06/00 19:50:31  5-MIN KMKG 070050Z 25003KT 10SM CLR 14/09 A3021 360 71 400 250/03 RMK AO2 SLP232 T01390089
14840KMKG MKG20000606195510906/06/00 19:55:31  5-MIN KMKG 070055Z 24003KT 10SM CLR 13/09 A3021 360 74 300 240/03 RMK AO2 SLP232 T01330089
14840KMKG MKG20000606200009206/06/00 20:00:31  5-MIN KMKG 070100Z 25004KT 10SM CLR 14/09 A3021 360 71 400 250/04 RMK AO2
14840KMKG MKG20000606200509206/06/00 20:05:31  5-MIN KMKG 070105Z 25005KT 10SM CLR 13/09 A3021 360 74 300 260/05 RMK AO2
14840KMKG MKG20000606201009206/06/00 20:10:31  5-MIN KMKG 070110Z 24003KT 10SM CLR 13/09 A3021 360 74 300 250/03 RMK AO2
14840KMKG MKG20000606201509206/06/00 20:15:31  5-MIN KMKG 070115Z 25003KT 10SM CLR 13/09 A3021 360 74 300 250/03 RMK AO2
14840KMKG MKG20000606202009206/06/00 20:20:31  5-MIN KMKG 070120Z 00000KT 10SM CLR 13/09 A3021 360 74 300 000/00 RMK AO2
14840KMKG MKG20000606202509206/06/00 20:25:31  5-MIN KMKG 070125Z 00000KT 10SM CLR 13/09 A3021 360 77 200 000/00 RMK AO2
14840KMKG MKG20000606203009206/06/00 20:30:31  5-MIN KMKG 070130Z 00000KT 10SM CLR 13/09 A3021 360 74 300 000/00 RMK AO2
14840KMKG MKG20000606203509206/06/00 20:35:31  5-MIN KMKG 070135Z 00000KT 10SM CLR 13/09 A3021 360 77 200 000/00 RMK AO2
14840KMKG MKG20000606204009206/06/00 20:40:31  5-MIN KMKG 070140Z 00000KT 10SM CLR 13/09 A3021 360 77 200 000/00 RMK AO2
14840KMKG MKG20000606204509206/06/00 20:45:31  5-MIN KMKG 070145Z 00000KT 10SM CLR 13/09 A3021 360 77 200 000/00 RMK AO2
14840KMKG MKG20000606205010906/06/00 20:50:31  5-MIN KMKG 070150Z 00000KT 10SM CLR 12/09 A3021 360 80 200 000/00 RMK AO2 SLP230 T01220089
14840KMKG MKG20000606205510906/06/00 20:55:31  5-MIN KMKG 070155Z 00000KT 10SM CLR 12/09 A3021 360 83 200 000/00 RMK AO2 SLP230 T01220094
14840KMKG MKG20000606210009206/06/00 21:00:31  5-MIN KMKG 070200Z 00000KT 10SM CLR 13/09 A3021 360 80 200 000/00 RMK AO2
14840KMKG MKG20000606210509206/06/00 21:05:31  5-MIN KMKG 070205Z 00000KT 10SM CLR 13/09 A3021 360 80 200 000/00 RMK AO2
14840KMKG MKG20000606211009206/06/00 21:10:31  5-MIN KMKG 070210Z 00000KT 10SM CLR 12/09 A3021 360 83 200 000/00 RMK AO2
14840KMKG MKG20000606211509206/06/00 21:15:31  5-MIN KMKG 070215Z 00000KT 10SM CLR 12/09 A3021 360 83 200 000/00 RMK AO2
14840KMKG MKG20000606212009206/06/00 21:20:31  5-MIN KMKG 070220Z 00000KT 10SM CLR 12/09 A3021 360 83 200 000/00 RMK AO2
14840KMKG MKG20000606212509206/06/00 21:25:31  5-MIN KMKG 070225Z 00000KT 10SM CLR 12/09 A3022 360 86 100 000/00 RMK AO2
14840KMKG MKG20000606213009206/06/00 21:30:31  5-MIN KMKG 070230Z 00000KT 10SM CLR 12/09 A3022 360 86 100 000/00 RMK AO2
14840KMKG MKG20000606213509206/06/00 21:35:31  5-MIN KMKG 070235Z 00000KT 10SM CLR 12/09 A3022 360 86 100 000/00 RMK AO2
14840KMKG MKG20000606214009006/06/00 21:40:31  5-MIN KMKG 070240Z 00000KT 10SM CLR 11/09 A3022 350 89 0 000/00 RMK AO2
14840KMKG MKG20000606214509006/06/00 21:45:31  5-MIN KMKG 070245Z 00000KT 10SM CLR 11/09 A3022 350 89 0 000/00 RMK AO2
14840KMKG MKG20000606215011306/06/00 21:50:31  5-MIN KMKG 070250Z 00000KT 10SM CLR 11/09 A3022 350 89 0 000/00 RMK AO2 SLP233 T01110094 56006
14840KMKG MKG20000606215511306/06/00 21:55:31  5-MIN KMKG 070255Z 00000KT 10SM CLR 11/09 A3022 350 89 0 000/00 RMK AO2 SLP234 T01110094 53003
14840KMKG MKG20000606220009006/06/00 22:00:31  5-MIN KMKG 070300Z 00000KT 10SM CLR 11/09 A3022 350 89 0 000/00 RMK AO2
14840KMKG MKG20000606220509006/06/00 22:05:31  5-MIN KMKG 070305Z 00000KT 10SM CLR 11/09 A3022 350 89 0 000/00 RMK AO2
14840KMKG MKG20000606221009006/06/00 22:10:31  5-MIN KMKG 070310Z 00000KT 10SM CLR 11/09 A3022 350 89 0 000/00 RMK AO2
14840KMKG MKG20000606221509006/06/00 22:15:31  5-MIN KMKG 070315Z 00000KT 10SM CLR 11/09 A3022 350 89 0 000/00 RMK AO2
14840KMKG MKG20000606222009006/06/00 22:20:31  5-MIN KMKG 070320Z 00000KT 10SM CLR 11/09 A3022 360 89 0 000/00 RMK AO2
14840KMKG MKG20000606222509006/06/00 22:25:31  5-MIN KMKG 070325Z 00000KT 10SM CLR 11/09 A3022 350 93 0 000/00 RMK AO2
14840KMKG MKG20000606223009006/06/00 22:30:31  5-MIN KMKG 070330Z 00000KT 10SM CLR 11/09 A3022 350 93 0 000/00 RMK AO2
14840KMKG MKG20000606223509006/06/00 22:35:31  5-MIN KMKG 070335Z 00000KT 10SM CLR 11/09 A3022 350 89 0 000/00 RMK AO2
14840KMKG MKG20000606224009006/06/00 22:40:31  5-MIN KMKG 070340Z 00000KT 10SM CLR 11/09 A3022 350 89 0 000/00 RMK AO2
14840KMKG MKG20000606224509006/06/00 22:45:31  5-MIN KMKG 070345Z 00000KT 10SM CLR 11/09 A3022 350 89 0 000/00 RMK AO2
14840KMKG MKG20000606225010706/06/00 22:50:31  5-MIN KMKG 070350Z 00000KT 10SM CLR 11/09 A3022 350 89 0 000/00 RMK AO2 SLP235 T01060089
14840KMKG MKG20000606225510706/06/00 22:55:31  5-MIN KMKG 070355Z 00000KT 10SM CLR 11/09 A3022 350 89 0 000/00 RMK AO2 SLP234 T01060089
14840KMKG MKG20000606230009306/06/00 23:00:31  5-MIN KMKG 070400Z 00000KT 10SM CLR 10/09 A3022 350 93 -100 000/00 RMK AO2
14840KMKG MKG20000606230509306/06/00 23:05:31  5-MIN KMKG 070405Z 00000KT 10SM CLR 10/09 A3023 350 93 -100 000/00 RMK AO2
14840KMKG MKG20000606231009306/06/00 23:10:31  5-MIN KMKG 070410Z 00000KT 10SM CLR 10/09 A3023 350 93 -100 000/00 RMK AO2
14840KMKG MKG20000606231509306/06/00 23:15:31  5-MIN KMKG 070415Z 00000KT 10SM CLR 10/09 A3023 350 93 -100 000/00 RMK AO2
14840KMKG MKG20000606232009006/06/00 23:20:31  5-MIN KMKG 070420Z 00000KT 10SM CLR 11/09 A3023 350 93 0 000/00 RMK AO2
14840KMKG MKG20000606232509006/06/00 23:25:31  5-MIN KMKG 070425Z 00000KT 10SM CLR 11/09 A3023 340 89 0 000/00 RMK AO2
14840KMKG MKG20000606233009306/06/00 23:30:31  5-MIN KMKG 070430Z 00000KT 10SM CLR 10/09 A3023 340 93 -100 000/00 RMK AO2
14840KMKG MKG20000606233509306/06/00 23:35:31  5-MIN KMKG 070435Z 00000KT 10SM CLR 10/09 A3023 340 93 -100 000/00 RMK AO2
14840KMKG MKG20000606234009306/06/00 23:40:31  5-MIN KMKG 070440Z 00000KT 10SM CLR 10/09 A3023 340 93 -100 000/00 RMK AO2
14840KMKG MKG20000606234509306/06/00 23:45:31  5-MIN KMKG 070445Z 00000KT 10SM CLR 10/09 A3023 340 93 -100 000/00 RMK AO2
14840KMKG MKG20000606235012006/06/00 23:50:31  5-MIN KMKG 070450Z 00000KT 10SM CLR 10/09 A3023 340 93 -100 000/00 RMK AO2 SLP238 T01000089 402000056
14840KMKG MKG20000606235511706/06/00 23:55:31  5-MIN KMKG 070455Z 00000KT 10SM CLR 11/09 A3023 340 89 0 000/00 RMK AO2 SLP238 T01060089 402000056
14840KMKG MKG20000607000009306/07/00 00:00:31  5-MIN KMKG 070500Z 00000KT 10SM CLR 10/09 A3023 340 96 -100 000/00 RMK AO2
14840KMKG MKG20000607000509406/07/00 00:05:31  5-MIN KMKG 070505Z 00000KT 10SM CLR 09/09 A3023 340 100 -200 000/00 RMK AO2
14840KMKG MKG20000607001009306/07/00 00:10:31  5-MIN KMKG 070510Z 00000KT 10SM CLR 09/08 A3023 340 89 -200 000/00 RMK AO2
14840KMKG MKG20000607001509306/07/00 00:15:31  5-MIN KMKG 070515Z 00000KT 10SM CLR 09/08 A3023 340 93 -200 000/00 RMK AO2
14840KMKG MKG20000607002009306/07/00 00:20:31  5-MIN KMKG 070520Z 00000KT 10SM CLR 10/08 A3023 340 89 -100 000/00 RMK AO2
14840KMKG MKG20000607002509306/07/00 00:25:31  5-MIN KMKG 070525Z 00000KT 10SM CLR 10/08 A3023 340 89 -100 000/00 RMK AO2
14840KMKG MKG20000607003009306/07/00 00:30:31  5-MIN KMKG 070530Z 00000KT 10SM CLR 10/08 A3023 340 89 -100 000/00 RMK AO2
14840KMKG MKG20000607003509306/07/00 00:35:31  5-MIN KMKG 070535Z 00000KT 10SM CLR 10/09 A3023 340 93 -100 000/00 RMK AO2
14840KMKG MKG20000607004009306/07/00 00:40:31  5-MIN KMKG 070540Z 00000KT 10SM CLR 10/09 A3023 350 93 -100 000/00 RMK AO2
14840KMKG MKG20000607004509306/07/00 00:45:31  5-MIN KMKG 070545Z 00000KT 10SM CLR 10/09 A3023 350 93 -100 000/00 RMK AO2
14840KMKG MKG20000607005012806/07/00 00:50:31  5-MIN KMKG 070550Z 00000KT 10SM CLR 10/09 A3023 350 93 -100 000/00 RMK AO2 SLP237 T01000089 10156 20094 53003
14840KMKG MKG20000607005512806/07/00 00:55:31  5-MIN KMKG 070555Z 00000KT 10SM CLR 10/09 A3023 350 93 -100 000/00 RMK AO2 SLP237 T01000089 10156 20094 50003
14840KMKG MKG20000607010009306/07/00 01:00:31  5-MIN KMKG 070600Z 00000KT 10SM CLR 10/09 A3023 350 93 -100 000/00 RMK AO2
14840KMKG MKG20000607010509306/07/00 01:05:31  5-MIN KMKG 070605Z 00000KT 10SM CLR 09/08 A3023 350 93 -100 000/00 RMK AO2
14840KMKG MKG20000607011009306/07/00 01:10:31  5-MIN KMKG 070610Z 00000KT 10SM CLR 09/08 A3023 350 93 -100 000/00 RMK AO2
14840KMKG MKG20000607011509306/07/00 01:15:31  5-MIN KMKG 070615Z 00000KT 10SM CLR 09/09 A3023 350 96 -100 000/00 RMK AO2
14840KMKG MKG20000607012009306/07/00 01:20:31  5-MIN KMKG 070620Z 00000KT 10SM CLR 09/09 A3023 350 96 -100 000/00 RMK AO2
14840KMKG MKG20000607012509306/07/00 01:25:31  5-MIN KMKG 070625Z 00000KT 10SM CLR 09/08 A3023 350 93 -100 000/00 RMK AO2
14840KMKG MKG20000607013009306/07/00 01:30:31  5-MIN KMKG 070630Z 00000KT 10SM CLR 09/08 A3023 350 93 -100 000/00 RMK AO2
14840KMKG MKG20000607013509306/07/00 01:35:31  5-MIN KMKG 070635Z 00000KT 10SM CLR 09/08 A3023 350 93 -100 000/00 RMK AO2
14840KMKG MKG20000607014009306/07/00 01:40:31  5-MIN KMKG 070640Z 00000KT 10SM CLR 09/08 A3023 350 93 -200 000/00 RMK AO2
14840KMKG MKG20000607014509306/07/00 01:45:31  5-MIN KMKG 070645Z 00000KT 10SM CLR 09/08 A3023 350 96 -200 000/00 RMK AO2
14840KMKG MKG20000607015011006/07/00 01:50:31  5-MIN KMKG 070650Z 00000KT 10SM CLR 09/08 A3023 350 96 -200 000/00 RMK AO2 SLP236 T00890083
14840KMKG MKG20000607015511006/07/00 01:55:31  5-MIN KMKG 070655Z 00000KT 10SM CLR 09/08 A3022 350 96 -200 000/00 RMK AO2 SLP236 T00890083
14840KMKG MKG20000607020009306/07/00 02:00:31  5-MIN KMKG 070700Z 00000KT 10SM CLR 09/08 A3022 350 93 -100 000/00 RMK AO2
14840KMKG MKG20000607020509306/07/00 02:05:31  5-MIN KMKG 070705Z 00000KT 10SM CLR 09/08 A3022 350 93 -200 000/00 RMK AO2
14840KMKG MKG20000607021009306/07/00 02:10:31  5-MIN KMKG 070710Z 00000KT 10SM CLR 08/08 A3022 350 96 -300 000/00 RMK AO2
14840KMKG MKG20000607021509306/07/00 02:15:31  5-MIN KMKG 070715Z 00000KT 10SM CLR 09/08 A3022 350 93 -200 000/00 RMK AO2
14840KMKG MKG20000607022009306/07/00 02:20:31  5-MIN KMKG 070720Z 00000KT 10SM CLR 08/07 A3022 350 93 -300 000/00 RMK AO2
14840KMKG MKG20000607022509306/07/00 02:25:31  5-MIN KMKG 070725Z 00000KT 10SM CLR 09/08 A3022 350 93 -200 000/00 RMK AO2
14840KMKG MKG20000607023009306/07/00 02:30:31  5-MIN KMKG 070730Z 00000KT 10SM CLR 08/08 A3022 350 96 -300 000/00 RMK AO2
14840KMKG MKG20000607023509306/07/00 02:35:31  5-MIN KMKG 070735Z 00000KT 10SM CLR 09/07 A3022 350 89 -200 000/00 RMK AO2
14840KMKG MKG20000607024009306/07/00 02:40:31  5-MIN KMKG 070740Z 00000KT 10SM CLR 09/08 A3022 350 93 -200 000/00 RMK AO2
14840KMKG MKG20000607024509306/07/00 02:45:31  5-MIN KMKG 070745Z 00000KT 10SM CLR 09/08 A3022 350 93 -200 000/00 RMK AO2
14840KMKG MKG20000607025011006/07/00 02:50:31  5-MIN KMKG 070750Z 00000KT 10SM CLR 09/08 A3022 350 93 -200 000/00 RMK AO2 SLP235 T00890078
14840KMKG MKG20000607025511006/07/00 02:55:31  5-MIN KMKG 070755Z 00000KT 10SM CLR 09/08 A3022 350 93 -200 000/00 RMK AO2 SLP235 T00890078
14840KMKG MKG20000607030009306/07/00 03:00:31  5-MIN KMKG 070800Z 00000KT 10SM CLR 09/08 A3022 350 93 -200 000/00 RMK AO2
14840KMKG MKG20000607030509306/07/00 03:05:31  5-MIN KMKG 070805Z 00000KT 10SM CLR 08/07 A3022 350 93 -300 000/00 RMK AO2
14840KMKG MKG20000607031009306/07/00 03:10:31  5-MIN KMKG 070810Z 00000KT 10SM CLR 08/07 A3022 350 93 -300 000/00 RMK AO2
14840KMKG MKG20000607031509306/07/00 03:15:31  5-MIN KMKG 070815Z 00000KT 10SM CLR 08/07 A3022 350 93 -300 000/00 RMK AO2
14840KMKG MKG20000607032009306/07/00 03:20:31  5-MIN KMKG 070820Z 00000KT 10SM CLR 08/07 A3022 350 96 -300 000/00 RMK AO2
14840KMKG MKG20000607032509306/07/00 03:25:31  5-MIN KMKG 070825Z 00000KT 10SM CLR 08/07 A3022 350 96 -300 000/00 RMK AO2
14840KMKG MKG20000607033009306/07/00 03:30:31  5-MIN KMKG 070830Z 00000KT 10SM CLR 08/07 A3022 350 93 -300 000/00 RMK AO2
14840KMKG MKG20000607033509306/07/00 03:35:31  5-MIN KMKG 070835Z 00000KT 10SM CLR 08/07 A3022 350 93 -300 000/00 RMK AO2
14840KMKG MKG20000607034009306/07/00 03:40:31  5-MIN KMKG 070840Z 00000KT 10SM CLR 08/07 A3022 350 93 -300 000/00 RMK AO2
14840KMKG MKG20000607034509306/07/00 03:45:31  5-MIN KMKG 070845Z 00000KT 10SM CLR 08/07 A3022 350 93 -300 000/00 RMK AO2
14840KMKG MKG20000607035011606/07/00 03:50:31  5-MIN KMKG 070850Z 00000KT 10SM CLR 08/07 A3022 350 96 -300 000/00 RMK AO2 SLP235 T00780072 50003
14840KMKG MKG20000607035511606/07/00 03:55:31  5-MIN KMKG 070855Z 00000KT 10SM CLR 08/07 A3022 350 96 -300 000/00 RMK AO2 SLP234 T00780072 56003
14840KMKG MKG20000607040009306/07/00 04:00:31  5-MIN KMKG 070900Z 00000KT 10SM CLR 08/07 A3022 350 96 -300 000/00 RMK AO2
14840KMKG MKG20000607040509306/07/00 04:05:31  5-MIN KMKG 070905Z 00000KT 10SM CLR 08/07 A3022 350 96 -300 000/00 RMK AO2
14840KMKG MKG20000607041009306/07/00 04:10:31  5-MIN KMKG 070910Z 00000KT 10SM CLR 08/07 A3022 350 96 -300 000/00 RMK AO2
14840KMKG MKG20000607041509306/07/00 04:15:31  5-MIN KMKG 070915Z 00000KT 10SM CLR 08/07 A3022 350 93 -300 000/00 RMK AO2
14840KMKG MKG20000607042009306/07/00 04:20:31  5-MIN KMKG 070920Z 00000KT 10SM CLR 08/07 A3022 350 93 -300 000/00 RMK AO2
14840KMKG MKG20000607042509306/07/00 04:25:31  5-MIN KMKG 070925Z 00000KT 10SM CLR 08/07 A3022 350 93 -300 000/00 RMK AO2
14840KMKG MKG20000607043009306/07/00 04:30:31  5-MIN KMKG 070930Z 00000KT 10SM CLR 08/07 A3023 350 93 -300 000/00 RMK AO2
14840KMKG MKG20000607043509306/07/00 04:35:31  5-MIN KMKG 070935Z 00000KT 10SM CLR 09/07 A3023 340 89 -200 000/00 RMK AO2
14840KMKG MKG20000607044009306/07/00 04:40:31  5-MIN KMKG 070940Z 00000KT 10SM CLR 09/08 A3023 340 93 -200 000/00 RMK AO2
14840KMKG MKG20000607044509306/07/00 04:45:31  5-MIN KMKG 070945Z 00000KT 10SM CLR 08/07 A3023 340 93 -300 000/00 RMK AO2
14840KMKG MKG20000607045011006/07/00 04:50:31  5-MIN KMKG 070950Z 00000KT 10SM CLR 08/07 A3024 340 93 -300 000/00 RMK AO2 SLP240 T00830072
14840KMKG MKG20000607045511006/07/00 04:55:31  5-MIN KMKG 070955Z 00000KT 10SM CLR 08/07 A3024 340 93 -300 000/00 RMK AO2 SLP241 T00830072
14840KMKG MKG20000607050009306/07/00 05:00:31  5-MIN KMKG 071000Z 00000KT 10SM CLR 08/07 A3024 340 93 -300 000/00 RMK AO2
14840KMKG MKG20000607050509306/07/00 05:05:31  5-MIN KMKG 071005Z 00000KT 10SM CLR 08/07 A3024 340 93 -300 000/00 RMK AO2
14840KMKG MKG20000607051009306/07/00 05:10:31  5-MIN KMKG 071010Z 14003KT 10SM CLR 08/07 A3023 340 93 -400 140/03 RMK AO2
14840KMKG MKG20000607051509306/07/00 05:15:31  5-MIN KMKG 071015Z 00000KT 10SM CLR 08/07 A3023 340 93 -400 000/00 RMK AO2
14840KMKG MKG20000607052009306/07/00 05:20:31  5-MIN KMKG 071020Z 00000KT 10SM CLR 08/07 A3024 340 93 -400 000/00 RMK AO2
14840KMKG MKG20000607052509306/07/00 05:25:31  5-MIN KMKG 071025Z 00000KT 10SM CLR 08/07 A3024 340 93 -400 000/00 RMK AO2
14840KMKG MKG20000607053009306/07/00 05:30:31  5-MIN KMKG 071030Z 12003KT 10SM CLR 08/07 A3024 340 93 -400 120/03 RMK AO2
14840KMKG MKG20000607053509306/07/00 05:35:31  5-MIN KMKG 071035Z 13003KT 10SM CLR 08/07 A3024 340 93 -400 130/03 RMK AO2
14840KMKG MKG20000607054009306/07/00 05:40:31  5-MIN KMKG 071040Z 12003KT 10SM CLR 08/07 A3024 330 96 -400 120/03 RMK AO2
14840KMKG MKG20000607054509306/07/00 05:45:31  5-MIN KMKG 071045Z 12004KT 10SM CLR 08/07 A3024 330 96 -400 120/04 RMK AO2
14840KMKG MKG20000607055011006/07/00 05:50:31  5-MIN KMKG 071050Z 13003KT 10SM CLR 08/07 A3024 330 93 -300 130/03 RMK AO2 SLP244 T00830072
14840KMKG MKG20000607055511006/07/00 05:55:31  5-MIN KMKG 071055Z 12003KT 10SM CLR 08/08 A3024 330 96 -300 120/03 RMK AO2 SLP244 T00830078
14840KMKG MKG20000607060009306/07/00 06:00:31  5-MIN KMKG 071100Z 12003KT 10SM CLR 09/08 A3024 330 96 -200 120/03 RMK AO2
14840KMKG MKG20000607060509306/07/00 06:05:31  5-MIN KMKG 071105Z 12003KT 10SM CLR 09/08 A3024 330 93 -200 120/03 RMK AO2
14840KMKG MKG20000607061009306/07/00 06:10:31  5-MIN KMKG 071110Z 12004KT 10SM CLR 10/08 A3024 330 89 -100 120/04 RMK AO2
14840KMKG MKG20000607061509306/07/00 06:15:31  5-MIN KMKG 071115Z 13003KT 10SM CLR 10/09 A3024 330 93 -100 130/03 RMK AO2
14840KMKG MKG20000607062009306/07/00 06:20:31  5-MIN KMKG 071120Z 00000KT 10SM CLR 10/09 A3025 330 93 -100 000/00 RMK AO2
14840KMKG MKG20000607062509006/07/00 06:25:31  5-MIN KMKG 071125Z 00000KT 10SM CLR 11/09 A3025 330 93 0 000/00 RMK AO2
14840KMKG MKG20000607063009006/07/00 06:30:31  5-MIN KMKG 071130Z 00000KT 10SM CLR 11/09 A3025 330 93 0 000/00 RMK AO2
14840KMKG MKG20000607063509006/07/00 06:35:31  5-MIN KMKG 071135Z 00000KT 10SM CLR 11/09 A3025 330 89 0 000/00 RMK AO2
14840KMKG MKG20000607064009206/07/00 06:40:31  5-MIN KMKG 071140Z 00000KT 10SM CLR 12/09 A3025 330 86 100 000/00 RMK AO2
14840KMKG MKG20000607064509006/07/00 06:45:31  5-MIN KMKG 071145Z 00000KT 10SM CLR 12/10 A3025 330 89 0 000/00 RMK AO2
14840KMKG MKG20000607065012706/07/00 06:50:31  5-MIN KMKG 071150Z 00000KT 10SM CLR 13/10 A3025 330 83 200 000/00 RMK AO2 SLP244 T01280100 10128 20072 56003
14840KMKG MKG20000607065512706/07/00 06:55:31  5-MIN KMKG 071155Z 00000KT 10SM CLR 13/10 A3025 330 80 200 000/00 RMK AO2 SLP243 T01330100 10133 20072 51009
14840KMKG MKG20000607070009206/07/00 07:00:31  5-MIN KMKG 071200Z 00000KT 10SM CLR 14/10 A3025 330 77 300 000/00 RMK AO2
14840KMKG MKG20000607070509206/07/00 07:05:31  5-MIN KMKG 071205Z 00000KT 10SM CLR 14/10 A3025 330 74 400 000/00 RMK AO2
14840KMKG MKG20000607071009206/07/00 07:10:31  5-MIN KMKG 071210Z 00000KT 10SM CLR 14/09 A3025 330 72 400 000/00 RMK AO2
14840KMKG MKG20000607071509206/07/00 07:15:31  5-MIN KMKG 071215Z 00000KT 10SM CLR 15/09 A3024 330 69 400 000/00 RMK AO2
14840KMKG MKG20000607072009206/07/00 07:20:31  5-MIN KMKG 071220Z 21003KT 10SM CLR 16/09 A3024 330 67 500 210/03 RMK AO2
14840KMKG MKG20000607072509206/07/00 07:25:31  5-MIN KMKG 071225Z 00000KT 10SM CLR 16/09 A3024 330 64 500 000/00 RMK AO2
14840KMKG MKG20000607073009206/07/00 07:30:31  5-MIN KMKG 071230Z 22003KT 10SM CLR 16/09 A3025 330 62 600 230/03 RMK AO2
14840KMKG MKG20000607073509206/07/00 07:35:31  5-MIN KMKG 071235Z 22003KT 10SM CLR 16/08 A3024 330 59 600 220/03 RMK AO2
14840KMKG MKG20000607074009206/07/00 07:40:31  5-MIN KMKG 071240Z 22004KT 10SM CLR 17/09 A3024 330 60 600 220/04 RMK AO2
14840KMKG MKG20000607074509206/07/00 07:45:31  5-MIN KMKG 071245Z 22005KT 10SM CLR 17/08 A3024 330 57 600 220/05 RMK AO2
14840KMKG MKG20000607075010906/07/00 07:50:31  5-MIN KMKG 071250Z 23006KT 10SM CLR 17/08 A3024 330 53 700 240/06 RMK AO2 SLP241 T01720078
14840KMKG MKG20000607075510906/07/00 07:55:31  5-MIN KMKG 071255Z 23004KT 10SM CLR 17/08 A3024 340 53 700 230/04 RMK AO2 SLP240 T01720078
14840KMKG MKG20000607080009206/07/00 08:00:31  5-MIN KMKG 071300Z 23006KT 10SM CLR 17/08 A3024 330 53 700 230/06 RMK AO2
14840KMKG MKG20000607080509206/07/00 08:05:31  5-MIN KMKG 071305Z 23007KT 10SM CLR 18/08 A3024 330 51 800 230/07 RMK AO2
14840KMKG MKG20000607081009206/07/00 08:10:31  5-MIN KMKG 071310Z 22006KT 10SM CLR 18/07 A3024 330 49 800 230/06 RMK AO2
14840KMKG MKG20000607081509206/07/00 08:15:31  5-MIN KMKG 071315Z 23007KT 10SM CLR 18/07 A3024 330 48 800 230/07 RMK AO2
14840KMKG MKG20000607082009206/07/00 08:20:31  5-MIN KMKG 071320Z 23007KT 10SM CLR 18/07 A3024 330 49 800 230/07 RMK AO2
14840KMKG MKG20000607082509206/07/00 08:25:31  5-MIN KMKG 071325Z 24008KT 10SM CLR 18/07 A3024 330 49 800 240/08 RMK AO2
14840KMKG MKG20000607083009206/07/00 08:30:31  5-MIN KMKG 071330Z 24007KT 10SM CLR 18/07 A3024 330 48 800 240/07 RMK AO2
14840KMKG MKG20000607083509206/07/00 08:35:31  5-MIN KMKG 071335Z 23005KT 10SM CLR 18/07 A3024 340 46 800 230/05 RMK AO2
14840KMKG MKG20000607084009206/07/00 08:40:31  5-MIN KMKG 071340Z 21007KT 10SM CLR 18/07 A3024 340 48 800 220/07 RMK AO2
14840KMKG MKG20000607084509206/07/00 08:45:31  5-MIN KMKG 071345Z 22008KT 10SM CLR 18/07 A3024 340 46 800 220/08 RMK AO2
14840KMKG MKG20000607085010906/07/00 08:50:31  5-MIN KMKG 071350Z 22008KT 10SM CLR 19/07 A3024 340 44 900 220/08 RMK AO2 SLP239 T01890067
14840KMKG MKG20000607085510906/07/00 08:55:31  5-MIN KMKG 071355Z 22008KT 10SM CLR 19/07 A3024 340 44 900 230/08 RMK AO2 SLP240 T01890067
14840KMKG MKG20000607090009206/07/00 09:00:31  5-MIN KMKG 071400Z 22008KT 10SM CLR 19/06 A3024 340 43 900 230/08 RMK AO2
14840KMKG MKG20000607090509206/07/00 09:05:31  5-MIN KMKG 071405Z 22008KT 10SM CLR 19/07 A3024 340 44 900 230/08 RMK AO2
14840KMKG MKG20000607091009206/07/00 09:10:31  5-MIN KMKG 071410Z 22008KT 10SM CLR 19/06 A3024 340 43 900 220/08 RMK AO2
14840KMKG MKG20000607091509206/07/00 09:15:31  5-MIN KMKG 071415Z 23007KT 10SM CLR 19/06 A3024 340 43 900 240/07 RMK AO2
14840KMKG MKG20000607092009206/07/00 09:20:31  5-MIN KMKG 071420Z 23009KT 10SM CLR 19/07 A3024 340 44 900 230/09 RMK AO2
14840KMKG MKG20000607092509206/07/00 09:25:31  5-MIN KMKG 071425Z 24008KT 10SM CLR 19/07 A3024 340 44 900 240/08 RMK AO2
14840KMKG MKG20000607093009206/07/00 09:30:31  5-MIN KMKG 071430Z 25010KT 10SM CLR 18/06 A3024 340 44 800 250/10 RMK AO2
14840KMKG MKG20000607121509306/07/00 12:15:31  5-MIN KMKG 071715Z 23011KT 10SM CLR 20/07 A3018 390 41 1100 230/11 RMK AO2
14840KMKG MKG20000607122009306/07/00 12:20:31  5-MIN KMKG 071720Z 22011KT 10SM CLR 21/07 A3017 400 40 1200 220/11 RMK AO2
14840KMKG MKG20000607122509306/07/00 12:25:31  5-MIN KMKG 071725Z 20012KT 10SM CLR 21/07 A3017 400 40 1200 210/12 RMK AO2
14840KMKG MKG20000607123009306/07/00 12:30:31  5-MIN KMKG 071730Z 21012KT 10SM CLR 21/07 A3017 400 40 1200 220/12 RMK AO2
14840KMKG MKG20000607123509306/07/00 12:35:31  5-MIN KMKG 071735Z 22013KT 10SM CLR 21/07 A3017 400 40 1200 220/13 RMK AO2
14840KMKG MKG20000607124009306/07/00 12:40:31  5-MIN KMKG 071740Z 22012KT 10SM CLR 21/07 A3017 400 40 1200 220/12 RMK AO2
14840KMKG MKG20000607124509306/07/00 12:45:31  5-MIN KMKG 071745Z 21012KT 10SM CLR 21/07 A3017 400 41 1200 220/12 RMK AO2
14840KMKG MKG20000607125012806/07/00 12:50:31  5-MIN KMKG 071750Z 21012KT 10SM CLR 21/07 A3017 400 41 1200 210/12 RMK AO2 SLP216 T02060072 10211 20139 58006
14840KMKG MKG20000607125512806/07/00 12:55:31  5-MIN KMKG 071755Z 22012KT 10SM CLR 21/07 A3017 400 40 1200 230/12 RMK AO2 SLP215 T02110072 10211 20139 58021
14840KMKG MKG20000607130009306/07/00 13:00:31  5-MIN KMKG 071800Z 21011KT 10SM CLR 22/08 A3017 400 40 1300 220/11 RMK AO2
14840KMKG MKG20000607130509306/07/00 13:05:31  5-MIN KMKG 071805Z 21013KT 10SM CLR 22/07 A3017 400 39 1300 210/13 RMK AO2
14840KMKG MKG20000607131009306/07/00 13:10:31  5-MIN KMKG 071810Z 21013KT 10SM CLR 21/07 A3016 410 38 1300 210/13 RMK AO2
14840KMKG MKG20000607131509306/07/00 13:15:31  5-MIN KMKG 071815Z 22014KT 10SM CLR 21/06 A3016 410 37 1300 220/14 RMK AO2
14840KMKG MKG20000607132009306/07/00 13:20:31  5-MIN KMKG 071820Z 20012KT 10SM CLR 21/06 A3016 410 37 1300 210/12 RMK AO2
14840KMKG MKG20000607132509306/07/00 13:25:31  5-MIN KMKG 071825Z 21013KT 10SM CLR 22/07 A3016 410 37 1300 210/13 RMK AO2
14840KMKG MKG20000607133009306/07/00 13:30:31  5-MIN KMKG 071830Z 21012KT 10SM CLR 21/06 A3015 410 37 1300 210/12 RMK AO2
14840KMKG MKG20000607133509306/07/00 13:35:31  5-MIN KMKG 071835Z 21012KT 10SM CLR 22/07 A3015 420 37 1400 210/12 RMK AO2
14840KMKG MKG20000607134009306/07/00 13:40:31  5-MIN KMKG 071840Z 20013KT 10SM CLR 22/07 A3015 420 37 1300 200/13 RMK AO2
14840KMKG MKG20000607134509306/07/00 13:45:31  5-MIN KMKG 071845Z 21013KT 10SM CLR 22/06 A3015 420 36 1300 220/13 RMK AO2
14840KMKG MKG20000607135011006/07/00 13:50:31  5-MIN KMKG 071850Z 22013KT 10SM CLR 22/06 A3015 420 35 1400 220/13 RMK AO2 SLP210 T02220061
14840KMKG MKG20000607135511006/07/00 13:55:31  5-MIN KMKG 071855Z 21012KT 10SM CLR 22/07 A3015 420 36 1400 210/12 RMK AO2 SLP211 T02220067
14840KMKG MKG20000607140009306/07/00 14:00:31  5-MIN KMKG 071900Z 22012KT 10SM CLR 22/06 A3015 420 36 1300 230/12 RMK AO2
14840KMKG MKG20000607140509306/07/00 14:05:31  5-MIN KMKG 071905Z 21013KT 10SM CLR 22/06 A3015 420 36 1300 220/13 RMK AO2
14840KMKG MKG20000607141009306/07/00 14:10:31  5-MIN KMKG 071910Z 22010KT 10SM CLR 22/07 A3015 420 37 1400 220/10 RMK AO2
14840KMKG MKG20000607141509306/07/00 14:15:31  5-MIN KMKG 071915Z 21012KT 10SM CLR 22/07 A3015 420 39 1300 220/12 RMK AO2
14840KMKG MKG20000607142009306/07/00 14:20:31  5-MIN KMKG 071920Z 22012KT 10SM CLR 22/07 A3015 420 39 1300 220/12 RMK AO2
14840KMKG MKG20000607142509306/07/00 14:25:31  5-MIN KMKG 071925Z 22011KT 10SM CLR 22/07 A3015 420 37 1400 220/11 RMK AO2
14840KMKG MKG20000607143009306/07/00 14:30:31  5-MIN KMKG 071930Z 21012KT 10SM CLR 22/07 A3015 420 37 1400 210/12 RMK AO2
14840KMKG MKG20000607143509306/07/00 14:35:31  5-MIN KMKG 071935Z 21011KT 10SM CLR 22/07 A3015 420 36 1400 220/11 RMK AO2
14840KMKG MKG20000607144009306/07/00 14:40:31  5-MIN KMKG 071940Z 21011KT 10SM CLR 22/07 A3014 420 37 1400 220/11 RMK AO2
14840KMKG MKG20000607144509306/07/00 14:45:31  5-MIN KMKG 071945Z 20013KT 10SM CLR 22/07 A3014 430 37 1400 200/13 RMK AO2
14840KMKG MKG20000607145011006/07/00 14:50:31  5-MIN KMKG 071950Z 20012KT 10SM CLR 22/07 A3014 430 36 1400 210/12 RMK AO2 SLP205 T02220067
14840KMKG MKG20000607145511606/07/00 14:55:31  5-MIN KMKG 071955Z 21012G17KT 10SM CLR 22/07 A3013 430 36 1400 210/12G17 RMK AO2 SLP204 T02220067
14840KMKG MKG20000607150009306/07/00 15:00:31  5-MIN KMKG 072000Z 20013KT 10SM CLR 22/06 A3013 440 35 1400 200/13 RMK AO2
14840KMKG MKG20000607150509306/07/00 15:05:31  5-MIN KMKG 072005Z 20013KT 10SM CLR 22/07 A3012 440 36 1400 200/13 RMK AO2
14840KMKG MKG20000607151009306/07/00 15:10:31  5-MIN KMKG 072010Z 20010KT 10SM CLR 22/06 A3012 440 35 1400 200/10 RMK AO2
14840KMKG MKG20000607151509306/07/00 15:15:31  5-MIN KMKG 072015Z 20014KT 10SM CLR 22/06 A3012 450 35 1400 210/14 RMK AO2
14840KMKG MKG20000607152009906/07/00 15:20:31  5-MIN KMKG 072020Z 20011G17KT 10SM CLR 22/06 A3012 450 36 1400 210/11G17 RMK AO2
14840KMKG MKG20000607152509306/07/00 15:25:31  5-MIN KMKG 072025Z 20011KT 10SM CLR 22/07 A3012 450 36 1400 200/11 RMK AO2
14840KMKG MKG20000607153009906/07/00 15:30:31  5-MIN KMKG 072030Z 19012G17KT 10SM CLR 22/06 A3011 450 35 1400 200/12G17 RMK AO2
14840KMKG MKG20000607153509306/07/00 15:35:31  5-MIN KMKG 072035Z 20011KT 10SM CLR 22/06 A3011 450 35 1400 200/11 RMK AO2
14840KMKG MKG20000607154009306/07/00 15:40:31  5-MIN KMKG 072040Z 21012KT 10SM CLR 22/06 A3011 460 35 1400 210/12 RMK AO2
14840KMKG MKG20000607154509306/07/00 15:45:31  5-MIN KMKG 072045Z 19011KT 10SM CLR 22/06 A3010 460 34 1400 200/11 RMK AO2
14840KMKG MKG20000607155011606/07/00 15:50:31  5-MIN KMKG 072050Z 19013KT 10SM CLR 22/06 A3010 470 33 1500 190/13 RMK AO2 SLP192 T02220056 58021
14840KMKG MKG20000607155512306/07/00 15:55:31  5-MIN KMKG 072055Z 19011KT 10SM CLR 22/06 A3009 470 36 1400 190/11 RMK AO2 PRESFR SLP189 T02170061 58026
14840KMKG MKG20000607160009306/07/00 16:00:31  5-MIN KMKG 072100Z 19012KT 10SM CLR 22/07 A3008 480 36 1500 190/12 RMK AO2
14840KMKG MKG20000607160509306/07/00 16:05:31  5-MIN KMKG 072105Z 18012KT 10SM CLR 22/07 A3008 480 37 1400 190/12 RMK AO2
14840KMKG MKG20000607161009306/07/00 16:10:31  5-MIN KMKG 072110Z 19012KT 10SM CLR 22/07 A3008 480 36 1500 190/12 RMK AO2
14840KMKG MKG20000607161509906/07/00 16:15:31  5-MIN KMKG 072115Z 18014G18KT 10SM CLR 22/07 A3007 490 36 1500 180/14G18 RMK AO2
14840KMKG MKG20000607162009906/07/00 16:20:31  5-MIN KMKG 072120Z 19012G18KT 10SM CLR 22/06 A3007 490 36 1400 200/12G18 RMK AO2
14840KMKG MKG20000607162509306/07/00 16:25:31  5-MIN KMKG 072125Z 19013KT 10SM CLR 22/07 A3007 490 36 1500 190/13 RMK AO2
14840KMKG MKG20000607163009306/07/00 16:30:31  5-MIN KMKG 072130Z 19012KT 10SM CLR 22/07 A3007 490 36 1500 190/12 RMK AO2
14840KMKG MKG20000607163509306/07/00 16:35:31  5-MIN KMKG 072135Z 19014KT 10SM CLR 22/07 A3007 490 36 1500 190/14 RMK AO2
14840KMKG MKG20000607164009306/07/00 16:40:31  5-MIN KMKG 072140Z 19013KT 10SM CLR 22/07 A3007 500 36 1500 190/13 RMK AO2
14840KMKG MKG20000607164509306/07/00 16:45:31  5-MIN KMKG 072145Z 18014KT 10SM CLR 22/07 A3006 500 36 1500 190/14 RMK AO2
14840KMKG MKG20000607165011006/07/00 16:50:31  5-MIN KMKG 072150Z 19012KT 10SM CLR 23/07 A3006 500 36 1600 190/12 RMK AO2 SLP179 T02280072
14840KMKG MKG20000607165511606/07/00 16:55:31  5-MIN KMKG 072155Z 18014G18KT 10SM CLR 23/07 A3005 510 36 1600 190/14G18 RMK AO2 SLP176 T02280072
14840KMKG MKG20000607170010606/07/00 17:00:31  5-MIN KMKG 072200Z 18014G19KT 10SM CLR 23/07 A3005 520 36 1600 190/14G19 RMK AO2 PRESFR
14840KMKG MKG20000607170510606/07/00 17:05:31  5-MIN KMKG 072205Z 18013G19KT 10SM CLR 23/07 A3004 520 36 1600 180/13G19 RMK AO2 PRESFR
14840KMKG MKG20000607171009306/07/00 17:10:31  5-MIN KMKG 072210Z 17015KT 10SM CLR 22/07 A3003 530 37 1500 180/15 RMK AO2
14840KMKG MKG20000607171509306/07/00 17:15:31  5-MIN KMKG 072215Z 18013KT 10SM CLR 22/07 A3003 530 37 1500 180/13 RMK AO2
14840KMKG MKG20000607172009306/07/00 17:20:31  5-MIN KMKG 072220Z 18013KT 10SM CLR 22/07 A3002 530 37 1500 180/13 RMK AO2
14840KMKG MKG20000607172509306/07/00 17:25:31  5-MIN KMKG 072225Z 19012KT 10SM CLR 23/08 A3002 540 37 1600 190/12 RMK AO2
14840KMKG MKG20000607173009306/07/00 17:30:31  5-MIN KMKG 072230Z 19013KT 10SM CLR 23/08 A3003 530 37 1600 190/13 RMK AO2
14840KMKG MKG20000607173509906/07/00 17:35:31  5-MIN KMKG 072235Z 19011G18KT 10SM CLR 22/07 A3002 540 37 1500 200/11G18 RMK AO2
14840KMKG MKG20000607174009306/07/00 17:40:31  5-MIN KMKG 072240Z 18011KT 10SM CLR 23/08 A3002 540 37 1600 180/11 RMK AO2
14840KMKG MKG20000607174509306/07/00 17:45:31  5-MIN KMKG 072245Z 18013KT 10SM CLR 23/08 A3001 550 37 1600 180/13 RMK AO2
14840KMKG MKG20000607175011006/07/00 17:50:31  5-MIN KMKG 072250Z 19012KT 10SM CLR 23/08 A3001 550 37 1600 190/12 RMK AO2 SLP161 T02280078
14840KMKG MKG20000607175511006/07/00 17:55:31  5-MIN KMKG 072255Z 18009KT 10SM CLR 22/08 A3000 550 39 1600 190/09 RMK AO2 SLP159 T02220078
14840KMKG MKG20000607180009306/07/00 18:00:31  5-MIN KMKG 072300Z 18012KT 10SM CLR 22/08 A3000 550 39 1600 190/12 RMK AO2
14840KMKG MKG20000607180509306/07/00 18:05:31  5-MIN KMKG 072305Z 19010KT 10SM CLR 22/08 A3000 550 39 1600 190/10 RMK AO2
14840KMKG MKG20000607181009606/07/00 18:10:31  5-MIN KMKG 072310Z 18010KT 10SM FEW120 22/08 A3001 550 39 1600 190/10 RMK AO2
14840KMKG MKG20000607181509606/07/00 18:15:31  5-MIN KMKG 072315Z 18011KT 10SM SCT120 22/08 A3001 550 39 1600 190/11 RMK AO2
14840KMKG MKG20000607182009606/07/00 18:20:31  5-MIN KMKG 072320Z 19008KT 10SM BKN120 22/08 A3001 550 40 1500 190/08 RMK AO2
14840KMKG MKG20000607182509606/07/00 18:25:31  5-MIN KMKG 072325Z 21009KT 10SM BKN110 22/07 A3002 540 39 1500 210/09 RMK AO2
14840KMKG MKG20000607183010306/07/00 18:30:31  5-MIN KMKG 072330Z 21004KT 10SM BKN110 22/08 A3003 530 40 1500 220/04 RMK AO2 PRESRR
14840KMKG MKG20000607183510306/07/00 18:35:31  5-MIN KMKG 072335Z 23005KT 10SM OVC120 22/08 A3004 520 40 1500 240/05 RMK AO2 PRESRR
14840KMKG MKG20000607184010306/07/00 18:40:31  5-MIN KMKG 072340Z 24007KT 10SM OVC110 22/07 A3006 500 39 1400 250/07 RMK AO2 PRESRR
14840KMKG MKG20000607184509606/07/00 18:45:31  5-MIN KMKG 072345Z 23007KT 10SM OVC110 21/08 A3006 500 42 1400 230/07 RMK AO2
14840KMKG MKG20000607185013106/07/00 18:50:31  5-MIN KMKG 072350Z 21009KT 10SM OVC110 21/08 A3006 500 42 1400 210/09 RMK AO2 SLP177 T02110078 10228 20211 58026
14840KMKG MKG20000607185513106/07/00 18:55:31  5-MIN KMKG 072355Z 19009KT 10SM BKN110 21/08 A3005 510 42 1400 200/09 RMK AO2 SLP174 T02110078 10228 20211 55013
14840KMKG MKG20000607190010306/07/00 19:00:31  5-MIN KMKG 080000Z 18010KT 10SM FEW090 OVC110 21/08 A3004 520 42 1400 190/10 RMK AO2
14840KMKG MKG20000607190511006/07/00 19:05:31  5-MIN KMKG 080005Z 18012KT 10SM FEW080 OVC110 21/08 A3003 530 42 1400 180/12 RMK AO2 PRESFR
14840KMKG MKG20000607191013306/07/00 19:10:31  5-MIN KMKG 080010Z 18012KT 10SM -RA SCT065 SCT090 BKN110 21/08 A3002 540 45 1400 180/12 RMK AO2 RAB09 PRESFR P0000
14840KMKG MKG20000607191513206/07/00 19:15:31  5-MIN KMKG 080015Z 17012KT 8SM -RA SCT050 BKN070 OVC110 19/10 A3000 550 56 1200 170/12 RMK AO2 RAB09 PRESFR P0001
14840KMKG MKG20000607192013206/07/00 19:20:31  5-MIN KMKG 080020Z 17012KT 8SM -RA BKN055 BKN070 BKN110 18/11 A2999 570 60 1100 170/12 RMK AO2 RAB09 PRESFR P0002
14840KMKG MKG20000607192512606/07/00 19:25:31  5-MIN KMKG 080025Z 18009KT 10SM -RA BKN060 BKN095 OVC110 18/11 A3000 560 64 1100 180/09 RMK AO2 RAB09 P0002
14840KMKG MKG20000607193011906/07/00 19:30:31  5-MIN KMKG 080030Z 19008KT 10SM -RA BKN050 OVC100 18/12 A3001 550 67 1000 200/08 RMK AO2 RAB09 P0002
14840KMKG MKG20000607193511906/07/00 19:35:31  5-MIN KMKG 080035Z 19007KT 10SM -RA SCT048 OVC100 18/12 A3000 550 67 1000 200/07 RMK AO2 RAB09 P0002
14840KMKG MKG20000607194011906/07/00 19:40:31  5-MIN KMKG 080040Z 19007KT 10SM -RA SCT050 BKN095 17/12 A3000 560 72 1000 190/07 RMK AO2 RAB09 P0002
14840KMKG MKG20000607194511806/07/00 19:45:31  5-MIN KMKG 080045Z 18008KT 10SM FEW055 BKN095 17/12 A2999 560 69 1000 190/08 RMK AO2 RAB09E42 P0002
14840KMKG MKG20000607195014206/07/00 19:50:31  5-MIN KMKG 080050Z 17010KT 10SM FEW050 SCT100 17/12 A2998 570 69 1000 180/10 RMK AO2 RAB09E42 PRESFR SLP152 P0002 T01720117
14840KMKG MKG20000607195512806/07/00 19:55:31  5-MIN KMKG 080055Z 18009KT 10SM FEW100 18/11 A2999 570 64 1100 190/09 RMK AO2 RAB09E42 SLP153 P0002 T01780111
14840KMKG MKG20000607200009606/07/00 20:00:31  5-MIN KMKG 080100Z 20007KT 10SM SCT100 18/11 A3000 560 62 1100 210/07 RMK AO2
14840KMKG MKG20000607200510306/07/00 20:05:31  5-MIN KMKG 080105Z 21010KT 10SM SCT085 BKN100 18/11 A3001 550 62 1000 220/10 RMK AO2
14840KMKG MKG20000607201010306/07/00 20:10:31  5-MIN KMKG 080110Z 20011KT 10SM BKN085 BKN100 18/11 A3001 550 60 1100 210/11 RMK AO2
14840KMKG MKG20000607201510306/07/00 20:15:31  5-MIN KMKG 080115Z 21010KT 10SM BKN085 BKN100 18/10 A3001 550 58 1100 210/10 RMK AO2
14840KMKG MKG20000607202011806/07/00 20:20:31  5-MIN KMKG 080120Z 20010KT 10SM SCT080 BKN095 18/10 A3000 550 58 1100 200/10 RMK AO2 CIG 080 RWY 14
14840KMKG MKG20000607202510306/07/00 20:25:31  5-MIN KMKG 080125Z 19006KT 10SM BKN090 OVC110 18/11 A3000 550 60 1100 190/06 RMK AO2
14840KMKG MKG20000607203009606/07/00 20:30:31  5-MIN KMKG 080130Z 21005KT 10SM OVC085 18/11 A3001 540 60 1100 210/05 RMK AO2
14840KMKG MKG20000607203511206/07/00 20:35:31  5-MIN KMKG 080135Z 26004KT 10SM -RA OVC085 18/11 A3003 530 62 1000 260/04 RMK AO2 RAB31 P0000
14840KMKG MKG20000607204011206/07/00 20:40:31  5-MIN KMKG 080140Z 19004KT 10SM -RA OVC085 18/11 A3002 540 64 1000 200/04 RMK AO2 RAB31 P0000
14840KMKG MKG20000607204511906/07/00 20:45:31  5-MIN KMKG 080145Z 19005KT 10SM -RA BKN080 OVC100 18/11 A3002 540 64 1000 200/05 RMK AO2 RAB31 P0000
14840KMKG MKG20000607205014206/07/00 20:50:31  5-MIN KMKG 080150Z 22005KT 9SM -RA SCT060 BKN080 OVC110 17/12 A3003 530 72 1000 220/05 RMK AO2 RAB31 SLP167 P0001 T01720122
14840KMKG MKG20000607205514106/07/00 20:55:31  5-MIN KMKG 080155Z 21006KT 8SM -RA SCT055 BKN080 OVC100 17/12 A3003 530 75 900 210/06 RMK AO2 RAB31 SLP166 P0001 T01670122
14840KMKG MKG20000607210012406/07/00 21:00:31  5-MIN KMKG 080200Z 24011G17KT 9SM -RA SCT055 BKN080 OVC100 17/12 A3003 530 75 900 240/11G17 RMK AO2 P0000
14840KMKG MKG20000607210512506/07/00 21:05:31  5-MIN KMKG 080205Z 23010G17KT 10SM -RA FEW055 BKN100 OVC110 17/12 A3004 520 72 900 230/10G17 RMK AO2 P0000
14840KMKG MKG20000607211011206/07/00 21:10:31  5-MIN KMKG 080210Z 23007KT 10SM -RA SCT055 OVC110 17/12 A3004 520 75 900 240/07 RMK AO2 P0001
14840KMKG MKG20000607211511106/07/00 21:15:31  5-MIN KMKG 080215Z 21007KT 9SM -RA SCT050 OVC110 16/12 A3004 520 77 800 220/07 RMK AO2 P0001
14840KMKG MKG20000607212011806/07/00 21:20:31  5-MIN KMKG 080220Z 20005KT 7SM -RA SCT048 BKN100 OVC120 16/13 A3003 530 80 800 210/05 RMK AO2 P0002
14840KMKG MKG20000607212511806/07/00 21:25:31  5-MIN KMKG 080225Z 18003KT 5SM -RA SCT041 BKN065 OVC120 16/13 A3003 530 83 800 180/03 RMK AO2 P0003
14840KMKG MKG20000607213011706/07/00 21:30:31  5-MIN KMKG 080230Z 15004KT 5SM RA SCT037 BKN095 OVC120 16/13 A3002 540 83 800 150/04 RMK AO2 P0005
14840KMKG MKG20000607213512106/07/00 21:35:31  5-MIN KMKG 080235Z 13004KT 6SM -RA BR FEW039 BKN095 OVC120 16/13 A3002 540 86 800 140/04 RMK AO2 P0005
14840KMKG MKG20000607214012106/07/00 21:40:31  5-MIN KMKG 080240Z 12005KT 10SM FEW039 SCT065 OVC095 16/13 A3002 540 86 800 130/05 RMK AO2 RAE39 P0005
14840KMKG MKG20000607214511406/07/00 21:45:31  5-MIN KMKG 080245Z 13005KT 10SM FEW035 OVC095 16/14 A3002 540 90 800 130/05 RMK AO2 RAE39 P0005
14840KMKG MKG20000607215014306/07/00 21:50:31  5-MIN KMKG 080250Z 12005KT 10SM FEW065 OVC095 16/14 A3002 540 90 800 130/05 RMK AO2 RAE39 SLP163 P0005 60008 T01560139 55013
14840KMKG MKG20000607215513606/07/00 21:55:31  5-MIN KMKG 080255Z 12005KT 10SM OVC095 16/14 A3001 540 90 800 130/05 RMK AO2 RAE39 SLP162 P0005 60008 T01560139 56012
14840KMKG MKG20000607220009406/07/00 22:00:31  5-MIN KMKG 080300Z 13006KT 9SM OVC095 16/14 A3001 550 90 800 140/06 RMK AO2
14840KMKG MKG20000607220509406/07/00 22:05:31  5-MIN KMKG 080305Z 14006KT 9SM OVC095 16/14 A3001 550 90 800 140/06 RMK AO2
14840KMKG MKG20000607221009506/07/00 22:10:31  5-MIN KMKG 080310Z 15006KT 10SM OVC095 16/14 A3000 550 90 800 160/06 RMK AO2
14840KMKG MKG20000607221509506/07/00 22:15:31  5-MIN KMKG 080315Z 15007KT 10SM OVC095 16/13 A3000 550 86 800 150/07 RMK AO2
14840KMKG MKG20000607222009506/07/00 22:20:31  5-MIN KMKG 080320Z 15007KT 10SM OVC095 16/13 A3000 550 80 900 150/07 RMK AO2
14840KMKG MKG20000607222509506/07/00 22:25:31  5-MIN KMKG 080325Z 14007KT 10SM OVC090 16/13 A3000 550 83 800 150/07 RMK AO2
14840KMKG MKG20000607223009506/07/00 22:30:31  5-MIN KMKG 080330Z 15007KT 10SM OVC090 16/13 A3000 550 80 900 150/07 RMK AO2
14840KMKG MKG20000607223509506/07/00 22:35:31  5-MIN KMKG 080335Z 14007KT 10SM OVC090 16/13 A3000 560 80 900 150/07 RMK AO2
14840KMKG MKG20000607224009506/07/00 22:40:31  5-MIN KMKG 080340Z 15007KT 10SM OVC090 16/13 A3000 560 86 800 150/07 RMK AO2
14840KMKG MKG20000607224509506/07/00 22:45:31  5-MIN KMKG 080345Z 15007KT 10SM OVC090 16/13 A2999 560 83 800 150/07 RMK AO2
14840KMKG MKG20000607225011206/07/00 22:50:31  5-MIN KMKG 080350Z 15006KT 10SM OVC090 16/13 A2999 570 83 800 150/06 RMK AO2 SLP154 T01560128
14840KMKG MKG20000607225511206/07/00 22:55:31  5-MIN KMKG 080355Z 14006KT 10SM OVC090 16/13 A2999 570 83 800 150/06 RMK AO2 SLP153 T01560128
14840KMKG MKG20000607230009506/07/00 23:00:31  5-MIN KMKG 080400Z 14006KT 10SM OVC085 16/13 A2999 570 86 800 150/06 RMK AO2
14840KMKG MKG20000607230509506/07/00 23:05:31  5-MIN KMKG 080405Z 14006KT 10SM OVC085 16/13 A2999 570 83 900 150/06 RMK AO2
14840KMKG MKG20000607231009506/07/00 23:10:31  5-MIN KMKG 080410Z 15007KT 10SM OVC085 16/13 A2998 570 80 900 150/07 RMK AO2
14840KMKG MKG20000607231509506/07/00 23:15:31  5-MIN KMKG 080415Z 15006KT 10SM OVC085 16/13 A2998 570 80 900 150/06 RMK AO2
14840KMKG MKG20000607232009506/07/00 23:20:31  5-MIN KMKG 080420Z 15008KT 10SM OVC085 16/13 A2998 580 80 900 150/08 RMK AO2
14840KMKG MKG20000607232509506/07/00 23:25:31  5-MIN KMKG 080425Z 15008KT 10SM OVC085 17/13 A2998 580 77 900 150/08 RMK AO2
14840KMKG MKG20000607233009506/07/00 23:30:31  5-MIN KMKG 080430Z 15007KT 10SM OVC080 16/13 A2997 580 80 900 160/07 RMK AO2
14840KMKG MKG20000607233509606/07/00 23:35:31  5-MIN KMKG 080435Z 16008KT 10SM OVC080 17/13 A2997 580 77 1000 160/08 RMK AO2
14840KMKG MKG20000607234009606/07/00 23:40:31  5-MIN KMKG 080440Z 16008KT 10SM OVC080 17/13 A2997 580 77 1000 160/08 RMK AO2
14840KMKG MKG20000607234509606/07/00 23:45:31  5-MIN KMKG 080445Z 16008KT 10SM OVC080 17/12 A2997 590 72 1000 170/08 RMK AO2
14840KMKG MKG20000607235012306/07/00 23:50:31  5-MIN KMKG 080450Z 17010KT 10SM OVC080 17/12 A2996 590 72 1000 170/10 RMK AO2 SLP144 T01720122 402280072
14840KMKG MKG20000607235512906/07/00 23:55:31  5-MIN KMKG 080455Z 18013G18KT 10SM OVC075 18/12 A2996 600 65 1200 180/13G18 RMK AO2 SLP143 T01830117 402280072
14840KMKG MKG20000608000010206/08/00 00:00:31  5-MIN KMKG 080500Z 18014G19KT 10SM OVC075 19/12 A2995 600 62 1200 190/14G19 RMK AO2
14840KMKG MKG20000608000510206/08/00 00:05:31  5-MIN KMKG 080505Z 19017G21KT 10SM OVC075 19/12 A2995 600 62 1200 190/17G21 RMK AO2
14840KMKG MKG20000608001010206/08/00 00:10:31  5-MIN KMKG 080510Z 19018G25KT 10SM OVC070 19/10 A2995 600 54 1300 190/18G25 RMK AO2
14840KMKG MKG20000609222009906/09/00 22:20:31  5-MIN KMKG 100320Z 21014G21KT 10SM CLR 23/12 A2989 660 47 1800 210/14G21 RMK AO2
14840KMKG MKG20000609222509306/09/00 22:25:31  5-MIN KMKG 100325Z 21017KT 10SM CLR 23/12 A2989 660 47 1800 210/17 RMK AO2
14840KMKG MKG20000609223009306/09/00 22:30:31  5-MIN KMKG 100330Z 21016KT 10SM CLR 23/12 A2989 660 47 1800 210/16 RMK AO2
14840KMKG MKG20000609223509306/09/00 22:35:31  5-MIN KMKG 100335Z 21017KT 10SM CLR 23/12 A2989 660 49 1800 210/17 RMK AO2
14840KMKG MKG20000609224009306/09/00 22:40:31  5-MIN KMKG 100340Z 21015KT 10SM CLR 23/12 A2989 660 49 1800 210/15 RMK AO2
14840KMKG MKG20000609224509306/09/00 22:45:31  5-MIN KMKG 100345Z 21017KT 10SM CLR 23/12 A2989 660 49 1800 210/17 RMK AO2
14840KMKG MKG20000609225011006/09/00 22:50:31  5-MIN KMKG 100350Z 21017KT 10SM CLR 23/12 A2989 660 47 1800 210/17 RMK AO2 SLP119 T02330117
14840KMKG MKG20000609225511006/09/00 22:55:31  5-MIN KMKG 100355Z 21018KT 10SM CLR 23/12 A2989 660 47 1800 210/18 RMK AO2 SLP119 T02330117
14840KMKG MKG20000609230009906/09/00 23:00:31  5-MIN KMKG 100400Z 21016G24KT 10SM CLR 23/12 A2990 650 47 1800 210/16G24 RMK AO2
14840KMKG MKG20000609230509906/09/00 23:05:31  5-MIN KMKG 100405Z 21017G24KT 10SM CLR 23/12 A2990 650 47 1800 210/17G24 RMK AO2
14840KMKG MKG20000609231009906/09/00 23:10:31  5-MIN KMKG 100410Z 21016G24KT 10SM CLR 23/12 A2990 650 49 1800 210/16G24 RMK AO2
14840KMKG MKG20000609231509906/09/00 23:15:31  5-MIN KMKG 100415Z 21015G23KT 10SM CLR 23/12 A2990 650 51 1700 210/15G23 RMK AO2
14840KMKG MKG20000609232009906/09/00 23:20:31  5-MIN KMKG 100420Z 21017G23KT 10SM CLR 22/12 A2990 650 52 1700 210/17G23 RMK AO2
14840KMKG MKG20000609232509306/09/00 23:25:31  5-MIN KMKG 100425Z 21014KT 10SM CLR 22/12 A2990 650 52 1700 210/14 RMK AO2
14840KMKG MKG20000609233009306/09/00 23:30:31  5-MIN KMKG 100430Z 21014KT 10SM CLR 22/12 A2990 650 54 1600 210/14 RMK AO2
14840KMKG MKG20000609233509906/09/00 23:35:31  5-MIN KMKG 100435Z 21016G21KT 10SM CLR 22/12 A2990 650 54 1600 210/16G21 RMK AO2
14840KMKG MKG20000609234009906/09/00 23:40:31  5-MIN KMKG 100440Z 21015G22KT 10SM CLR 22/12 A2991 640 54 1600 210/15G22 RMK AO2
14840KMKG MKG20000609234509906/09/00 23:45:31  5-MIN KMKG 100445Z 21014G22KT 10SM CLR 22/13 A2991 640 56 1600 210/14G22 RMK AO2
14840KMKG MKG20000609235012006/09/00 23:50:31  5-MIN KMKG 100450Z 21014KT 10SM CLR 21/13 A2991 640 58 1500 210/14 RMK AO2 SLP126 T02110128 402780172
14840KMKG MKG20000609235512006/09/00 23:55:31  5-MIN KMKG 100455Z 21013KT 10SM CLR 21/13 A2992 630 58 1500 210/13 RMK AO2 SLP127 T02110128 402780172
14840KMKG MKG20000610000009306/10/00 00:00:31  5-MIN KMKG 100500Z 21013KT 10SM CLR 21/13 A2992 630 58 1500 210/13 RMK AO2
14840KMKG MKG20000610000509306/10/00 00:05:31  5-MIN KMKG 100505Z 21013KT 10SM CLR 21/13 A2992 630 60 1500 210/13 RMK AO2
14840KMKG MKG20000610001009906/10/00 00:10:31  5-MIN KMKG 100510Z 21015G19KT 10SM CLR 21/13 A2992 630 60 1500 210/15G19 RMK AO2
14840KMKG MKG20000610001509906/10/00 00:15:31  5-MIN KMKG 100515Z 21010G19KT 10SM CLR 21/13 A2993 630 60 1500 210/10G19 RMK AO2
14840KMKG MKG20000610002009306/10/00 00:20:31  5-MIN KMKG 100520Z 21012KT 10SM CLR 21/13 A2993 620 60 1500 210/12 RMK AO2
14840KMKG MKG20000610002509306/10/00 00:25:31  5-MIN KMKG 100525Z 21012KT 10SM CLR 21/13 A2993 620 58 1500 220/12 RMK AO2
14840KMKG MKG20000610003009306/10/00 00:30:31  5-MIN KMKG 100530Z 21012KT 10SM CLR 21/13 A2993 620 58 1500 220/12 RMK AO2
14840KMKG MKG20000610003509306/10/00 00:35:31  5-MIN KMKG 100535Z 21013KT 10SM CLR 21/13 A2993 620 58 1500 220/13 RMK AO2
14840KMKG MKG20000610004009306/10/00 00:40:31  5-MIN KMKG 100540Z 21011KT 10SM CLR 21/13 A2993 620 60 1400 210/11 RMK AO2
14840KMKG MKG20000610004509306/10/00 00:45:31  5-MIN KMKG 100545Z 21012KT 10SM CLR 21/13 A2993 620 60 1400 210/12 RMK AO2
14840KMKG MKG20000610005012806/10/00 00:50:31  5-MIN KMKG 100550Z 21011KT 10SM CLR 21/13 A2993 620 60 1400 220/11 RMK AO2 SLP133 T02060128 10267 20206 53000
14840KMKG MKG20000610005512806/10/00 00:55:31  5-MIN KMKG 100555Z 21012KT 10SM CLR 21/13 A2993 620 60 1400 210/12 RMK AO2 SLP133 T02060128 10267 20206 53014
14840KMKG MKG20000610010009306/10/00 01:00:31  5-MIN KMKG 100600Z 21013KT 10SM CLR 21/13 A2994 620 60 1400 210/13 RMK AO2
14840KMKG MKG20000610010509306/10/00 01:05:31  5-MIN KMKG 100605Z 21011KT 10SM CLR 20/13 A2993 620 63 1400 220/11 RMK AO2
14840KMKG MKG20000610011009306/10/00 01:10:31  5-MIN KMKG 100610Z 21011KT 10SM CLR 20/13 A2993 620 65 1400 210/11 RMK AO2
14840KMKG MKG20000610011509306/10/00 01:15:31  5-MIN KMKG 100615Z 21009KT 10SM CLR 21/13 A2993 620 60 1400 210/09 RMK AO2
14840KMKG MKG20000610012009306/10/00 01:20:31  5-MIN KMKG 100620Z 21011KT 10SM CLR 21/13 A2994 620 60 1400 210/11 RMK AO2
14840KMKG MKG20000610012509306/10/00 01:25:31  5-MIN KMKG 100625Z 21009KT 10SM CLR 20/13 A2993 620 65 1400 210/09 RMK AO2
14840KMKG MKG20000610013009306/10/00 01:30:31  5-MIN KMKG 100630Z 21012KT 10SM CLR 21/13 A2993 620 60 1400 210/12 RMK AO2
14840KMKG MKG20000610013509306/10/00 01:35:31  5-MIN KMKG 100635Z 21011KT 10SM CLR 21/13 A2993 620 60 1400 220/11 RMK AO2
14840KMKG MKG20000610014009306/10/00 01:40:31  5-MIN KMKG 100640Z 21012KT 10SM CLR 21/13 A2993 620 58 1500 210/12 RMK AO2
14840KMKG MKG20000610014509306/10/00 01:45:31  5-MIN KMKG 100645Z 21012KT 10SM CLR 21/13 A2994 620 60 1400 210/12 RMK AO2
14840KMKG MKG20000610015011006/10/00 01:50:31  5-MIN KMKG 100650Z 21010KT 10SM CLR 20/13 A2994 610 63 1400 210/10 RMK AO2 SLP135 T02000128
14840KMKG MKG20000610015511006/10/00 01:55:31  5-MIN KMKG 100655Z 21009KT 10SM CLR 20/13 A2994 610 65 1400 220/09 RMK AO2 SLP136 T02000133
14840KMKG MKG20000610020009306/10/00 02:00:31  5-MIN KMKG 100700Z 21010KT 10SM CLR 20/13 A2994 610 65 1400 220/10 RMK AO2
14840KMKG MKG20000610020509306/10/00 02:05:31  5-MIN KMKG 100705Z 21010KT 10SM CLR 20/13 A2994 610 65 1400 220/10 RMK AO2
14840KMKG MKG20000610021009306/10/00 02:10:31  5-MIN KMKG 100710Z 21010KT 10SM CLR 19/13 A2994 610 67 1300 210/10 RMK AO2
14840KMKG MKG20000610021509306/10/00 02:15:31  5-MIN KMKG 100715Z 21010KT 10SM CLR 20/13 A2995 610 65 1400 220/10 RMK AO2
14840KMKG MKG20000610022009306/10/00 02:20:31  5-MIN KMKG 100720Z 21009KT 10SM CLR 20/13 A2995 610 65 1400 210/09 RMK AO2
14840KMKG MKG20000610022509306/10/00 02:25:31  5-MIN KMKG 100725Z 21010KT 10SM CLR 20/13 A2995 600 65 1400 210/10 RMK AO2
14840KMKG MKG20000610023009306/10/00 02:30:31  5-MIN KMKG 100730Z 20009KT 10SM CLR 19/13 A2995 600 67 1300 210/09 RMK AO2
14840KMKG MKG20000610023509306/10/00 02:35:31  5-MIN KMKG 100735Z 21008KT 10SM CLR 19/13 A2995 600 67 1300 210/08 RMK AO2
14840KMKG MKG20000610024009306/10/00 02:40:31  5-MIN KMKG 100740Z 21008KT 10SM CLR 19/13 A2995 600 67 1300 210/08 RMK AO2
14840KMKG MKG20000610024509306/10/00 02:45:31  5-MIN KMKG 100745Z 20007KT 10SM CLR 19/13 A2995 600 67 1300 210/07 RMK AO2
14840KMKG MKG20000610025011006/10/00 02:50:31  5-MIN KMKG 100750Z 21008KT 10SM CLR 19/13 A2995 600 67 1300 210/08 RMK AO2 SLP139 T01940133
14840KMKG MKG20000610025511006/10/00 02:55:31  5-MIN KMKG 100755Z 20009KT 10SM CLR 19/13 A2995 600 67 1300 210/09 RMK AO2 SLP140 T01940133
14840KMKG MKG20000610030009306/10/00 03:00:31  5-MIN KMKG 100800Z 21011KT 10SM CLR 19/13 A2995 600 67 1300 210/11 RMK AO2
14840KMKG MKG20000610030509306/10/00 03:05:31  5-MIN KMKG 100805Z 20009KT 10SM CLR 19/13 A2995 600 67 1300 210/09 RMK AO2
14840KMKG MKG20000610031009306/10/00 03:10:31  5-MIN KMKG 100810Z 20009KT 10SM CLR 19/13 A2995 600 67 1300 200/09 RMK AO2
14840KMKG MKG20000610031509306/10/00 03:15:31  5-MIN KMKG 100815Z 20009KT 10SM CLR 19/13 A2995 610 67 1300 200/09 RMK AO2
14840KMKG MKG20000610032009306/10/00 03:20:31  5-MIN KMKG 100820Z 19010KT 10SM CLR 19/14 A2995 600 70 1300 200/10 RMK AO2
14840KMKG MKG20000610032509306/10/00 03:25:31  5-MIN KMKG 100825Z 20010KT 10SM CLR 19/14 A2995 600 70 1300 200/10 RMK AO2
14840KMKG MKG20000610033009306/10/00 03:30:31  5-MIN KMKG 100830Z 19009KT 10SM CLR 19/13 A2995 600 70 1200 200/09 RMK AO2
14840KMKG MKG20000610033509306/10/00 03:35:31  5-MIN KMKG 100835Z 20008KT 10SM CLR 19/14 A2995 600 72 1200 200/08 RMK AO2
14840KMKG MKG20000610034009306/10/00 03:40:31  5-MIN KMKG 100840Z 20009KT 10SM CLR 19/14 A2995 600 72 1200 200/09 RMK AO2
14840KMKG MKG20000610034509306/10/00 03:45:31  5-MIN KMKG 100845Z 20009KT 10SM CLR 19/14 A2995 600 70 1300 200/09 RMK AO2
14840KMKG MKG20000610035011606/10/00 03:50:31  5-MIN KMKG 100850Z 20008KT 10SM CLR 19/14 A2995 600 70 1300 200/08 RMK AO2 SLP139 T01940139 53014
14840KMKG MKG20000610035511606/10/00 03:55:31  5-MIN KMKG 100855Z 20009KT 10SM CLR 19/14 A2995 600 72 1200 200/09 RMK AO2 SLP138 T01890139 50005
14840KMKG MKG20000610040009106/10/00 04:00:31  5-MIN KMKG 100900Z 20009KT 10SM CLR 19/14 A2995 600 70 1300 210/09 RMK 7
14840KMKG MKG20000610045011006/10/00 04:50:31  5-MIN KMKG 100950Z 20007KT 10SM CLR 19/14 A2994 610 70 1300 210/07 RMK AO2 SLP137 T01940139
14840KMKG MKG20000610045511006/10/00 04:55:31  5-MIN KMKG 100955Z 20009KT 10SM CLR 19/14 A2994 610 70 1300 200/09 RMK AO2 SLP137 T01940139
14840KMKG MKG20000610062509906/10/00 06:25:31  5-MIN KMKG 101125Z 20014G19KT 9SM CLR 21/15 A2995 600 70  1400 200/14G19 RMK AO2
14840KMKG MKG20000610063007506/10/00 06:30:31  5-MIN KMKG 101130Z 19A2994 610 68 1600 200/14G20 RMK AO2
14840KMKG MKG20000610073009906/10/00 07:30:31  5-MIN KMKG 101230Z 20014G20KT 10SM CLR 22/16 A2995 610 68 1600 200/14G20 RMK AO2
14840KMKG MKG20000610073514006/10/00 07:35:31  5-MIN KMKG 101235Z 19012KT 9SM CLR 22/16 A2995 610 65 1600 200/12 RMK AO2  65M CLR 23/16 A2994 610 63 1800 200/16 RMK AO2
14840KMKG MKG20000610084509206/10/00 08:45:31  5-MIN KMKG 101345Z 20015KT 9SM CLR 23/16 A2994 610 63 1800 210/15 RMK AO2
14840KMKG MKG20000610085014006/10/00 08:50:31  5-MIN KMKG 101350Z 20016KT 9SM CLR 24/16 A2995 610 61 3 620 59 16 RMK AO2 SLP1 2000 200/17 RMK AO2 SLP130 T02500167 58001
14840KMKG MKG20000610095512106/10/00 09:55:31  5-MIN KMKG 101455Z 20016G22KT 9SM CLR 26/17 A2993 620 57 2000 210/16G22 RMK AO2 SLP131 T02560167 58006
14840KMKG MKG20000610105013306/10/00 10:50:31  5-MIN KMKG 101550Z 20016G26KT 8SM CLR 26/17 A2993 620 57 2100 200/16G26 RMK AO2 PK WND 19027/1536 SLP131 T02610172
14840KMKG MKG20000610105508006/10/00 10:55:31  5-MIN KMKG 101555Z 20018G26KT 8SM CLR 26/17 A06/10/00 11:30:3
14840KMKG MKG20000610113516806/10/00 11:35:31  5-MIN KMKG 101635Z 21019G27KT 8SM FEW100 25/17 A2993 620  61 2000 210/19G27 RMK AO2 PK WND 20027/1630 630 61 2000 200/22G28 RMK AO2 PK WND 21028/1642
14840KMKG MKG20000610115013606/10/00 11:50:31  5-MIN KMKG 101650Z 20021G28KT 8SM FEW100 26/17 A2992 630 59 2000 200/21G28 RMK AO2 PK WND 21028/1642 SLP130 T02560172
14840KMKG MKG20000610115505106/10/00 11:55:31  5-MIN KMKG 101655Z 21019G25KT630
14840KMKG MKG20000610124011906/10/00 12:40:31  5-MIN KMKG 101740Z 20016G24KT 9SM FEW100 26/18 A2991 640 59 2100 200/16G24 RMK AO2 PK WND 19026/1658
14840KMKG MKG20000610124518106/10/00 12:45:31  5-MIN KMKG 101745Z 20018G24KT 9SM FEW100 27/18 A2991 640 57 2200 200/18G24 RMK AO2 PK WND 19026/640 017G24KT 10SM FEW100 27/18 A2990 650 57 2200 210/17G24 RMK AO2
14840KMKG MKG20000610132010206/10/00 13:20:31  5-MIN KMKG 101820Z 20017G23KT 10SM FEW100 27/18 A2990 650 58 2200 200/17G23 RMK AO2
14840KMKG MKG20000610132515006/10/00 13:25:31  5-MIN KMKG 101825Z 20017KT 10SM FEW110 27/18 A2990 65 KMKG 101910Z 19017G25KT 10SM FEW035 28/17 A2988 670 50 2400 200/17G25 RMK AO2
14840KMKG MKG20000610141510206/10/00 14:15:31  5-MIN KMKG 101915Z 20016G22KT 10SM FEW035 29/17 A2988 670 47 2500 200/16G22 RMK AO2
14840KMKG MKG20000612034510606/12/00 03:45:31  5-MIN KMKG 120845Z 06010KT 9SM OVC005 16/15 A3011 460 93 700 070/10 RMK AO2 CIG 004V008
14840KMKG MKG20000612035011706/12/00 03:50:31  5-MIN KMKG 120850Z 07008KT 9SM OVC005 16/15 A3011 460 93 700 070/08 RMK AO2 SLP194 T01610150 58002
14840KMKG MKG20000612035511806/12/00 03:55:31  5-MIN KMKG 120855Z 06008KT 10SM OVC007 16/15 A3011 460 93 700 070/08 RMK AO2 SLP194 T01610150 51008
14840KMKG MKG20000612040009506/12/00 04:00:31  5-MIN KMKG 120900Z 07011KT 10SM OVC007 16/15 A3011 450 93 700 070/11 RMK AO2
14840KMKG MKG20000612040509506/12/00 04:05:31  5-MIN KMKG 120905Z 08009KT 10SM OVC007 16/14 A3011 450 93 700 080/09 RMK AO2
14840KMKG MKG20000612041009506/12/00 04:10:31  5-MIN KMKG 120910Z 07009KT 10SM OVC007 16/14 A3011 450 93 700 080/09 RMK AO2
14840KMKG MKG20000612041510606/12/00 04:15:31  5-MIN KMKG 120915Z 07009KT 9SM OVC007 16/14 A3011 460 93 700 070/09 RMK AO2 CIG 006V010
14840KMKG MKG20000612042010606/12/00 04:20:31  5-MIN KMKG 120920Z 07009KT 8SM OVC007 16/14 A3011 450 93 700 080/09 RMK AO2 CIG 006V010
14840KMKG MKG20000612042510606/12/00 04:25:31  5-MIN KMKG 120925Z 08011KT 7SM OVC007 16/14 A3012 450 93 700 090/11 RMK AO2 CIG 006V010
14840KMKG MKG20000612043010606/12/00 04:30:31  5-MIN KMKG 120930Z 09009KT 7SM OVC007 16/14 A3011 450 93 700 090/09 RMK AO2 CIG 005V010
14840KMKG MKG20000612043510906/12/00 04:35:31  5-MIN KMKG 120935Z 09009KT 6SM BR OVC007 16/14 A3011 450 93 700 090/09 RMK AO2 CIG 005V009
14840KMKG MKG20000612044010906/12/00 04:40:31  5-MIN KMKG 120940Z 08010KT 5SM BR OVC007 15/14 A3011 450 96 600 090/10 RMK AO2 CIG 005V009
14840KMKG MKG20000612044510906/12/00 04:45:31  5-MIN KMKG 120945Z 08011KT 4SM BR OVC007 15/14 A3011 450 96 600 080/11 RMK AO2 CIG 005V010
14840KMKG MKG20000612045012106/12/00 04:50:31  5-MIN KMKG 120950Z 07012KT 5SM BR BKN007 OVC011 15/14 A3012 450 93 600 080/12 RMK AO2 SLP198 T01500139
14840KMKG MKG20000612045513306/12/00 04:55:31  5-MIN KMKG 120955Z 07009KT 5SM BR BKN007 OVC011 15/14 A3012 450 93 600 080/09 RMK AO2 CIG 005V010 SLP199 T01500139
14840KMKG MKG20000612050011606/12/00 05:00:31  5-MIN KMKG 121000Z 07012KT 5SM BR BKN007 OVC011 15/14 A3012 440 93 600 070/12 RMK AO2 CIG 005V010
14840KMKG MKG20000612050510106/12/00 05:05:31  5-MIN KMKG 121005Z 07011KT 8SM BKN007 OVC011 15/14 A3012 440 93 600 080/11 RMK AO2
14840KMKG MKG20000612051009506/12/00 05:10:31  5-MIN KMKG 121010Z 08011KT 10SM OVC007 14/14 A3012 450 96 500 080/11 RMK AO2
14840KMKG MKG20000612051510106/12/00 05:15:31  5-MIN KMKG 121015Z 08011KT 8SM BKN009 OVC012 14/14 A3012 450 96 500 080/11 RMK AO2
14840KMKG MKG20000612052010106/12/00 05:20:31  5-MIN KMKG 121020Z 08009KT 8SM BKN006 OVC011 14/14 A3012 450 96 500 080/09 RMK AO2
14840KMKG MKG20000612052510106/12/00 05:25:31  5-MIN KMKG 121025Z 09010KT 9SM BKN006 OVC011 14/14 A3012 440 96 500 090/10 RMK AO2
14840KMKG MKG20000612053010106/12/00 05:30:31  5-MIN KMKG 121030Z 09009KT 9SM BKN006 OVC011 14/14 A3013 440 96 500 090/09 RMK AO2
14840KMKG MKG20000612053510606/12/00 05:35:31  5-MIN KMKG 121035Z 07012KT 9SM OVC006 14/13 A3013 440 93 500 080/12 RMK AO2 CIG 005V012
14840KMKG MKG20000612054010706/12/00 05:40:31  5-MIN KMKG 121040Z 07010KT 10SM OVC006 14/13 A3013 440 93 500 070/10 RMK AO2 CIG 005V009
14840KMKG MKG20000612054510706/12/00 05:45:31  5-MIN KMKG 121045Z 07010KT 10SM OVC006 14/13 A3013 440 93 500 080/10 RMK AO2 CIG 005V011
14840KMKG MKG20000612055012406/12/00 05:50:31  5-MIN KMKG 121050Z 07009KT 10SM OVC006 14/13 A3013 430 93 500 080/09 RMK AO2 CIG 005V011 SLP203 T01440133
14840KMKG MKG20000612055512406/12/00 05:55:31  5-MIN KMKG 121055Z 07008KT 10SM OVC006 14/13 A3013 440 96 400 070/08 RMK AO2 CIG 005V011 SLP203 T01390133
14840KMKG MKG20000612060010606/12/00 06:00:31  5-MIN KMKG 121100Z 07011KT 9SM OVC006 14/13 A3013 440 96 400 070/11 RMK AO2 CIG 005V011
14840KMKG MKG20000612060509406/12/00 06:05:31  5-MIN KMKG 121105Z 07010KT 8SM OVC006 14/13 A3013 430 96 400 070/10 RMK AO2
14840KMKG MKG20000612061009406/12/00 06:10:31  5-MIN KMKG 121110Z 07011KT 7SM OVC006 14/13 A3013 430 96 400 070/11 RMK AO2
14840KMKG MKG20000612061509406/12/00 06:15:31  5-MIN KMKG 121115Z 08009KT 7SM OVC006 14/13 A3013 430 93 400 080/09 RMK AO2
14840KMKG MKG20000612062009406/12/00 06:20:31  5-MIN KMKG 121120Z 08009KT 9SM OVC006 14/13 A3013 430 96 400 080/09 RMK AO2
14840KMKG MKG20000612062509406/12/00 06:25:31  5-MIN KMKG 121125Z 08010KT 9SM OVC006 14/13 A3013 430 93 400 080/10 RMK AO2
14840KMKG MKG20000612063009506/12/00 06:30:31  5-MIN KMKG 121130Z 08011KT 10SM OVC006 14/13 A3013 430 93 400 080/11 RMK AO2
14840KMKG MKG20000612063510706/12/00 06:35:31  5-MIN KMKG 121135Z 09012KT 10SM OVC006 14/13 A3014 430 93 400 090/12 RMK AO2 CIG 005V009
14840KMKG MKG20000612064010706/12/00 06:40:31  5-MIN KMKG 121140Z 08011KT 10SM OVC006 14/13 A3014 430 93 400 090/11 RMK AO2 CIG 005V009
14840KMKG MKG20000612064509506/12/00 06:45:31  5-MIN KMKG 121145Z 08011KT 10SM OVC006 14/13 A3014 430 93 400 090/11 RMK AO2
14840KMKG MKG20000612065013606/12/00 06:50:31  5-MIN KMKG 121150Z 08010KT 10SM OVC008 14/13 A3014 430 93 400 080/10 RMK AO2 SLP204 70005 T01390128 10167 20139 51008
14840KMKG MKG20000612065513606/12/00 06:55:31  5-MIN KMKG 121155Z 08012KT 10SM OVC008 14/13 A3014 430 90 500 090/12 RMK AO2 SLP205 70005 T01440128 10167 20139 51010
14840KMKG MKG20000612070009506/12/00 07:00:31  5-MIN KMKG 121200Z 09011KT 10SM OVC008 14/13 A3014 430 93 400 090/11 RMK AO2
14840KMKG MKG20000612070509506/12/00 07:05:31  5-MIN KMKG 121205Z 08009KT 10SM OVC008 14/13 A3013 430 90 500 090/09 RMK AO2
14840KMKG MKG20000612071009506/12/00 07:10:31  5-MIN KMKG 121210Z 07008KT 10SM OVC008 14/13 A3014 430 90 500 070/08 RMK AO2
14840KMKG MKG20000612071509506/12/00 07:15:31  5-MIN KMKG 121215Z 06008KT 10SM OVC008 14/13 A3014 430 90 500 070/08 RMK AO2
14840KMKG MKG20000612072009506/12/00 07:20:31  5-MIN KMKG 121220Z 07010KT 10SM OVC008 14/13 A3014 430 90 500 070/10 RMK AO2
14840KMKG MKG20000612072509506/12/00 07:25:31  5-MIN KMKG 121225Z 07009KT 10SM OVC008 14/13 A3013 430 93 500 070/09 RMK AO2
14840KMKG MKG20000612073009506/12/00 07:30:31  5-MIN KMKG 121230Z 07010KT 10SM OVC008 14/13 A3014 430 90 500 070/10 RMK AO2
14840KMKG MKG20000612073509506/12/00 07:35:31  5-MIN KMKG 121235Z 07010KT 10SM OVC008 14/13 A3013 430 90 500 070/10 RMK AO2
14840KMKG MKG20000612074009506/12/00 07:40:31  5-MIN KMKG 121240Z 07011KT 10SM OVC008 14/13 A3014 430 90 500 080/11 RMK AO2
14840KMKG MKG20000612074509506/12/00 07:45:31  5-MIN KMKG 121245Z 09010KT 10SM OVC008 14/13 A3014 430 90 500 090/10 RMK AO2
14840KMKG MKG20000612075011206/12/00 07:50:31  5-MIN KMKG 121250Z 09012KT 10SM OVC008 14/13 A3014 430 90 500 090/12 RMK AO2 SLP205 T01440128
14840KMKG MKG20000612075511206/12/00 07:55:31  5-MIN KMKG 121255Z 09010KT 10SM OVC008 14/13 A3014 430 90 500 090/10 RMK AO2 SLP205 T01440128
14840KMKG MKG20000612080009506/12/00 08:00:31  5-MIN KMKG 121300Z 09010KT 10SM OVC008 14/13 A3014 430 90 500 100/10 RMK AO2
14840KMKG MKG20000612080509506/12/00 08:05:31  5-MIN KMKG 121305Z 09012KT 10SM OVC008 14/13 A3014 430 90 500 090/12 RMK AO2
14840KMKG MKG20000612081009506/12/00 08:10:31  5-MIN KMKG 121310Z 09011KT 10SM OVC008 14/13 A3014 430 90 500 100/11 RMK AO2
14840KMKG MKG20000612081509506/12/00 08:15:31  5-MIN KMKG 121315Z 10009KT 10SM OVC008 14/13 A3014 430 90 500 110/09 RMK AO2
14840KMKG MKG20000612082009506/12/00 08:20:31  5-MIN KMKG 121320Z 10009KT 10SM OVC008 14/13 A3014 430 90 500 110/09 RMK AO2
14840KMKG MKG20000612082509506/12/00 08:25:31  5-MIN KMKG 121325Z 10011KT 10SM OVC008 15/13 A3014 430 86 600 110/11 RMK AO2
14840KMKG MKG20000612083009506/12/00 08:30:31  5-MIN KMKG 121330Z 10009KT 10SM OVC008 15/13 A3014 420 86 600 110/09 RMK AO2
14840KMKG MKG20000612083509506/12/00 08:35:31  5-MIN KMKG 121335Z 09011KT 10SM OVC008 14/13 A3014 420 90 500 100/11 RMK AO2
14840KMKG MKG20000612084009506/12/00 08:40:31  5-MIN KMKG 121340Z 10011KT 10SM OVC008 14/13 A3014 430 90 500 100/11 RMK AO2
14840KMKG MKG20000612084509406/12/00 08:45:31  5-MIN KMKG 121345Z 10010KT 9SM OVC008 14/13 A3014 420 90 500 100/10 RMK AO2
14840KMKG MKG20000612085011106/12/00 08:50:31  5-MIN KMKG 121350Z 09008KT 9SM OVC008 14/13 A3014 420 90 500 090/08 RMK AO2 SLP208 T01440128
14840KMKG MKG20000612085511106/12/00 08:55:31  5-MIN KMKG 121355Z 09009KT 9SM OVC008 15/13 A3015 420 86 600 090/09 RMK AO2 SLP207 T01500128
14840KMKG MKG20000612090009406/12/00 09:00:31  5-MIN KMKG 121400Z 08009KT 9SM OVC008 15/13 A3015 420 86 600 090/09 RMK AO2
14840KMKG MKG20000612090509406/12/00 09:05:31  5-MIN KMKG 121405Z 07011KT 9SM OVC008 15/13 A3014 420 90 600 080/11 RMK AO2
14840KMKG MKG20000612091009506/12/00 09:10:31  5-MIN KMKG 121410Z 09009KT 10SM OVC008 15/13 A3014 420 86 600 100/09 RMK AO2
14840KMKG MKG20000612091509506/12/00 09:15:31  5-MIN KMKG 121415Z 08008KT 10SM OVC008 15/13 A3014 420 86 600 090/08 RMK AO2
14840KMKG MKG20000612092009506/12/00 09:20:31  5-MIN KMKG 121420Z 07011KT 10SM OVC008 15/13 A3014 430 90 600 080/11 RMK AO2
14840KMKG MKG20000612092509506/12/00 09:25:31  5-MIN KMKG 121425Z 07011KT 10SM OVC008 15/13 A3014 430 86 600 080/11 RMK AO2
14840KMKG MKG20000612093009506/12/00 09:30:31  5-MIN KMKG 121430Z 08009KT 10SM OVC008 15/13 A3014 430 86 600 080/09 RMK AO2
14840KMKG MKG20000612093509506/12/00 09:35:31  5-MIN KMKG 121435Z 08008KT 10SM OVC008 15/13 A3014 430 90 600 080/08 RMK AO2
14840KMKG MKG20000612094009506/12/00 09:40:31  5-MIN KMKG 121440Z 08011KT 10SM OVC008 15/13 A3014 430 90 600 090/11 RMK AO2
14840KMKG MKG20000612094509506/12/00 09:45:31  5-MIN KMKG 121445Z 08011KT 10SM OVC008 15/13 A3014 430 90 600 090/11 RMK AO2
14840KMKG MKG20000612095011806/12/00 09:50:31  5-MIN KMKG 121450Z 08010KT 10SM OVC008 15/13 A3014 430 90 600 080/10 RMK AO2 SLP205 T01500133 51010
14840KMKG MKG20000612095511806/12/00 09:55:31  5-MIN KMKG 121455Z 08011KT 10SM OVC008 15/13 A3013 430 90 600 080/11 RMK AO2 SLP204 T01500133 58002
14840KMKG MKG20000612100009506/12/00 10:00:31  5-MIN KMKG 121500Z 07010KT 10SM OVC008 15/13 A3013 440 90 600 080/10 RMK AO2
14840KMKG MKG20000612100509506/12/00 10:05:31  5-MIN KMKG 121505Z 07010KT 10SM OVC008 15/13 A3013 430 90 600 070/10 RMK AO2
14840KMKG MKG20000612101011106/12/00 10:10:31  5-MIN KMKG 121510Z 07009KT 10SM -RA OVC008 15/13 A3013 430 90 600 070/09 RMK AO2 RAB10 P0000
14840KMKG MKG20000612101511006/12/00 10:15:31  5-MIN KMKG 121515Z 07008KT 8SM -RA OVC008 15/13 A3014 430 90 600 070/08 RMK AO2 RAB10 P0000
14840KMKG MKG20000612102011306/12/00 10:20:31  5-MIN KMKG 121520Z 07009KT 6SM -RA BR OVC008 15/13 A3014 430 90 600 070/09 RMK AO2 RAB10 P0000
14840KMKG MKG20000612102511306/12/00 10:25:31  5-MIN KMKG 121525Z 07010KT 6SM -RA BR OVC008 14/14 A3013 430 96 500 070/10 RMK AO2 RAB10 P0001
14840KMKG MKG20000612103011306/12/00 10:30:31  5-MIN KMKG 121530Z 08011KT 6SM -RA BR OVC008 14/14 A3013 430 96 500 090/11 RMK AO2 RAB10 P0001
14840KMKG MKG20000612103512506/12/00 10:35:31  5-MIN KMKG 121535Z 07011KT 5SM -RA BR OVC008 14/14 A3013 430 96 500 080/11 RMK AO2 RAB10 CIG 007V012 P0001
14840KMKG MKG20000612104012506/12/00 10:40:31  5-MIN KMKG 121540Z 07010KT 5SM -RA BR OVC008 15/14 A3013 430 93 600 080/10 RMK AO2 RAB10 CIG 006V012 P0001
14840KMKG MKG20000612104513206/12/00 10:45:31  5-MIN KMKG 121545Z 07007KT 5SM -RA BR BKN008 OVC013 14/14 A3014 430 96 500 070/07 RMK AO2 RAB10 CIG 006V010 P0002
14840KMKG MKG20000612105014206/12/00 10:50:31  5-MIN KMKG 121550Z 06009KT 5SM -RA BR OVC008 14/14 A3014 430 96 500 060/09 RMK AO2 RAB10 CIG 006V012 SLP206 P0002 T01440139
14840KMKG MKG20000612105514206/12/00 10:55:31  5-MIN KMKG 121555Z 06009KT 5SM -RA BR OVC008 14/14 A3014 430 96 500 070/09 RMK AO2 RAB10 CIG 006V012 SLP206 P0002 T01440139
14840KMKG MKG20000612110011906/12/00 11:00:31  5-MIN KMKG 121600Z 07008KT 6SM -RA BR OVC008 15/14 A3014 430 93 600 070/08 RMK AO2 CIG 006V014 P0000
14840KMKG MKG20000612110511906/12/00 11:05:31  5-MIN KMKG 121605Z 07008KT 6SM -RA BR OVC010 15/14 A3014 430 93 600 070/08 RMK AO2 CIG 006V014 P0001
14840KMKG MKG20000612111011906/12/00 11:10:31  5-MIN KMKG 121610Z 08009KT 5SM -RA BR OVC010 15/14 A3014 430 93 600 080/09 RMK AO2 CIG 006V013 P0001
14840KMKG MKG20000612111511906/12/00 11:15:31  5-MIN KMKG 121615Z 08009KT 5SM -RA BR OVC010 15/14 A3014 430 93 600 080/09 RMK AO2 CIG 006V012 P0001
14840KMKG MKG20000612112012606/12/00 11:20:31  5-MIN KMKG 121620Z 07008KT 5SM -RA BR BKN010 OVC014 15/14 A3014 430 93 600 080/08 RMK AO2 CIG 006V012 P0002
14840KMKG MKG20000612112511906/12/00 11:25:31  5-MIN KMKG 121625Z 07007KT 5SM -RA BR OVC010 15/14 A3014 430 93 600 070/07 RMK AO2 CIG 006V014 P0002
14840KMKG MKG20000612113011906/12/00 11:30:31  5-MIN KMKG 121630Z 07008KT 6SM -RA BR OVC010 15/14 A3014 430 93 600 080/08 RMK AO2 CIG 006V014 P0002
14840KMKG MKG20000612113512306/12/00 11:35:31  5-MIN KMKG 121635Z 07008KT 7SM -RA BKN008 OVC014 15/14 A3015 420 93 600 070/08 RMK AO2 CIG 006V012 P0002
14840KMKG MKG20000612114012906/12/00 11:40:31  5-MIN KMKG 121640Z 08008KT 6SM -RA BR SCT008 OVC014 15/14 A3014 420 96 600 080/08 RMK AO2 CIG 007 RWY 14 P0002
14840KMKG MKG20000612114512206/12/00 11:45:31  5-MIN KMKG 121645Z 07009KT 5SM -RA BR OVC012 15/14 A3014 420 93 600 080/09 RMK AO2 CIG 007 RWY 14 P0002
14840KMKG MKG20000612115013906/12/00 11:50:31  5-MIN KMKG 121650Z 08009KT 4SM -RA BR OVC014 15/14 A3015 420 93 600 090/09 RMK AO2 CIG 009 RWY 14 SLP208 P0003 T01500139
14840KMKG MKG20000612115514306/12/00 11:55:31  5-MIN KMKG 121655Z 09008KT 5SM -RA BR BKN009 OVC014 15/14 A3014 420 93 600 090/08 RMK AO2 CIG 006V012 SLP208 P0003 T01500139
14840KMKG MKG20000612120010706/12/00 12:00:31  5-MIN KMKG 121700Z 08007KT 5SM -RA BR OVC012 15/14 A3014 420 93 600 080/07 RMK AO2 P0000
14840KMKG MKG20000612120510706/12/00 12:05:31  5-MIN KMKG 121705Z 09009KT 4SM -RA BR OVC012 15/14 A3014 420 93 600 090/09 RMK AO2 P0001
14840KMKG MKG20000612121013506/12/00 12:10:31  5-MIN KMKG 121710Z 08008KT 3SM RA BR OVC010 15/14 A3014 430 93 600 090/08 RMK AO2 VIS 2 1/2 RWY 14 CIG 006V014 P0002
14840KMKG MKG20000612121510706/12/00 12:15:31  5-MIN KMKG 121715Z 08007KT 3SM -RA BR OVC010 15/14 A3014 430 93 600 080/07 RMK AO2 P0002
14840KMKG MKG20000612122012606/12/00 12:20:31  5-MIN KMKG 121720Z 08010KT 3SM RA BR FEW007 OVC010 15/14 A3013 430 93 600 080/10 RMK AO2 VIS 2 RWY 14 P0004
14840KMKG MKG20000612122513006/12/00 12:25:31  5-MIN KMKG 121725Z 08008KT 3SM RA BR BKN010 OVC028 15/14 A3013 440 93 600 080/08 RMK AO2 VIS 1 3/4 RWY 14 P0005
14840KMKG MKG20000612123014106/12/00 12:30:31  5-MIN KMKG 121730Z 08009KT 3SM RA BR BKN012 OVC028 15/14 A3013 440 93 600 090/09 RMK AO2 VIS 2 RWY 14 CIG 008 RWY 14 P0006
14840KMKG MKG20000612123515606/12/00 12:35:31  5-MIN KMKG 121735Z 08010KT 2 1/2SM RA BR FEW007 BKN012 OVC028 14/14 A3012 450 96 500 080/10 RMK AO2 VIS 1 3/4 RWY 14 CIG 008 RWY 14 P0008
14840KMKG MKG20000612124012106/12/00 12:40:31  5-MIN KMKG 121740Z 08009KT 2SM +RA BR BKN010 BKN017 OVC028 14/14 A3012 450 96 500 090/09 RMK AO2 P0010
14840KMKG MKG20000612124514106/12/00 12:45:31  5-MIN KMKG 121745Z 08009KT 2 1/2SM RA BR BKN007 BKN012 OVC028 14/14 A3012 450 96 500 080/09 RMK AO2 VIS 1 1/2 RWY 14 P0012
14840KMKG MKG20000612125016506/12/00 12:50:31  5-MIN KMKG 121750Z 09011KT 2 1/2SM RA BR SCT007 BKN012 OVC028 14/14 A3012 450 96 500 090/11 RMK AO2 SLP200 P0013 60018 T01440139 10150 20139 58002
14840KMKG MKG20000612125516506/12/00 12:55:31  5-MIN KMKG 121755Z 08009KT 2 1/2SM RA BR BKN009 BKN016 OVC028 14/14 A3012 450 96 500 090/09 RMK AO2 SLP198 P0015 60020 T01440139 10150 20139 58006
14840KMKG MKG20000612130011706/12/00 13:00:31  5-MIN KMKG 121800Z 09009KT 2 1/2SM RA BR BKN007 OVC014 14/14 A3011 460 96 500 090/09 RMK AO2 P0002
14840KMKG MKG20000612130511006/12/00 13:05:31  5-MIN KMKG 121805Z 09010KT 2 1/2SM RA BR OVC007 14/14 A3011 460 96 500 090/10 RMK AO2 P0004
14840KMKG MKG20000612131013806/12/00 13:10:31  5-MIN KMKG 121810Z 08010KT 3SM RA BR BKN007 OVC028 14/14 A3011 460 96 500 080/10 RMK AO2 VIS 2 RWY 14 CIG 005V013 P0005
14840KMKG MKG20000612131514506/12/00 13:15:31  5-MIN KMKG 121815Z 08012KT 3SM RA BR BKN007 BKN011 OVC028 14/14 A3010 460 96 500 090/12 RMK AO2 VIS 2 RWY 14 CIG 005V009 P0006
14840KMKG MKG20000612132013106/12/00 13:20:31  5-MIN KMKG 121820Z 09011KT 3SM RA BR OVC007 14/14 A3010 470 96 600 090/11 RMK AO2 VIS 2 RWY 14 CIG 005V012 P0007
14840KMKG MKG20000612132511906/12/00 13:25:31  5-MIN KMKG 121825Z 08010KT 3SM RA BR OVC007 14/14 A3010 470 96 500 090/10 RMK AO2 VIS 2 RWY 14 P0009
14840KMKG MKG20000612133010606/12/00 13:30:31  5-MIN KMKG 121830Z 08010KT 3SM RA BR OVC007 14/14 A3010 460 96 500 090/10 RMK AO2 P0010
14840KMKG MKG20000612133510706/12/00 13:35:31  5-MIN KMKG 121835Z 08008KT 4SM -RA BR OVC007 14/14 A3010 470 96 500 090/08 RMK AO2 P0010
14840KMKG MKG20000612134010706/12/00 13:40:31  5-MIN KMKG 121840Z 08010KT 4SM -RA BR OVC007 14/14 A3010 470 96 600 090/10 RMK AO2 P0011
14840KMKG MKG20000612134511406/12/00 13:45:31  5-MIN KMKG 121845Z 09010KT 4SM -RA BR BKN007 OVC012 14/14 A3009 470 96 600 090/10 RMK AO2 P0011
14840KMKG MKG20000612135014006/12/00 13:50:31  5-MIN KMKG 121850Z 08009KT 4SM RA BR OVC007 14/14 A3009 470 96 600 090/09 RMK AO2 VIS 2 1/2 RWY 14 SLP190 P0013 T01440139
14840KMKG MKG20000612135515206/12/00 13:55:31  5-MIN KMKG 121855Z 09009KT 4SM RA BR OVC007 14/14 A3009 470 96 600 090/09 RMK AO2 VIS 2 1/2 RWY 14 CIG 005V013 SLP191 P0014 T01440139
14840KMKG MKG20000612140014206/12/00 14:00:31  5-MIN KMKG 121900Z 09010KT 4SM RA BR BKN007 OVC011 14/14 A3009 480 96 600 100/10 RMK AO2 VIS 2 1/2 RWY 14 CIG 005V009 P0001
14840KMKG MKG20000612140513506/12/00 14:05:31  5-MIN KMKG 121905Z 10010KT 4SM RA BR OVC007 14/14 A3008 480 96 600 100/10 RMK AO2 VIS 2 1/2 RWY 14 CIG 005V012 P0002
14840KMKG MKG20000612141014206/12/00 14:10:31  5-MIN KMKG 121910Z 09009G16KT 4SM -RA BR OVC009 14/14 A3009 480 96 600 100/09G16 RMK AO2 VIS 2 1/2 RWY 14 CIG 005V012 P0003
14840KMKG MKG20000612141511806/12/00 14:15:31  5-MIN KMKG 121915Z 10008KT 4SM RA BR OVC009 14/14 A3009 480 96 600 100/08 RMK AO2 CIG 005V013 P0004
14840KMKG MKG20000612142012506/12/00 14:20:31  5-MIN KMKG 121920Z 08008KT 4SM RA BR BKN007 OVC011 14/14 A3009 480 96 600 080/08 RMK AO2 CIG 005V009 P0005
14840KMKG MKG20000612142513306/12/00 14:25:31  5-MIN KMKG 121925Z 09010KT 4SM -RA BR BKN007 BKN011 OVC027 15/14 A3009 480 96 600 090/10 RMK AO2 CIG 005V009 P0005
14840KMKG MKG20000612143011806/12/00 14:30:31  5-MIN KMKG 121930Z 08011KT 4SM RA BR OVC007 14/14 A3008 480 96 600 080/11 RMK AO2 CIG 005V013 P0006
14840KMKG MKG20000612143511806/12/00 14:35:31  5-MIN KMKG 121935Z 08010KT 5SM RA BR OVC009 14/14 A3009 480 96 600 090/10 RMK AO2 CIG 005V013 P0007
14840KMKG MKG20000612144013306/12/00 14:40:31  5-MIN KMKG 121940Z 09011KT 5SM -RA BR BKN007 BKN011 OVC024 14/14 A3009 480 96 600 100/11 RMK AO2 CIG 005V010 P0007
14840KMKG MKG20000612144512006/12/00 14:45:31  5-MIN KMKG 121945Z 09009KT 5SM RA BR SCT007 BKN011 OVC028 15/14 A3008 480 93 600 090/09 RMK AO2 P0008
14840KMKG MKG20000612145013706/12/00 14:50:31  5-MIN KMKG 121950Z 09012KT 5SM RA BR SCT007 BKN011 OVC028 15/14 A3007 490 96 600 090/12 RMK AO2 SLP184 P0009 T01500144
14840KMKG MKG20000612145513806/12/00 14:55:31  5-MIN KMKG 121955Z 08011KT 5SM -RA BR SCT007 BKN011 OVC023 15/14 A3007 500 96 700 090/11 RMK AO2 SLP181 P0010 T01500144
14840KMKG MKG20000612150012606/12/00 15:00:31  5-MIN KMKG 122000Z 08011KT 5SM -RA BR BKN009 OVC023 15/14 A3007 490 96 600 080/11 RMK AO2 CIG 007V012 P0000
14840KMKG MKG20000612150513306/12/00 15:05:31  5-MIN KMKG 122005Z 09010KT 6SM -RA BR BKN009 BKN013 OVC023 15/14 A3007 490 93 600 100/10 RMK AO2 CIG 007V011 P0000
14840KMKG MKG20000612151013006/12/00 15:10:31  5-MIN KMKG 122010Z 08010KT 7SM -RA BKN009 BKN013 OVC023 15/14 A3007 500 96 700 090/10 RMK AO2 CIG 006V011 P0000
14840KMKG MKG20000612151512306/12/00 15:15:31  5-MIN KMKG 122015Z 09009KT 7SM -RA BKN009 OVC023 15/14 A3006 500 96 700 090/09 RMK AO2 CIG 006V013 P0000
14840KMKG MKG20000612152013006/12/00 15:20:31  5-MIN KMKG 122020Z 09009KT 7SM -RA BKN007 BKN011 OVC023 15/14 A3006 510 96 700 090/09 RMK AO2 CIG 005V010 P0001
14840KMKG MKG20000612152512606/12/00 15:25:31  5-MIN KMKG 122025Z 09010KT 6SM -RA BR BKN009 OVC021 15/14 A3006 500 96 700 090/10 RMK AO2 CIG 005V013 P0001
14840KMKG MKG20000612153012606/12/00 15:30:31  5-MIN KMKG 122030Z 08010KT 6SM -RA BR BKN007 OVC012 15/14 A3006 500 96 700 090/10 RMK AO2 CIG 005V009 P0002
14840KMKG MKG20000612153512506/12/00 15:35:31  5-MIN KMKG 122035Z 08011KT 5SM RA BR BKN007 OVC011 16/14 A3007 500 93 700 080/11 RMK AO2 CIG 005V009 P0002
14840KMKG MKG20000612154011906/12/00 15:40:31  5-MIN KMKG 122040Z 07009KT 6SM -RA BR OVC007 16/14 A3006 500 93 700 080/09 RMK AO2 CIG 005V012 P0002
14840KMKG MKG20000612154512306/12/00 15:45:31  5-MIN KMKG 122045Z 09009KT 8SM -RA BKN007 OVC011 16/15 A3007 500 96 700 090/09 RMK AO2 CIG 005V009 P0002
14840KMKG MKG20000612155014606/12/00 15:50:31  5-MIN KMKG 122050Z 08011KT 10SM -RA OVC009 16/14 A3006 500 93 700 090/11 RMK AO2 CIG 005V012 SLP179 P0002 60026 T01560144 58006
14840KMKG MKG20000612155515306/12/00 15:55:31  5-MIN KMKG 122055Z 08011KT 10SM -RA BKN009 OVC050 15/14 A3006 500 96 700 090/11 RMK AO2 CIG 005V012 SLP178 P0002 60026 T01500144 56020
14840KMKG MKG20000612160012406/12/00 16:00:31  5-MIN KMKG 122100Z 08009KT 10SM -RA BKN009 OVC019 15/14 A3006 500 96 700 080/09 RMK AO2 CIG 005V012 P0000
14840KMKG MKG20000612160512406/12/00 16:05:31  5-MIN KMKG 122105Z 07010KT 10SM -RA BKN009 OVC019 16/14 A3006 500 93 700 070/10 RMK AO2 CIG 005V012 P0001
14840KMKG MKG20000612161012306/12/00 16:10:31  5-MIN KMKG 122110Z 07011KT 8SM -RA BKN009 OVC020 15/14 A3005 510 96 700 070/11 RMK AO2 CIG 005V012 P0001
14840KMKG MKG20000612161512306/12/00 16:15:31  5-MIN KMKG 122115Z 08008KT 7SM -RA BKN009 OVC020 15/14 A3006 500 96 700 090/08 RMK AO2 CIG 006V012 P0002
14840KMKG MKG20000612162012506/12/00 16:20:31  5-MIN KMKG 122120Z 08007KT 6SM RA BR BKN009 OVC020 16/14 A3006 500 93 700 090/07 RMK AO2 CIG 006V012 P0003
14840KMKG MKG20000612162511806/12/00 16:25:31  5-MIN KMKG 122125Z 07008KT 5SM RA BR OVC009 16/14 A3006 510 93 700 080/08 RMK AO2 CIG 006V012 P0004
14840KMKG MKG20000612163014206/12/00 16:30:31  5-MIN KMKG 122130Z 08008KT 4SM RA BR BKN009 OVC020 16/14 A3006 500 93 700 080/08 RMK AO2 VIS 2 1/2 RWY 14 CIG 005V012 P0005
14840KMKG MKG20000612163514906/12/00 16:35:31  5-MIN KMKG 122135Z 08010KT 4SM RA BR BKN007 BKN012 OVC020 16/14 A3005 510 93 700 080/10 RMK AO2 VIS 2 1/2 RWY 14 CIG 005V009 P0006
14840KMKG MKG20000612164013206/12/00 16:40:31  5-MIN KMKG 122140Z 06011KT 4SM RA BR BKN007 BKN012 OVC020 16/14 A3004 520 93 700 070/11 RMK AO2 CIG 005V009 P0007
14840KMKG MKG20000612164513306/12/00 16:45:31  5-MIN KMKG 122145Z 08009KT 6SM -RA BR BKN007 BKN012 OVC020 15/14 A3004 520 96 700 080/09 RMK AO2 CIG 005V011 P0008
14840KMKG MKG20000612165013506/12/00 16:50:31  5-MIN KMKG 122150Z 08011KT 7SM -RA SCT007 BKN012 OVC020 15/14 A3005 510 96 700 080/11 RMK AO2 SLP174 P0008 T01500144
14840KMKG MKG20000612165515006/12/00 16:55:31  5-MIN KMKG 122155Z 08012KT 9SM -RA SCT007 BKN012 OVC020 15/14 A3004 520 96 700 090/12 RMK AO2 CIG 008 RWY 14 SLP171 P0008 T01500144
14840KMKG MKG20000612170013406/12/00 17:00:31  5-MIN KMKG 122200Z 10010KT 10SM -RA SCT007 BKN012 OVC020 15/14 A3004 520 96 700 100/10 RMK AO2 CIG 008 RWY 14 P0000
14840KMKG MKG20000612170511106/12/00 17:05:31  5-MIN KMKG 122205Z 09010KT 9SM -RA BKN009 OVC020 15/14 A3004 520 96 700 100/10 RMK AO2 P0001
14840KMKG MKG20000612171011806/12/00 17:10:31  5-MIN KMKG 122210Z 09010KT 9SM -RA BKN009 BKN012 OVC020 16/14 A3003 530 93 800 100/10 RMK AO2 P0001
14840KMKG MKG20000612171511206/12/00 17:15:31  5-MIN KMKG 122215Z 09013KT 10SM -RA SCT009 OVC020 16/15 A3003 530 96 800 090/13 RMK AO2 P0001
14840KMKG MKG20000612172011206/12/00 17:20:31  5-MIN KMKG 122220Z 08012KT 10SM -RA SCT009 OVC022 16/14 A3003 530 93 800 080/12 RMK AO2 P0001
14840KMKG MKG20000612172511806/12/00 17:25:31  5-MIN KMKG 122225Z 09009G17KT 10SM -RA SCT009 OVC022 16/15 A3004 520 96 800 090/09G17 RMK AO2 P0001
14840KMKG MKG20000612173013306/12/00 17:30:31  5-MIN KMKG 122230Z 09010KT 10SM BKN009 BKN012 OVC022 16/14 A3003 530 93 800 100/10 RMK AO2 RAE29 CIG 006V010 P0001
14840KMKG MKG20000612173512606/12/00 17:35:31  5-MIN KMKG 122235Z 09012KT 10SM BKN009 OVC022 16/14 A3003 530 93 800 100/12 RMK AO2 RAE29 CIG 006V012 P0001
14840KMKG MKG20000612174012606/12/00 17:40:31  5-MIN KMKG 122240Z 08011KT 10SM BKN009 OVC022 16/14 A3002 530 93 800 090/11 RMK AO2 RAE29 CIG 006V012 P0001
14840KMKG MKG20000612174513106/12/00 17:45:31  5-MIN KMKG 122245Z 08011KT 10SM -RA BKN009 BKN018 OVC022 16/15 A3002 530 96 800 090/11 RMK AO2 CIG 006V012 P0001
14840KMKG MKG20000612175014106/12/00 17:50:31  5-MIN KMKG 122250Z 07009KT 10SM -RA BKN009 OVC018 16/15 A3002 540 96 800 080/09 RMK AO2 CIG 006V012 SLP166 P0001 T01560150
14840KMKG MKG20000612175514106/12/00 17:55:31  5-MIN KMKG 122255Z 06008KT 10SM -RA BKN009 OVC018 16/15 A3003 530 93 800 060/08 RMK AO2 CIG 006V012 SLP170 P0001 T01610150
14840KMKG MKG20000612180011706/12/00 18:00:31  5-MIN KMKG 122300Z 07009KT 10SM -RA OVC009 16/15 A3004 520 93 800 080/09 RMK AO2 CIG 007V012 P0000
14840KMKG MKG20000612180511706/12/00 18:05:31  5-MIN KMKG 122305Z 08010KT 10SM -RA OVC009 16/15 A3004 520 96 800 090/10 RMK AO2 CIG 007V012 P0001
14840KMKG MKG20000612181012406/12/00 18:10:31  5-MIN KMKG 122310Z 07009KT 10SM -RA BKN009 OVC017 16/15 A3004 520 96 800 080/09 RMK AO2 CIG 007V012 P0001
14840KMKG MKG20000612181511706/12/00 18:15:31  5-MIN KMKG 122315Z 07012KT 10SM -RA OVC009 16/15 A3003 530 96 800 080/12 RMK AO2 CIG 007V012 P0001
14840KMKG MKG20000612182011706/12/00 18:20:31  5-MIN KMKG 122320Z 08008KT 10SM -RA OVC009 16/14 A3003 530 93 800 080/08 RMK AO2 CIG 007V012 P0001
14840KMKG MKG20000612182512606/12/00 18:25:31  5-MIN KMKG 122325Z 07008KT 10SM BKN009 OVC016 16/15 A3003 530 96 800 070/08 RMK AO2 RAE23 CIG 008V012 P0001
14840KMKG MKG20000612183012606/12/00 18:30:31  5-MIN KMKG 122330Z 07007KT 10SM BKN009 OVC018 16/15 A3003 530 96 800 080/07 RMK AO2 RAE23 CIG 007V013 P0001
14840KMKG MKG20000612183513306/12/00 18:35:31  5-MIN KMKG 122335Z 06006KT 10SM BKN009 BKN015 OVC020 16/15 A3003 530 93 800 060/06 RMK AO2 RAE23 CIG 007V012 P0001
14840KMKG MKG20000612184013306/12/00 18:40:31  5-MIN KMKG 122340Z 07008KT 10SM BKN009 BKN015 OVC020 16/15 A3003 530 93 800 070/08 RMK AO2 RAE23 CIG 007V012 P0001
14840KMKG MKG20000612184513306/12/00 18:45:31  5-MIN KMKG 122345Z 06011KT 10SM BKN009 BKN015 OVC020 16/15 A3003 530 93 800 070/11 RMK AO2 RAE23 CIG 007V012 P0001
14840KMKG MKG20000612185017406/12/00 18:50:31  5-MIN KMKG 122350Z 06011KT 10SM BKN009 BKN013 OVC045 16/15 A3002 540 93 800 070/11 RMK AO2 RAE23 CIG 007V012 SLP166 P0001 60036 T01610150 10161 20144 56020
14840KMKG MKG20000612185517406/12/00 18:55:31  5-MIN KMKG 122355Z 06009KT 10SM BKN009 BKN013 OVC045 16/15 A3002 540 93 800 060/09 RMK AO2 RAE23 CIG 007V012 SLP166 P0001 60036 T01610150 10161 20144 56012
14840KMKG MKG20000612190011406/12/00 19:00:31  5-MIN KMKG 130000Z 07010KT 10SM BKN009 OVC013 16/15 A3001 550 93 800 070/10 RMK AO2 CIG 006V012
14840KMKG MKG20000612190511406/12/00 19:05:31  5-MIN KMKG 130005Z 06010KT 10SM BKN009 OVC013 16/15 A3001 540 96 800 070/10 RMK AO2 CIG 006V010
14840KMKG MKG20000612191010906/12/00 19:10:31  5-MIN KMKG 130010Z 07009KT 10SM FEW007 BKN011 OVC019 16/14 A3002 540 93 800 070/09 RMK AO2
14840KMKG MKG20000612191511406/12/00 19:15:31  5-MIN KMKG 130015Z 08012KT 10SM BKN011 OVC019 16/14 A3001 540 93 800 080/12 RMK AO2 CIG 006V014
14840KMKG MKG20000612192011406/12/00 19:20:31  5-MIN KMKG 130020Z 07012KT 10SM BKN011 OVC019 16/14 A3002 540 93 800 080/12 RMK AO2 CIG 006V014
14840KMKG MKG20000612192511406/12/00 19:25:31  5-MIN KMKG 130025Z 08010KT 10SM BKN008 OVC019 16/14 A3002 540 93 800 090/10 RMK AO2 CIG 006V012
14840KMKG MKG20000612193011706/12/00 19:30:31  5-MIN KMKG 130030Z 08008KT 10SM SCT010 OVC019 16/14 A3002 540 93 800 080/08 RMK AO2 CIG 010 RWY 14
14840KMKG MKG20000612193510206/12/00 19:35:31  5-MIN KMKG 130035Z 09010KT 10SM SCT010 OVC019 16/14 A3001 540 93 800 090/10 RMK AO2
14840KMKG MKG20000612194010206/12/00 19:40:31  5-MIN KMKG 130040Z 08010KT 10SM SCT010 OVC019 16/14 A3001 550 93 800 080/10 RMK AO2
14840KMKG MKG20000612194510206/12/00 19:45:31  5-MIN KMKG 130045Z 09011KT 10SM FEW010 OVC019 16/14 A3001 550 93 800 090/11 RMK AO2
14840KMKG MKG20000612195011906/12/00 19:50:31  5-MIN KMKG 130050Z 08013KT 10SM FEW010 OVC021 16/14 A3000 560 93 800 090/13 RMK AO2 SLP159 T01560144
14840KMKG MKG20000612195511906/12/00 19:55:31  5-MIN KMKG 130055Z 08011KT 10SM FEW010 OVC021 16/14 A3000 560 93 800 080/11 RMK AO2 SLP157 T01560144
14840KMKG MKG20000612200010206/12/00 20:00:31  5-MIN KMKG 130100Z 09013KT 10SM FEW010 OVC021 16/14 A3000 560 93 800 090/13 RMK AO2
14840KMKG MKG20000612200509506/12/00 20:05:31  5-MIN KMKG 130105Z 08012KT 10SM OVC021 16/14 A3000 560 93 800 090/12 RMK AO2
14840KMKG MKG20000612201009506/12/00 20:10:31  5-MIN KMKG 130110Z 08013KT 10SM OVC018 16/14 A3000 560 93 800 090/13 RMK AO2
14840KMKG MKG20000612201509506/12/00 20:15:31  5-MIN KMKG 130115Z 09011KT 10SM OVC018 16/14 A3000 560 93 800 090/11 RMK AO2
14840KMKG MKG20000612202009506/12/00 20:20:31  5-MIN KMKG 130120Z 09010KT 10SM OVC018 16/14 A3000 560 93 800 090/10 RMK AO2
14840KMKG MKG20000612202509506/12/00 20:25:31  5-MIN KMKG 130125Z 08010KT 10SM OVC018 16/14 A3000 560 93 800 090/10 RMK AO2
14840KMKG MKG20000612203009506/12/00 20:30:31  5-MIN KMKG 130130Z 09010KT 10SM OVC018 16/14 A3000 560 93 800 090/10 RMK AO2
14840KMKG MKG20000612203509506/12/00 20:35:31  5-MIN KMKG 130135Z 08010KT 10SM OVC018 16/14 A3000 560 93 800 090/10 RMK AO2
14840KMKG MKG20000612204009506/12/00 20:40:31  5-MIN KMKG 130140Z 08010KT 10SM OVC016 16/14 A3000 560 93 800 090/10 RMK AO2
14840KMKG MKG20000612204509506/12/00 20:45:31  5-MIN KMKG 130145Z 08010KT 10SM OVC016 15/14 A3000 560 96 700 090/10 RMK AO2
14840KMKG MKG20000612205011206/12/00 20:50:31  5-MIN KMKG 130150Z 08010KT 10SM OVC016 15/14 A3000 560 96 700 080/10 RMK AO2 SLP158 T01500144
14840KMKG MKG20000612205511206/12/00 20:55:31  5-MIN KMKG 130155Z 07011KT 10SM OVC016 15/14 A3000 560 96 700 080/11 RMK AO2 SLP157 T01500144
14840KMKG MKG20000612210010206/12/00 21:00:31  5-MIN KMKG 130200Z 08009KT 10SM FEW008 OVC014 15/14 A3000 560 96 700 080/09 RMK AO2
14840KMKG MKG20000612210510206/12/00 21:05:31  5-MIN KMKG 130205Z 07009KT 10SM FEW008 OVC014 15/14 A3000 560 96 700 080/09 RMK AO2
14840KMKG MKG20000612211010106/12/00 21:10:31  5-MIN KMKG 130210Z 07008KT 8SM SCT008 OVC014 15/14 A3000 560 96 700 070/08 RMK AO2
14840KMKG MKG20000612211510106/12/00 21:15:31  5-MIN KMKG 130215Z 07008KT 7SM SCT008 OVC014 15/14 A3000 550 96 700 070/08 RMK AO2
14840KMKG MKG20000612212011606/12/00 21:20:31  5-MIN KMKG 130220Z 07008KT 7SM SCT008 OVC014 15/14 A3000 550 96 700 080/08 RMK AO2 CIG 008 RWY 14
14840KMKG MKG20000612212513206/12/00 21:25:31  5-MIN KMKG 130225Z 06009KT 7SM -RA SCT008 OVC014 15/14 A3000 560 96 700 070/09 RMK AO2 RAB24 CIG 008 RWY 14 P0000
14840KMKG MKG20000612213013206/12/00 21:30:31  5-MIN KMKG 130230Z 07009KT 8SM -RA SCT008 OVC014 15/14 A3000 560 96 700 070/09 RMK AO2 RAB24 CIG 008 RWY 14 P0000
14840KMKG MKG20000612213511806/12/00 21:35:31  5-MIN KMKG 130235Z 07009KT 10SM -RA SCT008 OVC014 15/14 A2999 570 96 700 080/09 RMK AO2 RAB24 P0000
14840KMKG MKG20000612214011706/12/00 21:40:31  5-MIN KMKG 130240Z 06010KT 10SM FEW008 OVC014 15/14 A2999 570 96 700 070/10 RMK AO2 RAB24E40 P0000
14840KMKG MKG20000612214511606/12/00 21:45:31  5-MIN KMKG 130245Z 08009KT 9SM SCT008 OVC014 15/14 A2999 570 96 700 080/09 RMK AO2 RAB24E40 P0000
14840KMKG MKG20000612215014506/12/00 21:50:31  5-MIN KMKG 130250Z 08008KT 9SM SCT008 OVC014 15/14 A2999 570 96 700 090/08 RMK AO2 RAB24E40 SLP154 P0000 60000 T01500144 56012
14840KMKG MKG20000612215515806/12/00 21:55:31  5-MIN KMKG 130255Z 08008KT 10SM BKN008 OVC014 15/14 A2999 570 96 700 080/08 RMK AO2 RAB24E40 CIG 005V010 SLP154 P0000 60000 T01500144 56011
14840KMKG MKG20000612220011406/12/00 22:00:31  5-MIN KMKG 130300Z 08010KT 10SM BKN008 OVC014 15/14 A2998 570 96 700 090/10 RMK AO2 CIG 005V010
14840KMKG MKG20000612220511406/12/00 22:05:31  5-MIN KMKG 130305Z 08007KT 10SM BKN008 OVC014 15/14 A2999 570 96 700 080/07 RMK AO2 CIG 005V010
14840KMKG MKG20000612221011406/12/00 22:10:31  5-MIN KMKG 130310Z 08009KT 10SM BKN008 OVC014 15/14 A2999 570 96 700 080/09 RMK AO2 CIG 005V010
14840KMKG MKG20000612221511406/12/00 22:15:31  5-MIN KMKG 130315Z 09009KT 10SM BKN008 OVC014 15/14 A2999 570 96 700 100/09 RMK AO2 CIG 005V010
14840KMKG MKG20000612222009506/12/00 22:20:31  5-MIN KMKG 130320Z 08008KT 10SM OVC008 15/14 A2999 570 96 700 090/08 RMK AO2
14840KMKG MKG20000612222509506/12/00 22:25:31  5-MIN KMKG 130325Z 08008KT 10SM OVC008 16/14 A2999 570 93 800 080/08 RMK AO2
14840KMKG MKG20000612223009506/12/00 22:30:31  5-MIN KMKG 130330Z 08008KT 10SM OVC008 16/14 A2999 570 93 800 080/08 RMK AO2
14840KMKG MKG20000612223509506/12/00 22:35:31  5-MIN KMKG 130335Z 08009KT 10SM OVC008 16/14 A2999 570 93 800 080/09 RMK AO2
14840KMKG MKG20000612224009506/12/00 22:40:31  5-MIN KMKG 130340Z 08008KT 10SM OVC008 16/14 A2998 570 93 800 090/08 RMK AO2
14840KMKG MKG20000612224509506/12/00 22:45:31  5-MIN KMKG 130345Z 08008KT 10SM OVC008 16/14 A2998 580 93 800 090/08 RMK AO2
14840KMKG MKG20000612225011206/12/00 22:50:31  5-MIN KMKG 130350Z 08008KT 10SM OVC008 16/14 A2998 580 93 800 090/08 RMK AO2 SLP151 T01560144
14840KMKG MKG20000612225514006/12/00 22:55:31  5-MIN KMKG 130355Z 08008KT 10SM -RA OVC008 16/14 A2998 580 93 800 090/08 RMK AO2 RAB52 CIG 007V013 SLP150 P0000 T01560144
14840KMKG MKG20000612230011706/12/00 23:00:31  5-MIN KMKG 130400Z 09008KT 10SM -RA OVC008 16/14 A2998 580 93 800 090/08 RMK AO2 CIG 006V013 P0000
14840KMKG MKG20000612230510706/12/00 23:05:31  5-MIN KMKG 130405Z 08007KT 10SM OVC008 16/14 A2997 580 93 800 090/07 RMK AO2 RAE05 P0000
14840KMKG MKG20000612231010706/12/00 23:10:31  5-MIN KMKG 130410Z 09009KT 10SM OVC008 16/14 A2997 590 93 800 090/09 RMK AO2 RAE05 P0000
14840KMKG MKG20000612231510706/12/00 23:15:31  5-MIN KMKG 130415Z 08009KT 10SM OVC008 16/14 A2997 590 93 800 090/09 RMK AO2 RAE05 P0000
14840KMKG MKG20000612232010706/12/00 23:20:31  5-MIN KMKG 130420Z 09009KT 10SM OVC008 16/14 A2996 590 93 800 090/09 RMK AO2 RAE05 P0000
14840KMKG MKG20000612232510706/12/00 23:25:31  5-MIN KMKG 130425Z 08007KT 10SM OVC008 16/14 A2996 590 93 800 080/07 RMK AO2 RAE05 P0000
14840KMKG MKG20000612233010706/12/00 23:30:31  5-MIN KMKG 130430Z 08006KT 10SM OVC008 16/14 A2996 590 93 800 090/06 RMK AO2 RAE05 P0000
14840KMKG MKG20000612233510706/12/00 23:35:31  5-MIN KMKG 130435Z 08006KT 10SM OVC008 16/14 A2996 590 93 800 090/06 RMK AO2 RAE05 P0000
14840KMKG MKG20000612234010706/12/00 23:40:31  5-MIN KMKG 130440Z 07007KT 10SM OVC008 16/14 A2996 600 93 800 080/07 RMK AO2 RAE05 P0000
14840KMKG MKG20000612234510706/12/00 23:45:31  5-MIN KMKG 130445Z 07008KT 10SM OVC008 16/14 A2995 600 93 800 080/08 RMK AO2 RAE05 P0000
14840KMKG MKG20000612235013406/12/00 23:50:31  5-MIN KMKG 130450Z 09006KT 10SM OVC006 16/14 A2996 600 93 800 090/06 RMK AO2 RAE05 SLP144 P0000 T01560144 401670139
14840KMKG MKG20000612235513406/12/00 23:55:31  5-MIN KMKG 130455Z 09006KT 10SM OVC006 16/14 A2996 600 93 800 100/06 RMK AO2 RAE05 SLP143 P0000 T01560144 401670139
14840KMKG MKG20000613000009706/13/00 00:00:31  5-MIN KMKG 130500Z 09006KT 10SM OVC006 16/14 A2995 600 93 800 090/06 RMK AO2 $
14840KMKG MKG20000613000509706/13/00 00:05:31  5-MIN KMKG 130505Z 09006KT 10SM OVC006 16/14 A2995 610 90 900 100/06 RMK AO2 $
14840KMKG MKG20000613001009706/13/00 00:10:31  5-MIN KMKG 130510Z 09008KT 10SM OVC006 16/14 A2994 610 93 900 090/08 RMK AO2 $
14840KMKG MKG20000613001509706/13/00 00:15:31  5-MIN KMKG 130515Z 09007KT 10SM OVC006 16/14 A2994 610 93 900 090/07 RMK AO2 $
14840KMKG MKG20000613002009706/13/00 00:20:31  5-MIN KMKG 130520Z 08006KT 10SM OVC006 16/14 A2994 610 93 900 090/06 RMK AO2 $
14840KMKG MKG20000613002509606/13/00 00:25:31  5-MIN KMKG 130525Z 09005KT 9SM OVC006 16/15 A2995 610 96 900 090/05 RMK AO2 $
14840KMKG MKG20000613003009606/13/00 00:30:31  5-MIN KMKG 130530Z 09007KT 7SM OVC004 16/15 A2994 610 96 900 090/07 RMK AO2 $
14840KMKG MKG20000613003509906/13/00 00:35:31  5-MIN KMKG 130535Z 08006KT 6SM BR OVC004 16/15 A2994 610 96 900 080/06 RMK AO2 $
14840KMKG MKG20000613004009906/13/00 00:40:31  5-MIN KMKG 130540Z 09007KT 5SM BR OVC004 16/15 A2995 610 96 900 100/07 RMK AO2 $
14840KMKG MKG20000613004509906/13/00 00:45:31  5-MIN KMKG 130545Z 09009KT 4SM BR OVC004 16/15 A2994 610 96 900 090/09 RMK AO2 $
14840KMKG MKG20000613005014006/13/00 00:50:31  5-MIN KMKG 130550Z 09007KT 4SM BR OVC004 16/15 A2994 610 96 900 100/07 RMK AO2 SLP139 60000 T01560150 10161 20150 56011 $
14840KMKG MKG20000613005514006/13/00 00:55:31  5-MIN KMKG 130555Z 08006KT 4SM BR OVC004 16/15 A2994 610 96 900 090/06 RMK AO2 SLP140 60000 T01560150 10161 20150 56014 $
14840KMKG MKG20000613010009906/13/00 01:00:31  5-MIN KMKG 130600Z 09006KT 3SM BR OVC004 16/15 A2994 610 96 900 090/06 RMK AO2 $
14840KMKG MKG20000613010509906/13/00 01:05:31  5-MIN KMKG 130605Z 08006KT 3SM BR OVC004 16/15 A2995 610 96 900 080/06 RMK AO2 $
14840KMKG MKG20000613011010306/13/00 01:10:31  5-MIN KMKG 130610Z 07004KT 2 1/2SM BR OVC004 16/15 A2995 600 96 800 070/04 RMK AO2 $
14840KMKG MKG20000613011511206/13/00 01:15:31  5-MIN KMKG 130615Z 07006KT 3SM BR OVC004 16/15 A2995 600 96 800 070/06 RMK AO2 VIS 2 RWY 14 $
14840KMKG MKG20000613012010306/13/00 01:20:31  5-MIN KMKG 130620Z 08006KT 2 1/2SM BR OVC004 16/15 A2995 600 96 800 080/06 RMK AO2 $
14840KMKG MKG20000613012510306/13/00 01:25:31  5-MIN KMKG 130625Z 06005KT 2 1/2SM BR OVC004 16/15 A2995 600 96 800 070/05 RMK AO2 $
14840KMKG MKG20000613013012006/13/00 01:30:31  5-MIN KMKG 130630Z 06006KT 2 1/2SM BR OVC004 16/15 A2995 600 96 800 070/06 RMK AO2 VIS 1 3/4 RWY 14 $
14840KMKG MKG20000613013509906/13/00 01:35:31  5-MIN KMKG 130635Z 07007KT 2SM BR OVC004 16/15 A2995 600 96 800 080/07 RMK AO2 $
14840KMKG MKG20000613014009906/13/00 01:40:31  5-MIN KMKG 130640Z 07005KT 2SM BR OVC004 16/15 A2996 600 96 800 080/05 RMK AO2 $
14840KMKG MKG20000613014510306/13/00 01:45:31  5-MIN KMKG 130645Z 07007KT 1 3/4SM BR OVC004 16/15 A2995 600 96 800 070/07 RMK AO2 $
14840KMKG MKG20000613015012006/13/00 01:50:31  5-MIN KMKG 130650Z 08007KT 1 1/2SM BR OVC004 16/15 A2995 600 96 800 090/07 RMK AO2 SLP142 T01560150 $
14840KMKG MKG20000613015512006/13/00 01:55:31  5-MIN KMKG 130655Z 08006KT 1 1/2SM BR OVC004 16/15 A2995 600 96 800 080/06 RMK AO2 SLP142 T01560150 $
14840KMKG MKG20000613020010306/13/00 02:00:31  5-MIN KMKG 130700Z 07006KT 1 1/2SM BR OVC004 16/15 A2995 610 96 900 080/06 RMK AO2 $
14840KMKG MKG20000613020510306/13/00 02:05:31  5-MIN KMKG 130705Z 08007KT 1 1/2SM BR OVC004 16/15 A2994 610 96 900 090/07 RMK AO2 $
14840KMKG MKG20000613021010306/13/00 02:10:31  5-MIN KMKG 130710Z 08007KT 1 1/2SM BR OVC002 16/15 A2994 610 96 900 080/07 RMK AO2 $
14840KMKG MKG20000613021510306/13/00 02:15:31  5-MIN KMKG 130715Z 08005KT 1 1/2SM BR OVC002 16/15 A2994 610 96 900 080/05 RMK AO2 $
14840KMKG MKG20000613022010306/13/00 02:20:31  5-MIN KMKG 130720Z 08006KT 1 1/2SM BR OVC002 16/15 A2994 610 96 900 090/06 RMK AO2 $
14840KMKG MKG20000613022510306/13/00 02:25:31  5-MIN KMKG 130725Z 07006KT 1 3/4SM BR OVC002 16/15 A2994 610 96 900 080/06 RMK AO2 $
14840KMKG MKG20000613023010306/13/00 02:30:31  5-MIN KMKG 130730Z 08005KT 1 3/4SM BR OVC002 16/15 A2994 610 96 900 090/05 RMK AO2 $
14840KMKG MKG20000613023509906/13/00 02:35:31  5-MIN KMKG 130735Z 08006KT 2SM BR OVC002 16/15 A2994 610 96 900 090/06 RMK AO2 $
14840KMKG MKG20000613024009906/13/00 02:40:31  5-MIN KMKG 130740Z 08006KT 2SM BR OVC002 16/15 A2993 620 96 900 090/06 RMK AO2 $
14840KMKG MKG20000613024509906/13/00 02:45:31  5-MIN KMKG 130745Z 08005KT 2SM BR OVC002 16/15 A2993 620 96 900 090/05 RMK AO2 $
14840KMKG MKG20000613025011606/13/00 02:50:31  5-MIN KMKG 130750Z 09007KT 2SM BR OVC002 16/15 A2993 620 96 900 090/07 RMK AO2 SLP135 T01560150 $
14840KMKG MKG20000613025513706/13/00 02:55:31  5-MIN KMKG 130755Z 09006KT 2 1/2SM BR OVC002 16/15 A2993 620 96 900 090/06 RMK AO2 VIS 1 3/4 RWY 14 SLP135 T01560150 $
14840KMKG MKG20000613030012006/13/00 03:00:31  5-MIN KMKG 130800Z 09005KT 2 1/2SM BR OVC002 16/15 A2993 620 96 900 090/05 RMK AO2 VIS 1 3/4 RWY 14 $
14840KMKG MKG20000613030512006/13/00 03:05:31  5-MIN KMKG 130805Z 09005KT 2 1/2SM BR OVC002 16/15 A2993 620 96 900 090/05 RMK AO2 VIS 1 3/4 RWY 14 $
14840KMKG MKG20000613031010306/13/00 03:10:31  5-MIN KMKG 130810Z 09007KT 2 1/2SM BR OVC002 16/15 A2993 620 96 900 100/07 RMK AO2 $
14840KMKG MKG20000613031512006/13/00 03:15:31  5-MIN KMKG 130815Z 09005KT 2 1/2SM BR OVC002 16/15 A2993 620 96 900 100/05 RMK AO2 VIS 1 3/4 RWY 14 $
14840KMKG MKG20000613032012006/13/00 03:20:31  5-MIN KMKG 130820Z 09005KT 2 1/2SM BR OVC002 16/15 A2993 620 96 900 100/05 RMK AO2 VIS 1 1/2 RWY 14 $
14840KMKG MKG20000613032509906/13/00 03:25:31  5-MIN KMKG 130825Z 09004KT 2SM BR OVC002 16/15 A2993 630 96 900 100/04 RMK AO2 $
14840KMKG MKG20000613033011606/13/00 03:30:31  5-MIN KMKG 130830Z 09005KT 2SM BR OVC002 16/15 A2992 630 96 900 100/05 RMK AO2 VIS 1 1/4 RWY 14 $
14840KMKG MKG20000613033510306/13/00 03:35:31  5-MIN KMKG 130835Z 08004KT 1 3/4SM BR OVC002 16/15 A2992 630 96 900 080/04 RMK AO2 $
14840KMKG MKG20000613034010306/13/00 03:40:31  5-MIN KMKG 130840Z 09005KT 1 1/2SM BR OVC002 16/15 A2992 630 96 900 090/05 RMK AO2 $
14840KMKG MKG20000613034510306/13/00 03:45:31  5-MIN KMKG 130845Z 09005KT 1 1/2SM BR OVC002 16/15 A2991 640 96 900 090/05 RMK AO2 $
14840KMKG MKG20000613035012606/13/00 03:50:31  5-MIN KMKG 130850Z 09005KT 1 1/4SM BR OVC002 16/15 A2991 640 96 900 090/05 RMK AO2 SLP129 T01560150 56014 $
14840KMKG MKG20000613035512606/13/00 03:55:31  5-MIN KMKG 130855Z 10003KT 1 1/4SM BR OVC002 16/15 A2991 640 96 900 100/03 RMK AO2 SLP128 T01560150 58011 $
14840KMKG MKG20000613040010306/13/00 04:00:31  5-MIN KMKG 130900Z 10003KT 1 1/4SM BR OVC002 16/15 A2991 640 96 900 100/03 RMK AO2 $
14840KMKG MKG20000613040510306/13/00 04:05:31  5-MIN KMKG 130905Z 10004KT 1 1/4SM BR OVC002 16/15 A2991 640 96 900 110/04 RMK AO2 $
14840KMKG MKG20000613041010406/13/00 04:10:31  5-MIN KMKG 130910Z 00000KT 1 1/4SM BR OVC002 16/16 A2991 640 100 900 000/00 RMK AO2 $
14840KMKG MKG20000613041510006/13/00 04:15:31  5-MIN KMKG 130915Z 00000KT 1SM BR OVC002 16/16 A2991 640 100 900 000/00 RMK AO2 $
14840KMKG MKG20000613042009906/13/00 04:20:31  5-MIN KMKG 130920Z 07003KT 1SM BR OVC002 16/15 A2991 640 96 900 070/03 RMK AO2 $
14840KMKG MKG20000613042510206/13/00 04:25:31  5-MIN KMKG 130925Z 07003KT 3/4SM BR OVC002 16/16 A2991 640 100 900 080/03 RMK AO2 $
14840KMKG MKG20000613043010106/13/00 04:30:31  5-MIN KMKG 130930Z 07003KT 3/4SM BR OVC002 16/15 A2991 640 96 900 080/03 RMK AO2 $
14840KMKG MKG20000613043510206/13/00 04:35:31  5-MIN KMKG 130935Z 08004KT 3/4SM BR OVC002 16/16 A2991 640 100 900 090/04 RMK AO2 $
14840KMKG MKG20000613044010106/13/00 04:40:31  5-MIN KMKG 130940Z 10003KT 3/4SM BR OVC002 16/15 A2992 630 96 900 100/03 RMK AO2 $
14840KMKG MKG20000613044510106/13/00 04:45:31  5-MIN KMKG 130945Z 10003KT 3/4SM BR OVC002 16/15 A2992 640 96 900 110/03 RMK AO2 $
14840KMKG MKG20000613045011806/13/00 04:50:31  5-MIN KMKG 130950Z 10004KT 1/2SM FG VV001 16/16 A2991 640 100 900 100/04 RMK AO2 SLP129 T01560156 $
14840KMKG MKG20000613045513006/13/00 04:55:31  5-MIN KMKG 130955Z 06004KT 1/4SM FG VV001 16/16 A2991 640 100 900 060/04 RMK AO2 SFC VIS 1/2 SLP128 T01560156 $
14840KMKG MKG20000613050011306/13/00 05:00:31  5-MIN KMKG 131000Z 06004KT 1/4SM FG VV001 16/16 A2991 640 100 900 060/04 RMK AO2 SFC VIS 1/2 $
14840KMKG MKG20000613050511206/13/00 05:05:31  5-MIN KMKG 131005Z 07003KT 1/4SM FG VV001 16/15 A2991 640 96 900 070/03 RMK AO2 SFC VIS 1/2 $
14840KMKG MKG20000613051011206/13/00 05:10:31  5-MIN KMKG 131010Z 08003KT 1/4SM FG VV001 16/15 A2991 640 96 900 080/03 RMK AO2 SFC VIS 1/2 $
14840KMKG MKG20000613051511306/13/00 05:15:31  5-MIN KMKG 131015Z 08003KT 1/4SM FG VV001 16/16 A2991 640 100 900 080/03 RMK AO2 SFC VIS 1/2 $
14840KMKG MKG20000613052011306/13/00 05:20:31  5-MIN KMKG 131020Z 06003KT 1/4SM FG VV001 16/16 A2991 640 100 900 060/03 RMK AO2 SFC VIS 1/2 $
14840KMKG MKG20000613052511306/13/00 05:25:31  5-MIN KMKG 131025Z 04003KT 1/4SM FG VV001 16/16 A2992 630 100 900 040/03 RMK AO2 SFC VIS 1/2 $
14840KMKG MKG20000613053011306/13/00 05:30:31  5-MIN KMKG 131030Z 04003KT 1/4SM FG VV001 16/16 A2992 630 100 900 040/03 RMK AO2 SFC VIS 1/2 $
14840KMKG MKG20000613053511206/13/00 05:35:31  5-MIN KMKG 131035Z 00000KT 1/4SM FG VV001 16/15 A2992 630 96 900 000/00 RMK AO2 SFC VIS 1/2 $
14840KMKG MKG20000613054010106/13/00 05:40:31  5-MIN KMKG 131040Z 04003KT 1/4SM FG VV001 16/16 A2992 630 100 900 040/03 RMK AO2 $
14840KMKG MKG20000613054510106/13/00 05:45:31  5-MIN KMKG 131045Z 04003KT 1/4SM FG VV001 16/16 A2992 630 100 900 040/03 RMK AO2 $
14840KMKG MKG20000613055013006/13/00 05:50:31  5-MIN KMKG 131050Z 05003KT 1/4SM FG VV001 16/16 A2992 630 100 900 060/03 RMK AO2 TWR VIS 1/4 SLP132 T01560156 $
14840KMKG MKG20000613055513006/13/00 05:55:31  5-MIN KMKG 131055Z 08003KT 1/4SM FG VV001 16/16 A2992 630 100 900 080/03 RMK AO2 TWR VIS 1/4 SLP132 T01560156 $
14840KMKG MKG20000613060011306/13/00 06:00:31  5-MIN KMKG 131100Z 07003KT 1/4SM FG VV001 16/16 A2992 630 100 900 070/03 RMK AO2 TWR VIS 1/4 $
14840KMKG MKG20000613060510106/13/00 06:05:31  5-MIN KMKG 131105Z 08003KT 1/4SM FG VV001 16/16 A2992 630 100 900 080/03 RMK AO2 $
14840KMKG MKG20000613061010106/13/00 06:10:31  5-MIN KMKG 131110Z 06005KT 1/4SM FG VV001 16/16 A2992 630 100 900 070/05 RMK AO2 $
14840KMKG MKG20000613061510106/13/00 06:15:31  5-MIN KMKG 131115Z 07004KT 1/4SM FG VV001 16/16 A2992 630 100 900 080/04 RMK AO2 $
14840KMKG MKG20000613062010106/13/00 06:20:31  5-MIN KMKG 131120Z 09004KT 1/4SM FG VV001 16/16 A2992 630 100 900 090/04 RMK AO2 $
14840KMKG MKG20000613062510106/13/00 06:25:31  5-MIN KMKG 131125Z 09006KT 1/4SM FG VV001 16/16 A2992 630 100 900 090/06 RMK AO2 $
14840KMKG MKG20000613063010106/13/00 06:30:31  5-MIN KMKG 131130Z 10004KT 1/4SM FG VV001 16/16 A2992 630 100 900 100/04 RMK AO2 $
14840KMKG MKG20000613063510106/13/00 06:35:31  5-MIN KMKG 131135Z 09004KT 1/4SM FG VV001 16/16 A2992 630 100 900 100/04 RMK AO2 $
14840KMKG MKG20000613064010106/13/00 06:40:31  5-MIN KMKG 131140Z 11004KT 1/4SM FG VV001 16/16 A2992 630 100 900 110/04 RMK AO2 $
14840KMKG MKG20000613064511306/13/00 06:45:31  5-MIN KMKG 131145Z 12004KT 1/4SM FG VV001 16/16 A2992 630 100 900 130/04 RMK AO2 SFC VIS 1/2 $
14840KMKG MKG20000613065015406/13/00 06:50:31  5-MIN KMKG 131150Z 13004KT 1/4SM FG VV001 16/16 A2992 630 100 900 140/04 RMK AO2 SFC VIS 1/2 SLP132 70056 T01560156 10156 20156 58011 $
14840KMKG MKG20000613065515506/13/00 06:55:31  5-MIN KMKG 131155Z 12004KT 1/4SM FG OVC001 16/16 A2992 630 100 900 130/04 RMK AO2 SFC VIS 1/2 SLP132 70056 T01560156 10156 20156 52003 $
14840KMKG MKG20000613070011406/13/00 07:00:31  5-MIN KMKG 131200Z 12003KT 1/4SM FG OVC001 16/16 A2992 630 100 900 120/03 RMK AO2 SFC VIS 1/2 $
14840KMKG MKG20000613070511406/13/00 07:05:31  5-MIN KMKG 131205Z 10004KT 1/4SM FG OVC001 16/16 A2992 630 100 900 110/04 RMK AO2 SFC VIS 1/2 $
14840KMKG MKG20000613071011406/13/00 07:10:31  5-MIN KMKG 131210Z 11003KT 1/4SM FG OVC001 16/16 A2992 630 100 900 110/03 RMK AO2 SFC VIS 1/2 $
14840KMKG MKG20000613071510106/13/00 07:15:31  5-MIN KMKG 131215Z 00000KT 1/4SM FG OVC001 16/16 A2992 630 96 900 000/00 RMK AO2 $
14840KMKG MKG20000613072009906/13/00 07:20:31  5-MIN KMKG 131220Z 10003KT 1/4SM FG VV001 16/16 A2992 630 100 900 110/03 RMK AO2
14840KMKG MKG20000613072511106/13/00 07:25:31  5-MIN KMKG 131225Z 13003KT 1/4SM FG VV001 16/16 A2993 630 100 900 130/03 RMK AO2 SFC VIS 1/2
14840KMKG MKG20000613073011106/13/00 07:30:31  5-MIN KMKG 131230Z VRB03KT 1/4SM FG VV001 16/16 A2993 620 100 900 VRB/03 RMK AO2 SFC VIS 1/2
14840KMKG MKG20000613073511206/13/00 07:35:31  5-MIN KMKG 131235Z 14003KT 1/4SM FG OVC001 16/16 A2992 630 100 900 150/03 RMK AO2 SFC VIS 1/2
14840KMKG MKG20000613074012706/13/00 07:40:31  5-MIN KMKG 131240Z 00000KT 1/4SM -RA FG VV001 16/16 A2992 630 100 900 000/00 RMK AO2 SFC VIS 1/2 RAB36 P0000
14840KMKG MKG20000613074512706/13/00 07:45:31  5-MIN KMKG 131245Z 00000KT 1/4SM -RA FG VV001 16/16 A2993 620 100 900 000/00 RMK AO2 SFC VIS 1/2 RAB36 P0000
14840KMKG MKG20000613075014306/13/00 07:50:31  5-MIN KMKG 131250Z 00000KT 1/4SM FG VV001 16/16 A2993 620 100 900 000/00 RMK AO2 SFC VIS 1/2 RAB36E46 SLP134 P0000 T01610161
14840KMKG MKG20000613075513106/13/00 07:55:31  5-MIN KMKG 131255Z 00000KT 1/4SM FG VV001 16/16 A2993 620 100 900 000/00 RMK AO2 RAB36E46 SLP135 P0000 T01610161
14840KMKG MKG20000613080009906/13/00 08:00:31  5-MIN KMKG 131300Z 00000KT 1/4SM FG VV001 16/16 A2993 620 100 900 000/00 RMK AO2
14840KMKG MKG20000613080510006/13/00 08:05:31  5-MIN KMKG 131305Z 00000KT 1/4SM FG VV001 17/17 A2994 610 100 1000 000/00 RMK AO2
14840KMKG MKG20000613081010006/13/00 08:10:31  5-MIN KMKG 131310Z 00000KT 1/4SM FG VV001 17/17 A2994 610 100 1000 000/00 RMK AO2
14840KMKG MKG20000613081510206/13/00 08:15:31  5-MIN KMKG 131315Z 00000KT 1/4SM FG VV001 17/17 A2994 610 100 1000 000/00 RMK AO2 $
14840KMKG MKG20000613082010206/13/00 08:20:31  5-MIN KMKG 131320Z 19004KT 1/4SM FG VV001 17/17 A2994 610 100 1000 190/04 RMK AO2 $
14840KMKG MKG20000613082511406/13/00 08:25:31  5-MIN KMKG 131325Z 21005KT 1/4SM FG VV001 17/17 A2994 610 100 1000 210/05 RMK AO2 SFC VIS 1/2 $
14840KMKG MKG20000613083011706/13/00 08:30:31  5-MIN KMKG 131330Z 17005KT 1/4SM BR OVC001 17/17 A2994 610 100 1000 180/05 RMK AO2 SFC VIS 1 1/4 $
14840KMKG MKG20000613083511706/13/00 08:35:31  5-MIN KMKG 131335Z 18005KT 3/4SM BR OVC001 17/17 A2994 610 100 1000 180/05 RMK AO2 SFC VIS 1 3/4 $
14840KMKG MKG20000613084011606/13/00 08:40:31  5-MIN KMKG 131340Z 19004KT 3/4SM BR OVC001 16/16 A2994 610 100 900 200/04 RMK AO2 SFC VIS 1 3/4 $
14840KMKG MKG20000613084511706/13/00 08:45:31  5-MIN KMKG 131345Z 23004KT 3/4SM BR OVC001 17/17 A2994 610 100 1000 230/04 RMK AO2 SFC VIS 1 3/4 $
14840KMKG MKG20000613085013406/13/00 08:50:31  5-MIN KMKG 131350Z 20004KT 3/4SM BR OVC001 17/17 A2995 610 100 1000 200/04 RMK AO2 SFC VIS 1 3/4 SLP140 T01670167 $
14840KMKG MKG20000613085511706/13/00 08:55:31  5-MIN KMKG 131355Z 20004KT 2SM BR OVC001 16/16 A2994 610 100 900 210/04 RMK AO2 SLP139 T01610161 $
14840KMKG MKG20000613090011006/13/00 09:00:31  5-MIN KMKG 131400Z 21005KT 2SM BR OVC001 16/16 A2995 610 100 900 210/05 RMK AO2 SFC VIS 4 $
14840KMKG MKG20000613090511006/13/00 09:05:31  5-MIN KMKG 131405Z 20006KT 2SM BR OVC001 16/16 A2995 610 100 900 210/06 RMK AO2 SFC VIS 5 $
14840KMKG MKG20000613091011006/13/00 09:10:31  5-MIN KMKG 131410Z 22008KT 2SM BR OVC001 16/16 A2995 610 100 900 230/08 RMK AO2 SFC VIS 6 $
14840KMKG MKG20000613091510706/13/00 09:15:31  5-MIN KMKG 131415Z 22005KT 2SM OVC003 16/16 A2994 610 100 900 230/05 RMK AO2 SFC VIS 7 $
14840KMKG MKG20000613092011006/13/00 09:20:31  5-MIN KMKG 131420Z 22005KT 2SM BR OVC003 16/16 A2994 610 100 900 220/05 RMK AO2 SFC VIS 7 $
14840KMKG MKG20000613092511006/13/00 09:25:31  5-MIN KMKG 131425Z 22007KT 3SM BR OVC003 16/16 A2995 610 100 900 220/07 RMK AO2 SFC VIS 8 $
14840KMKG MKG20000613093010906/13/00 09:30:31  5-MIN KMKG 131430Z 22006KT 3SM BR OVC003 16/16 A2995 600 96 900 220/06 RMK AO2 SFC VIS 9 $
14840KMKG MKG20000613093511006/13/00 09:35:31  5-MIN KMKG 131435Z 21008KT 3SM BR OVC003 16/16 A2995 600 96 900 210/08 RMK AO2 SFC VIS 10 $
14840KMKG MKG20000613094010706/13/00 09:40:31  5-MIN KMKG 131440Z 21009KT 3SM BR OVC003 16/16 A2995 600 96 900 210/09 RMK AO2 SFC VIS 9
14840KMKG MKG20000613094510806/13/00 09:45:31  5-MIN KMKG 131445Z 20008KT 3SM BR OVC003 16/16 A2995 600 100 800 210/08 RMK AO2 SFC VIS 8
14840KMKG MKG20000613095013706/13/00 09:50:31  5-MIN KMKG 131450Z 21007KT 3SM BR OVC003 16/16 A2995 600 100 800 220/07 RMK AO2 SFC VIS 7 SLP141 60000 T01560156 52003
14840KMKG MKG20000613095514106/13/00 09:55:31  5-MIN KMKG 131455Z 22005KT 2 1/2SM BR OVC003 16/16 A2995 610 100 900 220/05 RMK AO2 SFC VIS 6 SLP140 60000 T01560156 51008
14840KMKG MKG20000613100011206/13/00 10:00:31  5-MIN KMKG 131500Z 22005KT 2 1/2SM BR OVC003 16/16 A2994 610 100 900 230/05 RMK AO2 SFC VIS 6
14840KMKG MKG20000613100510806/13/00 10:05:31  5-MIN KMKG 131505Z 21004KT 2 1/2SM OVC003 16/16 A2993 620 96 900 210/04 RMK AO2 SFC VIS 7
14840KMKG MKG20000613101010906/13/00 10:10:31  5-MIN KMKG 131510Z 22005KT 2 1/2SM OVC003 16/16 A2994 620 100 900 220/05 RMK AO2 SFC VIS 8
14840KMKG MKG20000613101510806/13/00 10:15:31  5-MIN KMKG 131515Z 22005KT 2 1/2SM OVC003 16/16 A2993 620 96 900 220/05 RMK AO2 SFC VIS 9
14840KMKG MKG20000613102009506/13/00 10:20:31  5-MIN KMKG 131520Z 22004KT 9SM OVC003 16/16 A2993 620 100 900 220/04 RMK AO2
14840KMKG MKG20000613102509606/13/00 10:25:31  5-MIN KMKG 131525Z 22005KT 10SM OVC003 16/16 A2993 620 100 900 230/05 RMK AO2
14840KMKG MKG20000613103010806/13/00 10:30:31  5-MIN KMKG 131530Z 22004KT 10SM OVC005 17/16 A2993 620 93 1000 220/04 RMK AO2 CIG 002V007
14840KMKG MKG20000613103510806/13/00 10:35:31  5-MIN KMKG 131535Z 22006KT 10SM OVC005 17/16 A2994 620 96 1000 230/06 RMK AO2 CIG 003V007
14840KMKG MKG20000613104010806/13/00 10:40:31  5-MIN KMKG 131540Z 24006KT 10SM OVC005 17/16 A2994 610 96 1000 240/06 RMK AO2 CIG 003V007
14840KMKG MKG20000613104510806/13/00 10:45:31  5-MIN KMKG 131545Z 24005KT 10SM OVC005 17/16 A2994 610 93 1100 250/05 RMK AO2 CIG 003V007
14840KMKG MKG20000613105011306/13/00 10:50:31  5-MIN KMKG 131550Z 23006KT 10SM OVC005 17/16 A2994 610 93 1100 230/06 RMK AO2 SLP138 T01720161
14840KMKG MKG20000613105511306/13/00 10:55:31  5-MIN KMKG 131555Z 24006KT 10SM OVC005 17/16 A2995 610 93 1000 240/06 RMK AO2 SLP140 T01720161
14840KMKG MKG20000613110009606/13/00 11:00:31  5-MIN KMKG 131600Z 23006KT 10SM OVC005 17/16 A2995 610 93 1000 230/06 RMK AO2
14840KMKG MKG20000613110509606/13/00 11:05:31  5-MIN KMKG 131605Z 23007KT 10SM OVC005 17/16 A2995 600 96 1000 230/07 RMK AO2
14840KMKG MKG20000613111009606/13/00 11:10:31  5-MIN KMKG 131610Z 22009KT 10SM OVC005 17/16 A2996 600 96 1000 220/09 RMK AO2
14840KMKG MKG20000613111509606/13/00 11:15:31  5-MIN KMKG 131615Z 23007KT 10SM OVC005 17/16 A2995 600 93 1000 230/07 RMK AO2
14840KMKG MKG20000613112009606/13/00 11:20:31  5-MIN KMKG 131620Z 22007KT 10SM OVC005 17/16 A2996 600 93 1000 230/07 RMK AO2
14840KMKG MKG20000613112509506/13/00 11:25:31  5-MIN KMKG 131625Z 22007KT 10SM OVC005 16/16 A2996 590 96 900 220/07 RMK AO2
14840KMKG MKG20000613113009506/13/00 11:30:31  5-MIN KMKG 131630Z 22008KT 10SM OVC005 16/15 A2996 590 93 900 220/08 RMK AO2
14840KMKG MKG20000613113509406/13/00 11:35:31  5-MIN KMKG 131635Z 22008KT 9SM OVC005 16/15 A2996 590 93 900 230/08 RMK AO2
14840KMKG MKG20000613114009406/13/00 11:40:31  5-MIN KMKG 131640Z 24008KT 8SM OVC005 16/15 A2997 590 93 900 240/08 RMK AO2
14840KMKG MKG20000613114509406/13/00 11:45:31  5-MIN KMKG 131645Z 24009KT 7SM OVC005 16/15 A2997 590 96 800 240/09 RMK AO2
14840KMKG MKG20000613115011406/13/00 11:50:31  5-MIN KMKG 131650Z 25007KT 6SM BR OVC005 16/15 A2997 590 96 800 250/07 RMK AO2 SLP147 T01560150
14840KMKG MKG20000613115511106/13/00 11:55:31  5-MIN KMKG 131655Z 24008KT 7SM OVC005 16/15 A2997 590 93 900 250/08 RMK AO2 SLP148 T01610150
14840KMKG MKG20000613120009406/13/00 12:00:31  5-MIN KMKG 131700Z 25008KT 7SM OVC005 16/15 A2997 590 96 800 250/08 RMK AO2
14840KMKG MKG20000613120509406/13/00 12:05:31  5-MIN KMKG 131705Z 26009KT 8SM OVC005 16/15 A2997 590 96 800 260/09 RMK AO2
14840KMKG MKG20000613121009506/13/00 12:10:31  5-MIN KMKG 131710Z 28007KT 10SM OVC005 16/15 A2997 590 96 800 280/07 RMK AO2
14840KMKG MKG20000613121509506/13/00 12:15:31  5-MIN KMKG 131715Z 27005KT 10SM OVC005 16/15 A2997 590 93 900 270/05 RMK AO2
14840KMKG MKG20000613122009506/13/00 12:20:31  5-MIN KMKG 131720Z 25006KT 10SM OVC005 16/15 A2997 580 93 900 250/06 RMK AO2
14840KMKG MKG20000613122509506/13/00 12:25:31  5-MIN KMKG 131725Z 25007KT 10SM OVC005 16/14 A2997 590 93 800 260/07 RMK AO2
14840KMKG MKG20000613123009506/13/00 12:30:31  5-MIN KMKG 131730Z 27007KT 10SM OVC005 16/15 A2996 590 96 800 270/07 RMK AO2
14840KMKG MKG20000613123509506/13/00 12:35:31  5-MIN KMKG 131735Z 28005KT 10SM OVC005 16/15 A2996 590 93 900 280/05 RMK AO2
14840KMKG MKG20000613124009506/13/00 12:40:31  5-MIN KMKG 131740Z 26004KT 10SM OVC005 16/15 A2996 600 93 900 270/04 RMK AO2
14840KMKG MKG20000613124509506/13/00 12:45:31  5-MIN KMKG 131745Z 26004KT 10SM OVC005 16/15 A2995 600 93 900 260/04 RMK AO2
14840KMKG MKG20000613125013706/13/00 12:50:31  5-MIN KMKG 131750Z 28004KT 10SM OVC005 17/15 A2995 610 90 1000 280/04 RMK AO2 SLP140 60000 T01670150 10172 20156 51008
14840KMKG MKG20000613125514406/13/00 12:55:31  5-MIN KMKG 131755Z VRB04KT 10SM OVC005 17/16 A2994 610 90 1100 VRB/04 RMK AO2 PRESFR SLP138 60000 T01720156 10172 20156 58002
14840KMKG MKG20000613130010306/13/00 13:00:31  5-MIN KMKG 131800Z 28003KT 10SM OVC007 17/16 A2993 620 90 1100 290/03 RMK AO2 PRESFR
14840KMKG MKG20000613130510306/13/00 13:05:31  5-MIN KMKG 131805Z 35004KT 10SM OVC007 18/16 A2992 630 87 1100 360/04 RMK AO2 PRESFR
14840KMKG MKG20000613131009606/13/00 13:10:31  5-MIN KMKG 131810Z 34003KT 10SM OVC007 18/16 A2992 630 84 1200 340/03 RMK AO2
14840KMKG MKG20000613131509606/13/00 13:15:31  5-MIN KMKG 131815Z 00000KT 10SM OVC007 18/16 A2993 620 87 1100 000/00 RMK AO2
14840KMKG MKG20000613132009606/13/00 13:20:31  5-MIN KMKG 131820Z 00000KT 10SM OVC007 18/16 A2992 630 87 1100 000/00 RMK AO2
14840KMKG MKG20000613132509606/13/00 13:25:31  5-MIN KMKG 131825Z 07003KT 10SM OVC007 18/16 A2992 640 84 1200 070/03 RMK AO2
14840KMKG MKG20000613133009606/13/00 13:30:31  5-MIN KMKG 131830Z 00000KT 10SM OVC007 18/16 A2991 640 87 1200 000/00 RMK AO2
14840KMKG MKG20000613133509606/13/00 13:35:31  5-MIN KMKG 131835Z 00000KT 10SM OVC007 18/16 A2991 640 84 1200 000/00 RMK AO2
14840KMKG MKG20000613134010306/13/00 13:40:31  5-MIN KMKG 131840Z 13005KT 10SM OVC009 18/16 A2990 650 87 1200 130/05 RMK AO2 PRESFR
14840KMKG MKG20000613134510306/13/00 13:45:31  5-MIN KMKG 131845Z 15007KT 10SM OVC009 19/17 A2989 660 87 1300 150/07 RMK AO2 PRESFR
14840KMKG MKG20000613135012006/13/00 13:50:31  5-MIN KMKG 131850Z 14010KT 10SM OVC009 19/17 A2988 670 87 1300 140/10 RMK AO2 PRESFR SLP116 T01890167
14840KMKG MKG20000613135512006/13/00 13:55:31  5-MIN KMKG 131855Z 14011KT 10SM OVC009 19/17 A2986 680 87 1300 150/11 RMK AO2 PRESFR SLP111 T01890167
14840KMKG MKG20000613140009606/13/00 14:00:31  5-MIN KMKG 131900Z 13013KT 10SM OVC009 19/17 A2987 680 87 1300 130/13 RMK AO2
14840KMKG MKG20000613140509606/13/00 14:05:31  5-MIN KMKG 131905Z 15008KT 10SM OVC009 19/16 A2987 680 84 1300 150/08 RMK AO2
14840KMKG MKG20000613141009606/13/00 14:10:31  5-MIN KMKG 131910Z 13009KT 10SM OVC009 18/17 A2988 670 90 1300 130/09 RMK AO2
14840KMKG MKG20000613141509606/13/00 14:15:31  5-MIN KMKG 131915Z 15007KT 10SM OVC009 18/17 A2988 670 90 1300 150/07 RMK AO2
14840KMKG MKG20000613142009606/13/00 14:20:31  5-MIN KMKG 131920Z 16006KT 10SM OVC009 18/17 A2988 670 90 1300 160/06 RMK AO2
14840KMKG MKG20000613142509606/13/00 14:25:31  5-MIN KMKG 131925Z 19008KT 10SM OVC009 18/17 A2989 660 90 1200 190/08 RMK AO2
14840KMKG MKG20000613143009506/13/00 14:30:31  5-MIN KMKG 131930Z 18007KT 9SM OVC009 18/17 A2989 650 90 1200 180/07 RMK AO2
14840KMKG MKG20000613143509506/13/00 14:35:31  5-MIN KMKG 131935Z 18008KT 9SM OVC009 19/17 A2989 660 87 1300 190/08 RMK AO2
14840KMKG MKG20000613144009506/13/00 14:40:31  5-MIN KMKG 131940Z 19009KT 9SM OVC009 19/17 A2989 660 90 1300 200/09 RMK AO2
14840KMKG MKG20000613144509506/13/00 14:45:31  5-MIN KMKG 131945Z 20007KT 8SM OVC009 19/17 A2989 660 87 1300 200/07 RMK AO2
14840KMKG MKG20000613145011206/13/00 14:50:31  5-MIN KMKG 131950Z 15008KT 8SM OVC009 19/17 A2988 670 90 1300 160/08 RMK AO2 SLP116 T01890172
14840KMKG MKG20000613145511206/13/00 14:55:31  5-MIN KMKG 131955Z 15007KT 8SM OVC009 19/17 A2987 670 87 1300 150/07 RMK AO2 SLP114 T01890167
14840KMKG MKG20000613150009506/13/00 15:00:31  5-MIN KMKG 132000Z 16006KT 7SM OVC009 19/18 A2988 670 90 1400 160/06 RMK AO2
14840KMKG MKG20000613150509506/13/00 15:05:31  5-MIN KMKG 132005Z VRB04KT 7SM OVC009 19/17 A2987 670 87 1400 VRB/04 RMK AO2
14840KMKG MKG20000613151009506/13/00 15:10:31  5-MIN KMKG 132010Z 15004KT 7SM OVC009 19/17 A2988 670 87 1400 160/04 RMK AO2
14840KMKG MKG20000613151510706/13/00 15:15:31  5-MIN KMKG 132015Z 00000KT 7SM OVC009 20/17 A2987 680 84 1500 000/00 RMK AO2 CIG 007V012
14840KMKG MKG20000613152010706/13/00 15:20:31  5-MIN KMKG 132020Z VRB05KT 7SM BKN009 21/18 A2987 680 84 1500 VRB/05 RMK AO2 CIG 007V012
14840KMKG MKG20000613152510706/13/00 15:25:31  5-MIN KMKG 132025Z 14004KT 7SM BKN009 20/17 A2987 670 84 1500 150/04 RMK AO2 CIG 007V012
14840KMKG MKG20000613153009506/13/00 15:30:31  5-MIN KMKG 132030Z VRB03KT 7SM OVC011 20/18 A2987 680 87 1500 VRB/03 RMK AO2
14840KMKG MKG20000613153509506/13/00 15:35:31  5-MIN KMKG 132035Z VRB04KT 7SM BKN011 21/18 A2986 680 81 1600 VRB/04 RMK AO2
14840KMKG MKG20000613154009506/13/00 15:40:31  5-MIN KMKG 132040Z 00000KT 8SM BKN011 21/18 A2986 680 84 1500 000/00 RMK AO2
14840KMKG MKG20000613154509506/13/00 15:45:31  5-MIN KMKG 132045Z 12004KT 8SM BKN011 21/18 A2986 690 84 1500 120/04 RMK AO2
14840KMKG MKG20000613155011806/13/00 15:50:31  5-MIN KMKG 132050Z 12005KT 8SM SCT011 21/18 A2986 690 84 1500 130/05 RMK AO2 SLP110 T02060178 58002
14840KMKG MKG20000613155511806/13/00 15:55:31  5-MIN KMKG 132055Z 10004KT 8SM SCT011 21/18 A2986 680 84 1500 100/04 RMK AO2 SLP111 T02060178 56026
14840KMKG MKG20000613160009506/13/00 16:00:31  5-MIN KMKG 132100Z 10004KT 8SM FEW011 21/18 A2986 690 81 1600 100/04 RMK AO2
14840KMKG MKG20000613160509206/13/00 16:05:31  5-MIN KMKG 132105Z 12005KT 9SM CLR 21/18 A2986 690 84 1600 120/05 RMK AO2
14840KMKG MKG20000613161009206/13/00 16:10:31  5-MIN KMKG 132110Z VRB05KT 9SM CLR 21/18 A2986 690 84 1600 VRB/05 RMK AO2
14840KMKG MKG20000613161509206/13/00 16:15:31  5-MIN KMKG 132115Z 17004KT 9SM CLR 22/18 A2986 690 78 1700 180/04 RMK AO2
14840KMKG MKG20000613162009206/13/00 16:20:31  5-MIN KMKG 132120Z 16003KT 9SM CLR 22/18 A2987 680 81 1700 170/03 RMK AO2
14840KMKG MKG20000613162509306/13/00 16:25:31  5-MIN KMKG 132125Z VRB04KT 10SM CLR 22/18 A2987 680 81 1700 VRB/04 RMK AO2
14840KMKG MKG20000613163009306/13/00 16:30:31  5-MIN KMKG 132130Z VRB03KT 10SM CLR 22/18 A2986 680 81 1700 VRB/03 RMK AO2
14840KMKG MKG20000613163509606/13/00 16:35:31  5-MIN KMKG 132135Z 05003KT 10SM FEW021 22/18 A2986 680 78 1700 050/03 RMK AO2
14840KMKG MKG20000613164009606/13/00 16:40:31  5-MIN KMKG 132140Z 19003KT 10SM SCT019 22/18 A2987 680 78 1700 190/03 RMK AO2
14840KMKG MKG20000613164509606/13/00 16:45:31  5-MIN KMKG 132145Z 00000KT 10SM SCT019 22/18 A2987 680 78 1700 000/00 RMK AO2
14840KMKG MKG20000613165011306/13/00 16:50:31  5-MIN KMKG 132150Z 19003KT 10SM SCT019 22/18 A2987 680 78 1700 190/03 RMK AO2 SLP113 T02220183
14840KMKG MKG20000613165511306/13/00 16:55:31  5-MIN KMKG 132155Z 00000KT 10SM SCT019 23/19 A2987 680 78 1800 000/00 RMK AO2 SLP111 T02280189
14840KMKG MKG20000613170009606/13/00 17:00:31  5-MIN KMKG 132200Z 14005KT 10SM SCT019 23/19 A2987 680 78 1800 150/05 RMK AO2
14840KMKG MKG20000613170509606/13/00 17:05:31  5-MIN KMKG 132205Z 00000KT 10SM FEW019 23/18 A2987 680 76 1800 000/00 RMK AO2
14840KMKG MKG20000613171009606/13/00 17:10:31  5-MIN KMKG 132210Z 19004KT 10SM FEW019 23/19 A2987 680 78 1800 200/04 RMK AO2
14840KMKG MKG20000613171509306/13/00 17:15:31  5-MIN KMKG 132215Z 20005KT 10SM CLR 23/19 A2987 680 78 1800 210/05 RMK AO2
14840KMKG MKG20000613172009306/13/00 17:20:31  5-MIN KMKG 132220Z 15004KT 10SM CLR 23/18 A2987 680 76 1800 150/04 RMK AO2
14840KMKG MKG20000613172509306/13/00 17:25:31  5-MIN KMKG 132225Z 16004KT 10SM CLR 23/18 A2987 680 76 1800 170/04 RMK AO2
14840KMKG MKG20000613173009506/13/00 17:30:31  5-MIN KMKG 132230Z 16003KT 9SM FEW017 23/19 A2987 680 78 1800 160/03 RMK AO2
14840KMKG MKG20000613173509506/13/00 17:35:31  5-MIN KMKG 132235Z VRB04KT 9SM FEW017 23/19 A2987 680 78 1800 VRB/04 RMK AO2
14840KMKG MKG20000613174009506/13/00 17:40:31  5-MIN KMKG 132240Z VRB04KT 9SM FEW017 23/19 A2987 680 81 1800 VRB/04 RMK AO2
14840KMKG MKG20000613174509506/13/00 17:45:31  5-MIN KMKG 132245Z 25005KT 9SM FEW017 23/19 A2986 680 78 1800 250/05 RMK AO2
14840KMKG MKG20000613175011206/13/00 17:50:31  5-MIN KMKG 132250Z 21004KT 9SM FEW017 23/19 A2986 680 81 1800 220/04 RMK AO2 SLP110 T02280194
14840KMKG MKG20000613175511306/13/00 17:55:31  5-MIN KMKG 132255Z 22005KT 10SM FEW017 23/19 A2987 680 81 1800 220/05 RMK AO2 SLP111 T02280194
14840KMKG MKG20000613180010306/13/00 18:00:31  5-MIN KMKG 132300Z 23004KT 10SM FEW017 SCT095 23/19 A2987 680 78 1800 230/04 RMK AO2
14840KMKG MKG20000613180510306/13/00 18:05:31  5-MIN KMKG 132305Z 23005KT 10SM FEW017 SCT100 23/19 A2988 670 81 1800 230/05 RMK AO2
14840KMKG MKG20000613181010206/13/00 18:10:31  5-MIN KMKG 132310Z 23004KT 9SM FEW017 SCT100 23/19 A2988 670 81 1800 240/04 RMK AO2
14840KMKG MKG20000613181510206/13/00 18:15:31  5-MIN KMKG 132315Z 23004KT 8SM FEW017 SCT100 22/19 A2988 660 81 1700 240/04 RMK AO2
14840KMKG MKG20000613182010206/13/00 18:20:31  5-MIN KMKG 132320Z 24003KT 8SM FEW017 BKN100 22/19 A2989 660 81 1700 240/03 RMK AO2
14840KMKG MKG20000613182510206/13/00 18:25:31  5-MIN KMKG 132325Z 00000KT 8SM FEW017 BKN100 22/19 A2988 660 81 1700 000/00 RMK AO2
14840KMKG MKG20000613183010206/13/00 18:30:31  5-MIN KMKG 132330Z 00000KT 8SM FEW017 BKN100 22/19 A2988 660 81 1700 000/00 RMK AO2
14840KMKG MKG20000613183510206/13/00 18:35:31  5-MIN KMKG 132335Z 00000KT 8SM FEW060 BKN100 22/19 A2988 670 81 1700 000/00 RMK AO2
14840KMKG MKG20000613184010206/13/00 18:40:31  5-MIN KMKG 132340Z 00000KT 9SM FEW060 BKN100 22/19 A2987 670 81 1700 000/00 RMK AO2
14840KMKG MKG20000613184510206/13/00 18:45:31  5-MIN KMKG 132345Z 00000KT 9SM FEW055 BKN100 22/19 A2987 680 81 1700 000/00 RMK AO2
14840KMKG MKG20000613185013706/13/00 18:50:31  5-MIN KMKG 132350Z 00000KT 9SM SCT055 BKN100 22/19 A2987 680 81 1700 000/00 RMK AO2 SLP114 T02220189 10228 20172 56026
14840KMKG MKG20000613185513006/13/00 18:55:31  5-MIN KMKG 132355Z 00000KT 9SM BKN055 22/19 A2987 680 81 1700 000/00 RMK AO2 SLP113 T02220189 10228 20172 53003
14840KMKG MKG20000613190009606/13/00 19:00:31  5-MIN KMKG 140000Z 15003KT 10SM BKN050 22/19 A2987 680 81 1700 150/03 RMK AO2
14840KMKG MKG20000613190509606/13/00 19:05:31  5-MIN KMKG 140005Z 17004KT 10SM BKN050 22/19 A2987 680 84 1700 180/04 RMK AO2
14840KMKG MKG20000613191010306/13/00 19:10:31  5-MIN KMKG 140010Z 16004KT 10SM BKN050 OVC055 22/19 A2987 670 84 1700 170/04 RMK AO2
14840KMKG MKG20000613191510206/13/00 19:15:31  5-MIN KMKG 140015Z 16003KT 9SM BKN050 OVC055 22/19 A2988 670 84 1700 160/03 RMK AO2
14840KMKG MKG20000613192009506/13/00 19:20:31  5-MIN KMKG 140020Z 00000KT 9SM OVC048 22/19 A2988 670 84 1700 000/00 RMK AO2
14840KMKG MKG20000613192509506/13/00 19:25:31  5-MIN KMKG 140025Z 00000KT 9SM OVC046 22/19 A2988 670 84 1700 000/00 RMK AO2
14840KMKG MKG20000613193009506/13/00 19:30:31  5-MIN KMKG 140030Z 11003KT 8SM OVC046 23/20 A2987 670 84 1800 110/03 RMK AO2
14840KMKG MKG20000613193509506/13/00 19:35:31  5-MIN KMKG 140035Z 12005KT 8SM OVC044 22/20 A2987 680 87 1700 120/05 RMK AO2
14840KMKG MKG20000613194009506/13/00 19:40:31  5-MIN KMKG 140040Z 13005KT 9SM OVC044 22/19 A2987 680 84 1700 130/05 RMK AO2
14840KMKG MKG20000613194509506/13/00 19:45:31  5-MIN KMKG 140045Z 13005KT 9SM OVC044 22/19 A2987 680 84 1700 130/05 RMK AO2
14840KMKG MKG20000613195011206/13/00 19:50:31  5-MIN KMKG 140050Z 11004KT 8SM OVC042 22/19 A2987 680 84 1700 120/04 RMK AO2 SLP112 T02220194
14840KMKG MKG20000613195511206/13/00 19:55:31  5-MIN KMKG 140055Z 12004KT 8SM OVC042 22/20 A2987 680 87 1700 130/04 RMK AO2 SLP111 T02220200
14840KMKG MKG20000613200009506/13/00 20:00:31  5-MIN KMKG 140100Z 12004KT 7SM OVC042 22/20 A2987 680 87 1700 130/04 RMK AO2
14840KMKG MKG20000613200509506/13/00 20:05:31  5-MIN KMKG 140105Z 11004KT 7SM OVC040 22/20 A2987 680 87 1700 120/04 RMK AO2
14840KMKG MKG20000613201009806/13/00 20:10:31  5-MIN KMKG 140110Z 12005KT 6SM BR OVC040 22/20 A2987 680 87 1700 120/05 RMK AO2
14840KMKG MKG20000613201509806/13/00 20:15:31  5-MIN KMKG 140115Z 00000KT 6SM BR OVC040 22/20 A2987 680 87 1700 000/00 RMK AO2
14840KMKG MKG20000613202009806/13/00 20:20:31  5-MIN KMKG 140120Z 11005KT 6SM BR OVC040 22/20 A2987 680 87 1700 110/05 RMK AO2
14840KMKG MKG20000613202509806/13/00 20:25:31  5-MIN KMKG 140125Z 12005KT 6SM BR OVC040 22/20 A2987 680 87 1700 120/05 RMK AO2
14840KMKG MKG20000613203009806/13/00 20:30:31  5-MIN KMKG 140130Z 00000KT 6SM BR OVC040 22/20 A2986 680 90 1700 000/00 RMK AO2
14840KMKG MKG20000613203509506/13/00 20:35:31  5-MIN KMKG 140135Z 00000KT 7SM OVC040 22/20 A2986 680 90 1700 000/00 RMK AO2
14840KMKG MKG20000613204010206/13/00 20:40:31  5-MIN KMKG 140140Z 13003KT 7SM BKN040 OVC060 22/20 A2986 680 90 1700 140/03 RMK AO2
14840KMKG MKG20000613204510506/13/00 20:45:31  5-MIN KMKG 140145Z 12004KT 6SM BR BKN040 BKN060 22/20 A2986 690 90 1700 120/04 RMK AO2
14840KMKG MKG20000613205012206/13/00 20:50:31  5-MIN KMKG 140150Z VRB05KT 6SM BR BKN040 BKN060 22/20 A2988 660 90 1600 VRB/05 RMK AO2 SLP117 T02170200
14840KMKG MKG20000613205512206/13/00 20:55:31  5-MIN KMKG 140155Z 00000KT 6SM BR BKN042 BKN060 22/20 A2987 670 90 1600 000/00 RMK AO2 SLP115 T02170200
14840KMKG MKG20000613210010906/13/00 21:00:31  5-MIN KMKG 140200Z 00000KT 7SM SCT042 BKN060 BKN070 22/20 A2988 670 87 1700 000/00 RMK AO2
14840KMKG MKG20000613210510906/13/00 21:05:31  5-MIN KMKG 140205Z 17003KT 7SM FEW042 BKN060 BKN075 22/19 A2988 670 87 1600 170/03 RMK AO2
14840KMKG MKG20000613211010206/13/00 21:10:31  5-MIN KMKG 140210Z 14006KT 7SM FEW042 SCT075 21/19 A2987 680 90 1600 140/06 RMK AO2
14840KMKG MKG20000613211509806/13/00 21:15:31  5-MIN KMKG 140215Z 12005KT 6SM BR FEW042 21/19 A2986 690 90 1600 120/05 RMK AO2
14840KMKG MKG20000613212010506/13/00 21:20:31  5-MIN KMKG 140220Z 13006KT 5SM BR FEW060 21/19 A2985 690 93 1500 130/06 RMK AO2 PRESFR
14840KMKG MKG20000613212510506/13/00 21:25:31  5-MIN KMKG 140225Z 13006KT 5SM BR FEW070 21/19 A2985 700 93 1500 130/06 RMK AO2 PRESFR
14840KMKG MKG20000613213010206/13/00 21:30:31  5-MIN KMKG 140230Z 13006KT 5SM BR CLR 21/19 A2984 710 93 1600 130/06 RMK AO2 PRESFR
14840KMKG MKG20000613213509506/13/00 21:35:31  5-MIN KMKG 140235Z 14007KT 5SM BR CLR 21/19 A2984 710 93 1600 140/07 RMK AO2
14840KMKG MKG20000613214009506/13/00 21:40:31  5-MIN KMKG 140240Z 12006KT 5SM BR CLR 21/19 A2983 710 93 1600 130/06 RMK AO2
14840KMKG MKG20000613214509506/13/00 21:45:31  5-MIN KMKG 140245Z 13008KT 5SM BR CLR 21/19 A2983 710 93 1600 130/08 RMK AO2
14840KMKG MKG20000613215011806/13/00 21:50:31  5-MIN KMKG 140250Z 12006KT 5SM BR CLR 21/19 A2982 720 93 1600 130/06 RMK AO2 SLP098 T02060194 53003
14840KMKG MKG20000613215511806/13/00 21:55:31  5-MIN KMKG 140255Z 13007KT 4SM BR CLR 21/19 A2983 720 93 1600 130/07 RMK AO2 SLP099 T02060194 58015
14840KMKG MKG20000613220009506/13/00 22:00:31  5-MIN KMKG 140300Z 13007KT 4SM BR CLR 20/19 A2983 720 97 1500 130/07 RMK AO2
14840KMKG MKG20000613220509506/13/00 22:05:31  5-MIN KMKG 140305Z 13009KT 4SM BR CLR 21/19 A2982 720 93 1600 130/09 RMK AO2
14840KMKG MKG20000613221009506/13/00 22:10:31  5-MIN KMKG 140310Z 12006KT 4SM BR CLR 21/19 A2982 720 93 1600 130/06 RMK AO2
14840KMKG MKG20000613221509506/13/00 22:15:31  5-MIN KMKG 140315Z 12006KT 4SM BR CLR 20/19 A2983 720 97 1500 130/06 RMK AO2
14840KMKG MKG20000613222009506/13/00 22:20:31  5-MIN KMKG 140320Z 14004KT 4SM BR CLR 20/19 A2984 710 97 1500 140/04 RMK AO2
14840KMKG MKG20000613222509506/13/00 22:25:31  5-MIN KMKG 140325Z 15004KT 4SM BR CLR 20/19 A2984 700 97 1500 150/04 RMK AO2
14840KMKG MKG20000613223009506/13/00 22:30:31  5-MIN KMKG 140330Z 15005KT 5SM BR CLR 20/19 A2984 710 97 1500 160/05 RMK AO2
14840KMKG MKG20000613223509506/13/00 22:35:31  5-MIN KMKG 140335Z 14005KT 5SM BR CLR 20/19 A2984 710 97 1500 140/05 RMK AO2
14840KMKG MKG20000613224009506/13/00 22:40:31  5-MIN KMKG 140340Z 14005KT 5SM BR CLR 20/19 A2984 710 97 1500 140/05 RMK AO2
14840KMKG MKG20000613224509506/13/00 22:45:31  5-MIN KMKG 140345Z 14004KT 5SM BR CLR 20/19 A2984 710 93 1500 150/04 RMK AO2
14840KMKG MKG20000613225011206/13/00 22:50:31  5-MIN KMKG 140350Z 14003KT 5SM BR CLR 20/19 A2984 710 93 1500 150/03 RMK AO2 SLP102 T02000189
14840KMKG MKG20000613225511206/13/00 22:55:31  5-MIN KMKG 140355Z 15003KT 4SM BR CLR 19/19 A2984 710 97 1400 150/03 RMK AO2 SLP102 T01940189
14840KMKG MKG20000613230009506/13/00 23:00:31  5-MIN KMKG 140400Z 15003KT 4SM BR CLR 19/19 A2984 710 97 1400 150/03 RMK AO2
14840KMKG MKG20000613230509506/13/00 23:05:31  5-MIN KMKG 140405Z 14003KT 5SM BR CLR 19/19 A2984 710 97 1400 140/03 RMK AO2
14840KMKG MKG20000613231009506/13/00 23:10:31  5-MIN KMKG 140410Z 12003KT 4SM BR CLR 19/19 A2984 710 97 1400 120/03 RMK AO2
14840KMKG MKG20000613231509506/13/00 23:15:31  5-MIN KMKG 140415Z 11004KT 4SM BR CLR 19/19 A2983 710 97 1400 110/04 RMK AO2
14840KMKG MKG20000613232009806/13/00 23:20:31  5-MIN KMKG 140420Z 10004KT 4SM BR FEW070 19/19 A2983 710 97 1400 110/04 RMK AO2
14840KMKG MKG20000613232509806/13/00 23:25:31  5-MIN KMKG 140425Z 11004KT 4SM BR FEW070 20/19 A2983 710 93 1500 110/04 RMK AO2
14840KMKG MKG20000613233009806/13/00 23:30:31  5-MIN KMKG 140430Z 13004KT 4SM BR FEW049 19/19 A2983 710 97 1400 130/04 RMK AO2
14840KMKG MKG20000613233511206/13/00 23:35:31  5-MIN KMKG 140435Z 12005KT 4SM BR FEW049 SCT055 SCT070 19/19 A2983 710 97 1400 130/05 RMK AO2
14840KMKG MKG20000613234011206/13/00 23:40:31  5-MIN KMKG 140440Z 13005KT 4SM BR FEW047 SCT055 SCT070 19/19 A2983 720 97 1400 130/05 RMK AO2
14840KMKG MKG20000613234510506/13/00 23:45:31  5-MIN KMKG 140445Z 12005KT 3SM BR FEW047 SCT070 19/19 A2983 720 97 1400 130/05 RMK AO2
14840KMKG MKG20000613235012506/13/00 23:50:31  5-MIN KMKG 140450Z 12005KT 3SM BR FEW047 19/19 A2982 720 97 1400 130/05 RMK AO2 SLP098 T01940189 402280156
14840KMKG MKG20000613235512506/13/00 23:55:31  5-MIN KMKG 140455Z 12006KT 3SM BR FEW047 19/19 A2982 720 97 1400 120/06 RMK AO2 SLP097 T01940189 402280156
14840KMKG MKG20000614000010006/14/00 00:00:31  5-MIN KMKG 140500Z 13006KT 3SM BR FEW049 19/19 A2982 720 97 1400 130/06 RMK AO2 $
14840KMKG MKG20000614000510006/14/00 00:05:31  5-MIN KMKG 140505Z 13007KT 3SM BR FEW049 20/18 A2982 720 90 1500 140/07 RMK AO2 $
14840KMKG MKG20000614001010006/14/00 00:10:31  5-MIN KMKG 140510Z 13007KT 3SM BR FEW049 20/19 A2982 730 93 1500 130/07 RMK AO2 $
14840KMKG MKG20000614001509706/14/00 00:15:31  5-MIN KMKG 140515Z 13007KT 3SM BR CLR 20/19 A2981 730 93 1500 130/07 RMK AO2 $
14840KMKG MKG20000614002009706/14/00 00:20:31  5-MIN KMKG 140520Z 13008KT 4SM BR CLR 20/19 A2982 730 93 1500 140/08 RMK AO2 $
14840KMKG MKG20000614002509706/14/00 00:25:31  5-MIN KMKG 140525Z 14007KT 4SM BR CLR 20/19 A2982 730 93 1500 150/07 RMK AO2 $
14840KMKG MKG20000614003009706/14/00 00:30:31  5-MIN KMKG 140530Z 14008KT 5SM BR CLR 20/19 A2981 730 93 1500 150/08 RMK AO2 $
14840KMKG MKG20000614003510006/14/00 00:35:31  5-MIN KMKG 140535Z 15009KT 6SM BR FEW050 21/19 A2981 730 93 1600 150/09 RMK AO2 $
14840KMKG MKG20000614004009706/14/00 00:40:31  5-MIN KMKG 140540Z 15008KT 7SM SCT050 21/19 A2981 730 93 1600 150/08 RMK AO2 $
14840KMKG MKG20000614004509706/14/00 00:45:31  5-MIN KMKG 140545Z 14008KT 7SM FEW050 21/19 A2981 740 90 1600 150/08 RMK AO2 $
14840KMKG MKG20000614005013206/14/00 00:50:31  5-MIN KMKG 140550Z 14009KT 8SM FEW050 21/19 A2981 740 90 1600 150/09 RMK AO2 SLP092 T02060189 10228 20194 58015 $
14840KMKG MKG20000614005513206/14/00 00:55:31  5-MIN KMKG 140555Z 14008KT 8SM FEW050 21/19 A2981 740 90 1600 150/08 RMK AO2 SLP092 T02060189 10228 20194 58007 $
14840KMKG MKG20000614010009706/14/00 01:00:31  5-MIN KMKG 140600Z 15008KT 8SM FEW050 21/19 A2980 740 90 1600 150/08 RMK AO2 $
14840KMKG MKG20000614010509706/14/00 01:05:31  5-MIN KMKG 140605Z 15008KT 8SM FEW055 21/19 A2980 740 93 1600 150/08 RMK AO2 $
14840KMKG MKG20000614011009406/14/00 01:10:31  5-MIN KMKG 140610Z 14007KT 9SM CLR 21/19 A2980 740 93 1600 150/07 RMK AO2 $
14840KMKG MKG20000614011509506/14/00 01:15:31  5-MIN KMKG 140615Z 14007KT 10SM CLR 21/19 A2980 740 93 1600 150/07 RMK AO2 $
14840KMKG MKG20000614012009506/14/00 01:20:31  5-MIN KMKG 140620Z 14008KT 10SM CLR 21/19 A2979 750 93 1600 150/08 RMK AO2 $
14840KMKG MKG20000614012509506/14/00 01:25:31  5-MIN KMKG 140625Z 15007KT 10SM CLR 21/19 A2979 750 93 1600 150/07 RMK AO2 $
14840KMKG MKG20000614013009506/14/00 01:30:31  5-MIN KMKG 140630Z 14007KT 10SM CLR 21/19 A2979 750 93 1600 140/07 RMK AO2 $
14840KMKG MKG20000614013509506/14/00 01:35:31  5-MIN KMKG 140635Z 13008KT 10SM CLR 21/19 A2979 750 93 1600 140/08 RMK AO2 $
14840KMKG MKG20000614014009506/14/00 01:40:31  5-MIN KMKG 140640Z 13008KT 10SM CLR 21/19 A2978 760 93 1600 140/08 RMK AO2 $
14840KMKG MKG20000614014509506/14/00 01:45:31  5-MIN KMKG 140645Z 15008KT 10SM CLR 21/19 A2978 760 93 1600 150/08 RMK AO2 $
14840KMKG MKG20000614015011206/14/00 01:50:31  5-MIN KMKG 140650Z 14009KT 10SM CLR 21/19 A2978 760 93 1600 150/09 RMK AO2 SLP082 T02060194 $
14840KMKG MKG20000614015511206/14/00 01:55:31  5-MIN KMKG 140655Z 14009KT 10SM CLR 21/19 A2978 760 93 1600 140/09 RMK AO2 SLP080 T02060194 $
14840KMKG MKG20000614020009506/14/00 02:00:31  5-MIN KMKG 140700Z 13010KT 10SM CLR 21/19 A2977 770 93 1600 140/10 RMK AO2 $
14840KMKG MKG20000614020509506/14/00 02:05:31  5-MIN KMKG 140705Z 14009KT 10SM CLR 21/19 A2977 770 93 1600 140/09 RMK AO2 $
14840KMKG MKG20000614021009506/14/00 02:10:31  5-MIN KMKG 140710Z 15009KT 10SM CLR 21/19 A2977 770 93 1600 150/09 RMK AO2 $
14840KMKG MKG20000614021509506/14/00 02:15:31  5-MIN KMKG 140715Z 15010KT 10SM CLR 21/19 A2977 770 93 1600 150/10 RMK AO2 $
14840KMKG MKG20000614022009506/14/00 02:20:31  5-MIN KMKG 140720Z 15009KT 10SM CLR 21/19 A2977 770 90 1700 150/09 RMK AO2 $
14840KMKG MKG20000614022509506/14/00 02:25:31  5-MIN KMKG 140725Z 15010KT 10SM CLR 21/19 A2976 780 90 1700 150/10 RMK AO2 $
14840KMKG MKG20000614023009506/14/00 02:30:31  5-MIN KMKG 140730Z 15011KT 10SM CLR 21/19 A2976 780 90 1700 160/11 RMK AO2 $
14840KMKG MKG20000614023509506/14/00 02:35:31  5-MIN KMKG 140735Z 15010KT 10SM CLR 22/19 A2976 780 87 1800 150/10 RMK AO2 $
14840KMKG MKG20000614024010106/14/00 02:40:31  5-MIN KMKG 140740Z 16010G17KT 10SM CLR 22/19 A2976 780 87 1800 170/10G17 RMK AO2 $
14840KMKG MKG20000614024510106/14/00 02:45:31  5-MIN KMKG 140745Z 15007G17KT 10SM CLR 22/19 A2976 780 84 1800 160/07G17 RMK AO2 $
14840KMKG MKG20000614025011206/14/00 02:50:31  5-MIN KMKG 140750Z 16009KT 10SM CLR 22/19 A2976 780 84 1800 170/09 RMK AO2 SLP074 T02170189 $
14840KMKG MKG20000614025511206/14/00 02:55:31  5-MIN KMKG 140755Z 16010KT 10SM CLR 22/19 A2976 780 81 1800 160/10 RMK AO2 SLP073 T02220189 $
14840KMKG MKG20000614030009506/14/00 03:00:31  5-MIN KMKG 140800Z 16009KT 10SM CLR 22/19 A2976 780 81 1800 170/09 RMK AO2 $
14840KMKG MKG20000614030509506/14/00 03:05:31  5-MIN KMKG 140805Z 16010KT 10SM CLR 23/19 A2975 780 78 1900 160/10 RMK AO2 $
14840KMKG MKG20000614031009506/14/00 03:10:31  5-MIN KMKG 140810Z 16011KT 10SM CLR 23/19 A2975 780 78 1900 170/11 RMK AO2 $
14840KMKG MKG20000614031509506/14/00 03:15:31  5-MIN KMKG 140815Z 17013KT 10SM CLR 23/19 A2975 790 76 2000 180/13 RMK AO2 $
14840KMKG MKG20000614032009506/14/00 03:20:31  5-MIN KMKG 140820Z 18013KT 10SM CLR 24/19 A2975 790 73 2000 180/13 RMK AO2 $
14840KMKG MKG20000614032510106/14/00 03:25:31  5-MIN KMKG 140825Z 18015G19KT 10SM CLR 24/19 A2975 790 73 2000 180/15G19 RMK AO2 $
14840KMKG MKG20000614033010106/14/00 03:30:31  5-MIN KMKG 140830Z 18015G19KT 10SM CLR 24/19 A2974 790 71 2100 180/15G19 RMK AO2 $
14840KMKG MKG20000614033509506/14/00 03:35:31  5-MIN KMKG 140835Z 18013KT 10SM CLR 24/19 A2974 800 71 2100 180/13 RMK AO2 $
14840KMKG MKG20000614034010106/14/00 03:40:31  5-MIN KMKG 140840Z 18017G21KT 10SM CLR 24/19 A2974 800 71 2100 180/17G21 RMK AO2 $
14840KMKG MKG20000614034510106/14/00 03:45:31  5-MIN KMKG 140845Z 18017G23KT 10SM CLR 24/19 A2974 800 71 2100 190/17G23 RMK AO2 $
14840KMKG MKG20000614035012406/14/00 03:50:31  5-MIN KMKG 140850Z 18017G23KT 10SM CLR 24/19 A2973 800 71 2100 180/17G23 RMK AO2 SLP065 T02440189 58007 $
14840KMKG MKG20000614035511806/14/00 03:55:31  5-MIN KMKG 140855Z 18018KT 10SM CLR 24/19 A2973 800 71 2100 190/18 RMK AO2 SLP065 T02440189 56024 $
14840KMKG MKG20000614040010106/14/00 04:00:31  5-MIN KMKG 140900Z 18013G25KT 10SM CLR 24/19 A2973 800 71 2100 190/13G25 RMK AO2 $
14840KMKG MKG20000614040510106/14/00 04:05:31  5-MIN KMKG 140905Z 18019G25KT 10SM CLR 24/19 A2973 810 71 2100 190/19G25 RMK AO2 $
14840KMKG MKG20000614041010106/14/00 04:10:31  5-MIN KMKG 140910Z 18019G23KT 10SM CLR 24/19 A2973 810 71 2100 190/19G23 RMK AO2 $
14840KMKG MKG20000614041510106/14/00 04:15:31  5-MIN KMKG 140915Z 19016G25KT 10SM CLR 24/19 A2973 810 71 2100 190/16G25 RMK AO2 $
14840KMKG MKG20000614042010106/14/00 04:20:31  5-MIN KMKG 140920Z 18019G25KT 10SM CLR 24/19 A2972 810 71 2100 180/19G25 RMK AO2 $
14840KMKG MKG20000614042511906/14/00 04:25:31  5-MIN KMKG 140925Z 19023G26KT 10SM CLR 24/19 A2972 810 71 2100 190/23G26 RMK AO2 PK WND 19026/0925 $
14840KMKG MKG20000614043011906/14/00 04:30:31  5-MIN KMKG 140930Z 18016G26KT 10SM CLR 24/19 A2972 810 71 2100 190/16G26 RMK AO2 PK WND 19026/0925 $
14840KMKG MKG20000614043511906/14/00 04:35:31  5-MIN KMKG 140935Z 19023G28KT 10SM CLR 24/18 A2972 810 68 2100 190/23G28 RMK AO2 PK WND 18028/0934 $
14840KMKG MKG20000614044011906/14/00 04:40:31  5-MIN KMKG 140940Z 19021G28KT 10SM CLR 24/18 A2972 820 68 2100 190/21G28 RMK AO2 PK WND 18028/0934 $
14840KMKG MKG20000614044511906/14/00 04:45:31  5-MIN KMKG 140945Z 19020G29KT 10SM CLR 24/18 A2971 820 68 2100 190/20G29 RMK AO2 PK WND 18029/0942 $
14840KMKG MKG20000614045013606/14/00 04:50:31  5-MIN KMKG 140950Z 19018G29KT 10SM CLR 24/18 A2971 820 68 2100 190/18G29 RMK AO2 PK WND 18029/0942 SLP057 T02440183 $
14840KMKG MKG20000614045513606/14/00 04:55:31  5-MIN KMKG 140955Z 19019G26KT 10SM CLR 24/18 A2971 830 71 2100 190/19G26 RMK AO2 PK WND 18029/0942 SLP056 T02390183 $
14840KMKG MKG20000614050010106/14/00 05:00:31  5-MIN KMKG 141000Z 18019G26KT 10SM CLR 24/18 A2971 830 71 2100 190/19G26 RMK AO2 $
14840KMKG MKG20000614050509406/14/00 05:05:31  5-MIN KMKG 141005Z 19019KT 9SM CLR 24/18 A2971 830 71 2100 190/19 RMK AO2 $
14840KMKG MKG20000614051011806/14/00 05:10:31  5-MIN KMKG 141010Z 19018G27KT 9SM CLR 24/18 A2971 830 71 2100 190/18G27 RMK AO2 PK WND 19027/1007 $
14840KMKG MKG20000614051511806/14/00 05:15:31  5-MIN KMKG 141015Z 19021G27KT 8SM CLR 23/18 A2970 830 73 2000 190/21G27 RMK AO2 PK WND 19027/1007 $
14840KMKG MKG20000614052011806/14/00 05:20:31  5-MIN KMKG 141020Z 19021G27KT 8SM CLR 23/18 A2971 830 73 2000 190/21G27 RMK AO2 PK WND 20027/1018 $
14840KMKG MKG20000614052511806/14/00 05:25:31  5-MIN KMKG 141025Z 19019G27KT 8SM CLR 23/18 A2970 830 73 2000 190/19G27 RMK AO2 PK WND 17027/1024 $
14840KMKG MKG20000614053011806/14/00 05:30:31  5-MIN KMKG 141030Z 19019G27KT 8SM CLR 23/18 A2970 830 73 2000 190/19G27 RMK AO2 PK WND 17027/1024 $
14840KMKG MKG20000614053511806/14/00 05:35:31  5-MIN KMKG 141035Z 19018G25KT 8SM CLR 23/18 A2970 840 73 2000 190/18G25 RMK AO2 PK WND 17027/1024 $
14840KMKG MKG20000614054011806/14/00 05:40:31  5-MIN KMKG 141040Z 19018G25KT 8SM CLR 23/18 A2969 840 73 2000 190/18G25 RMK AO2 PK WND 17027/1024 $
14840KMKG MKG20000614054511806/14/00 05:45:31  5-MIN KMKG 141045Z 18018G26KT 8SM CLR 23/18 A2969 840 73 2000 190/18G26 RMK AO2 PK WND 17027/1024 $
14840KMKG MKG20000614055013506/14/00 05:50:31  5-MIN KMKG 141050Z 19018G26KT 8SM CLR 23/18 A2969 840 73 2000 190/18G26 RMK AO2 PK WND 17027/1024 SLP051 T02280178 $
14840KMKG MKG20000614055513506/14/00 05:55:31  5-MIN KMKG 141055Z 19016G24KT 8SM CLR 23/18 A2969 850 76 2000 190/16G24 RMK AO2 PK WND 17027/1024 SLP049 T02280183 $
14840KMKG MKG20000614060011806/14/00 06:00:31  5-MIN KMKG 141100Z 18017G26KT 8SM CLR 23/18 A2968 850 76 2000 190/17G26 RMK AO2 PK WND 18026/1057 $
14840KMKG MKG20000614060511806/14/00 06:05:31  5-MIN KMKG 141105Z 18017G26KT 8SM CLR 23/18 A2968 850 76 2000 190/17G26 RMK AO2 PK WND 18026/1057 $
14840KMKG MKG20000614061011806/14/00 06:10:31  5-MIN KMKG 141110Z 18018G25KT 8SM CLR 23/18 A2969 850 73 2000 190/18G25 RMK AO2 PK WND 18026/1057 $
14840KMKG MKG20000614061511806/14/00 06:15:31  5-MIN KMKG 141115Z 18019G23KT 8SM CLR 23/18 A2968 850 73 2100 190/19G23 RMK AO2 PK WND 18026/1057 $
14840KMKG MKG20000614062011806/14/00 06:20:31  5-MIN KMKG 141120Z 18020G26KT 8SM CLR 23/18 A2969 850 73 2000 180/20G26 RMK AO2 PK WND 19026/1119 $
14840KMKG MKG20000614062511806/14/00 06:25:31  5-MIN KMKG 141125Z 18019G28KT 8SM CLR 23/18 A2969 840 73 2000 190/19G28 RMK AO2 PK WND 18028/1123 $
14840KMKG MKG20000614063011806/14/00 06:30:31  5-MIN KMKG 141130Z 18022G28KT 8SM CLR 23/18 A2968 850 73 2100 180/22G28 RMK AO2 PK WND 19028/1130 $
14840KMKG MKG20000614063512106/14/00 06:35:31  5-MIN KMKG 141135Z 18017G28KT 8SM FEW080 24/18 A2968 850 71 2100 180/17G28 RMK AO2 PK WND 19028/1130 $
14840KMKG MKG20000614064011906/14/00 06:40:31  5-MIN KMKG 141140Z 19020G26KT 8SM FEW080 24/18 A2968 850 71 2100 190/20G26 RMK AO2 PK WND 19028/1130
14840KMKG MKG20000614064511906/14/00 06:45:31  5-MIN KMKG 141145Z 18018G26KT 8SM FEW080 24/18 A2969 850 71 2100 190/18G26 RMK AO2 PK WND 19028/1130
14840KMKG MKG20000614065015406/14/00 06:50:31  5-MIN KMKG 141150Z 19018G26KT 8SM FEW080 24/18 A2969 840 68 2200 190/18G26 RMK AO2 PK WND 19028/1130 SLP050 T02440183 10244 20206 56024
14840KMKG MKG20000614065515406/14/00 06:55:31  5-MIN KMKG 141155Z 19019G26KT 9SM FEW080 24/18 A2969 840 68 2200 190/19G26 RMK AO2 PK WND 19028/1130 SLP051 T02440183 10244 20206 55014
14840KMKG MKG20000614070010006/14/00 07:00:31  5-MIN KMKG 141200Z 19018G26KT 9SM CLR 24/19 A2970 840 71 2200 200/18G26 RMK AO2 $
14840KMKG MKG20000614070511006/14/00 07:05:31  5-MIN KMKG 141205Z 18017G25KT 9SM FEW080 24/19 A2971 830 71 2100 190/17G25 RMK AO2 PRESRR $
14840KMKG MKG20000614071010406/14/00 07:10:31  5-MIN KMKG 141210Z 18017G25KT 10SM FEW080 24/19 A2971 830 71 2200 190/17G25 RMK AO2 $
14840KMKG MKG20000614071510106/14/00 07:15:31  5-MIN KMKG 141215Z 19019G25KT 10SM FEW080 24/ A2972 820 M 2100 190/19G25 RMK AO2 $
14840KMKG MKG20000614072011006/14/00 07:20:31  5-MIN KMKG 141220Z 19020G27KT 10SM FEW080 A2972 M M M 190/20G27 RMK AO2 PK WND 19027/1218 $
14840KMKG MKG20000614072512206/14/00 07:25:31  5-MIN KMKG 141225Z 19018G27KT 10SM FEW080 24/19 A2973 810 71 2100 190/18G27 RMK AO2 PK WND 19027/1218 $
14840KMKG MKG20000614073012206/14/00 07:30:31  5-MIN KMKG 141230Z 19019G27KT 10SM FEW080 25/18 A2973 810 66 2200 200/19G27 RMK AO2 PK WND 19027/1227 $
14840KMKG MKG20000614073512206/14/00 07:35:31  5-MIN KMKG 141235Z 19019G27KT 10SM FEW080 25/18 A2973 800 66 2200 200/19G27 RMK AO2 PK WND 19027/1227 $
14840KMKG MKG20000614074012206/14/00 07:40:31  5-MIN KMKG 141240Z 21018G26KT 10SM FEW080 25/18 A2974 790 66 2200 210/18G26 RMK AO2 PK WND 19027/1227 $
14840KMKG MKG20000614074512806/14/00 07:45:31  5-MIN KMKG 141245Z 24013G25KT 8SM FEW080 25/18 A2976 780 66 2200 240/13G25 RMK AO2 PK WND 19027/1227 PRESRR $
14840KMKG MKG20000614075014906/14/00 07:50:31  5-MIN KMKG 141250Z 28013G25KT 7SM FEW080 25/18 A2976 780 66 2100 280/13G25 RMK AO2 PK WND 19027/1227 WSHFT 1235 SLP075 T02500183 $
14840KMKG MKG20000614075515206/14/00 07:55:31  5-MIN KMKG 141255Z 24014G20KT 6SM HZ FEW080 21/17 A2977 770 78 1700 240/14G20 RMK AO2 PK WND 19027/1227 WSHFT 1235 SLP076 T02110172 $
14840KMKG MKG20000614080011706/14/00 08:00:31  5-MIN KMKG 141300Z 24013G20KT 6SM HZ FEW080 21/17 A2977 770 78 1600 250/13G20 RMK AO2 WSHFT 1242 $
14840KMKG MKG20000614080511406/14/00 08:05:31  5-MIN KMKG 141305Z 22009G18KT 7SM FEW080 21/17 A2977 770 78 1700 230/09G18 RMK AO2 WSHFT 1242 $
14840KMKG MKG20000614081010806/14/00 08:10:31  5-MIN KMKG 141310Z 24011KT 7SM FEW080 21/17 A2977 770 78 1700 250/11 RMK AO2 WSHFT 1242 $
14840KMKG MKG20000614081510806/14/00 08:15:31  5-MIN KMKG 141315Z 21015KT 8SM FEW080 22/17 A2977 770 75 1800 220/15 RMK AO2 WSHFT 1242 $
14840KMKG MKG20000614082010806/14/00 08:20:31  5-MIN KMKG 141320Z 23012KT 8SM FEW080 22/17 A2977 770 73 1800 240/12 RMK AO2 WSHFT 1242 $
14840KMKG MKG20000614082510806/14/00 08:25:31  5-MIN KMKG 141325Z 23014KT 8SM FEW080 22/17 A2978 760 75 1800 240/14 RMK AO2 WSHFT 1242 $
14840KMKG MKG20000614083010806/14/00 08:30:31  5-MIN KMKG 141330Z 23014KT 8SM FEW080 22/17 A2978 760 75 1800 230/14 RMK AO2 WSHFT 1242 $
14840KMKG MKG20000614083510806/14/00 08:35:31  5-MIN KMKG 141335Z 25010KT 7SM FEW080 21/17 A2978 760 75 1700 260/10 RMK AO2 WSHFT 1242 $
14840KMKG MKG20000614084010806/14/00 08:40:31  5-MIN KMKG 141340Z 24010KT 7SM FEW080 21/17 A2978 760 78 1600 250/10 RMK AO2 WSHFT 1242 $
14840KMKG MKG20000614084510806/14/00 08:45:31  5-MIN KMKG 141345Z 24011KT 7SM FEW080 21/17 A2979 750 75 1700 240/11 RMK AO2 WSHFT 1242 $
14840KMKG MKG20000614085012506/14/00 08:50:31  5-MIN KMKG 141350Z 23010KT 7SM FEW080 21/17 A2979 750 78 1600 240/10 RMK AO2 WSHFT 1242 SLP084 T02060167 $
14840KMKG MKG20000614085512506/14/00 08:55:31  5-MIN KMKG 141355Z 23010KT 7SM FEW080 21/17 A2979 750 78 1600 230/10 RMK AO2 WSHFT 1242 SLP084 T02060167 $
14840KMKG MKG20000614090009706/14/00 09:00:31  5-MIN KMKG 141400Z 23011KT 7SM FEW110 21/17 A2979 750 78 1600 230/11 RMK AO2 $
14840KMKG MKG20000614090509706/14/00 09:05:31  5-MIN KMKG 141405Z 23012KT 8SM FEW110 21/17 A2979 750 75 1700 230/12 RMK AO2 $
14840KMKG MKG20000614091009706/14/00 09:10:31  5-MIN KMKG 141410Z 22011KT 8SM SCT110 21/17 A2979 750 78 1600 230/11 RMK AO2 $
14840KMKG MKG20000614091509706/14/00 09:15:31  5-MIN KMKG 141415Z 21011KT 8SM FEW110 21/17 A2979 750 78 1600 210/11 RMK AO2 $
14840KMKG MKG20000614092009706/14/00 09:20:31  5-MIN KMKG 141420Z 21012KT 8SM FEW110 21/17 A2979 760 75 1700 220/12 RMK AO2 $
14840KMKG MKG20000614092509706/14/00 09:25:31  5-MIN KMKG 141425Z 21011KT 8SM FEW110 22/17 A2978 760 75 1700 210/11 RMK AO2 $
14840KMKG MKG20000614093009706/14/00 09:30:31  5-MIN KMKG 141430Z 22013KT 9SM FEW110 22/17 A2978 760 75 1700 220/13 RMK AO2 $
14840KMKG MKG20000614093509406/14/00 09:35:31  5-MIN KMKG 141435Z 21010KT 9SM CLR 22/17 A2978 760 75 1700 220/10 RMK AO2 $
14840KMKG MKG20000614094009406/14/00 09:40:31  5-MIN KMKG 141440Z 21011KT 9SM CLR 22/17 A2978 760 75 1700 210/11 RMK AO2 $
14840KMKG MKG20000614094510306/14/00 09:45:31  5-MIN KMKG 141445Z 21013G19KT 9SM FEW110 22/17 A2978 760 73 1800 210/13G19 RMK AO2 $
14840KMKG MKG20000614095012606/14/00 09:50:31  5-MIN KMKG 141450Z 20014G19KT 9SM FEW110 23/17 A2978 760 70 1900 200/14G19 RMK AO2 SLP080 T02280172 55014 $
14840KMKG MKG20000614095512706/14/00 09:55:31  5-MIN KMKG 141455Z 22014G19KT 10SM FEW110 23/18 A2978 760 73 1900 220/14G19 RMK AO2 SLP081 T02280178 50029 $
14840KMKG MKG20000614100010506/14/00 10:00:31  5-MIN KMKG 141500Z 21014KT 10SM FEW080 SCT110 23/18 A2978 760 73 1900 220/14 RMK AO2 $
14840KMKG MKG20000614100511106/14/00 10:05:31  5-MIN KMKG 141505Z 20018G23KT 10SM FEW080 SCT110 23/18 A2978 760 70 1900 210/18G23 RMK AO2 $
14840KMKG MKG20000614101011106/14/00 10:10:31  5-MIN KMKG 141510Z 20017G23KT 10SM FEW080 SCT110 23/17 A2978 760 68 1900 210/17G23 RMK AO2 $
14840KMKG MKG20000614101511106/14/00 10:15:31  5-MIN KMKG 141515Z 20015G20KT 10SM FEW080 SCT110 23/17 A2978 760 68 1900 200/15G20 RMK AO2 $
14840KMKG MKG20000614102011106/14/00 10:20:31  5-MIN KMKG 141520Z 20015G22KT 10SM FEW080 SCT110 23/17 A2978 760 68 1900 210/15G22 RMK AO2 $
14840KMKG MKG20000614102510406/14/00 10:25:31  5-MIN KMKG 141525Z 20015G22KT 10SM BKN070 23/17 A2978 760 68 1900 200/15G22 RMK AO2 $
14840KMKG MKG20000614103009206/14/00 10:30:31  5-MIN KMKG 141530Z 20016G21KT 10SM BKN070 A2978 M M M 200/16G21 RMK AO2 $
14840KMKG MKG20000614103510406/14/00 10:35:31  5-MIN KMKG 141535Z 20015G21KT 10SM BKN070 24/17 A2978 760 66 2000 210/15G21 RMK AO2 $
14840KMKG MKG20000614104010406/14/00 10:40:31  5-MIN KMKG 141540Z 20015G21KT 10SM BKN075 24/18 A2978 760 68 2000 200/15G21 RMK AO2 $
14840KMKG MKG20000614104509806/14/00 10:45:31  5-MIN KMKG 141545Z 20013KT 10SM BKN075 24/18 A2978 760 68 2000 200/13 RMK AO2 $
14840KMKG MKG20000614105011506/14/00 10:50:31  5-MIN KMKG 141550Z 20015KT 10SM BKN070 24/18 A2978 760 68 2000 200/15 RMK AO2 SLP080 T02390178 $
14840KMKG MKG20000614105512106/14/00 10:55:31  5-MIN KMKG 141555Z 20014G20KT 10SM BKN075 24/18 A2978 760 68 2000 200/14G20 RMK AO2 SLP080 T02390178 $
14840KMKG MKG20000614110009806/14/00 11:00:31  5-MIN KMKG 141600Z 19014KT 10SM BKN080 23/18 A2978 760 70 1900 190/14 RMK AO2 $
14840KMKG MKG20000614110510406/14/00 11:05:31  5-MIN KMKG 141605Z 19016G19KT 10SM BKN080 24/18 A2977 770 71 2000 200/16G19 RMK AO2 $
14840KMKG MKG20000614111010406/14/00 11:10:31  5-MIN KMKG 141610Z 20015G19KT 10SM SCT075 24/18 A2977 770 68 2000 200/15G19 RMK AO2 $
14840KMKG MKG20000614111509806/14/00 11:15:31  5-MIN KMKG 141615Z 19014KT 10SM SCT080 24/18 A2977 770 71 2000 190/14 RMK AO2 $
14840KMKG MKG20000614112009806/14/00 11:20:31  5-MIN KMKG 141620Z 19015KT 10SM SCT080 24/18 A2977 770 68 2100 200/15 RMK AO2 $
14840KMKG MKG20000614112510406/14/00 11:25:31  5-MIN KMKG 141625Z 20014G22KT 10SM SCT080 24/18 A2977 770 68 2100 210/14G22 RMK AO2 $
14840KMKG MKG20000614113010406/14/00 11:30:31  5-MIN KMKG 141630Z 19014G22KT 10SM SCT075 24/18 A2977 770 68 2100 200/14G22 RMK AO2 $
14840KMKG MKG20000614113510406/14/00 11:35:31  5-MIN KMKG 141635Z 20017G21KT 10SM SCT075 24/18 A2977 770 68 2100 200/17G21 RMK AO2 $
14840KMKG MKG20000614114010406/14/00 11:40:31  5-MIN KMKG 141640Z 21016G21KT 10SM BKN075 24/18 A2977 770 68 2100 210/16G21 RMK AO2 $
14840KMKG MKG20000614114510406/14/00 11:45:31  5-MIN KMKG 141645Z 20016G23KT 10SM SCT075 24/18 A2977 770 68 2100 200/16G23 RMK AO2 $
14840KMKG MKG20000614115012106/14/00 11:50:31  5-MIN KMKG 141650Z 20017G23KT 10SM SCT075 24/18 A2977 770 71 2000 200/17G23 RMK AO2 SLP076 T02390183 $
14840KMKG MKG20000614115512106/14/00 11:55:31  5-MIN KMKG 141655Z 19017G21KT 10SM BKN075 24/18 A2976 780 68 2100 200/17G21 RMK AO2 SLP075 T02440183 $
14840KMKG MKG20000614120009806/14/00 12:00:31  5-MIN KMKG 141700Z 20015KT 10SM BKN080 25/19 A2976 780 68 2200 200/15 RMK AO2 $
14840KMKG MKG20000614120510406/14/00 12:05:31  5-MIN KMKG 141705Z 19013G20KT 10SM SCT080 26/19 A2976 780 66 2200 200/13G20 RMK AO2 $
14840KMKG MKG20000614121009806/14/00 12:10:31  5-MIN KMKG 141710Z 19013KT 10SM SCT080 26/19 A2975 780 66 2200 200/13 RMK AO2 $
14840KMKG MKG20000614121510206/14/00 12:15:31  5-MIN KMKG 141715Z 19015G22KT 10SM BKN080 24/18 A2975 790 68 2100 200/15G22 RMK AO2
14840KMKG MKG20000614122010206/14/00 12:20:31  5-MIN KMKG 141720Z 19015G22KT 10SM BKN075 25/19 A2975 790 68 2200 190/15G22 RMK AO2
14840KMKG MKG20000614122510206/14/00 12:25:31  5-MIN KMKG 141725Z 19017G22KT 10SM SCT075 26/19 A2974 790 66 2200 190/17G22 RMK AO2
14840KMKG MKG20000614123010206/14/00 12:30:31  5-MIN KMKG 141730Z 19015G23KT 10SM FEW075 26/18 A2974 800 64 2200 200/15G23 RMK AO2
14840KMKG MKG20000614123510206/14/00 12:35:31  5-MIN KMKG 141735Z 20015G23KT 10SM SCT070 26/19 A2974 800 66 2200 200/15G23 RMK AO2
14840KMKG MKG20000614124010206/14/00 12:40:31  5-MIN KMKG 141740Z 19019G22KT 10SM SCT070 25/18 A2974 800 66 2200 190/19G22 RMK AO2
14840KMKG MKG20000614124510206/14/00 12:45:31  5-MIN KMKG 141745Z 19017G24KT 10SM FEW070 25/18 A2974 800 66 2200 200/17G24 RMK AO2
14840KMKG MKG20000614125013706/14/00 12:50:31  5-MIN KMKG 141750Z 19016G24KT 10SM SCT065 25/18 A2973 800 66 2200 190/16G24 RMK AO2 SLP065 T02500183 10256 20200 50029
14840KMKG MKG20000614125513706/14/00 12:55:31  5-MIN KMKG 141755Z 19014G21KT 10SM BKN065 25/18 A2973 810 66 2200 190/14G21 RMK AO2 SLP063 T02500183 10256 20200 58018
14840KMKG MKG20000614130009606/14/00 13:00:31  5-MIN KMKG 141800Z 19015KT 10SM BKN060 26/18 A2972 820 64 2300 190/15 RMK AO2
14840KMKG MKG20000614130509606/14/00 13:05:31  5-MIN KMKG 141805Z 19012KT 10SM BKN060 26/18 A2972 820 64 2300 200/12 RMK AO2
14840KMKG MKG20000614131010206/14/00 13:10:31  5-MIN KMKG 141810Z 19013G19KT 10SM BKN060 26/18 A2971 820 62 2300 190/13G19 RMK AO2
14840KMKG MKG20000614131510206/14/00 13:15:31  5-MIN KMKG 141815Z 19014G20KT 10SM BKN065 26/18 A2971 830 62 2300 190/14G20 RMK AO2
14840KMKG MKG20000614132010206/14/00 13:20:31  5-MIN KMKG 141820Z 18018G21KT 10SM BKN065 27/18 A2971 830 60 2400 190/18G21 RMK AO2
14840KMKG MKG20000614132510206/14/00 13:25:31  5-MIN KMKG 141825Z 19017G21KT 10SM SCT065 27/18 A2971 830 60 2400 190/17G21 RMK AO2
14840KMKG MKG20000614133010206/14/00 13:30:31  5-MIN KMKG 141830Z 20017G22KT 10SM FEW065 27/19 A2971 830 62 2400 200/17G22 RMK AO2
14840KMKG MKG20000614133510206/14/00 13:35:31  5-MIN KMKG 141835Z 20016G22KT 10SM SCT065 27/19 A2971 830 62 2400 200/16G22 RMK AO2
14840KMKG MKG20000614134010206/14/00 13:40:31  5-MIN KMKG 141840Z 20015G19KT 10SM SCT060 27/19 A2971 830 62 2400 200/15G19 RMK AO2
14840KMKG MKG20000614134510206/14/00 13:45:31  5-MIN KMKG 141845Z 20017G21KT 10SM FEW060 26/19 A2970 830 64 2300 200/17G21 RMK AO2
14840KMKG MKG20000614135012606/14/00 13:50:31  5-MIN KMKG 141850Z 19015G21KT 10SM FEW060 SCT090 26/19 A2969 840 66 2300 200/15G21 RMK AO2 SLP051 T02560189
14840KMKG MKG20000614135512606/14/00 13:55:31  5-MIN KMKG 141855Z 19014G22KT 10SM FEW060 SCT090 26/19 A2969 840 66 2300 190/14G22 RMK AO2 SLP051 T02560189
14840KMKG MKG20000614140010206/14/00 14:00:31  5-MIN KMKG 141900Z 19012G22KT 10SM FEW100 26/19 A2969 850 66 2400 190/12G22 RMK AO2
14840KMKG MKG20000614140510906/14/00 14:05:31  5-MIN KMKG 141905Z 19012G20KT 10SM FEW100 27/19 A2968 860 64 2400 190/12G20 RMK AO2 PRESFR
14840KMKG MKG20000614141010206/14/00 14:10:31  5-MIN KMKG 141910Z 19015G19KT 10SM FEW100 27/19 A2968 850 64 2400 200/15G19 RMK AO2
14840KMKG MKG20000614141510906/14/00 14:15:31  5-MIN KMKG 141915Z 19015G19KT 10SM FEW038 SCT100 26/19 A2968 850 66 2400 200/15G19 RMK AO2
14840KMKG MKG20000614142010906/14/00 14:20:31  5-MIN KMKG 141920Z 19014G19KT 10SM FEW038 SCT100 26/19 A2968 850 68 2300 200/14G19 RMK AO2
14840KMKG MKG20000614142510206/14/00 14:25:31  5-MIN KMKG 141925Z 19011G19KT 10SM SCT038 26/20 A2968 860 71 2300 200/11G19 RMK AO2
14840KMKG MKG20000614143009606/14/00 14:30:31  5-MIN KMKG 141930Z 19013KT 10SM SCT038 25/19 A2967 860 71 2200 190/13 RMK AO2
14840KMKG MKG20000614143510906/14/00 14:35:31  5-MIN KMKG 141935Z 18011G18KT 10SM SCT038 SCT080 25/19 A2968 860 71 2200 190/11G18 RMK AO2
14840KMKG MKG20000614144010306/14/00 14:40:31  5-MIN KMKG 141940Z 19010KT 10SM SCT038 BKN080 24/19 A2967 860 73 2200 200/10 RMK AO2
14840KMKG MKG20000614144510206/14/00 14:45:31  5-MIN KMKG 141945Z 19007KT 9SM BKN034 BKN080 24/19 A2967 860 73 2200 200/07 RMK AO2
14840KMKG MKG20000614145013506/14/00 14:50:31  5-MIN KMKG 141950Z 19008KT 8SM -RA SCT034 BKN080 24/20 A2967 860 78 2100 190/08 RMK AO2 RAB47 SLP043 P0000 T02390200
14840KMKG MKG20000614145519206/14/00 14:55:31  5-MIN KMKG 141955Z 18009KT 8SM VCTS -RA FEW034 SCT080 BKN095 24/20 A2966 870 78 2100 190/09 RMK AO2 CIG 080 RWY 14 OCNL LTGIC RAB47 TSB53 VC SW MOV NE SLP041 P0000 T02390200
14840KMKG MKG20000614150012406/14/00 15:00:31  5-MIN KMKG 142000Z 18007KT 9SM VCTS -RA FEW034 SCT080 BKN095 24/20 A2966 870 78 2100 190/07 RMK AO2 P0000
14840KMKG MKG20000614150512606/14/00 15:05:31  5-MIN KMKG 142005Z 17010KT 9SM VCTS FEW032 SCT080 BKN090 24/20 A2965 880 78 2100 170/10 RMK AO2 RAE01 P0000
14840KMKG MKG20000614151011906/14/00 15:10:31  5-MIN KMKG 142010Z 17008KT 8SM VCTS FEW032 BKN090 24/21 A2965 880 81 2200 180/08 RMK AO2 RAE01 P0000
14840KMKG MKG20000614151512606/14/00 15:15:31  5-MIN KMKG 142015Z 17009KT 8SM VCTS FEW070 BKN090 24/21 A2964 890 81 2200 180/09 RMK AO2 RAE01 PRESFR P0000
14840KMKG MKG20000614152012006/14/00 15:20:31  5-MIN KMKG 142020Z 18010KT 8SM SCT090 24/21 A2964 890 78 2200 190/10 RMK AO2 RAE01 TSE17 DISPTD P0000
14840KMKG MKG20000614152512006/14/00 15:25:31  5-MIN KMKG 142025Z 18010KT 8SM SCT090 24/21 A2964 890 81 2200 180/10 RMK AO2 RAE01 TSE17 DISPTD P0000
14840KMKG MKG20000614153012006/14/00 15:30:31  5-MIN KMKG 142030Z 16010KT 8SM FEW090 25/21 A2964 890 79 2300 170/10 RMK AO2 RAE01 TSE17 DISPTD P0000
14840KMKG MKG20000614153512006/14/00 15:35:31  5-MIN KMKG 142035Z 17010KT 8SM FEW090 25/21 A2964 890 79 2300 170/10 RMK AO2 RAE01 TSE17 DISPTD P0000
14840KMKG MKG20000614154011706/14/00 15:40:31  5-MIN KMKG 142040Z 17012KT 8SM CLR 25/21 A2964 890 79 2300 170/12 RMK AO2 RAE01 TSE17 DISPTD P0000
14840KMKG MKG20000614154512006/14/00 15:45:31  5-MIN KMKG 142045Z 18012KT 8SM FEW110 25/21 A2964 890 79 2300 180/12 RMK AO2 RAE01 TSE17 DISPTD P0000
14840KMKG MKG20000614155014906/14/00 15:50:31  5-MIN KMKG 142050Z 17010KT 9SM FEW110 25/21 A2964 890 76 2300 180/10 RMK AO2 SLP032 RAE01 TSE17 DISPTD P0000 60000 T02500206 58018
14840KMKG MKG20000614155514606/14/00 15:55:31  5-MIN KMKG 142055Z 19010KT 9SM CLR 25/21 A2964 890 76 2300 190/10 RMK AO2 SLP032 RAE01 TSE17 DISPTD P0000 60000 T02500206 56029
14840KMKG MKG20000614160009206/14/00 16:00:31  5-MIN KMKG 142100Z 18011KT 9SM CLR 25/21 A2964 890 76 2300 180/11 RMK AO2
14840KMKG MKG20000614160509506/14/00 16:05:31  5-MIN KMKG 142105Z 17012KT 9SM FEW095 25/21 A2963 900 76 2300 180/12 RMK AO2
14840KMKG MKG20000614161009506/14/00 16:10:31  5-MIN KMKG 142110Z 18011KT 9SM FEW095 25/21 A2963 900 76 2300 180/11 RMK AO2
14840KMKG MKG20000614161509506/14/00 16:15:31  5-MIN KMKG 142115Z 18009KT 9SM FEW090 25/21 A2962 900 76 2300 180/09 RMK AO2
14840KMKG MKG20000614162010806/14/00 16:20:31  5-MIN KMKG 142120Z 17012G17KT 9SM FEW039 SCT090 25/21 A2963 900 76 2300 170/12G17 RMK AO2
14840KMKG MKG20000614162511006/14/00 16:25:31  5-MIN KMKG 142125Z 18013KT 10SM FEW039 SCT055 BKN090 25/21 A2962 910 76 2300 180/13 RMK AO2
14840KMKG MKG20000614163012506/14/00 16:30:31  5-MIN KMKG 142130Z 18011KT 10SM FEW039 SCT050 BKN090 25/21 A2962 910 76 2300 180/11 RMK AO2 CIG 050 RWY 14
14840KMKG MKG20000614163511606/14/00 16:35:31  5-MIN KMKG 142135Z 18015G20KT 10SM SCT043 BKN050 BKN090 25/21 A2962 910 76 2300 180/15G20 RMK AO2
14840KMKG MKG20000614164012506/14/00 16:40:31  5-MIN KMKG 142140Z 17016G22KT 10SM -RA SCT041 BKN049 25/21 A2961 910 76 2300 180/16G22 RMK AO2 RAB36 P0000
14840KMKG MKG20000614164513006/14/00 16:45:31  5-MIN KMKG 142145Z 20018G22KT 4SM RA FEW023 SCT034 BKN042 24/21 A2963 900 81 2200 200/18G22 RMK AO2 RAB36 P0002
14840KMKG MKG20000614165015506/14/00 16:50:31  5-MIN KMKG 142150Z 20020G24KT 1 1/2SM +RA BR SCT023 BKN034 BKN042 22/21 A2963 900 90 2000 200/20G24 RMK AO2 RAB36 SLP029 P0009 T02220206
14840KMKG MKG20000614165515406/14/00 16:55:31  5-MIN KMKG 142155Z 20017G25KT 1 1/2SM RA BR BKN022 BKN032 OVC048 21/20 A2962 910 93 1900 200/17G25 RMK AO2 RAB36 SLP026 P0011 T02110200
14840KMKG MKG20000614170012806/14/00 17:00:31  5-MIN KMKG 142200Z 20016G25KT 3SM -RA BR BKN022 BKN030 OVC040 21/19 A2962 910 93 1800 210/16G25 RMK AO2 P0001
14840KMKG MKG20000614170511506/14/00 17:05:31  5-MIN KMKG 142205Z 21013KT 6SM -RA BR BKN022 OVC030 20/18 A2962 910 90 1700 210/13 RMK AO2 P0002
14840KMKG MKG20000614171012206/14/00 17:10:31  5-MIN KMKG 142210Z 20012KT 6SM -RA BR BKN016 BKN023 OVC030 19/18 A2961 920 93 1700 210/12 RMK AO2 P0002
14840KMKG MKG20000614171511506/14/00 17:15:31  5-MIN KMKG 142215Z 19010KT 6SM -RA BR BKN016 OVC023 20/19 A2961 920 93 1800 200/10 RMK AO2 P0003
14840KMKG MKG20000614172012206/14/00 17:20:31  5-MIN KMKG 142220Z 19012KT 6SM -RA BR BKN013 BKN018 OVC025 20/19 A2960 930 93 1800 190/12 RMK AO2 P0003
14840KMKG MKG20000614172512906/14/00 17:25:31  5-MIN KMKG 142225Z 18012KT 5SM -RA BR BKN013 BKN018 OVC025 20/19 A2959 930 97 1800 180/12 RMK AO2 PRESFR P0003
14840KMKG MKG20000614173012906/14/00 17:30:31  5-MIN KMKG 142230Z 18012KT 5SM -RA BR FEW006 BKN011 OVC018 20/19 A2959 940 97 1800 190/12 RMK AO2 PRESFR P0004
14840KMKG MKG20000614173512206/14/00 17:35:31  5-MIN KMKG 142235Z 18013KT 5SM -RA BR BKN009 BKN014 OVC020 21/19 A2958 940 93 1800 180/13 RMK AO2 P0004
14840KMKG MKG20000614174012806/14/00 17:40:31  5-MIN KMKG 142240Z 17016G19KT 5SM -RA BR SCT007 BKN012 OVC020 20/19 A2958 950 97 1800 180/16G19 RMK AO2 P0005
14840KMKG MKG20000614174512806/14/00 17:45:31  5-MIN KMKG 142245Z 18014G21KT 5SM -RA BR BKN007 BKN012 OVC020 20/19 A2959 940 97 1800 190/14G21 RMK AO2 P0005
14840KMKG MKG20000614175013806/14/00 17:50:31  5-MIN KMKG 142250Z 19014G21KT 5SM -RA BR BKN007 OVC020 20/19 A2959 940 97 1800 190/14G21 RMK AO2 SLP016 P0006 T02000194
14840KMKG MKG20000614175513806/14/00 17:55:31  5-MIN KMKG 142255Z 19013G21KT 6SM -RA BR BKN007 BKN020 20/19 A2959 940 97 1800 190/13G21 RMK AO2 SLP015 P0006 T02000194
14840KMKG MKG20000614180012506/14/00 18:00:31  5-MIN KMKG 142300Z 18015G21KT 7SM -RA SCT007 BKN020 BKN085 20/19 A2958 940 93 1800 190/15G21 RMK AO2 P0001
14840KMKG MKG20000614180512506/14/00 18:05:31  5-MIN KMKG 142305Z 19013G21KT 9SM -RA FEW007 SCT020 BKN085 20/19 A2959 940 97 1800 190/13G21 RMK AO2 P0001
14840KMKG MKG20000614181012006/14/00 18:10:31  5-MIN KMKG 142310Z 19013KT 10SM -RA FEW007 SCT020 SCT085 20/19 A2959 940 97 1800 190/13 RMK AO2 P0001
14840KMKG MKG20000614181512606/14/00 18:15:31  5-MIN KMKG 142315Z 18016G23KT 10SM -RA FEW020 SCT060 SCT085 20/19 A2959 940 97 1800 190/16G23 RMK AO2 P0001
14840KMKG MKG20000614182014106/14/00 18:20:31  5-MIN KMKG 142320Z 18016G23KT 10SM -RA FEW040 SCT060 BKN080 20/19 A2958 950 97 1800 180/16G23 RMK AO2 CIG 060 RWY 14 P0001
14840KMKG MKG20000614182514106/14/00 18:25:31  5-MIN KMKG 142325Z 18019G24KT 10SM -RA FEW038 SCT060 BKN080 20/19 A2958 950 93 1800 180/19G24 RMK AO2 CIG 060 RWY 14 P0001
14840KMKG MKG20000614183012506/14/00 18:30:31  5-MIN KMKG 142330Z 18018G24KT 7SM -RA SCT037 SCT048 BKN060 20/19 A2958 950 93 1800 190/18G24 RMK AO2 P0001
14840KMKG MKG20000614183512506/14/00 18:35:31  5-MIN KMKG 142335Z 18017G23KT 7SM -RA SCT035 SCT042 BKN048 20/19 A2957 950 93 1800 190/17G23 RMK AO2 P0001
14840KMKG MKG20000614184012606/14/00 18:40:31  5-MIN KMKG 142340Z 18017G25KT 10SM -RA SCT035 BKN050 BKN060 20/19 A2957 960 93 1800 180/17G25 RMK AO2 P0002
14840KMKG MKG20000614184514306/14/00 18:45:31  5-MIN KMKG 142345Z 18016G25KT 10SM FEW035 SCT050 BKN060 21/19 A2957 960 90 1900 180/16G25 RMK AO2 RAE41 CIG 050 RWY 14 P0002
14840KMKG MKG20000614185016206/14/00 18:50:31  5-MIN KMKG 142350Z 18014G20KT 10SM FEW035 SCT055 21/19 A2957 960 90 1900 190/14G20 RMK AO2 RAE41 SLP009 P0002 60019 T02060189 10272 20194 56029
14840KMKG MKG20000614185518406/14/00 18:55:31  5-MIN KMKG 142355Z 18017G23KT 10SM FEW035 SCT055 BKN075 21/18 A2957 960 87 1900 190/17G23 RMK AO2 RAE41 CIG 055 RWY 14 SLP010 P0002 60019 T02060183 10272 20194 56023
14840KMKG MKG20000614190011606/14/00 19:00:31  5-MIN KMKG 150000Z 18018G23KT 10SM FEW037 BKN055 BKN075 21/18 A2957 950 87 1900 190/18G23 RMK AO2
14840KMKG MKG20000614190511606/14/00 19:05:31  5-MIN KMKG 150005Z 18016G22KT 10SM FEW039 BKN055 BKN070 21/19 A2958 950 90 1900 190/16G22 RMK AO2
14840KMKG MKG20000614191013406/14/00 19:10:31  5-MIN KMKG 150010Z 19018G26KT 10SM FEW035 BKN055 BKN070 21/19 A2957 950 90 1900 190/18G26 RMK AO2 PK WND 19026/0010
14840KMKG MKG20000614191513406/14/00 19:15:31  5-MIN KMKG 150015Z 19017G26KT 10SM FEW033 BKN055 OVC090 21/19 A2957 950 90 1900 190/17G26 RMK AO2 PK WND 19026/0010
14840KMKG MKG20000614192013406/14/00 19:20:31  5-MIN KMKG 150020Z 18016G23KT 10SM FEW033 BKN075 OVC085 21/19 A2957 950 90 1900 180/16G23 RMK AO2 PK WND 19026/0010
14840KMKG MKG20000614192513406/14/00 19:25:31  5-MIN KMKG 150025Z 18018G23KT 10SM FEW033 BKN070 OVC085 21/19 A2957 950 90 1900 180/18G23 RMK AO2 PK WND 19026/0010
14840KMKG MKG20000614193013406/14/00 19:30:31  5-MIN KMKG 150030Z 19017G23KT 10SM FEW033 BKN070 OVC085 21/19 A2958 940 90 1800 190/17G23 RMK AO2 PK WND 19026/0010
14840KMKG MKG20000614193512806/14/00 19:35:31  5-MIN KMKG 150035Z 19017KT 10SM FEW031 BKN070 OVC085 21/18 A2959 940 87 1800 190/17 RMK AO2 PK WND 19026/0010
14840KMKG MKG20000614194013406/14/00 19:40:31  5-MIN KMKG 150040Z 18022G28KT 10SM FEW031 BKN070 OVC085 21/19 A2959 940 90 1800 190/22G28 RMK AO2 PK WND 18028/0036
14840KMKG MKG20000614194513406/14/00 19:45:31  5-MIN KMKG 150045Z 19021G28KT 10SM FEW031 BKN075 OVC090 21/19 A2959 940 90 1800 190/21G28 RMK AO2 PK WND 18028/0036
14840KMKG MKG20000614195015106/14/00 19:50:31  5-MIN KMKG 150050Z 18020G27KT 10SM FEW031 BKN075 OVC090 21/19 A2959 940 90 1800 180/20G27 RMK AO2 PK WND 18028/0036 SLP016 T02060189
14840KMKG MKG20000614195515106/14/00 19:55:31  5-MIN KMKG 150055Z 19020G27KT 10SM FEW031 BKN080 OVC090 21/19 A2959 940 90 1800 190/20G27 RMK AO2 PK WND 18028/0036 SLP018 T02060189
14840KMKG MKG20000614200012706/14/00 20:00:31  5-MIN KMKG 150100Z 18021G28KT 10SM FEW031 OVC090 21/19 A2960 930 90 1800 190/21G28 RMK AO2 PK WND 18028/0100
14840KMKG MKG20000614200512006/14/00 20:05:31  5-MIN KMKG 150105Z 19017G28KT 10SM OVC090 21/19 A2960 930 90 1800 200/17G28 RMK AO2 PK WND 19028/0102
14840KMKG MKG20000614201012006/14/00 20:10:31  5-MIN KMKG 150110Z 19019G29KT 10SM OVC090 21/18 A2959 940 87 1800 190/19G29 RMK AO2 PK WND 20029/0109
14840KMKG MKG20000614201512006/14/00 20:15:31  5-MIN KMKG 150115Z 19019G30KT 10SM OVC100 20/18 A2959 930 90 1800 190/19G30 RMK AO2 PK WND 19030/0111
14840KMKG MKG20000614202012006/14/00 20:20:31  5-MIN KMKG 150120Z 19017G30KT 10SM BKN100 20/18 A2959 930 90 1800 190/17G30 RMK AO2 PK WND 19030/0111
14840KMKG MKG20000614202512006/14/00 20:25:31  5-MIN KMKG 150125Z 19020G29KT 10SM BKN095 20/18 A2960 930 90 1800 190/20G29 RMK AO2 PK WND 19030/0111
14840KMKG MKG20000614203012006/14/00 20:30:31  5-MIN KMKG 150130Z 19018G29KT 10SM SCT095 19/18 A2960 930 93 1700 190/18G29 RMK AO2 PK WND 19030/0111
14840KMKG MKG20000614203512006/14/00 20:35:31  5-MIN KMKG 150135Z 19021G29KT 10SM FEW100 20/18 A2960 930 90 1800 190/21G29 RMK AO2 PK WND 19030/0111
14840KMKG MKG20000614204012006/14/00 20:40:31  5-MIN KMKG 150140Z 19021G29KT 10SM FEW100 20/18 A2960 930 90 1800 190/21G29 RMK AO2 PK WND 19030/0111
14840KMKG MKG20000614204511706/14/00 20:45:31  5-MIN KMKG 150145Z 19020G30KT 10SM CLR 20/18 A2960 920 90 1800 200/20G30 RMK AO2 PK WND 19030/0142
14840KMKG MKG20000614205013406/14/00 20:50:31  5-MIN KMKG 150150Z 20020G30KT 10SM CLR 19/18 A2961 920 93 1700 200/20G30 RMK AO2 PK WND 19030/0142 SLP023 T01940183
14840KMKG MKG20000614205513406/14/00 20:55:31  5-MIN KMKG 150155Z 20019G26KT 10SM CLR 19/18 A2961 920 93 1700 200/19G26 RMK AO2 PK WND 19030/0142 SLP023 T01940183
14840KMKG MKG20000614210009906/14/00 21:00:31  5-MIN KMKG 150200Z 20019G25KT 10SM CLR 19/18 A2961 920 93 1700 200/19G25 RMK AO2
14840KMKG MKG20000614210511706/14/00 21:05:31  5-MIN KMKG 150205Z 20018G27KT 10SM CLR 19/18 A2961 920 93 1700 200/18G27 RMK AO2 PK WND 19027/0202
14840KMKG MKG20000614211011706/14/00 21:10:31  5-MIN KMKG 150210Z 20020G27KT 10SM CLR 19/18 A2961 920 93 1700 200/20G27 RMK AO2 PK WND 21027/0206
14840KMKG MKG20000614211511706/14/00 21:15:31  5-MIN KMKG 150215Z 20020G27KT 10SM CLR 19/18 A2961 920 93 1700 200/20G27 RMK AO2 PK WND 21027/0206
14840KMKG MKG20000614212011706/14/00 21:20:31  5-MIN KMKG 150220Z 20018G28KT 10SM CLR 19/18 A2961 920 93 1700 200/18G28 RMK AO2 PK WND 19028/0216
14840KMKG MKG20000614212511706/14/00 21:25:31  5-MIN KMKG 150225Z 20019G28KT 10SM CLR 19/18 A2961 920 90 1700 200/19G28 RMK AO2 PK WND 19028/0216
14840KMKG MKG20000614213012006/14/00 21:30:31  5-MIN KMKG 150230Z 20018G23KT 10SM FEW100 19/18 A2961 920 93 1600 200/18G23 RMK AO2 PK WND 19028/0216
14840KMKG MKG20000614213512006/14/00 21:35:31  5-MIN KMKG 150235Z 20017G24KT 10SM SCT100 19/18 A2961 910 93 1600 210/17G24 RMK AO2 PK WND 19028/0216
14840KMKG MKG20000614214012006/14/00 21:40:31  5-MIN KMKG 150240Z 20017G24KT 10SM SCT100 19/17 A2962 910 90 1600 200/17G24 RMK AO2 PK WND 19028/0216
14840KMKG MKG20000614214512706/14/00 21:45:31  5-MIN KMKG 150245Z 20017G25KT 10SM FEW060 BKN100 19/17 A2961 910 90 1600 200/17G25 RMK AO2 PK WND 19028/0216
14840KMKG MKG20000614215015706/14/00 21:50:31  5-MIN KMKG 150250Z 20018G25KT 10SM FEW044 SCT060 BKN100 19/17 A2962 910 90 1600 200/18G25 RMK AO2 PK WND 19028/0216 SLP028 T01890172 56023
14840KMKG MKG20000614215515706/14/00 21:55:31  5-MIN KMKG 150255Z 21017G25KT 10SM FEW035 BKN060 OVC100 19/17 A2963 900 90 1600 210/17G25 RMK AO2 PK WND 19028/0216 SLP029 T01890172 51018
14840KMKG MKG20000614220011606/14/00 22:00:31  5-MIN KMKG 150300Z 22016G25KT 10SM FEW027 BKN039 OVC100 19/17 A2963 900 90 1600 230/16G25 RMK AO2
14840KMKG MKG20000614220513806/14/00 22:05:31  5-MIN KMKG 150305Z 22019G25KT 7SM -RA FEW020 BKN030 OVC100 18/17 A2964 890 93 1500 220/19G25 RMK AO2 RAB02 PRESRR P0000
14840KMKG MKG20000614221013406/14/00 22:10:31  5-MIN KMKG 150310Z 22018G25KT 5SM -RA BR FEW020 BKN030 OVC060 18/17 A2964 890 93 1500 220/18G25 RMK AO2 RAB02 P0000
14840KMKG MKG20000614221514806/14/00 22:15:31  5-MIN KMKG 150315Z 22017G23KT 4SM RA BR SCT024 BKN042 OVC049 17/17 A2964 890 96 1400 220/17G23 RMK AO2 RAB02 CIG 035 RWY 14 P0001
14840KMKG MKG20000614222013306/14/00 22:20:31  5-MIN KMKG 150320Z 21014G21KT 4SM RA BR FEW020 BKN044 OVC055 17/16 A2962 910 93 1400 220/14G21 RMK AO2 RAB02 P0002
14840KMKG MKG20000614222513406/14/00 22:25:31  5-MIN KMKG 150325Z 21016G21KT 5SM -RA BR FEW020 BKN039 OVC060 18/16 A2963 900 90 1500 210/16G21 RMK AO2 RAB02 P0002
14840KMKG MKG20000614223013406/14/00 22:30:31  5-MIN KMKG 150330Z 20017G24KT 6SM -RA BR FEW022 SCT038 OVC060 18/17 A2963 900 93 1500 200/17G24 RMK AO2 RAB02 P0003
14840KMKG MKG20000614223513406/14/00 22:35:31  5-MIN KMKG 150335Z 20016G24KT 5SM -RA BR FEW027 SCT047 OVC060 18/17 A2962 910 96 1500 210/16G24 RMK AO2 RAB02 P0003
14840KMKG MKG20000614224012406/14/00 22:40:31  5-MIN KMKG 150340Z 20014G21KT 8SM -RA FEW048 OVC060 18/17 A2962 910 96 1500 210/14G21 RMK AO2 RAB02 P0003
14840KMKG MKG20000614224512606/14/00 22:45:31  5-MIN KMKG 150345Z 20017KT 10SM -RA FEW042 BKN060 OVC080 18/17 A2962 910 96 1500 200/17 RMK AO2 RAB02 P0003
14840KMKG MKG20000614225014106/14/00 22:50:31  5-MIN KMKG 150350Z 20016G23KT 10SM BKN060 OVC080 18/17 A2962 910 96 1500 200/16G23 RMK AO2 RAB02E46 SLP027 P0003 T01780172
14840KMKG MKG20000614225514806/14/00 22:55:31  5-MIN KMKG 150355Z 20015G23KT 10SM SCT047 BKN060 OVC085 18/17 A2962 910 96 1500 210/15G23 RMK AO2 RAB02E46 SLP028 P0003 T01780172
14840KMKG MKG20000614230011606/14/00 23:00:31  5-MIN KMKG 150400Z 21014G20KT 10SM SCT047 BKN060 OVC080 18/17 A2962 910 96 1500 210/14G20 RMK AO2
14840KMKG MKG20000614230511606/14/00 23:05:31  5-MIN KMKG 150405Z 21014G20KT 10SM BKN047 BKN060 OVC080 18/17 A2962 910 93 1600 210/14G20 RMK AO2
14840KMKG MKG20000614231011606/14/00 23:10:31  5-MIN KMKG 150410Z 22015G20KT 10SM BKN047 BKN055 OVC080 18/17 A2962 910 93 1600 220/15G20 RMK AO2
14840KMKG MKG20000614231509606/14/00 23:15:31  5-MIN KMKG 150415Z 21014KT 10SM OVC050 18/17 A2962 910 93 1600 220/14 RMK AO2
14840KMKG MKG20000614232009606/14/00 23:20:31  5-MIN KMKG 150420Z 21017KT 10SM OVC048 18/17 A2961 910 93 1600 210/17 RMK AO2
14840KMKG MKG20000614232510306/14/00 23:25:31  5-MIN KMKG 150425Z 20015KT 10SM BKN048 BKN055 18/17 A2961 920 93 1600 210/15 RMK AO2
14840KMKG MKG20000614233011006/14/00 23:30:31  5-MIN KMKG 150430Z 21016KT 10SM BKN048 BKN055 BKN075 18/17 A2961 920 93 1600 210/16 RMK AO2
14840KMKG MKG20000614233510306/14/00 23:35:31  5-MIN KMKG 150435Z 21017KT 10SM BKN050 OVC075 18/17 A2961 920 90 1600 220/17 RMK AO2
14840KMKG MKG20000614234011606/14/00 23:40:31  5-MIN KMKG 150440Z 22017G22KT 10SM BKN048 BKN055 OVC075 18/17 A2961 920 90 1600 220/17G22 RMK AO2
14840KMKG MKG20000614234511606/14/00 23:45:31  5-MIN KMKG 150445Z 21018G22KT 10SM SCT048 BKN055 BKN080 18/17 A2962 910 90 1600 210/18G22 RMK AO2
14840KMKG MKG20000614235013706/14/00 23:50:31  5-MIN KMKG 150450Z 21015KT 10SM FEW048 SCT055 OVC080 18/17 A2962 910 93 1500 210/15 RMK AO2 SLP026 T01780167 402720172
14840KMKG MKG20000614235513006/14/00 23:55:31  5-MIN KMKG 150455Z 21015KT 10SM FEW050 OVC080 18/16 A2962 910 90 1500 220/15 RMK AO2 SLP026 T01780161 402720172
14840KMKG MKG20000615000011006/15/00 00:00:31  5-MIN KMKG 150500Z 21017KT 10SM FEW048 BKN080 OVC090 18/16 A2962 910 90 1500 210/17 RMK AO2
14840KMKG MKG20000615000510906/15/00 00:05:31  5-MIN KMKG 150505Z 21014G21KT 10SM FEW055 BKN080 17/16 A2962 910 93 1400 210/14G21 RMK AO2
14840KMKG MKG20000615001010206/15/00 00:10:31  5-MIN KMKG 150510Z 21014G20KT 10SM BKN080 17/16 A2962 910 90 1400 220/14G20 RMK AO2
14840KMKG MKG20000615001510206/15/00 00:15:31  5-MIN KMKG 150515Z 22017G21KT 10SM SCT080 17/16 A2962 910 90 1400 220/17G21 RMK AO2
14840KMKG MKG20000615002010906/15/00 00:20:31  5-MIN KMKG 150520Z 22017G21KT 10SM FEW080 SCT090 18/16 A2962 910 87 1500 220/17G21 RMK AO2
14840KMKG MKG20000615002509606/15/00 00:25:31  5-MIN KMKG 150525Z 22017KT 10SM FEW085 17/15 A2962 910 87 1400 220/17 RMK AO2
14840KMKG MKG20000615003009306/15/00 00:30:31  5-MIN KMKG 150530Z 22016KT 10SM CLR 17/15 A2962 910 87 1400 230/16 RMK AO2
14840KMKG MKG20000615003509906/15/00 00:35:31  5-MIN KMKG 150535Z 22014G21KT 10SM CLR 17/15 A2962 910 87 1400 220/14G21 RMK AO2
14840KMKG MKG20000615004009906/15/00 00:40:31  5-MIN KMKG 150540Z 22015G21KT 10SM CLR 17/15 A2961 920 87 1400 220/15G21 RMK AO2
14840KMKG MKG20000615004509306/15/00 00:45:31  5-MIN KMKG 150545Z 22017KT 10SM CLR 17/15 A2961 920 87 1400 230/17 RMK AO2
14840KMKG MKG20000615005013406/15/00 00:50:31  5-MIN KMKG 150550Z 23015KT 10SM CLR 17/15 A2961 920 87 1400 230/15 RMK AO2 SLP024 60003 T01720150 10206 20172 51018
14840KMKG MKG20000615005513406/15/00 00:55:31  5-MIN KMKG 150555Z 22014KT 10SM CLR 17/15 A2961 920 87 1400 230/14 RMK AO2 SLP025 60003 T01720150 10206 20172 57004
14840KMKG MKG20000615010009306/15/00 01:00:31  5-MIN KMKG 150600Z 23014KT 10SM CLR 17/15 A2961 920 87 1400 230/14 RMK AO2
14840KMKG MKG20000615010509906/15/00 01:05:31  5-MIN KMKG 150605Z 23016G22KT 10SM CLR 18/15 A2961 920 83 1500 230/16G22 RMK AO2
14840KMKG MKG20000615011009906/15/00 01:10:31  5-MIN KMKG 150610Z 22016G22KT 10SM CLR 17/15 A2960 920 87 1400 230/16G22 RMK AO2
14840KMKG MKG20000615011509306/15/00 01:15:31  5-MIN KMKG 150615Z 22015KT 10SM CLR 17/15 A2960 920 87 1400 220/15 RMK AO2
14840KMKG MKG20000615012010206/15/00 01:20:31  5-MIN KMKG 150620Z 22015G21KT 10SM FEW070 17/14 A2961 920 83 1400 230/15G21 RMK AO2
14840KMKG MKG20000615012510206/15/00 01:25:31  5-MIN KMKG 150625Z 22015G21KT 10SM SCT070 17/15 A2961 920 87 1400 230/15G21 RMK AO2
14840KMKG MKG20000615013009606/15/00 01:30:31  5-MIN KMKG 150630Z 22015KT 10SM BKN070 17/15 A2961 920 87 1400 230/15 RMK AO2
14840KMKG MKG20000615013510206/15/00 01:35:31  5-MIN KMKG 150635Z 22016G22KT 10SM BKN070 18/15 A2961 920 83 1500 220/16G22 RMK AO2
14840KMKG MKG20000615014010206/15/00 01:40:31  5-MIN KMKG 150640Z 22017G22KT 10SM BKN070 18/15 A2961 920 83 1500 220/17G22 RMK AO2
14840KMKG MKG20000615014510206/15/00 01:45:31  5-MIN KMKG 150645Z 22017G22KT 10SM OVC070 18/15 A2961 920 83 1500 220/17G22 RMK AO2
14840KMKG MKG20000615015011306/15/00 01:50:31  5-MIN KMKG 150650Z 22016KT 10SM OVC070 17/15 A2961 920 87 1400 220/16 RMK AO2 SLP022 T01720150
14840KMKG MKG20000615015511906/15/00 01:55:31  5-MIN KMKG 150655Z 22015G24KT 10SM OVC070 17/15 A2961 920 87 1400 230/15G24 RMK AO2 SLP022 T01720150
14840KMKG MKG20000615020010206/15/00 02:00:31  5-MIN KMKG 150700Z 22015G24KT 10SM BKN070 17/15 A2961 920 87 1400 230/15G24 RMK AO2
14840KMKG MKG20000615020510206/15/00 02:05:31  5-MIN KMKG 150705Z 22015G20KT 10SM BKN070 17/14 A2961 920 86 1400 230/15G20 RMK AO2
14840KMKG MKG20000615021010206/15/00 02:10:31  5-MIN KMKG 150710Z 23015G20KT 10SM SCT070 17/14 A2960 920 86 1400 230/15G20 RMK AO2
14840KMKG MKG20000615021510206/15/00 02:15:31  5-MIN KMKG 150715Z 23014G20KT 10SM BKN070 17/14 A2961 920 86 1400 230/14G20 RMK AO2
14840KMKG MKG20000615022009606/15/00 02:20:31  5-MIN KMKG 150720Z 22014KT 10SM BKN070 17/14 A2961 920 86 1400 220/14 RMK AO2
14840KMKG MKG20000615022509606/15/00 02:25:31  5-MIN KMKG 150725Z 22012KT 10SM SCT065 17/14 A2961 920 86 1400 220/12 RMK AO2
14840KMKG MKG20000615023009606/15/00 02:30:31  5-MIN KMKG 150730Z 22014KT 10SM FEW070 17/14 A2961 920 86 1400 230/14 RMK AO2
14840KMKG MKG20000615023509606/15/00 02:35:31  5-MIN KMKG 150735Z 22012KT 10SM FEW070 17/14 A2961 920 86 1400 220/12 RMK AO2
14840KMKG MKG20000615024009606/15/00 02:40:31  5-MIN KMKG 150740Z 22012KT 10SM FEW070 17/14 A2961 920 86 1400 220/12 RMK AO2
14840KMKG MKG20000615024509606/15/00 02:45:31  5-MIN KMKG 150745Z 20012KT 10SM FEW065 17/14 A2961 920 86 1400 210/12 RMK AO2
14840KMKG MKG20000615025011006/15/00 02:50:31  5-MIN KMKG 150750Z 20013KT 10SM CLR 17/14 A2961 920 86 1400 210/13 RMK AO2 SLP023 T01670144
14840KMKG MKG20000615025511006/15/00 02:55:31  5-MIN KMKG 150755Z 21015KT 10SM CLR 17/14 A2961 920 86 1400 210/15 RMK AO2 SLP023 T01670144
14840KMKG MKG20000615030009306/15/00 03:00:31  5-MIN KMKG 150800Z 20014KT 10SM CLR 17/14 A2961 920 86 1400 210/14 RMK AO2
14840KMKG MKG20000615030509306/15/00 03:05:31  5-MIN KMKG 150805Z 21014KT 10SM CLR 16/14 A2960 920 90 1300 210/14 RMK AO2
14840KMKG MKG20000615031009306/15/00 03:10:31  5-MIN KMKG 150810Z 21013KT 10SM CLR 16/14 A2961 920 90 1300 210/13 RMK AO2
14840KMKG MKG20000615031509306/15/00 03:15:31  5-MIN KMKG 150815Z 21014KT 10SM CLR 16/14 A2961 920 90 1300 210/14 RMK AO2
14840KMKG MKG20000615032009306/15/00 03:20:31  5-MIN KMKG 150820Z 21013KT 10SM CLR 16/14 A2961 920 90 1300 220/13 RMK AO2
14840KMKG MKG20000615032509906/15/00 03:25:31  5-MIN KMKG 150825Z 22014G20KT 10SM CLR 17/14 A2960 920 86 1400 220/14G20 RMK AO2
14840KMKG MKG20000615033009906/15/00 03:30:31  5-MIN KMKG 150830Z 21015G23KT 10SM CLR 17/14 A2960 920 86 1400 220/15G23 RMK AO2
14840KMKG MKG20000615033509906/15/00 03:35:31  5-MIN KMKG 150835Z 21016G23KT 10SM CLR 17/14 A2961 920 86 1400 210/16G23 RMK AO2
14840KMKG MKG20000615034009906/15/00 03:40:31  5-MIN KMKG 150840Z 21016G22KT 10SM CLR 17/14 A2961 920 83 1400 210/16G22 RMK AO2
14840KMKG MKG20000615034509906/15/00 03:45:31  5-MIN KMKG 150845Z 21014G21KT 10SM CLR 16/14 A2961 920 86 1300 210/14G21 RMK AO2
14840KMKG MKG20000615035011906/15/00 03:50:31  5-MIN KMKG 150850Z 21014KT 10SM FEW055 16/14 A2961 920 90 1300 210/14 RMK AO2 SLP024 T01610144 57004
14840KMKG MKG20000615035513206/15/00 03:55:31  5-MIN KMKG 150855Z 21016G21KT 10SM FEW043 SCT055 17/14 A2960 920 86 1400 210/16G21 RMK AO2 SLP022 T01670144 56003
14840KMKG MKG20000615040010906/15/00 04:00:31  5-MIN KMKG 150900Z 22015G21KT 10SM SCT047 BKN055 17/14 A2960 930 86 1400 220/15G21 RMK AO2
14840KMKG MKG20000615040510306/15/00 04:05:31  5-MIN KMKG 150905Z 21014KT 10SM BKN047 BKN055 17/14 A2961 920 86 1400 210/14 RMK AO2
14840KMKG MKG20000615041009606/15/00 04:10:31  5-MIN KMKG 150910Z 21013KT 10SM BKN049 17/14 A2961 920 86 1400 210/13 RMK AO2
14840KMKG MKG20000615041510206/15/00 04:15:31  5-MIN KMKG 150915Z 21013G19KT 10SM OVC049 17/14 A2961 920 86 1400 210/13G19 RMK AO2
14840KMKG MKG20000615042010906/15/00 04:20:31  5-MIN KMKG 150920Z 21012G19KT 10SM BKN047 OVC055 16/14 A2961 920 90 1300 210/12G19 RMK AO2
14840KMKG MKG20000615042510906/15/00 04:25:31  5-MIN KMKG 150925Z 21014G20KT 10SM FEW024 OVC047 17/14 A2961 920 86 1400 210/14G20 RMK AO2
14840KMKG MKG20000615043010906/15/00 04:30:31  5-MIN KMKG 150930Z 21013G20KT 10SM FEW024 OVC047 16/14 A2961 920 90 1300 210/13G20 RMK AO2
14840KMKG MKG20000615043511606/15/00 04:35:31  5-MIN KMKG 150935Z 21016G20KT 10SM SCT024 BKN042 OVC050 16/14 A2961 920 90 1300 210/16G20 RMK AO2
14840KMKG MKG20000615044011006/15/00 04:40:31  5-MIN KMKG 150940Z 21017KT 10SM FEW024 BKN042 OVC050 17/14 A2961 920 86 1400 210/17 RMK AO2
14840KMKG MKG20000615044511606/15/00 04:45:31  5-MIN KMKG 150945Z 21015G22KT 10SM BKN024 BKN042 OVC050 17/14 A2961 920 86 1400 210/15G22 RMK AO2
14840KMKG MKG20000615045013306/15/00 04:50:31  5-MIN KMKG 150950Z 21018G22KT 10SM BKN022 BKN042 OVC050 17/14 A2961 920 86 1400 210/18G22 RMK AO2 SLP023 T01670144
14840KMKG MKG20000615045513306/15/00 04:55:31  5-MIN KMKG 150955Z 22017G22KT 10SM BKN022 BKN042 OVC050 17/14 A2961 920 86 1400 220/17G22 RMK AO2 SLP025 T01670144
14840KMKG MKG20000615050010906/15/00 05:00:31  5-MIN KMKG 151000Z 21016G21KT 10SM BKN022 OVC040 17/14 A2961 920 86 1400 220/16G21 RMK AO2
14840KMKG MKG20000615050510206/15/00 05:05:31  5-MIN KMKG 151005Z 21017G24KT 10SM OVC022 17/14 A2961 920 86 1400 220/17G24 RMK AO2
14840KMKG MKG20000615051010206/15/00 05:10:31  5-MIN KMKG 151010Z 22016G24KT 10SM OVC022 17/14 A2961 920 86 1400 220/16G24 RMK AO2
14840KMKG MKG20000615051509606/15/00 05:15:31  5-MIN KMKG 151015Z 22015KT 10SM OVC020 17/14 A2961 920 86 1400 220/15 RMK AO2
14840KMKG MKG20000615052009606/15/00 05:20:31  5-MIN KMKG 151020Z 22015KT 10SM OVC020 16/14 A2961 920 90 1300 220/15 RMK AO2
14840KMKG MKG20000615052510206/15/00 05:25:31  5-MIN KMKG 151025Z 22018G22KT 10SM OVC020 16/14 A2961 920 90 1300 230/18G22 RMK AO2
14840KMKG MKG20000615053010206/15/00 05:30:31  5-MIN KMKG 151030Z 22015G22KT 10SM OVC020 16/14 A2961 920 90 1300 220/15G22 RMK AO2
14840KMKG MKG20000615053511806/15/00 05:35:31  5-MIN KMKG 151035Z 22015KT 8SM -RA BKN020 OVC029 16/14 A2961 920 90 1300 220/15 RMK AO2 RAB32 P0000
14840KMKG MKG20000615054012506/15/00 05:40:31  5-MIN KMKG 151040Z 22016KT 8SM -RA BKN020 BKN029 OVC050 16/14 A2961 920 90 1300 220/16 RMK AO2 RAB32 P0000
14840KMKG MKG20000615054513106/15/00 05:45:31  5-MIN KMKG 151045Z 22016G21KT 10SM SCT020 BKN029 OVC050 16/14 A2962 910 90 1300 220/16G21 RMK AO2 RAB32E43 P0000
14840KMKG MKG20000615055014806/15/00 05:50:31  5-MIN KMKG 151050Z 22014G21KT 10SM FEW020 BKN029 OVC050 16/14 A2962 910 90 1300 230/14G21 RMK AO2 RAB32E43 SLP028 P0000 T01610144
14840KMKG MKG20000615055514206/15/00 05:55:31  5-MIN KMKG 151055Z 22014KT 10SM FEW020 BKN034 OVC050 16/14 A2962 910 90 1300 230/14 RMK AO2 RAB32E43 SLP028 P0000 T01610144
14840KMKG MKG20000615060011006/15/00 06:00:31  5-MIN KMKG 151100Z 22013KT 10SM FEW019 BKN034 OVC050 16/14 A2962 910 90 1300 230/13 RMK AO2
14840KMKG MKG20000615060511006/15/00 06:05:31  5-MIN KMKG 151105Z 22014KT 10SM SCT019 BKN034 OVC050 16/14 A2962 910 90 1300 230/14 RMK AO2
14840KMKG MKG20000615061011006/15/00 06:10:31  5-MIN KMKG 151110Z 23014KT 10SM SCT019 BKN024 OVC036 16/14 A2962 910 90 1300 230/14 RMK AO2
14840KMKG MKG20000615061511606/15/00 06:15:31  5-MIN KMKG 151115Z 23015G21KT 10SM BKN019 BKN024 OVC036 16/14 A2963 900 93 1200 230/15G21 RMK AO2
14840KMKG MKG20000615062011606/15/00 06:20:31  5-MIN KMKG 151120Z 23015G21KT 10SM BKN019 BKN024 OVC032 16/14 A2963 900 93 1200 230/15G21 RMK AO2
14840KMKG MKG20000615062510206/15/00 06:25:31  5-MIN KMKG 151125Z 22016G21KT 10SM OVC021 16/14 A2963 900 93 1200 220/16G21 RMK AO2
14840KMKG MKG20000615063010206/15/00 06:30:31  5-MIN KMKG 151130Z 22013G21KT 10SM OVC021 16/14 A2963 900 93 1200 230/13G21 RMK AO2
14840KMKG MKG20000615063509606/15/00 06:35:31  5-MIN KMKG 151135Z 23013KT 10SM OVC021 16/14 A2963 900 93 1200 230/13 RMK AO2
14840KMKG MKG20000615064010306/15/00 06:40:31  5-MIN KMKG 151140Z 23015KT 10SM BKN021 OVC025 16/14 A2964 890 93 1200 230/15 RMK AO2
14840KMKG MKG20000615064510306/15/00 06:45:31  5-MIN KMKG 151145Z 23014KT 10SM BKN021 OVC025 16/14 A2964 890 93 1200 230/14 RMK AO2
14840KMKG MKG20000615065015006/15/00 06:50:31  5-MIN KMKG 151150Z 23014KT 10SM BKN021 OVC025 16/14 A2964 890 93 1200 230/14 RMK AO2 SLP035 60000 70022 T01560144 10178 20156 56003
14840KMKG MKG20000615065515006/15/00 06:55:31  5-MIN KMKG 151155Z 23010KT 10SM FEW008 OVC021 16/14 A2964 890 93 1200 230/10 RMK AO2 SLP036 60000 70022 T01560144 10178 20156 53013
14840KMKG MKG20000615070011006/15/00 07:00:31  5-MIN KMKG 151200Z 24014KT 10SM BKN021 BKN030 OVC042 16/14 A2964 890 93 1200 240/14 RMK AO2
14840KMKG MKG20000615070511006/15/00 07:05:31  5-MIN KMKG 151205Z 23015KT 10SM BKN021 BKN030 OVC042 16/14 A2965 880 93 1200 230/15 RMK AO2
14840KMKG MKG20000615071012506/15/00 07:10:31  5-MIN KMKG 151210Z 23015KT 10SM SCT021 BKN030 OVC042 16/14 A2965 880 93 1200 240/15 RMK AO2 CIG 020 RWY 14
14840KMKG MKG20000615071511006/15/00 07:15:31  5-MIN KMKG 151215Z 23013KT 10SM SCT021 BKN030 OVC042 16/14 A2965 880 93 1200 240/13 RMK AO2
14840KMKG MKG20000615072011006/15/00 07:20:31  5-MIN KMKG 151220Z 23013KT 10SM SCT023 BKN030 OVC042 16/14 A2965 880 93 1200 240/13 RMK AO2
14840KMKG MKG20000615072511606/15/00 07:25:31  5-MIN KMKG 151225Z 24013G18KT 10SM SCT023 BKN030 OVC042 16/14 A2965 880 93 1200 240/13G18 RMK AO2
14840KMKG MKG20000615073011606/15/00 07:30:31  5-MIN KMKG 151230Z 23013G18KT 10SM FEW023 BKN030 OVC042 16/14 A2966 880 90 1200 240/13G18 RMK AO2
14840KMKG MKG20000615073511606/15/00 07:35:31  5-MIN KMKG 151235Z 23015G18KT 10SM FEW023 SCT030 OVC040 16/14 A2966 870 90 1200 230/15G18 RMK AO2
14840KMKG MKG20000615074010906/15/00 07:40:31  5-MIN KMKG 151240Z 23013G18KT 10SM FEW023 OVC040 16/14 A2966 870 90 1200 240/13G18 RMK AO2
14840KMKG MKG20000615074511006/15/00 07:45:31  5-MIN KMKG 151245Z 24011KT 10SM FEW023 SCT034 OVC042 16/14 A2966 870 90 1200 240/11 RMK AO2
14840KMKG MKG20000615075012606/15/00 07:50:31  5-MIN KMKG 151250Z 24012G19KT 10SM FEW034 OVC042 16/14 A2966 870 90 1200 240/12G19 RMK AO2 SLP042 T01610144
14840KMKG MKG20000615075511906/15/00 07:55:31  5-MIN KMKG 151255Z 23014G19KT 10SM OVC040 16/14 A2966 870 90 1200 230/14G19 RMK AO2 SLP043 T01610144
14840KMKG MKG20000615080009606/15/00 08:00:31  5-MIN KMKG 151300Z 22014KT 10SM OVC040 16/14 A2966 870 90 1200 230/14 RMK AO2
14840KMKG MKG20000615080509606/15/00 08:05:31  5-MIN KMKG 151305Z 24011KT 10SM OVC042 16/14 A2967 870 90 1200 240/11 RMK AO2
14840KMKG MKG20000615081010206/15/00 08:10:31  5-MIN KMKG 151310Z 23015G19KT 10SM OVC042 17/14 A2967 870 86 1300 230/15G19 RMK AO2
14840KMKG MKG20000615081510206/15/00 08:15:31  5-MIN KMKG 151315Z 23013G19KT 10SM OVC042 16/14 A2967 860 90 1200 240/13G19 RMK AO2
14840KMKG MKG20000615082009606/15/00 08:20:31  5-MIN KMKG 151320Z 23013KT 10SM OVC042 16/14 A2967 860 90 1200 230/13 RMK AO2
14840KMKG MKG20000615082509606/15/00 08:25:31  5-MIN KMKG 151325Z 23015KT 10SM OVC042 16/14 A2967 860 90 1200 230/15 RMK AO2
14840KMKG MKG20000615083009606/15/00 08:30:31  5-MIN KMKG 151330Z 23013KT 10SM OVC040 17/14 A2967 860 86 1300 240/13 RMK AO2
14840KMKG MKG20000615083509606/15/00 08:35:31  5-MIN KMKG 151335Z 23013KT 10SM OVC040 17/14 A2967 860 86 1300 240/13 RMK AO2
14840KMKG MKG20000615084010206/15/00 08:40:31  5-MIN KMKG 151340Z 23015G18KT 10SM OVC040 17/14 A2967 860 83 1300 230/15G18 RMK AO2
14840KMKG MKG20000615084510206/15/00 08:45:31  5-MIN KMKG 151345Z 23014G19KT 10SM OVC038 17/14 A2967 860 83 1300 240/14G19 RMK AO2
14840KMKG MKG20000615085011906/15/00 08:50:31  5-MIN KMKG 151350Z 23012G19KT 10SM OVC038 17/14 A2968 860 80 1400 240/12G19 RMK AO2 SLP047 T01720139
14840KMKG MKG20000615085511306/15/00 08:55:31  5-MIN KMKG 151355Z 24013KT 10SM OVC038 17/14 A2968 850 80 1400 240/13 RMK AO2 SLP048 T01720139
14840KMKG MKG20000615090009606/15/00 09:00:31  5-MIN KMKG 151400Z 23013KT 10SM OVC038 17/14 A2968 860 80 1400 230/13 RMK AO2
14840KMKG MKG20000615090510206/15/00 09:05:31  5-MIN KMKG 151405Z 23014G23KT 10SM OVC038 17/14 A2968 850 80 1400 230/14G23 RMK AO2
14840KMKG MKG20000615091010206/15/00 09:10:31  5-MIN KMKG 151410Z 24014G23KT 10SM OVC038 17/14 A2968 850 80 1300 240/14G23 RMK AO2
14840KMKG MKG20000615091509606/15/00 09:15:31  5-MIN KMKG 151415Z 23012KT 10SM OVC038 17/14 A2969 850 80 1300 230/12 RMK AO2
14840KMKG MKG20000615092010206/15/00 09:20:31  5-MIN KMKG 151420Z 23013G19KT 10SM BKN038 18/14 A2968 850 78 1400 230/13G19 RMK AO2
14840KMKG MKG20000615092510206/15/00 09:25:31  5-MIN KMKG 151425Z 23014G20KT 10SM BKN038 18/14 A2968 850 78 1500 230/14G20 RMK AO2
14840KMKG MKG20000615093010206/15/00 09:30:31  5-MIN KMKG 151430Z 23014G20KT 10SM SCT038 18/14 A2968 850 78 1500 230/14G20 RMK AO2
14840KMKG MKG20000615093510206/15/00 09:35:31  5-MIN KMKG 151435Z 23015G21KT 10SM FEW038 18/14 A2968 850 78 1400 240/15G21 RMK AO2
14840KMKG MKG20000615094010206/15/00 09:40:31  5-MIN KMKG 151440Z 23014G21KT 10SM FEW038 18/14 A2968 850 78 1500 240/14G21 RMK AO2
14840KMKG MKG20000615094509306/15/00 09:45:31  5-MIN KMKG 151445Z 24016KT 10SM CLR 18/14 A2969 850 78 1500 240/16 RMK AO2
14840KMKG MKG20000615095012206/15/00 09:50:31  5-MIN KMKG 151450Z 23015G21KT 10SM CLR 18/14 A2969 850 78 1500 230/15G21 RMK AO2 SLP052 T01830144 53013
14840KMKG MKG20000615095512506/15/00 09:55:31  5-MIN KMKG 151455Z 23016G20KT 10SM FEW038 18/14 A2969 840 78 1500 230/16G20 RMK AO2 SLP054 T01830144 51017
14840KMKG MKG20000615100010206/15/00 10:00:31  5-MIN KMKG 151500Z 23016G21KT 10SM FEW038 18/14 A2970 840 78 1500 240/16G21 RMK AO2
14840KMKG MKG20000615100509606/15/00 10:05:31  5-MIN KMKG 151505Z 22016KT 10SM FEW038 18/14 A2970 840 78 1500 230/16 RMK AO2
14840KMKG MKG20000615101010206/15/00 10:10:31  5-MIN KMKG 151510Z 23016G22KT 10SM FEW038 18/14 A2970 830 78 1500 230/16G22 RMK AO2
14840KMKG MKG20000615101510206/15/00 10:15:31  5-MIN KMKG 151515Z 22016G22KT 10SM FEW038 18/14 A2970 830 78 1500 220/16G22 RMK AO2
14840KMKG MKG20000615102009606/15/00 10:20:31  5-MIN KMKG 151520Z 23015KT 10SM FEW038 19/14 A2970 830 75 1500 230/15 RMK AO2
14840KMKG MKG20000615102509606/15/00 10:25:31  5-MIN KMKG 151525Z 22016KT 10SM FEW038 19/14 A2970 830 75 1500 220/16 RMK AO2
14840KMKG MKG20000615103009606/15/00 10:30:31  5-MIN KMKG 151530Z 22017KT 10SM FEW038 19/14 A2970 830 75 1500 230/17 RMK AO2
14840KMKG MKG20000615103509606/15/00 10:35:31  5-MIN KMKG 151535Z 22016KT 10SM FEW038 19/14 A2970 830 75 1500 230/16 RMK AO2
14840KMKG MKG20000615104009606/15/00 10:40:31  5-MIN KMKG 151540Z 22017KT 10SM FEW038 19/14 A2970 830 75 1500 230/17 RMK AO2
14840KMKG MKG20000615104509606/15/00 10:45:31  5-MIN KMKG 151545Z 23015KT 10SM FEW038 19/14 A2970 830 75 1500 230/15 RMK AO2
14840KMKG MKG20000615105011306/15/00 10:50:31  5-MIN KMKG 151550Z 23016KT 10SM FEW038 19/14 A2970 830 75 1500 230/16 RMK AO2 SLP056 T01890144
14840KMKG MKG20000615105511306/15/00 10:55:31  5-MIN KMKG 151555Z 22017KT 10SM FEW038 19/14 A2970 840 72 1600 230/17 RMK AO2 SLP055 T01940144
14840KMKG MKG20000615110009606/15/00 11:00:31  5-MIN KMKG 151600Z 22017KT 10SM FEW038 19/14 A2970 840 72 1600 230/17 RMK AO2
14840KMKG MKG20000615110509606/15/00 11:05:31  5-MIN KMKG 151605Z 22016KT 10SM FEW038 19/14 A2970 830 72 1600 230/16 RMK AO2
14840KMKG MKG20000615111010206/15/00 11:10:31  5-MIN KMKG 151610Z 22018G22KT 10SM FEW038 19/14 A2970 830 72 1600 230/18G22 RMK AO2
14840KMKG MKG20000615111510206/15/00 11:15:31  5-MIN KMKG 151615Z 22017G22KT 10SM FEW038 19/14 A2970 830 72 1600 230/17G22 RMK AO2
14840KMKG MKG20000615112010206/15/00 11:20:31  5-MIN KMKG 151620Z 22017G22KT 10SM FEW038 19/14 A2970 830 72 1600 220/17G22 RMK AO2
14840KMKG MKG20000615112510206/15/00 11:25:31  5-MIN KMKG 151625Z 22017G21KT 10SM FEW038 19/14 A2970 830 72 1600 220/17G21 RMK AO2
14840KMKG MKG20000615113010206/15/00 11:30:31  5-MIN KMKG 151630Z 22016G22KT 10SM FEW038 19/14 A2970 830 72 1600 230/16G22 RMK AO2
14840KMKG MKG20000615113510206/15/00 11:35:31  5-MIN KMKG 151635Z 22015G22KT 10SM FEW038 20/14 A2970 830 70 1600 220/15G22 RMK AO2
14840KMKG MKG20000615114009606/15/00 11:40:31  5-MIN KMKG 151640Z 22015KT 10SM FEW038 20/14 A2971 830 70 1600 230/15 RMK AO2
14840KMKG MKG20000615114509606/15/00 11:45:31  5-MIN KMKG 151645Z 22015KT 10SM FEW038 20/14 A2970 830 70 1600 230/15 RMK AO2
14840KMKG MKG20000615115011906/15/00 11:50:31  5-MIN KMKG 151650Z 22017G21KT 10SM FEW038 20/14 A2971 830 70 1600 220/17G21 RMK AO2 SLP058 T02000144
14840KMKG MKG20000615115511906/15/00 11:55:31  5-MIN KMKG 151655Z 22016G21KT 10SM FEW038 19/14 A2970 830 72 1600 230/16G21 RMK AO2 SLP057 T01940144
14840KMKG MKG20000615120009606/15/00 12:00:31  5-MIN KMKG 151700Z 22016KT 10SM FEW038 20/14 A2970 830 70 1600 220/16 RMK AO2
14840KMKG MKG20000615120510206/15/00 12:05:31  5-MIN KMKG 151705Z 22015G19KT 10SM FEW038 21/15 A2970 830 70 1700 220/15G19 RMK AO2
14840KMKG MKG20000615121010206/15/00 12:10:31  5-MIN KMKG 151710Z 22015G19KT 10SM FEW038 20/14 A2970 830 70 1600 220/15G19 RMK AO2
14840KMKG MKG20000615121509606/15/00 12:15:31  5-MIN KMKG 151715Z 21016KT 10SM FEW038 21/14 A2970 840 67 1700 220/16 RMK AO2
14840KMKG MKG20000615122009606/15/00 12:20:31  5-MIN KMKG 151720Z 22013KT 10SM FEW038 20/14 A2970 830 70 1600 220/13 RMK AO2
14840KMKG MKG20000615122509606/15/00 12:25:31  5-MIN KMKG 151725Z 22017KT 10SM FEW038 20/14 A2970 830 70 1600 220/17 RMK AO2
14840KMKG MKG20000615123009606/15/00 12:30:31  5-MIN KMKG 151730Z 21013KT 10SM FEW038 21/14 A2970 830 67 1700 220/13 RMK AO2
14840KMKG MKG20000615123509606/15/00 12:35:31  5-MIN KMKG 151735Z 21014KT 10SM FEW038 19/14 A2970 840 72 1600 220/14 RMK AO2
14840KMKG MKG20000615124009606/15/00 12:40:31  5-MIN KMKG 151740Z 21015KT 10SM FEW038 20/14 A2970 830 70 1600 210/15 RMK AO2
14840KMKG MKG20000615124509606/15/00 12:45:31  5-MIN KMKG 151745Z 21015KT 10SM FEW038 21/14 A2970 830 67 1700 210/15 RMK AO2
14840KMKG MKG20000615125013106/15/00 12:50:31  5-MIN KMKG 151750Z 21014KT 10SM FEW038 20/14 A2970 830 67 1600 220/14 RMK AO2 SLP057 T02000139 10211 20156 51017
14840KMKG MKG20000615125513706/15/00 12:55:31  5-MIN KMKG 151755Z 21015G20KT 10SM FEW038 21/14 A2971 830 67 1700 220/15G20 RMK AO2 SLP057 T02060144 10211 20156 51004
14840KMKG MKG20000615130010206/15/00 13:00:31  5-MIN KMKG 151800Z 20015G21KT 10SM FEW038 21/14 A2971 830 67 1700 210/15G21 RMK AO2
14840KMKG MKG20000615130510206/15/00 13:05:31  5-MIN KMKG 151805Z 20014G21KT 10SM FEW038 21/14 A2971 830 67 1700 210/14G21 RMK AO2
14840KMKG MKG20000615131010206/15/00 13:10:31  5-MIN KMKG 151810Z 21016G20KT 10SM FEW038 21/14 A2971 830 67 1700 210/16G20 RMK AO2
14840KMKG MKG20000615131509606/15/00 13:15:31  5-MIN KMKG 151815Z 20015KT 10SM FEW038 21/14 A2971 830 67 1700 210/15 RMK AO2
14840KMKG MKG20000615132009606/15/00 13:20:31  5-MIN KMKG 151820Z 21014KT 10SM FEW038 21/14 A2971 830 65 1800 210/14 RMK AO2
14840KMKG MKG20000615132510206/15/00 13:25:31  5-MIN KMKG 151825Z 20016G21KT 10SM FEW038 20/14 A2971 820 67 1600 210/16G21 RMK AO2
14840KMKG MKG20000615133010206/15/00 13:30:31  5-MIN KMKG 151830Z 21014G21KT 10SM FEW038 20/14 A2971 820 67 1600 220/14G21 RMK AO2
14840KMKG MKG20000615133510206/15/00 13:35:31  5-MIN KMKG 151835Z 21015G19KT 10SM FEW038 21/14 A2972 820 67 1700 210/15G19 RMK AO2
14840KMKG MKG20000615134009606/15/00 13:40:31  5-MIN KMKG 151840Z 21014KT 10SM FEW038 21/14 A2971 820 67 1700 220/14 RMK AO2
14840KMKG MKG20000615134509606/15/00 13:45:31  5-MIN KMKG 151845Z 22012KT 10SM FEW038 21/14 A2971 820 65 1800 220/12 RMK AO2
14840KMKG MKG20000615135011306/15/00 13:50:31  5-MIN KMKG 151850Z 21013KT 10SM FEW038 22/15 A2971 830 65 1800 210/13 RMK AO2 SLP058 T02170150
14840KMKG MKG20000615135511306/15/00 13:55:31  5-MIN KMKG 151855Z 22013KT 10SM FEW038 22/15 A2971 830 65 1800 220/13 RMK AO2 SLP058 T02170150
14840KMKG MKG20000615140009606/15/00 14:00:31  5-MIN KMKG 151900Z 22014KT 10SM FEW038 21/15 A2971 830 68 1800 220/14 RMK AO2
14840KMKG MKG20000615140509606/15/00 14:05:31  5-MIN KMKG 151905Z 22013KT 10SM FEW038 21/14 A2971 820 67 1700 220/13 RMK AO2
14840KMKG MKG20000615141010206/15/00 14:10:31  5-MIN KMKG 151910Z 21013G19KT 10SM FEW038 21/14 A2971 820 65 1800 210/13G19 RMK AO2
14840KMKG MKG20000615141509606/15/00 14:15:31  5-MIN KMKG 151915Z 21012KT 10SM FEW038 22/15 A2971 820 65 1800 220/12 RMK AO2
14840KMKG MKG20000615142009606/15/00 14:20:31  5-MIN KMKG 151920Z 22012KT 10SM FEW038 21/15 A2971 820 68 1800 220/12 RMK AO2
14840KMKG MKG20000615142509606/15/00 14:25:31  5-MIN KMKG 151925Z 21012KT 10SM FEW038 22/15 A2971 820 65 1800 210/12 RMK AO2
14840KMKG MKG20000615143009606/15/00 14:30:31  5-MIN KMKG 151930Z 22014KT 10SM FEW038 21/14 A2971 820 65 1800 220/14 RMK AO2
14840KMKG MKG20000615143509606/15/00 14:35:31  5-MIN KMKG 151935Z 22013KT 10SM FEW038 22/15 A2971 830 65 1800 230/13 RMK AO2
14840KMKG MKG20000615144009606/15/00 14:40:31  5-MIN KMKG 151940Z 22014KT 10SM FEW038 22/14 A2971 830 63 1800 220/14 RMK AO2
14840KMKG MKG20000615144509606/15/00 14:45:31  5-MIN KMKG 151945Z 22014KT 10SM FEW038 22/14 A2970 830 63 1800 220/14 RMK AO2
14840KMKG MKG20000615145011306/15/00 14:50:31  5-MIN KMKG 151950Z 21013KT 10SM FEW038 22/14 A2970 830 63 1800 220/13 RMK AO2 SLP055 T02170144
14840KMKG MKG20000615145511306/15/00 14:55:31  5-MIN KMKG 151955Z 22013KT 10SM FEW038 22/15 A2970 830 63 1900 220/13 RMK AO2 SLP055 T02220150
14840KMKG MKG20000615150009306/15/00 15:00:31  5-MIN KMKG 152000Z 20012KT 10SM CLR 22/14 A2970 840 63 1800 210/12 RMK AO2
14840KMKG MKG20000615150509306/15/00 15:05:31  5-MIN KMKG 152005Z 21010KT 10SM CLR 21/14 A2970 830 65 1800 220/10 RMK AO2
14840KMKG MKG20000615151009306/15/00 15:10:31  5-MIN KMKG 152010Z 22010KT 10SM CLR 22/14 A2969 840 63 1800 220/10 RMK AO2
14840KMKG MKG20000615151509306/15/00 15:15:31  5-MIN KMKG 152015Z 21011KT 10SM CLR 22/14 A2969 840 63 1800 210/11 RMK AO2
14840KMKG MKG20000615152009306/15/00 15:20:31  5-MIN KMKG 152020Z 21011KT 10SM CLR 21/14 A2970 840 65 1800 210/11 RMK AO2
14840KMKG MKG20000615152509306/15/00 15:25:31  5-MIN KMKG 152025Z 20009KT 10SM CLR 21/14 A2970 840 67 1700 210/09 RMK AO2
14840KMKG MKG20000615153009306/15/00 15:30:31  5-MIN KMKG 152030Z 22010KT 10SM CLR 21/14 A2970 830 65 1800 220/10 RMK AO2
14840KMKG MKG20000615153509306/15/00 15:35:31  5-MIN KMKG 152035Z 21011KT 10SM CLR 22/14 A2970 840 63 1800 220/11 RMK AO2
14840KMKG MKG20000615154009306/15/00 15:40:31  5-MIN KMKG 152040Z 20011KT 10SM CLR 22/14 A2970 840 61 1900 200/11 RMK AO2
14840KMKG MKG20000615154509606/15/00 15:45:31  5-MIN KMKG 152045Z 20011KT 10SM FEW035 22/14 A2969 840 63 1800 210/11 RMK AO2
14840KMKG MKG20000615155011906/15/00 15:50:31  5-MIN KMKG 152050Z 21009KT 10SM FEW035 22/14 A2969 840 61 1900 210/09 RMK AO2 SLP052 T02220144 51004
14840KMKG MKG20000615155511906/15/00 15:55:31  5-MIN KMKG 152055Z 20010KT 10SM FEW035 22/14 A2969 840 61 1900 210/10 RMK AO2 SLP051 T02220144 58005
14840KMKG MKG20000615160009306/15/00 16:00:31  5-MIN KMKG 152100Z 21011KT 10SM CLR 22/14 A2969 840 59 1900 220/11 RMK AO2
14840KMKG MKG20000615160509306/15/00 16:05:31  5-MIN KMKG 152105Z 22011KT 10SM CLR 22/14 A2969 840 59 1900 220/11 RMK AO2
14840KMKG MKG20000615161009306/15/00 16:10:31  5-MIN KMKG 152110Z 21012KT 10SM CLR 22/14 A2969 840 61 1900 210/12 RMK AO2
14840KMKG MKG20000615161509306/15/00 16:15:31  5-MIN KMKG 152115Z 20011KT 10SM CLR 22/14 A2969 840 61 1900 210/11 RMK AO2
14840KMKG MKG20000615162009606/15/00 16:20:31  5-MIN KMKG 152120Z 21010KT 10SM FEW035 22/14 A2969 840 61 1900 210/10 RMK AO2
14840KMKG MKG20000615162509606/15/00 16:25:31  5-MIN KMKG 152125Z 21011KT 10SM FEW035 22/14 A2969 850 59 1900 210/11 RMK AO2
14840KMKG MKG20000615163009606/15/00 16:30:31  5-MIN KMKG 152130Z 21011KT 10SM FEW035 22/14 A2968 850 59 1900 210/11 RMK AO2
14840KMKG MKG20000615163509606/15/00 16:35:31  5-MIN KMKG 152135Z 22007KT 10SM FEW035 22/14 A2968 850 59 1900 220/07 RMK AO2
14840KMKG MKG20000615164009606/15/00 16:40:31  5-MIN KMKG 152140Z 20010KT 10SM FEW035 22/14 A2968 850 61 1900 200/10 RMK AO2
14840KMKG MKG20000615164509606/15/00 16:45:31  5-MIN KMKG 152145Z 21009KT 10SM FEW035 22/14 A2968 850 59 1900 210/09 RMK AO2
14840KMKG MKG20000615165011306/15/00 16:50:31  5-MIN KMKG 152150Z 20009KT 10SM FEW035 22/14 A2968 850 61 1900 200/09 RMK AO2 SLP048 T02220144
14840KMKG MKG20000615165511306/15/00 16:55:31  5-MIN KMKG 152155Z 19010KT 10SM FEW035 22/14 A2968 850 59 1900 190/10 RMK AO2 SLP047 T02220139
14840KMKG MKG20000615170009306/15/00 17:00:31  5-MIN KMKG 152200Z 19009KT 10SM CLR 22/14 A2968 860 59 1900 200/09 RMK AO2
14840KMKG MKG20000615170509306/15/00 17:05:31  5-MIN KMKG 152205Z 19008KT 10SM CLR 22/14 A2967 860 59 1900 200/08 RMK AO2
14840KMKG MKG20000615171009306/15/00 17:10:31  5-MIN KMKG 152210Z 19010KT 10SM CLR 22/14 A2967 860 59 1900 200/10 RMK AO2
14840KMKG MKG20000615171509306/15/00 17:15:31  5-MIN KMKG 152215Z 20009KT 10SM CLR 22/14 A2967 860 59 1900 210/09 RMK AO2
14840KMKG MKG20000615172009306/15/00 17:20:31  5-MIN KMKG 152220Z 18009KT 10SM CLR 22/14 A2967 870 59 1900 180/09 RMK AO2
14840KMKG MKG20000615172509306/15/00 17:25:31  5-MIN KMKG 152225Z 18009KT 10SM CLR 22/14 A2967 870 59 1900 190/09 RMK AO2
14840KMKG MKG20000615173009306/15/00 17:30:31  5-MIN KMKG 152230Z 19009KT 10SM CLR 22/14 A2966 870 59 1900 200/09 RMK AO2
14840KMKG MKG20000615173509306/15/00 17:35:31  5-MIN KMKG 152235Z 20008KT 10SM CLR 22/14 A2966 870 59 1900 200/08 RMK AO2
14840KMKG MKG20000615174009306/15/00 17:40:31  5-MIN KMKG 152240Z 20009KT 10SM CLR 22/14 A2966 870 59 1900 210/09 RMK AO2
14840KMKG MKG20000615174509306/15/00 17:45:31  5-MIN KMKG 152245Z 20009KT 10SM CLR 22/14 A2966 870 59 1900 200/09 RMK AO2
14840KMKG MKG20000615175011006/15/00 17:50:31  5-MIN KMKG 152250Z 19008KT 10SM CLR 22/13 A2966 870 56 1900 200/08 RMK AO2 SLP042 T02220133
14840KMKG MKG20000615175511006/15/00 17:55:31  5-MIN KMKG 152255Z 21007KT 10SM CLR 22/14 A2967 870 59 1900 210/07 RMK AO2 SLP043 T02220139
14840KMKG MKG20000615180009306/15/00 18:00:31  5-MIN KMKG 152300Z 19009KT 10SM CLR 22/14 A2966 870 59 1900 190/09 RMK AO2
14840KMKG MKG20000615180509306/15/00 18:05:31  5-MIN KMKG 152305Z 20010KT 10SM CLR 22/14 A2966 870 59 1900 210/10 RMK AO2
14840KMKG MKG20000615181009306/15/00 18:10:31  5-MIN KMKG 152310Z 20009KT 10SM CLR 22/14 A2966 870 59 1900 210/09 RMK AO2
14840KMKG MKG20000615181509306/15/00 18:15:31  5-MIN KMKG 152315Z 20008KT 10SM CLR 22/13 A2966 870 56 2000 200/08 RMK AO2
14840KMKG MKG20000615182009306/15/00 18:20:31  5-MIN KMKG 152320Z 19011KT 10SM CLR 22/13 A2966 870 58 1900 200/11 RMK AO2
14840KMKG MKG20000615182509306/15/00 18:25:31  5-MIN KMKG 152325Z 19010KT 10SM CLR 22/13 A2966 870 58 1900 200/10 RMK AO2
14840KMKG MKG20000615183009306/15/00 18:30:31  5-MIN KMKG 152330Z 20009KT 10SM CLR 22/13 A2966 870 58 1900 200/09 RMK AO2
14840KMKG MKG20000615183509306/15/00 18:35:31  5-MIN KMKG 152335Z 19008KT 10SM CLR 22/13 A2966 870 58 1900 190/08 RMK AO2
14840KMKG MKG20000615184009306/15/00 18:40:31  5-MIN KMKG 152340Z 19008KT 10SM CLR 22/14 A2966 870 61 1900 200/08 RMK AO2
14840KMKG MKG20000615184509306/15/00 18:45:31  5-MIN KMKG 152345Z 19009KT 10SM CLR 22/13 A2966 870 58 1900 200/09 RMK AO2
14840KMKG MKG20000615185012806/15/00 18:50:31  5-MIN KMKG 152350Z 19009KT 10SM CLR 21/13 A2966 870 61 1800 190/09 RMK AO2 SLP042 T02110133 10222 20200 58005
14840KMKG MKG20000615185512806/15/00 18:55:31  5-MIN KMKG 152355Z 19008KT 10SM CLR 21/13 A2966 870 61 1800 190/08 RMK AO2 SLP041 T02110133 10222 20200 56011
14840KMKG MKG20000615190009306/15/00 19:00:31  5-MIN KMKG 160000Z 18009KT 10SM CLR 21/14 A2965 880 63 1800 190/09 RMK AO2
14840KMKG MKG20000615190509306/15/00 19:05:31  5-MIN KMKG 160005Z 18010KT 10SM CLR 21/13 A2966 880 61 1800 180/10 RMK AO2
14840KMKG MKG20000615191009306/15/00 19:10:31  5-MIN KMKG 160010Z 18009KT 10SM CLR 21/13 A2966 870 61 1800 180/09 RMK AO2
14840KMKG MKG20000615191509306/15/00 19:15:31  5-MIN KMKG 160015Z 18009KT 10SM CLR 21/13 A2966 870 58 1800 180/09 RMK AO2
14840KMKG MKG20000615192009306/15/00 19:20:31  5-MIN KMKG 160020Z 18008KT 10SM CLR 21/13 A2966 870 58 1800 180/08 RMK AO2
14840KMKG MKG20000615192509306/15/00 19:25:31  5-MIN KMKG 160025Z 17010KT 10SM CLR 21/13 A2966 880 63 1800 170/10 RMK AO2
14840KMKG MKG20000615193009306/15/00 19:30:31  5-MIN KMKG 160030Z 18009KT 10SM CLR 21/13 A2966 880 60 1800 180/09 RMK AO2
14840KMKG MKG20000615193509306/15/00 19:35:31  5-MIN KMKG 160035Z 17008KT 10SM CLR 21/13 A2966 880 60 1800 180/08 RMK AO2
14840KMKG MKG20000615194009306/15/00 19:40:31  5-MIN KMKG 160040Z 17008KT 10SM CLR 21/13 A2965 880 60 1800 180/08 RMK AO2
14840KMKG MKG20000615194509306/15/00 19:45:31  5-MIN KMKG 160045Z 17008KT 10SM CLR 20/13 A2965 880 63 1700 180/08 RMK AO2
14840KMKG MKG20000615195011006/15/00 19:50:31  5-MIN KMKG 160050Z 17008KT 10SM CLR 20/13 A2965 880 63 1700 180/08 RMK AO2 SLP040 T02000128
14840KMKG MKG20000615195511006/15/00 19:55:31  5-MIN KMKG 160055Z 17007KT 10SM CLR 20/13 A2965 880 63 1700 180/07 RMK AO2 SLP039 T02000128
14840KMKG MKG20000615200009306/15/00 20:00:31  5-MIN KMKG 160100Z 17007KT 10SM CLR 20/13 A2965 880 63 1700 180/07 RMK AO2
14840KMKG MKG20000615200509306/15/00 20:05:31  5-MIN KMKG 160105Z 17006KT 10SM CLR 19/13 A2965 880 65 1600 170/06 RMK AO2
14840KMKG MKG20000615201009306/15/00 20:10:31  5-MIN KMKG 160110Z 17006KT 10SM CLR 19/13 A2965 880 65 1600 170/06 RMK AO2
14840KMKG MKG20000615201509306/15/00 20:15:31  5-MIN KMKG 160115Z 16006KT 10SM CLR 19/13 A2965 880 65 1600 170/06 RMK AO2
14840KMKG MKG20000615202009306/15/00 20:20:31  5-MIN KMKG 160120Z 17006KT 10SM CLR 19/13 A2965 880 65 1600 180/06 RMK AO2
14840KMKG MKG20000615202509306/15/00 20:25:31  5-MIN KMKG 160125Z 16007KT 10SM CLR 19/13 A2965 880 65 1600 170/07 RMK AO2
14840KMKG MKG20000615203009306/15/00 20:30:31  5-MIN KMKG 160130Z 16006KT 10SM CLR 19/13 A2965 880 65 1600 160/06 RMK AO2
14840KMKG MKG20000615203509306/15/00 20:35:31  5-MIN KMKG 160135Z 16006KT 10SM CLR 19/13 A2965 890 65 1600 160/06 RMK AO2
14840KMKG MKG20000615204009306/15/00 20:40:31  5-MIN KMKG 160140Z 15005KT 10SM CLR 19/13 A2965 880 67 1600 160/05 RMK AO2
14840KMKG MKG20000615204509306/15/00 20:45:31  5-MIN KMKG 160145Z 16005KT 10SM CLR 19/13 A2965 880 67 1600 160/05 RMK AO2
14840KMKG MKG20000615205011006/15/00 20:50:31  5-MIN KMKG 160150Z 15006KT 10SM CLR 19/13 A2965 890 65 1600 150/06 RMK AO2 SLP037 T01940128
14840KMKG MKG20000615205511006/15/00 20:55:31  5-MIN KMKG 160155Z 15006KT 10SM CLR 19/13 A2965 880 67 1600 160/06 RMK AO2 SLP038 T01890128
14840KMKG MKG20000615210009306/15/00 21:00:31  5-MIN KMKG 160200Z 15005KT 10SM CLR 19/13 A2965 880 65 1600 160/05 RMK AO2
14840KMKG MKG20000615210509306/15/00 21:05:31  5-MIN KMKG 160205Z 14005KT 10SM CLR 19/13 A2965 880 70 1600 150/05 RMK AO2
14840KMKG MKG20000615211009306/15/00 21:10:31  5-MIN KMKG 160210Z 14006KT 10SM CLR 18/13 A2965 890 72 1500 150/06 RMK AO2
14840KMKG MKG20000615211509306/15/00 21:15:31  5-MIN KMKG 160215Z 14006KT 10SM CLR 18/13 A2965 890 72 1500 150/06 RMK AO2
14840KMKG MKG20000615212009306/15/00 21:20:31  5-MIN KMKG 160220Z 14005KT 10SM CLR 18/13 A2965 880 75 1500 150/05 RMK AO2
14840KMKG MKG20000615212509306/15/00 21:25:31  5-MIN KMKG 160225Z 14005KT 10SM CLR 18/13 A2965 880 72 1500 150/05 RMK AO2
14840KMKG MKG20000615213009306/15/00 21:30:31  5-MIN KMKG 160230Z 14005KT 10SM CLR 18/13 A2965 880 75 1500 140/05 RMK AO2
14840KMKG MKG20000615213509306/15/00 21:35:31  5-MIN KMKG 160235Z 14006KT 10SM CLR 17/13 A2964 890 78 1400 140/06 RMK AO2
14840KMKG MKG20000615214009306/15/00 21:40:31  5-MIN KMKG 160240Z 14006KT 10SM CLR 17/14 A2965 890 80 1400 140/06 RMK AO2
14840KMKG MKG20000615214509306/15/00 21:45:31  5-MIN KMKG 160245Z 14006KT 10SM CLR 17/14 A2965 890 80 1400 140/06 RMK AO2
14840KMKG MKG20000615215011606/15/00 21:50:31  5-MIN KMKG 160250Z 14006KT 10SM CLR 18/14 A2964 890 78 1500 140/06 RMK AO2 SLP037 T01780139 56011
14840KMKG MKG20000615215511606/15/00 21:55:31  5-MIN KMKG 160255Z 15006KT 10SM CLR 18/14 A2965 880 78 1500 150/06 RMK AO2 SLP038 T01780139 56003
14840KMKG MKG20000615220009306/15/00 22:00:31  5-MIN KMKG 160300Z 15006KT 10SM CLR 18/13 A2965 880 72 1500 150/06 RMK AO2
14840KMKG MKG20000615220509306/15/00 22:05:31  5-MIN KMKG 160305Z 15006KT 10SM CLR 18/14 A2965 880 78 1500 150/06 RMK AO2
14840KMKG MKG20000615221009306/15/00 22:10:31  5-MIN KMKG 160310Z 15006KT 10SM CLR 18/14 A2964 890 75 1500 150/06 RMK AO2
14840KMKG MKG20000615221509306/15/00 22:15:31  5-MIN KMKG 160315Z 14007KT 10SM CLR 18/14 A2964 890 75 1500 150/07 RMK AO2
14840KMKG MKG20000615222009306/15/00 22:20:31  5-MIN KMKG 160320Z 14006KT 10SM CLR 18/14 A2964 890 78 1500 150/06 RMK AO2
14840KMKG MKG20000615222509306/15/00 22:25:31  5-MIN KMKG 160325Z 14008KT 10SM CLR 18/14 A2964 890 78 1500 150/08 RMK AO2
14840KMKG MKG20000615223009306/15/00 22:30:31  5-MIN KMKG 160330Z 15007KT 10SM CLR 18/14 A2964 890 75 1500 150/07 RMK AO2
14840KMKG MKG20000615223509306/15/00 22:35:31  5-MIN KMKG 160335Z 14007KT 10SM CLR 18/14 A2963 900 75 1500 150/07 RMK AO2
14840KMKG MKG20000615224009306/15/00 22:40:31  5-MIN KMKG 160340Z 15008KT 10SM CLR 18/14 A2963 900 75 1500 150/08 RMK AO2
14840KMKG MKG20000615224509306/15/00 22:45:31  5-MIN KMKG 160345Z 15008KT 10SM CLR 19/14 A2963 900 72 1600 150/08 RMK AO2
14840KMKG MKG20000615225011006/15/00 22:50:31  5-MIN KMKG 160350Z 15009KT 10SM CLR 19/14 A2963 900 75 1600 150/09 RMK AO2 SLP030 T01890144
14840KMKG MKG20000615225511006/15/00 22:55:31  5-MIN KMKG 160355Z 15009KT 10SM CLR 19/14 A2962 910 75 1600 150/09 RMK AO2 SLP029 T01890144
14840KMKG MKG20000615230009306/15/00 23:00:31  5-MIN KMKG 160400Z 15008KT 10SM CLR 19/14 A2962 910 75 1600 150/08 RMK AO2
14840KMKG MKG20000615230509306/15/00 23:05:31  5-MIN KMKG 160405Z 15009KT 10SM CLR 19/14 A2962 910 75 1600 150/09 RMK AO2
14840KMKG MKG20000615231009306/15/00 23:10:31  5-MIN KMKG 160410Z 15007KT 10SM CLR 19/14 A2962 910 75 1600 160/07 RMK AO2
14840KMKG MKG20000615231509306/15/00 23:15:31  5-MIN KMKG 160415Z 15008KT 10SM CLR 19/14 A2962 910 75 1600 150/08 RMK AO2
14840KMKG MKG20000615232009306/15/00 23:20:31  5-MIN KMKG 160420Z 16008KT 10SM CLR 19/14 A2962 910 75 1600 160/08 RMK AO2
14840KMKG MKG20000615232509306/15/00 23:25:31  5-MIN KMKG 160425Z 15008KT 10SM CLR 19/14 A2962 910 72 1700 160/08 RMK AO2
14840KMKG MKG20000615233009306/15/00 23:30:31  5-MIN KMKG 160430Z 15008KT 10SM CLR 19/14 A2962 910 72 1700 160/08 RMK AO2
14840KMKG MKG20000615233509306/15/00 23:35:31  5-MIN KMKG 160435Z 16008KT 10SM CLR 19/14 A2962 910 72 1700 160/08 RMK AO2
14840KMKG MKG20000615234009306/15/00 23:40:31  5-MIN KMKG 160440Z 16008KT 10SM CLR 19/15 A2963 900 75 1700 160/08 RMK AO2
14840KMKG MKG20000615234509306/15/00 23:45:31  5-MIN KMKG 160445Z 15009KT 10SM CLR 19/15 A2962 910 75 1700 160/09 RMK AO2
14840KMKG MKG20000615235012006/15/00 23:50:31  5-MIN KMKG 160450Z 15010KT 10SM CLR 19/15 A2962 910 75 1700 160/10 RMK AO2 SLP027 T01940150 402220156
14840KMKG MKG20000615235512006/15/00 23:55:31  5-MIN KMKG 160455Z 16009KT 10SM CLR 20/15 A2962 910 72 1700 160/09 RMK AO2 SLP026 T02000150 402220156
14840KMKG MKG20000616000009306/16/00 00:00:31  5-MIN KMKG 160500Z 15009KT 10SM CLR 20/15 A2961 910 72 1700 160/09 RMK AO2
14840KMKG MKG20000616000509306/16/00 00:05:31  5-MIN KMKG 160505Z 17009KT 10SM CLR 20/15 A2962 910 72 1700 170/09 RMK AO2
14840KMKG MKG20000616001009306/16/00 00:10:31  5-MIN KMKG 160510Z 16008KT 10SM CLR 21/15 A2963 900 70 1800 170/08 RMK AO2
14840KMKG MKG20000616001509906/16/00 00:15:31  5-MIN KMKG 160515Z 16012G18KT 10SM CLR 21/15 A2962 910 70 1800 160/12G18 RMK AO2
14840KMKG MKG20000616002009906/16/00 00:20:31  5-MIN KMKG 160520Z 16010G18KT 10SM CLR 21/15 A2962 910 68 1900 160/10G18 RMK AO2
14840KMKG MKG20000616002509306/16/00 00:25:31  5-MIN KMKG 160525Z 17010KT 10SM CLR 21/15 A2962 910 70 1800 170/10 RMK AO2
14840KMKG MKG20000616003009306/16/00 00:30:31  5-MIN KMKG 160530Z 15010KT 10SM CLR 21/15 A2961 910 70 1800 160/10 RMK AO2
14840KMKG MKG20000616003509306/16/00 00:35:31  5-MIN KMKG 160535Z 16012KT 10SM CLR 21/15 A2961 920 68 1900 170/12 RMK AO2
14840KMKG MKG20000616004009306/16/00 00:40:31  5-MIN KMKG 160540Z 16009KT 10SM CLR 21/15 A2961 920 70 1800 160/09 RMK AO2
14840KMKG MKG20000616004509306/16/00 00:45:31  5-MIN KMKG 160545Z 16010KT 10SM CLR 21/15 A2961 920 68 1900 160/10 RMK AO2
14840KMKG MKG20000616005012806/16/00 00:50:31  5-MIN KMKG 160550Z 16008KT 10SM CLR 21/15 A2961 920 68 1900 170/08 RMK AO2 SLP022 T02110150 10211 20172 56003
14840KMKG MKG20000616005512806/16/00 00:55:31  5-MIN KMKG 160555Z 16010KT 10SM CLR 21/15 A2960 920 68 1900 160/10 RMK AO2 SLP022 T02110150 10211 20172 56014
14840KMKG MKG20000616010009906/16/00 01:00:31  5-MIN KMKG 160600Z 17013G17KT 10SM CLR 22/15 A2960 930 65 2000 170/13G17 RMK AO2
14840KMKG MKG20000616010509906/16/00 01:05:31  5-MIN KMKG 160605Z 17013G17KT 10SM CLR 22/15 A2960 930 65 2000 180/13G17 RMK AO2
14840KMKG MKG20000616011009906/16/00 01:10:31  5-MIN KMKG 160610Z 18013G19KT 10SM CLR 22/15 A2959 930 63 2000 180/13G19 RMK AO2
14840KMKG MKG20000616011509906/16/00 01:15:31  5-MIN KMKG 160615Z 17013G20KT 10SM CLR 22/15 A2959 930 63 2000 170/13G20 RMK AO2
14840KMKG MKG20000616012009906/16/00 01:20:31  5-MIN KMKG 160620Z 17010G20KT 10SM CLR 22/15 A2959 940 63 2000 170/10G20 RMK AO2
14840KMKG MKG20000616012509906/16/00 01:25:31  5-MIN KMKG 160625Z 17014G19KT 10SM CLR 22/15 A2959 940 63 2000 180/14G19 RMK AO2
14840KMKG MKG20000616013009906/16/00 01:30:31  5-MIN KMKG 160630Z 17014G20KT 10SM CLR 22/15 A2958 940 63 2000 180/14G20 RMK AO2
14840KMKG MKG20000616013509906/16/00 01:35:31  5-MIN KMKG 160635Z 17016G20KT 10SM CLR 23/15 A2958 950 61 2100 170/16G20 RMK AO2
14840KMKG MKG20000616014009906/16/00 01:40:31  5-MIN KMKG 160640Z 18016G23KT 10SM CLR 22/15 A2958 950 63 2000 180/16G23 RMK AO2
14840KMKG MKG20000616014509906/16/00 01:45:31  5-MIN KMKG 160645Z 17016G23KT 10SM CLR 22/15 A2957 950 63 2000 180/16G23 RMK AO2
14840KMKG MKG20000616015011606/16/00 01:50:31  5-MIN KMKG 160650Z 17017G23KT 10SM CLR 23/15 A2957 960 61 2100 180/17G23 RMK AO2 SLP010 T02280150
14840KMKG MKG20000616015511906/16/00 01:55:31  5-MIN KMKG 160655Z 17016G23KT 10SM FEW120 22/14 A2957 950 61 2100 180/16G23 RMK AO2 SLP010 T02220144
14840KMKG MKG20000616020010206/16/00 02:00:31  5-MIN KMKG 160700Z 17017G23KT 10SM SCT120 22/15 A2957 960 63 2100 180/17G23 RMK AO2
14840KMKG MKG20000616020509606/16/00 02:05:31  5-MIN KMKG 160705Z 17016KT 10SM SCT120 22/14 A2956 960 61 2100 180/16 RMK AO2
14840KMKG MKG20000616021009606/16/00 02:10:31  5-MIN KMKG 160710Z 17016KT 10SM FEW120 22/15 A2956 960 63 2100 180/16 RMK AO2
14840KMKG MKG20000616021510206/16/00 02:15:31  5-MIN KMKG 160715Z 17019G22KT 10SM FEW120 22/15 A2956 970 63 2100 180/19G22 RMK AO2
14840KMKG MKG20000616022010206/16/00 02:20:31  5-MIN KMKG 160720Z 18015G23KT 10SM SCT120 22/15 A2956 970 63 2100 180/15G23 RMK AO2
14840KMKG MKG20000616022510206/16/00 02:25:31  5-MIN KMKG 160725Z 18018G25KT 10SM SCT120 22/15 A2956 960 63 2100 190/18G25 RMK AO2
14840KMKG MKG20000616023012006/16/00 02:30:31  5-MIN KMKG 160730Z 18018G27KT 10SM SCT120 22/15 A2956 960 63 2100 190/18G27 RMK AO2 PK WND 19027/0728
14840KMKG MKG20000616023512006/16/00 02:35:31  5-MIN KMKG 160735Z 18017G27KT 10SM SCT120 22/15 A2956 960 63 2100 190/17G27 RMK AO2 PK WND 19027/0728
14840KMKG MKG20000616024012006/16/00 02:40:31  5-MIN KMKG 160740Z 18019G26KT 10SM BKN120 22/15 A2956 960 63 2100 190/19G26 RMK AO2 PK WND 19027/0728
14840KMKG MKG20000616024512006/16/00 02:45:31  5-MIN KMKG 160745Z 18019G28KT 10SM BKN120 22/15 A2957 960 63 2100 190/19G28 RMK AO2 PK WND 18028/0745
14840KMKG MKG20000616025013706/16/00 02:50:31  5-MIN KMKG 160750Z 19021G28KT 10SM BKN120 22/15 A2957 960 63 2100 190/21G28 RMK AO2 PK WND 18028/0745 SLP009 T02220150
14840KMKG MKG20000616025513706/16/00 02:55:31  5-MIN KMKG 160755Z 19020G29KT 10SM BKN110 22/16 A2957 950 65 2100 190/20G29 RMK AO2 PK WND 18029/0753 SLP010 T02220156
14840KMKG MKG20000616030012006/16/00 03:00:31  5-MIN KMKG 160800Z 19021G29KT 10SM BKN110 22/16 A2957 960 65 2100 200/21G29 RMK AO2 PK WND 19028/0756
14840KMKG MKG20000616030512006/16/00 03:05:31  5-MIN KMKG 160805Z 19019G30KT 10SM BKN110 22/16 A2957 960 65 2100 190/19G30 RMK AO2 PK WND 19030/0803
14840KMKG MKG20000616031012006/16/00 03:10:31  5-MIN KMKG 160810Z 18019G30KT 10SM OVC110 22/16 A2956 960 65 2100 190/19G30 RMK AO2 PK WND 19030/0803
14840KMKG MKG20000616031512006/16/00 03:15:31  5-MIN KMKG 160815Z 18019G26KT 10SM OVC110 22/16 A2956 960 65 2100 190/19G26 RMK AO2 PK WND 19030/0803
14840KMKG MKG20000616032012006/16/00 03:20:31  5-MIN KMKG 160820Z 19018G26KT 10SM OVC110 22/16 A2956 960 68 2000 190/18G26 RMK AO2 PK WND 19030/0803
14840KMKG MKG20000616032512006/16/00 03:25:31  5-MIN KMKG 160825Z 19019G26KT 10SM OVC110 22/16 A2956 970 68 2000 190/19G26 RMK AO2 PK WND 19030/0803
14840KMKG MKG20000616033012006/16/00 03:30:31  5-MIN KMKG 160830Z 19020G28KT 10SM OVC110 22/16 A2956 970 68 2000 190/20G28 RMK AO2 PK WND 19030/0803
14840KMKG MKG20000616033512006/16/00 03:35:31  5-MIN KMKG 160835Z 19019G28KT 10SM OVC110 22/16 A2955 970 68 2000 190/19G28 RMK AO2 PK WND 19030/0803
14840KMKG MKG20000616034012006/16/00 03:40:31  5-MIN KMKG 160840Z 19020G26KT 10SM OVC110 22/16 A2955 970 68 2000 190/20G26 RMK AO2 PK WND 19030/0803
14840KMKG MKG20000616034512006/16/00 03:45:31  5-MIN KMKG 160845Z 19019G24KT 10SM OVC100 21/16 A2956 970 70 1900 190/19G24 RMK AO2 PK WND 19030/0803
14840KMKG MKG20000616035014306/16/00 03:50:31  5-MIN KMKG 160850Z 19021G25KT 10SM OVC100 21/16 A2955 970 70 1900 190/21G25 RMK AO2 PK WND 19030/0803 SLP004 T02110156 56014
14840KMKG MKG20000616035514306/16/00 03:55:31  5-MIN KMKG 160855Z 19020G25KT 10SM OVC100 21/16 A2955 980 73 2000 190/20G25 RMK AO2 PK WND 19030/0803 SLP002 T02110161 56018
14840KMKG MKG20000616040012006/16/00 04:00:31  5-MIN KMKG 160900Z 18021G27KT 10SM OVC100 21/16 A2955 970 73 2000 190/21G27 RMK AO2 PK WND 19027/0900
14840KMKG MKG20000616040512006/16/00 04:05:31  5-MIN KMKG 160905Z 19019G27KT 10SM OVC100 21/16 A2955 980 73 2000 190/19G27 RMK AO2 PK WND 19027/0900
14840KMKG MKG20000616041012006/16/00 04:10:31  5-MIN KMKG 160910Z 19019G26KT 10SM OVC100 21/16 A2955 980 73 2000 190/19G26 RMK AO2 PK WND 19027/0900
14840KMKG MKG20000616041512006/16/00 04:15:31  5-MIN KMKG 160915Z 19020G29KT 10SM OVC100 21/16 A2954 980 73 2000 190/20G29 RMK AO2 PK WND 19029/0914
14840KMKG MKG20000616042012006/16/00 04:20:31  5-MIN KMKG 160920Z 19020G29KT 10SM OVC100 21/16 A2954 980 73 2000 190/20G29 RMK AO2 PK WND 19029/0914
14840KMKG MKG20000616042512006/16/00 04:25:31  5-MIN KMKG 160925Z 18021G26KT 10SM OVC100 21/16 A2954 980 73 2000 190/21G26 RMK AO2 PK WND 19029/0914
14840KMKG MKG20000616043012006/16/00 04:30:31  5-MIN KMKG 160930Z 19020G26KT 10SM OVC100 21/16 A2954 990 73 2000 190/20G26 RMK AO2 PK WND 19029/0914
14840KMKG MKG20000616043512006/16/00 04:35:31  5-MIN KMKG 160935Z 19022G27KT 10SM OVC095 21/16 A2954 990 73 2000 190/22G27 RMK AO2 PK WND 19029/0914
14840KMKG MKG20000616044012006/16/00 04:40:31  5-MIN KMKG 160940Z 19023G31KT 10SM OVC095 21/16 A2953 990 73 2000 200/23G31 RMK AO2 PK WND 20031/0939
14840KMKG MKG20000616044512006/16/00 04:45:31  5-MIN KMKG 160945Z 19017G31KT 10SM OVC095 21/16 A2954 990 73 2000 190/17G31 RMK AO2 PK WND 20031/0939
14840KMKG MKG20000616045013706/16/00 04:50:31  5-MIN KMKG 160950Z 19022G30KT 10SM OVC095 21/16 A2953 990 73 2000 190/22G30 RMK AO2 PK WND 20031/0939 SLP997 T02110161
14840KMKG MKG20000616045513706/16/00 04:55:31  5-MIN KMKG 160955Z 20019G30KT 10SM BKN095 21/16 A2954 990 73 2000 200/19G30 RMK AO2 PK WND 20031/0939 SLP998 T02110161
14840KMKG MKG20000616050012006/16/00 05:00:31  5-MIN KMKG 161000Z 19021G30KT 10SM OVC100 21/16 A2953 990 73 2000 190/21G30 RMK AO2 PK WND 18030/0959
14840KMKG MKG20000616050512006/16/00 05:05:31  5-MIN KMKG 161005Z 19021G30KT 10SM OVC100 21/16 A2953 990 73 2000 190/21G30 RMK AO2 PK WND 18030/0959
14840KMKG MKG20000616051012006/16/00 05:10:31  5-MIN KMKG 161010Z 19021G28KT 10SM OVC100 21/16 A2954 990 73 2000 190/21G28 RMK AO2 PK WND 18030/0959
14840KMKG MKG20000616051512006/16/00 05:15:31  5-MIN KMKG 161015Z 19018G28KT 10SM OVC100 21/16 A2954 990 73 2000 190/18G28 RMK AO2 PK WND 18030/0959
14840KMKG MKG20000616052012006/16/00 05:20:31  5-MIN KMKG 161020Z 18019G29KT 10SM BKN100 21/16 A2954 990 73 2000 190/19G29 RMK AO2 PK WND 18030/0959
14840KMKG MKG20000616052512006/16/00 05:25:31  5-MIN KMKG 161025Z 19020G29KT 10SM BKN100 21/16 A2953 990 73 2000 190/20G29 RMK AO2 PK WND 18030/0959
14840KMKG MKG20000616053012006/16/00 05:30:31  5-MIN KMKG 161030Z 19020G28KT 10SM BKN100 21/16 A2953 990 73 2000 190/20G28 RMK AO2 PK WND 18030/0959
14840KMKG MKG20000616053512106/16/00 05:35:31  5-MIN KMKG 161035Z 18020G28KT 10SM BKN100 21/16 A2953 1000 73 2000 190/20G28 RMK AO2 PK WND 18030/0959
14840KMKG MKG20000616054012706/16/00 05:40:31  5-MIN KMKG 161040Z 19020G28KT 10SM FEW065 BKN100 21/16 A2953 990 73 2000 190/20G28 RMK AO2 PK WND 18030/0959
14840KMKG MKG20000616054512706/16/00 05:45:31  5-MIN KMKG 161045Z 19020G31KT 10SM FEW065 SCT100 21/16 A2953 990 73 2000 200/20G31 RMK AO2 PK WND 20031/1044
14840KMKG MKG20000616055013706/16/00 05:50:31  5-MIN KMKG 161050Z 19022G31KT 10SM FEW100 21/16 A2954 990 73 2000 200/22G31 RMK AO2 PK WND 20031/1044 SLP998 T02110161
14840KMKG MKG20000616055514406/16/00 05:55:31  5-MIN KMKG 161055Z 19019G29KT 10SM SCT100 21/16 A2955 980 73 2000 200/19G29 RMK AO2 PK WND 20031/1044 PRESRR SLP002 T02110161
14840KMKG MKG20000616060012006/16/00 06:00:31  5-MIN KMKG 161100Z 19021G29KT 10SM SCT100 21/16 A2955 980 73 2000 200/21G29 RMK AO2 PK WND 19027/1100
14840KMKG MKG20000616060512006/16/00 06:05:31  5-MIN KMKG 161105Z 19022G28KT 10SM SCT100 21/16 A2955 970 75 1900 200/22G28 RMK AO2 PK WND 20028/1105
14840KMKG MKG20000616061012006/16/00 06:10:31  5-MIN KMKG 161110Z 19020G28KT 10SM FEW100 21/16 A2955 970 75 1900 200/20G28 RMK AO2 PK WND 20028/1105
14840KMKG MKG20000616061512006/16/00 06:15:31  5-MIN KMKG 161115Z 19020G27KT 10SM FEW100 21/16 A2956 970 75 1900 200/20G27 RMK AO2 PK WND 20028/1105
14840KMKG MKG20000616062012006/16/00 06:20:31  5-MIN KMKG 161120Z 19021G27KT 10SM FEW100 21/16 A2956 970 75 1900 190/21G27 RMK AO2 PK WND 20028/1105
14840KMKG MKG20000616062512006/16/00 06:25:31  5-MIN KMKG 161125Z 20020G29KT 10SM FEW100 21/16 A2956 970 75 1900 200/20G29 RMK AO2 PK WND 20029/1121
14840KMKG MKG20000616063012006/16/00 06:30:31  5-MIN KMKG 161130Z 19022G29KT 10SM FEW042 21/16 A2955 970 75 1900 200/22G29 RMK AO2 PK WND 20029/1121
14840KMKG MKG20000616063512006/16/00 06:35:31  5-MIN KMKG 161135Z 19019G27KT 10SM FEW042 21/16 A2955 970 75 1900 200/19G27 RMK AO2 PK WND 20029/1121
14840KMKG MKG20000616064012006/16/00 06:40:31  5-MIN KMKG 161140Z 20020G26KT 10SM SCT042 21/16 A2956 970 75 1900 200/20G26 RMK AO2 PK WND 20029/1121
14840KMKG MKG20000616064512006/16/00 06:45:31  5-MIN KMKG 161145Z 20019G26KT 10SM BKN042 21/16 A2956 970 75 1900 200/19G26 RMK AO2 PK WND 20029/1121
14840KMKG MKG20000616065015506/16/00 06:50:31  5-MIN KMKG 161150Z 20020G26KT 10SM BKN040 21/16 A2956 960 75 1900 200/20G26 RMK AO2 PK WND 20029/1121 SLP008 T02060161 10228 20206 56018
14840KMKG MKG20000616065515506/16/00 06:55:31  5-MIN KMKG 161155Z 20019G26KT 10SM BKN040 21/16 A2956 960 75 1900 210/19G26 RMK AO2 PK WND 20029/1121 SLP007 T02060161 10228 20206 53004
14840KMKG MKG20000616070010206/16/00 07:00:31  5-MIN KMKG 161200Z 20019G26KT 10SM BKN038 21/16 A2956 970 75 1900 200/19G26 RMK AO2
14840KMKG MKG20000616070509606/16/00 07:05:31  5-MIN KMKG 161205Z 20018KT 10SM BKN038 21/16 A2955 970 75 1900 200/18 RMK AO2
14840KMKG MKG20000616071010206/16/00 07:10:31  5-MIN KMKG 161210Z 21019G24KT 10SM BKN036 21/16 A2956 970 75 1900 210/19G24 RMK AO2
14840KMKG MKG20000616071510206/16/00 07:15:31  5-MIN KMKG 161215Z 22019G24KT 10SM BKN036 21/16 A2956 960 75 1900 220/19G24 RMK AO2
14840KMKG MKG20000616072012006/16/00 07:20:31  5-MIN KMKG 161220Z 21023G31KT 10SM SCT036 21/16 A2957 960 75 1900 210/23G31 RMK AO2 PK WND 22031/1218
14840KMKG MKG20000616072512006/16/00 07:25:31  5-MIN KMKG 161225Z 21019G31KT 10SM FEW034 21/16 A2956 970 75 1900 210/19G31 RMK AO2 PK WND 22031/1218
14840KMKG MKG20000616073012006/16/00 07:30:31  5-MIN KMKG 161230Z 20020G24KT 10SM FEW034 21/16 A2956 960 75 1900 210/20G24 RMK AO2 PK WND 22031/1218
14840KMKG MKG20000616073511706/16/00 07:35:31  5-MIN KMKG 161235Z 21017G24KT 10SM CLR 20/16 A2956 970 78 1800 210/17G24 RMK AO2 PK WND 22031/1218
14840KMKG MKG20000616074011706/16/00 07:40:31  5-MIN KMKG 161240Z 20018G24KT 10SM CLR 20/16 A2956 960 78 1800 210/18G24 RMK AO2 PK WND 22031/1218
14840KMKG MKG20000616074511706/16/00 07:45:31  5-MIN KMKG 161245Z 20016G24KT 10SM CLR 20/16 A2956 970 78 1800 200/16G24 RMK AO2 PK WND 22031/1218
14840KMKG MKG20000616075013406/16/00 07:50:31  5-MIN KMKG 161250Z 20015G23KT 10SM CLR 21/16 A2956 960 75 1900 210/15G23 RMK AO2 PK WND 22031/1218 SLP009 T02060161
14840KMKG MKG20000616075512806/16/00 07:55:31  5-MIN KMKG 161255Z 21016KT 10SM CLR 21/16 A2957 960 75 1900 210/16 RMK AO2 PK WND 22031/1218 SLP010 T02060161
14840KMKG MKG20000616080009906/16/00 08:00:31  5-MIN KMKG 161300Z 21017G22KT 10SM CLR 20/16 A2957 960 78 1800 210/17G22 RMK AO2
14840KMKG MKG20000616080509906/16/00 08:05:31  5-MIN KMKG 161305Z 21015G23KT 10SM CLR 21/16 A2958 950 75 1900 220/15G23 RMK AO2
14840KMKG MKG20000616081009906/16/00 08:10:31  5-MIN KMKG 161310Z 21016G23KT 10SM CLR 21/16 A2958 950 73 1900 220/16G23 RMK AO2
14840KMKG MKG20000616081509306/16/00 08:15:31  5-MIN KMKG 161315Z 21015KT 10SM CLR 21/16 A2958 940 75 1800 210/15 RMK AO2
14840KMKG MKG20000616082009306/16/00 08:20:31  5-MIN KMKG 161320Z 21015KT 10SM CLR 21/16 A2958 950 75 1900 220/15 RMK AO2
14840KMKG MKG20000616082509306/16/00 08:25:31  5-MIN KMKG 161325Z 21017KT 10SM CLR 20/16 A2958 940 78 1800 210/17 RMK AO2
14840KMKG MKG20000616083009306/16/00 08:30:31  5-MIN KMKG 161330Z 21016KT 10SM CLR 20/16 A2958 940 78 1800 220/16 RMK AO2
14840KMKG MKG20000616083509306/16/00 08:35:31  5-MIN KMKG 161335Z 20016KT 10SM CLR 19/16 A2959 940 81 1700 210/16 RMK AO2
14840KMKG MKG20000616084009306/16/00 08:40:31  5-MIN KMKG 161340Z 21014KT 10SM CLR 19/16 A2959 940 81 1700 220/14 RMK AO2
14840KMKG MKG20000616084509306/16/00 08:45:31  5-MIN KMKG 161345Z 21014KT 10SM CLR 19/16 A2959 940 81 1700 210/14 RMK AO2
14840KMKG MKG20000616085011606/16/00 08:50:31  5-MIN KMKG 161350Z 21015G19KT 10SM CLR 19/16 A2959 930 81 1700 210/15G19 RMK AO2 SLP018 T01940161
14840KMKG MKG20000616085511606/16/00 08:55:31  5-MIN KMKG 161355Z 21013G19KT 10SM CLR 20/16 A2960 930 78 1800 210/13G19 RMK AO2 SLP019 T02000161
14840KMKG MKG20000616090009306/16/00 09:00:31  5-MIN KMKG 161400Z 20015KT 10SM CLR 20/16 A2959 940 78 1800 210/15 RMK AO2
14840KMKG MKG20000616090509306/16/00 09:05:31  5-MIN KMKG 161405Z 22014KT 10SM CLR 21/16 A2959 940 75 1800 220/14 RMK AO2
14840KMKG MKG20000616091009306/16/00 09:10:31  5-MIN KMKG 161410Z 21013KT 10SM CLR 21/16 A2959 940 75 1800 220/13 RMK AO2
14840KMKG MKG20000616091509306/16/00 09:15:31  5-MIN KMKG 161415Z 21015KT 10SM CLR 21/16 A2959 930 75 1800 220/15 RMK AO2
14840KMKG MKG20000616092009306/16/00 09:20:31  5-MIN KMKG 161420Z 21013KT 10SM CLR 21/16 A2959 930 73 1800 210/13 RMK AO2
14840KMKG MKG20000616092509306/16/00 09:25:31  5-MIN KMKG 161425Z 21015KT 10SM CLR 21/16 A2959 940 75 1800 210/15 RMK AO2
14840KMKG MKG20000616093009306/16/00 09:30:31  5-MIN KMKG 161430Z 21013KT 10SM CLR 20/16 A2960 930 75 1800 220/13 RMK AO2
14840KMKG MKG20000616093509306/16/00 09:35:31  5-MIN KMKG 161435Z 21016KT 10SM CLR 21/16 A2960 930 73 1800 210/16 RMK AO2
14840KMKG MKG20000616094009306/16/00 09:40:31  5-MIN KMKG 161440Z 20015KT 10SM CLR 20/16 A2960 930 75 1800 210/15 RMK AO2
14840KMKG MKG20000616094509306/16/00 09:45:31  5-MIN KMKG 161445Z 21014KT 10SM CLR 21/16 A2960 930 73 1800 210/14 RMK AO2
14840KMKG MKG20000616095011606/16/00 09:50:31  5-MIN KMKG 161450Z 21014KT 10SM CLR 20/16 A2961 920 75 1800 210/14 RMK AO2 SLP025 T02000156 53004
14840KMKG MKG20000616095511906/16/00 09:55:31  5-MIN KMKG 161455Z 22012KT 10SM FEW030 19/16 A2961 920 78 1700 220/12 RMK AO2 SLP026 T01940156 53017
14840KMKG MKG20000616100009606/16/00 10:00:31  5-MIN KMKG 161500Z 22014KT 10SM FEW030 19/16 A2962 910 78 1700 220/14 RMK AO2
14840KMKG MKG20000616100509606/16/00 10:05:31  5-MIN KMKG 161505Z 21012KT 10SM FEW030 19/15 A2961 920 75 1700 210/12 RMK AO2
14840KMKG MKG20000616101010206/16/00 10:10:31  5-MIN KMKG 161510Z 22014G18KT 10SM FEW030 19/15 A2962 910 75 1700 220/14G18 RMK AO2
14840KMKG MKG20000616101510306/16/00 10:15:31  5-MIN KMKG 161515Z 22015KT 10SM FEW030 19/16 A2963 900 78 1700 230/15 RMK AO2 PRESRR
14840KMKG MKG20000616102009606/16/00 10:20:31  5-MIN KMKG 161520Z 22016KT 10SM FEW030 19/15 A2964 890 78 1600 230/16 RMK AO2
14840KMKG MKG20000616102509606/16/00 10:25:31  5-MIN KMKG 161525Z 22015KT 10SM FEW030 19/15 A2964 890 78 1600 220/15 RMK AO2
14840KMKG MKG20000616103011606/16/00 10:30:31  5-MIN KMKG 161530Z 22015G20KT 10SM SCT033 SCT100 18/15 A2965 880 81 1500 220/15G20 RMK AO2 PRESRR
14840KMKG MKG20000616103510906/16/00 10:35:31  5-MIN KMKG 161535Z 23013G20KT 10SM SCT033 SCT100 18/15 A2965 880 81 1500 240/13G20 RMK AO2
14840KMKG MKG20000616104011006/16/00 10:40:31  5-MIN KMKG 161540Z 23014KT 10SM SCT033 BKN100 18/15 A2966 870 81 1500 230/14 RMK AO2 PRESRR
14840KMKG MKG20000616104511006/16/00 10:45:31  5-MIN KMKG 161545Z 22013KT 10SM SCT033 BKN047 BKN100 18/14 A2967 860 78 1500 220/13 RMK AO2
14840KMKG MKG20000616105012706/16/00 10:50:31  5-MIN KMKG 161550Z 23011KT 10SM SCT033 BKN047 BKN100 18/14 A2967 860 81 1400 230/11 RMK AO2 SLP046 T01780144
14840KMKG MKG20000616105512706/16/00 10:55:31  5-MIN KMKG 161555Z 23011KT 10SM SCT035 BKN047 BKN100 18/14 A2967 860 81 1400 230/11 RMK AO2 SLP047 T01780144
14840KMKG MKG20000616110011006/16/00 11:00:31  5-MIN KMKG 161600Z 22011KT 10SM SCT035 BKN047 BKN100 18/14 A2968 860 81 1400 230/11 RMK AO2
14840KMKG MKG20000616110511606/16/00 11:05:31  5-MIN KMKG 161605Z 23013G18KT 10SM FEW035 SCT047 BKN100 18/14 A2968 860 78 1400 240/13G18 RMK AO2
14840KMKG MKG20000616111010906/16/00 11:10:31  5-MIN KMKG 161610Z 23011G18KT 10SM FEW037 BKN100 18/14 A2967 860 78 1400 230/11G18 RMK AO2
14840KMKG MKG20000616111510306/16/00 11:15:31  5-MIN KMKG 161615Z 20013KT 10SM FEW037 BKN100 18/14 A2966 870 78 1400 210/13 RMK AO2
14840KMKG MKG20000616112010306/16/00 11:20:31  5-MIN KMKG 161620Z 21012KT 10SM FEW037 BKN100 18/14 A2966 870 78 1400 220/12 RMK AO2
14840KMKG MKG20000616112509606/16/00 11:25:31  5-MIN KMKG 161625Z 23010KT 10SM BKN100 18/14 A2968 860 78 1400 240/10 RMK AO2
14840KMKG MKG20000616113011906/16/00 11:30:31  5-MIN KMKG 161630Z 23012KT 10SM -RA FEW050 BKN100 18/14 A2968 860 78 1400 230/12 RMK AO2 RAB29 P0000
14840KMKG MKG20000616113511906/16/00 11:35:31  5-MIN KMKG 161635Z 22012KT 10SM -RA SCT036 BKN100 17/14 A2966 870 83 1400 220/12 RMK AO2 RAB29 P0000
14840KMKG MKG20000616114011906/16/00 11:40:31  5-MIN KMKG 161640Z 22011KT 10SM -RA SCT031 BKN100 17/14 A2967 860 83 1400 220/11 RMK AO2 RAB29 P0000
14840KMKG MKG20000616114513206/16/00 11:45:31  5-MIN KMKG 161645Z 24014G18KT 10SM -RA SCT031 BKN100 17/14 A2970 830 83 1300 240/14G18 RMK AO2 RAB29 PRESRR P0000
14840KMKG MKG20000616115014206/16/00 11:50:31  5-MIN KMKG 161650Z 24011G18KT 10SM -RA FEW031 BKN100 17/14 A2971 830 83 1300 240/11G18 RMK AO2 RAB29 SLP058 P0000 T01720144
14840KMKG MKG20000616115513506/16/00 11:55:31  5-MIN KMKG 161655Z 24013KT 10SM FEW040 BKN100 18/14 A2971 830 81 1400 240/13 RMK AO2 RAB29E53 SLP058 P0000 T01780144
14840KMKG MKG20000616120010306/16/00 12:00:31  5-MIN KMKG 161700Z 24011KT 10SM SCT055 BKN100 17/14 A2970 830 80 1300 240/11 RMK AO2
14840KMKG MKG20000616120510906/16/00 12:05:31  5-MIN KMKG 161705Z 23017G22KT 10SM FEW075 BKN100 17/13 A2971 830 78 1300 240/17G22 RMK AO2
14840KMKG MKG20000616121010206/16/00 12:10:31  5-MIN KMKG 161710Z 24014G22KT 10SM BKN100 17/13 A2970 830 78 1300 240/14G22 RMK AO2
14840KMKG MKG20000616121510306/16/00 12:15:31  5-MIN KMKG 161715Z 23014KT 10SM FEW065 BKN095 17/13 A2971 830 78 1300 230/14 RMK AO2
14840KMKG MKG20000616122010306/16/00 12:20:31  5-MIN KMKG 161720Z 23015KT 10SM SCT065 BKN100 17/13 A2971 820 78 1300 230/15 RMK AO2
14840KMKG MKG20000616122510306/16/00 12:25:31  5-MIN KMKG 161725Z 24015KT 10SM BKN065 OVC100 17/13 A2972 820 75 1300 240/15 RMK AO2
14840KMKG MKG20000616123010306/16/00 12:30:31  5-MIN KMKG 161730Z 25015KT 10SM BKN070 OVC090 17/13 A2972 820 78 1300 250/15 RMK AO2
14840KMKG MKG20000616123510306/16/00 12:35:31  5-MIN KMKG 161735Z 24014KT 10SM BKN070 OVC085 17/13 A2972 810 75 1300 240/14 RMK AO2
14840KMKG MKG20000616124010306/16/00 12:40:31  5-MIN KMKG 161740Z 24014KT 10SM SCT070 OVC085 17/13 A2972 810 78 1300 240/14 RMK AO2
14840KMKG MKG20000616124509606/16/00 12:45:31  5-MIN KMKG 161745Z 24014KT 10SM OVC075 17/13 A2972 810 78 1300 240/14 RMK AO2
14840KMKG MKG20000616125013706/16/00 12:50:31  5-MIN KMKG 161750Z 24012KT 10SM OVC080 17/13 A2973 810 78 1300 240/12 RMK AO2 SLP064 60000 T01720133 10211 20172 53017
14840KMKG MKG20000616125513706/16/00 12:55:31  5-MIN KMKG 161755Z 25011KT 10SM OVC080 17/13 A2973 810 78 1300 250/11 RMK AO2 SLP065 60000 T01720133 10211 20172 51039
14840KMKG MKG20000616130009606/16/00 13:00:31  5-MIN KMKG 161800Z 24011KT 10SM OVC080 17/13 A2972 810 78 1300 250/11 RMK AO2
14840KMKG MKG20000616130509606/16/00 13:05:31  5-MIN KMKG 161805Z 25011KT 10SM OVC080 17/13 A2972 820 75 1300 250/11 RMK AO2
14840KMKG MKG20000616131010206/16/00 13:10:31  5-MIN KMKG 161810Z 24013G18KT 10SM OVC080 18/13 A2972 810 75 1400 250/13G18 RMK AO2
14840KMKG MKG20000616131510206/16/00 13:15:31  5-MIN KMKG 161815Z 24015G21KT 10SM BKN085 18/13 A2972 810 75 1400 250/15G21 RMK AO2
14840KMKG MKG20000616132010206/16/00 13:20:31  5-MIN KMKG 161820Z 24012G22KT 10SM BKN085 18/13 A2972 810 72 1400 250/12G22 RMK AO2
14840KMKG MKG20000616132510206/16/00 13:25:31  5-MIN KMKG 161825Z 24014G23KT 10SM BKN090 18/13 A2972 820 72 1400 250/14G23 RMK AO2
14840KMKG MKG20000616133010206/16/00 13:30:31  5-MIN KMKG 161830Z 23015G23KT 10SM SCT090 18/13 A2972 810 72 1400 240/15G23 RMK AO2
14840KMKG MKG20000616133510206/16/00 13:35:31  5-MIN KMKG 161835Z 24016G20KT 10SM FEW090 19/13 A2973 810 70 1500 240/16G20 RMK AO2
14840KMKG MKG20000616134010206/16/00 13:40:31  5-MIN KMKG 161840Z 24018G24KT 10SM FEW100 18/13 A2973 810 72 1400 240/18G24 RMK AO2
14840KMKG MKG20000616134510206/16/00 13:45:31  5-MIN KMKG 161845Z 24015G24KT 10SM FEW100 18/13 A2973 810 72 1400 240/15G24 RMK AO2
14840KMKG MKG20000616135011906/16/00 13:50:31  5-MIN KMKG 161850Z 23018G22KT 10SM FEW100 19/13 A2973 810 70 1500 230/18G22 RMK AO2 SLP064 T01890133
14840KMKG MKG20000616135511906/16/00 13:55:31  5-MIN KMKG 161855Z 23017G22KT 10SM FEW100 19/13 A2973 810 70 1500 240/17G22 RMK AO2 SLP064 T01890133
14840KMKG MKG20000616140010206/16/00 14:00:31  5-MIN KMKG 161900Z 23015G22KT 10SM SCT100 19/13 A2973 800 70 1500 240/15G22 RMK AO2
14840KMKG MKG20000616140510206/16/00 14:05:31  5-MIN KMKG 161905Z 23018G24KT 10SM SCT100 19/13 A2973 810 67 1600 230/18G24 RMK AO2
14840KMKG MKG20000616141010206/16/00 14:10:31  5-MIN KMKG 161910Z 23017G24KT 10SM SCT100 19/13 A2973 810 70 1500 240/17G24 RMK AO2
14840KMKG MKG20000616141509906/16/00 14:15:31  5-MIN KMKG 161915Z 23018G23KT 10SM CLR 19/13 A2973 800 67 1500 230/18G23 RMK AO2
14840KMKG MKG20000616142009906/16/00 14:20:31  5-MIN KMKG 161920Z 22018G23KT 10SM CLR 19/13 A2974 800 70 1500 230/18G23 RMK AO2
14840KMKG MKG20000616142509906/16/00 14:25:31  5-MIN KMKG 161925Z 23015G23KT 10SM CLR 19/13 A2973 800 70 1500 230/15G23 RMK AO2
14840KMKG MKG20000616143009906/16/00 14:30:31  5-MIN KMKG 161930Z 23016G21KT 10SM CLR 19/13 A2974 800 70 1500 240/16G21 RMK AO2
14840KMKG MKG20000616143509306/16/00 14:35:31  5-MIN KMKG 161935Z 23017KT 10SM CLR 19/13 A2974 800 70 1500 230/17 RMK AO2
14840KMKG MKG20000616144009906/16/00 14:40:31  5-MIN KMKG 161940Z 23013G21KT 10SM CLR 19/14 A2973 800 72 1500 230/13G21 RMK AO2
14840KMKG MKG20000616144509306/16/00 14:45:31  5-MIN KMKG 161945Z 23016KT 10SM CLR 19/14 A2974 800 72 1500 230/16 RMK AO2
14840KMKG MKG20000616145011006/16/00 14:50:31  5-MIN KMKG 161950Z 23014KT 10SM CLR 18/13 A2974 800 72 1400 240/14 RMK AO2 SLP067 T01830133
14840KMKG MKG20000616145511306/16/00 14:55:31  5-MIN KMKG 161955Z 23016KT 10SM FEW035 18/14 A2974 800 75 1400 240/16 RMK AO2 SLP068 T01830139
14840KMKG MKG20000616150009606/16/00 15:00:31  5-MIN KMKG 162000Z 24013KT 10SM SCT035 19/14 A2974 800 72 1500 240/13 RMK AO2
14840KMKG MKG20000616150509606/16/00 15:05:31  5-MIN KMKG 162005Z 23017KT 10SM BKN035 19/14 A2974 800 70 1500 230/17 RMK AO2
14840KMKG MKG20000616151009606/16/00 15:10:31  5-MIN KMKG 162010Z 24016KT 10SM SCT035 19/14 A2974 800 70 1500 240/16 RMK AO2
14840KMKG MKG20000616151509606/16/00 15:15:31  5-MIN KMKG 162015Z 24014KT 10SM SCT033 19/14 A2974 790 72 1500 250/14 RMK AO2
14840KMKG MKG20000616152010206/16/00 15:20:31  5-MIN KMKG 162020Z 24015G20KT 10SM SCT033 18/14 A2974 800 75 1400 240/15G20 RMK AO2
14840KMKG MKG20000616152509606/16/00 15:25:31  5-MIN KMKG 162025Z 23015KT 10SM SCT033 19/14 A2974 800 70 1500 240/15 RMK AO2
14840KMKG MKG20000616153009606/16/00 15:30:31  5-MIN KMKG 162030Z 23014KT 10SM FEW033 19/14 A2974 800 70 1500 230/14 RMK AO2
14840KMKG MKG20000616153509606/16/00 15:35:31  5-MIN KMKG 162035Z 23015KT 10SM FEW033 19/14 A2974 800 70 1500 240/15 RMK AO2
14840KMKG MKG20000616154009606/16/00 15:40:31  5-MIN KMKG 162040Z 23012KT 10SM FEW033 19/14 A2974 800 72 1500 230/12 RMK AO2
14840KMKG MKG20000616154509306/16/00 15:45:31  5-MIN KMKG 162045Z 23015KT 10SM CLR 19/14 A2975 790 72 1500 230/15 RMK AO2
14840KMKG MKG20000616155011606/16/00 15:50:31  5-MIN KMKG 162050Z 23015KT 10SM CLR 19/14 A2975 790 72 1500 230/15 RMK AO2 SLP071 T01890139 51039
14840KMKG MKG20000616155512206/16/00 15:55:31  5-MIN KMKG 162055Z 24013G19KT 10SM CLR 18/14 A2975 790 75 1400 240/13G19 RMK AO2 SLP071 T01830139 53006
14840KMKG MKG20000616160009606/16/00 16:00:31  5-MIN KMKG 162100Z 22015KT 10SM FEW047 19/14 A2975 790 72 1500 220/15 RMK AO2
14840KMKG MKG20000616160509606/16/00 16:05:31  5-MIN KMKG 162105Z 23012KT 10SM FEW047 19/14 A2975 790 72 1500 230/12 RMK AO2
14840KMKG MKG20000616161009606/16/00 16:10:31  5-MIN KMKG 162110Z 23014KT 10SM SCT047 18/14 A2975 790 75 1400 230/14 RMK AO2
14840KMKG MKG20000616161509606/16/00 16:15:31  5-MIN KMKG 162115Z 23010KT 10SM BKN047 18/14 A2975 790 75 1400 240/10 RMK AO2
14840KMKG MKG20000616162009606/16/00 16:20:31  5-MIN KMKG 162120Z 24012KT 10SM SCT047 19/14 A2975 790 72 1500 240/12 RMK AO2
14840KMKG MKG20000616162509606/16/00 16:25:31  5-MIN KMKG 162125Z 23012KT 10SM SCT047 19/14 A2975 790 72 1500 230/12 RMK AO2
14840KMKG MKG20000616163009606/16/00 16:30:31  5-MIN KMKG 162130Z 23012KT 10SM SCT047 19/14 A2975 780 72 1500 230/12 RMK AO2
14840KMKG MKG20000616163509606/16/00 16:35:31  5-MIN KMKG 162135Z 24011KT 10SM SCT047 19/14 A2975 780 72 1500 240/11 RMK AO2
14840KMKG MKG20000616164009606/16/00 16:40:31  5-MIN KMKG 162140Z 25009KT 10SM FEW049 19/14 A2975 780 72 1500 250/09 RMK AO2
14840KMKG MKG20000616164509606/16/00 16:45:31  5-MIN KMKG 162145Z 24009KT 10SM FEW049 19/14 A2975 790 72 1500 240/09 RMK AO2
14840KMKG MKG20000616165011306/16/00 16:50:31  5-MIN KMKG 162150Z 24008KT 10SM FEW049 19/14 A2975 790 72 1500 240/08 RMK AO2 SLP072 T01890139
14840KMKG MKG20000616165511306/16/00 16:55:31  5-MIN KMKG 162155Z 24008KT 10SM FEW049 18/14 A2976 780 75 1400 240/08 RMK AO2 SLP074 T01830139
14840KMKG MKG20000616170009606/16/00 17:00:31  5-MIN KMKG 162200Z 24010KT 10SM SCT049 18/13 A2976 780 72 1400 250/10 RMK AO2
14840KMKG MKG20000616170509606/16/00 17:05:31  5-MIN KMKG 162205Z 24009KT 10SM BKN049 18/14 A2976 780 75 1400 240/09 RMK AO2
14840KMKG MKG20000616171009606/16/00 17:10:31  5-MIN KMKG 162210Z 24008KT 10SM BKN049 18/14 A2976 780 75 1400 250/08 RMK AO2
14840KMKG MKG20000616171509606/16/00 17:15:31  5-MIN KMKG 162215Z 23009KT 10SM BKN049 18/14 A2976 780 78 1300 230/09 RMK AO2
14840KMKG MKG20000616172009606/16/00 17:20:31  5-MIN KMKG 162220Z 23009KT 10SM OVC049 18/14 A2976 780 78 1300 240/09 RMK AO2
14840KMKG MKG20000616172509606/16/00 17:25:31  5-MIN KMKG 162225Z 24007KT 10SM OVC049 18/14 A2976 780 78 1300 240/07 RMK AO2
14840KMKG MKG20000616173009606/16/00 17:30:31  5-MIN KMKG 162230Z 24006KT 10SM OVC049 18/14 A2977 770 78 1300 250/06 RMK AO2
14840KMKG MKG20000616173509606/16/00 17:35:31  5-MIN KMKG 162235Z 24006KT 10SM BKN049 18/14 A2977 770 78 1300 250/06 RMK AO2
14840KMKG MKG20000616174009606/16/00 17:40:31  5-MIN KMKG 162240Z 25006KT 10SM BKN049 18/13 A2977 770 75 1300 250/06 RMK AO2
14840KMKG MKG20000616174509606/16/00 17:45:31  5-MIN KMKG 162245Z 25007KT 10SM BKN049 18/13 A2977 770 75 1300 250/07 RMK AO2
14840KMKG MKG20000616175011306/16/00 17:50:31  5-MIN KMKG 162250Z 24008KT 10SM BKN049 18/13 A2978 760 75 1300 240/08 RMK AO2 SLP080 T01780133
14840KMKG MKG20000616175511306/16/00 17:55:31  5-MIN KMKG 162255Z 24007KT 10SM BKN055 18/13 A2978 760 75 1300 240/07 RMK AO2 SLP082 T01780133
14840KMKG MKG20000616180009606/16/00 18:00:31  5-MIN KMKG 162300Z 23007KT 10SM BKN055 18/13 A2978 760 75 1300 240/07 RMK AO2
14840KMKG MKG20000616180509606/16/00 18:05:31  5-MIN KMKG 162305Z 24006KT 10SM BKN050 18/14 A2978 760 75 1400 240/06 RMK AO2
14840KMKG MKG20000616181009606/16/00 18:10:31  5-MIN KMKG 162310Z 23008KT 10SM BKN050 18/14 A2979 750 75 1400 230/08 RMK AO2
14840KMKG MKG20000616181509606/16/00 18:15:31  5-MIN KMKG 162315Z 22008KT 10SM SCT050 18/14 A2979 750 75 1400 230/08 RMK AO2
14840KMKG MKG20000616182009606/16/00 18:20:31  5-MIN KMKG 162320Z 22009KT 10SM FEW050 18/13 A2979 750 75 1300 230/09 RMK AO2
14840KMKG MKG20000616182509606/16/00 18:25:31  5-MIN KMKG 162325Z 24006KT 10SM FEW050 18/13 A2979 750 75 1300 250/06 RMK AO2
14840KMKG MKG20000616183009606/16/00 18:30:31  5-MIN KMKG 162330Z 24005KT 10SM FEW050 18/13 A2979 750 75 1300 240/05 RMK AO2
14840KMKG MKG20000616183509306/16/00 18:35:31  5-MIN KMKG 162335Z 24006KT 10SM CLR 18/13 A2980 740 75 1300 240/06 RMK AO2
14840KMKG MKG20000616184009306/16/00 18:40:31  5-MIN KMKG 162340Z 24004KT 10SM CLR 18/14 A2980 740 75 1300 250/04 RMK AO2
14840KMKG MKG20000616184509306/16/00 18:45:31  5-MIN KMKG 162345Z 26004KT 10SM CLR 18/14 A2980 740 75 1300 260/04 RMK AO2
14840KMKG MKG20000616185012806/16/00 18:50:31  5-MIN KMKG 162350Z 25005KT 10SM CLR 18/14 A2980 740 75 1300 250/05 RMK AO2 SLP089 T01830139 10194 20172 53006
14840KMKG MKG20000616185512806/16/00 18:55:31  5-MIN KMKG 162355Z 26004KT 10SM CLR 18/13 A2980 740 75 1300 260/04 RMK AO2 SLP090 T01780133 10194 20172 53018
14840KMKG MKG20000616190009306/16/00 19:00:31  5-MIN KMKG 170000Z 24005KT 10SM CLR 18/13 A2981 730 75 1300 250/05 RMK AO2
14840KMKG MKG20000616190509306/16/00 19:05:31  5-MIN KMKG 170005Z 24004KT 10SM CLR 18/13 A2981 730 75 1300 240/04 RMK AO2
14840KMKG MKG20000616191009306/16/00 19:10:31  5-MIN KMKG 170010Z 22006KT 10SM CLR 18/13 A2981 730 75 1300 220/06 RMK AO2
14840KMKG MKG20000616191509306/16/00 19:15:31  5-MIN KMKG 170015Z 22007KT 10SM CLR 18/13 A2982 730 75 1300 230/07 RMK AO2
14840KMKG MKG20000616192009306/16/00 19:20:31  5-MIN KMKG 170020Z 23007KT 10SM CLR 17/13 A2982 730 78 1200 230/07 RMK AO2
14840KMKG MKG20000616192509306/16/00 19:25:31  5-MIN KMKG 170025Z 22005KT 10SM CLR 17/13 A2982 730 78 1200 230/05 RMK AO2
14840KMKG MKG20000616193009306/16/00 19:30:31  5-MIN KMKG 170030Z 21005KT 10SM CLR 17/14 A2982 720 83 1100 220/05 RMK AO2
14840KMKG MKG20000616193509306/16/00 19:35:31  5-MIN KMKG 170035Z 18005KT 10SM CLR 17/14 A2982 720 83 1100 190/05 RMK AO2
14840KMKG MKG20000616194009306/16/00 19:40:31  5-MIN KMKG 170040Z 16005KT 10SM CLR 17/14 A2982 720 83 1100 170/05 RMK AO2
14840KMKG MKG20000616194509306/16/00 19:45:31  5-MIN KMKG 170045Z 17005KT 10SM CLR 17/14 A2982 720 83 1100 170/05 RMK AO2
14840KMKG MKG20000616195011006/16/00 19:50:31  5-MIN KMKG 170050Z 18006KT 10SM CLR 17/14 A2982 720 83 1100 190/06 RMK AO2 SLP098 T01670139
14840KMKG MKG20000616195511006/16/00 19:55:31  5-MIN KMKG 170055Z 18005KT 10SM CLR 17/14 A2983 720 83 1100 180/05 RMK AO2 SLP098 T01670139
14840KMKG MKG20000616200009306/16/00 20:00:31  5-MIN KMKG 170100Z 19004KT 10SM CLR 17/14 A2983 720 83 1100 190/04 RMK AO2
14840KMKG MKG20000616200509606/16/00 20:05:31  5-MIN KMKG 170105Z 19005KT 10SM FEW070 17/14 A2982 720 83 1100 190/05 RMK AO2
14840KMKG MKG20000616201009606/16/00 20:10:31  5-MIN KMKG 170110Z 20005KT 10SM FEW070 17/14 A2983 720 83 1100 200/05 RMK AO2
14840KMKG MKG20000616201509606/16/00 20:15:31  5-MIN KMKG 170115Z 20003KT 10SM FEW070 16/14 A2983 720 86 1100 210/03 RMK AO2
14840KMKG MKG20000616202009606/16/00 20:20:31  5-MIN KMKG 170120Z 20003KT 10SM FEW070 16/14 A2982 720 86 1100 200/03 RMK AO2
14840KMKG MKG20000616202509606/16/00 20:25:31  5-MIN KMKG 170125Z 19003KT 10SM FEW070 16/14 A2982 720 86 1100 190/03 RMK AO2
14840KMKG MKG20000616203009606/16/00 20:30:31  5-MIN KMKG 170130Z 19004KT 10SM FEW070 16/14 A2982 720 90 1000 200/04 RMK AO2
14840KMKG MKG20000616203509306/16/00 20:35:31  5-MIN KMKG 170135Z 19004KT 10SM CLR 16/14 A2982 720 90 1000 200/04 RMK AO2
14840KMKG MKG20000616204009306/16/00 20:40:31  5-MIN KMKG 170140Z 19004KT 10SM CLR 16/14 A2982 720 90 1000 190/04 RMK AO2
14840KMKG MKG20000616204509306/16/00 20:45:31  5-MIN KMKG 170145Z 19003KT 10SM CLR 16/14 A2982 720 90 1000 200/03 RMK AO2
14840KMKG MKG20000616205011006/16/00 20:50:31  5-MIN KMKG 170150Z 00000KT 10SM CLR 16/14 A2982 720 90 1000 000/00 RMK AO2 SLP098 T01560139
14840KMKG MKG20000616205511306/16/00 20:55:31  5-MIN KMKG 170155Z 18003KT 10SM FEW070 16/14 A2983 720 90 1000 190/03 RMK AO2 SLP098 T01560139
14840KMKG MKG20000616210009506/16/00 21:00:31  5-MIN KMKG 170200Z 00000KT 10SM FEW075 15/14 A2983 720 93 900 000/00 RMK AO2
14840KMKG MKG20000616210509306/16/00 21:05:31  5-MIN KMKG 170205Z 00000KT 10SM CLR 16/14 A2983 720 90 1000 000/00 RMK AO2
14840KMKG MKG20000616211009206/16/00 21:10:31  5-MIN KMKG 170210Z 00000KT 10SM CLR 15/14 A2983 720 93 900 000/00 RMK AO2
14840KMKG MKG20000616211509306/16/00 21:15:31  5-MIN KMKG 170215Z 00000KT 10SM CLR 16/14 A2983 710 90 1000 000/00 RMK AO2
14840KMKG MKG20000616212009206/16/00 21:20:31  5-MIN KMKG 170220Z 17003KT 10SM CLR 15/14 A2984 710 93 900 180/03 RMK AO2
14840KMKG MKG20000616212509206/16/00 21:25:31  5-MIN KMKG 170225Z 17003KT 10SM CLR 15/14 A2984 700 93 900 170/03 RMK AO2
14840KMKG MKG20000616213009206/16/00 21:30:31  5-MIN KMKG 170230Z 18003KT 10SM CLR 15/14 A2984 700 93 900 190/03 RMK AO2
14840KMKG MKG20000616213509206/16/00 21:35:31  5-MIN KMKG 170235Z 00000KT 10SM CLR 15/14 A2985 700 93 900 000/00 RMK AO2
14840KMKG MKG20000616214009206/16/00 21:40:31  5-MIN KMKG 170240Z 19003KT 10SM CLR 14/13 A2984 700 93 800 190/03 RMK AO2
14840KMKG MKG20000616214509206/16/00 21:45:31  5-MIN KMKG 170245Z 19003KT 10SM CLR 15/14 A2985 700 93 900 200/03 RMK AO2
14840KMKG MKG20000616215011506/16/00 21:50:31  5-MIN KMKG 170250Z 20003KT 10SM CLR 14/13 A2985 690 96 800 200/03 RMK AO2 SLP107 T01390133 53018
14840KMKG MKG20000616215511506/16/00 21:55:31  5-MIN KMKG 170255Z 20003KT 10SM CLR 14/13 A2985 690 96 800 200/03 RMK AO2 SLP109 T01390133 53017
14840KMKG MKG20000616220009206/16/00 22:00:31  5-MIN KMKG 170300Z 20004KT 10SM CLR 14/13 A2985 690 96 800 200/04 RMK AO2
14840KMKG MKG20000616220509206/16/00 22:05:31  5-MIN KMKG 170305Z 19003KT 10SM CLR 14/13 A2985 690 96 800 190/03 RMK AO2
14840KMKG MKG20000616221009206/16/00 22:10:31  5-MIN KMKG 170310Z 19003KT 10SM CLR 14/13 A2985 690 96 800 190/03 RMK AO2
14840KMKG MKG20000616221509206/16/00 22:15:31  5-MIN KMKG 170315Z 00000KT 10SM CLR 14/13 A2985 700 96 800 000/00 RMK AO2
14840KMKG MKG20000616222009206/16/00 22:20:31  5-MIN KMKG 170320Z 00000KT 10SM CLR 14/14 A2985 700 96 800 000/00 RMK AO2
14840KMKG MKG20000616222509206/16/00 22:25:31  5-MIN KMKG 170325Z 00000KT 10SM CLR 14/13 A2985 700 93 800 000/00 RMK AO2
14840KMKG MKG20000616223009206/16/00 22:30:31  5-MIN KMKG 170330Z 00000KT 10SM CLR 14/13 A2985 700 96 800 000/00 RMK AO2
14840KMKG MKG20000616223509106/16/00 22:35:31  5-MIN KMKG 170335Z 00000KT 9SM CLR 14/13 A2985 690 96 800 000/00 RMK AO2
14840KMKG MKG20000616224009206/16/00 22:40:31  5-MIN KMKG 170340Z 00000KT 10SM CLR 14/14 A2985 690 96 800 000/00 RMK AO2
14840KMKG MKG20000616224509106/16/00 22:45:31  5-MIN KMKG 170345Z 18003KT 9SM CLR 14/14 A2986 690 96 800 180/03 RMK AO2
14840KMKG MKG20000616225010906/16/00 22:50:31  5-MIN KMKG 170350Z 19003KT 9SM CLR 14/14 A2986 690 100 800 190/03 RMK AO2 SLP111 T01390139
14840KMKG MKG20000616225511106/16/00 22:55:31  5-MIN KMKG 170355Z 20003KT 9SM FEW090 14/13 A2986 680 96 800 200/03 RMK AO2 SLP112 T01390133
14840KMKG MKG20000616230009506/16/00 23:00:31  5-MIN KMKG 170400Z 19004KT 10SM FEW090 14/13 A2986 680 96 800 190/04 RMK AO2
14840KMKG MKG20000616230509506/16/00 23:05:31  5-MIN KMKG 170405Z 18003KT 10SM FEW090 14/13 A2986 680 96 700 180/03 RMK AO2
14840KMKG MKG20000616231009406/16/00 23:10:31  5-MIN KMKG 170410Z 19003KT 9SM SCT090 14/13 A2987 680 96 700 200/03 RMK AO2
14840KMKG MKG20000616231509506/16/00 23:15:31  5-MIN KMKG 170415Z 19003KT 10SM BKN090 14/13 A2987 680 96 700 190/03 RMK AO2
14840KMKG MKG20000616232010206/16/00 23:20:31  5-MIN KMKG 170420Z 19003KT 10SM FEW060 BKN090 14/14 A2987 670 96 800 200/03 RMK AO2
14840KMKG MKG20000616232510106/16/00 23:25:31  5-MIN KMKG 170425Z 20003KT 9SM SCT065 BKN090 14/14 A2988 670 96 800 210/03 RMK AO2
14840KMKG MKG20000616233012406/16/00 23:30:31  5-MIN KMKG 170430Z 20005KT 9SM SCT060 SCT070 BKN090 14/14 A2988 670 100 700 200/05 RMK AO2 CIG 060 RWY 14
14840KMKG MKG20000616233510806/16/00 23:35:31  5-MIN KMKG 170435Z 21005KT 9SM BKN055 BKN070 OVC090 15/14 A2988 660 93 900 210/05 RMK AO2
14840KMKG MKG20000616234010806/16/00 23:40:31  5-MIN KMKG 170440Z 23004KT 9SM BKN055 BKN070 OVC090 14/14 A2989 660 96 800 240/04 RMK AO2
14840KMKG MKG20000616234510806/16/00 23:45:31  5-MIN KMKG 170445Z 22005KT 9SM BKN055 BKN070 OVC090 15/14 A2989 660 93 900 220/05 RMK AO2
14840KMKG MKG20000616235012906/16/00 23:50:31  5-MIN KMKG 170450Z 21004KT 10SM BKN055 OVC075 15/14 A2988 660 93 900 220/04 RMK AO2 SLP119 T01500139 402280133
14840KMKG MKG20000616235512906/16/00 23:55:31  5-MIN KMKG 170455Z 20004KT 10SM BKN055 OVC075 15/14 A2989 660 93 900 210/04 RMK AO2 SLP120 T01500139 402280133
14840KMKG MKG20000617000010206/17/00 00:00:31  5-MIN KMKG 170500Z 19004KT 10SM BKN060 OVC080 15/14 A2989 660 96 900 200/04 RMK AO2
14840KMKG MKG20000617000510206/17/00 00:05:31  5-MIN KMKG 170505Z 23004KT 10SM BKN055 OVC085 15/14 A2989 660 96 900 240/04 RMK AO2
14840KMKG MKG20000617001010206/17/00 00:10:31  5-MIN KMKG 170510Z 22003KT 10SM BKN055 OVC085 15/14 A2989 660 96 900 220/03 RMK AO2
14840KMKG MKG20000617001510906/17/00 00:15:31  5-MIN KMKG 170515Z 26005KT 10SM FEW045 BKN055 OVC085 16/14 A2989 650 93 900 260/05 RMK AO2
14840KMKG MKG20000617002010906/17/00 00:20:31  5-MIN KMKG 170520Z 27005KT 10SM SCT044 BKN055 OVC085 16/14 A2990 650 93 900 280/05 RMK AO2
14840KMKG MKG20000617002511006/17/00 00:25:31  5-MIN KMKG 170525Z 32006KT 10SM SCT044 BKN055 OVC085 16/14 A2990 640 90 1000 320/06 RMK AO2
14840KMKG MKG20000617003011006/17/00 00:30:31  5-MIN KMKG 170530Z 26006KT 10SM BKN045 BKN055 OVC085 16/14 A2991 640 90 1000 270/06 RMK AO2
14840KMKG MKG20000617003510306/17/00 00:35:31  5-MIN KMKG 170535Z 29006KT 10SM BKN045 OVC055 16/14 A2991 640 90 1000 290/06 RMK AO2
14840KMKG MKG20000617004010306/17/00 00:40:31  5-MIN KMKG 170540Z 29007KT 10SM BKN045 OVC060 16/14 A2992 630 90 1000 290/07 RMK AO2
14840KMKG MKG20000617004510306/17/00 00:45:31  5-MIN KMKG 170545Z 30006KT 10SM BKN045 OVC055 16/14 A2992 630 90 1000 300/06 RMK AO2
14840KMKG MKG20000617005013706/17/00 00:50:31  5-MIN KMKG 170550Z 30007KT 10SM BKN043 OVC055 16/14 A2992 630 86 900 310/07 RMK AO2 SLP132 T01610139 10178 20133 53017
14840KMKG MKG20000617005513706/17/00 00:55:31  5-MIN KMKG 170555Z 31005KT 10SM BKN043 OVC050 16/13 A2992 630 83 900 310/05 RMK AO2 SLP132 T01610133 10178 20133 53023
14840KMKG MKG20000617010012406/17/00 01:00:31  5-MIN KMKG 170600Z 30006KT 10SM SCT043 BKN050 OVC085 16/13 A2992 630 83 900 300/06 RMK AO2 CIG 043 RWY 14
14840KMKG MKG20000617010512406/17/00 01:05:31  5-MIN KMKG 170605Z 29006KT 10SM SCT043 BKN055 OVC085 16/13 A2993 620 83 900 300/06 RMK AO2 CIG 043 RWY 14
14840KMKG MKG20000617011010906/17/00 01:10:31  5-MIN KMKG 170610Z 30004KT 10SM SCT043 BKN055 OVC070 16/13 A2993 620 83 900 300/04 RMK AO2
14840KMKG MKG20000617011510906/17/00 01:15:31  5-MIN KMKG 170615Z VRB06KT 10SM FEW041 BKN055 OVC085 16/13 A2993 620 83 900 VRB/06 RMK AO2
14840KMKG MKG20000617012010906/17/00 01:20:31  5-MIN KMKG 170620Z 32008KT 10SM FEW044 BKN060 BKN085 16/13 A2993 620 80 900 330/08 RMK AO2
14840KMKG MKG20000617012510906/17/00 01:25:31  5-MIN KMKG 170625Z 32008KT 10SM FEW044 SCT060 SCT085 16/13 A2993 620 80 900 320/08 RMK AO2
14840KMKG MKG20000617013009506/17/00 01:30:31  5-MIN KMKG 170630Z 32009KT 10SM SCT060 16/12 A2993 620 77 900 320/09 RMK AO2
14840KMKG MKG20000617013510206/17/00 01:35:31  5-MIN KMKG 170635Z 32011KT 10SM FEW047 SCT060 16/12 A2993 620 77 900 320/11 RMK AO2
14840KMKG MKG20000617014010206/17/00 01:40:31  5-MIN KMKG 170640Z 32013KT 10SM FEW047 SCT060 16/12 A2994 610 75 900 320/13 RMK AO2
14840KMKG MKG20000617014509506/17/00 01:45:31  5-MIN KMKG 170645Z 32014KT 10SM BKN050 16/12 A2994 610 75 900 330/14 RMK AO2
14840KMKG MKG20000617015011906/17/00 01:50:31  5-MIN KMKG 170650Z 32014KT 10SM FEW036 BKN050 16/11 A2994 610 72 900 320/14 RMK AO2 SLP137 T01610111
14840KMKG MKG20000617015511906/17/00 01:55:31  5-MIN KMKG 170655Z 32014KT 10SM FEW036 BKN050 16/11 A2994 610 69 900 330/14 RMK AO2 SLP138 T01610106
14840KMKG MKG20000617020010206/17/00 02:00:31  5-MIN KMKG 170700Z 33014KT 10SM FEW036 BKN055 16/11 A2995 600 69 900 330/14 RMK AO2
14840KMKG MKG20000617020510206/17/00 02:05:31  5-MIN KMKG 170705Z 32013KT 10SM FEW036 BKN055 16/10 A2995 600 67 900 330/13 RMK AO2
14840KMKG MKG20000617021010206/17/00 02:10:31  5-MIN KMKG 170710Z 32010KT 10SM FEW036 BKN055 16/10 A2995 600 69 800 320/10 RMK AO2
14840KMKG MKG20000617021510806/17/00 02:15:31  5-MIN KMKG 170715Z 32015G19KT 10SM FEW036 BKN055 16/10 A2996 600 69 800 320/15G19 RMK AO2
14840KMKG MKG20000617022010106/17/00 02:20:31  5-MIN KMKG 170720Z 33013G19KT 10SM BKN050 16/10 A2996 590 69 800 330/13G19 RMK AO2
14840KMKG MKG20000617022510206/17/00 02:25:31  5-MIN KMKG 170725Z 32012KT 10SM BKN050 OVC055 16/10 A2996 590 69 800 330/12 RMK AO2
14840KMKG MKG20000617023010206/17/00 02:30:31  5-MIN KMKG 170730Z 32011KT 10SM FEW039 OVC050 16/10 A2996 590 69 800 330/11 RMK AO2
14840KMKG MKG20000617023510906/17/00 02:35:31  5-MIN KMKG 170735Z 32013KT 10SM FEW039 BKN048 OVC060 16/10 A2997 590 69 800 320/13 RMK AO2
14840KMKG MKG20000617024010906/17/00 02:40:31  5-MIN KMKG 170740Z 32011KT 10SM FEW039 BKN048 BKN060 16/10 A2997 590 69 800 330/11 RMK AO2
14840KMKG MKG20000617024510906/17/00 02:45:31  5-MIN KMKG 170745Z 32011KT 10SM FEW039 SCT048 BKN060 15/10 A2996 590 72 800 330/11 RMK AO2
14840KMKG MKG20000617025012606/17/00 02:50:31  5-MIN KMKG 170750Z 32015KT 10SM FEW039 SCT048 SCT060 15/09 A2997 590 69 800 320/15 RMK AO2 SLP147 T01500094
14840KMKG MKG20000617025512506/17/00 02:55:31  5-MIN KMKG 170755Z 33015G20KT 10SM FEW045 SCT060 15/09 A2997 580 69 800 330/15G20 RMK AO2 SLP149 T01500094
14840KMKG MKG20000617030009506/17/00 03:00:31  5-MIN KMKG 170800Z 33011KT 10SM FEW045 15/09 A2997 580 69 800 330/11 RMK AO2
14840KMKG MKG20000617030509806/17/00 03:05:31  5-MIN KMKG 170805Z 33014G18KT 10SM CLR 14/09 A2998 580 72 700 330/14G18 RMK AO2
14840KMKG MKG20000617031009206/17/00 03:10:31  5-MIN KMKG 170810Z 33014KT 10SM CLR 14/09 A2998 580 72 700 330/14 RMK AO2
14840KMKG MKG20000617031509206/17/00 03:15:31  5-MIN KMKG 170815Z 33013KT 10SM CLR 14/09 A2998 580 72 700 330/13 RMK AO2
14840KMKG MKG20000617032009206/17/00 03:20:31  5-MIN KMKG 170820Z 32010KT 10SM CLR 14/09 A2998 580 72 700 330/10 RMK AO2
14840KMKG MKG20000617032509206/17/00 03:25:31  5-MIN KMKG 170825Z 33010KT 10SM CLR 14/09 A2998 570 72 700 340/10 RMK AO2
14840KMKG MKG20000617033009206/17/00 03:30:31  5-MIN KMKG 170830Z 33011KT 10SM CLR 14/09 A2998 570 74 600 340/11 RMK AO2
14840KMKG MKG20000617033509206/17/00 03:35:31  5-MIN KMKG 170835Z 33009KT 10SM CLR 14/09 A2998 570 74 600 330/09 RMK AO2
14840KMKG MKG20000617034009206/17/00 03:40:31  5-MIN KMKG 170840Z 32011KT 10SM CLR 14/09 A2998 570 74 600 330/11 RMK AO2
14840KMKG MKG20000617034509206/17/00 03:45:31  5-MIN KMKG 170845Z 33011KT 10SM CLR 14/09 A2999 570 74 600 330/11 RMK AO2
14840KMKG MKG20000617035011506/17/00 03:50:31  5-MIN KMKG 170850Z 32011KT 10SM CLR 14/09 A2999 570 74 600 330/11 RMK AO2 SLP155 T01390094 53023
14840KMKG MKG20000617035511506/17/00 03:55:31  5-MIN KMKG 170855Z 33009KT 10SM CLR 14/09 A2999 560 74 600 330/09 RMK AO2 SLP155 T01390094 52023
14840KMKG MKG20000617040009206/17/00 04:00:31  5-MIN KMKG 170900Z 33008KT 10SM CLR 14/09 A2999 560 71 600 330/08 RMK AO2
14840KMKG MKG20000617040509506/17/00 04:05:31  5-MIN KMKG 170905Z 33012KT 10SM FEW044 14/09 A3000 560 71 600 330/12 RMK AO2
14840KMKG MKG20000617041009506/17/00 04:10:31  5-MIN KMKG 170910Z 33011KT 10SM FEW044 13/09 A3000 560 74 500 330/11 RMK AO2
14840KMKG MKG20000617041509206/17/00 04:15:31  5-MIN KMKG 170915Z 32010KT 10SM CLR 13/09 A3000 560 74 500 320/10 RMK AO2
14840KMKG MKG20000617042009506/17/00 04:20:31  5-MIN KMKG 170920Z 32010KT 10SM FEW044 13/09 A3001 550 74 500 330/10 RMK AO2
14840KMKG MKG20000617042509506/17/00 04:25:31  5-MIN KMKG 170925Z 32011KT 10SM SCT044 13/09 A3001 550 74 500 330/11 RMK AO2
14840KMKG MKG20000617043009506/17/00 04:30:31  5-MIN KMKG 170930Z 32009KT 10SM FEW044 13/09 A3001 540 74 500 330/09 RMK AO2
14840KMKG MKG20000617043509506/17/00 04:35:31  5-MIN KMKG 170935Z 32008KT 10SM FEW044 13/09 A3002 540 74 500 330/08 RMK AO2
14840KMKG MKG20000617044009506/17/00 04:40:31  5-MIN KMKG 170940Z 32010KT 10SM FEW044 13/09 A3002 540 74 500 330/10 RMK AO2
14840KMKG MKG20000617044509506/17/00 04:45:31  5-MIN KMKG 170945Z 33009KT 10SM FEW044 13/09 A3002 540 74 500 330/09 RMK AO2
14840KMKG MKG20000617045011206/17/00 04:50:31  5-MIN KMKG 170950Z 33011KT 10SM FEW044 13/09 A3002 540 77 400 330/11 RMK AO2 SLP166 T01280089
14840KMKG MKG20000617045510906/17/00 04:55:31  5-MIN KMKG 170955Z 33009KT 10SM CLR 13/09 A3002 540 77 400 330/09 RMK AO2 SLP166 T01280089
14840KMKG MKG20000617050009206/17/00 05:00:31  5-MIN KMKG 171000Z 33009KT 10SM CLR 13/09 A3002 530 77 400 330/09 RMK AO2
14840KMKG MKG20000617050509206/17/00 05:05:31  5-MIN KMKG 171005Z 33009KT 10SM CLR 13/09 A3003 530 77 400 330/09 RMK AO2
14840KMKG MKG20000617051009206/17/00 05:10:31  5-MIN KMKG 171010Z 32008KT 10SM CLR 13/09 A3003 530 77 400 330/08 RMK AO2
14840KMKG MKG20000617051509206/17/00 05:15:31  5-MIN KMKG 171015Z 32009KT 10SM CLR 13/09 A3003 530 77 400 330/09 RMK AO2
14840KMKG MKG20000617052009206/17/00 05:20:31  5-MIN KMKG 171020Z 33010KT 10SM CLR 13/09 A3003 530 77 400 330/10 RMK AO2
14840KMKG MKG20000617052509206/17/00 05:25:31  5-MIN KMKG 171025Z 33009KT 10SM CLR 13/09 A3004 520 77 400 330/09 RMK AO2
14840KMKG MKG20000617053009206/17/00 05:30:31  5-MIN KMKG 171030Z 33008KT 10SM CLR 13/09 A3004 520 77 400 340/08 RMK AO2
14840KMKG MKG20000617053509206/17/00 05:35:31  5-MIN KMKG 171035Z 33007KT 10SM CLR 13/09 A3004 520 77 400 330/07 RMK AO2
14840KMKG MKG20000617054009206/17/00 05:40:31  5-MIN KMKG 171040Z 33008KT 10SM CLR 13/09 A3004 520 77 400 340/08 RMK AO2
14840KMKG MKG20000617054509206/17/00 05:45:31  5-MIN KMKG 171045Z 33008KT 10SM CLR 13/09 A3005 510 77 400 340/08 RMK AO2
14840KMKG MKG20000617055010906/17/00 05:50:31  5-MIN KMKG 171050Z 33010KT 10SM CLR 13/09 A3005 510 77 400 330/10 RMK AO2 SLP177 T01280089
14840KMKG MKG20000617055510906/17/00 05:55:31  5-MIN KMKG 171055Z 33008KT 10SM CLR 13/09 A3006 500 77 400 340/08 RMK AO2 SLP178 T01280089
14840KMKG MKG20000617060009206/17/00 06:00:31  5-MIN KMKG 171100Z 33007KT 10SM CLR 13/09 A3006 500 74 500 330/07 RMK AO2
14840KMKG MKG20000617060509206/17/00 06:05:31  5-MIN KMKG 171105Z 33007KT 10SM CLR 13/09 A3006 500 77 400 340/07 RMK AO2
14840KMKG MKG20000617061009206/17/00 06:10:31  5-MIN KMKG 171110Z 33008KT 10SM CLR 13/09 A3006 500 77 400 330/08 RMK AO2
14840KMKG MKG20000617061509206/17/00 06:15:31  5-MIN KMKG 171115Z 33009KT 10SM CLR 13/09 A3007 500 77 400 330/09 RMK AO2
14840KMKG MKG20000617062009206/17/00 06:20:31  5-MIN KMKG 171120Z 34009KT 10SM CLR 13/09 A3007 490 74 500 340/09 RMK AO2
14840KMKG MKG20000617062509206/17/00 06:25:31  5-MIN KMKG 171125Z 33008KT 10SM CLR 13/09 A3007 490 74 400 340/08 RMK AO2
14840KMKG MKG20000617063009206/17/00 06:30:31  5-MIN KMKG 171130Z 33009KT 10SM CLR 13/09 A3008 490 74 400 340/09 RMK AO2
14840KMKG MKG20000617063509206/17/00 06:35:31  5-MIN KMKG 171135Z 33008KT 10SM CLR 14/09 A3008 480 74 500 340/08 RMK AO2
14840KMKG MKG20000617064009206/17/00 06:40:31  5-MIN KMKG 171140Z 33009KT 10SM CLR 14/09 A3008 480 71 500 340/09 RMK AO2
14840KMKG MKG20000617064509206/17/00 06:45:31  5-MIN KMKG 171145Z 34009KT 10SM CLR 14/09 A3008 480 71 500 340/09 RMK AO2
14840KMKG MKG20000617065012706/17/00 06:50:31  5-MIN KMKG 171150Z 32010KT 10SM CLR 14/09 A3008 480 71 500 330/10 RMK AO2 SLP186 T01390089 10161 20128 52023
14840KMKG MKG20000617065512706/17/00 06:55:31  5-MIN KMKG 171155Z 34007KT 10SM CLR 14/09 A3008 480 71 500 340/07 RMK AO2 SLP187 T01390089 10161 20128 51030
14840KMKG MKG20000617070009206/17/00 07:00:31  5-MIN KMKG 171200Z 34009KT 10SM CLR 14/09 A3008 480 71 500 340/09 RMK AO2
14840KMKG MKG20000617070509206/17/00 07:05:31  5-MIN KMKG 171205Z 34007KT 10SM CLR 14/09 A3008 480 71 500 340/07 RMK AO2
14840KMKG MKG20000617071009206/17/00 07:10:31  5-MIN KMKG 171210Z 33010KT 10SM CLR 14/09 A3008 480 69 600 340/10 RMK AO2
14840KMKG MKG20000617071509206/17/00 07:15:31  5-MIN KMKG 171215Z 34009KT 10SM CLR 14/09 A3009 480 69 600 340/09 RMK AO2
14840KMKG MKG20000617072009206/17/00 07:20:31  5-MIN KMKG 171220Z 33009KT 10SM CLR 14/08 A3009 480 66 600 330/09 RMK AO2
14840KMKG MKG20000617072509206/17/00 07:25:31  5-MIN KMKG 171225Z 32009KT 10SM CLR 14/08 A3009 480 66 600 320/09 RMK AO2
14840KMKG MKG20000617073009206/17/00 07:30:31  5-MIN KMKG 171230Z 35010KT 10SM CLR 14/08 A3009 470 66 600 350/10 RMK AO2
14840KMKG MKG20000617073509206/17/00 07:35:31  5-MIN KMKG 171235Z 35011KT 10SM CLR 15/09 A3009 470 66 600 350/11 RMK AO2
14840KMKG MKG20000617074009206/17/00 07:40:31  5-MIN KMKG 171240Z 33008KT 10SM CLR 14/08 A3009 470 66 600 340/08 RMK AO2
14840KMKG MKG20000617074509206/17/00 07:45:31  5-MIN KMKG 171245Z 35010KT 10SM CLR 15/08 A3009 470 64 600 350/10 RMK AO2
14840KMKG MKG20000617075010906/17/00 07:50:31  5-MIN KMKG 171250Z 36010KT 10SM CLR 15/09 A3010 470 66 600 010/10 RMK AO2 SLP192 T01500089
14840KMKG MKG20000617075510906/17/00 07:55:31  5-MIN KMKG 171255Z 35010KT 10SM CLR 15/08 A3010 460 64 600 350/10 RMK AO2 SLP192 T01500083
14840KMKG MKG20000617080009206/17/00 08:00:31  5-MIN KMKG 171300Z 34010KT 10SM CLR 16/08 A3010 470 62 700 340/10 RMK AO2
14840KMKG MKG20000617080509206/17/00 08:05:31  5-MIN KMKG 171305Z 35007KT 10SM CLR 16/08 A3010 470 62 700 350/07 RMK AO2
14840KMKG MKG20000617081009206/17/00 08:10:31  5-MIN KMKG 171310Z 36011KT 10SM CLR 16/09 A3010 460 64 700 360/11 RMK AO2
14840KMKG MKG20000617081509206/17/00 08:15:31  5-MIN KMKG 171315Z 36009KT 10SM CLR 16/08 A3010 460 62 700 360/09 RMK AO2
14840KMKG MKG20000617082009206/17/00 08:20:31  5-MIN KMKG 171320Z 36008KT 10SM CLR 16/08 A3011 460 59 700 360/08 RMK AO2
14840KMKG MKG20000617082509206/17/00 08:25:31  5-MIN KMKG 171325Z 36009KT 10SM CLR 16/08 A3011 460 59 700 360/09 RMK AO2
14840KMKG MKG20000617083009206/17/00 08:30:31  5-MIN KMKG 171330Z 01010KT 10SM CLR 16/08 A3011 450 57 700 010/10 RMK AO2
14840KMKG MKG20000617083509506/17/00 08:35:31  5-MIN KMKG 171335Z 35007KT 10SM FEW031 16/08 A3011 460 59 700 350/07 RMK AO2
14840KMKG MKG20000617084009506/17/00 08:40:31  5-MIN KMKG 171340Z 35009KT 10SM FEW031 17/08 A3011 460 57 800 350/09 RMK AO2
14840KMKG MKG20000617084509506/17/00 08:45:31  5-MIN KMKG 171345Z 35009KT 10SM FEW031 16/08 A3011 450 59 700 350/09 RMK AO2
14840KMKG MKG20000617085011206/17/00 08:50:31  5-MIN KMKG 171350Z 35008KT 10SM FEW031 16/08 A3011 450 57 700 350/08 RMK AO2 SLP197 T01610078
14840KMKG MKG20000617085511206/17/00 08:55:31  5-MIN KMKG 171355Z 35008KT 10SM FEW031 16/08 A3012 450 57 700 350/08 RMK AO2 SLP199 T01610078
14840KMKG MKG20000617090009506/17/00 09:00:31  5-MIN KMKG 171400Z 35008KT 10SM FEW031 16/08 A3012 440 57 700 360/08 RMK AO2
14840KMKG MKG20000617090509506/17/00 09:05:31  5-MIN KMKG 171405Z 35008KT 10SM FEW031 16/08 A3012 440 57 700 350/08 RMK AO2
14840KMKG MKG20000617091009506/17/00 09:10:31  5-MIN KMKG 171410Z 01008KT 10SM FEW031 17/08 A3012 440 55 800 010/08 RMK AO2
14840KMKG MKG20000617091509506/17/00 09:15:31  5-MIN KMKG 171415Z 36010KT 10SM FEW031 17/08 A3013 440 55 800 010/10 RMK AO2
14840KMKG MKG20000617092009506/17/00 09:20:31  5-MIN KMKG 171420Z 36008KT 10SM FEW031 16/07 A3013 440 55 700 360/08 RMK AO2
14840KMKG MKG20000617092511106/17/00 09:25:31  5-MIN KMKG 171425Z 01007KT 330V030 10SM FEW031 17/08 A3013 440 55 800 010/07 330V030 RMK AO2
14840KMKG MKG20000617093009506/17/00 09:30:31  5-MIN KMKG 171430Z 35008KT 10SM FEW031 17/07 A3012 440 53 800 350/08 RMK AO2
14840KMKG MKG20000617093509506/17/00 09:35:31  5-MIN KMKG 171435Z 33007KT 10SM FEW031 17/07 A3012 440 51 800 330/07 RMK AO2
14840KMKG MKG20000617094009506/17/00 09:40:31  5-MIN KMKG 171440Z 32008KT 10SM FEW031 17/07 A3013 440 53 800 320/08 RMK AO2
14840KMKG MKG20000617094509506/17/00 09:45:31  5-MIN KMKG 171445Z 32008KT 10SM FEW031 17/07 A3013 440 53 800 320/08 RMK AO2
14840KMKG MKG20000617095011806/17/00 09:50:31  5-MIN KMKG 171450Z 33007KT 10SM FEW031 17/07 A3013 440 53 800 340/07 RMK AO2 SLP201 T01670072 51030
14840KMKG MKG20000617095511806/17/00 09:55:31  5-MIN KMKG 171455Z 33009KT 10SM FEW031 17/08 A3013 440 53 800 340/09 RMK AO2 SLP202 T01720078 51015
14840KMKG MKG20000617100009506/17/00 10:00:31  5-MIN KMKG 171500Z 32009KT 10SM FEW031 17/07 A3012 440 51 800 330/09 RMK AO2
14840KMKG MKG20000617100509506/17/00 10:05:31  5-MIN KMKG 171505Z 32011KT 10SM FEW031 17/07 A3013 440 51 800 330/11 RMK AO2
14840KMKG MKG20000617101009506/17/00 10:10:31  5-MIN KMKG 171510Z 31010KT 10SM FEW031 17/07 A3013 440 53 800 310/10 RMK AO2
14840KMKG MKG20000617101509506/17/00 10:15:31  5-MIN KMKG 171515Z 29009KT 10SM FEW031 17/08 A3013 440 53 800 290/09 RMK AO2
14840KMKG MKG20000617102009506/17/00 10:20:31  5-MIN KMKG 171520Z 33009KT 10SM FEW031 17/08 A3013 440 53 800 330/09 RMK AO2
14840KMKG MKG20000617102509506/17/00 10:25:31  5-MIN KMKG 171525Z VRB05KT 10SM FEW031 17/08 A3013 430 53 800 VRB/05 RMK AO2
14840KMKG MKG20000617103009506/17/00 10:30:31  5-MIN KMKG 171530Z 31006KT 10SM FEW031 17/08 A3014 430 53 800 320/06 RMK AO2
14840KMKG MKG20000617103509506/17/00 10:35:31  5-MIN KMKG 171535Z 32007KT 10SM FEW031 18/08 A3014 430 51 900 320/07 RMK AO2
14840KMKG MKG20000617104009506/17/00 10:40:31  5-MIN KMKG 171540Z 34005KT 10SM FEW031 17/08 A3014 430 53 800 340/05 RMK AO2
14840KMKG MKG20000617104511106/17/00 10:45:31  5-MIN KMKG 171545Z 34007KT 300V360 10SM FEW031 18/08 A3014 430 53 900 350/07 300V360 RMK AO2
14840KMKG MKG20000617105011206/17/00 10:50:31  5-MIN KMKG 171550Z 31006KT 10SM FEW031 17/09 A3014 430 57 800 320/06 RMK AO2 SLP206 T01720089
14840KMKG MKG20000617105511206/17/00 10:55:31  5-MIN KMKG 171555Z 28010KT 10SM FEW031 17/09 A3014 430 62 800 280/10 RMK AO2 SLP206 T01670094
14840KMKG MKG20000617110009506/17/00 11:00:31  5-MIN KMKG 171600Z 28009KT 10SM FEW031 18/09 A3014 430 58 900 290/09 RMK AO2
14840KMKG MKG20000617110509506/17/00 11:05:31  5-MIN KMKG 171605Z 28007KT 10SM FEW031 18/09 A3015 420 58 900 280/07 RMK AO2
14840KMKG MKG20000617111009506/17/00 11:10:31  5-MIN KMKG 171610Z 28010KT 10SM FEW031 17/09 A3015 420 60 800 280/10 RMK AO2
14840KMKG MKG20000617111509506/17/00 11:15:31  5-MIN KMKG 171615Z 32007KT 10SM FEW031 17/09 A3015 420 60 800 320/07 RMK AO2
14840KMKG MKG20000617112011106/17/00 11:20:31  5-MIN KMKG 171620Z 28008KT 230V300 10SM FEW031 18/10 A3015 420 60 900 280/08 230V300 RMK AO2
14840KMKG MKG20000617112511206/17/00 11:25:31  5-MIN KMKG 171625Z 30007KT 270V340 10SM FEW031 18/10 A3015 420 58 1000 310/07 270V340 RMK AO2
14840KMKG MKG20000617113009506/17/00 11:30:31  5-MIN KMKG 171630Z 29011KT 10SM FEW031 18/09 A3015 420 58 900 300/11 RMK AO2
14840KMKG MKG20000617113509506/17/00 11:35:31  5-MIN KMKG 171635Z 28008KT 10SM FEW031 17/09 A3015 420 57 800 280/08 RMK AO2
14840KMKG MKG20000617114009506/17/00 11:40:31  5-MIN KMKG 171640Z 29009KT 10SM FEW031 18/09 A3015 420 56 900 300/09 RMK AO2
14840KMKG MKG20000617114509506/17/00 11:45:31  5-MIN KMKG 171645Z 29011KT 10SM FEW031 18/09 A3015 420 55 900 290/11 RMK AO2
14840KMKG MKG20000617115011206/17/00 11:50:31  5-MIN KMKG 171650Z 30012KT 10SM FEW031 18/09 A3015 420 55 900 310/12 RMK AO2 SLP210 T01780089
14840KMKG MKG20000617115511206/17/00 11:55:31  5-MIN KMKG 171655Z 28010KT 10SM FEW031 18/09 A3016 410 55 900 280/10 RMK AO2 SLP211 T01780089
14840KMKG MKG20000617120009506/17/00 12:00:31  5-MIN KMKG 171700Z 30012KT 10SM FEW031 17/08 A3016 410 55 800 300/12 RMK AO2
14840KMKG MKG20000617120509506/17/00 12:05:31  5-MIN KMKG 171705Z 29012KT 10SM FEW031 17/08 A3015 410 53 800 300/12 RMK AO2
14840KMKG MKG20000617121009506/17/00 12:10:31  5-MIN KMKG 171710Z 28009KT 10SM FEW031 17/08 A3015 420 53 800 290/09 RMK AO2
14840KMKG MKG20000617121509506/17/00 12:15:31  5-MIN KMKG 171715Z 28010KT 10SM FEW031 18/08 A3015 410 53 900 290/10 RMK AO2
14840KMKG MKG20000617122009506/17/00 12:20:31  5-MIN KMKG 171720Z 31011KT 10SM FEW031 18/08 A3015 420 52 900 310/11 RMK AO2
14840KMKG MKG20000617122509506/17/00 12:25:31  5-MIN KMKG 171725Z 31010KT 10SM FEW031 18/08 A3015 420 51 900 320/10 RMK AO2
14840KMKG MKG20000617123009506/17/00 12:30:31  5-MIN KMKG 171730Z 28010KT 10SM FEW031 18/08 A3015 420 51 900 290/10 RMK AO2
14840KMKG MKG20000617123509506/17/00 12:35:31  5-MIN KMKG 171735Z 29011KT 10SM FEW031 17/08 A3015 420 55 800 290/11 RMK AO2
14840KMKG MKG20000617124009506/17/00 12:40:31  5-MIN KMKG 171740Z 30011KT 10SM FEW031 18/08 A3016 410 53 900 300/11 RMK AO2
14840KMKG MKG20000617124509506/17/00 12:45:31  5-MIN KMKG 171745Z 29011KT 10SM FEW031 18/08 A3016 410 53 900 290/11 RMK AO2
14840KMKG MKG20000617125013006/17/00 12:50:31  5-MIN KMKG 171750Z 29011KT 10SM FEW031 18/08 A3016 410 53 900 300/11 RMK AO2 SLP211 T01780083 10183 20139 51015
14840KMKG MKG20000617125512706/17/00 12:55:31  5-MIN KMKG 171755Z 30009KT 10SM CLR 18/08 A3015 410 52 900 300/09 RMK AO2 SLP210 T01830083 10183 20139 50009
14840KMKG MKG20000617130009206/17/00 13:00:31  5-MIN KMKG 171800Z 29010KT 10SM CLR 18/08 A3016 410 52 900 300/10 RMK AO2
14840KMKG MKG20000617130509206/17/00 13:05:31  5-MIN KMKG 171805Z 30010KT 10SM CLR 18/09 A3016 410 54 900 300/10 RMK AO2
14840KMKG MKG20000617131009206/17/00 13:10:31  5-MIN KMKG 171810Z 30011KT 10SM CLR 18/08 A3016 410 53 900 310/11 RMK AO2
14840KMKG MKG20000617131509806/17/00 13:15:31  5-MIN KMKG 171815Z 29014G17KT 10SM CLR 18/08 A3016 410 51 900 300/14G17 RMK AO2
14840KMKG MKG20000617132009806/17/00 13:20:31  5-MIN KMKG 171820Z 29010G17KT 10SM CLR 18/08 A3016 410 51 900 300/10G17 RMK AO2
14840KMKG MKG20000617132509206/17/00 13:25:31  5-MIN KMKG 171825Z 28011KT 10SM CLR 17/08 A3016 410 53 800 290/11 RMK AO2
14840KMKG MKG20000617133009206/17/00 13:30:31  5-MIN KMKG 171830Z 30011KT 10SM CLR 18/08 A3016 410 52 900 300/11 RMK AO2
14840KMKG MKG20000617133509206/17/00 13:35:31  5-MIN KMKG 171835Z 30011KT 10SM CLR 18/08 A3016 410 52 900 310/11 RMK AO2
14840KMKG MKG20000617134009206/17/00 13:40:31  5-MIN KMKG 171840Z 29010KT 10SM CLR 18/08 A3016 410 50 900 300/10 RMK AO2
14840KMKG MKG20000617134509206/17/00 13:45:31  5-MIN KMKG 171845Z 29010KT 10SM CLR 18/08 A3016 410 50 900 300/10 RMK AO2
14840KMKG MKG20000617135010906/17/00 13:50:31  5-MIN KMKG 171850Z 31010KT 10SM CLR 18/08 A3016 410 51 900 310/10 RMK AO2 SLP211 T01780078
14840KMKG MKG20000617135510906/17/00 13:55:31  5-MIN KMKG 171855Z 31011KT 10SM CLR 18/08 A3016 410 50 900 310/11 RMK AO2 SLP211 T01830078
14840KMKG MKG20000617140009206/17/00 14:00:31  5-MIN KMKG 171900Z 31011KT 10SM CLR 18/08 A3016 410 52 900 320/11 RMK AO2
14840KMKG MKG20000617140509206/17/00 14:05:31  5-MIN KMKG 171905Z 32012KT 10SM CLR 18/08 A3016 410 52 900 320/12 RMK AO2
14840KMKG MKG20000617141009206/17/00 14:10:31  5-MIN KMKG 171910Z 32011KT 10SM CLR 18/08 A3016 410 52 900 320/11 RMK AO2
14840KMKG MKG20000617141509206/17/00 14:15:31  5-MIN KMKG 171915Z 29011KT 10SM CLR 18/08 A3016 410 51 900 290/11 RMK AO2
14840KMKG MKG20000617142009206/17/00 14:20:31  5-MIN KMKG 171920Z 31008KT 10SM CLR 18/08 A3016 410 51 900 310/08 RMK AO2
14840KMKG MKG20000617142509806/17/00 14:25:31  5-MIN KMKG 171925Z 31010G16KT 10SM CLR 18/08 A3016 410 52 900 310/10G16 RMK AO2
14840KMKG MKG20000617143009806/17/00 14:30:31  5-MIN KMKG 171930Z 30010G16KT 10SM CLR 18/08 A3016 410 50 900 310/10G16 RMK AO2
14840KMKG MKG20000617143509206/17/00 14:35:31  5-MIN KMKG 171935Z 30008KT 10SM CLR 18/08 A3016 410 50 900 300/08 RMK AO2
14840KMKG MKG20000617144009306/17/00 14:40:31  5-MIN KMKG 171940Z 31010KT 10SM CLR 19/08 A3016 410 50 1000 310/10 RMK AO2
14840KMKG MKG20000617144509306/17/00 14:45:31  5-MIN KMKG 171945Z 31011KT 10SM CLR 19/08 A3016 410 48 1000 320/11 RMK AO2
14840KMKG MKG20000617145011006/17/00 14:50:31  5-MIN KMKG 171950Z 30007KT 10SM CLR 19/08 A3016 410 48 1000 310/07 RMK AO2 SLP213 T01890078
14840KMKG MKG20000617145511006/17/00 14:55:31  5-MIN KMKG 171955Z 32009KT 10SM CLR 19/07 A3017 400 46 1000 330/09 RMK AO2 SLP214 T01890072
14840KMKG MKG20000617150009306/17/00 15:00:31  5-MIN KMKG 172000Z 31011KT 10SM CLR 19/08 A3017 400 48 1000 320/11 RMK AO2
14840KMKG MKG20000617150509306/17/00 15:05:31  5-MIN KMKG 172005Z 32008KT 10SM CLR 19/08 A3017 400 48 1000 320/08 RMK AO2
14840KMKG MKG20000617151009206/17/00 15:10:31  5-MIN KMKG 172010Z 31008KT 10SM CLR 18/08 A3016 410 50 900 310/08 RMK AO2
14840KMKG MKG20000617151509306/17/00 15:15:31  5-MIN KMKG 172015Z 33008KT 10SM CLR 19/07 A3017 400 44 1000 340/08 RMK AO2
14840KMKG MKG20000617152010806/17/00 15:20:31  5-MIN KMKG 172020Z 32008KT 280V350 10SM CLR 18/07 A3017 400 48 900 320/08 280V350 RMK AO2
14840KMKG MKG20000617152509206/17/00 15:25:31  5-MIN KMKG 172025Z 31009KT 10SM CLR 18/07 A3017 400 48 900 310/09 RMK AO2
14840KMKG MKG20000617153009206/17/00 15:30:31  5-MIN KMKG 172030Z 30007KT 10SM CLR 18/08 A3016 410 50 900 310/07 RMK AO2
14840KMKG MKG20000617153509306/17/00 15:35:31  5-MIN KMKG 172035Z 32008KT 10SM CLR 19/08 A3016 410 48 1000 330/08 RMK AO2
14840KMKG MKG20000617154009306/17/00 15:40:31  5-MIN KMKG 172040Z 32007KT 10SM CLR 19/07 A3016 410 46 1000 330/07 RMK AO2
14840KMKG MKG20000617154509306/17/00 15:45:31  5-MIN KMKG 172045Z 34006KT 10SM CLR 19/07 A3016 410 46 1000 340/06 RMK AO2
14840KMKG MKG20000617155011606/17/00 15:50:31  5-MIN KMKG 172050Z 34007KT 10SM CLR 19/07 A3016 410 43 1100 340/07 RMK AO2 SLP214 T01940067 50009
14840KMKG MKG20000617155511606/17/00 15:55:31  5-MIN KMKG 172055Z VRB06KT 10SM CLR 19/06 A3016 410 41 1000 VRB/06 RMK AO2 SLP214 T01890056 50003
14840KMKG MKG20000617160009206/17/00 16:00:31  5-MIN KMKG 172100Z 29008KT 10SM CLR 18/08 A3016 410 53 900 290/08 RMK AO2
14840KMKG MKG20000617160509206/17/00 16:05:31  5-MIN KMKG 172105Z 28008KT 10SM CLR 18/08 A3016 410 53 900 280/08 RMK AO2
14840KMKG MKG20000617161009206/17/00 16:10:31  5-MIN KMKG 172110Z 27005KT 10SM CLR 18/08 A3016 410 53 900 270/05 RMK AO2
14840KMKG MKG20000617161509206/17/00 16:15:31  5-MIN KMKG 172115Z 27006KT 10SM CLR 18/08 A3016 410 53 900 280/06 RMK AO2
14840KMKG MKG20000617162009206/17/00 16:20:31  5-MIN KMKG 172120Z 32007KT 10SM CLR 18/08 A3016 410 52 900 320/07 RMK AO2
14840KMKG MKG20000617162509206/17/00 16:25:31  5-MIN KMKG 172125Z 28006KT 10SM CLR 18/08 A3016 410 53 900 290/06 RMK AO2
14840KMKG MKG20000617163009206/17/00 16:30:31  5-MIN KMKG 172130Z 31007KT 10SM CLR 18/08 A3015 420 53 900 310/07 RMK AO2
14840KMKG MKG20000617163509206/17/00 16:35:31  5-MIN KMKG 172135Z 29007KT 10SM CLR 18/08 A3015 420 51 900 300/07 RMK AO2
14840KMKG MKG20000617164009206/17/00 16:40:31  5-MIN KMKG 172140Z 29008KT 10SM CLR 18/08 A3015 420 51 900 300/08 RMK AO2
14840KMKG MKG20000617164509206/17/00 16:45:31  5-MIN KMKG 172145Z 31007KT 10SM CLR 18/08 A3015 420 50 900 320/07 RMK AO2
14840KMKG MKG20000617165010906/17/00 16:50:31  5-MIN KMKG 172150Z 31006KT 10SM CLR 18/07 A3015 420 49 900 310/06 RMK AO2 SLP208 T01780072
14840KMKG MKG20000617165510906/17/00 16:55:31  5-MIN KMKG 172155Z 29007KT 10SM CLR 18/08 A3015 420 51 900 290/07 RMK AO2 SLP208 T01780078
14840KMKG MKG20000617170009306/17/00 17:00:31  5-MIN KMKG 172200Z 31009KT 10SM CLR 18/08 A3014 430 50 1000 310/09 RMK AO2
14840KMKG MKG20000617170509206/17/00 17:05:31  5-MIN KMKG 172205Z 30007KT 10SM CLR 18/07 A3014 430 49 900 310/07 RMK AO2
14840KMKG MKG20000617171009206/17/00 17:10:31  5-MIN KMKG 172210Z 31008KT 10SM CLR 18/07 A3014 430 49 900 310/08 RMK AO2
14840KMKG MKG20000617171509306/17/00 17:15:31  5-MIN KMKG 172215Z 33009KT 10SM CLR 18/06 A3014 420 44 1000 340/09 RMK AO2
14840KMKG MKG20000617172009306/17/00 17:20:31  5-MIN KMKG 172220Z 34009KT 10SM CLR 18/05 A3014 430 41 1000 340/09 RMK AO2
14840KMKG MKG20000617172509206/17/00 17:25:31  5-MIN KMKG 172225Z 31009KT 10SM CLR 18/05 A3014 430 42 900 320/09 RMK AO2
14840KMKG MKG20000617173009306/17/00 17:30:31  5-MIN KMKG 172230Z 34010KT 10SM CLR 18/05 A3014 430 41 1000 340/10 RMK AO2
14840KMKG MKG20000617173509306/17/00 17:35:31  5-MIN KMKG 172235Z 34009KT 10SM CLR 18/04 A3014 430 39 1000 340/09 RMK AO2
14840KMKG MKG20000617174009306/17/00 17:40:31  5-MIN KMKG 172240Z 35008KT 10SM CLR 18/05 A3014 430 41 1000 350/08 RMK AO2
14840KMKG MKG20000617174509306/17/00 17:45:31  5-MIN KMKG 172245Z 34010KT 10SM CLR 18/04 A3014 430 39 1000 340/10 RMK AO2
14840KMKG MKG20000617175010906/17/00 17:50:31  5-MIN KMKG 172250Z 33010KT 10SM CLR 18/05 A3014 430 42 900 340/10 RMK AO2 SLP205 T01780050
14840KMKG MKG20000617175511006/17/00 17:55:31  5-MIN KMKG 172255Z 33009KT 10SM CLR 18/05 A3014 430 41 1000 340/09 RMK AO2 SLP206 T01830050
14840KMKG MKG20000617180009306/17/00 18:00:31  5-MIN KMKG 172300Z 33010KT 10SM CLR 18/06 A3014 430 42 1000 340/10 RMK AO2
14840KMKG MKG20000617180509306/17/00 18:05:31  5-MIN KMKG 172305Z 33009KT 10SM CLR 18/05 A3014 430 41 1000 330/09 RMK AO2
14840KMKG MKG20000617181009306/17/00 18:10:31  5-MIN KMKG 172310Z 34008KT 10SM CLR 18/05 A3014 430 41 1000 340/08 RMK AO2
14840KMKG MKG20000617181509206/17/00 18:15:31  5-MIN KMKG 172315Z 35008KT 10SM CLR 18/05 A3014 430 42 900 350/08 RMK AO2
14840KMKG MKG20000617182009206/17/00 18:20:31  5-MIN KMKG 172320Z 34006KT 10SM CLR 18/05 A3014 430 42 900 350/06 RMK AO2
14840KMKG MKG20000617182509206/17/00 18:25:31  5-MIN KMKG 172325Z 36006KT 10SM CLR 17/05 A3014 430 44 800 360/06 RMK AO2
14840KMKG MKG20000617183009206/17/00 18:30:31  5-MIN KMKG 172330Z 35006KT 10SM CLR 17/05 A3014 430 44 800 360/06 RMK AO2
14840KMKG MKG20000617183509206/17/00 18:35:31  5-MIN KMKG 172335Z 01005KT 10SM CLR 17/06 A3014 430 46 800 010/05 RMK AO2
14840KMKG MKG20000617184009206/17/00 18:40:31  5-MIN KMKG 172340Z 36009KT 10SM CLR 17/06 A3014 430 46 800 010/09 RMK AO2
14840KMKG MKG20000617184509206/17/00 18:45:31  5-MIN KMKG 172345Z 36007KT 10SM CLR 17/05 A3014 430 44 800 010/07 RMK AO2
14840KMKG MKG20000617185012706/17/00 18:50:31  5-MIN KMKG 172350Z 36007KT 10SM CLR 17/05 A3014 430 44 800 360/07 RMK AO2 SLP207 T01720050 10194 20172 50003
14840KMKG MKG20000617185512706/17/00 18:55:31  5-MIN KMKG 172355Z 01007KT 10SM CLR 17/05 A3014 420 44 800 010/07 RMK AO2 SLP208 T01720050 10194 20172 55006
14840KMKG MKG20000617190009206/17/00 19:00:31  5-MIN KMKG 180000Z 01007KT 10SM CLR 17/05 A3014 420 44 800 020/07 RMK AO2
14840KMKG MKG20000617190509206/17/00 19:05:31  5-MIN KMKG 180005Z 01007KT 10SM CLR 17/05 A3014 430 44 800 020/07 RMK AO2
14840KMKG MKG20000617191009206/17/00 19:10:31  5-MIN KMKG 180010Z 36007KT 10SM CLR 17/05 A3014 430 44 800 360/07 RMK AO2
14840KMKG MKG20000617191509206/17/00 19:15:31  5-MIN KMKG 180015Z 36007KT 10SM CLR 17/06 A3014 430 47 800 010/07 RMK AO2
14840KMKG MKG20000617192009206/17/00 19:20:31  5-MIN KMKG 180020Z 36007KT 10SM CLR 17/05 A3014 430 45 800 360/07 RMK AO2
14840KMKG MKG20000617192509206/17/00 19:25:31  5-MIN KMKG 180025Z 01005KT 10SM CLR 17/06 A3014 430 47 800 010/05 RMK AO2
14840KMKG MKG20000617193009206/17/00 19:30:31  5-MIN KMKG 180030Z 01006KT 10SM CLR 17/06 A3014 430 47 800 020/06 RMK AO2
14840KMKG MKG20000617193509206/17/00 19:35:31  5-MIN KMKG 180035Z 01007KT 10SM CLR 17/05 A3014 430 45 800 020/07 RMK AO2
14840KMKG MKG20000617194009206/17/00 19:40:31  5-MIN KMKG 180040Z 01007KT 10SM CLR 17/06 A3014 420 47 800 020/07 RMK AO2
14840KMKG MKG20000617194509206/17/00 19:45:31  5-MIN KMKG 180045Z 36008KT 10SM CLR 17/06 A3015 420 47 800 360/08 RMK AO2
14840KMKG MKG20000617195010906/17/00 19:50:31  5-MIN KMKG 180050Z 36007KT 10SM CLR 17/06 A3015 420 47 700 010/07 RMK AO2 SLP210 T01670056
14840KMKG MKG20000617195510906/17/00 19:55:31  5-MIN KMKG 180055Z 36008KT 10SM CLR 17/06 A3015 420 47 700 360/08 RMK AO2 SLP211 T01670056
14840KMKG MKG20000617200009206/17/00 20:00:31  5-MIN KMKG 180100Z 36007KT 10SM CLR 17/06 A3015 420 47 700 010/07 RMK AO2
14840KMKG MKG20000617200509206/17/00 20:05:31  5-MIN KMKG 180105Z 01006KT 10SM CLR 17/06 A3015 420 47 800 020/06 RMK AO2
14840KMKG MKG20000617201009206/17/00 20:10:31  5-MIN KMKG 180110Z 01008KT 10SM CLR 16/06 A3015 420 49 700 010/08 RMK AO2
14840KMKG MKG20000617201509206/17/00 20:15:31  5-MIN KMKG 180115Z 01007KT 10SM CLR 16/06 A3015 410 49 700 010/07 RMK AO2
14840KMKG MKG20000617202009206/17/00 20:20:31  5-MIN KMKG 180120Z 01006KT 10SM CLR 16/06 A3016 410 49 700 010/06 RMK AO2
14840KMKG MKG20000617202509206/17/00 20:25:31  5-MIN KMKG 180125Z 01007KT 10SM CLR 16/06 A3016 410 49 700 010/07 RMK AO2
14840KMKG MKG20000617203009206/17/00 20:30:31  5-MIN KMKG 180130Z 36006KT 10SM CLR 16/06 A3016 410 49 700 010/06 RMK AO2
14840KMKG MKG20000617203509206/17/00 20:35:31  5-MIN KMKG 180135Z 01007KT 10SM CLR 16/06 A3015 420 49 700 010/07 RMK AO2
14840KMKG MKG20000617204009206/17/00 20:40:31  5-MIN KMKG 180140Z 36006KT 10SM CLR 16/06 A3016 410 49 700 010/06 RMK AO2
14840KMKG MKG20000617204509506/17/00 20:45:31  5-MIN KMKG 180145Z 01006KT 10SM FEW120 16/06 A3016 410 51 700 010/06 RMK AO2
14840KMKG MKG20000617205011206/17/00 20:50:31  5-MIN KMKG 180150Z 01007KT 10SM FEW120 16/06 A3016 410 49 700 020/07 RMK AO2 SLP211 T01610056
14840KMKG MKG20000617205511206/17/00 20:55:31  5-MIN KMKG 180155Z 02005KT 10SM FEW120 16/06 A3016 410 49 700 020/05 RMK AO2 SLP212 T01610056
14840KMKG MKG20000617210009506/17/00 21:00:31  5-MIN KMKG 180200Z 02006KT 10SM FEW120 16/06 A3016 410 49 700 020/06 RMK AO2
14840KMKG MKG20000617210509506/17/00 21:05:31  5-MIN KMKG 180205Z 03007KT 10SM FEW120 16/06 A3016 410 51 700 030/07 RMK AO2
14840KMKG MKG20000617211009506/17/00 21:10:31  5-MIN KMKG 180210Z 02004KT 10SM FEW120 16/06 A3016 410 53 600 030/04 RMK AO2
14840KMKG MKG20000617211509206/17/00 21:15:31  5-MIN KMKG 180215Z 02005KT 10SM CLR 16/06 A3016 410 53 600 030/05 RMK AO2
14840KMKG MKG20000617212009206/17/00 21:20:31  5-MIN KMKG 180220Z 02005KT 10SM CLR 16/06 A3016 410 53 600 020/05 RMK AO2
14840KMKG MKG20000617212509206/17/00 21:25:31  5-MIN KMKG 180225Z 02004KT 10SM CLR 16/06 A3017 400 53 600 020/04 RMK AO2
14840KMKG MKG20000617213009206/17/00 21:30:31  5-MIN KMKG 180230Z 36004KT 10SM CLR 16/06 A3017 400 53 600 360/04 RMK AO2
14840KMKG MKG20000617213509506/17/00 21:35:31  5-MIN KMKG 180235Z 02004KT 10SM FEW120 16/06 A3017 400 53 600 020/04 RMK AO2
14840KMKG MKG20000617214009506/17/00 21:40:31  5-MIN KMKG 180240Z 01005KT 10SM SCT120 16/06 A3017 400 53 600 010/05 RMK AO2
14840KMKG MKG20000617214509506/17/00 21:45:31  5-MIN KMKG 180245Z 01005KT 10SM FEW120 16/06 A3018 400 53 600 020/05 RMK AO2
14840KMKG MKG20000617215011806/17/00 21:50:31  5-MIN KMKG 180250Z 01005KT 10SM FEW120 16/06 A3017 400 53 600 010/05 RMK AO2 SLP218 T01560061 55006
14840KMKG MKG20000617215511806/17/00 21:55:31  5-MIN KMKG 180255Z 02004KT 10SM FEW120 16/06 A3018 390 53 600 020/04 RMK AO2 SLP218 T01560061 53010
14840KMKG MKG20000617220009506/17/00 22:00:31  5-MIN KMKG 180300Z 01004KT 10SM FEW120 16/07 A3018 390 55 600 010/04 RMK AO2
14840KMKG MKG20000617220509206/17/00 22:05:31  5-MIN KMKG 180305Z 01005KT 10SM CLR 16/07 A3018 390 55 600 010/05 RMK AO2
14840KMKG MKG20000617221009206/17/00 22:10:31  5-MIN KMKG 180310Z 01005KT 10SM CLR 16/06 A3018 390 53 600 020/05 RMK AO2
14840KMKG MKG20000617221509206/17/00 22:15:31  5-MIN KMKG 180315Z 02003KT 10SM CLR 16/07 A3018 390 55 600 020/03 RMK AO2
14840KMKG MKG20000617222009206/17/00 22:20:31  5-MIN KMKG 180320Z 02003KT 10SM CLR 16/07 A3018 390 55 600 030/03 RMK AO2
14840KMKG MKG20000617222509206/17/00 22:25:31  5-MIN KMKG 180325Z 36004KT 10SM CLR 15/07 A3018 390 57 500 010/04 RMK AO2
14840KMKG MKG20000617223009206/17/00 22:30:31  5-MIN KMKG 180330Z 36004KT 10SM CLR 15/07 A3018 390 57 500 360/04 RMK AO2
14840KMKG MKG20000617223509206/17/00 22:35:31  5-MIN KMKG 180335Z 01003KT 10SM CLR 15/07 A3019 390 57 500 010/03 RMK AO2
14840KMKG MKG20000617224009206/17/00 22:40:31  5-MIN KMKG 180340Z 01004KT 10SM CLR 15/07 A3018 390 57 500 010/04 RMK AO2
14840KMKG MKG20000617224509206/17/00 22:45:31  5-MIN KMKG 180345Z 03003KT 10SM CLR 15/07 A3018 390 57 500 030/03 RMK AO2
14840KMKG MKG20000617225010906/17/00 22:50:31  5-MIN KMKG 180350Z 03003KT 10SM CLR 16/07 A3018 390 55 600 030/03 RMK AO2 SLP218 T01560067
14840KMKG MKG20000617225510906/17/00 22:55:31  5-MIN KMKG 180355Z 01003KT 10SM CLR 15/07 A3017 400 57 500 020/03 RMK AO2 SLP218 T01500067
14840KMKG MKG20000617230009206/17/00 23:00:31  5-MIN KMKG 180400Z 34005KT 10SM CLR 15/07 A3018 390 57 500 350/05 RMK AO2
14840KMKG MKG20000617230509206/17/00 23:05:31  5-MIN KMKG 180405Z 02005KT 10SM CLR 15/07 A3018 390 57 500 020/05 RMK AO2
14840KMKG MKG20000617231009206/17/00 23:10:31  5-MIN KMKG 180410Z 03004KT 10SM CLR 15/07 A3017 400 57 500 040/04 RMK AO2
14840KMKG MKG20000617231509506/17/00 23:15:31  5-MIN KMKG 180415Z 03004KT 10SM SCT120 15/07 A3017 400 57 500 030/04 RMK AO2
14840KMKG MKG20000617232009506/17/00 23:20:31  5-MIN KMKG 180420Z 04003KT 10SM SCT110 15/07 A3017 400 59 500 040/03 RMK AO2
14840KMKG MKG20000617232509506/17/00 23:25:31  5-MIN KMKG 180425Z 00000KT 10SM SCT110 15/07 A3017 400 59 500 000/00 RMK AO2
14840KMKG MKG20000617233009506/17/00 23:30:31  5-MIN KMKG 180430Z 01003KT 10SM SCT110 15/07 A3017 400 59 500 020/03 RMK AO2
14840KMKG MKG20000617233509506/17/00 23:35:31  5-MIN KMKG 180435Z 01004KT 10SM SCT120 15/07 A3017 400 57 500 010/04 RMK AO2
14840KMKG MKG20000617234009506/17/00 23:40:31  5-MIN KMKG 180440Z 36005KT 10SM SCT110 14/07 A3017 400 61 500 360/05 RMK AO2
14840KMKG MKG20000617234509506/17/00 23:45:31  5-MIN KMKG 180445Z 36005KT 10SM FEW110 15/07 A3017 400 59 500 360/05 RMK AO2
14840KMKG MKG20000617235012206/17/00 23:50:31  5-MIN KMKG 180450Z 35006KT 10SM FEW110 15/07 A3017 400 59 500 360/06 RMK AO2 SLP218 T01500072 401940128
14840KMKG MKG20000617235512206/17/00 23:55:31  5-MIN KMKG 180455Z 02005KT 10SM FEW120 15/07 A3017 400 57 500 020/05 RMK AO2 SLP217 T01500067 401940128
14840KMKG MKG20000618000009506/18/00 00:00:31  5-MIN KMKG 180500Z 03005KT 10SM FEW120 15/07 A3017 400 57 500 040/05 RMK AO2
14840KMKG MKG20000618000509206/18/00 00:05:31  5-MIN KMKG 180505Z 03005KT 10SM CLR 15/07 A3017 400 59 500 030/05 RMK AO2
14840KMKG MKG20000618001009506/18/00 00:10:31  5-MIN KMKG 180510Z 02005KT 10SM FEW110 15/07 A3017 400 59 500 020/05 RMK AO2
14840KMKG MKG20000618001509506/18/00 00:15:31  5-MIN KMKG 180515Z 01005KT 10SM FEW110 15/07 A3017 400 59 500 010/05 RMK AO2
14840KMKG MKG20000618002009206/18/00 00:20:31  5-MIN KMKG 180520Z 36006KT 10SM CLR 14/07 A3017 400 61 500 360/06 RMK AO2
14840KMKG MKG20000618002509206/18/00 00:25:31  5-MIN KMKG 180525Z 36005KT 10SM CLR 14/07 A3017 400 61 500 010/05 RMK AO2
14840KMKG MKG20000618003009206/18/00 00:30:31  5-MIN KMKG 180530Z 36006KT 10SM CLR 14/07 A3017 400 61 500 010/06 RMK AO2
14840KMKG MKG20000618003509506/18/00 00:35:31  5-MIN KMKG 180535Z 01005KT 10SM FEW120 14/07 A3017 400 61 500 010/05 RMK AO2
14840KMKG MKG20000618004009506/18/00 00:40:31  5-MIN KMKG 180540Z 02005KT 10SM SCT120 14/07 A3017 400 61 500 030/05 RMK AO2
14840KMKG MKG20000618004509506/18/00 00:45:31  5-MIN KMKG 180545Z 02005KT 10SM BKN120 14/07 A3016 410 61 500 020/05 RMK AO2
14840KMKG MKG20000618005013006/18/00 00:50:31  5-MIN KMKG 180550Z 01006KT 10SM BKN110 14/07 A3016 410 61 500 010/06 RMK AO2 SLP214 T01440072 10172 20144 53010
14840KMKG MKG20000618005513006/18/00 00:55:31  5-MIN KMKG 180555Z 01006KT 10SM SCT120 14/07 A3016 410 61 500 020/06 RMK AO2 SLP213 T01440072 10172 20144 58005
14840KMKG MKG20000618010009506/18/00 01:00:31  5-MIN KMKG 180600Z 02004KT 10SM SCT120 14/07 A3016 410 61 500 030/04 RMK AO2
14840KMKG MKG20000618010509506/18/00 01:05:31  5-MIN KMKG 180605Z 02005KT 10SM SCT120 14/07 A3016 410 61 500 020/05 RMK AO2
14840KMKG MKG20000618011009506/18/00 01:10:31  5-MIN KMKG 180610Z 03004KT 10SM FEW110 14/07 A3016 410 61 500 040/04 RMK AO2
14840KMKG MKG20000618011509506/18/00 01:15:31  5-MIN KMKG 180615Z 04005KT 10SM FEW110 14/07 A3016 410 61 500 040/05 RMK AO2
14840KMKG MKG20000618012009506/18/00 01:20:31  5-MIN KMKG 180620Z 04005KT 10SM SCT120 14/07 A3016 410 61 500 040/05 RMK AO2
14840KMKG MKG20000618012509506/18/00 01:25:31  5-MIN KMKG 180625Z 05005KT 10SM SCT120 14/07 A3016 410 61 500 050/05 RMK AO2
14840KMKG MKG20000618013009506/18/00 01:30:31  5-MIN KMKG 180630Z 05005KT 10SM SCT120 14/07 A3016 410 61 500 050/05 RMK AO2
14840KMKG MKG20000618013509506/18/00 01:35:31  5-MIN KMKG 180635Z 05005KT 10SM SCT120 14/07 A3016 410 61 500 060/05 RMK AO2
14840KMKG MKG20000618014009506/18/00 01:40:31  5-MIN KMKG 180640Z 03004KT 10SM BKN120 14/07 A3016 410 61 500 030/04 RMK AO2
14840KMKG MKG20000618014509506/18/00 01:45:31  5-MIN KMKG 180645Z 02005KT 10SM BKN120 14/08 A3016 410 64 500 020/05 RMK AO2
14840KMKG MKG20000618015011206/18/00 01:50:31  5-MIN KMKG 180650Z 02006KT 10SM BKN120 14/08 A3016 410 64 500 030/06 RMK AO2 SLP212 T01440078
14840KMKG MKG20000618015511206/18/00 01:55:31  5-MIN KMKG 180655Z 01005KT 10SM BKN120 14/08 A3016 410 64 500 010/05 RMK AO2 SLP212 T01440078
14840KMKG MKG20000618020009506/18/00 02:00:31  5-MIN KMKG 180700Z 03004KT 10SM BKN120 14/08 A3016 410 64 500 030/04 RMK AO2
14840KMKG MKG20000618020509506/18/00 02:05:31  5-MIN KMKG 180705Z 03004KT 10SM OVC120 14/08 A3016 410 64 500 030/04 RMK AO2
14840KMKG MKG20000618021009506/18/00 02:10:31  5-MIN KMKG 180710Z 04005KT 10SM OVC120 14/08 A3016 410 64 500 040/05 RMK AO2
14840KMKG MKG20000618021509506/18/00 02:15:31  5-MIN KMKG 180715Z 06003KT 10SM OVC120 14/08 A3016 410 64 500 070/03 RMK AO2
14840KMKG MKG20000618022009506/18/00 02:20:31  5-MIN KMKG 180720Z 06005KT 10SM OVC120 14/08 A3015 410 66 400 060/05 RMK AO2
14840KMKG MKG20000618022509506/18/00 02:25:31  5-MIN KMKG 180725Z 03005KT 10SM OVC120 14/08 A3015 410 66 400 040/05 RMK AO2
14840KMKG MKG20000618023009506/18/00 02:30:31  5-MIN KMKG 180730Z 03005KT 10SM OVC120 14/08 A3015 420 66 400 040/05 RMK AO2
14840KMKG MKG20000618023509506/18/00 02:35:31  5-MIN KMKG 180735Z 02006KT 10SM OVC120 14/08 A3015 420 69 400 020/06 RMK AO2
14840KMKG MKG20000618024009506/18/00 02:40:31  5-MIN KMKG 180740Z 36007KT 10SM OVC120 14/08 A3015 420 69 400 360/07 RMK AO2
14840KMKG MKG20000618024509506/18/00 02:45:31  5-MIN KMKG 180745Z 36006KT 10SM OVC120 14/08 A3015 420 69 400 010/06 RMK AO2
14840KMKG MKG20000618025011206/18/00 02:50:31  5-MIN KMKG 180750Z 01005KT 10SM OVC120 14/08 A3014 430 69 400 020/05 RMK AO2 SLP206 T01390083
14840KMKG MKG20000618025511206/18/00 02:55:31  5-MIN KMKG 180755Z 01006KT 10SM OVC120 14/08 A3014 430 69 400 010/06 RMK AO2 SLP205 T01390083
14840KMKG MKG20000618030009506/18/00 03:00:31  5-MIN KMKG 180800Z 36006KT 10SM OVC120 14/08 A3014 430 69 400 360/06 RMK AO2
14840KMKG MKG20000618030509506/18/00 03:05:31  5-MIN KMKG 180805Z 36006KT 10SM OVC110 14/08 A3013 430 69 400 360/06 RMK AO2
14840KMKG MKG20000618031009506/18/00 03:10:31  5-MIN KMKG 180810Z 01006KT 10SM OVC110 14/08 A3013 440 69 500 020/06 RMK AO2
14840KMKG MKG20000618031509506/18/00 03:15:31  5-MIN KMKG 180815Z 01006KT 10SM OVC110 14/08 A3013 440 69 500 020/06 RMK AO2
14840KMKG MKG20000618032009506/18/00 03:20:31  5-MIN KMKG 180820Z 01006KT 10SM OVC110 14/08 A3013 440 69 400 010/06 RMK AO2
14840KMKG MKG20000618032509506/18/00 03:25:31  5-MIN KMKG 180825Z 35005KT 10SM OVC110 14/08 A3014 430 69 400 350/05 RMK AO2
14840KMKG MKG20000618033009506/18/00 03:30:31  5-MIN KMKG 180830Z 01004KT 10SM OVC110 14/08 A3014 430 69 400 010/04 RMK AO2
14840KMKG MKG20000618033509506/18/00 03:35:31  5-MIN KMKG 180835Z 03005KT 10SM OVC110 14/08 A3013 430 69 400 030/05 RMK AO2
14840KMKG MKG20000618034009506/18/00 03:40:31  5-MIN KMKG 180840Z 05004KT 10SM OVC110 14/08 A3014 430 69 400 060/04 RMK AO2
14840KMKG MKG20000618034509506/18/00 03:45:31  5-MIN KMKG 180845Z 06005KT 10SM OVC110 14/08 A3013 440 69 400 060/05 RMK AO2
14840KMKG MKG20000618035011806/18/00 03:50:31  5-MIN KMKG 180850Z 04005KT 10SM OVC110 13/08 A3013 430 71 400 040/05 RMK AO2 SLP204 T01330083 58005
14840KMKG MKG20000618035511806/18/00 03:55:31  5-MIN KMKG 180855Z 06006KT 10SM OVC110 14/08 A3013 440 69 500 060/06 RMK AO2 SLP201 T01390083 58012
14840KMKG MKG20000618040009506/18/00 04:00:31  5-MIN KMKG 180900Z 07007KT 10SM OVC110 13/08 A3012 440 71 400 070/07 RMK AO2
14840KMKG MKG20000618040509506/18/00 04:05:31  5-MIN KMKG 180905Z 07004KT 10SM OVC110 13/08 A3013 440 71 400 070/04 RMK AO2
14840KMKG MKG20000618041009506/18/00 04:10:31  5-MIN KMKG 180910Z 05004KT 10SM OVC110 13/08 A3013 430 71 400 050/04 RMK AO2
14840KMKG MKG20000618041509506/18/00 04:15:31  5-MIN KMKG 180915Z 05005KT 10SM OVC110 13/08 A3013 440 71 400 050/05 RMK AO2
14840KMKG MKG20000618042009506/18/00 04:20:31  5-MIN KMKG 180920Z 01005KT 10SM OVC110 13/08 A3013 440 71 400 010/05 RMK AO2
14840KMKG MKG20000618042509506/18/00 04:25:31  5-MIN KMKG 180925Z 36005KT 10SM OVC110 13/09 A3013 440 74 400 010/05 RMK AO2
14840KMKG MKG20000618043010206/18/00 04:30:31  5-MIN KMKG 180930Z 01005KT 10SM BKN100 OVC110 13/09 A3013 440 74 400 010/05 RMK AO2
14840KMKG MKG20000618043510206/18/00 04:35:31  5-MIN KMKG 180935Z 02006KT 10SM BKN095 OVC110 13/09 A3013 440 74 400 020/06 RMK AO2
14840KMKG MKG20000618044009506/18/00 04:40:31  5-MIN KMKG 180940Z 01005KT 10SM OVC090 13/09 A3013 440 74 400 010/05 RMK AO2
14840KMKG MKG20000618044509506/18/00 04:45:31  5-MIN KMKG 180945Z 34007KT 10SM OVC090 13/09 A3014 430 74 400 350/07 RMK AO2
14840KMKG MKG20000618045011906/18/00 04:50:31  5-MIN KMKG 180950Z 34007KT 10SM BKN085 OVC110 13/09 A3014 430 74 400 340/07 RMK AO2 SLP205 T01330089
14840KMKG MKG20000618045511906/18/00 04:55:31  5-MIN KMKG 180955Z 35007KT 10SM BKN085 OVC110 13/09 A3014 430 74 400 350/07 RMK AO2 SLP205 T01330089
14840KMKG MKG20000618050010206/18/00 05:00:31  5-MIN KMKG 181000Z 33007KT 10SM SCT085 OVC110 13/09 A3014 430 74 400 330/07 RMK AO2
14840KMKG MKG20000618050510206/18/00 05:05:31  5-MIN KMKG 181005Z 33005KT 10SM SCT080 OVC110 13/09 A3014 430 74 400 330/05 RMK AO2
14840KMKG MKG20000618051010206/18/00 05:10:31  5-MIN KMKG 181010Z 35003KT 10SM FEW075 OVC110 13/09 A3014 430 74 400 350/03 RMK AO2
14840KMKG MKG20000618051509506/18/00 05:15:31  5-MIN KMKG 181015Z 01003KT 10SM OVC110 13/09 A3013 430 74 400 010/03 RMK AO2
14840KMKG MKG20000618052009506/18/00 05:20:31  5-MIN KMKG 181020Z 01003KT 10SM OVC100 13/09 A3014 430 74 400 020/03 RMK AO2
14840KMKG MKG20000618052509506/18/00 05:25:31  5-MIN KMKG 181025Z 01004KT 10SM OVC100 13/09 A3014 430 74 400 010/04 RMK AO2
14840KMKG MKG20000618053009506/18/00 05:30:31  5-MIN KMKG 181030Z 36005KT 10SM OVC100 14/09 A3014 430 71 400 360/05 RMK AO2
14840KMKG MKG20000618053509506/18/00 05:35:31  5-MIN KMKG 181035Z 36006KT 10SM OVC100 14/09 A3014 430 71 400 360/06 RMK AO2
14840KMKG MKG20000618054009506/18/00 05:40:31  5-MIN KMKG 181040Z 01005KT 10SM OVC100 14/09 A3014 430 71 400 020/05 RMK AO2
14840KMKG MKG20000618054509506/18/00 05:45:31  5-MIN KMKG 181045Z 01004KT 10SM OVC100 13/09 A3014 430 74 400 010/04 RMK AO2
14840KMKG MKG20000618055011206/18/00 05:50:31  5-MIN KMKG 181050Z 01006KT 10SM OVC100 13/09 A3014 430 74 400 010/06 RMK AO2 SLP205 T01330089
14840KMKG MKG20000618055511206/18/00 05:55:31  5-MIN KMKG 181055Z 01007KT 10SM OVC100 13/09 A3014 430 74 400 020/07 RMK AO2 SLP206 T01330089
14840KMKG MKG20000618060009506/18/00 06:00:31  5-MIN KMKG 181100Z 02006KT 10SM OVC100 13/09 A3014 430 74 400 020/06 RMK AO2
14840KMKG MKG20000618060509506/18/00 06:05:31  5-MIN KMKG 181105Z 03006KT 10SM OVC095 13/09 A3014 430 74 400 030/06 RMK AO2
14840KMKG MKG20000618061009506/18/00 06:10:31  5-MIN KMKG 181110Z 03005KT 10SM OVC095 13/09 A3014 430 74 400 040/05 RMK AO2
14840KMKG MKG20000618061509506/18/00 06:15:31  5-MIN KMKG 181115Z 05006KT 10SM OVC100 13/09 A3013 430 74 400 060/06 RMK AO2
14840KMKG MKG20000618062009506/18/00 06:20:31  5-MIN KMKG 181120Z 06006KT 10SM OVC100 13/09 A3013 430 74 400 070/06 RMK AO2
14840KMKG MKG20000618062509506/18/00 06:25:31  5-MIN KMKG 181125Z 06005KT 10SM OVC100 13/09 A3013 430 74 400 070/05 RMK AO2
14840KMKG MKG20000618063009506/18/00 06:30:31  5-MIN KMKG 181130Z 05005KT 10SM OVC100 14/09 A3013 430 71 400 050/05 RMK AO2
14840KMKG MKG20000618063509506/18/00 06:35:31  5-MIN KMKG 181135Z 06006KT 10SM OVC100 14/09 A3013 430 71 400 070/06 RMK AO2
14840KMKG MKG20000618064009506/18/00 06:40:31  5-MIN KMKG 181140Z 06005KT 10SM OVC100 14/09 A3013 440 71 400 070/05 RMK AO2
14840KMKG MKG20000618064509506/18/00 06:45:31  5-MIN KMKG 181145Z 05005KT 10SM OVC100 14/09 A3013 440 71 400 060/05 RMK AO2
14840KMKG MKG20000618065013006/18/00 06:50:31  5-MIN KMKG 181150Z 06006KT 10SM OVC100 14/09 A3013 430 71 400 070/06 RMK AO2 SLP204 T01390089 10144 20133 58012
14840KMKG MKG20000618065513006/18/00 06:55:31  5-MIN KMKG 181155Z 06005KT 10SM OVC100 14/09 A3013 430 71 400 060/05 RMK AO2 SLP204 T01390089 10144 20133 50002
14840KMKG MKG20000618070009506/18/00 07:00:31  5-MIN KMKG 181200Z 06005KT 10SM OVC095 14/09 A3013 440 71 400 060/05 RMK AO2
14840KMKG MKG20000618070509506/18/00 07:05:31  5-MIN KMKG 181205Z 07005KT 10SM OVC095 14/09 A3013 430 71 400 070/05 RMK AO2
14840KMKG MKG20000618071009506/18/00 07:10:31  5-MIN KMKG 181210Z 07007KT 10SM OVC090 14/09 A3013 430 71 400 070/07 RMK AO2
14840KMKG MKG20000618071509506/18/00 07:15:31  5-MIN KMKG 181215Z 08005KT 10SM BKN095 14/09 A3013 430 72 500 080/05 RMK AO2
14840KMKG MKG20000618072009506/18/00 07:20:31  5-MIN KMKG 181220Z 06006KT 10SM BKN095 14/09 A3013 430 72 500 060/06 RMK AO2
14840KMKG MKG20000618072509506/18/00 07:25:31  5-MIN KMKG 181225Z 07006KT 10SM BKN095 14/09 A3013 430 72 500 070/06 RMK AO2
14840KMKG MKG20000618073009506/18/00 07:30:31  5-MIN KMKG 181230Z 07005KT 10SM BKN095 14/09 A3014 430 72 500 070/05 RMK AO2
14840KMKG MKG20000618073509506/18/00 07:35:31  5-MIN KMKG 181235Z 07005KT 10SM BKN095 14/09 A3014 430 72 500 070/05 RMK AO2
14840KMKG MKG20000618074009506/18/00 07:40:31  5-MIN KMKG 181240Z 07005KT 10SM BKN095 15/09 A3015 420 69 600 070/05 RMK AO2
14840KMKG MKG20000618074509506/18/00 07:45:31  5-MIN KMKG 181245Z 08005KT 10SM BKN095 15/09 A3015 420 69 600 080/05 RMK AO2
14840KMKG MKG20000618075011206/18/00 07:50:31  5-MIN KMKG 181250Z 09005KT 10SM BKN095 16/10 A3015 420 69 600 090/05 RMK AO2 SLP209 T01560100
14840KMKG MKG20000618075511206/18/00 07:55:31  5-MIN KMKG 181255Z 08005KT 10SM BKN095 16/10 A3015 420 69 600 090/05 RMK AO2 SLP209 T01560100
14840KMKG MKG20000618080009506/18/00 08:00:31  5-MIN KMKG 181300Z 08005KT 10SM BKN090 16/09 A3015 420 64 700 080/05 RMK AO2
14840KMKG MKG20000618080509506/18/00 08:05:31  5-MIN KMKG 181305Z 08006KT 10SM BKN090 16/09 A3015 420 64 700 080/06 RMK AO2
14840KMKG MKG20000618081010206/18/00 08:10:31  5-MIN KMKG 181310Z 07005KT 10SM BKN090 BKN110 17/10 A3015 420 64 800 080/05 RMK AO2
14840KMKG MKG20000618081510206/18/00 08:15:31  5-MIN KMKG 181315Z 09004KT 10SM SCT090 SCT110 17/10 A3015 420 64 700 100/04 RMK AO2
14840KMKG MKG20000618082010206/18/00 08:20:31  5-MIN KMKG 181320Z VRB05KT 10SM SCT090 SCT110 17/10 A3015 420 62 800 VRB/05 RMK AO2
14840KMKG MKG20000618082510206/18/00 08:25:31  5-MIN KMKG 181325Z 10007KT 10SM FEW090 SCT110 18/10 A3015 420 60 900 100/07 RMK AO2
14840KMKG MKG20000618083009506/18/00 08:30:31  5-MIN KMKG 181330Z 11007KT 10SM FEW090 18/09 A3015 420 58 900 110/07 RMK AO2
14840KMKG MKG20000618083509206/18/00 08:35:31  5-MIN KMKG 181335Z 09006KT 10SM CLR 18/09 A3015 420 56 900 100/06 RMK AO2
14840KMKG MKG20000618084009206/18/00 08:40:31  5-MIN KMKG 181340Z 09006KT 10SM CLR 18/09 A3015 420 56 900 090/06 RMK AO2
14840KMKG MKG20000618084509506/18/00 08:45:31  5-MIN KMKG 181345Z VRB06KT 10SM FEW100 18/09 A3015 420 56 900 VRB/06 RMK AO2
14840KMKG MKG20000618085011206/18/00 08:50:31  5-MIN KMKG 181350Z 11006KT 10SM FEW100 18/10 A3015 420 58 900 110/06 RMK AO2 SLP209 T01830100
14840KMKG MKG20000618085511306/18/00 08:55:31  5-MIN KMKG 181355Z 10006KT 10SM FEW100 19/10 A3015 420 56 1000 100/06 RMK AO2 SLP209 T01890100
14840KMKG MKG20000618090009606/18/00 09:00:31  5-MIN KMKG 181400Z 10008KT 10SM FEW100 19/09 A3015 420 54 1000 110/08 RMK AO2
14840KMKG MKG20000618090509606/18/00 09:05:31  5-MIN KMKG 181405Z 10009KT 10SM FEW100 19/08 A3015 420 50 1000 100/09 RMK AO2
14840KMKG MKG20000618091009606/18/00 09:10:31  5-MIN KMKG 181410Z 08007KT 10SM FEW100 19/08 A3015 420 50 1000 090/07 RMK AO2
14840KMKG MKG20000618091509606/18/00 09:15:31  5-MIN KMKG 181415Z 10008KT 10SM FEW100 19/08 A3015 420 48 1100 100/08 RMK AO2
14840KMKG MKG20000618092009606/18/00 09:20:31  5-MIN KMKG 181420Z 09006KT 10SM FEW100 19/08 A3015 420 48 1100 090/06 RMK AO2
14840KMKG MKG20000618092509606/18/00 09:25:31  5-MIN KMKG 181425Z 08008KT 10SM FEW100 19/08 A3015 420 48 1100 080/08 RMK AO2
14840KMKG MKG20000618093009606/18/00 09:30:31  5-MIN KMKG 181430Z 08008KT 10SM FEW100 19/08 A3015 420 48 1100 080/08 RMK AO2
14840KMKG MKG20000618093509606/18/00 09:35:31  5-MIN KMKG 181435Z 09007KT 10SM FEW100 20/08 A3015 420 46 1100 090/07 RMK AO2
14840KMKG MKG20000618094009606/18/00 09:40:31  5-MIN KMKG 181440Z 06008KT 10SM FEW100 20/08 A3015 420 45 1100 070/08 RMK AO2
14840KMKG MKG20000618094509606/18/00 09:45:31  5-MIN KMKG 181445Z 11007KT 10SM FEW100 19/08 A3015 420 46 1100 110/07 RMK AO2
14840KMKG MKG20000618095011906/18/00 09:50:31  5-MIN KMKG 181450Z 08009KT 10SM FEW100 20/08 A3015 420 45 1100 090/09 RMK AO2 SLP208 T02000078 50002
14840KMKG MKG20000618095511906/18/00 09:55:31  5-MIN KMKG 181455Z 07007KT 10SM FEW100 20/08 A3015 420 46 1100 070/07 RMK AO2 SLP209 T02000083 50006
14840KMKG MKG20000618100009306/18/00 10:00:31  5-MIN KMKG 181500Z 10007KT 10SM CLR 20/08 A3015 420 46 1100 100/07 RMK AO2
14840KMKG MKG20000618100510906/18/00 10:05:31  5-MIN KMKG 181505Z 11008KT 050V130 10SM CLR 21/08 A3015 420 45 1200 110/08 050V130 RMK AO2
14840KMKG MKG20000618101009606/18/00 10:10:31  5-MIN KMKG 181510Z 08007KT 10SM FEW100 21/09 A3015 420 46 1200 080/07 RMK AO2
14840KMKG MKG20000618101509606/18/00 10:15:31  5-MIN KMKG 181515Z 11006KT 10SM FEW100 21/09 A3015 410 46 1200 110/06 RMK AO2
14840KMKG MKG20000618102009606/18/00 10:20:31  5-MIN KMKG 181520Z 11005KT 10SM FEW100 21/09 A3015 420 46 1200 110/05 RMK AO2
14840KMKG MKG20000618102509606/18/00 10:25:31  5-MIN KMKG 181525Z 12008KT 10SM FEW110 21/09 A3015 420 45 1300 130/08 RMK AO2
14840KMKG MKG20000618103009606/18/00 10:30:31  5-MIN KMKG 181530Z 13007KT 10SM FEW110 21/08 A3015 420 45 1200 130/07 RMK AO2
14840KMKG MKG20000618103509606/18/00 10:35:31  5-MIN KMKG 181535Z 13006KT 10SM FEW110 21/08 A3016 410 43 1300 130/06 RMK AO2
14840KMKG MKG20000618104009606/18/00 10:40:31  5-MIN KMKG 181540Z 11005KT 10SM FEW110 21/08 A3015 410 45 1200 110/05 RMK AO2
14840KMKG MKG20000618104509606/18/00 10:45:31  5-MIN KMKG 181545Z 13006KT 10SM FEW110 21/08 A3015 410 43 1300 130/06 RMK AO2
14840KMKG MKG20000618105011306/18/00 10:50:31  5-MIN KMKG 181550Z VRB05KT 10SM FEW110 21/08 A3016 410 43 1300 VRB/05 RMK AO2 SLP210 T02110083
14840KMKG MKG20000618105511306/18/00 10:55:31  5-MIN KMKG 181555Z VRB05KT 10SM FEW090 21/08 A3016 410 42 1300 VRB/05 RMK AO2 SLP211 T02110078
14840KMKG MKG20000618110009606/18/00 11:00:31  5-MIN KMKG 181600Z 15007KT 10SM FEW075 22/08 A3016 410 42 1300 150/07 RMK AO2
14840KMKG MKG20000618110509606/18/00 11:05:31  5-MIN KMKG 181605Z 19005KT 10SM FEW075 21/08 A3016 410 42 1300 190/05 RMK AO2
14840KMKG MKG20000618111009606/18/00 11:10:31  5-MIN KMKG 181610Z 22003KT 10SM FEW075 22/08 A3016 410 40 1300 220/03 RMK AO2
14840KMKG MKG20000618111509606/18/00 11:15:31  5-MIN KMKG 181615Z VRB03KT 10SM FEW075 21/08 A3016 410 43 1200 VRB/03 RMK AO2
14840KMKG MKG20000618112009606/18/00 11:20:31  5-MIN KMKG 181620Z 26005KT 10SM FEW060 20/10 A3016 410 52 1100 270/05 RMK AO2
14840KMKG MKG20000618112509606/18/00 11:25:31  5-MIN KMKG 181625Z 25007KT 10SM FEW060 21/11 A3016 410 50 1300 260/07 RMK AO2
14840KMKG MKG20000618113009606/18/00 11:30:31  5-MIN KMKG 181630Z 26009KT 10SM FEW060 21/12 A3016 410 56 1200 270/09 RMK AO2
14840KMKG MKG20000618113509606/18/00 11:35:31  5-MIN KMKG 181635Z 26010KT 10SM FEW060 21/12 A3016 410 56 1200 260/10 RMK AO2
14840KMKG MKG20000618114009606/18/00 11:40:31  5-MIN KMKG 181640Z 25009KT 10SM FEW060 21/12 A3016 410 54 1300 260/09 RMK AO2
14840KMKG MKG20000618114509606/18/00 11:45:31  5-MIN KMKG 181645Z 28010KT 10SM FEW060 21/12 A3016 410 54 1300 290/10 RMK AO2
14840KMKG MKG20000618115011306/18/00 11:50:31  5-MIN KMKG 181650Z 27008KT 10SM FEW060 21/12 A3016 410 56 1300 280/08 RMK AO2 SLP213 T02110122
14840KMKG MKG20000618115511306/18/00 11:55:31  5-MIN KMKG 181655Z 25008KT 10SM FEW060 21/12 A3016 410 54 1300 250/08 RMK AO2 SLP213 T02110117
14840KMKG MKG20000618120009306/18/00 12:00:31  5-MIN KMKG 181700Z 27007KT 10SM CLR 21/11 A3016 410 52 1300 280/07 RMK AO2
14840KMKG MKG20000618120509606/18/00 12:05:31  5-MIN KMKG 181705Z 25009KT 10SM FEW060 21/11 A3016 410 54 1200 260/09 RMK AO2
14840KMKG MKG20000618121011206/18/00 12:10:31  5-MIN KMKG 181710Z 25009KT 230V290 10SM FEW060 21/11 A3016 410 52 1200 260/09 230V290 RMK AO2
14840KMKG MKG20000618121509606/18/00 12:15:31  5-MIN KMKG 181715Z 27008KT 10SM FEW060 21/12 A3016 410 54 1300 270/08 RMK AO2
14840KMKG MKG20000618122009606/18/00 12:20:31  5-MIN KMKG 181720Z 28008KT 10SM FEW060 21/11 A3016 410 52 1300 280/08 RMK AO2
14840KMKG MKG20000618122509606/18/00 12:25:31  5-MIN KMKG 181725Z 25007KT 10SM FEW060 21/11 A3016 410 52 1200 260/07 RMK AO2
14840KMKG MKG20000618123009606/18/00 12:30:31  5-MIN KMKG 181730Z 25009KT 10SM FEW060 21/11 A3016 410 52 1200 260/09 RMK AO2
14840KMKG MKG20000618123509606/18/00 12:35:31  5-MIN KMKG 181735Z 24009KT 10SM FEW060 21/11 A3016 410 52 1200 250/09 RMK AO2
14840KMKG MKG20000618124009606/18/00 12:40:31  5-MIN KMKG 181740Z 26010KT 10SM FEW060 21/11 A3016 410 52 1300 260/10 RMK AO2
14840KMKG MKG20000618124509606/18/00 12:45:31  5-MIN KMKG 181745Z 26009KT 10SM FEW060 21/11 A3016 410 52 1200 260/09 RMK AO2
14840KMKG MKG20000618125013106/18/00 12:50:31  5-MIN KMKG 181750Z 26011KT 10SM FEW060 20/11 A3016 410 56 1100 260/11 RMK AO2 SLP212 T02000111 10217 20139 50006
14840KMKG MKG20000618125513106/18/00 12:55:31  5-MIN KMKG 181755Z 25010KT 10SM FEW060 20/11 A3016 410 54 1100 260/10 RMK AO2 SLP212 T02000106 10217 20139 50003
14840KMKG MKG20000618130009306/18/00 13:00:31  5-MIN KMKG 181800Z 26009KT 10SM CLR 20/11 A3016 410 54 1100 260/09 RMK AO2
14840KMKG MKG20000618130509606/18/00 13:05:31  5-MIN KMKG 181805Z 25010KT 10SM FEW060 21/11 A3016 410 50 1300 250/10 RMK AO2
14840KMKG MKG20000618131009606/18/00 13:10:31  5-MIN KMKG 181810Z 26009KT 10SM FEW060 21/11 A3016 410 52 1300 270/09 RMK AO2
14840KMKG MKG20000618131509606/18/00 13:15:31  5-MIN KMKG 181815Z 28010KT 10SM FEW060 21/11 A3016 410 52 1200 280/10 RMK AO2
14840KMKG MKG20000618132009606/18/00 13:20:31  5-MIN KMKG 181820Z 27010KT 10SM FEW060 21/11 A3016 410 52 1200 280/10 RMK AO2
14840KMKG MKG20000618132509606/18/00 13:25:31  5-MIN KMKG 181825Z 28011KT 10SM FEW060 20/11 A3016 410 54 1100 280/11 RMK AO2
14840KMKG MKG20000618133009606/18/00 13:30:31  5-MIN KMKG 181830Z 28009KT 10SM FEW060 20/10 A3016 410 52 1100 280/09 RMK AO2
14840KMKG MKG20000618133509606/18/00 13:35:31  5-MIN KMKG 181835Z 26009KT 10SM FEW060 21/11 A3015 410 52 1200 260/09 RMK AO2
14840KMKG MKG20000618134009606/18/00 13:40:31  5-MIN KMKG 181840Z 27009KT 10SM FEW060 21/11 A3015 420 52 1200 280/09 RMK AO2
14840KMKG MKG20000618134509606/18/00 13:45:31  5-MIN KMKG 181845Z 28010KT 10SM FEW060 21/11 A3015 420 52 1200 280/10 RMK AO2
14840KMKG MKG20000618135011306/18/00 13:50:31  5-MIN KMKG 181850Z 28011KT 10SM FEW060 20/10 A3015 420 52 1100 280/11 RMK AO2 SLP209 T02000100
14840KMKG MKG20000618135511306/18/00 13:55:31  5-MIN KMKG 181855Z 27010KT 10SM FEW060 20/10 A3015 420 52 1100 280/10 RMK AO2 SLP209 T02000100
14840KMKG MKG20000618140009606/18/00 14:00:31  5-MIN KMKG 181900Z 27011KT 10SM FEW060 21/11 A3015 420 52 1200 270/11 RMK AO2
14840KMKG MKG20000618140509606/18/00 14:05:31  5-MIN KMKG 181905Z 27010KT 10SM FEW060 20/09 A3015 420 50 1100 270/10 RMK AO2
14840KMKG MKG20000618141009606/18/00 14:10:31  5-MIN KMKG 181910Z 28011KT 10SM FEW060 21/10 A3015 420 50 1200 280/11 RMK AO2
14840KMKG MKG20000618141509606/18/00 14:15:31  5-MIN KMKG 181915Z 27009KT 10SM FEW060 21/10 A3015 420 50 1200 280/09 RMK AO2
14840KMKG MKG20000618142009606/18/00 14:20:31  5-MIN KMKG 181920Z 26009KT 10SM FEW060 21/10 A3015 420 50 1200 260/09 RMK AO2
14840KMKG MKG20000618142511206/18/00 14:25:31  5-MIN KMKG 181925Z 28008KT 240V300 10SM FEW060 21/10 A3015 420 50 1200 280/08 240V300 RMK AO2
14840KMKG MKG20000618143009606/18/00 14:30:31  5-MIN KMKG 181930Z 27008KT 10SM FEW060 21/10 A3015 420 48 1300 270/08 RMK AO2
14840KMKG MKG20000618143509606/18/00 14:35:31  5-MIN KMKG 181935Z 28009KT 10SM FEW060 21/09 A3015 420 48 1200 280/09 RMK AO2
14840KMKG MKG20000618144009606/18/00 14:40:31  5-MIN KMKG 181940Z 28009KT 10SM FEW060 21/09 A3016 410 48 1200 280/09 RMK AO2
14840KMKG MKG20000618144509606/18/00 14:45:31  5-MIN KMKG 181945Z 28008KT 10SM FEW060 21/09 A3015 420 46 1200 280/08 RMK AO2
14840KMKG MKG20000618145011306/18/00 14:50:31  5-MIN KMKG 181950Z 28008KT 10SM FEW060 21/09 A3015 420 46 1200 290/08 RMK AO2 SLP209 T02060089
14840KMKG MKG20000618145511306/18/00 14:55:31  5-MIN KMKG 181955Z 25008KT 10SM FEW060 21/09 A3015 420 48 1200 250/08 RMK AO2 SLP208 T02060094
14840KMKG MKG20000618150009606/18/00 15:00:31  5-MIN KMKG 182000Z 26009KT 10SM FEW060 21/09 A3015 420 46 1200 270/09 RMK AO2
14840KMKG MKG20000618150509606/18/00 15:05:31  5-MIN KMKG 182005Z 27009KT 10SM FEW060 21/09 A3015 420 46 1200 270/09 RMK AO2
14840KMKG MKG20000618151009606/18/00 15:10:31  5-MIN KMKG 182010Z 25010KT 10SM FEW060 21/09 A3015 420 46 1200 250/10 RMK AO2
14840KMKG MKG20000618151509606/18/00 15:15:31  5-MIN KMKG 182015Z 27008KT 10SM FEW060 21/09 A3015 420 46 1200 280/08 RMK AO2
14840KMKG MKG20000618152011206/18/00 15:20:31  5-MIN KMKG 182020Z 25008KT 230V300 10SM FEW060 21/09 A3014 420 46 1200 260/08 230V300 RMK AO2
14840KMKG MKG20000618152509606/18/00 15:25:31  5-MIN KMKG 182025Z 25008KT 10SM FEW060 21/09 A3014 430 48 1200 260/08 RMK AO2
14840KMKG MKG20000618153009606/18/00 15:30:31  5-MIN KMKG 182030Z 26008KT 10SM FEW060 20/09 A3014 430 48 1200 260/08 RMK AO2
14840KMKG MKG20000618153509606/18/00 15:35:31  5-MIN KMKG 182035Z 25007KT 10SM FEW060 21/09 A3014 430 46 1200 250/07 RMK AO2
14840KMKG MKG20000618154009606/18/00 15:40:31  5-MIN KMKG 182040Z 24006KT 10SM FEW060 21/09 A3013 430 46 1200 250/06 RMK AO2
14840KMKG MKG20000618154509606/18/00 15:45:31  5-MIN KMKG 182045Z 25007KT 10SM FEW060 21/09 A3013 440 46 1200 260/07 RMK AO2
14840KMKG MKG20000618155011906/18/00 15:50:31  5-MIN KMKG 182050Z 27008KT 10SM FEW060 21/09 A3013 440 46 1200 270/08 RMK AO2 SLP202 T02060089 50003
14840KMKG MKG20000618155511906/18/00 15:55:31  5-MIN KMKG 182055Z 25007KT 10SM FEW060 21/09 A3013 440 46 1200 260/07 RMK AO2 SLP202 T02060089 58010
14840KMKG MKG20000618160009606/18/00 16:00:31  5-MIN KMKG 182100Z 24007KT 10SM FEW060 21/09 A3013 440 46 1200 250/07 RMK AO2
14840KMKG MKG20000618160509606/18/00 16:05:31  5-MIN KMKG 182105Z 24008KT 10SM FEW060 21/08 A3013 440 45 1200 240/08 RMK AO2
14840KMKG MKG20000618161009606/18/00 16:10:31  5-MIN KMKG 182110Z 24008KT 10SM FEW060 20/08 A3013 440 46 1200 250/08 RMK AO2
14840KMKG MKG20000618161509606/18/00 16:15:31  5-MIN KMKG 182115Z 25007KT 10SM FEW060 21/09 A3013 440 46 1200 250/07 RMK AO2
14840KMKG MKG20000618162009606/18/00 16:20:31  5-MIN KMKG 182120Z 26007KT 10SM FEW060 21/08 A3013 440 45 1200 260/07 RMK AO2
14840KMKG MKG20000618162509606/18/00 16:25:31  5-MIN KMKG 182125Z 24007KT 10SM FEW060 21/08 A3013 440 45 1200 250/07 RMK AO2
14840KMKG MKG20000618163009606/18/00 16:30:31  5-MIN KMKG 182130Z 25009KT 10SM FEW060 21/08 A3013 440 43 1200 250/09 RMK AO2
14840KMKG MKG20000618163509606/18/00 16:35:31  5-MIN KMKG 182135Z 25007KT 10SM FEW060 21/08 A3013 440 43 1200 250/07 RMK AO2
14840KMKG MKG20000618164009606/18/00 16:40:31  5-MIN KMKG 182140Z 24009KT 10SM FEW060 21/07 A3013 440 41 1200 250/09 RMK AO2
14840KMKG MKG20000618164509606/18/00 16:45:31  5-MIN KMKG 182145Z 25008KT 10SM FEW060 21/08 A3013 440 43 1200 260/08 RMK AO2
14840KMKG MKG20000618165011306/18/00 16:50:31  5-MIN KMKG 182150Z 24008KT 10SM FEW060 21/08 A3013 440 43 1200 240/08 RMK AO2 SLP201 T02060078
14840KMKG MKG20000618165511306/18/00 16:55:31  5-MIN KMKG 182155Z 24008KT 10SM FEW060 21/07 A3013 440 41 1200 250/08 RMK AO2 SLP200 T02060072
14840KMKG MKG20000618170009606/18/00 17:00:31  5-MIN KMKG 182200Z 24008KT 10SM FEW060 21/07 A3013 440 41 1200 240/08 RMK AO2
14840KMKG MKG20000618170509606/18/00 17:05:31  5-MIN KMKG 182205Z 23007KT 10SM FEW060 21/08 A3012 440 43 1200 230/07 RMK AO2
14840KMKG MKG20000618171009606/18/00 17:10:31  5-MIN KMKG 182210Z 23007KT 10SM FEW060 21/07 A3012 440 41 1200 230/07 RMK AO2
14840KMKG MKG20000618171509606/18/00 17:15:31  5-MIN KMKG 182215Z 23008KT 10SM FEW060 21/07 A3012 440 41 1200 230/08 RMK AO2
14840KMKG MKG20000618172009606/18/00 17:20:31  5-MIN KMKG 182220Z 24008KT 10SM FEW060 21/07 A3012 440 41 1200 250/08 RMK AO2
14840KMKG MKG20000618172509606/18/00 17:25:31  5-MIN KMKG 182225Z 24008KT 10SM FEW060 20/07 A3012 450 43 1200 240/08 RMK AO2
14840KMKG MKG20000618173009606/18/00 17:30:31  5-MIN KMKG 182230Z 23008KT 10SM FEW060 20/08 A3012 450 45 1200 230/08 RMK AO2
14840KMKG MKG20000618173509606/18/00 17:35:31  5-MIN KMKG 182235Z 22008KT 10SM FEW060 20/07 A3012 450 43 1200 220/08 RMK AO2
14840KMKG MKG20000618174009606/18/00 17:40:31  5-MIN KMKG 182240Z 22008KT 10SM FEW060 20/07 A3012 450 43 1200 230/08 RMK AO2
14840KMKG MKG20000618174509606/18/00 17:45:31  5-MIN KMKG 182245Z 22008KT 10SM FEW060 20/07 A3012 450 43 1200 230/08 RMK AO2
14840KMKG MKG20000618175011306/18/00 17:50:31  5-MIN KMKG 182250Z 24007KT 10SM FEW060 20/08 A3012 440 45 1200 240/07 RMK AO2 SLP200 T02000078
14840KMKG MKG20000618175511306/18/00 17:55:31  5-MIN KMKG 182255Z 23007KT 10SM FEW060 20/08 A3012 440 45 1200 230/07 RMK AO2 SLP200 T02000078
14840KMKG MKG20000618180009606/18/00 18:00:31  5-MIN KMKG 182300Z 23007KT 10SM FEW060 19/08 A3012 440 46 1100 230/07 RMK AO2
14840KMKG MKG20000618180509606/18/00 18:05:31  5-MIN KMKG 182305Z 22006KT 10SM FEW060 19/07 A3012 450 44 1100 230/06 RMK AO2
14840KMKG MKG20000618181009606/18/00 18:10:31  5-MIN KMKG 182310Z 24005KT 10SM FEW060 19/08 A3012 450 46 1100 240/05 RMK AO2
14840KMKG MKG20000618181509606/18/00 18:15:31  5-MIN KMKG 182315Z 23005KT 10SM FEW060 19/08 A3012 450 46 1100 240/05 RMK AO2
14840KMKG MKG20000618182009606/18/00 18:20:31  5-MIN KMKG 182320Z 23005KT 10SM FEW060 19/07 A3012 450 44 1100 240/05 RMK AO2
14840KMKG MKG20000618182509606/18/00 18:25:31  5-MIN KMKG 182325Z 22005KT 10SM FEW060 19/08 A3012 450 46 1100 220/05 RMK AO2
14840KMKG MKG20000618183009606/18/00 18:30:31  5-MIN KMKG 182330Z 22005KT 10SM FEW060 19/07 A3012 450 44 1100 220/05 RMK AO2
14840KMKG MKG20000618183509606/18/00 18:35:31  5-MIN KMKG 182335Z 20006KT 10SM FEW060 19/07 A3012 450 44 1100 210/06 RMK AO2
14840KMKG MKG20000618184009606/18/00 18:40:31  5-MIN KMKG 182340Z 22005KT 10SM FEW060 19/08 A3012 450 46 1100 220/05 RMK AO2
14840KMKG MKG20000618184509606/18/00 18:45:31  5-MIN KMKG 182345Z 22007KT 10SM FEW060 19/08 A3012 450 46 1100 220/07 RMK AO2
14840KMKG MKG20000618185012806/18/00 18:50:31  5-MIN KMKG 182350Z 20007KT 10SM CLR 19/07 A3011 450 44 1100 200/07 RMK AO2 SLP197 T01940072 10211 20194 58010
14840KMKG MKG20000618185512806/18/00 18:55:31  5-MIN KMKG 182355Z 19007KT 10SM CLR 19/07 A3011 450 46 1100 190/07 RMK AO2 SLP197 T01890072 10211 20189 58006
14840KMKG MKG20000618190009306/18/00 19:00:31  5-MIN KMKG 190000Z 20006KT 10SM CLR 19/08 A3011 450 48 1100 200/06 RMK AO2
14840KMKG MKG20000618190509306/18/00 19:05:31  5-MIN KMKG 190005Z 20005KT 10SM CLR 19/07 A3012 450 46 1000 200/05 RMK AO2
14840KMKG MKG20000618191009306/18/00 19:10:31  5-MIN KMKG 190010Z 20005KT 10SM CLR 19/07 A3011 450 46 1100 200/05 RMK AO2
14840KMKG MKG20000618191509306/18/00 19:15:31  5-MIN KMKG 190015Z 20005KT 10SM CLR 19/07 A3012 450 46 1100 200/05 RMK AO2
14840KMKG MKG20000618192009306/18/00 19:20:31  5-MIN KMKG 190020Z 19005KT 10SM CLR 18/08 A3011 450 50 1000 190/05 RMK AO2
14840KMKG MKG20000618192509306/18/00 19:25:31  5-MIN KMKG 190025Z 20003KT 10SM CLR 18/08 A3011 450 50 1000 200/03 RMK AO2
14840KMKG MKG20000618193009306/18/00 19:30:31  5-MIN KMKG 190030Z 21004KT 10SM CLR 18/08 A3011 450 52 1000 220/04 RMK AO2
14840KMKG MKG20000618193509306/18/00 19:35:31  5-MIN KMKG 190035Z 22005KT 10SM CLR 18/08 A3011 450 50 1000 220/05 RMK AO2
14840KMKG MKG20000618194009206/18/00 19:40:31  5-MIN KMKG 190040Z 21004KT 10SM CLR 18/08 A3011 460 51 900 210/04 RMK AO2
14840KMKG MKG20000618194509206/18/00 19:45:31  5-MIN KMKG 190045Z 19005KT 10SM CLR 18/08 A3011 460 53 900 200/05 RMK AO2
14840KMKG MKG20000618195010906/18/00 19:50:31  5-MIN KMKG 190050Z 20004KT 10SM CLR 18/08 A3011 460 53 900 200/04 RMK AO2 SLP195 T01780083
14840KMKG MKG20000618195510906/18/00 19:55:31  5-MIN KMKG 190055Z 20005KT 10SM CLR 17/09 A3011 460 57 900 200/05 RMK AO2 SLP195 T01720089
14840KMKG MKG20000618200009206/18/00 20:00:31  5-MIN KMKG 190100Z 19005KT 10SM CLR 17/09 A3011 460 57 900 200/05 RMK AO2
14840KMKG MKG20000618200509206/18/00 20:05:31  5-MIN KMKG 190105Z 19006KT 10SM CLR 17/09 A3010 460 60 800 200/06 RMK AO2
14840KMKG MKG20000618201009206/18/00 20:10:31  5-MIN KMKG 190110Z 20005KT 10SM CLR 17/09 A3010 460 62 800 200/05 RMK AO2
14840KMKG MKG20000618201509206/18/00 20:15:31  5-MIN KMKG 190115Z 19005KT 10SM CLR 16/09 A3010 460 64 700 190/05 RMK AO2
14840KMKG MKG20000618202009206/18/00 20:20:31  5-MIN KMKG 190120Z 19004KT 10SM CLR 16/09 A3010 460 64 700 200/04 RMK AO2
14840KMKG MKG20000618202509206/18/00 20:25:31  5-MIN KMKG 190125Z 19004KT 10SM CLR 16/09 A3010 460 67 700 200/04 RMK AO2
14840KMKG MKG20000618203009206/18/00 20:30:31  5-MIN KMKG 190130Z 19004KT 10SM CLR 15/09 A3010 460 69 600 190/04 RMK AO2
14840KMKG MKG20000618203509206/18/00 20:35:31  5-MIN KMKG 190135Z 19004KT 10SM CLR 15/09 A3010 460 69 600 190/04 RMK AO2
14840KMKG MKG20000618204009206/18/00 20:40:31  5-MIN KMKG 190140Z 18005KT 10SM CLR 15/10 A3010 460 72 600 190/05 RMK AO2
14840KMKG MKG20000618204509206/18/00 20:45:31  5-MIN KMKG 190145Z 20005KT 10SM CLR 15/10 A3010 460 72 600 200/05 RMK AO2
14840KMKG MKG20000618205010906/18/00 20:50:31  5-MIN KMKG 190150Z 19004KT 10SM CLR 15/10 A3010 460 72 600 200/04 RMK AO2 SLP194 T01500100
14840KMKG MKG20000618205510906/18/00 20:55:31  5-MIN KMKG 190155Z 19004KT 10SM CLR 15/10 A3011 460 72 600 200/04 RMK AO2 SLP193 T01500100
14840KMKG MKG20000618210009206/18/00 21:00:31  5-MIN KMKG 190200Z 19004KT 10SM CLR 14/10 A3011 460 74 500 190/04 RMK AO2
14840KMKG MKG20000618210509206/18/00 21:05:31  5-MIN KMKG 190205Z 18004KT 10SM CLR 14/10 A3011 460 74 500 190/04 RMK AO2
14840KMKG MKG20000618211009206/18/00 21:10:31  5-MIN KMKG 190210Z 19004KT 10SM CLR 14/10 A3011 460 74 500 190/04 RMK AO2
14840KMKG MKG20000618211509206/18/00 21:15:31  5-MIN KMKG 190215Z 19004KT 10SM CLR 14/11 A3011 460 77 500 190/04 RMK AO2
14840KMKG MKG20000618212009206/18/00 21:20:31  5-MIN KMKG 190220Z 19004KT 10SM CLR 14/11 A3011 460 77 500 190/04 RMK AO2
14840KMKG MKG20000618212509206/18/00 21:25:31  5-MIN KMKG 190225Z 19004KT 10SM CLR 14/11 A3011 450 80 500 200/04 RMK AO2
14840KMKG MKG20000618213009206/18/00 21:30:31  5-MIN KMKG 190230Z 20004KT 10SM CLR 14/11 A3011 450 80 500 200/04 RMK AO2
14840KMKG MKG20000618213509206/18/00 21:35:31  5-MIN KMKG 190235Z 18004KT 10SM CLR 14/11 A3011 450 80 500 190/04 RMK AO2
14840KMKG MKG20000618214009206/18/00 21:40:31  5-MIN KMKG 190240Z 18004KT 10SM CLR 14/11 A3012 450 80 500 190/04 RMK AO2
14840KMKG MKG20000618214509206/18/00 21:45:31  5-MIN KMKG 190245Z 18004KT 10SM CLR 14/11 A3012 450 80 500 190/04 RMK AO2
14840KMKG MKG20000618215011506/18/00 21:50:31  5-MIN KMKG 190250Z 18003KT 10SM CLR 14/11 A3012 450 80 500 180/03 RMK AO2 SLP198 T01390106 58006
14840KMKG MKG20000618215511506/18/00 21:55:31  5-MIN KMKG 190255Z 18003KT 10SM CLR 14/11 A3012 450 80 500 190/03 RMK AO2 SLP198 T01390106 53003
14840KMKG MKG20000618220009206/18/00 22:00:31  5-MIN KMKG 190300Z 17003KT 10SM CLR 14/11 A3012 440 80 500 180/03 RMK AO2
14840KMKG MKG20000618220509206/18/00 22:05:31  5-MIN KMKG 190305Z 18004KT 10SM CLR 14/11 A3012 440 77 500 180/04 RMK AO2
14840KMKG MKG20000618221009206/18/00 22:10:31  5-MIN KMKG 190310Z 19003KT 10SM CLR 14/11 A3012 440 80 500 190/03 RMK AO2
14840KMKG MKG20000618221509206/18/00 22:15:31  5-MIN KMKG 190315Z 18005KT 10SM CLR 14/11 A3012 440 80 500 180/05 RMK AO2
14840KMKG MKG20000618222009206/18/00 22:20:31  5-MIN KMKG 190320Z 18006KT 10SM CLR 14/11 A3012 440 77 500 180/06 RMK AO2
14840KMKG MKG20000618222509206/18/00 22:25:31  5-MIN KMKG 190325Z 18006KT 10SM CLR 14/11 A3012 450 77 500 180/06 RMK AO2
14840KMKG MKG20000618223009206/18/00 22:30:31  5-MIN KMKG 190330Z 17005KT 10SM CLR 14/11 A3012 440 77 500 180/05 RMK AO2
14840KMKG MKG20000618223509206/18/00 22:35:31  5-MIN KMKG 190335Z VRB03KT 10SM CLR 14/11 A3012 440 77 500 VRB/03 RMK AO2
14840KMKG MKG20000618224009206/18/00 22:40:31  5-MIN KMKG 190340Z 17004KT 10SM CLR 13/10 A3012 440 80 400 180/04 RMK AO2
14840KMKG MKG20000618224509206/18/00 22:45:31  5-MIN KMKG 190345Z 17004KT 10SM CLR 14/10 A3012 440 77 500 180/04 RMK AO2
14840KMKG MKG20000618225010906/18/00 22:50:31  5-MIN KMKG 190350Z 18004KT 10SM CLR 14/10 A3013 440 77 500 180/04 RMK AO2 SLP200 T01390100
14840KMKG MKG20000618225510906/18/00 22:55:31  5-MIN KMKG 190355Z 19004KT 10SM CLR 13/10 A3013 440 80 400 190/04 RMK AO2 SLP200 T01330100
14840KMKG MKG20000618230009206/18/00 23:00:31  5-MIN KMKG 190400Z 18004KT 10SM CLR 13/11 A3013 440 83 400 180/04 RMK AO2
14840KMKG MKG20000618230509206/18/00 23:05:31  5-MIN KMKG 190405Z 18003KT 10SM CLR 13/11 A3013 440 83 400 180/03 RMK AO2
14840KMKG MKG20000618231009206/18/00 23:10:31  5-MIN KMKG 190410Z 17004KT 10SM CLR 13/11 A3013 440 83 400 180/04 RMK AO2
14840KMKG MKG20000618231509206/18/00 23:15:31  5-MIN KMKG 190415Z 18003KT 10SM CLR 13/10 A3013 440 80 400 180/03 RMK AO2
14840KMKG MKG20000618232009206/18/00 23:20:31  5-MIN KMKG 190420Z 00000KT 10SM CLR 13/10 A3013 440 83 300 000/00 RMK AO2
14840KMKG MKG20000618232509206/18/00 23:25:31  5-MIN KMKG 190425Z 00000KT 10SM CLR 13/11 A3013 440 86 300 000/00 RMK AO2
14840KMKG MKG20000618233009206/18/00 23:30:31  5-MIN KMKG 190430Z 00000KT 10SM CLR 12/11 A3013 440 89 300 000/00 RMK AO2
14840KMKG MKG20000618233509206/18/00 23:35:31  5-MIN KMKG 190435Z 17005KT 10SM CLR 13/10 A3013 440 83 300 180/05 RMK AO2
14840KMKG MKG20000618234009206/18/00 23:40:31  5-MIN KMKG 190440Z 17006KT 10SM CLR 14/10 A3013 440 77 500 180/06 RMK AO2
14840KMKG MKG20000618234509206/18/00 23:45:31  5-MIN KMKG 190445Z 18007KT 10SM CLR 14/10 A3013 440 77 500 180/07 RMK AO2
14840KMKG MKG20000618235011906/18/00 23:50:31  5-MIN KMKG 190450Z 18006KT 10SM CLR 14/10 A3013 440 74 500 180/06 RMK AO2 SLP200 T01440100 402170117
14840KMKG MKG20000618235511906/18/00 23:55:31  5-MIN KMKG 190455Z 17005KT 10SM CLR 14/10 A3012 440 74 500 170/05 RMK AO2 SLP199 T01440100 402170117
14840KMKG MKG20000619000009206/19/00 00:00:31  5-MIN KMKG 190500Z 17006KT 10SM CLR 14/09 A3012 450 74 500 170/06 RMK AO2
14840KMKG MKG20000619000509206/19/00 00:05:31  5-MIN KMKG 190505Z 16006KT 10SM CLR 14/09 A3012 450 74 500 170/06 RMK AO2
14840KMKG MKG20000619001009206/19/00 00:10:31  5-MIN KMKG 190510Z 16006KT 10SM CLR 14/09 A3012 450 74 500 170/06 RMK AO2
14840KMKG MKG20000619001509206/19/00 00:15:31  5-MIN KMKG 190515Z 16005KT 10SM CLR 14/09 A3012 440 74 500 170/05 RMK AO2
14840KMKG MKG20000619002009206/19/00 00:20:31  5-MIN KMKG 190520Z 17005KT 10SM CLR 14/09 A3012 440 71 500 170/05 RMK AO2
14840KMKG MKG20000619002509206/19/00 00:25:31  5-MIN KMKG 190525Z 18006KT 10SM CLR 14/09 A3012 440 71 500 180/06 RMK AO2
14840KMKG MKG20000619003009206/19/00 00:30:31  5-MIN KMKG 190530Z 18005KT 10SM CLR 14/09 A3012 440 71 500 180/05 RMK AO2
14840KMKG MKG20000619003509206/19/00 00:35:31  5-MIN KMKG 190535Z 17004KT 10SM CLR 14/09 A3013 440 71 400 170/04 RMK AO2
14840KMKG MKG20000619004009206/19/00 00:40:31  5-MIN KMKG 190540Z 15003KT 10SM CLR 14/08 A3013 440 69 400 160/03 RMK AO2
14840KMKG MKG20000619004509206/19/00 00:45:31  5-MIN KMKG 190545Z 00000KT 10SM CLR 12/09 A3013 440 80 200 000/00 RMK AO2
14840KMKG MKG20000619005012706/19/00 00:50:31  5-MIN KMKG 190550Z 13003KT 10SM CLR 12/09 A3013 440 80 200 130/03 RMK AO2 SLP203 T01220089 10189 20117 53003
14840KMKG MKG20000619005512706/19/00 00:55:31  5-MIN KMKG 190555Z 14003KT 10SM CLR 13/08 A3013 440 74 300 140/03 RMK AO2 SLP203 T01280083 10189 20117 53004
14840KMKG MKG20000619010009206/19/00 01:00:31  5-MIN KMKG 190600Z 15003KT 10SM CLR 13/08 A3013 440 74 300 150/03 RMK AO2
14840KMKG MKG20000619010509206/19/00 01:05:31  5-MIN KMKG 190605Z 16003KT 10SM CLR 13/08 A3013 440 74 300 160/03 RMK AO2
14840KMKG MKG20000619011009506/19/00 01:10:31  5-MIN KMKG 190610Z 15003KT 10SM FEW120 12/08 A3013 440 77 200 160/03 RMK AO2
14840KMKG MKG20000619011509506/19/00 01:15:31  5-MIN KMKG 190615Z 00000KT 10SM SCT120 12/09 A3013 440 80 200 000/00 RMK AO2
14840KMKG MKG20000619012009506/19/00 01:20:31  5-MIN KMKG 190620Z 00000KT 10SM BKN120 13/08 A3013 440 74 300 000/00 RMK AO2
14840KMKG MKG20000619012509506/19/00 01:25:31  5-MIN KMKG 190625Z 15003KT 10SM BKN120 13/08 A3013 440 74 300 150/03 RMK AO2
14840KMKG MKG20000619013009506/19/00 01:30:31  5-MIN KMKG 190630Z 16003KT 10SM BKN120 12/08 A3013 440 77 300 160/03 RMK AO2
14840KMKG MKG20000619013509506/19/00 01:35:31  5-MIN KMKG 190635Z 00000KT 10SM BKN120 12/08 A3013 440 77 300 000/00 RMK AO2
14840KMKG MKG20000619014009506/19/00 01:40:31  5-MIN KMKG 190640Z 00000KT 10SM BKN120 13/08 A3012 440 74 300 000/00 RMK AO2
14840KMKG MKG20000619014509506/19/00 01:45:31  5-MIN KMKG 190645Z 00000KT 10SM SCT120 13/08 A3013 440 74 300 000/00 RMK AO2
14840KMKG MKG20000619015011206/19/00 01:50:31  5-MIN KMKG 190650Z 00000KT 10SM FEW120 13/08 A3013 440 69 400 000/00 RMK AO2 SLP203 T01330078
14840KMKG MKG20000619015511206/19/00 01:55:31  5-MIN KMKG 190655Z 00000KT 10SM FEW110 13/08 A3013 440 69 400 000/00 RMK AO2 SLP203 T01330078
14840KMKG MKG20000619020009206/19/00 02:00:31  5-MIN KMKG 190700Z 00000KT 10SM CLR 13/07 A3013 440 66 400 000/00 RMK AO2
14840KMKG MKG20000619020509206/19/00 02:05:31  5-MIN KMKG 190705Z 14003KT 10SM CLR 13/08 A3013 440 71 300 140/03 RMK AO2
14840KMKG MKG20000619021009206/19/00 02:10:31  5-MIN KMKG 190710Z 15003KT 10SM CLR 13/08 A3013 440 69 400 150/03 RMK AO2
14840KMKG MKG20000619021509206/19/00 02:15:31  5-MIN KMKG 190715Z 15003KT 10SM CLR 12/08 A3013 440 74 300 160/03 RMK AO2
14840KMKG MKG20000619022009206/19/00 02:20:31  5-MIN KMKG 190720Z 00000KT 10SM CLR 12/08 A3013 440 80 200 000/00 RMK AO2
14840KMKG MKG20000619022509206/19/00 02:25:31  5-MIN KMKG 190725Z 00000KT 10SM CLR 12/08 A3013 440 77 300 000/00 RMK AO2
14840KMKG MKG20000619023009206/19/00 02:30:31  5-MIN KMKG 190730Z 00000KT 10SM CLR 13/09 A3013 440 77 300 000/00 RMK AO2
14840KMKG MKG20000619023509206/19/00 02:35:31  5-MIN KMKG 190735Z 17004KT 10SM CLR 13/09 A3012 440 77 300 170/04 RMK AO2
14840KMKG MKG20000619024009206/19/00 02:40:31  5-MIN KMKG 190740Z 16004KT 10SM CLR 13/09 A3012 440 77 300 170/04 RMK AO2
14840KMKG MKG20000619024509206/19/00 02:45:31  5-MIN KMKG 190745Z 17004KT 10SM CLR 13/09 A3012 440 80 300 170/04 RMK AO2
14840KMKG MKG20000619025010906/19/00 02:50:31  5-MIN KMKG 190750Z 00000KT 10SM CLR 12/09 A3012 440 83 200 000/00 RMK AO2 SLP201 T01170089
14840KMKG MKG20000619025510906/19/00 02:55:31  5-MIN KMKG 190755Z 00000KT 10SM CLR 12/09 A3013 440 83 200 000/00 RMK AO2 SLP201 T01170089
14840KMKG MKG20000619030009206/19/00 03:00:31  5-MIN KMKG 190800Z 13003KT 10SM CLR 12/09 A3013 440 80 300 130/03 RMK AO2
14840KMKG MKG20000619030509206/19/00 03:05:31  5-MIN KMKG 190805Z 14004KT 10SM CLR 13/09 A3013 440 77 300 140/04 RMK AO2
14840KMKG MKG20000619031009206/19/00 03:10:31  5-MIN KMKG 190810Z 13004KT 10SM CLR 12/09 A3013 440 80 300 130/04 RMK AO2
14840KMKG MKG20000619031509206/19/00 03:15:31  5-MIN KMKG 190815Z 12004KT 10SM CLR 12/09 A3013 440 80 300 120/04 RMK AO2
14840KMKG MKG20000619032009206/19/00 03:20:31  5-MIN KMKG 190820Z 11004KT 10SM CLR 12/09 A3013 440 80 300 110/04 RMK AO2
14840KMKG MKG20000619032509206/19/00 03:25:31  5-MIN KMKG 190825Z 13004KT 10SM CLR 12/09 A3013 440 80 300 130/04 RMK AO2
14840KMKG MKG20000619033009206/19/00 03:30:31  5-MIN KMKG 190830Z 13004KT 10SM CLR 13/09 A3013 440 77 300 140/04 RMK AO2
14840KMKG MKG20000619033509206/19/00 03:35:31  5-MIN KMKG 190835Z 14004KT 10SM CLR 12/09 A3013 440 80 300 140/04 RMK AO2
14840KMKG MKG20000619034009206/19/00 03:40:31  5-MIN KMKG 190840Z 13003KT 10SM CLR 12/09 A3013 440 80 200 130/03 RMK AO2
14840KMKG MKG20000619034509206/19/00 03:45:31  5-MIN KMKG 190845Z 13004KT 10SM CLR 12/09 A3013 440 80 300 130/04 RMK AO2
14840KMKG MKG20000619035011506/19/00 03:50:31  5-MIN KMKG 190850Z 12004KT 10SM CLR 12/09 A3013 440 83 300 130/04 RMK AO2 SLP202 T01220094 53004
14840KMKG MKG20000619035511506/19/00 03:55:31  5-MIN KMKG 190855Z 12005KT 10SM CLR 12/09 A3013 440 83 300 120/05 RMK AO2 SLP202 T01220094 55001
14840KMKG MKG20000619040009206/19/00 04:00:31  5-MIN KMKG 190900Z 13005KT 10SM CLR 12/09 A3013 440 83 300 130/05 RMK AO2
14840KMKG MKG20000619040509206/19/00 04:05:31  5-MIN KMKG 190905Z 13005KT 10SM CLR 12/09 A3013 440 86 200 130/05 RMK AO2
14840KMKG MKG20000619041009206/19/00 04:10:31  5-MIN KMKG 190910Z 14005KT 10SM CLR 11/09 A3013 440 86 100 150/05 RMK AO2
14840KMKG MKG20000619041509206/19/00 04:15:31  5-MIN KMKG 190915Z 16004KT 10SM CLR 12/09 A3013 440 83 200 160/04 RMK AO2
14840KMKG MKG20000619042009206/19/00 04:20:31  5-MIN KMKG 190920Z 18005KT 10SM CLR 12/09 A3013 430 83 200 190/05 RMK AO2
14840KMKG MKG20000619042509206/19/00 04:25:31  5-MIN KMKG 190925Z 20007KT 10SM CLR 15/12 A3014 430 80 600 210/07 RMK AO2
14840KMKG MKG20000619043009206/19/00 04:30:31  5-MIN KMKG 190930Z 21007KT 10SM CLR 16/13 A3014 430 83 600 210/07 RMK AO2
14840KMKG MKG20000619043509206/19/00 04:35:31  5-MIN KMKG 190935Z 21008KT 10SM CLR 16/13 A3014 430 80 700 210/08 RMK AO2
14840KMKG MKG20000619044009206/19/00 04:40:31  5-MIN KMKG 190940Z 21009KT 10SM CLR 16/13 A3014 430 86 600 210/09 RMK AO2
14840KMKG MKG20000619044509206/19/00 04:45:31  5-MIN KMKG 190945Z 21008KT 10SM CLR 16/13 A3014 430 83 700 210/08 RMK AO2
14840KMKG MKG20000619045010906/19/00 04:50:31  5-MIN KMKG 190950Z 20009KT 10SM CLR 16/13 A3014 430 83 700 210/09 RMK AO2 SLP206 T01610133
14840KMKG MKG20000619045510906/19/00 04:55:31  5-MIN KMKG 190955Z 21009KT 10SM CLR 16/13 A3014 420 83 700 210/09 RMK AO2 SLP206 T01610133
14840KMKG MKG20000619050009206/19/00 05:00:31  5-MIN KMKG 191000Z 21010KT 10SM CLR 16/14 A3014 420 86 700 210/10 RMK AO2
14840KMKG MKG20000619050509206/19/00 05:05:31  5-MIN KMKG 191005Z 21008KT 10SM CLR 16/14 A3015 420 86 700 210/08 RMK AO2
14840KMKG MKG20000619051009206/19/00 05:10:31  5-MIN KMKG 191010Z 21008KT 10SM CLR 16/14 A3015 420 86 700 210/08 RMK AO2
14840KMKG MKG20000619051509206/19/00 05:15:31  5-MIN KMKG 191015Z 21009KT 10SM CLR 16/14 A3015 420 86 700 210/09 RMK AO2
14840KMKG MKG20000619052009206/19/00 05:20:31  5-MIN KMKG 191020Z 21009KT 10SM CLR 16/14 A3015 420 86 700 220/09 RMK AO2
14840KMKG MKG20000619052509206/19/00 05:25:31  5-MIN KMKG 191025Z 21009KT 10SM CLR 16/14 A3015 420 86 700 220/09 RMK AO2
14840KMKG MKG20000619053009206/19/00 05:30:31  5-MIN KMKG 191030Z 22010KT 10SM CLR 16/14 A3015 420 86 700 220/10 RMK AO2
14840KMKG MKG20000619053509206/19/00 05:35:31  5-MIN KMKG 191035Z 22010KT 10SM CLR 16/14 A3015 420 86 700 220/10 RMK AO2
14840KMKG MKG20000619054009206/19/00 05:40:31  5-MIN KMKG 191040Z 21009KT 10SM CLR 16/14 A3015 410 86 700 220/09 RMK AO2
14840KMKG MKG20000619054509206/19/00 05:45:31  5-MIN KMKG 191045Z 21009KT 10SM CLR 17/14 A3016 410 83 700 210/09 RMK AO2
14840KMKG MKG20000619055010906/19/00 05:50:31  5-MIN KMKG 191050Z 21010KT 10SM CLR 16/14 A3015 410 90 700 210/10 RMK AO2 SLP210 T01610144
14840KMKG MKG20000619055510906/19/00 05:55:31  5-MIN KMKG 191055Z 22010KT 10SM CLR 17/14 A3016 410 86 700 220/10 RMK AO2 SLP211 T01670144
14840KMKG MKG20000619060009206/19/00 06:00:31  5-MIN KMKG 191100Z 22009KT 10SM CLR 17/14 A3016 410 86 700 220/09 RMK AO2
14840KMKG MKG20000619060509206/19/00 06:05:31  5-MIN KMKG 191105Z 21010KT 10SM CLR 17/14 A3016 410 86 700 220/10 RMK AO2
14840KMKG MKG20000619061009206/19/00 06:10:31  5-MIN KMKG 191110Z 22010KT 10SM CLR 17/14 A3016 410 86 700 230/10 RMK AO2
14840KMKG MKG20000619061509206/19/00 06:15:31  5-MIN KMKG 191115Z 23010KT 10SM CLR 17/14 A3016 410 86 700 230/10 RMK AO2
14840KMKG MKG20000619062009206/19/00 06:20:31  5-MIN KMKG 191120Z 22009KT 10SM CLR 17/14 A3016 410 86 700 230/09 RMK AO2
14840KMKG MKG20000619062509206/19/00 06:25:31  5-MIN KMKG 191125Z 22011KT 10SM CLR 17/14 A3017 400 83 800 230/11 RMK AO2
14840KMKG MKG20000619063009206/19/00 06:30:31  5-MIN KMKG 191130Z 22011KT 10SM CLR 17/14 A3017 400 83 800 220/11 RMK AO2
14840KMKG MKG20000619063509206/19/00 06:35:31  5-MIN KMKG 191135Z 22012KT 10SM CLR 17/15 A3017 400 87 800 230/12 RMK AO2
14840KMKG MKG20000619064009206/19/00 06:40:31  5-MIN KMKG 191140Z 22012KT 10SM CLR 17/15 A3017 400 87 800 230/12 RMK AO2
14840KMKG MKG20000619064509206/19/00 06:45:31  5-MIN KMKG 191145Z 22012KT 10SM CLR 17/15 A3017 400 87 800 230/12 RMK AO2
14840KMKG MKG20000619065012706/19/00 06:50:31  5-MIN KMKG 191150Z 22012KT 10SM CLR 17/15 A3017 400 87 800 230/12 RMK AO2 SLP215 T01720150 10172 20111 55001
14840KMKG MKG20000619065512706/19/00 06:55:31  5-MIN KMKG 191155Z 22011KT 10SM CLR 17/15 A3017 400 87 800 220/11 RMK AO2 SLP215 T01720150 10172 20111 52014
14840KMKG MKG20000619070009206/19/00 07:00:31  5-MIN KMKG 191200Z 22011KT 10SM CLR 17/15 A3017 400 87 800 230/11 RMK AO2
14840KMKG MKG20000619070509206/19/00 07:05:31  5-MIN KMKG 191205Z 22014KT 10SM CLR 18/15 A3018 390 83 900 220/14 RMK AO2
14840KMKG MKG20000619071009206/19/00 07:10:31  5-MIN KMKG 191210Z 22011KT 10SM CLR 18/15 A3018 390 83 900 230/11 RMK AO2
14840KMKG MKG20000619071509206/19/00 07:15:31  5-MIN KMKG 191215Z 22011KT 10SM CLR 18/15 A3018 400 83 900 230/11 RMK AO2
14840KMKG MKG20000619072009206/19/00 07:20:31  5-MIN KMKG 191220Z 23013KT 10SM CLR 18/15 A3018 390 83 900 230/13 RMK AO2
14840KMKG MKG20000619072509206/19/00 07:25:31  5-MIN KMKG 191225Z 23012KT 10SM CLR 18/15 A3018 400 83 900 230/12 RMK AO2
14840KMKG MKG20000619073009106/19/00 07:30:31  5-MIN KMKG 191230Z 23012KT 9SM CLR 18/15 A3017 400 83 900 230/12 RMK AO2
14840KMKG MKG20000619073509106/19/00 07:35:31  5-MIN KMKG 191235Z 23012KT 9SM CLR 18/15 A3018 390 83 900 230/12 RMK AO2
14840KMKG MKG20000619074009106/19/00 07:40:31  5-MIN KMKG 191240Z 22013KT 9SM CLR 18/15 A3018 390 81 900 230/13 RMK AO2
14840KMKG MKG20000619074509106/19/00 07:45:31  5-MIN KMKG 191245Z 22014KT 9SM CLR 18/15 A3018 390 81 900 230/14 RMK AO2
14840KMKG MKG20000619075010806/19/00 07:50:31  5-MIN KMKG 191250Z 23011KT 9SM CLR 18/15 A3018 390 81 900 230/11 RMK AO2 SLP219 T01830150
14840KMKG MKG20000619075510806/19/00 07:55:31  5-MIN KMKG 191255Z 22013KT 9SM CLR 18/15 A3018 390 81 900 230/13 RMK AO2 SLP219 T01830150
14840KMKG MKG20000619080009106/19/00 08:00:31  5-MIN KMKG 191300Z 23010KT 9SM CLR 18/15 A3018 390 81 900 230/10 RMK AO2
14840KMKG MKG20000619080509106/19/00 08:05:31  5-MIN KMKG 191305Z 24011KT 9SM CLR 18/16 A3018 390 84 900 240/11 RMK AO2
14840KMKG MKG20000619081009106/19/00 08:10:31  5-MIN KMKG 191310Z 23013KT 9SM CLR 18/15 A3018 390 81 900 230/13 RMK AO2
14840KMKG MKG20000619081509206/19/00 08:15:31  5-MIN KMKG 191315Z 23011KT 9SM CLR 19/15 A3018 390 78 1000 240/11 RMK AO2
14840KMKG MKG20000619082010106/19/00 08:20:31  5-MIN KMKG 191320Z 22013KT 1 3/4SM HZ CLR 19/16 A3019 390 81 1000 220/13 RMK AO2 $
14840KMKG MKG20000619082509406/19/00 08:25:31  5-MIN KMKG 191325Z 22012KT 8SM CLR 19/15 A3019 390 78 1000 230/12 RMK AO2 $
14840KMKG MKG20000619083009406/19/00 08:30:31  5-MIN KMKG 191330Z 23011KT 8SM CLR 19/15 A3018 390 78 1000 230/11 RMK AO2 $
14840KMKG MKG20000619083509406/19/00 08:35:31  5-MIN KMKG 191335Z 22012KT 8SM CLR 19/16 A3019 390 81 1000 220/12 RMK AO2 $
14840KMKG MKG20000619084009406/19/00 08:40:31  5-MIN KMKG 191340Z 22010KT 8SM CLR 19/16 A3018 390 78 1000 220/10 RMK AO2 $
14840KMKG MKG20000619084509406/19/00 08:45:31  5-MIN KMKG 191345Z 21011KT 8SM CLR 19/16 A3018 390 78 1000 220/11 RMK AO2 $
14840KMKG MKG20000619085011106/19/00 08:50:31  5-MIN KMKG 191350Z 22011KT 8SM CLR 19/16 A3018 390 78 1000 230/11 RMK AO2 SLP220 T01940156 $
14840KMKG MKG20000619085511106/19/00 08:55:31  5-MIN KMKG 191355Z 22011KT 8SM CLR 19/16 A3018 390 78 1000 230/11 RMK AO2 SLP220 T01940156 $
14840KMKG MKG20000619090009406/19/00 09:00:31  5-MIN KMKG 191400Z 23010KT 8SM CLR 19/16 A3018 390 78 1000 230/10 RMK AO2 $
14840KMKG MKG20000619090509406/19/00 09:05:31  5-MIN KMKG 191405Z 22009KT 8SM CLR 20/16 A3018 390 75 1100 230/09 RMK AO2 $
14840KMKG MKG20000619091009406/19/00 09:10:31  5-MIN KMKG 191410Z 22011KT 8SM CLR 19/16 A3019 390 78 1000 220/11 RMK AO2 $
14840KMKG MKG20000619091509406/19/00 09:15:31  5-MIN KMKG 191415Z 23011KT 8SM CLR 19/16 A3019 380 78 1000 230/11 RMK AO2 $
14840KMKG MKG20000619092009406/19/00 09:20:31  5-MIN KMKG 191420Z 23009KT 9SM CLR 19/16 A3018 390 78 1000 240/09 RMK AO2 $
14840KMKG MKG20000619093009406/19/00 09:30:31  5-MIN KMKG 191430Z 22009KT 9SM CLR 20/16 A3019 390 75 1100 220/09 RMK AO2 $
14840KMKG MKG20000619093509406/19/00 09:35:31  5-MIN KMKG 191435Z 23009KT 9SM CLR 20/16 A3019 380 75 1100 230/09 RMK AO2 $
14840KMKG MKG20000619094009406/19/00 09:40:31  5-MIN KMKG 191440Z 22009KT 9SM CLR 20/16 A3019 380 75 1100 220/09 RMK AO2 $
14840KMKG MKG20000619094509406/19/00 09:45:31  5-MIN KMKG 191445Z 22010KT 9SM CLR 20/16 A3019 380 75 1100 220/10 RMK AO2 $
14840KMKG MKG20000619095011106/19/00 09:50:31  5-MIN KMKG 191450Z 22010KT 9SM CLR 20/16 A3019 380 75 1100 230/10 RMK AO2 SLP222 T02000156 $
14840KMKG MKG20000619095511106/19/00 09:55:31  5-MIN KMKG 191455Z 22010KT 9SM CLR 20/16 A3019 390 75 1100 230/10 RMK AO2 SLP221 T02000156 $
14840KMKG MKG20000619100009406/19/00 10:00:31  5-MIN KMKG 191500Z 23009KT 8SM CLR 20/16 A3019 380 75 1100 230/09 RMK AO2 $
14840KMKG MKG20000619100509406/19/00 10:05:31  5-MIN KMKG 191505Z 20009KT 8SM CLR 21/16 A3019 390 73 1200 200/09 RMK AO2 $
14840KMKG MKG20000619101009506/19/00 10:10:31  5-MIN KMKG 191510Z 21009KT 10SM CLR 20/16 A3019 380 75 1100 210/09 RMK AO2 $
14840KMKG MKG20000619101509506/19/00 10:15:31  5-MIN KMKG 191515Z 19011KT 10SM CLR 21/16 A3019 390 73 1200 200/11 RMK AO2 $
14840KMKG MKG20000619102009906/19/00 10:20:31  5-MIN KMKG 191520Z 21011KT 10SM CLR 21/16 A3019 390 73 1200 220/11 RMK AO2 PNO $
14840KMKG MKG20000619102509906/19/00 10:25:31  5-MIN KMKG 191525Z 22010KT 10SM CLR 21/16 A3019 390 73 1200 220/10 RMK AO2 PNO $
14840KMKG MKG20000619103009906/19/00 10:30:31  5-MIN KMKG 191530Z 21010KT 10SM CLR 21/16 A3019 390 73 1200 220/10 RMK AO2 PNO $
14840KMKG MKG20000619103509906/19/00 10:35:31  5-MIN KMKG 191535Z 21010KT 10SM CLR 21/16 A3019 380 73 1200 210/10 RMK AO2 PNO $
14840KMKG MKG20000619104009906/19/00 10:40:31  5-MIN KMKG 191540Z 21011KT 10SM CLR 21/15 A3019 380 70 1200 220/11 RMK AO2 PNO $
14840KMKG MKG20000619104509906/19/00 10:45:31  5-MIN KMKG 191545Z 21012KT 10SM CLR 20/15 A3019 380 72 1100 210/12 RMK AO2 PNO $
14840KMKG MKG20000619105011206/19/00 10:50:31  5-MIN KMKG 191550Z 21010KT 10SM CLR 21/16 A3019 380 73 1200 210/10 RMK AO2 SLP221 T02060156 $
14840KMKG MKG20000619105511206/19/00 10:55:31  5-MIN KMKG 191555Z 21011KT 10SM CLR 21/16 A3019 380 70 1200 210/11 RMK AO2 SLP222 T02110156 $
14840KMKG MKG20000619110009506/19/00 11:00:31  5-MIN KMKG 191600Z 21011KT 10SM CLR 21/15 A3019 380 68 1200 220/11 RMK AO2 $
14840KMKG MKG20000619110509306/19/00 11:05:31  5-MIN KMKG 191605Z 21010KT 10SM CLR 21/15 A3019 380 68 1200 220/10 RMK AO2
14840KMKG MKG20000619111009306/19/00 11:10:31  5-MIN KMKG 191610Z 22010KT 10SM CLR 21/15 A3019 380 68 1200 220/10 RMK AO2
14840KMKG MKG20000619111509506/19/00 11:15:31  5-MIN KMKG 191615Z 21010KT 10SM CLR 21/16 A3019 380 70 1200 220/10 RMK AO2 $
14840KMKG MKG20000619112009506/19/00 11:20:31  5-MIN KMKG 191620Z 21010KT 10SM CLR 22/16 A3019 380 68 1300 220/10 RMK AO2 $
14840KMKG MKG20000619112509506/19/00 11:25:31  5-MIN KMKG 191625Z 22011KT 10SM CLR 21/15 A3019 380 68 1200 220/11 RMK AO2 $
14840KMKG MKG20000619113009506/19/00 11:30:31  5-MIN KMKG 191630Z 22009KT 10SM CLR 21/15 A3019 380 68 1200 230/09 RMK AO2 $
14840KMKG MKG20000619113509506/19/00 11:35:31  5-MIN KMKG 191635Z 22009KT 10SM CLR 22/15 A3019 390 65 1300 220/09 RMK AO2 $
14840KMKG MKG20000619114009506/19/00 11:40:31  5-MIN KMKG 191640Z 23009KT 10SM CLR 22/15 A3019 380 65 1300 230/09 RMK AO2 $
14840KMKG MKG20000619114509506/19/00 11:45:31  5-MIN KMKG 191645Z 22008KT 10SM CLR 22/14 A3019 380 63 1300 220/08 RMK AO2 $
14840KMKG MKG20000619115011206/19/00 11:50:31  5-MIN KMKG 191650Z 21009KT 10SM CLR 22/14 A3019 380 61 1400 210/09 RMK AO2 SLP221 T02220144 $
14840KMKG MKG20000619115511206/19/00 11:55:31  5-MIN KMKG 191655Z 23009KT 10SM CLR 22/15 A3019 390 63 1400 230/09 RMK AO2 SLP221 T02220150 $
14840KMKG MKG20000619120009506/19/00 12:00:31  5-MIN KMKG 191700Z 23008KT 10SM CLR 22/15 A3019 390 63 1400 240/08 RMK AO2 $
14840KMKG MKG20000619120509506/19/00 12:05:31  5-MIN KMKG 191705Z 21009KT 10SM CLR 22/14 A3019 390 61 1400 210/09 RMK AO2 $
14840KMKG MKG20000619121009506/19/00 12:10:31  5-MIN KMKG 191710Z 21010KT 10SM CLR 22/14 A3018 390 61 1400 210/10 RMK AO2 $
14840KMKG MKG20000619121509506/19/00 12:15:31  5-MIN KMKG 191715Z 22011KT 10SM CLR 22/14 A3018 390 61 1400 220/11 RMK AO2 $
14840KMKG MKG20000619122009506/19/00 12:20:31  5-MIN KMKG 191720Z 22010KT 10SM CLR 23/15 A3018 390 61 1400 230/10 RMK AO2 $
14840KMKG MKG20000619122509506/19/00 12:25:31  5-MIN KMKG 191725Z 20010KT 10SM CLR 22/14 A3018 390 61 1400 200/10 RMK AO2 $
14840KMKG MKG20000619123009506/19/00 12:30:31  5-MIN KMKG 191730Z 22010KT 10SM CLR 22/14 A3018 390 61 1400 220/10 RMK AO2 $
14840KMKG MKG20000619123509506/19/00 12:35:31  5-MIN KMKG 191735Z 20009KT 10SM CLR 22/14 A3018 390 61 1400 210/09 RMK AO2 $
14840KMKG MKG20000619124009506/19/00 12:40:31  5-MIN KMKG 191740Z 19009KT 10SM CLR 22/14 A3018 390 61 1400 190/09 RMK AO2 $
14840KMKG MKG20000619124509506/19/00 12:45:31  5-MIN KMKG 191745Z 20010KT 10SM CLR 23/14 A3018 390 59 1400 210/10 RMK AO2 $
14840KMKG MKG20000619125012406/19/00 12:50:31  5-MIN KMKG 191750Z 20008KT 10SM CLR 23/15 A3018 390 61 1400 210/08 RMK AO2 SLP219 T02280150 10228 20172 $
14840KMKG MKG20000619125513006/19/00 12:55:31  5-MIN KMKG 191755Z 22010KT 10SM CLR 23/14 A3018 390 59 1400 220/10 RMK AO2 SLP218 T02280144 10228 20172 58003 $
14840KMKG MKG20000619130009506/19/00 13:00:31  5-MIN KMKG 191800Z 21009KT 10SM CLR 22/14 A3018 390 59 1400 210/09 RMK AO2 $
14840KMKG MKG20000619130509506/19/00 13:05:31  5-MIN KMKG 191805Z 22010KT 10SM CLR 23/14 A3018 390 59 1400 230/10 RMK AO2 $
14840KMKG MKG20000619131009506/19/00 13:10:31  5-MIN KMKG 191810Z 22011KT 10SM CLR 22/14 A3018 390 59 1400 220/11 RMK AO2 $
14840KMKG MKG20000619131509506/19/00 13:15:31  5-MIN KMKG 191815Z 22010KT 10SM CLR 22/14 A3018 390 61 1400 230/10 RMK AO2 $
14840KMKG MKG20000619132009506/19/00 13:20:31  5-MIN KMKG 191820Z 22011KT 10SM CLR 23/13 A3018 390 55 1400 220/11 RMK AO2 $
14840KMKG MKG20000619132509506/19/00 13:25:31  5-MIN KMKG 191825Z 21011KT 10SM CLR 23/13 A3018 390 55 1400 220/11 RMK AO2 $
14840KMKG MKG20000619133009506/19/00 13:30:31  5-MIN KMKG 191830Z 22010KT 10SM CLR 23/14 A3018 390 57 1400 220/10 RMK AO2 $
14840KMKG MKG20000619133509506/19/00 13:35:31  5-MIN KMKG 191835Z 21011KT 10SM CLR 23/13 A3018 400 53 1400 220/11 RMK AO2 $
14840KMKG MKG20000619134009506/19/00 13:40:31  5-MIN KMKG 191840Z 22011KT 10SM CLR 23/13 A3018 390 53 1400 220/11 RMK AO2 $
14840KMKG MKG20000619134509506/19/00 13:45:31  5-MIN KMKG 191845Z 22011KT 10SM CLR 23/13 A3018 390 53 1400 220/11 RMK AO2 $
14840KMKG MKG20000619135011206/19/00 13:50:31  5-MIN KMKG 191850Z 21010KT 10SM CLR 23/13 A3018 400 53 1400 220/10 RMK AO2 SLP217 T02280128 $
14840KMKG MKG20000619135511206/19/00 13:55:31  5-MIN KMKG 191855Z 20011KT 10SM CLR 23/13 A3017 400 51 1500 210/11 RMK AO2 SLP217 T02330128 $
14840KMKG MKG20000619140009506/19/00 14:00:31  5-MIN KMKG 191900Z 21010KT 10SM CLR 23/13 A3017 400 51 1500 220/10 RMK AO2 $
14840KMKG MKG20000619140509506/19/00 14:05:31  5-MIN KMKG 191905Z 20010KT 10SM CLR 23/12 A3018 390 49 1500 210/10 RMK AO2 $
14840KMKG MKG20000619141009506/19/00 14:10:31  5-MIN KMKG 191910Z 21010KT 10SM CLR 23/13 A3018 390 51 1500 210/10 RMK AO2 $
14840KMKG MKG20000619141509506/19/00 14:15:31  5-MIN KMKG 191915Z 22011KT 10SM CLR 24/13 A3017 400 49 1600 230/11 RMK AO2 $
14840KMKG MKG20000619142009506/19/00 14:20:31  5-MIN KMKG 191920Z 21011KT 10SM CLR 23/12 A3017 400 47 1500 210/11 RMK AO2 $
14840KMKG MKG20000619142509506/19/00 14:25:31  5-MIN KMKG 191925Z 21011KT 10SM CLR 23/12 A3017 400 49 1500 210/11 RMK AO2 $
14840KMKG MKG20000619143009506/19/00 14:30:31  5-MIN KMKG 191930Z 23012KT 10SM CLR 23/13 A3017 400 51 1500 230/12 RMK AO2 $
14840KMKG MKG20000619143509506/19/00 14:35:31  5-MIN KMKG 191935Z 22012KT 10SM CLR 23/13 A3017 400 51 1500 230/12 RMK AO2 $
14840KMKG MKG20000619144009506/19/00 14:40:31  5-MIN KMKG 191940Z 22011KT 10SM CLR 24/13 A3017 400 49 1600 230/11 RMK AO2 $
14840KMKG MKG20000619144509506/19/00 14:45:31  5-MIN KMKG 191945Z 21010KT 10SM CLR 23/13 A3017 400 51 1500 220/10 RMK AO2 $
14840KMKG MKG20000619145011206/19/00 14:50:31  5-MIN KMKG 191950Z 20010KT 10SM CLR 23/13 A3017 400 51 1500 200/10 RMK AO2 SLP214 T02330128 $
14840KMKG MKG20000619145511206/19/00 14:55:31  5-MIN KMKG 191955Z 21010KT 10SM CLR 23/12 A3017 400 49 1500 210/10 RMK AO2 SLP214 T02330122 $
14840KMKG MKG20000619150009506/19/00 15:00:31  5-MIN KMKG 192000Z 23010KT 10SM CLR 24/13 A3017 400 49 1600 230/10 RMK AO2 $
14840KMKG MKG20000619150509506/19/00 15:05:31  5-MIN KMKG 192005Z 21009KT 10SM CLR 24/13 A3017 400 51 1600 210/09 RMK AO2 $
14840KMKG MKG20000619151009506/19/00 15:10:31  5-MIN KMKG 192010Z 19011KT 10SM CLR 24/12 A3017 400 47 1600 200/11 RMK AO2 $
14840KMKG MKG20000619151509506/19/00 15:15:31  5-MIN KMKG 192015Z 22011KT 10SM CLR 24/12 A3017 400 47 1600 220/11 RMK AO2 $
14840KMKG MKG20000619152009506/19/00 15:20:31  5-MIN KMKG 192020Z 21010KT 10SM CLR 23/12 A3017 400 47 1500 210/10 RMK AO2 $
14840KMKG MKG20000619152509506/19/00 15:25:31  5-MIN KMKG 192025Z 20011KT 10SM CLR 23/12 A3017 400 47 1500 210/11 RMK AO2 $
14840KMKG MKG20000619153009506/19/00 15:30:31  5-MIN KMKG 192030Z 20009KT 10SM CLR 23/12 A3017 400 47 1500 210/09 RMK AO2 $
14840KMKG MKG20000619153509506/19/00 15:35:31  5-MIN KMKG 192035Z 22010KT 10SM CLR 23/11 A3017 400 45 1500 230/10 RMK AO2 $
14840KMKG MKG20000619154009506/19/00 15:40:31  5-MIN KMKG 192040Z 21008KT 10SM CLR 24/12 A3016 410 47 1600 210/08 RMK AO2 $
14840KMKG MKG20000619154509506/19/00 15:45:31  5-MIN KMKG 192045Z 23010KT 10SM CLR 24/12 A3016 410 47 1600 230/10 RMK AO2 $
14840KMKG MKG20000619155011806/19/00 15:50:31  5-MIN KMKG 192050Z 23008KT 10SM CLR 24/12 A3016 410 47 1600 230/08 RMK AO2 SLP213 T02390122 58003 $
14840KMKG MKG20000619155511806/19/00 15:55:31  5-MIN KMKG 192055Z 24009KT 10SM CLR 24/12 A3016 410 46 1600 240/09 RMK AO2 SLP213 T02390117 56005 $
14840KMKG MKG20000619160009506/19/00 16:00:31  5-MIN KMKG 192100Z 23009KT 10SM CLR 23/12 A3016 410 47 1500 230/09 RMK AO2 $
14840KMKG MKG20000619160509506/19/00 16:05:31  5-MIN KMKG 192105Z 22009KT 10SM CLR 23/11 A3016 410 45 1500 230/09 RMK AO2 $
14840KMKG MKG20000619161009506/19/00 16:10:31  5-MIN KMKG 192110Z 21008KT 10SM CLR 24/11 A3016 410 44 1600 210/08 RMK AO2 $
14840KMKG MKG20000619161510606/19/00 16:15:31  5-MIN KMKG 192115Z 24008KT 10SM CLR 24/12 A3016 410 46 1600 240/08 RMK AO2 CHINO RWY 14
14840KMKG MKG20000619162010606/19/00 16:20:31  5-MIN KMKG 192120Z 23007KT 10SM CLR 24/12 A3016 410 46 1600 230/07 RMK AO2 CHINO RWY 14
14840KMKG MKG20000619162510606/19/00 16:25:31  5-MIN KMKG 192125Z 22009KT 10SM CLR 24/11 A3016 410 44 1600 220/09 RMK AO2 CHINO RWY 14
14840KMKG MKG20000619163010606/19/00 16:30:31  5-MIN KMKG 192130Z 23006KT 10SM CLR 24/12 A3016 410 46 1600 230/06 RMK AO2 CHINO RWY 14
14840KMKG MKG20000619163510606/19/00 16:35:31  5-MIN KMKG 192135Z 24007KT 10SM CLR 24/11 A3015 420 44 1600 240/07 RMK AO2 CHINO RWY 14
14840KMKG MKG20000619164010606/19/00 16:40:31  5-MIN KMKG 192140Z 22006KT 10SM CLR 24/12 A3015 420 46 1600 220/06 RMK AO2 CHINO RWY 14
14840KMKG MKG20000619164510606/19/00 16:45:31  5-MIN KMKG 192145Z 20007KT 10SM CLR 24/12 A3015 410 44 1600 210/07 RMK AO2 CHINO RWY 14
14840KMKG MKG20000619165012306/19/00 16:50:31  5-MIN KMKG 192150Z 20007KT 10SM CLR 24/11 A3015 420 44 1600 200/07 RMK AO2 SLP209 T02390111 CHINO RWY 14
14840KMKG MKG20000619165512306/19/00 16:55:31  5-MIN KMKG 192155Z 20007KT 10SM CLR 24/11 A3015 420 42 1600 210/07 RMK AO2 SLP208 T02390106 CHINO RWY 14
14840KMKG MKG20000619170010606/19/00 17:00:31  5-MIN KMKG 192200Z 21008KT 10SM CLR 24/11 A3015 420 42 1600 210/08 RMK AO2 CHINO RWY 14
14840KMKG MKG20000619170510606/19/00 17:05:31  5-MIN KMKG 192205Z 21007KT 10SM CLR 23/11 A3015 420 44 1500 210/07 RMK AO2 CHINO RWY 14
14840KMKG MKG20000619171010606/19/00 17:10:31  5-MIN KMKG 192210Z 21006KT 10SM CLR 24/11 A3014 420 42 1600 220/06 RMK AO2 CHINO RWY 14
14840KMKG MKG20000619171510606/19/00 17:15:31  5-MIN KMKG 192215Z 20007KT 10SM CLR 24/11 A3014 430 44 1600 200/07 RMK AO2 CHINO RWY 14
14840KMKG MKG20000619172010606/19/00 17:20:31  5-MIN KMKG 192220Z 19008KT 10SM CLR 24/11 A3014 430 44 1600 200/08 RMK AO2 CHINO RWY 14
14840KMKG MKG20000619172510606/19/00 17:25:31  5-MIN KMKG 192225Z 20008KT 10SM CLR 24/11 A3014 430 44 1600 200/08 RMK AO2 CHINO RWY 14
14840KMKG MKG20000619173010606/19/00 17:30:31  5-MIN KMKG 192230Z 20006KT 10SM CLR 23/11 A3014 430 45 1500 200/06 RMK AO2 CHINO RWY 14
14840KMKG MKG20000619173510606/19/00 17:35:31  5-MIN KMKG 192235Z 20009KT 10SM CLR 24/11 A3014 430 44 1600 200/09 RMK AO2 CHINO RWY 14
14840KMKG MKG20000619174010606/19/00 17:40:31  5-MIN KMKG 192240Z 20007KT 10SM CLR 24/11 A3013 430 44 1600 200/07 RMK AO2 CHINO RWY 14
14840KMKG MKG20000619174510606/19/00 17:45:31  5-MIN KMKG 192245Z 21008KT 10SM CLR 24/12 A3013 430 46 1600 220/08 RMK AO2 CHINO RWY 14
14840KMKG MKG20000619175012306/19/00 17:50:31  5-MIN KMKG 192250Z 20007KT 10SM CLR 24/12 A3013 440 47 1600 210/07 RMK AO2 SLP201 T02390122 CHINO RWY 14
14840KMKG MKG20000619175512306/19/00 17:55:31  5-MIN KMKG 192255Z 21007KT 10SM CLR 23/12 A3013 440 49 1500 210/07 RMK AO2 SLP200 T02330122 CHINO RWY 14
14840KMKG MKG20000619180010606/19/00 18:00:31  5-MIN KMKG 192300Z 20007KT 10SM CLR 24/12 A3013 440 47 1600 200/07 RMK AO2 CHINO RWY 14
14840KMKG MKG20000619180510606/19/00 18:05:31  5-MIN KMKG 192305Z 20005KT 10SM CLR 24/12 A3013 440 46 1700 200/05 RMK AO2 CHINO RWY 14
14840KMKG MKG20000619181010606/19/00 18:10:31  5-MIN KMKG 192310Z 19007KT 10SM CLR 24/13 A3012 440 47 1700 190/07 RMK AO2 CHINO RWY 14
14840KMKG MKG20000619181510606/19/00 18:15:31  5-MIN KMKG 192315Z 19008KT 10SM CLR 24/13 A3012 440 47 1700 200/08 RMK AO2 CHINO RWY 14
14840KMKG MKG20000619182010606/19/00 18:20:31  5-MIN KMKG 192320Z 20007KT 10SM CLR 24/13 A3012 450 47 1700 200/07 RMK AO2 CHINO RWY 14
14840KMKG MKG20000619182510606/19/00 18:25:31  5-MIN KMKG 192325Z 20007KT 10SM CLR 24/13 A3012 450 49 1700 210/07 RMK AO2 CHINO RWY 14
14840KMKG MKG20000619183010606/19/00 18:30:31  5-MIN KMKG 192330Z 20007KT 10SM CLR 24/13 A3012 450 49 1600 200/07 RMK AO2 CHINO RWY 14
14840KMKG MKG20000619183510606/19/00 18:35:31  5-MIN KMKG 192335Z 20007KT 10SM CLR 24/13 A3012 450 51 1600 200/07 RMK AO2 CHINO RWY 14
14840KMKG MKG20000619184010606/19/00 18:40:31  5-MIN KMKG 192340Z 20007KT 10SM CLR 24/13 A3012 450 51 1600 210/07 RMK AO2 CHINO RWY 14
14840KMKG MKG20000619184510606/19/00 18:45:31  5-MIN KMKG 192345Z 20007KT 10SM CLR 24/13 A3012 450 51 1600 210/07 RMK AO2 CHINO RWY 14
14840KMKG MKG20000619185014106/19/00 18:50:31  5-MIN KMKG 192350Z 20008KT 10SM CLR 24/13 A3012 450 51 1600 200/08 RMK AO2 SLP196 T02390133 10244 20222 56005 CHINO RWY 14
14840KMKG MKG20000619185514106/19/00 18:55:31  5-MIN KMKG 192355Z 19006KT 10SM CLR 24/13 A3012 450 51 1600 190/06 RMK AO2 SLP196 T02390133 10244 20222 58016 CHINO RWY 14
14840KMKG MKG20000619190010606/19/00 19:00:31  5-MIN KMKG 200000Z 19007KT 10SM CLR 24/13 A3012 450 51 1600 200/07 RMK AO2 CHINO RWY 14
14840KMKG MKG20000619190510606/19/00 19:05:31  5-MIN KMKG 200005Z 19007KT 10SM CLR 24/13 A3012 450 51 1600 200/07 RMK AO2 CHINO RWY 14
14840KMKG MKG20000619191010606/19/00 19:10:31  5-MIN KMKG 200010Z 19006KT 10SM CLR 23/13 A3011 450 53 1600 200/06 RMK AO2 CHINO RWY 14
14840KMKG MKG20000619191510606/19/00 19:15:31  5-MIN KMKG 200015Z 18006KT 10SM CLR 23/13 A3011 450 53 1600 190/06 RMK AO2 CHINO RWY 14
14840KMKG MKG20000619192010606/19/00 19:20:31  5-MIN KMKG 200020Z 18006KT 10SM CLR 23/13 A3011 450 53 1600 180/06 RMK AO2 CHINO RWY 14
14840KMKG MKG20000619192510606/19/00 19:25:31  5-MIN KMKG 200025Z 17006KT 10SM CLR 23/13 A3011 450 53 1600 180/06 RMK AO2 CHINO RWY 14
14840KMKG MKG20000619193010606/19/00 19:30:31  5-MIN KMKG 200030Z 19006KT 10SM CLR 23/13 A3011 450 53 1600 190/06 RMK AO2 CHINO RWY 14
14840KMKG MKG20000619193510606/19/00 19:35:31  5-MIN KMKG 200035Z 18004KT 10SM CLR 23/13 A3011 460 55 1500 190/04 RMK AO2 CHINO RWY 14
14840KMKG MKG20000619194010606/19/00 19:40:31  5-MIN KMKG 200040Z 17005KT 10SM CLR 23/14 A3011 460 57 1500 170/05 RMK AO2 CHINO RWY 14
14840KMKG MKG20000619194510606/19/00 19:45:31  5-MIN KMKG 200045Z 17006KT 10SM CLR 23/13 A3011 460 55 1500 170/06 RMK AO2 CHINO RWY 14
14840KMKG MKG20000619195012306/19/00 19:50:31  5-MIN KMKG 200050Z 17005KT 10SM CLR 23/13 A3011 460 55 1500 170/05 RMK AO2 SLP192 T02280133 CHINO RWY 14
14840KMKG MKG20000619195512306/19/00 19:55:31  5-MIN KMKG 200055Z 17005KT 10SM CLR 22/13 A3010 460 56 1400 180/05 RMK AO2 SLP192 T02220133 CHINO RWY 14
14840KMKG MKG20000619200010606/19/00 20:00:31  5-MIN KMKG 200100Z 16005KT 10SM CLR 22/13 A3010 460 56 1500 160/05 RMK AO2 CHINO RWY 14
14840KMKG MKG20000619200510606/19/00 20:05:31  5-MIN KMKG 200105Z 17004KT 10SM CLR 22/14 A3010 460 61 1400 170/04 RMK AO2 CHINO RWY 14
14840KMKG MKG20000619201010606/19/00 20:10:31  5-MIN KMKG 200110Z 17005KT 10SM CLR 22/13 A3010 460 58 1400 180/05 RMK AO2 CHINO RWY 14
14840KMKG MKG20000619201510606/19/00 20:15:31  5-MIN KMKG 200115Z 17004KT 10SM CLR 22/13 A3010 460 58 1400 170/04 RMK AO2 CHINO RWY 14
14840KMKG MKG20000619202010606/19/00 20:20:31  5-MIN KMKG 200120Z 16004KT 10SM CLR 21/14 A3010 460 63 1300 160/04 RMK AO2 CHINO RWY 14
14840KMKG MKG20000619202510606/19/00 20:25:31  5-MIN KMKG 200125Z 16004KT 10SM CLR 21/14 A3010 460 63 1300 170/04 RMK AO2 CHINO RWY 14
14840KMKG MKG20000619203010606/19/00 20:30:31  5-MIN KMKG 200130Z 16005KT 10SM CLR 21/14 A3010 470 63 1300 160/05 RMK AO2 CHINO RWY 14
14840KMKG MKG20000619203510606/19/00 20:35:31  5-MIN KMKG 200135Z 15004KT 10SM CLR 21/14 A3010 470 63 1300 160/04 RMK AO2 CHINO RWY 14
14840KMKG MKG20000619204010606/19/00 20:40:31  5-MIN KMKG 200140Z 15004KT 10SM CLR 21/14 A3010 470 65 1300 150/04 RMK AO2 CHINO RWY 14
14840KMKG MKG20000619204512206/19/00 20:45:31  5-MIN KMKG 200145Z 15004KT 10SM -RA CLR 21/14 A3010 470 65 1300 150/04 RMK AO2 RAB41 P0000 CHINO RWY 14
14840KMKG MKG20000619205013806/19/00 20:50:31  5-MIN KMKG 200150Z 15004KT 10SM CLR 20/14 A3010 460 67 1200 150/04 RMK AO2 RAB41E50 SLP191 P0000 T02000139 CHINO RWY 14
14840KMKG MKG20000619205513806/19/00 20:55:31  5-MIN KMKG 200155Z 13003KT 10SM CLR 19/14 A3010 460 70 1100 140/03 RMK AO2 RAB41E50 SLP192 P0000 T01940139 CHINO RWY 14
14840KMKG MKG20000619210010606/19/00 21:00:31  5-MIN KMKG 200200Z 14004KT 10SM CLR 19/14 A3010 460 72 1100 140/04 RMK AO2 CHINO RWY 14
14840KMKG MKG20000619210510606/19/00 21:05:31  5-MIN KMKG 200205Z 14004KT 10SM CLR 18/14 A3010 460 75 1000 150/04 RMK AO2 CHINO RWY 14
14840KMKG MKG20000619211010606/19/00 21:10:31  5-MIN KMKG 200210Z 14004KT 10SM CLR 19/14 A3010 460 72 1100 150/04 RMK AO2 CHINO RWY 14
14840KMKG MKG20000619211510606/19/00 21:15:31  5-MIN KMKG 200215Z 14004KT 10SM CLR 18/14 A3011 460 75 1000 150/04 RMK AO2 CHINO RWY 14
14840KMKG MKG20000619212010606/19/00 21:20:31  5-MIN KMKG 200220Z 00000KT 10SM CLR 19/14 A3011 460 72 1100 000/00 RMK AO2 CHINO RWY 14
14840KMKG MKG20000619212510606/19/00 21:25:31  5-MIN KMKG 200225Z 12004KT 10SM CLR 18/14 A3011 460 78 1000 130/04 RMK AO2 CHINO RWY 14
14840KMKG MKG20000619213010506/19/00 21:30:31  5-MIN KMKG 200230Z 12005KT 10SM CLR 18/14 A3011 460 81 900 120/05 RMK AO2 CHINO RWY 14
14840KMKG MKG20000619213510506/19/00 21:35:31  5-MIN KMKG 200235Z 12004KT 10SM CLR 18/14 A3011 460 81 900 130/04 RMK AO2 CHINO RWY 14
14840KMKG MKG20000619214010506/19/00 21:40:31  5-MIN KMKG 200240Z 13004KT 10SM CLR 18/14 A3011 460 81 900 130/04 RMK AO2 CHINO RWY 14
14840KMKG MKG20000619214510506/19/00 21:45:31  5-MIN KMKG 200245Z 13004KT 10SM CLR 18/14 A3011 460 81 900 140/04 RMK AO2 CHINO RWY 14
14840KMKG MKG20000619215013506/19/00 21:50:31  5-MIN KMKG 200250Z 14004KT 10SM CLR 19/14 A3011 460 75 1100 140/04 RMK AO2 SLP194 60000 T01890144 58016 CHINO RWY 14
14840KMKG MKG20000619215513506/19/00 21:55:31  5-MIN KMKG 200255Z 14005KT 10SM CLR 19/14 A3011 460 75 1100 140/05 RMK AO2 SLP194 60000 T01890144 55002 CHINO RWY 14
14840KMKG MKG20000619220010606/19/00 22:00:31  5-MIN KMKG 200300Z 13005KT 10SM CLR 18/14 A3011 450 78 1000 130/05 RMK AO2 CHINO RWY 14
14840KMKG MKG20000619220510506/19/00 22:05:31  5-MIN KMKG 200305Z 13005KT 10SM CLR 18/14 A3011 460 81 900 130/05 RMK AO2 CHINO RWY 14
14840KMKG MKG20000619221010506/19/00 22:10:31  5-MIN KMKG 200310Z 13005KT 10SM CLR 18/14 A3011 450 81 900 130/05 RMK AO2 CHINO RWY 14
14840KMKG MKG20000619221510506/19/00 22:15:31  5-MIN KMKG 200315Z 13005KT 10SM CLR 18/14 A3011 450 81 900 130/05 RMK AO2 CHINO RWY 14
14840KMKG MKG20000619222010506/19/00 22:20:31  5-MIN KMKG 200320Z 13005KT 10SM CLR 18/14 A3011 450 81 900 140/05 RMK AO2 CHINO RWY 14
14840KMKG MKG20000619222510606/19/00 22:25:31  5-MIN KMKG 200325Z 13005KT 10SM CLR 18/14 A3011 460 78 1000 140/05 RMK AO2 CHINO RWY 14
14840KMKG MKG20000619223010506/19/00 22:30:31  5-MIN KMKG 200330Z 13005KT 10SM CLR 18/14 A3011 460 81 900 130/05 RMK AO2 CHINO RWY 14
14840KMKG MKG20000619223510506/19/00 22:35:31  5-MIN KMKG 200335Z 12006KT 10SM CLR 17/14 A3011 460 83 900 130/06 RMK AO2 CHINO RWY 14
14840KMKG MKG20000619224010506/19/00 22:40:31  5-MIN KMKG 200340Z 12006KT 10SM CLR 17/14 A3011 460 83 900 120/06 RMK AO2 CHINO RWY 14
14840KMKG MKG20000619224510506/19/00 22:45:31  5-MIN KMKG 200345Z 12006KT 10SM CLR 17/14 A3010 460 83 900 130/06 RMK AO2 CHINO RWY 14
14840KMKG MKG20000619225012206/19/00 22:50:31  5-MIN KMKG 200350Z 12007KT 10SM CLR 17/14 A3010 460 83 900 130/07 RMK AO2 SLP192 T01720144 CHINO RWY 14
14840KMKG MKG20000619225512206/19/00 22:55:31  5-MIN KMKG 200355Z 13006KT 10SM CLR 17/14 A3010 460 83 900 130/06 RMK AO2 SLP192 T01720144 CHINO RWY 14
14840KMKG MKG20000619230010506/19/00 23:00:31  5-MIN KMKG 200400Z 13006KT 10SM CLR 17/14 A3010 460 83 900 130/06 RMK AO2 CHINO RWY 14
14840KMKG MKG20000619230510506/19/00 23:05:31  5-MIN KMKG 200405Z 13006KT 10SM CLR 18/14 A3011 460 81 900 130/06 RMK AO2 CHINO RWY 14
14840KMKG MKG20000619231010506/19/00 23:10:31  5-MIN KMKG 200410Z 13006KT 10SM CLR 17/14 A3011 460 83 900 130/06 RMK AO2 CHINO RWY 14
14840KMKG MKG20000619231510506/19/00 23:15:31  5-MIN KMKG 200415Z 12005KT 10SM CLR 17/14 A3011 460 83 900 130/05 RMK AO2 CHINO RWY 14
14840KMKG MKG20000619232010506/19/00 23:20:31  5-MIN KMKG 200420Z 12005KT 10SM CLR 17/14 A3011 460 83 900 130/05 RMK AO2 CHINO RWY 14
14840KMKG MKG20000619232510506/19/00 23:25:31  5-MIN KMKG 200425Z 12004KT 10SM CLR 17/14 A3011 460 83 900 130/04 RMK AO2 CHINO RWY 14
14840KMKG MKG20000620000510506/20/00 00:05:31  5-MIN KMKG 200505Z 14005KT 10SM CLR 17/14 A3012 450 83 900 140/05 RMK AO2 CHINO RWY 14
14840KMKG MKG20000620001010506/20/00 00:10:31  5-MIN KMKG 200510Z 13005KT 10SM CLR 17/14 A3012 450 83 900 140/05 RMK AO2 CHINO RWY 14
14840KMKG MKG20000620001510506/20/00 00:15:31  5-MIN KMKG 200515Z 14005KT 10SM CLR 17/14 A3012 450 83 900 140/05 RMK AO2 CHINO RWY 14
14840KMKG MKG20000620002010506/20/00 00:20:31  5-MIN KMKG 200520Z 13005KT 10SM CLR 17/14 A3012 450 86 800 130/05 RMK AO2 CHINO RWY 14
14840KMKG MKG20000620002510506/20/00 00:25:31  5-MIN KMKG 200525Z 13006KT 10SM CLR 17/14 A3011 450 86 800 130/06 RMK AO2 CHINO RWY 14
14840KMKG MKG20000620003010506/20/00 00:30:31  5-MIN KMKG 200530Z 13006KT 10SM CLR 16/14 A3011 450 90 700 130/06 RMK AO2 CHINO RWY 14
14840KMKG MKG20000620003510506/20/00 00:35:31  5-MIN KMKG 200535Z 12006KT 10SM CLR 16/14 A3011 460 90 700 120/06 RMK AO2 CHINO RWY 14
14840KMKG MKG20000620004010506/20/00 00:40:31  5-MIN KMKG 200540Z 13006KT 10SM CLR 16/14 A3011 460 90 700 130/06 RMK AO2 CHINO RWY 14
14840KMKG MKG20000620004509706/20/00 00:45:31  5-MIN KMKG 200545Z 10SM CLR 16/14 A3010 460 90 700 M /M RMK AO2 CHINO RWY 14 $
14840KMKG MKG20000620005014706/20/00 00:50:31  5-MIN KMKG 200550Z 12006KT 9SM CLR 16/14 A3010 460 90 700 130/06 RMK AO2 SLP191 60000 T01610144 10239 20161 55002 CHINO RWY 14 $
14840KMKG MKG20000620005514706/20/00 00:55:31  5-MIN KMKG 200555Z 12006KT 9SM CLR 16/14 A3010 460 90 700 120/06 RMK AO2 SLP191 60000 T01610144 10239 20161 58003 CHINO RWY 14 $
14840KMKG MKG20000620010010606/20/00 01:00:31  5-MIN KMKG 200600Z 13006KT 9SM CLR 16/14 A3010 460 90 700 130/06 RMK AO2 CHINO RWY 14 $
14840KMKG MKG20000620010510606/20/00 01:05:31  5-MIN KMKG 200605Z 13005KT 9SM CLR 16/14 A3010 460 90 700 140/05 RMK AO2 CHINO RWY 14 $
14840KMKG MKG20000620011010606/20/00 01:10:31  5-MIN KMKG 200610Z 13006KT 9SM CLR 17/14 A3010 470 86 800 130/06 RMK AO2 CHINO RWY 14 $
14840KMKG MKG20000620011510606/20/00 01:15:31  5-MIN KMKG 200615Z 13007KT 9SM CLR 17/14 A3010 470 86 800 130/07 RMK AO2 CHINO RWY 14 $
14840KMKG MKG20000620012010606/20/00 01:20:31  5-MIN KMKG 200620Z 13007KT 9SM CLR 16/14 A3010 470 90 700 130/07 RMK AO2 CHINO RWY 14 $
14840KMKG MKG20000620012510606/20/00 01:25:31  5-MIN KMKG 200625Z 14006KT 9SM CLR 17/14 A3010 470 86 800 140/06 RMK AO2 CHINO RWY 14 $
14840KMKG MKG20000620013010606/20/00 01:30:31  5-MIN KMKG 200630Z 14006KT 9SM CLR 17/14 A3010 470 86 800 150/06 RMK AO2 CHINO RWY 14 $
14840KMKG MKG20000620013510706/20/00 01:35:31  5-MIN KMKG 200635Z 14006KT 10SM CLR 17/14 A3010 470 86 800 140/06 RMK AO2 CHINO RWY 14 $
14840KMKG MKG20000620014010706/20/00 01:40:31  5-MIN KMKG 200640Z 14006KT 10SM CLR 17/14 A3010 470 86 800 140/06 RMK AO2 CHINO RWY 14 $
14840KMKG MKG20000620014510706/20/00 01:45:31  5-MIN KMKG 200645Z 14006KT 10SM CLR 16/14 A3009 470 90 800 140/06 RMK AO2 CHINO RWY 14 $
14840KMKG MKG20000620015012406/20/00 01:50:31  5-MIN KMKG 200650Z 14007KT 10SM CLR 16/14 A3009 470 90 800 140/07 RMK AO2 SLP188 T01610144 CHINO RWY 14 $
14840KMKG MKG20000620015512406/20/00 01:55:31  5-MIN KMKG 200655Z 14007KT 10SM CLR 16/14 A3009 470 90 800 140/07 RMK AO2 SLP187 T01610144 CHINO RWY 14 $
14840KMKG MKG20000620020010706/20/00 02:00:31  5-MIN KMKG 200700Z 14006KT 10SM CLR 17/14 A3009 480 86 800 150/06 RMK AO2 CHINO RWY 14 $
14840KMKG MKG20000620020510706/20/00 02:05:31  5-MIN KMKG 200705Z 15006KT 10SM CLR 17/14 A3009 480 86 800 150/06 RMK AO2 CHINO RWY 14 $
14840KMKG MKG20000620021010706/20/00 02:10:31  5-MIN KMKG 200710Z 15006KT 10SM CLR 17/14 A3009 480 86 800 150/06 RMK AO2 CHINO RWY 14 $
14840KMKG MKG20000620021510706/20/00 02:15:31  5-MIN KMKG 200715Z 15007KT 10SM CLR 17/14 A3008 480 80 900 150/07 RMK AO2 CHINO RWY 14 $
14840KMKG MKG20000620022010706/20/00 02:20:31  5-MIN KMKG 200720Z 15006KT 10SM CLR 17/14 A3008 480 80 900 150/06 RMK AO2 CHINO RWY 14 $
14840KMKG MKG20000620022510706/20/00 02:25:31  5-MIN KMKG 200725Z 14007KT 10SM CLR 17/14 A3008 490 83 800 150/07 RMK AO2 CHINO RWY 14 $
14840KMKG MKG20000620023010706/20/00 02:30:31  5-MIN KMKG 200730Z 15007KT 10SM CLR 17/14 A3007 490 83 900 150/07 RMK AO2 CHINO RWY 14 $
14840KMKG MKG20000620023510706/20/00 02:35:31  5-MIN KMKG 200735Z 15007KT 10SM CLR 17/14 A3007 490 80 900 150/07 RMK AO2 CHINO RWY 14 $
14840KMKG MKG20000620024010706/20/00 02:40:31  5-MIN KMKG 200740Z 14007KT 10SM CLR 17/14 A3007 490 83 800 150/07 RMK AO2 CHINO RWY 14 $
14840KMKG MKG20000620024510706/20/00 02:45:31  5-MIN KMKG 200745Z 14007KT 10SM CLR 17/14 A3007 490 83 800 150/07 RMK AO2 CHINO RWY 14 $
14840KMKG MKG20000620025012406/20/00 02:50:31  5-MIN KMKG 200750Z 14007KT 10SM CLR 17/14 A3007 500 83 900 140/07 RMK AO2 SLP179 T01720144 CHINO RWY 14 $
14840KMKG MKG20000620025512406/20/00 02:55:31  5-MIN KMKG 200755Z 14007KT 10SM CLR 17/14 A3006 500 83 900 140/07 RMK AO2 SLP177 T01670139 CHINO RWY 14 $
14840KMKG MKG20000620030010706/20/00 03:00:31  5-MIN KMKG 200800Z 14007KT 10SM CLR 17/14 A3006 500 83 900 150/07 RMK AO2 CHINO RWY 14 $
14840KMKG MKG20000620030510706/20/00 03:05:31  5-MIN KMKG 200805Z 14008KT 10SM CLR 17/14 A3006 510 80 900 150/08 RMK AO2 CHINO RWY 14 $
14840KMKG MKG20000620031010706/20/00 03:10:31  5-MIN KMKG 200810Z 14008KT 10SM CLR 17/14 A3006 510 80 900 150/08 RMK AO2 CHINO RWY 14 $
14840KMKG MKG20000620031510706/20/00 03:15:31  5-MIN KMKG 200815Z 14008KT 10SM CLR 17/14 A3005 510 80 900 150/08 RMK AO2 CHINO RWY 14 $
14840KMKG MKG20000620032010706/20/00 03:20:31  5-MIN KMKG 200820Z 14007KT 10SM CLR 17/13 A3005 510 78 900 150/07 RMK AO2 CHINO RWY 14 $
14840KMKG MKG20000620032510706/20/00 03:25:31  5-MIN KMKG 200825Z 14007KT 10SM CLR 17/13 A3005 510 78 900 150/07 RMK AO2 CHINO RWY 14 $
14840KMKG MKG20000620033010706/20/00 03:30:31  5-MIN KMKG 200830Z 14007KT 10SM CLR 17/13 A3005 510 78 900 150/07 RMK AO2 CHINO RWY 14 $
14840KMKG MKG20000620033510706/20/00 03:35:31  5-MIN KMKG 200835Z 15007KT 10SM CLR 17/13 A3005 510 78 900 150/07 RMK AO2 CHINO RWY 14 $
14840KMKG MKG20000620034010706/20/00 03:40:31  5-MIN KMKG 200840Z 15007KT 10SM CLR 17/13 A3005 510 78 900 150/07 RMK AO2 CHINO RWY 14 $
14840KMKG MKG20000620034510706/20/00 03:45:31  5-MIN KMKG 200845Z 14006KT 10SM CLR 17/13 A3005 510 78 900 140/06 RMK AO2 CHINO RWY 14 $
14840KMKG MKG20000620035013006/20/00 03:50:31  5-MIN KMKG 200850Z 14006KT 10SM CLR 17/13 A3005 510 80 900 140/06 RMK AO2 SLP174 T01670133 58003 CHINO RWY 14 $
14840KMKG MKG20000620035513006/20/00 03:55:31  5-MIN KMKG 200855Z 15007KT 10SM CLR 17/13 A3005 510 80 900 150/07 RMK AO2 SLP174 T01670133 57017 CHINO RWY 14 $
14840KMKG MKG20000620040010706/20/00 04:00:31  5-MIN KMKG 200900Z 14007KT 10SM CLR 17/13 A3005 510 80 900 150/07 RMK AO2 CHINO RWY 14 $
14840KMKG MKG20000620040510706/20/00 04:05:31  5-MIN KMKG 200905Z 14007KT 10SM CLR 17/13 A3004 520 78 900 150/07 RMK AO2 CHINO RWY 14 $
14840KMKG MKG20000620041010706/20/00 04:10:31  5-MIN KMKG 200910Z 14007KT 10SM CLR 17/13 A3004 520 80 900 140/07 RMK AO2 CHINO RWY 14 $
14840KMKG MKG20000620041510706/20/00 04:15:31  5-MIN KMKG 200915Z 13008KT 10SM CLR 16/13 A3004 520 83 800 140/08 RMK AO2 CHINO RWY 14 $
14840KMKG MKG20000620042010706/20/00 04:20:31  5-MIN KMKG 200920Z 13007KT 10SM CLR 16/13 A3004 520 83 800 140/07 RMK AO2 CHINO RWY 14 $
14840KMKG MKG20000620042510706/20/00 04:25:31  5-MIN KMKG 200925Z 14007KT 10SM CLR 16/13 A3004 520 83 800 140/07 RMK AO2 CHINO RWY 14 $
14840KMKG MKG20000620043010706/20/00 04:30:31  5-MIN KMKG 200930Z 13007KT 10SM CLR 16/13 A3005 510 83 800 140/07 RMK AO2 CHINO RWY 14 $
14840KMKG MKG20000620043510706/20/00 04:35:31  5-MIN KMKG 200935Z 13007KT 10SM CLR 16/13 A3004 520 83 800 140/07 RMK AO2 CHINO RWY 14 $
14840KMKG MKG20000620044010706/20/00 04:40:31  5-MIN KMKG 200940Z 13007KT 10SM CLR 16/13 A3004 520 86 700 130/07 RMK AO2 CHINO RWY 14 $
14840KMKG MKG20000620044510706/20/00 04:45:31  5-MIN KMKG 200945Z 13007KT 10SM CLR 16/13 A3004 520 86 700 130/07 RMK AO2 CHINO RWY 14 $
14840KMKG MKG20000620045012406/20/00 04:50:31  5-MIN KMKG 200950Z 13008KT 10SM CLR 16/13 A3004 520 86 700 130/08 RMK AO2 SLP171 T01560133 CHINO RWY 14 $
14840KMKG MKG20000620045512406/20/00 04:55:31  5-MIN KMKG 200955Z 13008KT 10SM CLR 16/13 A3004 520 86 700 130/08 RMK AO2 SLP169 T01560133 CHINO RWY 14 $
14840KMKG MKG20000620050010706/20/00 05:00:31  5-MIN KMKG 201000Z 13009KT 10SM CLR 16/13 A3003 530 86 800 130/09 RMK AO2 CHINO RWY 14 $
14840KMKG MKG20000620050510706/20/00 05:05:31  5-MIN KMKG 201005Z 13008KT 10SM CLR 16/13 A3003 530 86 800 130/08 RMK AO2 CHINO RWY 14 $
14840KMKG MKG20000620051010706/20/00 05:10:31  5-MIN KMKG 201010Z 13008KT 10SM CLR 16/13 A3003 530 86 800 140/08 RMK AO2 CHINO RWY 14 $
14840KMKG MKG20000620051510706/20/00 05:15:31  5-MIN KMKG 201015Z 13007KT 10SM CLR 16/13 A3003 520 86 800 140/07 RMK AO2 CHINO RWY 14 $
14840KMKG MKG20000620052010706/20/00 05:20:31  5-MIN KMKG 201020Z 14008KT 10SM CLR 16/13 A3003 530 86 800 140/08 RMK AO2 CHINO RWY 14 $
14840KMKG MKG20000620052510706/20/00 05:25:31  5-MIN KMKG 201025Z 14007KT 10SM CLR 16/13 A3003 530 83 800 140/07 RMK AO2 CHINO RWY 14 $
14840KMKG MKG20000620053010706/20/00 05:30:31  5-MIN KMKG 201030Z 14007KT 10SM CLR 16/13 A3003 530 83 800 140/07 RMK AO2 CHINO RWY 14 $
14840KMKG MKG20000620053510706/20/00 05:35:31  5-MIN KMKG 201035Z 14007KT 10SM CLR 16/13 A3003 530 83 800 140/07 RMK AO2 CHINO RWY 14 $
14840KMKG MKG20000620054010706/20/00 05:40:31  5-MIN KMKG 201040Z 14007KT 10SM CLR 16/13 A3003 530 83 800 140/07 RMK AO2 CHINO RWY 14 $
14840KMKG MKG20000620054510706/20/00 05:45:31  5-MIN KMKG 201045Z 13007KT 10SM CLR 16/14 A3003 530 86 800 140/07 RMK AO2 CHINO RWY 14 $
14840KMKG MKG20000620055012406/20/00 05:50:31  5-MIN KMKG 201050Z 13007KT 10SM CLR 17/14 A3003 530 83 900 140/07 RMK AO2 SLP166 T01670139 CHINO RWY 14 $
14840KMKG MKG20000620055512406/20/00 05:55:31  5-MIN KMKG 201055Z 13007KT 10SM CLR 17/14 A3002 530 83 900 140/07 RMK AO2 SLP165 T01670139 CHINO RWY 14 $
14840KMKG MKG20000620060010706/20/00 06:00:31  5-MIN KMKG 201100Z 13007KT 10SM CLR 17/14 A3002 540 83 900 140/07 RMK AO2 CHINO RWY 14 $
14840KMKG MKG20000620060510806/20/00 06:05:31  5-MIN KMKG 201105Z 14008KT 10SM CLR 17/14 A3002 540 80 1000 140/08 RMK AO2 CHINO RWY 14 $
14840KMKG MKG20000620061010806/20/00 06:10:31  5-MIN KMKG 201110Z 14008KT 10SM CLR 18/14 A3002 540 78 1000 140/08 RMK AO2 CHINO RWY 14 $
14840KMKG MKG20000620061510806/20/00 06:15:31  5-MIN KMKG 201115Z 14008KT 10SM CLR 18/14 A3002 540 78 1000 150/08 RMK AO2 CHINO RWY 14 $
14840KMKG MKG20000620062010806/20/00 06:20:31  5-MIN KMKG 201120Z 15008KT 10SM CLR 18/14 A3002 540 78 1000 150/08 RMK AO2 CHINO RWY 14 $
14840KMKG MKG20000620062510806/20/00 06:25:31  5-MIN KMKG 201125Z 15008KT 10SM CLR 18/14 A3002 540 75 1100 150/08 RMK AO2 CHINO RWY 14 $
14840KMKG MKG20000620063010806/20/00 06:30:31  5-MIN KMKG 201130Z 15008KT 10SM CLR 18/14 A3002 540 75 1100 150/08 RMK AO2 CHINO RWY 14 $
14840KMKG MKG20000620063510806/20/00 06:35:31  5-MIN KMKG 201135Z 14008KT 10SM CLR 18/14 A3002 540 75 1100 150/08 RMK AO2 CHINO RWY 14 $
14840KMKG MKG20000620064010806/20/00 06:40:31  5-MIN KMKG 201140Z 14008KT 10SM CLR 18/14 A3002 540 75 1100 150/08 RMK AO2 CHINO RWY 14 $
14840KMKG MKG20000620064510806/20/00 06:45:31  5-MIN KMKG 201145Z 15009KT 10SM CLR 19/14 A3002 540 72 1200 150/09 RMK AO2 CHINO RWY 14 $
14840KMKG MKG20000620065014906/20/00 06:50:31  5-MIN KMKG 201150Z 15008KT 10SM CLR 19/14 A3001 540 72 1200 150/08 RMK AO2 SLP160 7//// T01890139 10189 20156 57017 CHINO RWY 14 $
14840KMKG MKG20000620065514306/20/00 06:55:31  5-MIN KMKG 201155Z 15008KT 10SM CLR 19/14 A3001 540 72 1200 150/08 RMK AO2 SLP160 T01890139 10189 20156 56012 CHINO RWY 14 $
14840KMKG MKG20000620070010806/20/00 07:00:31  5-MIN KMKG 201200Z 15009KT 10SM CLR 19/14 A3001 550 72 1200 160/09 RMK AO2 CHINO RWY 14 $
14840KMKG MKG20000620070510806/20/00 07:05:31  5-MIN KMKG 201205Z 14008KT 10SM CLR 19/14 A3001 550 75 1200 140/08 RMK AO2 CHINO RWY 14 $
14840KMKG MKG20000620071010806/20/00 07:10:31  5-MIN KMKG 201210Z 14009KT 10SM CLR 19/14 A3001 550 72 1200 140/09 RMK AO2 CHINO RWY 14 $
14840KMKG MKG20000620071510806/20/00 07:15:31  5-MIN KMKG 201215Z 14009KT 10SM CLR 19/14 A3001 550 72 1200 140/09 RMK AO2 CHINO RWY 14 $
14840KMKG MKG20000620072010806/20/00 07:20:31  5-MIN KMKG 201220Z 14009KT 10SM CLR 19/14 A3000 550 75 1200 140/09 RMK AO2 CHINO RWY 14 $
14840KMKG MKG20000620072510806/20/00 07:25:31  5-MIN KMKG 201225Z 14009KT 10SM CLR 19/14 A3000 550 75 1200 150/09 RMK AO2 CHINO RWY 14 $
14840KMKG MKG20000620073010806/20/00 07:30:31  5-MIN KMKG 201230Z 14010KT 10SM CLR 19/14 A3000 560 75 1200 150/10 RMK AO2 CHINO RWY 14 $
14840KMKG MKG20000620073510806/20/00 07:35:31  5-MIN KMKG 201235Z 14008KT 10SM CLR 19/14 A3000 560 75 1200 150/08 RMK AO2 CHINO RWY 14 $
14840KMKG MKG20000620074010806/20/00 07:40:31  5-MIN KMKG 201240Z 14010KT 10SM CLR 19/14 A3000 560 75 1200 140/10 RMK AO2 CHINO RWY 14 $
14840KMKG MKG20000620074510806/20/00 07:45:31  5-MIN KMKG 201245Z 14009KT 10SM CLR 19/14 A3000 560 75 1200 150/09 RMK AO2 CHINO RWY 14 $
14840KMKG MKG20000620075012506/20/00 07:50:31  5-MIN KMKG 201250Z 15009KT 10SM CLR 19/14 A2999 560 72 1300 150/09 RMK AO2 SLP155 T01940144 CHINO RWY 14 $
14840KMKG MKG20000620075512506/20/00 07:55:31  5-MIN KMKG 201255Z 15009KT 10SM CLR 19/15 A2999 570 75 1300 150/09 RMK AO2 SLP153 T01940150 CHINO RWY 14 $
14840KMKG MKG20000620080010806/20/00 08:00:31  5-MIN KMKG 201300Z 14010KT 10SM CLR 21/15 A2999 570 70 1400 150/10 RMK AO2 CHINO RWY 14 $
14840KMKG MKG20000620080510806/20/00 08:05:31  5-MIN KMKG 201305Z 14010KT 10SM CLR 21/15 A2999 570 70 1400 150/10 RMK AO2 CHINO RWY 14 $
14840KMKG MKG20000620081010806/20/00 08:10:31  5-MIN KMKG 201310Z 15010KT 10SM CLR 21/15 A2998 570 70 1400 160/10 RMK AO2 CHINO RWY 14 $
14840KMKG MKG20000620081510806/20/00 08:15:31  5-MIN KMKG 201315Z 15009KT 10SM CLR 21/15 A2999 570 70 1400 160/09 RMK AO2 CHINO RWY 14 $
14840KMKG MKG20000620082010806/20/00 08:20:31  5-MIN KMKG 201320Z 15011KT 10SM CLR 21/15 A2998 580 70 1400 160/11 RMK AO2 CHINO RWY 14 $
14840KMKG MKG20000620082510806/20/00 08:25:31  5-MIN KMKG 201325Z 15011KT 10SM CLR 21/15 A2997 580 68 1500 150/11 RMK AO2 CHINO RWY 14 $
14840KMKG MKG20000620083010806/20/00 08:30:31  5-MIN KMKG 201330Z 15009KT 10SM CLR 22/16 A2997 580 68 1500 150/09 RMK AO2 CHINO RWY 14 $
14840KMKG MKG20000620083510806/20/00 08:35:31  5-MIN KMKG 201335Z 15012KT 10SM CLR 21/15 A2997 580 68 1500 150/12 RMK AO2 CHINO RWY 14 $
14840KMKG MKG20000620084010806/20/00 08:40:31  5-MIN KMKG 201340Z 14010KT 10SM CLR 22/16 A2997 590 65 1600 150/10 RMK AO2 CHINO RWY 14 $
14840KMKG MKG20000620084511106/20/00 08:45:31  5-MIN KMKG 201345Z 15011KT 10SM FEW050 22/16 A2997 590 68 1500 150/11 RMK AO2 CHINO RWY 14 $
14840KMKG MKG20000620085012806/20/00 08:50:31  5-MIN KMKG 201350Z 15010KT 10SM FEW050 22/16 A2996 590 68 1500 160/10 RMK AO2 SLP144 T02170156 CHINO RWY 14 $
14840KMKG MKG20000620085512806/20/00 08:55:31  5-MIN KMKG 201355Z 15013KT 10SM FEW050 21/16 A2996 590 70 1500 150/13 RMK AO2 SLP144 T02110156 CHINO RWY 14 $
14840KMKG MKG20000620090011106/20/00 09:00:31  5-MIN KMKG 201400Z 15011KT 10SM FEW050 22/16 A2995 600 68 1600 150/11 RMK AO2 CHINO RWY 14 $
14840KMKG MKG20000620090511706/20/00 09:05:31  5-MIN KMKG 201405Z 15012G19KT 10SM FEW050 22/16 A2995 600 68 1600 150/12G19 RMK AO2 CHINO RWY 14 $
14840KMKG MKG20000620091012406/20/00 09:10:31  5-MIN KMKG 201410Z 15012G19KT 10SM FEW050 SCT085 22/16 A2995 600 68 1600 150/12G19 RMK AO2 CHINO RWY 14 $
14840KMKG MKG20000620091511806/20/00 09:15:31  5-MIN KMKG 201415Z 15011KT 10SM FEW050 SCT080 22/16 A2996 600 68 1600 150/11 RMK AO2 CHINO RWY 14 $
14840KMKG MKG20000620092011806/20/00 09:20:31  5-MIN KMKG 201420Z 16011KT 10SM SCT046 SCT085 22/16 A2995 600 68 1600 160/11 RMK AO2 CHINO RWY 14 $
14840KMKG MKG20000620092511806/20/00 09:25:31  5-MIN KMKG 201425Z 15014KT 10SM BKN046 BKN085 22/16 A2995 600 68 1600 160/14 RMK AO2 CHINO RWY 14 $
14840KMKG MKG20000620093011806/20/00 09:30:31  5-MIN KMKG 201430Z 15013KT 10SM BKN046 BKN080 22/16 A2995 610 68 1600 160/13 RMK AO2 CHINO RWY 14 $
14840KMKG MKG20000620093511806/20/00 09:35:31  5-MIN KMKG 201435Z 15012KT 10SM BKN046 OVC080 22/16 A2994 610 68 1600 150/12 RMK AO2 CHINO RWY 14 $
14840KMKG MKG20000620094011806/20/00 09:40:31  5-MIN KMKG 201440Z 15011KT 10SM BKN044 OVC065 22/16 A2994 610 68 1600 150/11 RMK AO2 CHINO RWY 14 $
14840KMKG MKG20000620094511806/20/00 09:45:31  5-MIN KMKG 201445Z 15011KT 10SM BKN044 OVC060 22/16 A2994 610 68 1600 160/11 RMK AO2 CHINO RWY 14 $
14840KMKG MKG20000620095014106/20/00 09:50:31  5-MIN KMKG 201450Z 15013KT 10SM BKN044 OVC060 22/16 A2994 610 68 1600 150/13 RMK AO2 SLP135 T02220161 56012 CHINO RWY 14 $
14840KMKG MKG20000620095513406/20/00 09:55:31  5-MIN KMKG 201455Z 15013KT 10SM OVC044 22/16 A2994 610 70 1600 150/13 RMK AO2 SLP135 T02170161 58025 CHINO RWY 14 $
14840KMKG MKG20000620100011106/20/00 10:00:31  5-MIN KMKG 201500Z 16011KT 10SM OVC044 22/16 A2994 610 70 1600 160/11 RMK AO2 CHINO RWY 14 $
14840KMKG MKG20000620100511606/20/00 10:05:31  5-MIN KMKG 201505Z 15009KT 7SM OVC044 22/16 A2994 610 70 1600 160/09 RMK AO2 P0001 CHINO RWY 14 $
14840KMKG MKG20000620101014706/20/00 10:10:31  5-MIN KMKG 201510Z 15011KT 1 1/2SM +RA FEW019 OVC042 21/17 A2994 610 81 1400 160/11 RMK AO2 SFC VIS 2 RAB06 P0005 CHINO RWY 14 $
14840KMKG MKG20000620101513706/20/00 10:15:31  5-MIN KMKG 201515Z 16009KT 1 1/2SM +RA FEW019 OVC042 20/17 A2994 610 84 1400 160/09 RMK AO2 RAB06 P0008 CHINO RWY 14 $
14840KMKG MKG20000620102013306/20/00 10:20:31  5-MIN KMKG 201520Z 14011KT 2SM +RA FEW019 OVC042 20/17 A2993 620 84 1400 150/11 RMK AO2 RAB06 P0010 CHINO RWY 14 $
14840KMKG MKG20000620102513906/20/00 10:25:31  5-MIN KMKG 201525Z 15009KT 2 1/2SM RA BR FEW019 OVC040 19/18 A2993 620 90 1300 150/09 RMK AO2 RAB06 P0011 CHINO RWY 14 $
14840KMKG MKG20000620103014206/20/00 10:30:31  5-MIN KMKG 201530Z 14009KT 3SM RA BR FEW019 BKN036 OVC043 20/18 A2993 620 87 1400 140/09 RMK AO2 RAB06 P0011 CHINO RWY 14 $
14840KMKG MKG20000620103514306/20/00 10:35:31  5-MIN KMKG 201535Z 15007KT 4SM -RA BR FEW019 BKN033 BKN040 20/18 A2993 620 90 1400 150/07 RMK AO2 RAB06 P0012 CHINO RWY 14 $
14840KMKG MKG20000620104013606/20/00 10:40:31  5-MIN KMKG 201540Z 15009KT 5SM -RA BR BKN033 OVC039 21/18 A2992 630 87 1500 150/09 RMK AO2 RAB06 P0012 CHINO RWY 14 $
14840KMKG MKG20000620104513606/20/00 10:45:31  5-MIN KMKG 201545Z 14008KT 6SM -RA BR BKN031 OVC039 21/18 A2992 630 87 1500 150/08 RMK AO2 RAB06 P0012 CHINO RWY 14 $
14840KMKG MKG20000620105014606/20/00 10:50:31  5-MIN KMKG 201550Z 14007KT 6SM -RA BR OVC031 21/18 A2991 640 87 1500 150/07 RMK AO2 RAB06 SLP128 P0012 T02060183 CHINO RWY 14 $
14840KMKG MKG20000620105516206/20/00 10:55:31  5-MIN KMKG 201555Z 14008KT 6SM BR OVC031 21/18 A2991 640 87 1500 150/08 RMK AO2 VIS 2 1/2 RWY 14 RAB06E55 SLP128 P0012 T02060183 CHINO RWY 14 $
14840KMKG MKG20000620110012606/20/00 11:00:31  5-MIN KMKG 201600Z 15010KT 6SM BR OVC031 21/19 A2991 640 90 1500 150/10 RMK AO2 VIS 2 RWY 14 CHINO RWY 14 $
14840KMKG MKG20000620110513006/20/00 11:05:31  5-MIN KMKG 201605Z 14010KT 6SM HZ OVC029 21/18 A2990 650 84 1500 140/10 RMK AO2 VIS 1 3/4 RWY 14 CHINO RWY 14 $
14840KMKG MKG20000620111011306/20/00 11:10:31  5-MIN KMKG 201610Z 15011KT 6SM BR OVC029 21/19 A2990 650 87 1600 150/11 RMK AO2 CHINO RWY 14 $
14840KMKG MKG20000620111511306/20/00 11:15:31  5-MIN KMKG 201615Z 15010KT 6SM HZ OVC027 22/19 A2990 650 84 1600 150/10 RMK AO2 CHINO RWY 14 $
14840KMKG MKG20000620112011306/20/00 11:20:31  5-MIN KMKG 201620Z 15011KT 6SM HZ OVC027 22/19 A2990 650 84 1600 150/11 RMK AO2 CHINO RWY 14 $
14840KMKG MKG20000620112511306/20/00 11:25:31  5-MIN KMKG 201625Z 15011KT 6SM HZ OVC025 22/19 A2989 660 84 1600 150/11 RMK AO2 CHINO RWY 14 $
14840KMKG MKG20000620113011306/20/00 11:30:31  5-MIN KMKG 201630Z 16012KT 6SM HZ OVC025 22/19 A2989 660 84 1600 160/12 RMK AO2 CHINO RWY 14 $
14840KMKG MKG20000620113511306/20/00 11:35:31  5-MIN KMKG 201635Z 16012KT 6SM HZ OVC025 22/19 A2989 660 84 1600 160/12 RMK AO2 CHINO RWY 14 $
14840KMKG MKG20000620114011906/20/00 11:40:31  5-MIN KMKG 201640Z 15013G21KT 6SM HZ OVC025 22/19 A2988 660 84 1600 150/13G21 RMK AO2 CHINO RWY 14 $
14840KMKG MKG20000620114511906/20/00 11:45:31  5-MIN KMKG 201645Z 15012G21KT 6SM HZ OVC025 22/19 A2988 660 81 1700 150/12G21 RMK AO2 CHINO RWY 14 $
14840KMKG MKG20000620115013606/20/00 11:50:31  5-MIN KMKG 201650Z 15014G19KT 5SM HZ BKN025 22/19 A2988 670 81 1700 150/14G19 RMK AO2 SLP117 T02220189 CHINO RWY 14 $
14840KMKG MKG20000620115514306/20/00 11:55:31  5-MIN KMKG 201655Z 15014KT 5SM -RA BKN025 22/19 A2988 670 81 1700 150/14 RMK AO2 RAB51 SLP115 P0000 T02220189 CHINO RWY 14 $
14840KMKG MKG20000620120012306/20/00 12:00:31  5-MIN KMKG 201700Z 15013KT 5SM -RA BR BKN025 22/19 A2988 670 87 1600 150/13 RMK AO2 P0000 CHINO RWY 14 $
14840KMKG MKG20000620120512706/20/00 12:05:31  5-MIN KMKG 201705Z 15013KT 5SM -RA BKN025 BKN060 22/19 A2988 670 84 1600 150/13 RMK AO2 P0000 CHINO RWY 14 $
14840KMKG MKG20000620121012706/20/00 12:10:31  5-MIN KMKG 201710Z 15013KT 4SM -RA BKN025 BKN060 22/19 A2987 670 84 1600 150/13 RMK AO2 P0000 CHINO RWY 14 $
14840KMKG MKG20000620121515406/20/00 12:15:31  5-MIN KMKG 201715Z 15012KT 4SM -RA BR BKN025 BKN032 OVC060 22/19 A2987 680 87 1600 150/12 RMK AO2 VIS 1 1/2 RWY 14 P0000 CHINO RWY 14 $
14840KMKG MKG20000620122015406/20/00 12:20:31  5-MIN KMKG 201720Z 15012KT 4SM -RA BR BKN025 BKN032 OVC060 22/19 A2987 680 87 1700 150/12 RMK AO2 VIS 1 1/2 RWY 14 P0000 CHINO RWY 14 $
14840KMKG MKG20000620122513706/20/00 12:25:31  5-MIN KMKG 201725Z 14012KT 4SM -RA BR FEW020 BKN025 OVC065 22/19 A2986 680 87 1700 150/12 RMK AO2 P0000 CHINO RWY 14 $
14840KMKG MKG20000620123013706/20/00 12:30:31  5-MIN KMKG 201730Z 15013KT 4SM -RA BR FEW020 BKN025 OVC065 22/19 A2987 680 87 1700 160/13 RMK AO2 P0000 CHINO RWY 14 $
14840KMKG MKG20000620123513706/20/00 12:35:31  5-MIN KMKG 201735Z 15011KT 4SM -RA BR SCT025 BKN030 OVC065 22/19 A2986 680 87 1700 150/11 RMK AO2 P0001 CHINO RWY 14 $
14840KMKG MKG20000620124013706/20/00 12:40:31  5-MIN KMKG 201740Z 15011KT 4SM -RA BR SCT023 BKN030 BKN070 22/20 A2986 690 87 1700 150/11 RMK AO2 P0001 CHINO RWY 14 $
14840KMKG MKG20000620124513706/20/00 12:45:31  5-MIN KMKG 201745Z 15012KT 4SM -RA BR SCT023 BKN030 BKN055 22/20 A2985 690 87 1700 160/12 RMK AO2 P0001 CHINO RWY 14 $
14840KMKG MKG20000620125017806/20/00 12:50:31  5-MIN KMKG 201750Z 15012KT 3SM -RA BR SCT023 BKN030 BKN055 22/19 A2985 700 87 1700 160/12 RMK AO2 SLP107 P0002 60014 T02170194 10222 20189 58025 CHINO RWY 14 $
14840KMKG MKG20000620125517806/20/00 12:55:31  5-MIN KMKG 201755Z 15011KT 3SM -RA BR FEW018 BKN023 BKN030 22/20 A2985 700 90 1700 150/11 RMK AO2 SLP105 P0002 60014 T02170200 10222 20189 58031 CHINO RWY 14 $
14840KMKG MKG20000620130013006/20/00 13:00:31  5-MIN KMKG 201800Z 15013G20KT 3SM -RA BR FEW018 BKN023 BKN030 22/20 A2984 700 90 1700 150/13G20 RMK AO2 P0000 $
14840KMKG MKG20000620130514706/20/00 13:05:31  5-MIN KMKG 201805Z 14013G20KT 3SM -RA BR FEW018 BKN023 BKN030 22/20 A2984 700 90 1700 150/13G20 RMK AO2 VIS 1 1/4 RWY 14 P0000 $
14840KMKG MKG20000620131014106/20/00 13:10:31  5-MIN KMKG 201810Z 15013KT 3SM -RA BR FEW018 BKN023 BKN030 22/20 A2984 700 90 1700 150/13 RMK AO2 VIS 1 1/2 RWY 14 P0000 $
14840KMKG MKG20000620131513006/20/00 13:15:31  5-MIN KMKG 201815Z 15014KT 3SM -RA BR FEW018 BKN055 22/20 A2984 700 90 1700 160/14 RMK AO2 P0001 CHINO RWY 14 $
14840KMKG MKG20000620132014706/20/00 13:20:31  5-MIN KMKG 201820Z 15014KT 3SM -RA BR FEW018 BKN055 22/20 A2984 710 90 1700 150/14 RMK AO2 VIS 1 1/2 RWY 14 P0001 CHINO RWY 14 $
14840KMKG MKG20000620132514706/20/00 13:25:31  5-MIN KMKG 201825Z 15015KT 3SM -RA BR FEW045 BKN050 22/20 A2984 710 90 1700 150/15 RMK AO2 VIS 1 1/2 RWY 14 P0001 CHINO RWY 14 $
14840KMKG MKG20000620133016006/20/00 13:30:31  5-MIN KMKG 201830Z 15016G20KT 3SM -RA BR FEW045 BKN055 BKN075 22/21 A2983 710 93 1700 150/16G20 RMK AO2 VIS 2 1/2 RWY 14 P0001 CHINO RWY 14 $
14840KMKG MKG20000620133513606/20/00 13:35:31  5-MIN KMKG 201835Z 15014G20KT 4SM -RA BR FEW043 BKN055 22/21 A2983 710 93 1700 160/14G20 RMK AO2 P0001 CHINO RWY 14 $
14840KMKG MKG20000620134014306/20/00 13:40:31  5-MIN KMKG 201840Z 15015G20KT 4SM -RA BR FEW026 BKN050 OVC060 22/21 A2983 720 93 1700 150/15G20 RMK AO2 P0001 CHINO RWY 14 $
14840KMKG MKG20000620134515606/20/00 13:45:31  5-MIN KMKG 201845Z 16014G20KT 4SM -RA BR FEW026 SCT043 OVC055 22/21 A2982 720 90 1800 160/14G20 RMK AO2 VIS 1 RWY 14 P0001 CHINO RWY 14 $
14840KMKG MKG20000620135016706/20/00 13:50:31  5-MIN KMKG 201850Z 16013KT 4SM -RA BR FEW026 BKN060 OVC080 22/20 A2982 720 87 1800 160/13 RMK AO2 VIS 1 RWY 14 SLP097 P0001 T02220200 CHINO RWY 14 $
14840KMKG MKG20000620135516206/20/00 13:55:31  5-MIN KMKG 201855Z 16014G19KT 4SM BR FEW026 BKN060 OVC075 22/21 A2982 720 90 1800 160/14G19 RMK AO2 RAE51 SLP096 P0001 T02220206 CHINO RWY 14 $
14840KMKG MKG20000620140014606/20/00 14:00:31  5-MIN KMKG 201900Z 16014G19KT 4SM BR FEW026 BKN060 BKN075 23/21 A2982 730 87 1800 160/14G19 RMK AO2 VIS 1 RWY 14 CHINO RWY 14 $
14840KMKG MKG20000620140513706/20/00 14:05:31  5-MIN KMKG 201905Z 16015KT 4SM BR FEW026 BKN060 23/21 A2982 730 87 1900 160/15 RMK AO2 VIS 1 1/4 RWY 14 CHINO RWY 14 $
14840KMKG MKG20000620141013306/20/00 14:10:31  5-MIN KMKG 201910Z 15018G21KT 4SM BR FEW026 SCT049 SCT060 23/21 A2981 730 87 1900 150/18G21 RMK AO2 CHINO RWY 14 $
14840KMKG MKG20000620141512606/20/00 14:15:31  5-MIN KMKG 201915Z 16015G21KT 4SM BR FEW024 SCT050 23/21 A2981 740 87 1800 160/15G21 RMK AO2 CHINO RWY 14 $
14840KMKG MKG20000620142012606/20/00 14:20:31  5-MIN KMKG 201920Z 16014G24KT 4SM BR FEW046 SCT085 23/21 A2980 740 87 1900 160/14G24 RMK AO2 CHINO RWY 14 $
14840KMKG MKG20000620142514406/20/00 14:25:31  5-MIN KMKG 201925Z 16019G26KT 4SM HZ FEW023 SCT080 23/21 A2980 740 84 1900 160/19G26 RMK AO2 PK WND 17026/1925 CHINO RWY 14 $
14840KMKG MKG20000620143014406/20/00 14:30:31  5-MIN KMKG 201930Z 16014G26KT 5SM BR FEW023 SCT080 23/21 A2980 740 87 1900 160/14G26 RMK AO2 PK WND 17026/1925 CHINO RWY 14 $
14840KMKG MKG20000620143514406/20/00 14:35:31  5-MIN KMKG 201935Z 16016G21KT 5SM HZ FEW020 SCT080 23/21 A2980 740 84 1900 160/16G21 RMK AO2 PK WND 17026/1925 CHINO RWY 14 $
14840KMKG MKG20000620144014406/20/00 14:40:31  5-MIN KMKG 201940Z 16019G25KT 5SM BR FEW020 SCT080 23/21 A2979 750 87 1900 160/19G25 RMK AO2 PK WND 17026/1925 CHINO RWY 14 $
14840KMKG MKG20000620144513706/20/00 14:45:31  5-MIN KMKG 201945Z 16017G25KT 5SM HZ FEW036 23/21 A2979 750 84 1900 160/17G25 RMK AO2 PK WND 17026/1925 CHINO RWY 14 $
14840KMKG MKG20000620145015406/20/00 14:50:31  5-MIN KMKG 201950Z 16016G23KT 5SM HZ FEW019 23/21 A2979 750 84 1900 160/16G23 RMK AO2 PK WND 17026/1925 SLP086 T02330206 CHINO RWY 14 $
14840KMKG MKG20000620145517706/20/00 14:55:31  5-MIN KMKG 201955Z 16015G23KT 5SM -RA BR FEW019 SCT047 23/21 A2979 750 87 1900 170/15G23 RMK AO2 PK WND 17026/1925 RAB51 SLP086 P0000 T02280206 CHINO RWY 14 $
14840KMKG MKG20000620150014306/20/00 15:00:31  5-MIN KMKG 202000Z 16014G22KT 5SM -RA BR FEW038 BKN047 BKN055 23/21 A2979 750 87 1900 170/14G22 RMK AO2 P0000 CHINO RWY 14 $
14840KMKG MKG20000620150514506/20/00 15:05:31  5-MIN KMKG 202005Z 15015G22KT 5SM BR FEW030 SCT042 BKN050 23/21 A2979 750 87 1900 160/15G22 RMK AO2 RAE01 P0000 CHINO RWY 14 $
14840KMKG MKG20000620151014506/20/00 15:10:31  5-MIN KMKG 202010Z 16012G21KT 4SM HZ FEW030 BKN042 BKN050 24/21 A2979 750 84 2000 160/12G21 RMK AO2 RAE01 P0000 CHINO RWY 14 $
14840KMKG MKG20000620151514006/20/00 15:15:31  5-MIN KMKG 202015Z 16014G23KT 4SM -RA SCT030 BKN042 BKN050 24/21 A2979 750 84 2000 170/14G23 RMK AO2 P0000 CHINO RWY 14 $
14840KMKG MKG20000620152014306/20/00 15:20:31  5-MIN KMKG 202020Z 16013G23KT 4SM -RA BR BKN028 BKN043 BKN050 23/21 A2979 750 87 1900 170/13G23 RMK AO2 P0000 CHINO RWY 14 $
14840KMKG MKG20000620152511706/20/00 15:25:31  5-MIN KMKG 202025Z 17013KT 4SM -RA BR SCT028 BKN043 24/22 A2978 760 87 2000 170/13 RMK AO2 P0000 $
14840KMKG MKG20000620153012506/20/00 15:30:31  5-MIN KMKG 202030Z 17014G20KT 5SM HZ SCT028 BKN043 24/22 A2978 760 84 2100 170/14G20 RMK AO2 RAE30 P0000 $
14840KMKG MKG20000620153513206/20/00 15:35:31  5-MIN KMKG 202035Z 16014G21KT 5SM HZ FEW021 SCT028 BKN043 24/21 A2977 770 84 2000 160/14G21 RMK AO2 RAE30 P0000 $
14840KMKG MKG20000620154013206/20/00 15:40:31  5-MIN KMKG 202040Z 16012G21KT 5SM HZ FEW021 SCT028 BKN043 24/21 A2976 770 84 2000 170/12G21 RMK AO2 RAE30 P0000 $
14840KMKG MKG20000620154513206/20/00 15:45:31  5-MIN KMKG 202045Z 17015G21KT 5SM HZ FEW021 SCT028 BKN043 24/21 A2976 780 84 2000 170/15G21 RMK AO2 RAE30 P0000 $
14840KMKG MKG20000620155016106/20/00 15:50:31  5-MIN KMKG 202050Z 17015KT 5SM HZ FEW019 BKN026 24/21 A2976 770 84 2000 170/15 RMK AO2 RAE30 SLP076 P0000 60001 T02390211 58031 CHINO RWY 14 $
14840KMKG MKG20000620155516106/20/00 15:55:31  5-MIN KMKG 202055Z 16014KT 4SM BR FEW020 OVC025 23/21 A2976 780 87 2000 160/14 RMK AO2 RAE30 SLP074 P0000 60001 T02330211 58029 CHINO RWY 14 $
14840KMKG MKG20000620160013606/20/00 16:00:31  5-MIN KMKG 202100Z 17015KT 3SM -RA BR SCT020 BKN027 23/21 A2977 770 87 2000 170/15 RMK AO2 RAB00 P0004 CHINO RWY 14 $
14840KMKG MKG20000620160517506/20/00 16:05:31  5-MIN KMKG 202105Z 17012KT 3/4SM +TSRA BR FEW004 BKN023 OVC028 22/21 A2976 780 93 1800 170/12 RMK AO2 FRQ LTGICCG RAB00 TSB04 SW MOV NE P0019 CHINO RWY 14 $
14840KMKG MKG20000620161017506/20/00 16:10:31  5-MIN KMKG 202110Z 16009KT 1/2SM +TSRA FG FEW004 BKN022 OVC027 22/21 A2976 780 93 1800 160/09 RMK AO2 FRQ LTGICCG RAB00 TSB04 SW MOV NE P0024 CHINO RWY 14 $
14840KMKG MKG20000620161517306/20/00 16:15:31  5-MIN KMKG 202115Z 15011KT 1SM +TSRA BR FEW012 BKN020 OVC026 22/21 A2975 790 93 1800 150/11 RMK AO2 FRQ LTGICCG RAB00 TSB04 SW MOV NE P0026 CHINO RWY 14 $
14840KMKG MKG20000620162017606/20/00 16:20:31  5-MIN KMKG 202120Z 15010KT 1 1/2SM TSRA BR FEW016 BKN022 OVC031 22/21 A2975 790 93 1800 150/10 RMK AO2 FRQ LTGICCG RAB00 TSB04 SW MOV NE P0028 CHINO RWY 14 $
14840KMKG MKG20000620162517606/20/00 16:25:31  5-MIN KMKG 202125Z 16012KT 1 3/4SM TSRA BR FEW007 BKN018 OVC024 22/21 A2975 790 93 1800 160/12 RMK AO2 FRQ LTGICCG RAB00 TSB04 SW MOV NE P0030 CHINO RWY 14 $
14840KMKG MKG20000620163018806/20/00 16:30:31  5-MIN KMKG 202130Z 16011KT 2 1/2SM -TSRA BR BKN017 OVC023 22/22 A2975 790 97 1900 160/11 RMK AO2 VIS 1 1/2 RWY 14 OCNL LTGICCG RAB00 TSB04 SW MOV NE P0030 CHINO RWY 14 $
14840KMKG MKG20000620163517806/20/00 16:35:31  5-MIN KMKG 202135Z 15015KT 2 1/2SM -TSRA BR FEW016 BKN023 OVC030 22/22 A2974 790 97 1900 160/15 RMK AO2 OCNL LTGICCG RAB00 TSB04 NE MOV NE P0030 CHINO RWY 14 $
14840KMKG MKG20000620164017406/20/00 16:40:31  5-MIN KMKG 202140Z 17012KT 3SM -TSRA BR FEW018 BKN023 OVC030 23/22 A2974 790 93 1900 170/12 RMK AO2 OCNL LTGICCG RAB00 TSB04 NE MOV NE P0030 CHINO RWY 14 $
14840KMKG MKG20000620164515106/20/00 16:45:31  5-MIN KMKG 202145Z 17016G20KT 3SM -RA BR BKN023 OVC030 23/22 A2974 790 93 1900 180/16G20 RMK AO2 RAB00 TSB04E44 P0030 CHINO RWY 14 $
14840KMKG MKG20000620165016806/20/00 16:50:31  5-MIN KMKG 202150Z 18014G21KT 3SM -RA BR BKN023 OVC030 23/22 A2974 790 93 1900 180/14G21 RMK AO2 SLP069 RAB00 TSB04E44 P0030 T02280217 CHINO RWY 14 $
14840KMKG MKG20000620165516406/20/00 16:55:31  5-MIN KMKG 202155Z 19017G23KT 4SM BR BKN023 OVC032 23/22 A2974 790 90 2000 190/17G23 RMK AO2 RAB00 TSB04E40 SLP070 P0030 T02330217 CHINO RWY 14 $
14840KMKG MKG20000620170015106/20/00 17:00:31  5-MIN KMKG 202200Z 18019G26KT 4SM BR SCT023 BKN029 OVC039 23/22 A2975 790 90 2000 180/19G26 RMK AO2 PK WND 18026/2158 CHINO RWY 14 $
14840KMKG MKG20000620170515106/20/00 17:05:31  5-MIN KMKG 202205Z 18016G27KT 4SM BR SCT023 BKN028 OVC035 23/22 A2974 800 90 2000 180/16G27 RMK AO2 PK WND 18027/2203 CHINO RWY 14 $
14840KMKG MKG20000620171015106/20/00 17:10:31  5-MIN KMKG 202210Z 18016G27KT 4SM BR FEW023 SCT028 BKN035 24/22 A2974 800 90 2000 190/16G27 RMK AO2 PK WND 18027/2203 CHINO RWY 14 $
14840KMKG MKG20000620171515106/20/00 17:15:31  5-MIN KMKG 202215Z 18019G25KT 5SM BR FEW023 BKN035 BKN049 24/22 A2974 800 90 2000 190/19G25 RMK AO2 PK WND 18027/2203 CHINO RWY 14 $
14840KMKG MKG20000620172014406/20/00 17:20:31  5-MIN KMKG 202220Z 18022G29KT 5SM BR SCT035 SCT049 24/22 A2974 800 90 2100 190/22G29 RMK AO2 PK WND 19029/2220 CHINO RWY 14 $
14840KMKG MKG20000620172514406/20/00 17:25:31  5-MIN KMKG 202225Z 19020G29KT 5SM BR SCT037 SCT049 24/22 A2974 800 87 2100 190/20G29 RMK AO2 PK WND 19029/2220 CHINO RWY 14 $
14840KMKG MKG20000620173013706/20/00 17:30:31  5-MIN KMKG 202230Z 19021G26KT 5SM BR FEW037 24/22 A2973 800 87 2100 190/21G26 RMK AO2 PK WND 19029/2220 CHINO RWY 14 $
14840KMKG MKG20000620173513706/20/00 17:35:31  5-MIN KMKG 202235Z 18016G26KT 5SM BR FEW040 24/22 A2973 810 87 2100 190/16G26 RMK AO2 PK WND 19029/2220 CHINO RWY 14 $
14840KMKG MKG20000620174013406/20/00 17:40:31  5-MIN KMKG 202240Z 18015G24KT 6SM BR CLR 24/22 A2973 810 87 2100 190/15G24 RMK AO2 PK WND 19029/2220 CHINO RWY 14 $
14840KMKG MKG20000620174513406/20/00 17:45:31  5-MIN KMKG 202245Z 18017G24KT 6SM BR CLR 24/22 A2973 810 87 2100 190/17G24 RMK AO2 PK WND 19029/2220 CHINO RWY 14 $
14840KMKG MKG20000620175014106/20/00 17:50:31  5-MIN KMKG 202250Z 19017G26KT 6SM BR FEW049 24/22 A2973 810 87 2100 190/17G26 RMK AO2 PK WND 19029/2220 SLP064 T02390217 $
14840KMKG MKG20000620175514106/20/00 17:55:31  5-MIN KMKG 202255Z 18017G26KT 6SM BR FEW049 24/22 A2972 810 87 2100 190/17G26 RMK AO2 PK WND 19029/2220 SLP063 T02390217 $
14840KMKG MKG20000620180011906/20/00 18:00:31  5-MIN KMKG 202300Z 19015G24KT 6SM BR FEW030 24/22 A2972 810 87 2100 190/15G24 RMK AO2 CHINO RWY 14 $
14840KMKG MKG20000620180511906/20/00 18:05:31  5-MIN KMKG 202305Z 18017G24KT 6SM BR FEW030 24/22 A2972 820 87 2100 190/17G24 RMK AO2 CHINO RWY 14 $
14840KMKG MKG20000620181011606/20/00 18:10:31  5-MIN KMKG 202310Z 18015G24KT 6SM BR CLR 24/22 A2972 820 87 2100 190/15G24 RMK AO2 CHINO RWY 14 $
14840KMKG MKG20000620181511906/20/00 18:15:31  5-MIN KMKG 202315Z 19017G23KT 6SM BR FEW100 24/22 A2972 820 87 2100 190/17G23 RMK AO2 CHINO RWY 14 $
14840KMKG MKG20000620182011906/20/00 18:20:31  5-MIN KMKG 202320Z 18020G24KT 6SM BR FEW100 24/22 A2972 820 87 2100 190/20G24 RMK AO2 CHINO RWY 14 $
14840KMKG MKG20000620182511906/20/00 18:25:31  5-MIN KMKG 202325Z 18017G24KT 6SM BR FEW100 24/22 A2972 820 87 2100 180/17G24 RMK AO2 CHINO RWY 14 $
14840KMKG MKG20000620183013706/20/00 18:30:31  5-MIN KMKG 202330Z 18020G26KT 6SM BR FEW100 24/22 A2971 820 87 2100 190/20G26 RMK AO2 PK WND 18026/2329 CHINO RWY 14 $
14840KMKG MKG20000620183513706/20/00 18:35:31  5-MIN KMKG 202335Z 18018G26KT 6SM HZ FEW100 24/22 A2972 820 84 2100 190/18G26 RMK AO2 PK WND 18026/2329 CHINO RWY 14 $
14840KMKG MKG20000620184013706/20/00 18:40:31  5-MIN KMKG 202340Z 19016G23KT 6SM HZ FEW100 24/22 A2972 820 84 2100 190/16G23 RMK AO2 PK WND 18026/2329 CHINO RWY 14 $
14840KMKG MKG20000620184513406/20/00 18:45:31  5-MIN KMKG 202345Z 19018G25KT 7SM FEW100 24/22 A2971 820 84 2100 200/18G25 RMK AO2 PK WND 18026/2329 CHINO RWY 14 $
14840KMKG MKG20000620185017206/20/00 18:50:31  5-MIN KMKG 202350Z 19021G25KT 7SM CLR 24/22 A2972 820 84 2100 190/21G25 RMK AO2 PK WND 18026/2329 SLP059 60031 T02440217 10244 20217 58029 CHINO RWY 14 $
14840KMKG MKG20000620185517206/20/00 18:55:31  5-MIN KMKG 202355Z 19018G28KT 7SM CLR 24/22 A2972 820 87 2100 190/18G28 RMK AO2 PK WND 19028/2351 SLP059 60031 T02390217 10244 20217 56013 CHINO RWY 14 $
14840KMKG MKG20000620190013106/20/00 19:00:31  5-MIN KMKG 210000Z 19020G28KT 7SM CLR 24/22 A2972 820 87 2100 190/20G28 RMK AO2 PK WND 19026/0000 CHINO RWY 14 $
14840KMKG MKG20000620190513406/20/00 19:05:31  5-MIN KMKG 210005Z 19020G26KT 7SM FEW029 24/22 A2971 820 87 2100 200/20G26 RMK AO2 PK WND 19026/0004 CHINO RWY 14 $
14840KMKG MKG20000620191013406/20/00 19:10:31  5-MIN KMKG 210010Z 19020G26KT 7SM FEW029 23/21 A2972 820 87 2000 190/20G26 RMK AO2 PK WND 20026/0007 CHINO RWY 14 $
14840KMKG MKG20000620191513406/20/00 19:15:31  5-MIN KMKG 210015Z 19019G26KT 7SM SCT032 23/21 A2972 820 87 2000 190/19G26 RMK AO2 PK WND 20026/0007 CHINO RWY 14 $
14840KMKG MKG20000620192013406/20/00 19:20:31  5-MIN KMKG 210020Z 19022G27KT 8SM BKN032 23/21 A2971 820 87 2000 200/22G27 RMK AO2 PK WND 19027/0020 CHINO RWY 14 $
14840KMKG MKG20000620192513406/20/00 19:25:31  5-MIN KMKG 210025Z 19017G27KT 8SM BKN032 23/21 A2971 820 87 2000 190/17G27 RMK AO2 PK WND 19027/0020 CHINO RWY 14 $
14840KMKG MKG20000620193013406/20/00 19:30:31  5-MIN KMKG 210030Z 19019G26KT 9SM BKN032 23/21 A2971 820 87 2000 190/19G26 RMK AO2 PK WND 19027/0020 CHINO RWY 14 $
14840KMKG MKG20000620193513406/20/00 19:35:31  5-MIN KMKG 210035Z 19018G26KT 9SM BKN032 23/21 A2971 830 87 2000 200/18G26 RMK AO2 PK WND 19027/0020 CHINO RWY 14 $
14840KMKG MKG20000620194013506/20/00 19:40:31  5-MIN KMKG 210040Z 19020G26KT 10SM BKN032 23/21 A2971 830 87 2000 190/20G26 RMK AO2 PK WND 19027/0020 CHINO RWY 14 $
14840KMKG MKG20000620194513506/20/00 19:45:31  5-MIN KMKG 210045Z 19017G24KT 10SM SCT032 22/21 A2971 820 90 1900 190/17G24 RMK AO2 PK WND 19027/0020 CHINO RWY 14 $
14840KMKG MKG20000620195015206/20/00 19:50:31  5-MIN KMKG 210050Z 19017G24KT 10SM FEW030 22/21 A2971 820 90 1900 200/17G24 RMK AO2 PK WND 19027/0020 SLP059 T02220206 CHINO RWY 14 $
14840KMKG MKG20000620195515206/20/00 19:55:31  5-MIN KMKG 210055Z 19018G24KT 10SM FEW033 22/20 A2971 820 87 1900 200/18G24 RMK AO2 PK WND 19027/0020 SLP059 T02220200 CHINO RWY 14 $
14840KMKG MKG20000620200013206/20/00 20:00:31  5-MIN KMKG 210100Z 19018G28KT 10SM CLR 22/20 A2971 820 87 1900 190/18G28 RMK AO2 PK WND 19028/0057 CHINO RWY 14 $
14840KMKG MKG20000620200513206/20/00 20:05:31  5-MIN KMKG 210105Z 19019G28KT 10SM CLR 22/20 A2971 820 87 1900 190/19G28 RMK AO2 PK WND 19028/0057 CHINO RWY 14 $
14840KMKG MKG20000620201013206/20/00 20:10:31  5-MIN KMKG 210110Z 19018G25KT 10SM CLR 22/20 A2971 820 87 1900 190/18G25 RMK AO2 PK WND 19028/0057 CHINO RWY 14 $
14840KMKG MKG20000620201513206/20/00 20:15:31  5-MIN KMKG 210115Z 19018G25KT 10SM CLR 22/21 A2971 820 90 1900 190/18G25 RMK AO2 PK WND 19028/0057 CHINO RWY 14 $
14840KMKG MKG20000620202013206/20/00 20:20:31  5-MIN KMKG 210120Z 19016G25KT 10SM CLR 22/21 A2971 820 90 1900 190/16G25 RMK AO2 PK WND 19028/0057 CHINO RWY 14 $
14840KMKG MKG20000620202513206/20/00 20:25:31  5-MIN KMKG 210125Z 19017G25KT 10SM CLR 22/21 A2971 830 90 1900 190/17G25 RMK AO2 PK WND 19028/0057 CHINO RWY 14 $
14840KMKG MKG20000620203013206/20/00 20:30:31  5-MIN KMKG 210130Z 19015G24KT 10SM CLR 22/21 A2971 830 90 1900 190/15G24 RMK AO2 PK WND 19028/0057 CHINO RWY 14 $
14840KMKG MKG20000620203513206/20/00 20:35:31  5-MIN KMKG 210135Z 19019G24KT 10SM CLR 22/21 A2971 830 90 1900 190/19G24 RMK AO2 PK WND 19028/0057 CHINO RWY 14 $
14840KMKG MKG20000620204013206/20/00 20:40:31  5-MIN KMKG 210140Z 19019G24KT 10SM CLR 22/21 A2970 830 90 1900 190/19G24 RMK AO2 PK WND 19028/0057 CHINO RWY 14 $
14840KMKG MKG20000620204513206/20/00 20:45:31  5-MIN KMKG 210145Z 19016G24KT 10SM CLR 22/21 A2970 830 90 1900 190/16G24 RMK AO2 PK WND 19028/0057 CHINO RWY 14 $
14840KMKG MKG20000620205013906/20/00 20:50:31  5-MIN KMKG 210150Z 19015G23KT 10SM FEW035 22/21 A2970 830 90 1900 190/15G23 RMK AO2 PK WND 19028/0057 SLP054 T02220206 $
14840KMKG MKG20000620205513906/20/00 20:55:31  5-MIN KMKG 210155Z 19013G23KT 10SM FEW035 22/21 A2970 830 93 1800 190/13G23 RMK AO2 PK WND 19028/0057 SLP054 T02170206 $
14840KMKG MKG20000620210011406/20/00 21:00:31  5-MIN KMKG 210200Z 19014G21KT 10SM CLR 22/21 A2970 830 90 1900 190/14G21 RMK AO2 CHINO RWY 14 $
14840KMKG MKG20000620210511406/20/00 21:05:31  5-MIN KMKG 210205Z 19016G21KT 10SM CLR 22/21 A2970 830 90 1900 190/16G21 RMK AO2 CHINO RWY 14 $
14840KMKG MKG20000620211011406/20/00 21:10:31  5-MIN KMKG 210210Z 19018G23KT 10SM CLR 22/21 A2970 830 93 1800 190/18G23 RMK AO2 CHINO RWY 14 $
14840KMKG MKG20000620211511406/20/00 21:15:31  5-MIN KMKG 210215Z 19017G23KT 10SM CLR 22/21 A2970 830 93 1800 190/17G23 RMK AO2 CHINO RWY 14 $
14840KMKG MKG20000620212011406/20/00 21:20:31  5-MIN KMKG 210220Z 19017G22KT 10SM CLR 22/21 A2970 840 93 1800 200/17G22 RMK AO2 CHINO RWY 14 $
14840KMKG MKG20000620212511406/20/00 21:25:31  5-MIN KMKG 210225Z 19017G22KT 10SM CLR 22/21 A2970 840 93 1800 190/17G22 RMK AO2 CHINO RWY 14 $
14840KMKG MKG20000620213011406/20/00 21:30:31  5-MIN KMKG 210230Z 19014G22KT 10SM CLR 22/21 A2970 840 93 1800 200/14G22 RMK AO2 CHINO RWY 14 $
14840KMKG MKG20000620213511406/20/00 21:35:31  5-MIN KMKG 210235Z 19015G20KT 10SM CLR 22/21 A2970 830 93 1800 200/15G20 RMK AO2 CHINO RWY 14 $
14840KMKG MKG20000620214011406/20/00 21:40:31  5-MIN KMKG 210240Z 19016G20KT 10SM CLR 22/21 A2971 830 93 1800 190/16G20 RMK AO2 CHINO RWY 14 $
14840KMKG MKG20000620214511406/20/00 21:45:31  5-MIN KMKG 210245Z 19016G20KT 10SM CLR 22/21 A2971 830 93 1800 200/16G20 RMK AO2 CHINO RWY 14 $
14840KMKG MKG20000620215014006/20/00 21:50:31  5-MIN KMKG 210250Z 19016G24KT 10SM FEW039 22/21 A2971 820 93 1800 200/16G24 RMK AO2 SLP057 T02170206 56013 CHINO RWY 14 $
14840KMKG MKG20000620215514006/20/00 21:55:31  5-MIN KMKG 210255Z 19015G24KT 10SM FEW039 22/21 A2971 820 93 1800 200/15G24 RMK AO2 SLP057 T02170206 55002 CHINO RWY 14 $
14840KMKG MKG20000620220011106/20/00 22:00:31  5-MIN KMKG 210300Z 20015KT 10SM FEW039 22/21 A2971 820 93 1800 200/15 RMK AO2 CHINO RWY 14 $
14840KMKG MKG20000620220511106/20/00 22:05:31  5-MIN KMKG 210305Z 19016KT 10SM FEW039 22/21 A2971 820 93 1800 200/16 RMK AO2 CHINO RWY 14 $
14840KMKG MKG20000620221011706/20/00 22:10:31  5-MIN KMKG 210310Z 20017G22KT 10SM FEW039 22/21 A2971 820 93 1800 200/17G22 RMK AO2 CHINO RWY 14 $
14840KMKG MKG20000620221511706/20/00 22:15:31  5-MIN KMKG 210315Z 19017G22KT 10SM FEW039 22/21 A2972 820 93 1800 200/17G22 RMK AO2 CHINO RWY 14 $
14840KMKG MKG20000620222013206/20/00 22:20:31  5-MIN KMKG 210320Z 19018G26KT 10SM CLR 22/21 A2972 820 93 1800 200/18G26 RMK AO2 PK WND 20026/0316 CHINO RWY 14 $
14840KMKG MKG20000620222513206/20/00 22:25:31  5-MIN KMKG 210325Z 20016G26KT 10SM CLR 22/21 A2972 820 93 1900 210/16G26 RMK AO2 PK WND 20026/0316 CHINO RWY 14 $
14840KMKG MKG20000620223013206/20/00 22:30:31  5-MIN KMKG 210330Z 20016G22KT 10SM CLR 22/21 A2972 820 93 1800 210/16G22 RMK AO2 PK WND 20026/0316 CHINO RWY 14 $
14840KMKG MKG20000620223513206/20/00 22:35:31  5-MIN KMKG 210335Z 20016G22KT 10SM CLR 22/21 A2972 820 90 1900 200/16G22 RMK AO2 PK WND 20026/0316 CHINO RWY 14 $
14840KMKG MKG20000620224012606/20/00 22:40:31  5-MIN KMKG 210340Z 20016KT 10SM CLR 22/21 A2972 820 93 1800 200/16 RMK AO2 PK WND 20026/0316 CHINO RWY 14 $
14840KMKG MKG20000620224512606/20/00 22:45:31  5-MIN KMKG 210345Z 20013KT 10SM CLR 22/21 A2972 820 93 1800 200/13 RMK AO2 PK WND 20026/0316 CHINO RWY 14 $
14840KMKG MKG20000620225014206/20/00 22:50:31  5-MIN KMKG 210350Z 20014KT 9SM CLR 21/21 A2972 820 97 1800 210/14 RMK AO2 PK WND 20026/0316 SLP060 T02110206 CHINO RWY 14 $
14840KMKG MKG20000620225514206/20/00 22:55:31  5-MIN KMKG 210355Z 19017KT 9SM CLR 21/21 A2972 820 97 1800 200/17 RMK AO2 PK WND 20026/0316 SLP060 T02110206 CHINO RWY 14 $
14840KMKG MKG20000620230010706/20/00 23:00:31  5-MIN KMKG 210400Z 20015KT 9SM CLR 21/20 A2972 820 93 1800 200/15 RMK AO2 CHINO RWY 14 $
14840KMKG MKG20000620230510706/20/00 23:05:31  5-MIN KMKG 210405Z 20016KT 9SM CLR 21/20 A2972 820 93 1800 200/16 RMK AO2 CHINO RWY 14 $
14840KMKG MKG20000620231010706/20/00 23:10:31  5-MIN KMKG 210410Z 21015KT 8SM CLR 21/21 A2972 810 97 1800 210/15 RMK AO2 CHINO RWY 14 $
14840KMKG MKG20000620231511606/20/00 23:15:31  5-MIN KMKG 210415Z 20018G24KT 8SM FEW025 22/21 A2972 820 93 1800 200/18G24 RMK AO2 CHINO RWY 14 $
14840KMKG MKG20000620232011606/20/00 23:20:31  5-MIN KMKG 210420Z 20016G24KT 8SM FEW007 21/21 A2972 820 97 1800 200/16G24 RMK AO2 CHINO RWY 14 $
14840KMKG MKG20000620232511606/20/00 23:25:31  5-MIN KMKG 210425Z 20017G24KT 7SM FEW007 21/21 A2971 820 97 1800 200/17G24 RMK AO2 CHINO RWY 14 $
14840KMKG MKG20000620233014106/20/00 23:30:31  5-MIN KMKG 210430Z 20018G26KT 7SM FEW007 SCT025 21/21 A2971 830 97 1800 200/18G26 RMK AO2 PK WND 20026/0427 CHINO RWY 14 $
14840KMKG MKG20000620233514806/20/00 23:35:31  5-MIN KMKG 210435Z 20016G26KT 7SM FEW007 SCT023 BKN030 21/20 A2970 830 93 1800 200/16G26 RMK AO2 PK WND 20026/0427 CHINO RWY 14 $
14840KMKG MKG20000620234014106/20/00 23:40:31  5-MIN KMKG 210440Z 20019G26KT 7SM SCT023 SCT030 21/20 A2970 840 93 1800 200/19G26 RMK AO2 PK WND 20026/0439 CHINO RWY 14 $
14840KMKG MKG20000620234513406/20/00 23:45:31  5-MIN KMKG 210445Z 20019G26KT 8SM FEW023 21/20 A2970 840 93 1800 210/19G26 RMK AO2 PK WND 20026/0439 CHINO RWY 14 $
14840KMKG MKG20000620235016106/20/00 23:50:31  5-MIN KMKG 210450Z 21017G22KT 8SM FEW023 21/20 A2969 840 97 1700 210/17G22 RMK AO2 PK WND 20026/0439 SLP050 T02060200 402440156 CHINO RWY 14 $
14840KMKG MKG20000620235516106/20/00 23:55:31  5-MIN KMKG 210455Z 22016G22KT 8SM SCT023 21/20 A2971 830 97 1700 220/16G22 RMK AO2 PK WND 20026/0439 SLP056 T02060200 402440156 CHINO RWY 14 $
14840KMKG MKG20000621000011606/21/00 00:00:31  5-MIN KMKG 210500Z 22016G22KT 8SM SCT023 21/19 A2972 820 93 1700 220/16G22 RMK AO2 CHINO RWY 14 $
14840KMKG MKG20000621000513006/21/00 00:05:31  5-MIN KMKG 210505Z 21014G22KT 8SM FEW008 SCT023 BKN033 20/19 A2971 820 97 1600 220/14G22 RMK AO2 CHINO RWY 14 $
14840KMKG MKG20000621001013006/21/00 00:10:31  5-MIN KMKG 210510Z 21014G21KT 9SM FEW008 SCT023 BKN033 20/19 A2970 830 93 1600 210/14G21 RMK AO2 CHINO RWY 14 $
14840KMKG MKG20000621001513006/21/00 00:15:31  5-MIN KMKG 210515Z 21014G21KT 9SM FEW008 SCT023 SCT049 19/19 A2970 840 97 1600 210/14G21 RMK AO2 CHINO RWY 14 $
14840KMKG MKG20000621002012406/21/00 00:20:31  5-MIN KMKG 210520Z 21016G22KT 10SM FEW008 SCT023 19/19 A2970 840 97 1600 210/16G22 RMK AO2 CHINO RWY 14 $
14840KMKG MKG20000621002512406/21/00 00:25:31  5-MIN KMKG 210525Z 20017G23KT 10SM FEW008 SCT023 19/19 A2969 850 97 1600 210/17G23 RMK AO2 CHINO RWY 14 $
14840KMKG MKG20000621003011706/21/00 00:30:31  5-MIN KMKG 210530Z 19016G23KT 10SM FEW008 19/19 A2968 850 97 1600 200/16G23 RMK AO2 CHINO RWY 14 $
14840KMKG MKG20000621003511706/21/00 00:35:31  5-MIN KMKG 210535Z 20017G23KT 10SM FEW008 19/19 A2969 840 97 1600 200/17G23 RMK AO2 CHINO RWY 14 $
14840KMKG MKG20000621004011706/21/00 00:40:31  5-MIN KMKG 210540Z 22015G23KT 10SM FEW008 19/18 A2970 840 93 1600 220/15G23 RMK AO2 CHINO RWY 14 $
14840KMKG MKG20000621004511706/21/00 00:45:31  5-MIN KMKG 210545Z 21015G22KT 10SM FEW008 19/18 A2970 840 93 1600 210/15G22 RMK AO2 CHINO RWY 14 $
14840KMKG MKG20000621005015206/21/00 00:50:31  5-MIN KMKG 210550Z 21017G24KT 10SM FEW008 19/18 A2970 830 93 1600 220/17G24 RMK AO2 SLP055 T01940183 10239 20194 55002 CHINO RWY 14 $
14840KMKG MKG20000621005515906/21/00 00:55:31  5-MIN KMKG 210555Z 22020G24KT 10SM FEW008 SCT040 19/18 A2971 830 93 1600 220/20G24 RMK AO2 SLP057 T01940183 10239 20194 58002 CHINO RWY 14 $
14840KMKG MKG20000621010012406/21/00 01:00:31  5-MIN KMKG 210600Z 21017G24KT 10SM FEW008 SCT040 19/18 A2971 830 93 1600 210/17G24 RMK AO2 CHINO RWY 14 $
14840KMKG MKG20000621010512406/21/00 01:05:31  5-MIN KMKG 210605Z 21017G24KT 10SM FEW008 SCT040 19/18 A2971 830 93 1600 220/17G24 RMK AO2 CHINO RWY 14 $
14840KMKG MKG20000621011012406/21/00 01:10:31  5-MIN KMKG 210610Z 21014G24KT 10SM FEW008 SCT040 19/18 A2971 830 93 1600 220/14G24 RMK AO2 CHINO RWY 14 $
14840KMKG MKG20000621011512406/21/00 01:15:31  5-MIN KMKG 210615Z 20014G20KT 10SM FEW008 BKN040 19/18 A2970 830 93 1600 210/14G20 RMK AO2 CHINO RWY 14 $
14840KMKG MKG20000621012012406/21/00 01:20:31  5-MIN KMKG 210620Z 21014G20KT 10SM FEW006 BKN040 19/18 A2971 830 97 1500 220/14G20 RMK AO2 CHINO RWY 14 $
14840KMKG MKG20000621012512406/21/00 01:25:31  5-MIN KMKG 210625Z 21014G19KT 10SM SCT006 BKN040 19/18 A2971 830 97 1500 210/14G19 RMK AO2 CHINO RWY 14 $
14840KMKG MKG20000621013011806/21/00 01:30:31  5-MIN KMKG 210630Z 21015KT 10SM SCT006 BKN040 19/18 A2971 830 97 1500 210/15 RMK AO2 CHINO RWY 14 $
14840KMKG MKG20000621013512506/21/00 01:35:31  5-MIN KMKG 210635Z 20015KT 10SM SCT006 SCT023 BKN040 19/18 A2970 840 97 1500 200/15 RMK AO2 CHINO RWY 14 $
14840KMKG MKG20000621014011806/21/00 01:40:31  5-MIN KMKG 210640Z 20013KT 10SM SCT006 SCT023 19/18 A2970 830 97 1500 210/13 RMK AO2 CHINO RWY 14 $
14840KMKG MKG20000621014511806/21/00 01:45:31  5-MIN KMKG 210645Z 21011KT 10SM SCT006 BKN021 19/18 A2970 830 97 1500 220/11 RMK AO2 CHINO RWY 14 $
14840KMKG MKG20000621015013506/21/00 01:50:31  5-MIN KMKG 210650Z 21012KT 10SM FEW006 BKN021 19/18 A2970 830 97 1500 220/12 RMK AO2 SLP056 T01890183 CHINO RWY 14 $
14840KMKG MKG20000621015513506/21/00 01:55:31  5-MIN KMKG 210655Z 21013KT 10SM FEW006 BKN021 19/18 A2971 830 97 1500 220/13 RMK AO2 SLP057 T01890183 CHINO RWY 14 $
14840KMKG MKG20000621020011106/21/00 02:00:31  5-MIN KMKG 210700Z 20011KT 10SM BKN021 19/18 A2970 840 97 1500 210/11 RMK AO2 CHINO RWY 14 $
14840KMKG MKG20000621020511106/21/00 02:05:31  5-MIN KMKG 210705Z 21013KT 10SM OVC021 19/18 A2970 840 93 1500 210/13 RMK AO2 CHINO RWY 14 $
14840KMKG MKG20000621021012406/21/00 02:10:31  5-MIN KMKG 210710Z 20013G21KT 10SM FEW012 OVC019 19/18 A2969 840 90 1600 210/13G21 RMK AO2 CHINO RWY 14 $
14840KMKG MKG20000621021512406/21/00 02:15:31  5-MIN KMKG 210715Z 20013G21KT 10SM SCT012 OVC019 19/18 A2969 840 90 1600 200/13G21 RMK AO2 CHINO RWY 14 $
14840KMKG MKG20000621022012406/21/00 02:20:31  5-MIN KMKG 210720Z 21011G19KT 10SM BKN012 OVC019 19/18 A2969 840 90 1600 210/11G19 RMK AO2 CHINO RWY 14 $
14840KMKG MKG20000621022511806/21/00 02:25:31  5-MIN KMKG 210725Z 21013KT 10SM BKN012 OVC017 19/18 A2969 840 93 1500 210/13 RMK AO2 CHINO RWY 14 $
14840KMKG MKG20000621023011806/21/00 02:30:31  5-MIN KMKG 210730Z 21014KT 10SM BKN012 OVC017 19/18 A2969 850 93 1500 210/14 RMK AO2 CHINO RWY 14 $
14840KMKG MKG20000621023511106/21/00 02:35:31  5-MIN KMKG 210735Z 21015KT 10SM OVC012 19/18 A2968 850 90 1600 210/15 RMK AO2 CHINO RWY 14 $
14840KMKG MKG20000621024011706/21/00 02:40:31  5-MIN KMKG 210740Z 21013G24KT 10SM OVC012 19/18 A2969 850 90 1600 210/13G24 RMK AO2 CHINO RWY 14 $
14840KMKG MKG20000621024511706/21/00 02:45:31  5-MIN KMKG 210745Z 20016G24KT 10SM OVC012 19/18 A2968 850 90 1600 210/16G24 RMK AO2 CHINO RWY 14 $
14840KMKG MKG20000621025013406/21/00 02:50:31  5-MIN KMKG 210750Z 21015G22KT 10SM OVC012 20/18 A2968 850 87 1700 210/15G22 RMK AO2 SLP047 T02000178 CHINO RWY 14 $
14840KMKG MKG20000621025513406/21/00 02:55:31  5-MIN KMKG 210755Z 21017G21KT 10SM OVC012 21/18 A2968 850 87 1700 210/17G21 RMK AO2 SLP047 T02060183 CHINO RWY 14 $
14840KMKG MKG20000621030011706/21/00 03:00:31  5-MIN KMKG 210800Z 21019G25KT 10SM OVC012 21/19 A2968 850 90 1700 220/19G25 RMK AO2 CHINO RWY 14 $
14840KMKG MKG20000621030513506/21/00 03:05:31  5-MIN KMKG 210805Z 21019G27KT 10SM OVC012 21/19 A2968 850 90 1700 210/19G27 RMK AO2 PK WND 21027/0803 CHINO RWY 14 $
14840KMKG MKG20000621031015106/21/00 03:10:31  5-MIN KMKG 210810Z 21019G27KT 10SM -RA OVC012 21/19 A2967 860 90 1700 210/19G27 RMK AO2 PK WND 21027/0803 RAB10 P0000 CHINO RWY 14 $
14840KMKG MKG20000621031515106/21/00 03:15:31  5-MIN KMKG 210815Z 21023G28KT 10SM -RA OVC012 21/19 A2967 860 90 1700 210/23G28 RMK AO2 PK WND 21028/0815 RAB10 P0001 CHINO RWY 14 $
14840KMKG MKG20000621032015106/21/00 03:20:31  5-MIN KMKG 210820Z 21020G28KT 10SM -RA OVC012 20/19 A2967 860 93 1700 210/20G28 RMK AO2 PK WND 21028/0815 RAB10 P0001 CHINO RWY 14 $
14840KMKG MKG20000621032515006/21/00 03:25:31  5-MIN KMKG 210825Z 21019G24KT 10SM OVC012 20/19 A2967 860 93 1700 210/19G24 RMK AO2 PK WND 21028/0815 RAB10E24 P0001 CHINO RWY 14 $
14840KMKG MKG20000621033016206/21/00 03:30:31  5-MIN KMKG 210830Z 21019G25KT 10SM OVC010 20/19 A2967 860 93 1700 220/19G25 RMK AO2 PK WND 21028/0815 RAB10E24 CIG 007V012 P0001 CHINO RWY 14 $
14840KMKG MKG20000621033515006/21/00 03:35:31  5-MIN KMKG 210835Z 21017G25KT 10SM OVC010 20/19 A2966 870 93 1700 210/17G25 RMK AO2 PK WND 21028/0815 RAB10E24 P0001 CHINO RWY 14 $
14840KMKG MKG20000621034015006/21/00 03:40:31  5-MIN KMKG 210840Z 21018G25KT 10SM OVC010 19/19 A2967 860 97 1600 220/18G25 RMK AO2 PK WND 21028/0815 RAB10E24 P0001 CHINO RWY 14 $
14840KMKG MKG20000621034515006/21/00 03:45:31  5-MIN KMKG 210845Z 21019G26KT 10SM OVC010 19/18 A2967 860 93 1600 220/19G26 RMK AO2 PK WND 21028/0815 RAB10E24 P0001 CHINO RWY 14 $
14840KMKG MKG20000621035019806/21/00 03:50:31  5-MIN KMKG 210850Z 21015G26KT 10SM -RA OVC010 19/18 A2967 860 93 1600 210/15G26 RMK AO2 PK WND 21028/0815 RAB10E24B49 CIG 007V013 SLP043 P0001 60001 T01940183 58002 CHINO RWY 14 $
14840KMKG MKG20000621035518606/21/00 03:55:31  5-MIN KMKG 210855Z 22015G21KT 10SM -RA OVC010 19/18 A2967 870 93 1600 220/15G21 RMK AO2 PK WND 21028/0815 RAB10E24B49 SLP042 P0001 60001 T01940183 58013 CHINO RWY 14 $
14840KMKG MKG20000621040015006/21/00 04:00:31  5-MIN KMKG 210900Z 22017G21KT 10SM BKN010 OVC041 19/18 A2967 870 97 1600 220/17G21 RMK AO2 RAE0858 CIG 007V013 P0000 CHINO RWY 14 $
14840KMKG MKG20000621040513406/21/00 04:05:31  5-MIN KMKG 210905Z 22018G24KT 10SM -RA BKN012 OVC041 19/18 A2967 860 93 1600 220/18G24 RMK AO2 P0000 CHINO RWY 14 $
14840KMKG MKG20000621041013406/21/00 04:10:31  5-MIN KMKG 210910Z 22017G24KT 10SM -RA BKN012 OVC041 19/18 A2967 860 97 1600 220/17G24 RMK AO2 P0000 CHINO RWY 14 $
14840KMKG MKG20000621041512106/21/00 04:15:31  5-MIN KMKG 210915Z 22016KT 10SM -RA OVC012 19/18 A2967 860 97 1600 220/16 RMK AO2 P0000 CHINO RWY 14 $
14840KMKG MKG20000621042012906/21/00 04:20:31  5-MIN KMKG 210920Z 22017G21KT 10SM OVC012 19/18 A2967 870 93 1600 220/17G21 RMK AO2 RAE19 P0000 CHINO RWY 14 $
14840KMKG MKG20000621042512906/21/00 04:25:31  5-MIN KMKG 210925Z 22015G21KT 10SM OVC012 19/19 A2967 860 97 1600 220/15G21 RMK AO2 RAE19 P0000 CHINO RWY 14 $
14840KMKG MKG20000621043012906/21/00 04:30:31  5-MIN KMKG 210930Z 22016G23KT 10SM OVC012 19/18 A2967 860 93 1600 230/16G23 RMK AO2 RAE19 P0000 CHINO RWY 14 $
14840KMKG MKG20000621043513606/21/00 04:35:31  5-MIN KMKG 210935Z 22013G23KT 10SM FEW006 OVC012 19/18 A2967 870 97 1600 220/13G23 RMK AO2 RAE19 P0000 CHINO RWY 14 $
14840KMKG MKG20000621044013006/21/00 04:40:31  5-MIN KMKG 210940Z 22014KT 10SM FEW006 OVC012 19/18 A2967 860 97 1600 230/14 RMK AO2 RAE19 P0000 CHINO RWY 14 $
14840KMKG MKG20000621044513606/21/00 04:45:31  5-MIN KMKG 210945Z 21015G21KT 10SM SCT006 OVC012 19/18 A2967 870 97 1600 210/15G21 RMK AO2 RAE19 P0000 CHINO RWY 14 $
14840KMKG MKG20000621045015206/21/00 04:50:31  5-MIN KMKG 210950Z 22015G21KT 9SM BKN006 OVC012 19/18 A2967 870 93 1600 230/15G21 RMK AO2 RAE19 SLP043 P0000 T01890178 CHINO RWY 14 $
14840KMKG MKG20000621045514606/21/00 04:55:31  5-MIN KMKG 210955Z 22015KT 8SM BKN006 OVC012 18/18 A2967 860 96 1500 220/15 RMK AO2 RAE19 SLP044 P0000 T01830178 CHINO RWY 14 $
14840KMKG MKG20000621050011706/21/00 05:00:31  5-MIN KMKG 211000Z 22015KT 8SM BKN006 OVC012 18/18 A2967 860 96 1500 220/15 RMK AO2 CHINO RWY 14 $
14840KMKG MKG20000621050511706/21/00 05:05:31  5-MIN KMKG 211005Z 21014KT 8SM BKN006 OVC012 18/18 A2967 860 96 1500 220/14 RMK AO2 CHINO RWY 14 $
14840KMKG MKG20000621051011006/21/00 05:10:31  5-MIN KMKG 211010Z 22014KT 8SM OVC006 18/18 A2967 860 96 1500 220/14 RMK AO2 CHINO RWY 14 $
14840KMKG MKG20000621051511006/21/00 05:15:31  5-MIN KMKG 211015Z 22012KT 7SM OVC006 18/18 A2967 870 96 1500 230/12 RMK AO2 CHINO RWY 14 $
14840KMKG MKG20000621052012606/21/00 05:20:31  5-MIN KMKG 211020Z 23011G20KT 6SM BR BKN006 OVC060 18/18 A2967 870 96 1500 230/11G20 RMK AO2 CHINO RWY 14 $
14840KMKG MKG20000621052512606/21/00 05:25:31  5-MIN KMKG 211025Z 22013G20KT 6SM BR BKN006 OVC065 18/18 A2967 860 96 1500 230/13G20 RMK AO2 CHINO RWY 14 $
14840KMKG MKG20000621053012006/21/00 05:30:31  5-MIN KMKG 211030Z 22014KT 6SM BR BKN006 OVC065 18/18 A2967 870 96 1500 230/14 RMK AO2 CHINO RWY 14 $
14840KMKG MKG20000621053512706/21/00 05:35:31  5-MIN KMKG 211035Z 22013KT 6SM BR BKN006 BKN009 OVC060 18/18 A2967 870 96 1500 230/13 RMK AO2 CHINO RWY 14 $
14840KMKG MKG20000621054012006/21/00 05:40:31  5-MIN KMKG 211040Z 23013KT 6SM BR BKN006 OVC060 18/18 A2967 860 96 1500 230/13 RMK AO2 CHINO RWY 14 $
14840KMKG MKG20000621054513206/21/00 05:45:31  5-MIN KMKG 211045Z 23016KT 6SM BR BKN006 OVC060 18/18 A2967 870 96 1500 230/16 RMK AO2 CIG 004V009 CHINO RWY 14 $
14840KMKG MKG20000621055015606/21/00 05:50:31  5-MIN KMKG 211050Z 23014KT 6SM BR BKN006 BKN060 OVC075 18/18 A2967 870 96 1500 230/14 RMK AO2 CIG 004V009 SLP043 T01830178 CHINO RWY 14 $
14840KMKG MKG20000621055515606/21/00 05:55:31  5-MIN KMKG 211055Z 23013KT 6SM BR BKN006 BKN060 OVC075 18/18 A2967 860 96 1500 230/13 RMK AO2 CIG 004V009 SLP044 T01830178 CHINO RWY 14 $
14840KMKG MKG20000621060011706/21/00 06:00:31  5-MIN KMKG 211100Z 23014KT 7SM BKN006 OVC065 18/18 A2967 860 96 1500 230/14 RMK AO2 CHINO RWY 14 $
14840KMKG MKG20000621060512006/21/00 06:05:31  5-MIN KMKG 211105Z 23015KT 6SM BR BKN006 OVC060 18/18 A2967 870 96 1500 230/15 RMK AO2 CHINO RWY 14 $
14840KMKG MKG20000621061012006/21/00 06:10:31  5-MIN KMKG 211110Z 23013KT 6SM BR BKN004 OVC070 18/18 A2967 870 96 1500 230/13 RMK AO2 CHINO RWY 14 $
14840KMKG MKG20000621061512006/21/00 06:15:31  5-MIN KMKG 211115Z 23013KT 6SM BR BKN004 OVC075 18/18 A2967 860 96 1500 230/13 RMK AO2 CHINO RWY 14 $
14840KMKG MKG20000621062012106/21/00 06:20:31  5-MIN KMKG 211120Z 23014KT 6SM BR BKN004 OVC070 18/18 A2967 860 100 1500 240/14 RMK AO2 CHINO RWY 14 $
14840KMKG MKG20000621062511706/21/00 06:25:31  5-MIN KMKG 211125Z 23014KT 7SM BKN004 OVC070 19/18 A2967 860 97 1600 240/14 RMK AO2 CHINO RWY 14 $
14840KMKG MKG20000621063011706/21/00 06:30:31  5-MIN KMKG 211130Z 23013KT 7SM BKN004 OVC070 19/18 A2967 860 97 1600 230/13 RMK AO2 CHINO RWY 14 $
14840KMKG MKG20000621063511706/21/00 06:35:31  5-MIN KMKG 211135Z 23014KT 8SM BKN004 OVC070 19/18 A2967 860 97 1600 230/14 RMK AO2 CHINO RWY 14 $
14840KMKG MKG20000621064011706/21/00 06:40:31  5-MIN KMKG 211140Z 23013KT 7SM BKN004 OVC075 19/18 A2968 850 97 1500 240/13 RMK AO2 CHINO RWY 14 $
14840KMKG MKG20000621064511706/21/00 06:45:31  5-MIN KMKG 211145Z 23015KT 7SM BKN004 OVC070 19/18 A2968 860 97 1500 230/15 RMK AO2 CHINO RWY 14 $
14840KMKG MKG20000621065016406/21/00 06:50:31  5-MIN KMKG 211150Z 23014KT 7SM BKN004 OVC075 19/18 A2968 860 97 1500 230/14 RMK AO2 SLP046 60001 70046 T01890183 10206 20183 58013 CHINO RWY 14 $
14840KMKG MKG20000621065516406/21/00 06:55:31  5-MIN KMKG 211155Z 23014KT 7SM BKN004 OVC075 19/18 A2968 860 97 1500 240/14 RMK AO2 SLP046 60001 70046 T01890183 10206 20183 53004 CHINO RWY 14 $
14840KMKG MKG20000621070012006/21/00 07:00:31  5-MIN KMKG 211200Z 23015KT 6SM BR BKN004 OVC075 19/18 A2968 850 97 1500 230/15 RMK AO2 CHINO RWY 14 $
14840KMKG MKG20000621070511006/21/00 07:05:31  5-MIN KMKG 211205Z 23013KT 7SM OVC004 19/18 A2968 850 97 1500 230/13 RMK AO2 CHINO RWY 14 $
14840KMKG MKG20000621071011406/21/00 07:10:31  5-MIN KMKG 211210Z 24012KT 6SM BR OVC004 18/18 A2968 850 100 1500 240/12 RMK AO2 CHINO RWY 14 $
14840KMKG MKG20000621071511906/21/00 07:15:31  5-MIN KMKG 211215Z 24016G19KT 6SM BR OVC004 18/18 A2968 850 96 1500 240/16G19 RMK AO2 CHINO RWY 14 $
14840KMKG MKG20000621072011906/21/00 07:20:31  5-MIN KMKG 211220Z 23013G19KT 5SM BR OVC004 18/18 A2968 850 96 1500 240/13G19 RMK AO2 CHINO RWY 14 $
14840KMKG MKG20000621072511306/21/00 07:25:31  5-MIN KMKG 211225Z 24013KT 5SM BR OVC004 18/18 A2968 850 96 1500 240/13 RMK AO2 CHINO RWY 14 $
14840KMKG MKG20000621073011306/21/00 07:30:31  5-MIN KMKG 211230Z 24015KT 5SM BR OVC004 18/18 A2968 850 96 1500 240/15 RMK AO2 CHINO RWY 14 $
14840KMKG MKG20000621073511906/21/00 07:35:31  5-MIN KMKG 211235Z 24013G19KT 5SM BR OVC004 19/18 A2968 850 97 1500 240/13G19 RMK AO2 CHINO RWY 14 $
14840KMKG MKG20000621074011906/21/00 07:40:31  5-MIN KMKG 211240Z 24013G19KT 5SM BR OVC004 19/18 A2968 850 97 1500 250/13G19 RMK AO2 CHINO RWY 14 $
14840KMKG MKG20000621074511306/21/00 07:45:31  5-MIN KMKG 211245Z 24014KT 5SM BR OVC004 19/18 A2968 850 97 1500 240/14 RMK AO2 CHINO RWY 14 $
14840KMKG MKG20000621075013606/21/00 07:50:31  5-MIN KMKG 211250Z 24015G18KT 5SM BR OVC004 19/19 A2968 850 97 1600 240/15G18 RMK AO2 SLP048 T01940189 CHINO RWY 14 $
14840KMKG MKG20000621075513606/21/00 07:55:31  5-MIN KMKG 211255Z 24013G18KT 5SM BR OVC004 19/19 A2968 850 97 1600 240/13G18 RMK AO2 SLP049 T01940189 CHINO RWY 14 $
14840KMKG MKG20000621080011306/21/00 08:00:31  5-MIN KMKG 211300Z 25015KT 5SM BR OVC004 19/19 A2968 850 97 1600 250/15 RMK AO2 CHINO RWY 14 $
14840KMKG MKG20000621080511906/21/00 08:05:31  5-MIN KMKG 211305Z 25012G19KT 6SM BR OVC004 19/19 A2969 850 97 1600 260/12G19 RMK AO2 CHINO RWY 14 $
14840KMKG MKG20000621081011606/21/00 08:10:31  5-MIN KMKG 211310Z 24013G19KT 7SM OVC004 20/19 A2968 850 93 1700 250/13G19 RMK AO2 CHINO RWY 14 $
14840KMKG MKG20000621081511006/21/00 08:15:31  5-MIN KMKG 211315Z 25012KT 7SM OVC004 20/19 A2969 850 93 1700 250/12 RMK AO2 CHINO RWY 14 $
14840KMKG MKG20000621082011606/21/00 08:20:31  5-MIN KMKG 211320Z 24012G18KT 8SM OVC004 20/19 A2969 840 93 1700 250/12G18 RMK AO2 CHINO RWY 14 $
14840KMKG MKG20000621082511606/21/00 08:25:31  5-MIN KMKG 211325Z 25013G20KT 8SM OVC004 20/18 A2969 840 90 1700 250/13G20 RMK AO2 CHINO RWY 14 $
14840KMKG MKG20000621083011606/21/00 08:30:31  5-MIN KMKG 211330Z 25013G20KT 8SM OVC004 20/19 A2969 840 93 1700 250/13G20 RMK AO2 CHINO RWY 14 $
14840KMKG MKG20000621083511006/21/00 08:35:31  5-MIN KMKG 211335Z 24012KT 8SM OVC004 20/19 A2969 840 93 1700 250/12 RMK AO2 CHINO RWY 14 $
14840KMKG MKG20000621084011006/21/00 08:40:31  5-MIN KMKG 211340Z 24012KT 8SM BKN004 21/19 A2970 840 90 1700 240/12 RMK AO2 CHINO RWY 14 $
14840KMKG MKG20000621084511006/21/00 08:45:31  5-MIN KMKG 211345Z 25013KT 9SM BKN004 21/19 A2970 830 90 1700 250/13 RMK AO2 CHINO RWY 14 $
14840KMKG MKG20000621085013306/21/00 08:50:31  5-MIN KMKG 211350Z 24015G20KT 9SM SCT004 21/19 A2970 840 90 1700 250/15G20 RMK AO2 SLP053 T02060189 CHINO RWY 14 $
14840KMKG MKG20000621085513306/21/00 08:55:31  5-MIN KMKG 211355Z 24014G20KT 9SM SCT004 21/19 A2970 840 90 1700 240/14G20 RMK AO2 SLP053 T02060189 CHINO RWY 14 $
14840KMKG MKG20000621090011606/21/00 09:00:31  5-MIN KMKG 211400Z 24012G17KT 9SM FEW004 21/19 A2970 830 90 1700 250/12G17 RMK AO2 CHINO RWY 14 $
14840KMKG MKG20000621090511006/21/00 09:05:31  5-MIN KMKG 211405Z 24012KT 9SM FEW006 21/19 A2970 840 87 1800 250/12 RMK AO2 CHINO RWY 14 $
14840KMKG MKG20000621091010706/21/00 09:10:31  5-MIN KMKG 211410Z 24012KT 9SM CLR 21/19 A2970 840 87 1800 250/12 RMK AO2 CHINO RWY 14 $
14840KMKG MKG20000621091511306/21/00 09:15:31  5-MIN KMKG 211415Z 23014G19KT 9SM CLR 21/19 A2970 830 87 1800 240/14G19 RMK AO2 CHINO RWY 14 $
14840KMKG MKG20000621092011406/21/00 09:20:31  5-MIN KMKG 211420Z 23015G19KT 10SM CLR 21/19 A2970 830 87 1800 240/15G19 RMK AO2 CHINO RWY 14 $
14840KMKG MKG20000621092511306/21/00 09:25:31  5-MIN KMKG 211425Z 24014G19KT 9SM CLR 21/18 A2970 830 84 1800 240/14G19 RMK AO2 CHINO RWY 14 $
14840KMKG MKG20000621093010706/21/00 09:30:31  5-MIN KMKG 211430Z 23017KT 9SM CLR 21/18 A2970 830 87 1700 240/17 RMK AO2 CHINO RWY 14 $
14840KMKG MKG20000621093510706/21/00 09:35:31  5-MIN KMKG 211435Z 24017KT 9SM CLR 21/18 A2970 830 87 1700 250/17 RMK AO2 CHINO RWY 14 $
14840KMKG MKG20000621094010306/21/00 09:40:31  5-MIN KMKG 211440Z 24017G21KT 9SM FEW010 21/18 A2971 830 84 1800 240/17G21 RMK AO2 $
14840KMKG MKG20000621094510406/21/00 09:45:31  5-MIN KMKG 211445Z 24013G23KT 10SM FEW010 21/18 A2970 830 84 1800 240/13G23 RMK AO2 $
14840KMKG MKG20000621095012706/21/00 09:50:31  5-MIN KMKG 211450Z 24015G23KT 10SM FEW010 21/18 A2970 830 84 1800 240/15G23 RMK AO2 SLP055 T02110183 53004 $
14840KMKG MKG20000621095512706/21/00 09:55:31  5-MIN KMKG 211455Z 24013G22KT 10SM FEW010 21/18 A2970 830 84 1800 250/13G22 RMK AO2 SLP055 T02110183 53009 $
14840KMKG MKG20000621100010406/21/00 10:00:31  5-MIN KMKG 211500Z 24015G22KT 10SM FEW010 21/18 A2970 830 84 1800 250/15G22 RMK AO2 $
14840KMKG MKG20000621100510406/21/00 10:05:31  5-MIN KMKG 211505Z 24015G20KT 10SM FEW010 21/18 A2971 830 84 1800 240/15G20 RMK AO2 $
14840KMKG MKG20000621101010406/21/00 10:10:31  5-MIN KMKG 211510Z 23013G20KT 10SM FEW010 22/18 A2971 830 81 1800 240/13G20 RMK AO2 $
14840KMKG MKG20000621101509806/21/00 10:15:31  5-MIN KMKG 211515Z 24015KT 10SM FEW010 21/18 A2971 830 81 1800 250/15 RMK AO2 $
14840KMKG MKG20000621102010406/21/00 10:20:31  5-MIN KMKG 211520Z 24014G19KT 10SM FEW010 22/18 A2971 830 78 1800 250/14G19 RMK AO2 $
14840KMKG MKG20000621102509806/21/00 10:25:31  5-MIN KMKG 211525Z 24015KT 10SM FEW010 22/18 A2971 830 78 1800 250/15 RMK AO2 $
14840KMKG MKG20000621103010406/21/00 10:30:31  5-MIN KMKG 211530Z 24013G20KT 10SM FEW010 22/17 A2971 830 75 1800 250/13G20 RMK AO2 $
14840KMKG MKG20000621103509806/21/00 10:35:31  5-MIN KMKG 211535Z 24012KT 10SM FEW010 22/18 A2971 820 78 1800 250/12 RMK AO2 $
14840KMKG MKG20000621104010406/21/00 10:40:31  5-MIN KMKG 211540Z 25015G19KT 10SM FEW019 22/17 A2971 830 75 1800 250/15G19 RMK AO2 $
14840KMKG MKG20000621104509806/21/00 10:45:31  5-MIN KMKG 211545Z 25014KT 10SM FEW019 22/17 A2971 830 75 1800 250/14 RMK AO2 $
14840KMKG MKG20000621105012106/21/00 10:50:31  5-MIN KMKG 211550Z 25015G20KT 10SM FEW019 22/17 A2971 820 73 1800 250/15G20 RMK AO2 SLP058 T02170167 $
14840KMKG MKG20000621105511506/21/00 10:55:31  5-MIN KMKG 211555Z 25014KT 10SM FEW019 22/16 A2971 820 70 1800 250/14 RMK AO2 SLP058 T02170161 $
14840KMKG MKG20000621110010406/21/00 11:00:31  5-MIN KMKG 211600Z 25015G21KT 10SM FEW019 22/16 A2972 820 70 1800 250/15G21 RMK AO2 $
14840KMKG MKG20000621110510406/21/00 11:05:31  5-MIN KMKG 211605Z 25012G22KT 10SM FEW019 22/16 A2972 820 70 1800 250/12G22 RMK AO2 $
14840KMKG MKG20000621111010406/21/00 11:10:31  5-MIN KMKG 211610Z 24015G22KT 10SM FEW019 22/17 A2972 820 70 1900 240/15G22 RMK AO2 $
14840KMKG MKG20000621111510406/21/00 11:15:31  5-MIN KMKG 211615Z 24013G21KT 10SM FEW019 22/16 A2972 810 68 1900 240/13G21 RMK AO2 $
14840KMKG MKG20000621112010406/21/00 11:20:31  5-MIN KMKG 211620Z 24013G19KT 10SM FEW019 22/16 A2972 810 68 1900 240/13G19 RMK AO2 $
14840KMKG MKG20000621112510406/21/00 11:25:31  5-MIN KMKG 211625Z 24014G20KT 10SM FEW019 22/16 A2972 810 68 1900 250/14G20 RMK AO2 $
14840KMKG MKG20000621113010406/21/00 11:30:31  5-MIN KMKG 211630Z 23013G20KT 10SM FEW019 22/16 A2972 810 68 1900 240/13G20 RMK AO2 $
14840KMKG MKG20000621113509806/21/00 11:35:31  5-MIN KMKG 211635Z 24011KT 10SM FEW019 23/16 A2973 810 65 1900 240/11 RMK AO2 $
14840KMKG MKG20000621114010406/21/00 11:40:31  5-MIN KMKG 211640Z 24016G23KT 10SM FEW019 22/16 A2973 810 68 1900 250/16G23 RMK AO2 $
14840KMKG MKG20000621114510406/21/00 11:45:31  5-MIN KMKG 211645Z 23018G23KT 10SM FEW019 22/16 A2973 810 65 1900 240/18G23 RMK AO2 $
14840KMKG MKG20000621115011506/21/00 11:50:31  5-MIN KMKG 211650Z 24014KT 10SM FEW024 23/16 A2973 810 63 1900 250/14 RMK AO2 SLP063 T02280156 $
14840KMKG MKG20000621115512106/21/00 11:55:31  5-MIN KMKG 211655Z 24015G19KT 10SM FEW024 23/16 A2973 810 63 1900 240/15G19 RMK AO2 SLP063 T02280156 $
14840KMKG MKG20000621120010406/21/00 12:00:31  5-MIN KMKG 211700Z 23015G21KT 10SM FEW024 23/16 A2973 810 63 1900 230/15G21 RMK AO2 $
14840KMKG MKG20000621120510406/21/00 12:05:31  5-MIN KMKG 211705Z 23016G21KT 10SM FEW024 23/16 A2973 810 63 1900 240/16G21 RMK AO2 $
14840KMKG MKG20000621121010406/21/00 12:10:31  5-MIN KMKG 211710Z 23017G22KT 10SM FEW024 23/16 A2973 810 63 1900 230/17G22 RMK AO2 $
14840KMKG MKG20000621121510406/21/00 12:15:31  5-MIN KMKG 211715Z 23018G22KT 10SM FEW024 23/15 A2973 810 61 1900 230/18G22 RMK AO2 $
14840KMKG MKG20000621122009806/21/00 12:20:31  5-MIN KMKG 211720Z 23018KT 10SM FEW024 23/15 A2973 810 61 1900 240/18 RMK AO2 $
14840KMKG MKG20000621122509806/21/00 12:25:31  5-MIN KMKG 211725Z 23018KT 10SM FEW024 23/15 A2973 810 61 1900 230/18 RMK AO2 $
14840KMKG MKG20000621123009806/21/00 12:30:31  5-MIN KMKG 211730Z 23017KT 10SM FEW024 23/15 A2973 810 61 1900 240/17 RMK AO2 $
14840KMKG MKG20000621123509806/21/00 12:35:31  5-MIN KMKG 211735Z 23019KT 10SM FEW024 23/15 A2973 810 61 1900 240/19 RMK AO2 $
14840KMKG MKG20000621124010406/21/00 12:40:31  5-MIN KMKG 211740Z 24014G23KT 10SM FEW024 23/15 A2973 810 61 1900 240/14G23 RMK AO2 $
14840KMKG MKG20000621124510406/21/00 12:45:31  5-MIN KMKG 211745Z 23018G23KT 10SM FEW024 23/15 A2973 810 61 1900 240/18G23 RMK AO2 $
14840KMKG MKG20000621125013306/21/00 12:50:31  5-MIN KMKG 211750Z 23015KT 10SM FEW024 23/15 A2973 810 59 2000 240/15 RMK AO2 SLP063 T02330150 10233 20183 53009 $
14840KMKG MKG20000621125513306/21/00 12:55:31  5-MIN KMKG 211755Z 23015KT 10SM FEW024 23/15 A2973 810 59 2000 230/15 RMK AO2 SLP062 T02330150 10233 20183 50007 $
14840KMKG MKG20000621130009806/21/00 13:00:31  5-MIN KMKG 211800Z 22018KT 10SM FEW024 23/15 A2972 820 59 2000 230/18 RMK AO2 $
14840KMKG MKG20000621130509606/21/00 13:05:31  5-MIN KMKG 211805Z 22018KT 10SM FEW024 23/15 A2972 810 59 2000 220/18 RMK AO2
14840KMKG MKG20000621131009606/21/00 13:10:31  5-MIN KMKG 211810Z 22020KT 10SM FEW024 23/14 A2972 810 57 2000 220/20 RMK AO2
14840KMKG MKG20000621131510206/21/00 13:15:31  5-MIN KMKG 211815Z 23018G23KT 10SM FEW024 24/15 A2972 810 57 2100 230/18G23 RMK AO2
14840KMKG MKG20000621132010206/21/00 13:20:31  5-MIN KMKG 211820Z 22017G23KT 10SM FEW024 24/15 A2972 820 57 2100 230/17G23 RMK AO2
14840KMKG MKG20000621132510206/21/00 13:25:31  5-MIN KMKG 211825Z 22019G24KT 10SM FEW024 23/14 A2972 820 57 2000 220/19G24 RMK AO2
14840KMKG MKG20000621133009606/21/00 13:30:31  5-MIN KMKG 211830Z 23018KT 10SM FEW024 23/14 A2972 820 55 2000 230/18 RMK AO2
14840KMKG MKG20000621133510206/21/00 13:35:31  5-MIN KMKG 211835Z 22016G22KT 10SM FEW024 24/14 A2972 820 55 2100 230/16G22 RMK AO2
14840KMKG MKG20000621134010206/21/00 13:40:31  5-MIN KMKG 211840Z 22015G22KT 10SM FEW024 24/14 A2972 820 55 2100 230/15G22 RMK AO2
14840KMKG MKG20000621134510206/21/00 13:45:31  5-MIN KMKG 211845Z 22017G22KT 10SM FEW024 24/14 A2972 820 53 2100 220/17G22 RMK AO2
14840KMKG MKG20000621135011906/21/00 13:50:31  5-MIN KMKG 211850Z 23016G22KT 10SM FEW024 23/14 A2972 820 55 2000 230/16G22 RMK AO2 SLP060 T02330139
14840KMKG MKG20000621135511906/21/00 13:55:31  5-MIN KMKG 211855Z 22015G20KT 10SM FEW024 24/14 A2971 820 55 2100 230/15G20 RMK AO2 SLP058 T02390144
14840KMKG MKG20000621140010206/21/00 14:00:31  5-MIN KMKG 211900Z 22017G20KT 10SM FEW024 23/14 A2972 820 55 2000 230/17G20 RMK AO2
14840KMKG MKG20000621140509606/21/00 14:05:31  5-MIN KMKG 211905Z 22017KT 10SM FEW024 24/14 A2971 820 53 2100 230/17 RMK AO2
14840KMKG MKG20000621141009606/21/00 14:10:31  5-MIN KMKG 211910Z 22016KT 10SM FEW024 23/14 A2972 820 55 2000 230/16 RMK AO2
14840KMKG MKG20000621141509606/21/00 14:15:31  5-MIN KMKG 211915Z 22014KT 10SM FEW024 23/14 A2972 820 55 2000 220/14 RMK AO2
14840KMKG MKG20000621142009606/21/00 14:20:31  5-MIN KMKG 211920Z 23013KT 10SM FEW024 23/14 A2971 820 55 2000 230/13 RMK AO2
14840KMKG MKG20000621142509606/21/00 14:25:31  5-MIN KMKG 211925Z 22013KT 10SM FEW024 24/14 A2971 820 53 2100 230/13 RMK AO2
14840KMKG MKG20000621143009606/21/00 14:30:31  5-MIN KMKG 211930Z 23012KT 10SM FEW024 23/14 A2971 830 55 2000 230/12 RMK AO2
14840KMKG MKG20000621143509606/21/00 14:35:31  5-MIN KMKG 211935Z 23012KT 10SM FEW024 24/14 A2971 830 53 2100 230/12 RMK AO2
14840KMKG MKG20000621144009606/21/00 14:40:31  5-MIN KMKG 211940Z 23014KT 10SM FEW024 23/14 A2971 830 55 2000 230/14 RMK AO2
14840KMKG MKG20000621144509606/21/00 14:45:31  5-MIN KMKG 211945Z 22014KT 10SM FEW024 23/14 A2971 830 55 2000 230/14 RMK AO2
14840KMKG MKG20000621145011306/21/00 14:50:31  5-MIN KMKG 211950Z 23014KT 10SM FEW024 23/13 A2971 830 53 2000 230/14 RMK AO2 SLP056 T02330133
14840KMKG MKG20000621145511306/21/00 14:55:31  5-MIN KMKG 211955Z 23015KT 10SM FEW024 24/14 A2970 830 53 2100 230/15 RMK AO2 SLP055 T02390139
14840KMKG MKG20000621150009606/21/00 15:00:31  5-MIN KMKG 212000Z 23015KT 10SM FEW024 23/13 A2970 830 53 2000 230/15 RMK AO2
14840KMKG MKG20000621150509606/21/00 15:05:31  5-MIN KMKG 212005Z 23013KT 10SM FEW024 23/13 A2970 830 53 2000 230/13 RMK AO2
14840KMKG MKG20000621151009606/21/00 15:10:31  5-MIN KMKG 212010Z 22014KT 10SM FEW024 23/13 A2970 830 53 2000 220/14 RMK AO2
14840KMKG MKG20000621151509606/21/00 15:15:31  5-MIN KMKG 212015Z 22014KT 10SM FEW024 23/13 A2970 840 55 2000 220/14 RMK AO2
14840KMKG MKG20000621152009606/21/00 15:20:31  5-MIN KMKG 212020Z 22013KT 10SM FEW024 23/13 A2970 830 53 2000 220/13 RMK AO2
14840KMKG MKG20000621152509606/21/00 15:25:31  5-MIN KMKG 212025Z 21015KT 10SM FEW024 23/13 A2970 840 51 2000 220/15 RMK AO2
14840KMKG MKG20000621153010206/21/00 15:30:31  5-MIN KMKG 212030Z 22015G19KT 10SM FEW024 23/13 A2970 840 53 2000 220/15G19 RMK AO2
14840KMKG MKG20000621153510206/21/00 15:35:31  5-MIN KMKG 212035Z 22013G19KT 10SM FEW024 23/13 A2969 840 51 2000 220/13G19 RMK AO2
14840KMKG MKG20000621154009606/21/00 15:40:31  5-MIN KMKG 212040Z 22013KT 10SM FEW024 23/13 A2969 840 51 2000 220/13 RMK AO2
14840KMKG MKG20000621154509606/21/00 15:45:31  5-MIN KMKG 212045Z 22013KT 10SM FEW024 23/13 A2969 840 51 2000 220/13 RMK AO2
14840KMKG MKG20000621155011906/21/00 15:50:31  5-MIN KMKG 212050Z 21014KT 10SM FEW024 24/13 A2969 840 51 2100 220/14 RMK AO2 SLP052 T02390133 50007
14840KMKG MKG20000621155511906/21/00 15:55:31  5-MIN KMKG 212055Z 22015KT 10SM FEW024 23/13 A2969 840 51 2000 220/15 RMK AO2 SLP051 T02330128 58011
14840KMKG MKG20000621160009606/21/00 16:00:31  5-MIN KMKG 212100Z 22014KT 10SM FEW024 23/13 A2969 840 51 2000 220/14 RMK AO2
14840KMKG MKG20000621160509606/21/00 16:05:31  5-MIN KMKG 212105Z 22014KT 10SM FEW024 23/13 A2969 850 51 2000 220/14 RMK AO2
14840KMKG MKG20000621161010206/21/00 16:10:31  5-MIN KMKG 212110Z 22014G19KT 10SM FEW024 24/13 A2969 840 49 2100 220/14G19 RMK AO2
14840KMKG MKG20000621161510206/21/00 16:15:31  5-MIN KMKG 212115Z 22014G19KT 10SM FEW024 24/13 A2969 840 49 2100 230/14G19 RMK AO2
14840KMKG MKG20000621162009606/21/00 16:20:31  5-MIN KMKG 212120Z 22013KT 10SM FEW024 24/13 A2969 840 49 2100 220/13 RMK AO2
14840KMKG MKG20000621162509606/21/00 16:25:31  5-MIN KMKG 212125Z 22012KT 10SM FEW024 23/13 A2969 840 51 2000 220/12 RMK AO2
14840KMKG MKG20000621163009606/21/00 16:30:31  5-MIN KMKG 212130Z 21014KT 10SM FEW024 24/13 A2969 840 49 2100 220/14 RMK AO2
14840KMKG MKG20000621163509606/21/00 16:35:31  5-MIN KMKG 212135Z 22014KT 10SM FEW024 23/13 A2969 840 51 2000 220/14 RMK AO2
14840KMKG MKG20000621164010206/21/00 16:40:31  5-MIN KMKG 212140Z 22013G20KT 10SM FEW024 23/13 A2969 840 51 2000 220/13G20 RMK AO2
14840KMKG MKG20000621164510206/21/00 16:45:31  5-MIN KMKG 212145Z 22015G20KT 10SM FEW024 23/12 A2969 840 49 2000 220/15G20 RMK AO2
14840KMKG MKG20000621165011906/21/00 16:50:31  5-MIN KMKG 212150Z 22015G20KT 10SM FEW024 23/12 A2969 840 49 2000 220/15G20 RMK AO2 SLP051 T02330122
14840KMKG MKG20000621165511306/21/00 16:55:31  5-MIN KMKG 212155Z 22013KT 10SM FEW024 23/12 A2969 850 51 2000 220/13 RMK AO2 SLP050 T02280122
14840KMKG MKG20000621170009606/21/00 17:00:31  5-MIN KMKG 212200Z 22016KT 10SM FEW024 23/12 A2969 850 49 2000 220/16 RMK AO2
14840KMKG MKG20000621170509606/21/00 17:05:31  5-MIN KMKG 212205Z 22014KT 10SM FEW024 23/12 A2969 850 51 2000 220/14 RMK AO2
14840KMKG MKG20000621171009606/21/00 17:10:31  5-MIN KMKG 212210Z 22014KT 10SM FEW024 23/13 A2968 850 51 2100 220/14 RMK AO2
14840KMKG MKG20000621171509606/21/00 17:15:31  5-MIN KMKG 212215Z 21014KT 10SM FEW024 23/13 A2968 850 51 2100 220/14 RMK AO2
14840KMKG MKG20000621172009606/21/00 17:20:31  5-MIN KMKG 212220Z 21014KT 10SM FEW024 23/13 A2968 850 53 2000 220/14 RMK AO2
14840KMKG MKG20000621172510206/21/00 17:25:31  5-MIN KMKG 212225Z 22014G19KT 10SM FEW024 23/13 A2968 850 53 2000 220/14G19 RMK AO2
14840KMKG MKG20000621173010206/21/00 17:30:31  5-MIN KMKG 212230Z 22015G19KT 10SM FEW024 23/12 A2968 850 51 2000 220/15G19 RMK AO2
14840KMKG MKG20000621173509606/21/00 17:35:31  5-MIN KMKG 212235Z 22013KT 10SM FEW024 23/12 A2968 850 51 2000 230/13 RMK AO2
14840KMKG MKG20000621174009606/21/00 17:40:31  5-MIN KMKG 212240Z 23017KT 10SM FEW024 23/12 A2968 850 51 2000 230/17 RMK AO2
14840KMKG MKG20000621174509606/21/00 17:45:31  5-MIN KMKG 212245Z 22016KT 10SM FEW024 23/12 A2968 860 51 2000 220/16 RMK AO2
14840KMKG MKG20000621175011306/21/00 17:50:31  5-MIN KMKG 212250Z 22016KT 10SM FEW024 23/12 A2968 860 51 2000 220/16 RMK AO2 SLP046 T02280122
14840KMKG MKG20000621175511906/21/00 17:55:31  5-MIN KMKG 212255Z 23013G20KT 10SM FEW024 23/13 A2968 860 53 2000 230/13G20 RMK AO2 SLP047 T02280128
14840KMKG MKG20000621180009306/21/00 18:00:31  5-MIN KMKG 212300Z 22014KT 10SM CLR 23/13 A2968 860 53 2000 220/14 RMK AO2
14840KMKG MKG20000621180509306/21/00 18:05:31  5-MIN KMKG 212305Z 23015KT 10SM CLR 22/12 A2968 860 52 1900 240/15 RMK AO2
14840KMKG MKG20000621181009906/21/00 18:10:31  5-MIN KMKG 212310Z 22014G21KT 10SM CLR 22/13 A2968 860 56 1900 230/14G21 RMK AO2
14840KMKG MKG20000621181509906/21/00 18:15:31  5-MIN KMKG 212315Z 22014G21KT 10SM CLR 22/13 A2968 860 56 1900 230/14G21 RMK AO2
14840KMKG MKG20000621182009306/21/00 18:20:31  5-MIN KMKG 212320Z 22014KT 10SM CLR 22/13 A2968 860 56 1900 230/14 RMK AO2
14840KMKG MKG20000621182509306/21/00 18:25:31  5-MIN KMKG 212325Z 23014KT 10SM CLR 22/13 A2967 860 56 1900 230/14 RMK AO2
14840KMKG MKG20000621183009606/21/00 18:30:31  5-MIN KMKG 212330Z 23013KT 10SM FEW085 22/13 A2967 860 56 1900 230/13 RMK AO2
14840KMKG MKG20000621183509606/21/00 18:35:31  5-MIN KMKG 212335Z 23014KT 10SM FEW085 21/13 A2967 860 58 1800 230/14 RMK AO2
14840KMKG MKG20000621184009606/21/00 18:40:31  5-MIN KMKG 212340Z 23012KT 10SM SCT080 21/13 A2968 850 58 1800 240/12 RMK AO2
14840KMKG MKG20000621184509606/21/00 18:45:31  5-MIN KMKG 212345Z 23012KT 10SM BKN080 21/13 A2968 850 61 1800 230/12 RMK AO2
14840KMKG MKG20000621185013106/21/00 18:50:31  5-MIN KMKG 212350Z 23012KT 10SM SCT080 21/13 A2967 860 60 1700 240/12 RMK AO2 SLP045 T02060128 10244 20206 58011
14840KMKG MKG20000621185513706/21/00 18:55:31  5-MIN KMKG 212355Z 23013G17KT 10SM SCT080 21/13 A2967 860 60 1700 230/13G17 RMK AO2 SLP045 T02060128 10244 20206 56006
14840KMKG MKG20000621190010206/21/00 19:00:31  5-MIN KMKG 220000Z 23014G17KT 10SM FEW080 21/13 A2967 860 60 1700 230/14G17 RMK AO2
14840KMKG MKG20000621190509606/21/00 19:05:31  5-MIN KMKG 220005Z 23012KT 10SM FEW080 21/12 A2967 860 58 1700 240/12 RMK AO2
14840KMKG MKG20000621191009606/21/00 19:10:31  5-MIN KMKG 220010Z 23012KT 10SM FEW080 21/13 A2967 860 60 1700 230/12 RMK AO2
14840KMKG MKG20000621191509306/21/00 19:15:31  5-MIN KMKG 220015Z 23011KT 10SM CLR 20/13 A2967 860 63 1700 230/11 RMK AO2
14840KMKG MKG20000621192009306/21/00 19:20:31  5-MIN KMKG 220020Z 23011KT 10SM CLR 20/13 A2967 860 63 1700 230/11 RMK AO2
14840KMKG MKG20000621192509306/21/00 19:25:31  5-MIN KMKG 220025Z 23012KT 10SM CLR 20/13 A2968 860 63 1700 230/12 RMK AO2
14840KMKG MKG20000621193009306/21/00 19:30:31  5-MIN KMKG 220030Z 23010KT 10SM CLR 20/13 A2968 860 63 1700 230/10 RMK AO2
14840KMKG MKG20000621193509306/21/00 19:35:31  5-MIN KMKG 220035Z 23009KT 10SM CLR 20/13 A2968 860 63 1700 230/09 RMK AO2
14840KMKG MKG20000621194009306/21/00 19:40:31  5-MIN KMKG 220040Z 23011KT 10SM CLR 19/13 A2968 860 65 1600 230/11 RMK AO2
14840KMKG MKG20000621194509306/21/00 19:45:31  5-MIN KMKG 220045Z 23010KT 10SM CLR 19/13 A2968 860 65 1600 230/10 RMK AO2
14840KMKG MKG20000621195011306/21/00 19:50:31  5-MIN KMKG 220050Z 23012KT 10SM FEW090 19/13 A2968 860 65 1600 240/12 RMK AO2 SLP047 T01940128
14840KMKG MKG20000621195511306/21/00 19:55:31  5-MIN KMKG 220055Z 23009KT 10SM FEW090 19/13 A2968 860 67 1500 240/09 RMK AO2 SLP046 T01890128
14840KMKG MKG20000621200009306/21/00 20:00:31  5-MIN KMKG 220100Z 23010KT 10SM CLR 19/12 A2967 860 65 1600 240/10 RMK AO2
14840KMKG MKG20000621200509306/21/00 20:05:31  5-MIN KMKG 220105Z 24011KT 10SM CLR 19/12 A2968 860 65 1500 240/11 RMK AO2
14840KMKG MKG20000621201009306/21/00 20:10:31  5-MIN KMKG 220110Z 23009KT 10SM CLR 19/12 A2968 860 65 1500 240/09 RMK AO2
14840KMKG MKG20000621201509306/21/00 20:15:31  5-MIN KMKG 220115Z 23010KT 10SM CLR 19/12 A2968 860 65 1600 240/10 RMK AO2
14840KMKG MKG20000621202009306/21/00 20:20:31  5-MIN KMKG 220120Z 23010KT 10SM CLR 19/12 A2968 860 65 1500 240/10 RMK AO2
14840KMKG MKG20000621202509306/21/00 20:25:31  5-MIN KMKG 220125Z 23010KT 10SM CLR 19/12 A2968 860 62 1500 240/10 RMK AO2
14840KMKG MKG20000621203009306/21/00 20:30:31  5-MIN KMKG 220130Z 24008KT 10SM CLR 19/12 A2968 860 62 1500 240/08 RMK AO2
14840KMKG MKG20000621203509306/21/00 20:35:31  5-MIN KMKG 220135Z 24008KT 10SM CLR 19/12 A2968 850 62 1500 250/08 RMK AO2
14840KMKG MKG20000621204009306/21/00 20:40:31  5-MIN KMKG 220140Z 24009KT 10SM CLR 19/12 A2968 850 62 1500 240/09 RMK AO2
14840KMKG MKG20000621204509306/21/00 20:45:31  5-MIN KMKG 220145Z 23010KT 10SM CLR 19/12 A2968 860 62 1500 240/10 RMK AO2
14840KMKG MKG20000621205011306/21/00 20:50:31  5-MIN KMKG 220150Z 24009KT 10SM FEW090 19/11 A2968 860 60 1500 240/09 RMK AO2 SLP046 T01890111
14840KMKG MKG20000621205511906/21/00 20:55:31  5-MIN KMKG 220155Z 25013G18KT 10SM FEW090 19/11 A2968 860 58 1600 250/13G18 RMK AO2 SLP046 T01940111
14840KMKG MKG20000621210009906/21/00 21:00:31  5-MIN KMKG 220200Z 25011G18KT 10SM CLR 19/11 A2968 860 56 1600 250/11G18 RMK AO2
14840KMKG MKG20000621210509906/21/00 21:05:31  5-MIN KMKG 220205Z 25010G16KT 10SM CLR 19/11 A2967 860 56 1600 250/10G16 RMK AO2
14840KMKG MKG20000621211009306/21/00 21:10:31  5-MIN KMKG 220210Z 24011KT 10SM CLR 19/11 A2967 860 56 1600 250/11 RMK AO2
14840KMKG MKG20000621211509306/21/00 21:15:31  5-MIN KMKG 220215Z 24011KT 10SM CLR 19/11 A2967 860 56 1600 250/11 RMK AO2
14840KMKG MKG20000621212009306/21/00 21:20:31  5-MIN KMKG 220220Z 24011KT 10SM CLR 20/11 A2967 860 54 1700 240/11 RMK AO2
14840KMKG MKG20000621212509306/21/00 21:25:31  5-MIN KMKG 220225Z 24012KT 10SM CLR 20/11 A2967 860 54 1700 250/12 RMK AO2
14840KMKG MKG20000621213009906/21/00 21:30:31  5-MIN KMKG 220230Z 24011G18KT 10SM CLR 20/11 A2967 860 54 1700 240/11G18 RMK AO2
14840KMKG MKG20000621213509306/21/00 21:35:31  5-MIN KMKG 220235Z 24012KT 10SM CLR 20/10 A2967 860 52 1700 240/12 RMK AO2
14840KMKG MKG20000621214009906/21/00 21:40:31  5-MIN KMKG 220240Z 24011G18KT 10SM CLR 20/11 A2968 860 54 1700 240/11G18 RMK AO2
14840KMKG MKG20000621214509306/21/00 21:45:31  5-MIN KMKG 220245Z 24011KT 10SM CLR 20/10 A2967 860 52 1700 250/11 RMK AO2
14840KMKG MKG20000621215012206/21/00 21:50:31  5-MIN KMKG 220250Z 24014G18KT 10SM CLR 21/10 A2967 860 50 1700 250/14G18 RMK AO2 SLP046 T02060100 56006
14840KMKG MKG20000621215512206/21/00 21:55:31  5-MIN KMKG 220255Z 24011G18KT 10SM CLR 21/10 A2967 860 50 1700 240/11G18 RMK AO2 SLP046 T02060100 50000
14840KMKG MKG20000621220009306/21/00 22:00:31  5-MIN KMKG 220300Z 23011KT 10SM CLR 20/11 A2967 860 54 1700 230/11 RMK AO2
14840KMKG MKG20000621220509306/21/00 22:05:31  5-MIN KMKG 220305Z 24011KT 10SM CLR 19/11 A2967 860 56 1600 240/11 RMK AO2
14840KMKG MKG20000621221009306/21/00 22:10:31  5-MIN KMKG 220310Z 23013KT 10SM CLR 20/10 A2967 860 52 1700 240/13 RMK AO2
14840KMKG MKG20000621221509906/21/00 22:15:31  5-MIN KMKG 220315Z 24013G18KT 10SM CLR 20/10 A2967 860 52 1700 240/13G18 RMK AO2
14840KMKG MKG20000621222009906/21/00 22:20:31  5-MIN KMKG 220320Z 23015G18KT 10SM CLR 21/10 A2967 860 50 1700 240/15G18 RMK AO2
14840KMKG MKG20000621222509906/21/00 22:25:31  5-MIN KMKG 220325Z 24012G18KT 10SM CLR 21/10 A2967 860 50 1700 240/12G18 RMK AO2
14840KMKG MKG20000621223009306/21/00 22:30:31  5-MIN KMKG 220330Z 23014KT 10SM CLR 21/10 A2967 860 50 1700 230/14 RMK AO2
14840KMKG MKG20000621223509306/21/00 22:35:31  5-MIN KMKG 220335Z 23011KT 10SM CLR 20/11 A2967 860 54 1700 240/11 RMK AO2
14840KMKG MKG20000621224009906/21/00 22:40:31  5-MIN KMKG 220340Z 23015G19KT 10SM CLR 21/10 A2967 860 50 1800 230/15G19 RMK AO2
14840KMKG MKG20000621224509306/21/00 22:45:31  5-MIN KMKG 220345Z 23015KT 10SM CLR 21/10 A2967 860 50 1800 230/15 RMK AO2
14840KMKG MKG20000621225011006/21/00 22:50:31  5-MIN KMKG 220350Z 23015KT 10SM CLR 21/10 A2967 860 50 1800 230/15 RMK AO2 SLP044 T02060100
14840KMKG MKG20000621225511006/21/00 22:55:31  5-MIN KMKG 220355Z 23013KT 10SM CLR 20/10 A2967 860 52 1700 230/13 RMK AO2 SLP045 T02000100
14840KMKG MKG20000621230009306/21/00 23:00:31  5-MIN KMKG 220400Z 23014KT 10SM CLR 20/11 A2967 860 54 1700 230/14 RMK AO2
14840KMKG MKG20000621230509306/21/00 23:05:31  5-MIN KMKG 220405Z 23016KT 10SM CLR 20/11 A2967 870 54 1700 230/16 RMK AO2
14840KMKG MKG20000621231009306/21/00 23:10:31  5-MIN KMKG 220410Z 23016KT 10SM CLR 20/11 A2966 870 54 1700 230/16 RMK AO2
14840KMKG MKG20000621231509306/21/00 23:15:31  5-MIN KMKG 220415Z 22015KT 10SM CLR 20/11 A2966 870 54 1700 230/15 RMK AO2
14840KMKG MKG20000621232009306/21/00 23:20:31  5-MIN KMKG 220420Z 23015KT 10SM CLR 19/11 A2966 870 58 1600 230/15 RMK AO2
14840KMKG MKG20000621232509306/21/00 23:25:31  5-MIN KMKG 220425Z 23016KT 10SM CLR 19/12 A2966 870 62 1600 230/16 RMK AO2
14840KMKG MKG20000621233009306/21/00 23:30:31  5-MIN KMKG 220430Z 22017KT 10SM CLR 19/12 A2966 870 62 1600 230/17 RMK AO2
14840KMKG MKG20000621233509306/21/00 23:35:31  5-MIN KMKG 220435Z 22016KT 10SM CLR 19/11 A2966 880 58 1600 230/16 RMK AO2
14840KMKG MKG20000621234009606/21/00 23:40:31  5-MIN KMKG 220440Z 22016KT 10SM FEW110 19/11 A2966 880 58 1600 230/16 RMK AO2
14840KMKG MKG20000621234510206/21/00 23:45:31  5-MIN KMKG 220445Z 22016G21KT 10SM FEW110 20/11 A2965 880 56 1700 230/16G21 RMK AO2
14840KMKG MKG20000621235012906/21/00 23:50:31  5-MIN KMKG 220450Z 22019G23KT 10SM FEW110 20/11 A2965 880 56 1700 230/19G23 RMK AO2 SLP038 T02000111 402440183
14840KMKG MKG20000621235512906/21/00 23:55:31  5-MIN KMKG 220455Z 23016G23KT 10SM FEW110 20/11 A2966 880 56 1700 230/16G23 RMK AO2 SLP038 T02000111 402440183
14840KMKG MKG20000622000010206/22/00 00:00:31  5-MIN KMKG 220500Z 22014G21KT 10SM FEW110 19/11 A2965 880 58 1600 230/14G21 RMK AO2
14840KMKG MKG20000622000509606/22/00 00:05:31  5-MIN KMKG 220505Z 22016KT 10SM FEW110 19/12 A2965 880 60 1600 230/16 RMK AO2
14840KMKG MKG20000622001009906/22/00 00:10:31  5-MIN KMKG 220510Z 23015G22KT 10SM CLR 19/11 A2965 880 58 1600 230/15G22 RMK AO2
14840KMKG MKG20000622001509906/22/00 00:15:31  5-MIN KMKG 220515Z 22016G22KT 10SM CLR 20/11 A2965 880 56 1700 230/16G22 RMK AO2
14840KMKG MKG20000622002009906/22/00 00:20:31  5-MIN KMKG 220520Z 22017G24KT 10SM CLR 20/11 A2965 880 56 1700 230/17G24 RMK AO2
14840KMKG MKG20000622002509906/22/00 00:25:31  5-MIN KMKG 220525Z 23019G25KT 10SM CLR 20/11 A2965 880 56 1700 230/19G25 RMK AO2
14840KMKG MKG20000622003009906/22/00 00:30:31  5-MIN KMKG 220530Z 22019G25KT 10SM CLR 19/12 A2965 880 60 1600 230/19G25 RMK AO2
14840KMKG MKG20000622003509906/22/00 00:35:31  5-MIN KMKG 220535Z 22018G24KT 10SM CLR 19/12 A2965 880 60 1600 230/18G24 RMK AO2
14840KMKG MKG20000622004011706/22/00 00:40:31  5-MIN KMKG 220540Z 22018G26KT 10SM CLR 19/12 A2965 880 60 1600 230/18G26 RMK AO2 PK WND 23026/0537
14840KMKG MKG20000622004511706/22/00 00:45:31  5-MIN KMKG 220545Z 22019G26KT 10SM CLR 19/12 A2965 880 60 1600 230/19G26 RMK AO2 PK WND 23026/0545
14840KMKG MKG20000622005015206/22/00 00:50:31  5-MIN KMKG 220550Z 23018G26KT 10SM CLR 19/12 A2965 880 60 1600 230/18G26 RMK AO2 PK WND 23026/0545 SLP037 T01940117 10206 20189 50000
14840KMKG MKG20000622005515206/22/00 00:55:31  5-MIN KMKG 220555Z 22019G27KT 10SM CLR 19/12 A2965 880 60 1600 230/19G27 RMK AO2 PK WND 22027/0555 SLP036 T01940117 10206 20189 58009
14840KMKG MKG20000622010011706/22/00 01:00:31  5-MIN KMKG 220600Z 22017G27KT 10SM CLR 19/12 A2964 890 60 1700 230/17G27 RMK AO2 PK WND 22026/0556
14840KMKG MKG20000622010511706/22/00 01:05:31  5-MIN KMKG 220605Z 23020G27KT 10SM CLR 19/12 A2965 880 60 1600 230/20G27 RMK AO2 PK WND 22027/0605
14840KMKG MKG20000622011011706/22/00 01:10:31  5-MIN KMKG 220610Z 23017G27KT 10SM CLR 19/12 A2964 890 62 1600 230/17G27 RMK AO2 PK WND 22027/0605
14840KMKG MKG20000622011511706/22/00 01:15:31  5-MIN KMKG 220615Z 23018G23KT 10SM CLR 19/12 A2964 890 62 1600 240/18G23 RMK AO2 PK WND 22027/0605
14840KMKG MKG20000622012011706/22/00 01:20:31  5-MIN KMKG 220620Z 23019G25KT 10SM CLR 19/12 A2964 890 60 1700 230/19G25 RMK AO2 PK WND 22027/0605
14840KMKG MKG20000622012511706/22/00 01:25:31  5-MIN KMKG 220625Z 23019G25KT 10SM CLR 19/12 A2964 890 60 1700 230/19G25 RMK AO2 PK WND 22027/0605
14840KMKG MKG20000622013011706/22/00 01:30:31  5-MIN KMKG 220630Z 23019G25KT 10SM CLR 19/12 A2964 890 62 1600 230/19G25 RMK AO2 PK WND 22027/0605
14840KMKG MKG20000622013511706/22/00 01:35:31  5-MIN KMKG 220635Z 23018G25KT 10SM CLR 19/12 A2964 890 62 1600 230/18G25 RMK AO2 PK WND 22027/0605
14840KMKG MKG20000622014011706/22/00 01:40:31  5-MIN KMKG 220640Z 23019G25KT 10SM CLR 19/12 A2964 890 62 1600 230/19G25 RMK AO2 PK WND 22027/0605
14840KMKG MKG20000622014511706/22/00 01:45:31  5-MIN KMKG 220645Z 23019G23KT 10SM CLR 19/12 A2964 890 62 1600 230/19G23 RMK AO2 PK WND 22027/0605
14840KMKG MKG20000622015013706/22/00 01:50:31  5-MIN KMKG 220650Z 23017G24KT 10SM FEW110 19/12 A2963 900 62 1600 230/17G24 RMK AO2 PK WND 22027/0605 SLP032 T01890117
14840KMKG MKG20000622015513706/22/00 01:55:31  5-MIN KMKG 220655Z 23019G24KT 10SM SCT110 19/12 A2963 900 62 1600 230/19G24 RMK AO2 PK WND 22027/0605 SLP031 T01890117
14840KMKG MKG20000622020010206/22/00 02:00:31  5-MIN KMKG 220700Z 23018G24KT 10SM BKN110 19/12 A2963 900 62 1600 230/18G24 RMK AO2
14840KMKG MKG20000622020510206/22/00 02:05:31  5-MIN KMKG 220705Z 23020G25KT 10SM BKN110 19/12 A2963 900 60 1700 230/20G25 RMK AO2
14840KMKG MKG20000622021010206/22/00 02:10:31  5-MIN KMKG 220710Z 23018G25KT 10SM BKN110 19/12 A2963 900 60 1700 230/18G25 RMK AO2
14840KMKG MKG20000622021512006/22/00 02:15:31  5-MIN KMKG 220715Z 23021G26KT 10SM OVC110 19/12 A2963 900 60 1700 230/21G26 RMK AO2 PK WND 23026/0715
14840KMKG MKG20000622022012006/22/00 02:20:31  5-MIN KMKG 220720Z 23020G26KT 10SM OVC110 19/12 A2963 900 60 1700 230/20G26 RMK AO2 PK WND 23026/0715
14840KMKG MKG20000622022512006/22/00 02:25:31  5-MIN KMKG 220725Z 23019G24KT 10SM OVC110 19/12 A2963 900 62 1600 240/19G24 RMK AO2 PK WND 23026/0715
14840KMKG MKG20000622023012006/22/00 02:30:31  5-MIN KMKG 220730Z 23017G24KT 10SM OVC110 19/12 A2963 900 60 1700 240/17G24 RMK AO2 PK WND 23026/0715
14840KMKG MKG20000622023512006/22/00 02:35:31  5-MIN KMKG 220735Z 23016G22KT 10SM OVC110 19/12 A2963 900 62 1600 240/16G22 RMK AO2 PK WND 23026/0715
14840KMKG MKG20000622024012006/22/00 02:40:31  5-MIN KMKG 220740Z 23018G22KT 10SM OVC110 19/12 A2963 900 62 1600 230/18G22 RMK AO2 PK WND 23026/0715
14840KMKG MKG20000622024512006/22/00 02:45:31  5-MIN KMKG 220745Z 23019G24KT 10SM OVC110 19/12 A2963 900 65 1600 240/19G24 RMK AO2 PK WND 23026/0715
14840KMKG MKG20000622025013706/22/00 02:50:31  5-MIN KMKG 220750Z 23018G24KT 10SM OVC110 19/12 A2963 900 62 1600 230/18G24 RMK AO2 PK WND 23026/0715 SLP031 T01890117
14840KMKG MKG20000622025513706/22/00 02:55:31  5-MIN KMKG 220755Z 23016G21KT 10SM OVC110 19/12 A2963 900 65 1600 230/16G21 RMK AO2 PK WND 23026/0715 SLP030 T01890122
14840KMKG MKG20000622030010206/22/00 03:00:31  5-MIN KMKG 220800Z 23017G21KT 10SM OVC110 19/12 A2963 900 65 1600 240/17G21 RMK AO2
14840KMKG MKG20000622030510206/22/00 03:05:31  5-MIN KMKG 220805Z 23017G23KT 10SM OVC110 18/12 A2963 900 67 1500 230/17G23 RMK AO2
14840KMKG MKG20000622031010206/22/00 03:10:31  5-MIN KMKG 220810Z 23019G24KT 10SM OVC110 18/12 A2963 900 67 1500 230/19G24 RMK AO2
14840KMKG MKG20000622031510206/22/00 03:15:31  5-MIN KMKG 220815Z 23017G24KT 10SM OVC110 18/12 A2963 900 67 1500 230/17G24 RMK AO2
14840KMKG MKG20000622032010206/22/00 03:20:31  5-MIN KMKG 220820Z 23015G23KT 10SM OVC110 18/12 A2963 900 67 1500 240/15G23 RMK AO2
14840KMKG MKG20000622032510206/22/00 03:25:31  5-MIN KMKG 220825Z 23018G24KT 10SM OVC110 19/12 A2963 900 65 1600 230/18G24 RMK AO2
14840KMKG MKG20000622033010206/22/00 03:30:31  5-MIN KMKG 220830Z 23018G24KT 10SM OVC110 19/12 A2963 900 65 1600 230/18G24 RMK AO2
14840KMKG MKG20000622033510206/22/00 03:35:31  5-MIN KMKG 220835Z 23015G23KT 10SM OVC110 18/12 A2963 900 67 1500 240/15G23 RMK AO2
14840KMKG MKG20000622034010206/22/00 03:40:31  5-MIN KMKG 220840Z 23015G23KT 10SM OVC110 18/12 A2962 900 67 1500 240/15G23 RMK AO2
14840KMKG MKG20000622034510206/22/00 03:45:31  5-MIN KMKG 220845Z 23014G21KT 10SM OVC110 18/12 A2962 910 67 1500 240/14G21 RMK AO2
14840KMKG MKG20000622035012506/22/00 03:50:31  5-MIN KMKG 220850Z 23017G22KT 10SM OVC110 18/12 A2962 900 67 1500 240/17G22 RMK AO2 SLP029 T01830122 58009
14840KMKG MKG20000622035512506/22/00 03:55:31  5-MIN KMKG 220855Z 23016G23KT 10SM OVC110 18/12 A2962 910 67 1500 230/16G23 RMK AO2 SLP028 T01830122 56008
14840KMKG MKG20000622040010206/22/00 04:00:31  5-MIN KMKG 220900Z 23014G23KT 10SM OVC110 18/12 A2962 910 67 1500 230/14G23 RMK AO2
14840KMKG MKG20000622040510206/22/00 04:05:31  5-MIN KMKG 220905Z 23017G22KT 10SM OVC110 18/12 A2962 910 67 1500 230/17G22 RMK AO2
14840KMKG MKG20000622041010206/22/00 04:10:31  5-MIN KMKG 220910Z 23015G24KT 10SM OVC110 18/12 A2962 910 67 1500 240/15G24 RMK AO2
14840KMKG MKG20000622041510206/22/00 04:15:31  5-MIN KMKG 220915Z 23017G24KT 10SM OVC110 18/12 A2962 910 67 1600 240/17G24 RMK AO2
14840KMKG MKG20000622042012006/22/00 04:20:31  5-MIN KMKG 220920Z 23017G26KT 10SM OVC110 19/12 A2962 910 65 1600 230/17G26 RMK AO2 PK WND 24026/0916
14840KMKG MKG20000622042512006/22/00 04:25:31  5-MIN KMKG 220925Z 23014G26KT 10SM OVC110 19/12 A2962 910 65 1600 240/14G26 RMK AO2 PK WND 24026/0916
14840KMKG MKG20000622043012006/22/00 04:30:31  5-MIN KMKG 220930Z 23016G21KT 10SM OVC100 18/12 A2962 910 67 1500 230/16G21 RMK AO2 PK WND 24026/0916
14840KMKG MKG20000622043512006/22/00 04:35:31  5-MIN KMKG 220935Z 24015G22KT 10SM OVC100 18/12 A2962 910 67 1600 240/15G22 RMK AO2 PK WND 24026/0916
14840KMKG MKG20000622044012006/22/00 04:40:31  5-MIN KMKG 220940Z 23016G22KT 10SM OVC100 18/12 A2962 910 67 1500 240/16G22 RMK AO2 PK WND 24026/0916
14840KMKG MKG20000622044511406/22/00 04:45:31  5-MIN KMKG 220945Z 24014KT 10SM OVC100 18/12 A2962 910 69 1500 240/14 RMK AO2 PK WND 24026/0916
14840KMKG MKG20000622045013106/22/00 04:50:31  5-MIN KMKG 220950Z 23016KT 10SM OVC100 18/13 A2962 910 72 1500 230/16 RMK AO2 PK WND 24026/0916 SLP029 T01780128
14840KMKG MKG20000622045513706/22/00 04:55:31  5-MIN KMKG 220955Z 23018G23KT 10SM OVC100 18/13 A2962 910 72 1500 230/18G23 RMK AO2 PK WND 24026/0916 SLP029 T01780128
14840KMKG MKG20000622050010206/22/00 05:00:31  5-MIN KMKG 221000Z 24016G23KT 10SM OVC100 18/12 A2962 910 69 1500 240/16G23 RMK AO2
14840KMKG MKG20000622050510206/22/00 05:05:31  5-MIN KMKG 221005Z 23016G23KT 10SM OVC100 18/12 A2962 910 69 1500 230/16G23 RMK AO2
14840KMKG MKG20000622051010206/22/00 05:10:31  5-MIN KMKG 221010Z 23017G23KT 10SM OVC100 18/12 A2962 910 69 1500 240/17G23 RMK AO2
14840KMKG MKG20000622051510206/22/00 05:15:31  5-MIN KMKG 221015Z 24016G21KT 10SM OVC100 18/12 A2962 910 67 1500 240/16G21 RMK AO2
14840KMKG MKG20000622052010206/22/00 05:20:31  5-MIN KMKG 221020Z 24016G24KT 10SM OVC100 18/12 A2962 900 67 1500 250/16G24 RMK AO2
14840KMKG MKG20000622052510206/22/00 05:25:31  5-MIN KMKG 221025Z 24014G24KT 10SM OVC100 18/12 A2963 900 69 1500 250/14G24 RMK AO2
14840KMKG MKG20000622053010206/22/00 05:30:31  5-MIN KMKG 221030Z 24014G20KT 10SM OVC100 18/12 A2962 910 69 1500 250/14G20 RMK AO2
14840KMKG MKG20000622053510206/22/00 05:35:31  5-MIN KMKG 221035Z 23016G22KT 10SM OVC100 18/12 A2963 900 69 1500 240/16G22 RMK AO2
14840KMKG MKG20000622054010206/22/00 05:40:31  5-MIN KMKG 221040Z 24014G22KT 10SM OVC100 18/12 A2963 900 69 1500 240/14G22 RMK AO2
14840KMKG MKG20000622054512006/22/00 05:45:31  5-MIN KMKG 221045Z 24013G26KT 10SM OVC100 18/12 A2963 900 67 1500 250/13G26 RMK AO2 PK WND 25026/1041
14840KMKG MKG20000622055013706/22/00 05:50:31  5-MIN KMKG 221050Z 24016G26KT 10SM OVC100 18/12 A2963 900 69 1500 250/16G26 RMK AO2 PK WND 25026/1041 SLP031 T01780122
14840KMKG MKG20000622055513706/22/00 05:55:31  5-MIN KMKG 221055Z 25013G23KT 10SM OVC100 18/12 A2963 900 69 1500 250/13G23 RMK AO2 PK WND 25026/1041 SLP032 T01780122
14840KMKG MKG20000622060010206/22/00 06:00:31  5-MIN KMKG 221100Z 25016G22KT 10SM OVC100 18/12 A2964 890 69 1500 250/16G22 RMK AO2
14840KMKG MKG20000622060510206/22/00 06:05:31  5-MIN KMKG 221105Z 25014G22KT 10SM OVC100 18/12 A2964 890 67 1500 250/14G22 RMK AO2
14840KMKG MKG20000622061010206/22/00 06:10:31  5-MIN KMKG 221110Z 25015G20KT 10SM OVC100 18/12 A2964 890 67 1500 250/15G20 RMK AO2
14840KMKG MKG20000622061510206/22/00 06:15:31  5-MIN KMKG 221115Z 25014G20KT 10SM OVC100 18/12 A2964 890 67 1500 250/14G20 RMK AO2
14840KMKG MKG20000622062010206/22/00 06:20:31  5-MIN KMKG 221120Z 25014G20KT 10SM OVC100 18/12 A2964 890 67 1500 250/14G20 RMK AO2
14840KMKG MKG20000622062510206/22/00 06:25:31  5-MIN KMKG 221125Z 25017G22KT 10SM OVC100 18/12 A2964 890 67 1500 250/17G22 RMK AO2
14840KMKG MKG20000622063010206/22/00 06:30:31  5-MIN KMKG 221130Z 25017G24KT 10SM OVC100 18/12 A2965 880 67 1500 250/17G24 RMK AO2
14840KMKG MKG20000622063510206/22/00 06:35:31  5-MIN KMKG 221135Z 25016G24KT 10SM OVC100 18/12 A2965 880 67 1500 250/16G24 RMK AO2
14840KMKG MKG20000622064010206/22/00 06:40:31  5-MIN KMKG 221140Z 25015G24KT 10SM OVC100 19/12 A2965 880 65 1600 250/15G24 RMK AO2
14840KMKG MKG20000622064510206/22/00 06:45:31  5-MIN KMKG 221145Z 25015G22KT 10SM OVC100 18/12 A2965 880 67 1500 250/15G22 RMK AO2
14840KMKG MKG20000622065013706/22/00 06:50:31  5-MIN KMKG 221150Z 25013G21KT 10SM OVC100 18/12 A2966 870 67 1500 250/13G21 RMK AO2 SLP040 T01830122 10194 20178 56008
14840KMKG MKG20000622065513706/22/00 06:55:31  5-MIN KMKG 221155Z 25017G22KT 10SM OVC100 18/12 A2966 870 67 1500 260/17G22 RMK AO2 SLP041 T01830122 10194 20178 53012
14840KMKG MKG20000622070010206/22/00 07:00:31  5-MIN KMKG 221200Z 25013G22KT 10SM OVC100 18/12 A2966 870 67 1500 260/13G22 RMK AO2
14840KMKG MKG20000622070509606/22/00 07:05:31  5-MIN KMKG 221205Z 25012KT 10SM OVC095 18/12 A2966 870 67 1500 260/12 RMK AO2
14840KMKG MKG20000622071010306/22/00 07:10:31  5-MIN KMKG 221210Z 26015KT 10SM BKN090 OVC100 18/12 A2966 870 67 1500 260/15 RMK AO2
14840KMKG MKG20000622071510906/22/00 07:15:31  5-MIN KMKG 221215Z 26015G20KT 10SM BKN090 OVC100 18/12 A2966 870 67 1500 270/15G20 RMK AO2
14840KMKG MKG20000622072010906/22/00 07:20:31  5-MIN KMKG 221220Z 26015G20KT 10SM FEW060 OVC095 18/12 A2967 860 67 1500 270/15G20 RMK AO2
14840KMKG MKG20000622072510906/22/00 07:25:31  5-MIN KMKG 221225Z 26015G21KT 10SM SCT060 OVC095 18/12 A2967 860 67 1500 270/15G21 RMK AO2
14840KMKG MKG20000622073013106/22/00 07:30:31  5-MIN KMKG 221230Z 26014G21KT 10SM SCT055 BKN090 OVC100 18/12 A2968 860 67 1500 270/14G21 RMK AO2 CIG 055 RWY 14
14840KMKG MKG20000622073511606/22/00 07:35:31  5-MIN KMKG 221235Z 26012G19KT 10SM BKN050 BKN065 OVC090 18/12 A2968 860 67 1500 270/12G19 RMK AO2
14840KMKG MKG20000622074011606/22/00 07:40:31  5-MIN KMKG 221240Z 26017G21KT 10SM BKN050 BKN065 OVC100 19/12 A2967 860 65 1600 270/17G21 RMK AO2
14840KMKG MKG20000622074510206/22/00 07:45:31  5-MIN KMKG 221245Z 26011G21KT 10SM OVC055 19/12 A2968 860 65 1500 270/11G21 RMK AO2
14840KMKG MKG20000622075011906/22/00 07:50:31  5-MIN KMKG 221250Z 27016G22KT 10SM OVC055 19/12 A2968 850 65 1500 270/16G22 RMK AO2 SLP047 T01890122
14840KMKG MKG20000622075511906/22/00 07:55:31  5-MIN KMKG 221255Z 26014G22KT 10SM OVC055 19/12 A2968 850 65 1500 270/14G22 RMK AO2 SLP049 T01890122
14840KMKG MKG20000622080010206/22/00 08:00:31  5-MIN KMKG 221300Z 26013G21KT 10SM OVC055 18/12 A2968 850 67 1500 270/13G21 RMK AO2
14840KMKG MKG20000622080510206/22/00 08:05:31  5-MIN KMKG 221305Z 26016G22KT 10SM OVC055 18/12 A2969 850 67 1500 260/16G22 RMK AO2
14840KMKG MKG20000622081010906/22/00 08:10:31  5-MIN KMKG 221310Z 26012G22KT 10SM BKN055 OVC095 18/13 A2969 850 70 1500 260/12G22 RMK AO2
14840KMKG MKG20000622081510306/22/00 08:15:31  5-MIN KMKG 221315Z 27016KT 10SM BKN055 OVC095 18/13 A2969 850 70 1500 270/16 RMK AO2
14840KMKG MKG20000622082009606/22/00 08:20:31  5-MIN KMKG 221320Z 26014KT 10SM OVC055 18/13 A2969 840 70 1500 260/14 RMK AO2
14840KMKG MKG20000622082509606/22/00 08:25:31  5-MIN KMKG 221325Z 26014KT 10SM OVC055 18/13 A2970 840 70 1500 270/14 RMK AO2
14840KMKG MKG20000622083009606/22/00 08:30:31  5-MIN KMKG 221330Z 26013KT 10SM OVC060 18/13 A2970 840 70 1500 260/13 RMK AO2
14840KMKG MKG20000622083510206/22/00 08:35:31  5-MIN KMKG 221335Z 26013G20KT 10SM OVC060 19/13 A2970 840 67 1500 270/13G20 RMK AO2
14840KMKG MKG20000622084010206/22/00 08:40:31  5-MIN KMKG 221340Z 26014G20KT 10SM OVC055 18/13 A2970 840 70 1500 270/14G20 RMK AO2
14840KMKG MKG20000622084510206/22/00 08:45:31  5-MIN KMKG 221345Z 26014G20KT 10SM OVC055 18/13 A2970 840 70 1500 270/14G20 RMK AO2
14840KMKG MKG20000622085011906/22/00 08:50:31  5-MIN KMKG 221350Z 26014G20KT 10SM OVC055 19/13 A2970 830 67 1500 270/14G20 RMK AO2 SLP056 T01890128
14840KMKG MKG20000622085511906/22/00 08:55:31  5-MIN KMKG 221355Z 27014G20KT 10SM OVC055 19/13 A2970 830 67 1500 270/14G20 RMK AO2 SLP055 T01890128
14840KMKG MKG20000622090010206/22/00 09:00:31  5-MIN KMKG 221400Z 26014G20KT 10SM OVC055 19/13 A2971 830 67 1500 260/14G20 RMK AO2
14840KMKG MKG20000622090510206/22/00 09:05:31  5-MIN KMKG 221405Z 26014G19KT 10SM OVC055 19/13 A2971 830 65 1600 270/14G19 RMK AO2
14840KMKG MKG20000622091010206/22/00 09:10:31  5-MIN KMKG 221410Z 26013G20KT 10SM OVC060 20/13 A2971 830 65 1600 260/13G20 RMK AO2
14840KMKG MKG20000622091510206/22/00 09:15:31  5-MIN KMKG 221415Z 26015G20KT 10SM OVC060 20/13 A2971 830 65 1600 270/15G20 RMK AO2
14840KMKG MKG20000622092010206/22/00 09:20:31  5-MIN KMKG 221420Z 26017G21KT 10SM OVC060 20/13 A2971 830 63 1600 270/17G21 RMK AO2
14840KMKG MKG20000622092510206/22/00 09:25:31  5-MIN KMKG 221425Z 27017G21KT 10SM OVC060 21/13 A2971 830 60 1700 270/17G21 RMK AO2
14840KMKG MKG20000622093010906/22/00 09:30:31  5-MIN KMKG 221430Z 26016G21KT 10SM FEW044 OVC060 20/13 A2971 820 63 1600 270/16G21 RMK AO2
14840KMKG MKG20000622093510306/22/00 09:35:31  5-MIN KMKG 221435Z 26014KT 10SM SCT044 OVC060 20/13 A2972 820 65 1600 270/14 RMK AO2
14840KMKG MKG20000622094010906/22/00 09:40:31  5-MIN KMKG 221440Z 26014G19KT 10SM BKN042 OVC060 19/13 A2972 820 67 1600 260/14G19 RMK AO2
14840KMKG MKG20000622094510906/22/00 09:45:31  5-MIN KMKG 221445Z 26014G22KT 10SM BKN042 OVC060 19/13 A2972 810 65 1600 270/14G22 RMK AO2
14840KMKG MKG20000622095012506/22/00 09:50:31  5-MIN KMKG 221450Z 26012G22KT 10SM OVC044 19/13 A2973 810 67 1600 270/12G22 RMK AO2 SLP063 T01940133 53012
14840KMKG MKG20000622095512506/22/00 09:55:31  5-MIN KMKG 221455Z 27016G21KT 10SM BKN044 20/13 A2973 810 65 1600 270/16G21 RMK AO2 SLP064 T02000133 53023
14840KMKG MKG20000622100010206/22/00 10:00:31  5-MIN KMKG 221500Z 26014G21KT 10SM BKN044 20/13 A2973 810 65 1600 270/14G21 RMK AO2
14840KMKG MKG20000622100510206/22/00 10:05:31  5-MIN KMKG 221505Z 26015G21KT 10SM BKN044 20/14 A2973 810 67 1600 260/15G21 RMK AO2
14840KMKG MKG20000622101010206/22/00 10:10:31  5-MIN KMKG 221510Z 26015G21KT 10SM BKN044 19/13 A2973 800 67 1500 270/15G21 RMK AO2
14840KMKG MKG20000622101510206/22/00 10:15:31  5-MIN KMKG 221515Z 26014G21KT 10SM BKN044 19/13 A2973 800 67 1500 270/14G21 RMK AO2
14840KMKG MKG20000622102009606/22/00 10:20:31  5-MIN KMKG 221520Z 26014KT 10SM BKN044 19/13 A2974 800 67 1500 270/14 RMK AO2
14840KMKG MKG20000622102510206/22/00 10:25:31  5-MIN KMKG 221525Z 26011G19KT 10SM OVC044 20/14 A2974 800 67 1600 270/11G19 RMK AO2
14840KMKG MKG20000622103009606/22/00 10:30:31  5-MIN KMKG 221530Z 26013KT 10SM OVC044 20/13 A2974 790 65 1600 260/13 RMK AO2
14840KMKG MKG20000622103509606/22/00 10:35:31  5-MIN KMKG 221535Z 26012KT 10SM OVC044 19/14 A2975 790 70 1500 260/12 RMK AO2
14840KMKG MKG20000622104009606/22/00 10:40:31  5-MIN KMKG 221540Z 27011KT 10SM OVC044 19/14 A2975 790 70 1500 270/11 RMK AO2
14840KMKG MKG20000622104509606/22/00 10:45:31  5-MIN KMKG 221545Z 25013KT 10SM OVC044 20/14 A2975 790 67 1600 260/13 RMK AO2
14840KMKG MKG20000622105011306/22/00 10:50:31  5-MIN KMKG 221550Z 26013KT 10SM OVC046 21/14 A2975 790 67 1700 260/13 RMK AO2 SLP072 T02060144
14840KMKG MKG20000622105511306/22/00 10:55:31  5-MIN KMKG 221555Z 27009KT 10SM BKN048 21/14 A2975 780 65 1700 270/09 RMK AO2 SLP073 T02110144
14840KMKG MKG20000622110009606/22/00 11:00:31  5-MIN KMKG 221600Z 28011KT 10SM BKN048 21/14 A2976 780 65 1700 290/11 RMK AO2
14840KMKG MKG20000622110509606/22/00 11:05:31  5-MIN KMKG 221605Z 26013KT 10SM BKN048 22/14 A2976 780 63 1800 260/13 RMK AO2
14840KMKG MKG20000622111009606/22/00 11:10:31  5-MIN KMKG 221610Z 28010KT 10SM BKN046 21/14 A2976 780 65 1600 290/10 RMK AO2
14840KMKG MKG20000622111509606/22/00 11:15:31  5-MIN KMKG 221615Z 28010KT 10SM BKN046 21/14 A2976 770 65 1700 280/10 RMK AO2
14840KMKG MKG20000622112009606/22/00 11:20:31  5-MIN KMKG 221620Z 27010KT 10SM BKN046 21/14 A2977 770 65 1600 280/10 RMK AO2
14840KMKG MKG20000622112509606/22/00 11:25:31  5-MIN KMKG 221625Z 26010KT 10SM BKN046 21/14 A2977 770 65 1600 270/10 RMK AO2
14840KMKG MKG20000622113010206/22/00 11:30:31  5-MIN KMKG 221630Z 28010G17KT 10SM OVC046 21/14 A2977 770 65 1600 280/10G17 RMK AO2
14840KMKG MKG20000622113510206/22/00 11:35:31  5-MIN KMKG 221635Z 28012G17KT 10SM OVC048 20/14 A2977 770 67 1600 280/12G17 RMK AO2
14840KMKG MKG20000622114009606/22/00 11:40:31  5-MIN KMKG 221640Z 27011KT 10SM OVC048 21/14 A2978 760 67 1600 280/11 RMK AO2
14840KMKG MKG20000622114509606/22/00 11:45:31  5-MIN KMKG 221645Z 28010KT 10SM OVC046 20/14 A2978 760 67 1600 280/10 RMK AO2
14840KMKG MKG20000622115011306/22/00 11:50:31  5-MIN KMKG 221650Z 27011KT 10SM OVC046 20/14 A2978 760 70 1600 280/11 RMK AO2 SLP082 T02000144
14840KMKG MKG20000622115511306/22/00 11:55:31  5-MIN KMKG 221655Z 27011KT 10SM OVC044 20/14 A2978 760 67 1600 280/11 RMK AO2 SLP083 T02000139
14840KMKG MKG20000622120009606/22/00 12:00:31  5-MIN KMKG 221700Z 28011KT 10SM OVC044 19/14 A2979 750 72 1400 280/11 RMK AO2
14840KMKG MKG20000622120509606/22/00 12:05:31  5-MIN KMKG 221705Z 28010KT 10SM OVC042 19/14 A2979 750 72 1400 280/10 RMK AO2
14840KMKG MKG20000622121009606/22/00 12:10:31  5-MIN KMKG 221710Z 27009KT 10SM OVC042 19/14 A2979 750 72 1400 270/09 RMK AO2
14840KMKG MKG20000622121509606/22/00 12:15:31  5-MIN KMKG 221715Z 27008KT 10SM OVC042 18/14 A2979 750 75 1400 270/08 RMK AO2
14840KMKG MKG20000622122009606/22/00 12:20:31  5-MIN KMKG 221720Z 27008KT 10SM OVC042 18/14 A2980 740 75 1300 280/08 RMK AO2
14840KMKG MKG20000622122510306/22/00 12:25:31  5-MIN KMKG 221725Z 27008KT 10SM BKN038 OVC045 18/14 A2980 740 75 1300 270/08 RMK AO2
14840KMKG MKG20000622123010306/22/00 12:30:31  5-MIN KMKG 221730Z 28007KT 10SM BKN038 OVC046 18/14 A2980 740 75 1300 280/07 RMK AO2
14840KMKG MKG20000622123510306/22/00 12:35:31  5-MIN KMKG 221735Z 27006KT 10SM BKN038 OVC046 18/14 A2980 740 78 1300 280/06 RMK AO2
14840KMKG MKG20000622124009606/22/00 12:40:31  5-MIN KMKG 221740Z 26007KT 10SM OVC041 18/14 A2980 740 78 1300 270/07 RMK AO2
14840KMKG MKG20000622124509606/22/00 12:45:31  5-MIN KMKG 221745Z 27008KT 10SM OVC041 19/14 A2980 740 75 1400 270/08 RMK AO2
14840KMKG MKG20000622125013106/22/00 12:50:31  5-MIN KMKG 221750Z 27008KT 10SM OVC041 19/14 A2980 740 75 1400 270/08 RMK AO2 SLP090 T01890144 10217 20183 53023
14840KMKG MKG20000622125513106/22/00 12:55:31  5-MIN KMKG 221755Z 27009KT 10SM OVC043 19/14 A2981 740 75 1400 280/09 RMK AO2 SLP091 T01890144 10217 20183 51026
14840KMKG MKG20000622130009606/22/00 13:00:31  5-MIN KMKG 221800Z 27009KT 10SM OVC043 19/14 A2981 730 75 1400 270/09 RMK AO2
14840KMKG MKG20000622130509606/22/00 13:05:31  5-MIN KMKG 221805Z 27008KT 10SM OVC041 19/14 A2981 730 75 1400 270/08 RMK AO2
14840KMKG MKG20000622131009606/22/00 13:10:31  5-MIN KMKG 221810Z 27007KT 10SM OVC041 19/14 A2981 730 75 1400 280/07 RMK AO2
14840KMKG MKG20000622131509606/22/00 13:15:31  5-MIN KMKG 221815Z 27007KT 10SM OVC041 19/14 A2981 730 75 1400 270/07 RMK AO2
14840KMKG MKG20000622132009606/22/00 13:20:31  5-MIN KMKG 221820Z 29008KT 10SM OVC039 19/14 A2981 730 75 1400 290/08 RMK AO2
14840KMKG MKG20000622132509606/22/00 13:25:31  5-MIN KMKG 221825Z 29006KT 10SM OVC039 19/14 A2981 730 75 1400 290/06 RMK AO2
14840KMKG MKG20000622133009606/22/00 13:30:31  5-MIN KMKG 221830Z 28006KT 10SM OVC039 20/15 A2981 730 72 1500 280/06 RMK AO2
14840KMKG MKG20000622133509606/22/00 13:35:31  5-MIN KMKG 221835Z 28007KT 10SM OVC041 20/15 A2982 730 72 1500 280/07 RMK AO2
14840KMKG MKG20000622134009606/22/00 13:40:31  5-MIN KMKG 221840Z 28010KT 10SM OVC041 20/15 A2982 720 72 1500 290/10 RMK AO2
14840KMKG MKG20000622134509606/22/00 13:45:31  5-MIN KMKG 221845Z 29012KT 10SM OVC039 20/14 A2982 720 70 1500 290/12 RMK AO2
14840KMKG MKG20000622135011306/22/00 13:50:31  5-MIN KMKG 221850Z 28009KT 10SM OVC042 19/14 A2982 720 72 1500 290/09 RMK AO2 SLP095 T01940144
14840KMKG MKG20000622135511306/22/00 13:55:31  5-MIN KMKG 221855Z 27009KT 10SM OVC042 19/14 A2982 720 72 1400 280/09 RMK AO2 SLP096 T01940144
14840KMKG MKG20000622140009606/22/00 14:00:31  5-MIN KMKG 221900Z 27007KT 10SM OVC042 19/15 A2982 720 75 1400 270/07 RMK AO2
14840KMKG MKG20000622140510306/22/00 14:05:31  5-MIN KMKG 221905Z 28008KT 10SM BKN042 OVC049 19/15 A2982 720 75 1400 280/08 RMK AO2
14840KMKG MKG20000622141010306/22/00 14:10:31  5-MIN KMKG 221910Z 29007KT 10SM BKN042 OVC049 19/14 A2983 720 75 1400 290/07 RMK AO2
14840KMKG MKG20000622141511906/22/00 14:15:31  5-MIN KMKG 221915Z 29007KT 260V330 10SM SCT042 OVC049 19/15 A2983 720 75 1400 300/07 260V330 RMK AO2
14840KMKG MKG20000622142011006/22/00 14:20:31  5-MIN KMKG 221920Z 31006KT 10SM FEW042 BKN049 OVC060 20/15 A2983 710 72 1500 310/06 RMK AO2
14840KMKG MKG20000622142511006/22/00 14:25:31  5-MIN KMKG 221925Z 29007KT 10SM FEW040 BKN049 OVC065 21/15 A2983 710 70 1600 290/07 RMK AO2
14840KMKG MKG20000622143010306/22/00 14:30:31  5-MIN KMKG 221930Z 30009KT 10SM SCT049 OVC065 21/15 A2983 710 68 1600 300/09 RMK AO2
14840KMKG MKG20000622143510306/22/00 14:35:31  5-MIN KMKG 221935Z 30009KT 10SM FEW049 OVC065 21/15 A2983 710 68 1600 300/09 RMK AO2
14840KMKG MKG20000622144010306/22/00 14:40:31  5-MIN KMKG 221940Z 29008KT 10SM FEW049 OVC065 21/15 A2983 710 68 1600 300/08 RMK AO2
14840KMKG MKG20000622144509606/22/00 14:45:31  5-MIN KMKG 221945Z 29009KT 10SM OVC065 21/15 A2983 710 68 1600 300/09 RMK AO2
14840KMKG MKG20000622145011306/22/00 14:50:31  5-MIN KMKG 221950Z 30010KT 10SM SCT065 22/16 A2984 710 68 1700 300/10 RMK AO2 SLP101 T02170156
14840KMKG MKG20000622145511306/22/00 14:55:31  5-MIN KMKG 221955Z 29009KT 10SM SCT065 22/16 A2984 710 68 1700 300/09 RMK AO2 SLP101 T02170156
14840KMKG MKG20000622150009606/22/00 15:00:31  5-MIN KMKG 222000Z 30010KT 10SM BKN065 22/15 A2984 700 65 1700 300/10 RMK AO2
14840KMKG MKG20000622150509606/22/00 15:05:31  5-MIN KMKG 222005Z 28009KT 10SM BKN065 22/15 A2984 700 65 1700 290/09 RMK AO2
14840KMKG MKG20000622151009606/22/00 15:10:31  5-MIN KMKG 222010Z 30009KT 10SM BKN065 22/15 A2984 700 65 1700 300/09 RMK AO2
14840KMKG MKG20000622151509606/22/00 15:15:31  5-MIN KMKG 222015Z 29008KT 10SM BKN065 22/15 A2984 700 65 1700 290/08 RMK AO2
14840KMKG MKG20000622152009606/22/00 15:20:31  5-MIN KMKG 222020Z 30010KT 10SM OVC065 22/15 A2984 700 63 1700 300/10 RMK AO2
14840KMKG MKG20000622152509606/22/00 15:25:31  5-MIN KMKG 222025Z 29009KT 10SM OVC065 22/16 A2984 700 65 1700 300/09 RMK AO2
14840KMKG MKG20000622153009606/22/00 15:30:31  5-MIN KMKG 222030Z 31010KT 10SM BKN065 22/16 A2984 700 65 1700 310/10 RMK AO2
14840KMKG MKG20000622153509606/22/00 15:35:31  5-MIN KMKG 222035Z 28012KT 10SM BKN070 22/15 A2984 700 63 1700 290/12 RMK AO2
14840KMKG MKG20000622154009606/22/00 15:40:31  5-MIN KMKG 222040Z 30009KT 10SM BKN070 22/15 A2985 700 63 1700 300/09 RMK AO2
14840KMKG MKG20000622154509606/22/00 15:45:31  5-MIN KMKG 222045Z 29009KT 10SM BKN070 22/16 A2985 700 65 1700 290/09 RMK AO2
14840KMKG MKG20000622155011906/22/00 15:50:31  5-MIN KMKG 222050Z 30008KT 10SM BKN070 22/16 A2985 700 65 1700 310/08 RMK AO2 SLP106 T02220156 51026
14840KMKG MKG20000622155511906/22/00 15:55:31  5-MIN KMKG 222055Z 30011KT 10SM BKN070 23/15 A2985 700 61 1800 300/11 RMK AO2 SLP105 T02280150 51015
14840KMKG MKG20000622160009606/22/00 16:00:31  5-MIN KMKG 222100Z 29010KT 10SM BKN070 23/16 A2985 690 63 1800 290/10 RMK AO2
14840KMKG MKG20000622160509606/22/00 16:05:31  5-MIN KMKG 222105Z 30010KT 10SM BKN070 22/16 A2985 690 65 1700 300/10 RMK AO2
14840KMKG MKG20000622161009606/22/00 16:10:31  5-MIN KMKG 222110Z 26014KT 10SM BKN075 22/16 A2985 690 65 1700 270/14 RMK AO2
14840KMKG MKG20000622161509606/22/00 16:15:31  5-MIN KMKG 222115Z 28010KT 10SM BKN075 22/16 A2985 690 65 1700 290/10 RMK AO2
14840KMKG MKG20000622162009606/22/00 16:20:31  5-MIN KMKG 222120Z 28009KT 10SM SCT075 23/16 A2985 690 63 1800 290/09 RMK AO2
14840KMKG MKG20000622162509606/22/00 16:25:31  5-MIN KMKG 222125Z 29008KT 10SM SCT075 22/16 A2986 690 65 1700 300/08 RMK AO2
14840KMKG MKG20000622163009606/22/00 16:30:31  5-MIN KMKG 222130Z 28009KT 10SM BKN075 23/16 A2986 690 63 1800 280/09 RMK AO2
14840KMKG MKG20000622163509606/22/00 16:35:31  5-MIN KMKG 222135Z 29009KT 10SM BKN075 23/16 A2986 690 65 1800 290/09 RMK AO2
14840KMKG MKG20000622164009606/22/00 16:40:31  5-MIN KMKG 222140Z 30012KT 10SM SCT075 22/16 A2986 690 65 1700 300/12 RMK AO2
14840KMKG MKG20000622164509606/22/00 16:45:31  5-MIN KMKG 222145Z 29012KT 10SM SCT075 22/16 A2986 690 65 1700 290/12 RMK AO2
14840KMKG MKG20000622165011306/22/00 16:50:31  5-MIN KMKG 222150Z 29011KT 10SM BKN075 22/15 A2986 690 65 1700 300/11 RMK AO2 SLP109 T02170150
14840KMKG MKG20000622165511306/22/00 16:55:31  5-MIN KMKG 222155Z 30008KT 10SM BKN075 21/15 A2986 690 68 1600 310/08 RMK AO2 SLP109 T02110150
14840KMKG MKG20000622170009606/22/00 17:00:31  5-MIN KMKG 222200Z 30006KT 10SM BKN075 21/16 A2986 690 70 1600 300/06 RMK AO2
14840KMKG MKG20000622170509606/22/00 17:05:31  5-MIN KMKG 222205Z 29008KT 10SM BKN075 21/16 A2986 690 70 1600 300/08 RMK AO2
14840KMKG MKG20000622171009606/22/00 17:10:31  5-MIN KMKG 222210Z 30008KT 10SM OVC075 22/16 A2986 690 65 1700 310/08 RMK AO2
14840KMKG MKG20000622171509606/22/00 17:15:31  5-MIN KMKG 222215Z 30008KT 10SM OVC075 22/16 A2986 690 68 1700 300/08 RMK AO2
14840KMKG MKG20000622172009606/22/00 17:20:31  5-MIN KMKG 222220Z 32009KT 10SM OVC075 22/16 A2986 690 68 1700 320/09 RMK AO2
14840KMKG MKG20000622172509606/22/00 17:25:31  5-MIN KMKG 222225Z 31008KT 10SM BKN075 22/15 A2986 690 65 1700 320/08 RMK AO2
14840KMKG MKG20000622173009606/22/00 17:30:31  5-MIN KMKG 222230Z 32011KT 10SM BKN075 22/16 A2986 690 65 1700 320/11 RMK AO2
14840KMKG MKG20000622173509606/22/00 17:35:31  5-MIN KMKG 222235Z 31009KT 10SM SCT075 22/16 A2986 690 65 1700 320/09 RMK AO2
14840KMKG MKG20000622174009606/22/00 17:40:31  5-MIN KMKG 222240Z 31007KT 10SM FEW075 22/16 A2986 690 65 1700 310/07 RMK AO2
14840KMKG MKG20000622174509606/22/00 17:45:31  5-MIN KMKG 222245Z 31007KT 10SM FEW075 22/16 A2986 690 65 1700 320/07 RMK AO2
14840KMKG MKG20000622175011006/22/00 17:50:31  5-MIN KMKG 222250Z 32009KT 10SM CLR 23/16 A2986 690 63 1800 320/09 RMK AO2 SLP109 T02280156
14840KMKG MKG20000622175511306/22/00 17:55:31  5-MIN KMKG 222255Z 32010KT 10SM FEW070 22/16 A2986 680 65 1700 320/10 RMK AO2 SLP110 T02220156
14840KMKG MKG20000622180009306/22/00 18:00:31  5-MIN KMKG 222300Z 30007KT 10SM CLR 22/15 A2986 680 65 1700 300/07 RMK AO2
14840KMKG MKG20000622180509606/22/00 18:05:31  5-MIN KMKG 222305Z 32007KT 10SM FEW075 21/15 A2986 680 68 1600 320/07 RMK AO2
14840KMKG MKG20000622181009606/22/00 18:10:31  5-MIN KMKG 222310Z 31010KT 10SM SCT075 21/15 A2987 680 68 1600 310/10 RMK AO2
14840KMKG MKG20000622181509606/22/00 18:15:31  5-MIN KMKG 222315Z 32009KT 10SM SCT075 22/15 A2987 680 63 1700 320/09 RMK AO2
14840KMKG MKG20000622182009606/22/00 18:20:31  5-MIN KMKG 222320Z 31008KT 10SM SCT075 22/15 A2987 680 63 1700 310/08 RMK AO2
14840KMKG MKG20000622182509606/22/00 18:25:31  5-MIN KMKG 222325Z VRB06KT 10SM SCT075 22/16 A2987 680 65 1700 VRB/06 RMK AO2
14840KMKG MKG20000622183009606/22/00 18:30:31  5-MIN KMKG 222330Z 31009KT 10SM SCT075 22/15 A2987 680 65 1600 310/09 RMK AO2
14840KMKG MKG20000622183509606/22/00 18:35:31  5-MIN KMKG 222335Z 28009KT 10SM FEW075 22/15 A2987 670 65 1600 280/09 RMK AO2
14840KMKG MKG20000622184009606/22/00 18:40:31  5-MIN KMKG 222340Z 29009KT 10SM FEW075 22/15 A2987 680 65 1600 290/09 RMK AO2
14840KMKG MKG20000622184509306/22/00 18:45:31  5-MIN KMKG 222345Z 28008KT 10SM CLR 22/16 A2987 670 68 1600 290/08 RMK AO2
14840KMKG MKG20000622185013106/22/00 18:50:31  5-MIN KMKG 222350Z 29008KT 10SM FEW075 21/16 A2988 670 70 1600 300/08 RMK AO2 SLP116 T02110156 10228 20189 51015
14840KMKG MKG20000622185513106/22/00 18:55:31  5-MIN KMKG 222355Z 29007KT 10SM FEW075 21/15 A2988 670 68 1600 290/07 RMK AO2 SLP116 T02110150 10228 20189 53010
14840KMKG MKG20000622190009306/22/00 19:00:31  5-MIN KMKG 230000Z 29009KT 10SM CLR 21/15 A2988 670 68 1600 290/09 RMK AO2
14840KMKG MKG20000622190509306/22/00 19:05:31  5-MIN KMKG 230005Z 29007KT 10SM CLR 21/15 A2988 670 68 1600 290/07 RMK AO2
14840KMKG MKG20000622191009306/22/00 19:10:31  5-MIN KMKG 230010Z 30006KT 10SM CLR 21/15 A2988 670 70 1500 300/06 RMK AO2
14840KMKG MKG20000622191509306/22/00 19:15:31  5-MIN KMKG 230015Z 29006KT 10SM CLR 21/15 A2988 660 68 1600 290/06 RMK AO2
14840KMKG MKG20000622192009306/22/00 19:20:31  5-MIN KMKG 230020Z 29005KT 10SM CLR 21/15 A2989 660 70 1500 290/05 RMK AO2
14840KMKG MKG20000622192509306/22/00 19:25:31  5-MIN KMKG 230025Z 29005KT 10SM CLR 21/15 A2989 660 70 1500 290/05 RMK AO2
14840KMKG MKG20000622193009306/22/00 19:30:31  5-MIN KMKG 230030Z 29005KT 10SM CLR 21/15 A2989 660 70 1500 300/05 RMK AO2
14840KMKG MKG20000622193509306/22/00 19:35:31  5-MIN KMKG 230035Z 29006KT 10SM CLR 20/15 A2989 660 72 1400 290/06 RMK AO2
14840KMKG MKG20000622194009306/22/00 19:40:31  5-MIN KMKG 230040Z 28006KT 10SM CLR 20/15 A2989 660 72 1400 290/06 RMK AO2
14840KMKG MKG20000622194509306/22/00 19:45:31  5-MIN KMKG 230045Z 29006KT 10SM CLR 19/15 A2989 660 75 1400 290/06 RMK AO2
14840KMKG MKG20000622195011306/22/00 19:50:31  5-MIN KMKG 230050Z 28005KT 10SM FEW070 19/15 A2989 660 75 1400 290/05 RMK AO2 SLP119 T01940150
14840KMKG MKG20000622195511306/22/00 19:55:31  5-MIN KMKG 230055Z 26004KT 10SM FEW075 19/15 A2989 660 78 1300 270/04 RMK AO2 SLP121 T01890150
14840KMKG MKG20000622200009306/22/00 20:00:31  5-MIN KMKG 230100Z 27004KT 10SM CLR 19/15 A2989 650 78 1300 270/04 RMK AO2
14840KMKG MKG20000622200509306/22/00 20:05:31  5-MIN KMKG 230105Z 26003KT 10SM CLR 19/15 A2990 650 78 1300 260/03 RMK AO2
14840KMKG MKG20000622201009306/22/00 20:10:31  5-MIN KMKG 230110Z 23005KT 10SM CLR 18/15 A2990 650 81 1200 240/05 RMK AO2
14840KMKG MKG20000622201509306/22/00 20:15:31  5-MIN KMKG 230115Z 24004KT 10SM CLR 18/15 A2990 650 83 1200 240/04 RMK AO2
14840KMKG MKG20000622202009306/22/00 20:20:31  5-MIN KMKG 230120Z 25003KT 10SM CLR 18/15 A2990 650 83 1200 260/03 RMK AO2
14840KMKG MKG20000622202509306/22/00 20:25:31  5-MIN KMKG 230125Z 27003KT 10SM CLR 18/15 A2990 650 83 1200 270/03 RMK AO2
14840KMKG MKG20000622203009306/22/00 20:30:31  5-MIN KMKG 230130Z 29003KT 10SM CLR 17/15 A2990 650 87 1100 290/03 RMK AO2
14840KMKG MKG20000622203509306/22/00 20:35:31  5-MIN KMKG 230135Z 00000KT 10SM CLR 18/15 A2990 650 83 1200 000/00 RMK AO2
14840KMKG MKG20000622204009306/22/00 20:40:31  5-MIN KMKG 230140Z 24003KT 10SM CLR 17/15 A2990 650 87 1100 240/03 RMK AO2
14840KMKG MKG20000622204509306/22/00 20:45:31  5-MIN KMKG 230145Z 23003KT 10SM CLR 17/15 A2990 650 87 1100 230/03 RMK AO2
14840KMKG MKG20000622205011006/22/00 20:50:31  5-MIN KMKG 230150Z 23003KT 10SM CLR 17/15 A2990 650 90 1000 230/03 RMK AO2 SLP124 T01670150
14840KMKG MKG20000622205511006/22/00 20:55:31  5-MIN KMKG 230155Z 22004KT 10SM CLR 17/15 A2990 650 87 1100 230/04 RMK AO2 SLP124 T01720150
14840KMKG MKG20000622210009306/22/00 21:00:31  5-MIN KMKG 230200Z 23004KT 10SM CLR 17/15 A2991 640 90 1000 230/04 RMK AO2
14840KMKG MKG20000622210509306/22/00 21:05:31  5-MIN KMKG 230205Z 23004KT 10SM CLR 16/14 A2991 640 90 1000 230/04 RMK AO2
14840KMKG MKG20000622211009306/22/00 21:10:31  5-MIN KMKG 230210Z 23003KT 10SM CLR 16/15 A2991 640 93 1000 230/03 RMK AO2
14840KMKG MKG20000622211509306/22/00 21:15:31  5-MIN KMKG 230215Z 00000KT 10SM CLR 17/15 A2991 640 90 1000 000/00 RMK AO2
14840KMKG MKG20000622212009306/22/00 21:20:31  5-MIN KMKG 230220Z 21004KT 10SM CLR 17/15 A2992 630 90 1000 220/04 RMK AO2
14840KMKG MKG20000622212509306/22/00 21:25:31  5-MIN KMKG 230225Z 00000KT 10SM CLR 16/15 A2992 630 93 1000 000/00 RMK AO2
14840KMKG MKG20000622213009306/22/00 21:30:31  5-MIN KMKG 230230Z 00000KT 10SM CLR 17/15 A2992 630 90 1000 000/00 RMK AO2
14840KMKG MKG20000622213509206/22/00 21:35:31  5-MIN KMKG 230235Z 21003KT 10SM CLR 16/14 A2992 630 90 900 210/03 RMK AO2
14840KMKG MKG20000622214009206/22/00 21:40:31  5-MIN KMKG 230240Z 20003KT 10SM CLR 16/14 A2992 630 93 900 200/03 RMK AO2
14840KMKG MKG20000622214509206/22/00 21:45:31  5-MIN KMKG 230245Z 20003KT 10SM CLR 16/14 A2992 630 93 900 200/03 RMK AO2
14840KMKG MKG20000622215011506/22/00 21:50:31  5-MIN KMKG 230250Z 00000KT 10SM CLR 16/14 A2992 630 90 900 000/00 RMK AO2 SLP132 T01610144 53010
14840KMKG MKG20000622215511506/22/00 21:55:31  5-MIN KMKG 230255Z 00000KT 10SM CLR 16/14 A2993 620 90 900 000/00 RMK AO2 SLP133 T01610144 53015
14840KMKG MKG20000622220009206/22/00 22:00:31  5-MIN KMKG 230300Z 00000KT 10SM CLR 16/14 A2993 620 90 900 000/00 RMK AO2
14840KMKG MKG20000622220509206/22/00 22:05:31  5-MIN KMKG 230305Z 00000KT 10SM CLR 16/15 A2993 630 93 900 000/00 RMK AO2
14840KMKG MKG20000622221009206/22/00 22:10:31  5-MIN KMKG 230310Z 00000KT 10SM CLR 16/14 A2993 620 90 900 000/00 RMK AO2
14840KMKG MKG20000622221509206/22/00 22:15:31  5-MIN KMKG 230315Z 00000KT 10SM CLR 16/14 A2993 620 90 900 000/00 RMK AO2
14840KMKG MKG20000622222009206/22/00 22:20:31  5-MIN KMKG 230320Z 00000KT 10SM CLR 15/14 A2993 620 96 800 000/00 RMK AO2
14840KMKG MKG20000622222509206/22/00 22:25:31  5-MIN KMKG 230325Z 00000KT 10SM CLR 16/15 A2993 620 96 900 000/00 RMK AO2
14840KMKG MKG20000622223009206/22/00 22:30:31  5-MIN KMKG 230330Z 00000KT 10SM CLR 16/15 A2993 620 93 900 000/00 RMK AO2
14840KMKG MKG20000622223509206/22/00 22:35:31  5-MIN KMKG 230335Z 00000KT 10SM CLR 16/14 A2993 620 93 900 000/00 RMK AO2
14840KMKG MKG20000622224009206/22/00 22:40:31  5-MIN KMKG 230340Z 00000KT 10SM CLR 16/14 A2993 620 93 900 000/00 RMK AO2
14840KMKG MKG20000622224509206/22/00 22:45:31  5-MIN KMKG 230345Z 00000KT 10SM CLR 15/14 A2993 620 96 800 000/00 RMK AO2
14840KMKG MKG20000622225010906/22/00 22:50:31  5-MIN KMKG 230350Z 00000KT 10SM CLR 15/14 A2993 620 96 800 000/00 RMK AO2 SLP135 T01500144
14840KMKG MKG20000622225510906/22/00 22:55:31  5-MIN KMKG 230355Z 00000KT 10SM CLR 15/14 A2993 620 96 800 000/00 RMK AO2 SLP134 T01500144
14840KMKG MKG20000622230009206/22/00 23:00:31  5-MIN KMKG 230400Z 00000KT 10SM CLR 15/14 A2993 620 96 800 000/00 RMK AO2
14840KMKG MKG20000622230509206/22/00 23:05:31  5-MIN KMKG 230405Z 00000KT 10SM CLR 14/14 A2993 620 96 700 000/00 RMK AO2
14840KMKG MKG20000622231009206/22/00 23:10:31  5-MIN KMKG 230410Z 00000KT 10SM CLR 15/14 A2993 620 96 800 000/00 RMK AO2
14840KMKG MKG20000622231509206/22/00 23:15:31  5-MIN KMKG 230415Z 00000KT 10SM CLR 15/14 A2993 620 93 800 000/00 RMK AO2
14840KMKG MKG20000622232009206/22/00 23:20:31  5-MIN KMKG 230420Z 00000KT 10SM CLR 15/14 A2993 620 96 800 000/00 RMK AO2
14840KMKG MKG20000622232509206/22/00 23:25:31  5-MIN KMKG 230425Z 00000KT 10SM CLR 15/14 A2993 620 96 800 000/00 RMK AO2
14840KMKG MKG20000622233009306/22/00 23:30:31  5-MIN KMKG 230430Z 00000KT 10SM CLR 14/14 A2993 620 100 700 000/00 RMK AO2
14840KMKG MKG20000622233509206/22/00 23:35:31  5-MIN KMKG 230435Z 21003KT 10SM CLR 14/13 A2993 620 93 700 210/03 RMK AO2
14840KMKG MKG20000622234009706/22/00 23:40:31  5-MIN KMKG 230440Z AUTO 21003KT 10SM CLR 14/14 A2993 620 96 700 210/03 RMK AO2
14840KMKG MKG20000622234509206/22/00 23:45:31  5-MIN KMKG 230445Z 00000KT 10SM CLR 14/13 A2993 620 93 700 000/00 RMK AO2
14840KMKG MKG20000622235011906/22/00 23:50:31  5-MIN KMKG 230450Z 00000KT 10SM CLR 14/13 A2993 620 96 700 000/00 RMK AO2 SLP135 T01390133 402280139
14840KMKG MKG20000622235511906/22/00 23:55:31  5-MIN KMKG 230455Z 00000KT 10SM CLR 14/14 A2993 620 96 700 000/00 RMK AO2 SLP135 T01440139 402280139
14840KMKG MKG20000623000009206/23/00 00:00:31  5-MIN KMKG 230500Z 00000KT 10SM CLR 14/14 A2993 620 96 700 000/00 RMK AO2
14840KMKG MKG20000623000509206/23/00 00:05:31  5-MIN KMKG 230505Z 00000KT 10SM CLR 14/14 A2994 610 96 700 000/00 RMK AO2
14840KMKG MKG20000623001009206/23/00 00:10:31  5-MIN KMKG 230510Z 00000KT 10SM CLR 14/13 A2994 610 96 700 000/00 RMK AO2
14840KMKG MKG20000623001509206/23/00 00:15:31  5-MIN KMKG 230515Z 00000KT 10SM CLR 14/13 A2994 610 96 700 000/00 RMK AO2
14840KMKG MKG20000623002009206/23/00 00:20:31  5-MIN KMKG 230520Z 00000KT 10SM CLR 14/13 A2994 610 96 700 000/00 RMK AO2
14840KMKG MKG20000623002509206/23/00 00:25:31  5-MIN KMKG 230525Z 23004KT 10SM CLR 14/13 A2995 610 96 700 240/04 RMK AO2
14840KMKG MKG20000623003009306/23/00 00:30:31  5-MIN KMKG 230530Z 23004KT 10SM CLR 13/13 A2995 610 100 600 230/04 RMK AO2
14840KMKG MKG20000623003509206/23/00 00:35:31  5-MIN KMKG 230535Z 22003KT 10SM CLR 14/13 A2995 610 96 700 220/03 RMK AO2
14840KMKG MKG20000623004009206/23/00 00:40:31  5-MIN KMKG 230540Z 00000KT 10SM CLR 14/13 A2995 610 96 700 000/00 RMK AO2
14840KMKG MKG20000623004509206/23/00 00:45:31  5-MIN KMKG 230545Z 00000KT 10SM CLR 14/14 A2995 600 96 700 000/00 RMK AO2
14840KMKG MKG20000623005012706/23/00 00:50:31  5-MIN KMKG 230550Z 00000KT 10SM CLR 14/14 A2995 600 96 700 000/00 RMK AO2 SLP141 T01440139 10211 20133 53015
14840KMKG MKG20000623005512706/23/00 00:55:31  5-MIN KMKG 230555Z 00000KT 10SM CLR 14/14 A2995 610 96 700 000/00 RMK AO2 SLP141 T01440139 10211 20133 53007
14840KMKG MKG20000623010009206/23/00 01:00:31  5-MIN KMKG 230600Z 00000KT 10SM CLR 15/14 A2995 610 96 800 000/00 RMK AO2
14840KMKG MKG20000623010509206/23/00 01:05:31  5-MIN KMKG 230605Z 00000KT 10SM CLR 14/14 A2995 600 96 700 000/00 RMK AO2
14840KMKG MKG20000623011009206/23/00 01:10:31  5-MIN KMKG 230610Z 00000KT 10SM CLR 14/13 A2995 600 96 700 000/00 RMK AO2
14840KMKG MKG20000623011509206/23/00 01:15:31  5-MIN KMKG 230615Z 00000KT 10SM CLR 14/13 A2995 600 93 700 000/00 RMK AO2
14840KMKG MKG20000623012009206/23/00 01:20:31  5-MIN KMKG 230620Z 00000KT 10SM CLR 14/13 A2995 600 96 700 000/00 RMK AO2
14840KMKG MKG20000623012509206/23/00 01:25:31  5-MIN KMKG 230625Z 00000KT 10SM CLR 14/13 A2995 610 96 700 000/00 RMK AO2
14840KMKG MKG20000623013009206/23/00 01:30:31  5-MIN KMKG 230630Z 00000KT 10SM CLR 14/13 A2995 600 96 700 000/00 RMK AO2
14840KMKG MKG20000623013509206/23/00 01:35:31  5-MIN KMKG 230635Z 00000KT 10SM CLR 14/13 A2995 600 96 700 000/00 RMK AO2
14840KMKG MKG20000623014009206/23/00 01:40:31  5-MIN KMKG 230640Z 00000KT 10SM CLR 14/13 A2995 600 96 700 000/00 RMK AO2
14840KMKG MKG20000623014509206/23/00 01:45:31  5-MIN KMKG 230645Z 00000KT 10SM CLR 14/13 A2995 600 96 700 000/00 RMK AO2
14840KMKG MKG20000623015010906/23/00 01:50:31  5-MIN KMKG 230650Z 00000KT 10SM CLR 14/14 A2995 600 96 700 000/00 RMK AO2 SLP141 T01440139
14840KMKG MKG20000623015510906/23/00 01:55:31  5-MIN KMKG 230655Z 00000KT 10SM CLR 14/13 A2995 600 96 700 000/00 RMK AO2 SLP142 T01390133
14840KMKG MKG20000623020009206/23/00 02:00:31  5-MIN KMKG 230700Z 00000KT 10SM CLR 14/13 A2995 600 96 700 000/00 RMK AO2
14840KMKG MKG20000623020509206/23/00 02:05:31  5-MIN KMKG 230705Z 00000KT 10SM CLR 14/13 A2995 600 96 700 000/00 RMK AO2
14840KMKG MKG20000623021009206/23/00 02:10:31  5-MIN KMKG 230710Z 00000KT 10SM CLR 14/13 A2995 600 96 600 000/00 RMK AO2
14840KMKG MKG20000623021509306/23/00 02:15:31  5-MIN KMKG 230715Z 00000KT 10SM CLR 13/13 A2995 600 100 600 000/00 RMK AO2
14840KMKG MKG20000623022009206/23/00 02:20:31  5-MIN KMKG 230720Z 00000KT 10SM CLR 13/13 A2995 600 96 600 000/00 RMK AO2
14840KMKG MKG20000623022509206/23/00 02:25:31  5-MIN KMKG 230725Z 00000KT 10SM CLR 13/13 A2995 600 96 600 000/00 RMK AO2
14840KMKG MKG20000623023009206/23/00 02:30:31  5-MIN KMKG 230730Z 19003KT 10SM CLR 13/12 A2995 600 96 500 200/03 RMK AO2
14840KMKG MKG20000623023509206/23/00 02:35:31  5-MIN KMKG 230735Z 20004KT 10SM CLR 13/12 A2995 600 96 500 200/04 RMK AO2
14840KMKG MKG20000623024009206/23/00 02:40:31  5-MIN KMKG 230740Z 21004KT 10SM CLR 13/12 A2996 600 96 500 210/04 RMK AO2
14840KMKG MKG20000623024509206/23/00 02:45:31  5-MIN KMKG 230745Z 21005KT 10SM CLR 13/12 A2995 600 96 500 220/05 RMK AO2
14840KMKG MKG20000623025010906/23/00 02:50:31  5-MIN KMKG 230750Z 22004KT 10SM CLR 13/12 A2995 600 96 500 220/04 RMK AO2 SLP142 T01280122
14840KMKG MKG20000623025510906/23/00 02:55:31  5-MIN KMKG 230755Z 23005KT 10SM CLR 13/13 A2996 600 96 600 230/05 RMK AO2 SLP143 T01330128
14840KMKG MKG20000623030009306/23/00 03:00:31  5-MIN KMKG 230800Z 24005KT 10SM CLR 13/13 A2996 600 100 600 240/05 RMK AO2
14840KMKG MKG20000623030509206/23/00 03:05:31  5-MIN KMKG 230805Z 24003KT 10SM CLR 14/13 A2996 590 96 600 250/03 RMK AO2
14840KMKG MKG20000623031009206/23/00 03:10:31  5-MIN KMKG 230810Z 00000KT 10SM CLR 14/13 A2996 600 96 600 000/00 RMK AO2
14840KMKG MKG20000623031509206/23/00 03:15:31  5-MIN KMKG 230815Z 00000KT 10SM CLR 13/13 A2996 590 96 600 000/00 RMK AO2
14840KMKG MKG20000623032009206/23/00 03:20:31  5-MIN KMKG 230820Z 00000KT 10SM CLR 14/13 A2996 590 96 600 000/00 RMK AO2
14840KMKG MKG20000623032509206/23/00 03:25:31  5-MIN KMKG 230825Z 00000KT 10SM CLR 14/14 A2996 590 96 700 000/00 RMK AO2
14840KMKG MKG20000623033009206/23/00 03:30:31  5-MIN KMKG 230830Z 00000KT 10SM CLR 14/14 A2996 590 96 700 000/00 RMK AO2
14840KMKG MKG20000623033509206/23/00 03:35:31  5-MIN KMKG 230835Z 00000KT 10SM CLR 14/14 A2997 590 96 700 000/00 RMK AO2
14840KMKG MKG20000623034009206/23/00 03:40:31  5-MIN KMKG 230840Z 00000KT 10SM CLR 14/14 A2997 590 96 700 000/00 RMK AO2
14840KMKG MKG20000623034509206/23/00 03:45:31  5-MIN KMKG 230845Z 22003KT 10SM CLR 14/13 A2997 580 96 600 220/03 RMK AO2
14840KMKG MKG20000623035011506/23/00 03:50:31  5-MIN KMKG 230850Z 00000KT 10SM CLR 13/13 A2997 580 96 600 000/00 RMK AO2 SLP148 T01330128 53007
14840KMKG MKG20000623035511606/23/00 03:55:31  5-MIN KMKG 230855Z 00000KT 10SM CLR 13/13 A2997 580 100 500 000/00 RMK AO2 SLP148 T01280128 53008
14840KMKG MKG20000623040009206/23/00 04:00:31  5-MIN KMKG 230900Z 00000KT 10SM CLR 14/13 A2997 580 96 600 000/00 RMK AO2
14840KMKG MKG20000623040509206/23/00 04:05:31  5-MIN KMKG 230905Z 00000KT 10SM CLR 14/14 A2998 580 96 700 000/00 RMK AO2
14840KMKG MKG20000623041009306/23/00 04:10:31  5-MIN KMKG 230910Z 00000KT 10SM CLR 14/14 A2998 580 100 600 000/00 RMK AO2
14840KMKG MKG20000623041509206/23/00 04:15:31  5-MIN KMKG 230915Z 00000KT 10SM CLR 14/13 A2998 580 96 600 000/00 RMK AO2
14840KMKG MKG20000623042009206/23/00 04:20:31  5-MIN KMKG 230920Z 23003KT 10SM CLR 13/13 A2998 580 96 600 230/03 RMK AO2
14840KMKG MKG20000623042509206/23/00 04:25:31  5-MIN KMKG 230925Z 21003KT 10SM CLR 13/13 A2998 580 96 600 220/03 RMK AO2
14840KMKG MKG20000623043009206/23/00 04:30:31  5-MIN KMKG 230930Z 21003KT 10SM CLR 13/13 A2997 580 96 600 220/03 RMK AO2
14840KMKG MKG20000623043509206/23/00 04:35:31  5-MIN KMKG 230935Z 21003KT 10SM CLR 14/13 A2997 580 93 600 210/03 RMK AO2
14840KMKG MKG20000623044009206/23/00 04:40:31  5-MIN KMKG 230940Z 00000KT 10SM CLR 14/13 A2997 580 96 600 000/00 RMK AO2
14840KMKG MKG20000623044509206/23/00 04:45:31  5-MIN KMKG 230945Z 00000KT 10SM CLR 14/13 A2997 590 96 600 000/00 RMK AO2
14840KMKG MKG20000623045010906/23/00 04:50:31  5-MIN KMKG 230950Z 00000KT 10SM CLR 14/13 A2997 580 96 600 000/00 RMK AO2 SLP148 T01390133
14840KMKG MKG20000623045510906/23/00 04:55:31  5-MIN KMKG 230955Z 00000KT 10SM CLR 14/13 A2997 580 96 600 000/00 RMK AO2 SLP148 T01390133
14840KMKG MKG20000623050009106/23/00 05:00:31  5-MIN KMKG 231000Z 00000KT 9SM CLR 13/13 A2997 580 96 600 000/00 RMK AO2
14840KMKG MKG20000623050509106/23/00 05:05:31  5-MIN KMKG 231005Z 00000KT 9SM CLR 13/12 A2998 580 96 500 000/00 RMK AO2
14840KMKG MKG20000623051009106/23/00 05:10:31  5-MIN KMKG 231010Z 00000KT 9SM CLR 13/12 A2998 580 96 500 000/00 RMK AO2
14840KMKG MKG20000623051509606/23/00 05:15:31  5-MIN KMKG 231015Z 00000KT 8SM BCFG CLR 13/13 A2998 570 96 600 000/00 RMK AO2
14840KMKG MKG20000623052009606/23/00 05:20:31  5-MIN KMKG 231020Z 00000KT 8SM BCFG CLR 13/13 A2999 570 96 500 000/00 RMK AO2
14840KMKG MKG20000623052509606/23/00 05:25:31  5-MIN KMKG 231025Z 00000KT 9SM BCFG CLR 13/13 A2999 570 96 500 000/00 RMK AO2
14840KMKG MKG20000623053009606/23/00 05:30:31  5-MIN KMKG 231030Z 00000KT 8SM BCFG CLR 14/13 A2999 560 96 600 000/00 RMK AO2
14840KMKG MKG20000623053509606/23/00 05:35:31  5-MIN KMKG 231035Z 00000KT 7SM BCFG CLR 13/13 A2999 560 96 500 000/00 RMK AO2
14840KMKG MKG20000623054009606/23/00 05:40:31  5-MIN KMKG 231040Z 00000KT 6SM BCFG CLR 14/13 A3000 560 96 600 000/00 RMK AO2
14840KMKG MKG20000623054509406/23/00 05:45:31  5-MIN KMKG 231045Z 00000KT 6SM BR CLR 14/13 A3000 560 96 600 000/00 RMK AO2
14840KMKG MKG20000623055010806/23/00 05:50:31  5-MIN KMKG 231050Z 00000KT 7SM CLR 14/13 A3000 560 96 600 000/00 RMK AO2 SLP157 T01390133
14840KMKG MKG20000623055510806/23/00 05:55:31  5-MIN KMKG 231055Z 00000KT 9SM CLR 14/14 A2999 560 96 700 000/00 RMK AO2 SLP156 T01440139
14840KMKG MKG20000623060009106/23/00 06:00:31  5-MIN KMKG 231100Z 00000KT 9SM CLR 14/14 A2999 570 96 700 000/00 RMK AO2
14840KMKG MKG20000623060509206/23/00 06:05:31  5-MIN KMKG 231105Z 00000KT 10SM CLR 15/14 A2999 560 96 700 000/00 RMK AO2
14840KMKG MKG20000623061009106/23/00 06:10:31  5-MIN KMKG 231110Z 14003KT 9SM CLR 15/14 A2999 570 96 700 150/03 RMK AO2
14840KMKG MKG20000623061509106/23/00 06:15:31  5-MIN KMKG 231115Z 00000KT 9SM CLR 15/14 A2999 560 96 700 000/00 RMK AO2
14840KMKG MKG20000623062009106/23/00 06:20:31  5-MIN KMKG 231120Z 00000KT 9SM CLR 16/15 A3000 550 96 800 000/00 RMK AO2
14840KMKG MKG20000623062509206/23/00 06:25:31  5-MIN KMKG 231125Z 00000KT 10SM CLR 16/15 A3000 560 93 900 000/00 RMK AO2
14840KMKG MKG20000623063009206/23/00 06:30:31  5-MIN KMKG 231130Z 00000KT 10SM CLR 16/15 A3001 550 93 800 000/00 RMK AO2
14840KMKG MKG20000623063509206/23/00 06:35:31  5-MIN KMKG 231135Z 00000KT 10SM CLR 17/15 A3001 550 90 900 000/00 RMK AO2
14840KMKG MKG20000623064009206/23/00 06:40:31  5-MIN KMKG 231140Z 00000KT 10SM CLR 17/15 A3001 550 90 900 000/00 RMK AO2
14840KMKG MKG20000623064509306/23/00 06:45:31  5-MIN KMKG 231145Z 23005KT 10SM CLR 17/16 A3000 550 90 1000 230/05 RMK AO2
14840KMKG MKG20000623065012806/23/00 06:50:31  5-MIN KMKG 231150Z 22005KT 10SM CLR 18/16 A3001 550 87 1000 220/05 RMK AO2 SLP159 T01780156 10178 20128 53008
14840KMKG MKG20000623065512806/23/00 06:55:31  5-MIN KMKG 231155Z 22005KT 10SM CLR 18/16 A3001 550 87 1000 230/05 RMK AO2 SLP160 T01780156 10178 20128 53012
14840KMKG MKG20000623070009306/23/00 07:00:31  5-MIN KMKG 231200Z 21004KT 10SM CLR 18/16 A3000 550 87 1000 220/04 RMK AO2
14840KMKG MKG20000623070509306/23/00 07:05:31  5-MIN KMKG 231205Z 22004KT 10SM CLR 18/16 A3001 550 84 1100 220/04 RMK AO2
14840KMKG MKG20000623071010306/23/00 07:10:31  5-MIN KMKG 231210Z AUTO VRB03KT 10SM CLR 18/16 A3001 550 84 1100 VRB/03 RMK AO2 TSNO
14840KMKG MKG20000623071510306/23/00 07:15:31  5-MIN KMKG 231215Z AUTO 00000KT 10SM CLR 19/16 A3001 550 81 1200 000/00 RMK AO2 TSNO
14840KMKG MKG20000623072009306/23/00 07:20:31  5-MIN KMKG 231220Z 26003KT 10SM CLR 19/15 A3001 550 78 1200 270/03 RMK AO2
14840KMKG MKG20000623072509306/23/00 07:25:31  5-MIN KMKG 231225Z 25004KT 10SM CLR 19/15 A3001 550 78 1200 260/04 RMK AO2
14840KMKG MKG20000623073009306/23/00 07:30:31  5-MIN KMKG 231230Z 26005KT 10SM CLR 19/15 A3001 540 75 1200 270/05 RMK AO2
14840KMKG MKG20000623073509306/23/00 07:35:31  5-MIN KMKG 231235Z 25004KT 10SM CLR 19/15 A3002 540 75 1200 260/04 RMK AO2
14840KMKG MKG20000623074009306/23/00 07:40:31  5-MIN KMKG 231240Z 25003KT 10SM CLR 19/15 A3001 540 75 1200 260/03 RMK AO2
14840KMKG MKG20000623074509306/23/00 07:45:31  5-MIN KMKG 231245Z 23006KT 10SM CLR 20/15 A3001 540 72 1300 240/06 RMK AO2
14840KMKG MKG20000623075011006/23/00 07:50:31  5-MIN KMKG 231250Z 22007KT 10SM CLR 20/15 A3001 540 72 1300 220/07 RMK AO2 SLP161 T02000150
14840KMKG MKG20000623075511006/23/00 07:55:31  5-MIN KMKG 231255Z 23005KT 10SM CLR 20/15 A3001 550 72 1300 230/05 RMK AO2 SLP161 T02000150
14840KMKG MKG20000623080009306/23/00 08:00:31  5-MIN KMKG 231300Z 24005KT 10SM CLR 20/14 A3001 550 70 1300 240/05 RMK AO2
14840KMKG MKG20000623080509306/23/00 08:05:31  5-MIN KMKG 231305Z 24004KT 10SM CLR 20/14 A3001 550 70 1300 240/04 RMK AO2
14840KMKG MKG20000623081009306/23/00 08:10:31  5-MIN KMKG 231310Z 25004KT 10SM CLR 21/15 A3001 550 70 1400 250/04 RMK AO2
14840KMKG MKG20000623081509306/23/00 08:15:31  5-MIN KMKG 231315Z 24006KT 10SM CLR 21/15 A3001 550 70 1400 250/06 RMK AO2
14840KMKG MKG20000623082009306/23/00 08:20:31  5-MIN KMKG 231320Z 24005KT 10SM CLR 21/15 A3001 550 70 1400 250/05 RMK AO2
14840KMKG MKG20000623082509306/23/00 08:25:31  5-MIN KMKG 231325Z 24005KT 10SM CLR 21/15 A3001 550 70 1400 240/05 RMK AO2
14840KMKG MKG20000623083009306/23/00 08:30:31  5-MIN KMKG 231330Z 25005KT 10SM CLR 21/15 A3001 550 68 1400 250/05 RMK AO2
14840KMKG MKG20000623083509306/23/00 08:35:31  5-MIN KMKG 231335Z VRB06KT 10SM CLR 21/15 A3001 550 68 1400 VRB/06 RMK AO2
14840KMKG MKG20000623084009306/23/00 08:40:31  5-MIN KMKG 231340Z 24006KT 10SM CLR 21/15 A3001 550 68 1400 240/06 RMK AO2
14840KMKG MKG20000623084509306/23/00 08:45:31  5-MIN KMKG 231345Z 21007KT 10SM CLR 22/15 A3001 550 65 1500 210/07 RMK AO2
14840KMKG MKG20000623085011006/23/00 08:50:31  5-MIN KMKG 231350Z 24007KT 10SM CLR 22/14 A3001 550 63 1500 240/07 RMK AO2 SLP160 T02170144
14840KMKG MKG20000623085511006/23/00 08:55:31  5-MIN KMKG 231355Z 23006KT 10SM CLR 22/15 A3001 550 65 1500 230/06 RMK AO2 SLP159 T02170150
14840KMKG MKG20000623090009306/23/00 09:00:31  5-MIN KMKG 231400Z 22009KT 10SM CLR 22/15 A3001 550 65 1500 230/09 RMK AO2
14840KMKG MKG20000623090509306/23/00 09:05:31  5-MIN KMKG 231405Z 23008KT 10SM CLR 22/14 A3001 550 63 1500 240/08 RMK AO2
14840KMKG MKG20000623091009306/23/00 09:10:31  5-MIN KMKG 231410Z 24008KT 10SM CLR 22/14 A3001 550 63 1500 240/08 RMK AO2
14840KMKG MKG20000623091509306/23/00 09:15:31  5-MIN KMKG 231415Z 21008KT 10SM CLR 22/14 A3001 550 61 1600 210/08 RMK AO2
14840KMKG MKG20000623092009306/23/00 09:20:31  5-MIN KMKG 231420Z 21009KT 10SM CLR 22/14 A3001 550 61 1600 210/09 RMK AO2
14840KMKG MKG20000623092509306/23/00 09:25:31  5-MIN KMKG 231425Z 21009KT 10SM CLR 22/14 A3001 550 61 1600 220/09 RMK AO2
14840KMKG MKG20000623093009306/23/00 09:30:31  5-MIN KMKG 231430Z 22008KT 10SM CLR 22/14 A3001 550 61 1600 230/08 RMK AO2
14840KMKG MKG20000623093509606/23/00 09:35:31  5-MIN KMKG 231435Z 22009KT 10SM FEW032 22/14 A3001 540 61 1500 220/09 RMK AO2
14840KMKG MKG20000623094009606/23/00 09:40:31  5-MIN KMKG 231440Z 22008KT 10SM FEW032 22/14 A3002 540 61 1500 220/08 RMK AO2
14840KMKG MKG20000623094509606/23/00 09:45:31  5-MIN KMKG 231445Z 24008KT 10SM FEW032 22/15 A3002 540 63 1500 240/08 RMK AO2
14840KMKG MKG20000623095011906/23/00 09:50:31  5-MIN KMKG 231450Z 23007KT 10SM FEW032 22/15 A3002 540 63 1500 230/07 RMK AO2 SLP162 T02220150 53012
14840KMKG MKG20000623095511906/23/00 09:55:31  5-MIN KMKG 231455Z 22006KT 10SM FEW032 23/15 A3002 540 61 1600 230/06 RMK AO2 SLP162 T02280150 53002
14840KMKG MKG20000623100009606/23/00 10:00:31  5-MIN KMKG 231500Z 22009KT 10SM FEW032 23/15 A3002 540 61 1600 230/09 RMK AO2
14840KMKG MKG20000623100509606/23/00 10:05:31  5-MIN KMKG 231505Z 22009KT 10SM FEW032 23/14 A3002 540 59 1600 220/09 RMK AO2
14840KMKG MKG20000623101009606/23/00 10:10:31  5-MIN KMKG 231510Z 23008KT 10SM FEW032 22/15 A3002 540 63 1500 230/08 RMK AO2
14840KMKG MKG20000623101509606/23/00 10:15:31  5-MIN KMKG 231515Z 24006KT 10SM FEW032 22/15 A3002 530 63 1500 240/06 RMK AO2
14840KMKG MKG20000623102009606/23/00 10:20:31  5-MIN KMKG 231520Z 21008KT 10SM FEW032 23/16 A3002 540 63 1600 210/08 RMK AO2
14840KMKG MKG20000623102509606/23/00 10:25:31  5-MIN KMKG 231525Z 26009KT 10SM FEW032 23/16 A3002 530 63 1600 260/09 RMK AO2
14840KMKG MKG20000623103009606/23/00 10:30:31  5-MIN KMKG 231530Z 26008KT 10SM FEW032 23/16 A3003 530 63 1600 260/08 RMK AO2
14840KMKG MKG20000623103509606/23/00 10:35:31  5-MIN KMKG 231535Z 25007KT 10SM FEW032 23/16 A3003 530 63 1600 260/07 RMK AO2
14840KMKG MKG20000623104011206/23/00 10:40:31  5-MIN KMKG 231540Z 23007KT 200V260 10SM FEW032 23/16 A3003 530 63 1600 230/07 200V260 RMK AO2
14840KMKG MKG20000623104509606/23/00 10:45:31  5-MIN KMKG 231545Z 23008KT 10SM FEW032 23/16 A3003 530 63 1600 240/08 RMK AO2
14840KMKG MKG20000623105011306/23/00 10:50:31  5-MIN KMKG 231550Z 23008KT 10SM FEW032 23/16 A3003 530 63 1600 230/08 RMK AO2 SLP168 T02280156
14840KMKG MKG20000623105511306/23/00 10:55:31  5-MIN KMKG 231555Z 23007KT 10SM FEW032 23/16 A3003 530 63 1600 230/07 RMK AO2 SLP168 T02280156
14840KMKG MKG20000623110009606/23/00 11:00:31  5-MIN KMKG 231600Z 23009KT 10SM FEW032 23/15 A3003 530 61 1600 230/09 RMK AO2
14840KMKG MKG20000623110509606/23/00 11:05:31  5-MIN KMKG 231605Z 22008KT 10SM FEW032 23/16 A3003 530 63 1600 230/08 RMK AO2
14840KMKG MKG20000623111009606/23/00 11:10:31  5-MIN KMKG 231610Z 24007KT 10SM FEW032 23/16 A3003 530 63 1600 250/07 RMK AO2
14840KMKG MKG20000623111509606/23/00 11:15:31  5-MIN KMKG 231615Z 22008KT 10SM FEW032 23/15 A3003 530 61 1600 230/08 RMK AO2
14840KMKG MKG20000623112009606/23/00 11:20:31  5-MIN KMKG 231620Z 24008KT 10SM FEW032 23/15 A3003 530 61 1600 240/08 RMK AO2
14840KMKG MKG20000623112509606/23/00 11:25:31  5-MIN KMKG 231625Z 23008KT 10SM FEW032 23/15 A3004 520 61 1600 240/08 RMK AO2
14840KMKG MKG20000623113009606/23/00 11:30:31  5-MIN KMKG 231630Z 26008KT 10SM FEW032 23/15 A3004 520 61 1600 260/08 RMK AO2
14840KMKG MKG20000623113509606/23/00 11:35:31  5-MIN KMKG 231635Z 23007KT 10SM FEW032 23/16 A3003 530 63 1600 230/07 RMK AO2
14840KMKG MKG20000623114009606/23/00 11:40:31  5-MIN KMKG 231640Z 27008KT 10SM FEW032 23/15 A3004 520 61 1600 280/08 RMK AO2
14840KMKG MKG20000623114509606/23/00 11:45:31  5-MIN KMKG 231645Z 25005KT 10SM FEW032 23/16 A3003 530 61 1700 250/05 RMK AO2
14840KMKG MKG20000623115011306/23/00 11:50:31  5-MIN KMKG 231650Z 28006KT 10SM FEW032 23/16 A3003 530 61 1700 280/06 RMK AO2 SLP167 T02330156
14840KMKG MKG20000623115511306/23/00 11:55:31  5-MIN KMKG 231655Z 26007KT 10SM FEW032 23/16 A3002 530 61 1700 270/07 RMK AO2 SLP166 T02330156
14840KMKG MKG20000623120009606/23/00 12:00:31  5-MIN KMKG 231700Z 27005KT 10SM FEW032 23/15 A3002 540 59 1700 280/05 RMK AO2
14840KMKG MKG20000623120509606/23/00 12:05:31  5-MIN KMKG 231705Z VRB04KT 10SM FEW032 23/15 A3002 540 59 1700 VRB/04 RMK AO2
14840KMKG MKG20000623121009606/23/00 12:10:31  5-MIN KMKG 231710Z VRB04KT 10SM FEW032 24/16 A3001 540 59 1700 VRB/04 RMK AO2
14840KMKG MKG20000623121509606/23/00 12:15:31  5-MIN KMKG 231715Z VRB05KT 10SM FEW032 24/15 A3002 540 57 1700 VRB/05 RMK AO2
14840KMKG MKG20000623122009606/23/00 12:20:31  5-MIN KMKG 231720Z 24006KT 10SM FEW032 24/16 A3002 540 59 1700 240/06 RMK AO2
14840KMKG MKG20000623122509606/23/00 12:25:31  5-MIN KMKG 231725Z 24006KT 10SM FEW032 23/15 A3002 540 59 1700 240/06 RMK AO2
14840KMKG MKG20000623123009606/23/00 12:30:31  5-MIN KMKG 231730Z 24008KT 10SM FEW032 24/15 A3002 540 57 1700 250/08 RMK AO2
14840KMKG MKG20000623123509606/23/00 12:35:31  5-MIN KMKG 231735Z 23006KT 10SM FEW032 24/15 A3002 540 57 1700 240/06 RMK AO2
14840KMKG MKG20000623124009606/23/00 12:40:31  5-MIN KMKG 231740Z 24008KT 10SM FEW032 23/14 A3002 540 57 1700 240/08 RMK AO2
14840KMKG MKG20000623124509606/23/00 12:45:31  5-MIN KMKG 231745Z 23007KT 10SM FEW032 23/15 A3002 540 59 1700 240/07 RMK AO2
14840KMKG MKG20000623125013106/23/00 12:50:31  5-MIN KMKG 231750Z 21008KT 10SM FEW032 24/15 A3001 540 57 1700 220/08 RMK AO2 SLP161 T02390150 10244 20178 53002
14840KMKG MKG20000623125513106/23/00 12:55:31  5-MIN KMKG 231755Z 23008KT 10SM FEW032 24/15 A3001 540 57 1700 230/08 RMK AO2 SLP161 T02390150 10244 20178 58001
14840KMKG MKG20000623130009606/23/00 13:00:31  5-MIN KMKG 231800Z 23007KT 10SM FEW032 23/15 A3001 540 59 1700 240/07 RMK AO2
14840KMKG MKG20000623130509606/23/00 13:05:31  5-MIN KMKG 231805Z 24006KT 10SM FEW032 24/15 A3001 550 57 1700 250/06 RMK AO2
14840KMKG MKG20000623131009606/23/00 13:10:31  5-MIN KMKG 231810Z 21008KT 10SM FEW032 24/15 A3001 550 55 1800 220/08 RMK AO2
14840KMKG MKG20000623131509606/23/00 13:15:31  5-MIN KMKG 231815Z 24007KT 10SM FEW032 24/15 A3001 550 57 1700 240/07 RMK AO2
14840KMKG MKG20000623132009606/23/00 13:20:31  5-MIN KMKG 231820Z 24007KT 10SM FEW032 24/15 A3001 550 57 1700 240/07 RMK AO2
14840KMKG MKG20000623132509806/23/00 13:25:31  5-MIN KMKG 231825Z 24007KT 10SM FEW032 24/15 A3000 550 55 1800 240/07 RMK AO2 $
14840KMKG MKG20000623133009806/23/00 13:30:31  5-MIN KMKG 231830Z 21006KT 10SM FEW032 24/15 A3000 550 57 1800 210/06 RMK AO2 $
14840KMKG MKG20000623133509806/23/00 13:35:31  5-MIN KMKG 231835Z 24007KT 10SM FEW032 24/15 A3001 550 57 1700 240/07 RMK AO2 $
14840KMKG MKG20000623134009806/23/00 13:40:31  5-MIN KMKG 231840Z 22008KT 10SM FEW032 24/15 A3001 550 55 1800 220/08 RMK AO2 $
14840KMKG MKG20000623134509806/23/00 13:45:31  5-MIN KMKG 231845Z 23009KT 10SM FEW032 24/14 A3000 550 55 1800 240/09 RMK AO2 $
14840KMKG MKG20000623135011506/23/00 13:50:31  5-MIN KMKG 231850Z 23009KT 10SM FEW032 24/14 A3000 560 55 1800 240/09 RMK AO2 SLP157 T02390144 $
14840KMKG MKG20000623135511506/23/00 13:55:31  5-MIN KMKG 231855Z 22009KT 10SM FEW032 24/14 A3000 560 55 1800 220/09 RMK AO2 SLP157 T02390144 $
14840KMKG MKG20000623140009806/23/00 14:00:31  5-MIN KMKG 231900Z 22008KT 10SM FEW032 23/15 A3000 560 59 1700 230/08 RMK AO2 $
14840KMKG MKG20000623140509806/23/00 14:05:31  5-MIN KMKG 231905Z 26008KT 10SM FEW032 23/15 A3000 560 59 1700 260/08 RMK AO2 $
14840KMKG MKG20000623141009806/23/00 14:10:31  5-MIN KMKG 231910Z 24009KT 10SM FEW032 23/15 A3000 560 59 1700 240/09 RMK AO2 $
14840KMKG MKG20000623141509806/23/00 14:15:31  5-MIN KMKG 231915Z 23008KT 10SM FEW032 24/16 A2999 560 59 1800 240/08 RMK AO2 $
14840KMKG MKG20000623142009806/23/00 14:20:31  5-MIN KMKG 231920Z 21008KT 10SM FEW032 24/15 A2998 570 57 1800 210/08 RMK AO2 $
14840KMKG MKG20000623142509806/23/00 14:25:31  5-MIN KMKG 231925Z 23008KT 10SM FEW032 24/15 A2998 570 57 1800 240/08 RMK AO2 $
14840KMKG MKG20000623143009806/23/00 14:30:31  5-MIN KMKG 231930Z 20008KT 10SM FEW032 24/14 A2997 580 55 1800 200/08 RMK AO2 $
14840KMKG MKG20000623143509806/23/00 14:35:31  5-MIN KMKG 231935Z 18007KT 10SM FEW032 24/14 A2997 590 55 1800 180/07 RMK AO2 $
14840KMKG MKG20000623144009806/23/00 14:40:31  5-MIN KMKG 231940Z 19006KT 10SM FEW032 24/14 A2997 590 55 1800 190/06 RMK AO2 $
14840KMKG MKG20000623144509806/23/00 14:45:31  5-MIN KMKG 231945Z 19008KT 10SM FEW032 24/15 A2996 590 55 1900 190/08 RMK AO2 $
14840KMKG MKG20000623145011506/23/00 14:50:31  5-MIN KMKG 231950Z 17007KT 10SM FEW032 24/15 A2996 590 55 1900 170/07 RMK AO2 SLP144 T02440150 $
14840KMKG MKG20000623145511506/23/00 14:55:31  5-MIN KMKG 231955Z 20007KT 10SM FEW032 24/15 A2996 590 55 1900 210/07 RMK AO2 SLP146 T02440150 $
14840KMKG MKG20000623150009506/23/00 15:00:31  5-MIN KMKG 232000Z 19007KT 10SM CLR 24/14 A2997 590 53 1900 200/07 RMK AO2 $
14840KMKG MKG20000623150509506/23/00 15:05:31  5-MIN KMKG 232005Z 15007KT 10SM CLR 25/14 A2995 600 51 1900 150/07 RMK AO2 $
14840KMKG MKG20000623151009506/23/00 15:10:31  5-MIN KMKG 232010Z VRB05KT 10SM CLR 24/14 A2995 600 53 1900 VRB/05 RMK AO2 $
14840KMKG MKG20000623151509506/23/00 15:15:31  5-MIN KMKG 232015Z 21008KT 10SM CLR 24/14 A2995 600 51 1900 210/08 RMK AO2 $
14840KMKG MKG20000623152009506/23/00 15:20:31  5-MIN KMKG 232020Z 17005KT 10SM CLR 24/14 A2995 600 51 1900 170/05 RMK AO2 $
14840KMKG MKG20000623152509506/23/00 15:25:31  5-MIN KMKG 232025Z 15005KT 10SM CLR 24/14 A2995 600 53 1800 150/05 RMK AO2 $
14840KMKG MKG20000623153010906/23/00 15:30:31  5-MIN KMKG 232030Z 19007KT 150V230 10SM CLR 24/14 A2995 600 53 1800 190/07 150V230 RMK AO2
14840KMKG MKG20000623153509306/23/00 15:35:31  5-MIN KMKG 232035Z 22007KT 10SM CLR 25/14 A2996 600 51 1900 230/07 RMK AO2
14840KMKG MKG20000623154009306/23/00 15:40:31  5-MIN KMKG 232040Z 21008KT 10SM CLR 26/15 A2996 590 51 2000 220/08 RMK AO2
14840KMKG MKG20000623154510906/23/00 15:45:31  5-MIN KMKG 232045Z 23008KT 190V260 10SM CLR 24/14 A2996 590 53 1900 230/08 190V260 RMK AO2
14840KMKG MKG20000623155011906/23/00 15:50:31  5-MIN KMKG 232050Z 20010KT 10SM FEW032 25/14 A2996 600 51 1900 210/10 RMK AO2 SLP142 T02500144 58001
14840KMKG MKG20000623155511906/23/00 15:55:31  5-MIN KMKG 232055Z 22010KT 10SM FEW032 24/14 A2996 590 53 1900 220/10 RMK AO2 SLP145 T02440144 56017
14840KMKG MKG20000623160009306/23/00 16:00:31  5-MIN KMKG 232100Z 20011KT 10SM CLR 24/14 A2996 590 51 1900 200/11 RMK AO2
14840KMKG MKG20000623160509306/23/00 16:05:31  5-MIN KMKG 232105Z 20011KT 10SM CLR 24/13 A2996 600 49 1900 210/11 RMK AO2
14840KMKG MKG20000623161009306/23/00 16:10:31  5-MIN KMKG 232110Z 20008KT 10SM CLR 24/14 A2995 600 51 1900 200/08 RMK AO2
14840KMKG MKG20000623161510006/23/00 16:15:31  5-MIN KMKG 232115Z 20008KT 10SM CLR 24/13 A2994 610 51 1800 210/08 RMK AO2 PRESFR
14840KMKG MKG20000623162010006/23/00 16:20:31  5-MIN KMKG 232120Z 18007KT 10SM CLR 24/13 A2994 610 51 1800 180/07 RMK AO2 PRESFR
14840KMKG MKG20000623162509306/23/00 16:25:31  5-MIN KMKG 232125Z 19008KT 10SM CLR 24/14 A2994 620 53 1800 190/08 RMK AO2
14840KMKG MKG20000623163009306/23/00 16:30:31  5-MIN KMKG 232130Z 20008KT 10SM CLR 24/14 A2994 610 53 1800 200/08 RMK AO2
14840KMKG MKG20000623163509306/23/00 16:35:31  5-MIN KMKG 232135Z 18007KT 10SM CLR 24/14 A2995 610 53 1800 180/07 RMK AO2
14840KMKG MKG20000623164009306/23/00 16:40:31  5-MIN KMKG 232140Z 20006KT 10SM CLR 24/14 A2994 610 53 1900 200/06 RMK AO2
14840KMKG MKG20000623164509306/23/00 16:45:31  5-MIN KMKG 232145Z 20008KT 10SM CLR 24/14 A2994 610 53 1900 210/08 RMK AO2
14840KMKG MKG20000623165011006/23/00 16:50:31  5-MIN KMKG 232150Z 19008KT 10SM CLR 24/14 A2994 610 55 1800 190/08 RMK AO2 SLP138 T02390144
14840KMKG MKG20000623165511006/23/00 16:55:31  5-MIN KMKG 232155Z 19008KT 10SM CLR 24/14 A2995 610 53 1900 190/08 RMK AO2 SLP138 T02440144
14840KMKG MKG20000623170009306/23/00 17:00:31  5-MIN KMKG 232200Z 19007KT 10SM CLR 24/14 A2995 610 53 1900 190/07 RMK AO2
14840KMKG MKG20000623170509306/23/00 17:05:31  5-MIN KMKG 232205Z 19007KT 10SM CLR 24/14 A2995 600 53 1900 200/07 RMK AO2
14840KMKG MKG20000623171009306/23/00 17:10:31  5-MIN KMKG 232210Z 21006KT 10SM CLR 24/14 A2995 600 53 1800 210/06 RMK AO2
14840KMKG MKG20000623171509306/23/00 17:15:31  5-MIN KMKG 232215Z 19005KT 10SM CLR 24/14 A2995 600 53 1800 200/05 RMK AO2
14840KMKG MKG20000623172009306/23/00 17:20:31  5-MIN KMKG 232220Z 17005KT 10SM CLR 24/14 A2995 600 55 1800 170/05 RMK AO2
14840KMKG MKG20000623172509306/23/00 17:25:31  5-MIN KMKG 232225Z 20004KT 10SM CLR 24/14 A2995 600 53 1900 210/04 RMK AO2
14840KMKG MKG20000623173009306/23/00 17:30:31  5-MIN KMKG 232230Z 19005KT 10SM CLR 24/14 A2995 600 53 1900 190/05 RMK AO2
14840KMKG MKG20000623173509306/23/00 17:35:31  5-MIN KMKG 232235Z 19006KT 10SM CLR 24/14 A2995 600 55 1800 200/06 RMK AO2
14840KMKG MKG20000623174009306/23/00 17:40:31  5-MIN KMKG 232240Z 20005KT 10SM CLR 24/14 A2995 600 55 1800 210/05 RMK AO2
14840KMKG MKG20000623174509306/23/00 17:45:31  5-MIN KMKG 232245Z 19005KT 10SM CLR 24/14 A2994 610 55 1800 190/05 RMK AO2
14840KMKG MKG20000623175011006/23/00 17:50:31  5-MIN KMKG 232250Z 19004KT 10SM CLR 24/14 A2994 610 55 1800 190/04 RMK AO2 SLP138 T02390144
14840KMKG MKG20000623175511006/23/00 17:55:31  5-MIN KMKG 232255Z 20006KT 10SM CLR 24/14 A2994 610 55 1800 200/06 RMK AO2 SLP137 T02390144
14840KMKG MKG20000623180009306/23/00 18:00:31  5-MIN KMKG 232300Z 18006KT 10SM CLR 24/14 A2994 610 55 1800 190/06 RMK AO2
14840KMKG MKG20000623180509306/23/00 18:05:31  5-MIN KMKG 232305Z 18006KT 10SM CLR 24/14 A2994 620 55 1800 190/06 RMK AO2
14840KMKG MKG20000623181009306/23/00 18:10:31  5-MIN KMKG 232310Z 19006KT 10SM CLR 24/15 A2994 610 57 1800 200/06 RMK AO2
14840KMKG MKG20000623181509306/23/00 18:15:31  5-MIN KMKG 232315Z 19006KT 10SM CLR 23/15 A2994 610 59 1800 190/06 RMK AO2
14840KMKG MKG20000623182009306/23/00 18:20:31  5-MIN KMKG 232320Z 18004KT 10SM CLR 23/15 A2994 620 59 1800 180/04 RMK AO2
14840KMKG MKG20000623182509306/23/00 18:25:31  5-MIN KMKG 232325Z 18006KT 10SM CLR 23/14 A2994 610 57 1800 190/06 RMK AO2
14840KMKG MKG20000623183009306/23/00 18:30:31  5-MIN KMKG 232330Z 20005KT 10SM CLR 23/14 A2995 610 57 1800 200/05 RMK AO2
14840KMKG MKG20000623183509306/23/00 18:35:31  5-MIN KMKG 232335Z 19004KT 10SM CLR 23/14 A2995 610 57 1800 200/04 RMK AO2
14840KMKG MKG20000623184009306/23/00 18:40:31  5-MIN KMKG 232340Z 20004KT 10SM CLR 23/14 A2994 610 57 1800 200/04 RMK AO2
14840KMKG MKG20000623184509306/23/00 18:45:31  5-MIN KMKG 232345Z 18003KT 10SM CLR 23/15 A2995 610 59 1800 190/03 RMK AO2
14840KMKG MKG20000623185012806/23/00 18:50:31  5-MIN KMKG 232350Z 17003KT 10SM CLR 23/15 A2995 610 59 1800 180/03 RMK AO2 SLP139 T02330150 10256 20233 56017
14840KMKG MKG20000623185512806/23/00 18:55:31  5-MIN KMKG 232355Z 17003KT 10SM CLR 23/14 A2995 600 57 1700 180/03 RMK AO2 SLP139 T02330144 10256 20233 55005
14840KMKG MKG20000623190009306/23/00 19:00:31  5-MIN KMKG 240000Z 00000KT 10SM CLR 23/15 A2995 600 59 1700 000/00 RMK AO2
14840KMKG MKG20000623190509306/23/00 19:05:31  5-MIN KMKG 240005Z 00000KT 10SM CLR 23/15 A2995 600 59 1700 000/00 RMK AO2
14840KMKG MKG20000623191009306/23/00 19:10:31  5-MIN KMKG 240010Z 00000KT 10SM CLR 23/14 A2995 600 57 1800 000/00 RMK AO2
14840KMKG MKG20000623191509306/23/00 19:15:31  5-MIN KMKG 240015Z 00000KT 10SM CLR 23/15 A2995 610 59 1800 000/00 RMK AO2
14840KMKG MKG20000623192009306/23/00 19:20:31  5-MIN KMKG 240020Z 00000KT 10SM CLR 23/15 A2995 600 59 1800 000/00 RMK AO2
14840KMKG MKG20000623192509306/23/00 19:25:31  5-MIN KMKG 240025Z 00000KT 10SM CLR 23/15 A2995 610 61 1700 000/00 RMK AO2
14840KMKG MKG20000623193009306/23/00 19:30:31  5-MIN KMKG 240030Z 00000KT 10SM CLR 23/15 A2995 600 59 1700 000/00 RMK AO2
14840KMKG MKG20000623193509306/23/00 19:35:31  5-MIN KMKG 240035Z 00000KT 10SM CLR 23/15 A2995 600 61 1700 000/00 RMK AO2
14840KMKG MKG20000623194009306/23/00 19:40:31  5-MIN KMKG 240040Z 00000KT 10SM CLR 23/14 A2995 610 59 1700 000/00 RMK AO2
14840KMKG MKG20000623194509306/23/00 19:45:31  5-MIN KMKG 240045Z 00000KT 10SM CLR 23/15 A2994 610 61 1700 000/00 RMK AO2
14840KMKG MKG20000623195011006/23/00 19:50:31  5-MIN KMKG 240050Z 07004KT 10SM CLR 22/16 A2994 610 65 1600 070/04 RMK AO2 SLP136 T02220156
14840KMKG MKG20000623195511006/23/00 19:55:31  5-MIN KMKG 240055Z 07004KT 10SM CLR 22/16 A2994 620 70 1600 070/04 RMK AO2 SLP135 T02170161
14840KMKG MKG20000623200009306/23/00 20:00:31  5-MIN KMKG 240100Z 07005KT 10SM CLR 22/16 A2993 620 68 1600 080/05 RMK AO2
14840KMKG MKG20000623200509306/23/00 20:05:31  5-MIN KMKG 240105Z 07004KT 10SM CLR 22/16 A2993 620 68 1600 080/04 RMK AO2
14840KMKG MKG20000623201009306/23/00 20:10:31  5-MIN KMKG 240110Z 07005KT 10SM CLR 22/16 A2993 620 70 1600 070/05 RMK AO2
14840KMKG MKG20000623201509306/23/00 20:15:31  5-MIN KMKG 240115Z 06006KT 10SM CLR 22/16 A2993 620 70 1600 070/06 RMK AO2
14840KMKG MKG20000623202009306/23/00 20:20:31  5-MIN KMKG 240120Z 07007KT 10SM CLR 22/16 A2993 630 70 1600 070/07 RMK AO2
14840KMKG MKG20000623202509306/23/00 20:25:31  5-MIN KMKG 240125Z 07006KT 10SM CLR 22/16 A2993 630 70 1600 070/06 RMK AO2
14840KMKG MKG20000623203009306/23/00 20:30:31  5-MIN KMKG 240130Z 07005KT 10SM CLR 22/16 A2992 630 70 1600 080/05 RMK AO2
14840KMKG MKG20000623203509306/23/00 20:35:31  5-MIN KMKG 240135Z 08006KT 10SM CLR 21/16 A2992 630 73 1500 080/06 RMK AO2
14840KMKG MKG20000623204009306/23/00 20:40:31  5-MIN KMKG 240140Z 08006KT 10SM CLR 21/16 A2992 630 73 1500 080/06 RMK AO2
14840KMKG MKG20000623204509306/23/00 20:45:31  5-MIN KMKG 240145Z 09005KT 10SM CLR 21/16 A2992 630 73 1500 090/05 RMK AO2
14840KMKG MKG20000623205011006/23/00 20:50:31  5-MIN KMKG 240150Z 09005KT 10SM CLR 22/16 A2992 630 70 1600 100/05 RMK AO2 SLP127 T02170161
14840KMKG MKG20000623205511006/23/00 20:55:31  5-MIN KMKG 240155Z 09007KT 10SM CLR 22/16 A2991 640 68 1600 090/07 RMK AO2 SLP125 T02170156
14840KMKG MKG20000623210009306/23/00 21:00:31  5-MIN KMKG 240200Z 09008KT 10SM CLR 22/16 A2991 640 68 1600 090/08 RMK AO2
14840KMKG MKG20000623210509306/23/00 21:05:31  5-MIN KMKG 240205Z 08009KT 10SM CLR 22/16 A2990 650 68 1600 090/09 RMK AO2
14840KMKG MKG20000623211009306/23/00 21:10:31  5-MIN KMKG 240210Z 08008KT 10SM CLR 22/16 A2990 650 68 1600 080/08 RMK AO2
14840KMKG MKG20000623211509306/23/00 21:15:31  5-MIN KMKG 240215Z 08008KT 10SM CLR 22/16 A2990 650 68 1600 090/08 RMK AO2
14840KMKG MKG20000623212009306/23/00 21:20:31  5-MIN KMKG 240220Z 09008KT 10SM CLR 22/16 A2990 650 68 1600 090/08 RMK AO2
14840KMKG MKG20000623212509306/23/00 21:25:31  5-MIN KMKG 240225Z 08008KT 10SM CLR 22/16 A2990 650 68 1600 090/08 RMK AO2
14840KMKG MKG20000623213009306/23/00 21:30:31  5-MIN KMKG 240230Z 09008KT 10SM CLR 22/16 A2991 640 68 1600 090/08 RMK AO2
14840KMKG MKG20000623213509306/23/00 21:35:31  5-MIN KMKG 240235Z 09007KT 10SM CLR 21/16 A2991 640 70 1500 090/07 RMK AO2
14840KMKG MKG20000623214009306/23/00 21:40:31  5-MIN KMKG 240240Z 09007KT 10SM CLR 22/16 A2991 640 68 1600 090/07 RMK AO2
14840KMKG MKG20000623214509306/23/00 21:45:31  5-MIN KMKG 240245Z 10005KT 10SM CLR 22/16 A2992 630 68 1600 100/05 RMK AO2
14840KMKG MKG20000623215011606/23/00 21:50:31  5-MIN KMKG 240250Z 09005KT 10SM CLR 21/16 A2992 630 70 1500 100/05 RMK AO2 SLP128 T02110156 55005
14840KMKG MKG20000623215511606/23/00 21:55:31  5-MIN KMKG 240255Z 09005KT 10SM CLR 21/16 A2992 630 70 1500 090/05 RMK AO2 SLP128 T02110156 55009
14840KMKG MKG20000623220009306/23/00 22:00:31  5-MIN KMKG 240300Z 09005KT 10SM CLR 21/16 A2992 630 70 1500 090/05 RMK AO2
14840KMKG MKG20000623220509306/23/00 22:05:31  5-MIN KMKG 240305Z 09005KT 10SM CLR 21/16 A2992 630 70 1500 090/05 RMK AO2
14840KMKG MKG20000623221009306/23/00 22:10:31  5-MIN KMKG 240310Z 08004KT 10SM CLR 21/16 A2992 630 70 1500 080/04 RMK AO2
14840KMKG MKG20000623221509306/23/00 22:15:31  5-MIN KMKG 240315Z 07004KT 10SM CLR 21/16 A2992 630 75 1500 070/04 RMK AO2
14840KMKG MKG20000623222009306/23/00 22:20:31  5-MIN KMKG 240320Z 06005KT 10SM CLR 21/16 A2992 630 75 1500 070/05 RMK AO2
14840KMKG MKG20000623222509306/23/00 22:25:31  5-MIN KMKG 240325Z 07004KT 10SM CLR 21/16 A2992 630 75 1500 070/04 RMK AO2
14840KMKG MKG20000623223009306/23/00 22:30:31  5-MIN KMKG 240330Z 07003KT 10SM CLR 21/16 A2992 630 75 1500 080/03 RMK AO2
14840KMKG MKG20000623223509306/23/00 22:35:31  5-MIN KMKG 240335Z 07003KT 10SM CLR 21/16 A2992 630 75 1500 080/03 RMK AO2
14840KMKG MKG20000623224009306/23/00 22:40:31  5-MIN KMKG 240340Z 07004KT 10SM CLR 20/16 A2991 640 78 1400 080/04 RMK AO2
14840KMKG MKG20000623224509306/23/00 22:45:31  5-MIN KMKG 240345Z 08004KT 10SM CLR 20/16 A2991 640 78 1400 090/04 RMK AO2
14840KMKG MKG20000623225011006/23/00 22:50:31  5-MIN KMKG 240350Z 10005KT 10SM CLR 20/16 A2991 640 78 1400 100/05 RMK AO2 SLP124 T02000161
14840KMKG MKG20000623225511006/23/00 22:55:31  5-MIN KMKG 240355Z 10005KT 10SM CLR 21/16 A2991 640 75 1500 110/05 RMK AO2 SLP125 T02060161
14840KMKG MKG20000623230009306/23/00 23:00:31  5-MIN KMKG 240400Z 10005KT 10SM CLR 21/16 A2991 640 75 1500 100/05 RMK AO2
14840KMKG MKG20000623230509306/23/00 23:05:31  5-MIN KMKG 240405Z 10005KT 10SM CLR 21/16 A2991 640 75 1500 100/05 RMK AO2
14840KMKG MKG20000623231009306/23/00 23:10:31  5-MIN KMKG 240410Z 12004KT 10SM CLR 21/16 A2991 640 75 1500 120/04 RMK AO2
14840KMKG MKG20000623231509306/23/00 23:15:31  5-MIN KMKG 240415Z 13005KT 10SM CLR 20/16 A2991 640 78 1400 130/05 RMK AO2
14840KMKG MKG20000623232009306/23/00 23:20:31  5-MIN KMKG 240420Z 12006KT 10SM CLR 20/16 A2990 650 78 1400 130/06 RMK AO2
14840KMKG MKG20000623232509306/23/00 23:25:31  5-MIN KMKG 240425Z 12006KT 10SM CLR 20/16 A2990 650 78 1400 130/06 RMK AO2
14840KMKG MKG20000623233009306/23/00 23:30:31  5-MIN KMKG 240430Z 12007KT 10SM CLR 20/16 A2990 650 78 1400 130/07 RMK AO2
14840KMKG MKG20000623233509306/23/00 23:35:31  5-MIN KMKG 240435Z 12007KT 10SM CLR 20/16 A2990 650 78 1400 120/07 RMK AO2
14840KMKG MKG20000623234009306/23/00 23:40:31  5-MIN KMKG 240440Z 12008KT 10SM CLR 20/16 A2989 650 78 1400 120/08 RMK AO2
14840KMKG MKG20000623234509306/23/00 23:45:31  5-MIN KMKG 240445Z 12008KT 10SM CLR 21/16 A2989 660 75 1500 120/08 RMK AO2
14840KMKG MKG20000623235012006/23/00 23:50:31  5-MIN KMKG 240450Z 13008KT 10SM CLR 21/16 A2989 660 75 1500 130/08 RMK AO2 SLP118 T02060161 402560128
14840KMKG MKG20000623235512006/23/00 23:55:31  5-MIN KMKG 240455Z 13008KT 10SM CLR 21/16 A2989 660 75 1500 130/08 RMK AO2 SLP117 T02060161 402560128
14840KMKG MKG20000624000009306/24/00 00:00:31  5-MIN KMKG 240500Z 13009KT 10SM CLR 21/16 A2989 660 75 1500 140/09 RMK AO2
14840KMKG MKG20000624000509306/24/00 00:05:31  5-MIN KMKG 240505Z 13008KT 10SM CLR 21/16 A2989 660 75 1500 140/08 RMK AO2
14840KMKG MKG20000624001009306/24/00 00:10:31  5-MIN KMKG 240510Z 13008KT 10SM CLR 21/16 A2988 660 73 1600 130/08 RMK AO2
14840KMKG MKG20000624001509306/24/00 00:15:31  5-MIN KMKG 240515Z 13008KT 10SM CLR 21/16 A2988 670 73 1600 140/08 RMK AO2
14840KMKG MKG20000624002009306/24/00 00:20:31  5-MIN KMKG 240520Z 13009KT 10SM CLR 21/16 A2988 670 73 1600 140/09 RMK AO2
14840KMKG MKG20000624002509306/24/00 00:25:31  5-MIN KMKG 240525Z 12008KT 10SM CLR 22/16 A2988 670 70 1600 130/08 RMK AO2
14840KMKG MKG20000624003009306/24/00 00:30:31  5-MIN KMKG 240530Z 12009KT 10SM CLR 21/16 A2987 670 73 1600 130/09 RMK AO2
14840KMKG MKG20000624003509306/24/00 00:35:31  5-MIN KMKG 240535Z 12008KT 10SM CLR 22/16 A2987 680 70 1600 130/08 RMK AO2
14840KMKG MKG20000624004009306/24/00 00:40:31  5-MIN KMKG 240540Z 15008KT 10SM CLR 22/16 A2988 670 70 1600 150/08 RMK AO2
14840KMKG MKG20000624004509306/24/00 00:45:31  5-MIN KMKG 240545Z 15008KT 10SM CLR 22/16 A2988 670 70 1600 150/08 RMK AO2
14840KMKG MKG20000624005012806/24/00 00:50:31  5-MIN KMKG 240550Z 15008KT 10SM CLR 22/16 A2988 670 70 1600 150/08 RMK AO2 SLP113 T02170161 10233 20200 55009
14840KMKG MKG20000624005512806/24/00 00:55:31  5-MIN KMKG 240555Z 14008KT 10SM CLR 22/16 A2988 670 68 1700 140/08 RMK AO2 SLP114 T02220161 10233 20200 58015
14840KMKG MKG20000624010009306/24/00 01:00:31  5-MIN KMKG 240600Z 14008KT 10SM CLR 22/16 A2988 670 70 1600 140/08 RMK AO2
14840KMKG MKG20000624010509306/24/00 01:05:31  5-MIN KMKG 240605Z 16008KT 10SM CLR 22/16 A2987 670 70 1600 160/08 RMK AO2
14840KMKG MKG20000624011009306/24/00 01:10:31  5-MIN KMKG 240610Z 16010KT 10SM CLR 22/16 A2987 680 68 1700 160/10 RMK AO2
14840KMKG MKG20000624011510306/24/00 01:15:31  5-MIN KMKG 240615Z 16009KT 10SM FEW100 SCT110 22/17 A2987 680 70 1700 170/09 RMK AO2
14840KMKG MKG20000624012011206/24/00 01:20:31  5-MIN KMKG 240620Z 17009KT 10SM -RA SCT095 22/17 A2987 680 70 1700 180/09 RMK AO2 RAB19 P0000
14840KMKG MKG20000624012511206/24/00 01:25:31  5-MIN KMKG 240625Z 17008KT 10SM -RA SCT090 22/17 A2986 690 73 1700 170/08 RMK AO2 RAB19 P0000
14840KMKG MKG20000624013011206/24/00 01:30:31  5-MIN KMKG 240630Z 16009KT 10SM -RA BKN090 22/17 A2986 690 75 1700 160/09 RMK AO2 RAB19 P0000
14840KMKG MKG20000624013511906/24/00 01:35:31  5-MIN KMKG 240635Z 15010KT 10SM -RA BKN090 BKN110 21/17 A2985 690 78 1600 160/10 RMK AO2 RAB19 P0000
14840KMKG MKG20000624014013406/24/00 01:40:31  5-MIN KMKG 240640Z 15008KT 10SM -RA BKN095 OVC110 22/17 A2986 690 75 1700 150/08 RMK AO2 RAB19 CIG 080 RWY 14 P0000
14840KMKG MKG20000624014511906/24/00 01:45:31  5-MIN KMKG 240645Z 14004KT 10SM -RA BKN090 OVC120 21/17 A2986 690 78 1600 150/04 RMK AO2 RAB19 P0000
14840KMKG MKG20000624015015006/24/00 01:50:31  5-MIN KMKG 240650Z 17003KT 10SM SCT095 OVC120 22/17 A2986 680 73 1700 170/03 RMK AO2 RAB19E47 CIG 085 RWY 14 SLP109 P0000 T02170167
14840KMKG MKG20000624015512806/24/00 01:55:31  5-MIN KMKG 240655Z 15004KT 10SM OVC110 22/17 A2987 680 73 1700 160/04 RMK AO2 RAB19E47 SLP110 P0000 T02170167
14840KMKG MKG20000624020009606/24/00 02:00:31  5-MIN KMKG 240700Z 16004KT 10SM OVC110 22/17 A2986 680 73 1700 160/04 RMK AO2
14840KMKG MKG20000624020509606/24/00 02:05:31  5-MIN KMKG 240705Z 15006KT 10SM BKN110 22/16 A2986 680 70 1700 150/06 RMK AO2
14840KMKG MKG20000624021009606/24/00 02:10:31  5-MIN KMKG 240710Z 15008KT 10SM BKN110 22/17 A2986 690 73 1700 150/08 RMK AO2
14840KMKG MKG20000624021509606/24/00 02:15:31  5-MIN KMKG 240715Z 16009KT 10SM SCT110 22/17 A2986 690 70 1700 160/09 RMK AO2
14840KMKG MKG20000624022009606/24/00 02:20:31  5-MIN KMKG 240720Z 16011KT 10SM FEW120 22/17 A2986 690 70 1700 160/11 RMK AO2
14840KMKG MKG20000624022509606/24/00 02:25:31  5-MIN KMKG 240725Z 16010KT 10SM FEW120 22/17 A2986 690 70 1700 160/10 RMK AO2
14840KMKG MKG20000624023009306/24/00 02:30:31  5-MIN KMKG 240730Z 15010KT 10SM CLR 22/17 A2985 690 73 1700 160/10 RMK AO2
14840KMKG MKG20000624023509306/24/00 02:35:31  5-MIN KMKG 240735Z 15010KT 10SM CLR 22/17 A2985 700 73 1700 150/10 RMK AO2
14840KMKG MKG20000624024009306/24/00 02:40:31  5-MIN KMKG 240740Z 15010KT 10SM CLR 22/17 A2985 700 73 1700 150/10 RMK AO2
14840KMKG MKG20000624024509306/24/00 02:45:31  5-MIN KMKG 240745Z 15009KT 10SM CLR 22/17 A2985 700 75 1700 160/09 RMK AO2
14840KMKG MKG20000624025011006/24/00 02:50:31  5-MIN KMKG 240750Z 16010KT 10SM CLR 22/17 A2985 700 75 1700 170/10 RMK AO2 SLP105 T02170172
14840KMKG MKG20000624025511006/24/00 02:55:31  5-MIN KMKG 240755Z 16007KT 10SM CLR 22/17 A2985 690 75 1700 160/07 RMK AO2 SLP106 T02170172
14840KMKG MKG20000624030009606/24/00 03:00:31  5-MIN KMKG 240800Z VRB04KT 10SM FEW120 22/17 A2986 690 75 1700 VRB/04 RMK AO2
14840KMKG MKG20000624030509606/24/00 03:05:31  5-MIN KMKG 240805Z 20005KT 10SM SCT120 22/17 A2985 690 75 1700 210/05 RMK AO2
14840KMKG MKG20000624031009606/24/00 03:10:31  5-MIN KMKG 240810Z 24004KT 10SM SCT120 22/17 A2986 690 75 1700 250/04 RMK AO2
14840KMKG MKG20000624031510306/24/00 03:15:31  5-MIN KMKG 240815Z 20009KT 10SM FEW100 BKN120 22/17 A2987 680 75 1700 210/09 RMK AO2
14840KMKG MKG20000624032009606/24/00 03:20:31  5-MIN KMKG 240820Z 20011KT 10SM BKN110 22/17 A2987 670 75 1600 200/11 RMK AO2
14840KMKG MKG20000624032509606/24/00 03:25:31  5-MIN KMKG 240825Z 20009KT 10SM BKN110 22/17 A2987 670 75 1600 200/09 RMK AO2
14840KMKG MKG20000624033010306/24/00 03:30:31  5-MIN KMKG 240830Z 19009KT 10SM SCT100 BKN120 22/17 A2987 670 75 1600 200/09 RMK AO2
14840KMKG MKG20000624033510306/24/00 03:35:31  5-MIN KMKG 240835Z 19010KT 10SM BKN100 OVC120 22/17 A2987 670 75 1600 190/10 RMK AO2
14840KMKG MKG20000624034010906/24/00 03:40:31  5-MIN KMKG 240840Z 19014G18KT 10SM BKN100 OVC120 21/17 A2988 670 78 1600 190/14G18 RMK AO2
14840KMKG MKG20000624034510206/24/00 03:45:31  5-MIN KMKG 240845Z 20012G18KT 10SM BKN100 21/18 A2988 670 81 1600 210/12G18 RMK AO2
14840KMKG MKG20000624035012506/24/00 03:50:31  5-MIN KMKG 240850Z 21012KT 10SM BKN100 21/18 A2988 670 84 1500 210/12 RMK AO2 SLP114 60000 T02060178 58015
14840KMKG MKG20000624035512506/24/00 03:55:31  5-MIN KMKG 240855Z 22014KT 10SM BKN100 21/18 A2988 670 84 1500 220/14 RMK AO2 SLP114 60000 T02060178 53001
14840KMKG MKG20000624040009606/24/00 04:00:31  5-MIN KMKG 240900Z 22013KT 10SM BKN100 20/18 A2987 670 87 1500 220/13 RMK AO2
14840KMKG MKG20000624040509606/24/00 04:05:31  5-MIN KMKG 240905Z 21014KT 10SM BKN100 19/18 A2987 680 90 1400 210/14 RMK AO2
14840KMKG MKG20000624041010906/24/00 04:10:31  5-MIN KMKG 240910Z 20011G19KT 10SM FEW020 BKN100 19/18 A2987 680 90 1400 210/11G19 RMK AO2
14840KMKG MKG20000624041510306/24/00 04:15:31  5-MIN KMKG 240915Z 20009KT 10SM SCT018 BKN100 19/18 A2987 670 90 1400 200/09 RMK AO2
14840KMKG MKG20000624042010906/24/00 04:20:31  5-MIN KMKG 240920Z 19013G17KT 10SM BKN018 OVC100 19/18 A2988 670 90 1400 200/13G17 RMK AO2
14840KMKG MKG20000624042510306/24/00 04:25:31  5-MIN KMKG 240925Z 19012KT 10SM BKN016 OVC100 19/18 A2987 680 90 1400 190/12 RMK AO2
14840KMKG MKG20000624043010306/24/00 04:30:31  5-MIN KMKG 240930Z 20011KT 10SM SCT016 OVC100 19/18 A2987 670 90 1400 200/11 RMK AO2
14840KMKG MKG20000624043510306/24/00 04:35:31  5-MIN KMKG 240935Z 20011KT 10SM SCT016 OVC110 19/18 A2988 670 90 1400 210/11 RMK AO2
14840KMKG MKG20000624044010306/24/00 04:40:31  5-MIN KMKG 240940Z 20013KT 10SM SCT016 OVC110 19/18 A2988 670 90 1400 200/13 RMK AO2
14840KMKG MKG20000624044510306/24/00 04:45:31  5-MIN KMKG 240945Z 20011KT 10SM FEW016 BKN110 19/18 A2987 670 90 1400 200/11 RMK AO2
14840KMKG MKG20000624045012006/24/00 04:50:31  5-MIN KMKG 240950Z 19009KT 10SM SCT016 BKN110 19/18 A2987 680 90 1400 200/09 RMK AO2 SLP111 T01940178
14840KMKG MKG20000624045512006/24/00 04:55:31  5-MIN KMKG 240955Z 18009KT 10SM BKN016 OVC110 19/18 A2987 680 90 1400 190/09 RMK AO2 SLP111 T01940178
14840KMKG MKG20000624050010306/24/00 05:00:31  5-MIN KMKG 241000Z 19007KT 10SM BKN014 OVC110 19/18 A2987 670 90 1400 190/07 RMK AO2
14840KMKG MKG20000624050510306/24/00 05:05:31  5-MIN KMKG 241005Z 19009KT 10SM BKN014 OVC110 19/18 A2987 680 90 1400 190/09 RMK AO2
14840KMKG MKG20000624051009606/24/00 05:10:31  5-MIN KMKG 241010Z 19007KT 10SM OVC014 19/18 A2987 680 90 1400 200/07 RMK AO2
14840KMKG MKG20000624051509606/24/00 05:15:31  5-MIN KMKG 241015Z 19006KT 10SM OVC014 19/18 A2987 680 90 1400 190/06 RMK AO2
14840KMKG MKG20000624052009606/24/00 05:20:31  5-MIN KMKG 241020Z 20008KT 10SM OVC014 19/18 A2987 680 90 1400 200/08 RMK AO2
14840KMKG MKG20000624052509606/24/00 05:25:31  5-MIN KMKG 241025Z 19008KT 10SM OVC014 19/18 A2987 680 90 1400 200/08 RMK AO2
14840KMKG MKG20000624053009606/24/00 05:30:31  5-MIN KMKG 241030Z 20007KT 10SM OVC014 19/18 A2986 680 90 1400 200/07 RMK AO2
14840KMKG MKG20000624053509606/24/00 05:35:31  5-MIN KMKG 241035Z 19008KT 10SM OVC014 19/18 A2987 680 90 1400 190/08 RMK AO2
14840KMKG MKG20000624054009606/24/00 05:40:31  5-MIN KMKG 241040Z 20008KT 10SM OVC014 19/18 A2987 680 90 1400 210/08 RMK AO2
14840KMKG MKG20000624054509606/24/00 05:45:31  5-MIN KMKG 241045Z 19009KT 10SM OVC014 19/18 A2987 680 90 1400 190/09 RMK AO2
14840KMKG MKG20000624055011306/24/00 05:50:31  5-MIN KMKG 241050Z 19007KT 10SM OVC014 19/18 A2987 680 90 1400 190/07 RMK AO2 SLP111 T01940178
14840KMKG MKG20000624055511306/24/00 05:55:31  5-MIN KMKG 241055Z 19008KT 10SM OVC014 19/18 A2987 670 90 1400 190/08 RMK AO2 SLP112 T01940178
14840KMKG MKG20000624060009606/24/00 06:00:31  5-MIN KMKG 241100Z 20008KT 10SM OVC014 19/18 A2988 670 90 1400 200/08 RMK AO2
14840KMKG MKG20000624060509606/24/00 06:05:31  5-MIN KMKG 241105Z 20006KT 10SM OVC014 19/18 A2988 670 90 1400 200/06 RMK AO2
14840KMKG MKG20000624061009606/24/00 06:10:31  5-MIN KMKG 241110Z 19007KT 10SM OVC012 19/18 A2988 670 90 1400 200/07 RMK AO2
14840KMKG MKG20000624061509606/24/00 06:15:31  5-MIN KMKG 241115Z 18006KT 10SM OVC012 19/18 A2988 670 90 1400 180/06 RMK AO2
14840KMKG MKG20000624062009606/24/00 06:20:31  5-MIN KMKG 241120Z 18008KT 10SM OVC012 19/18 A2988 670 90 1400 180/08 RMK AO2
14840KMKG MKG20000624062509606/24/00 06:25:31  5-MIN KMKG 241125Z 18007KT 10SM OVC012 19/18 A2988 670 90 1400 180/07 RMK AO2
14840KMKG MKG20000624063009606/24/00 06:30:31  5-MIN KMKG 241130Z 19008KT 10SM OVC012 20/18 A2988 670 90 1400 190/08 RMK AO2
14840KMKG MKG20000624063509606/24/00 06:35:31  5-MIN KMKG 241135Z 20009KT 10SM OVC012 20/18 A2989 660 90 1400 200/09 RMK AO2
14840KMKG MKG20000624064009606/24/00 06:40:31  5-MIN KMKG 241140Z 19007KT 10SM OVC012 20/18 A2989 660 90 1400 190/07 RMK AO2
14840KMKG MKG20000624064509606/24/00 06:45:31  5-MIN KMKG 241145Z 19010KT 10SM OVC012 20/18 A2989 660 90 1400 190/10 RMK AO2
14840KMKG MKG20000624065013706/24/00 06:50:31  5-MIN KMKG 241150Z 19009KT 10SM OVC012 20/18 A2989 660 90 1400 190/09 RMK AO2 SLP118 60000 T02000183 10222 20194 53001
14840KMKG MKG20000624065513706/24/00 06:55:31  5-MIN KMKG 241155Z 19008KT 10SM OVC012 20/18 A2989 660 90 1400 190/08 RMK AO2 SLP118 60000 T02000183 10222 20194 53004
14840KMKG MKG20000624070009606/24/00 07:00:31  5-MIN KMKG 241200Z 18011KT 10SM OVC012 20/18 A2989 660 90 1400 190/11 RMK AO2
14840KMKG MKG20000624070509606/24/00 07:05:31  5-MIN KMKG 241205Z 19010KT 10SM OVC012 20/18 A2989 660 90 1400 200/10 RMK AO2
14840KMKG MKG20000624071009606/24/00 07:10:31  5-MIN KMKG 241210Z 18010KT 10SM OVC012 20/18 A2989 660 90 1400 190/10 RMK AO2
14840KMKG MKG20000624071509606/24/00 07:15:31  5-MIN KMKG 241215Z 18009KT 10SM OVC012 20/18 A2988 660 90 1400 190/09 RMK AO2
14840KMKG MKG20000624072009606/24/00 07:20:31  5-MIN KMKG 241220Z 18010KT 10SM OVC014 21/18 A2988 660 87 1500 190/10 RMK AO2
14840KMKG MKG20000624072509606/24/00 07:25:31  5-MIN KMKG 241225Z 18011KT 10SM OVC014 21/18 A2988 670 87 1500 190/11 RMK AO2
14840KMKG MKG20000624073009606/24/00 07:30:31  5-MIN KMKG 241230Z 18010KT 10SM OVC014 20/18 A2988 660 90 1400 180/10 RMK AO2
14840KMKG MKG20000624073510306/24/00 07:35:31  5-MIN KMKG 241235Z 18009KT 10SM FEW009 OVC014 20/18 A2988 670 90 1400 180/09 RMK AO2
14840KMKG MKG20000624074010306/24/00 07:40:31  5-MIN KMKG 241240Z 18011KT 10SM FEW009 OVC014 21/18 A2988 670 87 1500 180/11 RMK AO2
14840KMKG MKG20000624074510306/24/00 07:45:31  5-MIN KMKG 241245Z 18011KT 10SM SCT009 OVC014 20/18 A2988 670 90 1400 180/11 RMK AO2
14840KMKG MKG20000624075013206/24/00 07:50:31  5-MIN KMKG 241250Z 18010KT 10SM BKN009 OVC014 21/18 A2988 670 87 1500 180/10 RMK AO2 CIG 008V013 SLP113 T02060183
14840KMKG MKG20000624075512006/24/00 07:55:31  5-MIN KMKG 241255Z 18009KT 10SM SCT009 OVC014 21/18 A2987 670 87 1500 190/09 RMK AO2 SLP113 T02060183
14840KMKG MKG20000624080010306/24/00 08:00:31  5-MIN KMKG 241300Z 19012KT 10SM SCT009 OVC014 21/18 A2987 680 87 1500 190/12 RMK AO2
14840KMKG MKG20000624080510306/24/00 08:05:31  5-MIN KMKG 241305Z 18011KT 10SM SCT009 OVC016 20/18 A2987 680 90 1500 190/11 RMK AO2
14840KMKG MKG20000624081010306/24/00 08:10:31  5-MIN KMKG 241310Z 19009KT 10SM FEW009 OVC016 21/18 A2987 670 87 1500 200/09 RMK AO2
14840KMKG MKG20000624081510306/24/00 08:15:31  5-MIN KMKG 241315Z 20009KT 10SM FEW009 OVC016 21/18 A2988 670 87 1500 200/09 RMK AO2
14840KMKG MKG20000624082011006/24/00 08:20:31  5-MIN KMKG 241320Z 19011KT 10SM FEW009 BKN014 OVC020 21/18 A2988 670 87 1500 190/11 RMK AO2
14840KMKG MKG20000624082511806/24/00 08:25:31  5-MIN KMKG 241325Z 19010KT 10SM SCT011 OVC018 21/18 A2987 670 87 1500 190/10 RMK AO2 CIG 013 RWY 14
14840KMKG MKG20000624083010306/24/00 08:30:31  5-MIN KMKG 241330Z 19011KT 10SM BKN013 OVC020 21/18 A2987 670 87 1500 200/11 RMK AO2
14840KMKG MKG20000624083512506/24/00 08:35:31  5-MIN KMKG 241335Z 18010KT 10SM SCT011 BKN016 OVC024 21/19 A2987 670 87 1600 180/10 RMK AO2 CIG 011 RWY 14
14840KMKG MKG20000624084011806/24/00 08:40:31  5-MIN KMKG 241340Z 18009KT 10SM SCT011 OVC023 21/18 A2987 670 87 1500 190/09 RMK AO2 CIG 011 RWY 14
14840KMKG MKG20000624084510306/24/00 08:45:31  5-MIN KMKG 241345Z 17010KT 10SM SCT011 OVC021 21/18 A2987 680 87 1500 170/10 RMK AO2
14840KMKG MKG20000624085012006/24/00 08:50:31  5-MIN KMKG 241350Z 19009KT 10SM FEW011 OVC020 21/18 A2987 670 87 1500 190/09 RMK AO2 SLP113 T02060183
14840KMKG MKG20000624085512006/24/00 08:55:31  5-MIN KMKG 241355Z 17010KT 10SM FEW011 OVC020 21/18 A2987 670 87 1500 180/10 RMK AO2 SLP113 T02060183
14840KMKG MKG20000624090010306/24/00 09:00:31  5-MIN KMKG 241400Z 18010KT 10SM FEW011 OVC020 21/18 A2987 680 84 1600 190/10 RMK AO2
14840KMKG MKG20000624090510306/24/00 09:05:31  5-MIN KMKG 241405Z 19008KT 10SM FEW011 OVC020 21/18 A2987 680 84 1600 190/08 RMK AO2
14840KMKG MKG20000624091010306/24/00 09:10:31  5-MIN KMKG 241410Z 19011KT 10SM SCT011 OVC018 21/18 A2987 680 87 1500 190/11 RMK AO2
14840KMKG MKG20000624091510306/24/00 09:15:31  5-MIN KMKG 241415Z 19011KT 10SM SCT011 OVC018 21/18 A2987 680 87 1500 200/11 RMK AO2
14840KMKG MKG20000624092010306/24/00 09:20:31  5-MIN KMKG 241420Z 20010KT 10SM BKN013 OVC018 21/18 A2987 680 84 1600 200/10 RMK AO2
14840KMKG MKG20000624092510306/24/00 09:25:31  5-MIN KMKG 241425Z 20012KT 10SM BKN013 OVC018 21/18 A2987 680 84 1600 200/12 RMK AO2
14840KMKG MKG20000624093010306/24/00 09:30:31  5-MIN KMKG 241430Z 19010KT 10SM BKN013 OVC018 21/18 A2987 680 84 1600 190/10 RMK AO2
14840KMKG MKG20000624093510306/24/00 09:35:31  5-MIN KMKG 241435Z 20009KT 10SM BKN013 OVC018 21/18 A2987 680 84 1600 200/09 RMK AO2
14840KMKG MKG20000624094010306/24/00 09:40:31  5-MIN KMKG 241440Z 18011KT 10SM BKN013 OVC018 21/18 A2987 680 84 1600 190/11 RMK AO2
14840KMKG MKG20000624094510306/24/00 09:45:31  5-MIN KMKG 241445Z 19010KT 10SM BKN013 OVC017 21/18 A2987 680 84 1600 190/10 RMK AO2
14840KMKG MKG20000624095012606/24/00 09:50:31  5-MIN KMKG 241450Z 19009KT 10SM BKN011 OVC018 21/18 A2987 670 84 1600 190/09 RMK AO2 SLP113 T02110183 53004
14840KMKG MKG20000624095512606/24/00 09:55:31  5-MIN KMKG 241455Z 18011KT 10SM BKN011 OVC016 21/18 A2987 670 84 1600 190/11 RMK AO2 SLP114 T02110183 55005
14840KMKG MKG20000624100010306/24/00 10:00:31  5-MIN KMKG 241500Z 19009KT 10SM BKN011 OVC016 21/18 A2988 670 87 1500 200/09 RMK AO2
14840KMKG MKG20000624100510306/24/00 10:05:31  5-MIN KMKG 241505Z 20010KT 10SM BKN011 OVC016 21/18 A2987 670 87 1500 200/10 RMK AO2
14840KMKG MKG20000624101010306/24/00 10:10:31  5-MIN KMKG 241510Z 19011KT 10SM BKN011 OVC016 21/18 A2987 680 84 1600 200/11 RMK AO2
14840KMKG MKG20000624101510306/24/00 10:15:31  5-MIN KMKG 241515Z 20011KT 10SM BKN011 OVC016 21/18 A2987 670 84 1600 210/11 RMK AO2
14840KMKG MKG20000624102010306/24/00 10:20:31  5-MIN KMKG 241520Z 19011KT 10SM BKN011 OVC016 21/18 A2987 670 87 1500 200/11 RMK AO2
14840KMKG MKG20000624102510306/24/00 10:25:31  5-MIN KMKG 241525Z 20012KT 10SM BKN011 OVC016 21/18 A2987 670 84 1600 200/12 RMK AO2
14840KMKG MKG20000624103009606/24/00 10:30:31  5-MIN KMKG 241530Z 20012KT 10SM OVC014 21/18 A2987 670 87 1500 200/12 RMK AO2
14840KMKG MKG20000624103510306/24/00 10:35:31  5-MIN KMKG 241535Z 20011KT 10SM BKN014 OVC019 21/18 A2987 670 87 1500 200/11 RMK AO2
14840KMKG MKG20000624104010306/24/00 10:40:31  5-MIN KMKG 241540Z 19011KT 10SM BKN014 OVC019 21/18 A2987 670 84 1600 190/11 RMK AO2
14840KMKG MKG20000624104510306/24/00 10:45:31  5-MIN KMKG 241545Z 21011KT 10SM BKN014 OVC019 21/18 A2988 670 84 1600 210/11 RMK AO2
14840KMKG MKG20000624105012706/24/00 10:50:31  5-MIN KMKG 241550Z 20009KT 10SM SCT010 BKN014 OVC021 21/19 A2988 670 87 1600 200/09 RMK AO2 SLP115 T02110189
14840KMKG MKG20000624105512006/24/00 10:55:31  5-MIN KMKG 241555Z 21013KT 10SM BKN012 OVC021 21/18 A2988 670 84 1600 220/13 RMK AO2 SLP115 T02110183
14840KMKG MKG20000624110010306/24/00 11:00:31  5-MIN KMKG 241600Z 21012KT 10SM BKN012 OVC021 21/18 A2988 670 87 1500 210/12 RMK AO2
14840KMKG MKG20000624110511506/24/00 11:05:31  5-MIN KMKG 241605Z 21009KT 10SM BKN010 OVC021 21/18 A2988 670 87 1500 210/09 RMK AO2 CIG 009V014
14840KMKG MKG20000624111011006/24/00 11:10:31  5-MIN KMKG 241610Z 20011KT 10SM BKN010 BKN016 OVC021 21/18 A2988 670 87 1500 210/11 RMK AO2
14840KMKG MKG20000624111510306/24/00 11:15:31  5-MIN KMKG 241615Z 21010KT 10SM BKN010 OVC016 20/18 A2988 670 90 1400 210/10 RMK AO2
14840KMKG MKG20000624112010306/24/00 11:20:31  5-MIN KMKG 241620Z 21011KT 10SM BKN010 OVC016 20/18 A2988 670 90 1400 210/11 RMK AO2
14840KMKG MKG20000624112511806/24/00 11:25:31  5-MIN KMKG 241625Z 21009KT 10SM SCT010 OVC016 21/18 A2988 670 87 1500 210/09 RMK AO2 CIG 010 RWY 14
14840KMKG MKG20000624113011806/24/00 11:30:31  5-MIN KMKG 241630Z 21010KT 10SM SCT010 OVC016 21/18 A2988 670 87 1500 220/10 RMK AO2 CIG 010 RWY 14
14840KMKG MKG20000624113510306/24/00 11:35:31  5-MIN KMKG 241635Z 22007KT 10SM FEW010 OVC016 21/18 A2988 670 84 1600 220/07 RMK AO2
14840KMKG MKG20000624114010306/24/00 11:40:31  5-MIN KMKG 241640Z 22007KT 10SM FEW010 OVC016 21/19 A2987 680 87 1600 230/07 RMK AO2
14840KMKG MKG20000624114509606/24/00 11:45:31  5-MIN KMKG 241645Z 23008KT 10SM BKN016 22/19 A2987 680 84 1700 230/08 RMK AO2
14840KMKG MKG20000624115011306/24/00 11:50:31  5-MIN KMKG 241650Z 23008KT 10SM BKN014 22/19 A2986 680 81 1700 240/08 RMK AO2 SLP109 T02220189
14840KMKG MKG20000624115511306/24/00 11:55:31  5-MIN KMKG 241655Z 20008KT 10SM BKN014 22/19 A2986 680 81 1700 210/08 RMK AO2 SLP109 T02220189
14840KMKG MKG20000624120010306/24/00 12:00:31  5-MIN KMKG 241700Z 22010KT 10SM BKN014 BKN033 22/18 A2986 680 78 1700 220/10 RMK AO2
14840KMKG MKG20000624120510306/24/00 12:05:31  5-MIN KMKG 241705Z 20012KT 10SM BKN014 BKN033 22/18 A2986 680 78 1700 200/12 RMK AO2
14840KMKG MKG20000624121010306/24/00 12:10:31  5-MIN KMKG 241710Z 20011KT 10SM BKN014 BKN033 23/19 A2986 690 78 1800 200/11 RMK AO2
14840KMKG MKG20000624121510306/24/00 12:15:31  5-MIN KMKG 241715Z 21010KT 10SM BKN014 OVC033 22/18 A2986 690 81 1700 210/10 RMK AO2
14840KMKG MKG20000624122010306/24/00 12:20:31  5-MIN KMKG 241720Z 21011KT 10SM BKN014 OVC031 22/19 A2985 690 81 1700 210/11 RMK AO2
14840KMKG MKG20000624122511006/24/00 12:25:31  5-MIN KMKG 241725Z 19008KT 10SM BKN014 BKN018 OVC031 22/19 A2985 690 81 1700 200/08 RMK AO2
14840KMKG MKG20000624123010306/24/00 12:30:31  5-MIN KMKG 241730Z 20010KT 10SM BKN014 OVC031 22/18 A2986 690 81 1700 200/10 RMK AO2
14840KMKG MKG20000624123510306/24/00 12:35:31  5-MIN KMKG 241735Z 21012KT 10SM BKN014 OVC031 22/18 A2986 690 81 1700 210/12 RMK AO2
14840KMKG MKG20000624124011006/24/00 12:40:31  5-MIN KMKG 241740Z 20010KT 10SM BKN014 BKN018 OVC031 21/18 A2986 690 84 1600 200/10 RMK AO2
14840KMKG MKG20000624124509606/24/00 12:45:31  5-MIN KMKG 241745Z 20009KT 10SM OVC014 21/18 A2986 690 84 1600 200/09 RMK AO2
14840KMKG MKG20000624125013106/24/00 12:50:31  5-MIN KMKG 241750Z 21009KT 10SM OVC014 22/19 A2985 690 84 1700 210/09 RMK AO2 SLP106 T02170189 10228 20200 55005
14840KMKG MKG20000624125513106/24/00 12:55:31  5-MIN KMKG 241755Z 21009KT 10SM OVC014 21/18 A2985 690 84 1600 210/09 RMK AO2 SLP105 T02110183 10228 20200 58007
14840KMKG MKG20000624130009606/24/00 13:00:31  5-MIN KMKG 241800Z 19008KT 10SM OVC012 21/18 A2985 700 84 1600 190/08 RMK AO2
14840KMKG MKG20000624130509606/24/00 13:05:31  5-MIN KMKG 241805Z 22010KT 10SM OVC012 21/18 A2985 700 84 1600 220/10 RMK AO2
14840KMKG MKG20000624131009606/24/00 13:10:31  5-MIN KMKG 241810Z 21010KT 10SM OVC012 21/18 A2985 700 84 1600 220/10 RMK AO2
14840KMKG MKG20000624131509606/24/00 13:15:31  5-MIN KMKG 241815Z 20011KT 10SM OVC012 21/18 A2985 700 84 1600 200/11 RMK AO2
14840KMKG MKG20000624132009606/24/00 13:20:31  5-MIN KMKG 241820Z 21009KT 10SM OVC012 21/19 A2985 700 87 1600 210/09 RMK AO2
14840KMKG MKG20000624132509606/24/00 13:25:31  5-MIN KMKG 241825Z 21011KT 10SM OVC012 22/19 A2985 700 84 1700 220/11 RMK AO2
14840KMKG MKG20000624133009606/24/00 13:30:31  5-MIN KMKG 241830Z 21010KT 10SM OVC012 22/19 A2984 700 84 1700 220/10 RMK AO2
14840KMKG MKG20000624133509606/24/00 13:35:31  5-MIN KMKG 241835Z 20011KT 10SM OVC012 22/19 A2985 700 84 1700 210/11 RMK AO2
14840KMKG MKG20000624134009606/24/00 13:40:31  5-MIN KMKG 241840Z 20009KT 10SM BKN012 22/19 A2984 700 81 1700 210/09 RMK AO2
14840KMKG MKG20000624134509606/24/00 13:45:31  5-MIN KMKG 241845Z 20008KT 10SM BKN012 22/19 A2984 700 81 1700 200/08 RMK AO2
14840KMKG MKG20000624135011306/24/00 13:50:31  5-MIN KMKG 241850Z 21009KT 10SM BKN012 22/19 A2984 700 81 1700 220/09 RMK AO2 SLP101 T02220189
14840KMKG MKG20000624135511306/24/00 13:55:31  5-MIN KMKG 241855Z 22010KT 10SM BKN014 22/19 A2984 700 81 1700 220/10 RMK AO2 SLP101 T02220189
14840KMKG MKG20000624140009606/24/00 14:00:31  5-MIN KMKG 241900Z 22010KT 10SM BKN014 23/19 A2984 700 78 1800 220/10 RMK AO2
14840KMKG MKG20000624140509606/24/00 14:05:31  5-MIN KMKG 241905Z 21009KT 10SM BKN014 22/19 A2984 710 81 1700 210/09 RMK AO2
14840KMKG MKG20000624141009606/24/00 14:10:31  5-MIN KMKG 241910Z 20011KT 10SM BKN014 22/19 A2984 710 81 1700 200/11 RMK AO2
14840KMKG MKG20000624141509606/24/00 14:15:31  5-MIN KMKG 241915Z 20009KT 10SM BKN014 22/19 A2983 710 81 1800 210/09 RMK AO2
14840KMKG MKG20000624142009606/24/00 14:20:31  5-MIN KMKG 241920Z 22011KT 10SM BKN014 22/19 A2984 710 81 1700 230/11 RMK AO2
14840KMKG MKG20000624142509606/24/00 14:25:31  5-MIN KMKG 241925Z 21009KT 10SM BKN014 22/19 A2984 710 81 1700 220/09 RMK AO2
14840KMKG MKG20000624143009606/24/00 14:30:31  5-MIN KMKG 241930Z 21011KT 10SM BKN014 22/19 A2984 710 84 1700 210/11 RMK AO2
14840KMKG MKG20000624143510306/24/00 14:35:31  5-MIN KMKG 241935Z 20011KT 10SM SCT012 BKN028 22/19 A2984 710 84 1800 210/11 RMK AO2
14840KMKG MKG20000624144010306/24/00 14:40:31  5-MIN KMKG 241940Z 21010KT 10SM SCT012 BKN028 23/19 A2984 710 81 1800 220/10 RMK AO2
14840KMKG MKG20000624144510306/24/00 14:45:31  5-MIN KMKG 241945Z 22012KT 10SM SCT012 BKN028 22/19 A2984 710 84 1800 230/12 RMK AO2
14840KMKG MKG20000624145012006/24/00 14:50:31  5-MIN KMKG 241950Z 22012KT 10SM SCT012 BKN028 23/19 A2984 710 81 1800 220/12 RMK AO2 SLP100 T02280194
14840KMKG MKG20000624145512006/24/00 14:55:31  5-MIN KMKG 241955Z 21010KT 10SM FEW012 BKN025 23/19 A2984 710 78 1900 220/10 RMK AO2 SLP100 T02330194
14840KMKG MKG20000624150010306/24/00 15:00:31  5-MIN KMKG 242000Z 22009KT 10SM FEW014 BKN025 23/19 A2983 710 78 1900 230/09 RMK AO2
14840KMKG MKG20000624150510306/24/00 15:05:31  5-MIN KMKG 242005Z 23011KT 10SM FEW014 BKN025 23/19 A2983 710 78 1900 230/11 RMK AO2
14840KMKG MKG20000624151010306/24/00 15:10:31  5-MIN KMKG 242010Z 22011KT 10SM FEW014 BKN025 23/19 A2984 710 81 1800 230/11 RMK AO2
14840KMKG MKG20000624151511006/24/00 15:15:31  5-MIN KMKG 242015Z 23009KT 10SM FEW014 SCT023 BKN028 23/19 A2983 710 81 1800 230/09 RMK AO2
14840KMKG MKG20000624152010306/24/00 15:20:31  5-MIN KMKG 242020Z 22009KT 10SM FEW014 BKN028 23/19 A2983 710 78 1900 220/09 RMK AO2
14840KMKG MKG20000624152510306/24/00 15:25:31  5-MIN KMKG 242025Z 23009KT 10SM FEW014 BKN028 23/19 A2983 710 78 1900 230/09 RMK AO2
14840KMKG MKG20000624153010306/24/00 15:30:31  5-MIN KMKG 242030Z 22010KT 10SM FEW014 BKN028 23/19 A2983 710 81 1800 230/10 RMK AO2
14840KMKG MKG20000624153510306/24/00 15:35:31  5-MIN KMKG 242035Z 22010KT 10SM FEW014 BKN028 23/19 A2983 710 81 1800 230/10 RMK AO2
14840KMKG MKG20000624154010306/24/00 15:40:31  5-MIN KMKG 242040Z 22008KT 10SM FEW014 BKN028 22/19 A2983 710 84 1800 220/08 RMK AO2
14840KMKG MKG20000624154510306/24/00 15:45:31  5-MIN KMKG 242045Z 23008KT 10SM FEW014 BKN028 22/19 A2983 710 84 1800 240/08 RMK AO2
14840KMKG MKG20000624155012606/24/00 15:50:31  5-MIN KMKG 242050Z 23008KT 10SM FEW014 BKN028 22/19 A2983 710 84 1800 240/08 RMK AO2 SLP099 T02220194 58007
14840KMKG MKG20000624155511906/24/00 15:55:31  5-MIN KMKG 242055Z 22011KT 10SM SCT030 22/19 A2983 710 84 1800 220/11 RMK AO2 SLP099 T02220194 56006
14840KMKG MKG20000624160009606/24/00 16:00:31  5-MIN KMKG 242100Z 22008KT 10SM FEW030 22/19 A2983 710 84 1800 220/08 RMK AO2
14840KMKG MKG20000624160509606/24/00 16:05:31  5-MIN KMKG 242105Z 22009KT 10SM SCT030 22/19 A2983 710 84 1800 220/09 RMK AO2
14840KMKG MKG20000624161009606/24/00 16:10:31  5-MIN KMKG 242110Z 23008KT 10SM SCT030 22/19 A2983 720 87 1700 230/08 RMK AO2
14840KMKG MKG20000624161509606/24/00 16:15:31  5-MIN KMKG 242115Z 23007KT 10SM SCT030 22/19 A2983 720 87 1700 240/07 RMK AO2
14840KMKG MKG20000624162009606/24/00 16:20:31  5-MIN KMKG 242120Z 24007KT 10SM SCT030 22/19 A2982 720 87 1700 240/07 RMK AO2
14840KMKG MKG20000624162509606/24/00 16:25:31  5-MIN KMKG 242125Z 24007KT 10SM SCT030 22/19 A2982 720 87 1700 240/07 RMK AO2
14840KMKG MKG20000624163009606/24/00 16:30:31  5-MIN KMKG 242130Z 23007KT 10SM FEW030 22/19 A2982 720 87 1700 230/07 RMK AO2
14840KMKG MKG20000624163509606/24/00 16:35:31  5-MIN KMKG 242135Z 23008KT 10SM FEW030 22/19 A2982 720 87 1700 230/08 RMK AO2
14840KMKG MKG20000624164009606/24/00 16:40:31  5-MIN KMKG 242140Z 23007KT 10SM FEW030 22/19 A2982 720 87 1700 230/07 RMK AO2
14840KMKG MKG20000624164509606/24/00 16:45:31  5-MIN KMKG 242145Z 24004KT 10SM FEW030 22/19 A2982 720 87 1700 240/04 RMK AO2
14840KMKG MKG20000624165011306/24/00 16:50:31  5-MIN KMKG 242150Z 23005KT 10SM FEW030 22/19 A2982 720 87 1700 240/05 RMK AO2 SLP096 T02170194
14840KMKG MKG20000624165511306/24/00 16:55:31  5-MIN KMKG 242155Z 24005KT 10SM FEW030 22/19 A2982 720 87 1700 240/05 RMK AO2 SLP095 T02170194
14840KMKG MKG20000624170009306/24/00 17:00:31  5-MIN KMKG 242200Z 25004KT 10SM CLR 22/19 A2982 730 87 1700 250/04 RMK AO2
14840KMKG MKG20000624170509606/24/00 17:05:31  5-MIN KMKG 242205Z 23005KT 10SM FEW030 22/19 A2982 730 87 1700 240/05 RMK AO2
14840KMKG MKG20000624171009606/24/00 17:10:31  5-MIN KMKG 242210Z 23005KT 10SM FEW030 22/19 A2982 730 87 1700 230/05 RMK AO2
14840KMKG MKG20000624171509606/24/00 17:15:31  5-MIN KMKG 242215Z 22005KT 10SM FEW030 22/19 A2982 730 87 1700 230/05 RMK AO2
14840KMKG MKG20000624172009606/24/00 17:20:31  5-MIN KMKG 242220Z 22004KT 10SM FEW030 22/19 A2982 730 87 1700 230/04 RMK AO2
14840KMKG MKG20000624172509606/24/00 17:25:31  5-MIN KMKG 242225Z 23005KT 10SM FEW030 22/19 A2982 720 87 1700 230/05 RMK AO2
14840KMKG MKG20000624173009606/24/00 17:30:31  5-MIN KMKG 242230Z 22004KT 10SM FEW030 22/19 A2982 720 87 1700 220/04 RMK AO2
14840KMKG MKG20000624173509606/24/00 17:35:31  5-MIN KMKG 242235Z 22004KT 10SM FEW030 22/19 A2982 720 87 1700 220/04 RMK AO2
14840KMKG MKG20000624174009606/24/00 17:40:31  5-MIN KMKG 242240Z 23004KT 10SM FEW030 22/19 A2982 720 87 1700 230/04 RMK AO2
14840KMKG MKG20000624174509606/24/00 17:45:31  5-MIN KMKG 242245Z 24004KT 10SM FEW030 22/19 A2982 720 87 1700 240/04 RMK AO2
14840KMKG MKG20000624175011306/24/00 17:50:31  5-MIN KMKG 242250Z 24004KT 10SM FEW030 21/19 A2982 720 90 1600 240/04 RMK AO2 SLP096 T02110194
14840KMKG MKG20000624175511306/24/00 17:55:31  5-MIN KMKG 242255Z 23003KT 10SM FEW030 21/19 A2982 720 90 1600 240/03 RMK AO2 SLP095 T02110194
14840KMKG MKG20000624180009606/24/00 18:00:31  5-MIN KMKG 242300Z 22003KT 10SM FEW060 21/19 A2982 720 90 1600 220/03 RMK AO2
14840KMKG MKG20000624180509606/24/00 18:05:31  5-MIN KMKG 242305Z 00000KT 10SM FEW060 21/19 A2982 720 90 1600 000/00 RMK AO2
14840KMKG MKG20000624181009606/24/00 18:10:31  5-MIN KMKG 242310Z 00000KT 10SM FEW060 21/19 A2982 720 90 1600 000/00 RMK AO2
14840KMKG MKG20000624181509606/24/00 18:15:31  5-MIN KMKG 242315Z 00000KT 10SM FEW060 22/19 A2982 720 87 1700 000/00 RMK AO2
14840KMKG MKG20000624182009606/24/00 18:20:31  5-MIN KMKG 242320Z 00000KT 10SM FEW070 21/19 A2982 720 90 1600 000/00 RMK AO2
14840KMKG MKG20000624182509606/24/00 18:25:31  5-MIN KMKG 242325Z 00000KT 10SM FEW070 21/19 A2982 720 90 1600 000/00 RMK AO2
14840KMKG MKG20000624183009606/24/00 18:30:31  5-MIN KMKG 242330Z 00000KT 10SM FEW100 21/19 A2982 720 90 1600 000/00 RMK AO2
14840KMKG MKG20000624183509606/24/00 18:35:31  5-MIN KMKG 242335Z 00000KT 10SM FEW100 21/19 A2982 720 90 1600 000/00 RMK AO2
14840KMKG MKG20000624184009606/24/00 18:40:31  5-MIN KMKG 242340Z 00000KT 10SM FEW100 21/19 A2983 720 90 1600 000/00 RMK AO2
14840KMKG MKG20000624184509506/24/00 18:45:31  5-MIN KMKG 242345Z 28003KT 9SM FEW100 21/19 A2982 720 90 1600 290/03 RMK AO2
14840KMKG MKG20000624185015206/24/00 18:50:31  5-MIN KMKG 242350Z 29003KT 9SM -RA FEW100 21/19 A2982 720 90 1600 290/03 RMK AO2 RAB46 SLP096 P0000 60000 T02110194 10233 20211 56006
14840KMKG MKG20000624185515206/24/00 18:55:31  5-MIN KMKG 242355Z 29004KT 9SM -RA FEW100 21/19 A2982 720 90 1600 290/04 RMK AO2 RAB46 SLP096 P0000 60000 T02110194 10233 20211 55004
14840KMKG MKG20000624190010506/24/00 19:00:31  5-MIN KMKG 250000Z 32003KT 9SM -RA FEW110 21/19 A2982 720 90 1600 330/03 RMK AO2 P0000
14840KMKG MKG20000624190510506/24/00 19:05:31  5-MIN KMKG 250005Z 31004KT 9SM -RA FEW120 21/19 A2982 720 90 1600 320/04 RMK AO2 P0000
14840KMKG MKG20000624191010706/24/00 19:10:31  5-MIN KMKG 250010Z 31003KT 9SM SCT110 21/19 A2982 720 90 1600 310/03 RMK AO2 RAE09 P0000
14840KMKG MKG20000624191510706/24/00 19:15:31  5-MIN KMKG 250015Z 32004KT 9SM SCT110 21/19 A2982 720 90 1600 320/04 RMK AO2 RAE09 P0000
14840KMKG MKG20000624192010706/24/00 19:20:31  5-MIN KMKG 250020Z 31003KT 9SM BKN110 21/19 A2983 720 90 1600 320/03 RMK AO2 RAE09 P0000
14840KMKG MKG20000624192510706/24/00 19:25:31  5-MIN KMKG 250025Z 31003KT 8SM BKN110 21/19 A2983 720 90 1600 320/03 RMK AO2 RAE09 P0000
14840KMKG MKG20000624193010706/24/00 19:30:31  5-MIN KMKG 250030Z 30004KT 8SM BKN110 21/19 A2983 720 90 1600 310/04 RMK AO2 RAE09 P0000
14840KMKG MKG20000624193511406/24/00 19:35:31  5-MIN KMKG 250035Z 31004KT 8SM SCT095 BKN110 21/19 A2983 720 93 1600 310/04 RMK AO2 RAE09 P0000
14840KMKG MKG20000624194012806/24/00 19:40:31  5-MIN KMKG 250040Z 32004KT 7SM -RA SCT080 SCT100 BKN110 21/19 A2983 720 90 1600 320/04 RMK AO2 RAE09B37 P0000
14840KMKG MKG20000624194512106/24/00 19:45:31  5-MIN KMKG 250045Z 32004KT 7SM -RA BKN055 BKN110 21/19 A2983 720 93 1600 320/04 RMK AO2 RAE09B37 P0000
14840KMKG MKG20000624195014106/24/00 19:50:31  5-MIN KMKG 250050Z 32004KT 5SM -RA BR BKN045 BKN095 21/19 A2983 720 93 1600 330/04 RMK AO2 RAE09B37 SLP097 P0000 T02060194
14840KMKG MKG20000624195514106/24/00 19:55:31  5-MIN KMKG 250055Z 35003KT 5SM -RA BR BKN045 BKN100 21/20 A2982 720 97 1600 350/03 RMK AO2 RAE09B37 SLP097 P0001 T02060200
14840KMKG MKG20000624200013006/24/00 20:00:31  5-MIN KMKG 250100Z 36004KT 4SM -RA BR SCT039 BKN100 21/20 A2982 720 97 1600 360/04 RMK AO2 CIG 042 RWY 14 P0000
14840KMKG MKG20000624200513006/24/00 20:05:31  5-MIN KMKG 250105Z 34004KT 4SM -RA BR SCT037 BKN065 21/20 A2982 720 97 1600 350/04 RMK AO2 CIG 033 RWY 14 P0000
14840KMKG MKG20000624201011506/24/00 20:10:31  5-MIN KMKG 250110Z 36003KT 4SM -RA BR BKN030 BKN065 21/19 A2982 730 93 1600 360/03 RMK AO2 P0000
14840KMKG MKG20000624201510806/24/00 20:15:31  5-MIN KMKG 250115Z 36004KT 4SM -RA BR SCT028 21/20 A2981 730 97 1600 010/04 RMK AO2 P0000
14840KMKG MKG20000624202010806/24/00 20:20:31  5-MIN KMKG 250120Z 36004KT 4SM -RA BR SCT047 21/20 A2981 730 97 1600 010/04 RMK AO2 P0000
14840KMKG MKG20000624202511506/24/00 20:25:31  5-MIN KMKG 250125Z 36003KT 5SM -RA BR FEW050 SCT120 21/20 A2981 730 97 1600 360/03 RMK AO2 P0000
14840KMKG MKG20000624203011506/24/00 20:30:31  5-MIN KMKG 250130Z 36003KT 5SM -RA BR SCT065 BKN120 21/20 A2981 740 97 1600 010/03 RMK AO2 P0001
14840KMKG MKG20000624203513006/24/00 20:35:31  5-MIN KMKG 250135Z 36004KT 5SM -RA BR SCT080 BKN120 21/20 A2981 740 97 1600 360/04 RMK AO2 CIG 095 RWY 14 P0001
14840KMKG MKG20000624204011506/24/00 20:40:31  5-MIN KMKG 250140Z 36004KT 5SM -RA BR SCT090 BKN120 21/20 A2980 740 97 1600 010/04 RMK AO2 P0001
14840KMKG MKG20000624204511506/24/00 20:45:31  5-MIN KMKG 250145Z 36005KT 5SM -RA BR BKN080 OVC120 21/20 A2980 740 97 1600 360/05 RMK AO2 P0001
14840KMKG MKG20000624205013206/24/00 20:50:31  5-MIN KMKG 250150Z 01005KT 6SM -RA BR BKN080 OVC120 21/19 A2980 740 93 1600 010/05 RMK AO2 SLP088 P0001 T02060194
14840KMKG MKG20000624205513206/24/00 20:55:31  5-MIN KMKG 250155Z 01004KT 5SM -RA BR BKN080 OVC110 21/19 A2980 750 93 1600 010/04 RMK AO2 SLP087 P0001 T02060194
14840KMKG MKG20000624210011506/24/00 21:00:31  5-MIN KMKG 250200Z VRB04KT 5SM -RA BR BKN075 OVC110 20/19 A2979 750 97 1500 VRB/04 RMK AO2 P0000
14840KMKG MKG20000624210511506/24/00 21:05:31  5-MIN KMKG 250205Z 01005KT 5SM -RA BR BKN075 BKN120 20/19 A2979 750 97 1500 010/05 RMK AO2 P0000
14840KMKG MKG20000624211011506/24/00 21:10:31  5-MIN KMKG 250210Z 36006KT 5SM -RA BR SCT075 BKN120 20/19 A2979 750 97 1500 010/06 RMK AO2 P0000
14840KMKG MKG20000624211511506/24/00 21:15:31  5-MIN KMKG 250215Z 01006KT 6SM -RA BR SCT090 BKN110 20/19 A2979 750 97 1500 020/06 RMK AO2 P0000
14840KMKG MKG20000624212011506/24/00 21:20:31  5-MIN KMKG 250220Z 01008KT 6SM -RA BR BKN095 OVC110 20/19 A2979 750 97 1600 010/08 RMK AO2 P0000
14840KMKG MKG20000624212511506/24/00 21:25:31  5-MIN KMKG 250225Z 01007KT 5SM -RA BR BKN100 OVC120 20/19 A2979 750 97 1600 010/07 RMK AO2 P0000
14840KMKG MKG20000624213011506/24/00 21:30:31  5-MIN KMKG 250230Z 01006KT 5SM -RA BR BKN100 BKN120 20/19 A2979 750 97 1600 020/06 RMK AO2 P0000
14840KMKG MKG20000624213511506/24/00 21:35:31  5-MIN KMKG 250235Z 02006KT 5SM -RA BR BKN095 BKN120 20/19 A2978 760 97 1600 030/06 RMK AO2 P0000
14840KMKG MKG20000624214011006/24/00 21:40:31  5-MIN KMKG 250240Z 01006KT 5SM BR BKN095 20/19 A2978 760 97 1600 020/06 RMK AO2 RAE38 P0000
14840KMKG MKG20000624214511006/24/00 21:45:31  5-MIN KMKG 250245Z 36005KT 5SM BR BKN090 20/19 A2978 760 97 1600 010/05 RMK AO2 RAE38 P0000
14840KMKG MKG20000624215014406/24/00 21:50:31  5-MIN KMKG 250250Z 01005KT 5SM -RA BR BKN080 BKN100 20/19 A2978 760 97 1600 010/05 RMK AO2 SLP083 P0000 60002 T02000194 55004
14840KMKG MKG20000624215514406/24/00 21:55:31  5-MIN KMKG 250255Z 03005KT 5SM -RA BR BKN075 BKN100 20/19 A2978 760 97 1600 030/05 RMK AO2 SLP082 P0000 60002 T02000194 58013
14840KMKG MKG20000624220011506/24/00 22:00:31  5-MIN KMKG 250300Z 04005KT 5SM -RA BR BKN070 BKN090 20/19 A2978 760 97 1600 040/05 RMK AO2 P0001
14840KMKG MKG20000624220510706/24/00 22:05:31  5-MIN KMKG 250305Z 04006KT 4SM RA BR OVC060 20/19 A2978 760 97 1600 050/06 RMK AO2 P0002
14840KMKG MKG20000624221010706/24/00 22:10:31  5-MIN KMKG 250310Z 06004KT 4SM RA BR OVC055 20/19 A2979 760 97 1600 060/04 RMK AO2 P0003
14840KMKG MKG20000624221512406/24/00 22:15:31  5-MIN KMKG 250315Z 06003KT 4SM RA BR OVC050 20/19 A2979 750 97 1600 070/03 RMK AO2 VIS 2 1/2 RWY 14 P0004
14840KMKG MKG20000624222010806/24/00 22:20:31  5-MIN KMKG 250320Z 08004KT 4SM -RA BR OVC048 20/19 A2978 760 97 1600 080/04 RMK AO2 P0004
14840KMKG MKG20000624222510806/24/00 22:25:31  5-MIN KMKG 250325Z 09004KT 4SM -RA BR BKN048 20/19 A2978 760 97 1600 090/04 RMK AO2 P0004
14840KMKG MKG20000624223010806/24/00 22:30:31  5-MIN KMKG 250330Z 11004KT 4SM -RA BR BKN046 20/19 A2978 760 97 1600 110/04 RMK AO2 P0004
14840KMKG MKG20000624223511106/24/00 22:35:31  5-MIN KMKG 250335Z 12005KT 4SM BR SCT044 19/19 A2978 760 100 1500 130/05 RMK AO2 RAE34 P0004
14840KMKG MKG20000624224011106/24/00 22:40:31  5-MIN KMKG 250340Z 11003KT 3SM BR FEW046 19/19 A2978 760 100 1500 110/03 RMK AO2 RAE34 P0004
14840KMKG MKG20000624224511106/24/00 22:45:31  5-MIN KMKG 250345Z 00000KT 3SM BR FEW060 19/19 A2978 760 100 1500 000/00 RMK AO2 RAE34 P0004
14840KMKG MKG20000624225014506/24/00 22:50:31  5-MIN KMKG 250350Z 00000KT 3SM BR FEW090 19/19 A2978 760 100 1500 000/00 RMK AO2 VIS 2 1/2 RWY 14 RAE34 SLP082 P0004 T01940194
14840KMKG MKG20000624225514506/24/00 22:55:31  5-MIN KMKG 250355Z 00000KT 3SM BR SCT070 19/19 A2978 760 100 1500 000/00 RMK AO2 VIS 2 1/2 RWY 14 RAE34 SLP082 P0004 T01940194
14840KMKG MKG20000624230013406/24/00 23:00:31  5-MIN KMKG 250400Z 00000KT 4SM -RA BR SCT060 19/19 A2978 760 100 1500 000/00 RMK AO2 VIS 2 1/2 RWY 14 RAB0358 P0000
14840KMKG MKG20000624230511706/24/00 23:05:31  5-MIN KMKG 250405Z 00000KT 4SM -RA BR SCT060 19/19 A2978 760 100 1500 000/00 RMK AO2 RAB0358 P0000
14840KMKG MKG20000624231013406/24/00 23:10:31  5-MIN KMKG 250410Z 00000KT 3SM -RA BR FEW065 19/19 A2978 760 100 1500 000/00 RMK AO2 VIS 2 1/2 RWY 14 RAB0358 P0000
14840KMKG MKG20000624231512906/24/00 23:15:31  5-MIN KMKG 250415Z 00000KT 3SM BR FEW065 19/19 A2978 760 100 1500 000/00 RMK AO2 VIS 2 RWY 14 RAB0358E15 P0000
14840KMKG MKG20000624232013306/24/00 23:20:31  5-MIN KMKG 250420Z 04003KT 3SM BR FEW060 19/19 A2978 760 100 1500 050/03 RMK AO2 VIS 1 3/4 RWY 14 RAB0358E15 P0000
14840KMKG MKG20000624232513706/24/00 23:25:31  5-MIN KMKG 250425Z 05003KT 2 1/2SM BR FEW048 19/19 A2978 760 100 1500 050/03 RMK AO2 VIS 1 3/4 RWY 14 RAB0358E15 P0000
14840KMKG MKG20000624233013406/24/00 23:30:31  5-MIN KMKG 250430Z 05003KT 2 1/2SM BR CLR 19/19 A2978 760 100 1500 050/03 RMK AO2 VIS 1 3/4 RWY 14 RAB0358E15 P0000
14840KMKG MKG20000624233511606/24/00 23:35:31  5-MIN KMKG 250435Z 07003KT 2 1/2SM BR CLR 19/19 A2978 760 97 1500 070/03 RMK AO2 RAB0358E15 P0000
14840KMKG MKG20000624234013306/24/00 23:40:31  5-MIN KMKG 250440Z 08003KT 2 1/2SM BR CLR 19/19 A2978 760 97 1500 080/03 RMK AO2 VIS 1 3/4 RWY 14 RAB0358E15 P0000
14840KMKG MKG20000624234511206/24/00 23:45:31  5-MIN KMKG 250445Z 11003KT 2SM BR CLR 19/19 A2978 760 97 1500 110/03 RMK AO2 RAB0358E15 P0000
14840KMKG MKG20000624235013906/24/00 23:50:31  5-MIN KMKG 250450Z 11003KT 2SM BR CLR 19/19 A2978 760 97 1500 110/03 RMK AO2 RAB0358E15 SLP082 P0000 T01940189 402330194
14840KMKG MKG20000624235516006/24/00 23:55:31  5-MIN KMKG 250455Z 11004KT 2 1/2SM BR CLR 19/19 A2978 760 97 1500 110/04 RMK AO2 VIS 1 3/4 RWY 14 RAB0358E15 SLP081 P0000 T01940189 402330194
14840KMKG MKG20000625000009506/25/00 00:00:31  5-MIN KMKG 250500Z 00000KT 2SM BR CLR 19/19 A2978 760 97 1500 000/00 RMK AO2
14840KMKG MKG20000625000509606/25/00 00:05:31  5-MIN KMKG 250505Z 00000KT 2SM BR CLR 19/19 A2978 760 100 1400 000/00 RMK AO2
14840KMKG MKG20000625001009506/25/00 00:10:31  5-MIN KMKG 250510Z 00000KT 2SM BR CLR 19/18 A2979 750 97 1400 000/00 RMK AO2
14840KMKG MKG20000625001509606/25/00 00:15:31  5-MIN KMKG 250515Z 00000KT 2SM BR CLR 19/19 A2979 750 100 1400 000/00 RMK AO2
14840KMKG MKG20000625002011206/25/00 00:20:31  5-MIN KMKG 250520Z 33003KT 2SM BR CLR 19/18 A2979 750 97 1400 340/03 RMK AO2 VIS 1 1/4 RWY 14
14840KMKG MKG20000625002511506/25/00 00:25:31  5-MIN KMKG 250525Z 33004KT 2SM BR FEW100 19/18 A2979 750 97 1400 340/04 RMK AO2 VIS 1 1/4 RWY 14
14840KMKG MKG20000625003010206/25/00 00:30:31  5-MIN KMKG 250530Z 34006KT 1 3/4SM BR FEW100 19/18 A2979 750 97 1400 350/06 RMK AO2
14840KMKG MKG20000625003510306/25/00 00:35:31  5-MIN KMKG 250535Z 34005KT 1 3/4SM BR FEW100 19/19 A2979 750 100 1400 340/05 RMK AO2
14840KMKG MKG20000625004009906/25/00 00:40:31  5-MIN KMKG 250540Z 35003KT 2SM BR SCT100 19/19 A2979 750 100 1400 350/03 RMK AO2
14840KMKG MKG20000625004509906/25/00 00:45:31  5-MIN KMKG 250545Z 01003KT 2SM BR SCT100 19/19 A2978 760 100 1400 020/03 RMK AO2
14840KMKG MKG20000625005014006/25/00 00:50:31  5-MIN KMKG 250550Z 36004KT 2SM BR SCT100 19/19 A2979 760 100 1400 360/04 RMK AO2 SLP083 60006 T01890189 10211 20189 58013
14840KMKG MKG20000625005514306/25/00 00:55:31  5-MIN KMKG 250555Z 33003KT 1 3/4SM BR FEW100 19/18 A2979 750 97 1400 330/03 RMK AO2 SLP084 60006 T01890183 10211 20189 53002
14840KMKG MKG20000625010010306/25/00 01:00:31  5-MIN KMKG 250600Z 32004KT 1 1/2SM BR FEW100 18/18 A2979 750 100 1400 320/04 RMK AO2
14840KMKG MKG20000625010510206/25/00 01:05:31  5-MIN KMKG 250605Z 32004KT 1 1/2SM BR FEW100 19/18 A2979 750 97 1400 320/04 RMK AO2
14840KMKG MKG20000625011009906/25/00 01:10:31  5-MIN KMKG 250610Z 31003KT 1 3/4SM BR CLR 19/18 A2979 760 97 1400 310/03 RMK AO2
14840KMKG MKG20000625011509906/25/00 01:15:31  5-MIN KMKG 250615Z 32003KT 1 3/4SM BR CLR 19/18 A2979 750 97 1400 320/03 RMK AO2
14840KMKG MKG20000625012010006/25/00 01:20:31  5-MIN KMKG 250620Z 31004KT 1 3/4SM BR CLR 18/18 A2979 750 100 1400 320/04 RMK AO2
14840KMKG MKG20000625012510006/25/00 01:25:31  5-MIN KMKG 250625Z 31006KT 1 3/4SM BR CLR 18/18 A2979 750 100 1400 320/06 RMK AO2
14840KMKG MKG20000625013011306/25/00 01:30:31  5-MIN KMKG 250630Z 30008KT 2SM BR CLR 19/19 A2980 740 100 1400 300/08 RMK AO2 VIS 1 1/4 RWY 14
14840KMKG MKG20000625013509606/25/00 01:35:31  5-MIN KMKG 250635Z 29006KT 2SM BR CLR 19/19 A2980 740 100 1400 300/06 RMK AO2
14840KMKG MKG20000625014010006/25/00 01:40:31  5-MIN KMKG 250640Z 30006KT 1 3/4SM BR CLR 19/19 A2980 740 100 1400 300/06 RMK AO2
14840KMKG MKG20000625014509906/25/00 01:45:31  5-MIN KMKG 250645Z 29007KT 2SM BR FEW003 19/19 A2980 740 100 1400 300/07 RMK AO2
14840KMKG MKG20000625015012306/25/00 01:50:31  5-MIN KMKG 250650Z 30006KT 2SM BR FEW003 SCT021 19/19 A2980 740 100 1400 300/06 RMK AO2 SLP089 T01890189
14840KMKG MKG20000625015513706/25/00 01:55:31  5-MIN KMKG 250655Z 30005KT 2 1/2SM BR SCT021 19/19 A2980 740 100 1400 300/05 RMK AO2 VIS 1 1/2 RWY 14 SLP089 T01890189
14840KMKG MKG20000625020012006/25/00 02:00:31  5-MIN KMKG 250700Z 30006KT 2 1/2SM BR BKN021 19/19 A2980 740 100 1400 300/06 RMK AO2 VIS 1 3/4 RWY 14
14840KMKG MKG20000625020511506/25/00 02:05:31  5-MIN KMKG 250705Z 31006KT 3SM BR BKN021 19/19 A2980 740 97 1500 310/06 RMK AO2 VIS 1 3/4 RWY 14
14840KMKG MKG20000625021011206/25/00 02:10:31  5-MIN KMKG 250710Z 30006KT 3SM BR BKN021 19/19 A2980 740 100 1400 300/06 RMK AO2 VIS 2 RWY 14
14840KMKG MKG20000625021510206/25/00 02:15:31  5-MIN KMKG 250715Z 31004KT 2 1/2SM BR BKN019 19/19 A2981 740 97 1500 310/04 RMK AO2
14840KMKG MKG20000625022011106/25/00 02:20:31  5-MIN KMKG 250720Z 30004KT 3SM BR OVC019 19/19 A2980 740 97 1500 310/04 RMK AO2 VIS 2 RWY 14
14840KMKG MKG20000625022511206/25/00 02:25:31  5-MIN KMKG 250725Z 30004KT 3SM BR BKN019 19/19 A2981 740 100 1400 300/04 RMK AO2 VIS 2 RWY 14
14840KMKG MKG20000625023011206/25/00 02:30:31  5-MIN KMKG 250730Z 30005KT 3SM BR BKN019 19/19 A2981 740 100 1400 300/05 RMK AO2 VIS 2 RWY 14
14840KMKG MKG20000625023510306/25/00 02:35:31  5-MIN KMKG 250735Z 29005KT 2 1/2SM BR SCT019 19/19 A2981 740 100 1400 300/05 RMK AO2
14840KMKG MKG20000625024011206/25/00 02:40:31  5-MIN KMKG 250740Z 30006KT 3SM BR SCT019 19/19 A2981 730 100 1400 300/06 RMK AO2 VIS 2 RWY 14
14840KMKG MKG20000625024511506/25/00 02:45:31  5-MIN KMKG 250745Z 30006KT 3SM BR FEW019 19/18 A2981 730 97 1400 300/06 RMK AO2 VIS 1 3/4 RWY 14
14840KMKG MKG20000625025013206/25/00 02:50:31  5-MIN KMKG 250750Z 30006KT 3SM BR FEW017 19/18 A2981 730 97 1400 300/06 RMK AO2 VIS 1 3/4 RWY 14 SLP092 T01890183
14840KMKG MKG20000625025513306/25/00 02:55:31  5-MIN KMKG 250755Z 29006KT 2 1/2SM BR CLR 19/18 A2981 730 97 1400 290/06 RMK AO2 VIS 1 3/4 RWY 14 SLP093 T01890183
14840KMKG MKG20000625030012006/25/00 03:00:31  5-MIN KMKG 250800Z 29007KT 2 1/2SM BR FEW003 18/18 A2981 730 100 1300 290/07 RMK AO2 VIS 1 1/2 RWY 14
14840KMKG MKG20000625030511606/25/00 03:05:31  5-MIN KMKG 250805Z 29006KT 2 1/2SM BR SCT003 18/18 A2982 730 100 1300 300/06 RMK AO2 VIS 1 RWY 14
14840KMKG MKG20000625031011806/25/00 03:10:31  5-MIN KMKG 250810Z 30005KT 1 3/4SM BR BKN003 18/18 A2982 720 100 1300 300/05 RMK AO2 VIS 1/2 RWY 14
14840KMKG MKG20000625031511806/25/00 03:15:31  5-MIN KMKG 250815Z 30005KT 1 1/4SM BR BKN003 18/18 A2982 720 100 1300 300/05 RMK AO2 VIS 1/2 RWY 14
14840KMKG MKG20000625032010106/25/00 03:20:31  5-MIN KMKG 250820Z 31005KT 3/4SM BR BKN001 18/18 A2982 720 100 1300 310/05 RMK AO2
14840KMKG MKG20000625032510106/25/00 03:25:31  5-MIN KMKG 250825Z 29005KT 1/2SM FG OVC001 18/18 A2982 720 100 1300 300/05 RMK AO2
14840KMKG MKG20000625033010806/25/00 03:30:31  5-MIN KMKG 250830Z 31005KT 1/2SM FG BKN001 OVC014 18/18 A2983 720 100 1300 310/05 RMK AO2
14840KMKG MKG20000625033510806/25/00 03:35:31  5-MIN KMKG 250835Z 31004KT 1/2SM FG BKN001 OVC014 18/18 A2983 710 100 1300 320/04 RMK AO2
14840KMKG MKG20000625034012306/25/00 03:40:31  5-MIN KMKG 250840Z 32004KT 3/4SM BR SCT001 OVC014 18/18 A2983 710 100 1300 320/04 RMK AO2 CIG 001 RWY 14
14840KMKG MKG20000625034512106/25/00 03:45:31  5-MIN KMKG 250845Z 29004KT 1SM BR SCT001 OVC014 18/18 A2983 710 100 1300 300/04 RMK AO2 CIG 001 RWY 14
14840KMKG MKG20000625035014806/25/00 03:50:31  5-MIN KMKG 250850Z 00000KT 1 1/2SM BR SCT001 OVC014 18/18 A2983 720 100 1300 000/00 RMK AO2 CIG 001 RWY 14 SLP098 T01830183 53002
14840KMKG MKG20000625035516106/25/00 03:55:31  5-MIN KMKG 250855Z 29003KT 2SM BR FEW001 OVC014 18/18 A2983 720 100 1300 300/03 RMK AO2 VIS 1 1/4 RWY 14 CIG 001 RWY 14 SLP098 T01830183 53014
14840KMKG MKG20000625040014906/25/00 04:00:31  5-MIN KMKG 250900Z 29004KT 2 1/2SM BR FEW001 BKN014 BKN029 18/18 A2983 710 100 1200 290/04 RMK AO2 VIS 1 1/2 RWY 14 CIG 003 RWY 14
14840KMKG MKG20000625040514906/25/00 04:05:31  5-MIN KMKG 250905Z 29003KT 2 1/2SM BR FEW001 BKN014 BKN029 18/18 A2983 710 100 1200 300/03 RMK AO2 VIS 1 3/4 RWY 14 CIG 003 RWY 14
14840KMKG MKG20000625041014906/25/00 04:10:31  5-MIN KMKG 250910Z 00000KT 2 1/2SM BR FEW001 SCT014 BKN029 18/18 A2983 710 100 1200 000/00 RMK AO2 VIS 1 3/4 RWY 14 CIG 013 RWY 14
14840KMKG MKG20000625041510606/25/00 04:15:31  5-MIN KMKG 250915Z 29003KT 2SM BR FEW014 SCT029 18/18 A2983 710 100 1200 300/03 RMK AO2
14840KMKG MKG20000625042010306/25/00 04:20:31  5-MIN KMKG 250920Z 00000KT 1 3/4SM BR FEW014 18/18 A2983 710 100 1200 000/00 RMK AO2
14840KMKG MKG20000625042510306/25/00 04:25:31  5-MIN KMKG 250925Z 28003KT 1 1/2SM BR FEW029 18/18 A2984 710 100 1200 280/03 RMK AO2
14840KMKG MKG20000625043010306/25/00 04:30:31  5-MIN KMKG 250930Z 27004KT 1 3/4SM BR FEW029 17/17 A2984 710 100 1200 270/04 RMK AO2
14840KMKG MKG20000625043511106/25/00 04:35:31  5-MIN KMKG 250935Z 25004KT 2SM BR CLR 17/17 A2984 710 100 1200 250/04 RMK AO2 CIG 003 RWY 14
14840KMKG MKG20000625044011006/25/00 04:40:31  5-MIN KMKG 250940Z 27006KT 2SM BR CLR 18/17 A2984 710 96 1200 280/06 RMK AO2 CIG 003 RWY 14
14840KMKG MKG20000625044513206/25/00 04:45:31  5-MIN KMKG 250945Z 28005KT 2 1/2SM BR CLR 17/17 A2984 700 100 1200 290/05 RMK AO2 VIS 1 3/4 RWY 14 CIG 003 RWY 14
14840KMKG MKG20000625045012006/25/00 04:50:31  5-MIN KMKG 250950Z 29006KT 2 1/2SM BR FEW003 17/17 A2984 700 100 1200 290/06 RMK AO2 SLP104 T01720172
14840KMKG MKG20000625045513206/25/00 04:55:31  5-MIN KMKG 250955Z 30007KT 1/2SM BR SCT003 17/17 A2985 700 100 1200 300/07 RMK AO2 SFC VIS 1 3/4 SLP105 T01720172
14840KMKG MKG20000625050011106/25/00 05:00:31  5-MIN KMKG 251000Z 29008KT 1/4SM BR BKN003 17/17 A2985 690 100 1200 300/08 RMK AO2 SFC VIS 1
14840KMKG MKG20000625050512006/25/00 05:05:31  5-MIN KMKG 251005Z 30008KT 1/4SM FG BKN001 BKN005 17/17 A2986 690 100 1100 310/08 RMK AO2 SFC VIS 1/2
14840KMKG MKG20000625051009906/25/00 05:10:31  5-MIN KMKG 251010Z 29008KT 1SM BR BKN003 17/17 A2986 680 100 1100 300/08 RMK AO2
14840KMKG MKG20000625051511206/25/00 05:15:31  5-MIN KMKG 251015Z 29004KT 2SM BR OVC003 17/17 A2987 680 100 1100 300/04 RMK AO2 VIS 1 RWY 14
14840KMKG MKG20000625052011606/25/00 05:20:31  5-MIN KMKG 251020Z VRB04KT 2 1/2SM BR BKN003 17/17 A2987 680 100 1100 VRB/04 RMK AO2 VIS 1 RWY 14
14840KMKG MKG20000625052511606/25/00 05:25:31  5-MIN KMKG 251025Z 29005KT 3SM BR BKN003 17/17 A2987 670 100 1100 290/05 RMK AO2 VIS 1 1/4 RWY 14
14840KMKG MKG20000625053012206/25/00 05:30:31  5-MIN KMKG 251030Z 29005KT 3SM BR BKN003 17/17 A2988 670 100 1100 290/05 RMK AO2 VIS 1 1/2 RWY 14 P0001
14840KMKG MKG20000625053511806/25/00 05:35:31  5-MIN KMKG 251035Z 30005KT 3SM BR BKN003 17/17 A2988 670 100 1100 300/05 RMK AO2 VIS 2 RWY 14 P0001
14840KMKG MKG20000625054013006/25/00 05:40:31  5-MIN KMKG 251040Z 29006KT 3SM BR BKN003 17/17 A2988 670 100 1100 290/06 RMK AO2 VIS 2 RWY 14 CIG 002V007 P0001
14840KMKG MKG20000625054512606/25/00 05:45:31  5-MIN KMKG 251045Z 29004KT 2 1/2SM BR BKN003 17/17 A2988 660 100 1100 290/04 RMK AO2 VIS 1 3/4 RWY 14 P0001
14840KMKG MKG20000625055012106/25/00 05:50:31  5-MIN KMKG 251050Z 29004KT 2SM BR BKN003 17/17 A2989 660 96 1100 290/04 RMK AO2 SLP118 P0001 T01720167
14840KMKG MKG20000625055512606/25/00 05:55:31  5-MIN KMKG 251055Z 29006KT 1 3/4SM BR BKN003 17/17 A2989 660 100 1100 290/06 RMK AO2 SLP119 P0001 T01720172
14840KMKG MKG20000625060010306/25/00 06:00:31  5-MIN KMKG 251100Z 28005KT 1 3/4SM BR OVC003 17/17 A2989 660 100 1100 290/05 RMK AO2
14840KMKG MKG20000625060510306/25/00 06:05:31  5-MIN KMKG 251105Z 28005KT 1 3/4SM BR OVC003 17/17 A2990 650 100 1100 290/05 RMK AO2
14840KMKG MKG20000625061010306/25/00 06:10:31  5-MIN KMKG 251110Z 28004KT 1 1/2SM BR OVC003 17/17 A2990 650 100 1100 290/04 RMK AO2
14840KMKG MKG20000625061510306/25/00 06:15:31  5-MIN KMKG 251115Z 28004KT 1 1/4SM BR OVC003 17/17 A2990 650 100 1100 290/04 RMK AO2
14840KMKG MKG20000625062010306/25/00 06:20:31  5-MIN KMKG 251120Z 30005KT 1 1/2SM BR OVC003 17/17 A2990 650 100 1100 300/05 RMK AO2
14840KMKG MKG20000625062510306/25/00 06:25:31  5-MIN KMKG 251125Z 30003KT 1 1/4SM BR OVC003 17/17 A2990 650 100 1100 300/03 RMK AO2
14840KMKG MKG20000625063010306/25/00 06:30:31  5-MIN KMKG 251130Z 30004KT 1 1/4SM BR OVC003 17/17 A2990 650 100 1100 300/04 RMK AO2
14840KMKG MKG20000625063509906/25/00 06:35:31  5-MIN KMKG 251135Z 30005KT 1SM BR OVC003 17/17 A2990 650 100 1100 300/05 RMK AO2
14840KMKG MKG20000625064010106/25/00 06:40:31  5-MIN KMKG 251140Z 29004KT 3/4SM BR OVC003 17/17 A2990 650 100 1100 300/04 RMK AO2
14840KMKG MKG20000625064510106/25/00 06:45:31  5-MIN KMKG 251145Z 29004KT 3/4SM BR OVC003 17/17 A2990 650 100 1100 290/04 RMK AO2
14840KMKG MKG20000625065014806/25/00 06:50:31  5-MIN KMKG 251150Z 28006KT 3/4SM BR OVC003 17/17 A2991 640 100 1100 290/06 RMK AO2 SLP124 60001 70007 T01720172 10194 20167 53014
14840KMKG MKG20000625065514806/25/00 06:55:31  5-MIN KMKG 251155Z 29006KT 3/4SM BR OVC003 17/17 A2991 640 100 1100 300/06 RMK AO2 SLP124 60001 70007 T01720172 10194 20167 51026
14840KMKG MKG20000625070010106/25/00 07:00:31  5-MIN KMKG 251200Z 29005KT 3/4SM BR OVC003 17/17 A2991 640 100 1100 290/05 RMK AO2
14840KMKG MKG20000625070510106/25/00 07:05:31  5-MIN KMKG 251205Z 28006KT 3/4SM BR OVC003 17/17 A2991 640 100 1100 290/06 RMK AO2
14840KMKG MKG20000625071010106/25/00 07:10:31  5-MIN KMKG 251210Z 28006KT 1/2SM FG OVC003 17/17 A2991 640 100 1100 290/06 RMK AO2
14840KMKG MKG20000625071510106/25/00 07:15:31  5-MIN KMKG 251215Z 28005KT 1/2SM FG OVC003 17/17 A2991 640 100 1100 280/05 RMK AO2
14840KMKG MKG20000625072010106/25/00 07:20:31  5-MIN KMKG 251220Z 29006KT 1/2SM FG OVC003 17/17 A2991 640 100 1100 300/06 RMK AO2
14840KMKG MKG20000625072510106/25/00 07:25:31  5-MIN KMKG 251225Z 28004KT 1/2SM FG OVC003 17/17 A2991 640 100 1100 280/04 RMK AO2
14840KMKG MKG20000625073010106/25/00 07:30:31  5-MIN KMKG 251230Z 27006KT 1/2SM FG OVC003 17/17 A2991 640 100 1100 270/06 RMK AO2
14840KMKG MKG20000625073510106/25/00 07:35:31  5-MIN KMKG 251235Z 28005KT 1/2SM FG OVC003 17/17 A2992 640 100 1100 290/05 RMK AO2
14840KMKG MKG20000625074010106/25/00 07:40:31  5-MIN KMKG 251240Z 29005KT 1/2SM FG OVC003 17/17 A2992 630 100 1100 290/05 RMK AO2
14840KMKG MKG20000625074510106/25/00 07:45:31  5-MIN KMKG 251245Z 29004KT 1/2SM FG OVC003 18/18 A2992 630 100 1100 290/04 RMK AO2
14840KMKG MKG20000625075011806/25/00 07:50:31  5-MIN KMKG 251250Z 28005KT 1/2SM FG OVC003 17/17 A2992 630 100 1100 280/05 RMK AO2 SLP131 T01720172
14840KMKG MKG20000625075511806/25/00 07:55:31  5-MIN KMKG 251255Z 27007KT 1/2SM FG OVC003 17/17 A2993 620 100 1100 270/07 RMK AO2 SLP133 T01720172
14840KMKG MKG20000625080010106/25/00 08:00:31  5-MIN KMKG 251300Z 27006KT 3/4SM BR OVC003 17/17 A2993 620 100 1100 270/06 RMK AO2
14840KMKG MKG20000625080510106/25/00 08:05:31  5-MIN KMKG 251305Z 29006KT 3/4SM BR OVC003 17/17 A2993 620 100 1100 290/06 RMK AO2
14840KMKG MKG20000625081010106/25/00 08:10:31  5-MIN KMKG 251310Z 29005KT 3/4SM BR OVC003 17/17 A2993 620 100 1100 300/05 RMK AO2
14840KMKG MKG20000625081510106/25/00 08:15:31  5-MIN KMKG 251315Z 29006KT 3/4SM BR OVC003 18/18 A2994 620 100 1100 290/06 RMK AO2
14840KMKG MKG20000625082010106/25/00 08:20:31  5-MIN KMKG 251320Z 29006KT 3/4SM BR OVC003 17/17 A2994 610 100 1100 300/06 RMK AO2
14840KMKG MKG20000625082510106/25/00 08:25:31  5-MIN KMKG 251325Z 29006KT 3/4SM BR OVC003 17/17 A2994 610 100 1100 300/06 RMK AO2
14840KMKG MKG20000625083010006/25/00 08:30:31  5-MIN KMKG 251330Z 29005KT 3/4SM BR OVC003 18/17 A2994 610 96 1100 300/05 RMK AO2
14840KMKG MKG20000625083510106/25/00 08:35:31  5-MIN KMKG 251335Z 30006KT 3/4SM BR OVC003 17/17 A2994 610 100 1100 300/06 RMK AO2
14840KMKG MKG20000625084010106/25/00 08:40:31  5-MIN KMKG 251340Z 30004KT 3/4SM BR OVC003 18/18 A2994 610 100 1100 310/04 RMK AO2
14840KMKG MKG20000625084510106/25/00 08:45:31  5-MIN KMKG 251345Z 31004KT 3/4SM BR OVC003 18/18 A2995 610 100 1100 320/04 RMK AO2
14840KMKG MKG20000625085011606/25/00 08:50:31  5-MIN KMKG 251350Z 32005KT 1SM BR OVC003 18/18 A2995 610 100 1100 330/05 RMK AO2 SLP138 T01780178
14840KMKG MKG20000625085512006/25/00 08:55:31  5-MIN KMKG 251355Z 34004KT 1 1/4SM BR OVC003 18/18 A2995 610 100 1100 340/04 RMK AO2 SLP138 T01780178
14840KMKG MKG20000625090010306/25/00 09:00:31  5-MIN KMKG 251400Z 35003KT 1 3/4SM BR OVC003 18/18 A2994 610 100 1200 360/03 RMK AO2
14840KMKG MKG20000625090511006/25/00 09:05:31  5-MIN KMKG 251405Z 34004KT 2SM BR OVC003 19/18 A2995 610 97 1200 350/04 RMK AO2 CIG 002V006
14840KMKG MKG20000625091010506/25/00 09:10:31  5-MIN KMKG 251410Z 32003KT 3SM BR BKN003 OVC007 19/18 A2995 610 97 1200 330/03 RMK AO2
14840KMKG MKG20000625091512406/25/00 09:15:31  5-MIN KMKG 251415Z 00000KT 2 1/2SM BR OVC003 19/18 A2994 610 97 1200 000/00 RMK AO2 SFC VIS 5 CIG 002V009
14840KMKG MKG20000625092012506/25/00 09:20:31  5-MIN KMKG 251420Z 27003KT 2 1/2SM BR OVC003 19/19 A2995 610 100 1200 270/03 RMK AO2 SFC VIS 6 CIG 002V009
14840KMKG MKG20000625092510706/25/00 09:25:31  5-MIN KMKG 251425Z 26004KT 7SM OVC005 19/19 A2995 600 97 1300 260/04 RMK AO2 CIG 003V009
14840KMKG MKG20000625093009506/25/00 09:30:31  5-MIN KMKG 251430Z 31003KT 7SM OVC005 20/19 A2995 610 93 1400 310/03 RMK AO2
14840KMKG MKG20000625093509806/25/00 09:35:31  5-MIN KMKG 251435Z VRB03KT 6SM BR OVC005 20/19 A2995 610 93 1400 VRB/03 RMK AO2
14840KMKG MKG20000625094009806/25/00 09:40:31  5-MIN KMKG 251440Z 00000KT 6SM BR OVC005 20/19 A2995 610 93 1400 000/00 RMK AO2
14840KMKG MKG20000625094509806/25/00 09:45:31  5-MIN KMKG 251445Z 00000KT 5SM BR OVC005 21/19 A2995 610 90 1400 000/00 RMK AO2
14840KMKG MKG20000625095012106/25/00 09:50:31  5-MIN KMKG 251450Z 00000KT 5SM BR OVC005 21/19 A2995 600 93 1400 000/00 RMK AO2 SLP139 T02060194 51026
14840KMKG MKG20000625095512106/25/00 09:55:31  5-MIN KMKG 251455Z 00000KT 5SM BR OVC005 21/19 A2995 600 93 1400 000/00 RMK AO2 SLP139 T02060194 51015
14840KMKG MKG20000625100009806/25/00 10:00:31  5-MIN KMKG 251500Z 00000KT 5SM BR OVC005 21/19 A2995 600 93 1400 000/00 RMK AO2
14840KMKG MKG20000625100509806/25/00 10:05:31  5-MIN KMKG 251505Z 00000KT 6SM BR OVC005 21/19 A2995 600 90 1500 000/00 RMK AO2
14840KMKG MKG20000625101009806/25/00 10:10:31  5-MIN KMKG 251510Z 31004KT 6SM BR OVC005 21/19 A2995 600 90 1500 320/04 RMK AO2
14840KMKG MKG20000625101509506/25/00 10:15:31  5-MIN KMKG 251515Z 00000KT 7SM OVC005 21/19 A2995 600 90 1500 000/00 RMK AO2
14840KMKG MKG20000625102009506/25/00 10:20:31  5-MIN KMKG 251520Z VRB04KT 8SM OVC005 21/19 A2995 600 90 1500 VRB/04 RMK AO2
14840KMKG MKG20000625102509506/25/00 10:25:31  5-MIN KMKG 251525Z VRB04KT 8SM OVC005 21/19 A2995 600 90 1500 VRB/04 RMK AO2
14840KMKG MKG20000625103009506/25/00 10:30:31  5-MIN KMKG 251530Z 00000KT 8SM OVC007 21/19 A2995 600 90 1500 000/00 RMK AO2
14840KMKG MKG20000625103509506/25/00 10:35:31  5-MIN KMKG 251535Z 31003KT 7SM OVC007 22/19 A2995 600 87 1600 310/03 RMK AO2
14840KMKG MKG20000625104009506/25/00 10:40:31  5-MIN KMKG 251540Z 33003KT 7SM OVC007 22/19 A2996 600 87 1600 330/03 RMK AO2
14840KMKG MKG20000625104509806/25/00 10:45:31  5-MIN KMKG 251545Z 00000KT 6SM BR OVC007 21/19 A2996 600 90 1500 000/00 RMK AO2
14840KMKG MKG20000625105012706/25/00 10:50:31  5-MIN KMKG 251550Z 26003KT 6SM BR OVC007 22/19 A2996 600 87 1600 270/03 RMK AO2 CIG 007V011 SLP142 T02170194
14840KMKG MKG20000625105512706/25/00 10:55:31  5-MIN KMKG 251555Z 26004KT 6SM BR OVC007 22/19 A2996 600 87 1600 270/04 RMK AO2 CIG 007V012 SLP142 T02170194
14840KMKG MKG20000625110010706/25/00 11:00:31  5-MIN KMKG 251600Z VRB04KT 7SM OVC009 22/19 A2996 600 87 1500 VRB/04 RMK AO2 CIG 007V012
14840KMKG MKG20000625110509506/25/00 11:05:31  5-MIN KMKG 251605Z 27004KT 7SM OVC009 22/19 A2996 590 84 1600 280/04 RMK AO2
14840KMKG MKG20000625111009806/25/00 11:10:31  5-MIN KMKG 251610Z 28005KT 6SM BR OVC009 22/19 A2996 590 87 1500 280/05 RMK AO2
14840KMKG MKG20000625111509806/25/00 11:15:31  5-MIN KMKG 251615Z 27006KT 6SM BR OVC009 22/19 A2996 590 87 1500 280/06 RMK AO2
14840KMKG MKG20000625112009506/25/00 11:20:31  5-MIN KMKG 251620Z 29005KT 7SM OVC009 22/19 A2996 590 84 1600 290/05 RMK AO2
14840KMKG MKG20000625112509506/25/00 11:25:31  5-MIN KMKG 251625Z 28005KT 7SM OVC009 22/19 A2996 590 84 1600 290/05 RMK AO2
14840KMKG MKG20000625113009506/25/00 11:30:31  5-MIN KMKG 251630Z 27004KT 7SM BKN009 22/19 A2996 590 84 1600 270/04 RMK AO2
14840KMKG MKG20000625113509506/25/00 11:35:31  5-MIN KMKG 251635Z 24006KT 8SM BKN009 23/20 A2997 590 84 1700 240/06 RMK AO2
14840KMKG MKG20000625114009506/25/00 11:40:31  5-MIN KMKG 251640Z VRB04KT 8SM BKN009 22/19 A2997 590 84 1600 VRB/04 RMK AO2
14840KMKG MKG20000625114509506/25/00 11:45:31  5-MIN KMKG 251645Z 24006KT 9SM BKN011 22/20 A2997 590 87 1600 240/06 RMK AO2
14840KMKG MKG20000625115011206/25/00 11:50:31  5-MIN KMKG 251650Z 25005KT 9SM BKN011 22/20 A2997 580 87 1600 250/05 RMK AO2 SLP146 T02220200
14840KMKG MKG20000625115511206/25/00 11:55:31  5-MIN KMKG 251655Z 24007KT 9SM SCT011 22/20 A2997 590 87 1600 240/07 RMK AO2 SLP145 T02220200
14840KMKG MKG20000625120009506/25/00 12:00:31  5-MIN KMKG 251700Z 23007KT 9SM SCT011 22/19 A2996 590 84 1600 230/07 RMK AO2
14840KMKG MKG20000625120509606/25/00 12:05:31  5-MIN KMKG 251705Z 21008KT 10SM SCT011 22/19 A2996 590 84 1600 220/08 RMK AO2
14840KMKG MKG20000625121009606/25/00 12:10:31  5-MIN KMKG 251710Z 22007KT 10SM FEW011 22/20 A2996 590 87 1600 220/07 RMK AO2
14840KMKG MKG20000625121509606/25/00 12:15:31  5-MIN KMKG 251715Z 21007KT 10SM FEW011 22/20 A2997 590 87 1600 220/07 RMK AO2
14840KMKG MKG20000625122009306/25/00 12:20:31  5-MIN KMKG 251720Z 23007KT 10SM CLR 22/19 A2996 590 84 1600 240/07 RMK AO2
14840KMKG MKG20000625122509306/25/00 12:25:31  5-MIN KMKG 251725Z 24007KT 10SM CLR 23/20 A2996 590 84 1700 240/07 RMK AO2
14840KMKG MKG20000625123009306/25/00 12:30:31  5-MIN KMKG 251730Z 23007KT 10SM CLR 22/19 A2996 590 84 1600 230/07 RMK AO2
14840KMKG MKG20000625123509306/25/00 12:35:31  5-MIN KMKG 251735Z 24007KT 10SM CLR 22/19 A2996 590 84 1600 240/07 RMK AO2
14840KMKG MKG20000625124009306/25/00 12:40:31  5-MIN KMKG 251740Z 23007KT 10SM CLR 22/19 A2996 590 84 1600 240/07 RMK AO2
14840KMKG MKG20000625124509306/25/00 12:45:31  5-MIN KMKG 251745Z 25007KT 10SM CLR 22/19 A2996 590 87 1500 260/07 RMK AO2
14840KMKG MKG20000625125012806/25/00 12:50:31  5-MIN KMKG 251750Z 24008KT 10SM CLR 22/19 A2996 590 84 1600 250/08 RMK AO2 SLP144 T02220194 10228 20172 51015
14840KMKG MKG20000625125513106/25/00 12:55:31  5-MIN KMKG 251755Z 23007KT 10SM FEW009 22/19 A2997 580 84 1600 240/07 RMK AO2 SLP147 T02220194 10228 20172 51007
14840KMKG MKG20000625130009606/25/00 13:00:31  5-MIN KMKG 251800Z 25008KT 10SM SCT009 21/19 A2997 580 87 1500 250/08 RMK AO2
14840KMKG MKG20000625130509506/25/00 13:05:31  5-MIN KMKG 251805Z 25009KT 9SM BKN009 21/19 A2998 580 87 1500 250/09 RMK AO2
14840KMKG MKG20000625131009506/25/00 13:10:31  5-MIN KMKG 251810Z 26007KT 8SM BKN007 21/19 A2997 580 87 1500 260/07 RMK AO2
14840KMKG MKG20000625131509506/25/00 13:15:31  5-MIN KMKG 251815Z 21008KT 8SM BKN007 21/19 A2997 580 87 1500 210/08 RMK AO2
14840KMKG MKG20000625132009506/25/00 13:20:31  5-MIN KMKG 251820Z 22005KT 8SM OVC007 21/19 A2997 580 90 1400 230/05 RMK AO2
14840KMKG MKG20000625132509506/25/00 13:25:31  5-MIN KMKG 251825Z 21008KT 7SM OVC007 21/19 A2997 580 90 1400 220/08 RMK AO2
14840KMKG MKG20000625133009506/25/00 13:30:31  5-MIN KMKG 251830Z 24008KT 7SM OVC007 21/19 A2997 590 87 1500 240/08 RMK AO2
14840KMKG MKG20000625133509506/25/00 13:35:31  5-MIN KMKG 251835Z 21008KT 9SM OVC007 21/19 A2997 580 87 1500 210/08 RMK AO2
14840KMKG MKG20000625134009506/25/00 13:40:31  5-MIN KMKG 251840Z 22009KT 9SM OVC007 22/19 A2997 590 84 1500 230/09 RMK AO2
14840KMKG MKG20000625134509506/25/00 13:45:31  5-MIN KMKG 251845Z 24008KT 9SM BKN007 22/19 A2997 580 84 1500 240/08 RMK AO2
14840KMKG MKG20000625135011206/25/00 13:50:31  5-MIN KMKG 251850Z 23009KT 9SM BKN007 21/19 A2997 580 87 1500 230/09 RMK AO2 SLP147 T02110189
14840KMKG MKG20000625135511206/25/00 13:55:31  5-MIN KMKG 251855Z 23008KT 8SM OVC007 22/19 A2997 580 84 1500 230/08 RMK AO2 SLP148 T02170189
14840KMKG MKG20000625140009506/25/00 14:00:31  5-MIN KMKG 251900Z 22010KT 9SM OVC007 21/19 A2997 580 87 1500 230/10 RMK AO2
14840KMKG MKG20000625140509506/25/00 14:05:31  5-MIN KMKG 251905Z 22010KT 8SM OVC007 21/19 A2997 580 87 1500 220/10 RMK AO2
14840KMKG MKG20000625141009506/25/00 14:10:31  5-MIN KMKG 251910Z 23010KT 8SM OVC007 21/19 A2997 580 90 1400 240/10 RMK AO2
14840KMKG MKG20000625141509506/25/00 14:15:31  5-MIN KMKG 251915Z 22009KT 8SM OVC007 21/19 A2998 580 90 1400 230/09 RMK AO2
14840KMKG MKG20000625142009506/25/00 14:20:31  5-MIN KMKG 251920Z 22010KT 8SM OVC007 21/19 A2998 570 87 1500 230/10 RMK AO2
14840KMKG MKG20000625142509506/25/00 14:25:31  5-MIN KMKG 251925Z 22011KT 8SM OVC007 21/19 A2999 570 90 1400 220/11 RMK AO2
14840KMKG MKG20000625143009506/25/00 14:30:31  5-MIN KMKG 251930Z 22010KT 7SM OVC007 21/19 A2999 570 90 1400 230/10 RMK AO2
14840KMKG MKG20000625143509506/25/00 14:35:31  5-MIN KMKG 251935Z 24009KT 7SM OVC007 21/19 A2999 570 90 1400 240/09 RMK AO2
14840KMKG MKG20000625144009806/25/00 14:40:31  5-MIN KMKG 251940Z 23009KT 6SM BR OVC007 21/19 A2999 570 90 1400 240/09 RMK AO2
14840KMKG MKG20000625144509806/25/00 14:45:31  5-MIN KMKG 251945Z 23009KT 5SM BR OVC007 21/19 A2999 570 90 1400 230/09 RMK AO2
14840KMKG MKG20000625145011506/25/00 14:50:31  5-MIN KMKG 251950Z 22007KT 5SM BR OVC007 21/19 A2999 570 90 1400 230/07 RMK AO2 SLP153 T02060189
14840KMKG MKG20000625145511506/25/00 14:55:31  5-MIN KMKG 251955Z 23007KT 5SM BR OVC007 21/19 A2999 570 90 1400 230/07 RMK AO2 SLP153 T02060189
14840KMKG MKG20000625150009806/25/00 15:00:31  5-MIN KMKG 252000Z 22007KT 5SM BR OVC007 21/19 A2999 570 90 1400 220/07 RMK AO2
14840KMKG MKG20000625150509806/25/00 15:05:31  5-MIN KMKG 252005Z 25004KT 5SM BR OVC007 21/19 A2998 570 90 1400 250/04 RMK AO2
14840KMKG MKG20000625151011406/25/00 15:10:31  5-MIN KMKG 252010Z 22007KT 200V270 5SM BR OVC007 21/19 A2998 580 90 1500 230/07 200V270 RMK AO2
14840KMKG MKG20000625151509806/25/00 15:15:31  5-MIN KMKG 252015Z 23007KT 5SM BR OVC007 21/19 A2998 570 90 1500 230/07 RMK AO2
14840KMKG MKG20000625152009806/25/00 15:20:31  5-MIN KMKG 252020Z 22008KT 5SM BR OVC007 21/19 A2998 570 90 1500 220/08 RMK AO2
14840KMKG MKG20000625152509806/25/00 15:25:31  5-MIN KMKG 252025Z 22007KT 5SM BR OVC007 21/19 A2998 570 90 1500 230/07 RMK AO2
14840KMKG MKG20000625153009806/25/00 15:30:31  5-MIN KMKG 252030Z 22006KT 5SM BR OVC007 21/19 A2998 570 90 1500 220/06 RMK AO2
14840KMKG MKG20000625153509806/25/00 15:35:31  5-MIN KMKG 252035Z 23007KT 5SM BR OVC007 21/19 A2998 570 90 1500 230/07 RMK AO2
14840KMKG MKG20000625154009806/25/00 15:40:31  5-MIN KMKG 252040Z 23008KT 5SM BR OVC007 22/19 A2998 570 87 1500 230/08 RMK AO2
14840KMKG MKG20000625154509806/25/00 15:45:31  5-MIN KMKG 252045Z 23008KT 5SM BR OVC007 21/19 A2999 570 87 1500 230/08 RMK AO2
14840KMKG MKG20000625155012106/25/00 15:50:31  5-MIN KMKG 252050Z 22009KT 5SM BR OVC007 21/19 A2999 570 87 1500 220/09 RMK AO2 SLP152 T02110189 51007
14840KMKG MKG20000625155512106/25/00 15:55:31  5-MIN KMKG 252055Z 23008KT 5SM BR OVC007 21/19 A2999 570 87 1500 230/08 RMK AO2 SLP152 T02110189 50005
14840KMKG MKG20000625160009806/25/00 16:00:31  5-MIN KMKG 252100Z 24008KT 5SM BR OVC007 21/19 A2999 570 90 1400 250/08 RMK AO2
14840KMKG MKG20000625160509806/25/00 16:05:31  5-MIN KMKG 252105Z 23006KT 5SM BR OVC007 21/19 A2999 570 87 1500 240/06 RMK AO2
14840KMKG MKG20000625161009806/25/00 16:10:31  5-MIN KMKG 252110Z 23006KT 5SM BR OVC007 21/19 A2999 570 87 1500 230/06 RMK AO2
14840KMKG MKG20000625161509806/25/00 16:15:31  5-MIN KMKG 252115Z 22007KT 5SM BR OVC007 21/19 A2999 570 90 1500 220/07 RMK AO2
14840KMKG MKG20000625162009806/25/00 16:20:31  5-MIN KMKG 252120Z 22008KT 5SM BR OVC007 21/19 A2999 560 90 1400 220/08 RMK AO2
14840KMKG MKG20000625162509806/25/00 16:25:31  5-MIN KMKG 252125Z 22007KT 4SM BR OVC007 21/19 A2999 570 90 1400 220/07 RMK AO2
14840KMKG MKG20000625163009806/25/00 16:30:31  5-MIN KMKG 252130Z 21008KT 4SM BR OVC007 21/19 A3000 560 90 1400 210/08 RMK AO2
14840KMKG MKG20000625163509806/25/00 16:35:31  5-MIN KMKG 252135Z 23008KT 4SM BR OVC007 21/19 A3000 560 90 1400 240/08 RMK AO2
14840KMKG MKG20000625164009806/25/00 16:40:31  5-MIN KMKG 252140Z 23007KT 4SM BR OVC007 21/19 A3000 560 90 1400 230/07 RMK AO2
14840KMKG MKG20000625164509806/25/00 16:45:31  5-MIN KMKG 252145Z 20008KT 4SM BR OVC007 21/19 A2999 560 90 1400 200/08 RMK AO2
14840KMKG MKG20000625165011506/25/00 16:50:31  5-MIN KMKG 252150Z 19008KT 4SM BR OVC007 21/19 A2999 570 90 1400 190/08 RMK AO2 SLP154 T02060189
14840KMKG MKG20000625165511506/25/00 16:55:31  5-MIN KMKG 252155Z 20007KT 4SM BR OVC007 21/19 A2998 580 90 1400 210/07 RMK AO2 SLP151 T02060189
14840KMKG MKG20000625170009806/25/00 17:00:31  5-MIN KMKG 252200Z 20007KT 4SM BR OVC007 21/19 A2998 580 90 1500 200/07 RMK AO2
14840KMKG MKG20000625170509806/25/00 17:05:31  5-MIN KMKG 252205Z 17007KT 4SM BR OVC007 21/19 A2998 580 90 1500 170/07 RMK AO2
14840KMKG MKG20000625171009806/25/00 17:10:31  5-MIN KMKG 252210Z 19007KT 4SM BR OVC007 21/19 A2997 580 90 1500 190/07 RMK AO2
14840KMKG MKG20000625171509806/25/00 17:15:31  5-MIN KMKG 252215Z 18006KT 5SM BR OVC007 21/19 A2998 580 90 1500 180/06 RMK AO2
14840KMKG MKG20000625172009806/25/00 17:20:31  5-MIN KMKG 252220Z 17008KT 5SM BR OVC007 21/19 A2997 590 90 1500 180/08 RMK AO2
14840KMKG MKG20000625172509806/25/00 17:25:31  5-MIN KMKG 252225Z 15005KT 5SM BR OVC007 21/19 A2997 580 90 1500 160/05 RMK AO2
14840KMKG MKG20000625173009806/25/00 17:30:31  5-MIN KMKG 252230Z 17005KT 5SM BR BKN007 21/19 A2996 590 90 1500 170/05 RMK AO2
14840KMKG MKG20000625173509806/25/00 17:35:31  5-MIN KMKG 252235Z 20006KT 6SM BR BKN007 21/19 A2996 590 90 1500 210/06 RMK AO2
14840KMKG MKG20000625174010506/25/00 17:40:31  5-MIN KMKG 252240Z 19006KT 6SM BR FEW007 SCT010 21/19 A2996 590 90 1400 200/06 RMK AO2
14840KMKG MKG20000625174510506/25/00 17:45:31  5-MIN KMKG 252245Z 20005KT 6SM BR FEW007 SCT010 21/19 A2996 600 90 1500 200/05 RMK AO2
14840KMKG MKG20000625175012206/25/00 17:50:31  5-MIN KMKG 252250Z 20005KT 6SM BR FEW007 SCT010 21/19 A2996 590 90 1500 200/05 RMK AO2 SLP144 T02110194
14840KMKG MKG20000625175511906/25/00 17:55:31  5-MIN KMKG 252255Z 21005KT 7SM FEW007 SCT010 21/19 A2996 590 90 1500 210/05 RMK AO2 SLP144 T02110194
14840KMKG MKG20000625180009506/25/00 18:00:31  5-MIN KMKG 252300Z 17005KT 7SM FEW007 21/19 A2996 600 90 1500 180/05 RMK AO2
14840KMKG MKG20000625180509506/25/00 18:05:31  5-MIN KMKG 252305Z VRB05KT 7SM SCT007 22/19 A2996 590 87 1500 VRB/05 RMK AO2
14840KMKG MKG20000625181009506/25/00 18:10:31  5-MIN KMKG 252310Z 24006KT 7SM SCT008 21/19 A2996 590 90 1500 240/06 RMK AO2
14840KMKG MKG20000625181509506/25/00 18:15:31  5-MIN KMKG 252315Z 24005KT 7SM SCT008 21/19 A2996 600 90 1500 240/05 RMK AO2
14840KMKG MKG20000625182009806/25/00 18:20:31  5-MIN KMKG 252320Z 23006KT 6SM BR SCT008 21/19 A2996 600 93 1400 230/06 RMK AO2
14840KMKG MKG20000625182509806/25/00 18:25:31  5-MIN KMKG 252325Z 24006KT 5SM BR SCT008 21/19 A2996 590 90 1400 250/06 RMK AO2
14840KMKG MKG20000625183009806/25/00 18:30:31  5-MIN KMKG 252330Z 24005KT 5SM BR SCT006 20/19 A2996 590 93 1400 240/05 RMK AO2
14840KMKG MKG20000625183509806/25/00 18:35:31  5-MIN KMKG 252335Z 23007KT 5SM BR SCT006 20/19 A2997 590 93 1300 230/07 RMK AO2
14840KMKG MKG20000625184009806/25/00 18:40:31  5-MIN KMKG 252340Z 21006KT 4SM BR BKN006 20/19 A2997 580 93 1300 210/06 RMK AO2
14840KMKG MKG20000625184509806/25/00 18:45:31  5-MIN KMKG 252345Z 21005KT 4SM BR BKN004 20/19 A2997 590 93 1300 220/05 RMK AO2
14840KMKG MKG20000625185013306/25/00 18:50:31  5-MIN KMKG 252350Z 20006KT 4SM BR BKN004 19/19 A2997 590 97 1300 200/06 RMK AO2 SLP147 T01940189 10222 20194 50005
14840KMKG MKG20000625185513306/25/00 18:55:31  5-MIN KMKG 252355Z 19005KT 3SM BR BKN004 19/19 A2997 580 97 1300 200/05 RMK AO2 SLP147 T01940189 10222 20194 55005
14840KMKG MKG20000625190009806/25/00 19:00:31  5-MIN KMKG 260000Z 22006KT 3SM BR BKN004 19/19 A2997 590 97 1300 220/06 RMK AO2
14840KMKG MKG20000625190509806/25/00 19:05:31  5-MIN KMKG 260005Z 22007KT 3SM BR OVC004 19/19 A2997 580 97 1300 230/07 RMK AO2
14840KMKG MKG20000625191009806/25/00 19:10:31  5-MIN KMKG 260010Z 23006KT 2SM BR OVC003 19/19 A2998 580 97 1300 240/06 RMK AO2
14840KMKG MKG20000625191509906/25/00 19:15:31  5-MIN KMKG 260015Z 23005KT 1SM BR OVC003 19/19 A2998 580 100 1200 240/05 RMK AO2
14840KMKG MKG20000625192010106/25/00 19:20:31  5-MIN KMKG 260020Z 23006KT 3/4SM BR OVC003 19/19 A2997 580 100 1200 230/06 RMK AO2
14840KMKG MKG20000625192510106/25/00 19:25:31  5-MIN KMKG 260025Z 22004KT 3/4SM BR OVC003 19/19 A2997 580 100 1200 230/04 RMK AO2
14840KMKG MKG20000625193010106/25/00 19:30:31  5-MIN KMKG 260030Z 22005KT 1/2SM FG OVC001 19/19 A2997 580 100 1200 220/05 RMK AO2
14840KMKG MKG20000625193510106/25/00 19:35:31  5-MIN KMKG 260035Z 20004KT 1/4SM FG OVC001 19/19 A2997 580 100 1200 210/04 RMK AO2
14840KMKG MKG20000625194010106/25/00 19:40:31  5-MIN KMKG 260040Z 22005KT 1/4SM FG OVC001 18/18 A2997 580 100 1100 230/05 RMK AO2
14840KMKG MKG20000625194510006/25/00 19:45:31  5-MIN KMKG 260045Z 23005KT 1/4SM FG VV001 18/18 A2997 580 100 1100 230/05 RMK AO2
14840KMKG MKG20000625195011706/25/00 19:50:31  5-MIN KMKG 260050Z 22004KT 1/4SM FG VV001 18/18 A2997 580 100 1100 220/04 RMK AO2 SLP149 T01830183
14840KMKG MKG20000625195511706/25/00 19:55:31  5-MIN KMKG 260055Z 21003KT 1/4SM FG VV001 18/18 A2997 580 100 1100 210/03 RMK AO2 SLP148 T01830183
14840KMKG MKG20000625200011206/25/00 20:00:31  5-MIN KMKG 260100Z 19003KT 1/8SM FG VV001 19/19 A2997 580 100 1200 190/03 RMK AO2 SFC VIS 1/4
14840KMKG MKG20000625200511206/25/00 20:05:31  5-MIN KMKG 260105Z 19004KT 1/8SM FG VV001 18/18 A2997 580 100 1100 190/04 RMK AO2 SFC VIS 1/4
14840KMKG MKG20000625201011206/25/00 20:10:31  5-MIN KMKG 260110Z 19003KT 1/8SM FG VV001 18/18 A2997 580 100 1100 200/03 RMK AO2 SFC VIS 1/4
14840KMKG MKG20000625201512006/25/00 20:15:31  5-MIN KMKG 260115Z 20003KT 1/8SM FG BKN001 OVC005 18/18 A2997 580 100 1100 210/03 RMK AO2 SFC VIS 1/4
14840KMKG MKG20000625202012006/25/00 20:20:31  5-MIN KMKG 260120Z 20003KT 1/8SM FG BKN001 OVC005 18/18 A2997 580 100 1200 210/03 RMK AO2 SFC VIS 1/4
14840KMKG MKG20000625202512006/25/00 20:25:31  5-MIN KMKG 260125Z 21003KT 1/8SM FG BKN001 OVC005 18/18 A2997 580 100 1100 210/03 RMK AO2 SFC VIS 1/4
14840KMKG MKG20000625203012106/25/00 20:30:31  5-MIN KMKG 260130Z 00000KT M1/4SM FG BKN001 OVC005 18/18 A2997 590 100 1100 000/00 RMK AO2 TWR VIS 1/4
14840KMKG MKG20000625203512106/25/00 20:35:31  5-MIN KMKG 260135Z 00000KT M1/4SM FG SCT001 OVC005 18/18 A2997 590 100 1200 000/00 RMK AO2 TWR VIS 1/4
14840KMKG MKG20000625204010806/25/00 20:40:31  5-MIN KMKG 260140Z 00000KT 1/4SM FG SCT001 OVC005 18/18 A2996 590 100 1100 000/00 RMK AO2
14840KMKG MKG20000625204510806/25/00 20:45:31  5-MIN KMKG 260145Z 00000KT 1/4SM FG SCT001 OVC005 18/18 A2996 590 100 1100 000/00 RMK AO2
14840KMKG MKG20000625205012506/25/00 20:50:31  5-MIN KMKG 260150Z 13003KT 1/4SM FG SCT001 OVC005 18/18 A2996 590 100 1100 130/03 RMK AO2 SLP145 T01780178
14840KMKG MKG20000625205514006/25/00 20:55:31  5-MIN KMKG 260155Z 00000KT 1/4SM FG SCT001 OVC005 18/18 A2997 590 100 1100 000/00 RMK AO2 CIG 001 RWY 14 SLP146 T01780178
14840KMKG MKG20000625210012306/25/00 21:00:31  5-MIN KMKG 260200Z 00000KT 1/4SM FG SCT001 OVC005 18/18 A2996 590 100 1100 000/00 RMK AO2 CIG 001 RWY 14
14840KMKG MKG20000625210510806/25/00 21:05:31  5-MIN KMKG 260205Z 12003KT 1/4SM FG SCT001 OVC005 18/18 A2996 590 100 1100 130/03 RMK AO2
14840KMKG MKG20000625211012306/25/00 21:10:31  5-MIN KMKG 260210Z 12004KT 1/4SM FG SCT001 OVC005 18/18 A2996 590 100 1100 130/04 RMK AO2 CIG 001 RWY 14
14840KMKG MKG20000625211512306/25/00 21:15:31  5-MIN KMKG 260215Z 13003KT 1/4SM FG SCT001 OVC005 18/18 A2997 590 100 1100 130/03 RMK AO2 CIG 001 RWY 14
14840KMKG MKG20000625212010806/25/00 21:20:31  5-MIN KMKG 260220Z 14003KT 1/4SM FG SCT001 OVC005 18/18 A2997 580 100 1100 140/03 RMK AO2
14840KMKG MKG20000625212512306/25/00 21:25:31  5-MIN KMKG 260225Z 16003KT 1/4SM FG SCT001 OVC005 18/18 A2997 580 100 1100 160/03 RMK AO2 CIG 001 RWY 14
14840KMKG MKG20000625213012306/25/00 21:30:31  5-MIN KMKG 260230Z 17003KT 1/4SM FG SCT001 OVC005 18/18 A2998 580 100 1100 170/03 RMK AO2 CIG 001 RWY 14
14840KMKG MKG20000625213510806/25/00 21:35:31  5-MIN KMKG 260235Z 00000KT 1/2SM FG BKN001 OVC005 18/18 A2997 580 100 1100 000/00 RMK AO2
14840KMKG MKG20000625214010806/25/00 21:40:31  5-MIN KMKG 260240Z 00000KT 1/2SM FG BKN001 OVC005 18/18 A2997 580 100 1100 000/00 RMK AO2
14840KMKG MKG20000625214510806/25/00 21:45:31  5-MIN KMKG 260245Z 15003KT 1/2SM FG BKN001 OVC005 18/18 A2997 580 100 1100 150/03 RMK AO2
14840KMKG MKG20000625215013106/25/00 21:50:31  5-MIN KMKG 260250Z 00000KT 1/4SM FG BKN001 OVC005 17/17 A2997 580 100 1000 000/00 RMK AO2 SLP148 T01720172 55005
14840KMKG MKG20000625215513106/25/00 21:55:31  5-MIN KMKG 260255Z 00000KT 1/4SM FG BKN001 OVC005 17/17 A2997 580 100 1000 000/00 RMK AO2 SLP148 T01720172 53001
14840KMKG MKG20000625220010806/25/00 22:00:31  5-MIN KMKG 260300Z 00000KT 1/2SM FG BKN001 OVC026 17/17 A2997 580 100 1000 000/00 RMK AO2
14840KMKG MKG20000625220510006/25/00 22:05:31  5-MIN KMKG 260305Z 00000KT 1/2SM FG VV001 17/17 A2997 580 100 1000 000/00 RMK AO2
14840KMKG MKG20000625221010006/25/00 22:10:31  5-MIN KMKG 260310Z 00000KT 3/4SM BR VV001 17/17 A2997 580 100 1000 000/00 RMK AO2
14840KMKG MKG20000625221511406/25/00 22:15:31  5-MIN KMKG 260315Z 00000KT 1SM BR BKN001 17/17 A2997 590 100 1000 000/00 RMK AO2 VIS 1/4 RWY 14
14840KMKG MKG20000625222011806/25/00 22:20:31  5-MIN KMKG 260320Z 00000KT 1 1/4SM BR BKN001 17/17 A2997 590 100 1000 000/00 RMK AO2 VIS 1/2 RWY 14
14840KMKG MKG20000625222511606/25/00 22:25:31  5-MIN KMKG 260325Z 00000KT 1 3/4SM BR FEW001 17/17 A2997 580 100 1000 000/00 RMK AO2 VIS 1 RWY 14
14840KMKG MKG20000625223010306/25/00 22:30:31  5-MIN KMKG 260330Z 00000KT 1 1/4SM BR FEW001 17/17 A2997 580 100 1000 000/00 RMK AO2
14840KMKG MKG20000625223509806/25/00 22:35:31  5-MIN KMKG 260335Z 00000KT 1SM BR VV001 17/17 A2997 580 100 1000 000/00 RMK AO2
14840KMKG MKG20000625224010006/25/00 22:40:31  5-MIN KMKG 260340Z 00000KT 1 1/2SM BR CLR 17/17 A2997 590 100 1000 000/00 RMK AO2
14840KMKG MKG20000625224510006/25/00 22:45:31  5-MIN KMKG 260345Z 00000KT 2 1/2SM BR CLR 17/17 A2997 590 100 1000 000/00 RMK AO2
14840KMKG MKG20000625225012606/25/00 22:50:31  5-MIN KMKG 260350Z 00000KT 3SM BR CLR 17/17 A2997 590 100 1000 000/00 RMK AO2 VIS 2 RWY 14 SLP145 T01720172
14840KMKG MKG20000625225512606/25/00 22:55:31  5-MIN KMKG 260355Z 00000KT 3SM BR CLR 18/18 A2997 590 100 1100 000/00 RMK AO2 VIS 2 RWY 14 SLP145 T01780178
14840KMKG MKG20000625230010906/25/00 23:00:31  5-MIN KMKG 260400Z 00000KT 3SM BR CLR 18/18 A2997 590 100 1100 000/00 RMK AO2 VIS 2 RWY 14
14840KMKG MKG20000625230510906/25/00 23:05:31  5-MIN KMKG 260405Z 00000KT 3SM BR CLR 18/18 A2996 590 100 1100 000/00 RMK AO2 VIS 2 RWY 14
14840KMKG MKG20000625231010906/25/00 23:10:31  5-MIN KMKG 260410Z 00000KT 3SM BR CLR 18/18 A2996 590 100 1100 000/00 RMK AO2 VIS 2 RWY 14
14840KMKG MKG20000625231510906/25/00 23:15:31  5-MIN KMKG 260415Z 00000KT 3SM BR CLR 17/17 A2996 590 100 1000 000/00 RMK AO2 VIS 2 RWY 14
14840KMKG MKG20000625232011306/25/00 23:20:31  5-MIN KMKG 260420Z 00000KT 3SM BR CLR 18/18 A2996 590 100 1100 000/00 RMK AO2 VIS 1 3/4 RWY 14
14840KMKG MKG20000625232511306/25/00 23:25:31  5-MIN KMKG 260425Z 00000KT 3SM BR CLR 18/18 A2996 590 100 1100 000/00 RMK AO2 VIS 1 3/4 RWY 14
14840KMKG MKG20000625233010906/25/00 23:30:31  5-MIN KMKG 260430Z 00000KT 3SM BR CLR 17/17 A2996 590 100 1000 000/00 RMK AO2 VIS 2 RWY 14
14840KMKG MKG20000625233510906/25/00 23:35:31  5-MIN KMKG 260435Z 13003KT 3SM BR CLR 17/17 A2996 590 100 1000 130/03 RMK AO2 VIS 2 RWY 14
14840KMKG MKG20000625234011606/25/00 23:40:31  5-MIN KMKG 260440Z 13004KT 3SM BR FEW085 17/17 A2995 600 100 1000 130/04 RMK AO2 VIS 2 1/2 RWY 14
14840KMKG MKG20000625234509906/25/00 23:45:31  5-MIN KMKG 260445Z 12004KT 3SM BR FEW080 17/17 A2995 600 100 1000 130/04 RMK AO2
14840KMKG MKG20000625235012606/25/00 23:50:31  5-MIN KMKG 260450Z 13005KT 3SM BR FEW080 17/17 A2995 610 100 1000 130/05 RMK AO2 SLP138 T01720172 402280167
14840KMKG MKG20000625235512606/25/00 23:55:31  5-MIN KMKG 260455Z 13004KT 3SM BR FEW080 17/17 A2995 600 100 1000 140/04 RMK AO2 SLP139 T01720172 402280167
14840KMKG MKG20000626000009906/26/00 00:00:31  5-MIN KMKG 260500Z 00000KT 4SM BR FEW080 17/17 A2995 610 100 1000 000/00 RMK AO2
14840KMKG MKG20000626000509906/26/00 00:05:31  5-MIN KMKG 260505Z 00000KT 4SM BR FEW080 17/17 A2995 600 100 1000 000/00 RMK AO2
14840KMKG MKG20000626001009906/26/00 00:10:31  5-MIN KMKG 260510Z 00000KT 4SM BR FEW080 17/17 A2995 610 100 1000 000/00 RMK AO2
14840KMKG MKG20000626001509506/26/00 00:15:31  5-MIN KMKG 260515Z 00000KT 4SM BR CLR 18/17 A2994 610 96 1100 000/00 RMK AO2
14840KMKG MKG20000626002009506/26/00 00:20:31  5-MIN KMKG 260520Z 12003KT 5SM BR CLR 18/17 A2994 610 96 1100 120/03 RMK AO2
14840KMKG MKG20000626002509606/26/00 00:25:31  5-MIN KMKG 260525Z 10003KT 5SM BR CLR 17/17 A2994 610 100 1100 100/03 RMK AO2
14840KMKG MKG20000626003009606/26/00 00:30:31  5-MIN KMKG 260530Z 00000KT 4SM BR CLR 17/17 A2993 620 100 1100 000/00 RMK AO2
14840KMKG MKG20000626003509506/26/00 00:35:31  5-MIN KMKG 260535Z 00000KT 5SM BR CLR 18/17 A2993 620 96 1100 000/00 RMK AO2
14840KMKG MKG20000626004009506/26/00 00:40:31  5-MIN KMKG 260540Z 00000KT 5SM BR CLR 18/17 A2993 620 96 1100 000/00 RMK AO2
14840KMKG MKG20000626004509506/26/00 00:45:31  5-MIN KMKG 260545Z 00000KT 5SM BR CLR 18/17 A2993 620 96 1100 000/00 RMK AO2
14840KMKG MKG20000626005013006/26/00 00:50:31  5-MIN KMKG 260550Z 00000KT 5SM BR CLR 18/17 A2992 630 96 1100 000/00 RMK AO2 SLP130 T01780172 10194 20167 53001
14840KMKG MKG20000626005513006/26/00 00:55:31  5-MIN KMKG 260555Z 00000KT 5SM BR CLR 18/17 A2992 630 96 1100 000/00 RMK AO2 SLP130 T01780172 10194 20167 58017
14840KMKG MKG20000626010009506/26/00 01:00:31  5-MIN KMKG 260600Z 00000KT 5SM BR CLR 18/17 A2992 630 96 1100 000/00 RMK AO2
14840KMKG MKG20000626010509506/26/00 01:05:31  5-MIN KMKG 260605Z 00000KT 5SM BR CLR 18/17 A2992 630 96 1100 000/00 RMK AO2
14840KMKG MKG20000626011009606/26/00 01:10:31  5-MIN KMKG 260610Z 00000KT 5SM BR CLR 17/17 A2992 630 100 1100 000/00 RMK AO2
14840KMKG MKG20000626011509606/26/00 01:15:31  5-MIN KMKG 260615Z 00000KT 5SM BR CLR 17/17 A2992 630 100 1100 000/00 RMK AO2
14840KMKG MKG20000626012009606/26/00 01:20:31  5-MIN KMKG 260620Z 12003KT 4SM BR CLR 17/17 A2992 640 100 1100 130/03 RMK AO2
14840KMKG MKG20000626012509506/26/00 01:25:31  5-MIN KMKG 260625Z 14003KT 4SM BR CLR 17/17 A2991 640 96 1100 140/03 RMK AO2
14840KMKG MKG20000626013009606/26/00 01:30:31  5-MIN KMKG 260630Z 13004KT 4SM BR CLR 17/17 A2991 640 100 1000 130/04 RMK AO2
14840KMKG MKG20000626013509606/26/00 01:35:31  5-MIN KMKG 260635Z 13005KT 4SM BR CLR 17/17 A2991 640 100 1100 130/05 RMK AO2
14840KMKG MKG20000626014009506/26/00 01:40:31  5-MIN KMKG 260640Z 13005KT 4SM BR CLR 17/17 A2990 640 96 1100 130/05 RMK AO2
14840KMKG MKG20000626014509506/26/00 01:45:31  5-MIN KMKG 260645Z 13004KT 4SM BR CLR 17/17 A2990 650 96 1100 140/04 RMK AO2
14840KMKG MKG20000626015011306/26/00 01:50:31  5-MIN KMKG 260650Z 13005KT 4SM BR CLR 17/17 A2990 650 100 1100 130/05 RMK AO2 SLP122 T01720172
14840KMKG MKG20000626015511306/26/00 01:55:31  5-MIN KMKG 260655Z 13005KT 4SM BR CLR 17/17 A2990 650 100 1100 130/05 RMK AO2 SLP122 T01720172
14840KMKG MKG20000626020009606/26/00 02:00:31  5-MIN KMKG 260700Z 12005KT 4SM BR CLR 17/17 A2989 650 100 1100 130/05 RMK AO2
14840KMKG MKG20000626020509606/26/00 02:05:31  5-MIN KMKG 260705Z 12004KT 4SM BR CLR 17/17 A2989 660 100 1100 120/04 RMK AO2
14840KMKG MKG20000626021009606/26/00 02:10:31  5-MIN KMKG 260710Z 12003KT 4SM BR CLR 17/17 A2989 650 100 1100 120/03 RMK AO2
14840KMKG MKG20000626021509606/26/00 02:15:31  5-MIN KMKG 260715Z 11003KT 4SM BR CLR 17/17 A2989 650 100 1100 110/03 RMK AO2
14840KMKG MKG20000626022009506/26/00 02:20:31  5-MIN KMKG 260720Z 00000KT 4SM BR CLR 18/17 A2989 660 96 1200 000/00 RMK AO2
14840KMKG MKG20000626022509606/26/00 02:25:31  5-MIN KMKG 260725Z 00000KT 4SM BR CLR 17/17 A2989 660 100 1100 000/00 RMK AO2
14840KMKG MKG20000626023009606/26/00 02:30:31  5-MIN KMKG 260730Z 00000KT 5SM BR CLR 17/17 A2989 660 100 1100 000/00 RMK AO2
14840KMKG MKG20000626023509506/26/00 02:35:31  5-MIN KMKG 260735Z 00000KT 4SM BR CLR 17/17 A2989 660 96 1100 000/00 RMK AO2
14840KMKG MKG20000626024009606/26/00 02:40:31  5-MIN KMKG 260740Z 16003KT 4SM BR CLR 17/17 A2990 650 100 1100 160/03 RMK AO2
14840KMKG MKG20000626024509606/26/00 02:45:31  5-MIN KMKG 260745Z 00000KT 4SM BR CLR 17/17 A2990 650 100 1100 000/00 RMK AO2
14840KMKG MKG20000626025011306/26/00 02:50:31  5-MIN KMKG 260750Z 00000KT 4SM BR CLR 17/17 A2990 650 100 1100 000/00 RMK AO2 SLP123 T01720172
14840KMKG MKG20000626025511306/26/00 02:55:31  5-MIN KMKG 260755Z 00000KT 4SM BR CLR 17/17 A2989 660 100 1100 000/00 RMK AO2 SLP121 T01720172
14840KMKG MKG20000626030009606/26/00 03:00:31  5-MIN KMKG 260800Z 12003KT 4SM BR CLR 17/17 A2989 660 100 1100 120/03 RMK AO2
14840KMKG MKG20000626030509606/26/00 03:05:31  5-MIN KMKG 260805Z 12003KT 4SM BR CLR 17/17 A2989 660 100 1100 120/03 RMK AO2
14840KMKG MKG20000626031009606/26/00 03:10:31  5-MIN KMKG 260810Z 12003KT 4SM BR CLR 17/17 A2989 660 100 1100 120/03 RMK AO2
14840KMKG MKG20000626031509606/26/00 03:15:31  5-MIN KMKG 260815Z 11003KT 4SM BR CLR 17/17 A2989 660 100 1100 120/03 RMK AO2
14840KMKG MKG20000626032009606/26/00 03:20:31  5-MIN KMKG 260820Z 13003KT 3SM BR CLR 17/17 A2989 660 100 1100 130/03 RMK AO2
14840KMKG MKG20000626032509506/26/00 03:25:31  5-MIN KMKG 260825Z 15003KT 3SM BR CLR 17/17 A2989 660 96 1100 150/03 RMK AO2
14840KMKG MKG20000626033009506/26/00 03:30:31  5-MIN KMKG 260830Z 15005KT 4SM BR CLR 17/17 A2989 660 96 1100 150/05 RMK AO2
14840KMKG MKG20000626033509506/26/00 03:35:31  5-MIN KMKG 260835Z 15007KT 4SM BR CLR 18/18 A2988 660 96 1200 150/07 RMK AO2
14840KMKG MKG20000626034011206/26/00 03:40:31  5-MIN KMKG 260840Z 15007KT 5SM BR CLR 18/18 A2988 660 96 1200 150/07 RMK AO2 VIS 2 1/2 RWY 14
14840KMKG MKG20000626034511206/26/00 03:45:31  5-MIN KMKG 260845Z 15007KT 5SM BR CLR 18/18 A2988 660 96 1200 150/07 RMK AO2 VIS 2 1/2 RWY 14
14840KMKG MKG20000626035011806/26/00 03:50:31  5-MIN KMKG 260850Z 15006KT 5SM BR CLR 18/18 A2989 660 96 1200 150/06 RMK AO2 SLP118 T01830178 58017
14840KMKG MKG20000626035511806/26/00 03:55:31  5-MIN KMKG 260855Z 16005KT 5SM BR CLR 18/18 A2989 660 96 1200 160/05 RMK AO2 SLP118 T01830178 56011
14840KMKG MKG20000626040009506/26/00 04:00:31  5-MIN KMKG 260900Z 17004KT 5SM BR CLR 18/18 A2989 660 96 1200 170/04 RMK AO2
14840KMKG MKG20000626040511106/26/00 04:05:31  5-MIN KMKG 260905Z 16003KT 6SM -RA BR CLR 18/18 A2989 660 96 1200 160/03 RMK AO2 RAB01 P0000
14840KMKG MKG20000626041011006/26/00 04:10:31  5-MIN KMKG 260910Z 00000KT 6SM BR CLR 18/18 A2989 660 96 1200 000/00 RMK AO2 RAB01E08 P0000
14840KMKG MKG20000626041511006/26/00 04:15:31  5-MIN KMKG 260915Z 00000KT 5SM BR CLR 18/17 A2989 660 96 1200 000/00 RMK AO2 RAB01E08 P0000
14840KMKG MKG20000626042011306/26/00 04:20:31  5-MIN KMKG 260920Z 00000KT 4SM BR SCT110 18/17 A2989 660 96 1200 000/00 RMK AO2 RAB01E08 P0000
14840KMKG MKG20000626042511306/26/00 04:25:31  5-MIN KMKG 260925Z 00000KT 4SM BR BKN110 18/17 A2989 650 96 1200 000/00 RMK AO2 RAB01E08 P0000
14840KMKG MKG20000626043011306/26/00 04:30:31  5-MIN KMKG 260930Z 00000KT 5SM BR BKN110 18/18 A2990 650 96 1200 000/00 RMK AO2 RAB01E08 P0000
14840KMKG MKG20000626043511306/26/00 04:35:31  5-MIN KMKG 260935Z 00000KT 5SM BR BKN110 18/18 A2989 650 96 1200 000/00 RMK AO2 RAB01E08 P0000
14840KMKG MKG20000626044011306/26/00 04:40:31  5-MIN KMKG 260940Z 13003KT 5SM BR OVC110 18/18 A2989 660 96 1200 140/03 RMK AO2 RAB01E08 P0000
14840KMKG MKG20000626044511306/26/00 04:45:31  5-MIN KMKG 260945Z 14003KT 5SM BR OVC110 18/18 A2989 660 96 1200 140/03 RMK AO2 RAB01E08 P0000
14840KMKG MKG20000626045013006/26/00 04:50:31  5-MIN KMKG 260950Z 17004KT 5SM BR OVC110 18/18 A2989 660 96 1200 170/04 RMK AO2 RAB01E08 SLP120 P0000 T01830178
14840KMKG MKG20000626045513006/26/00 04:55:31  5-MIN KMKG 260955Z 17005KT 6SM BR OVC120 19/18 A2989 660 97 1300 180/05 RMK AO2 RAB01E08 SLP120 P0000 T01890183
14840KMKG MKG20000626050009506/26/00 05:00:31  5-MIN KMKG 261000Z 18006KT 7SM OVC120 19/18 A2990 650 93 1400 180/06 RMK AO2
14840KMKG MKG20000626050509506/26/00 05:05:31  5-MIN KMKG 261005Z 18005KT 7SM OVC120 19/18 A2990 650 93 1400 190/05 RMK AO2
14840KMKG MKG20000626051009506/26/00 05:10:31  5-MIN KMKG 261010Z 18006KT 8SM OVC120 19/18 A2990 650 93 1400 190/06 RMK AO2
14840KMKG MKG20000626051509506/26/00 05:15:31  5-MIN KMKG 261015Z 18008KT 9SM OVC120 20/18 A2990 650 90 1400 190/08 RMK AO2
14840KMKG MKG20000626052009606/26/00 05:20:31  5-MIN KMKG 261020Z 18009KT 10SM OVC120 21/18 A2990 650 87 1500 190/09 RMK AO2
14840KMKG MKG20000626052509606/26/00 05:25:31  5-MIN KMKG 261025Z 19011KT 10SM BKN120 21/18 A2990 650 87 1500 190/11 RMK AO2
14840KMKG MKG20000626053010206/26/00 05:30:31  5-MIN KMKG 261030Z 19010G20KT 10SM SCT120 21/19 A2990 650 87 1600 200/10G20 RMK AO2
14840KMKG MKG20000626053510206/26/00 05:35:31  5-MIN KMKG 261035Z 19011G20KT 10SM SCT120 21/19 A2990 650 87 1500 200/11G20 RMK AO2
14840KMKG MKG20000626054009606/26/00 05:40:31  5-MIN KMKG 261040Z 19011KT 10SM BKN110 21/19 A2990 650 87 1500 200/11 RMK AO2
14840KMKG MKG20000626054509606/26/00 05:45:31  5-MIN KMKG 261045Z 19010KT 10SM BKN110 21/19 A2990 650 87 1500 200/10 RMK AO2
14840KMKG MKG20000626055012006/26/00 05:50:31  5-MIN KMKG 261050Z 19012KT 10SM FEW046 BKN120 21/19 A2990 650 87 1500 190/12 RMK AO2 SLP124 T02110189
14840KMKG MKG20000626055512006/26/00 05:55:31  5-MIN KMKG 261055Z 19010KT 10SM FEW046 OVC120 21/19 A2990 650 87 1500 190/10 RMK AO2 SLP123 T02110189
14840KMKG MKG20000626060010306/26/00 06:00:31  5-MIN KMKG 261100Z 19011KT 10SM FEW046 OVC120 21/19 A2990 650 87 1600 190/11 RMK AO2
14840KMKG MKG20000626060510306/26/00 06:05:31  5-MIN KMKG 261105Z 19012KT 10SM FEW046 OVC120 21/19 A2990 650 87 1600 190/12 RMK AO2
14840KMKG MKG20000626061010306/26/00 06:10:31  5-MIN KMKG 261110Z 19011KT 10SM FEW046 OVC120 21/19 A2990 650 87 1600 190/11 RMK AO2
14840KMKG MKG20000626061510306/26/00 06:15:31  5-MIN KMKG 261115Z 19013KT 10SM FEW046 OVC120 21/19 A2990 650 87 1600 190/13 RMK AO2
14840KMKG MKG20000626062009606/26/00 06:20:31  5-MIN KMKG 261120Z 19012KT 10SM OVC110 21/19 A2989 650 87 1600 190/12 RMK AO2
14840KMKG MKG20000626062509606/26/00 06:25:31  5-MIN KMKG 261125Z 19012KT 10SM OVC110 21/19 A2989 650 87 1600 190/12 RMK AO2
14840KMKG MKG20000626063009606/26/00 06:30:31  5-MIN KMKG 261130Z 18013KT 10SM OVC110 21/19 A2989 660 87 1600 190/13 RMK AO2
14840KMKG MKG20000626063509606/26/00 06:35:31  5-MIN KMKG 261135Z 19013KT 10SM OVC110 21/19 A2989 660 87 1600 200/13 RMK AO2
14840KMKG MKG20000626064009606/26/00 06:40:31  5-MIN KMKG 261140Z 19012KT 10SM BKN110 21/19 A2989 660 87 1600 190/12 RMK AO2
14840KMKG MKG20000626064509606/26/00 06:45:31  5-MIN KMKG 261145Z 19012KT 10SM BKN110 22/19 A2989 660 84 1600 190/12 RMK AO2
14840KMKG MKG20000626065013706/26/00 06:50:31  5-MIN KMKG 261150Z 19012KT 10SM BKN110 22/19 A2988 660 84 1600 190/12 RMK AO2 SLP117 60000 T02170189 10217 20167 56011
14840KMKG MKG20000626065513706/26/00 06:55:31  5-MIN KMKG 261155Z 19010KT 10SM BKN110 22/19 A2988 660 84 1600 200/10 RMK AO2 SLP117 60000 T02170189 10217 20167 58002
14840KMKG MKG20000626070009606/26/00 07:00:31  5-MIN KMKG 261200Z 19010KT 10SM BKN110 22/19 A2988 660 84 1600 200/10 RMK AO2
14840KMKG MKG20000626070509606/26/00 07:05:31  5-MIN KMKG 261205Z 19010KT 10SM BKN110 22/19 A2988 670 84 1600 190/10 RMK AO2
14840KMKG MKG20000626071009606/26/00 07:10:31  5-MIN KMKG 261210Z 19011KT 10SM BKN110 22/19 A2987 670 84 1600 190/11 RMK AO2
14840KMKG MKG20000626071509606/26/00 07:15:31  5-MIN KMKG 261215Z 19010KT 10SM BKN110 22/19 A2987 680 84 1600 190/10 RMK AO2
14840KMKG MKG20000626072009606/26/00 07:20:31  5-MIN KMKG 261220Z 19010KT 10SM BKN110 22/19 A2987 680 84 1600 190/10 RMK AO2
14840KMKG MKG20000626072509606/26/00 07:25:31  5-MIN KMKG 261225Z 19010KT 10SM BKN110 22/19 A2987 680 84 1700 190/10 RMK AO2
14840KMKG MKG20000626073009606/26/00 07:30:31  5-MIN KMKG 261230Z 19010KT 10SM BKN110 22/19 A2987 680 84 1700 200/10 RMK AO2
14840KMKG MKG20000626073509606/26/00 07:35:31  5-MIN KMKG 261235Z 19009KT 10SM BKN110 22/19 A2987 680 84 1700 200/09 RMK AO2
14840KMKG MKG20000626074009606/26/00 07:40:31  5-MIN KMKG 261240Z 19010KT 10SM BKN110 23/19 A2987 680 81 1800 200/10 RMK AO2
14840KMKG MKG20000626074509306/26/00 07:45:31  5-MIN KMKG 261245Z 20011KT 10SM CLR 23/19 A2986 680 81 1800 200/11 RMK AO2
14840KMKG MKG20000626075011006/26/00 07:50:31  5-MIN KMKG 261250Z 20011KT 10SM CLR 23/19 A2986 680 81 1800 200/11 RMK AO2 SLP110 T02280194
14840KMKG MKG20000626075511006/26/00 07:55:31  5-MIN KMKG 261255Z 20010KT 10SM CLR 23/19 A2987 680 78 1800 200/10 RMK AO2 SLP111 T02330194
14840KMKG MKG20000626080009306/26/00 08:00:31  5-MIN KMKG 261300Z 21011KT 10SM CLR 23/19 A2987 680 78 1800 210/11 RMK AO2
14840KMKG MKG20000626080509306/26/00 08:05:31  5-MIN KMKG 261305Z 20012KT 10SM CLR 24/19 A2987 680 76 1900 210/12 RMK AO2
14840KMKG MKG20000626081009606/26/00 08:10:31  5-MIN KMKG 261310Z 20011KT 10SM FEW033 24/19 A2987 680 76 1900 200/11 RMK AO2
14840KMKG MKG20000626081509606/26/00 08:15:31  5-MIN KMKG 261315Z 20011KT 10SM FEW033 24/19 A2986 680 76 1900 210/11 RMK AO2
14840KMKG MKG20000626082009606/26/00 08:20:31  5-MIN KMKG 261320Z 19011KT 10SM FEW033 24/20 A2986 690 78 1900 200/11 RMK AO2
14840KMKG MKG20000626082509606/26/00 08:25:31  5-MIN KMKG 261325Z 19012KT 10SM FEW033 24/19 A2986 690 76 1900 200/12 RMK AO2
14840KMKG MKG20000626083009606/26/00 08:30:31  5-MIN KMKG 261330Z 19010KT 10SM FEW033 24/20 A2986 690 78 1900 200/10 RMK AO2
14840KMKG MKG20000626083509306/26/00 08:35:31  5-MIN KMKG 261335Z 19012KT 10SM CLR 24/20 A2986 680 78 1900 190/12 RMK AO2
14840KMKG MKG20000626084009306/26/00 08:40:31  5-MIN KMKG 261340Z 20015KT 10SM CLR 24/20 A2986 680 78 1900 200/15 RMK AO2
14840KMKG MKG20000626084509606/26/00 08:45:31  5-MIN KMKG 261345Z 20013KT 10SM SCT039 24/20 A2986 680 76 2000 200/13 RMK AO2
14840KMKG MKG20000626085011306/26/00 08:50:31  5-MIN KMKG 261350Z 19011KT 10SM SCT039 24/19 A2986 690 76 1900 200/11 RMK AO2 SLP109 T02390194
14840KMKG MKG20000626085511306/26/00 08:55:31  5-MIN KMKG 261355Z 19011KT 10SM SCT037 24/20 A2986 690 76 2000 200/11 RMK AO2 SLP109 T02440200
14840KMKG MKG20000626090009606/26/00 09:00:31  5-MIN KMKG 261400Z 19014KT 10SM SCT039 24/20 A2986 690 76 2000 200/14 RMK AO2
14840KMKG MKG20000626090509606/26/00 09:05:31  5-MIN KMKG 261405Z 20014KT 10SM SCT039 24/20 A2986 690 76 2000 200/14 RMK AO2
14840KMKG MKG20000626091009606/26/00 09:10:31  5-MIN KMKG 261410Z 20013KT 10SM SCT039 24/20 A2986 690 78 1900 210/13 RMK AO2
14840KMKG MKG20000626091509606/26/00 09:15:31  5-MIN KMKG 261415Z 20013KT 10SM SCT039 24/20 A2985 690 76 2000 200/13 RMK AO2
14840KMKG MKG20000626092009606/26/00 09:20:31  5-MIN KMKG 261420Z 20011KT 10SM FEW041 24/20 A2985 700 76 2000 200/11 RMK AO2
14840KMKG MKG20000626092509606/26/00 09:25:31  5-MIN KMKG 261425Z 19014KT 10SM FEW041 24/19 A2985 700 73 2000 200/14 RMK AO2
14840KMKG MKG20000626093009606/26/00 09:30:31  5-MIN KMKG 261430Z 19012KT 10SM FEW041 24/20 A2985 700 76 2000 200/12 RMK AO2
14840KMKG MKG20000626093509606/26/00 09:35:31  5-MIN KMKG 261435Z 20015KT 10SM FEW041 24/19 A2985 700 73 2000 200/15 RMK AO2
14840KMKG MKG20000626094009606/26/00 09:40:31  5-MIN KMKG 261440Z 20012KT 10SM FEW039 25/20 A2985 700 73 2100 200/12 RMK AO2
14840KMKG MKG20000626094510306/26/00 09:45:31  5-MIN KMKG 261445Z 19011KT 10SM SCT039 SCT095 24/20 A2985 700 76 2000 200/11 RMK AO2
14840KMKG MKG20000626095012606/26/00 09:50:31  5-MIN KMKG 261450Z 20013KT 10SM BKN039 BKN095 25/20 A2984 700 73 2100 200/13 RMK AO2 SLP103 T02500200 58002
14840KMKG MKG20000626095512506/26/00 09:55:31  5-MIN KMKG 261455Z 19015G20KT 10SM SCT039 25/20 A2984 700 73 2100 200/15G20 RMK AO2 SLP102 T02500200 58014
14840KMKG MKG20000626100010206/26/00 10:00:31  5-MIN KMKG 261500Z 19011G20KT 10SM SCT039 24/19 A2984 710 73 2000 190/11G20 RMK AO2
14840KMKG MKG20000626100510206/26/00 10:05:31  5-MIN KMKG 261505Z 19011G20KT 10SM SCT039 24/19 A2984 710 76 1900 200/11G20 RMK AO2
14840KMKG MKG20000626101009606/26/00 10:10:31  5-MIN KMKG 261510Z 20013KT 10SM FEW039 24/19 A2983 710 76 1900 200/13 RMK AO2
14840KMKG MKG20000626101509606/26/00 10:15:31  5-MIN KMKG 261515Z 19014KT 10SM FEW041 24/19 A2983 710 76 1900 200/14 RMK AO2
14840KMKG MKG20000626102009606/26/00 10:20:31  5-MIN KMKG 261520Z 19012KT 10SM FEW039 24/19 A2983 710 76 1900 190/12 RMK AO2
14840KMKG MKG20000626102509606/26/00 10:25:31  5-MIN KMKG 261525Z 20012KT 10SM SCT039 24/19 A2983 710 76 1900 200/12 RMK AO2
14840KMKG MKG20000626103009606/26/00 10:30:31  5-MIN KMKG 261530Z 19013KT 10SM BKN037 24/19 A2983 710 76 1900 200/13 RMK AO2
14840KMKG MKG20000626103509606/26/00 10:35:31  5-MIN KMKG 261535Z 20013KT 10SM BKN037 24/19 A2983 710 76 1900 200/13 RMK AO2
14840KMKG MKG20000626104009606/26/00 10:40:31  5-MIN KMKG 261540Z 20014KT 10SM BKN037 24/19 A2984 710 76 1900 210/14 RMK AO2
14840KMKG MKG20000626104510306/26/00 10:45:31  5-MIN KMKG 261545Z 20012KT 10SM BKN039 OVC047 23/19 A2984 710 78 1900 200/12 RMK AO2
14840KMKG MKG20000626105012006/26/00 10:50:31  5-MIN KMKG 261550Z 20014KT 10SM BKN039 OVC047 23/19 A2984 710 76 1900 210/14 RMK AO2 SLP102 T02330189
14840KMKG MKG20000626105511306/26/00 10:55:31  5-MIN KMKG 261555Z 20012KT 10SM BKN039 23/19 A2984 700 78 1900 210/12 RMK AO2 SLP102 T02330194
14840KMKG MKG20000626110010306/26/00 11:00:31  5-MIN KMKG 261600Z 20012KT 10SM BKN037 BKN047 23/19 A2984 710 78 1900 210/12 RMK AO2
14840KMKG MKG20000626110510906/26/00 11:05:31  5-MIN KMKG 261605Z 20014G19KT 10SM BKN041 BKN049 23/19 A2984 710 78 1900 200/14G19 RMK AO2
14840KMKG MKG20000626111012506/26/00 11:10:31  5-MIN KMKG 261610Z 20013KT 10SM SCT038 BKN046 BKN095 23/19 A2984 710 78 1900 210/13 RMK AO2 CIG 038 RWY 14
14840KMKG MKG20000626111511006/26/00 11:15:31  5-MIN KMKG 261615Z 20013KT 10SM FEW033 SCT047 BKN090 23/19 A2984 710 81 1800 200/13 RMK AO2
14840KMKG MKG20000626112011606/26/00 11:20:31  5-MIN KMKG 261620Z 20015G20KT 10SM FEW033 SCT047 BKN090 23/19 A2984 710 81 1800 210/15G20 RMK AO2
14840KMKG MKG20000626112511606/26/00 11:25:31  5-MIN KMKG 261625Z 20014G20KT 10SM FEW040 BKN060 OVC090 23/19 A2984 710 81 1800 200/14G20 RMK AO2
14840KMKG MKG20000626113012606/26/00 11:30:31  5-MIN KMKG 261630Z 19012KT 10SM -RA FEW040 SCT049 BKN060 23/19 A2983 710 81 1800 190/12 RMK AO2 RAB26 P0000
14840KMKG MKG20000626113514106/26/00 11:35:31  5-MIN KMKG 261635Z 19013KT 10SM -RA FEW040 SCT055 BKN095 23/19 A2984 710 81 1800 200/13 RMK AO2 RAB26 CIG 060 RWY 14 P0000
14840KMKG MKG20000626114014006/26/00 11:40:31  5-MIN KMKG 261640Z 20011KT 10SM FEW037 SCT060 BKN090 23/20 A2984 710 81 1900 200/11 RMK AO2 RAB26E39 CIG 060 RWY 14 P0000
14840KMKG MKG20000626114513306/26/00 11:45:31  5-MIN KMKG 261645Z 20013KT 10SM SCT037 BKN055 23/19 A2984 710 81 1800 210/13 RMK AO2 RAB26E39 CIG 039 RWY 14 P0000
14840KMKG MKG20000626115013506/26/00 11:50:31  5-MIN KMKG 261650Z 20013KT 10SM BKN037 BKN055 23/19 A2984 710 78 1900 200/13 RMK AO2 RAB26E39 SLP101 P0000 T02330194
14840KMKG MKG20000626115514206/26/00 11:55:31  5-MIN KMKG 261655Z 21016KT 10SM BKN033 BKN040 BKN055 23/19 A2984 710 78 1900 210/16 RMK AO2 RAB26E39 SLP101 P0000 T02330194
14840KMKG MKG20000626120009606/26/00 12:00:31  5-MIN KMKG 261700Z 21013KT 10SM BKN030 23/19 A2984 710 81 1800 210/13 RMK AO2
14840KMKG MKG20000626120510306/26/00 12:05:31  5-MIN KMKG 261705Z 20014KT 10SM BKN030 BKN035 23/19 A2984 710 81 1800 200/14 RMK AO2
14840KMKG MKG20000626121011006/26/00 12:10:31  5-MIN KMKG 261710Z 22013KT 10SM SCT025 BKN030 OVC035 22/19 A2984 700 84 1700 220/13 RMK AO2
14840KMKG MKG20000626121510306/26/00 12:15:31  5-MIN KMKG 261715Z 21012KT 10SM BKN025 OVC032 22/19 A2984 700 84 1700 210/12 RMK AO2
14840KMKG MKG20000626122011906/26/00 12:20:31  5-MIN KMKG 261720Z 21015KT 10SM -RA BKN025 OVC030 22/19 A2985 700 84 1700 210/15 RMK AO2 RAB20 P0000
14840KMKG MKG20000626122511906/26/00 12:25:31  5-MIN KMKG 261725Z 21013KT 10SM -RA BKN025 OVC044 22/19 A2984 700 84 1700 220/13 RMK AO2 RAB20 P0000
14840KMKG MKG20000626123011906/26/00 12:30:31  5-MIN KMKG 261730Z 21013KT 10SM -RA BKN025 OVC044 21/19 A2985 700 87 1600 220/13 RMK AO2 RAB20 P0000
14840KMKG MKG20000626123511806/26/00 12:35:31  5-MIN KMKG 261735Z 22014KT 10SM SCT025 OVC046 21/19 A2985 700 87 1600 220/14 RMK AO2 RAB20E35 P0000
14840KMKG MKG20000626124011806/26/00 12:40:31  5-MIN KMKG 261740Z 22012KT 10SM FEW025 OVC046 22/19 A2985 690 84 1700 230/12 RMK AO2 RAB20E35 P0000
14840KMKG MKG20000626124512506/26/00 12:45:31  5-MIN KMKG 261745Z 21012KT 10SM FEW025 BKN048 OVC075 22/19 A2985 700 81 1700 210/12 RMK AO2 RAB20E35 P0000
14840KMKG MKG20000626125015906/26/00 12:50:31  5-MIN KMKG 261750Z 21013KT 10SM BKN048 BKN075 23/19 A2985 700 81 1800 210/13 RMK AO2 RAB20E35 SLP105 P0000 60000 T02280194 10250 20211 58014
14840KMKG MKG20000626125516606/26/00 12:55:31  5-MIN KMKG 261755Z 22015KT 10SM BKN048 BKN055 BKN075 23/19 A2985 700 81 1800 220/15 RMK AO2 RAB20E35 SLP106 P0000 60000 T02280194 10250 20211 53003
14840KMKG MKG20000626130010306/26/00 13:00:31  5-MIN KMKG 261800Z 22016KT 10SM BKN050 OVC075 22/19 A2985 700 84 1700 220/16 RMK AO2
14840KMKG MKG20000626130510306/26/00 13:05:31  5-MIN KMKG 261805Z 22014KT 10SM BKN050 OVC075 22/19 A2985 700 84 1700 220/14 RMK AO2
14840KMKG MKG20000626131010306/26/00 13:10:31  5-MIN KMKG 261810Z 23013KT 10SM BKN055 BKN080 22/19 A2985 700 81 1700 240/13 RMK AO2
14840KMKG MKG20000626131511006/26/00 13:15:31  5-MIN KMKG 261815Z 23013KT 10SM FEW027 SCT049 BKN055 22/19 A2985 700 81 1700 240/13 RMK AO2
14840KMKG MKG20000626132012506/26/00 13:20:31  5-MIN KMKG 261820Z 24013KT 10SM FEW027 SCT032 BKN055 22/19 A2985 700 81 1700 240/13 RMK AO2 CIG 033 RWY 14
14840KMKG MKG20000626132512506/26/00 13:25:31  5-MIN KMKG 261825Z 23011KT 10SM FEW025 SCT032 BKN050 23/19 A2984 700 81 1800 240/11 RMK AO2 CIG 033 RWY 14
14840KMKG MKG20000626133011006/26/00 13:30:31  5-MIN KMKG 261830Z 23013KT 10SM FEW027 SCT055 SCT090 22/19 A2984 700 81 1700 230/13 RMK AO2
14840KMKG MKG20000626133510306/26/00 13:35:31  5-MIN KMKG 261835Z 23012KT 10SM SCT022 SCT033 22/19 A2985 700 84 1700 230/12 RMK AO2
14840KMKG MKG20000626134010906/26/00 13:40:31  5-MIN KMKG 261840Z 25010KT 9SM SCT017 BKN022 BKN033 21/18 A2985 690 84 1600 250/10 RMK AO2
14840KMKG MKG20000626134510906/26/00 13:45:31  5-MIN KMKG 261845Z 25010KT 9SM SCT017 BKN022 BKN033 21/19 A2985 700 87 1600 250/10 RMK AO2
14840KMKG MKG20000626135012606/26/00 13:50:31  5-MIN KMKG 261850Z 26010KT 9SM SCT017 BKN023 BKN065 21/19 A2985 690 87 1600 270/10 RMK AO2 SLP107 T02110189
14840KMKG MKG20000626135512606/26/00 13:55:31  5-MIN KMKG 261855Z 25013KT 9SM FEW009 BKN017 BKN022 21/18 A2986 690 87 1500 260/13 RMK AO2 SLP109 T02060183
14840KMKG MKG20000626140012406/26/00 14:00:31  5-MIN KMKG 261900Z 27012KT 8SM SCT009 BKN017 OVC022 19/18 A2986 690 90 1400 270/12 RMK AO2 CIG 009 RWY 14
14840KMKG MKG20000626140510906/26/00 14:05:31  5-MIN KMKG 261905Z 29012KT 7SM BKN007 BKN017 OVC070 19/18 A2986 690 90 1400 290/12 RMK AO2
14840KMKG MKG20000626141011206/26/00 14:10:31  5-MIN KMKG 261910Z 29011KT 6SM BR BKN007 BKN013 OVC070 19/18 A2986 690 90 1400 300/11 RMK AO2
14840KMKG MKG20000626141510206/26/00 14:15:31  5-MIN KMKG 261915Z 33011KT 7SM BKN007 OVC015 21/18 A2986 690 84 1500 330/11 RMK AO2
14840KMKG MKG20000626142012406/26/00 14:20:31  5-MIN KMKG 261920Z 31012KT 9SM SCT007 BKN012 OVC018 21/17 A2986 690 81 1500 320/12 RMK AO2 CIG 007 RWY 14
14840KMKG MKG20000626142510306/26/00 14:25:31  5-MIN KMKG 261925Z 31011KT 10SM SCT007 OVC018 21/17 A2986 690 78 1500 320/11 RMK AO2
14840KMKG MKG20000626143011006/26/00 14:30:31  5-MIN KMKG 261930Z 32013KT 10SM FEW007 BKN020 OVC028 21/17 A2986 680 78 1600 320/13 RMK AO2
14840KMKG MKG20000626143511006/26/00 14:35:31  5-MIN KMKG 261935Z 32012KT 10SM FEW007 BKN020 OVC026 21/17 A2987 680 78 1600 320/12 RMK AO2
14840KMKG MKG20000626144010306/26/00 14:40:31  5-MIN KMKG 261940Z 33014KT 10SM SCT018 OVC026 22/17 A2987 680 73 1700 330/14 RMK AO2
14840KMKG MKG20000626144510906/26/00 14:45:31  5-MIN KMKG 261945Z 32013G18KT 10SM FEW018 OVC026 22/17 A2987 680 73 1700 330/13G18 RMK AO2
14840KMKG MKG20000626145011906/26/00 14:50:31  5-MIN KMKG 261950Z 31012G20KT 10SM OVC024 22/16 A2987 680 70 1700 320/12G20 RMK AO2 SLP111 T02170161
14840KMKG MKG20000626145511906/26/00 14:55:31  5-MIN KMKG 261955Z 32015G20KT 10SM BKN026 21/16 A2986 680 73 1600 320/15G20 RMK AO2 SLP110 T02110161
14840KMKG MKG20000626150010906/26/00 15:00:31  5-MIN KMKG 262000Z 32012G19KT 10SM BKN026 OVC030 22/16 A2987 680 70 1700 330/12G19 RMK AO2
14840KMKG MKG20000626150511006/26/00 15:05:31  5-MIN KMKG 262005Z 31013KT 10SM SCT026 BKN030 OVC038 22/17 A2986 680 70 1700 320/13 RMK AO2
14840KMKG MKG20000626151011606/26/00 15:10:31  5-MIN KMKG 262010Z 32014G19KT 10SM BKN026 BKN030 OVC040 21/16 A2987 680 73 1600 320/14G19 RMK AO2
14840KMKG MKG20000626151511606/26/00 15:15:31  5-MIN KMKG 262015Z 31013G19KT 10SM BKN026 BKN030 OVC040 22/16 A2987 680 70 1700 320/13G19 RMK AO2
14840KMKG MKG20000626152011006/26/00 15:20:31  5-MIN KMKG 262020Z 32011KT 10SM BKN026 BKN030 OVC040 22/17 A2987 680 73 1700 320/11 RMK AO2
14840KMKG MKG20000626152511006/26/00 15:25:31  5-MIN KMKG 262025Z 31011KT 10SM BKN026 BKN030 OVC040 22/17 A2987 680 73 1600 310/11 RMK AO2
14840KMKG MKG20000626153010906/26/00 15:30:31  5-MIN KMKG 262030Z 30009G15KT 10SM FEW030 BKN040 22/17 A2987 680 73 1700 300/09G15 RMK AO2
14840KMKG MKG20000626153510906/26/00 15:35:31  5-MIN KMKG 262035Z 29009G15KT 10SM FEW030 BKN040 22/17 A2987 680 73 1700 300/09G15 RMK AO2
14840KMKG MKG20000626154010306/26/00 15:40:31  5-MIN KMKG 262040Z 29010KT 10SM BKN042 OVC050 22/17 A2987 680 73 1700 290/10 RMK AO2
14840KMKG MKG20000626154510306/26/00 15:45:31  5-MIN KMKG 262045Z 29013KT 10SM SCT042 OVC050 22/17 A2987 670 73 1700 290/13 RMK AO2
14840KMKG MKG20000626155012606/26/00 15:50:31  5-MIN KMKG 262050Z 28011KT 10SM FEW042 BKN050 22/17 A2987 670 73 1600 290/11 RMK AO2 SLP114 T02170167 53003
14840KMKG MKG20000626155512606/26/00 15:55:31  5-MIN KMKG 262055Z 29011KT 10SM FEW042 BKN050 22/17 A2987 670 70 1700 300/11 RMK AO2 SLP114 T02220167 53008
14840KMKG MKG20000626160009606/26/00 16:00:31  5-MIN KMKG 262100Z 30013KT 10SM SCT050 22/16 A2988 670 68 1700 310/13 RMK AO2
14840KMKG MKG20000626160509606/26/00 16:05:31  5-MIN KMKG 262105Z 32013KT 10SM FEW050 22/16 A2988 670 68 1700 320/13 RMK AO2
14840KMKG MKG20000626161009606/26/00 16:10:31  5-MIN KMKG 262110Z 32012KT 10SM FEW050 22/16 A2988 670 68 1700 320/12 RMK AO2
14840KMKG MKG20000626161509306/26/00 16:15:31  5-MIN KMKG 262115Z 31013KT 10SM CLR 23/16 A2988 670 63 1800 310/13 RMK AO2
14840KMKG MKG20000626162009306/26/00 16:20:31  5-MIN KMKG 262120Z 32012KT 10SM CLR 22/15 A2988 670 63 1700 320/12 RMK AO2
14840KMKG MKG20000626162509306/26/00 16:25:31  5-MIN KMKG 262125Z 31015KT 10SM CLR 23/15 A2988 670 61 1800 310/15 RMK AO2
14840KMKG MKG20000626163009306/26/00 16:30:31  5-MIN KMKG 262130Z 32011KT 10SM CLR 22/14 A2988 660 59 1700 320/11 RMK AO2
14840KMKG MKG20000626163509306/26/00 16:35:31  5-MIN KMKG 262135Z 33015KT 10SM CLR 23/14 A2988 670 59 1800 340/15 RMK AO2
14840KMKG MKG20000626164009306/26/00 16:40:31  5-MIN KMKG 262140Z 31012KT 10SM CLR 23/14 A2988 660 59 1800 320/12 RMK AO2
14840KMKG MKG20000626164509906/26/00 16:45:31  5-MIN KMKG 262145Z 31014G19KT 10SM CLR 23/14 A2988 660 59 1800 310/14G19 RMK AO2
14840KMKG MKG20000626165011906/26/00 16:50:31  5-MIN KMKG 262150Z 32012G19KT 10SM FEW050 23/15 A2989 660 59 1800 320/12G19 RMK AO2 SLP118 T02330150
14840KMKG MKG20000626165511906/26/00 16:55:31  5-MIN KMKG 262155Z 32011G18KT 10SM FEW050 23/15 A2989 660 61 1800 320/11G18 RMK AO2 SLP118 T02280150
14840KMKG MKG20000626170009906/26/00 17:00:31  5-MIN KMKG 262200Z 32014G19KT 10SM CLR 23/14 A2988 660 59 1800 330/14G19 RMK AO2
14840KMKG MKG20000626170509306/26/00 17:05:31  5-MIN KMKG 262205Z 33013KT 10SM CLR 23/14 A2989 660 59 1800 340/13 RMK AO2
14840KMKG MKG20000626171009306/26/00 17:10:31  5-MIN KMKG 262210Z 33011KT 10SM CLR 23/15 A2989 660 61 1800 330/11 RMK AO2
14840KMKG MKG20000626171509306/26/00 17:15:31  5-MIN KMKG 262215Z 32011KT 10SM CLR 23/15 A2989 660 59 1800 320/11 RMK AO2
14840KMKG MKG20000626172009906/26/00 17:20:31  5-MIN KMKG 262220Z 32014G19KT 10SM CLR 23/15 A2989 660 61 1800 330/14G19 RMK AO2
14840KMKG MKG20000626172509306/26/00 17:25:31  5-MIN KMKG 262225Z 33014KT 10SM CLR 23/14 A2989 660 59 1800 330/14 RMK AO2
14840KMKG MKG20000626173009306/26/00 17:30:31  5-MIN KMKG 262230Z 31011KT 10SM CLR 23/15 A2989 660 61 1800 320/11 RMK AO2
14840KMKG MKG20000626173509306/26/00 17:35:31  5-MIN KMKG 262235Z 33012KT 10SM CLR 23/15 A2989 660 61 1700 330/12 RMK AO2
14840KMKG MKG20000626174009906/26/00 17:40:31  5-MIN KMKG 262240Z 31013G18KT 10SM CLR 23/15 A2990 650 61 1700 320/13G18 RMK AO2
14840KMKG MKG20000626174509906/26/00 17:45:31  5-MIN KMKG 262245Z 32011G18KT 10SM CLR 23/15 A2989 660 61 1800 330/11G18 RMK AO2
14840KMKG MKG20000626175011606/26/00 17:50:31  5-MIN KMKG 262250Z 33012G17KT 10SM CLR 23/15 A2990 650 61 1700 340/12G17 RMK AO2 SLP121 T02280150
14840KMKG MKG20000626175511006/26/00 17:55:31  5-MIN KMKG 262255Z 34012KT 10SM CLR 23/15 A2990 650 61 1700 340/12 RMK AO2 SLP121 T02280150
14840KMKG MKG20000626180009306/26/00 18:00:31  5-MIN KMKG 262300Z 32011KT 10SM CLR 23/15 A2990 650 61 1700 330/11 RMK AO2
14840KMKG MKG20000626180509306/26/00 18:05:31  5-MIN KMKG 262305Z 31013KT 10SM CLR 23/15 A2990 650 61 1700 320/13 RMK AO2
14840KMKG MKG20000626181009306/26/00 18:10:31  5-MIN KMKG 262310Z 32013KT 10SM CLR 23/15 A2990 650 61 1700 330/13 RMK AO2
14840KMKG MKG20000626181509306/26/00 18:15:31  5-MIN KMKG 262315Z 33011KT 10SM CLR 23/15 A2990 650 61 1700 340/11 RMK AO2
14840KMKG MKG20000626182009306/26/00 18:20:31  5-MIN KMKG 262320Z 32010KT 10SM CLR 23/15 A2990 650 61 1700 320/10 RMK AO2
14840KMKG MKG20000626182509906/26/00 18:25:31  5-MIN KMKG 262325Z 32013G17KT 10SM CLR 22/15 A2990 650 63 1700 320/13G17 RMK AO2
14840KMKG MKG20000626183009306/26/00 18:30:31  5-MIN KMKG 262330Z 32013KT 10SM CLR 22/15 A2990 650 63 1700 320/13 RMK AO2
14840KMKG MKG20000626183509306/26/00 18:35:31  5-MIN KMKG 262335Z 32010KT 10SM CLR 22/15 A2990 650 63 1700 320/10 RMK AO2
14840KMKG MKG20000626184009306/26/00 18:40:31  5-MIN KMKG 262340Z 32011KT 10SM CLR 22/15 A2991 640 63 1700 330/11 RMK AO2
14840KMKG MKG20000626184509306/26/00 18:45:31  5-MIN KMKG 262345Z 32011KT 10SM CLR 22/15 A2991 640 63 1700 330/11 RMK AO2
14840KMKG MKG20000626185013406/26/00 18:50:31  5-MIN KMKG 262350Z 32009G16KT 10SM CLR 22/15 A2991 640 63 1700 320/09G16 RMK AO2 SLP124 T02220150 10233 20194 53008
14840KMKG MKG20000626185512806/26/00 18:55:31  5-MIN KMKG 262355Z 31012KT 10SM CLR 22/15 A2991 640 63 1700 310/12 RMK AO2 SLP124 T02220150 10233 20194 51011
14840KMKG MKG20000626190009306/26/00 19:00:31  5-MIN KMKG 270000Z 32010KT 10SM CLR 22/15 A2991 640 63 1700 320/10 RMK AO2
14840KMKG MKG20000626190509306/26/00 19:05:31  5-MIN KMKG 270005Z 33008KT 10SM CLR 22/15 A2991 640 63 1700 330/08 RMK AO2
14840KMKG MKG20000626191009306/26/00 19:10:31  5-MIN KMKG 270010Z 33011KT 10SM CLR 22/15 A2991 640 63 1700 330/11 RMK AO2
14840KMKG MKG20000626191509306/26/00 19:15:31  5-MIN KMKG 270015Z 33010KT 10SM CLR 22/14 A2991 640 63 1600 330/10 RMK AO2
14840KMKG MKG20000626192009306/26/00 19:20:31  5-MIN KMKG 270020Z 32009KT 10SM CLR 22/14 A2992 640 63 1600 320/09 RMK AO2
14840KMKG MKG20000626192509306/26/00 19:25:31  5-MIN KMKG 270025Z 32007KT 10SM CLR 22/14 A2992 640 63 1600 320/07 RMK AO2
14840KMKG MKG20000626193009306/26/00 19:30:31  5-MIN KMKG 270030Z 32007KT 10SM CLR 22/14 A2991 640 63 1600 320/07 RMK AO2
14840KMKG MKG20000626193509306/26/00 19:35:31  5-MIN KMKG 270035Z 32005KT 10SM CLR 22/14 A2991 640 63 1600 330/05 RMK AO2
14840KMKG MKG20000626194009306/26/00 19:40:31  5-MIN KMKG 270040Z 33004KT 10SM CLR 21/15 A2991 640 68 1500 330/04 RMK AO2
14840KMKG MKG20000626194509306/26/00 19:45:31  5-MIN KMKG 270045Z 32004KT 10SM CLR 21/15 A2991 640 68 1500 320/04 RMK AO2
14840KMKG MKG20000626195011006/26/00 19:50:31  5-MIN KMKG 270050Z 31004KT 10SM CLR 21/15 A2991 640 68 1500 320/04 RMK AO2 SLP126 T02110150
14840KMKG MKG20000626195511006/26/00 19:55:31  5-MIN KMKG 270055Z 00000KT 10SM CLR 21/14 A2991 640 65 1500 000/00 RMK AO2 SLP126 T02110144
14840KMKG MKG20000626200009306/26/00 20:00:31  5-MIN KMKG 270100Z 24003KT 10SM CLR 21/15 A2992 630 70 1500 250/03 RMK AO2
14840KMKG MKG20000626200509306/26/00 20:05:31  5-MIN KMKG 270105Z 26003KT 10SM CLR 20/15 A2992 630 72 1400 270/03 RMK AO2
14840KMKG MKG20000626201009306/26/00 20:10:31  5-MIN KMKG 270110Z 00000KT 10SM CLR 21/14 A2991 640 67 1500 000/00 RMK AO2
14840KMKG MKG20000626201509306/26/00 20:15:31  5-MIN KMKG 270115Z 00000KT 10SM CLR 21/14 A2991 640 67 1500 000/00 RMK AO2
14840KMKG MKG20000626202009306/26/00 20:20:31  5-MIN KMKG 270120Z 26003KT 10SM CLR 20/14 A2992 630 70 1400 260/03 RMK AO2
14840KMKG MKG20000626202509306/26/00 20:25:31  5-MIN KMKG 270125Z 23004KT 10SM CLR 19/15 A2992 630 75 1300 240/04 RMK AO2
14840KMKG MKG20000626203009306/26/00 20:30:31  5-MIN KMKG 270130Z 22006KT 10SM CLR 18/15 A2992 630 83 1100 220/06 RMK AO2
14840KMKG MKG20000626203509306/26/00 20:35:31  5-MIN KMKG 270135Z 22006KT 10SM CLR 18/16 A2992 630 87 1100 230/06 RMK AO2
14840KMKG MKG20000626204009306/26/00 20:40:31  5-MIN KMKG 270140Z 23006KT 10SM CLR 17/16 A2992 630 90 1100 230/06 RMK AO2
14840KMKG MKG20000626204509306/26/00 20:45:31  5-MIN KMKG 270145Z 23005KT 10SM CLR 17/16 A2992 630 93 1100 230/05 RMK AO2
14840KMKG MKG20000626205011006/26/00 20:50:31  5-MIN KMKG 270150Z 23005KT 10SM CLR 17/16 A2993 620 93 1100 240/05 RMK AO2 SLP132 T01720161
14840KMKG MKG20000626205511006/26/00 20:55:31  5-MIN KMKG 270155Z 23004KT 10SM CLR 17/16 A2993 620 93 1100 230/04 RMK AO2 SLP132 T01720161
14840KMKG MKG20000626210009306/26/00 21:00:31  5-MIN KMKG 270200Z 23005KT 10SM CLR 17/16 A2993 620 93 1000 230/05 RMK AO2
14840KMKG MKG20000626210509306/26/00 21:05:31  5-MIN KMKG 270205Z 24004KT 10SM CLR 17/16 A2994 610 93 1000 250/04 RMK AO2
14840KMKG MKG20000626211009206/26/00 21:10:31  5-MIN KMKG 270210Z 23004KT 10SM CLR 16/16 A2994 610 96 900 240/04 RMK AO2
14840KMKG MKG20000626211509206/26/00 21:15:31  5-MIN KMKG 270215Z 23005KT 10SM CLR 16/16 A2994 610 96 900 240/05 RMK AO2
14840KMKG MKG20000626212009206/26/00 21:20:31  5-MIN KMKG 270220Z 23006KT 10SM CLR 16/16 A2995 610 96 900 240/06 RMK AO2
14840KMKG MKG20000626212509206/26/00 21:25:31  5-MIN KMKG 270225Z 24006KT 10SM CLR 16/15 A2995 600 93 900 240/06 RMK AO2
14840KMKG MKG20000626213009306/26/00 21:30:31  5-MIN KMKG 270230Z 24006KT 10SM CLR 17/16 A2995 600 93 1000 240/06 RMK AO2
14840KMKG MKG20000626213509306/26/00 21:35:31  5-MIN KMKG 270235Z 24007KT 10SM CLR 17/16 A2995 600 96 1000 240/07 RMK AO2
14840KMKG MKG20000626214009306/26/00 21:40:31  5-MIN KMKG 270240Z 23005KT 10SM CLR 17/16 A2995 600 93 1000 230/05 RMK AO2
14840KMKG MKG20000626214509206/26/00 21:45:31  5-MIN KMKG 270245Z 23005KT 10SM CLR 16/15 A2996 600 96 800 230/05 RMK AO2
14840KMKG MKG20000626215011506/26/00 21:50:31  5-MIN KMKG 270250Z 24004KT 10SM CLR 16/15 A2996 600 96 800 240/04 RMK AO2 SLP142 T01560150 51011
14840KMKG MKG20000626215511506/26/00 21:55:31  5-MIN KMKG 270255Z 00000KT 10SM CLR 16/15 A2996 600 96 800 000/00 RMK AO2 SLP142 T01560150 53017
14840KMKG MKG20000626220009206/26/00 22:00:31  5-MIN KMKG 270300Z 00000KT 10SM CLR 16/16 A2995 600 96 900 000/00 RMK AO2
14840KMKG MKG20000626220509206/26/00 22:05:31  5-MIN KMKG 270305Z 00000KT 10SM CLR 16/16 A2995 600 96 900 000/00 RMK AO2
14840KMKG MKG20000626221009206/26/00 22:10:31  5-MIN KMKG 270310Z 20003KT 10SM CLR 16/16 A2996 600 96 900 210/03 RMK AO2
14840KMKG MKG20000626221509206/26/00 22:15:31  5-MIN KMKG 270315Z 21004KT 10SM CLR 16/15 A2996 600 96 800 210/04 RMK AO2
14840KMKG MKG20000626222009206/26/00 22:20:31  5-MIN KMKG 270320Z 22004KT 10SM CLR 16/15 A2996 590 96 800 220/04 RMK AO2
14840KMKG MKG20000626222509206/26/00 22:25:31  5-MIN KMKG 270325Z 22004KT 10SM CLR 16/15 A2996 590 96 800 220/04 RMK AO2
14840KMKG MKG20000626223009206/26/00 22:30:31  5-MIN KMKG 270330Z 22004KT 10SM CLR 16/15 A2996 590 96 800 220/04 RMK AO2
14840KMKG MKG20000626223509206/26/00 22:35:31  5-MIN KMKG 270335Z 22004KT 10SM CLR 16/15 A2996 590 96 800 220/04 RMK AO2
14840KMKG MKG20000626224009206/26/00 22:40:31  5-MIN KMKG 270340Z 22003KT 10SM CLR 16/15 A2996 590 96 800 220/03 RMK AO2
14840KMKG MKG20000626224509206/26/00 22:45:31  5-MIN KMKG 270345Z 22004KT 10SM CLR 16/15 A2997 590 96 800 220/04 RMK AO2
14840KMKG MKG20000626225011006/26/00 22:50:31  5-MIN KMKG 270350Z 22004KT 10SM CLR 15/15 A2997 580 100 800 220/04 RMK AO2 SLP147 T01500150
14840KMKG MKG20000626225510906/26/00 22:55:31  5-MIN KMKG 270355Z 22004KT 10SM CLR 15/14 A2997 580 96 800 220/04 RMK AO2 SLP148 T01500144
14840KMKG MKG20000626230009206/26/00 23:00:31  5-MIN KMKG 270400Z 22004KT 10SM CLR 15/14 A2997 580 96 800 230/04 RMK AO2
14840KMKG MKG20000626230509206/26/00 23:05:31  5-MIN KMKG 270405Z 23005KT 10SM CLR 16/15 A2997 580 96 800 230/05 RMK AO2
14840KMKG MKG20000626231009506/26/00 23:10:31  5-MIN KMKG 270410Z 23007KT 10SM FEW065 16/16 A2997 580 96 900 230/07 RMK AO2
14840KMKG MKG20000626231509506/26/00 23:15:31  5-MIN KMKG 270415Z 23007KT 10SM FEW065 16/16 A2998 580 96 900 230/07 RMK AO2
14840KMKG MKG20000626232009506/26/00 23:20:31  5-MIN KMKG 270420Z 23007KT 10SM SCT065 16/16 A2998 580 96 900 230/07 RMK AO2
14840KMKG MKG20000626232509506/26/00 23:25:31  5-MIN KMKG 270425Z 23008KT 10SM SCT070 16/16 A2998 570 96 900 230/08 RMK AO2
14840KMKG MKG20000626233009606/26/00 23:30:31  5-MIN KMKG 270430Z 22007KT 10SM BKN070 18/16 A2998 570 87 1100 230/07 RMK AO2
14840KMKG MKG20000626233509506/26/00 23:35:31  5-MIN KMKG 270435Z 22007KT 10SM BKN070 16/15 A2998 570 93 900 220/07 RMK AO2
14840KMKG MKG20000626234009506/26/00 23:40:31  5-MIN KMKG 270440Z 22008KT 10SM SCT070 17/15 A2999 570 90 900 220/08 RMK AO2
14840KMKG MKG20000626234509506/26/00 23:45:31  5-MIN KMKG 270445Z 22007KT 10SM SCT070 17/15 A2999 570 90 900 220/07 RMK AO2
14840KMKG MKG20000626235012206/26/00 23:50:31  5-MIN KMKG 270450Z 22006KT 10SM BKN070 17/15 A2999 570 90 900 220/06 RMK AO2 SLP151 T01670150 402500150
14840KMKG MKG20000626235512206/26/00 23:55:31  5-MIN KMKG 270455Z 23007KT 10SM BKN070 17/15 A2999 570 90 900 230/07 RMK AO2 SLP152 T01670150 402500150
14840KMKG MKG20000627000009506/27/00 00:00:31  5-MIN KMKG 270500Z 23008KT 10SM BKN070 17/15 A2999 570 90 900 230/08 RMK AO2
14840KMKG MKG20000627000509506/27/00 00:05:31  5-MIN KMKG 270505Z 23007KT 10SM BKN070 17/15 A2998 570 90 900 230/07 RMK AO2
14840KMKG MKG20000627001009506/27/00 00:10:31  5-MIN KMKG 270510Z 24007KT 10SM BKN070 17/15 A2998 570 90 900 240/07 RMK AO2
14840KMKG MKG20000627001509606/27/00 00:15:31  5-MIN KMKG 270515Z 24008KT 10SM SCT070 17/15 A2998 570 87 1000 240/08 RMK AO2
14840KMKG MKG20000627002009606/27/00 00:20:31  5-MIN KMKG 270520Z 24008KT 10SM SCT070 17/15 A2998 570 87 1000 240/08 RMK AO2
14840KMKG MKG20000627002509606/27/00 00:25:31  5-MIN KMKG 270525Z 24009KT 10SM FEW070 17/15 A2999 570 87 1000 240/09 RMK AO2
14840KMKG MKG20000627003009606/27/00 00:30:31  5-MIN KMKG 270530Z 24007KT 10SM FEW070 17/15 A2999 570 87 1000 240/07 RMK AO2
14840KMKG MKG20000627003509306/27/00 00:35:31  5-MIN KMKG 270535Z 24009KT 10SM CLR 17/15 A2999 570 87 1000 240/09 RMK AO2
14840KMKG MKG20000627004009306/27/00 00:40:31  5-MIN KMKG 270540Z 24008KT 10SM CLR 17/15 A2998 570 87 1000 240/08 RMK AO2
14840KMKG MKG20000627004509306/27/00 00:45:31  5-MIN KMKG 270545Z 23008KT 10SM CLR 17/15 A2998 570 87 1000 240/08 RMK AO2
14840KMKG MKG20000627005012706/27/00 00:50:31  5-MIN KMKG 270550Z 24008KT 10SM CLR 17/15 A2998 570 90 900 240/08 RMK AO2 SLP151 T01670150 10222 20150 53017
14840KMKG MKG20000627005512806/27/00 00:55:31  5-MIN KMKG 270555Z 25009KT 10SM CLR 17/15 A2998 570 87 1000 250/09 RMK AO2 SLP150 T01720150 10222 20150 50008
14840KMKG MKG20000627010009306/27/00 01:00:31  5-MIN KMKG 270600Z 25009KT 10SM CLR 17/15 A2998 580 87 1000 250/09 RMK AO2
14840KMKG MKG20000627010509306/27/00 01:05:31  5-MIN KMKG 270605Z 25008KT 10SM CLR 17/15 A2998 580 87 1000 250/08 RMK AO2
14840KMKG MKG20000627011009306/27/00 01:10:31  5-MIN KMKG 270610Z 25009KT 10SM CLR 17/15 A2998 580 87 1000 250/09 RMK AO2
14840KMKG MKG20000627011509606/27/00 01:15:31  5-MIN KMKG 270615Z 25008KT 10SM FEW065 17/15 A2998 570 87 1000 260/08 RMK AO2
14840KMKG MKG20000627012009606/27/00 01:20:31  5-MIN KMKG 270620Z 25010KT 10SM FEW070 17/15 A2998 570 87 1000 260/10 RMK AO2
14840KMKG MKG20000627012509606/27/00 01:25:31  5-MIN KMKG 270625Z 25009KT 10SM SCT075 17/15 A2998 570 87 1000 250/09 RMK AO2
14840KMKG MKG20000627013009606/27/00 01:30:31  5-MIN KMKG 270630Z 26010KT 10SM SCT070 17/15 A2998 580 87 1000 260/10 RMK AO2
14840KMKG MKG20000627013509606/27/00 01:35:31  5-MIN KMKG 270635Z 26009KT 10SM FEW070 18/15 A2998 570 83 1100 270/09 RMK AO2
14840KMKG MKG20000627014009606/27/00 01:40:31  5-MIN KMKG 270640Z 26009KT 10SM FEW070 18/15 A2998 570 83 1100 270/09 RMK AO2
14840KMKG MKG20000627014509606/27/00 01:45:31  5-MIN KMKG 270645Z 26010KT 10SM FEW070 18/15 A2998 580 83 1100 270/10 RMK AO2
14840KMKG MKG20000627015011306/27/00 01:50:31  5-MIN KMKG 270650Z 27010KT 10SM FEW070 18/14 A2998 580 81 1100 270/10 RMK AO2 SLP150 T01780144
14840KMKG MKG20000627015511006/27/00 01:55:31  5-MIN KMKG 270655Z 28011KT 10SM CLR 18/14 A2998 580 81 1100 280/11 RMK AO2 SLP149 T01780144
14840KMKG MKG20000627020009306/27/00 02:00:31  5-MIN KMKG 270700Z 27010KT 10SM CLR 18/14 A2998 580 78 1100 280/10 RMK AO2
14840KMKG MKG20000627020509306/27/00 02:05:31  5-MIN KMKG 270705Z 28010KT 10SM CLR 18/14 A2998 580 81 1100 280/10 RMK AO2
14840KMKG MKG20000627021009306/27/00 02:10:31  5-MIN KMKG 270710Z 28012KT 10SM CLR 18/14 A2998 580 78 1100 280/12 RMK AO2
14840KMKG MKG20000627021509306/27/00 02:15:31  5-MIN KMKG 270715Z 29011KT 10SM CLR 18/14 A2998 580 75 1100 290/11 RMK AO2
14840KMKG MKG20000627022009306/27/00 02:20:31  5-MIN KMKG 270720Z 30012KT 10SM CLR 19/14 A2998 580 72 1200 300/12 RMK AO2
14840KMKG MKG20000627022509306/27/00 02:25:31  5-MIN KMKG 270725Z 29009KT 10SM CLR 18/14 A2998 580 75 1100 300/09 RMK AO2
14840KMKG MKG20000627023009306/27/00 02:30:31  5-MIN KMKG 270730Z 29009KT 10SM CLR 18/14 A2998 570 75 1100 300/09 RMK AO2
14840KMKG MKG20000627023509306/27/00 02:35:31  5-MIN KMKG 270735Z 29009KT 10SM CLR 18/14 A2998 570 75 1100 300/09 RMK AO2
14840KMKG MKG20000627024009306/27/00 02:40:31  5-MIN KMKG 270740Z 30008KT 10SM CLR 18/14 A2998 570 75 1100 310/08 RMK AO2
14840KMKG MKG20000627024509306/27/00 02:45:31  5-MIN KMKG 270745Z 30010KT 10SM CLR 18/14 A2998 580 75 1100 300/10 RMK AO2
14840KMKG MKG20000627025011006/27/00 02:50:31  5-MIN KMKG 270750Z 31008KT 10SM CLR 18/14 A2998 580 78 1100 310/08 RMK AO2 SLP150 T01780139
14840KMKG MKG20000627025511006/27/00 02:55:31  5-MIN KMKG 270755Z 31007KT 10SM CLR 18/13 A2998 580 72 1100 310/07 RMK AO2 SLP150 T01830133
14840KMKG MKG20000627030009306/27/00 03:00:31  5-MIN KMKG 270800Z 31007KT 10SM CLR 18/13 A2998 580 75 1100 320/07 RMK AO2
14840KMKG MKG20000627030509306/27/00 03:05:31  5-MIN KMKG 270805Z 32009KT 10SM CLR 18/13 A2998 580 75 1100 320/09 RMK AO2
14840KMKG MKG20000627031009306/27/00 03:10:31  5-MIN KMKG 270810Z 31009KT 10SM CLR 18/13 A2998 570 75 1100 320/09 RMK AO2
14840KMKG MKG20000627031509306/27/00 03:15:31  5-MIN KMKG 270815Z 31007KT 10SM CLR 18/13 A2998 570 75 1100 310/07 RMK AO2
14840KMKG MKG20000627032009306/27/00 03:20:31  5-MIN KMKG 270820Z 32007KT 10SM CLR 18/13 A2998 570 72 1100 320/07 RMK AO2
14840KMKG MKG20000627032509306/27/00 03:25:31  5-MIN KMKG 270825Z 31007KT 10SM CLR 17/13 A2999 570 75 1000 310/07 RMK AO2
14840KMKG MKG20000627033009306/27/00 03:30:31  5-MIN KMKG 270830Z 32007KT 10SM CLR 18/13 A2998 570 72 1100 320/07 RMK AO2
14840KMKG MKG20000627033509306/27/00 03:35:31  5-MIN KMKG 270835Z 31008KT 10SM CLR 18/13 A2999 570 72 1100 310/08 RMK AO2
14840KMKG MKG20000627034009306/27/00 03:40:31  5-MIN KMKG 270840Z 32006KT 10SM CLR 17/13 A2999 570 75 1000 320/06 RMK AO2
14840KMKG MKG20000627034509306/27/00 03:45:31  5-MIN KMKG 270845Z 31008KT 10SM CLR 17/12 A2999 570 72 1000 310/08 RMK AO2
14840KMKG MKG20000627035011606/27/00 03:50:31  5-MIN KMKG 270850Z 31008KT 10SM CLR 18/12 A2998 570 69 1100 320/08 RMK AO2 SLP151 T01780122 50008
14840KMKG MKG20000627035511606/27/00 03:55:31  5-MIN KMKG 270855Z 31007KT 10SM CLR 17/12 A2999 570 72 1000 310/07 RMK AO2 SLP152 T01720122 53002
14840KMKG MKG20000627040009306/27/00 04:00:31  5-MIN KMKG 270900Z 32007KT 10SM CLR 17/12 A2999 570 72 1000 320/07 RMK AO2
14840KMKG MKG20000627040509306/27/00 04:05:31  5-MIN KMKG 270905Z 32008KT 10SM CLR 17/12 A2999 560 72 1000 320/08 RMK AO2
14840KMKG MKG20000627041009306/27/00 04:10:31  5-MIN KMKG 270910Z 32007KT 10SM CLR 17/12 A2999 570 72 1000 320/07 RMK AO2
14840KMKG MKG20000627041509306/27/00 04:15:31  5-MIN KMKG 270915Z 31008KT 10SM CLR 17/12 A2999 570 72 1000 320/08 RMK AO2
14840KMKG MKG20000627042009306/27/00 04:20:31  5-MIN KMKG 270920Z 31005KT 10SM CLR 17/12 A2999 570 72 1000 320/05 RMK AO2
14840KMKG MKG20000627042509206/27/00 04:25:31  5-MIN KMKG 270925Z 31009KT 10SM CLR 17/12 A2999 560 75 900 320/09 RMK AO2
14840KMKG MKG20000627043009306/27/00 04:30:31  5-MIN KMKG 270930Z 32008KT 10SM CLR 17/12 A2999 560 72 1000 320/08 RMK AO2
14840KMKG MKG20000627043509306/27/00 04:35:31  5-MIN KMKG 270935Z 31008KT 10SM CLR 17/12 A3000 560 69 1000 320/08 RMK AO2
14840KMKG MKG20000627044009306/27/00 04:40:31  5-MIN KMKG 270940Z 31008KT 10SM CLR 17/12 A3000 560 69 1000 320/08 RMK AO2
14840KMKG MKG20000627044509306/27/00 04:45:31  5-MIN KMKG 270945Z 32007KT 10SM CLR 17/12 A3000 560 69 1000 320/07 RMK AO2
14840KMKG MKG20000627045010906/27/00 04:50:31  5-MIN KMKG 270950Z 31005KT 10SM CLR 17/12 A3000 550 75 900 320/05 RMK AO2 SLP157 T01670122
14840KMKG MKG20000627045510906/27/00 04:55:31  5-MIN KMKG 270955Z VRB04KT 10SM CLR 17/12 A3000 550 75 900 VRB/04 RMK AO2 SLP158 T01670122
14840KMKG MKG20000627050009206/27/00 05:00:31  5-MIN KMKG 271000Z 29005KT 10SM CLR 16/12 A3001 550 77 800 300/05 RMK AO2
14840KMKG MKG20000627050509206/27/00 05:05:31  5-MIN KMKG 271005Z 30004KT 10SM CLR 16/12 A3001 550 77 800 310/04 RMK AO2
14840KMKG MKG20000627051009206/27/00 05:10:31  5-MIN KMKG 271010Z 29004KT 10SM CLR 17/12 A3001 550 75 900 300/04 RMK AO2
14840KMKG MKG20000627051509206/27/00 05:15:31  5-MIN KMKG 271015Z 30005KT 10SM CLR 16/12 A3001 550 77 800 310/05 RMK AO2
14840KMKG MKG20000627052009206/27/00 05:20:31  5-MIN KMKG 271020Z 30006KT 10SM CLR 17/12 A3002 540 75 900 300/06 RMK AO2
14840KMKG MKG20000627052509206/27/00 05:25:31  5-MIN KMKG 271025Z 31007KT 10SM CLR 17/12 A3002 540 75 900 310/07 RMK AO2
14840KMKG MKG20000627053009206/27/00 05:30:31  5-MIN KMKG 271030Z 31007KT 10SM CLR 17/12 A3002 540 75 900 320/07 RMK AO2
14840KMKG MKG20000627053509206/27/00 05:35:31  5-MIN KMKG 271035Z 30008KT 10SM CLR 17/12 A3002 540 75 900 300/08 RMK AO2
14840KMKG MKG20000627054009206/27/00 05:40:31  5-MIN KMKG 271040Z 31008KT 10SM CLR 17/12 A3002 540 75 900 320/08 RMK AO2
14840KMKG MKG20000627054509306/27/00 05:45:31  5-MIN KMKG 271045Z 31007KT 10SM CLR 17/12 A3002 540 72 1000 310/07 RMK AO2
14840KMKG MKG20000627055011006/27/00 05:50:31  5-MIN KMKG 271050Z 30007KT 10SM CLR 17/12 A3002 540 72 1000 310/07 RMK AO2 SLP164 T01720122
14840KMKG MKG20000627055511006/27/00 05:55:31  5-MIN KMKG 271055Z 30008KT 10SM CLR 17/12 A3002 530 72 1000 310/08 RMK AO2 SLP165 T01720122
14840KMKG MKG20000627060009306/27/00 06:00:31  5-MIN KMKG 271100Z 31008KT 10SM CLR 17/12 A3003 530 72 1000 310/08 RMK AO2
14840KMKG MKG20000627060509306/27/00 06:05:31  5-MIN KMKG 271105Z 31007KT 10SM CLR 17/12 A3003 530 72 1000 320/07 RMK AO2
14840KMKG MKG20000627061009306/27/00 06:10:31  5-MIN KMKG 271110Z 31008KT 10SM CLR 17/12 A3003 530 72 1000 320/08 RMK AO2
14840KMKG MKG20000627061509206/27/00 06:15:31  5-MIN KMKG 271115Z 32007KT 10SM CLR 17/12 A3003 530 72 900 320/07 RMK AO2
14840KMKG MKG20000627062009206/27/00 06:20:31  5-MIN KMKG 271120Z 32009KT 10SM CLR 17/12 A3004 520 72 900 320/09 RMK AO2
14840KMKG MKG20000627062509206/27/00 06:25:31  5-MIN KMKG 271125Z 32010KT 10SM CLR 17/12 A3004 520 72 900 320/10 RMK AO2
14840KMKG MKG20000627063009206/27/00 06:30:31  5-MIN KMKG 271130Z 32012KT 10SM CLR 17/12 A3004 520 69 900 320/12 RMK AO2
14840KMKG MKG20000627063509206/27/00 06:35:31  5-MIN KMKG 271135Z 33011KT 10SM CLR 17/12 A3004 520 69 900 330/11 RMK AO2
14840KMKG MKG20000627064009306/27/00 06:40:31  5-MIN KMKG 271140Z 32009KT 10SM CLR 18/12 A3004 520 67 1000 330/09 RMK AO2
14840KMKG MKG20000627064509306/27/00 06:45:31  5-MIN KMKG 271145Z 32009KT 10SM CLR 18/12 A3004 520 67 1000 320/09 RMK AO2
14840KMKG MKG20000627065012806/27/00 06:50:31  5-MIN KMKG 271150Z 33009KT 10SM CLR 18/12 A3005 510 67 1000 330/09 RMK AO2 SLP172 T01780117 10189 20161 53002
14840KMKG MKG20000627065512806/27/00 06:55:31  5-MIN KMKG 271155Z 32010KT 10SM CLR 18/12 A3005 510 69 1000 320/10 RMK AO2 SLP173 T01780122 10189 20161 53020
14840KMKG MKG20000627070009306/27/00 07:00:31  5-MIN KMKG 271200Z 33011KT 10SM CLR 18/12 A3005 510 67 1000 340/11 RMK AO2
14840KMKG MKG20000627070509306/27/00 07:05:31  5-MIN KMKG 271205Z 33010KT 10SM CLR 18/12 A3005 510 67 1000 330/10 RMK AO2
14840KMKG MKG20000627071009306/27/00 07:10:31  5-MIN KMKG 271210Z 33009KT 10SM CLR 18/12 A3005 510 67 1100 330/09 RMK AO2
14840KMKG MKG20000627071509306/27/00 07:15:31  5-MIN KMKG 271215Z 33009KT 10SM CLR 18/12 A3005 510 67 1100 330/09 RMK AO2
14840KMKG MKG20000627072009306/27/00 07:20:31  5-MIN KMKG 271220Z 32009KT 10SM CLR 18/12 A3005 510 67 1100 330/09 RMK AO2
14840KMKG MKG20000627072509306/27/00 07:25:31  5-MIN KMKG 271225Z 33008KT 10SM CLR 18/12 A3006 500 67 1100 340/08 RMK AO2
14840KMKG MKG20000627073009306/27/00 07:30:31  5-MIN KMKG 271230Z 33010KT 10SM CLR 18/12 A3006 500 67 1100 330/10 RMK AO2
14840KMKG MKG20000627073509306/27/00 07:35:31  5-MIN KMKG 271235Z 33009KT 10SM CLR 18/12 A3006 500 67 1100 340/09 RMK AO2
14840KMKG MKG20000627074009306/27/00 07:40:31  5-MIN KMKG 271240Z 33010KT 10SM CLR 18/12 A3006 500 67 1100 330/10 RMK AO2
14840KMKG MKG20000627074509306/27/00 07:45:31  5-MIN KMKG 271245Z 32008KT 10SM CLR 19/12 A3006 500 65 1100 320/08 RMK AO2
14840KMKG MKG20000627075011006/27/00 07:50:31  5-MIN KMKG 271250Z 32009KT 10SM CLR 19/12 A3006 500 65 1100 330/09 RMK AO2 SLP177 T01890122
14840KMKG MKG20000627075511006/27/00 07:55:31  5-MIN KMKG 271255Z 34006KT 10SM CLR 19/12 A3006 500 65 1100 340/06 RMK AO2 SLP178 T01890122
14840KMKG MKG20000627080009306/27/00 08:00:31  5-MIN KMKG 271300Z 32007KT 10SM CLR 19/12 A3007 500 65 1100 320/07 RMK AO2
14840KMKG MKG20000627080509306/27/00 08:05:31  5-MIN KMKG 271305Z 33007KT 10SM CLR 19/12 A3006 500 65 1100 340/07 RMK AO2
14840KMKG MKG20000627081009306/27/00 08:10:31  5-MIN KMKG 271310Z 35006KT 10SM CLR 19/12 A3006 500 62 1100 350/06 RMK AO2
14840KMKG MKG20000627081509306/27/00 08:15:31  5-MIN KMKG 271315Z 33007KT 10SM CLR 19/12 A3006 500 60 1200 340/07 RMK AO2
14840KMKG MKG20000627082009306/27/00 08:20:31  5-MIN KMKG 271320Z 35006KT 10SM CLR 20/12 A3007 490 60 1200 350/06 RMK AO2
14840KMKG MKG20000627082509306/27/00 08:25:31  5-MIN KMKG 271325Z 35007KT 10SM CLR 20/12 A3007 490 58 1200 360/07 RMK AO2
14840KMKG MKG20000627083009306/27/00 08:30:31  5-MIN KMKG 271330Z 36006KT 10SM CLR 20/12 A3007 490 58 1200 010/06 RMK AO2
14840KMKG MKG20000627083509306/27/00 08:35:31  5-MIN KMKG 271335Z 33007KT 10SM CLR 20/12 A3007 490 58 1200 330/07 RMK AO2
14840KMKG MKG20000627084009306/27/00 08:40:31  5-MIN KMKG 271340Z 32008KT 10SM CLR 20/12 A3007 490 58 1200 320/08 RMK AO2
14840KMKG MKG20000627084509306/27/00 08:45:31  5-MIN KMKG 271345Z 34006KT 10SM CLR 20/12 A3007 490 58 1200 350/06 RMK AO2
14840KMKG MKG20000627085011006/27/00 08:50:31  5-MIN KMKG 271350Z 32006KT 10SM CLR 20/11 A3008 490 56 1200 320/06 RMK AO2 SLP183 T02000111
14840KMKG MKG20000627085511006/27/00 08:55:31  5-MIN KMKG 271355Z 36006KT 10SM CLR 21/11 A3007 490 54 1300 360/06 RMK AO2 SLP183 T02060111
14840KMKG MKG20000627090009306/27/00 09:00:31  5-MIN KMKG 271400Z 32005KT 10SM CLR 20/11 A3008 490 54 1200 330/05 RMK AO2
14840KMKG MKG20000627090509306/27/00 09:05:31  5-MIN KMKG 271405Z VRB05KT 10SM CLR 21/11 A3008 490 54 1300 VRB/05 RMK AO2
14840KMKG MKG20000627091009306/27/00 09:10:31  5-MIN KMKG 271410Z VRB05KT 10SM CLR 21/11 A3008 480 54 1300 VRB/05 RMK AO2
14840KMKG MKG20000627091509306/27/00 09:15:31  5-MIN KMKG 271415Z 34006KT 10SM CLR 21/11 A3008 480 50 1300 340/06 RMK AO2
14840KMKG MKG20000627092009306/27/00 09:20:31  5-MIN KMKG 271420Z 35006KT 10SM CLR 21/11 A3008 480 52 1300 360/06 RMK AO2
14840KMKG MKG20000627092509306/27/00 09:25:31  5-MIN KMKG 271425Z 36005KT 10SM CLR 21/11 A3008 480 50 1300 360/05 RMK AO2
14840KMKG MKG20000627093009606/27/00 09:30:31  5-MIN KMKG 271430Z VRB06KT 10SM FEW038 21/12 A3008 480 54 1300 VRB/06 RMK AO2
14840KMKG MKG20000627093509606/27/00 09:35:31  5-MIN KMKG 271435Z 27007KT 10SM FEW038 21/14 A3008 480 65 1300 280/07 RMK AO2
14840KMKG MKG20000627094009606/27/00 09:40:31  5-MIN KMKG 271440Z 27006KT 10SM FEW038 21/14 A3008 480 65 1300 270/06 RMK AO2
14840KMKG MKG20000627094509606/27/00 09:45:31  5-MIN KMKG 271445Z 29007KT 10SM FEW038 21/14 A3008 480 65 1300 290/07 RMK AO2
14840KMKG MKG20000627095011906/27/00 09:50:31  5-MIN KMKG 271450Z 31005KT 10SM FEW038 21/13 A3008 480 63 1300 320/05 RMK AO2 SLP186 T02060133 53020
14840KMKG MKG20000627095511906/27/00 09:55:31  5-MIN KMKG 271455Z VRB05KT 10SM FEW038 21/13 A3008 480 61 1300 VRB/05 RMK AO2 SLP186 T02110133 51012
14840KMKG MKG20000627100009606/27/00 10:00:31  5-MIN KMKG 271500Z 27006KT 10SM FEW038 22/13 A3009 480 58 1400 270/06 RMK AO2
14840KMKG MKG20000627100509606/27/00 10:05:31  5-MIN KMKG 271505Z 27006KT 10SM FEW038 21/13 A3009 480 63 1300 270/06 RMK AO2
14840KMKG MKG20000627101009606/27/00 10:10:31  5-MIN KMKG 271510Z 28008KT 10SM FEW038 21/13 A3009 480 63 1300 290/08 RMK AO2
14840KMKG MKG20000627101509606/27/00 10:15:31  5-MIN KMKG 271515Z 26008KT 10SM FEW038 21/13 A3009 470 60 1300 260/08 RMK AO2
14840KMKG MKG20000627102009606/27/00 10:20:31  5-MIN KMKG 271520Z 26007KT 10SM FEW038 21/13 A3009 470 63 1300 270/07 RMK AO2
14840KMKG MKG20000627102509606/27/00 10:25:31  5-MIN KMKG 271525Z 28007KT 10SM FEW038 21/13 A3009 470 63 1300 280/07 RMK AO2
14840KMKG MKG20000627103009606/27/00 10:30:31  5-MIN KMKG 271530Z 26007KT 10SM FEW038 21/12 A3009 470 56 1300 260/07 RMK AO2
14840KMKG MKG20000627103509606/27/00 10:35:31  5-MIN KMKG 271535Z 27007KT 10SM FEW038 21/12 A3009 470 58 1300 280/07 RMK AO2
14840KMKG MKG20000627104009606/27/00 10:40:31  5-MIN KMKG 271540Z 26009KT 10SM FEW038 21/13 A3010 470 61 1300 260/09 RMK AO2
14840KMKG MKG20000627104509606/27/00 10:45:31  5-MIN KMKG 271545Z 26009KT 10SM FEW038 21/13 A3010 470 61 1300 260/09 RMK AO2
14840KMKG MKG20000627105011306/27/00 10:50:31  5-MIN KMKG 271550Z 28008KT 10SM FEW034 21/13 A3010 470 61 1300 280/08 RMK AO2 SLP190 T02110133
14840KMKG MKG20000627105511306/27/00 10:55:31  5-MIN KMKG 271555Z 27008KT 10SM FEW034 21/13 A3010 470 61 1300 270/08 RMK AO2 SLP190 T02110133
14840KMKG MKG20000627110009606/27/00 11:00:31  5-MIN KMKG 271600Z 26009KT 10SM FEW034 21/12 A3010 470 56 1300 260/09 RMK AO2
14840KMKG MKG20000627110509606/27/00 11:05:31  5-MIN KMKG 271605Z 26009KT 10SM FEW034 21/13 A3010 460 58 1300 270/09 RMK AO2
14840KMKG MKG20000627111009606/27/00 11:10:31  5-MIN KMKG 271610Z 28008KT 10SM FEW034 21/13 A3010 460 58 1300 280/08 RMK AO2
14840KMKG MKG20000627111509606/27/00 11:15:31  5-MIN KMKG 271615Z 27009KT 10SM FEW034 21/13 A3010 460 58 1300 280/09 RMK AO2
14840KMKG MKG20000627112009606/27/00 11:20:31  5-MIN KMKG 271620Z 28010KT 10SM FEW034 21/13 A3010 460 58 1300 290/10 RMK AO2
14840KMKG MKG20000627112509606/27/00 11:25:31  5-MIN KMKG 271625Z 27009KT 10SM FEW034 21/13 A3010 460 60 1300 280/09 RMK AO2
14840KMKG MKG20000627113009606/27/00 11:30:31  5-MIN KMKG 271630Z 28009KT 10SM FEW034 21/12 A3010 460 56 1300 290/09 RMK AO2
14840KMKG MKG20000627113509606/27/00 11:35:31  5-MIN KMKG 271635Z 27009KT 10SM FEW034 21/12 A3010 460 56 1300 270/09 RMK AO2
14840KMKG MKG20000627114009606/27/00 11:40:31  5-MIN KMKG 271640Z 26009KT 10SM FEW034 21/11 A3010 460 52 1300 270/09 RMK AO2
14840KMKG MKG20000627114509606/27/00 11:45:31  5-MIN KMKG 271645Z 26009KT 10SM FEW034 21/11 A3011 460 54 1300 270/09 RMK AO2
14840KMKG MKG20000627115011306/27/00 11:50:31  5-MIN KMKG 271650Z 26010KT 10SM FEW034 21/12 A3011 460 54 1300 270/10 RMK AO2 SLP194 T02110117
14840KMKG MKG20000627115511306/27/00 11:55:31  5-MIN KMKG 271655Z 25010KT 10SM FEW034 21/12 A3011 460 58 1300 260/10 RMK AO2 SLP194 T02060122
14840KMKG MKG20000627120009606/27/00 12:00:31  5-MIN KMKG 271700Z 27009KT 10SM FEW034 21/12 A3011 460 56 1300 270/09 RMK AO2
14840KMKG MKG20000627120509606/27/00 12:05:31  5-MIN KMKG 271705Z 28010KT 10SM FEW034 21/11 A3011 460 52 1300 280/10 RMK AO2
14840KMKG MKG20000627121009606/27/00 12:10:31  5-MIN KMKG 271710Z 29010KT 10SM FEW034 21/11 A3011 460 52 1300 300/10 RMK AO2
14840KMKG MKG20000627121509606/27/00 12:15:31  5-MIN KMKG 271715Z 29011KT 10SM FEW034 21/11 A3011 460 52 1300 290/11 RMK AO2
14840KMKG MKG20000627122009606/27/00 12:20:31  5-MIN KMKG 271720Z 29010KT 10SM FEW034 21/11 A3011 460 52 1300 290/10 RMK AO2
14840KMKG MKG20000627122509606/27/00 12:25:31  5-MIN KMKG 271725Z 28010KT 10SM FEW034 21/11 A3011 460 50 1300 280/10 RMK AO2
14840KMKG MKG20000627123009606/27/00 12:30:31  5-MIN KMKG 271730Z 29010KT 10SM FEW034 21/11 A3011 460 50 1300 290/10 RMK AO2
14840KMKG MKG20000627123509606/27/00 12:35:31  5-MIN KMKG 271735Z 27010KT 10SM FEW034 21/10 A3010 460 50 1300 270/10 RMK AO2
14840KMKG MKG20000627124009606/27/00 12:40:31  5-MIN KMKG 271740Z 29010KT 10SM FEW034 21/11 A3010 460 50 1300 300/10 RMK AO2
14840KMKG MKG20000627124509606/27/00 12:45:31  5-MIN KMKG 271745Z 27010KT 10SM FEW034 21/11 A3010 460 50 1300 270/10 RMK AO2
14840KMKG MKG20000627125013106/27/00 12:50:31  5-MIN KMKG 271750Z 30009KT 10SM FEW034 21/10 A3010 460 48 1300 300/09 RMK AO2 SLP193 T02110100 10217 20178 51012
14840KMKG MKG20000627125513106/27/00 12:55:31  5-MIN KMKG 271755Z 28012KT 10SM FEW034 21/11 A3010 460 50 1300 280/12 RMK AO2 SLP193 T02110106 10217 20178 50006
14840KMKG MKG20000627130009606/27/00 13:00:31  5-MIN KMKG 271800Z 27011KT 10SM FEW034 21/11 A3010 460 50 1300 270/11 RMK AO2
14840KMKG MKG20000627130509606/27/00 13:05:31  5-MIN KMKG 271805Z 28010KT 10SM FEW034 21/11 A3010 460 52 1300 290/10 RMK AO2
14840KMKG MKG20000627131009606/27/00 13:10:31  5-MIN KMKG 271810Z 27011KT 10SM FEW034 21/10 A3010 460 50 1300 280/11 RMK AO2
14840KMKG MKG20000627131509606/27/00 13:15:31  5-MIN KMKG 271815Z 27012KT 10SM FEW034 21/11 A3010 460 50 1300 270/12 RMK AO2
14840KMKG MKG20000627132009606/27/00 13:20:31  5-MIN KMKG 271820Z 28010KT 10SM FEW034 21/10 A3010 460 48 1300 280/10 RMK AO2
14840KMKG MKG20000627132509606/27/00 13:25:31  5-MIN KMKG 271825Z 28012KT 10SM FEW034 21/09 A3010 460 47 1300 280/12 RMK AO2
14840KMKG MKG20000627133010206/27/00 13:30:31  5-MIN KMKG 271830Z 27012G16KT 10SM FEW034 21/09 A3010 460 48 1300 270/12G16 RMK AO2
14840KMKG MKG20000627133509606/27/00 13:35:31  5-MIN KMKG 271835Z 30012KT 10SM FEW034 21/09 A3010 460 46 1300 300/12 RMK AO2
14840KMKG MKG20000627134009606/27/00 13:40:31  5-MIN KMKG 271840Z 27012KT 10SM FEW034 21/09 A3010 460 47 1300 280/12 RMK AO2
14840KMKG MKG20000627134509606/27/00 13:45:31  5-MIN KMKG 271845Z 29010KT 10SM FEW034 21/09 A3010 460 47 1300 290/10 RMK AO2
14840KMKG MKG20000627135011306/27/00 13:50:31  5-MIN KMKG 271850Z 30010KT 10SM FEW034 21/09 A3010 460 47 1300 310/10 RMK AO2 SLP191 T02110094
14840KMKG MKG20000627135511306/27/00 13:55:31  5-MIN KMKG 271855Z 30010KT 10SM FEW034 21/10 A3010 460 50 1300 300/10 RMK AO2 SLP192 T02060100
14840KMKG MKG20000627140009606/27/00 14:00:31  5-MIN KMKG 271900Z 29010KT 10SM FEW034 21/10 A3010 460 48 1300 300/10 RMK AO2
14840KMKG MKG20000627140511206/27/00 14:05:31  5-MIN KMKG 271905Z 29010KT 270V340 10SM FEW034 21/10 A3011 460 48 1300 300/10 270V340 RMK AO2
14840KMKG MKG20000627141009606/27/00 14:10:31  5-MIN KMKG 271910Z 27011KT 10SM FEW034 21/10 A3011 460 48 1300 280/11 RMK AO2
14840KMKG MKG20000627141509606/27/00 14:15:31  5-MIN KMKG 271915Z 28012KT 10SM FEW034 21/09 A3011 460 47 1300 280/12 RMK AO2
14840KMKG MKG20000627142009606/27/00 14:20:31  5-MIN KMKG 271920Z 30012KT 10SM FEW034 21/09 A3011 460 45 1300 300/12 RMK AO2
14840KMKG MKG20000627142511206/27/00 14:25:31  5-MIN KMKG 271925Z 29010KT 270V330 10SM FEW034 21/09 A3011 460 48 1300 300/10 270V330 RMK AO2
14840KMKG MKG20000627143009606/27/00 14:30:31  5-MIN KMKG 271930Z 29011KT 10SM FEW034 21/09 A3011 460 48 1300 290/11 RMK AO2
14840KMKG MKG20000627143509606/27/00 14:35:31  5-MIN KMKG 271935Z 29011KT 10SM FEW034 21/09 A3011 460 46 1300 300/11 RMK AO2
14840KMKG MKG20000627144009606/27/00 14:40:31  5-MIN KMKG 271940Z 30009KT 10SM FEW034 21/09 A3010 460 47 1300 300/09 RMK AO2
14840KMKG MKG20000627144509606/27/00 14:45:31  5-MIN KMKG 271945Z 29010KT 10SM FEW034 21/09 A3010 460 46 1300 300/10 RMK AO2
14840KMKG MKG20000627145011306/27/00 14:50:31  5-MIN KMKG 271950Z 30009KT 10SM FEW034 21/09 A3010 460 47 1300 300/09 RMK AO2 SLP192 T02110094
14840KMKG MKG20000627145512906/27/00 14:55:31  5-MIN KMKG 271955Z 30009KT 270V340 10SM FEW034 21/09 A3010 460 45 1300 310/09 270V340 RMK AO2 SLP192 T02110089
14840KMKG MKG20000627150011206/27/00 15:00:31  5-MIN KMKG 272000Z 30008KT 270V330 10SM FEW034 21/09 A3010 460 47 1300 300/08 270V330 RMK AO2
14840KMKG MKG20000627150509606/27/00 15:05:31  5-MIN KMKG 272005Z 28008KT 10SM FEW034 21/09 A3010 460 45 1300 280/08 RMK AO2
14840KMKG MKG20000627151009606/27/00 15:10:31  5-MIN KMKG 272010Z 27011KT 10SM FEW034 21/09 A3010 460 45 1300 280/11 RMK AO2
14840KMKG MKG20000627151509606/27/00 15:15:31  5-MIN KMKG 272015Z 26010KT 10SM FEW034 21/09 A3010 460 45 1300 260/10 RMK AO2
14840KMKG MKG20000627152009606/27/00 15:20:31  5-MIN KMKG 272020Z 27010KT 10SM FEW034 21/09 A3010 460 47 1300 280/10 RMK AO2
14840KMKG MKG20000627152509606/27/00 15:25:31  5-MIN KMKG 272025Z 28009KT 10SM FEW034 21/09 A3010 460 47 1300 290/09 RMK AO2
14840KMKG MKG20000627153009606/27/00 15:30:31  5-MIN KMKG 272030Z 28010KT 10SM FEW034 21/09 A3010 460 47 1300 280/10 RMK AO2
14840KMKG MKG20000627153509606/27/00 15:35:31  5-MIN KMKG 272035Z 27010KT 10SM FEW034 21/09 A3010 460 46 1300 270/10 RMK AO2
14840KMKG MKG20000627154009606/27/00 15:40:31  5-MIN KMKG 272040Z 26008KT 10SM FEW034 21/09 A3010 460 48 1300 270/08 RMK AO2
14840KMKG MKG20000627154509606/27/00 15:45:31  5-MIN KMKG 272045Z 30008KT 10SM FEW034 21/10 A3010 470 48 1300 310/08 RMK AO2
14840KMKG MKG20000627155011906/27/00 15:50:31  5-MIN KMKG 272050Z 29008KT 10SM FEW034 21/10 A3010 470 48 1300 290/08 RMK AO2 SLP190 T02110100 50006
14840KMKG MKG20000627155511906/27/00 15:55:31  5-MIN KMKG 272055Z 28007KT 10SM FEW055 21/10 A3010 470 48 1300 280/07 RMK AO2 SLP190 T02110100 58002
14840KMKG MKG20000627160009606/27/00 16:00:31  5-MIN KMKG 272100Z 28008KT 10SM FEW055 21/10 A3010 470 48 1300 290/08 RMK AO2
14840KMKG MKG20000627160509606/27/00 16:05:31  5-MIN KMKG 272105Z 29006KT 10SM FEW055 21/10 A3010 470 48 1300 290/06 RMK AO2
14840KMKG MKG20000627161009606/27/00 16:10:31  5-MIN KMKG 272110Z 27010KT 10SM FEW055 21/10 A3010 470 48 1300 270/10 RMK AO2
14840KMKG MKG20000627161509606/27/00 16:15:31  5-MIN KMKG 272115Z 29006KT 10SM FEW055 21/10 A3010 470 48 1300 300/06 RMK AO2
14840KMKG MKG20000627162009606/27/00 16:20:31  5-MIN KMKG 272120Z 28007KT 10SM FEW055 21/09 A3010 470 48 1300 280/07 RMK AO2
14840KMKG MKG20000627162509606/27/00 16:25:31  5-MIN KMKG 272125Z 29005KT 10SM FEW055 22/09 A3010 470 45 1400 290/05 RMK AO2
14840KMKG MKG20000627163009606/27/00 16:30:31  5-MIN KMKG 272130Z 30007KT 10SM FEW055 22/09 A3010 470 45 1400 300/07 RMK AO2
14840KMKG MKG20000627163509606/27/00 16:35:31  5-MIN KMKG 272135Z 29008KT 10SM FEW055 21/09 A3010 470 47 1300 300/08 RMK AO2
14840KMKG MKG20000627164009606/27/00 16:40:31  5-MIN KMKG 272140Z 31008KT 10SM FEW055 21/09 A3010 470 47 1300 320/08 RMK AO2
14840KMKG MKG20000627164509606/27/00 16:45:31  5-MIN KMKG 272145Z 27007KT 10SM FEW055 21/09 A3010 470 47 1300 270/07 RMK AO2
14840KMKG MKG20000627165011306/27/00 16:50:31  5-MIN KMKG 272150Z 28007KT 10SM FEW055 21/10 A3010 470 48 1300 280/07 RMK AO2 SLP190 T02110100
14840KMKG MKG20000627165511306/27/00 16:55:31  5-MIN KMKG 272155Z 29005KT 10SM FEW055 22/10 A3009 470 47 1400 300/05 RMK AO2 SLP189 T02170100
14840KMKG MKG20000627170009606/27/00 17:00:31  5-MIN KMKG 272200Z 26007KT 10SM FEW055 21/10 A3010 470 48 1300 270/07 RMK AO2
14840KMKG MKG20000627170511206/27/00 17:05:31  5-MIN KMKG 272205Z 29007KT 260V330 10SM FEW055 21/10 A3010 470 48 1300 300/07 260V330 RMK AO2
14840KMKG MKG20000627171009606/27/00 17:10:31  5-MIN KMKG 272210Z 26006KT 10SM FEW055 21/09 A3009 470 47 1300 270/06 RMK AO2
14840KMKG MKG20000627171509606/27/00 17:15:31  5-MIN KMKG 272215Z 29006KT 10SM FEW055 21/10 A3009 470 48 1300 300/06 RMK AO2
14840KMKG MKG20000627172009606/27/00 17:20:31  5-MIN KMKG 272220Z 32006KT 10SM FEW055 21/10 A3009 470 48 1300 320/06 RMK AO2
14840KMKG MKG20000627172509606/27/00 17:25:31  5-MIN KMKG 272225Z VRB05KT 10SM FEW055 22/10 A3009 470 47 1400 VRB/05 RMK AO2
14840KMKG MKG20000627173009606/27/00 17:30:31  5-MIN KMKG 272230Z 32005KT 10SM FEW055 22/10 A3009 470 47 1400 320/05 RMK AO2
14840KMKG MKG20000627173509606/27/00 17:35:31  5-MIN KMKG 272235Z 31007KT 10SM FEW055 22/10 A3009 470 47 1400 310/07 RMK AO2
14840KMKG MKG20000627174009606/27/00 17:40:31  5-MIN KMKG 272240Z 29005KT 10SM FEW055 21/10 A3009 480 48 1300 300/05 RMK AO2
14840KMKG MKG20000627174509606/27/00 17:45:31  5-MIN KMKG 272245Z 30006KT 10SM FEW055 21/10 A3009 470 48 1300 300/06 RMK AO2
14840KMKG MKG20000627175011306/27/00 17:50:31  5-MIN KMKG 272250Z 25006KT 10SM FEW055 21/10 A3009 480 48 1300 260/06 RMK AO2 SLP187 T02110100
14840KMKG MKG20000627175511306/27/00 17:55:31  5-MIN KMKG 272255Z 28007KT 10SM FEW055 21/10 A3009 480 48 1300 290/07 RMK AO2 SLP186 T02110100
14840KMKG MKG20000627180009606/27/00 18:00:31  5-MIN KMKG 272300Z 28005KT 10SM FEW055 21/10 A3009 480 48 1300 280/05 RMK AO2
14840KMKG MKG20000627180509606/27/00 18:05:31  5-MIN KMKG 272305Z 26007KT 10SM FEW055 21/11 A3009 480 50 1300 260/07 RMK AO2
14840KMKG MKG20000627181009606/27/00 18:10:31  5-MIN KMKG 272310Z 26006KT 10SM FEW055 21/11 A3009 480 52 1300 260/06 RMK AO2
14840KMKG MKG20000627181509606/27/00 18:15:31  5-MIN KMKG 272315Z 27006KT 10SM FEW055 21/10 A3009 480 50 1300 270/06 RMK AO2
14840KMKG MKG20000627182009606/27/00 18:20:31  5-MIN KMKG 272320Z 25006KT 10SM FEW055 21/10 A3009 480 50 1300 250/06 RMK AO2
14840KMKG MKG20000627182509606/27/00 18:25:31  5-MIN KMKG 272325Z 27005KT 10SM FEW055 21/11 A3009 480 52 1300 270/05 RMK AO2
14840KMKG MKG20000627183009606/27/00 18:30:31  5-MIN KMKG 272330Z 29005KT 10SM FEW055 21/10 A3009 470 50 1300 290/05 RMK AO2
14840KMKG MKG20000627183509606/27/00 18:35:31  5-MIN KMKG 272335Z 26005KT 10SM FEW055 20/11 A3009 480 54 1200 260/05 RMK AO2
14840KMKG MKG20000627184009606/27/00 18:40:31  5-MIN KMKG 272340Z 27005KT 10SM FEW055 21/11 A3009 480 52 1300 280/05 RMK AO2
14840KMKG MKG20000627184509606/27/00 18:45:31  5-MIN KMKG 272345Z 26005KT 10SM FEW055 20/11 A3008 480 54 1200 260/05 RMK AO2
14840KMKG MKG20000627185013106/27/00 18:50:31  5-MIN KMKG 272350Z 26006KT 10SM FEW055 20/10 A3008 480 52 1200 270/06 RMK AO2 SLP186 T02000100 10217 20200 58002
14840KMKG MKG20000627185513106/27/00 18:55:31  5-MIN KMKG 272355Z 26005KT 10SM FEW055 20/10 A3008 480 52 1200 260/05 RMK AO2 SLP185 T02000100 10217 20200 58005
14840KMKG MKG20000627190009306/27/00 19:00:31  5-MIN KMKG 280000Z 25004KT 10SM CLR 20/10 A3008 480 52 1200 260/04 RMK AO2
14840KMKG MKG20000627190509306/27/00 19:05:31  5-MIN KMKG 280005Z 24004KT 10SM CLR 19/10 A3008 480 54 1200 240/04 RMK AO2
14840KMKG MKG20000627191009306/27/00 19:10:31  5-MIN KMKG 280010Z 24005KT 10SM CLR 19/11 A3008 480 56 1200 240/05 RMK AO2
14840KMKG MKG20000627191509306/27/00 19:15:31  5-MIN KMKG 280015Z 24005KT 10SM CLR 19/10 A3008 480 54 1200 240/05 RMK AO2
14840KMKG MKG20000627192009306/27/00 19:20:31  5-MIN KMKG 280020Z 24005KT 10SM CLR 19/11 A3008 480 58 1100 240/05 RMK AO2
14840KMKG MKG20000627192509306/27/00 19:25:31  5-MIN KMKG 280025Z 23005KT 10SM CLR 19/11 A3008 480 58 1100 240/05 RMK AO2
14840KMKG MKG20000627193009306/27/00 19:30:31  5-MIN KMKG 280030Z 23006KT 10SM CLR 19/11 A3008 480 58 1100 240/06 RMK AO2
14840KMKG MKG20000627193509306/27/00 19:35:31  5-MIN KMKG 280035Z 24005KT 10SM CLR 18/11 A3008 480 60 1000 240/05 RMK AO2
14840KMKG MKG20000627194009306/27/00 19:40:31  5-MIN KMKG 280040Z 23005KT 10SM CLR 18/11 A3008 480 60 1000 240/05 RMK AO2
14840KMKG MKG20000627194509306/27/00 19:45:31  5-MIN KMKG 280045Z 23005KT 10SM CLR 18/11 A3008 480 60 1000 230/05 RMK AO2
14840KMKG MKG20000627195011006/27/00 19:50:31  5-MIN KMKG 280050Z 23005KT 10SM CLR 18/11 A3008 480 62 1000 230/05 RMK AO2 SLP186 T01780106
14840KMKG MKG20000627195511006/27/00 19:55:31  5-MIN KMKG 280055Z 23005KT 10SM CLR 18/11 A3008 480 64 1000 230/05 RMK AO2 SLP185 T01780111
14840KMKG MKG20000627200009306/27/00 20:00:31  5-MIN KMKG 280100Z 23005KT 10SM CLR 18/11 A3008 480 64 1000 230/05 RMK AO2
14840KMKG MKG20000627200509206/27/00 20:05:31  5-MIN KMKG 280105Z 23005KT 10SM CLR 17/11 A3008 480 67 900 230/05 RMK AO2
14840KMKG MKG20000627201009206/27/00 20:10:31  5-MIN KMKG 280110Z 22005KT 10SM CLR 17/11 A3008 480 67 900 230/05 RMK AO2
14840KMKG MKG20000627201509206/27/00 20:15:31  5-MIN KMKG 280115Z 23005KT 10SM CLR 17/12 A3008 480 72 800 230/05 RMK AO2
14840KMKG MKG20000627202009206/27/00 20:20:31  5-MIN KMKG 280120Z 23004KT 10SM CLR 17/12 A3008 480 72 800 230/04 RMK AO2
14840KMKG MKG20000627202509206/27/00 20:25:31  5-MIN KMKG 280125Z 23004KT 10SM CLR 17/12 A3008 480 72 800 230/04 RMK AO2
14840KMKG MKG20000627203009206/27/00 20:30:31  5-MIN KMKG 280130Z 23004KT 10SM CLR 16/12 A3008 480 75 800 230/04 RMK AO2
14840KMKG MKG20000627203509206/27/00 20:35:31  5-MIN KMKG 280135Z 23004KT 10SM CLR 16/12 A3008 480 75 800 230/04 RMK AO2
14840KMKG MKG20000627204009206/27/00 20:40:31  5-MIN KMKG 280140Z 23003KT 10SM CLR 16/12 A3008 480 75 800 240/03 RMK AO2
14840KMKG MKG20000627204509206/27/00 20:45:31  5-MIN KMKG 280145Z 23003KT 10SM CLR 17/12 A3008 480 72 800 230/03 RMK AO2
14840KMKG MKG20000627205010906/27/00 20:50:31  5-MIN KMKG 280150Z 00000KT 10SM CLR 17/12 A3008 480 72 800 000/00 RMK AO2 SLP186 T01670117
14840KMKG MKG20000627205510906/27/00 20:55:31  5-MIN KMKG 280155Z 21003KT 10SM CLR 16/12 A3008 480 75 800 220/03 RMK AO2 SLP186 T01610117
14840KMKG MKG20000627210009206/27/00 21:00:31  5-MIN KMKG 280200Z 22003KT 10SM CLR 16/12 A3009 480 77 700 220/03 RMK AO2
14840KMKG MKG20000627210509206/27/00 21:05:31  5-MIN KMKG 280205Z 22004KT 10SM CLR 16/12 A3009 480 80 700 220/04 RMK AO2
14840KMKG MKG20000627211009206/27/00 21:10:31  5-MIN KMKG 280210Z 21004KT 10SM CLR 15/12 A3008 480 83 600 210/04 RMK AO2
14840KMKG MKG20000627211509206/27/00 21:15:31  5-MIN KMKG 280215Z 21003KT 10SM CLR 15/12 A3009 480 83 600 210/03 RMK AO2
14840KMKG MKG20000627212009206/27/00 21:20:31  5-MIN KMKG 280220Z 21004KT 10SM CLR 16/12 A3009 480 80 700 220/04 RMK AO2
14840KMKG MKG20000627212509206/27/00 21:25:31  5-MIN KMKG 280225Z 21004KT 10SM CLR 15/12 A3009 470 83 600 220/04 RMK AO2
14840KMKG MKG20000627213009206/27/00 21:30:31  5-MIN KMKG 280230Z 22004KT 10SM CLR 15/12 A3009 470 83 600 220/04 RMK AO2
14840KMKG MKG20000627213509206/27/00 21:35:31  5-MIN KMKG 280235Z 23005KT 10SM CLR 14/12 A3009 470 83 600 230/05 RMK AO2
14840KMKG MKG20000627214009206/27/00 21:40:31  5-MIN KMKG 280240Z 22004KT 10SM CLR 14/12 A3009 470 86 500 230/04 RMK AO2
14840KMKG MKG20000627214509206/27/00 21:45:31  5-MIN KMKG 280245Z 22004KT 10SM CLR 14/12 A3010 470 83 600 230/04 RMK AO2
14840KMKG MKG20000627215011506/27/00 21:50:31  5-MIN KMKG 280250Z 22005KT 10SM CLR 14/12 A3010 460 86 500 230/05 RMK AO2 SLP191 T01390117 58005
14840KMKG MKG20000627215511506/27/00 21:55:31  5-MIN KMKG 280255Z 22004KT 10SM CLR 14/12 A3010 460 86 500 230/04 RMK AO2 SLP192 T01390117 53006
14840KMKG MKG20000627220009206/27/00 22:00:31  5-MIN KMKG 280300Z 21004KT 10SM CLR 14/12 A3010 460 86 500 220/04 RMK AO2
14840KMKG MKG20000627220509206/27/00 22:05:31  5-MIN KMKG 280305Z 21004KT 10SM CLR 14/12 A3010 460 83 500 210/04 RMK AO2
14840KMKG MKG20000627221009206/27/00 22:10:31  5-MIN KMKG 280310Z 21003KT 10SM CLR 15/12 A3010 460 80 600 210/03 RMK AO2
14840KMKG MKG20000627221509206/27/00 22:15:31  5-MIN KMKG 280315Z 20003KT 10SM CLR 15/12 A3010 460 80 600 200/03 RMK AO2
14840KMKG MKG20000627222009206/27/00 22:20:31  5-MIN KMKG 280320Z 20003KT 10SM CLR 15/12 A3010 460 80 600 200/03 RMK AO2
14840KMKG MKG20000627222509206/27/00 22:25:31  5-MIN KMKG 280325Z 00000KT 10SM CLR 15/12 A3010 460 80 600 000/00 RMK AO2
14840KMKG MKG20000627223009206/27/00 22:30:31  5-MIN KMKG 280330Z 00000KT 10SM CLR 15/12 A3010 470 80 600 000/00 RMK AO2
14840KMKG MKG20000627223509206/27/00 22:35:31  5-MIN KMKG 280335Z 00000KT 10SM CLR 15/12 A3010 470 80 600 000/00 RMK AO2
14840KMKG MKG20000627224009206/27/00 22:40:31  5-MIN KMKG 280340Z 00000KT 10SM CLR 15/12 A3010 470 80 600 000/00 RMK AO2
14840KMKG MKG20000627224509206/27/00 22:45:31  5-MIN KMKG 280345Z 00000KT 10SM CLR 14/12 A3010 470 83 600 000/00 RMK AO2
14840KMKG MKG20000627225010906/27/00 22:50:31  5-MIN KMKG 280350Z 00000KT 10SM CLR 14/12 A3009 470 83 600 000/00 RMK AO2 SLP190 T01440117
14840KMKG MKG20000627225510906/27/00 22:55:31  5-MIN KMKG 280355Z 00000KT 10SM CLR 14/11 A3009 470 80 600 000/00 RMK AO2 SLP189 T01440111
14840KMKG MKG20000627230009206/27/00 23:00:31  5-MIN KMKG 280400Z 00000KT 10SM CLR 14/11 A3009 470 83 500 000/00 RMK AO2
14840KMKG MKG20000627230509206/27/00 23:05:31  5-MIN KMKG 280405Z 00000KT 10SM CLR 14/11 A3009 470 83 500 000/00 RMK AO2
14840KMKG MKG20000627231009206/27/00 23:10:31  5-MIN KMKG 280410Z 00000KT 10SM CLR 14/11 A3009 470 83 500 000/00 RMK AO2
14840KMKG MKG20000627231509206/27/00 23:15:31  5-MIN KMKG 280415Z 00000KT 10SM CLR 13/11 A3009 480 86 400 000/00 RMK AO2
14840KMKG MKG20000627232009206/27/00 23:20:31  5-MIN KMKG 280420Z 00000KT 10SM CLR 14/11 A3009 480 83 500 000/00 RMK AO2
14840KMKG MKG20000627232509206/27/00 23:25:31  5-MIN KMKG 280425Z 00000KT 10SM CLR 13/11 A3009 480 86 400 000/00 RMK AO2
14840KMKG MKG20000627233009206/27/00 23:30:31  5-MIN KMKG 280430Z 00000KT 10SM CLR 14/11 A3009 470 83 500 000/00 RMK AO2
14840KMKG MKG20000627233509206/27/00 23:35:31  5-MIN KMKG 280435Z 00000KT 10SM CLR 13/11 A3009 470 86 400 000/00 RMK AO2
14840KMKG MKG20000627234009206/27/00 23:40:31  5-MIN KMKG 280440Z 00000KT 10SM CLR 13/11 A3009 470 89 400 000/00 RMK AO2
14840KMKG MKG20000627234509206/27/00 23:45:31  5-MIN KMKG 280445Z 00000KT 10SM CLR 12/11 A3009 480 93 300 000/00 RMK AO2
14840KMKG MKG20000627235011906/27/00 23:50:31  5-MIN KMKG 280450Z 00000KT 10SM CLR 13/11 A3009 480 89 400 000/00 RMK AO2 SLP187 T01280111 402170122
14840KMKG MKG20000627235511906/27/00 23:55:31  5-MIN KMKG 280455Z 00000KT 10SM CLR 13/11 A3009 470 86 400 000/00 RMK AO2 SLP188 T01330111 402170122
14840KMKG MKG20000628000009206/28/00 00:00:31  5-MIN KMKG 280500Z 00000KT 10SM CLR 13/11 A3009 470 89 400 000/00 RMK AO2
14840KMKG MKG20000628000509206/28/00 00:05:31  5-MIN KMKG 280505Z 00000KT 10SM CLR 13/11 A3009 480 89 400 000/00 RMK AO2
14840KMKG MKG20000628001009206/28/00 00:10:31  5-MIN KMKG 280510Z 00000KT 10SM CLR 13/11 A3009 470 89 400 000/00 RMK AO2
14840KMKG MKG20000628001509206/28/00 00:15:31  5-MIN KMKG 280515Z 00000KT 10SM CLR 13/11 A3009 470 89 400 000/00 RMK AO2
14840KMKG MKG20000628002009206/28/00 00:20:31  5-MIN KMKG 280520Z 00000KT 10SM CLR 12/11 A3009 470 89 300 000/00 RMK AO2
14840KMKG MKG20000628002509206/28/00 00:25:31  5-MIN KMKG 280525Z 00000KT 10SM CLR 12/11 A3009 470 89 300 000/00 RMK AO2
14840KMKG MKG20000628003009206/28/00 00:30:31  5-MIN KMKG 280530Z 00000KT 10SM CLR 13/11 A3010 470 89 400 000/00 RMK AO2
14840KMKG MKG20000628003509206/28/00 00:35:31  5-MIN KMKG 280535Z 00000KT 10SM CLR 13/11 A3010 470 89 400 000/00 RMK AO2
14840KMKG MKG20000628004009206/28/00 00:40:31  5-MIN KMKG 280540Z 00000KT 10SM CLR 13/11 A3010 470 89 400 000/00 RMK AO2
14840KMKG MKG20000628004509206/28/00 00:45:31  5-MIN KMKG 280545Z 00000KT 10SM CLR 13/11 A3010 470 89 400 000/00 RMK AO2
14840KMKG MKG20000628005012706/28/00 00:50:31  5-MIN KMKG 280550Z 00000KT 10SM CLR 13/11 A3010 470 89 400 000/00 RMK AO2 SLP191 T01280111 10200 20122 53006
14840KMKG MKG20000628005512706/28/00 00:55:31  5-MIN KMKG 280555Z 00000KT 10SM CLR 12/11 A3010 470 93 200 000/00 RMK AO2 SLP192 T01170106 10200 20117 55001
14840KMKG MKG20000628010009206/28/00 01:00:31  5-MIN KMKG 280600Z 00000KT 10SM CLR 12/11 A3010 470 89 300 000/00 RMK AO2
14840KMKG MKG20000628010509206/28/00 01:05:31  5-MIN KMKG 280605Z 00000KT 10SM CLR 12/11 A3010 470 89 300 000/00 RMK AO2
14840KMKG MKG20000628011009206/28/00 01:10:31  5-MIN KMKG 280610Z 00000KT 10SM CLR 12/11 A3009 470 93 300 000/00 RMK AO2
14840KMKG MKG20000628011509206/28/00 01:15:31  5-MIN KMKG 280615Z 00000KT 10SM CLR 12/11 A3009 470 93 300 000/00 RMK AO2
14840KMKG MKG20000628012009206/28/00 01:20:31  5-MIN KMKG 280620Z 00000KT 10SM CLR 12/11 A3009 470 93 300 000/00 RMK AO2
14840KMKG MKG20000628012509206/28/00 01:25:31  5-MIN KMKG 280625Z 21003KT 10SM CLR 12/11 A3010 470 93 300 210/03 RMK AO2
14840KMKG MKG20000628013009206/28/00 01:30:31  5-MIN KMKG 280630Z 22004KT 10SM CLR 12/11 A3010 470 93 300 220/04 RMK AO2
14840KMKG MKG20000628013509206/28/00 01:35:31  5-MIN KMKG 280635Z 22005KT 10SM CLR 12/11 A3010 470 89 300 220/05 RMK AO2
14840KMKG MKG20000628014009206/28/00 01:40:31  5-MIN KMKG 280640Z 22006KT 10SM CLR 13/11 A3010 470 89 400 220/06 RMK AO2
14840KMKG MKG20000628014509206/28/00 01:45:31  5-MIN KMKG 280645Z 22006KT 10SM CLR 13/11 A3009 470 89 400 220/06 RMK AO2
14840KMKG MKG20000628015011406/28/00 01:50:31  5-MIN KMKG 280650Z 22006KT 10SM FEW075 13/11 A3009 470 89 400 230/06 RMK AO2 SLP189 T01280111 $
14840KMKG MKG20000628015511406/28/00 01:55:31  5-MIN KMKG 280655Z 22005KT 10SM FEW075 13/11 A3009 480 89 400 230/05 RMK AO2 SLP189 T01280111 $
14840KMKG MKG20000628020009406/28/00 02:00:31  5-MIN KMKG 280700Z 22006KT 10SM CLR 13/12 A3009 470 93 400 230/06 RMK AO2 $
14840KMKG MKG20000628020509406/28/00 02:05:31  5-MIN KMKG 280705Z 22005KT 10SM CLR 13/12 A3009 480 89 400 220/05 RMK AO2 $
14840KMKG MKG20000628021009406/28/00 02:10:31  5-MIN KMKG 280710Z 22006KT 10SM CLR 13/12 A3009 480 89 400 230/06 RMK AO2 $
14840KMKG MKG20000628021509406/28/00 02:15:31  5-MIN KMKG 280715Z 23006KT 10SM CLR 13/12 A3009 480 89 400 230/06 RMK AO2 $
14840KMKG MKG20000628022009406/28/00 02:20:31  5-MIN KMKG 280720Z 23006KT 10SM CLR 13/12 A3009 480 93 400 230/06 RMK AO2 $
14840KMKG MKG20000628022509406/28/00 02:25:31  5-MIN KMKG 280725Z 22005KT 10SM CLR 13/12 A3009 480 93 400 230/05 RMK AO2 $
14840KMKG MKG20000628023009406/28/00 02:30:31  5-MIN KMKG 280730Z 21004KT 10SM CLR 13/12 A3008 480 93 400 210/04 RMK AO2 $
14840KMKG MKG20000628023509406/28/00 02:35:31  5-MIN KMKG 280735Z 21004KT 10SM CLR 14/12 A3008 480 90 500 210/04 RMK AO2 $
14840KMKG MKG20000628024009706/28/00 02:40:31  5-MIN KMKG 280740Z 21005KT 10SM FEW065 14/12 A3008 480 90 500 210/05 RMK AO2 $
14840KMKG MKG20000628024509706/28/00 02:45:31  5-MIN KMKG 280745Z 21004KT 10SM SCT065 14/12 A3008 480 90 500 210/04 RMK AO2 $
14840KMKG MKG20000628025011406/28/00 02:50:31  5-MIN KMKG 280750Z 22004KT 10SM FEW065 14/12 A3008 480 86 500 220/04 RMK AO2 SLP186 T01390117 $
14840KMKG MKG20000628025511406/28/00 02:55:31  5-MIN KMKG 280755Z 22005KT 10SM SCT065 14/12 A3008 480 90 500 230/05 RMK AO2 SLP186 T01390122 $
14840KMKG MKG20000628030009706/28/00 03:00:31  5-MIN KMKG 280800Z 23005KT 10SM SCT070 14/12 A3008 480 86 500 230/05 RMK AO2 $
14840KMKG MKG20000628030509706/28/00 03:05:31  5-MIN KMKG 280805Z 23006KT 10SM BKN070 14/12 A3008 480 86 500 230/06 RMK AO2 $
14840KMKG MKG20000628031009706/28/00 03:10:31  5-MIN KMKG 280810Z 23007KT 10SM BKN070 14/12 A3008 480 83 600 230/07 RMK AO2 $
14840KMKG MKG20000628031509706/28/00 03:15:31  5-MIN KMKG 280815Z 23007KT 10SM SCT070 15/12 A3008 480 83 600 230/07 RMK AO2 $
14840KMKG MKG20000628032009706/28/00 03:20:31  5-MIN KMKG 280820Z 23007KT 10SM SCT070 15/12 A3008 490 83 600 230/07 RMK AO2 $
14840KMKG MKG20000628032509706/28/00 03:25:31  5-MIN KMKG 280825Z 23007KT 10SM BKN070 15/12 A3008 490 83 600 230/07 RMK AO2 $
14840KMKG MKG20000628033009706/28/00 03:30:31  5-MIN KMKG 280830Z 23007KT 10SM SCT070 15/12 A3008 490 83 600 230/07 RMK AO2 $
14840KMKG MKG20000628033509706/28/00 03:35:31  5-MIN KMKG 280835Z 23007KT 10SM SCT070 15/12 A3008 490 83 600 230/07 RMK AO2 $
14840KMKG MKG20000628034009706/28/00 03:40:31  5-MIN KMKG 280840Z 22006KT 10SM FEW070 15/12 A3008 490 80 600 230/06 RMK AO2 $
14840KMKG MKG20000628034509706/28/00 03:45:31  5-MIN KMKG 280845Z 23006KT 10SM FEW070 14/12 A3007 490 83 600 230/06 RMK AO2 $
14840KMKG MKG20000628035012006/28/00 03:50:31  5-MIN KMKG 280850Z 23006KT 10SM FEW070 14/12 A3007 490 83 600 240/06 RMK AO2 SLP182 T01440117 55001 $
14840KMKG MKG20000628035512006/28/00 03:55:31  5-MIN KMKG 280855Z 22006KT 10SM FEW070 14/12 A3007 490 83 600 230/06 RMK AO2 SLP181 T01440117 58009 $
14840KMKG MKG20000628040009406/28/00 04:00:31  5-MIN KMKG 280900Z 23006KT 10SM CLR 14/12 A3007 490 86 500 230/06 RMK AO2 $
14840KMKG MKG20000628040509406/28/00 04:05:31  5-MIN KMKG 280905Z 22007KT 10SM CLR 14/12 A3007 490 86 500 220/07 RMK AO2 $
14840KMKG MKG20000628041009406/28/00 04:10:31  5-MIN KMKG 280910Z 22006KT 10SM CLR 14/12 A3007 490 83 600 220/06 RMK AO2 $
14840KMKG MKG20000628041509206/28/00 04:15:31  5-MIN KMKG 280915Z 21005KT 10SM CLR 14/12 A3006 500 83 600 210/05 RMK AO2
14840KMKG MKG20000628042009206/28/00 04:20:31  5-MIN KMKG 280920Z 22004KT 10SM CLR 14/12 A3007 500 83 600 220/04 RMK AO2
14840KMKG MKG20000628042509206/28/00 04:25:31  5-MIN KMKG 280925Z 22005KT 10SM CLR 14/11 A3007 500 83 500 220/05 RMK AO2
14840KMKG MKG20000628043009506/28/00 04:30:31  5-MIN KMKG 280930Z 22004KT 10SM FEW070 14/12 A3007 490 83 600 220/04 RMK AO2
14840KMKG MKG20000628043509506/28/00 04:35:31  5-MIN KMKG 280935Z 22004KT 10SM FEW070 14/12 A3007 490 83 600 220/04 RMK AO2
14840KMKG MKG20000628044009506/28/00 04:40:31  5-MIN KMKG 280940Z 22004KT 10SM FEW070 14/12 A3007 490 83 600 220/04 RMK AO2
14840KMKG MKG20000628044509506/28/00 04:45:31  5-MIN KMKG 280945Z 21003KT 10SM FEW070 13/11 A3007 490 86 400 210/03 RMK AO2
14840KMKG MKG20000628045011206/28/00 04:50:31  5-MIN KMKG 280950Z 00000KT 10SM FEW070 13/11 A3007 490 86 400 000/00 RMK AO2 SLP181 T01280106
14840KMKG MKG20000628045511206/28/00 04:55:31  5-MIN KMKG 280955Z 00000KT 10SM FEW070 13/11 A3007 490 89 400 000/00 RMK AO2 SLP182 T01280111
14840KMKG MKG20000628050009506/28/00 05:00:31  5-MIN KMKG 281000Z 00000KT 10SM FEW070 13/11 A3007 490 89 400 000/00 RMK AO2
14840KMKG MKG20000628050509506/28/00 05:05:31  5-MIN KMKG 281005Z 00000KT 10SM FEW070 14/12 A3007 490 86 500 000/00 RMK AO2
14840KMKG MKG20000628051009506/28/00 05:10:31  5-MIN KMKG 281010Z 00000KT 10SM FEW070 13/12 A3007 490 89 400 000/00 RMK AO2
14840KMKG MKG20000628051509506/28/00 05:15:31  5-MIN KMKG 281015Z 00000KT 10SM FEW070 13/11 A3007 490 89 400 000/00 RMK AO2
14840KMKG MKG20000628052009506/28/00 05:20:31  5-MIN KMKG 281020Z 00000KT 10SM FEW070 12/11 A3007 490 93 300 000/00 RMK AO2
14840KMKG MKG20000628052509506/28/00 05:25:31  5-MIN KMKG 281025Z 00000KT 10SM FEW070 12/11 A3007 490 93 200 000/00 RMK AO2
14840KMKG MKG20000628053009506/28/00 05:30:31  5-MIN KMKG 281030Z 00000KT 10SM FEW070 12/11 A3007 490 89 300 000/00 RMK AO2
14840KMKG MKG20000628053509506/28/00 05:35:31  5-MIN KMKG 281035Z 00000KT 10SM FEW070 12/11 A3007 490 93 300 000/00 RMK AO2
14840KMKG MKG20000628054009206/28/00 05:40:31  5-MIN KMKG 281040Z 00000KT 10SM CLR 13/12 A3007 500 93 400 000/00 RMK AO2
14840KMKG MKG20000628054509206/28/00 05:45:31  5-MIN KMKG 281045Z 00000KT 10SM CLR 13/12 A3006 500 93 500 000/00 RMK AO2
14840KMKG MKG20000628055010906/28/00 05:50:31  5-MIN KMKG 281050Z 00000KT 10SM CLR 14/12 A3007 490 90 500 000/00 RMK AO2 SLP181 T01390122
14840KMKG MKG20000628055510906/28/00 05:55:31  5-MIN KMKG 281055Z 00000KT 10SM CLR 14/12 A3007 490 90 500 000/00 RMK AO2 SLP181 T01390122
14840KMKG MKG20000628060009206/28/00 06:00:31  5-MIN KMKG 281100Z 13003KT 10SM CLR 14/12 A3007 490 90 500 130/03 RMK AO2
14840KMKG MKG20000628060509206/28/00 06:05:31  5-MIN KMKG 281105Z 00000KT 10SM CLR 13/12 A3007 490 93 500 000/00 RMK AO2
14840KMKG MKG20000628061009206/28/00 06:10:31  5-MIN KMKG 281110Z 00000KT 10SM CLR 14/12 A3007 490 90 500 000/00 RMK AO2
14840KMKG MKG20000628061509206/28/00 06:15:31  5-MIN KMKG 281115Z 11003KT 10SM CLR 14/13 A3007 490 93 500 120/03 RMK AO2
14840KMKG MKG20000628062009506/28/00 06:20:31  5-MIN KMKG 281120Z 12003KT 10SM FEW070 14/13 A3007 490 93 500 120/03 RMK AO2
14840KMKG MKG20000628062509506/28/00 06:25:31  5-MIN KMKG 281125Z 00000KT 10SM FEW070 14/12 A3007 490 90 500 000/00 RMK AO2
14840KMKG MKG20000628063009506/28/00 06:30:31  5-MIN KMKG 281130Z 00000KT 10SM FEW070 14/12 A3007 490 90 500 000/00 RMK AO2
14840KMKG MKG20000628063509506/28/00 06:35:31  5-MIN KMKG 281135Z 12004KT 10SM FEW070 13/12 A3007 490 93 400 130/04 RMK AO2
14840KMKG MKG20000628064009506/28/00 06:40:31  5-MIN KMKG 281140Z 12003KT 10SM FEW070 13/12 A3007 490 93 400 120/03 RMK AO2
14840KMKG MKG20000628064509506/28/00 06:45:31  5-MIN KMKG 281145Z 11004KT 10SM FEW070 14/13 A3007 490 90 600 120/04 RMK AO2
14840KMKG MKG20000628065013006/28/00 06:50:31  5-MIN KMKG 281150Z 12003KT 10SM FEW070 15/13 A3007 490 90 600 120/03 RMK AO2 SLP182 T01500133 10150 20117 58009
14840KMKG MKG20000628065513006/28/00 06:55:31  5-MIN KMKG 281155Z 00000KT 10SM FEW070 15/13 A3007 490 90 600 000/00 RMK AO2 SLP183 T01500133 10150 20117 53002
14840KMKG MKG20000628070009206/28/00 07:00:31  5-MIN KMKG 281200Z 00000KT 10SM CLR 16/13 A3007 490 86 700 000/00 RMK AO2
14840KMKG MKG20000628070509206/28/00 07:05:31  5-MIN KMKG 281205Z 00000KT 10SM CLR 16/14 A3007 490 86 800 000/00 RMK AO2
14840KMKG MKG20000628071009206/28/00 07:10:31  5-MIN KMKG 281210Z 00000KT 10SM CLR 17/14 A3007 490 86 800 000/00 RMK AO2
14840KMKG MKG20000628071509206/28/00 07:15:31  5-MIN KMKG 281215Z 00000KT 10SM CLR 17/14 A3007 490 86 800 000/00 RMK AO2
14840KMKG MKG20000628072009306/28/00 07:20:31  5-MIN KMKG 281220Z 19004KT 10SM CLR 18/14 A3007 490 81 1000 190/04 RMK AO2
14840KMKG MKG20000628072509306/28/00 07:25:31  5-MIN KMKG 281225Z 21006KT 10SM CLR 18/15 A3007 490 83 1000 210/06 RMK AO2
14840KMKG MKG20000628073009306/28/00 07:30:31  5-MIN KMKG 281230Z 23005KT 10SM CLR 18/15 A3007 490 83 1000 240/05 RMK AO2
14840KMKG MKG20000628073509306/28/00 07:35:31  5-MIN KMKG 281235Z 23005KT 10SM CLR 18/15 A3007 490 83 1000 230/05 RMK AO2
14840KMKG MKG20000628074009306/28/00 07:40:31  5-MIN KMKG 281240Z 23005KT 10SM CLR 18/15 A3007 490 81 1000 230/05 RMK AO2
14840KMKG MKG20000628074509306/28/00 07:45:31  5-MIN KMKG 281245Z 22005KT 10SM CLR 18/15 A3007 500 81 1000 230/05 RMK AO2
14840KMKG MKG20000628075011006/28/00 07:50:31  5-MIN KMKG 281250Z 22006KT 10SM CLR 18/15 A3007 490 81 1000 220/06 RMK AO2 SLP180 T01830150
14840KMKG MKG20000628075511006/28/00 07:55:31  5-MIN KMKG 281255Z 22006KT 10SM CLR 18/15 A3007 490 81 1000 220/06 RMK AO2 SLP180 T01830150
14840KMKG MKG20000628080009306/28/00 08:00:31  5-MIN KMKG 281300Z 22005KT 10SM CLR 18/15 A3007 500 81 1000 230/05 RMK AO2
14840KMKG MKG20000628080509306/28/00 08:05:31  5-MIN KMKG 281305Z 20005KT 10SM CLR 19/16 A3007 490 81 1100 210/05 RMK AO2
14840KMKG MKG20000628081009306/28/00 08:10:31  5-MIN KMKG 281310Z VRB04KT 10SM CLR 19/16 A3007 500 81 1100 VRB/04 RMK AO2
14840KMKG MKG20000628081509306/28/00 08:15:31  5-MIN KMKG 281315Z 23005KT 10SM CLR 19/15 A3007 490 78 1100 230/05 RMK AO2
14840KMKG MKG20000628082009306/28/00 08:20:31  5-MIN KMKG 281320Z 21004KT 10SM CLR 19/14 A3007 500 75 1100 210/04 RMK AO2
14840KMKG MKG20000628082509306/28/00 08:25:31  5-MIN KMKG 281325Z 26004KT 10SM CLR 19/15 A3007 490 78 1100 260/04 RMK AO2
14840KMKG MKG20000628083009306/28/00 08:30:31  5-MIN KMKG 281330Z 24005KT 10SM CLR 19/15 A3007 490 78 1100 250/05 RMK AO2
14840KMKG MKG20000628083509306/28/00 08:35:31  5-MIN KMKG 281335Z 23006KT 10SM CLR 19/15 A3007 490 78 1100 230/06 RMK AO2
14840KMKG MKG20000628084009306/28/00 08:40:31  5-MIN KMKG 281340Z VRB05KT 10SM CLR 19/15 A3007 500 75 1200 VRB/05 RMK AO2
14840KMKG MKG20000628084509306/28/00 08:45:31  5-MIN KMKG 281345Z 21006KT 10SM CLR 19/15 A3006 500 78 1100 220/06 RMK AO2
14840KMKG MKG20000628085011006/28/00 08:50:31  5-MIN KMKG 281350Z 22005KT 10SM CLR 19/15 A3006 500 78 1100 230/05 RMK AO2 SLP179 T01890150
14840KMKG MKG20000628085511006/28/00 08:55:31  5-MIN KMKG 281355Z 24005KT 10SM CLR 19/15 A3006 500 75 1200 240/05 RMK AO2 SLP178 T01940150
14840KMKG MKG20000628090009306/28/00 09:00:31  5-MIN KMKG 281400Z 23005KT 10SM CLR 19/15 A3006 500 78 1100 240/05 RMK AO2
14840KMKG MKG20000628090509306/28/00 09:05:31  5-MIN KMKG 281405Z 22006KT 10SM CLR 19/15 A3006 500 75 1200 230/06 RMK AO2
14840KMKG MKG20000628091009306/28/00 09:10:31  5-MIN KMKG 281410Z 22006KT 10SM CLR 19/15 A3006 500 75 1200 230/06 RMK AO2
14840KMKG MKG20000628091509306/28/00 09:15:31  5-MIN KMKG 281415Z 23006KT 10SM CLR 19/15 A3006 500 78 1100 230/06 RMK AO2
14840KMKG MKG20000628092009306/28/00 09:20:31  5-MIN KMKG 281420Z 22006KT 10SM CLR 19/15 A3006 500 78 1100 230/06 RMK AO2
14840KMKG MKG20000628092509606/28/00 09:25:31  5-MIN KMKG 281425Z 24005KT 10SM FEW095 19/15 A3006 500 78 1100 240/05 RMK AO2
14840KMKG MKG20000628093009606/28/00 09:30:31  5-MIN KMKG 281430Z 22006KT 10SM SCT095 18/15 A3006 500 81 1000 230/06 RMK AO2
14840KMKG MKG20000628093509606/28/00 09:35:31  5-MIN KMKG 281435Z 22006KT 10SM SCT095 19/15 A3006 500 78 1100 220/06 RMK AO2
14840KMKG MKG20000628094009606/28/00 09:40:31  5-MIN KMKG 281440Z 23006KT 10SM BKN095 18/15 A3006 500 81 1100 230/06 RMK AO2
14840KMKG MKG20000628094509606/28/00 09:45:31  5-MIN KMKG 281445Z 24006KT 10SM BKN095 18/15 A3006 500 81 1000 240/06 RMK AO2
14840KMKG MKG20000628095011906/28/00 09:50:31  5-MIN KMKG 281450Z 23005KT 10SM BKN095 18/15 A3006 500 81 1000 240/05 RMK AO2 SLP179 T01830150 53002
14840KMKG MKG20000628095511906/28/00 09:55:31  5-MIN KMKG 281455Z 25006KT 10SM BKN095 18/15 A3006 500 81 1100 250/06 RMK AO2 SLP178 T01830150 56005
14840KMKG MKG20000628100009606/28/00 10:00:31  5-MIN KMKG 281500Z 25007KT 10SM SCT095 18/16 A3006 500 84 1000 250/07 RMK AO2
14840KMKG MKG20000628100509606/28/00 10:05:31  5-MIN KMKG 281505Z 25006KT 10SM FEW095 18/15 A3006 500 83 1000 250/06 RMK AO2
14840KMKG MKG20000628101009606/28/00 10:10:31  5-MIN KMKG 281510Z 24005KT 10SM FEW095 18/15 A3006 500 83 1000 250/05 RMK AO2
14840KMKG MKG20000628101509306/28/00 10:15:31  5-MIN KMKG 281515Z 26005KT 10SM CLR 18/14 A3006 500 81 1000 260/05 RMK AO2
14840KMKG MKG20000628102009606/28/00 10:20:31  5-MIN KMKG 281520Z 26005KT 10SM FEW095 18/14 A3006 500 81 1000 270/05 RMK AO2
14840KMKG MKG20000628102509606/28/00 10:25:31  5-MIN KMKG 281525Z 30007KT 10SM FEW095 18/14 A3006 500 78 1000 300/07 RMK AO2
14840KMKG MKG20000628103009606/28/00 10:30:31  5-MIN KMKG 281530Z 29006KT 10SM FEW095 18/14 A3006 500 81 1000 300/06 RMK AO2
14840KMKG MKG20000628103509606/28/00 10:35:31  5-MIN KMKG 281535Z 28006KT 10SM FEW095 18/14 A3006 500 78 1000 290/06 RMK AO2
14840KMKG MKG20000628104009606/28/00 10:40:31  5-MIN KMKG 281540Z 28004KT 10SM FEW095 18/14 A3006 500 78 1000 290/04 RMK AO2
14840KMKG MKG20000628104509606/28/00 10:45:31  5-MIN KMKG 281545Z VRB04KT 10SM FEW095 18/14 A3006 500 78 1000 VRB/04 RMK AO2
14840KMKG MKG20000628105011306/28/00 10:50:31  5-MIN KMKG 281550Z 32006KT 10SM FEW075 18/14 A3006 500 75 1000 320/06 RMK AO2 SLP179 T01830139
14840KMKG MKG20000628105512906/28/00 10:55:31  5-MIN KMKG 281555Z 31008KT 10SM -RA FEW075 18/14 A3006 500 75 1000 310/08 RMK AO2 RAB53 SLP179 P0000 T01830139
14840KMKG MKG20000628110010606/28/00 11:00:31  5-MIN KMKG 281600Z 33009KT 10SM -RA FEW075 18/14 A3006 500 75 1000 330/09 RMK AO2 P0000
14840KMKG MKG20000628110510606/28/00 11:05:31  5-MIN KMKG 281605Z 34007KT 10SM -RA FEW075 19/14 A3006 500 72 1100 350/07 RMK AO2 P0000
14840KMKG MKG20000628111010606/28/00 11:10:31  5-MIN KMKG 281610Z 34007KT 10SM -RA FEW075 19/14 A3006 500 72 1100 340/07 RMK AO2 P0000
14840KMKG MKG20000628111510606/28/00 11:15:31  5-MIN KMKG 281615Z 32007KT 10SM -RA FEW075 19/14 A3006 500 75 1100 330/07 RMK AO2 P0000
14840KMKG MKG20000628112010306/28/00 11:20:31  5-MIN KMKG 281620Z 34007KT 10SM -RA CLR 19/14 A3006 500 75 1100 350/07 RMK AO2 P0000
14840KMKG MKG20000628112510606/28/00 11:25:31  5-MIN KMKG 281625Z 33008KT 10SM -RA FEW060 19/15 A3006 500 78 1100 340/08 RMK AO2 P0000
14840KMKG MKG20000628113010606/28/00 11:30:31  5-MIN KMKG 281630Z 32007KT 10SM -RA FEW050 18/15 A3006 500 81 1000 320/07 RMK AO2 P0000
14840KMKG MKG20000628113510606/28/00 11:35:31  5-MIN KMKG 281635Z 35007KT 10SM -RA FEW050 18/14 A3006 500 78 1000 350/07 RMK AO2 P0000
14840KMKG MKG20000628114011306/28/00 11:40:31  5-MIN KMKG 281640Z 35007KT 10SM -RA FEW041 SCT085 18/14 A3006 500 75 1000 360/07 RMK AO2 P0000
14840KMKG MKG20000628114511306/28/00 11:45:31  5-MIN KMKG 281645Z 36007KT 10SM -RA FEW041 SCT085 18/14 A3006 500 75 1000 360/07 RMK AO2 P0000
14840KMKG MKG20000628115012306/28/00 11:50:31  5-MIN KMKG 281650Z 35006KT 10SM -RA FEW041 18/14 A3006 500 75 1000 350/06 RMK AO2 SLP180 P0000 T01830139
14840KMKG MKG20000628115512306/28/00 11:55:31  5-MIN KMKG 281655Z 35007KT 10SM -RA FEW085 18/14 A3006 500 75 1000 350/07 RMK AO2 SLP179 P0000 T01830139
14840KMKG MKG20000628120010606/28/00 12:00:31  5-MIN KMKG 281700Z 35007KT 10SM -RA FEW085 19/14 A3006 500 72 1100 360/07 RMK AO2 P0000
14840KMKG MKG20000628120510306/28/00 12:05:31  5-MIN KMKG 281705Z 35006KT 10SM -RA CLR 19/14 A3005 510 72 1100 360/06 RMK AO2 P0000
14840KMKG MKG20000628121010506/28/00 12:10:31  5-MIN KMKG 281710Z 35005KT 10SM CLR 19/14 A3005 510 72 1100 350/05 RMK AO2 RAE07 P0000
14840KMKG MKG20000628121510506/28/00 12:15:31  5-MIN KMKG 281715Z 02007KT 10SM CLR 19/14 A3005 510 72 1100 020/07 RMK AO2 RAE07 P0000
14840KMKG MKG20000628122010506/28/00 12:20:31  5-MIN KMKG 281720Z 02006KT 10SM CLR 19/14 A3005 510 72 1100 030/06 RMK AO2 RAE07 P0000
14840KMKG MKG20000628122510806/28/00 12:25:31  5-MIN KMKG 281725Z 04006KT 10SM FEW095 19/13 A3005 510 70 1100 050/06 RMK AO2 RAE07 P0000
14840KMKG MKG20000628123010806/28/00 12:30:31  5-MIN KMKG 281730Z 03005KT 10SM FEW095 19/13 A3005 510 70 1100 030/05 RMK AO2 RAE07 P0000
14840KMKG MKG20000628123510806/28/00 12:35:31  5-MIN KMKG 281735Z 03004KT 10SM FEW095 19/13 A3004 520 70 1100 040/04 RMK AO2 RAE07 P0000
14840KMKG MKG20000628124010806/28/00 12:40:31  5-MIN KMKG 281740Z VRB03KT 10SM FEW095 19/14 A3004 520 72 1100 VRB/03 RMK AO2 RAE07 P0000
14840KMKG MKG20000628124510806/28/00 12:45:31  5-MIN KMKG 281745Z 07004KT 10SM FEW095 19/13 A3004 520 70 1100 080/04 RMK AO2 RAE07 P0000
14840KMKG MKG20000628125014906/28/00 12:50:31  5-MIN KMKG 281750Z 00000KT 10SM FEW095 19/13 A3004 520 70 1100 000/00 RMK AO2 RAE07 SLP171 P0000 60000 T01890133 10194 20156 56005
14840KMKG MKG20000628125514606/28/00 12:55:31  5-MIN KMKG 281755Z 08003KT 10SM CLR 19/13 A3004 520 70 1100 080/03 RMK AO2 RAE07 SLP171 P0000 60000 T01890133 10194 20156 58008
14840KMKG MKG20000628130009306/28/00 13:00:31  5-MIN KMKG 281800Z 07004KT 10SM CLR 19/13 A3003 530 70 1100 080/04 RMK AO2
14840KMKG MKG20000628130510906/28/00 13:05:31  5-MIN KMKG 281805Z 09004KT 10SM -RA CLR 19/13 A3003 530 70 1100 100/04 RMK AO2 RAB03 P0000
14840KMKG MKG20000628131011206/28/00 13:10:31  5-MIN KMKG 281810Z 00000KT 10SM -RA FEW095 19/13 A3003 530 67 1100 000/00 RMK AO2 RAB03 P0000
14840KMKG MKG20000628131511106/28/00 13:15:31  5-MIN KMKG 281815Z 12004KT 10SM FEW080 19/13 A3003 530 67 1200 120/04 RMK AO2 RAB03E12 P0000
14840KMKG MKG20000628132011106/28/00 13:20:31  5-MIN KMKG 281820Z 00000KT 10SM FEW085 19/13 A3003 530 70 1200 000/00 RMK AO2 RAB03E12 P0000
14840KMKG MKG20000628132511106/28/00 13:25:31  5-MIN KMKG 281825Z 06003KT 10SM SCT085 19/13 A3002 540 70 1200 060/03 RMK AO2 RAB03E12 P0000
14840KMKG MKG20000628133011106/28/00 13:30:31  5-MIN KMKG 281830Z 12004KT 10SM BKN085 19/14 A3002 540 70 1200 130/04 RMK AO2 RAB03E12 P0000
14840KMKG MKG20000628133511106/28/00 13:35:31  5-MIN KMKG 281835Z 00000KT 10SM BKN080 19/13 A3002 540 70 1200 000/00 RMK AO2 RAB03E12 P0000
14840KMKG MKG20000628134011106/28/00 13:40:31  5-MIN KMKG 281840Z 00000KT 10SM BKN085 19/13 A3002 540 67 1200 000/00 RMK AO2 RAB03E12 P0000
14840KMKG MKG20000628134511106/28/00 13:45:31  5-MIN KMKG 281845Z 12003KT 10SM BKN080 19/13 A3002 540 67 1200 120/03 RMK AO2 RAB03E12 P0000
14840KMKG MKG20000628135012806/28/00 13:50:31  5-MIN KMKG 281850Z 00000KT 10SM BKN080 19/13 A3002 540 67 1200 000/00 RMK AO2 RAB03E12 SLP165 P0000 T01940133
14840KMKG MKG20000628135513506/28/00 13:55:31  5-MIN KMKG 281855Z 00000KT 10SM -RA BKN080 20/13 A3002 540 65 1300 000/00 RMK AO2 RAB03E12B55 SLP164 P0000 T02000133
14840KMKG MKG20000628140010606/28/00 14:00:31  5-MIN KMKG 281900Z 19005KT 10SM -RA BKN080 20/13 A3002 540 65 1300 190/05 RMK AO2 P0000
14840KMKG MKG20000628140510606/28/00 14:05:31  5-MIN KMKG 281905Z 19005KT 10SM -RA BKN080 20/13 A3001 540 63 1300 200/05 RMK AO2 P0000
14840KMKG MKG20000628141011306/28/00 14:10:31  5-MIN KMKG 281910Z 20005KT 10SM -RA FEW033 OVC080 19/12 A3001 550 60 1200 200/05 RMK AO2 P0000
14840KMKG MKG20000628141511306/28/00 14:15:31  5-MIN KMKG 281915Z 21005KT 10SM -RA FEW033 OVC075 19/12 A3001 550 60 1200 210/05 RMK AO2 P0000
14840KMKG MKG20000628142011506/28/00 14:20:31  5-MIN KMKG 281920Z 23005KT 10SM FEW033 OVC075 19/12 A3001 550 62 1200 230/05 RMK AO2 RAE19 P0000
14840KMKG MKG20000628142510806/28/00 14:25:31  5-MIN KMKG 281925Z 23003KT 10SM OVC075 19/11 A3001 550 60 1200 230/03 RMK AO2 RAE19 P0000
14840KMKG MKG20000628143010606/28/00 14:30:31  5-MIN KMKG 281930Z 00000KT 10SM -RA OVC070 19/11 A3001 550 60 1200 000/00 RMK AO2 P0000
14840KMKG MKG20000628143510606/28/00 14:35:31  5-MIN KMKG 281935Z 25004KT 10SM -RA OVC070 19/12 A3001 550 62 1200 260/04 RMK AO2 P0000
14840KMKG MKG20000628144010606/28/00 14:40:31  5-MIN KMKG 281940Z 25006KT 10SM -RA OVC065 18/12 A3001 550 67 1100 260/06 RMK AO2 P0000
14840KMKG MKG20000628144510606/28/00 14:45:31  5-MIN KMKG 281945Z 26004KT 10SM -RA OVC065 18/12 A3001 550 65 1100 270/04 RMK AO2 P0000
14840KMKG MKG20000628145012306/28/00 14:50:31  5-MIN KMKG 281950Z 26004KT 10SM -RA OVC065 18/12 A3001 550 67 1100 270/04 RMK AO2 SLP160 P0000 T01830122
14840KMKG MKG20000628145512506/28/00 14:55:31  5-MIN KMKG 281955Z 00000KT 10SM OVC065 18/12 A3000 550 65 1100 000/00 RMK AO2 RAE51 SLP160 P0000 T01830117
14840KMKG MKG20000628150009606/28/00 15:00:31  5-MIN KMKG 282000Z 25003KT 10SM OVC065 18/12 A3000 550 65 1100 260/03 RMK AO2
14840KMKG MKG20000628150509606/28/00 15:05:31  5-MIN KMKG 282005Z 00000KT 10SM OVC065 18/12 A3000 550 67 1100 000/00 RMK AO2
14840KMKG MKG20000628151009606/28/00 15:10:31  5-MIN KMKG 282010Z 00000KT 10SM OVC065 18/11 A3000 560 62 1100 000/00 RMK AO2
14840KMKG MKG20000628151509606/28/00 15:15:31  5-MIN KMKG 282015Z 00000KT 10SM OVC065 18/11 A3000 560 62 1100 000/00 RMK AO2
14840KMKG MKG20000628152009606/28/00 15:20:31  5-MIN KMKG 282020Z 00000KT 10SM OVC065 18/11 A2999 560 62 1100 000/00 RMK AO2
14840KMKG MKG20000628152509606/28/00 15:25:31  5-MIN KMKG 282025Z 00000KT 10SM OVC065 18/11 A2999 560 62 1100 000/00 RMK AO2
14840KMKG MKG20000628153009606/28/00 15:30:31  5-MIN KMKG 282030Z 00000KT 10SM OVC065 18/11 A2999 560 62 1100 000/00 RMK AO2
14840KMKG MKG20000628153509606/28/00 15:35:31  5-MIN KMKG 282035Z 21003KT 10SM OVC065 18/12 A2999 560 65 1100 210/03 RMK AO2
14840KMKG MKG20000628154011206/28/00 15:40:31  5-MIN KMKG 282040Z 00000KT 10SM -RA OVC065 18/12 A2999 560 67 1100 000/00 RMK AO2 RAB37 P0000
14840KMKG MKG20000628154511206/28/00 15:45:31  5-MIN KMKG 282045Z 22006KT 10SM -RA OVC060 18/12 A2999 560 67 1100 220/06 RMK AO2 RAB37 P0000
14840KMKG MKG20000628155014106/28/00 15:50:31  5-MIN KMKG 282050Z 22004KT 10SM -RA OVC060 18/13 A2999 570 70 1100 220/04 RMK AO2 RAB37 SLP155 P0000 60000 T01830128 58008
14840KMKG MKG20000628155514106/28/00 15:55:31  5-MIN KMKG 282055Z 22005KT 10SM -RA OVC060 18/12 A2999 570 67 1100 220/05 RMK AO2 RAB37 SLP155 P0000 60000 T01830122 56015
14840KMKG MKG20000628160010606/28/00 16:00:31  5-MIN KMKG 282100Z 23004KT 10SM -RA OVC055 18/13 A2999 570 70 1100 230/04 RMK AO2 P0000
14840KMKG MKG20000628160511306/28/00 16:05:31  5-MIN KMKG 282105Z 23008KT 10SM -RA BKN049 OVC060 18/12 A2999 570 69 1100 230/08 RMK AO2 P0000
14840KMKG MKG20000628161011306/28/00 16:10:31  5-MIN KMKG 282110Z VRB04KT 10SM -RA BKN049 OVC060 18/12 A2998 570 69 1100 VRB/04 RMK AO2 P0000
14840KMKG MKG20000628161512006/28/00 16:15:31  5-MIN KMKG 282115Z 23009KT 10SM -RA SCT036 BKN049 OVC060 17/12 A2998 570 72 1000 230/09 RMK AO2 P0000
14840KMKG MKG20000628162012006/28/00 16:20:31  5-MIN KMKG 282120Z 26006KT 10SM -RA FEW034 BKN043 OVC050 17/12 A2998 580 69 1000 260/06 RMK AO2 P0000
14840KMKG MKG20000628162512006/28/00 16:25:31  5-MIN KMKG 282125Z 26005KT 10SM -RA FEW034 BKN043 OVC050 17/12 A2998 580 72 1000 260/05 RMK AO2 P0000
14840KMKG MKG20000628163011306/28/00 16:30:31  5-MIN KMKG 282130Z 28005KT 10SM -RA BKN041 OVC050 17/12 A2998 580 72 1000 290/05 RMK AO2 P0000
14840KMKG MKG20000628163511306/28/00 16:35:31  5-MIN KMKG 282135Z 29005KT 10SM -RA BKN041 OVC048 17/12 A2998 580 72 1000 290/05 RMK AO2 P0000
14840KMKG MKG20000628164011306/28/00 16:40:31  5-MIN KMKG 282140Z 31003KT 10SM -RA BKN041 OVC049 17/13 A2997 580 75 1000 320/03 RMK AO2 P0000
14840KMKG MKG20000628164511306/28/00 16:45:31  5-MIN KMKG 282145Z 31003KT 10SM -RA BKN041 OVC049 17/13 A2997 580 75 1000 320/03 RMK AO2 P0000
14840KMKG MKG20000628165012506/28/00 16:50:31  5-MIN KMKG 282150Z 00000KT 10SM OVC045 17/12 A2997 580 72 1000 000/00 RMK AO2 RAE46 SLP149 P0000 T01720122
14840KMKG MKG20000628165512506/28/00 16:55:31  5-MIN KMKG 282155Z 00000KT 10SM OVC045 17/12 A2997 580 72 1000 000/00 RMK AO2 RAE46 SLP149 P0000 T01720122
14840KMKG MKG20000628170009606/28/00 17:00:31  5-MIN KMKG 282200Z 00000KT 10SM OVC045 17/13 A2997 590 75 1000 000/00 RMK AO2
14840KMKG MKG20000628170509606/28/00 17:05:31  5-MIN KMKG 282205Z 20004KT 10SM OVC045 17/13 A2997 580 75 1000 210/04 RMK AO2
14840KMKG MKG20000628171009606/28/00 17:10:31  5-MIN KMKG 282210Z 20004KT 10SM OVC045 17/13 A2997 590 75 1000 200/04 RMK AO2
14840KMKG MKG20000628171511806/28/00 17:15:31  5-MIN KMKG 282215Z 21004KT 7SM -RA FEW032 OVC045 17/13 A2997 590 75 1000 220/04 RMK AO2 RAB15 P0000
14840KMKG MKG20000628172011806/28/00 17:20:31  5-MIN KMKG 282220Z 26004KT 6SM -RA SCT032 OVC045 17/13 A2996 590 80 1000 260/04 RMK AO2 RAB15 P0000
14840KMKG MKG20000628172511806/28/00 17:25:31  5-MIN KMKG 282225Z 24003KT 7SM -RA SCT032 OVC045 17/13 A2996 590 80 1000 250/03 RMK AO2 RAB15 P0001
14840KMKG MKG20000628173011806/28/00 17:30:31  5-MIN KMKG 282230Z 00000KT 10SM FEW032 OVC045 17/13 A2996 590 80 1000 000/00 RMK AO2 RAB15E29 P0001
14840KMKG MKG20000628173512506/28/00 17:35:31  5-MIN KMKG 282235Z 00000KT 10SM FEW032 SCT044 OVC050 17/13 A2996 600 80 1000 000/00 RMK AO2 RAB15E29 P0001
14840KMKG MKG20000628174012506/28/00 17:40:31  5-MIN KMKG 282240Z 00000KT 10SM FEW032 SCT044 OVC050 17/13 A2996 600 77 1000 000/00 RMK AO2 RAB15E29 P0001
14840KMKG MKG20000628174512506/28/00 17:45:31  5-MIN KMKG 282245Z 00000KT 10SM FEW038 BKN047 OVC055 17/13 A2996 600 78 1000 000/00 RMK AO2 RAB15E29 P0001
14840KMKG MKG20000628175013506/28/00 17:50:31  5-MIN KMKG 282250Z 00000KT 10SM BKN047 OVC055 17/13 A2996 600 78 1000 000/00 RMK AO2 RAB15E29 SLP144 P0001 T01720133
14840KMKG MKG20000628175514206/28/00 17:55:31  5-MIN KMKG 282255Z 00000KT 10SM FEW029 BKN047 OVC055 17/13 A2996 600 78 1000 000/00 RMK AO2 RAB15E29 SLP144 P0001 T01720133
14840KMKG MKG20000628180011006/28/00 18:00:31  5-MIN KMKG 282300Z 28003KT 10SM SCT027 BKN045 OVC055 17/13 A2996 600 78 1000 280/03 RMK AO2
14840KMKG MKG20000628180512506/28/00 18:05:31  5-MIN KMKG 282305Z 31005KT 3SM -RA FEW016 BKN027 OVC055 17/14 A2996 590 83 1000 320/05 RMK AO2 RAB02 P0001
14840KMKG MKG20000628181014006/28/00 18:10:31  5-MIN KMKG 282310Z 30004KT 1 3/4SM RA BR FEW020 BKN029 OVC046 16/14 A2996 590 86 900 310/04 RMK AO2 TWR VIS 6 RAB02 P0002
14840KMKG MKG20000628181512606/28/00 18:15:31  5-MIN KMKG 282315Z 29004KT 4SM RA BR FEW020 BKN029 OVC046 16/14 A2996 590 90 800 300/04 RMK AO2 RAB02 P0003
14840KMKG MKG20000628182012006/28/00 18:20:31  5-MIN KMKG 282320Z 32007KT 4SM -RA BR FEW020 OVC027 16/14 A2996 600 93 800 320/07 RMK AO2 RAB02 P0004
14840KMKG MKG20000628182511906/28/00 18:25:31  5-MIN KMKG 282325Z 31005KT 3SM RA BR FEW020 OVC027 16/14 A2995 600 90 800 320/05 RMK AO2 RAB02 P0005
14840KMKG MKG20000628183012006/28/00 18:30:31  5-MIN KMKG 282330Z 32006KT 5SM -RA BR FEW020 OVC027 16/14 A2995 600 90 800 320/06 RMK AO2 RAB02 P0005
14840KMKG MKG20000628183511706/28/00 18:35:31  5-MIN KMKG 282335Z 34006KT 10SM BKN027 OVC032 16/14 A2995 600 90 900 350/06 RMK AO2 RAB02E35 P0005
14840KMKG MKG20000628184011006/28/00 18:40:31  5-MIN KMKG 282340Z 35005KT 10SM OVC027 16/14 A2995 600 93 800 350/05 RMK AO2 RAB02E35 P0005
14840KMKG MKG20000628184511006/28/00 18:45:31  5-MIN KMKG 282345Z 34006KT 10SM OVC027 16/14 A2995 600 93 900 350/06 RMK AO2 RAB02E35 P0005
14840KMKG MKG20000628185015806/28/00 18:50:31  5-MIN KMKG 282350Z 33003KT 10SM BKN027 OVC035 16/14 A2995 610 90 900 330/03 RMK AO2 RAB02E35 SLP140 P0005 60006 T01610144 10200 20156 56015
14840KMKG MKG20000628185516506/28/00 18:55:31  5-MIN KMKG 282355Z 00000KT 10SM BKN027 BKN037 OVC047 16/14 A2994 610 90 900 000/00 RMK AO2 RAB02E35 SLP140 P0005 60006 T01610144 10200 20156 56015
14840KMKG MKG20000628190010906/28/00 19:00:31  5-MIN KMKG 290000Z 00000KT 10SM SCT027 BKN031 OVC047 16/14 A2994 610 90 900 000/00 RMK AO2
14840KMKG MKG20000628190510906/28/00 19:05:31  5-MIN KMKG 290005Z 00000KT 10SM BKN027 BKN031 OVC047 16/14 A2994 610 90 900 000/00 RMK AO2
14840KMKG MKG20000628191010906/28/00 19:10:31  5-MIN KMKG 290010Z 00000KT 10SM BKN027 BKN031 OVC047 16/14 A2994 610 90 900 000/00 RMK AO2
14840KMKG MKG20000628191510906/28/00 19:15:31  5-MIN KMKG 290015Z 00000KT 10SM SCT022 BKN026 OVC047 16/14 A2995 610 90 900 000/00 RMK AO2
14840KMKG MKG20000628192010906/28/00 19:20:31  5-MIN KMKG 290020Z 34004KT 10SM BKN022 BKN026 OVC047 16/14 A2995 600 90 900 340/04 RMK AO2
14840KMKG MKG20000628192510906/28/00 19:25:31  5-MIN KMKG 290025Z 32004KT 10SM BKN022 BKN026 OVC031 16/14 A2995 600 90 900 330/04 RMK AO2
14840KMKG MKG20000628193010206/28/00 19:30:31  5-MIN KMKG 290030Z 32004KT 10SM BKN022 OVC026 16/14 A2995 600 90 900 320/04 RMK AO2
14840KMKG MKG20000628193509506/28/00 19:35:31  5-MIN KMKG 290035Z 29003KT 10SM OVC022 16/14 A2995 600 90 900 290/03 RMK AO2
14840KMKG MKG20000628194009506/28/00 19:40:31  5-MIN KMKG 290040Z 29003KT 10SM OVC022 16/14 A2995 600 90 900 290/03 RMK AO2
14840KMKG MKG20000628194510206/28/00 19:45:31  5-MIN KMKG 290045Z 00000KT 10SM BKN022 OVC048 16/14 A2995 600 90 900 000/00 RMK AO2
14840KMKG MKG20000628195011906/28/00 19:50:31  5-MIN KMKG 290050Z 30003KT 10SM BKN022 BKN048 16/14 A2995 600 90 900 310/03 RMK AO2 SLP141 T01610144
14840KMKG MKG20000628195511906/28/00 19:55:31  5-MIN KMKG 290055Z 28003KT 10SM BKN022 BKN048 16/14 A2995 600 90 900 290/03 RMK AO2 SLP141 T01610144
14840KMKG MKG20000628200010906/28/00 20:00:31  5-MIN KMKG 290100Z 00000KT 10SM SCT022 BKN034 OVC045 16/14 A2995 600 90 900 000/00 RMK AO2
14840KMKG MKG20000628200510906/28/00 20:05:31  5-MIN KMKG 290105Z 00000KT 10SM SCT022 BKN034 BKN095 16/14 A2995 610 93 900 000/00 RMK AO2
14840KMKG MKG20000628201010906/28/00 20:10:31  5-MIN KMKG 290110Z 00000KT 10SM SCT022 BKN034 BKN095 16/14 A2994 610 93 900 000/00 RMK AO2
14840KMKG MKG20000628201510906/28/00 20:15:31  5-MIN KMKG 290115Z 00000KT 10SM SCT022 BKN034 BKN095 16/14 A2994 610 93 900 000/00 RMK AO2
14840KMKG MKG20000628202010206/28/00 20:20:31  5-MIN KMKG 290120Z 00000KT 10SM FEW034 BKN095 16/14 A2994 610 93 900 000/00 RMK AO2
14840KMKG MKG20000628202510206/28/00 20:25:31  5-MIN KMKG 290125Z 00000KT 10SM FEW043 BKN095 16/14 A2994 610 93 900 000/00 RMK AO2
14840KMKG MKG20000628203009506/28/00 20:30:31  5-MIN KMKG 290130Z 00000KT 10SM SCT095 15/14 A2994 610 96 800 000/00 RMK AO2
14840KMKG MKG20000628203509506/28/00 20:35:31  5-MIN KMKG 290135Z 00000KT 10SM SCT100 15/14 A2994 610 96 800 000/00 RMK AO2
14840KMKG MKG20000628204009406/28/00 20:40:31  5-MIN KMKG 290140Z 00000KT 9SM FEW100 15/14 A2994 610 96 800 000/00 RMK AO2
14840KMKG MKG20000628204509406/28/00 20:45:31  5-MIN KMKG 290145Z 00000KT 9SM FEW095 15/14 A2994 610 96 800 000/00 RMK AO2
14840KMKG MKG20000628205011206/28/00 20:50:31  5-MIN KMKG 290150Z 00000KT 10SM FEW095 15/14 A2994 620 96 800 000/00 RMK AO2 SLP136 T01500144
14840KMKG MKG20000628205511206/28/00 20:55:31  5-MIN KMKG 290155Z 00000KT 9SM FEW095 14/14 A2994 620 100 700 000/00 RMK AO2 SLP136 T01440144
14840KMKG MKG20000628210009406/28/00 21:00:31  5-MIN KMKG 290200Z 00000KT 5SM BR CLR 14/14 A2993 620 96 700 000/00 RMK AO2
14840KMKG MKG20000628210509506/28/00 21:05:31  5-MIN KMKG 290205Z 00000KT 4SM BR CLR 14/14 A2993 620 100 700 000/00 RMK AO2
14840KMKG MKG20000628211011206/28/00 21:10:31  5-MIN KMKG 290210Z 00000KT 5SM MIFG CLR 14/14 A2993 620 100 700 000/00 RMK AO2 VIS 3/4 RWY 14
14840KMKG MKG20000628211511206/28/00 21:15:31  5-MIN KMKG 290215Z 00000KT 3SM MIFG CLR 14/14 A2993 620 100 700 000/00 RMK AO2 VIS 1/2 RWY 14
14840KMKG MKG20000628212009906/28/00 21:20:31  5-MIN KMKG 290220Z 00000KT 5SM MIFG FEW095 14/13 A2993 620 96 700 000/00 RMK AO2
14840KMKG MKG20000628212510006/28/00 21:25:31  5-MIN KMKG 290225Z 00000KT 5SM MIFG FEW095 14/14 A2993 620 100 700 000/00 RMK AO2
14840KMKG MKG20000628213010006/28/00 21:30:31  5-MIN KMKG 290230Z 00000KT 5SM MIFG FEW095 14/14 A2993 620 100 700 000/00 RMK AO2
14840KMKG MKG20000628213509806/28/00 21:35:31  5-MIN KMKG 290235Z 00000KT 5SM BR FEW095 13/13 A2993 620 100 600 000/00 RMK AO2
14840KMKG MKG20000628214009806/28/00 21:40:31  5-MIN KMKG 290240Z 00000KT 5SM BR FEW095 13/13 A2993 620 100 600 000/00 RMK AO2
14840KMKG MKG20000628214509806/28/00 21:45:31  5-MIN KMKG 290245Z 00000KT 5SM BR FEW095 13/13 A2993 620 100 600 000/00 RMK AO2
14840KMKG MKG20000628215012006/28/00 21:50:31  5-MIN KMKG 290250Z 00000KT 5SM BR FEW095 13/12 A2993 620 96 500 000/00 RMK AO2 SLP136 T01280122 56015
14840KMKG MKG20000628215512106/28/00 21:55:31  5-MIN KMKG 290255Z 00000KT 5SM BR FEW095 13/13 A2994 620 100 500 000/00 RMK AO2 SLP137 T01280128 58003
14840KMKG MKG20000628220011006/28/00 22:00:31  5-MIN KMKG 290300Z 25003KT 5SM BR CLR 13/13 A2993 620 100 500 260/03 RMK AO2 CIG 010 RWY 14
14840KMKG MKG20000628220509506/28/00 22:05:31  5-MIN KMKG 290305Z 00000KT 5SM BR CLR 12/12 A2993 620 100 500 000/00 RMK AO2
14840KMKG MKG20000628221009506/28/00 22:10:31  5-MIN KMKG 290310Z 00000KT 5SM BR CLR 13/13 A2993 620 100 500 000/00 RMK AO2
14840KMKG MKG20000628221509506/28/00 22:15:31  5-MIN KMKG 290315Z 00000KT 5SM BR CLR 13/13 A2993 620 100 500 000/00 RMK AO2
14840KMKG MKG20000628222009506/28/00 22:20:31  5-MIN KMKG 290320Z 15003KT 5SM BR CLR 13/13 A2992 630 100 500 160/03 RMK AO2
14840KMKG MKG20000628222509506/28/00 22:25:31  5-MIN KMKG 290325Z 16006KT 5SM BR CLR 12/12 A2992 630 100 400 160/06 RMK AO2
14840KMKG MKG20000628223009506/28/00 22:30:31  5-MIN KMKG 290330Z 18003KT 5SM BR CLR 12/12 A2992 630 100 500 180/03 RMK AO2
14840KMKG MKG20000628223509506/28/00 22:35:31  5-MIN KMKG 290335Z 00000KT 5SM BR CLR 12/12 A2992 630 100 500 000/00 RMK AO2
14840KMKG MKG20000628224009506/28/00 22:40:31  5-MIN KMKG 290340Z 00000KT 5SM BR CLR 12/12 A2992 630 100 400 000/00 RMK AO2
14840KMKG MKG20000628224509506/28/00 22:45:31  5-MIN KMKG 290345Z 00000KT 5SM BR CLR 12/12 A2992 630 100 500 000/00 RMK AO2
14840KMKG MKG20000628225011206/28/00 22:50:31  5-MIN KMKG 290350Z 00000KT 5SM BR CLR 13/13 A2992 630 100 600 000/00 RMK AO2 SLP131 T01280128
14840KMKG MKG20000628225511206/28/00 22:55:31  5-MIN KMKG 290355Z 00000KT 5SM BR CLR 13/13 A2992 630 100 600 000/00 RMK AO2 SLP131 T01280128
14840KMKG MKG20000628230009506/28/00 23:00:31  5-MIN KMKG 290400Z 00000KT 4SM BR CLR 13/13 A2992 630 100 600 000/00 RMK AO2
14840KMKG MKG20000628230509506/28/00 23:05:31  5-MIN KMKG 290405Z 00000KT 4SM BR CLR 13/13 A2992 630 100 600 000/00 RMK AO2
14840KMKG MKG20000628231009506/28/00 23:10:31  5-MIN KMKG 290410Z 00000KT 4SM BR CLR 13/13 A2992 630 100 600 000/00 RMK AO2
14840KMKG MKG20000628231509506/28/00 23:15:31  5-MIN KMKG 290415Z 00000KT 4SM BR CLR 13/13 A2992 630 100 600 000/00 RMK AO2
14840KMKG MKG20000628232009506/28/00 23:20:31  5-MIN KMKG 290420Z 00000KT 4SM BR CLR 13/13 A2992 630 100 600 000/00 RMK AO2
14840KMKG MKG20000628232509506/28/00 23:25:31  5-MIN KMKG 290425Z 00000KT 4SM BR CLR 13/13 A2992 630 100 600 000/00 RMK AO2
14840KMKG MKG20000628233009906/28/00 23:30:31  5-MIN KMKG 290430Z 00000KT 2 1/2SM BR CLR 12/12 A2992 630 100 500 000/00 RMK AO2
14840KMKG MKG20000628233509906/28/00 23:35:31  5-MIN KMKG 290435Z 00000KT 1 3/4SM BR CLR 13/13 A2992 630 100 600 000/00 RMK AO2
14840KMKG MKG20000628234009506/28/00 23:40:31  5-MIN KMKG 290440Z 00000KT 2SM BR CLR 13/13 A2992 630 100 600 000/00 RMK AO2
14840KMKG MKG20000628234509506/28/00 23:45:31  5-MIN KMKG 290445Z 00000KT 3SM BR CLR 13/13 A2991 640 100 600 000/00 RMK AO2
14840KMKG MKG20000628235012206/28/00 23:50:31  5-MIN KMKG 290450Z 14003KT 3SM BR CLR 12/12 A2991 640 100 500 140/03 RMK AO2 SLP128 T01220122 402000117
14840KMKG MKG20000628235512206/28/00 23:55:31  5-MIN KMKG 290455Z 14003KT 1SM BR CLR 12/12 A2991 640 100 500 150/03 RMK AO2 SLP128 T01220122 402000117
14840KMKG MKG20000629000009506/29/00 00:00:31  5-MIN KMKG 290500Z 00000KT 2SM BR CLR 12/12 A2991 640 100 500 000/00 RMK AO2
14840KMKG MKG20000629000509506/29/00 00:05:31  5-MIN KMKG 290505Z 00000KT 2SM BR CLR 12/12 A2991 640 100 500 000/00 RMK AO2
14840KMKG MKG20000629001009806/29/00 00:10:31  5-MIN KMKG 290510Z 00000KT 2SM BR FEW100 12/12 A2991 640 100 500 000/00 RMK AO2
14840KMKG MKG20000629001510206/29/00 00:15:31  5-MIN KMKG 290515Z 00000KT 2 1/2SM BR FEW100 13/13 A2991 640 100 600 000/00 RMK AO2
14840KMKG MKG20000629002011506/29/00 00:20:31  5-MIN KMKG 290520Z 00000KT 4SM BR FEW100 12/12 A2991 640 100 500 000/00 RMK AO2 VIS 2 1/2 RWY 14
14840KMKG MKG20000629002509806/29/00 00:25:31  5-MIN KMKG 290525Z 21003KT 5SM BR SCT100 13/13 A2991 640 100 600 220/03 RMK AO2
14840KMKG MKG20000629003009806/29/00 00:30:31  5-MIN KMKG 290530Z 20003KT 5SM BR BKN100 13/13 A2991 640 100 600 200/03 RMK AO2
14840KMKG MKG20000629003509806/29/00 00:35:31  5-MIN KMKG 290535Z 22003KT 5SM BR BKN095 13/13 A2991 640 100 600 220/03 RMK AO2
14840KMKG MKG20000629004009506/29/00 00:40:31  5-MIN KMKG 290540Z 22003KT 7SM BKN095 13/13 A2992 630 100 600 230/03 RMK AO2
14840KMKG MKG20000629004509806/29/00 00:45:31  5-MIN KMKG 290545Z 21003KT 6SM BR OVC095 13/13 A2991 640 100 600 210/03 RMK AO2
14840KMKG MKG20000629005013306/29/00 00:50:31  5-MIN KMKG 290550Z 00000KT 6SM BR OVC095 14/14 A2991 640 100 700 000/00 RMK AO2 SLP128 T01390139 10161 20117 58003
14840KMKG MKG20000629005513306/29/00 00:55:31  5-MIN KMKG 290555Z 00000KT 5SM BR OVC090 13/13 A2991 640 100 600 000/00 RMK AO2 SLP129 T01330133 10161 20117 55007
14840KMKG MKG20000629010009806/29/00 01:00:31  5-MIN KMKG 290600Z VRB03KT 5SM BR OVC090 13/13 A2992 640 100 600 VRB/03 RMK AO2
14840KMKG MKG20000629010509806/29/00 01:05:31  5-MIN KMKG 290605Z 24003KT 6SM BR OVC095 13/13 A2991 640 100 600 240/03 RMK AO2
14840KMKG MKG20000629011009506/29/00 01:10:31  5-MIN KMKG 290610Z 25005KT 8SM OVC090 14/14 A2991 640 100 700 250/05 RMK AO2
14840KMKG MKG20000629011509406/29/00 01:15:31  5-MIN KMKG 290615Z 24006KT 9SM OVC090 15/14 A2991 640 96 800 250/06 RMK AO2
14840KMKG MKG20000629012009506/29/00 01:20:31  5-MIN KMKG 290620Z 25006KT 8SM OVC090 15/15 A2991 640 100 800 260/06 RMK AO2
14840KMKG MKG20000629012509506/29/00 01:25:31  5-MIN KMKG 290625Z 26006KT 7SM OVC090 15/15 A2991 640 100 800 270/06 RMK AO2
14840KMKG MKG20000629013009506/29/00 01:30:31  5-MIN KMKG 290630Z 26007KT 7SM OVC095 15/15 A2991 640 100 800 270/07 RMK AO2
14840KMKG MKG20000629013509506/29/00 01:35:31  5-MIN KMKG 290635Z 26005KT 8SM BKN090 15/15 A2991 640 100 800 270/05 RMK AO2
14840KMKG MKG20000629014009506/29/00 01:40:31  5-MIN KMKG 290640Z 26007KT 8SM BKN090 15/15 A2991 640 100 800 270/07 RMK AO2
14840KMKG MKG20000629014509506/29/00 01:45:31  5-MIN KMKG 290645Z 27006KT 10SM BKN090 15/14 A2991 640 96 800 270/06 RMK AO2
14840KMKG MKG20000629015011206/29/00 01:50:31  5-MIN KMKG 290650Z 27006KT 10SM BKN090 15/14 A2990 650 96 800 270/06 RMK AO2 SLP125 T01500144
14840KMKG MKG20000629015511206/29/00 01:55:31  5-MIN KMKG 290655Z 27004KT 10SM BKN090 15/14 A2990 640 93 800 270/04 RMK AO2 SLP125 T01500139
14840KMKG MKG20000629020009506/29/00 02:00:31  5-MIN KMKG 290700Z 26005KT 10SM OVC090 15/14 A2990 650 93 800 260/05 RMK AO2
14840KMKG MKG20000629020509506/29/00 02:05:31  5-MIN KMKG 290705Z 26005KT 10SM OVC090 15/14 A2990 650 93 800 260/05 RMK AO2
14840KMKG MKG20000629021010206/29/00 02:10:31  5-MIN KMKG 290710Z 25003KT 10SM BKN090 BKN120 15/14 A2990 650 93 800 250/03 RMK AO2
14840KMKG MKG20000629021510206/29/00 02:15:31  5-MIN KMKG 290715Z 25004KT 10SM BKN090 BKN120 14/13 A2990 650 93 800 260/04 RMK AO2
14840KMKG MKG20000629022010206/29/00 02:20:31  5-MIN KMKG 290720Z 25005KT 10SM SCT090 SCT120 14/13 A2990 650 93 800 250/05 RMK AO2
14840KMKG MKG20000629022510206/29/00 02:25:31  5-MIN KMKG 290725Z 26004KT 10SM FEW095 SCT120 14/13 A2990 650 93 700 260/04 RMK AO2
14840KMKG MKG20000629023009506/29/00 02:30:31  5-MIN KMKG 290730Z 29003KT 10SM FEW095 14/13 A2990 650 93 700 290/03 RMK AO2
14840KMKG MKG20000629023509206/29/00 02:35:31  5-MIN KMKG 290735Z 00000KT 10SM CLR 14/13 A2990 650 93 700 000/00 RMK AO2
14840KMKG MKG20000629024009206/29/00 02:40:31  5-MIN KMKG 290740Z 30003KT 10SM CLR 14/13 A2990 650 93 700 300/03 RMK AO2
14840KMKG MKG20000629024509206/29/00 02:45:31  5-MIN KMKG 290745Z 32004KT 10SM CLR 14/13 A2990 650 93 700 330/04 RMK AO2
14840KMKG MKG20000629025010906/29/00 02:50:31  5-MIN KMKG 290750Z 31005KT 10SM CLR 14/13 A2990 650 93 700 310/05 RMK AO2 SLP124 T01390128
14840KMKG MKG20000629025510906/29/00 02:55:31  5-MIN KMKG 290755Z 30005KT 10SM CLR 14/13 A2990 650 90 800 300/05 RMK AO2 SLP123 T01440128
14840KMKG MKG20000629030009206/29/00 03:00:31  5-MIN KMKG 290800Z 28004KT 10SM CLR 14/13 A2990 650 90 800 280/04 RMK AO2
14840KMKG MKG20000629030509206/29/00 03:05:31  5-MIN KMKG 290805Z 27005KT 10SM CLR 14/13 A2989 650 93 700 270/05 RMK AO2
14840KMKG MKG20000629031009206/29/00 03:10:31  5-MIN KMKG 290810Z 26005KT 10SM CLR 14/12 A2989 660 90 700 270/05 RMK AO2
14840KMKG MKG20000629031509206/29/00 03:15:31  5-MIN KMKG 290815Z 27005KT 10SM CLR 13/12 A2989 660 93 700 270/05 RMK AO2
14840KMKG MKG20000629032009206/29/00 03:20:31  5-MIN KMKG 290820Z 27005KT 10SM CLR 13/12 A2989 660 93 700 280/05 RMK AO2
14840KMKG MKG20000629032509206/29/00 03:25:31  5-MIN KMKG 290825Z 27005KT 10SM CLR 13/12 A2989 660 93 700 280/05 RMK AO2
14840KMKG MKG20000629033009206/29/00 03:30:31  5-MIN KMKG 290830Z 26006KT 10SM CLR 13/12 A2989 660 93 700 270/06 RMK AO2
14840KMKG MKG20000629033509206/29/00 03:35:31  5-MIN KMKG 290835Z 27006KT 10SM CLR 13/12 A2989 650 93 700 270/06 RMK AO2
14840KMKG MKG20000629034009206/29/00 03:40:31  5-MIN KMKG 290840Z 27006KT 10SM CLR 14/13 A2989 660 93 700 270/06 RMK AO2
14840KMKG MKG20000629034509206/29/00 03:45:31  5-MIN KMKG 290845Z 27006KT 10SM CLR 14/12 A2989 660 90 700 270/06 RMK AO2
14840KMKG MKG20000629035011506/29/00 03:50:31  5-MIN KMKG 290850Z 27005KT 10SM CLR 13/12 A2989 660 93 700 270/05 RMK AO2 SLP121 T01330122 55007
14840KMKG MKG20000629035511506/29/00 03:55:31  5-MIN KMKG 290855Z 27004KT 10SM CLR 13/12 A2989 660 93 700 270/04 RMK AO2 SLP121 T01330122 56007
14840KMKG MKG20000629040009206/29/00 04:00:31  5-MIN KMKG 290900Z 27003KT 10SM CLR 13/12 A2989 660 93 700 280/03 RMK AO2
14840KMKG MKG20000629040509206/29/00 04:05:31  5-MIN KMKG 290905Z 00000KT 10SM CLR 13/13 A2989 660 96 700 000/00 RMK AO2
14840KMKG MKG20000629041009206/29/00 04:10:31  5-MIN KMKG 290910Z 00000KT 10SM CLR 13/13 A2989 660 96 700 000/00 RMK AO2
14840KMKG MKG20000629041509506/29/00 04:15:31  5-MIN KMKG 290915Z 00000KT 10SM FEW090 13/13 A2989 660 96 700 000/00 RMK AO2
14840KMKG MKG20000629042009506/29/00 04:20:31  5-MIN KMKG 290920Z 00000KT 10SM FEW090 13/13 A2989 660 96 700 000/00 RMK AO2
14840KMKG MKG20000629042509606/29/00 04:25:31  5-MIN KMKG 290925Z 00000KT 10SM FEW090 12/12 A2989 660 100 500 000/00 RMK AO2
14840KMKG MKG20000629043009506/29/00 04:30:31  5-MIN KMKG 290930Z 00000KT 10SM FEW090 12/12 A2989 660 96 500 000/00 RMK AO2
14840KMKG MKG20000629043510206/29/00 04:35:31  5-MIN KMKG 290935Z 00000KT 10SM FEW090 12/12 A2989 660 100 500 000/00 RMK AO2 P0001
14840KMKG MKG20000629044010206/29/00 04:40:31  5-MIN KMKG 290940Z 00000KT 10SM FEW090 12/12 A2989 660 100 500 000/00 RMK AO2 P0001
14840KMKG MKG20000629044510206/29/00 04:45:31  5-MIN KMKG 290945Z 00000KT 10SM FEW090 12/12 A2989 660 100 500 000/00 RMK AO2 P0001
14840KMKG MKG20000629045011806/29/00 04:50:31  5-MIN KMKG 290950Z 25003KT 9SM FEW090 12/12 A2989 660 100 500 250/03 RMK AO2 SLP122 P0001 T01170117
14840KMKG MKG20000629045511206/29/00 04:55:31  5-MIN KMKG 290955Z 00000KT 10SM FEW090 12/12 A2989 660 96 500 000/00 RMK AO2 SLP121 T01220117
14840KMKG MKG20000629050009206/29/00 05:00:31  5-MIN KMKG 291000Z 00000KT 10SM CLR 12/12 A2989 660 96 500 000/00 RMK AO2
14840KMKG MKG20000629050509506/29/00 05:05:31  5-MIN KMKG 291005Z 27003KT 10SM FEW090 13/12 A2989 660 96 600 270/03 RMK AO2
14840KMKG MKG20000629051009506/29/00 05:10:31  5-MIN KMKG 291010Z 00000KT 10SM FEW090 13/12 A2989 660 93 700 000/00 RMK AO2
14840KMKG MKG20000629051509506/29/00 05:15:31  5-MIN KMKG 291015Z 00000KT 10SM FEW090 13/12 A2989 660 96 600 000/00 RMK AO2
14840KMKG MKG20000629052009506/29/00 05:20:31  5-MIN KMKG 291020Z 00000KT 10SM FEW090 12/12 A2989 660 96 500 000/00 RMK AO2
14840KMKG MKG20000629052509506/29/00 05:25:31  5-MIN KMKG 291025Z 00000KT 10SM FEW090 12/11 A2989 660 96 500 000/00 RMK AO2
14840KMKG MKG20000629053009406/29/00 05:30:31  5-MIN KMKG 291030Z 00000KT 9SM FEW090 11/11 A2989 660 96 400 000/00 RMK AO2
14840KMKG MKG20000629053509406/29/00 05:35:31  5-MIN KMKG 291035Z 00000KT 9SM FEW090 11/11 A2989 660 96 400 000/00 RMK AO2
14840KMKG MKG20000629054009406/29/00 05:40:31  5-MIN KMKG 291040Z 00000KT 9SM FEW090 12/11 A2989 660 96 500 000/00 RMK AO2
14840KMKG MKG20000629054509506/29/00 05:45:31  5-MIN KMKG 291045Z 00000KT 10SM FEW090 12/11 A2989 660 96 500 000/00 RMK AO2
14840KMKG MKG20000629055011306/29/00 05:50:31  5-MIN KMKG 291050Z 00000KT 10SM FEW090 11/11 A2989 660 100 400 000/00 RMK AO2 SLP123 T01110111
14840KMKG MKG20000629055511006/29/00 05:55:31  5-MIN KMKG 291055Z 00000KT 10SM CLR 12/12 A2989 660 100 500 000/00 RMK AO2 SLP123 T01170117
14840KMKG MKG20000629060009306/29/00 06:00:31  5-MIN KMKG 291100Z 00000KT 10SM CLR 12/12 A2989 660 100 500 000/00 RMK AO2
14840KMKG MKG20000629060509306/29/00 06:05:31  5-MIN KMKG 291105Z 00000KT 10SM CLR 13/13 A2989 660 100 600 000/00 RMK AO2
14840KMKG MKG20000629061009506/29/00 06:10:31  5-MIN KMKG 291110Z 26003KT 10SM FEW100 14/13 A2989 660 96 700 260/03 RMK AO2
14840KMKG MKG20000629061509506/29/00 06:15:31  5-MIN KMKG 291115Z 26004KT 10SM FEW100 15/14 A2989 660 93 800 260/04 RMK AO2
14840KMKG MKG20000629062009506/29/00 06:20:31  5-MIN KMKG 291120Z 27006KT 10SM FEW100 15/14 A2989 660 93 800 270/06 RMK AO2
14840KMKG MKG20000629062509506/29/00 06:25:31  5-MIN KMKG 291125Z 28007KT 10SM FEW100 16/14 A2990 650 90 900 280/07 RMK AO2
14840KMKG MKG20000629063009506/29/00 06:30:31  5-MIN KMKG 291130Z 28008KT 10SM FEW100 16/14 A2990 650 90 900 280/08 RMK AO2
14840KMKG MKG20000629063509506/29/00 06:35:31  5-MIN KMKG 291135Z 27007KT 10SM FEW110 15/13 A2990 650 90 800 270/07 RMK AO2
14840KMKG MKG20000629064009506/29/00 06:40:31  5-MIN KMKG 291140Z 28006KT 10SM FEW110 15/13 A2990 650 90 800 290/06 RMK AO2
14840KMKG MKG20000629064509506/29/00 06:45:31  5-MIN KMKG 291145Z 29007KT 10SM FEW110 16/14 A2991 640 90 900 300/07 RMK AO2
14840KMKG MKG20000629065014206/29/00 06:50:31  5-MIN KMKG 291150Z 30008KT 10SM FEW110 16/14 A2991 640 90 900 310/08 RMK AO2 SLP127 60001 70007 T01560139 10156 20111 56007
14840KMKG MKG20000629065513606/29/00 06:55:31  5-MIN KMKG 291155Z 29008KT 10SM SCT012 16/14 A2991 640 90 900 300/08 RMK AO2 SLP126 70006 T01560139 10156 20111 53005
14840KMKG MKG20000629070010206/29/00 07:00:31  5-MIN KMKG 291200Z 29009KT 10SM FEW012 SCT075 16/14 A2990 650 90 900 290/09 RMK AO2
14840KMKG MKG20000629070510206/29/00 07:05:31  5-MIN KMKG 291205Z 29008KT 10SM FEW012 SCT085 16/13 A2990 650 86 900 300/08 RMK AO2
14840KMKG MKG20000629071010906/29/00 07:10:31  5-MIN KMKG 291210Z 29009KT 10SM FEW012 SCT075 BKN090 16/13 A2991 640 86 900 300/09 RMK AO2
14840KMKG MKG20000629071510906/29/00 07:15:31  5-MIN KMKG 291215Z 29009KT 10SM FEW012 SCT075 BKN090 16/14 A2991 640 90 900 290/09 RMK AO2
14840KMKG MKG20000629072012406/29/00 07:20:31  5-MIN KMKG 291220Z 29009KT 10SM SCT012 BKN080 BKN090 16/14 A2991 640 90 900 300/09 RMK AO2 CIG 013 RWY 14
14840KMKG MKG20000629072510906/29/00 07:25:31  5-MIN KMKG 291225Z 30012KT 10SM BKN014 BKN080 BKN090 16/13 A2991 640 86 900 300/12 RMK AO2
14840KMKG MKG20000629073010906/29/00 07:30:31  5-MIN KMKG 291230Z 29006KT 10SM BKN014 BKN080 BKN090 16/13 A2991 640 86 900 300/06 RMK AO2
14840KMKG MKG20000629073510306/29/00 07:35:31  5-MIN KMKG 291235Z 30007KT 10SM BKN014 BKN090 16/14 A2991 640 86 1000 310/07 RMK AO2
14840KMKG MKG20000629074011206/29/00 07:40:31  5-MIN KMKG 291240Z 31007KT 280V340 10SM BKN014 16/14 A2991 640 86 1000 310/07 280V340 RMK AO2
14840KMKG MKG20000629074509606/29/00 07:45:31  5-MIN KMKG 291245Z 30009KT 10SM BKN014 16/14 A2991 640 86 1000 300/09 RMK AO2
14840KMKG MKG20000629075011906/29/00 07:50:31  5-MIN KMKG 291250Z VRB06G14KT 10SM BKN014 16/13 A2991 640 83 1000 VRB/06G14 RMK AO2 SLP128 T01610133
14840KMKG MKG20000629075511206/29/00 07:55:31  5-MIN KMKG 291255Z 30006KT 10SM BKN014 16/13 A2991 640 86 900 300/06 RMK AO2 SLP127 T01560133
14840KMKG MKG20000629080009506/29/00 08:00:31  5-MIN KMKG 291300Z 29007KT 10SM BKN014 16/13 A2991 640 86 900 290/07 RMK AO2
14840KMKG MKG20000629080509606/29/00 08:05:31  5-MIN KMKG 291305Z VRB05KT 10SM SCT014 17/14 A2991 640 83 1000 VRB/05 RMK AO2
14840KMKG MKG20000629081009606/29/00 08:10:31  5-MIN KMKG 291310Z 32006KT 10SM SCT014 17/14 A2991 640 83 1000 320/06 RMK AO2
14840KMKG MKG20000629081509606/29/00 08:15:31  5-MIN KMKG 291315Z 31008KT 10SM SCT014 17/14 A2991 640 83 1000 310/08 RMK AO2
14840KMKG MKG20000629082009606/29/00 08:20:31  5-MIN KMKG 291320Z 29009KT 10SM FEW014 17/14 A2991 640 83 1000 300/09 RMK AO2
14840KMKG MKG20000629082509606/29/00 08:25:31  5-MIN KMKG 291325Z 29007KT 10SM FEW014 17/13 A2991 640 80 1000 290/07 RMK AO2
14840KMKG MKG20000629083009606/29/00 08:30:31  5-MIN KMKG 291330Z VRB06KT 10SM FEW014 17/14 A2991 640 83 1000 VRB/06 RMK AO2
14840KMKG MKG20000629083509606/29/00 08:35:31  5-MIN KMKG 291335Z VRB05KT 10SM FEW014 17/14 A2991 640 83 1000 VRB/05 RMK AO2
14840KMKG MKG20000629084009606/29/00 08:40:31  5-MIN KMKG 291340Z 29007KT 10SM FEW014 17/14 A2990 640 83 1000 290/07 RMK AO2
14840KMKG MKG20000629084510306/29/00 08:45:31  5-MIN KMKG 291345Z 29005KT 10SM FEW014 SCT070 17/14 A2991 640 80 1100 290/05 RMK AO2
14840KMKG MKG20000629085012006/29/00 08:50:31  5-MIN KMKG 291350Z 31006KT 10SM FEW014 SCT070 17/13 A2991 640 78 1100 310/06 RMK AO2 SLP126 T01720133
14840KMKG MKG20000629085512006/29/00 08:55:31  5-MIN KMKG 291355Z VRB06KT 10SM FEW014 SCT070 17/14 A2991 640 80 1100 VRB/06 RMK AO2 SLP126 T01720139
14840KMKG MKG20000629090010306/29/00 09:00:31  5-MIN KMKG 291400Z 28005KT 10SM FEW014 SCT070 17/14 A2990 650 80 1100 290/05 RMK AO2
14840KMKG MKG20000629090510306/29/00 09:05:31  5-MIN KMKG 291405Z 28006KT 10SM FEW014 SCT070 18/14 A2991 640 78 1200 290/06 RMK AO2
14840KMKG MKG20000629091010306/29/00 09:10:31  5-MIN KMKG 291410Z 30007KT 10SM FEW014 SCT070 18/14 A2991 640 78 1200 300/07 RMK AO2
14840KMKG MKG20000629091511906/29/00 09:15:31  5-MIN KMKG 291415Z 30008KT 260V330 10SM FEW014 SCT070 18/14 A2991 640 78 1200 310/08 260V330 RMK AO2
14840KMKG MKG20000629092010306/29/00 09:20:31  5-MIN KMKG 291420Z 30006KT 10SM FEW014 SCT070 18/14 A2991 640 78 1200 300/06 RMK AO2
14840KMKG MKG20000629092510306/29/00 09:25:31  5-MIN KMKG 291425Z 30005KT 10SM FEW014 SCT070 18/14 A2991 640 78 1200 300/05 RMK AO2
14840KMKG MKG20000629093010306/29/00 09:30:31  5-MIN KMKG 291430Z 28008KT 10SM FEW014 SCT070 17/14 A2991 640 80 1100 280/08 RMK AO2
14840KMKG MKG20000629093510306/29/00 09:35:31  5-MIN KMKG 291435Z 30007KT 10SM FEW014 SCT070 18/14 A2991 640 78 1200 300/07 RMK AO2
14840KMKG MKG20000629094010306/29/00 09:40:31  5-MIN KMKG 291440Z VRB06KT 10SM FEW014 SCT070 18/14 A2991 640 78 1200 VRB/06 RMK AO2
14840KMKG MKG20000629094510306/29/00 09:45:31  5-MIN KMKG 291445Z 28005KT 10SM FEW014 SCT070 18/14 A2991 640 78 1200 280/05 RMK AO2
14840KMKG MKG20000629095012606/29/00 09:50:31  5-MIN KMKG 291450Z VRB05KT 10SM FEW014 SCT070 18/14 A2991 640 75 1200 VRB/05 RMK AO2 SLP127 T01830139 53005
14840KMKG MKG20000629095512606/29/00 09:55:31  5-MIN KMKG 291455Z 28006KT 10SM FEW014 SCT070 18/14 A2991 640 75 1200 280/06 RMK AO2 SLP128 T01830139 52001
14840KMKG MKG20000629100010306/29/00 10:00:31  5-MIN KMKG 291500Z 25007KT 10SM FEW014 SCT070 18/14 A2991 640 78 1200 260/07 RMK AO2
14840KMKG MKG20000629100510306/29/00 10:05:31  5-MIN KMKG 291505Z 29006KT 10SM FEW014 SCT070 18/14 A2991 640 78 1200 300/06 RMK AO2
14840KMKG MKG20000629101010306/29/00 10:10:31  5-MIN KMKG 291510Z 28008KT 10SM FEW014 SCT070 18/14 A2991 640 78 1200 280/08 RMK AO2
14840KMKG MKG20000629101510306/29/00 10:15:31  5-MIN KMKG 291515Z 29008KT 10SM FEW014 SCT070 18/14 A2991 640 78 1200 290/08 RMK AO2
14840KMKG MKG20000629102010306/29/00 10:20:31  5-MIN KMKG 291520Z 28008KT 10SM FEW014 SCT070 18/14 A2991 640 78 1200 290/08 RMK AO2
14840KMKG MKG20000629102511906/29/00 10:25:31  5-MIN KMKG 291525Z 28008KT 250V310 10SM FEW014 SCT070 19/14 A2991 640 75 1300 280/08 250V310 RMK AO2
14840KMKG MKG20000629103010306/29/00 10:30:31  5-MIN KMKG 291530Z 28009KT 10SM FEW014 SCT070 18/14 A2991 640 78 1200 290/09 RMK AO2
14840KMKG MKG20000629103509606/29/00 10:35:31  5-MIN KMKG 291535Z 27009KT 10SM FEW022 19/14 A2992 630 75 1300 270/09 RMK AO2
14840KMKG MKG20000629104009606/29/00 10:40:31  5-MIN KMKG 291540Z 26009KT 10SM FEW022 18/14 A2992 630 75 1200 270/09 RMK AO2
14840KMKG MKG20000629104509606/29/00 10:45:31  5-MIN KMKG 291545Z 30007KT 10SM FEW022 19/14 A2992 630 72 1300 300/07 RMK AO2
14840KMKG MKG20000629105011306/29/00 10:50:31  5-MIN KMKG 291550Z 30009KT 10SM FEW022 19/13 A2992 630 70 1300 300/09 RMK AO2 SLP131 T01890133
14840KMKG MKG20000629105511306/29/00 10:55:31  5-MIN KMKG 291555Z 30009KT 10SM FEW022 19/13 A2992 630 67 1300 310/09 RMK AO2 SLP131 T01890128
14840KMKG MKG20000629110009606/29/00 11:00:31  5-MIN KMKG 291600Z 29009KT 10SM FEW022 19/13 A2992 630 65 1300 290/09 RMK AO2
14840KMKG MKG20000629110509606/29/00 11:05:31  5-MIN KMKG 291605Z 27009KT 10SM FEW022 19/13 A2992 630 65 1300 280/09 RMK AO2
14840KMKG MKG20000629111009606/29/00 11:10:31  5-MIN KMKG 291610Z 27010KT 10SM FEW022 19/13 A2992 630 65 1300 270/10 RMK AO2
14840KMKG MKG20000629111509606/29/00 11:15:31  5-MIN KMKG 291615Z 28008KT 10SM FEW022 19/13 A2992 630 65 1300 280/08 RMK AO2
14840KMKG MKG20000629112009606/29/00 11:20:31  5-MIN KMKG 291620Z 27010KT 10SM FEW022 19/13 A2992 630 65 1300 270/10 RMK AO2
14840KMKG MKG20000629112509606/29/00 11:25:31  5-MIN KMKG 291625Z 27010KT 10SM FEW022 19/13 A2993 630 65 1300 270/10 RMK AO2
14840KMKG MKG20000629113009606/29/00 11:30:31  5-MIN KMKG 291630Z 28011KT 10SM FEW022 19/13 A2993 620 70 1300 290/11 RMK AO2
14840KMKG MKG20000629113509606/29/00 11:35:31  5-MIN KMKG 291635Z 29010KT 10SM FEW022 19/13 A2993 620 67 1300 290/10 RMK AO2
14840KMKG MKG20000629114009606/29/00 11:40:31  5-MIN KMKG 291640Z 29009KT 10SM FEW028 19/13 A2993 620 67 1300 290/09 RMK AO2
14840KMKG MKG20000629114509606/29/00 11:45:31  5-MIN KMKG 291645Z 28009KT 10SM FEW028 19/13 A2993 620 67 1300 280/09 RMK AO2
14840KMKG MKG20000629115011306/29/00 11:50:31  5-MIN KMKG 291650Z 27011KT 10SM FEW028 19/13 A2993 620 67 1300 270/11 RMK AO2 SLP134 T01890128
14840KMKG MKG20000629115511306/29/00 11:55:31  5-MIN KMKG 291655Z 28009KT 10SM FEW028 19/13 A2993 620 65 1300 290/09 RMK AO2 SLP135 T01940128
14840KMKG MKG20000629120009606/29/00 12:00:31  5-MIN KMKG 291700Z 30011KT 10SM FEW028 19/12 A2993 620 62 1300 310/11 RMK AO2
14840KMKG MKG20000629120509606/29/00 12:05:31  5-MIN KMKG 291705Z 29011KT 10SM FEW028 19/12 A2993 620 62 1300 290/11 RMK AO2
14840KMKG MKG20000629121009606/29/00 12:10:31  5-MIN KMKG 291710Z 29010KT 10SM FEW028 19/12 A2993 620 60 1300 290/10 RMK AO2
14840KMKG MKG20000629121509606/29/00 12:15:31  5-MIN KMKG 291715Z 30011KT 10SM FEW028 19/12 A2993 620 65 1300 300/11 RMK AO2
14840KMKG MKG20000629122009606/29/00 12:20:31  5-MIN KMKG 291720Z 30012KT 10SM FEW028 19/12 A2993 620 62 1300 300/12 RMK AO2
14840KMKG MKG20000629122509606/29/00 12:25:31  5-MIN KMKG 291725Z 29010KT 10SM FEW028 19/12 A2993 620 65 1300 300/10 RMK AO2
14840KMKG MKG20000629123009606/29/00 12:30:31  5-MIN KMKG 291730Z 28012KT 10SM FEW028 19/13 A2994 620 65 1300 280/12 RMK AO2
14840KMKG MKG20000629123509606/29/00 12:35:31  5-MIN KMKG 291735Z 30012KT 10SM FEW028 19/13 A2994 620 65 1300 310/12 RMK AO2
14840KMKG MKG20000629124009606/29/00 12:40:31  5-MIN KMKG 291740Z 30013KT 10SM FEW028 19/12 A2994 620 65 1300 300/13 RMK AO2
14840KMKG MKG20000629124509606/29/00 12:45:31  5-MIN KMKG 291745Z 30009KT 10SM FEW028 19/13 A2993 620 67 1300 300/09 RMK AO2
14840KMKG MKG20000629125013106/29/00 12:50:31  5-MIN KMKG 291750Z 29012KT 10SM FEW028 19/13 A2993 620 65 1300 290/12 RMK AO2 SLP136 T01940128 10194 20156 52001
14840KMKG MKG20000629125513106/29/00 12:55:31  5-MIN KMKG 291755Z 29012KT 10SM FEW028 19/12 A2993 620 65 1300 290/12 RMK AO2 SLP135 T01890122 10194 20156 51007
14840KMKG MKG20000629130009606/29/00 13:00:31  5-MIN KMKG 291800Z 29011KT 10SM FEW028 19/12 A2993 620 65 1300 300/11 RMK AO2
14840KMKG MKG20000629130509606/29/00 13:05:31  5-MIN KMKG 291805Z 30011KT 10SM FEW028 19/12 A2993 620 65 1300 300/11 RMK AO2
14840KMKG MKG20000629131009606/29/00 13:10:31  5-MIN KMKG 291810Z 29011KT 10SM FEW028 19/12 A2993 620 62 1300 290/11 RMK AO2
14840KMKG MKG20000629131509606/29/00 13:15:31  5-MIN KMKG 291815Z 28014KT 10SM FEW028 19/12 A2993 620 62 1300 280/14 RMK AO2
14840KMKG MKG20000629132009606/29/00 13:20:31  5-MIN KMKG 291820Z 28011KT 10SM FEW028 19/12 A2993 620 62 1300 290/11 RMK AO2
14840KMKG MKG20000629132509606/29/00 13:25:31  5-MIN KMKG 291825Z 28012KT 10SM FEW028 19/12 A2993 620 60 1300 280/12 RMK AO2
14840KMKG MKG20000629133009606/29/00 13:30:31  5-MIN KMKG 291830Z 28012KT 10SM FEW028 19/12 A2993 620 62 1300 290/12 RMK AO2
14840KMKG MKG20000629133509606/29/00 13:35:31  5-MIN KMKG 291835Z 27011KT 10SM FEW028 19/12 A2993 620 62 1300 280/11 RMK AO2
14840KMKG MKG20000629134009606/29/00 13:40:31  5-MIN KMKG 291840Z 28011KT 10SM FEW028 19/12 A2993 620 60 1300 280/11 RMK AO2
14840KMKG MKG20000629134509606/29/00 13:45:31  5-MIN KMKG 291845Z 28011KT 10SM FEW028 19/11 A2993 620 58 1300 280/11 RMK AO2
14840KMKG MKG20000629135011306/29/00 13:50:31  5-MIN KMKG 291850Z 28012KT 10SM FEW028 19/12 A2993 620 60 1300 280/12 RMK AO2 SLP135 T01940117
14840KMKG MKG20000629135511906/29/00 13:55:31  5-MIN KMKG 291855Z 29010G17KT 10SM FEW028 19/11 A2994 620 58 1300 300/10G17 RMK AO2 SLP136 T01940111
14840KMKG MKG20000629140010206/29/00 14:00:31  5-MIN KMKG 291900Z 27013G17KT 10SM FEW028 19/12 A2994 620 60 1300 280/13G17 RMK AO2
14840KMKG MKG20000629140509606/29/00 14:05:31  5-MIN KMKG 291905Z 30012KT 10SM FEW028 19/12 A2994 610 60 1300 300/12 RMK AO2
14840KMKG MKG20000629141009606/29/00 14:10:31  5-MIN KMKG 291910Z 31013KT 10SM FEW028 19/12 A2994 610 60 1300 310/13 RMK AO2
14840KMKG MKG20000629141509606/29/00 14:15:31  5-MIN KMKG 291915Z 30012KT 10SM FEW028 19/11 A2994 610 58 1300 310/12 RMK AO2
14840KMKG MKG20000629142009606/29/00 14:20:31  5-MIN KMKG 291920Z 31011KT 10SM FEW028 19/11 A2994 610 58 1300 310/11 RMK AO2
14840KMKG MKG20000629142509606/29/00 14:25:31  5-MIN KMKG 291925Z 31013KT 10SM FEW033 19/11 A2994 620 58 1300 310/13 RMK AO2
14840KMKG MKG20000629143009606/29/00 14:30:31  5-MIN KMKG 291930Z 29011KT 10SM FEW033 20/12 A2994 620 58 1400 290/11 RMK AO2
14840KMKG MKG20000629143509606/29/00 14:35:31  5-MIN KMKG 291935Z 28011KT 10SM FEW033 20/12 A2994 610 58 1400 280/11 RMK AO2
14840KMKG MKG20000629144010206/29/00 14:40:31  5-MIN KMKG 291940Z 27014G17KT 10SM FEW033 20/11 A2994 620 56 1400 280/14G17 RMK AO2
14840KMKG MKG20000629144510206/29/00 14:45:31  5-MIN KMKG 291945Z 27011G17KT 10SM FEW033 19/11 A2993 620 58 1300 280/11G17 RMK AO2
14840KMKG MKG20000629145011306/29/00 14:50:31  5-MIN KMKG 291950Z 27015KT 10SM FEW033 19/11 A2994 620 58 1300 280/15 RMK AO2 SLP137 T01940111
14840KMKG MKG20000629145511306/29/00 14:55:31  5-MIN KMKG 291955Z 28013KT 10SM FEW033 19/11 A2994 620 58 1300 290/13 RMK AO2 SLP136 T01940111
14840KMKG MKG20000629150010206/29/00 15:00:31  5-MIN KMKG 292000Z 28012G19KT 10SM FEW033 19/12 A2993 620 60 1300 290/12G19 RMK AO2
14840KMKG MKG20000629150510206/29/00 15:05:31  5-MIN KMKG 292005Z 28011G18KT 10SM FEW033 20/12 A2993 620 58 1400 290/11G18 RMK AO2
14840KMKG MKG20000629151010206/29/00 15:10:31  5-MIN KMKG 292010Z 30012G18KT 10SM FEW033 20/12 A2993 620 58 1400 300/12G18 RMK AO2
14840KMKG MKG20000629151509606/29/00 15:15:31  5-MIN KMKG 292015Z 28011KT 10SM FEW033 20/11 A2993 620 56 1400 280/11 RMK AO2
14840KMKG MKG20000629152009606/29/00 15:20:31  5-MIN KMKG 292020Z 28011KT 10SM FEW033 20/11 A2993 620 56 1400 290/11 RMK AO2
14840KMKG MKG20000629152509606/29/00 15:25:31  5-MIN KMKG 292025Z 30010KT 10SM FEW033 19/11 A2993 620 58 1300 300/10 RMK AO2
14840KMKG MKG20000629153009606/29/00 15:30:31  5-MIN KMKG 292030Z 29010KT 10SM FEW033 19/11 A2993 620 58 1300 300/10 RMK AO2
14840KMKG MKG20000629153509606/29/00 15:35:31  5-MIN KMKG 292035Z 31010KT 10SM FEW033 21/11 A2993 620 54 1500 310/10 RMK AO2
14840KMKG MKG20000629154009606/29/00 15:40:31  5-MIN KMKG 292040Z 28010KT 10SM FEW033 20/11 A2993 620 56 1400 290/10 RMK AO2
14840KMKG MKG20000629154509606/29/00 15:45:31  5-MIN KMKG 292045Z 27012KT 10SM FEW033 19/11 A2993 620 58 1300 280/12 RMK AO2
14840KMKG MKG20000629155011906/29/00 15:50:31  5-MIN KMKG 292050Z 29010KT 10SM FEW033 20/12 A2993 620 58 1400 290/10 RMK AO2 SLP135 T02000117 51007
14840KMKG MKG20000629155512506/29/00 15:55:31  5-MIN KMKG 292055Z 30008G16KT 10SM FEW033 20/12 A2993 620 58 1400 300/08G16 RMK AO2 SLP134 T02000117 58001
14840KMKG MKG20000629160010206/29/00 16:00:31  5-MIN KMKG 292100Z 30012G16KT 10SM FEW033 20/11 A2993 620 56 1400 300/12G16 RMK AO2
14840KMKG MKG20000629160509606/29/00 16:05:31  5-MIN KMKG 292105Z 29013KT 10SM FEW033 19/11 A2993 620 58 1300 290/13 RMK AO2
14840KMKG MKG20000629161009606/29/00 16:10:31  5-MIN KMKG 292110Z 30010KT 10SM FEW033 20/12 A2993 620 58 1400 300/10 RMK AO2
14840KMKG MKG20000629161509606/29/00 16:15:31  5-MIN KMKG 292115Z 30009KT 10SM FEW033 20/12 A2993 620 58 1400 300/09 RMK AO2
14840KMKG MKG20000629162009606/29/00 16:20:31  5-MIN KMKG 292120Z 28011KT 10SM FEW033 20/12 A2993 620 58 1400 290/11 RMK AO2
14840KMKG MKG20000629162509606/29/00 16:25:31  5-MIN KMKG 292125Z 29009KT 10SM FEW033 20/12 A2993 620 58 1400 300/09 RMK AO2
14840KMKG MKG20000629163009606/29/00 16:30:31  5-MIN KMKG 292130Z 30010KT 10SM FEW033 20/11 A2993 620 56 1400 310/10 RMK AO2
14840KMKG MKG20000629163510206/29/00 16:35:31  5-MIN KMKG 292135Z 28013G17KT 10SM FEW033 20/11 A2993 620 56 1400 280/13G17 RMK AO2
14840KMKG MKG20000629164009606/29/00 16:40:31  5-MIN KMKG 292140Z 29010KT 10SM FEW033 19/11 A2993 620 58 1300 300/10 RMK AO2
14840KMKG MKG20000629164509606/29/00 16:45:31  5-MIN KMKG 292145Z 29011KT 10SM FEW033 20/11 A2993 630 56 1400 300/11 RMK AO2
14840KMKG MKG20000629165011306/29/00 16:50:31  5-MIN KMKG 292150Z 28011KT 10SM FEW033 19/12 A2993 630 60 1300 290/11 RMK AO2 SLP133 T01940117
14840KMKG MKG20000629165511306/29/00 16:55:31  5-MIN KMKG 292155Z 30010KT 10SM FEW033 19/11 A2992 630 58 1300 300/10 RMK AO2 SLP133 T01940111
14840KMKG MKG20000629170009606/29/00 17:00:31  5-MIN KMKG 292200Z 30011KT 10SM FEW033 20/12 A2993 630 58 1400 310/11 RMK AO2
14840KMKG MKG20000629170510206/29/00 17:05:31  5-MIN KMKG 292205Z 31010G18KT 10SM FEW033 20/11 A2993 620 56 1400 310/10G18 RMK AO2
14840KMKG MKG20000629171010206/29/00 17:10:31  5-MIN KMKG 292210Z 30012G18KT 10SM FEW033 20/11 A2993 630 56 1400 300/12G18 RMK AO2
14840KMKG MKG20000629171509606/29/00 17:15:31  5-MIN KMKG 292215Z 29010KT 10SM FEW033 19/11 A2993 620 58 1300 300/10 RMK AO2
14840KMKG MKG20000629172009606/29/00 17:20:31  5-MIN KMKG 292220Z 31009KT 10SM FEW033 20/11 A2993 620 56 1400 320/09 RMK AO2
14840KMKG MKG20000629172511206/29/00 17:25:31  5-MIN KMKG 292225Z 31009KT 290V350 10SM FEW033 20/11 A2993 620 56 1400 310/09 290V350 RMK AO2
14840KMKG MKG20000629173009606/29/00 17:30:31  5-MIN KMKG 292230Z 31010KT 10SM FEW033 20/11 A2993 620 54 1400 310/10 RMK AO2
14840KMKG MKG20000629173509606/29/00 17:35:31  5-MIN KMKG 292235Z 32010KT 10SM FEW033 20/11 A2993 620 54 1400 320/10 RMK AO2
14840KMKG MKG20000629174009606/29/00 17:40:31  5-MIN KMKG 292240Z 31009KT 10SM FEW033 20/10 A2993 620 52 1400 310/09 RMK AO2
14840KMKG MKG20000629174509606/29/00 17:45:31  5-MIN KMKG 292245Z 32010KT 10SM FEW033 20/11 A2993 620 54 1400 320/10 RMK AO2
14840KMKG MKG20000629175011306/29/00 17:50:31  5-MIN KMKG 292250Z 30010KT 10SM FEW033 20/10 A2993 620 52 1400 300/10 RMK AO2 SLP135 T02000100
14840KMKG MKG20000629175511306/29/00 17:55:31  5-MIN KMKG 292255Z 31007KT 10SM FEW033 20/11 A2993 620 54 1400 310/07 RMK AO2 SLP135 T02000106
14840KMKG MKG20000629180009606/29/00 18:00:31  5-MIN KMKG 292300Z 32007KT 10SM FEW050 20/11 A2993 620 56 1400 320/07 RMK AO2
14840KMKG MKG20000629180509606/29/00 18:05:31  5-MIN KMKG 292305Z 30006KT 10SM FEW050 20/11 A2993 620 56 1400 300/06 RMK AO2
14840KMKG MKG20000629181009606/29/00 18:10:31  5-MIN KMKG 292310Z 33007KT 10SM FEW050 20/11 A2993 620 56 1400 330/07 RMK AO2
14840KMKG MKG20000629181509606/29/00 18:15:31  5-MIN KMKG 292315Z 31007KT 10SM FEW050 20/11 A2993 620 56 1400 320/07 RMK AO2
14840KMKG MKG20000629182009606/29/00 18:20:31  5-MIN KMKG 292320Z 29008KT 10SM FEW050 20/11 A2993 620 56 1400 290/08 RMK AO2
14840KMKG MKG20000629182509606/29/00 18:25:31  5-MIN KMKG 292325Z 29007KT 10SM FEW050 19/11 A2994 620 58 1300 300/07 RMK AO2
14840KMKG MKG20000629183009606/29/00 18:30:31  5-MIN KMKG 292330Z VRB06KT 10SM FEW050 19/11 A2994 610 58 1300 VRB/06 RMK AO2
14840KMKG MKG20000629183509606/29/00 18:35:31  5-MIN KMKG 292335Z 26006KT 10SM FEW050 19/12 A2994 610 62 1200 270/06 RMK AO2
14840KMKG MKG20000629184009606/29/00 18:40:31  5-MIN KMKG 292340Z 27008KT 10SM FEW050 19/12 A2994 610 65 1300 270/08 RMK AO2
14840KMKG MKG20000629184509606/29/00 18:45:31  5-MIN KMKG 292345Z 29006KT 10SM FEW050 19/13 A2994 610 67 1300 290/06 RMK AO2
14840KMKG MKG20000629185013106/29/00 18:50:31  5-MIN KMKG 292350Z 29005KT 10SM FEW050 19/12 A2994 610 65 1300 290/05 RMK AO2 SLP137 T01890122 10206 20189 58001
14840KMKG MKG20000629185513106/29/00 18:55:31  5-MIN KMKG 292355Z 29006KT 10SM FEW035 18/12 A2994 610 67 1200 290/06 RMK AO2 SLP137 T01830122 10206 20183 53004
14840KMKG MKG20000629190009306/29/00 19:00:31  5-MIN KMKG 300000Z 28006KT 10SM CLR 18/12 A2994 610 67 1200 280/06 RMK AO2
14840KMKG MKG20000629190509306/29/00 19:05:31  5-MIN KMKG 300005Z 29006KT 10SM CLR 18/12 A2994 610 67 1200 290/06 RMK AO2
14840KMKG MKG20000629191009306/29/00 19:10:31  5-MIN KMKG 300010Z 28007KT 10SM CLR 18/12 A2994 610 67 1200 290/07 RMK AO2
14840KMKG MKG20000629191509306/29/00 19:15:31  5-MIN KMKG 300015Z 28006KT 10SM CLR 18/12 A2994 610 67 1200 280/06 RMK AO2
14840KMKG MKG20000629192009306/29/00 19:20:31  5-MIN KMKG 300020Z 28006KT 10SM CLR 18/12 A2995 610 67 1200 280/06 RMK AO2
14840KMKG MKG20000629192509306/29/00 19:25:31  5-MIN KMKG 300025Z 27006KT 10SM CLR 18/12 A2994 610 69 1100 280/06 RMK AO2
14840KMKG MKG20000629193009306/29/00 19:30:31  5-MIN KMKG 300030Z 27006KT 10SM CLR 18/12 A2995 610 69 1100 270/06 RMK AO2
14840KMKG MKG20000629193509306/29/00 19:35:31  5-MIN KMKG 300035Z 26006KT 10SM CLR 18/12 A2995 610 69 1100 260/06 RMK AO2
14840KMKG MKG20000629194009306/29/00 19:40:31  5-MIN KMKG 300040Z 27005KT 10SM CLR 18/12 A2995 610 69 1100 270/05 RMK AO2
14840KMKG MKG20000629194509306/29/00 19:45:31  5-MIN KMKG 300045Z 27005KT 10SM CLR 18/12 A2995 610 69 1100 280/05 RMK AO2
14840KMKG MKG20000629195011006/29/00 19:50:31  5-MIN KMKG 300050Z 27005KT 10SM CLR 17/12 A2995 610 72 1000 270/05 RMK AO2 SLP140 T01720122
14840KMKG MKG20000629195511006/29/00 19:55:31  5-MIN KMKG 300055Z 27005KT 10SM CLR 17/12 A2995 610 72 1000 270/05 RMK AO2 SLP140 T01720122
14840KMKG MKG20000629200009306/29/00 20:00:31  5-MIN KMKG 300100Z 26006KT 10SM CLR 17/12 A2995 600 72 1000 270/06 RMK AO2
14840KMKG MKG20000629200509306/29/00 20:05:31  5-MIN KMKG 300105Z 26004KT 10SM CLR 17/12 A2995 600 75 1000 260/04 RMK AO2
14840KMKG MKG20000629201009306/29/00 20:10:31  5-MIN KMKG 300110Z 26005KT 10SM CLR 17/12 A2995 600 75 1000 260/05 RMK AO2
14840KMKG MKG20000629201509206/29/00 20:15:31  5-MIN KMKG 300115Z 25005KT 10SM CLR 16/12 A2995 600 77 900 260/05 RMK AO2
14840KMKG MKG20000629202009206/29/00 20:20:31  5-MIN KMKG 300120Z 27003KT 10SM CLR 16/12 A2995 600 77 900 270/03 RMK AO2
14840KMKG MKG20000629202509206/29/00 20:25:31  5-MIN KMKG 300125Z 25005KT 10SM CLR 16/13 A2995 600 83 800 250/05 RMK AO2
14840KMKG MKG20000629203009206/29/00 20:30:31  5-MIN KMKG 300130Z 25005KT 10SM CLR 16/13 A2995 600 86 800 250/05 RMK AO2
14840KMKG MKG20000629203509206/29/00 20:35:31  5-MIN KMKG 300135Z 25005KT 10SM CLR 16/13 A2995 600 86 800 250/05 RMK AO2
14840KMKG MKG20000629204009206/29/00 20:40:31  5-MIN KMKG 300140Z 25004KT 10SM CLR 15/13 A2995 600 90 800 260/04 RMK AO2
14840KMKG MKG20000629204509206/29/00 20:45:31  5-MIN KMKG 300145Z 24005KT 10SM CLR 15/13 A2995 600 90 800 250/05 RMK AO2
14840KMKG MKG20000629205010906/29/00 20:50:31  5-MIN KMKG 300150Z 25005KT 10SM CLR 15/13 A2995 600 90 800 250/05 RMK AO2 SLP143 T01500133
14840KMKG MKG20000629205510906/29/00 20:55:31  5-MIN KMKG 300155Z 25005KT 10SM CLR 15/13 A2995 600 90 800 250/05 RMK AO2 SLP143 T01500133
14840KMKG MKG20000629210009206/29/00 21:00:31  5-MIN KMKG 300200Z 24005KT 10SM CLR 14/13 A2996 600 93 700 250/05 RMK AO2
14840KMKG MKG20000629210509206/29/00 21:05:31  5-MIN KMKG 300205Z 24005KT 10SM CLR 14/13 A2996 600 93 700 250/05 RMK AO2
14840KMKG MKG20000629211009206/29/00 21:10:31  5-MIN KMKG 300210Z 25005KT 10SM CLR 14/13 A2996 590 93 600 250/05 RMK AO2
14840KMKG MKG20000629211509206/29/00 21:15:31  5-MIN KMKG 300215Z 24005KT 10SM CLR 14/13 A2996 590 93 600 240/05 RMK AO2
14840KMKG MKG20000629212009206/29/00 21:20:31  5-MIN KMKG 300220Z 24004KT 10SM CLR 14/12 A2996 590 90 600 250/04 RMK AO2
14840KMKG MKG20000629212509206/29/00 21:25:31  5-MIN KMKG 300225Z 24004KT 10SM CLR 13/12 A2997 590 93 600 240/04 RMK AO2
14840KMKG MKG20000629213009206/29/00 21:30:31  5-MIN KMKG 300230Z 24003KT 10SM CLR 14/13 A2997 590 93 600 240/03 RMK AO2
14840KMKG MKG20000629213509206/29/00 21:35:31  5-MIN KMKG 300235Z 22003KT 10SM CLR 14/13 A2997 580 90 700 230/03 RMK AO2
14840KMKG MKG20000629214009206/29/00 21:40:31  5-MIN KMKG 300240Z 23003KT 10SM CLR 14/13 A2997 580 90 700 230/03 RMK AO2
14840KMKG MKG20000629214509206/29/00 21:45:31  5-MIN KMKG 300245Z 22003KT 10SM CLR 14/12 A2997 580 90 600 230/03 RMK AO2
14840KMKG MKG20000629215011506/29/00 21:50:31  5-MIN KMKG 300250Z 22004KT 10SM CLR 14/12 A2997 580 90 600 220/04 RMK AO2 SLP149 T01390122 53004
14840KMKG MKG20000629215511506/29/00 21:55:31  5-MIN KMKG 300255Z 23003KT 10SM CLR 14/12 A2997 580 90 600 230/03 RMK AO2 SLP149 T01390122 53010
14840KMKG MKG20000629220009206/29/00 22:00:31  5-MIN KMKG 300300Z 24003KT 10SM CLR 14/12 A2997 580 90 600 240/03 RMK AO2
14840KMKG MKG20000629220509206/29/00 22:05:31  5-MIN KMKG 300305Z 00000KT 10SM CLR 13/12 A2997 580 93 600 000/00 RMK AO2
14840KMKG MKG20000629221009206/29/00 22:10:31  5-MIN KMKG 300310Z 00000KT 10SM CLR 13/12 A2997 580 93 600 000/00 RMK AO2
14840KMKG MKG20000629221509206/29/00 22:15:31  5-MIN KMKG 300315Z 00000KT 10SM CLR 14/12 A2997 580 90 600 000/00 RMK AO2
14840KMKG MKG20000629222009206/29/00 22:20:31  5-MIN KMKG 300320Z 00000KT 10SM CLR 14/12 A2997 580 90 600 000/00 RMK AO2
14840KMKG MKG20000629222509206/29/00 22:25:31  5-MIN KMKG 300325Z 23003KT 10SM CLR 13/12 A2997 580 93 600 230/03 RMK AO2
14840KMKG MKG20000629223009206/29/00 22:30:31  5-MIN KMKG 300330Z 00000KT 10SM CLR 13/12 A2997 580 93 600 000/00 RMK AO2
14840KMKG MKG20000629223509206/29/00 22:35:31  5-MIN KMKG 300335Z 00000KT 10SM CLR 13/12 A2997 580 93 600 000/00 RMK AO2
14840KMKG MKG20000629224009206/29/00 22:40:31  5-MIN KMKG 300340Z 21004KT 10SM CLR 13/12 A2998 580 93 600 220/04 RMK AO2
14840KMKG MKG20000629224509206/29/00 22:45:31  5-MIN KMKG 300345Z 22004KT 10SM CLR 13/12 A2998 580 93 600 220/04 RMK AO2
14840KMKG MKG20000629225010906/29/00 22:50:31  5-MIN KMKG 300350Z 24004KT 10SM CLR 13/12 A2998 580 93 500 240/04 RMK AO2 SLP151 T01280117
14840KMKG MKG20000629225510906/29/00 22:55:31  5-MIN KMKG 300355Z 24003KT 10SM CLR 13/12 A2998 580 93 500 240/03 RMK AO2 SLP150 T01280117
14840KMKG MKG20000629230009206/29/00 23:00:31  5-MIN KMKG 300400Z 24003KT 10SM CLR 13/12 A2998 580 93 600 240/03 RMK AO2
14840KMKG MKG20000629230509206/29/00 23:05:31  5-MIN KMKG 300405Z 23004KT 10SM CLR 13/12 A2998 580 93 600 230/04 RMK AO2
14840KMKG MKG20000629231009206/29/00 23:10:31  5-MIN KMKG 300410Z 22004KT 10SM CLR 13/12 A2997 580 93 600 230/04 RMK AO2
14840KMKG MKG20000629231509206/29/00 23:15:31  5-MIN KMKG 300415Z 24004KT 10SM CLR 13/12 A2997 580 93 600 240/04 RMK AO2
14840KMKG MKG20000629232009206/29/00 23:20:31  5-MIN KMKG 300420Z 24005KT 10SM CLR 13/13 A2997 580 96 600 240/05 RMK AO2
14840KMKG MKG20000629232509206/29/00 23:25:31  5-MIN KMKG 300425Z 23006KT 10SM CLR 14/13 A2997 580 93 600 230/06 RMK AO2
14840KMKG MKG20000629233009206/29/00 23:30:31  5-MIN KMKG 300430Z 23006KT 10SM CLR 14/13 A2997 580 93 600 230/06 RMK AO2
14840KMKG MKG20000629233509206/29/00 23:35:31  5-MIN KMKG 300435Z 23005KT 10SM CLR 14/13 A2997 580 93 600 240/05 RMK AO2
14840KMKG MKG20000629234009206/29/00 23:40:31  5-MIN KMKG 300440Z 22004KT 10SM CLR 14/13 A2997 580 93 600 230/04 RMK AO2
14840KMKG MKG20000629234509206/29/00 23:45:31  5-MIN KMKG 300445Z 21004KT 10SM CLR 14/13 A2997 580 93 600 220/04 RMK AO2
14840KMKG MKG20000629235011906/29/00 23:50:31  5-MIN KMKG 300450Z 20003KT 10SM CLR 14/13 A2997 580 93 600 210/03 RMK AO2 SLP149 T01390128 402060111
14840KMKG MKG20000629235511906/29/00 23:55:31  5-MIN KMKG 300455Z 20003KT 10SM CLR 14/13 A2997 580 96 600 210/03 RMK AO2 SLP149 T01390133 402060111
14840KMKG MKG20000630000009206/30/00 00:00:31  5-MIN KMKG 300500Z 00000KT 10SM CLR 13/13 A2997 580 96 600 000/00 RMK AO2
14840KMKG MKG20000630000509206/30/00 00:05:31  5-MIN KMKG 300505Z 00000KT 10SM CLR 13/12 A2997 580 93 600 000/00 RMK AO2
14840KMKG MKG20000630001009206/30/00 00:10:31  5-MIN KMKG 300510Z 00000KT 10SM CLR 13/12 A2997 580 96 500 000/00 RMK AO2
14840KMKG MKG20000630001509206/30/00 00:15:31  5-MIN KMKG 300515Z 00000KT 10SM CLR 13/12 A2997 580 96 500 000/00 RMK AO2
14840KMKG MKG20000630002009106/30/00 00:20:31  5-MIN KMKG 300520Z 00000KT 9SM CLR 13/12 A2997 580 96 500 000/00 RMK AO2
14840KMKG MKG20000630002509106/30/00 00:25:31  5-MIN KMKG 300525Z 20003KT 9SM CLR 13/12 A2997 580 96 500 200/03 RMK AO2
14840KMKG MKG20000630003009206/30/00 00:30:31  5-MIN KMKG 300530Z 00000KT 10SM CLR 13/12 A2997 580 96 500 000/00 RMK AO2
14840KMKG MKG20000630003509206/30/00 00:35:31  5-MIN KMKG 300535Z 00000KT 10SM CLR 12/12 A2997 580 96 400 000/00 RMK AO2
14840KMKG MKG20000630004009206/30/00 00:40:31  5-MIN KMKG 300540Z 19003KT 10SM CLR 12/12 A2997 580 96 400 200/03 RMK AO2
14840KMKG MKG20000630004509106/30/00 00:45:31  5-MIN KMKG 300545Z 00000KT 9SM CLR 12/12 A2997 580 96 400 000/00 RMK AO2
14840KMKG MKG20000630005012706/30/00 00:50:31  5-MIN KMKG 300550Z 00000KT 10SM CLR 13/12 A2997 580 96 500 000/00 RMK AO2 SLP149 T01280122 10183 20122 53010
14840KMKG MKG20000630005512706/30/00 00:55:31  5-MIN KMKG 300555Z 20003KT 10SM CLR 13/12 A2997 580 96 500 210/03 RMK AO2 SLP149 T01280122 10183 20122 50000
14840KMKG MKG20000630010009206/30/00 01:00:31  5-MIN KMKG 300600Z 22004KT 10SM CLR 13/12 A2997 580 96 500 220/04 RMK AO2
14840KMKG MKG20000630010509206/30/00 01:05:31  5-MIN KMKG 300605Z 22005KT 10SM CLR 13/13 A2997 580 96 600 230/05 RMK AO2
14840KMKG MKG20000630011009206/30/00 01:10:31  5-MIN KMKG 300610Z 22004KT 10SM CLR 13/13 A2997 580 96 600 220/04 RMK AO2
14840KMKG MKG20000630011509206/30/00 01:15:31  5-MIN KMKG 300615Z 21005KT 10SM CLR 13/13 A2997 580 96 600 220/05 RMK AO2
14840KMKG MKG20000630012009206/30/00 01:20:31  5-MIN KMKG 300620Z 21004KT 10SM CLR 14/13 A2997 580 96 600 220/04 RMK AO2
14840KMKG MKG20000630012509206/30/00 01:25:31  5-MIN KMKG 300625Z 21004KT 10SM CLR 14/13 A2997 580 96 600 220/04 RMK AO2
14840KMKG MKG20000630013009206/30/00 01:30:31  5-MIN KMKG 300630Z 21004KT 10SM CLR 14/13 A2997 580 96 600 220/04 RMK AO2
14840KMKG MKG20000630013509206/30/00 01:35:31  5-MIN KMKG 300635Z 21004KT 10SM CLR 14/14 A2997 580 96 700 220/04 RMK AO2
14840KMKG MKG20000630014009206/30/00 01:40:31  5-MIN KMKG 300640Z 21003KT 10SM CLR 14/14 A2997 580 96 700 220/03 RMK AO2
14840KMKG MKG20000630014509206/30/00 01:45:31  5-MIN KMKG 300645Z 21003KT 10SM CLR 14/14 A2997 580 96 700 220/03 RMK AO2
14840KMKG MKG20000630015010906/30/00 01:50:31  5-MIN KMKG 300650Z 21003KT 10SM CLR 14/14 A2997 580 96 700 210/03 RMK AO2 SLP148 T01440139
14840KMKG MKG20000630015511006/30/00 01:55:31  5-MIN KMKG 300655Z 21003KT 10SM CLR 14/14 A2997 580 100 600 210/03 RMK AO2 SLP150 T01390139
14840KMKG MKG20000630020009206/30/00 02:00:31  5-MIN KMKG 300700Z 21003KT 10SM CLR 14/13 A2997 580 96 600 210/03 RMK AO2
14840KMKG MKG20000630020509206/30/00 02:05:31  5-MIN KMKG 300705Z 21003KT 10SM CLR 14/13 A2997 580 96 600 220/03 RMK AO2
14840KMKG MKG20000630021009206/30/00 02:10:31  5-MIN KMKG 300710Z 22003KT 10SM CLR 14/13 A2997 580 96 600 220/03 RMK AO2
14840KMKG MKG20000630021509206/30/00 02:15:31  5-MIN KMKG 300715Z 22004KT 10SM CLR 14/13 A2997 580 96 600 220/04 RMK AO2
14840KMKG MKG20000630022009206/30/00 02:20:31  5-MIN KMKG 300720Z 22003KT 10SM CLR 14/13 A2997 580 96 600 220/03 RMK AO2
14840KMKG MKG20000630022509206/30/00 02:25:31  5-MIN KMKG 300725Z 21003KT 10SM CLR 14/13 A2997 580 96 600 220/03 RMK AO2
14840KMKG MKG20000630023009206/30/00 02:30:31  5-MIN KMKG 300730Z 21003KT 10SM CLR 14/14 A2997 580 96 700 210/03 RMK AO2
14840KMKG MKG20000630023509206/30/00 02:35:31  5-MIN KMKG 300735Z 21003KT 10SM CLR 14/13 A2998 580 96 600 220/03 RMK AO2
14840KMKG MKG20000630024009206/30/00 02:40:31  5-MIN KMKG 300740Z 21003KT 10SM CLR 14/13 A2997 580 96 600 210/03 RMK AO2
14840KMKG MKG20000630024509206/30/00 02:45:31  5-MIN KMKG 300745Z 21004KT 10SM CLR 14/13 A2997 580 96 600 220/04 RMK AO2
14840KMKG MKG20000630025010906/30/00 02:50:31  5-MIN KMKG 300750Z 21003KT 10SM CLR 14/13 A2997 580 93 600 210/03 RMK AO2 SLP150 T01390128
14840KMKG MKG20000630025510906/30/00 02:55:31  5-MIN KMKG 300755Z 21003KT 10SM CLR 13/12 A2997 580 93 600 210/03 RMK AO2 SLP150 T01330122
14840KMKG MKG20000630030009206/30/00 03:00:31  5-MIN KMKG 300800Z 21003KT 10SM CLR 13/12 A2997 580 93 600 210/03 RMK AO2
14840KMKG MKG20000630030509206/30/00 03:05:31  5-MIN KMKG 300805Z 22004KT 10SM CLR 13/12 A2997 580 96 500 220/04 RMK AO2
14840KMKG MKG20000630031009206/30/00 03:10:31  5-MIN KMKG 300810Z 22004KT 10SM CLR 13/12 A2997 580 93 600 220/04 RMK AO2
14840KMKG MKG20000630031509206/30/00 03:15:31  5-MIN KMKG 300815Z 22004KT 10SM CLR 13/13 A2997 580 96 600 220/04 RMK AO2
14840KMKG MKG20000630032009206/30/00 03:20:31  5-MIN KMKG 300820Z 22005KT 10SM CLR 14/13 A2997 580 93 600 220/05 RMK AO2
14840KMKG MKG20000630032509206/30/00 03:25:31  5-MIN KMKG 300825Z 22005KT 10SM CLR 14/13 A2998 580 96 600 220/05 RMK AO2
14840KMKG MKG20000630033009206/30/00 03:30:31  5-MIN KMKG 300830Z 22005KT 10SM CLR 13/13 A2998 580 96 600 230/05 RMK AO2
14840KMKG MKG20000630033509206/30/00 03:35:31  5-MIN KMKG 300835Z 22006KT 10SM CLR 13/13 A2998 580 96 600 230/06 RMK AO2
14840KMKG MKG20000630034009206/30/00 03:40:31  5-MIN KMKG 300840Z 23005KT 10SM CLR 13/13 A2998 580 96 600 240/05 RMK AO2
14840KMKG MKG20000630034509206/30/00 03:45:31  5-MIN KMKG 300845Z 23005KT 10SM CLR 14/13 A2998 580 96 600 230/05 RMK AO2
14840KMKG MKG20000630035011506/30/00 03:50:31  5-MIN KMKG 300850Z 22006KT 10SM CLR 14/13 A2998 580 93 600 230/06 RMK AO2 SLP150 T01390128 50000
14840KMKG MKG20000630035511506/30/00 03:55:31  5-MIN KMKG 300855Z 23005KT 10SM CLR 14/13 A2998 580 96 600 230/05 RMK AO2 SLP150 T01390133 53002
14840KMKG MKG20000630040009206/30/00 04:00:31  5-MIN KMKG 300900Z 23005KT 10SM CLR 14/13 A2998 580 93 700 230/05 RMK AO2
14840KMKG MKG20000630040509206/30/00 04:05:31  5-MIN KMKG 300905Z 23005KT 10SM CLR 14/13 A2998 580 93 700 240/05 RMK AO2
14840KMKG MKG20000630041009206/30/00 04:10:31  5-MIN KMKG 300910Z 23005KT 10SM CLR 14/13 A2998 570 90 700 230/05 RMK AO2
14840KMKG MKG20000630041509206/30/00 04:15:31  5-MIN KMKG 300915Z 23005KT 10SM CLR 14/13 A2998 570 93 600 230/05 RMK AO2
14840KMKG MKG20000630042009206/30/00 04:20:31  5-MIN KMKG 300920Z 23005KT 10SM CLR 14/13 A2998 570 93 600 230/05 RMK AO2
14840KMKG MKG20000630042509206/30/00 04:25:31  5-MIN KMKG 300925Z 23005KT 10SM CLR 14/13 A2998 570 96 600 230/05 RMK AO2
14840KMKG MKG20000630043009206/30/00 04:30:31  5-MIN KMKG 300930Z 23005KT 10SM CLR 14/13 A2998 570 93 600 230/05 RMK AO2
14840KMKG MKG20000630043509206/30/00 04:35:31  5-MIN KMKG 300935Z 23005KT 10SM CLR 14/13 A2998 570 93 600 230/05 RMK AO2
14840KMKG MKG20000630044009206/30/00 04:40:31  5-MIN KMKG 300940Z 23005KT 10SM CLR 14/13 A2999 570 93 600 230/05 RMK AO2
14840KMKG MKG20000630044509206/30/00 04:45:31  5-MIN KMKG 300945Z 23005KT 10SM CLR 14/13 A2999 570 93 700 230/05 RMK AO2
14840KMKG MKG20000630045010906/30/00 04:50:31  5-MIN KMKG 300950Z 24005KT 10SM CLR 14/13 A2999 570 93 700 240/05 RMK AO2 SLP153 T01440133
14840KMKG MKG20000630045510906/30/00 04:55:31  5-MIN KMKG 300955Z 24004KT 10SM CLR 14/13 A2999 570 93 600 240/04 RMK AO2 SLP154 T01390128
14840KMKG MKG20000630050009206/30/00 05:00:31  5-MIN KMKG 301000Z 23004KT 10SM CLR 14/12 A2999 570 90 600 230/04 RMK AO2
14840KMKG MKG20000630050509206/30/00 05:05:31  5-MIN KMKG 301005Z 22003KT 10SM CLR 13/12 A2999 570 93 500 230/03 RMK AO2
14840KMKG MKG20000630051009206/30/00 05:10:31  5-MIN KMKG 301010Z 24004KT 10SM CLR 13/12 A2999 570 93 500 240/04 RMK AO2
14840KMKG MKG20000630051509206/30/00 05:15:31  5-MIN KMKG 301015Z 24004KT 10SM CLR 13/12 A2999 560 93 500 250/04 RMK AO2
14840KMKG MKG20000630052009206/30/00 05:20:31  5-MIN KMKG 301020Z 25004KT 10SM CLR 14/13 A2999 560 93 600 250/04 RMK AO2
14840KMKG MKG20000630052509206/30/00 05:25:31  5-MIN KMKG 301025Z 24004KT 10SM CLR 15/13 A2999 560 90 700 250/04 RMK AO2
14840KMKG MKG20000630053009206/30/00 05:30:31  5-MIN KMKG 301030Z 25005KT 10SM CLR 16/13 A2999 560 86 800 250/05 RMK AO2
14840KMKG MKG20000630053509206/30/00 05:35:31  5-MIN KMKG 301035Z 25004KT 10SM CLR 16/13 A2999 560 86 800 260/04 RMK AO2
14840KMKG MKG20000630054009206/30/00 05:40:31  5-MIN KMKG 301040Z 26004KT 10SM CLR 16/13 A2999 560 86 800 260/04 RMK AO2
14840KMKG MKG20000630054509206/30/00 05:45:31  5-MIN KMKG 301045Z 26004KT 10SM CLR 16/13 A2999 560 86 800 270/04 RMK AO2
14840KMKG MKG20000630055010906/30/00 05:50:31  5-MIN KMKG 301050Z 26003KT 10SM CLR 16/13 A2999 560 86 800 270/03 RMK AO2 SLP155 T01560133
14840KMKG MKG20000630055510906/30/00 05:55:31  5-MIN KMKG 301055Z 25003KT 10SM CLR 16/13 A2999 560 86 800 260/03 RMK AO2 SLP156 T01560133
14840KMKG MKG20000630060009206/30/00 06:00:31  5-MIN KMKG 301100Z 27003KT 10SM CLR 16/13 A2999 560 86 800 270/03 RMK AO2
14840KMKG MKG20000630060509206/30/00 06:05:31  5-MIN KMKG 301105Z 27004KT 10SM CLR 16/13 A2999 560 83 900 270/04 RMK AO2
14840KMKG MKG20000630061009206/30/00 06:10:31  5-MIN KMKG 301110Z 26004KT 10SM CLR 16/14 A3000 560 86 900 270/04 RMK AO2
14840KMKG MKG20000630061509206/30/00 06:15:31  5-MIN KMKG 301115Z 26003KT 10SM CLR 16/14 A3000 560 86 900 260/03 RMK AO2
14840KMKG MKG20000630062009206/30/00 06:20:31  5-MIN KMKG 301120Z 26003KT 10SM CLR 17/14 A3000 560 83 900 270/03 RMK AO2
14840KMKG MKG20000630062509206/30/00 06:25:31  5-MIN KMKG 301125Z 26003KT 10SM CLR 17/14 A3000 550 83 900 260/03 RMK AO2
14840KMKG MKG20000630063009206/30/00 06:30:31  5-MIN KMKG 301130Z 27003KT 10SM CLR 17/14 A3000 550 83 900 270/03 RMK AO2
14840KMKG MKG20000630063509306/30/00 06:35:31  5-MIN KMKG 301135Z 27004KT 10SM CLR 17/14 A3001 550 80 1000 280/04 RMK AO2
14840KMKG MKG20000630064009306/30/00 06:40:31  5-MIN KMKG 301140Z 27003KT 10SM CLR 17/14 A3001 550 80 1000 270/03 RMK AO2
14840KMKG MKG20000630064509306/30/00 06:45:31  5-MIN KMKG 301145Z 26003KT 10SM CLR 17/14 A3001 550 80 1000 260/03 RMK AO2
14840KMKG MKG20000630065012806/30/00 06:50:31  5-MIN KMKG 301150Z 26003KT 10SM CLR 18/14 A3001 550 81 1000 270/03 RMK AO2 SLP160 T01780144 10178 20128 53002
14840KMKG MKG20000630065512806/30/00 06:55:31  5-MIN KMKG 301155Z 25004KT 10SM CLR 18/14 A3001 550 81 1000 250/04 RMK AO2 SLP161 T01780144 10178 20128 53010
14840KMKG MKG20000630070009306/30/00 07:00:31  5-MIN KMKG 301200Z 25005KT 10SM CLR 18/14 A3001 550 78 1000 250/05 RMK AO2
14840KMKG MKG20000630070509306/30/00 07:05:31  5-MIN KMKG 301205Z 26006KT 10SM CLR 18/14 A3001 550 78 1000 260/06 RMK AO2
14840KMKG MKG20000630071009306/30/00 07:10:31  5-MIN KMKG 301210Z 25005KT 10SM CLR 18/14 A3001 550 81 1000 250/05 RMK AO2
14840KMKG MKG20000630071509306/30/00 07:15:31  5-MIN KMKG 301215Z 25006KT 10SM CLR 18/14 A3001 540 81 1000 260/06 RMK AO2
14840KMKG MKG20000630072009306/30/00 07:20:31  5-MIN KMKG 301220Z 25005KT 10SM CLR 18/14 A3001 550 75 1100 250/05 RMK AO2
14840KMKG MKG20000630072509306/30/00 07:25:31  5-MIN KMKG 301225Z 27007KT 10SM CLR 18/14 A3001 550 78 1100 270/07 RMK AO2
14840KMKG MKG20000630073009306/30/00 07:30:31  5-MIN KMKG 301230Z 26007KT 10SM CLR 18/14 A3001 540 75 1100 260/07 RMK AO2
14840KMKG MKG20000630073509306/30/00 07:35:31  5-MIN KMKG 301235Z 27007KT 10SM CLR 18/13 A3001 540 72 1100 280/07 RMK AO2
14840KMKG MKG20000630074009306/30/00 07:40:31  5-MIN KMKG 301240Z 26005KT 10SM CLR 18/13 A3002 540 72 1100 270/05 RMK AO2
14840KMKG MKG20000630074509306/30/00 07:45:31  5-MIN KMKG 301245Z 26006KT 10SM CLR 19/14 A3002 540 72 1200 260/06 RMK AO2
14840KMKG MKG20000630075011006/30/00 07:50:31  5-MIN KMKG 301250Z 26005KT 10SM CLR 19/14 A3002 540 72 1200 270/05 RMK AO2 SLP163 T01890139
14840KMKG MKG20000630075511006/30/00 07:55:31  5-MIN KMKG 301255Z VRB05KT 10SM CLR 19/14 A3002 540 70 1200 VRB/05 RMK AO2 SLP163 T01940139
14840KMKG MKG20000630080009306/30/00 08:00:31  5-MIN KMKG 301300Z 27005KT 10SM CLR 19/13 A3002 540 67 1200 280/05 RMK AO2
14840KMKG MKG20000630080509306/30/00 08:05:31  5-MIN KMKG 301305Z 28005KT 10SM CLR 19/13 A3002 540 67 1200 290/05 RMK AO2
14840KMKG MKG20000630081009306/30/00 08:10:31  5-MIN KMKG 301310Z 26006KT 10SM CLR 19/13 A3002 540 67 1200 260/06 RMK AO2
14840KMKG MKG20000630081509306/30/00 08:15:31  5-MIN KMKG 301315Z VRB06KT 10SM CLR 20/13 A3002 540 65 1300 VRB/06 RMK AO2
14840KMKG MKG20000630082009306/30/00 08:20:31  5-MIN KMKG 301320Z 26007KT 10SM CLR 20/13 A3002 540 65 1300 260/07 RMK AO2
14840KMKG MKG20000630082509306/30/00 08:25:31  5-MIN KMKG 301325Z 25007KT 10SM CLR 20/14 A3002 530 67 1300 260/07 RMK AO2
14840KMKG MKG20000630083009306/30/00 08:30:31  5-MIN KMKG 301330Z 26006KT 10SM CLR 19/13 A3003 530 67 1200 260/06 RMK AO2
14840KMKG MKG20000630083509306/30/00 08:35:31  5-MIN KMKG 301335Z 26007KT 10SM CLR 20/13 A3003 530 65 1300 260/07 RMK AO2
14840KMKG MKG20000630084009306/30/00 08:40:31  5-MIN KMKG 301340Z 25009KT 10SM CLR 19/13 A3002 530 65 1200 260/09 RMK AO2
14840KMKG MKG20000630084509306/30/00 08:45:31  5-MIN KMKG 301345Z 27007KT 10SM CLR 20/13 A3002 530 65 1300 270/07 RMK AO2
14840KMKG MKG20000630085011006/30/00 08:50:31  5-MIN KMKG 301350Z 25008KT 10SM CLR 20/13 A3003 530 65 1300 250/08 RMK AO2 SLP167 T02000133
14840KMKG MKG20000630085511006/30/00 08:55:31  5-MIN KMKG 301355Z 25008KT 10SM CLR 20/13 A3003 530 65 1300 250/08 RMK AO2 SLP167 T02000133
14840KMKG MKG20000630090009306/30/00 09:00:31  5-MIN KMKG 301400Z 26008KT 10SM CLR 20/13 A3003 530 63 1300 260/08 RMK AO2
14840KMKG MKG20000630090509306/30/00 09:05:31  5-MIN KMKG 301405Z 25008KT 10SM CLR 21/13 A3003 530 63 1300 260/08 RMK AO2
14840KMKG MKG20000630091009306/30/00 09:10:31  5-MIN KMKG 301410Z 25008KT 10SM CLR 20/13 A3003 530 63 1300 250/08 RMK AO2
14840KMKG MKG20000630091509306/30/00 09:15:31  5-MIN KMKG 301415Z 25006KT 10SM CLR 21/13 A3003 530 63 1300 250/06 RMK AO2
14840KMKG MKG20000630092009306/30/00 09:20:31  5-MIN KMKG 301420Z 25007KT 10SM CLR 21/13 A3003 530 63 1300 260/07 RMK AO2
14840KMKG MKG20000630092509306/30/00 09:25:31  5-MIN KMKG 301425Z 26008KT 10SM CLR 21/13 A3003 530 58 1400 260/08 RMK AO2
14840KMKG MKG20000630093009306/30/00 09:30:31  5-MIN KMKG 301430Z 28009KT 10SM CLR 22/13 A3003 530 56 1500 280/09 RMK AO2
14840KMKG MKG20000630093509306/30/00 09:35:31  5-MIN KMKG 301435Z 26007KT 10SM CLR 21/13 A3003 530 58 1400 260/07 RMK AO2
14840KMKG MKG20000630094009306/30/00 09:40:31  5-MIN KMKG 301440Z 26008KT 10SM CLR 22/13 A3003 530 58 1500 260/08 RMK AO2
14840KMKG MKG20000630094509306/30/00 09:45:31  5-MIN KMKG 301445Z 26009KT 10SM CLR 21/13 A3003 530 58 1400 270/09 RMK AO2
14840KMKG MKG20000630095011606/30/00 09:50:31  5-MIN KMKG 301450Z 26008KT 10SM CLR 21/13 A3003 530 58 1400 260/08 RMK AO2 SLP168 T02110128 53010
14840KMKG MKG20000630095511606/30/00 09:55:31  5-MIN KMKG 301455Z 25009KT 10SM CLR 21/13 A3003 530 58 1400 260/09 RMK AO2 SLP167 T02110128 51006
14840KMKG MKG20000630100009306/30/00 10:00:31  5-MIN KMKG 301500Z 25011KT 10SM CLR 21/12 A3003 530 56 1400 260/11 RMK AO2
14840KMKG MKG20000630100509306/30/00 10:05:31  5-MIN KMKG 301505Z 26009KT 10SM CLR 21/12 A3003 530 56 1400 260/09 RMK AO2
14840KMKG MKG20000630101009306/30/00 10:10:31  5-MIN KMKG 301510Z 27010KT 10SM CLR 22/12 A3003 530 54 1500 270/10 RMK AO2
14840KMKG MKG20000630101509306/30/00 10:15:31  5-MIN KMKG 301515Z 27010KT 10SM CLR 22/12 A3003 530 54 1500 280/10 RMK AO2
14840KMKG MKG20000630102009306/30/00 10:20:31  5-MIN KMKG 301520Z 27009KT 10SM CLR 22/12 A3003 530 52 1500 280/09 RMK AO2
14840KMKG MKG20000630102509306/30/00 10:25:31  5-MIN KMKG 301525Z 24010KT 10SM CLR 22/12 A3003 530 52 1500 250/10 RMK AO2
14840KMKG MKG20000630103009306/30/00 10:30:31  5-MIN KMKG 301530Z 25009KT 10SM CLR 22/12 A3003 530 52 1500 250/09 RMK AO2
14840KMKG MKG20000630103509606/30/00 10:35:31  5-MIN KMKG 301535Z 25010KT 10SM FEW035 22/12 A3003 530 54 1500 250/10 RMK AO2
14840KMKG MKG20000630104009606/30/00 10:40:31  5-MIN KMKG 301540Z 26008KT 10SM FEW035 22/12 A3003 530 54 1500 260/08 RMK AO2
14840KMKG MKG20000630104509606/30/00 10:45:31  5-MIN KMKG 301545Z 24011KT 10SM FEW035 22/12 A3003 530 52 1500 250/11 RMK AO2
14840KMKG MKG20000630105011306/30/00 10:50:31  5-MIN KMKG 301550Z 25011KT 10SM FEW035 22/12 A3003 530 52 1500 260/11 RMK AO2 SLP168 T02220122
14840KMKG MKG20000630105511306/30/00 10:55:31  5-MIN KMKG 301555Z 26010KT 10SM FEW035 22/12 A3003 530 52 1500 260/10 RMK AO2 SLP168 T02220122
14840KMKG MKG20000630110009606/30/00 11:00:31  5-MIN KMKG 301600Z 23010KT 10SM FEW035 22/12 A3003 530 52 1500 240/10 RMK AO2
14840KMKG MKG20000630110509606/30/00 11:05:31  5-MIN KMKG 301605Z 26009KT 10SM FEW035 23/12 A3003 530 51 1600 260/09 RMK AO2
14840KMKG MKG20000630111009606/30/00 11:10:31  5-MIN KMKG 301610Z 26010KT 10SM FEW035 22/12 A3003 530 52 1500 270/10 RMK AO2
14840KMKG MKG20000630111509606/30/00 11:15:31  5-MIN KMKG 301615Z 24008KT 10SM FEW035 23/12 A3003 530 51 1600 250/08 RMK AO2
14840KMKG MKG20000630112009606/30/00 11:20:31  5-MIN KMKG 301620Z 24011KT 10SM FEW035 23/12 A3003 530 51 1600 240/11 RMK AO2
14840KMKG MKG20000630112509606/30/00 11:25:31  5-MIN KMKG 301625Z 24011KT 10SM FEW035 22/12 A3003 530 52 1500 240/11 RMK AO2
14840KMKG MKG20000630113009606/30/00 11:30:31  5-MIN KMKG 301630Z 25011KT 10SM FEW035 22/12 A3003 530 52 1500 250/11 RMK AO2
14840KMKG MKG20000630113509606/30/00 11:35:31  5-MIN KMKG 301635Z 25011KT 10SM FEW035 22/12 A3003 530 52 1500 250/11 RMK AO2
14840KMKG MKG20000630114009606/30/00 11:40:31  5-MIN KMKG 301640Z 25010KT 10SM FEW035 22/12 A3003 530 52 1500 250/10 RMK AO2
14840KMKG MKG20000630114509606/30/00 11:45:31  5-MIN KMKG 301645Z 24010KT 10SM FEW035 22/12 A3003 530 52 1500 250/10 RMK AO2
14840KMKG MKG20000630115011306/30/00 11:50:31  5-MIN KMKG 301650Z 24008KT 10SM FEW035 22/12 A3003 530 52 1500 250/08 RMK AO2 SLP167 T02220122
14840KMKG MKG20000630115511306/30/00 11:55:31  5-MIN KMKG 301655Z 26009KT 10SM FEW035 23/12 A3003 530 51 1600 260/09 RMK AO2 SLP167 T02280122
14840KMKG MKG20000630120009606/30/00 12:00:31  5-MIN KMKG 301700Z 24009KT 10SM FEW035 23/12 A3003 530 49 1600 240/09 RMK AO2
14840KMKG MKG20000630120509606/30/00 12:05:31  5-MIN KMKG 301705Z 26008KT 10SM FEW035 23/12 A3003 530 51 1600 260/08 RMK AO2
14840KMKG MKG20000630121009606/30/00 12:10:31  5-MIN KMKG 301710Z 23010KT 10SM FEW035 23/12 A3003 530 47 1700 240/10 RMK AO2
14840KMKG MKG20000630121509606/30/00 12:15:31  5-MIN KMKG 301715Z 23010KT 10SM FEW035 23/12 A3003 530 47 1700 240/10 RMK AO2
14840KMKG MKG20000630122009606/30/00 12:20:31  5-MIN KMKG 301720Z 24011KT 10SM FEW035 23/11 A3003 530 45 1700 240/11 RMK AO2
14840KMKG MKG20000630122509606/30/00 12:25:31  5-MIN KMKG 301725Z 23012KT 10SM FEW035 24/11 A3003 530 44 1700 230/12 RMK AO2
14840KMKG MKG20000630123009606/30/00 12:30:31  5-MIN KMKG 301730Z 23011KT 10SM FEW035 23/11 A3003 530 45 1700 230/11 RMK AO2
14840KMKG MKG20000630123509606/30/00 12:35:31  5-MIN KMKG 301735Z 24011KT 10SM FEW035 23/11 A3003 530 45 1700 240/11 RMK AO2
14840KMKG MKG20000630124009606/30/00 12:40:31  5-MIN KMKG 301740Z 24011KT 10SM FEW035 24/11 A3002 540 44 1700 240/11 RMK AO2
14840KMKG MKG20000630124509606/30/00 12:45:31  5-MIN KMKG 301745Z 23010KT 10SM FEW035 23/11 A3002 540 45 1700 240/10 RMK AO2
14840KMKG MKG20000630125013106/30/00 12:50:31  5-MIN KMKG 301750Z 24011KT 10SM FEW035 23/11 A3002 540 45 1700 240/11 RMK AO2 SLP165 T02330111 10239 20178 51006
14840KMKG MKG20000630125513106/30/00 12:55:31  5-MIN KMKG 301755Z 23012KT 10SM FEW035 23/12 A3002 540 47 1700 240/12 RMK AO2 SLP165 T02330117 10239 20178 58002
14840KMKG MKG20000630130009606/30/00 13:00:31  5-MIN KMKG 301800Z 22011KT 10SM FEW035 24/12 A3002 540 46 1800 230/11 RMK AO2
14840KMKG MKG20000630130509606/30/00 13:05:31  5-MIN KMKG 301805Z 22012KT 10SM FEW035 23/12 A3002 540 47 1700 230/12 RMK AO2
14840KMKG MKG20000630131009606/30/00 13:10:31  5-MIN KMKG 301810Z 23011KT 10SM FEW035 24/11 A3002 540 44 1700 240/11 RMK AO2
14840KMKG MKG20000630131509606/30/00 13:15:31  5-MIN KMKG 301815Z 23011KT 10SM FEW035 23/12 A3002 540 47 1700 230/11 RMK AO2
14840KMKG MKG20000630132009606/30/00 13:20:31  5-MIN KMKG 301820Z 22013KT 10SM FEW035 23/12 A3002 540 47 1700 220/13 RMK AO2
14840KMKG MKG20000630132509606/30/00 13:25:31  5-MIN KMKG 301825Z 23012KT 10SM FEW035 23/12 A3002 540 47 1700 230/12 RMK AO2
14840KMKG MKG20000630133009606/30/00 13:30:31  5-MIN KMKG 301830Z 23012KT 10SM FEW035 23/12 A3002 540 47 1700 230/12 RMK AO2
14840KMKG MKG20000630133509606/30/00 13:35:31  5-MIN KMKG 301835Z 22012KT 10SM FEW035 24/12 A3002 540 46 1700 220/12 RMK AO2
14840KMKG MKG20000630134009606/30/00 13:40:31  5-MIN KMKG 301840Z 22012KT 10SM FEW035 23/12 A3002 540 47 1700 230/12 RMK AO2
14840KMKG MKG20000630134509606/30/00 13:45:31  5-MIN KMKG 301845Z 22012KT 10SM FEW035 24/12 A3002 540 46 1700 220/12 RMK AO2
14840KMKG MKG20000630135011306/30/00 13:50:31  5-MIN KMKG 301850Z 23011KT 10SM FEW035 24/12 A3002 540 46 1700 230/11 RMK AO2 SLP162 T02390117
14840KMKG MKG20000630135511306/30/00 13:55:31  5-MIN KMKG 301855Z 22015KT 10SM FEW035 24/11 A3001 540 44 1700 220/15 RMK AO2 SLP163 T02390111
14840KMKG MKG20000630140009606/30/00 14:00:31  5-MIN KMKG 301900Z 23011KT 10SM FEW035 24/11 A3001 540 44 1700 230/11 RMK AO2
14840KMKG MKG20000630140509606/30/00 14:05:31  5-MIN KMKG 301905Z 22011KT 10SM FEW035 24/12 A3001 540 46 1700 220/11 RMK AO2
14840KMKG MKG20000630141009606/30/00 14:10:31  5-MIN KMKG 301910Z 22013KT 10SM FEW035 24/12 A3001 540 46 1700 230/13 RMK AO2
14840KMKG MKG20000630141509606/30/00 14:15:31  5-MIN KMKG 301915Z 23011KT 10SM FEW035 24/12 A3001 540 46 1700 240/11 RMK AO2
14840KMKG MKG20000630142009606/30/00 14:20:31  5-MIN KMKG 301920Z 22012KT 10SM FEW035 24/12 A3001 540 46 1700 230/12 RMK AO2
14840KMKG MKG20000630142509606/30/00 14:25:31  5-MIN KMKG 301925Z 21013KT 10SM FEW035 23/12 A3001 550 47 1700 220/13 RMK AO2
14840KMKG MKG20000630143009606/30/00 14:30:31  5-MIN KMKG 301930Z 22013KT 10SM FEW035 23/12 A3001 550 47 1700 230/13 RMK AO2
14840KMKG MKG20000630143509606/30/00 14:35:31  5-MIN KMKG 301935Z 22013KT 10SM FEW035 23/12 A3001 550 47 1700 220/13 RMK AO2
14840KMKG MKG20000630144009606/30/00 14:40:31  5-MIN KMKG 301940Z 22011KT 10SM FEW035 23/12 A3001 550 49 1700 220/11 RMK AO2
14840KMKG MKG20000630144509606/30/00 14:45:31  5-MIN KMKG 301945Z 22013KT 10SM FEW035 24/12 A3001 550 46 1700 220/13 RMK AO2
14840KMKG MKG20000630145011306/30/00 14:50:31  5-MIN KMKG 301950Z 21012KT 10SM FEW035 23/12 A3001 550 47 1700 210/12 RMK AO2 SLP160 T02330117
14840KMKG MKG20000630145511306/30/00 14:55:31  5-MIN KMKG 301955Z 22013KT 10SM FEW035 23/12 A3001 550 47 1700 220/13 RMK AO2 SLP160 T02330117
14840KMKG MKG20000630150009606/30/00 15:00:31  5-MIN KMKG 302000Z 22011KT 10SM FEW035 23/12 A3001 550 49 1600 220/11 RMK AO2
14840KMKG MKG20000630150509606/30/00 15:05:31  5-MIN KMKG 302005Z 22011KT 10SM FEW035 23/12 A3001 550 49 1700 220/11 RMK AO2
14840KMKG MKG20000630151010206/30/00 15:10:31  5-MIN KMKG 302010Z 21011G17KT 10SM FEW035 23/12 A3000 550 47 1700 210/11G17 RMK AO2
14840KMKG MKG20000630151509606/30/00 15:15:31  5-MIN KMKG 302015Z 21012KT 10SM FEW035 24/12 A3000 560 46 1800 210/12 RMK AO2
14840KMKG MKG20000630152009606/30/00 15:20:31  5-MIN KMKG 302020Z 21013KT 10SM FEW035 23/11 A3000 560 45 1700 220/13 RMK AO2
14840KMKG MKG20000630152509606/30/00 15:25:31  5-MIN KMKG 302025Z 22012KT 10SM FEW035 23/12 A3000 560 47 1700 220/12 RMK AO2
14840KMKG MKG20000630153009606/30/00 15:30:31  5-MIN KMKG 302030Z 22012KT 10SM FEW035 23/12 A3000 560 47 1700 220/12 RMK AO2
14840KMKG MKG20000630153509606/30/00 15:35:31  5-MIN KMKG 302035Z 21012KT 10SM FEW035 23/12 A3000 560 47 1700 220/12 RMK AO2
14840KMKG MKG20000630154009606/30/00 15:40:31  5-MIN KMKG 302040Z 21012KT 10SM FEW035 24/12 A3000 560 47 1800 220/12 RMK AO2
14840KMKG MKG20000630154509606/30/00 15:45:31  5-MIN KMKG 302045Z 21010KT 10SM FEW035 24/12 A3000 560 46 1800 210/10 RMK AO2
14840KMKG MKG20000630155011906/30/00 15:50:31  5-MIN KMKG 302050Z 22011KT 10SM FEW035 23/12 A3000 560 47 1700 230/11 RMK AO2 SLP157 T02330117 58002
14840KMKG MKG20000630155511906/30/00 15:55:31  5-MIN KMKG 302055Z 21012KT 10SM FEW050 23/12 A3000 560 47 1700 210/12 RMK AO2 SLP157 T02330117 58007
14840KMKG MKG20000630160009306/30/00 16:00:31  5-MIN KMKG 302100Z 21011KT 10SM CLR 23/12 A3000 560 47 1700 210/11 RMK AO2
14840KMKG MKG20000630160509306/30/00 16:05:31  5-MIN KMKG 302105Z 20013KT 10SM CLR 23/12 A3000 560 47 1700 200/13 RMK AO2
14840KMKG MKG20000630161009306/30/00 16:10:31  5-MIN KMKG 302110Z 20011KT 10SM CLR 23/12 A3000 560 49 1600 200/11 RMK AO2
14840KMKG MKG20000630161509306/30/00 16:15:31  5-MIN KMKG 302115Z 20011KT 10SM CLR 23/12 A3000 560 47 1700 210/11 RMK AO2
14840KMKG MKG20000630162009306/30/00 16:20:31  5-MIN KMKG 302120Z 20012KT 10SM CLR 23/12 A2999 560 47 1700 210/12 RMK AO2
14840KMKG MKG20000630162509306/30/00 16:25:31  5-MIN KMKG 302125Z 21012KT 10SM CLR 23/12 A2999 570 47 1700 220/12 RMK AO2
14840KMKG MKG20000630163009306/30/00 16:30:31  5-MIN KMKG 302130Z 21010KT 10SM CLR 23/12 A2999 570 49 1700 210/10 RMK AO2
14840KMKG MKG20000630163509306/30/00 16:35:31  5-MIN KMKG 302135Z 20011KT 10SM CLR 23/12 A2999 570 49 1700 200/11 RMK AO2
14840KMKG MKG20000630164009306/30/00 16:40:31  5-MIN KMKG 302140Z 19012KT 10SM CLR 23/12 A2999 570 49 1700 200/12 RMK AO2
14840KMKG MKG20000630164509306/30/00 16:45:31  5-MIN KMKG 302145Z 20014KT 10SM CLR 23/12 A2999 570 47 1700 200/14 RMK AO2
14840KMKG MKG20000630165011006/30/00 16:50:31  5-MIN KMKG 302150Z 21011KT 10SM CLR 23/12 A2999 570 49 1600 210/11 RMK AO2 SLP154 T02280117
14840KMKG MKG20000630165511006/30/00 16:55:31  5-MIN KMKG 302155Z 19012KT 10SM CLR 23/13 A2999 560 51 1700 200/12 RMK AO2 SLP155 T02330128
14840KMKG MKG20000630170009306/30/00 17:00:31  5-MIN KMKG 302200Z 20010KT 10SM CLR 23/12 A2999 560 49 1700 210/10 RMK AO2
14840KMKG MKG20000630170509906/30/00 17:05:31  5-MIN KMKG 302205Z 21014G18KT 10SM CLR 23/12 A2999 560 49 1600 210/14G18 RMK AO2
14840KMKG MKG20000630171009306/30/00 17:10:31  5-MIN KMKG 302210Z 20014KT 10SM CLR 23/12 A3000 560 49 1600 210/14 RMK AO2
14840KMKG MKG20000630171509306/30/00 17:15:31  5-MIN KMKG 302215Z 20012KT 10SM CLR 23/12 A3000 560 49 1600 200/12 RMK AO2
14840KMKG MKG20000630172009306/30/00 17:20:31  5-MIN KMKG 302220Z 20012KT 10SM CLR 23/12 A2999 560 51 1600 200/12 RMK AO2
14840KMKG MKG20000630172509306/30/00 17:25:31  5-MIN KMKG 302225Z 21012KT 10SM CLR 23/12 A3000 560 51 1600 210/12 RMK AO2
14840KMKG MKG20000630173009306/30/00 17:30:31  5-MIN KMKG 302230Z 20014KT 10SM CLR 23/12 A2999 560 51 1600 200/14 RMK AO2
14840KMKG MKG20000630173509306/30/00 17:35:31  5-MIN KMKG 302235Z 20013KT 10SM CLR 22/12 A3000 560 52 1600 210/13 RMK AO2
14840KMKG MKG20000630174009306/30/00 17:40:31  5-MIN KMKG 302240Z 20013KT 10SM CLR 23/12 A2999 560 51 1600 200/13 RMK AO2
14840KMKG MKG20000630174509306/30/00 17:45:31  5-MIN KMKG 302245Z 20012KT 10SM CLR 23/12 A3000 560 51 1600 210/12 RMK AO2
14840KMKG MKG20000630175011006/30/00 17:50:31  5-MIN KMKG 302250Z 21010KT 10SM CLR 23/12 A3000 560 51 1600 210/10 RMK AO2 SLP156 T02280122
14840KMKG MKG20000630175511006/30/00 17:55:31  5-MIN KMKG 302255Z 19013KT 10SM CLR 22/12 A3000 560 52 1600 200/13 RMK AO2 SLP156 T02220122
14840KMKG MKG20000630180009306/30/00 18:00:31  5-MIN KMKG 302300Z 20012KT 10SM CLR 22/12 A3000 560 52 1600 200/12 RMK AO2
14840KMKG MKG20000630180509306/30/00 18:05:31  5-MIN KMKG 302305Z 20010KT 10SM CLR 22/12 A3000 560 52 1600 210/10 RMK AO2
14840KMKG MKG20000630181009306/30/00 18:10:31  5-MIN KMKG 302310Z 20011KT 10SM CLR 22/12 A2999 560 52 1600 210/11 RMK AO2
14840KMKG MKG20000630181509306/30/00 18:15:31  5-MIN KMKG 302315Z 20012KT 10SM CLR 22/12 A2999 560 52 1600 210/12 RMK AO2
14840KMKG MKG20000630182009306/30/00 18:20:31  5-MIN KMKG 302320Z 19013KT 10SM CLR 22/12 A2999 560 52 1600 190/13 RMK AO2
14840KMKG MKG20000630182509306/30/00 18:25:31  5-MIN KMKG 302325Z 19010KT 10SM CLR 22/12 A2999 570 52 1500 200/10 RMK AO2
14840KMKG MKG20000630183009306/30/00 18:30:31  5-MIN KMKG 302330Z 18009KT 10SM CLR 22/12 A2999 570 52 1600 190/09 RMK AO2
14840KMKG MKG20000630183509306/30/00 18:35:31  5-MIN KMKG 302335Z 19010KT 10SM CLR 22/12 A2999 560 54 1500 190/10 RMK AO2
14840KMKG MKG20000630184009306/30/00 18:40:31  5-MIN KMKG 302340Z 19008KT 10SM CLR 22/12 A2999 570 54 1500 190/08 RMK AO2
14840KMKG MKG20000630184509306/30/00 18:45:31  5-MIN KMKG 302345Z 19010KT 10SM CLR 22/12 A2999 570 54 1500 200/10 RMK AO2
14840KMKG MKG20000630185012806/30/00 18:50:31  5-MIN KMKG 302350Z 20009KT 10SM CLR 22/12 A2999 570 54 1500 200/09 RMK AO2 SLP152 T02170122 10244 20217 58007
14840KMKG MKG20000630185512806/30/00 18:55:31  5-MIN KMKG 302355Z 19008KT 10SM CLR 22/12 A2999 570 54 1500 200/08 RMK AO2 SLP152 T02170122 10244 20217 58005
14840KMKG MKG20000630190009306/30/00 19:00:31  5-MIN KMKG 010000Z 19009KT 10SM CLR 22/12 A2999 570 54 1500 200/09 RMK AO2
14840KMKG MKG20000630190509306/30/00 19:05:31  5-MIN KMKG 010005Z 19010KT 10SM CLR 21/12 A2999 570 56 1500 200/10 RMK AO2
14840KMKG MKG20000630191009306/30/00 19:10:31  5-MIN KMKG 010010Z 19008KT 10SM CLR 21/12 A2999 570 58 1400 190/08 RMK AO2
14840KMKG MKG20000630191509306/30/00 19:15:31  5-MIN KMKG 010015Z 19008KT 10SM CLR 21/12 A2999 570 58 1400 200/08 RMK AO2
14840KMKG MKG20000630192009306/30/00 19:20:31  5-MIN KMKG 010020Z 19008KT 10SM CLR 21/12 A2998 570 58 1400 190/08 RMK AO2
14840KMKG MKG20000630192509306/30/00 19:25:31  5-MIN KMKG 010025Z 19009KT 10SM CLR 21/12 A2998 570 58 1400 190/09 RMK AO2
14840KMKG MKG20000630193009306/30/00 19:30:31  5-MIN KMKG 010030Z 19008KT 10SM CLR 20/12 A2998 570 60 1300 200/08 RMK AO2
14840KMKG MKG20000630193509306/30/00 19:35:31  5-MIN KMKG 010035Z 19008KT 10SM CLR 21/12 A2998 570 58 1400 200/08 RMK AO2
14840KMKG MKG20000630194009306/30/00 19:40:31  5-MIN KMKG 010040Z 19008KT 10SM CLR 21/12 A2998 570 58 1400 200/08 RMK AO2
14840KMKG MKG20000630194509306/30/00 19:45:31  5-MIN KMKG 010045Z 19008KT 10SM CLR 20/13 A2998 570 63 1300 200/08 RMK AO2
14840KMKG MKG20000630195011006/30/00 19:50:31  5-MIN KMKG 010050Z 20008KT 10SM CLR 20/13 A2998 570 63 1300 200/08 RMK AO2 SLP150 T02000128
14840KMKG MKG20000630195511006/30/00 19:55:31  5-MIN KMKG 010055Z 20009KT 10SM CLR 20/12 A2998 570 60 1300 200/09 RMK AO2 SLP151 T02000122
14840KMKG MKG20000630200009306/30/00 20:00:31  5-MIN KMKG 010100Z 20009KT 10SM CLR 20/12 A2998 570 60 1300 200/09 RMK AO2
14840KMKG MKG20000630200509306/30/00 20:05:31  5-MIN KMKG 010105Z 20008KT 10SM CLR 20/12 A2998 570 60 1300 200/08 RMK AO2
14840KMKG MKG20000630201009306/30/00 20:10:31  5-MIN KMKG 010110Z 20009KT 10SM CLR 20/12 A2998 570 60 1300 200/09 RMK AO2
14840KMKG MKG20000630201509306/30/00 20:15:31  5-MIN KMKG 010115Z 20008KT 10SM CLR 20/12 A2998 570 60 1300 200/08 RMK AO2
14840KMKG MKG20000630202009306/30/00 20:20:31  5-MIN KMKG 010120Z 20008KT 10SM CLR 19/12 A2999 570 62 1300 210/08 RMK AO2
14840KMKG MKG20000630202509306/30/00 20:25:31  5-MIN KMKG 010125Z 21008KT 10SM CLR 19/12 A2999 570 62 1300 210/08 RMK AO2
14840KMKG MKG20000630203009306/30/00 20:30:31  5-MIN KMKG 010130Z 21010KT 10SM CLR 20/12 A2999 570 60 1300 210/10 RMK AO2
14840KMKG MKG20000630203509306/30/00 20:35:31  5-MIN KMKG 010135Z 21010KT 10SM CLR 19/12 A2998 570 62 1300 210/10 RMK AO2
14840KMKG MKG20000630204009306/30/00 20:40:31  5-MIN KMKG 010140Z 20009KT 10SM CLR 20/12 A2999 570 60 1300 210/09 RMK AO2
14840KMKG MKG20000630204509306/30/00 20:45:31  5-MIN KMKG 010145Z 20009KT 10SM CLR 19/12 A2999 570 62 1300 210/09 RMK AO2
14840KMKG MKG20000630205011006/30/00 20:50:31  5-MIN KMKG 010150Z 20009KT 10SM CLR 20/12 A2999 570 60 1300 200/09 RMK AO2 SLP152 T02000122
14840KMKG MKG20000630205511006/30/00 20:55:31  5-MIN KMKG 010155Z 20009KT 10SM CLR 19/12 A2999 570 62 1300 210/09 RMK AO2 SLP153 T01940122
14840KMKG MKG20000630210009306/30/00 21:00:31  5-MIN KMKG 010200Z 20010KT 10SM CLR 19/12 A2999 570 62 1300 200/10 RMK AO2
14840KMKG MKG20000630210509306/30/00 21:05:31  5-MIN KMKG 010205Z 20009KT 10SM CLR 19/12 A2999 570 62 1300 200/09 RMK AO2
14840KMKG MKG20000630211009306/30/00 21:10:31  5-MIN KMKG 010210Z 20008KT 10SM CLR 19/12 A2999 570 62 1300 200/08 RMK AO2
14840KMKG MKG20000630211509306/30/00 21:15:31  5-MIN KMKG 010215Z 20008KT 10SM CLR 19/12 A2999 570 62 1300 200/08 RMK AO2
14840KMKG MKG20000630212009306/30/00 21:20:31  5-MIN KMKG 010220Z 19009KT 10SM CLR 19/12 A2999 570 62 1300 200/09 RMK AO2
14840KMKG MKG20000630212509306/30/00 21:25:31  5-MIN KMKG 010225Z 20009KT 10SM CLR 19/12 A2999 570 62 1300 200/09 RMK AO2
14840KMKG MKG20000630213009306/30/00 21:30:31  5-MIN KMKG 010230Z 20008KT 10SM CLR 19/12 A2999 560 62 1300 200/08 RMK AO2
14840KMKG MKG20000630213509306/30/00 21:35:31  5-MIN KMKG 010235Z 19008KT 10SM CLR 19/12 A2999 560 62 1300 200/08 RMK AO2
14840KMKG MKG20000630214009306/30/00 21:40:31  5-MIN KMKG 010240Z 20007KT 10SM CLR 19/12 A3000 560 62 1300 200/07 RMK AO2
14840KMKG MKG20000630214509306/30/00 21:45:31  5-MIN KMKG 010245Z 19008KT 10SM CLR 19/12 A3000 560 62 1300 200/08 RMK AO2
14840KMKG MKG20000630215011606/30/00 21:50:31  5-MIN KMKG 010250Z 19008KT 10SM CLR 19/12 A3000 560 62 1200 200/08 RMK AO2 SLP155 T01940122 58005
14840KMKG MKG20000630215511606/30/00 21:55:31  5-MIN KMKG 010255Z 19008KT 10SM CLR 19/12 A3000 560 62 1200 200/08 RMK AO2 SLP156 T01940122 53004
14840KMKG MKG20000630220009306/30/00 22:00:31  5-MIN KMKG 010300Z 20008KT 10SM CLR 19/13 A3000 560 65 1200 200/08 RMK AO2
14840KMKG MKG20000630220509306/30/00 22:05:31  5-MIN KMKG 010305Z 20009KT 10SM CLR 19/12 A3000 560 62 1200 200/09 RMK AO2
14840KMKG MKG20000630221009306/30/00 22:10:31  5-MIN KMKG 010310Z 20009KT 10SM CLR 19/12 A3000 560 62 1200 200/09 RMK AO2
14840KMKG MKG20000630221509606/30/00 22:15:31  5-MIN KMKG 010315Z 19007KT 10SM FEW080 19/12 A3000 560 62 1200 200/07 RMK AO2
14840KMKG MKG20000630222009606/30/00 22:20:31  5-MIN KMKG 010320Z 19008KT 10SM FEW080 19/12 A3000 560 62 1200 200/08 RMK AO2
14840KMKG MKG20000630222509606/30/00 22:25:31  5-MIN KMKG 010325Z 19008KT 10SM FEW080 19/12 A3000 560 62 1300 200/08 RMK AO2
14840KMKG MKG20000630223009606/30/00 22:30:31  5-MIN KMKG 010330Z 20008KT 10SM FEW080 19/12 A2999 560 62 1300 200/08 RMK AO2
14840KMKG MKG20000630223509606/30/00 22:35:31  5-MIN KMKG 010335Z 20009KT 10SM FEW075 20/12 A2999 560 58 1300 200/09 RMK AO2
14840KMKG MKG20000630224009606/30/00 22:40:31  5-MIN KMKG 010340Z 20009KT 10SM FEW075 19/12 A2999 560 60 1300 200/09 RMK AO2
14840KMKG MKG20000630224509606/30/00 22:45:31  5-MIN KMKG 010345Z 20009KT 10SM FEW075 20/12 A2999 560 60 1300 200/09 RMK AO2
14840KMKG MKG20000630225011306/30/00 22:50:31  5-MIN KMKG 010350Z 20009KT 10SM FEW075 20/12 A2999 560 60 1300 200/09 RMK AO2 SLP154 T02000122
14840KMKG MKG20000630225511306/30/00 22:55:31  5-MIN KMKG 010355Z 20008KT 10SM FEW075 20/12 A2999 560 60 1300 200/08 RMK AO2 SLP154 T02000122
14840KMKG MKG20000630230009606/30/00 23:00:31  5-MIN KMKG 010400Z 20008KT 10SM FEW070 19/12 A2999 560 62 1300 210/08 RMK AO2
14840KMKG MKG20000630230509606/30/00 23:05:31  5-MIN KMKG 010405Z 20009KT 10SM FEW075 20/12 A2999 560 60 1300 200/09 RMK AO2
14840KMKG MKG20000630231009606/30/00 23:10:31  5-MIN KMKG 010410Z 21010KT 10SM FEW075 19/12 A2999 560 62 1300 210/10 RMK AO2
14840KMKG MKG20000630231509306/30/00 23:15:31  5-MIN KMKG 010415Z 20009KT 10SM CLR 19/12 A2999 560 62 1300 210/09 RMK AO2
14840KMKG MKG20000630232009306/30/00 23:20:31  5-MIN KMKG 010420Z 21008KT 10SM CLR 19/12 A2999 560 62 1300 210/08 RMK AO2
14840KMKG MKG20000630232509306/30/00 23:25:31  5-MIN KMKG 010425Z 20010KT 10SM CLR 19/12 A3000 560 62 1300 210/10 RMK AO2
14840KMKG MKG20000630233009306/30/00 23:30:31  5-MIN KMKG 010430Z 21010KT 10SM CLR 20/12 A3000 560 58 1300 210/10 RMK AO2
14840KMKG MKG20000630233509306/30/00 23:35:31  5-MIN KMKG 010435Z 21011KT 10SM CLR 20/12 A3000 560 58 1300 210/11 RMK AO2
14840KMKG MKG20000630234009306/30/00 23:40:31  5-MIN KMKG 010440Z 21011KT 10SM CLR 20/12 A3000 560 58 1300 220/11 RMK AO2
14840KMKG MKG20000630234509306/30/00 23:45:31  5-MIN KMKG 010445Z 21010KT 10SM CLR 19/12 A3000 560 62 1200 210/10 RMK AO2
14840KMKG MKG20000630235012006/30/00 23:50:31  5-MIN KMKG 010450Z 21012KT 10SM CLR 20/12 A3000 560 60 1300 210/12 RMK AO2 SLP156 T02000122 402440122
14840KMKG MKG20000630235512006/30/00 23:55:31  5-MIN KMKG 010455Z 21010KT 10SM CLR 19/12 A3000 560 62 1200 220/10 RMK AO2 SLP156 T01940122 402440122
