14840KMKG MKG20050401000009404/01/05 00:00:35  5-MIN KMKG 010500Z 31008KT 10SM CLR 06/00 A3002 530 65  -300 320/08 RMK AO2
14840KMKG MKG20050401000509404/01/05 00:05:31  5-MIN KMKG 010505Z 31005KT 10SM CLR 06/00 A3002 530 67  -400 320/05 RMK AO2
14840KMKG MKG20050401001009404/01/05 00:10:31  5-MIN KMKG 010510Z 31006KT 10SM CLR 06/00 A3002 530 67  -400 320/06 RMK AO2
14840KMKG MKG20050401001509404/01/05 00:15:31  5-MIN KMKG 010515Z 30005KT 10SM CLR 06/00 A3003 530 65  -300 310/05 RMK AO2
14840KMKG MKG20050401002009404/01/05 00:20:31  5-MIN KMKG 010520Z 30005KT 10SM CLR 06/00 A3003 530 65  -300 300/05 RMK AO2
14840KMKG MKG20050401002509404/01/05 00:25:31  5-MIN KMKG 010525Z 29006KT 10SM CLR 06/00 A3003 530 67  -400 300/06 RMK AO2
14840KMKG MKG20050401003009404/01/05 00:30:31  5-MIN KMKG 010530Z 29006KT 10SM CLR 05/00 A3003 530 70  -500 290/06 RMK AO2
14840KMKG MKG20050401003509404/01/05 00:35:31  5-MIN KMKG 010535Z 29007KT 10SM CLR 05/00 A3003 530 70  -500 300/07 RMK AO2
14840KMKG MKG20050401004009404/01/05 00:40:31  5-MIN KMKG 010540Z 28006KT 10SM CLR 06/00 A3003 530 67  -400 290/06 RMK AO2
14840KMKG MKG20050401004509404/01/05 00:45:31  5-MIN KMKG 010545Z 28006KT 10SM CLR 04/00 A3003 530 73  -500 280/06 RMK AO2
14840KMKG MKG20050401005012904/01/05 00:50:31  5-MIN KMKG 010550Z 29007KT 10SM CLR 05/00 A3003 530 70  -500 290/07 RMK AO2 SLP174 T00500000 10072 20044 51036
14840KMKG MKG20050401005512904/01/05 00:55:31  5-MIN KMKG 010555Z 30007KT 10SM CLR 06/00 A3004 520 67  -400 300/07 RMK AO2 SLP176 T00560000 10072 20044 51014
14840KMKG MKG20050401010009404/01/05 01:00:31  5-MIN KMKG 010600Z 30008KT 10SM CLR 06/00 A3004 520 67  -400 300/08 RMK AO2
14840KMKG MKG20050401010509404/01/05 01:05:31  5-MIN KMKG 010605Z 29007KT 10SM CLR 06/00 A3004 520 67  -400 290/07 RMK AO2
14840KMKG MKG20050401011009404/01/05 01:10:31  5-MIN KMKG 010610Z 29006KT 10SM CLR 06/00 A3005 510 67  -400 300/06 RMK AO2
14840KMKG MKG20050401011509404/01/05 01:15:31  5-MIN KMKG 010615Z 29006KT 10SM CLR 05/00 A3005 510 70  -500 290/06 RMK AO2
14840KMKG MKG20050401012009404/01/05 01:20:31  5-MIN KMKG 010620Z 28005KT 10SM CLR 04/00 A3005 510 73  -600 290/05 RMK AO2
14840KMKG MKG20050401012509404/01/05 01:25:31  5-MIN KMKG 010625Z 29005KT 10SM CLR 04/00 A3005 510 73  -600 290/05 RMK AO2
14840KMKG MKG20050401013009404/01/05 01:30:31  5-MIN KMKG 010630Z 29007KT 10SM CLR 05/00 A3005 510 70  -500 290/07 RMK AO2
14840KMKG MKG20050401013509404/01/05 01:35:31  5-MIN KMKG 010635Z 28007KT 10SM CLR 04/00 A3005 510 73  -600 280/07 RMK AO2
14840KMKG MKG20050401014009404/01/05 01:40:31  5-MIN KMKG 010640Z 28006KT 10SM CLR 04/00 A3006 500 73  -600 280/06 RMK AO2
14840KMKG MKG20050401014509404/01/05 01:45:31  5-MIN KMKG 010645Z 28006KT 10SM CLR 04/00 A3006 500 73  -600 290/06 RMK AO2
14840KMKG MKG20050401015011104/01/05 01:50:31  5-MIN KMKG 010650Z 29006KT 10SM CLR 04/00 A3006 510 73  -600 290/06 RMK AO2 SLP183 T00440000
14840KMKG MKG20050401015511104/01/05 01:55:31  5-MIN KMKG 010655Z 28006KT 10SM CLR 04/M01 A3006 500 70 -600 280/06 RMK AO2 SLP184 T00441006
14840KMKG MKG20050401020009404/01/05 02:00:31  5-MIN KMKG 010700Z 28006KT 10SM CLR 04/M01 A3006 500 70 -600 280/06 RMK AO2
14840KMKG MKG20050401020509404/01/05 02:05:31  5-MIN KMKG 010705Z 29006KT 10SM CLR 04/M01 A3006 500 70 -600 290/06 RMK AO2
14840KMKG MKG20050401021009404/01/05 02:10:31  5-MIN KMKG 010710Z 29006KT 10SM CLR 04/M01 A3006 510 70 -600 290/06 RMK AO2
14840KMKG MKG20050401021509404/01/05 02:15:31  5-MIN KMKG 010715Z 28006KT 10SM CLR 04/M01 A3006 500 70 -600 280/06 RMK AO2
14840KMKG MKG20050401022009404/01/05 02:20:31  5-MIN KMKG 010720Z 27006KT 10SM CLR 04/M01 A3006 500 70 -600 270/06 RMK AO2
14840KMKG MKG20050401022509404/01/05 02:25:31  5-MIN KMKG 010725Z 28004KT 10SM CLR 04/M01 A3006 500 70 -600 280/04 RMK AO2
14840KMKG MKG20050401023009404/01/05 02:30:31  5-MIN KMKG 010730Z 28004KT 10SM CLR 04/M01 A3006 500 70 -600 290/04 RMK AO2
14840KMKG MKG20050401023509404/01/05 02:35:31  5-MIN KMKG 010735Z 28005KT 10SM CLR 04/M01 A3006 500 70 -600 280/05 RMK AO2
14840KMKG MKG20050401024009404/01/05 02:40:31  5-MIN KMKG 010740Z 27004KT 10SM CLR 04/M01 A3006 500 70 -600 270/04 RMK AO2
14840KMKG MKG20050401024509404/01/05 02:45:31  5-MIN KMKG 010745Z 26003KT 10SM CLR 04/M01 A3006 500 73 -600 270/03 RMK AO2
14840KMKG MKG20050401025011104/01/05 02:50:31  5-MIN KMKG 010750Z 00000KT 10SM CLR 04/M01 A3006 500 73 -600 000/00 RMK AO2 SLP184 T00391006
14840KMKG MKG20050401025511104/01/05 02:55:31  5-MIN KMKG 010755Z 27003KT 10SM CLR 04/M01 A3006 500 73 -600 270/03 RMK AO2 SLP185 T00391006
14840KMKG MKG20050401030009404/01/05 03:00:31  5-MIN KMKG 010800Z 26004KT 10SM CLR 04/M01 A3006 500 73 -600 260/04 RMK AO2
14840KMKG MKG20050401030509404/01/05 03:05:31  5-MIN KMKG 010805Z 26004KT 10SM CLR 03/M01 A3006 500 76 -700 270/04 RMK AO2
14840KMKG MKG20050401031009404/01/05 03:10:31  5-MIN KMKG 010810Z 27003KT 10SM CLR 04/00 A3006 500 76  -600 280/03 RMK AO2
14840KMKG MKG20050401031509404/01/05 03:15:31  5-MIN KMKG 010815Z 26004KT 10SM CLR 04/00 A3006 500 76  -600 260/04 RMK AO2
14840KMKG MKG20050401032009404/01/05 03:20:31  5-MIN KMKG 010820Z 24004KT 10SM CLR 03/00 A3006 500 79  -700 240/04 RMK AO2
14840KMKG MKG20050401032509404/01/05 03:25:31  5-MIN KMKG 010825Z 25004KT 10SM CLR 03/00 A3007 500 79  -700 250/04 RMK AO2
14840KMKG MKG20050401033009404/01/05 03:30:31  5-MIN KMKG 010830Z 25004KT 10SM CLR 03/00 A3007 490 82  -800 260/04 RMK AO2
14840KMKG MKG20050401033509404/01/05 03:35:31  5-MIN KMKG 010835Z 26004KT 10SM CLR 02/M01 A3007 500 82 -800 260/04 RMK AO2
14840KMKG MKG20050401034009404/01/05 03:40:31  5-MIN KMKG 010840Z 26003KT 10SM CLR 03/00 A3006 500 82  -800 260/03 RMK AO2
14840KMKG MKG20050401034509404/01/05 03:45:31  5-MIN KMKG 010845Z 27003KT 10SM CLR 04/01 A3007 500 79  -600 270/03 RMK AO2
14840KMKG MKG20050401035011704/01/05 03:50:31  5-MIN KMKG 010850Z 27003KT 10SM CLR 04/01 A3007 500 79  -600 280/03 RMK AO2 SLP187 T00390006 51014
14840KMKG MKG20050401035511704/01/05 03:55:31  5-MIN KMKG 010855Z 28004KT 10SM CLR 04/01 A3007 500 79  -600 280/04 RMK AO2 SLP187 T00390006 51010
14840KMKG MKG20050401040009404/01/05 04:00:31  5-MIN KMKG 010900Z 29003KT 10SM CLR 04/01 A3006 500 79  -600 290/03 RMK AO2
14840KMKG MKG20050401040509404/01/05 04:05:31  5-MIN KMKG 010905Z 28003KT 10SM CLR 04/01 A3006 500 79  -600 290/03 RMK AO2
14840KMKG MKG20050401041009404/01/05 04:10:31  5-MIN KMKG 010910Z 27004KT 10SM CLR 04/01 A3006 500 79  -600 270/04 RMK AO2
14840KMKG MKG20050401041509404/01/05 04:15:31  5-MIN KMKG 010915Z 27003KT 10SM CLR 04/01 A3006 500 79  -600 270/03 RMK AO2
14840KMKG MKG20050401042009404/01/05 04:20:31  5-MIN KMKG 010920Z 26003KT 10SM CLR 04/01 A3006 500 82  -600 270/03 RMK AO2
14840KMKG MKG20050401042509404/01/05 04:25:31  5-MIN KMKG 010925Z 00000KT 10SM CLR 04/01 A3007 500 82  -600 000/00 RMK AO2
14840KMKG MKG20050401043009404/01/05 04:30:31  5-MIN KMKG 010930Z 00000KT 10SM CLR 02/00 A3007 500 85  -800 000/00 RMK AO2
14840KMKG MKG20050401043509404/01/05 04:35:31  5-MIN KMKG 010935Z 00000KT 10SM CLR 02/00 A3007 500 89  -900 000/00 RMK AO2
14840KMKG MKG20050401044009404/01/05 04:40:31  5-MIN KMKG 010940Z 00000KT 10SM CLR 02/00 A3006 500 89  -900 000/00 RMK AO2
14840KMKG MKG20050401044509404/01/05 04:45:31  5-MIN KMKG 010945Z 00000KT 10SM CLR 02/00 A3007 500 89  -900 000/00 RMK AO2
14840KMKG MKG20050401045011204/01/05 04:50:31  5-MIN KMKG 010950Z 00000KT 10SM CLR 01/M01 A3007 490 92 -1100 000/00 RMK AO2 SLP188 T00061006
14840KMKG MKG20050401045511204/01/05 04:55:31  5-MIN KMKG 010955Z 00000KT 10SM CLR 01/M01 A3007 490 89 -1000 000/00 RMK AO2 SLP189 T00111006
14840KMKG MKG20050401050009504/01/05 05:00:31  5-MIN KMKG 011000Z 00000KT 10SM CLR 01/00 A3008 490 92  -1000 000/00 RMK AO2
14840KMKG MKG20050401050509504/01/05 05:05:31  5-MIN KMKG 011005Z 26003KT 10SM CLR 01/00 A3008 480 92  -1000 260/03 RMK AO2
14840KMKG MKG20050401051009504/01/05 05:10:31  5-MIN KMKG 011010Z 26003KT 10SM CLR 01/M01 A3008 480 89 -1000 270/03 RMK AO2
14840KMKG MKG20050401051509504/01/05 05:15:31  5-MIN KMKG 011015Z 00000KT 10SM CLR 01/M01 A3008 480 92 -1100 000/00 RMK AO2
14840KMKG MKG20050401052009504/01/05 05:20:31  5-MIN KMKG 011020Z 00000KT 10SM CLR 00/M01 A3009 480 92 -1200 000/00 RMK AO2
14840KMKG MKG20050401052509604/01/05 05:25:31  5-MIN KMKG 011025Z 00000KT 10SM CLR M01/M01 A3009 470 96 -1200 000/00 RMK AO2
14840KMKG MKG20050401053009604/01/05 05:30:31  5-MIN KMKG 011030Z 00000KT 10SM CLR M01/M01 A3009 470 96 -1200 000/00 RMK AO2
14840KMKG MKG20050401053509604/01/05 05:35:31  5-MIN KMKG 011035Z 00000KT 10SM CLR M01/M01 A3009 470 96 -1200 000/00 RMK AO2
14840KMKG MKG20050401054009604/01/05 05:40:31  5-MIN KMKG 011040Z 00000KT 10SM CLR M01/M02 A3009 470 92 -1200 000/00 RMK AO2
14840KMKG MKG20050401054509604/01/05 05:45:31  5-MIN KMKG 011045Z 00000KT 10SM CLR M02/M02 A3009 470 96 -1400 000/00 RMK AO2
14840KMKG MKG20050401055011304/01/05 05:50:31  5-MIN KMKG 011050Z 00000KT 10SM CLR M01/M02 A3009 470 96 -1300 000/00 RMK AO2 SLP196 T10111017
14840KMKG MKG20050401055511304/01/05 05:55:31  5-MIN KMKG 011055Z 00000KT 10SM CLR M01/M02 A3009 470 92 -1200 000/00 RMK AO2 SLP196 T10061017
14840KMKG MKG20050401060009604/01/05 06:00:31  5-MIN KMKG 011100Z 00000KT 10SM CLR M01/M02 A3009 470 92 -1200 000/00 RMK AO2
14840KMKG MKG20050401060509504/01/05 06:05:31  5-MIN KMKG 011105Z 00000KT 9SM CLR M01/M01 A3009 470 96 -1200 000/00 RMK AO2
14840KMKG MKG20050401061009604/01/05 06:10:31  5-MIN KMKG 011110Z 00000KT 10SM CLR M01/M01 A3010 470 96 -1200 000/00 RMK AO2
14840KMKG MKG20050401061509604/01/05 06:15:31  5-MIN KMKG 011115Z 00000KT 10SM CLR M01/M01 A3010 470 96 -1200 000/00 RMK AO2
14840KMKG MKG20050401062009604/01/05 06:20:31  5-MIN KMKG 011120Z 00000KT 10SM CLR M01/M01 A3010 470 96 -1200 000/00 RMK AO2
14840KMKG MKG20050401062509604/01/05 06:25:31  5-MIN KMKG 011125Z 00000KT 10SM CLR M01/M02 A3010 460 92 -1200 000/00 RMK AO2
14840KMKG MKG20050401063009504/01/05 06:30:31  5-MIN KMKG 011130Z 00000KT 9SM CLR M01/M02 A3010 460 92 -1300 000/00 RMK AO2
14840KMKG MKG20050401063509504/01/05 06:35:31  5-MIN KMKG 011135Z 00000KT 8SM CLR M02/M02 A3010 460 96 -1400 000/00 RMK AO2
14840KMKG MKG20050401064009504/01/05 06:40:31  5-MIN KMKG 011140Z 00000KT 7SM CLR M01/M02 A3010 470 92 -1300 000/00 RMK AO2
14840KMKG MKG20050401064509504/01/05 06:45:31  5-MIN KMKG 011145Z 00000KT 7SM CLR M01/M02 A3010 470 96 -1300 000/00 RMK AO2
14840KMKG MKG20050401065013604/01/05 06:50:31  5-MIN KMKG 011150Z 00000KT 7SM CLR M01/M02 A3010 470 96 -1300 000/00 RMK AO2 SLP198 70004 T10111017 10056 21017 51010
14840KMKG MKG20050401065513604/01/05 06:55:31  5-MIN KMKG 011155Z 00000KT 7SM CLR M01/M02 A3010 470 96 -1300 000/00 RMK AO2 SLP199 70004 T10111017 10056 21017 53010
14840KMKG MKG20050401070009504/01/05 07:00:31  5-MIN KMKG 011200Z 00000KT 7SM CLR M01/M02 A3010 460 92 -1300 000/00 RMK AO2
14840KMKG MKG20050401070509504/01/05 07:05:31  5-MIN KMKG 011205Z 00000KT 7SM CLR M01/M02 A3011 460 96 -1300 000/00 RMK AO2
14840KMKG MKG20050401071009504/01/05 07:10:31  5-MIN KMKG 011210Z 00000KT 7SM CLR M01/M02 A3011 460 92 -1200 000/00 RMK AO2
14840KMKG MKG20050401071509504/01/05 07:15:31  5-MIN KMKG 011215Z 00000KT 7SM CLR M01/M02 A3011 460 92 -1200 000/00 RMK AO2
14840KMKG MKG20050401072009504/01/05 07:20:31  5-MIN KMKG 011220Z 00000KT 8SM CLR M01/M01 A3011 460 96 -1200 000/00 RMK AO2
14840KMKG MKG20050401072509504/01/05 07:25:31  5-MIN KMKG 011225Z 00000KT 9SM CLR 00/M01 A3011 460 96  -1200 000/00 RMK AO2
14840KMKG MKG20050401073009504/01/05 07:30:31  5-MIN KMKG 011230Z 16003KT 9SM CLR 00/M01 A3011 450 96  -1200 160/03 RMK AO2
14840KMKG MKG20050401073509504/01/05 07:35:31  5-MIN KMKG 011235Z 00000KT 8SM CLR 00/M01 A3011 450 96  -1200 000/00 RMK AO2
14840KMKG MKG20050401074009504/01/05 07:40:31  5-MIN KMKG 011240Z 00000KT 8SM CLR 00/M01 A3011 450 96  -1200 000/00 RMK AO2
14840KMKG MKG20050401074509504/01/05 07:45:31  5-MIN KMKG 011245Z 00000KT 8SM CLR 00/M01 A3011 450 96  -1200 000/00 RMK AO2
14840KMKG MKG20050401075011204/01/05 07:50:31  5-MIN KMKG 011250Z 00000KT 8SM CLR 00/M01 A3011 450 96  -1200 000/00 RMK AO2 SLP203 T00001006
14840KMKG MKG20050401075511204/01/05 07:55:31  5-MIN KMKG 011255Z 00000KT 8SM CLR 01/M01 A3011 450 92  -1100 000/00 RMK AO2 SLP203 T00061006
14840KMKG MKG20050401080009404/01/05 08:00:31  5-MIN KMKG 011300Z 00000KT 9SM CLR 01/00 A3011 450 96  -1100 000/00 RMK AO2
14840KMKG MKG20050401080509404/01/05 08:05:31  5-MIN KMKG 011305Z 00000KT 9SM CLR 01/00 A3011 450 92  -1000 000/00 RMK AO2
14840KMKG MKG20050401081009404/01/05 08:10:31  5-MIN KMKG 011310Z 00000KT 9SM CLR 02/01 A3011 450 92  -1000 000/00 RMK AO2
14840KMKG MKG20050401081509304/01/05 08:15:31  5-MIN KMKG 011315Z 00000KT 9SM CLR 02/01 A3011 450 92  -900 000/00 RMK AO2
14840KMKG MKG20050401082009404/01/05 08:20:31  5-MIN KMKG 011320Z 00000KT 10SM CLR 03/02 A3011 450 92  -800 000/00 RMK AO2
14840KMKG MKG20050401082509404/01/05 08:25:31  5-MIN KMKG 011325Z 00000KT 10SM CLR 03/02 A3011 450 92  -800 000/00 RMK AO2
14840KMKG MKG20050401083009404/01/05 08:30:31  5-MIN KMKG 011330Z 00000KT 10SM CLR 04/02 A3011 450 89  -700 000/00 RMK AO2
14840KMKG MKG20050401083509404/01/05 08:35:31  5-MIN KMKG 011335Z 21003KT 10SM CLR 04/03 A3011 450 89  -600 220/03 RMK AO2
14840KMKG MKG20050401084009404/01/05 08:40:31  5-MIN KMKG 011340Z 20003KT 10SM CLR 05/03 A3011 460 85  -600 200/03 RMK AO2
14840KMKG MKG20050401084509404/01/05 08:45:31  5-MIN KMKG 011345Z 22003KT 10SM CLR 05/03 A3011 460 85  -600 220/03 RMK AO2
14840KMKG MKG20050401085011104/01/05 08:50:31  5-MIN KMKG 011350Z 22004KT 10SM CLR 05/02 A3011 460 82  -500 220/04 RMK AO2 SLP199 T00500022
14840KMKG MKG20050401085511104/01/05 08:55:31  5-MIN KMKG 011355Z 22003KT 10SM CLR 05/02 A3010 460 82  -500 220/03 RMK AO2 SLP199 T00500022
14840KMKG MKG20050401090009404/01/05 09:00:31  5-MIN KMKG 011400Z 22004KT 10SM CLR 06/03 A3010 460 82  -500 220/04 RMK AO2
14840KMKG MKG20050401090509404/01/05 09:05:31  5-MIN KMKG 011405Z 21004KT 10SM CLR 06/02 A3010 460 76  -400 220/04 RMK AO2
14840KMKG MKG20050401091009404/01/05 09:10:31  5-MIN KMKG 011410Z 21003KT 10SM CLR 06/02 A3010 460 76  -400 210/03 RMK AO2
14840KMKG MKG20050401091509404/01/05 09:15:31  5-MIN KMKG 011415Z 00000KT 10SM CLR 06/02 A3010 460 76  -400 000/00 RMK AO2
14840KMKG MKG20050401092009404/01/05 09:20:31  5-MIN KMKG 011420Z 00000KT 10SM CLR 07/02 A3010 460 73  -300 000/00 RMK AO2
14840KMKG MKG20050401092509404/01/05 09:25:31  5-MIN KMKG 011425Z 00000KT 10SM CLR 07/03 A3011 460 73  -300 000/00 RMK AO2
14840KMKG MKG20050401093009404/01/05 09:30:31  5-MIN KMKG 011430Z 00000KT 10SM CLR 07/03 A3010 460 73  -300 000/00 RMK AO2
14840KMKG MKG20050401093509404/01/05 09:35:31  5-MIN KMKG 011435Z 00000KT 10SM CLR 07/03 A3010 460 73  -300 000/00 RMK AO2
14840KMKG MKG20050401094009404/01/05 09:40:31  5-MIN KMKG 011440Z 00000KT 10SM CLR 08/03 A3010 460 70  -200 000/00 RMK AO2
14840KMKG MKG20050401094509404/01/05 09:45:31  5-MIN KMKG 011445Z 00000KT 10SM CLR 08/03 A3010 460 68  -100 000/00 RMK AO2
14840KMKG MKG20050401095011704/01/05 09:50:31  5-MIN KMKG 011450Z 00000KT 10SM CLR 09/03 A3010 460 65  -100 000/00 RMK AO2 SLP198 T00890028 53010
14840KMKG MKG20050401095511704/01/05 09:55:31  5-MIN KMKG 011455Z 21004KT 10SM CLR 09/02 A3011 460 63  -100 210/04 RMK AO2 SLP199 T00890022 51003
14840KMKG MKG20050401100009004/01/05 10:00:31  5-MIN KMKG 011500Z 20004KT 10SM CLR 09/02 A3011 460 60 0 210/04 RMK AO2
14840KMKG MKG20050401100509004/01/05 10:05:31  5-MIN KMKG 011505Z 20004KT 10SM CLR 09/02 A3011 460 58 0 210/04 RMK AO2
14840KMKG MKG20050401101009004/01/05 10:10:31  5-MIN KMKG 011510Z 20004KT 10SM CLR 09/02 A3011 460 58 0 200/04 RMK AO2
14840KMKG MKG20050401101509004/01/05 10:15:31  5-MIN KMKG 011515Z 19005KT 10SM CLR 10/02 A3011 460 56 0 190/05 RMK AO2
14840KMKG MKG20050401102009004/01/05 10:20:31  5-MIN KMKG 011520Z 21006KT 10SM CLR 10/02 A3011 460 56 0 220/06 RMK AO2
14840KMKG MKG20050401102509004/01/05 10:25:31  5-MIN KMKG 011525Z 21007KT 10SM CLR 10/02 A3011 460 56 0 220/07 RMK AO2
14840KMKG MKG20050401103009004/01/05 10:30:31  5-MIN KMKG 011530Z 21007KT 10SM CLR 10/02 A3011 460 56 0 220/07 RMK AO2
14840KMKG MKG20050401103509004/01/05 10:35:31  5-MIN KMKG 011535Z 22006KT 10SM CLR 10/02 A3011 460 56 0 220/06 RMK AO2
14840KMKG MKG20050401104009004/01/05 10:40:31  5-MIN KMKG 011540Z 21006KT 10SM CLR 10/02 A3010 460 56 0 210/06 RMK AO2
14840KMKG MKG20050401104509004/01/05 10:45:31  5-MIN KMKG 011545Z 20006KT 10SM CLR 10/01 A3010 460 54 0 200/06 RMK AO2
14840KMKG MKG20050401105010704/01/05 10:50:31  5-MIN KMKG 011550Z 21006KT 10SM CLR 10/01 A3010 460 52 0 210/06 RMK AO2 SLP197 T01000006
14840KMKG MKG20050401105511004/01/05 10:55:31  5-MIN KMKG 011555Z 21005KT 10SM CLR 11/01 A3010 460 52  100 210/05 RMK AO2 SLP196 T01060011
14840KMKG MKG20050401110009304/01/05 11:00:31  5-MIN KMKG 011600Z 18006KT 10SM CLR 11/01 A3010 470 50  100 190/06 RMK AO2
14840KMKG MKG20050401110509104/01/05 11:05:31  5-MIN KMKG 011605Z 18005KT 10SM CLR 10/M01 A3009 470 47 0 190/05 RMK AO2
14840KMKG MKG20050401111009304/01/05 11:10:31  5-MIN KMKG 011610Z 19006KT 10SM CLR 11/00 A3009 470 48  100 190/06 RMK AO2
14840KMKG MKG20050401111509304/01/05 11:15:31  5-MIN KMKG 011615Z 21006KT 10SM CLR 11/M01 A3009 480 46 100 220/06 RMK AO2
14840KMKG MKG20050401112009304/01/05 11:20:31  5-MIN KMKG 011620Z 23005KT 10SM CLR 11/01 A3009 480 50  100 240/05 RMK AO2
14840KMKG MKG20050401112509304/01/05 11:25:31  5-MIN KMKG 011625Z 23006KT 10SM CLR 11/01 A3008 480 52  100 240/06 RMK AO2
14840KMKG MKG20050401113009304/01/05 11:30:31  5-MIN KMKG 011630Z 23006KT 10SM CLR 11/01 A3008 480 50  100 240/06 RMK AO2
14840KMKG MKG20050401113509304/01/05 11:35:31  5-MIN KMKG 011635Z 23006KT 10SM CLR 11/01 A3008 490 52  100 230/06 RMK AO2
14840KMKG MKG20050401114009304/01/05 11:40:31  5-MIN KMKG 011640Z 23007KT 10SM CLR 11/02 A3008 490 54  100 240/07 RMK AO2
14840KMKG MKG20050401114509304/01/05 11:45:31  5-MIN KMKG 011645Z 23007KT 10SM CLR 11/02 A3007 490 54  100 230/07 RMK AO2
14840KMKG MKG20050401115010704/01/05 11:50:31  5-MIN KMKG 011650Z 23007KT 10SM CLR 10/01 A3007 490 54 0 230/07 RMK AO2 SLP187 T01000011
14840KMKG MKG20050401115511004/01/05 11:55:31  5-MIN KMKG 011655Z 23008KT 10SM CLR 10/01 A3007 490 54  100 230/08 RMK AO2 SLP186 T01000011
14840KMKG MKG20050401120009304/01/05 12:00:31  5-MIN KMKG 011700Z 23007KT 10SM CLR 10/01 A3006 500 54  100 240/07 RMK AO2
14840KMKG MKG20050401120509004/01/05 12:05:31  5-MIN KMKG 011705Z 25007KT 10SM CLR 09/01 A3006 500 56 0 250/07 RMK AO2
14840KMKG MKG20050401121009304/01/05 12:10:31  5-MIN KMKG 011710Z 25008KT 10SM CLR 10/01 A3006 500 54  100 250/08 RMK AO2
14840KMKG MKG20050401121509004/01/05 12:15:31  5-MIN KMKG 011715Z 25007KT 10SM CLR 09/01 A3006 500 53 0 260/07 RMK AO2
14840KMKG MKG20050401122009304/01/05 12:20:31  5-MIN KMKG 011720Z 23008KT 10SM CLR 10/01 A3006 500 52  100 240/08 RMK AO2
14840KMKG MKG20050401122509304/01/05 12:25:31  5-MIN KMKG 011725Z 25008KT 10SM CLR 10/01 A3006 500 54  100 260/08 RMK AO2
14840KMKG MKG20050401123009304/01/05 12:30:31  5-MIN KMKG 011730Z 25008KT 10SM CLR 10/01 A3005 510 52  100 260/08 RMK AO2
14840KMKG MKG20050401123509304/01/05 12:35:31  5-MIN KMKG 011735Z 26008KT 10SM CLR 10/01 A3005 510 54  100 260/08 RMK AO2
14840KMKG MKG20050401124009304/01/05 12:40:31  5-MIN KMKG 011740Z 25008KT 10SM CLR 10/01 A3005 510 54  100 260/08 RMK AO2
14840KMKG MKG20050401124509304/01/05 12:45:31  5-MIN KMKG 011745Z 26009KT 10SM CLR 10/01 A3005 510 54  100 270/09 RMK AO2
14840KMKG MKG20050401125012504/01/05 12:50:31  5-MIN KMKG 011750Z 26008KT 10SM CLR 09/02 A3006 500 58 0 270/08 RMK AO2 SLP182 T00940017 10106 21011 51003
14840KMKG MKG20050401125513104/01/05 12:55:31  5-MIN KMKG 011755Z 25008KT 10SM FEW100 10/02 A3006 500  56 100 260/08 RMK AO2 SLP184 T01000017 10106 21011 56015
14840KMKG MKG20050401130009404/01/05 13:00:31  5-MIN KMKG 011800Z 25006KT 10SM FEW100 09/02 A3006 500  58 0 260/06 RMK AO2
14840KMKG MKG20050401130509004/01/05 13:05:31  5-MIN KMKG 011805Z 26009KT 10SM CLR 09/02 A3006 500 58 0 260/09 RMK AO2
14840KMKG MKG20050401131009304/01/05 13:10:31  5-MIN KMKG 011810Z 26007KT 10SM CLR 10/01 A3006 500 54  100 260/07 RMK AO2
14840KMKG MKG20050401131509304/01/05 13:15:31  5-MIN KMKG 011815Z 25009KT 10SM CLR 10/01 A3006 500 54  100 250/09 RMK AO2
14840KMKG MKG20050401132009304/01/05 13:20:31  5-MIN KMKG 011820Z 26009KT 10SM CLR 10/01 A3007 500 54  100 260/09 RMK AO2
14840KMKG MKG20050401132509304/01/05 13:25:31  5-MIN KMKG 011825Z 27010KT 10SM CLR 10/01 A3007 500 54  100 270/10 RMK AO2
14840KMKG MKG20050401133009304/01/05 13:30:31  5-MIN KMKG 011830Z 26009KT 10SM CLR 10/01 A3006 500 54  100 260/09 RMK AO2
14840KMKG MKG20050401133509304/01/05 13:35:31  5-MIN KMKG 011835Z 25010KT 10SM CLR 10/01 A3006 500 54  100 250/10 RMK AO2
14840KMKG MKG20050401134009304/01/05 13:40:31  5-MIN KMKG 011840Z 25009KT 10SM CLR 10/01 A3006 500 54  100 250/09 RMK AO2
14840KMKG MKG20050401134509604/01/05 13:45:31  5-MIN KMKG 011845Z 25010KT 10SM FEW090 10/01 A3006 500  54 100 260/10 RMK AO2
14840KMKG MKG20050401135011304/01/05 13:50:31  5-MIN KMKG 011850Z 26010KT 10SM FEW090 10/01 A3006 500  54 100 260/10 RMK AO2 SLP184 T01000011
14840KMKG MKG20050401135511304/01/05 13:55:31  5-MIN KMKG 011855Z 25009KT 10SM FEW090 10/01 A3006 500  54 100 250/09 RMK AO2 SLP184 T01000011
14840KMKG MKG20050401140009304/01/05 14:00:31  5-MIN KMKG 011900Z 24010KT 10SM CLR 10/01 A3006 500 54  100 250/10 RMK AO2
14840KMKG MKG20050401140509304/01/05 14:05:31  5-MIN KMKG 011905Z 25008KT 10SM CLR 11/01 A3006 500 52  100 250/08 RMK AO2
14840KMKG MKG20050401141009304/01/05 14:10:31  5-MIN KMKG 011910Z 27008KT 10SM CLR 11/01 A3006 500 52  100 270/08 RMK AO2
14840KMKG MKG20050401141509304/01/05 14:15:31  5-MIN KMKG 011915Z 25008KT 10SM CLR 11/01 A3005 510 52  100 250/08 RMK AO2
14840KMKG MKG20050401142009304/01/05 14:20:31  5-MIN KMKG 011920Z 26008KT 10SM CLR 11/01 A3005 510 52  100 270/08 RMK AO2
14840KMKG MKG20050401142509304/01/05 14:25:31  5-MIN KMKG 011925Z 24007KT 10SM CLR 11/01 A3005 510 52  100 250/07 RMK AO2
14840KMKG MKG20050401143009304/01/05 14:30:31  5-MIN KMKG 011930Z 25009KT 10SM CLR 11/01 A3004 520 50  100 250/09 RMK AO2
14840KMKG MKG20050401143509304/01/05 14:35:31  5-MIN KMKG 011935Z 25007KT 10SM CLR 10/01 A3004 520 52  100 260/07 RMK AO2
14840KMKG MKG20050401144009304/01/05 14:40:31  5-MIN KMKG 011940Z 26008KT 10SM CLR 11/01 A3004 520 50  200 270/08 RMK AO2
14840KMKG MKG20050401144509304/01/05 14:45:31  5-MIN KMKG 011945Z 29008KT 10SM CLR 11/01 A3003 530 50  200 290/08 RMK AO2
14840KMKG MKG20050401145011304/01/05 14:50:31  5-MIN KMKG 011950Z 27007KT 10SM FEW090 11/01 A3003 530  50 200 280/07 RMK AO2 SLP172 T01060006
14840KMKG MKG20050401145512004/01/05 14:55:31  5-MIN KMKG 011955Z 27007KT 10SM FEW090 11/01 A3002 540  48 200 270/07 RMK AO2 PRESFR SLP169 T01110006
14840KMKG MKG20050401150009304/01/05 15:00:31  5-MIN KMKG 012000Z 29008KT 10SM CLR 11/00 A3002 540 48  200 290/08 RMK AO2
14840KMKG MKG20050401150509304/01/05 15:05:31  5-MIN KMKG 012005Z VRB06KT 10SM CLR 11/01 A3001 550 48  200 VRB/06 RMK AO2
14840KMKG MKG20050401151009304/01/05 15:10:31  5-MIN KMKG 012010Z 29007KT 10SM CLR 11/00 A3001 550 48  200 290/07 RMK AO2
14840KMKG MKG20050401151509304/01/05 15:15:31  5-MIN KMKG 012015Z VRB05KT 10SM CLR 11/M01 A3001 550 44 300 VRB/05 RMK AO2
14840KMKG MKG20050401152009304/01/05 15:20:31  5-MIN KMKG 012020Z 27005KT 10SM CLR 11/00 A3000 560 46  300 280/05 RMK AO2
14840KMKG MKG20050401152509304/01/05 15:25:31  5-MIN KMKG 012025Z 29003KT 10SM CLR 11/M01 A3000 560 44 200 290/03 RMK AO2
14840KMKG MKG20050401153009304/01/05 15:30:31  5-MIN KMKG 012030Z VRB04KT 10SM CLR 11/M01 A2999 560 42 300 VRB/04 RMK AO2
14840KMKG MKG20050401153509304/01/05 15:35:31  5-MIN KMKG 012035Z 32005KT 10SM CLR 12/M02 A2999 570 38 400 330/05 RMK AO2
14840KMKG MKG20050403211509604/03/05 21:15:31  5-MIN KMKG 040215Z 00000KT 10SM CLR 03/M03 A2997 580 67 -700 000/00 RMK AO2 $
14840KMKG MKG20050403212009604/03/05 21:20:31  5-MIN KMKG 040220Z 00000KT 10SM CLR 03/M03 A2997 580 67 -700 000/00 RMK AO2 $
14840KMKG MKG20050403212509604/03/05 21:25:31  5-MIN KMKG 040225Z 00000KT 10SM CLR 02/M03 A2997 580 72 -800 000/00 RMK AO2 $
14840KMKG MKG20050403213009604/03/05 21:30:31  5-MIN KMKG 040230Z 00000KT 10SM CLR 02/M03 A2998 580 72 -800 000/00 RMK AO2 $
14840KMKG MKG20050403213509604/03/05 21:35:31  5-MIN KMKG 040235Z 22008KT 10SM CLR 01/M03 A2998 570 75 -900 230/08 RMK AO2 $
14840KMKG MKG20050403214009604/03/05 21:40:31  5-MIN KMKG 040240Z 24003KT 10SM CLR 01/M02 A2998 580 78 -900 240/03 RMK AO2 $
14840KMKG MKG20050403214509604/03/05 21:45:31  5-MIN KMKG 040245Z 23003KT 10SM CLR 01/M03 A2998 580 75 -900 240/03 RMK AO2 $
14840KMKG MKG20050403215011904/03/05 21:50:31  5-MIN KMKG 040250Z 00000KT 10SM CLR 01/M03 A2998 580 75 -900 000/00 RMK AO2 SLP157 T00111028 50002 $
14840KMKG MKG20050403215511904/03/05 21:55:31  5-MIN KMKG 040255Z 00000KT 10SM CLR 01/M03 A2998 580 75 -900 000/00 RMK AO2 SLP157 T00111028 51008 $
14840KMKG MKG20050403220009604/03/05 22:00:31  5-MIN KMKG 040300Z 00000KT 10SM CLR 02/M03 A2998 580 72 -800 000/00 RMK AO2 $
14840KMKG MKG20050403220509604/03/05 22:05:31  5-MIN KMKG 040305Z 00000KT 10SM CLR 02/M03 A2998 580 72 -800 000/00 RMK AO2 $
14840KMKG MKG20050403221009604/03/05 22:10:31  5-MIN KMKG 040310Z 00000KT 10SM CLR 02/M03 A2998 580 72 -800 000/00 RMK AO2 $
14840KMKG MKG20050403221509604/03/05 22:15:31  5-MIN KMKG 040315Z 00000KT 10SM CLR 02/M03 A2998 580 69 -700 000/00 RMK AO2 $
14840KMKG MKG20050403222009604/03/05 22:20:31  5-MIN KMKG 040320Z 00000KT 10SM CLR 02/M03 A2998 580 69 -700 000/00 RMK AO2 $
14840KMKG MKG20050403222509604/03/05 22:25:31  5-MIN KMKG 040325Z 00000KT 10SM CLR 02/M03 A2998 570 69 -800 000/00 RMK AO2 $
14840KMKG MKG20050403223009604/03/05 22:30:31  5-MIN KMKG 040330Z 00000KT 10SM CLR 02/M03 A2998 570 72 -800 000/00 RMK AO2 $
14840KMKG MKG20050403223509604/03/05 22:35:31  5-MIN KMKG 040335Z 00000KT 10SM CLR 02/M03 A2999 570 72 -800 000/00 RMK AO2 $
14840KMKG MKG20050403224009604/03/05 22:40:31  5-MIN KMKG 040340Z 00000KT 10SM CLR 01/M03 A2998 570 75 -900 000/00 RMK AO2 $
14840KMKG MKG20050403224509904/03/05 22:45:31  5-MIN KMKG 040345Z 25003KT 10SM FEW080 01/M02 A2999 570 78 -900 260/03 RMK AO2 $
14840KMKG MKG20050403225011604/03/05 22:50:31  5-MIN KMKG 040350Z 00000KT 10SM FEW080 01/M02 A2999 570 78 -900 000/00 RMK AO2 SLP160 T00111022 $
14840KMKG MKG20050403225511604/03/05 22:55:31  5-MIN KMKG 040355Z 00000KT 10SM FEW080 01/M02 A2999 570 78 -900 000/00 RMK AO2 SLP160 T00111022 $
14840KMKG MKG20050403230010004/03/05 23:00:31  5-MIN KMKG 040400Z 00000KT 10SM FEW080 01/M02 A2999 570 82 -1000 000/00 RMK AO2 $
14840KMKG MKG20050403230509904/03/05 23:05:31  5-MIN KMKG 040405Z 00000KT 10SM FEW080 01/M02 A2999 560 78 -900 000/00 RMK AO2 $
14840KMKG MKG20050403231010004/03/05 23:10:31  5-MIN KMKG 040410Z 25003KT 10SM FEW080 01/M02 A2999 570 82 -1000 260/03 RMK AO2 $
14840KMKG MKG20050403231509704/03/05 23:15:31  5-MIN KMKG 040415Z 24003KT 10SM CLR 01/M02 A2999 570 82 -1000 240/03 RMK AO2 $
14840KMKG MKG20050403232009704/03/05 23:20:31  5-MIN KMKG 040420Z 26003KT 10SM CLR 01/M02 A2999 570 82 -1000 260/03 RMK AO2 $
14840KMKG MKG20050403232509704/03/05 23:25:31  5-MIN KMKG 040425Z 25003KT 10SM CLR 01/M02 A2999 570 82 -1000 250/03 RMK AO2 $
14840KMKG MKG20050403233009704/03/05 23:30:31  5-MIN KMKG 040430Z 25003KT 10SM CLR 01/M02 A2999 570 82 -1000 260/03 RMK AO2 $
14840KMKG MKG20050403233509704/03/05 23:35:31  5-MIN KMKG 040435Z 24003KT 10SM CLR 00/M02 A2999 570 85 -1000 250/03 RMK AO2 $
14840KMKG MKG20050403234009704/03/05 23:40:31  5-MIN KMKG 040440Z 00000KT 10SM CLR 00/M02 A2999 570 85 -1000 000/00 RMK AO2 $
14840KMKG MKG20050403234509704/03/05 23:45:31  5-MIN KMKG 040445Z 00000KT 10SM CLR 01/M02 A2999 560 82 -1000 000/00 RMK AO2 $
14840KMKG MKG20050403235012404/03/05 23:50:31  5-MIN KMKG 040450Z 00000KT 10SM CLR 01/M02 A2999 560 82 -1000 000/00 RMK AO2 SLP162 T00061022 401000000 $
14840KMKG MKG20050403235512404/03/05 23:55:31  5-MIN KMKG 040455Z 00000KT 10SM CLR 01/M02 A2999 560 82 -1000 000/00 RMK AO2 SLP161 T00061022 401000000 $
14840KMKG MKG20050404000009604/04/05 00:00:32  5-MIN KMKG 040500Z 00000KT 10SM CLR 01/M02 A2999 570 78 -900 000/00 RMK AO2 $
14840KMKG MKG20050404000509604/04/05 00:05:31  5-MIN KMKG 040505Z 00000KT 10SM CLR 02/M02 A2999 560 75 -800 000/00 RMK AO2 $
14840KMKG MKG20050404001009604/04/05 00:10:31  5-MIN KMKG 040510Z 00000KT 10SM CLR 02/M02 A2999 560 75 -800 000/00 RMK AO2 $
14840KMKG MKG20050404001509604/04/05 00:15:31  5-MIN KMKG 040515Z 00000KT 10SM CLR 02/M02 A2999 560 75 -800 000/00 RMK AO2 $
14840KMKG MKG20050404002009604/04/05 00:20:31  5-MIN KMKG 040520Z 00000KT 10SM CLR 02/M02 A2999 570 75 -800 000/00 RMK AO2 $
14840KMKG MKG20050404002509604/04/05 00:25:31  5-MIN KMKG 040525Z 00000KT 10SM CLR 02/M02 A2999 560 72 -800 000/00 RMK AO2 $
14840KMKG MKG20050404003009604/04/05 00:30:31  5-MIN KMKG 040530Z 00000KT 10SM CLR 02/M02 A2999 560 72 -800 000/00 RMK AO2 $
14840KMKG MKG20050404003509604/04/05 00:35:31  5-MIN KMKG 040535Z 00000KT 10SM CLR 01/M02 A2999 560 78 -900 000/00 RMK AO2 $
14840KMKG MKG20050404004009604/04/05 00:40:31  5-MIN KMKG 040540Z 00000KT 10SM CLR 01/M02 A2999 560 78 -900 000/00 RMK AO2 $
14840KMKG MKG20050404004509604/04/05 00:45:31  5-MIN KMKG 040545Z 00000KT 10SM CLR 01/M02 A2999 560 78 -900 000/00 RMK AO2 $
14840KMKG MKG20050404005013104/04/05 00:50:31  5-MIN KMKG 040550Z 00000KT 10SM CLR 01/M02 A3000 560 78 -900 000/00 RMK AO2 SLP162 T00111022 10083 20000 51008 $
14840KMKG MKG20050404005513204/04/05 00:55:31  5-MIN KMKG 040555Z 00000KT 10SM CLR 00/M03 A3000 560 81 -1000 000/00 RMK AO2 SLP164 T00001028 10083 20000 51007 $
14840KMKG MKG20050404010009704/04/05 01:00:31  5-MIN KMKG 040600Z 00000KT 10SM CLR 00/M03 A3000 560 81 -1000 000/00 RMK AO2 $
14840KMKG MKG20050404010509704/04/05 01:05:31  5-MIN KMKG 040605Z 00000KT 10SM CLR 01/M03 A3000 560 78 -1000 000/00 RMK AO2 $
14840KMKG MKG20050404011009704/04/05 01:10:31  5-MIN KMKG 040610Z 00000KT 10SM CLR 00/M03 A3000 560 81 -1100 000/00 RMK AO2 $
14840KMKG MKG20050404011509804/04/05 01:15:31  5-MIN KMKG 040615Z 23003KT 10SM CLR M01/M03 A3000 560 88 -1200 230/03 RMK AO2 $
14840KMKG MKG20050404012009804/04/05 01:20:31  5-MIN KMKG 040620Z 23003KT 10SM CLR M01/M03 A3000 560 88 -1200 230/03 RMK AO2 $
14840KMKG MKG20050404012509804/04/05 01:25:31  5-MIN KMKG 040625Z 23003KT 10SM CLR M01/M03 A3000 560 88 -1200 230/03 RMK AO2 $
14840KMKG MKG20050404013009804/04/05 01:30:31  5-MIN KMKG 040630Z 23003KT 10SM CLR M01/M03 A3000 550 85 -1100 230/03 RMK AO2 $
14840KMKG MKG20050404013509804/04/05 01:35:31  5-MIN KMKG 040635Z 00000KT 10SM CLR M01/M03 A3000 560 85 -1100 000/00 RMK AO2 $
14840KMKG MKG20050404014009704/04/05 01:40:31  5-MIN KMKG 040640Z 00000KT 10SM CLR 00/M02 A3000 560 85 -1100 000/00 RMK AO2 $
14840KMKG MKG20050404014509704/04/05 01:45:31  5-MIN KMKG 040645Z 00000KT 10SM CLR 00/M02 A3000 560 85 -1100 000/00 RMK AO2 $
14840KMKG MKG20050404015011404/04/05 01:50:31  5-MIN KMKG 040650Z 00000KT 10SM CLR 00/M03 A3000 560 81 -1100 000/00 RMK AO2 SLP163 T00001028 $
14840KMKG MKG20050404015511404/04/05 01:55:31  5-MIN KMKG 040655Z 00000KT 10SM CLR 00/M03 A3000 560 81 -1100 000/00 RMK AO2 SLP163 T00001028 $
14840KMKG MKG20050404020009704/04/05 02:00:31  5-MIN KMKG 040700Z 00000KT 10SM CLR 00/M03 A3000 560 81 -1100 000/00 RMK AO2 $
14840KMKG MKG20050404020509804/04/05 02:05:31  5-MIN KMKG 040705Z 00000KT 10SM CLR M01/M03 A3000 560 85 -1200 000/00 RMK AO2 $
14840KMKG MKG20050404021009804/04/05 02:10:31  5-MIN KMKG 040710Z 00000KT 10SM CLR M01/M03 A3000 560 81 -1100 000/00 RMK AO2 $
14840KMKG MKG20050404021509804/04/05 02:15:31  5-MIN KMKG 040715Z 00000KT 10SM CLR M01/M03 A3000 560 85 -1200 000/00 RMK AO2 $
14840KMKG MKG20050404022009804/04/05 02:20:31  5-MIN KMKG 040720Z 00000KT 10SM CLR M01/M03 A3000 560 85 -1200 000/00 RMK AO2 $
14840KMKG MKG20050404022509804/04/05 02:25:31  5-MIN KMKG 040725Z 00000KT 10SM CLR M01/M03 A3000 560 81 -1100 000/00 RMK AO2 $
14840KMKG MKG20050404023009704/04/05 02:30:31  5-MIN KMKG 040730Z 00000KT 10SM CLR 00/M03 A3000 560 78 -1100 000/00 RMK AO2 $
14840KMKG MKG20050404023509704/04/05 02:35:31  5-MIN KMKG 040735Z 00000KT 10SM CLR 00/M03 A3000 560 78 -1100 000/00 RMK AO2 $
14840KMKG MKG20050404024009704/04/05 02:40:31  5-MIN KMKG 040740Z 00000KT 10SM CLR 00/M03 A3000 560 78 -1100 000/00 RMK AO2 $
14840KMKG MKG20050404024509804/04/05 02:45:31  5-MIN KMKG 040745Z 00000KT 10SM CLR M01/M03 A3000 560 85 -1100 000/00 RMK AO2 $
14840KMKG MKG20050404025011504/04/05 02:50:31  5-MIN KMKG 040750Z 00000KT 10SM CLR M01/M03 A3000 550 85 -1100 000/00 RMK AO2 SLP165 T10061028 $
14840KMKG MKG20050404025511504/04/05 02:55:31  5-MIN KMKG 040755Z 00000KT 10SM CLR M01/M03 A3000 560 88 -1200 000/00 RMK AO2 SLP165 T10111028 $
14840KMKG MKG20050404030009804/04/05 03:00:31  5-MIN KMKG 040800Z 00000KT 10SM CLR M01/M03 A3000 550 85 -1100 000/00 RMK AO2 $
14840KMKG MKG20050404030509804/04/05 03:05:31  5-MIN KMKG 040805Z 00000KT 10SM CLR M01/M03 A3000 550 85 -1100 000/00 RMK AO2 $
14840KMKG MKG20050404031009704/04/05 03:10:31  5-MIN KMKG 040810Z 00000KT 10SM CLR 00/M03 A3000 550 81 -1100 000/00 RMK AO2 $
14840KMKG MKG20050404031509704/04/05 03:15:31  5-MIN KMKG 040815Z 00000KT 10SM CLR 00/M03 A3000 550 78 -1100 000/00 RMK AO2 $
14840KMKG MKG20050404032009704/04/05 03:20:31  5-MIN KMKG 040820Z 00000KT 10SM CLR 00/M03 A3000 550 78 -1100 000/00 RMK AO2 $
14840KMKG MKG20050404032509704/04/05 03:25:31  5-MIN KMKG 040825Z 00000KT 10SM CLR 00/M03 A3000 550 81 -1100 000/00 RMK AO2 $
14840KMKG MKG20050404033009804/04/05 03:30:31  5-MIN KMKG 040830Z 00000KT 10SM CLR M01/M03 A3000 550 81 -1100 000/00 RMK AO2 $
14840KMKG MKG20050404033509804/04/05 03:35:31  5-MIN KMKG 040835Z 00000KT 10SM CLR M01/M03 A3000 550 81 -1100 000/00 RMK AO2 $
14840KMKG MKG20050404034009704/04/05 03:40:31  5-MIN KMKG 040840Z 00000KT 10SM CLR 00/M03 A3000 550 78 -1100 000/00 RMK AO2 $
14840KMKG MKG20050404034509804/04/05 03:45:31  5-MIN KMKG 040845Z 00000KT 10SM CLR M01/M03 A3001 550 81 -1100 000/00 RMK AO2 $
14840KMKG MKG20050404035012104/04/05 03:50:31  5-MIN KMKG 040850Z 00000KT 10SM CLR M01/M03 A3001 550 85 -1100 000/00 RMK AO2 SLP166 T10061028 51007 $
14840KMKG MKG20050404035512104/04/05 03:55:31  5-MIN KMKG 040855Z 00000KT 10SM CLR M01/M03 A3000 550 85 -1100 000/00 RMK AO2 SLP166 T10061028 53002 $
14840KMKG MKG20050404040009804/04/05 04:00:31  5-MIN KMKG 040900Z 00000KT 10SM CLR M01/M03 A3000 550 85 -1100 000/00 RMK AO2 $
14840KMKG MKG20050404040509804/04/05 04:05:31  5-MIN KMKG 040905Z 00000KT 10SM CLR M01/M03 A3000 550 81 -1100 000/00 RMK AO2 $
14840KMKG MKG20050404041009804/04/05 04:10:31  5-MIN KMKG 040910Z 00000KT 10SM CLR M01/M03 A3000 550 85 -1200 000/00 RMK AO2 $
14840KMKG MKG20050404041509804/04/05 04:15:31  5-MIN KMKG 040915Z 00000KT 10SM CLR M01/M03 A3001 550 81 -1100 000/00 RMK AO2 $
14840KMKG MKG20050404042009804/04/05 04:20:31  5-MIN KMKG 040920Z 00000KT 10SM CLR M01/M03 A3001 550 85 -1200 000/00 RMK AO2 $
14840KMKG MKG20050404042509804/04/05 04:25:31  5-MIN KMKG 040925Z 00000KT 10SM CLR M01/M03 A3001 550 85 -1200 000/00 RMK AO2 $
14840KMKG MKG20050404043009804/04/05 04:30:31  5-MIN KMKG 040930Z 00000KT 10SM CLR M01/M03 A3001 550 85 -1200 000/00 RMK AO2 $
14840KMKG MKG20050404043509804/04/05 04:35:31  5-MIN KMKG 040935Z 00000KT 10SM CLR M02/M04 A3001 550 85 -1300 000/00 RMK AO2 $
14840KMKG MKG20050404044009804/04/05 04:40:31  5-MIN KMKG 040940Z 00000KT 10SM CLR M02/M03 A3001 550 88 -1300 000/00 RMK AO2 $
14840KMKG MKG20050404044509804/04/05 04:45:31  5-MIN KMKG 040945Z 00000KT 10SM CLR M02/M03 A3001 550 88 -1300 000/00 RMK AO2 $
14840KMKG MKG20050404045011504/04/05 04:50:31  5-MIN KMKG 040950Z 00000KT 10SM CLR M01/M03 A3001 550 85 -1200 000/00 RMK AO2 SLP168 T10111033 $
14840KMKG MKG20050404045511504/04/05 04:55:31  5-MIN KMKG 040955Z 00000KT 10SM CLR M02/M03 A3001 550 92 -1300 000/00 RMK AO2 SLP167 T10171028 $
14840KMKG MKG20050404050009804/04/05 05:00:31  5-MIN KMKG 041000Z 00000KT 10SM CLR M02/M03 A3001 550 88 -1300 000/00 RMK AO2 $
14840KMKG MKG20050404050509804/04/05 05:05:31  5-MIN KMKG 041005Z 00000KT 10SM CLR M02/M04 A3001 550 88 -1300 000/00 RMK AO2 $
14840KMKG MKG20050404051009804/04/05 05:10:31  5-MIN KMKG 041010Z 00000KT 10SM CLR M02/M04 A3001 550 85 -1300 000/00 RMK AO2 $
14840KMKG MKG20050404051509804/04/05 05:15:31  5-MIN KMKG 041015Z 11003KT 10SM CLR M02/M03 A3001 550 88 -1300 120/03 RMK AO2 $
14840KMKG MKG20050404052009804/04/05 05:20:31  5-MIN KMKG 041020Z 00000KT 10SM CLR M02/M03 A3001 550 92 -1300 000/00 RMK AO2 $
14840KMKG MKG20050404052509804/04/05 05:25:31  5-MIN KMKG 041025Z 00000KT 10SM CLR M02/M03 A3001 550 88 -1300 000/00 RMK AO2 $
14840KMKG MKG20050404053009804/04/05 05:30:31  5-MIN KMKG 041030Z 00000KT 10SM CLR M02/M03 A3001 540 88 -1300 000/00 RMK AO2 $
14840KMKG MKG20050404053509804/04/05 05:35:31  5-MIN KMKG 041035Z 00000KT 10SM CLR M02/M03 A3001 540 88 -1300 000/00 RMK AO2 $
14840KMKG MKG20050404054009804/04/05 05:40:31  5-MIN KMKG 041040Z 00000KT 10SM CLR M02/M03 A3001 540 88 -1300 000/00 RMK AO2 $
14840KMKG MKG20050404054509804/04/05 05:45:31  5-MIN KMKG 041045Z 09003KT 10SM CLR M01/M03 A3001 550 85 -1200 100/03 RMK AO2 $
14840KMKG MKG20050404055011504/04/05 05:50:31  5-MIN KMKG 041050Z 09003KT 10SM CLR M02/M04 A3001 550 85 -1300 100/03 RMK AO2 SLP169 T10171039 $
14840KMKG MKG20050404055511504/04/05 05:55:31  5-MIN KMKG 041055Z 00000KT 10SM CLR M02/M04 A3001 540 88 -1300 000/00 RMK AO2 SLP169 T10221039 $
14840KMKG MKG20050404060009804/04/05 06:00:31  5-MIN KMKG 041100Z 00000KT 10SM CLR M02/M04 A3002 540 88 -1400 000/00 RMK AO2 $
14840KMKG MKG20050404060509804/04/05 06:05:31  5-MIN KMKG 041105Z 00000KT 10SM CLR M02/M03 A3002 540 92 -1400 000/00 RMK AO2 $
14840KMKG MKG20050404061009804/04/05 06:10:31  5-MIN KMKG 041110Z 00000KT 10SM CLR M02/M03 A3002 540 88 -1300 000/00 RMK AO2 $
14840KMKG MKG20050404061509804/04/05 06:15:31  5-MIN KMKG 041115Z 00000KT 10SM CLR M01/M03 A3002 530 85 -1200 000/00 RMK AO2 $
14840KMKG MKG20050404062009804/04/05 06:20:31  5-MIN KMKG 041120Z 00000KT 10SM CLR M02/M03 A3003 530 88 -1300 000/00 RMK AO2 $
14840KMKG MKG20050404062509804/04/05 06:25:31  5-MIN KMKG 041125Z 00000KT 10SM CLR M02/M04 A3003 530 85 -1300 000/00 RMK AO2 $
14840KMKG MKG20050404063009804/04/05 06:30:31  5-MIN KMKG 041130Z 00000KT 10SM CLR M02/M04 A3003 530 85 -1300 000/00 RMK AO2 $
14840KMKG MKG20050404063509804/04/05 06:35:31  5-MIN KMKG 041135Z 00000KT 10SM CLR M01/M03 A3003 530 85 -1200 000/00 RMK AO2 $
14840KMKG MKG20050404064009804/04/05 06:40:31  5-MIN KMKG 041140Z 00000KT 10SM CLR M01/M04 A3003 530 81 -1200 000/00 RMK AO2 $
14840KMKG MKG20050404064509804/04/05 06:45:31  5-MIN KMKG 041145Z 00000KT 10SM CLR M01/M03 A3003 530 85 -1200 000/00 RMK AO2 $
14840KMKG MKG20050404065013304/04/05 06:50:31  5-MIN KMKG 041150Z 00000KT 10SM CLR M01/M03 A3004 520 85 -1200 000/00 RMK AO2 SLP177 T10111033 10006 21022 53002 $
14840KMKG MKG20050404065513304/04/05 06:55:31  5-MIN KMKG 041155Z 00000KT 10SM CLR M01/M03 A3004 520 85 -1200 000/00 RMK AO2 SLP177 T10111033 10006 21022 53010 $
14840KMKG MKG20050404070009804/04/05 07:00:31  5-MIN KMKG 041200Z 07003KT 10SM CLR M01/M03 A3004 520 85 -1200 080/03 RMK AO2 $
14840KMKG MKG20050404070509804/04/05 07:05:31  5-MIN KMKG 041205Z 08003KT 10SM CLR M01/M03 A3004 520 85 -1200 080/03 RMK AO2 $
14840KMKG MKG20050404071009804/04/05 07:10:31  5-MIN KMKG 041210Z 00000KT 10SM CLR M01/M03 A3003 530 85 -1200 000/00 RMK AO2 $
14840KMKG MKG20050404071509804/04/05 07:15:31  5-MIN KMKG 041215Z 00000KT 10SM CLR M01/M02 A3003 520 88 -1200 000/00 RMK AO2 $
14840KMKG MKG20050404072009704/04/05 07:20:31  5-MIN KMKG 041220Z 00000KT 10SM CLR 00/M02 A3004 520 85 -1100 000/00 RMK AO2 $
14840KMKG MKG20050404072509704/04/05 07:25:31  5-MIN KMKG 041225Z 00000KT 10SM CLR 01/M02 A3004 520 82 -1000 000/00 RMK AO2 $
14840KMKG MKG20050404073009704/04/05 07:30:31  5-MIN KMKG 041230Z 00000KT 10SM CLR 01/M02 A3004 520 85 -1000 000/00 RMK AO2 $
14840KMKG MKG20050404073509704/04/05 07:35:31  5-MIN KMKG 041235Z 00000KT 10SM CLR 01/M02 A3004 520 82 -1000 000/00 RMK AO2 $
14840KMKG MKG20050404074009604/04/05 07:40:31  5-MIN KMKG 041240Z 00000KT 10SM CLR 02/M02 A3004 520 78 -900 000/00 RMK AO2 $
14840KMKG MKG20050404074509404/04/05 07:45:31  5-MIN KMKG 041245Z 00000KT 10SM CLR 02/M01 A3005 510 78 -800 000/00 RMK AO2
14840KMKG MKG20050404075011104/04/05 07:50:31  5-MIN KMKG 041250Z 00000KT 10SM CLR 03/M01 A3005 510 75 -800 000/00 RMK AO2 SLP180 T00281011
14840KMKG MKG20050404075511104/04/05 07:55:31  5-MIN KMKG 041255Z 00000KT 10SM CLR 03/M02 A3005 510 70 -700 000/00 RMK AO2 SLP180 T00331017
14840KMKG MKG20050404080009404/04/05 08:00:31  5-MIN KMKG 041300Z 08003KT 10SM CLR 04/M02 A3005 510 67 -600 090/03 RMK AO2
14840KMKG MKG20050404080509404/04/05 08:05:31  5-MIN KMKG 041305Z 08003KT 10SM CLR 04/M02 A3005 510 62 -600 080/03 RMK AO2
14840KMKG MKG20050404081009404/04/05 08:10:31  5-MIN KMKG 041310Z 08003KT 10SM CLR 04/M02 A3005 510 62 -600 090/03 RMK AO2
14840KMKG MKG20050404081509404/04/05 08:15:31  5-MIN KMKG 041315Z 08003KT 10SM CLR 05/M03 A3005 510 57 -500 090/03 RMK AO2
14840KMKG MKG20050404082009404/04/05 08:20:31  5-MIN KMKG 041320Z 09004KT 10SM CLR 05/M03 A3005 510 57 -500 090/04 RMK AO2
14840KMKG MKG20050404082509404/04/05 08:25:31  5-MIN KMKG 041325Z 09003KT 10SM CLR 06/M03 A3005 510 53 -400 090/03 RMK AO2
14840KMKG MKG20050404083009404/04/05 08:30:31  5-MIN KMKG 041330Z 07005KT 10SM CLR 06/M03 A3005 510 51 -400 080/05 RMK AO2
14840KMKG MKG20050404083509404/04/05 08:35:31  5-MIN KMKG 041335Z 07005KT 10SM CLR 07/M03 A3005 510 49 -300 070/05 RMK AO2
14840KMKG MKG20050404084009404/04/05 08:40:31  5-MIN KMKG 041340Z VRB04KT 10SM CLR 07/M03 A3005 510 49 -200 VRB/04 RMK AO2
14840KMKG MKG20050404084509404/04/05 08:45:31  5-MIN KMKG 041345Z 03005KT 10SM CLR 07/M03 A3005 510 49 -200 040/05 RMK AO2
14840KMKG MKG20050404085011104/04/05 08:50:31  5-MIN KMKG 041350Z 05006KT 10SM CLR 08/M03 A3005 510 45 -100 050/06 RMK AO2 SLP182 T00781033
14840KMKG MKG20050404085511104/04/05 08:55:31  5-MIN KMKG 041355Z 05006KT 10SM CLR 08/M03 A3005 510 45 -100 050/06 RMK AO2 SLP181 T00781033
14840KMKG MKG20050404090009404/04/05 09:00:31  5-MIN KMKG 041400Z 05005KT 10SM CLR 08/M03 A3005 510 43 -100 060/05 RMK AO2
14840KMKG MKG20050404090509104/04/05 09:05:31  5-MIN KMKG 041405Z 05007KT 10SM CLR 09/M03 A3005 510 42 0 050/07 RMK AO2
14840KMKG MKG20050404091009104/04/05 09:10:31  5-MIN KMKG 041410Z 05005KT 10SM CLR 09/M03 A3006 510 42 0 050/05 RMK AO2
14840KMKG MKG20050404091509104/04/05 09:15:31  5-MIN KMKG 041415Z 05004KT 10SM CLR 09/M03 A3006 500 42 0 050/04 RMK AO2
14840KMKG MKG20050404092009104/04/05 09:20:31  5-MIN KMKG 041420Z 06004KT 10SM CLR 09/M03 A3006 500 42 0 070/04 RMK AO2
14840KMKG MKG20050404092509104/04/05 09:25:31  5-MIN KMKG 041425Z 07004KT 10SM CLR 09/M03 A3006 500 40 0 070/04 RMK AO2
14840KMKG MKG20050404093009304/04/05 09:30:31  5-MIN KMKG 041430Z 06004KT 10SM CLR 10/M03 A3006 500 40 100 070/04 RMK AO2
14840KMKG MKG20050404093509304/04/05 09:35:31  5-MIN KMKG 041435Z 06003KT 10SM CLR 10/M03 A3006 500 40 100 060/03 RMK AO2
14840KMKG MKG20050404094009304/04/05 09:40:31  5-MIN KMKG 041440Z VRB04KT 10SM CLR 11/M02 A3006 500 40 100 VRB/04 RMK AO2
14840KMKG MKG20050404094509304/04/05 09:45:31  5-MIN KMKG 041445Z 06006KT 10SM CLR 11/M02 A3006 500 39 200 070/06 RMK AO2
14840KMKG MKG20050404095011604/04/05 09:50:31  5-MIN KMKG 041450Z 06005KT 10SM CLR 11/M02 A3006 500 41 200 070/05 RMK AO2 SLP183 T01111017 53010
14840KMKG MKG20050404095511604/04/05 09:55:31  5-MIN KMKG 041455Z 07007KT 10SM CLR 11/M02 A3006 500 41 200 070/07 RMK AO2 SLP183 T01111017 51007
14840KMKG MKG20050404100009304/04/05 10:00:31  5-MIN KMKG 041500Z VRB05KT 10SM CLR 11/M02 A3006 500 41 200 VRB/05 RMK AO2
14840KMKG MKG20050404100509304/04/05 10:05:31  5-MIN KMKG 041505Z 08005KT 10SM CLR 12/M02 A3005 510 39 300 090/05 RMK AO2
14840KMKG MKG20050404101009304/04/05 10:10:31  5-MIN KMKG 041510Z 08007KT 10SM CLR 12/M02 A3005 510 39 300 080/07 RMK AO2
14840KMKG MKG20050404101509304/04/05 10:15:31  5-MIN KMKG 041515Z 08006KT 10SM CLR 12/M02 A3005 510 39 300 080/06 RMK AO2
14840KMKG MKG20050404102009304/04/05 10:20:31  5-MIN KMKG 041520Z VRB05KT 10SM CLR 12/M02 A3005 510 38 300 VRB/05 RMK AO2
14840KMKG MKG20050404102509304/04/05 10:25:31  5-MIN KMKG 041525Z 08006KT 10SM CLR 13/M01 A3005 510 38 400 090/06 RMK AO2
14840KMKG MKG20050404103009304/04/05 10:30:31  5-MIN KMKG 041530Z VRB04KT 10SM CLR 13/M02 A3006 510 36 400 VRB/04 RMK AO2
14840KMKG MKG20050404103509304/04/05 10:35:31  5-MIN KMKG 041535Z VRB06KT 10SM CLR 13/M02 A3006 500 36 400 VRB/06 RMK AO2
14840KMKG MKG20050404104009304/04/05 10:40:31  5-MIN KMKG 041540Z 13005KT 10SM CLR 13/M01 A3006 500 38 400 130/05 RMK AO2
14840KMKG MKG20050404104509304/04/05 10:45:31  5-MIN KMKG 041545Z 04005KT 10SM CLR 13/M01 A3006 500 38 400 050/05 RMK AO2
14840KMKG MKG20050404105011004/04/05 10:50:31  5-MIN KMKG 041550Z 00000KT 10SM CLR 13/M01 A3006 500 36 500 000/00 RMK AO2 SLP183 T01331011
14840KMKG MKG20050404105511004/04/05 10:55:31  5-MIN KMKG 041555Z 15007KT 10SM CLR 13/M01 A3006 500 36 500 150/07 RMK AO2 SLP182 T01331011
14840KMKG MKG20050404110009304/04/05 11:00:31  5-MIN KMKG 041600Z VRB04KT 10SM CLR 13/M02 A3006 510 36 400 VRB/04 RMK AO2
14840KMKG MKG20050404110509304/04/05 11:05:31  5-MIN KMKG 041605Z 00000KT 10SM CLR 13/M02 A3005 510 36 400 000/00 RMK AO2
14840KMKG MKG20050404111009304/04/05 11:10:31  5-MIN KMKG 041610Z VRB03KT 10SM CLR 13/M02 A3005 510 36 400 VRB/03 RMK AO2
14840KMKG MKG20050404111509304/04/05 11:15:31  5-MIN KMKG 041615Z 15006KT 10SM CLR 14/M01 A3005 510 35 500 160/06 RMK AO2
14840KMKG MKG20050404112009304/04/05 11:20:31  5-MIN KMKG 041620Z 11004KT 10SM CLR 14/M01 A3005 510 35 500 120/04 RMK AO2
14840KMKG MKG20050404112509304/04/05 11:25:31  5-MIN KMKG 041625Z 14005KT 10SM CLR 14/M01 A3005 510 35 500 140/05 RMK AO2
14840KMKG MKG20050404113009304/04/05 11:30:31  5-MIN KMKG 041630Z 13005KT 10SM CLR 14/M01 A3005 510 35 500 130/05 RMK AO2
14840KMKG MKG20050404113509304/04/05 11:35:31  5-MIN KMKG 041635Z 16006KT 10SM CLR 14/M01 A3005 510 35 500 160/06 RMK AO2
14840KMKG MKG20050404114009304/04/05 11:40:31  5-MIN KMKG 041640Z VRB06KT 10SM CLR 14/M01 A3005 510 34 600 VRB/06 RMK AO2
14840KMKG MKG20050404114509304/04/05 11:45:31  5-MIN KMKG 041645Z VRB03KT 10SM CLR 14/M01 A3005 510 35 500 VRB/03 RMK AO2
14840KMKG MKG20050404115011004/04/05 11:50:31  5-MIN KMKG 041650Z 17004KT 10SM CLR 14/M01 A3005 510 34 600 170/04 RMK AO2 SLP178 T01441011
14840KMKG MKG20050404115511004/04/05 11:55:31  5-MIN KMKG 041655Z 00000KT 10SM CLR 14/M02 A3004 520 34 500 000/00 RMK AO2 SLP177 T01391017
14840KMKG MKG20050404120009304/04/05 12:00:31  5-MIN KMKG 041700Z 00000KT 10SM CLR 14/M01 A3004 520 34 600 000/00 RMK AO2
14840KMKG MKG20050404120509304/04/05 12:05:31  5-MIN KMKG 041705Z VRB05KT 10SM CLR 15/M01 A3004 520 33 700 VRB/05 RMK AO2
14840KMKG MKG20050404121009304/04/05 12:10:31  5-MIN KMKG 041710Z VRB05KT 10SM CLR 16/00 A3004 520 34  700 VRB/05 RMK AO2
14840KMKG MKG20050404121509304/04/05 12:15:31  5-MIN KMKG 041715Z 15006KT 10SM CLR 15/M01 A3003 530 34 700 150/06 RMK AO2
14840KMKG MKG20050404122009304/04/05 12:20:31  5-MIN KMKG 041720Z 15006KT 10SM CLR 15/M01 A3003 530 33 700 160/06 RMK AO2
14840KMKG MKG20050404122509304/04/05 12:25:31  5-MIN KMKG 041725Z 17004KT 10SM CLR 15/M01 A3003 530 33 700 180/04 RMK AO2
14840KMKG MKG20050404123009304/04/05 12:30:31  5-MIN KMKG 041730Z 00000KT 10SM CLR 15/M01 A3002 540 34 700 000/00 RMK AO2
14840KMKG MKG20050404123509304/04/05 12:35:31  5-MIN KMKG 041735Z 00000KT 10SM CLR 15/M01 A3003 530 33 700 000/00 RMK AO2
14840KMKG MKG20050404124009304/04/05 12:40:31  5-MIN KMKG 041740Z VRB04KT 10SM CLR 16/M01 A3003 530 33 800 VRB/04 RMK AO2
14840KMKG MKG20050404124509304/04/05 12:45:31  5-MIN KMKG 041745Z 16005KT 10SM CLR 16/M01 A3002 530 31 800 160/05 RMK AO2
14840KMKG MKG20050404125012804/04/05 12:50:31  5-MIN KMKG 041750Z 12003KT 10SM CLR 16/M01 A3002 540 33 800 120/03 RMK AO2 SLP170 T01561006 10156 21011 51007
14840KMKG MKG20050404125512804/04/05 12:55:31  5-MIN KMKG 041755Z 00000KT 10SM CLR 16/M01 A3002 540 30 800 000/00 RMK AO2 SLP169 T01611011 10161 21011 58013
14840KMKG MKG20050404130009304/04/05 13:00:31  5-MIN KMKG 041800Z VRB03KT 10SM CLR 16/M01 A3002 540 30 800 VRB/03 RMK AO2
14840KMKG MKG20050404130509304/04/05 13:05:31  5-MIN KMKG 041805Z 31005KT 10SM CLR 17/M01 A3002 540 31 900 310/05 RMK AO2
14840KMKG MKG20050404131009304/04/05 13:10:31  5-MIN KMKG 041810Z VRB04KT 10SM CLR 17/M01 A3002 540 31 900 VRB/04 RMK AO2
14840KMKG MKG20050404131509304/04/05 13:15:31  5-MIN KMKG 041815Z 26005KT 10SM CLR 16/00 A3002 540 33  800 260/05 RMK AO2
14840KMKG MKG20050404132009304/04/05 13:20:31  5-MIN KMKG 041820Z VRB05KT 10SM CLR 16/00 A3002 540 33  800 VRB/05 RMK AO2
14840KMKG MKG20050404132509304/04/05 13:25:31  5-MIN KMKG 041825Z 26005KT 10SM CLR 16/00 A3001 550 33  800 260/05 RMK AO2
14840KMKG MKG20050404133009304/04/05 13:30:31  5-MIN KMKG 041830Z VRB03KT 10SM CLR 16/00 A3001 550 33  800 VRB/03 RMK AO2
14840KMKG MKG20050404133509304/04/05 13:35:31  5-MIN KMKG 041835Z 24005KT 10SM CLR 16/00 A3001 550 33  900 240/05 RMK AO2
14840KMKG MKG20050404134009304/04/05 13:40:31  5-MIN KMKG 041840Z VRB05KT 10SM CLR 16/00 A3001 550 33  900 VRB/05 RMK AO2
14840KMKG MKG20050404134509304/04/05 13:45:31  5-MIN KMKG 041845Z VRB05KT 10SM CLR 17/00 A3000 550 32  900 VRB/05 RMK AO2
14840KMKG MKG20050404135011004/04/05 13:50:31  5-MIN KMKG 041850Z VRB04KT 10SM CLR 17/00 A3000 560 32  900 VRB/04 RMK AO2 SLP163 T01670000
14840KMKG MKG20050404135511004/04/05 13:55:31  5-MIN KMKG 041855Z VRB03KT 10SM CLR 17/00 A3000 560 32  900 VRB/03 RMK AO2 SLP163 T01670000
14840KMKG MKG20050404140009304/04/05 14:00:31  5-MIN KMKG 041900Z 00000KT 10SM CLR 17/M01 A3000 560 31 900 000/00 RMK AO2
14840KMKG MKG20050404140509404/04/05 14:05:31  5-MIN KMKG 041905Z 00000KT 10SM CLR 17/M01 A3000 560 29 1000 000/00 RMK AO2
14840KMKG MKG20050404141009404/04/05 14:10:31  5-MIN KMKG 041910Z VRB04KT 10SM CLR 18/01 A3000 560 31  1100 VRB/04 RMK AO2
14840KMKG MKG20050404141509404/04/05 14:15:31  5-MIN KMKG 041915Z 28005KT 10SM CLR 18/01 A3000 560 31  1100 280/05 RMK AO2
14840KMKG MKG20050404142009304/04/05 14:20:31  5-MIN KMKG 041920Z 24008KT 10SM CLR 17/00 A3000 560 32  900 250/08 RMK AO2
14840KMKG MKG20050404142509304/04/05 14:25:31  5-MIN KMKG 041925Z 25010KT 10SM CLR 17/00 A3000 560 32  900 250/10 RMK AO2
14840KMKG MKG20050404143009304/04/05 14:30:31  5-MIN KMKG 041930Z 24010KT 10SM CLR 16/M01 A3000 560 33 800 240/10 RMK AO2
14840KMKG MKG20050404143509304/04/05 14:35:31  5-MIN KMKG 041935Z 25010KT 10SM CLR 15/M01 A3000 560 34 700 250/10 RMK AO2
14840KMKG MKG20050404144009304/04/05 14:40:31  5-MIN KMKG 041940Z 25011KT 10SM CLR 16/M01 A3000 560 33 800 250/11 RMK AO2
14840KMKG MKG20050404144509304/04/05 14:45:31  5-MIN KMKG 041945Z 24009KT 10SM CLR 15/M01 A3000 560 33 700 250/09 RMK AO2
14840KMKG MKG20050404145011004/04/05 14:50:31  5-MIN KMKG 041950Z 25010KT 10SM CLR 16/M01 A3000 560 33 800 250/10 RMK AO2 SLP161 T01561006
14840KMKG MKG20050404145511004/04/05 14:55:31  5-MIN KMKG 041955Z 26009KT 10SM CLR 16/M01 A2999 560 33 800 260/09 RMK AO2 SLP160 T01561006
14840KMKG MKG20050404150009304/04/05 15:00:31  5-MIN KMKG 042000Z 25008KT 10SM CLR 15/M01 A2999 570 33 700 250/08 RMK AO2
14840KMKG MKG20050404150509304/04/05 15:05:31  5-MIN KMKG 042005Z VRB05KT 10SM CLR 15/M01 A2999 570 34 700 VRB/05 RMK AO2
14840KMKG MKG20050404151009304/04/05 15:10:31  5-MIN KMKG 042010Z 22006KT 10SM CLR 15/M01 A2998 570 34 700 220/06 RMK AO2
14840KMKG MKG20050404151509304/04/05 15:15:31  5-MIN KMKG 042015Z 23005KT 10SM CLR 15/M01 A2998 570 34 700 240/05 RMK AO2
14840KMKG MKG20050404152009304/04/05 15:20:31  5-MIN KMKG 042020Z 24008KT 10SM CLR 16/M01 A2999 570 33 800 250/08 RMK AO2
14840KMKG MKG20050404152509304/04/05 15:25:31  5-MIN KMKG 042025Z 27005KT 10SM CLR 16/M01 A2998 570 33 800 280/05 RMK AO2
14840KMKG MKG20050404153009304/04/05 15:30:31  5-MIN KMKG 042030Z 25005KT 10SM CLR 16/M01 A2998 570 32 900 260/05 RMK AO2
14840KMKG MKG20050404153509304/04/05 15:35:31  5-MIN KMKG 042035Z 26006KT 10SM CLR 16/M01 A2998 570 32 900 260/06 RMK AO2
14840KMKG MKG20050404154009304/04/05 15:40:31  5-MIN KMKG 042040Z 25007KT 10SM CLR 17/00 A2998 570 32  900 250/07 RMK AO2
14840KMKG MKG20050404154509304/04/05 15:45:31  5-MIN KMKG 042045Z 25006KT 10SM CLR 17/M01 A2998 570 31 900 260/06 RMK AO2
14840KMKG MKG20050404155011604/04/05 15:50:31  5-MIN KMKG 042050Z 26006KT 10SM CLR 17/00 A2998 580 32  900 260/06 RMK AO2 SLP156 T01670000 58013
14840KMKG MKG20050404155511604/04/05 15:55:31  5-MIN KMKG 042055Z 25005KT 10SM CLR 17/00 A2998 580 32  900 250/05 RMK AO2 SLP155 T01670000 56014
14840KMKG MKG20050404160009304/04/05 16:00:31  5-MIN KMKG 042100Z 25005KT 10SM CLR 16/M01 A2998 580 32 900 260/05 RMK AO2
14840KMKG MKG20050404160509304/04/05 16:05:31  5-MIN KMKG 042105Z 25005KT 10SM CLR 16/00 A2997 580 33  900 250/05 RMK AO2
14840KMKG MKG20050404161009304/04/05 16:10:31  5-MIN KMKG 042110Z 24004KT 10SM CLR 16/M01 A2997 580 32 900 240/04 RMK AO2
14840KMKG MKG20050404161509404/04/05 16:15:31  5-MIN KMKG 042115Z 24005KT 10SM CLR 17/00 A2997 590 32  1000 250/05 RMK AO2
14840KMKG MKG20050404162009404/04/05 16:20:31  5-MIN KMKG 042120Z 22003KT 10SM CLR 17/M01 A2997 590 31 1000 230/03 RMK AO2
14840KMKG MKG20050404162509404/04/05 16:25:31  5-MIN KMKG 042125Z 24003KT 10SM CLR 17/M01 A2996 590 29 1000 240/03 RMK AO2
14840KMKG MKG20050404163009404/04/05 16:30:31  5-MIN KMKG 042130Z 23004KT 10SM CLR 17/M01 A2996 590 29 1000 240/04 RMK AO2
14840KMKG MKG20050404163509404/04/05 16:35:31  5-MIN KMKG 042135Z 00000KT 10SM CLR 17/M01 A2996 590 31 1000 000/00 RMK AO2
14840KMKG MKG20050404164009404/04/05 16:40:31  5-MIN KMKG 042140Z 22005KT 10SM CLR 17/M01 A2996 590 31 1000 220/05 RMK AO2
14840KMKG MKG20050404164509404/04/05 16:45:31  5-MIN KMKG 042145Z 24004KT 10SM CLR 17/00 A2996 600 31  1000 240/04 RMK AO2
14840KMKG MKG20050404165011104/04/05 16:50:31  5-MIN KMKG 042150Z 21006KT 10SM CLR 18/M01 A2996 600 28 1100 210/06 RMK AO2 SLP148 T01781006
14840KMKG MKG20050404165511104/04/05 16:55:31  5-MIN KMKG 042155Z 19005KT 10SM CLR 18/M01 A2995 600 28 1100 190/05 RMK AO2 SLP147 T01781006
14840KMKG MKG20050404170009404/04/05 17:00:31  5-MIN KMKG 042200Z 21004KT 10SM CLR 18/M01 A2995 600 27 1100 220/04 RMK AO2
14840KMKG MKG20050404170509404/04/05 17:05:31  5-MIN KMKG 042205Z 19007KT 10SM CLR 18/M01 A2995 600 28 1100 200/07 RMK AO2
14840KMKG MKG20050404171009404/04/05 17:10:31  5-MIN KMKG 042210Z 20005KT 10SM CLR 18/M01 A2995 600 28 1100 200/05 RMK AO2
14840KMKG MKG20050404171509404/04/05 17:15:31  5-MIN KMKG 042215Z VRB03KT 10SM CLR 18/M01 A2995 600 28 1100 VRB/03 RMK AO2
14840KMKG MKG20050404172009404/04/05 17:20:31  5-MIN KMKG 042220Z 19005KT 10SM CLR 18/M01 A2995 600 27 1200 190/05 RMK AO2
14840KMKG MKG20050404172509404/04/05 17:25:31  5-MIN KMKG 042225Z 13004KT 10SM CLR 18/M01 A2995 600 27 1200 130/04 RMK AO2
14840KMKG MKG20050404173009404/04/05 17:30:31  5-MIN KMKG 042230Z 17005KT 10SM CLR 18/M01 A2995 600 27 1200 170/05 RMK AO2
14840KMKG MKG20050404173509404/04/05 17:35:31  5-MIN KMKG 042235Z 19004KT 10SM CLR 18/00 A2995 610 30  1100 190/04 RMK AO2
14840KMKG MKG20050404174009404/04/05 17:40:31  5-MIN KMKG 042240Z 21004KT 10SM CLR 17/M01 A2995 600 29 1000 220/04 RMK AO2
14840KMKG MKG20050404174509404/04/05 17:45:31  5-MIN KMKG 042245Z 19003KT 10SM CLR 18/M01 A2995 600 28 1100 190/03 RMK AO2
14840KMKG MKG20050404175011104/04/05 17:50:31  5-MIN KMKG 042250Z 00000KT 10SM CLR 18/M01 A2995 610 27 1100 000/00 RMK AO2 SLP144 T01781011
14840KMKG MKG20050404175511104/04/05 17:55:31  5-MIN KMKG 042255Z 00000KT 10SM CLR 17/M01 A2995 610 28 1000 000/00 RMK AO2 SLP144 T01721011
14840KMKG MKG20050404180009404/04/05 18:00:31  5-MIN KMKG 042300Z VRB05KT 10SM CLR 18/M01 A2994 610 28 1100 VRB/05 RMK AO2
14840KMKG MKG20050404180509404/04/05 18:05:31  5-MIN KMKG 042305Z 10008KT 10SM CLR 18/00 A2994 610 30  1100 110/08 RMK AO2
14840KMKG MKG20050404181009404/04/05 18:10:31  5-MIN KMKG 042310Z 10006KT 10SM CLR 17/01 A2994 610 32  1100 100/06 RMK AO2
14840KMKG MKG20050404181509404/04/05 18:15:31  5-MIN KMKG 042315Z 10008KT 10SM CLR 17/01 A2994 610 32  1100 100/08 RMK AO2
14840KMKG MKG20050404182009404/04/05 18:20:31  5-MIN KMKG 042320Z 09008KT 10SM CLR 17/00 A2994 610 31  1100 090/08 RMK AO2
14840KMKG MKG20050404182509404/04/05 18:25:31  5-MIN KMKG 042325Z 08006KT 10SM CLR 17/01 A2994 610 33  1000 090/06 RMK AO2
14840KMKG MKG20050404183009304/04/05 18:30:31  5-MIN KMKG 042330Z 09008KT 10SM CLR 16/01 A2994 610 34  900 090/08 RMK AO2
14840KMKG MKG20050404183509304/04/05 18:35:31  5-MIN KMKG 042335Z 09007KT 10SM CLR 16/01 A2994 610 34  900 100/07 RMK AO2
14840KMKG MKG20050404184009304/04/05 18:40:31  5-MIN KMKG 042340Z 08006KT 10SM CLR 16/01 A2994 610 34  900 090/06 RMK AO2
14840KMKG MKG20050404184509304/04/05 18:45:31  5-MIN KMKG 042345Z 09006KT 10SM CLR 16/01 A2994 610 36  900 090/06 RMK AO2
14840KMKG MKG20050404185012804/04/05 18:50:31  5-MIN KMKG 042350Z 09006KT 10SM CLR 16/01 A2994 610 36  900 090/06 RMK AO2 SLP141 T01560006 10183 20150 56014
14840KMKG MKG20050404185512804/04/05 18:55:31  5-MIN KMKG 042355Z 09006KT 10SM CLR 16/01 A2994 610 36  900 090/06 RMK AO2 SLP141 T01560006 10183 20150 56013
14840KMKG MKG20050404190009304/04/05 19:00:31  5-MIN KMKG 050000Z 09005KT 10SM CLR 16/01 A2994 610 36  900 090/05 RMK AO2
14840KMKG MKG20050404190509304/04/05 19:05:31  5-MIN KMKG 050005Z 09006KT 10SM CLR 16/00 A2994 620 34  900 090/06 RMK AO2
14840KMKG MKG20050404191009304/04/05 19:10:31  5-MIN KMKG 050010Z 09005KT 10SM CLR 15/01 A2993 620 37  800 090/05 RMK AO2
14840KMKG MKG20050404191509304/04/05 19:15:31  5-MIN KMKG 050015Z 08005KT 10SM CLR 14/01 A2994 620 38  700 090/05 RMK AO2
14840KMKG MKG20050404192009304/04/05 19:20:31  5-MIN KMKG 050020Z 08005KT 10SM CLR 14/01 A2994 620 38  700 080/05 RMK AO2
14840KMKG MKG20050404192509304/04/05 19:25:31  5-MIN KMKG 050025Z 07005KT 10SM CLR 14/01 A2994 620 40  700 080/05 RMK AO2
14840KMKG MKG20050404193009304/04/05 19:30:31  5-MIN KMKG 050030Z 08005KT 10SM CLR 14/01 A2993 620 40  700 080/05 RMK AO2
14840KMKG MKG20050404193509304/04/05 19:35:31  5-MIN KMKG 050035Z 09005KT 10SM CLR 13/01 A2993 620 41  600 090/05 RMK AO2
14840KMKG MKG20050404194009304/04/05 19:40:31  5-MIN KMKG 050040Z 09004KT 10SM CLR 14/01 A2994 620 40  700 090/04 RMK AO2
14840KMKG MKG20050404194509304/04/05 19:45:31  5-MIN KMKG 050045Z 09004KT 10SM CLR 13/01 A2993 620 43  500 090/04 RMK AO2
14840KMKG MKG20050404195011004/04/05 19:50:31  5-MIN KMKG 050050Z 09004KT 10SM CLR 13/01 A2993 620 43  500 100/04 RMK AO2 SLP139 T01280006
14840KMKG MKG20050404195511004/04/05 19:55:31  5-MIN KMKG 050055Z 10004KT 10SM CLR 13/01 A2993 620 41  600 100/04 RMK AO2 SLP138 T01330006
14840KMKG MKG20050404200009304/04/05 20:00:31  5-MIN KMKG 050100Z 10003KT 10SM CLR 13/01 A2993 620 41  600 100/03 RMK AO2
14840KMKG MKG20050404200509304/04/05 20:05:31  5-MIN KMKG 050105Z 09004KT 10SM CLR 13/01 A2993 620 41  600 100/04 RMK AO2
14840KMKG MKG20050404201009304/04/05 20:10:31  5-MIN KMKG 050110Z 10004KT 10SM CLR 13/01 A2993 620 43  500 100/04 RMK AO2
14840KMKG MKG20050404201509304/04/05 20:15:31  5-MIN KMKG 050115Z 10004KT 10SM CLR 13/01 A2993 620 43  500 100/04 RMK AO2
14840KMKG MKG20050404202009304/04/05 20:20:31  5-MIN KMKG 050120Z 10005KT 10SM CLR 13/01 A2993 620 43  500 100/05 RMK AO2
14840KMKG MKG20050404202509304/04/05 20:25:31  5-MIN KMKG 050125Z 10005KT 10SM CLR 13/01 A2993 620 44  500 110/05 RMK AO2
14840KMKG MKG20050404203009304/04/05 20:30:31  5-MIN KMKG 050130Z 10005KT 10SM CLR 12/01 A2993 620 46  500 100/05 RMK AO2
14840KMKG MKG20050404203509304/04/05 20:35:31  5-MIN KMKG 050135Z 09005KT 10SM CLR 12/01 A2993 620 48  400 100/05 RMK AO2
14840KMKG MKG20050404204009304/04/05 20:40:31  5-MIN KMKG 050140Z 09006KT 10SM CLR 12/01 A2993 620 46  500 100/06 RMK AO2
14840KMKG MKG20050404204509304/04/05 20:45:31  5-MIN KMKG 050145Z 10006KT 10SM CLR 13/01 A2993 620 43  500 100/06 RMK AO2
14840KMKG MKG20050404205011004/04/05 20:50:31  5-MIN KMKG 050150Z 10007KT 10SM CLR 13/01 A2993 620 41  600 110/07 RMK AO2 SLP139 T01330006
14840KMKG MKG20050404205511004/04/05 20:55:31  5-MIN KMKG 050155Z 11007KT 10SM CLR 13/01 A2993 620 43  500 110/07 RMK AO2 SLP138 T01280006
14840KMKG MKG20050404210009304/04/05 21:00:31  5-MIN KMKG 050200Z 11006KT 10SM CLR 13/01 A2993 620 43  500 110/06 RMK AO2
14840KMKG MKG20050404210509304/04/05 21:05:31  5-MIN KMKG 050205Z 11007KT 10SM CLR 12/01 A2993 620 44  500 110/07 RMK AO2
14840KMKG MKG20050404211009304/04/05 21:10:31  5-MIN KMKG 050210Z 11006KT 10SM CLR 12/01 A2993 620 44  500 110/06 RMK AO2
14840KMKG MKG20050404211509304/04/05 21:15:31  5-MIN KMKG 050215Z 11007KT 10SM CLR 12/00 A2993 620 44  400 110/07 RMK AO2
14840KMKG MKG20050404212009304/04/05 21:20:31  5-MIN KMKG 050220Z 11006KT 10SM CLR 12/00 A2993 620 44  400 110/06 RMK AO2
14840KMKG MKG20050404212509304/04/05 21:25:31  5-MIN KMKG 050225Z 11007KT 10SM CLR 12/00 A2993 620 44  400 110/07 RMK AO2
14840KMKG MKG20050404213009304/04/05 21:30:31  5-MIN KMKG 050230Z 11007KT 10SM CLR 12/00 A2993 620 44  400 110/07 RMK AO2
14840KMKG MKG20050404213509304/04/05 21:35:31  5-MIN KMKG 050235Z 11007KT 10SM CLR 12/00 A2993 620 44  400 110/07 RMK AO2
14840KMKG MKG20050404214009304/04/05 21:40:31  5-MIN KMKG 050240Z 11006KT 10SM CLR 12/00 A2994 620 44  400 110/06 RMK AO2
14840KMKG MKG20050404214509304/04/05 21:45:31  5-MIN KMKG 050245Z 10007KT 10SM CLR 12/00 A2994 620 43  500 110/07 RMK AO2
14840KMKG MKG20050404215011604/04/05 21:50:31  5-MIN KMKG 050250Z 11007KT 10SM CLR 12/00 A2994 620 43  500 110/07 RMK AO2 SLP139 T01220000 56013
14840KMKG MKG20050404215511604/04/05 21:55:31  5-MIN KMKG 050255Z 10007KT 10SM CLR 12/00 A2994 620 44  400 110/07 RMK AO2 SLP138 T01170000 55001
14840KMKG MKG20050404220009304/04/05 22:00:31  5-MIN KMKG 050300Z 10007KT 10SM CLR 12/00 A2993 620 43  500 110/07 RMK AO2
14840KMKG MKG20050404220509304/04/05 22:05:31  5-MIN KMKG 050305Z 10008KT 10SM CLR 12/00 A2993 620 43  500 110/08 RMK AO2
14840KMKG MKG20050404221009304/04/05 22:10:31  5-MIN KMKG 050310Z 10008KT 10SM CLR 12/00 A2993 620 43  500 110/08 RMK AO2
14840KMKG MKG20050404221509304/04/05 22:15:31  5-MIN KMKG 050315Z 11008KT 10SM CLR 12/01 A2993 620 44  500 110/08 RMK AO2
14840KMKG MKG20050404222009304/04/05 22:20:31  5-MIN KMKG 050320Z 11009KT 10SM CLR 12/01 A2993 620 44  500 110/09 RMK AO2
14840KMKG MKG20050404222509304/04/05 22:25:31  5-MIN KMKG 050325Z 10009KT 10SM CLR 12/01 A2993 620 44  500 110/09 RMK AO2
14840KMKG MKG20050404223009304/04/05 22:30:31  5-MIN KMKG 050330Z 11009KT 10SM CLR 12/01 A2993 620 44  500 110/09 RMK AO2
14840KMKG MKG20050404223509304/04/05 22:35:31  5-MIN KMKG 050335Z 11008KT 10SM CLR 12/01 A2993 620 44  500 110/08 RMK AO2
14840KMKG MKG20050404224009304/04/05 22:40:31  5-MIN KMKG 050340Z 11008KT 10SM CLR 12/01 A2993 620 44  500 110/08 RMK AO2
14840KMKG MKG20050404224509304/04/05 22:45:31  5-MIN KMKG 050345Z 11009KT 10SM CLR 12/01 A2993 620 44  500 110/09 RMK AO2
14840KMKG MKG20050404225011004/04/05 22:50:31  5-MIN KMKG 050350Z 11009KT 10SM CLR 12/01 A2992 630 44  500 110/09 RMK AO2 SLP135 T01220006
14840KMKG MKG20050404225511004/04/05 22:55:31  5-MIN KMKG 050355Z 11008KT 10SM CLR 12/01 A2992 630 44  500 110/08 RMK AO2 SLP134 T01220006
14840KMKG MKG20050404230009304/04/05 23:00:31  5-MIN KMKG 050400Z 11009KT 10SM CLR 12/01 A2992 630 44  500 110/09 RMK AO2
14840KMKG MKG20050404230509304/04/05 23:05:31  5-MIN KMKG 050405Z 11009KT 10SM CLR 12/01 A2992 630 44  500 110/09 RMK AO2
14840KMKG MKG20050404231009304/04/05 23:10:31  5-MIN KMKG 050410Z 11009KT 10SM CLR 12/01 A2992 630 44  500 110/09 RMK AO2
14840KMKG MKG20050404231509304/04/05 23:15:31  5-MIN KMKG 050415Z 11010KT 10SM CLR 12/01 A2992 630 44  500 110/10 RMK AO2
14840KMKG MKG20050404232009304/04/05 23:20:31  5-MIN KMKG 050420Z 12010KT 10SM CLR 12/01 A2992 630 44  500 120/10 RMK AO2
14840KMKG MKG20050404232509304/04/05 23:25:31  5-MIN KMKG 050425Z 11009KT 10SM CLR 12/01 A2992 630 46  400 120/09 RMK AO2
14840KMKG MKG20050404233009304/04/05 23:30:31  5-MIN KMKG 050430Z 11010KT 10SM CLR 12/01 A2992 630 46  400 110/10 RMK AO2
14840KMKG MKG20050404233509304/04/05 23:35:31  5-MIN KMKG 050435Z 11010KT 10SM CLR 12/01 A2992 630 44  500 110/10 RMK AO2
14840KMKG MKG20050404234009304/04/05 23:40:31  5-MIN KMKG 050440Z 11010KT 10SM CLR 12/01 A2992 630 44  500 110/10 RMK AO2
14840KMKG MKG20050404234509304/04/05 23:45:31  5-MIN KMKG 050445Z 11010KT 10SM CLR 12/01 A2992 630 46  400 110/10 RMK AO2
14840KMKG MKG20050404235012004/04/05 23:50:31  5-MIN KMKG 050450Z 11010KT 10SM CLR 12/01 A2992 630 44  500 110/10 RMK AO2 SLP131 T01220006 401831022
14840KMKG MKG20050404235512004/04/05 23:55:31  5-MIN KMKG 050455Z 11010KT 10SM CLR 12/01 A2992 630 46  400 110/10 RMK AO2 SLP132 T01170006 401831022
14840KMKG MKG20050405000009304/05/05 00:00:32  5-MIN KMKG 050500Z 11010KT 10SM CLR 12/01 A2992 630 46  400 120/10 RMK AO2
14840KMKG MKG20050405000509304/05/05 00:05:31  5-MIN KMKG 050505Z 11010KT 10SM CLR 12/01 A2991 640 46  400 110/10 RMK AO2
14840KMKG MKG20050405001009304/05/05 00:10:31  5-MIN KMKG 050510Z 11009KT 10SM CLR 12/01 A2991 640 46  400 110/09 RMK AO2
14840KMKG MKG20050405001509304/05/05 00:15:31  5-MIN KMKG 050515Z 11010KT 10SM CLR 12/01 A2991 640 46  400 110/10 RMK AO2
14840KMKG MKG20050405002009304/05/05 00:20:31  5-MIN KMKG 050520Z 11010KT 10SM CLR 12/01 A2991 640 46  400 110/10 RMK AO2
14840KMKG MKG20050405002509304/05/05 00:25:31  5-MIN KMKG 050525Z 11010KT 10SM CLR 12/01 A2992 640 46  400 110/10 RMK AO2
14840KMKG MKG20050405003009304/05/05 00:30:31  5-MIN KMKG 050530Z 11010KT 10SM CLR 12/01 A2992 630 46  400 120/10 RMK AO2
14840KMKG MKG20050405003509304/05/05 00:35:31  5-MIN KMKG 050535Z 11009KT 10SM CLR 12/01 A2992 640 46  400 110/09 RMK AO2
14840KMKG MKG20050405004009304/05/05 00:40:31  5-MIN KMKG 050540Z 11010KT 10SM CLR 11/01 A2991 640 48  400 120/10 RMK AO2
14840KMKG MKG20050405004509304/05/05 00:45:31  5-MIN KMKG 050545Z 11010KT 10SM CLR 11/01 A2991 640 48  400 110/10 RMK AO2
14840KMKG MKG20050405005012804/05/05 00:50:31  5-MIN KMKG 050550Z 11009KT 10SM CLR 11/01 A2991 640 48  400 110/09 RMK AO2 SLP129 T01110006 10156 20111 55001
14840KMKG MKG20050405005512804/05/05 00:55:31  5-MIN KMKG 050555Z 11009KT 10SM CLR 11/01 A2991 640 48  400 110/09 RMK AO2 SLP129 T01110006 10156 20111 56008
14840KMKG MKG20050405010009304/05/05 01:00:31  5-MIN KMKG 050600Z 11009KT 10SM CLR 11/01 A2991 640 48  400 120/09 RMK AO2
14840KMKG MKG20050405010509304/05/05 01:05:31  5-MIN KMKG 050605Z 11010KT 10SM CLR 11/01 A2991 640 48  400 120/10 RMK AO2
14840KMKG MKG20050405011009304/05/05 01:10:31  5-MIN KMKG 050610Z 11010KT 10SM CLR 11/01 A2991 640 48  400 110/10 RMK AO2
14840KMKG MKG20050405011509304/05/05 01:15:31  5-MIN KMKG 050615Z 12009KT 10SM CLR 11/01 A2991 640 48  400 120/09 RMK AO2
14840KMKG MKG20050405012009304/05/05 01:20:31  5-MIN KMKG 050620Z 11010KT 10SM CLR 11/01 A2991 640 48  400 120/10 RMK AO2
14840KMKG MKG20050405012509304/05/05 01:25:31  5-MIN KMKG 050625Z 11009KT 10SM CLR 11/01 A2990 650 48  400 120/09 RMK AO2
14840KMKG MKG20050405013009304/05/05 01:30:31  5-MIN KMKG 050630Z 12009KT 10SM CLR 11/01 A2990 650 48  400 130/09 RMK AO2
14840KMKG MKG20050405013509304/05/05 01:35:31  5-MIN KMKG 050635Z 11010KT 10SM CLR 11/01 A2990 650 48  400 120/10 RMK AO2
14840KMKG MKG20050405014009304/05/05 01:40:31  5-MIN KMKG 050640Z 12009KT 10SM CLR 11/01 A2991 640 48  400 120/09 RMK AO2
14840KMKG MKG20050405014509304/05/05 01:45:31  5-MIN KMKG 050645Z 12009KT 10SM CLR 11/01 A2991 640 48  400 130/09 RMK AO2
14840KMKG MKG20050405015011004/05/05 01:50:31  5-MIN KMKG 050650Z 13010KT 10SM CLR 11/01 A2990 640 48  400 130/10 RMK AO2 SLP127 T01110006
14840KMKG MKG20050405015511004/05/05 01:55:31  5-MIN KMKG 050655Z 13010KT 10SM CLR 12/01 A2990 650 46  400 130/10 RMK AO2 SLP126 T01170006
14840KMKG MKG20050405020009304/05/05 02:00:31  5-MIN KMKG 050700Z 12011KT 10SM CLR 12/01 A2990 650 46  400 130/11 RMK AO2
14840KMKG MKG20050405020509304/05/05 02:05:31  5-MIN KMKG 050705Z 14010KT 10SM CLR 12/01 A2990 650 46  400 140/10 RMK AO2
14840KMKG MKG20050405021009304/05/05 02:10:31  5-MIN KMKG 050710Z 13012KT 10SM CLR 13/01 A2990 650 43  600 130/12 RMK AO2
14840KMKG MKG20050405021509304/05/05 02:15:31  5-MIN KMKG 050715Z 14012KT 10SM CLR 13/01 A2990 650 43  600 150/12 RMK AO2
14840KMKG MKG20050405022009904/05/05 02:20:31  5-MIN KMKG 050720Z 14011G18KT 10SM CLR 13/01 A2990 650  43 600 140/11G18 RMK AO2
14840KMKG MKG20050405022509904/05/05 02:25:31  5-MIN KMKG 050725Z 15010G18KT 10SM CLR 13/01 A2990 650  41 600 150/10G18 RMK AO2
14840KMKG MKG20050405023009304/05/05 02:30:31  5-MIN KMKG 050730Z 14011KT 10SM CLR 13/01 A2990 650 43  600 140/11 RMK AO2
14840KMKG MKG20050405023509304/05/05 02:35:31  5-MIN KMKG 050735Z 14008KT 10SM CLR 13/01 A2990 650 43  600 150/08 RMK AO2
14840KMKG MKG20050405024009304/05/05 02:40:31  5-MIN KMKG 050740Z 14012KT 10SM CLR 13/01 A2990 650 43  600 140/12 RMK AO2
14840KMKG MKG20050405024509304/05/05 02:45:31  5-MIN KMKG 050745Z 14011KT 10SM CLR 13/01 A2990 650 43  600 150/11 RMK AO2
14840KMKG MKG20050405025011004/05/05 02:50:31  5-MIN KMKG 050750Z 14010KT 10SM CLR 13/01 A2990 650 43  600 150/10 RMK AO2 SLP125 T01280006
14840KMKG MKG20050405025511004/05/05 02:55:31  5-MIN KMKG 050755Z 14011KT 10SM CLR 13/01 A2990 650 43  600 140/11 RMK AO2 SLP125 T01280006
14840KMKG MKG20050405030009304/05/05 03:00:31  5-MIN KMKG 050800Z 15011KT 10SM CLR 13/01 A2989 650 44  600 150/11 RMK AO2
14840KMKG MKG20050405030509304/05/05 03:05:31  5-MIN KMKG 050805Z 14008KT 10SM CLR 13/01 A2990 650 44  600 150/08 RMK AO2
14840KMKG MKG20050405031009304/05/05 03:10:31  5-MIN KMKG 050810Z 14010KT 10SM CLR 13/01 A2989 650 44  600 150/10 RMK AO2
14840KMKG MKG20050405031509304/05/05 03:15:31  5-MIN KMKG 050815Z 15009KT 10SM CLR 13/01 A2989 660 44  600 150/09 RMK AO2
14840KMKG MKG20050405032009304/05/05 03:20:31  5-MIN KMKG 050820Z 14010KT 10SM CLR 12/01 A2989 660 46  500 150/10 RMK AO2
14840KMKG MKG20050405032509304/05/05 03:25:31  5-MIN KMKG 050825Z 15010KT 10SM CLR 12/01 A2989 660 46  500 150/10 RMK AO2
14840KMKG MKG20050405033009304/05/05 03:30:31  5-MIN KMKG 050830Z 14010KT 10SM CLR 12/01 A2989 660 46  500 150/10 RMK AO2
14840KMKG MKG20050405033509304/05/05 03:35:31  5-MIN KMKG 050835Z 14010KT 10SM CLR 12/01 A2989 660 46  500 150/10 RMK AO2
14840KMKG MKG20050405034009304/05/05 03:40:31  5-MIN KMKG 050840Z 14010KT 10SM CLR 12/01 A2989 660 46  500 140/10 RMK AO2
14840KMKG MKG20050405034509304/05/05 03:45:31  5-MIN KMKG 050845Z 14010KT 10SM CLR 12/01 A2989 660 46  500 140/10 RMK AO2
14840KMKG MKG20050405035011604/05/05 03:50:31  5-MIN KMKG 050850Z 14009KT 10SM CLR 12/01 A2989 660 48  500 140/09 RMK AO2 SLP122 T01170011 56008
14840KMKG MKG20050405035511604/05/05 03:55:31  5-MIN KMKG 050855Z 14009KT 10SM CLR 12/01 A2989 660 48  500 150/09 RMK AO2 SLP122 T01170011 58006
14840KMKG MKG20050405040009304/05/05 04:00:31  5-MIN KMKG 050900Z 14010KT 10SM CLR 12/01 A2989 660 46  500 140/10 RMK AO2
14840KMKG MKG20050405040509304/05/05 04:05:31  5-MIN KMKG 050905Z 13010KT 10SM CLR 12/01 A2989 660 48  500 140/10 RMK AO2
14840KMKG MKG20050405041009304/05/05 04:10:31  5-MIN KMKG 050910Z 13011KT 10SM CLR 12/02 A2989 660 50  500 140/11 RMK AO2
14840KMKG MKG20050405041509304/05/05 04:15:31  5-MIN KMKG 050915Z 15008KT 10SM CLR 12/02 A2989 660 50  500 150/08 RMK AO2
14840KMKG MKG20050405042009304/05/05 04:20:31  5-MIN KMKG 050920Z 14009KT 10SM CLR 12/02 A2989 660 50  500 140/09 RMK AO2
14840KMKG MKG20050405042509304/05/05 04:25:31  5-MIN KMKG 050925Z 14010KT 10SM CLR 12/02 A2989 660 50  500 140/10 RMK AO2
14840KMKG MKG20050405043009304/05/05 04:30:31  5-MIN KMKG 050930Z 14010KT 10SM CLR 11/02 A2989 660 52  400 140/10 RMK AO2
14840KMKG MKG20050405043509304/05/05 04:35:31  5-MIN KMKG 050935Z 14009KT 10SM CLR 11/02 A2989 660 52  400 140/09 RMK AO2
14840KMKG MKG20050405044009304/05/05 04:40:31  5-MIN KMKG 050940Z 14009KT 10SM CLR 11/02 A2989 660 52  400 140/09 RMK AO2
14840KMKG MKG20050405044509304/05/05 04:45:31  5-MIN KMKG 050945Z 14009KT 10SM CLR 11/02 A2989 660 52  400 140/09 RMK AO2
14840KMKG MKG20050405045011004/05/05 04:50:31  5-MIN KMKG 050950Z 13009KT 10SM CLR 11/02 A2989 660 54  300 140/09 RMK AO2 SLP120 T01060017
14840KMKG MKG20050405045511004/05/05 04:55:31  5-MIN KMKG 050955Z 13009KT 10SM CLR 11/02 A2988 660 54  300 130/09 RMK AO2 SLP120 T01060017
14840KMKG MKG20050405050009304/05/05 05:00:31  5-MIN KMKG 051000Z 14009KT 10SM CLR 10/02 A2989 660 56  300 140/09 RMK AO2
14840KMKG MKG20050405050509304/05/05 05:05:31  5-MIN KMKG 051005Z 14009KT 10SM CLR 11/02 A2989 660 54  300 140/09 RMK AO2
14840KMKG MKG20050405051009304/05/05 05:10:31  5-MIN KMKG 051010Z 14009KT 10SM CLR 11/02 A2988 660 56  300 140/09 RMK AO2
14840KMKG MKG20050405051509304/05/05 05:15:31  5-MIN KMKG 051015Z 14009KT 10SM CLR 11/02 A2988 670 56  300 140/09 RMK AO2
14840KMKG MKG20050405052009304/05/05 05:20:31  5-MIN KMKG 051020Z 14010KT 10SM CLR 11/02 A2988 660 56  300 140/10 RMK AO2
14840KMKG MKG20050405052509304/05/05 05:25:31  5-MIN KMKG 051025Z 13010KT 10SM CLR 11/02 A2988 670 54  400 140/10 RMK AO2
14840KMKG MKG20050405053009304/05/05 05:30:31  5-MIN KMKG 051030Z 14009KT 10SM CLR 11/02 A2988 660 54  400 150/09 RMK AO2
14840KMKG MKG20050405053509304/05/05 05:35:31  5-MIN KMKG 051035Z 14009KT 10SM CLR 11/02 A2988 670 54  400 140/09 RMK AO2
14840KMKG MKG20050405054009304/05/05 05:40:31  5-MIN KMKG 051040Z 14009KT 10SM CLR 11/02 A2988 670 56  300 140/09 RMK AO2
14840KMKG MKG20050405054509304/05/05 05:45:31  5-MIN KMKG 051045Z 14009KT 10SM CLR 11/02 A2988 670 56  300 140/09 RMK AO2
14840KMKG MKG20050405055011004/05/05 05:50:31  5-MIN KMKG 051050Z 14009KT 10SM CLR 11/02 A2988 660 54  400 140/09 RMK AO2 SLP120 T01110022
14840KMKG MKG20050405055511004/05/05 05:55:31  5-MIN KMKG 051055Z 14011KT 10SM CLR 11/02 A2988 660 56  300 150/11 RMK AO2 SLP120 T01060022
14840KMKG MKG20050405060009304/05/05 06:00:31  5-MIN KMKG 051100Z 14009KT 10SM CLR 11/02 A2988 670 54  400 140/09 RMK AO2
14840KMKG MKG20050405060509304/05/05 06:05:31  5-MIN KMKG 051105Z 14009KT 10SM CLR 11/02 A2988 670 54  400 150/09 RMK AO2
14840KMKG MKG20050405061009304/05/05 06:10:31  5-MIN KMKG 051110Z 14010KT 10SM CLR 11/02 A2988 670 54  400 150/10 RMK AO2
14840KMKG MKG20050405061509304/05/05 06:15:31  5-MIN KMKG 051115Z 14009KT 10SM CLR 11/02 A2988 660 54  400 150/09 RMK AO2
14840KMKG MKG20050405062009304/05/05 06:20:31  5-MIN KMKG 051120Z 15009KT 10SM CLR 11/02 A2988 660 54  400 150/09 RMK AO2
14840KMKG MKG20050405062509304/05/05 06:25:31  5-MIN KMKG 051125Z 14009KT 10SM CLR 11/03 A2989 660 58  300 140/09 RMK AO2
14840KMKG MKG20050405063009304/05/05 06:30:31  5-MIN KMKG 051130Z 14009KT 10SM CLR 11/03 A2989 660 58  300 150/09 RMK AO2
14840KMKG MKG20050405063509304/05/05 06:35:31  5-MIN KMKG 051135Z 14009KT 10SM CLR 11/03 A2989 660 58  300 140/09 RMK AO2
14840KMKG MKG20050405064009304/05/05 06:40:31  5-MIN KMKG 051140Z 14009KT 10SM CLR 11/03 A2989 660 56  400 150/09 RMK AO2
14840KMKG MKG20050405064509304/05/05 06:45:31  5-MIN KMKG 051145Z 14010KT 10SM CLR 11/03 A2989 660 56  400 150/10 RMK AO2
14840KMKG MKG20050405065012804/05/05 06:50:31  5-MIN KMKG 051150Z 14009KT 10SM CLR 11/03 A2989 660 56  400 150/09 RMK AO2 SLP121 T01110028 10133 20100 58006
14840KMKG MKG20050405065512804/05/05 06:55:31  5-MIN KMKG 051155Z 15009KT 10SM CLR 11/03 A2989 660 56  400 150/09 RMK AO2 SLP122 T01110028 10133 20100 55001
14840KMKG MKG20050405070009304/05/05 07:00:31  5-MIN KMKG 051200Z 15010KT 10SM CLR 12/03 A2989 660 54  500 160/10 RMK AO2
14840KMKG MKG20050405070509304/05/05 07:05:31  5-MIN KMKG 051205Z 15010KT 10SM CLR 12/03 A2989 660 56  500 150/10 RMK AO2
14840KMKG MKG20050405071009304/05/05 07:10:31  5-MIN KMKG 051210Z 15010KT 10SM CLR 12/03 A2989 660 56  500 150/10 RMK AO2
14840KMKG MKG20050405071509304/05/05 07:15:31  5-MIN KMKG 051215Z 15010KT 10SM CLR 12/03 A2989 660 56  500 150/10 RMK AO2
14840KMKG MKG20050405072009304/05/05 07:20:31  5-MIN KMKG 051220Z 15009KT 10SM CLR 12/03 A2989 660 54  500 160/09 RMK AO2
14840KMKG MKG20050405072509304/05/05 07:25:31  5-MIN KMKG 051225Z 16009KT 10SM CLR 12/03 A2989 660 54  500 160/09 RMK AO2
14840KMKG MKG20050405073009304/05/05 07:30:31  5-MIN KMKG 051230Z 16010KT 10SM CLR 12/04 A2989 660 56  500 160/10 RMK AO2
14840KMKG MKG20050405073509304/05/05 07:35:31  5-MIN KMKG 051235Z 15010KT 10SM CLR 12/04 A2989 660 56  500 160/10 RMK AO2
14840KMKG MKG20050405074009304/05/05 07:40:31  5-MIN KMKG 051240Z 15009KT 10SM CLR 12/04 A2989 660 56  500 160/09 RMK AO2
14840KMKG MKG20050405074509304/05/05 07:45:31  5-MIN KMKG 051245Z 16009KT 10SM CLR 13/04 A2989 660 54  600 160/09 RMK AO2
14840KMKG MKG20050405075011004/05/05 07:50:31  5-MIN KMKG 051250Z 16008KT 10SM CLR 13/04 A2989 660 54  600 170/08 RMK AO2 SLP123 T01280039
14840KMKG MKG20050405075511004/05/05 07:55:31  5-MIN KMKG 051255Z 16008KT 10SM CLR 13/04 A2989 660 54  700 160/08 RMK AO2 SLP122 T01330044
14840KMKG MKG20050405080009304/05/05 08:00:31  5-MIN KMKG 051300Z 16009KT 10SM CLR 13/04 A2989 660 54  700 160/09 RMK AO2
14840KMKG MKG20050405080509304/05/05 08:05:31  5-MIN KMKG 051305Z 16009KT 10SM CLR 14/04 A2989 660 52  700 160/09 RMK AO2
14840KMKG MKG20050405081009304/05/05 08:10:31  5-MIN KMKG 051310Z 17010KT 10SM CLR 14/05 A2989 660 55  700 170/10 RMK AO2
14840KMKG MKG20050405081509304/05/05 08:15:31  5-MIN KMKG 051315Z 16010KT 10SM CLR 14/05 A2989 660 53  800 170/10 RMK AO2
14840KMKG MKG20050405082009304/05/05 08:20:31  5-MIN KMKG 051320Z 17011KT 10SM CLR 15/06 A2989 660 53  800 170/11 RMK AO2
14840KMKG MKG20050405082509304/05/05 08:25:31  5-MIN KMKG 051325Z 17011KT 10SM CLR 15/06 A2989 660 55  800 170/11 RMK AO2
14840KMKG MKG20050405083009904/05/05 08:30:31  5-MIN KMKG 051330Z 18011G17KT 10SM CLR 16/06 A2989 660  53 900 180/11G17 RMK AO2
14840KMKG MKG20050405083509904/05/05 08:35:31  5-MIN KMKG 051335Z 18017G23KT 10SM CLR 16/06 A2989 660  53 900 190/17G23 RMK AO2
14840KMKG MKG20050405084010004/05/05 08:40:31  5-MIN KMKG 051340Z 18014G23KT 10SM CLR 16/07 A2989 660  53 1000 190/14G23 RMK AO2
14840KMKG MKG20050405084509304/05/05 08:45:31  5-MIN KMKG 051345Z 18018KT 10SM CLR 16/07 A2989 660 55  900 190/18 RMK AO2
14840KMKG MKG20050405085011704/05/05 08:50:31  5-MIN KMKG 051350Z 18017G20KT 10SM CLR 16/07 A2989 660  53 1000 180/17G20 RMK AO2 SLP121 T01610067
14840KMKG MKG20050405085511104/05/05 08:55:31  5-MIN KMKG 051355Z 18015KT 10SM CLR 16/07 A2989 660 53  1000 180/15 RMK AO2 SLP121 T01610067
14840KMKG MKG20050405090010004/05/05 09:00:31  5-MIN KMKG 051400Z 18017G21KT 10SM CLR 16/07 A2989 660  53 1000 190/17G21 RMK AO2
14840KMKG MKG20050405090510004/05/05 09:05:31  5-MIN KMKG 051405Z 19015G21KT 10SM CLR 16/07 A2989 660  53 1000 190/15G21 RMK AO2
14840KMKG MKG20050405091010004/05/05 09:10:31  5-MIN KMKG 051410Z 19017G23KT 10SM CLR 16/07 A2989 660  53 1000 190/17G23 RMK AO2
14840KMKG MKG20050405091510004/05/05 09:15:31  5-MIN KMKG 051415Z 19014G23KT 10SM CLR 16/07 A2989 660  53 1000 190/14G23 RMK AO2
14840KMKG MKG20050405092010004/05/05 09:20:31  5-MIN KMKG 051420Z 19017G23KT 10SM CLR 16/07 A2989 660  53 1000 190/17G23 RMK AO2
14840KMKG MKG20050405092510004/05/05 09:25:31  5-MIN KMKG 051425Z 19018G23KT 10SM CLR 17/07 A2990 650  53 1000 190/18G23 RMK AO2
14840KMKG MKG20050405093010004/05/05 09:30:31  5-MIN KMKG 051430Z 19015G21KT 10SM CLR 16/07 A2990 650  55 1000 190/15G21 RMK AO2
14840KMKG MKG20050405093510004/05/05 09:35:31  5-MIN KMKG 051435Z 18018G25KT 10SM CLR 16/07 A2989 650  55 1000 190/18G25 RMK AO2
14840KMKG MKG20050405094010004/05/05 09:40:31  5-MIN KMKG 051440Z 19018G25KT 10SM CLR 16/07 A2990 650  55 1000 190/18G25 RMK AO2
14840KMKG MKG20050405094510004/05/05 09:45:31  5-MIN KMKG 051445Z 19016G24KT 10SM CLR 16/07 A2990 650  55 1000 190/16G24 RMK AO2
14840KMKG MKG20050405095012304/05/05 09:50:31  5-MIN KMKG 051450Z 19017G22KT 10SM CLR 16/07 A2990 650  55 1000 190/17G22 RMK AO2 SLP124 T01610072 55001
14840KMKG MKG20050405095512304/05/05 09:55:31  5-MIN KMKG 051455Z 19020G24KT 10SM CLR 16/07 A2990 650  55 1000 190/20G24 RMK AO2 SLP124 T01610072 53002
14840KMKG MKG20050405100010004/05/05 10:00:31  5-MIN KMKG 051500Z 19018G24KT 10SM CLR 16/07 A2989 650  55 1000 200/18G24 RMK AO2
14840KMKG MKG20050405100510004/05/05 10:05:31  5-MIN KMKG 051505Z 19016G22KT 10SM CLR 16/07 A2990 650  55 1000 190/16G22 RMK AO2
14840KMKG MKG20050405101010004/05/05 10:10:31  5-MIN KMKG 051510Z 19017G25KT 10SM CLR 16/07 A2990 650  55 1000 190/17G25 RMK AO2
14840KMKG MKG20050405101510004/05/05 10:15:31  5-MIN KMKG 051515Z 19018G25KT 10SM CLR 17/07 A2990 650  53 1000 190/18G25 RMK AO2
14840KMKG MKG20050405102009404/05/05 10:20:31  5-MIN KMKG 051520Z 19016KT 10SM CLR 17/08 A2990 650 53  1100 190/16 RMK AO2
14840KMKG MKG20050405102510004/05/05 10:25:31  5-MIN KMKG 051525Z 19017G21KT 10SM CLR 17/08 A2990 650  55 1000 190/17G21 RMK AO2
14840KMKG MKG20050405103010004/05/05 10:30:31  5-MIN KMKG 051530Z 19018G22KT 10SM CLR 17/08 A2990 650  53 1100 200/18G22 RMK AO2
14840KMKG MKG20050405103510004/05/05 10:35:31  5-MIN KMKG 051535Z 19016G25KT 10SM CLR 17/08 A2990 650  53 1100 200/16G25 RMK AO2
14840KMKG MKG20050405104010004/05/05 10:40:31  5-MIN KMKG 051540Z 19020G25KT 10SM CLR 17/08 A2990 650  53 1100 200/20G25 RMK AO2
14840KMKG MKG20050405104510004/05/05 10:45:31  5-MIN KMKG 051545Z 20016G25KT 10SM CLR 17/08 A2990 650  55 1000 200/16G25 RMK AO2
14840KMKG MKG20050405105013504/05/05 10:50:31  5-MIN KMKG 051550Z 19017G29KT 10SM CLR 17/08 A2990 650  53 1100 200/17G29 RMK AO2 PK WND 20029/1547 SLP125 T01720078
14840KMKG MKG20050405105513504/05/05 10:55:31  5-MIN KMKG 051555Z 19016G29KT 10SM CLR 17/08 A2990 650  53 1100 200/16G29 RMK AO2 PK WND 20029/1547 SLP125 T01720078
14840KMKG MKG20050405110010004/05/05 11:00:31  5-MIN KMKG 051600Z 19017G25KT 10SM CLR 17/08 A2990 650  53 1100 200/17G25 RMK AO2
14840KMKG MKG20050405110510004/05/05 11:05:31  5-MIN KMKG 051605Z 19013G25KT 10SM CLR 18/08 A2990 650  51 1200 200/13G25 RMK AO2
14840KMKG MKG20050405111010004/05/05 11:10:31  5-MIN KMKG 051610Z 19018G24KT 10SM CLR 18/08 A2990 650  51 1200 200/18G24 RMK AO2
14840KMKG MKG20050405111510004/05/05 11:15:31  5-MIN KMKG 051615Z 19014G24KT 10SM CLR 17/08 A2990 650  53 1100 200/14G24 RMK AO2
14840KMKG MKG20050405112010004/05/05 11:20:31  5-MIN KMKG 051620Z 19021G25KT 10SM CLR 17/08 A2990 650  53 1100 190/21G25 RMK AO2
14840KMKG MKG20050405112510004/05/05 11:25:31  5-MIN KMKG 051625Z 19016G25KT 10SM CLR 17/08 A2990 650  53 1100 200/16G25 RMK AO2
14840KMKG MKG20050405113010004/05/05 11:30:31  5-MIN KMKG 051630Z 19015G24KT 10SM CLR 18/08 A2990 650  53 1200 190/15G24 RMK AO2
14840KMKG MKG20050405113510004/05/05 11:35:31  5-MIN KMKG 051635Z 21017G24KT 10SM CLR 18/08 A2990 650  53 1200 210/17G24 RMK AO2
14840KMKG MKG20050405114010004/05/05 11:40:31  5-MIN KMKG 051640Z 19015G22KT 10SM CLR 18/08 A2990 650  53 1200 190/15G22 RMK AO2
14840KMKG MKG20050405114510004/05/05 11:45:31  5-MIN KMKG 051645Z 19018G24KT 10SM CLR 18/08 A2990 650  53 1200 200/18G24 RMK AO2
14840KMKG MKG20050405115013504/05/05 11:50:31  5-MIN KMKG 051650Z 19016G26KT 10SM CLR 17/08 A2990 650  55 1100 200/16G26 RMK AO2 PK WND 20026/1648 SLP125 T01720083
14840KMKG MKG20050405115513504/05/05 11:55:31  5-MIN KMKG 051655Z 20017G26KT 10SM CLR 17/08 A2990 650  55 1100 200/17G26 RMK AO2 PK WND 20026/1648 SLP126 T01720083
14840KMKG MKG20050405120010004/05/05 12:00:31  5-MIN KMKG 051700Z 19016G23KT 10SM CLR 18/08 A2990 650  53 1200 190/16G23 RMK AO2
14840KMKG MKG20050405120510004/05/05 12:05:31  5-MIN KMKG 051705Z 20017G23KT 10SM CLR 18/08 A2990 650  52 1200 200/17G23 RMK AO2
14840KMKG MKG20050405121010004/05/05 12:10:31  5-MIN KMKG 051710Z 19014G24KT 10SM CLR 18/08 A2990 650  52 1200 190/14G24 RMK AO2
14840KMKG MKG20050405121510004/05/05 12:15:31  5-MIN KMKG 051715Z 20015G24KT 10SM CLR 18/08 A2990 650  52 1200 200/15G24 RMK AO2
14840KMKG MKG20050405122010004/05/05 12:20:31  5-MIN KMKG 051720Z 19018G24KT 10SM CLR 18/08 A2990 650  52 1200 200/18G24 RMK AO2
14840KMKG MKG20050405122510004/05/05 12:25:31  5-MIN KMKG 051725Z 19014G21KT 10SM CLR 19/08 A2990 650  50 1300 190/14G21 RMK AO2
14840KMKG MKG20050405123010004/05/05 12:30:31  5-MIN KMKG 051730Z 20017G21KT 10SM CLR 19/09 A2990 650  52 1300 200/17G21 RMK AO2
14840KMKG MKG20050405123510004/05/05 12:35:31  5-MIN KMKG 051735Z 20015G21KT 10SM CLR 19/09 A2990 650  52 1300 210/15G21 RMK AO2
14840KMKG MKG20050405124010004/05/05 12:40:31  5-MIN KMKG 051740Z 20018G22KT 10SM CLR 19/09 A2990 650  52 1300 200/18G22 RMK AO2
14840KMKG MKG20050405124510004/05/05 12:45:31  5-MIN KMKG 051745Z 20015G23KT 10SM CLR 19/09 A2990 650  52 1300 200/15G23 RMK AO2
14840KMKG MKG20050405125013504/05/05 12:50:31  5-MIN KMKG 051750Z 19017G24KT 10SM CLR 19/09 A2990 650  52 1300 190/17G24 RMK AO2 SLP124 T01890089 10194 20111 53002
14840KMKG MKG20050405125513504/05/05 12:55:31  5-MIN KMKG 051755Z 20017G24KT 10SM CLR 19/09 A2990 650  50 1400 200/17G24 RMK AO2 SLP124 T01940089 10194 20111 50001
14840KMKG MKG20050405130010004/05/05 13:00:31  5-MIN KMKG 051800Z 19016G24KT 10SM CLR 19/09 A2990 650  50 1400 190/16G24 RMK AO2
14840KMKG MKG20050405130510004/05/05 13:05:31  5-MIN KMKG 051805Z 19017G21KT 10SM CLR 19/09 A2990 650  50 1400 190/17G21 RMK AO2
14840KMKG MKG20050405131010004/05/05 13:10:31  5-MIN KMKG 051810Z 19016G22KT 10SM CLR 20/09 A2990 650  48 1400 190/16G22 RMK AO2
14840KMKG MKG20050405131510004/05/05 13:15:31  5-MIN KMKG 051815Z 20015G23KT 10SM CLR 19/09 A2989 660  50 1400 200/15G23 RMK AO2
14840KMKG MKG20050405132010004/05/05 13:20:31  5-MIN KMKG 051820Z 19014G23KT 10SM CLR 20/09 A2990 650  48 1400 200/14G23 RMK AO2
14840KMKG MKG20050405132510004/05/05 13:25:31  5-MIN KMKG 051825Z 20019G22KT 10SM CLR 20/09 A2989 650  48 1400 200/19G22 RMK AO2
14840KMKG MKG20050405133010004/05/05 13:30:31  5-MIN KMKG 051830Z 20015G22KT 10SM CLR 20/09 A2989 660  48 1400 210/15G22 RMK AO2
14840KMKG MKG20050405133510004/05/05 13:35:31  5-MIN KMKG 051835Z 20015G20KT 10SM CLR 20/09 A2989 660  48 1400 200/15G20 RMK AO2
14840KMKG MKG20050405134010004/05/05 13:40:31  5-MIN KMKG 051840Z 20016G22KT 10SM CLR 20/09 A2989 660  48 1400 210/16G22 RMK AO2
14840KMKG MKG20050405134510004/05/05 13:45:31  5-MIN KMKG 051845Z 19015G22KT 10SM CLR 20/09 A2989 660  48 1400 200/15G22 RMK AO2
14840KMKG MKG20050405135011704/05/05 13:50:31  5-MIN KMKG 051850Z 21016G22KT 10SM CLR 20/09 A2989 660  48 1400 220/16G22 RMK AO2 SLP121 T02000089
14840KMKG MKG20050405135511704/05/05 13:55:31  5-MIN KMKG 051855Z 20016G20KT 10SM CLR 20/09 A2989 660  48 1400 200/16G20 RMK AO2 SLP122 T02000089
14840KMKG MKG20050405140010004/05/05 14:00:31  5-MIN KMKG 051900Z 21015G21KT 10SM CLR 20/09 A2989 660  48 1400 210/15G21 RMK AO2
14840KMKG MKG20050405140510004/05/05 14:05:31  5-MIN KMKG 051905Z 21013G21KT 10SM CLR 20/09 A2989 660  48 1400 210/13G21 RMK AO2
14840KMKG MKG20050405141010004/05/05 14:10:31  5-MIN KMKG 051910Z 20016G21KT 10SM CLR 21/09 A2989 660  46 1500 210/16G21 RMK AO2
14840KMKG MKG20050405141510004/05/05 14:15:31  5-MIN KMKG 051915Z 21015G21KT 10SM CLR 20/09 A2989 660  48 1400 210/15G21 RMK AO2
14840KMKG MKG20050405142010004/05/05 14:20:31  5-MIN KMKG 051920Z 20015G22KT 10SM CLR 21/09 A2989 660  46 1500 210/15G22 RMK AO2
14840KMKG MKG20050405142510004/05/05 14:25:31  5-MIN KMKG 051925Z 21014G22KT 10SM CLR 21/09 A2989 660  46 1500 210/14G22 RMK AO2
14840KMKG MKG20050405143009404/05/05 14:30:31  5-MIN KMKG 051930Z 20012KT 10SM CLR 21/09 A2988 660 46  1500 200/12 RMK AO2
14840KMKG MKG20050405143509404/05/05 14:35:31  5-MIN KMKG 051935Z 20016KT 10SM CLR 21/09 A2988 670 46  1500 200/16 RMK AO2
14840KMKG MKG20050405144009404/05/05 14:40:31  5-MIN KMKG 051940Z 20013KT 10SM CLR 21/09 A2988 670 46  1500 200/13 RMK AO2
14840KMKG MKG20050405144509404/05/05 14:45:31  5-MIN KMKG 051945Z 20013KT 10SM CLR 21/09 A2988 670 46  1500 200/13 RMK AO2
14840KMKG MKG20050405145011104/05/05 14:50:31  5-MIN KMKG 051950Z 20014KT 10SM CLR 21/09 A2988 670 46  1500 200/14 RMK AO2 SLP117 T02060089
14840KMKG MKG20050405145511704/05/05 14:55:31  5-MIN KMKG 051955Z 20013G19KT 10SM CLR 21/09 A2988 670  46 1500 210/13G19 RMK AO2 SLP116 T02060089
14840KMKG MKG20050405150010004/05/05 15:00:31  5-MIN KMKG 052000Z 20016G20KT 10SM CLR 21/09 A2988 670  46 1500 200/16G20 RMK AO2
14840KMKG MKG20050405150509404/05/05 15:05:31  5-MIN KMKG 052005Z 20016KT 10SM CLR 21/09 A2987 670 45  1600 200/16 RMK AO2
14840KMKG MKG20050405151010004/05/05 15:10:31  5-MIN KMKG 052010Z 21015G20KT 10SM CLR 21/09 A2988 670  46 1500 210/15G20 RMK AO2
14840KMKG MKG20050405151509404/05/05 15:15:31  5-MIN KMKG 052015Z 21014KT 10SM CLR 21/09 A2988 670 46  1500 210/14 RMK AO2
14840KMKG MKG20050405152009404/05/05 15:20:31  5-MIN KMKG 052020Z 22013KT 10SM CLR 20/09 A2988 670 48  1400 220/13 RMK AO2
14840KMKG MKG20050405152509404/05/05 15:25:31  5-MIN KMKG 052025Z 21012KT 10SM CLR 20/09 A2988 670 50  1400 210/12 RMK AO2
14840KMKG MKG20050405153009404/05/05 15:30:31  5-MIN KMKG 052030Z 21012KT 10SM CLR 21/09 A2988 670 46  1500 210/12 RMK AO2
14840KMKG MKG20050405153510004/05/05 15:35:31  5-MIN KMKG 052035Z 21013G18KT 10SM CLR 20/09 A2988 670  48 1400 210/13G18 RMK AO2
14840KMKG MKG20050405154010004/05/05 15:40:31  5-MIN KMKG 052040Z 21013G18KT 10SM CLR 21/09 A2988 670  48 1500 210/13G18 RMK AO2
14840KMKG MKG20050405154510004/05/05 15:45:31  5-MIN KMKG 052045Z 21012G18KT 10SM CLR 21/09 A2988 670  46 1500 220/12G18 RMK AO2
14840KMKG MKG20050405155011704/05/05 15:50:31  5-MIN KMKG 052050Z 20013KT 10SM CLR 21/09 A2988 670 48  1500 200/13 RMK AO2 SLP116 T02060094 50001
14840KMKG MKG20050405155511704/05/05 15:55:31  5-MIN KMKG 052055Z 20011KT 10SM CLR 21/09 A2988 670 48  1500 210/11 RMK AO2 SLP117 T02060094 55007
14840KMKG MKG20050405160009404/05/05 16:00:31  5-MIN KMKG 052100Z 20014KT 10SM CLR 21/09 A2988 670 46  1500 200/14 RMK AO2
14840KMKG MKG20050405160509404/05/05 16:05:31  5-MIN KMKG 052105Z 20012KT 10SM CLR 21/09 A2987 670 48  1500 200/12 RMK AO2
14840KMKG MKG20050405161009404/05/05 16:10:31  5-MIN KMKG 052110Z 20011KT 10SM CLR 20/09 A2987 670 48  1500 200/11 RMK AO2
14840KMKG MKG20050405161509404/05/05 16:15:31  5-MIN KMKG 052115Z 21012KT 10SM CLR 20/09 A2987 670 48  1500 210/12 RMK AO2
14840KMKG MKG20050405162009404/05/05 16:20:31  5-MIN KMKG 052120Z 21012KT 10SM CLR 21/09 A2987 670 46  1500 210/12 RMK AO2
14840KMKG MKG20050405162509404/05/05 16:25:31  5-MIN KMKG 052125Z 21012KT 10SM CLR 20/09 A2987 680 48  1500 210/12 RMK AO2
14840KMKG MKG20050405163009404/05/05 16:30:31  5-MIN KMKG 052130Z 21011KT 10SM CLR 20/09 A2987 670 48  1500 210/11 RMK AO2
14840KMKG MKG20050405163509404/05/05 16:35:31  5-MIN KMKG 052135Z 20010KT 10SM CLR 20/09 A2987 670 48  1500 210/10 RMK AO2
14840KMKG MKG20050405164009404/05/05 16:40:31  5-MIN KMKG 052140Z 21008KT 10SM CLR 20/09 A2987 670 50  1500 210/08 RMK AO2
14840KMKG MKG20050405164509404/05/05 16:45:31  5-MIN KMKG 052145Z 21011KT 10SM CLR 20/09 A2987 670 48  1500 220/11 RMK AO2
14840KMKG MKG20050405165011104/05/05 16:50:31  5-MIN KMKG 052150Z 21011KT 10SM CLR 20/09 A2987 670 48  1500 210/11 RMK AO2 SLP115 T02000089
14840KMKG MKG20050405165511104/05/05 16:55:31  5-MIN KMKG 052155Z 21011KT 10SM CLR 20/09 A2987 670 48  1500 210/11 RMK AO2 SLP115 T02000089
14840KMKG MKG20050405170009404/05/05 17:00:31  5-MIN KMKG 052200Z 21010KT 10SM CLR 20/09 A2987 670 48  1500 210/10 RMK AO2
14840KMKG MKG20050405170509404/05/05 17:05:31  5-MIN KMKG 052205Z 21010KT 10SM CLR 20/09 A2987 670 48  1500 210/10 RMK AO2
14840KMKG MKG20050405171009404/05/05 17:10:31  5-MIN KMKG 052210Z 21010KT 10SM CLR 20/09 A2987 670 48  1500 220/10 RMK AO2
14840KMKG MKG20050405171509404/05/05 17:15:31  5-MIN KMKG 052215Z 21010KT 10SM CLR 19/09 A2987 670 50  1400 210/10 RMK AO2
14840KMKG MKG20050405172009404/05/05 17:20:31  5-MIN KMKG 052220Z 20010KT 10SM CLR 19/09 A2987 670 50  1400 210/10 RMK AO2
14840KMKG MKG20050405172509404/05/05 17:25:31  5-MIN KMKG 052225Z 21009KT 10SM CLR 19/09 A2987 670 50  1400 210/09 RMK AO2
14840KMKG MKG20050405173009404/05/05 17:30:31  5-MIN KMKG 052230Z 21009KT 10SM CLR 19/09 A2988 670 52  1300 220/09 RMK AO2
14840KMKG MKG20050405173509404/05/05 17:35:31  5-MIN KMKG 052235Z 21009KT 10SM CLR 19/09 A2988 670 52  1300 210/09 RMK AO2
14840KMKG MKG20050405174009404/05/05 17:40:31  5-MIN KMKG 052240Z 20008KT 10SM CLR 19/09 A2988 670 52  1300 210/08 RMK AO2
14840KMKG MKG20050405174509404/05/05 17:45:31  5-MIN KMKG 052245Z 21008KT 10SM CLR 19/09 A2988 670 54  1300 210/08 RMK AO2
14840KMKG MKG20050405175011104/05/05 17:50:31  5-MIN KMKG 052250Z 21008KT 10SM CLR 19/09 A2988 670 52  1300 210/08 RMK AO2 SLP117 T01890089
14840KMKG MKG20050405175511104/05/05 17:55:31  5-MIN KMKG 052255Z 20009KT 10SM CLR 18/09 A2988 670 54  1300 210/09 RMK AO2 SLP118 T01830089
14840KMKG MKG20050405180009404/05/05 18:00:31  5-MIN KMKG 052300Z 21007KT 10SM CLR 18/09 A2988 670 54  1300 220/07 RMK AO2
14840KMKG MKG20050405180509404/05/05 18:05:31  5-MIN KMKG 052305Z 21007KT 10SM CLR 18/09 A2988 670 54  1300 210/07 RMK AO2
14840KMKG MKG20050405181009404/05/05 18:10:31  5-MIN KMKG 052310Z 21007KT 10SM CLR 18/09 A2988 670 56  1300 210/07 RMK AO2
14840KMKG MKG20050405181509404/05/05 18:15:31  5-MIN KMKG 052315Z 20006KT 10SM CLR 18/09 A2988 670 56  1300 200/06 RMK AO2
14840KMKG MKG20050405182009404/05/05 18:20:31  5-MIN KMKG 052320Z 20006KT 10SM CLR 18/09 A2988 670 58  1200 210/06 RMK AO2
14840KMKG MKG20050405182509404/05/05 18:25:31  5-MIN KMKG 052325Z 20005KT 10SM CLR 18/09 A2988 670 58  1200 210/05 RMK AO2
14840KMKG MKG20050405183009404/05/05 18:30:31  5-MIN KMKG 052330Z 20006KT 10SM CLR 18/09 A2988 670 58  1200 210/06 RMK AO2
14840KMKG MKG20050405183509404/05/05 18:35:31  5-MIN KMKG 052335Z 21005KT 10SM CLR 18/09 A2988 670 58  1200 220/05 RMK AO2
14840KMKG MKG20050405184009404/05/05 18:40:31  5-MIN KMKG 052340Z 21007KT 10SM CLR 18/09 A2988 670 58  1200 210/07 RMK AO2
14840KMKG MKG20050405184509404/05/05 18:45:31  5-MIN KMKG 052345Z 21006KT 10SM CLR 18/09 A2988 670 58  1200 210/06 RMK AO2
14840KMKG MKG20050405185012904/05/05 18:50:31  5-MIN KMKG 052350Z 20007KT 10SM CLR 17/09 A2988 670 60  1100 210/07 RMK AO2 SLP118 T01720094 10211 20172 55007
14840KMKG MKG20050405185512904/05/05 18:55:31  5-MIN KMKG 052355Z 20006KT 10SM CLR 17/09 A2988 670 60  1100 210/06 RMK AO2 SLP119 T01720094 10211 20172 53001
14840KMKG MKG20050405190009404/05/05 19:00:31  5-MIN KMKG 060000Z 21006KT 10SM CLR 17/09 A2988 670 60  1100 210/06 RMK AO2
14840KMKG MKG20050405190509404/05/05 19:05:31  5-MIN KMKG 060005Z 20005KT 10SM CLR 17/09 A2988 670 60  1100 210/05 RMK AO2
14840KMKG MKG20050405191009404/05/05 19:10:31  5-MIN KMKG 060010Z 21006KT 10SM CLR 17/09 A2988 660 62  1100 210/06 RMK AO2
14840KMKG MKG20050405191509404/05/05 19:15:31  5-MIN KMKG 060015Z 21005KT 10SM CLR 17/09 A2989 660 62  1100 220/05 RMK AO2
14840KMKG MKG20050405192009404/05/05 19:20:31  5-MIN KMKG 060020Z 22005KT 10SM CLR 17/09 A2989 660 62  1100 220/05 RMK AO2
14840KMKG MKG20050405192509404/05/05 19:25:31  5-MIN KMKG 060025Z 22005KT 10SM CLR 16/09 A2989 660 64  1000 220/05 RMK AO2
14840KMKG MKG20050405193009404/05/05 19:30:31  5-MIN KMKG 060030Z 22004KT 10SM CLR 16/09 A2989 660 64  1000 220/04 RMK AO2
14840KMKG MKG20050405193509404/05/05 19:35:31  5-MIN KMKG 060035Z 23004KT 10SM CLR 16/09 A2989 660 64  1000 230/04 RMK AO2
14840KMKG MKG20050405194009404/05/05 19:40:31  5-MIN KMKG 060040Z 23004KT 10SM CLR 16/09 A2990 650 64  1000 230/04 RMK AO2
14840KMKG MKG20050405194509404/05/05 19:45:31  5-MIN KMKG 060045Z 23004KT 10SM CLR 16/09 A2990 650 64  1000 230/04 RMK AO2
14840KMKG MKG20050405195011104/05/05 19:50:31  5-MIN KMKG 060050Z 24003KT 10SM CLR 16/09 A2990 650 64  1000 240/03 RMK AO2 SLP126 T01610094
14840KMKG MKG20050405195511104/05/05 19:55:31  5-MIN KMKG 060055Z 23005KT 10SM CLR 16/09 A2990 650 64  1000 230/05 RMK AO2 SLP126 T01610094
14840KMKG MKG20050405200009404/05/05 20:00:31  5-MIN KMKG 060100Z 23005KT 10SM CLR 16/09 A2991 640 64  1000 230/05 RMK AO2
14840KMKG MKG20050405200509404/05/05 20:05:31  5-MIN KMKG 060105Z 21005KT 10SM CLR 16/09 A2991 640 64  1000 220/05 RMK AO2
14840KMKG MKG20050405201009304/05/05 20:10:31  5-MIN KMKG 060110Z 20003KT 10SM CLR 16/09 A2991 640 67  900 210/03 RMK AO2
14840KMKG MKG20050405201509404/05/05 20:15:31  5-MIN KMKG 060115Z 16003KT 10SM CLR 16/09 A2991 640 64  1000 170/03 RMK AO2
14840KMKG MKG20050405202009704/05/05 20:20:31  5-MIN KMKG 060120Z 16003KT 10SM FEW065 16/09 A2992 640  64 1000 160/03 RMK AO2
14840KMKG MKG20050405202509704/05/05 20:25:31  5-MIN KMKG 060125Z 17004KT 10SM FEW065 17/09 A2992 640  62 1000 180/04 RMK AO2
14840KMKG MKG20050405203009704/05/05 20:30:31  5-MIN KMKG 060130Z 18005KT 10SM FEW065 16/09 A2991 640  64 1000 180/05 RMK AO2
14840KMKG MKG20050405203509704/05/05 20:35:31  5-MIN KMKG 060135Z 17004KT 10SM FEW065 16/09 A2991 640  64 1000 180/04 RMK AO2
14840KMKG MKG20050405204009604/05/05 20:40:31  5-MIN KMKG 060140Z 17004KT 10SM FEW065 16/09 A2992 630  67 900 180/04 RMK AO2
14840KMKG MKG20050405204509604/05/05 20:45:31  5-MIN KMKG 060145Z 17003KT 10SM FEW065 15/09 A2992 630  69 800 170/03 RMK AO2
14840KMKG MKG20050405205011004/05/05 20:50:31  5-MIN KMKG 060150Z 15003KT 10SM CLR 14/09 A2992 630 74  700 150/03 RMK AO2 SLP131 T01390094
14840KMKG MKG20050405205511004/05/05 20:55:31  5-MIN KMKG 060155Z 15003KT 10SM CLR 14/09 A2992 630 74  700 160/03 RMK AO2 SLP132 T01390094
14840KMKG MKG20050405210009304/05/05 21:00:31  5-MIN KMKG 060200Z 00000KT 10SM CLR 14/09 A2992 630 71  700 000/00 RMK AO2
14840KMKG MKG20050405210509604/05/05 21:05:31  5-MIN KMKG 060205Z 00000KT 10SM FEW070 14/09 A2992 630  72 700 000/00 RMK AO2
14840KMKG MKG20050405211009604/05/05 21:10:31  5-MIN KMKG 060210Z 00000KT 10SM FEW070 14/09 A2992 630  72 700 000/00 RMK AO2
14840KMKG MKG20050405211509304/05/05 21:15:31  5-MIN KMKG 060215Z 00000KT 10SM CLR 14/09 A2993 630 72  700 000/00 RMK AO2
14840KMKG MKG20050405212009304/05/05 21:20:31  5-MIN KMKG 060220Z 12003KT 10SM CLR 14/09 A2993 630 72  700 130/03 RMK AO2
14840KMKG MKG20050405212509604/05/05 21:25:31  5-MIN KMKG 060225Z 13003KT 10SM FEW070 14/09 A2993 620  72 700 140/03 RMK AO2
14840KMKG MKG20050405213009604/05/05 21:30:31  5-MIN KMKG 060230Z 00000KT 10SM SCT070 14/09 A2993 620  72 700 000/00 RMK AO2
14840KMKG MKG20050405213509604/05/05 21:35:31  5-MIN KMKG 060235Z 00000KT 10SM SCT075 15/09 A2993 620  69 800 000/00 RMK AO2
14840KMKG MKG20050405214009604/05/05 21:40:31  5-MIN KMKG 060240Z 00000KT 10SM BKN075 16/09 A2993 620  67 900 000/00 RMK AO2
14840KMKG MKG20050405214509604/05/05 21:45:31  5-MIN KMKG 060245Z 19003KT 10SM BKN070 15/09 A2993 620  69 800 190/03 RMK AO2
14840KMKG MKG20050405215011904/05/05 21:50:31  5-MIN KMKG 060250Z 19004KT 10SM BKN070 15/09 A2993 620  69 800 190/04 RMK AO2 SLP134 T01500094 53001
14840KMKG MKG20050405215511904/05/05 21:55:31  5-MIN KMKG 060255Z 19004KT 10SM OVC075 15/09 A2993 620  69 800 200/04 RMK AO2 SLP135 T01500094 51017
14840KMKG MKG20050405220009604/05/05 22:00:31  5-MIN KMKG 060300Z 19005KT 10SM OVC075 15/09 A2993 620  69 800 190/05 RMK AO2
14840KMKG MKG20050405220509604/05/05 22:05:31  5-MIN KMKG 060305Z 18005KT 10SM BKN080 15/09 A2993 620  69 800 190/05 RMK AO2
14840KMKG MKG20050405221009604/05/05 22:10:31  5-MIN KMKG 060310Z 18006KT 10SM BKN080 16/09 A2993 620  64 900 190/06 RMK AO2
14840KMKG MKG20050405221509604/05/05 22:15:31  5-MIN KMKG 060315Z 18007KT 10SM BKN080 16/09 A2993 620  64 900 190/07 RMK AO2
14840KMKG MKG20050405222009704/05/05 22:20:31  5-MIN KMKG 060320Z 18008KT 10SM BKN080 17/09 A2993 630  62 1000 190/08 RMK AO2
14840KMKG MKG20050405222509704/05/05 22:25:31  5-MIN KMKG 060325Z 18007KT 10SM BKN080 17/09 A2993 620  62 1000 180/07 RMK AO2
14840KMKG MKG20050405223009704/05/05 22:30:31  5-MIN KMKG 060330Z 18007KT 10SM SCT080 17/09 A2993 620  62 1000 180/07 RMK AO2
14840KMKG MKG20050405223509704/05/05 22:35:31  5-MIN KMKG 060335Z 18009KT 10SM SCT080 17/09 A2993 620  62 1000 180/09 RMK AO2
14840KMKG MKG20050405224009704/05/05 22:40:31  5-MIN KMKG 060340Z 18008KT 10SM FEW080 17/09 A2993 620  62 1000 190/08 RMK AO2
14840KMKG MKG20050405224509704/05/05 22:45:31  5-MIN KMKG 060345Z 17008KT 10SM FEW080 17/09 A2993 620  60 1000 180/08 RMK AO2
14840KMKG MKG20050405225011104/05/05 22:50:31  5-MIN KMKG 060350Z 19009KT 10SM CLR 17/09 A2993 620 60  1000 190/09 RMK AO2 SLP133 T01670089
14840KMKG MKG20050405225511104/05/05 22:55:31  5-MIN KMKG 060355Z 19011KT 10SM CLR 17/09 A2993 620 60  1000 200/11 RMK AO2 SLP133 T01670089
14840KMKG MKG20050405230009404/05/05 23:00:31  5-MIN KMKG 060400Z 19011KT 10SM CLR 17/09 A2993 620 62  1000 200/11 RMK AO2
14840KMKG MKG20050405230509404/05/05 23:05:31  5-MIN KMKG 060405Z 20012KT 10SM CLR 17/09 A2993 620 62  1000 200/12 RMK AO2
14840KMKG MKG20050405231009404/05/05 23:10:31  5-MIN KMKG 060410Z 20014KT 10SM CLR 17/09 A2993 620 60  1100 210/14 RMK AO2
14840KMKG MKG20050405231510004/05/05 23:15:31  5-MIN KMKG 060415Z 20015G21KT 10SM CLR 17/09 A2993 620  60 1100 210/15G21 RMK AO2
14840KMKG MKG20050405232010004/05/05 23:20:31  5-MIN KMKG 060420Z 20013G21KT 10SM CLR 17/09 A2993 620  62 1000 210/13G21 RMK AO2
14840KMKG MKG20050405232509304/05/05 23:25:31  5-MIN KMKG 060425Z 20015KT 10SM CLR 16/09 A2993 620 64  900 200/15 RMK AO2
14840KMKG MKG20050405233009604/05/05 23:30:31  5-MIN KMKG 060430Z 20013KT 10SM FEW085 16/09 A2993 620  64 900 210/13 RMK AO2
14840KMKG MKG20050405233509604/05/05 23:35:31  5-MIN KMKG 060435Z 21014KT 10SM FEW085 16/09 A2993 620  64 900 210/14 RMK AO2
14840KMKG MKG20050405234010204/05/05 23:40:31  5-MIN KMKG 060440Z 21015G22KT 10SM FEW085 16/09 A2993  620 64 900 210/15G22 RMK AO2
14840KMKG MKG20050405234510204/05/05 23:45:31  5-MIN KMKG 060445Z 21014G22KT 10SM FEW085 16/09 A2993  620 64 900 220/14G22 RMK AO2
14840KMKG MKG20050405235012904/05/05 23:50:31  5-MIN KMKG 060450Z 20014G20KT 10SM SCT085 16/09 A2993  620 67 900 210/14G20 RMK AO2 SLP135 T01560094 402110100
14840KMKG MKG20050405235512904/05/05 23:55:31  5-MIN KMKG 060455Z 21016G21KT 10SM SCT085 16/09 A2993  620 67 900 210/16G21 RMK AO2 SLP136 T01560094 402110100
14840KMKG MKG20050406000010204/06/05 00:00:32  5-MIN KMKG 060500Z 21014G21KT 10SM BKN085 16/09 A2993  620 67 900 210/14G21 RMK AO2
14840KMKG MKG20050406000509604/06/05 00:05:31  5-MIN KMKG 060505Z 21016KT 10SM BKN085 16/09 A2994 620  67 900 220/16 RMK AO2
14840KMKG MKG20050406001010204/06/05 00:10:31  5-MIN KMKG 060510Z 21013G21KT 10SM BKN085 16/09 A2994  610 67 900 210/13G21 RMK AO2
14840KMKG MKG20050406001509604/06/05 00:15:31  5-MIN KMKG 060515Z 21012KT 10SM BKN085 16/09 A2994 610  67 900 210/12 RMK AO2
14840KMKG MKG20050406002010304/06/05 00:20:31  5-MIN KMKG 060520Z 21013KT 10SM FEW070 BKN085 15/09  A2994 610 69 800 220/13 RMK AO2
14840KMKG MKG20050406002510304/06/05 00:25:31  5-MIN KMKG 060525Z 21015KT 10SM FEW070 SCT085 15/09  A2994 610 69 800 220/15 RMK AO2
14840KMKG MKG20050406003009604/06/05 00:30:31  5-MIN KMKG 060530Z 21014KT 10SM SCT085 15/09 A2994 610  69 800 210/14 RMK AO2
14840KMKG MKG20050406003509604/06/05 00:35:31  5-MIN KMKG 060535Z 21013KT 10SM FEW085 15/09 A2994 610  69 800 210/13 RMK AO2
14840KMKG MKG20050406004009304/06/05 00:40:31  5-MIN KMKG 060540Z 21012KT 10SM CLR 14/09 A2994 610 69  700 210/12 RMK AO2
14840KMKG MKG20050406004509304/06/05 00:45:31  5-MIN KMKG 060545Z 20012KT 10SM CLR 14/09 A2994 610 69  700 210/12 RMK AO2
14840KMKG MKG20050406005012804/06/05 00:50:31  5-MIN KMKG 060550Z 21012KT 10SM CLR 14/09 A2994 610 69  700 210/12 RMK AO2 SLP139 T01440089 10172 20139 51017
14840KMKG MKG20050406005513104/06/05 00:55:31  5-MIN KMKG 060555Z 21010KT 10SM FEW065 14/09 A2994 610  72 700 210/10 RMK AO2 SLP139 T01440094 10172 20139 53005
14840KMKG MKG20050406010009604/06/05 01:00:31  5-MIN KMKG 060600Z 21010KT 10SM SCT065 15/09 A2995 610  69 800 210/10 RMK AO2
14840KMKG MKG20050406010509604/06/05 01:05:31  5-MIN KMKG 060605Z 21010KT 10SM SCT065 15/09 A2995 610  69 800 210/10 RMK AO2
14840KMKG MKG20050406011009604/06/05 01:10:31  5-MIN KMKG 060610Z 20010KT 10SM FEW065 14/09 A2994 610  69 700 210/10 RMK AO2
14840KMKG MKG20050406011509604/06/05 01:15:31  5-MIN KMKG 060615Z 20009KT 10SM FEW065 14/09 A2994 610  71 700 210/09 RMK AO2
14840KMKG MKG20050406012009604/06/05 01:20:31  5-MIN KMKG 060620Z 20008KT 10SM FEW065 14/09 A2994 610  71 700 210/08 RMK AO2
14840KMKG MKG20050406012509604/06/05 01:25:31  5-MIN KMKG 060625Z 20009KT 10SM FEW065 14/09 A2994 610  71 700 200/09 RMK AO2
14840KMKG MKG20050406013009304/06/05 01:30:31  5-MIN KMKG 060630Z 20008KT 10SM CLR 14/09 A2994 610 71  700 200/08 RMK AO2
14840KMKG MKG20050406013509604/06/05 01:35:31  5-MIN KMKG 060635Z 20009KT 10SM FEW065 14/09 A2994 610  71 700 200/09 RMK AO2
14840KMKG MKG20050406014009604/06/05 01:40:31  5-MIN KMKG 060640Z 20011KT 10SM FEW065 14/09 A2994 610  74 700 200/11 RMK AO2
14840KMKG MKG20050406014509604/06/05 01:45:31  5-MIN KMKG 060645Z 20009KT 10SM FEW065 14/09 A2994 610  74 700 200/09 RMK AO2
14840KMKG MKG20050406015011304/06/05 01:50:31  5-MIN KMKG 060650Z 19008KT 10SM FEW065 14/09 A2994 610  71 700 190/08 RMK AO2 SLP137 T01390089
14840KMKG MKG20050406015511304/06/05 01:55:31  5-MIN KMKG 060655Z 18007KT 10SM FEW065 13/09 A2994 610  74 600 190/07 RMK AO2 SLP137 T01330089
14840KMKG MKG20050406020009604/06/05 02:00:31  5-MIN KMKG 060700Z 18008KT 10SM FEW065 13/09 A2993 620  74 600 180/08 RMK AO2
14840KMKG MKG20050406020509304/06/05 02:05:31  5-MIN KMKG 060705Z 19008KT 10SM CLR 13/09 A2993 620 77  500 190/08 RMK AO2
14840KMKG MKG20050406021009304/06/05 02:10:31  5-MIN KMKG 060710Z 19007KT 10SM CLR 13/09 A2993 620 74  600 200/07 RMK AO2
14840KMKG MKG20050406021509304/06/05 02:15:31  5-MIN KMKG 060715Z 18006KT 10SM CLR 13/09 A2993 620 74  600 190/06 RMK AO2
14840KMKG MKG20050406022009304/06/05 02:20:31  5-MIN KMKG 060720Z 18007KT 10SM CLR 13/09 A2993 620 77  500 180/07 RMK AO2
14840KMKG MKG20050406022509304/06/05 02:25:31  5-MIN KMKG 060725Z 18008KT 10SM CLR 13/09 A2993 620 74  600 180/08 RMK AO2
14840KMKG MKG20050406023009304/06/05 02:30:31  5-MIN KMKG 060730Z 18007KT 10SM CLR 13/09 A2993 620 77  500 180/07 RMK AO2
14840KMKG MKG20050406023509204/06/05 02:35:31  5-MIN KMKG 060735Z 18006KT 9SM CLR 13/09 A2993 630 77  500 180/06 RMK AO2
14840KMKG MKG20050406024009204/06/05 02:40:31  5-MIN KMKG 060740Z 18005KT 9SM CLR 13/09 A2992 630 77  500 190/05 RMK AO2
14840KMKG MKG20050406024509204/06/05 02:45:31  5-MIN KMKG 060745Z 16003KT 9SM CLR 13/09 A2992 630 77  500 160/03 RMK AO2
14840KMKG MKG20050406025010904/06/05 02:50:31  5-MIN KMKG 060750Z 14004KT 9SM CLR 13/09 A2992 630 77  500 150/04 RMK AO2 SLP133 T01280089
14840KMKG MKG20050406025510904/06/05 02:55:31  5-MIN KMKG 060755Z 15005KT 9SM CLR 12/09 A2992 630 80  500 150/05 RMK AO2 SLP133 T01220089
14840KMKG MKG20050406030009204/06/05 03:00:31  5-MIN KMKG 060800Z 14004KT 9SM CLR 12/08 A2992 630 77  500 150/04 RMK AO2
14840KMKG MKG20050406030509204/06/05 03:05:31  5-MIN KMKG 060805Z 14004KT 9SM CLR 12/08 A2993 620 80  400 150/04 RMK AO2
14840KMKG MKG20050406031009204/06/05 03:10:31  5-MIN KMKG 060810Z 14003KT 9SM CLR 11/08 A2993 620 83  300 150/03 RMK AO2
14840KMKG MKG20050406031509204/06/05 03:15:31  5-MIN KMKG 060815Z 16003KT 9SM CLR 12/08 A2993 620 80  400 170/03 RMK AO2
14840KMKG MKG20050406032009204/06/05 03:20:31  5-MIN KMKG 060820Z 17003KT 9SM CLR 12/08 A2993 620 80  400 170/03 RMK AO2
14840KMKG MKG20050406032509204/06/05 03:25:31  5-MIN KMKG 060825Z 17004KT 9SM CLR 12/08 A2993 620 80  400 180/04 RMK AO2
14840KMKG MKG20050406033009204/06/05 03:30:31  5-MIN KMKG 060830Z 18003KT 9SM CLR 12/09 A2993 620 80  500 180/03 RMK AO2
14840KMKG MKG20050406033509204/06/05 03:35:31  5-MIN KMKG 060835Z 18005KT 9SM CLR 13/09 A2993 620 77  500 180/05 RMK AO2
14840KMKG MKG20050406034009204/06/05 03:40:31  5-MIN KMKG 060840Z 18007KT 9SM CLR 13/09 A2993 620 80  500 180/07 RMK AO2
14840KMKG MKG20050406034509204/06/05 03:45:31  5-MIN KMKG 060845Z 18006KT 9SM CLR 13/09 A2993 620 77  600 180/06 RMK AO2
14840KMKG MKG20050406035011504/06/05 03:50:31  5-MIN KMKG 060850Z 18007KT 9SM CLR 13/09 A2993 620 77  600 190/07 RMK AO2 SLP133 T01330094 53005
14840KMKG MKG20050406035511504/06/05 03:55:31  5-MIN KMKG 060855Z 19006KT 9SM CLR 13/09 A2993 620 77  600 190/06 RMK AO2 SLP134 T01330094 55005
14840KMKG MKG20050406040009204/06/05 04:00:31  5-MIN KMKG 060900Z 18007KT 9SM CLR 13/09 A2993 620 77  600 180/07 RMK AO2
14840KMKG MKG20050406040509404/06/05 04:05:31  5-MIN KMKG 060905Z 18008KT 9SM FEW060 14/09 A2993 620 74 700 190/08 RMK AO2
14840KMKG MKG20050406041009404/06/05 04:10:31  5-MIN KMKG 060910Z 19007KT 9SM FEW060 14/09 A2993 620 74 700 190/07 RMK AO2
14840KMKG MKG20050406041509404/06/05 04:15:31  5-MIN KMKG 060915Z 18006KT 9SM FEW060 14/09 A2993 620 74 700 190/06 RMK AO2
14840KMKG MKG20050406042009604/06/05 04:20:31  5-MIN KMKG 060920Z 18006KT 10SM FEW060 14/09 A2993 620  74 700 190/06 RMK AO2
14840KMKG MKG20050406042509604/06/05 04:25:31  5-MIN KMKG 060925Z 18007KT 10SM FEW060 14/09 A2993 620  74 700 190/07 RMK AO2
14840KMKG MKG20050406043009604/06/05 04:30:31  5-MIN KMKG 060930Z 19005KT 10SM FEW060 14/09 A2993 620  74 700 190/05 RMK AO2
14840KMKG MKG20050406043509604/06/05 04:35:31  5-MIN KMKG 060935Z 19005KT 10SM FEW060 13/09 A2994 620  77 600 190/05 RMK AO2
14840KMKG MKG20050406044009604/06/05 04:40:31  5-MIN KMKG 060940Z 19005KT 10SM FEW060 13/09 A2994 610  77 600 190/05 RMK AO2
14840KMKG MKG20050406044509304/06/05 04:45:31  5-MIN KMKG 060945Z 18005KT 10SM CLR 13/09 A2994 610 77  600 190/05 RMK AO2
14840KMKG MKG20050406045011004/06/05 04:50:31  5-MIN KMKG 060950Z 19005KT 10SM CLR 13/09 A2994 610 77  600 190/05 RMK AO2 SLP139 T01330094
14840KMKG MKG20050406045511004/06/05 04:55:31  5-MIN KMKG 060955Z 19005KT 10SM CLR 13/09 A2994 610 77  600 190/05 RMK AO2 SLP139 T01330094
14840KMKG MKG20050406050009604/06/05 05:00:31  5-MIN KMKG 061000Z 19006KT 10SM FEW060 14/10 A2995 610  77 700 190/06 RMK AO2
14840KMKG MKG20050406050509604/06/05 05:05:31  5-MIN KMKG 061005Z 19005KT 10SM FEW060 13/09 A2995 610  77 600 190/05 RMK AO2
14840KMKG MKG20050406051009604/06/05 05:10:31  5-MIN KMKG 061010Z 19005KT 10SM SCT065 14/10 A2995 610  77 700 190/05 RMK AO2
14840KMKG MKG20050406051509604/06/05 05:15:31  5-MIN KMKG 061015Z 19006KT 10SM BKN065 14/10 A2995 610  77 700 190/06 RMK AO2
14840KMKG MKG20050406052009604/06/05 05:20:31  5-MIN KMKG 061020Z 19006KT 10SM BKN060 14/10 A2995 600  77 700 190/06 RMK AO2
14840KMKG MKG20050406052509604/06/05 05:25:31  5-MIN KMKG 061025Z 19005KT 10SM BKN065 14/10 A2995 600  74 700 190/05 RMK AO2
14840KMKG MKG20050406053009604/06/05 05:30:31  5-MIN KMKG 061030Z 19005KT 10SM BKN065 14/10 A2995 600  74 700 190/05 RMK AO2
14840KMKG MKG20050406053509604/06/05 05:35:31  5-MIN KMKG 061035Z 19007KT 10SM OVC065 14/10 A2995 600  74 700 190/07 RMK AO2
14840KMKG MKG20050406054009604/06/05 05:40:31  5-MIN KMKG 061040Z 19007KT 10SM OVC070 15/10 A2995 600  72 800 190/07 RMK AO2
14840KMKG MKG20050406054509604/06/05 05:45:31  5-MIN KMKG 061045Z 18005KT 10SM OVC070 14/10 A2996 600  74 700 190/05 RMK AO2
14840KMKG MKG20050406055011304/06/05 05:50:31  5-MIN KMKG 061050Z 18005KT 10SM OVC070 14/10 A2995 600  74 700 180/05 RMK AO2 SLP143 T01440100
14840KMKG MKG20050406055511304/06/05 05:55:31  5-MIN KMKG 061055Z 18006KT 10SM OVC075 14/10 A2995 600  74 700 190/06 RMK AO2 SLP143 T01440100
14840KMKG MKG20050406060009604/06/05 06:00:31  5-MIN KMKG 061100Z 19006KT 10SM OVC075 15/10 A2996 600  72 800 200/06 RMK AO2
14840KMKG MKG20050406060509604/06/05 06:05:31  5-MIN KMKG 061105Z 18005KT 10SM OVC075 14/10 A2996 600  74 700 190/05 RMK AO2
14840KMKG MKG20050406061009604/06/05 06:10:31  5-MIN KMKG 061110Z 17005KT 10SM OVC075 14/10 A2996 590  74 700 180/05 RMK AO2
14840KMKG MKG20050406061509604/06/05 06:15:31  5-MIN KMKG 061115Z 16004KT 10SM OVC080 14/10 A2996 600  74 700 170/04 RMK AO2
14840KMKG MKG20050406062009604/06/05 06:20:31  5-MIN KMKG 061120Z 17005KT 10SM OVC080 15/10 A2996 590  72 800 180/05 RMK AO2
14840KMKG MKG20050406062509604/06/05 06:25:31  5-MIN KMKG 061125Z 17005KT 10SM OVC080 14/10 A2996 590  74 700 170/05 RMK AO2
14840KMKG MKG20050406063009404/06/05 06:30:31  5-MIN KMKG 061130Z 17005KT 9SM OVC080 14/10 A2996 590 74 700 170/05 RMK AO2
14840KMKG MKG20050406063509404/06/05 06:35:31  5-MIN KMKG 061135Z 17005KT 9SM OVC080 14/10 A2996 590 74 700 180/05 RMK AO2
14840KMKG MKG20050406064009404/06/05 06:40:31  5-MIN KMKG 061140Z 17006KT 9SM BKN080 14/10 A2996 590 74 700 180/06 RMK AO2
14840KMKG MKG20050406064509404/06/05 06:45:31  5-MIN KMKG 061145Z 17007KT 9SM BKN075 14/10 A2996 590 74 700 180/07 RMK AO2
14840KMKG MKG20050406065012904/06/05 06:50:31  5-MIN KMKG 061150Z 18006KT 9SM BKN075 14/10 A2996 590 74 700 180/06 RMK AO2 SLP146 T01440100 10150 20111 55005
14840KMKG MKG20050406065512904/06/05 06:55:31  5-MIN KMKG 061155Z 17006KT 9SM BKN075 14/10 A2996 590 74 700 180/06 RMK AO2 SLP146 T01440100 10150 20111 51011
14840KMKG MKG20050406070009404/06/05 07:00:31  5-MIN KMKG 061200Z 18005KT 9SM BKN075 14/10 A2997 590 74 700 180/05 RMK AO2
14840KMKG MKG20050406070509604/06/05 07:05:31  5-MIN KMKG 061205Z 17004KT 10SM BKN070 14/10 A2997 590  74 700 170/04 RMK AO2
14840KMKG MKG20050406071009604/06/05 07:10:31  5-MIN KMKG 061210Z 18004KT 10SM BKN070 14/10 A2997 590  74 700 180/04 RMK AO2
14840KMKG MKG20050406071509604/06/05 07:15:31  5-MIN KMKG 061215Z 18003KT 10SM SCT075 14/10 A2997 590  74 700 190/03 RMK AO2
14840KMKG MKG20050406072009604/06/05 07:20:31  5-MIN KMKG 061220Z 19005KT 10SM SCT075 15/10 A2997 590  72 800 200/05 RMK AO2
14840KMKG MKG20050406072509604/06/05 07:25:31  5-MIN KMKG 061225Z 19005KT 10SM BKN075 15/11 A2997 590  74 800 190/05 RMK AO2
14840KMKG MKG20050406073009604/06/05 07:30:31  5-MIN KMKG 061230Z 19006KT 10SM SCT075 15/11 A2997 580  74 800 190/06 RMK AO2
14840KMKG MKG20050406073509604/06/05 07:35:31  5-MIN KMKG 061235Z 18006KT 10SM SCT075 16/11 A2997 590  72 800 190/06 RMK AO2
14840KMKG MKG20050406074009604/06/05 07:40:31  5-MIN KMKG 061240Z 19005KT 10SM SCT075 16/11 A2997 590  72 800 190/05 RMK AO2
14840KMKG MKG20050406074509604/06/05 07:45:31  5-MIN KMKG 061245Z 18007KT 10SM SCT075 16/11 A2997 590  72 800 180/07 RMK AO2
14840KMKG MKG20050406075011304/06/05 07:50:31  5-MIN KMKG 061250Z 17007KT 10SM SCT075 16/11 A2997 590  69 900 180/07 RMK AO2 SLP148 T01610106
14840KMKG MKG20050406075511304/06/05 07:55:31  5-MIN KMKG 061255Z 16007KT 10SM SCT075 16/11 A2997 580  69 900 170/07 RMK AO2 SLP148 T01610106
14840KMKG MKG20050406080009704/06/05 08:00:31  5-MIN KMKG 061300Z 18007KT 10SM FEW080 17/11 A2997 590  67 1000 180/07 RMK AO2
14840KMKG MKG20050406080509404/06/05 08:05:31  5-MIN KMKG 061305Z 18008KT 10SM CLR 17/11 A2997 590 67  1000 190/08 RMK AO2
14840KMKG MKG20050406081009404/06/05 08:10:31  5-MIN KMKG 061310Z 19010KT 10SM CLR 17/11 A2997 590 64  1000 190/10 RMK AO2
14840KMKG MKG20050406081509404/06/05 08:15:31  5-MIN KMKG 061315Z 19011KT 10SM CLR 17/11 A2997 590 64  1000 190/11 RMK AO2
14840KMKG MKG20050406082009404/06/05 08:20:31  5-MIN KMKG 061320Z 19008KT 10SM CLR 18/11 A2996 590 62  1100 190/08 RMK AO2
14840KMKG MKG20050406082509404/06/05 08:25:31  5-MIN KMKG 061325Z 20009KT 10SM CLR 18/11 A2996 590 62  1100 200/09 RMK AO2
14840KMKG MKG20050406083009404/06/05 08:30:31  5-MIN KMKG 061330Z 18008KT 10SM CLR 18/11 A2996 590 62  1100 190/08 RMK AO2
14840KMKG MKG20050406083509404/06/05 08:35:31  5-MIN KMKG 061335Z 19009KT 10SM CLR 18/11 A2996 590 60  1200 190/09 RMK AO2
14840KMKG MKG20050406084009404/06/05 08:40:31  5-MIN KMKG 061340Z 19009KT 10SM CLR 18/11 A2996 590 60  1200 190/09 RMK AO2
14840KMKG MKG20050406084509404/06/05 08:45:31  5-MIN KMKG 061345Z 19009KT 10SM CLR 18/11 A2996 590 60  1200 200/09 RMK AO2
14840KMKG MKG20050406085011104/06/05 08:50:31  5-MIN KMKG 061350Z 20012KT 10SM CLR 18/11 A2997 590 60  1200 200/12 RMK AO2 SLP147 T01830106
14840KMKG MKG20050406085511104/06/05 08:55:31  5-MIN KMKG 061355Z 19012KT 10SM CLR 19/11 A2996 590 58  1200 200/12 RMK AO2 SLP146 T01890106
14840KMKG MKG20050406090010004/06/05 09:00:31  5-MIN KMKG 061400Z 18011G18KT 10SM CLR 19/11 A2996 590  58 1200 190/11G18 RMK AO2
14840KMKG MKG20050406090509404/06/05 09:05:31  5-MIN KMKG 061405Z 18012KT 10SM CLR 19/11 A2996 590 58  1200 190/12 RMK AO2
14840KMKG MKG20050406091009404/06/05 09:10:31  5-MIN KMKG 061410Z 19012KT 10SM CLR 19/11 A2996 590 58  1200 190/12 RMK AO2
14840KMKG MKG20050406091509404/06/05 09:15:31  5-MIN KMKG 061415Z 19012KT 10SM CLR 19/11 A2996 590 58  1200 200/12 RMK AO2
14840KMKG MKG20050406092009404/06/05 09:20:31  5-MIN KMKG 061420Z 19011KT 10SM CLR 19/11 A2996 600 58  1200 200/11 RMK AO2
14840KMKG MKG20050406092509404/06/05 09:25:31  5-MIN KMKG 061425Z 19014KT 10SM CLR 19/11 A2995 600 56  1300 200/14 RMK AO2
14840KMKG MKG20050406093009404/06/05 09:30:31  5-MIN KMKG 061430Z 18011KT 10SM CLR 19/11 A2995 600 56  1300 190/11 RMK AO2
14840KMKG MKG20050406093509404/06/05 09:35:31  5-MIN KMKG 061435Z 18012KT 10SM CLR 19/11 A2995 600 56  1300 190/12 RMK AO2
14840KMKG MKG20050406094009404/06/05 09:40:31  5-MIN KMKG 061440Z 18010KT 10SM CLR 19/11 A2995 600 56  1300 190/10 RMK AO2
14840KMKG MKG20050406094509404/06/05 09:45:31  5-MIN KMKG 061445Z 18011KT 10SM CLR 19/11 A2995 600 56  1300 180/11 RMK AO2
14840KMKG MKG20050406095011704/06/05 09:50:31  5-MIN KMKG 061450Z 19010KT 10SM CLR 20/11 A2996 600 54  1400 200/10 RMK AO2 SLP143 T02000106 51011
14840KMKG MKG20050406095511704/06/05 09:55:31  5-MIN KMKG 061455Z 20011KT 10SM CLR 20/11 A2996 600 54  1400 200/11 RMK AO2 SLP143 T02000106 58002
14840KMKG MKG20050406100009404/06/05 10:00:31  5-MIN KMKG 061500Z 19009KT 10SM CLR 20/11 A2996 590 54  1400 200/09 RMK AO2
14840KMKG MKG20050406100509704/06/05 10:05:31  5-MIN KMKG 061505Z 19011KT 10SM FEW050 19/11 A2996 590  56 1300 190/11 RMK AO2
14840KMKG MKG20050406101009704/06/05 10:10:31  5-MIN KMKG 061510Z 20010KT 10SM BKN050 19/11 A2996 590  56 1300 200/10 RMK AO2
14840KMKG MKG20050406101509704/06/05 10:15:31  5-MIN KMKG 061515Z 19010KT 10SM BKN050 19/11 A2996 590  56 1300 200/10 RMK AO2
14840KMKG MKG20050406102009704/06/05 10:20:31  5-MIN KMKG 061520Z 20012KT 10SM BKN050 19/10 A2997 590  54 1300 210/12 RMK AO2
14840KMKG MKG20050406102509704/06/05 10:25:31  5-MIN KMKG 061525Z 19012KT 10SM OVC050 19/10 A2997 590  56 1200 200/12 RMK AO2
14840KMKG MKG20050406103009704/06/05 10:30:31  5-MIN KMKG 061530Z 19011KT 10SM OVC050 19/10 A2997 590  56 1200 190/11 RMK AO2
14840KMKG MKG20050406103509704/06/05 10:35:31  5-MIN KMKG 061535Z 19010KT 10SM OVC050 19/10 A2996 590  54 1300 190/10 RMK AO2
14840KMKG MKG20050406104010404/06/05 10:40:31  5-MIN KMKG 061540Z 20008KT 10SM BKN050 OVC060 19/10  A2996 590 54 1300 200/08 RMK AO2
14840KMKG MKG20050406104510404/06/05 10:45:31  5-MIN KMKG 061545Z 19011KT 10SM BKN050 BKN060 20/11  A2996 590 54 1400 190/11 RMK AO2
14840KMKG MKG20050406105012104/06/05 10:50:31  5-MIN KMKG 061550Z 19010KT 10SM BKN050 BKN060 20/10  A2996 590 52 1400 190/10 RMK AO2 SLP144 T02000100
14840KMKG MKG20050406105511404/06/05 10:55:31  5-MIN KMKG 061555Z 19009KT 10SM BKN055 20/10 A2996 600  52 1400 200/09 RMK AO2 SLP143 T02000100
14840KMKG MKG20050406110009704/06/05 11:00:31  5-MIN KMKG 061600Z 19011KT 10SM BKN055 21/10 A2996 600  50 1400 190/11 RMK AO2
14840KMKG MKG20050406110510404/06/05 11:05:31  5-MIN KMKG 061605Z 19014KT 10SM FEW050 BKN060 21/10  A2996 600 50 1400 190/14 RMK AO2
14840KMKG MKG20050406111009704/06/05 11:10:31  5-MIN KMKG 061610Z 20010KT 10SM BKN055 21/10 A2996 600  50 1400 200/10 RMK AO2
14840KMKG MKG20050406111510404/06/05 11:15:31  5-MIN KMKG 061615Z 20013KT 10SM SCT050 BKN060 21/10  A2996 600 48 1500 200/13 RMK AO2
14840KMKG MKG20050406112009704/06/05 11:20:31  5-MIN KMKG 061620Z 20011KT 10SM BKN055 21/10 A2996 590  50 1400 210/11 RMK AO2
14840KMKG MKG20050406112509704/06/05 11:25:31  5-MIN KMKG 061625Z 19011KT 10SM BKN055 21/11 A2996 600  50 1500 190/11 RMK AO2
14840KMKG MKG20050406113009704/06/05 11:30:31  5-MIN KMKG 061630Z 18009KT 10SM BKN055 21/10 A2995 600  48 1500 190/09 RMK AO2
14840KMKG MKG20050406113509704/06/05 11:35:31  5-MIN KMKG 061635Z 18013KT 10SM BKN055 22/10 A2995 600  47 1600 190/13 RMK AO2
14840KMKG MKG20050406224509804/06/05 22:45:31  5-MIN KMKG 070345Z 35009KT 10SM OVC075 14/09 A2989 660  71 700 360/09 RMK AO2 $
14840KMKG MKG20050406225011504/06/05 22:50:31  5-MIN KMKG 070350Z 36008KT 10SM OVC075 14/09 A2989 660  71 700 010/08 RMK AO2 SLP120 T01390089 $
14840KMKG MKG20050406225511504/06/05 22:55:31  5-MIN KMKG 070355Z 35007KT 10SM OVC075 14/09 A2989 660  71 700 360/07 RMK AO2 SLP118 T01390089 $
14840KMKG MKG20050406230009804/06/05 23:00:31  5-MIN KMKG 070400Z 34007KT 10SM OVC075 14/09 A2989 660  71 700 350/07 RMK AO2 $
14840KMKG MKG20050406230509604/06/05 23:05:31  5-MIN KMKG 070405Z 34005KT 9SM OVC075 14/09 A2989 660 71 700 350/05 RMK AO2 $
14840KMKG MKG20050406231009604/06/05 23:10:31  5-MIN KMKG 070410Z 01005KT 9SM OVC075 13/09 A2989 660 74 700 010/05 RMK AO2 $
14840KMKG MKG20050406231509604/06/05 23:15:31  5-MIN KMKG 070415Z 36006KT 9SM OVC075 14/09 A2989 660 71 700 360/06 RMK AO2 $
14840KMKG MKG20050406232009604/06/05 23:20:31  5-MIN KMKG 070420Z 34006KT 9SM OVC075 13/09 A2989 660 74 700 350/06 RMK AO2 $
14840KMKG MKG20050406232509604/06/05 23:25:31  5-MIN KMKG 070425Z 34005KT 9SM OVC075 13/09 A2989 660 74 700 340/05 RMK AO2 $
14840KMKG MKG20050406233009604/06/05 23:30:31  5-MIN KMKG 070430Z 32004KT 9SM OVC080 13/09 A2989 650 74 600 320/04 RMK AO2 $
14840KMKG MKG20050406233509604/06/05 23:35:31  5-MIN KMKG 070435Z 30003KT 9SM OVC080 13/09 A2990 650 74 600 300/03 RMK AO2 $
14840KMKG MKG20050406234010304/06/05 23:40:31  5-MIN KMKG 070440Z 31003KT 9SM FEW065 OVC080 13/09 A2989 650 74 600 310/03 RMK AO2 $
14840KMKG MKG20050406234510304/06/05 23:45:31  5-MIN KMKG 070445Z 00000KT 9SM SCT065 OVC080 13/09 A2989 650 74 700 000/00 RMK AO2 $
14840KMKG MKG20050406235013004/06/05 23:50:31  5-MIN KMKG 070450Z 35005KT 9SM SCT065 OVC080 13/09 A2989 650 74 600 360/05 RMK AO2 SLP122 T01330089 402330111 $
14840KMKG MKG20050406235513004/06/05 23:55:31  5-MIN KMKG 070455Z VRB04KT 9SM SCT065 OVC080 13/09 A2990 650 74 600 VRB/04 RMK AO2 SLP122 T01330089 402330111 $
14840KMKG MKG20050407000010304/07/05 00:00:32  5-MIN KMKG 070500Z 22006KT 9SM SCT065 OVC085 11/07 A2990 650 77 300 220/06 RMK AO2 $
14840KMKG MKG20050407000510504/07/05 00:05:31  5-MIN KMKG 070505Z 24005KT 10SM BKN065 OVC085 09/06  A2990 650 76 200 240/05 RMK AO2 $
14840KMKG MKG20050407001010504/07/05 00:10:31  5-MIN KMKG 070510Z 25004KT 10SM BKN065 OVC090 09/06  A2989 650 79 200 250/04 RMK AO2 $
14840KMKG MKG20050407001511204/07/05 00:15:31  5-MIN KMKG 070515Z 25004KT 10SM SCT060 BKN090 OVC110  09/06 A2989 650 79 200 250/04 RMK AO2 $
14840KMKG MKG20050407002011204/07/05 00:20:31  5-MIN KMKG 070520Z 23005KT 10SM BKN060 BKN090 OVC110  09/06 A2990 650 79 200 230/05 RMK AO2 $
14840KMKG MKG20050407002511204/07/05 00:25:31  5-MIN KMKG 070525Z 21006KT 10SM BKN060 BKN090 OVC110  09/06 A2990 650 83 100 220/06 RMK AO2 $
14840KMKG MKG20050407003011204/07/05 00:30:31  5-MIN KMKG 070530Z 24008KT 10SM BKN060 BKN090 OVC110  09/06 A2990 650 79 100 240/08 RMK AO2 $
14840KMKG MKG20050407003510504/07/05 00:35:31  5-MIN KMKG 070535Z 27006KT 10SM BKN060 OVC110 09/06  A2990 650 79 100 280/06 RMK AO2 $
14840KMKG MKG20050407004010504/07/05 00:40:31  5-MIN KMKG 070540Z 28006KT 10SM BKN060 OVC110 09/06  A2990 650 79 200 280/06 RMK AO2 $
14840KMKG MKG20050407004510504/07/05 00:45:31  5-MIN KMKG 070545Z 28006KT 10SM BKN060 OVC110 09/06  A2991 640 79 200 290/06 RMK AO2 $
14840KMKG MKG20050407005014004/07/05 00:50:31  5-MIN KMKG 070550Z 30006KT 10SM BKN060 OVC110 09/06  A2990 650 79 200 310/06 RMK AO2 SLP125 T00940061 10183 20089 50007 $
14840KMKG MKG20050407005513804/07/05 00:55:31  5-MIN KMKG 070555Z 30009KT 9SM BKN060 OVC110 09/07 A2990 650 83 200 300/09 RMK AO2 SLP123 T00940067 10183 20089 51005 $
14840KMKG MKG20050407010010304/07/05 01:00:31  5-MIN KMKG 070600Z 33012KT 9SM BKN060 OVC110 09/07 A2990 650 83 200 330/12 RMK AO2 $
14840KMKG MKG20050407010511104/07/05 01:05:31  5-MIN KMKG 070605Z 33010KT 9SM SCT060 BKN080 OVC110  09/06 A2990 650 83 100 330/10 RMK AO2 $
14840KMKG MKG20050407011011104/07/05 01:10:31  5-MIN KMKG 070610Z 34009KT 9SM SCT060 BKN080 OVC110  09/06 A2990 650 83 100 340/09 RMK AO2 $
14840KMKG MKG20050407011511004/07/05 01:15:31  5-MIN KMKG 070615Z 35008KT 10SM FEW060 BKN080 OVC110  08/06 A2991 640 82 0 350/08 RMK AO2 $
14840KMKG MKG20050407012011004/07/05 01:20:31  5-MIN KMKG 070620Z 34008KT 10SM FEW060 BKN080 OVC110  08/06 A2991 640 82 0 350/08 RMK AO2 $
14840KMKG MKG20050407012510304/07/05 01:25:31  5-MIN KMKG 070625Z 34009KT 10SM BKN080 OVC110 08/06  A2991 640 82 0 340/09 RMK AO2 $
14840KMKG MKG20050407013010304/07/05 01:30:31  5-MIN KMKG 070630Z 33010KT 10SM BKN075 OVC110 08/05  A2991 640 79 0 340/10 RMK AO2 $
14840KMKG MKG20050407013510304/07/05 01:35:31  5-MIN KMKG 070635Z 33012KT 10SM BKN075 OVC110 08/05  A2990 650 79 0 340/12 RMK AO2 $
14840KMKG MKG20050407014011804/07/05 01:40:31  5-MIN KMKG 070640Z 33010KT 10SM -RA BKN075 OVC110 08/05 A2990 650 79 0 330/10 RMK AO2 RAB39 P0000 $
14840KMKG MKG20050407014511804/07/05 01:45:31  5-MIN KMKG 070645Z 34007KT 10SM -RA BKN075 BKN110 08/05 A2991 640 82 0 340/07 RMK AO2 RAB39 P0000 $
14840KMKG MKG20050407015013504/07/05 01:50:31  5-MIN KMKG 070650Z 34008KT 10SM -RA BKN075 BKN110 08/05 A2991 640 82 0 350/08 RMK AO2 RAB39 SLP126 P0000 T00780050 $
14840KMKG MKG20050407015513504/07/05 01:55:31  5-MIN KMKG 070655Z 32007KT 10SM -RA BKN075 BKN110 08/05 A2991 640 82 0 330/07 RMK AO2 RAB39 SLP126 P0000 T00780050 $
14840KMKG MKG20050407020011704/07/05 02:00:31  5-MIN KMKG 070700Z 32006KT 10SM BKN075 BKN110 07/05  A2991 640 86 0 320/06 RMK AO2 RAE0658 P0000 $
14840KMKG MKG20050407020511704/07/05 02:05:31  5-MIN KMKG 070705Z 32005KT 10SM BKN075 BKN110 07/05  A2991 640 86 0 330/05 RMK AO2 RAE0658 P0000 $
14840KMKG MKG20050407021011704/07/05 02:10:31  5-MIN KMKG 070710Z 33005KT 10SM BKN075 BKN110 07/05  A2991 640 86 0 340/05 RMK AO2 RAE0658 P0000 $
14840KMKG MKG20050407021512404/07/05 02:15:31  5-MIN KMKG 070715Z 01007KT 10SM FEW050 BKN075 BKN110  07/04 A2991 640 82 0 010/07 RMK AO2 RAE0658 P0000 $
14840KMKG MKG20050407022012404/07/05 02:20:31  5-MIN KMKG 070720Z 36007KT 10SM SCT050 BKN075 OVC110  07/04 A2990 650 79 0 010/07 RMK AO2 RAE0658 P0000 $
14840KMKG MKG20050407022512404/07/05 02:25:31  5-MIN KMKG 070725Z 35007KT 10SM FEW050 SCT075 OVC110  07/04 A2990 650 79 0 350/07 RMK AO2 RAE0658 P0000 $
14840KMKG MKG20050407023012404/07/05 02:30:31  5-MIN KMKG 070730Z 35007KT 10SM FEW050 SCT075 OVC110  07/04 A2990 650 79 0 350/07 RMK AO2 RAE0658 P0000 $
14840KMKG MKG20050407023511704/07/05 02:35:31  5-MIN KMKG 070735Z 35008KT 10SM FEW050 OVC100 07/03  A2990 650 76 0 350/08 RMK AO2 RAE0658 P0000 $
14840KMKG MKG20050407024011704/07/05 02:40:31  5-MIN KMKG 070740Z 35008KT 10SM SCT050 OVC100 07/03  A2991 640 76 0 360/08 RMK AO2 RAE0658 P0000 $
14840KMKG MKG20050407024513204/07/05 02:45:31  5-MIN KMKG 070745Z 35006KT 10SM SCT050 OVC100 07/03  A2990 650 76 0 350/06 RMK AO2 RAE0658 CIG 050 RWY 14 P0000 $
14840KMKG MKG20050407025014104/07/05 02:50:31  5-MIN KMKG 070750Z 33006KT 10SM SCT045 BKN050 OVC100  07/04 A2990 650 82 0 340/06 RMK AO2 RAE0658 SLP126 P0000 T00720044 $
14840KMKG MKG20050407025514104/07/05 02:55:31  5-MIN KMKG 070755Z 34007KT 10SM BKN045 BKN050 OVC100  07/04 A2990 650 79 0 340/07 RMK AO2 RAE0658 SLP125 P0000 T00720039 $
14840KMKG MKG20050407030011004/07/05 03:00:31  5-MIN KMKG 070800Z 35008KT 10SM BKN045 BKN050 OVC100  07/03 A2990 650 76 0 350/08 RMK AO2 $
14840KMKG MKG20050407030510304/07/05 03:05:31  5-MIN KMKG 070805Z 34007KT 10SM BKN045 OVC050 07/03  A2990 650 76 0 350/07 RMK AO2 $
14840KMKG MKG20050407031009604/07/05 03:10:31  5-MIN KMKG 070810Z 33008KT 10SM OVC045 07/04 A2990 650  79 0 340/08 RMK AO2 $
14840KMKG MKG20050407031509604/07/05 03:15:31  5-MIN KMKG 070815Z 33008KT 10SM OVC045 07/03 A2989 650  76 0 340/08 RMK AO2 $
14840KMKG MKG20050407032009904/07/05 03:20:31  5-MIN KMKG 070820Z 33008KT 10SM OVC045 07/04 A2990 650  82 -100 340/08 RMK AO2 $
14840KMKG MKG20050407032509904/07/05 03:25:31  5-MIN KMKG 070825Z 34007KT 10SM OVC045 07/03 A2990 650  79 -100 340/07 RMK AO2 $
14840KMKG MKG20050407033009904/07/05 03:30:31  5-MIN KMKG 070830Z 32008KT 10SM OVC047 07/03 A2990 650  79 -100 320/08 RMK AO2 $
14840KMKG MKG20050407033509904/07/05 03:35:31  5-MIN KMKG 070835Z 33007KT 10SM OVC047 07/03 A2990 650  79 -100 340/07 RMK AO2 $
14840KMKG MKG20050407034009904/07/05 03:40:31  5-MIN KMKG 070840Z 32007KT 10SM OVC047 07/03 A2989 650  79 -100 330/07 RMK AO2 $
14840KMKG MKG20050407034509904/07/05 03:45:31  5-MIN KMKG 070845Z 32007KT 10SM OVC047 07/03 A2990 650  79 -100 320/07 RMK AO2 $
14840KMKG MKG20050407035012804/07/05 03:50:31  5-MIN KMKG 070850Z 32008KT 10SM OVC047 07/03 A2990 650  79 -100 320/08 RMK AO2 SLP124 60000 T00670033 51005 $
14840KMKG MKG20050407035513504/07/05 03:55:31  5-MIN KMKG 070855Z 32008KT 10SM FEW035 BKN047 07/03  A2990 650 79 -100 320/08 RMK AO2 SLP124 60000 T00670033 50000 $
14840KMKG MKG20050407040010604/07/05 04:00:31  5-MIN KMKG 070900Z 32008KT 10SM FEW035 BKN047 06/03  A2990 650 82 -200 330/08 RMK AO2 $
14840KMKG MKG20050407040510604/07/05 04:05:31  5-MIN KMKG 070905Z 32009KT 10SM FEW035 BKN047 06/03  A2990 650 79 -200 320/09 RMK AO2 $
14840KMKG MKG20050407041012104/07/05 04:10:31  5-MIN KMKG 070910Z 32009KT 10SM SCT035 BKN047 06/03  A2990 650 79 -200 330/09 RMK AO2 CIG 036 RWY 14 $
14840KMKG MKG20050407041510604/07/05 04:15:31  5-MIN KMKG 070915Z 33008KT 10SM SCT035 SCT047 06/03  A2990 650 79 -200 340/08 RMK AO2 $
14840KMKG MKG20050407042010604/07/05 04:20:31  5-MIN KMKG 070920Z 32008KT 10SM SCT035 SCT110 06/03  A2990 650 79 -200 330/08 RMK AO2 $
14840KMKG MKG20050407042512104/07/05 04:25:31  5-MIN KMKG 070925Z 33009KT 10SM SCT037 BKN110 06/03  A2990 650 79 -200 330/09 RMK AO2 CIG 036 RWY 14 $
14840KMKG MKG20050407043010604/07/05 04:30:31  5-MIN KMKG 070930Z 33009KT 10SM BKN037 BKN100 06/03  A2990 650 79 -200 330/09 RMK AO2 $
14840KMKG MKG20050407043510604/07/05 04:35:31  5-MIN KMKG 070935Z 34009KT 10SM FEW037 BKN110 06/03  A2989 650 79 -200 340/09 RMK AO2 $
14840KMKG MKG20050407044010604/07/05 04:40:31  5-MIN KMKG 070940Z 35010KT 10SM FEW037 BKN110 06/03  A2989 660 79 -200 350/10 RMK AO2 $
14840KMKG MKG20050407044510604/07/05 04:45:31  5-MIN KMKG 070945Z 34009KT 10SM FEW037 BKN100 06/03  A2989 660 79 -200 340/09 RMK AO2 $
14840KMKG MKG20050407045012304/07/05 04:50:31  5-MIN KMKG 070950Z 35008KT 10SM FEW037 BKN100 06/03  A2989 660 79 -200 350/08 RMK AO2 SLP122 T00610028 $
14840KMKG MKG20050407045512304/07/05 04:55:31  5-MIN KMKG 070955Z 35008KT 10SM BKN100 OVC120 06/03  A2989 660 79 -200 350/08 RMK AO2 SLP122 T00610028 $
14840KMKG MKG20050407050010604/07/05 05:00:31  5-MIN KMKG 071000Z 33008KT 10SM BKN100 OVC120 06/03  A2989 660 79 -200 340/08 RMK AO2 $
14840KMKG MKG20050407050510604/07/05 05:05:31  5-MIN KMKG 071005Z 34008KT 10SM BKN100 BKN120 06/03  A2989 660 79 -200 350/08 RMK AO2 $
14840KMKG MKG20050407051010604/07/05 05:10:31  5-MIN KMKG 071010Z 34010KT 10SM BKN100 BKN120 06/03  A2990 650 79 -200 340/10 RMK AO2 $
14840KMKG MKG20050407051510604/07/05 05:15:31  5-MIN KMKG 071015Z 34009KT 10SM SCT100 SCT120 06/03  A2990 650 79 -200 340/09 RMK AO2 $
14840KMKG MKG20050407052009904/07/05 05:20:31  5-MIN KMKG 071020Z 34010KT 10SM SCT110 06/03 A2990 650  79 -200 340/10 RMK AO2 $
14840KMKG MKG20050407052509904/07/05 05:25:31  5-MIN KMKG 071025Z 35010KT 10SM FEW110 06/03 A2990 650  79 -200 350/10 RMK AO2 $
14840KMKG MKG20050407053009904/07/05 05:30:31  5-MIN KMKG 071030Z 35010KT 10SM FEW100 06/03 A2990 650  79 -200 360/10 RMK AO2 $
14840KMKG MKG20050407053509604/07/05 05:35:31  5-MIN KMKG 071035Z 01010KT 10SM CLR 06/03 A2990 650 79  -200 010/10 RMK AO2 $
14840KMKG MKG20050407054009604/07/05 05:40:31  5-MIN KMKG 071040Z 01009KT 10SM CLR 06/03 A2989 650 79  -200 010/09 RMK AO2 $
14840KMKG MKG20050407054509604/07/05 05:45:31  5-MIN KMKG 071045Z 36009KT 10SM CLR 06/02 A2989 650 79  -200 360/09 RMK AO2 $
14840KMKG MKG20050407055011304/07/05 05:50:31  5-MIN KMKG 071050Z 35008KT 10SM CLR 06/02 A2989 650 79  -200 360/08 RMK AO2 SLP124 T00560022 $
14840KMKG MKG20050407055511604/07/05 05:55:31  5-MIN KMKG 071055Z 35011KT 10SM SCT100 06/02 A2989 650  79 -200 360/11 RMK AO2 SLP125 T00560022 $
14840KMKG MKG20050407060009604/07/05 06:00:31  5-MIN KMKG 071100Z 35012KT 10SM CLR 06/02 A2990 650 79  -200 360/12 RMK AO2 $
14840KMKG MKG20050407060509604/07/05 06:05:31  5-MIN KMKG 071105Z 36011KT 10SM CLR 06/02 A2990 650 79  -200 360/11 RMK AO2 $
14840KMKG MKG20050407061009604/07/05 06:10:31  5-MIN KMKG 071110Z 35011KT 10SM CLR 06/02 A2991 640 79  -300 360/11 RMK AO2 $
14840KMKG MKG20050407061509604/07/05 06:15:31  5-MIN KMKG 071115Z 35010KT 10SM CLR 06/02 A2991 640 79  -300 360/10 RMK AO2 $
14840KMKG MKG20050407062009604/07/05 06:20:31  5-MIN KMKG 071120Z 35011KT 10SM CLR 06/02 A2991 640 79  -300 360/11 RMK AO2 $
14840KMKG MKG20050407062509604/07/05 06:25:31  5-MIN KMKG 071125Z 01012KT 10SM CLR 05/02 A2992 630 82  -300 010/12 RMK AO2 $
14840KMKG MKG20050407063010204/07/05 06:30:31  5-MIN KMKG 071130Z 01014G19KT 10SM CLR 05/02 A2992 630  82 -300 010/14G19 RMK AO2 $
14840KMKG MKG20050407063510204/07/05 06:35:31  5-MIN KMKG 071135Z 36012G19KT 10SM CLR 05/02 A2993 620  82 -300 360/12G19 RMK AO2 $
14840KMKG MKG20050407064009904/07/05 06:40:31  5-MIN KMKG 071140Z 36013KT 10SM SCT013 05/02 A2993 620  82 -400 360/13 RMK AO2 $
14840KMKG MKG20050407064510504/07/05 06:45:31  5-MIN KMKG 071145Z 36011G18KT 10SM SCT013 05/02 A2993  620 82 -400 360/11G18 RMK AO2 $
14840KMKG MKG20050407065014004/07/05 06:50:31  5-MIN KMKG 071150Z 36012KT 10SM SCT013 05/02 A2993 620  82 -400 010/12 RMK AO2 SLP138 60000 T00500022 10094 20050 50000 $
14840KMKG MKG20050407065514004/07/05 06:55:31  5-MIN KMKG 071155Z 01011KT 10SM BKN013 05/02 A2994 610  82 -400 010/11 RMK AO2 SLP139 60000 T00500022 10094 20050 53014 $
14840KMKG MKG20050407070009904/07/05 07:00:31  5-MIN KMKG 071200Z 01011KT 10SM BKN013 05/03 A2994 610  85 -400 010/11 RMK AO2 $
14840KMKG MKG20050407070509904/07/05 07:05:31  5-MIN KMKG 071205Z 36013KT 10SM BKN013 05/03 A2994 610  85 -400 010/13 RMK AO2 $
14840KMKG MKG20050407071010504/07/05 07:10:31  5-MIN KMKG 071210Z 36013G17KT 10SM OVC013 05/03 A2995  610 85 -400 360/13G17 RMK AO2 $
14840KMKG MKG20050407071510504/07/05 07:15:31  5-MIN KMKG 071215Z 36011G17KT 10SM OVC013 06/03 A2995  610 82 -300 010/11G17 RMK AO2 $
14840KMKG MKG20050407072009904/07/05 07:20:31  5-MIN KMKG 071220Z 01011KT 10SM OVC013 06/03 A2994 610  82 -300 010/11 RMK AO2 $
14840KMKG MKG20050407072510504/07/05 07:25:31  5-MIN KMKG 071225Z 01015G19KT 10SM OVC013 06/03 A2995  600 82 -300 010/15G19 RMK AO2 $
14840KMKG MKG20050407073010504/07/05 07:30:31  5-MIN KMKG 071230Z 02011G19KT 10SM OVC013 06/03 A2995  610 82 -300 030/11G19 RMK AO2 $
14840KMKG MKG20050407073509904/07/05 07:35:31  5-MIN KMKG 071235Z 36010KT 10SM OVC013 06/03 A2995 600  82 -300 010/10 RMK AO2 $
14840KMKG MKG20050407074010504/07/05 07:40:31  5-MIN KMKG 071240Z 02011G16KT 10SM OVC013 06/03 A2995  600 82 -200 020/11G16 RMK AO2 $
14840KMKG MKG20050407074509904/07/05 07:45:31  5-MIN KMKG 071245Z 36011KT 10SM OVC013 06/03 A2995 600  82 -200 010/11 RMK AO2 $
14840KMKG MKG20050407075012004/07/05 07:50:31  5-MIN KMKG 071250Z 03014G19KT 10SM OVC013 06/03 A2995  600 82 -200 030/14G19 RMK AO2 SLP145 T00610033
14840KMKG MKG20050407075512004/07/05 07:55:31  5-MIN KMKG 071255Z 02010G19KT 10SM OVC013 06/03 A2996  600 82 -200 020/10G19 RMK AO2 SLP147 T00610033
14840KMKG MKG20050407080010304/07/05 08:00:31  5-MIN KMKG 071300Z 01012G17KT 10SM OVC013 06/03 A2996  600 82 -200 020/12G17 RMK AO2
14840KMKG MKG20050407080510304/07/05 08:05:31  5-MIN KMKG 071305Z 01012G21KT 10SM OVC013 07/03 A2996  590 79 -200 010/12G21 RMK AO2
14840KMKG MKG20050407081010304/07/05 08:10:31  5-MIN KMKG 071310Z 02015G21KT 10SM OVC013 07/03 A2996  600 79 -200 030/15G21 RMK AO2
14840KMKG MKG20050407081509704/07/05 08:15:31  5-MIN KMKG 071315Z 02010KT 10SM OVC013 07/03 A2996 600  79 -200 020/10 RMK AO2
14840KMKG MKG20050407082009704/07/05 08:20:31  5-MIN KMKG 071320Z 01010KT 10SM OVC013 07/03 A2996 600  79 -200 020/10 RMK AO2
14840KMKG MKG20050407082511304/07/05 08:25:31  5-MIN KMKG 071325Z 02014KT 340V040 10SM OVC013 07/03  A2996 600 79 -200 020/14 340V040 RMK AO2
14840KMKG MKG20050407083010304/07/05 08:30:31  5-MIN KMKG 071330Z 01011G17KT 10SM OVC013 07/03 A2996  590 76 -100 020/11G17 RMK AO2
14840KMKG MKG20050407083510304/07/05 08:35:31  5-MIN KMKG 071335Z 01015G18KT 10SM OVC015 07/03 A2996  600 76 -100 020/15G18 RMK AO2
14840KMKG MKG20050407084010304/07/05 08:40:31  5-MIN KMKG 071340Z 02013G20KT 10SM OVC015 07/03 A2996  590 76 -100 020/13G20 RMK AO2
14840KMKG MKG20050407084510304/07/05 08:45:31  5-MIN KMKG 071345Z 02014G20KT 10SM OVC015 07/04 A2996  590 79 -100 020/14G20 RMK AO2
14840KMKG MKG20050407085011704/07/05 08:50:31  5-MIN KMKG 071350Z 02014G19KT 10SM OVC015 08/04 A2996  600 76 0 020/14G19 RMK AO2 SLP145 T00780039
14840KMKG MKG20050407085511704/07/05 08:55:31  5-MIN KMKG 071355Z 01015G19KT 10SM OVC015 08/04 A2996  600 76 0 010/15G19 RMK AO2 SLP146 T00780039
14840KMKG MKG20050407090010004/07/05 09:00:31  5-MIN KMKG 071400Z 03015G19KT 10SM OVC015 08/04 A2996  600 76 0 030/15G19 RMK AO2
14840KMKG MKG20050407090510004/07/05 09:05:31  5-MIN KMKG 071405Z 02016G21KT 10SM OVC015 08/04 A2996  590 76 0 020/16G21 RMK AO2
14840KMKG MKG20050407091010004/07/05 09:10:31  5-MIN KMKG 071410Z 03013G21KT 10SM OVC015 08/04 A2996  590 73 0 040/13G21 RMK AO2
14840KMKG MKG20050407091510004/07/05 09:15:31  5-MIN KMKG 071415Z 03014G21KT 10SM OVC017 08/04 A2996  590 73 0 030/14G21 RMK AO2
14840KMKG MKG20050407092010004/07/05 09:20:31  5-MIN KMKG 071420Z 03017G21KT 10SM OVC017 08/03 A2996  590 70 0 030/17G21 RMK AO2
14840KMKG MKG20050407092510004/07/05 09:25:31  5-MIN KMKG 071425Z 03014G23KT 10SM OVC019 08/03 A2996  590 70 0 030/14G23 RMK AO2
14840KMKG MKG20050407093010004/07/05 09:30:31  5-MIN KMKG 071430Z 03015G23KT 10SM OVC019 08/03 A2997  590 70 0 030/15G23 RMK AO2
14840KMKG MKG20050407093510004/07/05 09:35:31  5-MIN KMKG 071435Z 03013G19KT 10SM OVC019 08/03 A2997  580 70 0 040/13G19 RMK AO2
14840KMKG MKG20050407094010004/07/05 09:40:31  5-MIN KMKG 071440Z 03016G20KT 10SM OVC019 08/03 A2997  580 70 0 030/16G20 RMK AO2
14840KMKG MKG20050407094510004/07/05 09:45:31  5-MIN KMKG 071445Z 04013G21KT 10SM OVC019 09/03 A2997  590 68 0 040/13G21 RMK AO2
14840KMKG MKG20050407095012304/07/05 09:50:31  5-MIN KMKG 071450Z 03018G24KT 10SM OVC021 09/03 A2997  580 68 0 040/18G24 RMK AO2 SLP150 T00890033 53014
14840KMKG MKG20050407095512304/07/05 09:55:31  5-MIN KMKG 071455Z 04013G24KT 10SM OVC021 09/03 A2997  580 68 0 040/13G24 RMK AO2 SLP150 T00890033 51011
14840KMKG MKG20050407100010004/07/05 10:00:31  5-MIN KMKG 071500Z 03015G22KT 10SM BKN021 09/03 A2997  580 68 0 030/15G22 RMK AO2
14840KMKG MKG20050407100510004/07/05 10:05:31  5-MIN KMKG 071505Z 03014G19KT 10SM BKN021 09/03 A2997  580 68 0 040/14G19 RMK AO2
14840KMKG MKG20050407101010004/07/05 10:10:31  5-MIN KMKG 071510Z 04012G19KT 10SM BKN021 09/03 A2998  580 68 0 040/12G19 RMK AO2
14840KMKG MKG20050407101509404/07/05 10:15:31  5-MIN KMKG 071515Z 05013KT 10SM OVC021 09/03 A2997 580  68 0 050/13 RMK AO2
14840KMKG MKG20050407102009604/07/05 10:20:31  5-MIN KMKG 071520Z 03014KT 10SM OVC021 09/03 A2997 580  65 100 030/14 RMK AO2
14840KMKG MKG20050407102510204/07/05 10:25:31  5-MIN KMKG 071525Z 04015G18KT 10SM BKN023 09/03 A2997  580 65 100 040/15G18 RMK AO2
14840KMKG MKG20050407103010204/07/05 10:30:31  5-MIN KMKG 071530Z 02015G19KT 10SM BKN023 10/03 A2998  580 63 200 030/15G19 RMK AO2
14840KMKG MKG20050407103509604/07/05 10:35:31  5-MIN KMKG 071535Z 04011KT 10SM BKN023 11/03 A2998 580  61 200 040/11 RMK AO2
14840KMKG MKG20050407104010204/07/05 10:40:31  5-MIN KMKG 071540Z 03014G21KT 10SM BKN025 11/03 A2998  580 61 200 040/14G21 RMK AO2
14840KMKG MKG20050407104510204/07/05 10:45:31  5-MIN KMKG 071545Z 05013G21KT 10SM SCT025 11/03 A2998  580 61 200 050/13G21 RMK AO2
14840KMKG MKG20050407105011304/07/05 10:50:31  5-MIN KMKG 071550Z 04014KT 10SM BKN025 11/03 A2998 580  58 300 050/14 RMK AO2 SLP153 T01110033
14840KMKG MKG20050407105511304/07/05 10:55:31  5-MIN KMKG 071555Z 04015KT 10SM BKN025 11/04 A2998 580  61 300 050/15 RMK AO2 SLP153 T01110039
14840KMKG MKG20050407110010204/07/05 11:00:31  5-MIN KMKG 071600Z 04012G19KT 10SM BKN025 12/04 A2997  580 58 400 040/12G19 RMK AO2
14840KMKG MKG20050407110510204/07/05 11:05:31  5-MIN KMKG 071605Z 02014G19KT 10SM BKN027 12/04 A2997  580 58 400 030/14G19 RMK AO2
14840KMKG MKG20050407111010204/07/05 11:10:31  5-MIN KMKG 071610Z 04013G19KT 10SM BKN027 12/03 A2997  580 56 400 040/13G19 RMK AO2
14840KMKG MKG20050407111510204/07/05 11:15:31  5-MIN KMKG 071615Z 04016G20KT 10SM BKN027 11/03 A2997  580 58 300 050/16G20 RMK AO2
14840KMKG MKG20050407112010204/07/05 11:20:31  5-MIN KMKG 071620Z 05015G20KT 10SM BKN027 11/03 A2997  580 58 300 050/15G20 RMK AO2
14840KMKG MKG20050407112510204/07/05 11:25:31  5-MIN KMKG 071625Z 04014G21KT 10SM BKN027 11/03 A2997  580 58 300 050/14G21 RMK AO2
14840KMKG MKG20050407113010204/07/05 11:30:31  5-MIN KMKG 071630Z 06013G21KT 10SM BKN027 12/03 A2998  580 56 400 060/13G21 RMK AO2
14840KMKG MKG20050407113510204/07/05 11:35:31  5-MIN KMKG 071635Z 04014G20KT 10SM SCT027 12/03 A2998  580 56 400 040/14G20 RMK AO2
14840KMKG MKG20050407114010204/07/05 11:40:31  5-MIN KMKG 071640Z 05014G21KT 10SM SCT027 12/03 A2997  580 54 400 050/14G21 RMK AO2
14840KMKG MKG20050407114510204/07/05 11:45:31  5-MIN KMKG 071645Z 04014G21KT 10SM SCT027 12/03 A2997  580 54 400 050/14G21 RMK AO2
14840KMKG MKG20050407115011304/07/05 11:50:31  5-MIN KMKG 071650Z 06015KT 10SM SCT027 12/03 A2997 580  54 400 070/15 RMK AO2 SLP150 T01220033
14840KMKG MKG20050407115511904/07/05 11:55:31  5-MIN KMKG 071655Z 05014G19KT 10SM SCT027 13/03 A2997  580 52 500 050/14G19 RMK AO2 SLP150 T01280033
14840KMKG MKG20050407120009604/07/05 12:00:31  5-MIN KMKG 071700Z 03009KT 10SM SCT027 13/03 A2997 580  52 500 040/09 RMK AO2
14840KMKG MKG20050407120509604/07/05 12:05:31  5-MIN KMKG 071705Z 04011KT 10SM SCT027 13/04 A2997 580  52 600 050/11 RMK AO2
14840KMKG MKG20050407121010204/07/05 12:10:31  5-MIN KMKG 071710Z 04013G18KT 10SM SCT027 13/04 A2997  580 52 600 040/13G18 RMK AO2
14840KMKG MKG20050407121510204/07/05 12:15:31  5-MIN KMKG 071715Z 03016G19KT 10SM SCT027 13/03 A2997  590 52 500 030/16G19 RMK AO2
14840KMKG MKG20050407122010204/07/05 12:20:31  5-MIN KMKG 071720Z 04010G19KT 10SM SCT027 13/03 A2997  580 52 500 040/10G19 RMK AO2
14840KMKG MKG20050407122510204/07/05 12:25:31  5-MIN KMKG 071725Z 03012G16KT 10SM SCT027 14/04 A2997  580 50 600 040/12G16 RMK AO2
14840KMKG MKG20050407123010204/07/05 12:30:31  5-MIN KMKG 071730Z 03013G16KT 10SM FEW032 13/03 A2997  580 50 600 040/13G16 RMK AO2
14840KMKG MKG20050407123510204/07/05 12:35:31  5-MIN KMKG 071735Z 04014G22KT 10SM FEW032 14/03 A2997  580 48 600 040/14G22 RMK AO2
14840KMKG MKG20050407124010204/07/05 12:40:31  5-MIN KMKG 071740Z 05013G22KT 10SM FEW032 13/03 A2997  580 50 600 050/13G22 RMK AO2
14840KMKG MKG20050407124510204/07/05 12:45:31  5-MIN KMKG 071745Z 05013G19KT 10SM FEW032 14/03 A2997  580 48 600 050/13G19 RMK AO2
14840KMKG MKG20050407125013704/07/05 12:50:31  5-MIN KMKG 071750Z 04014G19KT 10SM FEW032 14/04 A2997  590 49 700 040/14G19 RMK AO2 SLP150 T01440039 10144 20050 51011
14840KMKG MKG20050407125513704/07/05 12:55:31  5-MIN KMKG 071755Z 06012G19KT 10SM FEW032 14/03 A2997  580 48 600 060/12G19 RMK AO2 SLP151 T01390033 10144 20050 50000
14840KMKG MKG20050407130011204/07/05 13:00:31  5-MIN KMKG 071800Z 04010KT 010V070 10SM FEW032 14/04  A2997 590 49 700 040/10 010V070 RMK AO2
14840KMKG MKG20050407130509604/07/05 13:05:31  5-MIN KMKG 071805Z 04011KT 10SM FEW032 15/04 A2997 590  47 800 040/11 RMK AO2
14840KMKG MKG20050407131010204/07/05 13:10:31  5-MIN KMKG 071810Z 02015G19KT 10SM FEW032 14/03 A2997  590 47 700 020/15G19 RMK AO2
14840KMKG MKG20050407131510204/07/05 13:15:31  5-MIN KMKG 071815Z 03013G19KT 10SM FEW032 14/03 A2997  590 47 700 030/13G19 RMK AO2
14840KMKG MKG20050407132010204/07/05 13:20:31  5-MIN KMKG 071820Z 03011G19KT 10SM FEW032 15/03 A2996  590 45 800 030/11G19 RMK AO2
14840KMKG MKG20050407132509604/07/05 13:25:31  5-MIN KMKG 071825Z 02012KT 10SM FEW032 15/03 A2996 590  45 800 020/12 RMK AO2
14840KMKG MKG20050407133009604/07/05 13:30:31  5-MIN KMKG 071830Z 02011KT 10SM FEW032 15/03 A2996 590  45 800 020/11 RMK AO2
14840KMKG MKG20050407133509604/07/05 13:35:31  5-MIN KMKG 071835Z 03010KT 10SM FEW032 15/03 A2996 590  45 800 030/10 RMK AO2
14840KMKG MKG20050407134011204/07/05 13:40:31  5-MIN KMKG 071840Z 05011KT 360V080 10SM FEW032 16/03  A2996 590 43 800 060/11 360V080 RMK AO2
14840KMKG MKG20050407134509604/07/05 13:45:31  5-MIN KMKG 071845Z 03012KT 10SM FEW032 16/03 A2996 590  43 800 030/12 RMK AO2
14840KMKG MKG20050407135012904/07/05 13:50:31  5-MIN KMKG 071850Z 03013KT 350V060 10SM FEW032 16/03  A2996 590 43 800 040/13 350V060 RMK AO2 SLP148 T01560033
14840KMKG MKG20050407135511304/07/05 13:55:31  5-MIN KMKG 071855Z 05010KT 10SM FEW032 16/03 A2996 590  42 800 050/10 RMK AO2 SLP148 T01560028
14840KMKG MKG20050407140010304/07/05 14:00:31  5-MIN KMKG 071900Z 03012G16KT 10SM FEW032 17/04 A2996  600 42 1000 040/12G16 RMK AO2
14840KMKG MKG20050407140510204/07/05 14:05:31  5-MIN KMKG 071905Z 02014G19KT 10SM FEW032 16/03 A2996  590 42 900 030/14G19 RMK AO2
14840KMKG MKG20050407141009604/07/05 14:10:31  5-MIN KMKG 071910Z 02011KT 10SM FEW032 16/03 A2995 600  40 900 020/11 RMK AO2
14840KMKG MKG20050407141510204/07/05 14:15:31  5-MIN KMKG 071915Z 03013G19KT 10SM FEW032 16/03 A2995  600 40 900 030/13G19 RMK AO2
14840KMKG MKG20050407142010204/07/05 14:20:31  5-MIN KMKG 071920Z 01014G19KT 10SM FEW032 16/03 A2995  600 40 900 020/14G19 RMK AO2
14840KMKG MKG20050407142509604/07/05 14:25:31  5-MIN KMKG 071925Z 01011KT 10SM FEW032 16/03 A2995 600  40 900 020/11 RMK AO2
14840KMKG MKG20050407143009604/07/05 14:30:31  5-MIN KMKG 071930Z 06012KT 10SM FEW032 16/03 A2995 600  40 900 070/12 RMK AO2
14840KMKG MKG20050407143510904/07/05 14:35:31  5-MIN KMKG 071935Z 04011KT 350V070 10SM CLR 17/03 A2994 610 39 1000 040/11 350V070 RMK AO2
14840KMKG MKG20050407144009404/07/05 14:40:31  5-MIN KMKG 071940Z 05012KT 10SM CLR 17/03 A2995 600 39  1000 060/12 RMK AO2
14840KMKG MKG20050407144509404/07/05 14:45:31  5-MIN KMKG 071945Z 04008KT 10SM CLR 17/03 A2995 610 39  1000 040/08 RMK AO2
14840KMKG MKG20050407145011104/07/05 14:50:31  5-MIN KMKG 071950Z 03010KT 10SM CLR 17/03 A2995 600 39  1000 040/10 RMK AO2 SLP143 T01720033
14840KMKG MKG20050407145511104/07/05 14:55:31  5-MIN KMKG 071955Z 03009KT 10SM CLR 17/03 A2995 610 37  1000 030/09 RMK AO2 SLP142 T01720028
14840KMKG MKG20050407150009404/07/05 15:00:31  5-MIN KMKG 072000Z 01011KT 10SM CLR 17/03 A2995 610 37  1000 010/11 RMK AO2
14840KMKG MKG20050407150509404/07/05 15:05:31  5-MIN KMKG 072005Z 02012KT 10SM CLR 17/03 A2995 610 37  1000 020/12 RMK AO2
14840KMKG MKG20050407151009404/07/05 15:10:31  5-MIN KMKG 072010Z 02010KT 10SM CLR 17/03 A2994 610 37  1000 020/10 RMK AO2
14840KMKG MKG20050407151509404/07/05 15:15:31  5-MIN KMKG 072015Z 02011KT 10SM CLR 17/02 A2994 610 36  1100 020/11 RMK AO2
14840KMKG MKG20050407152009404/07/05 15:20:31  5-MIN KMKG 072020Z 02012KT 10SM CLR 17/02 A2994 610 36  1100 020/12 RMK AO2
14840KMKG MKG20050407152509404/07/05 15:25:31  5-MIN KMKG 072025Z 36010KT 10SM CLR 18/03 A2994 610 36  1100 010/10 RMK AO2
14840KMKG MKG20050407153010004/07/05 15:30:31  5-MIN KMKG 072030Z 01011G16KT 10SM CLR 17/03 A2994 610  37 1100 010/11G16 RMK AO2
14840KMKG MKG20050407153510004/07/05 15:35:31  5-MIN KMKG 072035Z 03009G16KT 10SM CLR 18/03 A2994 610  36 1100 030/09G16 RMK AO2
14840KMKG MKG20050407154010904/07/05 15:40:31  5-MIN KMKG 072040Z 05008KT 020V080 10SM CLR 18/02 A2994 610 35 1100 050/08 020V080 RMK AO2
14840KMKG MKG20050407154510004/07/05 15:45:31  5-MIN KMKG 072045Z 02011G16KT 10SM CLR 17/02 A2994 610  36 1100 020/11G16 RMK AO2
14840KMKG MKG20050407155012304/07/05 15:50:31  5-MIN KMKG 072050Z 03011G16KT 10SM CLR 17/02 A2995 610  36 1000 030/11G16 RMK AO2 SLP142 T01720022 50000
14840KMKG MKG20050407155511704/07/05 15:55:31  5-MIN KMKG 072055Z 05007KT 10SM CLR 18/02 A2994 610 35  1100 060/07 RMK AO2 SLP141 T01780022 56009
14840KMKG MKG20050407160009404/07/05 16:00:31  5-MIN KMKG 072100Z 05005KT 10SM CLR 17/02 A2994 610 36  1100 050/05 RMK AO2
14840KMKG MKG20050407160510004/07/05 16:05:31  5-MIN KMKG 072105Z 05012G17KT 10SM CLR 18/02 A2994 610  35 1100 060/12G17 RMK AO2
14840KMKG MKG20050407161010004/07/05 16:10:31  5-MIN KMKG 072110Z 36006G17KT 10SM CLR 18/02 A2994 610  35 1100 010/06G17 RMK AO2
14840KMKG MKG20050407161509404/07/05 16:15:31  5-MIN KMKG 072115Z 04007KT 10SM CLR 18/02 A2994 610 33  1100 040/07 RMK AO2
14840KMKG MKG20050407162009404/07/05 16:20:31  5-MIN KMKG 072120Z 04010KT 10SM CLR 18/02 A2994 610 33  1100 040/10 RMK AO2
14840KMKG MKG20050407162509404/07/05 16:25:31  5-MIN KMKG 072125Z 03010KT 10SM CLR 18/02 A2994 610 33  1100 030/10 RMK AO2
14840KMKG MKG20050407163010004/07/05 16:30:31  5-MIN KMKG 072130Z 02012G16KT 10SM CLR 18/02 A2994 610  33 1100 030/12G16 RMK AO2
14840KMKG MKG20050407163510004/07/05 16:35:31  5-MIN KMKG 072135Z 04009G16KT 10SM CLR 18/02 A2994 610  33 1100 050/09G16 RMK AO2
14840KMKG MKG20050407164009404/07/05 16:40:31  5-MIN KMKG 072140Z 03010KT 10SM CLR 18/02 A2994 610 33  1100 030/10 RMK AO2
14840KMKG MKG20050407164509404/07/05 16:45:31  5-MIN KMKG 072145Z 01010KT 10SM CLR 18/02 A2994 610 33  1100 020/10 RMK AO2
14840KMKG MKG20050407165011104/07/05 16:50:31  5-MIN KMKG 072150Z 02008KT 10SM CLR 18/02 A2994 610 33  1100 020/08 RMK AO2 SLP141 T01780017
14840KMKG MKG20050407165511104/07/05 16:55:31  5-MIN KMKG 072155Z 05008KT 10SM CLR 17/02 A2994 610 35  1100 050/08 RMK AO2 SLP140 T01720017
14840KMKG MKG20050407170009404/07/05 17:00:31  5-MIN KMKG 072200Z 05007KT 10SM CLR 18/02 A2994 610 33  1100 050/07 RMK AO2
14840KMKG MKG20050407170509404/07/05 17:05:31  5-MIN KMKG 072205Z 03009KT 10SM CLR 18/02 A2994 610 33  1100 030/09 RMK AO2
14840KMKG MKG20050407171009404/07/05 17:10:31  5-MIN KMKG 072210Z 04007KT 10SM CLR 18/02 A2994 610 33  1100 040/07 RMK AO2
14840KMKG MKG20050407171509404/07/05 17:15:31  5-MIN KMKG 072215Z 07007KT 10SM CLR 17/01 A2994 610 33  1100 070/07 RMK AO2
14840KMKG MKG20050407172010904/07/05 17:20:31  5-MIN KMKG 072220Z 32009KT 300V030 10SM CLR 17/02 A2994 610 36 1100 320/09 300V030 RMK AO2
14840KMKG MKG20050407172509304/07/05 17:25:31  5-MIN KMKG 072225Z 32010KT 10SM CLR 16/04 A2994 610 44  900 320/10 RMK AO2
14840KMKG MKG20050407173009404/07/05 17:30:31  5-MIN KMKG 072230Z 33009KT 10SM CLR 17/04 A2994 610 42  1000 340/09 RMK AO2
14840KMKG MKG20050407173509304/07/05 17:35:31  5-MIN KMKG 072235Z 32008KT 10SM CLR 16/04 A2994 610 44  900 320/08 RMK AO2
14840KMKG MKG20050407174009304/07/05 17:40:31  5-MIN KMKG 072240Z 32010KT 10SM CLR 16/04 A2994 610 44  900 320/10 RMK AO2
14840KMKG MKG20050407174509304/07/05 17:45:31  5-MIN KMKG 072245Z 33011KT 10SM CLR 16/03 A2995 610 42  900 330/11 RMK AO2
14840KMKG MKG20050407175011004/07/05 17:50:31  5-MIN KMKG 072250Z 32010KT 10SM CLR 16/03 A2994 610 42  900 330/10 RMK AO2 SLP141 T01610033
14840KMKG MKG20050407175511004/07/05 17:55:31  5-MIN KMKG 072255Z 33010KT 10SM CLR 16/03 A2994 610 42  900 330/10 RMK AO2 SLP141 T01610033
14840KMKG MKG20050407180009304/07/05 18:00:31  5-MIN KMKG 072300Z 32009KT 10SM CLR 16/03 A2994 610 42  900 330/09 RMK AO2
14840KMKG MKG20050407180509304/07/05 18:05:31  5-MIN KMKG 072305Z 32010KT 10SM CLR 16/03 A2994 610 42  900 320/10 RMK AO2
14840KMKG MKG20050407181009304/07/05 18:10:31  5-MIN KMKG 072310Z 31008KT 10SM CLR 16/03 A2995 610 43  900 320/08 RMK AO2
14840KMKG MKG20050407181509304/07/05 18:15:31  5-MIN KMKG 072315Z 31008KT 10SM CLR 16/03 A2995 610 43  900 310/08 RMK AO2
14840KMKG MKG20050407182009304/07/05 18:20:31  5-MIN KMKG 072320Z 31009KT 10SM CLR 16/03 A2995 610 43  900 310/09 RMK AO2
14840KMKG MKG20050407182509304/07/05 18:25:31  5-MIN KMKG 072325Z 30008KT 10SM CLR 15/03 A2995 600 45  800 310/08 RMK AO2
14840KMKG MKG20050407183009304/07/05 18:30:31  5-MIN KMKG 072330Z 32009KT 10SM CLR 15/03 A2995 600 45  800 320/09 RMK AO2
14840KMKG MKG20050407183509304/07/05 18:35:31  5-MIN KMKG 072335Z 31008KT 10SM CLR 15/03 A2995 600 45  800 310/08 RMK AO2
14840KMKG MKG20050407184009304/07/05 18:40:31  5-MIN KMKG 072340Z 32009KT 10SM CLR 15/03 A2995 600 45  800 320/09 RMK AO2
14840KMKG MKG20050407184509304/07/05 18:45:31  5-MIN KMKG 072345Z 33009KT 10SM CLR 15/03 A2996 600 45  800 330/09 RMK AO2
14840KMKG MKG20050407185012804/07/05 18:50:31  5-MIN KMKG 072350Z 32008KT 10SM CLR 14/03 A2996 600 47  700 330/08 RMK AO2 SLP147 T01440033 10178 20139 56009
14840KMKG MKG20050407185512804/07/05 18:55:31  5-MIN KMKG 072355Z 33008KT 10SM CLR 14/03 A2996 600 47  700 330/08 RMK AO2 SLP147 T01440033 10178 20139 53005
14840KMKG MKG20050407190009304/07/05 19:00:31  5-MIN KMKG 080000Z 33009KT 10SM CLR 14/03 A2996 600 47  700 330/09 RMK AO2
14840KMKG MKG20050407190509304/07/05 19:05:31  5-MIN KMKG 080005Z 34009KT 10SM CLR 14/03 A2996 590 48  600 340/09 RMK AO2
14840KMKG MKG20050407191009304/07/05 19:10:31  5-MIN KMKG 080010Z 34009KT 10SM CLR 14/03 A2996 590 48  600 350/09 RMK AO2
14840KMKG MKG20050407191509304/07/05 19:15:31  5-MIN KMKG 080015Z 34009KT 10SM CLR 14/03 A2996 590 47  600 350/09 RMK AO2
14840KMKG MKG20050407192009304/07/05 19:20:31  5-MIN KMKG 080020Z 35009KT 10SM CLR 14/03 A2996 590 47  600 350/09 RMK AO2
14840KMKG MKG20050407192509304/07/05 19:25:31  5-MIN KMKG 080025Z 36009KT 10SM CLR 14/03 A2997 590 47  600 360/09 RMK AO2
14840KMKG MKG20050407193009304/07/05 19:30:31  5-MIN KMKG 080030Z 35007KT 10SM CLR 14/03 A2997 590 47  600 350/07 RMK AO2
14840KMKG MKG20050407193509304/07/05 19:35:31  5-MIN KMKG 080035Z 35008KT 10SM CLR 13/03 A2997 580 48  600 350/08 RMK AO2
14840KMKG MKG20050407194009304/07/05 19:40:31  5-MIN KMKG 080040Z 35008KT 10SM CLR 13/03 A2997 580 48  600 350/08 RMK AO2
14840KMKG MKG20050407194509304/07/05 19:45:31  5-MIN KMKG 080045Z 36008KT 10SM CLR 13/03 A2997 580 50  500 360/08 RMK AO2
14840KMKG MKG20050407195011004/07/05 19:50:31  5-MIN KMKG 080050Z 36008KT 10SM CLR 13/02 A2997 580 46  600 010/08 RMK AO2 SLP152 T01330022
14840KMKG MKG20050407195511004/07/05 19:55:31  5-MIN KMKG 080055Z 36009KT 10SM CLR 13/02 A2998 580 46  600 010/09 RMK AO2 SLP153 T01330022
14840KMKG MKG20050407200009304/07/05 20:00:31  5-MIN KMKG 080100Z 36009KT 10SM CLR 13/02 A2998 580 46  600 010/09 RMK AO2
14840KMKG MKG20050407200509304/07/05 20:05:31  5-MIN KMKG 080105Z 36008KT 10SM CLR 13/02 A2998 580 48  500 010/08 RMK AO2
14840KMKG MKG20050407201009304/07/05 20:10:31  5-MIN KMKG 080110Z 36007KT 10SM CLR 13/02 A2998 580 48  500 010/07 RMK AO2
14840KMKG MKG20050407201509304/07/05 20:15:31  5-MIN KMKG 080115Z 36009KT 10SM CLR 13/02 A2998 580 46  500 010/09 RMK AO2
14840KMKG MKG20050407202009304/07/05 20:20:31  5-MIN KMKG 080120Z 36008KT 10SM CLR 13/02 A2998 580 46  500 010/08 RMK AO2
14840KMKG MKG20050407202509304/07/05 20:25:31  5-MIN KMKG 080125Z 36007KT 10SM CLR 13/02 A2998 580 46  500 360/07 RMK AO2
14840KMKG MKG20050407203009304/07/05 20:30:31  5-MIN KMKG 080130Z 01009KT 10SM CLR 12/01 A2998 570 46  400 020/09 RMK AO2
14840KMKG MKG20050407203509304/07/05 20:35:31  5-MIN KMKG 080135Z 01008KT 10SM CLR 12/01 A2998 570 46  400 010/08 RMK AO2
14840KMKG MKG20050407204009304/07/05 20:40:31  5-MIN KMKG 080140Z 01008KT 10SM CLR 12/01 A2999 570 44  400 010/08 RMK AO2
14840KMKG MKG20050407204509304/07/05 20:45:31  5-MIN KMKG 080145Z 01009KT 10SM CLR 12/01 A2999 570 44  400 010/09 RMK AO2
14840KMKG MKG20050407205011004/07/05 20:50:31  5-MIN KMKG 080150Z 01008KT 10SM CLR 12/01 A2999 560 46  300 010/08 RMK AO2 SLP158 T01170006
14840KMKG MKG20050407205511004/07/05 20:55:31  5-MIN KMKG 080155Z 01009KT 10SM CLR 12/00 A2999 570 44  300 010/09 RMK AO2 SLP158 T01170000
14840KMKG MKG20050407210009304/07/05 21:00:31  5-MIN KMKG 080200Z 01007KT 10SM CLR 12/00 A2999 560 43  400 020/07 RMK AO2
14840KMKG MKG20050407210509304/07/05 21:05:31  5-MIN KMKG 080205Z 01008KT 10SM CLR 12/00 A2999 560 44  300 010/08 RMK AO2
14840KMKG MKG20050407211009304/07/05 21:10:31  5-MIN KMKG 080210Z 01009KT 10SM CLR 12/M01 A3000 560 42 300 020/09 RMK AO2
14840KMKG MKG20050407211509304/07/05 21:15:31  5-MIN KMKG 080215Z 01007KT 10SM CLR 12/M01 A3000 560 42 300 020/07 RMK AO2
14840KMKG MKG20050407212009304/07/05 21:20:31  5-MIN KMKG 080220Z 01011KT 10SM CLR 12/M01 A3000 560 42 300 010/11 RMK AO2
14840KMKG MKG20050407212509304/07/05 21:25:31  5-MIN KMKG 080225Z 01009KT 10SM CLR 12/M01 A3000 560 42 300 020/09 RMK AO2
14840KMKG MKG20050407213009304/07/05 21:30:31  5-MIN KMKG 080230Z 02007KT 10SM CLR 12/M01 A3000 560 42 300 020/07 RMK AO2
14840KMKG MKG20050407213509304/07/05 21:35:31  5-MIN KMKG 080235Z 02007KT 10SM CLR 11/M01 A3000 560 42 300 020/07 RMK AO2
14840KMKG MKG20050407214009304/07/05 21:40:31  5-MIN KMKG 080240Z 03007KT 10SM CLR 11/M01 A3000 560 42 300 030/07 RMK AO2
14840KMKG MKG20050407214509304/07/05 21:45:31  5-MIN KMKG 080245Z 03006KT 10SM CLR 11/M02 A3000 560 41 300 030/06 RMK AO2
14840KMKG MKG20050407215011604/07/05 21:50:31  5-MIN KMKG 080250Z 03006KT 10SM CLR 11/M02 A3000 550 41 300 040/06 RMK AO2 SLP162 T01111017 53005
14840KMKG MKG20050407215511604/07/05 21:55:31  5-MIN KMKG 080255Z 03006KT 10SM CLR 11/M02 A3000 560 41 300 040/06 RMK AO2 SLP162 T01111017 51015
14840KMKG MKG20050407220009304/07/05 22:00:31  5-MIN KMKG 080300Z 04006KT 10SM CLR 11/M02 A3000 560 39 300 040/06 RMK AO2
14840KMKG MKG20050407220509304/07/05 22:05:31  5-MIN KMKG 080305Z 04006KT 10SM CLR 11/M03 A3000 560 37 300 050/06 RMK AO2
14840KMKG MKG20050407221009304/07/05 22:10:31  5-MIN KMKG 080310Z 05006KT 10SM CLR 11/M03 A3000 560 39 200 060/06 RMK AO2
14840KMKG MKG20050407221509304/07/05 22:15:31  5-MIN KMKG 080315Z 06006KT 10SM CLR 11/M03 A3000 560 37 200 060/06 RMK AO2
14840KMKG MKG20050407222009304/07/05 22:20:31  5-MIN KMKG 080320Z 05006KT 10SM CLR 11/M03 A3000 560 37 200 060/06 RMK AO2
14840KMKG MKG20050407222509304/07/05 22:25:31  5-MIN KMKG 080325Z 05005KT 10SM CLR 10/M03 A3000 550 39 100 050/05 RMK AO2
14840KMKG MKG20050407223009304/07/05 22:30:31  5-MIN KMKG 080330Z 06005KT 10SM CLR 11/M04 A3000 550 36 200 060/05 RMK AO2
14840KMKG MKG20050407223509304/07/05 22:35:31  5-MIN KMKG 080335Z 05006KT 10SM CLR 10/M04 A3000 550 37 100 050/06 RMK AO2
14840KMKG MKG20050407224009304/07/05 22:40:31  5-MIN KMKG 080340Z 04005KT 10SM CLR 11/M04 A3000 550 36 200 050/05 RMK AO2
14840KMKG MKG20050407224509304/07/05 22:45:31  5-MIN KMKG 080345Z 04005KT 10SM CLR 10/M04 A3000 550 37 100 050/05 RMK AO2
14840KMKG MKG20050407225011004/07/05 22:50:31  5-MIN KMKG 080350Z 03005KT 10SM CLR 11/M04 A3000 550 34 200 030/05 RMK AO2 SLP162 T01061044
14840KMKG MKG20050407225511004/07/05 22:55:31  5-MIN KMKG 080355Z 04008KT 10SM CLR 11/M04 A3001 550 36 200 040/08 RMK AO2 SLP162 T01061039
14840KMKG MKG20050407230009304/07/05 23:00:31  5-MIN KMKG 080400Z 04006KT 10SM CLR 11/M04 A3001 550 36 200 040/06 RMK AO2
14840KMKG MKG20050407230509304/07/05 23:05:31  5-MIN KMKG 080405Z 04005KT 10SM CLR 11/M04 A3001 550 34 200 040/05 RMK AO2
14840KMKG MKG20050407231009304/07/05 23:10:31  5-MIN KMKG 080410Z 04005KT 10SM CLR 10/M04 A3001 550 36 100 050/05 RMK AO2
14840KMKG MKG20050407231509304/07/05 23:15:31  5-MIN KMKG 080415Z 04005KT 10SM CLR 10/M04 A3001 550 37 100 050/05 RMK AO2
14840KMKG MKG20050407232009304/07/05 23:20:31  5-MIN KMKG 080420Z 05007KT 10SM CLR 10/M04 A3001 550 37 100 060/07 RMK AO2
14840KMKG MKG20050407232509104/07/05 23:25:31  5-MIN KMKG 080425Z 05005KT 10SM CLR 09/M04 A3001 540 39 0 050/05 RMK AO2
14840KMKG MKG20050407233009104/07/05 23:30:31  5-MIN KMKG 080430Z 04005KT 10SM CLR 09/M04 A3002 540 39 0 040/05 RMK AO2
14840KMKG MKG20050407233509304/07/05 23:35:31  5-MIN KMKG 080435Z 04006KT 10SM CLR 10/M04 A3002 540 37 100 040/06 RMK AO2
14840KMKG MKG20050407234009104/07/05 23:40:31  5-MIN KMKG 080440Z 04005KT 10SM CLR 09/M04 A3002 540 39 0 050/05 RMK AO2
14840KMKG MKG20050407234509104/07/05 23:45:31  5-MIN KMKG 080445Z 04005KT 10SM CLR 09/M04 A3002 530 39 0 050/05 RMK AO2
14840KMKG MKG20050407235011804/07/05 23:50:31  5-MIN KMKG 080450Z 05006KT 10SM CLR 09/M04 A3002 540 39 0 050/06 RMK AO2 SLP167 T00941039 401780050
14840KMKG MKG20050407235511804/07/05 23:55:31  5-MIN KMKG 080455Z 05006KT 10SM CLR 09/M04 A3002 540 40 0 050/06 RMK AO2 SLP167 T00891039 401780050
14840KMKG MKG20050408000009104/08/05 00:00:32  5-MIN KMKG 080500Z 06005KT 10SM CLR 09/M04 A3002 540 40 0 060/05 RMK AO2
14840KMKG MKG20050408000509404/08/05 00:05:31  5-MIN KMKG 080505Z 07005KT 10SM CLR 08/M04 A3002 540 43 -100 070/05 RMK AO2
14840KMKG MKG20050408001009404/08/05 00:10:31  5-MIN KMKG 080510Z 07005KT 10SM CLR 08/M04 A3003 530 42 -100 080/05 RMK AO2
14840KMKG MKG20050408001509404/08/05 00:15:31  5-MIN KMKG 080515Z 09004KT 10SM CLR 08/M04 A3003 530 42 -100 090/04 RMK AO2
14840KMKG MKG20050408002009404/08/05 00:20:31  5-MIN KMKG 080520Z 11003KT 10SM CLR 07/M04 A3003 530 45 -200 110/03 RMK AO2
14840KMKG MKG20050408002509404/08/05 00:25:31  5-MIN KMKG 080525Z 10003KT 10SM CLR 08/M04 A3003 530 43 -100 110/03 RMK AO2
14840KMKG MKG20050408003009404/08/05 00:30:31  5-MIN KMKG 080530Z 08003KT 10SM CLR 08/M04 A3003 530 43 -100 080/03 RMK AO2
14840KMKG MKG20050408003509404/08/05 00:35:31  5-MIN KMKG 080535Z 05003KT 10SM CLR 08/M04 A3003 530 43 -100 050/03 RMK AO2
14840KMKG MKG20050408004009404/08/05 00:40:31  5-MIN KMKG 080540Z 00000KT 10SM CLR 07/M03 A3003 520 49 -300 000/00 RMK AO2
14840KMKG MKG20050408004509404/08/05 00:45:31  5-MIN KMKG 080545Z 06003KT 10SM CLR 08/M04 A3003 530 43 -100 060/03 RMK AO2
14840KMKG MKG20050408005012904/08/05 00:50:31  5-MIN KMKG 080550Z 00000KT 10SM CLR 08/M04 A3003 530 43 -100 000/00 RMK AO2 SLP171 T00781039 10144 20067 51015
14840KMKG MKG20050408005512904/08/05 00:55:31  5-MIN KMKG 080555Z 05003KT 10SM CLR 08/M04 A3003 530 43 -100 050/03 RMK AO2 SLP171 T00781039 10144 20067 53010
14840KMKG MKG20050408010009404/08/05 01:00:31  5-MIN KMKG 080600Z 04003KT 10SM CLR 08/M04 A3003 530 43 -100 050/03 RMK AO2
14840KMKG MKG20050408010509404/08/05 01:05:31  5-MIN KMKG 080605Z 04003KT 10SM CLR 08/M04 A3003 530 43 -100 040/03 RMK AO2
14840KMKG MKG20050408011009404/08/05 01:10:31  5-MIN KMKG 080610Z 04004KT 10SM CLR 08/M03 A3003 530 45 -100 040/04 RMK AO2
14840KMKG MKG20050408011509404/08/05 01:15:31  5-MIN KMKG 080615Z 04004KT 10SM CLR 07/M03 A3003 530 47 -200 050/04 RMK AO2
14840KMKG MKG20050408012009404/08/05 01:20:31  5-MIN KMKG 080620Z 04004KT 10SM CLR 07/M03 A3003 530 47 -200 050/04 RMK AO2
14840KMKG MKG20050408012509404/08/05 01:25:31  5-MIN KMKG 080625Z 05005KT 10SM CLR 07/M03 A3003 530 49 -200 060/05 RMK AO2
14840KMKG MKG20050408013009404/08/05 01:30:31  5-MIN KMKG 080630Z 05004KT 10SM CLR 07/M03 A3003 530 49 -200 060/04 RMK AO2
14840KMKG MKG20050408013509404/08/05 01:35:31  5-MIN KMKG 080635Z 05005KT 10SM CLR 07/M03 A3003 530 49 -300 060/05 RMK AO2
14840KMKG MKG20050408014009404/08/05 01:40:31  5-MIN KMKG 080640Z 04005KT 10SM CLR 07/M03 A3003 530 49 -300 050/05 RMK AO2
14840KMKG MKG20050408014509404/08/05 01:45:31  5-MIN KMKG 080645Z 05004KT 10SM CLR 07/M03 A3003 530 49 -200 060/04 RMK AO2
14840KMKG MKG20050408015011104/08/05 01:50:31  5-MIN KMKG 080650Z 05004KT 10SM CLR 07/M03 A3003 530 47 -200 050/04 RMK AO2 SLP170 T00721033
14840KMKG MKG20050408015511104/08/05 01:55:31  5-MIN KMKG 080655Z 05005KT 10SM CLR 07/M03 A3003 530 47 -200 050/05 RMK AO2 SLP169 T00721033
14840KMKG MKG20050408020009404/08/05 02:00:31  5-MIN KMKG 080700Z 04005KT 10SM CLR 07/M03 A3003 530 51 -300 050/05 RMK AO2
14840KMKG MKG20050408020509404/08/05 02:05:31  5-MIN KMKG 080705Z 04004KT 10SM CLR 07/M02 A3003 530 53 -300 040/04 RMK AO2
14840KMKG MKG20050408021009404/08/05 02:10:31  5-MIN KMKG 080710Z 04003KT 10SM CLR 07/M03 A3003 530 51 -300 040/03 RMK AO2
14840KMKG MKG20050408021509404/08/05 02:15:31  5-MIN KMKG 080715Z 04003KT 10SM CLR 07/M03 A3003 530 51 -300 040/03 RMK AO2
14840KMKG MKG20050408022009404/08/05 02:20:31  5-MIN KMKG 080720Z 00000KT 10SM CLR 07/M03 A3003 530 51 -300 000/00 RMK AO2
14840KMKG MKG20050408022509404/08/05 02:25:31  5-MIN KMKG 080725Z 05003KT 10SM CLR 07/M03 A3003 530 49 -200 050/03 RMK AO2
14840KMKG MKG20050408023009404/08/05 02:30:31  5-MIN KMKG 080730Z 04003KT 10SM CLR 07/M03 A3003 530 51 -300 050/03 RMK AO2
14840KMKG MKG20050408023509404/08/05 02:35:31  5-MIN KMKG 080735Z 00000KT 10SM CLR 06/M03 A3003 530 55 -400 000/00 RMK AO2
14840KMKG MKG20050408024009404/08/05 02:40:31  5-MIN KMKG 080740Z 00000KT 10SM CLR 04/M03 A3004 520 59 -500 000/00 RMK AO2
14840KMKG MKG20050408024509404/08/05 02:45:31  5-MIN KMKG 080745Z 00000KT 10SM CLR 05/M03 A3004 520 57 -500 000/00 RMK AO2
14840KMKG MKG20050408025011104/08/05 02:50:31  5-MIN KMKG 080750Z 00000KT 10SM CLR 05/M03 A3004 520 57 -500 000/00 RMK AO2 SLP173 T00501028
14840KMKG MKG20050408025511104/08/05 02:55:31  5-MIN KMKG 080755Z 00000KT 10SM CLR 06/M03 A3004 520 55 -400 000/00 RMK AO2 SLP174 T00561028
14840KMKG MKG20050408030009404/08/05 03:00:31  5-MIN KMKG 080800Z 36004KT 10SM CLR 06/M02 A3004 520 57 -400 360/04 RMK AO2
14840KMKG MKG20050408030509404/08/05 03:05:31  5-MIN KMKG 080805Z 36004KT 10SM CLR 06/M02 A3004 520 57 -400 360/04 RMK AO2
14840KMKG MKG20050408031009404/08/05 03:10:31  5-MIN KMKG 080810Z 36003KT 10SM CLR 04/M02 A3004 520 64 -500 010/03 RMK AO2
14840KMKG MKG20050408031509404/08/05 03:15:31  5-MIN KMKG 080815Z 00000KT 10SM CLR 05/M02 A3004 520 62 -500 000/00 RMK AO2
14840KMKG MKG20050408032009404/08/05 03:20:31  5-MIN KMKG 080820Z 00000KT 10SM CLR 06/M01 A3004 520 60 -300 000/00 RMK AO2
14840KMKG MKG20050408032509404/08/05 03:25:31  5-MIN KMKG 080825Z 34003KT 10SM CLR 05/M02 A3004 520 62 -500 350/03 RMK AO2
14840KMKG MKG20050408033009404/08/05 03:30:31  5-MIN KMKG 080830Z 35004KT 10SM CLR 06/M01 A3004 520 62 -400 350/04 RMK AO2
14840KMKG MKG20050408033509404/08/05 03:35:31  5-MIN KMKG 080835Z 36004KT 10SM CLR 06/M01 A3004 520 62 -400 010/04 RMK AO2
14840KMKG MKG20050408034009404/08/05 03:40:31  5-MIN KMKG 080840Z 35003KT 10SM CLR 06/M02 A3004 520 59 -400 360/03 RMK AO2
14840KMKG MKG20050408034509404/08/05 03:45:31  5-MIN KMKG 080845Z 35003KT 10SM CLR 05/M02 A3004 520 62 -500 360/03 RMK AO2
14840KMKG MKG20050408035011704/08/05 03:50:31  5-MIN KMKG 080850Z 35003KT 10SM CLR 05/M02 A3005 510 62 -500 350/03 RMK AO2 SLP176 T00501017 53010
14840KMKG MKG20050408035511704/08/05 03:55:31  5-MIN KMKG 080855Z 36003KT 10SM CLR 05/M02 A3005 510 62 -500 360/03 RMK AO2 SLP176 T00501017 53005
14840KMKG MKG20050408040009404/08/05 04:00:31  5-MIN KMKG 080900Z 36003KT 10SM CLR 05/M02 A3005 510 62 -500 360/03 RMK AO2
14840KMKG MKG20050408040509404/08/05 04:05:31  5-MIN KMKG 080905Z 34003KT 10SM CLR 06/M02 A3005 510 59 -400 350/03 RMK AO2
14840KMKG MKG20050408041009404/08/05 04:10:31  5-MIN KMKG 080910Z 35003KT 10SM CLR 05/M02 A3005 510 62 -500 350/03 RMK AO2
14840KMKG MKG20050408041509404/08/05 04:15:31  5-MIN KMKG 080915Z 35003KT 10SM CLR 04/M02 A3005 510 64 -600 350/03 RMK AO2
14840KMKG MKG20050408042009404/08/05 04:20:31  5-MIN KMKG 080920Z 00000KT 10SM CLR 04/M02 A3005 510 64 -600 000/00 RMK AO2
14840KMKG MKG20050408042509404/08/05 04:25:31  5-MIN KMKG 080925Z 00000KT 10SM CLR 05/M02 A3005 510 62 -500 000/00 RMK AO2
14840KMKG MKG20050408043009404/08/05 04:30:31  5-MIN KMKG 080930Z 00000KT 10SM CLR 04/M02 A3006 510 64 -600 000/00 RMK AO2
14840KMKG MKG20050408043509404/08/05 04:35:31  5-MIN KMKG 080935Z 00000KT 10SM CLR 04/M02 A3006 500 64 -600 000/00 RMK AO2
14840KMKG MKG20050408044009404/08/05 04:40:31  5-MIN KMKG 080940Z 00000KT 10SM CLR 04/M02 A3006 500 64 -600 000/00 RMK AO2
14840KMKG MKG20050408044509404/08/05 04:45:31  5-MIN KMKG 080945Z 00000KT 10SM CLR 05/M02 A3006 500 62 -500 000/00 RMK AO2
14840KMKG MKG20050408045011104/08/05 04:50:31  5-MIN KMKG 080950Z 00000KT 10SM CLR 04/M01 A3006 500 67 -600 000/00 RMK AO2 SLP180 T00441011
14840KMKG MKG20050408045511104/08/05 04:55:31  5-MIN KMKG 080955Z 00000KT 10SM CLR 04/M01 A3006 500 67 -600 000/00 RMK AO2 SLP180 T00441011
14840KMKG MKG20050408050009404/08/05 05:00:31  5-MIN KMKG 081000Z 00000KT 10SM CLR 04/M02 A3006 500 64 -600 000/00 RMK AO2
14840KMKG MKG20050408050509404/08/05 05:05:31  5-MIN KMKG 081005Z 00000KT 10SM CLR 04/M02 A3006 500 64 -600 000/00 RMK AO2
14840KMKG MKG20050408051009404/08/05 05:10:31  5-MIN KMKG 081010Z 00000KT 10SM CLR 04/M02 A3006 500 64 -600 000/00 RMK AO2
14840KMKG MKG20050408051509404/08/05 05:15:31  5-MIN KMKG 081015Z 00000KT 10SM CLR 04/M01 A3006 500 67 -600 000/00 RMK AO2
14840KMKG MKG20050408052009404/08/05 05:20:31  5-MIN KMKG 081020Z 00000KT 10SM CLR 05/M01 A3006 500 67 -500 000/00 RMK AO2
14840KMKG MKG20050408052509404/08/05 05:25:31  5-MIN KMKG 081025Z 00000KT 10SM CLR 04/M01 A3006 500 70 -600 000/00 RMK AO2
14840KMKG MKG20050408053009404/08/05 05:30:31  5-MIN KMKG 081030Z 00000KT 10SM CLR 04/M01 A3006 500 70 -600 000/00 RMK AO2
14840KMKG MKG20050408053509404/08/05 05:35:31  5-MIN KMKG 081035Z 00000KT 10SM CLR 03/M01 A3007 500 72 -700 000/00 RMK AO2
14840KMKG MKG20050408054009404/08/05 05:40:31  5-MIN KMKG 081040Z 00000KT 10SM CLR 03/M01 A3007 490 72 -700 000/00 RMK AO2
14840KMKG MKG20050408054509404/08/05 05:45:31  5-MIN KMKG 081045Z 33003KT 10SM CLR 03/M01 A3007 490 72 -700 340/03 RMK AO2
14840KMKG MKG20050408055011104/08/05 05:50:31  5-MIN KMKG 081050Z 35003KT 10SM CLR 04/M01 A3007 490 70 -600 350/03 RMK AO2 SLP185 T00391011
14840KMKG MKG20050408055511104/08/05 05:55:31  5-MIN KMKG 081055Z 36003KT 10SM CLR 03/M01 A3007 490 72 -700 010/03 RMK AO2 SLP185 T00331011
14840KMKG MKG20050408060009404/08/05 06:00:31  5-MIN KMKG 081100Z 01004KT 10SM CLR 04/M01 A3007 490 70 -600 010/04 RMK AO2
14840KMKG MKG20050408060509404/08/05 06:05:31  5-MIN KMKG 081105Z 02003KT 10SM CLR 03/M01 A3007 490 72 -700 030/03 RMK AO2
14840KMKG MKG20050408061009404/08/05 06:10:31  5-MIN KMKG 081110Z 00000KT 10SM CLR 03/M01 A3007 490 72 -700 000/00 RMK AO2
14840KMKG MKG20050408061509404/08/05 06:15:31  5-MIN KMKG 081115Z 00000KT 10SM CLR 03/M01 A3008 490 76 -700 000/00 RMK AO2
14840KMKG MKG20050408062009404/08/05 06:20:31  5-MIN KMKG 081120Z 00000KT 10SM CLR 03/M01 A3008 480 76 -700 000/00 RMK AO2
14840KMKG MKG20050408062509404/08/05 06:25:31  5-MIN KMKG 081125Z 00000KT 10SM CLR 03/M01 A3008 480 76 -700 000/00 RMK AO2
14840KMKG MKG20050408063009404/08/05 06:30:31  5-MIN KMKG 081130Z 00000KT 10SM CLR 03/M01 A3008 480 72 -700 000/00 RMK AO2
14840KMKG MKG20050408063509404/08/05 06:35:31  5-MIN KMKG 081135Z 00000KT 10SM CLR 03/M01 A3009 480 72 -700 000/00 RMK AO2
14840KMKG MKG20050408064009404/08/05 06:40:31  5-MIN KMKG 081140Z 00000KT 10SM CLR 04/M01 A3009 480 70 -700 000/00 RMK AO2
14840KMKG MKG20050408064509404/08/05 06:45:31  5-MIN KMKG 081145Z 00000KT 10SM CLR 04/M01 A3009 470 67 -600 000/00 RMK AO2
14840KMKG MKG20050408065012904/08/05 06:50:31  5-MIN KMKG 081150Z 00000KT 10SM CLR 04/M01 A3009 470 67 -600 000/00 RMK AO2 SLP193 T00441011 10078 20028 53005
14840KMKG MKG20050408065512904/08/05 06:55:31  5-MIN KMKG 081155Z 00000KT 10SM CLR 05/M01 A3010 470 67 -500 000/00 RMK AO2 SLP194 T00501006 10078 20028 53016
14840KMKG MKG20050408070009404/08/05 07:00:31  5-MIN KMKG 081200Z 00000KT 10SM CLR 05/M01 A3010 470 67 -500 000/00 RMK AO2
14840KMKG MKG20050408070509404/08/05 07:05:31  5-MIN KMKG 081205Z 00000KT 10SM CLR 05/00 A3010 460 70  -500 000/00 RMK AO2
14840KMKG MKG20050408071009404/08/05 07:10:31  5-MIN KMKG 081210Z 00000KT 10SM CLR 06/00 A3010 460 67  -500 000/00 RMK AO2
14840KMKG MKG20050408071509404/08/05 07:15:31  5-MIN KMKG 081215Z 01004KT 10SM CLR 06/00 A3010 460 65  -400 020/04 RMK AO2
14840KMKG MKG20050408072009404/08/05 07:20:31  5-MIN KMKG 081220Z 01003KT 10SM CLR 06/00 A3010 460 65  -400 010/03 RMK AO2
14840KMKG MKG20050408072509404/08/05 07:25:31  5-MIN KMKG 081225Z 00000KT 10SM CLR 07/00 A3011 460 62  -300 000/00 RMK AO2
14840KMKG MKG20050408073009404/08/05 07:30:31  5-MIN KMKG 081230Z 00000KT 10SM CLR 07/M01 A3011 460 57 -300 000/00 RMK AO2
14840KMKG MKG20050408073509404/08/05 07:35:31  5-MIN KMKG 081235Z 00000KT 10SM CLR 07/00 A3011 450 60  -300 000/00 RMK AO2
14840KMKG MKG20050408074009404/08/05 07:40:31  5-MIN KMKG 081240Z 02003KT 10SM CLR 07/00 A3011 450 60  -300 020/03 RMK AO2
14840KMKG MKG20050408074509404/08/05 07:45:31  5-MIN KMKG 081245Z 03003KT 10SM CLR 08/M01 A3011 450 55 -200 030/03 RMK AO2
14840KMKG MKG20050408075011104/08/05 07:50:31  5-MIN KMKG 081250Z 03003KT 10SM CLR 08/M01 A3011 450 55 -200 030/03 RMK AO2 SLP200 T00781006
14840KMKG MKG20050408075511104/08/05 07:55:31  5-MIN KMKG 081255Z 02004KT 10SM CLR 08/00 A3011 450 55  -200 020/04 RMK AO2 SLP199 T00830000
14840KMKG MKG20050408080009404/08/05 08:00:31  5-MIN KMKG 081300Z 02004KT 10SM CLR 08/M01 A3012 450 53 -200 030/04 RMK AO2
14840KMKG MKG20050408080509404/08/05 08:05:31  5-MIN KMKG 081305Z 02004KT 10SM CLR 09/00 A3012 450 53  -100 030/04 RMK AO2
14840KMKG MKG20050408081009004/08/05 08:10:31  5-MIN KMKG 081310Z 04005KT 10SM CLR 09/00 A3012 450 51 0 050/05 RMK AO2
14840KMKG MKG20050408081509104/08/05 08:15:31  5-MIN KMKG 081315Z 03006KT 10SM CLR 09/M01 A3012 450 49 0 040/06 RMK AO2
14840KMKG MKG20050408082009104/08/05 08:20:31  5-MIN KMKG 081320Z 04006KT 10SM CLR 10/M01 A3012 450 47 0 040/06 RMK AO2
14840KMKG MKG20050408082509104/08/05 08:25:31  5-MIN KMKG 081325Z 04006KT 10SM CLR 10/M01 A3012 450 47 0 040/06 RMK AO2
14840KMKG MKG20050408083009104/08/05 08:30:31  5-MIN KMKG 081330Z 05006KT 10SM CLR 10/M01 A3012 450 46 0 050/06 RMK AO2
14840KMKG MKG20050408083509304/08/05 08:35:31  5-MIN KMKG 081335Z 05007KT 10SM CLR 11/M01 A3012 450 44 100 060/07 RMK AO2
14840KMKG MKG20050408084009304/08/05 08:40:31  5-MIN KMKG 081340Z 05007KT 10SM CLR 11/M02 A3012 450 41 100 050/07 RMK AO2
14840KMKG MKG20050408084509304/08/05 08:45:31  5-MIN KMKG 081345Z 05007KT 10SM CLR 11/M02 A3012 450 41 100 050/07 RMK AO2
14840KMKG MKG20050408085011004/08/05 08:50:31  5-MIN KMKG 081350Z 04007KT 10SM CLR 11/M02 A3012 450 41 100 040/07 RMK AO2 SLP201 T01111017
14840KMKG MKG20050408085511004/08/05 08:55:31  5-MIN KMKG 081355Z 05006KT 10SM CLR 12/M02 A3012 440 39 200 050/06 RMK AO2 SLP202 T01171017
14840KMKG MKG20050408090009304/08/05 09:00:31  5-MIN KMKG 081400Z 03007KT 10SM CLR 12/M02 A3012 440 39 200 040/07 RMK AO2
14840KMKG MKG20050408090509304/08/05 09:05:31  5-MIN KMKG 081405Z 04007KT 10SM CLR 12/M02 A3012 440 38 300 050/07 RMK AO2
14840KMKG MKG20050408091009304/08/05 09:10:31  5-MIN KMKG 081410Z 05004KT 10SM CLR 12/M02 A3012 440 38 300 050/04 RMK AO2
14840KMKG MKG20050408091509304/08/05 09:15:31  5-MIN KMKG 081415Z 06005KT 10SM CLR 12/M02 A3012 440 36 300 060/05 RMK AO2
14840KMKG MKG20050408092009304/08/05 09:20:31  5-MIN KMKG 081420Z 07007KT 10SM CLR 13/M03 A3013 440 33 300 070/07 RMK AO2
14840KMKG MKG20050408092509304/08/05 09:25:31  5-MIN KMKG 081425Z 07007KT 10SM CLR 12/M03 A3013 440 35 300 070/07 RMK AO2
14840KMKG MKG20050408093009304/08/05 09:30:31  5-MIN KMKG 081430Z 06006KT 10SM CLR 13/M02 A3012 440 35 300 060/06 RMK AO2
14840KMKG MKG20050408093509304/08/05 09:35:31  5-MIN KMKG 081435Z 05005KT 10SM CLR 13/M03 A3012 440 33 300 050/05 RMK AO2
14840KMKG MKG20050408094009304/08/05 09:40:31  5-MIN KMKG 081440Z 03006KT 10SM CLR 13/M03 A3013 440 31 400 030/06 RMK AO2
14840KMKG MKG20050408094509304/08/05 09:45:31  5-MIN KMKG 081445Z 04007KT 10SM CLR 13/M04 A3013 440 30 400 040/07 RMK AO2
14840KMKG MKG20050408095011604/08/05 09:50:31  5-MIN KMKG 081450Z 06007KT 10SM CLR 14/M03 A3013 440 30 500 060/07 RMK AO2 SLP204 T01391033 53016
14840KMKG MKG20050408095511604/08/05 09:55:31  5-MIN KMKG 081455Z 06007KT 10SM CLR 14/M03 A3013 440 30 400 070/07 RMK AO2 SLP204 T01391033 51011
14840KMKG MKG20050408100009304/08/05 10:00:31  5-MIN KMKG 081500Z 06009KT 10SM CLR 14/M03 A3013 440 30 500 060/09 RMK AO2
14840KMKG MKG20050408100509304/08/05 10:05:31  5-MIN KMKG 081505Z 07008KT 10SM CLR 14/M03 A3013 440 30 500 080/08 RMK AO2
14840KMKG MKG20050408101010904/08/05 10:10:31  5-MIN KMKG 081510Z 04008KT 010V070 10SM CLR 14/M03 A3013 440 30 500 050/08 010V070 RMK AO2
14840KMKG MKG20050408101509304/08/05 10:15:31  5-MIN KMKG 081515Z 04009KT 10SM CLR 14/M03 A3013 440 30 400 050/09 RMK AO2
14840KMKG MKG20050408102009304/08/05 10:20:31  5-MIN KMKG 081520Z 04009KT 10SM CLR 14/M04 A3013 440 28 500 040/09 RMK AO2
14840KMKG MKG20050408102509304/08/05 10:25:31  5-MIN KMKG 081525Z VRB05KT 10SM CLR 14/M04 A3013 440 29 400 VRB/05 RMK AO2
14840KMKG MKG20050408103009304/08/05 10:30:31  5-MIN KMKG 081530Z 01007KT 10SM CLR 14/M04 A3013 440 28 500 020/07 RMK AO2
14840KMKG MKG20050408103509304/08/05 10:35:31  5-MIN KMKG 081535Z 04009KT 10SM CLR 14/M04 A3013 440 28 500 040/09 RMK AO2
14840KMKG MKG20050408104009304/08/05 10:40:31  5-MIN KMKG 081540Z 05006KT 10SM CLR 14/M04 A3013 440 26 500 060/06 RMK AO2
14840KMKG MKG20050408104509304/08/05 10:45:31  5-MIN KMKG 081545Z VRB04KT 10SM CLR 14/M04 A3013 440 28 500 VRB/04 RMK AO2
14840KMKG MKG20050408105011004/08/05 10:50:31  5-MIN KMKG 081550Z VRB04KT 10SM CLR 14/M04 A3013 440 26 500 VRB/04 RMK AO2 SLP203 T01441044
14840KMKG MKG20050408105511004/08/05 10:55:31  5-MIN KMKG 081555Z VRB05KT 10SM CLR 15/M04 A3013 440 25 600 VRB/05 RMK AO2 SLP204 T01501044
14840KMKG MKG20050408110009304/08/05 11:00:31  5-MIN KMKG 081600Z 01007KT 10SM CLR 15/M03 A3013 440 28 600 020/07 RMK AO2
14840KMKG MKG20050408110510904/08/05 11:05:31  5-MIN KMKG 081605Z 04007KT 360V070 10SM CLR 15/M04 A3013 440 25 600 040/07 360V070 RMK AO2
14840KMKG MKG20050408111009304/08/05 11:10:31  5-MIN KMKG 081610Z 02009KT 10SM CLR 15/M04 A3013 440 25 600 030/09 RMK AO2
14840KMKG MKG20050408111509304/08/05 11:15:31  5-MIN KMKG 081615Z 05004KT 10SM CLR 15/M04 A3012 440 25 600 050/04 RMK AO2
14840KMKG MKG20050408112009304/08/05 11:20:31  5-MIN KMKG 081620Z 34006KT 10SM CLR 15/M04 A3012 440 25 600 340/06 RMK AO2
14840KMKG MKG20050408112509304/08/05 11:25:31  5-MIN KMKG 081625Z 35005KT 10SM CLR 15/M05 A3012 450 24 600 350/05 RMK AO2
14840KMKG MKG20050408113009304/08/05 11:30:31  5-MIN KMKG 081630Z VRB03KT 10SM CLR 16/M06 A3012 450 23 700 VRB/03 RMK AO2
14840KMKG MKG20050408113509304/08/05 11:35:31  5-MIN KMKG 081635Z 35008KT 10SM CLR 16/M06 A3012 450 23 700 350/08 RMK AO2
14840KMKG MKG20050408114009304/08/05 11:40:31  5-MIN KMKG 081640Z 35007KT 10SM CLR 16/M05 A3012 450 24 700 350/07 RMK AO2
14840KMKG MKG20050408114509304/08/05 11:45:31  5-MIN KMKG 081645Z VRB06KT 10SM CLR 16/M06 A3012 450 23 700 VRB/06 RMK AO2
14840KMKG MKG20050408115012604/08/05 11:50:31  5-MIN KMKG 081650Z 06007KT 030V100 10SM CLR 16/M06 A3012 450 22 700 060/07 030V100 RMK AO2 SLP200 T01611056
14840KMKG MKG20050408115511004/08/05 11:55:31  5-MIN KMKG 081655Z VRB06KT 10SM CLR 16/M06 A3011 450 23 700 VRB/06 RMK AO2 SLP199 T01561056
14840KMKG MKG20050408120010904/08/05 12:00:31  5-MIN KMKG 081700Z 03007KT 360V060 10SM CLR 17/M05 A3011 460 22 800 030/07 360V060 RMK AO2
14840KMKG MKG20050408120509304/08/05 12:05:31  5-MIN KMKG 081705Z VRB06KT 10SM CLR 17/M06 A3011 460 21 800 VRB/06 RMK AO2
14840KMKG MKG20050408121009304/08/05 12:10:31  5-MIN KMKG 081710Z VRB06KT 10SM CLR 16/M06 A3011 460 21 700 VRB/06 RMK AO2
14840KMKG MKG20050408121509304/08/05 12:15:31  5-MIN KMKG 081715Z 02009KT 10SM CLR 17/M06 A3011 460 20 800 020/09 RMK AO2
14840KMKG MKG20050408122009304/08/05 12:20:31  5-MIN KMKG 081720Z 36010KT 10SM CLR 17/M06 A3011 460 21 800 010/10 RMK AO2
14840KMKG MKG20050408122509304/08/05 12:25:31  5-MIN KMKG 081725Z 04007KT 10SM CLR 17/M06 A3011 460 21 800 050/07 RMK AO2
14840KMKG MKG20050408123009304/08/05 12:30:31  5-MIN KMKG 081730Z VRB05KT 10SM CLR 16/M06 A3010 460 21 700 VRB/05 RMK AO2
14840KMKG MKG20050408123509304/08/05 12:35:31  5-MIN KMKG 081735Z 32007KT 10SM CLR 17/M07 A3010 460 19 800 330/07 RMK AO2
14840KMKG MKG20050408124009304/08/05 12:40:31  5-MIN KMKG 081740Z 04009KT 10SM CLR 17/M06 A3010 460 20 900 040/09 RMK AO2
14840KMKG MKG20050408124509304/08/05 12:45:31  5-MIN KMKG 081745Z 00000KT 10SM CLR 16/M06 A3010 460 21 700 000/00 RMK AO2
14840KMKG MKG20050408125012804/08/05 12:50:31  5-MIN KMKG 081750Z VRB04KT 10SM CLR 17/M06 A3010 470 21 800 VRB/04 RMK AO2 SLP194 T01671056 10172 20050 51011
14840KMKG MKG20050408125512804/08/05 12:55:31  5-MIN KMKG 081755Z VRB04KT 10SM CLR 17/M06 A3010 470 19 900 VRB/04 RMK AO2 SLP194 T01721061 10172 20050 58010
14840KMKG MKG20050408130009304/08/05 13:00:31  5-MIN KMKG 081800Z 10005KT 10SM CLR 17/M05 A3010 470 22 800 110/05 RMK AO2
14840KMKG MKG20050408130509304/08/05 13:05:31  5-MIN KMKG 081805Z VRB05KT 10SM CLR 17/M04 A3009 470 24 800 VRB/05 RMK AO2
14840KMKG MKG20050408131009304/08/05 13:10:31  5-MIN KMKG 081810Z 30008KT 10SM CLR 16/M03 A3009 470 27 800 300/08 RMK AO2
14840KMKG MKG20050408131509304/08/05 13:15:31  5-MIN KMKG 081815Z 31009KT 10SM CLR 16/M02 A3009 470 29 800 310/09 RMK AO2
14840KMKG MKG20050408132009304/08/05 13:20:31  5-MIN KMKG 081820Z 30010KT 10SM CLR 16/M02 A3009 470 28 800 310/10 RMK AO2
14840KMKG MKG20050408132509304/08/05 13:25:31  5-MIN KMKG 081825Z 30010KT 10SM CLR 16/M02 A3009 470 29 800 300/10 RMK AO2
14840KMKG MKG20050408133009304/08/05 13:30:31  5-MIN KMKG 081830Z 31010KT 10SM CLR 16/M02 A3009 480 30 700 310/10 RMK AO2
14840KMKG MKG20050408133509304/08/05 13:35:31  5-MIN KMKG 081835Z 29011KT 10SM CLR 16/M02 A3009 470 30 700 300/11 RMK AO2
14840KMKG MKG20050408134009304/08/05 13:40:31  5-MIN KMKG 081840Z 33010KT 10SM CLR 16/M02 A3009 470 28 800 330/10 RMK AO2
14840KMKG MKG20050408134509304/08/05 13:45:31  5-MIN KMKG 081845Z 32011KT 10SM CLR 16/M03 A3009 470 28 700 330/11 RMK AO2
14840KMKG MKG20050408135011004/08/05 13:50:31  5-MIN KMKG 081850Z 31009KT 10SM CLR 16/M03 A3009 480 28 700 310/09 RMK AO2 SLP190 T01561028
14840KMKG MKG20050408135511004/08/05 13:55:31  5-MIN KMKG 081855Z 29009KT 10SM CLR 15/M03 A3009 480 29 600 300/09 RMK AO2 SLP190 T01501028
14840KMKG MKG20050408140009304/08/05 14:00:31  5-MIN KMKG 081900Z 29009KT 10SM CLR 16/M03 A3009 480 28 700 290/09 RMK AO2
14840KMKG MKG20050408140509304/08/05 14:05:31  5-MIN KMKG 081905Z 33010KT 10SM CLR 16/M02 A3009 480 29 800 330/10 RMK AO2
14840KMKG MKG20050408141009304/08/05 14:10:31  5-MIN KMKG 081910Z 32009KT 10SM CLR 16/M03 A3008 480 28 700 320/09 RMK AO2
14840KMKG MKG20050408141509304/08/05 14:15:31  5-MIN KMKG 081915Z 32011KT 10SM CLR 16/M03 A3008 480 28 700 330/11 RMK AO2
14840KMKG MKG20050408142009304/08/05 14:20:31  5-MIN KMKG 081920Z 32011KT 10SM CLR 16/M03 A3008 480 28 700 330/11 RMK AO2
14840KMKG MKG20050408142509304/08/05 14:25:31  5-MIN KMKG 081925Z 30010KT 10SM CLR 16/M02 A3008 490 29 700 310/10 RMK AO2
14840KMKG MKG20050408143009304/08/05 14:30:31  5-MIN KMKG 081930Z 30009KT 10SM CLR 16/M03 A3008 490 28 700 310/09 RMK AO2
14840KMKG MKG20050408143509304/08/05 14:35:31  5-MIN KMKG 081935Z 31009KT 10SM CLR 16/M03 A3007 490 28 700 310/09 RMK AO2
14840KMKG MKG20050408144009304/08/05 14:40:31  5-MIN KMKG 081940Z 31010KT 10SM CLR 16/M03 A3007 490 28 700 310/10 RMK AO2
14840KMKG MKG20050408144509304/08/05 14:45:31  5-MIN KMKG 081945Z 31009KT 10SM CLR 16/M03 A3007 490 27 700 320/09 RMK AO2
14840KMKG MKG20050408145011004/08/05 14:50:31  5-MIN KMKG 081950Z 30011KT 10SM CLR 16/M03 A3007 490 27 700 300/11 RMK AO2 SLP186 T01561033
14840KMKG MKG20050408145511004/08/05 14:55:31  5-MIN KMKG 081955Z 28010KT 10SM CLR 15/M03 A3007 490 28 600 290/10 RMK AO2 SLP186 T01501033
14840KMKG MKG20050408150009304/08/05 15:00:31  5-MIN KMKG 082000Z 29010KT 10SM CLR 16/M03 A3007 490 27 700 290/10 RMK AO2
14840KMKG MKG20050408150509304/08/05 15:05:31  5-MIN KMKG 082005Z 30010KT 10SM CLR 16/M03 A3007 490 27 700 310/10 RMK AO2
14840KMKG MKG20050408151009304/08/05 15:10:31  5-MIN KMKG 082010Z 30009KT 10SM CLR 16/M03 A3007 500 27 700 310/09 RMK AO2
14840KMKG MKG20050408151509304/08/05 15:15:31  5-MIN KMKG 082015Z 29009KT 10SM CLR 16/M03 A3006 500 27 700 290/09 RMK AO2
14840KMKG MKG20050408152009304/08/05 15:20:31  5-MIN KMKG 082020Z 28011KT 10SM CLR 15/M04 A3006 500 27 700 290/11 RMK AO2
14840KMKG MKG20050408152509304/08/05 15:25:31  5-MIN KMKG 082025Z 30010KT 10SM CLR 16/M04 A3006 500 26 700 300/10 RMK AO2
14840KMKG MKG20050408153009304/08/05 15:30:31  5-MIN KMKG 082030Z 30010KT 10SM CLR 16/M04 A3006 500 26 700 300/10 RMK AO2
14840KMKG MKG20050408153509304/08/05 15:35:31  5-MIN KMKG 082035Z 29010KT 10SM CLR 16/M03 A3006 500 27 700 300/10 RMK AO2
14840KMKG MKG20050408154009304/08/05 15:40:31  5-MIN KMKG 082040Z 29010KT 10SM CLR 16/M04 A3006 500 26 700 300/10 RMK AO2
14840KMKG MKG20050408154509304/08/05 15:45:31  5-MIN KMKG 082045Z 30009KT 10SM CLR 16/M04 A3006 500 26 700 300/09 RMK AO2
14840KMKG MKG20050408155011604/08/05 15:50:31  5-MIN KMKG 082050Z 30010KT 10SM CLR 15/M04 A3006 500 27 700 310/10 RMK AO2 SLP183 T01501039 58010
14840KMKG MKG20050408155511604/08/05 15:55:31  5-MIN KMKG 082055Z 29010KT 10SM CLR 15/M04 A3006 500 27 700 290/10 RMK AO2 SLP182 T01501039 56012
14840KMKG MKG20050408160009304/08/05 16:00:31  5-MIN KMKG 082100Z 29009KT 10SM CLR 15/M04 A3006 500 27 700 290/09 RMK AO2
14840KMKG MKG20050408160509304/08/05 16:05:31  5-MIN KMKG 082105Z 29010KT 10SM CLR 15/M04 A3006 500 27 700 300/10 RMK AO2
14840KMKG MKG20050408161009304/08/05 16:10:31  5-MIN KMKG 082110Z 29009KT 10SM CLR 15/M04 A3006 500 27 700 290/09 RMK AO2
14840KMKG MKG20050408161509304/08/05 16:15:31  5-MIN KMKG 082115Z 31009KT 10SM CLR 16/M04 A3006 500 26 700 310/09 RMK AO2
14840KMKG MKG20050408162009304/08/05 16:20:31  5-MIN KMKG 082120Z 29011KT 10SM CLR 16/M04 A3006 500 26 700 300/11 RMK AO2
14840KMKG MKG20050408162509304/08/05 16:25:31  5-MIN KMKG 082125Z 30009KT 10SM CLR 15/M04 A3006 500 25 700 300/09 RMK AO2
14840KMKG MKG20050408163009304/08/05 16:30:31  5-MIN KMKG 082130Z 30009KT 10SM CLR 15/M04 A3006 510 27 700 300/09 RMK AO2
14840KMKG MKG20050408163509304/08/05 16:35:31  5-MIN KMKG 082135Z 29010KT 10SM CLR 16/M03 A3006 500 27 700 300/10 RMK AO2
14840KMKG MKG20050408164009304/08/05 16:40:31  5-MIN KMKG 082140Z 30009KT 10SM CLR 15/M04 A3006 500 27 700 300/09 RMK AO2
14840KMKG MKG20050408164509304/08/05 16:45:31  5-MIN KMKG 082145Z 28008KT 10SM CLR 15/M04 A3006 510 27 700 290/08 RMK AO2
14840KMKG MKG20050408165011004/08/05 16:50:31  5-MIN KMKG 082150Z 30010KT 10SM CLR 15/M04 A3005 510 27 700 300/10 RMK AO2 SLP179 T01501039
14840KMKG MKG20050408165511004/08/05 16:55:31  5-MIN KMKG 082155Z 29008KT 10SM CLR 15/M04 A3005 510 27 700 300/08 RMK AO2 SLP180 T01501039
14840KMKG MKG20050408170009304/08/05 17:00:31  5-MIN KMKG 082200Z 29010KT 10SM CLR 15/M04 A3005 510 27 700 290/10 RMK AO2
14840KMKG MKG20050408170509304/08/05 17:05:31  5-MIN KMKG 082205Z 29009KT 10SM CLR 15/M04 A3005 510 27 700 300/09 RMK AO2
14840KMKG MKG20050408171009304/08/05 17:10:31  5-MIN KMKG 082210Z 29008KT 10SM CLR 15/M04 A3005 510 27 700 300/08 RMK AO2
14840KMKG MKG20050408171509304/08/05 17:15:31  5-MIN KMKG 082215Z 29008KT 10SM CLR 15/M04 A3005 510 27 700 290/08 RMK AO2
14840KMKG MKG20050408172009304/08/05 17:20:31  5-MIN KMKG 082220Z 29009KT 10SM CLR 15/M04 A3005 510 25 700 290/09 RMK AO2
14840KMKG MKG20050408172509304/08/05 17:25:31  5-MIN KMKG 082225Z 30007KT 10SM CLR 15/M04 A3005 510 27 700 300/07 RMK AO2
14840KMKG MKG20050408173009304/08/05 17:30:31  5-MIN KMKG 082230Z 31007KT 10SM CLR 15/M04 A3005 510 27 700 310/07 RMK AO2
14840KMKG MKG20050408173509304/08/05 17:35:31  5-MIN KMKG 082235Z 31006KT 10SM CLR 15/M04 A3005 510 27 700 310/06 RMK AO2
14840KMKG MKG20050408174009304/08/05 17:40:31  5-MIN KMKG 082240Z 31007KT 10SM CLR 14/M04 A3005 510 28 600 310/07 RMK AO2
14840KMKG MKG20050408174509304/08/05 17:45:31  5-MIN KMKG 082245Z 31007KT 10SM CLR 14/M04 A3005 510 28 600 310/07 RMK AO2
14840KMKG MKG20050408175011004/08/05 17:50:31  5-MIN KMKG 082250Z 31007KT 10SM CLR 14/M04 A3005 510 28 600 320/07 RMK AO2 SLP178 T01441039
14840KMKG MKG20050408175511004/08/05 17:55:31  5-MIN KMKG 082255Z 31007KT 10SM CLR 14/M04 A3005 510 28 600 310/07 RMK AO2 SLP178 T01441039
14840KMKG MKG20050408180009304/08/05 18:00:31  5-MIN KMKG 082300Z 30007KT 10SM CLR 14/M04 A3005 510 28 600 310/07 RMK AO2
14840KMKG MKG20050408180509304/08/05 18:05:31  5-MIN KMKG 082305Z 30007KT 10SM CLR 14/M03 A3005 510 29 600 310/07 RMK AO2
14840KMKG MKG20050408181009304/08/05 18:10:31  5-MIN KMKG 082310Z 30007KT 10SM CLR 14/M04 A3005 510 28 600 300/07 RMK AO2
14840KMKG MKG20050408181509304/08/05 18:15:31  5-MIN KMKG 082315Z 31005KT 10SM CLR 14/M03 A3005 510 29 600 310/05 RMK AO2
14840KMKG MKG20050408182009304/08/05 18:20:31  5-MIN KMKG 082320Z 31005KT 10SM CLR 14/M03 A3005 510 29 600 310/05 RMK AO2
14840KMKG MKG20050408182509304/08/05 18:25:31  5-MIN KMKG 082325Z 32006KT 10SM CLR 14/M03 A3005 510 29 600 320/06 RMK AO2
14840KMKG MKG20050408183009304/08/05 18:30:31  5-MIN KMKG 082330Z 32006KT 10SM CLR 14/M03 A3005 510 29 600 320/06 RMK AO2
14840KMKG MKG20050408183509304/08/05 18:35:31  5-MIN KMKG 082335Z 32006KT 10SM CLR 14/M03 A3005 510 30 600 320/06 RMK AO2
14840KMKG MKG20050408184009304/08/05 18:40:31  5-MIN KMKG 082340Z 32007KT 10SM CLR 14/M03 A3005 510 29 600 320/07 RMK AO2
14840KMKG MKG20050408184509304/08/05 18:45:31  5-MIN KMKG 082345Z 32006KT 10SM CLR 14/M03 A3005 510 31 500 320/06 RMK AO2
14840KMKG MKG20050408185012804/08/05 18:50:31  5-MIN KMKG 082350Z 32006KT 10SM CLR 14/M03 A3005 510 31 500 320/06 RMK AO2 SLP179 T01391028 10172 20139 56012
14840KMKG MKG20050408185512804/08/05 18:55:31  5-MIN KMKG 082355Z 32007KT 10SM CLR 13/M03 A3005 510 32 500 330/07 RMK AO2 SLP179 T01331028 10172 20133 55003
14840KMKG MKG20050408190009304/08/05 19:00:31  5-MIN KMKG 090000Z 32007KT 10SM CLR 13/M03 A3005 510 32 500 320/07 RMK AO2
14840KMKG MKG20050408190509304/08/05 19:05:31  5-MIN KMKG 090005Z 33006KT 10SM CLR 13/M02 A3005 510 35 400 330/06 RMK AO2
14840KMKG MKG20050408191009304/08/05 19:10:31  5-MIN KMKG 090010Z 33006KT 10SM CLR 12/M02 A3005 510 36 300 330/06 RMK AO2
14840KMKG MKG20050408191509304/08/05 19:15:31  5-MIN KMKG 090015Z 33006KT 10SM CLR 12/M02 A3005 510 36 300 330/06 RMK AO2
14840KMKG MKG20050408192009304/08/05 19:20:31  5-MIN KMKG 090020Z 32005KT 10SM CLR 12/M02 A3005 510 38 300 330/05 RMK AO2
14840KMKG MKG20050408192509304/08/05 19:25:31  5-MIN KMKG 090025Z 33004KT 10SM CLR 12/M02 A3005 510 36 300 330/04 RMK AO2
14840KMKG MKG20050408193009304/08/05 19:30:31  5-MIN KMKG 090030Z 33004KT 10SM CLR 12/M02 A3005 510 38 300 340/04 RMK AO2
14840KMKG MKG20050408193509304/08/05 19:35:31  5-MIN KMKG 090035Z 33004KT 10SM CLR 11/M02 A3006 510 41 200 340/04 RMK AO2
14840KMKG MKG20050408194009304/08/05 19:40:31  5-MIN KMKG 090040Z 32004KT 10SM CLR 11/M02 A3006 500 40 100 320/04 RMK AO2
14840KMKG MKG20050408194509304/08/05 19:45:31  5-MIN KMKG 090045Z 00000KT 10SM CLR 12/M02 A3006 500 38 300 000/00 RMK AO2
14840KMKG MKG20050408195011004/08/05 19:50:31  5-MIN KMKG 090050Z 00000KT 10SM CLR 12/M03 A3006 500 35 300 000/00 RMK AO2 SLP181 T01221028
14840KMKG MKG20050408195511004/08/05 19:55:31  5-MIN KMKG 090055Z 00000KT 10SM CLR 12/M03 A3006 500 35 300 000/00 RMK AO2 SLP182 T01221028
14840KMKG MKG20050408200009304/08/05 20:00:31  5-MIN KMKG 090100Z 00000KT 10SM CLR 11/M02 A3006 500 39 200 000/00 RMK AO2
14840KMKG MKG20050408200509304/08/05 20:05:31  5-MIN KMKG 090105Z 04003KT 10SM CLR 11/M03 A3006 500 37 200 040/03 RMK AO2
14840KMKG MKG20050408201009304/08/05 20:10:31  5-MIN KMKG 090110Z 04003KT 10SM CLR 12/M03 A3006 500 33 300 040/03 RMK AO2
14840KMKG MKG20050408201509304/08/05 20:15:31  5-MIN KMKG 090115Z 00000KT 10SM CLR 13/M03 A3007 500 32 400 000/00 RMK AO2
14840KMKG MKG20050408202009304/08/05 20:20:31  5-MIN KMKG 090120Z 00000KT 10SM CLR 12/M03 A3007 500 33 300 000/00 RMK AO2
14840KMKG MKG20050408202509304/08/05 20:25:31  5-MIN KMKG 090125Z 00000KT 10SM CLR 11/M03 A3007 490 37 200 000/00 RMK AO2
14840KMKG MKG20050408203009304/08/05 20:30:31  5-MIN KMKG 090130Z 00000KT 10SM CLR 11/M03 A3007 490 37 200 000/00 RMK AO2
14840KMKG MKG20050408203509304/08/05 20:35:31  5-MIN KMKG 090135Z 00000KT 10SM CLR 12/M03 A3007 490 36 200 000/00 RMK AO2
14840KMKG MKG20050408204009304/08/05 20:40:31  5-MIN KMKG 090140Z 00000KT 10SM CLR 11/M03 A3007 490 39 100 000/00 RMK AO2
14840KMKG MKG20050408204509304/08/05 20:45:31  5-MIN KMKG 090145Z 00000KT 10SM CLR 11/M03 A3007 490 36 200 000/00 RMK AO2
14840KMKG MKG20050408205011004/08/05 20:50:31  5-MIN KMKG 090150Z 00000KT 10SM CLR 11/M03 A3007 490 37 100 000/00 RMK AO2 SLP186 T01061033
14840KMKG MKG20050408205511004/08/05 20:55:31  5-MIN KMKG 090155Z 10004KT 10SM CLR 11/M03 A3007 490 37 200 100/04 RMK AO2 SLP186 T01111028
14840KMKG MKG20050408210009304/08/05 21:00:31  5-MIN KMKG 090200Z 11007KT 10SM CLR 12/M02 A3007 490 38 200 110/07 RMK AO2
14840KMKG MKG20050408210509304/08/05 21:05:31  5-MIN KMKG 090205Z 11007KT 10SM CLR 11/M02 A3008 490 39 200 110/07 RMK AO2
14840KMKG MKG20050408211009304/08/05 21:10:31  5-MIN KMKG 090210Z 10004KT 10SM CLR 11/M02 A3008 490 40 100 110/04 RMK AO2
14840KMKG MKG20050408211509304/08/05 21:15:31  5-MIN KMKG 090215Z 10004KT 10SM CLR 11/M02 A3008 490 40 100 110/04 RMK AO2
14840KMKG MKG20050408212009304/08/05 21:20:31  5-MIN KMKG 090220Z 09004KT 10SM CLR 11/M02 A3008 490 39 200 100/04 RMK AO2
14840KMKG MKG20050408212509304/08/05 21:25:31  5-MIN KMKG 090225Z 10004KT 10SM CLR 11/M02 A3008 490 40 100 100/04 RMK AO2
14840KMKG MKG20050408213009304/08/05 21:30:31  5-MIN KMKG 090230Z 10004KT 10SM CLR 11/M02 A3008 490 40 100 100/04 RMK AO2
14840KMKG MKG20050408213509304/08/05 21:35:31  5-MIN KMKG 090235Z 09005KT 10SM CLR 11/M02 A3008 490 40 100 100/05 RMK AO2
14840KMKG MKG20050408214009304/08/05 21:40:31  5-MIN KMKG 090240Z 09004KT 10SM CLR 11/M02 A3008 490 40 100 090/04 RMK AO2
14840KMKG MKG20050408214509304/08/05 21:45:31  5-MIN KMKG 090245Z 08005KT 10SM CLR 11/M02 A3008 490 40 100 090/05 RMK AO2
14840KMKG MKG20050408215011404/08/05 21:50:31  5-MIN KMKG 090250Z 09004KT 10SM CLR 10/M02 A3008 480 42 0 090/04 RMK AO2 SLP187 T01001022 55003
14840KMKG MKG20050408215511404/08/05 21:55:31  5-MIN KMKG 090255Z 10004KT 10SM CLR 10/M02 A3008 480 42 0 100/04 RMK AO2 SLP187 T01001022 51009
14840KMKG MKG20050408220009104/08/05 22:00:31  5-MIN KMKG 090300Z 09005KT 10SM CLR 10/M02 A3008 480 42 0 100/05 RMK AO2
14840KMKG MKG20050408220509104/08/05 22:05:31  5-MIN KMKG 090305Z 09005KT 10SM CLR 09/M02 A3008 480 44 0 100/05 RMK AO2
14840KMKG MKG20050408221009104/08/05 22:10:31  5-MIN KMKG 090310Z 09005KT 10SM CLR 09/M02 A3008 480 44 0 090/05 RMK AO2
14840KMKG MKG20050408221509104/08/05 22:15:31  5-MIN KMKG 090315Z 09004KT 10SM CLR 10/M02 A3008 480 42 0 090/04 RMK AO2
14840KMKG MKG20050408222009104/08/05 22:20:31  5-MIN KMKG 090320Z 08004KT 10SM CLR 09/M02 A3008 480 44 0 080/04 RMK AO2
14840KMKG MKG20050408222509104/08/05 22:25:31  5-MIN KMKG 090325Z 08004KT 10SM CLR 10/M02 A3008 480 42 0 080/04 RMK AO2
14840KMKG MKG20050408223009104/08/05 22:30:31  5-MIN KMKG 090330Z 07003KT 10SM CLR 10/M02 A3008 480 42 0 070/03 RMK AO2
14840KMKG MKG20050408223509104/08/05 22:35:31  5-MIN KMKG 090335Z 06003KT 10SM CLR 09/M02 A3008 480 44 0 060/03 RMK AO2
14840KMKG MKG20050408224009104/08/05 22:40:31  5-MIN KMKG 090340Z 06003KT 10SM CLR 09/M02 A3008 480 44 0 070/03 RMK AO2
14840KMKG MKG20050408224509104/08/05 22:45:31  5-MIN KMKG 090345Z 06004KT 10SM CLR 09/M02 A3008 480 44 0 060/04 RMK AO2
14840KMKG MKG20050408225010804/08/05 22:50:31  5-MIN KMKG 090350Z 07004KT 10SM CLR 09/M02 A3008 480 45 0 070/04 RMK AO2 SLP189 T00891022
14840KMKG MKG20050408225510804/08/05 22:55:31  5-MIN KMKG 090355Z 07004KT 10SM CLR 09/M02 A3008 480 44 0 070/04 RMK AO2 SLP189 T00941022
14840KMKG MKG20050408230009404/08/05 23:00:31  5-MIN KMKG 090400Z 07005KT 10SM CLR 09/M02 A3008 480 45 -100 070/05 RMK AO2
14840KMKG MKG20050408230509404/08/05 23:05:31  5-MIN KMKG 090405Z 07005KT 10SM CLR 08/M02 A3009 480 49 -200 080/05 RMK AO2
14840KMKG MKG20050408231009404/08/05 23:10:31  5-MIN KMKG 090410Z 07006KT 10SM CLR 08/M02 A3009 480 49 -200 080/06 RMK AO2
14840KMKG MKG20050408231509404/08/05 23:15:31  5-MIN KMKG 090415Z 08006KT 10SM CLR 07/M02 A3009 480 51 -300 080/06 RMK AO2
14840KMKG MKG20050408232009404/08/05 23:20:31  5-MIN KMKG 090420Z 08006KT 10SM CLR 07/M02 A3009 480 53 -300 090/06 RMK AO2
14840KMKG MKG20050408232509404/08/05 23:25:31  5-MIN KMKG 090425Z 08006KT 10SM CLR 07/M02 A3009 470 53 -300 090/06 RMK AO2
14840KMKG MKG20050408233009404/08/05 23:30:31  5-MIN KMKG 090430Z 08006KT 10SM CLR 07/M02 A3009 470 53 -300 080/06 RMK AO2
14840KMKG MKG20050408233509404/08/05 23:35:31  5-MIN KMKG 090435Z 08006KT 10SM CLR 07/M02 A3009 470 53 -300 080/06 RMK AO2
14840KMKG MKG20050408234009404/08/05 23:40:31  5-MIN KMKG 090440Z 08007KT 10SM CLR 07/M02 A3009 470 53 -300 090/07 RMK AO2
14840KMKG MKG20050408234509404/08/05 23:45:31  5-MIN KMKG 090445Z 08007KT 10SM CLR 07/M02 A3009 470 53 -300 090/07 RMK AO2
14840KMKG MKG20050408235012104/08/05 23:50:31  5-MIN KMKG 090450Z 08007KT 10SM CLR 07/M02 A3009 470 51 -300 090/07 RMK AO2 SLP191 T00721022 401720028
14840KMKG MKG20050408235512104/08/05 23:55:31  5-MIN KMKG 090455Z 09007KT 10SM CLR 07/M02 A3009 470 51 -300 090/07 RMK AO2 SLP192 T00721022 401720028
14840KMKG MKG20050409000009404/09/05 00:00:32  5-MIN KMKG 090500Z 09006KT 10SM CLR 07/M02 A3009 470 51 -300 100/06 RMK AO2
14840KMKG MKG20050409000509404/09/05 00:05:31  5-MIN KMKG 090505Z 10006KT 10SM CLR 07/M02 A3009 470 51 -300 100/06 RMK AO2
14840KMKG MKG20050409001009404/09/05 00:10:31  5-MIN KMKG 090510Z 10005KT 10SM CLR 07/M02 A3009 470 53 -300 100/05 RMK AO2
14840KMKG MKG20050409001509404/09/05 00:15:31  5-MIN KMKG 090515Z 10006KT 10SM CLR 07/M02 A3009 470 53 -300 100/06 RMK AO2
14840KMKG MKG20050409002009404/09/05 00:20:31  5-MIN KMKG 090520Z 10007KT 10SM CLR 07/M02 A3009 470 53 -300 110/07 RMK AO2
14840KMKG MKG20050409002509404/09/05 00:25:31  5-MIN KMKG 090525Z 10007KT 10SM CLR 07/M02 A3009 470 53 -300 100/07 RMK AO2
14840KMKG MKG20050409003009404/09/05 00:30:31  5-MIN KMKG 090530Z 10007KT 10SM CLR 07/M02 A3009 470 51 -300 100/07 RMK AO2
14840KMKG MKG20050409003509404/09/05 00:35:31  5-MIN KMKG 090535Z 10007KT 10SM CLR 07/M02 A3009 470 51 -300 100/07 RMK AO2
14840KMKG MKG20050409004009404/09/05 00:40:31  5-MIN KMKG 090540Z 10008KT 10SM CLR 07/M02 A3009 470 53 -300 100/08 RMK AO2
14840KMKG MKG20050409004509404/09/05 00:45:31  5-MIN KMKG 090545Z 10008KT 10SM CLR 07/M02 A3009 470 53 -300 100/08 RMK AO2
14840KMKG MKG20050409005012904/09/05 00:50:31  5-MIN KMKG 090550Z 10007KT 10SM CLR 07/M02 A3009 470 53 -300 100/07 RMK AO2 SLP192 T00721017 10133 20067 51009
14840KMKG MKG20050409005512904/09/05 00:55:31  5-MIN KMKG 090555Z 10008KT 10SM CLR 07/M02 A3009 470 53 -300 100/08 RMK AO2 SLP192 T00721017 10133 20067 51004
14840KMKG MKG20050409010009404/09/05 01:00:31  5-MIN KMKG 090600Z 10007KT 10SM CLR 07/M02 A3009 470 53 -300 100/07 RMK AO2
14840KMKG MKG20050409010509404/09/05 01:05:31  5-MIN KMKG 090605Z 10007KT 10SM CLR 07/M02 A3009 470 53 -300 100/07 RMK AO2
14840KMKG MKG20050409011009404/09/05 01:10:31  5-MIN KMKG 090610Z 10008KT 10SM CLR 07/M02 A3009 480 55 -300 100/08 RMK AO2
14840KMKG MKG20050409011509404/09/05 01:15:31  5-MIN KMKG 090615Z 10008KT 10SM CLR 07/M02 A3009 480 55 -300 100/08 RMK AO2
14840KMKG MKG20050409012009404/09/05 01:20:31  5-MIN KMKG 090620Z 10008KT 10SM CLR 07/M02 A3009 480 53 -300 110/08 RMK AO2
14840KMKG MKG20050409012509404/09/05 01:25:31  5-MIN KMKG 090625Z 10009KT 10SM CLR 07/M02 A3009 480 55 -300 110/09 RMK AO2
14840KMKG MKG20050409013009404/09/05 01:30:31  5-MIN KMKG 090630Z 11009KT 10SM CLR 07/M02 A3009 480 55 -300 110/09 RMK AO2
14840KMKG MKG20050409013509404/09/05 01:35:31  5-MIN KMKG 090635Z 10009KT 10SM CLR 07/M02 A3009 480 53 -300 110/09 RMK AO2
14840KMKG MKG20050409014009404/09/05 01:40:31  5-MIN KMKG 090640Z 10010KT 10SM CLR 07/M02 A3009 480 53 -300 110/10 RMK AO2
14840KMKG MKG20050409014509404/09/05 01:45:31  5-MIN KMKG 090645Z 10009KT 10SM CLR 07/M02 A3008 480 55 -300 110/09 RMK AO2
14840KMKG MKG20050409015011104/09/05 01:50:31  5-MIN KMKG 090650Z 10008KT 10SM CLR 07/M02 A3008 480 55 -300 110/08 RMK AO2 SLP188 T00671017
14840KMKG MKG20050409015511104/09/05 01:55:31  5-MIN KMKG 090655Z 10008KT 10SM CLR 07/M02 A3008 480 55 -300 110/08 RMK AO2 SLP188 T00671017
14840KMKG MKG20050409020009404/09/05 02:00:31  5-MIN KMKG 090700Z 10008KT 10SM CLR 07/M02 A3008 480 55 -300 110/08 RMK AO2
14840KMKG MKG20050409020509404/09/05 02:05:31  5-MIN KMKG 090705Z 10009KT 10SM CLR 07/M02 A3008 480 55 -300 100/09 RMK AO2
14840KMKG MKG20050409021009404/09/05 02:10:31  5-MIN KMKG 090710Z 11008KT 10SM CLR 07/M02 A3008 480 55 -300 110/08 RMK AO2
14840KMKG MKG20050409021509404/09/05 02:15:31  5-MIN KMKG 090715Z 11009KT 10SM CLR 07/M02 A3008 480 55 -300 110/09 RMK AO2
14840KMKG MKG20050409022009404/09/05 02:20:31  5-MIN KMKG 090720Z 11008KT 10SM CLR 06/M02 A3008 480 57 -400 120/08 RMK AO2
14840KMKG MKG20050409022509404/09/05 02:25:31  5-MIN KMKG 090725Z 11007KT 10SM CLR 06/M02 A3008 480 57 -400 110/07 RMK AO2
14840KMKG MKG20050409023009404/09/05 02:30:31  5-MIN KMKG 090730Z 11007KT 10SM CLR 06/M02 A3008 480 59 -500 110/07 RMK AO2
14840KMKG MKG20050409023509404/09/05 02:35:31  5-MIN KMKG 090735Z 10006KT 10SM CLR 06/M02 A3008 480 57 -400 110/06 RMK AO2
14840KMKG MKG20050410014509304/10/05 01:45:31  5-MIN KMKG 100645Z 09004KT 10SM CLR 09/01 A3001 550 53  100 100/04 RMK AO2
14840KMKG MKG20050410015011004/10/05 01:50:31  5-MIN KMKG 100650Z 10004KT 10SM CLR 09/01 A3001 550 53  100 100/04 RMK AO2 SLP163 T00940006
14840KMKG MKG20050410015511004/10/05 01:55:31  5-MIN KMKG 100655Z 10006KT 10SM CLR 09/01 A3001 550 53  100 100/06 RMK AO2 SLP162 T00940006
14840KMKG MKG20050410020009004/10/05 02:00:31  5-MIN KMKG 100700Z 10006KT 10SM CLR 09/01 A3001 550 56 0 110/06 RMK AO2
14840KMKG MKG20050410020509004/10/05 02:05:31  5-MIN KMKG 100705Z 10006KT 10SM CLR 09/01 A3001 550 56 0 110/06 RMK AO2
14840KMKG MKG20050410021009004/10/05 02:10:31  5-MIN KMKG 100710Z 10005KT 10SM CLR 09/01 A3001 550 56 0 100/05 RMK AO2
14840KMKG MKG20050410021509304/10/05 02:15:31  5-MIN KMKG 100715Z 08005KT 10SM CLR 09/01 A3001 550 53  100 080/05 RMK AO2
14840KMKG MKG20050410022009004/10/05 02:20:31  5-MIN KMKG 100720Z 07006KT 10SM CLR 09/01 A3001 550 56 0 070/06 RMK AO2
14840KMKG MKG20050410022509004/10/05 02:25:31  5-MIN KMKG 100725Z 07005KT 10SM CLR 09/01 A3001 550 56 0 070/05 RMK AO2
14840KMKG MKG20050410023009004/10/05 02:30:31  5-MIN KMKG 100730Z 08004KT 10SM CLR 09/01 A3001 550 56 0 080/04 RMK AO2
14840KMKG MKG20050410023509004/10/05 02:35:31  5-MIN KMKG 100735Z 09005KT 10SM CLR 09/01 A3001 550 56 0 090/05 RMK AO2
14840KMKG MKG20050410024009304/10/05 02:40:31  5-MIN KMKG 100740Z 09004KT 10SM CLR 09/01 A3001 550 53  100 090/04 RMK AO2
14840KMKG MKG20050410024509004/10/05 02:45:31  5-MIN KMKG 100745Z 09004KT 10SM CLR 09/01 A3001 540 56 0 090/04 RMK AO2
14840KMKG MKG20050410025010704/10/05 02:50:31  5-MIN KMKG 100750Z 10005KT 10SM CLR 09/01 A3001 540 56 0 100/05 RMK AO2 SLP164 T00890006
14840KMKG MKG20050410025510704/10/05 02:55:31  5-MIN KMKG 100755Z 11005KT 10SM CLR 08/01 A3001 540 58 0 110/05 RMK AO2 SLP164 T00830006
14840KMKG MKG20050410030009404/10/05 03:00:31  5-MIN KMKG 100800Z 10005KT 10SM CLR 08/01 A3001 540 60  -100 100/05 RMK AO2
14840KMKG MKG20050410030509404/10/05 03:05:31  5-MIN KMKG 100805Z 08005KT 10SM CLR 08/01 A3002 540 60  -100 080/05 RMK AO2
14840KMKG MKG20050410031009404/10/05 03:10:31  5-MIN KMKG 100810Z 08006KT 10SM CLR 08/01 A3002 540 60  -100 090/06 RMK AO2
14840KMKG MKG20050410031509404/10/05 03:15:31  5-MIN KMKG 100815Z 10004KT 10SM CLR 08/01 A3002 540 60  -100 110/04 RMK AO2
14840KMKG MKG20050410032009404/10/05 03:20:31  5-MIN KMKG 100820Z 10005KT 10SM CLR 08/01 A3002 540 60  -100 100/05 RMK AO2
14840KMKG MKG20050410032509404/10/05 03:25:31  5-MIN KMKG 100825Z 10005KT 10SM CLR 07/01 A3002 540 62  -200 110/05 RMK AO2
14840KMKG MKG20050410033009404/10/05 03:30:31  5-MIN KMKG 100830Z 10006KT 10SM CLR 08/01 A3002 540 60  -100 110/06 RMK AO2
14840KMKG MKG20050410033509404/10/05 03:35:31  5-MIN KMKG 100835Z 10006KT 10SM CLR 07/01 A3002 540 62  -200 110/06 RMK AO2
14840KMKG MKG20050410034009404/10/05 03:40:31  5-MIN KMKG 100840Z 11007KT 10SM CLR 07/01 A3002 540 62  -200 110/07 RMK AO2
14840KMKG MKG20050410034509404/10/05 03:45:31  5-MIN KMKG 100845Z 11006KT 10SM CLR 07/01 A3002 540 67  -200 110/06 RMK AO2
14840KMKG MKG20050410035011704/10/05 03:50:31  5-MIN KMKG 100850Z 11007KT 10SM CLR 07/01 A3002 540 65  -200 110/07 RMK AO2 SLP166 T00720011 52003
14840KMKG MKG20050410035511704/10/05 03:55:31  5-MIN KMKG 100855Z 10006KT 10SM CLR 07/01 A3002 540 65  -200 110/06 RMK AO2 SLP166 T00720011 53004
14840KMKG MKG20050410040009404/10/05 04:00:31  5-MIN KMKG 100900Z 09005KT 10SM CLR 07/01 A3002 540 62  -200 100/05 RMK AO2
14840KMKG MKG20050410040509404/10/05 04:05:31  5-MIN KMKG 100905Z 09005KT 10SM CLR 08/01 A3002 540 62  -100 100/05 RMK AO2
14840KMKG MKG20050410041009404/10/05 04:10:31  5-MIN KMKG 100910Z 11005KT 10SM CLR 08/01 A3002 540 62  -100 110/05 RMK AO2
14840KMKG MKG20050410041509404/10/05 04:15:31  5-MIN KMKG 100915Z 11006KT 10SM CLR 07/01 A3002 540 65  -200 110/06 RMK AO2
14840KMKG MKG20050410042009404/10/05 04:20:31  5-MIN KMKG 100920Z 10006KT 10SM CLR 07/01 A3002 530 65  -200 110/06 RMK AO2
14840KMKG MKG20050410042509404/10/05 04:25:31  5-MIN KMKG 100925Z 11006KT 10SM CLR 07/01 A3003 530 65  -200 110/06 RMK AO2
14840KMKG MKG20050410043009404/10/05 04:30:31  5-MIN KMKG 100930Z 11006KT 10SM CLR 07/01 A3003 530 65  -200 110/06 RMK AO2
14840KMKG MKG20050410043509404/10/05 04:35:31  5-MIN KMKG 100935Z 10006KT 10SM CLR 07/01 A3003 530 65  -200 110/06 RMK AO2
14840KMKG MKG20050410044009404/10/05 04:40:31  5-MIN KMKG 100940Z 10005KT 10SM CLR 07/01 A3003 530 65  -200 110/05 RMK AO2
14840KMKG MKG20050410044509404/10/05 04:45:31  5-MIN KMKG 100945Z 10005KT 10SM CLR 07/01 A3003 530 65  -200 110/05 RMK AO2
14840KMKG MKG20050410045011104/10/05 04:50:31  5-MIN KMKG 100950Z 11006KT 10SM CLR 08/01 A3003 530 62  -100 110/06 RMK AO2 SLP170 T00780011
14840KMKG MKG20050410045511104/10/05 04:55:31  5-MIN KMKG 100955Z 11006KT 10SM CLR 07/01 A3003 530 65  -200 110/06 RMK AO2 SLP170 T00720011
14840KMKG MKG20050410050009404/10/05 05:00:31  5-MIN KMKG 101000Z 10005KT 10SM CLR 08/01 A3003 530 62  -100 110/05 RMK AO2
14840KMKG MKG20050410050509404/10/05 05:05:31  5-MIN KMKG 101005Z 10006KT 10SM CLR 08/01 A3004 520 62  -100 100/06 RMK AO2
14840KMKG MKG20050410051009404/10/05 05:10:31  5-MIN KMKG 101010Z 10006KT 10SM CLR 08/01 A3004 520 62  -100 110/06 RMK AO2
14840KMKG MKG20050410051509404/10/05 05:15:31  5-MIN KMKG 101015Z 10005KT 10SM CLR 08/01 A3004 520 62  -100 100/05 RMK AO2
14840KMKG MKG20050410052009404/10/05 05:20:31  5-MIN KMKG 101020Z 10006KT 10SM CLR 08/01 A3004 520 62  -100 100/06 RMK AO2
14840KMKG MKG20050410052509404/10/05 05:25:31  5-MIN KMKG 101025Z 10005KT 10SM CLR 08/01 A3004 520 62  -100 110/05 RMK AO2
14840KMKG MKG20050410053009404/10/05 05:30:31  5-MIN KMKG 101030Z 10006KT 10SM CLR 07/01 A3004 520 65  -200 110/06 RMK AO2
14840KMKG MKG20050410053509404/10/05 05:35:31  5-MIN KMKG 101035Z 10006KT 10SM CLR 07/01 A3004 520 65  -200 100/06 RMK AO2
14840KMKG MKG20050410054009404/10/05 05:40:31  5-MIN KMKG 101040Z 10006KT 10SM CLR 08/01 A3004 520 62  -100 110/06 RMK AO2
14840KMKG MKG20050410054509404/10/05 05:45:31  5-MIN KMKG 101045Z 10006KT 10SM CLR 08/01 A3005 510 62  -100 100/06 RMK AO2
14840KMKG MKG20050410055011104/10/05 05:50:31  5-MIN KMKG 101050Z 10005KT 10SM CLR 08/01 A3005 510 62  -100 100/05 RMK AO2 SLP176 T00780011
14840KMKG MKG20050410055511104/10/05 05:55:31  5-MIN KMKG 101055Z 10005KT 10SM CLR 07/01 A3005 510 65  -200 110/05 RMK AO2 SLP177 T00720011
14840KMKG MKG20050410060009404/10/05 06:00:31  5-MIN KMKG 101100Z 11005KT 10SM CLR 07/01 A3005 510 65  -200 110/05 RMK AO2
14840KMKG MKG20050410060509404/10/05 06:05:31  5-MIN KMKG 101105Z 10005KT 10SM CLR 07/01 A3005 510 65  -200 110/05 RMK AO2
14840KMKG MKG20050410061009404/10/05 06:10:31  5-MIN KMKG 101110Z 09005KT 10SM CLR 07/01 A3006 500 65  -200 090/05 RMK AO2
14840KMKG MKG20050410061509404/10/05 06:15:31  5-MIN KMKG 101115Z 08005KT 10SM CLR 07/01 A3006 500 65  -200 090/05 RMK AO2
14840KMKG MKG20050410062009404/10/05 06:20:31  5-MIN KMKG 101120Z 08006KT 10SM CLR 07/01 A3006 500 67  -300 080/06 RMK AO2
14840KMKG MKG20050410062509404/10/05 06:25:31  5-MIN KMKG 101125Z 08006KT 10SM CLR 07/01 A3006 500 67  -300 080/06 RMK AO2
14840KMKG MKG20050410063009404/10/05 06:30:31  5-MIN KMKG 101130Z 08006KT 10SM CLR 07/01 A3007 490 67  -300 080/06 RMK AO2
14840KMKG MKG20050410063509404/10/05 06:35:31  5-MIN KMKG 101135Z 08005KT 10SM CLR 07/01 A3007 490 65  -200 080/05 RMK AO2
14840KMKG MKG20050410064009404/10/05 06:40:31  5-MIN KMKG 101140Z 08006KT 10SM CLR 07/02 A3007 490 68  -200 090/06 RMK AO2
14840KMKG MKG20050410064509404/10/05 06:45:31  5-MIN KMKG 101145Z 07005KT 10SM CLR 07/02 A3007 490 68  -200 080/05 RMK AO2
14840KMKG MKG20050410065012904/10/05 06:50:31  5-MIN KMKG 101150Z 09005KT 10SM CLR 08/02 A3007 490 65  -200 090/05 RMK AO2 SLP184 T00780017 10117 20067 53004
14840KMKG MKG20050410065512904/10/05 06:55:31  5-MIN KMKG 101155Z 08006KT 10SM CLR 08/02 A3007 490 63  -100 090/06 RMK AO2 SLP185 T00830017 10117 20067 53019
14840KMKG MKG20050410070009404/10/05 07:00:31  5-MIN KMKG 101200Z 08007KT 10SM CLR 08/02 A3007 490 63  -100 090/07 RMK AO2
14840KMKG MKG20050410070509004/10/05 07:05:31  5-MIN KMKG 101205Z 09007KT 10SM CLR 09/02 A3007 490 60 0 090/07 RMK AO2
14840KMKG MKG20050410071009004/10/05 07:10:31  5-MIN KMKG 101210Z 09007KT 10SM CLR 09/02 A3007 490 60 0 090/07 RMK AO2
14840KMKG MKG20050410071509004/10/05 07:15:31  5-MIN KMKG 101215Z 09008KT 10SM CLR 09/01 A3008 490 58 0 090/08 RMK AO2
14840KMKG MKG20050410072009004/10/05 07:20:31  5-MIN KMKG 101220Z 09008KT 10SM CLR 09/01 A3008 490 56 0 090/08 RMK AO2
14840KMKG MKG20050410072509004/10/05 07:25:31  5-MIN KMKG 101225Z 09007KT 10SM CLR 09/01 A3008 490 56 0 100/07 RMK AO2
14840KMKG MKG20050410073009004/10/05 07:30:31  5-MIN KMKG 101230Z 09006KT 10SM CLR 10/01 A3008 480 54 0 100/06 RMK AO2
14840KMKG MKG20050410073509004/10/05 07:35:31  5-MIN KMKG 101235Z 09007KT 10SM CLR 10/01 A3008 480 54 0 100/07 RMK AO2
14840KMKG MKG20050410074009004/10/05 07:40:31  5-MIN KMKG 101240Z 10006KT 10SM CLR 10/01 A3008 480 54 0 100/06 RMK AO2
14840KMKG MKG20050410074509304/10/05 07:45:31  5-MIN KMKG 101245Z 09007KT 10SM CLR 11/01 A3008 480 52  100 100/07 RMK AO2
14840KMKG MKG20050410075011004/10/05 07:50:31  5-MIN KMKG 101250Z 09007KT 10SM CLR 11/01 A3008 480 52  100 100/07 RMK AO2 SLP189 T01060011
14840KMKG MKG20050410075511004/10/05 07:55:31  5-MIN KMKG 101255Z 09007KT 10SM CLR 11/01 A3008 480 50  200 100/07 RMK AO2 SLP188 T01110011
14840KMKG MKG20050410080009304/10/05 08:00:31  5-MIN KMKG 101300Z 09009KT 10SM CLR 11/01 A3008 480 50  200 100/09 RMK AO2
14840KMKG MKG20050410080509304/10/05 08:05:31  5-MIN KMKG 101305Z 09008KT 10SM CLR 12/01 A3008 480 48  200 100/08 RMK AO2
14840KMKG MKG20050410081009304/10/05 08:10:31  5-MIN KMKG 101310Z 10007KT 10SM CLR 12/01 A3008 480 48  200 100/07 RMK AO2
14840KMKG MKG20050410081509304/10/05 08:15:31  5-MIN KMKG 101315Z 08008KT 10SM CLR 12/01 A3008 480 48  200 090/08 RMK AO2
14840KMKG MKG20050410082009304/10/05 08:20:31  5-MIN KMKG 101320Z 10008KT 10SM CLR 12/02 A3008 480 50  200 100/08 RMK AO2
14840KMKG MKG20050410082509304/10/05 08:25:31  5-MIN KMKG 101325Z 10007KT 10SM CLR 12/02 A3008 480 48  300 100/07 RMK AO2
14840KMKG MKG20050410083009304/10/05 08:30:31  5-MIN KMKG 101330Z 10007KT 10SM CLR 12/02 A3008 480 48  300 110/07 RMK AO2
14840KMKG MKG20050410083509304/10/05 08:35:31  5-MIN KMKG 101335Z 10008KT 10SM CLR 13/01 A3008 480 44  400 110/08 RMK AO2
14840KMKG MKG20050410084009304/10/05 08:40:31  5-MIN KMKG 101340Z 10008KT 10SM CLR 13/02 A3008 480 46  400 100/08 RMK AO2
14840KMKG MKG20050410084509304/10/05 08:45:31  5-MIN KMKG 101345Z 10010KT 10SM CLR 14/02 A3008 480 43  500 110/10 RMK AO2
14840KMKG MKG20050410085011004/10/05 08:50:31  5-MIN KMKG 101350Z 10007KT 10SM CLR 14/02 A3008 480 41  600 100/07 RMK AO2 SLP188 T01440017
14840KMKG MKG20050410085511004/10/05 08:55:31  5-MIN KMKG 101355Z 10008KT 10SM CLR 15/02 A3008 480 40  600 100/08 RMK AO2 SLP187 T01500017
14840KMKG MKG20050410090009304/10/05 09:00:31  5-MIN KMKG 101400Z 09007KT 10SM CLR 15/02 A3008 480 40  600 100/07 RMK AO2
14840KMKG MKG20050410090509304/10/05 09:05:31  5-MIN KMKG 101405Z 10011KT 10SM CLR 15/01 A3008 480 38  600 100/11 RMK AO2
14840KMKG MKG20050410091009304/10/05 09:10:31  5-MIN KMKG 101410Z 10009KT 10SM CLR 16/02 A3008 480 39  700 110/09 RMK AO2
14840KMKG MKG20050410091509304/10/05 09:15:31  5-MIN KMKG 101415Z 10009KT 10SM CLR 16/02 A3008 480 37  800 110/09 RMK AO2
14840KMKG MKG20050410092009304/10/05 09:20:31  5-MIN KMKG 101420Z 10010KT 10SM CLR 16/02 A3008 480 37  800 100/10 RMK AO2
14840KMKG MKG20050410092509304/10/05 09:25:31  5-MIN KMKG 101425Z 11011KT 10SM CLR 17/02 A3008 480 36  800 110/11 RMK AO2
14840KMKG MKG20050410093009304/10/05 09:30:31  5-MIN KMKG 101430Z 10009KT 10SM CLR 17/02 A3008 480 36  800 110/09 RMK AO2
14840KMKG MKG20050410093509304/10/05 09:35:31  5-MIN KMKG 101435Z 10011KT 10SM CLR 17/02 A3008 480 36  800 100/11 RMK AO2
14840KMKG MKG20050410094009304/10/05 09:40:31  5-MIN KMKG 101440Z 09010KT 10SM CLR 16/02 A3008 480 37  800 100/10 RMK AO2
14840KMKG MKG20050410094509304/10/05 09:45:31  5-MIN KMKG 101445Z 10011KT 10SM CLR 17/02 A3008 480 35  900 100/11 RMK AO2
14840KMKG MKG20050410095011604/10/05 09:50:31  5-MIN KMKG 101450Z 10011KT 10SM CLR 17/02 A3008 480 36  900 100/11 RMK AO2 SLP186 T01720022 53019
14840KMKG MKG20050410095511704/10/05 09:55:31  5-MIN KMKG 101455Z 10011KT 10SM CLR 18/02 A3008 490 33  1000 110/11 RMK AO2 SLP184 T01780017 50001
14840KMKG MKG20050410100009404/10/05 10:00:31  5-MIN KMKG 101500Z 10012KT 10SM CLR 18/02 A3008 490 35  1000 100/12 RMK AO2
14840KMKG MKG20050410100509404/10/05 10:05:31  5-MIN KMKG 101505Z 10012KT 10SM CLR 18/02 A3008 490 34  1000 110/12 RMK AO2
14840KMKG MKG20050410101009404/10/05 10:10:31  5-MIN KMKG 101510Z 11013KT 10SM CLR 18/02 A3007 490 34  1000 120/13 RMK AO2
14840KMKG MKG20050410101509404/10/05 10:15:31  5-MIN KMKG 101515Z 11013KT 10SM CLR 19/02 A3007 490 32  1100 120/13 RMK AO2
14840KMKG MKG20050410102010004/10/05 10:20:31  5-MIN KMKG 101520Z 11011G16KT 10SM CLR 19/02 A3007 490  32 1100 110/11G16 RMK AO2
14840KMKG MKG20050410102510004/10/05 10:25:31  5-MIN KMKG 101525Z 10010G16KT 10SM CLR 19/02 A3006 500  32 1100 100/10G16 RMK AO2
14840KMKG MKG20050410103009404/10/05 10:30:31  5-MIN KMKG 101530Z 09014KT 10SM CLR 19/03 A3006 500 33  1200 100/14 RMK AO2
14840KMKG MKG20050410103509404/10/05 10:35:31  5-MIN KMKG 101535Z 11012KT 10SM CLR 19/02 A3006 500 31  1200 120/12 RMK AO2
14840KMKG MKG20050410104009404/10/05 10:40:31  5-MIN KMKG 101540Z 10015KT 10SM CLR 20/03 A3006 500 31  1200 110/15 RMK AO2
14840KMKG MKG20050410104509404/10/05 10:45:31  5-MIN KMKG 101545Z 11015KT 10SM CLR 20/03 A3006 500 31  1200 120/15 RMK AO2
14840KMKG MKG20050410105011104/10/05 10:50:31  5-MIN KMKG 101550Z 12016KT 10SM CLR 20/03 A3007 500 31  1200 120/16 RMK AO2 SLP181 T02000028
14840KMKG MKG20050410105511104/10/05 10:55:31  5-MIN KMKG 101555Z 12016KT 10SM CLR 20/03 A3006 500 31  1200 120/16 RMK AO2 SLP180 T02000028
14840KMKG MKG20050410110009404/10/05 11:00:31  5-MIN KMKG 101600Z 10016KT 10SM CLR 20/02 A3006 500 30  1200 110/16 RMK AO2
14840KMKG MKG20050410110509404/10/05 11:05:31  5-MIN KMKG 101605Z 10016KT 10SM CLR 20/02 A3006 500 30  1200 100/16 RMK AO2
14840KMKG MKG20050410111009404/10/05 11:10:31  5-MIN KMKG 101610Z 09014KT 10SM CLR 20/02 A3006 500 30  1200 100/14 RMK AO2
14840KMKG MKG20050410111509404/10/05 11:15:31  5-MIN KMKG 101615Z 09013KT 10SM CLR 21/03 A3006 500 30  1300 100/13 RMK AO2
14840KMKG MKG20050410112009404/10/05 11:20:31  5-MIN KMKG 101620Z 10014KT 10SM CLR 21/03 A3006 500 29  1400 100/14 RMK AO2
14840KMKG MKG20050410112509404/10/05 11:25:31  5-MIN KMKG 101625Z 12013KT 10SM CLR 21/03 A3006 500 30  1400 120/13 RMK AO2
14840KMKG MKG20050410113009404/10/05 11:30:31  5-MIN KMKG 101630Z 10010KT 10SM CLR 21/03 A3005 510 30  1400 100/10 RMK AO2
14840KMKG MKG20050410113509404/10/05 11:35:31  5-MIN KMKG 101635Z 10014KT 10SM CLR 22/03 A3006 510 29  1400 110/14 RMK AO2
14840KMKG MKG20050410114009404/10/05 11:40:31  5-MIN KMKG 101640Z 12012KT 10SM CLR 21/03 A3005 510 30  1400 120/12 RMK AO2
14840KMKG MKG20050410114509404/10/05 11:45:31  5-MIN KMKG 101645Z 09010KT 10SM CLR 22/03 A3005 510 29  1400 090/10 RMK AO2
14840KMKG MKG20050410115011104/10/05 11:50:31  5-MIN KMKG 101650Z 10014KT 10SM CLR 22/03 A3005 510 29  1400 100/14 RMK AO2 SLP175 T02170033
14840KMKG MKG20050410115511104/10/05 11:55:31  5-MIN KMKG 101655Z 12011KT 10SM CLR 21/03 A3004 520 30  1400 120/11 RMK AO2 SLP174 T02110033
14840KMKG MKG20050410120009404/10/05 12:00:31  5-MIN KMKG 101700Z 10013KT 10SM CLR 22/03 A3004 520 29  1500 110/13 RMK AO2
14840KMKG MKG20050410120510004/10/05 12:05:31  5-MIN KMKG 101705Z 10013G18KT 10SM CLR 22/03 A3005 520  28 1500 100/13G18 RMK AO2
14840KMKG MKG20050410121009404/10/05 12:10:31  5-MIN KMKG 101710Z 09012KT 10SM CLR 22/03 A3004 520 28  1500 090/12 RMK AO2
14840KMKG MKG20050410121509404/10/05 12:15:31  5-MIN KMKG 101715Z 09013KT 10SM CLR 22/03 A3004 520 28  1500 090/13 RMK AO2
14840KMKG MKG20050410122009404/10/05 12:20:31  5-MIN KMKG 101720Z 10010KT 10SM CLR 23/03 A3004 520 27  1600 100/10 RMK AO2
14840KMKG MKG20050410122509404/10/05 12:25:31  5-MIN KMKG 101725Z 09013KT 10SM CLR 23/03 A3005 510 27  1600 090/13 RMK AO2
14840KMKG MKG20050410123010904/10/05 12:30:31  5-MIN KMKG 101730Z 11012KT 070V130 10SM CLR 22/03 A3004 520 27 1500 110/12 070V130 RMK AO2
14840KMKG MKG20050410123509404/10/05 12:35:31  5-MIN KMKG 101735Z 10009KT 10SM CLR 22/03 A3004 520 28  1500 100/09 RMK AO2
14840KMKG MKG20050410124009404/10/05 12:40:31  5-MIN KMKG 101740Z 12012KT 10SM CLR 23/03 A3004 520 26  1600 120/12 RMK AO2
14840KMKG MKG20050410124509404/10/05 12:45:31  5-MIN KMKG 101745Z 10013KT 10SM CLR 22/02 A3003 520 27  1500 100/13 RMK AO2
14840KMKG MKG20050410125012904/10/05 12:50:31  5-MIN KMKG 101750Z 09011KT 10SM CLR 22/03 A3003 530 27  1500 090/11 RMK AO2 SLP170 T02220028 10228 20083 50001
14840KMKG MKG20050410125512904/10/05 12:55:31  5-MIN KMKG 101755Z 11008KT 10SM CLR 23/03 A3003 530 26  1600 110/08 RMK AO2 SLP169 T02280028 10228 20083 57015
14840KMKG MKG20050410130009404/10/05 13:00:31  5-MIN KMKG 101800Z 08011KT 10SM CLR 23/03 A3003 530 26  1700 080/11 RMK AO2
14840KMKG MKG20050410130510004/10/05 13:05:31  5-MIN KMKG 101805Z 12012G18KT 10SM CLR 23/03 A3003 530  25 1700 120/12G18 RMK AO2
14840KMKG MKG20050410131010004/10/05 13:10:31  5-MIN KMKG 101810Z 11011G18KT 10SM CLR 23/03 A3003 530  25 1700 120/11G18 RMK AO2
14840KMKG MKG20050410131510004/10/05 13:15:31  5-MIN KMKG 101815Z 10013G18KT 10SM CLR 23/03 A3003 530  25 1700 110/13G18 RMK AO2
14840KMKG MKG20050410132010004/10/05 13:20:31  5-MIN KMKG 101820Z 14010G18KT 10SM CLR 24/03 A3003 530  25 1700 150/10G18 RMK AO2
14840KMKG MKG20050410132510004/10/05 13:25:31  5-MIN KMKG 101825Z 12011G18KT 10SM CLR 24/03 A3003 530  25 1700 130/11G18 RMK AO2
14840KMKG MKG20050410133010004/10/05 13:30:31  5-MIN KMKG 101830Z 14014G18KT 10SM CLR 23/03 A3003 530  25 1700 140/14G18 RMK AO2
14840KMKG MKG20050410133509404/10/05 13:35:31  5-MIN KMKG 101835Z 11012KT 10SM CLR 23/03 A3003 530 25  1700 110/12 RMK AO2
14840KMKG MKG20050410134009404/10/05 13:40:31  5-MIN KMKG 101840Z 10010KT 10SM CLR 23/03 A3003 530 26  1600 100/10 RMK AO2
14840KMKG MKG20050410134509404/10/05 13:45:31  5-MIN KMKG 101845Z 12010KT 10SM CLR 23/03 A3004 520 26  1600 120/10 RMK AO2
14840KMKG MKG20050410135011104/10/05 13:50:31  5-MIN KMKG 101850Z 12010KT 10SM CLR 23/03 A3004 520 26  1600 130/10 RMK AO2 SLP171 T02280028
14840KMKG MKG20050410135511104/10/05 13:55:31  5-MIN KMKG 101855Z 11008KT 10SM CLR 22/02 A3004 520 26  1500 120/08 RMK AO2 SLP171 T02220022
14840KMKG MKG20050410140009404/10/05 14:00:31  5-MIN KMKG 101900Z 10007KT 10SM CLR 23/03 A3004 520 26  1600 100/07 RMK AO2
14840KMKG MKG20050410140509404/10/05 14:05:31  5-MIN KMKG 101905Z 13005KT 10SM CLR 22/03 A3004 520 27  1500 130/05 RMK AO2
14840KMKG MKG20050410141010004/10/05 14:10:31  5-MIN KMKG 101910Z 10009G15KT 10SM CLR 23/03 A3004 520  26 1600 100/09G15 RMK AO2
14840KMKG MKG20050410141509404/10/05 14:15:31  5-MIN KMKG 101915Z 09011KT 10SM CLR 23/02 A3004 520 25  1600 100/11 RMK AO2
14840KMKG MKG20050410142009404/10/05 14:20:31  5-MIN KMKG 101920Z 10012KT 10SM CLR 23/03 A3004 520 26  1600 110/12 RMK AO2
14840KMKG MKG20050410142509404/10/05 14:25:31  5-MIN KMKG 101925Z 11010KT 10SM CLR 24/03 A3004 520 26  1700 120/10 RMK AO2
14840KMKG MKG20050410143009404/10/05 14:30:31  5-MIN KMKG 101930Z 09008KT 10SM CLR 24/03 A3004 520 25  1700 090/08 RMK AO2
14840KMKG MKG20050410143510004/10/05 14:35:31  5-MIN KMKG 101935Z 10010G16KT 10SM CLR 24/03 A3003 530  26 1700 100/10G16 RMK AO2
14840KMKG MKG20050410144009404/10/05 14:40:31  5-MIN KMKG 101940Z 10010KT 10SM CLR 24/03 A3004 520 25  1700 110/10 RMK AO2
14840KMKG MKG20050410144510004/10/05 14:45:31  5-MIN KMKG 101945Z 11011G17KT 10SM CLR 24/03 A3004 520  25 1700 120/11G17 RMK AO2
14840KMKG MKG20050410145013304/10/05 14:50:31  5-MIN KMKG 101950Z 10007G17KT 060V120 10SM CLR 24/03  A3004 520 25 1700 100/07G17 060V120 RMK AO2 SLP171 T02390028
14840KMKG MKG20050410145512604/10/05 14:55:31  5-MIN KMKG 101955Z 09007KT 060V150 10SM CLR 24/03 A3003 520 26 1700 090/07 060V150 RMK AO2 SLP170 T02390033
14840KMKG MKG20050410150010004/10/05 15:00:31  5-MIN KMKG 102000Z 13008G15KT 10SM CLR 24/03 A3003 530  25 1700 130/08G15 RMK AO2
14840KMKG MKG20050410150509404/10/05 15:05:31  5-MIN KMKG 102005Z 12008KT 10SM CLR 24/02 A3003 530 23  1800 130/08 RMK AO2
14840KMKG MKG20050410151009404/10/05 15:10:31  5-MIN KMKG 102010Z 10010KT 10SM CLR 24/02 A3003 530 24  1700 110/10 RMK AO2
14840KMKG MKG20050410151509404/10/05 15:15:31  5-MIN KMKG 102015Z 09007KT 10SM CLR 24/03 A3003 530 25  1700 090/07 RMK AO2
14840KMKG MKG20050410152009404/10/05 15:20:31  5-MIN KMKG 102020Z 14010KT 10SM CLR 24/03 A3003 530 24  1800 150/10 RMK AO2
14840KMKG MKG20050410152509404/10/05 15:25:31  5-MIN KMKG 102025Z 13005KT 10SM CLR 24/02 A3003 530 24  1700 130/05 RMK AO2
14840KMKG MKG20050410153010004/10/05 15:30:31  5-MIN KMKG 102030Z 14011G14KT 10SM CLR 24/03 A3003 530  24 1800 140/11G14 RMK AO2
14840KMKG MKG20050410153510004/10/05 15:35:31  5-MIN KMKG 102035Z 14010G14KT 10SM CLR 24/02 A3003 530  24 1700 140/10G14 RMK AO2
14840KMKG MKG20050410154009404/10/05 15:40:31  5-MIN KMKG 102040Z 08010KT 10SM CLR 24/03 A3003 530 25  1700 090/10 RMK AO2
14840KMKG MKG20050410154510004/10/05 15:45:31  5-MIN KMKG 102045Z 07011G14KT 10SM CLR 24/03 A3003 530  26 1700 080/11G14 RMK AO2
14840KMKG MKG20050410155011704/10/05 15:50:31  5-MIN KMKG 102050Z 07012KT 10SM CLR 24/03 A3003 530 26  1700 070/12 RMK AO2 SLP169 T02390033 57015
14840KMKG MKG20050410155511704/10/05 15:55:31  5-MIN KMKG 102055Z 06011KT 10SM CLR 24/03 A3003 530 26  1700 070/11 RMK AO2 SLP169 T02390033 50000
14840KMKG MKG20050410160009404/10/05 16:00:31  5-MIN KMKG 102100Z 08013KT 10SM CLR 24/03 A3003 530 26  1700 080/13 RMK AO2
14840KMKG MKG20050410160509404/10/05 16:05:31  5-MIN KMKG 102105Z 08011KT 10SM CLR 24/03 A3003 530 25  1700 090/11 RMK AO2
14840KMKG MKG20050410161009404/10/05 16:10:31  5-MIN KMKG 102110Z 05008KT 10SM CLR 23/03 A3003 530 25  1700 050/08 RMK AO2
14840KMKG MKG20050410161509404/10/05 16:15:31  5-MIN KMKG 102115Z 08011KT 10SM CLR 24/03 A3003 530 26  1700 090/11 RMK AO2
14840KMKG MKG20050410162009404/10/05 16:20:31  5-MIN KMKG 102120Z 06008KT 10SM CLR 23/03 A3003 530 25  1700 060/08 RMK AO2
14840KMKG MKG20050410162509404/10/05 16:25:31  5-MIN KMKG 102125Z 07010KT 10SM CLR 23/03 A3003 520 25  1700 070/10 RMK AO2
14840KMKG MKG20050410163009404/10/05 16:30:31  5-MIN KMKG 102130Z 07012KT 10SM CLR 23/03 A3003 530 25  1700 070/12 RMK AO2
14840KMKG MKG20050410163509404/10/05 16:35:31  5-MIN KMKG 102135Z 07011KT 10SM CLR 23/03 A3004 520 25  1700 080/11 RMK AO2
14840KMKG MKG20050410164009404/10/05 16:40:31  5-MIN KMKG 102140Z 07011KT 10SM CLR 23/03 A3003 530 25  1700 070/11 RMK AO2
14840KMKG MKG20050410164509404/10/05 16:45:31  5-MIN KMKG 102145Z 07014KT 10SM CLR 23/03 A3003 530 25  1700 070/14 RMK AO2
14840KMKG MKG20050410165011104/10/05 16:50:31  5-MIN KMKG 102150Z 07011KT 10SM CLR 23/02 A3003 530 24  1700 070/11 RMK AO2 SLP170 T02330022
14840KMKG MKG20050410165511104/10/05 16:55:31  5-MIN KMKG 102155Z 06012KT 10SM CLR 23/02 A3003 530 24  1700 060/12 RMK AO2 SLP170 T02330022
14840KMKG MKG20050410170010004/10/05 17:00:31  5-MIN KMKG 102200Z 08010G17KT 10SM CLR 24/03 A3004 520  25 1700 090/10G17 RMK AO2
14840KMKG MKG20050410170509404/10/05 17:05:31  5-MIN KMKG 102205Z 08012KT 10SM CLR 23/02 A3004 520 24  1700 090/12 RMK AO2
14840KMKG MKG20050410171009404/10/05 17:10:31  5-MIN KMKG 102210Z 09011KT 10SM CLR 23/02 A3003 520 25  1600 090/11 RMK AO2
14840KMKG MKG20050410171509404/10/05 17:15:31  5-MIN KMKG 102215Z 07012KT 10SM CLR 23/02 A3004 520 25  1600 080/12 RMK AO2
14840KMKG MKG20050410172009404/10/05 17:20:31  5-MIN KMKG 102220Z 08013KT 10SM CLR 23/02 A3004 520 24  1600 080/13 RMK AO2
14840KMKG MKG20050410172509404/10/05 17:25:31  5-MIN KMKG 102225Z 09012KT 10SM CLR 23/02 A3004 520 24  1600 090/12 RMK AO2
14840KMKG MKG20050410173009404/10/05 17:30:31  5-MIN KMKG 102230Z 08011KT 10SM CLR 23/02 A3004 520 24  1600 080/11 RMK AO2
14840KMKG MKG20050410173509404/10/05 17:35:31  5-MIN KMKG 102235Z 08012KT 10SM CLR 23/02 A3004 520 24  1600 080/12 RMK AO2
14840KMKG MKG20050410174009404/10/05 17:40:31  5-MIN KMKG 102240Z 09010KT 10SM CLR 23/02 A3004 520 24  1600 090/10 RMK AO2
14840KMKG MKG20050410174509404/10/05 17:45:31  5-MIN KMKG 102245Z 10013KT 10SM CLR 23/02 A3003 530 24  1600 100/13 RMK AO2
14840KMKG MKG20050410175011104/10/05 17:50:31  5-MIN KMKG 102250Z 09012KT 10SM CLR 23/02 A3003 530 24  1600 100/12 RMK AO2 SLP169 T02280017
14840KMKG MKG20050410175511104/10/05 17:55:31  5-MIN KMKG 102255Z 08013KT 10SM CLR 22/01 A3003 530 24  1500 090/13 RMK AO2 SLP168 T02220011
14840KMKG MKG20050410180009404/10/05 18:00:31  5-MIN KMKG 102300Z 08015KT 10SM CLR 22/01 A3003 530 23  1500 080/15 RMK AO2
14840KMKG MKG20050410180510004/10/05 18:05:31  5-MIN KMKG 102305Z 09015G19KT 10SM CLR 22/01 A3003 530  23 1500 090/15G19 RMK AO2
14840KMKG MKG20050410181010004/10/05 18:10:31  5-MIN KMKG 102310Z 08013G19KT 10SM CLR 22/01 A3003 530  23 1500 090/13G19 RMK AO2
14840KMKG MKG20050410181509404/10/05 18:15:31  5-MIN KMKG 102315Z 09013KT 10SM CLR 22/01 A3003 530 24  1500 090/13 RMK AO2
14840KMKG MKG20050410182009404/10/05 18:20:31  5-MIN KMKG 102320Z 08011KT 10SM CLR 22/01 A3003 530 24  1500 090/11 RMK AO2
14840KMKG MKG20050410182509404/10/05 18:25:31  5-MIN KMKG 102325Z 07013KT 10SM CLR 21/00 A3003 530 24  1400 070/13 RMK AO2
14840KMKG MKG20050410183009404/10/05 18:30:31  5-MIN KMKG 102330Z 08012KT 10SM CLR 21/00 A3003 530 24  1400 080/12 RMK AO2
14840KMKG MKG20050410183509404/10/05 18:35:31  5-MIN KMKG 102335Z 08012KT 10SM CLR 21/00 A3003 530 24  1400 080/12 RMK AO2
14840KMKG MKG20050410184009404/10/05 18:40:31  5-MIN KMKG 102340Z 07013KT 10SM CLR 21/01 A3003 530 26  1300 080/13 RMK AO2
14840KMKG MKG20050410184509404/10/05 18:45:31  5-MIN KMKG 102345Z 07014KT 10SM CLR 21/01 A3003 530 27  1300 070/14 RMK AO2
14840KMKG MKG20050410185012904/10/05 18:50:31  5-MIN KMKG 102350Z 07013KT 10SM CLR 20/01 A3003 530 28  1300 070/13 RMK AO2 SLP170 T02000011 10244 20200 50000
14840KMKG MKG20050410185512904/10/05 18:55:31  5-MIN KMKG 102355Z 07014KT 10SM CLR 20/01 A3003 530 28  1300 070/14 RMK AO2 SLP170 T02000011 10244 20200 55000
14840KMKG MKG20050410190009404/10/05 19:00:31  5-MIN KMKG 110000Z 09012KT 10SM CLR 19/01 A3003 530 29  1200 090/12 RMK AO2
14840KMKG MKG20050410190510004/10/05 19:05:31  5-MIN KMKG 110005Z 07015G19KT 10SM CLR 19/01 A3003 530  29 1200 080/15G19 RMK AO2
14840KMKG MKG20050410191010004/10/05 19:10:31  5-MIN KMKG 110010Z 07015G22KT 10SM CLR 19/01 A3003 530  28 1200 080/15G22 RMK AO2
14840KMKG MKG20050410191510004/10/05 19:15:31  5-MIN KMKG 110015Z 07016G22KT 10SM CLR 19/01 A3003 530  29 1100 080/16G22 RMK AO2
14840KMKG MKG20050410192010004/10/05 19:20:31  5-MIN KMKG 110020Z 08013G21KT 10SM CLR 19/01 A3003 530  29 1100 080/13G21 RMK AO2
14840KMKG MKG20050410192509404/10/05 19:25:31  5-MIN KMKG 110025Z 08012KT 10SM CLR 19/01 A3003 530 29  1100 090/12 RMK AO2
14840KMKG MKG20050410193009404/10/05 19:30:31  5-MIN KMKG 110030Z 08012KT 10SM CLR 18/01 A3003 530 30  1100 090/12 RMK AO2
14840KMKG MKG20050410193509404/10/05 19:35:31  5-MIN KMKG 110035Z 08012KT 10SM CLR 18/01 A3003 530 30  1100 080/12 RMK AO2
14840KMKG MKG20050410194009404/10/05 19:40:31  5-MIN KMKG 110040Z 08012KT 10SM CLR 18/01 A3004 520 31  1000 080/12 RMK AO2
14840KMKG MKG20050410194509404/10/05 19:45:31  5-MIN KMKG 110045Z 08011KT 10SM CLR 18/01 A3003 520 30  1100 080/11 RMK AO2
14840KMKG MKG20050410195011104/10/05 19:50:31  5-MIN KMKG 110050Z 08013KT 10SM CLR 18/01 A3003 520 31  1000 090/13 RMK AO2 SLP171 T01780006
14840KMKG MKG20050410195511104/10/05 19:55:31  5-MIN KMKG 110055Z 08015KT 10SM CLR 18/01 A3004 520 31  1000 080/15 RMK AO2 SLP172 T01780006
14840KMKG MKG20050410200010004/10/05 20:00:31  5-MIN KMKG 110100Z 08013G19KT 10SM CLR 18/01 A3004 520  31 1000 080/13G19 RMK AO2
14840KMKG MKG20050410200509404/10/05 20:05:31  5-MIN KMKG 110105Z 08011KT 10SM CLR 18/01 A3004 520 31  1000 090/11 RMK AO2
14840KMKG MKG20050410201009304/10/05 20:10:31  5-MIN KMKG 110110Z 08012KT 10SM CLR 17/01 A3004 520 32  900 080/12 RMK AO2
14840KMKG MKG20050410201509904/10/05 20:15:31  5-MIN KMKG 110115Z 08013G20KT 10SM CLR 17/01 A3005 510  32 900 090/13G20 RMK AO2
14840KMKG MKG20050410202009904/10/05 20:20:31  5-MIN KMKG 110120Z 08014G20KT 10SM CLR 17/01 A3005 520  32 900 090/14G20 RMK AO2
14840KMKG MKG20050410202509304/10/05 20:25:31  5-MIN KMKG 110125Z 08012KT 10SM CLR 17/01 A3005 510 32  900 090/12 RMK AO2
14840KMKG MKG20050410203009304/10/05 20:30:31  5-MIN KMKG 110130Z 09012KT 10SM CLR 17/01 A3005 510 32  900 090/12 RMK AO2
14840KMKG MKG20050410203509304/10/05 20:35:31  5-MIN KMKG 110135Z 08013KT 10SM CLR 17/01 A3005 510 33  900 080/13 RMK AO2
14840KMKG MKG20050410204009304/10/05 20:40:31  5-MIN KMKG 110140Z 08012KT 10SM CLR 17/01 A3005 510 33  900 090/12 RMK AO2
14840KMKG MKG20050410204509904/10/05 20:45:31  5-MIN KMKG 110145Z 08014G19KT 10SM CLR 17/01 A3006 510  33 900 090/14G19 RMK AO2
14840KMKG MKG20050410205011604/10/05 20:50:31  5-MIN KMKG 110150Z 09012G19KT 10SM CLR 17/01 A3006 500  33 900 090/12G19 RMK AO2 SLP178 T01670006
14840KMKG MKG20050410205511004/10/05 20:55:31  5-MIN KMKG 110155Z 09013KT 10SM CLR 16/01 A3006 500 34  800 090/13 RMK AO2 SLP179 T01610006
14840KMKG MKG20050410210009304/10/05 21:00:31  5-MIN KMKG 110200Z 09014KT 10SM CLR 16/01 A3006 500 34  800 090/14 RMK AO2
14840KMKG MKG20050410210509304/10/05 21:05:31  5-MIN KMKG 110205Z 08014KT 10SM CLR 16/00 A3006 500 33  800 090/14 RMK AO2
14840KMKG MKG20050410211009304/10/05 21:10:31  5-MIN KMKG 110210Z 09012KT 10SM CLR 16/00 A3006 500 33  800 090/12 RMK AO2
14840KMKG MKG20050410211509904/10/05 21:15:31  5-MIN KMKG 110215Z 09014G19KT 10SM CLR 16/00 A3006 500  33 800 090/14G19 RMK AO2
14840KMKG MKG20050410212009904/10/05 21:20:31  5-MIN KMKG 110220Z 09013G19KT 10SM CLR 16/00 A3007 500  34 700 100/13G19 RMK AO2
14840KMKG MKG20050410212509904/10/05 21:25:31  5-MIN KMKG 110225Z 09015G20KT 10SM CLR 16/00 A3007 490  34 700 100/15G20 RMK AO2
14840KMKG MKG20050410213009904/10/05 21:30:31  5-MIN KMKG 110230Z 09014G20KT 10SM CLR 16/00 A3007 490  34 700 090/14G20 RMK AO2
14840KMKG MKG20050410213509304/10/05 21:35:31  5-MIN KMKG 110235Z 08011KT 10SM CLR 16/00 A3007 490 34  700 090/11 RMK AO2
14840KMKG MKG20050410214009304/10/05 21:40:31  5-MIN KMKG 110240Z 09011KT 10SM CLR 15/01 A3007 490 37  600 090/11 RMK AO2
14840KMKG MKG20050410214509304/10/05 21:45:31  5-MIN KMKG 110245Z 09012KT 10SM CLR 15/01 A3007 490 37  600 090/12 RMK AO2
14840KMKG MKG20050410215012204/10/05 21:50:31  5-MIN KMKG 110250Z 09014G20KT 10SM CLR 15/01 A3007 490  37 600 090/14G20 RMK AO2 SLP182 T01500006 55000
14840KMKG MKG20050410215512204/10/05 21:55:31  5-MIN KMKG 110255Z 09013G20KT 10SM CLR 15/01 A3007 490  37 600 090/13G20 RMK AO2 SLP183 T01500006 53013
14840KMKG MKG20050410220009304/10/05 22:00:31  5-MIN KMKG 110300Z 08013KT 10SM CLR 14/01 A3007 490 38  600 090/13 RMK AO2
14840KMKG MKG20050410220509304/10/05 22:05:31  5-MIN KMKG 110305Z 09014KT 10SM CLR 14/01 A3007 490 38  600 090/14 RMK AO2
14840KMKG MKG20050410221009304/10/05 22:10:31  5-MIN KMKG 110310Z 09014KT 10SM CLR 14/01 A3007 490 38  600 090/14 RMK AO2
14840KMKG MKG20050410221509304/10/05 22:15:31  5-MIN KMKG 110315Z 09014KT 10SM CLR 14/01 A3007 490 38  600 090/14 RMK AO2
14840KMKG MKG20050410222009304/10/05 22:20:31  5-MIN KMKG 110320Z 09014KT 10SM CLR 14/01 A3007 490 40  500 090/14 RMK AO2
14840KMKG MKG20050410222509304/10/05 22:25:31  5-MIN KMKG 110325Z 09013KT 10SM CLR 14/01 A3007 490 40  500 100/13 RMK AO2
14840KMKG MKG20050410223009904/10/05 22:30:31  5-MIN KMKG 110330Z 09014G21KT 10SM CLR 14/01 A3007 490  40 500 090/14G21 RMK AO2
14840KMKG MKG20050410223509904/10/05 22:35:31  5-MIN KMKG 110335Z 09013G21KT 10SM CLR 14/01 A3007 490  40 500 090/13G21 RMK AO2
14840KMKG MKG20050410224009904/10/05 22:40:31  5-MIN KMKG 110340Z 09014G20KT 10SM CLR 13/01 A3007 490  41 400 090/14G20 RMK AO2
14840KMKG MKG20050410224509304/10/05 22:45:31  5-MIN KMKG 110345Z 09015KT 10SM CLR 13/01 A3008 490 43  400 090/15 RMK AO2
14840KMKG MKG20050410225011604/10/05 22:50:31  5-MIN KMKG 110350Z 09012G19KT 10SM CLR 13/01 A3007 490  41 400 090/12G19 RMK AO2 SLP184 T01330006
14840KMKG MKG20050410225511004/10/05 22:55:31  5-MIN KMKG 110355Z 09013KT 10SM CLR 13/01 A3007 490 41  400 090/13 RMK AO2 SLP183 T01330006
14840KMKG MKG20050410230009904/10/05 23:00:31  5-MIN KMKG 110400Z 08016G21KT 10SM CLR 13/01 A3007 490  43 400 090/16G21 RMK AO2
14840KMKG MKG20050410230509904/10/05 23:05:31  5-MIN KMKG 110405Z 09017G23KT 10SM CLR 13/00 A3008 480  41 400 090/17G23 RMK AO2
14840KMKG MKG20050410231009904/10/05 23:10:31  5-MIN KMKG 110410Z 09015G23KT 10SM CLR 13/M01 A3008 480 39 400 090/15G23 RMK AO2
14840KMKG MKG20050410231509904/10/05 23:15:31  5-MIN KMKG 110415Z 08015G21KT 10SM CLR 13/M01 A3008 480 39 400 090/15G21 RMK AO2
14840KMKG MKG20050410232009304/10/05 23:20:31  5-MIN KMKG 110420Z 09015KT 10SM CLR 13/M01 A3008 480 39 400 090/15 RMK AO2
14840KMKG MKG20050410232509304/10/05 23:25:31  5-MIN KMKG 110425Z 08016KT 10SM CLR 12/00 A3009 480 43  300 080/16 RMK AO2
14840KMKG MKG20050410233009904/10/05 23:30:31  5-MIN KMKG 110430Z 09015G21KT 10SM CLR 12/00 A3009 470  43 300 090/15G21 RMK AO2
14840KMKG MKG20050410233509904/10/05 23:35:31  5-MIN KMKG 110435Z 09013G21KT 10SM CLR 12/M01 A3009 470 41 300 100/13G21 RMK AO2
14840KMKG MKG20050410234009904/10/05 23:40:31  5-MIN KMKG 110440Z 09017G21KT 10SM CLR 12/M01 A3009 470 41 200 090/17G21 RMK AO2
14840KMKG MKG20050410234509904/10/05 23:45:31  5-MIN KMKG 110445Z 08012G21KT 10SM CLR 12/M01 A3009 470 41 200 090/12G21 RMK AO2
14840KMKG MKG20050410235012004/10/05 23:50:31  5-MIN KMKG 110450Z 08011KT 10SM CLR 12/M01 A3009 470 41 200 090/11 RMK AO2 SLP190 T01171011 402440067
14840KMKG MKG20050410235512004/10/05 23:55:31  5-MIN KMKG 110455Z 09016KT 10SM CLR 12/M02 A3010 470 39 200 090/16 RMK AO2 SLP191 T01171017 402440067
14840KMKG MKG20050411000009304/11/05 00:00:32  5-MIN KMKG 110500Z 08016KT 10SM CLR 12/M02 A3010 470 39 200 090/16 RMK AO2
14840KMKG MKG20050411000509304/11/05 00:05:31  5-MIN KMKG 110505Z 09012KT 10SM CLR 11/M02 A3010 460 41 100 090/12 RMK AO2
14840KMKG MKG20050411001009304/11/05 00:10:31  5-MIN KMKG 110510Z 08014KT 10SM CLR 11/M02 A3010 460 41 100 090/14 RMK AO2
14840KMKG MKG20050411001509304/11/05 00:15:31  5-MIN KMKG 110515Z 08013KT 10SM CLR 11/M02 A3010 460 39 100 090/13 RMK AO2
14840KMKG MKG20050411002010304/11/05 00:20:31  5-MIN KMKG 110520Z 08014G20KT 10SM FEW100 11/M02 A3010  460 39 100 090/14G20 RMK AO2
14840KMKG MKG20050411002509604/11/05 00:25:31  5-MIN KMKG 110525Z 08011KT 10SM FEW100 11/M02 A3010 460 39 100 090/11 RMK AO2
14840KMKG MKG20050411003009604/11/05 00:30:31  5-MIN KMKG 110530Z 09014KT 10SM SCT100 11/M02 A3011 460 41 100 090/14 RMK AO2
14840KMKG MKG20050411003509604/11/05 00:35:31  5-MIN KMKG 110535Z 09013KT 10SM BKN100 11/M02 A3011 460 41 100 100/13 RMK AO2
14840KMKG MKG20050411004009604/11/05 00:40:31  5-MIN KMKG 110540Z 08012KT 10SM BKN100 11/M02 A3011 460 41 100 090/12 RMK AO2
14840KMKG MKG20050411004509604/11/05 00:45:31  5-MIN KMKG 110545Z 08012KT 10SM BKN100 11/M02 A3010 460 41 100 090/12 RMK AO2
14840KMKG MKG20050411005013804/11/05 00:50:31  5-MIN KMKG 110550Z 08014G19KT 10SM BKN100 11/M02 A3010  460 41 100 090/14G19 RMK AO2 SLP194 T01111017 10200 20111 53013
14840KMKG MKG20050411005513804/11/05 00:55:31  5-MIN KMKG 110555Z 09015G19KT 10SM SCT100 11/M02 A3010  460 41 100 090/15G19 RMK AO2 SLP192 T01111017 10200 20111 53010
14840KMKG MKG20050411010009604/11/05 01:00:31  5-MIN KMKG 110600Z 09012KT 10SM SCT100 11/M02 A3010 460 42 100 090/12 RMK AO2
14840KMKG MKG20050411010509604/11/05 01:05:31  5-MIN KMKG 110605Z 09011KT 10SM FEW100 11/M02 A3010 460 42 100 090/11 RMK AO2
14840KMKG MKG20050411011009604/11/05 01:10:31  5-MIN KMKG 110610Z 09012KT 10SM SCT100 11/M01 A3010 460 44 100 090/12 RMK AO2
14840KMKG MKG20050411011509604/11/05 01:15:31  5-MIN KMKG 110615Z 09011KT 10SM SCT095 11/M01 A3010 460 44 100 090/11 RMK AO2
14840KMKG MKG20050411012010304/11/05 01:20:31  5-MIN KMKG 110620Z 09011G18KT 10SM BKN095 11/M01 A3010  460 44 100 090/11G18 RMK AO2
14840KMKG MKG20050411012510304/11/05 01:25:31  5-MIN KMKG 110625Z 09012G18KT 10SM BKN100 11/M01 A3010  460 44 100 090/12G18 RMK AO2
14840KMKG MKG20050411013009604/11/05 01:30:31  5-MIN KMKG 110630Z 09013KT 10SM BKN100 11/M01 A3010 470 44 100 090/13 RMK AO2
14840KMKG MKG20050411013509604/11/05 01:35:31  5-MIN KMKG 110635Z 08012KT 10SM BKN100 11/M01 A3010 470 44 100 090/12 RMK AO2
14840KMKG MKG20050411014009604/11/05 01:40:31  5-MIN KMKG 110640Z 08012KT 10SM BKN095 11/M01 A3010 460 44 100 090/12 RMK AO2
14840KMKG MKG20050411014510404/11/05 01:45:31  5-MIN KMKG 110645Z 09013KT 10SM BKN090 BKN110 11/M01  A3010 460 42 100 090/13 RMK AO2
14840KMKG MKG20050411015012104/11/05 01:50:31  5-MIN KMKG 110650Z 09013KT 10SM BKN080 BKN100 11/M01  A3010 460 42 100 090/13 RMK AO2 SLP192 T01111011
14840KMKG MKG20050411015512104/11/05 01:55:31  5-MIN KMKG 110655Z 09011KT 10SM BKN080 BKN110 11/M01  A3010 460 42 100 090/11 RMK AO2 SLP193 T01111011
14840KMKG MKG20050411020009604/11/05 02:00:31  5-MIN KMKG 110700Z 09013KT 10SM OVC085 11/M01 A3010 460 42 100 090/13 RMK AO2
14840KMKG MKG20050411020510404/11/05 02:05:31  5-MIN KMKG 110705Z 08014KT 10SM BKN085 OVC100 11/M01  A3010 460 42 100 090/14 RMK AO2
14840KMKG MKG20050411021010404/11/05 02:10:31  5-MIN KMKG 110710Z 09012KT 10SM BKN080 OVC100 11/M01  A3010 460 42 100 090/12 RMK AO2
14840KMKG MKG20050411021510404/11/05 02:15:31  5-MIN KMKG 110715Z 09013KT 10SM BKN080 OVC100 11/M01  A3010 460 42 100 090/13 RMK AO2
14840KMKG MKG20050411022010404/11/05 02:20:31  5-MIN KMKG 110720Z 09012KT 10SM BKN080 OVC110 11/M01  A3010 460 42 100 090/12 RMK AO2
14840KMKG MKG20050411022511904/11/05 02:25:31  5-MIN KMKG 110725Z 09011KT 10SM SCT080 BKN110 11/M01  A3010 460 42 100 100/11 RMK AO2 CIG 090 RWY 14
14840KMKG MKG20050411023010404/11/05 02:30:31  5-MIN KMKG 110730Z 09012KT 10SM BKN080 BKN100 11/M01  A3010 470 42 200 100/12 RMK AO2
14840KMKG MKG20050411023510404/11/05 02:35:31  5-MIN KMKG 110735Z 09013KT 10SM BKN080 BKN110 11/M01  A3010 470 42 200 100/13 RMK AO2
14840KMKG MKG20050411024010404/11/05 02:40:31  5-MIN KMKG 110740Z 09011KT 10SM SCT080 BKN110 11/M01  A3010 470 42 200 090/11 RMK AO2
14840KMKG MKG20050411024510404/11/05 02:45:31  5-MIN KMKG 110745Z 08011KT 10SM SCT080 SCT110 11/M01  A3010 470 42 200 090/11 RMK AO2
14840KMKG MKG20050411025011304/11/05 02:50:31  5-MIN KMKG 110750Z 09012KT 10SM BKN080 11/M01 A3010 470 46 100 090/12 RMK AO2 SLP191 T01061006
14840KMKG MKG20050411025511304/11/05 02:55:31  5-MIN KMKG 110755Z 09012KT 10SM BKN080 11/M01 A3010 470 46 100 100/12 RMK AO2 SLP190 T01061006
14840KMKG MKG20050411030009604/11/05 03:00:31  5-MIN KMKG 110800Z 10012KT 10SM SCT085 11/M01 A3010 470 46 100 100/12 RMK AO2
14840KMKG MKG20050411030509604/11/05 03:05:31  5-MIN KMKG 110805Z 10010KT 10SM BKN085 11/M01 A3010 470 46 100 100/10 RMK AO2
14840KMKG MKG20050411031009604/11/05 03:10:31  5-MIN KMKG 110810Z 09013KT 10SM SCT085 11/M01 A3010 470 46 100 090/13 RMK AO2
14840KMKG MKG20050411031509604/11/05 03:15:31  5-MIN KMKG 110815Z 08012KT 10SM SCT085 11/M01 A3010 460 46 100 090/12 RMK AO2
14840KMKG MKG20050411032009604/11/05 03:20:31  5-MIN KMKG 110820Z 08012KT 10SM FEW085 11/M01 A3010 460 46 100 090/12 RMK AO2
14840KMKG MKG20050411032509604/11/05 03:25:31  5-MIN KMKG 110825Z 09011KT 10SM FEW085 11/M01 A3010 460 46 100 100/11 RMK AO2
14840KMKG MKG20050411033009604/11/05 03:30:31  5-MIN KMKG 110830Z 08010KT 10SM FEW085 11/M01 A3010 460 46 100 090/10 RMK AO2
14840KMKG MKG20050411033509104/11/05 03:35:31  5-MIN KMKG 110835Z 09013KT 10SM CLR 10/M01 A3010 460 47 0 090/13 RMK AO2
14840KMKG MKG20050411034009404/11/05 03:40:31  5-MIN KMKG 110840Z 09013KT 10SM FEW110 10/M01 A3010 470 47 0 090/13 RMK AO2
14840KMKG MKG20050411034509404/11/05 03:45:31  5-MIN KMKG 110845Z 09011KT 10SM SCT110 10/M01 A3010 470 47 0 090/11 RMK AO2
14840KMKG MKG20050411035011704/11/05 03:50:31  5-MIN KMKG 110850Z 09013KT 10SM BKN110 10/00 A3010 470  49 0 090/13 RMK AO2 SLP191 T01000000 53010
14840KMKG MKG20050411035511704/11/05 03:55:31  5-MIN KMKG 110855Z 09011KT 10SM BKN110 10/00 A3010 460  49 0 090/11 RMK AO2 SLP191 T01000000 55001
14840KMKG MKG20050411040009404/11/05 04:00:31  5-MIN KMKG 110900Z 09011KT 10SM BKN110 09/00 A3010 460  51 0 100/11 RMK AO2
14840KMKG MKG20050411040509404/11/05 04:05:31  5-MIN KMKG 110905Z 10012KT 10SM BKN110 09/00 A3010 460  51 0 100/12 RMK AO2
14840KMKG MKG20050411041009404/11/05 04:10:31  5-MIN KMKG 110910Z 09012KT 10SM BKN110 09/00 A3010 460  51 0 100/12 RMK AO2
14840KMKG MKG20050411041509404/11/05 04:15:31  5-MIN KMKG 110915Z 09012KT 10SM SCT120 09/00 A3010 460  51 0 090/12 RMK AO2
14840KMKG MKG20050411042009404/11/05 04:20:31  5-MIN KMKG 110920Z 09014KT 10SM SCT120 09/00 A3010 460  51 0 090/14 RMK AO2
14840KMKG MKG20050411042509704/11/05 04:25:31  5-MIN KMKG 110925Z 09014KT 10SM FEW120 09/00 A3010 460  53 -100 090/14 RMK AO2
14840KMKG MKG20050411043009704/11/05 04:30:31  5-MIN KMKG 110930Z 09012KT 10SM FEW120 09/00 A3010 460  53 -100 090/12 RMK AO2
14840KMKG MKG20050411043509404/11/05 04:35:31  5-MIN KMKG 110935Z 08012KT 10SM CLR 09/00 A3010 460 53  -100 090/12 RMK AO2
14840KMKG MKG20050411044009404/11/05 04:40:31  5-MIN KMKG 110940Z 08014KT 10SM CLR 09/00 A3010 460 53  -100 090/14 RMK AO2
14840KMKG MKG20050411044509404/11/05 04:45:31  5-MIN KMKG 110945Z 09014KT 10SM CLR 09/00 A3010 460 53  -100 090/14 RMK AO2
14840KMKG MKG20050411045011104/11/05 04:50:31  5-MIN KMKG 110950Z 09013KT 10SM CLR 08/00 A3011 460 55  -100 090/13 RMK AO2 SLP194 T00830000
14840KMKG MKG20050411045511104/11/05 04:55:31  5-MIN KMKG 110955Z 08013KT 10SM CLR 08/00 A3011 460 55  -100 090/13 RMK AO2 SLP195 T00830000
14840KMKG MKG20050411050009404/11/05 05:00:31  5-MIN KMKG 111000Z 08014KT 10SM CLR 08/00 A3011 460 55  -100 080/14 RMK AO2
14840KMKG MKG20050411050509404/11/05 05:05:31  5-MIN KMKG 111005Z 08014KT 10SM CLR 08/00 A3011 460 55  -100 090/14 RMK AO2
14840KMKG MKG20050411051009404/11/05 05:10:31  5-MIN KMKG 111010Z 08013KT 10SM CLR 08/00 A3011 460 55  -100 080/13 RMK AO2
14840KMKG MKG20050411051509404/11/05 05:15:31  5-MIN KMKG 111015Z 08014KT 10SM CLR 08/00 A3011 460 55  -100 080/14 RMK AO2
14840KMKG MKG20050411052009404/11/05 05:20:31  5-MIN KMKG 111020Z 08014KT 10SM CLR 08/00 A3011 450 55  -100 090/14 RMK AO2
14840KMKG MKG20050411052509404/11/05 05:25:31  5-MIN KMKG 111025Z 09013KT 10SM CLR 08/00 A3011 450 55  -100 090/13 RMK AO2
14840KMKG MKG20050411053009404/11/05 05:30:31  5-MIN KMKG 111030Z 08014KT 10SM CLR 08/00 A3011 450 55  -100 090/14 RMK AO2
14840KMKG MKG20050411053509404/11/05 05:35:31  5-MIN KMKG 111035Z 09015KT 10SM CLR 08/00 A3011 450 55  -100 090/15 RMK AO2
14840KMKG MKG20050411054009404/11/05 05:40:31  5-MIN KMKG 111040Z 09016KT 10SM CLR 08/M01 A3011 450 55 -200 090/16 RMK AO2
14840KMKG MKG20050411054509404/11/05 05:45:31  5-MIN KMKG 111045Z 08015KT 10SM CLR 08/M01 A3011 450 55 -200 090/15 RMK AO2
14840KMKG MKG20050411055011104/11/05 05:50:31  5-MIN KMKG 111050Z 09015KT 10SM CLR 08/M01 A3011 450 55 -200 090/15 RMK AO2 SLP197 T00781006
14840KMKG MKG20050411055511704/11/05 05:55:31  5-MIN KMKG 111055Z 09016G22KT 10SM CLR 08/M01 A3012 450 55 -200 090/16G22 RMK AO2 SLP198 T00781006
14840KMKG MKG20050411060010004/11/05 06:00:31  5-MIN KMKG 111100Z 08015G22KT 10SM CLR 08/M01 A3012 450 55 -200 090/15G22 RMK AO2
14840KMKG MKG20050411060509404/11/05 06:05:31  5-MIN KMKG 111105Z 09015KT 10SM CLR 08/M01 A3012 450 55 -200 090/15 RMK AO2
14840KMKG MKG20050411061009404/11/05 06:10:31  5-MIN KMKG 111110Z 09013KT 10SM CLR 08/M01 A3012 450 55 -200 090/13 RMK AO2
14840KMKG MKG20050411061509404/11/05 06:15:31  5-MIN KMKG 111115Z 09016KT 10SM CLR 08/M01 A3012 450 55 -200 090/16 RMK AO2
14840KMKG MKG20050411062009404/11/05 06:20:31  5-MIN KMKG 111120Z 08013KT 10SM CLR 08/M01 A3012 450 55 -200 090/13 RMK AO2
14840KMKG MKG20050411062510004/11/05 06:25:31  5-MIN KMKG 111125Z 08013G20KT 10SM CLR 08/M01 A3012 450 53 -200 090/13G20 RMK AO2
14840KMKG MKG20050411063010404/11/05 06:30:31  5-MIN KMKG 111130Z 08014G20KT 10SM FEW120 08/M01 A3012  450 53 -200 090/14G20 RMK AO2
14840KMKG MKG20050411063510404/11/05 06:35:31  5-MIN KMKG 111135Z 09013G22KT 10SM FEW120 08/M01 A3012  450 53 -200 090/13G22 RMK AO2
14840KMKG MKG20050411064010404/11/05 06:40:31  5-MIN KMKG 111140Z 08014G22KT 10SM FEW120 08/M01 A3012  450 55 -200 090/14G22 RMK AO2
14840KMKG MKG20050411064509704/11/05 06:45:31  5-MIN KMKG 111145Z 09014KT 10SM FEW120 08/M01 A3012 450 55 -200 090/14 RMK AO2
14840KMKG MKG20050411065013204/11/05 06:50:31  5-MIN KMKG 111150Z 09015KT 10SM FEW120 08/M01 A3012 450 55 -200 090/15 RMK AO2 SLP200 T00781006 10111 20078 55001
14840KMKG MKG20050411065513204/11/05 06:55:31  5-MIN KMKG 111155Z 09014KT 10SM FEW120 08/M01 A3012 440 53 -200 090/14 RMK AO2 SLP201 T00781011 10111 20078 52007
14840KMKG MKG20050411070009704/11/05 07:00:31  5-MIN KMKG 111200Z 09014KT 10SM FEW120 08/M01 A3012 440 51 -200 100/14 RMK AO2
14840KMKG MKG20050411070509404/11/05 07:05:31  5-MIN KMKG 111205Z 08013KT 10SM CLR 08/M01 A3012 440 53 -200 080/13 RMK AO2
14840KMKG MKG20050411071009404/11/05 07:10:31  5-MIN KMKG 111210Z 09016KT 10SM CLR 08/M01 A3013 440 51 -200 090/16 RMK AO2
14840KMKG MKG20050411071509404/11/05 07:15:31  5-MIN KMKG 111215Z 09013KT 10SM CLR 08/M01 A3013 440 51 -200 100/13 RMK AO2
14840KMKG MKG20050411072010004/11/05 07:20:31  5-MIN KMKG 111220Z 09017G21KT 10SM CLR 08/M01 A3013 440 51 -200 090/17G21 RMK AO2
14840KMKG MKG20050411072510004/11/05 07:25:31  5-MIN KMKG 111225Z 09016G21KT 10SM CLR 08/M01 A3013 430 51 -200 090/16G21 RMK AO2
14840KMKG MKG20050411073010004/11/05 07:30:31  5-MIN KMKG 111230Z 08019G22KT 10SM CLR 08/M01 A3013 440 51 -200 080/19G22 RMK AO2
14840KMKG MKG20050411073510004/11/05 07:35:31  5-MIN KMKG 111235Z 08016G22KT 10SM CLR 08/M01 A3013 440 53 -200 090/16G22 RMK AO2
14840KMKG MKG20050411074009404/11/05 07:40:31  5-MIN KMKG 111240Z 08015KT 10SM CLR 08/M01 A3013 440 53 -200 090/15 RMK AO2
14840KMKG MKG20050411074509404/11/05 07:45:31  5-MIN KMKG 111245Z 09014KT 10SM CLR 09/M01 A3013 440 51 -100 090/14 RMK AO2
14840KMKG MKG20050411075011404/11/05 07:50:31  5-MIN KMKG 111250Z 09017KT 10SM FEW120 09/M01 A3013 440 51 -100 090/17 RMK AO2 SLP204 T00891006
14840KMKG MKG20050411075512104/11/05 07:55:31  5-MIN KMKG 111255Z 09013G20KT 10SM FEW120 09/M01 A3013  440 51 -100 090/13G20 RMK AO2 SLP204 T00891006
14840KMKG MKG20050411080009404/11/05 08:00:31  5-MIN KMKG 111300Z 09016KT 10SM CLR 09/M01 A3013 430 51 -100 090/16 RMK AO2
14840KMKG MKG20050411080509704/11/05 08:05:31  5-MIN KMKG 111305Z 09014G20KT 10SM CLR 09/M01 A3014 430 49 0 090/14G20 RMK AO2
14840KMKG MKG20050411081009704/11/05 08:10:31  5-MIN KMKG 111310Z 09013G20KT 10SM CLR 09/M01 A3013 430 49 0 090/13G20 RMK AO2
14840KMKG MKG20050411081509104/11/05 08:15:31  5-MIN KMKG 111315Z 09014KT 10SM CLR 09/M01 A3014 430 49 0 100/14 RMK AO2
14840KMKG MKG20050411082009004/11/05 08:20:31  5-MIN KMKG 111320Z 08014KT 10SM CLR 09/00 A3014 430 51 0 080/14 RMK AO2
14840KMKG MKG20050411082509004/11/05 08:25:31  5-MIN KMKG 111325Z 08015KT 10SM CLR 09/00 A3014 430 51 0 090/15 RMK AO2
14840KMKG MKG20050411083009704/11/05 08:30:31  5-MIN KMKG 111330Z 09015G21KT 10SM CLR 10/00 A3013 430  49 0 090/15G21 RMK AO2
14840KMKG MKG20050411083509704/11/05 08:35:31  5-MIN KMKG 111335Z 09016G21KT 10SM CLR 10/00 A3014 430  49 0 100/16G21 RMK AO2
14840KMKG MKG20050411084009704/11/05 08:40:31  5-MIN KMKG 111340Z 10012G20KT 10SM CLR 11/00 A3014 430  48 0 100/12G20 RMK AO2
14840KMKG MKG20050411084509904/11/05 08:45:31  5-MIN KMKG 111345Z 10013G20KT 10SM CLR 11/00 A3014 430  46 100 100/13G20 RMK AO2
14840KMKG MKG20050411085011604/11/05 08:50:31  5-MIN KMKG 111350Z 09016G21KT 10SM CLR 11/00 A3014 430  46 100 100/16G21 RMK AO2 SLP206 T01110000
14840KMKG MKG20050411085511604/11/05 08:55:31  5-MIN KMKG 111355Z 09015G21KT 10SM CLR 11/00 A3013 430  46 100 100/15G21 RMK AO2 SLP205 T01110000
14840KMKG MKG20050411090009904/11/05 09:00:31  5-MIN KMKG 111400Z 09015G21KT 10SM CLR 12/00 A3014 430  44 200 100/15G21 RMK AO2
14840KMKG MKG20050411090509904/11/05 09:05:31  5-MIN KMKG 111405Z 09013G21KT 10SM CLR 12/00 A3013 430  44 200 090/13G21 RMK AO2
14840KMKG MKG20050411091009904/11/05 09:10:31  5-MIN KMKG 111410Z 09016G20KT 10SM CLR 12/01 A3013 440  44 300 090/16G20 RMK AO2
14840KMKG MKG20050411091509904/11/05 09:15:31  5-MIN KMKG 111415Z 09018G22KT 10SM CLR 13/00 A3013 440  41 300 100/18G22 RMK AO2
14840KMKG MKG20050411092009904/11/05 09:20:31  5-MIN KMKG 111420Z 09014G22KT 10SM CLR 13/00 A3013 440  41 300 090/14G22 RMK AO2
14840KMKG MKG20050411092509904/11/05 09:25:31  5-MIN KMKG 111425Z 09017G21KT 10SM CLR 13/01 A3013 440  41 400 100/17G21 RMK AO2
14840KMKG MKG20050411093009904/11/05 09:30:31  5-MIN KMKG 111430Z 09016G21KT 10SM CLR 13/00 A3012 440  40 400 100/16G21 RMK AO2
14840KMKG MKG20050411093509304/11/05 09:35:31  5-MIN KMKG 111435Z 09015KT 10SM CLR 14/01 A3012 440 40  500 100/15 RMK AO2
14840KMKG MKG20050411094009904/11/05 09:40:31  5-MIN KMKG 111440Z 09017G22KT 10SM CLR 14/00 A3012 450  38 500 090/17G22 RMK AO2
14840KMKG MKG20050411094509904/11/05 09:45:31  5-MIN KMKG 111445Z 10018G22KT 10SM CLR 14/00 A3012 450  38 500 100/18G22 RMK AO2
14840KMKG MKG20050411095012204/11/05 09:50:31  5-MIN KMKG 111450Z 10016G22KT 10SM CLR 14/00 A3012 450  38 500 100/16G22 RMK AO2 SLP199 T01390000 52007
14840KMKG MKG20050411095512504/11/05 09:55:31  5-MIN KMKG 111455Z 09016G20KT 10SM FEW120 14/00 A3011  450 37 500 100/16G20 RMK AO2 SLP198 T01440000 58002
14840KMKG MKG20050411100009904/11/05 10:00:31  5-MIN KMKG 111500Z 09019G24KT 10SM CLR 15/01 A3012 450  37 600 090/19G24 RMK AO2
14840KMKG MKG20050411100509904/11/05 10:05:31  5-MIN KMKG 111505Z 09017G24KT 10SM CLR 15/00 A3011 450  35 600 090/17G24 RMK AO2
14840KMKG MKG20050411101009904/11/05 10:10:31  5-MIN KMKG 111510Z 10016G22KT 10SM CLR 15/00 A3011 450  35 600 100/16G22 RMK AO2
14840KMKG MKG20050411101509904/11/05 10:15:31  5-MIN KMKG 111515Z 10018G23KT 10SM CLR 16/00 A3011 450  34 700 110/18G23 RMK AO2
14840KMKG MKG20050411102009904/11/05 10:20:31  5-MIN KMKG 111520Z 10019G24KT 10SM CLR 16/01 A3011 450  34 700 100/19G24 RMK AO2
14840KMKG MKG20050411102509904/11/05 10:25:31  5-MIN KMKG 111525Z 10017G24KT 10SM CLR 16/01 A3011 450  34 700 100/17G24 RMK AO2
14840KMKG MKG20050411103009904/11/05 10:30:31  5-MIN KMKG 111530Z 09020G24KT 10SM CLR 16/01 A3011 460  34 700 090/20G24 RMK AO2
14840KMKG MKG20050411103509904/11/05 10:35:31  5-MIN KMKG 111535Z 11017G24KT 10SM CLR 16/01 A3011 450  34 700 120/17G24 RMK AO2
14840KMKG MKG20050411104009904/11/05 10:40:31  5-MIN KMKG 111540Z 10016G24KT 10SM CLR 17/01 A3011 450  33 800 100/16G24 RMK AO2
14840KMKG MKG20050411104509904/11/05 10:45:31  5-MIN KMKG 111545Z 11019G24KT 10SM CLR 17/01 A3011 460  34 800 110/19G24 RMK AO2
14840KMKG MKG20050411105013404/11/05 10:50:31  5-MIN KMKG 111550Z 11021G28KT 10SM CLR 17/01 A3011 450  33 800 110/21G28 RMK AO2 PK WND 11028/1547 SLP197 T01670006
14840KMKG MKG20050411105513404/11/05 10:55:31  5-MIN KMKG 111555Z 10020G28KT 10SM CLR 17/01 A3011 450  33 800 100/20G28 RMK AO2 PK WND 11028/1547 SLP197 T01670006
14840KMKG MKG20050411110009904/11/05 11:00:31  5-MIN KMKG 111600Z 10016G27KT 10SM CLR 17/01 A3011 460  32 900 110/16G27 RMK AO2
14840KMKG MKG20050411110509904/11/05 11:05:31  5-MIN KMKG 111605Z 09019G25KT 10SM CLR 17/01 A3010 460  32 900 100/19G25 RMK AO2
14840KMKG MKG20050411111011704/11/05 11:10:31  5-MIN KMKG 111610Z 10022G28KT 10SM CLR 17/01 A3011 460  32 900 100/22G28 RMK AO2 PK WND 09028/1608
14840KMKG MKG20050411111511704/11/05 11:15:31  5-MIN KMKG 111615Z 10017G28KT 10SM CLR 18/01 A3010 460  32 900 110/17G28 RMK AO2 PK WND 09028/1608
14840KMKG MKG20050411112011704/11/05 11:20:31  5-MIN KMKG 111620Z 09020G25KT 10SM CLR 18/01 A3010 460  31 900 100/20G25 RMK AO2 PK WND 09028/1608
14840KMKG MKG20050411112511804/11/05 11:25:31  5-MIN KMKG 111625Z 10015G25KT 10SM CLR 18/01 A3010 470  31 1000 110/15G25 RMK AO2 PK WND 09028/1608
14840KMKG MKG20050411113011804/11/05 11:30:31  5-MIN KMKG 111630Z 10020G24KT 10SM CLR 18/01 A3010 460  31 1000 100/20G24 RMK AO2 PK WND 09028/1608
14840KMKG MKG20050411113511804/11/05 11:35:31  5-MIN KMKG 111635Z 09018G25KT 10SM CLR 18/01 A3010 470  30 1000 100/18G25 RMK AO2 PK WND 09028/1608
14840KMKG MKG20050411114011804/11/05 11:40:31  5-MIN KMKG 111640Z 09016G25KT 10SM CLR 18/01 A3009 470  31 1000 090/16G25 RMK AO2 PK WND 09028/1608
14840KMKG MKG20050411114511804/11/05 11:45:31  5-MIN KMKG 111645Z 10020G25KT 10SM CLR 19/01 A3009 480  30 1100 100/20G25 RMK AO2 PK WND 09028/1608
14840KMKG MKG20050411115013504/11/05 11:50:31  5-MIN KMKG 111650Z 09022G27KT 10SM CLR 19/01 A3008 480  29 1100 100/22G27 RMK AO2 PK WND 09028/1608 SLP187 T01890006
14840KMKG MKG20050411115513504/11/05 11:55:31  5-MIN KMKG 111655Z 10016G28KT 10SM CLR 19/01 A3008 490  30 1100 110/16G28 RMK AO2 PK WND 10028/1651 SLP185 T01890011
14840KMKG MKG20050411120011804/11/05 12:00:31  5-MIN KMKG 111700Z 10023G28KT 10SM CLR 19/01 A3007 490  29 1200 100/23G28 RMK AO2 PK WND 09027/1700
14840KMKG MKG20050411120512504/11/05 12:05:31  5-MIN KMKG 111705Z 10021G27KT 10SM CLR 19/01 A3006 500  29 1200 100/21G27 RMK AO2 PK WND 09027/1700 PRESFR
14840KMKG MKG20050411121011804/11/05 12:10:31  5-MIN KMKG 111710Z 11018G25KT 10SM CLR 20/02 A3007 490  29 1200 110/18G25 RMK AO2 PK WND 09027/1700
14840KMKG MKG20050411121511804/11/05 12:15:31  5-MIN KMKG 111715Z 10019G28KT 10SM CLR 20/01 A3007 500  28 1200 110/19G28 RMK AO2 PK WND 11028/1711
14840KMKG MKG20050411122011804/11/05 12:20:31  5-MIN KMKG 111720Z 11022G29KT 10SM CLR 20/01 A3006 500  27 1200 120/22G29 RMK AO2 PK WND 11029/1717
14840KMKG MKG20050411122511804/11/05 12:25:31  5-MIN KMKG 111725Z 10017G29KT 10SM CLR 20/01 A3006 500  28 1200 110/17G29 RMK AO2 PK WND 11029/1717
14840KMKG MKG20050411123011804/11/05 12:30:31  5-MIN KMKG 111730Z 11023G30KT 10SM CLR 21/01 A3006 500  27 1300 120/23G30 RMK AO2 PK WND 12030/1730
14840KMKG MKG20050411123511804/11/05 12:35:31  5-MIN KMKG 111735Z 11022G30KT 10SM CLR 20/01 A3005 510  27 1200 110/22G30 RMK AO2 PK WND 12030/1730
14840KMKG MKG20050411124011804/11/05 12:40:31  5-MIN KMKG 111740Z 10019G29KT 10SM CLR 21/01 A3006 500  27 1300 100/19G29 RMK AO2 PK WND 12030/1730
14840KMKG MKG20050411124511804/11/05 12:45:31  5-MIN KMKG 111745Z 10019G25KT 10SM CLR 21/01 A3007 500  27 1300 110/19G25 RMK AO2 PK WND 12030/1730
14840KMKG MKG20050411125015404/11/05 12:50:31  5-MIN KMKG 111750Z 09021G30KT 10SM CLR 21/01 A3007 500  27 1300 090/21G30 RMK AO2 PK WND 09030/1748 SLP181 T02060011 10206 20078  58002
14840KMKG MKG20050411125515404/11/05 12:55:31  5-MIN KMKG 111755Z 11023G30KT 10SM CLR 21/01 A3007 490  27 1300 120/23G30 RMK AO2 PK WND 09030/1748 SLP181 T02060011 10206 20078  58016
14840KMKG MKG20050411130011804/11/05 13:00:31  5-MIN KMKG 111800Z 10022G28KT 10SM CLR 21/01 A3007 490  27 1300 110/22G28 RMK AO2 PK WND 10027/1759
14840KMKG MKG20050411130511804/11/05 13:05:31  5-MIN KMKG 111805Z 11020G27KT 10SM CLR 21/01 A3007 490  27 1300 110/20G27 RMK AO2 PK WND 10027/1759
14840KMKG MKG20050411131011804/11/05 13:10:31  5-MIN KMKG 111810Z 09022G27KT 10SM CLR 21/01 A3008 490  27 1300 090/22G27 RMK AO2 PK WND 08027/1809
14840KMKG MKG20050411131511804/11/05 13:15:31  5-MIN KMKG 111815Z 10020G27KT 10SM CLR 21/01 A3007 490  27 1300 100/20G27 RMK AO2 PK WND 08027/1809
14840KMKG MKG20050411132011804/11/05 13:20:31  5-MIN KMKG 111820Z 10022G28KT 10SM CLR 21/01 A3008 490  27 1300 110/22G28 RMK AO2 PK WND 11028/1816
14840KMKG MKG20050411132511804/11/05 13:25:31  5-MIN KMKG 111825Z 10022G28KT 10SM CLR 21/01 A3008 490  27 1300 100/22G28 RMK AO2 PK WND 11028/1816
14840KMKG MKG20050411133011804/11/05 13:30:31  5-MIN KMKG 111830Z 10019G27KT 10SM CLR 21/01 A3008 490  27 1300 100/19G27 RMK AO2 PK WND 11028/1816
14840KMKG MKG20050411133511804/11/05 13:35:31  5-MIN KMKG 111835Z 10022G30KT 10SM CLR 21/01 A3008 490  27 1300 100/22G30 RMK AO2 PK WND 10030/1834
14840KMKG MKG20050411134011804/11/05 13:40:31  5-MIN KMKG 111840Z 11018G30KT 10SM CLR 21/01 A3008 490  26 1300 110/18G30 RMK AO2 PK WND 10030/1834
14840KMKG MKG20050411134511804/11/05 13:45:31  5-MIN KMKG 111845Z 11017G27KT 10SM CLR 21/01 A3008 480  26 1300 120/17G27 RMK AO2 PK WND 10030/1834
14840KMKG MKG20050411135013504/11/05 13:50:31  5-MIN KMKG 111850Z 09018G27KT 10SM CLR 21/01 A3008 480  26 1300 100/18G27 RMK AO2 PK WND 10030/1834 SLP185 T02110011
14840KMKG MKG20050411135513504/11/05 13:55:31  5-MIN KMKG 111855Z 11016G24KT 10SM CLR 21/01 A3008 490  26 1400 120/16G24 RMK AO2 PK WND 10030/1834 SLP185 T02110011
14840KMKG MKG20050411140010004/11/05 14:00:31  5-MIN KMKG 111900Z 10020G25KT 10SM CLR 22/01 A3008 490  25 1400 110/20G25 RMK AO2
14840KMKG MKG20050411140510004/11/05 14:05:31  5-MIN KMKG 111905Z 10017G25KT 10SM CLR 22/02 A3008 490  26 1400 110/17G25 RMK AO2
14840KMKG MKG20050411141010004/11/05 14:10:31  5-MIN KMKG 111910Z 09016G21KT 10SM CLR 22/02 A3008 480  26 1400 100/16G21 RMK AO2
14840KMKG MKG20050411141510004/11/05 14:15:31  5-MIN KMKG 111915Z 11016G22KT 10SM CLR 22/02 A3007 490  26 1400 110/16G22 RMK AO2
14840KMKG MKG20050411142010004/11/05 14:20:31  5-MIN KMKG 111920Z 12018G25KT 10SM CLR 22/01 A3007 490  25 1400 120/18G25 RMK AO2
14840KMKG MKG20050411142510004/11/05 14:25:31  5-MIN KMKG 111925Z 11013G25KT 10SM CLR 22/02 A3008 490  25 1500 110/13G25 RMK AO2
14840KMKG MKG20050411143010004/11/05 14:30:31  5-MIN KMKG 111930Z 10017G23KT 10SM CLR 22/02 A3008 490  26 1400 100/17G23 RMK AO2
14840KMKG MKG20050411143510004/11/05 14:35:31  5-MIN KMKG 111935Z 10020G23KT 10SM CLR 22/02 A3007 490  25 1500 100/20G23 RMK AO2
14840KMKG MKG20050411144010004/11/05 14:40:31  5-MIN KMKG 111940Z 10018G24KT 10SM CLR 22/01 A3007 490  25 1400 100/18G24 RMK AO2
14840KMKG MKG20050411144510004/11/05 14:45:31  5-MIN KMKG 111945Z 10021G25KT 10SM CLR 22/01 A3007 490  25 1400 100/21G25 RMK AO2
14840KMKG MKG20050411145011704/11/05 14:50:31  5-MIN KMKG 111950Z 10016G25KT 10SM CLR 22/01 A3007 490  25 1400 100/16G25 RMK AO2 SLP183 T02170011
14840KMKG MKG20050411145511704/11/05 14:55:31  5-MIN KMKG 111955Z 09014G24KT 10SM CLR 22/01 A3006 500  25 1400 100/14G24 RMK AO2 SLP180 T02170011
14840KMKG MKG20050411150010004/11/05 15:00:31  5-MIN KMKG 112000Z 09020G24KT 10SM CLR 22/01 A3006 500  25 1400 100/20G24 RMK AO2
14840KMKG MKG20050411150510004/11/05 15:05:31  5-MIN KMKG 112005Z 11018G24KT 10SM CLR 22/01 A3006 500  24 1400 120/18G24 RMK AO2
14840KMKG MKG20050411151010004/11/05 15:10:31  5-MIN KMKG 112010Z 11015G21KT 10SM CLR 22/01 A3005 510  25 1400 110/15G21 RMK AO2
14840KMKG MKG20050411151510004/11/05 15:15:31  5-MIN KMKG 112015Z 11017G25KT 10SM CLR 22/01 A3005 510  24 1500 110/17G25 RMK AO2
14840KMKG MKG20050411152010004/11/05 15:20:31  5-MIN KMKG 112020Z 10018G25KT 10SM CLR 22/01 A3005 510  25 1400 100/18G25 RMK AO2
14840KMKG MKG20050411152509404/11/05 15:25:31  5-MIN KMKG 112025Z 09016KT 10SM CLR 22/01 A3005 510 25  1400 090/16 RMK AO2
14840KMKG MKG20050411153010004/11/05 15:30:31  5-MIN KMKG 112030Z 11018G25KT 10SM CLR 22/01 A3004 520  25 1500 110/18G25 RMK AO2
14840KMKG MKG20050411153510004/11/05 15:35:31  5-MIN KMKG 112035Z 11016G25KT 10SM CLR 22/01 A3005 510  24 1500 110/16G25 RMK AO2
14840KMKG MKG20050411154011804/11/05 15:40:31  5-MIN KMKG 112040Z 10020G26KT 10SM CLR 22/01 A3005 510  24 1400 100/20G26 RMK AO2 PK WND 11026/2036
14840KMKG MKG20050411154511804/11/05 15:45:31  5-MIN KMKG 112045Z 10016G26KT 10SM CLR 22/01 A3005 510  24 1400 100/16G26 RMK AO2 PK WND 10026/2041
14840KMKG MKG20050411155014104/11/05 15:50:31  5-MIN KMKG 112050Z 09015G26KT 10SM CLR 22/01 A3004 520  24 1500 100/15G26 RMK AO2 PK WND 10026/2041 SLP172 T02220011 58016
14840KMKG MKG20050411155514104/11/05 15:55:31  5-MIN KMKG 112055Z 11015G23KT 10SM CLR 22/01 A3005 510  23 1500 110/15G23 RMK AO2 PK WND 10026/2041 SLP174 T02220006 58007
14840KMKG MKG20050411160010004/11/05 16:00:31  5-MIN KMKG 112100Z 10016G22KT 10SM CLR 22/01 A3004 520  24 1500 110/16G22 RMK AO2
14840KMKG MKG20050411160510004/11/05 16:05:31  5-MIN KMKG 112105Z 10015G22KT 10SM CLR 22/01 A3005 510  24 1400 100/15G22 RMK AO2
14840KMKG MKG20050411161010004/11/05 16:10:31  5-MIN KMKG 112110Z 10015G22KT 10SM CLR 22/00 A3005 510  23 1400 100/15G22 RMK AO2
14840KMKG MKG20050411161511804/11/05 16:15:31  5-MIN KMKG 112115Z 10018G26KT 10SM CLR 22/00 A3005 510  23 1400 100/18G26 RMK AO2 PK WND 09026/2112
14840KMKG MKG20050411162011804/11/05 16:20:31  5-MIN KMKG 112120Z 10016G26KT 10SM CLR 22/M01 A3005 510 22 1400 110/16G26 RMK AO2 PK WND 09026/2112
14840KMKG MKG20050411162511804/11/05 16:25:31  5-MIN KMKG 112125Z 10020G24KT 10SM CLR 22/M01 A3005 510 22 1400 110/20G24 RMK AO2 PK WND 09026/2112
14840KMKG MKG20050411163011804/11/05 16:30:31  5-MIN KMKG 112130Z 09017G25KT 10SM CLR 21/M01 A3005 510 23 1400 090/17G25 RMK AO2 PK WND 09026/2112
14840KMKG MKG20050411163511804/11/05 16:35:31  5-MIN KMKG 112135Z 09017G25KT 10SM CLR 21/M01 A3004 520 23 1400 100/17G25 RMK AO2 PK WND 09026/2112
14840KMKG MKG20050411164011804/11/05 16:40:31  5-MIN KMKG 112140Z 10017G24KT 10SM CLR 21/M01 A3004 520 22 1400 100/17G24 RMK AO2 PK WND 09026/2112
14840KMKG MKG20050411164511804/11/05 16:45:31  5-MIN KMKG 112145Z 09014G24KT 10SM CLR 21/M01 A3004 520 22 1400 100/14G24 RMK AO2 PK WND 09026/2112
14840KMKG MKG20050411165013504/11/05 16:50:31  5-MIN KMKG 112150Z 10018G24KT 10SM CLR 21/M01 A3005 510 22 1400 100/18G24 RMK AO2 PK WND 09026/2112 SLP174 T02111011
14840KMKG MKG20050411165513504/11/05 16:55:31  5-MIN KMKG 112155Z 10016G24KT 10SM CLR 21/M01 A3005 510 22 1400 110/16G24 RMK AO2 PK WND 09026/2112 SLP174 T02111011
14840KMKG MKG20050411170009404/11/05 17:00:31  5-MIN KMKG 112200Z 09015KT 10SM CLR 21/M02 A3004 520 21 1400 090/15 RMK AO2
14840KMKG MKG20050411170510004/11/05 17:05:31  5-MIN KMKG 112205Z 09015G20KT 10SM CLR 21/M02 A3004 520 21 1400 090/15G20 RMK AO2
14840KMKG MKG20050411171010004/11/05 17:10:31  5-MIN KMKG 112210Z 10016G22KT 10SM CLR 21/M02 A3004 520 21 1400 100/16G22 RMK AO2
14840KMKG MKG20050411171510004/11/05 17:15:31  5-MIN KMKG 112215Z 09018G23KT 10SM CLR 21/M02 A3004 520 20 1400 090/18G23 RMK AO2
14840KMKG MKG20050411172010004/11/05 17:20:31  5-MIN KMKG 112220Z 09013G25KT 10SM CLR 21/M02 A3004 520 21 1300 100/13G25 RMK AO2
14840KMKG MKG20050411172510004/11/05 17:25:31  5-MIN KMKG 112225Z 08014G25KT 10SM CLR 21/M02 A3004 520 20 1400 090/14G25 RMK AO2
14840KMKG MKG20050411173010004/11/05 17:30:31  5-MIN KMKG 112230Z 08017G23KT 10SM CLR 20/M01 A3004 520 24 1300 080/17G23 RMK AO2
14840KMKG MKG20050411173509404/11/05 17:35:31  5-MIN KMKG 112235Z 08018KT 10SM CLR 20/M01 A3004 520 24 1300 080/18 RMK AO2
14840KMKG MKG20050411174009404/11/05 17:40:31  5-MIN KMKG 112240Z 09015KT 10SM CLR 19/M01 A3004 520 25 1200 100/15 RMK AO2
14840KMKG MKG20050411174510004/11/05 17:45:31  5-MIN KMKG 112245Z 08019G23KT 10SM CLR 19/M02 A3004 520 24 1200 080/19G23 RMK AO2
14840KMKG MKG20050411175011704/11/05 17:50:31  5-MIN KMKG 112250Z 09016G23KT 10SM CLR 19/M02 A3004 520 24 1200 100/16G23 RMK AO2 SLP175 T01941017
14840KMKG MKG20050411175511704/11/05 17:55:31  5-MIN KMKG 112255Z 09017G22KT 10SM CLR 19/M02 A3004 520 24 1100 090/17G22 RMK AO2 SLP174 T01891017
14840KMKG MKG20050411180010004/11/05 18:00:31  5-MIN KMKG 112300Z 09013G22KT 10SM CLR 19/M01 A3004 520 25 1100 090/13G22 RMK AO2
14840KMKG MKG20050411180510004/11/05 18:05:31  5-MIN KMKG 112305Z 09016G23KT 10SM CLR 18/M02 A3004 520 25 1100 090/16G23 RMK AO2
14840KMKG MKG20050411181010004/11/05 18:10:31  5-MIN KMKG 112310Z 09015G23KT 10SM CLR 18/M02 A3004 520 25 1100 090/15G23 RMK AO2
14840KMKG MKG20050411181510004/11/05 18:15:31  5-MIN KMKG 112315Z 09015G24KT 10SM CLR 18/M02 A3004 520 25 1100 090/15G24 RMK AO2
14840KMKG MKG20050411182010004/11/05 18:20:31  5-MIN KMKG 112320Z 09014G24KT 10SM CLR 18/M01 A3004 520 26 1100 090/14G24 RMK AO2
14840KMKG MKG20050411182510004/11/05 18:25:31  5-MIN KMKG 112325Z 09018G23KT 10SM CLR 18/M02 A3004 520 26 1000 090/18G23 RMK AO2
14840KMKG MKG20050411183010004/11/05 18:30:31  5-MIN KMKG 112330Z 09017G23KT 10SM CLR 18/M02 A3004 520 26 1000 090/17G23 RMK AO2
14840KMKG MKG20050411183509404/11/05 18:35:31  5-MIN KMKG 112335Z 09017KT 10SM CLR 18/M02 A3004 520 26 1000 090/17 RMK AO2
14840KMKG MKG20050411184009904/11/05 18:40:31  5-MIN KMKG 112340Z 08015G21KT 10SM CLR 17/M02 A3004 520 27 900 090/15G21 RMK AO2
14840KMKG MKG20050411184509904/11/05 18:45:31  5-MIN KMKG 112345Z 08014G22KT 10SM CLR 17/M02 A3004 520 27 900 090/14G22 RMK AO2
14840KMKG MKG20050411185013404/11/05 18:50:31  5-MIN KMKG 112350Z 09013G22KT 10SM CLR 17/M02 A3004 520 28 900 100/13G22 RMK AO2 SLP173 T01671017 10222 20167 58007
14840KMKG MKG20050411185513404/11/05 18:55:31  5-MIN KMKG 112355Z 08017G22KT 10SM CLR 17/M02 A3004 520 28 900 090/17G22 RMK AO2 SLP173 T01671017 10222 20167 58003
14840KMKG MKG20050411190009904/11/05 19:00:31  5-MIN KMKG 120000Z 09014G22KT 10SM CLR 16/M02 A3003 530 29 800 090/14G22 RMK AO2
14840KMKG MKG20050411190509904/11/05 19:05:31  5-MIN KMKG 120005Z 08017G25KT 10SM CLR 16/M02 A3003 530 28 800 090/17G25 RMK AO2
14840KMKG MKG20050411191009904/11/05 19:10:31  5-MIN KMKG 120010Z 08017G25KT 10SM CLR 16/M02 A3003 530 28 800 090/17G25 RMK AO2
14840KMKG MKG20050411191509904/11/05 19:15:31  5-MIN KMKG 120015Z 09016G22KT 10SM CLR 16/M02 A3003 530 29 800 090/16G22 RMK AO2
14840KMKG MKG20050411192009904/11/05 19:20:31  5-MIN KMKG 120020Z 09014G22KT 10SM CLR 16/M02 A3003 530 29 800 090/14G22 RMK AO2
14840KMKG MKG20050411192509904/11/05 19:25:31  5-MIN KMKG 120025Z 08013G22KT 10SM CLR 16/M02 A3003 530 29 800 090/13G22 RMK AO2
14840KMKG MKG20050411193009904/11/05 19:30:31  5-MIN KMKG 120030Z 08015G20KT 10SM CLR 15/M02 A3002 530 30 700 090/15G20 RMK AO2
14840KMKG MKG20050411193509904/11/05 19:35:31  5-MIN KMKG 120035Z 08015G22KT 10SM CLR 15/M02 A3002 530 30 700 090/15G22 RMK AO2
14840KMKG MKG20050411194009904/11/05 19:40:31  5-MIN KMKG 120040Z 08016G22KT 10SM CLR 15/M02 A3002 530 30 700 090/16G22 RMK AO2
14840KMKG MKG20050411194509904/11/05 19:45:31  5-MIN KMKG 120045Z 08015G22KT 10SM CLR 14/M02 A3003 530 31 600 090/15G22 RMK AO2
14840KMKG MKG20050411195011004/11/05 19:50:31  5-MIN KMKG 120050Z 08017KT 10SM CLR 14/M02 A3003 530 31 600 080/17 RMK AO2 SLP170 T01441022
14840KMKG MKG20050411195511604/11/05 19:55:31  5-MIN KMKG 120055Z 09019G25KT 10SM CLR 14/M02 A3003 530 32 600 090/19G25 RMK AO2 SLP169 T01391022
14840KMKG MKG20050411200009904/11/05 20:00:31  5-MIN KMKG 120100Z 09018G25KT 10SM CLR 14/M03 A3003 530 31 600 090/18G25 RMK AO2
14840KMKG MKG20050411200509304/11/05 20:05:31  5-MIN KMKG 120105Z 08015KT 10SM CLR 14/M03 A3003 530 31 600 080/15 RMK AO2
14840KMKG MKG20050411201009904/11/05 20:10:31  5-MIN KMKG 120110Z 08016G21KT 10SM CLR 13/M03 A3003 530 32 500 080/16G21 RMK AO2
14840KMKG MKG20050411201509304/11/05 20:15:31  5-MIN KMKG 120115Z 08013KT 10SM CLR 13/M03 A3004 520 32 500 080/13 RMK AO2
14840KMKG MKG20050411202009904/11/05 20:20:31  5-MIN KMKG 120120Z 08018G23KT 10SM CLR 13/M03 A3004 520 32 400 080/18G23 RMK AO2
14840KMKG MKG20050411202509904/11/05 20:25:31  5-MIN KMKG 120125Z 08017G23KT 10SM CLR 13/M03 A3003 530 32 400 090/17G23 RMK AO2
14840KMKG MKG20050411203009304/11/05 20:30:31  5-MIN KMKG 120130Z 08016KT 10SM CLR 13/M03 A3003 520 32 400 080/16 RMK AO2
14840KMKG MKG20050411203509304/11/05 20:35:31  5-MIN KMKG 120135Z 08017KT 10SM CLR 13/M03 A3004 520 32 400 080/17 RMK AO2
14840KMKG MKG20050411204009904/11/05 20:40:31  5-MIN KMKG 120140Z 08015G22KT 10SM CLR 12/M03 A3004 520 33 400 090/15G22 RMK AO2
14840KMKG MKG20050411204509904/11/05 20:45:31  5-MIN KMKG 120145Z 09014G22KT 10SM CLR 12/M03 A3004 520 33 400 090/14G22 RMK AO2
14840KMKG MKG20050411205011604/11/05 20:50:31  5-MIN KMKG 120150Z 09015G21KT 10SM CLR 12/M03 A3004 520 35 300 090/15G21 RMK AO2 SLP174 T01171033
14840KMKG MKG20050411205511604/11/05 20:55:31  5-MIN KMKG 120155Z 08017G22KT 10SM CLR 12/M04 A3004 520 33 300 090/17G22 RMK AO2 SLP174 T01171039
14840KMKG MKG20050411210009904/11/05 21:00:31  5-MIN KMKG 120200Z 08016G22KT 10SM CLR 12/M04 A3004 520 33 300 090/16G22 RMK AO2
14840KMKG MKG20050411210509304/11/05 21:05:31  5-MIN KMKG 120205Z 08015KT 10SM CLR 12/M03 A3004 520 35 300 090/15 RMK AO2
14840KMKG MKG20050411211009904/11/05 21:10:31  5-MIN KMKG 120210Z 09015G21KT 10SM CLR 12/M03 A3004 520 35 300 090/15G21 RMK AO2
14840KMKG MKG20050411211509904/11/05 21:15:31  5-MIN KMKG 120215Z 08019G25KT 10SM CLR 11/M03 A3004 520 36 200 080/19G25 RMK AO2
14840KMKG MKG20050411212009904/11/05 21:20:31  5-MIN KMKG 120220Z 08017G25KT 10SM CLR 11/M03 A3004 520 36 200 090/17G25 RMK AO2
14840KMKG MKG20050411212509904/11/05 21:25:31  5-MIN KMKG 120225Z 08018G24KT 10SM CLR 11/M03 A3003 530 36 200 080/18G24 RMK AO2
14840KMKG MKG20050411213009904/11/05 21:30:31  5-MIN KMKG 120230Z 08015G24KT 10SM CLR 11/M03 A3004 520 37 200 080/15G24 RMK AO2
14840KMKG MKG20050411213509904/11/05 21:35:31  5-MIN KMKG 120235Z 08016G21KT 10SM CLR 11/M03 A3004 520 37 200 090/16G21 RMK AO2
14840KMKG MKG20050411214009904/11/05 21:40:31  5-MIN KMKG 120240Z 08017G23KT 10SM CLR 11/M03 A3003 530 37 200 090/17G23 RMK AO2
14840KMKG MKG20050411214511704/11/05 21:45:31  5-MIN KMKG 120245Z 09016G32KT 10SM CLR 11/M03 A3003 530 37 200 090/16G32 RMK AO2 PK WND 07032/0243
14840KMKG MKG20050411215014004/11/05 21:50:31  5-MIN KMKG 120250Z 08016G32KT 10SM CLR 11/M03 A3003 530 37 200 090/16G32 RMK AO2 PK WND 07032/0243 SLP171 T01061033 58003
14840KMKG MKG20050411215514004/11/05 21:55:31  5-MIN KMKG 120255Z 09018G23KT 10SM CLR 10/M03 A3003 530 39 100 090/18G23 RMK AO2 PK WND 07032/0243 SLP171 T01001033 56002
14840KMKG MKG20050411220009904/11/05 22:00:31  5-MIN KMKG 120300Z 08014G23KT 10SM CLR 10/M03 A3003 530 40 100 090/14G23 RMK AO2
14840KMKG MKG20050411220509304/11/05 22:05:31  5-MIN KMKG 120305Z 09015KT 10SM CLR 10/M03 A3003 530 40 100 090/15 RMK AO2
14840KMKG MKG20050411221009904/11/05 22:10:31  5-MIN KMKG 120310Z 08017G22KT 10SM CLR 10/M03 A3003 530 40 100 090/17G22 RMK AO2
14840KMKG MKG20050411221509704/11/05 22:15:31  5-MIN KMKG 120315Z 09017G22KT 10SM CLR 09/M03 A3003 530 42 0 090/17G22 RMK AO2
14840KMKG MKG20050411222009704/11/05 22:20:31  5-MIN KMKG 120320Z 08015G21KT 10SM CLR 09/M03 A3003 520 42 0 090/15G21 RMK AO2
14840KMKG MKG20050411222509704/11/05 22:25:31  5-MIN KMKG 120325Z 08016G25KT 10SM CLR 09/M03 A3004 520 42 0 090/16G25 RMK AO2
14840KMKG MKG20050411223009704/11/05 22:30:31  5-MIN KMKG 120330Z 08017G25KT 10SM CLR 09/M03 A3004 520 43 0 090/17G25 RMK AO2
14840KMKG MKG20050411223509704/11/05 22:35:31  5-MIN KMKG 120335Z 09017G21KT 10SM CLR 09/M03 A3004 520 43 0 090/17G21 RMK AO2
14840KMKG MKG20050411224009104/11/05 22:40:31  5-MIN KMKG 120340Z 09017KT 10SM CLR 09/M03 A3004 520 43 0 090/17 RMK AO2
14840KMKG MKG20050411224509404/11/05 22:45:31  5-MIN KMKG 120345Z 08015KT 10SM CLR 08/M03 A3004 520 45 -100 090/15 RMK AO2
14840KMKG MKG20050411225011104/11/05 22:50:31  5-MIN KMKG 120350Z 08016KT 10SM CLR 08/M03 A3003 530 45 -100 090/16 RMK AO2 SLP172 T00831028
14840KMKG MKG20050411225511704/11/05 22:55:31  5-MIN KMKG 120355Z 08015G22KT 10SM CLR 08/M03 A3004 520 45 -100 090/15G22 RMK AO2 SLP173 T00831028
14840KMKG MKG20050411230010004/11/05 23:00:31  5-MIN KMKG 120400Z 09016G22KT 10SM CLR 08/M03 A3004 520 45 -100 090/16G22 RMK AO2
14840KMKG MKG20050411230510004/11/05 23:05:31  5-MIN KMKG 120405Z 09018G23KT 10SM CLR 08/M03 A3004 520 45 -100 090/18G23 RMK AO2
14840KMKG MKG20050411231010004/11/05 23:10:31  5-MIN KMKG 120410Z 08016G23KT 10SM CLR 08/M03 A3003 530 45 -100 080/16G23 RMK AO2
14840KMKG MKG20050411231510004/11/05 23:15:31  5-MIN KMKG 120415Z 09018G22KT 10SM CLR 08/M03 A3003 530 45 -100 090/18G22 RMK AO2
14840KMKG MKG20050411232010004/11/05 23:20:31  5-MIN KMKG 120420Z 09015G22KT 10SM CLR 08/M03 A3003 530 45 -100 090/15G22 RMK AO2
14840KMKG MKG20050411232510004/11/05 23:25:31  5-MIN KMKG 120425Z 09015G21KT 10SM CLR 08/M03 A3004 520 45 -100 090/15G21 RMK AO2
14840KMKG MKG20050411233010004/11/05 23:30:31  5-MIN KMKG 120430Z 09013G21KT 10SM CLR 08/M03 A3004 520 45 -100 100/13G21 RMK AO2
14840KMKG MKG20050411233510004/11/05 23:35:31  5-MIN KMKG 120435Z 09015G22KT 10SM CLR 08/M03 A3003 520 45 -100 090/15G22 RMK AO2
14840KMKG MKG20050411234010004/11/05 23:40:31  5-MIN KMKG 120440Z 08016G22KT 10SM CLR 08/M03 A3003 520 47 -100 090/16G22 RMK AO2
14840KMKG MKG20050411234510004/11/05 23:45:31  5-MIN KMKG 120445Z 09016G24KT 10SM CLR 08/M03 A3004 520 47 -100 090/16G24 RMK AO2
14840KMKG MKG20050411235012704/11/05 23:50:31  5-MIN KMKG 120450Z 09014G24KT 10SM CLR 08/M03 A3004 520 47 -100 100/14G24 RMK AO2 SLP173 T00781028 402220078
14840KMKG MKG20050411235512704/11/05 23:55:31  5-MIN KMKG 120455Z 09015G21KT 10SM CLR 08/M03 A3004 520 45 -100 100/15G21 RMK AO2 SLP172 T00831028 402220078
14840KMKG MKG20050412000010004/12/05 00:00:32  5-MIN KMKG 120500Z 09016G21KT 10SM CLR 08/M03 A3004 520 47 -100 090/16G21 RMK AO2
14840KMKG MKG20050412000510004/12/05 00:05:31  5-MIN KMKG 120505Z 09015G20KT 10SM CLR 08/M03 A3004 520 47 -100 090/15G20 RMK AO2
14840KMKG MKG20050412001009404/12/05 00:10:31  5-MIN KMKG 120510Z 09016KT 10SM CLR 08/M03 A3004 520 47 -100 100/16 RMK AO2
14840KMKG MKG20050412001510004/12/05 00:15:31  5-MIN KMKG 120515Z 08016G21KT 10SM CLR 08/M03 A3003 530 47 -100 090/16G21 RMK AO2
14840KMKG MKG20050412002010004/12/05 00:20:31  5-MIN KMKG 120520Z 08014G22KT 10SM CLR 08/M03 A3003 530 47 -100 090/14G22 RMK AO2
14840KMKG MKG20050412002510004/12/05 00:25:31  5-MIN KMKG 120525Z 09015G23KT 10SM CLR 08/M03 A3003 530 45 -100 090/15G23 RMK AO2
14840KMKG MKG20050412003010004/12/05 00:30:31  5-MIN KMKG 120530Z 08015G23KT 10SM CLR 08/M03 A3003 530 45 -100 090/15G23 RMK AO2
14840KMKG MKG20050412003510004/12/05 00:35:31  5-MIN KMKG 120535Z 08015G22KT 10SM CLR 07/M03 A3002 530 47 -200 090/15G22 RMK AO2
14840KMKG MKG20050412004010004/12/05 00:40:31  5-MIN KMKG 120540Z 09017G22KT 10SM CLR 07/M03 A3002 540 47 -200 100/17G22 RMK AO2
14840KMKG MKG20050412004510004/12/05 00:45:31  5-MIN KMKG 120545Z 09015G22KT 10SM CLR 07/M03 A3002 540 47 -200 090/15G22 RMK AO2
14840KMKG MKG20050412005013504/12/05 00:50:31  5-MIN KMKG 120550Z 08017G22KT 10SM CLR 07/M03 A3002 540 47 -200 090/17G22 RMK AO2 SLP166 T00721033 10167 20072 56002
14840KMKG MKG20050412005513504/12/05 00:55:31  5-MIN KMKG 120555Z 08017G22KT 10SM CLR 07/M04 A3002 540 45 -200 080/17G22 RMK AO2 SLP165 T00721039 10167 20072 58005
14840KMKG MKG20050412010010004/12/05 01:00:31  5-MIN KMKG 120600Z 09016G22KT 10SM CLR 07/M04 A3001 540 45 -200 090/16G22 RMK AO2
14840KMKG MKG20050412010510004/12/05 01:05:31  5-MIN KMKG 120605Z 09016G22KT 10SM CLR 07/M04 A3002 540 45 -200 090/16G22 RMK AO2
14840KMKG MKG20050412011010004/12/05 01:10:31  5-MIN KMKG 120610Z 09017G21KT 10SM CLR 07/M04 A3001 550 45 -200 100/17G21 RMK AO2
14840KMKG MKG20050412011510004/12/05 01:15:31  5-MIN KMKG 120615Z 08018G22KT 10SM CLR 07/M04 A3001 550 43 -200 090/18G22 RMK AO2
14840KMKG MKG20050412012010004/12/05 01:20:31  5-MIN KMKG 120620Z 09018G22KT 10SM CLR 07/M04 A3001 550 43 -200 090/18G22 RMK AO2
14840KMKG MKG20050412012510004/12/05 01:25:31  5-MIN KMKG 120625Z 09015G24KT 10SM CLR 07/M04 A3001 550 43 -200 100/15G24 RMK AO2
14840KMKG MKG20050412013010004/12/05 01:30:31  5-MIN KMKG 120630Z 09016G24KT 10SM CLR 07/M04 A3000 550 43 -200 090/16G24 RMK AO2
14840KMKG MKG20050412013510004/12/05 01:35:31  5-MIN KMKG 120635Z 09015G23KT 10SM CLR 07/M04 A3000 550 43 -200 090/15G23 RMK AO2
14840KMKG MKG20050412014010004/12/05 01:40:31  5-MIN KMKG 120640Z 09015G24KT 10SM CLR 07/M05 A3000 550 41 -200 090/15G24 RMK AO2
14840KMKG MKG20050412014510004/12/05 01:45:31  5-MIN KMKG 120645Z 08014G24KT 10SM CLR 07/M05 A3000 560 41 -200 090/14G24 RMK AO2
14840KMKG MKG20050412015011704/12/05 01:50:31  5-MIN KMKG 120650Z 09016G23KT 10SM CLR 07/M05 A3000 560 41 -200 090/16G23 RMK AO2 SLP159 T00721050
14840KMKG MKG20050412015511704/12/05 01:55:31  5-MIN KMKG 120655Z 09014G23KT 10SM CLR 07/M05 A3000 560 41 -200 090/14G23 RMK AO2 SLP158 T00721050
14840KMKG MKG20050412020010004/12/05 02:00:31  5-MIN KMKG 120700Z 09015G23KT 10SM CLR 07/M06 A2999 560 40 -100 090/15G23 RMK AO2
14840KMKG MKG20050412020510004/12/05 02:05:31  5-MIN KMKG 120705Z 08016G21KT 10SM CLR 07/M06 A2999 570 40 -100 090/16G21 RMK AO2
14840KMKG MKG20050412021010004/12/05 02:10:31  5-MIN KMKG 120710Z 09017G22KT 10SM CLR 07/M06 A2999 570 38 -100 090/17G22 RMK AO2
14840KMKG MKG20050412021510004/12/05 02:15:31  5-MIN KMKG 120715Z 09015G22KT 10SM CLR 07/M06 A2999 570 38 -100 090/15G22 RMK AO2
14840KMKG MKG20050412022010004/12/05 02:20:31  5-MIN KMKG 120720Z 09017G22KT 10SM CLR 07/M07 A2999 570 36 -100 100/17G22 RMK AO2
14840KMKG MKG20050412022510004/12/05 02:25:31  5-MIN KMKG 120725Z 09015G22KT 10SM CLR 07/M07 A2998 570 36 -100 090/15G22 RMK AO2
14840KMKG MKG20050412023010004/12/05 02:30:31  5-MIN KMKG 120730Z 09015G21KT 10SM CLR 07/M07 A2998 570 36 -100 090/15G21 RMK AO2
14840KMKG MKG20050412023510004/12/05 02:35:31  5-MIN KMKG 120735Z 09015G21KT 10SM CLR 07/M07 A2998 570 36 -100 100/15G21 RMK AO2
14840KMKG MKG20050412024009404/12/05 02:40:31  5-MIN KMKG 120740Z 09014KT 10SM CLR 07/M07 A2998 580 36 -100 100/14 RMK AO2
14840KMKG MKG20050412024510004/12/05 02:45:31  5-MIN KMKG 120745Z 09015G21KT 10SM CLR 07/M07 A2997 580 36 -100 090/15G21 RMK AO2
14840KMKG MKG20050412025011704/12/05 02:50:31  5-MIN KMKG 120750Z 09015G22KT 10SM CLR 07/M07 A2997 580 36 -100 090/15G22 RMK AO2 SLP149 T00721067
14840KMKG MKG20050412025511704/12/05 02:55:31  5-MIN KMKG 120755Z 09016G22KT 10SM CLR 07/M07 A2997 580 38 -200 090/16G22 RMK AO2 SLP150 T00671067
14840KMKG MKG20050412030010004/12/05 03:00:31  5-MIN KMKG 120800Z 09018G22KT 10SM CLR 07/M07 A2997 580 36 -100 100/18G22 RMK AO2
14840KMKG MKG20050412030510004/12/05 03:05:31  5-MIN KMKG 120805Z 09016G22KT 10SM CLR 07/M07 A2997 580 36 -100 100/16G22 RMK AO2
14840KMKG MKG20050412031010004/12/05 03:10:31  5-MIN KMKG 120810Z 09018G23KT 10SM CLR 07/M07 A2997 580 36 -100 100/18G23 RMK AO2
14840KMKG MKG20050412031510004/12/05 03:15:31  5-MIN KMKG 120815Z 09017G23KT 10SM CLR 07/M07 A2997 580 38 -200 090/17G23 RMK AO2
14840KMKG MKG20050412032010004/12/05 03:20:31  5-MIN KMKG 120820Z 09017G23KT 10SM CLR 07/M07 A2997 580 38 -200 090/17G23 RMK AO2
14840KMKG MKG20050412032510004/12/05 03:25:31  5-MIN KMKG 120825Z 09019G22KT 10SM CLR 07/M07 A2997 580 38 -200 100/19G22 RMK AO2
14840KMKG MKG20050412033010004/12/05 03:30:31  5-MIN KMKG 120830Z 09020G25KT 10SM CLR 07/M07 A2997 580 36 -200 100/20G25 RMK AO2
14840KMKG MKG20050412033511804/12/05 03:35:31  5-MIN KMKG 120835Z 09017G26KT 10SM CLR 07/M07 A2997 580 35 -100 100/17G26 RMK AO2 PK WND 08026/0832
14840KMKG MKG20050412034011804/12/05 03:40:31  5-MIN KMKG 120840Z 09020G26KT 10SM CLR 07/M07 A2997 590 36 -200 100/20G26 RMK AO2 PK WND 09026/0840
14840KMKG MKG20050412034511804/12/05 03:45:31  5-MIN KMKG 120845Z 09018G26KT 10SM CLR 07/M08 A2997 590 33 -100 090/18G26 RMK AO2 PK WND 09026/0840
14840KMKG MKG20050412035014104/12/05 03:50:31  5-MIN KMKG 120850Z 09016G25KT 10SM CLR 07/M08 A2997 590 35 -200 090/16G25 RMK AO2 PK WND 09026/0840 SLP148 T00671078 58005
14840KMKG MKG20050412035514104/12/05 03:55:31  5-MIN KMKG 120855Z 09019G31KT 10SM CLR 07/M08 A2997 590 35 -200 090/19G31 RMK AO2 PK WND 09031/0852 SLP148 T00671078 56017
14840KMKG MKG20050412040010004/12/05 04:00:31  5-MIN KMKG 120900Z 09021G31KT 10SM CLR 07/M08 A2996 590 35 -200 090/21G31 RMK AO2
14840KMKG MKG20050412040511804/12/05 04:05:31  5-MIN KMKG 120905Z 09020G27KT 10SM CLR 07/M08 A2996 590 35 -200 100/20G27 RMK AO2 PK WND 10027/0905
14840KMKG MKG20050412041011804/12/05 04:10:31  5-MIN KMKG 120910Z 09022G28KT 10SM CLR 07/M08 A2996 590 35 -200 100/22G28 RMK AO2 PK WND 10028/0910
14840KMKG MKG20050412041511804/12/05 04:15:31  5-MIN KMKG 120915Z 10021G28KT 10SM CLR 07/M08 A2997 590 35 -200 100/21G28 RMK AO2 PK WND 09028/0914
14840KMKG MKG20050412042011804/12/05 04:20:31  5-MIN KMKG 120920Z 09020G28KT 10SM CLR 07/M08 A2997 590 35 -200 100/20G28 RMK AO2 PK WND 09028/0920
14840KMKG MKG20050412042511804/12/05 04:25:31  5-MIN KMKG 120925Z 10020G28KT 10SM CLR 07/M08 A2997 590 35 -200 100/20G28 RMK AO2 PK WND 09028/0920
14840KMKG MKG20050412043011804/12/05 04:30:31  5-MIN KMKG 120930Z 10015G24KT 10SM CLR 07/M08 A2997 590 35 -200 100/15G24 RMK AO2 PK WND 09028/0920
14840KMKG MKG20050412043511804/12/05 04:35:31  5-MIN KMKG 120935Z 09019G26KT 10SM CLR 07/M08 A2997 580 35 -200 100/19G26 RMK AO2 PK WND 09028/0920
14840KMKG MKG20050412044011804/12/05 04:40:31  5-MIN KMKG 120940Z 10018G29KT 10SM CLR 07/M08 A2997 580 35 -200 100/18G29 RMK AO2 PK WND 09029/0937
14840KMKG MKG20050412044511804/12/05 04:45:31  5-MIN KMKG 120945Z 09016G29KT 10SM CLR 07/M08 A2997 590 35 -200 100/16G29 RMK AO2 PK WND 09029/0937
14840KMKG MKG20050412045013504/12/05 04:50:31  5-MIN KMKG 120950Z 09017G22KT 10SM CLR 07/M08 A2997 590 35 -200 100/17G22 RMK AO2 PK WND 09029/0937 SLP149 T00671078
14840KMKG MKG20050412045513504/12/05 04:55:31  5-MIN KMKG 120955Z 09018G27KT 10SM CLR 06/M08 A2997 590 36 -300 090/18G27 RMK AO2 PK WND 09029/0937 SLP149 T00611078
14840KMKG MKG20050412050010004/12/05 05:00:31  5-MIN KMKG 121000Z 09017G27KT 10SM CLR 06/M08 A2997 590 36 -300 090/17G27 RMK AO2
14840KMKG MKG20050412050511804/12/05 05:05:31  5-MIN KMKG 121005Z 08019G26KT 10SM CLR 06/M08 A2997 590 36 -300 090/19G26 RMK AO2 PK WND 08026/1004
14840KMKG MKG20050412051011804/12/05 05:10:31  5-MIN KMKG 121010Z 09016G27KT 10SM CLR 06/M08 A2997 590 36 -300 100/16G27 RMK AO2 PK WND 09027/1007
14840KMKG MKG20050412051511804/12/05 05:15:31  5-MIN KMKG 121015Z 10017G27KT 10SM CLR 06/M08 A2997 590 36 -300 100/17G27 RMK AO2 PK WND 09027/1007
14840KMKG MKG20050412052011804/12/05 05:20:31  5-MIN KMKG 121020Z 09017G22KT 10SM CLR 06/M08 A2997 590 36 -300 090/17G22 RMK AO2 PK WND 09027/1007
14840KMKG MKG20050412052511804/12/05 05:25:31  5-MIN KMKG 121025Z 09016G23KT 10SM CLR 06/M07 A2996 590 39 -300 100/16G23 RMK AO2 PK WND 09027/1007
14840KMKG MKG20050412053011804/12/05 05:30:31  5-MIN KMKG 121030Z 09017G23KT 10SM CLR 06/M07 A2997 590 39 -300 100/17G23 RMK AO2 PK WND 09027/1007
14840KMKG MKG20050412053511804/12/05 05:35:31  5-MIN KMKG 121035Z 09018G23KT 10SM CLR 06/M07 A2997 590 39 -300 090/18G23 RMK AO2 PK WND 09027/1007
14840KMKG MKG20050412054011804/12/05 05:40:31  5-MIN KMKG 121040Z 09019G27KT 10SM CLR 06/M07 A2997 590 39 -300 100/19G27 RMK AO2 PK WND 10027/1039
14840KMKG MKG20050412054511804/12/05 05:45:31  5-MIN KMKG 121045Z 09017G27KT 10SM CLR 06/M07 A2996 590 39 -300 100/17G27 RMK AO2 PK WND 10027/1039
14840KMKG MKG20050412055013504/12/05 05:50:31  5-MIN KMKG 121050Z 09015G25KT 10SM CLR 06/M07 A2997 590 39 -300 100/15G25 RMK AO2 PK WND 10027/1039 SLP150 T00561072
14840KMKG MKG20050412055513504/12/05 05:55:31  5-MIN KMKG 121055Z 09017G25KT 10SM CLR 06/M07 A2997 590 39 -300 090/17G25 RMK AO2 PK WND 10027/1039 SLP150 T00561072
14840KMKG MKG20050412060011804/12/05 06:00:31  5-MIN KMKG 121100Z 09018G26KT 10SM CLR 06/M07 A2997 590 39 -300 100/18G26 RMK AO2 PK WND 09026/1056
14840KMKG MKG20050412060511804/12/05 06:05:31  5-MIN KMKG 121105Z 09017G26KT 10SM CLR 06/M07 A2997 580 39 -300 100/17G26 RMK AO2 PK WND 09026/1056
14840KMKG MKG20050412061011804/12/05 06:10:31  5-MIN KMKG 121110Z 09018G23KT 10SM CLR 06/M07 A2997 580 39 -300 100/18G23 RMK AO2 PK WND 09026/1056
14840KMKG MKG20050412061511804/12/05 06:15:31  5-MIN KMKG 121115Z 10012G23KT 10SM CLR 06/M07 A2998 580 39 -300 100/12G23 RMK AO2 PK WND 09026/1056
14840KMKG MKG20050412062011804/12/05 06:20:31  5-MIN KMKG 121120Z 09017G22KT 10SM CLR 05/M07 A2997 580 41 -400 100/17G22 RMK AO2 PK WND 09026/1056
14840KMKG MKG20050412062511804/12/05 06:25:31  5-MIN KMKG 121125Z 09014G22KT 10SM CLR 05/M07 A2998 580 41 -400 090/14G22 RMK AO2 PK WND 09026/1056
14840KMKG MKG20050412063011204/12/05 06:30:31  5-MIN KMKG 121130Z 09015KT 10SM CLR 06/M07 A2998 580 39 -300 100/15 RMK AO2 PK WND 09026/1056
14840KMKG MKG20050412063511804/12/05 06:35:31  5-MIN KMKG 121135Z 09015G23KT 10SM CLR 06/M07 A2998 580 39 -300 090/15G23 RMK AO2 PK WND 09026/1056
14840KMKG MKG20050412064011804/12/05 06:40:31  5-MIN KMKG 121140Z 10016G23KT 10SM CLR 06/M08 A2998 580 37 -300 100/16G23 RMK AO2 PK WND 09026/1056
14840KMKG MKG20050412064511804/12/05 06:45:31  5-MIN KMKG 121145Z 09015G20KT 10SM CLR 06/M08 A2998 580 37 -300 100/15G20 RMK AO2 PK WND 09026/1056
14840KMKG MKG20050412065015404/12/05 06:50:31  5-MIN KMKG 121150Z 09014G22KT 10SM CLR 06/M08 A2998 580 37 -300 090/14G22 RMK AO2 PK WND 09026/1056 SLP153 T00561078 10072 20050  56017
14840KMKG MKG20050412065515404/12/05 06:55:31  5-MIN KMKG 121155Z 09013G23KT 10SM CLR 06/M08 A2998 570 37 -300 100/13G23 RMK AO2 PK WND 09026/1056 SLP154 T00561078 10072 20050  53005
14840KMKG MKG20050412070010004/12/05 07:00:31  5-MIN KMKG 121200Z 10016G23KT 10SM CLR 06/M08 A2998 570 37 -300 100/16G23 RMK AO2
14840KMKG MKG20050412070510004/12/05 07:05:31  5-MIN KMKG 121205Z 10016G22KT 10SM CLR 06/M08 A2998 570 37 -300 100/16G22 RMK AO2
14840KMKG MKG20050412071010004/12/05 07:10:31  5-MIN KMKG 121210Z 09014G19KT 10SM CLR 06/M08 A2998 570 37 -300 100/14G19 RMK AO2
14840KMKG MKG20050412071509404/12/05 07:15:31  5-MIN KMKG 121215Z 10014KT 10SM CLR 06/M08 A2998 580 36 -300 100/14 RMK AO2
14840KMKG MKG20050412072010004/12/05 07:20:31  5-MIN KMKG 121220Z 11014G20KT 10SM CLR 06/M08 A2998 570 35 -300 110/14G20 RMK AO2
14840KMKG MKG20050412072510004/12/05 07:25:31  5-MIN KMKG 121225Z 10018G21KT 10SM CLR 06/M08 A2998 570 35 -300 100/18G21 RMK AO2
14840KMKG MKG20050412073010004/12/05 07:30:31  5-MIN KMKG 121230Z 10015G21KT 10SM CLR 06/M08 A2998 580 35 -300 100/15G21 RMK AO2
14840KMKG MKG20050412073510004/12/05 07:35:31  5-MIN KMKG 121235Z 09014G20KT 10SM CLR 06/M08 A2997 580 35 -300 090/14G20 RMK AO2
14840KMKG MKG20050412074010004/12/05 07:40:31  5-MIN KMKG 121240Z 09014G20KT 10SM CLR 07/M08 A2997 590 33 -200 090/14G20 RMK AO2
14840KMKG MKG20050412074510704/12/05 07:45:31  5-MIN KMKG 121245Z 09017G24KT 10SM CLR 07/M08 A2996 590 33 -200 090/17G24 RMK AO2 PRESFR
14840KMKG MKG20050412075011704/12/05 07:50:31  5-MIN KMKG 121250Z 10018G24KT 10SM CLR 07/M08 A2996 600 33 -200 100/18G24 RMK AO2 SLP147 T00671083
14840KMKG MKG20050412075511704/12/05 07:55:31  5-MIN KMKG 121255Z 09018G25KT 10SM CLR 07/M09 A2995 600 31 -100 090/18G25 RMK AO2 SLP146 T00721089
14840KMKG MKG20050412080011804/12/05 08:00:31  5-MIN KMKG 121300Z 09020G27KT 10SM CLR 07/M08 A2995 600 32 -100 090/20G27 RMK AO2 PK WND 10027/1259
14840KMKG MKG20050412080511804/12/05 08:05:31  5-MIN KMKG 121305Z 08014G27KT 10SM CLR 07/M08 A2995 600 32 -100 090/14G27 RMK AO2 PK WND 10027/1259
14840KMKG MKG20050412081011504/12/05 08:10:31  5-MIN KMKG 121310Z 08017G24KT 10SM CLR 08/M08 A2995 610 31 0 090/17G24 RMK AO2 PK WND 10027/1259
14840KMKG MKG20050412081511504/12/05 08:15:31  5-MIN KMKG 121315Z 09018G24KT 10SM CLR 08/M08 A2995 610 31 0 090/18G24 RMK AO2 PK WND 10027/1259
14840KMKG MKG20050412082011504/12/05 08:20:31  5-MIN KMKG 121320Z 09019G25KT 10SM CLR 08/M08 A2994 610 31 0 100/19G25 RMK AO2 PK WND 10027/1259
14840KMKG MKG20050412082511504/12/05 08:25:31  5-MIN KMKG 121325Z 10016G26KT 10SM CLR 08/M09 A2994 610 28 0 100/16G26 RMK AO2 PK WND 10027/1259
14840KMKG MKG20050412083011504/12/05 08:30:31  5-MIN KMKG 121330Z 09019G26KT 10SM CLR 08/M09 A2994 610 29 0 090/19G26 RMK AO2 PK WND 10027/1259
14840KMKG MKG20050412083511504/12/05 08:35:31  5-MIN KMKG 121335Z 10018G25KT 10SM CLR 08/M08 A2994 620 30 0 100/18G25 RMK AO2 PK WND 10027/1259
14840KMKG MKG20050412084011504/12/05 08:40:31  5-MIN KMKG 121340Z 08018G25KT 10SM CLR 08/M09 A2994 620 28 0 090/18G25 RMK AO2 PK WND 10027/1259
14840KMKG MKG20050412084510904/12/05 08:45:31  5-MIN KMKG 121345Z 08017KT 10SM CLR 08/M09 A2993 620 28 0 090/17 RMK AO2 PK WND 10027/1259
14840KMKG MKG20050412085013204/12/05 08:50:31  5-MIN KMKG 121350Z 10018G26KT 10SM CLR 08/M09 A2993 620 28 0 100/18G26 RMK AO2 PK WND 10027/1259 SLP139 T00831089
14840KMKG MKG20050412085513404/12/05 08:55:31  5-MIN KMKG 121355Z 09019G26KT 10SM CLR 09/M09 A2993 620 26 100 100/19G26 RMK AO2 PK WND 10027/1259 SLP139 T00941089
14840KMKG MKG20050412090009904/12/05 09:00:31  5-MIN KMKG 121400Z 09017G24KT 10SM CLR 09/M09 A2994 620 26 100 100/17G24 RMK AO2
14840KMKG MKG20050412090509304/12/05 09:05:31  5-MIN KMKG 121405Z 08016KT 10SM CLR 09/M08 A2993 620 27 100 090/16 RMK AO2
14840KMKG MKG20050412091011704/12/05 09:10:31  5-MIN KMKG 121410Z 09019G26KT 10SM CLR 10/M09 A2993 620 25 200 090/19G26 RMK AO2 PK WND 09026/1408
14840KMKG MKG20050412091511704/12/05 09:15:31  5-MIN KMKG 121415Z 09017G26KT 10SM CLR 10/M08 A2993 620 26 200 090/17G26 RMK AO2 PK WND 09026/1408
14840KMKG MKG20050412092011704/12/05 09:20:31  5-MIN KMKG 121420Z 09021G29KT 10SM CLR 11/M08 A2993 620 25 300 090/21G29 RMK AO2 PK WND 09029/1420
14840KMKG MKG20050412092511704/12/05 09:25:31  5-MIN KMKG 121425Z 08017G30KT 10SM CLR 11/M09 A2992 630 24 300 090/17G30 RMK AO2 PK WND 09030/1421
14840KMKG MKG20050412093011704/12/05 09:30:31  5-MIN KMKG 121430Z 09022G30KT 10SM CLR 11/M09 A2993 620 24 300 090/22G30 RMK AO2 PK WND 09030/1421
14840KMKG MKG20050412093511704/12/05 09:35:31  5-MIN KMKG 121435Z 09023G28KT 10SM CLR 11/M09 A2992 630 23 400 090/23G28 RMK AO2 PK WND 09030/1421
14840KMKG MKG20050412094011704/12/05 09:40:31  5-MIN KMKG 121440Z 09019G28KT 10SM CLR 11/M09 A2993 630 23 300 090/19G28 RMK AO2 PK WND 09030/1421
14840KMKG MKG20050412094511704/12/05 09:45:31  5-MIN KMKG 121445Z 09017G26KT 10SM CLR 11/M08 A2993 620 25 300 090/17G26 RMK AO2 PK WND 09030/1421
14840KMKG MKG20050412095014004/12/05 09:50:31  5-MIN KMKG 121450Z 11020G25KT 10SM CLR 11/M09 A2994 610 23 300 110/20G25 RMK AO2 PK WND 09030/1421 SLP140 T01111089 53005
14840KMKG MKG20050412095514104/12/05 09:55:31  5-MIN KMKG 121455Z 10021KT 10SM CLR 11/M09 A2995 610 23 300 110/21 RMK AO2 PK WND 09030/1421 PRESRR SLP144 T01111089 55011
14840KMKG MKG20050412100009904/12/05 10:00:31  5-MIN KMKG 121500Z 10017G25KT 10SM CLR 11/M09 A2995 600 23 300 100/17G25 RMK AO2
14840KMKG MKG20050412100509904/12/05 10:05:31  5-MIN KMKG 121505Z 11020G25KT 10SM CLR 12/M08 A2995 600 24 400 110/20G25 RMK AO2
14840KMKG MKG20050412101009904/12/05 10:10:31  5-MIN KMKG 121510Z 11020G24KT 10SM CLR 12/M08 A2995 600 24 400 110/20G24 RMK AO2
14840KMKG MKG20050412101509904/12/05 10:15:31  5-MIN KMKG 121515Z 12019G24KT 10SM CLR 12/M08 A2994 610 24 400 120/19G24 RMK AO2
14840KMKG MKG20050412102009904/12/05 10:20:31  5-MIN KMKG 121520Z 11017G23KT 10SM CLR 12/M08 A2995 610 24 500 110/17G23 RMK AO2
14840KMKG MKG20050412102509904/12/05 10:25:31  5-MIN KMKG 121525Z 09017G23KT 10SM CLR 12/M08 A2994 610 24 500 100/17G23 RMK AO2
14840KMKG MKG20050412103009904/12/05 10:30:31  5-MIN KMKG 121530Z 09018G25KT 10SM CLR 12/M08 A2994 610 24 500 090/18G25 RMK AO2
14840KMKG MKG20050412103511704/12/05 10:35:31  5-MIN KMKG 121535Z 11020G26KT 10SM CLR 12/M08 A2994 610 24 500 110/20G26 RMK AO2 PK WND 11026/1535
14840KMKG MKG20050412104011704/12/05 10:40:31  5-MIN KMKG 121540Z 11022G27KT 10SM CLR 12/M08 A2994 610 23 500 110/22G27 RMK AO2 PK WND 10027/1536
14840KMKG MKG20050412104511704/12/05 10:45:31  5-MIN KMKG 121545Z 11021G27KT 10SM CLR 13/M08 A2994 610 23 500 110/21G27 RMK AO2 PK WND 11027/1545
14840KMKG MKG20050412105013404/12/05 10:50:31  5-MIN KMKG 121550Z 10021G27KT 10SM CLR 13/M08 A2994 610 22 500 110/21G27 RMK AO2 PK WND 10027/1548 SLP143 T01281083
14840KMKG MKG20050412105513404/12/05 10:55:31  5-MIN KMKG 121555Z 10021G27KT 10SM CLR 13/M08 A2994 610 22 500 110/21G27 RMK AO2 PK WND 10027/1548 SLP141 T01281083
14840KMKG MKG20050412110009904/12/05 11:00:31  5-MIN KMKG 121600Z 11020G25KT 10SM CLR 13/M08 A2993 620 22 500 110/20G25 RMK AO2
14840KMKG MKG20050412110509904/12/05 11:05:31  5-MIN KMKG 121605Z 10018G25KT 10SM CLR 13/M08 A2994 610 21 600 110/18G25 RMK AO2
14840KMKG MKG20050412111009904/12/05 11:10:31  5-MIN KMKG 121610Z 09015G25KT 10SM CLR 13/M08 A2994 610 22 600 100/15G25 RMK AO2
14840KMKG MKG20050412111509904/12/05 11:15:31  5-MIN KMKG 121615Z 09014G25KT 10SM CLR 13/M08 A2993 620 22 600 100/14G25 RMK AO2
14840KMKG MKG20050412112009904/12/05 11:20:31  5-MIN KMKG 121620Z 09018G24KT 10SM CLR 13/M08 A2994 610 21 600 090/18G24 RMK AO2
14840KMKG MKG20050412112509904/12/05 11:25:31  5-MIN KMKG 121625Z 10020G24KT 10SM CLR 13/M08 A2994 610 21 600 100/20G24 RMK AO2
14840KMKG MKG20050412113009904/12/05 11:30:31  5-MIN KMKG 121630Z 12019G24KT 10SM CLR 13/M08 A2993 620 22 600 120/19G24 RMK AO2
14840KMKG MKG20050412113509904/12/05 11:35:31  5-MIN KMKG 121635Z 10015G23KT 10SM CLR 14/M08 A2993 620 21 700 100/15G23 RMK AO2
14840KMKG MKG20050412114009904/12/05 11:40:31  5-MIN KMKG 121640Z 12017G23KT 10SM CLR 14/M08 A2993 620 20 700 120/17G23 RMK AO2
14840KMKG MKG20050412114509904/12/05 11:45:31  5-MIN KMKG 121645Z 10013G23KT 10SM CLR 14/M07 A2993 620 21 700 100/13G23 RMK AO2
14840KMKG MKG20050412115011604/12/05 11:50:31  5-MIN KMKG 121650Z 09015G19KT 10SM CLR 14/M07 A2993 620 21 700 100/15G19 RMK AO2 SLP137 T01441072
14840KMKG MKG20050412115511604/12/05 11:55:31  5-MIN KMKG 121655Z 10020G24KT 10SM CLR 14/M08 A2993 620 20 700 100/20G24 RMK AO2 SLP137 T01441078
14840KMKG MKG20050412120009904/12/05 12:00:31  5-MIN KMKG 121700Z 12020G25KT 10SM CLR 14/M08 A2993 620 20 700 120/20G25 RMK AO2
14840KMKG MKG20050412120509904/12/05 12:05:31  5-MIN KMKG 121705Z 09017G25KT 10SM CLR 14/M08 A2993 620 20 700 100/17G25 RMK AO2
14840KMKG MKG20050412121009904/12/05 12:10:31  5-MIN KMKG 121710Z 10017G23KT 10SM CLR 14/M08 A2993 620 20 700 110/17G23 RMK AO2
14840KMKG MKG20050412121509304/12/05 12:15:31  5-MIN KMKG 121715Z 10016KT 10SM CLR 14/M08 A2993 620 20 700 110/16 RMK AO2
14840KMKG MKG20050412122009304/12/05 12:20:31  5-MIN KMKG 121720Z 10018KT 10SM CLR 14/M08 A2993 620 20 700 100/18 RMK AO2
14840KMKG MKG20050412122509304/12/05 12:25:31  5-MIN KMKG 121725Z 09017KT 10SM CLR 14/M08 A2993 620 20 700 100/17 RMK AO2
14840KMKG MKG20050412123009904/12/05 12:30:31  5-MIN KMKG 121730Z 09018G24KT 10SM CLR 14/M08 A2993 620 20 700 100/18G24 RMK AO2
14840KMKG MKG20050412123509904/12/05 12:35:31  5-MIN KMKG 121735Z 09016G24KT 10SM CLR 14/M08 A2993 630 20 700 100/16G24 RMK AO2
14840KMKG MKG20050412124011704/12/05 12:40:31  5-MIN KMKG 121740Z 10024G29KT 10SM CLR 15/M08 A2992 630 19 800 110/24G29 RMK AO2 PK WND 09029/1739
14840KMKG MKG20050412124511704/12/05 12:45:31  5-MIN KMKG 121745Z 10018G29KT 10SM CLR 15/M08 A2992 630 19 800 100/18G29 RMK AO2 PK WND 09029/1739
14840KMKG MKG20050412125015304/12/05 12:50:31  5-MIN KMKG 121750Z 10013G24KT 10SM CLR 15/M08 A2992 630 19 800 110/13G24 RMK AO2 PK WND 09029/1739 SLP132 T01501083 10150 20056  55011
14840KMKG MKG20050412125515304/12/05 12:55:31  5-MIN KMKG 121755Z 11017G25KT 10SM CLR 16/M08 A2991 640 18 900 110/17G25 RMK AO2 PK WND 09029/1739 SLP131 T01561083 10156 20056  58011
14840KMKG MKG20050412130011704/12/05 13:00:31  5-MIN KMKG 121800Z 12019G26KT 10SM CLR 16/M08 A2991 640 18 900 120/19G26 RMK AO2 PK WND 11026/1756
14840KMKG MKG20050412130511704/12/05 13:05:31  5-MIN KMKG 121805Z 11020G26KT 10SM CLR 16/M08 A2992 630 18 900 110/20G26 RMK AO2 PK WND 11026/1805
14840KMKG MKG20050412131011704/12/05 13:10:31  5-MIN KMKG 121810Z 10020G26KT 10SM CLR 15/M09 A2991 640 18 800 110/20G26 RMK AO2 PK WND 11026/1805
14840KMKG MKG20050412131511704/12/05 13:15:31  5-MIN KMKG 121815Z 10018G24KT 10SM CLR 16/M09 A2991 640 17 900 100/18G24 RMK AO2 PK WND 11026/1805
14840KMKG MKG20050412132011704/12/05 13:20:31  5-MIN KMKG 121820Z 11016G21KT 10SM CLR 16/M08 A2991 640 18 900 110/16G21 RMK AO2 PK WND 11026/1805
14840KMKG MKG20050412132511804/12/05 13:25:31  5-MIN KMKG 121825Z 09015G21KT 10SM CLR 16/M08 A2991 640 18 1000 090/15G21 RMK AO2 PK WND 11026/1805
14840KMKG MKG20050412133011804/12/05 13:30:31  5-MIN KMKG 121830Z 08020G24KT 10SM CLR 16/M08 A2991 640 18 1000 090/20G24 RMK AO2 PK WND 11026/1805
14840KMKG MKG20050412133511704/12/05 13:35:31  5-MIN KMKG 121835Z 09021G27KT 10SM CLR 16/M09 A2991 640 17 900 090/21G27 RMK AO2 PK WND 08027/1833
14840KMKG MKG20050412134011704/12/05 13:40:31  5-MIN KMKG 121840Z 09020G27KT 10SM CLR 16/M09 A2991 640 17 900 090/20G27 RMK AO2 PK WND 08027/1833
14840KMKG MKG20050412134511704/12/05 13:45:31  5-MIN KMKG 121845Z 09017G25KT 10SM CLR 15/M09 A2991 640 18 800 100/17G25 RMK AO2 PK WND 08027/1833
14840KMKG MKG20050412135013404/12/05 13:50:31  5-MIN KMKG 121850Z 08016G23KT 10SM CLR 16/M08 A2991 640 19 900 080/16G23 RMK AO2 PK WND 08027/1833 SLP129 T01561078
14840KMKG MKG20050412135513404/12/05 13:55:31  5-MIN KMKG 121855Z 07023G27KT 10SM CLR 16/M08 A2990 650 18 900 080/23G27 RMK AO2 PK WND 07027/1854 SLP127 T01561083
14840KMKG MKG20050412140009904/12/05 14:00:31  5-MIN KMKG 121900Z 10016G27KT 10SM CLR 16/M09 A2990 650 17 900 100/16G27 RMK AO2
14840KMKG MKG20050412140509904/12/05 14:05:31  5-MIN KMKG 121905Z 08020G24KT 10SM CLR 16/M08 A2990 650 18 900 090/20G24 RMK AO2
14840KMKG MKG20050412141009904/12/05 14:10:31  5-MIN KMKG 121910Z 08018G24KT 10SM CLR 16/M08 A2990 640 18 900 080/18G24 RMK AO2
14840KMKG MKG20050412141509904/12/05 14:15:31  5-MIN KMKG 121915Z 09016G23KT 10SM CLR 15/M08 A2990 650 20 800 090/16G23 RMK AO2
14840KMKG MKG20050412142009904/12/05 14:20:31  5-MIN KMKG 121920Z 08018G25KT 10SM CLR 16/M08 A2990 650 18 900 090/18G25 RMK AO2
14840KMKG MKG20050412142509904/12/05 14:25:31  5-MIN KMKG 121925Z 09018G25KT 10SM CLR 16/M08 A2989 660 19 900 090/18G25 RMK AO2
14840KMKG MKG20050412143010004/12/05 14:30:31  5-MIN KMKG 121930Z 09017G24KT 10SM CLR 16/M07 A2989 650 19 1000 090/17G24 RMK AO2
14840KMKG MKG20050412143511704/12/05 14:35:31  5-MIN KMKG 121935Z 08018G27KT 10SM CLR 16/M08 A2990 650 18 900 090/18G27 RMK AO2 PK WND 08027/1932
14840KMKG MKG20050412144011804/12/05 14:40:31  5-MIN KMKG 121940Z 09018G27KT 10SM CLR 16/M08 A2989 660 18 1000 090/18G27 RMK AO2 PK WND 08027/1932
14840KMKG MKG20050412144511704/12/05 14:45:31  5-MIN KMKG 121945Z 08018G23KT 10SM CLR 16/M08 A2989 660 19 900 080/18G23 RMK AO2 PK WND 08027/1932
14840KMKG MKG20050412145013404/12/05 14:50:31  5-MIN KMKG 121950Z 09019G24KT 10SM CLR 16/M07 A2989 660 20 900 090/19G24 RMK AO2 PK WND 08027/1932 SLP124 T01561072
14840KMKG MKG20050412145513404/12/05 14:55:31  5-MIN KMKG 121955Z 06013G24KT 10SM CLR 16/M07 A2989 660 20 900 070/13G24 RMK AO2 PK WND 08027/1932 SLP123 T01561072
14840KMKG MKG20050412150010004/12/05 15:00:31  5-MIN KMKG 122000Z 10018G25KT 10SM CLR 16/M07 A2989 660 19 1000 100/18G25 RMK AO2
14840KMKG MKG20050412150511704/12/05 15:05:31  5-MIN KMKG 122005Z 07019G27KT 10SM CLR 16/M07 A2989 660 20 900 070/19G27 RMK AO2 PK WND 06027/2003
14840KMKG MKG20050412151011804/12/05 15:10:31  5-MIN KMKG 122010Z 08017G27KT 10SM CLR 16/M07 A2989 660 19 1000 090/17G27 RMK AO2 PK WND 06027/2003
14840KMKG MKG20050412151511804/12/05 15:15:31  5-MIN KMKG 122015Z 08019G24KT 10SM CLR 16/M07 A2989 660 20 1000 090/19G24 RMK AO2 PK WND 06027/2003
14840KMKG MKG20050412152011804/12/05 15:20:31  5-MIN KMKG 122020Z 09017G24KT 10SM CLR 16/M07 A2989 660 19 1000 090/17G24 RMK AO2 PK WND 06027/2003
14840KMKG MKG20050412152511704/12/05 15:25:31  5-MIN KMKG 122025Z 07015G23KT 10SM CLR 16/M07 A2989 660 20 900 070/15G23 RMK AO2 PK WND 06027/2003
14840KMKG MKG20050412153011704/12/05 15:30:31  5-MIN KMKG 122030Z 08018G31KT 10SM CLR 16/M07 A2989 660 20 900 080/18G31 RMK AO2 PK WND 07031/2027
14840KMKG MKG20050412153511704/12/05 15:35:31  5-MIN KMKG 122035Z 08017G31KT 10SM CLR 16/M07 A2989 660 20 900 080/17G31 RMK AO2 PK WND 07031/2027
14840KMKG MKG20050412154011704/12/05 15:40:31  5-MIN KMKG 122040Z 08019G25KT 10SM CLR 16/M07 A2988 660 20 900 090/19G25 RMK AO2 PK WND 07031/2027
14840KMKG MKG20050412154511704/12/05 15:45:31  5-MIN KMKG 122045Z 09017G24KT 10SM CLR 16/M08 A2988 660 19 900 090/17G24 RMK AO2 PK WND 07031/2027
14840KMKG MKG20050412155014004/12/05 15:50:31  5-MIN KMKG 122050Z 08015G24KT 10SM CLR 16/M07 A2988 670 20 900 090/15G24 RMK AO2 PK WND 07031/2027 SLP120 T01561072 58011
14840KMKG MKG20050412155514004/12/05 15:55:31  5-MIN KMKG 122055Z 08019G22KT 10SM CLR 16/M07 A2988 660 20 900 080/19G22 RMK AO2 PK WND 07031/2027 SLP121 T01561072 56010
14840KMKG MKG20050412160009904/12/05 16:00:31  5-MIN KMKG 122100Z 08019G23KT 10SM CLR 15/M08 A2988 670 20 900 080/19G23 RMK AO2
14840KMKG MKG20050412160510004/12/05 16:05:31  5-MIN KMKG 122105Z 08015G23KT 10SM CLR 16/M07 A2988 670 19 1000 080/15G23 RMK AO2
14840KMKG MKG20050412161009904/12/05 16:10:31  5-MIN KMKG 122110Z 09019G22KT 10SM CLR 16/M07 A2988 670 20 900 090/19G22 RMK AO2
14840KMKG MKG20050412161509904/12/05 16:15:31  5-MIN KMKG 122115Z 09018G22KT 10SM CLR 16/M07 A2988 670 20 900 090/18G22 RMK AO2
14840KMKG MKG20050412162009904/12/05 16:20:31  5-MIN KMKG 122120Z 07017G22KT 10SM CLR 16/M07 A2987 670 20 900 070/17G22 RMK AO2
14840KMKG MKG20050412162509904/12/05 16:25:31  5-MIN KMKG 122125Z 08017G22KT 10SM CLR 16/M07 A2988 670 20 900 080/17G22 RMK AO2
14840KMKG MKG20050412163009904/12/05 16:30:31  5-MIN KMKG 122130Z 06020G23KT 10SM CLR 16/M07 A2988 670 20 900 070/20G23 RMK AO2
14840KMKG MKG20050412163511704/12/05 16:35:31  5-MIN KMKG 122135Z 07021G28KT 10SM CLR 16/M08 A2987 670 19 900 080/21G28 RMK AO2 PK WND 08028/2134
14840KMKG MKG20050412164011704/12/05 16:40:31  5-MIN KMKG 122140Z 08021G28KT 10SM CLR 16/M08 A2988 670 19 900 080/21G28 RMK AO2 PK WND 08028/2134
14840KMKG MKG20050412164511704/12/05 16:45:31  5-MIN KMKG 122145Z 09018G26KT 10SM CLR 16/M07 A2987 680 20 900 090/18G26 RMK AO2 PK WND 08028/2134
14840KMKG MKG20050412165013504/12/05 16:50:31  5-MIN KMKG 122150Z 09015G24KT 10SM CLR 16/M08 A2987 680 18 1000 090/15G24 RMK AO2 PK WND 08028/2134 SLP116 T01611078
14840KMKG MKG20050412165513404/12/05 16:55:31  5-MIN KMKG 122155Z 08020G26KT 10SM CLR 16/M08 A2988 670 19 900 090/20G26 RMK AO2 PK WND 08028/2134 SLP118 T01561078
14840KMKG MKG20050412170010004/12/05 17:00:31  5-MIN KMKG 122200Z 09017G26KT 10SM CLR 16/M08 A2987 670 18 1000 090/17G26 RMK AO2
14840KMKG MKG20050412170509904/12/05 17:05:31  5-MIN KMKG 122205Z 09017G24KT 10SM CLR 16/M08 A2987 670 19 900 090/17G24 RMK AO2
14840KMKG MKG20050412171010004/12/05 17:10:31  5-MIN KMKG 122210Z 08018G22KT 10SM CLR 16/M08 A2988 670 18 1000 080/18G22 RMK AO2
14840KMKG MKG20050412171509904/12/05 17:15:31  5-MIN KMKG 122215Z 08019G22KT 10SM CLR 16/M08 A2988 670 19 900 080/19G22 RMK AO2
14840KMKG MKG20050412172009904/12/05 17:20:31  5-MIN KMKG 122220Z 08016G24KT 10SM CLR 16/M08 A2988 670 19 900 080/16G24 RMK AO2
14840KMKG MKG20050412172509904/12/05 17:25:31  5-MIN KMKG 122225Z 07017G24KT 10SM CLR 16/M08 A2988 670 19 900 070/17G24 RMK AO2
14840KMKG MKG20050412173009904/12/05 17:30:31  5-MIN KMKG 122230Z 07016G24KT 10SM CLR 15/M07 A2988 670 21 900 080/16G24 RMK AO2
14840KMKG MKG20050412173509904/12/05 17:35:31  5-MIN KMKG 122235Z 06019G24KT 10SM CLR 15/M07 A2988 670 21 900 070/19G24 RMK AO2
14840KMKG MKG20050412174009904/12/05 17:40:31  5-MIN KMKG 122240Z 06016G24KT 10SM CLR 15/M07 A2988 670 21 900 060/16G24 RMK AO2
14840KMKG MKG20050412174509904/12/05 17:45:31  5-MIN KMKG 122245Z 08016G24KT 10SM CLR 14/M07 A2988 670 21 800 080/16G24 RMK AO2
14840KMKG MKG20050412175011004/12/05 17:50:31  5-MIN KMKG 122250Z 07017KT 10SM CLR 14/M07 A2988 660 21 800 070/17 RMK AO2 SLP122 T01441072
14840KMKG MKG20050412175511004/12/05 17:55:31  5-MIN KMKG 122255Z 07018KT 10SM CLR 14/M07 A2988 670 21 800 080/18 RMK AO2 SLP122 T01441072
14840KMKG MKG20050412180009304/12/05 18:00:31  5-MIN KMKG 122300Z 07014KT 10SM CLR 14/M07 A2988 670 21 800 080/14 RMK AO2
14840KMKG MKG20050412180509904/12/05 18:05:31  5-MIN KMKG 122305Z 08019G24KT 10SM CLR 14/M07 A2988 670 22 700 080/19G24 RMK AO2
14840KMKG MKG20050412181009904/12/05 18:10:31  5-MIN KMKG 122310Z 07019G24KT 10SM CLR 14/M07 A2988 670 23 700 080/19G24 RMK AO2
14840KMKG MKG20050412181509904/12/05 18:15:31  5-MIN KMKG 122315Z 06015G22KT 10SM CLR 14/M06 A2988 670 25 700 070/15G22 RMK AO2
14840KMKG MKG20050412182009904/12/05 18:20:31  5-MIN KMKG 122320Z 07017G25KT 10SM CLR 13/M06 A2988 660 26 700 070/17G25 RMK AO2
14840KMKG MKG20050412182509904/12/05 18:25:31  5-MIN KMKG 122325Z 08018G25KT 10SM CLR 13/M05 A2988 670 27 700 090/18G25 RMK AO2
14840KMKG MKG20050412183009904/12/05 18:30:31  5-MIN KMKG 122330Z 08018G22KT 10SM CLR 13/M05 A2988 670 27 700 080/18G22 RMK AO2
14840KMKG MKG20050412183509904/12/05 18:35:31  5-MIN KMKG 122335Z 07015G22KT 10SM CLR 13/M05 A2988 670 28 600 070/15G22 RMK AO2
14840KMKG MKG20050412184009904/12/05 18:40:31  5-MIN KMKG 122340Z 07018G21KT 10SM CLR 13/M05 A2989 660 28 600 070/18G21 RMK AO2
14840KMKG MKG20050412184509304/12/05 18:45:31  5-MIN KMKG 122345Z 07015KT 10SM CLR 13/M06 A2988 660 27 600 080/15 RMK AO2
14840KMKG MKG20050412185013404/12/05 18:50:31  5-MIN KMKG 122350Z 08017G20KT 10SM CLR 12/M06 A2989 660 28 500 090/17G20 RMK AO2 SLP123 T01221056 10161 20122 56010
14840KMKG MKG20050412185513404/12/05 18:55:31  5-MIN KMKG 122355Z 06017G21KT 10SM CLR 12/M06 A2988 660 28 500 060/17G21 RMK AO2 SLP122 T01221056 10161 20122 53000
14840KMKG MKG20050412190009904/12/05 19:00:31  5-MIN KMKG 130000Z 07014G21KT 10SM CLR 12/M06 A2989 660 28 500 080/14G21 RMK AO2
14840KMKG MKG20050412190509304/12/05 19:05:31  5-MIN KMKG 130005Z 07018KT 10SM CLR 12/M06 A2989 660 29 500 070/18 RMK AO2
14840KMKG MKG20050412191009304/12/05 19:10:31  5-MIN KMKG 130010Z 07015KT 10SM CLR 12/M06 A2989 660 29 500 070/15 RMK AO2
14840KMKG MKG20050412191509904/12/05 19:15:31  5-MIN KMKG 130015Z 07017G22KT 10SM CLR 12/M06 A2990 650 28 400 070/17G22 RMK AO2
14840KMKG MKG20050412192009904/12/05 19:20:31  5-MIN KMKG 130020Z 08016G22KT 10SM CLR 12/M06 A2990 650 28 400 080/16G22 RMK AO2
14840KMKG MKG20050412192509904/12/05 19:25:31  5-MIN KMKG 130025Z 08014G22KT 10SM CLR 12/M06 A2990 650 28 400 080/14G22 RMK AO2
14840KMKG MKG20050412193009904/12/05 19:30:31  5-MIN KMKG 130030Z 06010G21KT 10SM CLR 11/M06 A2990 650 29 400 070/10G21 RMK AO2
14840KMKG MKG20050412193509904/12/05 19:35:31  5-MIN KMKG 130035Z 07015G19KT 10SM CLR 11/M06 A2991 640 30 300 070/15G19 RMK AO2
14840KMKG MKG20050412194009904/12/05 19:40:31  5-MIN KMKG 130040Z 07015G20KT 10SM CLR 11/M06 A2991 640 30 300 080/15G20 RMK AO2
14840KMKG MKG20050412194509904/12/05 19:45:31  5-MIN KMKG 130045Z 07013G20KT 10SM CLR 11/M06 A2992 630 30 300 070/13G20 RMK AO2
14840KMKG MKG20050412195011004/12/05 19:50:31  5-MIN KMKG 130050Z 06013KT 10SM CLR 11/M06 A2992 630 31 300 070/13 RMK AO2 SLP133 T01061056
14840KMKG MKG20050412195511004/12/05 19:55:31  5-MIN KMKG 130055Z 06015KT 10SM CLR 11/M06 A2992 630 31 300 060/15 RMK AO2 SLP134 T01061056
14840KMKG MKG20050412200009904/12/05 20:00:31  5-MIN KMKG 130100Z 07014G20KT 10SM CLR 10/M06 A2992 630 33 200 070/14G20 RMK AO2
14840KMKG MKG20050412200509904/12/05 20:05:31  5-MIN KMKG 130105Z 07013G20KT 10SM CLR 10/M06 A2993 620 33 200 080/13G20 RMK AO2
14840KMKG MKG20050412201009904/12/05 20:10:31  5-MIN KMKG 130110Z 07020G23KT 10SM CLR 10/M06 A2993 620 33 200 070/20G23 RMK AO2
14840KMKG MKG20050412201509904/12/05 20:15:31  5-MIN KMKG 130115Z 07017G24KT 10SM CLR 10/M06 A2993 620 31 200 080/17G24 RMK AO2
14840KMKG MKG20050412202009904/12/05 20:20:31  5-MIN KMKG 130120Z 08017G24KT 10SM CLR 09/M06 A2993 620 33 100 080/17G24 RMK AO2
14840KMKG MKG20050412202509904/12/05 20:25:31  5-MIN KMKG 130125Z 07018G24KT 10SM CLR 09/M06 A2994 610 33 100 080/18G24 RMK AO2
14840KMKG MKG20050412203009904/12/05 20:30:31  5-MIN KMKG 130130Z 07014G24KT 10SM CLR 09/M06 A2994 610 34 100 080/14G24 RMK AO2
14840KMKG MKG20050412203509904/12/05 20:35:31  5-MIN KMKG 130135Z 07014G20KT 10SM CLR 09/M06 A2995 610 35 100 070/14G20 RMK AO2
14840KMKG MKG20050412204011704/12/05 20:40:31  5-MIN KMKG 130140Z 07022G29KT 10SM CLR 09/M06 A2995 600 35 100 080/22G29 RMK AO2 PK WND 07029/0140
14840KMKG MKG20050412204511504/12/05 20:45:31  5-MIN KMKG 130145Z 07022G29KT 10SM CLR 08/M06 A2995 600 37 0 080/22G29 RMK AO2 PK WND 07029/0140
14840KMKG MKG20050412205013204/12/05 20:50:31  5-MIN KMKG 130150Z 07020G28KT 10SM CLR 08/M06 A2995 600 37 0 080/20G28 RMK AO2 PK WND 07029/0140 SLP146 T00831056
14840KMKG MKG20050412205513204/12/05 20:55:31  5-MIN KMKG 130155Z 07018G28KT 10SM CLR 08/M06 A2995 600 37 0 080/18G28 RMK AO2 PK WND 07029/0140 SLP145 T00831056
14840KMKG MKG20050412210009704/12/05 21:00:31  5-MIN KMKG 130200Z 08018G24KT 10SM CLR 08/M06 A2995 600 38 0 090/18G24 RMK AO2
14840KMKG MKG20050412210509704/12/05 21:05:31  5-MIN KMKG 130205Z 08014G21KT 10SM CLR 08/M06 A2995 600 38 0 080/14G21 RMK AO2
14840KMKG MKG20050412211009404/12/05 21:10:31  5-MIN KMKG 130210Z 07013KT 10SM CLR 07/M06 A2995 600 40 -100 070/13 RMK AO2
14840KMKG MKG20050412211509404/12/05 21:15:31  5-MIN KMKG 130215Z 07011KT 10SM CLR 07/M05 A2995 600 41 -100 070/11 RMK AO2
14840KMKG MKG20050412212009404/12/05 21:20:31  5-MIN KMKG 130220Z 07011KT 10SM CLR 07/M05 A2995 600 41 -100 070/11 RMK AO2
14840KMKG MKG20050412212509404/12/05 21:25:31  5-MIN KMKG 130225Z 06009KT 10SM CLR 07/M05 A2995 600 41 -100 060/09 RMK AO2
14840KMKG MKG20050412213009404/12/05 21:30:31  5-MIN KMKG 130230Z 06013KT 10SM CLR 07/M05 A2995 600 41 -100 060/13 RMK AO2
14840KMKG MKG20050412213509404/12/05 21:35:31  5-MIN KMKG 130235Z 06014KT 10SM CLR 07/M06 A2995 600 41 -200 070/14 RMK AO2
14840KMKG MKG20050412214010004/12/05 21:40:31  5-MIN KMKG 130240Z 06015G20KT 10SM CLR 07/M06 A2995 600 41 -200 060/15G20 RMK AO2
14840KMKG MKG20050412214509404/12/05 21:45:31  5-MIN KMKG 130245Z 07013KT 10SM CLR 07/M06 A2996 600 41 -200 070/13 RMK AO2
14840KMKG MKG20050412215011704/12/05 21:50:31  5-MIN KMKG 130250Z 07013KT 10SM CLR 07/M06 A2996 590 39 -200 070/13 RMK AO2 SLP147 T00671061 53000
14840KMKG MKG20050412215511704/12/05 21:55:31  5-MIN KMKG 130255Z 07014KT 10SM CLR 07/M06 A2996 590 39 -200 070/14 RMK AO2 SLP148 T00671061 51025
14840KMKG MKG20050412220009404/12/05 22:00:31  5-MIN KMKG 130300Z 07012KT 10SM CLR 06/M06 A2996 590 41 -200 070/12 RMK AO2
14840KMKG MKG20050412220510004/12/05 22:05:31  5-MIN KMKG 130305Z 06017G21KT 10SM CLR 06/M06 A2996 590 41 -200 060/17G21 RMK AO2
14840KMKG MKG20050412221010004/12/05 22:10:31  5-MIN KMKG 130310Z 06011G21KT 10SM CLR 06/M06 A2996 590 41 -300 070/11G21 RMK AO2
14840KMKG MKG20050412221510004/12/05 22:15:31  5-MIN KMKG 130315Z 06013G18KT 10SM CLR 06/M06 A2996 590 41 -300 070/13G18 RMK AO2
14840KMKG MKG20050412222009404/12/05 22:20:31  5-MIN KMKG 130320Z 06010KT 10SM CLR 06/M06 A2997 590 41 -300 070/10 RMK AO2
14840KMKG MKG20050412222510004/12/05 22:25:31  5-MIN KMKG 130325Z 06015G20KT 10SM CLR 06/M07 A2996 590 39 -300 070/15G20 RMK AO2
14840KMKG MKG20050412223010004/12/05 22:30:31  5-MIN KMKG 130330Z 06012G20KT 10SM CLR 06/M07 A2996 590 41 -300 060/12G20 RMK AO2
14840KMKG MKG20050412223509404/12/05 22:35:31  5-MIN KMKG 130335Z 06014KT 10SM CLR 06/M07 A2996 590 41 -300 070/14 RMK AO2
14840KMKG MKG20050412224010004/12/05 22:40:31  5-MIN KMKG 130340Z 06016G21KT 10SM CLR 06/M07 A2996 600 41 -300 060/16G21 RMK AO2
14840KMKG MKG20050412224510004/12/05 22:45:31  5-MIN KMKG 130345Z 06016G22KT 10SM CLR 06/M07 A2996 590 39 -300 070/16G22 RMK AO2
14840KMKG MKG20050412225011704/12/05 22:50:31  5-MIN KMKG 130350Z 06014G23KT 10SM CLR 06/M07 A2996 590 39 -300 060/14G23 RMK AO2 SLP148 T00561072
14840KMKG MKG20050412225511704/12/05 22:55:31  5-MIN KMKG 130355Z 06014G23KT 10SM CLR 06/M07 A2996 590 39 -300 060/14G23 RMK AO2 SLP149 T00561072
14840KMKG MKG20050412230009404/12/05 23:00:31  5-MIN KMKG 130400Z 06013KT 10SM CLR 06/M07 A2996 590 39 -300 060/13 RMK AO2
14840KMKG MKG20050412230509404/12/05 23:05:31  5-MIN KMKG 130405Z 06013KT 10SM CLR 06/M07 A2996 590 41 -300 060/13 RMK AO2
14840KMKG MKG20050412231010004/12/05 23:10:31  5-MIN KMKG 130410Z 05012G20KT 10SM CLR 06/M07 A2997 590 41 -300 060/12G20 RMK AO2
14840KMKG MKG20050412231510004/12/05 23:15:31  5-MIN KMKG 130415Z 06015G20KT 10SM CLR 06/M07 A2997 590 41 -300 060/15G20 RMK AO2
14840KMKG MKG20050412232010004/12/05 23:20:31  5-MIN KMKG 130420Z 06016G20KT 10SM CLR 05/M07 A2997 590 42 -400 060/16G20 RMK AO2
14840KMKG MKG20050412232510004/12/05 23:25:31  5-MIN KMKG 130425Z 06014G20KT 10SM CLR 05/M07 A2997 580 42 -400 060/14G20 RMK AO2
14840KMKG MKG20050412233010004/12/05 23:30:31  5-MIN KMKG 130430Z 06016G21KT 10SM CLR 05/M07 A2997 590 41 -400 060/16G21 RMK AO2
14840KMKG MKG20050412233510004/12/05 23:35:31  5-MIN KMKG 130435Z 06016G22KT 10SM CLR 05/M07 A2997 580 41 -400 060/16G22 RMK AO2
14840KMKG MKG20050412234010004/12/05 23:40:31  5-MIN KMKG 130440Z 06014G22KT 10SM CLR 05/M07 A2997 590 41 -400 060/14G22 RMK AO2
14840KMKG MKG20050412234509404/12/05 23:45:31  5-MIN KMKG 130445Z 06014KT 10SM CLR 05/M07 A2997 580 41 -400 060/14 RMK AO2
14840KMKG MKG20050412235012104/12/05 23:50:31  5-MIN KMKG 130450Z 06013KT 10SM CLR 05/M07 A2997 580 41 -400 060/13 RMK AO2 SLP151 T00501072 401610050
14840KMKG MKG20050412235512104/12/05 23:55:31  5-MIN KMKG 130455Z 06011KT 10SM CLR 05/M07 A2997 580 41 -400 060/11 RMK AO2 SLP151 T00501072 401610050
14840KMKG MKG20050413000009404/13/05 00:00:32  5-MIN KMKG 130500Z 06009KT 10SM CLR 04/M07 A2997 580 42 -500 060/09 RMK AO2
14840KMKG MKG20050413000509404/13/05 00:05:31  5-MIN KMKG 130505Z 06010KT 10SM CLR 04/M07 A2997 580 42 -500 060/10 RMK AO2
14840KMKG MKG20050413001009404/13/05 00:10:31  5-MIN KMKG 130510Z 06013KT 10SM CLR 04/M07 A2998 580 42 -500 070/13 RMK AO2
14840KMKG MKG20050413001509404/13/05 00:15:31  5-MIN KMKG 130515Z 06013KT 10SM CLR 04/M07 A2998 580 42 -500 070/13 RMK AO2
14840KMKG MKG20050413002009404/13/05 00:20:31  5-MIN KMKG 130520Z 07009KT 10SM CLR 04/M07 A2998 580 42 -500 070/09 RMK AO2
14840KMKG MKG20050413002509404/13/05 00:25:31  5-MIN KMKG 130525Z 07009KT 10SM CLR 04/M07 A2998 570 44 -500 070/09 RMK AO2
14840KMKG MKG20050413003009404/13/05 00:30:31  5-MIN KMKG 130530Z 07010KT 10SM CLR 04/M07 A2998 570 44 -500 070/10 RMK AO2
14840KMKG MKG20050413003509404/13/05 00:35:31  5-MIN KMKG 130535Z 07010KT 10SM CLR 04/M07 A2998 570 44 -500 080/10 RMK AO2
14840KMKG MKG20050413004009404/13/05 00:40:31  5-MIN KMKG 130540Z 08011KT 10SM CLR 04/M08 A2998 570 41 -500 080/11 RMK AO2
14840KMKG MKG20050413004509404/13/05 00:45:31  5-MIN KMKG 130545Z 08010KT 10SM CLR 04/M08 A2998 570 42 -500 080/10 RMK AO2
14840KMKG MKG20050413005012904/13/05 00:50:31  5-MIN KMKG 130550Z 07011KT 10SM CLR 04/M08 A2999 570 42 -500 080/11 RMK AO2 SLP157 T00391078 10122 20039 51025
14840KMKG MKG20050413005512904/13/05 00:55:31  5-MIN KMKG 130555Z 07009KT 10SM CLR 04/M08 A2999 570 42 -600 080/09 RMK AO2 SLP157 T00391078 10122 20039 53009
14840KMKG MKG20050413010009404/13/05 01:00:31  5-MIN KMKG 130600Z 08009KT 10SM CLR 03/M08 A2999 570 44 -600 080/09 RMK AO2
14840KMKG MKG20050413010509404/13/05 01:05:31  5-MIN KMKG 130605Z 07008KT 10SM CLR 03/M08 A2999 570 44 -600 080/08 RMK AO2
14840KMKG MKG20050413011009404/13/05 01:10:31  5-MIN KMKG 130610Z 08008KT 10SM CLR 03/M08 A2999 570 44 -600 080/08 RMK AO2
14840KMKG MKG20050413011509404/13/05 01:15:31  5-MIN KMKG 130615Z 07008KT 10SM CLR 03/M08 A2999 570 44 -600 080/08 RMK AO2
14840KMKG MKG20050413012009404/13/05 01:20:31  5-MIN KMKG 130620Z 08008KT 10SM CLR 03/M08 A2999 570 44 -600 080/08 RMK AO2
14840KMKG MKG20050413012509404/13/05 01:25:31  5-MIN KMKG 130625Z 08008KT 10SM CLR 03/M08 A2999 570 44 -600 080/08 RMK AO2
14840KMKG MKG20050413013009404/13/05 01:30:31  5-MIN KMKG 130630Z 07009KT 10SM CLR 03/M08 A2999 570 44 -600 080/09 RMK AO2
14840KMKG MKG20050413013509404/13/05 01:35:31  5-MIN KMKG 130635Z 07009KT 10SM CLR 03/M08 A2999 560 46 -700 080/09 RMK AO2
14840KMKG MKG20050413014009404/13/05 01:40:31  5-MIN KMKG 130640Z 07010KT 10SM CLR 03/M08 A2999 560 44 -600 080/10 RMK AO2
14840KMKG MKG20050413014509404/13/05 01:45:31  5-MIN KMKG 130645Z 07010KT 10SM CLR 03/M08 A2999 560 44 -600 070/10 RMK AO2
14840KMKG MKG20050413015011104/13/05 01:50:31  5-MIN KMKG 130650Z 07011KT 10SM CLR 03/M08 A2999 560 46 -700 070/11 RMK AO2 SLP160 T00281078
14840KMKG MKG20050413015511104/13/05 01:55:31  5-MIN KMKG 130655Z 07009KT 10SM CLR 03/M08 A3000 560 44 -600 070/09 RMK AO2 SLP160 T00331078
14840KMKG MKG20050413020009404/13/05 02:00:31  5-MIN KMKG 130700Z 06009KT 10SM CLR 03/M08 A3000 560 44 -600 070/09 RMK AO2
14840KMKG MKG20050413020509404/13/05 02:05:31  5-MIN KMKG 130705Z 07009KT 10SM CLR 03/M08 A3000 560 46 -700 070/09 RMK AO2
14840KMKG MKG20050413021009404/13/05 02:10:31  5-MIN KMKG 130710Z 07008KT 10SM CLR 03/M08 A3000 560 46 -700 070/08 RMK AO2
14840KMKG MKG20050413021509404/13/05 02:15:31  5-MIN KMKG 130715Z 07008KT 10SM CLR 03/M08 A2999 560 46 -700 070/08 RMK AO2
14840KMKG MKG20050413022009404/13/05 02:20:31  5-MIN KMKG 130720Z 06009KT 10SM CLR 03/M08 A2999 560 46 -700 070/09 RMK AO2
14840KMKG MKG20050413022509404/13/05 02:25:31  5-MIN KMKG 130725Z 06010KT 10SM CLR 03/M08 A2999 560 46 -700 070/10 RMK AO2
14840KMKG MKG20050413023009404/13/05 02:30:31  5-MIN KMKG 130730Z 06009KT 10SM CLR 03/M08 A2999 560 46 -700 070/09 RMK AO2
14840KMKG MKG20050413023509404/13/05 02:35:31  5-MIN KMKG 130735Z 06009KT 10SM CLR 03/M08 A2999 560 46 -700 070/09 RMK AO2
14840KMKG MKG20050413024009404/13/05 02:40:31  5-MIN KMKG 130740Z 07009KT 10SM CLR 03/M07 A2999 560 48 -700 070/09 RMK AO2
14840KMKG MKG20050413024509404/13/05 02:45:31  5-MIN KMKG 130745Z 06010KT 10SM CLR 02/M07 A2999 560 50 -800 070/10 RMK AO2
14840KMKG MKG20050413025011104/13/05 02:50:31  5-MIN KMKG 130750Z 07009KT 10SM CLR 02/M07 A2999 560 50 -800 070/09 RMK AO2 SLP159 T00221072
14840KMKG MKG20050413025511104/13/05 02:55:31  5-MIN KMKG 130755Z 07009KT 10SM CLR 02/M07 A2999 560 50 -800 070/09 RMK AO2 SLP160 T00221072
14840KMKG MKG20050413030009404/13/05 03:00:31  5-MIN KMKG 130800Z 06010KT 10SM CLR 02/M07 A3000 560 50 -800 070/10 RMK AO2
14840KMKG MKG20050413030509404/13/05 03:05:31  5-MIN KMKG 130805Z 06010KT 10SM CLR 02/M07 A3000 560 50 -800 070/10 RMK AO2
14840KMKG MKG20050413031009404/13/05 03:10:31  5-MIN KMKG 130810Z 06010KT 10SM CLR 02/M07 A3000 560 50 -800 070/10 RMK AO2
14840KMKG MKG20050413031509404/13/05 03:15:31  5-MIN KMKG 130815Z 06010KT 10SM CLR 02/M07 A3000 550 50 -800 070/10 RMK AO2
14840KMKG MKG20050413032009404/13/05 03:20:31  5-MIN KMKG 130820Z 06009KT 10SM CLR 02/M07 A3000 550 50 -800 070/09 RMK AO2
14840KMKG MKG20050413032509404/13/05 03:25:31  5-MIN KMKG 130825Z 06010KT 10SM CLR 02/M07 A3000 550 50 -800 070/10 RMK AO2
14840KMKG MKG20050413033009404/13/05 03:30:31  5-MIN KMKG 130830Z 06010KT 10SM CLR 02/M07 A3000 550 50 -800 060/10 RMK AO2
14840KMKG MKG20050413033509404/13/05 03:35:31  5-MIN KMKG 130835Z 06011KT 10SM CLR 02/M07 A3001 550 50 -800 060/11 RMK AO2
14840KMKG MKG20050413034009404/13/05 03:40:31  5-MIN KMKG 130840Z 06010KT 10SM CLR 02/M07 A3001 550 52 -800 070/10 RMK AO2
14840KMKG MKG20050413034509404/13/05 03:45:31  5-MIN KMKG 130845Z 06009KT 10SM CLR 02/M07 A3001 550 52 -800 060/09 RMK AO2
14840KMKG MKG20050413035011704/13/05 03:50:31  5-MIN KMKG 130850Z 06010KT 10SM CLR 02/M07 A3001 540 52 -800 060/10 RMK AO2 SLP166 T00221067 53009
14840KMKG MKG20050413035511704/13/05 03:55:31  5-MIN KMKG 130855Z 06011KT 10SM CLR 02/M07 A3001 540 52 -800 060/11 RMK AO2 SLP166 T00221067 53009
14840KMKG MKG20050413040009404/13/05 04:00:31  5-MIN KMKG 130900Z 05011KT 10SM CLR 02/M07 A3002 540 52 -800 060/11 RMK AO2
14840KMKG MKG20050413040509404/13/05 04:05:31  5-MIN KMKG 130905Z 05009KT 10SM CLR 02/M07 A3002 540 52 -800 050/09 RMK AO2
14840KMKG MKG20050413041009404/13/05 04:10:31  5-MIN KMKG 130910Z 05009KT 10SM CLR 02/M06 A3002 540 54 -800 050/09 RMK AO2
14840KMKG MKG20050413041509404/13/05 04:15:31  5-MIN KMKG 130915Z 04008KT 10SM CLR 02/M06 A3002 540 54 -800 050/08 RMK AO2
14840KMKG MKG20050413042009404/13/05 04:20:31  5-MIN KMKG 130920Z 04009KT 10SM CLR 02/M06 A3002 540 54 -800 050/09 RMK AO2
14840KMKG MKG20050413042509404/13/05 04:25:31  5-MIN KMKG 130925Z 04009KT 10SM CLR 02/M06 A3002 540 54 -800 050/09 RMK AO2
14840KMKG MKG20050413043009404/13/05 04:30:31  5-MIN KMKG 130930Z 04009KT 10SM CLR 02/M07 A3002 540 52 -800 040/09 RMK AO2
14840KMKG MKG20050413043509404/13/05 04:35:31  5-MIN KMKG 130935Z 04009KT 10SM CLR 02/M07 A3002 540 52 -800 050/09 RMK AO2
14840KMKG MKG20050413044009404/13/05 04:40:31  5-MIN KMKG 130940Z 04009KT 10SM CLR 02/M07 A3002 540 52 -800 050/09 RMK AO2
14840KMKG MKG20050413044509404/13/05 04:45:31  5-MIN KMKG 130945Z 04009KT 10SM CLR 02/M07 A3002 540 52 -800 050/09 RMK AO2
14840KMKG MKG20050413045011104/13/05 04:50:31  5-MIN KMKG 130950Z 04010KT 10SM CLR 02/M07 A3002 530 52 -800 050/10 RMK AO2 SLP170 T00221067
14840KMKG MKG20050413045511104/13/05 04:55:31  5-MIN KMKG 130955Z 04010KT 10SM CLR 02/M07 A3003 530 52 -800 040/10 RMK AO2 SLP170 T00221067
14840KMKG MKG20050413050009404/13/05 05:00:31  5-MIN KMKG 131000Z 04010KT 10SM CLR 02/M07 A3003 530 54 -900 050/10 RMK AO2
14840KMKG MKG20050413050509404/13/05 05:05:31  5-MIN KMKG 131005Z 04011KT 10SM CLR 02/M07 A3003 530 52 -800 040/11 RMK AO2
14840KMKG MKG20050413051009404/13/05 05:10:31  5-MIN KMKG 131010Z 04010KT 10SM CLR 02/M07 A3003 530 52 -800 040/10 RMK AO2
14840KMKG MKG20050413051509404/13/05 05:15:31  5-MIN KMKG 131015Z 03010KT 10SM CLR 02/M07 A3003 530 52 -800 040/10 RMK AO2
14840KMKG MKG20050413052009404/13/05 05:20:31  5-MIN KMKG 131020Z 04011KT 10SM CLR 02/M07 A3004 520 52 -800 040/11 RMK AO2
14840KMKG MKG20050413052509404/13/05 05:25:31  5-MIN KMKG 131025Z 04011KT 10SM CLR 02/M07 A3004 520 52 -800 040/11 RMK AO2
14840KMKG MKG20050413053009404/13/05 05:30:31  5-MIN KMKG 131030Z 04011KT 10SM CLR 02/M07 A3004 520 52 -800 050/11 RMK AO2
14840KMKG MKG20050413053509404/13/05 05:35:31  5-MIN KMKG 131035Z 04011KT 10SM CLR 02/M07 A3004 520 52 -800 040/11 RMK AO2
14840KMKG MKG20050413054009404/13/05 05:40:31  5-MIN KMKG 131040Z 04011KT 10SM CLR 02/M07 A3004 520 52 -800 040/11 RMK AO2
14840KMKG MKG20050413054509404/13/05 05:45:31  5-MIN KMKG 131045Z 04012KT 10SM CLR 02/M07 A3005 510 52 -800 040/12 RMK AO2
14840KMKG MKG20050413055011104/13/05 05:50:31  5-MIN KMKG 131050Z 04011KT 10SM CLR 02/M07 A3005 510 52 -800 050/11 RMK AO2 SLP179 T00221067
14840KMKG MKG20050413055511104/13/05 05:55:31  5-MIN KMKG 131055Z 04011KT 10SM CLR 02/M07 A3005 510 52 -800 050/11 RMK AO2 SLP180 T00221067
14840KMKG MKG20050413060009404/13/05 06:00:31  5-MIN KMKG 131100Z 04012KT 10SM CLR 02/M07 A3005 510 52 -800 050/12 RMK AO2
14840KMKG MKG20050413060509404/13/05 06:05:31  5-MIN KMKG 131105Z 04010KT 10SM CLR 02/M07 A3005 510 52 -800 050/10 RMK AO2
14840KMKG MKG20050413061009404/13/05 06:10:31  5-MIN KMKG 131110Z 04010KT 10SM CLR 02/M07 A3005 510 52 -800 040/10 RMK AO2
14840KMKG MKG20050413061509404/13/05 06:15:31  5-MIN KMKG 131115Z 04011KT 10SM CLR 02/M06 A3006 510 54 -800 040/11 RMK AO2
14840KMKG MKG20050413062009404/13/05 06:20:31  5-MIN KMKG 131120Z 04012KT 10SM CLR 02/M06 A3006 500 54 -800 040/12 RMK AO2
14840KMKG MKG20050413062509404/13/05 06:25:31  5-MIN KMKG 131125Z 04010KT 10SM CLR 02/M06 A3006 500 54 -800 040/10 RMK AO2
14840KMKG MKG20050413063009404/13/05 06:30:31  5-MIN KMKG 131130Z 04011KT 10SM CLR 02/M06 A3006 500 54 -800 040/11 RMK AO2
14840KMKG MKG20050413063509404/13/05 06:35:31  5-MIN KMKG 131135Z 04012KT 10SM CLR 02/M06 A3006 500 54 -800 050/12 RMK AO2
14840KMKG MKG20050413064009404/13/05 06:40:31  5-MIN KMKG 131140Z 04011KT 10SM CLR 03/M06 A3006 500 52 -800 040/11 RMK AO2
14840KMKG MKG20050413064509404/13/05 06:45:31  5-MIN KMKG 131145Z 04010KT 10SM CLR 03/M06 A3007 500 52 -800 040/10 RMK AO2
14840KMKG MKG20050413065012904/13/05 06:50:31  5-MIN KMKG 131150Z 04012KT 10SM CLR 03/M07 A3007 490 50 -800 040/12 RMK AO2 SLP186 T00281067 10039 20017 53009
14840KMKG MKG20050413065512904/13/05 06:55:31  5-MIN KMKG 131155Z 04011KT 10SM CLR 03/M07 A3007 490 50 -800 040/11 RMK AO2 SLP187 T00281067 10039 20017 53019
14840KMKG MKG20050413070009404/13/05 07:00:31  5-MIN KMKG 131200Z 04012KT 10SM CLR 03/M07 A3007 490 50 -800 040/12 RMK AO2
14840KMKG MKG20050413070509404/13/05 07:05:31  5-MIN KMKG 131205Z 04010KT 10SM CLR 03/M07 A3008 490 48 -700 050/10 RMK AO2
14840KMKG MKG20050413071009404/13/05 07:10:31  5-MIN KMKG 131210Z 05012KT 10SM CLR 03/M07 A3008 490 48 -700 050/12 RMK AO2
14840KMKG MKG20050413071509404/13/05 07:15:31  5-MIN KMKG 131215Z 05011KT 10SM CLR 04/M07 A3008 480 44 -700 050/11 RMK AO2
14840KMKG MKG20050413072010004/13/05 07:20:31  5-MIN KMKG 131220Z 05012G19KT 10SM CLR 04/M07 A3008 480 44 -700 050/12G19 RMK AO2
14840KMKG MKG20050413072509404/13/05 07:25:31  5-MIN KMKG 131225Z 05012KT 10SM CLR 04/M07 A3008 480 42 -600 050/12 RMK AO2
14840KMKG MKG20050413073010004/13/05 07:30:31  5-MIN KMKG 131230Z 05011G18KT 10SM CLR 04/M07 A3008 480 42 -600 050/11G18 RMK AO2
14840KMKG MKG20050413073509404/13/05 07:35:31  5-MIN KMKG 131235Z 04012KT 10SM CLR 05/M07 A3008 480 41 -500 050/12 RMK AO2
14840KMKG MKG20050413074009404/13/05 07:40:31  5-MIN KMKG 131240Z 05014KT 10SM CLR 05/M07 A3008 480 41 -500 050/14 RMK AO2
14840KMKG MKG20050413074509404/13/05 07:45:31  5-MIN KMKG 131245Z 05012KT 10SM CLR 05/M08 A3008 480 39 -500 050/12 RMK AO2
14840KMKG MKG20050413075011104/13/05 07:50:31  5-MIN KMKG 131250Z 05010KT 10SM CLR 06/M07 A3009 480 39 -500 050/10 RMK AO2 SLP191 T00561072
14840KMKG MKG20050413075511104/13/05 07:55:31  5-MIN KMKG 131255Z 05011KT 10SM CLR 06/M08 A3009 480 37 -500 050/11 RMK AO2 SLP191 T00561078
14840KMKG MKG20050413080009404/13/05 08:00:31  5-MIN KMKG 131300Z 05013KT 10SM CLR 06/M08 A3009 480 36 -400 050/13 RMK AO2
14840KMKG MKG20050413080509404/13/05 08:05:31  5-MIN KMKG 131305Z 05011KT 10SM CLR 06/M08 A3008 480 35 -400 050/11 RMK AO2
14840KMKG MKG20050413081009404/13/05 08:10:31  5-MIN KMKG 131310Z 05012KT 10SM CLR 07/M08 A3008 480 33 -300 050/12 RMK AO2
14840KMKG MKG20050413081509404/13/05 08:15:31  5-MIN KMKG 131315Z 04011KT 10SM CLR 07/M08 A3008 480 33 -300 040/11 RMK AO2
14840KMKG MKG20050413082009404/13/05 08:20:31  5-MIN KMKG 131320Z 04013KT 10SM CLR 07/M08 A3009 480 32 -300 050/13 RMK AO2
14840KMKG MKG20050413082509404/13/05 08:25:31  5-MIN KMKG 131325Z 05011KT 10SM CLR 07/M08 A3009 480 32 -300 060/11 RMK AO2
14840KMKG MKG20050413083009404/13/05 08:30:31  5-MIN KMKG 131330Z 05012KT 10SM CLR 08/M08 A3009 480 31 -200 050/12 RMK AO2
14840KMKG MKG20050413083509404/13/05 08:35:31  5-MIN KMKG 131335Z 05012KT 10SM CLR 08/M08 A3009 470 31 -200 060/12 RMK AO2
14840KMKG MKG20050413084009404/13/05 08:40:31  5-MIN KMKG 131340Z 05013KT 10SM CLR 08/M08 A3010 470 30 -100 060/13 RMK AO2
14840KMKG MKG20050413084510004/13/05 08:45:31  5-MIN KMKG 131345Z 04013G18KT 10SM CLR 08/M09 A3010 470 28 -100 050/13G18 RMK AO2
14840KMKG MKG20050413085011104/13/05 08:50:31  5-MIN KMKG 131350Z 06012KT 10SM CLR 08/M09 A3009 470 28 -100 060/12 RMK AO2 SLP195 T00831089
14840KMKG MKG20050413085511104/13/05 08:55:31  5-MIN KMKG 131355Z 06014KT 10SM CLR 09/M09 A3010 470 27 -100 060/14 RMK AO2 SLP194 T00891089
14840KMKG MKG20050413090009104/13/05 09:00:31  5-MIN KMKG 131400Z 04013KT 10SM CLR 09/M09 A3010 470 26 0 040/13 RMK AO2
14840KMKG MKG20050413090509704/13/05 09:05:31  5-MIN KMKG 131405Z 06015G19KT 10SM CLR 09/M09 A3010 470 26 0 060/15G19 RMK AO2
14840KMKG MKG20050413091009704/13/05 09:10:31  5-MIN KMKG 131410Z 06014G19KT 10SM CLR 09/M09 A3010 470 26 0 060/14G19 RMK AO2
14840KMKG MKG20050413091509104/13/05 09:15:31  5-MIN KMKG 131415Z 06013KT 10SM CLR 10/M09 A3010 460 25 0 060/13 RMK AO2
14840KMKG MKG20050413092009104/13/05 09:20:31  5-MIN KMKG 131420Z 05014KT 10SM CLR 10/M09 A3010 460 24 0 060/14 RMK AO2
14840KMKG MKG20050413092509104/13/05 09:25:31  5-MIN KMKG 131425Z 06013KT 10SM CLR 10/M09 A3010 460 24 0 070/13 RMK AO2
14840KMKG MKG20050413093009304/13/05 09:30:31  5-MIN KMKG 131430Z 07013KT 10SM CLR 11/M09 A3010 460 24 100 070/13 RMK AO2
14840KMKG MKG20050413093509304/13/05 09:35:31  5-MIN KMKG 131435Z 04015KT 10SM CLR 11/M09 A3010 460 23 100 050/15 RMK AO2
14840KMKG MKG20050413094009304/13/05 09:40:31  5-MIN KMKG 131440Z 05014KT 10SM CLR 11/M09 A3010 460 22 100 050/14 RMK AO2
14840KMKG MKG20050413094509304/13/05 09:45:31  5-MIN KMKG 131445Z 05013KT 10SM CLR 11/M09 A3010 460 22 100 050/13 RMK AO2
14840KMKG MKG20050413095011604/13/05 09:50:31  5-MIN KMKG 131450Z 06013KT 10SM CLR 11/M09 A3011 460 22 100 060/13 RMK AO2 SLP198 T01111094 53019
14840KMKG MKG20050413095511604/13/05 09:55:31  5-MIN KMKG 131455Z 05013KT 10SM CLR 12/M09 A3011 460 22 200 060/13 RMK AO2 SLP198 T01171094 51012
14840KMKG MKG20050413100009304/13/05 10:00:31  5-MIN KMKG 131500Z 06014KT 10SM CLR 12/M10 A3011 460 21 200 070/14 RMK AO2
14840KMKG MKG20050413100509304/13/05 10:05:31  5-MIN KMKG 131505Z 05015KT 10SM CLR 12/M10 A3011 460 21 200 050/15 RMK AO2
14840KMKG MKG20050413101009304/13/05 10:10:31  5-MIN KMKG 131510Z 06011KT 10SM CLR 12/M10 A3011 460 21 200 070/11 RMK AO2
14840KMKG MKG20050413101509304/13/05 10:15:31  5-MIN KMKG 131515Z 07014KT 10SM CLR 12/M11 A3011 450 19 300 070/14 RMK AO2
14840KMKG MKG20050413102009304/13/05 10:20:31  5-MIN KMKG 131520Z 05012KT 10SM CLR 12/M10 A3011 450 20 300 060/12 RMK AO2
14840KMKG MKG20050413102509904/13/05 10:25:31  5-MIN KMKG 131525Z 04010G18KT 10SM CLR 12/M10 A3011 450 20 300 040/10G18 RMK AO2
14840KMKG MKG20050413103009904/13/05 10:30:31  5-MIN KMKG 131530Z 05014G18KT 10SM CLR 12/M10 A3012 450 20 300 060/14G18 RMK AO2
14840KMKG MKG20050413103509304/13/05 10:35:31  5-MIN KMKG 131535Z 05010KT 10SM CLR 13/M10 A3012 450 19 300 060/10 RMK AO2
14840KMKG MKG20050413104009304/13/05 10:40:31  5-MIN KMKG 131540Z 04015KT 10SM CLR 13/M10 A3012 450 19 300 050/15 RMK AO2
14840KMKG MKG20050413104509304/13/05 10:45:31  5-MIN KMKG 131545Z 05013KT 10SM CLR 13/M11 A3012 440 18 300 050/13 RMK AO2
14840KMKG MKG20050413105011604/13/05 10:50:31  5-MIN KMKG 131550Z 06012G18KT 10SM CLR 13/M11 A3012 440 18 300 070/12G18 RMK AO2 SLP203 T01281106
14840KMKG MKG20050413105511604/13/05 10:55:31  5-MIN KMKG 131555Z 04010G18KT 10SM CLR 13/M11 A3012 450 18 300 050/10G18 RMK AO2 SLP203 T01281106
14840KMKG MKG20050413110009904/13/05 11:00:31  5-MIN KMKG 131600Z 04011G18KT 10SM CLR 13/M11 A3012 440 18 400 050/11G18 RMK AO2
14840KMKG MKG20050413110509904/13/05 11:05:31  5-MIN KMKG 131605Z 08009G18KT 10SM CLR 13/M11 A3012 440 18 300 080/09G18 RMK AO2
14840KMKG MKG20050413111009304/13/05 11:10:31  5-MIN KMKG 131610Z 05011KT 10SM CLR 13/M11 A3013 440 17 400 050/11 RMK AO2
14840KMKG MKG20050413111509304/13/05 11:15:31  5-MIN KMKG 131615Z 07008KT 10SM CLR 14/M11 A3012 440 16 500 080/08 RMK AO2
14840KMKG MKG20050413112010904/13/05 11:20:31  5-MIN KMKG 131620Z 05011KT 020V080 10SM CLR 14/M11 A3012 440 16 500 060/11 020V080 RMK AO2
14840KMKG MKG20050413112509304/13/05 11:25:31  5-MIN KMKG 131625Z 04012KT 10SM CLR 14/M12 A3012 440 15 500 040/12 RMK AO2
14840KMKG MKG20050413113009904/13/05 11:30:31  5-MIN KMKG 131630Z 06014G18KT 10SM CLR 14/M12 A3013 440 15 500 070/14G18 RMK AO2
14840KMKG MKG20050413113509904/13/05 11:35:31  5-MIN KMKG 131635Z 08014G18KT 10SM CLR 14/M12 A3013 440 15 500 090/14G18 RMK AO2
14840KMKG MKG20050413114009904/13/05 11:40:31  5-MIN KMKG 131640Z 05013G18KT 10SM CLR 15/M11 A3012 440 15 600 050/13G18 RMK AO2
14840KMKG MKG20050413114509904/13/05 11:45:31  5-MIN KMKG 131645Z 05015G18KT 10SM CLR 14/M11 A3013 440 16 500 050/15G18 RMK AO2
14840KMKG MKG20050413115011004/13/05 11:50:31  5-MIN KMKG 131650Z 04017KT 10SM CLR 14/M12 A3013 440 15 500 040/17 RMK AO2 SLP206 T01441117
14840KMKG MKG20050413115511604/13/05 11:55:31  5-MIN KMKG 131655Z 05011G18KT 10SM CLR 14/M12 A3013 440 15 500 060/11G18 RMK AO2 SLP205 T01441117
14840KMKG MKG20050413120010904/13/05 12:00:31  5-MIN KMKG 131700Z 06010KT 030V090 10SM CLR 15/M11 A3013 440 15 600 070/10 030V090 RMK AO2
14840KMKG MKG20050413120509304/13/05 12:05:31  5-MIN KMKG 131705Z 03012KT 10SM CLR 16/M11 A3013 440 15 600 040/12 RMK AO2
14840KMKG MKG20050413121009904/13/05 12:10:31  5-MIN KMKG 131710Z 07014G17KT 10SM CLR 16/M11 A3013 440 15 600 080/14G17 RMK AO2
14840KMKG MKG20050413121509904/13/05 12:15:31  5-MIN KMKG 131715Z 07008G17KT 10SM CLR 15/M12 A3013 440 15 600 080/08G17 RMK AO2
14840KMKG MKG20050413122009904/13/05 12:20:31  5-MIN KMKG 131720Z 03013G16KT 10SM CLR 16/M10 A3013 430 16 600 030/13G16 RMK AO2
14840KMKG MKG20050413122509904/13/05 12:25:31  5-MIN KMKG 131725Z 02006G16KT 10SM CLR 15/M11 A3013 430 15 600 030/06G16 RMK AO2
14840KMKG MKG20050413123009904/13/05 12:30:31  5-MIN KMKG 131730Z 04013G17KT 10SM CLR 15/M11 A3013 440 16 600 040/13G17 RMK AO2
14840KMKG MKG20050413123509904/13/05 12:35:31  5-MIN KMKG 131735Z 02012G17KT 10SM CLR 15/M11 A3013 430 15 600 020/12G17 RMK AO2
14840KMKG MKG20050413124011604/13/05 12:40:31  5-MIN KMKG 131740Z 05012G21KT 010V080 10SM CLR 16/M10  A3013 430 16 600 050/12G21 010V080 RMK AO2
14840KMKG MKG20050413124509904/13/05 12:45:31  5-MIN KMKG 131745Z 06014G21KT 10SM CLR 16/M11 A3013 430 15 600 070/14G21 RMK AO2
14840KMKG MKG20050413125012804/13/05 12:50:31  5-MIN KMKG 131750Z 07012KT 10SM CLR 16/M11 A3013 440 15 600 070/12 RMK AO2 SLP206 T01561106 10156 20028 51012
14840KMKG MKG20050413125514404/13/05 12:55:31  5-MIN KMKG 131755Z 05008KT 350V080 10SM CLR 16/M10 A3013 440 16 600 050/08 350V080 RMK AO2 SLP205 T01561100 10156 20028 50007
14840KMKG MKG20050413130009904/13/05 13:00:31  5-MIN KMKG 131800Z 03012G17KT 10SM CLR 16/M09 A3013 440 17 600 030/12G17 RMK AO2
14840KMKG MKG20050413130509904/13/05 13:05:31  5-MIN KMKG 131805Z 04012G17KT 10SM CLR 16/M09 A3013 440 16 700 040/12G17 RMK AO2
14840KMKG MKG20050413131009904/13/05 13:10:31  5-MIN KMKG 131810Z 03008G17KT 10SM CLR 16/M09 A3013 440 17 600 030/08G17 RMK AO2
14840KMKG MKG20050413131509304/13/05 13:15:31  5-MIN KMKG 131815Z 04010KT 10SM CLR 16/M09 A3013 440 17 700 050/10 RMK AO2
14840KMKG MKG20050413132009304/13/05 13:20:31  5-MIN KMKG 131820Z 03009KT 10SM CLR 16/M09 A3013 440 17 600 030/09 RMK AO2
14840KMKG MKG20050413132509304/13/05 13:25:31  5-MIN KMKG 131825Z 03009KT 10SM CLR 16/M09 A3013 440 16 700 030/09 RMK AO2
14840KMKG MKG20050413133009904/13/05 13:30:31  5-MIN KMKG 131830Z 04010G15KT 10SM CLR 16/M09 A3013 440 17 700 040/10G15 RMK AO2
14840KMKG MKG20050413133509304/13/05 13:35:31  5-MIN KMKG 131835Z 03011KT 10SM CLR 16/M09 A3013 440 17 700 030/11 RMK AO2
14840KMKG MKG20050413134009304/13/05 13:40:31  5-MIN KMKG 131840Z 03011KT 10SM CLR 16/M09 A3013 440 17 700 040/11 RMK AO2
14840KMKG MKG20050413134509304/13/05 13:45:31  5-MIN KMKG 131845Z 02012KT 10SM CLR 17/M09 A3013 440 16 800 020/12 RMK AO2
14840KMKG MKG20050413135011004/13/05 13:50:31  5-MIN KMKG 131850Z 01010KT 10SM CLR 17/M08 A3013 440 17 800 010/10 RMK AO2 SLP205 T01671083
14840KMKG MKG20050413135511004/13/05 13:55:31  5-MIN KMKG 131855Z 34008KT 10SM CLR 16/M09 A3012 440 17 700 340/08 RMK AO2 SLP204 T01611089
14840KMKG MKG20050413140009904/13/05 14:00:31  5-MIN KMKG 131900Z 01014G19KT 10SM CLR 16/M09 A3012 440 17 700 020/14G19 RMK AO2
14840KMKG MKG20050413140509904/13/05 14:05:31  5-MIN KMKG 131905Z 02013G19KT 10SM CLR 17/M09 A3012 440 16 800 020/13G19 RMK AO2
14840KMKG MKG20050413141009304/13/05 14:10:31  5-MIN KMKG 131910Z 03009KT 10SM CLR 17/M09 A3012 440 16 800 030/09 RMK AO2
14840KMKG MKG20050413141509904/13/05 14:15:31  5-MIN KMKG 131915Z 03012G18KT 10SM CLR 17/M09 A3013 440 16 800 030/12G18 RMK AO2
14840KMKG MKG20050413142009904/13/05 14:20:31  5-MIN KMKG 131920Z 36009G18KT 10SM CLR 16/M09 A3012 450 16 700 010/09G18 RMK AO2
14840KMKG MKG20050413142509904/13/05 14:25:31  5-MIN KMKG 131925Z 02016G19KT 10SM CLR 17/M09 A3012 440 16 800 030/16G19 RMK AO2
14840KMKG MKG20050413143009904/13/05 14:30:31  5-MIN KMKG 131930Z 03015G19KT 10SM CLR 17/M09 A3013 440 16 800 030/15G19 RMK AO2
14840KMKG MKG20050413143509904/13/05 14:35:31  5-MIN KMKG 131935Z 02010G17KT 10SM CLR 17/M09 A3013 440 15 800 030/10G17 RMK AO2
14840KMKG MKG20050413144009904/13/05 14:40:31  5-MIN KMKG 131940Z 01009G15KT 10SM CLR 17/M09 A3012 440 16 800 020/09G15 RMK AO2
14840KMKG MKG20050413144509904/13/05 14:45:31  5-MIN KMKG 131945Z 01014G18KT 10SM CLR 17/M08 A3012 440 16 800 020/14G18 RMK AO2
14840KMKG MKG20050413145013304/13/05 14:50:31  5-MIN KMKG 131950Z 01008G18KT 310V070 10SM CLR 17/M09  A3012 440 16 800 010/08G18 310V070 RMK AO2 SLP203 T01721089
14840KMKG MKG20050413145511604/13/05 14:55:31  5-MIN KMKG 131955Z 02013G17KT 10SM CLR 17/M09 A3012 440 16 800 020/13G17 RMK AO2 SLP204 T01721089
14840KMKG MKG20050413150009904/13/05 15:00:31  5-MIN KMKG 132000Z 06012G19KT 10SM CLR 17/M09 A3012 440 15 800 060/12G19 RMK AO2
14840KMKG MKG20050413150511604/13/05 15:05:31  5-MIN KMKG 132005Z 03011G19KT 360V070 10SM CLR 17/M09  A3012 450 16 900 040/11G19 360V070 RMK AO2
14840KMKG MKG20050413151009904/13/05 15:10:31  5-MIN KMKG 132010Z 36011G17KT 10SM CLR 18/M09 A3012 440 14 900 010/11G17 RMK AO2
14840KMKG MKG20050413151509904/13/05 15:15:31  5-MIN KMKG 132015Z 01014G17KT 10SM CLR 17/M10 A3012 450 14 800 010/14G17 RMK AO2
14840KMKG MKG20050413152009904/13/05 15:20:31  5-MIN KMKG 132020Z 03010G17KT 10SM CLR 18/M09 A3012 450 14 900 030/10G17 RMK AO2
14840KMKG MKG20050413152509304/13/05 15:25:31  5-MIN KMKG 132025Z 04010KT 10SM CLR 18/M09 A3012 450 14 900 040/10 RMK AO2
14840KMKG MKG20050413153009304/13/05 15:30:31  5-MIN KMKG 132030Z 05011KT 10SM CLR 18/M09 A3012 450 14 900 060/11 RMK AO2
14840KMKG MKG20050413153509304/13/05 15:35:31  5-MIN KMKG 132035Z 35011KT 10SM CLR 18/M10 A3012 440 14 900 360/11 RMK AO2
14840KMKG MKG20050413154009904/13/05 15:40:31  5-MIN KMKG 132040Z 04012G20KT 10SM CLR 18/M11 A3012 440 13 900 040/12G20 RMK AO2
14840KMKG MKG20050413154509904/13/05 15:45:31  5-MIN KMKG 132045Z 01011G20KT 10SM CLR 18/M11 A3013 440 13 900 020/11G20 RMK AO2
14840KMKG MKG20050413155011604/13/05 15:50:31  5-MIN KMKG 132050Z 03007KT 10SM CLR 18/M10 A3012 450 14 900 030/07 RMK AO2 SLP202 T01781100 50007
14840KMKG MKG20050413155513204/13/05 15:55:31  5-MIN KMKG 132055Z 03009KT 350V150 10SM CLR 18/M10 A3012 440 14 900 040/09 350V150 RMK AO2 SLP203 T01781100 56002
14840KMKG MKG20050413160009304/13/05 16:00:31  5-MIN KMKG 132100Z 03012KT 10SM CLR 18/M11 A3012 440 13 900 030/12 RMK AO2
14840KMKG MKG20050413160509304/13/05 16:05:31  5-MIN KMKG 132105Z 03008KT 10SM CLR 18/M11 A3012 440 13 900 030/08 RMK AO2
14840KMKG MKG20050413161009304/13/05 16:10:31  5-MIN KMKG 132110Z 03012KT 10SM CLR 18/M11 A3013 440 13 900 030/12 RMK AO2
14840KMKG MKG20050413161510904/13/05 16:15:31  5-MIN KMKG 132115Z 04007KT 360V070 10SM CLR 18/M11 A3012 450 13 900 040/07 360V070 RMK AO2
14840KMKG MKG20050413162010904/13/05 16:20:31  5-MIN KMKG 132120Z 36007KT 330V030 10SM CLR 18/M11 A3012 440 13 900 360/07 330V030 RMK AO2
14840KMKG MKG20050413162509404/13/05 16:25:31  5-MIN KMKG 132125Z 06016KT 10SM CLR 18/M11 A3013 440 12 1000 060/16 RMK AO2
14840KMKG MKG20050413163009904/13/05 16:30:31  5-MIN KMKG 132130Z 05010G18KT 10SM CLR 18/M12 A3012 440 12 900 060/10G18 RMK AO2
14840KMKG MKG20050413163509404/13/05 16:35:31  5-MIN KMKG 132135Z 03012KT 10SM CLR 18/M12 A3012 440 11 1000 030/12 RMK AO2
14840KMKG MKG20050413164009304/13/05 16:40:31  5-MIN KMKG 132140Z 02013KT 10SM CLR 18/M12 A3013 440 12 900 030/13 RMK AO2
14840KMKG MKG20050413164510004/13/05 16:45:31  5-MIN KMKG 132145Z 07009G18KT 10SM CLR 18/M12 A3013 440 11 1000 070/09G18 RMK AO2
14840KMKG MKG20050413165011704/13/05 16:50:31  5-MIN KMKG 132150Z 02012G18KT 10SM CLR 18/M12 A3012 440 12 1000 020/12G18 RMK AO2 SLP204 T01831117
14840KMKG MKG20050413165511604/13/05 16:55:31  5-MIN KMKG 132155Z 03009G17KT 10SM CLR 18/M12 A3012 440 12 900 030/09G17 RMK AO2 SLP204 T01781117
14840KMKG MKG20050413170009904/13/05 17:00:31  5-MIN KMKG 132200Z 04012G17KT 10SM CLR 18/M12 A3013 440 12 900 050/12G17 RMK AO2
14840KMKG MKG20050413170509904/13/05 17:05:31  5-MIN KMKG 132205Z 04009G17KT 10SM CLR 18/M12 A3013 440 12 900 040/09G17 RMK AO2
14840KMKG MKG20050413171009304/13/05 17:10:31  5-MIN KMKG 132210Z 05009KT 10SM CLR 18/M12 A3013 440 12 900 060/09 RMK AO2
14840KMKG MKG20050413171509304/13/05 17:15:31  5-MIN KMKG 132215Z 02012KT 10SM CLR 18/M12 A3013 440 12 900 020/12 RMK AO2
14840KMKG MKG20050413172009904/13/05 17:20:31  5-MIN KMKG 132220Z 04012G19KT 10SM CLR 18/M12 A3013 440 12 900 040/12G19 RMK AO2
14840KMKG MKG20050413172509904/13/05 17:25:31  5-MIN KMKG 132225Z 07013G19KT 10SM CLR 18/M12 A3013 430 12 900 070/13G19 RMK AO2
14840KMKG MKG20050413173009304/13/05 17:30:31  5-MIN KMKG 132230Z 06013KT 10SM CLR 18/M12 A3013 430 12 900 060/13 RMK AO2
14840KMKG MKG20050413173509304/13/05 17:35:31  5-MIN KMKG 132235Z 04011KT 10SM CLR 18/M12 A3013 430 12 900 050/11 RMK AO2
14840KMKG MKG20050413174009304/13/05 17:40:31  5-MIN KMKG 132240Z 02009KT 10SM CLR 18/M12 A3013 430 12 900 020/09 RMK AO2
14840KMKG MKG20050413174509304/13/05 17:45:31  5-MIN KMKG 132245Z 02011KT 10SM CLR 18/M12 A3014 430 12 900 020/11 RMK AO2
14840KMKG MKG20050413175011004/13/05 17:50:31  5-MIN KMKG 132250Z 03010KT 10SM CLR 18/M11 A3013 430 13 900 040/10 RMK AO2 SLP207 T01781111
14840KMKG MKG20050413175511004/13/05 17:55:31  5-MIN KMKG 132255Z 04011KT 10SM CLR 18/M11 A3014 430 13 900 050/11 RMK AO2 SLP209 T01781106
14840KMKG MKG20050413180009304/13/05 18:00:31  5-MIN KMKG 132300Z 03009KT 10SM CLR 18/M11 A3014 430 13 900 030/09 RMK AO2
14840KMKG MKG20050413180509304/13/05 18:05:31  5-MIN KMKG 132305Z 01009KT 10SM CLR 17/M11 A3014 430 14 800 020/09 RMK AO2
14840KMKG MKG20050413181009304/13/05 18:10:31  5-MIN KMKG 132310Z 04012KT 10SM CLR 17/M11 A3014 430 14 800 040/12 RMK AO2
14840KMKG MKG20050413181509304/13/05 18:15:31  5-MIN KMKG 132315Z 03008KT 10SM CLR 17/M11 A3014 430 14 800 040/08 RMK AO2
14840KMKG MKG20050413182009304/13/05 18:20:31  5-MIN KMKG 132320Z 02010KT 10SM CLR 17/M11 A3014 430 14 800 020/10 RMK AO2
14840KMKG MKG20050413182509304/13/05 18:25:31  5-MIN KMKG 132325Z 03009KT 10SM CLR 17/M11 A3014 420 14 800 030/09 RMK AO2
14840KMKG MKG20050413183009304/13/05 18:30:31  5-MIN KMKG 132330Z 05009KT 10SM CLR 17/M10 A3014 430 15 800 050/09 RMK AO2
14840KMKG MKG20050413183509304/13/05 18:35:31  5-MIN KMKG 132335Z 04007KT 10SM CLR 17/M11 A3014 430 14 800 040/07 RMK AO2
14840KMKG MKG20050413184009304/13/05 18:40:31  5-MIN KMKG 132340Z 04010KT 10SM CLR 17/M10 A3014 420 15 800 050/10 RMK AO2
14840KMKG MKG20050413184509304/13/05 18:45:31  5-MIN KMKG 132345Z 05009KT 10SM CLR 17/M11 A3015 420 14 800 050/09 RMK AO2
14840KMKG MKG20050413185012804/13/05 18:50:31  5-MIN KMKG 132350Z 05010KT 10SM CLR 17/M11 A3014 420 14 800 050/10 RMK AO2 SLP211 T01671106 10183 20156 56002
14840KMKG MKG20050413185512804/13/05 18:55:31  5-MIN KMKG 132355Z 04009KT 10SM CLR 17/M11 A3015 420 14 800 040/09 RMK AO2 SLP211 T01671106 10183 20156 53008
14840KMKG MKG20050413190009304/13/05 19:00:31  5-MIN KMKG 140000Z 04009KT 10SM CLR 16/M10 A3015 420 15 700 040/09 RMK AO2
14840KMKG MKG20050413190509304/13/05 19:05:31  5-MIN KMKG 140005Z 02010KT 10SM CLR 16/M10 A3015 420 15 700 030/10 RMK AO2
14840KMKG MKG20050413191009304/13/05 19:10:31  5-MIN KMKG 140010Z 03009KT 10SM CLR 16/M11 A3015 420 15 700 030/09 RMK AO2
14840KMKG MKG20050413191509304/13/05 19:15:31  5-MIN KMKG 140015Z 03008KT 10SM CLR 16/M10 A3015 420 16 600 030/08 RMK AO2
14840KMKG MKG20050413192009304/13/05 19:20:31  5-MIN KMKG 140020Z 03010KT 10SM CLR 16/M11 A3015 420 15 600 030/10 RMK AO2
14840KMKG MKG20050413192509304/13/05 19:25:31  5-MIN KMKG 140025Z 03008KT 10SM CLR 16/M11 A3015 420 15 600 030/08 RMK AO2
14840KMKG MKG20050413193009304/13/05 19:30:31  5-MIN KMKG 140030Z 03007KT 10SM CLR 16/M11 A3016 410 15 600 030/07 RMK AO2
14840KMKG MKG20050413193509304/13/05 19:35:31  5-MIN KMKG 140035Z 02007KT 10SM CLR 15/M10 A3016 410 17 500 030/07 RMK AO2
14840KMKG MKG20050413194009304/13/05 19:40:31  5-MIN KMKG 140040Z 03007KT 10SM CLR 15/M10 A3016 410 17 500 040/07 RMK AO2
14840KMKG MKG20050413194509304/13/05 19:45:31  5-MIN KMKG 140045Z 03008KT 10SM CLR 15/M10 A3016 410 17 500 040/08 RMK AO2
14840KMKG MKG20050413195011004/13/05 19:50:31  5-MIN KMKG 140050Z 04006KT 10SM CLR 15/M11 A3016 410 16 500 040/06 RMK AO2 SLP217 T01501106
14840KMKG MKG20050413195511004/13/05 19:55:31  5-MIN KMKG 140055Z 04006KT 10SM CLR 14/M10 A3017 400 17 500 040/06 RMK AO2 SLP218 T01441100
14840KMKG MKG20050413200009304/13/05 20:00:31  5-MIN KMKG 140100Z 04006KT 10SM CLR 14/M10 A3017 400 17 500 040/06 RMK AO2
14840KMKG MKG20050413200509304/13/05 20:05:31  5-MIN KMKG 140105Z 03006KT 10SM CLR 14/M10 A3017 400 17 500 040/06 RMK AO2
14840KMKG MKG20050413201009304/13/05 20:10:31  5-MIN KMKG 140110Z 04007KT 10SM CLR 14/M10 A3017 400 17 500 050/07 RMK AO2
14840KMKG MKG20050413201509304/13/05 20:15:31  5-MIN KMKG 140115Z 06008KT 10SM CLR 14/M10 A3017 400 18 400 060/08 RMK AO2
14840KMKG MKG20050413202009304/13/05 20:20:31  5-MIN KMKG 140120Z 09012KT 10SM CLR 13/M10 A3018 390 19 300 090/12 RMK AO2
14840KMKG MKG20050413202509304/13/05 20:25:31  5-MIN KMKG 140125Z 09010KT 10SM CLR 13/M08 A3018 390 21 300 090/10 RMK AO2
14840KMKG MKG20050413203009304/13/05 20:30:31  5-MIN KMKG 140130Z 09010KT 10SM CLR 13/M07 A3019 380 24 300 100/10 RMK AO2
14840KMKG MKG20050413203509304/13/05 20:35:31  5-MIN KMKG 140135Z 09009KT 10SM CLR 12/M07 A3019 380 26 200 100/09 RMK AO2
14840KMKG MKG20050413204009304/13/05 20:40:31  5-MIN KMKG 140140Z 09010KT 10SM CLR 12/M07 A3019 380 26 200 100/10 RMK AO2
14840KMKG MKG20050413204509304/13/05 20:45:31  5-MIN KMKG 140145Z 09007KT 10SM CLR 12/M06 A3019 380 28 100 090/07 RMK AO2
14840KMKG MKG20050413205010804/13/05 20:50:31  5-MIN KMKG 140150Z 09008KT 10SM CLR 11/M06 A3020 380 29 0 100/08 RMK AO2 SLP228 T01111061
14840KMKG MKG20050413205510804/13/05 20:55:31  5-MIN KMKG 140155Z 10006KT 10SM CLR 11/M06 A3020 370 30 0 110/06 RMK AO2 SLP229 T01061061
14840KMKG MKG20050413210009104/13/05 21:00:31  5-MIN KMKG 140200Z 09005KT 10SM CLR 10/M07 A3020 370 30 0 090/05 RMK AO2
14840KMKG MKG20050413210509104/13/05 21:05:31  5-MIN KMKG 140205Z 09008KT 10SM CLR 11/M07 A3020 370 29 0 090/08 RMK AO2
14840KMKG MKG20050413211009104/13/05 21:10:31  5-MIN KMKG 140210Z 09006KT 10SM CLR 11/M07 A3021 370 29 0 090/06 RMK AO2
14840KMKG MKG20050413211509404/13/05 21:15:31  5-MIN KMKG 140215Z 10004KT 10SM CLR 10/M07 A3021 360 29 -100 100/04 RMK AO2
14840KMKG MKG20050413212009404/13/05 21:20:31  5-MIN KMKG 140220Z 09006KT 10SM CLR 10/M07 A3021 360 29 -100 090/06 RMK AO2
14840KMKG MKG20050413212509404/13/05 21:25:31  5-MIN KMKG 140225Z VRB05KT 10SM CLR 09/M07 A3022 360 30 -100 VRB/05 RMK AO2
14840KMKG MKG20050413213009404/13/05 21:30:31  5-MIN KMKG 140230Z 07008KT 10SM CLR 09/M07 A3022 350 30 -100 070/08 RMK AO2
14840KMKG MKG20050413213509404/13/05 21:35:31  5-MIN KMKG 140235Z 06005KT 10SM CLR 10/M07 A3022 350 29 -100 070/05 RMK AO2
14840KMKG MKG20050413214009404/13/05 21:40:31  5-MIN KMKG 140240Z 07006KT 10SM CLR 09/M07 A3022 350 31 -200 070/06 RMK AO2
14840KMKG MKG20050413214509404/13/05 21:45:31  5-MIN KMKG 140245Z 08007KT 10SM CLR 09/M07 A3023 350 31 -200 080/07 RMK AO2
14840KMKG MKG20050413215011704/13/05 21:50:31  5-MIN KMKG 140250Z 08009KT 10SM CLR 09/M07 A3023 350 31 -200 080/09 RMK AO2 SLP238 T00891072 53008
14840KMKG MKG20050413215511704/13/05 21:55:31  5-MIN KMKG 140255Z 08008KT 10SM CLR 09/M07 A3023 350 30 -100 080/08 RMK AO2 SLP239 T00941072 53027
14840KMKG MKG20050413220009404/13/05 22:00:31  5-MIN KMKG 140300Z 09008KT 10SM CLR 09/M07 A3023 350 31 -200 090/08 RMK AO2
14840KMKG MKG20050413220509404/13/05 22:05:31  5-MIN KMKG 140305Z 08006KT 10SM CLR 09/M07 A3023 340 31 -200 090/06 RMK AO2
14840KMKG MKG20050413221009404/13/05 22:10:31  5-MIN KMKG 140310Z 07006KT 10SM CLR 08/M07 A3023 340 34 -300 080/06 RMK AO2
14840KMKG MKG20050413221509404/13/05 22:15:31  5-MIN KMKG 140315Z 08007KT 10SM CLR 08/M07 A3023 340 34 -300 080/07 RMK AO2
14840KMKG MKG20050413222009404/13/05 22:20:31  5-MIN KMKG 140320Z 08008KT 10SM CLR 08/M07 A3023 340 32 -300 080/08 RMK AO2
14840KMKG MKG20050413222509404/13/05 22:25:31  5-MIN KMKG 140325Z 08008KT 10SM CLR 08/M07 A3023 340 32 -300 080/08 RMK AO2
14840KMKG MKG20050413223009404/13/05 22:30:31  5-MIN KMKG 140330Z 08005KT 10SM CLR 08/M07 A3023 340 34 -400 090/05 RMK AO2
14840KMKG MKG20050413223509404/13/05 22:35:31  5-MIN KMKG 140335Z 07004KT 10SM CLR 08/M07 A3023 340 34 -400 080/04 RMK AO2
14840KMKG MKG20050413224009404/13/05 22:40:31  5-MIN KMKG 140340Z 07004KT 10SM CLR 08/M07 A3023 340 32 -300 070/04 RMK AO2
14840KMKG MKG20050413224509404/13/05 22:45:31  5-MIN KMKG 140345Z 07004KT 10SM CLR 08/M08 A3023 340 32 -400 080/04 RMK AO2
14840KMKG MKG20050413225011104/13/05 22:50:31  5-MIN KMKG 140350Z 08004KT 10SM CLR 08/M08 A3023 340 32 -400 090/04 RMK AO2 SLP241 T00781078
14840KMKG MKG20050413225511104/13/05 22:55:31  5-MIN KMKG 140355Z 08003KT 10SM CLR 08/M08 A3023 340 31 -400 090/03 RMK AO2 SLP240 T00781083
14840KMKG MKG20050413230009404/13/05 23:00:31  5-MIN KMKG 140400Z 07003KT 10SM CLR 08/M08 A3023 340 31 -400 080/03 RMK AO2
14840KMKG MKG20050413230509404/13/05 23:05:31  5-MIN KMKG 140405Z 08003KT 10SM CLR 08/M08 A3023 340 31 -400 080/03 RMK AO2
14840KMKG MKG20050413231009404/13/05 23:10:31  5-MIN KMKG 140410Z 00000KT 10SM CLR 08/M08 A3023 340 31 -400 000/00 RMK AO2
14840KMKG MKG20050413231509404/13/05 23:15:31  5-MIN KMKG 140415Z 00000KT 10SM CLR 07/M08 A3023 340 33 -400 000/00 RMK AO2
14840KMKG MKG20050413232009404/13/05 23:20:31  5-MIN KMKG 140420Z 00000KT 10SM CLR 07/M08 A3023 340 33 -400 000/00 RMK AO2
14840KMKG MKG20050413232509404/13/05 23:25:31  5-MIN KMKG 140425Z 00000KT 10SM CLR 07/M08 A3023 340 33 -400 000/00 RMK AO2
14840KMKG MKG20050413233009404/13/05 23:30:31  5-MIN KMKG 140430Z 00000KT 10SM CLR 07/M08 A3023 340 33 -400 000/00 RMK AO2
14840KMKG MKG20050413233509404/13/05 23:35:31  5-MIN KMKG 140435Z 00000KT 10SM CLR 07/M08 A3023 340 33 -400 000/00 RMK AO2
14840KMKG MKG20050413234009404/13/05 23:40:31  5-MIN KMKG 140440Z 00000KT 10SM CLR 07/M08 A3023 340 32 -400 000/00 RMK AO2
14840KMKG MKG20050413234509404/13/05 23:45:31  5-MIN KMKG 140445Z 00000KT 10SM CLR 07/M08 A3023 340 32 -400 000/00 RMK AO2
14840KMKG MKG20050413235012104/13/05 23:50:31  5-MIN KMKG 140450Z 00000KT 10SM CLR 07/M08 A3024 340 33 -500 000/00 RMK AO2 SLP241 T00671083 401830017
14840KMKG MKG20050413235512104/13/05 23:55:31  5-MIN KMKG 140455Z 03003KT 10SM CLR 07/M08 A3024 340 33 -500 030/03 RMK AO2 SLP242 T00671083 401830017
14840KMKG MKG20050414000009404/14/05 00:00:32  5-MIN KMKG 140500Z 04003KT 10SM CLR 07/M08 A3024 340 35 -500 050/03 RMK AO2
14840KMKG MKG20050414000509404/14/05 00:05:31  5-MIN KMKG 140505Z 05003KT 10SM CLR 07/M08 A3024 340 35 -500 050/03 RMK AO2
14840KMKG MKG20050414001009404/14/05 00:10:31  5-MIN KMKG 140510Z 00000KT 10SM CLR 07/M08 A3024 340 35 -500 000/00 RMK AO2
14840KMKG MKG20050414001509404/14/05 00:15:31  5-MIN KMKG 140515Z 00000KT 10SM CLR 07/M08 A3024 340 35 -500 000/00 RMK AO2
14840KMKG MKG20050414002009404/14/05 00:20:31  5-MIN KMKG 140520Z 00000KT 10SM CLR 06/M07 A3024 340 38 -600 000/00 RMK AO2
14840KMKG MKG20050414002509404/14/05 00:25:31  5-MIN KMKG 140525Z 00000KT 10SM CLR 06/M07 A3024 340 39 -600 000/00 RMK AO2
14840KMKG MKG20050414003009404/14/05 00:30:31  5-MIN KMKG 140530Z 00000KT 10SM CLR 06/M07 A3024 340 39 -600 000/00 RMK AO2
14840KMKG MKG20050414003509404/14/05 00:35:31  5-MIN KMKG 140535Z 00000KT 10SM CLR 05/M07 A3024 340 41 -700 000/00 RMK AO2
14840KMKG MKG20050414004009404/14/05 00:40:31  5-MIN KMKG 140540Z 00000KT 10SM CLR 04/M07 A3024 340 42 -800 000/00 RMK AO2
14840KMKG MKG20050414004509404/14/05 00:45:31  5-MIN KMKG 140545Z 00000KT 10SM CLR 05/M07 A3024 340 41 -700 000/00 RMK AO2
14840KMKG MKG20050414005012904/14/05 00:50:31  5-MIN KMKG 140550Z 00000KT 10SM CLR 05/M07 A3024 340 41 -700 000/00 RMK AO2 SLP243 T00501072 10167 20044 53027
14840KMKG MKG20050414005512904/14/05 00:55:31  5-MIN KMKG 140555Z 00000KT 10SM CLR 04/M07 A3024 330 42 -800 000/00 RMK AO2 SLP244 T00441072 10167 20044 53005
14840KMKG MKG20050414010009404/14/05 01:00:31  5-MIN KMKG 140600Z 00000KT 10SM CLR 04/M07 A3024 330 42 -800 000/00 RMK AO2
14840KMKG MKG20050414010509404/14/05 01:05:31  5-MIN KMKG 140605Z 01003KT 10SM CLR 04/M07 A3024 330 42 -800 020/03 RMK AO2
14840KMKG MKG20050414011009404/14/05 01:10:31  5-MIN KMKG 140610Z 01003KT 10SM CLR 05/M07 A3024 330 42 -700 010/03 RMK AO2
14840KMKG MKG20050414011509404/14/05 01:15:31  5-MIN KMKG 140615Z 36004KT 10SM CLR 04/M07 A3024 330 44 -800 360/04 RMK AO2
14840KMKG MKG20050414012009404/14/05 01:20:31  5-MIN KMKG 140620Z 36005KT 10SM CLR 04/M06 A3025 330 48 -800 360/05 RMK AO2
14840KMKG MKG20050414012509504/14/05 01:25:31  5-MIN KMKG 140625Z 35005KT 10SM CLR 03/M06 A3025 330 54 -1000 360/05 RMK AO2
14840KMKG MKG20050414013009504/14/05 01:30:31  5-MIN KMKG 140630Z 35004KT 10SM CLR 03/M04 A3025 330 61 -1000 360/04 RMK AO2
14840KMKG MKG20050414013509504/14/05 01:35:31  5-MIN KMKG 140635Z 36004KT 10SM CLR 03/M04 A3024 330 61 -1000 360/04 RMK AO2
14840KMKG MKG20050414014009504/14/05 01:40:31  5-MIN KMKG 140640Z 00000KT 10SM CLR 03/M04 A3024 330 61 -1000 000/00 RMK AO2
14840KMKG MKG20050414014509404/14/05 01:45:31  5-MIN KMKG 140645Z 00000KT 10SM CLR 04/M04 A3024 330 55 -800 000/00 RMK AO2
14840KMKG MKG20050414015011104/14/05 01:50:31  5-MIN KMKG 140650Z 00000KT 10SM CLR 04/M04 A3024 330 52 -800 000/00 RMK AO2 SLP244 T00441044
14840KMKG MKG20050414015511104/14/05 01:55:31  5-MIN KMKG 140655Z 00000KT 10SM CLR 04/M06 A3024 330 48 -800 000/00 RMK AO2 SLP244 T00391061
14840KMKG MKG20050414020009404/14/05 02:00:31  5-MIN KMKG 140700Z 00000KT 10SM CLR 04/M06 A3024 330 48 -800 000/00 RMK AO2
14840KMKG MKG20050414020509404/14/05 02:05:31  5-MIN KMKG 140705Z 00000KT 10SM CLR 04/M06 A3024 330 50 -800 000/00 RMK AO2
14840KMKG MKG20050414021009404/14/05 02:10:31  5-MIN KMKG 140710Z 00000KT 10SM CLR 03/M06 A3024 330 52 -900 000/00 RMK AO2
14840KMKG MKG20050414021509404/14/05 02:15:31  5-MIN KMKG 140715Z 00000KT 10SM CLR 03/M05 A3024 330 54 -900 000/00 RMK AO2
14840KMKG MKG20050414022009404/14/05 02:20:31  5-MIN KMKG 140720Z 00000KT 10SM CLR 03/M06 A3024 330 50 -900 000/00 RMK AO2
14840KMKG MKG20050414022509404/14/05 02:25:31  5-MIN KMKG 140725Z 00000KT 10SM CLR 03/M06 A3024 330 52 -900 000/00 RMK AO2
14840KMKG MKG20050414023009404/14/05 02:30:31  5-MIN KMKG 140730Z 00000KT 10SM CLR 03/M06 A3024 330 52 -900 000/00 RMK AO2
14840KMKG MKG20050414023509404/14/05 02:35:31  5-MIN KMKG 140735Z 00000KT 10SM CLR 03/M05 A3024 340 54 -900 000/00 RMK AO2
14840KMKG MKG20050414024009404/14/05 02:40:31  5-MIN KMKG 140740Z 00000KT 10SM CLR 04/M05 A3024 330 52 -800 000/00 RMK AO2
14840KMKG MKG20050414024509404/14/05 02:45:31  5-MIN KMKG 140745Z 00000KT 10SM CLR 03/M05 A3024 340 54 -900 000/00 RMK AO2
14840KMKG MKG20050414025011104/14/05 02:50:31  5-MIN KMKG 140750Z 00000KT 10SM CLR 03/M04 A3024 330 57 -900 000/00 RMK AO2 SLP243 T00331044
14840KMKG MKG20050414025511204/14/05 02:55:31  5-MIN KMKG 140755Z 00000KT 10SM CLR 02/M05 A3024 340 59 -1000 000/00 RMK AO2 SLP243 T00221050
14840KMKG MKG20050414030009504/14/05 03:00:31  5-MIN KMKG 140800Z 00000KT 10SM CLR 03/M05 A3024 340 56 -1000 000/00 RMK AO2
14840KMKG MKG20050414030509504/14/05 03:05:31  5-MIN KMKG 140805Z 00000KT 10SM CLR 03/M05 A3024 340 56 -1000 000/00 RMK AO2
14840KMKG MKG20050414031009504/14/05 03:10:31  5-MIN KMKG 140810Z 00000KT 10SM CLR 02/M06 A3024 340 56 -1000 000/00 RMK AO2
14840KMKG MKG20050414031509504/14/05 03:15:31  5-MIN KMKG 140815Z 00000KT 10SM CLR 02/M05 A3024 340 61 -1100 000/00 RMK AO2
14840KMKG MKG20050414032009504/14/05 03:20:31  5-MIN KMKG 140820Z 00000KT 10SM CLR 02/M05 A3024 340 61 -1100 000/00 RMK AO2
14840KMKG MKG20050414032509504/14/05 03:25:31  5-MIN KMKG 140825Z 00000KT 10SM CLR 02/M05 A3024 340 61 -1100 000/00 RMK AO2
14840KMKG MKG20050414033009504/14/05 03:30:31  5-MIN KMKG 140830Z 00000KT 10SM CLR 02/M05 A3024 330 61 -1100 000/00 RMK AO2
14840KMKG MKG20050414033509504/14/05 03:35:31  5-MIN KMKG 140835Z 00000KT 10SM CLR 01/M05 A3024 330 64 -1200 000/00 RMK AO2
14840KMKG MKG20050414034009504/14/05 03:40:31  5-MIN KMKG 140840Z 00000KT 10SM CLR 02/M05 A3024 330 61 -1100 000/00 RMK AO2
14840KMKG MKG20050414034509504/14/05 03:45:31  5-MIN KMKG 140845Z 00000KT 10SM CLR 02/M05 A3024 330 61 -1100 000/00 RMK AO2
14840KMKG MKG20050414035011804/14/05 03:50:31  5-MIN KMKG 140850Z 00000KT 10SM CLR 02/M05 A3025 330 61 -1100 000/00 RMK AO2 SLP245 T00171050 53005
14840KMKG MKG20050414035511804/14/05 03:55:31  5-MIN KMKG 140855Z 00000KT 10SM CLR 01/M05 A3025 330 64 -1200 000/00 RMK AO2 SLP245 T00111050 53001
14840KMKG MKG20050414040009504/14/05 04:00:31  5-MIN KMKG 140900Z 00000KT 10SM CLR 01/M05 A3025 330 64 -1200 000/00 RMK AO2
14840KMKG MKG20050414040509504/14/05 04:05:31  5-MIN KMKG 140905Z 00000KT 10SM CLR 02/M05 A3025 330 61 -1100 000/00 RMK AO2
14840KMKG MKG20050414041009504/14/05 04:10:31  5-MIN KMKG 140910Z 00000KT 10SM CLR 02/M05 A3025 330 61 -1100 000/00 RMK AO2
14840KMKG MKG20050414041509504/14/05 04:15:31  5-MIN KMKG 140915Z 00000KT 10SM CLR 02/M05 A3025 330 59 -1100 000/00 RMK AO2
14840KMKG MKG20050414042009504/14/05 04:20:31  5-MIN KMKG 140920Z 00000KT 10SM CLR 02/M05 A3025 330 61 -1100 000/00 RMK AO2
14840KMKG MKG20050414042509504/14/05 04:25:31  5-MIN KMKG 140925Z 00000KT 10SM CLR 02/M05 A3025 330 61 -1100 000/00 RMK AO2
14840KMKG MKG20050414043009504/14/05 04:30:31  5-MIN KMKG 140930Z 00000KT 10SM CLR 02/M04 A3025 330 64 -1100 000/00 RMK AO2
14840KMKG MKG20050414043509504/14/05 04:35:31  5-MIN KMKG 140935Z 00000KT 10SM CLR 02/M05 A3025 330 61 -1100 000/00 RMK AO2
14840KMKG MKG20050414044009504/14/05 04:40:31  5-MIN KMKG 140940Z 00000KT 10SM CLR 02/M05 A3025 330 61 -1100 000/00 RMK AO2
14840KMKG MKG20050414044509504/14/05 04:45:31  5-MIN KMKG 140945Z 00000KT 10SM CLR 02/M05 A3025 330 59 -1100 000/00 RMK AO2
14840KMKG MKG20050414045011204/14/05 04:50:31  5-MIN KMKG 140950Z 00000KT 10SM CLR 02/M05 A3025 330 61 -1100 000/00 RMK AO2 SLP246 T00171050
14840KMKG MKG20050414045511204/14/05 04:55:31  5-MIN KMKG 140955Z 00000KT 10SM CLR 02/M05 A3025 330 61 -1100 000/00 RMK AO2 SLP247 T00171050
14840KMKG MKG20050414050009504/14/05 05:00:31  5-MIN KMKG 141000Z 00000KT 10SM CLR 02/M05 A3025 320 61 -1100 000/00 RMK AO2
14840KMKG MKG20050414050509504/14/05 05:05:31  5-MIN KMKG 141005Z 00000KT 10SM CLR 01/M05 A3025 320 64 -1200 000/00 RMK AO2
14840KMKG MKG20050414051009504/14/05 05:10:31  5-MIN KMKG 141010Z 00000KT 10SM CLR 02/M04 A3026 320 64 -1100 000/00 RMK AO2
14840KMKG MKG20050414051509504/14/05 05:15:31  5-MIN KMKG 141015Z 36003KT 10SM CLR 02/M04 A3026 320 64 -1100 010/03 RMK AO2
14840KMKG MKG20050414052009504/14/05 05:20:31  5-MIN KMKG 141020Z 01004KT 10SM CLR 02/M04 A3026 320 66 -1100 010/04 RMK AO2
14840KMKG MKG20050414052509504/14/05 05:25:31  5-MIN KMKG 141025Z 36004KT 10SM CLR 02/M06 A3026 320 59 -1100 010/04 RMK AO2
14840KMKG MKG20050414053009504/14/05 05:30:31  5-MIN KMKG 141030Z 01004KT 10SM CLR 02/M06 A3026 310 59 -1100 010/04 RMK AO2
14840KMKG MKG20050414053509504/14/05 05:35:31  5-MIN KMKG 141035Z 01003KT 10SM CLR 02/M06 A3026 310 54 -1100 010/03 RMK AO2
14840KMKG MKG20050414054009504/14/05 05:40:31  5-MIN KMKG 141040Z 01003KT 10SM CLR 03/M06 A3027 310 52 -1000 020/03 RMK AO2
14840KMKG MKG20050414054509404/14/05 05:45:31  5-MIN KMKG 141045Z 36003KT 10SM CLR 03/M06 A3027 310 50 -900 010/03 RMK AO2
14840KMKG MKG20050414055011104/14/05 05:50:31  5-MIN KMKG 141050Z 36004KT 10SM CLR 03/M06 A3027 310 50 -900 010/04 RMK AO2 SLP253 T00331061
14840KMKG MKG20050414055511104/14/05 05:55:31  5-MIN KMKG 141055Z 36004KT 10SM CLR 03/M06 A3027 310 50 -900 010/04 RMK AO2 SLP253 T00331061
14840KMKG MKG20050414060009504/14/05 06:00:31  5-MIN KMKG 141100Z 36005KT 10SM CLR 03/M07 A3027 310 50 -1000 010/05 RMK AO2
14840KMKG MKG20050414060509504/14/05 06:05:31  5-MIN KMKG 141105Z 36005KT 10SM CLR 02/M07 A3027 300 52 -1100 010/05 RMK AO2
14840KMKG MKG20050414061009504/14/05 06:10:31  5-MIN KMKG 141110Z 36006KT 10SM CLR 02/M06 A3028 300 54 -1100 360/06 RMK AO2
14840KMKG MKG20050414061509504/14/05 06:15:31  5-MIN KMKG 141115Z 36006KT 10SM CLR 02/M06 A3028 300 56 -1100 360/06 RMK AO2
14840KMKG MKG20050414062009504/14/05 06:20:31  5-MIN KMKG 141120Z 36007KT 10SM CLR 03/M06 A3028 300 52 -1000 010/07 RMK AO2
14840KMKG MKG20050414062509504/14/05 06:25:31  5-MIN KMKG 141125Z 36007KT 10SM CLR 03/M06 A3028 300 50 -1000 010/07 RMK AO2
14840KMKG MKG20050414063009404/14/05 06:30:31  5-MIN KMKG 141130Z 01007KT 10SM CLR 04/M07 A3028 290 46 -900 010/07 RMK AO2
14840KMKG MKG20050414063509404/14/05 06:35:31  5-MIN KMKG 141135Z 01006KT 10SM CLR 04/M07 A3028 300 46 -900 010/06 RMK AO2
14840KMKG MKG20050414064009404/14/05 06:40:31  5-MIN KMKG 141140Z 01005KT 10SM CLR 04/M07 A3028 290 46 -900 010/05 RMK AO2
14840KMKG MKG20050414064509404/14/05 06:45:31  5-MIN KMKG 141145Z 02004KT 10SM CLR 04/M07 A3029 290 44 -800 030/04 RMK AO2
14840KMKG MKG20050414065012904/14/05 06:50:31  5-MIN KMKG 141150Z 03004KT 10SM CLR 04/M06 A3029 290 46 -800 030/04 RMK AO2 SLP259 T00441061 10050 20011 53001
14840KMKG MKG20050414065512904/14/05 06:55:31  5-MIN KMKG 141155Z 03004KT 10SM CLR 05/M06 A3029 290 44 -800 040/04 RMK AO2 SLP258 T00501061 10050 20011 53013
14840KMKG MKG20050414070009404/14/05 07:00:31  5-MIN KMKG 141200Z 03003KT 10SM CLR 06/M06 A3029 290 43 -700 040/03 RMK AO2
14840KMKG MKG20050414070509404/14/05 07:05:31  5-MIN KMKG 141205Z 03003KT 10SM CLR 06/M06 A3029 290 43 -700 030/03 RMK AO2
14840KMKG MKG20050414071009404/14/05 07:10:31  5-MIN KMKG 141210Z 03004KT 10SM CLR 06/M06 A3029 290 41 -600 040/04 RMK AO2
14840KMKG MKG20050414071509404/14/05 07:15:31  5-MIN KMKG 141215Z 05004KT 10SM CLR 06/M06 A3028 300 41 -600 050/04 RMK AO2
14840KMKG MKG20050414072009404/14/05 07:20:31  5-MIN KMKG 141220Z 04004KT 10SM CLR 07/M06 A3029 290 39 -600 050/04 RMK AO2
14840KMKG MKG20050414072509404/14/05 07:25:31  5-MIN KMKG 141225Z 04005KT 10SM CLR 07/M06 A3029 290 39 -600 040/05 RMK AO2
14840KMKG MKG20050414073009404/14/05 07:30:31  5-MIN KMKG 141230Z 05006KT 10SM CLR 07/M07 A3029 290 38 -600 050/06 RMK AO2
14840KMKG MKG20050414073509404/14/05 07:35:31  5-MIN KMKG 141235Z 05006KT 10SM CLR 07/M07 A3029 290 38 -600 050/06 RMK AO2
14840KMKG MKG20050414074009404/14/05 07:40:31  5-MIN KMKG 141240Z 06007KT 10SM CLR 07/M07 A3029 290 36 -500 060/07 RMK AO2
14840KMKG MKG20050414074509404/14/05 07:45:31  5-MIN KMKG 141245Z 06008KT 10SM CLR 07/M07 A3029 290 36 -500 060/08 RMK AO2
14840KMKG MKG20050414075011104/14/05 07:50:31  5-MIN KMKG 141250Z 05007KT 10SM CLR 08/M07 A3030 280 35 -400 060/07 RMK AO2 SLP261 T00781067
14840KMKG MKG20050414075511104/14/05 07:55:31  5-MIN KMKG 141255Z 05007KT 10SM CLR 08/M07 A3030 280 35 -400 050/07 RMK AO2 SLP262 T00781067
14840KMKG MKG20050414080009404/14/05 08:00:31  5-MIN KMKG 141300Z 06008KT 10SM CLR 08/M07 A3030 280 34 -400 060/08 RMK AO2
14840KMKG MKG20050414080509404/14/05 08:05:31  5-MIN KMKG 141305Z 06007KT 10SM CLR 09/M07 A3030 280 32 -300 070/07 RMK AO2
14840KMKG MKG20050414081009404/14/05 08:10:31  5-MIN KMKG 141310Z 07007KT 10SM CLR 09/M07 A3030 280 32 -300 070/07 RMK AO2
14840KMKG MKG20050414081509404/14/05 08:15:31  5-MIN KMKG 141315Z 07006KT 10SM CLR 09/M07 A3030 280 31 -200 070/06 RMK AO2
14840KMKG MKG20050414082009404/14/05 08:20:31  5-MIN KMKG 141320Z 06006KT 10SM CLR 10/M07 A3031 280 30 -200 070/06 RMK AO2
14840KMKG MKG20050414082509404/14/05 08:25:31  5-MIN KMKG 141325Z 07007KT 10SM CLR 10/M07 A3031 270 30 -200 070/07 RMK AO2
14840KMKG MKG20050414083009404/14/05 08:30:31  5-MIN KMKG 141330Z 07008KT 10SM CLR 11/M07 A3031 270 29 -100 080/08 RMK AO2
14840KMKG MKG20050414083509404/14/05 08:35:31  5-MIN KMKG 141335Z 07007KT 10SM CLR 11/M07 A3031 270 29 -100 070/07 RMK AO2
14840KMKG MKG20050414084009404/14/05 08:40:31  5-MIN KMKG 141340Z 06007KT 10SM CLR 11/M07 A3031 270 28 -100 070/07 RMK AO2
14840KMKG MKG20050414084509104/14/05 08:45:31  5-MIN KMKG 141345Z 06006KT 10SM CLR 11/M07 A3031 270 28 0 070/06 RMK AO2
14840KMKG MKG20050414085010804/14/05 08:50:31  5-MIN KMKG 141350Z 05006KT 10SM CLR 11/M07 A3031 270 28 0 050/06 RMK AO2 SLP266 T01111067
14840KMKG MKG20050414085510804/14/05 08:55:31  5-MIN KMKG 141355Z 05005KT 10SM CLR 12/M07 A3031 270 27 0 050/05 RMK AO2 SLP267 T01171067
14840KMKG MKG20050414090009104/14/05 09:00:31  5-MIN KMKG 141400Z 07004KT 10SM CLR 12/M07 A3031 270 26 0 070/04 RMK AO2
14840KMKG MKG20050414090509104/14/05 09:05:31  5-MIN KMKG 141405Z 06005KT 10SM CLR 12/M07 A3032 260 27 0 060/05 RMK AO2
14840KMKG MKG20050414091009104/14/05 09:10:31  5-MIN KMKG 141410Z 04005KT 10SM CLR 12/M07 A3032 260 26 0 050/05 RMK AO2
14840KMKG MKG20050414091509304/14/05 09:15:31  5-MIN KMKG 141415Z VRB05KT 10SM CLR 13/M07 A3032 260 25 100 VRB/05 RMK AO2
14840KMKG MKG20050414092009304/14/05 09:20:31  5-MIN KMKG 141420Z 07005KT 10SM CLR 13/M07 A3032 260 25 100 070/05 RMK AO2
14840KMKG MKG20050414092509304/14/05 09:25:31  5-MIN KMKG 141425Z VRB03KT 10SM CLR 13/M07 A3032 260 25 100 VRB/03 RMK AO2
14840KMKG MKG20050414093009304/14/05 09:30:31  5-MIN KMKG 141430Z 07004KT 10SM CLR 13/M07 A3032 260 24 200 070/04 RMK AO2
14840KMKG MKG20050414093509304/14/05 09:35:31  5-MIN KMKG 141435Z 06005KT 10SM CLR 13/M07 A3032 260 24 200 060/05 RMK AO2
14840KMKG MKG20050414094009304/14/05 09:40:31  5-MIN KMKG 141440Z 00000KT 10SM CLR 13/M07 A3032 260 24 200 000/00 RMK AO2
14840KMKG MKG20050414094509304/14/05 09:45:31  5-MIN KMKG 141445Z 04005KT 10SM CLR 14/M07 A3032 260 23 200 040/05 RMK AO2
14840KMKG MKG20050414095011604/14/05 09:50:31  5-MIN KMKG 141450Z 01005KT 10SM CLR 14/M07 A3032 260 22 300 010/05 RMK AO2 SLP270 T01441067 53013
14840KMKG MKG20050414095511604/14/05 09:55:31  5-MIN KMKG 141455Z 02005KT 10SM CLR 14/M07 A3032 260 22 300 030/05 RMK AO2 SLP270 T01441067 51012
14840KMKG MKG20050414100009304/14/05 10:00:31  5-MIN KMKG 141500Z 03006KT 10SM CLR 14/M07 A3032 260 22 300 030/06 RMK AO2
14840KMKG MKG20050414100509304/14/05 10:05:31  5-MIN KMKG 141505Z 04006KT 10SM CLR 15/M07 A3032 260 22 400 050/06 RMK AO2
14840KMKG MKG20050414101009304/14/05 10:10:31  5-MIN KMKG 141510Z 01006KT 10SM CLR 15/M07 A3032 260 22 400 020/06 RMK AO2
14840KMKG MKG20050414101509304/14/05 10:15:31  5-MIN KMKG 141515Z 01005KT 10SM CLR 15/M07 A3032 260 21 400 010/05 RMK AO2
14840KMKG MKG20050414102009304/14/05 10:20:31  5-MIN KMKG 141520Z 03006KT 10SM CLR 16/M07 A3032 260 20 400 030/06 RMK AO2
14840KMKG MKG20050414102509304/14/05 10:25:31  5-MIN KMKG 141525Z VRB03KT 10SM CLR 16/M07 A3032 260 20 400 VRB/03 RMK AO2
14840KMKG MKG20050414103009304/14/05 10:30:31  5-MIN KMKG 141530Z VRB04KT 10SM CLR 16/M07 A3032 270 20 400 VRB/04 RMK AO2
14840KMKG MKG20050414103509304/14/05 10:35:31  5-MIN KMKG 141535Z 02006KT 10SM CLR 16/M07 A3032 270 19 500 020/06 RMK AO2
14840KMKG MKG20050414104009304/14/05 10:40:31  5-MIN KMKG 141540Z 04005KT 10SM CLR 16/M07 A3032 270 19 500 050/05 RMK AO2
14840KMKG MKG20050414104509304/14/05 10:45:31  5-MIN KMKG 141545Z VRB04KT 10SM CLR 16/M08 A3031 270 18 500 VRB/04 RMK AO2
14840KMKG MKG20050414105011004/14/05 10:50:31  5-MIN KMKG 141550Z VRB03KT 10SM CLR 16/M08 A3031 270 18 500 VRB/03 RMK AO2 SLP267 T01611083
14840KMKG MKG20050414105511004/14/05 10:55:31  5-MIN KMKG 141555Z VRB04KT 10SM CLR 16/M09 A3031 270 17 400 VRB/04 RMK AO2 SLP267 T01561094
14840KMKG MKG20050414110009304/14/05 11:00:31  5-MIN KMKG 141600Z VRB06KT 10SM CLR 16/M09 A3031 270 17 500 VRB/06 RMK AO2
14840KMKG MKG20050414110509304/14/05 11:05:31  5-MIN KMKG 141605Z VRB05KT 10SM CLR 16/M09 A3031 270 17 500 VRB/05 RMK AO2
14840KMKG MKG20050414111009304/14/05 11:10:31  5-MIN KMKG 141610Z 08007KT 10SM CLR 16/M08 A3031 270 18 500 080/07 RMK AO2
14840KMKG MKG20050414111509304/14/05 11:15:31  5-MIN KMKG 141615Z 08004KT 10SM CLR 16/M08 A3031 270 18 500 080/04 RMK AO2
14840KMKG MKG20050414112009304/14/05 11:20:31  5-MIN KMKG 141620Z VRB06KT 10SM CLR 17/M08 A3031 270 18 600 VRB/06 RMK AO2
14840KMKG MKG20050414112509304/14/05 11:25:31  5-MIN KMKG 141625Z 01004KT 10SM CLR 17/M08 A3031 270 17 600 010/04 RMK AO2
14840KMKG MKG20050414113009304/14/05 11:30:31  5-MIN KMKG 141630Z VRB04KT 10SM CLR 17/M08 A3031 280 17 600 VRB/04 RMK AO2
14840KMKG MKG20050414113509304/14/05 11:35:31  5-MIN KMKG 141635Z VRB06KT 10SM CLR 17/M08 A3030 280 16 600 VRB/06 RMK AO2
14840KMKG MKG20050414114009304/14/05 11:40:31  5-MIN KMKG 141640Z 35005KT 10SM CLR 17/M08 A3030 280 16 600 360/05 RMK AO2
14840KMKG MKG20050414114509304/14/05 11:45:31  5-MIN KMKG 141645Z 05007KT 10SM CLR 18/M09 A3030 280 15 700 050/07 RMK AO2
14840KMKG MKG20050414115012604/14/05 11:50:31  5-MIN KMKG 141650Z 04007KT 010V080 10SM CLR 18/M09 A3030 280 15 700 050/07 010V080 RMK AO2 SLP262 T01781089
14840KMKG MKG20050414115511004/14/05 11:55:31  5-MIN KMKG 141655Z 04008KT 10SM CLR 18/M09 A3030 280 15 700 050/08 RMK AO2 SLP262 T01781089
14840KMKG MKG20050414120010904/14/05 12:00:31  5-MIN KMKG 141700Z 03007KT 360V070 10SM CLR 19/M08 A3030 280 15 800 030/07 360V070 RMK AO2
14840KMKG MKG20050414120510904/14/05 12:05:31  5-MIN KMKG 141705Z 35008KT 310V040 10SM CLR 18/M09 A3030 280 15 800 360/08 310V040 RMK AO2
14840KMKG MKG20050414121009304/14/05 12:10:31  5-MIN KMKG 141710Z VRB05KT 10SM CLR 18/M09 A3030 280 14 700 VRB/05 RMK AO2
14840KMKG MKG20050414121510904/14/05 12:15:31  5-MIN KMKG 141715Z 36009KT 340V040 10SM CLR 19/M08 A3029 290 15 800 360/09 340V040 RMK AO2
14840KMKG MKG20050414122009304/14/05 12:20:31  5-MIN KMKG 141720Z 35007KT 10SM CLR 18/M08 A3029 290 15 800 350/07 RMK AO2
14840KMKG MKG20050414122509304/14/05 12:25:31  5-MIN KMKG 141725Z VRB03KT 10SM CLR 18/M08 A3029 290 15 800 VRB/03 RMK AO2
14840KMKG MKG20050414123009304/14/05 12:30:31  5-MIN KMKG 141730Z 25009KT 10SM CLR 18/M08 A3029 290 16 700 260/09 RMK AO2
14840KMKG MKG20050414123509304/14/05 12:35:31  5-MIN KMKG 141735Z 25011KT 10SM CLR 17/M06 A3029 290 19 700 250/11 RMK AO2
14840KMKG MKG20050414124009304/14/05 12:40:31  5-MIN KMKG 141740Z 27012KT 10SM CLR 18/M06 A3028 300 19 700 270/12 RMK AO2
14840KMKG MKG20050414124509304/14/05 12:45:31  5-MIN KMKG 141745Z 28008KT 10SM CLR 18/M06 A3028 300 19 700 290/08 RMK AO2
14840KMKG MKG20050414125012804/14/05 12:50:31  5-MIN KMKG 141750Z 29010KT 10SM CLR 17/M07 A3028 300 19 700 300/10 RMK AO2 SLP257 T01721067 10189 20050 51012
14840KMKG MKG20050414125512804/14/05 12:55:31  5-MIN KMKG 141755Z 28010KT 10SM CLR 17/M07 A3029 290 18 700 280/10 RMK AO2 SLP258 T01721072 10189 20050 58012
14840KMKG MKG20050414130009304/14/05 13:00:31  5-MIN KMKG 141800Z 29011KT 10SM CLR 18/M08 A3028 300 16 700 300/11 RMK AO2
14840KMKG MKG20050414130509304/14/05 13:05:31  5-MIN KMKG 141805Z 30011KT 10SM CLR 17/M08 A3028 300 17 700 300/11 RMK AO2
14840KMKG MKG20050414131009304/14/05 13:10:31  5-MIN KMKG 141810Z 28012KT 10SM CLR 17/M08 A3028 300 17 600 290/12 RMK AO2
14840KMKG MKG20050414131509304/14/05 13:15:31  5-MIN KMKG 141815Z 29012KT 10SM CLR 17/M08 A3028 300 17 600 290/12 RMK AO2
14840KMKG MKG20050414132009304/14/05 13:20:31  5-MIN KMKG 141820Z 28011KT 10SM CLR 17/M08 A3028 300 17 600 290/11 RMK AO2
14840KMKG MKG20050414132509304/14/05 13:25:31  5-MIN KMKG 141825Z 29012KT 10SM CLR 17/M08 A3028 300 17 600 290/12 RMK AO2
14840KMKG MKG20050414133009304/14/05 13:30:31  5-MIN KMKG 141830Z 30011KT 10SM CLR 16/M09 A3028 300 17 500 300/11 RMK AO2
14840KMKG MKG20050414133509304/14/05 13:35:31  5-MIN KMKG 141835Z 28012KT 10SM CLR 16/M10 A3028 300 15 500 280/12 RMK AO2
14840KMKG MKG20050414134009304/14/05 13:40:31  5-MIN KMKG 141840Z 28012KT 10SM CLR 17/M09 A3028 300 16 600 280/12 RMK AO2
14840KMKG MKG20050414134509304/14/05 13:45:31  5-MIN KMKG 141845Z 29012KT 10SM CLR 16/M09 A3028 300 17 500 300/12 RMK AO2
14840KMKG MKG20050414135011004/14/05 13:50:31  5-MIN KMKG 141850Z 29012KT 10SM CLR 17/M09 A3028 300 16 600 290/12 RMK AO2 SLP256 T01671094
14840KMKG MKG20050414135511004/14/05 13:55:31  5-MIN KMKG 141855Z 29012KT 10SM CLR 16/M09 A3028 300 16 500 290/12 RMK AO2 SLP256 T01611094
14840KMKG MKG20050414140009304/14/05 14:00:31  5-MIN KMKG 141900Z 29012KT 10SM CLR 16/M09 A3028 300 16 500 290/12 RMK AO2
14840KMKG MKG20050414140509304/14/05 14:05:31  5-MIN KMKG 141905Z 30012KT 10SM CLR 16/M09 A3028 300 16 500 300/12 RMK AO2
14840KMKG MKG20050414141009304/14/05 14:10:31  5-MIN KMKG 141910Z 30011KT 10SM CLR 16/M09 A3027 310 16 500 300/11 RMK AO2
14840KMKG MKG20050414141509304/14/05 14:15:31  5-MIN KMKG 141915Z 29011KT 10SM CLR 16/M09 A3027 310 17 600 300/11 RMK AO2
14840KMKG MKG20050414142009304/14/05 14:20:31  5-MIN KMKG 141920Z 29012KT 10SM CLR 16/M09 A3027 310 17 600 300/12 RMK AO2
14840KMKG MKG20050414142509304/14/05 14:25:31  5-MIN KMKG 141925Z 29010KT 10SM CLR 16/M08 A3027 310 18 600 300/10 RMK AO2
14840KMKG MKG20050414143009904/14/05 14:30:31  5-MIN KMKG 141930Z 29012G18KT 10SM CLR 16/M08 A3027 310 19 500 290/12G18 RMK AO2
14840KMKG MKG20050414143509904/14/05 14:35:31  5-MIN KMKG 141935Z 29012G18KT 10SM CLR 16/M07 A3027 310 20 500 290/12G18 RMK AO2
14840KMKG MKG20050414144009304/14/05 14:40:31  5-MIN KMKG 141940Z 29012KT 10SM CLR 16/M07 A3026 320 20 500 290/12 RMK AO2
14840KMKG MKG20050414144509304/14/05 14:45:31  5-MIN KMKG 141945Z 30013KT 10SM CLR 16/M08 A3026 310 18 500 300/13 RMK AO2
14840KMKG MKG20050414145011004/14/05 14:50:31  5-MIN KMKG 141950Z 29016KT 10SM CLR 16/M08 A3026 310 18 500 290/16 RMK AO2 SLP251 T01561083
14840KMKG MKG20050414145511004/14/05 14:55:31  5-MIN KMKG 141955Z 29013KT 10SM CLR 15/M09 A3026 320 18 400 300/13 RMK AO2 SLP251 T01501089
14840KMKG MKG20050414150009904/14/05 15:00:31  5-MIN KMKG 142000Z 29016G19KT 10SM CLR 15/M08 A3026 320 20 400 290/16G19 RMK AO2
14840KMKG MKG20050414150509304/14/05 15:05:31  5-MIN KMKG 142005Z 29013KT 10SM CLR 14/M08 A3026 320 20 400 290/13 RMK AO2
14840KMKG MKG20050414151009304/14/05 15:10:31  5-MIN KMKG 142010Z 29012KT 10SM CLR 14/M07 A3026 320 22 400 290/12 RMK AO2
14840KMKG MKG20050414151509304/14/05 15:15:31  5-MIN KMKG 142015Z 29013KT 10SM CLR 14/M06 A3026 320 23 400 290/13 RMK AO2
14840KMKG MKG20050414152009304/14/05 15:20:31  5-MIN KMKG 142020Z 29012KT 10SM CLR 14/M06 A3026 320 24 300 290/12 RMK AO2
14840KMKG MKG20050414152509304/14/05 15:25:31  5-MIN KMKG 142025Z 29014KT 10SM CLR 14/M06 A3025 320 24 300 290/14 RMK AO2
14840KMKG MKG20050414153009304/14/05 15:30:31  5-MIN KMKG 142030Z 29012KT 10SM CLR 14/M06 A3025 330 23 400 290/12 RMK AO2
14840KMKG MKG20050414153509304/14/05 15:35:31  5-MIN KMKG 142035Z 29012KT 10SM CLR 14/M06 A3025 330 23 400 290/12 RMK AO2
14840KMKG MKG20050414154009304/14/05 15:40:31  5-MIN KMKG 142040Z 30012KT 10SM CLR 14/M06 A3025 330 24 400 300/12 RMK AO2
14840KMKG MKG20050414154509304/14/05 15:45:31  5-MIN KMKG 142045Z 30010KT 10SM CLR 14/M06 A3025 330 24 400 300/10 RMK AO2
14840KMKG MKG20050414155011604/14/05 15:50:31  5-MIN KMKG 142050Z 29011KT 10SM CLR 15/M06 A3025 330 23 400 290/11 RMK AO2 SLP246 T01501056 58012
14840KMKG MKG20050414155511604/14/05 15:55:31  5-MIN KMKG 142055Z 30009KT 10SM CLR 15/M06 A3024 330 23 400 300/09 RMK AO2 SLP246 T01501056 58014
14840KMKG MKG20050414160009304/14/05 16:00:31  5-MIN KMKG 142100Z 30011KT 10SM CLR 15/M06 A3024 330 23 500 300/11 RMK AO2
14840KMKG MKG20050414160509304/14/05 16:05:31  5-MIN KMKG 142105Z 30012KT 10SM CLR 15/M06 A3024 330 22 500 300/12 RMK AO2
14840KMKG MKG20050414161009304/14/05 16:10:31  5-MIN KMKG 142110Z 30011KT 10SM CLR 15/M06 A3024 330 22 500 300/11 RMK AO2
14840KMKG MKG20050414161509304/14/05 16:15:31  5-MIN KMKG 142115Z 30011KT 10SM CLR 15/M07 A3024 340 22 500 310/11 RMK AO2
14840KMKG MKG20050414162009304/14/05 16:20:31  5-MIN KMKG 142120Z 30012KT 10SM CLR 15/M06 A3024 340 22 500 300/12 RMK AO2
14840KMKG MKG20050414162509304/14/05 16:25:31  5-MIN KMKG 142125Z 30010KT 10SM CLR 15/M06 A3024 340 23 500 300/10 RMK AO2
14840KMKG MKG20050414163009304/14/05 16:30:31  5-MIN KMKG 142130Z 29011KT 10SM CLR 15/M06 A3024 340 23 500 300/11 RMK AO2
14840KMKG MKG20050414163509304/14/05 16:35:31  5-MIN KMKG 142135Z 30009KT 10SM CLR 16/M05 A3024 340 24 500 300/09 RMK AO2
14840KMKG MKG20050414164009304/14/05 16:40:31  5-MIN KMKG 142140Z 30009KT 10SM CLR 16/M05 A3024 340 24 500 300/09 RMK AO2
14840KMKG MKG20050414164509304/14/05 16:45:31  5-MIN KMKG 142145Z 29009KT 10SM CLR 16/M06 A3024 340 23 500 300/09 RMK AO2
14840KMKG MKG20050414165011004/14/05 16:50:31  5-MIN KMKG 142150Z 30008KT 10SM CLR 16/M06 A3024 340 22 600 300/08 RMK AO2 SLP242 T01611056
14840KMKG MKG20050414165511004/14/05 16:55:31  5-MIN KMKG 142155Z 30009KT 10SM CLR 16/M05 A3024 340 23 600 310/09 RMK AO2 SLP242 T01611050
14840KMKG MKG20050414170009304/14/05 17:00:31  5-MIN KMKG 142200Z 30007KT 10SM CLR 16/M05 A3024 340 23 600 300/07 RMK AO2
14840KMKG MKG20050414170509304/14/05 17:05:31  5-MIN KMKG 142205Z 29007KT 10SM CLR 16/M05 A3023 340 23 600 290/07 RMK AO2
14840KMKG MKG20050414171009304/14/05 17:10:31  5-MIN KMKG 142210Z 29008KT 10SM CLR 16/M05 A3023 340 23 600 300/08 RMK AO2
14840KMKG MKG20050414171509304/14/05 17:15:31  5-MIN KMKG 142215Z 29007KT 10SM CLR 16/M05 A3023 340 23 600 300/07 RMK AO2
14840KMKG MKG20050414172009304/14/05 17:20:31  5-MIN KMKG 142220Z 30007KT 10SM CLR 16/M04 A3023 340 24 600 300/07 RMK AO2
14840KMKG MKG20050414172509304/14/05 17:25:31  5-MIN KMKG 142225Z 30007KT 10SM CLR 16/M04 A3024 340 24 600 310/07 RMK AO2
14840KMKG MKG20050414173009304/14/05 17:30:31  5-MIN KMKG 142230Z 29007KT 10SM CLR 16/M04 A3024 340 25 500 290/07 RMK AO2
14840KMKG MKG20050414173509304/14/05 17:35:31  5-MIN KMKG 142235Z 29007KT 10SM CLR 16/M04 A3024 340 25 500 290/07 RMK AO2
14840KMKG MKG20050414174009304/14/05 17:40:31  5-MIN KMKG 142240Z 28006KT 10SM CLR 16/M04 A3024 340 25 500 290/06 RMK AO2
14840KMKG MKG20050414174509304/14/05 17:45:31  5-MIN KMKG 142245Z 29006KT 10SM CLR 16/M04 A3024 340 26 500 300/06 RMK AO2
14840KMKG MKG20050414175011004/14/05 17:50:31  5-MIN KMKG 142250Z 27006KT 10SM CLR 16/M04 A3024 340 26 500 280/06 RMK AO2 SLP242 T01561039
14840KMKG MKG20050414175511004/14/05 17:55:31  5-MIN KMKG 142255Z 27006KT 10SM CLR 16/M03 A3024 340 27 500 280/06 RMK AO2 SLP242 T01561033
14840KMKG MKG20050414180009304/14/05 18:00:31  5-MIN KMKG 142300Z 25006KT 10SM CLR 15/M03 A3023 340 29 500 250/06 RMK AO2
14840KMKG MKG20050414180509304/14/05 18:05:31  5-MIN KMKG 142305Z 28005KT 10SM CLR 15/M02 A3023 340 30 500 280/05 RMK AO2
14840KMKG MKG20050414181009304/14/05 18:10:31  5-MIN KMKG 142310Z 28005KT 10SM CLR 15/M02 A3023 340 30 500 280/05 RMK AO2
14840KMKG MKG20050414181509304/14/05 18:15:31  5-MIN KMKG 142315Z 29006KT 10SM CLR 15/M03 A3024 340 29 500 300/06 RMK AO2
14840KMKG MKG20050414182009304/14/05 18:20:31  5-MIN KMKG 142320Z 28005KT 10SM CLR 15/M02 A3024 340 30 500 280/05 RMK AO2
14840KMKG MKG20050414182509304/14/05 18:25:31  5-MIN KMKG 142325Z 29005KT 10SM CLR 15/M03 A3024 340 29 500 290/05 RMK AO2
14840KMKG MKG20050414183009304/14/05 18:30:31  5-MIN KMKG 142330Z 28005KT 10SM CLR 14/M03 A3024 340 30 400 290/05 RMK AO2
14840KMKG MKG20050414183509304/14/05 18:35:31  5-MIN KMKG 142335Z 28004KT 10SM CLR 14/M02 A3024 340 31 400 290/04 RMK AO2
14840KMKG MKG20050414184009304/14/05 18:40:31  5-MIN KMKG 142340Z 29005KT 10SM CLR 14/M02 A3024 340 31 400 300/05 RMK AO2
14840KMKG MKG20050414184509304/14/05 18:45:31  5-MIN KMKG 142345Z 28005KT 10SM CLR 14/M02 A3024 340 32 300 290/05 RMK AO2
14840KMKG MKG20050414185012804/14/05 18:50:31  5-MIN KMKG 142350Z 28005KT 10SM CLR 13/M02 A3024 340 34 300 290/05 RMK AO2 SLP243 T01331022 10178 20133 58014
14840KMKG MKG20050414185512804/14/05 18:55:31  5-MIN KMKG 142355Z 28004KT 10SM CLR 13/M02 A3024 340 36 200 280/04 RMK AO2 SLP243 T01281017 10178 20128 55001
14840KMKG MKG20050414190009304/14/05 19:00:31  5-MIN KMKG 150000Z 28005KT 10SM CLR 12/M01 A3024 330 39 100 290/05 RMK AO2
14840KMKG MKG20050414190509304/14/05 19:05:31  5-MIN KMKG 150005Z 28005KT 10SM CLR 12/M01 A3024 330 41 100 280/05 RMK AO2
14840KMKG MKG20050414191009304/14/05 19:10:31  5-MIN KMKG 150010Z 28004KT 10SM CLR 12/M01 A3024 330 41 100 280/04 RMK AO2
14840KMKG MKG20050414191509104/14/05 19:15:31  5-MIN KMKG 150015Z 27004KT 10SM CLR 11/M01 A3024 330 42 0 280/04 RMK AO2
14840KMKG MKG20050414192009104/14/05 19:20:31  5-MIN KMKG 150020Z 27004KT 10SM CLR 11/M01 A3025 330 42 0 270/04 RMK AO2
14840KMKG MKG20050414192509104/14/05 19:25:31  5-MIN KMKG 150025Z 27004KT 10SM CLR 11/M01 A3025 330 46 0 270/04 RMK AO2
14840KMKG MKG20050414193009104/14/05 19:30:31  5-MIN KMKG 150030Z 27005KT 10SM CLR 11/M01 A3025 330 46 0 270/05 RMK AO2
14840KMKG MKG20050414193509404/14/05 19:35:31  5-MIN KMKG 150035Z 27004KT 10SM CLR 10/M01 A3025 330 47 -100 270/04 RMK AO2
14840KMKG MKG20050414194009404/14/05 19:40:31  5-MIN KMKG 150040Z 26004KT 10SM CLR 09/M01 A3025 330 49 -200 270/04 RMK AO2
14840KMKG MKG20050414194509404/14/05 19:45:31  5-MIN KMKG 150045Z 00000KT 10SM CLR 10/M01 A3025 330 47 -100 000/00 RMK AO2
14840KMKG MKG20050414195011104/14/05 19:50:31  5-MIN KMKG 150050Z 00000KT 10SM CLR 09/M01 A3025 320 49 -200 000/00 RMK AO2 SLP247 T00941006
14840KMKG MKG20050414195511104/14/05 19:55:31  5-MIN KMKG 150055Z 00000KT 10SM CLR 09/M01 A3026 320 49 -200 000/00 RMK AO2 SLP249 T00941006
14840KMKG MKG20050414200009404/14/05 20:00:31  5-MIN KMKG 150100Z 00000KT 10SM CLR 10/M01 A3026 320 47 -100 000/00 RMK AO2
14840KMKG MKG20050414200509404/14/05 20:05:31  5-MIN KMKG 150105Z 13007KT 10SM CLR 09/M01 A3027 310 51 -300 130/07 RMK AO2
14840KMKG MKG20050414201009404/14/05 20:10:31  5-MIN KMKG 150110Z 10006KT 10SM CLR 08/M01 A3027 310 53 -300 110/06 RMK AO2
14840KMKG MKG20050414201509404/14/05 20:15:31  5-MIN KMKG 150115Z 10007KT 10SM CLR 09/M01 A3027 310 47 -200 110/07 RMK AO2
14840KMKG MKG20050414202009104/14/05 20:20:31  5-MIN KMKG 150120Z 10010KT 10SM CLR 11/M01 A3027 300 42 0 100/10 RMK AO2
14840KMKG MKG20050414202509304/14/05 20:25:31  5-MIN KMKG 150125Z 09010KT 10SM CLR 12/M01 A3028 300 41 100 100/10 RMK AO2
14840KMKG MKG20050414203009304/14/05 20:30:31  5-MIN KMKG 150130Z 09011KT 10SM CLR 13/M01 A3028 300 39 100 090/11 RMK AO2
14840KMKG MKG20050414203509304/14/05 20:35:31  5-MIN KMKG 150135Z 09011KT 10SM CLR 13/M01 A3028 300 39 100 090/11 RMK AO2
14840KMKG MKG20050414204009304/14/05 20:40:31  5-MIN KMKG 150140Z 09011KT 10SM CLR 12/M01 A3028 300 41 100 090/11 RMK AO2
14840KMKG MKG20050414204509304/14/05 20:45:31  5-MIN KMKG 150145Z 09010KT 10SM CLR 12/M01 A3029 290 41 100 100/10 RMK AO2
14840KMKG MKG20050414205011004/14/05 20:50:31  5-MIN KMKG 150150Z 10012KT 10SM CLR 12/M01 A3029 290 41 100 100/12 RMK AO2 SLP259 T01221006
14840KMKG MKG20050414205511004/14/05 20:55:31  5-MIN KMKG 150155Z 10011KT 10SM CLR 12/00 A3029 290 43  100 100/11 RMK AO2 SLP260 T01220000
14840KMKG MKG20050414210009004/14/05 21:00:31  5-MIN KMKG 150200Z 10009KT 10SM CLR 12/00 A3030 280 44 0 100/09 RMK AO2
14840KMKG MKG20050414210509004/14/05 21:05:31  5-MIN KMKG 150205Z 09011KT 10SM CLR 12/00 A3030 280 44 0 090/11 RMK AO2
14840KMKG MKG20050414211009004/14/05 21:10:31  5-MIN KMKG 150210Z 10013KT 10SM CLR 11/00 A3030 280 46 0 100/13 RMK AO2
14840KMKG MKG20050414211509704/14/05 21:15:31  5-MIN KMKG 150215Z 09013G18KT 10SM CLR 11/00 A3030 280  46 0 090/13G18 RMK AO2
14840KMKG MKG20050414212009004/14/05 21:20:31  5-MIN KMKG 150220Z 09011KT 10SM CLR 11/00 A3030 280 46 0 090/11 RMK AO2
14840KMKG MKG20050414212509404/14/05 21:25:31  5-MIN KMKG 150225Z 08009KT 10SM CLR 11/00 A3030 280 48  -100 090/09 RMK AO2
14840KMKG MKG20050414213009404/14/05 21:30:31  5-MIN KMKG 150230Z 08009KT 10SM CLR 11/01 A3031 280 50  -100 090/09 RMK AO2
14840KMKG MKG20050414213509404/14/05 21:35:31  5-MIN KMKG 150235Z 09012KT 10SM CLR 11/M01 A3031 270 46 -100 090/12 RMK AO2
14840KMKG MKG20050414214010004/14/05 21:40:31  5-MIN KMKG 150240Z 09015G20KT 10SM CLR 10/M03 A3031 270 40 -200 100/15G20 RMK AO2
14840KMKG MKG20050414214510004/14/05 21:45:31  5-MIN KMKG 150245Z 09013G20KT 10SM CLR 10/M05 A3031 270 34 -200 090/13G20 RMK AO2
14840KMKG MKG20050414215011704/14/05 21:50:31  5-MIN KMKG 150250Z 09012KT 10SM CLR 09/M06 A3031 270 33 -200 090/12 RMK AO2 SLP267 T00941061 55001
14840KMKG MKG20050414215511704/14/05 21:55:31  5-MIN KMKG 150255Z 09013KT 10SM CLR 09/M06 A3031 270 33 -200 090/13 RMK AO2 SLP267 T00941061 53025
14840KMKG MKG20050414220009404/14/05 22:00:31  5-MIN KMKG 150300Z 09010KT 10SM CLR 09/M06 A3032 270 33 -200 090/10 RMK AO2
14840KMKG MKG20050414220509404/14/05 22:05:31  5-MIN KMKG 150305Z 09010KT 10SM CLR 09/M06 A3032 260 35 -300 100/10 RMK AO2
14840KMKG MKG20050414221009404/14/05 22:10:31  5-MIN KMKG 150310Z 09011KT 10SM CLR 09/M06 A3032 260 35 -300 090/11 RMK AO2
14840KMKG MKG20050414221509404/14/05 22:15:31  5-MIN KMKG 150315Z 09011KT 10SM CLR 09/M06 A3032 260 34 -300 090/11 RMK AO2
14840KMKG MKG20050414222009404/14/05 22:20:31  5-MIN KMKG 150320Z 09010KT 10SM CLR 08/M06 A3032 260 35 -400 090/10 RMK AO2
14840KMKG MKG20050414222509404/14/05 22:25:31  5-MIN KMKG 150325Z 09012KT 10SM CLR 08/M06 A3032 260 36 -500 090/12 RMK AO2
14840KMKG MKG20050414223009404/14/05 22:30:31  5-MIN KMKG 150330Z 09011KT 10SM CLR 08/M06 A3032 260 36 -500 090/11 RMK AO2
14840KMKG MKG20050414223509404/14/05 22:35:31  5-MIN KMKG 150335Z 09011KT 10SM CLR 08/M06 A3032 260 36 -500 090/11 RMK AO2
14840KMKG MKG20050414224009404/14/05 22:40:31  5-MIN KMKG 150340Z 09011KT 10SM CLR 07/M06 A3032 260 38 -500 090/11 RMK AO2
14840KMKG MKG20050414224509404/14/05 22:45:31  5-MIN KMKG 150345Z 09011KT 10SM CLR 07/M06 A3033 260 38 -500 090/11 RMK AO2
14840KMKG MKG20050414225011104/14/05 22:50:31  5-MIN KMKG 150350Z 08013KT 10SM CLR 07/M06 A3033 260 38 -500 090/13 RMK AO2 SLP272 T00721061
14840KMKG MKG20050414225511104/14/05 22:55:31  5-MIN KMKG 150355Z 09012KT 10SM CLR 07/M07 A3033 260 38 -600 090/12 RMK AO2 SLP272 T00671067
14840KMKG MKG20050414230009404/14/05 23:00:31  5-MIN KMKG 150400Z 08012KT 10SM CLR 07/M07 A3033 260 36 -600 080/12 RMK AO2
14840KMKG MKG20050414230509404/14/05 23:05:31  5-MIN KMKG 150405Z 08017KT 10SM CLR 07/M08 A3033 260 35 -600 080/17 RMK AO2
14840KMKG MKG20050414231010004/14/05 23:10:31  5-MIN KMKG 150410Z 08016G21KT 10SM CLR 07/M08 A3033 260 33 -600 080/16G21 RMK AO2
14840KMKG MKG20050414231510004/14/05 23:15:31  5-MIN KMKG 150415Z 08015G21KT 10SM CLR 07/M09 A3033 250 32 -600 080/15G21 RMK AO2
14840KMKG MKG20050414232009404/14/05 23:20:31  5-MIN KMKG 150420Z 08013KT 10SM CLR 06/M08 A3033 250 35 -700 080/13 RMK AO2
14840KMKG MKG20050414232509404/14/05 23:25:31  5-MIN KMKG 150425Z 08011KT 10SM CLR 06/M08 A3033 250 35 -700 090/11 RMK AO2
14840KMKG MKG20050414233009404/14/05 23:30:31  5-MIN KMKG 150430Z 09012KT 10SM CLR 06/M08 A3033 250 36 -700 090/12 RMK AO2
14840KMKG MKG20050414233509404/14/05 23:35:31  5-MIN KMKG 150435Z 09011KT 10SM CLR 06/M07 A3033 250 38 -700 090/11 RMK AO2
14840KMKG MKG20050414234010004/14/05 23:40:31  5-MIN KMKG 150440Z 09013G18KT 10SM CLR 06/M07 A3033 250 39 -700 090/13G18 RMK AO2
14840KMKG MKG20050414234510004/14/05 23:45:31  5-MIN KMKG 150445Z 08009G17KT 10SM CLR 06/M07 A3033 250 41 -700 090/09G17 RMK AO2
14840KMKG MKG20050414235012704/14/05 23:50:31  5-MIN KMKG 150450Z 08010G17KT 10SM CLR 06/M07 A3033 250 41 -700 090/10G17 RMK AO2 SLP274 T00561067 401890011
14840KMKG MKG20050414235512104/14/05 23:55:31  5-MIN KMKG 150455Z 08010KT 10SM CLR 06/M07 A3033 250 41 -700 090/10 RMK AO2 SLP274 T00561067 401890011
14840KMKG MKG20050415000009404/15/05 00:00:32  5-MIN KMKG 150500Z 08010KT 10SM CLR 05/M06 A3033 250 44 -800 080/10 RMK AO2
14840KMKG MKG20050415000509404/15/05 00:05:31  5-MIN KMKG 150505Z 08011KT 10SM CLR 05/M06 A3033 250 44 -800 090/11 RMK AO2
14840KMKG MKG20050415001009404/15/05 00:10:31  5-MIN KMKG 150510Z 09008KT 10SM CLR 05/M06 A3033 250 44 -800 090/08 RMK AO2
14840KMKG MKG20050415001509404/15/05 00:15:31  5-MIN KMKG 150515Z 08009KT 10SM CLR 05/M06 A3034 250 44 -800 090/09 RMK AO2
14840KMKG MKG20050415002009404/15/05 00:20:31  5-MIN KMKG 150520Z 08010KT 10SM CLR 05/M06 A3034 250 46 -800 080/10 RMK AO2
14840KMKG MKG20050415002509404/15/05 00:25:31  5-MIN KMKG 150525Z 08008KT 10SM CLR 04/M06 A3034 250 48 -900 090/08 RMK AO2
14840KMKG MKG20050415003009404/15/05 00:30:31  5-MIN KMKG 150530Z 08009KT 10SM CLR 04/M06 A3034 250 48 -900 090/09 RMK AO2
14840KMKG MKG20050415003509404/15/05 00:35:31  5-MIN KMKG 150535Z 08009KT 10SM CLR 04/M06 A3034 250 48 -900 090/09 RMK AO2
14840KMKG MKG20050415004009404/15/05 00:40:31  5-MIN KMKG 150540Z 08009KT 10SM CLR 04/M06 A3034 250 48 -900 090/09 RMK AO2
14840KMKG MKG20050415004509404/15/05 00:45:31  5-MIN KMKG 150545Z 09009KT 10SM CLR 04/M06 A3034 250 48 -900 090/09 RMK AO2
14840KMKG MKG20050415005012904/15/05 00:50:31  5-MIN KMKG 150550Z 09008KT 10SM CLR 04/M06 A3034 250 48 -900 090/08 RMK AO2 SLP275 T00441056 10128 20044 53025
14840KMKG MKG20050415005513004/15/05 00:55:31  5-MIN KMKG 150555Z 09008KT 10SM CLR 04/M06 A3034 250 50 -1000 090/08 RMK AO2 SLP276 T00391056 10128 20039 51008
14840KMKG MKG20050415010009504/15/05 01:00:31  5-MIN KMKG 150600Z 09007KT 10SM CLR 04/M06 A3034 240 50 -1000 090/07 RMK AO2
14840KMKG MKG20050415010509504/15/05 01:05:31  5-MIN KMKG 150605Z 09007KT 10SM CLR 04/M06 A3034 240 50 -1000 090/07 RMK AO2
14840KMKG MKG20050415011009504/15/05 01:10:31  5-MIN KMKG 150610Z 09007KT 10SM CLR 04/M05 A3034 240 52 -1000 090/07 RMK AO2
14840KMKG MKG20050415011509504/15/05 01:15:31  5-MIN KMKG 150615Z 09006KT 10SM CLR 03/M05 A3034 250 54 -1000 090/06 RMK AO2
14840KMKG MKG20050415012009504/15/05 01:20:31  5-MIN KMKG 150620Z 09007KT 10SM CLR 03/M05 A3034 250 54 -1000 090/07 RMK AO2
14840KMKG MKG20050415012509504/15/05 01:25:31  5-MIN KMKG 150625Z 09007KT 10SM CLR 03/M05 A3034 240 54 -1000 090/07 RMK AO2
14840KMKG MKG20050415013009504/15/05 01:30:31  5-MIN KMKG 150630Z 09007KT 10SM CLR 03/M05 A3034 240 54 -1000 090/07 RMK AO2
14840KMKG MKG20050415013509504/15/05 01:35:31  5-MIN KMKG 150635Z 09007KT 10SM CLR 03/M05 A3034 240 54 -1000 090/07 RMK AO2
14840KMKG MKG20050415014009504/15/05 01:40:31  5-MIN KMKG 150640Z 09006KT 10SM CLR 03/M05 A3034 240 56 -1100 090/06 RMK AO2
14840KMKG MKG20050415014509504/15/05 01:45:31  5-MIN KMKG 150645Z 09006KT 10SM CLR 03/M05 A3034 240 56 -1100 090/06 RMK AO2
14840KMKG MKG20050415015011204/15/05 01:50:31  5-MIN KMKG 150650Z 09006KT 10SM CLR 02/M05 A3034 240 59 -1200 090/06 RMK AO2 SLP278 T00221050
14840KMKG MKG20050415015511204/15/05 01:55:31  5-MIN KMKG 150655Z 09006KT 10SM CLR 02/M05 A3034 240 59 -1200 090/06 RMK AO2 SLP279 T00221050
14840KMKG MKG20050415020009504/15/05 02:00:31  5-MIN KMKG 150700Z 08006KT 10SM CLR 02/M05 A3034 240 59 -1200 090/06 RMK AO2
14840KMKG MKG20050415020509504/15/05 02:05:31  5-MIN KMKG 150705Z 08006KT 10SM CLR 02/M05 A3034 240 59 -1200 090/06 RMK AO2
14840KMKG MKG20050415021009504/15/05 02:10:31  5-MIN KMKG 150710Z 08007KT 10SM CLR 02/M05 A3034 240 61 -1200 090/07 RMK AO2
14840KMKG MKG20050415021509504/15/05 02:15:31  5-MIN KMKG 150715Z 08007KT 10SM CLR 02/M05 A3035 240 61 -1200 080/07 RMK AO2
14840KMKG MKG20050415022009504/15/05 02:20:31  5-MIN KMKG 150720Z 08007KT 10SM CLR 02/M05 A3035 240 61 -1200 080/07 RMK AO2
14840KMKG MKG20050415022509504/15/05 02:25:31  5-MIN KMKG 150725Z 08008KT 10SM CLR 02/M05 A3035 240 61 -1200 080/08 RMK AO2
14840KMKG MKG20050415023009504/15/05 02:30:31  5-MIN KMKG 150730Z 08008KT 10SM CLR 02/M05 A3035 240 61 -1200 080/08 RMK AO2
14840KMKG MKG20050415023509504/15/05 02:35:31  5-MIN KMKG 150735Z 08007KT 10SM CLR 01/M05 A3035 240 64 -1300 080/07 RMK AO2
14840KMKG MKG20050415024009504/15/05 02:40:31  5-MIN KMKG 150740Z 08007KT 10SM CLR 01/M05 A3035 240 64 -1300 090/07 RMK AO2
14840KMKG MKG20050415024509504/15/05 02:45:31  5-MIN KMKG 150745Z 08007KT 10SM CLR 02/M05 A3035 240 61 -1200 080/07 RMK AO2
14840KMKG MKG20050415025011204/15/05 02:50:31  5-MIN KMKG 150750Z 08007KT 10SM CLR 02/M05 A3035 240 61 -1200 090/07 RMK AO2 SLP280 T00171050
14840KMKG MKG20050415025511204/15/05 02:55:31  5-MIN KMKG 150755Z 08007KT 10SM CLR 02/M05 A3035 230 61 -1200 090/07 RMK AO2 SLP282 T00171050
14840KMKG MKG20050415030009504/15/05 03:00:31  5-MIN KMKG 150800Z 08007KT 10SM CLR 02/M05 A3035 230 59 -1200 080/07 RMK AO2
14840KMKG MKG20050415030509504/15/05 03:05:31  5-MIN KMKG 150805Z 08007KT 10SM CLR 02/M05 A3035 230 59 -1200 090/07 RMK AO2
14840KMKG MKG20050415031009504/15/05 03:10:31  5-MIN KMKG 150810Z 08007KT 10SM CLR 02/M05 A3035 230 59 -1200 090/07 RMK AO2
14840KMKG MKG20050415031509504/15/05 03:15:31  5-MIN KMKG 150815Z 09007KT 10SM CLR 02/M05 A3036 230 59 -1200 090/07 RMK AO2
14840KMKG MKG20050415032009504/15/05 03:20:31  5-MIN KMKG 150820Z 09006KT 10SM CLR 02/M05 A3036 230 59 -1200 090/06 RMK AO2
14840KMKG MKG20050415032509504/15/05 03:25:31  5-MIN KMKG 150825Z 08006KT 10SM CLR 02/M05 A3036 220 59 -1200 090/06 RMK AO2
14840KMKG MKG20050415033009504/15/05 03:30:31  5-MIN KMKG 150830Z 08007KT 10SM CLR 02/M05 A3036 230 61 -1300 090/07 RMK AO2
14840KMKG MKG20050415033509504/15/05 03:35:31  5-MIN KMKG 150835Z 08007KT 10SM CLR 02/M05 A3036 220 61 -1300 090/07 RMK AO2
14840KMKG MKG20050415034009504/15/05 03:40:31  5-MIN KMKG 150840Z 08007KT 10SM CLR 02/M05 A3036 220 61 -1300 080/07 RMK AO2
14840KMKG MKG20050415034509504/15/05 03:45:31  5-MIN KMKG 150845Z 08006KT 10SM CLR 02/M05 A3036 220 61 -1300 080/06 RMK AO2
14840KMKG MKG20050415035011804/15/05 03:50:31  5-MIN KMKG 150850Z 08006KT 10SM CLR 01/M05 A3037 220 64 -1300 080/06 RMK AO2 SLP287 T00111050 51008
14840KMKG MKG20050415035511804/15/05 03:55:31  5-MIN KMKG 150855Z 08005KT 10SM CLR 01/M05 A3037 220 64 -1300 090/05 RMK AO2 SLP287 T00111050 53009
14840KMKG MKG20050415040009504/15/05 04:00:31  5-MIN KMKG 150900Z 09004KT 10SM CLR 02/M05 A3037 220 61 -1300 090/04 RMK AO2
14840KMKG MKG20050415040509504/15/05 04:05:31  5-MIN KMKG 150905Z 00000KT 10SM CLR 01/M06 A3037 220 61 -1300 000/00 RMK AO2
14840KMKG MKG20050415041009504/15/05 04:10:31  5-MIN KMKG 150910Z 00000KT 10SM CLR 01/M06 A3037 220 61 -1300 000/00 RMK AO2
14840KMKG MKG20050415041509504/15/05 04:15:31  5-MIN KMKG 150915Z 07003KT 10SM CLR 02/M06 A3037 220 59 -1300 080/03 RMK AO2
14840KMKG MKG20050415042009504/15/05 04:20:31  5-MIN KMKG 150920Z 08004KT 10SM CLR 02/M06 A3037 220 59 -1300 080/04 RMK AO2
14840KMKG MKG20050415042509504/15/05 04:25:31  5-MIN KMKG 150925Z 08004KT 10SM CLR 02/M05 A3037 220 59 -1200 080/04 RMK AO2
14840KMKG MKG20050415043009504/15/05 04:30:31  5-MIN KMKG 150930Z 08004KT 10SM CLR 02/M05 A3037 220 59 -1200 080/04 RMK AO2
14840KMKG MKG20050415043509504/15/05 04:35:31  5-MIN KMKG 150935Z 08004KT 10SM CLR 02/M05 A3037 210 61 -1300 080/04 RMK AO2
14840KMKG MKG20050415044009504/15/05 04:40:31  5-MIN KMKG 150940Z 08004KT 10SM CLR 02/M05 A3037 210 61 -1300 080/04 RMK AO2
14840KMKG MKG20050415044509504/15/05 04:45:31  5-MIN KMKG 150945Z 08004KT 10SM CLR 01/M06 A3038 210 61 -1300 080/04 RMK AO2
14840KMKG MKG20050415045011204/15/05 04:50:31  5-MIN KMKG 150950Z 08004KT 10SM CLR 02/M05 A3038 210 61 -1300 080/04 RMK AO2 SLP290 T00171050
14840KMKG MKG20050415045511204/15/05 04:55:31  5-MIN KMKG 150955Z 08003KT 10SM CLR 02/M05 A3038 210 61 -1300 080/03 RMK AO2 SLP291 T00171050
14840KMKG MKG20050415050009504/15/05 05:00:31  5-MIN KMKG 151000Z 08003KT 10SM CLR 01/M05 A3038 210 64 -1300 080/03 RMK AO2
14840KMKG MKG20050415050509504/15/05 05:05:31  5-MIN KMKG 151005Z 08004KT 10SM CLR 01/M05 A3038 210 66 -1400 080/04 RMK AO2
14840KMKG MKG20050415051009504/15/05 05:10:31  5-MIN KMKG 151010Z 08004KT 10SM CLR 01/M05 A3038 200 64 -1400 090/04 RMK AO2
14840KMKG MKG20050415051509504/15/05 05:15:31  5-MIN KMKG 151015Z 08004KT 10SM CLR 01/M05 A3039 200 66 -1400 080/04 RMK AO2
14840KMKG MKG20050415052009504/15/05 05:20:31  5-MIN KMKG 151020Z 07004KT 10SM CLR 01/M05 A3039 200 66 -1400 080/04 RMK AO2
14840KMKG MKG20050415052509504/15/05 05:25:31  5-MIN KMKG 151025Z 07005KT 10SM CLR 01/M05 A3039 200 66 -1400 080/05 RMK AO2
14840KMKG MKG20050415053009504/15/05 05:30:31  5-MIN KMKG 151030Z 07005KT 10SM CLR 01/M05 A3039 200 64 -1400 080/05 RMK AO2
14840KMKG MKG20050415053509504/15/05 05:35:31  5-MIN KMKG 151035Z 08004KT 10SM CLR 01/M05 A3039 200 66 -1400 080/04 RMK AO2
14840KMKG MKG20050415054009504/15/05 05:40:31  5-MIN KMKG 151040Z 08004KT 10SM CLR 01/M05 A3039 190 66 -1400 090/04 RMK AO2
14840KMKG MKG20050415054509504/15/05 05:45:31  5-MIN KMKG 151045Z 08005KT 10SM CLR 01/M05 A3040 190 66 -1400 080/05 RMK AO2
14840KMKG MKG20050415055011204/15/05 05:50:31  5-MIN KMKG 151050Z 08005KT 10SM CLR 00/M05 A3040 190 69 -1500 090/05 RMK AO2 SLP297 T00001050
14840KMKG MKG20050415055511204/15/05 05:55:31  5-MIN KMKG 151055Z 08006KT 10SM CLR 00/M05 A3040 190 69 -1500 090/06 RMK AO2 SLP297 T00001050
14840KMKG MKG20050415060009504/15/05 06:00:31  5-MIN KMKG 151100Z 08006KT 10SM CLR 00/M05 A3040 190 69 -1500 080/06 RMK AO2
14840KMKG MKG20050415060509504/15/05 06:05:31  5-MIN KMKG 151105Z 08006KT 10SM CLR 00/M05 A3040 190 69 -1500 080/06 RMK AO2
14840KMKG MKG20050415061009504/15/05 06:10:31  5-MIN KMKG 151110Z 08006KT 10SM CLR 00/M05 A3041 180 69 -1500 080/06 RMK AO2
14840KMKG MKG20050415061509504/15/05 06:15:31  5-MIN KMKG 151115Z 08006KT 10SM CLR 00/M05 A3041 180 69 -1500 080/06 RMK AO2
14840KMKG MKG20050415062009504/15/05 06:20:31  5-MIN KMKG 151120Z 09006KT 10SM CLR 00/M04 A3041 180 72 -1500 090/06 RMK AO2
14840KMKG MKG20050415062509504/15/05 06:25:31  5-MIN KMKG 151125Z 08006KT 10SM CLR 01/M04 A3041 180 69 -1500 090/06 RMK AO2
14840KMKG MKG20050415063009504/15/05 06:30:31  5-MIN KMKG 151130Z 09005KT 10SM CLR 01/M04 A3041 180 69 -1400 090/05 RMK AO2
14840KMKG MKG20050415063509504/15/05 06:35:31  5-MIN KMKG 151135Z 08005KT 10SM CLR 01/M04 A3042 170 69 -1400 090/05 RMK AO2
14840KMKG MKG20050415064009504/15/05 06:40:31  5-MIN KMKG 151140Z 09005KT 10SM CLR 02/M04 A3042 170 66 -1300 090/05 RMK AO2
14840KMKG MKG20050415064509504/15/05 06:45:31  5-MIN KMKG 151145Z 09006KT 10SM CLR 02/M04 A3042 170 66 -1300 090/06 RMK AO2
14840KMKG MKG20050415065013004/15/05 06:50:31  5-MIN KMKG 151150Z 09006KT 10SM CLR 02/M04 A3042 170 64 -1300 090/06 RMK AO2 SLP306 T00221039 10039 20000 53009
14840KMKG MKG20050415065513004/15/05 06:55:31  5-MIN KMKG 151155Z 08006KT 10SM CLR 02/M03 A3042 170 67 -1300 090/06 RMK AO2 SLP306 T00221033 10039 20000 53019
14840KMKG MKG20050415070009504/15/05 07:00:31  5-MIN KMKG 151200Z 09006KT 10SM CLR 03/M03 A3043 170 64 -1200 090/06 RMK AO2
14840KMKG MKG20050415070509504/15/05 07:05:31  5-MIN KMKG 151205Z 09005KT 10SM CLR 03/M03 A3043 160 64 -1200 100/05 RMK AO2
14840KMKG MKG20050415071009504/15/05 07:10:31  5-MIN KMKG 151210Z 10004KT 10SM CLR 03/M03 A3043 160 64 -1200 100/04 RMK AO2
14840KMKG MKG20050415071509504/15/05 07:15:31  5-MIN KMKG 151215Z 10004KT 10SM CLR 03/M03 A3043 160 61 -1100 100/04 RMK AO2
14840KMKG MKG20050415072009504/15/05 07:20:31  5-MIN KMKG 151220Z 10005KT 10SM CLR 03/M03 A3044 160 61 -1100 110/05 RMK AO2
14840KMKG MKG20050415072509504/15/05 07:25:31  5-MIN KMKG 151225Z 10006KT 10SM CLR 04/M03 A3044 150 62 -1100 100/06 RMK AO2
14840KMKG MKG20050415073009504/15/05 07:30:31  5-MIN KMKG 151230Z 10006KT 10SM CLR 04/M03 A3044 150 62 -1100 110/06 RMK AO2
14840KMKG MKG20050415073509504/15/05 07:35:31  5-MIN KMKG 151235Z 10006KT 10SM CLR 04/M03 A3044 150 59 -1000 110/06 RMK AO2
14840KMKG MKG20050415074009504/15/05 07:40:31  5-MIN KMKG 151240Z 10008KT 10SM CLR 04/M03 A3044 150 59 -1000 110/08 RMK AO2
14840KMKG MKG20050415074509404/15/05 07:45:31  5-MIN KMKG 151245Z 11008KT 10SM CLR 05/M03 A3044 150 57 -900 110/08 RMK AO2
14840KMKG MKG20050415075011104/15/05 07:50:31  5-MIN KMKG 151250Z 10007KT 10SM CLR 05/M03 A3044 150 57 -900 110/07 RMK AO2 SLP313 T00501028
14840KMKG MKG20050415075511104/15/05 07:55:31  5-MIN KMKG 151255Z 10008KT 10SM CLR 06/M03 A3044 150 55 -900 100/08 RMK AO2 SLP313 T00561028
14840KMKG MKG20050415080009404/15/05 08:00:31  5-MIN KMKG 151300Z 11007KT 10SM CLR 06/M03 A3045 150 55 -900 110/07 RMK AO2
14840KMKG MKG20050415080509404/15/05 08:05:31  5-MIN KMKG 151305Z 11008KT 10SM CLR 06/M02 A3045 150 55 -800 110/08 RMK AO2
14840KMKG MKG20050415081009404/15/05 08:10:31  5-MIN KMKG 151310Z 10009KT 10SM CLR 06/M02 A3045 150 55 -800 110/09 RMK AO2
14840KMKG MKG20050415081509404/15/05 08:15:31  5-MIN KMKG 151315Z 10009KT 10SM CLR 07/M02 A3045 140 53 -700 110/09 RMK AO2
14840KMKG MKG20050415082009404/15/05 08:20:31  5-MIN KMKG 151320Z 10007KT 10SM CLR 07/M02 A3045 140 51 -700 110/07 RMK AO2
14840KMKG MKG20050415082509404/15/05 08:25:31  5-MIN KMKG 151325Z 11008KT 10SM CLR 07/M02 A3045 140 51 -700 120/08 RMK AO2
14840KMKG MKG20050415083009404/15/05 08:30:31  5-MIN KMKG 151330Z 12007KT 10SM CLR 08/M02 A3045 140 49 -600 120/07 RMK AO2
14840KMKG MKG20050415083509404/15/05 08:35:31  5-MIN KMKG 151335Z 12007KT 10SM CLR 08/M02 A3045 140 47 -500 120/07 RMK AO2
14840KMKG MKG20050418031009404/18/05 03:10:31  5-MIN KMKG 180810Z 06004KT 10SM CLR 08/05 A3011 450 79  -100 070/04 RMK AO2
14840KMKG MKG20050418031509404/18/05 03:15:31  5-MIN KMKG 180815Z 07005KT 10SM CLR 08/05 A3011 450 79  -100 080/05 RMK AO2
14840KMKG MKG20050418032009404/18/05 03:20:31  5-MIN KMKG 180820Z 08004KT 10SM CLR 08/05 A3011 450 79  -100 080/04 RMK AO2
14840KMKG MKG20050418032509404/18/05 03:25:31  5-MIN KMKG 180825Z 00000KT 10SM CLR 08/05 A3011 450 82  -200 000/00 RMK AO2
14840KMKG MKG20050418033009404/18/05 03:30:31  5-MIN KMKG 180830Z 06003KT 10SM CLR 08/05 A3011 450 82  -200 060/03 RMK AO2
14840KMKG MKG20050418033509404/18/05 03:35:31  5-MIN KMKG 180835Z 06003KT 10SM CLR 08/05 A3011 450 82  -200 060/03 RMK AO2
14840KMKG MKG20050418034009404/18/05 03:40:31  5-MIN KMKG 180840Z 08003KT 10SM CLR 08/05 A3011 460 79  -100 090/03 RMK AO2
14840KMKG MKG20050418034509404/18/05 03:45:31  5-MIN KMKG 180845Z 08003KT 10SM CLR 09/06 A3011 460 79  -100 090/03 RMK AO2
14840KMKG MKG20050418035011304/18/05 03:50:31  5-MIN KMKG 180850Z 07005KT 10SM CLR 09/06 A3010 460 76 0 080/05 RMK AO2 SLP195 T00940056 58006
14840KMKG MKG20050418035511704/18/05 03:55:31  5-MIN KMKG 180855Z 08003KT 10SM CLR 09/06 A3011 460 79  -100 090/03 RMK AO2 SLP196 T00890056 56010
14840KMKG MKG20050418040009404/18/05 04:00:31  5-MIN KMKG 180900Z 00000KT 10SM CLR 09/06 A3011 460 79  -100 000/00 RMK AO2
14840KMKG MKG20050418040509404/18/05 04:05:31  5-MIN KMKG 180905Z 00000KT 10SM CLR 09/06 A3011 460 79  -100 000/00 RMK AO2
14840KMKG MKG20050418041009404/18/05 04:10:31  5-MIN KMKG 180910Z 00000KT 10SM CLR 09/06 A3011 460 79  -100 000/00 RMK AO2
14840KMKG MKG20050418041509004/18/05 04:15:31  5-MIN KMKG 180915Z 00000KT 10SM CLR 09/06 A3011 460 76 0 000/00 RMK AO2
14840KMKG MKG20050418042009404/18/05 04:20:31  5-MIN KMKG 180920Z 00000KT 10SM CLR 09/06 A3011 450 79  -100 000/00 RMK AO2
14840KMKG MKG20050418042509404/18/05 04:25:31  5-MIN KMKG 180925Z 00000KT 10SM CLR 08/05 A3011 460 82  -200 000/00 RMK AO2
14840KMKG MKG20050418043009404/18/05 04:30:31  5-MIN KMKG 180930Z 00000KT 10SM CLR 07/05 A3011 460 86  -300 000/00 RMK AO2
14840KMKG MKG20050418043509404/18/05 04:35:31  5-MIN KMKG 180935Z 00000KT 10SM CLR 08/05 A3011 450 82  -200 000/00 RMK AO2
14840KMKG MKG20050418044009404/18/05 04:40:31  5-MIN KMKG 180940Z 00000KT 10SM CLR 07/05 A3011 450 86  -300 000/00 RMK AO2
14840KMKG MKG20050418044509404/18/05 04:45:31  5-MIN KMKG 180945Z 00000KT 10SM CLR 08/05 A3011 450 82  -200 000/00 RMK AO2
14840KMKG MKG20050418045011104/18/05 04:50:31  5-MIN KMKG 180950Z 00000KT 10SM CLR 08/05 A3011 450 82  -200 000/00 RMK AO2 SLP198 T00780050
14840KMKG MKG20050418045511104/18/05 04:55:31  5-MIN KMKG 180955Z 00000KT 10SM CLR 08/05 A3011 450 79  -200 000/00 RMK AO2 SLP198 T00830050
14840KMKG MKG20050418050009404/18/05 05:00:31  5-MIN KMKG 181000Z 00000KT 10SM CLR 08/05 A3012 450 79  -200 000/00 RMK AO2
14840KMKG MKG20050418050509404/18/05 05:05:31  5-MIN KMKG 181005Z 00000KT 10SM CLR 08/05 A3012 450 82  -200 000/00 RMK AO2
14840KMKG MKG20050418051009404/18/05 05:10:31  5-MIN KMKG 181010Z 00000KT 10SM CLR 08/05 A3012 450 82  -200 000/00 RMK AO2
14840KMKG MKG20050418051509404/18/05 05:15:31  5-MIN KMKG 181015Z 00000KT 10SM CLR 08/05 A3012 450 82  -200 000/00 RMK AO2
14840KMKG MKG20050418052009404/18/05 05:20:31  5-MIN KMKG 181020Z 00000KT 10SM CLR 08/06 A3012 440 86  -200 000/00 RMK AO2
14840KMKG MKG20050418052509404/18/05 05:25:31  5-MIN KMKG 181025Z 00000KT 10SM CLR 08/05 A3012 440 82  -200 000/00 RMK AO2
14840KMKG MKG20050418053009404/18/05 05:30:31  5-MIN KMKG 181030Z 00000KT 10SM CLR 08/06 A3013 440 86  -200 000/00 RMK AO2
14840KMKG MKG20050418053509404/18/05 05:35:31  5-MIN KMKG 181035Z 05003KT 10SM CLR 08/06 A3013 440 86  -200 060/03 RMK AO2
14840KMKG MKG20050418054009404/18/05 05:40:31  5-MIN KMKG 181040Z 00000KT 10SM CLR 08/06 A3013 440 86  -200 000/00 RMK AO2
14840KMKG MKG20050418054509704/18/05 05:45:31  5-MIN KMKG 181045Z 00000KT 10SM FEW060 08/06 A3013 440  86 -200 000/00 RMK AO2
14840KMKG MKG20050418055011404/18/05 05:50:31  5-MIN KMKG 181050Z 00000KT 10SM SCT060 08/06 A3013 440  86 -200 000/00 RMK AO2 SLP204 T00830061
14840KMKG MKG20050418055511404/18/05 05:55:31  5-MIN KMKG 181055Z 00000KT 10SM BKN060 09/06 A3013 440  83 -100 000/00 RMK AO2 SLP204 T00890061
14840KMKG MKG20050418060009504/18/05 06:00:31  5-MIN KMKG 181100Z 00000KT 9SM BKN065 08/06 A3013 430 86 -200 000/00 RMK AO2
14840KMKG MKG20050418060509504/18/05 06:05:31  5-MIN KMKG 181105Z 00000KT 9SM BKN065 09/07 A3014 430 86 -100 000/00 RMK AO2
14840KMKG MKG20050418061009504/18/05 06:10:31  5-MIN KMKG 181110Z 00000KT 8SM BKN065 09/06 A3014 430 83 -100 000/00 RMK AO2
14840KMKG MKG20050418061509504/18/05 06:15:31  5-MIN KMKG 181115Z 00000KT 8SM BKN065 09/06 A3014 430 83 -100 000/00 RMK AO2
14840KMKG MKG20050418062009504/18/05 06:20:31  5-MIN KMKG 181120Z 00000KT 8SM SCT065 09/06 A3014 430 83 -100 000/00 RMK AO2
14840KMKG MKG20050418062509504/18/05 06:25:31  5-MIN KMKG 181125Z 00000KT 8SM FEW070 09/06 A3014 430 79 -100 000/00 RMK AO2
14840KMKG MKG20050418063009504/18/05 06:30:31  5-MIN KMKG 181130Z 00000KT 8SM FEW065 08/06 A3013 430 82 -200 000/00 RMK AO2
14840KMKG MKG20050418063509504/18/05 06:35:31  5-MIN KMKG 181135Z 00000KT 8SM FEW065 08/06 A3013 430 82 -200 000/00 RMK AO2
14840KMKG MKG20050418064009504/18/05 06:40:31  5-MIN KMKG 181140Z 00000KT 8SM FEW065 08/06 A3013 430 82 -200 000/00 RMK AO2
14840KMKG MKG20050418064509304/18/05 06:45:31  5-MIN KMKG 181145Z 00000KT 8SM CLR 08/06 A3013 430 82  -200 000/00 RMK AO2
14840KMKG MKG20050418065013004/18/05 06:50:31  5-MIN KMKG 181150Z 00000KT 8SM FEW060 09/06 A3014 430 83 -100 000/00 RMK AO2 SLP206 T00890061 10117 20072 56010
14840KMKG MKG20050418065512704/18/05 06:55:31  5-MIN KMKG 181155Z 10005KT 8SM FEW060 09/07 A3013 440 83 0 100/05 RMK AO2 SLP203 T00940067 10117 20072 50007
14840KMKG MKG20050418070008904/18/05 07:00:31  5-MIN KMKG 181200Z 10005KT 8SM CLR 10/07 A3012 440 80 0 110/05 RMK AO2
14840KMKG MKG20050418070509204/18/05 07:05:31  5-MIN KMKG 181205Z 10005KT 8SM CLR 11/07 A3013 440 77  100 110/05 RMK AO2
14840KMKG MKG20050418071009204/18/05 07:10:31  5-MIN KMKG 181210Z 12004KT 9SM CLR 12/07 A3013 440 71  200 120/04 RMK AO2
14840KMKG MKG20050418071509204/18/05 07:15:31  5-MIN KMKG 181215Z 11003KT 9SM CLR 12/07 A3013 440 71  200 110/03 RMK AO2
14840KMKG MKG20050418072009204/18/05 07:20:31  5-MIN KMKG 181220Z 10003KT 9SM CLR 13/07 A3013 440 69  300 100/03 RMK AO2
14840KMKG MKG20050418072509204/18/05 07:25:31  5-MIN KMKG 181225Z 10005KT 9SM CLR 13/07 A3013 440 69  300 110/05 RMK AO2
14840KMKG MKG20050418073009204/18/05 07:30:31  5-MIN KMKG 181230Z 11005KT 9SM CLR 13/07 A3013 440 66  400 110/05 RMK AO2
14840KMKG MKG20050418073509204/18/05 07:35:31  5-MIN KMKG 181235Z 11006KT 9SM CLR 13/07 A3013 430 66  400 120/06 RMK AO2
14840KMKG MKG20050418074009404/18/05 07:40:31  5-MIN KMKG 181240Z 11005KT 9SM FEW120 13/07 A3013 440 66 400 120/05 RMK AO2
14840KMKG MKG20050418074509404/18/05 07:45:31  5-MIN KMKG 181245Z 10005KT 9SM SCT120 13/07 A3013 430 66 400 110/05 RMK AO2
14840KMKG MKG20050418075011804/18/05 07:50:31  5-MIN KMKG 181250Z 11005KT 9SM FEW060 BKN110 13/07 A3013 430 66 400 110/05 RMK AO2 SLP205 T01330072
14840KMKG MKG20050418075511804/18/05 07:55:31  5-MIN KMKG 181255Z 11005KT 9SM FEW060 BKN110 13/07 A3013 430 66 400 120/05 RMK AO2 SLP205 T01330072
14840KMKG MKG20050418080009404/18/05 08:00:31  5-MIN KMKG 181300Z 12006KT 9SM BKN110 14/07 A3013 430 64 400 120/06 RMK AO2
14840KMKG MKG20050418080509404/18/05 08:05:31  5-MIN KMKG 181305Z 11005KT 9SM BKN110 14/07 A3013 440 64 400 120/05 RMK AO2
14840KMKG MKG20050418081009404/18/05 08:10:31  5-MIN KMKG 181310Z 09004KT 9SM BKN110 14/07 A3013 430 64 400 090/04 RMK AO2
14840KMKG MKG20050418081509404/18/05 08:15:31  5-MIN KMKG 181315Z 10003KT 9SM BKN110 14/07 A3014 430 64 400 100/03 RMK AO2
14840KMKG MKG20050418082009404/18/05 08:20:31  5-MIN KMKG 181320Z 11003KT 9SM OVC100 14/07 A3013 430 64 400 110/03 RMK AO2
14840KMKG MKG20050418082509404/18/05 08:25:31  5-MIN KMKG 181325Z 11004KT 9SM OVC100 14/08 A3013 430 66 400 120/04 RMK AO2
14840KMKG MKG20050418083011204/18/05 08:30:31  5-MIN KMKG 181330Z 11004KT 10SM -RA OVC100 14/08 A3014  430 66 400 110/04 RMK AO2 RAB26 P0000
14840KMKG MKG20050418083511204/18/05 08:35:31  5-MIN KMKG 181335Z 13005KT 10SM -RA OVC110 14/08 A3013  430 66 400 130/05 RMK AO2 RAB26 P0000
14840KMKG MKG20050418084011104/18/05 08:40:31  5-MIN KMKG 181340Z 13006KT 9SM -RA OVC100 14/08 A3013  430 69 400 130/06 RMK AO2 RAB26 P0000
14840KMKG MKG20050418084511104/18/05 08:45:31  5-MIN KMKG 181345Z 12005KT 10SM OVC110 14/08 A3013 440  69 400 130/05 RMK AO2 RAB26E45 P0000
14840KMKG MKG20050418085012604/18/05 08:50:31  5-MIN KMKG 181350Z 12003KT 9SM BKN110 14/08 A3013 440 69 400 130/03 RMK AO2 RAB26E45 SLP204 P0000 T01390083
14840KMKG MKG20050418085513304/18/05 08:55:31  5-MIN KMKG 181355Z 11003KT 9SM FEW060 BKN110 14/08 A3013 430 69 400 120/03 RMK AO2 RAB26E45 SLP205 P0000 T01390083
14840KMKG MKG20050418090009404/18/05 09:00:31  5-MIN KMKG 181400Z 13004KT 9SM BKN110 14/08 A3013 430 69 400 130/04 RMK AO2
14840KMKG MKG20050418090509404/18/05 09:05:31  5-MIN KMKG 181405Z 13005KT 9SM BKN110 14/08 A3013 440 69 400 130/05 RMK AO2
14840KMKG MKG20050418091009404/18/05 09:10:31  5-MIN KMKG 181410Z 12006KT 9SM BKN110 14/08 A3013 440 69 400 130/06 RMK AO2
14840KMKG MKG20050418091509404/18/05 09:15:31  5-MIN KMKG 181415Z 14004KT 9SM BKN110 14/08 A3013 430 69 400 150/04 RMK AO2
14840KMKG MKG20050418092009404/18/05 09:20:31  5-MIN KMKG 181420Z 13004KT 9SM SCT110 14/08 A3013 440 66 500 130/04 RMK AO2
14840KMKG MKG20050418092509404/18/05 09:25:31  5-MIN KMKG 181425Z 12006KT 9SM SCT120 14/08 A3013 440 66 500 130/06 RMK AO2
14840KMKG MKG20050418093009404/18/05 09:30:31  5-MIN KMKG 181430Z 12006KT 9SM BKN120 14/08 A3013 440 66 500 130/06 RMK AO2
14840KMKG MKG20050418093509404/18/05 09:35:31  5-MIN KMKG 181435Z 12005KT 9SM BKN110 14/08 A3013 440 66 500 130/05 RMK AO2
14840KMKG MKG20050418094009404/18/05 09:40:31  5-MIN KMKG 181440Z 12004KT 9SM BKN110 14/08 A3013 440 66 500 130/04 RMK AO2
14840KMKG MKG20050418094510104/18/05 09:45:31  5-MIN KMKG 181445Z 11004KT 9SM FEW085 BKN110 14/08 A3013 430 66 500 120/04 RMK AO2
14840KMKG MKG20050418095013004/18/05 09:50:31  5-MIN KMKG 181450Z 11004KT 9SM FEW085 BKN110 14/08 A3013 440 66 500 120/04 RMK AO2 SLP204 60000 T01440083 50007
14840KMKG MKG20050418095513004/18/05 09:55:31  5-MIN KMKG 181455Z 10005KT 9SM FEW085 BKN110 14/08 A3013 440 66 500 100/05 RMK AO2 SLP204 60000 T01440083 50001
14840KMKG MKG20050418100010104/18/05 10:00:31  5-MIN KMKG 181500Z 10004KT 9SM FEW085 BKN100 14/08 A3013 440 66 500 100/04 RMK AO2
14840KMKG MKG20050418100510104/18/05 10:05:31  5-MIN KMKG 181505Z 12005KT 9SM FEW085 BKN100 15/08 A3013 440 64 600 120/05 RMK AO2
14840KMKG MKG20050418101010104/18/05 10:10:31  5-MIN KMKG 181510Z 10004KT 9SM FEW090 BKN100 15/08 A3013 440 64 600 110/04 RMK AO2
14840KMKG MKG20050418101509404/18/05 10:15:31  5-MIN KMKG 181515Z 12005KT 9SM BKN100 15/08 A3013 440 64 600 120/05 RMK AO2
14840KMKG MKG20050418102009404/18/05 10:20:31  5-MIN KMKG 181520Z 11005KT 8SM BKN100 15/08 A3013 440 64 600 120/05 RMK AO2
14840KMKG MKG20050418102509404/18/05 10:25:31  5-MIN KMKG 181525Z 12005KT 8SM SCT100 15/08 A3013 440 64 600 120/05 RMK AO2
14840KMKG MKG20050418103009404/18/05 10:30:31  5-MIN KMKG 181530Z 11004KT 8SM SCT090 16/09 A3013 440 64 600 110/04 RMK AO2
14840KMKG MKG20050418103509404/18/05 10:35:31  5-MIN KMKG 181535Z 08004KT 8SM SCT090 16/09 A3013 440 64 600 080/04 RMK AO2
14840KMKG MKG20050418104009404/18/05 10:40:31  5-MIN KMKG 181540Z 09004KT 8SM FEW090 16/09 A3013 440 64 600 100/04 RMK AO2
14840KMKG MKG20050418104509404/18/05 10:45:31  5-MIN KMKG 181545Z 10003KT 8SM FEW090 16/09 A3013 440 62 700 100/03 RMK AO2
14840KMKG MKG20050418105011104/18/05 10:50:31  5-MIN KMKG 181550Z 09004KT 8SM FEW085 16/09 A3013 440 62 700 090/04 RMK AO2 SLP202 T01610089
14840KMKG MKG20050418105511804/18/05 10:55:31  5-MIN KMKG 181555Z 08004KT 8SM FEW085 BKN110 16/09 A3012 440 62 700 090/04 RMK AO2 SLP202 T01610089
14840KMKG MKG20050418110009204/18/05 11:00:31  5-MIN KMKG 181600Z 09005KT 8SM CLR 17/09 A3012 440 60  800 100/05 RMK AO2
14840KMKG MKG20050418110509204/18/05 11:05:31  5-MIN KMKG 181605Z 11004KT 8SM CLR 17/09 A3013 440 60  800 120/04 RMK AO2
14840KMKG MKG20050418111009204/18/05 11:10:31  5-MIN KMKG 181610Z 09003KT 8SM CLR 17/09 A3013 440 60  800 090/03 RMK AO2
14840KMKG MKG20050418111509204/18/05 11:15:31  5-MIN KMKG 181615Z 10004KT 8SM CLR 17/09 A3012 440 57  800 100/04 RMK AO2
14840KMKG MKG20050418112009204/18/05 11:20:31  5-MIN KMKG 181620Z 11004KT 9SM CLR 18/09 A3012 440 58  900 120/04 RMK AO2
14840KMKG MKG20050418112509304/18/05 11:25:31  5-MIN KMKG 181625Z VRB04KT 9SM CLR 18/09 A3012 440 54  1000 VRB/04 RMK AO2
14840KMKG MKG20050418113009304/18/05 11:30:31  5-MIN KMKG 181630Z 08003KT 9SM CLR 19/09 A3012 450 52  1000 080/03 RMK AO2
14840KMKG MKG20050418113509304/18/05 11:35:31  5-MIN KMKG 181635Z 10004KT 9SM CLR 19/09 A3012 450 50  1100 110/04 RMK AO2
14840KMKG MKG20050418114009404/18/05 11:40:31  5-MIN KMKG 181640Z VRB05KT 10SM CLR 19/09 A3012 450 52  1100 VRB/05 RMK AO2
14840KMKG MKG20050418114509404/18/05 11:45:31  5-MIN KMKG 181645Z 12004KT 10SM CLR 20/09 A3012 450 50  1200 120/04 RMK AO2
14840KMKG MKG20050418115011404/18/05 11:50:31  5-MIN KMKG 181650Z VRB03KT 10SM FEW110 20/09 A3012 450  50 1200 VRB/03 RMK AO2 SLP198 T02000094
14840KMKG MKG20050418115511404/18/05 11:55:31  5-MIN KMKG 181655Z 11004KT 10SM FEW110 21/09 A3011 450  47 1300 110/04 RMK AO2 SLP198 T02110094
14840KMKG MKG20050418120009404/18/05 12:00:31  5-MIN KMKG 181700Z VRB03KT 10SM CLR 21/09 A3011 450 45  1300 VRB/03 RMK AO2
14840KMKG MKG20050418120509404/18/05 12:05:31  5-MIN KMKG 181705Z 00000KT 10SM CLR 22/09 A3011 450 43  1400 000/00 RMK AO2
14840KMKG MKG20050418121009404/18/05 12:10:31  5-MIN KMKG 181710Z VRB03KT 10SM CLR 22/09 A3011 460 45  1400 VRB/03 RMK AO2
14840KMKG MKG20050418121509404/18/05 12:15:31  5-MIN KMKG 181715Z 22006KT 10SM CLR 22/09 A3011 460 43  1400 230/06 RMK AO2
14840KMKG MKG20050418122009404/18/05 12:20:31  5-MIN KMKG 181720Z 22007KT 10SM CLR 23/09 A3011 460 42  1500 220/07 RMK AO2
14840KMKG MKG20050418122509404/18/05 12:25:31  5-MIN KMKG 181725Z 20006KT 10SM CLR 23/09 A3011 460 42  1500 210/06 RMK AO2
14840KMKG MKG20050418123009404/18/05 12:30:31  5-MIN KMKG 181730Z 19009KT 10SM CLR 23/09 A3011 460 40  1500 200/09 RMK AO2
14840KMKG MKG20050418123510904/18/05 12:35:31  5-MIN KMKG 181735Z 19008KT 150V210 10SM CLR 23/08 A3011 460 39 1500 190/08 150V210 RMK AO2
14840KMKG MKG20050418124009404/18/05 12:40:31  5-MIN KMKG 181740Z 19009KT 10SM CLR 23/08 A3011 460 39  1500 190/09 RMK AO2
14840KMKG MKG20050418124509404/18/05 12:45:31  5-MIN KMKG 181745Z 20006KT 10SM CLR 23/08 A3010 460 39  1500 200/06 RMK AO2
14840KMKG MKG20050418125013504/18/05 12:50:31  5-MIN KMKG 181750Z 22011KT 10SM CLR 23/08 A3010 460 38  1600 220/11 RMK AO2 SLP192 60000 T02330083 10233 20094 50001
14840KMKG MKG20050418125513504/18/05 12:55:31  5-MIN KMKG 181755Z 22009KT 10SM CLR 23/08 A3010 470 38  1600 220/09 RMK AO2 SLP191 60000 T02330083 10233 20094 58011
14840KMKG MKG20050418130010904/18/05 13:00:31  5-MIN KMKG 181800Z 19008KT 150V220 10SM CLR 23/08 A3010 470 39 1500 200/08 150V220 RMK AO2
14840KMKG MKG20050418130509404/18/05 13:05:31  5-MIN KMKG 181805Z 20008KT 10SM CLR 23/08 A3010 470 38  1600 210/08 RMK AO2
14840KMKG MKG20050418131009404/18/05 13:10:31  5-MIN KMKG 181810Z 21008KT 10SM CLR 23/08 A3009 470 38  1600 210/08 RMK AO2
14840KMKG MKG20050418131509404/18/05 13:15:31  5-MIN KMKG 181815Z 22008KT 10SM CLR 23/08 A3009 470 39  1500 220/08 RMK AO2
14840KMKG MKG20050418132009404/18/05 13:20:31  5-MIN KMKG 181820Z 22010KT 10SM CLR 24/09 A3009 470 38  1700 220/10 RMK AO2
14840KMKG MKG20050418132509404/18/05 13:25:31  5-MIN KMKG 181825Z 21010KT 10SM CLR 23/08 A3009 470 38  1600 220/10 RMK AO2
14840KMKG MKG20050418133009404/18/05 13:30:31  5-MIN KMKG 181830Z 22010KT 10SM CLR 23/08 A3009 480 38  1600 220/10 RMK AO2
14840KMKG MKG20050418133509404/18/05 13:35:31  5-MIN KMKG 181835Z 22011KT 10SM CLR 23/08 A3009 480 38  1600 220/11 RMK AO2
14840KMKG MKG20050418134009404/18/05 13:40:31  5-MIN KMKG 181840Z 21010KT 10SM CLR 23/08 A3008 480 38  1600 210/10 RMK AO2
14840KMKG MKG20050418134509404/18/05 13:45:31  5-MIN KMKG 181845Z 21010KT 10SM CLR 23/08 A3008 480 39  1500 210/10 RMK AO2
14840KMKG MKG20050418135011104/18/05 13:50:31  5-MIN KMKG 181850Z 21010KT 10SM CLR 23/08 A3008 480 36  1600 210/10 RMK AO2 SLP187 T02330078
14840KMKG MKG20050418135511104/18/05 13:55:31  5-MIN KMKG 181855Z 21009KT 10SM CLR 23/08 A3008 480 38  1600 210/09 RMK AO2 SLP186 T02330083
14840KMKG MKG20050418140009404/18/05 14:00:31  5-MIN KMKG 181900Z 19008KT 10SM CLR 23/08 A3008 480 38  1600 190/08 RMK AO2
14840KMKG MKG20050418140509404/18/05 14:05:31  5-MIN KMKG 181905Z 22009KT 10SM CLR 23/08 A3008 480 38  1600 230/09 RMK AO2
14840KMKG MKG20050418141010904/18/05 14:10:31  5-MIN KMKG 181910Z 20009KT 160V230 10SM CLR 24/08 A3008 490 36 1700 210/09 160V230 RMK AO2
14840KMKG MKG20050418141509404/18/05 14:15:31  5-MIN KMKG 181915Z 20008KT 10SM CLR 24/08 A3007 490 35  1700 200/08 RMK AO2
14840KMKG MKG20050418142009404/18/05 14:20:31  5-MIN KMKG 181920Z 23009KT 10SM CLR 24/08 A3007 490 36  1700 230/09 RMK AO2
14840KMKG MKG20050418142509404/18/05 14:25:31  5-MIN KMKG 181925Z 23009KT 10SM CLR 24/08 A3007 490 35  1700 230/09 RMK AO2
14840KMKG MKG20050418143009404/18/05 14:30:31  5-MIN KMKG 181930Z 22008KT 10SM CLR 24/08 A3007 490 35  1700 230/08 RMK AO2
14840KMKG MKG20050418143509404/18/05 14:35:31  5-MIN KMKG 181935Z 22010KT 10SM CLR 24/08 A3007 490 35  1700 220/10 RMK AO2
14840KMKG MKG20050418144009404/18/05 14:40:31  5-MIN KMKG 181940Z 22009KT 10SM CLR 24/08 A3007 500 35  1700 220/09 RMK AO2
14840KMKG MKG20050418144509404/18/05 14:45:31  5-MIN KMKG 181945Z 22009KT 10SM CLR 24/08 A3006 500 35  1700 230/09 RMK AO2
14840KMKG MKG20050418145011104/18/05 14:50:31  5-MIN KMKG 181950Z 21010KT 10SM CLR 23/07 A3006 500 35  1600 210/10 RMK AO2 SLP180 T02330072
14840KMKG MKG20050418145511104/18/05 14:55:31  5-MIN KMKG 181955Z 21009KT 10SM CLR 23/07 A3006 500 35  1600 210/09 RMK AO2 SLP179 T02330072
14840KMKG MKG20050418150009404/18/05 15:00:31  5-MIN KMKG 182000Z 20008KT 10SM CLR 23/07 A3006 500 36  1600 210/08 RMK AO2
14840KMKG MKG20050418150509404/18/05 15:05:31  5-MIN KMKG 182005Z 22009KT 10SM CLR 23/07 A3006 500 35  1600 230/09 RMK AO2
14840KMKG MKG20050418151009404/18/05 15:10:31  5-MIN KMKG 182010Z 22009KT 10SM CLR 23/08 A3005 510 36  1600 220/09 RMK AO2
14840KMKG MKG20050418151509404/18/05 15:15:31  5-MIN KMKG 182015Z 19009KT 10SM CLR 23/07 A3005 510 35  1600 190/09 RMK AO2
14840KMKG MKG20050418152009404/18/05 15:20:31  5-MIN KMKG 182020Z 20008KT 10SM CLR 23/07 A3005 510 35  1600 210/08 RMK AO2
14840KMKG MKG20050418152509404/18/05 15:25:31  5-MIN KMKG 182025Z 22009KT 10SM CLR 23/07 A3005 510 35  1600 220/09 RMK AO2
14840KMKG MKG20050418153009404/18/05 15:30:31  5-MIN KMKG 182030Z 23009KT 10SM CLR 24/07 A3005 520 34  1700 230/09 RMK AO2
14840KMKG MKG20050418153509404/18/05 15:35:31  5-MIN KMKG 182035Z 22010KT 10SM CLR 23/07 A3004 520 33  1600 230/10 RMK AO2
14840KMKG MKG20050418154009404/18/05 15:40:31  5-MIN KMKG 182040Z 22009KT 10SM CLR 23/07 A3004 520 33  1600 230/09 RMK AO2
14840KMKG MKG20050418154509404/18/05 15:45:31  5-MIN KMKG 182045Z 23009KT 10SM CLR 24/07 A3004 520 32  1700 230/09 RMK AO2
14840KMKG MKG20050418155011704/18/05 15:50:31  5-MIN KMKG 182050Z 21008KT 10SM CLR 23/07 A3004 520 33  1600 220/08 RMK AO2 SLP172 T02330067 58011
14840KMKG MKG20050418155511704/18/05 15:55:31  5-MIN KMKG 182055Z 22008KT 10SM CLR 23/06 A3004 520 32  1600 220/08 RMK AO2 SLP172 T02330061 58019
14840KMKG MKG20050418160009404/18/05 16:00:31  5-MIN KMKG 182100Z 22009KT 10SM CLR 23/07 A3004 520 33  1700 220/09 RMK AO2
14840KMKG MKG20050418160509404/18/05 16:05:31  5-MIN KMKG 182105Z 22008KT 10SM CLR 24/07 A3003 520 32  1700 230/08 RMK AO2
14840KMKG MKG20050418161009404/18/05 16:10:31  5-MIN KMKG 182110Z 23007KT 10SM CLR 24/07 A3003 530 32  1700 240/07 RMK AO2
14840KMKG MKG20050418161509404/18/05 16:15:31  5-MIN KMKG 182115Z 21008KT 10SM CLR 23/07 A3003 530 33  1700 220/08 RMK AO2
14840KMKG MKG20050418162009404/18/05 16:20:31  5-MIN KMKG 182120Z 24008KT 10SM CLR 24/07 A3003 530 32  1700 240/08 RMK AO2
14840KMKG MKG20050418162509404/18/05 16:25:31  5-MIN KMKG 182125Z 23009KT 10SM CLR 24/06 A3003 530 31  1700 240/09 RMK AO2
14840KMKG MKG20050418163009404/18/05 16:30:31  5-MIN KMKG 182130Z 22009KT 10SM CLR 23/06 A3003 530 32  1700 220/09 RMK AO2
14840KMKG MKG20050418163509404/18/05 16:35:31  5-MIN KMKG 182135Z 21008KT 10SM CLR 23/06 A3003 530 32  1700 210/08 RMK AO2
14840KMKG MKG20050418164009404/18/05 16:40:31  5-MIN KMKG 182140Z 21007KT 10SM CLR 23/06 A3003 530 32  1700 210/07 RMK AO2
14840KMKG MKG20050418164509404/18/05 16:45:31  5-MIN KMKG 182145Z 22009KT 10SM CLR 23/06 A3003 530 33  1600 220/09 RMK AO2
14840KMKG MKG20050418165011104/18/05 16:50:31  5-MIN KMKG 182150Z 22008KT 10SM CLR 23/06 A3003 530 33  1600 220/08 RMK AO2 SLP168 T02280061
14840KMKG MKG20050418165511104/18/05 16:55:31  5-MIN KMKG 182155Z 22008KT 10SM CLR 23/06 A3003 530 33  1600 220/08 RMK AO2 SLP168 T02280061
14840KMKG MKG20050418170009404/18/05 17:00:31  5-MIN KMKG 182200Z 21009KT 10SM CLR 23/06 A3002 530 33  1600 220/09 RMK AO2
14840KMKG MKG20050418170509404/18/05 17:05:31  5-MIN KMKG 182205Z 21008KT 10SM CLR 22/06 A3002 540 35  1500 210/08 RMK AO2
14840KMKG MKG20050418171009404/18/05 17:10:31  5-MIN KMKG 182210Z 20009KT 10SM CLR 22/06 A3002 540 35  1500 200/09 RMK AO2
14840KMKG MKG20050418171509404/18/05 17:15:31  5-MIN KMKG 182215Z 21009KT 10SM CLR 22/06 A3002 540 36  1500 210/09 RMK AO2
14840KMKG MKG20050418172009404/18/05 17:20:31  5-MIN KMKG 182220Z 21007KT 10SM CLR 22/06 A3002 540 35  1500 210/07 RMK AO2
14840KMKG MKG20050418172509404/18/05 17:25:31  5-MIN KMKG 182225Z 20007KT 10SM CLR 22/06 A3002 540 35  1500 200/07 RMK AO2
14840KMKG MKG20050418173009404/18/05 17:30:31  5-MIN KMKG 182230Z 21006KT 10SM CLR 22/06 A3001 540 35  1500 220/06 RMK AO2
14840KMKG MKG20050418173509404/18/05 17:35:31  5-MIN KMKG 182235Z 21007KT 10SM CLR 22/06 A3002 540 35  1500 220/07 RMK AO2
14840KMKG MKG20050418174009404/18/05 17:40:31  5-MIN KMKG 182240Z 22007KT 10SM CLR 22/06 A3001 540 35  1600 220/07 RMK AO2
14840KMKG MKG20050418174509404/18/05 17:45:31  5-MIN KMKG 182245Z 20006KT 10SM CLR 22/06 A3001 550 35  1600 210/06 RMK AO2
14840KMKG MKG20050418175011104/18/05 17:50:31  5-MIN KMKG 182250Z 18006KT 10SM CLR 22/07 A3001 550 36  1600 190/06 RMK AO2 SLP162 T02220067
14840KMKG MKG20050418175511104/18/05 17:55:31  5-MIN KMKG 182255Z 19006KT 10SM CLR 23/07 A3001 550 35  1600 200/06 RMK AO2 SLP162 T02280067
14840KMKG MKG20050418180009404/18/05 18:00:31  5-MIN KMKG 182300Z 20006KT 10SM CLR 22/07 A3001 550 36  1600 210/06 RMK AO2
14840KMKG MKG20050418180509404/18/05 18:05:31  5-MIN KMKG 182305Z 21005KT 10SM CLR 22/07 A3001 550 36  1600 220/05 RMK AO2
14840KMKG MKG20050418181009404/18/05 18:10:31  5-MIN KMKG 182310Z 19004KT 10SM CLR 22/07 A3001 550 36  1600 200/04 RMK AO2
14840KMKG MKG20050418181509404/18/05 18:15:31  5-MIN KMKG 182315Z 18005KT 10SM CLR 22/07 A3001 550 36  1600 180/05 RMK AO2
14840KMKG MKG20050418182009404/18/05 18:20:31  5-MIN KMKG 182320Z 19005KT 10SM CLR 22/07 A3001 550 36  1600 190/05 RMK AO2
14840KMKG MKG20050418182509404/18/05 18:25:31  5-MIN KMKG 182325Z 17006KT 10SM CLR 22/07 A3000 550 36  1600 170/06 RMK AO2
14840KMKG MKG20050418183009404/18/05 18:30:31  5-MIN KMKG 182330Z 17006KT 10SM CLR 22/07 A3000 560 36  1600 180/06 RMK AO2
14840KMKG MKG20050418183509404/18/05 18:35:31  5-MIN KMKG 182335Z 17006KT 10SM CLR 22/07 A3000 560 37  1500 180/06 RMK AO2
14840KMKG MKG20050418184009404/18/05 18:40:31  5-MIN KMKG 182340Z 17004KT 10SM CLR 22/07 A3000 560 37  1500 170/04 RMK AO2
14840KMKG MKG20050418184509404/18/05 18:45:31  5-MIN KMKG 182345Z 16006KT 10SM CLR 22/07 A3000 560 37  1500 170/06 RMK AO2
14840KMKG MKG20050418185012904/18/05 18:50:31  5-MIN KMKG 182350Z 16006KT 10SM CLR 22/07 A3000 560 37  1500 160/06 RMK AO2 SLP158 T02170067 10244 20217 58019
14840KMKG MKG20050418185512904/18/05 18:55:31  5-MIN KMKG 182355Z 16005KT 10SM CLR 22/07 A3000 560 37  1500 170/05 RMK AO2 SLP157 T02170067 10244 20217 57014
14840KMKG MKG20050418190009404/18/05 19:00:31  5-MIN KMKG 190000Z 17005KT 10SM CLR 21/07 A3000 560 38  1400 180/05 RMK AO2
14840KMKG MKG20050418190509404/18/05 19:05:31  5-MIN KMKG 190005Z 17005KT 10SM CLR 21/07 A3000 560 38  1400 180/05 RMK AO2
14840KMKG MKG20050418191009404/18/05 19:10:31  5-MIN KMKG 190010Z 17004KT 10SM CLR 21/07 A3000 560 38  1400 170/04 RMK AO2
14840KMKG MKG20050418191509404/18/05 19:15:31  5-MIN KMKG 190015Z 16003KT 10SM CLR 21/07 A3000 560 38  1400 160/03 RMK AO2
14840KMKG MKG20050418192009404/18/05 19:20:31  5-MIN KMKG 190020Z 14003KT 10SM CLR 21/07 A3000 560 38  1400 150/03 RMK AO2
14840KMKG MKG20050418192509404/18/05 19:25:31  5-MIN KMKG 190025Z 13003KT 10SM CLR 21/07 A3000 560 40  1400 130/03 RMK AO2
14840KMKG MKG20050418193009404/18/05 19:30:31  5-MIN KMKG 190030Z 13003KT 10SM CLR 21/07 A2999 560 40  1400 130/03 RMK AO2
14840KMKG MKG20050418193509404/18/05 19:35:31  5-MIN KMKG 190035Z 00000KT 10SM CLR 20/07 A2999 560 41  1300 000/00 RMK AO2
14840KMKG MKG20050418194009404/18/05 19:40:31  5-MIN KMKG 190040Z 12003KT 10SM CLR 20/07 A2999 560 43  1300 120/03 RMK AO2
14840KMKG MKG20050418194509404/18/05 19:45:31  5-MIN KMKG 190045Z 11003KT 10SM CLR 18/07 A3000 560 48  1100 120/03 RMK AO2
14840KMKG MKG20050418195011104/18/05 19:50:31  5-MIN KMKG 190050Z 00000KT 10SM CLR 18/07 A3000 560 48  1100 000/00 RMK AO2 SLP157 T01830072
14840KMKG MKG20050418195511104/18/05 19:55:31  5-MIN KMKG 190055Z 00000KT 10SM CLR 18/07 A3000 560 49  1100 000/00 RMK AO2 SLP157 T01780072
14840KMKG MKG20050418200009404/18/05 20:00:31  5-MIN KMKG 190100Z 00000KT 10SM CLR 18/07 A3000 560 49  1100 000/00 RMK AO2
14840KMKG MKG20050418200509404/18/05 20:05:31  5-MIN KMKG 190105Z 00000KT 10SM CLR 18/07 A3000 560 49  1100 000/00 RMK AO2
14840KMKG MKG20050418201009404/18/05 20:10:31  5-MIN KMKG 190110Z 00000KT 10SM CLR 18/07 A3000 560 49  1100 000/00 RMK AO2
14840KMKG MKG20050418201509404/18/05 20:15:31  5-MIN KMKG 190115Z 00000KT 10SM CLR 18/07 A3000 560 48  1100 000/00 RMK AO2
14840KMKG MKG20050418202009404/18/05 20:20:31  5-MIN KMKG 190120Z 11003KT 10SM CLR 17/07 A3000 560 51  1000 120/03 RMK AO2
14840KMKG MKG20050418202509404/18/05 20:25:31  5-MIN KMKG 190125Z 00000KT 10SM CLR 17/07 A3000 560 51  1000 000/00 RMK AO2
14840KMKG MKG20050418203009404/18/05 20:30:31  5-MIN KMKG 190130Z 00000KT 10SM CLR 17/07 A3000 560 51  1000 000/00 RMK AO2
14840KMKG MKG20050418203509304/18/05 20:35:31  5-MIN KMKG 190135Z 00000KT 10SM CLR 16/07 A3000 560 55  900 000/00 RMK AO2
14840KMKG MKG20050418204009304/18/05 20:40:31  5-MIN KMKG 190140Z 00000KT 10SM CLR 16/07 A3000 560 55  900 000/00 RMK AO2
14840KMKG MKG20050418204509304/18/05 20:45:31  5-MIN KMKG 190145Z 12003KT 10SM CLR 17/07 A3000 560 53  900 130/03 RMK AO2
14840KMKG MKG20050418205011004/18/05 20:50:31  5-MIN KMKG 190150Z 12004KT 10SM CLR 16/07 A3000 550 57  800 130/04 RMK AO2 SLP159 T01560072
14840KMKG MKG20050418205511004/18/05 20:55:31  5-MIN KMKG 190155Z 12003KT 10SM CLR 16/07 A3000 550 57  800 120/03 RMK AO2 SLP159 T01560072
14840KMKG MKG20050418210009304/18/05 21:00:31  5-MIN KMKG 190200Z 13004KT 10SM CLR 16/07 A3000 550 55  900 130/04 RMK AO2
14840KMKG MKG20050418210509304/18/05 21:05:31  5-MIN KMKG 190205Z 13004KT 10SM CLR 15/07 A3000 560 59  700 130/04 RMK AO2
14840KMKG MKG20050418211009304/18/05 21:10:31  5-MIN KMKG 190210Z 13004KT 10SM CLR 14/07 A3000 560 61  700 130/04 RMK AO2
14840KMKG MKG20050418211509304/18/05 21:15:31  5-MIN KMKG 190215Z 13005KT 10SM CLR 15/07 A3000 560 59  700 130/05 RMK AO2
14840KMKG MKG20050418212009304/18/05 21:20:31  5-MIN KMKG 190220Z 13005KT 10SM CLR 14/07 A3000 560 61  700 130/05 RMK AO2
14840KMKG MKG20050418212509304/18/05 21:25:31  5-MIN KMKG 190225Z 13005KT 10SM CLR 14/07 A3000 560 61  700 130/05 RMK AO2
14840KMKG MKG20050418213009304/18/05 21:30:31  5-MIN KMKG 190230Z 13005KT 10SM CLR 14/07 A3000 560 61  700 130/05 RMK AO2
14840KMKG MKG20050418213509304/18/05 21:35:31  5-MIN KMKG 190235Z 13005KT 10SM CLR 15/07 A3000 560 59  700 130/05 RMK AO2
14840KMKG MKG20050418214009304/18/05 21:40:31  5-MIN KMKG 190240Z 13005KT 10SM CLR 15/07 A3000 560 59  700 130/05 RMK AO2
14840KMKG MKG20050418214509304/18/05 21:45:31  5-MIN KMKG 190245Z 12004KT 10SM CLR 14/07 A3000 560 61  700 130/04 RMK AO2
14840KMKG MKG20050418215011604/18/05 21:50:31  5-MIN KMKG 190250Z 13004KT 10SM CLR 15/07 A3000 560 59  700 140/04 RMK AO2 SLP158 T01500072 57014
14840KMKG MKG20050418215511604/18/05 21:55:31  5-MIN KMKG 190255Z 13004KT 10SM CLR 15/07 A3000 560 59  700 130/04 RMK AO2 SLP157 T01500072 58000
14840KMKG MKG20050418220009304/18/05 22:00:31  5-MIN KMKG 190300Z 13004KT 10SM CLR 15/07 A3000 560 59  700 130/04 RMK AO2
14840KMKG MKG20050418220509304/18/05 22:05:31  5-MIN KMKG 190305Z 13004KT 10SM CLR 14/07 A2999 560 61  700 130/04 RMK AO2
14840KMKG MKG20050418221009304/18/05 22:10:31  5-MIN KMKG 190310Z 13003KT 10SM CLR 14/07 A2999 560 61  700 140/03 RMK AO2
14840KMKG MKG20050418221509304/18/05 22:15:31  5-MIN KMKG 190315Z 13003KT 10SM CLR 14/07 A2999 560 61  700 130/03 RMK AO2
14840KMKG MKG20050418222009304/18/05 22:20:31  5-MIN KMKG 190320Z 13003KT 10SM CLR 14/07 A2999 560 61  700 130/03 RMK AO2
14840KMKG MKG20050418222509304/18/05 22:25:31  5-MIN KMKG 190325Z 13003KT 10SM CLR 15/07 A2999 560 59  700 130/03 RMK AO2
14840KMKG MKG20050418223009304/18/05 22:30:31  5-MIN KMKG 190330Z 15003KT 10SM CLR 14/07 A2999 560 61  700 160/03 RMK AO2
14840KMKG MKG20050418223509304/18/05 22:35:31  5-MIN KMKG 190335Z 00000KT 10SM CLR 14/07 A2999 570 61  700 000/00 RMK AO2
14840KMKG MKG20050418224009304/18/05 22:40:31  5-MIN KMKG 190340Z 00000KT 10SM CLR 14/07 A2999 570 64  600 000/00 RMK AO2
14840KMKG MKG20050418224509304/18/05 22:45:31  5-MIN KMKG 190345Z 00000KT 10SM CLR 14/07 A2999 570 64  600 000/00 RMK AO2
14840KMKG MKG20050418225011004/18/05 22:50:31  5-MIN KMKG 190350Z 16003KT 10SM CLR 14/07 A2999 570 64  600 160/03 RMK AO2 SLP154 T01390072
14840KMKG MKG20050418225511004/18/05 22:55:31  5-MIN KMKG 190355Z 15003KT 10SM CLR 14/07 A2999 570 64  600 160/03 RMK AO2 SLP154 T01390072
14840KMKG MKG20050418230009304/18/05 23:00:31  5-MIN KMKG 190400Z 15004KT 10SM CLR 13/07 A2999 570 66  500 160/04 RMK AO2
14840KMKG MKG20050418230509304/18/05 23:05:31  5-MIN KMKG 190405Z 15004KT 10SM CLR 13/07 A2998 570 69  500 160/04 RMK AO2
14840KMKG MKG20050418231009304/18/05 23:10:31  5-MIN KMKG 190410Z 15004KT 10SM CLR 13/07 A2998 570 69  500 160/04 RMK AO2
14840KMKG MKG20050418231509304/18/05 23:15:31  5-MIN KMKG 190415Z 15004KT 10SM CLR 13/07 A2998 570 69  500 160/04 RMK AO2
14840KMKG MKG20050418232009304/18/05 23:20:31  5-MIN KMKG 190420Z 15004KT 10SM CLR 13/07 A2998 570 69  500 160/04 RMK AO2
14840KMKG MKG20050418232509304/18/05 23:25:31  5-MIN KMKG 190425Z 16004KT 10SM CLR 13/07 A2998 570 66  600 170/04 RMK AO2
14840KMKG MKG20050418233009304/18/05 23:30:31  5-MIN KMKG 190430Z 16004KT 10SM CLR 14/07 A2998 580 61  600 160/04 RMK AO2
14840KMKG MKG20050418233509304/18/05 23:35:31  5-MIN KMKG 190435Z 16005KT 10SM CLR 14/07 A2998 580 61  600 170/05 RMK AO2
14840KMKG MKG20050418234009304/18/05 23:40:31  5-MIN KMKG 190440Z 16004KT 10SM CLR 14/07 A2998 580 61  600 160/04 RMK AO2
14840KMKG MKG20050418234509304/18/05 23:45:31  5-MIN KMKG 190445Z 16004KT 10SM CLR 13/07 A2998 580 64  600 160/04 RMK AO2
14840KMKG MKG20050418235012004/18/05 23:50:31  5-MIN KMKG 190450Z 16005KT 10SM CLR 14/07 A2998 580 61  600 160/05 RMK AO2 SLP149 T01390067 402440072
14840KMKG MKG20050418235512004/18/05 23:55:31  5-MIN KMKG 190455Z 16005KT 10SM CLR 13/07 A2997 580 64  600 170/05 RMK AO2 SLP149 T01330067 402440072
14840KMKG MKG20050419000009304/19/05 00:00:32  5-MIN KMKG 190500Z 16006KT 10SM CLR 13/07 A2997 580 64  600 160/06 RMK AO2
14840KMKG MKG20050419000509304/19/05 00:05:31  5-MIN KMKG 190505Z 16006KT 10SM CLR 14/07 A2997 580 61  600 160/06 RMK AO2
14840KMKG MKG20050419001009304/19/05 00:10:31  5-MIN KMKG 190510Z 15006KT 10SM CLR 14/07 A2997 580 61  600 160/06 RMK AO2
14840KMKG MKG20050419001509304/19/05 00:15:31  5-MIN KMKG 190515Z 16006KT 10SM CLR 14/07 A2997 590 61  600 160/06 RMK AO2
14840KMKG MKG20050419002009304/19/05 00:20:31  5-MIN KMKG 190520Z 15006KT 10SM CLR 14/07 A2997 590 59  700 160/06 RMK AO2
14840KMKG MKG20050419002509304/19/05 00:25:31  5-MIN KMKG 190525Z 15006KT 10SM CLR 15/07 A2997 590 57  800 160/06 RMK AO2
14840KMKG MKG20050419003009304/19/05 00:30:31  5-MIN KMKG 190530Z 15006KT 10SM CLR 15/07 A2997 590 57  800 160/06 RMK AO2
14840KMKG MKG20050419003509304/19/05 00:35:31  5-MIN KMKG 190535Z 15006KT 10SM CLR 14/07 A2997 590 59  700 160/06 RMK AO2
14840KMKG MKG20050419004009304/19/05 00:40:31  5-MIN KMKG 190540Z 15005KT 10SM CLR 14/07 A2997 590 61  600 160/05 RMK AO2
14840KMKG MKG20050419004509304/19/05 00:45:31  5-MIN KMKG 190545Z 15006KT 10SM CLR 13/07 A2997 590 64  600 160/06 RMK AO2
14840KMKG MKG20050419005012804/19/05 00:50:31  5-MIN KMKG 190550Z 16006KT 10SM CLR 14/07 A2996 590 59  700 160/06 RMK AO2 SLP146 T01440067 10217 20128 58000
14840KMKG MKG20050419005512804/19/05 00:55:31  5-MIN KMKG 190555Z 15006KT 10SM CLR 15/07 A2996 590 57  800 160/06 RMK AO2 SLP144 T01500067 10217 20128 57011
14840KMKG MKG20050419010009304/19/05 01:00:31  5-MIN KMKG 190600Z 15007KT 10SM CLR 16/07 A2996 590 55  800 160/07 RMK AO2
14840KMKG MKG20050419010509404/19/05 01:05:31  5-MIN KMKG 190605Z 16008KT 10SM CLR 17/07 A2996 590 51  1000 160/08 RMK AO2
14840KMKG MKG20050419011009404/19/05 01:10:31  5-MIN KMKG 190610Z 15008KT 10SM CLR 17/07 A2996 590 49  1000 160/08 RMK AO2
14840KMKG MKG20050419011509404/19/05 01:15:31  5-MIN KMKG 190615Z 15007KT 10SM CLR 17/07 A2996 590 49  1000 150/07 RMK AO2
14840KMKG MKG20050419012009304/19/05 01:20:31  5-MIN KMKG 190620Z 16007KT 10SM CLR 16/07 A2996 590 53  900 160/07 RMK AO2
14840KMKG MKG20050419012509404/19/05 01:25:31  5-MIN KMKG 190625Z 15007KT 10SM CLR 17/07 A2996 590 49  1000 160/07 RMK AO2
14840KMKG MKG20050419013009404/19/05 01:30:31  5-MIN KMKG 190630Z 15007KT 10SM CLR 17/07 A2996 590 49  1000 160/07 RMK AO2
14840KMKG MKG20050419013509404/19/05 01:35:31  5-MIN KMKG 190635Z 15007KT 10SM CLR 17/07 A2996 590 51  1000 160/07 RMK AO2
14840KMKG MKG20050419014009404/19/05 01:40:31  5-MIN KMKG 190640Z 16007KT 10SM CLR 17/07 A2996 590 49  1000 160/07 RMK AO2
14840KMKG MKG20050419014509404/19/05 01:45:31  5-MIN KMKG 190645Z 16007KT 10SM CLR 17/07 A2996 590 49  1000 160/07 RMK AO2
14840KMKG MKG20050419015011104/19/05 01:50:31  5-MIN KMKG 190650Z 17006KT 10SM CLR 17/07 A2996 600 49  1000 170/06 RMK AO2 SLP142 T01720067
14840KMKG MKG20050419015511104/19/05 01:55:31  5-MIN KMKG 190655Z 18006KT 10SM CLR 17/07 A2996 590 51  1000 180/06 RMK AO2 SLP143 T01670067
14840KMKG MKG20050419020009304/19/05 02:00:31  5-MIN KMKG 190700Z 17005KT 10SM CLR 16/07 A2996 590 53  900 170/05 RMK AO2
14840KMKG MKG20050419020509304/19/05 02:05:31  5-MIN KMKG 190705Z 18005KT 10SM CLR 16/07 A2996 590 53  900 180/05 RMK AO2
14840KMKG MKG20050419021009304/19/05 02:10:31  5-MIN KMKG 190710Z 18005KT 10SM CLR 16/07 A2996 590 53  900 180/05 RMK AO2
14840KMKG MKG20050419021509304/19/05 02:15:31  5-MIN KMKG 190715Z 18005KT 10SM CLR 16/07 A2996 600 55  800 180/05 RMK AO2
14840KMKG MKG20050419022009604/19/05 02:20:31  5-MIN KMKG 190720Z 18005KT 10SM FEW095 16/07 A2996 600  53 900 190/05 RMK AO2
14840KMKG MKG20050419022509704/19/05 02:25:31  5-MIN KMKG 190725Z 19007KT 10SM SCT095 17/07 A2996 600  51 1000 190/07 RMK AO2
14840KMKG MKG20050419023009704/19/05 02:30:31  5-MIN KMKG 190730Z 19008KT 10SM BKN095 17/07 A2996 600  49 1000 190/08 RMK AO2
14840KMKG MKG20050419023509704/19/05 02:35:31  5-MIN KMKG 190735Z 20010KT 10SM BKN095 18/07 A2996 600  48 1100 200/10 RMK AO2
14840KMKG MKG20050419024009704/19/05 02:40:31  5-MIN KMKG 190740Z 20009KT 10SM SCT095 18/07 A2996 600  48 1100 210/09 RMK AO2
14840KMKG MKG20050419024509704/19/05 02:45:31  5-MIN KMKG 190745Z 20009KT 10SM BKN095 18/07 A2996 600  48 1100 210/09 RMK AO2
14840KMKG MKG20050419025011404/19/05 02:50:31  5-MIN KMKG 190750Z 20012KT 10SM BKN095 18/07 A2995 600  48 1100 200/12 RMK AO2 SLP141 T01780067
14840KMKG MKG20050419025511404/19/05 02:55:31  5-MIN KMKG 190755Z 21009KT 10SM BKN095 17/07 A2996 600  49 1000 220/09 RMK AO2 SLP142 T01720067
14840KMKG MKG20050419030009704/19/05 03:00:31  5-MIN KMKG 190800Z 21009KT 10SM SCT100 17/07 A2996 600  51 1000 220/09 RMK AO2
14840KMKG MKG20050419030509604/19/05 03:05:31  5-MIN KMKG 190805Z 21009KT 10SM SCT095 16/07 A2996 600  53 900 220/09 RMK AO2
14840KMKG MKG20050419031009604/19/05 03:10:31  5-MIN KMKG 190810Z 21007KT 10SM SCT095 16/07 A2995 600  55 800 210/07 RMK AO2
14840KMKG MKG20050419031509604/19/05 03:15:31  5-MIN KMKG 190815Z 22008KT 10SM FEW100 15/07 A2995 600  57 800 220/08 RMK AO2
14840KMKG MKG20050419032009604/19/05 03:20:31  5-MIN KMKG 190820Z 22007KT 10SM FEW100 15/06 A2995 600  55 800 220/07 RMK AO2
14840KMKG MKG20050419032509604/19/05 03:25:31  5-MIN KMKG 190825Z 21008KT 10SM FEW100 14/06 A2995 600  57 700 220/08 RMK AO2
14840KMKG MKG20050419033009604/19/05 03:30:31  5-MIN KMKG 190830Z 22007KT 10SM FEW100 14/06 A2995 600  57 700 220/07 RMK AO2
14840KMKG MKG20050419033509604/19/05 03:35:31  5-MIN KMKG 190835Z 22008KT 10SM FEW100 15/06 A2995 600  55 800 220/08 RMK AO2
14840KMKG MKG20050419034009604/19/05 03:40:31  5-MIN KMKG 190840Z 22008KT 10SM FEW100 14/06 A2995 600  57 700 220/08 RMK AO2
14840KMKG MKG20050419034509604/19/05 03:45:31  5-MIN KMKG 190845Z 22008KT 10SM FEW100 14/06 A2995 600  59 600 220/08 RMK AO2
14840KMKG MKG20050419035011904/19/05 03:50:31  5-MIN KMKG 190850Z 22007KT 10SM FEW100 14/06 A2995 600  59 600 220/07 RMK AO2 SLP141 T01390061 57011
14840KMKG MKG20050419035511904/19/05 03:55:31  5-MIN KMKG 190855Z 22007KT 10SM FEW100 13/06 A2995 600  61 600 220/07 RMK AO2 SLP142 T01330061 56003
14840KMKG MKG20050419040009604/19/05 04:00:31  5-MIN KMKG 190900Z 22008KT 10SM SCT100 13/06 A2995 600  61 600 230/08 RMK AO2
14840KMKG MKG20050419040509604/19/05 04:05:31  5-MIN KMKG 190905Z 23008KT 10SM FEW100 14/06 A2996 600  59 600 230/08 RMK AO2
14840KMKG MKG20050419041009604/19/05 04:10:31  5-MIN KMKG 190910Z 23008KT 10SM FEW100 14/06 A2996 600  59 600 230/08 RMK AO2
14840KMKG MKG20050419041509604/19/05 04:15:31  5-MIN KMKG 190915Z 23007KT 10SM FEW100 14/06 A2996 600  59 600 230/07 RMK AO2
14840KMKG MKG20050419042009604/19/05 04:20:31  5-MIN KMKG 190920Z 23007KT 10SM SCT100 14/06 A2996 600  59 600 230/07 RMK AO2
14840KMKG MKG20050419042509604/19/05 04:25:31  5-MIN KMKG 190925Z 23006KT 10SM BKN100 14/06 A2996 600  59 600 240/06 RMK AO2
14840KMKG MKG20050419043009604/19/05 04:30:31  5-MIN KMKG 190930Z 22007KT 10SM BKN100 14/06 A2996 600  59 600 230/07 RMK AO2
14840KMKG MKG20050419043509604/19/05 04:35:31  5-MIN KMKG 190935Z 23007KT 10SM BKN100 14/06 A2996 590  59 600 230/07 RMK AO2
14840KMKG MKG20050419044009604/19/05 04:40:31  5-MIN KMKG 190940Z 24006KT 10SM BKN100 14/06 A2996 590  57 700 240/06 RMK AO2
14840KMKG MKG20050419044509604/19/05 04:45:31  5-MIN KMKG 190945Z 22008KT 10SM OVC100 15/07 A2996 590  57 800 220/08 RMK AO2
14840KMKG MKG20050419045011304/19/05 04:50:31  5-MIN KMKG 190950Z 21008KT 10SM OVC095 14/07 A2996 590  59 700 220/08 RMK AO2 SLP145 T01440067
14840KMKG MKG20050419045511304/19/05 04:55:31  5-MIN KMKG 190955Z 22009KT 10SM OVC100 14/07 A2997 590  59 700 220/09 RMK AO2 SLP147 T01440067
14840KMKG MKG20050419050009604/19/05 05:00:31  5-MIN KMKG 191000Z 21007KT 10SM OVC100 14/06 A2997 590  59 600 210/07 RMK AO2
14840KMKG MKG20050419050509404/19/05 05:05:31  5-MIN KMKG 191005Z 22006KT 9SM OVC100 13/06 A2997 590 61 600 220/06 RMK AO2
14840KMKG MKG20050419051009404/19/05 05:10:31  5-MIN KMKG 191010Z 21005KT 9SM OVC100 13/06 A2997 590 63 500 210/05 RMK AO2
14840KMKG MKG20050419051509404/19/05 05:15:31  5-MIN KMKG 191015Z 20004KT 9SM OVC100 13/06 A2997 580 63 500 200/04 RMK AO2
14840KMKG MKG20050419052009404/19/05 05:20:31  5-MIN KMKG 191020Z 22003KT 9SM OVC100 13/06 A2997 580 63 500 220/03 RMK AO2
14840KMKG MKG20050419052509404/19/05 05:25:31  5-MIN KMKG 191025Z 22008KT 9SM OVC100 13/07 A2997 580 64 600 230/08 RMK AO2
14840KMKG MKG20050419053009404/19/05 05:30:31  5-MIN KMKG 191030Z 23007KT 9SM OVC100 14/07 A2997 580 61 600 230/07 RMK AO2
14840KMKG MKG20050419053509404/19/05 05:35:31  5-MIN KMKG 191035Z 21007KT 9SM BKN100 13/07 A2997 580 64 600 220/07 RMK AO2
14840KMKG MKG20050419054009404/19/05 05:40:31  5-MIN KMKG 191040Z 22006KT 9SM BKN100 13/07 A2998 580 64 600 220/06 RMK AO2
14840KMKG MKG20050419054509404/19/05 05:45:31  5-MIN KMKG 191045Z 21005KT 9SM BKN100 13/07 A2998 580 66 500 210/05 RMK AO2
14840KMKG MKG20050419055011104/19/05 05:50:31  5-MIN KMKG 191050Z 21003KT 9SM BKN095 13/07 A2998 580 66 500 220/03 RMK AO2 SLP151 T01280067
14840KMKG MKG20050419055511104/19/05 05:55:31  5-MIN KMKG 191055Z 00000KT 9SM BKN095 13/07 A2998 570 66 500 000/00 RMK AO2 SLP151 T01280067
14840KMKG MKG20050419060009404/19/05 06:00:31  5-MIN KMKG 191100Z VRB04KT 9SM BKN095 13/07 A2998 570 66 500 VRB/04 RMK AO2
14840KMKG MKG20050419060509404/19/05 06:05:31  5-MIN KMKG 191105Z 20007KT 8SM BKN095 13/07 A2998 570 66 500 200/07 RMK AO2
14840KMKG MKG20050419061009404/19/05 06:10:31  5-MIN KMKG 191110Z 19007KT 8SM BKN095 13/07 A2998 570 64 500 190/07 RMK AO2
14840KMKG MKG20050419061509404/19/05 06:15:31  5-MIN KMKG 191115Z 18006KT 7SM BKN095 13/07 A2998 570 66 500 190/06 RMK AO2
14840KMKG MKG20050419062009404/19/05 06:20:31  5-MIN KMKG 191120Z 16005KT 7SM BKN100 12/07 A2999 570 68 400 170/05 RMK AO2
14840KMKG MKG20050419062509404/19/05 06:25:31  5-MIN KMKG 191125Z 16005KT 7SM BKN095 12/07 A2999 570 68 400 170/05 RMK AO2
14840KMKG MKG20050419063009404/19/05 06:30:31  5-MIN KMKG 191130Z 16004KT 7SM BKN095 12/07 A2999 570 68 400 170/04 RMK AO2
14840KMKG MKG20050419063509404/19/05 06:35:31  5-MIN KMKG 191135Z 17004KT 7SM BKN095 12/07 A2999 570 68 400 170/04 RMK AO2
14840KMKG MKG20050419064009404/19/05 06:40:31  5-MIN KMKG 191140Z 18005KT 7SM BKN095 12/07 A2999 560 68 400 180/05 RMK AO2
14840KMKG MKG20050419064509404/19/05 06:45:31  5-MIN KMKG 191145Z 18006KT 7SM BKN095 13/07 A2999 560 66 500 190/06 RMK AO2
14840KMKG MKG20050419065012904/19/05 06:50:31  5-MIN KMKG 191150Z 18004KT 7SM BKN095 13/07 A3000 560 66 500 190/04 RMK AO2 SLP156 T01280067 10183 20122 56003
14840KMKG MKG20050419065512904/19/05 06:55:31  5-MIN KMKG 191155Z 19004KT 7SM BKN095 13/07 A3000 560 66 500 190/04 RMK AO2 SLP158 T01280067 10183 20122 53015
14840KMKG MKG20050419070009404/19/05 07:00:31  5-MIN KMKG 191200Z 19005KT 7SM OVC095 13/07 A3000 550 66 500 190/05 RMK AO2
14840KMKG MKG20050419070509404/19/05 07:05:31  5-MIN KMKG 191205Z 19005KT 7SM OVC095 13/07 A3000 550 66 500 190/05 RMK AO2
14840KMKG MKG20050419071009404/19/05 07:10:31  5-MIN KMKG 191210Z 19004KT 7SM BKN095 14/07 A3000 550 64 600 200/04 RMK AO2
14840KMKG MKG20050419071509404/19/05 07:15:31  5-MIN KMKG 191215Z 19005KT 8SM BKN095 14/07 A3000 550 64 600 200/05 RMK AO2
14840KMKG MKG20050419072009404/19/05 07:20:31  5-MIN KMKG 191220Z 19004KT 8SM BKN095 14/07 A3000 550 64 600 190/04 RMK AO2
14840KMKG MKG20050419072509404/19/05 07:25:31  5-MIN KMKG 191225Z 18003KT 8SM BKN100 14/07 A3000 550 61 700 190/03 RMK AO2
14840KMKG MKG20050419073009404/19/05 07:30:31  5-MIN KMKG 191230Z 18004KT 8SM BKN100 14/08 A3000 550 64 700 190/04 RMK AO2
14840KMKG MKG20050419073509404/19/05 07:35:31  5-MIN KMKG 191235Z 19004KT 8SM BKN100 14/08 A3000 560 64 700 190/04 RMK AO2
14840KMKG MKG20050419074009404/19/05 07:40:31  5-MIN KMKG 191240Z 19005KT 8SM BKN100 15/08 A3000 560 62 700 200/05 RMK AO2
14840KMKG MKG20050419074509404/19/05 07:45:31  5-MIN KMKG 191245Z 20006KT 9SM BKN100 16/08 A3000 560 59 800 200/06 RMK AO2
14840KMKG MKG20050419075011104/19/05 07:50:31  5-MIN KMKG 191250Z 18007KT 9SM BKN100 16/08 A3000 560 62 800 180/07 RMK AO2 SLP158 T01560083
14840KMKG MKG20050419075511104/19/05 07:55:31  5-MIN KMKG 191255Z 19011KT 9SM BKN100 15/08 A3000 550 62 700 190/11 RMK AO2 SLP160 T01500078
14840KMKG MKG20050419080009404/19/05 08:00:31  5-MIN KMKG 191300Z 19008KT 9SM SCT100 15/08 A3000 560 62 700 190/08 RMK AO2
14840KMKG MKG20050419080509404/19/05 08:05:31  5-MIN KMKG 191305Z 19008KT 9SM SCT100 16/08 A3000 560 62 800 190/08 RMK AO2
14840KMKG MKG20050419081009404/19/05 08:10:31  5-MIN KMKG 191310Z 19012KT 9SM FEW100 16/08 A3000 560 62 800 190/12 RMK AO2
14840KMKG MKG20050419081509404/19/05 08:15:31  5-MIN KMKG 191315Z 19008KT 9SM FEW100 16/08 A3000 560 62 800 200/08 RMK AO2
14840KMKG MKG20050419082009204/19/05 08:20:31  5-MIN KMKG 191320Z 19009KT 9SM CLR 16/08 A3000 560 59  900 190/09 RMK AO2
14840KMKG MKG20050419082509204/19/05 08:25:31  5-MIN KMKG 191325Z 20010KT 9SM CLR 16/08 A3000 560 59  900 200/10 RMK AO2
14840KMKG MKG20050419083009204/19/05 08:30:31  5-MIN KMKG 191330Z 19012KT 9SM CLR 17/08 A3000 560 57  900 200/12 RMK AO2
14840KMKG MKG20050419083509304/19/05 08:35:31  5-MIN KMKG 191335Z 19008KT 10SM CLR 17/09 A2999 560 60  900 190/08 RMK AO2
14840KMKG MKG20050419084009404/19/05 08:40:31  5-MIN KMKG 191340Z 18009KT 10SM CLR 17/09 A3000 560 57  1000 190/09 RMK AO2
14840KMKG MKG20050419084509404/19/05 08:45:31  5-MIN KMKG 191345Z 19010KT 10SM CLR 17/09 A2999 560 57  1000 190/10 RMK AO2
14840KMKG MKG20050419085011104/19/05 08:50:31  5-MIN KMKG 191350Z 18010KT 10SM CLR 17/09 A2999 560 57  1000 190/10 RMK AO2 SLP156 T01720089
14840KMKG MKG20050419085511104/19/05 08:55:31  5-MIN KMKG 191355Z 19012KT 10SM CLR 18/09 A2999 560 55  1100 200/12 RMK AO2 SLP157 T01780089
14840KMKG MKG20050419090009404/19/05 09:00:31  5-MIN KMKG 191400Z 20011KT 10SM CLR 18/09 A2999 560 55  1100 200/11 RMK AO2
14840KMKG MKG20050419090509404/19/05 09:05:31  5-MIN KMKG 191405Z 20011KT 10SM CLR 18/09 A2999 570 55  1100 200/11 RMK AO2
14840KMKG MKG20050419091009404/19/05 09:10:31  5-MIN KMKG 191410Z 20013KT 10SM CLR 18/09 A2999 560 54  1100 200/13 RMK AO2
14840KMKG MKG20050419091509404/19/05 09:15:31  5-MIN KMKG 191415Z 20015KT 10SM CLR 18/09 A2999 560 54  1100 210/15 RMK AO2
14840KMKG MKG20050419092009404/19/05 09:20:31  5-MIN KMKG 191420Z 21012KT 10SM CLR 18/09 A2999 570 54  1100 210/12 RMK AO2
14840KMKG MKG20050419092509404/19/05 09:25:31  5-MIN KMKG 191425Z 20014KT 10SM CLR 18/09 A2999 560 54  1100 200/14 RMK AO2
14840KMKG MKG20050419093009404/19/05 09:30:31  5-MIN KMKG 191430Z 20013KT 10SM CLR 18/09 A2999 560 54  1100 210/13 RMK AO2
14840KMKG MKG20050419093509404/19/05 09:35:31  5-MIN KMKG 191435Z 21012KT 10SM CLR 18/09 A2999 570 54  1100 210/12 RMK AO2
14840KMKG MKG20050419094009404/19/05 09:40:31  5-MIN KMKG 191440Z 21012KT 10SM CLR 19/09 A2999 570 54  1200 210/12 RMK AO2
14840KMKG MKG20050419094509404/19/05 09:45:31  5-MIN KMKG 191445Z 20013KT 10SM CLR 18/09 A2999 570 54  1100 210/13 RMK AO2
14840KMKG MKG20050419095011704/19/05 09:50:31  5-MIN KMKG 191450Z 20014KT 10SM CLR 19/09 A2999 570 52  1200 210/14 RMK AO2 SLP153 T01890089 53015
14840KMKG MKG20050419095511704/19/05 09:55:31  5-MIN KMKG 191455Z 20012KT 10SM CLR 19/09 A2999 570 52  1200 210/12 RMK AO2 SLP154 T01890089 58004
14840KMKG MKG20050419100009404/19/05 10:00:31  5-MIN KMKG 191500Z 21011KT 10SM CLR 19/09 A2999 570 52  1200 210/11 RMK AO2
14840KMKG MKG20050419100509704/19/05 10:05:31  5-MIN KMKG 191505Z 20014KT 10SM FEW090 19/09 A2999 570  52 1200 210/14 RMK AO2
14840KMKG MKG20050419101009704/19/05 10:10:31  5-MIN KMKG 191510Z 19013KT 10SM FEW090 18/09 A2999 570  54 1100 200/13 RMK AO2
14840KMKG MKG20050419101509704/19/05 10:15:31  5-MIN KMKG 191515Z 20012KT 10SM FEW090 19/09 A2999 570  52 1200 200/12 RMK AO2
14840KMKG MKG20050419102009404/19/05 10:20:31  5-MIN KMKG 191520Z 20011KT 10SM CLR 19/09 A2999 570 52  1200 210/11 RMK AO2
14840KMKG MKG20050419102509404/19/05 10:25:31  5-MIN KMKG 191525Z 20013KT 10SM CLR 19/09 A2999 570 52  1200 200/13 RMK AO2
14840KMKG MKG20050419103009404/19/05 10:30:31  5-MIN KMKG 191530Z 21017KT 10SM CLR 19/09 A2999 570 50  1300 210/17 RMK AO2
14840KMKG MKG20050419103509404/19/05 10:35:31  5-MIN KMKG 191535Z 20016KT 10SM CLR 19/09 A2999 570 52  1200 210/16 RMK AO2
14840KMKG MKG20050419104009404/19/05 10:40:31  5-MIN KMKG 191540Z 20014KT 10SM CLR 19/09 A2999 570 52  1200 200/14 RMK AO2
14840KMKG MKG20050419104510004/19/05 10:45:31  5-MIN KMKG 191545Z 19016G20KT 10SM CLR 19/09 A2999 570  52 1200 200/16G20 RMK AO2
14840KMKG MKG20050419105011704/19/05 10:50:31  5-MIN KMKG 191550Z 20016G20KT 10SM CLR 19/09 A2999 570  50 1300 200/16G20 RMK AO2 SLP155 T01940089
14840KMKG MKG20050419105511104/19/05 10:55:31  5-MIN KMKG 191555Z 19014KT 10SM CLR 19/09 A2999 570 52  1200 190/14 RMK AO2 SLP155 T01890089
14840KMKG MKG20050419110009404/19/05 11:00:31  5-MIN KMKG 191600Z 21015KT 10SM CLR 19/09 A2999 570 50  1300 210/15 RMK AO2
14840KMKG MKG20050419110509404/19/05 11:05:31  5-MIN KMKG 191605Z 21014KT 10SM CLR 19/09 A2999 570 50  1300 210/14 RMK AO2
14840KMKG MKG20050419111009404/19/05 11:10:31  5-MIN KMKG 191610Z 20013KT 10SM CLR 19/09 A2999 570 50  1300 210/13 RMK AO2
14840KMKG MKG20050419111509404/19/05 11:15:31  5-MIN KMKG 191615Z 20013KT 10SM CLR 20/09 A2998 570 48  1300 210/13 RMK AO2
14840KMKG MKG20050419112009404/19/05 11:20:31  5-MIN KMKG 191620Z 20014KT 10SM CLR 19/09 A2999 570 50  1300 210/14 RMK AO2
14840KMKG MKG20050419112509404/19/05 11:25:31  5-MIN KMKG 191625Z 21014KT 10SM CLR 19/09 A2999 570 50  1300 210/14 RMK AO2
14840KMKG MKG20050419113009404/19/05 11:30:31  5-MIN KMKG 191630Z 20013KT 10SM CLR 20/09 A2998 570 48  1300 200/13 RMK AO2
14840KMKG MKG20050419113509404/19/05 11:35:31  5-MIN KMKG 191635Z 20013KT 10SM CLR 19/09 A2998 570 50  1300 210/13 RMK AO2
14840KMKG MKG20050419114009404/19/05 11:40:31  5-MIN KMKG 191640Z 20012KT 10SM CLR 20/09 A2998 570 48  1300 200/12 RMK AO2
14840KMKG MKG20050419114509404/19/05 11:45:31  5-MIN KMKG 191645Z 20014KT 10SM CLR 19/09 A2998 580 50  1300 200/14 RMK AO2
14840KMKG MKG20050419115011104/19/05 11:50:31  5-MIN KMKG 191650Z 20014KT 10SM CLR 20/09 A2998 580 48  1300 200/14 RMK AO2 SLP151 T02000089
14840KMKG MKG20050419115511104/19/05 11:55:31  5-MIN KMKG 191655Z 20014KT 10SM CLR 19/09 A2998 580 50  1300 210/14 RMK AO2 SLP152 T01940089
14840KMKG MKG20050419120009404/19/05 12:00:31  5-MIN KMKG 191700Z 21011KT 10SM CLR 20/09 A2998 580 48  1300 210/11 RMK AO2
14840KMKG MKG20050419120509404/19/05 12:05:31  5-MIN KMKG 191705Z 22014KT 10SM CLR 20/09 A2998 580 48  1300 220/14 RMK AO2
14840KMKG MKG20050419121009404/19/05 12:10:31  5-MIN KMKG 191710Z 22012KT 10SM CLR 20/09 A2998 580 48  1300 220/12 RMK AO2
14840KMKG MKG20050419121509404/19/05 12:15:31  5-MIN KMKG 191715Z 21011KT 10SM CLR 20/09 A2998 580 48  1300 210/11 RMK AO2
14840KMKG MKG20050419122009404/19/05 12:20:31  5-MIN KMKG 191720Z 20012KT 10SM CLR 20/09 A2998 580 48  1300 210/12 RMK AO2
14840KMKG MKG20050419122509404/19/05 12:25:31  5-MIN KMKG 191725Z 21013KT 10SM CLR 20/09 A2998 580 48  1300 210/13 RMK AO2
14840KMKG MKG20050419123009404/19/05 12:30:31  5-MIN KMKG 191730Z 20012KT 10SM CLR 20/09 A2997 580 48  1300 210/12 RMK AO2
14840KMKG MKG20050419123509404/19/05 12:35:31  5-MIN KMKG 191735Z 20013KT 10SM CLR 20/09 A2998 580 48  1300 200/13 RMK AO2
14840KMKG MKG20050419124009404/19/05 12:40:31  5-MIN KMKG 191740Z 21013KT 10SM CLR 20/09 A2998 580 48  1300 210/13 RMK AO2
14840KMKG MKG20050419124510004/19/05 12:45:31  5-MIN KMKG 191745Z 21016G19KT 10SM CLR 20/09 A2998 580  48 1300 210/16G19 RMK AO2
14840KMKG MKG20050419125013504/19/05 12:50:31  5-MIN KMKG 191750Z 19014G19KT 10SM CLR 20/08 A2997 580  46 1300 190/14G19 RMK AO2 SLP148 T02000083 10206 20133 58004
14840KMKG MKG20050419125512904/19/05 12:55:31  5-MIN KMKG 191755Z 19014KT 10SM CLR 20/09 A2997 580 48  1300 200/14 RMK AO2 SLP147 T02000089 10206 20133 58006
14840KMKG MKG20050419130009404/19/05 13:00:31  5-MIN KMKG 191800Z 20014KT 10SM CLR 20/09 A2997 580 48  1300 200/14 RMK AO2
14840KMKG MKG20050419130509404/19/05 13:05:31  5-MIN KMKG 191805Z 21013KT 10SM CLR 21/09 A2997 580 46  1400 210/13 RMK AO2
14840KMKG MKG20050419131010004/19/05 13:10:31  5-MIN KMKG 191810Z 20016G20KT 10SM CLR 21/08 A2997 590  45 1400 210/16G20 RMK AO2
14840KMKG MKG20050419131510004/19/05 13:15:31  5-MIN KMKG 191815Z 21015G21KT 10SM CLR 21/09 A2997 590  45 1500 220/15G21 RMK AO2
14840KMKG MKG20050419132010004/19/05 13:20:31  5-MIN KMKG 191820Z 21013G21KT 10SM CLR 21/09 A2996 590  45 1500 220/13G21 RMK AO2
14840KMKG MKG20050419132510004/19/05 13:25:31  5-MIN KMKG 191825Z 20015G20KT 10SM CLR 21/09 A2996 600  45 1500 210/15G20 RMK AO2
14840KMKG MKG20050419133010004/19/05 13:30:31  5-MIN KMKG 191830Z 21016G21KT 10SM CLR 21/09 A2996 600  45 1500 210/16G21 RMK AO2
14840KMKG MKG20050419133510004/19/05 13:35:31  5-MIN KMKG 191835Z 21013G21KT 10SM CLR 21/09 A2995 600  45 1500 210/13G21 RMK AO2
14840KMKG MKG20050419134009404/19/05 13:40:31  5-MIN KMKG 191840Z 20017KT 10SM CLR 22/09 A2995 600 43  1600 210/17 RMK AO2
14840KMKG MKG20050419134510004/19/05 13:45:31  5-MIN KMKG 191845Z 21016G20KT 10SM CLR 22/09 A2995 600  43 1600 220/16G20 RMK AO2
14840KMKG MKG20050419135011704/19/05 13:50:31  5-MIN KMKG 191850Z 20014G20KT 10SM CLR 22/09 A2995 610  43 1600 200/14G20 RMK AO2 SLP139 T02170089
14840KMKG MKG20050419135511104/19/05 13:55:31  5-MIN KMKG 191855Z 20013KT 10SM CLR 22/09 A2995 610 42  1600 200/13 RMK AO2 SLP138 T02220089
14840KMKG MKG20050419140010004/19/05 14:00:31  5-MIN KMKG 191900Z 20016G20KT 10SM CLR 22/09 A2994 610  42 1600 200/16G20 RMK AO2
14840KMKG MKG20050419140509404/19/05 14:05:31  5-MIN KMKG 191905Z 20015KT 10SM CLR 22/09 A2994 610 42  1600 200/15 RMK AO2
14840KMKG MKG20050419141009404/19/05 14:10:31  5-MIN KMKG 191910Z 20017KT 10SM CLR 22/09 A2994 610 42  1600 200/17 RMK AO2
14840KMKG MKG20050419141509404/19/05 14:15:31  5-MIN KMKG 191915Z 20014KT 10SM CLR 22/09 A2994 610 42  1600 210/14 RMK AO2
14840KMKG MKG20050419142009404/19/05 14:20:31  5-MIN KMKG 191920Z 21015KT 10SM CLR 23/09 A2994 610 40  1700 210/15 RMK AO2
14840KMKG MKG20050419142509404/19/05 14:25:31  5-MIN KMKG 191925Z 20015KT 10SM CLR 23/09 A2994 610 40  1700 210/15 RMK AO2
14840KMKG MKG20050419143009404/19/05 14:30:31  5-MIN KMKG 191930Z 20015KT 10SM CLR 23/09 A2994 620 40  1700 200/15 RMK AO2
14840KMKG MKG20050419143509404/19/05 14:35:31  5-MIN KMKG 191935Z 20013KT 10SM CLR 23/09 A2993 620 40  1700 210/13 RMK AO2
14840KMKG MKG20050419144010004/19/05 14:40:31  5-MIN KMKG 191940Z 21013G21KT 10SM CLR 23/09 A2993 620  40 1700 210/13G21 RMK AO2
14840KMKG MKG20050419144510004/19/05 14:45:31  5-MIN KMKG 191945Z 20015G21KT 10SM CLR 23/08 A2993 620  39 1700 210/15G21 RMK AO2
14840KMKG MKG20050419145011704/19/05 14:50:31  5-MIN KMKG 191950Z 20014G20KT 10SM CLR 23/08 A2992 630  38 1800 210/14G20 RMK AO2 SLP131 T02330083
14840KMKG MKG20050419145511704/19/05 14:55:31  5-MIN KMKG 191955Z 20015G21KT 10SM CLR 23/08 A2992 630  38 1800 200/15G21 RMK AO2 SLP131 T02330083
14840KMKG MKG20050419150010004/19/05 15:00:31  5-MIN KMKG 192000Z 21014G21KT 10SM CLR 23/08 A2992 630  38 1800 220/14G21 RMK AO2
14840KMKG MKG20050419150510004/19/05 15:05:31  5-MIN KMKG 192005Z 21017G21KT 10SM CLR 23/08 A2992 630  38 1800 210/17G21 RMK AO2
14840KMKG MKG20050419151010004/19/05 15:10:31  5-MIN KMKG 192010Z 20017G23KT 10SM CLR 23/08 A2992 630  38 1800 210/17G23 RMK AO2
14840KMKG MKG20050419151510004/19/05 15:15:31  5-MIN KMKG 192015Z 20017G23KT 10SM CLR 23/08 A2992 630  38 1800 210/17G23 RMK AO2
14840KMKG MKG20050419152010004/19/05 15:20:31  5-MIN KMKG 192020Z 21015G21KT 10SM CLR 23/08 A2991 640  38 1800 220/15G21 RMK AO2
14840KMKG MKG20050419152510004/19/05 15:25:31  5-MIN KMKG 192025Z 21017G21KT 10SM CLR 23/08 A2991 640  38 1800 210/17G21 RMK AO2
14840KMKG MKG20050419153010004/19/05 15:30:31  5-MIN KMKG 192030Z 20016G21KT 10SM CLR 23/08 A2991 640  36 1800 210/16G21 RMK AO2
14840KMKG MKG20050419153510904/19/05 15:35:31  5-MIN KMKG 192035Z AUTO 20014G20KT 10SM CLR 23/08 A2991 640 36 1800 210/14G20 RMK AO2 TSNO
14840KMKG MKG20050419154010904/19/05 15:40:31  5-MIN KMKG 192040Z AUTO 21014G20KT 10SM CLR 23/08 A2990 650 36 1800 210/14G20 RMK AO2 TSNO
14840KMKG MKG20050419154510304/19/05 15:45:31  5-MIN KMKG 192045Z AUTO 21013KT 10SM CLR 24/08 A2990 650 35 1900 210/13 RMK AO2 TSNO
14840KMKG MKG20050419155012604/19/05 15:50:31  5-MIN KMKG 192050Z AUTO 20014KT 10SM CLR 24/07 A2990 650 34 1900 210/14 RMK AO2 SLP123 T02390072 58006 TSNO
14840KMKG MKG20050419155512604/19/05 15:55:31  5-MIN KMKG 192055Z AUTO 21014KT 10SM CLR 24/08 A2990 650 35 1900 210/14 RMK AO2 SLP122 T02390078 58024 TSNO
14840KMKG MKG20050419160010304/19/05 16:00:31  5-MIN KMKG 192100Z AUTO 20015KT 10SM CLR 24/07 A2990 650 34 1900 210/15 RMK AO2 TSNO
14840KMKG MKG20050419160509404/19/05 16:05:31  5-MIN KMKG 192105Z 20015KT 10SM CLR 24/07 A2990 650 34  1900 210/15 RMK AO2
14840KMKG MKG20050419161009404/19/05 16:10:31  5-MIN KMKG 192110Z 20015KT 10SM CLR 24/07 A2990 650 34  1900 210/15 RMK AO2
14840KMKG MKG20050419161509404/19/05 16:15:31  5-MIN KMKG 192115Z 21014KT 10SM CLR 24/07 A2989 650 34  1900 210/14 RMK AO2
14840KMKG MKG20050419162009404/19/05 16:20:31  5-MIN KMKG 192120Z 21014KT 10SM CLR 24/07 A2989 650 34  1900 210/14 RMK AO2
14840KMKG MKG20050419162509404/19/05 16:25:31  5-MIN KMKG 192125Z 20014KT 10SM CLR 24/07 A2989 660 33  1900 210/14 RMK AO2
14840KMKG MKG20050419163009404/19/05 16:30:31  5-MIN KMKG 192130Z 20014KT 10SM CLR 24/07 A2989 660 33  1900 210/14 RMK AO2
14840KMKG MKG20050419163509404/19/05 16:35:31  5-MIN KMKG 192135Z 20013KT 10SM CLR 24/07 A2989 660 34  1900 200/13 RMK AO2
14840KMKG MKG20050419164009404/19/05 16:40:31  5-MIN KMKG 192140Z 20013KT 10SM CLR 24/07 A2989 660 34  1900 200/13 RMK AO2
14840KMKG MKG20050419164509404/19/05 16:45:31  5-MIN KMKG 192145Z 21012KT 10SM CLR 24/07 A2989 660 34  1900 210/12 RMK AO2
14840KMKG MKG20050419165011104/19/05 16:50:31  5-MIN KMKG 192150Z 21014KT 10SM CLR 24/07 A2989 660 34  1900 210/14 RMK AO2 SLP118 T02390072
14840KMKG MKG20050419165511104/19/05 16:55:31  5-MIN KMKG 192155Z 21011KT 10SM CLR 24/07 A2988 660 32  1900 210/11 RMK AO2 SLP117 T02390067
14840KMKG MKG20050419170009404/19/05 17:00:31  5-MIN KMKG 192200Z 20011KT 10SM CLR 24/07 A2988 670 32  1900 210/11 RMK AO2
14840KMKG MKG20050419170509404/19/05 17:05:31  5-MIN KMKG 192205Z 19012KT 10SM CLR 24/07 A2988 670 32  1900 200/12 RMK AO2
14840KMKG MKG20050419171009404/19/05 17:10:31  5-MIN KMKG 192210Z 20012KT 10SM CLR 23/07 A2988 670 33  1800 210/12 RMK AO2
14840KMKG MKG20050419171509404/19/05 17:15:31  5-MIN KMKG 192215Z 20010KT 10SM CLR 23/07 A2988 670 33  1800 200/10 RMK AO2
14840KMKG MKG20050419172009404/19/05 17:20:31  5-MIN KMKG 192220Z 19011KT 10SM CLR 23/07 A2988 670 33  1800 200/11 RMK AO2
14840KMKG MKG20050419172509404/19/05 17:25:31  5-MIN KMKG 192225Z 20012KT 10SM CLR 23/07 A2988 670 33  1800 200/12 RMK AO2
14840KMKG MKG20050419173009404/19/05 17:30:31  5-MIN KMKG 192230Z 20013KT 10SM CLR 23/07 A2988 670 33  1800 210/13 RMK AO2
14840KMKG MKG20050419173509404/19/05 17:35:31  5-MIN KMKG 192235Z 20013KT 10SM CLR 23/07 A2988 670 35  1800 200/13 RMK AO2
14840KMKG MKG20050419174009404/19/05 17:40:31  5-MIN KMKG 192240Z 20012KT 10SM CLR 23/07 A2987 670 33  1800 200/12 RMK AO2
14840KMKG MKG20050419174509404/19/05 17:45:31  5-MIN KMKG 192245Z 20013KT 10SM CLR 23/07 A2987 680 33  1800 200/13 RMK AO2
14840KMKG MKG20050419175011704/19/05 17:50:31  5-MIN KMKG 192250Z 20012G16KT 10SM CLR 23/06 A2987 680  33 1800 200/12G16 RMK AO2 SLP113 T02280061
14840KMKG MKG20050419175511704/19/05 17:55:31  5-MIN KMKG 192255Z 20011G18KT 10SM CLR 23/06 A2987 680  32 1800 210/11G18 RMK AO2 SLP113 T02280056
14840KMKG MKG20050419180010004/19/05 18:00:31  5-MIN KMKG 192300Z 20012G18KT 10SM CLR 23/04 A2987 680  30 1800 200/12G18 RMK AO2
14840KMKG MKG20050419180509404/19/05 18:05:31  5-MIN KMKG 192305Z 20012KT 10SM CLR 23/03 A2987 680 27  1800 210/12 RMK AO2
14840KMKG MKG20050419181009404/19/05 18:10:31  5-MIN KMKG 192310Z 20013KT 10SM CLR 23/03 A2987 680 26  1800 200/13 RMK AO2
14840KMKG MKG20050419181509404/19/05 18:15:31  5-MIN KMKG 192315Z 20012KT 10SM CLR 23/02 A2986 680 25  1800 200/12 RMK AO2
14840KMKG MKG20050419182009404/19/05 18:20:31  5-MIN KMKG 192320Z 20009KT 10SM CLR 22/02 A2986 690 25  1700 200/09 RMK AO2
14840KMKG MKG20050419182509404/19/05 18:25:31  5-MIN KMKG 192325Z 20013KT 10SM CLR 22/01 A2986 690 24  1700 200/13 RMK AO2
14840KMKG MKG20050419183009404/19/05 18:30:31  5-MIN KMKG 192330Z 20011KT 10SM CLR 22/01 A2986 690 23  1700 200/11 RMK AO2
14840KMKG MKG20050419183509404/19/05 18:35:31  5-MIN KMKG 192335Z 20010KT 10SM CLR 22/01 A2986 690 24  1700 200/10 RMK AO2
14840KMKG MKG20050419184009404/19/05 18:40:31  5-MIN KMKG 192340Z 20009KT 10SM CLR 22/01 A2986 690 24  1700 200/09 RMK AO2
14840KMKG MKG20050419184509404/19/05 18:45:31  5-MIN KMKG 192345Z 19010KT 10SM CLR 22/01 A2986 690 24  1700 200/10 RMK AO2
14840KMKG MKG20050419185012904/19/05 18:50:31  5-MIN KMKG 192350Z 20010KT 10SM CLR 21/01 A2986 690 25  1600 200/10 RMK AO2 SLP108 T02110006 10244 20200 58024
14840KMKG MKG20050419185512904/19/05 18:55:31  5-MIN KMKG 192355Z 19011KT 10SM CLR 21/01 A2985 690 25  1600 200/11 RMK AO2 SLP108 T02110006 10244 20200 58014
14840KMKG MKG20050419190009404/19/05 19:00:31  5-MIN KMKG 200000Z 19010KT 10SM CLR 21/01 A2985 690 25  1600 200/10 RMK AO2
14840KMKG MKG20050419190509404/19/05 19:05:31  5-MIN KMKG 200005Z 19010KT 10SM CLR 21/01 A2985 690 26  1600 200/10 RMK AO2
14840KMKG MKG20050419191009404/19/05 19:10:31  5-MIN KMKG 200010Z 19008KT 10SM CLR 21/01 A2985 700 27  1500 190/08 RMK AO2
14840KMKG MKG20050419191509404/19/05 19:15:31  5-MIN KMKG 200015Z 19009KT 10SM CLR 21/02 A2985 700 28  1500 190/09 RMK AO2
14840KMKG MKG20050419192009404/19/05 19:20:31  5-MIN KMKG 200020Z 19008KT 10SM CLR 21/02 A2985 700 28  1500 190/08 RMK AO2
14840KMKG MKG20050419192509404/19/05 19:25:31  5-MIN KMKG 200025Z 19008KT 10SM CLR 21/02 A2985 700 28  1500 190/08 RMK AO2
14840KMKG MKG20050419193009404/19/05 19:30:31  5-MIN KMKG 200030Z 19008KT 10SM CLR 21/02 A2985 700 28  1500 190/08 RMK AO2
14840KMKG MKG20050419193509404/19/05 19:35:31  5-MIN KMKG 200035Z 19007KT 10SM CLR 20/02 A2985 700 29  1500 190/07 RMK AO2
14840KMKG MKG20050419194009404/19/05 19:40:31  5-MIN KMKG 200040Z 18008KT 10SM CLR 20/02 A2985 700 29  1500 190/08 RMK AO2
14840KMKG MKG20050419194509404/19/05 19:45:31  5-MIN KMKG 200045Z 18007KT 10SM CLR 20/01 A2985 700 28  1500 190/07 RMK AO2
14840KMKG MKG20050419195011104/19/05 19:50:31  5-MIN KMKG 200050Z 18007KT 10SM CLR 19/02 A2984 700 30  1400 180/07 RMK AO2 SLP105 T01940017
14840KMKG MKG20050419195511104/19/05 19:55:31  5-MIN KMKG 200055Z 17007KT 10SM CLR 19/02 A2984 700 30  1400 180/07 RMK AO2 SLP104 T01940017
14840KMKG MKG20050419200009404/19/05 20:00:31  5-MIN KMKG 200100Z 16006KT 10SM CLR 19/02 A2984 700 30  1400 170/06 RMK AO2
14840KMKG MKG20050419200509404/19/05 20:05:31  5-MIN KMKG 200105Z 17006KT 10SM CLR 19/02 A2984 700 30  1400 170/06 RMK AO2
14840KMKG MKG20050419201009404/19/05 20:10:31  5-MIN KMKG 200110Z 16005KT 10SM CLR 19/02 A2984 700 31  1400 170/05 RMK AO2
14840KMKG MKG20050419201509404/19/05 20:15:31  5-MIN KMKG 200115Z 16006KT 10SM CLR 19/02 A2984 710 30  1400 160/06 RMK AO2
14840KMKG MKG20050419202009404/19/05 20:20:31  5-MIN KMKG 200120Z 17006KT 10SM CLR 19/02 A2984 700 31  1400 170/06 RMK AO2
14840KMKG MKG20050419202509404/19/05 20:25:31  5-MIN KMKG 200125Z 17006KT 10SM CLR 19/02 A2984 700 32  1400 170/06 RMK AO2
14840KMKG MKG20050419203009404/19/05 20:30:31  5-MIN KMKG 200130Z 16006KT 10SM CLR 19/02 A2984 700 32  1400 160/06 RMK AO2
14840KMKG MKG20050419203509404/19/05 20:35:31  5-MIN KMKG 200135Z 16007KT 10SM CLR 19/02 A2984 710 31  1400 170/07 RMK AO2
14840KMKG MKG20050419204009404/19/05 20:40:31  5-MIN KMKG 200140Z 17008KT 10SM CLR 19/02 A2984 710 31  1400 170/08 RMK AO2
14840KMKG MKG20050419204509404/19/05 20:45:31  5-MIN KMKG 200145Z 18008KT 10SM CLR 20/03 A2984 710 31  1500 180/08 RMK AO2
14840KMKG MKG20050419205011704/19/05 20:50:31  5-MIN KMKG 200150Z 18009G16KT 10SM CLR 21/03 A2984 710  32 1600 190/09G16 RMK AO2 SLP102 T02060033
14840KMKG MKG20050419205511704/19/05 20:55:31  5-MIN KMKG 200155Z 19009G16KT 10SM CLR 21/03 A2984 710  32 1600 190/09G16 RMK AO2 SLP101 T02060033
14840KMKG MKG20050419210009404/19/05 21:00:31  5-MIN KMKG 200200Z 19009KT 10SM CLR 21/04 A2984 710 33  1600 190/09 RMK AO2
14840KMKG MKG20050419210509404/19/05 21:05:31  5-MIN KMKG 200205Z 19010KT 10SM CLR 21/04 A2984 710 33  1600 190/10 RMK AO2
14840KMKG MKG20050419211009704/19/05 21:10:31  5-MIN KMKG 200210Z 20010KT 10SM FEW080 21/04 A2984 710  34 1600 200/10 RMK AO2
14840KMKG MKG20050419211510304/19/05 21:15:31  5-MIN KMKG 200215Z 20013G18KT 10SM FEW080 21/06 A2984  710 37 1600 200/13G18 RMK AO2
14840KMKG MKG20050419212010304/19/05 21:20:31  5-MIN KMKG 200220Z 20015G20KT 10SM FEW080 21/06 A2983  710 38 1600 200/15G20 RMK AO2
14840KMKG MKG20050419212510304/19/05 21:25:31  5-MIN KMKG 200225Z 21014G20KT 10SM FEW080 21/06 A2984  710 38 1600 210/14G20 RMK AO2
14840KMKG MKG20050419213010304/19/05 21:30:31  5-MIN KMKG 200230Z 20016G21KT 10SM FEW080 20/07 A2984  710 41 1500 210/16G21 RMK AO2
14840KMKG MKG20050419213510304/19/05 21:35:31  5-MIN KMKG 200235Z 21017G22KT 10SM FEW080 21/07 A2984  710 40 1600 210/17G22 RMK AO2
14840KMKG MKG20050419214010304/19/05 21:40:31  5-MIN KMKG 200240Z 21017G22KT 10SM FEW090 21/07 A2984  710 41 1600 210/17G22 RMK AO2
14840KMKG MKG20050419214510304/19/05 21:45:31  5-MIN KMKG 200245Z 21016G22KT 10SM SCT075 21/08 A2984  710 43 1600 210/16G22 RMK AO2
14840KMKG MKG20050419215012004/19/05 21:50:31  5-MIN KMKG 200250Z 22015KT 10SM BKN070 21/08 A2984 710  45 1600 220/15 RMK AO2 SLP101 T02060083 58014
14840KMKG MKG20050419215512704/19/05 21:55:31  5-MIN KMKG 200255Z 21016KT 10SM BKN070 BKN090 20/08  A2983 710 46 1500 220/16 RMK AO2 SLP100 T02000083 56006
14840KMKG MKG20050419220010404/19/05 22:00:31  5-MIN KMKG 200300Z 21013KT 10SM SCT070 BKN090 19/08  A2983 710 50 1400 220/13 RMK AO2
14840KMKG MKG20050419220510404/19/05 22:05:31  5-MIN KMKG 200305Z 22014KT 10SM SCT070 BKN095 19/08  A2984 710 50 1400 220/14 RMK AO2
14840KMKG MKG20050419221011904/19/05 22:10:31  5-MIN KMKG 200310Z 21012KT 10SM -RA BKN070 OVC090 18/09 A2983 710 54 1300 220/12 RMK AO2 RAB07 P0000
14840KMKG MKG20050419221511904/19/05 22:15:31  5-MIN KMKG 200315Z 20013KT 10SM -RA BKN070 OVC090 18/09 A2983 710 56 1300 210/13 RMK AO2 RAB07 P0000
14840KMKG MKG20050419222012604/19/05 22:20:31  5-MIN KMKG 200320Z 20012KT 10SM BKN065 BKN090 OVC120  18/09 A2983 720 56 1300 200/12 RMK AO2 RAB07E20 P0000
14840KMKG MKG20050419222512604/19/05 22:25:31  5-MIN KMKG 200325Z 20013KT 10SM SCT065 BKN090 OVC110  19/09 A2983 720 54 1400 210/13 RMK AO2 RAB07E20 P0000
14840KMKG MKG20050420050510404/20/05 05:05:31  5-MIN KMKG 201005Z 26010G16KT 10SM OVC032 14/13 A2976  770 90 900 260/10G16 RMK AO2 $
14840KMKG MKG20050420051011104/20/05 05:10:31  5-MIN KMKG 201010Z 27012G16KT 10SM BKN029 OVC034 14/13  A2977 770 90 900 280/12G16 RMK AO2 $
14840KMKG MKG20050420051510504/20/05 05:15:31  5-MIN KMKG 201015Z 27011KT 10SM BKN026 OVC032 14/13  A2977 770 90 900 270/11 RMK AO2 $
14840KMKG MKG20050420052011104/20/05 05:20:31  5-MIN KMKG 201020Z 23014G19KT 10SM BKN026 OVC031 14/13  A2977 770 90 900 240/14G19 RMK AO2 $
14840KMKG MKG20050420052511104/20/05 05:25:31  5-MIN KMKG 201025Z 24014G19KT 10SM BKN026 OVC031 14/13  A2978 760 90 900 240/14G19 RMK AO2 $
14840KMKG MKG20050420053009804/20/05 05:30:31  5-MIN KMKG 201030Z 25013KT 10SM OVC026 14/13 A2978 760  90 900 260/13 RMK AO2 $
14840KMKG MKG20050420053509804/20/05 05:35:31  5-MIN KMKG 201035Z 25009KT 10SM OVC024 14/13 A2978 760  90 900 250/09 RMK AO2 $
14840KMKG MKG20050420054009804/20/05 05:40:31  5-MIN KMKG 201040Z 24008KT 10SM OVC024 14/13 A2978 760  90 900 240/08 RMK AO2 $
14840KMKG MKG20050420054509804/20/05 05:45:31  5-MIN KMKG 201045Z 25009KT 10SM OVC024 14/13 A2978 760  90 900 250/09 RMK AO2 $
14840KMKG MKG20050420055011304/20/05 05:50:31  5-MIN KMKG 201050Z 24008KT 9SM OVC022 14/13 A2978 760 90 900 250/08 RMK AO2 SLP084 T01440130 $
14840KMKG MKG20050420055511304/20/05 05:55:31  5-MIN KMKG 201055Z 24008KT 9SM OVC022 14/13 A2978 760 90 900 240/08 RMK AO2 SLP083 T01440130 $
14840KMKG MKG20050420060011504/20/05 06:00:31  5-MIN KMKG 201100Z 24009KT 9SM -RA OVC020 12/11 A2978  760 96 600 250/09 RMK AO2 RAB1058 P0000 $
14840KMKG MKG20050420060511604/20/05 06:05:31  5-MIN KMKG 201105Z 25009KT 10SM -RA OVC019 12/11 A2978  760 96 600 250/09 RMK AO2 RAB1058 P0000 $
14840KMKG MKG20050420061011504/20/05 06:10:31  5-MIN KMKG 201110Z 26009KT 10SM OVC017 12/11 A2978 760  96 600 260/09 RMK AO2 RAB1058E09 P0000 $
14840KMKG MKG20050420061511504/20/05 06:15:31  5-MIN KMKG 201115Z 25012KT 10SM OVC017 12/11 A2978 760  93 600 250/12 RMK AO2 RAB1058E09 P0000 $
14840KMKG MKG20050420062011504/20/05 06:20:31  5-MIN KMKG 201120Z 25010KT 10SM OVC015 13/12 A2978 760  93 700 250/10 RMK AO2 RAB1058E09 P0000 $
14840KMKG MKG20050420062511504/20/05 06:25:31  5-MIN KMKG 201125Z 25011KT 10SM OVC015 13/12 A2978 760  93 700 250/11 RMK AO2 RAB1058E09 P0000 $
14840KMKG MKG20050420063011504/20/05 06:30:31  5-MIN KMKG 201130Z 26011KT 10SM OVC015 13/12 A2978 760  93 700 260/11 RMK AO2 RAB1058E09 P0000 $
14840KMKG MKG20050420063511504/20/05 06:35:31  5-MIN KMKG 201135Z 26009KT 10SM OVC015 13/12 A2979 750  93 700 260/09 RMK AO2 RAB1058E09 P0000 $
14840KMKG MKG20050420064011304/20/05 06:40:31  5-MIN KMKG 201140Z 25010KT 9SM OVC013 13/12 A2979 750 93 700 250/10 RMK AO2 RAB1058E09 P0000 $
14840KMKG MKG20050420064511304/20/05 06:45:31  5-MIN KMKG 201145Z 25010KT 8SM OVC013 12/11 A2979 750 93 600 260/10 RMK AO2 RAB1058E09 P0000 $
14840KMKG MKG20050420065016104/20/05 06:50:31  5-MIN KMKG 201150Z 26008KT 7SM OVC013 12/11 A2979 750 93 600 260/08 RMK AO2 RAB1058E09 SLP088 P0000 60006 70011 T01220111 10172  20117 55000 $
14840KMKG MKG20050420065516304/20/05 06:55:31  5-MIN KMKG 201155Z 25009KT 6SM BR OVC013 12/12 A2979 750 96 600 260/09 RMK AO2 RAB1058E09 SLP088 P0000 60006 70011 T01220117 10172 20117 53003 $
14840KMKG MKG20050420070009904/20/05 07:00:31  5-MIN KMKG 201200Z 26010KT 6SM BR OVC011 12/11 A2980 750 93 600 260/10 RMK AO2 $
14840KMKG MKG20050420070510704/20/05 07:05:31  5-MIN KMKG 201205Z 27009KT 5SM BR SCT009 OVC014 12/11  A2980 740 96 600 270/09 RMK AO2 $
14840KMKG MKG20050420071012204/20/05 07:10:31  5-MIN KMKG 201210Z 27010KT 5SM BR SCT005 OVC010 12/11  A2980 740 96 600 280/10 RMK AO2 CIG 005 RWY 14 $
14840KMKG MKG20050420071510704/20/05 07:15:31  5-MIN KMKG 201215Z 30011KT 4SM BR BKN005 OVC010 12/11  A2980 740 96 600 300/11 RMK AO2 $
14840KMKG MKG20050420072010704/20/05 07:20:31  5-MIN KMKG 201220Z 27009KT 3SM BR BKN003 OVC010 11/11  A2980 740 96 500 280/09 RMK AO2 $
14840KMKG MKG20050420072512304/20/05 07:25:31  5-MIN KMKG 201225Z 26009KT 2 1/2SM BR BKN003 OVC010  11/11 A2980 740 96 500 270/09 RMK AO2 CIG 002V007 $
14840KMKG MKG20050420073011204/20/05 07:30:31  5-MIN KMKG 201230Z 29010KT 2SM BR OVC003 11/11 A2981 730 100 400 290/10 RMK AO2 CIG 002V007 $
14840KMKG MKG20050420073510004/20/05 07:35:31  5-MIN KMKG 201235Z 29010KT 1SM BR OVC003 10/10 A2981 730 100 300 290/10 RMK AO2 $
14840KMKG MKG20050420074011504/20/05 07:40:31  5-MIN KMKG 201240Z 29007KT 1/2SM FG OVC003 10/10 A2981  730 100 300 290/07 RMK AO2 TWR VIS 3/4 $
14840KMKG MKG20050420074510304/20/05 07:45:31  5-MIN KMKG 201245Z 29007KT 1/4SM FG OVC003 10/10 A2981  730 100 300 290/07 RMK AO2 $
14840KMKG MKG20050420075012004/20/05 07:50:31  5-MIN KMKG 201250Z 28005KT 1/4SM FG OVC003 10/10 A2981  730 100 300 290/05 RMK AO2 SLP095 T01000100 $
14840KMKG MKG20050420075513204/20/05 07:55:31  5-MIN KMKG 201255Z 30004KT 1/4SM FG OVC003 10/10 A2982  730 100 300 300/04 RMK AO2 SFC VIS 1/2 SLP096 T01000100 $
14840KMKG MKG20050420080011504/20/05 08:00:31  5-MIN KMKG 201300Z 28004KT 1/4SM BR OVC003 10/10 A2982  730 100 300 280/04 RMK AO2 SFC VIS 3/4 $
14840KMKG MKG20050420080510404/20/05 08:05:31  5-MIN KMKG 201305Z 24003KT 1 1/2SM BR OVC003 10/10 A2982 720 100 300 250/03 RMK AO2 $
14840KMKG MKG20050420081011804/20/05 08:10:31  5-MIN KMKG 201310Z 27005KT 1 1/2SM BR OVC003 10/10 A2982 720 100 300 270/05 RMK AO2 SFC VIS 2 1/2 $
14840KMKG MKG20050420081511804/20/05 08:15:31  5-MIN KMKG 201315Z 28005KT 1 1/2SM BR OVC003 10/10 A2983 720 100 300 280/05 RMK AO2 SFC VIS 2 1/2 $
14840KMKG MKG20050420082011804/20/05 08:20:31  5-MIN KMKG 201320Z 26004KT 3SM BR BKN003 OVC018 10/10  A2983 710 100 300 270/04 RMK AO2 SFC VIS 3 $
14840KMKG MKG20050420082511804/20/05 08:25:31  5-MIN KMKG 201325Z 27005KT 3SM BR BKN003 OVC020 10/10  A2983 710 100 300 280/05 RMK AO2 SFC VIS 4 $
14840KMKG MKG20050420083012904/20/05 08:30:31  5-MIN KMKG 201330Z 27007KT 3SM BR BKN003 OVC020 10/09  A2983 710 96 300 270/07 RMK AO2 SFC VIS 4 CIG 002V005 $
14840KMKG MKG20050420083512404/20/05 08:35:31  5-MIN KMKG 201335Z 27005KT 3SM BR BKN003 BKN020 OVC025  09/09 A2983 710 96 300 280/05 RMK AO2 SFC VIS 4 $
14840KMKG MKG20050420084013904/20/05 08:40:31  5-MIN KMKG 201340Z 28006KT 3SM BR SCT003 BKN020 OVC031  09/09 A2983 710 96 300 280/06 RMK AO2 SFC VIS 4 CIG 003 RWY 14 $
14840KMKG MKG20050420084512904/20/05 08:45:31  5-MIN KMKG 201345Z 28007KT 4SM BR FEW005 BKN027 OVC032  10/09 A2983 710 93 300 290/07 RMK AO2 CIG 003 RWY 14 $
14840KMKG MKG20050420085013104/20/05 08:50:31  5-MIN KMKG 201350Z 29007KT 5SM BR FEW005 BKN027 OVC032  10/09 A2984 710 93 300 290/07 RMK AO2 SLP103 T01000089 $
14840KMKG MKG20050420085513104/20/05 08:55:31  5-MIN KMKG 201355Z 29007KT 5SM BR FEW005 SCT024 OVC032  10/09 A2984 700 93 300 300/07 RMK AO2 SLP104 T01000089 $
14840KMKG MKG20050420090010704/20/05 09:00:31  5-MIN KMKG 201400Z 30005KT 4SM BR FEW025 OVC032 10/09  A2984 700 93 300 300/05 RMK AO2 $
14840KMKG MKG20050420090510704/20/05 09:05:31  5-MIN KMKG 201405Z 27005KT 4SM BR FEW027 OVC034 10/09  A2984 700 93 300 270/05 RMK AO2 $
14840KMKG MKG20050420091009904/20/05 09:10:31  5-MIN KMKG 201410Z 27006KT 5SM BR OVC034 10/09 A2984 700 96 300 280/06 RMK AO2 $
14840KMKG MKG20050420091509904/20/05 09:15:31  5-MIN KMKG 201415Z 27005KT 5SM BR OVC034 10/09 A2985 700 96 300 270/05 RMK AO2 $
14840KMKG MKG20050420092009904/20/05 09:20:31  5-MIN KMKG 201420Z 28005KT 5SM BR BKN036 11/09 A2985 690 93 400 280/05 RMK AO2 $
14840KMKG MKG20050420092510704/20/05 09:25:31  5-MIN KMKG 201425Z 29006KT 5SM BR BKN036 BKN046 11/10  A2985 690 93 400 290/06 RMK AO2 $
14840KMKG MKG20050420093011404/20/05 09:30:31  5-MIN KMKG 201430Z 30006KT 6SM BR FEW008 BKN036 BKN046  12/10 A2985 690 89 500 310/06 RMK AO2 $
14840KMKG MKG20050420093511404/20/05 09:35:31  5-MIN KMKG 201435Z 29004KT 6SM BR FEW008 BKN036 BKN046  12/10 A2985 690 86 600 300/04 RMK AO2 $
14840KMKG MKG20050420094010704/20/05 09:40:31  5-MIN KMKG 201440Z 29004KT 6SM HZ FEW008 SCT046 13/10  A2986 690 83 600 290/04 RMK AO2 $
14840KMKG MKG20050420094509904/20/05 09:45:31  5-MIN KMKG 201445Z VRB04KT 6SM HZ FEW008 13/11 A2986 690 83 700 VRB/04 RMK AO2 $
14840KMKG MKG20050420095013004/20/05 09:50:31  5-MIN KMKG 201450Z 31006KT 6SM HZ FEW008 SCT055 13/11  A2986 690 83 700 310/06 RMK AO2 SLP110 T01330106 53003 $
14840KMKG MKG20050420095512604/20/05 09:55:31  5-MIN KMKG 201455Z 32007KT 7SM FEW008 SCT055 14/11 A2986 680 80 800 330/07 RMK AO2 SLP111 T01440111 53024 $
14840KMKG MKG20050420100009604/20/05 10:00:31  5-MIN KMKG 201500Z VRB05KT 7SM FEW060 15/12 A2987 680 80 900 VRB/05 RMK AO2 $
14840KMKG MKG20050420100509604/20/05 10:05:31  5-MIN KMKG 201505Z 29007KT 8SM FEW060 16/12 A2987 680 77 900 290/07 RMK AO2 $
14840KMKG MKG20050420101010304/20/05 10:10:31  5-MIN KMKG 201510Z 30006KT 8SM FEW013 SCT060 16/12 A2987 680 77 900 300/06 RMK AO2 $
14840KMKG MKG20050420101510304/20/05 10:15:31  5-MIN KMKG 201515Z 25007KT 9SM FEW013 SCT060 15/11 A2987 680 77 900 260/07 RMK AO2 $
14840KMKG MKG20050420102009804/20/05 10:20:31  5-MIN KMKG 201520Z 26008KT 10SM FEW013 14/11 A2987 670  77 800 260/08 RMK AO2 $
14840KMKG MKG20050420102510504/20/05 10:25:31  5-MIN KMKG 201525Z 28007KT 10SM FEW013 SCT070 14/11  A2988 670 77 800 280/07 RMK AO2 $
14840KMKG MKG20050420103010504/20/05 10:30:31  5-MIN KMKG 201530Z 27007KT 10SM FEW015 SCT070 14/11  A2988 670 77 800 270/07 RMK AO2 $
14840KMKG MKG20050420103510504/20/05 10:35:31  5-MIN KMKG 201535Z 27006KT 10SM SCT015 SCT075 14/11  A2988 670 77 800 280/06 RMK AO2 $
14840KMKG MKG20050420104012004/20/05 10:40:31  5-MIN KMKG 201540Z 29007KT 10SM SCT017 BKN075 14/11  A2988 670 77 800 290/07 RMK AO2 CIG 015 RWY 14 $
14840KMKG MKG20050420104510504/20/05 10:45:31  5-MIN KMKG 201545Z 29006KT 10SM SCT017 SCT075 15/11  A2988 670 74 900 290/06 RMK AO2 $
14840KMKG MKG20050420105011504/20/05 10:50:31  5-MIN KMKG 201550Z 31006KT 10SM SCT017 15/11 A2988 660  74 900 310/06 RMK AO2 SLP118 T01500106 $
14840KMKG MKG20050420105511504/20/05 10:55:31  5-MIN KMKG 201555Z 28005KT 10SM BKN017 15/11 A2989 660  74 900 290/05 RMK AO2 SLP119 T01500106 $
14840KMKG MKG20050420110009804/20/05 11:00:31  5-MIN KMKG 201600Z 29008KT 10SM BKN017 15/11 A2989 660  74 900 300/08 RMK AO2 $
14840KMKG MKG20050420110509804/20/05 11:05:31  5-MIN KMKG 201605Z 31009KT 10SM BKN017 15/11 A2988 660  77 900 320/09 RMK AO2 $
14840KMKG MKG20050420111009804/20/05 11:10:31  5-MIN KMKG 201610Z 31008KT 10SM BKN017 16/11 A2989 660  74 900 320/08 RMK AO2 $
14840KMKG MKG20050420111509804/20/05 11:15:31  5-MIN KMKG 201615Z 31010KT 10SM BKN017 16/11 A2989 660  74 900 320/10 RMK AO2 $
14840KMKG MKG20050420112009804/20/05 11:20:31  5-MIN KMKG 201620Z 30008KT 10SM OVC017 16/11 A2989 660  74 900 310/08 RMK AO2 $
14840KMKG MKG20050420112509804/20/05 11:25:31  5-MIN KMKG 201625Z 30010KT 10SM OVC017 16/11 A2988 660  74 900 300/10 RMK AO2 $
14840KMKG MKG20050420113009804/20/05 11:30:31  5-MIN KMKG 201630Z 30010KT 10SM OVC017 15/11 A2988 660  77 900 310/10 RMK AO2 $
14840KMKG MKG20050420113509804/20/05 11:35:31  5-MIN KMKG 201635Z 30009KT 10SM OVC017 15/11 A2989 660  77 900 310/09 RMK AO2 $
14840KMKG MKG20050420114009804/20/05 11:40:31  5-MIN KMKG 201640Z 31008KT 10SM OVC017 16/11 A2989 660  74 900 310/08 RMK AO2 $
14840KMKG MKG20050420114509804/20/05 11:45:31  5-MIN KMKG 201645Z 31009KT 10SM OVC017 16/11 A2989 660  74 900 310/09 RMK AO2 $
14840KMKG MKG20050420115011304/20/05 11:50:31  5-MIN KMKG 201650Z 30009KT 10SM BKN017 16/11 A2989 650  74 900 310/09 RMK AO2 SLP123 T01560111
14840KMKG MKG20050420115511404/20/05 11:55:31  5-MIN KMKG 201655Z 31007KT 10SM BKN017 16/11 A2989 650  72 1000 320/07 RMK AO2 SLP122 T01610111
14840KMKG MKG20050420120009704/20/05 12:00:31  5-MIN KMKG 201700Z 32009KT 10SM BKN017 16/11 A2990 650  72 1000 320/09 RMK AO2
14840KMKG MKG20050420120509704/20/05 12:05:31  5-MIN KMKG 201705Z 30006KT 10SM SCT017 16/11 A2990 650  72 1000 300/06 RMK AO2
14840KMKG MKG20050420121009704/20/05 12:10:31  5-MIN KMKG 201710Z 26007KT 10SM SCT017 16/11 A2990 650  69 1000 270/07 RMK AO2
14840KMKG MKG20050420121509604/20/05 12:15:31  5-MIN KMKG 201715Z 27009KT 10SM FEW017 16/10 A2990 650  69 900 270/09 RMK AO2
14840KMKG MKG20050420122009604/20/05 12:20:31  5-MIN KMKG 201720Z 27009KT 10SM FEW017 15/09 A2990 650  69 800 280/09 RMK AO2
14840KMKG MKG20050420122509604/20/05 12:25:31  5-MIN KMKG 201725Z 27010KT 10SM FEW017 14/09 A2990 650  72 800 270/10 RMK AO2
14840KMKG MKG20050420123009604/20/05 12:30:31  5-MIN KMKG 201730Z 28009KT 10SM FEW017 14/09 A2990 650  72 800 280/09 RMK AO2
14840KMKG MKG20050420123509704/20/05 12:35:31  5-MIN KMKG 201735Z 27009KT 2SM HZ FEW017 15/09 A2991 640 69 800 280/09 RMK AO2
14840KMKG MKG20050420124009604/20/05 12:40:31  5-MIN KMKG 201740Z 28008KT 10SM SCT017 15/09 A2991 640  69 800 290/08 RMK AO2
14840KMKG MKG20050420124509604/20/05 12:45:31  5-MIN KMKG 201745Z 29008KT 10SM SCT017 16/09 A2990 640  67 900 290/08 RMK AO2
14840KMKG MKG20050420125014704/20/05 12:50:31  5-MIN KMKG 201750Z 30007KT 270V330 10SM SCT017 16/09  A2990 650 67 900 300/07 270V330 RMK AO2 SLP126 T01560094 10161 20094 53024
14840KMKG MKG20050420125513104/20/05 12:55:31  5-MIN KMKG 201755Z 28008KT 10SM SCT017 16/09 A2990 650  67 900 290/08 RMK AO2 SLP126 T01560094 10161 20094 51013
14840KMKG MKG20050420130009604/20/05 13:00:31  5-MIN KMKG 201800Z 31007KT 10SM SCT017 16/10 A2990 650  69 900 310/07 RMK AO2
14840KMKG MKG20050420130509604/20/05 13:05:31  5-MIN KMKG 201805Z 30007KT 10SM SCT017 16/10 A2991 640  69 900 310/07 RMK AO2
14840KMKG MKG20050420131009604/20/05 13:10:31  5-MIN KMKG 201810Z 29009KT 10SM SCT017 16/09 A2991 640  67 900 290/09 RMK AO2
14840KMKG MKG20050420131509704/20/05 13:15:31  5-MIN KMKG 201815Z 29008KT 10SM SCT017 16/10 A2991 640  67 1000 300/08 RMK AO2
14840KMKG MKG20050420132009704/20/05 13:20:31  5-MIN KMKG 201820Z 28007KT 10SM SCT017 16/10 A2991 640  67 1000 280/07 RMK AO2
14840KMKG MKG20050420132509704/20/05 13:25:31  5-MIN KMKG 201825Z 28008KT 10SM SCT017 17/10 A2991 640  64 1000 290/08 RMK AO2
14840KMKG MKG20050420133009704/20/05 13:30:31  5-MIN KMKG 201830Z 28007KT 10SM SCT017 16/09 A2991 640  64 1000 280/07 RMK AO2
14840KMKG MKG20050420133509704/20/05 13:35:31  5-MIN KMKG 201835Z 28009KT 10SM SCT017 17/10 A2991 640  64 1000 280/09 RMK AO2
14840KMKG MKG20050420134009704/20/05 13:40:31  5-MIN KMKG 201840Z 28009KT 10SM SCT017 16/10 A2991 640  67 1000 290/09 RMK AO2
14840KMKG MKG20050420134509704/20/05 13:45:31  5-MIN KMKG 201845Z 28009KT 10SM SCT017 17/10 A2991 640  64 1000 290/09 RMK AO2
14840KMKG MKG20050420135011404/20/05 13:50:31  5-MIN KMKG 201850Z 28008KT 10SM SCT017 17/10 A2991 640  64 1000 290/08 RMK AO2 SLP128 T01670100
14840KMKG MKG20050420135511404/20/05 13:55:31  5-MIN KMKG 201855Z 27007KT 10SM SCT017 17/10 A2991 640  64 1000 280/07 RMK AO2 SLP129 T01670100
14840KMKG MKG20050420140009704/20/05 14:00:31  5-MIN KMKG 201900Z 27008KT 10SM SCT017 17/10 A2991 640  64 1000 280/08 RMK AO2
14840KMKG MKG20050420140509604/20/05 14:05:31  5-MIN KMKG 201905Z 28009KT 10SM SCT017 16/09 A2992 630  64 900 280/09 RMK AO2
14840KMKG MKG20050420141009704/20/05 14:10:31  5-MIN KMKG 201910Z 28009KT 10SM SCT017 17/09 A2992 630  62 1000 290/09 RMK AO2
14840KMKG MKG20050420141509604/20/05 14:15:31  5-MIN KMKG 201915Z 29010KT 10SM SCT017 16/09 A2992 630  64 900 290/10 RMK AO2
14840KMKG MKG20050420142009604/20/05 14:20:31  5-MIN KMKG 201920Z 29009KT 10SM SCT017 16/09 A2992 630  64 900 290/09 RMK AO2
14840KMKG MKG20050420142509604/20/05 14:25:31  5-MIN KMKG 201925Z 26010KT 10SM SCT017 16/09 A2993 630  67 900 260/10 RMK AO2
14840KMKG MKG20050420143009604/20/05 14:30:31  5-MIN KMKG 201930Z 26008KT 10SM SCT028 16/09 A2993 620  64 900 260/08 RMK AO2
14840KMKG MKG20050420143509604/20/05 14:35:31  5-MIN KMKG 201935Z 26008KT 10SM SCT028 16/09 A2993 630  64 900 260/08 RMK AO2
14840KMKG MKG20050420144009604/20/05 14:40:31  5-MIN KMKG 201940Z 27007KT 10SM SCT028 16/09 A2993 620  64 900 280/07 RMK AO2
14840KMKG MKG20050420144509704/20/05 14:45:31  5-MIN KMKG 201945Z 30006KT 10SM SCT028 17/09 A2993 630  62 1000 310/06 RMK AO2
14840KMKG MKG20050420145011404/20/05 14:50:31  5-MIN KMKG 201950Z 28006KT 10SM SCT028 17/09 A2992 630  60 1100 290/06 RMK AO2 SLP133 T01720094
14840KMKG MKG20050420145511404/20/05 14:55:31  5-MIN KMKG 201955Z 31007KT 10SM SCT028 17/10 A2992 630  62 1100 320/07 RMK AO2 SLP133 T01720100
14840KMKG MKG20050420150009704/20/05 15:00:31  5-MIN KMKG 202000Z 29007KT 10SM SCT031 17/09 A2992 630  62 1000 300/07 RMK AO2
14840KMKG MKG20050420150509704/20/05 15:05:31  5-MIN KMKG 202005Z 32007KT 10SM BKN033 17/09 A2992 630  62 1000 320/07 RMK AO2
14840KMKG MKG20050420151009704/20/05 15:10:31  5-MIN KMKG 202010Z 30007KT 10SM BKN031 17/09 A2992 630  62 1000 300/07 RMK AO2
14840KMKG MKG20050420151509604/20/05 15:15:31  5-MIN KMKG 202015Z 29007KT 10SM BKN031 16/09 A2993 620  64 900 300/07 RMK AO2
14840KMKG MKG20050420152009704/20/05 15:20:31  5-MIN KMKG 202020Z 30007KT 10SM BKN031 17/09 A2992 630  62 1000 310/07 RMK AO2
14840KMKG MKG20050420152510604/20/05 15:25:31  5-MIN KMKG 202025Z AUTO 30007KT 10SM OVC029 17/09 A2993 630 62 1000 300/07 RMK AO2 TSNO
14840KMKG MKG20050420153009704/20/05 15:30:31  5-MIN KMKG 202030Z 28008KT 10SM OVC029 17/09 A2993 620  62 1000 290/08 RMK AO2
14840KMKG MKG20050420153509604/20/05 15:35:31  5-MIN KMKG 202035Z 30008KT 10SM OVC029 16/09 A2993 620  64 900 300/08 RMK AO2
14840KMKG MKG20050420154009604/20/05 15:40:31  5-MIN KMKG 202040Z 30006KT 10SM OVC029 16/09 A2993 630  64 900 300/06 RMK AO2
14840KMKG MKG20050420154509704/20/05 15:45:31  5-MIN KMKG 202045Z 32007KT 10SM OVC029 17/09 A2992 630  62 1000 320/07 RMK AO2
14840KMKG MKG20050420155012004/20/05 15:50:31  5-MIN KMKG 202050Z 36008KT 10SM BKN029 17/10 A2993 630  64 1000 360/08 RMK AO2 SLP133 T01670100 51013
14840KMKG MKG20050420155512604/20/05 15:55:31  5-MIN KMKG 202055Z 01012G16KT 10SM BKN029 17/11 A2993  620 67 1100 010/12G16 RMK AO2 SLP134 T01720111 51008
14840KMKG MKG20050420160010304/20/05 16:00:31  5-MIN KMKG 202100Z 01011G16KT 10SM OVC029 17/11 A2993  620 67 1100 010/11G16 RMK AO2
14840KMKG MKG20050420160509704/20/05 16:05:31  5-MIN KMKG 202105Z 36009KT 10SM OVC029 17/11 A2993 620  67 1100 360/09 RMK AO2
14840KMKG MKG20050420161010404/20/05 16:10:31  5-MIN KMKG 202110Z 01009KT 10SM BKN029 OVC034 18/11  A2994 620 64 1100 010/09 RMK AO2
14840KMKG MKG20050420161509704/20/05 16:15:31  5-MIN KMKG 202115Z 01011KT 10SM OVC029 18/11 A2993 620  64 1100 010/11 RMK AO2
14840KMKG MKG20050420162009704/20/05 16:20:31  5-MIN KMKG 202120Z 02011KT 10SM OVC027 17/11 A2993 620  64 1100 030/11 RMK AO2
14840KMKG MKG20050420162509704/20/05 16:25:31  5-MIN KMKG 202125Z 01012KT 10SM OVC027 18/11 A2993 620  64 1100 020/12 RMK AO2
14840KMKG MKG20050420163009704/20/05 16:30:31  5-MIN KMKG 202130Z 02012KT 10SM OVC027 17/11 A2994 610  67 1100 020/12 RMK AO2
14840KMKG MKG20050420163509704/20/05 16:35:31  5-MIN KMKG 202135Z 01013KT 10SM BKN029 17/11 A2994 610  67 1100 020/13 RMK AO2
14840KMKG MKG20050420164009704/20/05 16:40:31  5-MIN KMKG 202140Z 36013KT 10SM BKN029 17/11 A2994 610  67 1100 360/13 RMK AO2
14840KMKG MKG20050420164510404/20/05 16:45:31  5-MIN KMKG 202145Z 01013KT 10SM FEW022 BKN029 17/11  A2994 610 67 1100 010/13 RMK AO2
14840KMKG MKG20050420165013604/20/05 16:50:31  5-MIN KMKG 202150Z 01015KT 10SM SCT022 BKN029 17/11  A2994 610 69 1000 010/15 RMK AO2 CIG 022 RWY 14 SLP139 T01670111
14840KMKG MKG20050420165513604/20/05 16:55:31  5-MIN KMKG 202155Z 02015KT 10SM SCT019 BKN027 17/11  A2995 610 69 1000 020/15 RMK AO2 CIG 020 RWY 14 SLP140 T01670111
14840KMKG MKG20050420170010304/20/05 17:00:31  5-MIN KMKG 202200Z 03015KT 10SM BKN019 BKN027 16/11  A2995 600 74 900 030/15 RMK AO2
14840KMKG MKG20050420170509604/20/05 17:05:31  5-MIN KMKG 202205Z 02012KT 10SM BKN019 16/11 A2995 600  74 800 030/12 RMK AO2
14840KMKG MKG20050420171010204/20/05 17:10:31  5-MIN KMKG 202210Z 04014G18KT 10SM BKN019 16/11 A2995  600 72 800 040/14G18 RMK AO2
14840KMKG MKG20050420171510204/20/05 17:15:31  5-MIN KMKG 202215Z 02014G20KT 10SM OVC017 14/11 A2995  600 77 700 020/14G20 RMK AO2
14840KMKG MKG20050420172010204/20/05 17:20:31  5-MIN KMKG 202220Z 03013G20KT 10SM OVC017 14/11 A2995  600 77 700 030/13G20 RMK AO2
14840KMKG MKG20050420172510204/20/05 17:25:31  5-MIN KMKG 202225Z 04011G18KT 10SM OVC017 14/10 A2996  600 77 600 040/11G18 RMK AO2
14840KMKG MKG20050420173010204/20/05 17:30:31  5-MIN KMKG 202230Z 03014G18KT 10SM OVC015 14/11 A2996  600 80 600 030/14G18 RMK AO2
14840KMKG MKG20050420173509604/20/05 17:35:31  5-MIN KMKG 202235Z 02012KT 10SM OVC015 13/10 A2996 590  80 600 020/12 RMK AO2
14840KMKG MKG20050420174009604/20/05 17:40:31  5-MIN KMKG 202240Z 03014KT 10SM OVC013 13/10 A2996 590  80 600 030/14 RMK AO2
14840KMKG MKG20050420174509604/20/05 17:45:31  5-MIN KMKG 202245Z 03013KT 10SM OVC013 13/10 A2997 580  83 500 040/13 RMK AO2
14840KMKG MKG20050420175011304/20/05 17:50:31  5-MIN KMKG 202250Z 03011KT 10SM OVC013 13/10 A2997 580  83 500 040/11 RMK AO2 SLP150 T01280100
14840KMKG MKG20050420175511304/20/05 17:55:31  5-MIN KMKG 202255Z 02013KT 10SM OVC011 12/10 A2997 580  86 400 030/13 RMK AO2 SLP151 T01220100
14840KMKG MKG20050420180009604/20/05 18:00:31  5-MIN KMKG 202300Z 02012KT 10SM OVC011 12/09 A2997 580  83 400 030/12 RMK AO2
14840KMKG MKG20050420180510204/20/05 18:05:31  5-MIN KMKG 202305Z 02012G20KT 10SM OVC011 12/09 A2998  580 83 400 020/12G20 RMK AO2
14840KMKG MKG20050420181010004/20/05 18:10:31  5-MIN KMKG 202310Z 02011G20KT 9SM OVC011 12/09 A2998 580 83 400 020/11G20 RMK AO2
14840KMKG MKG20050420181509404/20/05 18:15:31  5-MIN KMKG 202315Z 02012KT 9SM OVC011 12/09 A2998 570 86 400 030/12 RMK AO2
14840KMKG MKG20050420182009404/20/05 18:20:31  5-MIN KMKG 202320Z 03012KT 9SM OVC011 12/09 A2998 570 86 400 040/12 RMK AO2
14840KMKG MKG20050420182509404/20/05 18:25:31  5-MIN KMKG 202325Z 04010KT 9SM OVC011 12/09 A2998 570 83 400 040/10 RMK AO2
14840KMKG MKG20050420183009404/20/05 18:30:31  5-MIN KMKG 202330Z 05011KT 9SM OVC011 12/09 A2999 570 86 300 050/11 RMK AO2
14840KMKG MKG20050420183509404/20/05 18:35:31  5-MIN KMKG 202335Z 02013KT 8SM OVC011 12/09 A2999 570 86 300 030/13 RMK AO2
14840KMKG MKG20050420184009404/20/05 18:40:31  5-MIN KMKG 202340Z 03014KT 7SM OVC011 12/09 A2999 570 86 300 030/14 RMK AO2
14840KMKG MKG20050420184509404/20/05 18:45:31  5-MIN KMKG 202345Z 04013KT 7SM OVC011 11/09 A2999 570 86 300 040/13 RMK AO2
14840KMKG MKG20050420185013504/20/05 18:50:31  5-MIN KMKG 202350Z 04013G19KT 8SM OVC011 11/09 A2999 560 86 300 050/13G19 RMK AO2 SLP158 T01110089 10178 20111 51008
14840KMKG MKG20050420185512904/20/05 18:55:31  5-MIN KMKG 202355Z 04015KT 8SM OVC011 11/09 A2999 560 86 300 040/15 RMK AO2 SLP159 T01110089 10178 20111 53022
14840KMKG MKG20050420190009404/20/05 19:00:31  5-MIN KMKG 210000Z 03012KT 8SM OVC013 11/08 A3000 560 83 300 030/12 RMK AO2
14840KMKG MKG20050420190509404/20/05 19:05:31  5-MIN KMKG 210005Z 03014KT 8SM OVC013 11/08 A3000 560 83 300 030/14 RMK AO2
14840KMKG MKG20050420191009404/20/05 19:10:31  5-MIN KMKG 210010Z 04010KT 8SM OVC013 11/08 A2999 560 83 300 040/10 RMK AO2
14840KMKG MKG20050420191509404/20/05 19:15:31  5-MIN KMKG 210015Z 04010KT 8SM OVC013 11/08 A2999 560 83 300 050/10 RMK AO2
14840KMKG MKG20050420192010004/20/05 19:20:31  5-MIN KMKG 210020Z 03013G18KT 9SM OVC013 11/08 A3000 560 83 300 040/13G18 RMK AO2
14840KMKG MKG20050420192510004/20/05 19:25:31  5-MIN KMKG 210025Z 02014G18KT 9SM OVC013 11/08 A3000 560 80 300 030/14G18 RMK AO2
14840KMKG MKG20050420193010004/20/05 19:30:31  5-MIN KMKG 210030Z 03015G19KT 9SM OVC013 11/08 A3000 550 80 300 040/15G19 RMK AO2
14840KMKG MKG20050420193510204/20/05 19:35:31  5-MIN KMKG 210035Z 03011G19KT 10SM OVC015 11/08 A3000  550 80 300 040/11G19 RMK AO2
14840KMKG MKG20050420194009604/20/05 19:40:31  5-MIN KMKG 210040Z 03013KT 10SM OVC015 11/08 A3001 550  80 300 030/13 RMK AO2
14840KMKG MKG20050420194510204/20/05 19:45:31  5-MIN KMKG 210045Z 04013G20KT 10SM OVC015 11/07 A3001  550 80 200 040/13G20 RMK AO2
14840KMKG MKG20050420195011904/20/05 19:50:31  5-MIN KMKG 210050Z 05014G20KT 10SM OVC015 11/07 A3001  540 80 200 060/14G20 RMK AO2 SLP166 T01060072
14840KMKG MKG20050420195511904/20/05 19:55:31  5-MIN KMKG 210055Z 05016G19KT 10SM OVC017 11/07 A3001  550 77 200 060/16G19 RMK AO2 SLP165 T01060067
14840KMKG MKG20050420200010204/20/05 20:00:31  5-MIN KMKG 210100Z 05012G19KT 10SM OVC017 11/07 A3001  540 77 200 060/12G19 RMK AO2
14840KMKG MKG20050420200509604/20/05 20:05:31  5-MIN KMKG 210105Z 04012KT 10SM OVC019 11/07 A3002 540  77 200 050/12 RMK AO2
14840KMKG MKG20050420201009604/20/05 20:10:31  5-MIN KMKG 210110Z 05014KT 10SM OVC019 11/06 A3002 540  74 200 060/14 RMK AO2
14840KMKG MKG20050420201509604/20/05 20:15:31  5-MIN KMKG 210115Z 04011KT 10SM OVC019 11/06 A3003 530  74 200 040/11 RMK AO2
14840KMKG MKG20050420202009604/20/05 20:20:31  5-MIN KMKG 210120Z 04010KT 10SM OVC019 11/06 A3003 530  74 200 040/10 RMK AO2
14840KMKG MKG20050420202510204/20/05 20:25:31  5-MIN KMKG 210125Z 03014G18KT 10SM OVC019 11/06 A3003  530 74 200 030/14G18 RMK AO2
14840KMKG MKG20050420203009604/20/05 20:30:31  5-MIN KMKG 210130Z 04013KT 10SM OVC019 11/06 A3003 530  74 200 050/13 RMK AO2
14840KMKG MKG20050420203509604/20/05 20:35:31  5-MIN KMKG 210135Z 05015KT 10SM OVC019 10/06 A3003 520  77 100 060/15 RMK AO2
14840KMKG MKG20050420204009604/20/05 20:40:31  5-MIN KMKG 210140Z 05015KT 10SM OVC019 10/06 A3003 530  77 100 060/15 RMK AO2
14840KMKG MKG20050420204509604/20/05 20:45:31  5-MIN KMKG 210145Z 05012KT 10SM OVC019 10/06 A3003 530  77 100 050/12 RMK AO2
14840KMKG MKG20050420205011304/20/05 20:50:31  5-MIN KMKG 210150Z 05010KT 10SM OVC019 10/06 A3003 520  77 100 050/10 RMK AO2 SLP173 T01000061
14840KMKG MKG20050420205511304/20/05 20:55:31  5-MIN KMKG 210155Z 06011KT 10SM OVC019 10/06 A3004 520  77 100 060/11 RMK AO2 SLP175 T01000061
14840KMKG MKG20050420210009604/20/05 21:00:31  5-MIN KMKG 210200Z 06011KT 10SM OVC019 10/06 A3004 520  74 100 060/11 RMK AO2
14840KMKG MKG20050420210509604/20/05 21:05:31  5-MIN KMKG 210205Z 06009KT 10SM OVC019 10/06 A3004 520  74 100 060/09 RMK AO2
14840KMKG MKG20050420211009604/20/05 21:10:31  5-MIN KMKG 210210Z 04008KT 10SM OVC019 10/06 A3005 510  77 100 040/08 RMK AO2
14840KMKG MKG20050420211510204/20/05 21:15:31  5-MIN KMKG 210215Z 04010G14KT 10SM OVC019 10/06 A3005  510 74 100 050/10G14 RMK AO2
14840KMKG MKG20050420212010204/20/05 21:20:31  5-MIN KMKG 210220Z 03010G17KT 10SM OVC021 10/06 A3005  510 74 100 030/10G17 RMK AO2
14840KMKG MKG20050420212509604/20/05 21:25:31  5-MIN KMKG 210225Z 04011KT 10SM OVC021 10/06 A3005 510  77 100 040/11 RMK AO2
14840KMKG MKG20050420213009604/20/05 21:30:31  5-MIN KMKG 210230Z 04013KT 10SM OVC021 10/06 A3005 510  74 100 040/13 RMK AO2
14840KMKG MKG20050420213509604/20/05 21:35:31  5-MIN KMKG 210235Z 03014KT 10SM OVC021 10/06 A3005 510  74 100 040/14 RMK AO2
14840KMKG MKG20050420214010204/20/05 21:40:31  5-MIN KMKG 210240Z 04010G18KT 10SM OVC021 10/06 A3006  500 74 100 040/10G18 RMK AO2
14840KMKG MKG20050420214509604/20/05 21:45:31  5-MIN KMKG 210245Z 04011KT 10SM OVC021 10/06 A3006 500  74 100 040/11 RMK AO2
14840KMKG MKG20050420215011904/20/05 21:50:31  5-MIN KMKG 210250Z 06009KT 10SM OVC021 10/06 A3006 500  74 100 060/09 RMK AO2 SLP182 T01000056 53022
14840KMKG MKG20050420215511904/20/05 21:55:31  5-MIN KMKG 210255Z 05010KT 10SM OVC021 10/06 A3007 500  74 100 060/10 RMK AO2 SLP183 T01000056 53024
14840KMKG MKG20050420220010204/20/05 22:00:31  5-MIN KMKG 210300Z 05007G15KT 10SM OVC021 10/06 A3007  500 74 100 050/07G15 RMK AO2
14840KMKG MKG20050420220510304/20/05 22:05:31  5-MIN KMKG 210305Z 06006KT 10SM BKN021 OVC027 10/06  A3007 490 74 100 060/06 RMK AO2
14840KMKG MKG20050420221010104/20/05 22:10:31  5-MIN KMKG 210310Z 05010KT 10SM BKN021 OVC027 10/06  A3007 490 74 0 060/10 RMK AO2
14840KMKG MKG20050420221509404/20/05 22:15:31  5-MIN KMKG 210315Z 06009KT 10SM OVC025 10/06 A3007 490  74 0 060/09 RMK AO2
14840KMKG MKG20050420222009604/20/05 22:20:31  5-MIN KMKG 210320Z 04008KT 10SM OVC027 10/06 A3007 490  74 100 050/08 RMK AO2
14840KMKG MKG20050420222509404/20/05 22:25:31  5-MIN KMKG 210325Z 05008KT 10SM OVC029 10/06 A3007 490  74 0 050/08 RMK AO2
14840KMKG MKG20050420223009404/20/05 22:30:31  5-MIN KMKG 210330Z 05007KT 10SM OVC029 10/06 A3007 490  74 0 060/07 RMK AO2
14840KMKG MKG20050420223509404/20/05 22:35:31  5-MIN KMKG 210335Z 06009KT 10SM OVC029 10/06 A3008 490  74 0 070/09 RMK AO2
14840KMKG MKG20050420224009404/20/05 22:40:31  5-MIN KMKG 210340Z 06008KT 10SM OVC031 10/06 A3008 490  74 0 060/08 RMK AO2
14840KMKG MKG20050420224509404/20/05 22:45:31  5-MIN KMKG 210345Z 05007KT 10SM OVC031 10/06 A3008 480  74 0 060/07 RMK AO2
14840KMKG MKG20050420225011104/20/05 22:50:31  5-MIN KMKG 210350Z 04008KT 10SM OVC031 10/06 A3008 480  74 0 040/08 RMK AO2 SLP188 T01000056
14840KMKG MKG20050420225511104/20/05 22:55:31  5-MIN KMKG 210355Z 06008KT 10SM OVC031 10/05 A3008 480  71 0 060/08 RMK AO2 SLP189 T01000050
14840KMKG MKG20050420230009404/20/05 23:00:31  5-MIN KMKG 210400Z 05007KT 10SM OVC029 10/05 A3009 480  71 0 060/07 RMK AO2
14840KMKG MKG20050420230509404/20/05 23:05:31  5-MIN KMKG 210405Z 04007KT 10SM OVC029 10/05 A3009 480  71 0 050/07 RMK AO2
14840KMKG MKG20050420231009404/20/05 23:10:31  5-MIN KMKG 210410Z 05008KT 10SM OVC026 10/05 A3009 480  71 0 050/08 RMK AO2
14840KMKG MKG20050420231509404/20/05 23:15:31  5-MIN KMKG 210415Z 05009KT 10SM OVC026 10/05 A3009 470  71 0 060/09 RMK AO2
14840KMKG MKG20050420232009404/20/05 23:20:31  5-MIN KMKG 210420Z 06010KT 10SM OVC026 10/05 A3009 470  71 0 070/10 RMK AO2
14840KMKG MKG20050420232509404/20/05 23:25:31  5-MIN KMKG 210425Z 05009KT 10SM OVC026 10/05 A3010 470  71 0 050/09 RMK AO2
14840KMKG MKG20050420233010004/20/05 23:30:31  5-MIN KMKG 210430Z 06011G16KT 10SM OVC026 10/04 A3010  470 68 0 060/11G16 RMK AO2
14840KMKG MKG20050420233510104/20/05 23:35:31  5-MIN KMKG 210435Z 07013KT 10SM BKN026 OVC031 10/04  A3010 460 65 0 070/13 RMK AO2
14840KMKG MKG20050420234010104/20/05 23:40:31  5-MIN KMKG 210440Z 06012KT 10SM BKN026 OVC031 10/04  A3010 460 65 0 070/12 RMK AO2
14840KMKG MKG20050420234510104/20/05 23:45:31  5-MIN KMKG 210445Z 05011KT 10SM SCT026 OVC031 10/03  A3010 460 63 0 060/11 RMK AO2
14840KMKG MKG20050420235012104/20/05 23:50:31  5-MIN KMKG 210450Z 05011KT 10SM OVC031 10/03 A3011 460  63 0 050/11 RMK AO2 SLP197 T01000033 401780050
14840KMKG MKG20050420235512104/20/05 23:55:31  5-MIN KMKG 210455Z 05009KT 10SM OVC031 10/03 A3011 460  63 0 050/09 RMK AO2 SLP196 T01000033 401780050
14840KMKG MKG20050421000009404/21/05 00:00:32  5-MIN KMKG 210500Z 05008KT 10SM OVC031 10/03 A3011 460  60 0 050/08 RMK AO2
14840KMKG MKG20050421000509404/21/05 00:05:31  5-MIN KMKG 210505Z 06010KT 10SM OVC031 10/03 A3011 460  63 0 070/10 RMK AO2
14840KMKG MKG20050421001009404/21/05 00:10:31  5-MIN KMKG 210510Z 05008KT 10SM OVC031 09/03 A3011 450  65 0 060/08 RMK AO2
14840KMKG MKG20050421001509404/21/05 00:15:31  5-MIN KMKG 210515Z 06007KT 10SM OVC031 09/03 A3011 450  65 0 060/07 RMK AO2
14840KMKG MKG20050421002009404/21/05 00:20:31  5-MIN KMKG 210520Z 05009KT 10SM OVC031 09/03 A3011 450  63 0 050/09 RMK AO2
14840KMKG MKG20050421002509404/21/05 00:25:31  5-MIN KMKG 210525Z 05010KT 10SM OVC031 09/03 A3012 450  63 0 050/10 RMK AO2
14840KMKG MKG20050421003009404/21/05 00:30:31  5-MIN KMKG 210530Z 05010KT 10SM OVC031 09/03 A3012 450  63 0 060/10 RMK AO2
14840KMKG MKG20050421003509404/21/05 00:35:31  5-MIN KMKG 210535Z 04008KT 10SM OVC033 09/03 A3012 440  63 0 040/08 RMK AO2
14840KMKG MKG20050421004009404/21/05 00:40:31  5-MIN KMKG 210540Z 05009KT 10SM OVC033 09/02 A3012 440  60 0 050/09 RMK AO2
14840KMKG MKG20050421004509704/21/05 00:45:31  5-MIN KMKG 210545Z 05009KT 10SM OVC033 09/02 A3013 440  63 -100 050/09 RMK AO2
14840KMKG MKG20050421005013204/21/05 00:50:31  5-MIN KMKG 210550Z 06009KT 10SM OVC033 09/02 A3013 440  63 -100 060/09 RMK AO2 SLP203 T00890022 10111 20089 53024
14840KMKG MKG20050421005513204/21/05 00:55:31  5-MIN KMKG 210555Z 05007KT 10SM OVC033 09/02 A3013 440  63 -100 060/07 RMK AO2 SLP203 T00890022 10111 20089 53020
14840KMKG MKG20050421010009704/21/05 01:00:31  5-MIN KMKG 210600Z 05008KT 10SM BKN033 08/02 A3013 440  65 -200 060/08 RMK AO2
14840KMKG MKG20050421010509704/21/05 01:05:31  5-MIN KMKG 210605Z 05007KT 10SM BKN033 08/02 A3012 440  65 -200 060/07 RMK AO2
14840KMKG MKG20050421011009704/21/05 01:10:31  5-MIN KMKG 210610Z 05008KT 10SM SCT033 08/02 A3013 440  65 -200 060/08 RMK AO2
14840KMKG MKG20050421011509704/21/05 01:15:31  5-MIN KMKG 210615Z 06008KT 10SM FEW033 08/02 A3013 440  65 -200 060/08 RMK AO2
14840KMKG MKG20050421012009704/21/05 01:20:31  5-MIN KMKG 210620Z 06007KT 10SM FEW033 08/02 A3013 440  68 -200 060/07 RMK AO2
14840KMKG MKG20050421012509404/21/05 01:25:31  5-MIN KMKG 210625Z 07007KT 10SM CLR 08/02 A3013 440 68  -200 070/07 RMK AO2
14840KMKG MKG20050421013009404/21/05 01:30:31  5-MIN KMKG 210630Z 07007KT 10SM CLR 07/02 A3013 440 70  -300 080/07 RMK AO2
14840KMKG MKG20050421013509404/21/05 01:35:31  5-MIN KMKG 210635Z 06008KT 10SM CLR 07/02 A3013 440 70  -300 070/08 RMK AO2
14840KMKG MKG20050421014009404/21/05 01:40:31  5-MIN KMKG 210640Z 08008KT 10SM CLR 07/02 A3012 440 70  -300 080/08 RMK AO2
14840KMKG MKG20050421014509404/21/05 01:45:31  5-MIN KMKG 210645Z 08007KT 10SM CLR 07/02 A3012 450 70  -300 080/07 RMK AO2
14840KMKG MKG20050421015011104/21/05 01:50:31  5-MIN KMKG 210650Z 08007KT 10SM CLR 07/02 A3012 450 70  -300 080/07 RMK AO2 SLP201 T00720022
14840KMKG MKG20050421015511104/21/05 01:55:31  5-MIN KMKG 210655Z 07006KT 10SM CLR 07/02 A3012 450 70  -400 080/06 RMK AO2 SLP201 T00670017
14840KMKG MKG20050421020009404/21/05 02:00:31  5-MIN KMKG 210700Z 07006KT 10SM CLR 06/02 A3012 450 73  -400 080/06 RMK AO2
14840KMKG MKG20050421020509404/21/05 02:05:31  5-MIN KMKG 210705Z 07006KT 10SM CLR 06/02 A3012 450 73  -400 080/06 RMK AO2
14840KMKG MKG20050421021009404/21/05 02:10:31  5-MIN KMKG 210710Z 07006KT 10SM CLR 06/02 A3012 450 73  -400 080/06 RMK AO2
14840KMKG MKG20050421021509404/21/05 02:15:31  5-MIN KMKG 210715Z 07007KT 10SM CLR 06/02 A3012 450 73  -400 070/07 RMK AO2
14840KMKG MKG20050421022009404/21/05 02:20:31  5-MIN KMKG 210720Z 07006KT 10SM CLR 06/02 A3012 450 73  -400 070/06 RMK AO2
14840KMKG MKG20050421022509404/21/05 02:25:31  5-MIN KMKG 210725Z 07007KT 10SM CLR 06/02 A3012 450 76  -500 070/07 RMK AO2
14840KMKG MKG20050421023009404/21/05 02:30:31  5-MIN KMKG 210730Z 06007KT 10SM CLR 06/02 A3011 450 76  -500 070/07 RMK AO2
14840KMKG MKG20050421023509404/21/05 02:35:31  5-MIN KMKG 210735Z 07006KT 10SM CLR 06/02 A3011 450 76  -500 070/06 RMK AO2
14840KMKG MKG20050421024009404/21/05 02:40:31  5-MIN KMKG 210740Z 06006KT 10SM CLR 06/02 A3011 450 76  -500 060/06 RMK AO2
14840KMKG MKG20050421024509404/21/05 02:45:31  5-MIN KMKG 210745Z 06006KT 10SM CLR 06/02 A3011 460 76  -500 060/06 RMK AO2
14840KMKG MKG20050421025011104/21/05 02:50:31  5-MIN KMKG 210750Z 06006KT 10SM CLR 06/02 A3011 460 76  -500 060/06 RMK AO2 SLP197 T00560017
14840KMKG MKG20050421025511104/21/05 02:55:31  5-MIN KMKG 210755Z 06007KT 10SM CLR 06/02 A3011 460 76  -500 060/07 RMK AO2 SLP197 T00560017
14840KMKG MKG20050421030009404/21/05 03:00:31  5-MIN KMKG 210800Z 06007KT 10SM CLR 06/02 A3010 460 76  -500 060/07 RMK AO2
14840KMKG MKG20050421030509404/21/05 03:05:31  5-MIN KMKG 210805Z 06007KT 10SM CLR 06/02 A3011 460 76  -500 060/07 RMK AO2
14840KMKG MKG20050421031009404/21/05 03:10:31  5-MIN KMKG 210810Z 06007KT 10SM CLR 05/02 A3011 460 79  -600 060/07 RMK AO2
14840KMKG MKG20050421031509404/21/05 03:15:31  5-MIN KMKG 210815Z 06006KT 10SM CLR 05/02 A3011 460 79  -600 060/06 RMK AO2
14840KMKG MKG20050421032009404/21/05 03:20:31  5-MIN KMKG 210820Z 06006KT 10SM CLR 05/02 A3011 460 79  -600 060/06 RMK AO2
14840KMKG MKG20050421032509404/21/05 03:25:31  5-MIN KMKG 210825Z 06006KT 10SM CLR 05/02 A3011 460 79  -500 060/06 RMK AO2
14840KMKG MKG20050421033009404/21/05 03:30:31  5-MIN KMKG 210830Z 06006KT 10SM CLR 05/02 A3010 460 79  -500 070/06 RMK AO2
14840KMKG MKG20050421033509404/21/05 03:35:31  5-MIN KMKG 210835Z 06006KT 10SM CLR 04/02 A3011 460 82  -600 060/06 RMK AO2
14840KMKG MKG20050421034009404/21/05 03:40:31  5-MIN KMKG 210840Z 06006KT 10SM CLR 05/02 A3011 460 79  -500 070/06 RMK AO2
14840KMKG MKG20050421034509404/21/05 03:45:31  5-MIN KMKG 210845Z 06006KT 10SM CLR 04/02 A3010 460 82  -600 060/06 RMK AO2
14840KMKG MKG20050421035011704/21/05 03:50:31  5-MIN KMKG 210850Z 06006KT 10SM CLR 04/02 A3010 460 82  -600 060/06 RMK AO2 SLP196 T00440017 53020
14840KMKG MKG20050421035511704/21/05 03:55:31  5-MIN KMKG 210855Z 06006KT 10SM CLR 04/02 A3010 470 82  -600 060/06 RMK AO2 SLP194 T00440017 57009
14840KMKG MKG20050421040009404/21/05 04:00:31  5-MIN KMKG 210900Z 06006KT 10SM CLR 04/02 A3010 460 82  -600 060/06 RMK AO2
14840KMKG MKG20050421040509404/21/05 04:05:31  5-MIN KMKG 210905Z 06006KT 10SM CLR 04/02 A3010 460 82  -600 060/06 RMK AO2
14840KMKG MKG20050421041009404/21/05 04:10:31  5-MIN KMKG 210910Z 06006KT 10SM CLR 04/02 A3010 460 82  -600 060/06 RMK AO2
14840KMKG MKG20050421041509404/21/05 04:15:31  5-MIN KMKG 210915Z 06007KT 10SM CLR 04/02 A3010 460 82  -600 060/07 RMK AO2
14840KMKG MKG20050421042009404/21/05 04:20:31  5-MIN KMKG 210920Z 05007KT 10SM CLR 04/02 A3010 460 82  -600 060/07 RMK AO2
14840KMKG MKG20050421042509404/21/05 04:25:31  5-MIN KMKG 210925Z 05007KT 10SM CLR 04/02 A3010 460 82  -600 060/07 RMK AO2
14840KMKG MKG20050421043009404/21/05 04:30:31  5-MIN KMKG 210930Z 06007KT 10SM CLR 04/02 A3010 470 82  -600 060/07 RMK AO2
14840KMKG MKG20050421043509404/21/05 04:35:31  5-MIN KMKG 210935Z 06007KT 10SM CLR 04/01 A3010 470 79  -600 070/07 RMK AO2
14840KMKG MKG20050421044009404/21/05 04:40:31  5-MIN KMKG 210940Z 06007KT 10SM CLR 04/01 A3010 460 79  -600 070/07 RMK AO2
14840KMKG MKG20050421044509404/21/05 04:45:31  5-MIN KMKG 210945Z 06007KT 10SM CLR 04/01 A3010 460 79  -600 060/07 RMK AO2
14840KMKG MKG20050421045011104/21/05 04:50:31  5-MIN KMKG 210950Z 06006KT 10SM CLR 04/01 A3011 460 82  -700 060/06 RMK AO2 SLP198 T00390011
14840KMKG MKG20050421045511104/21/05 04:55:31  5-MIN KMKG 210955Z 06006KT 10SM CLR 04/01 A3011 460 82  -700 060/06 RMK AO2 SLP199 T00390011
14840KMKG MKG20050421050009404/21/05 05:00:31  5-MIN KMKG 211000Z 06006KT 10SM CLR 04/01 A3011 460 82  -700 060/06 RMK AO2
14840KMKG MKG20050421050509404/21/05 05:05:31  5-MIN KMKG 211005Z 06006KT 10SM CLR 04/01 A3011 460 82  -700 060/06 RMK AO2
14840KMKG MKG20050421051009404/21/05 05:10:31  5-MIN KMKG 211010Z 06007KT 10SM CLR 04/01 A3011 450 82  -700 060/07 RMK AO2
14840KMKG MKG20050421051509404/21/05 05:15:31  5-MIN KMKG 211015Z 06005KT 10SM CLR 04/01 A3012 450 82  -700 060/05 RMK AO2
14840KMKG MKG20050421052009404/21/05 05:20:31  5-MIN KMKG 211020Z 06006KT 10SM CLR 04/01 A3012 440 82  -700 060/06 RMK AO2
14840KMKG MKG20050421052509404/21/05 05:25:31  5-MIN KMKG 211025Z 06005KT 10SM CLR 04/01 A3013 440 82  -700 060/05 RMK AO2
14840KMKG MKG20050421053009404/21/05 05:30:31  5-MIN KMKG 211030Z 05006KT 10SM CLR 04/01 A3013 440 79  -700 060/06 RMK AO2
14840KMKG MKG20050421053509404/21/05 05:35:31  5-MIN KMKG 211035Z 05006KT 10SM CLR 04/01 A3013 440 79  -700 050/06 RMK AO2
14840KMKG MKG20050421054009404/21/05 05:40:31  5-MIN KMKG 211040Z 05006KT 10SM CLR 04/01 A3013 430 79  -700 050/06 RMK AO2
14840KMKG MKG20050421054509404/21/05 05:45:31  5-MIN KMKG 211045Z 06005KT 10SM CLR 04/01 A3013 430 79  -700 060/05 RMK AO2
14840KMKG MKG20050421055011104/21/05 05:50:31  5-MIN KMKG 211050Z 06004KT 10SM CLR 03/01 A3014 430 82  -800 060/04 RMK AO2 SLP209 T00330006
14840KMKG MKG20050421055511104/21/05 05:55:31  5-MIN KMKG 211055Z 04004KT 10SM CLR 04/01 A3014 430 79  -700 040/04 RMK AO2 SLP209 T00390006
14840KMKG MKG20050421060009404/21/05 06:00:31  5-MIN KMKG 211100Z 04005KT 10SM CLR 03/01 A3014 430 85  -800 050/05 RMK AO2
14840KMKG MKG20050421060509404/21/05 06:05:31  5-MIN KMKG 211105Z 05003KT 10SM CLR 04/01 A3014 430 82  -700 050/03 RMK AO2
14840KMKG MKG20050421061009404/21/05 06:10:31  5-MIN KMKG 211110Z 04003KT 10SM CLR 03/01 A3014 430 85  -800 050/03 RMK AO2
14840KMKG MKG20050421061509404/21/05 06:15:31  5-MIN KMKG 211115Z 04004KT 10SM CLR 03/01 A3014 430 85  -800 050/04 RMK AO2
14840KMKG MKG20050421062009404/21/05 06:20:31  5-MIN KMKG 211120Z 04004KT 10SM CLR 03/02 A3014 420 89  -800 050/04 RMK AO2
14840KMKG MKG20050421062509404/21/05 06:25:31  5-MIN KMKG 211125Z 04004KT 10SM CLR 04/02 A3015 420 85  -700 040/04 RMK AO2
14840KMKG MKG20050421063009404/21/05 06:30:31  5-MIN KMKG 211130Z 04004KT 10SM CLR 04/02 A3015 420 85  -700 040/04 RMK AO2
14840KMKG MKG20050421063509404/21/05 06:35:31  5-MIN KMKG 211135Z 04005KT 10SM CLR 04/02 A3015 420 85  -700 040/05 RMK AO2
14840KMKG MKG20050421064009404/21/05 06:40:31  5-MIN KMKG 211140Z 04005KT 10SM CLR 04/02 A3016 410 85  -700 040/05 RMK AO2
14840KMKG MKG20050421064509404/21/05 06:45:31  5-MIN KMKG 211145Z 04005KT 10SM CLR 04/02 A3016 410 85  -700 040/05 RMK AO2
14840KMKG MKG20050421065012904/21/05 06:50:31  5-MIN KMKG 211150Z 04006KT 10SM CLR 04/02 A3016 410 82  -700 040/06 RMK AO2 SLP216 T00440017 10089 20033 57009
14840KMKG MKG20050421065512904/21/05 06:55:31  5-MIN KMKG 211155Z 05006KT 10SM CLR 04/02 A3016 410 82  -700 050/06 RMK AO2 SLP217 T00440017 10089 20033 53020
14840KMKG MKG20050421070009404/21/05 07:00:31  5-MIN KMKG 211200Z 06006KT 10SM CLR 04/02 A3016 410 82  -700 060/06 RMK AO2
14840KMKG MKG20050421070509404/21/05 07:05:31  5-MIN KMKG 211205Z 06005KT 10SM CLR 04/02 A3016 410 82  -700 060/05 RMK AO2
14840KMKG MKG20050421071009404/21/05 07:10:31  5-MIN KMKG 211210Z 06006KT 10SM CLR 05/02 A3016 410 79  -600 060/06 RMK AO2
14840KMKG MKG20050421071509404/21/05 07:15:31  5-MIN KMKG 211215Z 06006KT 10SM CLR 05/02 A3016 410 82  -600 060/06 RMK AO2
14840KMKG MKG20050421072009404/21/05 07:20:31  5-MIN KMKG 211220Z 07007KT 10SM CLR 05/02 A3016 410 82  -600 070/07 RMK AO2
14840KMKG MKG20050421072509404/21/05 07:25:31  5-MIN KMKG 211225Z 07006KT 10SM CLR 05/02 A3016 410 82  -600 070/06 RMK AO2
14840KMKG MKG20050421073009404/21/05 07:30:31  5-MIN KMKG 211230Z 08007KT 10SM CLR 06/02 A3016 410 76  -500 080/07 RMK AO2
14840KMKG MKG20050421073509404/21/05 07:35:31  5-MIN KMKG 211235Z 07006KT 10SM CLR 06/02 A3016 410 76  -500 070/06 RMK AO2
14840KMKG MKG20050421074009404/21/05 07:40:31  5-MIN KMKG 211240Z 06007KT 10SM CLR 06/02 A3016 410 76  -500 060/07 RMK AO2
14840KMKG MKG20050421074509404/21/05 07:45:31  5-MIN KMKG 211245Z 07007KT 10SM CLR 06/02 A3016 410 76  -500 080/07 RMK AO2
14840KMKG MKG20050421075011104/21/05 07:50:31  5-MIN KMKG 211250Z 07006KT 10SM CLR 06/02 A3016 410 73  -500 070/06 RMK AO2 SLP216 T00610017
14840KMKG MKG20050421075511104/21/05 07:55:31  5-MIN KMKG 211255Z 08007KT 10SM CLR 06/02 A3016 410 73  -500 090/07 RMK AO2 SLP216 T00610017
14840KMKG MKG20050421080009404/21/05 08:00:31  5-MIN KMKG 211300Z 07008KT 10SM CLR 06/01 A3016 410 70  -500 070/08 RMK AO2
14840KMKG MKG20050421080509404/21/05 08:05:31  5-MIN KMKG 211305Z 05008KT 10SM CLR 07/02 A3015 410 70  -400 060/08 RMK AO2
14840KMKG MKG20050421081009404/21/05 08:10:31  5-MIN KMKG 211310Z 08006KT 10SM CLR 07/02 A3015 420 68  -300 080/06 RMK AO2
14840KMKG MKG20050421081509404/21/05 08:15:31  5-MIN KMKG 211315Z 07007KT 10SM CLR 07/02 A3015 420 68  -300 080/07 RMK AO2
14840KMKG MKG20050421082009404/21/05 08:20:31  5-MIN KMKG 211320Z 08009KT 10SM CLR 07/01 A3015 420 65  -400 080/09 RMK AO2
14840KMKG MKG20050421082509404/21/05 08:25:31  5-MIN KMKG 211325Z 07011KT 10SM CLR 07/01 A3015 420 62  -300 070/11 RMK AO2
14840KMKG MKG20050421083009404/21/05 08:30:31  5-MIN KMKG 211330Z 07010KT 10SM CLR 07/01 A3015 420 62  -300 070/10 RMK AO2
14840KMKG MKG20050421083509404/21/05 08:35:31  5-MIN KMKG 211335Z 07007KT 10SM CLR 07/01 A3015 420 62  -300 070/07 RMK AO2
14840KMKG MKG20050421084010904/21/05 08:40:31  5-MIN KMKG 211340Z 07008KT 040V110 10SM CLR 08/01 A3015 420 58 -200 080/08 040V110 RMK AO2
14840KMKG MKG20050421084509404/21/05 08:45:31  5-MIN KMKG 211345Z 06010KT 10SM CLR 09/00 A3014 420 53  -100 060/10 RMK AO2
14840KMKG MKG20050421085011104/21/05 08:50:31  5-MIN KMKG 211350Z 06009KT 10SM CLR 08/M01 A3014 420 53 -300 070/09 RMK AO2 SLP210 T00781011
14840KMKG MKG20050421085511104/21/05 08:55:31  5-MIN KMKG 211355Z 06008KT 10SM CLR 09/M01 A3014 430 51 -100 070/08 RMK AO2 SLP209 T00891006
14840KMKG MKG20050421090009404/21/05 09:00:31  5-MIN KMKG 211400Z 07010KT 10SM CLR 09/M01 A3014 430 49 -100 070/10 RMK AO2
14840KMKG MKG20050421090510704/21/05 09:05:31  5-MIN KMKG 211405Z 07009KT 030V110 10SM CLR 09/M01 A3014 430 49 0 080/09 030V110 RMK AO2
14840KMKG MKG20050421091009104/21/05 09:10:31  5-MIN KMKG 211410Z 09010KT 10SM CLR 09/M01 A3014 430 49 0 100/10 RMK AO2
14840KMKG MKG20050421091509004/21/05 09:15:31  5-MIN KMKG 211415Z 09011KT 10SM CLR 09/00 A3014 430 51 0 100/11 RMK AO2
14840KMKG MKG20050421092009004/21/05 09:20:31  5-MIN KMKG 211420Z 08011KT 10SM CLR 09/00 A3014 430 51 0 080/11 RMK AO2
14840KMKG MKG20050421092509004/21/05 09:25:31  5-MIN KMKG 211425Z 08009KT 10SM CLR 09/00 A3014 430 51 0 090/09 RMK AO2
14840KMKG MKG20050421093009404/21/05 09:30:31  5-MIN KMKG 211430Z 08009KT 10SM CLR 09/00 A3014 430 53  -100 090/09 RMK AO2
14840KMKG MKG20050421093509204/21/05 09:35:31  5-MIN KMKG 211435Z 09012KT 10SM CLR 09/00 A3014 430 51 0 090/12 RMK AO2 $
14840KMKG MKG20050421094009304/21/05 09:40:31  5-MIN KMKG 211440Z 09009KT 10SM CLR 09/M01 A3014 430 49 0 090/09 RMK AO2 $
14840KMKG MKG20050421094509204/21/05 09:45:31  5-MIN KMKG 211445Z 09009KT 10SM CLR 09/00 A3014 430 51 0 100/09 RMK AO2 $
14840KMKG MKG20050421095011604/21/05 09:50:31  5-MIN KMKG 211450Z 09011KT 10SM CLR 09/M01 A3014 430 49 0 090/11 RMK AO2 SLP210 T00941006 53020 $
14840KMKG MKG20050421095511904/21/05 09:55:31  5-MIN KMKG 211455Z 08010KT 10SM FEW043 10/00 A3014 430  49 0 080/10 RMK AO2 SLP210 T01000000 55006 $
14840KMKG MKG20050421100009304/21/05 10:00:31  5-MIN KMKG 211500Z 08009KT 10SM CLR 10/M01 A3014 430 47 0 080/09 RMK AO2 $
14840KMKG MKG20050421100509204/21/05 10:05:31  5-MIN KMKG 211505Z 07009KT 10SM CLR 09/00 A3014 430 51 0 070/09 RMK AO2 $
14840KMKG MKG20050421101009604/21/05 10:10:31  5-MIN KMKG 211510Z 08009KT 10SM CLR 09/M01 A3015 420 49 -100 080/09 RMK AO2 $
14840KMKG MKG20050421101509304/21/05 10:15:31  5-MIN KMKG 211515Z 10009KT 10SM CLR 10/M01 A3015 420 47 0 100/09 RMK AO2 $
14840KMKG MKG20050421102009204/21/05 10:20:31  5-MIN KMKG 211520Z 09010KT 10SM CLR 10/00 A3015 420 49 0 100/10 RMK AO2 $
14840KMKG MKG20050421102509204/21/05 10:25:31  5-MIN KMKG 211525Z 07011KT 10SM CLR 11/00 A3015 420 48 0 080/11 RMK AO2 $
14840KMKG MKG20050421103009204/21/05 10:30:31  5-MIN KMKG 211530Z 09009KT 10SM CLR 11/00 A3015 410 48 0 090/09 RMK AO2 $
14840KMKG MKG20050421103509504/21/05 10:35:31  5-MIN KMKG 211535Z 11011KT 10SM CLR 11/00 A3015 410 46  100 120/11 RMK AO2 $
14840KMKG MKG20050421104009904/21/05 10:40:31  5-MIN KMKG 211540Z 10007G15KT 10SM CLR 11/00 A3015 410  48 0 100/07G15 RMK AO2 $
14840KMKG MKG20050421104510804/21/05 10:45:31  5-MIN KMKG 211545Z 08007KT 050V120 10SM CLR 11/00 A3015 420 48 0 080/07 050V120 RMK AO2 $
14840KMKG MKG20050421105011304/21/05 10:50:31  5-MIN KMKG 211550Z 09006KT 10SM FEW043 11/00 A3015 420  48 0 100/06 RMK AO2 SLP214 T01060000 $
14840KMKG MKG20050421105511504/21/05 10:55:31  5-MIN KMKG 211555Z 11009KT 10SM FEW043 12/00 A3015 420  44 200 110/09 RMK AO2 SLP212 T01170000 $
14840KMKG MKG20050421110009504/21/05 11:00:31  5-MIN KMKG 211600Z 08008KT 10SM CLR 12/00 A3015 420 44  200 090/08 RMK AO2 $
14840KMKG MKG20050421110511004/21/05 11:05:31  5-MIN KMKG 211605Z 10008KT 050V120 10SM CLR 11/00 A3015 420 46 100 100/08 050V120 RMK AO2 $
14840KMKG MKG20050421111009504/21/05 11:10:31  5-MIN KMKG 211610Z 09012KT 10SM CLR 12/M01 A3015 420 41 200 090/12 RMK AO2 $
14840KMKG MKG20050421111509504/21/05 11:15:31  5-MIN KMKG 211615Z 08009KT 10SM CLR 12/M01 A3015 420 42 200 080/09 RMK AO2 $
14840KMKG MKG20050421112009504/21/05 11:20:31  5-MIN KMKG 211620Z 11010KT 10SM CLR 12/M01 A3015 420 41 200 110/10 RMK AO2 $
14840KMKG MKG20050421112509504/21/05 11:25:31  5-MIN KMKG 211625Z 07012KT 10SM CLR 12/M01 A3015 420 41 200 070/12 RMK AO2 $
14840KMKG MKG20050421113009504/21/05 11:30:31  5-MIN KMKG 211630Z 06011KT 10SM CLR 12/M01 A3014 430 41 200 060/11 RMK AO2 $
14840KMKG MKG20050421113509504/21/05 11:35:31  5-MIN KMKG 211635Z 07012KT 10SM CLR 13/M01 A3014 430 39 300 080/12 RMK AO2 $
14840KMKG MKG20050421114009504/21/05 11:40:31  5-MIN KMKG 211640Z 07011KT 10SM CLR 13/00 A3014 430 41  300 070/11 RMK AO2 $
14840KMKG MKG20050421114509504/21/05 11:45:31  5-MIN KMKG 211645Z 07011KT 10SM CLR 13/M01 A3014 430 39 300 070/11 RMK AO2 $
14840KMKG MKG20050421115011504/21/05 11:50:31  5-MIN KMKG 211650Z 08012KT 10SM FEW045 13/M01 A3014 430 38 400 080/12 RMK AO2 SLP209 T01331006 $
14840KMKG MKG20050421115511504/21/05 11:55:31  5-MIN KMKG 211655Z 06008KT 10SM FEW045 13/M01 A3014 420 38 400 060/08 RMK AO2 SLP209 T01331006 $
14840KMKG MKG20050421120011104/21/05 12:00:31  5-MIN KMKG 211700Z 06011KT 030V100 10SM CLR 13/M01 A3014 430 38 400 070/11 030V100 RMK AO2 $
14840KMKG MKG20050421120509504/21/05 12:05:31  5-MIN KMKG 211705Z 12009KT 10SM CLR 13/M01 A3014 430 36 400 120/09 RMK AO2 $
14840KMKG MKG20050421121011104/21/05 12:10:31  5-MIN KMKG 211710Z 09009KT 030V130 10SM CLR 13/M01 A3014 430 38 400 090/09 030V130 RMK AO2 $
14840KMKG MKG20050421121510104/21/05 12:15:31  5-MIN KMKG 211715Z 11009G17KT 10SM CLR 13/M01 A3013 430 38 400 110/09G17 RMK AO2 $
14840KMKG MKG20050421122010104/21/05 12:20:31  5-MIN KMKG 211720Z 08011G17KT 10SM CLR 13/M01 A3013 440 36 400 090/11G17 RMK AO2 $
14840KMKG MKG20050421122510104/21/05 12:25:31  5-MIN KMKG 211725Z 10012G17KT 10SM CLR 13/M01 A3013 440 36 400 100/12G17 RMK AO2 $
14840KMKG MKG20050421123009504/21/05 12:30:31  5-MIN KMKG 211730Z 08013KT 10SM CLR 13/M02 A3012 450 35 400 090/13 RMK AO2 $
14840KMKG MKG20050421123509504/21/05 12:35:31  5-MIN KMKG 211735Z 10010KT 10SM CLR 13/M02 A3012 450 35 400 100/10 RMK AO2 $
14840KMKG MKG20050421124009504/21/05 12:40:31  5-MIN KMKG 211740Z 13009KT 10SM CLR 14/M01 A3012 450 35 500 140/09 RMK AO2 $
14840KMKG MKG20050421124510104/21/05 12:45:31  5-MIN KMKG 211745Z 10012G16KT 10SM CLR 14/M01 A3012 450 35 500 100/12G16 RMK AO2 $
14840KMKG MKG20050421125015404/21/05 12:50:31  5-MIN KMKG 211750Z 09010G16KT 050V130 10SM CLR 14/M02  A3010 460 34 500 100/10G16 050V130 RMK AO2 SLP196 T01391017 10139 20044  55006 $
14840KMKG MKG20050421125513004/21/05 12:55:31  5-MIN KMKG 211755Z 10013KT 10SM CLR 14/M02 A3010 460 34 500 110/13 RMK AO2 SLP195 T01391017 10144 20044 58013 $
14840KMKG MKG20050421130010804/21/05 13:00:31  5-MIN KMKG 211800Z 09013G17KT 10SM CLR 14/M01 A3009 480 35 500 090/13G17 RMK AO2 PRESFR $
14840KMKG MKG20050421130510804/21/05 13:05:31  5-MIN KMKG 211805Z 08010G19KT 10SM CLR 14/M01 A3008 480 34 600 080/10G19 RMK AO2 PRESFR $
14840KMKG MKG20050421131010104/21/05 13:10:31  5-MIN KMKG 211810Z 06013G19KT 10SM CLR 14/M01 A3008 480 34 600 070/13G19 RMK AO2 $
14840KMKG MKG20050421131510104/21/05 13:15:31  5-MIN KMKG 211815Z 08015G20KT 10SM CLR 14/M02 A3008 490 33 600 080/15G20 RMK AO2 $
14840KMKG MKG20050421132010104/21/05 13:20:31  5-MIN KMKG 211820Z 08015G20KT 10SM CLR 14/M02 A3007 490 33 600 090/15G20 RMK AO2 $
14840KMKG MKG20050421132510104/21/05 13:25:31  5-MIN KMKG 211825Z 08012G18KT 10SM CLR 15/M02 A3007 490 31 600 090/12G18 RMK AO2 $
14840KMKG MKG20050421133009504/21/05 13:30:31  5-MIN KMKG 211830Z 10013KT 10SM CLR 15/M02 A3007 490 30 600 110/13 RMK AO2 $
14840KMKG MKG20050421133509504/21/05 13:35:31  5-MIN KMKG 211835Z 11011KT 10SM CLR 15/M02 A3007 490 31 600 110/11 RMK AO2 $
14840KMKG MKG20050421134009504/21/05 13:40:31  5-MIN KMKG 211840Z 09013KT 10SM CLR 15/M02 A3007 490 31 600 100/13 RMK AO2 $
14840KMKG MKG20050421134511804/21/05 13:45:31  5-MIN KMKG 211845Z 09010G17KT 060V120 10SM CLR 15/M02  A3007 490 31 600 100/10G17 060V120 RMK AO2 $
14840KMKG MKG20050421135011204/21/05 13:50:31  5-MIN KMKG 211850Z 07012KT 10SM CLR 15/M02 A3008 490 31 600 070/12 RMK AO2 SLP186 T01501017 $
14840KMKG MKG20050421135511804/21/05 13:55:31  5-MIN KMKG 211855Z 09012G18KT 10SM CLR 15/M02 A3008 490 31 600 100/12G18 RMK AO2 SLP186 T01501017 $
14840KMKG MKG20050421140010104/21/05 14:00:31  5-MIN KMKG 211900Z 10009G18KT 10SM CLR 14/M02 A3008 490 33 600 110/09G18 RMK AO2 $
14840KMKG MKG20050421140510104/21/05 14:05:31  5-MIN KMKG 211905Z 12008G17KT 10SM CLR 14/M02 A3008 490 31 600 120/08G17 RMK AO2 $
14840KMKG MKG20050421141010104/21/05 14:10:31  5-MIN KMKG 211910Z 08009G16KT 10SM CLR 16/M01 A3008 480 31 700 080/09G16 RMK AO2 $
14840KMKG MKG20050421141511804/21/05 14:15:31  5-MIN KMKG 211915Z 07009G16KT 040V110 10SM CLR 15/M02  A3008 490 31 600 080/09G16 040V110 RMK AO2 $
14840KMKG MKG20050421142010104/21/05 14:20:31  5-MIN KMKG 211920Z 09007G16KT 10SM CLR 14/M02 A3008 490 31 600 090/07G16 RMK AO2 $
14840KMKG MKG20050421142509504/21/05 14:25:31  5-MIN KMKG 211925Z 10011KT 10SM CLR 16/M02 A3007 490 30 700 110/11 RMK AO2 $
14840KMKG MKG20050421143009504/21/05 14:30:31  5-MIN KMKG 211930Z 10010KT 10SM CLR 15/M02 A3006 500 31 700 100/10 RMK AO2 $
14840KMKG MKG20050421143509504/21/05 14:35:31  5-MIN KMKG 211935Z 11013KT 10SM CLR 16/M01 A3006 500 31 700 110/13 RMK AO2 $
14840KMKG MKG20050421144009504/21/05 14:40:31  5-MIN KMKG 211940Z 08006KT 10SM CLR 15/M01 A3006 500 33 700 090/06 RMK AO2 $
14840KMKG MKG20050421144510104/21/05 14:45:31  5-MIN KMKG 211945Z 10011G15KT 10SM CLR 16/M01 A3006 500 31 700 100/11G15 RMK AO2 $
14840KMKG MKG20050421145011804/21/05 14:50:31  5-MIN KMKG 211950Z 11008G15KT 10SM CLR 15/M02 A3006 500 31 700 120/08G15 RMK AO2 SLP181 T01501017 $
14840KMKG MKG20050421145511204/21/05 14:55:31  5-MIN KMKG 211955Z 09010KT 10SM CLR 15/M01 A3005 510 33 700 090/10 RMK AO2 SLP180 T01501011 $
14840KMKG MKG20050421150010104/21/05 15:00:31  5-MIN KMKG 212000Z 09010G14KT 10SM CLR 16/M02 A3005 510 30 700 090/10G14 RMK AO2 $
14840KMKG MKG20050421150511804/21/05 15:05:31  5-MIN KMKG 212005Z 07012G15KT 040V100 10SM CLR 16/M02  A3005 510 30 700 070/12G15 040V100 RMK AO2 $
14840KMKG MKG20050421151010104/21/05 15:10:31  5-MIN KMKG 212010Z 08013G19KT 10SM CLR 16/M01 A3005 510 31 700 090/13G19 RMK AO2 $
14840KMKG MKG20050421151510104/21/05 15:15:31  5-MIN KMKG 212015Z 06012G19KT 10SM CLR 16/M01 A3005 510 31 700 060/12G19 RMK AO2 $
14840KMKG MKG20050421152009504/21/05 15:20:31  5-MIN KMKG 212020Z 06012KT 10SM CLR 16/M01 A3005 510 31 700 060/12 RMK AO2 $
14840KMKG MKG20050421152509504/21/05 15:25:31  5-MIN KMKG 212025Z 06011KT 10SM CLR 16/M02 A3005 510 30 700 070/11 RMK AO2 $
14840KMKG MKG20050421153009504/21/05 15:30:31  5-MIN KMKG 212030Z 07011KT 10SM CLR 17/M01 A3004 520 29 900 080/11 RMK AO2 $
14840KMKG MKG20050421153509504/21/05 15:35:31  5-MIN KMKG 212035Z 06012KT 10SM CLR 16/M02 A3003 530 30 800 060/12 RMK AO2 $
14840KMKG MKG20050421154010804/21/05 15:40:31  5-MIN KMKG 212040Z 10009G18KT 10SM CLR 16/M01 A3003 530 33 800 100/09G18 RMK AO2 PRESFR $
14840KMKG MKG20050421154511804/21/05 15:45:31  5-MIN KMKG 212045Z 08013G17KT 050V120 10SM CLR 16/M01  A3003 530 32 800 090/13G17 050V120 RMK AO2 $
14840KMKG MKG20050421155012404/21/05 15:50:31  5-MIN KMKG 212050Z 06009G17KT 10SM CLR 16/M01 A3003 530 33 800 060/09G17 RMK AO2 SLP171 T01561006 58013 $
14840KMKG MKG20050421155512404/21/05 15:55:31  5-MIN KMKG 212055Z 06013G16KT 10SM CLR 16/M01 A3003 530 33 800 070/13G16 RMK AO2 SLP171 T01561006 56024 $
14840KMKG MKG20050421160010104/21/05 16:00:31  5-MIN KMKG 212100Z 12010G16KT 10SM CLR 16/M01 A3003 530 32 800 120/10G16 RMK AO2 $
14840KMKG MKG20050421160509504/21/05 16:05:31  5-MIN KMKG 212105Z 11011KT 10SM CLR 16/M01 A3003 530 32 800 120/11 RMK AO2 $
14840KMKG MKG20050421161011104/21/05 16:10:31  5-MIN KMKG 212110Z 10007KT 060V130 10SM CLR 16/M01 A3003 530 31 800 110/07 060V130 RMK AO2 $
14840KMKG MKG20050421161509504/21/05 16:15:31  5-MIN KMKG 212115Z 13010KT 10SM CLR 16/M01 A3003 530 31 800 130/10 RMK AO2 $
14840KMKG MKG20050421162009504/21/05 16:20:31  5-MIN KMKG 212120Z 13008KT 10SM CLR 16/M02 A3003 530 30 800 130/08 RMK AO2 $
14840KMKG MKG20050421162509504/21/05 16:25:31  5-MIN KMKG 212125Z 08008KT 10SM CLR 16/M01 A3003 530 30 800 080/08 RMK AO2 $
14840KMKG MKG20050421163009504/21/05 16:30:31  5-MIN KMKG 212130Z VRB06KT 10SM CLR 16/M01 A3003 530 31 800 VRB/06 RMK AO2 $
14840KMKG MKG20050421163509504/21/05 16:35:31  5-MIN KMKG 212135Z 13007KT 10SM CLR 16/M01 A3003 530 31 800 140/07 RMK AO2 $
14840KMKG MKG20050421164011104/21/05 16:40:31  5-MIN KMKG 212140Z 14009KT 100V170 10SM CLR 16/M02 A3002 540 30 800 140/09 100V170 RMK AO2 $
14840KMKG MKG20050421164509504/21/05 16:45:31  5-MIN KMKG 212145Z 09007KT 10SM CLR 16/M02 A3002 540 29 800 090/07 RMK AO2 $
14840KMKG MKG20050421165011204/21/05 16:50:31  5-MIN KMKG 212150Z 09009KT 10SM CLR 16/M02 A3002 540 29 800 100/09 RMK AO2 SLP168 T01611017 $
14840KMKG MKG20050421165511204/21/05 16:55:31  5-MIN KMKG 212155Z 09008KT 10SM CLR 16/M02 A3002 540 30 800 100/08 RMK AO2 SLP167 T01561017 $
14840KMKG MKG20050421170009504/21/05 17:00:31  5-MIN KMKG 212200Z VRB06KT 10SM CLR 15/M02 A3002 540 31 700 VRB/06 RMK AO2 $
14840KMKG MKG20050421170509504/21/05 17:05:31  5-MIN KMKG 212205Z VRB04KT 10SM CLR 15/M02 A3002 540 31 700 VRB/04 RMK AO2 $
14840KMKG MKG20050421171009504/21/05 17:10:31  5-MIN KMKG 212210Z VRB05KT 10SM CLR 15/00 A3002 540 35  700 VRB/05 RMK AO2 $
14840KMKG MKG20050421171509504/21/05 17:15:31  5-MIN KMKG 212215Z VRB04KT 10SM CLR 14/02 A3002 540 41  600 VRB/04 RMK AO2 $
14840KMKG MKG20050421172009504/21/05 17:20:31  5-MIN KMKG 212220Z 27007KT 10SM CLR 13/02 A3002 540 46  500 270/07 RMK AO2 $
14840KMKG MKG20050421172509504/21/05 17:25:31  5-MIN KMKG 212225Z 28007KT 10SM CLR 13/02 A3002 540 48  400 280/07 RMK AO2 $
14840KMKG MKG20050421173009504/21/05 17:30:31  5-MIN KMKG 212230Z 27008KT 10SM CLR 13/02 A3001 540 48  400 280/08 RMK AO2 $
14840KMKG MKG20050421173509504/21/05 17:35:31  5-MIN KMKG 212235Z 27006KT 10SM CLR 13/02 A3001 550 46  500 280/06 RMK AO2 $
14840KMKG MKG20050421174009504/21/05 17:40:31  5-MIN KMKG 212240Z 28007KT 10SM CLR 13/02 A3001 550 46  500 280/07 RMK AO2 $
14840KMKG MKG20050421174509504/21/05 17:45:31  5-MIN KMKG 212245Z 30007KT 10SM CLR 13/02 A3001 550 46  500 300/07 RMK AO2 $
14840KMKG MKG20050421175011204/21/05 17:50:31  5-MIN KMKG 212250Z 28008KT 10SM CLR 12/02 A3001 550 48  400 280/08 RMK AO2 SLP165 T01220017 $
14840KMKG MKG20050421175511204/21/05 17:55:31  5-MIN KMKG 212255Z 30008KT 10SM CLR 12/02 A3001 550 50  400 300/08 RMK AO2 SLP165 T01220022 $
14840KMKG MKG20050421180009504/21/05 18:00:31  5-MIN KMKG 212300Z 30006KT 10SM CLR 12/02 A3000 550 48  400 300/06 RMK AO2 $
14840KMKG MKG20050421180509504/21/05 18:05:31  5-MIN KMKG 212305Z 32008KT 10SM CLR 13/02 A3000 560 48  500 330/08 RMK AO2 $
14840KMKG MKG20050421181009504/21/05 18:10:31  5-MIN KMKG 212310Z 32007KT 10SM CLR 13/02 A3000 560 46  500 320/07 RMK AO2 $
14840KMKG MKG20050421181509504/21/05 18:15:31  5-MIN KMKG 212315Z 29007KT 10SM CLR 12/02 A3000 560 48  400 300/07 RMK AO2 $
14840KMKG MKG20050421182009504/21/05 18:20:31  5-MIN KMKG 212320Z 29008KT 10SM CLR 12/02 A3000 550 48  400 290/08 RMK AO2 $
14840KMKG MKG20050421182509504/21/05 18:25:31  5-MIN KMKG 212325Z 31006KT 10SM CLR 12/02 A3000 560 48  400 320/06 RMK AO2 $
14840KMKG MKG20050421183009504/21/05 18:30:31  5-MIN KMKG 212330Z 31006KT 10SM CLR 12/02 A3000 560 48  400 320/06 RMK AO2 $
14840KMKG MKG20050421183509504/21/05 18:35:31  5-MIN KMKG 212335Z 31007KT 10SM CLR 12/02 A3000 560 50  400 320/07 RMK AO2 $
14840KMKG MKG20050421184009504/21/05 18:40:31  5-MIN KMKG 212340Z 32007KT 10SM CLR 12/02 A3000 560 50  400 320/07 RMK AO2 $
14840KMKG MKG20050421184509504/21/05 18:45:31  5-MIN KMKG 212345Z 32007KT 10SM CLR 12/02 A2999 560 50  400 320/07 RMK AO2 $
14840KMKG MKG20050421185013004/21/05 18:50:31  5-MIN KMKG 212350Z 32007KT 10SM CLR 12/02 A2999 560 50  400 320/07 RMK AO2 SLP159 T01220022 10167 20122 56024 $
14840KMKG MKG20050421185513004/21/05 18:55:31  5-MIN KMKG 212355Z 32007KT 10SM CLR 12/02 A2999 570 50  300 320/07 RMK AO2 SLP159 T01170017 10167 20117 58013 $
14840KMKG MKG20050421190009504/21/05 19:00:31  5-MIN KMKG 220000Z 33006KT 10SM CLR 12/02 A2998 570 50  300 330/06 RMK AO2 $
14840KMKG MKG20050421190509504/21/05 19:05:31  5-MIN KMKG 220005Z 33006KT 10SM CLR 12/03 A2998 570 54  400 330/06 RMK AO2 $
14840KMKG MKG20050421191009504/21/05 19:10:31  5-MIN KMKG 220010Z 34006KT 10SM CLR 12/03 A2998 570 54  400 340/06 RMK AO2 $
14840KMKG MKG20050421191509504/21/05 19:15:31  5-MIN KMKG 220015Z 35005KT 10SM CLR 11/03 A2998 570 56  300 350/05 RMK AO2 $
14840KMKG MKG20050421192009504/21/05 19:20:31  5-MIN KMKG 220020Z 36005KT 10SM CLR 11/03 A2998 580 56  300 360/05 RMK AO2 $
14840KMKG MKG20050421192509504/21/05 19:25:31  5-MIN KMKG 220025Z 36007KT 10SM CLR 11/03 A2998 580 56  300 360/07 RMK AO2 $
14840KMKG MKG20050421193009504/21/05 19:30:31  5-MIN KMKG 220030Z 01005KT 10SM CLR 11/02 A2998 580 54  300 010/05 RMK AO2 $
14840KMKG MKG20050421193509504/21/05 19:35:31  5-MIN KMKG 220035Z 36006KT 10SM CLR 11/02 A2998 580 54  300 010/06 RMK AO2 $
14840KMKG MKG20050421194009504/21/05 19:40:31  5-MIN KMKG 220040Z 01008KT 10SM CLR 12/02 A2997 580 50  400 010/08 RMK AO2 $
14840KMKG MKG20050421194509504/21/05 19:45:31  5-MIN KMKG 220045Z 01006KT 10SM CLR 11/02 A2997 580 52  300 020/06 RMK AO2 $
14840KMKG MKG20050421195011204/21/05 19:50:31  5-MIN KMKG 220050Z 01007KT 10SM CLR 11/02 A2997 590 52  300 010/07 RMK AO2 SLP151 T01110017 $
14840KMKG MKG20050421195511204/21/05 19:55:31  5-MIN KMKG 220055Z 01006KT 10SM CLR 11/02 A2997 590 54  200 010/06 RMK AO2 SLP152 T01060017 $
14840KMKG MKG20050421200009504/21/05 20:00:31  5-MIN KMKG 220100Z 36005KT 10SM CLR 11/02 A2997 580 54  200 360/05 RMK AO2 $
14840KMKG MKG20050421200509504/21/05 20:05:31  5-MIN KMKG 220105Z 36006KT 10SM CLR 11/02 A2998 580 54  200 360/06 RMK AO2 $
14840KMKG MKG20050421201009504/21/05 20:10:31  5-MIN KMKG 220110Z 36006KT 10SM CLR 10/02 A2997 580 56  200 010/06 RMK AO2 $
14840KMKG MKG20050421201509504/21/05 20:15:31  5-MIN KMKG 220115Z 01006KT 10SM CLR 10/02 A2997 580 58  200 010/06 RMK AO2 $
14840KMKG MKG20050421202009504/21/05 20:20:31  5-MIN KMKG 220120Z 36006KT 10SM CLR 10/02 A2997 580 58  200 010/06 RMK AO2 $
14840KMKG MKG20050421202509504/21/05 20:25:31  5-MIN KMKG 220125Z 01007KT 10SM CLR 09/02 A2997 590 60  100 010/07 RMK AO2 $
14840KMKG MKG20050421203009504/21/05 20:30:31  5-MIN KMKG 220130Z 02006KT 10SM CLR 10/02 A2996 590 58  200 020/06 RMK AO2 $
14840KMKG MKG20050421203509504/21/05 20:35:31  5-MIN KMKG 220135Z 01007KT 10SM CLR 10/02 A2997 590 58  200 020/07 RMK AO2 $
14840KMKG MKG20050421204009504/21/05 20:40:31  5-MIN KMKG 220140Z 02007KT 10SM CLR 10/02 A2996 590 58  200 030/07 RMK AO2 $
14840KMKG MKG20050421204509504/21/05 20:45:31  5-MIN KMKG 220145Z 02006KT 10SM CLR 10/02 A2996 590 58  200 020/06 RMK AO2 $
14840KMKG MKG20050421205011204/21/05 20:50:31  5-MIN KMKG 220150Z 02005KT 10SM CLR 10/02 A2996 590 58  200 020/05 RMK AO2 SLP148 T01000022 $
14840KMKG MKG20050421205511204/21/05 20:55:31  5-MIN KMKG 220155Z 02005KT 10SM CLR 09/02 A2996 590 60  100 020/05 RMK AO2 SLP148 T00940022 $
14840KMKG MKG20050421210009504/21/05 21:00:31  5-MIN KMKG 220200Z 02006KT 10SM CLR 10/02 A2996 600 58  200 020/06 RMK AO2 $
14840KMKG MKG20050421210509504/21/05 21:05:31  5-MIN KMKG 220205Z 02006KT 10SM CLR 09/02 A2995 600 60  100 020/06 RMK AO2 $
14840KMKG MKG20050421211009204/21/05 21:10:31  5-MIN KMKG 220210Z 01005KT 10SM CLR 09/02 A2996 600 63 0 020/05 RMK AO2 $
14840KMKG MKG20050421211509504/21/05 21:15:31  5-MIN KMKG 220215Z 02007KT 10SM CLR 09/02 A2995 600 60  100 030/07 RMK AO2 $
14840KMKG MKG20050421212009504/21/05 21:20:31  5-MIN KMKG 220220Z 02006KT 10SM CLR 09/02 A2995 600 63  100 030/06 RMK AO2 $
14840KMKG MKG20050421212509504/21/05 21:25:31  5-MIN KMKG 220225Z 02006KT 10SM CLR 09/02 A2995 610 63  100 030/06 RMK AO2 $
14840KMKG MKG20050421213009504/21/05 21:30:31  5-MIN KMKG 220230Z 03006KT 10SM CLR 09/02 A2994 610 63  100 030/06 RMK AO2 $
14840KMKG MKG20050421213509504/21/05 21:35:31  5-MIN KMKG 220235Z 02006KT 10SM CLR 09/02 A2994 610 63  100 030/06 RMK AO2 $
14840KMKG MKG20050421214009504/21/05 21:40:31  5-MIN KMKG 220240Z 02006KT 10SM CLR 09/02 A2994 610 60  100 020/06 RMK AO2 $
14840KMKG MKG20050421214509504/21/05 21:45:31  5-MIN KMKG 220245Z 02006KT 10SM CLR 09/02 A2994 610 60  100 030/06 RMK AO2 $
14840KMKG MKG20050421215011804/21/05 21:50:31  5-MIN KMKG 220250Z 02006KT 10SM CLR 09/02 A2994 610 60  100 030/06 RMK AO2 SLP142 T00890017 58013 $
14840KMKG MKG20050421215511804/21/05 21:55:31  5-MIN KMKG 220255Z 02005KT 10SM CLR 09/02 A2994 610 60  100 020/05 RMK AO2 SLP143 T00890017 56015 $
14840KMKG MKG20050421220009204/21/05 22:00:31  5-MIN KMKG 220300Z 02005KT 10SM CLR 08/02 A2995 610 63 0 020/05 RMK AO2 $
14840KMKG MKG20050421220509204/21/05 22:05:31  5-MIN KMKG 220305Z 03004KT 10SM CLR 08/02 A2995 600 63 0 030/04 RMK AO2 $
14840KMKG MKG20050421221009204/21/05 22:10:31  5-MIN KMKG 220310Z 03004KT 10SM CLR 08/02 A2996 600 63 0 030/04 RMK AO2 $
14840KMKG MKG20050421221509204/21/05 22:15:31  5-MIN KMKG 220315Z 04003KT 10SM CLR 09/02 A2996 600 60 0 040/03 RMK AO2 $
14840KMKG MKG20050421222009204/21/05 22:20:31  5-MIN KMKG 220320Z 05003KT 10SM CLR 08/02 A2995 600 63 0 050/03 RMK AO2 $
14840KMKG MKG20050421222509204/21/05 22:25:31  5-MIN KMKG 220325Z 06004KT 10SM CLR 08/02 A2995 600 65 0 060/04 RMK AO2 $
14840KMKG MKG20050421223009204/21/05 22:30:31  5-MIN KMKG 220330Z 06004KT 10SM CLR 08/02 A2995 600 65 0 060/04 RMK AO2 $
14840KMKG MKG20050421223509604/21/05 22:35:31  5-MIN KMKG 220335Z 06004KT 10SM CLR 07/02 A2995 600 68  -100 060/04 RMK AO2 $
14840KMKG MKG20050421224009604/21/05 22:40:31  5-MIN KMKG 220340Z 06005KT 10SM CLR 07/02 A2995 600 68  -100 060/05 RMK AO2 $
14840KMKG MKG20050421224509604/21/05 22:45:31  5-MIN KMKG 220345Z 05004KT 10SM CLR 07/02 A2995 600 68  -100 050/04 RMK AO2 $
14840KMKG MKG20050421225011304/21/05 22:50:31  5-MIN KMKG 220350Z 05005KT 10SM CLR 07/02 A2995 600 68  -100 060/05 RMK AO2 SLP144 T00720017 $
14840KMKG MKG20050421225511304/21/05 22:55:31  5-MIN KMKG 220355Z 05005KT 10SM CLR 07/02 A2995 610 68  -100 050/05 RMK AO2 SLP143 T00720017 $
14840KMKG MKG20050421230009604/21/05 23:00:31  5-MIN KMKG 220400Z 05005KT 10SM CLR 07/02 A2994 610 68  -100 050/05 RMK AO2 $
14840KMKG MKG20050421230509604/21/05 23:05:31  5-MIN KMKG 220405Z 05005KT 10SM CLR 07/02 A2995 610 68  -100 050/05 RMK AO2 $
14840KMKG MKG20050421231009604/21/05 23:10:31  5-MIN KMKG 220410Z 06005KT 10SM CLR 07/02 A2995 610 68  -100 060/05 RMK AO2 $
14840KMKG MKG20050421231509604/21/05 23:15:31  5-MIN KMKG 220415Z 06005KT 10SM CLR 07/02 A2995 610 68  -100 060/05 RMK AO2 $
14840KMKG MKG20050421232009604/21/05 23:20:31  5-MIN KMKG 220420Z 06006KT 10SM CLR 07/02 A2995 610 70  -200 070/06 RMK AO2 $
14840KMKG MKG20050421232509604/21/05 23:25:31  5-MIN KMKG 220425Z 06006KT 10SM CLR 07/01 A2995 610 67  -200 070/06 RMK AO2 $
14840KMKG MKG20050421233009604/21/05 23:30:31  5-MIN KMKG 220430Z 07005KT 10SM CLR 07/01 A2995 610 67  -200 070/05 RMK AO2 $
14840KMKG MKG20050421233509604/21/05 23:35:31  5-MIN KMKG 220435Z 07005KT 10SM CLR 07/01 A2995 610 67  -200 070/05 RMK AO2 $
14840KMKG MKG20050421234009604/21/05 23:40:31  5-MIN KMKG 220440Z 08005KT 10SM CLR 07/01 A2994 610 65  -200 080/05 RMK AO2 $
14840KMKG MKG20050421234509604/21/05 23:45:31  5-MIN KMKG 220445Z 10006KT 10SM CLR 06/01 A2995 610 67  -200 100/06 RMK AO2 $
14840KMKG MKG20050421235012304/21/05 23:50:31  5-MIN KMKG 220450Z 10005KT 10SM CLR 07/01 A2995 610 65  -200 100/05 RMK AO2 SLP143 T00670006 401670033 $
14840KMKG MKG20050421235512304/21/05 23:55:31  5-MIN KMKG 220455Z 09006KT 10SM CLR 07/01 A2994 610 65  -200 100/06 RMK AO2 SLP141 T00670006 401670033 $
14840KMKG MKG20050422000009604/22/05 00:00:32  5-MIN KMKG 220500Z 09006KT 10SM CLR 07/01 A2994 620 62  -100 090/06 RMK AO2 $
14840KMKG MKG20050422000509604/22/05 00:05:31  5-MIN KMKG 220505Z 10005KT 10SM CLR 07/01 A2993 620 62  -100 110/05 RMK AO2 $
14840KMKG MKG20050422001009604/22/05 00:10:31  5-MIN KMKG 220510Z 10006KT 10SM CLR 07/01 A2993 620 62  -100 100/06 RMK AO2 $
14840KMKG MKG20050422001509604/22/05 00:15:31  5-MIN KMKG 220515Z 09007KT 10SM CLR 07/01 A2993 620 62  -100 100/07 RMK AO2 $
14840KMKG MKG20050422002009604/22/05 00:20:31  5-MIN KMKG 220520Z 09006KT 10SM CLR 07/01 A2992 630 62  -100 090/06 RMK AO2 $
14840KMKG MKG20050422002509604/22/05 00:25:31  5-MIN KMKG 220525Z 08008KT 10SM CLR 07/01 A2992 630 62  -100 090/08 RMK AO2 $
14840KMKG MKG20050422003009604/22/05 00:30:31  5-MIN KMKG 220530Z 09008KT 10SM CLR 07/01 A2992 630 65  -100 090/08 RMK AO2 $
14840KMKG MKG20050422003509604/22/05 00:35:31  5-MIN KMKG 220535Z 09007KT 10SM CLR 07/01 A2991 640 65  -100 090/07 RMK AO2 $
14840KMKG MKG20050422004009604/22/05 00:40:31  5-MIN KMKG 220540Z 09007KT 10SM CLR 07/01 A2991 640 65  -100 100/07 RMK AO2 $
14840KMKG MKG20050422004509604/22/05 00:45:31  5-MIN KMKG 220545Z 09008KT 10SM CLR 07/01 A2991 640 65  -100 090/08 RMK AO2 $
14840KMKG MKG20050422005013104/22/05 00:50:31  5-MIN KMKG 220550Z 09008KT 10SM CLR 07/01 A2991 640 65  -100 090/08 RMK AO2 SLP130 T00670006 10122 20061 56015 $
14840KMKG MKG20050422005513104/22/05 00:55:31  5-MIN KMKG 220555Z 10007KT 10SM CLR 07/01 A2991 640 65  -100 100/07 RMK AO2 SLP130 T00670006 10122 20061 58013 $
14840KMKG MKG20050422010009604/22/05 01:00:31  5-MIN KMKG 220600Z 10008KT 10SM CLR 07/01 A2991 640 65  -100 100/08 RMK AO2 $
14840KMKG MKG20050422010509604/22/05 01:05:31  5-MIN KMKG 220605Z 09007KT 10SM CLR 07/01 A2990 650 65  -100 100/07 RMK AO2 $
14840KMKG MKG20050422011009604/22/05 01:10:31  5-MIN KMKG 220610Z 09008KT 10SM CLR 07/01 A2990 650 65  -100 100/08 RMK AO2 $
14840KMKG MKG20050422011509604/22/05 01:15:31  5-MIN KMKG 220615Z 09008KT 10SM CLR 07/01 A2990 650 65  -100 100/08 RMK AO2 $
14840KMKG MKG20050422012009604/22/05 01:20:31  5-MIN KMKG 220620Z 10008KT 10SM CLR 07/01 A2990 650 65  -100 100/08 RMK AO2 $
14840KMKG MKG20050422012509604/22/05 01:25:31  5-MIN KMKG 220625Z 10007KT 10SM CLR 07/01 A2989 660 65  -100 110/07 RMK AO2 $
14840KMKG MKG20050422013009604/22/05 01:30:31  5-MIN KMKG 220630Z 10007KT 10SM CLR 06/01 A2989 660 67  -200 100/07 RMK AO2 $
14840KMKG MKG20050422013509604/22/05 01:35:31  5-MIN KMKG 220635Z 10007KT 10SM CLR 07/01 A2989 660 65  -100 110/07 RMK AO2 $
14840KMKG MKG20050422014009604/22/05 01:40:31  5-MIN KMKG 220640Z 11006KT 10SM CLR 07/01 A2989 660 67  -100 110/06 RMK AO2 $
14840KMKG MKG20050422014509604/22/05 01:45:31  5-MIN KMKG 220645Z 11006KT 10SM CLR 07/01 A2989 660 67  -100 110/06 RMK AO2 $
14840KMKG MKG20050422015011304/22/05 01:50:31  5-MIN KMKG 220650Z 11006KT 10SM CLR 07/01 A2989 660 67  -100 110/06 RMK AO2 SLP123 T00670011 $
14840KMKG MKG20050422015511304/22/05 01:55:31  5-MIN KMKG 220655Z 11005KT 10SM CLR 07/01 A2989 660 65  -100 110/05 RMK AO2 SLP123 T00670006 $
14840KMKG MKG20050422020009604/22/05 02:00:31  5-MIN KMKG 220700Z 12006KT 10SM CLR 07/01 A2989 660 67  -100 120/06 RMK AO2 $
14840KMKG MKG20050422020509904/22/05 02:05:31  5-MIN KMKG 220705Z 11005KT 10SM FEW120 06/01 A2989 660  70 -200 120/05 RMK AO2 $
14840KMKG MKG20050422021009904/22/05 02:10:31  5-MIN KMKG 220710Z 11005KT 10SM SCT120 06/01 A2989 660  70 -200 110/05 RMK AO2 $
14840KMKG MKG20050422021509904/22/05 02:15:31  5-MIN KMKG 220715Z 10005KT 10SM SCT120 06/01 A2989 660  70 -200 110/05 RMK AO2 $
14840KMKG MKG20050422022009904/22/05 02:20:31  5-MIN KMKG 220720Z 10005KT 10SM SCT120 07/01 A2989 660  67 -100 110/05 RMK AO2 $
14840KMKG MKG20050422022509904/22/05 02:25:31  5-MIN KMKG 220725Z 10005KT 10SM SCT120 07/01 A2988 670  67 -100 110/05 RMK AO2 $
14840KMKG MKG20050422023009904/22/05 02:30:31  5-MIN KMKG 220730Z 10005KT 10SM SCT120 07/01 A2988 670  67 -100 100/05 RMK AO2 $
14840KMKG MKG20050422023509904/22/05 02:35:31  5-MIN KMKG 220735Z 08005KT 10SM SCT120 06/01 A2987 670  70 -100 090/05 RMK AO2 $
14840KMKG MKG20050422024009904/22/05 02:40:31  5-MIN KMKG 220740Z 08006KT 10SM SCT110 06/01 A2987 680  67 -100 080/06 RMK AO2 $
14840KMKG MKG20050422024509904/22/05 02:45:31  5-MIN KMKG 220745Z 09006KT 10SM SCT110 06/01 A2987 680  67 -100 090/06 RMK AO2 $
14840KMKG MKG20050422025011604/22/05 02:50:31  5-MIN KMKG 220750Z 09005KT 10SM SCT110 06/01 A2986 680  67 -100 090/05 RMK AO2 SLP115 T00610006 $
14840KMKG MKG20050422025511604/22/05 02:55:31  5-MIN KMKG 220755Z 09005KT 10SM BKN120 06/01 A2986 690  67 -100 090/05 RMK AO2 SLP113 T00610006 $
14840KMKG MKG20050422030009904/22/05 03:00:31  5-MIN KMKG 220800Z 09006KT 10SM BKN110 06/01 A2986 690  67 -100 100/06 RMK AO2 $
14840KMKG MKG20050422030509904/22/05 03:05:31  5-MIN KMKG 220805Z 09007KT 10SM SCT120 06/01 A2985 700  70 -200 090/07 RMK AO2 $
14840KMKG MKG20050422031009904/22/05 03:10:31  5-MIN KMKG 220810Z 08007KT 10SM SCT120 06/01 A2985 700  67 -100 080/07 RMK AO2 $
14840KMKG MKG20050422031509904/22/05 03:15:31  5-MIN KMKG 220815Z 08007KT 10SM BKN120 06/01 A2985 700  70 -200 080/07 RMK AO2 $
14840KMKG MKG20050422032009904/22/05 03:20:31  5-MIN KMKG 220820Z 08007KT 10SM BKN120 06/01 A2985 700  70 -200 080/07 RMK AO2 $
14840KMKG MKG20050422032509904/22/05 03:25:31  5-MIN KMKG 220825Z 08007KT 10SM BKN120 06/01 A2984 700  70 -200 090/07 RMK AO2 $
14840KMKG MKG20050422033009904/22/05 03:30:31  5-MIN KMKG 220830Z 09007KT 10SM BKN120 06/01 A2984 700  70 -200 090/07 RMK AO2 $
14840KMKG MKG20050422033509904/22/05 03:35:31  5-MIN KMKG 220835Z 09007KT 10SM BKN120 06/01 A2984 700  70 -200 100/07 RMK AO2 $
14840KMKG MKG20050422034009904/22/05 03:40:31  5-MIN KMKG 220840Z 10007KT 10SM BKN110 06/01 A2984 710  70 -200 100/07 RMK AO2 $
14840KMKG MKG20050422034509904/22/05 03:45:31  5-MIN KMKG 220845Z 10007KT 10SM BKN110 06/01 A2984 710  70 -200 100/07 RMK AO2 $
14840KMKG MKG20050422035012204/22/05 03:50:31  5-MIN KMKG 220850Z 10005KT 10SM SCT110 05/01 A2984 710  73 -200 100/05 RMK AO2 SLP106 T00500006 58013 $
14840KMKG MKG20050422035512204/22/05 03:55:31  5-MIN KMKG 220855Z 10005KT 10SM SCT110 05/01 A2984 700  73 -200 110/05 RMK AO2 SLP107 T00500006 58022 $
14840KMKG MKG20050422040009904/22/05 04:00:31  5-MIN KMKG 220900Z 10006KT 10SM BKN110 05/01 A2984 710  73 -200 100/06 RMK AO2 $
14840KMKG MKG20050422040509904/22/05 04:05:31  5-MIN KMKG 220905Z 08006KT 10SM BKN110 06/01 A2983 710  70 -200 090/06 RMK AO2 $
14840KMKG MKG20050422041009904/22/05 04:10:31  5-MIN KMKG 220910Z 08007KT 10SM BKN110 06/01 A2983 710  70 -200 080/07 RMK AO2 $
14840KMKG MKG20050422041509904/22/05 04:15:31  5-MIN KMKG 220915Z 08007KT 10SM BKN110 06/01 A2983 710  70 -200 080/07 RMK AO2 $
14840KMKG MKG20050422042009904/22/05 04:20:31  5-MIN KMKG 220920Z 08007KT 10SM OVC110 06/01 A2983 710  70 -200 080/07 RMK AO2 $
14840KMKG MKG20050422042509904/22/05 04:25:31  5-MIN KMKG 220925Z 07007KT 10SM OVC110 06/01 A2983 710  70 -200 080/07 RMK AO2 $
14840KMKG MKG20050422043009904/22/05 04:30:31  5-MIN KMKG 220930Z 08008KT 10SM OVC110 06/01 A2983 720  70 -200 080/08 RMK AO2 $
14840KMKG MKG20050422043509904/22/05 04:35:31  5-MIN KMKG 220935Z 08008KT 10SM OVC110 06/01 A2983 720  70 -200 080/08 RMK AO2 $
14840KMKG MKG20050422044009904/22/05 04:40:31  5-MIN KMKG 220940Z 08007KT 10SM OVC110 06/01 A2982 720  70 -200 080/07 RMK AO2 $
14840KMKG MKG20050422044509904/22/05 04:45:31  5-MIN KMKG 220945Z 08008KT 10SM OVC110 06/00 A2982 720  65 -100 090/08 RMK AO2 $
14840KMKG MKG20050422045011604/22/05 04:50:31  5-MIN KMKG 220950Z 09007KT 10SM OVC110 06/00 A2982 720  65 -100 090/07 RMK AO2 SLP101 T00610000 $
14840KMKG MKG20050422045511604/22/05 04:55:31  5-MIN KMKG 220955Z 10006KT 10SM OVC110 06/00 A2982 720  65 -100 100/06 RMK AO2 SLP100 T00610000 $
14840KMKG MKG20050422050009904/22/05 05:00:31  5-MIN KMKG 221000Z 09007KT 10SM OVC110 06/00 A2983 720  65 -100 100/07 RMK AO2 $
14840KMKG MKG20050422050509904/22/05 05:05:31  5-MIN KMKG 221005Z 09005KT 10SM OVC110 06/00 A2983 720  65 -100 100/05 RMK AO2 $
14840KMKG MKG20050422051009904/22/05 05:10:31  5-MIN KMKG 221010Z 09006KT 10SM OVC110 06/00 A2982 720  65 -100 090/06 RMK AO2 $
14840KMKG MKG20050422051509904/22/05 05:15:31  5-MIN KMKG 221015Z 08005KT 10SM OVC110 06/00 A2982 720  65 -100 090/05 RMK AO2 $
14840KMKG MKG20050422052009904/22/05 05:20:31  5-MIN KMKG 221020Z 09007KT 10SM OVC110 06/00 A2982 720  65 -100 090/07 RMK AO2 $
14840KMKG MKG20050422052509904/22/05 05:25:31  5-MIN KMKG 221025Z 08006KT 10SM OVC110 06/00 A2982 720  65 -100 080/06 RMK AO2 $
14840KMKG MKG20050422053009904/22/05 05:30:31  5-MIN KMKG 221030Z 07008KT 10SM OVC110 06/00 A2982 720  65 -100 080/08 RMK AO2 $
14840KMKG MKG20050422053509904/22/05 05:35:31  5-MIN KMKG 221035Z 08006KT 10SM OVC110 06/00 A2982 720  65 -100 080/06 RMK AO2 $
14840KMKG MKG20050422054009904/22/05 05:40:31  5-MIN KMKG 221040Z 08007KT 10SM OVC110 06/00 A2982 720  65 -100 090/07 RMK AO2 $
14840KMKG MKG20050422054509904/22/05 05:45:31  5-MIN KMKG 221045Z 08007KT 10SM OVC110 06/00 A2982 720  65 -100 090/07 RMK AO2 $
14840KMKG MKG20050422055011604/22/05 05:50:31  5-MIN KMKG 221050Z 08007KT 10SM OVC110 06/00 A2982 720  65 -100 090/07 RMK AO2 SLP101 T00610000 $
14840KMKG MKG20050422055511604/22/05 05:55:31  5-MIN KMKG 221055Z 09007KT 10SM BKN110 06/00 A2982 720  65 -100 100/07 RMK AO2 SLP101 T00610000 $
14840KMKG MKG20050422060009904/22/05 06:00:31  5-MIN KMKG 221100Z 09007KT 10SM BKN110 06/00 A2982 720  65 -100 100/07 RMK AO2 $
14840KMKG MKG20050422060509904/22/05 06:05:31  5-MIN KMKG 221105Z 10006KT 10SM BKN110 06/00 A2983 720  65 -100 100/06 RMK AO2 $
14840KMKG MKG20050422061009904/22/05 06:10:31  5-MIN KMKG 221110Z 10005KT 10SM BKN110 06/00 A2982 720  65 -100 110/05 RMK AO2 $
14840KMKG MKG20050422061509904/22/05 06:15:31  5-MIN KMKG 221115Z 10005KT 10SM BKN110 06/00 A2982 720  65 -100 100/05 RMK AO2 $
14840KMKG MKG20050422062009904/22/05 06:20:31  5-MIN KMKG 221120Z 09006KT 10SM BKN100 06/00 A2982 720  65 -100 090/06 RMK AO2 $
14840KMKG MKG20050422062509904/22/05 06:25:31  5-MIN KMKG 221125Z 10006KT 10SM BKN100 06/00 A2982 720  65 -100 100/06 RMK AO2 $
14840KMKG MKG20050422063009904/22/05 06:30:31  5-MIN KMKG 221130Z 09006KT 10SM BKN100 06/01 A2982 720  67 -100 100/06 RMK AO2 $
14840KMKG MKG20050422063509904/22/05 06:35:31  5-MIN KMKG 221135Z 09006KT 10SM BKN100 06/00 A2982 720  65 -100 090/06 RMK AO2 $
14840KMKG MKG20050422064009904/22/05 06:40:31  5-MIN KMKG 221140Z 09007KT 10SM OVC100 06/00 A2982 720  65 -100 090/07 RMK AO2 $
14840KMKG MKG20050422064509904/22/05 06:45:31  5-MIN KMKG 221145Z 08007KT 10SM OVC100 06/01 A2982 720  67 -100 080/07 RMK AO2 $
14840KMKG MKG20050422065013404/22/05 06:50:31  5-MIN KMKG 221150Z 08007KT 10SM OVC110 06/01 A2982 730  67 -100 090/07 RMK AO2 SLP099 T00610006 10067 20050 58022 $
14840KMKG MKG20050422065513404/22/05 06:55:31  5-MIN KMKG 221155Z 08008KT 10SM OVC110 06/01 A2981 730  67 -100 080/08 RMK AO2 SLP098 T00610006 10067 20050 56009 $
14840KMKG MKG20050422070009904/22/05 07:00:31  5-MIN KMKG 221200Z 07007KT 10SM BKN110 06/01 A2981 730  67 -100 080/07 RMK AO2 $
14840KMKG MKG20050422070509604/22/05 07:05:31  5-MIN KMKG 221205Z 07009KT 10SM BKN110 07/01 A2981 730  65 0 070/09 RMK AO2 $
14840KMKG MKG20050422071009604/22/05 07:10:31  5-MIN KMKG 221210Z 07009KT 10SM BKN110 07/01 A2981 730  65 0 070/09 RMK AO2 $
14840KMKG MKG20050422071509604/22/05 07:15:31  5-MIN KMKG 221215Z 07008KT 10SM BKN110 07/01 A2981 730  65 0 070/08 RMK AO2 $
14840KMKG MKG20050422072009604/22/05 07:20:31  5-MIN KMKG 221220Z 07009KT 10SM SCT110 07/01 A2981 730  65 0 070/09 RMK AO2 $
14840KMKG MKG20050422072509604/22/05 07:25:31  5-MIN KMKG 221225Z 07009KT 10SM SCT110 07/01 A2981 740  65 0 070/09 RMK AO2 $
14840KMKG MKG20050422073009404/22/05 07:30:31  5-MIN KMKG 221230Z 07010KT 10SM FEW110 07/01 A2980 740  65 0 080/10 RMK AO2
14840KMKG MKG20050422073509404/22/05 07:35:31  5-MIN KMKG 221235Z 08009KT 10SM FEW110 07/01 A2980 740  65 0 080/09 RMK AO2
14840KMKG MKG20050422074009004/22/05 07:40:31  5-MIN KMKG 221240Z 08008KT 10SM CLR 07/01 A2980 740 62 0 080/08 RMK AO2
14840KMKG MKG20050422074509004/22/05 07:45:31  5-MIN KMKG 221245Z 07008KT 10SM CLR 07/01 A2980 740 62 0 080/08 RMK AO2
14840KMKG MKG20050422075011104/22/05 07:50:31  5-MIN KMKG 221250Z 08009KT 10SM SCT110 07/01 A2980 740  62 0 080/09 RMK AO2 SLP094 T00720006
14840KMKG MKG20050422075511104/22/05 07:55:31  5-MIN KMKG 221255Z 08010KT 10SM SCT110 07/01 A2980 740  62 0 080/10 RMK AO2 SLP094 T00720006
14840KMKG MKG20050422080009404/22/05 08:00:31  5-MIN KMKG 221300Z 07007KT 10SM FEW100 07/01 A2980 740  62 0 080/07 RMK AO2
14840KMKG MKG20050422080509404/22/05 08:05:31  5-MIN KMKG 221305Z 08008KT 10SM SCT100 07/01 A2980 740  62 0 080/08 RMK AO2
14840KMKG MKG20050422081009404/22/05 08:10:31  5-MIN KMKG 221310Z 08009KT 10SM BKN100 07/01 A2980 740  62 0 080/09 RMK AO2
14840KMKG MKG20050422081509404/22/05 08:15:31  5-MIN KMKG 221315Z 08007KT 10SM BKN100 07/01 A2980 740  62 0 080/07 RMK AO2
14840KMKG MKG20050422082009404/22/05 08:20:31  5-MIN KMKG 221320Z 08009KT 10SM BKN100 07/01 A2980 740  62 0 080/09 RMK AO2
14840KMKG MKG20050422082509604/22/05 08:25:31  5-MIN KMKG 221325Z 08008KT 10SM OVC100 08/01 A2980 750  60 100 080/08 RMK AO2
14840KMKG MKG20050422083009604/22/05 08:30:31  5-MIN KMKG 221330Z 08008KT 10SM OVC095 08/00 A2979 750  58 100 080/08 RMK AO2
14840KMKG MKG20050422083509604/22/05 08:35:31  5-MIN KMKG 221335Z 08009KT 10SM OVC095 08/00 A2979 750  58 100 080/09 RMK AO2
14840KMKG MKG20050422084009604/22/05 08:40:31  5-MIN KMKG 221340Z 07009KT 10SM BKN095 08/00 A2979 750  58 100 080/09 RMK AO2
14840KMKG MKG20050422084509604/22/05 08:45:31  5-MIN KMKG 221345Z 07007KT 10SM BKN090 08/00 A2978 760  58 100 080/07 RMK AO2
14840KMKG MKG20050422085011304/22/05 08:50:31  5-MIN KMKG 221350Z 07010KT 10SM SCT095 08/00 A2978 760  58 100 080/10 RMK AO2 SLP088 T00780000
14840KMKG MKG20050422085511304/22/05 08:55:31  5-MIN KMKG 221355Z 07009KT 10SM BKN090 08/00 A2978 760  58 100 080/09 RMK AO2 SLP088 T00780000
14840KMKG MKG20050422090009604/22/05 09:00:31  5-MIN KMKG 221400Z 07009KT 10SM FEW090 08/00 A2978 760  58 100 070/09 RMK AO2
14840KMKG MKG20050422090509604/22/05 09:05:31  5-MIN KMKG 221405Z 07008KT 10SM FEW085 08/00 A2978 760  58 100 070/08 RMK AO2
14840KMKG MKG20050422091009604/22/05 09:10:31  5-MIN KMKG 221410Z 07010KT 10SM FEW085 08/00 A2977 770  58 100 070/10 RMK AO2
14840KMKG MKG20050422091509604/22/05 09:15:31  5-MIN KMKG 221415Z 07009KT 10SM FEW085 08/00 A2977 770  58 100 070/09 RMK AO2
14840KMKG MKG20050422092009604/22/05 09:20:31  5-MIN KMKG 221420Z 07008KT 10SM FEW080 08/00 A2977 770  58 100 080/08 RMK AO2
14840KMKG MKG20050422092509604/22/05 09:25:31  5-MIN KMKG 221425Z 07009KT 10SM FEW080 08/00 A2977 770  58 100 070/09 RMK AO2
14840KMKG MKG20050422093009604/22/05 09:30:31  5-MIN KMKG 221430Z 08009KT 10SM FEW080 08/00 A2976 770  55 200 080/09 RMK AO2
14840KMKG MKG20050422093509304/22/05 09:35:31  5-MIN KMKG 221435Z 06010KT 10SM CLR 08/00 A2976 780 55  200 070/10 RMK AO2
14840KMKG MKG20050422094009604/22/05 09:40:31  5-MIN KMKG 221440Z 06009KT 10SM FEW070 08/00 A2976 780  55 200 070/09 RMK AO2
14840KMKG MKG20050422094509604/22/05 09:45:31  5-MIN KMKG 221445Z 08010KT 10SM FEW065 08/00 A2976 780  55 200 080/10 RMK AO2
14840KMKG MKG20050422095011904/22/05 09:50:31  5-MIN KMKG 221450Z 07008KT 10SM SCT060 08/00 A2976 780  55 200 070/08 RMK AO2 SLP080 T00830000 56009
14840KMKG MKG20050422095511904/22/05 09:55:31  5-MIN KMKG 221455Z 07008KT 10SM BKN060 08/00 A2976 780  55 200 070/08 RMK AO2 SLP080 T00830000 58018
14840KMKG MKG20050422100009604/22/05 10:00:31  5-MIN KMKG 221500Z 05009KT 10SM SCT060 08/00 A2976 780  55 200 050/09 RMK AO2
14840KMKG MKG20050422100509604/22/05 10:05:31  5-MIN KMKG 221505Z 07009KT 10SM BKN060 08/00 A2976 780  55 200 070/09 RMK AO2
14840KMKG MKG20050422101009604/22/05 10:10:31  5-MIN KMKG 221510Z 06010KT 10SM BKN060 08/M01 A2976 780 53 200 060/10 RMK AO2
14840KMKG MKG20050422101509604/22/05 10:15:31  5-MIN KMKG 221515Z 07009KT 10SM BKN060 08/00 A2976 780  55 200 070/09 RMK AO2
14840KMKG MKG20050422102009604/22/05 10:20:31  5-MIN KMKG 221520Z 06009KT 10SM BKN055 08/00 A2976 780  55 200 070/09 RMK AO2
14840KMKG MKG20050422102509604/22/05 10:25:31  5-MIN KMKG 221525Z 06008KT 10SM BKN055 08/00 A2976 780  55 200 070/08 RMK AO2
14840KMKG MKG20050422103009604/22/05 10:30:31  5-MIN KMKG 221530Z 07008KT 10SM BKN055 08/00 A2976 780  55 200 080/08 RMK AO2
14840KMKG MKG20050422103509604/22/05 10:35:31  5-MIN KMKG 221535Z 08009KT 10SM BKN055 08/00 A2976 780  55 200 090/09 RMK AO2
14840KMKG MKG20050422104011204/22/05 10:40:31  5-MIN KMKG 221540Z 10008KT 10SM -RA BKN050 08/00 A2976  780 55 200 100/08 RMK AO2 RAB37 P0000
14840KMKG MKG20050422104511804/22/05 10:45:31  5-MIN KMKG 221545Z 11011KT 7SM -RA FEW017 OVC045 08/01  A2976 780 62 100 110/11 RMK AO2 RAB37 P0000
14840KMKG MKG20050422105014104/22/05 10:50:31  5-MIN KMKG 221550Z 09008KT 3SM RA FEW017 BKN031 BKN041  07/02 A2977 770 70 100 090/08 RMK AO2 RAB37 SLP083 P0001 T00720022
14840KMKG MKG20050422105513204/22/05 10:55:31  5-MIN KMKG 221555Z 10010KT 3SM RA FEW019 BKN025 07/02  A2977 770 73 0 110/10 RMK AO2 RAB37 SLP083 P0002 T00670022
14840KMKG MKG20050422110010304/22/05 11:00:31  5-MIN KMKG 221600Z 11011KT 4SM -RA OVC020 07/03 A2976  780 76 0 110/11 RMK AO2 P0001
14840KMKG MKG20050422110510304/22/05 11:05:31  5-MIN KMKG 221605Z 11013KT 4SM -RA OVC018 07/03 A2976  780 76 0 120/13 RMK AO2 P0001
14840KMKG MKG20050422111010304/22/05 11:10:31  5-MIN KMKG 221610Z 10011KT 5SM -RA OVC018 06/03 A2976  780 79 0 100/11 RMK AO2 P0002
14840KMKG MKG20050422111510304/22/05 11:15:31  5-MIN KMKG 221615Z 10008KT 5SM -RA OVC020 06/03 A2976  780 79 0 100/08 RMK AO2 P0002
14840KMKG MKG20050422112010304/22/05 11:20:31  5-MIN KMKG 221620Z 10010KT 5SM -RA OVC018 06/03 A2976  780 79 0 100/10 RMK AO2 P0003
14840KMKG MKG20050422112511604/22/05 11:25:31  5-MIN KMKG 221625Z 10014G18KT 4SM -RA BKN016 OVC030  06/03 A2976 780 79 0 110/14G18 RMK AO2 P0003
14840KMKG MKG20050422113011004/22/05 11:30:31  5-MIN KMKG 221630Z 11013KT 4SM -RA BKN018 OVC032 06/03  A2976 780 79 0 120/13 RMK AO2 P0004
14840KMKG MKG20050422113510304/22/05 11:35:31  5-MIN KMKG 221635Z 11008KT 4SM -RA OVC018 06/03 A2976  770 82 0 110/08 RMK AO2 P0004
14840KMKG MKG20050422114011404/22/05 11:40:31  5-MIN KMKG 221640Z 11007KT 3SM RA BR BKN016 OVC023 06/03 A2976 770 85 -100 110/07 RMK AO2 P0004
14840KMKG MKG20050422114511604/22/05 11:45:31  5-MIN KMKG 221645Z 13009KT 3SM -RA BR BKN014 OVC023  06/04 A2977 770 89 -100 140/09 RMK AO2 P0005
14840KMKG MKG20050422115013304/22/05 11:50:31  5-MIN KMKG 221650Z 12011KT 4SM -RA BR BKN014 OVC023  06/03 A2977 770 85 -100 130/11 RMK AO2 SLP085 P0006 T00560033
14840KMKG MKG20050422115513304/22/05 11:55:31  5-MIN KMKG 221655Z 10010KT 4SM -RA BR BKN014 OVC023  05/03 A2977 770 89 -200 110/10 RMK AO2 SLP086 P0006 T00500033
14840KMKG MKG20050422120011604/22/05 12:00:31  5-MIN KMKG 221700Z 09010KT 4SM -RA BR BKN014 OVC023  05/03 A2977 770 85 -200 090/10 RMK AO2 P0000
14840KMKG MKG20050422120511604/22/05 12:05:31  5-MIN KMKG 221705Z 09008KT 4SM -RA BR BKN014 OVC023  06/03 A2977 770 85 -100 090/08 RMK AO2 P0000
14840KMKG MKG20050422121011604/22/05 12:10:31  5-MIN KMKG 221710Z 08008KT 5SM -RA BR BKN016 OVC023  06/03 A2977 770 85 -100 090/08 RMK AO2 P0001
14840KMKG MKG20050422121511604/22/05 12:15:31  5-MIN KMKG 221715Z 09007KT 6SM -RA BR BKN020 OVC039  06/04 A2977 770 89 -100 090/07 RMK AO2 P0001
14840KMKG MKG20050422122012604/22/05 12:20:31  5-MIN KMKG 221720Z 08012G15KT 8SM -RA BKN024 BKN039  OVC055 06/04 A2976 780 89 -100 080/12G15 RMK AO2 P0001
14840KMKG MKG20050422122512404/22/05 12:25:31  5-MIN KMKG 221725Z 10010G16KT 10SM -RA BKN026 BKN039  OVC050 06/03 A2976 780 82 0 100/10G16 RMK AO2 P0001
14840KMKG MKG20050422123011004/22/05 12:30:31  5-MIN KMKG 221730Z 10008KT 10SM -RA BKN036 BKN050 06/03 A2977 770 82 0 110/08 RMK AO2 P0001
14840KMKG MKG20050422123511304/22/05 12:35:31  5-MIN KMKG 221735Z 10009KT 10SM BKN040 OVC050 06/03  A2976 770 82 0 100/09 RMK AO2 RAE34 P0001
14840KMKG MKG20050422124010604/22/05 12:40:31  5-MIN KMKG 221740Z 09006KT 10SM BKN044 06/04 A2976 780  86 0 100/06 RMK AO2 RAE34 P0001
14840KMKG MKG20050422124510604/22/05 12:45:31  5-MIN KMKG 221745Z 09008KT 10SM BKN044 06/04 A2976 780  86 0 090/08 RMK AO2 RAE34 P0001
14840KMKG MKG20050422125014704/22/05 12:50:31  5-MIN KMKG 221750Z 09007KT 10SM BKN046 06/04 A2976 780  86 0 100/07 RMK AO2 RAE34 SLP082 P0001 60009 T00610039 10083 20050 58018
14840KMKG MKG20050422125514704/22/05 12:55:31  5-MIN KMKG 221755Z 09008KT 10SM BKN044 06/04 A2976 780  86 0 090/08 RMK AO2 RAE34 SLP081 P0001 60009 T00610039 10083 20050 50001
14840KMKG MKG20050422130009404/22/05 13:00:31  5-MIN KMKG 221800Z 08009KT 10SM BKN042 06/04 A2976 780  86 0 090/09 RMK AO2
14840KMKG MKG20050422130509404/22/05 13:05:31  5-MIN KMKG 221805Z 09008KT 10SM BKN042 06/04 A2976 780  86 0 090/08 RMK AO2
14840KMKG MKG20050422131009404/22/05 13:10:31  5-MIN KMKG 221810Z 08007KT 10SM OVC040 06/04 A2976 780  86 0 090/07 RMK AO2
14840KMKG MKG20050422131509404/22/05 13:15:31  5-MIN KMKG 221815Z 08007KT 10SM OVC040 06/04 A2977 770  86 0 090/07 RMK AO2
14840KMKG MKG20050422132010104/22/05 13:20:31  5-MIN KMKG 221820Z 09007KT 10SM BKN040 OVC048 07/04  A2977 770 82 0 090/07 RMK AO2
14840KMKG MKG20050422132509404/22/05 13:25:31  5-MIN KMKG 221825Z 09007KT 10SM BKN045 07/04 A2977 770  82 0 100/07 RMK AO2
14840KMKG MKG20050422133009404/22/05 13:30:31  5-MIN KMKG 221830Z 10007KT 10SM BKN047 07/04 A2977 770  82 0 110/07 RMK AO2
14840KMKG MKG20050422133509604/22/05 13:35:31  5-MIN KMKG 221835Z 10008KT 10SM BKN049 07/04 A2977 770  79 100 110/08 RMK AO2
14840KMKG MKG20050422134009604/22/05 13:40:31  5-MIN KMKG 221840Z 11008KT 10SM BKN049 07/04 A2977 770  82 100 110/08 RMK AO2
14840KMKG MKG20050422134509604/22/05 13:45:31  5-MIN KMKG 221845Z 10008KT 10SM BKN055 07/04 A2977 770  82 100 110/08 RMK AO2
14840KMKG MKG20050422135011304/22/05 13:50:31  5-MIN KMKG 221850Z 10006KT 10SM BKN055 07/04 A2976 780  82 100 100/06 RMK AO2 SLP082 T00720044
14840KMKG MKG20050422135511304/22/05 13:55:31  5-MIN KMKG 221855Z 09007KT 10SM BKN055 07/04 A2976 780  82 100 100/07 RMK AO2 SLP081 T00720044
14840KMKG MKG20050422140009604/22/05 14:00:31  5-MIN KMKG 221900Z 09008KT 10SM SCT060 07/04 A2976 780  82 100 090/08 RMK AO2
14840KMKG MKG20050422140509604/22/05 14:05:31  5-MIN KMKG 221905Z 09007KT 10SM SCT060 07/04 A2976 780  82 100 090/07 RMK AO2
14840KMKG MKG20050422141009604/22/05 14:10:31  5-MIN KMKG 221910Z 09008KT 10SM FEW060 07/04 A2976 780  82 100 100/08 RMK AO2
14840KMKG MKG20050422141509604/22/05 14:15:31  5-MIN KMKG 221915Z 10008KT 10SM SCT065 07/04 A2976 780  82 100 100/08 RMK AO2
14840KMKG MKG20050422142009604/22/05 14:20:31  5-MIN KMKG 221920Z 11010KT 10SM SCT070 07/04 A2976 780  82 100 110/10 RMK AO2
14840KMKG MKG20050422142509604/22/05 14:25:31  5-MIN KMKG 221925Z 11010KT 10SM BKN070 07/04 A2976 780  82 100 110/10 RMK AO2
14840KMKG MKG20050422143009604/22/05 14:30:31  5-MIN KMKG 221930Z 12009KT 10SM BKN070 07/04 A2976 780  82 100 120/09 RMK AO2
14840KMKG MKG20050422143509604/22/05 14:35:31  5-MIN KMKG 221935Z 11011KT 10SM SCT070 07/04 A2976 780  82 100 110/11 RMK AO2
14840KMKG MKG20050422144009604/22/05 14:40:31  5-MIN KMKG 221940Z 09010KT 10SM SCT070 07/04 A2976 780  82 100 100/10 RMK AO2
14840KMKG MKG20050422144510304/22/05 14:45:31  5-MIN KMKG 221945Z 11011KT 10SM FEW013 SCT075 07/04  A2975 780 82 100 120/11 RMK AO2
14840KMKG MKG20050422145012004/22/05 14:50:31  5-MIN KMKG 221950Z 11011KT 10SM FEW013 SCT070 07/04  A2975 790 82 100 110/11 RMK AO2 SLP077 T00720044
14840KMKG MKG20050422145512004/22/05 14:55:31  5-MIN KMKG 221955Z 10012KT 10SM FEW065 07/04 A2974 800  82 100 110/12 RMK AO2 PRESFR SLP073 T00720044
14840KMKG MKG20050422150009604/22/05 15:00:31  5-MIN KMKG 222000Z 11010KT 10SM FEW060 07/04 A2974 800  82 100 110/10 RMK AO2
14840KMKG MKG20050422150509604/22/05 15:05:31  5-MIN KMKG 222005Z 11011KT 10SM FEW060 07/04 A2974 800  82 100 110/11 RMK AO2
14840KMKG MKG20050422151009304/22/05 15:10:31  5-MIN KMKG 222010Z 11007KT 10SM CLR 08/04 A2974 800 79  200 120/07 RMK AO2
14840KMKG MKG20050422151509304/22/05 15:15:31  5-MIN KMKG 222015Z 12007KT 10SM CLR 08/05 A2974 800 82  200 120/07 RMK AO2
14840KMKG MKG20050422152009304/22/05 15:20:31  5-MIN KMKG 222020Z 11007KT 10SM CLR 08/05 A2974 800 79  200 110/07 RMK AO2
14840KMKG MKG20050422152509304/22/05 15:25:31  5-MIN KMKG 222025Z 09007KT 10SM CLR 08/05 A2974 800 79  200 090/07 RMK AO2
14840KMKG MKG20050422153009604/22/05 15:30:31  5-MIN KMKG 222030Z 08006KT 10SM FEW060 08/04 A2974 800  76 200 090/06 RMK AO2
14840KMKG MKG20050422153509604/22/05 15:35:31  5-MIN KMKG 222035Z 08006KT 10SM SCT080 08/04 A2974 800  73 200 080/06 RMK AO2
14840KMKG MKG20050422154009604/22/05 15:40:31  5-MIN KMKG 222040Z 08005KT 10SM SCT080 08/04 A2974 800  73 200 090/05 RMK AO2
14840KMKG MKG20050422154509604/22/05 15:45:31  5-MIN KMKG 222045Z VRB04KT 10SM SCT080 09/04 A2973 800  73 300 VRB/04 RMK AO2
14840KMKG MKG20050422155012604/22/05 15:50:31  5-MIN KMKG 222050Z 05003KT 10SM SCT080 BKN100 09/04  A2973 800 71 300 050/03 RMK AO2 SLP072 T00890039 50001
14840KMKG MKG20050422155512604/22/05 15:55:31  5-MIN KMKG 222055Z VRB04KT 10SM FEW080 BKN100 09/04  A2973 800 71 300 VRB/04 RMK AO2 SLP072 T00890039 58009
14840KMKG MKG20050422160010304/22/05 16:00:31  5-MIN KMKG 222100Z 00000KT 10SM FEW080 BKN100 09/04  A2973 800 71 300 000/00 RMK AO2
14840KMKG MKG20050422160510304/22/05 16:05:31  5-MIN KMKG 222105Z 00000KT 10SM FEW080 BKN100 09/03  A2974 800 68 300 000/00 RMK AO2
14840KMKG MKG20050422161010304/22/05 16:10:31  5-MIN KMKG 222110Z 31005KT 10SM FEW023 BKN100 09/04  A2973 800 71 300 310/05 RMK AO2
14840KMKG MKG20050422161510304/22/05 16:15:31  5-MIN KMKG 222115Z 29009KT 10SM FEW023 BKN100 08/04  A2973 800 73 200 300/09 RMK AO2
14840KMKG MKG20050422162010304/22/05 16:20:31  5-MIN KMKG 222120Z 28007KT 10SM FEW023 BKN095 08/03  A2973 800 73 200 290/07 RMK AO2
14840KMKG MKG20050422162510304/22/05 16:25:31  5-MIN KMKG 222125Z 29006KT 10SM FEW023 OVC095 08/03  A2973 800 73 200 300/06 RMK AO2
14840KMKG MKG20050422163010304/22/05 16:30:31  5-MIN KMKG 222130Z 29006KT 10SM FEW023 OVC095 07/03  A2973 800 76 100 290/06 RMK AO2
14840KMKG MKG20050422163510304/22/05 16:35:31  5-MIN KMKG 222135Z 28007KT 10SM FEW023 OVC095 07/03  A2974 800 76 100 290/07 RMK AO2
14840KMKG MKG20050422164009604/22/05 16:40:31  5-MIN KMKG 222140Z 28006KT 10SM OVC095 07/03 A2974 800  76 100 290/06 RMK AO2
14840KMKG MKG20050422164509604/22/05 16:45:31  5-MIN KMKG 222145Z 29007KT 10SM OVC095 07/03 A2974 800  76 100 300/07 RMK AO2
14840KMKG MKG20050422165011304/22/05 16:50:31  5-MIN KMKG 222150Z 29007KT 10SM OVC095 07/03 A2974 800  73 100 300/07 RMK AO2 SLP074 T00720028
14840KMKG MKG20050422165511304/22/05 16:55:31  5-MIN KMKG 222155Z 29007KT 10SM OVC095 07/03 A2974 790  73 100 290/07 RMK AO2 SLP075 T00720028
14840KMKG MKG20050422170009404/22/05 17:00:31  5-MIN KMKG 222200Z 29008KT 10SM OVC095 07/03 A2974 790  79 0 290/08 RMK AO2
14840KMKG MKG20050422170509404/22/05 17:05:31  5-MIN KMKG 222205Z 29007KT 10SM OVC095 07/03 A2974 790  76 0 290/07 RMK AO2
14840KMKG MKG20050422171009404/22/05 17:10:31  5-MIN KMKG 222210Z 30008KT 10SM OVC095 07/02 A2975 790  73 0 300/08 RMK AO2
14840KMKG MKG20050422171509404/22/05 17:15:31  5-MIN KMKG 222215Z 30008KT 10SM OVC095 07/02 A2975 790  73 0 300/08 RMK AO2
14840KMKG MKG20050422172009404/22/05 17:20:31  5-MIN KMKG 222220Z 30009KT 10SM OVC090 07/02 A2975 790  73 0 310/09 RMK AO2
14840KMKG MKG20050422172509404/22/05 17:25:31  5-MIN KMKG 222225Z 30007KT 10SM OVC090 07/02 A2975 790  70 0 300/07 RMK AO2
14840KMKG MKG20050422173009404/22/05 17:30:31  5-MIN KMKG 222230Z 30006KT 10SM OVC090 07/02 A2975 790  70 0 300/06 RMK AO2
14840KMKG MKG20050422173509404/22/05 17:35:31  5-MIN KMKG 222235Z 28007KT 10SM OVC090 07/02 A2975 790  70 0 290/07 RMK AO2
14840KMKG MKG20050422174011004/22/05 17:40:31  5-MIN KMKG 222240Z 29007KT 10SM -RA OVC090 07/02 A2975  790 70 0 300/07 RMK AO2 RAB36 P0000
14840KMKG MKG20050422174511004/22/05 17:45:31  5-MIN KMKG 222245Z 29007KT 10SM -RA BKN090 07/02 A2975  790 70 0 290/07 RMK AO2 RAB36 P0000
14840KMKG MKG20050422175012704/22/05 17:50:31  5-MIN KMKG 222250Z 30008KT 10SM -RA BKN090 07/02 A2975  790 70 0 300/08 RMK AO2 RAB36 SLP076 P0000 T00670017
14840KMKG MKG20050422175512604/22/05 17:55:31  5-MIN KMKG 222255Z 29008KT 10SM BKN090 06/02 A2975 790  73 0 300/08 RMK AO2 RAB36E54 SLP079 P0000 T00610017
14840KMKG MKG20050422180009404/22/05 18:00:31  5-MIN KMKG 222300Z 29007KT 10SM BKN090 06/02 A2975 790  73 0 290/07 RMK AO2
14840KMKG MKG20050422180509404/22/05 18:05:31  5-MIN KMKG 222305Z 28006KT 10SM BKN090 06/02 A2975 790  73 0 280/06 RMK AO2
14840KMKG MKG20050422181010104/22/05 18:10:31  5-MIN KMKG 222310Z 28006KT 10SM FEW060 BKN090 06/02  A2975 790 73 0 290/06 RMK AO2
14840KMKG MKG20050422181510104/22/05 18:15:31  5-MIN KMKG 222315Z 29004KT 10SM SCT060 BKN090 06/02  A2975 790 73 0 300/04 RMK AO2
14840KMKG MKG20050422182010104/22/05 18:20:31  5-MIN KMKG 222320Z 28003KT 10SM BKN060 BKN090 06/02  A2975 790 73 0 280/03 RMK AO2
14840KMKG MKG20050422182510104/22/05 18:25:31  5-MIN KMKG 222325Z 00000KT 10SM BKN060 OVC090 06/02  A2974 790 73 0 000/00 RMK AO2
14840KMKG MKG20050422183010104/22/05 18:30:31  5-MIN KMKG 222330Z VRB03KT 10SM BKN055 OVC090 06/02  A2974 790 76 0 VRB/03 RMK AO2
14840KMKG MKG20050422183509404/22/05 18:35:31  5-MIN KMKG 222335Z 00000KT 10SM OVC055 07/02 A2974 800  70 0 000/00 RMK AO2
14840KMKG MKG20050422184009404/22/05 18:40:31  5-MIN KMKG 222340Z 00000KT 10SM OVC050 07/02 A2974 790  73 0 000/00 RMK AO2
14840KMKG MKG20050422184509404/22/05 18:45:31  5-MIN KMKG 222345Z 00000KT 10SM OVC050 07/02 A2974 800  73 0 000/00 RMK AO2
14840KMKG MKG20050422185014204/22/05 18:50:31  5-MIN KMKG 222350Z 36003KT 10SM BKN050 OVC060 07/02  A2974 800 73 0 360/03 RMK AO2 SLP073 60000 T00670022 10089 20061 58009
14840KMKG MKG20050422185514204/22/05 18:55:31  5-MIN KMKG 222355Z 33005KT 10SM BKN048 OVC060 07/02  A2973 800 73 0 340/05 RMK AO2 SLP072 60000 T00670022 10089 20061 58001
14840KMKG MKG20050422190010104/22/05 19:00:31  5-MIN KMKG 230000Z 35004KT 10SM BKN046 OVC060 07/02  A2974 800 73 0 350/04 RMK AO2
14840KMKG MKG20050422190510304/22/05 19:05:31  5-MIN KMKG 230005Z 06003KT 10SM BKN046 OVC060 07/02  A2974 800 70 100 060/03 RMK AO2
14840KMKG MKG20050422191011004/22/05 19:10:31  5-MIN KMKG 230010Z 35006KT 10SM BKN044 BKN060 OVC095  07/02 A2974 800 70 100 360/06 RMK AO2
14840KMKG MKG20050422191511004/22/05 19:15:31  5-MIN KMKG 230015Z 01008KT 10SM SCT044 BKN060 OVC095  08/02 A2974 800 65 200 020/08 RMK AO2
14840KMKG MKG20050422192011004/22/05 19:20:31  5-MIN KMKG 230020Z 01007KT 10SM SCT044 BKN060 OVC100  08/02 A2974 800 63 200 020/07 RMK AO2
14840KMKG MKG20050422192512504/22/05 19:25:31  5-MIN KMKG 230025Z 01011KT 10SM -RA SCT044 BKN065 OVC100 08/02 A2974 800 63 200 010/11 RMK AO2 RAB21 P0000
14840KMKG MKG20050422193012504/22/05 19:30:31  5-MIN KMKG 230030Z 02011KT 10SM -RA FEW044 BKN070 OVC100 09/01 A2974 800 58 300 020/11 RMK AO2 RAB21 P0000
14840KMKG MKG20050422193513204/22/05 19:35:31  5-MIN KMKG 230035Z 03011G16KT 10SM -RA FEW044 BKN070  OVC100 09/01 A2974 800 58 300 030/11G16 RMK AO2 RAB21 P0000
14840KMKG MKG20050422194013004/22/05 19:40:31  5-MIN KMKG 230040Z 02009G16KT 10SM FEW046 BKN070 OVC100 09/01 A2974 800 58 300 030/09G16 RMK AO2 RAB21E40 P0000
14840KMKG MKG20050422194512504/22/05 19:45:31  5-MIN KMKG 230045Z 02008KT 10SM FEW046 BKN070 OVC100  09/01 A2974 800 56 300 030/08 RMK AO2 RAB21E40 P0000
14840KMKG MKG20050422195013504/22/05 19:50:31  5-MIN KMKG 230050Z 03008KT 10SM SCT070 OVC100 09/01  A2974 800 56 300 030/08 RMK AO2 RAB21E40 SLP074 P0000 T00890006
14840KMKG MKG20050422195515704/22/05 19:55:31  5-MIN KMKG 230055Z 02008KT 10SM FEW050 SCT070 OVC100  09/01 A2974 800 53 400 030/08 RMK AO2 RAB21E40 CIG 075 RWY 14 SLP073 P0000 T00940006
14840KMKG MKG20050422200012504/22/05 20:00:31  5-MIN KMKG 230100Z 02009KT 10SM FEW050 SCT070 OVC100  09/01 A2973 800 56 300 020/09 RMK AO2 CIG 080 RWY 14
14840KMKG MKG20050422200511804/22/05 20:05:31  5-MIN KMKG 230105Z 01008KT 10SM -RA FEW050 OVC100 09/01 A2973 800 56 300 010/08 RMK AO2 RAB05 P0000
14840KMKG MKG20050422201014004/22/05 20:10:31  5-MIN KMKG 230110Z 35010KT 10SM -RA SCT045 SCT075 OVC100 09/01 A2973 800 58 300 360/10 RMK AO2 RAB05 CIG 080 RWY 14 P0000
14840KMKG MKG20050422201512504/22/05 20:15:31  5-MIN KMKG 230115Z 33013KT 10SM -RA BKN043 BKN075 OVC100 09/02 A2973 800 63 300 340/13 RMK AO2 RAB05 P0000
14840KMKG MKG20050422202012504/22/05 20:20:31  5-MIN KMKG 230120Z 35013KT 10SM -RA BKN045 BKN075 OVC100 08/03 A2974 800 68 200 350/13 RMK AO2 RAB05 P0000
14840KMKG MKG20050422202511804/22/05 20:25:31  5-MIN KMKG 230125Z 34011KT 10SM -RA BKN046 OVC100 08/03 A2974 800 70 200 340/11 RMK AO2 RAB05 P0000
14840KMKG MKG20050422203011804/22/05 20:30:31  5-MIN KMKG 230130Z 35012KT 10SM -RA BKN044 OVC100 08/03 A2974 800 70 200 350/12 RMK AO2 RAB05 P0000
14840KMKG MKG20050422203511804/22/05 20:35:31  5-MIN KMKG 230135Z 35013KT 10SM -RA BKN044 OVC100 08/03 A2974 800 70 200 360/13 RMK AO2 RAB05 P0000
14840KMKG MKG20050422204011804/22/05 20:40:31  5-MIN KMKG 230140Z 35013KT 10SM BKN044 OVC095 08/03  A2975 790 70 200 360/13 RMK AO2 RAB05E38 P0000
14840KMKG MKG20050422204512504/22/05 20:45:31  5-MIN KMKG 230145Z 35012KT 10SM BKN046 BKN090 OVC100  07/03 A2975 790 73 100 360/12 RMK AO2 RAB05E38 P0000
14840KMKG MKG20050422205013504/22/05 20:50:31  5-MIN KMKG 230150Z 36010KT 10SM BKN046 OVC100 08/02  A2975 790 68 200 360/10 RMK AO2 RAB05E38 SLP076 P0000 T00780022
14840KMKG MKG20050422205514104/22/05 20:55:31  5-MIN KMKG 230155Z 35014G18KT 10SM BKN044 OVC090 07/02  A2975 790 70 100 360/14G18 RMK AO2 RAB05E38 SLP078 P0000 T00720022
14840KMKG MKG20050422210010904/22/05 21:00:31  5-MIN KMKG 230200Z 36010G18KT 10SM SCT044 OVC090 07/02  A2975 790 70 100 360/10G18 RMK AO2
14840KMKG MKG20050422210510304/22/05 21:05:31  5-MIN KMKG 230205Z 35012KT 10SM SCT044 OVC085 07/02  A2975 780 70 100 360/12 RMK AO2
14840KMKG MKG20050422211011504/22/05 21:10:31  5-MIN KMKG 230210Z 35012G20KT 10SM FEW044 BKN080 OVC090 07/02 A2976 780 70 100 350/12G20 RMK AO2
14840KMKG MKG20050422211511504/22/05 21:15:31  5-MIN KMKG 230215Z 35013G20KT 10SM FEW046 BKN080 OVC090 07/02 A2975 780 70 100 350/13G20 RMK AO2
14840KMKG MKG20050422212010904/22/05 21:20:31  5-MIN KMKG 230220Z 35012G18KT 10SM BKN075 OVC090 07/02  A2976 780 70 100 350/12G18 RMK AO2
14840KMKG MKG20050422212510304/22/05 21:25:31  5-MIN KMKG 230225Z 35016KT 10SM BKN070 OVC090 07/02  A2976 780 70 100 360/16 RMK AO2
14840KMKG MKG20050422213009604/22/05 21:30:31  5-MIN KMKG 230230Z 35013KT 10SM OVC065 07/02 A2975 780  70 100 360/13 RMK AO2
14840KMKG MKG20050422213510004/22/05 21:35:31  5-MIN KMKG 230235Z 36012G20KT 10SM OVC065 07/02 A2976  780 73 0 360/12G20 RMK AO2
14840KMKG MKG20050422214010004/22/05 21:40:31  5-MIN KMKG 230240Z 36013G21KT 10SM BKN065 07/02 A2976  780 73 0 360/13G21 RMK AO2
14840KMKG MKG20050422214510704/22/05 21:45:31  5-MIN KMKG 230245Z 35014G21KT 10SM BKN065 OVC110 07/02  A2976 780 73 0 360/14G21 RMK AO2
14840KMKG MKG20050422215014504/22/05 21:50:31  5-MIN KMKG 230250Z 35013KT 10SM SCT060 OVC110 07/02  A2975 780 70 0 360/13 RMK AO2 CIG 065 RWY 14 SLP079 60000 T00670017 58001
14840KMKG MKG20050422215513004/22/05 21:55:31  5-MIN KMKG 230255Z 35014KT 10SM SCT065 OVC110 06/02  A2975 790 73 0 360/14 RMK AO2 SLP078 60000 T00610017 51006
14840KMKG MKG20050422220010104/22/05 22:00:31  5-MIN KMKG 230300Z 35013KT 10SM FEW065 OVC110 06/02  A2975 780 73 0 360/13 RMK AO2
14840KMKG MKG20050422220510704/22/05 22:05:31  5-MIN KMKG 230305Z 35014G20KT 10SM FEW065 OVC110 06/02  A2975 790 73 0 350/14G20 RMK AO2
14840KMKG MKG20050422221009404/22/05 22:10:31  5-MIN KMKG 230310Z 35011KT 10SM OVC110 06/02 A2975 790  73 0 350/11 RMK AO2
14840KMKG MKG20050422221509404/22/05 22:15:31  5-MIN KMKG 230315Z 34012KT 10SM OVC110 06/02 A2975 790  73 0 350/12 RMK AO2
14840KMKG MKG20050422222010004/22/05 22:20:31  5-MIN KMKG 230320Z 35016G22KT 10SM OVC110 06/01 A2975  790 70 0 350/16G22 RMK AO2
14840KMKG MKG20050422222510004/22/05 22:25:31  5-MIN KMKG 230325Z 35012G22KT 10SM OVC110 06/01 A2975  790 70 0 350/12G22 RMK AO2
14840KMKG MKG20050422223009704/22/05 22:30:31  5-MIN KMKG 230330Z 35017KT 10SM OVC110 06/01 A2975 790  73 -100 350/17 RMK AO2
14840KMKG MKG20050422223510304/22/05 22:35:31  5-MIN KMKG 230335Z 35016G22KT 10SM OVC110 06/01 A2975  790 73 -100 350/16G22 RMK AO2
14840KMKG MKG20050422224010304/22/05 22:40:31  5-MIN KMKG 230340Z 35015G22KT 10SM OVC110 06/01 A2975  790 73 -100 350/15G22 RMK AO2
14840KMKG MKG20050422224510304/22/05 22:45:31  5-MIN KMKG 230345Z 35021G24KT 10SM OVC110 06/01 A2975  790 73 -100 350/21G24 RMK AO2
14840KMKG MKG20050422225012004/22/05 22:50:31  5-MIN KMKG 230350Z 35016G24KT 10SM OVC110 05/01 A2976  780 76 -100 350/16G24 RMK AO2 SLP081 T00500011
14840KMKG MKG20050422225512004/22/05 22:55:31  5-MIN KMKG 230355Z 35014G20KT 10SM OVC110 05/01 A2976  780 76 -200 360/14G20 RMK AO2 SLP082 T00500011
14840KMKG MKG20050422230010304/22/05 23:00:31  5-MIN KMKG 230400Z 36015G20KT 10SM OVC110 05/01 A2976  780 73 -200 360/15G20 RMK AO2
14840KMKG MKG20050422230510304/22/05 23:05:31  5-MIN KMKG 230405Z 35013G19KT 10SM OVC100 05/01 A2976  780 73 -200 360/13G19 RMK AO2
14840KMKG MKG20050422231010304/22/05 23:10:31  5-MIN KMKG 230410Z 36011G19KT 10SM OVC100 05/01 A2977  770 73 -200 360/11G19 RMK AO2
14840KMKG MKG20050422231511004/22/05 23:15:31  5-MIN KMKG 230415Z 36016G21KT 10SM BKN090 BKN110 04/01  A2976 770 76 -200 010/16G21 RMK AO2
14840KMKG MKG20050422232010304/22/05 23:20:31  5-MIN KMKG 230420Z 35017G23KT 10SM BKN095 04/01 A2976  780 76 -200 350/17G23 RMK AO2
14840KMKG MKG20050422232510304/22/05 23:25:31  5-MIN KMKG 230425Z 36018G23KT 10SM BKN090 04/00 A2977  770 73 -200 360/18G23 RMK AO2
14840KMKG MKG20050422233010304/22/05 23:30:31  5-MIN KMKG 230430Z 35015G23KT 10SM OVC090 04/01 A2977  770 76 -200 350/15G23 RMK AO2
14840KMKG MKG20050422233510304/22/05 23:35:31  5-MIN KMKG 230435Z 35014G20KT 10SM OVC090 04/01 A2977  770 76 -200 350/14G20 RMK AO2
14840KMKG MKG20050422234010304/22/05 23:40:31  5-MIN KMKG 230440Z 35014G20KT 10SM OVC090 04/00 A2977  770 73 -200 360/14G20 RMK AO2
14840KMKG MKG20050422234510304/22/05 23:45:31  5-MIN KMKG 230445Z 35016G20KT 10SM OVC090 04/00 A2977  770 73 -200 360/16G20 RMK AO2
14840KMKG MKG20050422235013004/22/05 23:50:31  5-MIN KMKG 230450Z 36015G21KT 10SM OVC090 04/00 A2977  770 73 -200 360/15G21 RMK AO2 SLP085 T00440000 400940044
14840KMKG MKG20050422235513004/22/05 23:55:31  5-MIN KMKG 230455Z 35015G21KT 10SM OVC090 04/00 A2977  770 73 -200 350/15G21 RMK AO2 SLP085 T00440000 400940044
14840KMKG MKG20050423000009704/23/05 00:00:32  5-MIN KMKG 230500Z 35015KT 10SM OVC085 04/00 A2977 770  73 -200 360/15 RMK AO2
14840KMKG MKG20050423000511004/23/05 00:05:31  5-MIN KMKG 230505Z 35014G22KT 10SM BKN080 OVC100 04/00  A2977 770 76 -300 350/14G22 RMK AO2
14840KMKG MKG20050423001011004/23/05 00:10:31  5-MIN KMKG 230510Z 35013G22KT 10SM BKN075 OVC095 04/00  A2977 770 73 -200 360/13G22 RMK AO2
14840KMKG MKG20050423001511004/23/05 00:15:31  5-MIN KMKG 230515Z 36014G20KT 10SM BKN070 OVC095 04/00  A2977 770 76 -300 010/14G20 RMK AO2
14840KMKG MKG20050423002011004/23/05 00:20:31  5-MIN KMKG 230520Z 36014G20KT 10SM BKN070 OVC090 04/00  A2977 770 76 -300 360/14G20 RMK AO2
14840KMKG MKG20050423002510404/23/05 00:25:31  5-MIN KMKG 230525Z 36016KT 10SM BKN070 OVC090 04/00  A2978 760 76 -300 360/16 RMK AO2
14840KMKG MKG20050423003011004/23/05 00:30:31  5-MIN KMKG 230530Z 36015G20KT 10SM BKN070 OVC090 04/M01 A2977 770 73 -300 360/15G20 RMK AO2
14840KMKG MKG20050423003512504/23/05 00:35:31  5-MIN KMKG 230535Z 35013G20KT 10SM SCT070 OVC095 04/M01 A2977 770 73 -300 350/13G20 RMK AO2 CIG 070 RWY 14
14840KMKG MKG20050423004011004/23/05 00:40:31  5-MIN KMKG 230540Z 36012G21KT 10SM SCT075 OVC090 04/M01 A2977 770 73 -300 360/12G21 RMK AO2
14840KMKG MKG20050423004510404/23/05 00:45:31  5-MIN KMKG 230545Z 36011G21KT 10SM OVC090 04/M01 A2978  760 73 -300 360/11G21 RMK AO2
14840KMKG MKG20050423005013804/23/05 00:50:31  5-MIN KMKG 230550Z 35013KT 10SM OVC090 04/M01 A2977 770 73 -300 360/13 RMK AO2 SLP087 60000 T00391006 10094 20039 51006
14840KMKG MKG20050423005513804/23/05 00:55:31  5-MIN KMKG 230555Z 35012KT 10SM OVC090 04/M01 A2978 760 73 -300 350/12 RMK AO2 SLP087 60000 T00391006 10094 20039 51008
14840KMKG MKG20050423010009704/23/05 01:00:31  5-MIN KMKG 230600Z 36010KT 10SM OVC085 04/M01 A2978 760 73 -300 360/10 RMK AO2
14840KMKG MKG20050423010509704/23/05 01:05:31  5-MIN KMKG 230605Z 35010KT 10SM OVC085 04/M01 A2977 770 73 -300 360/10 RMK AO2
14840KMKG MKG20050423011010404/23/05 01:10:31  5-MIN KMKG 230610Z 36013G18KT 10SM OVC085 04/M01 A2978  760 73 -300 010/13G18 RMK AO2
14840KMKG MKG20050423011510504/23/05 01:15:31  5-MIN KMKG 230615Z 01012KT 10SM BKN080 OVC095 03/M01  A2978 760 76 -400 010/12 RMK AO2
14840KMKG MKG20050423012010504/23/05 01:20:31  5-MIN KMKG 230620Z 36012KT 10SM BKN080 OVC095 03/M01  A2978 760 76 -400 360/12 RMK AO2
14840KMKG MKG20050423012510504/23/05 01:25:31  5-MIN KMKG 230625Z 36010KT 10SM BKN080 OVC095 03/M01  A2978 760 76 -400 360/10 RMK AO2
14840KMKG MKG20050423013011004/23/05 01:30:31  5-MIN KMKG 230630Z 35015G19KT 10SM BKN075 OVC090 03/M01 A2978 760 76 -400 360/15G19 RMK AO2
14840KMKG MKG20050423013511004/23/05 01:35:31  5-MIN KMKG 230635Z 36012G19KT 10SM BKN075 OVC090 03/M01 A2978 760 76 -400 010/12G19 RMK AO2
14840KMKG MKG20050423014010504/23/05 01:40:31  5-MIN KMKG 230640Z 35011KT 10SM BKN080 OVC090 03/M01  A2978 760 76 -400 360/11 RMK AO2
14840KMKG MKG20050423014510504/23/05 01:45:31  5-MIN KMKG 230645Z 35011KT 10SM BKN080 OVC090 03/M01  A2978 760 76 -400 360/11 RMK AO2
14840KMKG MKG20050423015012204/23/05 01:50:31  5-MIN KMKG 230650Z 35011KT 10SM BKN080 OVC090 03/M01  A2978 760 76 -400 360/11 RMK AO2 SLP089 T00331006
14840KMKG MKG20050423015512704/23/05 01:55:31  5-MIN KMKG 230655Z 35014G20KT 10SM BKN080 OVC090 03/M01 A2979 750 76 -400 360/14G20 RMK AO2 SLP091 T00331006
14840KMKG MKG20050423020011004/23/05 02:00:31  5-MIN KMKG 230700Z 35013G21KT 10SM BKN075 OVC090 03/M01 A2978 760 76 -400 350/13G21 RMK AO2
14840KMKG MKG20050423020511704/23/05 02:05:31  5-MIN KMKG 230705Z 35013G21KT 10SM FEW021 BKN070 OVC085 03/M01 A2978 760 76 -400 350/13G21 RMK AO2
14840KMKG MKG20050423021011004/23/05 02:10:31  5-MIN KMKG 230710Z 36015G21KT 10SM BKN065 OVC080 03/M01 A2978 760 76 -400 360/15G21 RMK AO2
14840KMKG MKG20050423021511004/23/05 02:15:31  5-MIN KMKG 230715Z 36015G21KT 10SM BKN065 OVC080 03/M01 A2978 760 76 -400 360/15G21 RMK AO2
14840KMKG MKG20050423022011004/23/05 02:20:31  5-MIN KMKG 230720Z 36016G22KT 10SM BKN065 OVC080 03/M01 A2978 760 76 -400 360/16G22 RMK AO2
14840KMKG MKG20050423022511004/23/05 02:25:31  5-MIN KMKG 230725Z 36011G22KT 10SM BKN065 OVC080 03/M01 A2978 760 76 -400 360/11G22 RMK AO2
14840KMKG MKG20050423023011004/23/05 02:30:31  5-MIN KMKG 230730Z 36014G18KT 10SM BKN060 OVC075 03/M01 A2978 760 76 -400 360/14G18 RMK AO2
14840KMKG MKG20050423023511004/23/05 02:35:31  5-MIN KMKG 230735Z 35016G20KT 10SM BKN060 OVC075 03/M01 A2978 760 76 -400 360/16G20 RMK AO2
14840KMKG MKG20050423024010404/23/05 02:40:31  5-MIN KMKG 230740Z 36013G20KT 10SM OVC060 03/M01 A2978  760 76 -400 010/13G20 RMK AO2
14840KMKG MKG20050423024510404/23/05 02:45:31  5-MIN KMKG 230745Z 36013G19KT 10SM OVC060 03/M01 A2978  760 76 -400 360/13G19 RMK AO2
14840KMKG MKG20050423025012104/23/05 02:50:31  5-MIN KMKG 230750Z 36018G23KT 10SM OVC060 03/M01 A2978  760 76 -400 360/18G23 RMK AO2 SLP088 T00331006
14840KMKG MKG20050423025512104/23/05 02:55:31  5-MIN KMKG 230755Z 35015G23KT 10SM OVC055 03/M01 A2978  760 76 -400 350/15G23 RMK AO2 SLP088 T00331006
14840KMKG MKG20050423030009704/23/05 03:00:31  5-MIN KMKG 230800Z 35012KT 10SM OVC055 03/M01 A2978 760 76 -400 360/12 RMK AO2
14840KMKG MKG20050423030510504/23/05 03:05:31  5-MIN KMKG 230805Z 35013KT 10SM FEW019 OVC055 03/M01  A2978 760 76 -400 360/13 RMK AO2
14840KMKG MKG20050423031010504/23/05 03:10:31  5-MIN KMKG 230810Z 36014KT 10SM FEW019 OVC055 03/M01  A2978 760 76 -400 360/14 RMK AO2
14840KMKG MKG20050423031512704/23/05 03:15:31  5-MIN KMKG 230815Z 36014KT 10SM -RA FEW019 BKN055 OVC075 03/M01 A2978 760 79 -500 360/14 RMK AO2 RAB11 P0000
14840KMKG MKG20050423032012704/23/05 03:20:31  5-MIN KMKG 230820Z 35013KT 10SM -RA FEW019 BKN060 OVC080 03/M01 A2978 760 79 -500 360/13 RMK AO2 RAB11 P0000
14840KMKG MKG20050423032513404/23/05 03:25:31  5-MIN KMKG 230825Z 35013G23KT 10SM -RA SCT019 BKN065  OVC080 03/M01 A2978 760 79 -400 360/13G23 RMK AO2 RAB11 P0000
14840KMKG MKG20050423033013404/23/05 03:30:31  5-MIN KMKG 230830Z 36010G23KT 10SM -RA FEW019 BKN070  OVC090 03/M01 A2978 760 79 -500 010/10G23 RMK AO2 RAB11 P0000
14840KMKG MKG20050423033515004/23/05 03:35:31  5-MIN KMKG 230835Z 35015G19KT 10SM -RA FEW019 BKN075  OVC095 03/M01 A2978 760 79 -500 360/15G19 RMK AO2 RAB11 CIG 060 RWY 14  P0000
14840KMKG MKG20050423034014204/23/05 03:40:31  5-MIN KMKG 230840Z 35014KT 10SM -RA SCT017 BKN080 OVC095 03/M01 A2978 760 79 -400 350/14 RMK AO2 RAB11 CIG 017 RWY 14 P0000
14840KMKG MKG20050423034513504/23/05 03:45:31  5-MIN KMKG 230845Z 36013KT 10SM SCT017 OVC080 03/M01  A2978 760 79 -500 360/13 RMK AO2 RAB11E42 CIG 017 RWY 14 P0000
14840KMKG MKG20050423035014804/23/05 03:50:31  5-MIN KMKG 230850Z 36013KT 10SM -RA BKN017 OVC080 03/00 A2978 760 82 -500 360/13 RMK AO2 RAB11 SLP089 P0000 60000 T00280000 51008
14840KMKG MKG20050423035515504/23/05 03:55:31  5-MIN KMKG 230855Z 36012KT 10SM -RA BKN017 BKN080 OVC090 02/00 A2978 760 85 -500 360/12 RMK AO2 SLP088 RAB11 P0000 60000 T00220000 50001
14840KMKG MKG20050423040012004/23/05 04:00:31  5-MIN KMKG 230900Z 36014G20KT 10SM -RA BKN017 OVC075  02/00 A2978 760 85 -500 360/14G20 RMK AO2 P0000
14840KMKG MKG20050423040511304/23/05 04:05:31  5-MIN KMKG 230905Z 35015G20KT 10SM -RA OVC017 02/00  A2978 760 85 -500 360/15G20 RMK AO2 P0000
14840KMKG MKG20050423041011304/23/05 04:10:31  5-MIN KMKG 230910Z 36012G19KT 10SM -RA OVC017 02/00  A2978 760 85 -500 360/12G19 RMK AO2 P0000
14840KMKG MKG20050423041511304/23/05 04:15:31  5-MIN KMKG 230915Z 01012G19KT 10SM -RA OVC017 02/00  A2978 760 85 -500 010/12G19 RMK AO2 P0000
14840KMKG MKG20050423042011304/23/05 04:20:31  5-MIN KMKG 230920Z 36009G17KT 10SM -RA OVC017 02/00  A2978 760 85 -500 360/09G17 RMK AO2 P0000
14840KMKG MKG20050423042511304/23/05 04:25:31  5-MIN KMKG 230925Z 36013G17KT 10SM -RA OVC017 02/00  A2978 760 85 -500 360/13G17 RMK AO2 P0000
14840KMKG MKG20050423043010704/23/05 04:30:31  5-MIN KMKG 230930Z 36013KT 10SM -RA OVC017 02/00 A2978  760 85 -500 010/13 RMK AO2 P0000
14840KMKG MKG20050423043511304/23/05 04:35:31  5-MIN KMKG 230935Z 36012G18KT 10SM -RA OVC017 02/00  A2978 760 85 -500 360/12G18 RMK AO2 P0000
14840KMKG MKG20050423044011304/23/05 04:40:31  5-MIN KMKG 230940Z 36012G19KT 10SM -RA OVC015 02/00  A2978 760 89 -600 360/12G19 RMK AO2 P0000
14840KMKG MKG20050423044512004/23/05 04:45:31  5-MIN KMKG 230945Z 36014G19KT 10SM -RA BKN015 OVC020  02/00 A2978 760 89 -600 360/14G19 RMK AO2 P0000
14840KMKG MKG20050423045013704/23/05 04:50:31  5-MIN KMKG 230950Z 36013G19KT 10SM -RA BKN015 OVC021  02/00 A2978 760 89 -600 010/13G19 RMK AO2 SLP089 P0000 T00170000
14840KMKG MKG20050423045512404/23/05 04:55:31  5-MIN KMKG 230955Z 36013KT 10SM -RA OVC017 02/00 A2978  760 89 -600 360/13 RMK AO2 SLP090 P0000 T00170000
14840KMKG MKG20050423050011304/23/05 05:00:31  5-MIN KMKG 231000Z 35015G20KT 10SM -RA OVC017 02/00  A2978 760 89 -600 360/15G20 RMK AO2 P0000
14840KMKG MKG20050423050512204/23/05 05:05:31  5-MIN KMKG 231005Z 36014G20KT 10SM UP OVC017 02/00 A2979 750 89 -600 360/14G20 RMK AO2 RAE03UPB03 P0000
14840KMKG MKG20050423051012204/23/05 05:10:31  5-MIN KMKG 231010Z 35016G22KT 10SM UP OVC017 02/00 A2978 760 89 -600 360/16G22 RMK AO2 RAE03UPB03 P0000
14840KMKG MKG20050423051512204/23/05 05:15:31  5-MIN KMKG 231015Z 35014G22KT 10SM -RA OVC017 02/00  A2978 760 89 -600 360/14G22 RMK AO2 UPB03E15 P0000
14840KMKG MKG20050423052012204/23/05 05:20:31  5-MIN KMKG 231020Z 36011G19KT 10SM UP OVC017 02/00 A2978 760 89 -600 360/11G19 RMK AO2 RAE16UPB03 P0000
14840KMKG MKG20050423052511704/23/05 05:25:31  5-MIN KMKG 231025Z 35014KT 10SM UP OVC017 02/00 A2978  760 89 -600 360/14 RMK AO2 RAE16UPB03 P0000
14840KMKG MKG20050423053012404/23/05 05:30:31  5-MIN KMKG 231030Z 35014G19KT 10SM OVC017 02/M01 A2978  760 85 -600 360/14G19 RMK AO2 RAE16UPB03E30 P0000
14840KMKG MKG20050423053512404/23/05 05:35:31  5-MIN KMKG 231035Z 36015G19KT 10SM OVC017 02/M01 A2979  750 85 -600 360/15G19 RMK AO2 RAE16UPB03E30 P0000
14840KMKG MKG20050423054012404/23/05 05:40:31  5-MIN KMKG 231040Z 35015G21KT 10SM UP OVC017 02/M01  A2979 750 85 -600 350/15G21 RMK AO2 RAE16UPB03 P0000
14840KMKG MKG20050423054513104/23/05 05:45:31  5-MIN KMKG 231045Z 36015G21KT 10SM UP BKN015 OVC020  02/M01 A2979 760 85 -600 360/15G21 RMK AO2 RAE16UPB03 P0000
14840KMKG MKG20050423055015604/23/05 05:50:31  5-MIN KMKG 231050Z 36013G20KT 9SM -SN OVC015 02/M01  A2979 750 85 -600 360/13G20 RMK AO2 RAE16UPB03E48SNB46E47B48 SLP093 P0000  T00171006
14840KMKG MKG20050423055515604/23/05 05:55:31  5-MIN KMKG 231055Z 36014G18KT 8SM -SN OVC017 02/M01  A2979 750 85 -600 010/14G18 RMK AO2 RAE16UPB03E48SNB46E47B48 SLP092 P0000  T00171006
14840KMKG MKG20050423060011604/23/05 06:00:31  5-MIN KMKG 231100Z 36014G20KT 6SM -SN BR OVC017 01/M01  A2979 750 89 -700 360/14G20 RMK AO2 P0000
14840KMKG MKG20050423060512304/23/05 06:05:31  5-MIN KMKG 231105Z 36013G20KT 5SM -SN BR BKN017 OVC036  01/M01 A2979 750 89 -700 360/13G20 RMK AO2 P0000
14840KMKG MKG20050423061013304/23/05 06:10:31  5-MIN KMKG 231110Z 36012G20KT 6SM UP BR BKN017 OVC034  01/M01 A2979 750 89 -700 360/12G20 RMK AO2 UPB10SNE10 P0000
14840KMKG MKG20050423061511604/23/05 06:15:31  5-MIN KMKG 231115Z 35015G20KT 8SM BKN017 OVC034 02/M01  A2980 740 85 -600 350/15G20 RMK AO2 P0000
14840KMKG MKG20050423062012204/23/05 06:20:31  5-MIN KMKG 231120Z 35015G20KT 10SM BKN017 OVC034 02/M01 A2980 740 85 -600 360/15G20 RMK AO2 SNE16 P0000
14840KMKG MKG20050423062512204/23/05 06:25:31  5-MIN KMKG 231125Z 35014G20KT 9SM BKN017 OVC034 02/M01  A2980 740 85 -600 350/14G20 RMK AO2 SNE16 P0000
14840KMKG MKG20050423063013204/23/05 06:30:31  5-MIN KMKG 231130Z 35016G20KT 6SM -SN BR BKN019 OVC034  02/M01 A2980 740 85 -600 360/16G20 RMK AO2 SNE16B29 P0000
14840KMKG MKG20050423063513204/23/05 06:35:31  5-MIN KMKG 231135Z 35015G20KT 4SM -SN BR BKN017 OVC034  01/M01 A2980 740 89 -700 360/15G20 RMK AO2 SNE16B29 P0000
14840KMKG MKG20050423064013904/23/05 06:40:31  5-MIN KMKG 231140Z 35015G22KT 4SM -SN BR BKN017 BKN022  OVC034 01/M01 A2980 740 89 -700 350/15G22 RMK AO2 SNE16B29 P0000
14840KMKG MKG20050423064513204/23/05 06:45:31  5-MIN KMKG 231145Z 35014G24KT 5SM -SN BR BKN017 OVC021  01/M01 A2981 730 89 -700 350/14G24 RMK AO2 SNE16B29 P0000
14840KMKG MKG20050423065017004/23/05 06:50:31  5-MIN KMKG 231150Z 36016G24KT 7SM -SN OVC017 01/M01  A2981 730 85 -700 360/16G24 RMK AO2 SLP099 SNE16B29 P0000 60000 70009  T00111011 10039 20011 55002
14840KMKG MKG20050423065517004/23/05 06:55:31  5-MIN KMKG 231155Z 36014G22KT 8SM -SN OVC017 02/M01  A2981 730 82 -600 010/14G22 RMK AO2 SLP099 SNE16B29 P0000 60000 70009  T00171011 10039 20011 53009
14840KMKG MKG20050423070011304/23/05 07:00:31  5-MIN KMKG 231200Z 36017G22KT 7SM -SN OVC017 01/M01  A2981 740 89 -700 010/17G22 RMK AO2 P0000
14840KMKG MKG20050423070512004/23/05 07:05:31  5-MIN KMKG 231205Z 36017G22KT 8SM -SN BKN017 OVC023  01/M01 A2981 740 89 -700 360/17G22 RMK AO2 P0000
14840KMKG MKG20050423071012704/23/05 07:10:31  5-MIN KMKG 231210Z 36017G22KT 9SM -SN BKN017 BKN023  OVC038 01/M01 A2981 730 85 -700 360/17G22 RMK AO2 P0000
14840KMKG MKG20050423071512004/23/05 07:15:31  5-MIN KMKG 231215Z 35015G22KT 9SM -SN BKN017 OVC038  01/M01 A2981 730 85 -700 360/15G22 RMK AO2 P0000
14840KMKG MKG20050423072012004/23/05 07:20:31  5-MIN KMKG 231220Z 35018G22KT 9SM -SN BKN017 OVC038  01/M01 A2981 730 85 -700 360/18G22 RMK AO2 P0000
14840KMKG MKG20050423072511304/23/05 07:25:31  5-MIN KMKG 231225Z 36017G22KT 9SM -SN OVC017 01/M01  A2981 740 85 -700 360/17G22 RMK AO2 P0000
14840KMKG MKG20050423073011304/23/05 07:30:31  5-MIN KMKG 231230Z 36015G25KT 9SM -SN OVC019 01/M02  A2981 730 82 -700 010/15G25 RMK AO2 P0000
14840KMKG MKG20050423073512004/23/05 07:35:31  5-MIN KMKG 231235Z 36018G25KT 9SM -SN BKN019 OVC038  02/M02 A2981 740 78 -600 360/18G25 RMK AO2 P0000
14840KMKG MKG20050423074012004/23/05 07:40:31  5-MIN KMKG 231240Z 36017G22KT 9SM -SN BKN019 OVC038  02/M01 A2981 730 82 -600 360/17G22 RMK AO2 P0000
14840KMKG MKG20050423074511304/23/05 07:45:31  5-MIN KMKG 231245Z 36014KT 9SM -SN BKN019 OVC080 02/M01 A2981 730 82 -600 360/14 RMK AO2 P0000
14840KMKG MKG20050423075012404/23/05 07:50:31  5-MIN KMKG 231250Z 35017KT 9SM -SN OVC019 02/M01 A2981  740 82 -600 360/17 RMK AO2 SLP098 P0000 T00171011
14840KMKG MKG20050423075512604/23/05 07:55:31  5-MIN KMKG 231255Z 35015KT 9SM OVC019 02/M01 A2981 730  82 -600 350/15 RMK AO2 SNE51 SLP098 P0000 T00171011
14840KMKG MKG20050423080010404/23/05 08:00:31  5-MIN KMKG 231300Z 35014G20KT 10SM OVC019 02/M01 A2981  730 82 -600 350/14G20 RMK AO2
14840KMKG MKG20050423080510404/23/05 08:05:31  5-MIN KMKG 231305Z 35014G23KT 10SM OVC017 02/M01 A2982  730 82 -600 360/14G23 RMK AO2
14840KMKG MKG20050423081011904/23/05 08:10:31  5-MIN KMKG 231310Z 35017G23KT 8SM -SN OVC017 02/M01  A2981 730 82 -600 360/17G23 RMK AO2 SNB09 P0000
14840KMKG MKG20050423081512204/23/05 08:15:31  5-MIN KMKG 231315Z 36015G22KT 4SM -SN BR OVC017 01/M01  A2981 730 85 -700 360/15G22 RMK AO2 SNB09 P0000
14840KMKG MKG20050423082011904/23/05 08:20:31  5-MIN KMKG 231320Z 36014G20KT 3SM -SN OVC019 02/M01  A2982 730 82 -600 360/14G20 RMK AO2 SNB09 P0000
14840KMKG MKG20050423082511904/23/05 08:25:31  5-MIN KMKG 231325Z 36015G21KT 4SM -SN OVC021 02/M01  A2982 730 82 -600 360/15G21 RMK AO2 SNB09 P0000
14840KMKG MKG20050423083012604/23/05 08:30:31  5-MIN KMKG 231330Z 35011G21KT 4SM -SN BKN019 OVC025  02/M01 A2982 730 82 -600 360/11G21 RMK AO2 SNB09 P0000
14840KMKG MKG20050423083512604/23/05 08:35:31  5-MIN KMKG 231335Z 36013G20KT 4SM -SN BKN021 OVC025  02/M01 A2982 730 82 -600 360/13G20 RMK AO2 SNB09 P0000
14840KMKG MKG20050423084012604/23/05 08:40:31  5-MIN KMKG 231340Z 36012G20KT 3SM -SN BKN019 OVC025  02/M01 A2981 730 82 -600 360/12G20 RMK AO2 SNB09 P0000
14840KMKG MKG20050423084512604/23/05 08:45:31  5-MIN KMKG 231345Z 35015G22KT 3SM -SN BKN021 OVC026  02/M02 A2982 730 78 -600 350/15G22 RMK AO2 SNB09 P0000
14840KMKG MKG20050423085015904/23/05 08:50:31  5-MIN KMKG 231350Z 36013G22KT 4SM -SN SCT021 OVC026  02/M01 A2982 730 82 -600 360/13G22 RMK AO2 SNB09 CIG 020 RWY 14 SLP101  P0000 T00171011
14840KMKG MKG20050423085514304/23/05 08:55:31  5-MIN KMKG 231355Z 35017G22KT 4SM -SN BKN019 OVC026  02/M01 A2981 730 82 -600 350/17G22 RMK AO2 SNB09 SLP100 P0000 T00171011
14840KMKG MKG20050423090012004/23/05 09:00:31  5-MIN KMKG 231400Z 35015G22KT 5SM -SN BKN019 OVC026  02/M02 A2981 730 78 -600 350/15G22 RMK AO2 P0000
14840KMKG MKG20050423090511304/23/05 09:05:31  5-MIN KMKG 231405Z 35013KT 5SM -SN BKN019 OVC026 02/M02 A2982 730 78 -600 350/13 RMK AO2 P0000
14840KMKG MKG20050423091012004/23/05 09:10:31  5-MIN KMKG 231410Z 35015G18KT 6SM -SN BKN019 OVC026  02/M01 A2981 730 82 -600 360/15G18 RMK AO2 P0000
14840KMKG MKG20050423091510704/23/05 09:15:31  5-MIN KMKG 231415Z 35016KT 8SM -SN OVC021 02/M02 A2982  720 78 -600 350/16 RMK AO2 P0000
14840KMKG MKG20050423092011304/23/05 09:20:31  5-MIN KMKG 231420Z 35017G24KT 9SM -SN OVC021 02/M02  A2982 730 78 -600 360/17G24 RMK AO2 P0000
14840KMKG MKG20050423092511304/23/05 09:25:31  5-MIN KMKG 231425Z 36015G24KT 9SM -SN OVC021 02/M02  A2982 730 78 -600 360/15G24 RMK AO2 P0000
14840KMKG MKG20050423093011304/23/05 09:30:31  5-MIN KMKG 231430Z 35018G23KT 9SM -SN OVC021 02/M02  A2982 730 78 -600 350/18G23 RMK AO2 P0000
14840KMKG MKG20050423093511304/23/05 09:35:31  5-MIN KMKG 231435Z 36012G23KT 9SM -SN OVC021 02/M02  A2982 720 75 -600 360/12G23 RMK AO2 P0000
14840KMKG MKG20050423094013304/23/05 09:40:31  5-MIN KMKG 231440Z 35021G26KT 9SM OVC021 02/M02 A2982  720 75 -600 360/21G26 RMK AO2 PK WND 36026/1440 SNE40 P0000
14840KMKG MKG20050423094513304/23/05 09:45:31  5-MIN KMKG 231445Z 36016G26KT 9SM OVC021 02/M02 A2982  720 75 -600 360/16G26 RMK AO2 PK WND 36026/1441 SNE40 P0000
14840KMKG MKG20050423095016404/23/05 09:50:31  5-MIN KMKG 231450Z 35018G26KT 10SM OVC021 02/M02 A2982  720 75 -600 360/18G26 RMK AO2 PK WND 36026/1441 SNE40 SLP104 P0000 60000  T00171022 53009
14840KMKG MKG20050423095516404/23/05 09:55:31  5-MIN KMKG 231455Z 36014G25KT 10SM OVC021 02/M02 A2982  720 72 -600 010/14G25 RMK AO2 PK WND 36026/1441 SNE40 SLP105 P0000 60000  T00221022 53005
14840KMKG MKG20050423100012804/23/05 10:00:31  5-MIN KMKG 231500Z 35017G28KT 10SM BKN021 OVC027 02/M03 A2983 710 69 -600 360/17G28 RMK AO2 PK WND 36028/1457
14840KMKG MKG20050423100512804/23/05 10:05:31  5-MIN KMKG 231505Z 36018G28KT 10SM BKN021 OVC027 02/M03 A2983 720 69 -600 360/18G28 RMK AO2 PK WND 36028/1457
14840KMKG MKG20050423101012804/23/05 10:10:31  5-MIN KMKG 231510Z 36017G25KT 10SM BKN023 OVC028 03/M03 A2983 720 67 -500 360/17G25 RMK AO2 PK WND 36028/1457
14840KMKG MKG20050423101512204/23/05 10:15:31  5-MIN KMKG 231515Z 36021G30KT 10SM OVC025 03/M03 A2982  720 67 -500 360/21G30 RMK AO2 PK WND 01030/1512
14840KMKG MKG20050423102012204/23/05 10:20:31  5-MIN KMKG 231520Z 35020G30KT 10SM OVC025 03/M03 A2983  710 64 -500 350/20G30 RMK AO2 PK WND 01030/1512
14840KMKG MKG20050423102512204/23/05 10:25:31  5-MIN KMKG 231525Z 35020G26KT 10SM OVC025 03/M03 A2982  720 64 -500 350/20G26 RMK AO2 PK WND 01030/1512
14840KMKG MKG20050423103012204/23/05 10:30:31  5-MIN KMKG 231530Z 01013G26KT 10SM OVC025 03/M03 A2983  720 67 -500 010/13G26 RMK AO2 PK WND 01030/1512
14840KMKG MKG20050423103512204/23/05 10:35:31  5-MIN KMKG 231535Z 36014G20KT 10SM OVC025 03/M03 A2983  710 67 -500 010/14G20 RMK AO2 PK WND 01030/1512
14840KMKG MKG20050423104012204/23/05 10:40:31  5-MIN KMKG 231540Z 35018G26KT 10SM OVC025 03/M03 A2982  720 67 -500 350/18G26 RMK AO2 PK WND 01030/1512
14840KMKG MKG20050423104512204/23/05 10:45:31  5-MIN KMKG 231545Z 34020G26KT 10SM OVC025 02/M03 A2982  730 69 -600 340/20G26 RMK AO2 PK WND 01030/1512
14840KMKG MKG20050423105013904/23/05 10:50:31  5-MIN KMKG 231550Z 33018G25KT 10SM OVC025 02/M03 A2981  730 69 -600 340/18G25 RMK AO2 PK WND 01030/1512 SLP101 T00221028
14840KMKG MKG20050423105513904/23/05 10:55:31  5-MIN KMKG 231555Z 35012G24KT 10SM OVC025 03/M03 A2983  720 67 -500 350/12G24 RMK AO2 PK WND 01030/1512 SLP105 T00281028
14840KMKG MKG20050423110010404/23/05 11:00:31  5-MIN KMKG 231600Z 35017G25KT 10SM OVC025 02/M03 A2983  720 69 -600 360/17G25 RMK AO2
14840KMKG MKG20050423110510404/23/05 11:05:31  5-MIN KMKG 231605Z 36016G25KT 10SM OVC025 03/M03 A2983  720 67 -500 360/16G25 RMK AO2
14840KMKG MKG20050423111010404/23/05 11:10:31  5-MIN KMKG 231610Z 35020G25KT 10SM OVC025 02/M03 A2982  720 67 -600 360/20G25 RMK AO2
14840KMKG MKG20050423111510404/23/05 11:15:31  5-MIN KMKG 231615Z 35020G25KT 10SM OVC025 02/M03 A2982  720 67 -600 350/20G25 RMK AO2
14840KMKG MKG20050423112012204/23/05 11:20:31  5-MIN KMKG 231620Z 35018G26KT 10SM OVC025 02/M03 A2982  720 67 -600 350/18G26 RMK AO2 PK WND 36026/1618
14840KMKG MKG20050423112512204/23/05 11:25:31  5-MIN KMKG 231625Z 34018G26KT 10SM OVC025 02/M03 A2982  720 67 -600 350/18G26 RMK AO2 PK WND 36026/1618
14840KMKG MKG20050423113012204/23/05 11:30:31  5-MIN KMKG 231630Z 34019G24KT 10SM OVC025 02/M03 A2982  720 67 -600 340/19G24 RMK AO2 PK WND 36026/1618
14840KMKG MKG20050423113512204/23/05 11:35:31  5-MIN KMKG 231635Z 35019G26KT 10SM OVC025 02/M03 A2982  720 67 -600 360/19G26 RMK AO2 PK WND 36026/1635
14840KMKG MKG20050423114012204/23/05 11:40:31  5-MIN KMKG 231640Z 35019G26KT 10SM OVC025 02/M03 A2982  720 67 -600 360/19G26 RMK AO2 PK WND 36026/1635
14840KMKG MKG20050423114512204/23/05 11:45:31  5-MIN KMKG 231645Z 35018G24KT 10SM OVC025 02/M03 A2982  720 67 -600 350/18G24 RMK AO2 PK WND 36026/1635
14840KMKG MKG20050423115013904/23/05 11:50:31  5-MIN KMKG 231650Z 33018G25KT 10SM OVC025 02/M03 A2981  730 69 -600 340/18G25 RMK AO2 PK WND 36026/1635 SLP100 T00221028
14840KMKG MKG20050423115513904/23/05 11:55:31  5-MIN KMKG 231655Z 33023G28KT 10SM OVC023 02/M03 A2981  730 69 -600 340/23G28 RMK AO2 PK WND 33028/1655 SLP099 T00221028
14840KMKG MKG20050423120013804/23/05 12:00:31  5-MIN KMKG 231700Z 33024G29KT 10SM -SN OVC023 02/M03  A2981 730 72 -600 340/24G29 RMK AO2 PK WND 32029/1659 SNB00 P0000
14840KMKG MKG20050423120513704/23/05 12:05:31  5-MIN KMKG 231705Z 33018G29KT 8SM -SN OVC021 02/M03  A2981 730 72 -600 330/18G29 RMK AO2 PK WND 32029/1659 SNB00 P0000
14840KMKG MKG20050423121013704/23/05 12:10:31  5-MIN KMKG 231710Z 34021G26KT 7SM -SN OVC021 02/M03  A2982 730 69 -600 340/21G26 RMK AO2 PK WND 32029/1659 SNB00 P0000
14840KMKG MKG20050423121513704/23/05 12:15:31  5-MIN KMKG 231715Z 34019G26KT 5SM -SN OVC021 02/M03  A2981 730 72 -600 350/19G26 RMK AO2 PK WND 32029/1659 SNB00 P0000
14840KMKG MKG20050423122013704/23/05 12:20:31  5-MIN KMKG 231720Z 35020G28KT 5SM -SN OVC021 02/M03  A2982 720 72 -600 360/20G28 RMK AO2 PK WND 32029/1659 SNB00 P0000
14840KMKG MKG20050423122514404/23/05 12:25:31  5-MIN KMKG 231725Z 35020G28KT 8SM -SN BKN021 OVC030  02/M03 A2982 720 69 -600 360/20G28 RMK AO2 PK WND 32029/1659 SNB00 P0000
14840KMKG MKG20050423123014404/23/05 12:30:31  5-MIN KMKG 231730Z 34019G27KT 9SM -SN BKN023 OVC030  03/M03 A2982 730 64 -500 350/19G27 RMK AO2 PK WND 32029/1659 SNB00 P0000
14840KMKG MKG20050423123514404/23/05 12:35:31  5-MIN KMKG 231735Z 36020G25KT 9SM -SN BKN023 OVC030  03/M03 A2982 720 67 -500 360/20G25 RMK AO2 PK WND 32029/1659 SNB00 P0000
14840KMKG MKG20050423124014404/23/05 12:40:31  5-MIN KMKG 231740Z 34022G29KT 9SM -SN BKN023 OVC030  03/M03 A2982 730 64 -500 350/22G29 RMK AO2 PK WND 33029/1740 SNB00 P0000
14840KMKG MKG20050423124514404/23/05 12:45:31  5-MIN KMKG 231745Z 36020G29KT 9SM -SN BKN025 OVC033  03/M03 A2981 730 64 -500 360/20G29 RMK AO2 PK WND 33029/1740 SNB00 P0000
14840KMKG MKG20050423125018604/23/05 12:50:31  5-MIN KMKG 231750Z 35018G27KT 8SM -SN BKN025 OVC031  02/M03 A2982 730 67 -600 360/18G27 RMK AO2 PK WND 33029/1740 SNB00 SLP102  P0000 60000 T00221033 10033 20011 53005
14840KMKG MKG20050423125517904/23/05 12:55:31  5-MIN KMKG 231755Z 35019G27KT 7SM -SN OVC025 02/M03  A2982 720 69 -600 350/19G27 RMK AO2 PK WND 33029/1740 SNB00 SLP104 P0000  60000 T00221028 10033 20011 55001
14840KMKG MKG20050423130011304/23/05 13:00:31  5-MIN KMKG 231800Z 34018G27KT 5SM -SN OVC025 02/M03  A2982 730 69 -600 340/18G27 RMK AO2 P0000
14840KMKG MKG20050423130512004/23/05 13:05:31  5-MIN KMKG 231805Z 34018G24KT 4SM -SN BKN025 OVC032  02/M03 A2981 730 72 -600 340/18G24 RMK AO2 P0000
14840KMKG MKG20050423131013404/23/05 13:10:31  5-MIN KMKG 231810Z 34020G26KT 2 1/2SM -SN OVC025 02/M03 A2982 730 72 -600 340/20G26 RMK AO2 PK WND 34026/1808 P0000
14840KMKG MKG20050423131513404/23/05 13:15:31  5-MIN KMKG 231815Z 34023G27KT 2 1/2SM -SN OVC025 02/M03 A2982 730 72 -600 340/23G27 RMK AO2 PK WND 34027/1814 P0000
14840KMKG MKG20050423132014504/23/05 13:20:31  5-MIN KMKG 231820Z 34019G29KT 3SM -SN FEW016 BKN023  OVC029 02/M03 A2982 720 72 -600 350/19G29 RMK AO2 PK WND 36029/1817 P0000
14840KMKG MKG20050423132514504/23/05 13:25:31  5-MIN KMKG 231825Z 35019G29KT 4SM -SN FEW016 BKN023  OVC031 02/M03 A2982 730 72 -600 360/19G29 RMK AO2 PK WND 36029/1817 P0000
14840KMKG MKG20050423133013804/23/05 13:30:31  5-MIN KMKG 231830Z 35015G24KT 5SM -SN BKN023 OVC029  02/M03 A2982 720 69 -600 350/15G24 RMK AO2 PK WND 36029/1817 P0000
14840KMKG MKG20050423133513104/23/05 13:35:31  5-MIN KMKG 231835Z 34019G22KT 5SM -SN OVC023 02/M03  A2981 730 69 -600 340/19G22 RMK AO2 PK WND 36029/1817 P0000
14840KMKG MKG20050423134013104/23/05 13:40:31  5-MIN KMKG 231840Z 34018G22KT 5SM -SN OVC025 02/M03  A2982 720 72 -600 350/18G22 RMK AO2 PK WND 36029/1817 P0000
14840KMKG MKG20050423134513804/23/05 13:45:31  5-MIN KMKG 231845Z 35019G26KT 3SM -SN FEW012 OVC025  02/M02 A2981 730 75 -600 350/19G26 RMK AO2 PK WND 36029/1817 P0000
14840KMKG MKG20050423135015904/23/05 13:50:31  5-MIN KMKG 231850Z 34013G26KT 2 1/2SM -SN OVC023 02/M02 A2982 720 78 -600 340/13G26 RMK AO2 PK WND 36029/1817 VIS 2V4 SLP104 P0000 T00171017
14840KMKG MKG20050423135514904/23/05 13:55:31  5-MIN KMKG 231855Z 36021G25KT 4SM -SN OVC023 02/M02  A2982 730 75 -600 360/21G25 RMK AO2 PK WND 36029/1817 SLP102 P0000  T00221017
14840KMKG MKG20050423140013804/23/05 14:00:31  5-MIN KMKG 231900Z 35020G26KT 3SM -SN BKN021 OVC026  02/M02 A2982 730 75 -600 350/20G26 RMK AO2 PK WND 35026/1900 P0000
14840KMKG MKG20050423140514504/23/05 14:05:31  5-MIN KMKG 231905Z 35020G28KT 3SM -SN FEW011 BKN021  OVC026 02/M02 A2982 730 75 -600 350/20G28 RMK AO2 PK WND 36028/1902 P0000
14840KMKG MKG20050423141014804/23/05 14:10:31  5-MIN KMKG 231910Z 35015G28KT 2 1/2SM -SN FEW011 BKN021 OVC026 02/M02 A2982 730 78 -600 350/15G28 RMK AO2 PK WND 36028/1902 P0000
14840KMKG MKG20050423141514804/23/05 14:15:31  5-MIN KMKG 231915Z 35020G28KT 2 1/2SM -SN FEW011 BKN019 OVC024 02/M02 A2982 720 75 -600 350/20G28 RMK AO2 PK WND 35028/1912 P0000
14840KMKG MKG20050423142014804/23/05 14:20:31  5-MIN KMKG 231920Z 34020G28KT 1 3/4SM -SN FEW011 BKN019 OVC024 02/M02 A2981 730 78 -600 340/20G28 RMK AO2 PK WND 33028/1917 P0000
14840KMKG MKG20050423142513804/23/05 14:25:31  5-MIN KMKG 231925Z 34019G28KT 2SM -SN BKN019 OVC024  02/M02 A2982 730 78 -600 350/19G28 RMK AO2 PK WND 33028/1917 P0000
14840KMKG MKG20050423143014104/23/05 14:30:31  5-MIN KMKG 231930Z 33022G27KT 2 1/2SM -SN BKN018 OVC024 02/M02 A2981 730 75 -600 340/22G27 RMK AO2 PK WND 33028/1917 P0000
14840KMKG MKG20050423143514804/23/05 14:35:31  5-MIN KMKG 231935Z 33020G27KT 2 1/2SM -SN BKN018 BKN024 OVC028 01/M02 A2981 730 82 -700 340/20G27 RMK AO2 PK WND 33028/1917 P0000
14840KMKG MKG20050423144013804/23/05 14:40:31  5-MIN KMKG 231940Z 35020G28KT 3SM -SN BKN021 OVC029  02/M02 A2981 730 78 -600 350/20G28 RMK AO2 PK WND 34028/1937 P0000
14840KMKG MKG20050423144513804/23/05 14:45:31  5-MIN KMKG 231945Z 34018G28KT 7SM -SN BKN021 OVC027  02/M02 A2981 730 75 -600 350/18G28 RMK AO2 PK WND 34028/1937 P0000
14840KMKG MKG20050423145015604/23/05 14:50:31  5-MIN KMKG 231950Z 34017G28KT 8SM -SN BKN023 OVC027  02/M03 A2982 720 72 -600 340/17G28 RMK AO2 PK WND 35028/1946 SLP103 P0000  T00171028
14840KMKG MKG20050423145515604/23/05 14:55:31  5-MIN KMKG 231955Z 34021G29KT 7SM -SN BKN023 OVC027  02/M03 A2981 730 72 -600 350/21G29 RMK AO2 PK WND 36029/1953 SLP100 P0000  T00171028
14840KMKG MKG20050423150013804/23/05 15:00:31  5-MIN KMKG 232000Z 34022G35KT 8SM -SN BKN023 OVC028  02/M03 A2982 730 72 -600 340/22G35 RMK AO2 PK WND 33035/2000 P0000
14840KMKG MKG20050423150513104/23/05 15:05:31  5-MIN KMKG 232005Z 35022G35KT 9SM -SN OVC025 02/M03  A2982 720 69 -600 350/22G35 RMK AO2 PK WND 33035/2000 P0000
14840KMKG MKG20050423151013804/23/05 15:10:31  5-MIN KMKG 232010Z 35017G32KT 9SM -SN BKN025 OVC034  02/M03 A2981 730 67 -600 350/17G32 RMK AO2 PK WND 33035/2000 P0000
14840KMKG MKG20050423151514004/23/05 15:15:31  5-MIN KMKG 232015Z 33021G29KT 9SM BKN025 OVC039 02/M03  A2981 730 67 -600 340/21G29 RMK AO2 PK WND 33035/2000 SNE11 P0000
14840KMKG MKG20050423152013404/23/05 15:20:31  5-MIN KMKG 232020Z 33019G27KT 10SM OVC025 02/M03 A2981  730 69 -600 340/19G27 RMK AO2 PK WND 33035/2000 SNE11 P0000
14840KMKG MKG20050423152513904/23/05 15:25:31  5-MIN KMKG 232025Z 34019G27KT 10SM -SN BKN025 OVC030  02/M03 A2980 740 67 -500 340/19G27 RMK AO2 PK WND 33035/2000 P0000
14840KMKG MKG20050423153013104/23/05 15:30:31  5-MIN KMKG 232030Z 34023G32KT 5SM -SN OVC025 02/M03  A2981 730 69 -600 340/23G32 RMK AO2 PK WND 33035/2000 P0000
14840KMKG MKG20050423153513804/23/05 15:35:31  5-MIN KMKG 232035Z 34021G32KT 3SM -SN FEW012 OVC027  02/M03 A2981 730 72 -600 350/21G32 RMK AO2 PK WND 33035/2000 P0000
14840KMKG MKG20050423154013804/23/05 15:40:31  5-MIN KMKG 232040Z 35022G27KT 3SM -SN FEW012 OVC027  02/M03 A2981 730 72 -600 360/22G27 RMK AO2 PK WND 33035/2000 P0000
14840KMKG MKG20050423154516604/23/05 15:45:31  5-MIN KMKG 232045Z 34018G27KT 1 3/4SM -SN SCT012 OVC027 02/M02 A2981 730 75 -600 350/18G27 RMK AO2 PK WND 33035/2000 TWR VIS 2 CIG 022 RWY 14 P0000
14840KMKG MKG20050423155018704/23/05 15:50:31  5-MIN KMKG 232050Z 34019G23KT 1 1/2SM -SN SCT012 BKN019 OVC027 02/M02 A2982 730 78 -600 340/19G23 RMK AO2 PK WND 33035/2000 TWR VIS 2 SLP103 P0000 60000 T00171017 55001
14840KMKG MKG20050423155518704/23/05 15:55:31  5-MIN KMKG 232055Z 34020G27KT 1 1/2SM -SN SCT012 BKN019 OVC027 01/M02 A2982 730 82 -700 350/20G27 RMK AO2 PK WND 33035/2000 TWR VIS 2 SLP103 P0000 60000 T00111017 55001
14840KMKG MKG20050423160014004/23/05 16:00:31  5-MIN KMKG 232100Z 34018G27KT 1 1/4SM -SN FEW012 BKN019 OVC027 01/M02 A2981 730 82 -700 340/18G27 RMK AO2 TWR VIS 2 P0000
14840KMKG MKG20050423160514004/23/05 16:05:31  5-MIN KMKG 232105Z 34019G23KT 1 3/4SM -SN FEW012 BKN019 OVC026 01/M02 A2981 730 82 -700 350/19G23 RMK AO2 TWR VIS 2 P0000
14840KMKG MKG20050423161014004/23/05 16:10:31  5-MIN KMKG 232110Z 35017G25KT 1 3/4SM -SN SCT015 BKN019 OVC026 01/M02 A2981 730 82 -700 350/17G25 RMK AO2 TWR VIS 2 P0000
14840KMKG MKG20050423161513804/23/05 16:15:31  5-MIN KMKG 232115Z 35019G28KT 2SM -SN BKN018 OVC026  01/M02 A2981 730 78 -700 350/19G28 RMK AO2 PK WND 36028/2115 P0000
14840KMKG MKG20050423162013804/23/05 16:20:31  5-MIN KMKG 232120Z 34021G28KT 2SM -SN BKN018 OVC024  01/M02 A2981 730 78 -700 340/21G28 RMK AO2 PK WND 34028/2116 P0000
14840KMKG MKG20050423162515204/23/05 16:25:31  5-MIN KMKG 232125Z 34024G31KT 1 3/4SM -SN BKN016 OVC024 01/M02 A2981 730 78 -700 350/24G31 RMK AO2 PK WND 35031/2125 TWR VIS 2  P0000
14840KMKG MKG20050423163015204/23/05 16:30:31  5-MIN KMKG 232130Z 35017G31KT 1 3/4SM -SN SCT014 OVC023 01/M02 A2981 730 78 -700 350/17G31 RMK AO2 PK WND 35031/2125 TWR VIS 2  P0000
14840KMKG MKG20050423163514604/23/05 16:35:31  5-MIN KMKG 232135Z 35013KT 1 1/4SM -SN BKN016 OVC023  01/M02 A2981 730 82 -800 350/13 RMK AO2 PK WND 35031/2125 TWR VIS 2 P0000
14840KMKG MKG20050423164015504/23/05 16:40:31  5-MIN KMKG 232140Z 35021G26KT 1 1/2SM -SN BR BKN016  OVC023 01/M02 A2981 730 85 -800 350/21G26 RMK AO2 PK WND 35031/2125 TWR VIS 2 P0000
14840KMKG MKG20050423164514504/23/05 16:45:31  5-MIN KMKG 232145Z 34019G26KT 2SM -SN BKN016 BKN023  OVC030 01/M02 A2981 730 82 -800 350/19G26 RMK AO2 PK WND 35031/2125 P0000
14840KMKG MKG20050423165016604/23/05 16:50:31  5-MIN KMKG 232150Z 34017G25KT 2SM -SN BKN017 OVC027  01/M02 A2981 730 82 -800 340/17G25 RMK AO2 PK WND 35031/2125 SFC VIS 3  SLP101 P0000 T00061022
14840KMKG MKG20050423165517204/23/05 16:55:31  5-MIN KMKG 232155Z 35021G26KT 2SM -SN BKN017 BKN023  OVC032 01/M02 A2981 730 78 -700 350/21G26 RMK AO2 PK WND 35031/2125 SFC VIS 4 SLP102 P0000 T00111022
14840KMKG MKG20050423170013704/23/05 17:00:31  5-MIN KMKG 232200Z 34014G26KT 2SM -SN SCT017 BKN023  OVC032 01/M02 A2982 720 78 -700 350/14G26 RMK AO2 SFC VIS 4 P0000
14840KMKG MKG20050423170513704/23/05 17:05:31  5-MIN KMKG 232205Z 34018G25KT 2SM -SN SCT017 BKN024  OVC032 01/M02 A2982 730 78 -700 340/18G25 RMK AO2 SFC VIS 4 P0000
14840KMKG MKG20050423171015204/23/05 17:10:31  5-MIN KMKG 232210Z 34013G25KT 2SM -SN SCT017 BKN024  OVC030 01/M02 A2982 730 82 -700 350/13G25 RMK AO2 SFC VIS 4 CIG 019 RWY 14 P0000
14840KMKG MKG20050423171513704/23/05 17:15:31  5-MIN KMKG 232215Z 34016G24KT 2SM -SN SCT019 BKN024  OVC032 01/M02 A2982 730 82 -700 340/16G24 RMK AO2 SFC VIS 4 P0000
14840KMKG MKG20050423172017004/23/05 17:20:31  5-MIN KMKG 232220Z 34019G27KT 2SM -SN SCT019 BKN026  OVC032 01/M02 A2982 730 82 -800 350/19G27 RMK AO2 PK WND 34027/2220 SFC VIS 3 CIG 021 RWY 14 P0000
14840KMKG MKG20050423172514504/23/05 17:25:31  5-MIN KMKG 232225Z 34022G28KT 2SM -SN FEW012 BKN025  OVC032 01/M02 A2982 720 82 -800 350/22G28 RMK AO2 PK WND 35028/2225 P0000
14840KMKG MKG20050423173015804/23/05 17:30:31  5-MIN KMKG 232230Z 35020G28KT 1 3/4SM -SN FEW012 BKN020 OVC032 01/M02 A2982 720 82 -800 350/20G28 RMK AO2 PK WND 35028/2225 TWR VIS 2 P0000
14840KMKG MKG20050423173515804/23/05 17:35:31  5-MIN KMKG 232235Z 34013G25KT 1 3/4SM -SN FEW012 BKN020 OVC032 01/M02 A2982 720 82 -800 340/13G25 RMK AO2 PK WND 35028/2225 TWR VIS 2 P0000
14840KMKG MKG20050423174016204/23/05 17:40:31  5-MIN KMKG 232240Z 33015G24KT 1 1/2SM -SN BR FEW012  BKN018 OVC032 01/M02 A2982 730 85 -800 340/15G24 RMK AO2 PK WND 35028/2225 TWR VIS 2 P0000
14840KMKG MKG20050423174516204/23/05 17:45:31  5-MIN KMKG 232245Z 34019G23KT 1 3/4SM -SN BR FEW012  BKN018 OVC030 01/M02 A2982 720 85 -800 340/19G23 RMK AO2 PK WND 35028/2225 TWR VIS 2 P0000
14840KMKG MKG20050423175017904/23/05 17:50:31  5-MIN KMKG 232250Z 34015G24KT 1 3/4SM -SN BR FEW014  BKN021 OVC027 01/M02 A2982 720 85 -800 350/15G24 RMK AO2 PK WND 35028/2225 TWR VIS 2 SLP104 P0000 T00061017
14840KMKG MKG20050423175517504/23/05 17:55:31  5-MIN KMKG 232255Z 34020G25KT 1 1/2SM -SN FEW013 BKN020 OVC027 01/M02 A2982 720 82 -800 350/20G25 RMK AO2 PK WND 35028/2225 TWR VIS 2 SLP105 P0000 T00061022
14840KMKG MKG20050423180014404/23/05 18:00:31  5-MIN KMKG 232300Z 34016G25KT 1 1/4SM -SN BR FEW013  BKN020 OVC027 01/M02 A2982 720 85 -800 340/16G25 RMK AO2 TWR VIS 2 P0000
14840KMKG MKG20050423180513704/23/05 18:05:31  5-MIN KMKG 232305Z 34018G25KT 1 1/4SM -SN BR FEW014  OVC020 01/M02 A2982 720 85 -800 340/18G25 RMK AO2 TWR VIS 2 P0000
14840KMKG MKG20050423181015204/23/05 18:10:31  5-MIN KMKG 232310Z 34019G24KT 1 1/2SM -SN BR SCT017  OVC022 01/M02 A2982 720 85 -800 340/19G24 RMK AO2 TWR VIS 2 CIG 017 RWY 14 P0000
14840KMKG MKG20050423181515504/23/05 18:15:31  5-MIN KMKG 232315Z 35022G26KT 1 1/2SM -SN BR BKN018  OVC023 01/M02 A2982 720 85 -800 350/22G26 RMK AO2 PK WND 35026/2315 TWR VIS 2 P0000
14840KMKG MKG20050423182015204/23/05 18:20:31  5-MIN KMKG 232320Z 34020G26KT 1 3/4SM -SN BKN019 OVC023 01/M02 A2982 720 82 -800 340/20G26 RMK AO2 PK WND 35026/2315 TWR VIS 2  P0000
14840KMKG MKG20050423182513404/23/05 18:25:31  5-MIN KMKG 232325Z 34018G26KT 2SM -SN BR OVC020 01/M02  A2982 720 85 -800 350/18G26 RMK AO2 PK WND 34026/2321 P0000
14840KMKG MKG20050423183014404/23/05 18:30:31  5-MIN KMKG 232330Z 34019G26KT 1 3/4SM -SN OVC020 01/M02 A2982 720 82 -800 340/19G26 RMK AO2 PK WND 34026/2321 TWR VIS 2 P0000
14840KMKG MKG20050423183515504/23/05 18:35:31  5-MIN KMKG 232335Z 34017G25KT 1 1/4SM -SN BR FEW015  OVC023 00/M02 A2982 720 85 -800 340/17G25 RMK AO2 PK WND 34026/2321 TWR VIS 2 P0000
14840KMKG MKG20050423184015204/23/05 18:40:31  5-MIN KMKG 232340Z 35019G26KT 1SM -SN BR FEW015 OVC023  00/M02 A2983 720 85 -900 350/19G26 RMK AO2 PK WND 36026/2340 TWR VIS 2  P0000
14840KMKG MKG20050423184515204/23/05 18:45:31  5-MIN KMKG 232345Z 34020G26KT 1SM -SN BR SCT015 OVC022  00/M02 A2982 720 85 -800 340/20G26 RMK AO2 PK WND 36026/2340 TWR VIS 2  P0000
14840KMKG MKG20050423185020304/23/05 18:50:31  5-MIN KMKG 232350Z 34014G25KT 1 1/4SM -SN BR FEW012  BKN020 OVC025 00/M02 A2982 720 88 -800 350/14G25 RMK AO2 PK WND 36026/2340 TWR VIS 2 SLP107 P0000 60000 T00001017 10022 20000 55001
14840KMKG MKG20050423185519604/23/05 18:55:31  5-MIN KMKG 232355Z 34015G23KT 1 1/4SM -SN BR SCT015  OVC022 00/M02 A2982 720 88 -800 340/15G23 RMK AO2 PK WND 36026/2340 TWR VIS 2 SLP105 P0000 60000 T00001017 10022 20000 53002
14840KMKG MKG20050423190015504/23/05 19:00:31  5-MIN KMKG 240000Z 34022G30KT 1 1/4SM -SN BR SCT015  OVC022 00/M02 A2982 720 85 -800 340/22G30 RMK AO2 PK WND 35030/2357 TWR VIS 2 P0000
14840KMKG MKG20050423190516204/23/05 19:05:31  5-MIN KMKG 240005Z 35020G30KT 1 1/2SM -SN BR SCT015  BKN020 OVC026 00/M02 A2982 720 85 -800 350/20G30 RMK AO2 PK WND 35030/2357 TWR VIS 2 P0000
14840KMKG MKG20050423191016204/23/05 19:10:31  5-MIN KMKG 240010Z 35015G25KT 1 1/2SM -SN BR BKN015  BKN021 OVC027 00/M02 A2982 720 88 -800 350/15G25 RMK AO2 PK WND 35030/2357 TWR VIS 2 P0000
14840KMKG MKG20050423191515504/23/05 19:15:31  5-MIN KMKG 240015Z 34016G22KT 1 1/2SM -SN BR BKN016  OVC022 00/M02 A2982 730 88 -800 340/16G22 RMK AO2 PK WND 35030/2357 TWR VIS 2 P0000
14840KMKG MKG20050423192015504/23/05 19:20:31  5-MIN KMKG 240020Z 34018G22KT 1 1/2SM -SN BR BKN017  OVC022 00/M02 A2982 730 88 -800 340/18G22 RMK AO2 PK WND 35030/2357 TWR VIS 2 P0000
14840KMKG MKG20050423192515504/23/05 19:25:31  5-MIN KMKG 240025Z 34017G23KT 1 1/2SM -SN BR BKN017  OVC022 00/M02 A2982 720 88 -800 340/17G23 RMK AO2 PK WND 35030/2357 TWR VIS 2 P0000
14840KMKG MKG20050423193015504/23/05 19:30:31  5-MIN KMKG 240030Z 34016G23KT 1 1/4SM -SN BR BKN017  OVC021 00/M02 A2982 720 88 -800 350/16G23 RMK AO2 PK WND 35030/2357 TWR VIS 2 P0000
14840KMKG MKG20050423193515504/23/05 19:35:31  5-MIN KMKG 240035Z 34014G21KT 1 1/2SM -SN BR BKN015  OVC021 00/M02 A2983 720 88 -800 340/14G21 RMK AO2 PK WND 35030/2357 TWR VIS 2 P0000
14840KMKG MKG20050423194014804/23/05 19:40:31  5-MIN KMKG 240040Z 34017G21KT 2SM -SN BR BKN015 BKN021  OVC026 00/M02 A2982 720 88 -800 340/17G21 RMK AO2 PK WND 35030/2357 P0000
14840KMKG MKG20050423194516204/23/05 19:45:31  5-MIN KMKG 240045Z 34015G21KT 2SM -SN BR BKN015 BKN023  OVC036 00/M02 A2982 720 88 -800 350/15G21 RMK AO2 PK WND 35030/2357 SFC VIS 2 1/2 P0000
14840KMKG MKG20050423195017904/23/05 19:50:31  5-MIN KMKG 240050Z 35019G24KT 2SM -SN BR BKN015 BKN022  OVC028 00/M02 A2982 720 88 -800 350/19G24 RMK AO2 PK WND 35030/2357 SFC VIS 2 1/2 SLP104 P0000 T00001017
14840KMKG MKG20050423195517904/23/05 19:55:31  5-MIN KMKG 240055Z 34016G24KT 2SM -SN BR FEW015 BKN020  OVC036 00/M02 A2983 720 88 -900 350/16G24 RMK AO2 PK WND 35030/2357 SFC VIS 2 1/2 SLP106 P0000 T00001017
14840KMKG MKG20050423200013004/23/05 20:00:31  5-MIN KMKG 240100Z 34016G23KT 2SM -SN BR BKN017 BKN027  OVC036 00/M02 A2982 730 88 -800 340/16G23 RMK AO2 P0000
14840KMKG MKG20050423200514404/23/05 20:05:31  5-MIN KMKG 240105Z 34017G25KT 1 3/4SM -SN BR BKN015  BKN022 OVC036 00/M02 A2982 720 88 -800 340/17G25 RMK AO2 TWR VIS 2 P0000
14840KMKG MKG20050423201013004/23/05 20:10:31  5-MIN KMKG 240110Z 34018G25KT 2SM -SN BR SCT015 BKN022  OVC036 00/M02 A2982 720 88 -800 340/18G25 RMK AO2 P0000
14840KMKG MKG20050423201513004/23/05 20:15:31  5-MIN KMKG 240115Z 34018G23KT 2SM -SN BR SCT015 BKN021  OVC036 00/M02 A2982 730 88 -800 350/18G23 RMK AO2 P0000
14840KMKG MKG20050423202013004/23/05 20:20:31  5-MIN KMKG 240120Z 34017G23KT 2SM -SN BR FEW013 BKN019  OVC036 00/M02 A2982 730 88 -800 350/17G23 RMK AO2 P0000
14840KMKG MKG20050423202514204/23/05 20:25:31  5-MIN KMKG 240125Z 35017G23KT 2SM -SN BR FEW012 BKN019  OVC036 00/M02 A2982 720 88 -800 350/17G23 RMK AO2 SFC VIS 3 P0000 $
14840KMKG MKG20050423203016004/23/05 20:30:31  5-MIN KMKG 240130Z 34019G26KT 2SM -SN BR FEW013 BKN020  OVC036 00/M02 A2982 720 88 -800 350/19G26 RMK AO2 PK WND 34026/0130 SFC VIS 4 P0000 $
14840KMKG MKG20050423203515104/23/05 20:35:31  5-MIN KMKG 240135Z 34018G26KT 2SM -SN BKN020 OVC036  01/M02 A2982 720 82 -800 340/18G26 RMK AO2 PK WND 34026/0130 SFC VIS 7  P0000 $
14840KMKG MKG20050423204015104/23/05 20:40:31  5-MIN KMKG 240140Z 34020G25KT 2SM -SN BKN020 OVC038  01/M02 A2982 730 82 -800 340/20G25 RMK AO2 PK WND 34026/0130 SFC VIS 6  P0000 $
14840KMKG MKG20050423204515704/23/05 20:45:31  5-MIN KMKG 240145Z 35019G27KT 2SM -SN SCT018 BKN023  OVC038 01/M02 A2982 720 82 -800 350/19G27 RMK AO2 PK WND 36027/0143 SFC VIS 5 P0000 $
14840KMKG MKG20050423205017404/23/05 20:50:31  5-MIN KMKG 240150Z 35019G27KT 2SM -SN BKN020 BKN026  OVC038 01/M02 A2982 720 82 -800 350/19G27 RMK AO2 PK WND 36027/0143 SFC VIS 4 SLP104 P0000 T00061022 $
14840KMKG MKG20050423205516804/23/05 20:55:31  5-MIN KMKG 240155Z 34016G26KT 2SM -SN BKN020 OVC038  01/M02 A2982 730 82 -800 350/16G26 RMK AO2 PK WND 36027/0143 SFC VIS 3  SLP103 P0000 T00061022 $
14840KMKG MKG20050423210014204/23/05 21:00:31  5-MIN KMKG 240200Z 34019G24KT 2SM -SN BR BKN020 BKN029  OVC038 01/M02 A2982 730 85 -800 340/19G24 RMK AO2 SFC VIS 3 P0000 $
14840KMKG MKG20050423210514204/23/05 21:05:31  5-MIN KMKG 240205Z 34017G24KT 2SM -SN BR BKN020 BKN029  OVC038 01/M02 A2982 730 85 -800 350/17G24 RMK AO2 SFC VIS 4 P0000 $
14840KMKG MKG20050423211013904/23/05 21:10:31  5-MIN KMKG 240210Z 34017G24KT 2SM -SN BKN019 BKN025  OVC038 01/M02 A2981 730 82 -800 350/17G24 RMK AO2 SFC VIS 4 P0000 $
14840KMKG MKG20050423211512004/23/05 21:15:31  5-MIN KMKG 240215Z 34017G24KT 6SM -SN BKN019 OVC029  01/M02 A2981 730 82 -800 350/17G24 RMK AO2 P0000
14840KMKG MKG20050423212012904/23/05 21:20:31  5-MIN KMKG 240220Z 34017G24KT 7SM FEW017 BKN022 OVC050  01/M02 A2981 730 82 -800 350/17G24 RMK AO2 SNE17 P0000
14840KMKG MKG20050423212513204/23/05 21:25:31  5-MIN KMKG 240225Z 35015G24KT 6SM HZ BKN020 BKN028  OVC055 01/M02 A2982 730 82 -800 350/15G24 RMK AO2 SNE17 P0000
14840KMKG MKG20050423213014704/23/05 21:30:31  5-MIN KMKG 240230Z 34018G30KT 7SM FEW017 BKN022 OVC055  01/M02 A2982 720 85 -800 350/18G30 RMK AO2 PK WND 33030/0227 SNE17 P0000
14840KMKG MKG20050423213514704/23/05 21:35:31  5-MIN KMKG 240235Z 35018G30KT 7SM BKN021 BKN041 OVC065  01/M02 A2981 730 85 -800 350/18G30 RMK AO2 PK WND 33030/0227 SNE17 P0000
14840KMKG MKG20050423214014704/23/05 21:40:31  5-MIN KMKG 240240Z 34019G27KT 8SM BKN021 BKN041 OVC080  01/M02 A2981 730 85 -800 350/19G27 RMK AO2 PK WND 33030/0227 SNE17 P0000
14840KMKG MKG20050423214514704/23/05 21:45:31  5-MIN KMKG 240245Z 34019G27KT 7SM BKN021 BKN038 OVC050  01/M02 A2981 740 85 -800 350/19G27 RMK AO2 PK WND 33030/0227 SNE17 P0000
14840KMKG MKG20050423215018704/23/05 21:50:31  5-MIN KMKG 240250Z 34021G27KT 5SM -SN BR SCT018 BKN038  OVC055 01/M02 A2981 740 85 -800 350/21G27 RMK AO2 PK WND 33030/0227  SNE17B49 SLP099 P0000 60000 T00061017 53002
14840KMKG MKG20050423215518704/23/05 21:55:31  5-MIN KMKG 240255Z 34018G27KT 4SM -SN BR SCT018 BKN038  OVC055 01/M02 A2980 740 85 -800 350/18G27 RMK AO2 PK WND 33030/0227  SNE17B49 SLP099 P0000 60000 T00061017 58006
14840KMKG MKG20050423220014804/23/05 22:00:31  5-MIN KMKG 240300Z 35021G27KT 4SM -SN BR SCT018 BKN038  OVC055 01/M02 A2980 740 85 -800 350/21G27 RMK AO2 PK WND 36027/0258 P0000
14840KMKG MKG20050423220514804/23/05 22:05:31  5-MIN KMKG 240305Z 34017G27KT 4SM -SN BR SCT018 BKN036  OVC055 01/M02 A2980 740 85 -800 350/17G27 RMK AO2 PK WND 36027/0258 P0000
14840KMKG MKG20050423221014804/23/05 22:10:31  5-MIN KMKG 240310Z 35015G23KT 5SM -SN BR SCT019 BKN038  OVC060 01/M02 A2980 740 85 -800 350/15G23 RMK AO2 PK WND 36027/0258 P0000
14840KMKG MKG20050423221514804/23/05 22:15:31  5-MIN KMKG 240315Z 34019G26KT 6SM -SN BR BKN019 BKN050  OVC065 01/M02 A2980 740 85 -700 340/19G26 RMK AO2 PK WND 36027/0258 P0000
14840KMKG MKG20050423222014504/23/05 22:20:31  5-MIN KMKG 240320Z 34018G26KT 7SM -SN BKN020 BKN049  OVC055 01/M02 A2980 740 85 -700 350/18G26 RMK AO2 PK WND 36027/0258 P0000
14840KMKG MKG20050423222516304/23/05 22:25:31  5-MIN KMKG 240325Z 34022G27KT 5SM -SN BR SCT020 BKN024  OVC049 01/M02 A2980 750 85 -700 350/22G27 RMK AO2 PK WND 34027/0325 CIG 019 RWY 14 P0000
14840KMKG MKG20050423223014104/23/05 22:30:31  5-MIN KMKG 240330Z 34020G27KT 5SM -SN BR BKN020 OVC049  01/M02 A2979 750 85 -700 350/20G27 RMK AO2 PK WND 34027/0325 P0000
14840KMKG MKG20050423223514804/23/05 22:35:31  5-MIN KMKG 240335Z 35018G26KT 6SM -SN BR BKN020 BKN046  OVC055 01/M02 A2979 750 85 -700 350/18G26 RMK AO2 PK WND 34027/0325 P0000
14840KMKG MKG20050423224014804/23/05 22:40:31  5-MIN KMKG 240340Z 34016G26KT 5SM -SN BR BKN021 BKN037  OVC048 01/M02 A2979 750 85 -700 350/16G26 RMK AO2 PK WND 34027/0325 P0000
14840KMKG MKG20050423224514804/23/05 22:45:31  5-MIN KMKG 240345Z 34019G26KT 4SM -SN BR SCT019 BKN023  OVC032 01/M02 A2979 750 85 -700 350/19G26 RMK AO2 PK WND 34027/0325 P0000
14840KMKG MKG20050423225016504/23/05 22:50:31  5-MIN KMKG 240350Z 34017G24KT 4SM -SN BR FEW016 BKN023  OVC032 01/M02 A2979 750 85 -700 350/17G24 RMK AO2 PK WND 34027/0325 SLP095 P0000 T00061017
14840KMKG MKG20050423225516504/23/05 22:55:31  5-MIN KMKG 240355Z 34014G22KT 5SM -SN BR SCT019 BKN023  OVC029 01/M02 A2979 750 85 -700 350/14G22 RMK AO2 PK WND 34027/0325 SLP094 P0000 T00061017
14840KMKG MKG20050423230012304/23/05 23:00:31  5-MIN KMKG 240400Z 34016G22KT 6SM -SN BR SCT019 OVC023  01/M02 A2979 750 85 -700 350/16G22 RMK AO2 P0000
14840KMKG MKG20050423230512304/23/05 23:05:31  5-MIN KMKG 240405Z 35018G22KT 6SM -SN BR BKN019 OVC026  01/M02 A2979 750 85 -700 350/18G22 RMK AO2 P0000
14840KMKG MKG20050423231013004/23/05 23:10:31  5-MIN KMKG 240410Z 35015G24KT 5SM -SN BR BKN019 BKN024  OVC029 01/M02 A2979 750 85 -700 350/15G24 RMK AO2 P0000
14840KMKG MKG20050423231513804/23/05 23:15:31  5-MIN KMKG 240415Z 35016G24KT 4SM -SN BR SCT019 OVC027  01/M02 A2978 760 85 -700 360/16G24 RMK AO2 CIG 020 RWY 14 P0000
14840KMKG MKG20050423232012304/23/05 23:20:31  5-MIN KMKG 240420Z 35017G25KT 4SM -SN BR BKN021 OVC030  01/M02 A2979 760 85 -700 350/17G25 RMK AO2 P0000
14840KMKG MKG20050423232512304/23/05 23:25:31  5-MIN KMKG 240425Z 35016G25KT 3SM -SN BR BKN021 OVC028  01/M02 A2978 760 85 -700 350/16G25 RMK AO2 P0000
14840KMKG MKG20050423233012304/23/05 23:30:31  5-MIN KMKG 240430Z 35015G25KT 4SM -SN BR BKN021 OVC028  01/M02 A2978 760 85 -700 350/15G25 RMK AO2 P0000
14840KMKG MKG20050423233512304/23/05 23:35:31  5-MIN KMKG 240435Z 35015G21KT 4SM -SN BR BKN023 OVC028  01/M02 A2978 760 85 -700 350/15G21 RMK AO2 P0000
14840KMKG MKG20050423234012304/23/05 23:40:31  5-MIN KMKG 240440Z 34018G23KT 4SM -SN BR BKN023 OVC028  01/M02 A2978 760 85 -700 350/18G23 RMK AO2 P0000
14840KMKG MKG20050423234512704/23/05 23:45:31  5-MIN KMKG 240445Z 34019G25KT 4SM -SN SCT020 BKN026  OVC049 01/M02 A2978 760 82 -700 350/19G25 RMK AO2 P0000
14840KMKG MKG20050423235015504/23/05 23:50:31  5-MIN KMKG 240450Z 35017G25KT 5SM -SN FEW018 BKN026  OVC047 01/M02 A2977 770 82 -700 350/17G25 RMK AO2 SLP088 P0000 T00061022  400440000
14840KMKG MKG20050423235515804/23/05 23:55:31  5-MIN KMKG 240455Z 35015G25KT 5SM -SN BR FEW020 BKN026  OVC055 01/M02 A2977 770 85 -700 350/15G25 RMK AO2 SLP088 P0000 T00061017  400440000
14840KMKG MKG20050424000013004/24/05 00:00:32  5-MIN KMKG 240500Z 34015G22KT 5SM -SN BR FEW020 BKN026  OVC055 01/M02 A2977 770 85 -700 350/15G22 RMK AO2 P0000
14840KMKG MKG20050424000513004/24/05 00:05:31  5-MIN KMKG 240505Z 34019G24KT 5SM -SN BR FEW020 BKN046  OVC055 01/M02 A2977 770 85 -700 350/19G24 RMK AO2 P0000
14840KMKG MKG20050424001013004/24/05 00:10:31  5-MIN KMKG 240510Z 35017G24KT 4SM -SN BR SCT023 BKN055  OVC080 01/M02 A2977 770 85 -700 350/17G24 RMK AO2 P0000
14840KMKG MKG20050424001513004/24/05 00:15:31  5-MIN KMKG 240515Z 34016G21KT 4SM -SN BR SCT025 BKN055  OVC090 01/M02 A2977 770 85 -700 350/16G21 RMK AO2 P0000
14840KMKG MKG20050424002014504/24/05 00:20:31  5-MIN KMKG 240520Z 35016G22KT 5SM -SN BR SCT023 BKN055  OVC085 01/M02 A2977 770 85 -700 360/16G22 RMK AO2 CIG 027 RWY 14 P0000
14840KMKG MKG20050424002513004/24/05 00:25:31  5-MIN KMKG 240525Z 34015G22KT 5SM -SN BR BKN023 BKN060  OVC090 01/M02 A2976 780 85 -700 340/15G22 RMK AO2 P0000
14840KMKG MKG20050424003013004/24/05 00:30:31  5-MIN KMKG 240530Z 34016G20KT 5SM -SN BR FEW018 BKN025  OVC085 01/M02 A2976 780 85 -700 340/16G20 RMK AO2 P0000
14840KMKG MKG20050424003514504/24/05 00:35:31  5-MIN KMKG 240535Z 34016G24KT 4SM -SN BR SCT020 BKN025  OVC070 01/M02 A2976 780 85 -700 340/16G24 RMK AO2 CIG 020 RWY 14 P0000
14840KMKG MKG20050424004014504/24/05 00:40:31  5-MIN KMKG 240540Z 35018G24KT 4SM -SN BR SCT020 SCT024  OVC075 01/M02 A2976 780 85 -700 360/18G24 RMK AO2 CIG 020 RWY 14 P0000
14840KMKG MKG20050424004514504/24/05 00:45:31  5-MIN KMKG 240545Z 34014G23KT 4SM -SN BR FEW016 BKN070  OVC085 01/M02 A2976 780 85 -700 350/14G23 RMK AO2 CIG 024 RWY 14 P0000
14840KMKG MKG20050424005018704/24/05 00:50:31  5-MIN KMKG 240550Z 34016G21KT 4SM -SN BR SCT019 SCT024  OVC075 01/M02 A2976 780 85 -700 340/16G21 RMK AO2 CIG 024 RWY 14 SLP083  P0000 60000 T00061017 10006 20000 58006
14840KMKG MKG20050424005517204/24/05 00:55:31  5-MIN KMKG 240555Z 34017G22KT 4SM -SN BR BKN018 BKN024  OVC080 01/M02 A2976 780 85 -700 350/17G22 RMK AO2 SLP082 P0000 60000  T00061017 10006 20000 58016
14840KMKG MKG20050424010013004/24/05 01:00:31  5-MIN KMKG 240600Z 33018G23KT 4SM -SN BR SCT018 BKN022  OVC080 01/M02 A2975 790 85 -700 340/18G23 RMK AO2 P0000
14840KMKG MKG20050424010514504/24/05 01:05:31  5-MIN KMKG 240605Z 34015G23KT 5SM -SN BR SCT016 BKN070  OVC085 01/M02 A2975 780 85 -700 350/15G23 RMK AO2 CIG 019 RWY 14 P0000
14840KMKG MKG20050424011014504/24/05 01:10:31  5-MIN KMKG 240610Z 34017G21KT 6SM -SN BR SCT016 BKN022  OVC085 01/M02 A2975 790 85 -700 340/17G21 RMK AO2 CIG 014 RWY 14 P0000
14840KMKG MKG20050424011512404/24/05 01:15:31  5-MIN KMKG 240615Z 34017KT 5SM -SN BR SCT016 BKN022  OVC085 01/M02 A2975 790 85 -700 350/17 RMK AO2 P0000
14840KMKG MKG20050424012014504/24/05 01:20:31  5-MIN KMKG 240620Z 34014G23KT 4SM -SN BR SCT016 SCT022  OVC085 01/M02 A2975 790 85 -700 340/14G23 RMK AO2 CIG 018 RWY 14 P0000
14840KMKG MKG20050424012513804/24/05 01:25:31  5-MIN KMKG 240625Z 35017G23KT 4SM -SN BR SCT013 OVC090  01/M01 A2975 790 89 -700 350/17G23 RMK AO2 CIG 021 RWY 14 P0000
14840KMKG MKG20050424013013804/24/05 01:30:31  5-MIN KMKG 240630Z 34017G22KT 3SM -SN BR SCT016 OVC085  01/M01 A2974 800 89 -700 340/17G22 RMK AO2 CIG 014 RWY 14 P0000
14840KMKG MKG20050424013514504/24/05 01:35:31  5-MIN KMKG 240635Z 34013G22KT 3SM -SN BR SCT014 SCT021  OVC085 01/M01 A2974 800 89 -700 350/13G22 RMK AO2 CIG 012 RWY 14 P0000
14840KMKG MKG20050424014013804/24/05 01:40:31  5-MIN KMKG 240640Z 35016G22KT 3SM -SN BR FEW014 OVC090  01/M01 A2974 800 89 -700 350/16G22 RMK AO2 CIG 070 RWY 14 P0000
14840KMKG MKG20050424014513804/24/05 01:45:31  5-MIN KMKG 240645Z 33019G24KT 3SM -SN BR SCT014 OVC090  00/M01 A2974 800 92 -700 340/19G24 RMK AO2 CIG 075 RWY 14 P0000
14840KMKG MKG20050424015015604/24/05 01:50:31  5-MIN KMKG 240650Z 34016G24KT 3SM -SN BR SCT014 OVC090  00/M01 A2973 800 92 -700 340/16G24 RMK AO2 CIG 014 RWY 14 SLP075 P0000  T00001011
14840KMKG MKG20050424015515804/24/05 01:55:31  5-MIN KMKG 240655Z 34015G22KT 4SM -SN BR SCT014 OVC085  00/M01 A2973 800 92 -700 340/15G22 RMK AO2 CIG 014 RWY 14 SLP075 P0000  T00001011 $
14840KMKG MKG20050424020014004/24/05 02:00:31  5-MIN KMKG 240700Z 34015G21KT 3SM -SN BR SCT014 OVC085  00/M01 A2973 800 92 -700 340/15G21 RMK AO2 CIG 014 RWY 14 P0000 $
14840KMKG MKG20050424020515204/24/05 02:05:31  5-MIN KMKG 240705Z 34013G20KT 2 1/2SM -SN BR SCT014  BKN075 OVC090 00/M01 A2973 810 92 -700 340/13G20 RMK AO2 CIG 014 RWY 14  P0000 $
14840KMKG MKG20050424021012904/24/05 02:10:31  5-MIN KMKG 240710Z 34014KT 2 1/2SM -SN BR BKN014 BKN065 OVC085 00/M01 A2973 810 92 -700 340/14 RMK AO2 P0000 $
14840KMKG MKG20050424021514704/24/05 02:15:31  5-MIN KMKG 240715Z 34014G21KT 3SM -SN BR SCT012 BKN070  OVC085 00/M01 A2973 810 92 -700 350/14G21 RMK AO2 CIG 017 RWY 14 P0000 $
14840KMKG MKG20050424022014704/24/05 02:20:31  5-MIN KMKG 240720Z 34013G21KT 3SM -SN BR SCT012 BKN070  OVC080 00/M01 A2972 810 92 -700 350/13G21 RMK AO2 CIG 018 RWY 14 P0000 $
14840KMKG MKG20050424022512604/24/05 02:25:31  5-MIN KMKG 240725Z 34014KT 3SM -SN BR BKN012 BKN017  OVC070 00/M01 A2972 810 92 -700 350/14 RMK AO2 P0000 $
14840KMKG MKG20050424023012604/24/05 02:30:31  5-MIN KMKG 240730Z 34014KT 3SM -SN BR BKN012 BKN017  OVC080 00/M01 A2972 820 92 -700 350/14 RMK AO2 P0000 $
14840KMKG MKG20050424023512904/24/05 02:35:31  5-MIN KMKG 240735Z 34014KT 2 1/2SM -SN BR BKN012 BKN018 OVC060 00/M01 A2972 820 92 -700 340/14 RMK AO2 P0000 $
14840KMKG MKG20050424024012904/24/05 02:40:31  5-MIN KMKG 240740Z 34015KT 2 1/2SM -SN BR SCT012 BKN017 OVC055 00/M01 A2972 820 92 -700 350/15 RMK AO2 P0000 $
14840KMKG MKG20050424024512604/24/05 02:45:31  5-MIN KMKG 240745Z 35015KT 3SM -SN BR SCT012 BKN017  OVC055 00/M01 A2972 820 92 -700 350/15 RMK AO2 P0000 $
14840KMKG MKG20050424025014904/24/05 02:50:31  5-MIN KMKG 240750Z 34014G21KT 4SM -SN BR BKN012 BKN019  OVC055 01/M01 A2972 820 89 -700 350/14G21 RMK AO2 SLP069 P0000 T00061011 $
14840KMKG MKG20050424025514904/24/05 02:55:31  5-MIN KMKG 240755Z 34014G21KT 5SM -SN BR BKN012 BKN019  OVC065 01/M01 A2972 820 89 -700 340/14G21 RMK AO2 SLP069 P0000 T00061011 $
14840KMKG MKG20050424030013204/24/05 03:00:31  5-MIN KMKG 240800Z 34013G21KT 5SM -SN BR BKN016 BKN055  OVC065 01/M01 A2972 820 89 -700 350/13G21 RMK AO2 P0000 $
14840KMKG MKG20050424030513204/24/05 03:05:31  5-MIN KMKG 240805Z 35018G24KT 6SM -SN BR BKN016 BKN060  OVC080 01/M01 A2971 820 89 -600 350/18G24 RMK AO2 P0000 $
14840KMKG MKG20050424031012904/24/05 03:10:31  5-MIN KMKG 240810Z 35020G24KT 8SM -SN FEW013 BKN018  OVC085 01/M01 A2972 820 89 -700 350/20G24 RMK AO2 P0000 $
14840KMKG MKG20050424031512904/24/05 03:15:31  5-MIN KMKG 240815Z 34018G24KT 9SM -SN BKN018 BKN050  OVC080 01/M02 A2972 820 85 -700 350/18G24 RMK AO2 P0000 $
14840KMKG MKG20050424032014704/24/05 03:20:31  5-MIN KMKG 240820Z 35018G26KT 8SM -SN BKN017 BKN065  OVC080 01/M02 A2971 820 82 -700 350/18G26 RMK AO2 PK WND 33026/0817 P0000 $
14840KMKG MKG20050424032514704/24/05 03:25:31  5-MIN KMKG 240825Z 35017G26KT 8SM -SN BKN019 BKN065  OVC080 01/M02 A2971 820 82 -700 350/17G26 RMK AO2 PK WND 33026/0817 P0000 $
14840KMKG MKG20050424033014704/24/05 03:30:31  5-MIN KMKG 240830Z 34017G24KT 9SM -SN BKN019 BKN046  OVC080 01/M02 A2971 820 85 -700 350/17G24 RMK AO2 PK WND 33026/0817 P0000 $
14840KMKG MKG20050424033514704/24/05 03:35:31  5-MIN KMKG 240835Z 34020G25KT 9SM -SN BKN019 BKN046  OVC080 01/M02 A2971 820 82 -700 350/20G25 RMK AO2 PK WND 33026/0817 P0000 $
14840KMKG MKG20050424034014704/24/05 03:40:31  5-MIN KMKG 240840Z 35017G25KT 9SM -SN BKN019 BKN070  OVC080 01/M02 A2971 820 82 -600 350/17G25 RMK AO2 PK WND 33026/0817 P0000 $
14840KMKG MKG20050424034514704/24/05 03:45:31  5-MIN KMKG 240845Z 36018G26KT 9SM -SN BKN019 BKN023  OVC070 01/M02 A2971 820 85 -600 360/18G26 RMK AO2 PK WND 36026/0845 P0000 $
14840KMKG MKG20050424035017604/24/05 03:50:31  5-MIN KMKG 240850Z 34016G26KT 9SM -SN BKN019 BKN042  OVC070 01/M02 A2971 830 85 -600 350/16G26 RMK AO2 PK WND 36026/0845 SLP066 P0000 60000 T00061017 58016 $
14840KMKG MKG20050424035517604/24/05 03:55:31  5-MIN KMKG 240855Z 35017G23KT 9SM -SN BKN019 BKN023  OVC070 01/M02 A2971 830 85 -600 350/17G23 RMK AO2 PK WND 36026/0845 SLP066 P0000 60000 T00061017 56016 $
14840KMKG MKG20050424040012204/24/05 04:00:31  5-MIN KMKG 240900Z 34014G23KT 7SM -SN BKN018 OVC070  01/M02 A2970 830 85 -600 350/14G23 RMK AO2 P0000 $
14840KMKG MKG20050424040511904/24/05 04:05:31  5-MIN KMKG 240905Z 34012KT 6SM -SN BR BKN018 OVC022  01/M02 A2971 830 85 -600 340/12 RMK AO2 P0000 $
14840KMKG MKG20050424041011504/24/05 04:10:31  5-MIN KMKG 240910Z 35014KT 7SM -SN BKN018 OVC022 01/M02 A2970 830 85 -600 350/14 RMK AO2 P0000 $
14840KMKG MKG20050424041512204/24/05 04:15:31  5-MIN KMKG 240915Z 35017G22KT 9SM -SN BKN018 OVC070  01/M02 A2970 830 85 -600 360/17G22 RMK AO2 P0000 $
14840KMKG MKG20050424042012904/24/05 04:20:31  5-MIN KMKG 240920Z 35015G22KT 9SM -SN BKN018 BKN022  OVC065 01/M02 A2970 830 85 -600 360/15G22 RMK AO2 P0000 $
14840KMKG MKG20050424042512204/24/05 04:25:31  5-MIN KMKG 240925Z 35021G25KT 9SM -SN BKN018 OVC065  01/M02 A2970 840 82 -600 350/21G25 RMK AO2 P0000 $
14840KMKG MKG20050424043012204/24/05 04:30:31  5-MIN KMKG 240930Z 34014G25KT 9SM -SN BKN021 OVC065  01/M02 A2970 830 82 -600 350/14G25 RMK AO2 P0000 $
14840KMKG MKG20050424043512204/24/05 04:35:31  5-MIN KMKG 240935Z 35015G25KT 9SM -SN SCT019 OVC070  01/M02 A2970 830 82 -600 350/15G25 RMK AO2 P0000 $
14840KMKG MKG20050424044014004/24/05 04:40:31  5-MIN KMKG 240940Z 35017G26KT 9SM -SN SCT019 OVC070  01/M02 A2970 830 82 -600 360/17G26 RMK AO2 PK WND 33026/0936 P0000 $
14840KMKG MKG20050424044514004/24/05 04:45:31  5-MIN KMKG 240945Z 35014G26KT 8SM -SN SCT019 OVC070  01/M02 A2970 840 82 -600 360/14G26 RMK AO2 PK WND 33026/0936 P0000 $
14840KMKG MKG20050424045016404/24/05 04:50:31  5-MIN KMKG 240950Z 34018G29KT 7SM -SN FEW019 SCT028  OVC070 01/M02 A2969 840 82 -600 350/18G29 RMK AO2 PK WND 36029/0947 SLP062 P0000 T00061022 $
14840KMKG MKG20050424045516404/24/05 04:55:31  5-MIN KMKG 240955Z 34014G29KT 8SM -SN FEW019 SCT028  OVC070 01/M02 A2969 840 82 -600 350/14G29 RMK AO2 PK WND 36029/0947 SLP060 P0000 T00061022 $
14840KMKG MKG20050424050012904/24/05 05:00:31  5-MIN KMKG 241000Z 34017G26KT 7SM -SN FEW019 BKN065  OVC075 01/M02 A2970 840 82 -600 350/17G26 RMK AO2 P0000 $
14840KMKG MKG20050424050514004/24/05 05:05:31  5-MIN KMKG 241005Z 35018G26KT 6SM -SN FEW019 OVC070  01/M02 A2969 840 82 -600 350/18G26 RMK AO2 PK WND 36026/1004 P0000 $
14840KMKG MKG20050424051014004/24/05 05:10:31  5-MIN KMKG 241010Z 35017G26KT 6SM -SN FEW019 OVC070  01/M02 A2969 840 82 -600 350/17G26 RMK AO2 PK WND 36026/1004 P0000 $
14840KMKG MKG20050424051514704/24/05 05:15:31  5-MIN KMKG 241015Z 34018G24KT 6SM -SN FEW019 SCT060  OVC075 01/M02 A2970 840 82 -600 350/18G24 RMK AO2 PK WND 36026/1004 P0000 $
14840KMKG MKG20050424052014704/24/05 05:20:31  5-MIN KMKG 241020Z 34018G25KT 5SM -SN FEW019 SCT060  OVC070 01/M02 A2969 840 82 -600 350/18G25 RMK AO2 PK WND 36026/1004 P0000 $
14840KMKG MKG20050424052514004/24/05 05:25:31  5-MIN KMKG 241025Z 35021G28KT 6SM -SN SCT060 OVC070  01/M02 A2969 850 82 -600 350/21G28 RMK AO2 PK WND 34028/1025 P0000 $
14840KMKG MKG20050424053014704/24/05 05:30:31  5-MIN KMKG 241030Z 34020G28KT 7SM -SN FEW019 SCT060  OVC070 01/M02 A2969 850 82 -600 340/20G28 RMK AO2 PK WND 34028/1025 P0000 $
14840KMKG MKG20050424053514704/24/05 05:35:31  5-MIN KMKG 241035Z 33018G23KT 9SM -SN FEW021 SCT055  OVC070 01/M02 A2968 850 82 -600 340/18G23 RMK AO2 PK WND 34028/1025 P0000 $
14840KMKG MKG20050424054016204/24/05 05:40:31  5-MIN KMKG 241040Z 33018G23KT 9SM -SN SCT021 SCT050  OVC070 01/M02 A2968 850 82 -600 340/18G23 RMK AO2 PK WND 34028/1025 CIG 055 RWY 14 P0000 $
14840KMKG MKG20050424054514704/24/05 05:45:31  5-MIN KMKG 241045Z 34013G22KT 9SM -SN SCT019 BKN055  OVC070 01/M02 A2968 850 82 -600 340/13G22 RMK AO2 PK WND 34028/1025 P0000 $
14840KMKG MKG20050424055016404/24/05 05:50:31  5-MIN KMKG 241050Z 34019G24KT 9SM -SN BKN019 BKN060  OVC070 01/M02 A2968 850 82 -600 340/19G24 RMK AO2 PK WND 34028/1025 SLP057 P0000 T00061022 $
14840KMKG MKG20050424055515804/24/05 05:55:31  5-MIN KMKG 241055Z 34019G25KT 9SM -SN BKN019 OVC070  01/M02 A2968 850 82 -600 340/19G25 RMK AO2 PK WND 34028/1025 SLP059 P0000  T00061022 $
14840KMKG MKG20050424060012204/24/05 06:00:31  5-MIN KMKG 241100Z 35019G25KT 9SM -SN BKN019 OVC065  01/M02 A2969 850 82 -600 350/19G25 RMK AO2 P0000 $
14840KMKG MKG20050424060511504/24/05 06:05:31  5-MIN KMKG 241105Z 34016G24KT 9SM -SN OVC021 01/M02  A2969 850 82 -600 350/16G24 RMK AO2 P0000 $
14840KMKG MKG20050424061011704/24/05 06:10:31  5-MIN KMKG 241110Z 34020G25KT 9SM OVC021 01/M02 A2968  850 82 -600 350/20G25 RMK AO2 SNE09 P0000 $
14840KMKG MKG20050424061513604/24/05 06:15:31  5-MIN KMKG 241115Z 34019G26KT 10SM OVC021 01/M02 A2969  850 82 -600 350/19G26 RMK AO2 PK WND 34026/1113 SNE09 P0000 $
14840KMKG MKG20050424062014204/24/05 06:20:31  5-MIN KMKG 241120Z 35017G26KT 10SM BKN021 OVC060 01/M02 A2969 850 82 -600 350/17G26 RMK AO2 PK WND 34026/1113 SNE09 P0000 $
14840KMKG MKG20050424062514204/24/05 06:25:31  5-MIN KMKG 241125Z 35017G24KT 10SM BKN021 OVC060 01/M02 A2968 850 82 -600 350/17G24 RMK AO2 PK WND 34026/1113 SNE09 P0000 $
14840KMKG MKG20050424063014204/24/05 06:30:31  5-MIN KMKG 241130Z 34019G24KT 10SM BKN021 OVC060 01/M02 A2968 850 82 -600 340/19G24 RMK AO2 PK WND 34026/1113 SNE09 P0000 $
14840KMKG MKG20050424063514204/24/05 06:35:31  5-MIN KMKG 241135Z 34018G24KT 10SM BKN021 OVC060 01/M02 A2968 850 82 -600 350/18G24 RMK AO2 PK WND 34026/1113 SNE09 P0000 $
14840KMKG MKG20050424064014404/24/05 06:40:31  5-MIN KMKG 241140Z 34018KT 10SM BKN021 BKN060 OVC110  01/M02 A2967 860 82 -600 340/18 RMK AO2 PK WND 34026/1113 SNE09 P0000 $
14840KMKG MKG20050424064514904/24/05 06:45:31  5-MIN KMKG 241145Z 34017G21KT 10SM BKN021 BKN043 OVC060 01/M02 A2968 850 82 -600 340/17G21 RMK AO2 PK WND 34026/1113 SNE09 P0000 $
14840KMKG MKG20050424065018404/24/05 06:50:31  5-MIN KMKG 241150Z 33020G26KT 10SM BKN021 OVC043 01/M02 A2967 860 82 -600 340/20G26 RMK AO2 PK WND 33026/1149 SNE09 SLP054 P0000  60000 T00061022 10006 20000 56016 $
14840KMKG MKG20050424065518404/24/05 06:55:31  5-MIN KMKG 241155Z 34016G26KT 10SM BKN021 OVC043 01/M02 A2968 850 82 -600 350/16G26 RMK AO2 PK WND 33026/1149 SNE09 SLP057 P0000  60000 T00061022 10006 20000 56009 $
14840KMKG MKG20050424070011204/24/05 07:00:31  5-MIN KMKG 241200Z 34015G23KT 10SM BKN019 OVC043 01/M02 A2967 860 82 -600 350/15G23 RMK AO2 $
14840KMKG MKG20050424070511204/24/05 07:05:31  5-MIN KMKG 241205Z 34016G24KT 10SM BKN019 OVC043 01/M02 A2967 860 82 -600 340/16G24 RMK AO2 $
14840KMKG MKG20050424071010604/24/05 07:10:31  5-MIN KMKG 241210Z 33016G24KT 10SM OVC019 01/M02 A2967  860 82 -600 340/16G24 RMK AO2 $
14840KMKG MKG20050424071510604/24/05 07:15:31  5-MIN KMKG 241215Z 35017G23KT 10SM OVC019 01/M02 A2968  860 85 -600 350/17G23 RMK AO2 $
14840KMKG MKG20050424072009904/24/05 07:20:31  5-MIN KMKG 241220Z 34017KT 10SM OVC019 01/M02 A2967 860 85 -600 350/17 RMK AO2 $
14840KMKG MKG20050424072509904/24/05 07:25:31  5-MIN KMKG 241225Z 34016KT 10SM OVC017 01/M02 A2968 860 85 -600 350/16 RMK AO2 $
14840KMKG MKG20050424073009904/24/05 07:30:31  5-MIN KMKG 241230Z 34016KT 8SM OVC017 01/M02 A2967 860  85 -600 350/16 RMK AO2 $
14840KMKG MKG20050424073510504/24/05 07:35:31  5-MIN KMKG 241235Z 34016G21KT 7SM OVC017 01/M02 A2967  860 85 -600 350/16G21 RMK AO2 $
14840KMKG MKG20050424074010504/24/05 07:40:31  5-MIN KMKG 241240Z 34016G21KT 7SM OVC017 01/M02 A2968  860 85 -600 350/16G21 RMK AO2 $
14840KMKG MKG20050424074510504/24/05 07:45:31  5-MIN KMKG 241245Z 34016G21KT 8SM OVC017 01/M02 A2968  860 85 -600 350/16G21 RMK AO2 $
14840KMKG MKG20050424075014104/24/05 07:50:31  5-MIN KMKG 241250Z 34017G27KT 10SM OVC017 01/M02 A2968  860 85 -600 350/17G27 RMK AO2 PK WND 34027/1247 SLP057 T00061017 $
14840KMKG MKG20050424075514104/24/05 07:55:31  5-MIN KMKG 241255Z 34020G27KT 10SM OVC017 01/M02 A2967  870 85 -600 350/20G27 RMK AO2 PK WND 34027/1247 SLP052 T00061017 $
14840KMKG MKG20050424080010604/24/05 08:00:31  5-MIN KMKG 241300Z 34017G26KT 10SM OVC019 01/M02 A2967  870 82 -600 340/17G26 RMK AO2 $
14840KMKG MKG20050424080512404/24/05 08:05:31  5-MIN KMKG 241305Z 34017G29KT 10SM OVC019 01/M02 A2966  870 82 -600 340/17G29 RMK AO2 PK WND 33029/1301 $
14840KMKG MKG20050424081012404/24/05 08:10:31  5-MIN KMKG 241310Z 34018G29KT 10SM OVC019 01/M02 A2966  870 82 -500 350/18G29 RMK AO2 PK WND 33029/1301 $
14840KMKG MKG20050424081512404/24/05 08:15:31  5-MIN KMKG 241315Z 33016G25KT 10SM OVC019 01/M02 A2965  880 82 -500 330/16G25 RMK AO2 PK WND 33029/1301 $
14840KMKG MKG20050424082012404/24/05 08:20:31  5-MIN KMKG 241320Z 33019G23KT 10SM OVC019 01/M02 A2965  890 85 -600 340/19G23 RMK AO2 PK WND 33029/1301 $
14840KMKG MKG20050424082512404/24/05 08:25:31  5-MIN KMKG 241325Z 33020G27KT 10SM OVC019 01/M02 A2964  890 82 -500 340/20G27 RMK AO2 PK WND 33029/1301 $
14840KMKG MKG20050424083012404/24/05 08:30:31  5-MIN KMKG 241330Z 33022G27KT 10SM OVC019 01/M02 A2965  890 78 -500 340/22G27 RMK AO2 PK WND 33029/1301 $
14840KMKG MKG20050424083512404/24/05 08:35:31  5-MIN KMKG 241335Z 34020G25KT 10SM OVC019 01/M02 A2965  890 82 -500 340/20G25 RMK AO2 PK WND 33029/1301 $
14840KMKG MKG20050424084012404/24/05 08:40:31  5-MIN KMKG 241340Z 33021G27KT 10SM OVC019 01/M02 A2964  890 82 -500 330/21G27 RMK AO2 PK WND 33029/1301 $
14840KMKG MKG20050424084512404/24/05 08:45:31  5-MIN KMKG 241345Z 34019G27KT 10SM OVC019 01/M02 A2965  880 82 -500 340/19G27 RMK AO2 PK WND 33029/1301 $
14840KMKG MKG20050424085014104/24/05 08:50:31  5-MIN KMKG 241350Z 34019G26KT 10SM OVC017 01/M02 A2965  880 82 -500 350/19G26 RMK AO2 PK WND 33029/1301 SLP047 T00111017 $
14840KMKG MKG20050424085514004/24/05 08:55:31  5-MIN KMKG 241355Z 34017G25KT 8SM OVC017 01/M01 A2965  880 85 -500 350/17G25 RMK AO2 PK WND 33029/1301 SLP046 T00111011 $
14840KMKG MKG20050424090012304/24/05 09:00:31  5-MIN KMKG 241400Z 33021G26KT 8SM OVC017 01/M02 A2964  890 82 -500 330/21G26 RMK AO2 PK WND 33026/1359 $
14840KMKG MKG20050424090512404/24/05 09:05:31  5-MIN KMKG 241405Z 34020G29KT 10SM OVC017 01/M01 A2964  890 85 -500 340/20G29 RMK AO2 PK WND 35029/1403 $
14840KMKG MKG20050424091013004/24/05 09:10:31  5-MIN KMKG 241410Z 33018G29KT 10SM BKN017 OVC023 01/M01 A2964 890 85 -500 340/18G29 RMK AO2 PK WND 35029/1403 $
14840KMKG MKG20050424091513004/24/05 09:15:31  5-MIN KMKG 241415Z 34019G27KT 10SM BKN017 OVC023 01/M02 A2964 890 82 -500 350/19G27 RMK AO2 PK WND 35029/1403 $
14840KMKG MKG20050424092012404/24/05 09:20:31  5-MIN KMKG 241420Z 33018G27KT 10SM OVC020 01/M02 A2964  890 82 -500 340/18G27 RMK AO2 PK WND 35029/1403 $
14840KMKG MKG20050424092512404/24/05 09:25:31  5-MIN KMKG 241425Z 33020G30KT 10SM OVC020 01/M02 A2963  900 82 -500 340/20G30 RMK AO2 PK WND 33030/1421 $
14840KMKG MKG20050424093012404/24/05 09:30:31  5-MIN KMKG 241430Z 33017G30KT 10SM OVC020 02/M01 A2963  900 82 -400 330/17G30 RMK AO2 PK WND 33030/1421 $
14840KMKG MKG20050424093512404/24/05 09:35:31  5-MIN KMKG 241435Z 34020G27KT 10SM OVC020 01/M01 A2964  890 85 -500 340/20G27 RMK AO2 PK WND 33030/1421 $
14840KMKG MKG20050424094012404/24/05 09:40:31  5-MIN KMKG 241440Z 34019G32KT 10SM OVC020 01/M02 A2964  890 82 -500 340/19G32 RMK AO2 PK WND 33032/1436 $
14840KMKG MKG20050424094512404/24/05 09:45:31  5-MIN KMKG 241445Z 33026G32KT 10SM OVC020 01/M02 A2963  900 82 -500 330/26G32 RMK AO2 PK WND 33032/1436 $
14840KMKG MKG20050424095014704/24/05 09:50:31  5-MIN KMKG 241450Z 33020G30KT 10SM OVC020 02/M02 A2963  900 78 -400 340/20G30 RMK AO2 PK WND 33032/1436 SLP040 T00171017 56009 $
14840KMKG MKG20050424095514704/24/05 09:55:31  5-MIN KMKG 241455Z 33022G29KT 10SM OVC020 03/M02 A2963  900 72 -300 340/22G29 RMK AO2 PK WND 33032/1436 SLP040 T00281017 58016 $
14840KMKG MKG20050424100012404/24/05 10:00:31  5-MIN KMKG 241500Z 34026G31KT 10SM OVC020 02/M02 A2963  900 78 -400 340/26G31 RMK AO2 PK WND 34031/1459 $
14840KMKG MKG20050424100512404/24/05 10:05:31  5-MIN KMKG 241505Z 33021G31KT 10SM OVC020 02/M02 A2963  900 78 -400 330/21G31 RMK AO2 PK WND 34031/1459 $
14840KMKG MKG20050424101012404/24/05 10:10:31  5-MIN KMKG 241510Z 33022G32KT 10SM OVC020 02/M02 A2963  900 78 -400 330/22G32 RMK AO2 PK WND 31032/1508 $
14840KMKG MKG20050424101512404/24/05 10:15:31  5-MIN KMKG 241515Z 33022G32KT 10SM OVC022 02/M02 A2962  900 78 -400 330/22G32 RMK AO2 PK WND 32032/1512 $
14840KMKG MKG20050424102012404/24/05 10:20:31  5-MIN KMKG 241520Z 34024G32KT 10SM OVC022 02/M02 A2962  910 75 -300 340/24G32 RMK AO2 PK WND 32032/1512 $
14840KMKG MKG20050424102512404/24/05 10:25:31  5-MIN KMKG 241525Z 34023G33KT 10SM OVC022 02/M02 A2963  900 75 -300 340/23G33 RMK AO2 PK WND 35033/1523 $
14840KMKG MKG20050424103012404/24/05 10:30:31  5-MIN KMKG 241530Z 33029G36KT 10SM OVC022 03/M02 A2962  910 72 -300 330/29G36 RMK AO2 PK WND 32036/1529 $
14840KMKG MKG20050424103512404/24/05 10:35:31  5-MIN KMKG 241535Z 33028G37KT 10SM OVC024 02/M02 A2962  910 75 -300 330/28G37 RMK AO2 PK WND 33037/1533 $
14840KMKG MKG20050424104013904/24/05 10:40:31  5-MIN KMKG 241540Z 33022G37KT 290V360 10SM OVC024 02/M02 A2962 910 75 -300 330/22G37 290V360 RMK AO2 PK WND 33037/1533 $
14840KMKG MKG20050424104512404/24/05 10:45:31  5-MIN KMKG 241545Z 33027G35KT 10SM OVC024 02/M02 A2963  900 75 -300 340/27G35 RMK AO2 PK WND 33037/1533 $
14840KMKG MKG20050424105014104/24/05 10:50:31  5-MIN KMKG 241550Z 32024G35KT 10SM OVC024 03/M01 A2962  910 75 -300 320/24G35 RMK AO2 PK WND 33037/1533 SLP037 T00281011 $
14840KMKG MKG20050424105514704/24/05 10:55:31  5-MIN KMKG 241555Z 34022G31KT 10SM OVC024 03/M01 A2963  900 75 -300 340/22G31 RMK AO2 PK WND 33037/1533 SLP038 P0000 T00281011 $
14840KMKG MKG20050424110013604/24/05 11:00:31  5-MIN KMKG 241600Z 33023G29KT 8SM SCT018 OVC025 03/M01  A2962 910 79 -300 330/23G29 RMK AO2 PK WND 31029/1600 P0000 $
14840KMKG MKG20050424110513604/24/05 11:05:31  5-MIN KMKG 241605Z 34021G29KT 8SM BKN020 OVC025 03/M01  A2963 900 79 -300 340/21G29 RMK AO2 PK WND 31029/1600 P0000 $
14840KMKG MKG20050424111012904/24/05 11:10:31  5-MIN KMKG 241610Z 33020G26KT 9SM OVC020 02/M01 A2962  910 82 -300 330/20G26 RMK AO2 PK WND 31029/1600 P0000 $
14840KMKG MKG20050424111513004/24/05 11:15:31  5-MIN KMKG 241615Z 32023G31KT 10SM OVC020 02/M02 A2961  910 75 -300 320/23G31 RMK AO2 PK WND 32031/1612 P0000 $
14840KMKG MKG20050424112013004/24/05 11:20:31  5-MIN KMKG 241620Z 33023G33KT 10SM OVC020 02/M01 A2962  910 78 -300 340/23G33 RMK AO2 PK WND 32033/1620 P0000 $
14840KMKG MKG20050424112513004/24/05 11:25:31  5-MIN KMKG 241625Z 33026G35KT 10SM OVC020 02/M02 A2961  920 75 -300 330/26G35 RMK AO2 PK WND 33035/1621 P0000 $
14840KMKG MKG20050424113013004/24/05 11:30:31  5-MIN KMKG 241630Z 34020G35KT 10SM OVC020 02/M02 A2963  900 75 -300 340/20G35 RMK AO2 PK WND 33035/1621 P0000 $
14840KMKG MKG20050424113513004/24/05 11:35:31  5-MIN KMKG 241635Z 33024G33KT 10SM OVC020 02/M02 A2962  910 75 -300 330/24G33 RMK AO2 PK WND 33035/1621 P0000 $
14840KMKG MKG20050424114013004/24/05 11:40:31  5-MIN KMKG 241640Z 33020G33KT 10SM OVC020 03/M02 A2962  910 72 -300 340/20G33 RMK AO2 PK WND 33035/1621 P0000 $
14840KMKG MKG20050424114513004/24/05 11:45:31  5-MIN KMKG 241645Z 33025G31KT 10SM OVC020 02/M02 A2961  920 75 -300 330/25G31 RMK AO2 PK WND 33035/1621 P0000 $
14840KMKG MKG20050424115014104/24/05 11:50:31  5-MIN KMKG 241650Z 33024G33KT 10SM OVC020 02/M02 A2962  910 75 -300 340/24G33 RMK AO2 PK WND 33035/1621 SLP035 T00221017 $
14840KMKG MKG20050424115514104/24/05 11:55:31  5-MIN KMKG 241655Z 33027G33KT 10SM OVC022 03/M02 A2962  910 72 -300 330/27G33 RMK AO2 PK WND 33035/1621 SLP034 T00281017 $
14840KMKG MKG20050424120012404/24/05 12:00:31  5-MIN KMKG 241700Z 33022G33KT 10SM OVC022 03/M02 A2961  920 72 -300 330/22G33 RMK AO2 PK WND 33030/1657 $
14840KMKG MKG20050424120512404/24/05 12:05:31  5-MIN KMKG 241705Z 32023G32KT 10SM OVC022 03/M02 A2961  920 72 -200 330/23G32 RMK AO2 PK WND 32032/1701 $
14840KMKG MKG20050424121012404/24/05 12:10:31  5-MIN KMKG 241710Z 33021G32KT 10SM OVC022 03/M02 A2961  920 69 -300 330/21G32 RMK AO2 PK WND 32032/1701 $
14840KMKG MKG20050424121512404/24/05 12:15:31  5-MIN KMKG 241715Z 33023G30KT 10SM OVC022 03/M02 A2960  930 72 -200 330/23G30 RMK AO2 PK WND 32032/1701 $
14840KMKG MKG20050424122012404/24/05 12:20:31  5-MIN KMKG 241720Z 33020G32KT 10SM OVC022 03/M02 A2961  920 69 -200 330/20G32 RMK AO2 PK WND 33032/1718 $
14840KMKG MKG20050424122512404/24/05 12:25:31  5-MIN KMKG 241725Z 33024G32KT 10SM OVC024 03/M02 A2961  920 69 -200 340/24G32 RMK AO2 PK WND 33032/1718 $
14840KMKG MKG20050424123012404/24/05 12:30:31  5-MIN KMKG 241730Z 33024G35KT 10SM OVC024 03/M02 A2961  920 69 -300 340/24G35 RMK AO2 PK WND 32035/1729 $
14840KMKG MKG20050424123511804/24/05 12:35:31  5-MIN KMKG 241735Z 33022G35KT OVC024 03/M02 A2961 920 67 -200 330/22G35 RMK AO2 PK WND 32035/1729 $
14840KMKG MKG20050424124011804/24/05 12:40:31  5-MIN KMKG 241740Z 33023G31KT OVC024 03/M02 A2961 920 69 -300 340/23G31 RMK AO2 PK WND 32035/1729 $
14840KMKG MKG20050424124512404/24/05 12:45:31  5-MIN KMKG 241745Z 33023G31KT 10SM OVC024 03/M02 A2961  920 67 -200 340/23G31 RMK AO2 PK WND 32035/1729 $
14840KMKG MKG20050424125016004/24/05 12:50:31  5-MIN KMKG 241750Z 33024G34KT 10SM OVC026 03/M02 A2961  920 67 -200 340/24G34 RMK AO2 PK WND 32035/1729 SLP033 T00331022 10033  20006 58016 $
14840KMKG MKG20050424125516004/24/05 12:55:31  5-MIN KMKG 241755Z 32027G34KT 10SM OVC026 03/M02 A2960  930 67 -200 330/27G34 RMK AO2 PK WND 32035/1729 SLP030 T00331022 10033  20006 58010 $
14840KMKG MKG20050424130012404/24/05 13:00:31  5-MIN KMKG 241800Z 33021G32KT 10SM OVC026 03/M02 A2961  920 67 -200 340/21G32 RMK AO2 PK WND 32031/1757 $
14840KMKG MKG20050424130512404/24/05 13:05:31  5-MIN KMKG 241805Z 34020G31KT 10SM OVC026 04/M02 A2961  920 64 -100 340/20G31 RMK AO2 PK WND 32031/1757 $
14840KMKG MKG20050424131011804/24/05 13:10:31  5-MIN KMKG 241810Z 33025G35KT OVC026 04/M02 A2960 930 67 -100 330/25G35 RMK AO2 PK WND 33035/1809 $
14840KMKG MKG20050424131511804/24/05 13:15:31  5-MIN KMKG 241815Z 33025G35KT OVC026 03/M02 A2959 930 67 -200 330/25G35 RMK AO2 PK WND 33035/1809 $
14840KMKG MKG20050424132012404/24/05 13:20:31  5-MIN KMKG 241820Z 33029G33KT 10SM OVC026 04/M02 A2960  930 64 -100 340/29G33 RMK AO2 PK WND 33035/1809 $
14840KMKG MKG20050424132512404/24/05 13:25:31  5-MIN KMKG 241825Z 32020G33KT 10SM OVC026 04/M02 A2960  930 64 -100 330/20G33 RMK AO2 PK WND 33035/1809 $
14840KMKG MKG20050424133012404/24/05 13:30:31  5-MIN KMKG 241830Z 33025G32KT 10SM OVC026 03/M02 A2959  940 67 -200 330/25G32 RMK AO2 PK WND 33035/1809 $
14840KMKG MKG20050424133512404/24/05 13:35:31  5-MIN KMKG 241835Z 33022G33KT 10SM OVC026 04/M02 A2959  940 64 -100 330/22G33 RMK AO2 PK WND 33035/1809 $
14840KMKG MKG20050424134012404/24/05 13:40:31  5-MIN KMKG 241840Z 32023G33KT 10SM OVC026 04/M02 A2958  940 64 -100 320/23G33 RMK AO2 PK WND 33035/1809 $
14840KMKG MKG20050424134512404/24/05 13:45:31  5-MIN KMKG 241845Z 33023G28KT 10SM OVC026 04/M02 A2959  930 64 -100 330/23G28 RMK AO2 PK WND 33035/1809 $
14840KMKG MKG20050424135014104/24/05 13:50:31  5-MIN KMKG 241850Z 33025G34KT 10SM OVC026 04/M02 A2959  940 64 -100 330/25G34 RMK AO2 PK WND 33035/1809 SLP026 T00391022 $
14840KMKG MKG20050424135514104/24/05 13:55:31  5-MIN KMKG 241855Z 33024G37KT 10SM OVC028 04/M03 A2959  940 62 -100 340/24G37 RMK AO2 PK WND 33037/1853 SLP026 T00391028 $
14840KMKG MKG20050424140012404/24/05 14:00:31  5-MIN KMKG 241900Z 34020G37KT 10SM OVC028 04/M02 A2959  930 64 -100 350/20G37 RMK AO2 PK WND 36026/1900 $
14840KMKG MKG20050424140512104/24/05 14:05:31  5-MIN KMKG 241905Z 33024G36KT 10SM OVC028 04/M02 A2958  950 62 0 330/24G36 RMK AO2 PK WND 33036/1902 $
14840KMKG MKG20050424141012404/24/05 14:10:31  5-MIN KMKG 241910Z 33024G36KT 10SM OVC030 04/M02 A2959  940 64 -100 340/24G36 RMK AO2 PK WND 33036/1902 $
14840KMKG MKG20050424141512404/24/05 14:15:31  5-MIN KMKG 241915Z 32024G34KT 10SM OVC030 04/M02 A2958  940 64 -100 330/24G34 RMK AO2 PK WND 33036/1902 $
14840KMKG MKG20050424142012404/24/05 14:20:31  5-MIN KMKG 241920Z 32021G36KT 10SM OVC030 04/M02 A2958  950 64 -100 330/21G36 RMK AO2 PK WND 33036/1917 $
14840KMKG MKG20050424142512404/24/05 14:25:31  5-MIN KMKG 241925Z 34019G36KT 10SM OVC030 04/M02 A2958  950 64 -100 340/19G36 RMK AO2 PK WND 33036/1917 $
14840KMKG MKG20050424143012704/24/05 14:30:31  5-MIN KMKG 241930Z 33020G29KT 10SM OVC030 04/M02 A2957  950 62 0 330/20G29 RMK AO2 PK WND 33036/1917 P0001 $
14840KMKG MKG20050424143512704/24/05 14:35:31  5-MIN KMKG 241935Z 32022G29KT 10SM OVC030 04/M02 A2957  950 62 0 330/22G29 RMK AO2 PK WND 33036/1917 P0001 $
14840KMKG MKG20050424144012704/24/05 14:40:31  5-MIN KMKG 241940Z 34023G30KT 10SM OVC030 04/M02 A2958  950 62 0 340/23G30 RMK AO2 PK WND 33036/1917 P0001 $
14840KMKG MKG20050424144512104/24/05 14:45:31  5-MIN KMKG 241945Z 34025G33KT 10SM OVC030 04/M02 A2957  950 62 0 340/25G33 RMK AO2 PK WND 33036/1917 $
14840KMKG MKG20050424145013804/24/05 14:50:31  5-MIN KMKG 241950Z 33018G33KT 10SM OVC030 05/M02 A2957  950 59 0 330/18G33 RMK AO2 PK WND 33036/1917 SLP019 T00501022 $
14840KMKG MKG20050424145513804/24/05 14:55:31  5-MIN KMKG 241955Z 32018G29KT 10SM BKN030 05/M02 A2957  960 62 0 320/18G29 RMK AO2 PK WND 33036/1917 SLP017 T00501017 $
14840KMKG MKG20050424150012104/24/05 15:00:31  5-MIN KMKG 242000Z 33017G26KT 10SM OVC032 05/M02 A2957  960 62 0 330/17G26 RMK AO2 PK WND 33026/1956 $
14840KMKG MKG20050424150512104/24/05 15:05:31  5-MIN KMKG 242005Z 32022G27KT 10SM OVC032 05/M02 A2956  960 62 0 320/22G27 RMK AO2 PK WND 31027/2005 $
14840KMKG MKG20050424151012104/24/05 15:10:31  5-MIN KMKG 242010Z 32020G29KT 10SM BKN032 05/M02 A2957  960 62 0 320/20G29 RMK AO2 PK WND 31029/2006 $
14840KMKG MKG20050424151512104/24/05 15:15:31  5-MIN KMKG 242015Z 33024G29KT 10SM BKN032 05/M02 A2957  950 62 0 340/24G29 RMK AO2 PK WND 32029/2015 $
14840KMKG MKG20050424152012304/24/05 15:20:31  5-MIN KMKG 242020Z 32020G34KT 10SM BKN032 06/M02 A2957  960 59 100 330/20G34 RMK AO2 PK WND 34034/2018 $
14840KMKG MKG20050424152512304/24/05 15:25:31  5-MIN KMKG 242025Z 34018G34KT 10SM BKN032 06/M02 A2957  960 59 100 340/18G34 RMK AO2 PK WND 34034/2018 $
14840KMKG MKG20050424153011704/24/05 15:30:31  5-MIN KMKG 242030Z 31021G31KT BKN032 06/M02 A2956 970 59 100 320/21G31 RMK AO2 PK WND 34034/2018 $
14840KMKG MKG20050424153512304/24/05 15:35:31  5-MIN KMKG 242035Z 32022G29KT 10SM BKN032 06/M02 A2956  960 59 100 320/22G29 RMK AO2 PK WND 34034/2018 $
14840KMKG MKG20050424154012304/24/05 15:40:31  5-MIN KMKG 242040Z 32024G31KT 10SM BKN032 06/M02 A2955  970 59 100 320/24G31 RMK AO2 PK WND 34034/2018 $
14840KMKG MKG20050424154512304/24/05 15:45:31  5-MIN KMKG 242045Z 32021G31KT 10SM BKN032 06/M02 A2956  970 59 100 330/21G31 RMK AO2 PK WND 34034/2018 $
14840KMKG MKG20050424155015204/24/05 15:50:31  5-MIN KMKG 242050Z 32024G28KT 10SM BKN032 06/M02 A2955  970 59 100 330/24G28 RMK AO2 PK WND 34034/2018 SLP012 60001 T00561017 58010 $
14840KMKG MKG20050424155514604/24/05 15:55:31  5-MIN KMKG 242055Z 34021G28KT 10SM BKN032 06/M02 A2956  970 57 100 340/21G28 RMK AO2 PK WND 34034/2018 SLP015 T00561022 56014 $
14840KMKG MKG20050424160011104/24/05 16:00:31  5-MIN KMKG 242100Z 31015G25KT 10SM BKN037 BKN100 06/M02 A2955 980 59 100 320/15G25 RMK AO2 $
14840KMKG MKG20050424160511104/24/05 16:05:31  5-MIN KMKG 242105Z 31018G23KT 10SM BKN037 BKN100 06/M01 A2955 980 60 200 320/18G23 RMK AO2 $
14840KMKG MKG20050424161012904/24/05 16:10:31  5-MIN KMKG 242110Z 31017G26KT 10SM BKN037 BKN100 06/M02 A2955 980 57 200 310/17G26 RMK AO2 PK WND 30026/2107 $
14840KMKG MKG20050424161512904/24/05 16:15:31  5-MIN KMKG 242115Z 31019G26KT 10SM BKN037 BKN100 06/M01 A2955 980 60 200 310/19G26 RMK AO2 PK WND 30026/2107 $
14840KMKG MKG20050424162012904/24/05 16:20:31  5-MIN KMKG 242120Z 30017G25KT 10SM BKN037 BKN100 06/M02 A2954 980 57 200 310/17G25 RMK AO2 PK WND 30026/2107 $
14840KMKG MKG20050424162512904/24/05 16:25:31  5-MIN KMKG 242125Z 32020G28KT 10SM BKN037 BKN100 06/M02 A2955 980 57 200 320/20G28 RMK AO2 PK WND 33028/2125 $
14840KMKG MKG20050424163012904/24/05 16:30:31  5-MIN KMKG 242130Z 31018G28KT 10SM BKN037 BKN100 07/M01 A2955 980 57 200 310/18G28 RMK AO2 PK WND 33028/2125 $
14840KMKG MKG20050424163513604/24/05 16:35:31  5-MIN KMKG 242135Z 31016G23KT 10SM BKN037 BKN046 BKN110 06/M01 A2955 980 60 200 320/16G23 RMK AO2 PK WND 33028/2125 $
14840KMKG MKG20050424164013604/24/05 16:40:31  5-MIN KMKG 242140Z 31023G30KT 10SM SCT037 BKN046 BKN110 06/M02 A2955 980 57 200 310/23G30 RMK AO2 PK WND 31030/2139 $
14840KMKG MKG20050424164513604/24/05 16:45:31  5-MIN KMKG 242145Z 31013G30KT 10SM SCT042 BKN049 BKN110 06/M01 A2955 980 60 200 310/13G30 RMK AO2 PK WND 31030/2139 $
14840KMKG MKG20050424165014604/24/05 16:50:31  5-MIN KMKG 242150Z 31018G25KT 10SM SCT042 BKN110 06/M01 A2955 980 60 200 310/18G25 RMK AO2 PK WND 31030/2139 SLP011 T00611011 $
14840KMKG MKG20050424165514604/24/05 16:55:31  5-MIN KMKG 242155Z 31014G25KT 10SM FEW042 BKN110 06/M01 A2955 970 60 200 320/14G25 RMK AO2 PK WND 31030/2139 SLP011 T00611011 $
14840KMKG MKG20050424170011104/24/05 17:00:31  5-MIN KMKG 242200Z 31016G24KT 10SM FEW044 BKN110 07/M01 A2955 970 60 200 310/16G24 RMK AO2 $
14840KMKG MKG20050424170511104/24/05 17:05:31  5-MIN KMKG 242205Z 31014G24KT 10SM FEW048 BKN110 07/M01 A2955 980 60 200 310/14G24 RMK AO2 $
14840KMKG MKG20050424171011104/24/05 17:10:31  5-MIN KMKG 242210Z 31013G18KT 10SM FEW044 BKN110 07/M01 A2955 970 60 200 310/13G18 RMK AO2 $
14840KMKG MKG20050424171509804/24/05 17:15:31  5-MIN KMKG 242215Z 31012KT 10SM BKN110 07/00 A2955 970  60 300 310/12 RMK AO2 $
14840KMKG MKG20050424172011104/24/05 17:20:31  5-MIN KMKG 242220Z 31013G18KT 10SM FEW042 BKN110 07/M01 A2955 980 60 200 310/13G18 RMK AO2 $
14840KMKG MKG20050424172510604/24/05 17:25:31  5-MIN KMKG 242225Z 31012KT 10SM FEW042 BKN110 07/M01  A2955 970 60 200 310/12 RMK AO2 $
14840KMKG MKG20050424173011104/24/05 17:30:31  5-MIN KMKG 242230Z 32015G20KT 10SM FEW042 BKN110 07/M01 A2955 970 57 300 320/15G20 RMK AO2 $
14840KMKG MKG20050424173511104/24/05 17:35:31  5-MIN KMKG 242235Z 32013G20KT 10SM FEW042 BKN110 07/M01 A2955 970 60 200 330/13G20 RMK AO2 $
14840KMKG MKG20050424174010504/24/05 17:40:31  5-MIN KMKG 242240Z 32011KT 10SM FEW042 BKN110 07/00  A2955 970 60 300 320/11 RMK AO2 $
14840KMKG MKG20050424174511104/24/05 17:45:31  5-MIN KMKG 242245Z 33017G22KT 10SM FEW042 BKN110 07/M01 A2955 970 57 300 340/17G22 RMK AO2 $
14840KMKG MKG20050424175012804/24/05 17:50:31  5-MIN KMKG 242250Z 32012G22KT 10SM FEW042 BKN110 07/M01 A2955 980 55 300 320/12G22 RMK AO2 SLP011 T00721011 $
14840KMKG MKG20050424175512804/24/05 17:55:31  5-MIN KMKG 242255Z 31016G22KT 10SM BKN100 BKN110 07/M01 A2956 970 57 300 320/16G22 RMK AO2 SLP013 T00721006 $
14840KMKG MKG20050424180010504/24/05 18:00:31  5-MIN KMKG 242300Z 32016G22KT 10SM BKN100 07/M01 A2955  970 55 300 330/16G22 RMK AO2 $
14840KMKG MKG20050424180510504/24/05 18:05:31  5-MIN KMKG 242305Z 31015G20KT 10SM BKN100 07/M01 A2955  980 57 300 320/15G20 RMK AO2 $
14840KMKG MKG20050424181010504/24/05 18:10:31  5-MIN KMKG 242310Z 33014G19KT 10SM BKN100 07/M01 A2955  970 57 300 330/14G19 RMK AO2 $
14840KMKG MKG20050424181510504/24/05 18:15:31  5-MIN KMKG 242315Z 33019G23KT 10SM OVC100 08/M01 A2955  970 53 400 340/19G23 RMK AO2 $
14840KMKG MKG20050424182012304/24/05 18:20:31  5-MIN KMKG 242320Z 34021G27KT 10SM BKN100 07/M02 A2956  970 53 300 340/21G27 RMK AO2 PK WND 33027/2320 $
14840KMKG MKG20050424182512304/24/05 18:25:31  5-MIN KMKG 242325Z 34017G27KT 10SM BKN100 07/M02 A2955  970 53 300 340/17G27 RMK AO2 PK WND 33027/2320 $
14840KMKG MKG20050424183012304/24/05 18:30:31  5-MIN KMKG 242330Z 32020G24KT 10SM BKN100 07/M01 A2955  980 55 300 330/20G24 RMK AO2 PK WND 33027/2320 $
14840KMKG MKG20050424183512304/24/05 18:35:31  5-MIN KMKG 242335Z 32019G26KT 10SM BKN100 07/M02 A2955  970 53 300 330/19G26 RMK AO2 PK WND 33027/2320 $
14840KMKG MKG20050424184012304/24/05 18:40:31  5-MIN KMKG 242340Z 33016G26KT 10SM BKN090 07/M02 A2955  970 53 300 330/16G26 RMK AO2 PK WND 33027/2320 $
14840KMKG MKG20050424184512304/24/05 18:45:31  5-MIN KMKG 242345Z 35017G24KT 10SM BKN090 07/M01 A2957  960 55 300 360/17G24 RMK AO2 PK WND 33027/2320 $
14840KMKG MKG20050424185016404/24/05 18:50:31  5-MIN KMKG 242350Z 34018G28KT 10SM BKN090 07/M02 A2956  960 55 200 340/18G28 RMK AO2 PK WND 34028/2346 SLP016 60001 T00671017 10078 20033 56014 $
14840KMKG MKG20050424185515804/24/05 18:55:31  5-MIN KMKG 242355Z 34019G28KT 10SM BKN090 06/M02 A2956  970 57 200 340/19G28 RMK AO2 PK WND 34028/2346 SLP014 T00611017 10078 20033 55000 $
14840KMKG MKG20050424190010504/24/05 19:00:31  5-MIN KMKG 250000Z 33018G24KT 10SM OVC095 06/M02 A2956  970 57 200 340/18G24 RMK AO2 $
14840KMKG MKG20050424190510504/24/05 19:05:31  5-MIN KMKG 250005Z 33017G23KT 10SM BKN095 06/M02 A2956  970 57 200 330/17G23 RMK AO2 $
14840KMKG MKG20050424191010504/24/05 19:10:31  5-MIN KMKG 250010Z 34015G23KT 10SM BKN095 06/M02 A2956  960 55 200 340/15G23 RMK AO2 $
14840KMKG MKG20050424191509804/24/05 19:15:31  5-MIN KMKG 250015Z 34013KT 10SM BKN095 06/M02 A2956 960 57 200 340/13 RMK AO2 $
14840KMKG MKG20050424192010504/24/05 19:20:31  5-MIN KMKG 250020Z 34013G20KT 10SM BKN095 06/M02 A2957  960 55 200 350/13G20 RMK AO2 $
14840KMKG MKG20050424192510504/24/05 19:25:31  5-MIN KMKG 250025Z 35016G22KT 10SM BKN095 06/M02 A2957  960 55 200 360/16G22 RMK AO2 $
14840KMKG MKG20050424193010504/24/05 19:30:31  5-MIN KMKG 250030Z 35015G22KT 10SM BKN095 06/M03 A2957  960 53 200 350/15G22 RMK AO2 $
14840KMKG MKG20050424193510504/24/05 19:35:31  5-MIN KMKG 250035Z 35014G22KT 10SM BKN095 06/M03 A2957  960 53 200 350/14G22 RMK AO2 $
14840KMKG MKG20050424194009804/24/05 19:40:31  5-MIN KMKG 250040Z 34016KT 10SM BKN095 06/M03 A2957 960 53 200 350/16 RMK AO2 $
14840KMKG MKG20050424194510504/24/05 19:45:31  5-MIN KMKG 250045Z 34017G23KT 10SM BKN095 06/M03 A2957  960 53 200 350/17G23 RMK AO2 $
14840KMKG MKG20050424195012204/24/05 19:50:31  5-MIN KMKG 250050Z 35017G24KT 10SM BKN095 06/M03 A2956  960 53 200 350/17G24 RMK AO2 SLP016 T00611028 $
14840KMKG MKG20050424195512204/24/05 19:55:31  5-MIN KMKG 250055Z 34020G25KT 10SM BKN095 06/M03 A2957  960 55 100 350/20G25 RMK AO2 SLP017 T00561028 $
14840KMKG MKG20050424200010504/24/05 20:00:31  5-MIN KMKG 250100Z 34014G25KT 10SM OVC100 06/M03 A2957  960 53 200 350/14G25 RMK AO2 $
14840KMKG MKG20050424200510504/24/05 20:05:31  5-MIN KMKG 250105Z 34014G22KT 10SM OVC100 06/M03 A2957  960 55 100 350/14G22 RMK AO2 $
14840KMKG MKG20050424201009804/24/05 20:10:31  5-MIN KMKG 250110Z 34016KT 10SM BKN100 06/M03 A2956 960 53 200 340/16 RMK AO2 $
14840KMKG MKG20050424201509804/24/05 20:15:31  5-MIN KMKG 250115Z 35015KT 10SM BKN100 06/M03 A2957 960 53 200 350/15 RMK AO2 $
14840KMKG MKG20050424202009804/24/05 20:20:31  5-MIN KMKG 250120Z 34013KT 10SM BKN100 06/M03 A2956 960 55 100 340/13 RMK AO2 $
14840KMKG MKG20050424202510504/24/05 20:25:31  5-MIN KMKG 250125Z 34014G19KT 10SM BKN100 06/M03 A2957  960 53 200 350/14G19 RMK AO2 $
14840KMKG MKG20050424203010504/24/05 20:30:31  5-MIN KMKG 250130Z 35013G19KT 10SM BKN100 06/M03 A2957  960 55 100 350/13G19 RMK AO2 $
14840KMKG MKG20050424203510504/24/05 20:35:31  5-MIN KMKG 250135Z 34014G20KT 10SM BKN100 06/M03 A2957  960 55 100 350/14G20 RMK AO2 $
14840KMKG MKG20050424204009804/24/05 20:40:31  5-MIN KMKG 250140Z 35014KT 10SM BKN100 06/M03 A2957 960 53 200 350/14 RMK AO2 $
14840KMKG MKG20050424204510504/24/05 20:45:31  5-MIN KMKG 250145Z 34014G18KT 10SM BKN100 06/M03 A2957  960 55 100 350/14G18 RMK AO2 $
14840KMKG MKG20050424205012204/24/05 20:50:31  5-MIN KMKG 250150Z 34014G20KT 10SM BKN100 06/M03 A2957  960 53 200 340/14G20 RMK AO2 SLP016 T00611028 $
14840KMKG MKG20050424205512204/24/05 20:55:31  5-MIN KMKG 250155Z 34014G20KT 10SM BKN100 06/M03 A2957  960 55 100 350/14G20 RMK AO2 SLP017 T00561028 $
14840KMKG MKG20050424210010504/24/05 21:00:31  5-MIN KMKG 250200Z 34015G19KT 10SM BKN100 06/M03 A2957  960 55 100 350/15G19 RMK AO2 $
14840KMKG MKG20050424210510504/24/05 21:05:31  5-MIN KMKG 250205Z 34011G18KT 10SM BKN100 06/M03 A2956  960 53 200 340/11G18 RMK AO2 $
14840KMKG MKG20050424211009804/24/05 21:10:31  5-MIN KMKG 250210Z 34013KT 10SM BKN100 06/M03 A2956 970 53 200 350/13 RMK AO2 $
14840KMKG MKG20050424211509804/24/05 21:15:31  5-MIN KMKG 250215Z 34012KT 10SM BKN100 06/M03 A2956 970 53 200 340/12 RMK AO2 $
14840KMKG MKG20050424212009804/24/05 21:20:31  5-MIN KMKG 250220Z 34014KT 10SM BKN100 06/M03 A2956 960 51 200 340/14 RMK AO2 $
14840KMKG MKG20050424212510504/24/05 21:25:31  5-MIN KMKG 250225Z 34015G21KT 10SM BKN100 06/M03 A2956  970 51 200 340/15G21 RMK AO2 $
14840KMKG MKG20050424213010504/24/05 21:30:31  5-MIN KMKG 250230Z 34013G21KT 10SM BKN100 06/M03 A2956  970 51 200 340/13G21 RMK AO2 $
14840KMKG MKG20050424213510504/24/05 21:35:31  5-MIN KMKG 250235Z 34017G22KT 10SM BKN100 06/M03 A2955  970 53 200 340/17G22 RMK AO2 $
14840KMKG MKG20050424214010504/24/05 21:40:31  5-MIN KMKG 250240Z 34013G22KT 10SM BKN100 06/M03 A2955  970 53 200 340/13G22 RMK AO2 $
14840KMKG MKG20050424214510504/24/05 21:45:31  5-MIN KMKG 250245Z 34015G21KT 10SM BKN100 06/M03 A2955  970 51 200 350/15G21 RMK AO2 $
14840KMKG MKG20050424215012804/24/05 21:50:31  5-MIN KMKG 250250Z 34015G21KT 10SM BKN100 06/M03 A2955  980 51 200 350/15G21 RMK AO2 SLP010 T00611033 55000 $
14840KMKG MKG20050424215512804/24/05 21:55:31  5-MIN KMKG 250255Z 34014G20KT 10SM BKN110 06/M03 A2955  980 53 200 340/14G20 RMK AO2 SLP010 T00611028 58004 $
14840KMKG MKG20050424220009804/24/05 22:00:31  5-MIN KMKG 250300Z 34014KT 10SM SCT110 06/M03 A2954 980 51 200 340/14 RMK AO2 $
14840KMKG MKG20050424220510504/24/05 22:05:31  5-MIN KMKG 250305Z 35016G22KT 10SM FEW120 06/M03 A2954  980 53 200 350/16G22 RMK AO2 $
14840KMKG MKG20050424221010504/24/05 22:10:31  5-MIN KMKG 250310Z 34016G22KT 10SM FEW120 06/M03 A2954  990 53 200 340/16G22 RMK AO2 $
14840KMKG MKG20050424221510504/24/05 22:15:31  5-MIN KMKG 250315Z 34013G21KT 10SM FEW120 06/M03 A2954  990 53 200 350/13G21 RMK AO2 $
14840KMKG MKG20050424222010504/24/05 22:20:31  5-MIN KMKG 250320Z 34015G21KT 10SM FEW120 06/M03 A2954  990 53 200 340/15G21 RMK AO2 $
14840KMKG MKG20050424222510504/24/05 22:25:31  5-MIN KMKG 250325Z 33015G22KT 10SM SCT120 06/M03 A2953  990 51 200 340/15G22 RMK AO2 $
14840KMKG MKG20050424223010504/24/05 22:30:31  5-MIN KMKG 250330Z 34014G22KT 10SM FEW120 06/M03 A2953  990 51 200 340/14G22 RMK AO2 $
14840KMKG MKG20050424223510504/24/05 22:35:31  5-MIN KMKG 250335Z 34014G22KT 10SM FEW120 06/M03 A2953  990 53 200 340/14G22 RMK AO2 $
14840KMKG MKG20050424224010504/24/05 22:40:31  5-MIN KMKG 250340Z 34014G22KT 10SM FEW120 06/M03 A2953  990 51 200 340/14G22 RMK AO2 $
14840KMKG MKG20050424224510604/24/05 22:45:31  5-MIN KMKG 250345Z 33012G22KT 10SM FEW120 06/M03 A2953  1000 55 100 340/12G22 RMK AO2 $
14840KMKG MKG20050424225011604/24/05 22:50:31  5-MIN KMKG 250350Z 33014KT 10SM FEW120 06/M03 A2953 1000 51 200 340/14 RMK AO2 SLP004 T00611033 $
14840KMKG MKG20050424225511304/24/05 22:55:31  5-MIN KMKG 250355Z 33014KT 10SM CLR 06/M03 A2952 1000 53 100 330/14 RMK AO2 SLP002 T00561033 $
14840KMKG MKG20050424230009604/24/05 23:00:31  5-MIN KMKG 250400Z 33012KT 10SM CLR 06/M03 A2952 1000 53 100 330/12 RMK AO2 $
14840KMKG MKG20050424230509604/24/05 23:05:31  5-MIN KMKG 250405Z 32014KT 10SM CLR 06/M03 A2952 1000 53 100 330/14 RMK AO2 $
14840KMKG MKG20050424231009604/24/05 23:10:31  5-MIN KMKG 250410Z 32014KT 10SM CLR 06/M03 A2952 1000 53 100 330/14 RMK AO2 $
14840KMKG MKG20050424231509604/24/05 23:15:31  5-MIN KMKG 250415Z 32013KT 10SM CLR 06/M03 A2952 1000 53 100 320/13 RMK AO2 $
14840KMKG MKG20050424232010204/24/05 23:20:31  5-MIN KMKG 250420Z 32012G20KT 10SM CLR 06/M03 A2952 1000 51 200 320/12G20 RMK AO2 $
14840KMKG MKG20050424232510204/24/05 23:25:31  5-MIN KMKG 250425Z 31010G20KT 10SM CLR 06/M03 A2952 1000 53 200 320/10G20 RMK AO2 $
14840KMKG MKG20050424233009904/24/05 23:30:31  5-MIN KMKG 250430Z 30008KT 10SM FEW065 06/M03 A2952 1000 55 100 300/08 RMK AO2 $
14840KMKG MKG20050424233509904/24/05 23:35:31  5-MIN KMKG 250435Z 29011KT 10SM FEW060 06/M02 A2952 1000 57 100 290/11 RMK AO2 $
14840KMKG MKG20050424234009904/24/05 23:40:31  5-MIN KMKG 250440Z 30009KT 10SM FEW060 05/M01 A2952 1000 64 100 300/09 RMK AO2 $
14840KMKG MKG20050424234509904/24/05 23:45:31  5-MIN KMKG 250445Z 30010KT 10SM FEW060 05/M01 A2952 1010 64 100 300/10 RMK AO2 $
14840KMKG MKG20050424235012604/24/05 23:50:31  5-MIN KMKG 250450Z 29010KT 10SM FEW060 05/M01 A2952 1010 67 100 300/10 RMK AO2 SLP000 T00501006 401440000 $
14840KMKG MKG20050424235512604/24/05 23:55:31  5-MIN KMKG 250455Z 29012KT 10SM FEW060 05/M01 A2952 1010 67 100 300/12 RMK AO2 SLP000 T00501006 401440000 $
14840KMKG MKG20050425000009404/25/05 00:00:32  5-MIN KMKG 250500Z 29011KT 10SM CLR 04/M01 A2952 1010 70 0 290/11 RMK AO2 $
14840KMKG MKG20050425000509604/25/05 00:05:31  5-MIN KMKG 250505Z 29010KT 10SM FEW120 04/00 A2952 1010 73 0 300/10 RMK AO2 $
14840KMKG MKG20050425001009604/25/05 00:10:31  5-MIN KMKG 250510Z 29010KT 10SM FEW120 04/00 A2951 1010 73 0 300/10 RMK AO2 $
14840KMKG MKG20050425001509304/25/05 00:15:31  5-MIN KMKG 250515Z 29010KT 10SM CLR 04/00 A2951 1010 76 0 290/10 RMK AO2 $
14840KMKG MKG20050425002009304/25/05 00:20:31  5-MIN KMKG 250520Z 29011KT 10SM CLR 04/00 A2951 1010 73 0 300/11 RMK AO2 $
14840KMKG MKG20050425002509304/25/05 00:25:31  5-MIN KMKG 250525Z 29011KT 10SM CLR 04/00 A2951 1010 73 0 290/11 RMK AO2 $
14840KMKG MKG20050425003009304/25/05 00:30:31  5-MIN KMKG 250530Z 29011KT 10SM CLR 04/00 A2951 1010 73 0 290/11 RMK AO2 $
14840KMKG MKG20050425003509304/25/05 00:35:31  5-MIN KMKG 250535Z 30009KT 10SM CLR 04/00 A2951 1010 73 0 300/09 RMK AO2 $
14840KMKG MKG20050425004009304/25/05 00:40:31  5-MIN KMKG 250540Z 29012KT 10SM CLR 04/00 A2951 1020 73 0 290/12 RMK AO2 $
14840KMKG MKG20050425004509404/25/05 00:45:31  5-MIN KMKG 250545Z 29012KT 10SM CLR 04/M01 A2951 1010 70 0 300/12 RMK AO2 $
14840KMKG MKG20050425005013104/25/05 00:50:31  5-MIN KMKG 250550Z 30010KT 10SM CLR 05/M01 A2951 1020 67 100 300/10 RMK AO2 SLP996 T00501006 10061 20039 58004 $
14840KMKG MKG20050425005512904/25/05 00:55:31  5-MIN KMKG 250555Z 28011KT 10SM CLR 04/M01 A2951 1020 70 0 290/11 RMK AO2 SLP996 T00441006 10061 20039 56014 $
14840KMKG MKG20050425010009404/25/05 01:00:31  5-MIN KMKG 250600Z 29010KT 10SM CLR 04/M01 A2950 1020 70 0 290/10 RMK AO2 $
14840KMKG MKG20050425010510204/25/05 01:05:31  5-MIN KMKG 250605Z 29012G18KT 10SM CLR 05/M01 A2950 1020 67 100 290/12G18 RMK AO2 $
14840KMKG MKG20050425011010204/25/05 01:10:31  5-MIN KMKG 250610Z 29011G18KT 10SM CLR 05/M01 A2950 1020 67 100 300/11G18 RMK AO2 $
14840KMKG MKG20050425011510204/25/05 01:15:31  5-MIN KMKG 250615Z 29011G19KT 10SM CLR 05/M01 A2950 1020 64 100 300/11G19 RMK AO2 $
14840KMKG MKG20050425012010204/25/05 01:20:31  5-MIN KMKG 250620Z 29014G20KT 10SM CLR 05/M01 A2950 1030 64 100 300/14G20 RMK AO2 $
14840KMKG MKG20050425012510204/25/05 01:25:31  5-MIN KMKG 250625Z 29012G20KT 10SM CLR 05/M01 A2949 1030 64 100 290/12G20 RMK AO2 $
14840KMKG MKG20050425013009604/25/05 01:30:31  5-MIN KMKG 250630Z 29012KT 10SM CLR 05/M01 A2949 1030 64 100 290/12 RMK AO2 $
14840KMKG MKG20050425013509604/25/05 01:35:31  5-MIN KMKG 250635Z 28013KT 10SM CLR 05/M01 A2949 1030 64 100 290/13 RMK AO2 $
14840KMKG MKG20050425014010204/25/05 01:40:31  5-MIN KMKG 250640Z 29014G19KT 10SM CLR 05/M01 A2949 1030 64 100 290/14G19 RMK AO2 $
14840KMKG MKG20050425014510204/25/05 01:45:31  5-MIN KMKG 250645Z 29014G19KT 10SM CLR 05/M01 A2949 1030 64 100 290/14G19 RMK AO2 $
14840KMKG MKG20050425015011904/25/05 01:50:31  5-MIN KMKG 250650Z 29014G18KT 10SM CLR 05/M01 A2949 1030 64 100 300/14G18 RMK AO2 SLP991 T00501011 $
14840KMKG MKG20050425015511904/25/05 01:55:31  5-MIN KMKG 250655Z 29013G18KT 10SM CLR 05/M01 A2949 1030 64 100 300/13G18 RMK AO2 SLP991 T00501011 $
14840KMKG MKG20050425020010204/25/05 02:00:31  5-MIN KMKG 250700Z 30012G18KT 10SM CLR 05/M01 A2949 1030 64 100 310/12G18 RMK AO2 $
14840KMKG MKG20050425020510604/25/05 02:05:31  5-MIN KMKG 250705Z 30010G18KT 10SM FEW060 05/M01 A2949  1030 67 100 300/10G18 RMK AO2 $
14840KMKG MKG20050425021009904/25/05 02:10:31  5-MIN KMKG 250710Z 30011KT 10SM SCT060 05/M01 A2949 1030 67 100 300/11 RMK AO2 $
14840KMKG MKG20050425021510604/25/05 02:15:31  5-MIN KMKG 250715Z 29012G16KT 10SM BKN060 05/M01 A2949  1030 67 100 290/12G16 RMK AO2 $
14840KMKG MKG20050425022010604/25/05 02:20:31  5-MIN KMKG 250720Z 30011G16KT 10SM BKN060 05/M01 A2949  1030 67 100 300/11G16 RMK AO2 $
14840KMKG MKG20050425022509904/25/05 02:25:31  5-MIN KMKG 250725Z 29011KT 10SM BKN060 05/M01 A2949 1030 67 100 300/11 RMK AO2 $
14840KMKG MKG20050425023009904/25/05 02:30:31  5-MIN KMKG 250730Z 30011KT 10SM OVC060 06/M01 A2949 1030 65 200 300/11 RMK AO2 $
14840KMKG MKG20050425023509904/25/05 02:35:31  5-MIN KMKG 250735Z 30012KT 10SM OVC060 06/M01 A2949 1030 65 200 310/12 RMK AO2 $
14840KMKG MKG20050425024009904/25/05 02:40:31  5-MIN KMKG 250740Z 30010KT 10SM BKN060 05/M01 A2949 1030 67 100 310/10 RMK AO2 $
14840KMKG MKG20050425024510604/25/05 02:45:31  5-MIN KMKG 250745Z 30012G17KT 10SM BKN060 05/M01 A2949  1030 64 100 310/12G17 RMK AO2 $
14840KMKG MKG20050425025012304/25/05 02:50:31  5-MIN KMKG 250750Z 31010G17KT 10SM SCT060 05/M01 A2949  1030 64 100 310/10G17 RMK AO2 SLP989 T00501011 $
14840KMKG MKG20050425025512304/25/05 02:55:31  5-MIN KMKG 250755Z 31010G17KT 10SM SCT060 05/M01 A2949  1030 64 100 310/10G17 RMK AO2 SLP989 T00501011 $
14840KMKG MKG20050425030009904/25/05 03:00:31  5-MIN KMKG 250800Z 30011KT 10SM FEW060 05/M01 A2949 1030 64 100 310/11 RMK AO2 $
14840KMKG MKG20050425030509604/25/05 03:05:31  5-MIN KMKG 250805Z 31010KT 10SM CLR 05/M01 A2949 1040 64 100 310/10 RMK AO2 $
14840KMKG MKG20050425031009604/25/05 03:10:31  5-MIN KMKG 250810Z 31012KT 10SM CLR 06/M01 A2948 1040 62 200 310/12 RMK AO2 $
14840KMKG MKG20050425031510204/25/05 03:15:31  5-MIN KMKG 250815Z 31009G16KT 10SM CLR 05/M01 A2949 1030 64 100 310/09G16 RMK AO2 $
14840KMKG MKG20050425032010204/25/05 03:20:31  5-MIN KMKG 250820Z 29011G16KT 10SM CLR 06/M01 A2949 1030 62 200 300/11G16 RMK AO2 $
14840KMKG MKG20050425032509604/25/05 03:25:31  5-MIN KMKG 250825Z 30011KT 10SM CLR 06/M02 A2949 1030 59 200 310/11 RMK AO2 $
14840KMKG MKG20050425033009604/25/05 03:30:31  5-MIN KMKG 250830Z 31010KT 10SM CLR 06/M02 A2949 1030 59 200 310/10 RMK AO2 $
14840KMKG MKG20050425033509604/25/05 03:35:31  5-MIN KMKG 250835Z 31009KT 10SM CLR 05/M02 A2949 1030 62 100 310/09 RMK AO2 $
14840KMKG MKG20050425034009604/25/05 03:40:31  5-MIN KMKG 250840Z 30010KT 10SM CLR 05/M02 A2949 1030 62 100 310/10 RMK AO2 $
14840KMKG MKG20050425034510204/25/05 03:45:31  5-MIN KMKG 250845Z 30011G16KT 10SM CLR 06/M02 A2949 1030 59 200 310/11G16 RMK AO2 $
14840KMKG MKG20050425035011904/25/05 03:50:31  5-MIN KMKG 250850Z 31009KT 10SM CLR 05/M01 A2949 1030 64 100 310/09 RMK AO2 SLP990 T00501011 56014 $
14840KMKG MKG20050425035511904/25/05 03:55:31  5-MIN KMKG 250855Z 31013KT 10SM CLR 05/M01 A2949 1030 64 100 310/13 RMK AO2 SLP990 T00501011 55005 $
14840KMKG MKG20050425040009604/25/05 04:00:31  5-MIN KMKG 250900Z 30009KT 10SM CLR 05/M01 A2949 1030 64 100 300/09 RMK AO2 $
14840KMKG MKG20050425040509604/25/05 04:05:31  5-MIN KMKG 250905Z 30009KT 10SM CLR 05/M01 A2950 1030 64 100 300/09 RMK AO2 $
14840KMKG MKG20050425041009604/25/05 04:10:31  5-MIN KMKG 250910Z 30010KT 10SM CLR 05/M01 A2950 1020 64 100 300/10 RMK AO2 $
14840KMKG MKG20050425041509604/25/05 04:15:31  5-MIN KMKG 250915Z 30010KT 10SM CLR 05/M01 A2950 1030 64 100 300/10 RMK AO2 $
14840KMKG MKG20050425042010204/25/05 04:20:31  5-MIN KMKG 250920Z 30010G16KT 10SM CLR 05/M01 A2950 1030 64 100 310/10G16 RMK AO2 $
14840KMKG MKG20050425042509604/25/05 04:25:31  5-MIN KMKG 250925Z 30009KT 10SM CLR 05/M01 A2950 1030 64 100 310/09 RMK AO2 $
14840KMKG MKG20050425043009604/25/05 04:30:31  5-MIN KMKG 250930Z 30008KT 10SM CLR 05/M01 A2949 1030 64 100 300/08 RMK AO2 $
14840KMKG MKG20050425043509404/25/05 04:35:31  5-MIN KMKG 250935Z 30008KT 10SM CLR 04/M01 A2950 1020 67 0 300/08 RMK AO2 $
14840KMKG MKG20050425044009604/25/05 04:40:31  5-MIN KMKG 250940Z 29010KT 10SM CLR 05/M01 A2950 1020 64 100 300/10 RMK AO2 $
14840KMKG MKG20050425044510204/25/05 04:45:31  5-MIN KMKG 250945Z 29010G16KT 10SM CLR 05/M01 A2949 1030 64 100 300/10G16 RMK AO2 $
14840KMKG MKG20050425045011904/25/05 04:50:31  5-MIN KMKG 250950Z 29011G16KT 10SM CLR 05/M01 A2950 1030 64 100 300/11G16 RMK AO2 SLP992 T00501011 $
14840KMKG MKG20050425045511304/25/05 04:55:31  5-MIN KMKG 250955Z 29012KT 10SM CLR 05/M01 A2949 1030 64 100 300/12 RMK AO2 SLP992 T00501011 $
14840KMKG MKG20050425050009604/25/05 05:00:31  5-MIN KMKG 251000Z 29010KT 10SM CLR 05/M01 A2949 1030 64 100 300/10 RMK AO2 $
14840KMKG MKG20050425050509604/25/05 05:05:31  5-MIN KMKG 251005Z 29011KT 10SM CLR 05/M01 A2949 1030 64 100 300/11 RMK AO2 $
14840KMKG MKG20050425051009604/25/05 05:10:31  5-MIN KMKG 251010Z 30012KT 10SM CLR 05/M01 A2949 1030 64 100 300/12 RMK AO2 $
14840KMKG MKG20050425051509604/25/05 05:15:31  5-MIN KMKG 251015Z 30010KT 10SM CLR 05/M01 A2949 1030 64 100 300/10 RMK AO2 $
14840KMKG MKG20050425052009604/25/05 05:20:31  5-MIN KMKG 251020Z 29011KT 10SM CLR 05/M01 A2949 1030 64 100 300/11 RMK AO2 $
14840KMKG MKG20050425052509604/25/05 05:25:31  5-MIN KMKG 251025Z 30011KT 10SM CLR 05/M01 A2949 1030 64 100 300/11 RMK AO2 $
14840KMKG MKG20050425053009604/25/05 05:30:31  5-MIN KMKG 251030Z 29011KT 10SM CLR 05/M01 A2949 1030 64 100 290/11 RMK AO2 $
14840KMKG MKG20050425053509404/25/05 05:35:31  5-MIN KMKG 251035Z 29010KT 10SM CLR 04/M01 A2949 1030 70 0 300/10 RMK AO2 $
14840KMKG MKG20050425054009404/25/05 05:40:31  5-MIN KMKG 251040Z 29009KT 10SM CLR 04/M01 A2949 1030 70 0 290/09 RMK AO2 $
14840KMKG MKG20050425054509404/25/05 05:45:31  5-MIN KMKG 251045Z 29013KT 10SM CLR 04/M01 A2949 1030 70 0 290/13 RMK AO2 $
14840KMKG MKG20050425055011904/25/05 05:50:31  5-MIN KMKG 251050Z 29011G18KT 10SM CLR 05/M01 A2949 1030 67 100 300/11G18 RMK AO2 SLP991 T00501006 $
14840KMKG MKG20050425055511704/25/05 05:55:31  5-MIN KMKG 251055Z 29010G18KT 10SM CLR 04/M01 A2949 1030 70 0 300/10G18 RMK AO2 SLP991 T00441006 $
14840KMKG MKG20050425060009404/25/05 06:00:31  5-MIN KMKG 251100Z 29009KT 10SM CLR 04/M01 A2949 1030 70 0 300/09 RMK AO2 $
14840KMKG MKG20050425060509404/25/05 06:05:31  5-MIN KMKG 251105Z 30008KT 10SM CLR 04/M01 A2949 1030 70 0 300/08 RMK AO2 $
14840KMKG MKG20050425061009404/25/05 06:10:31  5-MIN KMKG 251110Z 30007KT 10SM CLR 04/M01 A2949 1030 70 0 300/07 RMK AO2 $
14840KMKG MKG20050425061509404/25/05 06:15:31  5-MIN KMKG 251115Z 30008KT 10SM CLR 04/M01 A2949 1030 70 0 310/08 RMK AO2 $
14840KMKG MKG20050425062009404/25/05 06:20:31  5-MIN KMKG 251120Z 29010KT 10SM CLR 04/M01 A2950 1020 70 0 300/10 RMK AO2 $
14840KMKG MKG20050425062509604/25/05 06:25:31  5-MIN KMKG 251125Z 30010KT 10SM CLR 05/M01 A2950 1020 67 100 300/10 RMK AO2 $
14840KMKG MKG20050425063009404/25/05 06:30:31  5-MIN KMKG 251130Z 29010KT 10SM CLR 04/M01 A2950 1020 70 0 300/10 RMK AO2 $
14840KMKG MKG20050425063509604/25/05 06:35:31  5-MIN KMKG 251135Z 29011KT 10SM CLR 05/M01 A2950 1020 67 100 290/11 RMK AO2 $
14840KMKG MKG20050425064009604/25/05 06:40:31  5-MIN KMKG 251140Z 29010KT 10SM CLR 05/M01 A2950 1020 67 100 300/10 RMK AO2 $
14840KMKG MKG20050425064509604/25/05 06:45:31  5-MIN KMKG 251145Z 29010KT 10SM CLR 05/M01 A2950 1020 67 100 300/10 RMK AO2 $
14840KMKG MKG20050425065013104/25/05 06:50:31  5-MIN KMKG 251150Z 30009KT 10SM CLR 06/M01 A2950 1020 65 200 300/09 RMK AO2 SLP994 T00561006 10056 20044 55005 $
14840KMKG MKG20050425065513104/25/05 06:55:31  5-MIN KMKG 251155Z 30010KT 10SM CLR 06/M01 A2950 1020 65 200 300/10 RMK AO2 SLP995 T00561006 10056 20044 53005 $
14840KMKG MKG20050425070009604/25/05 07:00:31  5-MIN KMKG 251200Z 30012KT 10SM CLR 06/M01 A2951 1020 65 200 300/12 RMK AO2 $
14840KMKG MKG20050425070509604/25/05 07:05:31  5-MIN KMKG 251205Z 30011KT 10SM CLR 06/M01 A2951 1010 62 200 300/11 RMK AO2 $
14840KMKG MKG20050425071009604/25/05 07:10:31  5-MIN KMKG 251210Z 30011KT 10SM CLR 06/M01 A2951 1010 62 200 300/11 RMK AO2 $
14840KMKG MKG20050425071509604/25/05 07:15:31  5-MIN KMKG 251215Z 29011KT 10SM CLR 06/M01 A2951 1010 62 200 300/11 RMK AO2 $
14840KMKG MKG20050425072009604/25/05 07:20:31  5-MIN KMKG 251220Z 29012KT 10SM CLR 06/M01 A2951 1010 62 200 290/12 RMK AO2 $
14840KMKG MKG20050425072509604/25/05 07:25:31  5-MIN KMKG 251225Z 29010KT 10SM CLR 06/M01 A2951 1010 60 200 300/10 RMK AO2 $
14840KMKG MKG20050425073010204/25/05 07:30:31  5-MIN KMKG 251230Z 29009G16KT 10SM CLR 07/M01 A2951 1010 57 300 290/09G16 RMK AO2 $
14840KMKG MKG20050425073509604/25/05 07:35:31  5-MIN KMKG 251235Z 30011KT 10SM CLR 07/M01 A2951 1010 60 300 310/11 RMK AO2 $
14840KMKG MKG20050425074009604/25/05 07:40:31  5-MIN KMKG 251240Z 29010KT 10SM CLR 07/M01 A2951 1010 55 400 300/10 RMK AO2 $
14840KMKG MKG20050425074509604/25/05 07:45:31  5-MIN KMKG 251245Z 30010KT 10SM CLR 07/M01 A2951 1010 55 400 300/10 RMK AO2 $
14840KMKG MKG20050425075011304/25/05 07:50:31  5-MIN KMKG 251250Z 29009KT 10SM CLR 07/M01 A2951 1010 55 400 300/09 RMK AO2 SLP996 T00721011 $
14840KMKG MKG20050425075511104/25/05 07:55:31  5-MIN KMKG 251255Z 29009KT 10SM CLR 07/M01 A2951 1010 55 400 290/09 RMK AO2 SLP996 T00721011
14840KMKG MKG20050425080009404/25/05 08:00:31  5-MIN KMKG 251300Z 29010KT 10SM CLR 07/M01 A2951 1010 55 400 290/10 RMK AO2
14840KMKG MKG20050425080509404/25/05 08:05:31  5-MIN KMKG 251305Z 29011KT 10SM CLR 08/M01 A2951 1010 53 400 290/11 RMK AO2
14840KMKG MKG20050425081009404/25/05 08:10:31  5-MIN KMKG 251310Z 28012KT 10SM CLR 08/M01 A2951 1020 53 400 290/12 RMK AO2
14840KMKG MKG20050425081509404/25/05 08:15:31  5-MIN KMKG 251315Z 30012KT 10SM CLR 08/M01 A2951 1010 53 400 300/12 RMK AO2
14840KMKG MKG20050425082009404/25/05 08:20:31  5-MIN KMKG 251320Z 29010KT 10SM CLR 07/M01 A2951 1010 57 400 290/10 RMK AO2
14840KMKG MKG20050425082509404/25/05 08:25:31  5-MIN KMKG 251325Z 28012KT 10SM CLR 08/M01 A2951 1010 55 400 290/12 RMK AO2
14840KMKG MKG20050425083009404/25/05 08:30:31  5-MIN KMKG 251330Z 28011KT 10SM CLR 07/M01 A2951 1010 57 400 290/11 RMK AO2
14840KMKG MKG20050425083509404/25/05 08:35:31  5-MIN KMKG 251335Z 31009KT 10SM CLR 07/M01 A2951 1020 57 400 310/09 RMK AO2
14840KMKG MKG20050425084009404/25/05 08:40:31  5-MIN KMKG 251340Z 30009KT 10SM CLR 07/M01 A2951 1020 57 400 300/09 RMK AO2
14840KMKG MKG20050425084509304/25/05 08:45:31  5-MIN KMKG 251345Z 28010KT 10SM CLR 08/00 A2951 1020 58 400 280/10 RMK AO2
14840KMKG MKG20050425085011004/25/05 08:50:31  5-MIN KMKG 251350Z 29009KT 10SM CLR 08/00 A2951 1010 58 400 290/09 RMK AO2 SLP995 T00780000
14840KMKG MKG20050425085511104/25/05 08:55:31  5-MIN KMKG 251355Z 29009KT 10SM CLR 08/M01 A2951 1010 55 400 290/09 RMK AO2 SLP996 T00781006
14840KMKG MKG20050425090009304/25/05 09:00:31  5-MIN KMKG 251400Z 28010KT 10SM CLR 08/00 A2951 1010 58 400 290/10 RMK AO2
14840KMKG MKG20050425090509304/25/05 09:05:31  5-MIN KMKG 251405Z 29011KT 10SM CLR 08/00 A2951 1010 58 400 300/11 RMK AO2
14840KMKG MKG20050425091009404/25/05 09:10:31  5-MIN KMKG 251410Z 28010KT 10SM CLR 08/M01 A2951 1010 55 400 280/10 RMK AO2
14840KMKG MKG20050425091509304/25/05 09:15:31  5-MIN KMKG 251415Z 29008KT 10SM CLR 08/00 A2951 1010 58 400 290/08 RMK AO2
14840KMKG MKG20050425092009304/25/05 09:20:31  5-MIN KMKG 251420Z 29010KT 10SM CLR 08/00 A2951 1010 58 400 290/10 RMK AO2
14840KMKG MKG20050425092509304/25/05 09:25:31  5-MIN KMKG 251425Z 27010KT 10SM CLR 08/00 A2951 1010 55 500 280/10 RMK AO2
14840KMKG MKG20050425093009304/25/05 09:30:31  5-MIN KMKG 251430Z 27011KT 10SM CLR 08/00 A2951 1010 58 400 270/11 RMK AO2
14840KMKG MKG20050425093509304/25/05 09:35:31  5-MIN KMKG 251435Z 27011KT 10SM CLR 08/00 A2951 1010 55 500 270/11 RMK AO2
14840KMKG MKG20050425094009304/25/05 09:40:31  5-MIN KMKG 251440Z 27010KT 10SM CLR 08/01 A2951 1010 58 500 270/10 RMK AO2
14840KMKG MKG20050425094509304/25/05 09:45:31  5-MIN KMKG 251445Z 27010KT 10SM CLR 08/00 A2951 1010 55 500 270/10 RMK AO2
14840KMKG MKG20050425095011604/25/05 09:50:31  5-MIN KMKG 251450Z 27010KT 10SM CLR 08/00 A2951 1010 55 500 280/10 RMK AO2 SLP996 T00830000 53005
14840KMKG MKG20050425095511904/25/05 09:55:31  5-MIN KMKG 251455Z 27010KT 10SM FEW120 08/00 A2951 1010 55 500 280/10 RMK AO2 SLP996 T00830000 51002
14840KMKG MKG20050425100009304/25/05 10:00:31  5-MIN KMKG 251500Z 27010KT 10SM CLR 09/00 A2951 1010 53 600 270/10 RMK AO2
14840KMKG MKG20050425100509604/25/05 10:05:31  5-MIN KMKG 251505Z 27012KT 10SM FEW100 09/00 A2951 1010 53 600 270/12 RMK AO2
14840KMKG MKG20050425101009704/25/05 10:10:31  5-MIN KMKG 251510Z 26012KT 10SM SCT100 09/M01 A2951 1010 51 600 270/12 RMK AO2
14840KMKG MKG20050425101509704/25/05 10:15:31  5-MIN KMKG 251515Z 28010KT 10SM BKN100 08/M01 A2952 1010 55 400 280/10 RMK AO2
14840KMKG MKG20050425102009604/25/05 10:20:31  5-MIN KMKG 251520Z 28010KT 10SM BKN100 08/00 A2951 1010 58 400 280/10 RMK AO2
14840KMKG MKG20050425102509604/25/05 10:25:31  5-MIN KMKG 251525Z 28010KT 10SM BKN100 08/00 A2951 1010 58 400 280/10 RMK AO2
14840KMKG MKG20050425103009604/25/05 10:30:31  5-MIN KMKG 251530Z 28010KT 10SM BKN095 08/00 A2952 1010 58 400 280/10 RMK AO2
14840KMKG MKG20050425103509704/25/05 10:35:31  5-MIN KMKG 251535Z 27009KT 10SM BKN095 08/M01 A2952 1010 55 400 280/09 RMK AO2
14840KMKG MKG20050425104009604/25/05 10:40:31  5-MIN KMKG 251540Z 26009KT 10SM BKN100 08/00 A2952 1010 58 400 260/09 RMK AO2
14840KMKG MKG20050425104509604/25/05 10:45:31  5-MIN KMKG 251545Z 25009KT 10SM BKN095 08/01 A2952 1010 58 500 260/09 RMK AO2
14840KMKG MKG20050425105013004/25/05 10:50:31  5-MIN KMKG 251550Z 26008KT 210V280 10SM BKN100 08/01  A2952 1010 60 400 260/08 210V280 RMK AO2 SLP998 T00780006
14840KMKG MKG20050425105512104/25/05 10:55:31  5-MIN KMKG 251555Z 25009KT 10SM FEW080 BKN095 08/01  A2952 1000 58 500 250/09 RMK AO2 SLP998 T00830006
14840KMKG MKG20050425110010404/25/05 11:00:31  5-MIN KMKG 251600Z 25009KT 10SM SCT080 BKN095 08/01  A2952 1010 58 500 260/09 RMK AO2
14840KMKG MKG20050425110512004/25/05 11:05:31  5-MIN KMKG 251605Z 26009KT 230V300 10SM BKN090 BKN100  09/01 A2952 1010 56 600 260/09 230V300 RMK AO2
14840KMKG MKG20050425111010404/25/05 11:10:31  5-MIN KMKG 251610Z 25011KT 10SM FEW080 SCT100 09/00  A2952 1000 53 600 250/11 RMK AO2
14840KMKG MKG20050425111510404/25/05 11:15:31  5-MIN KMKG 251615Z 25010KT 10SM FEW080 SCT100 09/00  A2952 1000 53 600 250/10 RMK AO2
14840KMKG MKG20050425112009604/25/05 11:20:31  5-MIN KMKG 251620Z 26010KT 10SM FEW080 09/00 A2952 1010 53 600 270/10 RMK AO2
14840KMKG MKG20050425112509604/25/05 11:25:31  5-MIN KMKG 251625Z 24011KT 10SM FEW080 09/00 A2952 1010 53 600 250/11 RMK AO2
14840KMKG MKG20050425113009304/25/05 11:30:31  5-MIN KMKG 251630Z 27011KT 10SM CLR 09/00 A2951 1010 53 600 270/11 RMK AO2
14840KMKG MKG20050425113509304/25/05 11:35:31  5-MIN KMKG 251635Z 26010KT 10SM CLR 09/00 A2951 1010 53 600 270/10 RMK AO2
14840KMKG MKG20050425114009404/25/05 11:40:31  5-MIN KMKG 251640Z 27009KT 10SM CLR 09/M01 A2951 1010 49 600 270/09 RMK AO2
14840KMKG MKG20050425114509404/25/05 11:45:31  5-MIN KMKG 251645Z 25009KT 10SM CLR 10/M01 A2951 1010 47 700 250/09 RMK AO2
14840KMKG MKG20050425115011404/25/05 11:50:31  5-MIN KMKG 251650Z 27009KT 10SM FEW080 10/M01 A2951 1010 47 700 280/09 RMK AO2 SLP997 T01001006
14840KMKG MKG20050425115511404/25/05 11:55:31  5-MIN KMKG 251655Z 24010KT 10SM FEW080 09/M01 A2951 1010 47 600 250/10 RMK AO2 SLP997 T00941011
14840KMKG MKG20050425120009404/25/05 12:00:31  5-MIN KMKG 251700Z 27011KT 10SM CLR 10/M02 A2951 1010 44 700 270/11 RMK AO2
14840KMKG MKG20050425120509404/25/05 12:05:31  5-MIN KMKG 251705Z 25011KT 10SM CLR 10/M01 A2951 1010 47 700 260/11 RMK AO2
14840KMKG MKG20050425121009404/25/05 12:10:31  5-MIN KMKG 251710Z 25011KT 10SM CLR 09/M01 A2952 1000 47 600 250/11 RMK AO2
14840KMKG MKG20050425121509104/25/05 12:15:31  5-MIN KMKG 251715Z 25011KT CLR 10/M01 A2952 1000 47 700 260/11 RMK AO2 $
14840KMKG MKG20050425122009104/25/05 12:20:31  5-MIN KMKG 251720Z 25010KT CLR 09/M01 A2952 1000 47 600 260/10 RMK AO2 $
14840KMKG MKG20050425122509604/25/05 12:25:31  5-MIN KMKG 251725Z 26012KT 10SM CLR 10/M01 A2952 1000 46 700 260/12 RMK AO2 $
14840KMKG MKG20050425123009604/25/05 12:30:31  5-MIN KMKG 251730Z 26011KT 10SM CLR 10/M01 A2952 1000 47 700 260/11 RMK AO2 $
14840KMKG MKG20050425123509604/25/05 12:35:31  5-MIN KMKG 251735Z 26010KT 10SM CLR 10/M01 A2952 1000 46 700 260/10 RMK AO2 $
14840KMKG MKG20050425124009104/25/05 12:40:31  5-MIN KMKG 251740Z 25009KT CLR 10/M01 A2952 1000 46 700 250/09 RMK AO2 $
14840KMKG MKG20050425124509104/25/05 12:45:31  5-MIN KMKG 251745Z 25009KT CLR 11/M01 A2952 1000 42 800 250/09 RMK AO2 $
14840KMKG MKG20050425125013404/25/05 12:50:31  5-MIN KMKG 251750Z 24009KT 10SM FEW080 11/M01 A2952 1000 44 800 250/09 RMK AO2 SLP999 T01061011 10111 20056 51002 $
14840KMKG MKG20050425125513404/25/05 12:55:31  5-MIN KMKG 251755Z 23010KT 10SM FEW080 11/M02 A2952 1000 42 800 230/10 RMK AO2 SLP998 T01061017 10111 20056 51003 $
14840KMKG MKG20050425130009904/25/05 13:00:31  5-MIN KMKG 251800Z AUTO 23010KT CLR 11/M02 A2952 1010 42 800 230/10 RMK AO2 TSNO
14840KMKG MKG20050425130509604/25/05 13:05:31  5-MIN KMKG 251805Z 25011KT 10SM CLR 11/M02 A2952 1010 42 800 250/11 RMK AO2 $
14840KMKG MKG20050425131009104/25/05 13:10:31  5-MIN KMKG 251810Z 23010KT CLR 11/M01 A2951 1010 42 800 230/10 RMK AO2 $
14840KMKG MKG20050425131509104/25/05 13:15:31  5-MIN KMKG 251815Z 22011KT CLR 11/M02 A2951 1010 42 800 230/11 RMK AO2 $
14840KMKG MKG20050425132009104/25/05 13:20:31  5-MIN KMKG 251820Z 23011KT CLR 11/M02 A2951 1010 42 800 230/11 RMK AO2 $
14840KMKG MKG20050425132509104/25/05 13:25:31  5-MIN KMKG 251825Z 22011KT CLR 11/M01 A2951 1010 44 800 230/11 RMK AO2 $
14840KMKG MKG20050425133009104/25/05 13:30:31  5-MIN KMKG 251830Z 22010KT CLR 11/M02 A2951 1010 42 800 230/10 RMK AO2 $
14840KMKG MKG20050425133509104/25/05 13:35:31  5-MIN KMKG 251835Z 23010KT CLR 11/M02 A2951 1010 41 800 230/10 RMK AO2 $
14840KMKG MKG20050425134009104/25/05 13:40:31  5-MIN KMKG 251840Z 22009KT CLR 11/M02 A2951 1010 39 800 230/09 RMK AO2 $
14840KMKG MKG20050425134509104/25/05 13:45:31  5-MIN KMKG 251845Z 22009KT CLR 12/M02 A2951 1010 38 900 230/09 RMK AO2 $
14840KMKG MKG20050425135011304/25/05 13:50:31  5-MIN KMKG 251850Z 23011KT 10SM CLR 12/M03 A2951 1010 36 900 230/11 RMK AO2 SLP996 T01171028 $
14840KMKG MKG20050425135511304/25/05 13:55:31  5-MIN KMKG 251855Z 23013KT 10SM CLR 12/M03 A2951 1010 35 900 230/13 RMK AO2 SLP996 T01171033 $
14840KMKG MKG20050425140009404/25/05 14:00:31  5-MIN KMKG 251900Z 21012KT 10SM CLR 12/M03 A2951 1010 36 900 220/12 RMK AO2
14840KMKG MKG20050425140509404/25/05 14:05:31  5-MIN KMKG 251905Z 22010KT 10SM CLR 12/M03 A2951 1010 35 900 220/10 RMK AO2
14840KMKG MKG20050425141009404/25/05 14:10:31  5-MIN KMKG 251910Z 22011KT 10SM CLR 12/M03 A2951 1010 35 900 230/11 RMK AO2
14840KMKG MKG20050425141509404/25/05 14:15:31  5-MIN KMKG 251915Z 23010KT 10SM CLR 11/M03 A2951 1010 36 800 230/10 RMK AO2
14840KMKG MKG20050425142009404/25/05 14:20:31  5-MIN KMKG 251920Z 23009KT 10SM CLR 12/M03 A2951 1010 36 900 230/09 RMK AO2
14840KMKG MKG20050425142509504/25/05 14:25:31  5-MIN KMKG 251925Z 21011KT 10SM CLR 12/M03 A2950 1020 33 1000 210/11 RMK AO2
14840KMKG MKG20050425143009504/25/05 14:30:31  5-MIN KMKG 251930Z 22009KT 10SM CLR 12/M03 A2950 1020 33 1000 220/09 RMK AO2
14840KMKG MKG20050425143509504/25/05 14:35:31  5-MIN KMKG 251935Z 22009KT 10SM CLR 13/M04 A2950 1020 31 1000 220/09 RMK AO2
14840KMKG MKG20050425144009504/25/05 14:40:31  5-MIN KMKG 251940Z 20010KT 10SM CLR 13/M04 A2950 1020 31 1000 200/10 RMK AO2
14840KMKG MKG20050425144509504/25/05 14:45:31  5-MIN KMKG 251945Z 23011KT 10SM CLR 13/M04 A2950 1020 30 1100 230/11 RMK AO2
14840KMKG MKG20050425145011204/25/05 14:50:31  5-MIN KMKG 251950Z 21013KT 10SM CLR 13/M04 A2950 1020 30 1100 210/13 RMK AO2 SLP991 T01331039
14840KMKG MKG20050425145511204/25/05 14:55:31  5-MIN KMKG 251955Z 21011KT 10SM CLR 13/M03 A2950 1020 32 1000 210/11 RMK AO2 SLP991 T01281033
14840KMKG MKG20050425150009504/25/05 15:00:31  5-MIN KMKG 252000Z 21011KT 10SM CLR 13/M03 A2950 1020 32 1100 210/11 RMK AO2
14840KMKG MKG20050425150509504/25/05 15:05:31  5-MIN KMKG 252005Z 20014KT 10SM CLR 13/M03 A2949 1030 32 1100 210/14 RMK AO2
14840KMKG MKG20050425151009504/25/05 15:10:31  5-MIN KMKG 252010Z 22012KT 10SM CLR 13/M03 A2949 1030 32 1100 220/12 RMK AO2
14840KMKG MKG20050425151509504/25/05 15:15:31  5-MIN KMKG 252015Z 19013KT 10SM CLR 13/M03 A2949 1030 32 1100 200/13 RMK AO2
14840KMKG MKG20050425152009504/25/05 15:20:31  5-MIN KMKG 252020Z 20012KT 10SM CLR 13/M03 A2949 1030 31 1100 210/12 RMK AO2
14840KMKG MKG20050425152509504/25/05 15:25:31  5-MIN KMKG 252025Z 21011KT 10SM CLR 13/M03 A2949 1030 31 1100 210/11 RMK AO2
14840KMKG MKG20050425153009504/25/05 15:30:31  5-MIN KMKG 252030Z 19012KT 10SM CLR 14/M03 A2949 1030 31 1200 200/12 RMK AO2
14840KMKG MKG20050425153509504/25/05 15:35:31  5-MIN KMKG 252035Z 20010KT 10SM CLR 13/M03 A2949 1030 32 1100 200/10 RMK AO2
14840KMKG MKG20050425154009504/25/05 15:40:31  5-MIN KMKG 252040Z 19013KT 10SM CLR 14/M02 A2948 1040 32 1200 190/13 RMK AO2
14840KMKG MKG20050425154509504/25/05 15:45:31  5-MIN KMKG 252045Z 20010KT 10SM CLR 14/M03 A2948 1040 31 1200 200/10 RMK AO2
14840KMKG MKG20050425155011804/25/05 15:50:31  5-MIN KMKG 252050Z 19011KT 10SM CLR 14/M03 A2948 1040 31 1200 200/11 RMK AO2 SLP985 T01391028 51003
14840KMKG MKG20050425155511804/25/05 15:55:31  5-MIN KMKG 252055Z 20012KT 10SM CLR 14/M03 A2948 1040 30 1200 210/12 RMK AO2 SLP984 T01391033 58013
14840KMKG MKG20050425160009504/25/05 16:00:31  5-MIN KMKG 252100Z 21013KT 10SM CLR 14/M03 A2948 1040 30 1200 210/13 RMK AO2
14840KMKG MKG20050425160509504/25/05 16:05:31  5-MIN KMKG 252105Z 20012KT 10SM CLR 14/M03 A2948 1040 29 1300 200/12 RMK AO2
14840KMKG MKG20050425161009504/25/05 16:10:31  5-MIN KMKG 252110Z 18014KT 10SM CLR 14/M03 A2947 1040 29 1300 190/14 RMK AO2
14840KMKG MKG20050425161509504/25/05 16:15:31  5-MIN KMKG 252115Z 19012KT 10SM CLR 14/M04 A2947 1050 28 1300 200/12 RMK AO2
14840KMKG MKG20050425162009504/25/05 16:20:31  5-MIN KMKG 252120Z 18014KT 10SM CLR 14/M03 A2947 1050 29 1300 190/14 RMK AO2
14840KMKG MKG20050425162509804/25/05 16:25:31  5-MIN KMKG 252125Z 20012KT 10SM FEW110 14/M03 A2947 1050 30 1200 200/12 RMK AO2
14840KMKG MKG20050425163009804/25/05 16:30:31  5-MIN KMKG 252130Z 19012KT 10SM SCT110 14/M03 A2947 1050 30 1200 190/12 RMK AO2
14840KMKG MKG20050425163509804/25/05 16:35:31  5-MIN KMKG 252135Z 18013KT 10SM BKN120 14/M03 A2947 1050 30 1200 190/13 RMK AO2
14840KMKG MKG20050425164009804/25/05 16:40:31  5-MIN KMKG 252140Z 19011KT 10SM BKN110 13/M03 A2947 1050 31 1100 190/11 RMK AO2
14840KMKG MKG20050425164509804/25/05 16:45:31  5-MIN KMKG 252145Z 18012KT 10SM BKN120 14/M03 A2947 1050 30 1200 190/12 RMK AO2
14840KMKG MKG20050425165011504/25/05 16:50:31  5-MIN KMKG 252150Z 19013KT 10SM BKN120 14/M04 A2947 1050 29 1200 190/13 RMK AO2 SLP981 T01391039
14840KMKG MKG20050425165511504/25/05 16:55:31  5-MIN KMKG 252155Z 19013KT 10SM BKN120 13/M04 A2947 1050 30 1100 190/13 RMK AO2 SLP981 T01331039
14840KMKG MKG20050425170009804/25/05 17:00:31  5-MIN KMKG 252200Z 19013KT 10SM OVC120 13/M04 A2947 1050 30 1100 190/13 RMK AO2
14840KMKG MKG20050425170509804/25/05 17:05:31  5-MIN KMKG 252205Z 20013KT 10SM OVC120 13/M04 A2947 1050 30 1100 200/13 RMK AO2
14840KMKG MKG20050425171009804/25/05 17:10:31  5-MIN KMKG 252210Z 18011KT 10SM OVC110 13/M04 A2947 1050 30 1100 190/11 RMK AO2
14840KMKG MKG20050425171509804/25/05 17:15:31  5-MIN KMKG 252215Z 19014KT 10SM OVC110 13/M03 A2947 1050 31 1100 190/14 RMK AO2
14840KMKG MKG20050425172009804/25/05 17:20:31  5-MIN KMKG 252220Z 18012KT 10SM OVC110 13/M03 A2946 1050 31 1100 190/12 RMK AO2
14840KMKG MKG20050425172509804/25/05 17:25:31  5-MIN KMKG 252225Z 19011KT 10SM OVC110 13/M03 A2946 1050 32 1100 190/11 RMK AO2
14840KMKG MKG20050425173009804/25/05 17:30:31  5-MIN KMKG 252230Z 19013KT 10SM OVC100 13/M03 A2946 1050 31 1100 190/13 RMK AO2
14840KMKG MKG20050425173509804/25/05 17:35:31  5-MIN KMKG 252235Z 18012KT 10SM OVC100 13/M03 A2947 1050 32 1100 190/12 RMK AO2
14840KMKG MKG20050425174009804/25/05 17:40:31  5-MIN KMKG 252240Z 19012KT 10SM BKN100 13/M04 A2946 1060 31 1100 190/12 RMK AO2
14840KMKG MKG20050425174511304/25/05 17:45:31  5-MIN KMKG 252245Z 19011KT 10SM FEW080 SCT095 BKN110  13/M04 A2946 1060 31 1100 190/11 RMK AO2
14840KMKG MKG20050425175013004/25/05 17:50:31  5-MIN KMKG 252250Z 19011KT 10SM FEW075 SCT090 BKN100  13/M03 A2946 1060 32 1100 190/11 RMK AO2 SLP978 T01281033
14840KMKG MKG20050425175511504/25/05 17:55:31  5-MIN KMKG 252255Z 19013KT 10SM SCT085 13/M04 A2946 1060 31 1100 200/13 RMK AO2 SLP978 T01281039
14840KMKG MKG20050425180009804/25/05 18:00:31  5-MIN KMKG 252300Z 19013KT 10SM SCT080 13/M04 A2946 1060 31 1100 190/13 RMK AO2
14840KMKG MKG20050425180510604/25/05 18:05:31  5-MIN KMKG 252305Z 19010KT 10SM FEW080 BKN100 13/M04  A2946 1060 30 1200 190/10 RMK AO2
14840KMKG MKG20050425181010604/25/05 18:10:31  5-MIN KMKG 252310Z 19008KT 10SM FEW080 BKN100 13/M03  A2945 1060 31 1200 200/08 RMK AO2
14840KMKG MKG20050425181509804/25/05 18:15:31  5-MIN KMKG 252315Z 20011KT 10SM BKN100 13/M03 A2945 1070 31 1200 210/11 RMK AO2
14840KMKG MKG20050425182010604/25/05 18:20:31  5-MIN KMKG 252320Z 22011KT 10SM BKN100 BKN120 13/M03  A2945 1070 31 1200 220/11 RMK AO2
14840KMKG MKG20050425182510604/25/05 18:25:31  5-MIN KMKG 252325Z 20007KT 10SM BKN095 OVC120 13/M03  A2945 1070 32 1200 200/07 RMK AO2
14840KMKG MKG20050425183010604/25/05 18:30:31  5-MIN KMKG 252330Z 19009KT 10SM BKN100 OVC110 13/M02  A2945 1070 35 1100 190/09 RMK AO2
14840KMKG MKG20050425183510604/25/05 18:35:31  5-MIN KMKG 252335Z 18010KT 10SM BKN100 OVC110 13/M02  A2944 1080 35 1100 180/10 RMK AO2
14840KMKG MKG20050425184009804/25/05 18:40:31  5-MIN KMKG 252340Z 18008KT 10SM OVC100 12/M02 A2944 1080 36 1000 190/08 RMK AO2
14840KMKG MKG20050425184510604/25/05 18:45:31  5-MIN KMKG 252345Z 18008KT 10SM FEW080 OVC100 13/M02  A2943 1090 35 1100 180/08 RMK AO2
14840KMKG MKG20050425185013304/25/05 18:50:31  5-MIN KMKG 252350Z 17007KT 10SM BKN100 13/M02 A2943 1090 35 1100 180/07 RMK AO2 SLP968 T01281022 10144 20100 58013
14840KMKG MKG20050425185513304/25/05 18:55:31  5-MIN KMKG 252355Z 16005KT 10SM SCT100 13/M02 A2943 1090 35 1100 170/05 RMK AO2 SLP966 T01281022 10144 20100 58018
14840KMKG MKG20050425190009804/25/05 19:00:31  5-MIN KMKG 260000Z 18005KT 10SM BKN100 13/M03 A2943 1090 33 1100 180/05 RMK AO2
14840KMKG MKG20050425190509804/25/05 19:05:31  5-MIN KMKG 260005Z 19007KT 10SM BKN110 12/M02 A2943 1090 36 1100 190/07 RMK AO2
14840KMKG MKG20050425191009804/25/05 19:10:31  5-MIN KMKG 260010Z 18008KT 10SM BKN110 13/M03 A2943 1090 33 1100 180/08 RMK AO2
14840KMKG MKG20050425191509804/25/05 19:15:31  5-MIN KMKG 260015Z 18008KT 10SM BKN120 13/M03 A2943 1090 33 1100 180/08 RMK AO2
14840KMKG MKG20050425192009804/25/05 19:20:31  5-MIN KMKG 260020Z 18009KT 10SM BKN110 13/M03 A2943 1090 32 1100 180/09 RMK AO2
14840KMKG MKG20050425192509804/25/05 19:25:31  5-MIN KMKG 260025Z 17007KT 10SM OVC110 13/M03 A2943 1090 32 1100 180/07 RMK AO2
14840KMKG MKG20050425193010604/25/05 19:30:31  5-MIN KMKG 260030Z 17007KT 10SM FEW095 OVC120 13/M03  A2943 1090 32 1100 170/07 RMK AO2
14840KMKG MKG20050425193510604/25/05 19:35:31  5-MIN KMKG 260035Z 16007KT 10SM FEW090 OVC120 13/M03  A2942 1100 32 1100 170/07 RMK AO2
14840KMKG MKG20050425194010604/25/05 19:40:31  5-MIN KMKG 260040Z 17006KT 10SM SCT100 BKN120 12/M03  A2942 1100 33 1100 170/06 RMK AO2
14840KMKG MKG20050425194510604/25/05 19:45:31  5-MIN KMKG 260045Z 17006KT 10SM BKN100 BKN120 12/M03  A2942 1100 33 1100 180/06 RMK AO2
14840KMKG MKG20050425195012304/25/05 19:50:31  5-MIN KMKG 260050Z 17006KT 10SM BKN100 OVC120 12/M03  A2942 1100 33 1100 170/06 RMK AO2 SLP964 T01221033
14840KMKG MKG20050425195512304/25/05 19:55:31  5-MIN KMKG 260055Z 16005KT 10SM BKN100 OVC120 12/M03  A2942 1100 33 1100 160/05 RMK AO2 SLP963 T01221033
14840KMKG MKG20050425200009804/25/05 20:00:31  5-MIN KMKG 260100Z 16006KT 10SM OVC100 13/M03 A2941 1100 32 1100 160/06 RMK AO2
14840KMKG MKG20050425200509804/25/05 20:05:31  5-MIN KMKG 260105Z 15005KT 10SM OVC100 13/M03 A2941 1100 32 1100 160/05 RMK AO2
14840KMKG MKG20050425201009804/25/05 20:10:31  5-MIN KMKG 260110Z 15005KT 10SM OVC100 12/M03 A2941 1100 33 1100 160/05 RMK AO2
14840KMKG MKG20050425201509804/25/05 20:15:31  5-MIN KMKG 260115Z 15006KT 10SM OVC095 13/M03 A2941 1100 32 1100 150/06 RMK AO2
14840KMKG MKG20050425202009804/25/05 20:20:31  5-MIN KMKG 260120Z 15007KT 10SM OVC095 13/M03 A2941 1110 32 1100 150/07 RMK AO2
14840KMKG MKG20050425202509804/25/05 20:25:31  5-MIN KMKG 260125Z 15007KT 10SM OVC090 13/M03 A2941 1110 32 1100 160/07 RMK AO2
14840KMKG MKG20050425203009804/25/05 20:30:31  5-MIN KMKG 260130Z 16009KT 10SM OVC090 13/M03 A2941 1110 32 1100 160/09 RMK AO2
14840KMKG MKG20050425203509804/25/05 20:35:31  5-MIN KMKG 260135Z 18011KT 10SM OVC090 13/M03 A2941 1110 31 1200 180/11 RMK AO2
14840KMKG MKG20050425204009804/25/05 20:40:31  5-MIN KMKG 260140Z 18012KT 10SM OVC090 13/M03 A2941 1110 32 1200 190/12 RMK AO2
14840KMKG MKG20050425204509804/25/05 20:45:31  5-MIN KMKG 260145Z 19012KT 10SM OVC090 13/M02 A2941 1110 34 1200 190/12 RMK AO2
14840KMKG MKG20050425205012204/25/05 20:50:31  5-MIN KMKG 260150Z 19014G19KT 10SM OVC090 13/M02 A2941  1110 36 1100 190/14G19 RMK AO2 SLP960 T01281017
14840KMKG MKG20050425205512204/25/05 20:55:31  5-MIN KMKG 260155Z 19013G21KT 10SM OVC090 12/M01 A2941  1110 39 1100 190/13G21 RMK AO2 SLP959 T01221011
14840KMKG MKG20050425210010504/25/05 21:00:31  5-MIN KMKG 260200Z 20017G21KT 10SM OVC090 12/M01 A2940  1110 39 1100 200/17G21 RMK AO2
14840KMKG MKG20050425210510504/25/05 21:05:31  5-MIN KMKG 260205Z 20017G25KT 10SM OVC090 12/M01 A2940  1110 41 1100 200/17G25 RMK AO2
14840KMKG MKG20050425211012304/25/05 21:10:31  5-MIN KMKG 260210Z 21024G30KT 10SM OVC090 12/M01 A2940  1120 41 1100 210/24G30 RMK AO2 PK WND 21030/0208
14840KMKG MKG20050425211512304/25/05 21:15:31  5-MIN KMKG 260215Z 20020G30KT 10SM OVC090 12/M01 A2940  1110 41 1100 200/20G30 RMK AO2 PK WND 21030/0208
14840KMKG MKG20050425212012304/25/05 21:20:31  5-MIN KMKG 260220Z 20016G27KT 10SM OVC090 12/M01 A2940  1110 41 1100 200/16G27 RMK AO2 PK WND 21030/0208
14840KMKG MKG20050425212512304/25/05 21:25:31  5-MIN KMKG 260225Z 19022G27KT 10SM OVC090 12/M01 A2940  1110 42 1000 190/22G27 RMK AO2 PK WND 21030/0208
14840KMKG MKG20050425213012304/25/05 21:30:31  5-MIN KMKG 260230Z 20019G26KT 10SM OVC085 12/M01 A2940  1120 41 1100 200/19G26 RMK AO2 PK WND 21030/0208
14840KMKG MKG20050425213512304/25/05 21:35:31  5-MIN KMKG 260235Z 20016G25KT 10SM OVC085 12/M01 A2940  1120 41 1100 200/16G25 RMK AO2 PK WND 21030/0208
14840KMKG MKG20050425214012304/25/05 21:40:31  5-MIN KMKG 260240Z 20019G25KT 10SM OVC085 12/M01 A2940  1120 41 1100 200/19G25 RMK AO2 PK WND 21030/0208
14840KMKG MKG20050425214512904/25/05 21:45:31  5-MIN KMKG 260245Z 20021G26KT 10SM FEW075 OVC090 12/M01 A2939 1120 41 1100 200/21G26 RMK AO2 PK WND 21030/0208
14840KMKG MKG20050425215014604/25/05 21:50:31  5-MIN KMKG 260250Z 20019G26KT 10SM OVC090 12/M01 A2939  1120 39 1100 200/19G26 RMK AO2 PK WND 21030/0208 SLP955 T01221011 58018
14840KMKG MKG20050425215514604/25/05 21:55:31  5-MIN KMKG 260255Z 20018G25KT 10SM OVC090 12/M01 A2939  1120 39 1100 210/18G25 RMK AO2 PK WND 21030/0208 SLP954 T01221011 58012
14840KMKG MKG20050425220010504/25/05 22:00:31  5-MIN KMKG 260300Z 20015G25KT 10SM OVC090 12/M01 A2939  1130 41 1100 200/15G25 RMK AO2
14840KMKG MKG20050425220510504/25/05 22:05:31  5-MIN KMKG 260305Z 20019G24KT 10SM OVC090 12/M01 A2939  1130 41 1100 210/19G24 RMK AO2
14840KMKG MKG20050425221010504/25/05 22:10:31  5-MIN KMKG 260310Z 20019G25KT 10SM OVC090 12/M01 A2939  1130 39 1100 200/19G25 RMK AO2
14840KMKG MKG20050425221510504/25/05 22:15:31  5-MIN KMKG 260315Z 20018G25KT 10SM OVC090 12/M01 A2938  1130 39 1100 200/18G25 RMK AO2
14840KMKG MKG20050425222010504/25/05 22:20:31  5-MIN KMKG 260320Z 19019G24KT 10SM OVC090 12/M01 A2938  1130 39 1100 200/19G24 RMK AO2
14840KMKG MKG20050425222512304/25/05 22:25:31  5-MIN KMKG 260325Z 20020G26KT 10SM OVC085 12/M01 A2938  1130 41 1100 200/20G26 RMK AO2 PK WND 20026/0324
14840KMKG MKG20050425223012304/25/05 22:30:31  5-MIN KMKG 260330Z 19019G27KT 10SM OVC090 12/M01 A2938  1130 42 1000 200/19G27 RMK AO2 PK WND 20027/0326
14840KMKG MKG20050425223512204/25/05 22:35:31  5-MIN KMKG 260335Z 20019G28KT 10SM OVC085 12/00 A2938  1130 44 1000 200/19G28 RMK AO2 PK WND 21028/0333
14840KMKG MKG20050425224012204/25/05 22:40:31  5-MIN KMKG 260340Z 22023G29KT 10SM OVC085 11/00 A2940  1120 46 1000 220/23G29 RMK AO2 PK WND 21029/0337
14840KMKG MKG20050425224512804/25/05 22:45:31  5-MIN KMKG 260345Z 22019G30KT 10SM OVC085 10/01 A2941  1110 54 800 230/19G30 RMK AO2 PK WND 22030/0342 PRESRR
14840KMKG MKG20050425225015304/25/05 22:50:31  5-MIN KMKG 260350Z 22018G30KT 10SM BKN090 OVC120 09/01  A2941 1100 56 700 230/18G30 RMK AO2 PK WND 22030/0342 PRESRR SLP961  T00940011
14840KMKG MKG20050425225514504/25/05 22:55:31  5-MIN KMKG 260355Z 23013G24KT 10SM BKN080 OVC120 09/02  A2941 1110 60 700 240/13G24 RMK AO2 PK WND 22030/0342 SLP960 T00890017
14840KMKG MKG20050425230011004/25/05 23:00:31  5-MIN KMKG 260400Z 24010G18KT 10SM BKN085 OVC120 09/03  A2942 1100 65 700 240/10G18 RMK AO2
14840KMKG MKG20050425230512504/25/05 23:05:31  5-MIN KMKG 260405Z 23011G18KT 10SM SCT085 OVC120 09/03  A2942 1100 65 700 240/11G18 RMK AO2 CIG 080 RWY 14
14840KMKG MKG20050425231011904/25/05 23:10:31  5-MIN KMKG 260410Z 24010KT 10SM SCT085 OVC120 09/03  A2942 1100 68 700 240/10 RMK AO2 CIG 085 RWY 14
14840KMKG MKG20050425231511904/25/05 23:15:31  5-MIN KMKG 260415Z 24009KT 10SM SCT085 OVC120 08/04  A2942 1100 73 600 250/09 RMK AO2 CIG 085 RWY 14
14840KMKG MKG20050425232010404/25/05 23:20:31  5-MIN KMKG 260420Z 24008KT 10SM BKN085 OVC120 08/04  A2942 1090 73 600 240/08 RMK AO2
14840KMKG MKG20050425232510404/25/05 23:25:31  5-MIN KMKG 260425Z 23009KT 10SM BKN090 OVC120 08/04  A2942 1090 73 600 240/09 RMK AO2
14840KMKG MKG20050425233010404/25/05 23:30:31  5-MIN KMKG 260430Z 22008KT 10SM BKN090 OVC120 08/04  A2942 1090 76 500 220/08 RMK AO2
14840KMKG MKG20050425233511904/25/05 23:35:31  5-MIN KMKG 260435Z 22009KT 10SM SCT085 OVC120 08/04  A2943 1090 76 500 220/09 RMK AO2 CIG 090 RWY 14
14840KMKG MKG20050425234010404/25/05 23:40:31  5-MIN KMKG 260440Z 22009KT 10SM SCT090 OVC110 08/04  A2942 1090 76 500 220/09 RMK AO2
14840KMKG MKG20050425234510404/25/05 23:45:31  5-MIN KMKG 260445Z 22008KT 10SM FEW090 OVC120 08/04  A2942 1090 76 500 220/08 RMK AO2
14840KMKG MKG20050425235013104/25/05 23:50:31  5-MIN KMKG 260450Z 22007KT 10SM FEW060 OVC120 08/04  A2942 1100 79 500 230/07 RMK AO2 SLP964 T00780044 401440039
14840KMKG MKG20050425235515404/25/05 23:55:31  5-MIN KMKG 260455Z 22008KT 10SM FEW060 SCT070 OVC120  08/04 A2942 1100 79 500 230/08 RMK AO2 CIG 070 RWY 14 SLP964 T00780044  401440039
14840KMKG MKG20050426000012804/26/05 00:00:32  5-MIN KMKG 260500Z 22007KT 10SM -RA FEW055 BKN070 OVC120 08/04 A2942 1100 79 500 230/07 RMK AO2 RAB0456 P0000
14840KMKG MKG20050426000512804/26/05 00:05:31  5-MIN KMKG 260505Z 22009KT 10SM -RA BKN060 BKN080 OVC120 08/04 A2942 1100 79 500 230/09 RMK AO2 RAB0456 P0000
14840KMKG MKG20050426001012104/26/05 00:10:31  5-MIN KMKG 260510Z 22010KT 10SM -RA BKN065 OVC120 08/04 A2942 1100 79 500 230/10 RMK AO2 RAB0456 P0000
14840KMKG MKG20050426001512104/26/05 00:15:31  5-MIN KMKG 260515Z 23012KT 10SM -RA BKN060 OVC070 08/05 A2942 1100 82 500 230/12 RMK AO2 RAB0456 P0000
14840KMKG MKG20050426002012104/26/05 00:20:31  5-MIN KMKG 260520Z 23011KT 10SM -RA BKN060 OVC070 08/05 A2942 1090 82 500 230/11 RMK AO2 RAB0456 P0000
14840KMKG MKG20050426002512104/26/05 00:25:31  5-MIN KMKG 260525Z 22011KT 10SM -RA SCT025 OVC060 07/05 A2942 1090 86 500 220/11 RMK AO2 RAB0456 P0000
14840KMKG MKG20050426003012104/26/05 00:30:31  5-MIN KMKG 260530Z 22010KT 10SM -RA SCT025 OVC060 07/05 A2942 1090 86 500 230/10 RMK AO2 RAB0456 P0000
14840KMKG MKG20050426003512804/26/05 00:35:31  5-MIN KMKG 260535Z 22011KT 10SM -RA FEW025 BKN060 OVC070 07/05 A2943 1090 86 500 220/11 RMK AO2 RAB0456 P0000
14840KMKG MKG20050426004012804/26/05 00:40:31  5-MIN KMKG 260540Z 22011KT 10SM -RA FEW025 SCT050 OVC070 07/05 A2943 1090 86 500 230/11 RMK AO2 RAB0456 P0000
14840KMKG MKG20050426004512104/26/05 00:45:31  5-MIN KMKG 260545Z 23010KT 10SM FEW025 OVC070 07/05  A2943 1090 89 400 230/10 RMK AO2 RAB0456E42 P0000
14840KMKG MKG20050426005016304/26/05 00:50:31  5-MIN KMKG 260550Z 22012KT 10SM FEW025 OVC070 07/05  A2943 1090 89 400 230/12 RMK AO2 RAB0456E42 SLP966 P0000 60000 T00670050  10133 20067 58012
14840KMKG MKG20050426005515504/26/05 00:55:31  5-MIN KMKG 260555Z 22013KT 10SM OVC070 07/05 A2943 1090 89 400 230/13 RMK AO2 RAB0456E42 SLP966 P0000 60000 T00670050 10133 20067  51012
14840KMKG MKG20050426010009604/26/05 01:00:31  5-MIN KMKG 260600Z 22012KT 10SM OVC070 07/04 A2943 1090 86 400 220/12 RMK AO2
14840KMKG MKG20050426010509604/26/05 01:05:31  5-MIN KMKG 260605Z 22013KT 10SM OVC070 07/04 A2943 1090 86 400 230/13 RMK AO2
14840KMKG MKG20050426011009604/26/05 01:10:31  5-MIN KMKG 260610Z 22011KT 10SM OVC070 07/04 A2943 1090 86 400 220/11 RMK AO2
14840KMKG MKG20050426011510404/26/05 01:15:31  5-MIN KMKG 260615Z 22011KT 10SM FEW030 OVC070 07/04  A2943 1090 86 400 220/11 RMK AO2
14840KMKG MKG20050426012010404/26/05 01:20:31  5-MIN KMKG 260620Z 21012KT 10SM FEW030 OVC070 07/04  A2943 1090 86 400 220/12 RMK AO2
14840KMKG MKG20050426012511104/26/05 01:25:31  5-MIN KMKG 260625Z 21014KT 10SM FEW030 SCT060 OVC070  07/04 A2943 1090 86 400 220/14 RMK AO2
14840KMKG MKG20050426013011104/26/05 01:30:31  5-MIN KMKG 260630Z 21014KT 10SM FEW021 BKN060 OVC070  07/04 A2943 1090 86 400 220/14 RMK AO2
14840KMKG MKG20050426013511104/26/05 01:35:31  5-MIN KMKG 260635Z 21015KT 10SM FEW019 BKN034 OVC070  07/05 A2943 1090 86 500 220/15 RMK AO2
14840KMKG MKG20050426014011104/26/05 01:40:31  5-MIN KMKG 260640Z 21014KT 10SM SCT023 BKN032 OVC075  07/05 A2943 1090 86 500 220/14 RMK AO2
14840KMKG MKG20050426014511604/26/05 01:45:31  5-MIN KMKG 260645Z 21016G20KT 10SM FEW023 BKN032 OVC060 07/05 A2943 1090 86 500 210/16G20 RMK AO2
14840KMKG MKG20050426015013304/26/05 01:50:31  5-MIN KMKG 260650Z 21014G24KT 10SM FEW019 BKN034 OVC060 07/05 A2943 1090 86 500 210/14G24 RMK AO2 SLP966 T00720050
14840KMKG MKG20050426015513304/26/05 01:55:31  5-MIN KMKG 260655Z 21015G24KT 10SM FEW019 BKN034 OVC055 07/04 A2943 1090 82 500 210/15G24 RMK AO2 SLP966 T00720044
14840KMKG MKG20050426020011604/26/05 02:00:31  5-MIN KMKG 260700Z 21014G20KT 10SM FEW024 BKN034 OVC055 07/04 A2943 1090 86 400 220/14G20 RMK AO2
14840KMKG MKG20050426020513104/26/05 02:05:31  5-MIN KMKG 260705Z 22016G22KT 10SM FEW022 SCT034 OVC055 07/04 A2943 1090 82 500 220/16G22 RMK AO2 CIG 035 RWY 14
14840KMKG MKG20050426021011604/26/05 02:10:31  5-MIN KMKG 260710Z 21016G22KT 10SM FEW022 SCT034 OVC060 07/04 A2942 1090 82 500 220/16G22 RMK AO2
14840KMKG MKG20050426021510404/26/05 02:15:31  5-MIN KMKG 260715Z 22015KT 10SM FEW022 OVC060 07/04  A2942 1090 86 400 230/15 RMK AO2
14840KMKG MKG20050426022011104/26/05 02:20:31  5-MIN KMKG 260720Z 22016KT 10SM FEW022 BKN060 OVC070  07/04 A2942 1090 86 400 220/16 RMK AO2
14840KMKG MKG20050426022511104/26/05 02:25:31  5-MIN KMKG 260725Z 22014KT 10SM FEW043 BKN060 OVC075  07/04 A2942 1090 86 400 220/14 RMK AO2
14840KMKG MKG20050426023011104/26/05 02:30:31  5-MIN KMKG 260730Z 22015KT 10SM FEW043 SCT060 OVC075  07/04 A2942 1090 86 400 220/15 RMK AO2
14840KMKG MKG20050426023512604/26/05 02:35:31  5-MIN KMKG 260735Z 22013KT 10SM FEW043 SCT060 OVC075  07/04 A2942 1090 86 400 230/13 RMK AO2 CIG 060 RWY 14
14840KMKG MKG20050426024011104/26/05 02:40:31  5-MIN KMKG 260740Z 22012KT 10SM FEW043 BKN060 OVC075  07/04 A2942 1090 86 400 230/12 RMK AO2
14840KMKG MKG20050426024511104/26/05 02:45:31  5-MIN KMKG 260745Z 22015KT 10SM FEW043 BKN060 OVC075  07/04 A2943 1090 86 400 220/15 RMK AO2
14840KMKG MKG20050426025012804/26/05 02:50:31  5-MIN KMKG 260750Z 22013KT 10SM SCT047 BKN060 OVC075  07/04 A2942 1090 86 400 230/13 RMK AO2 SLP966 T00670044
14840KMKG MKG20050426025512804/26/05 02:55:31  5-MIN KMKG 260755Z 23011KT 10SM BKN047 BKN065 OVC075  07/04 A2943 1090 86 400 230/11 RMK AO2 SLP966 T00670044
14840KMKG MKG20050426030010404/26/05 03:00:31  5-MIN KMKG 260800Z 23014KT 10SM BKN049 OVC060 07/04  A2943 1090 82 400 230/14 RMK AO2
14840KMKG MKG20050426030510404/26/05 03:05:31  5-MIN KMKG 260805Z 23011KT 10SM BKN049 OVC060 07/04  A2942 1090 82 400 230/11 RMK AO2
14840KMKG MKG20050426031009604/26/05 03:10:31  5-MIN KMKG 260810Z 23011KT 10SM OVC055 07/04 A2942 1090 82 400 230/11 RMK AO2
14840KMKG MKG20050426031510404/26/05 03:15:31  5-MIN KMKG 260815Z 23012KT 10SM BKN050 OVC060 07/04  A2942 1090 82 400 230/12 RMK AO2
14840KMKG MKG20050426032010404/26/05 03:20:31  5-MIN KMKG 260820Z 23012KT 10SM BKN050 OVC060 07/04  A2942 1090 82 400 230/12 RMK AO2
14840KMKG MKG20050426032510404/26/05 03:25:31  5-MIN KMKG 260825Z 23011KT 10SM BKN055 OVC070 07/04  A2942 1090 82 400 240/11 RMK AO2
14840KMKG MKG20050426033011104/26/05 03:30:31  5-MIN KMKG 260830Z 23012KT 10SM FEW029 BKN055 OVC070  07/04 A2942 1090 82 400 230/12 RMK AO2
14840KMKG MKG20050426033510404/26/05 03:35:31  5-MIN KMKG 260835Z 23012KT 10SM SCT029 OVC065 07/04  A2942 1090 82 400 230/12 RMK AO2
14840KMKG MKG20050426034010404/26/05 03:40:31  5-MIN KMKG 260840Z 23013KT 10SM BKN031 OVC065 07/04  A2942 1090 82 400 240/13 RMK AO2
14840KMKG MKG20050426034510404/26/05 03:45:31  5-MIN KMKG 260845Z 23011KT 10SM BKN031 OVC065 07/04  A2942 1090 82 400 230/11 RMK AO2
14840KMKG MKG20050426035013404/26/05 03:50:31  5-MIN KMKG 260850Z 23012KT 10SM SCT029 BKN034 OVC070  07/04 A2942 1090 82 400 230/12 RMK AO2 SLP965 T00670039 51012
14840KMKG MKG20050426035512704/26/05 03:55:31  5-MIN KMKG 260855Z 23011KT 10SM SCT029 OVC034 07/04  A2942 1090 82 400 240/11 RMK AO2 SLP965 T00670039 58001
14840KMKG MKG20050426040011104/26/05 04:00:31  5-MIN KMKG 260900Z 23012KT 10SM SCT029 BKN034 OVC070  06/04 A2942 1100 86 300 230/12 RMK AO2
14840KMKG MKG20050426040511104/26/05 04:05:31  5-MIN KMKG 260905Z 23012KT 10SM FEW029 BKN034 OVC070  06/04 A2942 1100 86 300 230/12 RMK AO2
14840KMKG MKG20050426041011104/26/05 04:10:31  5-MIN KMKG 260910Z 23012KT 10SM FEW027 SCT034 OVC070  06/04 A2942 1100 86 300 230/12 RMK AO2
14840KMKG MKG20050426041511104/26/05 04:15:31  5-MIN KMKG 260915Z 23012KT 10SM FEW027 SCT034 OVC070  06/04 A2942 1100 86 300 230/12 RMK AO2
14840KMKG MKG20050426042010404/26/05 04:20:31  5-MIN KMKG 260920Z 23011KT 10SM FEW034 OVC075 06/04  A2942 1100 86 300 230/11 RMK AO2
14840KMKG MKG20050426042509604/26/05 04:25:31  5-MIN KMKG 260925Z 23012KT 10SM OVC075 06/04 A2942 1100 86 300 230/12 RMK AO2
14840KMKG MKG20050426043009604/26/05 04:30:31  5-MIN KMKG 260930Z 23011KT 10SM OVC075 06/04 A2942 1100 86 300 230/11 RMK AO2
14840KMKG MKG20050426043509604/26/05 04:35:31  5-MIN KMKG 260935Z 23013KT 10SM OVC075 06/04 A2942 1100 86 300 230/13 RMK AO2
14840KMKG MKG20050426044009604/26/05 04:40:31  5-MIN KMKG 260940Z 23012KT 10SM OVC075 06/04 A2942 1100 86 300 230/12 RMK AO2
14840KMKG MKG20050426044509604/26/05 04:45:31  5-MIN KMKG 260945Z 23012KT 10SM OVC075 06/04 A2942 1100 86 300 240/12 RMK AO2
14840KMKG MKG20050426045011304/26/05 04:50:31  5-MIN KMKG 260950Z 22013KT 10SM OVC075 06/04 A2942 1100 86 300 230/13 RMK AO2 SLP964 T00610039
14840KMKG MKG20050426045511304/26/05 04:55:31  5-MIN KMKG 260955Z 22012KT 10SM OVC075 06/04 A2942 1100 86 300 230/12 RMK AO2 SLP963 T00610039
14840KMKG MKG20050426050009604/26/05 05:00:31  5-MIN KMKG 261000Z 22013KT 10SM OVC075 06/03 A2941 1100 82 300 220/13 RMK AO2
14840KMKG MKG20050426050509604/26/05 05:05:31  5-MIN KMKG 261005Z 23012KT 10SM OVC075 06/03 A2942 1100 82 300 230/12 RMK AO2
14840KMKG MKG20050426051009604/26/05 05:10:31  5-MIN KMKG 261010Z 23014KT 10SM OVC075 06/03 A2941 1100 82 300 230/14 RMK AO2
14840KMKG MKG20050426051509604/26/05 05:15:31  5-MIN KMKG 261015Z 23011KT 10SM OVC075 06/03 A2942 1100 82 300 230/11 RMK AO2
14840KMKG MKG20050426052010404/26/05 05:20:31  5-MIN KMKG 261020Z 23010KT 10SM FEW060 OVC075 06/03  A2942 1100 82 300 230/10 RMK AO2
14840KMKG MKG20050426052510404/26/05 05:25:31  5-MIN KMKG 261025Z 23011KT 10SM SCT060 OVC075 06/03  A2941 1100 82 300 230/11 RMK AO2
14840KMKG MKG20050426053010404/26/05 05:30:31  5-MIN KMKG 261030Z 22011KT 10SM BKN060 OVC075 06/03  A2941 1100 82 300 230/11 RMK AO2
14840KMKG MKG20050426053510404/26/05 05:35:31  5-MIN KMKG 261035Z 22012KT 10SM BKN060 OVC075 06/03  A2942 1100 82 300 230/12 RMK AO2
14840KMKG MKG20050426054010404/26/05 05:40:31  5-MIN KMKG 261040Z 23013KT 10SM BKN060 OVC075 06/03  A2942 1100 82 300 230/13 RMK AO2
14840KMKG MKG20050426054510404/26/05 05:45:31  5-MIN KMKG 261045Z 22011KT 10SM BKN060 OVC080 06/03  A2941 1100 82 300 230/11 RMK AO2
14840KMKG MKG20050426055012104/26/05 05:50:31  5-MIN KMKG 261050Z 22011KT 10SM BKN060 OVC080 06/03  A2942 1100 85 300 230/11 RMK AO2 SLP963 T00560033
14840KMKG MKG20050426055512104/26/05 05:55:31  5-MIN KMKG 261055Z 22012KT 10SM BKN060 OVC080 06/03  A2942 1100 85 300 220/12 RMK AO2 SLP963 T00560033
14840KMKG MKG20050426060009604/26/05 06:00:31  5-MIN KMKG 261100Z 22013KT 10SM OVC060 06/03 A2942 1100 85 300 220/13 RMK AO2
14840KMKG MKG20050426060509604/26/05 06:05:31  5-MIN KMKG 261105Z 23011KT 10SM OVC060 06/03 A2942 1100 85 300 230/11 RMK AO2
14840KMKG MKG20050426061010404/26/05 06:10:31  5-MIN KMKG 261110Z 23012KT 10SM BKN060 BKN080 06/03  A2942 1100 85 300 230/12 RMK AO2
14840KMKG MKG20050426061509604/26/05 06:15:31  5-MIN KMKG 261115Z 22013KT 10SM BKN060 06/03 A2942 1090 85 300 230/13 RMK AO2
14840KMKG MKG20050426062009604/26/05 06:20:31  5-MIN KMKG 261120Z 22012KT 10SM BKN060 06/03 A2942 1090 85 300 220/12 RMK AO2
14840KMKG MKG20050426062509604/26/05 06:25:31  5-MIN KMKG 261125Z 22012KT 10SM SCT065 06/03 A2943 1090 85 300 220/12 RMK AO2
14840KMKG MKG20050426063009604/26/05 06:30:31  5-MIN KMKG 261130Z 22011KT 10SM FEW065 06/03 A2943 1090 85 300 220/11 RMK AO2
14840KMKG MKG20050426063509604/26/05 06:35:31  5-MIN KMKG 261135Z 22013KT 10SM FEW070 06/03 A2943 1090 85 300 220/13 RMK AO2
14840KMKG MKG20050426064009604/26/05 06:40:31  5-MIN KMKG 261140Z 22013KT 10SM FEW070 06/03 A2943 1090 82 300 230/13 RMK AO2
14840KMKG MKG20050426064509904/26/05 06:45:31  5-MIN KMKG 261145Z 23012G18KT 10SM CLR 06/03 A2943 1090 82 300 230/12G18 RMK AO2
14840KMKG MKG20050426065013104/26/05 06:50:31  5-MIN KMKG 261150Z 22014KT 10SM FEW070 06/03 A2943 1090 82 300 230/14 RMK AO2 SLP967 T00610033 10072 20056 58001
14840KMKG MKG20050426065513104/26/05 06:55:31  5-MIN KMKG 261155Z 22013KT 10SM FEW070 06/03 A2943 1090 82 300 230/13 RMK AO2 SLP968 T00610033 10072 20056 53002
14840KMKG MKG20050426070009304/26/05 07:00:31  5-MIN KMKG 261200Z 22012KT 10SM CLR 06/03 A2943 1090 82 300 220/12 RMK AO2
14840KMKG MKG20050426070509304/26/05 07:05:31  5-MIN KMKG 261205Z 22013KT 10SM CLR 06/03 A2943 1090 82 300 230/13 RMK AO2
14840KMKG MKG20050426071009304/26/05 07:10:31  5-MIN KMKG 261210Z 22014KT 10SM CLR 06/03 A2943 1090 82 300 220/14 RMK AO2
14840KMKG MKG20050426071509304/26/05 07:15:31  5-MIN KMKG 261215Z 22012KT 10SM CLR 06/03 A2943 1080 82 300 220/12 RMK AO2
14840KMKG MKG20050426072009304/26/05 07:20:31  5-MIN KMKG 261220Z 22014KT 10SM CLR 07/03 A2943 1090 79 400 220/14 RMK AO2
14840KMKG MKG20050426072509304/26/05 07:25:31  5-MIN KMKG 261225Z 22012KT 10SM CLR 07/03 A2944 1080 79 400 220/12 RMK AO2
14840KMKG MKG20050426073009304/26/05 07:30:31  5-MIN KMKG 261230Z 21012KT 10SM CLR 07/03 A2943 1080 79 400 220/12 RMK AO2
14840KMKG MKG20050426073509304/26/05 07:35:31  5-MIN KMKG 261235Z 22016KT 10SM CLR 07/03 A2944 1080 79 400 220/16 RMK AO2
14840KMKG MKG20050426074009304/26/05 07:40:31  5-MIN KMKG 261240Z 22012KT 10SM CLR 07/03 A2943 1080 79 400 220/12 RMK AO2
14840KMKG MKG20050426074509904/26/05 07:45:31  5-MIN KMKG 261245Z 22016G20KT 10SM CLR 07/03 A2944 1080 76 400 220/16G20 RMK AO2
14840KMKG MKG20050426075011604/26/05 07:50:31  5-MIN KMKG 261250Z 22017G20KT 10SM CLR 08/03 A2944 1080 73 500 220/17G20 RMK AO2 SLP970 T00780033
14840KMKG MKG20050426075511604/26/05 07:55:31  5-MIN KMKG 261255Z 22015G21KT 10SM CLR 07/03 A2944 1080 76 400 230/15G21 RMK AO2 SLP971 T00720033
14840KMKG MKG20050426080009304/26/05 08:00:31  5-MIN KMKG 261300Z 22016KT 10SM CLR 07/03 A2944 1080 76 400 230/16 RMK AO2
14840KMKG MKG20050426080509304/26/05 08:05:31  5-MIN KMKG 261305Z 22014KT 10SM CLR 07/03 A2944 1080 76 400 230/14 RMK AO2
14840KMKG MKG20050426081009304/26/05 08:10:31  5-MIN KMKG 261310Z 22014KT 10SM CLR 08/03 A2944 1070 73 500 230/14 RMK AO2
14840KMKG MKG20050426081509304/26/05 08:15:31  5-MIN KMKG 261315Z 22014KT 10SM CLR 08/03 A2944 1080 73 500 230/14 RMK AO2
14840KMKG MKG20050426082009304/26/05 08:20:31  5-MIN KMKG 261320Z 23014KT 10SM CLR 08/03 A2944 1080 73 500 230/14 RMK AO2
14840KMKG MKG20050426082509304/26/05 08:25:31  5-MIN KMKG 261325Z 22014KT 10SM CLR 08/03 A2944 1080 73 500 220/14 RMK AO2
14840KMKG MKG20050426083009304/26/05 08:30:31  5-MIN KMKG 261330Z 22016KT 10SM CLR 08/03 A2944 1080 70 600 220/16 RMK AO2
14840KMKG MKG20050426083509304/26/05 08:35:31  5-MIN KMKG 261335Z 22015KT 10SM CLR 08/03 A2944 1080 70 600 220/15 RMK AO2
14840KMKG MKG20050426084009304/26/05 08:40:31  5-MIN KMKG 261340Z 22014KT 10SM CLR 08/03 A2944 1080 73 500 230/14 RMK AO2
14840KMKG MKG20050426084509904/26/05 08:45:31  5-MIN KMKG 261345Z 23014G20KT 10SM CLR 08/03 A2944 1080 73 500 230/14G20 RMK AO2
14840KMKG MKG20050426085011004/26/05 08:50:31  5-MIN KMKG 261350Z 21014KT 10SM CLR 08/03 A2944 1080 73 500 220/14 RMK AO2 SLP972 T00780033
14840KMKG MKG20050426085511304/26/05 08:55:31  5-MIN KMKG 261355Z 22013KT 10SM FEW022 08/03 A2944 1080 73 500 220/13 RMK AO2 SLP971 T00780033
14840KMKG MKG20050426090009304/26/05 09:00:31  5-MIN KMKG 261400Z 22015KT 10SM CLR 08/03 A2944 1080 70 600 230/15 RMK AO2
14840KMKG MKG20050426090509304/26/05 09:05:31  5-MIN KMKG 261405Z 22015KT 10SM CLR 08/03 A2944 1080 70 600 220/15 RMK AO2
14840KMKG MKG20050426091009304/26/05 09:10:31  5-MIN KMKG 261410Z 21015KT 10SM CLR 08/03 A2944 1080 70 600 210/15 RMK AO2
14840KMKG MKG20050426091509304/26/05 09:15:31  5-MIN KMKG 261415Z 22016KT 10SM CLR 08/03 A2944 1080 70 600 220/16 RMK AO2
14840KMKG MKG20050426092009304/26/05 09:20:31  5-MIN KMKG 261420Z 22016KT 10SM CLR 08/03 A2944 1080 70 600 220/16 RMK AO2
14840KMKG MKG20050426092509304/26/05 09:25:31  5-MIN KMKG 261425Z 21013KT 10SM CLR 09/03 A2944 1080 68 600 220/13 RMK AO2
14840KMKG MKG20050426093009904/26/05 09:30:31  5-MIN KMKG 261430Z 22015G21KT 10SM CLR 09/03 A2944 1080 68 600 220/15G21 RMK AO2
14840KMKG MKG20050426093509904/26/05 09:35:31  5-MIN KMKG 261435Z 22014G21KT 10SM CLR 09/03 A2944 1080 68 600 230/14G21 RMK AO2
14840KMKG MKG20050426094009304/26/05 09:40:31  5-MIN KMKG 261440Z 22016KT 10SM CLR 09/03 A2944 1080 68 600 230/16 RMK AO2
14840KMKG MKG20050426094509604/26/05 09:45:31  5-MIN KMKG 261445Z 22014KT 10SM FEW042 09/03 A2944 1080 68 600 220/14 RMK AO2
14840KMKG MKG20050426095011904/26/05 09:50:31  5-MIN KMKG 261450Z 22016KT 10SM FEW042 09/03 A2944 1080 68 600 230/16 RMK AO2 SLP971 T00890033 53002
14840KMKG MKG20050426095511904/26/05 09:55:31  5-MIN KMKG 261455Z 23016KT 10SM FEW042 09/03 A2944 1080 65 700 230/16 RMK AO2 SLP971 T00940033 51004
14840KMKG MKG20050426100009904/26/05 10:00:31  5-MIN KMKG 261500Z 23013G20KT 10SM CLR 09/03 A2944 1080 65 700 230/13G20 RMK AO2
14840KMKG MKG20050426100509304/26/05 10:05:31  5-MIN KMKG 261505Z 23015KT 10SM CLR 09/03 A2944 1080 68 600 240/15 RMK AO2
14840KMKG MKG20050426101009304/26/05 10:10:31  5-MIN KMKG 261510Z 23017KT 10SM CLR 09/03 A2944 1070 68 600 230/17 RMK AO2
14840KMKG MKG20050426101509304/26/05 10:15:31  5-MIN KMKG 261515Z 21017KT 10SM CLR 09/03 A2944 1070 68 600 220/17 RMK AO2
14840KMKG MKG20050426102009304/26/05 10:20:31  5-MIN KMKG 261520Z 22017KT 10SM CLR 09/03 A2944 1070 65 700 230/17 RMK AO2
14840KMKG MKG20050426102509304/26/05 10:25:31  5-MIN KMKG 261525Z 22016KT 10SM CLR 09/03 A2944 1070 68 600 230/16 RMK AO2
14840KMKG MKG20050426103009304/26/05 10:30:31  5-MIN KMKG 261530Z 21016KT 10SM CLR 09/03 A2944 1080 65 700 220/16 RMK AO2
14840KMKG MKG20050426103509904/26/05 10:35:31  5-MIN KMKG 261535Z 21015G21KT 10SM CLR 09/03 A2945 1070 65 700 220/15G21 RMK AO2
14840KMKG MKG20050426104009304/26/05 10:40:31  5-MIN KMKG 261540Z 22015KT 10SM CLR 09/03 A2944 1070 65 700 230/15 RMK AO2
14840KMKG MKG20050426104509304/26/05 10:45:31  5-MIN KMKG 261545Z 22016KT 10SM CLR 09/03 A2945 1070 65 700 220/16 RMK AO2
14840KMKG MKG20050426105011304/26/05 10:50:31  5-MIN KMKG 261550Z 22015KT 10SM FEW042 09/03 A2945 1070 65 700 230/15 RMK AO2 SLP973 T00940033
14840KMKG MKG20050426105511304/26/05 10:55:31  5-MIN KMKG 261555Z 22016KT 10SM FEW042 09/03 A2944 1070 65 700 220/16 RMK AO2 SLP973 T00940033
14840KMKG MKG20050426110009304/26/05 11:00:31  5-MIN KMKG 261600Z 22016KT 10SM CLR 09/03 A2945 1070 65 700 230/16 RMK AO2
14840KMKG MKG20050426110509304/26/05 11:05:31  5-MIN KMKG 261605Z 22016KT 10SM CLR 09/03 A2945 1070 65 700 230/16 RMK AO2
14840KMKG MKG20050426111009304/26/05 11:10:31  5-MIN KMKG 261610Z 22016KT 10SM CLR 09/03 A2945 1070 65 700 220/16 RMK AO2
14840KMKG MKG20050426111509304/26/05 11:15:31  5-MIN KMKG 261615Z 22016KT 10SM CLR 09/03 A2945 1070 65 700 220/16 RMK AO2
14840KMKG MKG20050426112009304/26/05 11:20:31  5-MIN KMKG 261620Z 22016KT 10SM CLR 09/03 A2945 1070 65 700 230/16 RMK AO2
14840KMKG MKG20050426112509304/26/05 11:25:31  5-MIN KMKG 261625Z 22016KT 10SM CLR 09/03 A2945 1070 65 700 220/16 RMK AO2
14840KMKG MKG20050426113009304/26/05 11:30:31  5-MIN KMKG 261630Z 22014KT 10SM CLR 09/03 A2945 1070 65 700 220/14 RMK AO2
14840KMKG MKG20050426113509304/26/05 11:35:31  5-MIN KMKG 261635Z 23016KT 10SM CLR 09/03 A2945 1060 65 700 230/16 RMK AO2
14840KMKG MKG20050426114009604/26/05 11:40:31  5-MIN KMKG 261640Z 22015KT 10SM FEW042 09/03 A2945 1060 65 700 220/15 RMK AO2
14840KMKG MKG20050426114509604/26/05 11:45:31  5-MIN KMKG 261645Z 23014KT 10SM FEW042 09/03 A2945 1070 65 700 230/14 RMK AO2
14840KMKG MKG20050426115011304/26/05 11:50:31  5-MIN KMKG 261650Z 22014KT 10SM FEW042 10/03 A2945 1070 63 800 230/14 RMK AO2 SLP975 T01000033
14840KMKG MKG20050426115511304/26/05 11:55:31  5-MIN KMKG 261655Z 23014KT 10SM FEW042 10/03 A2945 1060 60 800 230/14 RMK AO2 SLP976 T01000028
14840KMKG MKG20050426120009304/26/05 12:00:31  5-MIN KMKG 261700Z 22013KT 10SM CLR 11/03 A2945 1070 58 800 230/13 RMK AO2
14840KMKG MKG20050426120509304/26/05 12:05:31  5-MIN KMKG 261705Z 21012KT 10SM CLR 10/03 A2945 1070 60 800 210/12 RMK AO2
14840KMKG MKG20050426121009304/26/05 12:10:31  5-MIN KMKG 261710Z 23013KT 10SM CLR 10/03 A2945 1070 60 800 230/13 RMK AO2
14840KMKG MKG20050426121509304/26/05 12:15:31  5-MIN KMKG 261715Z 22013KT 10SM CLR 11/03 A2945 1070 58 800 220/13 RMK AO2
14840KMKG MKG20050426122009304/26/05 12:20:31  5-MIN KMKG 261720Z 21013KT 10SM CLR 11/03 A2945 1070 58 800 220/13 RMK AO2
14840KMKG MKG20050426122509304/26/05 12:25:31  5-MIN KMKG 261725Z 22015KT 10SM CLR 11/03 A2945 1070 58 800 220/15 RMK AO2
14840KMKG MKG20050426123009304/26/05 12:30:31  5-MIN KMKG 261730Z 22014KT 10SM CLR 10/03 A2945 1070 60 800 220/14 RMK AO2
14840KMKG MKG20050426123509304/26/05 12:35:31  5-MIN KMKG 261735Z 23013KT 10SM CLR 11/03 A2945 1070 58 800 230/13 RMK AO2
14840KMKG MKG20050426124009304/26/05 12:40:31  5-MIN KMKG 261740Z 23013KT 10SM CLR 10/03 A2945 1070 60 800 230/13 RMK AO2
14840KMKG MKG20050426124509604/26/05 12:45:31  5-MIN KMKG 261745Z 22013KT 10SM SCT042 11/03 A2945 1070 58 800 230/13 RMK AO2
14840KMKG MKG20050426125013104/26/05 12:50:31  5-MIN KMKG 261750Z 21013KT 10SM SCT042 11/03 A2945 1070 58 800 210/13 RMK AO2 SLP974 T01060028 10106 20061 51004
14840KMKG MKG20050426125513104/26/05 12:55:31  5-MIN KMKG 261755Z 21014KT 10SM SCT042 11/02 A2945 1070 56 800 220/14 RMK AO2 SLP974 T01060022 10106 20061 50002
14840KMKG MKG20050426130009304/26/05 13:00:31  5-MIN KMKG 261800Z 22014KT 10SM CLR 11/02 A2945 1070 56 800 220/14 RMK AO2
14840KMKG MKG20050426130509304/26/05 13:05:31  5-MIN KMKG 261805Z 22013KT 10SM CLR 11/02 A2945 1070 54 800 220/13 RMK AO2
14840KMKG MKG20050426131009304/26/05 13:10:31  5-MIN KMKG 261810Z 23014KT 10SM CLR 11/02 A2945 1070 54 800 240/14 RMK AO2
14840KMKG MKG20050426131509304/26/05 13:15:31  5-MIN KMKG 261815Z 23013KT 10SM CLR 11/02 A2945 1070 56 800 240/13 RMK AO2
14840KMKG MKG20050426132009304/26/05 13:20:31  5-MIN KMKG 261820Z 22012KT 10SM CLR 11/02 A2945 1070 56 800 220/12 RMK AO2
14840KMKG MKG20050426132509304/26/05 13:25:31  5-MIN KMKG 261825Z 23012KT 10SM CLR 11/02 A2945 1070 56 800 230/12 RMK AO2
14840KMKG MKG20050426133009304/26/05 13:30:31  5-MIN KMKG 261830Z 23013KT 10SM CLR 11/02 A2945 1070 54 900 230/13 RMK AO2
14840KMKG MKG20050426133509304/26/05 13:35:31  5-MIN KMKG 261835Z 23013KT 10SM CLR 11/02 A2945 1070 54 800 230/13 RMK AO2
14840KMKG MKG20050426134009304/26/05 13:40:31  5-MIN KMKG 261840Z 21014KT 10SM CLR 11/02 A2945 1070 54 900 220/14 RMK AO2
14840KMKG MKG20050426134509604/26/05 13:45:31  5-MIN KMKG 261845Z 22012KT 10SM SCT041 11/02 A2945 1070 54 900 220/12 RMK AO2
14840KMKG MKG20050426135011304/26/05 13:50:31  5-MIN KMKG 261850Z 21014KT 10SM SCT041 11/02 A2945 1060 54 800 220/14 RMK AO2 SLP976 T01060017
14840KMKG MKG20050426135511304/26/05 13:55:31  5-MIN KMKG 261855Z 22014KT 10SM SCT041 11/02 A2945 1060 54 800 220/14 RMK AO2 SLP976 T01060017
14840KMKG MKG20050426140009304/26/05 14:00:31  5-MIN KMKG 261900Z 23012KT 10SM CLR 11/02 A2946 1060 54 800 230/12 RMK AO2
14840KMKG MKG20050426140509304/26/05 14:05:31  5-MIN KMKG 261905Z 22014KT 10SM CLR 11/02 A2945 1060 52 900 230/14 RMK AO2
14840KMKG MKG20050426141009304/26/05 14:10:31  5-MIN KMKG 261910Z 23012KT 10SM CLR 11/02 A2945 1060 52 900 230/12 RMK AO2
14840KMKG MKG20050426141509304/26/05 14:15:31  5-MIN KMKG 261915Z 22014KT 10SM CLR 11/01 A2945 1060 50 900 230/14 RMK AO2
14840KMKG MKG20050426142009704/26/05 14:20:31  5-MIN KMKG 261920Z 22013KT 10SM SCT041 12/01 A2946 1060 48 1000 220/13 RMK AO2
14840KMKG MKG20050426142509704/26/05 14:25:31  5-MIN KMKG 261925Z 21013KT 10SM SCT041 12/01 A2945 1060 48 1000 210/13 RMK AO2
14840KMKG MKG20050426143009604/26/05 14:30:31  5-MIN KMKG 261930Z 21013KT 10SM SCT041 11/01 A2945 1060 48 900 210/13 RMK AO2
14840KMKG MKG20050426143509604/26/05 14:35:31  5-MIN KMKG 261935Z 21012KT 10SM SCT041 11/01 A2945 1060 48 900 220/12 RMK AO2
14840KMKG MKG20050426144009604/26/05 14:40:31  5-MIN KMKG 261940Z 23013KT 10SM SCT041 11/01 A2945 1070 48 900 230/13 RMK AO2
14840KMKG MKG20050426144509704/26/05 14:45:31  5-MIN KMKG 261945Z 22012KT 10SM SCT041 12/01 A2945 1070 46 1000 230/12 RMK AO2
14840KMKG MKG20050426145011404/26/05 14:50:31  5-MIN KMKG 261950Z 23012KT 10SM SCT041 12/01 A2945 1070 46 1000 230/12 RMK AO2 SLP974 T01170006
14840KMKG MKG20050426145511304/26/05 14:55:31  5-MIN KMKG 261955Z 23013KT 10SM SCT041 11/01 A2945 1070 48 900 230/13 RMK AO2 SLP974 T01110006
14840KMKG MKG20050426150009604/26/05 15:00:31  5-MIN KMKG 262000Z 23011KT 10SM FEW075 11/01 A2945 1070 48 900 230/11 RMK AO2
14840KMKG MKG20050426150509604/26/05 15:05:31  5-MIN KMKG 262005Z 23012KT 10SM SCT075 11/00 A2945 1070 48 800 230/12 RMK AO2
14840KMKG MKG20050426151009604/26/05 15:10:31  5-MIN KMKG 262010Z 23010KT 10SM SCT075 11/00 A2945 1070 48 800 240/10 RMK AO2
14840KMKG MKG20050426151509604/26/05 15:15:31  5-MIN KMKG 262015Z 23011KT 10SM BKN075 11/00 A2945 1070 48 800 230/11 RMK AO2
14840KMKG MKG20050426152009604/26/05 15:20:31  5-MIN KMKG 262020Z 21010KT 10SM BKN075 11/00 A2945 1070 48 800 220/10 RMK AO2
14840KMKG MKG20050426152509604/26/05 15:25:31  5-MIN KMKG 262025Z 21010KT 10SM BKN075 11/00 A2945 1070 46 900 220/10 RMK AO2
14840KMKG MKG20050426153009604/26/05 15:30:31  5-MIN KMKG 262030Z 23012KT 10SM BKN075 11/00 A2945 1070 46 900 230/12 RMK AO2
14840KMKG MKG20050426153509704/26/05 15:35:31  5-MIN KMKG 262035Z 23010KT 10SM BKN075 11/M01 A2945 1070 44 900 240/10 RMK AO2
14840KMKG MKG20050426154009604/26/05 15:40:31  5-MIN KMKG 262040Z 23011KT 10SM BKN080 11/00 A2945 1070 46 900 230/11 RMK AO2
14840KMKG MKG20050426154509704/26/05 15:45:31  5-MIN KMKG 262045Z 22011KT 10SM SCT080 11/M01 A2945 1070 44 900 220/11 RMK AO2
14840KMKG MKG20050426155012004/26/05 15:50:31  5-MIN KMKG 262050Z 23010KT 10SM BKN080 11/M01 A2945 1070 44 900 230/10 RMK AO2 SLP974 T01111006 50002
14840KMKG MKG20050426155512004/26/05 15:55:31  5-MIN KMKG 262055Z 21010KT 10SM SCT080 12/00 A2945 1070 44 1000 210/10 RMK AO2 SLP974 T01170000 50000
14840KMKG MKG20050426160009704/26/05 16:00:31  5-MIN KMKG 262100Z 22010KT 10SM BKN085 12/00 A2945 1070 44 1000 230/10 RMK AO2
14840KMKG MKG20050426160509804/26/05 16:05:31  5-MIN KMKG 262105Z 23007KT 10SM SCT085 12/M01 A2945 1070 42 1000 230/07 RMK AO2
14840KMKG MKG20050426161009704/26/05 16:10:31  5-MIN KMKG 262110Z 21011KT 10SM SCT085 12/00 A2945 1070 44 1000 210/11 RMK AO2
14840KMKG MKG20050426161509704/26/05 16:15:31  5-MIN KMKG 262115Z 21010KT 10SM SCT085 12/00 A2945 1070 44 1000 210/10 RMK AO2
14840KMKG MKG20050426162009704/26/05 16:20:31  5-MIN KMKG 262120Z 20008KT 10SM FEW085 12/00 A2945 1070 44 1000 210/08 RMK AO2
14840KMKG MKG20050426162509704/26/05 16:25:31  5-MIN KMKG 262125Z 21008KT 10SM FEW085 12/00 A2945 1070 44 1000 210/08 RMK AO2
14840KMKG MKG20050426163009404/26/05 16:30:31  5-MIN KMKG 262130Z 19010KT 10SM CLR 12/00 A2945 1070 44 1000 200/10 RMK AO2
14840KMKG MKG20050426163509404/26/05 16:35:31  5-MIN KMKG 262135Z 20008KT 10SM CLR 12/00 A2945 1070 44 1000 210/08 RMK AO2
14840KMKG MKG20050426164009304/26/05 16:40:31  5-MIN KMKG 262140Z 20009KT 10SM CLR 11/00 A2945 1060 46 900 200/09 RMK AO2
14840KMKG MKG20050426164509704/26/05 16:45:31  5-MIN KMKG 262145Z 23009KT 10SM FEW085 11/M01 A2945 1060 44 900 230/09 RMK AO2
14840KMKG MKG20050426165011504/26/05 16:50:31  5-MIN KMKG 262150Z 22009KT 10SM FEW070 12/M01 A2945 1060 42 1000 230/09 RMK AO2 SLP976 T01171006
14840KMKG MKG20050426165511404/26/05 16:55:31  5-MIN KMKG 262155Z 23009KT 10SM FEW075 11/M01 A2946 1060 46 800 230/09 RMK AO2 SLP977 T01061006
14840KMKG MKG20050426170009704/26/05 17:00:31  5-MIN KMKG 262200Z 24010KT 10SM SCT085 11/M01 A2946 1060 46 800 240/10 RMK AO2
14840KMKG MKG20050426170509704/26/05 17:05:31  5-MIN KMKG 262205Z 21008KT 10SM BKN085 11/M01 A2946 1060 46 800 220/08 RMK AO2
14840KMKG MKG20050426171009704/26/05 17:10:31  5-MIN KMKG 262210Z 22009KT 10SM BKN085 11/M01 A2946 1060 44 900 220/09 RMK AO2
14840KMKG MKG20050426171509704/26/05 17:15:31  5-MIN KMKG 262215Z 22008KT 10SM BKN085 11/M01 A2946 1060 46 800 230/08 RMK AO2
14840KMKG MKG20050426172009704/26/05 17:20:31  5-MIN KMKG 262220Z 21008KT 10SM SCT085 10/M01 A2946 1060 47 800 210/08 RMK AO2
14840KMKG MKG20050426172509704/26/05 17:25:31  5-MIN KMKG 262225Z 20007KT 10SM SCT085 10/M01 A2946 1060 47 800 210/07 RMK AO2
14840KMKG MKG20050426173009604/26/05 17:30:31  5-MIN KMKG 262230Z 22008KT 10SM FEW085 10/00 A2946 1060 49 800 220/08 RMK AO2
14840KMKG MKG20050426173509704/26/05 17:35:31  5-MIN KMKG 262235Z 22009KT 10SM FEW085 10/M01 A2946 1060 47 800 230/09 RMK AO2
14840KMKG MKG20050426174009704/26/05 17:40:31  5-MIN KMKG 262240Z 22008KT 10SM FEW095 10/M01 A2946 1060 47 800 220/08 RMK AO2
14840KMKG MKG20050426174509604/26/05 17:45:31  5-MIN KMKG 262245Z 24006KT 10SM SCT095 10/00 A2946 1060 49 700 240/06 RMK AO2
14840KMKG MKG20050426175011304/26/05 17:50:31  5-MIN KMKG 262250Z 23008KT 10SM BKN100 10/00 A2946 1050 49 700 230/08 RMK AO2 SLP980 T01000000
14840KMKG MKG20050426175511304/26/05 17:55:31  5-MIN KMKG 262255Z 23008KT 10SM BKN100 10/00 A2947 1050 49 700 240/08 RMK AO2 SLP981 T01000000
14840KMKG MKG20050426180009604/26/05 18:00:31  5-MIN KMKG 262300Z 23007KT 10SM BKN100 10/01 A2947 1050 52 700 230/07 RMK AO2
14840KMKG MKG20050426180509604/26/05 18:05:31  5-MIN KMKG 262305Z 25006KT 10SM OVC100 10/01 A2947 1050 52 700 250/06 RMK AO2
14840KMKG MKG20050426181009604/26/05 18:10:31  5-MIN KMKG 262310Z 23008KT 10SM OVC100 10/01 A2947 1050 52 700 230/08 RMK AO2
14840KMKG MKG20050426181509604/26/05 18:15:31  5-MIN KMKG 262315Z 24009KT 10SM BKN100 10/01 A2947 1050 54 700 250/09 RMK AO2
14840KMKG MKG20050426182009604/26/05 18:20:31  5-MIN KMKG 262320Z 24009KT 10SM BKN095 09/01 A2947 1050 56 700 240/09 RMK AO2
14840KMKG MKG20050426182509604/26/05 18:25:31  5-MIN KMKG 262325Z 23008KT 10SM BKN095 09/02 A2947 1050 58 700 240/08 RMK AO2
14840KMKG MKG20050426183009604/26/05 18:30:31  5-MIN KMKG 262330Z 26009KT 10SM SCT095 09/02 A2947 1050 58 700 260/09 RMK AO2
14840KMKG MKG20050426183509604/26/05 18:35:31  5-MIN KMKG 262335Z 25010KT 10SM FEW095 09/02 A2948 1040 63 600 260/10 RMK AO2
14840KMKG MKG20050426184009604/26/05 18:40:31  5-MIN KMKG 262340Z 26008KT 10SM FEW090 08/02 A2948 1040 65 500 260/08 RMK AO2
14840KMKG MKG20050426184509304/26/05 18:45:31  5-MIN KMKG 262345Z 27009KT 10SM CLR 08/02 A2948 1040 65 500 270/09 RMK AO2
14840KMKG MKG20050426185012804/26/05 18:50:31  5-MIN KMKG 262350Z 27009KT 10SM CLR 08/02 A2948 1040 68 500 280/09 RMK AO2 SLP986 T00780022 10117 20078 50000
14840KMKG MKG20050426185513104/26/05 18:55:31  5-MIN KMKG 262355Z 27010KT 10SM FEW100 07/03 A2948 1040 73 400 270/10 RMK AO2 SLP986 T00720028 10117 20072 53011
14840KMKG MKG20050426190009604/26/05 19:00:31  5-MIN KMKG 270000Z 28010KT 10SM FEW110 07/03 A2948 1040 73 400 280/10 RMK AO2
14840KMKG MKG20050426190509604/26/05 19:05:31  5-MIN KMKG 270005Z 29007KT 10SM SCT110 07/03 A2948 1040 73 400 290/07 RMK AO2
14840KMKG MKG20050426191009604/26/05 19:10:31  5-MIN KMKG 270010Z 28007KT 10SM SCT100 07/03 A2948 1040 76 300 280/07 RMK AO2
14840KMKG MKG20050426191509604/26/05 19:15:31  5-MIN KMKG 270015Z 27008KT 10SM FEW100 07/03 A2949 1040 76 300 280/08 RMK AO2
14840KMKG MKG20050426192009604/26/05 19:20:31  5-MIN KMKG 270020Z 28008KT 10SM FEW100 06/03 A2949 1030 79 200 290/08 RMK AO2
14840KMKG MKG20050426192509604/26/05 19:25:31  5-MIN KMKG 270025Z 29007KT 10SM FEW100 06/03 A2949 1030 79 200 290/07 RMK AO2
14840KMKG MKG20050426193009604/26/05 19:30:31  5-MIN KMKG 270030Z 29006KT 10SM FEW100 06/03 A2949 1030 79 200 290/06 RMK AO2
14840KMKG MKG20050426193509304/26/05 19:35:31  5-MIN KMKG 270035Z 29004KT 10SM CLR 06/03 A2949 1030 79 200 300/04 RMK AO2
14840KMKG MKG20050426194009604/26/05 19:40:31  5-MIN KMKG 270040Z 29004KT 10SM SCT060 06/03 A2949 1030 79 200 300/04 RMK AO2
14840KMKG MKG20050426194509604/26/05 19:45:31  5-MIN KMKG 270045Z 29004KT 10SM SCT060 06/03 A2949 1030 82 200 290/04 RMK AO2
14840KMKG MKG20050426195011304/26/05 19:50:31  5-MIN KMKG 270050Z 30003KT 10SM SCT060 06/03 A2949 1030 82 200 300/03 RMK AO2 SLP990 T00560028
14840KMKG MKG20050426195511304/26/05 19:55:31  5-MIN KMKG 270055Z 00000KT 10SM SCT060 06/03 A2949 1030 82 200 000/00 RMK AO2 SLP990 T00560028
14840KMKG MKG20050426200009604/26/05 20:00:31  5-MIN KMKG 270100Z 00000KT 10SM SCT060 06/03 A2949 1030 79 200 000/00 RMK AO2
14840KMKG MKG20050426200509604/26/05 20:05:31  5-MIN KMKG 270105Z 00000KT 10SM BKN055 06/03 A2949 1030 82 200 000/00 RMK AO2
14840KMKG MKG20050426201009604/26/05 20:10:31  5-MIN KMKG 270110Z 00000KT 10SM BKN055 06/03 A2949 1030 82 200 000/00 RMK AO2
14840KMKG MKG20050426201509604/26/05 20:15:31  5-MIN KMKG 270115Z 00000KT 10SM SCT055 06/03 A2950 1030 82 200 000/00 RMK AO2
14840KMKG MKG20050426202009604/26/05 20:20:31  5-MIN KMKG 270120Z 00000KT 10SM FEW055 06/03 A2950 1030 79 200 000/00 RMK AO2
14840KMKG MKG20050426202509604/26/05 20:25:31  5-MIN KMKG 270125Z 00000KT 10SM FEW055 06/03 A2950 1020 79 200 000/00 RMK AO2
14840KMKG MKG20050426203009604/26/05 20:30:31  5-MIN KMKG 270130Z 00000KT 10SM FEW055 06/03 A2950 1020 79 200 000/00 RMK AO2
14840KMKG MKG20050426203509604/26/05 20:35:31  5-MIN KMKG 270135Z 00000KT 10SM FEW060 06/03 A2950 1020 82 200 000/00 RMK AO2
14840KMKG MKG20050426204009404/26/05 20:40:31  5-MIN KMKG 270140Z 00000KT 10SM SCT060 04/02 A2950 1020 85 0 000/00 RMK AO2
14840KMKG MKG20050426204510204/26/05 20:45:31  5-MIN KMKG 270145Z 00000KT 10SM SCT060 SCT110 04/02  A2950 1020 85 0 000/00 RMK AO2
14840KMKG MKG20050426205012104/26/05 20:50:31  5-MIN KMKG 270150Z 00000KT 10SM FEW060 BKN110 05/02  A2951 1020 82 100 000/00 RMK AO2 SLP994 T00500022
14840KMKG MKG20050426205512104/26/05 20:55:31  5-MIN KMKG 270155Z 00000KT 10SM SCT060 BKN110 05/02  A2951 1020 82 100 000/00 RMK AO2 SLP995 T00500022
14840KMKG MKG20050426210010204/26/05 21:00:31  5-MIN KMKG 270200Z 19003KT 10SM BKN060 BKN110 04/02  A2951 1010 85 0 200/03 RMK AO2
14840KMKG MKG20050426210510204/26/05 21:05:31  5-MIN KMKG 270205Z 00000KT 10SM BKN060 OVC110 04/02  A2951 1010 85 0 000/00 RMK AO2
14840KMKG MKG20050426211010404/26/05 21:10:31  5-MIN KMKG 270210Z 22004KT 10SM BKN060 OVC110 05/02  A2951 1010 82 100 220/04 RMK AO2
14840KMKG MKG20050426211510404/26/05 21:15:31  5-MIN KMKG 270215Z 22004KT 10SM BKN060 OVC110 05/03  A2951 1010 85 100 220/04 RMK AO2
14840KMKG MKG20050426212009604/26/05 21:20:31  5-MIN KMKG 270220Z 22003KT 10SM OVC065 05/03 A2951 1010 85 100 220/03 RMK AO2
14840KMKG MKG20050426212509604/26/05 21:25:31  5-MIN KMKG 270225Z 21003KT 10SM OVC065 05/03 A2951 1010 85 100 210/03 RMK AO2
14840KMKG MKG20050426213009604/26/05 21:30:31  5-MIN KMKG 270230Z 23004KT 10SM OVC065 05/03 A2951 1010 85 100 230/04 RMK AO2
14840KMKG MKG20050426213509604/26/05 21:35:31  5-MIN KMKG 270235Z 23005KT 10SM OVC065 05/03 A2952 1010 85 100 240/05 RMK AO2
14840KMKG MKG20050426214009604/26/05 21:40:31  5-MIN KMKG 270240Z 22003KT 10SM OVC065 05/03 A2952 1010 85 100 220/03 RMK AO2
14840KMKG MKG20050426214509604/26/05 21:45:31  5-MIN KMKG 270245Z 22004KT 9SM OVC065 05/03 A2952 1010  85 100 220/04 RMK AO2
14840KMKG MKG20050426215011904/26/05 21:50:31  5-MIN KMKG 270250Z 24005KT 9SM OVC065 05/03 A2952 1000  89 100 250/05 RMK AO2 SLP999 T00500033 53011
14840KMKG MKG20050426215511904/26/05 21:55:31  5-MIN KMKG 270255Z 25005KT 9SM OVC065 05/03 A2952 1000  89 100 260/05 RMK AO2 SLP000 T00500033 53013
14840KMKG MKG20050426220010204/26/05 22:00:31  5-MIN KMKG 270300Z 22003KT 9SM BKN065 OVC080 05/03 A2952 1000 89 100 230/03 RMK AO2
14840KMKG MKG20050426220509604/26/05 22:05:31  5-MIN KMKG 270305Z 22003KT 9SM OVC070 05/03 A2952 1000  89 100 220/03 RMK AO2
14840KMKG MKG20050426221009604/26/05 22:10:31  5-MIN KMKG 270310Z 23003KT 9SM OVC070 05/03 A2952 1000  89 100 230/03 RMK AO2
14840KMKG MKG20050426221510204/26/05 22:15:31  5-MIN KMKG 270315Z 25003KT 8SM BKN070 BKN085 05/03 A2952 1000 89 100 250/03 RMK AO2
14840KMKG MKG20050426222010204/26/05 22:20:31  5-MIN KMKG 270320Z 24003KT 8SM BKN070 BKN085 05/03 A2952 1000 89 100 240/03 RMK AO2
14840KMKG MKG20050426222510204/26/05 22:25:31  5-MIN KMKG 270325Z 21004KT 8SM SCT070 BKN085 05/03 A2952 1000 89 100 220/04 RMK AO2
14840KMKG MKG20050426223010004/26/05 22:30:31  5-MIN KMKG 270330Z 21005KT 8SM FEW070 BKN085 04/03 A2953 1000 89 0 210/05 RMK AO2
14840KMKG MKG20050426223510004/26/05 22:35:31  5-MIN KMKG 270335Z 20004KT 8SM FEW070 BKN085 04/03 A2953 1000 89 0 210/04 RMK AO2
14840KMKG MKG20050426224010004/26/05 22:40:31  5-MIN KMKG 270340Z 22005KT 7SM FEW065 SCT085 04/03 A2953 1000 92 0 230/05 RMK AO2
14840KMKG MKG20050426224509904/26/05 22:45:31  5-MIN KMKG 270345Z 24005KT 7SM FEW065 BKN090 04/02 A2953 990 89 0 240/05 RMK AO2
14840KMKG MKG20050426225012004/26/05 22:50:31  5-MIN KMKG 270350Z 24005KT 6SM BR SCT060 BKN090 04/03  A2953 990 92 0 250/05 RMK AO2 SLP003 T00390028
14840KMKG MKG20050426225512004/26/05 22:55:31  5-MIN KMKG 270355Z 24005KT 6SM BR BKN060 BKN090 04/03  A2953 990 92 0 250/05 RMK AO2 SLP004 T00440033
14840KMKG MKG20050426230011004/26/05 23:00:31  5-MIN KMKG 270400Z 24004KT 6SM BR BKN060 BKN070 BKN090  04/03 A2953 990 92 0 250/04 RMK AO2
14840KMKG MKG20050426230510304/26/05 23:05:31  5-MIN KMKG 270405Z 24005KT 6SM BR BKN065 OVC090 04/03  A2953 990 92 0 250/05 RMK AO2
14840KMKG MKG20050426231009504/26/05 23:10:31  5-MIN KMKG 270410Z 23005KT 6SM BR OVC070 04/03 A2953 990 92 0 240/05 RMK AO2
14840KMKG MKG20050426231509504/26/05 23:15:31  5-MIN KMKG 270415Z 22004KT 6SM BR OVC070 04/03 A2953 990 92 0 230/04 RMK AO2
14840KMKG MKG20050426232009504/26/05 23:20:31  5-MIN KMKG 270420Z 23005KT 6SM BR OVC070 04/03 A2953 990 92 0 230/05 RMK AO2
14840KMKG MKG20050426232509504/26/05 23:25:31  5-MIN KMKG 270425Z 24004KT 6SM BR OVC070 04/04 A2953 990 96 0 240/04 RMK AO2
14840KMKG MKG20050426233009504/26/05 23:30:31  5-MIN KMKG 270430Z 25004KT 5SM BR OVC070 04/04 A2953 990 96 0 260/04 RMK AO2
14840KMKG MKG20050426233509504/26/05 23:35:31  5-MIN KMKG 270435Z 25006KT 6SM BR OVC070 04/04 A2953 990 96 0 260/06 RMK AO2
14840KMKG MKG20050426234009504/26/05 23:40:31  5-MIN KMKG 270440Z 26006KT 6SM BR OVC070 04/03 A2953 990 92 0 270/06 RMK AO2
14840KMKG MKG20050426234509504/26/05 23:45:31  5-MIN KMKG 270445Z 27006KT 6SM BR OVC070 04/03 A2953 990 96 0 270/06 RMK AO2
14840KMKG MKG20050426235012204/26/05 23:50:31  5-MIN KMKG 270450Z 27007KT 6SM BR BKN070 04/03 A2953 990 96 0 270/07 RMK AO2 SLP004 T00390033 401170039
14840KMKG MKG20050426235512204/26/05 23:55:31  5-MIN KMKG 270455Z 27005KT 6SM BR SCT070 04/03 A2953 990 92 0 270/05 RMK AO2 SLP004 T00390028 401170039
14840KMKG MKG20050427000009804/27/05 00:00:32  5-MIN KMKG 270500Z 25005KT 5SM BR SCT070 03/03 A2954 990 96 -100 260/05 RMK AO2
14840KMKG MKG20050427000510604/27/05 00:05:31  5-MIN KMKG 270505Z 25004KT 5SM BR FEW070 SCT090 03/03  A2953 990 96 -100 250/04 RMK AO2
14840KMKG MKG20050427001010604/27/05 00:10:31  5-MIN KMKG 270510Z 26004KT 5SM BR FEW070 BKN090 03/03  A2953 990 96 -100 260/04 RMK AO2
14840KMKG MKG20050427001509804/27/05 00:15:31  5-MIN KMKG 270515Z 25004KT 5SM BR BKN090 03/03 A2953 990 96 -100 260/04 RMK AO2
14840KMKG MKG20050427002009504/27/05 00:20:31  5-MIN KMKG 270520Z 25003KT 5SM BR BKN090 04/03 A2953 990 96 0 260/03 RMK AO2
14840KMKG MKG20050427002509504/27/05 00:25:31  5-MIN KMKG 270525Z 24004KT 5SM BR BKN090 04/03 A2954 990 92 0 240/04 RMK AO2
14840KMKG MKG20050427003009804/27/05 00:30:31  5-MIN KMKG 270530Z 23004KT 5SM BR OVC090 03/03 A2954 990 96 -100 240/04 RMK AO2
14840KMKG MKG20050427003509904/27/05 00:35:31  5-MIN KMKG 270535Z 22005KT 4SM BR OVC090 03/03 A2954 990 100 -200 220/05 RMK AO2
14840KMKG MKG20050427004009804/27/05 00:40:31  5-MIN KMKG 270540Z 22005KT 5SM BR OVC090 03/02 A2954 990 96 -200 220/05 RMK AO2
14840KMKG MKG20050427004510604/27/05 00:45:31  5-MIN KMKG 270545Z 22004KT 5SM BR BKN090 OVC100 03/02  A2954 990 96 -200 230/04 RMK AO2
14840KMKG MKG20050427005014104/27/05 00:50:31  5-MIN KMKG 270550Z 22009KT 5SM BR SCT090 OVC100 03/02  A2954 980 96 -200 220/09 RMK AO2 SLP007 T00280022 10072 20028 53013
14840KMKG MKG20050427005514504/27/05 00:55:31  5-MIN KMKG 270555Z 24009KT 5SM BR FEW007 BKN090 OVC100  04/03 A2954 980 92 0 240/09 RMK AO2 SLP006 T00390028 10072 20028 51006
14840KMKG MKG20050427010011004/27/05 01:00:31  5-MIN KMKG 270600Z 24006KT 6SM BR FEW007 SCT085 OVC100  04/03 A2954 980 96 0 240/06 RMK AO2
14840KMKG MKG20050427010510304/27/05 01:05:31  5-MIN KMKG 270605Z 24005KT 6SM BR FEW007 OVC100 04/03  A2954 990 96 0 250/05 RMK AO2
14840KMKG MKG20050427011009904/27/05 01:10:31  5-MIN KMKG 270610Z 24004KT 7SM FEW007 OVC100 04/03 A2954 990 96 0 240/04 RMK AO2
14840KMKG MKG20050427011509904/27/05 01:15:31  5-MIN KMKG 270615Z 24005KT 7SM FEW007 OVC100 04/03 A2954 990 96 0 240/05 RMK AO2
14840KMKG MKG20050427012009204/27/05 01:20:31  5-MIN KMKG 270620Z 25005KT 8SM OVC100 04/03 A2954 990 96 0 250/05 RMK AO2
14840KMKG MKG20050427012509204/27/05 01:25:31  5-MIN KMKG 270625Z 25005KT 8SM OVC100 04/03 A2953 990 96 0 250/05 RMK AO2
14840KMKG MKG20050427013009204/27/05 01:30:31  5-MIN KMKG 270630Z 26004KT 9SM OVC100 04/03 A2953 990 92 0 260/04 RMK AO2
14840KMKG MKG20050427013509204/27/05 01:35:31  5-MIN KMKG 270635Z 25006KT 9SM OVC095 04/03 A2953 990 92 0 250/06 RMK AO2
14840KMKG MKG20050427014009404/27/05 01:40:31  5-MIN KMKG 270640Z 25006KT 10SM OVC090 04/03 A2953 990  92 0 260/06 RMK AO2
14840KMKG MKG20050427014510104/27/05 01:45:31  5-MIN KMKG 270645Z 27006KT 10SM FEW030 OVC090 04/03  A2953 990 92 0 270/06 RMK AO2
14840KMKG MKG20050427015011804/27/05 01:50:31  5-MIN KMKG 270650Z 26007KT 10SM FEW030 OVC085 04/03  A2953 990 92 0 270/07 RMK AO2 SLP003 T00440033
14840KMKG MKG20050427015513504/27/05 01:55:31  5-MIN KMKG 270655Z 26006KT 10SM -RA FEW032 OVC085 05/03 A2953 990 85 100 270/06 RMK AO2 RAB51 SLP003 P0000 T00500028
14840KMKG MKG20050427020013404/27/05 02:00:31  5-MIN KMKG 270700Z 25006KT 10SM -RA FEW032 SCT065 OVC085 05/03 A2953 990 85 100 260/06 RMK AO2 CIG 065 RWY 14 P0000
14840KMKG MKG20050427020511904/27/05 02:05:31  5-MIN KMKG 270705Z 27006KT 10SM -RA FEW030 BKN060 OVC080 05/03 A2953 990 85 100 270/06 RMK AO2 P0000
14840KMKG MKG20050427021011904/27/05 02:10:31  5-MIN KMKG 270710Z 27007KT 10SM -RA SCT030 BKN050 OVC080 05/03 A2953 990 85 100 270/07 RMK AO2 P0000
14840KMKG MKG20050427021511904/27/05 02:15:31  5-MIN KMKG 270715Z 28008KT 10SM -RA FEW028 BKN039 OVC080 05/03 A2953 990 85 100 280/08 RMK AO2 P0000
14840KMKG MKG20050427022011904/27/05 02:20:31  5-MIN KMKG 270720Z 27009KT 10SM -RA FEW028 BKN039 OVC075 05/03 A2953 990 85 100 270/09 RMK AO2 P0000
14840KMKG MKG20050427022511904/27/05 02:25:31  5-MIN KMKG 270725Z 27007KT 10SM -RA SCT030 BKN041 OVC075 05/03 A2953 990 85 100 270/07 RMK AO2 P0000
14840KMKG MKG20050427023010604/27/05 02:30:31  5-MIN KMKG 270730Z 26006KT 10SM -RA OVC030 05/03 A2954  990 85 100 270/06 RMK AO2 P0000
14840KMKG MKG20050427023510604/27/05 02:35:31  5-MIN KMKG 270735Z 25008KT 10SM -RA OVC030 05/03 A2954  990 85 100 260/08 RMK AO2 P0000
14840KMKG MKG20050427024011904/27/05 02:40:31  5-MIN KMKG 270740Z 26005KT 10SM -RA BKN030 BKN038 OVC070 05/03 A2954 990 85 100 260/05 RMK AO2 P0000
14840KMKG MKG20050427024511204/27/05 02:45:31  5-MIN KMKG 270745Z 25006KT 10SM -RA BKN033 OVC070 05/03 A2954 980 85 100 260/06 RMK AO2 P0000
14840KMKG MKG20050427025012304/27/05 02:50:31  5-MIN KMKG 270750Z 24006KT 10SM -RA OVC033 05/03 A2954  980 89 100 240/06 RMK AO2 SLP007 P0000 T00500033
14840KMKG MKG20050427025512104/27/05 02:55:31  5-MIN KMKG 270755Z 24005KT 10SM -RA OVC033 05/03 A2954  980 89 0 240/05 RMK AO2 SLP007 P0000 T00500033
14840KMKG MKG20050427030010404/27/05 03:00:31  5-MIN KMKG 270800Z 23005KT 10SM -RA OVC033 05/03 A2954  980 89 0 240/05 RMK AO2 P0001
14840KMKG MKG20050427030511004/27/05 03:05:31  5-MIN KMKG 270805Z 24006KT 10SM -RA BKN035 OVC060 05/03 A2954 980 89 0 240/06 RMK AO2 P0001
14840KMKG MKG20050427031011004/27/05 03:10:31  5-MIN KMKG 270810Z 24006KT 10SM -RA BKN035 OVC055 05/03 A2955 980 89 0 240/06 RMK AO2 P0001
14840KMKG MKG20050427031512504/27/05 03:15:31  5-MIN KMKG 270815Z 26008KT 10SM -RA SCT035 OVC060 05/03 A2955 980 85 0 260/08 RMK AO2 CIG 042 RWY 14 P0001
14840KMKG MKG20050427032011304/27/05 03:20:31  5-MIN KMKG 270820Z 25007KT 10SM SCT035 OVC060 05/03  A2955 980 85 0 260/07 RMK AO2 RAE20 P0001
14840KMKG MKG20050427032512004/27/05 03:25:31  5-MIN KMKG 270825Z 25008KT 10SM FEW021 SCT037 OVC060  05/03 A2955 980 85 0 260/08 RMK AO2 RAE20 P0001
14840KMKG MKG20050427033012004/27/05 03:30:31  5-MIN KMKG 270830Z 26007KT 10SM SCT021 SCT039 OVC060  05/03 A2955 970 85 0 270/07 RMK AO2 RAE20 P0001
14840KMKG MKG20050427033513504/27/05 03:35:31  5-MIN KMKG 270835Z 27009KT 10SM SCT021 BKN039 OVC060  05/03 A2955 980 85 0 280/09 RMK AO2 RAE20 CIG 028 RWY 14 P0001
14840KMKG MKG20050427034012004/27/05 03:40:31  5-MIN KMKG 270840Z 28008KT 10SM BKN021 BKN030 OVC060  05/03 A2955 970 85 0 280/08 RMK AO2 RAE20 P0001
14840KMKG MKG20050427034511304/27/05 03:45:31  5-MIN KMKG 270845Z 27009KT 10SM BKN021 OVC060 05/03  A2955 970 85 0 280/09 RMK AO2 RAE20 P0001
14840KMKG MKG20050427035014804/27/05 03:50:31  5-MIN KMKG 270850Z 28011KT 10SM -RA BKN023 OVC060 04/03 A2955 970 89 0 280/11 RMK AO2 RAE20B49 SLP010 P0001 60001 T00440028 51006
14840KMKG MKG20050427035514204/27/05 03:55:31  5-MIN KMKG 270855Z 28011KT 10SM -RA OVC023 04/03 A2955  970 89 0 280/11 RMK AO2 RAE20B49 SLP011 P0001 60001 T00440028 53004
14840KMKG MKG20050427040010404/27/05 04:00:31  5-MIN KMKG 270900Z 28009KT 10SM -RA OVC023 04/03 A2956  970 89 0 280/09 RMK AO2 P0000
14840KMKG MKG20050427040510304/27/05 04:05:31  5-MIN KMKG 270905Z 29010KT 8SM -RA OVC023 04/03 A2956  970 89 0 300/10 RMK AO2 P0000
14840KMKG MKG20050427041010304/27/05 04:10:31  5-MIN KMKG 270910Z 29008KT 8SM -RA OVC023 04/03 A2956  970 89 0 290/08 RMK AO2 P0000
14840KMKG MKG20050427041510404/27/05 04:15:31  5-MIN KMKG 270915Z 29008KT 10SM -RA OVC021 04/03 A2956  970 89 0 300/08 RMK AO2 P0000
14840KMKG MKG20050427042010404/27/05 04:20:31  5-MIN KMKG 270920Z 27007KT 10SM -RA OVC021 04/03 A2956  960 89 0 280/07 RMK AO2 P0000
14840KMKG MKG20050427042510404/27/05 04:25:31  5-MIN KMKG 270925Z 27008KT 10SM -RA OVC021 04/03 A2956  960 89 0 280/08 RMK AO2 P0001
14840KMKG MKG20050427043010404/27/05 04:30:31  5-MIN KMKG 270930Z 28008KT 10SM -RA OVC022 04/03 A2956  960 89 0 290/08 RMK AO2 P0001
14840KMKG MKG20050427043510404/27/05 04:35:31  5-MIN KMKG 270935Z 28007KT 10SM -RA OVC022 04/03 A2956  960 89 0 290/07 RMK AO2 P0001
14840KMKG MKG20050427044010404/27/05 04:40:31  5-MIN KMKG 270940Z 28009KT 10SM -RA OVC022 04/03 A2957  960 89 0 290/09 RMK AO2 P0001
14840KMKG MKG20050427044511004/27/05 04:45:31  5-MIN KMKG 270945Z 28007KT 10SM -RA BKN022 OVC090 04/03 A2957 960 89 0 290/07 RMK AO2 P0001
14840KMKG MKG20050427045014004/27/05 04:50:31  5-MIN KMKG 270950Z 28008KT 10SM FEW018 BKN024 OVC090  04/03 A2957 960 92 -100 280/08 RMK AO2 RAE48 SLP015 P0001 T00390028
14840KMKG MKG20050427045514904/27/05 04:55:31  5-MIN KMKG 270955Z 28007KT 10SM SCT024 OVC090 04/03  A2957 960 92 -100 280/07 RMK AO2 RAE48 CIG 024 RWY 14 SLP015 P0001  T00390028
14840KMKG MKG20050427050010404/27/05 05:00:31  5-MIN KMKG 271000Z 27006KT 10SM SCT022 OVC090 04/03  A2957 960 92 -100 280/06 RMK AO2
14840KMKG MKG20050427050510404/27/05 05:05:31  5-MIN KMKG 271005Z 27005KT 10SM FEW022 OVC090 04/03  A2957 960 92 -100 270/05 RMK AO2
14840KMKG MKG20050427051010404/27/05 05:10:31  5-MIN KMKG 271010Z 26006KT 10SM FEW027 OVC090 04/02  A2957 950 89 -100 270/06 RMK AO2
14840KMKG MKG20050427051511104/27/05 05:15:31  5-MIN KMKG 271015Z 27006KT 10SM FEW012 SCT030 OVC090  04/03 A2957 950 92 -100 270/06 RMK AO2
14840KMKG MKG20050427052011104/27/05 05:20:31  5-MIN KMKG 271020Z 28006KT 10SM FEW012 BKN028 OVC090  04/03 A2958 950 92 -100 280/06 RMK AO2
14840KMKG MKG20050427052511104/27/05 05:25:31  5-MIN KMKG 271025Z 28006KT 10SM FEW012 BKN028 OVC090  04/03 A2958 950 92 -100 280/06 RMK AO2
14840KMKG MKG20050427053012604/27/05 05:30:31  5-MIN KMKG 271030Z 27005KT 10SM FEW012 BKN028 OVC095  04/03 A2958 950 92 -100 280/05 RMK AO2 CIG 022 RWY 14
14840KMKG MKG20050427053512604/27/05 05:35:31  5-MIN KMKG 271035Z 29006KT 10SM FEW012 BKN027 OVC033  04/03 A2958 940 92 -100 290/06 RMK AO2 CIG 022 RWY 14
14840KMKG MKG20050427054011104/27/05 05:40:31  5-MIN KMKG 271040Z 28008KT 10SM FEW012 BKN022 OVC030  04/02 A2958 940 89 -100 280/08 RMK AO2
14840KMKG MKG20050427054511104/27/05 05:45:31  5-MIN KMKG 271045Z 28007KT 10SM FEW012 BKN024 OVC029  04/02 A2959 940 89 -100 290/07 RMK AO2
14840KMKG MKG20050427055012804/27/05 05:50:31  5-MIN KMKG 271050Z 28007KT 10SM FEW012 SCT022 OVC027  04/02 A2959 940 89 -100 280/07 RMK AO2 SLP023 T00390022
14840KMKG MKG20050427055512104/27/05 05:55:31  5-MIN KMKG 271055Z 29006KT 10SM BKN023 OVC029 04/02  A2959 940 89 -100 290/06 RMK AO2 SLP023 T00390022
14840KMKG MKG20050427060010404/27/05 06:00:31  5-MIN KMKG 271100Z 28007KT 10SM FEW022 OVC027 04/02  A2959 940 89 -100 280/07 RMK AO2
14840KMKG MKG20050427060510404/27/05 06:05:31  5-MIN KMKG 271105Z 27006KT 10SM FEW022 OVC027 04/02  A2959 930 89 -100 280/06 RMK AO2
14840KMKG MKG20050427061011104/27/05 06:10:31  5-MIN KMKG 271110Z 27006KT 10SM FEW023 BKN027 OVC090  04/02 A2959 930 89 -100 280/06 RMK AO2
14840KMKG MKG20050427061510404/27/05 06:15:31  5-MIN KMKG 271115Z 27005KT 10SM BKN027 OVC090 04/02  A2960 930 89 -100 280/05 RMK AO2
14840KMKG MKG20050427062010404/27/05 06:20:31  5-MIN KMKG 271120Z 27006KT 10SM BKN027 OVC090 04/02  A2960 930 89 -100 270/06 RMK AO2
14840KMKG MKG20050427062511904/27/05 06:25:31  5-MIN KMKG 271125Z 27005KT 10SM SCT027 OVC090 04/02  A2960 930 89 -100 280/05 RMK AO2 CIG 029 RWY 14
14840KMKG MKG20050427063011904/27/05 06:30:31  5-MIN KMKG 271130Z 26004KT 10SM SCT029 OVC085 04/02  A2960 930 89 -100 270/04 RMK AO2 CIG 029 RWY 14
14840KMKG MKG20050427063512604/27/05 06:35:31  5-MIN KMKG 271135Z 27006KT 10SM FEW029 SCT060 OVC085  04/02 A2960 930 89 -100 270/06 RMK AO2 CIG 029 RWY 14
14840KMKG MKG20050427064012304/27/05 06:40:31  5-MIN KMKG 271140Z 28005KT 10SM SCT029 SCT060 OVC085  04/02 A2960 920 85 0 280/05 RMK AO2 CIG 060 RWY 14
14840KMKG MKG20050427064510804/27/05 06:45:31  5-MIN KMKG 271145Z 28005KT 10SM BKN029 BKN060 OVC090  04/03 A2961 920 89 0 290/05 RMK AO2
14840KMKG MKG20050427065015604/27/05 06:50:31  5-MIN KMKG 271150Z 27005KT 10SM BKN029 BKN060 OVC080  04/02 A2961 920 85 0 280/05 RMK AO2 SLP030 60002 70002 T00440022 10050  20039 53004
14840KMKG MKG20050427065515604/27/05 06:55:31  5-MIN KMKG 271155Z 29006KT 10SM BKN029 BKN045 OVC080  04/02 A2961 920 85 0 290/06 RMK AO2 SLP030 60002 70002 T00440022 10050  20039 53018
14840KMKG MKG20050427070012304/27/05 07:00:31  5-MIN KMKG 271200Z 28006KT 10SM SCT029 BKN045 OVC060  04/02 A2961 920 85 0 280/06 RMK AO2 CIG 029 RWY 14
14840KMKG MKG20050427070510804/27/05 07:05:31  5-MIN KMKG 271205Z 29007KT 10SM SCT029 BKN045 OVC055  04/02 A2961 920 85 0 290/07 RMK AO2
14840KMKG MKG20050427071010804/27/05 07:10:31  5-MIN KMKG 271210Z 28005KT 10SM FEW029 BKN045 OVC080  05/02 A2961 920 82 0 290/05 RMK AO2
14840KMKG MKG20050427071510804/27/05 07:15:31  5-MIN KMKG 271215Z 28005KT 10SM FEW029 BKN045 OVC075  05/02 A2961 920 82 0 280/05 RMK AO2
14840KMKG MKG20050427072010804/27/05 07:20:31  5-MIN KMKG 271220Z 26006KT 10SM BKN045 BKN055 OVC075  05/02 A2961 910 79 0 270/06 RMK AO2
14840KMKG MKG20050427072510104/27/05 07:25:31  5-MIN KMKG 271225Z 27007KT 10SM BKN043 OVC070 05/02  A2961 910 82 0 280/07 RMK AO2
14840KMKG MKG20050427073010804/27/05 07:30:31  5-MIN KMKG 271230Z 28008KT 10SM FEW032 BKN043 OVC070  05/02 A2961 910 79 0 280/08 RMK AO2
14840KMKG MKG20050427073510804/27/05 07:35:31  5-MIN KMKG 271235Z 28007KT 10SM FEW032 BKN043 OVC050  05/02 A2962 910 79 0 280/07 RMK AO2
14840KMKG MKG20050427074010804/27/05 07:40:31  5-MIN KMKG 271240Z 28009KT 10SM FEW030 BKN041 OVC050  05/02 A2962 910 79 0 280/09 RMK AO2
14840KMKG MKG20050427074510104/27/05 07:45:31  5-MIN KMKG 271245Z 27007KT 10SM FEW030 OVC041 05/02  A2962 910 79 0 280/07 RMK AO2
14840KMKG MKG20050427075013604/27/05 07:50:31  5-MIN KMKG 271250Z 27007KT 10SM -RA FEW025 OVC041 04/02 A2962 910 82 -100 270/07 RMK AO2 RAB46 SLP035 P0000 T00440017
14840KMKG MKG20050427075514304/27/05 07:55:31  5-MIN KMKG 271255Z 26007KT 10SM -RA SCT017 SCT025 OVC041 04/02 A2962 910 85 -100 260/07 RMK AO2 RAB46 SLP035 P0000 T00440022
14840KMKG MKG20050427080011304/27/05 08:00:31  5-MIN KMKG 271300Z 27008KT 10SM -RA BKN017 OVC041 04/02 A2962 910 89 -100 270/08 RMK AO2 P0000
14840KMKG MKG20050427080512004/27/05 08:05:31  5-MIN KMKG 271305Z 28008KT 10SM -RA FEW013 BKN017 OVC041 04/02 A2962 910 89 -100 290/08 RMK AO2 P0000
14840KMKG MKG20050427081012004/27/05 08:10:31  5-MIN KMKG 271310Z 30009KT 10SM -RA FEW012 BKN017 OVC041 04/02 A2963 900 89 -100 300/09 RMK AO2 P0000
14840KMKG MKG20050427081511304/27/05 08:15:31  5-MIN KMKG 271315Z 26009KT 8SM -RA SCT012 OVC017 04/02  A2963 900 89 -100 270/09 RMK AO2 P0000
14840KMKG MKG20050427082011604/27/05 08:20:31  5-MIN KMKG 271320Z 28009KT 5SM -RA BR BKN014 OVC019  04/02 A2963 900 89 -100 280/09 RMK AO2 P0001
14840KMKG MKG20050427082511604/27/05 08:25:31  5-MIN KMKG 271325Z 29008KT 4SM -RA BR BKN015 OVC022  04/02 A2963 900 89 -100 290/08 RMK AO2 P0001
14840KMKG MKG20050427083011604/27/05 08:30:31  5-MIN KMKG 271330Z 27006KT 5SM -RA BR SCT011 OVC016  03/02 A2963 900 92 -200 270/06 RMK AO2 P0001
14840KMKG MKG20050427083512304/27/05 08:35:31  5-MIN KMKG 271335Z 28012KT 4SM -RA BR SCT007 BKN012  OVC020 03/02 A2963 900 92 -200 290/12 RMK AO2 P0001
14840KMKG MKG20050427084012804/27/05 08:40:31  5-MIN KMKG 271340Z 27011KT 3SM -RA BR BKN007 OVC014  03/02 A2964 890 92 -200 280/11 RMK AO2 CIG 005V011 P0001
14840KMKG MKG20050427084512804/27/05 08:45:31  5-MIN KMKG 271345Z 28014KT 3SM -RA BR BKN007 OVC014  03/02 A2964 890 92 -200 280/14 RMK AO2 CIG 005V011 P0001
14840KMKG MKG20050427085014504/27/05 08:50:31  5-MIN KMKG 271350Z 28014KT 3SM -RA BR BKN007 OVC014  03/02 A2964 890 96 -300 280/14 RMK AO2 CIG 005V011 SLP041 P0001 T00280022
14840KMKG MKG20050427085513704/27/05 08:55:31  5-MIN KMKG 271355Z 28010KT 4SM -RA BR OVC007 03/02 A2964 890 92 -300 280/10 RMK AO2 CIG 005V011 SLP041 P0002 T00280017
14840KMKG MKG20050427090012004/27/05 09:00:31  5-MIN KMKG 271400Z 28012KT 4SM -RA BR OVC007 03/02 A2964 890 92 -300 280/12 RMK AO2 CIG 005V013 P0000
14840KMKG MKG20050427090512704/27/05 09:05:31  5-MIN KMKG 271405Z 28008G17KT 4SM -RA BR OVC007 03/02  A2964 890 92 -300 280/08G17 RMK AO2 CIG 006V013 P0000
14840KMKG MKG20050427091012004/27/05 09:10:31  5-MIN KMKG 271410Z 28013KT 5SM -RA BR OVC009 03/02 A2964 890 96 -300 280/13 RMK AO2 CIG 006V012 P0001
14840KMKG MKG20050427091512804/27/05 09:15:31  5-MIN KMKG 271415Z 30011KT 6SM -RA BR BKN009 OVC014  03/02 A2964 890 92 -300 300/11 RMK AO2 CIG 006V012 P0001
14840KMKG MKG20050427092012804/27/05 09:20:31  5-MIN KMKG 271420Z 29010KT 6SM -RA BR BKN009 OVC014  03/02 A2965 880 92 -200 290/10 RMK AO2 CIG 007V011 P0001
14840KMKG MKG20050427092512704/27/05 09:25:31  5-MIN KMKG 271425Z 28011G16KT 5SM -RA BR OVC009 03/02  A2965 880 92 -200 290/11G16 RMK AO2 CIG 007V014 P0001
14840KMKG MKG20050427093012004/27/05 09:30:31  5-MIN KMKG 271430Z 27010KT 4SM -RA BR OVC009 03/02 A2965 880 92 -200 270/10 RMK AO2 CIG 007V014 P0001
14840KMKG MKG20050427093512004/27/05 09:35:31  5-MIN KMKG 271435Z 28009KT 5SM -RA BR OVC009 03/02 A2965 880 92 -200 290/09 RMK AO2 CIG 007V014 P0002
14840KMKG MKG20050427094012004/27/05 09:40:31  5-MIN KMKG 271440Z 28010KT 4SM -RA BR OVC009 03/02 A2966 870 92 -200 290/10 RMK AO2 CIG 007V014 P0002
14840KMKG MKG20050427094512004/27/05 09:45:31  5-MIN KMKG 271445Z 28012KT 5SM -RA BR OVC009 03/02 A2966 870 92 -200 290/12 RMK AO2 CIG 007V013 P0002
14840KMKG MKG20050427095013504/27/05 09:50:31  5-MIN KMKG 271450Z 28010KT 7SM -RA OVC011 03/02 A2966  870 92 -200 280/10 RMK AO2 SLP049 P0002 60004 T00330022 53018
14840KMKG MKG20050427095514204/27/05 09:55:31  5-MIN KMKG 271455Z 27012KT 10SM -RA FEW007 OVC013 03/02 A2966 870 92 -200 280/12 RMK AO2 SLP050 P0002 60004 T00330022 53018
14840KMKG MKG20050427100011304/27/05 10:00:31  5-MIN KMKG 271500Z 27011KT 10SM -RA FEW007 OVC013 04/02 A2967 870 89 -200 270/11 RMK AO2 P0000
14840KMKG MKG20050427100510904/27/05 10:05:31  5-MIN KMKG 271505Z 29012KT 10SM OVC013 03/02 A2967 860  89 -300 290/12 RMK AO2 RAE05 P0000
14840KMKG MKG20050427101010904/27/05 10:10:31  5-MIN KMKG 271510Z 27010KT 10SM OVC013 04/02 A2967 860  89 -200 280/10 RMK AO2 RAE05 P0000
14840KMKG MKG20050427101510904/27/05 10:15:31  5-MIN KMKG 271515Z 28011KT 10SM OVC013 04/02 A2967 860  89 -200 280/11 RMK AO2 RAE05 P0000
14840KMKG MKG20050427102010904/27/05 10:20:31  5-MIN KMKG 271520Z 27011KT 10SM OVC013 04/02 A2967 860  85 -200 270/11 RMK AO2 RAE05 P0000
14840KMKG MKG20050427102510904/27/05 10:25:31  5-MIN KMKG 271525Z 28011KT 10SM OVC013 04/02 A2968 850  85 -200 290/11 RMK AO2 RAE05 P0000
14840KMKG MKG20050427103010904/27/05 10:30:31  5-MIN KMKG 271530Z 27012KT 10SM OVC013 04/02 A2968 850  85 -200 270/12 RMK AO2 RAE05 P0000
14840KMKG MKG20050427103510904/27/05 10:35:31  5-MIN KMKG 271535Z 28012KT 10SM OVC013 04/02 A2968 850  89 -200 280/12 RMK AO2 RAE05 P0000
14840KMKG MKG20050427104010904/27/05 10:40:31  5-MIN KMKG 271540Z 27012KT 10SM OVC013 04/02 A2968 850  89 -200 270/12 RMK AO2 RAE05 P0000
14840KMKG MKG20050427104511504/27/05 10:45:31  5-MIN KMKG 271545Z 28010G17KT 10SM OVC013 04/02 A2968  850 89 -200 280/10G17 RMK AO2 RAE05 P0000
14840KMKG MKG20050427105012604/27/05 10:50:31  5-MIN KMKG 271550Z 27011KT 10SM OVC013 04/02 A2968 850  89 -200 270/11 RMK AO2 RAE05 SLP057 P0000 T00390022
14840KMKG MKG20050427105512604/27/05 10:55:31  5-MIN KMKG 271555Z 27011KT 10SM OVC011 04/02 A2969 850  89 -200 280/11 RMK AO2 RAE05 SLP057 P0000 T00390022
14840KMKG MKG20050427110009704/27/05 11:00:31  5-MIN KMKG 271600Z 27011KT 10SM OVC011 04/03 A2969 850  89 -100 270/11 RMK AO2
14840KMKG MKG20050427110512204/27/05 11:05:31  5-MIN KMKG 271605Z 28010G16KT 10SM BKN011 OVC015 04/03  A2969 840 89 -100 290/10G16 RMK AO2 CIG 008V013
14840KMKG MKG20050427111011504/27/05 11:10:31  5-MIN KMKG 271610Z 29012G16KT 10SM OVC009 04/03 A2969  840 89 -100 300/12G16 RMK AO2 CIG 008V014
14840KMKG MKG20050427111510904/27/05 11:15:31  5-MIN KMKG 271615Z 29013KT 10SM OVC009 04/02 A2970 840  85 -100 290/13 RMK AO2 CIG 008V012
14840KMKG MKG20050427112010904/27/05 11:20:31  5-MIN KMKG 271620Z 28013KT 10SM OVC009 04/02 A2970 840  89 -200 280/13 RMK AO2 CIG 008V013
14840KMKG MKG20050427112510904/27/05 11:25:31  5-MIN KMKG 271625Z 29011KT 10SM OVC009 04/03 A2970 840  92 -200 290/11 RMK AO2 CIG 008V012
14840KMKG MKG20050427113010104/27/05 11:30:31  5-MIN KMKG 271630Z 30012G17KT 9SM OVC009 04/02 A2970 840 89 -200 300/12G17 RMK AO2
14840KMKG MKG20050427113512204/27/05 11:35:31  5-MIN KMKG 271635Z 29013KT 5SM -RA BR BKN009 OVC012  04/02 A2970 830 89 -200 290/13 RMK AO2 RAB35 P0000
14840KMKG MKG20050427114013404/27/05 11:40:31  5-MIN KMKG 271640Z 28010KT 4SM -RA BR BKN009 OVC012  04/02 A2971 830 89 -200 290/10 RMK AO2 RAB35 CIG 007V011 P0000
14840KMKG MKG20050427114513304/27/05 11:45:31  5-MIN KMKG 271645Z 29013G18KT 5SM -RA BR OVC009 04/02  A2971 830 89 -200 290/13G18 RMK AO2 RAB35 CIG 007V014 P0000
14840KMKG MKG20050427115015504/27/05 11:50:31  5-MIN KMKG 271650Z 30011G18KT 7SM -RA BKN009 OVC014  04/02 A2971 830 89 -200 300/11G18 RMK AO2 RAB35 CIG 007V012 SLP065 P0000  T00390022
14840KMKG MKG20050427115514804/27/05 11:55:31  5-MIN KMKG 271655Z 29012KT 10SM -RA BKN009 OVC014 04/02 A2971 830 89 -200 290/12 RMK AO2 RAB35 CIG 007V012 SLP065 P0000 T00390022
14840KMKG MKG20050427120011304/27/05 12:00:31  5-MIN KMKG 271700Z 29014G19KT 10SM -RA OVC011 04/02  A2971 820 89 -200 300/14G19 RMK AO2 P0000
14840KMKG MKG20050427120512004/27/05 12:05:31  5-MIN KMKG 271705Z 29015KT 10SM -RA SCT009 BKN012 OVC026 04/02 A2972 820 89 -200 300/15 RMK AO2 P0000
14840KMKG MKG20050427121013204/27/05 12:10:31  5-MIN KMKG 271710Z 30011KT 10SM -RA BKN009 BKN017 OVC030 04/02 A2972 820 89 -200 300/11 RMK AO2 CIG 007V014 P0000
14840KMKG MKG20050427121513104/27/05 12:15:31  5-MIN KMKG 271715Z 29011KT 7SM -RA BKN009 BKN017 OVC026 04/03 A2972 820 89 -200 290/11 RMK AO2 CIG 009V014 P0000
14840KMKG MKG20050427122013704/27/05 12:20:31  5-MIN KMKG 271720Z 29012KT 6SM BR BKN011 BKN017 OVC026  04/03 A2972 810 92 -200 290/12 RMK AO2 RAE16 CIG 009V014 P0000
14840KMKG MKG20050427122512204/27/05 12:25:31  5-MIN KMKG 271725Z 29014KT 7SM SCT011 BKN017 OVC025  04/03 A2972 820 89 -200 290/14 RMK AO2 RAE16 P0000
14840KMKG MKG20050427123013704/27/05 12:30:31  5-MIN KMKG 271730Z 30012KT 9SM SCT011 BKN017 OVC025  05/03 A2972 810 85 -100 300/12 RMK AO2 RAE16 CIG 012 RWY 14 P0000
14840KMKG MKG20050427123512304/27/05 12:35:31  5-MIN KMKG 271735Z 29016KT 10SM FEW009 BKN017 OVC025  05/03 A2972 810 85 -100 290/16 RMK AO2 RAE16 P0000
14840KMKG MKG20050427124012804/27/05 12:40:31  5-MIN KMKG 271740Z 29014G19KT 10SM SCT012 BKN019 OVC025 05/02 A2972 810 82 -100 300/14G19 RMK AO2 RAE16 P0000
14840KMKG MKG20050427124512004/27/05 12:45:31  5-MIN KMKG 271745Z 28012KT 10SM FEW010 SCT016 OVC027  06/02 A2973 810 79 0 290/12 RMK AO2 RAE16 P0000
14840KMKG MKG20050427125016704/27/05 12:50:31  5-MIN KMKG 271750Z 28013G19KT 10SM FEW013 BKN027 OVC036 06/03 A2973 810 79 0 280/13G19 RMK AO2 RAE16 SLP072 P0000 60004 T00610028  10061 20028 53018
14840KMKG MKG20050427125517004/27/05 12:55:31  5-MIN KMKG 271755Z 30014G19KT 10SM FEW017 BKN027 OVC036 06/02 A2973 810 79 -100 310/14G19 RMK AO2 RAE16 SLP072 P0000 60004  T00560022 10061 20028 52023
14840KMKG MKG20050427130011304/27/05 13:00:31  5-MIN KMKG 271800Z 30015G19KT 10SM FEW019 BKN027 OVC036 06/02 A2973 800 73 0 310/15G19 RMK AO2
14840KMKG MKG20050427130510804/27/05 13:05:31  5-MIN KMKG 271805Z 29014KT 10SM FEW019 BKN027 BKN036  06/02 A2974 800 73 0 300/14 RMK AO2
14840KMKG MKG20050427131011304/27/05 13:10:31  5-MIN KMKG 271810Z 28012G18KT 10SM SCT019 SCT029 BKN036 07/02 A2974 800 73 0 290/12G18 RMK AO2
14840KMKG MKG20050427131510704/27/05 13:15:31  5-MIN KMKG 271815Z 29010G16KT 10SM SCT019 BKN036 07/02  A2974 800 73 0 290/10G16 RMK AO2
14840KMKG MKG20050427132010104/27/05 13:20:31  5-MIN KMKG 271820Z 29013KT 10SM SCT019 BKN036 07/02  A2974 800 70 0 290/13 RMK AO2
14840KMKG MKG20050427132510104/27/05 13:25:31  5-MIN KMKG 271825Z 29011KT 10SM SCT019 BKN038 07/02  A2974 800 70 0 300/11 RMK AO2
14840KMKG MKG20050427133010104/27/05 13:30:31  5-MIN KMKG 271830Z 30011KT 10SM SCT019 BKN038 07/02  A2974 800 70 0 300/11 RMK AO2
14840KMKG MKG20050427133511904/27/05 13:35:31  5-MIN KMKG 271835Z 29008KT 240V320 10SM SCT019 BKN038  07/02 A2974 790 68 100 290/08 240V320 RMK AO2
14840KMKG MKG20050427134010304/27/05 13:40:31  5-MIN KMKG 271840Z 27012KT 10SM FEW021 SCT038 07/02  A2975 790 70 100 280/12 RMK AO2
14840KMKG MKG20050427134510304/27/05 13:45:31  5-MIN KMKG 271845Z 29011KT 10SM FEW021 SCT038 07/02  A2975 790 70 100 290/11 RMK AO2
14840KMKG MKG20050427135011304/27/05 13:50:31  5-MIN KMKG 271850Z 29010KT 10SM SCT021 07/01 A2975 790  62 100 300/10 RMK AO2 SLP079 T00720006
14840KMKG MKG20050427135512004/27/05 13:55:31  5-MIN KMKG 271855Z 29009KT 10SM FEW021 SCT036 08/01  A2975 790 62 100 290/09 RMK AO2 SLP078 T00780011
14840KMKG MKG20050427140009304/27/05 14:00:31  5-MIN KMKG 271900Z 27009KT 10SM CLR 08/01 A2975 780 62  100 270/09 RMK AO2
14840KMKG MKG20050427140509304/27/05 14:05:31  5-MIN KMKG 271905Z 28007KT 10SM CLR 08/01 A2976 780 62  100 290/07 RMK AO2
14840KMKG MKG20050427141009304/27/05 14:10:31  5-MIN KMKG 271910Z 30011KT 10SM CLR 08/01 A2976 780 60  100 300/11 RMK AO2
14840KMKG MKG20050427141509904/27/05 14:15:31  5-MIN KMKG 271915Z 29011G16KT 10SM CLR 08/01 A2976 780  60 100 290/11G16 RMK AO2
14840KMKG MKG20050427142010204/27/05 14:20:31  5-MIN KMKG 271920Z 28011G17KT 10SM SCT036 08/01 A2976  780 60 100 280/11G17 RMK AO2
14840KMKG MKG20050427142510204/27/05 14:25:31  5-MIN KMKG 271925Z 30010G17KT 10SM SCT036 07/01 A2976  770 62 100 300/10G17 RMK AO2
14840KMKG MKG20050427143009604/27/05 14:30:31  5-MIN KMKG 271930Z 27009KT 10SM SCT036 08/01 A2977 770  60 100 270/09 RMK AO2
14840KMKG MKG20050427143509604/27/05 14:35:31  5-MIN KMKG 271935Z 25011KT 10SM SCT036 08/01 A2977 770  62 100 250/11 RMK AO2
14840KMKG MKG20050427144009604/27/05 14:40:31  5-MIN KMKG 271940Z 26011KT 10SM SCT036 07/01 A2977 770  62 100 260/11 RMK AO2
14840KMKG MKG20050427144510204/27/05 14:45:31  5-MIN KMKG 271945Z 27010G16KT 10SM SCT036 07/01 A2977  770 62 100 270/10G16 RMK AO2
14840KMKG MKG20050427145011904/27/05 14:50:31  5-MIN KMKG 271950Z 27011G15KT 10SM SCT036 07/01 A2977  770 62 100 280/11G15 RMK AO2 SLP085 T00720006
14840KMKG MKG20050427145511904/27/05 14:55:31  5-MIN KMKG 271955Z 26008G15KT 10SM SCT060 07/01 A2977  770 62 100 270/08G15 RMK AO2 SLP086 T00720006
14840KMKG MKG20050427150009604/27/05 15:00:31  5-MIN KMKG 272000Z 25008KT 10SM BKN060 07/01 A2977 770  65 100 260/08 RMK AO2
14840KMKG MKG20050427150509404/27/05 15:05:31  5-MIN KMKG 272005Z 26008KT 10SM BKN060 07/01 A2977 770  65 0 260/08 RMK AO2
14840KMKG MKG20050427151011204/27/05 15:10:31  5-MIN KMKG 272010Z 25007KT 210V280 10SM BKN060 07/01  A2977 770 65 100 250/07 210V280 RMK AO2
14840KMKG MKG20050427151509404/27/05 15:15:31  5-MIN KMKG 272015Z 27008KT 10SM OVC060 07/01 A2977 770  65 0 270/08 RMK AO2
14840KMKG MKG20050427152009404/27/05 15:20:31  5-MIN KMKG 272020Z 23008KT 10SM OVC060 07/01 A2977 770  65 0 230/08 RMK AO2
14840KMKG MKG20050427152509404/27/05 15:25:31  5-MIN KMKG 272025Z 25007KT 10SM OVC060 07/01 A2978 760  65 0 260/07 RMK AO2
14840KMKG MKG20050427153009404/27/05 15:30:31  5-MIN KMKG 272030Z 24008KT 10SM OVC060 07/01 A2978 760  65 0 250/08 RMK AO2
14840KMKG MKG20050427153509404/27/05 15:35:31  5-MIN KMKG 272035Z 24008KT 10SM OVC060 07/00 A2978 760  62 0 240/08 RMK AO2
14840KMKG MKG20050427154009404/27/05 15:40:31  5-MIN KMKG 272040Z 25009KT 10SM OVC060 07/00 A2978 760  62 0 250/09 RMK AO2
14840KMKG MKG20050427154509404/27/05 15:45:31  5-MIN KMKG 272045Z 24008KT 10SM OVC060 07/00 A2978 760  62 0 240/08 RMK AO2
14840KMKG MKG20050427155011704/27/05 15:50:31  5-MIN KMKG 272050Z 23008KT 10SM OVC060 07/00 A2978 760  62 0 230/08 RMK AO2 SLP089 T00670000 52023
14840KMKG MKG20050427155511704/27/05 15:55:31  5-MIN KMKG 272055Z 23010KT 10SM OVC060 07/00 A2978 760  62 0 240/10 RMK AO2 SLP090 T00670000 51018
14840KMKG MKG20050427160009404/27/05 16:00:31  5-MIN KMKG 272100Z 22011KT 10SM OVC060 06/00 A2979 760  65 0 220/11 RMK AO2
14840KMKG MKG20050427160509404/27/05 16:05:31  5-MIN KMKG 272105Z 23010KT 10SM OVC060 06/00 A2979 760  65 0 230/10 RMK AO2
14840KMKG MKG20050427161009404/27/05 16:10:31  5-MIN KMKG 272110Z 23008KT 10SM OVC065 06/00 A2979 750  65 0 230/08 RMK AO2
14840KMKG MKG20050427161509404/27/05 16:15:31  5-MIN KMKG 272115Z 23008KT 10SM OVC065 06/00 A2979 750  65 0 240/08 RMK AO2
14840KMKG MKG20050427162009404/27/05 16:20:31  5-MIN KMKG 272120Z 22008KT 10SM OVC065 06/01 A2979 750  67 0 230/08 RMK AO2
14840KMKG MKG20050427162509404/27/05 16:25:31  5-MIN KMKG 272125Z 22009KT 10SM OVC065 06/00 A2979 750  65 0 230/09 RMK AO2
14840KMKG MKG20050427163009404/27/05 16:30:31  5-MIN KMKG 272130Z 21008KT 10SM OVC065 06/01 A2979 750  67 0 210/08 RMK AO2
14840KMKG MKG20050427163509404/27/05 16:35:31  5-MIN KMKG 272135Z 20008KT 10SM OVC065 06/01 A2979 750  67 0 210/08 RMK AO2
14840KMKG MKG20050427164009404/27/05 16:40:31  5-MIN KMKG 272140Z 21008KT 10SM OVC065 06/01 A2979 750  70 0 210/08 RMK AO2
14840KMKG MKG20050427164509404/27/05 16:45:31  5-MIN KMKG 272145Z 20010KT 10SM OVC065 06/01 A2979 750  67 0 210/10 RMK AO2
14840KMKG MKG20050427165011104/27/05 16:50:31  5-MIN KMKG 272150Z 22008KT 10SM OVC070 06/01 A2979 750  67 0 220/08 RMK AO2 SLP091 T00610006
14840KMKG MKG20050427165511104/27/05 16:55:31  5-MIN KMKG 272155Z 21007KT 10SM OVC070 06/00 A2979 750  65 0 220/07 RMK AO2 SLP092 T00610000
14840KMKG MKG20050427170009704/27/05 17:00:31  5-MIN KMKG 272200Z 22008KT 10SM OVC070 06/00 A2979 750  65 -100 220/08 RMK AO2
14840KMKG MKG20050427170509704/27/05 17:05:31  5-MIN KMKG 272205Z 21010KT 10SM OVC065 06/00 A2979 750  65 -100 210/10 RMK AO2
14840KMKG MKG20050427171009704/27/05 17:10:31  5-MIN KMKG 272210Z 21009KT 10SM OVC070 06/00 A2979 750  65 -100 220/09 RMK AO2
14840KMKG MKG20050427171509704/27/05 17:15:31  5-MIN KMKG 272215Z 22008KT 10SM OVC070 06/00 A2979 750  65 -100 220/08 RMK AO2
14840KMKG MKG20050427172009704/27/05 17:20:31  5-MIN KMKG 272220Z 20007KT 10SM OVC070 06/00 A2979 750  65 -100 210/07 RMK AO2
14840KMKG MKG20050427172509704/27/05 17:25:31  5-MIN KMKG 272225Z 20008KT 10SM OVC070 06/00 A2979 750  65 -100 200/08 RMK AO2
14840KMKG MKG20050427173009704/27/05 17:30:31  5-MIN KMKG 272230Z 21009KT 10SM OVC070 06/00 A2979 750  67 -100 210/09 RMK AO2
14840KMKG MKG20050427173509704/27/05 17:35:31  5-MIN KMKG 272235Z 22008KT 10SM OVC065 06/00 A2979 750  67 -100 220/08 RMK AO2
14840KMKG MKG20050427174009704/27/05 17:40:31  5-MIN KMKG 272240Z 21008KT 10SM OVC070 06/00 A2979 750  65 -100 220/08 RMK AO2
14840KMKG MKG20050427174509704/27/05 17:45:31  5-MIN KMKG 272245Z 21008KT 10SM OVC070 06/00 A2980 750  65 -100 220/08 RMK AO2
14840KMKG MKG20050427175011404/27/05 17:50:31  5-MIN KMKG 272250Z 20008KT 10SM OVC070 06/00 A2980 740  67 -100 210/08 RMK AO2 SLP094 T00560000
14840KMKG MKG20050427175511404/27/05 17:55:31  5-MIN KMKG 272255Z 21009KT 10SM OVC065 06/00 A2980 740  67 -100 210/09 RMK AO2 SLP095 T00560000
14840KMKG MKG20050427180009704/27/05 18:00:31  5-MIN KMKG 272300Z 21008KT 10SM OVC070 06/01 A2980 740  70 -100 220/08 RMK AO2
14840KMKG MKG20050427180509704/27/05 18:05:31  5-MIN KMKG 272305Z 21008KT 10SM OVC070 06/01 A2980 740  70 -100 210/08 RMK AO2
14840KMKG MKG20050427181009704/27/05 18:10:31  5-MIN KMKG 272310Z 20009KT 10SM OVC070 06/01 A2980 740  70 -100 200/09 RMK AO2
14840KMKG MKG20050427181510404/27/05 18:15:31  5-MIN KMKG 272315Z 20007KT 10SM SCT060 OVC075 06/01  A2980 740 70 -100 210/07 RMK AO2
14840KMKG MKG20050427182009704/27/05 18:20:31  5-MIN KMKG 272320Z 21008KT 10SM OVC070 06/01 A2980 740  70 -100 210/08 RMK AO2
14840KMKG MKG20050427182510404/27/05 18:25:31  5-MIN KMKG 272325Z 20006KT 10SM SCT055 OVC075 06/01  A2980 740 70 -100 200/06 RMK AO2
14840KMKG MKG20050427183010404/27/05 18:30:31  5-MIN KMKG 272330Z 19006KT 10SM SCT055 OVC075 06/01  A2980 740 70 -100 200/06 RMK AO2
14840KMKG MKG20050427183510404/27/05 18:35:31  5-MIN KMKG 272335Z 21006KT 10SM SCT055 OVC080 06/01  A2980 740 70 -100 210/06 RMK AO2
14840KMKG MKG20050427184011104/27/05 18:40:31  5-MIN KMKG 272340Z 20007KT 10SM FEW055 BKN070 OVC085  06/01 A2980 740 73 -100 210/07 RMK AO2
14840KMKG MKG20050427184511104/27/05 18:45:31  5-MIN KMKG 272345Z 20008KT 10SM SCT060 BKN070 OVC085  06/01 A2981 730 70 -100 210/08 RMK AO2
14840KMKG MKG20050427185013904/27/05 18:50:31  5-MIN KMKG 272350Z 21009KT 10SM BKN065 OVC085 06/01  A2981 730 70 -100 210/09 RMK AO2 SLP098 T00560006 10078 20056 51018
14840KMKG MKG20050427185514604/27/05 18:55:31  5-MIN KMKG 272355Z 21007KT 10SM FEW050 BKN065 OVC085  06/01 A2981 730 73 -100 210/07 RMK AO2 SLP098 T00560011 10078 20056 53008
14840KMKG MKG20050427190011104/27/05 19:00:31  5-MIN KMKG 280000Z 19008KT 10SM FEW050 BKN070 OVC085  06/01 A2981 740 73 -100 200/08 RMK AO2
14840KMKG MKG20050427190511904/27/05 19:05:31  5-MIN KMKG 280005Z 20006KT 10SM -RA BKN065 OVC085 06/01 A2981 740 73 -100 200/06 RMK AO2 RAB05 P0000
14840KMKG MKG20050427191011304/27/05 19:10:31  5-MIN KMKG 280010Z 19007KT 10SM -RA BKN065 06/01 A2980  740 73 -100 190/07 RMK AO2 RAB05 P0000
14840KMKG MKG20050427191512604/27/05 19:15:31  5-MIN KMKG 280015Z 19007KT 10SM -RA BKN065 BKN080 OVC090 06/01 A2980 740 73 -100 200/07 RMK AO2 RAB05 P0000
14840KMKG MKG20050427192012604/27/05 19:20:31  5-MIN KMKG 280020Z 19006KT 10SM SCT060 SCT080 OVC090  05/01 A2980 740 76 -200 190/06 RMK AO2 RAB05E18 P0000
14840KMKG MKG20050427192512604/27/05 19:25:31  5-MIN KMKG 280025Z 19006KT 10SM FEW060 SCT075 BKN090  05/01 A2980 740 76 -200 200/06 RMK AO2 RAB05E18 P0000
14840KMKG MKG20050427193011904/27/05 19:30:31  5-MIN KMKG 280030Z 19006KT 10SM FEW060 BKN090 05/01  A2981 740 76 -200 190/06 RMK AO2 RAB05E18 P0000
14840KMKG MKG20050427193511204/27/05 19:35:31  5-MIN KMKG 280035Z 19006KT 10SM BKN090 05/01 A2981 740  76 -200 190/06 RMK AO2 RAB05E18 P0000
14840KMKG MKG20050427194011904/27/05 19:40:31  5-MIN KMKG 280040Z 20006KT 10SM FEW070 BKN090 05/01  A2981 730 76 -200 200/06 RMK AO2 RAB05E18 P0000
14840KMKG MKG20050427194511904/27/05 19:45:31  5-MIN KMKG 280045Z 19005KT 10SM SCT070 BKN090 05/01  A2980 740 76 -200 190/05 RMK AO2 RAB05E18 P0000
14840KMKG MKG20050427195015204/27/05 19:50:31  5-MIN KMKG 280050Z 18004KT 10SM SCT070 BKN090 04/01  A2980 740 79 -300 190/04 RMK AO2 RAB05E18 CIG 070 RWY 14 SLP098 P0000  T00440011
14840KMKG MKG20050427195513604/27/05 19:55:31  5-MIN KMKG 280055Z 18005KT 10SM SCT070 BKN090 04/01  A2980 740 79 -300 190/05 RMK AO2 RAB05E18 SLP097 P0000 T00440011
14840KMKG MKG20050427200011104/27/05 20:00:31  5-MIN KMKG 280100Z 18005KT 10SM FEW060 SCT070 BKN090  04/01 A2981 740 79 -300 190/05 RMK AO2
14840KMKG MKG20050427200511104/27/05 20:05:31  5-MIN KMKG 280105Z 18005KT 10SM SCT065 SCT080 BKN090  04/01 A2981 740 79 -300 180/05 RMK AO2
14840KMKG MKG20050427201010404/27/05 20:10:31  5-MIN KMKG 280110Z 18005KT 10SM BKN065 BKN085 05/02  A2981 740 79 -200 190/05 RMK AO2
14840KMKG MKG20050427201511104/27/05 20:15:31  5-MIN KMKG 280115Z 18006KT 10SM BKN060 BKN070 BKN090  05/02 A2980 740 79 -200 180/06 RMK AO2
14840KMKG MKG20050427202012604/27/05 20:20:31  5-MIN KMKG 280120Z 18005KT 10SM -RA BKN060 BKN070 BKN090 05/02 A2981 730 79 -200 190/05 RMK AO2 RAB18 P0000
14840KMKG MKG20050427202512604/27/05 20:25:31  5-MIN KMKG 280125Z 18006KT 10SM -RA BKN060 BKN070 OVC090 05/02 A2981 730 79 -200 190/06 RMK AO2 RAB18 P0000
14840KMKG MKG20050427203012604/27/05 20:30:31  5-MIN KMKG 280130Z 17005KT 10SM BKN060 BKN070 OVC090  05/02 A2981 740 79 -200 180/05 RMK AO2 RAB18E29 P0000
14840KMKG MKG20050427203511904/27/05 20:35:31  5-MIN KMKG 280135Z 16006KT 10SM BKN060 OVC075 06/02  A2980 740 76 -100 170/06 RMK AO2 RAB18E29 P0000
14840KMKG MKG20050427204011904/27/05 20:40:31  5-MIN KMKG 280140Z 17007KT 10SM FEW055 OVC070 05/02  A2980 740 79 -200 170/07 RMK AO2 RAB18E29 P0000
14840KMKG MKG20050427204512604/27/05 20:45:31  5-MIN KMKG 280145Z 16007KT 10SM FEW050 SCT060 OVC070  06/02 A2980 740 76 -100 170/07 RMK AO2 RAB18E29 P0000
14840KMKG MKG20050427205014304/27/05 20:50:31  5-MIN KMKG 280150Z 21005KT 10SM SCT047 SCT055 OVC070  06/02 A2981 730 76 -100 210/05 RMK AO2 RAB18E29 SLP100 P0000 T00560017
14840KMKG MKG20050427205515104/27/05 20:55:31  5-MIN KMKG 280155Z 27006KT 10SM FEW025 BKN045 OVC070  06/02 A2982 720 79 -200 270/06 RMK AO2 RAB18E29 PRESRR SLP105 P0000  T00560022
14840KMKG MKG20050427210013404/27/05 21:00:31  5-MIN KMKG 280200Z 26009KT 6SM -RA SCT023 BKN045 OVC070 06/02 A2984 710 79 -200 270/09 RMK AO2 RAB0158 PRESRR P0000
14840KMKG MKG20050427210513404/27/05 21:05:31  5-MIN KMKG 280205Z 24011KT 5SM -RA SCT021 BKN031 OVC070 05/02 A2984 700 82 -200 250/11 RMK AO2 RAB0158 PRESRR P0002
14840KMKG MKG20050427211013404/27/05 21:10:31  5-MIN KMKG 280210Z 25010G16KT 6SM -RA SCT021 BKN029  OVC046 05/02 A2985 700 82 -300 250/10G16 RMK AO2 RAB0158 P0003
14840KMKG MKG20050427211512704/27/05 21:15:31  5-MIN KMKG 280215Z 25013KT 4SM RA BKN019 BKN027 OVC046  05/02 A2985 690 82 -300 250/13 RMK AO2 RAB0158 P0003
14840KMKG MKG20050427212013604/27/05 21:20:31  5-MIN KMKG 280220Z 26011G17KT 4SM RA BR BKN017 BKN027  OVC032 04/02 A2986 690 85 -300 260/11G17 RMK AO2 RAB0158 P0006
14840KMKG MKG20050427212512204/27/05 21:25:31  5-MIN KMKG 280225Z 27012KT 4SM RA BR BKN017 OVC027 04/02 A2986 690 89 -400 270/12 RMK AO2 RAB0158 P0008
14840KMKG MKG20050427213014304/27/05 21:30:31  5-MIN KMKG 280230Z 27015G21KT 4SM RA BR FEW012 BKN017  OVC029 04/02 A2987 680 89 -400 270/15G21 RMK AO2 RAB0158 PRESRR P0010
14840KMKG MKG20050427213514404/27/05 21:35:31  5-MIN KMKG 280235Z 27013G21KT 4SM RA BR SCT012 OVC017  03/02 A2987 680 89 -500 280/13G21 RMK AO2 RAB0158 CIG 012 RWY 14 P0012
14840KMKG MKG20050427214012904/27/05 21:40:31  5-MIN KMKG 280240Z 27014G21KT 4SM RA BR BKN012 OVC017  03/01 A2987 680 89 -600 270/14G21 RMK AO2 RAB0158 P0014
14840KMKG MKG20050427214515304/27/05 21:45:31  5-MIN KMKG 280245Z 27005G20KT 5SM -RA BR SCT012 BKN018  OVC026 03/02 A2986 690 92 -500 280/05G20 RMK AO2 RAB0158 CIG 012 RWY 14  P0015
14840KMKG MKG20050427215015804/27/05 21:50:31  5-MIN KMKG 280250Z 27008KT 10SM -RA SCT012 BKN036 OVC075 03/02 A2986 680 92 -500 270/08 RMK AO2 RAB0158 SLP118 P0015 60015  T00280017 53008
14840KMKG MKG20050427215517304/27/05 21:55:31  5-MIN KMKG 280255Z 27009KT 10SM SCT012 BKN041 OVC080  03/02 A2987 680 89 -500 270/09 RMK AO2 RAB0158E54 CIG 032 RWY 14 SLP119  P0015 60015 T00330017 53020
14840KMKG MKG20050427220011104/27/05 22:00:31  5-MIN KMKG 280300Z 28007KT 10SM FEW012 BKN037 OVC080  03/02 A2987 680 89 -500 280/07 RMK AO2
14840KMKG MKG20050427220511104/27/05 22:05:31  5-MIN KMKG 280305Z 27008KT 10SM FEW012 BKN037 BKN080  03/02 A2987 680 89 -500 280/08 RMK AO2
14840KMKG MKG20050427221011104/27/05 22:10:31  5-MIN KMKG 280310Z 28010KT 10SM SCT035 BKN042 BKN080  03/02 A2987 680 92 -500 280/10 RMK AO2
14840KMKG MKG20050427221510404/27/05 22:15:31  5-MIN KMKG 280315Z 28009KT 10SM SCT035 BKN080 03/02  A2987 680 92 -500 280/09 RMK AO2
14840KMKG MKG20050427222011004/27/05 22:20:31  5-MIN KMKG 280320Z 28008KT 9SM SCT035 BKN041 BKN080  03/02 A2987 680 92 -500 280/08 RMK AO2
14840KMKG MKG20050427222511004/27/05 22:25:31  5-MIN KMKG 280325Z 27008KT 9SM FEW035 SCT041 SCT085  03/02 A2987 680 92 -500 280/08 RMK AO2
14840KMKG MKG20050427223009504/27/05 22:30:31  5-MIN KMKG 280330Z 27008KT 9SM FEW035 03/02 A2987 680 92 -500 280/08 RMK AO2
14840KMKG MKG20050427223509504/27/05 22:35:31  5-MIN KMKG 280335Z 27008KT 9SM FEW035 03/02 A2987 680 89 -500 280/08 RMK AO2
14840KMKG MKG20050427224009704/27/05 22:40:31  5-MIN KMKG 280340Z 28007KT 10SM FEW033 03/02 A2987 680  89 -500 280/07 RMK AO2
14840KMKG MKG20050427224509404/27/05 22:45:31  5-MIN KMKG 280345Z 28010KT 10SM CLR 03/02 A2987 680 89  -500 280/10 RMK AO2
14840KMKG MKG20050427225011704/27/05 22:50:31  5-MIN KMKG 280350Z 28013G18KT 10SM CLR 03/01 A2987 670  82 -500 290/13G18 RMK AO2 SLP121 T00330006
14840KMKG MKG20050427225511704/27/05 22:55:31  5-MIN KMKG 280355Z 28011G18KT 10SM CLR 03/01 A2987 670  82 -500 280/11G18 RMK AO2 SLP122 T00330006
14840KMKG MKG20050427230009404/27/05 23:00:31  5-MIN KMKG 280400Z 28012KT 10SM CLR 03/00 A2987 670 79  -500 290/12 RMK AO2
14840KMKG MKG20050427230509404/27/05 23:05:31  5-MIN KMKG 280405Z 27010KT 10SM CLR 03/00 A2988 670 79  -500 280/10 RMK AO2
14840KMKG MKG20050427231009404/27/05 23:10:31  5-MIN KMKG 280410Z 28012KT 10SM CLR 03/M01 A2988 670 76 -500 290/12 RMK AO2
14840KMKG MKG20050427231509404/27/05 23:15:31  5-MIN KMKG 280415Z 28012KT 10SM CLR 03/M02 A2988 670 70 -500 290/12 RMK AO2
14840KMKG MKG20050427232009404/27/05 23:20:31  5-MIN KMKG 280420Z 28010KT 10SM CLR 03/M02 A2988 670 70 -500 280/10 RMK AO2
14840KMKG MKG20050427232509404/27/05 23:25:31  5-MIN KMKG 280425Z 28013KT 10SM CLR 03/M02 A2988 670 70 -500 280/13 RMK AO2
14840KMKG MKG20050427233010004/27/05 23:30:31  5-MIN KMKG 280430Z 28013G17KT 10SM CLR 03/M02 A2988 670 70 -500 280/13G17 RMK AO2
14840KMKG MKG20050427233510004/27/05 23:35:31  5-MIN KMKG 280435Z 28009G18KT 10SM CLR 03/M02 A2988 670 70 -500 280/09G18 RMK AO2
14840KMKG MKG20050427234010004/27/05 23:40:31  5-MIN KMKG 280440Z 27012G18KT 10SM CLR 03/M02 A2988 670 72 -600 270/12G18 RMK AO2
14840KMKG MKG20050427234509404/27/05 23:45:31  5-MIN KMKG 280445Z 28011KT 10SM CLR 03/M02 A2988 670 67 -500 280/11 RMK AO2
14840KMKG MKG20050427235012704/27/05 23:50:31  5-MIN KMKG 280450Z 28012G19KT 10SM CLR 03/M02 A2988 660 67 -500 280/12G19 RMK AO2 SLP125 T00331022 400780028
14840KMKG MKG20050427235512704/27/05 23:55:31  5-MIN KMKG 280455Z 28011G19KT 10SM CLR 03/M02 A2989 660 69 -600 290/11G19 RMK AO2 SLP125 T00281022 400780028
14840KMKG MKG20050428000010004/28/05 00:00:32  5-MIN KMKG 280500Z 28014G18KT 10SM CLR 03/M02 A2988 670 67 -500 280/14G18 RMK AO2
14840KMKG MKG20050428000510004/28/05 00:05:31  5-MIN KMKG 280505Z 29016G23KT 10SM CLR 03/M03 A2988 660 64 -500 290/16G23 RMK AO2
14840KMKG MKG20050428001010004/28/05 00:10:31  5-MIN KMKG 280510Z 28015G23KT 10SM CLR 03/M03 A2989 660 64 -500 290/15G23 RMK AO2
14840KMKG MKG20050428001509404/28/05 00:15:31  5-MIN KMKG 280515Z 29012KT 10SM CLR 03/M02 A2989 660 69 -600 290/12 RMK AO2
14840KMKG MKG20050428002009404/28/05 00:20:31  5-MIN KMKG 280520Z 29011KT 10SM CLR 03/M02 A2989 660 69 -600 290/11 RMK AO2
14840KMKG MKG20050428002510004/28/05 00:25:31  5-MIN KMKG 280525Z 28014G17KT 10SM CLR 03/M02 A2989 660 67 -500 280/14G17 RMK AO2
14840KMKG MKG20050428003009404/28/05 00:30:31  5-MIN KMKG 280530Z 29014KT 10SM CLR 03/M02 A2989 650 67 -500 300/14 RMK AO2
14840KMKG MKG20050428003510004/28/05 00:35:31  5-MIN KMKG 280535Z 28013G22KT 10SM CLR 03/M02 A2989 650 67 -500 290/13G22 RMK AO2
14840KMKG MKG20050428004010004/28/05 00:40:31  5-MIN KMKG 280540Z 28013G22KT 10SM CLR 03/M02 A2989 660 69 -600 290/13G22 RMK AO2
14840KMKG MKG20050428004510004/28/05 00:45:31  5-MIN KMKG 280545Z 28014G20KT 10SM CLR 03/M02 A2989 650 69 -600 290/14G20 RMK AO2
14840KMKG MKG20050428005013504/28/05 00:50:31  5-MIN KMKG 280550Z 28011KT 10SM CLR 03/M02 A2989 650 67 -500 290/11 RMK AO2 SLP128 60015 T00331022 10056 20028 53020
14840KMKG MKG20050428005514104/28/05 00:55:31  5-MIN KMKG 280555Z 28014G19KT 10SM CLR 03/M02 A2989 660 67 -500 280/14G19 RMK AO2 SLP128 60015 T00331022 10056 20028 53009
14840KMKG MKG20050428010010004/28/05 01:00:31  5-MIN KMKG 280600Z 28013G22KT 10SM CLR 03/M03 A2990 650 67 -600 280/13G22 RMK AO2
14840KMKG MKG20050428010510004/28/05 01:05:31  5-MIN KMKG 280605Z 28014G22KT 10SM CLR 03/M03 A2990 650 64 -500 290/14G22 RMK AO2
14840KMKG MKG20050428011010004/28/05 01:10:31  5-MIN KMKG 280610Z 29013G22KT 10SM CLR 03/M03 A2990 650 67 -600 290/13G22 RMK AO2
14840KMKG MKG20050428011510004/28/05 01:15:31  5-MIN KMKG 280615Z 30015G21KT 10SM CLR 03/M03 A2990 650 64 -500 300/15G21 RMK AO2
14840KMKG MKG20050428012010004/28/05 01:20:31  5-MIN KMKG 280620Z 29013G21KT 10SM CLR 03/M03 A2990 650 64 -500 290/13G21 RMK AO2
14840KMKG MKG20050428012510004/28/05 01:25:31  5-MIN KMKG 280625Z 28013G19KT 10SM CLR 03/M03 A2990 650 67 -600 290/13G19 RMK AO2
14840KMKG MKG20050428013009404/28/05 01:30:31  5-MIN KMKG 280630Z 29012KT 10SM CLR 03/M03 A2990 650 64 -500 290/12 RMK AO2
14840KMKG MKG20050428013509404/28/05 01:35:31  5-MIN KMKG 280635Z 29012KT 10SM CLR 03/M03 A2990 650 64 -500 300/12 RMK AO2
14840KMKG MKG20050428014009404/28/05 01:40:31  5-MIN KMKG 280640Z 29014KT 10SM CLR 03/M03 A2990 650 64 -500 290/14 RMK AO2
14840KMKG MKG20050428014510004/28/05 01:45:31  5-MIN KMKG 280645Z 28012G17KT 10SM CLR 03/M02 A2989 650 69 -600 280/12G17 RMK AO2
14840KMKG MKG20050428015011704/28/05 01:50:31  5-MIN KMKG 280650Z 29012G17KT 10SM CLR 03/M02 A2990 650 67 -500 290/12G17 RMK AO2 SLP128 T00331022
14840KMKG MKG20050428015511704/28/05 01:55:31  5-MIN KMKG 280655Z 29012G18KT 10SM CLR 03/M02 A2990 650 67 -500 290/12G18 RMK AO2 SLP129 T00331022
14840KMKG MKG20050428020010004/28/05 02:00:31  5-MIN KMKG 280700Z 27011G18KT 10SM CLR 03/M02 A2990 650 69 -600 280/11G18 RMK AO2
14840KMKG MKG20050428020509404/28/05 02:05:31  5-MIN KMKG 280705Z 28010KT 10SM CLR 03/M02 A2990 650 69 -600 290/10 RMK AO2
14840KMKG MKG20050428021009404/28/05 02:10:31  5-MIN KMKG 280710Z 28010KT 10SM CLR 03/M02 A2990 650 69 -600 290/10 RMK AO2
14840KMKG MKG20050428021510004/28/05 02:15:31  5-MIN KMKG 280715Z 28012G18KT 10SM CLR 03/M02 A2990 650 69 -600 280/12G18 RMK AO2
14840KMKG MKG20050428022010004/28/05 02:20:31  5-MIN KMKG 280720Z 28011G18KT 10SM CLR 03/M02 A2990 650 69 -600 280/11G18 RMK AO2
14840KMKG MKG20050428022509404/28/05 02:25:31  5-MIN KMKG 280725Z 28010KT 10SM CLR 03/M02 A2990 650 69 -600 280/10 RMK AO2
14840KMKG MKG20050428023009404/28/05 02:30:31  5-MIN KMKG 280730Z 28011KT 10SM CLR 03/M02 A2990 650 69 -600 290/11 RMK AO2
14840KMKG MKG20050428023509404/28/05 02:35:31  5-MIN KMKG 280735Z 28010KT 10SM CLR 03/M03 A2989 650 67 -600 290/10 RMK AO2
14840KMKG MKG20050428024009404/28/05 02:40:31  5-MIN KMKG 280740Z 28009KT 10SM CLR 03/M02 A2990 650 69 -600 290/09 RMK AO2
14840KMKG MKG20050428024509404/28/05 02:45:31  5-MIN KMKG 280745Z 27008KT 10SM CLR 03/M02 A2990 650 69 -600 270/08 RMK AO2
14840KMKG MKG20050428025011104/28/05 02:50:31  5-MIN KMKG 280750Z 27010KT 10SM CLR 03/M02 A2990 650 69 -600 270/10 RMK AO2 SLP130 T00281022
14840KMKG MKG20050428025511104/28/05 02:55:31  5-MIN KMKG 280755Z 27010KT 10SM CLR 03/M02 A2990 650 69 -600 280/10 RMK AO2 SLP130 T00281022
14840KMKG MKG20050428030009404/28/05 03:00:31  5-MIN KMKG 280800Z 27009KT 10SM CLR 03/M02 A2990 650 72 -600 280/09 RMK AO2
14840KMKG MKG20050428030509404/28/05 03:05:31  5-MIN KMKG 280805Z 27009KT 10SM CLR 03/M02 A2990 650 72 -600 270/09 RMK AO2
14840KMKG MKG20050428031009404/28/05 03:10:31  5-MIN KMKG 280810Z 26007KT 10SM CLR 03/M02 A2990 640 72 -600 270/07 RMK AO2
14840KMKG MKG20050428031509404/28/05 03:15:31  5-MIN KMKG 280815Z 27008KT 10SM CLR 03/M02 A2991 640 72 -600 280/08 RMK AO2
14840KMKG MKG20050428032009404/28/05 03:20:31  5-MIN KMKG 280820Z 27008KT 10SM CLR 03/M02 A2991 640 72 -600 280/08 RMK AO2
14840KMKG MKG20050428032509404/28/05 03:25:31  5-MIN KMKG 280825Z 26007KT 10SM CLR 02/M02 A2991 640 75 -700 270/07 RMK AO2
14840KMKG MKG20050428033009404/28/05 03:30:31  5-MIN KMKG 280830Z 26007KT 10SM CLR 02/M02 A2991 640 75 -700 260/07 RMK AO2
14840KMKG MKG20050428033509404/28/05 03:35:31  5-MIN KMKG 280835Z 25008KT 10SM CLR 02/M02 A2991 640 75 -700 260/08 RMK AO2
14840KMKG MKG20050428034009404/28/05 03:40:31  5-MIN KMKG 280840Z 27007KT 10SM CLR 02/M02 A2991 640 75 -700 280/07 RMK AO2
14840KMKG MKG20050428034509404/28/05 03:45:31  5-MIN KMKG 280845Z 26008KT 10SM CLR 02/M02 A2991 640 75 -700 270/08 RMK AO2
14840KMKG MKG20050428035011704/28/05 03:50:31  5-MIN KMKG 280850Z 27007KT 10SM CLR 03/M02 A2992 630 69 -600 270/07 RMK AO2 SLP135 T00281022 53009
14840KMKG MKG20050428035511704/28/05 03:55:31  5-MIN KMKG 280855Z 28006KT 10SM CLR 02/M02 A2992 630 72 -700 280/06 RMK AO2 SLP137 T00221022 53008
14840KMKG MKG20050428040009404/28/05 04:00:31  5-MIN KMKG 280900Z 26006KT 10SM CLR 02/M02 A2992 630 72 -700 260/06 RMK AO2
14840KMKG MKG20050428040509404/28/05 04:05:31  5-MIN KMKG 280905Z 27005KT 10SM CLR 02/M02 A2992 630 75 -700 270/05 RMK AO2
14840KMKG MKG20050428041009404/28/05 04:10:31  5-MIN KMKG 280910Z 26006KT 10SM CLR 02/M02 A2992 630 75 -700 270/06 RMK AO2
14840KMKG MKG20050428041509404/28/05 04:15:31  5-MIN KMKG 280915Z 26006KT 10SM CLR 02/M02 A2992 630 75 -700 260/06 RMK AO2
14840KMKG MKG20050428042009404/28/05 04:20:31  5-MIN KMKG 280920Z 27006KT 10SM CLR 02/M02 A2992 630 75 -700 280/06 RMK AO2
14840KMKG MKG20050428042509404/28/05 04:25:31  5-MIN KMKG 280925Z 25007KT 10SM CLR 03/M02 A2992 630 72 -600 260/07 RMK AO2
14840KMKG MKG20050428043009404/28/05 04:30:31  5-MIN KMKG 280930Z 28005KT 10SM CLR 02/M02 A2993 620 75 -700 290/05 RMK AO2
14840KMKG MKG20050428043509404/28/05 04:35:31  5-MIN KMKG 280935Z 27007KT 10SM CLR 02/M02 A2993 620 75 -700 270/07 RMK AO2
14840KMKG MKG20050428044009404/28/05 04:40:31  5-MIN KMKG 280940Z 26007KT 10SM CLR 03/M02 A2993 620 72 -600 260/07 RMK AO2
14840KMKG MKG20050428044509404/28/05 04:45:31  5-MIN KMKG 280945Z 27007KT 10SM CLR 02/M02 A2993 620 75 -700 270/07 RMK AO2
14840KMKG MKG20050428045011104/28/05 04:50:31  5-MIN KMKG 280950Z 27006KT 10SM CLR 02/M02 A2993 620 72 -700 280/06 RMK AO2 SLP140 T00221022
14840KMKG MKG20050428045511104/28/05 04:55:31  5-MIN KMKG 280955Z 27007KT 10SM CLR 03/M02 A2993 620 69 -600 270/07 RMK AO2 SLP141 T00281022
14840KMKG MKG20050428050009404/28/05 05:00:31  5-MIN KMKG 281000Z 27006KT 10SM CLR 02/M02 A2993 620 72 -700 270/06 RMK AO2
14840KMKG MKG20050428050509404/28/05 05:05:31  5-MIN KMKG 281005Z 27008KT 10SM CLR 03/M02 A2993 620 69 -600 280/08 RMK AO2
14840KMKG MKG20050428051009404/28/05 05:10:31  5-MIN KMKG 281010Z 27007KT 10SM CLR 02/M02 A2993 620 72 -700 280/07 RMK AO2
14840KMKG MKG20050428051509404/28/05 05:15:31  5-MIN KMKG 281015Z 28006KT 10SM CLR 02/M02 A2993 620 72 -700 280/06 RMK AO2
14840KMKG MKG20050428052009404/28/05 05:20:31  5-MIN KMKG 281020Z 28007KT 10SM CLR 02/M02 A2993 620 72 -700 280/07 RMK AO2
14840KMKG MKG20050428052509404/28/05 05:25:31  5-MIN KMKG 281025Z 28007KT 10SM CLR 02/M02 A2993 620 72 -700 280/07 RMK AO2
14840KMKG MKG20050428053009704/28/05 05:30:31  5-MIN KMKG 281030Z 27006KT 10SM FEW060 02/M02 A2993 620 72 -700 280/06 RMK AO2
14840KMKG MKG20050428053509704/28/05 05:35:31  5-MIN KMKG 281035Z 26007KT 10SM SCT060 02/M02 A2994 620 72 -700 270/07 RMK AO2
14840KMKG MKG20050428054009704/28/05 05:40:31  5-MIN KMKG 281040Z 26006KT 10SM SCT060 02/M02 A2994 620 75 -700 260/06 RMK AO2
14840KMKG MKG20050428054509704/28/05 05:45:31  5-MIN KMKG 281045Z 27005KT 10SM FEW060 02/M02 A2994 620 75 -700 270/05 RMK AO2
14840KMKG MKG20050428055011404/28/05 05:50:31  5-MIN KMKG 281050Z 26006KT 10SM SCT060 02/M02 A2994 620 75 -700 270/06 RMK AO2 SLP143 T00221017
14840KMKG MKG20050428055511404/28/05 05:55:31  5-MIN KMKG 281055Z 27005KT 10SM SCT060 02/M02 A2994 620 75 -700 270/05 RMK AO2 SLP143 T00221017
14840KMKG MKG20050428060009704/28/05 06:00:31  5-MIN KMKG 281100Z 25005KT 10SM SCT055 02/M02 A2994 610 75 -700 260/05 RMK AO2
14840KMKG MKG20050428060509704/28/05 06:05:31  5-MIN KMKG 281105Z 25005KT 10SM BKN055 02/M01 A2994 610 78 -700 250/05 RMK AO2
14840KMKG MKG20050428061009704/28/05 06:10:31  5-MIN KMKG 281110Z 28005KT 10SM BKN055 02/M01 A2994 610 78 -700 290/05 RMK AO2
14840KMKG MKG20050428061509704/28/05 06:15:31  5-MIN KMKG 281115Z 27004KT 10SM BKN055 03/M01 A2994 610 75 -600 270/04 RMK AO2
14840KMKG MKG20050428062009704/28/05 06:20:31  5-MIN KMKG 281120Z 26004KT 10SM BKN055 03/M01 A2994 610 75 -600 260/04 RMK AO2
14840KMKG MKG20050428062509704/28/05 06:25:31  5-MIN KMKG 281125Z 24004KT 10SM SCT055 03/M01 A2994 610 75 -600 240/04 RMK AO2
14840KMKG MKG20050428063009704/28/05 06:30:31  5-MIN KMKG 281130Z 26004KT 10SM SCT055 03/M01 A2994 610 75 -600 260/04 RMK AO2
14840KMKG MKG20050428063509704/28/05 06:35:31  5-MIN KMKG 281135Z 24003KT 10SM FEW055 03/M01 A2994 610 75 -600 240/03 RMK AO2
14840KMKG MKG20050428064009704/28/05 06:40:31  5-MIN KMKG 281140Z 24004KT 10SM FEW055 03/M01 A2994 610 79 -600 240/04 RMK AO2
14840KMKG MKG20050428064509704/28/05 06:45:31  5-MIN KMKG 281145Z 24004KT 10SM FEW050 03/M01 A2994 610 79 -600 250/04 RMK AO2
14840KMKG MKG20050428065013804/28/05 06:50:31  5-MIN KMKG 281150Z 24003KT 10SM SCT050 03/00 A2994 610  79 -600 250/03 RMK AO2 SLP145 70019 T00330000 10033 20017 53008
14840KMKG MKG20050428065513804/28/05 06:55:31  5-MIN KMKG 281155Z 25004KT 10SM BKN050 04/00 A2994 610  76 -500 260/04 RMK AO2 SLP144 70019 T00390000 10039 20017 51008
14840KMKG MKG20050428070009704/28/05 07:00:31  5-MIN KMKG 281200Z 26005KT 10SM BKN050 04/00 A2994 610  76 -500 270/05 RMK AO2
14840KMKG MKG20050428070509704/28/05 07:05:31  5-MIN KMKG 281205Z 26004KT 10SM BKN050 04/00 A2995 610  76 -500 270/04 RMK AO2
14840KMKG MKG20050428071009704/28/05 07:10:31  5-MIN KMKG 281210Z 27004KT 10SM BKN050 04/00 A2995 610  73 -400 280/04 RMK AO2
14840KMKG MKG20050428071509704/28/05 07:15:31  5-MIN KMKG 281215Z 25007KT 10SM BKN050 04/00 A2995 610  73 -400 250/07 RMK AO2
14840KMKG MKG20050428072009704/28/05 07:20:31  5-MIN KMKG 281220Z 25006KT 10SM BKN050 04/00 A2995 600  73 -400 260/06 RMK AO2
14840KMKG MKG20050428072509704/28/05 07:25:31  5-MIN KMKG 281225Z 28006KT 10SM BKN050 04/00 A2995 600  73 -400 280/06 RMK AO2
14840KMKG MKG20050428073009704/28/05 07:30:31  5-MIN KMKG 281230Z 27008KT 10SM OVC050 04/M01 A2995 600 70 -400 280/08 RMK AO2
14840KMKG MKG20050428073509704/28/05 07:35:31  5-MIN KMKG 281235Z 27009KT 10SM OVC050 04/M01 A2995 600 70 -400 270/09 RMK AO2
14840KMKG MKG20050428074009704/28/05 07:40:31  5-MIN KMKG 281240Z 28006KT 10SM OVC050 04/M01 A2995 600 70 -400 280/06 RMK AO2
14840KMKG MKG20050428074509704/28/05 07:45:31  5-MIN KMKG 281245Z 29006KT 10SM BKN050 04/M01 A2995 600 70 -400 290/06 RMK AO2
14840KMKG MKG20050428075011404/28/05 07:50:31  5-MIN KMKG 281250Z 27005KT 10SM BKN050 05/00 A2996 600  70 -400 280/05 RMK AO2 SLP148 T00500000
14840KMKG MKG20050428075511404/28/05 07:55:31  5-MIN KMKG 281255Z 27006KT 10SM OVC050 05/00 A2995 600  70 -400 280/06 RMK AO2 SLP148 T00500000
14840KMKG MKG20050428080009704/28/05 08:00:31  5-MIN KMKG 281300Z 26004KT 10SM OVC050 04/00 A2995 600  73 -400 260/04 RMK AO2
14840KMKG MKG20050428080509704/28/05 08:05:31  5-MIN KMKG 281305Z 32004KT 10SM OVC048 05/M01 A2995 600 67 -400 320/04 RMK AO2
14840KMKG MKG20050428081009704/28/05 08:10:31  5-MIN KMKG 281310Z 26005KT 10SM BKN046 05/00 A2995 600  70 -400 270/05 RMK AO2
14840KMKG MKG20050428081509704/28/05 08:15:31  5-MIN KMKG 281315Z 26005KT 10SM BKN046 04/00 A2996 600  73 -400 260/05 RMK AO2
14840KMKG MKG20050428082009704/28/05 08:20:31  5-MIN KMKG 281320Z 00000KT 10SM BKN046 04/00 A2996 600  73 -400 000/00 RMK AO2
14840KMKG MKG20050428082509704/28/05 08:25:31  5-MIN KMKG 281325Z 25004KT 10SM BKN046 05/00 A2996 600  70 -400 250/04 RMK AO2
14840KMKG MKG20050428083009704/28/05 08:30:31  5-MIN KMKG 281330Z 24006KT 10SM BKN046 05/00 A2996 600  70 -400 250/06 RMK AO2
14840KMKG MKG20050428083509704/28/05 08:35:31  5-MIN KMKG 281335Z 27004KT 10SM BKN046 05/00 A2996 600  70 -400 280/04 RMK AO2
14840KMKG MKG20050428084009704/28/05 08:40:31  5-MIN KMKG 281340Z 27004KT 10SM BKN046 05/01 A2996 600  73 -400 280/04 RMK AO2
14840KMKG MKG20050428084509704/28/05 08:45:31  5-MIN KMKG 281345Z 26004KT 10SM BKN044 05/00 A2996 600  70 -400 260/04 RMK AO2
14840KMKG MKG20050428085012104/28/05 08:50:31  5-MIN KMKG 281350Z 28005KT 10SM FEW022 OVC044 06/01  A2996 600 70 -300 290/05 RMK AO2 SLP148 T00560006
14840KMKG MKG20050428085512104/28/05 08:55:31  5-MIN KMKG 281355Z 25005KT 10SM FEW022 BKN044 05/00  A2996 600 70 -400 250/05 RMK AO2 SLP148 T00500000
14840KMKG MKG20050428090010404/28/05 09:00:31  5-MIN KMKG 281400Z 27004KT 10SM FEW022 OVC044 05/00  A2995 600 70 -400 270/04 RMK AO2
14840KMKG MKG20050428090510404/28/05 09:05:31  5-MIN KMKG 281405Z 24004KT 10SM FEW022 OVC044 05/00  A2995 600 70 -400 250/04 RMK AO2
14840KMKG MKG20050428091010404/28/05 09:10:31  5-MIN KMKG 281410Z 25006KT 10SM FEW022 OVC044 06/01  A2996 600 70 -300 250/06 RMK AO2
14840KMKG MKG20050428091510404/28/05 09:15:31  5-MIN KMKG 281415Z 31006KT 10SM SCT022 OVC044 06/01  A2996 600 70 -300 310/06 RMK AO2
14840KMKG MKG20050428092010404/28/05 09:20:31  5-MIN KMKG 281420Z 30005KT 10SM FEW022 OVC044 06/01  A2996 600 67 -200 310/05 RMK AO2
14840KMKG MKG20050428092510404/28/05 09:25:31  5-MIN KMKG 281425Z VRB04KT 10SM FEW022 OVC044 06/00  A2996 600 67 -300 VRB/04 RMK AO2
14840KMKG MKG20050428093010404/28/05 09:30:31  5-MIN KMKG 281430Z 28007KT 10SM FEW022 OVC044 06/01  A2996 590 67 -200 280/07 RMK AO2
14840KMKG MKG20050428093510504/28/05 09:35:31  5-MIN KMKG 281435Z 28006KT 10SM FEW022 OVC044 06/M01  A2996 590 65 -300 280/06 RMK AO2
14840KMKG MKG20050428094009704/28/05 09:40:31  5-MIN KMKG 281440Z VRB03KT 10SM OVC042 06/M01 A2996 590 62 -300 VRB/03 RMK AO2
14840KMKG MKG20050428094509704/28/05 09:45:31  5-MIN KMKG 281445Z VRB05KT 10SM OVC042 06/00 A2996 590  67 -300 VRB/05 RMK AO2
14840KMKG MKG20050428095012004/28/05 09:50:31  5-MIN KMKG 281450Z 23006KT 10SM BKN042 06/00 A2996 590  65 -200 240/06 RMK AO2 SLP152 T00610000 51008
14840KMKG MKG20050428095512004/28/05 09:55:31  5-MIN KMKG 281455Z 30005KT 10SM BKN042 06/00 A2996 590  65 -200 300/05 RMK AO2 SLP151 T00610000 51006
14840KMKG MKG20050428100010504/28/05 10:00:31  5-MIN KMKG 281500Z VRB04KT 10SM FEW026 BKN042 06/M01  A2996 590 62 -200 VRB/04 RMK AO2
14840KMKG MKG20050428100510404/28/05 10:05:31  5-MIN KMKG 281505Z 27006KT 10SM FEW026 BKN042 07/00  A2996 590 62 -200 270/06 RMK AO2
14840KMKG MKG20050428101010504/28/05 10:10:31  5-MIN KMKG 281510Z 31005KT 10SM FEW026 BKN042 06/M01  A2997 590 62 -300 310/05 RMK AO2
14840KMKG MKG20050428101509704/28/05 10:15:31  5-MIN KMKG 281515Z VRB06KT 10SM SCT040 07/M01 A2996 590 60 -200 VRB/06 RMK AO2
14840KMKG MKG20050428102009704/28/05 10:20:31  5-MIN KMKG 281520Z 21005KT 10SM FEW040 07/00 A2997 590  62 -200 210/05 RMK AO2
14840KMKG MKG20050428102509404/28/05 10:25:31  5-MIN KMKG 281525Z VRB05KT 10SM CLR 07/00 A2997 590 62  -200 VRB/05 RMK AO2
14840KMKG MKG20050428103010904/28/05 10:30:31  5-MIN KMKG 281530Z 26007KT 240V300 10SM CLR 07/00 A2997 590 60 -100 270/07 240V300 RMK AO2
14840KMKG MKG20050428103509404/28/05 10:35:31  5-MIN KMKG 281535Z VRB05KT 10SM CLR 07/M01 A2997 580 60 -200 VRB/05 RMK AO2
14840KMKG MKG20050428104009404/28/05 10:40:31  5-MIN KMKG 281540Z 26005KT 10SM CLR 07/M01 A2997 580 60 -200 260/05 RMK AO2
14840KMKG MKG20050428104509404/28/05 10:45:31  5-MIN KMKG 281545Z 23009KT 10SM CLR 07/M01 A2998 580 60 -200 240/09 RMK AO2
14840KMKG MKG20050428105011404/28/05 10:50:31  5-MIN KMKG 281550Z 24007KT 10SM SCT042 07/M01 A2998 580 60 -200 240/07 RMK AO2 SLP155 T00671006
14840KMKG MKG20050428105511404/28/05 10:55:31  5-MIN KMKG 281555Z VRB05KT 10SM SCT042 07/M01 A2998 580 60 -200 VRB/05 RMK AO2 SLP156 T00671006
14840KMKG MKG20050428110009404/28/05 11:00:31  5-MIN KMKG 281600Z 23007KT 10SM CLR 07/M01 A2998 580 60 -200 240/07 RMK AO2
14840KMKG MKG20050428110509404/28/05 11:05:31  5-MIN KMKG 281605Z VRB04KT 10SM CLR 07/00 A2998 580 60  -100 VRB/04 RMK AO2
14840KMKG MKG20050428111010904/28/05 11:10:31  5-MIN KMKG 281610Z 27008KT 240V300 10SM CLR 08/00 A2998 570 58 -100 270/08 240V300 RMK AO2
14840KMKG MKG20050428111511004/28/05 11:15:31  5-MIN KMKG 281615Z 26008KT 230V300 10SM CLR 07/M01 A2998 570 57 -100 270/08 230V300 RMK AO2
14840KMKG MKG20050428112009404/28/05 11:20:31  5-MIN KMKG 281620Z 25008KT 10SM CLR 07/M01 A2998 570 57 -100 260/08 RMK AO2
14840KMKG MKG20050428112509404/28/05 11:25:31  5-MIN KMKG 281625Z 25008KT 10SM CLR 07/M01 A2998 570 57 -100 260/08 RMK AO2
14840KMKG MKG20050428113009404/28/05 11:30:31  5-MIN KMKG 281630Z 29009KT 10SM CLR 07/M01 A2998 570 57 -100 290/09 RMK AO2
14840KMKG MKG20050428113509704/28/05 11:35:31  5-MIN KMKG 281635Z 28006KT 10SM SCT039 07/M01 A2998 580 55 -100 280/06 RMK AO2
14840KMKG MKG20050428114009704/28/05 11:40:31  5-MIN KMKG 281640Z 27008KT 10SM SCT039 07/M01 A2998 570 55 -100 280/08 RMK AO2
14840KMKG MKG20050428114509704/28/05 11:45:31  5-MIN KMKG 281645Z 21008KT 10SM SCT039 07/M01 A2998 580 55 -100 220/08 RMK AO2
14840KMKG MKG20050428115011404/28/05 11:50:31  5-MIN KMKG 281650Z 22010KT 10SM SCT039 08/M01 A2998 570 55 -100 220/10 RMK AO2 SLP157 T00781006
14840KMKG MKG20050428115511404/28/05 11:55:31  5-MIN KMKG 281655Z 23009KT 10SM SCT039 07/M01 A2998 570 57 -100 240/09 RMK AO2 SLP158 T00721006
14840KMKG MKG20050428120010004/28/05 12:00:31  5-MIN KMKG 281700Z 24010G14KT 10SM CLR 08/00 A2998 570  58 -100 250/10G14 RMK AO2
14840KMKG MKG20050428120510004/28/05 12:05:31  5-MIN KMKG 281705Z 23010G14KT 10SM CLR 08/00 A2998 570  58 -100 240/10G14 RMK AO2
14840KMKG MKG20050428121009404/28/05 12:10:31  5-MIN KMKG 281710Z 22009KT 10SM CLR 07/00 A2998 570 60  -100 230/09 RMK AO2
14840KMKG MKG20050428121509404/28/05 12:15:31  5-MIN KMKG 281715Z 23009KT 10SM CLR 07/01 A2998 580 62  -100 230/09 RMK AO2
14840KMKG MKG20050428122009404/28/05 12:20:31  5-MIN KMKG 281720Z 25009KT 10SM CLR 08/01 A2998 570 62  -100 250/09 RMK AO2
14840KMKG MKG20050428122509404/28/05 12:25:31  5-MIN KMKG 281725Z 25009KT 10SM CLR 07/01 A2998 580 62  -100 250/09 RMK AO2
14840KMKG MKG20050428123009404/28/05 12:30:31  5-MIN KMKG 281730Z 25008KT 10SM CLR 07/01 A2998 570 62  -100 250/08 RMK AO2
14840KMKG MKG20050428123509404/28/05 12:35:31  5-MIN KMKG 281735Z 27009KT 10SM CLR 08/01 A2998 570 62  -100 280/09 RMK AO2
14840KMKG MKG20050428124009404/28/05 12:40:31  5-MIN KMKG 281740Z 26008KT 10SM CLR 07/01 A2998 570 62  -100 260/08 RMK AO2
14840KMKG MKG20050428124509404/28/05 12:45:31  5-MIN KMKG 281745Z 24009KT 10SM CLR 07/01 A2998 570 65  -200 250/09 RMK AO2
14840KMKG MKG20050428125013204/28/05 12:50:31  5-MIN KMKG 281750Z 27007KT 10SM SCT037 07/01 A2998 570  65 -100 280/07 RMK AO2 SLP157 T00720011 10083 20039 51006
14840KMKG MKG20050428125513204/28/05 12:55:31  5-MIN KMKG 281755Z 23008KT 10SM SCT037 07/01 A2998 570  62 -100 240/08 RMK AO2 SLP157 T00720006 10083 20039 50006
14840KMKG MKG20050428130010004/28/05 13:00:31  5-MIN KMKG 281800Z 27009G15KT 10SM CLR 07/01 A2998 570  62 -100 270/09G15 RMK AO2
14840KMKG MKG20050428130510004/28/05 13:05:31  5-MIN KMKG 281805Z 25008G15KT 10SM CLR 07/00 A2998 580  60 -100 250/08G15 RMK AO2
14840KMKG MKG20050428131009404/28/05 13:10:31  5-MIN KMKG 281810Z 24010KT 10SM CLR 07/00 A2998 580 60  -100 240/10 RMK AO2
14840KMKG MKG20050428131509404/28/05 13:15:31  5-MIN KMKG 281815Z 25009KT 10SM CLR 07/01 A2998 580 62  -100 250/09 RMK AO2
14840KMKG MKG20050428132009404/28/05 13:20:31  5-MIN KMKG 281820Z 25009KT 10SM CLR 07/00 A2998 580 60  -100 250/09 RMK AO2
14840KMKG MKG20050428132509404/28/05 13:25:31  5-MIN KMKG 281825Z 25008KT 10SM CLR 07/00 A2998 580 62  -200 260/08 RMK AO2
14840KMKG MKG20050428133009404/28/05 13:30:31  5-MIN KMKG 281830Z 29009KT 10SM CLR 08/01 A2998 580 60  -100 290/09 RMK AO2
14840KMKG MKG20050428133509404/28/05 13:35:31  5-MIN KMKG 281835Z 27010KT 10SM CLR 07/00 A2998 580 60  -100 280/10 RMK AO2
14840KMKG MKG20050428134009404/28/05 13:40:31  5-MIN KMKG 281840Z 29009KT 10SM CLR 07/M01 A2997 580 57 -100 300/09 RMK AO2
14840KMKG MKG20050428134509704/28/05 13:45:31  5-MIN KMKG 281845Z 26009KT 10SM SCT037 08/M01 A2997 580 55 -100 270/09 RMK AO2
14840KMKG MKG20050428135011404/28/05 13:50:31  5-MIN KMKG 281850Z 27009KT 10SM SCT037 08/M01 A2997 580 55 -100 280/09 RMK AO2 SLP154 T00781006
14840KMKG MKG20050428135511404/28/05 13:55:31  5-MIN KMKG 281855Z 28011KT 10SM SCT037 08/M02 A2997 580 51 -100 280/11 RMK AO2 SLP154 T00781017
14840KMKG MKG20050428140009404/28/05 14:00:31  5-MIN KMKG 281900Z 27010KT 10SM CLR 08/M02 A2998 580 51 -100 270/10 RMK AO2
14840KMKG MKG20050428140509404/28/05 14:05:31  5-MIN KMKG 281905Z 28010KT 10SM CLR 08/M01 A2998 580 53 -100 290/10 RMK AO2
14840KMKG MKG20050428141009404/28/05 14:10:31  5-MIN KMKG 281910Z 27008KT 10SM CLR 08/M01 A2997 580 53 -100 270/08 RMK AO2
14840KMKG MKG20050428141510704/28/05 14:15:31  5-MIN KMKG 281915Z 26009KT 240V310 10SM CLR 08/M01 A2998 580 53 0 270/09 240V310 RMK AO2
14840KMKG MKG20050428142009104/28/05 14:20:31  5-MIN KMKG 281920Z 26009KT 10SM CLR 08/M01 A2997 580 53 0 260/09 RMK AO2
14840KMKG MKG20050428142510004/28/05 14:25:31  5-MIN KMKG 281925Z 25008G16KT 10SM CLR 08/M01 A2997 580 55 -100 250/08G16 RMK AO2
14840KMKG MKG20050428143010004/28/05 14:30:31  5-MIN KMKG 281930Z 29010G16KT 10SM CLR 08/M01 A2997 580 55 -100 300/10G16 RMK AO2
14840KMKG MKG20050428143509404/28/05 14:35:31  5-MIN KMKG 281935Z 28009KT 10SM CLR 08/M01 A2997 580 53 -100 280/09 RMK AO2
14840KMKG MKG20050428144009404/28/05 14:40:31  5-MIN KMKG 281940Z 28007KT 10SM CLR 07/M01 A2997 590 55 -100 280/07 RMK AO2
14840KMKG MKG20050428144509404/28/05 14:45:31  5-MIN KMKG 281945Z 27010KT 10SM CLR 07/M01 A2997 590 55 -100 270/10 RMK AO2
14840KMKG MKG20050428145011104/28/05 14:50:31  5-MIN KMKG 281950Z 27008KT 10SM CLR 07/M02 A2997 590 53 -100 270/08 RMK AO2 SLP152 T00721017
14840KMKG MKG20050428145510804/28/05 14:55:31  5-MIN KMKG 281955Z VRB06KT 10SM CLR 08/M01 A2997 590 53 0 VRB/06 RMK AO2 SLP152 T00781011
14840KMKG MKG20050428150010704/28/05 15:00:31  5-MIN KMKG 282000Z 29008KT 260V320 10SM CLR 08/M02 A2996 590 49 0 300/08 260V320 RMK AO2
14840KMKG MKG20050428150509104/28/05 15:05:31  5-MIN KMKG 282005Z 26010KT 10SM CLR 08/M02 A2997 590 47 0 270/10 RMK AO2
14840KMKG MKG20050428151009104/28/05 15:10:31  5-MIN KMKG 282010Z 28009KT 10SM CLR 08/M02 A2997 590 49 0 290/09 RMK AO2
14840KMKG MKG20050428151509404/28/05 15:15:31  5-MIN KMKG 282015Z 27010KT 10SM CLR 07/M02 A2997 590 51 -100 280/10 RMK AO2
14840KMKG MKG20050428152009104/28/05 15:20:31  5-MIN KMKG 282020Z 29009KT 10SM CLR 08/M02 A2996 590 51 0 290/09 RMK AO2
14840KMKG MKG20050428152509104/28/05 15:25:31  5-MIN KMKG 282025Z 27009KT 10SM CLR 08/M02 A2996 590 49 0 270/09 RMK AO2
14840KMKG MKG20050428153009404/28/05 15:30:31  5-MIN KMKG 282030Z 27007KT 10SM CLR 07/M02 A2997 590 51 -100 280/07 RMK AO2
14840KMKG MKG20050428153509104/28/05 15:35:31  5-MIN KMKG 282035Z 29009KT 10SM CLR 08/M03 A2997 590 45 0 290/09 RMK AO2
14840KMKG MKG20050428154010704/28/05 15:40:31  5-MIN KMKG 282040Z 29007KT 250V340 10SM CLR 08/M04 A2996 590 43 0 290/07 250V340 RMK AO2
14840KMKG MKG20050428154509104/28/05 15:45:31  5-MIN KMKG 282045Z 31005KT 10SM CLR 08/M03 A2996 590 43 0 310/05 RMK AO2
14840KMKG MKG20050428155011704/28/05 15:50:31  5-MIN KMKG 282050Z 30007KT 10SM FEW037 08/M03 A2996 590 45 0 300/07 RMK AO2 SLP150 T00831028 50006
14840KMKG MKG20050428155513404/28/05 15:55:31  5-MIN KMKG 282055Z 28008KT 250V320 10SM FEW037 08/M03  A2996 590 45 0 290/08 250V320 RMK AO2 SLP151 T00781033 56006
14840KMKG MKG20050428160009404/28/05 16:00:31  5-MIN KMKG 282100Z 28008KT 10SM CLR 07/M03 A2996 590 47 -100 290/08 RMK AO2
14840KMKG MKG20050428160509404/28/05 16:05:31  5-MIN KMKG 282105Z 31007KT 10SM CLR 07/M05 A2996 590 41 -100 320/07 RMK AO2
14840KMKG MKG20050428161009404/28/05 16:10:31  5-MIN KMKG 282110Z 27008KT 10SM CLR 07/M03 A2996 590 49 -100 270/08 RMK AO2
14840KMKG MKG20050428161509404/28/05 16:15:31  5-MIN KMKG 282115Z 26008KT 10SM CLR 07/M03 A2996 590 47 -100 260/08 RMK AO2
14840KMKG MKG20050428162009404/28/05 16:20:31  5-MIN KMKG 282120Z 28007KT 10SM CLR 07/M03 A2996 590 49 -100 290/07 RMK AO2
14840KMKG MKG20050428162509404/28/05 16:25:31  5-MIN KMKG 282125Z 28007KT 10SM CLR 07/M03 A2996 590 47 -100 280/07 RMK AO2
14840KMKG MKG20050428163009404/28/05 16:30:31  5-MIN KMKG 282130Z 27008KT 10SM CLR 07/M04 A2996 590 47 -200 280/08 RMK AO2
14840KMKG MKG20050428163509404/28/05 16:35:31  5-MIN KMKG 282135Z 25007KT 10SM CLR 07/M04 A2996 590 45 -200 260/07 RMK AO2
14840KMKG MKG20050428164009404/28/05 16:40:31  5-MIN KMKG 282140Z 27007KT 10SM CLR 07/M04 A2996 590 43 -100 270/07 RMK AO2
14840KMKG MKG20050428164509404/28/05 16:45:31  5-MIN KMKG 282145Z 26007KT 10SM CLR 07/M05 A2997 590 41 -100 270/07 RMK AO2
14840KMKG MKG20050428165011104/28/05 16:50:31  5-MIN KMKG 282150Z 27007KT 10SM CLR 07/M04 A2996 590 43 -100 270/07 RMK AO2 SLP151 T00721044
14840KMKG MKG20050428165511404/28/05 16:55:31  5-MIN KMKG 282155Z VRB05KT 10SM FEW035 07/M04 A2996 590 43 -100 VRB/05 RMK AO2 SLP151 T00721044
14840KMKG MKG20050428170009404/28/05 17:00:31  5-MIN KMKG 282200Z 27007KT 10SM CLR 07/M04 A2996 590 43 -100 270/07 RMK AO2
14840KMKG MKG20050428170509404/28/05 17:05:31  5-MIN KMKG 282205Z VRB06KT 10SM CLR 07/M04 A2996 590 43 -100 VRB/06 RMK AO2
14840KMKG MKG20050428171009404/28/05 17:10:31  5-MIN KMKG 282210Z 30007KT 10SM CLR 07/M06 A2996 590 38 -100 300/07 RMK AO2
14840KMKG MKG20050428171509404/28/05 17:15:31  5-MIN KMKG 282215Z 29007KT 10SM CLR 07/M07 A2996 590 35 -100 290/07 RMK AO2
14840KMKG MKG20050428172009104/28/05 17:20:31  5-MIN KMKG 282220Z 28008KT 10SM CLR 08/M07 A2997 590 35 0 290/08 RMK AO2
14840KMKG MKG20050428172510704/28/05 17:25:31  5-MIN KMKG 282225Z 30007KT 270V330 10SM CLR 08/M06 A2997 590 36 0 310/07 270V330 RMK AO2
14840KMKG MKG20050428173009104/28/05 17:30:31  5-MIN KMKG 282230Z 29007KT 10SM CLR 08/M06 A2996 590 36 0 290/07 RMK AO2
14840KMKG MKG20050428173509104/28/05 17:35:31  5-MIN KMKG 282235Z VRB05KT 10SM CLR 08/M06 A2996 590 36 0 VRB/05 RMK AO2
14840KMKG MKG20050428174009104/28/05 17:40:31  5-MIN KMKG 282240Z 30006KT 10SM CLR 08/M06 A2996 590 38 0 300/06 RMK AO2
14840KMKG MKG20050428174509104/28/05 17:45:31  5-MIN KMKG 282245Z 28007KT 10SM CLR 08/M06 A2996 590 38 0 290/07 RMK AO2
14840KMKG MKG20050428175011104/28/05 17:50:31  5-MIN KMKG 282250Z 30008KT 10SM FEW035 08/M06 A2996 590 38 0 300/08 RMK AO2 SLP150 T00781056
14840KMKG MKG20050428175511104/28/05 17:55:31  5-MIN KMKG 282255Z 31005KT 10SM FEW035 08/M06 A2996 590 36 0 320/05 RMK AO2 SLP150 T00781061
14840KMKG MKG20050428180009104/28/05 18:00:31  5-MIN KMKG 282300Z 30004KT 10SM CLR 08/M06 A2996 590 38 0 300/04 RMK AO2
14840KMKG MKG20050428180509104/28/05 18:05:31  5-MIN KMKG 282305Z 31006KT 10SM CLR 08/M06 A2996 600 37 0 320/06 RMK AO2
14840KMKG MKG20050428181009104/28/05 18:10:31  5-MIN KMKG 282310Z 32006KT 10SM CLR 08/M06 A2996 600 38 0 320/06 RMK AO2
14840KMKG MKG20050428181509104/28/05 18:15:31  5-MIN KMKG 282315Z 34006KT 10SM CLR 08/M06 A2995 600 38 0 340/06 RMK AO2
14840KMKG MKG20050428182009104/28/05 18:20:31  5-MIN KMKG 282320Z 34006KT 10SM CLR 08/M05 A2995 600 40 0 340/06 RMK AO2
14840KMKG MKG20050428182509104/28/05 18:25:31  5-MIN KMKG 282325Z 33006KT 10SM CLR 08/M05 A2995 600 38 0 340/06 RMK AO2
14840KMKG MKG20050428183009104/28/05 18:30:31  5-MIN KMKG 282330Z 33006KT 10SM CLR 08/M06 A2995 600 37 0 340/06 RMK AO2
14840KMKG MKG20050428183509104/28/05 18:35:31  5-MIN KMKG 282335Z 32005KT 10SM CLR 08/M05 A2995 600 40 0 330/05 RMK AO2
14840KMKG MKG20050428184009104/28/05 18:40:31  5-MIN KMKG 282340Z 34005KT 10SM CLR 08/M05 A2995 600 40 0 340/05 RMK AO2
14840KMKG MKG20050428184509104/28/05 18:45:31  5-MIN KMKG 282345Z 33005KT 10SM CLR 08/M05 A2995 600 40 0 340/05 RMK AO2
14840KMKG MKG20050428185012904/28/05 18:50:31  5-MIN KMKG 282350Z 33004KT 10SM FEW035 08/M05 A2995 600 40 0 330/04 RMK AO2 SLP147 T00781050 10083 20067 56006
14840KMKG MKG20050428185512904/28/05 18:55:31  5-MIN KMKG 282355Z 34005KT 10SM FEW035 08/M05 A2995 600 40 0 340/05 RMK AO2 SLP147 T00781050 10083 20067 58004
14840KMKG MKG20050428190009104/28/05 19:00:31  5-MIN KMKG 290000Z 33007KT 10SM CLR 08/M04 A2995 600 41 0 330/07 RMK AO2
14840KMKG MKG20050428190509104/28/05 19:05:31  5-MIN KMKG 290005Z 35007KT 10SM CLR 08/M05 A2995 600 40 0 350/07 RMK AO2
14840KMKG MKG20050428191009404/28/05 19:10:31  5-MIN KMKG 290010Z 31007KT 10SM CLR 07/M05 A2996 600 41 -100 310/07 RMK AO2
14840KMKG MKG20050428191509404/28/05 19:15:31  5-MIN KMKG 290015Z 31007KT 10SM CLR 07/M04 A2996 600 43 -100 310/07 RMK AO2
14840KMKG MKG20050428192009404/28/05 19:20:31  5-MIN KMKG 290020Z 31005KT 10SM CLR 07/M04 A2996 600 43 -100 320/05 RMK AO2
14840KMKG MKG20050428192509404/28/05 19:25:31  5-MIN KMKG 290025Z 26005KT 10SM CLR 07/M04 A2996 600 45 -200 260/05 RMK AO2
14840KMKG MKG20050428193009404/28/05 19:30:31  5-MIN KMKG 290030Z 26004KT 10SM CLR 06/M04 A2996 600 48 -200 260/04 RMK AO2
14840KMKG MKG20050428193509404/28/05 19:35:31  5-MIN KMKG 290035Z 26004KT 10SM CLR 06/M04 A2996 590 46 -200 260/04 RMK AO2
14840KMKG MKG20050428194009404/28/05 19:40:31  5-MIN KMKG 290040Z 26005KT 10SM CLR 06/M04 A2996 590 50 -300 260/05 RMK AO2
14840KMKG MKG20050428194509404/28/05 19:45:31  5-MIN KMKG 290045Z 26005KT 10SM CLR 06/M03 A2996 590 53 -300 260/05 RMK AO2
14840KMKG MKG20050428195011104/28/05 19:50:31  5-MIN KMKG 290050Z 28005KT 10SM CLR 05/M03 A2996 590 55 -400 280/05 RMK AO2 SLP150 T00501033
14840KMKG MKG20050428195511104/28/05 19:55:31  5-MIN KMKG 290055Z 27003KT 10SM CLR 05/M03 A2996 590 55 -400 270/03 RMK AO2 SLP151 T00501033
14840KMKG MKG20050428200009404/28/05 20:00:31  5-MIN KMKG 290100Z 27004KT 10SM CLR 05/M03 A2997 590 57 -400 280/04 RMK AO2
14840KMKG MKG20050428200509404/28/05 20:05:31  5-MIN KMKG 290105Z 29003KT 10SM CLR 04/M03 A2997 590 59 -500 290/03 RMK AO2
14840KMKG MKG20050428201009404/28/05 20:10:31  5-MIN KMKG 290110Z 28004KT 10SM CLR 04/M03 A2997 590 59 -500 290/04 RMK AO2
14840KMKG MKG20050428201509404/28/05 20:15:31  5-MIN KMKG 290115Z 28003KT 10SM CLR 04/M03 A2997 580 62 -500 290/03 RMK AO2
14840KMKG MKG20050428202009404/28/05 20:20:31  5-MIN KMKG 290120Z 28003KT 10SM CLR 04/M02 A2997 580 62 -500 290/03 RMK AO2
14840KMKG MKG20050428202509404/28/05 20:25:31  5-MIN KMKG 290125Z 28004KT 10SM CLR 05/M02 A2997 580 59 -400 290/04 RMK AO2
14840KMKG MKG20050428203009404/28/05 20:30:31  5-MIN KMKG 290130Z 27003KT 10SM CLR 04/M02 A2997 580 62 -500 280/03 RMK AO2
14840KMKG MKG20050428203509404/28/05 20:35:31  5-MIN KMKG 290135Z 27003KT 10SM CLR 04/M02 A2998 580 62 -500 270/03 RMK AO2
14840KMKG MKG20050428204009404/28/05 20:40:31  5-MIN KMKG 290140Z 00000KT 10SM CLR 04/M02 A2998 580 62 -500 000/00 RMK AO2
14840KMKG MKG20050428204509404/28/05 20:45:31  5-MIN KMKG 290145Z 22003KT 10SM CLR 04/M02 A2998 580 64 -500 230/03 RMK AO2
14840KMKG MKG20050428205011104/28/05 20:50:31  5-MIN KMKG 290150Z 25003KT 10SM CLR 03/M02 A2998 570 69 -700 250/03 RMK AO2 SLP158 T00281022
14840KMKG MKG20050428205511104/28/05 20:55:31  5-MIN KMKG 290155Z 26003KT 10SM CLR 02/M02 A2998 580 75 -700 270/03 RMK AO2 SLP158 T00221017
14840KMKG MKG20050428210009404/28/05 21:00:31  5-MIN KMKG 290200Z 27003KT 10SM CLR 02/M02 A2998 570 75 -800 270/03 RMK AO2
14840KMKG MKG20050428210509404/28/05 21:05:31  5-MIN KMKG 290205Z 27003KT 10SM CLR 02/M02 A2998 570 75 -800 280/03 RMK AO2
14840KMKG MKG20050428211009404/28/05 21:10:31  5-MIN KMKG 290210Z 00000KT 10SM CLR 03/M02 A2998 570 72 -700 000/00 RMK AO2
14840KMKG MKG20050428211509404/28/05 21:15:31  5-MIN KMKG 290215Z 00000KT 10SM CLR 03/M02 A2999 570 72 -700 000/00 RMK AO2
14840KMKG MKG20050428212009404/28/05 21:20:31  5-MIN KMKG 290220Z 00000KT 10SM CLR 03/M02 A2999 570 72 -700 000/00 RMK AO2
14840KMKG MKG20050428212509404/28/05 21:25:31  5-MIN KMKG 290225Z 00000KT 10SM CLR 03/M02 A2999 570 72 -700 000/00 RMK AO2
14840KMKG MKG20050428213009404/28/05 21:30:31  5-MIN KMKG 290230Z 00000KT 10SM CLR 02/M02 A2999 570 75 -800 000/00 RMK AO2
14840KMKG MKG20050428213509404/28/05 21:35:31  5-MIN KMKG 290235Z 00000KT 10SM CLR 03/M02 A2999 570 72 -700 000/00 RMK AO2
14840KMKG MKG20050428214009404/28/05 21:40:31  5-MIN KMKG 290240Z 00000KT 10SM CLR 03/M02 A2999 570 72 -700 000/00 RMK AO2
14840KMKG MKG20050428214509404/28/05 21:45:31  5-MIN KMKG 290245Z 00000KT 10SM CLR 03/M02 A2999 570 72 -700 000/00 RMK AO2
14840KMKG MKG20050428215011704/28/05 21:50:31  5-MIN KMKG 290250Z 00000KT 10SM CLR 03/M02 A2999 570 72 -700 000/00 RMK AO2 SLP161 T00281017 58004
14840KMKG MKG20050428215511704/28/05 21:55:31  5-MIN KMKG 290255Z 00000KT 10SM CLR 03/M02 A2999 560 72 -700 000/00 RMK AO2 SLP161 T00281017 53013
14840KMKG MKG20050428220009404/28/05 22:00:31  5-MIN KMKG 290300Z 00000KT 10SM CLR 02/M02 A2999 570 75 -800 000/00 RMK AO2
14840KMKG MKG20050428220509404/28/05 22:05:31  5-MIN KMKG 290305Z 00000KT 10SM CLR 03/M02 A2999 570 72 -700 000/00 RMK AO2
14840KMKG MKG20050428221009404/28/05 22:10:31  5-MIN KMKG 290310Z 00000KT 10SM CLR 02/M02 A2999 570 75 -800 000/00 RMK AO2
14840KMKG MKG20050428221509404/28/05 22:15:31  5-MIN KMKG 290315Z 00000KT 10SM CLR 02/M02 A2999 570 75 -800 000/00 RMK AO2
14840KMKG MKG20050428222009404/28/05 22:20:31  5-MIN KMKG 290320Z 00000KT 10SM CLR 02/M02 A2999 570 75 -800 000/00 RMK AO2
14840KMKG MKG20050428222509404/28/05 22:25:31  5-MIN KMKG 290325Z 00000KT 10SM CLR 02/M02 A2999 570 75 -800 000/00 RMK AO2
14840KMKG MKG20050428223009404/28/05 22:30:31  5-MIN KMKG 290330Z 00000KT 10SM CLR 02/M02 A2999 570 75 -800 000/00 RMK AO2
14840KMKG MKG20050428223509404/28/05 22:35:31  5-MIN KMKG 290335Z 00000KT 10SM CLR 02/M02 A2999 560 75 -800 000/00 RMK AO2
14840KMKG MKG20050428224009404/28/05 22:40:31  5-MIN KMKG 290340Z 00000KT 10SM CLR 02/M02 A2999 560 78 -800 000/00 RMK AO2
14840KMKG MKG20050428224509404/28/05 22:45:31  5-MIN KMKG 290345Z 00000KT 10SM CLR 02/M02 A2999 570 78 -800 000/00 RMK AO2
14840KMKG MKG20050428225011104/28/05 22:50:31  5-MIN KMKG 290350Z 00000KT 10SM CLR 02/M02 A2999 570 78 -800 000/00 RMK AO2 SLP161 T00171017
14840KMKG MKG20050428225511104/28/05 22:55:31  5-MIN KMKG 290355Z 00000KT 10SM CLR 02/M02 A2999 570 78 -800 000/00 RMK AO2 SLP160 T00171017
14840KMKG MKG20050428230009404/28/05 23:00:31  5-MIN KMKG 290400Z 02003KT 10SM CLR 02/M02 A2999 570 78 -800 020/03 RMK AO2
14840KMKG MKG20050428230509404/28/05 23:05:31  5-MIN KMKG 290405Z 00000KT 10SM CLR 02/M02 A2999 570 78 -800 000/00 RMK AO2
14840KMKG MKG20050428231009404/28/05 23:10:31  5-MIN KMKG 290410Z 00000KT 10SM CLR 01/M02 A2999 570 82 -900 000/00 RMK AO2
14840KMKG MKG20050428231509404/28/05 23:15:31  5-MIN KMKG 290415Z 00000KT 10SM CLR 01/M02 A2998 570 82 -900 000/00 RMK AO2
14840KMKG MKG20050428232009404/28/05 23:20:31  5-MIN KMKG 290420Z 00000KT 10SM CLR 01/M02 A2998 570 82 -900 000/00 RMK AO2
14840KMKG MKG20050428232509404/28/05 23:25:31  5-MIN KMKG 290425Z 00000KT 10SM CLR 01/M02 A2998 570 78 -900 000/00 RMK AO2
14840KMKG MKG20050428233009504/28/05 23:30:31  5-MIN KMKG 290430Z 00000KT 10SM CLR 01/M02 A2998 570 82 -1000 000/00 RMK AO2
14840KMKG MKG20050428233509504/28/05 23:35:31  5-MIN KMKG 290435Z 00000KT 10SM CLR 01/M02 A2998 570 82 -1000 000/00 RMK AO2
14840KMKG MKG20050428234009504/28/05 23:40:31  5-MIN KMKG 290440Z 00000KT 10SM CLR 01/M02 A2999 570 82 -1000 000/00 RMK AO2
14840KMKG MKG20050428234509504/28/05 23:45:31  5-MIN KMKG 290445Z 00000KT 10SM CLR 01/M02 A2998 570 82 -1000 000/00 RMK AO2
14840KMKG MKG20050428235012204/28/05 23:50:31  5-MIN KMKG 290450Z 00000KT 10SM CLR 01/M02 A2999 570 82 -1000 000/00 RMK AO2 SLP160 T00061022 400830006
14840KMKG MKG20050428235512204/28/05 23:55:31  5-MIN KMKG 290455Z 00000KT 10SM CLR 01/M02 A2999 570 82 -1000 000/00 RMK AO2 SLP159 T00061022 400830006
14840KMKG MKG20050429000009504/29/05 00:00:32  5-MIN KMKG 290500Z 00000KT 10SM CLR 01/M02 A2999 570 82 -1000 000/00 RMK AO2
14840KMKG MKG20050429000509504/29/05 00:05:31  5-MIN KMKG 290505Z 00000KT 10SM CLR 01/M02 A2999 570 85 -1000 000/00 RMK AO2
14840KMKG MKG20050429001009504/29/05 00:10:31  5-MIN KMKG 290510Z 00000KT 10SM CLR 00/M02 A2999 570 85 -1000 000/00 RMK AO2
14840KMKG MKG20050429001509504/29/05 00:15:31  5-MIN KMKG 290515Z 00000KT 10SM CLR 00/M02 A2999 570 85 -1000 000/00 RMK AO2
14840KMKG MKG20050429002009504/29/05 00:20:31  5-MIN KMKG 290520Z 00000KT 10SM CLR 00/M02 A2999 570 85 -1000 000/00 RMK AO2
14840KMKG MKG20050429002509504/29/05 00:25:31  5-MIN KMKG 290525Z 00000KT 10SM CLR 00/M02 A2999 570 85 -1000 000/00 RMK AO2
14840KMKG MKG20050429003009604/29/05 00:30:31  5-MIN KMKG 290530Z 00000KT 10SM CLR M01/M02 A2998 570 88 -1100 000/00 RMK AO2
14840KMKG MKG20050429003509604/29/05 00:35:31  5-MIN KMKG 290535Z 00000KT 10SM CLR M01/M02 A2999 570 92 -1200 000/00 RMK AO2
14840KMKG MKG20050429004009604/29/05 00:40:31  5-MIN KMKG 290540Z 00000KT 10SM CLR M01/M02 A2998 570 88 -1100 000/00 RMK AO2
14840KMKG MKG20050429004509604/29/05 00:45:31  5-MIN KMKG 290545Z 00000KT 10SM CLR M01/M02 A2998 570 88 -1100 000/00 RMK AO2
14840KMKG MKG20050429005013004/29/05 00:50:31  5-MIN KMKG 290550Z 00000KT 10SM CLR 00/M02 A2998 570 85 -1000 000/00 RMK AO2 SLP158 T00001022 10078 21011 53013
14840KMKG MKG20050429005513004/29/05 00:55:31  5-MIN KMKG 290555Z 00000KT 10SM CLR 00/M03 A2998 570 81 -1000 000/00 RMK AO2 SLP158 T00001028 10078 21011 57003
14840KMKG MKG20050429010009504/29/05 01:00:31  5-MIN KMKG 290600Z 00000KT 10SM CLR 00/M03 A2998 570 81 -1000 000/00 RMK AO2
14840KMKG MKG20050429010509504/29/05 01:05:31  5-MIN KMKG 290605Z 00000KT 10SM CLR 00/M03 A2998 570 81 -1000 000/00 RMK AO2
14840KMKG MKG20050429011009504/29/05 01:10:31  5-MIN KMKG 290610Z 00000KT 10SM CLR 00/M02 A2998 570 85 -1000 000/00 RMK AO2
14840KMKG MKG20050429011509604/29/05 01:15:31  5-MIN KMKG 290615Z 00000KT 10SM CLR M01/M03 A2998 570 85 -1100 000/00 RMK AO2
14840KMKG MKG20050429012009604/29/05 01:20:31  5-MIN KMKG 290620Z 00000KT 10SM CLR M01/M03 A2998 570 85 -1100 000/00 RMK AO2
14840KMKG MKG20050429012509604/29/05 01:25:31  5-MIN KMKG 290625Z 00000KT 10SM CLR M01/M03 A2998 580 88 -1200 000/00 RMK AO2
14840KMKG MKG20050429013009604/29/05 01:30:31  5-MIN KMKG 290630Z 00000KT 10SM CLR M01/M03 A2998 580 85 -1100 000/00 RMK AO2
14840KMKG MKG20050429013509604/29/05 01:35:31  5-MIN KMKG 290635Z 00000KT 10SM CLR M01/M03 A2998 580 85 -1100 000/00 RMK AO2
14840KMKG MKG20050429014009604/29/05 01:40:31  5-MIN KMKG 290640Z 00000KT 10SM CLR M01/M03 A2998 580 85 -1100 000/00 RMK AO2
14840KMKG MKG20050429014509604/29/05 01:45:31  5-MIN KMKG 290645Z 00000KT 10SM CLR M01/M03 A2998 580 85 -1100 000/00 RMK AO2
14840KMKG MKG20050429015011304/29/05 01:50:31  5-MIN KMKG 290650Z 00000KT 10SM CLR M01/M03 A2998 580 85 -1100 000/00 RMK AO2 SLP157 T10061028
14840KMKG MKG20050429015511304/29/05 01:55:31  5-MIN KMKG 290655Z 00000KT 10SM CLR M01/M03 A2998 580 85 -1100 000/00 RMK AO2 SLP157 T10061028
14840KMKG MKG20050429020009604/29/05 02:00:31  5-MIN KMKG 290700Z 00000KT 10SM CLR M01/M03 A2998 580 88 -1200 000/00 RMK AO2
14840KMKG MKG20050429020509604/29/05 02:05:31  5-MIN KMKG 290705Z 00000KT 10SM CLR M01/M03 A2998 580 85 -1200 000/00 RMK AO2
14840KMKG MKG20050429021009604/29/05 02:10:31  5-MIN KMKG 290710Z 00000KT 10SM CLR M02/M03 A2998 580 88 -1200 000/00 RMK AO2
14840KMKG MKG20050429021509604/29/05 02:15:31  5-MIN KMKG 290715Z 00000KT 10SM CLR M02/M04 A2998 580 85 -1200 000/00 RMK AO2
14840KMKG MKG20050429022009604/29/05 02:20:31  5-MIN KMKG 290720Z 00000KT 10SM CLR M01/M03 A2998 580 85 -1200 000/00 RMK AO2
14840KMKG MKG20050429022509604/29/05 02:25:31  5-MIN KMKG 290725Z 00000KT 10SM CLR M01/M04 A2998 580 81 -1200 000/00 RMK AO2
14840KMKG MKG20050429023009604/29/05 02:30:31  5-MIN KMKG 290730Z 00000KT 10SM CLR M02/M04 A2997 580 85 -1200 000/00 RMK AO2
14840KMKG MKG20050429023509604/29/05 02:35:31  5-MIN KMKG 290735Z 00000KT 10SM CLR M02/M03 A2997 580 88 -1200 000/00 RMK AO2
14840KMKG MKG20050429024009604/29/05 02:40:31  5-MIN KMKG 290740Z 00000KT 10SM CLR M01/M03 A2997 580 88 -1200 000/00 RMK AO2
14840KMKG MKG20050429024509604/29/05 02:45:31  5-MIN KMKG 290745Z 00000KT 10SM CLR M01/M03 A2997 580 85 -1200 000/00 RMK AO2
14840KMKG MKG20050429025011304/29/05 02:50:31  5-MIN KMKG 290750Z 00000KT 10SM CLR M02/M03 A2997 580 88 -1200 000/00 RMK AO2 SLP155 T10171033
14840KMKG MKG20050429025511304/29/05 02:55:31  5-MIN KMKG 290755Z 00000KT 10SM CLR M02/M04 A2997 580 85 -1200 000/00 RMK AO2 SLP155 T10171039
14840KMKG MKG20050429030009604/29/05 03:00:31  5-MIN KMKG 290800Z 00000KT 10SM CLR M02/M04 A2997 580 85 -1200 000/00 RMK AO2
14840KMKG MKG20050429030509604/29/05 03:05:31  5-MIN KMKG 290805Z 00000KT 10SM CLR M01/M04 A2997 580 81 -1200 000/00 RMK AO2
14840KMKG MKG20050429031009604/29/05 03:10:31  5-MIN KMKG 290810Z 00000KT 10SM CLR M02/M04 A2997 580 85 -1200 000/00 RMK AO2
14840KMKG MKG20050429031509604/29/05 03:15:31  5-MIN KMKG 290815Z 00000KT 10SM CLR M02/M04 A2997 580 85 -1200 000/00 RMK AO2
14840KMKG MKG20050429032009604/29/05 03:20:31  5-MIN KMKG 290820Z 00000KT 10SM CLR M02/M04 A2997 580 85 -1200 000/00 RMK AO2
14840KMKG MKG20050429032509604/29/05 03:25:31  5-MIN KMKG 290825Z 00000KT 10SM CLR M02/M04 A2997 580 85 -1200 000/00 RMK AO2
14840KMKG MKG20050429033009604/29/05 03:30:31  5-MIN KMKG 290830Z 00000KT 10SM CLR M02/M04 A2997 580 85 -1200 000/00 RMK AO2
14840KMKG MKG20050429033509604/29/05 03:35:31  5-MIN KMKG 290835Z 00000KT 10SM CLR M02/M04 A2997 580 85 -1200 000/00 RMK AO2
14840KMKG MKG20050429034009604/29/05 03:40:31  5-MIN KMKG 290840Z 00000KT 10SM CLR M02/M03 A2997 580 88 -1200 000/00 RMK AO2
14840KMKG MKG20050429034509604/29/05 03:45:31  5-MIN KMKG 290845Z 00000KT 10SM CLR M02/M03 A2997 580 88 -1200 000/00 RMK AO2
14840KMKG MKG20050429035011904/29/05 03:50:31  5-MIN KMKG 290850Z 00000KT 10SM CLR M02/M03 A2997 580 88 -1200 000/00 RMK AO2 SLP155 T10171033 57003
14840KMKG MKG20050429035511904/29/05 03:55:31  5-MIN KMKG 290855Z 00000KT 10SM CLR M02/M03 A2997 580 88 -1200 000/00 RMK AO2 SLP154 T10171033 56004
14840KMKG MKG20050429040009604/29/05 04:00:31  5-MIN KMKG 290900Z 00000KT 10SM CLR M02/M03 A2997 590 88 -1200 000/00 RMK AO2
14840KMKG MKG20050429040509604/29/05 04:05:31  5-MIN KMKG 290905Z 00000KT 10SM CLR M02/M03 A2997 590 88 -1200 000/00 RMK AO2
14840KMKG MKG20050429041009604/29/05 04:10:31  5-MIN KMKG 290910Z 00000KT 10SM CLR M02/M04 A2997 590 88 -1300 000/00 RMK AO2
14840KMKG MKG20050429041509604/29/05 04:15:31  5-MIN KMKG 290915Z 00000KT 10SM CLR M02/M04 A2997 590 85 -1200 000/00 RMK AO2
14840KMKG MKG20050429042009604/29/05 04:20:31  5-MIN KMKG 290920Z 00000KT 10SM CLR M02/M04 A2997 590 85 -1200 000/00 RMK AO2
14840KMKG MKG20050429042509604/29/05 04:25:31  5-MIN KMKG 290925Z 00000KT 10SM CLR M02/M04 A2997 590 88 -1300 000/00 RMK AO2
14840KMKG MKG20050429043009604/29/05 04:30:31  5-MIN KMKG 290930Z 00000KT 10SM CLR M02/M04 A2997 590 88 -1300 000/00 RMK AO2
14840KMKG MKG20050429043509604/29/05 04:35:31  5-MIN KMKG 290935Z 00000KT 10SM CLR M02/M04 A2996 590 85 -1200 000/00 RMK AO2
14840KMKG MKG20050429044009604/29/05 04:40:31  5-MIN KMKG 290940Z 00000KT 10SM CLR M02/M04 A2996 590 85 -1200 000/00 RMK AO2
14840KMKG MKG20050429044509604/29/05 04:45:31  5-MIN KMKG 290945Z 00000KT 10SM CLR M02/M04 A2997 590 85 -1200 000/00 RMK AO2
14840KMKG MKG20050429045011304/29/05 04:50:31  5-MIN KMKG 290950Z 00000KT 10SM CLR M02/M04 A2996 590 85 -1200 000/00 RMK AO2 SLP152 T10171039
14840KMKG MKG20050429045511304/29/05 04:55:31  5-MIN KMKG 290955Z 00000KT 10SM CLR M02/M04 A2997 590 85 -1200 000/00 RMK AO2 SLP153 T10171039
14840KMKG MKG20050429050009604/29/05 05:00:31  5-MIN KMKG 291000Z 00000KT 10SM CLR M02/M04 A2996 590 85 -1200 000/00 RMK AO2
14840KMKG MKG20050429050509604/29/05 05:05:31  5-MIN KMKG 291005Z 00000KT 10SM CLR M02/M04 A2996 590 85 -1200 000/00 RMK AO2
14840KMKG MKG20050429051009604/29/05 05:10:31  5-MIN KMKG 291010Z 00000KT 10SM CLR M02/M04 A2996 590 81 -1200 000/00 RMK AO2
14840KMKG MKG20050429051509604/29/05 05:15:31  5-MIN KMKG 291015Z 00000KT 10SM CLR M02/M04 A2996 590 85 -1200 000/00 RMK AO2
14840KMKG MKG20050429052009604/29/05 05:20:31  5-MIN KMKG 291020Z 00000KT 10SM CLR M02/M04 A2996 590 85 -1200 000/00 RMK AO2
14840KMKG MKG20050429052509604/29/05 05:25:31  5-MIN KMKG 291025Z 00000KT 10SM CLR M02/M04 A2996 590 81 -1200 000/00 RMK AO2
14840KMKG MKG20050429053009604/29/05 05:30:31  5-MIN KMKG 291030Z 00000KT 10SM CLR M02/M04 A2996 590 88 -1300 000/00 RMK AO2
14840KMKG MKG20050429053509604/29/05 05:35:31  5-MIN KMKG 291035Z 00000KT 10SM CLR M02/M04 A2996 590 88 -1300 000/00 RMK AO2
14840KMKG MKG20050429054009604/29/05 05:40:31  5-MIN KMKG 291040Z 00000KT 10SM CLR M02/M04 A2996 590 88 -1300 000/00 RMK AO2
14840KMKG MKG20050429054509604/29/05 05:45:31  5-MIN KMKG 291045Z 00000KT 10SM CLR M02/M04 A2996 600 88 -1300 000/00 RMK AO2
14840KMKG MKG20050429055011304/29/05 05:50:31  5-MIN KMKG 291050Z 00000KT 10SM CLR M02/M04 A2996 600 88 -1300 000/00 RMK AO2 SLP150 T10221039
14840KMKG MKG20050429055511304/29/05 05:55:31  5-MIN KMKG 291055Z 00000KT 10SM CLR M02/M04 A2996 600 85 -1200 000/00 RMK AO2 SLP150 T10171039
14840KMKG MKG20050429060009604/29/05 06:00:31  5-MIN KMKG 291100Z 00000KT 10SM CLR M02/M04 A2996 600 88 -1300 000/00 RMK AO2
14840KMKG MKG20050429060509604/29/05 06:05:31  5-MIN KMKG 291105Z 00000KT 10SM CLR M02/M04 A2996 590 88 -1300 000/00 RMK AO2
14840KMKG MKG20050429061009604/29/05 06:10:31  5-MIN KMKG 291110Z 00000KT 10SM CLR M02/M04 A2996 590 85 -1200 000/00 RMK AO2
14840KMKG MKG20050429061509604/29/05 06:15:31  5-MIN KMKG 291115Z 00000KT 10SM CLR M02/M04 A2996 590 85 -1200 000/00 RMK AO2
14840KMKG MKG20050429062009604/29/05 06:20:31  5-MIN KMKG 291120Z 00000KT 10SM CLR M02/M04 A2996 590 85 -1300 000/00 RMK AO2
14840KMKG MKG20050429062509604/29/05 06:25:31  5-MIN KMKG 291125Z 02003KT 10SM CLR M02/M04 A2996 590 85 -1200 030/03 RMK AO2
14840KMKG MKG20050429063009604/29/05 06:30:31  5-MIN KMKG 291130Z 03003KT 10SM CLR M01/M03 A2997 590 85 -1200 030/03 RMK AO2
14840KMKG MKG20050429063509604/29/05 06:35:31  5-MIN KMKG 291135Z 03003KT 10SM CLR M01/M03 A2997 580 81 -1100 030/03 RMK AO2
14840KMKG MKG20050429064009504/29/05 06:40:31  5-MIN KMKG 291140Z 02003KT 10SM CLR 00/M03 A2997 580 78 -1000 030/03 RMK AO2
14840KMKG MKG20050429064509404/29/05 06:45:31  5-MIN KMKG 291145Z 04003KT 10SM CLR 01/M03 A2997 580 75 -900 040/03 RMK AO2
14840KMKG MKG20050429065013004/29/05 06:50:31  5-MIN KMKG 291150Z 03003KT 10SM CLR 01/M03 A2998 580 78 -1000 040/03 RMK AO2 SLP156 T00061028 10006 21022 56004
14840KMKG MKG20050429065513004/29/05 06:55:31  5-MIN KMKG 291155Z 03003KT 10SM CLR 01/M03 A2998 580 78 -1000 030/03 RMK AO2 SLP157 T00061028 10006 21022 53002
14840KMKG MKG20050429070009404/29/05 07:00:31  5-MIN KMKG 291200Z 04003KT 10SM CLR 01/M03 A2998 580 75 -900 040/03 RMK AO2
14840KMKG MKG20050429070509404/29/05 07:05:31  5-MIN KMKG 291205Z 00000KT 10SM CLR 01/M03 A2998 570 75 -900 000/00 RMK AO2
14840KMKG MKG20050429071009404/29/05 07:10:31  5-MIN KMKG 291210Z 03003KT 10SM CLR 02/M02 A2998 570 75 -800 040/03 RMK AO2
14840KMKG MKG20050429071509404/29/05 07:15:31  5-MIN KMKG 291215Z 00000KT 10SM CLR 02/M02 A2999 570 75 -800 000/00 RMK AO2
14840KMKG MKG20050429072009404/29/05 07:20:31  5-MIN KMKG 291220Z 00000KT 10SM CLR 02/M02 A2999 570 75 -800 000/00 RMK AO2
14840KMKG MKG20050429072509404/29/05 07:25:31  5-MIN KMKG 291225Z 04003KT 10SM CLR 02/M03 A2999 570 69 -800 050/03 RMK AO2
14840KMKG MKG20050429073009404/29/05 07:30:31  5-MIN KMKG 291230Z 00000KT 10SM CLR 02/M03 A2999 570 69 -800 000/00 RMK AO2
14840KMKG MKG20050429073509404/29/05 07:35:31  5-MIN KMKG 291235Z 00000KT 10SM CLR 02/M02 A2999 570 72 -800 000/00 RMK AO2
14840KMKG MKG20050429074009404/29/05 07:40:31  5-MIN KMKG 291240Z 00000KT 10SM CLR 03/M03 A2999 570 67 -700 000/00 RMK AO2
14840KMKG MKG20050429074509404/29/05 07:45:31  5-MIN KMKG 291245Z 00000KT 10SM CLR 03/M03 A2999 570 67 -700 000/00 RMK AO2
14840KMKG MKG20050429075011104/29/05 07:50:31  5-MIN KMKG 291250Z VRB03KT 10SM CLR 03/M02 A2999 570 67 -600 VRB/03 RMK AO2 SLP161 T00331022
14840KMKG MKG20050429075511104/29/05 07:55:31  5-MIN KMKG 291255Z 08003KT 10SM CLR 03/M03 A2999 570 64 -600 080/03 RMK AO2 SLP161 T00331028
14840KMKG MKG20050429080009404/29/05 08:00:31  5-MIN KMKG 291300Z 09003KT 10SM CLR 04/M03 A2999 570 62 -600 090/03 RMK AO2
14840KMKG MKG20050429080509404/29/05 08:05:31  5-MIN KMKG 291305Z 00000KT 10SM CLR 04/M03 A2999 570 62 -600 000/00 RMK AO2
14840KMKG MKG20050429081009404/29/05 08:10:31  5-MIN KMKG 291310Z 10004KT 10SM CLR 04/M03 A2999 570 59 -500 110/04 RMK AO2
14840KMKG MKG20050429081509404/29/05 08:15:31  5-MIN KMKG 291315Z 11003KT 10SM CLR 05/M03 A2999 570 55 -400 110/03 RMK AO2
14840KMKG MKG20050429082009404/29/05 08:20:31  5-MIN KMKG 291320Z 12003KT 10SM CLR 05/M03 A2999 570 55 -400 130/03 RMK AO2
14840KMKG MKG20050429082509404/29/05 08:25:31  5-MIN KMKG 291325Z VRB03KT 10SM CLR 05/M03 A2999 570 55 -400 VRB/03 RMK AO2
14840KMKG MKG20050429083009404/29/05 08:30:31  5-MIN KMKG 291330Z VRB03KT 10SM CLR 06/M04 A2999 570 50 -300 VRB/03 RMK AO2
14840KMKG MKG20050429083509404/29/05 08:35:31  5-MIN KMKG 291335Z 11004KT 10SM CLR 06/M04 A2999 570 50 -300 110/04 RMK AO2
14840KMKG MKG20050429084009404/29/05 08:40:31  5-MIN KMKG 291340Z 00000KT 10SM CLR 06/M04 A2999 570 50 -300 000/00 RMK AO2
14840KMKG MKG20050429084509404/29/05 08:45:31  5-MIN KMKG 291345Z 13004KT 10SM CLR 06/M03 A2999 570 51 -300 130/04 RMK AO2
14840KMKG MKG20050429085011104/29/05 08:50:31  5-MIN KMKG 291350Z 00000KT 10SM CLR 07/M04 A2999 570 47 -200 000/00 RMK AO2 SLP159 T00671039
14840KMKG MKG20050429085511104/29/05 08:55:31  5-MIN KMKG 291355Z 13004KT 10SM CLR 07/M04 A2999 570 47 -200 130/04 RMK AO2 SLP161 T00671039
14840KMKG MKG20050429090009404/29/05 09:00:31  5-MIN KMKG 291400Z 14004KT 10SM CLR 07/M04 A2999 570 47 -200 150/04 RMK AO2
14840KMKG MKG20050429090509404/29/05 09:05:31  5-MIN KMKG 291405Z 00000KT 10SM CLR 07/M04 A2999 570 47 -200 000/00 RMK AO2
14840KMKG MKG20050429091009404/29/05 09:10:31  5-MIN KMKG 291410Z 13004KT 10SM CLR 07/M04 A2999 570 45 -100 140/04 RMK AO2
14840KMKG MKG20050429091509404/29/05 09:15:31  5-MIN KMKG 291415Z 12004KT 10SM CLR 07/M04 A2999 570 43 -100 130/04 RMK AO2
14840KMKG MKG20050429092009404/29/05 09:20:31  5-MIN KMKG 291420Z 14004KT 10SM CLR 08/M05 A2999 570 40 -100 140/04 RMK AO2
14840KMKG MKG20050429092509404/29/05 09:25:31  5-MIN KMKG 291425Z 00000KT 10SM CLR 08/M05 A2999 570 40 -100 000/00 RMK AO2
14840KMKG MKG20050429093009104/29/05 09:30:31  5-MIN KMKG 291430Z 00000KT 10SM CLR 08/M05 A2999 570 38 0 000/00 RMK AO2
14840KMKG MKG20050429093509404/29/05 09:35:31  5-MIN KMKG 291435Z 11005KT 10SM CLR 08/M05 A2999 570 40 -100 120/05 RMK AO2
14840KMKG MKG20050429094009104/29/05 09:40:31  5-MIN KMKG 291440Z 00000KT 10SM CLR 08/M06 A2998 570 37 0 000/00 RMK AO2
14840KMKG MKG20050429094509104/29/05 09:45:31  5-MIN KMKG 291445Z 00000KT 10SM CLR 08/M06 A2998 570 37 0 000/00 RMK AO2
14840KMKG MKG20050429095011404/29/05 09:50:31  5-MIN KMKG 291450Z VRB03KT 10SM CLR 08/M06 A2998 570 37 0 VRB/03 RMK AO2 SLP157 T00831056 53002
14840KMKG MKG20050429095511404/29/05 09:55:31  5-MIN KMKG 291455Z 00000KT 10SM CLR 08/M06 A2998 580 35 0 000/00 RMK AO2 SLP157 T00831061 50001
14840KMKG MKG20050429100009104/29/05 10:00:31  5-MIN KMKG 291500Z VRB04KT 10SM CLR 09/M06 A2998 580 35 0 VRB/04 RMK AO2
14840KMKG MKG20050429100509104/29/05 10:05:31  5-MIN KMKG 291505Z 07004KT 10SM CLR 08/M06 A2998 580 35 0 070/04 RMK AO2
14840KMKG MKG20050429101009104/29/05 10:10:31  5-MIN KMKG 291510Z 00000KT 10SM CLR 09/M06 A2998 580 34 0 000/00 RMK AO2
14840KMKG MKG20050429101509104/29/05 10:15:31  5-MIN KMKG 291515Z 31003KT 10SM CLR 09/M06 A2998 580 35 0 320/03 RMK AO2
14840KMKG MKG20050429102009104/29/05 10:20:31  5-MIN KMKG 291520Z 00000KT 10SM CLR 09/M06 A2998 580 35 0 000/00 RMK AO2
14840KMKG MKG20050429102509304/29/05 10:25:31  5-MIN KMKG 291525Z 34006KT 10SM CLR 10/M05 A2998 580 34 200 340/06 RMK AO2
14840KMKG MKG20050429103009304/29/05 10:30:31  5-MIN KMKG 291530Z VRB04KT 10SM CLR 09/M05 A2998 580 35 100 VRB/04 RMK AO2
14840KMKG MKG20050429103509304/29/05 10:35:31  5-MIN KMKG 291535Z 00000KT 10SM CLR 09/M05 A2997 580 35 100 000/00 RMK AO2
14840KMKG MKG20050429104009304/29/05 10:40:31  5-MIN KMKG 291540Z VRB05KT 10SM CLR 09/M05 A2997 580 35 100 VRB/05 RMK AO2
14840KMKG MKG20050429104509604/29/05 10:45:31  5-MIN KMKG 291545Z 03005KT 10SM FEW055 10/M05 A2997 580 34 200 040/05 RMK AO2
14840KMKG MKG20050429105011304/29/05 10:50:31  5-MIN KMKG 291550Z VRB03KT 10SM FEW055 10/M05 A2997 580 34 200 VRB/03 RMK AO2 SLP155 T01001050
14840KMKG MKG20050429105511304/29/05 10:55:31  5-MIN KMKG 291555Z 30006KT 10SM FEW055 10/M05 A2997 580 34 200 300/06 RMK AO2 SLP155 T01001050
14840KMKG MKG20050429110009304/29/05 11:00:31  5-MIN KMKG 291600Z VRB05KT 10SM CLR 09/M04 A2997 580 37 100 VRB/05 RMK AO2
14840KMKG MKG20050429110509104/29/05 11:05:31  5-MIN KMKG 291605Z 26008KT 10SM CLR 09/M03 A2997 580 42 0 270/08 RMK AO2
14840KMKG MKG20050429111009304/29/05 11:10:31  5-MIN KMKG 291610Z 24008KT 10SM CLR 09/M03 A2997 580 40 100 240/08 RMK AO2
14840KMKG MKG20050429111509304/29/05 11:15:31  5-MIN KMKG 291615Z 23008KT 10SM CLR 09/M03 A2997 580 40 100 230/08 RMK AO2
14840KMKG MKG20050429112009304/29/05 11:20:31  5-MIN KMKG 291620Z 25010KT 10SM CLR 09/M03 A2997 580 40 100 260/10 RMK AO2
14840KMKG MKG20050429112509304/29/05 11:25:31  5-MIN KMKG 291625Z 25009KT 10SM CLR 09/M03 A2997 580 40 100 260/09 RMK AO2
14840KMKG MKG20050429113009304/29/05 11:30:31  5-MIN KMKG 291630Z 26008KT 10SM CLR 10/M03 A2997 580 39 200 270/08 RMK AO2
14840KMKG MKG20050429113509304/29/05 11:35:31  5-MIN KMKG 291635Z 26009KT 10SM CLR 09/M04 A2997 580 39 100 270/09 RMK AO2
14840KMKG MKG20050429114009604/29/05 11:40:31  5-MIN KMKG 291640Z 27011KT 10SM FEW060 09/M03 A2997 580 40 100 270/11 RMK AO2
14840KMKG MKG20050429114509604/29/05 11:45:31  5-MIN KMKG 291645Z 26010KT 10SM FEW060 09/M04 A2997 580 39 100 260/10 RMK AO2
14840KMKG MKG20050429115011104/29/05 11:50:31  5-MIN KMKG 291650Z 26009KT 10SM SCT060 09/M04 A2997 590 40 0 260/09 RMK AO2 SLP152 T00891039
14840KMKG MKG20050429115511304/29/05 11:55:31  5-MIN KMKG 291655Z 28009KT 10SM SCT060 09/M04 A2996 590 39 100 280/09 RMK AO2 SLP151 T00941039
14840KMKG MKG20050429120009304/29/05 12:00:31  5-MIN KMKG 291700Z 28009KT 10SM CLR 09/M04 A2996 590 37 100 280/09 RMK AO2
14840KMKG MKG20050429120509304/29/05 12:05:31  5-MIN KMKG 291705Z 28011KT 10SM CLR 09/M04 A2996 590 39 100 280/11 RMK AO2
14840KMKG MKG20050429121009304/29/05 12:10:31  5-MIN KMKG 291710Z 28010KT 10SM CLR 09/M04 A2996 590 39 100 280/10 RMK AO2
14840KMKG MKG20050429121509304/29/05 12:15:31  5-MIN KMKG 291715Z 28011KT 10SM CLR 10/M04 A2996 590 37 200 280/11 RMK AO2
14840KMKG MKG20050429122009304/29/05 12:20:31  5-MIN KMKG 291720Z 28011KT 10SM CLR 10/M04 A2996 600 37 200 280/11 RMK AO2
14840KMKG MKG20050429122509304/29/05 12:25:31  5-MIN KMKG 291725Z 28010KT 10SM CLR 09/M04 A2996 600 39 100 280/10 RMK AO2
14840KMKG MKG20050429123009304/29/05 12:30:31  5-MIN KMKG 291730Z 27010KT 10SM CLR 09/M04 A2995 600 37 100 280/10 RMK AO2
14840KMKG MKG20050429123509304/29/05 12:35:31  5-MIN KMKG 291735Z 28009KT 10SM CLR 10/M04 A2995 600 36 200 280/09 RMK AO2
14840KMKG MKG20050429124009304/29/05 12:40:31  5-MIN KMKG 291740Z 27009KT 10SM CLR 10/M04 A2995 600 36 200 270/09 RMK AO2
14840KMKG MKG20050429124509604/29/05 12:45:31  5-MIN KMKG 291745Z 26009KT 10SM SCT060 10/M04 A2995 600 36 200 270/09 RMK AO2
14840KMKG MKG20050429125014804/29/05 12:50:31  5-MIN KMKG 291750Z 27008KT 250V340 10SM SCT060 10/M04  A2995 600 36 200 270/08 250V340 RMK AO2 SLP146 T01001044 10106 20006 50001
14840KMKG MKG20050429125514804/29/05 12:55:31  5-MIN KMKG 291755Z 27008KT 160V020 10SM SCT060 11/M04  A2995 600 34 300 280/08 160V020 RMK AO2 SLP146 T01111039 10111 20006 58010
14840KMKG MKG20050429130009304/29/05 13:00:31  5-MIN KMKG 291800Z 27010KT 10SM CLR 10/M04 A2995 600 37 200 270/10 RMK AO2
14840KMKG MKG20050429130509304/29/05 13:05:31  5-MIN KMKG 291805Z 29010KT 10SM CLR 10/M04 A2994 610 36 200 300/10 RMK AO2
14840KMKG MKG20050429131009304/29/05 13:10:31  5-MIN KMKG 291810Z 28009KT 10SM CLR 10/M04 A2995 610 36 200 280/09 RMK AO2
14840KMKG MKG20050429131509304/29/05 13:15:31  5-MIN KMKG 291815Z 27008KT 10SM CLR 11/M04 A2994 610 36 300 280/08 RMK AO2
14840KMKG MKG20050429132009304/29/05 13:20:31  5-MIN KMKG 291820Z 28009KT 10SM CLR 11/M04 A2994 610 36 300 290/09 RMK AO2
14840KMKG MKG20050429132509304/29/05 13:25:31  5-MIN KMKG 291825Z 26009KT 10SM CLR 10/M04 A2994 610 36 200 260/09 RMK AO2
14840KMKG MKG20050429133009304/29/05 13:30:31  5-MIN KMKG 291830Z 29008KT 10SM CLR 10/M04 A2995 610 36 200 290/08 RMK AO2
14840KMKG MKG20050429133509604/29/05 13:35:31  5-MIN KMKG 291835Z 27009KT 10SM SCT060 10/M04 A2994 610 36 200 280/09 RMK AO2
14840KMKG MKG20050429134009604/29/05 13:40:31  5-MIN KMKG 291840Z 26010KT 10SM SCT060 09/M05 A2995 610 35 100 260/10 RMK AO2
14840KMKG MKG20050429134509604/29/05 13:45:31  5-MIN KMKG 291845Z 27010KT 10SM SCT060 09/M05 A2995 610 35 100 270/10 RMK AO2
14840KMKG MKG20050429135011304/29/05 13:50:31  5-MIN KMKG 291850Z 26010KT 10SM SCT060 10/M04 A2995 610 36 200 270/10 RMK AO2 SLP145 T01001044
14840KMKG MKG20050429135511304/29/05 13:55:31  5-MIN KMKG 291855Z 29010KT 10SM SCT060 10/M04 A2995 610 36 200 290/10 RMK AO2 SLP145 T01001044
14840KMKG MKG20050429140009304/29/05 14:00:31  5-MIN KMKG 291900Z 29009KT 10SM CLR 11/M04 A2994 610 34 300 300/09 RMK AO2
14840KMKG MKG20050429140510904/29/05 14:05:31  5-MIN KMKG 291905Z 30009KT 250V350 10SM CLR 11/M04 A2994 610 36 300 300/09 250V350 RMK AO2
14840KMKG MKG20050429141009304/29/05 14:10:31  5-MIN KMKG 291910Z 30010KT 10SM CLR 11/M05 A2994 610 33 300 300/10 RMK AO2
14840KMKG MKG20050429141509304/29/05 14:15:31  5-MIN KMKG 291915Z 30011KT 10SM CLR 10/M06 A2994 610 33 200 300/11 RMK AO2
14840KMKG MKG20050429142009304/29/05 14:20:31  5-MIN KMKG 291920Z 29011KT 10SM CLR 10/M06 A2995 610 33 200 290/11 RMK AO2
14840KMKG MKG20050429142509304/29/05 14:25:31  5-MIN KMKG 291925Z 29011KT 10SM CLR 10/M05 A2994 610 34 200 300/11 RMK AO2
14840KMKG MKG20050429143009304/29/05 14:30:31  5-MIN KMKG 291930Z 30012KT 10SM CLR 10/M06 A2994 610 33 200 300/12 RMK AO2
14840KMKG MKG20050429143509304/29/05 14:35:31  5-MIN KMKG 291935Z 30010KT 10SM CLR 10/M05 A2994 610 34 200 310/10 RMK AO2
14840KMKG MKG20050429144009304/29/05 14:40:31  5-MIN KMKG 291940Z 30010KT 10SM CLR 10/M05 A2994 610 34 200 300/10 RMK AO2
14840KMKG MKG20050429144509304/29/05 14:45:31  5-MIN KMKG 291945Z 30010KT 10SM CLR 10/M06 A2994 610 33 200 310/10 RMK AO2
14840KMKG MKG20050429145011304/29/05 14:50:31  5-MIN KMKG 291950Z 30011KT 10SM SCT060 10/M06 A2994 610 33 200 300/11 RMK AO2 SLP143 T01001056
14840KMKG MKG20050429145511304/29/05 14:55:31  5-MIN KMKG 291955Z 30011KT 10SM SCT060 10/M06 A2994 610 33 200 310/11 RMK AO2 SLP144 T01001056
14840KMKG MKG20050429150009304/29/05 15:00:31  5-MIN KMKG 292000Z 30012KT 10SM CLR 10/M06 A2994 610 33 200 310/12 RMK AO2
14840KMKG MKG20050429150509304/29/05 15:05:31  5-MIN KMKG 292005Z 30010KT 10SM CLR 11/M05 A2994 610 33 300 300/10 RMK AO2
14840KMKG MKG20050429151010904/29/05 15:10:31  5-MIN KMKG 292010Z 30010KT 260V320 10SM CLR 10/M05 A2994 620 34 200 300/10 260V320 RMK AO2
14840KMKG MKG20050429151509304/29/05 15:15:31  5-MIN KMKG 292015Z 30011KT 10SM CLR 10/M06 A2994 620 33 200 300/11 RMK AO2
14840KMKG MKG20050429152009304/29/05 15:20:31  5-MIN KMKG 292020Z 30010KT 10SM CLR 10/M06 A2993 620 33 200 300/10 RMK AO2
14840KMKG MKG20050429152509304/29/05 15:25:31  5-MIN KMKG 292025Z 29010KT 10SM CLR 10/M06 A2993 620 33 200 290/10 RMK AO2
14840KMKG MKG20050429153009304/29/05 15:30:31  5-MIN KMKG 292030Z 29008KT 10SM CLR 10/M05 A2993 620 34 200 290/08 RMK AO2
14840KMKG MKG20050429153509304/29/05 15:35:31  5-MIN KMKG 292035Z 30011KT 10SM CLR 09/M06 A2993 630 34 100 310/11 RMK AO2
14840KMKG MKG20050429154009304/29/05 15:40:31  5-MIN KMKG 292040Z 30008KT 10SM CLR 10/M06 A2993 630 33 200 300/08 RMK AO2
14840KMKG MKG20050429154509604/29/05 15:45:31  5-MIN KMKG 292045Z 30011KT 10SM FEW060 10/M05 A2993 620 34 200 300/11 RMK AO2
14840KMKG MKG20050429155011904/29/05 15:50:31  5-MIN KMKG 292050Z 29009KT 10SM FEW060 09/M05 A2993 620 35 100 300/09 RMK AO2 SLP140 T00941050 58010
14840KMKG MKG20050429155511904/29/05 15:55:31  5-MIN KMKG 292055Z 28010KT 10SM FEW060 09/M06 A2993 620 34 100 290/10 RMK AO2 SLP139 T00941056 58007
14840KMKG MKG20050429160009304/29/05 16:00:31  5-MIN KMKG 292100Z 29010KT 10SM CLR 09/M06 A2992 630 33 200 300/10 RMK AO2
14840KMKG MKG20050429160509304/29/05 16:05:31  5-MIN KMKG 292105Z 29010KT 10SM CLR 09/M06 A2992 630 33 200 300/10 RMK AO2
14840KMKG MKG20050429161009304/29/05 16:10:31  5-MIN KMKG 292110Z 29009KT 10SM CLR 09/M06 A2992 630 33 200 290/09 RMK AO2
14840KMKG MKG20050429161509304/29/05 16:15:31  5-MIN KMKG 292115Z 29009KT 10SM CLR 09/M06 A2992 630 33 200 290/09 RMK AO2
14840KMKG MKG20050429162009304/29/05 16:20:31  5-MIN KMKG 292120Z 30007KT 10SM CLR 09/M07 A2992 630 31 200 300/07 RMK AO2
14840KMKG MKG20050429162509304/29/05 16:25:31  5-MIN KMKG 292125Z 29009KT 10SM CLR 09/M06 A2992 630 33 200 300/09 RMK AO2
14840KMKG MKG20050429163009304/29/05 16:30:31  5-MIN KMKG 292130Z 29010KT 10SM CLR 09/M06 A2992 630 33 200 300/10 RMK AO2
14840KMKG MKG20050429163509304/29/05 16:35:31  5-MIN KMKG 292135Z 30008KT 10SM CLR 09/M06 A2992 630 33 200 300/08 RMK AO2
14840KMKG MKG20050429164009304/29/05 16:40:31  5-MIN KMKG 292140Z 29009KT 10SM CLR 09/M06 A2992 630 34 200 290/09 RMK AO2
14840KMKG MKG20050429164509604/29/05 16:45:31  5-MIN KMKG 292145Z 28009KT 10SM FEW060 09/M06 A2992 630 35 100 290/09 RMK AO2
14840KMKG MKG20050429165011304/29/05 16:50:31  5-MIN KMKG 292150Z 28009KT 10SM FEW060 09/M05 A2992 630 37 100 290/09 RMK AO2 SLP137 T00891050
14840KMKG MKG20050429165511304/29/05 16:55:31  5-MIN KMKG 292155Z 29008KT 10SM FEW060 09/M05 A2992 630 37 100 290/08 RMK AO2 SLP137 T00891050
14840KMKG MKG20050429170009304/29/05 17:00:31  5-MIN KMKG 292200Z 28009KT 10SM CLR 09/M04 A2992 630 38 100 280/09 RMK AO2
14840KMKG MKG20050429170509304/29/05 17:05:31  5-MIN KMKG 292205Z 29009KT 10SM CLR 09/M04 A2992 630 38 100 290/09 RMK AO2
14840KMKG MKG20050429171009104/29/05 17:10:31  5-MIN KMKG 292210Z 28009KT 10SM CLR 08/M05 A2993 630 38 0 290/09 RMK AO2
14840KMKG MKG20050429171509104/29/05 17:15:31  5-MIN KMKG 292215Z 29008KT 10SM CLR 08/M05 A2993 620 38 0 290/08 RMK AO2
14840KMKG MKG20050429172009104/29/05 17:20:31  5-MIN KMKG 292220Z 29007KT 10SM CLR 08/M05 A2993 620 38 0 290/07 RMK AO2
14840KMKG MKG20050429172509104/29/05 17:25:31  5-MIN KMKG 292225Z 28009KT 10SM CLR 08/M06 A2992 630 37 0 280/09 RMK AO2
14840KMKG MKG20050429173009104/29/05 17:30:31  5-MIN KMKG 292230Z 28008KT 10SM CLR 08/M06 A2993 620 37 0 290/08 RMK AO2
14840KMKG MKG20050429173509104/29/05 17:35:31  5-MIN KMKG 292235Z 29008KT 10SM CLR 08/M06 A2993 620 37 0 290/08 RMK AO2
14840KMKG MKG20050429174009404/29/05 17:40:31  5-MIN KMKG 292240Z 30009KT 10SM FEW120 08/M06 A2993 620 37 0 300/09 RMK AO2
14840KMKG MKG20050429174509404/29/05 17:45:31  5-MIN KMKG 292245Z 29009KT 10SM FEW120 08/M06 A2993 620 38 0 290/09 RMK AO2
14840KMKG MKG20050429175011104/29/05 17:50:31  5-MIN KMKG 292250Z 29006KT 10SM FEW120 08/M06 A2993 620 38 0 300/06 RMK AO2 SLP140 T00781056
14840KMKG MKG20050429175511104/29/05 17:55:31  5-MIN KMKG 292255Z 30006KT 10SM FEW120 08/M05 A2993 620 40 0 300/06 RMK AO2 SLP139 T00781050
14840KMKG MKG20050429180009404/29/05 18:00:31  5-MIN KMKG 292300Z 29007KT 10SM FEW120 08/M05 A2993 630 40 0 290/07 RMK AO2
14840KMKG MKG20050429180509404/29/05 18:05:31  5-MIN KMKG 292305Z 28006KT 10SM FEW120 08/M05 A2992 630 40 0 290/06 RMK AO2
14840KMKG MKG20050429181009404/29/05 18:10:31  5-MIN KMKG 292310Z 29006KT 10SM FEW120 08/M05 A2992 630 40 0 290/06 RMK AO2
14840KMKG MKG20050429181509104/29/05 18:15:31  5-MIN KMKG 292315Z 28005KT 10SM CLR 08/M05 A2992 630 40 0 290/05 RMK AO2
14840KMKG MKG20050429182009104/29/05 18:20:31  5-MIN KMKG 292320Z 27006KT 10SM CLR 08/M04 A2993 630 41 0 270/06 RMK AO2
14840KMKG MKG20050429182509104/29/05 18:25:31  5-MIN KMKG 292325Z 27006KT 10SM CLR 08/M04 A2993 630 41 0 280/06 RMK AO2
14840KMKG MKG20050429183009404/29/05 18:30:31  5-MIN KMKG 292330Z 28005KT 10SM FEW120 08/M04 A2993 630 41 0 280/05 RMK AO2
14840KMKG MKG20050429183509704/29/05 18:35:31  5-MIN KMKG 292335Z 27005KT 10SM SCT110 07/M04 A2993 630 43 -100 270/05 RMK AO2
14840KMKG MKG20050429184009704/29/05 18:40:31  5-MIN KMKG 292340Z 26007KT 10SM SCT110 07/M04 A2993 620 43 -100 270/07 RMK AO2
14840KMKG MKG20050429184509704/29/05 18:45:31  5-MIN KMKG 292345Z 28008KT 10SM FEW100 07/M05 A2993 630 41 -100 280/08 RMK AO2
14840KMKG MKG20050429185013204/29/05 18:50:31  5-MIN KMKG 292350Z 27005KT 10SM SCT110 07/M05 A2992 630 41 -100 280/05 RMK AO2 SLP139 T00721050 10111 20072 58007
14840KMKG MKG20050429185513204/29/05 18:55:31  5-MIN KMKG 292355Z 27007KT 10SM SCT110 07/M04 A2992 630 45 -100 280/07 RMK AO2 SLP138 T00671044 10111 20067 56001
14840KMKG MKG20050429190009704/29/05 19:00:31  5-MIN KMKG 300000Z 28005KT 10SM BKN100 07/M05 A2992 630 43 -100 280/05 RMK AO2
14840KMKG MKG20050429190509704/29/05 19:05:31  5-MIN KMKG 300005Z 26007KT 10SM BKN100 07/M04 A2992 630 45 -100 270/07 RMK AO2
14840KMKG MKG20050429191009704/29/05 19:10:31  5-MIN KMKG 300010Z 27006KT 10SM BKN100 07/M05 A2992 630 43 -100 270/06 RMK AO2
14840KMKG MKG20050429191509704/29/05 19:15:31  5-MIN KMKG 300015Z 28006KT 10SM SCT100 07/M05 A2992 630 43 -100 280/06 RMK AO2
14840KMKG MKG20050429192009704/29/05 19:20:31  5-MIN KMKG 300020Z 27005KT 10SM SCT100 07/M04 A2992 630 45 -100 280/05 RMK AO2
14840KMKG MKG20050429192509704/29/05 19:25:31  5-MIN KMKG 300025Z 29005KT 10SM SCT100 07/M04 A2992 630 45 -100 300/05 RMK AO2
14840KMKG MKG20050429193009704/29/05 19:30:31  5-MIN KMKG 300030Z 28005KT 10SM SCT100 07/M05 A2992 630 43 -100 290/05 RMK AO2
14840KMKG MKG20050429193509704/29/05 19:35:31  5-MIN KMKG 300035Z 28004KT 10SM FEW090 07/M04 A2992 630 45 -100 280/04 RMK AO2
14840KMKG MKG20050429194009704/29/05 19:40:31  5-MIN KMKG 300040Z 27004KT 10SM FEW100 07/M04 A2992 630 45 -100 270/04 RMK AO2
14840KMKG MKG20050429194509704/29/05 19:45:31  5-MIN KMKG 300045Z 28004KT 10SM SCT110 06/M04 A2992 630 48 -200 280/04 RMK AO2
14840KMKG MKG20050429195011404/29/05 19:50:31  5-MIN KMKG 300050Z 27003KT 10SM BKN110 07/M04 A2992 630 45 -100 280/03 RMK AO2 SLP135 T00671044
14840KMKG MKG20050429195511404/29/05 19:55:31  5-MIN KMKG 300055Z 27003KT 10SM BKN110 06/M04 A2991 640 48 -200 270/03 RMK AO2 SLP134 T00611039
14840KMKG MKG20050429200009704/29/05 20:00:31  5-MIN KMKG 300100Z 00000KT 10SM BKN110 06/M04 A2992 630 48 -200 000/00 RMK AO2
14840KMKG MKG20050429200509704/29/05 20:05:31  5-MIN KMKG 300105Z 27003KT 10SM OVC110 06/M04 A2991 640 48 -200 280/03 RMK AO2
14840KMKG MKG20050429201009704/29/05 20:10:31  5-MIN KMKG 300110Z 27004KT 10SM OVC110 06/M03 A2992 630 51 -200 280/04 RMK AO2
14840KMKG MKG20050429201509704/29/05 20:15:31  5-MIN KMKG 300115Z 26005KT 10SM OVC100 06/M03 A2992 630 51 -200 270/05 RMK AO2
14840KMKG MKG20050429202010504/29/05 20:20:31  5-MIN KMKG 300120Z 27006KT 10SM BKN100 OVC110 06/M03  A2992 630 51 -200 270/06 RMK AO2
14840KMKG MKG20050429202509704/29/05 20:25:31  5-MIN KMKG 300125Z 27005KT 10SM BKN100 06/M03 A2992 630 51 -200 270/05 RMK AO2
14840KMKG MKG20050429203009704/29/05 20:30:31  5-MIN KMKG 300130Z 26005KT 10SM BKN100 06/M03 A2992 630 53 -200 270/05 RMK AO2
14840KMKG MKG20050429203509704/29/05 20:35:31  5-MIN KMKG 300135Z 27006KT 10SM BKN100 06/M03 A2992 630 53 -200 280/06 RMK AO2
14840KMKG MKG20050429204009704/29/05 20:40:31  5-MIN KMKG 300140Z 27006KT 10SM BKN095 06/M03 A2993 630 51 -200 280/06 RMK AO2
14840KMKG MKG20050429204509704/29/05 20:45:31  5-MIN KMKG 300145Z 27005KT 10SM BKN095 06/M03 A2993 620 51 -200 280/05 RMK AO2
14840KMKG MKG20050429205012204/29/05 20:50:31  5-MIN KMKG 300150Z 28005KT 10SM BKN090 BKN110 06/M03  A2993 620 53 -200 290/05 RMK AO2 SLP138 T00611028
14840KMKG MKG20050429205512204/29/05 20:55:31  5-MIN KMKG 300155Z 28005KT 10SM BKN085 OVC110 06/M03  A2993 620 53 -200 290/05 RMK AO2 SLP139 T00611028
14840KMKG MKG20050429210011204/29/05 21:00:31  5-MIN KMKG 300200Z 27005KT 10SM FEW070 BKN080 OVC095  06/M03 A2993 620 53 -200 280/05 RMK AO2
14840KMKG MKG20050429210510504/29/05 21:05:31  5-MIN KMKG 300205Z 28005KT 10SM BKN075 OVC095 06/M02  A2993 620 55 -200 280/05 RMK AO2
14840KMKG MKG20050429211010504/29/05 21:10:31  5-MIN KMKG 300210Z 28005KT 10SM BKN070 OVC090 06/M02  A2993 620 55 -200 280/05 RMK AO2
14840KMKG MKG20050429211510504/29/05 21:15:31  5-MIN KMKG 300215Z 26005KT 10SM BKN070 OVC090 06/M02  A2994 620 55 -200 270/05 RMK AO2
14840KMKG MKG20050429212010504/29/05 21:20:31  5-MIN KMKG 300220Z 27005KT 10SM BKN075 OVC090 06/M02  A2994 610 55 -200 270/05 RMK AO2
14840KMKG MKG20050429212509704/29/05 21:25:31  5-MIN KMKG 300225Z 27005KT 10SM OVC080 06/M03 A2994 610 53 -200 270/05 RMK AO2
14840KMKG MKG20050429213010504/29/05 21:30:31  5-MIN KMKG 300230Z 28006KT 10SM BKN080 OVC095 06/M03  A2994 610 53 -200 280/06 RMK AO2
14840KMKG MKG20050429213509704/29/05 21:35:31  5-MIN KMKG 300235Z 29006KT 10SM OVC085 06/M03 A2994 610 53 -200 300/06 RMK AO2
14840KMKG MKG20050429214009704/29/05 21:40:31  5-MIN KMKG 300240Z 29006KT 10SM OVC085 06/M02 A2994 610 55 -200 290/06 RMK AO2
14840KMKG MKG20050429214509704/29/05 21:45:31  5-MIN KMKG 300245Z 30006KT 10SM OVC090 06/M03 A2994 610 53 -200 300/06 RMK AO2
14840KMKG MKG20050429215012004/29/05 21:50:31  5-MIN KMKG 300250Z 30005KT 10SM OVC085 06/M02 A2994 610 55 -200 300/05 RMK AO2 SLP143 T00611022 56001
14840KMKG MKG20050429215512004/29/05 21:55:31  5-MIN KMKG 300255Z 29005KT 10SM OVC090 06/M02 A2994 610 57 -300 300/05 RMK AO2 SLP143 T00561022 53007
14840KMKG MKG20050429220010504/29/05 22:00:31  5-MIN KMKG 300300Z 28004KT 10SM BKN090 OVC110 06/M03  A2994 610 55 -300 280/04 RMK AO2
14840KMKG MKG20050429220511204/29/05 22:05:31  5-MIN KMKG 300305Z 29004KT 10SM FEW080 BKN100 OVC120  06/M02 A2994 610 57 -300 290/04 RMK AO2
14840KMKG MKG20050429221010504/29/05 22:10:31  5-MIN KMKG 300310Z 29005KT 10SM BKN090 OVC110 06/M02  A2994 610 57 -300 290/05 RMK AO2
14840KMKG MKG20050429221511204/29/05 22:15:31  5-MIN KMKG 300315Z 28004KT 10SM FEW070 BKN090 OVC110  06/M02 A2994 610 57 -300 290/04 RMK AO2
14840KMKG MKG20050429222011204/29/05 22:20:31  5-MIN KMKG 300320Z 29003KT 10SM FEW070 BKN090 OVC110  06/M02 A2994 610 57 -300 290/03 RMK AO2
14840KMKG MKG20050429222510504/29/05 22:25:31  5-MIN KMKG 300325Z 29003KT 10SM FEW090 BKN110 06/M02  A2994 610 57 -300 300/03 RMK AO2
14840KMKG MKG20050429223010504/29/05 22:30:31  5-MIN KMKG 300330Z 29003KT 10SM FEW070 BKN100 06/M02  A2994 610 57 -300 290/03 RMK AO2
14840KMKG MKG20050429223509704/29/05 22:35:31  5-MIN KMKG 300335Z 00000KT 10SM BKN100 06/M02 A2994 610 59 -300 000/00 RMK AO2
14840KMKG MKG20050429224010504/29/05 22:40:31  5-MIN KMKG 300340Z 29003KT 10SM FEW070 BKN100 06/M02  A2994 610 59 -300 300/03 RMK AO2
14840KMKG MKG20050429224510504/29/05 22:45:31  5-MIN KMKG 300345Z 00000KT 10SM SCT090 BKN110 06/M02  A2994 610 57 -300 000/00 RMK AO2
14840KMKG MKG20050429225012204/29/05 22:50:31  5-MIN KMKG 300350Z 00000KT 10SM BKN090 OVC110 06/M02  A2994 610 59 -300 000/00 RMK AO2 SLP141 T00561017
14840KMKG MKG20050429225512204/29/05 22:55:31  5-MIN KMKG 300355Z 26003KT 10SM BKN090 BKN110 05/M02  A2994 610 62 -400 260/03 RMK AO2 SLP141 T00501017
14840KMKG MKG20050429230010504/29/05 23:00:31  5-MIN KMKG 300400Z 26003KT 10SM BKN090 OVC110 05/M02  A2994 610 62 -400 260/03 RMK AO2
14840KMKG MKG20050429230510504/29/05 23:05:31  5-MIN KMKG 300405Z 27003KT 10SM BKN090 OVC110 05/M02  A2994 610 62 -400 280/03 RMK AO2
14840KMKG MKG20050429231010504/29/05 23:10:31  5-MIN KMKG 300410Z 26003KT 10SM BKN090 OVC110 06/M02  A2994 620 57 -300 270/03 RMK AO2
14840KMKG MKG20050429231509704/29/05 23:15:31  5-MIN KMKG 300415Z 00000KT 10SM OVC090 06/M02 A2994 620 59 -300 000/00 RMK AO2
14840KMKG MKG20050429232009704/29/05 23:20:31  5-MIN KMKG 300420Z 00000KT 10SM OVC090 06/M02 A2994 620 59 -300 000/00 RMK AO2
14840KMKG MKG20050429232509704/29/05 23:25:31  5-MIN KMKG 300425Z 00000KT 10SM OVC090 05/M02 A2994 620 62 -400 000/00 RMK AO2
14840KMKG MKG20050429233010504/29/05 23:30:31  5-MIN KMKG 300430Z 29003KT 10SM BKN085 OVC100 05/M01  A2994 620 64 -400 300/03 RMK AO2
14840KMKG MKG20050429233510504/29/05 23:35:31  5-MIN KMKG 300435Z 00000KT 10SM BKN085 OVC110 05/M02  A2994 610 62 -400 000/00 RMK AO2
14840KMKG MKG20050429234010504/29/05 23:40:31  5-MIN KMKG 300440Z 00000KT 10SM SCT090 OVC110 06/M02  A2994 610 59 -300 000/00 RMK AO2
14840KMKG MKG20050429234510504/29/05 23:45:31  5-MIN KMKG 300445Z 00000KT 10SM FEW080 OVC110 05/M01  A2993 620 64 -400 000/00 RMK AO2
14840KMKG MKG20050429235013204/29/05 23:50:31  5-MIN KMKG 300450Z 00000KT 10SM FEW080 OVC110 05/M01  A2994 610 64 -400 000/00 RMK AO2 SLP141 T00501011 401111022
14840KMKG MKG20050429235512404/29/05 23:55:31  5-MIN KMKG 300455Z 00000KT 10SM OVC110 06/M02 A2994 620 59 -300 000/00 RMK AO2 SLP141 T00561017 401111022
14840KMKG MKG20050430000009704/30/05 00:00:32  5-MIN KMKG 300500Z 00000KT 10SM OVC110 05/M02 A2994 610 62 -400 000/00 RMK AO2
14840KMKG MKG20050430000509704/30/05 00:05:31  5-MIN KMKG 300505Z 00000KT 10SM OVC110 05/M01 A2994 610 64 -400 000/00 RMK AO2
14840KMKG MKG20050430001009704/30/05 00:10:31  5-MIN KMKG 300510Z 00000KT 10SM OVC110 04/M01 A2994 610 67 -400 000/00 RMK AO2
14840KMKG MKG20050430001509704/30/05 00:15:31  5-MIN KMKG 300515Z 00000KT 10SM OVC110 04/M02 A2994 620 64 -400 000/00 RMK AO2
14840KMKG MKG20050430002009704/30/05 00:20:31  5-MIN KMKG 300520Z 00000KT 10SM OVC110 04/M01 A2994 610 70 -500 000/00 RMK AO2
14840KMKG MKG20050430002509704/30/05 00:25:31  5-MIN KMKG 300525Z 00000KT 10SM BKN110 03/M01 A2994 620 72 -600 000/00 RMK AO2
14840KMKG MKG20050430003009704/30/05 00:30:31  5-MIN KMKG 300530Z 00000KT 10SM BKN110 04/M01 A2993 620 67 -400 000/00 RMK AO2
14840KMKG MKG20050430003509704/30/05 00:35:31  5-MIN KMKG 300535Z 00000KT 10SM SCT110 04/M02 A2993 620 67 -500 000/00 RMK AO2
14840KMKG MKG20050430004009704/30/05 00:40:31  5-MIN KMKG 300540Z 00000KT 10SM SCT110 03/M02 A2993 620 72 -600 000/00 RMK AO2
14840KMKG MKG20050430004509704/30/05 00:45:31  5-MIN KMKG 300545Z 00000KT 10SM FEW110 03/M02 A2993 620 72 -600 000/00 RMK AO2
14840KMKG MKG20050430005012904/30/05 00:50:31  5-MIN KMKG 300550Z 00000KT 10SM CLR 03/M02 A2993 620 70 -600 000/00 RMK AO2 SLP140 T00331017 10067 20028 53007
14840KMKG MKG20050430005512904/30/05 00:55:31  5-MIN KMKG 300555Z 00000KT 10SM CLR 03/M01 A2993 620 72 -600 000/00 RMK AO2 SLP139 T00331011 10067 20028 57004
14840KMKG MKG20050430010009404/30/05 01:00:31  5-MIN KMKG 300600Z 00000KT 10SM CLR 03/M01 A2993 620 72 -600 000/00 RMK AO2
14840KMKG MKG20050430010509404/30/05 01:05:31  5-MIN KMKG 300605Z 00000KT 10SM CLR 03/M01 A2993 620 75 -600 000/00 RMK AO2
14840KMKG MKG20050430011009404/30/05 01:10:31  5-MIN KMKG 300610Z 00000KT 10SM CLR 02/M01 A2993 620 78 -700 000/00 RMK AO2
14840KMKG MKG20050430011509404/30/05 01:15:31  5-MIN KMKG 300615Z 00000KT 10SM CLR 02/M01 A2993 620 82 -800 000/00 RMK AO2
14840KMKG MKG20050430012009404/30/05 01:20:31  5-MIN KMKG 300620Z 00000KT 10SM CLR 03/M01 A2993 630 75 -600 000/00 RMK AO2
14840KMKG MKG20050430012509404/30/05 01:25:31  5-MIN KMKG 300625Z 00000KT 10SM CLR 02/M01 A2993 630 78 -700 000/00 RMK AO2
14840KMKG MKG20050430013009704/30/05 01:30:31  5-MIN KMKG 300630Z 00000KT 10SM FEW120 02/M02 A2992 630 78 -800 000/00 RMK AO2
14840KMKG MKG20050430013509704/30/05 01:35:31  5-MIN KMKG 300635Z 00000KT 10SM FEW120 02/M02 A2992 630 75 -700 000/00 RMK AO2
14840KMKG MKG20050430014009404/30/05 01:40:31  5-MIN KMKG 300640Z 00000KT 10SM CLR 02/M02 A2992 630 78 -800 000/00 RMK AO2
14840KMKG MKG20050430014509404/30/05 01:45:31  5-MIN KMKG 300645Z 00000KT 10SM CLR 02/M02 A2992 630 78 -800 000/00 RMK AO2
14840KMKG MKG20050430015011104/30/05 01:50:31  5-MIN KMKG 300650Z 00000KT 10SM CLR 02/M02 A2992 630 78 -700 000/00 RMK AO2 SLP135 T00171017
14840KMKG MKG20050430015511104/30/05 01:55:31  5-MIN KMKG 300655Z 00000KT 10SM CLR 02/M02 A2992 630 78 -700 000/00 RMK AO2 SLP136 T00171017
14840KMKG MKG20050430020009404/30/05 02:00:31  5-MIN KMKG 300700Z 00000KT 10SM CLR 02/M02 A2992 630 78 -700 000/00 RMK AO2
14840KMKG MKG20050430020509404/30/05 02:05:31  5-MIN KMKG 300705Z 00000KT 10SM CLR 01/M02 A2992 640 78 -800 000/00 RMK AO2
14840KMKG MKG20050430021009404/30/05 02:10:31  5-MIN KMKG 300710Z 00000KT 10SM CLR 02/M02 A2991 640 78 -700 000/00 RMK AO2
14840KMKG MKG20050430021509404/30/05 02:15:31  5-MIN KMKG 300715Z 00000KT 10SM CLR 02/M02 A2991 640 75 -700 000/00 RMK AO2
14840KMKG MKG20050430022009404/30/05 02:20:31  5-MIN KMKG 300720Z 00000KT 10SM CLR 01/M02 A2991 640 78 -800 000/00 RMK AO2
14840KMKG MKG20050430022509404/30/05 02:25:31  5-MIN KMKG 300725Z 34003KT 10SM CLR 02/M02 A2991 640 75 -700 340/03 RMK AO2
14840KMKG MKG20050430023009404/30/05 02:30:31  5-MIN KMKG 300730Z 34003KT 10SM CLR 02/M02 A2991 640 75 -700 350/03 RMK AO2
14840KMKG MKG20050430023509404/30/05 02:35:31  5-MIN KMKG 300735Z 00000KT 10SM CLR 01/M02 A2991 640 78 -800 000/00 RMK AO2
14840KMKG MKG20050430024009404/30/05 02:40:31  5-MIN KMKG 300740Z 00000KT 10SM CLR 01/M02 A2991 640 82 -900 000/00 RMK AO2
14840KMKG MKG20050430024509404/30/05 02:45:31  5-MIN KMKG 300745Z 00000KT 10SM CLR 01/M02 A2991 640 85 -900 000/00 RMK AO2
14840KMKG MKG20050430025011204/30/05 02:50:31  5-MIN KMKG 300750Z 00000KT 10SM CLR 00/M02 A2991 640 85 -1000 000/00 RMK AO2 SLP134 T00001022
14840KMKG MKG20050430025511204/30/05 02:55:31  5-MIN KMKG 300755Z 00000KT 10SM CLR 00/M02 A2991 640 85 -1000 000/00 RMK AO2 SLP134 T00001022
14840KMKG MKG20050430030009604/30/05 03:00:31  5-MIN KMKG 300800Z 00000KT 10SM CLR M01/M02 A2991 640 88 -1000 000/00 RMK AO2
14840KMKG MKG20050430030509504/30/05 03:05:31  5-MIN KMKG 300805Z 36003KT 10SM CLR 00/M02 A2991 640 85 -1000 010/03 RMK AO2
14840KMKG MKG20050430031009504/30/05 03:10:31  5-MIN KMKG 300810Z 00000KT 10SM CLR 00/M02 A2991 640 85 -1000 000/00 RMK AO2
14840KMKG MKG20050430031509404/30/05 03:15:31  5-MIN KMKG 300815Z 35003KT 10SM CLR 00/M02 A2991 640 85 -900 350/03 RMK AO2
14840KMKG MKG20050430032009504/30/05 03:20:31  5-MIN KMKG 300820Z 00000KT 10SM CLR 00/M02 A2991 640 85 -1000 000/00 RMK AO2
14840KMKG MKG20050430032509604/30/05 03:25:31  5-MIN KMKG 300825Z 00000KT 10SM CLR M01/M02 A2991 640 88 -1000 000/00 RMK AO2
14840KMKG MKG20050430033009604/30/05 03:30:31  5-MIN KMKG 300830Z 00000KT 10SM CLR M01/M02 A2992 630 88 -1000 000/00 RMK AO2
14840KMKG MKG20050430033509504/30/05 03:35:31  5-MIN KMKG 300835Z 00000KT 10SM CLR 00/M02 A2992 630 85 -1000 000/00 RMK AO2
14840KMKG MKG20050430034009604/30/05 03:40:31  5-MIN KMKG 300840Z 00000KT 10SM CLR M01/M02 A2992 630 88 -1000 000/00 RMK AO2
14840KMKG MKG20050430034509604/30/05 03:45:31  5-MIN KMKG 300845Z 00000KT 10SM CLR M01/M03 A2992 630 88 -1100 000/00 RMK AO2
14840KMKG MKG20050430035011904/30/05 03:50:31  5-MIN KMKG 300850Z 00000KT 10SM CLR M01/M03 A2992 640 85 -1000 000/00 RMK AO2 SLP135 T10061028 57004
14840KMKG MKG20050430035511904/30/05 03:55:31  5-MIN KMKG 300855Z 00000KT 10SM CLR M01/M03 A2992 630 85 -1000 000/00 RMK AO2 SLP136 T10061028 55005
14840KMKG MKG20050430040009604/30/05 04:00:31  5-MIN KMKG 300900Z 00000KT 10SM CLR M01/M03 A2991 640 85 -1000 000/00 RMK AO2
14840KMKG MKG20050430040509604/30/05 04:05:31  5-MIN KMKG 300905Z 00000KT 10SM CLR M01/M03 A2992 640 85 -1000 000/00 RMK AO2
14840KMKG MKG20050430041009604/30/05 04:10:31  5-MIN KMKG 300910Z 00000KT 10SM CLR M01/M03 A2992 640 85 -1000 000/00 RMK AO2
14840KMKG MKG20050430041509604/30/05 04:15:31  5-MIN KMKG 300915Z 00000KT 10SM CLR M01/M02 A2991 640 88 -1000 000/00 RMK AO2
14840KMKG MKG20050430042009604/30/05 04:20:31  5-MIN KMKG 300920Z 00000KT 10SM CLR M01/M03 A2991 640 85 -1000 000/00 RMK AO2
14840KMKG MKG20050430042509604/30/05 04:25:31  5-MIN KMKG 300925Z 00000KT 10SM CLR M01/M03 A2991 640 85 -1000 000/00 RMK AO2
14840KMKG MKG20050430043009604/30/05 04:30:31  5-MIN KMKG 300930Z 00000KT 10SM CLR M01/M03 A2992 640 85 -1000 000/00 RMK AO2
14840KMKG MKG20050430043509604/30/05 04:35:31  5-MIN KMKG 300935Z 00000KT 10SM CLR M01/M03 A2991 640 85 -1000 000/00 RMK AO2
14840KMKG MKG20050430044009604/30/05 04:40:31  5-MIN KMKG 300940Z 00000KT 10SM CLR M01/M03 A2991 640 85 -1000 000/00 RMK AO2
14840KMKG MKG20050430044509604/30/05 04:45:31  5-MIN KMKG 300945Z 00000KT 10SM CLR M01/M03 A2991 640 85 -1000 000/00 RMK AO2
14840KMKG MKG20050430045011304/30/05 04:50:31  5-MIN KMKG 300950Z 00000KT 10SM CLR M01/M03 A2991 640 85 -1000 000/00 RMK AO2 SLP135 T10061028
14840KMKG MKG20050430045511304/30/05 04:55:31  5-MIN KMKG 300955Z 00000KT 10SM CLR M01/M03 A2991 640 88 -1100 000/00 RMK AO2 SLP135 T10111028
14840KMKG MKG20050430050009604/30/05 05:00:31  5-MIN KMKG 301000Z 00000KT 10SM CLR M01/M03 A2991 640 88 -1100 000/00 RMK AO2
14840KMKG MKG20050430050509604/30/05 05:05:31  5-MIN KMKG 301005Z 00000KT 10SM CLR M01/M03 A2991 640 88 -1100 000/00 RMK AO2
14840KMKG MKG20050430051009604/30/05 05:10:31  5-MIN KMKG 301010Z 00000KT 10SM CLR M02/M03 A2991 640 92 -1200 000/00 RMK AO2
14840KMKG MKG20050430051509604/30/05 05:15:31  5-MIN KMKG 301015Z 00000KT 10SM CLR M01/M03 A2991 640 88 -1100 000/00 RMK AO2
14840KMKG MKG20050430052009604/30/05 05:20:31  5-MIN KMKG 301020Z 00000KT 10SM CLR M01/M03 A2991 640 81 -1000 000/00 RMK AO2
14840KMKG MKG20050430052509604/30/05 05:25:31  5-MIN KMKG 301025Z 00000KT 10SM CLR M01/M03 A2991 640 85 -1100 000/00 RMK AO2
14840KMKG MKG20050430053009604/30/05 05:30:31  5-MIN KMKG 301030Z 00000KT 10SM CLR M01/M03 A2992 630 85 -1100 000/00 RMK AO2
14840KMKG MKG20050430053509604/30/05 05:35:31  5-MIN KMKG 301035Z 00000KT 10SM CLR M01/M04 A2992 630 81 -1100 000/00 RMK AO2
14840KMKG MKG20050430054009604/30/05 05:40:31  5-MIN KMKG 301040Z 00000KT 10SM CLR M01/M03 A2992 630 85 -1100 000/00 RMK AO2
14840KMKG MKG20050430054509604/30/05 05:45:31  5-MIN KMKG 301045Z 00000KT 10SM CLR M01/M03 A2992 630 85 -1100 000/00 RMK AO2
14840KMKG MKG20050430055011304/30/05 05:50:31  5-MIN KMKG 301050Z 00000KT 10SM CLR M01/M03 A2992 630 81 -1000 000/00 RMK AO2 SLP137 T10061033
14840KMKG MKG20050430055511304/30/05 05:55:31  5-MIN KMKG 301055Z 00000KT 10SM CLR M01/M03 A2992 630 81 -1000 000/00 RMK AO2 SLP137 T10061033
14840KMKG MKG20050430060009604/30/05 06:00:31  5-MIN KMKG 301100Z 00000KT 10SM CLR M01/M03 A2992 630 81 -1000 000/00 RMK AO2
14840KMKG MKG20050430060509604/30/05 06:05:31  5-MIN KMKG 301105Z 00000KT 10SM CLR M01/M03 A2992 630 88 -1100 000/00 RMK AO2
14840KMKG MKG20050430061009604/30/05 06:10:31  5-MIN KMKG 301110Z 00000KT 10SM CLR M01/M03 A2992 630 88 -1100 000/00 RMK AO2
14840KMKG MKG20050430061509604/30/05 06:15:31  5-MIN KMKG 301115Z 00000KT 10SM CLR M02/M03 A2993 630 92 -1200 000/00 RMK AO2
14840KMKG MKG20050430062009604/30/05 06:20:31  5-MIN KMKG 301120Z 00000KT 10SM CLR M01/M03 A2993 620 88 -1100 000/00 RMK AO2
14840KMKG MKG20050430062509604/30/05 06:25:31  5-MIN KMKG 301125Z 00000KT 10SM CLR M01/M03 A2993 620 88 -1100 000/00 RMK AO2
14840KMKG MKG20050430063009604/30/05 06:30:31  5-MIN KMKG 301130Z 00000KT 10SM CLR M01/M03 A2993 620 88 -1100 000/00 RMK AO2
14840KMKG MKG20050430063509604/30/05 06:35:31  5-MIN KMKG 301135Z 00000KT 10SM CLR M01/M02 A2993 620 88 -1000 000/00 RMK AO2
14840KMKG MKG20050430064009604/30/05 06:40:31  5-MIN KMKG 301140Z 00000KT 10SM CLR M01/M02 A2993 620 88 -1000 000/00 RMK AO2
14840KMKG MKG20050430064509504/30/05 06:45:31  5-MIN KMKG 301145Z 00000KT 10SM CLR 00/M02 A2993 620 88 -1000 000/00 RMK AO2
14840KMKG MKG20050430065012904/30/05 06:50:31  5-MIN KMKG 301150Z 00000KT 10SM CLR 01/M01 A2993 620 89 -900 000/00 RMK AO2 SLP140 T00061011 10033 21017 55005
14840KMKG MKG20050430065512904/30/05 06:55:31  5-MIN KMKG 301155Z 00000KT 10SM CLR 01/M01 A2993 620 85 -800 000/00 RMK AO2 SLP139 T00111011 10033 21017 53003
14840KMKG MKG20050430070009404/30/05 07:00:31  5-MIN KMKG 301200Z 00000KT 10SM CLR 02/M01 A2993 620 78 -700 000/00 RMK AO2
14840KMKG MKG20050430070509404/30/05 07:05:31  5-MIN KMKG 301205Z 00000KT 10SM CLR 03/M01 A2993 630 79 -600 000/00 RMK AO2
14840KMKG MKG20050430071009404/30/05 07:10:31  5-MIN KMKG 301210Z 00000KT 10SM CLR 04/M01 A2992 630 73 -500 000/00 RMK AO2
14840KMKG MKG20050430071509404/30/05 07:15:31  5-MIN KMKG 301215Z 34003KT 10SM CLR 04/M02 A2992 630 64 -400 350/03 RMK AO2
14840KMKG MKG20050430072009404/30/05 07:20:31  5-MIN KMKG 301220Z 00000KT 10SM CLR 05/M02 A2992 630 59 -300 000/00 RMK AO2
14840KMKG MKG20050430072509404/30/05 07:25:31  5-MIN KMKG 301225Z 00000KT 10SM CLR 05/M03 A2992 630 57 -300 000/00 RMK AO2
14840KMKG MKG20050430073009404/30/05 07:30:31  5-MIN KMKG 301230Z 00000KT 10SM CLR 06/M03 A2992 630 55 -300 000/00 RMK AO2
14840KMKG MKG20050430073509404/30/05 07:35:31  5-MIN KMKG 301235Z 00000KT 10SM CLR 06/M03 A2992 630 51 -200 000/00 RMK AO2
14840KMKG MKG20050430074009404/30/05 07:40:31  5-MIN KMKG 301240Z 00000KT 10SM CLR 07/M03 A2993 630 49 -100 000/00 RMK AO2
14840KMKG MKG20050430074509404/30/05 07:45:31  5-MIN KMKG 301245Z 00000KT 10SM CLR 07/M04 A2993 620 47 -100 000/00 RMK AO2
14840KMKG MKG20050430075011104/30/05 07:50:31  5-MIN KMKG 301250Z 12003KT 10SM CLR 07/M04 A2993 620 45 -100 130/03 RMK AO2 SLP138 T00721039
14840KMKG MKG20050430075511104/30/05 07:55:31  5-MIN KMKG 301255Z 00000KT 10SM CLR 07/M04 A2993 620 47 -100 000/00 RMK AO2 SLP138 T00671039
14840KMKG MKG20050430080009404/30/05 08:00:31  5-MIN KMKG 301300Z 00000KT 10SM CLR 07/M04 A2993 620 43 -100 000/00 RMK AO2
14840KMKG MKG20050430080509104/30/05 08:05:31  5-MIN KMKG 301305Z 00000KT 10SM CLR 08/M04 A2993 620 41 0 000/00 RMK AO2
14840KMKG MKG20050430081009104/30/05 08:10:31  5-MIN KMKG 301310Z VRB03KT 10SM CLR 08/M05 A2993 620 40 0 VRB/03 RMK AO2
14840KMKG MKG20050430081509104/30/05 08:15:31  5-MIN KMKG 301315Z 35003KT 10SM CLR 08/M05 A2993 620 38 0 360/03 RMK AO2
14840KMKG MKG20050430082009104/30/05 08:20:31  5-MIN KMKG 301320Z 31004KT 10SM CLR 08/M05 A2993 620 38 0 320/04 RMK AO2
14840KMKG MKG20050430082509104/30/05 08:25:31  5-MIN KMKG 301325Z VRB03KT 10SM CLR 08/M04 A2993 620 40 0 VRB/03 RMK AO2
14840KMKG MKG20050430083009104/30/05 08:30:31  5-MIN KMKG 301330Z VRB04KT 10SM CLR 08/M05 A2993 620 38 0 VRB/04 RMK AO2
14840KMKG MKG20050430083509104/30/05 08:35:31  5-MIN KMKG 301335Z 32003KT 10SM CLR 08/M04 A2993 620 40 0 320/03 RMK AO2
14840KMKG MKG20050430084009104/30/05 08:40:31  5-MIN KMKG 301340Z 31005KT 10SM CLR 08/M04 A2992 630 40 0 310/05 RMK AO2
14840KMKG MKG20050430084509304/30/05 08:45:31  5-MIN KMKG 301345Z VRB04KT 10SM CLR 09/M04 A2992 630 40 100 VRB/04 RMK AO2
14840KMKG MKG20050430085011004/30/05 08:50:31  5-MIN KMKG 301350Z 32006KT 10SM CLR 09/M03 A2992 630 42 100 320/06 RMK AO2 SLP136 T00891033
14840KMKG MKG20050430085511004/30/05 08:55:31  5-MIN KMKG 301355Z VRB06KT 10SM CLR 09/M03 A2992 630 40 200 VRB/06 RMK AO2 SLP135 T00941033
14840KMKG MKG20050430090009304/30/05 09:00:31  5-MIN KMKG 301400Z VRB04KT 10SM CLR 09/M03 A2992 630 42 100 VRB/04 RMK AO2
14840KMKG MKG20050430090509304/30/05 09:05:31  5-MIN KMKG 301405Z 28008KT 10SM CLR 09/M03 A2992 630 40 200 290/08 RMK AO2
14840KMKG MKG20050430091009304/30/05 09:10:31  5-MIN KMKG 301410Z 28007KT 10SM CLR 09/M03 A2992 630 42 100 290/07 RMK AO2
14840KMKG MKG20050430091509304/30/05 09:15:31  5-MIN KMKG 301415Z 29005KT 10SM CLR 09/M03 A2992 630 42 100 290/05 RMK AO2
14840KMKG MKG20050430092009304/30/05 09:20:31  5-MIN KMKG 301420Z 32006KT 10SM CLR 09/M03 A2992 630 40 200 320/06 RMK AO2
14840KMKG MKG20050430092510904/30/05 09:25:31  5-MIN KMKG 301425Z 28008KT 260V320 10SM CLR 10/M03 A2992 630 39 200 280/08 260V320 RMK AO2
14840KMKG MKG20050430093009304/30/05 09:30:31  5-MIN KMKG 301430Z 26007KT 10SM CLR 09/M03 A2992 630 40 200 260/07 RMK AO2
14840KMKG MKG20050430093509304/30/05 09:35:31  5-MIN KMKG 301435Z 30007KT 10SM CLR 10/M03 A2992 630 40 200 300/07 RMK AO2
14840KMKG MKG20050430094009304/30/05 09:40:31  5-MIN KMKG 301440Z 28007KT 10SM CLR 10/M03 A2992 630 40 200 280/07 RMK AO2
14840KMKG MKG20050430094509304/30/05 09:45:31  5-MIN KMKG 301445Z 27007KT 10SM CLR 10/M03 A2992 630 40 200 280/07 RMK AO2
14840KMKG MKG20050430095011604/30/05 09:50:31  5-MIN KMKG 301450Z 29008KT 10SM CLR 10/M03 A2992 630 40 200 290/08 RMK AO2 SLP134 T01001028 53003
14840KMKG MKG20050430095513204/30/05 09:55:31  5-MIN KMKG 301455Z 28008KT 240V310 10SM CLR 10/M03 A2992 640 40 200 280/08 240V310 RMK AO2 SLP134 T01001028 58004
14840KMKG MKG20050430100009304/30/05 10:00:31  5-MIN KMKG 301500Z 25008KT 10SM CLR 10/M02 A2992 630 42 200 260/08 RMK AO2
14840KMKG MKG20050430100509304/30/05 10:05:31  5-MIN KMKG 301505Z 25008KT 10SM CLR 10/M02 A2992 630 42 200 250/08 RMK AO2
14840KMKG MKG20050430101009304/30/05 10:10:31  5-MIN KMKG 301510Z 25009KT 10SM CLR 10/M02 A2992 630 42 200 260/09 RMK AO2
14840KMKG MKG20050430101509304/30/05 10:15:31  5-MIN KMKG 301515Z 25009KT 10SM CLR 09/M02 A2992 630 44 200 260/09 RMK AO2
14840KMKG MKG20050430102009304/30/05 10:20:31  5-MIN KMKG 301520Z 27009KT 10SM CLR 09/M03 A2992 630 42 200 270/09 RMK AO2
14840KMKG MKG20050430102509304/30/05 10:25:31  5-MIN KMKG 301525Z 27009KT 10SM CLR 10/M02 A2992 630 42 200 280/09 RMK AO2
14840KMKG MKG20050430103009304/30/05 10:30:31  5-MIN KMKG 301530Z 28009KT 10SM CLR 10/M02 A2992 630 42 200 280/09 RMK AO2
14840KMKG MKG20050430103510904/30/05 10:35:31  5-MIN KMKG 301535Z 27008KT 230V290 10SM CLR 10/M02 A2992 630 42 200 270/08 230V290 RMK AO2
14840KMKG MKG20050430104009304/30/05 10:40:31  5-MIN KMKG 301540Z 25010KT 10SM CLR 10/M02 A2992 630 42 200 260/10 RMK AO2
14840KMKG MKG20050430104509304/30/05 10:45:31  5-MIN KMKG 301545Z 25010KT 10SM CLR 10/M02 A2993 630 42 200 250/10 RMK AO2
14840KMKG MKG20050430105011004/30/05 10:50:31  5-MIN KMKG 301550Z 25010KT 10SM CLR 10/M02 A2993 620 42 200 250/10 RMK AO2 SLP137 T01001022
14840KMKG MKG20050430105511304/30/05 10:55:31  5-MIN KMKG 301555Z 26011KT 10SM SCT095 10/M02 A2993 620 42 200 260/11 RMK AO2 SLP138 T01001022
14840KMKG MKG20050430110009304/30/05 11:00:31  5-MIN KMKG 301600Z 25012KT 10SM CLR 10/M02 A2993 620 42 200 250/12 RMK AO2
14840KMKG MKG20050430110509304/30/05 11:05:31  5-MIN KMKG 301605Z 25010KT 10SM CLR 11/M02 A2993 620 42 300 260/10 RMK AO2
14840KMKG MKG20050430111009304/30/05 11:10:31  5-MIN KMKG 301610Z 26009KT 10SM CLR 11/M02 A2993 620 42 300 270/09 RMK AO2
14840KMKG MKG20050430111509304/30/05 11:15:31  5-MIN KMKG 301615Z 25010KT 10SM CLR 10/M02 A2993 620 44 200 260/10 RMK AO2
14840KMKG MKG20050430112009304/30/05 11:20:31  5-MIN KMKG 301620Z 25010KT 10SM CLR 10/M02 A2993 620 42 200 260/10 RMK AO2
14840KMKG MKG20050430112509604/30/05 11:25:31  5-MIN KMKG 301625Z 25011KT 10SM FEW080 11/M02 A2993 620 42 300 250/11 RMK AO2
14840KMKG MKG20050430113009604/30/05 11:30:31  5-MIN KMKG 301630Z 25010KT 10SM SCT080 11/M02 A2993 620 40 300 250/10 RMK AO2
14840KMKG MKG20050430113509604/30/05 11:35:31  5-MIN KMKG 301635Z 27010KT 10SM SCT080 11/M02 A2993 620 40 300 280/10 RMK AO2
14840KMKG MKG20050430114009604/30/05 11:40:31  5-MIN KMKG 301640Z 26010KT 10SM SCT080 11/M02 A2993 620 40 300 260/10 RMK AO2
14840KMKG MKG20050430114509604/30/05 11:45:31  5-MIN KMKG 301645Z 27013KT 10SM SCT080 10/M02 A2993 620 42 200 270/13 RMK AO2
14840KMKG MKG20050430115011304/30/05 11:50:31  5-MIN KMKG 301650Z 28011KT 10SM BKN080 10/M03 A2993 620 40 200 290/11 RMK AO2 SLP140 T01001028
14840KMKG MKG20050430115511304/30/05 11:55:31  5-MIN KMKG 301655Z 27010KT 10SM BKN080 10/M02 A2993 620 42 200 270/10 RMK AO2 SLP139 T01001022
14840KMKG MKG20050430120009604/30/05 12:00:31  5-MIN KMKG 301700Z 26010KT 10SM BKN075 10/M02 A2993 620 42 200 270/10 RMK AO2
14840KMKG MKG20050430120509604/30/05 12:05:31  5-MIN KMKG 301705Z 29011KT 10SM BKN075 10/M02 A2993 620 42 200 290/11 RMK AO2
14840KMKG MKG20050430121009604/30/05 12:10:31  5-MIN KMKG 301710Z 28011KT 10SM BKN075 10/M02 A2993 620 42 200 280/11 RMK AO2
14840KMKG MKG20050430121509604/30/05 12:15:31  5-MIN KMKG 301715Z 26011KT 10SM BKN070 09/M02 A2993 620 45 100 260/11 RMK AO2
14840KMKG MKG20050430122009604/30/05 12:20:31  5-MIN KMKG 301720Z 27010KT 10SM BKN070 09/M02 A2993 620 47 100 270/10 RMK AO2
14840KMKG MKG20050430122509604/30/05 12:25:31  5-MIN KMKG 301725Z 28010KT 10SM BKN070 09/M02 A2993 620 47 100 280/10 RMK AO2
14840KMKG MKG20050430123009604/30/05 12:30:31  5-MIN KMKG 301730Z 28011KT 10SM BKN070 09/M02 A2993 620 47 100 290/11 RMK AO2
14840KMKG MKG20050430123510204/30/05 12:35:31  5-MIN KMKG 301735Z 27012KT 10SM FEW049 BKN070 08/M02  A2993 620 49 0 270/12 RMK AO2
14840KMKG MKG20050430124010904/30/05 12:40:31  5-MIN KMKG 301740Z 28011KT 10SM FEW047 SCT055 BKN070  08/M01 A2993 620 51 0 280/11 RMK AO2
14840KMKG MKG20050430124509404/30/05 12:45:31  5-MIN KMKG 301745Z 27012KT 10SM SCT045 08/M01 A2993 620 53 0 280/12 RMK AO2
14840KMKG MKG20050430125017404/30/05 12:50:31  5-MIN KMKG 301750Z 29009KT 10SM -RA SCT039 BKN048 08/M01 A2993 620 55 0 300/09 RMK AO2 RAB48 CIG 039 RWY 14 SLP140 P0000 60000  T00781006 10106 20011 58004
14840KMKG MKG20050430125515904/30/05 12:55:31  5-MIN KMKG 301755Z 30007KT 10SM -RA SCT039 SCT048 08/M01 A2993 630 53 0 310/07 RMK AO2 RAB48 SLP138 P0000 60000 T00781011 10106  20011 50004
14840KMKG MKG20050430130010804/30/05 13:00:31  5-MIN KMKG 301800Z 30007KT 10SM SCT039 08/M01 A2993 630 51 0 310/07 RMK AO2 RAE1758 P0000
14840KMKG MKG20050430130511004/30/05 13:05:31  5-MIN KMKG 301805Z 30006KT 10SM SCT039 09/M01 A2992 630 49 100 300/06 RMK AO2 RAE1758 P0000
14840KMKG MKG20050430131011804/30/05 13:10:31  5-MIN KMKG 301810Z 30006KT 10SM FEW050 SCT080 09/M01  A2992 630 47 200 300/06 RMK AO2 RAE1758 P0000
14840KMKG MKG20050430131511804/30/05 13:15:31  5-MIN KMKG 301815Z 29007KT 10SM FEW060 SCT085 10/M01  A2992 630 46 200 300/07 RMK AO2 RAE1758 P0000
14840KMKG MKG20050430132013404/30/05 13:20:31  5-MIN KMKG 301820Z 27007KT 230V300 10SM FEW075 SCT085  10/M01 A2991 640 46 200 270/07 230V300 RMK AO2 RAE1758 P0000
14840KMKG MKG20050430132511004/30/05 13:25:31  5-MIN KMKG 301825Z 29007KT 10SM FEW085 10/M01 A2991 640 47 200 290/07 RMK AO2 RAE1758 P0000
14840KMKG MKG20050430133011004/30/05 13:30:31  5-MIN KMKG 301830Z 26008KT 10SM FEW085 11/00 A2991 640  48 300 260/08 RMK AO2 RAE1758 P0000
